"ID","Address","City","State","Zip","lat","long","id","input_address","match_indicator","match_type","matched_address","tiger_line_id","tiger_side"
101501,"19778 LOXAHATCHEE POINTE DR","JUPITER","FL",33458,26.9680820680001,-80.13073969,1,"19778 LOXAHATCHEE POINTE DR, JUPITER, FL, 33458","Match","Exact","19778 LOXAHATCHEE POINTE DR, JUPITER, FL, 33458",115581918,"L"
101502,"1978 236TH AVENUE NE","BETHEL","MN",55005,45.3979922400001,-93.219606071,2,"1978 236TH AVENUE NE, BETHEL, MN, 55005","Match","Exact","1978 236TH AVE NE, BETHEL, MN, 55005",627108186,"R"
101503,"1978 BURNS VIEW LANE","LAWRENCEVILLE","GA",30044,33.9265419220001,-84.0486092899999,3,"1978 BURNS VIEW LANE, LAWRENCEVILLE, GA, 30044","Match","Non_Exact","1978 BURNS VIEW CT, LAWRENCEVILLE, GA, 30044",636110347,"R"
101504,"1978 DEL AMO BOULEVARD UNIT A","TORRANCE","CA",90501,33.8468246780001,-118.316764521,4,"1978 DEL AMO BOULEVARD UNIT A, TORRANCE, CA, 90501","Match","Non_Exact","1978 DEL AMO BLVD, TORRANCE, CA, 90501",142757734,"L"
101505,"1978 EAGLE WAY","MANASSAS","VA",20110,NA,NA,5,"1978 EAGLE WAY, MANASSAS, VA, 20110","No_Match",NA,NA,NA,NA
101506,"1978 GLEN ROCK RD","GLEN ROCK","PA",17327,39.8093608710001,-76.72542542,6,"1978 GLEN ROCK RD, GLEN ROCK, PA, 17327","Match","Exact","1978 GLEN ROCK RD, GLEN ROCK, PA, 17327",88770694,"L"
101507,"1978 ROAN DR","LANCASTER","TX",75134,NA,NA,7,"1978 ROAN DR, LANCASTER, TX, 75134","No_Match",NA,NA,NA,NA
101508,"1978 S AUSTIN AVE","GEORGETOWN","TX",78626,30.625992985,-97.678374091,8,"1978 S AUSTIN AVE, GEORGETOWN, TX, 78626","Match","Exact","1978 S AUSTIN AVE, GEORGETOWN, TX, 78626",126521682,"L"
101509,"1978 SPRINGFIELD AVE","MAPLEWOOD","NJ",7040,40.719968663,-74.274651507,9,"1978 SPRINGFIELD AVE, MAPLEWOOD, NJ, 7040","Match","Exact","1978 SPRINGFIELD AVE, MAPLEWOOD, NJ, 07040",63462614,"R"
101510,"19781 CAPRICE DRIVE","YORBA LINDA","CA",92886,33.887853508,-117.788574711,10,"19781 CAPRICE DRIVE, YORBA LINDA, CA, 92886","Match","Exact","19781 CAPRICE DR, YORBA LINDA, CA, 92886",143996671,"L"
101511,"19783 LANCASTER RD","LIVE OAK","FL",32060,30.267618967,-83.155688777,11,"19783 LANCASTER RD, LIVE OAK, FL, 32060","Match","Exact","19783 LANCASTER RD, LIVE OAK, FL, 32060",651000650,"L"
101512,"19785 770TH AVE","SACRED HEART","MN",56285,44.701616173,-95.282246994,12,"19785 770TH AVE, SACRED HEART, MN, 56285","Match","Exact","19785 770TH AVE, SACRED HEART, MN, 56285",605045530,"L"
101513,"19785 TWELEVE MILE ROAD","SOUTHFIELD","MI",48076,NA,NA,13,"19785 TWELEVE MILE ROAD, SOUTHFIELD, MI, 48076","No_Match",NA,NA,NA,NA
101514,"19785 W 12 MILE RD / STE 332","SOUTHFIELD","MI",48076,42.501993068,-83.239829303,14,"19785 W 12 MILE RD / STE 332, SOUTHFIELD, MI, 48076","Match","Non_Exact","19785 W 12 MILE RD, SOUTHFIELD, MI, 48076",641240858,"L"
101515,"19785 W 12 MILE ROAD NO 521","SOUTHFIELD","MI",48076,NA,NA,15,"19785 W 12 MILE ROAD NO 521, SOUTHFIELD, MI, 48076","No_Match",NA,NA,NA,NA
101516,"19785 W 12 MILE ROAD SUITE 356","SOUTHFIELD","MI",48076,42.501993068,-83.239829303,16,"19785 W 12 MILE ROAD SUITE 356, SOUTHFIELD, MI, 48076","Match","Non_Exact","19785 W 12 MILE RD, SOUTHFIELD, MI, 48076",641240858,"L"
101517,"19785 W 12MILE RD STE 659","SOUTHFIELD","MI",48076,42.501993068,-83.239829303,17,"19785 W 12MILE RD STE 659, SOUTHFIELD, MI, 48076","Match","Non_Exact","19785 W 12 MILE RD, SOUTHFIELD, MI, 48076",641240858,"L"
101518,"19785 W TWELVE MILE RD STE 423","SOUTHFIELD","MI",48076,42.501993068,-83.239829303,18,"19785 W TWELVE MILE RD STE 423, SOUTHFIELD, MI, 48076","Match","Non_Exact","19785 W 12 MILE RD, SOUTHFIELD, MI, 48076",641240858,"L"
101519,"19785 WEST 12 MILE ROAD 481","SOUTHFIELD","MI",48076,42.5019931960001,-83.2398243769999,19,"19785 WEST 12 MILE ROAD 481, SOUTHFIELD, MI, 48076","Match","Exact","19785 W 12 MILE RD, SOUTHFIELD, MI, 48076",641240858,"L"
101520,"19785 WEST 12 MILE ROAD","SOUTHFIELD","MI",48076,42.5019931960001,-83.2398243769999,20,"19785 WEST 12 MILE ROAD, SOUTHFIELD, MI, 48076","Match","Exact","19785 W 12 MILE RD, SOUTHFIELD, MI, 48076",641240858,"L"
101521,"19786 WILLOWDALE PLACE","ASHBURN","VA",20147,39.067212533,-77.4960449659999,21,"19786 WILLOWDALE PLACE, ASHBURN, VA, 20147","Match","Exact","19786 WILLOWDALE PL, ASHBURN, VA, 20147",62354999,"L"
101522,"1979 CORONA VISTA","EL CAJON","CA",92019,32.761216183,-116.911364746,22,"1979 CORONA VISTA, EL CAJON, CA, 92019","Match","Exact","1979 CORONA VIS, EL CAJON, CA, 92019",195663632,"L"
101523,"1979 FOSTER AVENUE","VENTURA","CA",93001,34.281831051,-119.269464432,23,"1979 FOSTER AVENUE, VENTURA, CA, 93001","Match","Exact","1979 FOSTER AVE, VENTURA, CA, 93001",109951525,"L"
101524,"1979 GREENFIELD DR","EL CAJON","CA",92019,32.8051929970001,-116.908578497,24,"1979 GREENFIELD DR, EL CAJON, CA, 92019","Match","Exact","1979 GREENFIELD DR, EL CAJON, CA, 92019",649822471,"R"
101525,"1979 HIGH MEADOW TRAIL","SOUTH LAKE TAHOE","CA",96150,38.899637651,-119.958652822,25,"1979 HIGH MEADOW TRAIL, SOUTH LAKE TAHOE, CA, 96150","Match","Exact","1979 HIGH MEADOW TRL, SOUTH LAKE TAHOE, CA, 96150",133037038,"R"
101526,"1979 LAKESIDE PARKWAY SUITE 180","TUCKER","GA",30084,33.8396741130001,-84.239477297,26,"1979 LAKESIDE PARKWAY SUITE 180, TUCKER, GA, 30084","Match","Exact","1979 LAKESIDE PKWY, TUCKER, GA, 30084",23413094,"R"
101527,"1979 MARYLAND OAKS CIRCLE","SAINT LOUIS","MO",63146,NA,NA,27,"1979 MARYLAND OAKS CIRCLE, SAINT LOUIS, MO, 63146","No_Match",NA,NA,NA,NA
101528,"1979 N MILL ST STE 107","NAPERVILLE","IL",60563,41.804852655,-88.156862481,28,"1979 N MILL ST STE 107, NAPERVILLE, IL, 60563","Match","Exact","1979 MILL ST, NAPERVILLE, IL, 60563",112528218,"L"
101529,"1979 N MILL ST SUITE 107","NAPERVILLE","IL",60563,41.804852655,-88.156862481,29,"1979 N MILL ST SUITE 107, NAPERVILLE, IL, 60563","Match","Exact","1979 MILL ST, NAPERVILLE, IL, 60563",112528218,"L"
101530,"1979 OAKBLUFF DRIVE","AUSTELL","GA",30106,33.8293990600001,-84.6102208569999,30,"1979 OAKBLUFF DRIVE, AUSTELL, GA, 30106","Match","Non_Exact","1979 OAKBLUFF DR SW, AUSTELL, GA, 30106",614186249,"L"
101531,"1979 OLD FAIRFIELD RD","BEAVERCREEK","OH",45432,39.747380934,-84.056519006,31,"1979 OLD FAIRFIELD RD, BEAVERCREEK, OH, 45432","Match","Exact","1979 OLD FAIRFIELD RD, BEAVERCREEK, OH, 45432",143420420,"L"
101532,"1979-A HENDERSONVILLE ROAD","ASHEVILLE","NC",28803,35.488642853,-82.524285194,32,"1979-A HENDERSONVILLE ROAD, ASHEVILLE, NC, 28803","Match","Exact","1979 HENDERSONVILLE RD, ASHEVILLE, NC, 28803",36902997,"L"
101533,"19790 GRAND VIEW","TOPANGA","CA",90290,NA,NA,33,"19790 GRAND VIEW, TOPANGA, CA, 90290","No_Match",NA,NA,NA,NA
101534,"19790 KIETH HARROW BLVD","KATY","TX",77449,29.846360357,-95.715301613,34,"19790 KIETH HARROW BLVD, KATY, TX, 77449","Match","Exact","19790 KIETH HARROW BLVD, KATY, TX, 77449",642104758,"R"
101535,"19790 SW 101ST AVENUE","CUTLER BAY","FL",33157,25.5831003260001,-80.355238358,35,"19790 SW 101ST AVENUE, CUTLER BAY, FL, 33157","Match","Exact","19790 SW 101ST AVE, CUTLER BAY, FL, 33157",115995392,"R"
101536,"19790 WESTCHESTER DR","CLINTON TWP","MI",48038,42.6101981800001,-82.92126114,36,"19790 WESTCHESTER DR, CLINTON TWP, MI, 48038","Match","Exact","19790 WESTCHESTER DR, CLINTON TOWNSHIP, MI, 48038",110711139,"R"
101537,"19793 GOULBURN","DETROIT","MI",48205,42.4411275750001,-82.9939028759999,37,"19793 GOULBURN, DETROIT, MI, 48205","Match","Non_Exact","19793 GOULBURN ST, DETROIT, MI, 48205",95467618,"L"
101538,"19795 SEDGEFIELD TERRACE","BOCA RATON","FL",33498,26.3814788220001,-80.212073483,38,"19795 SEDGEFIELD TERRACE, BOCA RATON, FL, 33498","Match","Exact","19795 SEDGEFIELD TER, BOCA RATON, FL, 33498",115291748,"R"
101539,"198 12TH AVENUE","NEWARK","NJ",7107,40.7443022790001,-74.1969280069999,39,"198 12TH AVENUE, NEWARK, NJ, 7107","Match","Exact","198 12TH AVE, NEWARK, NJ, 07107",63465654,"L"
101540,"198 ANDERSON AVENUE","SYRACUSE","NY",13205,43.007757693,-76.1471094729999,40,"198 ANDERSON AVENUE, SYRACUSE, NY, 13205","Match","Exact","198 ANDERSON AVE, SYRACUSE, NY, 13205",642832701,"R"
101541,"198 BELMONT AVE","SPRINGFIELD","MA",1108,42.0884555970001,-72.570412515,41,"198 BELMONT AVE, SPRINGFIELD, MA, 1108","Match","Exact","198 BELMONT AVE, SPRINGFIELD, MA, 01108",4035999,"R"
101542,"198 BENJI DRIVE","TAMASSEE","SC",29686,34.9139680920001,-83.035956136,42,"198 BENJI DRIVE, TAMASSEE, SC, 29686","Match","Exact","198 BENJI DR, TAMASSEE, SC, 29686",647237993,"L"
101543,"198 BLACK GAP RD LOT 65","FAYETTEVILLE","PA",17222,39.9091947790001,-77.51838816,43,"198 BLACK GAP RD LOT 65, FAYETTEVILLE, PA, 17222","Match","Exact","198 BLACK GAP RD, FAYETTEVILLE, PA, 17222",60084944,"R"
101544,"198 BUTTERNUT LANE","BLAIRSVILLE","GA",30512,34.903678165,-83.904200052,44,"198 BUTTERNUT LANE, BLAIRSVILLE, GA, 30512","Match","Exact","198 BUTTERNUT LN, BLAIRSVILLE, GA, 30512",85279218,"R"
101545,"198 CAMBRIDGE STREET","WEST HARTFORD","CT",6110,41.727783177,-72.731501458,45,"198 CAMBRIDGE STREET, WEST HARTFORD, CT, 6110","Match","Exact","198 CAMBRIDGE ST, WEST HARTFORD, CT, 06110",3513872,"L"
101546,"198 CHAGRIN FARM ROAD","SHELBY","NC",28150,35.3220811100001,-81.5431103339999,46,"198 CHAGRIN FARM ROAD, SHELBY, NC, 28150","Match","Exact","198 CHAGRIN FARM RD, SHELBY, NC, 28150",19331942,"L"
101547,"198 CLINTON AVENUE","NEWARK","NJ",7108,40.723539024,-74.186303629,47,"198 CLINTON AVENUE, NEWARK, NJ, 7108","Match","Exact","198 CLINTON AVE, NEWARK, NJ, 07108",63496177,"L"
101548,"198 COOK CT","ELYRIA","OH",44035,41.3724728920001,-82.0724966229999,48,"198 COOK CT, ELYRIA, OH, 44035","Match","Exact","198 COOK CT, ELYRIA, OH, 44035",55410036,"L"
101549,"198 CR 2239","CLEVELAND","TX",77327,30.3233205280001,-94.993434714,49,"198 CR 2239, CLEVELAND, TX, 77327","Match","Exact","198 CO RD 2239, CLEVELAND, TX, 77327",24125375,"R"
101550,"198 DARLING STREET","NEWARK","DE",19702,39.637263852,-75.684749333,50,"198 DARLING STREET, NEWARK, DE, 19702","Match","Exact","198 DARLING ST, NEWARK, DE, 19702",187288196,"R"
101551,"198 DESMOND RD","ROCHESTER","NY",14616,43.232771158,-77.65248775,51,"198 DESMOND RD, ROCHESTER, NY, 14616","Match","Exact","198 DESMOND RD, ROCHESTER, NY, 14616",14526963,"R"
101552,"198 E PLACITA NUBES DE AGUA","SAHUARITA","AZ",85629,NA,NA,52,"198 E PLACITA NUBES DE AGUA, SAHUARITA, AZ, 85629","No_Match",NA,NA,NA,NA
101553,"198 E PLUMSTEAD AVENUE FLOOR 2","LANSDOWNE","PA",19050,39.9427892910001,-75.285204135,53,"198 E PLUMSTEAD AVENUE FLOOR 2, LANSDOWNE, PA, 19050","Match","Non_Exact","198 W PLUMSTEAD AVE, LANSDOWNE, PA, 19050",134877385,"L"
101554,"198 E WHITE STREET","GRANBY","MO",64844,36.909664224,-94.254077545,54,"198 E WHITE STREET, GRANBY, MO, 64844","Match","Exact","198 E WHITE ST, GRANBY, MO, 64844",55971727,"R"
101555,"198 EAST COLLEGE STREET","OBERLIN","OH",44074,41.291565157,-82.210207437,55,"198 EAST COLLEGE STREET, OBERLIN, OH, 44074","Match","Exact","198 E COLLEGE ST, OBERLIN, OH, 44074",55425236,"L"
101556,"198 EAST LINCOLN AVE","HAYDEN","CO",81639,NA,NA,56,"198 EAST LINCOLN AVE, HAYDEN, CO, 81639","No_Match",NA,NA,NA,NA
101557,"198 EAST ST","COOPERSVILLE","MI",49404,43.063637607,-85.927151705,57,"198 EAST ST, COOPERSVILLE, MI, 49404","Match","Exact","198 EAST ST, COOPERSVILLE, MI, 49404",71080616,"R"
101558,"198 EAST STREET","COOPERSVILLE","MI",49404,43.063637607,-85.927151705,58,"198 EAST STREET, COOPERSVILLE, MI, 49404","Match","Exact","198 EAST ST, COOPERSVILLE, MI, 49404",71080616,"R"
101559,"198 ELM STREET","PEMBROKE","MA",2359,42.0848398380001,-70.76593101,59,"198 ELM STREET, PEMBROKE, MA, 2359","Match","Exact","198 ELM ST, PEMBROKE, MA, 02359",87449671,"L"
101560,"198 FORREST HILL DRIVE","LUCEDALE","MS",39452,30.7683253750001,-88.647622605,60,"198 FORREST HILL DRIVE, LUCEDALE, MS, 39452","Match","Non_Exact","198 FOREST HILL DR, LUCEDALE, MS, 39452",649416351,"R"
101561,"198 GABION LOOP","ELLENWOOD","GA",30294,33.627572178,-84.2364774449999,61,"198 GABION LOOP, ELLENWOOD, GA, 30294","Match","Exact","198 GABION LOOP, ELLENWOOD, GA, 30294",619940355,"R"
101562,"198 HILL ROAD","FORD CITY","PA",16229,40.749784877,-79.607595961,62,"198 HILL ROAD, FORD CITY, PA, 16229","Match","Non_Exact","198 HILL RD, FREEPORT, PA, 16229",52473807,"R"
101563,"198 LAKE RD","ASHBURNHAM","MA",1430,42.6607931010001,-71.9361831209999,63,"198 LAKE RD, ASHBURNHAM, MA, 1430","Match","Exact","198 LAKE RD, ASHBURNHAM, MA, 01430",640114398,"R"
101564,"198 LAUREL ROAD","GREENUP","KY",41144,38.4406950800001,-82.9005913569999,64,"198 LAUREL ROAD, GREENUP, KY, 41144","Match","Exact","198 LAUREL RD, GREENUP, KY, 41144",635454000,"R"
101565,"198 LAZY J DRIVE","SMITHFIELD","NC",27577,35.467618337,-78.2411612769999,65,"198 LAZY J DRIVE, SMITHFIELD, NC, 27577","Match","Exact","198 LAZY J DR, SMITHFIELD, NC, 27577",26557924,"R"
101566,"198 MAIN STREET","WORCESTER","NY",12197,42.593033448,-74.74592953,66,"198 MAIN STREET, WORCESTER, NY, 12197","Match","Exact","198 MAIN ST, WORCESTER, NY, 12197",638551334,"R"
101567,"198 MILDRED ROAD","MERIDEN","CT",6450,41.520370106,-72.7544161719999,67,"198 MILDRED ROAD, MERIDEN, CT, 6450","Match","Exact","198 MILDRED RD, MERIDEN, CT, 06450",3725097,"L"
101568,"198 N CHOLLA DRIVE","PEARCE","AZ",85626,31.937346975,-109.846302,68,"198 N CHOLLA DRIVE, PEARCE, AZ, 85626","Match","Non_Exact","198 CHOLLA DR, PEARCE, AZ, 85625",120954218,"R"
101569,"198 N COLEMAN RD","CENTEREACH","NY",11720,40.8794970960001,-73.067586884,69,"198 N COLEMAN RD, CENTEREACH, NY, 11720","Match","Exact","198 N COLEMAN RD, CENTEREACH, NY, 11720",114002310,"L"
101570,"198 N WILSON ST","CRESTVIEW","FL",32536,NA,NA,70,"198 N WILSON ST, CRESTVIEW, FL, 32536","Tie",NA,NA,NA,NA
101571,"198 NE 4TH ST","CANBY","OR",97013,45.265596352,-122.693077128,71,"198 NE 4TH ST, CANBY, OR, 97013","Match","Non_Exact","198 NE 4TH AVE, CANBY, OR, 97013",157961901,"L"
101572,"198 NORTH MCDONOUGH ST","JONESBORO","GA",30236,33.5267547510001,-84.3541139599999,72,"198 NORTH MCDONOUGH ST, JONESBORO, GA, 30236","Match","Exact","198 N MCDONOUGH ST, JONESBORO, GA, 30236",23316996,"R"
101573,"198 NORTH VALLEY VIEW DRIVE","NORTH SALT LAKE","UT",84054,40.8452554670001,-111.89590898,73,"198 NORTH VALLEY VIEW DRIVE, NORTH SALT LAKE, UT, 84054","Match","Non_Exact","198 VALLEY VIEW DR, N SALT LAKE, UT, 84054",155322663,"R"
101574,"198 NORTHVILLE RD","PITTSGROVE","NJ",8318,NA,NA,74,"198 NORTHVILLE RD, PITTSGROVE, NJ, 8318","No_Match",NA,NA,NA,NA
101575,"198 OKATIE VILLAGE DRIVE SUITE 103","BEAUFORT","SC",29909,32.296722893,-80.9445682589999,75,"198 OKATIE VILLAGE DRIVE SUITE 103, BEAUFORT, SC, 29909","Match","Non_Exact","198 OKATIE VILLAGE DR, BLUFFTON, SC, 29909",627744629,"L"
101576,"198 PANTHER COURT","HOSCHTON","GA",30548,34.096559363,-83.772123242,76,"198 PANTHER COURT, HOSCHTON, GA, 30548","Match","Exact","198 PANTHER CT, HOSCHTON, GA, 30548",4992357,"R"
101577,"198 PARKWAY DRIVE","ROSLYN HEIGHTS","NY",11577,40.7741298830001,-73.6265936789999,77,"198 PARKWAY DRIVE, ROSLYN HEIGHTS, NY, 11577","Match","Exact","198 PARKWAY DR, ROSLYN HEIGHTS, NY, 11577",147664485,"R"
101578,"198 RANGE RD","NEDERLAND","CO",80466,39.961982833,-105.428577081,78,"198 RANGE RD, NEDERLAND, CO, 80466","Match","Exact","198 RANGE RD, NEDERLAND, CO, 80466",188158151,"L"
101579,"198 REGENT DR","LAKEWOOD","NJ",8701,40.0862693300001,-74.232474967,79,"198 REGENT DR, LAKEWOOD, NJ, 8701","Match","Exact","198 REGENT DR, LAKEWOOD, NJ, 08701",203793349,"L"
101580,"198 RICE ROAD","KUTTAWA","KY",42055,37.0733239260001,-88.116067695,80,"198 RICE ROAD, KUTTAWA, KY, 42055","Match","Exact","198 RICE RD, KUTTAWA, KY, 42055",11877382,"R"
101581,"198 S BROADWAY","LEBANON","OH",45036,39.4319582620001,-84.208545225,81,"198 S BROADWAY, LEBANON, OH, 45036","Match","Non_Exact","198 S BROADWAY ST, LEBANON, OH, 45036",159013766,"R"
101582,"198 S HIGH ST","SEBASTOPOL","CA",95472,38.401294423,-122.825374225,82,"198 S HIGH ST, SEBASTOPOL, CA, 95472","Match","Exact","198 HIGH ST, SEBASTOPOL, CA, 95472",67465141,"R"
101583,"198 S INDUSTRIAL DR","SALINE","MI",48176,42.1752598350001,-83.7573087,83,"198 S INDUSTRIAL DR, SALINE, MI, 48176","Match","Non_Exact","200 S INDUSTRIAL DR, SALINE, MI, 48176",26043635,"L"
101584,"198 SCHEPPS LANE","KIRKVILLE","NY",13082,43.0865973420001,-75.9828654569999,84,"198 SCHEPPS LANE, KIRKVILLE, NY, 13082","Match","Exact","198 SCHEPPS LN, KIRKVILLE, NY, 13082",46576155,"R"
101585,"198 SKYLINE LANE","STAMFORD","CT",6903,41.143884015,-73.551226454,85,"198 SKYLINE LANE, STAMFORD, CT, 6903","Match","Exact","198 SKYLINE LN, STAMFORD, CT, 06903",3257756,"L"
101586,"198 SOUTH ST APT 3","JAMAICA PLAIN","MA",2130,42.303331341,-71.1146430009999,86,"198 SOUTH ST APT 3, JAMAICA PLAIN, MA, 2130","Match","Exact","198 SOUTH ST, JAMAICA PLAIN, MA, 02130",85719739,"L"
101587,"198 SOUTHWEST AVE","PITMAN","NJ",8071,39.7293990570001,-75.132417652,87,"198 SOUTHWEST AVE, PITMAN, NJ, 8071","Match","Exact","198 SOUTHWEST AVE, PITMAN, NJ, 08071",134603687,"L"
101588,"198 STATE ST","EAST GREENVILLE","PA",18041,40.4013925630001,-75.5059581,88,"198 STATE ST, EAST GREENVILLE, PA, 18041","Match","Exact","198 STATE ST, E GREENVILLE, PA, 18041",635654336,"L"
101589,"198 SUSSEX DRIVE","MONROE","LA",71203,32.553741447,-92.0148873369999,89,"198 SUSSEX DRIVE, MONROE, LA, 71203","Match","Exact","198 SUSSEX DR, MONROE, LA, 71203",624443559,"L"
101590,"198 THAMES ST","NEWPORT","RI",2840,41.4879148420001,-71.315062934,90,"198 THAMES ST, NEWPORT, RI, 2840","Match","Exact","198 THAMES ST, NEWPORT, RI, 02840",47363423,"L"
101591,"198 TREMONT ST - UNIT 109","BOSTON","MA",2116,42.3520410770001,-71.064635166,91,"198 TREMONT ST - UNIT 109, BOSTON, MA, 2116","Match","Exact","198 TREMONT ST, BOSTON, MA, 02116",85710371,"L"
101592,"198 TREMONT ST STE 401","BOSTON","MA",2116,42.3520410770001,-71.064635166,92,"198 TREMONT ST STE 401, BOSTON, MA, 2116","Match","Exact","198 TREMONT ST, BOSTON, MA, 02116",85710371,"L"
101593,"198 TREMONT ST UNIT 118","BOSTON","MA",2116,42.3520410770001,-71.064635166,93,"198 TREMONT ST UNIT 118, BOSTON, MA, 2116","Match","Exact","198 TREMONT ST, BOSTON, MA, 02116",85710371,"L"
101594,"198 TULIP BLOSSOM CT","SAN JOSE","CA",95123,37.252037488,-121.814468321,94,"198 TULIP BLOSSOM CT, SAN JOSE, CA, 95123","Match","Exact","198 TULIP BLOSSOM CT, SAN JOSE, CA, 95123",122925057,"L"
101595,"198 VALENCIA WAY","WINDSOR","CA",95492,38.5554694750001,-122.793870632,95,"198 VALENCIA WAY, WINDSOR, CA, 95492","Match","Exact","198 VALENCIA WAY, WINDSOR, CA, 95492",67531509,"R"
101596,"198 W MIDLAND AVE","PARAMUS","NJ",7652,NA,NA,96,"198 W MIDLAND AVE, PARAMUS, NJ, 7652","Tie",NA,NA,NA,NA
101597,"198 WASHINGTON ST","FREEPORT","NY",11520,40.6498280860001,-73.595101512,97,"198 WASHINGTON ST, FREEPORT, NY, 11520","Match","Exact","198 WASHINGTON ST, FREEPORT, NY, 11520",147638167,"R"
101598,"198 WAYNE ST","JERSEY CITY","NJ",7302,40.721311396,-74.051300904,98,"198 WAYNE ST, JERSEY CITY, NJ, 7302","Match","Exact","198 WAYNE ST, JERSEY CITY, NJ, 07302",59605927,"R"
101599,"198 WILDERNESS ROAD","GLASGOW","KY",42141,36.978944604,-85.928149202,99,"198 WILDERNESS ROAD, GLASGOW, KY, 42141","Match","Exact","198 WILDERNESS RD, GLASGOW, KY, 42141",29509127,"L"
101600,"198 WILLOW ST","LAWRENCE","MA",1841,42.7203663020001,-71.1731164079999,100,"198 WILLOW ST, LAWRENCE, MA, 1841","Match","Exact","198 WILLOW ST, LAWRENCE, MA, 01841",623612608,"L"
101601,"198 ZILS ROAD","WATSONVILLE","CA",95076,36.9127020130001,-121.841479138,101,"198 ZILS ROAD, WATSONVILLE, CA, 95076","Match","Exact","198 ZILS RD, WATSONVILLE, CA, 95076",125512227,"L"
101602,"198-20 LINDEN BLVD","ST. ALBANS","NY",11412,40.6941139630001,-73.753425794,102,"198-20 LINDEN BLVD, ST. ALBANS, NY, 11412","Match","Exact","198-20 LINDEN BLVD, SAINT ALBANS, NY, 11412",59719252,"R"
101603,"1980 A PARKER COURT","STONE MOUNTAIN","GA",30087,33.826622952,-84.1060934339999,103,"1980 A PARKER COURT, STONE MOUNTAIN, GA, 30087","Match","Exact","1980 PARKER CT, STONE MOUNTAIN, GA, 30087",88967071,"R"
101604,"1980 BRADDOCK DRIVE","HOOVER","AL",35226,33.4027850580001,-86.8074639719999,104,"1980 BRADDOCK DRIVE, HOOVER, AL, 35226","Match","Exact","1980 BRADDOCK DR, HOOVER, AL, 35226",81583474,"L"
101605,"1980 EMANUEL CHURCH RD","ROCKWELL","NC",28138,35.524963175,-80.385897391,105,"1980 EMANUEL CHURCH RD, ROCKWELL, NC, 28138","Match","Exact","1980 EMANUEL CHURCH RD, ROCKWELL, NC, 28138",25263678,"L"
101606,"1980 FESTIVAL PLAZA DR SUITE 300","LAS VEGAS","NV",89135,NA,NA,106,"1980 FESTIVAL PLAZA DR SUITE 300, LAS VEGAS, NV, 89135","No_Match",NA,NA,NA,NA
101607,"1980 HIDDEN RIDGE","HIGLAND PARK","IL",60035,42.176082077,-87.8332354189999,107,"1980 HIDDEN RIDGE, HIGLAND PARK, IL, 60035","Match","Non_Exact","1980 HIDDEN RIDGE LN, HIGHLAND PARK, IL, 60035",119695029,"L"
101608,"1980 HOYT AVENUE EAST","SAINT PAUL","MN",55119,44.988342161,-93.01680812,108,"1980 HOYT AVENUE EAST, SAINT PAUL, MN, 55119","Match","Exact","1980 HOYT AVE E, SAINT PAUL, MN, 55119",97653217,"R"
101609,"1980 JEFFERSON ST APT 301","SAN FRANCISCO","CA",94123,37.8044832360001,-122.445067982,109,"1980 JEFFERSON ST APT 301, SAN FRANCISCO, CA, 94123","Match","Exact","1980 JEFFERSON ST, SAN FRANCISCO, CA, 94123",192279405,"R"
101610,"1980 KETTNER BLVD NO 602","SAN DIEGO","CA",92101,32.724910166,-117.169748558,110,"1980 KETTNER BLVD NO 602, SAN DIEGO, CA, 92101","Match","Non_Exact","1980 KETTNER BLVD, SAN DIEGO, CA, 92101",195343262,"L"
101611,"1980 KINGSGATE ROAD STE B","SPRINGFIELD","OH",45502,39.9746271930001,-83.765670019,111,"1980 KINGSGATE ROAD STE B, SPRINGFIELD, OH, 45502","Match","Exact","1980 KINGSGATE RD, SPRINGFIELD, OH, 45502",135026958,"R"
101612,"1980 LEXINGTON AVENUE APT 6L","NEW YORK","NY",10035,40.8017688630001,-73.939329028,112,"1980 LEXINGTON AVENUE APT 6L, NEW YORK, NY, 10035","Match","Exact","1980 LEXINGTON AVE, NEW YORK, NY, 10035",59658029,"L"
101613,"1980 MCQUEEN ROAD","PLEASANT PLAINS","IL",62677,39.7706225900001,-89.828303341,113,"1980 MCQUEEN ROAD, PLEASANT PLAINS, IL, 62677","Match","Exact","1980 MCQUEEN RD, PLEASANT PLAINS, IL, 62677",97312886,"R"
101614,"1980 MEADOWS RD","MADISON","OH",44057,41.820285885,-81.07076649,114,"1980 MEADOWS RD, MADISON, OH, 44057","Match","Exact","1980 MEADOWS RD, MADISON, OH, 44057",137468286,"R"
101615,"1980 NEWARK ST","AURORA","CO",80010,39.7469916060001,-104.852865969,115,"1980 NEWARK ST, AURORA, CO, 80010","Match","Exact","1980 NEWARK ST, AURORA, CO, 80010",177350624,"R"
101616,"1980 NORTH COLLGE RD","MASON","MI",48854,42.638819638,-84.483766266,116,"1980 NORTH COLLGE RD, MASON, MI, 48854","Match","Non_Exact","1980 N COLLEGE RD, MASON, MI, 48854",17516354,"R"
101617,"1980 POST OAK BLVD STE  1500","HOUSTON","TX",77056,29.7455820230001,-95.461101576,117,"1980 POST OAK BLVD STE  1500, HOUSTON, TX, 77056","Match","Exact","1980 POST OAK BLVD, HOUSTON, TX, 77056",96553173,"R"
101618,"1980 ROSECREST DRIVE","OAKLAND","CA",94602,37.8156373670001,-122.205968053,118,"1980 ROSECREST DRIVE, OAKLAND, CA, 94602","Match","Exact","1980 ROSECREST DR, OAKLAND, CA, 94602",125003628,"L"
101619,"1980 S LINCOLN RD","MT PLEASANT","MI",48858,43.612261275,-84.807856376,119,"1980 S LINCOLN RD, MT PLEASANT, MI, 48858","Match","Exact","1980 S LINCOLN RD, MOUNT PLEASANT, MI, 48858",110217562,"L"
101620,"1980 S OCEAN DR APT 16N","HALLANDALE BEACH","FL",33009,25.980305865,-80.1199022389999,120,"1980 S OCEAN DR APT 16N, HALLANDALE BEACH, FL, 33009","Match","Non_Exact","1980 S OCEAN DR, HALLANDALE BEACH, FL, 33009",634340467,"L"
101621,"1980 S OCEAN DRIVE  APARTMENT 16N","HALLANDALE","FL",33009,25.980305865,-80.1199022389999,121,"1980 S OCEAN DRIVE  APARTMENT 16N, HALLANDALE, FL, 33009","Match","Non_Exact","1980 S OCEAN DR, HALLANDALE, FL, 33009",634340467,"L"
101622,"1980 SPANISH GROVE ROAD","CHASE CITY","VA",23924,36.808698947,-78.505296758,122,"1980 SPANISH GROVE ROAD, CHASE CITY, VA, 23924","Match","Exact","1980 SPANISH GROVE RD, CHASE CITY, VA, 23924",54296388,"L"
101623,"1980 TANEYTOWN RD","GETTYSBURG","PA",17325,39.7628477150001,-77.2321914519999,123,"1980 TANEYTOWN RD, GETTYSBURG, PA, 17325","Match","Exact","1980 TANEYTOWN RD, GETTYSBURG, PA, 17325",60864388,"R"
101624,"1980 TAYLOR DR APT 12","WINCHESTER","VA",22601,39.168998672,-78.1854499519999,124,"1980 TAYLOR DR APT 12, WINCHESTER, VA, 22601","Match","Exact","1980 TAYLOR DR, WINCHESTER, VA, 22601",55609189,"R"
101625,"1980 US HIGHWAY 101","GAVIOTA","CA",93117,34.5520683340001,-120.191230294,125,"1980 US HIGHWAY 101, GAVIOTA, CA, 93117","Match","Exact","1980 US HWY 101, GAVIOTA, CA, 93117",108592137,"R"
101626,"1980 W BAKERVIEW RD","BELLINGHAM","WA",98226,48.789601813,-122.531873369,126,"1980 W BAKERVIEW RD, BELLINGHAM, WA, 98226","Match","Exact","1980 W BAKERVIEW RD, BELLINGHAM, WA, 98226",183793707,"L"
101627,"1980-G KOLO ROAD","KILAUEA","HI",96754,22.2020534960001,-159.399647,127,"1980-G KOLO ROAD, KILAUEA, HI, 96754","Match","Exact","1980 KOLO RD, KILAUEA, HI, 96754",203409080,"R"
101628,"19800 DETROIT RD  SUITE 150","ROCKY RIVER","OH",44116,41.479623847,-81.8409658529999,128,"19800 DETROIT RD  SUITE 150, ROCKY RIVER, OH, 44116","Match","Exact","19800 DETROIT RD, ROCKY RIVER, OH, 44116",61097593,"R"
101629,"19800 MACARTHUR BLVD STE 300","IRVINE","CA",92612,NA,NA,129,"19800 MACARTHUR BLVD STE 300, IRVINE, CA, 92612","No_Match",NA,NA,NA,NA
101630,"19800 NW 34TH AVE","MIAMI GARDENS","FL",33056,25.953979395,-80.258770279,130,"19800 NW 34TH AVE, MIAMI GARDENS, FL, 33056","Match","Exact","19800 NW 34TH AVE, MIAMI GARDENS, FL, 33056",116064651,"L"
101631,"19800 PEMBROKE","DETROIT","MI",48219,42.436816784,-83.237479068,131,"19800 PEMBROKE, DETROIT, MI, 48219","Match","Non_Exact","19800 PEMBROKE AVE, DETROIT, MI, 48219",95421716,"R"
101632,"19800 PLUM HOLLOW LANE","WOODLAND","CA",95695,38.6515727400001,-121.842041727,132,"19800 PLUM HOLLOW LANE, WOODLAND, CA, 95695","Match","Exact","19800 PLUM HOLLOW LN, WOODLAND, CA, 95695",67703086,"R"
101633,"19800 SW 87 AVENUE","CUTLER BAY","FL",33157,25.5831714830001,-80.3318632849999,133,"19800 SW 87 AVENUE, CUTLER BAY, FL, 33157","Match","Exact","19800 SW 87TH AVE, CUTLER BAY, FL, 33157",115996704,"R"
101634,"198006 E BOWLES RD","KENNEWICK","WA",99337,46.16890706,-119.085145266,134,"198006 E BOWLES RD, KENNEWICK, WA, 99337","Match","Exact","198006 E BOWLES RD, KENNEWICK, WA, 99337",174996859,"L"
101635,"19801 CHERRYLAWN","DETROIT","MI",48221,42.437237683,-83.155698792,135,"19801 CHERRYLAWN, DETROIT, MI, 48221","Match","Non_Exact","19801 CHERRYLAWN ST, DETROIT, MI, 48221",95493020,"L"
101636,"19801 COLMAN STREET","CLINTON TWP","MI",48035,42.544150173,-82.919016423,136,"19801 COLMAN STREET, CLINTON TWP, MI, 48035","Match","Exact","19801 COLMAN ST, CLINTON TOWNSHIP, MI, 48035",110725283,"L"
101637,"19801 LANBURY AVE","WARRENSVILLE HEIGHTS","OH",44122,41.455877098,-81.539938878,137,"19801 LANBURY AVE, WARRENSVILLE HEIGHTS, OH, 44122","Match","Exact","19801 LANBURY AVE, WARRENSVILLE HEIGHTS, OH, 44122",61129094,"L"
101638,"19801 LANBURY AVE","WARRENSVILLE HTS","OH",44122,41.455877098,-81.539938878,138,"19801 LANBURY AVE, WARRENSVILLE HTS, OH, 44122","Match","Exact","19801 LANBURY AVE, WARRENSVILLE HEIGHTS, OH, 44122",61129094,"L"
101639,"19801 N 59TH AVE 12076","Glendale","AZ",85383,NA,NA,139,"19801 N 59TH AVE 12076, Glendale, AZ, 85383","No_Match",NA,NA,NA,NA
101640,"19801 NE 155TH PLACE","WOODINVILLE","WA",98077,47.7408097730001,-122.072299977,140,"19801 NE 155TH PLACE, WOODINVILLE, WA, 98077","Match","Exact","19801 NE 155TH PL, WOODINVILLE, WA, 98077",186677053,"L"
101641,"19801 RANCHO CIELO","LAGO VISTA","TX",78645,30.4431370770001,-97.9808826839999,141,"19801 RANCHO CIELO, LAGO VISTA, TX, 78645","Match","Non_Exact","19801 RANCHO CIELO CT, LAGO VISTA, TX, 78645",64110115,"L"
101642,"19802 EMERALD LEAF DR","HOUSTON","TX",77094,29.7722049120001,-95.7175043939999,142,"19802 EMERALD LEAF DR, HOUSTON, TX, 77094","Match","Exact","19802 EMERALD LEAF DR, HOUSTON, TX, 77094",96580833,"L"
101643,"19803 30TH DR SE","BOTHELL","WA",98012,47.818072595,-122.191963573,143,"19803 30TH DR SE, BOTHELL, WA, 98012","Match","Exact","19803 30TH DR SE, BOTHELL, WA, 98012",624094195,"R"
101644,"19803 HARLAN AVE","CARSON","CA",90746,33.85103603,-118.242838827,144,"19803 HARLAN AVE, CARSON, CA, 90746","Match","Exact","19803 HARLAN AVE, CARSON, CA, 90746",141681153,"R"
101645,"19804 SW 191ST AVE","ARCHER","FL",32618,NA,NA,145,"19804 SW 191ST AVE, ARCHER, FL, 32618","No_Match",NA,NA,NA,NA
101646,"19806 GA HIGHWAY 3","THOMASVILLE","GA",31792,NA,NA,146,"19806 GA HIGHWAY 3, THOMASVILLE, GA, 31792","No_Match",NA,NA,NA,NA
101647,"19806 WOODBERRY MANOR DRIVE","SPRING","TX",77379,30.0514299980001,-95.566470818,147,"19806 WOODBERRY MANOR DRIVE, SPRING, TX, 77379","Match","Exact","19806 WOODBERRY MANOR DR, SPRING, TX, 77379",624612888,"L"
101648,"19808 DENBY","REDFORD","MI",48240,42.4341655440001,-83.3105709279999,148,"19808 DENBY, REDFORD, MI, 48240","Match","Exact","19808 DENBY, REDFORD, MI, 48240",651745354,"R"
101649,"19808 US HIGHWAY 54","PITTSFIELD","IL",62363,39.5463222770001,-90.9189702629999,149,"19808 US HIGHWAY 54, PITTSFIELD, IL, 62363","Match","Exact","19808 US HWY 54, PITTSFIELD, IL, 62363",610595587,"R"
101650,"19808 VILAMOURA STREET","PFLUGERVILLE","TX",78660,30.470675795,-97.571005046,150,"19808 VILAMOURA STREET, PFLUGERVILLE, TX, 78660","Match","Exact","19808 VILAMOURA ST, PFLUGERVILLE, TX, 78660",64079283,"L"
101651,"19809 ARROWHEAD AVE","CLEVELAND","OH",44119,41.586596349,-81.541234507,151,"19809 ARROWHEAD AVE, CLEVELAND, OH, 44119","Match","Exact","19809 ARROWHEAD AVE, CLEVELAND, OH, 44119",61108207,"L"
101652,"19809 BRYANT STREET","CANOGA PARK","CA",91306,34.2273768320001,-118.564675252,152,"19809 BRYANT STREET, CANOGA PARK, CA, 91306","Match","Exact","19809 BRYANT ST, CANOGA PARK, CA, 91306",141540216,"R"
101653,"19809 SAN CHISOLM DRIVE","ROUND ROCK","TX",78664,30.493769345,-97.604812553,153,"19809 SAN CHISOLM DRIVE, ROUND ROCK, TX, 78664","Match","Exact","19809 SAN CHISOLM DR, ROUND ROCK, TX, 78664",64122158,"R"
101654,"19809 SNELL PL","MOSS POINT","MS",39562,30.6252379590001,-88.46543371,154,"19809 SNELL PL, MOSS POINT, MS, 39562","Match","Exact","19809 SNELL PL, MOSS POINT, MS, 39562",89267809,"L"
101655,"1981 E 138TH AVE","BRIGHTON","CO",80602,39.945382905,-104.963587807,155,"1981 E 138TH AVE, BRIGHTON, CO, 80602","Match","Exact","1981 E 138TH AVE, BRIGHTON, CO, 80602",177291586,"L"
101656,"1981 E 350 N","BLUFFTON","IN",46714,40.7930443990001,-85.1861115579999,156,"1981 E 350 N, BLUFFTON, IN, 46714","Match","Exact","1981 E 350 N, BLUFFTON, IN, 46714",6622389,"L"
101657,"1981 GLARNER ST","HOLLISTER","CA",95023,36.8455501020001,-121.367527064,157,"1981 GLARNER ST, HOLLISTER, CA, 95023","Match","Exact","1981 GLARNER ST, HOLLISTER, CA, 95023",125451987,"R"
101658,"1981 GRANDON LOOP ROAD","VIRGINIA BEACH","VA",23456,36.733470762,-76.0123029539999,158,"1981 GRANDON LOOP ROAD, VIRGINIA BEACH, VA, 23456","Match","Exact","1981 GRANDON LOOP RD, VA BCH, VA, 23456",643311631,"R"
101659,"1981 HAMILTON DRIVE","PERRYSBURG","OH",43551,41.537174464,-83.605121627,159,"1981 HAMILTON DRIVE, PERRYSBURG, OH, 43551","Match","Exact","1981 HAMILTON DR, PERRYSBURG, OH, 43551",38746514,"L"
101660,"1981 HIGHWAY 87 S SUITE 301","NAVARRE","FL",32566,NA,NA,160,"1981 HIGHWAY 87 S SUITE 301, NAVARRE, FL, 32566","No_Match",NA,NA,NA,NA
101661,"1981 LAKEWOOD CLUB DR S UNIT O","ST. PETERSBURG","FL",33712,27.7198563580001,-82.660002745,161,"1981 LAKEWOOD CLUB DR S UNIT O, ST. PETERSBURG, FL, 33712","Match","Exact","1981 LAKEWOOD CLUB DR S, SAINT PETERSBURG, FL, 33712",124711205,"R"
101662,"1981 LAZIO LANE","APEX","NC",27502,35.711257662,-78.90723858,162,"1981 LAZIO LANE, APEX, NC, 27502","Match","Exact","1981 LAZIO LN, APEX, NC, 27502",638945101,"L"
101663,"1981 LINCOLN HWY","EDISON","NJ",8817,40.521105877,-74.394230663,163,"1981 LINCOLN HWY, EDISON, NJ, 8817","Match","Exact","1981 LINCOLN HWY, EDISON, NJ, 08817",60266295,"L"
101664,"1981 MEMORIAL DRIVE 203","CHICOPEE","MA",1020,42.2102596880001,-72.571509851,164,"1981 MEMORIAL DRIVE 203, CHICOPEE, MA, 1020","Match","Exact","1981 MEMORIAL DR, CHICOPEE, MA, 01020",4045436,"R"
101665,"1981 NORTH 500 EAST","OREM","UT",84097,40.3332095530001,-111.684361094,165,"1981 NORTH 500 EAST, OREM, UT, 84097","Match","Exact","1981 N 500 E, OREM, UT, 84097",134240478,"L"
101666,"1981 NORTH BROADWAY SUITE 250","WALNUT CREEK","CA",94596,37.906369355,-122.061430117,166,"1981 NORTH BROADWAY SUITE 250, WALNUT CREEK, CA, 94596","Match","Exact","1981 N BROADWAY, WALNUT CREEK, CA, 94596",192056287,"L"
101667,"1981 PARKWOOD ROAD","CHARLESTON","WV",25314,38.3316892340001,-81.6720695499999,167,"1981 PARKWOOD ROAD, CHARLESTON, WV, 25314","Match","Exact","1981 PARKWOOD RD, CHARLESTON, WV, 25314",78634802,"L"
101668,"1981 S 2600 E","SLC","UT",84108,40.7271132830001,-111.816261332,168,"1981 S 2600 E, SLC, UT, 84108","Match","Exact","1981 S 2600 E, SLC, UT, 84108",176093771,"L"
101669,"1981 SE COUNTY ROAD 245","LAKE CITY","FL",32025,30.159290105,-82.592641944,169,"1981 SE COUNTY ROAD 245, LAKE CITY, FL, 32025","Match","Exact","1981 SE CO RD 245, LAKE CITY, FL, 32025",653687992,"R"
101670,"1981 SHALIMAR DR NE","ATLANTA","GA",30345,33.8525152920001,-84.307285323,170,"1981 SHALIMAR DR NE, ATLANTA, GA, 30345","Match","Exact","1981 SHALIMAR DR NE, ATLANTA, GA, 30345",23399048,"R"
101671,"1981 SINALOA AVE","ALTADENA","CA",91001,34.1800500960001,-118.115610913,171,"1981 SINALOA AVE, ALTADENA, CA, 91001","Match","Exact","1981 SINALOA AVE, ALTADENA, CA, 91001",141631656,"L"
101672,"1981 STONE FOREST DR","LAWRENCEVILLE","GA",30043,34.008966387,-84.016973959,172,"1981 STONE FOREST DR, LAWRENCEVILLE, GA, 30043","Match","Exact","1981 STONE FOREST DR, LAWRENCEVILLE, GA, 30043",88918547,"R"
101673,"1981 WAYMONT ROAD","COLUMBUS","OH",43229,40.0635623570001,-82.965543638,173,"1981 WAYMONT ROAD, COLUMBUS, OH, 43229","Match","Exact","1981 WAYMONT RD, COLUMBUS, OH, 43229",218659191,"R"
101674,"19810 NW 14TH COURT","MIAMI GARDENS","FL",33169,25.955585377,-80.2266143379999,174,"19810 NW 14TH COURT, MIAMI GARDENS, FL, 33169","Match","Exact","19810 NW 14TH CT, MIAMI GARDENS, FL, 33169",116029166,"L"
101675,"19810 PEPPERMINT FALLS RD","JAMESTOWN","CA",95327,37.980709237,-120.432596863,175,"19810 PEPPERMINT FALLS RD, JAMESTOWN, CA, 95327","Match","Exact","19810 PEPPERMINT FALLS RD, JAMESTOWN, CA, 95327",101373184,"L"
101676,"19811 COLIMA RD STE 330","ROWLAND HEIGHTS","CA",91789,33.9868806210001,-117.869695703,176,"19811 COLIMA RD STE 330, ROWLAND HEIGHTS, CA, 91789","Match","Non_Exact","19811 COLIMA RD, WALNUT, CA, 91789",142791829,"L"
101677,"19811 NW 7 AVE","MIAMI","FL",33169,25.9561107920001,-80.213819072,177,"19811 NW 7 AVE, MIAMI, FL, 33169","Match","Exact","19811 NW 7TH AVE, MIAMI, FL, 33169",116029537,"R"
101678,"19811 STATE RD 120","BRISTOL","IN",46507,41.71425091,-85.848227502,178,"19811 STATE RD 120, BRISTOL, IN, 46507","Match","Exact","19811 STATE RD 120, BRISTOL, IN, 46507",604671204,"L"
101679,"19812 HARLAN AVENUE","CARSON","CA",90746,33.851022625,-118.242825384,179,"19812 HARLAN AVENUE, CARSON, CA, 90746","Match","Exact","19812 HARLAN AVE, CARSON, CA, 90746",141681153,"L"
101680,"19812 KINGS HIGHWAY","WARRENSVILLE HEIGHTS","OH",44122,41.451716751,-81.539795249,180,"19812 KINGS HIGHWAY, WARRENSVILLE HEIGHTS, OH, 44122","Match","Exact","19812 KINGS HWY, WARRENSVILLE HEIGHTS, OH, 44122",61129116,"R"
101681,"19813 PASO FINO WAY","DADE CITY","FL",33523,28.4456016510001,-82.2016206229999,181,"19813 PASO FINO WAY, DADE CITY, FL, 33523","Match","Exact","19813 PASO FINO WAY, DADE CITY, FL, 33523",647381383,"L"
101682,"19814 8TH AVE NW","SHORELINE","WA",98177,47.773207787,-122.36664892,182,"19814 8TH AVE NW, SHORELINE, WA, 98177","Match","Exact","19814 8TH AVE NW, SHORELINE, WA, 98177",186573164,"R"
101683,"19814 CAROLING OAKS CT","HUMBLE","TX",77346,30.008729498,-95.185795314,183,"19814 CAROLING OAKS CT, HUMBLE, TX, 77346","Match","Exact","19814 CAROLING OAKS CT, HUMBLE, TX, 77346",96579066,"R"
101684,"19814 LOUISE ST","LIVONIA","MI",48152,42.4342717120001,-83.340978342,184,"19814 LOUISE ST, LIVONIA, MI, 48152","Match","Exact","19814 LOUISE ST, LIVONIA, MI, 48152",95694205,"R"
101685,"19814 SEA RIDER WAY","LUTZ","FL",33559,28.166984821,-82.425783166,185,"19814 SEA RIDER WAY, LUTZ, FL, 33559","Match","Exact","19814 SEA RIDER WAY, LUTZ, FL, 33559",633886822,"R"
101686,"19815 SHELBURNE RD","SHAKER HEIGHTS","OH",44118,41.4851049110001,-81.5407715219999,186,"19815 SHELBURNE RD, SHAKER HEIGHTS, OH, 44118","Match","Exact","19815 SHELBURNE RD, SHAKER HEIGHTS, OH, 44118",61125478,"L"
101687,"19817 111TH AVENUE","SAINT ALBANS","NY",11412,NA,NA,187,"19817 111TH AVENUE, SAINT ALBANS, NY, 11412","No_Match",NA,NA,NA,NA
101688,"19818 W HWY 85","BUCKEYE","AZ",85326,NA,NA,188,"19818 W HWY 85, BUCKEYE, AZ, 85326","No_Match",NA,NA,NA,NA
101689,"1982 MAGNOLIA MANOR DRIVE","HERNANDO","MS",38632,34.8313993400001,-89.9914243169999,189,"1982 MAGNOLIA MANOR DRIVE, HERNANDO, MS, 38632","Match","Exact","1982 MAGNOLIA MANOR DR, HERNANDO, MS, 38632",617658802,"L"
101690,"1982 MIDDLESEX STREET-25","LOWELL","MA",1851,42.635635354,-71.362808819,190,"1982 MIDDLESEX STREET-25, LOWELL, MA, 1851","Match","Non_Exact","1982 MIDDLESEX ST, LOWELL, MA, 01851",86875919,"L"
101691,"1982 NC HWY 172/ PO BOX 205","SNEADS FERRY","NC",28460,NA,NA,191,"1982 NC HWY 172/ PO BOX 205, SNEADS FERRY, NC, 28460","No_Match",NA,NA,NA,NA
101692,"1982 NW 169TH AVE","PEMBROKE PINES","FL",33028,26.0243300980001,-80.372929288,192,"1982 NW 169TH AVE, PEMBROKE PINES, FL, 33028","Match","Exact","1982 NW 169TH AVE, PEMBROKE PINES, FL, 33028",114790288,"R"
101693,"1982 SR 44 STE 194","NEW SMYRNA BEACH","FL",32168,29.013446205,-80.9474274149999,193,"1982 SR 44 STE 194, NEW SMYRNA BEACH, FL, 32168","Match","Non_Exact","1982 STATE RD 44, NEW SMYRNA BEACH, FL, 32168",647938534,"L"
101694,"1982 STARGRASS AVENUE","GROVE CITY","OH",43123,39.8460021540001,-83.0595824769999,194,"1982 STARGRASS AVENUE, GROVE CITY, OH, 43123","Match","Exact","1982 STARGRASS AVE, GROVE CITY, OH, 43123",218639147,"L"
101695,"1982 TIGERTAIL BLVD BLDG 9","DANIA BEACH","FL",33004,26.0534366810001,-80.1672497929999,195,"1982 TIGERTAIL BLVD BLDG 9, DANIA BEACH, FL, 33004","Match","Exact","1982 TIGERTAIL BLVD, DANIA BEACH, FL, 33004",650018174,"L"
101696,"19820 BEACH BLVD","HUNTINGTON BEACH","CA",92648,33.674598422,-117.988482508,196,"19820 BEACH BLVD, HUNTINGTON BEACH, CA, 92648","Match","Exact","19820 BEACH BLVD, HUNTINGTON BEACH, CA, 92648",609063242,"L"
101697,"19820 WOLF ROAD UNIT C","MOKENA","IL",60448,41.5288017570001,-87.889338793,197,"19820 WOLF ROAD UNIT C, MOKENA, IL, 60448","Match","Exact","19820 WOLF RD, MOKENA, IL, 60448",636326136,"R"
101698,"19821 NW 2ND AVE SUITE 175","MIAMI GARDENS","FL",33169,25.956494347,-80.2056730589999,198,"19821 NW 2ND AVE SUITE 175, MIAMI GARDENS, FL, 33169","Match","Non_Exact","19821 NW 2ND AVE, MIAMI GARDENS, FL, 33169",116029632,"R"
101699,"19821 NW 8TH STREET","PEMBROKE PINES","FL",33029,26.0135126220001,-80.410380236,199,"19821 NW 8TH STREET, PEMBROKE PINES, FL, 33029","Match","Exact","19821 NW 8TH ST, PEMBROKE PINES, FL, 33029",114771156,"R"
101700,"19822 N 200TH ST","OBLONG","IL",62449,39.1417657200001,-87.9122737449999,200,"19822 N 200TH ST, OBLONG, IL, 62449","Match","Exact","19822 N 200TH ST, OBLONG, IL, 62449",649814398,"L"
101701,"19825 EMILINE STREET","GRETNA","NE",68028,41.18885469,-96.2255623629999,201,"19825 EMILINE STREET, GRETNA, NE, 68028","Match","Exact","19825 EMILINE ST, GRETNA, NE, 68028",624436526,"L"
101702,"19825 N COVE ROAD  SUITE B176","CORNELIUS","NC",28031,35.478063864,-80.892997485,202,"19825 N COVE ROAD  SUITE B176, CORNELIUS, NC, 28031","Match","Non_Exact","19825 NORTHCOVE RD, CORNELIUS, NC, 28031",70544564,"R"
101703,"19825 NORTH COVE ROAD 178","CORNELIUS","NC",28031,35.478063864,-80.892997485,203,"19825 NORTH COVE ROAD 178, CORNELIUS, NC, 28031","Match","Non_Exact","19825 NORTHCOVE RD, CORNELIUS, NC, 28031",70544564,"R"
101704,"19825-B NORTH COVE ROAD SUITE 109","CORNELIUS","NC",28031,35.478063864,-80.892997485,204,"19825-B NORTH COVE ROAD SUITE 109, CORNELIUS, NC, 28031","Match","Non_Exact","19825 NORTHCOVE RD, CORNELIUS, NC, 28031",70544564,"R"
101705,"19826 KEITH AVE","GROSSE ILE","MI",48138,42.1655708440001,-83.158985504,205,"19826 KEITH AVE, GROSSE ILE, MI, 48138","Match","Exact","19826 KEITH AVE, GROSSE ILE, MI, 48138",95493543,"R"
101706,"19826 SE 192ND ST","RENTON","WA",98058,47.4300737500001,-122.077306916,206,"19826 SE 192ND ST, RENTON, WA, 98058","Match","Exact","19826 SE 192ND ST, RENTON, WA, 98058",186637932,"L"
101707,"19826 US HIGHWAY 18","APPLE VALLEY","CA",92307,NA,NA,207,"19826 US HIGHWAY 18, APPLE VALLEY, CA, 92307","No_Match",NA,NA,NA,NA
101708,"19827 BOCA GREENS DR","BOCA RATON","FL",33498,26.3812616710001,-80.209881589,208,"19827 BOCA GREENS DR, BOCA RATON, FL, 33498","Match","Exact","19827 BOCA GREENS DR, BOCA RATON, FL, 33498",115291760,"R"
101709,"19827 SE HAWTHORNE RD","HAWTHORNE","FL",32640,NA,NA,209,"19827 SE HAWTHORNE RD, HAWTHORNE, FL, 32640","No_Match",NA,NA,NA,NA
101710,"19827 STERNWOOD MANOR DR","SPRING","TX",77379,30.053408205,-95.559763854,210,"19827 STERNWOOD MANOR DR, SPRING, TX, 77379","Match","Exact","19827 STERNWOOD MANOR DR, SPRING, TX, 77379",630329527,"R"
101711,"19829 N 35TH STREET","PHOENIX","AZ",85050,33.667246866,-112.007056409,211,"19829 N 35TH STREET, PHOENIX, AZ, 85050","Match","Exact","19829 N 35TH ST, PHOENIX, AZ, 85050",128600447,"L"
101712,"1983 BELLEVILLE ROAD","ORANGEBURG","SC",29115,33.5115985240001,-80.82710143,212,"1983 BELLEVILLE ROAD, ORANGEBURG, SC, 29115","Match","Exact","1983 BELLEVILLE RD, ORANGEBURG, SC, 29115",19228745,"L"
101713,"1983 CLINTON DRIVE","MARIETTA","GA",30062,33.999539532,-84.438953969,213,"1983 CLINTON DRIVE, MARIETTA, GA, 30062","Match","Exact","1983 CLINTON DR, MARIETTA, GA, 30062",17170434,"L"
101714,"1983 DARLINGTON LOOP","WOODBRIGDE","VA",22191,38.6230177520001,-77.273887857,214,"1983 DARLINGTON LOOP, WOODBRIGDE, VA, 22191","Match","Non_Exact","1983 DARLINGTON LOOP, WOODBRIDGE, VA, 22191",76521594,"L"
101715,"1983 E SOUTH WEBER DR","SOUTH WEBER","UT",84405,41.1325012500001,-111.927716953,215,"1983 E SOUTH WEBER DR, SOUTH WEBER, UT, 84405","Match","Exact","1983 E SOUTH WEBER DR, SOUTH WEBER, UT, 84405",155360319,"R"
101716,"1983 GRIMWOOD ROAD","TONEY","AL",35773,34.9030873520001,-86.649003987,216,"1983 GRIMWOOD ROAD, TONEY, AL, 35773","Match","Exact","1983 GRIMWOOD RD, TONEY, AL, 35773",58202048,"L"
101717,"1983 MADISON STREET","CLARKSVILLE","TN",37043,36.513309538,-87.292820456,217,"1983 MADISON STREET, CLARKSVILLE, TN, 37043","Match","Exact","1983 MADISON ST, CLARKSVILLE, TN, 37043",633891661,"L"
101718,"1983 N SUMMIT AVE UNIT 33","MILWAUKEE","WI",53202,43.055382271,-87.8868309009999,218,"1983 N SUMMIT AVE UNIT 33, MILWAUKEE, WI, 53202","Match","Non_Exact","1983 N SUMMIT AVE, MILWAUKEE, WI, 53202",77744904,"L"
101719,"1983 RIO BONITO DR","ROWLAND HEIGHTS","CA",91748,33.984204989,-117.922548335,219,"1983 RIO BONITO DR, ROWLAND HEIGHTS, CA, 91748","Match","Exact","1983 RIO BONITO DR, ROWLAND HEIGHTS, CA, 91748",142801174,"L"
101720,"1983 STILLWATER STREET","WHITE BEAR TOWNSHIP","MN",55110,45.0978974450001,-93.016376233,220,"1983 STILLWATER STREET, WHITE BEAR TOWNSHIP, MN, 55110","Match","Exact","1983 STILLWATER ST, WHITE BEAR TOWNSHIP, MN, 55110",97636786,"L"
101721,"1983 TRI-COUNTY AIRPROT ROAD","BONIFAY","FL",32425,NA,NA,221,"1983 TRI-COUNTY AIRPROT ROAD, BONIFAY, FL, 32425","No_Match",NA,NA,NA,NA
101722,"19830 BURNHAM AVE","LYNWOOD","IL",60411,41.5354165740001,-87.539136387,222,"19830 BURNHAM AVE, LYNWOOD, IL, 60411","Match","Exact","19830 BURNHAM AVE, LYNWOOD, IL, 60411",614753944,"R"
101723,"19830 MIDWAY RD","TERRY","MS",39170,32.062647226,-90.342648465,223,"19830 MIDWAY RD, TERRY, MS, 39170","Match","Exact","19830 MIDWAY RD, TERRY, MS, 39170",611230154,"R"
101724,"19830 NE 10 COURT","MIAMI","FL",33179,25.958143826,-80.1812524169999,224,"19830 NE 10 COURT, MIAMI, FL, 33179","Match","Exact","19830 NE 10TH CT, MIAMI, FL, 33179",116030727,"L"
101725,"19830 NE 14TH AVENUE","MIAMI","FL",33179,25.958577674,-80.1739867329999,225,"19830 NE 14TH AVENUE, MIAMI, FL, 33179","Match","Non_Exact","19830 NE 14TH AVE, MIAMI, FL, 33179",116035332,"L"
101726,"19831 COACHMANS TRACE","CORNELIUS","NC",28031,35.471163754,-80.867994056,226,"19831 COACHMANS TRACE, CORNELIUS, NC, 28031","Match","Exact","19831 COACHMANS TRCE, CORNELIUS, NC, 28031",70530185,"L"
101727,"19832 COUNTY LINE RD","SPRING HILL","FL",34610,28.433702038,-82.488103307,227,"19832 COUNTY LINE RD, SPRING HILL, FL, 34610","Match","Exact","19832 COUNTY LINE RD, SPRING HILL, FL, 34610",635963537,"R"
101728,"19833 D DR SOUTH/ P O BOX 21","Marshall","MI",49068,42.210357107,-84.904606969,228,"19833 D DR SOUTH/ P O BOX 21, Marshall, MI, 49068","Match","Non_Exact","19833 E DR S, MARSHALL, MI, 49068",11707551,"L"
101729,"19835 SCOTT HILL DR","HAGERSTOWN","MD",21742,39.641423951,-77.6788110379999,229,"19835 SCOTT HILL DR, HAGERSTOWN, MD, 21742","Match","Exact","19835 SCOTT HILL DR, HAGERSTOWN, MD, 21742",612158443,"L"
101730,"19838 KECK RD","SILOAM SPRINGS","AR",72761,36.1682960900001,-94.4743708399999,230,"19838 KECK RD, SILOAM SPRINGS, AR, 72761","Match","Exact","19838 KECK RD, SILOAM SPRINGS, AR, 72761",47871158,"R"
101731,"1984 AN COUNTY ROAD 391","PALESTINE","TX",75801,31.7742071370001,-95.498285951,231,"1984 AN COUNTY ROAD 391, PALESTINE, TX, 75801","Match","Exact","1984 AN COUNTY ROAD 391, PALESTINE, TX, 75801",651448583,"R"
101732,"1984 CENTRAL AVENUE","NORTHBROOK","IL",60062,42.117075722,-87.865340917,232,"1984 CENTRAL AVENUE, NORTHBROOK, IL, 60062","Match","Exact","1984 CENTRAL AVE, NORTHBROOK, IL, 60062",111719111,"R"
101733,"1984 ELKMONT ROAD","MEMPHIS","TN",38116,35.018781394,-89.9971904879999,233,"1984 ELKMONT ROAD, MEMPHIS, TN, 38116","Match","Exact","1984 ELKMONT RD, MEMPHIS, TN, 38116",72923026,"L"
101734,"1984 HOWELL MILL RD  UNIT 250241","ATLANTA","GA",30325,33.808883994,-84.412876516,234,"1984 HOWELL MILL RD  UNIT 250241, ATLANTA, GA, 30325","Match","Non_Exact","1984 HOWELL MILL RD, ATLANTA, GA, 30318",17335135,"L"
101735,"1984 HOWELL MILL RD NW UNIT 19772","ATLANTA","GA",30325,NA,NA,235,"1984 HOWELL MILL RD NW UNIT 19772, ATLANTA, GA, 30325","No_Match",NA,NA,NA,NA
101736,"1984 HOWELL MILL RD NW UNIT 250531","ATLANTA","GA",30325,NA,NA,236,"1984 HOWELL MILL RD NW UNIT 250531, ATLANTA, GA, 30325","No_Match",NA,NA,NA,NA
101737,"1984 HOWELL MILL RD UNIT 19615","ATLANTA","GA",30325,33.808883994,-84.412876516,237,"1984 HOWELL MILL RD UNIT 19615, ATLANTA, GA, 30325","Match","Non_Exact","1984 HOWELL MILL RD, ATLANTA, GA, 30318",17335135,"L"
101738,"1984 HOWELL MILL ROAD NW   BOX 2504","ATLANTA","GA",30318,33.808883994,-84.412876516,238,"1984 HOWELL MILL ROAD NW   BOX 2504, ATLANTA, GA, 30318","Match","Non_Exact","1984 HOWELL MILL RD, ATLANTA, GA, 30318",17335135,"L"
101739,"1984 HUTCHINS STREET","BERLIN","NH",3570,44.4879674540001,-71.1613255039999,239,"1984 HUTCHINS STREET, BERLIN, NH, 3570","Match","Exact","1984 HUTCHINS ST, BERLIN, NH, 03570",167918097,"R"
101740,"1984 LOCUST BERRY DR","KISSIMMEE","FL",34743,28.311733481,-81.363724496,240,"1984 LOCUST BERRY DR, KISSIMMEE, FL, 34743","Match","Exact","1984 LOCUST BERRY DR, KISSIMMEE, FL, 34743",176695282,"R"
101741,"1984 LOWER BELLBROOK RD","XENIA","OH",45385,39.6340728340001,-84.017036859,241,"1984 LOWER BELLBROOK RD, XENIA, OH, 45385","Match","Exact","1984 LOWER BELLBROOK RD, XENIA, OH, 45385",143378672,"L"
101742,"1984 MAPLE AVE APT B103","COSTA MESA","CA",92627,33.646935822,-117.921895611,242,"1984 MAPLE AVE APT B103, COSTA MESA, CA, 92627","Match","Exact","1984 MAPLE AVE, COSTA MESA, CA, 92627",649782228,"R"
101743,"1984 ROXEY LANE","WINDER","GA",30680,33.9449195550001,-83.800828096,243,"1984 ROXEY LANE, WINDER, GA, 30680","Match","Exact","1984 ROXEY LN, WINDER, GA, 30680",653485916,"L"
101744,"1984 SHILOH RD","CLAREMONT","NC",28610,35.675407653,-81.103438366,244,"1984 SHILOH RD, CLAREMONT, NC, 28610","Match","Exact","1984 SHILOH RD, CLAREMONT, NC, 28610",45952195,"R"
101745,"1984 W STATE RD 44","CONNERSVILLE","IN",47331,NA,NA,245,"1984 W STATE RD 44, CONNERSVILLE, IN, 47331","Tie",NA,NA,NA,NA
101746,"1984 WEST CANAL RIDGE ROAD","TAYLORSVILLE","UT",84129,NA,NA,246,"1984 WEST CANAL RIDGE ROAD, TAYLORSVILLE, UT, 84129","No_Match",NA,NA,NA,NA
101747,"1984 WOODVIEW COURT","AUBURN","AL",36832,32.567623364,-85.4922175579999,247,"1984 WOODVIEW COURT, AUBURN, AL, 36832","Match","Exact","1984 WOODVIEW CT, AUBURN, AL, 36832",1609856,"R"
101748,"19840 154TH STREET NW","ELK RIVER","MN",55330,45.3299706600001,-93.6611336449999,248,"19840 154TH STREET NW, ELK RIVER, MN, 55330","Match","Exact","19840 154TH ST NW, ELK RIVER, MN, 55330",97758969,"L"
101749,"19840 AVONDALE DR","BROOKFIELD","WI",53045,43.0180228360001,-88.159292776,249,"19840 AVONDALE DR, BROOKFIELD, WI, 53045","Match","Exact","19840 AVONDALE DR, BROOKFIELD, WI, 53045",53846894,"R"
101750,"19843 BUFFALO ROAD","LAURELVILLE","OH",43135,39.455432914,-82.73205107,250,"19843 BUFFALO ROAD, LAURELVILLE, OH, 43135","Match","Exact","19843 BUFFALO RD, LAURELVILLE, OH, 43135",642838268,"L"
101751,"19845 CRISTO LANE","ROWLAND HEIGHTS","CA",91748,33.980789116,-117.86609673,251,"19845 CRISTO LANE, ROWLAND HEIGHTS, CA, 91748","Match","Exact","19845 CRISTO LN, ROWLAND HEIGHTS, CA, 91748",636045169,"R"
101752,"19845 LOWES CROSSING ROAD","MILLSBORO","DE",19966,NA,NA,252,"19845 LOWES CROSSING ROAD, MILLSBORO, DE, 19966","No_Match",NA,NA,NA,NA
101753,"19845 N COSTA DEL SOL","MARICOPA","AZ",85138,NA,NA,253,"19845 N COSTA DEL SOL, MARICOPA, AZ, 85138","No_Match",NA,NA,NA,NA
101754,"19845 VALLEY BLVD","WALNUT","CA",91789,34.004467865,-117.868427494,254,"19845 VALLEY BLVD, WALNUT, CA, 91789","Match","Exact","19845 VALLEY BLVD, WALNUT, CA, 91789",141725051,"L"
101755,"19845 WEST MCNICHOLS","DETROIT","MI",48219,42.41516764,-83.2365253579999,255,"19845 WEST MCNICHOLS, DETROIT, MI, 48219","Match","Non_Exact","19845 W MCNICHOLS RD, DETROIT, MI, 48219",95422245,"L"
101756,"19847 RUSTIC LAKE LANE","CYPRESS","TX",77433,29.889732813,-95.710462015,256,"19847 RUSTIC LAKE LANE, CYPRESS, TX, 77433","Match","Exact","19847 RUSTIC LAKE LN, CYPRESS, TX, 77433",633572368,"R"
101757,"19849 NORDHOFF ST SUITE 305C","NORTHRIDGE","CA",91324,34.231936111,-118.565670191,257,"19849 NORDHOFF ST SUITE 305C, NORTHRIDGE, CA, 91324","Match","Exact","19849 NORDHOFF ST, NORTHRIDGE, CA, 91324",640419127,"R"
101758,"1985 BAIRD ROAD","PENFIELD","NY",14526,43.137464632,-77.463770611,258,"1985 BAIRD ROAD, PENFIELD, NY, 14526","Match","Exact","1985 BAIRD RD, PENFIELD, NY, 14526",14546323,"R"
101759,"1985 BAKER WILLIAMS RD","CORINTH","KY",41010,38.533221966,-84.538547024,259,"1985 BAKER WILLIAMS RD, CORINTH, KY, 41010","Match","Exact","1985 BAKER WILLIAMS RD, CORINTH, KY, 41010",103853951,"L"
101760,"1985 BENCH RD","MONTPELIER","ID",83254,42.2820142460001,-111.286978649,260,"1985 BENCH RD, MONTPELIER, ID, 83254","Match","Exact","1985 BENCH RD, MONTPELIER, ID, 83254",167324652,"L"
101761,"1985 BIRMINGHAM RD","MILTON","GA",30004,34.163934054,-84.300836276,261,"1985 BIRMINGHAM RD, MILTON, GA, 30004","Match","Exact","1985 BIRMINGHAM RD, MILTON, GA, 30004",17421870,"R"
101762,"1985 COMO PARK BLVD","LANCASTER","NY",14086,42.892747441,-78.674531015,262,"1985 COMO PARK BLVD, LANCASTER, NY, 14086","Match","Exact","1985 COMO PARK BLVD, LANCASTER, NY, 14086",48308498,"R"
101763,"1985 CR 252","BERTRAM","TX",78605,30.759771491,-98.0829739979999,263,"1985 CR 252, BERTRAM, TX, 78605","Match","Exact","1985 CO RD 252, BERTRAM, TX, 78605",146511161,"L"
101764,"1985 DAVIDSON AVENUE SUITE 5B","BRONX","NY",10453,40.853071927,-73.909188757,264,"1985 DAVIDSON AVENUE SUITE 5B, BRONX, NY, 10453","Match","Exact","1985 DAVIDSON AVE, BRONX, NY, 10453",80299671,"L"
101765,"1985 DELAWARE AVE APT 2G","BUFFALO","NY",14216,42.938537932,-78.86739799,265,"1985 DELAWARE AVE APT 2G, BUFFALO, NY, 14216","Match","Exact","1985 DELAWARE AVE, BUFFALO, NY, 14216",638105750,"R"
101766,"1985 EAST MAIN STREET","ROCHESTER","NY",14609,NA,NA,266,"1985 EAST MAIN STREET, ROCHESTER, NY, 14609","No_Match",NA,NA,NA,NA
101767,"1985 FELICITA RD","ESCONDIDO","CA",92025,33.097776906,-117.08302537,267,"1985 FELICITA RD, ESCONDIDO, CA, 92025","Match","Exact","1985 FELICITA RD, ESCONDIDO, CA, 92025",195455142,"R"
101768,"1985 GARRY OAKS AVE UNIT B","DUPONT","WA",98327,47.098529123,-122.652663469,268,"1985 GARRY OAKS AVE UNIT B, DUPONT, WA, 98327","Match","Exact","1985 GARRY OAKS AVE, DUPONT, WA, 98327",625031255,"R"
101769,"1985 HENDERSON RD 1120","COLUMBUS","OH",43220,40.055610911,-83.071767082,269,"1985 HENDERSON RD 1120, COLUMBUS, OH, 43220","Match","Non_Exact","1985 W HENDERSON RD, COLUMBUS, OH, 43220",135679452,"L"
101770,"1985 HOWARD CIR NE","ATLANTA","GA",30307,33.76403328,-84.3212763659999,270,"1985 HOWARD CIR NE, ATLANTA, GA, 30307","Match","Exact","1985 HOWARD CIR NE, ATLANTA, GA, 30307",23366497,"R"
101771,"1985 ISAAC NEWTON SQ W STE 103","RESTON","VA",20190,38.9529709780001,-77.33894027,271,"1985 ISAAC NEWTON SQ W STE 103, RESTON, VA, 20190","Match","Exact","1985 ISAAC NEWTON SQ W, RESTON, VA, 20190",76044705,"L"
101772,"1985 KEMP ROAD","MARIETTA","GA",30066,34.060551823,-84.4950377329999,272,"1985 KEMP ROAD, MARIETTA, GA, 30066","Match","Exact","1985 KEMP RD, MARIETTA, GA, 30066",17168564,"L"
101773,"1985 LINCOLN WAY STE 23 275","WHITE OAK","PA",13131,40.338623129,-79.809735265,273,"1985 LINCOLN WAY STE 23 275, WHITE OAK, PA, 13131","Match","Non_Exact","1985 LINCOLN WAY, WHITE OAK, PA, 15131",619158080,"L"
101774,"1985 LINCOLN WAY STE 23 NO 178","WHITE OAK","PA",15131,40.338623129,-79.809735265,274,"1985 LINCOLN WAY STE 23 NO 178, WHITE OAK, PA, 15131","Match","Exact","1985 LINCOLN WAY, WHITE OAK, PA, 15131",619158080,"L"
101775,"1985 LINCOLN WAY STE 23-483","WHITE OAK","PA",15131,40.338623129,-79.809735265,275,"1985 LINCOLN WAY STE 23-483, WHITE OAK, PA, 15131","Match","Exact","1985 LINCOLN WAY, WHITE OAK, PA, 15131",619158080,"L"
101776,"1985 LINCOLN WAY SUITE 23 - 275","WHITE OAK","PA",15131,40.338623129,-79.809735265,276,"1985 LINCOLN WAY SUITE 23 - 275, WHITE OAK, PA, 15131","Match","Exact","1985 LINCOLN WAY, WHITE OAK, PA, 15131",619158080,"L"
101777,"1985 LINCOLN WAY SUITE 23164","WHITE OAK","PA",15131,40.338623129,-79.809735265,277,"1985 LINCOLN WAY SUITE 23164, WHITE OAK, PA, 15131","Match","Exact","1985 LINCOLN WAY, WHITE OAK, PA, 15131",619158080,"L"
101778,"1985 MICHIGAN AVENUE","SALT LAKE CITY","UT",84108,40.74776275,-111.834037274,278,"1985 MICHIGAN AVENUE, SALT LAKE CITY, UT, 84108","Match","Exact","1985 MICHIGAN AVE, SALT LAKE CITY, UT, 84108",176081508,"L"
101779,"1985 MONTERO CIRCLE","DELTONA","FL",32738,28.898803743,-81.2032003739999,279,"1985 MONTERO CIRCLE, DELTONA, FL, 32738","Match","Exact","1985 MONTERO CIR, DELTONA, FL, 32738",94502989,"L"
101780,"1985 NOLTE RD","EVERSON","WA",98247,48.9168917220001,-122.379745347,280,"1985 NOLTE RD, EVERSON, WA, 98247","Match","Exact","1985 NOLTE RD, EVERSON, WA, 98247",183780708,"L"
101781,"1985 NORTH PARK PLACE SE","ATLANTA","GA",30339,33.9036791570001,-84.479825471,281,"1985 NORTH PARK PLACE SE, ATLANTA, GA, 30339","Match","Non_Exact","1985 N PARK PL NW, ATLANTA, GA, 30339",17252791,"R"
101782,"1985 OLD FOUNTAIN ROAD","LAWRENCEVILLE","GA",30043,34.0167246990001,-83.943211678,282,"1985 OLD FOUNTAIN ROAD, LAWRENCEVILLE, GA, 30043","Match","Exact","1985 OLD FOUNTAIN RD, LAWRENCEVILLE, GA, 30043",648404892,"L"
101783,"1985 RED ROBIN DRIVE S","XENIA","OH",45385,39.765876479,-84.003385737,283,"1985 RED ROBIN DRIVE S, XENIA, OH, 45385","Match","Exact","1985 RED ROBIN DR S, XENIA, OH, 45385",619616718,"L"
101784,"1985 RIVIERA DRIVE STE 103-205","MOUNT PLEASANT","SC",29464,32.8219233180001,-79.816078531,284,"1985 RIVIERA DRIVE STE 103-205, MOUNT PLEASANT, SC, 29464","Match","Exact","1985 RIVIERA DR, MOUNT PLEASANT, SC, 29464",619854111,"R"
101785,"1985 RUTGERS BOULEVARD","LAKEWOOD","NJ",8701,40.070519984,-74.163281535,285,"1985 RUTGERS BOULEVARD, LAKEWOOD, NJ, 8701","Match","Exact","1985 RUTGERS BLVD, LAKEWOOD, NJ, 08701",203849888,"R"
101786,"1985 SE DAVIS ST","MCMINNVILE","OR",97128,45.193524482,-123.195400394,286,"1985 SE DAVIS ST, MCMINNVILE, OR, 97128","Match","Non_Exact","1985 SE DAVIS ST, MCMINNVILLE, OR, 97128",156494163,"L"
101787,"1985 SE WILLOWBROOK DRIVE","WAUKEE","IA",50263,41.59180674,-93.860855524,287,"1985 SE WILLOWBROOK DRIVE, WAUKEE, IA, 50263","Match","Exact","1985 SE WILLOWBROOK DR, WAUKEE, IA, 50263",617112653,"R"
101788,"1985 SUMMERVILLE LN","ORANGE","TX",77630,30.061360537,-93.923103618,288,"1985 SUMMERVILLE LN, ORANGE, TX, 77630","Match","Exact","1985 SUMMERVILLE LN, ORANGE, TX, 77630",627637927,"L"
101789,"1985 WC BRASWELL RD","SMITHFIELD","NC",27577,NA,NA,289,"1985 WC BRASWELL RD, SMITHFIELD, NC, 27577","Tie",NA,NA,NA,NA
101790,"1985 ZETTLER DRIVE","COLUMBUS","OH",43223,NA,NA,290,"1985 ZETTLER DRIVE, COLUMBUS, OH, 43223","No_Match",NA,NA,NA,NA
101791,"19851 SR 93 S","LOGAN","OH",43138,NA,NA,291,"19851 SR 93 S, LOGAN, OH, 43138","No_Match",NA,NA,NA,NA
101792,"19851 VIRGINIA HILLS RD","COUNCIL BLUFFS","IA",51503,41.2322451040001,-95.805082081,292,"19851 VIRGINIA HILLS RD, COUNCIL BLUFFS, IA, 51503","Match","Exact","19851 VIRGINIA HILLS RD, COUNCIL BLUFFS, IA, 51503",43924715,"R"
101793,"1985N 360E","PROVO","UT",84604,NA,NA,293,"1985N 360E, PROVO, UT, 84604","No_Match",NA,NA,NA,NA
101794,"1986 AMSTERDAM AVE","NEW YORK","NY",10032,40.8337178150001,-73.941414701,294,"1986 AMSTERDAM AVE, NEW YORK, NY, 10032","Match","Exact","1986 AMSTERDAM AVE, NEW YORK, NY, 10032",59655766,"L"
101795,"1986 COPPER OAKS CIRCLE","BLUE SPRINGS","MO",64015,39.030261296,-94.286168642,295,"1986 COPPER OAKS CIRCLE, BLUE SPRINGS, MO, 64015","Match","Non_Exact","1986 NW COPPER OAKS CIR, BLUE SPRINGS, MO, 64015",91508728,"R"
101796,"1986 CORINTH CHURCH ROAD","LOUDON","TN",37774,35.6832470140001,-84.350593136,296,"1986 CORINTH CHURCH ROAD, LOUDON, TN, 37774","Match","Exact","1986 CORINTH CHURCH RD, LOUDON, TN, 37774",99969182,"L"
101797,"1986 DIETRICH ROAD","MIFFLINBURG","PA",17844,40.9346525730001,-77.0828527,297,"1986 DIETRICH ROAD, MIFFLINBURG, PA, 17844","Match","Exact","1986 DIETRICH RD, MIFFLINBURG, PA, 17844",48197305,"L"
101798,"1986 E BEAUMONT RD","COLUMBUS","OH",43224,40.053278699,-82.964067649,298,"1986 E BEAUMONT RD, COLUMBUS, OH, 43224","Match","Exact","1986 E BEAUMONT RD, COLUMBUS, OH, 43224",218695497,"L"
101799,"1986 JOY VIEW LANE","HENDERSON","NV",89012,36.011236706,-115.065820914,299,"1986 JOY VIEW LANE, HENDERSON, NV, 89012","Match","Exact","1986 JOY VIEW LN, HENDERSON, NV, 89012",201941338,"R"
101800,"19861 CHESAPEAKE LANE","HUNTINGTON BEACH","CA",92646,33.6738709800001,-117.96620028,300,"19861 CHESAPEAKE LANE, HUNTINGTON BEACH, CA, 92646","Match","Exact","19861 CHESAPEAKE LN, HUNTINGTON BEACH, CA, 92646",144020850,"R"
101801,"19861 LEMANS CIRCLE","YORBA LINDA","CA",92886,NA,NA,301,"19861 LEMANS CIRCLE, YORBA LINDA, CA, 92886","No_Match",NA,NA,NA,NA
101802,"19864 BEECHCREST PLACE","ESTERO","FL",33928,NA,NA,302,"19864 BEECHCREST PLACE, ESTERO, FL, 33928","No_Match",NA,NA,NA,NA
101803,"19864 E DARTMOUTH PL","AURORA","CO",80013,39.6599657630001,-104.755979866,303,"19864 E DARTMOUTH PL, AURORA, CO, 80013","Match","Exact","19864 E DARTMOUTH PL, AURORA, CO, 80013",177558326,"L"
101804,"19864 STATE ROUTE 124","WELLSTON","OH",45692,39.0851120720001,-82.486071061,304,"19864 STATE ROUTE 124, WELLSTON, OH, 45692","Match","Exact","19864 STATE RTE 124, WELLSTON, OH, 45692",640438498,"R"
101805,"19867 NW COUNTY ROAD 67","BRISTOL","FL",32321,30.343802274,-84.9298681939999,305,"19867 NW COUNTY ROAD 67, BRISTOL, FL, 32321","Match","Exact","19867 CO RD 67, BRISTOL, FL, 32321",619664247,"L"
101806,"19867 PRAIRIE STREET","CHATSWORTH","CA",91311,34.2391569540001,-118.566021422,306,"19867 PRAIRIE STREET, CHATSWORTH, CA, 91311","Match","Exact","19867 PRAIRIE ST, CHATSWORTH, CA, 91311",141540103,"R"
101807,"1987 CRESCENT DRIVE","LAS CRUCES","NM",88005,32.2894901230001,-106.765553959,307,"1987 CRESCENT DRIVE, LAS CRUCES, NM, 88005","Match","Exact","1987 CRESCENT DR, LAS CRUCES, NM, 88005",612729590,"L"
101808,"1987 E MAIN STREET SUITE B","VENTURA","CA",93001,34.278109882,-119.270405529,308,"1987 E MAIN STREET SUITE B, VENTURA, CA, 93001","Match","Non_Exact","1987 E MAIN ST, VENTURA, CA, 93001",109951662,"L"
101809,"1987 FRESH AIRE STREET","FLAGSTAFF","AZ",86001,35.183166726,-111.680955986,309,"1987 FRESH AIRE STREET, FLAGSTAFF, AZ, 86001","Match","Non_Exact","1987 W FRESH AIRE ST, FLAGSTAFF, AZ, 86001",189138900,"L"
101810,"1987 LEGACY LANE","WINONA LAKE","IN",46590,41.21777503,-85.793277119,310,"1987 LEGACY LANE, WINONA LAKE, IN, 46590","Match","Exact","1987 LEGACY LN, WINONA LAKE, IN, 46590",7941347,"R"
101811,"1987 OAKDALE AVENUE","SAN FRANCISCO","CA",94124,37.738648959,-122.397472977,311,"1987 OAKDALE AVENUE, SAN FRANCISCO, CA, 94124","Match","Exact","1987 OAKDALE AVE, SAN FRANCISCO, CA, 94124",192295622,"R"
101812,"1987 OBSIDIAN TRL","FORNEY","TX",75126,NA,NA,312,"1987 OBSIDIAN TRL, FORNEY, TX, 75126","No_Match",NA,NA,NA,NA
101813,"1987 PALOMINO DRIVE","GREENWOOD","AR",72936,35.216447294,-94.227659924,313,"1987 PALOMINO DRIVE, GREENWOOD, AR, 72936","Match","Exact","1987 PALOMINO DR, GREENWOOD, AR, 72936",625278529,"L"
101814,"1987 ROOKWOOD RD","CLEVELAND","OH",44112,41.5486441910001,-81.552606222,314,"1987 ROOKWOOD RD, CLEVELAND, OH, 44112","Match","Exact","1987 ROOKWOOD RD, CLEVELAND, OH, 44112",61123827,"L"
101815,"1987 WHEELER ST N","ROSEVILLE","MN",55113,45.0013382000001,-93.1744310669999,315,"1987 WHEELER ST N, ROSEVILLE, MN, 55113","Match","Exact","1987 WHEELER ST N, ROSEVILLE, MN, 55113",97640812,"L"
101816,"19870 VIA ESCUELA DRIVE","SARATOGA","CA",95070,37.278165819,-122.020250703,316,"19870 VIA ESCUELA DRIVE, SARATOGA, CA, 95070","Match","Exact","19870 VIA ESCUELA DR, SARATOGA, CA, 95070",122941394,"R"
101817,"19871 RODRIGUES AVENUE","CUPERTINO","CA",95014,37.3197385300001,-122.021293729,317,"19871 RODRIGUES AVENUE, CUPERTINO, CA, 95014","Match","Exact","19871 RODRIGUES AVE, CUPERTINO, CA, 95014",123019056,"L"
101818,"19874 NW 27TH AVE","MIAMI GARDENS","FL",33056,25.954703517,-80.2460523789999,318,"19874 NW 27TH AVE, MIAMI GARDENS, FL, 33056","Match","Exact","19874 NW 27TH AVE, MIAMI GARDENS, FL, 33056",116027673,"L"
101819,"19874 WATSON CIRCLE NW","ELK RIVER","MN",55330,45.3311445740001,-93.5878557349999,319,"19874 WATSON CIRCLE NW, ELK RIVER, MN, 55330","Match","Exact","19874 WATSON CIR NW, ELK RIVER, MN, 55330",97756297,"L"
101820,"19875 EVERGREEN MILLS ROAD","LEESBURG","VA",20175,39.069767782,-77.573605083,320,"19875 EVERGREEN MILLS ROAD, LEESBURG, VA, 20175","Match","Exact","19875 EVERGREEN MILLS RD, LEESBURG, VA, 20175",641077050,"L"
101821,"19876 LEROY ROAD","LEROY","MI",49655,44.0381410430001,-85.478431035,321,"19876 LEROY ROAD, LEROY, MI, 49655","Match","Exact","19876 LEROY RD, LEROY, MI, 49655",110620450,"L"
101822,"19876 TROTTER LANE","YORBA LINDA","CA",92886,33.9053998630001,-117.788068652,322,"19876 TROTTER LANE, YORBA LINDA, CA, 92886","Match","Exact","19876 TROTTER LN, YORBA LINDA, CA, 92886",609049538,"R"
101823,"198762","NASHVILLE","TN",37219,NA,NA,323,"198762, NASHVILLE, TN, 37219","No_Match",NA,NA,NA,NA
101824,"19879 CHURCH STREET","REHOBOTH BEACH","DE",19971,38.715295295,-75.0942221459999,324,"19879 CHURCH STREET, REHOBOTH BEACH, DE, 19971","Match","Exact","19879 CHURCH ST, REHOBOTH BCH, DE, 19971",625411982,"R"
101825,"1988 ASHTON STREET","MIDDLEBURG","FL",32068,30.092478074,-81.749357929,325,"1988 ASHTON STREET, MIDDLEBURG, FL, 32068","Match","Exact","1988 ASHTON ST, MIDDLEBURG, FL, 32068",83829749,"L"
101826,"1988 COUNTY I","GRAFTON","WI",53024,NA,NA,326,"1988 COUNTY I, GRAFTON, WI, 53024","No_Match",NA,NA,NA,NA
101827,"1988 COUNTY ROAD 5005","BLUE RIDGE","TX",75424,33.342092172,-96.38181308,327,"1988 COUNTY ROAD 5005, BLUE RIDGE, TX, 75424","Match","Exact","1988 CO RD 5005, BLUE RIDGE, TX, 75424",63277523,"L"
101828,"1988 DAFFODIL DRIVE","XENIA","OH",45485,39.7686011810001,-84.0035165629999,328,"1988 DAFFODIL DRIVE, XENIA, OH, 45485","Match","Non_Exact","1988 DAFFIODIL DR, XENIA, OH, 45385",640730914,"L"
101829,"1988 EL ARBOLITA DRIVE","GLENDALE","CA",91208,34.1940320160001,-118.22500534,329,"1988 EL ARBOLITA DRIVE, GLENDALE, CA, 91208","Match","Exact","1988 EL ARBOLITA DR, GLENDALE, CA, 91208",627831697,"R"
101830,"1988 FLAT SHOALS ROAD SE","CONYERS","GA",30013,33.6314192,-83.981986921,330,"1988 FLAT SHOALS ROAD SE, CONYERS, GA, 30013","Match","Exact","1988 FLAT SHOALS RD SE, CONYERS, GA, 30013",23750061,"L"
101831,"1988 GENTLE CREEK DRIVE","FAIRFIELD","CA",94534,38.1667158380001,-122.129603768,331,"1988 GENTLE CREEK DRIVE, FAIRFIELD, CA, 94534","Match","Exact","1988 GENTLE CREEK DR, FAIRFIELD, CA, 94534",192592018,"L"
101832,"1988 HEGEMON CREST DRIVE","COLUMBUS","OH",43219,40.0101672440001,-82.9443648979999,332,"1988 HEGEMON CREST DRIVE, COLUMBUS, OH, 43219","Match","Exact","1988 HEGEMON CREST DR, COLUMBUS, OH, 43219",218682155,"L"
101833,"1988 NE 178TH STREET","NORTH MIAMI BEACH","FL",33162,25.9398268680001,-80.160890153,333,"1988 NE 178TH STREET, NORTH MIAMI BEACH, FL, 33162","Match","Exact","1988 NE 178TH ST, N MIAMI BEACH, FL, 33162",116035743,"R"
101834,"1988 NEWMARK AVE","COOS BAY","OR",97420,43.391671167,-124.25212158,334,"1988 NEWMARK AVE, COOS BAY, OR, 97420","Match","Exact","1988 NEWMARK AVE, COOS BAY, OR, 97420",638317141,"R"
101835,"1988 STONECREST CT","VISTA","CA",92081,33.1669623350001,-117.234178407,335,"1988 STONECREST CT, VISTA, CA, 92081","Match","Exact","1988 STONECREST CT, VISTA, CA, 92081",195294506,"L"
101836,"19880 W HICKORY TRAIL","NEW BERLIN","WI",53146,42.9517971600001,-88.160839191,336,"19880 W HICKORY TRAIL, NEW BERLIN, WI, 53146","Match","Exact","19880 W HICKORY TRL, NEW BERLIN, WI, 53146",53846728,"R"
101837,"19882 PLEASANT VALLEY RD","NORTH SAN JUAN","CA",95960,39.3076697750001,-121.164703328,337,"19882 PLEASANT VALLEY RD, NORTH SAN JUAN, CA, 95960","Match","Exact","19882 PLEASANT VALLEY RD, NORTH SAN JUAN, CA, 95960",636415578,"L"
101838,"19884 CRAIG MACK LN","WALKER","LA",70785,30.5643440170001,-90.757476346,338,"19884 CRAIG MACK LN, WALKER, LA, 70785","Match","Non_Exact","19884 CRAIG MACK RD, WALKER, LA, 70785",624478904,"R"
101839,"19884 MCGUIRE ROAD","HARVARD","IL",60033,42.403053705,-88.584614312,339,"19884 MCGUIRE ROAD, HARVARD, IL, 60033","Match","Exact","19884 MCGUIRE RD, HARVARD, IL, 60033",119862375,"R"
101840,"19884 SW YOCOM LN","BEAVERTON","OR",97007,45.4675885230001,-122.881753059,340,"19884 SW YOCOM LN, BEAVERTON, OR, 97007","Match","Exact","19884 SW YOCOM LN, BEAVERTON, OR, 97007",605207390,"L"
101841,"19885 DETROIT ROAD BOX 165","ROCKY RIVER","OH",44116,41.4793844710001,-81.8417196299999,341,"19885 DETROIT ROAD BOX 165, ROCKY RIVER, OH, 44116","Match","Exact","19885 DETROIT RD, ROCKY RIVER, OH, 44116",61097593,"L"
101842,"19885 VIA NATALIE","YORBA LINDA","CA",92867,33.8784089070001,-117.783621502,342,"19885 VIA NATALIE, YORBA LINDA, CA, 92867","Match","Non_Exact","19885 VIA NATALIE, YORBA LINDA, CA, 92887",144112486,"R"
101843,"19886 PATILLO RD","MT VERNON","AL",36560,31.1060872460001,-88.12110975,343,"19886 PATILLO RD, MT VERNON, AL, 36560","Match","Exact","19886 PATILLO RD, MOUNT VERNON, AL, 36560",61955993,"R"
101844,"19888 E KELLY RD","HARPER WOODS","MI",48225,42.443093864,-82.946473275,344,"19888 E KELLY RD, HARPER WOODS, MI, 48225","Match","Exact","19888 KELLY RD, HARPER WOODS, MI, 48225",95736489,"R"
101845,"1989 BERKSHIRE CLUB DRIVE","CINCINNATI","OH",45230,39.0914839930001,-84.3710685409999,345,"1989 BERKSHIRE CLUB DRIVE, CINCINNATI, OH, 45230","Match","Exact","1989 BERKSHIRE CLUB DR, CINCINNATI, OH, 45230",640627475,"L"
101846,"1989 COUNTY RD 7","GRAND MARIAS","MN",55604,47.756860841,-90.3821018899999,346,"1989 COUNTY RD 7, GRAND MARIAS, MN, 55604","Match","Non_Exact","1989 CO RD 7, GRAND MARAIS, MN, 55604",194168275,"R"
101847,"1989 DAWSON AVENUE","SIGNAL HILL","CA",90755,33.7931830480001,-118.165483361,347,"1989 DAWSON AVENUE, SIGNAL HILL, CA, 90755","Match","Exact","1989 DAWSON AVE, SIGNAL HILL, CA, 90755",141700281,"L"
101848,"1989 FALMOUTH ROAD","CENTERVILLE","MA",2632,41.6549936060001,-70.3591391579999,348,"1989 FALMOUTH ROAD, CENTERVILLE, MA, 2632","Match","Exact","1989 FALMOUTH RD, CENTERVILLE, MA, 02632",121628342,"R"
101849,"1989 OAK TREE COVE - SUITE C","HERNANDO","MS",38632,34.831151021,-89.9940572899999,349,"1989 OAK TREE COVE - SUITE C, HERNANDO, MS, 38632","Match","Exact","1989 OAK TREE COVE, HERNANDO, MS, 38632",91841933,"L"
101850,"1989 POTASH RD","CEDARTOWN","GA",30125,33.9723123430001,-85.359111814,350,"1989 POTASH RD, CEDARTOWN, GA, 30125","Match","Exact","1989 POTASH RD, CEDARTOWN, GA, 30125",636524423,"R"
101851,"1989 RIM RIDGE CT","WALNUT CREEK","CA",94597,37.914462433,-122.097605401,351,"1989 RIM RIDGE CT, WALNUT CREEK, CA, 94597","Match","Exact","1989 RIM RIDGE CT, WALNUT CREEK, CA, 94597",192048717,"L"
101852,"1989 S GLENCOE RD","NEW SMYRNA BEACH","FL",32168,28.987156241,-80.958279472,352,"1989 S GLENCOE RD, NEW SMYRNA BEACH, FL, 32168","Match","Exact","1989 S GLENCOE RD, NEW SMYRNA BEACH, FL, 32168",94581122,"R"
101853,"1989 SE CHELTENHAM STREET","PORT SAINT LUIE","FL",34983,27.282380334,-80.330051708,353,"1989 SE CHELTENHAM STREET, PORT SAINT LUIE, FL, 34983","Match","Non_Exact","1989 SE CHELTENHAM ST, PORT SAINT LUCIE, FL, 34983",120154200,"L"
101854,"1989 SHAMROCK AVENUE","LANCASTER","SC",29720,34.760488921,-80.794921244,354,"1989 SHAMROCK AVENUE, LANCASTER, SC, 29720","Match","Exact","1989 SHAMROCK AVE, LANCASTER, SC, 29720",40691127,"L"
101855,"1989","CINCINNATI","OH",45231,NA,NA,355,"1989, CINCINNATI, OH, 45231","No_Match",NA,NA,NA,NA
101856,"19890 DAIRYLAND DRIVE","REDDING","CA",96002,40.4959578630001,-122.326268391,356,"19890 DAIRYLAND DRIVE, REDDING, CA, 96002","Match","Exact","19890 DAIRYLAND DR, REDDING, CA, 96002",126701689,"L"
101857,"19892 CULLEN RIDGE DIRVE","PORTER","TX",77365,30.0917908660001,-95.2700763779999,357,"19892 CULLEN RIDGE DIRVE, PORTER, TX, 77365","Match","Non_Exact","19892 CULLEN RIDGE DR, PORTER, TX, 77365",641128965,"R"
101858,"19896 TROTTER LANE","YORBA LINDA","CA",92886,33.9054029000001,-117.787708185,358,"19896 TROTTER LANE, YORBA LINDA, CA, 92886","Match","Exact","19896 TROTTER LN, YORBA LINDA, CA, 92886",609049538,"R"
101859,"19897 TWP HWY 135","NEVADA","OH",44849,40.7044562300001,-83.149794161,359,"19897 TWP HWY 135, NEVADA, OH, 44849","Match","Exact","19897 TWP HWY 135, NEVADA, OH, 44849",13048784,"R"
101860,"19899 N COUNTY RD 2400 E","OAKLAND","IL",61943,39.6650689080001,-88.028010205,360,"19899 N COUNTY RD 2400 E, OAKLAND, IL, 61943","Match","Exact","19899 N CO RD 2400 E, OAKLAND, IL, 61943",5457349,"L"
101861,"198A ROGERS AVENUE","BROOKLYN","NY",11225,40.6688098750001,-73.953387961,361,"198A ROGERS AVENUE, BROOKLYN, NY, 11225","Match","Exact","198 ROGERS AVE, BROOKLYN, NY, 11225",59079396,"R"
101862,"198C MARYLAND AVE","STATEN ISLAND","NY",10305,40.612011108,-74.068255839,362,"198C MARYLAND AVE, STATEN ISLAND, NY, 10305","Match","Exact","198 MARYLAND AVE, STATEN ISLAND, NY, 10305",636672309,"L"
101863,"199 AMHURST PLACE","VALPARAISO","IN",46385,41.4632057810001,-87.159350639,363,"199 AMHURST PLACE, VALPARAISO, IN, 46385","Match","Exact","199 AMHURST PL, VALPARAISO, IN, 46385",119919745,"L"
101864,"199 AUGUSTA PLANTATION DR UNIT B","MYRTLE BEACH","SC",29579,33.7376998350001,-78.897415106,364,"199 AUGUSTA PLANTATION DR UNIT B, MYRTLE BEACH, SC, 29579","Match","Exact","199 AUGUSTA PLANTATION DR, MYRTLE BEACH, SC, 29579",630407775,"L"
101865,"199 BEACH ROAD","GLENCOE","IL",60022,42.1375210940001,-87.75571817,365,"199 BEACH ROAD, GLENCOE, IL, 60022","Match","Exact","199 BEACH RD, GLENCOE, IL, 60022",111840506,"R"
101866,"199 BELMONT STREET","WORCESTER","MA",1605,42.2727422300001,-71.785702336,366,"199 BELMONT STREET, WORCESTER, MA, 1605","Match","Exact","199 BELMONT ST, WORCESTER, MA, 01605",40010856,"L"
101867,"199 BRANUM ALY","KINGSTON","TN",37763,35.817079086,-84.3920431019999,367,"199 BRANUM ALY, KINGSTON, TN, 37763","Match","Exact","199 BRANUM ALY, KINGSTON, TN, 37763",88603139,"L"
101868,"199 BURR RD","EAST NORTHPORT","NY",11731,40.849149036,-73.312654795,368,"199 BURR RD, EAST NORTHPORT, NY, 11731","Match","Exact","199 BURR RD, E NORTHPORT, NY, 11731",113981179,"L"
101869,"199 CALDWELL RD","WEST MONROE","LA",71291,32.546528471,-92.194640981,369,"199 CALDWELL RD, WEST MONROE, LA, 71291","Match","Exact","199 CALDWELL RD, WEST MONROE, LA, 71291",616287621,"L"
101870,"199 CALLOWAY LANE","PELHAM","AL",35124,33.2973276020001,-86.804862621,370,"199 CALLOWAY LANE, PELHAM, AL, 35124","Match","Exact","199 CALLOWAY LN, PELHAM, AL, 35124",624048633,"L"
101871,"199 CAMP STREET","PROVIDENCE","RI",2906,41.8439123270001,-71.402193848,371,"199 CAMP STREET, PROVIDENCE, RI, 2906","Match","Exact","199 CAMP ST, PROVIDENCE, RI, 02906",47463714,"R"
101872,"199 CENTER AVENUE","WESTWOOD","NJ",7675,40.9910914160001,-74.031183846,372,"199 CENTER AVENUE, WESTWOOD, NJ, 7675","Match","Exact","199 CENTER AVE, WESTWOOD, NJ, 07675",64378998,"R"
101873,"199 CHANCELLOR AVE","NEWARK","NJ",7112,40.7070564370001,-74.216970379,373,"199 CHANCELLOR AVE, NEWARK, NJ, 7112","Match","Exact","199 CHANCELLOR AVE, NEWARK, NJ, 07112",63465289,"R"
101874,"199 CHOPIN ST","TROY","MI",48083,42.5493032410001,-83.1427779809999,374,"199 CHOPIN ST, TROY, MI, 48083","Match","Exact","199 CHOPIN ST, TROY, MI, 48083",69742843,"L"
101875,"199 CHURCHILL AVE","WOODSIDE","CA",94062,37.443024586,-122.231481337,375,"199 CHURCHILL AVE, WOODSIDE, CA, 94062","Match","Exact","199 CHURCHILL AVE, WOODSIDE, CA, 94062",638612833,"R"
101876,"199 CLARK STREET","ATHENS","TN",37303,35.4451571390001,-84.604393108,376,"199 CLARK STREET, ATHENS, TN, 37303","Match","Exact","199 CLARK ST, ATHENS, TN, 37303",617747535,"L"
101877,"199 COLLEGE WAY","AUBURN","CA",95603,38.8933415660001,-121.070643032,377,"199 COLLEGE WAY, AUBURN, CA, 95603","Match","Exact","199 COLLEGE WAY, AUBURN, CA, 95603",106772332,"L"
101878,"199 E FLAGLER ST   UNIT 206","MIAMI","FL",33131,NA,NA,378,"199 E FLAGLER ST   UNIT 206, MIAMI, FL, 33131","No_Match",NA,NA,NA,NA
101879,"199 E FLAGLER ST SUITE 407","MIAMI","FL",33131,NA,NA,379,"199 E FLAGLER ST SUITE 407, MIAMI, FL, 33131","No_Match",NA,NA,NA,NA
101880,"199 E SOUTH LAKEVIEW DRIVE","EAST PEORIA","IL",61611,40.766103372,-89.503146434,380,"199 E SOUTH LAKEVIEW DRIVE, EAST PEORIA, IL, 61611","Match","Exact","199 E S LAKEVIEW DR, EAST PEORIA, IL, 61611",606604827,"L"
101881,"199 E WENTWORTH AVE","WEST ST PAUL","MN",55118,NA,NA,381,"199 E WENTWORTH AVE, WEST ST PAUL, MN, 55118","No_Match",NA,NA,NA,NA
101882,"199 EAST MAIN STREET","DUNDEE","FL",33838,NA,NA,382,"199 EAST MAIN STREET, DUNDEE, FL, 33838","Tie",NA,NA,NA,NA
101883,"199 EAST TABOR ROAD","PHILADELPHIA","PA",19120,40.0312274890001,-75.12023276,383,"199 EAST TABOR ROAD, PHILADELPHIA, PA, 19120","Match","Exact","199 E TABOR RD, PHILADELPHIA, PA, 19120",131419930,"L"
101884,"199 ESSEX ST","LAWRENCE","MA",1840,42.7077392250001,-71.158594029,384,"199 ESSEX ST, LAWRENCE, MA, 1840","Match","Exact","199 ESSEX ST, LAWRENCE, MA, 01840",86667956,"R"
101885,"199 FARVIEW ST","CARBONDALE","PA",18407,41.586358719,-75.504417281,385,"199 FARVIEW ST, CARBONDALE, PA, 18407","Match","Exact","199 FARVIEW ST, CARBONDALE, PA, 18407",139331161,"L"
101886,"199 FRANCIS ST","HAWKINS","TX",75765,NA,NA,386,"199 FRANCIS ST, HAWKINS, TX, 75765","No_Match",NA,NA,NA,NA
101887,"199 FRONT STREET","SAXTON","PA",16678,40.2243522790001,-78.2365716909999,387,"199 FRONT STREET, SAXTON, PA, 16678","Match","Exact","199 FRONT ST, SAXTON, PA, 16678",50150535,"L"
101888,"199 FRONTAGE ROAD","BLACKFOOT","ID",83221,43.1947840010001,-112.368703951,388,"199 FRONTAGE ROAD, BLACKFOOT, ID, 83221","Match","Exact","199 FRONTAGE RD, BLACKFOOT, ID, 83221",643738786,"L"
101889,"199 GENE JOHNSON","STANTON","TN",38069,35.451612288,-89.445744756,389,"199 GENE JOHNSON, STANTON, TN, 38069","Match","Non_Exact","199 GENE JOHNSON RD, STANTON, TN, 38069",639466964,"L"
101890,"199 HITCHCOCK HALL 2050 NEIL AVE","COLUMBUS","OH",43201,40.0017324930001,-83.015479587,390,"199 HITCHCOCK HALL 2050 NEIL AVE, COLUMBUS, OH, 43201","Match","Exact","2050 NEIL AVE, COLUMBUS, OH, 43201",649632047,"R"
101891,"199 HOLLY AVENUE","HEMPSTEAD","NY",11550,40.7040728580001,-73.604502219,391,"199 HOLLY AVENUE, HEMPSTEAD, NY, 11550","Match","Exact","199 HOLLY AVE, HEMPSTEAD, NY, 11550",147627728,"R"
101892,"199 HUGH COX ROAD","GRAY","TN",37615,36.3863620230001,-82.512479981,392,"199 HUGH COX ROAD, GRAY, TN, 37615","Match","Exact","199 HUGH COX RD, GRAY, TN, 37615",127927466,"L"
101893,"199 HWY 80","RODEO","NM",88506,NA,NA,393,"199 HWY 80, RODEO, NM, 88506","No_Match",NA,NA,NA,NA
101894,"199 JOE MELTZ RD","WARWICK","MD",21912,39.3987988420001,-75.773783034,394,"199 JOE MELTZ RD, WARWICK, MD, 21912","Match","Exact","199 JOE MELTZ RD, WARWICK, MD, 21912",649446218,"L"
101895,"199 LAKE ROAD","FAR HILLS","NJ",7931,40.704987896,-74.6329594429999,395,"199 LAKE ROAD, FAR HILLS, NJ, 7931","Match","Exact","199 LAKE RD, FAR HILLS, NJ, 07931",60002472,"L"
101896,"199 LEE AVE 919","BROOKLYN","NY",11211,NA,NA,396,"199 LEE AVE 919, BROOKLYN, NY, 11211","No_Match",NA,NA,NA,NA
101897,"199 LEE AVE STE 395","BROOKLYN","NY",11211,NA,NA,397,"199 LEE AVE STE 395, BROOKLYN, NY, 11211","No_Match",NA,NA,NA,NA
101898,"199 LEE AVE SUITE 236","BROOKLYN","NY",11211,NA,NA,398,"199 LEE AVE SUITE 236, BROOKLYN, NY, 11211","No_Match",NA,NA,NA,NA
101899,"199 LEE AVE SUITE 903","BROOKLYN","NY",11211,NA,NA,399,"199 LEE AVE SUITE 903, BROOKLYN, NY, 11211","No_Match",NA,NA,NA,NA
101900,"199 LEE AVENUE STE 512","BROOKLYN","NY",11211,NA,NA,400,"199 LEE AVENUE STE 512, BROOKLYN, NY, 11211","No_Match",NA,NA,NA,NA
101901,"199 LEE AVENUE SUITE 903","BROOKLYN","NY",11211,NA,NA,401,"199 LEE AVENUE SUITE 903, BROOKLYN, NY, 11211","No_Match",NA,NA,NA,NA
101902,"199 LENOX AVENUE APT 1","NEW YORK","NY",10026,40.8045843290001,-73.947824703,402,"199 LENOX AVENUE APT 1, NEW YORK, NY, 10026","Match","Exact","199 LENOX AVE, NEW YORK, NY, 10026",634257253,"L"
101903,"199 LINCOLN STREET","GLOVERSVILLE","NY",12078,43.054521349,-74.358163079,403,"199 LINCOLN STREET, GLOVERSVILLE, NY, 12078","Match","Exact","199 LINCOLN ST, GLOVERSVILLE, NY, 12078",153655090,"R"
101904,"199 LOGTOWN RD","PORT JERVIS","NY",12771,41.339715954,-74.600603779,404,"199 LOGTOWN RD, PORT JERVIS, NY, 12771","Match","Exact","199 LOGTOWN RD, PORT JERVIS, NY, 12771",124396660,"L"
101905,"199 MELROSE AVE","YOUNGSTOWN","OH",44512,41.0446502130001,-80.653562888,405,"199 MELROSE AVE, YOUNGSTOWN, OH, 44512","Match","Exact","199 MELROSE AVE, YOUNGSTOWN, OH, 44512",64598835,"R"
101906,"199 MEXICO ROAD","PINE GROVE","PA",17963,40.5335871720001,-76.3624879119999,406,"199 MEXICO ROAD, PINE GROVE, PA, 17963","Match","Exact","199 MEXICO RD, PINE GROVE, PA, 17963",70951834,"L"
101907,"199 N ARROYO GRANDE 150","HENDERSON","NV",89074,NA,NA,407,"199 N ARROYO GRANDE 150, HENDERSON, NV, 89074","No_Match",NA,NA,NA,NA
101908,"199 N HANGAR WAY","SAN BERNARDINO","CA",92415,NA,NA,408,"199 N HANGAR WAY, SAN BERNARDINO, CA, 92415","No_Match",NA,NA,NA,NA
101909,"199 NORTH MILWAUKEE AVENUE","WHEELING","IL",60090,42.1431836350001,-87.909605179,409,"199 NORTH MILWAUKEE AVENUE, WHEELING, IL, 60090","Match","Exact","199 N MILWAUKEE AVE, WHEELING, IL, 60090",111838516,"R"
101910,"199 NW 9TH AVE APT 11","MULBERRY","FL",33860,27.895477209,-81.965503476,410,"199 NW 9TH AVE APT 11, MULBERRY, FL, 33860","Match","Non_Exact","199 NE 9TH AVE, MULBERRY, FL, 33860",104908226,"R"
101911,"199 OCEAN AVENUE","JERSEY CITY","NJ",7305,40.694985133,-74.0914687169999,411,"199 OCEAN AVENUE, JERSEY CITY, NJ, 7305","Match","Exact","199 OCEAN AVE, JERSEY CITY, NJ, 07305",59603328,"L"
101912,"199 PARK ROAD 35","GROESBECK","TX",76642,NA,NA,412,"199 PARK ROAD 35, GROESBECK, TX, 76642","No_Match",NA,NA,NA,NA
101913,"199 PARKER ROAD","LUCEDALE","MS",39452,30.7936525980001,-88.513491636,413,"199 PARKER ROAD, LUCEDALE, MS, 39452","Match","Exact","199 PARKER RD, LUCEDALE, MS, 39452",606180526,"R"
101914,"199 PASEO DE PERALTA","SANTA FE","NM",87501,35.692141512,-105.947944383,414,"199 PASEO DE PERALTA, SANTA FE, NM, 87501","Match","Non_Exact","199 PSO DE PERALTA, SANTA FE, NM, 87501",169424165,"L"
101915,"199 PIERCE STREET APT 521","SOMERSET","NJ",8873,40.5360293360001,-74.54101302,415,"199 PIERCE STREET APT 521, SOMERSET, NJ, 8873","Match","Exact","199 PIERCE ST, SOMERSET, NJ, 08873",647408853,"R"
101916,"199 PINE STREET","NEW HYDE PARK","NY",11040,40.7553267910001,-73.66313421,416,"199 PINE STREET, NEW HYDE PARK, NY, 11040","Match","Exact","199 PINE ST, NEW HYDE PARK, NY, 11040",147671399,"L"
101917,"199 PIONEER LN","MCMINNVILLE","TN",37110,35.6446439050001,-85.8142836599999,417,"199 PIONEER LN, MCMINNVILLE, TN, 37110","Match","Exact","199 PIONEER LN, MCMINNVILLE, TN, 37110",81353179,"L"
101918,"199 PLEASANT STREET","LOWELL","MA",1852,42.6368494290001,-71.2987765569999,418,"199 PLEASANT STREET, LOWELL, MA, 1852","Match","Exact","199 PLEASANT ST, LOWELL, MA, 01852",86878937,"R"
101919,"199 PORTER POND","MOOS","CT",6354,41.681422335,-71.8329558839999,419,"199 PORTER POND, MOOS, CT, 6354","Match","Non_Exact","199 PORTER POND RD, MOOSUP, CT, 06354",56457785,"L"
101920,"199 REVERE STREET","REVERE","MA",2151,42.4165008030001,-71.001681058,420,"199 REVERE STREET, REVERE, MA, 2151","Match","Exact","199 REVERE ST, REVERE, MA, 02151",85729901,"R"
101921,"199 RIDGE WAY LN","CLAYTON","NC",27520,35.5643235640001,-78.5491214049999,421,"199 RIDGE WAY LN, CLAYTON, NC, 27520","Match","Exact","199 RIDGE WAY LN, CLAYTON, NC, 27520",26552583,"L"
101922,"199 SCOLES AVE","CLIFTON","NJ",7012,40.8516707100001,-74.152985745,422,"199 SCOLES AVE, CLIFTON, NJ, 7012","Match","Exact","199 SCOLES AVE, CLIFTON, NJ, 07012",65251477,"L"
101923,"199 SERVISTAR INDUSTRIAL WAY STE 2","WESTFIELD","MA",1085,42.155753341,-72.7454537,423,"199 SERVISTAR INDUSTRIAL WAY STE 2, WESTFIELD, MA, 1085","Match","Exact","199 SERVISTAR INDUSTRIAL WAY, WESTFIELD, MA, 01085",4049903,"L"
101924,"199 SHUNPIKE RD","CROMWELL","CT",6416,41.6266235530001,-72.6763338769999,424,"199 SHUNPIKE RD, CROMWELL, CT, 6416","Match","Exact","199 SHUNPIKE RD, CROMWELL, CT, 06416",113885987,"L"
101925,"199 SILVER LANE APT 23","EUGENE","OR",97404,44.095597293,-123.131751544,425,"199 SILVER LANE APT 23, EUGENE, OR, 97404","Match","Exact","199 SILVER LN, EUGENE, OR, 97404",178164892,"R"
101926,"199 SOUTH ADDISON ROAD SUITE 104","WOOD DALE","IL",60191,41.9522547330001,-87.988923148,426,"199 SOUTH ADDISON ROAD SUITE 104, WOOD DALE, IL, 60191","Match","Exact","199 S ADDISON RD, WOOD DALE, IL, 60191",112582495,"L"
101927,"199 SOUTH STREET","ELMHURST","IL",60126,41.8853801450001,-87.934622356,427,"199 SOUTH STREET, ELMHURST, IL, 60126","Match","Exact","199 SOUTH ST, ELMHURST, IL, 60126",112545559,"L"
101928,"199 SOUTHGATE AVE 3093","DALY CITY","CA",94015,37.697258618,-122.484316323,428,"199 SOUTHGATE AVE 3093, DALY CITY, CA, 94015","Match","Exact","199 SOUTHGATE AVE, DALY CITY, CA, 94015",192367203,"L"
101929,"199 TAYLOR AVENUE","ANNAPOLIS","MD",21401,38.97965393,-76.50590111,429,"199 TAYLOR AVENUE, ANNAPOLIS, MD, 21401","Match","Exact","199 TAYLOR AVE, ANNAPOLIS, MD, 21401",68172685,"L"
101930,"199 THOMAS CREEK ROAD","PETAL","MS",39465,31.332128789,-89.117915338,430,"199 THOMAS CREEK ROAD, PETAL, MS, 39465","Match","Exact","199 THOMAS CREEK RD, PETAL, MS, 39465",612168791,"R"
101931,"199 THORNCLIFF ROAD","BUFFALO","NY",14223,42.9831706200001,-78.8663324949999,431,"199 THORNCLIFF ROAD, BUFFALO, NY, 14223","Match","Exact","199 THORNCLIFF RD, BUFFALO, NY, 14223",48287647,"R"
101932,"199 TOTOWA ROAD","TOTOWA","NJ",7512,40.904588027,-74.2025382159999,432,"199 TOTOWA ROAD, TOTOWA, NJ, 7512","Match","Exact","199 TOTOWA RD, TOTOWA, NJ, 07512",65261457,"L"
101933,"199 W MAIN ST","LEXINGTON","OH",44904,40.679728335,-82.589917959,433,"199 W MAIN ST, LEXINGTON, OH, 44904","Match","Exact","199 W MAIN ST, LEXINGTON, OH, 44904",12882391,"L"
101934,"199 W SALISBURY ST","PITTSBORO","NC",27312,35.7218094850001,-79.180854274,434,"199 W SALISBURY ST, PITTSBORO, NC, 27312","Match","Exact","199 W SALISBURY ST, PITTSBORO, NC, 27312",71344137,"L"
101935,"199 W SHELLCRACKER ROAD","JESUP","GA",31545,31.6449162390001,-81.848330006,435,"199 W SHELLCRACKER ROAD, JESUP, GA, 31545","Match","Exact","199 W SHELLCRACKER RD, JESUP, GA, 31545",651138713,"R"
101936,"199 W TRAFFORD ST","LONG BEACH","CA",90805,33.8682799650001,-118.204772883,436,"199 W TRAFFORD ST, LONG BEACH, CA, 90805","Match","Exact","199 W TRAFFORD ST, LONG BEACH, CA, 90805",142691074,"R"
101937,"199 WEST 8TH STREET NO 3","SOUTH BOSTON","MA",2027,NA,NA,437,"199 WEST 8TH STREET NO 3, SOUTH BOSTON, MA, 2027","No_Match",NA,NA,NA,NA
101938,"199 WEST 8TH STREET NO 3","SOUTH BOSTON","MA",2127,42.333420995,-71.0518192649999,438,"199 WEST 8TH STREET NO 3, SOUTH BOSTON, MA, 2127","Match","Non_Exact","199 W 8TH ST, SOUTH BOSTON, MA, 02127",85712349,"R"
101939,"199 WEST CARRIAGE HILL SUITE 102","CHAGRIN FALLS","OH",44022,41.432808928,-81.379365564,439,"199 WEST CARRIAGE HILL SUITE 102, CHAGRIN FALLS, OH, 44022","Match","Non_Exact","199 W CARRIAGE DR, CHAGRIN FALLS, OH, 44022",61137203,"R"
101940,"199 WEST NEWTON STREET","BOSTON","MA",2116,42.3437507560001,-71.079390138,440,"199 WEST NEWTON STREET, BOSTON, MA, 2116","Match","Exact","199 W NEWTON ST, BOSTON, MA, 02116",85728114,"R"
101941,"199 WILSON STREET","BREWER","ME",4412,44.7923287360001,-68.762265429,441,"199 WILSON STREET, BREWER, ME, 4412","Match","Exact","199 WILSON ST, BREWER, ME, 04412",123629247,"R"
101942,"199","ATLANTA","GA",30349,NA,NA,442,"199, ATLANTA, GA, 30349","No_Match",NA,NA,NA,NA
101943,"199","SCRANTON","PA",18504,NA,NA,443,"199, SCRANTON, PA, 18504","No_Match",NA,NA,NA,NA
101944,"1990 BAGLEY AVENUE","DETROIT","MI",48216,42.327526107,-83.0711800729999,444,"1990 BAGLEY AVENUE, DETROIT, MI, 48216","Match","Non_Exact","1990 BAGLEY ST, DETROIT, MI, 48216",95713812,"R"
101945,"1990 BEDFORD DR","TITUSVILLE","FL",32796,28.6523501070001,-80.872447811,445,"1990 BEDFORD DR, TITUSVILLE, FL, 32796","Match","Exact","1990 BEDFORD DR, TITUSVILLE, FL, 32796",93889360,"L"
101946,"1990 BOHMANN DRIVE","RICHLAND CENTER","WI",53581,43.3176365040001,-90.378296741,446,"1990 BOHMANN DRIVE, RICHLAND CENTER, WI, 53581","Match","Non_Exact","1990 BOHMAN DR, RICHLAND CENTER, WI, 53581",635629355,"L"
101947,"1990 CENTURY PLACE NE STE 222","ATLANTA","GA",30345,NA,NA,447,"1990 CENTURY PLACE NE STE 222, ATLANTA, GA, 30345","Tie",NA,NA,NA,NA
101948,"1990 CLEAR SKY TRAIL","BUSHLAND","TX",79012,NA,NA,448,"1990 CLEAR SKY TRAIL, BUSHLAND, TX, 79012","No_Match",NA,NA,NA,NA
101949,"1990 DUNZWEILER DR","ZANESVILLE","OH",43701,39.974859909,-82.045602753,449,"1990 DUNZWEILER DR, ZANESVILLE, OH, 43701","Match","Exact","1990 DUNZWEILER DR, ZANESVILLE, OH, 43701",631975887,"R"
101950,"1990 ELM STREET","STRATFORD","CT",6615,41.187949062,-73.1278385319999,450,"1990 ELM STREET, STRATFORD, CT, 6615","Match","Exact","1990 ELM ST, STRATFORD, CT, 06615",3228121,"R"
101951,"1990 FLORIDA BLVD","DENHAM SPRINGS","LA",70726,NA,NA,451,"1990 FLORIDA BLVD, DENHAM SPRINGS, LA, 70726","No_Match",NA,NA,NA,NA
101952,"1990 GARNERS FERRY","GREENSBORO","GA",30642,33.462975982,-83.263584533,452,"1990 GARNERS FERRY, GREENSBORO, GA, 30642","Match","Non_Exact","1990 GARNER'S FERRY, GREENSBORO, GA, 30642",618464209,"L"
101953,"1990 HEDGE BROOKE TRL NW","ACWORTH","GA",30101,34.0047951720001,-84.709031621,453,"1990 HEDGE BROOKE TRL NW, ACWORTH, GA, 30101","Match","Exact","1990 HEDGE BROOKE TRL NW, ACWORTH, GA, 30101",634051676,"L"
101954,"1990 KIMBERLY VILLAGE LANE UNIT E","MARIETTA","GA",30067,33.9069796680001,-84.4708196019999,454,"1990 KIMBERLY VILLAGE LANE UNIT E, MARIETTA, GA, 30067","Match","Exact","1990 KIMBERLY VILLAGE LN, MARIETTA, GA, 30067",17252841,"R"
101955,"1990 LEXINGTON AVE APT 8H","NEW YORK","NY",10035,40.8021349140001,-73.939063233,455,"1990 LEXINGTON AVE APT 8H, NEW YORK, NY, 10035","Match","Exact","1990 LEXINGTON AVE, NEW YORK, NY, 10035",59658027,"L"
101956,"1990 M STREET NW SUITE 530","WASHTINGTON","DC",20036,38.905654487,-77.044679204,456,"1990 M STREET NW SUITE 530, WASHTINGTON, DC, 20036","Match","Non_Exact","1990 M ST NW, WASHINGTON, DC, 20036",76225374,"L"
101957,"1990 MAIN STREET SUITE 750","SARASOTA","FL",34236,27.3364602570001,-82.531257741,457,"1990 MAIN STREET SUITE 750, SARASOTA, FL, 34236","Match","Exact","1990 MAIN ST, SARASOTA, FL, 34236",16373707,"R"
101958,"1990 MORNING SUN LN","NAPLES","FL",34119,26.264608912,-81.7066083459999,458,"1990 MORNING SUN LN, NAPLES, FL, 34119","Match","Exact","1990 MORNING SUN LN, NAPLES, FL, 34119",115167964,"R"
101959,"1990 N CALIFORNIA BLVD   STE 16","WALNUT CREEK","CA",94596,37.906661484,-122.066392157,459,"1990 N CALIFORNIA BLVD   STE 16, WALNUT CREEK, CA, 94596","Match","Non_Exact","1990 N CALIFORNIA BLVD, WALNUT CREEK, CA, 94596",192050091,"R"
101960,"1990 N CALIFORNIA BLVD 8TH FLOOR","WALNUT CREEK","CA",94596,37.906661484,-122.066392157,460,"1990 N CALIFORNIA BLVD 8TH FLOOR, WALNUT CREEK, CA, 94596","Match","Non_Exact","1990 N CALIFORNIA BLVD, WALNUT CREEK, CA, 94596",192050091,"R"
101961,"1990 NE 163RD STREET - SUITE 233","NORTH MIAMI BEACH","FL",33162,25.9260161940001,-80.160335687,461,"1990 NE 163RD STREET - SUITE 233, NORTH MIAMI BEACH, FL, 33162","Match","Non_Exact","1990 NE 163RD ST, N MIAMI BEACH, FL, 33162",116036336,"R"
101962,"1990 NORTHCLIFF DRIVE","COLUMBUS","OH",43229,40.072210614,-82.964553086,462,"1990 NORTHCLIFF DRIVE, COLUMBUS, OH, 43229","Match","Exact","1990 NORTHCLIFF DR, COLUMBUS, OH, 43229",218660712,"L"
101963,"1990 NW 34TH AVE","COCONUT CREEK","FL",33066,26.25350948,-80.171049282,463,"1990 NW 34TH AVE, COCONUT CREEK, FL, 33066","Match","Exact","1990 NW 34TH AVE, COCONUT CREEK, FL, 33066",114767694,"R"
101964,"1990 POST OAK BLVD SUITE 2400","HOUSTON","TX",77056,29.7454528120001,-95.46109434,464,"1990 POST OAK BLVD SUITE 2400, HOUSTON, TX, 77056","Match","Exact","1990 POST OAK BLVD, HOUSTON, TX, 77056",96553173,"R"
101965,"1990 RALEIGH PL","HOFFMAN ESTATES","IL",60169,42.06002197,-88.128746026,465,"1990 RALEIGH PL, HOFFMAN ESTATES, IL, 60169","Match","Exact","1990 RALEIGH PL, HOFFMAN EST, IL, 60169",111691200,"R"
101966,"1990 S BUNDY DRIVE - SUITE 420","LOS ANGELES","CA",90025,34.0340868850001,-118.455712943,466,"1990 S BUNDY DRIVE - SUITE 420, LOS ANGELES, CA, 90025","Match","Non_Exact","1990 S BUNDY DR, LOS ANGELES, CA, 90025",141568490,"L"
101967,"1990 S DELAWARE SUITE 403","SAN MATEO","CA",94403,NA,NA,467,"1990 S DELAWARE SUITE 403, SAN MATEO, CA, 94403","No_Match",NA,NA,NA,NA
101968,"1990 S MYERS","BOISE","ID",83706,NA,NA,468,"1990 S MYERS, BOISE, ID, 83706","Tie",NA,NA,NA,NA
101969,"1990 SOUTH STONE MOUNTAIN","LITHONIA","GA",30052,NA,NA,469,"1990 SOUTH STONE MOUNTAIN, LITHONIA, GA, 30052","No_Match",NA,NA,NA,NA
101970,"1990 SW 70TH TERRACE","PLANTATION","FL",33317,26.098723324,-80.241661756,470,"1990 SW 70TH TERRACE, PLANTATION, FL, 33317","Match","Exact","1990 SW 70TH TER, PLANTATION, FL, 33317",114711323,"L"
101971,"1990 W NEW HAVEN AVENUE SUITE 201","MELBOURNE","FL",32904,NA,NA,471,"1990 W NEW HAVEN AVENUE SUITE 201, MELBOURNE, FL, 32904","No_Match",NA,NA,NA,NA
101972,"1990 WORLEY LANE","MONTGOMERY","AL",36106,32.3449698850001,-86.237483867,472,"1990 WORLEY LANE, MONTGOMERY, AL, 36106","Match","Exact","1990 WORLEY LN, MONTGOMERY, AL, 36106",1476866,"R"
101973,"19900 BASTANCHURY ROAD","YORBA LINDA","CA",92886,NA,NA,473,"19900 BASTANCHURY ROAD, YORBA LINDA, CA, 92886","No_Match",NA,NA,NA,NA
101974,"19900 BEACH BLVD SUITE C-1","HUNTINGTON BEACH","CA",92648,33.6736810200001,-117.988469212,474,"19900 BEACH BLVD SUITE C-1, HUNTINGTON BEACH, CA, 92648","Match","Exact","19900 BEACH BLVD, HUNTINGTON BEACH, CA, 92648",609063242,"L"
101975,"19900 BEACH BOULEVARD C-1","HUNTINGTON BEACH","CA",92648,33.6736810200001,-117.988469212,475,"19900 BEACH BOULEVARD C-1, HUNTINGTON BEACH, CA, 92648","Match","Exact","19900 BEACH BLVD, HUNTINGTON BEACH, CA, 92648",609063242,"L"
101976,"19900 FORD AVENUE","SKY VALLEY","CA",92241,33.9047373550001,-116.406530624,476,"19900 FORD AVENUE, SKY VALLEY, CA, 92241","Match","Non_Exact","19900 FORD AVE, DESERT HOT SPRINGS, CA, 92241",194691919,"R"
101977,"19900 HARRIER FLIGHT TRL","PFLUGERVILLE","TX",78660,30.465754046,-97.554897877,477,"19900 HARRIER FLIGHT TRL, PFLUGERVILLE, TX, 78660","Match","Exact","19900 HARRIER FLIGHT TRL, PFLUGERVILLE, TX, 78660",635282395,"R"
101978,"19900 NW 86 TH CT","HIALEAH","FL",33015,25.95450256,-80.342299048,478,"19900 NW 86 TH CT, HIALEAH, FL, 33015","Match","Non_Exact","19900 NW 86TH CT, HIALEAH, FL, 33015",116059991,"L"
101979,"19900 SOUTH 2301","STOCKTON","MO",65785,NA,NA,479,"19900 SOUTH 2301, STOCKTON, MO, 65785","No_Match",NA,NA,NA,NA
101980,"19900 SUSSEX","DETROIT","MI",48235,42.437841953,-83.1964409669999,480,"19900 SUSSEX, DETROIT, MI, 48235","Match","Non_Exact","19900 SUSSEX ST, DETROIT, MI, 48235",95423954,"R"
101981,"19900 SW 114TH AVE","MIAMI","FL",33157,25.5818704960001,-80.3766582919999,481,"19900 SW 114TH AVE, MIAMI, FL, 33157","Match","Exact","19900 SW 114TH AVE, MIAMI, FL, 33157",115994491,"R"
101982,"19901 E COUNTRY CLUB DR APT308","AVENTURA","FL",33180,NA,NA,482,"19901 E COUNTRY CLUB DR APT308, AVENTURA, FL, 33180","Tie",NA,NA,NA,NA
101983,"19901 SOUTHWEST FREEWAY","SUGAR LAND","TX",77479,NA,NA,483,"19901 SOUTHWEST FREEWAY, SUGAR LAND, TX, 77479","No_Match",NA,NA,NA,NA
101984,"19902 BRIARLEY HALL DRIVE","POOLESVILLE","MD",20837,39.151324328,-77.415501229,484,"19902 BRIARLEY HALL DRIVE, POOLESVILLE, MD, 20837","Match","Exact","19902 BRIARLEY HALL DR, POOLESVILLE, MD, 20837",648085848,"R"
101985,"19902 SONTERRA LANE","RICHMOND","TX",77407,29.689145658,-95.7316114979999,485,"19902 SONTERRA LANE, RICHMOND, TX, 77407","Match","Exact","19902 SONTERRA LN, RICHMOND, TX, 77407",648706867,"R"
101986,"19903 SONTERRA LN","RICHMOND","TX",77407,29.6891373870001,-95.731619784,486,"19903 SONTERRA LN, RICHMOND, TX, 77407","Match","Exact","19903 SONTERRA LN, RICHMOND, TX, 77407",648706867,"L"
101987,"19903 WAXMYRTLE WAY","MONTGOMERY VILLAGE","MD",20886,39.1819726460001,-77.180281679,487,"19903 WAXMYRTLE WAY, MONTGOMERY VILLAGE, MD, 20886","Match","Exact","19903 WAXMYRTLE WAY, MONTGOMERY VILLAGE, MD, 20886",62092532,"L"
101988,"19905 CATAMARAN COURT","CORNELIUS","NC",28031,NA,NA,488,"19905 CATAMARAN COURT, CORNELIUS, NC, 28031","No_Match",NA,NA,NA,NA
101989,"19905 N 5TH STREET","CITRONELLE","AL",36522,31.106721593,-88.2469659399999,489,"19905 N 5TH STREET, CITRONELLE, AL, 36522","Match","Exact","19905 N 5TH ST, CITRONELLE, AL, 36522",61921026,"L"
101990,"19907 CASTLEBAR TER","GAITHERSBURG","MD",20886,39.183089066,-77.180134516,490,"19907 CASTLEBAR TER, GAITHERSBURG, MD, 20886","Match","Exact","19907 CASTLEBAR TER, GAITHERSBURG, MD, 20886",62093571,"R"
101991,"19907 COUNTRY RUN COURT","MISSOURI CITY","TX",77459,29.537696231,-95.514801158,491,"19907 COUNTRY RUN COURT, MISSOURI CITY, TX, 77459","Match","Non_Exact","19907 COUNTRY RUN DR, MISSOURI CITY, TX, 77459",652487125,"R"
101992,"19907 LANBURY AVENUE","WARRENSVILLE","OH",44122,41.455898253,-81.5393303819999,492,"19907 LANBURY AVENUE, WARRENSVILLE, OH, 44122","Match","Non_Exact","19907 LANBURY AVE, WARRENSVILLE HEIGHTS, OH, 44122",61129094,"L"
101993,"19907 WICKFIELD AVE","CLEVELAND","OH",44122,41.456777103,-81.539341588,493,"19907 WICKFIELD AVE, CLEVELAND, OH, 44122","Match","Exact","19907 WICKFIELD AVE, CLEVELAND, OH, 44122",61129090,"L"
101994,"19909 INKS DRIVE","TUOLUMNE","CA",95379,37.9826033520001,-120.247707311,494,"19909 INKS DRIVE, TUOLUMNE, CA, 95379","Match","Exact","19909 INKS DR, TUOLUMNE, CA, 95379",101460010,"R"
101995,"1991 BOBS LANDING RD","BATH SPRINGS","TN",38311,35.465131587,-88.071998645,495,"1991 BOBS LANDING RD, BATH SPRINGS, TN, 38311","Match","Exact","1991 BOBS LANDING RD, BATH SPRINGS, TN, 38311",607843749,"R"
101996,"1991 BURNSIDE ST","DETROIT","MI",48212,42.405064689,-83.072283727,496,"1991 BURNSIDE ST, DETROIT, MI, 48212","Match","Exact","1991 BURNSIDE ST, DETROIT, MI, 48212",95464873,"L"
101997,"1991 CR 1 UNIT A","MCFADDEN","WY",82083,NA,NA,497,"1991 CR 1 UNIT A, MCFADDEN, WY, 82083","No_Match",NA,NA,NA,NA
101998,"1991 CROCKER RD STE 600-660","WESTLAKE","OH",44145,41.4573518120001,-81.949607763,498,"1991 CROCKER RD STE 600-660, WESTLAKE, OH, 44145","Match","Exact","1991 CROCKER RD, WESTLAKE, OH, 44145",638301884,"L"
101999,"1991 CROCKER ROAD SUITE 600A","WESTLAKE","OH",44145,41.4573518120001,-81.949607763,499,"1991 CROCKER ROAD SUITE 600A, WESTLAKE, OH, 44145","Match","Exact","1991 CROCKER RD, WESTLAKE, OH, 44145",638301884,"L"
102000,"1991 DELOWE DRIVE SW SUITE F4","ATLANTA","GA",30311,33.700585194,-84.457355445,500,"1991 DELOWE DRIVE SW SUITE F4, ATLANTA, GA, 30311","Match","Exact","1991 DELOWE DR SW, ATLANTA, GA, 30311",17433473,"R"
