"ID","Address","City","State","Zip","lat","long","id","input_address","match_indicator","match_type","matched_address","tiger_line_id","tiger_side"
319001,"9633 E LAS TUNAS","TEMPLE CITY","CA",91780,34.106849955,-118.0597599,1,"9633 E LAS TUNAS, TEMPLE CITY, CA, 91780","Match","Non_Exact","9633 LAS TUNAS DR, TEMPLE CITY, CA, 91780",141644636,"L"
319002,"9633 HOLLOW TREE DRIVE","LINCOLN","NE",68512,40.7147392040001,-96.6900411569999,2,"9633 HOLLOW TREE DRIVE, LINCOLN, NE, 68512","Match","Exact","9633 HOLLOW TREE DR, LINCOLN, NE, 68512",28299059,"R"
319003,"9633 LAS TUNAS DR","TEMPLE CITY","CA",91780,34.1068428460001,-118.059811084,3,"9633 LAS TUNAS DR, TEMPLE CITY, CA, 91780","Match","Exact","9633 LAS TUNAS DR, TEMPLE CITY, CA, 91780",141644636,"L"
319004,"9633 SOUTHMILL DR","GLEN ALLEN","VA",23060,37.666151217,-77.556177818,4,"9633 SOUTHMILL DR, GLEN ALLEN, VA, 23060","Match","Exact","9633 SOUTHMILL DR, GLEN ALLEN, VA, 23060",106664320,"R"
319005,"9633 SPRING BREEZE CT","SACRAMENTO","CA",95757,38.4078646620001,-121.433048639,5,"9633 SPRING BREEZE CT, SACRAMENTO, CA, 95757","Match","Non_Exact","9633 SPRING BREEZE CT, ELK GROVE, CA, 95757",133435077,"L"
319006,"9633 STEELE MEADOW RD","CHARLOTTE","NC",28273,35.1439151380001,-80.976172736,6,"9633 STEELE MEADOW RD, CHARLOTTE, NC, 28273","Match","Exact","9633 STEELE MEADOW RD, CHARLOTTE, NC, 28273",70564287,"L"
319007,"9633 US HWY 74W","PEACHLAND","NC",28133,NA,NA,7,"9633 US HWY 74W, PEACHLAND, NC, 28133","No_Match",NA,NA,NA,NA
319008,"9634 FALLING STREAM DRIVE","CHARLOTTE","NC",28214,35.320592579,-80.968086989,8,"9634 FALLING STREAM DRIVE, CHARLOTTE, NC, 28214","Match","Exact","9634 FALLING STREAM DR, CHARLOTTE, NC, 28214",70582822,"R"
319009,"9634 GAMMA RD","KABETOGAMA","MN",56669,48.4231490120001,-93.048855402,9,"9634 GAMMA RD, KABETOGAMA, MN, 56669","Match","Exact","9634 GAMMA RD, KABETOGAMA, MN, 56669",163159485,"R"
319010,"9634 IRBY ST","HOUSTON","TX",77088,29.8832906100001,-95.433724846,10,"9634 IRBY ST, HOUSTON, TX, 77088","Match","Exact","9634 IRBY ST, HOUSTON, TX, 77088",96052416,"R"
319011,"9634 S CRANDON AVE","CHICAGO","IL",60617,41.7203158090001,-87.5668790679999,11,"9634 S CRANDON AVE, CHICAGO, IL, 60617","Match","Exact","9634 S CRANDON AVE, CHICAGO, IL, 60617",111777122,"R"
319012,"9634 THORSK ST APT 526","BOTHELL","WA",98011,47.7623421980001,-122.209639202,12,"9634 THORSK ST APT 526, BOTHELL, WA, 98011","Match","Exact","9634 THORSK ST, BOTHELL, WA, 98011",186598804,"R"
319013,"9635 E MINNESOTA AVE","CHANDLER","AZ",85248,33.217597133,-111.874484183,13,"9635 E MINNESOTA AVE, CHANDLER, AZ, 85248","Match","Exact","9635 E MINNESOTA AVE, CHANDLER, AZ, 85248",128318092,"R"
319014,"9635 MOLLYLEA DRIVE","BATON ROUGE","LA",70815,30.4525181870001,-91.080509034,14,"9635 MOLLYLEA DRIVE, BATON ROUGE, LA, 70815","Match","Exact","9635 MOLLYLEA DR, BATON ROUGE, LA, 70815",92190916,"L"
319015,"9635 NORTH 7TH STREET","PHOENIX","AZ",85020,33.573567047,-112.065168932,15,"9635 NORTH 7TH STREET, PHOENIX, AZ, 85020","Match","Exact","9635 N 7TH ST, PHOENIX, AZ, 85020",128206505,"R"
319016,"9635 PARRAMATTA PLACE","HIGHLANDS RANCH","CO",80130,39.5416374800001,-104.927455372,16,"9635 PARRAMATTA PLACE, HIGHLANDS RANCH, CO, 80130","Match","Non_Exact","9635 S PARRAMATTA PL, HIGHLANDS RANCH, CO, 80130",130851675,"R"
319017,"9635 RAVENSCROFT LN NW","CONCORD","NC",28027,35.4376644650001,-80.7414447099999,17,"9635 RAVENSCROFT LN NW, CONCORD, NC, 28027","Match","Exact","9635 RAVENSCROFT LN NW, CONCORD, NC, 28027",637548307,"L"
319018,"9635 STATE RD","MILLINGTON","MI",48746,43.2476938840001,-83.529343296,18,"9635 STATE RD, MILLINGTON, MI, 48746","Match","Exact","9635 STATE RD, MILLINGTON, MI, 48746",625000885,"R"
319019,"9635 WESTLAND DR","KNOXVILLE","TN",37922,35.8776450610001,-84.0934344839999,19,"9635 WESTLAND DR, KNOXVILLE, TN, 37922","Match","Exact","9635 WESTLAND DR, KNOXVILLE, TN, 37922",42676345,"L"
319020,"9636 99TH COURT","SAINT JOHN","IN",46373,41.4384425740001,-87.451769269,20,"9636 99TH COURT, SAINT JOHN, IN, 46373","Match","Exact","9636 99TH CT, SAINT JOHN, IN, 46373",627828791,"L"
319021,"9636 COUNTY ROAD 6","CASTLEBERRY","AL",36432,NA,NA,21,"9636 COUNTY ROAD 6, CASTLEBERRY, AL, 36432","No_Match",NA,NA,NA,NA
319022,"9636 COURT GLEN DRIVE","HOUSTON","TX",77099,29.673791958,-95.583055192,22,"9636 COURT GLEN DRIVE, HOUSTON, TX, 77099","Match","Exact","9636 COURT GLEN DR, HOUSTON, TX, 77099",96603149,"L"
319023,"9636 GARDEN GROVE BLVD STE 17","GARDEN GROVE","CA",92844,33.7739849000001,-117.964065126,23,"9636 GARDEN GROVE BLVD STE 17, GARDEN GROVE, CA, 92844","Match","Exact","9636 GARDEN GROVE BLVD, GARDEN GROVE, CA, 92844",144034947,"R"
319024,"9636 GERST ROAD","PERRY HALL","MD",21128,39.409627562,-76.4348889999999,24,"9636 GERST ROAD, PERRY HALL, MD, 21128","Match","Exact","9636 GERST RD, PERRY HALL, MD, 21128",635370634,"L"
319025,"9636 W STATE ROUTE 163","OAK HARBOR","OH",43449,41.5075013650001,-83.118693434,25,"9636 W STATE ROUTE 163, OAK HARBOR, OH, 43449","Match","Exact","9636 STATE RTE 163, OAK HARBOR, OH, 43449",44066590,"L"
319026,"9637 LONGVIEW DR","ELLICOTT CITY","MD",21042,39.282244615,-76.8467973579999,26,"9637 LONGVIEW DR, ELLICOTT CITY, MD, 21042","Match","Exact","9637 LONGVIEW DR, ELLICOTT CITY, MD, 21042",158929175,"L"
319027,"9637 US HWY 220 BUS N LOT 2","RANDLEMAN","NC",27317,NA,NA,27,"9637 US HWY 220 BUS N LOT 2, RANDLEMAN, NC, 27317","No_Match",NA,NA,NA,NA
319028,"9637 W OHIO AVE","LAKEWOOD","CO",80226,39.7016010470001,-105.10569941,28,"9637 W OHIO AVE, LAKEWOOD, CO, 80226","Match","Exact","9637 W OHIO AVE, LAKEWOOD, CO, 80226",177762011,"R"
319029,"9638 AVIARA GARDENS","SAN ANTONIO","TX",78251,29.464576525,-98.6769028149999,29,"9638 AVIARA GARDENS, SAN ANTONIO, TX, 78251","Match","Non_Exact","9638 AVIARA GARDEN, SAN ANTONIO, TX, 78251",645364399,"R"
319030,"9638 COMMON LAW","CONVERSE","TX",78109,29.512881927,-98.295796976,30,"9638 COMMON LAW, CONVERSE, TX, 78109","Match","Exact","9638 COMMON LAW, CONVERSE, TX, 78109",645212113,"L"
319031,"9638 S PARNELL","CHICAGO","IL",60628,NA,NA,31,"9638 S PARNELL, CHICAGO, IL, 60628","No_Match",NA,NA,NA,NA
319032,"9638 SOUTH VABCE CT","SOUTH JORDAN","UT",84009,NA,NA,32,"9638 SOUTH VABCE CT, SOUTH JORDAN, UT, 84009","No_Match",NA,NA,NA,NA
319033,"9638 TELLER COURT","WESTMINSTER","CO",80021,39.8723026150001,-105.077910243,33,"9638 TELLER COURT, WESTMINSTER, CO, 80021","Match","Exact","9638 TELLER CT, WESTMINSTER, CO, 80021",177734689,"R"
319034,"9639 BLACK COYOTE CT","LAS VEGAS","NV",89139,36.014347898,-115.218254508,34,"9639 BLACK COYOTE CT, LAS VEGAS, NV, 89139","Match","Non_Exact","9639 S BLACK COYOTE CT, LAS VEGAS, NV, 89139",624844558,"R"
319035,"9639 CREAWOOD FOREST","WAITE HILL","OH",44094,41.6086449970001,-81.363424816,35,"9639 CREAWOOD FOREST, WAITE HILL, OH, 44094","Match","Exact","9639 CREAWOOD FOREST, WAITE HILL, OH, 44094",137474778,"R"
319036,"9639 E CARON ST","SCOTTSDALE","AZ",85258,33.569275691,-111.872731565,36,"9639 E CARON ST, SCOTTSDALE, AZ, 85258","Match","Exact","9639 E CARON ST, SCOTTSDALE, AZ, 85258",128230366,"R"
319037,"9639 KINSMAN ROAD","NOVELTY","OH",44073,41.463074202,-81.3017486109999,37,"9639 KINSMAN ROAD, NOVELTY, OH, 44073","Match","Non_Exact","9639 KINSMAN RD, NOVELTY, OH, 44072",636554449,"R"
319038,"9639 WINDING WAY LANE","JONESBORO","GA",30238,33.4920755090001,-84.3482158849999,38,"9639 WINDING WAY LANE, JONESBORO, GA, 30238","Match","Exact","9639 WINDING WAY LN, JONESBORO, GA, 30238",23333595,"R"
319039,"9639 WOLF PT","SAN ANTONIO","TX",78251,29.441854119,-98.677393851,39,"9639 WOLF PT, SAN ANTONIO, TX, 78251","Match","Exact","9639 WOLF PT, SAN ANTONIO, TX, 78251",101703311,"R"
319040,"964 49TH STREET UNIT DD2","BROOKLYN","NY",11219,40.639509242,-73.999542773,40,"964 49TH STREET UNIT DD2, BROOKLYN, NY, 11219","Match","Exact","964 49TH ST, BROOKLYN, NY, 11219",59098044,"R"
319041,"964 BELVEDERE BLVD","CHARLOTTESVILLE","VA",22901,38.0717397820001,-78.462937042,41,"964 BELVEDERE BLVD, CHARLOTTESVILLE, VA, 22901","Match","Exact","964 BELVEDERE BLVD, CHARLOTTESVILLE, VA, 22901",640845890,"L"
319042,"964 BONNIEBROW COVE","CORDOVA","TN",38018,35.1516254380001,-89.785791603,42,"964 BONNIEBROW COVE, CORDOVA, TN, 38018","Match","Exact","964 BONNIEBROW COVE, CORDOVA, TN, 38018",72948104,"L"
319043,"964 FIFTH AVENUE SUITE 224","SAN DIEGO","CA",92101,32.715311022,-117.160159419,43,"964 FIFTH AVENUE SUITE 224, SAN DIEGO, CA, 92101","Match","Exact","964 5TH AVE, SAN DIEGO, CA, 92101",195344445,"L"
319044,"964 FLAT FORK ROAD","WARTBURG","TN",37887,36.1255528980001,-84.504370233,44,"964 FLAT FORK ROAD, WARTBURG, TN, 37887","Match","Exact","964 FLAT FORK RD, WARTBURG, TN, 37887",26304140,"R"
319045,"964 GARCIA RD","SANTA BARBARA","CA",93103,34.4334075800001,-119.691416743,45,"964 GARCIA RD, SANTA BARBARA, CA, 93103","Match","Exact","964 GARCIA RD, SANTA BARBARA, CA, 93103",108605130,"R"
319046,"964 GROVE STREET","ELMIRA","NY",14901,42.098065977,-76.825987089,46,"964 GROVE STREET, ELMIRA, NY, 14901","Match","Exact","964 GROVE ST, ELMIRA, NY, 14901",18532800,"R"
319047,"964 HIGH HOUSE RD STE 3046","CARY","NC",27513,35.7880397760001,-78.827958112,47,"964 HIGH HOUSE RD STE 3046, CARY, NC, 27513","Match","Exact","964 HIGH HOUSE RD, CARY, NC, 27513",639408006,"L"
319048,"964 HIGH HOUSE ROAD - UNIT 10","CARY","NC",27513,35.7880397760001,-78.827958112,48,"964 HIGH HOUSE ROAD - UNIT 10, CARY, NC, 27513","Match","Exact","964 HIGH HOUSE RD, CARY, NC, 27513",639408006,"L"
319049,"964 K STREET","WASHOUGAL","WA",98671,45.587509761,-122.360989404,49,"964 K STREET, WASHOUGAL, WA, 98671","Match","Exact","964 K ST, WASHOUGAL, WA, 98671",158332214,"L"
319050,"964 KINGSTON STREET","AURORA","CO",80010,39.7310111400001,-104.858748614,50,"964 KINGSTON STREET, AURORA, CO, 80010","Match","Exact","964 KINGSTON ST, AURORA, CO, 80010",177314395,"R"
319051,"964 N INDIAN CREEK DR SUITE A3","CLARKSTON","GA",30021,33.8051325540001,-84.239345564,51,"964 N INDIAN CREEK DR SUITE A3, CLARKSTON, GA, 30021","Match","Non_Exact","964 N INDIAN CREEK DR, CLARKSTON, GA, 30021",23363101,"L"
319052,"964 NORTH HOLLISTON AVENUE","PASADENA","CA",91104,34.1630388040001,-118.123035242,52,"964 NORTH HOLLISTON AVENUE, PASADENA, CA, 91104","Match","Exact","964 N HOLLISTON AVE, PASADENA, CA, 91104",142735502,"R"
319053,"964 OAKWOOD DRIVE","CASTLE ROCK","CO",80104,39.381753298,-104.850091764,53,"964 OAKWOOD DRIVE, CASTLE ROCK, CO, 80104","Match","Exact","964 OAKWOOD DR, CASTLE ROCK, CO, 80104",130794167,"R"
319054,"964 PEARL STREET","NAPA","CA",94559,38.300758767,-122.286282444,54,"964 PEARL STREET, NAPA, CA, 94559","Match","Exact","964 PEARL ST, NAPA, CA, 94559",67415955,"R"
319055,"964 RALPH D ABERNATHY - SUITE C12","ATLANTA","GA",30310,NA,NA,55,"964 RALPH D ABERNATHY - SUITE C12, ATLANTA, GA, 30310","No_Match",NA,NA,NA,NA
319056,"964 RALPH D ABERNATHY BLVD SW ST C8","ATLANTA","GA",30310,NA,NA,56,"964 RALPH D ABERNATHY BLVD SW ST C8, ATLANTA, GA, 30310","No_Match",NA,NA,NA,NA
319057,"964 RALPH D ABERNATHY SW - C12","ATLANTA","GA",30310,NA,NA,57,"964 RALPH D ABERNATHY SW - C12, ATLANTA, GA, 30310","No_Match",NA,NA,NA,NA
319058,"964 RALPH D ABERNATHY SW SUITE C12","ATLANTA","GA",30310,NA,NA,58,"964 RALPH D ABERNATHY SW SUITE C12, ATLANTA, GA, 30310","No_Match",NA,NA,NA,NA
319059,"964 RALPH D ABERNATHY SW SUITE C43","ATLANTA","GA",30310,NA,NA,59,"964 RALPH D ABERNATHY SW SUITE C43, ATLANTA, GA, 30310","No_Match",NA,NA,NA,NA
319060,"964 ROUTE 9W SOUTH","NYACK","NY",10960,41.0602318580001,-73.9230263429999,60,"964 ROUTE 9W SOUTH, NYACK, NY, 10960","Match","Non_Exact","964 RTE 9W, NYACK, NY, 10960",653468950,"R"
319061,"964 SPAFFORD ST","ANTIOCH","IL",60002,42.47644524,-88.099262403,61,"964 SPAFFORD ST, ANTIOCH, IL, 60002","Match","Exact","964 SPAFFORD ST, ANTIOCH, IL, 60002",119622285,"L"
319062,"964 TECUMSEH STREET","INDIANAPOLIS","IN",46201,39.780633091,-86.125800796,62,"964 TECUMSEH STREET, INDIANAPOLIS, IN, 46201","Match","Non_Exact","964 N TECUMSEH ST, INDIANAPOLIS, IN, 46201",107993507,"L"
319063,"964 TROON TRAIL","FRANKFORT","IL",60423,41.4878592040001,-87.791172172,63,"964 TROON TRAIL, FRANKFORT, IL, 60423","Match","Exact","964 TROON TRL, FRANKFORT, IL, 60423",111555235,"L"
319064,"964 WELLINGTON CIRCLE","AURORA","IL",60506,41.775710798,-88.3515746159999,64,"964 WELLINGTON CIRCLE, AURORA, IL, 60506","Match","Exact","964 WELLINGTON CIR, AURORA, IL, 60506",119540200,"L"
319065,"964 WOODOAK DRIVE","BALDWIN","NY",11510,40.6290415810001,-73.601402697,65,"964 WOODOAK DRIVE, BALDWIN, NY, 11510","Match","Exact","964 WOODOAK DR, BALDWIN, NY, 11510",147638428,"R"
319066,"9640 B MISSION GORGE ROAD BOX 315","SANTEE","CO",92071,NA,NA,66,"9640 B MISSION GORGE ROAD BOX 315, SANTEE, CO, 92071","No_Match",NA,NA,NA,NA
319067,"9640 COUNTY ROAD 7 2","DELTA","OH",43515,NA,NA,67,"9640 COUNTY ROAD 7 2, DELTA, OH, 43515","No_Match",NA,NA,NA,NA
319068,"9640 E WATSON DR","TUCSON","AZ",85730,32.185813135,-110.786834621,68,"9640 E WATSON DR, TUCSON, AZ, 85730","Match","Exact","9640 E WATSON DR, TUCSON, AZ, 85730",121188926,"R"
319069,"9640 NW 24TH PLACE","SUNRISE","FL",33322,26.155243134,-80.277558513,69,"9640 NW 24TH PLACE, SUNRISE, FL, 33322","Match","Exact","9640 NW 24TH PL, SUNRISE, FL, 33322",114703334,"L"
319070,"9640 S BISHOP ST","CHICAGO","IL",60643,41.7187202060001,-87.65864183,70,"9640 S BISHOP ST, CHICAGO, IL, 60643","Match","Exact","9640 S BISHOP ST, CHICAGO, IL, 60643",638646324,"R"
319071,"9640 SOUTH BISHOP STREET","CHICAGO","IL",60643,41.718750378,-87.6586477769999,71,"9640 SOUTH BISHOP STREET, CHICAGO, IL, 60643","Match","Exact","9640 S BISHOP ST, CHICAGO, IL, 60643",638646324,"R"
319072,"9640 W 772 S","HUDSON","IN",46747,41.5306249440001,-85.17128079,72,"9640 W 772 S, HUDSON, IN, 46747","Match","Exact","9640 W 772 S, HUDSON, IN, 46747",647739150,"R"
319073,"9641 ARBOR CT","LANTANA","TX",76226,33.0777905410001,-97.125464562,73,"9641 ARBOR CT, LANTANA, TX, 76226","Match","Exact","9641 ARBOR CT, LANTANA, TX, 76226",625313123,"R"
319074,"9641 BERWYN","REDFORD","GA",48239,NA,NA,74,"9641 BERWYN, REDFORD, GA, 48239","No_Match",NA,NA,NA,NA
319075,"9641 BERWYN","REDFORD","MI",48239,42.365171461,-83.2983741789999,75,"9641 BERWYN, REDFORD, MI, 48239","Match","Exact","9641 BERWYN, REDFORD, MI, 48239",95430511,"L"
319076,"9641 CHEVY CHASE DR","HUNTINGTON BEACH","CA",92646,33.6533489780001,-117.960105458,76,"9641 CHEVY CHASE DR, HUNTINGTON BEACH, CA, 92646","Match","Exact","9641 CHEVY CHASE DR, HUNTINGTON BEACH, CA, 92646",144045076,"L"
319077,"9641 N AMBASSADOR DR APT 706","KANSAS CITY","MO",64154,NA,NA,77,"9641 N AMBASSADOR DR APT 706, KANSAS CITY, MO, 64154","No_Match",NA,NA,NA,NA
319078,"9641 VONS DR","GARDEN GROVE","CA",92841,33.7989650370001,-117.965697528,78,"9641 VONS DR, GARDEN GROVE, CA, 92841","Match","Exact","9641 VONS DR, GARDEN GROVE, CA, 92841",144023922,"L"
319079,"9641 WOODLAND MANOR COVE","CORDOVA","TN",38018,35.1576488430001,-89.740704756,79,"9641 WOODLAND MANOR COVE, CORDOVA, TN, 38018","Match","Exact","9641 WOODLAND MANOR COVE, CORDOVA, TN, 38018",611514669,"L"
319080,"9642 BEVERLY ST","BELLFLOWER","CA",90706,33.875736562,-118.127822482,80,"9642 BEVERLY ST, BELLFLOWER, CA, 90706","Match","Exact","9642 BEVERLY ST, BELLFLOWER, CA, 90706",142775124,"R"
319081,"9642 DEER RUN STREET","LENEXA","KS",66220,38.9533947410001,-94.833892287,81,"9642 DEER RUN STREET, LENEXA, KS, 66220","Match","Exact","9642 DEER RUN ST, LENEXA, KS, 66220",632507767,"R"
319082,"9642 HIGHWAY 495 SOUTH","DEKALB","MS",39328,32.694788596,-88.851695883,82,"9642 HIGHWAY 495 SOUTH, DEKALB, MS, 39328","Match","Non_Exact","9642 HWY 495 S, DE KALB, MS, 39328",607670880,"R"
319083,"9643 FERNDALE RD","DALLAS","TX",75238,32.8776784630001,-96.7084786299999,83,"9643 FERNDALE RD, DALLAS, TX, 75238","Match","Exact","9643 FERNDALE RD, DALLAS, TX, 75238",102917478,"L"
319084,"9643 HALYARDS COURT APT 23","FORT MYERS","FL",33919,26.55873559,-81.914575129,84,"9643 HALYARDS COURT APT 23, FORT MYERS, FL, 33919","Match","Exact","9643 HALYARDS CT, FORT MYERS, FL, 33919",118109154,"R"
319085,"9643 LAMAR AVENUE","OVERLAND PARK","KS",66207,38.954217923,-94.6583183449999,85,"9643 LAMAR AVENUE, OVERLAND PARK, KS, 66207","Match","Exact","9643 LAMAR AVE, OVERLAND PARK, KS, 66207",640604033,"L"
319086,"9643 MIKENNA RUN","MACEDONIA","OH",44056,41.3408165450001,-81.498107492,86,"9643 MIKENNA RUN, MACEDONIA, OH, 44056","Match","Exact","9643 MIKENNA RUN, MACEDONIA, OH, 44056",648235214,"R"
319087,"9644 NARDIN","DETROIT","MI",48204,42.368805734,-83.131721666,87,"9644 NARDIN, DETROIT, MI, 48204","Match","Non_Exact","9644 NARDIN PARK, DETROIT, MI, 48204",95470642,"R"
319088,"9644 POPULAR POINT LOOP","ATHENS","AL",35611,34.7288361540001,-87.137406638,88,"9644 POPULAR POINT LOOP, ATHENS, AL, 35611","Match","Non_Exact","9644 POPLAR PT LP, ATHENS, AL, 35611",95237127,"L"
319089,"9644 SANDLIGHT COURT","COLUMBIA","MD",21046,39.163781945,-76.8417009199999,89,"9644 SANDLIGHT COURT, COLUMBIA, MD, 21046","Match","Exact","9644 SANDLIGHT CT, COLUMBIA, MD, 21046",158926504,"R"
319090,"9645 48TH AVE SW","SEATTLE","WA",98136,47.516088783,-122.394235006,90,"9645 48TH AVE SW, SEATTLE, WA, 98136","Match","Exact","9645 48TH AVE SW, SEATTLE, WA, 98136",239769214,"R"
319091,"9645 BURKE LAKE ROAD","BURKE","VA",22015,38.7854576830001,-77.278281717,91,"9645 BURKE LAKE ROAD, BURKE, VA, 22015","Match","Exact","9645 BURKE LAKE RD, BURKE, VA, 22015",641057023,"L"
319092,"9645 EDEN TRAIL","FUQUAY VARINA","NC",27526,35.642462612,-78.7257352939999,92,"9645 EDEN TRAIL, FUQUAY VARINA, NC, 27526","Match","Exact","9645 EDEN TRL, FUQUAY VARINA, NC, 27526",72609530,"R"
319093,"9645 TELSTAR AVE UNIT B","EL MONTE","CA",91731,34.069631514,-118.059254245,93,"9645 TELSTAR AVE UNIT B, EL MONTE, CA, 91731","Match","Exact","9645 TELSTAR AVE, EL MONTE, CA, 91731",651566015,"L"
319094,"9645 W 17TH AVENUE","LAKEWOOD","CO",80215,39.7438570260001,-105.105628431,94,"9645 W 17TH AVENUE, LAKEWOOD, CO, 80215","Match","Exact","9645 W 17TH AVE, LAKEWOOD, CO, 80215",177289748,"R"
319095,"9645 W DESERT AVE","BOISE","ID",83709,43.554040156,-116.302888636,95,"9645 W DESERT AVE, BOISE, ID, 83709","Match","Exact","9645 DESERT AVE, BOISE, ID, 83709",117861565,"L"
319096,"9646 17TH AVE SW","SEATTLE","WA",98106,47.5168703590001,-122.356496028,96,"9646 17TH AVE SW, SEATTLE, WA, 98106","Match","Exact","9646 17TH AVE SW, SEATTLE, WA, 98106",239762670,"L"
319097,"9646 BRUNSWICK DRIVE","BRENTWOOD","TN",37027,35.9899773170001,-86.718690066,97,"9646 BRUNSWICK DRIVE, BRENTWOOD, TN, 37027","Match","Exact","9646 BRUNSWICK DR, BRENTWOOD, TN, 37027",73128850,"L"
319098,"9646 MAPLE STREET UNIT 1","BELLFLOWER","CA",90706,33.8811691490001,-118.128169152,98,"9646 MAPLE STREET UNIT 1, BELLFLOWER, CA, 90706","Match","Exact","9646 MAPLE ST, BELLFLOWER, CA, 90706",142817311,"R"
319099,"9646 MAYMONT DR","VIENNA","VA",22182,38.9569812550001,-77.279051938,99,"9646 MAYMONT DR, VIENNA, VA, 22182","Match","Exact","9646 MAYMONT DR, VIENNA, VA, 22182",641098251,"R"
319100,"9646 WESTBURY WAY","HIGHLANDS RANCH","CO",80129,39.5420472170001,-105.009540088,100,"9646 WESTBURY WAY, HIGHLANDS RANCH, CO, 80129","Match","Exact","9646 WESTBURY WAY, HIGHLANDS RANCH, CO, 80129",130816593,"R"
319101,"9647 EMERALD PL","SAN ANTONIO","TX",78245,29.438656398,-98.6754822789999,101,"9647 EMERALD PL, SAN ANTONIO, TX, 78245","Match","Exact","9647 EMERALD PL, SAN ANTONIO, TX, 78245",619937686,"L"
319102,"9647 NTH 63RD STREET","LONGMONT","CO",80503,40.149800247,-105.206769767,102,"9647 NTH 63RD STREET, LONGMONT, CO, 80503","Match","Non_Exact","9647 N 63RD ST, LONGMONT, CO, 80503",188222720,"L"
319103,"9647 S HOBART BLVD","LOS ANGELES","CA",90047,33.9482057590001,-118.307858601,103,"9647 S HOBART BLVD, LOS ANGELES, CA, 90047","Match","Exact","9647 S HOBART BLVD, LOS ANGELES, CA, 90047",142753283,"R"
319104,"9648 OLIVE BLVD 437","OLIVETTE","MO",63132,38.673245579,-90.388866283,104,"9648 OLIVE BLVD 437, OLIVETTE, MO, 63132","Match","Exact","9648 OLIVE BLVD, OLIVETTE, MO, 63132",100130946,"L"
319105,"9648 OLIVE BLVD STE 385","SAINT LOUIS","MO",63132,38.673245579,-90.388866283,105,"9648 OLIVE BLVD STE 385, SAINT LOUIS, MO, 63132","Match","Exact","9648 OLIVE BLVD, SAINT LOUIS, MO, 63132",100130946,"L"
319106,"9648 OLIVE BLVD SUITE 364","ST LOUIS","MO",63132,38.673245579,-90.388866283,106,"9648 OLIVE BLVD SUITE 364, ST LOUIS, MO, 63132","Match","Exact","9648 OLIVE BLVD, SAINT LOUIS, MO, 63132",100130946,"L"
319107,"9648 SOUTH OAKLEY AVENUE","CHICAGO","IL",60643,41.7182580460001,-87.6795530909999,107,"9648 SOUTH OAKLEY AVENUE, CHICAGO, IL, 60643","Match","Exact","9648 S OAKLEY AVE, CHICAGO, IL, 60643",111822699,"R"
319108,"9649 OZGA STREET","ROMULUS","MI",48174,42.233128783,-83.4056311689999,108,"9649 OZGA STREET, ROMULUS, MI, 48174","Match","Exact","9649 OZGA ST, ROMULUS, MI, 48174",95416007,"L"
319109,"9649 S MORYWOOD LN","SOUTH JORDAN","UT",84095,40.5761322980001,-111.932912907,109,"9649 S MORYWOOD LN, SOUTH JORDAN, UT, 84095","Match","Exact","9649 MORYWOOD LN, SOUTH JORDAN, UT, 84095",176128978,"L"
319110,"9649 W HEBER RD","TOLLESON","AZ",85353,33.4144505040001,-112.267587483,110,"9649 W HEBER RD, TOLLESON, AZ, 85353","Match","Exact","9649 W HEBER RD, TOLLESON, AZ, 85353",243960255,"R"
319111,"96497 CAYMAN CIRCLE","FERNANDINA BEACH","FL",32034,30.609244765,-81.523271633,111,"96497 CAYMAN CIRCLE, FERNANDINA BEACH, FL, 32034","Match","Exact","96497 CAYMAN CIR, FERNANDINA BCH, FL, 32034",84121783,"R"
319112,"965 39TH CT","WEST PALM BEACH","FL",33407,26.749070019,-80.0638734899999,112,"965 39TH CT, WEST PALM BEACH, FL, 33407","Match","Exact","965 39TH CT, WEST PALM BEACH, FL, 33407",115277168,"R"
319113,"965 AUTUMN DRIVE","ANTIOCH","IL",60002,42.476300198,-88.06801734,113,"965 AUTUMN DRIVE, ANTIOCH, IL, 60002","Match","Exact","965 AUTUMN DR, ANTIOCH, IL, 60002",119719214,"R"
319114,"965 BELLEVUE PLANTATION RD","LAFAYETTE","LA",70503,30.1479159310001,-92.069483694,114,"965 BELLEVUE PLANTATION RD, LAFAYETTE, LA, 70503","Match","Exact","965 BELLEVUE PLANTATION RD, LAFAYETTE, LA, 70503",85613239,"L"
319115,"965 BERENICE DR","BREA","CA",92821,33.9342843360001,-117.914709597,115,"965 BERENICE DR, BREA, CA, 92821","Match","Exact","965 BERENICE DR, BREA, CA, 92821",144006317,"L"
319116,"965 CHERRY RIDGE BLVD APT 127","WEBSTER","NY",14580,43.2089741280001,-77.470110403,116,"965 CHERRY RIDGE BLVD APT 127, WEBSTER, NY, 14580","Match","Exact","965 CHERRY RIDGE BLVD, WEBSTER, NY, 14580",632116011,"L"
319117,"965 CUNNINGHAM PLACE APT 200","ATLANTA","GA",30310,33.7432482450001,-84.4200392019999,117,"965 CUNNINGHAM PLACE APT 200, ATLANTA, GA, 30310","Match","Non_Exact","965 CUNNINGHAM PL SW, ATLANTA, GA, 30310",619688397,"R"
319118,"965 DURHAM WAY","STOCKBRIDGE","GA",30281,33.522009446,-84.2518734239999,118,"965 DURHAM WAY, STOCKBRIDGE, GA, 30281","Match","Exact","965 DURHAM WAY, STOCKBRIDGE, GA, 30281",633274756,"L"
319119,"965 E 150 N","PROVO","UT",84606,40.2356532210001,-111.642108116,119,"965 E 150 N, PROVO, UT, 84606","Match","Exact","965 E 150 N, PROVO, UT, 84606",134209633,"L"
319120,"965 E 700 S 305","ST GEORGE","UT",84790,NA,NA,120,"965 E 700 S 305, ST GEORGE, UT, 84790","No_Match",NA,NA,NA,NA
319121,"965 E NICKLEBACK ST","SAN TAN VLY","AZ",85143,33.1372432370001,-111.555789424,121,"965 E NICKLEBACK ST, SAN TAN VLY, AZ, 85143","Match","Exact","965 NICKLEBACK ST, SAN TAN VALLEY, AZ, 85143",637404788,"R"
319122,"965 HARBOR LAKE DRIVE","SAFETY HARBOR","FL",34695,27.9994162400001,-82.698780845,122,"965 HARBOR LAKE DRIVE, SAFETY HARBOR, FL, 34695","Match","Exact","965 HARBOR LAKE DR, SAFETY HARBOR, FL, 34695",124684048,"R"
319123,"965 LODGE ROAD","GREENUP","KY",41144,38.481004731,-82.872757222,123,"965 LODGE ROAD, GREENUP, KY, 41144","Match","Exact","965 LODGE RD, GREENUP, KY, 41144",151400930,"L"
319124,"965 LONGFORD ROAD","BARTLETT","IL",60103,41.9785627380001,-88.157262682,124,"965 LONGFORD ROAD, BARTLETT, IL, 60103","Match","Exact","965 LONGFORD RD, BARTLETT, IL, 60103",112592847,"R"
319125,"965 MARSH REED DRIVE","WINTER GARDEN","FL",34787,28.532344424,-81.6102897059999,125,"965 MARSH REED DRIVE, WINTER GARDEN, FL, 34787","Match","Exact","965 MARSH REED DR, WINTER GARDEN, FL, 34787",640926980,"R"
319126,"965 N CRANBROOK RD","BLOOMFIELD TOWNSHIP","MI",48301,42.5533034630001,-83.242997515,126,"965 N CRANBROOK RD, BLOOMFIELD TOWNSHIP, MI, 48301","Match","Exact","965 N CRANBROOK RD, BLOOMFIELD TOWNSHIP, MI, 48301",69733231,"L"
319127,"965 NE ANNIE MATTOX ST","LAKE CITY","FL",32055,30.1947653490001,-82.624989345,127,"965 NE ANNIE MATTOX ST, LAKE CITY, FL, 32055","Match","Non_Exact","965 ANNIE MATTOX AVE, LAKE CITY, FL, 32055",5161029,"R"
319128,"965 OCEAN AVE","BALDWIN","NY",11510,40.637278429,-73.6054552749999,128,"965 OCEAN AVE, BALDWIN, NY, 11510","Match","Exact","965 OCEAN AVE, BALDWIN, NY, 11510",147638000,"L"
319129,"965 OLD FARM TRAIL","MEDINA","OH",44256,41.1337167390001,-81.8422970239999,129,"965 OLD FARM TRAIL, MEDINA, OH, 44256","Match","Exact","965 OLD FARM TRL, MEDINA, OH, 44256",58676495,"L"
319130,"965 ORCHARD CREEK LANE","LINCOLN","CA",95648,NA,NA,130,"965 ORCHARD CREEK LANE, LINCOLN, CA, 95648","No_Match",NA,NA,NA,NA
319131,"965 RD 15","POWELL","WY",82435,44.747374591,-108.879869752,131,"965 RD 15, POWELL, WY, 82435","Match","Exact","965 RD 15, POWELL, WY, 82435",612468330,"R"
319132,"965 REPP DRIVE","COLUMBUS","IN",47201,39.186533802,-85.8842167339999,132,"965 REPP DRIVE, COLUMBUS, IN, 47201","Match","Exact","965 REPP DR, COLUMBUS, IN, 47201",30980311,"L"
319133,"965 RIVER DR SW","QUINCY","WA",98848,47.07309294,-120.032215308,133,"965 RIVER DR SW, QUINCY, WA, 98848","Match","Exact","965 RIVER DR SW, QUINCY, WA, 98848",157072441,"L"
319134,"965 STATE HIGHWAY 29A","GLOVERSVILLE","NY",12078,NA,NA,134,"965 STATE HIGHWAY 29A, GLOVERSVILLE, NY, 12078","No_Match",NA,NA,NA,NA
319135,"965 TEE CIRCLE EAST","BARTOW","FL",33830,NA,NA,135,"965 TEE CIRCLE EAST, BARTOW, FL, 33830","No_Match",NA,NA,NA,NA
319136,"965 UNION RD","WEST SENECA","NY",14224,42.8278031770001,-78.753426398,136,"965 UNION RD, WEST SENECA, NY, 14224","Match","Exact","965 UNION RD, WEST SENECA, NY, 14224",48304858,"R"
319137,"965 WEBER DRIVE","YARDLEY","PA",19067,40.214886585,-74.832110509,137,"965 WEBER DRIVE, YARDLEY, PA, 19067","Match","Exact","965 WEBER DR, YARDLEY, PA, 19067",134737826,"R"
319138,"9650 24TH BAY STREET","NORFOLK","VA",23518,36.929103292,-76.189410165,138,"9650 24TH BAY STREET, NORFOLK, VA, 23518","Match","Exact","9650 24TH BAY ST, NORFOLK, VA, 23518",122125598,"R"
319139,"9650 7TH AVE","HESPERIA","CA",92345,34.426212175,-117.315110552,139,"9650 7TH AVE, HESPERIA, CA, 92345","Match","Exact","9650 7TH AVE, HESPERIA, CA, 92345",614853830,"L"
319140,"9650 ACADIAN DR","SAN ANTONIO","TX",78245,29.391507205,-98.677188429,140,"9650 ACADIAN DR, SAN ANTONIO, TX, 78245","Match","Exact","9650 ACADIAN DR, SAN ANTONIO, TX, 78245",101741022,"L"
319141,"9650 CRESTWATER CIRCLE","MAGNOLIA","TX",77354,30.2161297710001,-95.623370084,141,"9650 CRESTWATER CIRCLE, MAGNOLIA, TX, 77354","Match","Exact","9650 CRESTWATER CIR, MAGNOLIA, TX, 77354",79329407,"L"
319142,"9650 HIGHWAY 160","HAYDEN","AL",35079,33.9287082050001,-86.6970978149999,142,"9650 HIGHWAY 160, HAYDEN, AL, 35079","Match","Non_Exact","9650 STATE HWY 160, HAYDEN, AL, 35079",99064729,"R"
319143,"9650 S MERIDIAN LINE RD","CLOVERDALE","IN",46120,39.5207648640001,-86.851350434,143,"9650 S MERIDIAN LINE RD, CLOVERDALE, IN, 46120","Match","Exact","9650 S MERIDIAN LINE RD, CLOVERDALE, IN, 46120",635529413,"L"
319144,"9650 STATE HWY 55","KAUKAUNA","WI",54130,NA,NA,144,"9650 STATE HWY 55, KAUKAUNA, WI, 54130","No_Match",NA,NA,NA,NA
319145,"9650 STRICKLAND RD SUITE 103-341","RALEIGH","NC",27615,35.9017582480001,-78.6567050579999,145,"9650 STRICKLAND RD SUITE 103-341, RALEIGH, NC, 27615","Match","Exact","9650 STRICKLAND RD, RALEIGH, NC, 27615",640239303,"R"
319146,"9651 BISSONNET ST STE 102","HOUSTON","TX",77036,29.675532004,-95.546977461,146,"9651 BISSONNET ST STE 102, HOUSTON, TX, 77036","Match","Exact","9651 BISSONNET ST, HOUSTON, TX, 77036",96603484,"L"
319147,"9651 CAMBERWELL DRIVE","DAPHNE","AL",36526,30.5715906230001,-87.85783058,147,"9651 CAMBERWELL DRIVE, DAPHNE, AL, 36526","Match","Exact","9651 CAMBERWELL DR, DAPHNE, AL, 36526",618722243,"L"
319148,"9651 DARBEY TRACE DR","SPRING","TX",77379,30.0045378930001,-95.5579552139999,148,"9651 DARBEY TRACE DR, SPRING, TX, 77379","Match","Exact","9651 DARBEY TRACE DR, SPRING, TX, 77379",631875210,"L"
319149,"9651 DOGWOOD STREET","FRISCO","TX",75033,33.157377909,-96.8175912029999,149,"9651 DOGWOOD STREET, FRISCO, TX, 75033","Match","Exact","9651 DOGWOOD ST, FRISCO, TX, 75033",123482791,"R"
319150,"9651 SPRINGVIEW LANE","HOUSTON","TX",77080,29.8298401060001,-95.530187649,150,"9651 SPRINGVIEW LANE, HOUSTON, TX, 77080","Match","Exact","9651 SPRINGVIEW LN, HOUSTON, TX, 77080",96025400,"L"
319151,"9651 UNITY LN N","BROOKLYN PARK","MN",55428,NA,NA,151,"9651 UNITY LN N, BROOKLYN PARK, MN, 55428","No_Match",NA,NA,NA,NA
319152,"9652 FAYETTEVILLE RD","JONESBORO","GA",30238,33.493390628,-84.383668015,152,"9652 FAYETTEVILLE RD, JONESBORO, GA, 30238","Match","Exact","9652 FAYETTEVILLE RD, JONESBORO, GA, 30238",23325954,"L"
319153,"9652 MUIRKIRK ROAD","LAUREL","MD",20708,39.061754901,-76.8420153659999,153,"9652 MUIRKIRK ROAD, LAUREL, MD, 20708","Match","Exact","9652 MUIRKIRK RD, LAUREL, MD, 20708",76354213,"L"
319154,"9652 PICKERING ST","SHAWNEE","KS",66227,38.9528943010001,-94.8804922159999,154,"9652 PICKERING ST, SHAWNEE, KS, 66227","Match","Non_Exact","9652 PICKERING, SHAWNEE, KS, 66227",627721886,"R"
319155,"9652 S KING DRIVE","CHICAGO","IL",60628,NA,NA,155,"9652 S KING DRIVE, CHICAGO, IL, 60628","No_Match",NA,NA,NA,NA
319156,"9652 W QUAIL TRACK DR","PEORIA","AZ",85383,33.730764192,-112.267658052,156,"9652 W QUAIL TRACK DR, PEORIA, AZ, 85383","Match","Exact","9652 QUAIL TRACK DR, PEORIA, AZ, 85383",128881797,"L"
319157,"9653 ENGLISH OAK PLACE","INDIANAPOLIS","IN",46235,39.8403703500001,-85.9982721499999,157,"9653 ENGLISH OAK PLACE, INDIANAPOLIS, IN, 46235","Match","Exact","9653 ENGLISH OAK PL, INDIANAPOLIS, IN, 46235",108045208,"L"
319158,"96533 BLACKROCK RD","YULEE","FL",32097,30.659781303,-81.52625517,158,"96533 BLACKROCK RD, YULEE, FL, 32097","Match","Exact","96533 BLACKROCK RD, YULEE, FL, 32097",84117012,"L"
319159,"9654 CIRCLE DR","ELLSWORTH","MI",49729,45.17216259,-85.252568472,159,"9654 CIRCLE DR, ELLSWORTH, MI, 49729","Match","Exact","9654 CIRCLE DR, ELLSWORTH, MI, 49729",145807543,"L"
319160,"9654C KATY FREEWAY UNIT 215","HOUSTON","TX",77055,29.7850756990001,-95.531681283,160,"9654C KATY FREEWAY UNIT 215, HOUSTON, TX, 77055","Match","Exact","9654 KATY FWY, HOUSTON, TX, 77055",96029392,"R"
319161,"9655 ASPEN CIRCLE","SPANISH FORT","AL",36527,30.67384414,-87.86335766,161,"9655 ASPEN CIRCLE, SPANISH FORT, AL, 36527","Match","Exact","9655 ASPEN CIR, SPANISH FORT, AL, 36527",131694036,"R"
319162,"9655 FLORIDA MINING BLVD W STE 309","JACKSONVILLE","FL",32257,30.189174171,-81.5747628,162,"9655 FLORIDA MINING BLVD W STE 309, JACKSONVILLE, FL, 32257","Match","Exact","9655 FLORIDA MINING BLVD W, JACKSONVILLE, FL, 32257",83963287,"R"
319163,"9655 GRANITE RIDGE DRIVE SUITE 200","SAN DIEGO","CA",92123,32.8065174920001,-117.12022381,163,"9655 GRANITE RIDGE DRIVE SUITE 200, SAN DIEGO, CA, 92123","Match","Exact","9655 GRANITE RIDGE DR, SAN DIEGO, CA, 92123",195681342,"R"
319164,"9655 PERKINS ROAD C-235","BATON ROUGE","LA",70810,NA,NA,164,"9655 PERKINS ROAD C-235, BATON ROUGE, LA, 70810","No_Match",NA,NA,NA,NA
319165,"9655 SOUTH DIXIE HIGHWAY SUITE 102","MIAMI","FL",33156,NA,NA,165,"9655 SOUTH DIXIE HIGHWAY SUITE 102, MIAMI, FL, 33156","No_Match",NA,NA,NA,NA
319166,"9655 SWEET VALLEY DRIVE SUITE 3","CLEVLAND","OH",44125,41.3963590220001,-81.6162669289999,166,"9655 SWEET VALLEY DRIVE SUITE 3, CLEVLAND, OH, 44125","Match","Non_Exact","9655 SWEET VALLEY DR, CLEVELAND, OH, 44125",642632138,"L"
319167,"9655 WENTWORTH STREET","SHADOW HILLS","CA",91040,34.264069598,-118.341273136,167,"9655 WENTWORTH STREET, SHADOW HILLS, CA, 91040","Match","Exact","9655 WENTWORTH ST, SHADOW HILLS, CA, 91040",141586255,"R"
319168,"9655 WEST BROADVIEW DR","BAY HARBOR","FL",33154,25.8869056300001,-80.138660451,168,"9655 WEST BROADVIEW DR, BAY HARBOR, FL, 33154","Match","Non_Exact","9655 W BROADVIEW DR, BAY HARBOR IS, FL, 33154",642995384,"R"
319169,"9656 BURBANK DRIVE STE B","BATON ROUGE","LA",70810,30.3584962780001,-91.120230878,169,"9656 BURBANK DRIVE STE B, BATON ROUGE, LA, 70810","Match","Exact","9656 BURBANK DR, BATON ROUGE, LA, 70810",92193082,"R"
319170,"9656 SALEM","REDFORD","MI",48239,42.364845374,-83.283842057,170,"9656 SALEM, REDFORD, MI, 48239","Match","Exact","9656 SALEM, REDFORD, MI, 48239",95430767,"R"
319171,"9657 RUSSELL AVE","PLYMOUTH","MI",48170,42.361327627,-83.4438210339999,171,"9657 RUSSELL AVE, PLYMOUTH, MI, 48170","Match","Exact","9657 RUSSELL AVE, PLYMOUTH, MI, 48170",95410881,"L"
319172,"9658 AVIARA GOLF","SAN ANTONIO","TX",78251,29.463609322,-98.6768929469999,172,"9658 AVIARA GOLF, SAN ANTONIO, TX, 78251","Match","Exact","9658 AVIARA GOLF, SAN ANTONIO, TX, 78251",645364388,"L"
319173,"9658 BELLMORE PLACE","HIGHLANDS RANCH","CO",80126,39.540708866,-104.957067694,173,"9658 BELLMORE PLACE, HIGHLANDS RANCH, CO, 80126","Match","Non_Exact","9658 S BELLMORE PL, HIGHLANDS RANCH, CO, 80126",130818218,"L"
319174,"9659 FAIRDALE LN","HOUSTON","TX",77063,29.7307811260001,-95.537968454,174,"9659 FAIRDALE LN, HOUSTON, TX, 77063","Match","Exact","9659 FAIRDALE LN, HOUSTON, TX, 77063",96024060,"L"
319175,"9659 N SAM HOUSTON PWY E STE150 239","HUMBLE","TX",77396,29.935140931,-95.246240974,175,"9659 N SAM HOUSTON PWY E STE150 239, HUMBLE, TX, 77396","Match","Non_Exact","9659 SAM HOUSTON PKWY, HUMBLE, TX, 77396",638189774,"L"
319176,"9659 OURAY STREET","COMMERCE CITY","CO",80022,39.872032399,-104.793754137,176,"9659 OURAY STREET, COMMERCE CITY, CO, 80022","Match","Exact","9659 OURAY ST, COMMERCE CITY, CO, 80022",177466274,"R"
319177,"9659 SHADOW GREEN CV","LAKELAND","TN",38002,35.2097233380001,-89.74088062,177,"9659 SHADOW GREEN CV, LAKELAND, TN, 38002","Match","Exact","9659 SHADOW GREEN COVE, LAKELAND, TN, 38002",72960546,"R"
319178,"966 BOSTWICK LN","SANTA CRUZ","CA",95062,36.9842491650001,-121.987321352,178,"966 BOSTWICK LN, SANTA CRUZ, CA, 95062","Match","Exact","966 BOSTWICK LN, SANTA CRUZ, CA, 95062",125507350,"R"
319179,"966 CASS ST  SUITE 150","MONTEREY","CA",93940,36.592834446,-121.896201732,179,"966 CASS ST  SUITE 150, MONTEREY, CA, 93940","Match","Exact","966 CASS ST, MONTEREY, CA, 93940",196814978,"R"
319180,"966 DOUGLAS AVENUE","DUNEDIN","FL",34698,28.014903713,-82.787927415,180,"966 DOUGLAS AVENUE, DUNEDIN, FL, 34698","Match","Exact","966 DOUGLAS AVE, DUNEDIN, FL, 34698",124775705,"L"
319181,"966 FOREST GROVE RD","LEWISTOWN","MT",59457,47.0104327280001,-109.25430876,181,"966 FOREST GROVE RD, LEWISTOWN, MT, 59457","Match","Exact","966 FOREST GROVE RD, LEWISTOWN, MT, 59457",653250519,"R"
319182,"966 GRAND AVE","DEL NORTE","CO",81132,37.678462132,-106.349540791,182,"966 GRAND AVE, DEL NORTE, CO, 81132","Match","Exact","966 GRAND AVE, DEL NORTE, CO, 81132",104359720,"R"
319183,"966 HIGHPOINT DRIVE","ANNAPOLIS","MD",21409,39.0440339940001,-76.448833668,183,"966 HIGHPOINT DRIVE, ANNAPOLIS, MD, 21409","Match","Exact","966 HIGHPOINT DR, ANNAPOLIS, MD, 21409",68174845,"L"
319184,"966 MAIL AVENUE","DEPTFORD","NJ",8096,39.807712888,-75.1388944449999,184,"966 MAIL AVENUE, DEPTFORD, NJ, 8096","Match","Exact","966 MAIL AVE, DEPTFORD, NJ, 08096",134625146,"L"
319185,"966 NORRIS HWY","CENTRAL","SC",29630,34.7719545940001,-82.769577461,185,"966 NORRIS HWY, CENTRAL, SC, 29630","Match","Exact","966 NORRIS HWY, CENTRAL, SC, 29630",26212017,"R"
319186,"966 OBRIEN AVE","SCHENECTADY","NY",12303,42.7776937460001,-73.944938513,186,"966 OBRIEN AVE, SCHENECTADY, NY, 12303","Match","Exact","966 OBRIEN AVE, SCHENECTADY, NY, 12303",18027891,"L"
319187,"966 OLD PLEASANT VALLEY ROAD","TALKING ROCK","GA",30175,NA,NA,187,"966 OLD PLEASANT VALLEY ROAD, TALKING ROCK, GA, 30175","Tie",NA,NA,NA,NA
319188,"966 PARTRIDGE LANE","MORRIS","IL",60450,41.3649286130001,-88.450104742,188,"966 PARTRIDGE LANE, MORRIS, IL, 60450","Match","Exact","966 PARTRIDGE LN, MORRIS, IL, 60450",54454389,"R"
319189,"966 SAVAGE AVE","WENONAH","NJ",8090,39.8061904140001,-75.132274947,189,"966 SAVAGE AVE, WENONAH, NJ, 8090","Match","Exact","966 SAVAGE AVE, WENONAH, NJ, 08090",134585452,"L"
319190,"9660 AUDELIA RD","DALLAS","TX",75238,NA,NA,190,"9660 AUDELIA RD, DALLAS, TX, 75238","No_Match",NA,NA,NA,NA
319191,"9660 BATTLE POINT DR NE","BAINBRIDGE ISLAND","WA",98110,47.6508635860001,-122.580050283,191,"9660 BATTLE POINT DR NE, BAINBRIDGE ISLAND, WA, 98110","Match","Exact","9660 BATTLE POINT DR NE, BAINBRIDGE ISLAND, WA, 98110",629073998,"R"
319192,"9660 BELLE PLACE CIRCLE","MAURICE","LA",70555,30.0725207720001,-92.142131389,192,"9660 BELLE PLACE CIRCLE, MAURICE, LA, 70555","Match","Exact","9660 BELLE PLACE CIR, MAURICE, LA, 70555",85990673,"R"
319193,"9660 COVE DRIVE 23","NORTH ROYALTON","OH",44133,41.329266519,-81.7613284669999,193,"9660 COVE DRIVE 23, NORTH ROYALTON, OH, 44133","Match","Exact","9660 COVE DR, N ROYALTON, OH, 44133",650143409,"L"
319194,"9660 FLAIR DR STE 478-B","EL MONTE","CA",91731,34.072060128,-118.058385046,194,"9660 FLAIR DR STE 478-B, EL MONTE, CA, 91731","Match","Exact","9660 FLAIR DR, EL MONTE, CA, 91731",241241954,"R"
319195,"9660 HERBERT RD","WHITESVILLE","KY",42378,37.6783933520001,-86.832810297,195,"9660 HERBERT RD, WHITESVILLE, KY, 42378","Match","Exact","9660 HERBERT RD, WHITESVILLE, KY, 42378",37576826,"R"
319196,"9660 OURAY STREET","COMMERCE CITY","CO",80022,39.8725939940001,-104.793730371,196,"9660 OURAY STREET, COMMERCE CITY, CO, 80022","Match","Exact","9660 OURAY ST, COMMERCE CITY, CO, 80022",177466274,"L"
319197,"9660 SHORE DR UNIT 114","MYRTLE BEACH","SC",29572,33.762746328,-78.7863567699999,197,"9660 SHORE DR UNIT 114, MYRTLE BEACH, SC, 29572","Match","Exact","9660 SHORE DR, MYRTLE BEACH, SC, 29572",650062682,"R"
319198,"9660 W SAMPLE RD 103","CORAL SPRINGS","FL",33065,26.2723927910001,-80.2551285329999,198,"9660 W SAMPLE RD 103, CORAL SPRINGS, FL, 33065","Match","Non_Exact","9660 W SAMPLE RD, CORAL SPRINGS, FL, 33065",637060539,"R"
319199,"9660 W SAMPLE RD 202","CORAL SPRINGS","FL",33065,26.2723927910001,-80.2551285329999,199,"9660 W SAMPLE RD 202, CORAL SPRINGS, FL, 33065","Match","Non_Exact","9660 W SAMPLE RD, CORAL SPRINGS, FL, 33065",637060539,"R"
319200,"9660 W SAMPLE RD","CORAL SPRINGS","FL",33065,26.2723927910001,-80.2551285329999,200,"9660 W SAMPLE RD, CORAL SPRINGS, FL, 33065","Match","Exact","9660 W SAMPLE RD, CORAL SPRINGS, FL, 33065",637060539,"R"
319201,"9661 GOTHIC AVE","NORTH HILLS","CA",91343,34.2458091600001,-118.490770295,201,"9661 GOTHIC AVE, NORTH HILLS, CA, 91343","Match","Exact","9661 GOTHIC AVE, NORTH HILLS, CA, 91343",141544454,"L"
319202,"9662 AVALON DR","FRISCO","TX",75035,33.191042947,-96.7973403399999,202,"9662 AVALON DR, FRISCO, TX, 75035","Match","Exact","9662 AVALON DR, FRISCO, TX, 75035",614126270,"L"
319203,"9663 NW 36TH PLACE","CORAL SPRINGS","FL",33065,26.274960578,-80.2553658699999,203,"9663 NW 36TH PLACE, CORAL SPRINGS, FL, 33065","Match","Exact","9663 NW 36TH PL, CORAL SPRINGS, FL, 33065",114690308,"L"
319204,"9663 SANTA MONICA BL 829","BEVERLY HILLS","CA",90210,34.0694881150001,-118.405949465,204,"9663 SANTA MONICA BL 829, BEVERLY HILLS, CA, 90210","Match","Exact","9663 SANTA MONICA BLVD, BEVERLY HILLS, CA, 90210",141571559,"R"
319205,"9663 SANTA MONICA BLVD   SUITE 452","BEVERLY HILLS","CA",90120,34.0694881150001,-118.405949465,205,"9663 SANTA MONICA BLVD   SUITE 452, BEVERLY HILLS, CA, 90120","Match","Non_Exact","9663 SANTA MONICA BLVD, BEVERLY HILLS, CA, 90210",141571559,"R"
319206,"9663 SANTA MONICA BLVD NUMBER 1281","BEVERLY HILLS","CA",90210,34.0694881150001,-118.405949465,206,"9663 SANTA MONICA BLVD NUMBER 1281, BEVERLY HILLS, CA, 90210","Match","Exact","9663 SANTA MONICA BLVD, BEVERLY HILLS, CA, 90210",141571559,"R"
319207,"9663 SANTA MONICA BLVD SUITE 1025","BEVERLY HILLS","CA",90210,34.0694881150001,-118.405949465,207,"9663 SANTA MONICA BLVD SUITE 1025, BEVERLY HILLS, CA, 90210","Match","Exact","9663 SANTA MONICA BLVD, BEVERLY HILLS, CA, 90210",141571559,"R"
319208,"9663 SANTA MONICA BLVD SUITE 460","BEVERLY HILLS","CA",90210,34.0694881150001,-118.405949465,208,"9663 SANTA MONICA BLVD SUITE 460, BEVERLY HILLS, CA, 90210","Match","Exact","9663 SANTA MONICA BLVD, BEVERLY HILLS, CA, 90210",141571559,"R"
319209,"9663 SANTA MONICA BLVD SUITE 864","BEVERLY HILLS","CA",90210,34.0694881150001,-118.405949465,209,"9663 SANTA MONICA BLVD SUITE 864, BEVERLY HILLS, CA, 90210","Match","Exact","9663 SANTA MONICA BLVD, BEVERLY HILLS, CA, 90210",141571559,"R"
319210,"9664 DEER VALLEY DR","TALLAHASSEE","FL",32312,30.602103739,-84.227774644,210,"9664 DEER VALLEY DR, TALLAHASSEE, FL, 32312","Match","Exact","9664 DEER VALLEY DR, TALLAHASSEE, FL, 32312",82894676,"R"
319211,"9664 PENNSYLVANIA AVENUE","UPPER MARLBORO","MD",20772,38.8192461090001,-76.844101956,211,"9664 PENNSYLVANIA AVENUE, UPPER MARLBORO, MD, 20772","Match","Exact","9664 PENNSYLVANIA AVE, UPPER MARLBORO, MD, 20772",637903965,"R"
319212,"9665 N ROXBOROUGH PARK RD","LITTLETON","CO",80125,39.501532866,-105.054506251,212,"9665 N ROXBOROUGH PARK RD, LITTLETON, CO, 80125","Match","Exact","9665 N ROXBOROUGH PARK RD, LITTLETON, CO, 80125",651084393,"R"
319213,"9667 BASKET RING RD APT 3","COLUMBIA","MD",21045,39.213738623,-76.845606749,213,"9667 BASKET RING RD APT 3, COLUMBIA, MD, 21045","Match","Exact","9667 BASKET RING RD, COLUMBIA, MD, 21045",158928768,"R"
319214,"9667 KING GRAVES ROAD","WARREN","OH",44484,41.2651135350001,-80.721093482,214,"9667 KING GRAVES ROAD, WARREN, OH, 44484","Match","Non_Exact","9667 KING GRAVES RD NE, WARREN, OH, 44484",641761597,"L"
319215,"9668 GLENDOWER CT","LAUREL","MD",20723,39.1307333250001,-76.8370498209999,215,"9668 GLENDOWER CT, LAUREL, MD, 20723","Match","Exact","9668 GLENDOWER CT, LAUREL, MD, 20723",158932596,"R"
319216,"9668 MILLIKEN AVE STE 104-217","RANCHO CUCAMONGA","CA",91730,34.078049407,-117.558290475,216,"9668 MILLIKEN AVE STE 104-217, RANCHO CUCAMONGA, CA, 91730","Match","Exact","9668 MILLIKEN AVE, RANCHO CUCAMONGA, CA, 91730",144692176,"R"
319217,"9668 MILLIKEN AVE SUITE 104-133","RANCHO CUCAMONGA","CA",91730,34.078049407,-117.558290475,217,"9668 MILLIKEN AVE SUITE 104-133, RANCHO CUCAMONGA, CA, 91730","Match","Exact","9668 MILLIKEN AVE, RANCHO CUCAMONGA, CA, 91730",144692176,"R"
319218,"9668 MILLIKEN AVE SUITE 104265","RANCHO CUCAMONGA","CA",91730,34.078049407,-117.558290475,218,"9668 MILLIKEN AVE SUITE 104265, RANCHO CUCAMONGA, CA, 91730","Match","Exact","9668 MILLIKEN AVE, RANCHO CUCAMONGA, CA, 91730",144692176,"R"
319219,"9668 MILLIKEN STE 303","RANCHO CUCAMONGA","CA",91730,34.078049407,-117.558290475,219,"9668 MILLIKEN STE 303, RANCHO CUCAMONGA, CA, 91730","Match","Non_Exact","9668 MILLIKEN AVE, RANCHO CUCAMONGA, CA, 91730",144692176,"R"
319220,"9668 NORFOLK AVENUE","LAUREL","MD",20723,39.1123925410001,-76.8474359689999,220,"9668 NORFOLK AVENUE, LAUREL, MD, 20723","Match","Exact","9668 NORFOLK AVE, LAUREL, MD, 20723",619593322,"L"
319221,"9668 WESTHEIMER RD 200-120","HOUSTON","TX",77063,29.7372806380001,-95.5378538099999,221,"9668 WESTHEIMER RD 200-120, HOUSTON, TX, 77063","Match","Exact","9668 WESTHEIMER RD, HOUSTON, TX, 77063",233389625,"L"
319222,"9669 FORREST LANE UNIT 1410","DALLAS","TX",75243,NA,NA,222,"9669 FORREST LANE UNIT 1410, DALLAS, TX, 75243","No_Match",NA,NA,NA,NA
319223,"9669 HOLLOW PINE DRIVE","MIDLAND","GA",31820,32.5513566980001,-84.819227601,223,"9669 HOLLOW PINE DRIVE, MIDLAND, GA, 31820","Match","Exact","9669 HOLLOW PINE DR, MIDLAND, GA, 31820",651788747,"L"
319224,"9669 PRENTICE CIR","GREENWOOD VILLAGE","CO",80111,39.62003765,-104.877134804,224,"9669 PRENTICE CIR, GREENWOOD VILLAGE, CO, 80111","Match","Non_Exact","9669 E PRENTICE CIR, GREENWOOD VILLAGE, CO, 80111",177347695,"R"
319225,"9669 SERENITY SPRINGS LANE","DITTMER","MO",63023,NA,NA,225,"9669 SERENITY SPRINGS LANE, DITTMER, MO, 63023","No_Match",NA,NA,NA,NA
319226,"967 ADAMS AVE NW","BEMIDJI","MN",56601,47.478075613,-94.927459636,226,"967 ADAMS AVE NW, BEMIDJI, MN, 56601","Match","Exact","967 ADAMS AVE NW, BEMIDJI, MN, 56601",176418540,"L"
319227,"967 AVON STREET","AKRON","OH",44310,41.1118169380001,-81.512470301,227,"967 AVON STREET, AKRON, OH, 44310","Match","Exact","967 AVON ST, AKRON, OH, 44310",61340879,"R"
319228,"967 CEDAR CREEK CIRCLE","CENTERVILLE","OH",45459,39.645666749,-84.182747847,228,"967 CEDAR CREEK CIRCLE, CENTERVILLE, OH, 45459","Match","Exact","967 CEDAR CREEK CIR, CENTERVILLE, OH, 45459",143581166,"L"
319229,"967 CEMETERY ROAD","FREEBURG","IL",62243,38.4259340780001,-89.8752109879999,229,"967 CEMETERY ROAD, FREEBURG, IL, 62243","Match","Exact","967 CEMETERY RD, FREEBURG, IL, 62243",653592538,"R"
319230,"967 E PARKCENTER BLVD NUMBER 183","BOISE","ID",83706,43.587245726,-116.173392628,230,"967 E PARKCENTER BLVD NUMBER 183, BOISE, ID, 83706","Match","Non_Exact","967 E PARKCENTER BLVD, BOISE, ID, 83706",648451876,"R"
319231,"967 EAST 43RD ST","BROOKLYN","NY",11210,40.630996822,-73.9349533769999,231,"967 EAST 43RD ST, BROOKLYN, NY, 11210","Match","Exact","967 E 43RD ST, BROOKLYN, NY, 11210",59082146,"L"
319232,"967 ELKCAM BLVD","DELTONA","FL",32725,28.9254037850001,-81.2497628689999,232,"967 ELKCAM BLVD, DELTONA, FL, 32725","Match","Exact","967 ELKCAM BLVD, DELTONA, FL, 32725",94551982,"L"
319233,"967 ELLINGTON ST","HOUSTON","TX",77088,29.8815349560001,-95.424392965,233,"967 ELLINGTON ST, HOUSTON, TX, 77088","Match","Exact","967 ELLINGTON ST, HOUSTON, TX, 77088",96052713,"L"
319234,"967 HALL STREET","SAN CARLOS","CA",94070,37.508002553,-122.255341885,234,"967 HALL STREET, SAN CARLOS, CA, 94070","Match","Exact","967 HALL ST, SAN CARLOS, CA, 94070",192385181,"L"
319235,"967 HILLSIDE LAKE TERRACE","GAITHERSBURG","MD",20878,39.1090757710001,-77.2197894299999,235,"967 HILLSIDE LAKE TERRACE, GAITHERSBURG, MD, 20878","Match","Exact","967 HILLSIDE LAKE TER, GAITHERSBURG, MD, 20878",641009812,"R"
319236,"967 HUBBARD AVE","FLINT","MI",48503,43.0047777340001,-83.732244925,236,"967 HUBBARD AVE, FLINT, MI, 48503","Match","Exact","967 HUBBARD AVE, FLINT, MI, 48503",69573545,"L"
319237,"967 KENDALL DR SUITE A-552","SAN BERNARDINO","CA",92407,34.1628090610001,-117.302508666,237,"967 KENDALL DR SUITE A-552, SAN BERNARDINO, CA, 92407","Match","Non_Exact","967 W KENDALL DR, SAN BERNARDINO, CA, 92407",636687838,"L"
319238,"967 KENDALL DRIVE SUITE A 344","SAN BERNARDINO","CA",92407,34.1628090610001,-117.302508666,238,"967 KENDALL DRIVE SUITE A 344, SAN BERNARDINO, CA, 92407","Match","Non_Exact","967 W KENDALL DR, SAN BERNARDINO, CA, 92407",636687838,"L"
319239,"967 MONDY RD","GRENADA","MS",38901,33.730838707,-89.811721586,239,"967 MONDY RD, GRENADA, MS, 38901","Match","Exact","967 MONDY RD, GRENADA, MS, 38901",635206653,"L"
319240,"967 N VENTURA DR","PALATINE","IL",60074,NA,NA,240,"967 N VENTURA DR, PALATINE, IL, 60074","Tie",NA,NA,NA,NA
319241,"967 NORTH TREMONT STREET","TREMONTON","UT",84337,41.7256228100001,-112.16686181,241,"967 NORTH TREMONT STREET, TREMONTON, UT, 84337","Match","Exact","967 N TREMONT ST, TREMONTON, UT, 84337",653291213,"R"
319242,"967 NORTH TREMONT","TREMONTON","UT",84337,41.7256228100001,-112.16686181,242,"967 NORTH TREMONT, TREMONTON, UT, 84337","Match","Non_Exact","967 N TREMONT ST, TREMONTON, UT, 84337",653291213,"R"
319243,"967 PLEASANT STREET","GLEN ALLEN","VA",23059,NA,NA,243,"967 PLEASANT STREET, GLEN ALLEN, VA, 23059","No_Match",NA,NA,NA,NA
319244,"967 REED AVENUE","SAN DIEGO","CA",92109,32.793435312,-117.251087974,244,"967 REED AVENUE, SAN DIEGO, CA, 92109","Match","Exact","967 REED AVE, SAN DIEGO, CA, 92109",612856489,"R"
319245,"967 SERENDIPITY DR","AURORA","IL",60504,41.7369912990001,-88.2759389349999,245,"967 SERENDIPITY DR, AURORA, IL, 60504","Match","Exact","967 SERENDIPITY DR, AURORA, IL, 60504",119591948,"L"
319246,"967 SHIRE COURT","FORT COLLINS","CO",80526,40.5602356090001,-105.09376071,246,"967 SHIRE COURT, FORT COLLINS, CO, 80526","Match","Exact","967 SHIRE CT, FORT COLLINS, CO, 80526",188539596,"R"
319247,"967 STEEPLE CHASE LANE","ORANGE PARK","FL",32065,30.182571511,-81.825926378,247,"967 STEEPLE CHASE LANE, ORANGE PARK, FL, 32065","Match","Non_Exact","967 STEEPLECHASE LN, ORANGE PARK, FL, 32065",606233934,"L"
319248,"967 W REDWOOD DRIVE","CHANDLER","AZ",85248,33.2498243700001,-111.862329038,248,"967 W REDWOOD DRIVE, CHANDLER, AZ, 85248","Match","Exact","967 W REDWOOD DR, CHANDLER, AZ, 85248",128806147,"L"
319249,"967 WEEPING WILLOW ROAD SUITE C","HENDERSONVILLE","TN",37075,36.431085448,-86.6055249459999,249,"967 WEEPING WILLOW ROAD SUITE C, HENDERSONVILLE, TN, 37075","Match","Exact","967 WEEPING WILLOW RD, HENDERSONVILLE, TN, 37075",636668805,"L"
319250,"9670 CHAROLAIS DRIVE","TUSCALOOSA","AL",35405,33.117853306,-87.541803967,250,"9670 CHAROLAIS DRIVE, TUSCALOOSA, AL, 35405","Match","Exact","9670 CHAROLAIS DR, TUSCALOOSA, AL, 35405",640486147,"L"
319251,"9670 LOBLOLLY LN","ROSWELL","GA",30075,34.0164268720001,-84.371894401,251,"9670 LOBLOLLY LN, ROSWELL, GA, 30075","Match","Exact","9670 LOBLOLLY LN, ROSWELL, GA, 30075",17352181,"L"
319252,"9670 N CENTRAL ST","PORTLAND","OR",97203,45.597025783,-122.758425017,252,"9670 N CENTRAL ST, PORTLAND, OR, 97203","Match","Exact","9670 N CENTRAL ST, PORTLAND, OR, 97203",157493014,"L"
319253,"9671  WEST FOUNTAIN AVE","MILWAUKEE","WI",53224,NA,NA,253,"9671  WEST FOUNTAIN AVE, MILWAUKEE, WI, 53224","No_Match",NA,NA,NA,NA
319254,"9671 41ST AVENUE SOUTH","SEATTLE","WA",98118,47.5159122950001,-122.281423956,254,"9671 41ST AVENUE SOUTH, SEATTLE, WA, 98118","Match","Exact","9671 41ST AVE S, SEATTLE, WA, 98118",186596874,"R"
319255,"9671 CEDAR GLEN PLACE","RANCHO CUCAMONGA","CA",91730,NA,NA,255,"9671 CEDAR GLEN PLACE, RANCHO CUCAMONGA, CA, 91730","No_Match",NA,NA,NA,NA
319256,"9671 HWY 550 E / PO BOX 235","MOUSIE","KY",41739,NA,NA,256,"9671 HWY 550 E / PO BOX 235, MOUSIE, KY, 41739","No_Match",NA,NA,NA,NA
319257,"9671 WHITEHURST DR","DALLAS","TX",75243,32.901305946,-96.728996726,257,"9671 WHITEHURST DR, DALLAS, TX, 75243","Match","Exact","9671 WHITEHURST DR, DALLAS, TX, 75243",102914888,"L"
319258,"9672 APPALATION DRIVE","SACRAMENTO","CA",95827,NA,NA,258,"9672 APPALATION DRIVE, SACRAMENTO, CA, 95827","No_Match",NA,NA,NA,NA
319259,"9672 E PRESERVE WAY","SCOTTSDALE","AZ",85262,33.792889599,-111.871806464,259,"9672 E PRESERVE WAY, SCOTTSDALE, AZ, 85262","Match","Exact","9672 E PRESERVE WAY, SCOTTSDALE, AZ, 85262",128962275,"L"
319260,"9672 IDELL AVENUE","SPARTA","WI",54656,43.920080716,-90.79909599,260,"9672 IDELL AVENUE, SPARTA, WI, 54656","Match","Exact","9672 IDELL AVE, SPARTA, WI, 54656",51084683,"L"
319261,"9672 NORFOLK AVE","LAUREL","MD",20723,39.1123826400001,-76.8476110989999,261,"9672 NORFOLK AVE, LAUREL, MD, 20723","Match","Exact","9672 NORFOLK AVE, LAUREL, MD, 20723",619593322,"L"
319262,"9672 W CHATFIELD AVE UNIT D","LITTLETON","CO",80128,39.56936713,-105.106223392,262,"9672 W CHATFIELD AVE UNIT D, LITTLETON, CO, 80128","Match","Non_Exact","9672 W CHATFIELD AVE, LITTLETON, CO, 80128",177762102,"L"
319263,"9672 WEXFORD RD","JACKSONVILLE","FL",32257,30.2019777260001,-81.632764821,263,"9672 WEXFORD RD, JACKSONVILLE, FL, 32257","Match","Exact","9672 WEXFORD RD, JACKSONVILLE, FL, 32257",83917631,"L"
319264,"9674 COLERAIN AVE UNIT 174","CINCINNATI","OH",45251,39.247111123,-84.59622326,264,"9674 COLERAIN AVE UNIT 174, CINCINNATI, OH, 45251","Match","Exact","9674 COLERAIN AVE, CINCINNATI, OH, 45251",103915206,"R"
319265,"9674 COLERAIN AVENUE    SUITE 110","CINCINNATI","OH",45251,39.247111123,-84.59622326,265,"9674 COLERAIN AVENUE    SUITE 110, CINCINNATI, OH, 45251","Match","Exact","9674 COLERAIN AVE, CINCINNATI, OH, 45251",103915206,"R"
319266,"9674 LEE VALLEY ROAD","BLANCHARDVILLE","WI",53516,42.8756665380001,-89.732782092,266,"9674 LEE VALLEY ROAD, BLANCHARDVILLE, WI, 53516","Match","Exact","9674 LEE VALLEY RD, BLANCHARDVILLE, WI, 53516",49550071,"L"
319267,"9675 CRESCENT RD","WARRENS","WI",54666,44.031143457,-90.3325948,267,"9675 CRESCENT RD, WARRENS, WI, 54666","Match","Exact","9675 CRESCENT RD, WARRENS, WI, 54666",639163573,"L"
319268,"9675 NW 117 AVE SUITE 405","MIAMI","FL",33178,NA,NA,268,"9675 NW 117 AVE SUITE 405, MIAMI, FL, 33178","No_Match",NA,NA,NA,NA
319269,"96751 BLACKROCK ROAD","YULEE","FL",32097,30.666978451,-81.5341810799999,269,"96751 BLACKROCK ROAD, YULEE, FL, 32097","Match","Exact","96751 BLACKROCK RD, YULEE, FL, 32097",627966133,"L"
319270,"9676 SHETTLESTON CIRCLE","SOUTHJORDAN","UT",84095,NA,NA,270,"9676 SHETTLESTON CIRCLE, SOUTHJORDAN, UT, 84095","No_Match",NA,NA,NA,NA
319271,"9676 WESSON ST","BATON ROUGE","LA",70809,30.42390341,-91.0817470969999,271,"9676 WESSON ST, BATON ROUGE, LA, 70809","Match","Exact","9676 WESSON ST, BATON ROUGE, LA, 70809",92191278,"R"
319272,"9677 EASTER WAY","SAN DIEGO","CA",92121,32.8817657060001,-117.211814543,272,"9677 EASTER WAY, SAN DIEGO, CA, 92121","Match","Exact","9677 EASTER WAY, SAN DIEGO, CA, 92121",195300560,"R"
319273,"9677 SNOW CAMP RD","SNOW CAMP","NC",27349,35.8514006770001,-79.427263854,273,"9677 SNOW CAMP RD, SNOW CAMP, NC, 27349","Match","Exact","9677 SNOW CAMP RD, SNOW CAMP, NC, 27349",71676944,"L"
319274,"968 ALLENDALE RD","WEST PALM BEACH","FL",33405,26.6869416690001,-80.0661805079999,274,"968 ALLENDALE RD, WEST PALM BEACH, FL, 33405","Match","Exact","968 ALLENDALE RD, WEST PALM BEACH, FL, 33405",115562504,"L"
319275,"968 BELTON RD","RIPLEY","TN",38063,35.7364055300001,-89.46096098,275,"968 BELTON RD, RIPLEY, TN, 38063","Match","Exact","968 BELTON RD, RIPLEY, TN, 38063",607066412,"R"
319276,"968 BOLSTERS MILLS ROAD","OTISFIELD","ME",4270,44.111273968,-70.5970101889999,276,"968 BOLSTERS MILLS ROAD, OTISFIELD, ME, 4270","Match","Exact","968 BOLSTERS MILLS RD, OTISFIELD, ME, 04270",611304382,"L"
319277,"968 CLEVENGER ROAD","ONTARIO","NY",14519,43.2118634600001,-77.332603121,277,"968 CLEVENGER ROAD, ONTARIO, NY, 14519","Match","Exact","968 CLEVENGER RD, ONTARIO, NY, 14519",14926135,"R"
319278,"968 COLDSPRING DRIVE","NORTHVILLE","MI",48167,42.441273311,-83.501134196,278,"968 COLDSPRING DRIVE, NORTHVILLE, MI, 48167","Match","Exact","968 COLDSPRING DR, NORTHVILLE, MI, 48167",69762458,"R"
319279,"968 CONEY ISLAND AVENUE","BROOKLYN","NY",11230,40.63394443,-73.9672603719999,279,"968 CONEY ISLAND AVENUE, BROOKLYN, NY, 11230","Match","Exact","968 CONEY ISLAND AVE, BROOKLYN, NY, 11230",59081077,"R"
319280,"968 CROWN POINTE ESTATES DRIVE","WILDWOOD","MO",63021,38.5690306560001,-90.597547132,280,"968 CROWN POINTE ESTATES DRIVE, WILDWOOD, MO, 63021","Match","Exact","968 CROWN POINTE ESTATES DR, WILDWOOD, MO, 63021",100188060,"L"
319281,"968 E EAU GALLIE BLVD","INDIAN HARBOUR BEACH","FL",32937,28.1386901280001,-80.5840318039999,281,"968 E EAU GALLIE BLVD, INDIAN HARBOUR BEACH, FL, 32937","Match","Exact","968 E EAU GALLIE BLVD, INDIAN HARBOUR BEACH, FL, 32937",629426734,"L"
319282,"968 EAST STUART DRIVE","GALAX","VA",24333,36.6802433570001,-80.895892899,282,"968 EAST STUART DRIVE, GALAX, VA, 24333","Match","Exact","968 E STUART DR, GALAX, VA, 24333",636659457,"L"
319283,"968 EASTWOOD DRIVE","ROCK HILL","SC",29730,34.9252403520001,-81.004592762,283,"968 EASTWOOD DRIVE, ROCK HILL, SC, 29730","Match","Exact","968 EASTWOOD DR, ROCK HILL, SC, 29730",19792265,"R"
319284,"968 GAS LIGHT LN","VIRGINIA BEACH","VA",23462,36.867872033,-76.168370349,284,"968 GAS LIGHT LN, VIRGINIA BEACH, VA, 23462","Match","Exact","968 GAS LIGHT LN, VA BCH, VA, 23462",122295070,"R"
319285,"968 MADISON SQUARE","MADISON","TN",37115,36.255649584,-86.715835273,285,"968 MADISON SQUARE, MADISON, TN, 37115","Match","Exact","968 MADISON SQ, MADISON, TN, 37115",97228233,"L"
319286,"968 MAIN STREET","WAKEFIELD","MA",1880,42.4815985880001,-71.0655724699999,286,"968 MAIN STREET, WAKEFIELD, MA, 1880","Match","Exact","968 MAIN ST, WAKEFIELD, MA, 01880",636268666,"L"
319287,"968 MELBA DRIVE","RENO","NV",89503,39.5355707780001,-119.829617006,287,"968 MELBA DRIVE, RENO, NV, 89503","Match","Exact","968 MELBA DR, RENO, NV, 89503",107042554,"L"
319288,"968 MOSS CREEK ROAD","NORTHERN CAMBRIA","PA",15714,40.653912787,-78.818496814,288,"968 MOSS CREEK ROAD, NORTHERN CAMBRIA, PA, 15714","Match","Exact","968 MOSS CREEK RD, NORTHERN CAMBRIA, PA, 15714",635547662,"L"
319289,"968 N ARMSTRONG DR","COEUR D ALENE","ID",83814,47.666213477,-116.742320923,289,"968 N ARMSTRONG DR, COEUR D ALENE, ID, 83814","Match","Exact","968 ARMSTRONG DR, COEUR D ALENE, ID, 83814",192931871,"L"
319290,"968 N MAIN","BROCKTON","MA",2301,NA,NA,290,"968 N MAIN, BROCKTON, MA, 2301","Tie",NA,NA,NA,NA
319291,"968 PERALTA AVE","SAN FRANCISCO","CA",94110,37.737118583,-122.409115186,291,"968 PERALTA AVE, SAN FRANCISCO, CA, 94110","Match","Exact","968 PERALTA AVE, SAN FRANCISCO, CA, 94110",623835385,"R"
319292,"968 SCENIC BLVD","CHESAPEAKE","VA",23322,36.6955534100001,-76.277577806,292,"968 SCENIC BLVD, CHESAPEAKE, VA, 23322","Match","Exact","968 SCENIC BLVD, CHESAPEAKE, VA, 23322",121778316,"L"
319293,"968 SIERRA STREET UNIT 203","KINGSBURG","CA",93631,36.5178686140001,-119.557453419,293,"968 SIERRA STREET UNIT 203, KINGSBURG, CA, 93631","Match","Exact","968 SIERRA ST, KINGSBURG, CA, 93631",197592990,"R"
319294,"968 W 7TH STREET STE 21","UPLAND","CA",91786,NA,NA,294,"968 W 7TH STREET STE 21, UPLAND, CA, 91786","Tie",NA,NA,NA,NA
319295,"968 W PENNWOOD ST","MERIDIAN","ID",83642,43.601040869,-116.405718699,295,"968 W PENNWOOD ST, MERIDIAN, ID, 83642","Match","Exact","968 W PENNWOOD ST, MERIDIAN, ID, 83642",117883198,"R"
319296,"968 YANCEY COURT","LOGANVILLE","GA",30052,33.8482631850001,-83.898040628,296,"968 YANCEY COURT, LOGANVILLE, GA, 30052","Match","Exact","968 YANCEY CT, LOGANVILLE, GA, 30052",634034745,"R"
319297,"9680 CITRUS AVE","FONTANA","CA",92335,34.0781558140001,-117.453722018,297,"9680 CITRUS AVE, FONTANA, CA, 92335","Match","Exact","9680 CITRUS AVE, FONTANA, CA, 92335",144641760,"R"
319298,"9680 CITRUS AVENUE BUILDING 9","FONTANA","CA",92335,34.0781558140001,-117.453722018,298,"9680 CITRUS AVENUE BUILDING 9, FONTANA, CA, 92335","Match","Exact","9680 CITRUS AVE, FONTANA, CA, 92335",144641760,"R"
319299,"9680 NE JONES ROAD","CAMERON","MO",64429,39.6981311110001,-94.224506557,299,"9680 NE JONES ROAD, CAMERON, MO, 64429","Match","Exact","9680 NE JONES RD, CAMERON, MO, 64429",605066476,"L"
319300,"9680 NW COUNTY RD 9002","AMSTERDAM","MO",64723,NA,NA,300,"9680 NW COUNTY RD 9002, AMSTERDAM, MO, 64723","No_Match",NA,NA,NA,NA
319301,"9680 SOUTH KURTZ PLACE","TERRE HAUTE","IN",47802,39.3491079820001,-87.454615373,301,"9680 SOUTH KURTZ PLACE, TERRE HAUTE, IN, 47802","Match","Exact","9680 S KURTZ PL, TERRE HAUTE, IN, 47802",27111480,"L"
319302,"9680 W TROPICANA AVE NUM 142","LAS VEGAS","NV",89147,36.1001213980001,-115.303866074,302,"9680 W TROPICANA AVE NUM 142, LAS VEGAS, NV, 89147","Match","Non_Exact","9680 W TROPICANA AVE, LAS VEGAS, NV, 89147",650653617,"L"
319303,"9681 BUSINESS CENTER DR STE B","RANCHO CUCAMONGA","CA",91730,34.0981063890001,-117.594233851,303,"9681 BUSINESS CENTER DR STE B, RANCHO CUCAMONGA, CA, 91730","Match","Non_Exact","9681 BUS CENTER DR, RANCHO CUCAMONGA, CA, 91730",144637187,"R"
319304,"9681 S CINDY CT","SOUTH JORDAN","UT",84009,40.575847896,-112.011228687,304,"9681 S CINDY CT, SOUTH JORDAN, UT, 84009","Match","Exact","9681 CINDY CT, SOUTH JORDAN, UT, 84009",176146565,"L"
319305,"96817 S 4749 ROAD","MULDROW","OK",74948,35.61033224,-94.566857989,305,"96817 S 4749 ROAD, MULDROW, OK, 74948","Match","Exact","96817 S 4749 RD, MULDROW, OK, 74948",53797314,"L"
319306,"9682 ALBACORE DRIVE","HUNTINGTON BEACH","CA",92646,33.686337268,-117.959720152,306,"9682 ALBACORE DRIVE, HUNTINGTON BEACH, CA, 92646","Match","Exact","9682 ALBACORE DR, HUNTINGTON BEACH, CA, 92646",144085260,"R"
319307,"9683 SUNLAND BLVD","SHADOW HILLS","CA",91040,34.2470328730001,-118.356872169,307,"9683 SUNLAND BLVD, SHADOW HILLS, CA, 91040","Match","Exact","9683 SUNLAND BLVD, SHADOW HILLS, CA, 91040",141586557,"L"
319308,"9685 CR 2470","ROYSE CITY","TX",75189,32.8779214620001,-96.296779402,308,"9685 CR 2470, ROYSE CITY, TX, 75189","Match","Exact","9685 CO RD 2470, ROYSE CITY, TX, 75189",42859646,"R"
319309,"9685 FM 51","VALLEY VIEW","TX",76272,33.527973753,-97.2563049679999,309,"9685 FM 51, VALLEY VIEW, TX, 76272","Match","Exact","9685 FM 51, VALLEY VIEW, TX, 76272",151335057,"L"
319310,"9685 GERWIG LANE","COLUMBIA","MD",21046,39.1753786880001,-76.846666483,310,"9685 GERWIG LANE, COLUMBIA, MD, 21046","Match","Exact","9685 GERWIG LN, COLUMBIA, MD, 21046",158964270,"R"
319311,"9685 RAYMOND AVENUE","CALIFORNIA CITY","CA",93505,35.14214746,-117.95522502,311,"9685 RAYMOND AVENUE, CALIFORNIA CITY, CA, 93505","Match","Exact","9685 RAYMOND AVE, CALIF CITY, CA, 93505",109134581,"L"
319312,"9686 CHESTNUT RIDGE DRIVE","MYRTLE BEACH","SC",29572,33.774306805,-78.785091477,312,"9686 CHESTNUT RIDGE DRIVE, MYRTLE BEACH, SC, 29572","Match","Exact","9686 CHESTNUT RIDGE DR, MYRTLE BEACH, SC, 29572",29089325,"L"
319313,"9686 FARMSIDE PLACE","VIENNA","VA",22182,38.9583386630001,-77.279122415,313,"9686 FARMSIDE PLACE, VIENNA, VA, 22182","Match","Exact","9686 FARMSIDE PL, VIENNA, VA, 22182",641098250,"L"
319314,"9687 JONES STREET","SPARTA","GA",31087,33.2779063190001,-82.9767926979999,314,"9687 JONES STREET, SPARTA, GA, 31087","Match","Exact","9687 JONES ST, SPARTA, GA, 31087",642504574,"L"
319315,"9687 W ADAM AVE","PEORIA","AZ",85382,33.6790077860001,-112.267902326,315,"9687 W ADAM AVE, PEORIA, AZ, 85382","Match","Exact","9687 ADAM AVE, PEORIA, AZ, 85382",647737040,"L"
319316,"9688 AUTUMN WAY","ZIONSVILLE","IN",46077,39.9794807590001,-86.286065561,316,"9688 AUTUMN WAY, ZIONSVILLE, IN, 46077","Match","Exact","9688 AUTUMN WAY, ZIONSVILLE, IN, 46077",29261158,"R"
319317,"9688 W LAKE CT","BOCA RATON","FL",33434,26.369915452,-80.1978869129999,317,"9688 W LAKE CT, BOCA RATON, FL, 33434","Match","Exact","9688 W LAKE CT, BOCA RATON, FL, 33434",115299551,"L"
319318,"969 1/4 N SERRANO AVENUE","LOS ANGELES","CA",90029,34.0877660560001,-118.306402206,318,"969 1/4 N SERRANO AVENUE, LOS ANGELES, CA, 90029","Match","Exact","969 N SERRANO AVE, LOS ANGELES, CA, 90029",141603208,"L"
319319,"969 ANTELOPE AVENUE NE","ALBUQUERQUE","NM",87122,35.1735210200001,-106.49053861,319,"969 ANTELOPE AVENUE NE, ALBUQUERQUE, NM, 87122","Match","Exact","969 ANTELOPE AVE NE, ALBUQUERQUE, NM, 87122",206723294,"R"
319320,"969 COLLEEN DRIVE","NEWPORT NEWS","VA",23608,37.139140615,-76.558497834,320,"969 COLLEEN DRIVE, NEWPORT NEWS, VA, 23608","Match","Exact","969 COLLEEN DR, NEWPORT NEWS, VA, 23608",103772161,"R"
319321,"969 COLSON WAY","GALT","CA",95632,38.2716447010001,-121.291626356,321,"969 COLSON WAY, GALT, CA, 95632","Match","Exact","969 COLSON WAY, GALT, CA, 95632",133386015,"L"
319322,"969 EUCLID DR","ALLEN","TX",75013,33.128764077,-96.684327697,322,"969 EUCLID DR, ALLEN, TX, 75013","Match","Exact","969 EUCLID DR, ALLEN, TX, 75013",646507559,"L"
319323,"969 FILMORE AVE","NEW ORLEANS","LA",70124,30.0116492280001,-90.100562821,323,"969 FILMORE AVE, NEW ORLEANS, LA, 70124","Match","Exact","969 FILMORE AVE, NEW ORLEANS, LA, 70124",647536136,"L"
319324,"969 G EDGEWATER BLVD STE 183","FOSTER CITY","CA",94404,37.543979071,-122.271773209,324,"969 G EDGEWATER BLVD STE 183, FOSTER CITY, CA, 94404","Match","Exact","969 EDGEWATER BLVD, FOSTER CITY, CA, 94404",635506886,"L"
319325,"969 HANCOCK AVENUE","BRIDGEPORT","CT",6605,41.172594985,-73.214700358,325,"969 HANCOCK AVENUE, BRIDGEPORT, CT, 6605","Match","Exact","969 HANCOCK AVE, BRIDGEPORT, CT, 06605",3221866,"L"
319326,"969 HWY 153","PATEROS","WA",98846,48.110078312,-120.01069034,326,"969 HWY 153, PATEROS, WA, 98846","Match","Exact","969 HWY 153, PATEROS, WA, 98846",644041720,"L"
319327,"969 MEMORIAL BLVD","PICAYUNE","MS",39466,30.5177706480001,-89.666362492,327,"969 MEMORIAL BLVD, PICAYUNE, MS, 39466","Match","Exact","969 MEMORIAL BLVD, PICAYUNE, MS, 39466",111491632,"L"
319328,"969 NORTH GRANGE AVENUE","COLLEGEVILLE","PA",19426,40.173532505,-75.413143957,328,"969 NORTH GRANGE AVENUE, COLLEGEVILLE, PA, 19426","Match","Exact","969 N GRANGE AVE, COLLEGEVILLE, PA, 19426",135124342,"L"
319329,"969 PARK AVENUE APT 9A","MANHATTAN","NY",10028,40.7779077960001,-73.958850501,329,"969 PARK AVENUE APT 9A, MANHATTAN, NY, 10028","Match","Non_Exact","969 PARK AVE, NEW YORK, NY, 10028",59657345,"R"
319330,"969 PATUXENT ROAD","ODENTON","MD",21113,39.048167044,-76.7335775459999,330,"969 PATUXENT ROAD, ODENTON, MD, 21113","Match","Exact","969 PATUXENT RD, ODENTON, MD, 21113",68160488,"L"
319331,"969 PEARTREE LANE","WEBSTER","NY",14580,43.235596522,-77.4594830359999,331,"969 PEARTREE LANE, WEBSTER, NY, 14580","Match","Non_Exact","969 PEAR TREE LN, WEBSTER, NY, 14580",14537075,"R"
319332,"969 PETALUMA BOULEVARD NORTH","PETALUMA","CA",94952,38.2455374150001,-122.644927901,332,"969 PETALUMA BOULEVARD NORTH, PETALUMA, CA, 94952","Match","Exact","969 PETALUMA BLVD N, PETALUMA, CA, 94952",639984183,"R"
319333,"969 REYNOLDS FARM LANE","LONGMONT","CO",80503,40.1758574720001,-105.136292799,333,"969 REYNOLDS FARM LANE, LONGMONT, CO, 80503","Match","Exact","969 REYNOLDS FARM LN, LONGMONT, CO, 80503",220760023,"L"
319334,"969 ROCK LEDGE COURT","HENDERSON","NV",89012,36.020619948,-115.028627973,334,"969 ROCK LEDGE COURT, HENDERSON, NV, 89012","Match","Exact","969 ROCK LEDGE CT, HENDERSON, NV, 89012",650685449,"L"
319335,"969 S CARTERVILLE ROAD","OREM","UT",84097,40.2794804000001,-111.670875474,335,"969 S CARTERVILLE ROAD, OREM, UT, 84097","Match","Exact","969 S CARTERVILLE RD, OREM, UT, 84097",134272921,"L"
319336,"969 SE 6TH STREET","GRANTS PASS","OR",97526,42.4328430840001,-123.330761704,336,"969 SE 6TH STREET, GRANTS PASS, OR, 97526","Match","Exact","969 SE 6TH ST, GRANTS PASS, OR, 97526",156572116,"L"
319337,"969 SHORE ACRES ROAD","ARNOLD","MD",21012,39.054046799,-76.463112859,337,"969 SHORE ACRES ROAD, ARNOLD, MD, 21012","Match","Exact","969 SHORE ACRES RD, ARNOLD, MD, 21012",68174645,"R"
319338,"969 STORY RD STE 6075","SAN JOSE","CA",95122,37.3309279690001,-121.856346985,338,"969 STORY RD STE 6075, SAN JOSE, CA, 95122","Match","Exact","969 STORY RD, SAN JOSE, CA, 95122",123177350,"L"
319339,"969 STRATFORD LANE","INDIAN RIVER","MI",49749,45.4751357650001,-84.631063543,339,"969 STRATFORD LANE, INDIAN RIVER, MI, 49749","Match","Exact","969 STRATFORD LN, INDIAN RIVER, MI, 49749",625128979,"L"
319340,"969 TUSCOLA LN","WEST BEND","WI",53095,43.4120438620001,-88.0810825789999,340,"969 TUSCOLA LN, WEST BEND, WI, 53095","Match","Exact","969 TUSCOLA LN, WEST BEND, WI, 53095",79559183,"L"
319341,"969 WOODVIEW DRIVE","ASHLAND","OH",44805,40.841291852,-82.3325791199999,341,"969 WOODVIEW DRIVE, ASHLAND, OH, 44805","Match","Exact","969 WOODVIEW DR, ASHLAND, OH, 44805",30147083,"R"
319342,"969-G EAST EDGEWATER BLVD  UNIT 340","FOSTER CITY","CA",94404,37.544005354,-122.27177481,342,"969-G EAST EDGEWATER BLVD  UNIT 340, FOSTER CITY, CA, 94404","Match","Non_Exact","969 EDGEWATER BLVD, FOSTER CITY, CA, 94404",635506886,"L"
319343,"9690 LAKE ROAD","OTTAWA LAKE","MI",49267,41.788492245,-83.745806052,343,"9690 LAKE ROAD, OTTAWA LAKE, MI, 49267","Match","Non_Exact","9690 HEAD O LAKE RD, OTTAWA LAKE, MI, 49267",40503352,"R"
319344,"9690 MEADOLWBROOK DR","BEAUMONT","TX",77706,NA,NA,344,"9690 MEADOLWBROOK DR, BEAUMONT, TX, 77706","No_Match",NA,NA,NA,NA
319345,"9690 S 300 W 3RD FLOOR","SANDY","UT",84070,40.5757372670001,-111.900757737,345,"9690 S 300 W 3RD FLOOR, SANDY, UT, 84070","Match","Non_Exact","9690 S 300 W, SANDY, UT, 84070",176085862,"R"
319346,"9691 COLLINS ROAD","FENWICK","MI",48834,43.153594362,-85.0839109839999,346,"9691 COLLINS ROAD, FENWICK, MI, 48834","Match","Exact","9691 COLLINS RD, FENWICK, MI, 48834",110563846,"R"
319347,"9692 ROYAL PALM BLVD","GARDEN GROVE","CA",92841,33.7945966340001,-117.964072965,347,"9692 ROYAL PALM BLVD, GARDEN GROVE, CA, 92841","Match","Exact","9692 ROYAL PALM BLVD, GARDEN GROVE, CA, 92841",144023961,"R"
319348,"9692 WOODLANDA VISTA DRIVE","CORDOVA","TN",38018,35.1482645580001,-89.739296387,348,"9692 WOODLANDA VISTA DRIVE, CORDOVA, TN, 38018","Match","Non_Exact","9692 WOODLAND VISTA DR, CORDOVA, TN, 38018",618252111,"L"
319349,"9693 NORTH SANDREE DRIVE","CITRUS SPRINGS","FL",34434,29.005004457,-82.449365972,349,"9693 NORTH SANDREE DRIVE, CITRUS SPRINGS, FL, 34434","Match","Exact","9693 N SANDREE DR, CITRUS SPRINGS, FL, 34434",86185130,"R"
319350,"9693 VIA GRANDEZZA E","WELLINGTON","FL",33411,26.652490044,-80.1989935139999,350,"9693 VIA GRANDEZZA E, WELLINGTON, FL, 33411","Match","Exact","9693 VIA GRANDEZZA E, WELLINGTON, FL, 33411",115572129,"L"
319351,"9694 HAAF FARM DR","PICKERINGTON","OH",43147,39.934549287,-82.7682650959999,351,"9694 HAAF FARM DR, PICKERINGTON, OH, 43147","Match","Exact","9694 HAAF FARM DR, PICKERINGTON, OH, 43147",37238674,"L"
319352,"9695 ALVIN DRIVE","SHIPPENSBURG","PA",17257,40.036646396,-77.534148584,352,"9695 ALVIN DRIVE, SHIPPENSBURG, PA, 17257","Match","Exact","9695 ALVIN DR, SHIPPENSBURG, PA, 17257",60101461,"L"
319353,"9695 E PROGRESS PL","GREENWOOD VILLAGE","CO",80111,39.6216808140001,-104.876090773,353,"9695 E PROGRESS PL, GREENWOOD VILLAGE, CO, 80111","Match","Exact","9695 E PROGRESS PL, GREENWOOD VILLAGE, CO, 80111",177347051,"L"
319354,"9695 EAST YUCCA STREET","SCOTTSDALE","AZ",85260,33.589096193,-111.872601258,354,"9695 EAST YUCCA STREET, SCOTTSDALE, AZ, 85260","Match","Exact","9695 E YUCCA ST, SCOTTSDALE, AZ, 85260",128930341,"R"
319355,"9695 FOXTROT ROAD","CLAUDE","TX",79019,NA,NA,355,"9695 FOXTROT ROAD, CLAUDE, TX, 79019","No_Match",NA,NA,NA,NA
319356,"9695 NAVAJO TRAIL","STAGECOACH","NV",89429,39.3698586620001,-119.392639072,356,"9695 NAVAJO TRAIL, STAGECOACH, NV, 89429","Match","Exact","9695 NAVAJO TRL, STAGECOACH, NV, 89429",605198618,"R"
319357,"9695 WENTWORTH","YPSILANTI","MI",48197,42.18342024,-83.567149593,357,"9695 WENTWORTH, YPSILANTI, MI, 48197","Match","Non_Exact","9695 WENTWORTH DR, YPSILANTI, MI, 48197",619498060,"L"
319358,"9696 EAGLE DRIVE","MONT BELVIEU","TX",77523,NA,NA,358,"9696 EAGLE DRIVE, MONT BELVIEU, TX, 77523","No_Match",NA,NA,NA,NA
319359,"9696 EVANS FORD ROAD","MANASSAS","VA",20111,38.743033774,-77.400081735,359,"9696 EVANS FORD ROAD, MANASSAS, VA, 20111","Match","Exact","9696 EVANS FORD RD, MANASSAS, VA, 20111",635834088,"R"
319360,"9696 SILVERSTONE COURT","JONESBORO","GA",30238,33.49031581,-84.346970787,360,"9696 SILVERSTONE COURT, JONESBORO, GA, 30238","Match","Exact","9696 SILVERSTONE CT, JONESBORO, GA, 30238",636102450,"L"
319361,"9696 SKILLMAN","DALLAS","TX",75243,32.9085308960001,-96.706557319,361,"9696 SKILLMAN, DALLAS, TX, 75243","Match","Non_Exact","9696 SKILLMAN ST, DALLAS, TX, 75243",103207116,"R"
319362,"9697 FIRDALE AVE","EDMONDS","WA",98020,47.7784227270001,-122.362826541,362,"9697 FIRDALE AVE, EDMONDS, WA, 98020","Match","Exact","9697 FIRDALE AVE, EDMONDS, WA, 98020",187755304,"L"
319363,"9697 N 3725 EAST RD","SAYBROOK","IL",61770,40.424791107,-88.554262555,363,"9697 N 3725 EAST RD, SAYBROOK, IL, 61770","Match","Exact","9697 N 3725 EAST RD, SAYBROOK, IL, 61770",20551441,"R"
319364,"9697 W VANDEVENTOR DR","LITTLETON","CO",80128,39.556821647,-105.107128117,364,"9697 W VANDEVENTOR DR, LITTLETON, CO, 80128","Match","Exact","9697 W VANDEVENTOR DR, LITTLETON, CO, 80128",177747193,"R"
319365,"96CR WESTMINSTER COURT","ROXBURY","MA",2119,42.31632166,-71.093850365,365,"96CR WESTMINSTER COURT, ROXBURY, MA, 2119","Match","Exact","96 WESTMINSTER CT, ROXBURY, MA, 02119",85718176,"L"
319366,"97  E ALLENDALE RD","SADDLE RIVER","NJ",7458,41.0312580470001,-74.09658088,366,"97  E ALLENDALE RD, SADDLE RIVER, NJ, 7458","Match","Exact","97 E ALLENDALE RD, SADDLE RIVER, NJ, 07458",64412540,"L"
319367,"97 1/2 EAST 7TH STREET 4","NEW YORK","NY",10009,40.726846628,-73.985396115,367,"97 1/2 EAST 7TH STREET 4, NEW YORK, NY, 10009","Match","Exact","97 E 7TH ST, NEW YORK, NY, 10009",59654064,"L"
319368,"97 10TH STREET","TEWKSBURY","MA",1876,42.5819531700001,-71.201160882,368,"97 10TH STREET, TEWKSBURY, MA, 1876","Match","Exact","97 10TH ST, TEWKSBURY, MA, 01876",86908685,"R"
319369,"97 11TH STREET","CHILLICOTHE","MO",64601,39.800553918,-93.544425637,369,"97 11TH STREET, CHILLICOTHE, MO, 64601","Match","Exact","97 11TH ST, CHILLICOTHE, MO, 64601",18106979,"R"
319370,"97 ANDREW STREET  SUITE 1","SPRINGFIELD","MA",1109,42.11508373,-72.5628944279999,370,"97 ANDREW STREET  SUITE 1, SPRINGFIELD, MA, 1109","Match","Exact","97 ANDREW ST, SPRINGFIELD, MA, 01109",4035598,"R"
319371,"97 ARCADIA DR","TUSCALOOSA","AL",35404,33.203532082,-87.491819704,371,"97 ARCADIA DR, TUSCALOOSA, AL, 35404","Match","Exact","97 ARCADIA DR, TUSCALOOSA, AL, 35404",82151588,"R"
319372,"97 ARLINGTON BLVD","NORTH ARLINGTON","NJ",7031,40.791442965,-74.1367316929999,372,"97 ARLINGTON BLVD, NORTH ARLINGTON, NJ, 7031","Match","Exact","97 ARLINGTON BLVD, N ARLINGTON, NJ, 07031",64399047,"L"
319373,"97 AUGUSTA STREET","IRVINGTON","NJ",7111,40.722474576,-74.228797534,373,"97 AUGUSTA STREET, IRVINGTON, NJ, 7111","Match","Exact","97 AUGUSTA ST, IRVINGTON, NJ, 07111",63485210,"R"
319374,"97 BAILEY RD","HOLDEN","MA",1520,42.3421411940001,-71.856865989,374,"97 BAILEY RD, HOLDEN, MA, 1520","Match","Exact","97 BAILEY RD, HOLDEN, MA, 01520",40071048,"R"
319375,"97 BAILEY STREET","LAWRENCE","MA",1843,42.6978573370001,-71.156488281,375,"97 BAILEY STREET, LAWRENCE, MA, 1843","Match","Exact","97 BAILEY ST, LAWRENCE, MA, 01843",86628673,"R"
319376,"97 BARK AVE","CENTRAL ISLIP","NY",11722,40.7793715510001,-73.209689951,376,"97 BARK AVE, CENTRAL ISLIP, NY, 11722","Match","Exact","97 BARK AVE, CENTRAL ISLIP, NY, 11722",113989918,"L"
319377,"97 BIRCH CHASE","RIVERDALE","GA",30274,33.5329455740001,-84.394097323,377,"97 BIRCH CHASE, RIVERDALE, GA, 30274","Match","Exact","97 BIRCH CHASE, RIVERDALE, GA, 30274",637336554,"L"
319378,"97 BISHOP AVENUE","DANVILLE","VA",24541,36.5731456070001,-79.4306879649999,378,"97 BISHOP AVENUE, DANVILLE, VA, 24541","Match","Exact","97 BISHOP AVE, DANVILLE, VA, 24541",56664159,"L"
319379,"97 BISSELL RD","LEBANON","NJ",8833,40.6722310750001,-74.826548186,379,"97 BISSELL RD, LEBANON, NJ, 8833","Match","Exact","97 BISSELL RD, LEBANON, NJ, 08833",636225867,"R"
319380,"97 BLAUCH LN","FREDERICKSBURG","PA",17026,NA,NA,380,"97 BLAUCH LN, FREDERICKSBURG, PA, 17026","No_Match",NA,NA,NA,NA
319381,"97 CEDARHURST AVE APT 1M","CEDARHURST","NY",11516,40.6217248240001,-73.7236067919999,381,"97 CEDARHURST AVE APT 1M, CEDARHURST, NY, 11516","Match","Exact","97 CEDARHURST AVE, CEDARHURST, NY, 11516",147821562,"L"
319382,"97 CHANNEL XING","FREDERICA","DE",19946,39.000172305,-75.458241072,382,"97 CHANNEL XING, FREDERICA, DE, 19946","Match","Exact","97 CHANNEL CROSSING, FREDERICA, DE, 19946",635150924,"L"
319383,"97 CHASE DRIVE","HURRICANE","WV",25526,38.443619573,-81.9754059379999,383,"97 CHASE DRIVE, HURRICANE, WV, 25526","Match","Exact","97 CHASE DR, HURRICANE, WV, 25526",648355008,"L"
319384,"97 CHESTNUT AVE","TRENTON","NJ",8609,40.2191225060001,-74.7500885009999,384,"97 CHESTNUT AVE, TRENTON, NJ, 8609","Match","Exact","97 CHESTNUT AVE, TRENTON, NJ, 08609",60225103,"R"
319385,"97 COLD CREEK COURT SOUTH","ELIZABETHTOWN","KY",42701,37.7200198520001,-85.8106724799999,385,"97 COLD CREEK COURT SOUTH, ELIZABETHTOWN, KY, 42701","Match","Non_Exact","97 COLDCREEK CT S, ELIZABETHTOWN, KY, 42701",639712313,"L"
319386,"97 CRANSTON AVE","SHELTON","CT",6484,41.301759459,-73.089251627,386,"97 CRANSTON AVE, SHELTON, CT, 6484","Match","Exact","97 CRANSTON AVE, SHELTON, CT, 06484",3280173,"R"
319387,"97 CROOKE AVENUE APT 2A","BROOKLYN","NY",11226,40.6528971540001,-73.962328234,387,"97 CROOKE AVENUE APT 2A, BROOKLYN, NY, 11226","Match","Exact","97 CROOKE AVE, BROOKLYN, NY, 11226",59078553,"L"
319388,"97 CUSHING AVE  APT 2","BOSTON","MA",2125,42.3135943240001,-71.063031645,388,"97 CUSHING AVE  APT 2, BOSTON, MA, 2125","Match","Exact","97 CUSHING AVE, BOSTON, MA, 02125",85713108,"R"
319389,"97 DOAT STREET","BUFFALO","NY",14211,42.909738695,-78.817077908,389,"97 DOAT STREET, BUFFALO, NY, 14211","Match","Exact","97 DOAT ST, BUFFALO, NY, 14211",48297480,"R"
319390,"97 DOVER","MEMPHIS","TN",38106,35.10236624,-90.0588562189999,390,"97 DOVER, MEMPHIS, TN, 38106","Match","Non_Exact","97 DOVER AVE, MEMPHIS, TN, 38106",72907460,"R"
319391,"97 E 23RD ST","HOLLAND","MI",49423,42.776721179,-86.1034687379999,391,"97 E 23RD ST, HOLLAND, MI, 49423","Match","Exact","97 E 23RD ST, HOLLAND, MI, 49423",71077855,"R"
319392,"97 E BROADWAY BASEMENT","NEW YORK","NY",10002,NA,NA,392,"97 E BROADWAY BASEMENT, NEW YORK, NY, 10002","Tie",NA,NA,NA,NA
319393,"97 E DEMPSTER","MEMPHIS","TN",38109,35.0855767640001,-90.059852511,393,"97 E DEMPSTER, MEMPHIS, TN, 38109","Match","Non_Exact","97 E DEMPSTER AVE, MEMPHIS, TN, 38109",72907991,"R"
319394,"97 E DUVAL ST","PHILADELPHIA","PA",19144,40.045637985,-75.180797677,394,"97 E DUVAL ST, PHILADELPHIA, PA, 19144","Match","Exact","97 E DUVAL ST, PHILADELPHIA, PA, 19144",131395470,"L"
319395,"97 E MAIN ST","BERLIN HEIGHTS","OH",44814,41.3252401190001,-82.484251161,395,"97 E MAIN ST, BERLIN HEIGHTS, OH, 44814","Match","Exact","97 E MAIN ST, BERLIN HEIGHTS, OH, 44814",55338979,"R"
319396,"97 E MAIN ST","LEROY","NY",14482,NA,NA,396,"97 E MAIN ST, LEROY, NY, 14482","Tie",NA,NA,NA,NA
319397,"97 E MAIN STREET SUITE 1D","MERIDEN","CT",6450,41.5368995430001,-72.799223648,397,"97 E MAIN STREET SUITE 1D, MERIDEN, CT, 6450","Match","Non_Exact","97 E MAIN ST, MERIDEN, CT, 06450",3739728,"R"
319398,"97 EAST BROKAW ROAD SUITE 310-F","SAN JOSE","CA",95112,37.3747462950001,-121.916558957,398,"97 EAST BROKAW ROAD SUITE 310-F, SAN JOSE, CA, 95112","Match","Exact","97 E BROKAW RD, SAN JOSE, CA, 95112",122997431,"L"
319399,"97 FERRY STREET","EVERETT","MA",2149,42.407211579,-71.0467227629999,399,"97 FERRY STREET, EVERETT, MA, 2149","Match","Exact","97 FERRY ST, EVERETT, MA, 02149",86873920,"R"
319400,"97 FOREST ST","LOWELL","MA",1851,42.6222656690001,-71.327530643,400,"97 FOREST ST, LOWELL, MA, 1851","Match","Exact","97 FOREST ST, LOWELL, MA, 01851",86893879,"R"
319401,"97 FRANCES CIR","BUENA PARK","CA",90621,33.886821184,-117.99787265,401,"97 FRANCES CIR, BUENA PARK, CA, 90621","Match","Exact","97 FRANCES CIR, BUENA PARK, CA, 90621",638578351,"L"
319402,"97 GRAND STREET","NEWBURGH","NY",12550,41.5024934960001,-74.0094664869999,402,"97 GRAND STREET, NEWBURGH, NY, 12550","Match","Exact","97 GRAND ST, NEWBURGH, NY, 12550",124413717,"L"
319403,"97 GREEN STREET APT G11","BROOKLYN","NY",11222,40.7335046380001,-73.9574090259999,403,"97 GREEN STREET APT G11, BROOKLYN, NY, 11222","Match","Exact","97 GREEN ST, BROOKLYN, NY, 11222",59076255,"L"
319404,"97 HADLEY STREET","SPRINGFIELD","MA",1118,42.08471425,-72.525650803,404,"97 HADLEY STREET, SPRINGFIELD, MA, 1118","Match","Exact","97 HADLEY ST, SPRINGFIELD, MA, 01118",4083347,"R"
319405,"97 HERITAGE BLVD","HUDSON","WI",54016,44.9514249370001,-92.6965887649999,405,"97 HERITAGE BLVD, HUDSON, WI, 54016","Match","Exact","97 HERITAGE BLVD, HUDSON, WI, 54016",640751882,"R"
319406,"97 HIGH STREET","STONEHAM","MA",2180,42.498731902,-71.09398719,406,"97 HIGH STREET, STONEHAM, MA, 2180","Match","Exact","97 HIGH ST, STONEHAM, MA, 02180",642583915,"R"
319407,"97 HOCKANUME DRIVE","EAST HARTFORD","CT",6118,41.7299602890001,-72.623260484,407,"97 HOCKANUME DRIVE, EAST HARTFORD, CT, 6118","Match","Non_Exact","97 HOCKANUM DR, EAST HARTFORD, CT, 06118",3496275,"R"
319408,"97 HOLBROOK ROAD","CENTEREACH","NY",11720,40.8500412970001,-73.08208288,408,"97 HOLBROOK ROAD, CENTEREACH, NY, 11720","Match","Exact","97 HOLBROOK RD, CENTEREACH, NY, 11720",114005626,"R"
319409,"97 INDIAN HILL PL","FREMONT","CA",94539,37.503610071,-121.920992265,409,"97 INDIAN HILL PL, FREMONT, CA, 94539","Match","Exact","97 INDIAN HILL PL, FREMONT, CA, 94539",125034457,"R"
319410,"97 INJUN HOLLOW RD","HADDAM NECK","CT",6424,41.499524105,-72.515819141,410,"97 INJUN HOLLOW RD, HADDAM NECK, CT, 6424","Match","Exact","97 INJUN HOLLOW RD, HADDAM NECK, CT, 06424",113893599,"L"
319411,"97 JOHN CLARKE ROAD","NEWPORT","RI",2842,41.5013587620001,-71.286053419,411,"97 JOHN CLARKE ROAD, NEWPORT, RI, 2842","Match","Non_Exact","97 JOHN CLARKE RD, MIDDLETOWN, RI, 02842",47353993,"R"
319412,"97 JOHN NELSON WAY","HARWICH","MA",2645,41.6784544270001,-70.06951323,412,"97 JOHN NELSON WAY, HARWICH, MA, 2645","Match","Exact","97 JOHN NELSON WAY, HARWICH, MA, 02645",121617635,"L"
319413,"97 KILGORE CROSSROADS","WHITWELL","TN",37397,35.2699839540001,-85.472466173,413,"97 KILGORE CROSSROADS, WHITWELL, TN, 37397","Match","Non_Exact","97 KILGORE DR, WHITWELL, TN, 37397",59566864,"L"
319414,"97 LAWN MARKET","SHARPSBURG","GA",30277,33.480090331,-84.646396467,414,"97 LAWN MARKET, SHARPSBURG, GA, 30277","Match","Exact","97 LAWN MARKET, SHARPSBURG, GA, 30277",634031531,"R"
319415,"97 LITTLE NECK ROAD","CENTERPORT","NY",11721,40.894693606,-73.367830764,415,"97 LITTLE NECK ROAD, CENTERPORT, NY, 11721","Match","Exact","97 LITTLE NECK RD, CENTERPORT, NY, 11721",113964235,"L"
319416,"97 LONDON LANE","MEBANE","NC",27302,36.0800906420001,-79.281114003,416,"97 LONDON LANE, MEBANE, NC, 27302","Match","Exact","97 LONDON LN, MEBANE, NC, 27302",71670764,"L"
319417,"97 LOWELL RD","CONCORD","MA",1742,42.4631605330001,-71.351624137,417,"97 LOWELL RD, CONCORD, MA, 1742","Match","Exact","97 LOWELL RD, CONCORD, MA, 01742",87100333,"R"
319418,"97 LOWELL STREET","READING","MA",1867,42.5279248960001,-71.108062596,418,"97 LOWELL STREET, READING, MA, 1867","Match","Exact","97 LOWELL ST, READING, MA, 01867",87086223,"L"
319419,"97 MACDOUGAL STREET  APT 3","BROOKLYN","NY",11233,40.6794701090001,-73.9180760799999,419,"97 MACDOUGAL STREET  APT 3, BROOKLYN, NY, 11233","Match","Exact","97 MACDOUGAL ST, BROOKLYN, NY, 11233",59083176,"L"
319420,"97 MADISON CHASE","HAMPTON","VA",23666,37.0855390610001,-76.399898197,420,"97 MADISON CHASE, HAMPTON, VA, 23666","Match","Exact","97 MADISON CHASE, HAMPTON, VA, 23666",103800426,"L"
319421,"97 MANOR CT","REDWOOD CITY","CA",94062,37.489080388,-122.248127911,421,"97 MANOR CT, REDWOOD CITY, CA, 94062","Match","Exact","97 MANOR CT, REDWOOD CITY, CA, 94062",192360823,"L"
319422,"97 MAPLE RIDGE ROAD","CATHLAMET","WA",98612,46.1661297470001,-123.326169989,422,"97 MAPLE RIDGE ROAD, CATHLAMET, WA, 98612","Match","Exact","97 MAPLE RIDGE RD, CATHLAMET, WA, 98612",176299621,"L"
319423,"97 MICHIGAN AVE   P O BOX 218","GRAYLING","MI",49738,NA,NA,423,"97 MICHIGAN AVE   P O BOX 218, GRAYLING, MI, 49738","No_Match",NA,NA,NA,NA
319424,"97 MILL CREEK LANE","JESUP","GA",31545,31.6669840160001,-81.9040016879999,424,"97 MILL CREEK LANE, JESUP, GA, 31545","Match","Exact","97 MILL CREEK LN, JESUP, GA, 31545",4837526,"L"
319425,"97 MILL CREEK LN","JESUP","GA",31545,31.6669840160001,-81.9040016879999,425,"97 MILL CREEK LN, JESUP, GA, 31545","Match","Exact","97 MILL CREEK LN, JESUP, GA, 31545",4837526,"L"
319426,"97 MONTGOMERY AVENUE SUITE 3","IRVINGTON","NJ",7111,40.7264910540001,-74.2165375559999,426,"97 MONTGOMERY AVENUE SUITE 3, IRVINGTON, NJ, 7111","Match","Exact","97 MONTGOMERY AVE, IRVINGTON, NJ, 07111",63465013,"R"
319427,"97 N APPLE SOUTH DR","CARRIERE","MS",39426,30.6478812620001,-89.6452124589999,427,"97 N APPLE SOUTH DR, CARRIERE, MS, 39426","Match","Exact","97 N APPLE SOUTH DR, CARRIERE, MS, 39426",111485851,"L"
319428,"97 N JONES STREET","PROCTORVILLE","OH",45669,38.44084228,-82.3842565899999,428,"97 N JONES STREET, PROCTORVILLE, OH, 45669","Match","Exact","97 N JONES ST, PROCTORVILLE, OH, 45669",55013171,"R"
319429,"97 NEWPORT AVENUE","SOMERSET","NJ",8873,40.490024824,-74.471722084,429,"97 NEWPORT AVENUE, SOMERSET, NJ, 8873","Match","Exact","97 NEWPORT AVE, SOMERSET, NJ, 08873",59942740,"R"
319430,"97 PARK TERRACE WEST C/O SIMMS","NEW YORK","NY",10034,40.8720284840001,-73.916408017,430,"97 PARK TERRACE WEST C/O SIMMS, NEW YORK, NY, 10034","Match","Exact","97 PARK TER W, NEW YORK, NY, 10034",59658926,"L"
319431,"97 PINE STREET X4861","VINEYARD HAVEN","MA",2568,41.4566745450001,-70.608595145,431,"97 PINE STREET X4861, VINEYARD HAVEN, MA, 2568","Match","Exact","97 PINE ST, VINEYARD HAVEN, MA, 02568",647948854,"R"
319432,"97 PLYMOUTH DR","NORWOOD","MA",2062,42.1648110630001,-71.1935479379999,432,"97 PLYMOUTH DR, NORWOOD, MA, 2062","Match","Exact","97 PLYMOUTH DR, NORWOOD, MA, 02062",87255114,"L"
319433,"97 POST STREET","NEWPORT NEWS","VA",23601,37.0330464370001,-76.4628311709999,433,"97 POST STREET, NEWPORT NEWS, VA, 23601","Match","Exact","97 POST ST, NEWPORT NEWS, VA, 23601",103820554,"L"
319434,"97 PRAIRIEWOOD DRIVE SOUTH","FARGO","ND",58103,NA,NA,434,"97 PRAIRIEWOOD DRIVE SOUTH, FARGO, ND, 58103","Tie",NA,NA,NA,NA
319435,"97 RAMAH RD","BRIDGETON","NJ",8302,39.3794336490001,-75.210496505,435,"97 RAMAH RD, BRIDGETON, NJ, 8302","Match","Exact","97 RAMAH RD, BRIDGETON, NJ, 08302",645399457,"R"
319436,"97 REUNION ACRES","ROGERSVILLE","MO",65742,NA,NA,436,"97 REUNION ACRES, ROGERSVILLE, MO, 65742","No_Match",NA,NA,NA,NA
319437,"97 RICHARDS AVENUE - UNIT G7","NORWALK","CT",6854,41.0960759590001,-73.45151471,437,"97 RICHARDS AVENUE - UNIT G7, NORWALK, CT, 6854","Match","Exact","97 RICHARDS AVE, NORWALK, CT, 06854",3283382,"L"
319438,"97 ROXBURY DRIVE","JACKSON","TN",38305,35.744251079,-88.862879315,438,"97 ROXBURY DRIVE, JACKSON, TN, 38305","Match","Exact","97 ROXBURY DR, JACKSON, TN, 38305",646706174,"L"
319439,"97 S OLEANDER ST","FELLSMERE","FL",32948,27.763971188,-80.607209148,439,"97 S OLEANDER ST, FELLSMERE, FL, 32948","Match","Exact","97 S OLEANDER ST, FELLSMERE, FL, 32948",120295135,"R"
319440,"97 SALEM ROAD","TWP OF WASHINGTON","NJ",7676,40.987404633,-74.076778949,440,"97 SALEM ROAD, TWP OF WASHINGTON, NJ, 7676","Match","Exact","97 SALEM RD, TOWNSHIP OF WASHINGTON, NJ, 07676",64377537,"R"
319441,"97 SANFORD PLACE","STATEN ISLAND","NY",10314,40.6148250540001,-74.118233969,441,"97 SANFORD PLACE, STATEN ISLAND, NY, 10314","Match","Exact","97 SANFORD PL, STATEN ISLAND, NY, 10314",59866644,"R"
319442,"97 SCHLEY AVENUE","SAVANNAH","GA",31419,31.938373088,-81.144980162,442,"97 SCHLEY AVENUE, SAVANNAH, GA, 31419","Match","Exact","97 SCHLEY AVE, SAVANNAH, GA, 31419",647341341,"L"
319443,"97 SIERRA VISTA AVE","MOUNTAIN VIEW","CA",94043,37.4027922290001,-122.092647952,443,"97 SIERRA VISTA AVE, MOUNTAIN VIEW, CA, 94043","Match","Exact","97 SIERRA VISTA AVE, MOUNTAIN VIEW, CA, 94043",618163256,"R"
319444,"97 SOUTH ADAMS STREET","CARTHAGE","IL",62321,40.41242656,-91.1345397539999,444,"97 SOUTH ADAMS STREET, CARTHAGE, IL, 62321","Match","Exact","97 S ADAMS ST, CARTHAGE, IL, 62321",5329130,"R"
319445,"97 STONY CREEK COURT","DAVIS","WV",26260,NA,NA,445,"97 STONY CREEK COURT, DAVIS, WV, 26260","No_Match",NA,NA,NA,NA
319446,"97 SUNNYSIDE ST","MANCHESTER","NH",3103,42.9782448220001,-71.436116566,446,"97 SUNNYSIDE ST, MANCHESTER, NH, 3103","Match","Exact","97 SUNNYSIDE ST, MANCHESTER, NH, 03103",113552632,"R"
319447,"97 TAYLOR FARM ROAD","BOXBOROUGH","MA",1719,NA,NA,447,"97 TAYLOR FARM ROAD, BOXBOROUGH, MA, 1719","No_Match",NA,NA,NA,NA
319448,"97 TWIN OAKS DRIVE","KINGS PARK","NY",11754,40.894811911,-73.2532364639999,448,"97 TWIN OAKS DRIVE, KINGS PARK, NY, 11754","Match","Exact","97 TWIN OAKS DR, KINGS PARK, NY, 11754",113980081,"R"
319449,"97 VERNON STREET UNIT 5","OAKLAND","CA",94610,37.813801111,-122.258636364,449,"97 VERNON STREET UNIT 5, OAKLAND, CA, 94610","Match","Exact","97 VERNON ST, OAKLAND, CA, 94610",125000494,"L"
319450,"97 W 15TH STREET","BAYONNE","NJ",7002,40.6603804160001,-74.127580939,450,"97 W 15TH STREET, BAYONNE, NJ, 7002","Match","Exact","97 W 15TH ST, BAYONNE, NJ, 07002",59602370,"R"
319451,"97 W BOULDER","COLORADO SPRINGS","CO",80903,NA,NA,451,"97 W BOULDER, COLORADO SPRINGS, CO, 80903","Tie",NA,NA,NA,NA
319452,"97 W BRINTON ST","CICERO","IN",46034,40.123852566,-86.01515664,452,"97 W BRINTON ST, CICERO, IN, 46034","Match","Exact","97 W BRINTON ST, CICERO, IN, 46034",29326128,"L"
319453,"97 W MAIN ST UNIT 28","NIANTIC","CT",6357,NA,NA,453,"97 W MAIN ST UNIT 28, NIANTIC, CT, 6357","Tie",NA,NA,NA,NA
319454,"97 WACHUSETT STREET","SPRINGFIELD","MA",1118,42.0912280630001,-72.515347778,454,"97 WACHUSETT STREET, SPRINGFIELD, MA, 1118","Match","Exact","97 WACHUSETT ST, SPRINGFIELD, MA, 01118",4037527,"L"
319455,"97 WALNUT STREET","EAST PROVIDENCE","RI",2914,41.822007381,-71.377840726,455,"97 WALNUT STREET, EAST PROVIDENCE, RI, 2914","Match","Exact","97 WALNUT ST, E PROVIDENCE, RI, 02914",47468080,"R"
319456,"97 WASHINGTON STREET","DONIPHAN","MO",63935,36.6175536110001,-90.8260976889999,456,"97 WASHINGTON STREET, DONIPHAN, MO, 63935","Match","Non_Exact","97 WASHINGTON, DONIPHAN, MO, 63935",52426874,"L"
319457,"97 WEBSTER ST","WORCESTER","MA",1603,42.2408181700001,-71.832767932,457,"97 WEBSTER ST, WORCESTER, MA, 1603","Match","Exact","97 WEBSTER ST, WORCESTER, MA, 01603",40009528,"L"
319458,"97 WEST 48TH STREET 2ND FLOOR","BAYONNE","NJ",7002,40.683760034,-74.107801793,458,"97 WEST 48TH STREET 2ND FLOOR, BAYONNE, NJ, 7002","Match","Exact","97 W 48TH ST, BAYONNE, NJ, 07002",59603026,"R"
319459,"97 WEST WASHINGTON STREET","NEWNAN","GA",30263,33.376623136,-84.810529765,459,"97 WEST WASHINGTON STREET, NEWNAN, GA, 30263","Match","Exact","97 W WASHINGTON ST, NEWNAN, GA, 30263",9320129,"R"
319460,"97 WHITE BRIDGE RD APT C5","NASHVILLE","TN",37205,36.131908063,-86.8575931189999,460,"97 WHITE BRIDGE RD APT C5, NASHVILLE, TN, 37205","Match","Non_Exact","97 WHITE BRIDGE PIKE, NASHVILLE, TN, 37205",97229634,"L"
319461,"97 WILLIAMS AVE","EAST PROVIDENCE","RI",2914,41.82194802,-71.3696715849999,461,"97 WILLIAMS AVE, EAST PROVIDENCE, RI, 2914","Match","Exact","97 WILLIAMS AVE, E PROVIDENCE, RI, 02914",47474367,"R"
319462,"97 YORK DRIVE","PRINCETON","NJ",8540,40.3929833760001,-74.668953874,462,"97 YORK DRIVE, PRINCETON, NJ, 8540","Match","Exact","97 YORK DR, PRINCETON, NJ, 08540",59999438,"R"
319463,"97-07 109 STREET","SOUTH RICHMOND HILL","NY",11419,40.688960514,-73.835346858,463,"97-07 109 STREET, SOUTH RICHMOND HILL, NY, 11419","Match","Exact","97-7 109TH ST, SOUTH RICHMOND HILL, NY, 11419",59708112,"L"
319464,"97-12 63RD DRIVE 3A","REGO PARK","NY",11374,40.730528572,-73.860275083,464,"97-12 63RD DRIVE 3A, REGO PARK, NY, 11374","Match","Exact","97-12 63RD DR, REGO PARK, NY, 11374",59704999,"R"
319465,"97-12 63RD DRIVE APT 3A","REGO PARK","NY",11374,40.730528572,-73.860275083,465,"97-12 63RD DRIVE APT 3A, REGO PARK, NY, 11374","Match","Exact","97-12 63RD DR, REGO PARK, NY, 11374",59704999,"R"
319466,"97-30 80TH STREET","QUEENS","NY",11416,40.6817397560001,-73.8593341119999,466,"97-30 80TH STREET, QUEENS, NY, 11416","Match","Non_Exact","97 80TH ST, JAMAICA, NY, 11416",59707086,"R"
319467,"97-37 63RD ROAD APT 7A","REGO PARK","NY",11374,40.731252639,-73.860229644,467,"97-37 63RD ROAD APT 7A, REGO PARK, NY, 11374","Match","Exact","97-37 63RD RD, REGO PARK, NY, 11374",59704997,"L"
319468,"97-45 WOODHAVEN BLVD","OZONE PARK","NY",11416,40.6852075370001,-73.846362528,468,"97-45 WOODHAVEN BLVD, OZONE PARK, NY, 11416","Match","Exact","97-45 WOODHAVEN BLVD, OZONE PARK, NY, 11416",641460168,"R"
319469,"970 11TH AVE NW APT 112","ROCHESTER","MN",55901,44.0326597500001,-92.47907121,469,"970 11TH AVE NW APT 112, ROCHESTER, MN, 55901","Match","Exact","970 11TH AVE NW, ROCHESTER, MN, 55901",612121315,"R"
319470,"970 APPLEGROVE CIRCLE","CLARKSVILLE","TN",37040,36.5886184060001,-87.33616482,470,"970 APPLEGROVE CIRCLE, CLARKSVILLE, TN, 37040","Match","Exact","970 APPLEGROVE CIR, CLARKSVILLE, TN, 37040",633600796,"L"
319471,"970 ASHTON COVER TERRANCE","JACKSONVILLE","FL",32218,NA,NA,471,"970 ASHTON COVER TERRANCE, JACKSONVILLE, FL, 32218","No_Match",NA,NA,NA,NA
319472,"970 AVENUE M NE","WINTER HAVEN","FL",33881,28.0350590350001,-81.712782912,472,"970 AVENUE M NE, WINTER HAVEN, FL, 33881","Match","Exact","970 AVE M NE, WINTER HAVEN, FL, 33881",104828305,"R"
319473,"970 BELMONT AVE 1D","BROOKLYN","NY",11208,40.673976055,-73.8726830529999,473,"970 BELMONT AVE 1D, BROOKLYN, NY, 11208","Match","Exact","970 BELMONT AVE, BROOKLYN, NY, 11208",59095244,"R"
319474,"970 BOLGER COURT","FENTON","MO",63026,38.5407103900001,-90.4596607079999,474,"970 BOLGER COURT, FENTON, MO, 63026","Match","Exact","970 BOLGER CT, FENTON, MO, 63026",100129352,"L"
319475,"970 BURROW CEMETERY RD","ARLINGTON","TN",38002,35.3388473750001,-89.629798756,475,"970 BURROW CEMETERY RD, ARLINGTON, TN, 38002","Match","Exact","970 BURROW CEMETERY RD, ARLINGTON, TN, 38002",608439502,"L"
319476,"970 CHIVENCESTER CT","SUWANEE","GA",30024,34.0801264340001,-84.107773181,476,"970 CHIVENCESTER CT, SUWANEE, GA, 30024","Match","Exact","970 CHIVENCESTER CT, SUWANEE, GA, 30024",625649204,"L"
319477,"970 COUNTY ROAD 753","JONESBORO","AR",72405,35.9279114240001,-90.6744621299999,477,"970 COUNTY ROAD 753, JONESBORO, AR, 72405","Match","Exact","970 CO RD 753, JONESBORO, AR, 72405",644524631,"R"
319478,"970 COUNTY ROAD H","EAGLE RIVER","WI",54521,NA,NA,478,"970 COUNTY ROAD H, EAGLE RIVER, WI, 54521","No_Match",NA,NA,NA,NA
319479,"970 CRUSHED APPLE DR","MARTINSBURG","WV",25403,39.502463134,-77.990093299,479,"970 CRUSHED APPLE DR, MARTINSBURG, WV, 25403","Match","Exact","970 CRUSHED APPLE DR, MARTINSBURG, WV, 25403",618018583,"R"
319480,"970 E HENNEPIN AVE","MINNEAPOLI","MN",55414,44.991486562,-93.239037824,480,"970 E HENNEPIN AVE, MINNEAPOLI, MN, 55414","Match","Non_Exact","970 E HENNEPIN AVE, MINNEAPOLIS, MN, 55414",43636744,"R"
319481,"970 E HENNEPIN AVE","MINNEAPOLIS","MN",55403,44.975923605,-93.2776640769999,481,"970 E HENNEPIN AVE, MINNEAPOLIS, MN, 55403","Match","Exact","970 HENNEPIN AVE, MINNEAPOLIS, MN, 55403",640439658,"R"
319482,"970 E HENNEPIN AVE","MINNEAPOLIS","MN",55414,44.991486562,-93.239037824,482,"970 E HENNEPIN AVE, MINNEAPOLIS, MN, 55414","Match","Exact","970 E HENNEPIN AVE, MINNEAPOLIS, MN, 55414",43636744,"R"
319483,"970 EAST 55TH STREET","BROOKLYN","NY",11234,40.633894481,-73.923639136,483,"970 EAST 55TH STREET, BROOKLYN, NY, 11234","Match","Exact","970 E 55TH ST, BROOKLYN, NY, 11234",59086062,"R"
319484,"970 EAST 95TH STREET","BROOKLYN","NY",11236,40.6462118040001,-73.9063960509999,484,"970 EAST 95TH STREET, BROOKLYN, NY, 11236","Match","Exact","970 E 95TH ST, BROOKLYN, NY, 11236",59086313,"R"
319485,"970 EVERGREEN ROAD","WINNSBORO","SC",29180,34.2793296030001,-81.174856833,485,"970 EVERGREEN ROAD, WINNSBORO, SC, 29180","Match","Exact","970 EVERGREEN RD, WINNSBORO, SC, 29180",40618364,"L"
319486,"970 GARCIA AVE","PITTSBURG","CA",94565,38.0112008950001,-121.878397906,486,"970 GARCIA AVE, PITTSBURG, CA, 94565","Match","Exact","970 GARCIA AVE, PITTSBURG, CA, 94565",192061441,"L"
319487,"970 GATOR COURT","FRUITA","CO",81521,39.145870691,-108.686311442,487,"970 GATOR COURT, FRUITA, CO, 81521","Match","Exact","970 GATOR CT, FRUITA, CO, 81521",648967283,"L"
319488,"970 GRAND OAKS DRIVE","HOWELL","MI",48843,42.588405386,-83.885473948,488,"970 GRAND OAKS DRIVE, HOWELL, MI, 48843","Match","Exact","970 GRAND OAKS DR, HOWELL, MI, 48843",23542581,"L"
319489,"970 HACKBERRY STREET","LULING","TX",78648,NA,NA,489,"970 HACKBERRY STREET, LULING, TX, 78648","No_Match",NA,NA,NA,NA
319490,"970 JOE WALKER ROAD","SUNBURY","OH",43074,40.2313904160001,-82.855534405,490,"970 JOE WALKER ROAD, SUNBURY, OH, 43074","Match","Exact","970 JOE WALKER RD, SUNBURY, OH, 43074",24601894,"L"
319491,"970 KENT AVENUE  UNIT 407","BROOKLYN","NY",11205,40.691432229,-73.9587609449999,491,"970 KENT AVENUE  UNIT 407, BROOKLYN, NY, 11205","Match","Exact","970 KENT AVE, BROOKLYN, NY, 11205",59077924,"R"
319492,"970 MACEDONIA ROAD","BLANCHESTER","OH",45107,39.3356361530001,-83.8803710989999,492,"970 MACEDONIA ROAD, BLANCHESTER, OH, 45107","Match","Exact","970 MACEDONIA RD, BLANCHESTER, OH, 45107",639996219,"L"
319493,"970 MERIDIAN AVE UNIT 37","SAN JOSE","CA",95126,37.3086461240001,-121.913617605,493,"970 MERIDIAN AVE UNIT 37, SAN JOSE, CA, 95126","Match","Exact","970 MERIDIAN AVE, SAN JOSE, CA, 95126",123004642,"L"
319494,"970 MIDWAY ST","LEWISBURG","TN",37091,35.438077283,-86.802249137,494,"970 MIDWAY ST, LEWISBURG, TN, 37091","Match","Exact","970 MIDWAY ST, LEWISBURG, TN, 37091",58977921,"R"
319495,"970 NEW BOSTON ROAD","NORWICH","VT",5055,43.7728374880001,-72.301786802,495,"970 NEW BOSTON ROAD, NORWICH, VT, 5055","Match","Exact","970 NEW BOSTON RD, NORWICH, VT, 05055",139255658,"R"
319496,"970 NW CONNELL AVE","HILLSBORO","OR",97124,45.5315691540001,-122.993298282,496,"970 NW CONNELL AVE, HILLSBORO, OR, 97124","Match","Exact","970 NW CONNELL AVE, HILLSBORO, OR, 97124",649033449,"R"
319497,"970 PALM AVE UNIT 106","WEST HOLLYWOOD","CA",90069,34.0892175860001,-118.38286451,497,"970 PALM AVE UNIT 106, WEST HOLLYWOOD, CA, 90069","Match","Non_Exact","970 N PALM AVE, W HOLLYWOOD, CA, 90069",640424013,"R"
319498,"970 PEACHTREE INDUSTRIAL BOULEVARD","SUWANEE","GA",30024,NA,NA,498,"970 PEACHTREE INDUSTRIAL BOULEVARD, SUWANEE, GA, 30024","No_Match",NA,NA,NA,NA
319499,"970 PHILLIPS ROAD","MILTON","PA",17847,41.0490806940001,-76.7608049689999,499,"970 PHILLIPS ROAD, MILTON, PA, 17847","Match","Exact","970 PHILLIPS RD, MILTON, PA, 17847",647369559,"L"
319500,"970 PRIESTER LANE","HUDSON","WI",54016,45.001739001,-92.7180607939999,500,"970 PRIESTER LANE, HUDSON, WI, 54016","Match","Exact","970 PRIESTER LN, HUDSON, WI, 54016",110904714,"L"
