"ID","Address","City","State","Zip","lat","long","id","input_address","match_indicator","match_type","matched_address","tiger_line_id","tiger_side"
145501,"2663 HEATH AVENUE","BRONX","NY",10463,40.870333337,-73.905990297,1,"2663 HEATH AVENUE, BRONX, NY, 10463","Match","Exact","2663 HEATH AVE, BRONX, NY, 10463",80298546,"L"
145502,"2663 MYSTERE COURT","LAS VEGAS","NV",89117,36.140993483,-115.269319952,2,"2663 MYSTERE COURT, LAS VEGAS, NV, 89117","Match","Exact","2663 MYSTERE CT, LAS VEGAS, NV, 89117",641477122,"R"
145503,"2663 SIERRA WAY","LAVERNE","CA",91750,34.094001287,-117.761170332,3,"2663 SIERRA WAY, LAVERNE, CA, 91750","Match","Non_Exact","2663 SIERRA WAY, LA VERNE, CA, 91750",142790029,"L"
145504,"2663 SOUTH NELSON COURT","LAKEWOOD","CO",80227,39.668181996,-105.116959168,4,"2663 SOUTH NELSON COURT, LAKEWOOD, CO, 80227","Match","Exact","2663 S NELSON CT, LAKEWOOD, CO, 80227",177733652,"R"
145505,"26630 WELD COUNTY ROAD 42","KERSEY","CO",80644,NA,NA,5,"26630 WELD COUNTY ROAD 42, KERSEY, CO, 80644","No_Match",NA,NA,NA,NA
145506,"26631 E ARBOR DRIVE","AURORA","CO",80016,39.604109371,-104.674004446,6,"26631 E ARBOR DRIVE, AURORA, CO, 80016","Match","Exact","26631 E ARBOR DR, AURORA, CO, 80016",617955486,"L"
145507,"26631 REAUME ST","WOODHAVEN","MI",48183,42.1143078760001,-83.239000435,7,"26631 REAUME ST, WOODHAVEN, MI, 48183","Match","Exact","26631 REAUME ST, WOODHAVEN, MI, 48183",95697342,"L"
145508,"26635 N 75TH DRIVE","PEORIA","AZ",85383,33.725984173,-112.221345856,8,"26635 N 75TH DRIVE, PEORIA, AZ, 85383","Match","Exact","26635 N 75TH DR, PEORIA, AZ, 85383",619136664,"R"
145509,"26638 DURANGO CANYON LANE","KATY","TX",77494,29.725625268,-95.827984724,9,"26638 DURANGO CANYON LANE, KATY, TX, 77494","Match","Exact","26638 DURANGO CANYON LN, KATY, TX, 77494",635038478,"R"
145510,"26639 FIELDER BROOK LANE","KATY","TX",77494,29.7248233330001,-95.8282001329999,10,"26639 FIELDER BROOK LANE, KATY, TX, 77494","Match","Exact","26639 FIELDER BROOK LN, KATY, TX, 77494",641051897,"L"
145511,"2664 BERRYESSA ROAD","SAN JOSE","CA",95132,37.389529902,-121.856525512,11,"2664 BERRYESSA ROAD, SAN JOSE, CA, 95132","Match","Exact","2664 BERRYESSA RD, SAN JOSE, CA, 95132",122964111,"R"
145512,"2664 GREENFIELD AVE","LOS ANGELES","CA",90064,34.034222786,-118.428611799,12,"2664 GREENFIELD AVE, LOS ANGELES, CA, 90064","Match","Exact","2664 GREENFIELD AVE, LOS ANGELES, CA, 90064",141570003,"L"
145513,"2664 KINGSBURY AVE","RICHLAND HILLS","TX",76118,32.7981209930001,-97.233734086,13,"2664 KINGSBURY AVE, RICHLAND HILLS, TX, 76118","Match","Exact","2664 KINGSBURY AVE, RICHLAND HILLS, TX, 76118",101864296,"R"
145514,"2664 MUSKEG COURT","ATLANTA","GA",30331,33.6813204600001,-84.6175992349999,14,"2664 MUSKEG COURT, ATLANTA, GA, 30331","Match","Non_Exact","2664 MUSKEG CT SW, ATLANTA, GA, 30331",642059029,"R"
145515,"2664 RESTON COURT NW","KENESSAW","GA",30144,34.035581069,-84.6293624199999,15,"2664 RESTON COURT NW, KENESSAW, GA, 30144","Match","Non_Exact","2664 RESTON CT NW, KENNESAW, GA, 30144",17241577,"L"
145516,"2664 S HIGHLAND","LAS VEGAS","NV",89109,36.141665829,-115.170185955,16,"2664 S HIGHLAND, LAS VEGAS, NV, 89109","Match","Non_Exact","2664 S HIGHLAND DR, LAS VEGAS, NV, 89109",201869744,"L"
145517,"2664 THOMASVILLE RD","BAINBRIDGE","GA",39819,NA,NA,17,"2664 THOMASVILLE RD, BAINBRIDGE, GA, 39819","No_Match",NA,NA,NA,NA
145518,"2664 TIMBER DRIVE SUITE 307","GARNER","NC",27529,35.7158660740001,-78.639736962,18,"2664 TIMBER DRIVE SUITE 307, GARNER, NC, 27529","Match","Exact","2664 TIMBER DR, GARNER, NC, 27529",639844827,"R"
145519,"2664 TIMBER DRIVE SUITE 340","GARNER","NC",27529,35.7158660740001,-78.639736962,19,"2664 TIMBER DRIVE SUITE 340, GARNER, NC, 27529","Match","Exact","2664 TIMBER DR, GARNER, NC, 27529",639844827,"R"
145520,"2664 TIMBERGLEN DRIVE WEST","WEXFORD","PA",15090,NA,NA,20,"2664 TIMBERGLEN DRIVE WEST, WEXFORD, PA, 15090","Tie",NA,NA,NA,NA
145521,"2664 TOBACCO ROAD STE B","HEPHZIBAH","GA",30815,33.382408485,-82.093344454,21,"2664 TOBACCO ROAD STE B, HEPHZIBAH, GA, 30815","Match","Exact","2664 TOBACCO RD, HEPHZIBAH, GA, 30815",618422415,"L"
145522,"2664 VERA AVE  APT 1","CINCINNATI","OH",45237,39.1911322010001,-84.439357246,22,"2664 VERA AVE  APT 1, CINCINNATI, OH, 45237","Match","Exact","2664 VERA AVE, CINCINNATI, OH, 45237",103929294,"L"
145523,"2664 VERA AVE APT 1","CINCINNATI","OH",45237,39.1911322010001,-84.439357246,23,"2664 VERA AVE APT 1, CINCINNATI, OH, 45237","Match","Exact","2664 VERA AVE, CINCINNATI, OH, 45237",103929294,"L"
145524,"2664 W 5 MILE RD","SAULT STE MARIE","MI",49783,46.433611043,-84.4196741229999,24,"2664 W 5 MILE RD, SAULT STE MARIE, MI, 49783","Match","Non_Exact","2664 W 5 MILE RD, SAULT SAINTE MARIE, MI, 49783",130569608,"L"
145525,"2664 WESTMINISTER DRIVE","WINTERVILLE","NC",28590,35.537964973,-77.433029908,25,"2664 WESTMINISTER DRIVE, WINTERVILLE, NC, 28590","Match","Non_Exact","2664 WESTMINSTER DR, WINTERVILLE, NC, 28590",605073415,"R"
145526,"26640 MOWER FREEBORN RD","AUSTIN","MN",55912,43.742140765,-93.049316387,26,"26640 MOWER FREEBORN RD, AUSTIN, MN, 55912","Match","Exact","26640 MOWER FREEBORN RD, AUSTIN, MN, 55912",635567552,"R"
145527,"26640 NORTH 101ST LANE","PEORIA","AZ",85383,33.725161745,-112.279123764,27,"26640 NORTH 101ST LANE, PEORIA, AZ, 85383","Match","Exact","26640 N 101ST LN, PEORIA, AZ, 85383",648709258,"L"
145528,"26641 BELLFOUNTAIN ROAD","MONROE","OR",97456,44.361791952,-123.355753545,28,"26641 BELLFOUNTAIN ROAD, MONROE, OR, 97456","Match","Exact","26641 BELLFOUNTAIN RD, MONROE, OR, 97456",630824924,"R"
145529,"26641 E ARBOR DR","AURORA","CO",80016,39.6039842170001,-104.673811383,29,"26641 E ARBOR DR, AURORA, CO, 80016","Match","Exact","26641 E ARBOR DR, AURORA, CO, 80016",617955486,"L"
145530,"26642 EAST CARNEGIE PARK DRIVE","SOUTHFIELD","MI",48034,42.4869103930001,-83.3065907869999,30,"26642 EAST CARNEGIE PARK DRIVE, SOUTHFIELD, MI, 48034","Match","Non_Exact","26642 CARNEGIE PARK, SOUTHFIELD, MI, 48034",633685855,"R"
145531,"26644 KIRKWAY CIRCLE","WOODHAVEN","MI",48183,42.117362815,-83.2274760509999,31,"26644 KIRKWAY CIRCLE, WOODHAVEN, MI, 48183","Match","Exact","26644 KIRKWAY CIR, WOODHAVEN, MI, 48183",645800111,"R"
145532,"26647 N 11TH AVE","CANTON","IL",61520,40.5775213110001,-90.018842247,32,"26647 N 11TH AVE, CANTON, IL, 61520","Match","Exact","26647 N 11TH AVE, CANTON, IL, 61520",15554844,"R"
145533,"2665 ACACIA AVENUE","SUTTER","CA",95982,NA,NA,33,"2665 ACACIA AVENUE, SUTTER, CA, 95982","No_Match",NA,NA,NA,NA
145534,"2665 BETHLEHEM RD","PARIS","KY",40361,38.105459614,-84.3401402109999,34,"2665 BETHLEHEM RD, PARIS, KY, 40361","Match","Exact","2665 BETHLEHEM RD, PARIS, KY, 40361",31880192,"R"
145535,"2665 BILL MACK BLVD","CONWAY","SC",29526,33.869401016,-79.039478881,35,"2665 BILL MACK BLVD, CONWAY, SC, 29526","Match","Exact","2665 BILL MACK BLVD, CONWAY, SC, 29526",631013802,"L"
145536,"2665 CROSSWYND TERRACE","CUMMING","GA",30040,34.2463122730001,-84.1458861469999,36,"2665 CROSSWYND TERRACE, CUMMING, GA, 30040","Match","Exact","2665 CROSSWYND TER, CUMMING, GA, 30040",70199005,"L"
145537,"2665 DRYDEN AVENUE","GILROY","CA",95020,37.0392776250001,-121.533128523,37,"2665 DRYDEN AVENUE, GILROY, CA, 95020","Match","Exact","2665 DRYDEN AVE, GILROY, CA, 95020",618184060,"L"
145538,"2665 EAST GREENBROOK DRIVE","EAGLE","ID",83616,43.712136049,-116.320420888,38,"2665 EAST GREENBROOK DRIVE, EAGLE, ID, 83616","Match","Exact","2665 E GREENBROOK DR, EAGLE, ID, 83616",117895177,"R"
145539,"2665 ERMINIA RD","RENO","NV",89523,39.506969617,-119.951430052,39,"2665 ERMINIA RD, RENO, NV, 89523","Match","Exact","2665 ERMINIA RD, RENO, NV, 89523",107066614,"L"
145540,"2665 FOREST TRAIL DR","GRAND PRAIRIE","TX",75052,32.6812720080001,-97.048097351,40,"2665 FOREST TRAIL DR, GRAND PRAIRIE, TX, 75052","Match","Exact","2665 FOREST TRAIL DR, GRAND PRAIRIE, TX, 75052",101930835,"R"
145541,"2665 GLENDRIVE PL","MARYLAND HEIGHTS","MO",63043,38.7311819440001,-90.448851696,41,"2665 GLENDRIVE PL, MARYLAND HEIGHTS, MO, 63043","Match","Exact","2665 GLENDRIVE PL, MARYLAND HEIGHTS, MO, 63043",100114961,"L"
145542,"2665 HARTLEY STREET","VIRGINIA BEACH","VA",23456,36.744069208,-76.039462627,42,"2665 HARTLEY STREET, VIRGINIA BEACH, VA, 23456","Match","Exact","2665 HARTLEY ST, VA BCH, VA, 23456",122290714,"L"
145543,"2665 HONOLULU AVENUE APT 8","MONTROSE","CA",91020,34.2099353990001,-118.237551148,43,"2665 HONOLULU AVENUE APT 8, MONTROSE, CA, 91020","Match","Exact","2665 HONOLULU AVE, MONTROSE, CA, 91020",141590046,"R"
145544,"2665 HYDRAULIC ROAD","CHARLOTTESVILLE","VA",22901,38.0698188110001,-78.4986005549999,44,"2665 HYDRAULIC ROAD, CHARLOTTESVILLE, VA, 22901","Match","Exact","2665 HYDRAULIC RD, CHARLOTTESVILLE, VA, 22901",83401963,"L"
145545,"2665 MEGAN WAY","NEENAH","WI",54956,44.181962723,-88.534045185,45,"2665 MEGAN WAY, NEENAH, WI, 54956","Match","Exact","2665 MEGAN WAY, NEENAH, WI, 54956",74526174,"L"
145546,"2665 NEW ORLEANS ST","NEW ORLEANS","LA",70119,29.984756062,-90.066353915,46,"2665 NEW ORLEANS ST, NEW ORLEANS, LA, 70119","Match","Exact","2665 NEW ORLEANS ST, NEW ORLEANS, LA, 70119",191709222,"R"
145547,"2665 NEW RALEIGH ROAD","MEMPHIS","TN",38128,35.197585496,-89.951763751,47,"2665 NEW RALEIGH ROAD, MEMPHIS, TN, 38128","Match","Exact","2665 NEW RALEIGH RD, MEMPHIS, TN, 38128",636695625,"L"
145548,"2665 OLD RAILROAD ROAD","PAINT LICK","KY",40461,NA,NA,48,"2665 OLD RAILROAD ROAD, PAINT LICK, KY, 40461","No_Match",NA,NA,NA,NA
145549,"2665 OSWIN DRIVE","COLUMBUS","OH",43219,40.0284342080001,-82.905663159,49,"2665 OSWIN DRIVE, COLUMBUS, OH, 43219","Match","Exact","2665 OSWIN DR, COLUMBUS, OH, 43219",641102206,"R"
145550,"2665 PROSPERITY AVENUE NUMBER 211","FAIRFAX","VA",22031,38.8808242900001,-77.23027839,50,"2665 PROSPERITY AVENUE NUMBER 211, FAIRFAX, VA, 22031","Match","Exact","2665 PROSPERITY AVE, FAIRFAX, VA, 22031",650121224,"L"
145551,"2665 S BAYSHORE DR STE 220","MIAMI","FL",33133,25.729943861,-80.236255893,51,"2665 S BAYSHORE DR STE 220, MIAMI, FL, 33133","Match","Non_Exact","2665 S BAYSHORE DR, MIAMI, FL, 33133",116283421,"R"
145552,"2665 S BAYSHORE DR STE 810B","COCONUT GROVE","FL",33133,25.729943861,-80.236255893,52,"2665 S BAYSHORE DR STE 810B, COCONUT GROVE, FL, 33133","Match","Non_Exact","2665 S BAYSHORE DR, COCONUT GROVE, FL, 33133",116283421,"R"
145553,"2665 SOUTH BAYSHORE DRIVE SUITE 703","MIAMI","FL",33133,25.730102566,-80.236130111,53,"2665 SOUTH BAYSHORE DRIVE SUITE 703, MIAMI, FL, 33133","Match","Exact","2665 S BAYSHORE DR, MIAMI, FL, 33133",116283421,"R"
145554,"2665 SOUTH LEJEUNE ROAD SUITE 304","CORAL","FL",33134,25.7470987130001,-80.262610867,54,"2665 SOUTH LEJEUNE ROAD SUITE 304, CORAL, FL, 33134","Match","Non_Exact","2665 S LE JEUNE RD, CORAL GABLES, FL, 33134",116012971,"L"
145555,"2665 STEEPLECHASE LANE","DIAMOND BAR","CA",91765,33.9732225280001,-117.835030281,55,"2665 STEEPLECHASE LANE, DIAMOND BAR, CA, 91765","Match","Exact","2665 STEEPLECHASE LN, DIAMOND BAR, CA, 91765",141736490,"R"
145556,"2665 SW 107TH AVENUE","PORTLAND","OR",97225,45.5002742230001,-122.78696469,56,"2665 SW 107TH AVENUE, PORTLAND, OR, 97225","Match","Exact","2665 SW 107TH AVE, PORTLAND, OR, 97225",158196210,"L"
145557,"2665 SW 119 COURT","MAMI","FL",33175,25.743644359,-80.388483994,57,"2665 SW 119 COURT, MAMI, FL, 33175","Match","Non_Exact","2665 SW 119TH CT, MIAMI, FL, 33175",116067664,"R"
145558,"2665 VILLA CREEK DR 202","DALLAS","TX",75234,32.9116426320001,-96.887559359,58,"2665 VILLA CREEK DR 202, DALLAS, TX, 75234","Match","Exact","2665 VILLA CREEK DR, DALLAS, TX, 75234",102890193,"L"
145559,"2665 VILLA CREEK DR STE A208","DALLAS","TX",75234,32.9116426320001,-96.887559359,59,"2665 VILLA CREEK DR STE A208, DALLAS, TX, 75234","Match","Exact","2665 VILLA CREEK DR, DALLAS, TX, 75234",102890193,"L"
145560,"2665 WEST ROAD","RIVERDALE","GA",30296,33.553047237,-84.476488705,60,"2665 WEST ROAD, RIVERDALE, GA, 30296","Match","Exact","2665 WEST RD, RIVERDALE, GA, 30296",17410474,"R"
145561,"2665 WIDDY BOSTICK RD","JAMESTOWN","NY",14701,NA,NA,61,"2665 WIDDY BOSTICK RD, JAMESTOWN, NY, 14701","No_Match",NA,NA,NA,NA
145562,"2665 WILLITS ROAD APT D- 216","PHILADELPHIA","PA",19114,40.066711895,-75.0272183609999,62,"2665 WILLITS ROAD APT D- 216, PHILADELPHIA, PA, 19114","Match","Exact","2665 WILLITS RD, PHILADELPHIA, PA, 19114",131432492,"L"
145563,"26651 COUNTY ROAD 13","DAPHNE","AL",36526,30.614366784,-87.8689497569999,63,"26651 COUNTY ROAD 13, DAPHNE, AL, 36526","Match","Exact","26651 CO RD 13, DAPHNE, AL, 36526",639737913,"L"
145564,"26654 BEECHER LANE","STEVENSON RANCH","CA",91381,34.3900450890001,-118.600870791,64,"26654 BEECHER LANE, STEVENSON RANCH, CA, 91381","Match","Exact","26654 BEECHER LN, STEVENSON RANCH, CA, 91381",142677889,"L"
145565,"26654 PURPLE MARTIN CT","CANYON CITY","CA",91351,34.4126300250001,-118.486715784,65,"26654 PURPLE MARTIN CT, CANYON CITY, CA, 91351","Match","Non_Exact","26654 PURPLE MARTIN CT, CANYON COUNTRY, CA, 91351",142821783,"L"
145566,"26657 OWL CREEK LANE","GILL","CO",80657,40.480984386,-104.552527152,66,"26657 OWL CREEK LANE, GILL, CO, 80657","Match","Non_Exact","26657 OWL CREEK LN, GILL, CO, 80624",642812630,"L"
145567,"2665B CENTENNIAL RD","HANOVER","PA",17331,39.816212862,-77.063673982,67,"2665B CENTENNIAL RD, HANOVER, PA, 17331","Match","Exact","2665 CENTENNIAL RD, HANOVER, PA, 17331",60865643,"L"
145568,"2666 BRIDGEVIEW RD","COLUMBUS","OH",43221,40.01731248,-83.0836680849999,68,"2666 BRIDGEVIEW RD, COLUMBUS, OH, 43221","Match","Exact","2666 BRIDGEVIEW RD, COLUMBUS, OH, 43221",218654190,"R"
145569,"2666 CLEVELAND AVENUE","STEUBENVILLE","OH",43952,40.375159587,-80.650366161,69,"2666 CLEVELAND AVENUE, STEUBENVILLE, OH, 43952","Match","Exact","2666 CLEVELAND AVE, STEUBENVILLE, OH, 43952",37800538,"L"
145570,"2666 DONNER WAY","SACRAMENTO","CA",95818,38.5481266250001,-121.478508554,70,"2666 DONNER WAY, SACRAMENTO, CA, 95818","Match","Exact","2666 DONNER WAY, SACRAMENTO, CA, 95818",133326087,"R"
145571,"2666 LAKE SHORE BLVD","JACKSONVILLE","FL",32210,30.271272927,-81.728772278,71,"2666 LAKE SHORE BLVD, JACKSONVILLE, FL, 32210","Match","Exact","2666 LAKE SHORE BLVD, JACKSONVILLE, FL, 32210",83911715,"R"
145572,"2666 SW 36 STREET","FORT LAUDERDALE","FL",33312,26.077144762,-80.180840925,72,"2666 SW 36 STREET, FORT LAUDERDALE, FL, 33312","Match","Exact","2666 SW 36TH ST, FORT LAUDERDALE, FL, 33312",114815014,"R"
145573,"2666 TALLEY AVE","BIRMINGHAM","AL",35211,33.426937991,-86.8681154769999,73,"2666 TALLEY AVE, BIRMINGHAM, AL, 35211","Match","Exact","2666 TALLEY AVE, BIRMINGHAM, AL, 35211",627517348,"L"
145574,"2666 TERRACE AVE","BATONROUGE","LA",70806,30.436785738,-91.1601895269999,74,"2666 TERRACE AVE, BATONROUGE, LA, 70806","Match","Non_Exact","2666 TERRACE AVE, BATON ROUGE, LA, 70806",635975304,"R"
145575,"2666 WEST STERNS RD","LAMBERTVILLE","MI",48144,41.74953177,-83.609811126,75,"2666 WEST STERNS RD, LAMBERTVILLE, MI, 48144","Match","Exact","2666 W STERNS RD, LAMBERTVILLE, MI, 48144",640415796,"L"
145576,"2666 WINDAGE DR SW","MARIETTA","GA",30008,33.8884511800001,-84.586938936,76,"2666 WINDAGE DR SW, MARIETTA, GA, 30008","Match","Exact","2666 WINDAGE DR SW, MARIETTA, GA, 30008",17216318,"R"
145577,"2666 WOOD SORRELL STREET","LAS VEGAS","NV",89135,36.1427113080001,-115.317008816,77,"2666 WOOD SORRELL STREET, LAS VEGAS, NV, 89135","Match","Non_Exact","2666 WOOD SORREL ST, LAS VEGAS, NV, 89135",201957729,"L"
145578,"2666","CRYSTAL LAKE","IL",60039,NA,NA,78,"2666, CRYSTAL LAKE, IL, 60039","No_Match",NA,NA,NA,NA
145579,"26665 EVELYN DRIVE","DENHAM SPRINGS","LA",70726,30.454594694,-90.855393153,79,"26665 EVELYN DRIVE, DENHAM SPRINGS, LA, 70726","Match","Exact","26665 EVELYN DR, DENHAM SPRINGS, LA, 70726",612923392,"R"
145580,"2667 240TH STREET","CHARLES CITY","IA",50616,43.0089493840001,-92.698207057,80,"2667 240TH STREET, CHARLES CITY, IA, 50616","Match","Exact","2667 240TH ST, CHARLES CITY, IA, 50616",7348124,"R"
145581,"2667 CLOVERMERE COURT","FLORISSANT","MO",63031,38.8179905010001,-90.360731243,81,"2667 CLOVERMERE COURT, FLORISSANT, MO, 63031","Match","Exact","2667 CLOVERMERE CT, FLORISSANT, MO, 63031",100115799,"R"
145582,"2667 DELK RD SE APT H","MARIETTA","GA",30067,33.9226747440001,-84.475442511,82,"2667 DELK RD SE APT H, MARIETTA, GA, 30067","Match","Exact","2667 DELK RD SE, MARIETTA, GA, 30067",17260968,"L"
145583,"2667 EDMONDSON AVENUE","BALTIMORE","MD",21223,39.294569654,-76.6609517959999,83,"2667 EDMONDSON AVENUE, BALTIMORE, MD, 21223","Match","Exact","2667 EDMONDSON AVE, BALTIMORE, MD, 21223",206414866,"L"
145584,"2667 EVERGREEN ROAD","ODENTON","MD",21113,39.037230778,-76.701610192,84,"2667 EVERGREEN ROAD, ODENTON, MD, 21113","Match","Exact","2667 EVERGREEN RD, ODENTON, MD, 21113",625228422,"L"
145585,"2667 HYLTON RD","SPRINGDALE","AR",72764,NA,NA,85,"2667 HYLTON RD, SPRINGDALE, AR, 72764","No_Match",NA,NA,NA,NA
145586,"2667 HYLTON ROAD","SPRINGDALE","AR",72764,NA,NA,86,"2667 HYLTON ROAD, SPRINGDALE, AR, 72764","No_Match",NA,NA,NA,NA
145587,"2667 NOTTINGHAM WAY","HAMILTON","NJ",8619,40.236135903,-74.689414288,87,"2667 NOTTINGHAM WAY, HAMILTON, NJ, 8619","Match","Exact","2667 NOTTINGHAM WAY, HAMILTON, NJ, 08619",60183998,"R"
145588,"2667 OLD SOBER","BENTONIA","MS",39040,NA,NA,88,"2667 OLD SOBER, BENTONIA, MS, 39040","No_Match",NA,NA,NA,NA
145589,"2667 SANDOVER RD","COLUMBUS","OH",43220,40.0510663530001,-83.090007607,89,"2667 SANDOVER RD, COLUMBUS, OH, 43220","Match","Exact","2667 SANDOVER RD, COLUMBUS, OH, 43220",135562278,"L"
145590,"2667 SUTTERVILLE RD","SACRAMENTO","CA",95820,38.540741876,-121.477810727,90,"2667 SUTTERVILLE RD, SACRAMENTO, CA, 95820","Match","Exact","2667 SUTTERVILLE RD, SACRAMENTO, CA, 95820",133326176,"L"
145591,"2667 TOM GEDDIE ROAD","EASTOVER","NC",28312,35.10463137,-78.797829695,91,"2667 TOM GEDDIE ROAD, EASTOVER, NC, 28312","Match","Exact","2667 TOM GEDDIE RD, EASTOVER, NC, 28312",614831709,"L"
145592,"2667 US HWY 421 N","CLINTON","NC",28328,35.0325399120001,-78.352012472,92,"2667 US HWY 421 N, CLINTON, NC, 28328","Match","Non_Exact","2667 US HWY 421, CLINTON, NC, 28328",14266956,"L"
145593,"2667 WAKEFIELD AVENUE","OAKLAND","CA",94606,37.7935780380001,-122.229127318,93,"2667 WAKEFIELD AVENUE, OAKLAND, CA, 94606","Match","Exact","2667 WAKEFIELD AVE, OAKLAND, CA, 94606",605993451,"L"
145594,"2667-2669 BAGLEY","DETROIT","MI",46216,NA,NA,94,"2667-2669 BAGLEY, DETROIT, MI, 46216","No_Match",NA,NA,NA,NA
145595,"26671 PASEO TECATE","SAN JUAN CAPISTRANO","CA",92675,33.515419853,-117.665116683,95,"26671 PASEO TECATE, SAN JUAN CAPISTRANO, CA, 92675","Match","Non_Exact","26671 PSO TECATE, SAN JUAN CAPISTRANO, CA, 92675",144072032,"L"
145596,"2668 BALL WAY","SACRAMENTO","CA",95821,38.626560398,-121.399481084,96,"2668 BALL WAY, SACRAMENTO, CA, 95821","Match","Exact","2668 BALL WAY, SACRAMENTO, CA, 95821",133403066,"R"
145597,"2668 BARRON RD","COLLEGE STATION","TX",77845,30.557317149,-96.290720838,97,"2668 BARRON RD, COLLEGE STATION, TX, 77845","Match","Exact","2668 BARRON RD, COLLEGE STATION, TX, 77845",632049552,"L"
145598,"2668 BELGRAVE AVENUE","HUNTINGTON PARK","CA",90255,33.987204096,-118.223486483,98,"2668 BELGRAVE AVENUE, HUNTINGTON PARK, CA, 90255","Match","Exact","2668 BELGRAVE AVE, HUNTINGTON PARK, CA, 90255",636337177,"R"
145599,"2668 CHAPEL DRIVE","PHILOMATH","OR",97370,NA,NA,99,"2668 CHAPEL DRIVE, PHILOMATH, OR, 97370","No_Match",NA,NA,NA,NA
145600,"2668 COUNTRY GOLF DRIVE","WELLINGTON","FL",33414,26.641798635,-80.289313115,100,"2668 COUNTRY GOLF DRIVE, WELLINGTON, FL, 33414","Match","Exact","2668 COUNTRY GOLF DR, WELLINGTON, FL, 33414",115486325,"L"
145601,"2668 DAHLIA COURT","GRAND JUNCTION","CO",81506,39.1021369150001,-108.559480395,101,"2668 DAHLIA COURT, GRAND JUNCTION, CO, 81506","Match","Exact","2668 DAHLIA CT, GRAND JCT, CO, 81506",122465020,"L"
145602,"2668 FIELDVIEW DRIVE","MACUNGIE","PA",18062,40.5327101450001,-75.562399888,102,"2668 FIELDVIEW DRIVE, MACUNGIE, PA, 18062","Match","Exact","2668 FIELDVIEW DR, MACUNGIE, PA, 18062",80794575,"L"
145603,"2668 LAPEER RD","AUBURN HILLS","MI",48326,42.6802244990001,-83.2481688999999,103,"2668 LAPEER RD, AUBURN HILLS, MI, 48326","Match","Exact","2668 LAPEER RD, AUBURN HILLS, MI, 48326",639062063,"R"
145604,"2668 MILL CREEK RD","TOMPKINSVILLE","KY",42167,NA,NA,104,"2668 MILL CREEK RD, TOMPKINSVILLE, KY, 42167","No_Match",NA,NA,NA,NA
145605,"2668 SOUTH 2000 EAST","SALT LAKE CITY","UT",84109,40.713605408,-111.83407988,105,"2668 SOUTH 2000 EAST, SALT LAKE CITY, UT, 84109","Match","Exact","2668 S 2000 E, SALT LAKE CITY, UT, 84109",176082252,"R"
145606,"2668 WENTWORTH ROAD","PHILADELPHIA","PA",19131,40.0002506340001,-75.2068717499999,106,"2668 WENTWORTH ROAD, PHILADELPHIA, PA, 19131","Match","Exact","2668 WENTWORTH RD, PHILADELPHIA, PA, 19131",131400656,"L"
145607,"2668 WEST CATALPA STREET","OLATHE","KS",66061,38.889501484,-94.8664947569999,107,"2668 WEST CATALPA STREET, OLATHE, KS, 66061","Match","Exact","2668 W CATALPA ST, OLATHE, KS, 66061",641692843,"R"
145608,"2668 WHISPERING TRL","LITTLE ELM","TX",75068,33.1750198120001,-96.891482345,108,"2668 WHISPERING TRL, LITTLE ELM, TX, 75068","Match","Exact","2668 WHISPERING TRL, LITTLE ELM, TX, 75068",619800594,"R"
145609,"2668 WYDOWN LANE","AURORA","IL",60502,41.8103895990001,-88.254327233,109,"2668 WYDOWN LANE, AURORA, IL, 60502","Match","Exact","2668 WYDOWN LN, AURORA, IL, 60502",112683104,"L"
145610,"2668 WYDOWN LN","AURORA","IL",60502,41.8103895990001,-88.254327233,110,"2668 WYDOWN LN, AURORA, IL, 60502","Match","Exact","2668 WYDOWN LN, AURORA, IL, 60502",112683104,"L"
145611,"26681 HIGHWAY 10","BUTLER","AL",36904,32.1310901000001,-88.061476865,111,"26681 HIGHWAY 10, BUTLER, AL, 36904","Match","Non_Exact","26681 STATE RTE 10, BUTLER, AL, 36904",105996,"R"
145612,"26685 HIGHWAY 10","BUTLER","AL",36904,32.1310499350001,-88.060768701,112,"26685 HIGHWAY 10, BUTLER, AL, 36904","Match","Non_Exact","26685 STATE RTE 10, BUTLER, AL, 36904",105996,"R"
145613,"26689 LOGANBERY DRIVE","RICHMOND HEIGHTS","OH",44143,41.582580496,-81.493231221,113,"26689 LOGANBERY DRIVE, RICHMOND HEIGHTS, OH, 44143","Match","Non_Exact","26689 LOGANBERRY DR, RICHMOND HEIGHTS, OH, 44143",61133376,"L"
145614,"2669 332ND AVE","WORTHINGTON","IA",52078,42.401297051,-91.1454358459999,114,"2669 332ND AVE, WORTHINGTON, IA, 52078","Match","Exact","2669 332ND AVE, WORTHINGTON, IA, 52078",16863176,"L"
145615,"2669 APPLEWOOD DR","ONTARIO","CA",91761,34.024375177,-117.57586605,115,"2669 APPLEWOOD DR, ONTARIO, CA, 91761","Match","Exact","2669 APPLEWOOD DR, ONTARIO, CA, 91761",144638036,"R"
145616,"2669 BABCOCK RD","MALVERN","AR",72104,34.40204436,-92.810478866,116,"2669 BABCOCK RD, MALVERN, AR, 72104","Match","Exact","2669 BABCOCK RD, MALVERN, AR, 72104",23905469,"R"
145617,"2669 BOX CANYON ROAD","PINOLE","CA",94564,37.987211143,-122.264955738,117,"2669 BOX CANYON ROAD, PINOLE, CA, 94564","Match","Exact","2669 BOX CANYON RD, PINOLE, CA, 94564",192090921,"L"
145618,"2669 DOUGLAS FIR","LODI","CA",95242,38.1344114390001,-121.309702937,118,"2669 DOUGLAS FIR, LODI, CA, 95242","Match","Non_Exact","2669 DOUGLAS FIR DR, LODI, CA, 95242",133876579,"L"
145619,"2669 GRASSMOOR LOOP","APOPKA","FL",32712,28.718949949,-81.5522508609999,119,"2669 GRASSMOOR LOOP, APOPKA, FL, 32712","Match","Exact","2669 GRASSMOOR LOOP, APOPKA, FL, 32712",634028760,"R"
145620,"2669 KIRBY RD 1202","ROBINSONVILLE","MS",38664,34.7959873200001,-90.272878094,120,"2669 KIRBY RD 1202, ROBINSONVILLE, MS, 38664","Match","Exact","2669 KIRBY RD, ROBINSONVILLE, MS, 38664",121822339,"L"
145621,"2669 LONGMEADOW DRIVE","TRENTON","MI",48183,42.1426005610001,-83.215952984,121,"2669 LONGMEADOW DRIVE, TRENTON, MI, 48183","Match","Exact","2669 LONGMEADOW DR, TRENTON, MI, 48183",95456975,"L"
145622,"2669 MARLEIGH FARM RD","KENNESAW","GA",30152,34.0189257580001,-84.6540389419999,122,"2669 MARLEIGH FARM RD, KENNESAW, GA, 30152","Match","Non_Exact","2669 MARLEIGH FARM RD NW, KENNESAW, GA, 30152",17223957,"R"
145623,"2669 MOZART AVE","SAN JOSE","CA",95122,37.3199230010001,-121.816759274,123,"2669 MOZART AVE, SAN JOSE, CA, 95122","Match","Exact","2669 MOZART AVE, SAN JOSE, CA, 95122",122915473,"R"
145624,"2669 N BOOTH STREET","MILWAUKEE","WI",53212,43.066889829,-87.904075956,124,"2669 N BOOTH STREET, MILWAUKEE, WI, 53212","Match","Exact","2669 N BOOTH ST, MILWAUKEE, WI, 53212",77743511,"L"
145625,"2669 S FAURE DR","MOBILE","AL",36605,30.6311057390001,-88.1102177289999,125,"2669 S FAURE DR, MOBILE, AL, 36605","Match","Non_Exact","2669 FAURE DR S, MOBILE, AL, 36605",61862337,"L"
145626,"2669 SOUTH HIGHLAND DRIVE APT H","SALT LAKE CITY","UT",84106,40.7140411140001,-111.855633225,126,"2669 SOUTH HIGHLAND DRIVE APT H, SALT LAKE CITY, UT, 84106","Match","Exact","2669 S HIGHLAND DR, SALT LAKE CITY, UT, 84106",176139579,"L"
145627,"26691","MILLSBORO","DE",19966,NA,NA,127,"26691, MILLSBORO, DE, 19966","No_Match",NA,NA,NA,NA
145628,"26696 112TH STREET NW","ZIMMERMAN","MN",55398,45.454805521,-93.552108945,128,"26696 112TH STREET NW, ZIMMERMAN, MN, 55398","Match","Non_Exact","26696 112TH ST, ZIMMERMAN, MN, 55398",232766282,"L"
145629,"26696 CHIPLAY AVENUE","HAYWARD","CA",94545,37.637348773,-122.095628954,129,"26696 CHIPLAY AVENUE, HAYWARD, CA, 94545","Match","Exact","26696 CHIPLAY AVE, HAYWARD, CA, 94545",125068880,"L"
145630,"26699 BASSWOOD DRIVE","PERRYSBURG","OH",43551,41.539547946,-83.594203033,130,"26699 BASSWOOD DRIVE, PERRYSBURG, OH, 43551","Match","Exact","26699 BASSWOOD DR, PERRYSBURG, OH, 43551",642660796,"L"
145631,"267 3RD STREET","JERSEY CITY","NJ",7302,40.7234064030001,-74.046298916,131,"267 3RD STREET, JERSEY CITY, NJ, 7302","Match","Exact","267 3RD ST, JERSEY CITY, NJ, 07302",59606131,"L"
145632,"267 ADAMS STREET","FAIRHAVEN","MA",2719,41.656365973,-70.908128135,132,"267 ADAMS STREET, FAIRHAVEN, MA, 2719","Match","Exact","267 ADAMS ST, FAIRHAVEN, MA, 02719",46755198,"L"
145633,"267 ALBERT ROAD","GRAHAM","TX",76450,33.140982046,-98.464839121,133,"267 ALBERT ROAD, GRAHAM, TX, 76450","Match","Exact","267 ALBERT RD, GRAHAM, TX, 76450",183313068,"R"
145634,"267 BARKLEY PLACE W","COLUMBUS","OH",43213,39.9696753970001,-82.8739235309999,134,"267 BARKLEY PLACE W, COLUMBUS, OH, 43213","Match","Exact","267 BARKLEY PL W, COLUMBUS, OH, 43213",135593018,"R"
145635,"267 BEACON STREET UNIT 2","BOSTON","MA",2116,42.3534740370001,-71.079734785,135,"267 BEACON STREET UNIT 2, BOSTON, MA, 2116","Match","Exact","267 BEACON ST, BOSTON, MA, 02116",85697620,"L"
145636,"267 BLUEJAY HOLLOW ROAD","MT VISION","NY",13810,42.6243989160001,-75.109691067,136,"267 BLUEJAY HOLLOW ROAD, MT VISION, NY, 13810","Match","Non_Exact","267 BLUE JAY HOLLOW RD, MOUNT VISION, NY, 13810",125909433,"L"
145637,"267 BURGUNDY LANE","NEWTOWN","PA",18940,40.2441726430001,-74.917670571,137,"267 BURGUNDY LANE, NEWTOWN, PA, 18940","Match","Exact","267 BURGUNDY LN, NEWTOWN, PA, 18940",134727226,"L"
145638,"267 CHAPEL STREET","NEW HAVEN","CT",6513,41.3036548520001,-72.9027962179999,138,"267 CHAPEL STREET, NEW HAVEN, CT, 6513","Match","Exact","267 CHAPEL ST, NEW HAVEN, CT, 06513",3703720,"R"
145639,"267 CLIFTON PLACE STE 5C","BROOKLYN","NY",11216,40.688978266,-73.952717558,139,"267 CLIFTON PLACE STE 5C, BROOKLYN, NY, 11216","Match","Exact","267 CLIFTON PL, BROOKLYN, NY, 11216",634254963,"L"
145640,"267 COBBLESTONE CT","SCHAUMBURG","IL",60173,42.03363116,-88.036407891,140,"267 COBBLESTONE CT, SCHAUMBURG, IL, 60173","Match","Exact","267 COBBLESTONE CT, SCHAUMBURG, IL, 60173",112386020,"R"
145641,"267 COOPER DR","KIRKWOOD","PA",17536,39.84843418,-76.042329114,141,"267 COOPER DR, KIRKWOOD, PA, 17536","Match","Exact","267 COOPER DR, KIRKWOOD, PA, 17536",179673878,"R"
145642,"267 COURTYARD LANE","FAYETTEVILLE","NC",28303,35.068207343,-78.946403925,142,"267 COURTYARD LANE, FAYETTEVILLE, NC, 28303","Match","Exact","267 COURTYARD LN, FAYETTEVILLE, NC, 28303",64250141,"L"
145643,"267 DAYTONA DRIVE","GOLETA","CA",93117,34.4281046840001,-119.888536098,143,"267 DAYTONA DRIVE, GOLETA, CA, 93117","Match","Exact","267 DAYTONA DR, GOLETA, CA, 93117",108600411,"R"
145644,"267 DOMANI DRIVE","HENDERSON","NV",89074,36.047064189,-115.117659176,144,"267 DOMANI DRIVE, HENDERSON, NV, 89074","Match","Exact","267 DOMANI DR, HENDERSON, NV, 89074",201910465,"L"
145645,"267 DRURY LANE","WHITE OAK","GA",31568,31.0475648520001,-81.720979358,145,"267 DRURY LANE, WHITE OAK, GA, 31568","Match","Exact","267 DRURY LN, WHITE OAK, GA, 31568",125694440,"L"
145646,"267 E 2ND S","REXBURG","ID",83440,43.821844195,-111.776001975,146,"267 E 2ND S, REXBURG, ID, 83440","Match","Exact","267 E 2ND S, REXBURG, ID, 83440",119091040,"L"
145647,"267 E GREENHAVEN ST","COVINA","CA",91722,34.1003563200001,-117.886720726,147,"267 E GREENHAVEN ST, COVINA, CA, 91722","Match","Exact","267 E GREENHAVEN ST, COVINA, CA, 91722",141710716,"L"
145648,"267 E LOUDON AVENUE","LEXINGTON","KY",40505,38.05386048,-84.477562743,148,"267 E LOUDON AVENUE, LEXINGTON, KY, 40505","Match","Exact","267 E LOUDON AVE, LEXINGTON, KY, 40505",31925772,"L"
145649,"267 EAST RIVERSEDGE DRIVE","EAGLE","ID",83616,43.6753406490001,-116.351367439,149,"267 EAST RIVERSEDGE DRIVE, EAGLE, ID, 83616","Match","Exact","267 E RIVERSEDGE DR, EAGLE, ID, 83616",617931362,"R"
145650,"267 ELEUTHERA DRIVE","LAKE ALFRED","FL",33850,28.1153844240001,-81.724565527,150,"267 ELEUTHERA DRIVE, LAKE ALFRED, FL, 33850","Match","Exact","267 ELEUTHERA DR, LAKE ALFRED, FL, 33850",650061024,"L"
145651,"267 ELIOT ST","CHESTNUT HILL","MA",2467,42.332142327,-71.151880596,151,"267 ELIOT ST, CHESTNUT HILL, MA, 2467","Match","Exact","267 ELIOT ST, CHESTNUT HILL, MA, 02467",87244569,"R"
145652,"267 ELIOT STREET","CHESTNUT HILL","MA",2467,42.332142327,-71.151880596,152,"267 ELIOT STREET, CHESTNUT HILL, MA, 2467","Match","Exact","267 ELIOT ST, CHESTNUT HILL, MA, 02467",87244569,"R"
145653,"267 FAYES FOREST RD","CLINTON","AR",72031,35.580439891,-92.433073378,153,"267 FAYES FOREST RD, CLINTON, AR, 72031","Match","Exact","267 FAYES FOREST RD, CLINTON, AR, 72031",644759634,"L"
145654,"267 GALLANT CHASE SE","MABLETON","GA",30126,33.7858364250001,-84.549925188,154,"267 GALLANT CHASE SE, MABLETON, GA, 30126","Match","Non_Exact","267 GALLANT CHASE, MABLETON, GA, 30126",618316313,"L"
145655,"267 GRANGE HALL ROAD","MILLERSBURG","PA",17061,40.560284731,-76.902850668,155,"267 GRANGE HALL ROAD, MILLERSBURG, PA, 17061","Match","Exact","267 GRANGE HALL RD, MILLERSBURG, PA, 17061",70840442,"L"
145656,"267 HUNTINGTON AVE","VENTURA","CA",93004,34.277884821,-119.190549716,156,"267 HUNTINGTON AVE, VENTURA, CA, 93004","Match","Exact","267 HUNTINGTON AVE, VENTURA, CA, 93004",109956551,"R"
145657,"267 HWY 395 SOUTH","COLVILLE","WA",99114,48.506708141,-117.901982741,157,"267 HWY 395 SOUTH, COLVILLE, WA, 99114","Match","Exact","267 HWY 395 S, COLVILLE, WA, 99114",629080110,"R"
145658,"267 JETER STREET","CLIFFWOOD","NJ",7721,40.4364447740001,-74.237082151,158,"267 JETER STREET, CLIFFWOOD, NJ, 7721","Match","Exact","267 JETER ST, CLIFFWOOD, NJ, 07721",90508013,"L"
145659,"267 JOSHUA LN","WYCKOFF","NJ",7481,41.0186289120001,-74.165956556,159,"267 JOSHUA LN, WYCKOFF, NJ, 7481","Match","Exact","267 JOSHUA LN, WYCKOFF, NJ, 07481",64412401,"L"
145660,"267 KEITH AVENUE","AKRON","OH",44313,41.1243331960001,-81.586256803,160,"267 KEITH AVENUE, AKRON, OH, 44313","Match","Exact","267 KEITH AVE, AKRON, OH, 44313",61337420,"R"
145661,"267 KENTLANDS BLVD STE 18406","GAITHERSBURG","MD",20878,39.1234424940001,-77.239228727,161,"267 KENTLANDS BLVD STE 18406, GAITHERSBURG, MD, 20878","Match","Exact","267 KENTLANDS BLVD, GAITHERSBURG, MD, 20878",62127036,"R"
145662,"267 KENTLANDS BLVD SUITE 5044","GAITHERSBURG","MD",20878,39.1234424940001,-77.239228727,162,"267 KENTLANDS BLVD SUITE 5044, GAITHERSBURG, MD, 20878","Match","Exact","267 KENTLANDS BLVD, GAITHERSBURG, MD, 20878",62127036,"R"
145663,"267 KENTLANDS BOULEVARD NUMBER 305","GAITHERSBURG","MD",20878,39.1234424940001,-77.239228727,163,"267 KENTLANDS BOULEVARD NUMBER 305, GAITHERSBURG, MD, 20878","Match","Exact","267 KENTLANDS BLVD, GAITHERSBURG, MD, 20878",62127036,"R"
145664,"267 LAKE STREET","ARLINGTON","MA",2474,42.402896292,-71.158590669,164,"267 LAKE STREET, ARLINGTON, MA, 2474","Match","Exact","267 LAKE ST, ARLINGTON, MA, 02474",86888483,"R"
145665,"267 LAWSON ST","HEMPSTEAD","NY",11550,40.6941623390001,-73.611098235,165,"267 LAWSON ST, HEMPSTEAD, NY, 11550","Match","Exact","267 LAWSON ST, HEMPSTEAD, NY, 11550",147629189,"L"
145666,"267 LITTLE RIVER 107","FOREMAN","AR",71836,NA,NA,166,"267 LITTLE RIVER 107, FOREMAN, AR, 71836","No_Match",NA,NA,NA,NA
145667,"267 MOODY STREET STE 205","WALTHAM","MA",2453,42.37164513,-71.236863725,167,"267 MOODY STREET STE 205, WALTHAM, MA, 2453","Match","Exact","267 MOODY ST, WALTHAM, MA, 02453",86861767,"R"
145668,"267 MOSSY WAY NW","KENNESAW","GA",30152,33.955722306,-84.689284371,168,"267 MOSSY WAY NW, KENNESAW, GA, 30152","Match","Exact","267 MOSSY WAY NW, KENNESAW, GA, 30152",17223932,"R"
145669,"267 MOUNT TABOR ROAD","GARDNERS","PA",17324,39.9918862280001,-77.253581496,169,"267 MOUNT TABOR ROAD, GARDNERS, PA, 17324","Match","Exact","267 MOUNT TABOR RD, GARDNERS, PA, 17324",60857681,"R"
145670,"267 MOUNT VERNON RIDGE RD","WAYNE","WV",25570,38.274733118,-82.45985784,170,"267 MOUNT VERNON RIDGE RD, WAYNE, WV, 25570","Match","Exact","267 MOUNT VERNON RIDGE RD, WAYNE, WV, 25570",57195581,"L"
145671,"267 MULBERRY LANE","LINDALE","GA",30147,34.0925760980001,-85.197207491,171,"267 MULBERRY LANE, LINDALE, GA, 30147","Match","Exact","267 MULBERRY LN, LINDALE, GA, 30147",625333254,"L"
145672,"267 NELLE AVE APT A","PANAMA CITY","FL",32404,30.151949852,-85.561811619,172,"267 NELLE AVE APT A, PANAMA CITY, FL, 32404","Match","Non_Exact","267 NELLE ST, PANAMA CITY, FL, 32404",625218352,"R"
145673,"267 OAKWOOD DRIVE","LANCASTER","TX",75146,32.58830863,-96.796000034,173,"267 OAKWOOD DRIVE, LANCASTER, TX, 75146","Match","Exact","267 OAKWOOD DR, LANCASTER, TX, 75146",102990515,"L"
145674,"267 OLD BARN LANE","BOYCE","VA",22620,NA,NA,174,"267 OLD BARN LANE, BOYCE, VA, 22620","No_Match",NA,NA,NA,NA
145675,"267 OXMOOR PL","BIRMINGHAM","AL",35211,33.4272116080001,-86.8542325719999,175,"267 OXMOOR PL, BIRMINGHAM, AL, 35211","Match","Exact","267 OXMOOR PL, BIRMINGHAM, AL, 35211",618695061,"L"
145676,"267 PALM AVE","ASHLAND","OR",97520,42.189610707,-122.697644715,176,"267 PALM AVE, ASHLAND, OR, 97520","Match","Exact","267 PALM AVE, ASHLAND, OR, 97520",627896464,"L"
145677,"267 PAYNE RIDGE RD","CHURCH HILL","TN",37642,36.5593156460001,-82.749748397,177,"267 PAYNE RIDGE RD, CHURCH HILL, TN, 37642","Match","Exact","267 PAYNE RIDGE RD, CHURCH HILL, TN, 37642",42409166,"L"
145678,"267 PEARL HARBOR ST","BRIDGEPORT","CT",6610,41.1998773500001,-73.161242277,178,"267 PEARL HARBOR ST, BRIDGEPORT, CT, 6610","Match","Exact","267 PEARL HARBOR ST, BRIDGEPORT, CT, 06610",3283680,"L"
145679,"267 PETERS ST SW UNIT 208","ATLANTA","GA",30313,33.7473032940001,-84.401875,179,"267 PETERS ST SW UNIT 208, ATLANTA, GA, 30313","Match","Exact","267 PETERS ST SW, ATLANTA, GA, 30313",642631508,"R"
145680,"267 REED AVE","OVIEDO","FL",32765,28.673563922,-81.190617886,180,"267 REED AVE, OVIEDO, FL, 32765","Match","Exact","267 REED AVE, OVIEDO, FL, 32765",93740906,"L"
145681,"267 ROBERTS STREET","POMONA","CA",91767,34.084188204,-117.747635461,181,"267 ROBERTS STREET, POMONA, CA, 91767","Match","Exact","267 ROBERTS ST, POMONA, CA, 91767",141733419,"L"
145682,"267 ROBINSON ROAD","MARS HILL","NC",28754,35.868549597,-82.434908702,182,"267 ROBINSON ROAD, MARS HILL, NC, 28754","Match","Exact","267 ROBINSON RD, MARS HILL, NC, 28754",40934702,"R"
145683,"267 S LIGHTNER ROAD","PORT CLINTON","OH",43452,41.51928178,-82.851750626,183,"267 S LIGHTNER ROAD, PORT CLINTON, OH, 43452","Match","Exact","267 S LIGHTNER RD, PORT CLINTON, OH, 43452",44063455,"L"
145684,"267 SECOND AVENUE","SALT LAKE CITY","UT",84103,40.7717092190001,-111.88150764,184,"267 SECOND AVENUE, SALT LAKE CITY, UT, 84103","Match","Exact","267 2ND AVE, SALT LAKE CITY, UT, 84103",176101648,"L"
145685,"267 SIERRA MORENA PMB 316","SAN JUAN","PR",926,NA,NA,185,"267 SIERRA MORENA PMB 316, SAN JUAN, PR, 926","No_Match",NA,NA,NA,NA
145686,"267 SINGLE PETAL ST","HENDERSON","NV",89074,36.0481855720001,-115.036244533,186,"267 SINGLE PETAL ST, HENDERSON, NV, 89074","Match","Exact","267 SINGLE PETAL ST, HENDERSON, NV, 89074",201953814,"R"
145687,"267 SOUTH MILL BRANCH","CLEARFIELD","KY",40313,38.1583874900001,-83.435755146,187,"267 SOUTH MILL BRANCH, CLEARFIELD, KY, 40313","Match","Non_Exact","267 S MILL BRANCH RD, CLEARFIELD, KY, 40313",39625269,"L"
145688,"267 SOUTH STREET","NEW PROVIDENCE","NJ",7974,40.697786815,-74.401674626,188,"267 SOUTH STREET, NEW PROVIDENCE, NJ, 7974","Match","Exact","267 SOUTH ST, NEW PROVIDENCE, NJ, 07974",60564375,"R"
145689,"267 STATE HIGHWAY 37C","MASSENA","NY",13662,NA,NA,189,"267 STATE HIGHWAY 37C, MASSENA, NY, 13662","No_Match",NA,NA,NA,NA
145690,"267 STATE ROUTE 711","JONES MILLS","PA",15646,40.086207309,-79.34986606,190,"267 STATE ROUTE 711, JONES MILLS, PA, 15646","Match","Exact","267 STATE RTE 711, JONES MILLS, PA, 15646",638159828,"L"
145691,"267 SUNSET DR","STANARDSVILLE","VA",22973,38.2801853560001,-78.4377940859999,191,"267 SUNSET DR, STANARDSVILLE, VA, 22973","Match","Exact","267 SUNSET DR, STANARDSVILLE, VA, 22973",29865130,"R"
145692,"267 TIMBER DRIVE 1646","GARNER","NC",27529,35.6862574190001,-78.607350143,192,"267 TIMBER DRIVE 1646, GARNER, NC, 27529","Match","Exact","267 TIMBER DR, GARNER, NC, 27529",72650146,"R"
145693,"267 W GARWOOD DR","TALLMADGE","OH",44278,41.1109217050001,-81.450617202,193,"267 W GARWOOD DR, TALLMADGE, OH, 44278","Match","Exact","267 W GARWOOD DR, TALLMADGE, OH, 44278",61376742,"R"
145694,"267 W VINELAND RD","AUGUSTA","GA",30904,33.4950155660001,-82.016332711,194,"267 W VINELAND RD, AUGUSTA, GA, 30904","Match","Exact","267 W VINELAND RD, AUGUSTA, GA, 30904",55649284,"R"
145695,"267 WASSERMAN RD","HAMILTON","OH",45013,39.3982713870001,-84.608781349,195,"267 WASSERMAN RD, HAMILTON, OH, 45013","Match","Exact","267 WASSERMAN RD, HAMILTON, OH, 45013",649560000,"L"
145696,"267 WEST 152ND STREET","NEW YORK","NY",10039,40.827085551,-73.938291517,196,"267 WEST 152ND STREET, NEW YORK, NY, 10039","Match","Exact","267 W 152ND ST, NEW YORK, NY, 10039",59656262,"R"
145697,"267 WINSTEAD ROAD","WEST UNION","SC",29691,34.7862999990001,-83.031627143,197,"267 WINSTEAD ROAD, WEST UNION, SC, 29691","Match","Non_Exact","267 WINSTEAD RD, WEST UNION, SC, 29696",25651650,"R"
145698,"267-20 83 AVENUE","FLORAL PARK","NY",11004,40.7405657190001,-73.7023495729999,198,"267-20 83 AVENUE, FLORAL PARK, NY, 11004","Match","Exact","267-20 83RD AVE, FLORAL PARK, NY, 11004",59724942,"R"
145699,"267","EVENING SHADE","AR",72532,NA,NA,199,"267, EVENING SHADE, AR, 72532","No_Match",NA,NA,NA,NA
145700,"267","GOLD BEACH","OR",97444,NA,NA,200,"267, GOLD BEACH, OR, 97444","No_Match",NA,NA,NA,NA
145701,"2670 36TH STREET","SAN FRANCISCO","CA",94112,NA,NA,201,"2670 36TH STREET, SAN FRANCISCO, CA, 94112","No_Match",NA,NA,NA,NA
145702,"2670 AIRPORT PULLING ROAD SOUTH","NAPLES","FL",34112,26.132107515,-81.7664736359999,202,"2670 AIRPORT PULLING ROAD SOUTH, NAPLES, FL, 34112","Match","Exact","2670 AIRPORT PULLING RD S, NAPLES, FL, 34112",115162050,"R"
145703,"2670 BURR CT","RENO","NV",89509,39.4853279220001,-119.831724928,203,"2670 BURR CT, RENO, NV, 89509","Match","Exact","2670 BURR CT, RENO, NV, 89509",107045616,"L"
145704,"2670 CARNEGIE ROAD","YORK","PA",17402,39.97053192,-76.673161807,204,"2670 CARNEGIE ROAD, YORK, PA, 17402","Match","Exact","2670 CARNEGIE RD, YORK, PA, 17402",88733417,"R"
145705,"2670 CHAPEL DR","PHILOMATH","OR",97370,NA,NA,205,"2670 CHAPEL DR, PHILOMATH, OR, 97370","No_Match",NA,NA,NA,NA
145706,"2670 CRAIN HWY SUITE 206","WALDORF","MD",20601,38.6369764890001,-76.899677163,206,"2670 CRAIN HWY SUITE 206, WALDORF, MD, 20601","Match","Exact","2670 CRAIN HWY, WALDORF, MD, 20601",25406769,"R"
145707,"2670 DAL DR","NORTON","OH",44203,41.0616944870001,-81.6859689519999,207,"2670 DAL DR, NORTON, OH, 44203","Match","Exact","2670 DAL DR, NORTON, OH, 44203",61374354,"L"
145708,"2670 DAVIDSON DR","LITHONIA","GA",30058,33.7065187740001,-84.111989921,208,"2670 DAVIDSON DR, LITHONIA, GA, 30058","Match","Exact","2670 DAVIDSON DR, LITHONIA, GA, 30058",23386899,"L"
145709,"2670 DORSET MEADOWS DR","POWHATAN","VA",23139,37.5009395860001,-77.824876079,209,"2670 DORSET MEADOWS DR, POWHATAN, VA, 23139","Match","Exact","2670 DORSET MEADOWS DR, POWHATAN, VA, 23139",624312839,"R"
145710,"2670 DRY POCKET RD  APT 528","GREER","SC",29650,34.8623308430001,-82.2551223679999,210,"2670 DRY POCKET RD  APT 528, GREER, SC, 29650","Match","Exact","2670 DRY POCKET RD, GREER, SC, 29650",38327832,"R"
145711,"2670 DURHAM CHAPEL HILL BLVD","DURHAM","NC",27707,35.974118779,-78.93083122,211,"2670 DURHAM CHAPEL HILL BLVD, DURHAM, NC, 27707","Match","Non_Exact","2670 DURHAM-CHAPEL HILL BLVD, DURHAM, NC, 27707",71739942,"R"
145712,"2670 HOLLAND WAY","WOODLAND","CA",95776,38.6514580360001,-121.731944511,212,"2670 HOLLAND WAY, WOODLAND, CA, 95776","Match","Exact","2670 HOLLAND WAY, WOODLAND, CA, 95776",629203878,"R"
145713,"2670 HORSESHOE DRIVE N UNIT 203","NAPLES","FL",34104,26.1639491400001,-81.77387971,213,"2670 HORSESHOE DRIVE N UNIT 203, NAPLES, FL, 34104","Match","Exact","2670 HORSESHOE DR N, NAPLES, FL, 34104",115156086,"R"
145714,"2670 NETHERTON DR","ST LOUIS","MO",63136,38.775170433,-90.261980877,214,"2670 NETHERTON DR, ST LOUIS, MO, 63136","Match","Exact","2670 NETHERTON DR, SAINT LOUIS, MO, 63136",100148069,"L"
145715,"2670 NETHERTON","ST LOUIS","MO",63136,38.775170433,-90.261980877,215,"2670 NETHERTON, ST LOUIS, MO, 63136","Match","Non_Exact","2670 NETHERTON DR, SAINT LOUIS, MO, 63136",100148069,"L"
145716,"2670 NEWFOUND ROAD","CANTON","NC",28716,35.558011509,-82.805792555,216,"2670 NEWFOUND ROAD, CANTON, NC, 28716","Match","Exact","2670 NEWFOUND RD, CANTON, NC, 28716",151827698,"R"
145717,"2670 NORTH BERKELEY LAKE SUITE 3","DULUTH","GA",30096,33.9735671220001,-84.1622172949999,217,"2670 NORTH BERKELEY LAKE SUITE 3, DULUTH, GA, 30096","Match","Non_Exact","2670 N BERKELEY LAKE RD, DULUTH, GA, 30096",88942576,"L"
145718,"2670 RAINY SPRING CT","ODENTON","MD",21113,39.105821314,-76.701177548,218,"2670 RAINY SPRING CT, ODENTON, MD, 21113","Match","Exact","2670 RAINY SPRING CT, ODENTON, MD, 21113",653276776,"R"
145719,"2670 REGENCY DR W","TUCKER","GA",30084,NA,NA,219,"2670 REGENCY DR W, TUCKER, GA, 30084","No_Match",NA,NA,NA,NA
145720,"2670 S LAKE PLEASANT RD","METAMORA","MI",48455,42.984100905,-83.163395828,220,"2670 S LAKE PLEASANT RD, METAMORA, MI, 48455","Match","Exact","2670 S LAKE PLEASANT RD, METAMORA, MI, 48455",110462791,"R"
145721,"2670 SE WILLOUGHBY BOULEVARD","STUART","FL",34993,27.1738525150001,-80.246939803,221,"2670 SE WILLOUGHBY BOULEVARD, STUART, FL, 34993","Match","Non_Exact","2670 SE WILLOUGHBY BLVD, STUART, FL, 34994",618064501,"L"
145722,"26700 E  144TH AVE","BRIGHTON","CO",80603,NA,NA,222,"26700 E  144TH AVE, BRIGHTON, CO, 80603","No_Match",NA,NA,NA,NA
145723,"26700 LAHSER ROAD SUITE 400","SOUTHFIELD","MI",48033,42.48387826,-83.2612111449999,223,"26700 LAHSER ROAD SUITE 400, SOUTHFIELD, MI, 48033","Match","Exact","26700 LAHSER RD, SOUTHFIELD, MI, 48033",69784564,"R"
145724,"26703 VALLEYSIDE DR","KATY","TX",77494,29.711051335,-95.839003357,224,"26703 VALLEYSIDE DR, KATY, TX, 77494","Match","Exact","26703 VALLEYSIDE DR, KATY, TX, 77494",641060285,"L"
145725,"26707 WOLFS HILL LANE","KATY","TX",77494,29.7303220630001,-95.831394696,225,"26707 WOLFS HILL LANE, KATY, TX, 77494","Match","Exact","26707 WOLFS HILL LN, KATY, TX, 77494",641271840,"L"
145726,"2671 ASHWOOD CT","GRAND PRAIRIE","TX",75052,32.6837781250001,-97.0474935139999,226,"2671 ASHWOOD CT, GRAND PRAIRIE, TX, 75052","Match","Exact","2671 ASHWOOD CT, GRAND PRAIRIE, TX, 75052",101930838,"R"
145727,"2671 BALD CYPRESS DR","BRASELTON","GA",30517,NA,NA,227,"2671 BALD CYPRESS DR, BRASELTON, GA, 30517","No_Match",NA,NA,NA,NA
145728,"2671 E 136TH AVE","THORNTON","CO",80602,39.942896885,-104.95450319,228,"2671 E 136TH AVE, THORNTON, CO, 80602","Match","Exact","2671 E 136TH AVE, THORNTON, CO, 80602",177422163,"L"
145729,"2671 EAST MANOR DR","COTTONWOOD HEIGHTS","UT",84121,40.6198901330001,-111.816096025,229,"2671 EAST MANOR DR, COTTONWOOD HEIGHTS, UT, 84121","Match","Non_Exact","2671 S EASTMANOR DR, COTTONWOOD HEIGHTS, UT, 84121",176095505,"L"
145730,"2671 LAKE RIDGE DRIVE","LITTLE ELM","TX",75068,33.1963956320001,-96.891143324,230,"2671 LAKE RIDGE DRIVE, LITTLE ELM, TX, 75068","Match","Exact","2671 LAKE RIDGE DR, LITTLE ELM, TX, 75068",614132225,"L"
145731,"2671 N COLUMBIA STREET APT 608","MILLEDGEVILLE","GA",31061,33.1359083940001,-83.2694246299999,231,"2671 N COLUMBIA STREET APT 608, MILLEDGEVILLE, GA, 31061","Match","Non_Exact","2671 N COLUMBIA ST, MILLEDGEVILLE, GA, 31061",633735721,"L"
145732,"2671 NOBLE RD  APT 4","CLEVELAND HEIGHTS","OH",44121,41.52926776,-81.541140819,232,"2671 NOBLE RD  APT 4, CLEVELAND HEIGHTS, OH, 44121","Match","Exact","2671 NOBLE RD, CLEVELAND HEIGHTS, OH, 44121",61124335,"L"
145733,"2671 NW 28TH ST","MIAMI","FL",33142,25.8017001110001,-80.239601923,233,"2671 NW 28TH ST, MIAMI, FL, 33142","Match","Exact","2671 NW 28TH ST, MIAMI, FL, 33142",116011189,"R"
145734,"2671 RAINBOW CREEK DRIVE","DECATUR","GA",30034,33.7090700360001,-84.233523646,234,"2671 RAINBOW CREEK DRIVE, DECATUR, GA, 30034","Match","Exact","2671 RAINBOW CREEK DR, DECATUR, GA, 30034",23395497,"L"
145735,"2671 THORNTON ROAD","FERNDALE","WA",98248,48.862673197,-122.626186978,235,"2671 THORNTON ROAD, FERNDALE, WA, 98248","Match","Exact","2671 THORNTON RD, FERNDALE, WA, 98248",647280252,"R"
145736,"26711 465TH AVE","HARTFORD","SD",57033,43.5131460330001,-96.9102403809999,236,"26711 465TH AVE, HARTFORD, SD, 57033","Match","Exact","26711 465TH AVE, HARTFORD, SD, 57033",624822665,"L"
145737,"26711 ALISO CREEK RD 200A","ALISO VIEJO","CA",92656,33.5743939110001,-117.723439178,237,"26711 ALISO CREEK RD 200A, ALISO VIEJO, CA, 92656","Match","Exact","26711 ALISO CREEK RD, ALISO VIEJO, CA, 92656",609044943,"R"
145738,"26711 BUCKEYE TERRACE","MORENO VALLEY","CA",92555,33.936245625,-117.19576619,238,"26711 BUCKEYE TERRACE, MORENO VALLEY, CA, 92555","Match","Exact","26711 BUCKEYE TER, MORENO VALLEY, CA, 92555",618341246,"R"
145739,"26711 CHIPMUNK DR","EVERGREEN","CO",80439,39.562463413,-105.304305294,239,"26711 CHIPMUNK DR, EVERGREEN, CO, 80439","Match","Exact","26711 CHIPMUNK DR, EVERGREEN, CO, 80439",177276864,"L"
145740,"26714 PORTOLA PARKWAY","FOOTHILL RANCH","CA",92610,33.6799419060001,-117.664441539,240,"26714 PORTOLA PARKWAY, FOOTHILL RANCH, CA, 92610","Match","Exact","26714 PORTOLA PKWY, FOOTHILL RNCH, CA, 92610",631819003,"L"
145741,"26715 HENSON FALLS DR","KATY","TX",77494,29.6997043330001,-95.840190365,241,"26715 HENSON FALLS DR, KATY, TX, 77494","Match","Exact","26715 HENSON FALLS DR, KATY, TX, 77494",627556764,"R"
145742,"26718 5 MILE RD","REDFORD","MI",48239,42.3990237420001,-83.307025344,242,"26718 5 MILE RD, REDFORD, MI, 48239","Match","Exact","26718 5 MILE RD, REDFORD, MI, 48239",95419355,"R"
145743,"26719 MIDLAND TRAIL PO BOX 89","HICO","WV",25854,NA,NA,243,"26719 MIDLAND TRAIL PO BOX 89, HICO, WV, 25854","No_Match",NA,NA,NA,NA
145744,"2672 BARCOO BND","NEW LENOX","IL",60451,41.472986491,-87.9844862209999,244,"2672 BARCOO BND, NEW LENOX, IL, 60451","Match","Exact","2672 BARCOO BEND, NEW LENOX, IL, 60451",111632546,"L"
145745,"2672 E GOLDEN TRAIL","CASA GRANDE","AZ",85194,32.866584947,-111.672318125,245,"2672 E GOLDEN TRAIL, CASA GRANDE, AZ, 85194","Match","Exact","2672 E GOLDEN TRL, CASA GRANDE, AZ, 85194",625036515,"R"
145746,"2672 EAST RIDGEWOOD LANE","GILBERT","AZ",85298,33.2310653810001,-111.733048687,246,"2672 EAST RIDGEWOOD LANE, GILBERT, AZ, 85298","Match","Exact","2672 E RIDGEWOOD LN, GILBERT, AZ, 85298",128810915,"L"
145747,"2672 HONEYSUCKLE DR","COLUMBUS","GA",31907,32.487640248,-84.8853091779999,247,"2672 HONEYSUCKLE DR, COLUMBUS, GA, 31907","Match","Exact","2672 HONEYSUCKLE DR, COLUMBUS, GA, 31907",624997016,"R"
145748,"2672 RED BUD LANE","YUBA CITY","CA",95993,39.1288206470001,-121.665209846,248,"2672 RED BUD LANE, YUBA CITY, CA, 95993","Match","Exact","2672 RED BUD LN, YUBA CITY, CA, 95993",68567454,"R"
145749,"2672 RIKKARD DRIVE","THOUSAND OAKS","CA",91362,34.214967775,-118.841453477,249,"2672 RIKKARD DRIVE, THOUSAND OAKS, CA, 91362","Match","Exact","2672 RIKKARD DR, THOUSAND OAKS, CA, 91362",110013388,"L"
145750,"2672 TWO RIDGE AVE","LANCASTER","OH",43130,39.752106865,-82.640958648,250,"2672 TWO RIDGE AVE, LANCASTER, OH, 43130","Match","Non_Exact","2672 TWO RIDGE WAY, LANCASTER, OH, 43130",37239186,"L"
145751,"2672 W IMPERIAL HIGHWAY UNIT 5113","INGLEWOOD","CA",90310,NA,NA,251,"2672 W IMPERIAL HIGHWAY UNIT 5113, INGLEWOOD, CA, 90310","No_Match",NA,NA,NA,NA
145752,"26721 CALLE SALIDA","CAPISTRANO BEACH","CA",92624,33.4612894310001,-117.664642176,252,"26721 CALLE SALIDA, CAPISTRANO BEACH, CA, 92624","Match","Non_Exact","26721 CLL SALIDA, CAPISTRANO BEACH, CA, 92624",144074020,"L"
145753,"26723 BUCKEYE TERRACE","MORENO VALLEY","CA",92555,33.936245625,-117.195695827,253,"26723 BUCKEYE TERRACE, MORENO VALLEY, CA, 92555","Match","Exact","26723 BUCKEYE TER, MORENO VALLEY, CA, 92555",618341246,"R"
145754,"26725 SW 134 AVE","MIAMI","FL",33032,25.5188431220001,-80.4084588159999,254,"26725 SW 134 AVE, MIAMI, FL, 33032","Match","Non_Exact","26725 SW 134TH AVE, NARANJA, FL, 33032",115991090,"L"
145755,"26727 WOLFS HILL LN","KATY","TX",77494,29.730314892,-95.8317288549999,255,"26727 WOLFS HILL LN, KATY, TX, 77494","Match","Exact","26727 WOLFS HILL LN, KATY, TX, 77494",641271840,"L"
145756,"2673 22ND STREET","SAN FRANCISCO","CA",94110,37.756081248,-122.408016589,256,"2673 22ND STREET, SAN FRANCISCO, CA, 94110","Match","Exact","2673 22ND ST, SAN FRANCISCO, CA, 94110",192288462,"L"
145757,"2673 E SPRING HILL CT","GODDARD","KS",67052,37.6779273650001,-97.5449583449999,257,"2673 E SPRING HILL CT, GODDARD, KS, 67052","Match","Exact","2673 SPRING HILL CT, GODDARD, KS, 67052",624767872,"L"
145758,"2673 JAFFA CT","ESCONDIDO","CA",92027,33.153823404,-117.048698752,258,"2673 JAFFA CT, ESCONDIDO, CA, 92027","Match","Exact","2673 JAFFA CT, ESCONDIDO, CA, 92027",619625245,"L"
145759,"2673 N MAIN ST SUITE J","PARIS","TX",75460,33.6900961040001,-95.554243232,259,"2673 N MAIN ST SUITE J, PARIS, TX, 75460","Match","Non_Exact","2673 N MAIN ST, PARIS, TX, 75460",63573650,"L"
145760,"2673 RANGELEY CT","ORLANDO","FL",32835,28.514371338,-81.4905181939999,260,"2673 RANGELEY CT, ORLANDO, FL, 32835","Match","Exact","2673 RANGELEY CT, ORLANDO, FL, 32835",94379746,"R"
145761,"2673 S IRIS ST","LAKEWOOD","CO",80227,39.6663853630001,-105.106756427,261,"2673 S IRIS ST, LAKEWOOD, CO, 80227","Match","Exact","2673 S IRIS ST, LAKEWOOD, CO, 80227",177761772,"R"
145762,"2673 SC HIGHWAY 81","MOUNT CARMEL","SC",29840,33.9746882060001,-82.482108506,262,"2673 SC HIGHWAY 81, MOUNT CARMEL, SC, 29840","Match","Non_Exact","2673 STATE HWY 81, MOUNT CARMEL, SC, 29840",50917472,"L"
145763,"2673 TOWNSHIP RD 1087","PERRYSVILLE","OH",44864,NA,NA,263,"2673 TOWNSHIP RD 1087, PERRYSVILLE, OH, 44864","No_Match",NA,NA,NA,NA
145764,"26730 S STONEY ISLAND","CRETE","IL",60417,41.4032904430001,-87.574060006,264,"26730 S STONEY ISLAND, CRETE, IL, 60417","Match","Non_Exact","26730 S STONEY ISLAND AVE, CRETE, IL, 60417",111554002,"R"
145765,"26731  DUBLIN WOODS CIRCLE STE 2","BONITA SPRINGS","FL",34135,NA,NA,265,"26731  DUBLIN WOODS CIRCLE STE 2, BONITA SPRINGS, FL, 34135","No_Match",NA,NA,NA,NA
145766,"26731 LAREDO LANE","LAKE FOREST","CA",92630,33.6435495000001,-117.664492105,266,"26731 LAREDO LANE, LAKE FOREST, CA, 92630","Match","Exact","26731 LAREDO LN, LAKE FOREST, CA, 92630",639052517,"L"
145767,"26732 VIA COLINA","VALENCIA","CA",91381,34.406169403,-118.583094861,267,"26732 VIA COLINA, VALENCIA, CA, 91381","Match","Exact","26732 VIA COLINA, VALENCIA, CA, 91381",624619515,"R"
145768,"26733 LAZY CREEK RD","SUN CITY","CA",92586,33.688887487,-117.193426257,268,"26733 LAZY CREEK RD, SUN CITY, CA, 92586","Match","Exact","26733 LAZY CREEK RD, SUN CITY, CA, 92586",608995154,"L"
145769,"26735 ST FRANCIS ROAD","LOS ALTOS HILLS","CA",94022,37.3870930960001,-122.14394604,269,"26735 ST FRANCIS ROAD, LOS ALTOS HILLS, CA, 94022","Match","Exact","26735 ST FRANCIS RD, LOS ALTOS HILLS, CA, 94022",614032390,"R"
145770,"26739 SHADOW PASS","SAN ANTONIO","TX",78260,29.6961107450001,-98.499899081,270,"26739 SHADOW PASS, SAN ANTONIO, TX, 78260","Match","Exact","26739 SHADOW PASS, SAN ANTONIO, TX, 78260",101583131,"L"
145771,"2674 EAST MAIN STREET SUITE E-441","VENTURA","CA",93003,34.2738551750001,-119.260138264,271,"2674 EAST MAIN STREET SUITE E-441, VENTURA, CA, 93003","Match","Non_Exact","2674 E MAIN ST, VENTURA, CA, 93001",109951810,"R"
145772,"2674 KISER AVE","LITHIA SPRINGS","GA",30122,33.79158148,-84.663699568,272,"2674 KISER AVE, LITHIA SPRINGS, GA, 30122","Match","Exact","2674 KISER AVE, LITHIA SPGS, GA, 30122",16653767,"L"
145773,"2674 LANDING POINTE DRIVE","LAKE WYLIE","SC",29710,35.1231235180001,-81.078362015,273,"2674 LANDING POINTE DRIVE, LAKE WYLIE, SC, 29710","Match","Exact","2674 LANDING POINTE DR, LAKE WYLIE, SC, 29710",19808220,"R"
145774,"2674 N HAVEN BLVD","CUYAHOGA FALLS","OH",44223,41.1450782810001,-81.5031533599999,274,"2674 N HAVEN BLVD, CUYAHOGA FALLS, OH, 44223","Match","Exact","2674 N HAVEN BLVD, CUYAHOGA FALLS, OH, 44223",61347522,"L"
145775,"2674 SONOMA WAY","PINOLE","CA",94564,37.987443419,-122.269044017,275,"2674 SONOMA WAY, PINOLE, CA, 94564","Match","Exact","2674 SONOMA WAY, PINOLE, CA, 94564",192042701,"R"
145776,"2674 WINDFALL DR","SHERMAN","IL",62684,39.9127679750001,-89.603435138,276,"2674 WINDFALL DR, SHERMAN, IL, 62684","Match","Exact","2674 WINDFALL DR, SHERMAN, IL, 62684",97356253,"L"
145777,"26740 GRAND COLONIAL STREET","GRAND PRAIRIE","TX",75054,NA,NA,277,"26740 GRAND COLONIAL STREET, GRAND PRAIRIE, TX, 75054","No_Match",NA,NA,NA,NA
145778,"26741 PORTOLA PKWY STE 1E NUM 481","FOOTHILL RANCH","CA",92610,NA,NA,278,"26741 PORTOLA PKWY STE 1E NUM 481, FOOTHILL RANCH, CA, 92610","No_Match",NA,NA,NA,NA
145779,"26741 PORTOLA PKWY STE 1E-650","FOOTHILL RANCH","CA",92610,NA,NA,279,"26741 PORTOLA PKWY STE 1E-650, FOOTHILL RANCH, CA, 92610","No_Match",NA,NA,NA,NA
145780,"26742 ESTANCIERO DRIVE","MISSION VIEJO","CA",92691,33.5918926780001,-117.663312693,280,"26742 ESTANCIERO DRIVE, MISSION VIEJO, CA, 92691","Match","Exact","26742 ESTANCIERO DR, MISSION VIEJO, CA, 92691",144065653,"R"
145781,"26743 105TH STREET","NORTH ENGLISH","IA",52316,41.5039497750001,-92.0878999399999,281,"26743 105TH STREET, NORTH ENGLISH, IA, 52316","Match","Non_Exact","26743 105TH, NORTH ENGLISH, IA, 52316",84545279,"R"
145782,"2675 ATLANTIC AVE MAIN FLOOR","BROOKLYN","NY",11207,40.675855395,-73.895541905,282,"2675 ATLANTIC AVE MAIN FLOOR, BROOKLYN, NY, 11207","Match","Exact","2675 ATLANTIC AVE, BROOKLYN, NY, 11207",59084671,"L"
145783,"2675 DOVER GLEN CIRCLE","ORLANDO","FL",32828,28.5166716680001,-81.161697063,283,"2675 DOVER GLEN CIRCLE, ORLANDO, FL, 32828","Match","Exact","2675 DOVER GLEN CIR, ORLANDO, FL, 32828",647518301,"L"
145784,"2675 EAST 74TH STREET","CHICAGO","IL",60649,41.762005151,-87.5595180729999,284,"2675 EAST 74TH STREET, CHICAGO, IL, 60649","Match","Exact","2675 E 74TH ST, CHICAGO, IL, 60649",111775789,"R"
145785,"2675 FAIRMONT DRIVE","GRAND PRAIRIE","TX",75052,32.662620852,-97.043849245,285,"2675 FAIRMONT DRIVE, GRAND PRAIRIE, TX, 75052","Match","Exact","2675 FAIRMONT DR, GRAND PRAIRIE, TX, 75052",101914544,"R"
145786,"2675 FAYETTE DR APT 301","MOUNTAIN VIEW","CA",94040,37.404860102,-122.114562996,286,"2675 FAYETTE DR APT 301, MOUNTAIN VIEW, CA, 94040","Match","Exact","2675 FAYETTE DR, MOUNTAIN VIEW, CA, 94040",614029893,"L"
145787,"2675 GRAY STREET","WHEAT RIDGE","CO",80214,39.755896959,-105.061467401,287,"2675 GRAY STREET, WHEAT RIDGE, CO, 80214","Match","Exact","2675 GRAY ST, WHEAT RIDGE, CO, 80214",177801653,"L"
145788,"2675 GULF STREET","BEAUMONT","TX",77703,30.1030765400001,-94.112352769,288,"2675 GULF STREET, BEAUMONT, TX, 77703","Match","Exact","2675 GULF ST, BEAUMONT, TX, 77703",73853738,"L"
145789,"2675 MALL OF GEORGIA BLVD BLDG 200","BUFORD","GA",30519,34.065513536,-83.975512398,289,"2675 MALL OF GEORGIA BLVD BLDG 200, BUFORD, GA, 30519","Match","Exact","2675 MALL OF GEORGIA BLVD, BUFORD, GA, 30519",630039502,"L"
145790,"2675 PACETTI RD","ST AUGUSTINE","FL",32092,29.924009213,-81.4960589579999,290,"2675 PACETTI RD, ST AUGUSTINE, FL, 32092","Match","Exact","2675 PACETTI RD, SAINT AUGUSTINE, FL, 32092",651411238,"L"
145791,"2675 ROUTE 309","OREFIELD","PA",18037,NA,NA,291,"2675 ROUTE 309, OREFIELD, PA, 18037","No_Match",NA,NA,NA,NA
145792,"2675 S KRISTINA LN","COTTONWOOD","AZ",86326,34.6904431400001,-112.017149581,292,"2675 S KRISTINA LN, COTTONWOOD, AZ, 86326","Match","Exact","2675 KRISTINA LN, COTTONWOOD, AZ, 86326",608173527,"R"
145793,"2675 SANFORD ROAD","NOLENSVILLE","TN",37135,35.928772834,-86.647385517,293,"2675 SANFORD ROAD, NOLENSVILLE, TN, 37135","Match","Exact","2675 SANFORD RD, NOLENSVILLE, TN, 37135",643210901,"L"
145794,"2675 SE 162ND AVENUE APT 75","PORTLAND","OR",97236,45.503071252,-122.496786814,294,"2675 SE 162ND AVENUE APT 75, PORTLAND, OR, 97236","Match","Non_Exact","2675 SE 162ND AVE, PORTLAND, OR, 97236",157523921,"R"
145795,"2675 VALLEYVIEW DRIVE","COLUMBUS","OH",43204,39.963302244,-83.072944191,295,"2675 VALLEYVIEW DRIVE, COLUMBUS, OH, 43204","Match","Exact","2675 VALLEYVIEW DR, COLUMBUS, OH, 43204",218679677,"L"
145796,"2675 W OVERHILL DRIVE","STEPHENVILLE","TX",76401,32.216688907,-98.239715224,296,"2675 W OVERHILL DRIVE, STEPHENVILLE, TX, 76401","Match","Exact","2675 W OVERHILL DR, STEPHENVILLE, TX, 76401",647539200,"L"
145797,"2675 WEST STATE ROUTE 89A 1019","SEDONA","AZ",86336,34.8626757500001,-111.806289666,297,"2675 WEST STATE ROUTE 89A 1019, SEDONA, AZ, 86336","Match","Non_Exact","2675 STATE RTE 89A, SEDONA, AZ, 86336",159501863,"R"
145798,"2675 WEST STATE ROUTE 89A NUM1325","SEDONA","AZ",86336,34.8626757500001,-111.806289666,298,"2675 WEST STATE ROUTE 89A NUM1325, SEDONA, AZ, 86336","Match","Non_Exact","2675 STATE RTE 89A, SEDONA, AZ, 86336",159501863,"R"
145799,"26750 E UNIVERSITY DR","AUBREY","TX",76227,NA,NA,299,"26750 E UNIVERSITY DR, AUBREY, TX, 76227","No_Match",NA,NA,NA,NA
145800,"26750 E UNIVERSITY DRIVE","AUBREY","TX",76227,NA,NA,300,"26750 E UNIVERSITY DRIVE, AUBREY, TX, 76227","No_Match",NA,NA,NA,NA
145801,"26750 E UNIVERSITY","AUBREY","TX",76227,NA,NA,301,"26750 E UNIVERSITY, AUBREY, TX, 76227","No_Match",NA,NA,NA,NA
145802,"26750 EAST UNIVERSITY DRIVE","AUBREY","TX",76227,NA,NA,302,"26750 EAST UNIVERSITY DRIVE, AUBREY, TX, 76227","No_Match",NA,NA,NA,NA
145803,"26750 EAST UNIVERSITY","AUBREY","TX",76227,NA,NA,303,"26750 EAST UNIVERSITY, AUBREY, TX, 76227","No_Match",NA,NA,NA,NA
145804,"26750 MEADOWVIEW LN","DE;JI","IA",52223,42.3994559180001,-91.360570298,304,"26750 MEADOWVIEW LN, DE;JI, IA, 52223","Match","Non_Exact","26750 MEADOWVIEW LN, DELHI, IA, 52223",642156931,"L"
145805,"26751 ADAMS ROAD","LOS GATOS","CA",95033,37.102324825,-121.906669503,305,"26751 ADAMS ROAD, LOS GATOS, CA, 95033","Match","Exact","26751 ADAMS RD, LOS GATOS, CA, 95033",653158719,"L"
145806,"26751 SORTERS MCCLELLAN RD","PORTER","TX",77365,NA,NA,306,"26751 SORTERS MCCLELLAN RD, PORTER, TX, 77365","No_Match",NA,NA,NA,NA
145807,"2676 BERLIN POND RD","NORTHFIELD","VT",5663,44.150452375,-72.598987036,307,"2676 BERLIN POND RD, NORTHFIELD, VT, 5663","Match","Exact","2676 BERLIN POND RD, NORTHFIELD, VT, 05663",136669670,"R"
145808,"2676 COUNTY ROAD 26","IRONTON","OH",45638,NA,NA,308,"2676 COUNTY ROAD 26, IRONTON, OH, 45638","No_Match",NA,NA,NA,NA
145809,"2676 PERDUE STREET","COLUMBUS","OH",43211,40.0237545100001,-82.952033726,309,"2676 PERDUE STREET, COLUMBUS, OH, 43211","Match","Non_Exact","2676 PERDUE AVE, COLUMBUS, OH, 43211",218683263,"R"
145810,"2676 S GRAND AVE","SANTA ANA","CA",92705,33.710458116,-117.850881035,310,"2676 S GRAND AVE, SANTA ANA, CA, 92705","Match","Exact","2676 S GRAND AVE, SANTA ANA, CA, 92705",653173323,"R"
145811,"2676 SOUTHOVER DRIVE NE","PALM BAY","FL",32905,28.047728363,-80.592913772,311,"2676 SOUTHOVER DRIVE NE, PALM BAY, FL, 32905","Match","Exact","2676 SOUTHOVER DR NE, PALM BAY, FL, 32905",640572042,"R"
145812,"2676 W 6050 S","ROY","UT",84067,41.1536205030001,-112.04471975,312,"2676 W 6050 S, ROY, UT, 84067","Match","Exact","2676 W 6050 S, ROY, UT, 84067",155693009,"L"
145813,"26760 NEWBY RD","ATHENS","AL",35613,34.7550689770001,-86.859294463,313,"26760 NEWBY RD, ATHENS, AL, 35613","Match","Exact","26760 NEWBY RD, ATHENS, AL, 35613",625750010,"L"
145814,"26761 CLARKFORD ST","HAYWARD","CA",94544,37.64007589,-122.078584765,314,"26761 CLARKFORD ST, HAYWARD, CA, 94544","Match","Exact","26761 CLARKFORD ST, HAYWARD, CA, 94544",125021824,"R"
145815,"26762 CLAUDETTE ST - APT 418","SANTA CLARITA","CA",91351,34.4181174920001,-118.491583086,315,"26762 CLAUDETTE ST - APT 418, SANTA CLARITA, CA, 91351","Match","Exact","26762 CLAUDETTE ST, SANTA CLARITA, CA, 91351",142810677,"L"
145816,"26762 N 97TH LN","PEORIA","AZ",85383,33.726225964,-112.270324977,316,"26762 N 97TH LN, PEORIA, AZ, 85383","Match","Exact","26762 N 97TH LN, PEORIA, AZ, 85383",128881828,"R"
145817,"26765 CARRONADE DRIVE APT 5204","PERRYSBURG","OH",43551,41.545540342,-83.59996076,317,"26765 CARRONADE DRIVE APT 5204, PERRYSBURG, OH, 43551","Match","Exact","26765 CARRONADE DR, PERRYSBURG, OH, 43551",38746990,"L"
145818,"2677 AVENIR PL APT 3112","VIENNA","VA",22180,38.8814544630001,-77.230223342,318,"2677 AVENIR PL APT 3112, VIENNA, VA, 22180","Match","Exact","2677 AVENIR PL, VIENNA, VA, 22180",648189385,"R"
145819,"2677 BARTON CHAPEL RD","AUGUSTA","GA",30906,33.4200183770001,-82.0811506109999,319,"2677 BARTON CHAPEL RD, AUGUSTA, GA, 30906","Match","Exact","2677 BARTON CHAPEL RD, AUGUSTA, GA, 30906",55635008,"R"
145820,"2677 BELL ROAD","BLAINE","WA",98230,48.973851918,-122.728385747,320,"2677 BELL ROAD, BLAINE, WA, 98230","Match","Exact","2677 BELL RD, BLAINE, WA, 98230",183758133,"L"
145821,"2677 COUNTY ROAD 112","ADDISON","TX",77836,30.4982869900001,-96.787077828,321,"2677 COUNTY ROAD 112, ADDISON, TX, 77836","Match","Non_Exact","2677 CO RD 112, CALDWELL, TX, 77836",24815733,"L"
145822,"2677 FOREST GLEN CT","ROCHESTER","MI",48306,42.73539407,-83.189463314,322,"2677 FOREST GLEN CT, ROCHESTER, MI, 48306","Match","Non_Exact","2677 FORESTGLEN CT, ROCHESTER, MI, 48306",69824626,"L"
145823,"2677 HOLLY DR","UPLAND","CA",91784,34.1628051870001,-117.661386575,323,"2677 HOLLY DR, UPLAND, CA, 91784","Match","Exact","2677 HOLLY DR, UPLAND, CA, 91784",144749434,"L"
145824,"2678 GEORGETOWNE DR NW","ROCHESTER","MN",55901,44.0785769890001,-92.501991834,324,"2678 GEORGETOWNE DR NW, ROCHESTER, MN, 55901","Match","Exact","2678 GEORGETOWNE DR NW, ROCHESTER, MN, 55901",30574678,"R"
145825,"2678 GRANT WAY","SAN DIEGO","CA",92102,32.7088469290001,-117.136526142,325,"2678 GRANT WAY, SAN DIEGO, CA, 92102","Match","Exact","2678 GRANT WAY, SAN DIEGO, CA, 92102",195756277,"L"
145826,"2678 IRVING AVE","IOWA CITY","IA",52246,41.649272024,-91.5790175179999,326,"2678 IRVING AVE, IOWA CITY, IA, 52246","Match","Exact","2678 IRVING AVE, IOWA CITY, IA, 52246",647784528,"R"
145827,"2678 NW 23RD WAY","BOCA RATON","FL",33431,26.373205553,-80.1273276759999,327,"2678 NW 23RD WAY, BOCA RATON, FL, 33431","Match","Exact","2678 NW 23RD WAY, BOCA RATON, FL, 33431",115495004,"R"
145828,"2678 PALM DEER DR","LOXAHATCHEE","FL",33470,26.7194684680001,-80.341208493,328,"2678 PALM DEER DR, LOXAHATCHEE, FL, 33470","Match","Exact","2678 PALM DEER DR, LOXAHATCHEE, FL, 33470",115314270,"L"
145829,"2678 SAINT JOHNS BLUFF RD S APT 314","JACKSONVILLE","FL",32246,30.2985645480001,-81.525874457,329,"2678 SAINT JOHNS BLUFF RD S APT 314, JACKSONVILLE, FL, 32246","Match","Exact","2678 SAINT JOHNS BLUFF RD S, JACKSONVILLE, FL, 32246",647400736,"R"
145830,"2678 TREMONT AVENUE","PHILADELPHIA","PA",19152,40.0692943970001,-75.032690553,330,"2678 TREMONT AVENUE, PHILADELPHIA, PA, 19152","Match","Non_Exact","2678 TREMONT ST, PHILADELPHIA, PA, 19152",131432449,"R"
145831,"26786 BUCKEYE TERRACE","MORENO VALLEY","CA",92555,33.936265152,-117.194550335,331,"26786 BUCKEYE TERRACE, MORENO VALLEY, CA, 92555","Match","Exact","26786 BUCKEYE TER, MORENO VALLEY, CA, 92555",618341261,"L"
145832,"2679 BACOM POINT RD","PAHOKEE","FL",33476,26.80803144,-80.69052598,332,"2679 BACOM POINT RD, PAHOKEE, FL, 33476","Match","Exact","2679 BACOM POINT RD, PAHOKEE, FL, 33476",649894042,"L"
145833,"2679 BROOKMEADOW DRIVE","BELLEVILLE","IL",62221,38.507873472,-89.9249230889999,333,"2679 BROOKMEADOW DRIVE, BELLEVILLE, IL, 62221","Match","Exact","2679 BROOKMEADOW DR, BELLEVILLE, IL, 62221",107911232,"L"
145834,"2679 CAMP RD","MANHEIM","PA",17545,40.2238070340001,-76.457649997,334,"2679 CAMP RD, MANHEIM, PA, 17545","Match","Exact","2679 CAMP RD, MANHEIM, PA, 17545",179721023,"R"
145835,"2679 LEXINGTON AVENUE","EAST MEADOW","NY",11554,40.7174073190001,-73.537137534,335,"2679 LEXINGTON AVENUE, EAST MEADOW, NY, 11554","Match","Exact","2679 LEXINGTON AVE, EAST MEADOW, NY, 11554",147633788,"L"
145836,"2679 MONROE ST","LARAMIE","WY",82070,41.310354069,-105.633745495,336,"2679 MONROE ST, LARAMIE, WY, 82070","Match","Non_Exact","2679 W MONROE ST, LARAMIE, WY, 82070",168738870,"R"
145837,"2679 PEBBLE BEACH DRIVE","OAKLAND","MI",48363,42.7634351680001,-83.12092699,337,"2679 PEBBLE BEACH DRIVE, OAKLAND, MI, 48363","Match","Exact","2679 PEBBLE BEACH DR, OAKLAND, MI, 48363",69791276,"L"
145838,"2679 SHEFFIELD HILL WAY","WOODBRIDGE","VA",22191,38.6269294680001,-77.2831640699999,338,"2679 SHEFFIELD HILL WAY, WOODBRIDGE, VA, 22191","Match","Exact","2679 SHEFFIELD HILL WAY, WOODBRIDGE, VA, 22191",619946340,"L"
145839,"2679 VISTA MONTE CIRCLE","CHINO HILLS","CA",91709,34.013212314,-117.74728673,339,"2679 VISTA MONTE CIRCLE, CHINO HILLS, CA, 91709","Match","Exact","2679 VISTA MONTE CIR, CHINO HILLS, CA, 91709",144692349,"L"
145840,"2679 VISTA MONTE CIRLCE","CHINO HILLS","CA",91709,34.013212314,-117.74728673,340,"2679 VISTA MONTE CIRLCE, CHINO HILLS, CA, 91709","Match","Non_Exact","2679 VISTA MONTE CIR, CHINO HILLS, CA, 91709",144692349,"L"
145841,"2679 WILDBERRY CT","EDISON","NJ",8817,40.5272439490001,-74.407395438,341,"2679 WILDBERRY CT, EDISON, NJ, 8817","Match","Exact","2679 WILDBERRY CT, EDISON, NJ, 08817",60369281,"R"
145842,"26795 GILL RD","MYAKKA CITY","FL",34251,27.4630817880001,-82.265594644,342,"26795 GILL RD, MYAKKA CITY, FL, 34251","Match","Exact","26795 GILL RD, MYAKKA CITY, FL, 34251",16226313,"R"
145843,"26798 CO HWY Z","WILTON","WI",54670,43.787095058,-90.517049973,343,"26798 CO HWY Z, WILTON, WI, 54670","Match","Exact","26798 CO HWY Z, WILTON, WI, 54670",51082216,"L"
145844,"268 5TH AVE","FREEDOM","PA",15042,40.691367879,-80.257782444,344,"268 5TH AVE, FREEDOM, PA, 15042","Match","Exact","268 5TH AVE, FREEDOM, PA, 15042",52565487,"R"
145845,"268 ALDEN CT","WINDSOR","CA",95492,38.545844462,-122.801546747,345,"268 ALDEN CT, WINDSOR, CA, 95492","Match","Exact","268 ALDEN CT, WINDSOR, CA, 95492",67493111,"R"
145846,"268 ARBOR VALLEY DR","SAN JOSE","CA",95119,37.2261798110001,-121.785206488,346,"268 ARBOR VALLEY DR, SAN JOSE, CA, 95119","Match","Exact","268 ARBOR VALLEY DR, SAN JOSE, CA, 95119",122927252,"L"
145847,"268 BAINBRIDGE STREET","BROOKLYN","NY",11233,40.6814559320001,-73.926774211,347,"268 BAINBRIDGE STREET, BROOKLYN, NY, 11233","Match","Exact","268 BAINBRIDGE ST, BROOKLYN, NY, 11233",59082867,"R"
145848,"268 BALLPARK ROAD","SOPERTON","GA",30457,32.3648766210001,-82.608772851,348,"268 BALLPARK ROAD, SOPERTON, GA, 30457","Match","Exact","268 BALLPARK RD, SOPERTON, GA, 30457",647825552,"L"
145849,"268 BLACKFOOT DRIVE","JEFFERSON","TX",75657,32.7814637110001,-94.488492008,349,"268 BLACKFOOT DRIVE, JEFFERSON, TX, 75657","Match","Non_Exact","268 BLACKFOOT RD, JEFFERSON, TX, 75657",606962324,"L"
145850,"268 BUSH ST NO 2516","SAN FRANCISCO","CA",94104,37.7911142560001,-122.401293174,350,"268 BUSH ST NO 2516, SAN FRANCISCO, CA, 94104","Match","Non_Exact","268 BUSH ST, SAN FRANCISCO, CA, 94104",647251693,"R"
145851,"268 BUSH ST UNIT 3940","SAN FRANCISCO","CA",94104,37.7911142560001,-122.401293174,351,"268 BUSH ST UNIT 3940, SAN FRANCISCO, CA, 94104","Match","Exact","268 BUSH ST, SAN FRANCISCO, CA, 94104",647251693,"R"
145852,"268 BUSH STREET 2836","SAN FRANCISCO","CA",94104,37.7911142560001,-122.401293174,352,"268 BUSH STREET 2836, SAN FRANCISCO, CA, 94104","Match","Exact","268 BUSH ST, SAN FRANCISCO, CA, 94104",647251693,"R"
145853,"268 BUSH STREET BOX 2928","SAN FRANCISCO","CA",94104,37.7911142560001,-122.401293174,353,"268 BUSH STREET BOX 2928, SAN FRANCISCO, CA, 94104","Match","Exact","268 BUSH ST, SAN FRANCISCO, CA, 94104",647251693,"R"
145854,"268 BUSH STREET NUMBER 3237","SAN FRANCISCO","CA",94104,37.7911142560001,-122.401293174,354,"268 BUSH STREET NUMBER 3237, SAN FRANCISCO, CA, 94104","Match","Exact","268 BUSH ST, SAN FRANCISCO, CA, 94104",647251693,"R"
145855,"268 CARMACK","FLINTSTONE","GA",30725,34.925092009,-85.359732113,355,"268 CARMACK, FLINTSTONE, GA, 30725","Match","Non_Exact","268 CARMACK RD, FLINTSTONE, GA, 30725",66718265,"R"
145856,"268 CASSVILLE RD","JACKSON","NJ",8527,40.120182351,-74.39296369,356,"268 CASSVILLE RD, JACKSON, NJ, 8527","Match","Exact","268 CASSVILLE RD, JACKSON, NJ, 08527",636226370,"L"
145857,"268 CENTRAL ST","GARDNER","MA",1440,42.576918522,-71.994191896,357,"268 CENTRAL ST, GARDNER, MA, 1440","Match","Exact","268 CENTRAL ST, GARDNER, MA, 01440",40094611,"R"
145858,"268 CHURCH ST","RACELAND","LA",70394,29.698130517,-90.569666168,358,"268 CHURCH ST, RACELAND, LA, 70394","Match","Exact","268 CHURCH ST, RACELAND, LA, 70394",92332868,"L"
145859,"268 COTTONWOOD BEND NW","CLEVELAND","TN",37312,35.222052939,-84.8890077889999,359,"268 COTTONWOOD BEND NW, CLEVELAND, TN, 37312","Match","Exact","268 COTTONWOOD BND NW, CLEVELAND, TN, 37312",57582600,"R"
145860,"268 COUNTRY DR","WESTON","MA",2493,42.3423253130001,-71.32663482,360,"268 COUNTRY DR, WESTON, MA, 2493","Match","Exact","268 COUNTRY DR, WESTON, MA, 02493",86852390,"L"
145861,"268 COUNTY ROAD 68","TORONTO","OH",43964,40.5165551370001,-80.6546105909999,361,"268 COUNTY ROAD 68, TORONTO, OH, 43964","Match","Exact","268 CO RD 68, TORONTO, OH, 43964",648864140,"R"
145862,"268 DANFORTH AVENUE APT LEFT","JERSEY CITY","NJ",7305,40.700543715,-74.094793415,362,"268 DANFORTH AVENUE APT LEFT, JERSEY CITY, NJ, 7305","Match","Exact","268 DANFORTH AVE, JERSEY CITY, NJ, 07305",59603180,"R"
145863,"268 E JACINTO ST","TUCSON","AZ",85705,32.253995467,-110.968132847,363,"268 E JACINTO ST, TUCSON, AZ, 85705","Match","Exact","268 E JACINTO ST, TUCSON, AZ, 85705",121169919,"R"
145864,"268 EVERGREEN RD","ONTARIO","OR",97914,44.1257555540001,-116.957179708,364,"268 EVERGREEN RD, ONTARIO, OR, 97914","Match","Exact","268 EVERGREEN RD, ONTARIO, OR, 97914",138641747,"L"
145865,"268 FRUIT HILL AVE APT 23","NORTH PROVIDENCE","RI",2911,41.841453648,-71.469038046,365,"268 FRUIT HILL AVE APT 23, NORTH PROVIDENCE, RI, 2911","Match","Exact","268 FRUIT HILL AVE, N PROVIDENCE, RI, 02911",651145024,"L"
145866,"268 GARREN RD","EASLEY","SC",29640,34.931692637,-82.545258071,366,"268 GARREN RD, EASLEY, SC, 29640","Match","Exact","268 GARREN RD, EASLEY, SC, 29640",651604936,"R"
145867,"268 GOLDEN HIND PASSAGE","CORTE MADERA","CA",94925,37.924242985,-122.498540445,367,"268 GOLDEN HIND PASSAGE, CORTE MADERA, CA, 94925","Match","Exact","268 GOLDEN HIND PSGE, CORTE MADERA, CA, 94925",192768446,"R"
145868,"268 HILLTOP COURT","LAKE BARRINGTON","IL",60010,42.2187291450001,-88.145253618,368,"268 HILLTOP COURT, LAKE BARRINGTON, IL, 60010","Match","Exact","268 HILLTOP CT, LAKE BARRINGTON, IL, 60010",119633409,"R"
145869,"268 HILLTOP TRL","RHOME","TX",76078,33.125869902,-97.4428832899999,369,"268 HILLTOP TRL, RHOME, TX, 76078","Match","Exact","268 HILLTOP TRL, RHOME, TX, 76078",633859155,"R"
145870,"268 HOBOKEN ROAD","EAST RUTHERFORD","NJ",7073,40.8382566720001,-74.0970589679999,370,"268 HOBOKEN ROAD, EAST RUTHERFORD, NJ, 7073","Match","Exact","268 HOBOKEN RD, E RUTHERFORD, NJ, 07073",64395189,"L"
145871,"268 JAPONICA DR","PADUCAH","KY",42003,37.045787923,-88.63054053,371,"268 JAPONICA DR, PADUCAH, KY, 42003","Match","Exact","268 JAPONICA DR, PADUCAH, KY, 42003",8401871,"L"
145872,"268 JEFFERSON ST 2B","BROOKLYN","NY",11237,40.703825103,-73.926724919,372,"268 JEFFERSON ST 2B, BROOKLYN, NY, 11237","Match","Exact","268 JEFFERSON ST, BROOKLYN, NY, 11237",59082411,"R"
145873,"268 JORDAN CREEK RD","INMAN","SC",29349,34.996471173,-82.077029967,373,"268 JORDAN CREEK RD, INMAN, SC, 29349","Match","Exact","268 JORDAN CREEK RD, INMAN, SC, 29349",624484398,"R"
145874,"268 KILES ROAD","STILLWATER","PA",17878,41.1924555690001,-76.3216852579999,374,"268 KILES ROAD, STILLWATER, PA, 17878","Match","Exact","268 KILES RD, STILLWATER, PA, 17878",59231860,"R"
145875,"268 LANE ROAD","CHESTER","NH",3036,42.9949238,-71.239056004,375,"268 LANE ROAD, CHESTER, NH, 3036","Match","Exact","268 LANE RD, CHESTER, NH, 03036",113677940,"R"
145876,"268 LISA DRIVE","BROCKTON","MA",2302,42.1202036190001,-71.0059290789999,376,"268 LISA DRIVE, BROCKTON, MA, 2302","Match","Exact","268 LISA DR, BROCKTON, MA, 02302",87457899,"R"
145877,"268 MOUNTVERNON AVENUE","ORANGE","NJ",7050,40.7808713110001,-74.2301273269999,377,"268 MOUNTVERNON AVENUE, ORANGE, NJ, 7050","Match","Non_Exact","268 MOUNT VERNON AVE, ORANGE, NJ, 07050",63449613,"R"
145878,"268 MOWER ST","WORCESTER","MA",1602,42.2808126570001,-71.8672438309999,378,"268 MOWER ST, WORCESTER, MA, 1602","Match","Exact","268 MOWER ST, WORCESTER, MA, 01602",40007045,"R"
145879,"268 N LINCOLN AVE STE 8","CORONA","CA",92882,NA,NA,379,"268 N LINCOLN AVE STE 8, CORONA, CA, 92882","Tie",NA,NA,NA,NA
145880,"268 N PRIMROSE AVE","MONROVIA","CA",91016,34.1563867290001,-118.003289059,380,"268 N PRIMROSE AVE, MONROVIA, CA, 91016","Match","Exact","268 N PRIMROSE AVE, MONROVIA, CA, 91016",141646000,"R"
145881,"268 NEWMAN AVENUE","HARRISONBURG","VA",22801,38.4473353380001,-78.865604332,381,"268 NEWMAN AVENUE, HARRISONBURG, VA, 22801","Match","Exact","268 NEWMAN AVE, HARRISONBURG, VA, 22801",55763661,"R"
145882,"268 NORTH BROADWAY UNIT 9","HICKSILLE","NY",11801,40.777130109,-73.529800656,382,"268 NORTH BROADWAY UNIT 9, HICKSILLE, NY, 11801","Match","Non_Exact","268 N BROADWAY, HICKSVILLE, NY, 11801",147626191,"L"
145883,"268 NORTHUP STREET","CRANSTON","RI",2905,41.785502695,-71.397221647,383,"268 NORTHUP STREET, CRANSTON, RI, 2905","Match","Exact","268 NORTHUP ST, CRANSTON, RI, 02905",47468371,"L"
145884,"268 OAKWOOD AVE APT 2M","ORANGE","NJ",7050,40.7625542000001,-74.228171431,384,"268 OAKWOOD AVE APT 2M, ORANGE, NJ, 7050","Match","Exact","268 OAKWOOD AVE, ORANGE, NJ, 07050",63450244,"L"
145885,"268 OLEQUA HEIGHTS RD","CASTLE ROCK","WA",98611,46.3577286670001,-122.94089657,385,"268 OLEQUA HEIGHTS RD, CASTLE ROCK, WA, 98611","Match","Exact","268 OLEQUA HEIGHTS RD, CASTLE ROCK, WA, 98611",184492876,"R"
145886,"268 ORCHARD BRANCH","HINDMAN","KY",41822,NA,NA,386,"268 ORCHARD BRANCH, HINDMAN, KY, 41822","No_Match",NA,NA,NA,NA
145887,"268 PARKVIEW AVE","BANGOR","ME",4401,44.8139655140001,-68.7631591529999,387,"268 PARKVIEW AVE, BANGOR, ME, 4401","Match","Exact","268 PARKVIEW AVE, BANGOR, ME, 04401",123628439,"L"
145888,"268 PONCE DE LEON AVE - SUITE 1022","SAN JUAN","PR",918,NA,NA,388,"268 PONCE DE LEON AVE - SUITE 1022, SAN JUAN, PR, 918","No_Match",NA,NA,NA,NA
145889,"268 PORCHESTER DRIVE","SANFORD","FL",32771,28.796973274,-81.311230586,389,"268 PORCHESTER DRIVE, SANFORD, FL, 32771","Match","Exact","268 PORCHESTER DR, SANFORD, FL, 32771",618451823,"R"
145890,"268 READE STREET","BLANDBURG","PA",16619,40.6831895510001,-78.416367054,390,"268 READE STREET, BLANDBURG, PA, 16619","Match","Exact","268 READE ST, BLANDBURG, PA, 16619",50246805,"L"
145891,"268 ROCKWELL AVE","LONG BRANCH","NJ",7740,40.312517848,-73.993555046,391,"268 ROCKWELL AVE, LONG BRANCH, NJ, 7740","Match","Exact","268 ROCKWELL AVE, LONG BRANCH, NJ, 07740",90460534,"L"
145892,"268 S 57TH STREET","PHILADELPHIA","PA",19139,39.956481051,-75.235871189,392,"268 S 57TH STREET, PHILADELPHIA, PA, 19139","Match","Exact","268 S 57TH ST, PHILADELPHIA, PA, 19139",131399007,"R"
145893,"268 S FINLEY AVE","BASKING RIDGE","NJ",7920,40.693810694,-74.549423039,393,"268 S FINLEY AVE, BASKING RIDGE, NJ, 7920","Match","Exact","268 S FINLEY AVE, BASKING RIDGE, NJ, 07920",624324585,"L"
145894,"268 STATE ST APT 2","NEW HAVEN","CT",6510,41.303857458,-72.923451863,394,"268 STATE ST APT 2, NEW HAVEN, CT, 6510","Match","Exact","268 STATE ST, NEW HAVEN, CT, 06510",3701372,"L"
145895,"268 W 6TH ST","MARYSVILLE","OH",43040,40.235524765,-83.3701948779999,395,"268 W 6TH ST, MARYSVILLE, OH, 43040","Match","Exact","268 W 6TH ST, MARYSVILLE, OH, 43040",135335167,"R"
145896,"268 WARREN STREET","MADISONVILLE","TN",37354,35.520200743,-84.368931875,396,"268 WARREN STREET, MADISONVILLE, TN, 37354","Match","Exact","268 WARREN ST, MADISONVILLE, TN, 37354",612102864,"R"
145897,"268 WASHINGTON AVE","CLIFTON","NJ",7011,40.8765336590001,-74.1519156379999,397,"268 WASHINGTON AVE, CLIFTON, NJ, 7011","Match","Exact","268 WASHINGTON AVE, CLIFTON, NJ, 07011",65266665,"R"
145898,"268 WEST PULASKI ROAD","HUNTINGTON STATION","NY",11746,40.8467991250001,-73.429060713,398,"268 WEST PULASKI ROAD, HUNTINGTON STATION, NY, 11746","Match","Exact","268 W PULASKI RD, HUNTINGTON STATION, NY, 11746",114037768,"L"
145899,"268 WOODLANDS AVE","MOBILE","AL",36607,30.6930891490001,-88.09103476,399,"268 WOODLANDS AVE, MOBILE, AL, 36607","Match","Exact","268 WOODLANDS AVE, MOBILE, AL, 36607",61859956,"R"
145900,"268 WOODSIDE AVE","FRANKLIN LAKES","NJ",7417,41.0284173860001,-74.184380227,400,"268 WOODSIDE AVE, FRANKLIN LAKES, NJ, 7417","Match","Exact","268 WOODSIDE AVE, FRANKLIN LAKES, NJ, 07417",625039007,"L"
145901,"2680 BOBCAT TRAIL","TITUSVILLE","FL",32780,28.51759629,-80.835351399,401,"2680 BOBCAT TRAIL, TITUSVILLE, FL, 32780","Match","Exact","2680 BOBCAT TRL, TITUSVILLE, FL, 32780",93891978,"L"
145902,"2680 CASCADE RD SW","ATLANTA","GA",30311,NA,NA,402,"2680 CASCADE RD SW, ATLANTA, GA, 30311","No_Match",NA,NA,NA,NA
145903,"2680 DROSTE","SAINT CHARLES","MO",63301,38.7922840850001,-90.515770258,403,"2680 DROSTE, SAINT CHARLES, MO, 63301","Match","Non_Exact","2680 DROSTE RD, SAINT CHARLES, MO, 63301",100021069,"R"
145904,"2680 E MAIN ST STE 116","PLAINFIELD","IN",46168,39.7192671810001,-86.353684454,404,"2680 E MAIN ST STE 116, PLAINFIELD, IN, 46168","Match","Non_Exact","2680 E MAIN ST, PLAINFIELD, IN, 46168",89234964,"R"
145905,"2680 EAST MAIN STREET","PLAINFIELD","IN",46168,39.719265169,-86.3536895669999,405,"2680 EAST MAIN STREET, PLAINFIELD, IN, 46168","Match","Exact","2680 E MAIN ST, PLAINFIELD, IN, 46168",89234964,"R"
145906,"2680 EASY ST","EDINBURG","TX",78539,26.291003253,-98.1921713199999,406,"2680 EASY ST, EDINBURG, TX, 78539","Match","Exact","2680 EASY ST, EDINBURG, TX, 78539",71539925,"R"
145907,"2680 HOWARD COMMONS","GREEN BAY","WI",54313,NA,NA,407,"2680 HOWARD COMMONS, GREEN BAY, WI, 54313","No_Match",NA,NA,NA,NA
145908,"2680 INDIAN OAKS TRL","SPRINGDALE","AR",72762,36.1419608960001,-94.161501631,408,"2680 INDIAN OAKS TRL, SPRINGDALE, AR, 72762","Match","Exact","2680 INDIAN OAKS TRL, SPRINGDALE, AR, 72762",49088270,"R"
145909,"2680 LAKE COURT DRIVE","MOUNDS VIEW","MN",55112,45.104300288,-93.214472654,409,"2680 LAKE COURT DRIVE, MOUNDS VIEW, MN, 55112","Match","Exact","2680 LAKE COURT DR, MOUNDS VIEW, MN, 55112",97657572,"L"
145910,"2680 LEAHMAN ROAD UNIT 205","CINCINNATI","OH",45204,39.1159888620001,-84.551286788,410,"2680 LEAHMAN ROAD UNIT 205, CINCINNATI, OH, 45204","Match","Non_Exact","2680 LEHMAN RD, CINCINNATI, OH, 45204",647373723,"R"
145911,"2680 NW 123RD STREET","MIAMI","FL",33167,25.8864027450001,-80.242735925,411,"2680 NW 123RD STREET, MIAMI, FL, 33167","Match","Exact","2680 NW 123RD ST, MIAMI, FL, 33167",116032621,"L"
145912,"2680 PAWTUCKET AVE","EAST PROVIDENCE","RI",2914,41.8019619070001,-71.361996024,412,"2680 PAWTUCKET AVE, EAST PROVIDENCE, RI, 2914","Match","Exact","2680 PAWTUCKET AVE, E PROVIDENCE, RI, 02914",47493771,"R"
145913,"2680 PAWTUCKET AVENUE","EAST PROVIDENCE","RI",2914,41.8019619070001,-71.361996024,413,"2680 PAWTUCKET AVENUE, EAST PROVIDENCE, RI, 2914","Match","Exact","2680 PAWTUCKET AVE, E PROVIDENCE, RI, 02914",47493771,"R"
145914,"2680 US HIGHWAY 70","CONNELLY SPRING","NC",28612,35.7200976020001,-81.454438695,414,"2680 US HIGHWAY 70, CONNELLY SPRING, NC, 28612","Match","Exact","2680 US HWY 70, CONNELLY SPG, NC, 28612",37166024,"R"
145915,"2680 WILBURN RD","HEBER SPRINGS","AR",72543,35.4825134280001,-91.93597821,415,"2680 WILBURN RD, HEBER SPRINGS, AR, 72543","Match","Exact","2680 WILBURN RD, HEBER SPRINGS, AR, 72543",43174608,"L"
145916,"26801 CALLE REAL","CAPISTRANO BEACH","CA",92624,33.456792964,-117.662059009,416,"26801 CALLE REAL, CAPISTRANO BEACH, CA, 92624","Match","Non_Exact","26801 CLL REAL, CAPISTRANO BEACH, CA, 92624",144074097,"L"
145917,"26802 CLAUDETTE ST UNIT 319","CANYON COUNTRY","CA",91351,34.4183970810001,-118.49162631,417,"26802 CLAUDETTE ST UNIT 319, CANYON COUNTRY, CA, 91351","Match","Exact","26802 CLAUDETTE ST, CANYON COUNTRY, CA, 91351",142810676,"L"
145918,"26803 COUGAR BEND LN","KATY","TX",77494,29.732791643,-95.832251201,418,"26803 COUGAR BEND LN, KATY, TX, 77494","Match","Exact","26803 COUGAR BEND LN, KATY, TX, 77494",641051893,"R"
145919,"26803 HANNA ROAD SUITE 501","OAK RIDGE","TX",77385,30.15487137,-95.436047946,419,"26803 HANNA ROAD SUITE 501, OAK RIDGE, TX, 77385","Match","Non_Exact","26803 HANNA RD, OAK RIDGE N, TX, 77385",600567972,"L"
145920,"26803 TULIP MEADOW","BOERNE","TX",78015,29.6994942060001,-98.647804712,420,"26803 TULIP MEADOW, BOERNE, TX, 78015","Match","Exact","26803 TULIP MEADOW, BOERNE, TX, 78015",642216379,"R"
145921,"26804 FAIRLAIN DR","VALENCIA","CA",91355,34.4116219410001,-118.567867397,421,"26804 FAIRLAIN DR, VALENCIA, CA, 91355","Match","Exact","26804 FAIRLAIN DR, VALENCIA, CA, 91355",241236968,"L"
145922,"26806 FOND DU LAC ROAD","RANCHO PALOS VERDES","CA",90275,33.781802918,-118.374311421,422,"26806 FOND DU LAC ROAD, RANCHO PALOS VERDES, CA, 90275","Match","Exact","26806 FOND DU LAC RD, RANCHO PALOS VERDES, CA, 90275",141687299,"L"
145923,"26809 SHELBY AVENUE","SALISBURY","MO",65281,39.447386948,-92.712207243,423,"26809 SHELBY AVENUE, SALISBURY, MO, 65281","Match","Exact","26809 SHELBY AVE, SALISBURY, MO, 65281",20879906,"L"
145924,"2681 125TH AVE","VIOLA","IL",61486,41.247302006,-90.573678692,424,"2681 125TH AVE, VIOLA, IL, 61486","Match","Exact","2681 125TH AVE, VIOLA, IL, 61486",5469853,"R"
145925,"2681 AVENUE G NW","WINTER HAVEN","FL",33880,28.0294735480001,-81.7663907039999,425,"2681 AVENUE G NW, WINTER HAVEN, FL, 33880","Match","Exact","2681 AVE G NW, WINTER HAVEN, FL, 33880",104822958,"L"
145926,"2681 E COMMUNITY DR","JUPITER","FL",33458,26.907966468,-80.123293663,426,"2681 E COMMUNITY DR, JUPITER, FL, 33458","Match","Exact","2681 E COMMUNITY DR, JUPITER, FL, 33458",636102451,"R"
145927,"2681 HEATH AVE","BRONX","NY",10463,40.8708005890001,-73.905747022,427,"2681 HEATH AVE, BRONX, NY, 10463","Match","Exact","2681 HEATH AVE, BRONX, NY, 10463",80298547,"L"
145928,"2681 MILAN STREET","EASTON","PA",18045,40.6544886990001,-75.29371829,428,"2681 MILAN STREET, EASTON, PA, 18045","Match","Exact","2681 MILAN ST, EASTON, PA, 18045",648284415,"L"
145929,"2681 PHARR RD","ATLANTA","GA",30317,NA,NA,429,"2681 PHARR RD, ATLANTA, GA, 30317","No_Match",NA,NA,NA,NA
145930,"2681 ROOSEVELT BLVD 1108","CLEARWATER","FL",33760,27.9161195500001,-82.725621998,430,"2681 ROOSEVELT BLVD 1108, CLEARWATER, FL, 33760","Match","Exact","2681 ROOSEVELT BLVD, CLEARWATER, FL, 33760",639488023,"R"
145931,"2681 SPRUILL AVENUE","NORTH CHARLESTON","SC",29405,32.847120692,-79.9609556299999,431,"2681 SPRUILL AVENUE, NORTH CHARLESTON, SC, 29405","Match","Exact","2681 SPRUILL AVE, N CHARLESTON, SC, 29405",647986565,"R"
145932,"2681 SW 155 LANE","DAVIE","FL",33331,26.086357777,-80.357058358,432,"2681 SW 155 LANE, DAVIE, FL, 33331","Match","Exact","2681 SW 155TH LN, DAVIE, FL, 33331",114698670,"R"
145933,"26810 COUNTY HWY 24","PINE ISLAND","MN",55963,44.182149436,-92.7030376599999,433,"26810 COUNTY HWY 24, PINE ISLAND, MN, 55963","Match","Exact","26810 CO HWY 24, PINE ISLAND, MN, 55963",653411904,"R"
145934,"26812 MACKENZIE DRIVE","SALISBURY","MD",21801,38.3481678260001,-75.684343569,434,"26812 MACKENZIE DRIVE, SALISBURY, MD, 21801","Match","Exact","26812 MACKENZIE DR, SALISBURY, MD, 21801",114494650,"L"
145935,"26815 CROOKED OAK LANE","HEBRON","MD",21830,38.379605956,-75.684175221,435,"26815 CROOKED OAK LANE, HEBRON, MD, 21830","Match","Exact","26815 CROOKED OAK LN, HEBRON, MD, 21830",114477200,"R"
145936,"26819 GREY PEREGRINE DRIVE","KATY","TX",77494,29.7400790030001,-95.8280855199999,436,"26819 GREY PEREGRINE DRIVE, KATY, TX, 77494","Match","Exact","26819 GREY PEREGRINE DR, KATY, TX, 77494",642950976,"L"
145937,"2682 AULD BLVD","OCOEE","FL",34761,NA,NA,437,"2682 AULD BLVD, OCOEE, FL, 34761","No_Match",NA,NA,NA,NA
145938,"2682 EMILY AVE NW","SALEM","OR",97304,44.9811594720001,-123.08714012,438,"2682 EMILY AVE NW, SALEM, OR, 97304","Match","Exact","2682 EMILY AVE NW, SALEM, OR, 97304",610952909,"L"
145939,"2682 PRIDE DRIVE","SPARKS","NV",89436,39.6192749960001,-119.693002151,439,"2682 PRIDE DRIVE, SPARKS, NV, 89436","Match","Exact","2682 PRIDE DR, SPARKS, NV, 89436",107117619,"L"
145940,"2682 SUSSEX AVE","CLOVIS","CA",93611,36.790701235,-119.661852841,440,"2682 SUSSEX AVE, CLOVIS, CA, 93611","Match","Non_Exact","2682 SUSSEX, CLOVIS, CA, 93611",606267838,"R"
145941,"2682 WALDRON ROAD","CAMDEN","NY",13316,43.3458316850001,-75.7101041929999,441,"2682 WALDRON ROAD, CAMDEN, NY, 13316","Match","Exact","2682 WALDRON RD, CAMDEN, NY, 13316",171536304,"L"
145942,"2682 WINDMILL CT S","SALEM","OR",97306,44.8637908210001,-123.084791445,442,"2682 WINDMILL CT S, SALEM, OR, 97306","Match","Exact","2682 WINDMILL CT S, SALEM, OR, 97306",613677532,"R"
145943,"26820 SIBLEY RD","BROWNSTOWN","MI",48174,42.1667220950001,-83.298373904,443,"26820 SIBLEY RD, BROWNSTOWN, MI, 48174","Match","Exact","26820 SIBLEY RD, BROWNSTOWN, MI, 48174",95455230,"R"
145944,"26821 119TH AVE SE","KENT","WA",98030,47.3613821060001,-122.183007371,444,"26821 119TH AVE SE, KENT, WA, 98030","Match","Exact","26821 119TH AVE SE, KENT, WA, 98030",186713231,"R"
145945,"26822 107TH AVE SE","KENT","WA",98030,47.361064189,-122.197841185,445,"26822 107TH AVE SE, KENT, WA, 98030","Match","Exact","26822 107TH AVE SE, KENT, WA, 98030",624532189,"L"
145946,"26822 GRANITE VALLEY LN","CYPRESS","TX",77433,29.967427593,-95.7104775619999,446,"26822 GRANITE VALLEY LN, CYPRESS, TX, 77433","Match","Exact","26822 GRANITE VALLEY LN, CYPRESS, TX, 77433",627709234,"L"
145947,"26823 312TH AVE SE","RAVENSDALE","WA",98051,47.361276059,-121.927968717,447,"26823 312TH AVE SE, RAVENSDALE, WA, 98051","Match","Exact","26823 312TH AVE SE, RAVENSDALE, WA, 98051",186933267,"L"
145948,"26823 LIVE OAK COURT","CALABASAS","CA",91301,34.132578929,-118.708418857,448,"26823 LIVE OAK COURT, CALABASAS, CA, 91301","Match","Exact","26823 LIVE OAK CT, CALABASAS, CA, 91301",141815059,"R"
145949,"26824 E CARNEGIE PARK DRIVE","SOUTHFIELD","MI",48034,42.4866743150001,-83.3058938349999,449,"26824 E CARNEGIE PARK DRIVE, SOUTHFIELD, MI, 48034","Match","Exact","26824 CARNEGIE PARK, SOUTHFIELD, MI, 48034",633685855,"R"
145950,"26827 AKINS ROAD","COLUMBIA STATION","OH",44028,41.2896622690001,-81.95247284,450,"26827 AKINS ROAD, COLUMBIA STATION, OH, 44028","Match","Exact","26827 AKINS RD, COLUMBIA STATION, OH, 44028",55415701,"R"
145951,"26828 MAPLE VALLEY HWY STE 185","MAPLE VALLEY","WA",98038,NA,NA,451,"26828 MAPLE VALLEY HWY STE 185, MAPLE VALLEY, WA, 98038","No_Match",NA,NA,NA,NA
145952,"2683 B ORCHARD LAKE ROAD","SYLVAN LAKE","MI",48320,42.6080418010001,-83.337924314,452,"2683 B ORCHARD LAKE ROAD, SYLVAN LAKE, MI, 48320","Match","Exact","2683 ORCHARD LAKE RD, SYLVAN LAKE, MI, 48320",69703376,"L"
145953,"2683 EAST JENNY AVE","FRESNO","CA",93720,36.8404122950001,-119.734877022,453,"2683 EAST JENNY AVE, FRESNO, CA, 93720","Match","Exact","2683 E JENNY AVE, FRESNO, CA, 93720",197621740,"R"
145954,"2683 EDENBRIDGE COURT","BURLINGTON","KY",41005,39.03536123,-84.719029488,454,"2683 EDENBRIDGE COURT, BURLINGTON, KY, 41005","Match","Exact","2683 EDENBRIDGE CT, BURLINGTON, KY, 41005",81964448,"R"
145955,"2683 GARNER ROAD","AYNOR","SC",29511,33.9669933690001,-79.114203432,455,"2683 GARNER ROAD, AYNOR, SC, 29511","Match","Exact","2683 GARNER RD, AYNOR, SC, 29511",636585674,"L"
145956,"2683 HARVICH DR","INDIANAPOLIS","IN",46224,39.807086828,-85.9866205179999,456,"2683 HARVICH DR, INDIANAPOLIS, IN, 46224","Match","Non_Exact","2683 HARWICH DR, INDIANAPOLIS, IN, 46229",108012945,"R"
145957,"2683 HARWICH DR","INDIANAPOLIS","IN",46224,39.807086828,-85.9866205179999,457,"2683 HARWICH DR, INDIANAPOLIS, IN, 46224","Match","Non_Exact","2683 HARWICH DR, INDIANAPOLIS, IN, 46229",108012945,"R"
145958,"2683 ORCHARD LAKE ROAD","SYLVAN LAKE","MI",48320,42.60805013,-83.337902253,458,"2683 ORCHARD LAKE ROAD, SYLVAN LAKE, MI, 48320","Match","Exact","2683 ORCHARD LAKE RD, SYLVAN LAKE, MI, 48320",69703376,"L"
145959,"2683 VALIANT DRIVE","CLERMONT","FL",34711,28.4942308510001,-81.702272482,459,"2683 VALIANT DRIVE, CLERMONT, FL, 34711","Match","Exact","2683 VALIANT DR, CLERMONT, FL, 34711",94213948,"R"
145960,"2683 VIA DE LA VALLE  G218","DEL MAR","CA",92014,NA,NA,460,"2683 VIA DE LA VALLE  G218, DEL MAR, CA, 92014","No_Match",NA,NA,NA,NA
145961,"2683 VIA DE LA VALLE G230","DEL MAR","CA",92014,NA,NA,461,"2683 VIA DE LA VALLE G230, DEL MAR, CA, 92014","No_Match",NA,NA,NA,NA
145962,"2683 VIA DE LA VALLE G607","DEL MAR","CA",92014,NA,NA,462,"2683 VIA DE LA VALLE G607, DEL MAR, CA, 92014","No_Match",NA,NA,NA,NA
145963,"2683 VIA DE LA VALLE G708","DEL MAR","CA",92014,NA,NA,463,"2683 VIA DE LA VALLE G708, DEL MAR, CA, 92014","No_Match",NA,NA,NA,NA
145964,"26830 FARRINGDON AVENUE","EUCLID","OH",44132,41.61123331,-81.496828676,464,"26830 FARRINGDON AVENUE, EUCLID, OH, 44132","Match","Exact","26830 FARRINGDON AVE, EUCLID, OH, 44132",61133099,"R"
145965,"26831 PROSPECT STREET","BORON","CA",93516,35.004175854,-117.653912258,465,"26831 PROSPECT STREET, BORON, CA, 93516","Match","Exact","26831 PROSPECT ST, BORON, CA, 93516",109028676,"R"
145966,"26831 STATE ROUTE 62","BELOIT","OH",44609,NA,NA,466,"26831 STATE ROUTE 62, BELOIT, OH, 44609","No_Match",NA,NA,NA,NA
145967,"26833 SOUTHWESTERN HWY","REDFORD","MI",48239,42.3672171330001,-83.307533311,467,"26833 SOUTHWESTERN HWY, REDFORD, MI, 48239","Match","Exact","26833 SOUTHWESTERN HWY, REDFORD, MI, 48239",95427835,"L"
145968,"26833 STILLBROOK DR","WESLEY CHAPEL","FL",33544,28.209527371,-82.372522491,468,"26833 STILLBROOK DR, WESLEY CHAPEL, FL, 33544","Match","Exact","26833 STILLBROOK DR, WESLEY CHAPEL, FL, 33544",637644215,"L"
145969,"2684 ARBORDALE DR","HILLIARD","OH",43026,40.0048980400001,-83.179172495,469,"2684 ARBORDALE DR, HILLIARD, OH, 43026","Match","Exact","2684 ARBORDALE DR, HILLIARD, OH, 43026",641105415,"R"
145970,"2684 LA MORADA DRIVE","RIALTO","CA",92377,34.165289671,-117.427493113,470,"2684 LA MORADA DRIVE, RIALTO, CA, 92377","Match","Non_Exact","2684 W LA MORADA DR, RIALTO, CA, 92377",144966161,"L"
145971,"2684 LACY ST UNIT 113","LOS ANGELES","CA",90031,34.0828096550001,-118.219129638,471,"2684 LACY ST UNIT 113, LOS ANGELES, CA, 90031","Match","Exact","2684 LACY ST, LOS ANGELES, CA, 90031",640421429,"R"
145972,"2684 LACY STREET 219","LOS ANGELES","CA",90031,34.0828096550001,-118.219129638,472,"2684 LACY STREET 219, LOS ANGELES, CA, 90031","Match","Exact","2684 LACY ST, LOS ANGELES, CA, 90031",640421429,"R"
145973,"2684 SW GREENWICH WAY","PALM CITY","FL",34990,27.1746305340001,-80.286817357,473,"2684 SW GREENWICH WAY, PALM CITY, FL, 34990","Match","Exact","2684 SW GREENWICH WAY, PALM CITY, FL, 34990",120436219,"R"
145974,"2684 WATERS EDGE DR","GRAND PRAIRIE","TX",75054,32.606977935,-97.0501182739999,474,"2684 WATERS EDGE DR, GRAND PRAIRIE, TX, 75054","Match","Exact","2684 WATERS EDGE DR, GRAND PRAIRIE, TX, 75054",617671775,"R"
145975,"2684","CEDAR RAPIDS","IA",52406,NA,NA,475,"2684, CEDAR RAPIDS, IA, 52406","No_Match",NA,NA,NA,NA
145976,"26845 CHAPEL HILL DR","NORTH OLMSTED","OH",44070,41.4331205240001,-81.918880637,476,"26845 CHAPEL HILL DR, NORTH OLMSTED, OH, 44070","Match","Exact","26845 CHAPEL HILL DR, NORTH OLMSTED, OH, 44070",61138164,"L"
145977,"26848 CHESAPEAKE","REDFORD","MI",48239,42.376491872,-83.308225441,477,"26848 CHESAPEAKE, REDFORD, MI, 48239","Match","Exact","26848 CHESAPEAKE, REDFORD, MI, 48239",95427462,"R"
145978,"2685 ALTAIR STREET","GREEN BAY","WI",54311,44.4519238450001,-87.926517578,478,"2685 ALTAIR STREET, GREEN BAY, WI, 54311","Match","Exact","2685 ALTAIR ST, GREEN BAY, WI, 54311",148123732,"R"
145979,"2685 BROOKDALE DR","SPRINGFIELD","OH",45502,39.8869852230001,-83.911382997,479,"2685 BROOKDALE DR, SPRINGFIELD, OH, 45502","Match","Exact","2685 BROOKDALE DR, SPRINGFIELD, OH, 45502",135007787,"R"
145980,"2685 ELDORADO PLACE","SNELLVILLE","GA",30078,33.85011805,-84.005097263,480,"2685 ELDORADO PLACE, SNELLVILLE, GA, 30078","Match","Exact","2685 ELDORADO PL, SNELLVILLE, GA, 30078",88890589,"R"
145981,"2685 HAMPHIRE PIKE","COLUMBIA","TN",38401,NA,NA,481,"2685 HAMPHIRE PIKE, COLUMBIA, TN, 38401","No_Match",NA,NA,NA,NA
145982,"2685 HAMPSHIRE PIKE","COLUMBIA","TN",38401,35.6159828080001,-87.184069334,482,"2685 HAMPSHIRE PIKE, COLUMBIA, TN, 38401","Match","Exact","2685 HAMPSHIRE PIKE, COLUMBIA, TN, 38401",26903101,"L"
145983,"2685 LORAIN RD","SAN MARINO","CA",91108,34.119446399,-118.097071854,483,"2685 LORAIN RD, SAN MARINO, CA, 91108","Match","Exact","2685 LORAIN RD, SAN MARINO, CA, 91108",141633828,"L"
145984,"2685 MARYVILLE DRIVE","DUBUQUE","IA",52001,42.517399465,-90.705377695,484,"2685 MARYVILLE DRIVE, DUBUQUE, IA, 52001","Match","Exact","2685 MARYVILLE DR, DUBUQUE, IA, 52001",16907170,"L"
145985,"2685 MERRITTS MILL ROAD","MARIANNA","FL",32446,30.7608680550001,-85.192790794,485,"2685 MERRITTS MILL ROAD, MARIANNA, FL, 32446","Match","Exact","2685 MERRITTS MILL RD, MARIANNA, FL, 32446",7181532,"L"
145986,"2685 METROPOLITAN PKWY SW SUITE J 1","ATLANTA","GA",30315,33.6816665420001,-84.407729677,486,"2685 METROPOLITAN PKWY SW SUITE J 1, ATLANTA, GA, 30315","Match","Exact","2685 METROPOLITAN PKWY SW, ATLANTA, GA, 30315",17349410,"R"
145987,"2685 MOERLAND DR NW","GRAND RAPIDS","MI",49504,42.9998153020001,-85.7338127199999,487,"2685 MOERLAND DR NW, GRAND RAPIDS, MI, 49504","Match","Exact","2685 MOERLAND DR NW, GRAND RAPIDS, MI, 49504",12499172,"R"
145988,"2685 PALA MESA","COSTA MESA","CA",92627,33.6639540480001,-117.892192194,488,"2685 PALA MESA, COSTA MESA, CA, 92627","Match","Non_Exact","2685 PALA MESA CT, COSTA MESA, CA, 92627",624520574,"R"
145989,"2685 S DAYTON WAY APT 82","DENVER","CO",80231,39.6668562580001,-104.873029759,489,"2685 S DAYTON WAY APT 82, DENVER, CO, 80231","Match","Non_Exact","2685 S DAYTON WAY, DENVER, CO, 80231",642913064,"R"
145990,"2685 S JOSEPHINE ST","DENVER","CO",80210,39.667907346,-104.95796569,490,"2685 S JOSEPHINE ST, DENVER, CO, 80210","Match","Exact","2685 S JOSEPHINE ST, DENVER, CO, 80210",177627999,"R"
145991,"2685 S WOODLOCH ST","CONROE","TX",77385,30.21691638,-95.417591089,491,"2685 S WOODLOCH ST, CONROE, TX, 77385","Match","Exact","2685 S WOODLOCH ST, CONROE, TX, 77385",79302976,"L"
145992,"2685 SABAL SPRINGS CIRCLE UNIT 202","CLEARWATER","FL",33761,28.019898369,-82.726402198,492,"2685 SABAL SPRINGS CIRCLE UNIT 202, CLEARWATER, FL, 33761","Match","Exact","2685 SABAL SPRINGS CIR, CLEARWATER, FL, 33761",124755214,"R"
145993,"2685 SHILLINGFORD CIRCLE NW","NORTH CANTON","OH",44720,40.9244861220001,-81.394905246,493,"2685 SHILLINGFORD CIRCLE NW, NORTH CANTON, OH, 44720","Match","Exact","2685 SHILLINGFORD CIR NW, NORTH CANTON, OH, 44720",64709075,"L"
145994,"2685 SOLIDAGO DR","PLAINFIELD","IN",46168,39.7238832690001,-86.374005002,494,"2685 SOLIDAGO DR, PLAINFIELD, IN, 46168","Match","Exact","2685 SOLIDAGO DR, PLAINFIELD, IN, 46168",646622576,"R"
145995,"2685 SOUTH RAINBOW BLVD SUITE 100","LAS VEGAS","NV",89146,NA,NA,495,"2685 SOUTH RAINBOW BLVD SUITE 100, LAS VEGAS, NV, 89146","No_Match",NA,NA,NA,NA
145996,"2685 W CEDAR BLUFF RD","BLOOMINGTON","IN",47403,39.0422794670001,-86.567259188,496,"2685 W CEDAR BLUFF RD, BLOOMINGTON, IN, 47403","Match","Exact","2685 W CEDAR BLUFF RD, BLOOMINGTON, IN, 47403",42333509,"L"
145997,"26850  SUN CITY BLVD","SUN CITY","CA",92586,33.708966726,-117.192816581,497,"26850  SUN CITY BLVD, SUN CITY, CA, 92586","Match","Exact","26850 SUN CITY BLVD, SUN CITY, CA, 92586",194712642,"L"
145998,"26850 EAST US 380  APT 5405","AUBREY","TX",76227,NA,NA,498,"26850 EAST US 380  APT 5405, AUBREY, TX, 76227","No_Match",NA,NA,NA,NA
145999,"26850 US HIGHWAY 380 EAST SUITE 207","AUBREY","TX",76227,NA,NA,499,"26850 US HIGHWAY 380 EAST SUITE 207, AUBREY, TX, 76227","No_Match",NA,NA,NA,NA
146000,"26851 LA ALAMEDA  UNIT 813","MISSION VIEJO","CA",92691,33.5640062680001,-117.667939383,500,"26851 LA ALAMEDA  UNIT 813, MISSION VIEJO, CA, 92691","Match","Non_Exact","26851 LA ALAMEDA, MISSION VIEJO, CA, 92691",144071154,"L"
