"ID","Address","City","State","Zip","lat","long","id","input_address","match_indicator","match_type","matched_address","tiger_line_id","tiger_side"
172501,"323 JEFFERSON STREET","BURLINGTON","IA",52601,40.81001488,-91.103014165,1,"323 JEFFERSON STREET, BURLINGTON, IA, 52601","Match","Exact","323 JEFFERSON ST, BURLINGTON, IA, 52601",5542055,"L"
172502,"323 KINGSTON RD","JACKSONVILLE","NC",28546,34.8173465090001,-77.408255835,2,"323 KINGSTON RD, JACKSONVILLE, NC, 28546","Match","Exact","323 KINGSTON RD, JACKSONVILLE, NC, 28546",636147007,"L"
172503,"323 LAKESIDE CROSSING","MOUNT JOY","PA",17552,40.110561626,-76.52901587,3,"323 LAKESIDE CROSSING, MOUNT JOY, PA, 17552","Match","Exact","323 LAKESIDE CROSSING, MOUNT JOY, PA, 17552",625190994,"R"
172504,"323 LAKEWOOD ROAD","NEPTUNE","NJ",7753,40.193538581,-74.0506196539999,4,"323 LAKEWOOD ROAD, NEPTUNE, NJ, 7753","Match","Exact","323 LAKEWOOD RD, NEPTUNE, NJ, 07753",90457896,"R"
172505,"323 LAUREL ST","PRESCOTT","AR",71857,33.802519933,-93.376086942,5,"323 LAUREL ST, PRESCOTT, AR, 71857","Match","Non_Exact","323 E LAUREL ST, PRESCOTT, AR, 71857",10259299,"R"
172506,"323 LAWRENCE AVE","LAKEWOOD","NJ",8701,40.1016867160001,-74.20705911,6,"323 LAWRENCE AVE, LAKEWOOD, NJ, 8701","Match","Exact","323 LAWRENCE AVE, LAKEWOOD, NJ, 08701",203723756,"R"
172507,"323 LENAPE DRIVE","BERWYN","AL",19312,NA,NA,7,"323 LENAPE DRIVE, BERWYN, AL, 19312","No_Match",NA,NA,NA,NA
172508,"323 LINDEN ST","BROOKLYN","NY",11237,40.6986111790001,-73.914290115,8,"323 LINDEN ST, BROOKLYN, NY, 11237","Match","Exact","323 LINDEN ST, BROOKLYN, NY, 11237",652211289,"L"
172509,"323 LIVINGSTON STREET","WESTFIELD","NJ",7090,40.6487917420001,-74.33649029,9,"323 LIVINGSTON STREET, WESTFIELD, NJ, 7090","Match","Exact","323 LIVINGSTON ST, WESTFIELD, NJ, 07090",60573735,"L"
172510,"323 MAIN ST","PORT WASHINGTON","NY",11050,40.832492432,-73.7004477199999,10,"323 MAIN ST, PORT WASHINGTON, NY, 11050","Match","Exact","323 MAIN ST, PORT WASHINGTON, NY, 11050",147658826,"L"
172511,"323 MAIN ST","SENECA","KS",66538,39.83427017,-96.057904557,11,"323 MAIN ST, SENECA, KS, 66538","Match","Exact","323 MAIN ST, SENECA, KS, 66538",10195673,"L"
172512,"323 MARTIN LUTHER KING BLVD","NEWARK","NJ",7102,40.7433412550001,-74.175928695,12,"323 MARTIN LUTHER KING BLVD, NEWARK, NJ, 7102","Match","Exact","323 DR MARTIN LUTHER KING JR BLVD, NEWARK, NJ, 07102",63467028,"R"
172513,"323 MCDANIEL AVENUE","WILMINGTON","DE",19803,39.7979469900001,-75.54171102,13,"323 MCDANIEL AVENUE, WILMINGTON, DE, 19803","Match","Exact","323 MCDANIEL AVE, WILMINGTON, DE, 19803",187256213,"L"
172514,"323 MICHELLE LANE","DALY CITY","CA",94015,37.656588954,-122.462171604,14,"323 MICHELLE LANE, DALY CITY, CA, 94015","Match","Exact","323 MICHELLE LN, DALY CITY, CA, 94015",192371085,"L"
172515,"323 MILLER AVENUE","44240","OH",44240,41.1563735230001,-81.349175083,15,"323 MILLER AVENUE, 44240, OH, 44240","Match","Non_Exact","323 MILLER AVE, KENT, OH, 44240",137516217,"R"
172516,"323 MIMOSA DRIVE","DECATUR","GA",30030,33.759232136,-84.289542474,16,"323 MIMOSA DRIVE, DECATUR, GA, 30030","Match","Exact","323 MIMOSA DR, DECATUR, GA, 30030",23367499,"R"
172517,"323 N 26TH ST","CAMP HILL","PA",17011,40.246144793,-76.927858268,17,"323 N 26TH ST, CAMP HILL, PA, 17011","Match","Exact","323 N 26TH ST, CAMP HILL, PA, 17011",647885130,"R"
172518,"323 N 5TH AVE","SEQUIM","WA",98382,48.0817309130001,-123.113136573,18,"323 N 5TH AVE, SEQUIM, WA, 98382","Match","Exact","323 N 5TH AVE, SEQUIM, WA, 98382",150852372,"L"
172519,"323 N 8TH ST","ST JOSEPH","MO",64501,39.7684360600001,-94.850720461,19,"323 N 8TH ST, ST JOSEPH, MO, 64501","Match","Exact","323 N 8TH ST, SAINT JOSEPH, MO, 64501",15952277,"R"
172520,"323 N GILBERT AVE","CLEVELAND","OK",74020,36.3117159780001,-96.476485667,20,"323 N GILBERT AVE, CLEVELAND, OK, 74020","Match","Exact","323 N GILBERT AVE, CLEVELAND, OK, 74020",166320845,"R"
172521,"323 N LOCUST ST","APPLETON","WV",54914,NA,NA,21,"323 N LOCUST ST, APPLETON, WV, 54914","No_Match",NA,NA,NA,NA
172522,"323 N Main St","SUMTER","SC",29150,NA,NA,22,"323 N Main St, SUMTER, SC, 29150","Tie",NA,NA,NA,NA
172523,"323 N MAIN STREET","TENNYSON","IN",47637,38.084184201,-87.11815354,23,"323 N MAIN STREET, TENNYSON, IN, 47637","Match","Exact","323 N MAIN ST, TENNYSON, IN, 47637",32221101,"L"
172524,"323 N MARKET ST","BUSHNELL","FL",33513,28.6653926660001,-82.112050148,24,"323 N MARKET ST, BUSHNELL, FL, 33513","Match","Exact","323 N MARKET ST, BUSHNELL, FL, 33513",86492153,"R"
172525,"323 N PARK ST","GIFFORD","IL",61847,40.3052924880001,-88.019611416,25,"323 N PARK ST, GIFFORD, IL, 61847","Match","Exact","323 N PARK ST, GIFFORD, IL, 61847",8807739,"L"
172526,"323 NEW ALBANY ROAD","MOORESTOWN","NJ",8057,39.964033499,-74.974650234,26,"323 NEW ALBANY ROAD, MOORESTOWN, NJ, 8057","Match","Exact","323 NEW ALBANY RD, MOORESTOWN, NJ, 08057",617127126,"L"
172527,"323 NORTH GILBERT STREET","CLEVELAND","OK",74020,36.31171075,-96.4764855879999,27,"323 NORTH GILBERT STREET, CLEVELAND, OK, 74020","Match","Non_Exact","323 N GILBERT AVE, CLEVELAND, OK, 74020",166320845,"R"
172528,"323 NORTHWALNUT STREET","CARLISLE","KY",40311,NA,NA,28,"323 NORTHWALNUT STREET, CARLISLE, KY, 40311","No_Match",NA,NA,NA,NA
172529,"323 NW 2ND STREET","RESERVE","LA",70084,30.0621100810001,-90.554725215,29,"323 NW 2ND STREET, RESERVE, LA, 70084","Match","Exact","323 NW 2ND ST, RESERVE, LA, 70084",93687645,"L"
172530,"323 OLD KINGSTON ROAD","NEW PALTZ","NY",12561,41.779060669,-74.075475066,30,"323 OLD KINGSTON ROAD, NEW PALTZ, NY, 12561","Match","Exact","323 OLD KINGSTON RD, NEW PALTZ, NY, 12561",41871534,"L"
172531,"323 PATTERSON STREET","LAFAYETTE","LA",70501,30.246675242,-92.01932034,31,"323 PATTERSON STREET, LAFAYETTE, LA, 70501","Match","Exact","323 PATTERSON ST, LAFAYETTE, LA, 70501",85628248,"L"
172532,"323 PLAZA STREET NE","LEESBURG","VA",20176,NA,NA,32,"323 PLAZA STREET NE, LEESBURG, VA, 20176","No_Match",NA,NA,NA,NA
172533,"323 PLUMWOOD CIR","KISSIMMEE","FM",34743,NA,NA,33,"323 PLUMWOOD CIR, KISSIMMEE, FM, 34743","No_Match",NA,NA,NA,NA
172534,"323 PROSPECT PLACE","BROOKLYN","NY",11238,40.677002949,-73.9656552549999,34,"323 PROSPECT PLACE, BROOKLYN, NY, 11238","Match","Exact","323 PROSPECT PL, BROOKLYN, NY, 11238",59078412,"L"
172535,"323 RAINBOW ROAD","ADVANCE","NC",27006,35.9870369230001,-80.49381799,35,"323 RAINBOW ROAD, ADVANCE, NC, 27006","Match","Exact","323 RAINBOW RD, ADVANCE, NC, 27006",640641273,"L"
172536,"323 RATHBUN STREET","WOONSOCKET","RI",2895,42.0133591370001,-71.502870206,36,"323 RATHBUN STREET, WOONSOCKET, RI, 2895","Match","Exact","323 RATHBUN ST, WOONSOCKET, RI, 02895",47477353,"R"
172537,"323 REID STREET","HOUSTON","TX",77022,29.814708781,-95.367523348,37,"323 REID STREET, HOUSTON, TX, 77022","Match","Exact","323 REID ST, HOUSTON, TX, 77022",96565665,"L"
172538,"323 RIDGEPOINT CIRCLE","BRIDGEVILLE","PA",15017,40.32599291,-80.1253186009999,38,"323 RIDGEPOINT CIRCLE, BRIDGEVILLE, PA, 15017","Match","Non_Exact","323 RIDGE POINT CIR, BRIDGEVILLE, PA, 15017",51618704,"R"
172539,"323 RIVERSIDE DR","WAUCHULA","FL",33873,27.557501012,-81.7966216579999,39,"323 RIVERSIDE DR, WAUCHULA, FL, 33873","Match","Exact","323 RIVERSIDE DR, WAUCHULA, FL, 33873",611119960,"R"
172540,"323 ROYAL CREST CIRCLE","KATHLEEN","GA",31047,32.5398371000001,-83.710507783,40,"323 ROYAL CREST CIRCLE, KATHLEEN, GA, 31047","Match","Exact","323 ROYAL CREST CIR, KATHLEEN, GA, 31047",618742478,"L"
172541,"323 RUE CHATEAU","THIBODAUX","LA",70301,29.809578458,-90.84823342,41,"323 RUE CHATEAU, THIBODAUX, LA, 70301","Match","Exact","323 RUE CHATEAU, THIBODAUX, LA, 70301",648294803,"L"
172542,"323 S  MAIN ST","SOCIETY HILL","SC",29593,34.5082616720001,-79.8555793,42,"323 S  MAIN ST, SOCIETY HILL, SC, 29593","Match","Exact","323 S MAIN ST, SOCIETY HILL, SC, 29593",78416371,"R"
172543,"323 S 132ND S","OMAHA","NE",68154,NA,NA,43,"323 S 132ND S, OMAHA, NE, 68154","No_Match",NA,NA,NA,NA
172544,"323 S BOYER AVE","SANDPOINT","ID",83864,48.270634167,-116.557022019,44,"323 S BOYER AVE, SANDPOINT, ID, 83864","Match","Exact","323 S BOYER AVE, SANDPOINT, ID, 83864",169476447,"R"
172545,"323 S COLLEGE AVENUE SUITE 1","FORT COLLINS","CO",80524,NA,NA,45,"323 S COLLEGE AVENUE SUITE 1, FORT COLLINS, CO, 80524","Tie",NA,NA,NA,NA
172546,"323 S EAST AVD","OAK PARK","IL",60302,41.882475604,-87.7894377269999,46,"323 S EAST AVD, OAK PARK, IL, 60302","Match","Exact","323 S EAST AVE, OAK PARK, IL, 60302",605117839,"R"
172547,"323 S LOCUST ST","PALMYRA","PA",17078,40.3034438020001,-76.595624973,47,"323 S LOCUST ST, PALMYRA, PA, 17078","Match","Exact","323 S LOCUST ST, PALMYRA, PA, 17078",80671324,"L"
172548,"323 S SPORTING HILL RD","MECHANICSBURG","PA",17050,40.2302273270001,-76.971325838,48,"323 S SPORTING HILL RD, MECHANICSBURG, PA, 17050","Match","Exact","323 S SPORTING HILL RD, MECHANICSBURG, PA, 17050",606998014,"L"
172549,"323 S WASHINGTON ST","SHELBY","NC",28150,35.2883443310001,-81.5391033879999,49,"323 S WASHINGTON ST, SHELBY, NC, 28150","Match","Exact","323 S WASHINGTON ST, SHELBY, NC, 28150",19318260,"R"
172550,"323 SAINT JOHNS AVENUE","PALATKA","FM",32177,NA,NA,50,"323 SAINT JOHNS AVENUE, PALATKA, FM, 32177","No_Match",NA,NA,NA,NA
172551,"323 SANDALWOOD DR","MANDEVILLE","LA",70448,30.383588327,-90.0701319839999,51,"323 SANDALWOOD DR, MANDEVILLE, LA, 70448","Match","Exact","323 SANDALWOOD DR, MANDEVILLE, LA, 70448",611482618,"R"
172552,"323 SHADY GROVE RD","KINGS MTN","NC",28086,35.2548117310001,-81.2873132729999,52,"323 SHADY GROVE RD, KINGS MTN, NC, 28086","Match","Exact","323 SHADY GROVE RD, KINGS MOUNTAIN, NC, 28086",70453190,"L"
172553,"323 SHAW AVENUE","CLAIRTON","PA",15025,40.2965533400001,-79.881526375,53,"323 SHAW AVENUE, CLAIRTON, PA, 15025","Match","Exact","323 SHAW AVE, CLAIRTON, PA, 15025",51660754,"R"
172554,"323 SHORE ROAD","BAY POINT","CA",94565,38.0389579970001,-121.969663787,54,"323 SHORE ROAD, BAY POINT, CA, 94565","Match","Exact","323 SHORE RD, BAY POINT, CA, 94565",629640915,"L"
172555,"323 SHORT WEYEL RD","MARION","TX",78124,29.5871841310001,-98.201180344,55,"323 SHORT WEYEL RD, MARION, TX, 78124","Match","Exact","323 SHORT WEYEL RD, MARION, TX, 78124",54851026,"L"
172556,"323 SOLLERS POINT ROAD","BALTIMORE","MD",21222,39.2449410880001,-76.508318683,56,"323 SOLLERS POINT ROAD, BALTIMORE, MD, 21222","Match","Exact","323 SOLLERS POINT RD, BALTIMORE, MD, 21222",191522913,"R"
172557,"323 SORRELWOOD DRIVE","LEAGUE CITY","TX",77573,29.5194706890001,-95.052965294,57,"323 SORRELWOOD DRIVE, LEAGUE CITY, TX, 77573","Match","Exact","323 SORRELWOOD DR, LEAGUE CITY, TX, 77573",96694985,"R"
172558,"323 SOUTH 7TH STREET","ELIZABETH","NJ",7202,40.6564466180001,-74.206416228,58,"323 SOUTH 7TH STREET, ELIZABETH, NJ, 7202","Match","Exact","323 S 7TH ST, ELIZABETH, NJ, 07202",60579067,"R"
172559,"323 ST JOHNS AVE","PALATKA","FL",32177,29.6466975720001,-81.631440834,59,"323 ST JOHNS AVE, PALATKA, FL, 32177","Match","Exact","323 ST JOHNS AVE, PALATKA, FL, 32177",86072772,"L"
172560,"323 STONEWOOD","SAN ANTONIO","TX",78216,29.570831438,-98.491354418,60,"323 STONEWOOD, SAN ANTONIO, TX, 78216","Match","Non_Exact","323 STONEWOOD ST, SAN ANTONIO, TX, 78216",101563851,"L"
172561,"323 SW ROYAL CT","LAKE CITY","FL",32024,30.120382002,-82.7194940489999,61,"323 SW ROYAL CT, LAKE CITY, FL, 32024","Match","Exact","323 SW ROYAL CT, LAKE CITY, FL, 32024",606834265,"R"
172562,"323 SWEETMANS LANE","MILLSTONE","NJ",8535,NA,NA,62,"323 SWEETMANS LANE, MILLSTONE, NJ, 8535","No_Match",NA,NA,NA,NA
172563,"323 SYCAMORE ROAD","SANTA MONICA","CA",90402,34.0312222040001,-118.515535538,63,"323 SYCAMORE ROAD, SANTA MONICA, CA, 90402","Match","Exact","323 SYCAMORE RD, SANTA MONICA, CA, 90402",142715235,"L"
172564,"323 SYLVANIA AVE","AVON BY THE SEA","NJ",7717,40.1923232440001,-74.01663178,64,"323 SYLVANIA AVE, AVON BY THE SEA, NJ, 7717","Match","Exact","323 SYLVANIA AVE, AVON BY SEA, NJ, 07717",90464477,"L"
172565,"323 TULLAMORE RD","MAGNOLIA","DE",19962,39.055750007,-75.508927996,65,"323 TULLAMORE RD, MAGNOLIA, DE, 19962","Match","Exact","323 TULLAMORE RD, MAGNOLIA, DE, 19962",601698906,"L"
172566,"323 UNIONVILLE INDIAN TRAIL RD STED","INDIAN TRAIL","NC",28079,35.0764421600001,-80.651584397,66,"323 UNIONVILLE INDIAN TRAIL RD STED, INDIAN TRAIL, NC, 28079","Match","Exact","323 UNIONVILLE INDIAN TRAIL RD, INDIAN TRAIL, NC, 28079",14201947,"L"
172567,"323 UNIVERSITY BLVD E","SILVER SPRING","MD",20901,39.0106454450001,-77.00133784,67,"323 UNIVERSITY BLVD E, SILVER SPRING, MD, 20901","Match","Exact","323 UNIVERSITY BLVD E, SILVER SPRING, MD, 20901",637214278,"L"
172568,"323 UPPER RIVER RD SUITE B","GALLIPOLIS","OH",45631,38.8332641710001,-82.155054083,68,"323 UPPER RIVER RD SUITE B, GALLIPOLIS, OH, 45631","Match","Exact","323 UPPER RIVER RD, GALLIPOLIS, OH, 45631",54974219,"R"
172569,"323 VERNON STREET","IRONTON","OH",45638,38.5339923500001,-82.6841074829999,69,"323 VERNON STREET, IRONTON, OH, 45638","Match","Exact","323 VERNON ST, IRONTON, OH, 45638",55009676,"R"
172570,"323 VICTORIA STREET","SAN FRANCISCO","NY",94132,NA,NA,70,"323 VICTORIA STREET, SAN FRANCISCO, NY, 94132","No_Match",NA,NA,NA,NA
172571,"323 VIKING DRIVE","BATTLE CREEK","MI",49017,42.3509607450001,-85.171159814,71,"323 VIKING DRIVE, BATTLE CREEK, MI, 49017","Match","Exact","323 VIKING DR, BATTLE CREEK, MI, 49017",11713524,"L"
172572,"323 VILLAGE SQUARE DRIVE","LEESVILLE","SC",29070,33.914187537,-81.518140009,72,"323 VILLAGE SQUARE DRIVE, LEESVILLE, SC, 29070","Match","Exact","323 VILLAGE SQUARE DR, LEESVILLE, SC, 29070",630185159,"L"
172573,"323 W 24TH ST","HAYS","KS",67601,38.884671988,-99.3298964959999,73,"323 W 24TH ST, HAYS, KS, 67601","Match","Exact","323 W 24TH ST, HAYS, KS, 67601",149824494,"R"
172574,"323 W 30TH STREET","HOUSTON","TX",77018,29.813879575,-95.402082428,74,"323 W 30TH STREET, HOUSTON, TX, 77018","Match","Exact","323 W 30TH ST, HOUSTON, TX, 77018",96055179,"L"
172575,"323 W ALONDRA BLVD","GARDENA","CA",90248,33.8855818370001,-118.278909682,75,"323 W ALONDRA BLVD, GARDENA, CA, 90248","Match","Exact","323 W ALONDRA BLVD, GARDENA, CA, 90248",241243495,"R"
172576,"323 W BROADWAYSTE 504","LOUISVILLE","KY",40202,NA,NA,76,"323 W BROADWAYSTE 504, LOUISVILLE, KY, 40202","No_Match",NA,NA,NA,NA
172577,"323 W COTTON ST","LACONA","IA",50139,41.1875343350001,-93.389219484,77,"323 W COTTON ST, LACONA, IA, 50139","Match","Exact","323 W COTTON ST, LACONA, IA, 50139",83767176,"R"
172578,"323 W DOGWOOD ST","SCRANTON","KS",66537,38.7750730060001,-95.742673453,78,"323 W DOGWOOD ST, SCRANTON, KS, 66537","Match","Exact","323 DOGWOOD ST, SCRANTON, KS, 66537",11215424,"L"
172579,"323 W LOCUST ST  APT B","LODI","CA",95240,38.1363640380001,-121.26715934,79,"323 W LOCUST ST  APT B, LODI, CA, 95240","Match","Non_Exact","323 E LOCUST ST, LODI, CA, 95240",639647691,"L"
172580,"323 W MAIN STREET","WASHINGTON","MO",63090,38.5608787130001,-91.013415885,80,"323 W MAIN STREET, WASHINGTON, MO, 63090","Match","Exact","323 W MAIN ST, WASHINGTON, MO, 63090",99717406,"R"
172581,"323 W SOUTH STREET","CAMBRIDGE","IL",61238,41.2995036140001,-90.196822633,81,"323 W SOUTH STREET, CAMBRIDGE, IL, 61238","Match","Exact","323 W SOUTH ST, CAMBRIDGE, IL, 61238",8909152,"L"
172582,"323 W SPRINGER","GUTHRIE","OK",73044,35.8748885580001,-97.427893866,82,"323 W SPRINGER, GUTHRIE, OK, 73044","Match","Non_Exact","323 W SPRINGER AVE, GUTHRIE, OK, 73044",121959451,"L"
172583,"323 WALL STREET","KINGSTON","NY",12401,41.934187256,-74.019788659,83,"323 WALL STREET, KINGSTON, NY, 12401","Match","Exact","323 WALL ST, KINGSTON, NY, 12401",41864551,"L"
172584,"323 WASHINGTON AVE ROOM 7","MIAMI BEACH","FL",33139,25.772719769,-80.134561333,84,"323 WASHINGTON AVE ROOM 7, MIAMI BEACH, FL, 33139","Match","Exact","323 WASHINGTON AVE, MIAMI BEACH, FL, 33139",116020746,"R"
172585,"323 WEATHERBY PLACE","HAINES CITY","FL",33844,28.108629153,-81.6547824519999,85,"323 WEATHERBY PLACE, HAINES CITY, FL, 33844","Match","Exact","323 WEATHERBY PL, HAINES CITY, FL, 33844",614468103,"R"
172586,"323 WEST 96TH NUMBER 1302","NEW YORK","NY",10025,40.795463225,-73.973691054,86,"323 WEST 96TH NUMBER 1302, NEW YORK, NY, 10025","Match","Non_Exact","323 W 96TH ST, NEW YORK, NY, 10025",59656560,"R"
172587,"323 WEST 96TH STREET","NEW YORK","NY",10025,40.795463225,-73.973691054,87,"323 WEST 96TH STREET, NEW YORK, NY, 10025","Match","Exact","323 W 96TH ST, NEW YORK, NY, 10025",59656560,"R"
172588,"323 WEST COLUMBIA AVENUE","BATESBURG","SC",29006,33.9070648570001,-81.538983005,88,"323 WEST COLUMBIA AVENUE, BATESBURG, SC, 29006","Match","Exact","323 W COLUMBIA AVE, BATESBURG, SC, 29006",70035301,"L"
172589,"323 WEST GOODWIN ST","PRESCOTT","AZ",86302,34.539996526,-112.472475299,89,"323 WEST GOODWIN ST, PRESCOTT, AZ, 86302","Match","Non_Exact","323 W GOODWIN ST, PRESCOTT, AZ, 86303",159457948,"L"
172590,"323 WEST MAIN ST","ANDOVER","OH",44003,41.6071131800001,-80.5800499009999,90,"323 WEST MAIN ST, ANDOVER, OH, 44003","Match","Exact","323 W MAIN ST, ANDOVER, OH, 44003",117323626,"L"
172591,"323 WEST NAVARRE ST","SOUTH BEND","IN",46616,41.6830927710001,-86.254614821,91,"323 WEST NAVARRE ST, SOUTH BEND, IN, 46616","Match","Exact","323 W NAVARRE ST, SOUTH BEND, IN, 46616",8088042,"R"
172592,"323 WEST ST","LANSING","MI",48915,42.7311066390001,-84.573942018,92,"323 WEST ST, LANSING, MI, 48915","Match","Exact","323 WEST ST, LANSING, MI, 48915",17519817,"L"
172593,"323 WEST WALNUT AVENUE","BASTROP","LA",71220,32.7752820590001,-91.917099516,93,"323 WEST WALNUT AVENUE, BASTROP, LA, 71220","Match","Exact","323 W WALNUT AVE, BASTROP, LA, 71220",75378890,"R"
172594,"323 WHEELER AVE","SELMA","AL",36701,32.4169812660001,-87.0437304339999,94,"323 WHEELER AVE, SELMA, AL, 36701","Match","Exact","323 WHEELER AVE, SELMA, AL, 36701",1285802,"R"
172595,"323 WICK AVE","YOUNGSTOWN","OH",44503,41.1034800370001,-80.6466654659999,95,"323 WICK AVE, YOUNGSTOWN, OH, 44503","Match","Exact","323 WICK AVE, YOUNGSTOWN, OH, 44503",638840598,"R"
172596,"323 WILLIAMS STREET","BEL AIR","MD",21014,39.5384069680001,-76.356854309,96,"323 WILLIAMS STREET, BEL AIR, MD, 21014","Match","Exact","323 WILLIAMS ST, BEL AIR, MD, 21014",191641015,"R"
172597,"323 WILLOWBEND CIRCLE","HOT SPRINGS","AR",71913,34.461442307,-93.084865827,97,"323 WILLOWBEND CIRCLE, HOT SPRINGS, AR, 71913","Match","Non_Exact","323 WILLOW BEND CIR, HOT SPRINGS, AR, 71913",627100084,"R"
172598,"323-325 NESBIT TERRACE","IRVINGTON","NJ",7111,40.7150253500001,-74.247369197,98,"323-325 NESBIT TERRACE, IRVINGTON, NJ, 7111","Match","Exact","323 NESBIT TER, IRVINGTON, NJ, 07111",63463728,"R"
172599,"323","COLFAX","CA",95713,NA,NA,99,"323, COLFAX, CA, 95713","No_Match",NA,NA,NA,NA
172600,"323","NAVARRE","OH",44662,NA,NA,100,"323, NAVARRE, OH, 44662","No_Match",NA,NA,NA,NA
172601,"323","NICHOLS","NY",13812,NA,NA,101,"323, NICHOLS, NY, 13812","No_Match",NA,NA,NA,NA
172602,"3230  BETHEL AVENUE","INDIANAPOLIS","IN",46203,39.7406533880001,-86.109780111,102,"3230  BETHEL AVENUE, INDIANAPOLIS, IN, 46203","Match","Exact","3230 BETHEL AVE, INDIANAPOLIS, IN, 46203",108000898,"L"
172603,"3230 ARENA BLVD STE 245-272","SACRAMENTO","CA",95834,38.6430358580001,-121.533217623,103,"3230 ARENA BLVD STE 245-272, SACRAMENTO, CA, 95834","Match","Exact","3230 ARENA BLVD, SACRAMENTO, CA, 95834",133400354,"R"
172604,"3230 ARENA BLVD STE 245","SACRAMENTO","CA",95834,38.6430358580001,-121.533217623,104,"3230 ARENA BLVD STE 245, SACRAMENTO, CA, 95834","Match","Exact","3230 ARENA BLVD, SACRAMENTO, CA, 95834",133400354,"R"
172605,"3230 ARGYLL DR","SANFORD","NC",27332,NA,NA,105,"3230 ARGYLL DR, SANFORD, NC, 27332","No_Match",NA,NA,NA,NA
172606,"3230 ASH MEADOW LANE","FRANKLIN","OH",45005,39.4967713390001,-84.2618059279999,106,"3230 ASH MEADOW LANE, FRANKLIN, OH, 45005","Match","Exact","3230 ASH MEADOW LN, FRANKLIN, OH, 45005",617732579,"L"
172607,"3230 BENTON BLVD","KANSAS CITY","MO",64128,39.0672154220001,-94.546080307,107,"3230 BENTON BLVD, KANSAS CITY, MO, 64128","Match","Exact","3230 BENTON BLVD, KANSAS CITY, MO, 64128",91450269,"R"
172608,"3230 BROWNSVILLE ROAD","PITTSBURGH","PA",15227,40.378408092,-79.975444093,108,"3230 BROWNSVILLE ROAD, PITTSBURGH, PA, 15227","Match","Exact","3230 BROWNSVILLE RD, PITTSBURGH, PA, 15227",51639611,"R"
172609,"3230 BRUNSWICK DRIVE","FLORISSANT","MO",63033,38.817467779,-90.305036313,109,"3230 BRUNSWICK DRIVE, FLORISSANT, MO, 63033","Match","Exact","3230 BRUNSWICK DR, FLORISSANT, MO, 63033",100143661,"R"
172610,"3230 CANAL PL","LAND O LAKES","FL",34639,28.20452929,-82.454918564,110,"3230 CANAL PL, LAND O LAKES, FL, 34639","Match","Exact","3230 CANAL PL, LAND O LAKES, FL, 34639",86352846,"R"
172611,"3230 CANDIAN STREET","KATY","TX",77493,29.822191843,-95.824156102,111,"3230 CANDIAN STREET, KATY, TX, 77493","Match","Non_Exact","3230 CANADIAN ST, KATY, TX, 77493",96130739,"R"
172612,"3230 CARR ST","FLINT","MI",48506,43.05441425,-83.648877353,112,"3230 CARR ST, FLINT, MI, 48506","Match","Exact","3230 CARR ST, FLINT, MI, 48506",644162228,"R"
172613,"3230 COUNTY ROAD 3230","BRAZORIA","TX",77422,NA,NA,113,"3230 COUNTY ROAD 3230, BRAZORIA, TX, 77422","No_Match",NA,NA,NA,NA
172614,"3230 DASHIELL ROAD","FALLS CHURCH","VA",22042,38.860218327,-77.173981673,114,"3230 DASHIELL ROAD, FALLS CHURCH, VA, 22042","Match","Exact","3230 DASHIELL RD, FALLS CHURCH, VA, 22042",75980779,"L"
172615,"3230 DERBY CIRCLE","HIGH POINT","NE",27265,NA,NA,115,"3230 DERBY CIRCLE, HIGH POINT, NE, 27265","No_Match",NA,NA,NA,NA
172616,"3230 DOGWOOD DRIVE","EAST POINT","GA",30344,33.668214914,-84.486008064,116,"3230 DOGWOOD DRIVE, EAST POINT, GA, 30344","Match","Exact","3230 DOGWOOD DR, EAST POINT, GA, 30344",17338564,"L"
172617,"3230 E SENECA STREET","TUCSON","AZ",85716,32.246953772,-110.92395317,117,"3230 E SENECA STREET, TUCSON, AZ, 85716","Match","Exact","3230 E SENECA ST, TUCSON, AZ, 85716",121174832,"R"
172618,"3230 E WOODMEN RD  SUITE 110A","COLORADO SPRINGS","CO",80920,38.9541147350001,-104.86901109,118,"3230 E WOODMEN RD  SUITE 110A, COLORADO SPRINGS, CO, 80920","Match","Non_Exact","3230 WOODMEN RD, COLO SPGS, CO, 80919",610692622,"L"
172619,"3230 EAST 50TH STREET","MINNEAPOLIS","MN",55417,44.9126072380001,-93.225216766,119,"3230 EAST 50TH STREET, MINNEAPOLIS, MN, 55417","Match","Exact","3230 E 50TH ST, MINNEAPOLIS, MN, 55417",43640506,"L"
172620,"3230 EAST BAY DRIVE 316","HOLMES BEACH","FL",34217,27.492027325,-82.7073451969999,120,"3230 EAST BAY DRIVE 316, HOLMES BEACH, FL, 34217","Match","Exact","3230 E BAY DR, HOLMES BEACH, FL, 34217",16296419,"L"
172621,"3230 ELLERSLIE AVE","BALTIMORE","MD",21218,39.327624583,-76.6036196279999,121,"3230 ELLERSLIE AVE, BALTIMORE, MD, 21218","Match","Exact","3230 ELLERSLIE AVE, BALTIMORE, MD, 21218",206409306,"L"
172622,"3230 FOX ROAD","MILLSAP","TX",76066,32.737157133,-97.907674325,122,"3230 FOX ROAD, MILLSAP, TX, 76066","Match","Exact","3230 FOX RD, MILLSAP, TX, 76066",103591899,"L"
172623,"3230 GARFIELD STREET","HOLLYWOOD","FL",33021,26.0209288080001,-80.1744905859999,123,"3230 GARFIELD STREET, HOLLYWOOD, FL, 33021","Match","Exact","3230 GARFIELD ST, HOLLYWOOD, FL, 33021",114729298,"L"
172624,"3230 HEITMAN DRIVE","CHARLOTTE","NC",27107,NA,NA,124,"3230 HEITMAN DRIVE, CHARLOTTE, NC, 27107","No_Match",NA,NA,NA,NA
172625,"3230 HENDERSON MILL RD UNIT 2","ATLANTA","GA",30341,33.8789221230001,-84.2488172179999,125,"3230 HENDERSON MILL RD UNIT 2, ATLANTA, GA, 30341","Match","Exact","3230 HENDERSON MILL RD, ATLANTA, GA, 30341",645265769,"L"
172626,"3230 HENDERSON MILL ROAD","ATLANTA","GA",30341,33.8789221230001,-84.2488172179999,126,"3230 HENDERSON MILL ROAD, ATLANTA, GA, 30341","Match","Exact","3230 HENDERSON MILL RD, ATLANTA, GA, 30341",645265769,"L"
172627,"3230 INDIAN CREEK DR","BUFFALO GROVE","IL",60089,42.2070870200001,-87.95674152,127,"3230 INDIAN CREEK DR, BUFFALO GROVE, IL, 60089","Match","Exact","3230 INDIAN CREEK DR, BUFFALO GROVE, IL, 60089",119719891,"L"
172628,"3230 MEADWAY DR","HOUSTON","TX",77082,29.728832966,-95.6095373219999,128,"3230 MEADWAY DR, HOUSTON, TX, 77082","Match","Exact","3230 MEADWAY DR, HOUSTON, TX, 77082",96021590,"L"
172629,"3230 NC HIGHWAY 111 N","GOLDSBORO","NC",27534,NA,NA,129,"3230 NC HIGHWAY 111 N, GOLDSBORO, NC, 27534","No_Match",NA,NA,NA,NA
172630,"3230 NW 204 TERRACE","MIAMI GARDENS","FL",33056,25.9608578350001,-80.255710202,130,"3230 NW 204 TERRACE, MIAMI GARDENS, FL, 33056","Match","Non_Exact","3230 NW 204TH TER, MIAMI GARDENS, FL, 33056",116064618,"L"
172631,"3230 NW 4TH STREET APT 106","POMPANO BEACH","FL",33069,NA,NA,131,"3230 NW 4TH STREET APT 106, POMPANO BEACH, FL, 33069","No_Match",NA,NA,NA,NA
172632,"3230 O ST SE","WASHINGTON","DC",20020,NA,NA,132,"3230 O ST SE, WASHINGTON, DC, 20020","No_Match",NA,NA,NA,NA
172633,"3230 PARKSIDE CENTER CIR","TAMPA","FL",33619,27.973195682,-82.3361236539999,133,"3230 PARKSIDE CENTER CIR, TAMPA, FL, 33619","Match","Exact","3230 PARKSIDE CENTER CIR, TAMPA, FL, 33619",104668008,"L"
172634,"3230 S BIRCHETT DR","TEMPE","AZ",85282,33.393551066,-111.884342508,134,"3230 S BIRCHETT DR, TEMPE, AZ, 85282","Match","Exact","3230 S BIRCHETT DR, TEMPE, AZ, 85282",128233335,"R"
172635,"3230 S BUFFALO DR  STE 107","LAS VEGAS","NV",89117,36.130365571,-115.260975607,135,"3230 S BUFFALO DR  STE 107, LAS VEGAS, NV, 89117","Match","Non_Exact","3230 S BUFFALO DR, LAS VEGAS, NV, 89117",201861660,"L"
172636,"3230 SABRINA LN","FLORISSANT","MO",63031,38.828516467,-90.31801288,136,"3230 SABRINA LN, FLORISSANT, MO, 63031","Match","Exact","3230 SABRINA LN, FLORISSANT, MO, 63031",100116372,"R"
172637,"3230 SAN BRUNO AVE","SAN FRANCISCO","CA",94134,37.721078101,-122.400899871,137,"3230 SAN BRUNO AVE, SAN FRANCISCO, CA, 94134","Match","Exact","3230 SAN BRUNO AVE, SAN FRANCISCO, CA, 94134",640992571,"R"
172638,"3230 SANTA MONICA AVE","FULLERTON","CA",92835,33.9082069070001,-117.93165989,138,"3230 SANTA MONICA AVE, FULLERTON, CA, 92835","Match","Non_Exact","3230 N SANTA MONICA AVE, FULLERTON, CA, 92835",624955961,"R"
172639,"3230 SCENIC BROOK DRIVE SW","CONYERS","GA",30094,33.661055597,-84.08975724,139,"3230 SCENIC BROOK DRIVE SW, CONYERS, GA, 30094","Match","Exact","3230 SCENIC BROOK DR SW, CONYERS, GA, 30094",23745287,"L"
172640,"3230 SHADOW LAKE LANE","MATTHEWS","NC",28104,35.1410498450001,-80.631687259,140,"3230 SHADOW LAKE LANE, MATTHEWS, NC, 28104","Match","Exact","3230 SHADOW LAKE LN, MATTHEWS, NC, 28104",14198175,"R"
172641,"3230 SUNSET DR","REDDING","CA",96001,40.586467043,-122.420004466,141,"3230 SUNSET DR, REDDING, CA, 96001","Match","Exact","3230 SUNSET DR, REDDING, CA, 96001",126626851,"R"
172642,"3230 SW VERMONT ST","PORTLAND","OR",97219,45.4760840440001,-122.710166439,142,"3230 SW VERMONT ST, PORTLAND, OR, 97219","Match","Exact","3230 SW VERMONT ST, PORTLAND, OR, 97219",157500076,"L"
172643,"3230 SWEETWATER DRIVE","CUMMING","GA",30041,34.173389725,-84.082928158,143,"3230 SWEETWATER DRIVE, CUMMING, GA, 30041","Match","Exact","3230 SWEETWATER DR, CUMMING, GA, 30041",70184064,"R"
172644,"3230 SYCAMORE RD NUM 300","DEKALB","IL",60115,41.967107179,-88.719003978,144,"3230 SYCAMORE RD NUM 300, DEKALB, IL, 60115","Match","Exact","3230 SYCAMORE RD, DEKALB, IL, 60115",647909777,"R"
172645,"3230 TUCKER POINTE DRIVE","TUCKER","GA",30084,NA,NA,145,"3230 TUCKER POINTE DRIVE, TUCKER, GA, 30084","No_Match",NA,NA,NA,NA
172646,"3230 VILLA LANE","NAPA","CA",94558,38.3218152690001,-122.292565709,146,"3230 VILLA LANE, NAPA, CA, 94558","Match","Exact","3230 VILLA LN, NAPA, CA, 94558",67425961,"R"
172647,"3230 W 66TH STREET UNIT 1","CHICAGO","IL",60629,41.7735115290001,-87.7035987639999,147,"3230 W 66TH STREET UNIT 1, CHICAGO, IL, 60629","Match","Non_Exact","3230 W 66TH ST, CHICAGO, IL, 60629",111819420,"R"
172648,"3230 WALLACE BUIE ROAD","WEBB","AL",36376,31.2723258190001,-85.230634998,148,"3230 WALLACE BUIE ROAD, WEBB, AL, 36376","Match","Exact","3230 WALLACE BUIE RD, WEBB, AL, 36376",101206519,"L"
172649,"3230 WESSINGER ROAD","CHAPIN","SC",29036,34.1010468700001,-81.3316378979999,149,"3230 WESSINGER ROAD, CHAPIN, SC, 29036","Match","Exact","3230 WESSINGER RD, CHAPIN, SC, 29036",70047603,"L"
172650,"3230 WHITNEY","DETROIT","MI",48206,42.3613989230001,-83.108151165,150,"3230 WHITNEY, DETROIT, MI, 48206","Match","Non_Exact","3230 WHITNEY ST, DETROIT, MI, 48206",95472286,"R"
172651,"3230 WOODBRIDGE AVE","CANTON","CA",44718,NA,NA,151,"3230 WOODBRIDGE AVE, CANTON, CA, 44718","No_Match",NA,NA,NA,NA
172652,"32301 2ND AVE SW","FEDERAL WAY","WA",98023,47.312136825,-122.337021274,152,"32301 2ND AVE SW, FEDERAL WAY, WA, 98023","Match","Exact","32301 2ND AVE SW, FEDERAL WAY, WA, 98023",186648837,"L"
172653,"32303 WATERSMEET","FULSHEAR","TX",77441,29.6810682340001,-95.9295183579999,153,"32303 WATERSMEET, FULSHEAR, TX, 77441","Match","Exact","32303 WATERSMEET, FULSHEAR, TX, 77441",78282679,"R"
172654,"32304 KEILA DRIVE","SPRINGFIELD","LA",70462,30.367409652,-90.540293198,154,"32304 KEILA DRIVE, SPRINGFIELD, LA, 70462","Match","Exact","32304 KEILA DR, SPRINGFIELD, LA, 70462",635284007,"R"
172655,"32305 LEPRECHAUN LANE","BONSALL","CA",92003,33.299000591,-117.167704823,155,"32305 LEPRECHAUN LANE, BONSALL, CA, 92003","Match","Exact","32305 LEPRECHAUN LN, BONSALL, CA, 92003",195287987,"R"
172656,"3231 ALLEN PKWY APT 1106","HOUSTON","TX",77019,29.7609316680001,-95.400895242,156,"3231 ALLEN PKWY APT 1106, HOUSTON, TX, 77019","Match","Exact","3231 ALLEN PKWY, HOUSTON, TX, 77019",653285781,"L"
172657,"3231 ARMOUR CT","MASON","OH",45040,39.3915150560001,-84.324790584,157,"3231 ARMOUR CT, MASON, OH, 45040","Match","Exact","3231 ARMOUR CT, MASON, OH, 45040",624931716,"R"
172658,"3231 AURBUN BLVD","MIAMI","FL",33312,NA,NA,158,"3231 AURBUN BLVD, MIAMI, FL, 33312","No_Match",NA,NA,NA,NA
172659,"3231 B CYPRESS PARK ROAD","GREENSBORO","NC",27407,36.030305588,-79.846097845,159,"3231 B CYPRESS PARK ROAD, GREENSBORO, NC, 27407","Match","Exact","3231 CYPRESS PARK RD, GREENSBORO, NC, 27407",131106356,"L"
172660,"3231 BAYVIEW WAY","PENSACOLA","FL",32503,30.451931862,-87.178567733,160,"3231 BAYVIEW WAY, PENSACOLA, FL, 32503","Match","Exact","3231 BAYVIEW WAY, PENSACOLA, FL, 32503",93307683,"L"
172661,"3231 C BUSINESS PARK DRIVE BOX 124","VISTA","CA",92081,33.1335048130001,-117.228630156,161,"3231 C BUSINESS PARK DRIVE BOX 124, VISTA, CA, 92081","Match","Non_Exact","3231 BUS PARK DR, VISTA, CA, 92081",195420801,"R"
172662,"3231 CLUB DRIVE","LOS ANGELES","CA",90064,34.0338789620001,-118.402016123,162,"3231 CLUB DRIVE, LOS ANGELES, CA, 90064","Match","Exact","3231 CLUB DR, LOS ANGELES, CA, 90064",141573680,"R"
172663,"3231 CONSERVATION PLACE 208","MELBOURNE","FL",32934,28.178727042,-80.677103093,163,"3231 CONSERVATION PLACE 208, MELBOURNE, FL, 32934","Match","Exact","3231 CONSERVATION PL, MELBOURNE, FL, 32934",630452814,"L"
172664,"3231 CRESTVIEW DRIVE","PINEVILLE","LA",71360,31.330000968,-92.391628391,164,"3231 CRESTVIEW DRIVE, PINEVILLE, LA, 71360","Match","Exact","3231 CRESTVIEW DR, PINEVILLE, LA, 71360",11785344,"L"
172665,"3231 DEERLANE DRIVE","DUARTE","CA",91010,34.149347532,-117.937132271,165,"3231 DEERLANE DRIVE, DUARTE, CA, 91010","Match","Exact","3231 DEERLANE DR, DUARTE, CA, 91010",142778997,"L"
172666,"3231 DENSON PLACE","CHARLOTTE","NC",28215,35.2413145260001,-80.7677860049999,166,"3231 DENSON PLACE, CHARLOTTE, NC, 28215","Match","Exact","3231 DENSON PL, CHARLOTTE, NC, 28215",70481436,"L"
172667,"3231 E THOMAS ST","INVERNESS","FL",34453,28.852281885,-82.380341721,167,"3231 E THOMAS ST, INVERNESS, FL, 34453","Match","Exact","3231 E THOMAS ST, INVERNESS, FL, 34453",86201532,"R"
172668,"3231 ELECTRIC ROAD","ROANOKE","VA",24018,37.2295397770001,-80.0078180629999,168,"3231 ELECTRIC ROAD, ROANOKE, VA, 24018","Match","Exact","3231 ELECTRIC RD, ROANOKE, VA, 24018",62924354,"R"
172669,"3231 GRANGE HALL RD","HOLLY","MI",48442,42.8058562530001,-83.639672904,169,"3231 GRANGE HALL RD, HOLLY, MI, 48442","Match","Exact","3231 GRANGE HALL RD, HOLLY, MI, 48442",69750241,"L"
172670,"3231 JOHN CONELY DR","LAPEER","MI",48446,43.0349679110001,-83.352008177,170,"3231 JOHN CONELY DR, LAPEER, MI, 48446","Match","Non_Exact","3231 JOHN CONLEY DR, LAPEER, MI, 48446",638730576,"L"
172671,"3231 LINA DRIVE","TUCKER","GA",30084,33.880143547,-84.217515068,171,"3231 LINA DRIVE, TUCKER, GA, 30084","Match","Exact","3231 LINA DR, TUCKER, GA, 30084",619386169,"R"
172672,"3231 MAYS CHAPEL RD","SANDORD","NC",27330,35.622376988,-79.209054363,172,"3231 MAYS CHAPEL RD, SANDORD, NC, 27330","Match","Non_Exact","3231 MAYS CHAPEL RD, SANFORD, NC, 27330",71348160,"R"
172673,"3231 MORGAN CLARK ROAD","CHARLOTTE","NC",28208,35.228766755,-80.876149901,173,"3231 MORGAN CLARK ROAD, CHARLOTTE, NC, 28208","Match","Exact","3231 MORGAN CLARK RD, CHARLOTTE, NC, 28208",648566890,"R"
172674,"3231 N KENMORE AVE APT 1N","CHICAGO","IL",60657,41.940795252,-87.6553421409999,174,"3231 N KENMORE AVE APT 1N, CHICAGO, IL, 60657","Match","Non_Exact","3231 N KENMORE AVE, CHICAGO, IL, 60657",605163783,"R"
172675,"3231 OLD BLUE RIDGE ST","SAN ANTONIO","TX",78230,29.5397403590001,-98.548553597,175,"3231 OLD BLUE RIDGE ST, SAN ANTONIO, TX, 78230","Match","Exact","3231 OLD BLUE RIDGE ST, SAN ANTONIO, TX, 78230",101569593,"L"
172676,"3231 PLYMOUTH ROCK DR","DOUGLASVILLE","GA",30135,33.725740204,-84.685154185,176,"3231 PLYMOUTH ROCK DR, DOUGLASVILLE, GA, 30135","Match","Exact","3231 PLYMOUTH ROCK DR, DOUGLASVILLE, GA, 30135",16651394,"L"
172677,"3231 RAMONA AVENUE","BALTIMORE","MD",21213,39.3243598350001,-76.565230624,177,"3231 RAMONA AVENUE, BALTIMORE, MD, 21213","Match","Exact","3231 RAMONA AVE, BALTIMORE, MD, 21213",647409901,"R"
172678,"3231 SUNSET DRIVE","JOPLIN","MO",64804,37.0586540780001,-94.553496181,178,"3231 SUNSET DRIVE, JOPLIN, MO, 64804","Match","Exact","3231 SUNSET DR, JOPLIN, MO, 64804",640636477,"R"
172679,"3231 TIMUCUA CIR","ORLANDO","FL",32837,28.3495611440001,-81.422934637,179,"3231 TIMUCUA CIR, ORLANDO, FL, 32837","Match","Exact","3231 TIMUCUA CIR, ORLANDO, FL, 32837",94338679,"R"
172680,"3231 W ALLEGHENY AVENUE","PHILADELPHIA","PA",19132,40.0054355140001,-75.182642932,180,"3231 W ALLEGHENY AVENUE, PHILADELPHIA, PA, 19132","Match","Non_Exact","3231 W ALLEGHENY AVE, PHILADELPHIA, PA, 19132",131401699,"R"
172681,"3231 WESTERN AVE","PARK FOREST","IL",60466,41.482814332,-87.674196646,181,"3231 WESTERN AVE, PARK FOREST, IL, 60466","Match","Exact","3231 WESTERN AVE, PARK FOREST, IL, 60466",605645718,"L"
172682,"3231-C BUSINESS PARK DR  SUITE 121","VISTA","CA",92081,33.1335184810001,-117.228636321,182,"3231-C BUSINESS PARK DR  SUITE 121, VISTA, CA, 92081","Match","Non_Exact","3231 BUS PARK DR, VISTA, CA, 92081",195420801,"R"
172683,"3231-C BUSINESS PARK DR STE 109","VISTA","CA",92081,33.1335184810001,-117.228636321,183,"3231-C BUSINESS PARK DR STE 109, VISTA, CA, 92081","Match","Non_Exact","3231 BUS PARK DR, VISTA, CA, 92081",195420801,"R"
172684,"3231","GARDENA","CA",90247,NA,NA,184,"3231, GARDENA, CA, 90247","No_Match",NA,NA,NA,NA
172685,"3232 150TH PLACE","FLUSHING","NY",11354,NA,NA,185,"3232 150TH PLACE, FLUSHING, NY, 11354","No_Match",NA,NA,NA,NA
172686,"3232 43RD STREET","SACRAMENTO","CA",95817,38.5451396190001,-121.456702624,186,"3232 43RD STREET, SACRAMENTO, CA, 95817","Match","Exact","3232 43RD ST, SACRAMENTO, CA, 95817",133389679,"R"
172687,"3232 BATAAN STREET","DALLAS","TX",75212,NA,NA,187,"3232 BATAAN STREET, DALLAS, TX, 75212","No_Match",NA,NA,NA,NA
172688,"3232 CALIFORNIA STREET","COSTA MESA","CA",92626,33.689683358,-117.932297834,188,"3232 CALIFORNIA STREET, COSTA MESA, CA, 92626","Match","Exact","3232 CALIFORNIA ST, COSTA MESA, CA, 92626",144039447,"R"
172689,"3232 CHARLEMAGNE AVENUE","LONG BEACH","CA",90808,33.8162189980001,-118.130422311,189,"3232 CHARLEMAGNE AVENUE, LONG BEACH, CA, 90808","Match","Non_Exact","3232 N CHARLEMAGNE AVE, LONG BEACH, CA, 90808",141700894,"R"
172690,"3232 CLIFTON AVE BOX 20551","SAINT LOUIIS","MO",63139,38.6034281660001,-90.294144499,190,"3232 CLIFTON AVE BOX 20551, SAINT LOUIIS, MO, 63139","Match","Non_Exact","3232 CLIFTON AVE, SAINT LOUIS, MO, 63139",605124732,"L"
172691,"3232 CLINTON AVENUE SOUTH FLOOR 2","MINNEAPOLIS","MN",55408,44.9443324120001,-93.271555978,191,"3232 CLINTON AVENUE SOUTH FLOOR 2, MINNEAPOLIS, MN, 55408","Match","Exact","3232 CLINTON AVE S, MINNEAPOLIS, MN, 55408",43633795,"R"
172692,"3232 CONNEMARA TRACE","LAWRENCEVILLE","GA",30044,33.8972885360001,-84.0793475299999,192,"3232 CONNEMARA TRACE, LAWRENCEVILLE, GA, 30044","Match","Exact","3232 CONNEMARA TRCE, LAWRENCEVILLE, GA, 30044",88915685,"L"
172693,"3232 COUNTRY CLUB DR","CAMERON PARK","CA",95682,38.660200165,-120.975466023,193,"3232 COUNTRY CLUB DR, CAMERON PARK, CA, 95682","Match","Exact","3232 COUNTRY CLUB DR, CAMERON PARK, CA, 95682",133024453,"L"
172694,"3232 COURT STREET","PEKIN","IL",61554,40.5475907860001,-89.60569865,194,"3232 COURT STREET, PEKIN, IL, 61554","Match","Exact","3232 COURT ST, PEKIN, IL, 61554",608223377,"R"
172695,"3232 CULBRETH RD","FAYETTEVILLE","NC",28312,34.9578109020001,-78.757317455,195,"3232 CULBRETH RD, FAYETTEVILLE, NC, 28312","Match","Exact","3232 CULBRETH RD, FAYETTEVILLE, NC, 28312",64235675,"R"
172696,"3232 E 27TH","HAYS","KS",67601,38.885419798,-99.283139636,196,"3232 E 27TH, HAYS, KS, 67601","Match","Non_Exact","3232 E 27TH ST, HAYS, KS, 67601",149828999,"R"
172697,"3232 E BIRCHWOOD PLACE","CHANDLER","AZ",85249,33.226904565,-111.786735999,197,"3232 E BIRCHWOOD PLACE, CHANDLER, AZ, 85249","Match","Exact","3232 E BIRCHWOOD PL, CHANDLER, AZ, 85249",128854227,"L"
172698,"3232 GEORGIA AVE NW  505","WASHINGTON","DC",20010,38.9306953440001,-77.0234746949999,198,"3232 GEORGIA AVE NW  505, WASHINGTON, DC, 20010","Match","Exact","3232 GEORGIA AVE NW, WASHINGTON, DC, 20010",76224174,"L"
172699,"3232 HUNTERS WAY","BELLEVILLE","IL",62221,38.539258939,-89.934931304,199,"3232 HUNTERS WAY, BELLEVILLE, IL, 62221","Match","Exact","3232 HUNTERS WAY, BELLEVILLE, IL, 62221",640637227,"R"
172700,"3232 HUNTERSRIDGE LANE","TAYLOR MILL","KY",41015,39.0084385390001,-84.5156613089999,200,"3232 HUNTERSRIDGE LANE, TAYLOR MILL, KY, 41015","Match","Exact","3232 HUNTERSRIDGE LN, TAYLOR MILL, KY, 41015",103885904,"R"
172701,"3232 MESQUITE DR","VENUS","TX",76084,32.5167892000001,-97.132744845,201,"3232 MESQUITE DR, VENUS, TX, 76084","Match","Exact","3232 MESQUITE DR, VENUS, TX, 76084",225914351,"R"
172702,"3232 N LOCUST UNIT 126","DENTON","TX",76207,NA,NA,202,"3232 N LOCUST UNIT 126, DENTON, TX, 76207","No_Match",NA,NA,NA,NA
172703,"3232 NORTH HILLS BOULEVARD","FAYETTEVILLE","AR",72703,36.1094630220001,-94.156445365,203,"3232 NORTH HILLS BOULEVARD, FAYETTEVILLE, AR, 72703","Match","Non_Exact","3232 N NORTHHILLS BLVD, FAYETTEVILLE, AR, 72703",49102903,"L"
172704,"3232 RIO MIRANDA DR  STE B-2","BAKERSFIELD","CA",93308,NA,NA,204,"3232 RIO MIRANDA DR  STE B-2, BAKERSFIELD, CA, 93308","No_Match",NA,NA,NA,NA
172705,"3232 SADDLEWOOD CIR","MYRTLE BEACH","SC",29579,33.7884778270001,-78.9551996549999,205,"3232 SADDLEWOOD CIR, MYRTLE BEACH, SC, 29579","Match","Exact","3232 SADDLEWOOD CIR, MYRTLE BEACH, SC, 29579",630413278,"L"
172706,"3232 SAINT ANN STREET","NEW ORLEANS","LA",70119,29.9752403790001,-90.088078493,206,"3232 SAINT ANN STREET, NEW ORLEANS, LA, 70119","Match","Exact","3232 SAINT ANN ST, NEW ORLEANS, LA, 70119",191707747,"L"
172707,"3232 SAVILLE ST SW","ATLANTA","GA",30331,33.665645225,-84.5162424389999,207,"3232 SAVILLE ST SW, ATLANTA, GA, 30331","Match","Non_Exact","3232 SAVILLE ST, ATLANTA, GA, 30331",647335543,"L"
172708,"3232 SHORESIDE PKWY","HURST","TX",76053,32.8050824520001,-97.191220959,208,"3232 SHORESIDE PKWY, HURST, TX, 76053","Match","Exact","3232 SHORESIDE PKWY, HURST, TX, 76053",102113923,"R"
172709,"3232 W CLARKSTON CIR","SOUTH JORDAN","UT",84095,40.558981439,-111.968409429,209,"3232 W CLARKSTON CIR, SOUTH JORDAN, UT, 84095","Match","Exact","3232 CLARKSTON CIR, SOUTH JORDAN, UT, 84095",176154515,"R"
172710,"3232 W SAINT PAUL AVE","MILWAUKEE","WI",53208,43.0347822620001,-87.954476566,210,"3232 W SAINT PAUL AVE, MILWAUKEE, WI, 53208","Match","Exact","3232 W ST PAUL AVE, MILWAUKEE, WI, 53208",77740051,"R"
172711,"3232 WEST 56TH STREET","INDIANAPOLIS","IN",46228,39.8535900530001,-86.214670009,211,"3232 WEST 56TH STREET, INDIANAPOLIS, IN, 46228","Match","Exact","3232 W 56TH ST, INDIANAPOLIS, IN, 46228",107982017,"R"
172712,"32320 BIG SANDY DR","COARSEGOLD","CA",93614,37.218366368,-119.705451589,212,"32320 BIG SANDY DR, COARSEGOLD, CA, 93614","Match","Exact","32320 BIG SANDY DR, COARSEGOLD, CA, 93614",102331319,"R"
172713,"32323 316TH STREET","LE SUEUR","MN",56058,44.494056351,-93.913738236,213,"32323 316TH STREET, LE SUEUR, MN, 56058","Match","Exact","32323 316TH ST, LE SUEUR, MN, 56058",607221825,"R"
172714,"32326 CLINTON KEITH RD","WILDOMAR","CA",92595,NA,NA,214,"32326 CLINTON KEITH RD, WILDOMAR, CA, 92595","No_Match",NA,NA,NA,NA
172715,"32328 WILDFLOWER TRAIL","SPANISH FORT","AL",36527,30.696017469,-87.810868472,215,"32328 WILDFLOWER TRAIL, SPANISH FORT, AL, 36527","Match","Exact","32328 WILDFLOWER TRL, SPANISH FORT, AL, 36527",648126764,"R"
172716,"3233 52ND AVE SW","LANETT","AL",36863,32.821729797,-85.250728069,216,"3233 52ND AVE SW, LANETT, AL, 36863","Match","Exact","3233 52ND AVE SW, LANETT, AL, 36863",630814040,"L"
172717,"3233 ADIE ROAD","SAINT ANN","MO",63074,38.718253179,-90.401277346,217,"3233 ADIE ROAD, SAINT ANN, MO, 63074","Match","Exact","3233 ADIE RD, SAINT ANN, MO, 63074",100117735,"L"
172718,"3233 BROOKSHIRE WAY","DULUTH","GA",30096,33.999086817,-84.1296093729999,218,"3233 BROOKSHIRE WAY, DULUTH, GA, 30096","Match","Exact","3233 BROOKSHIRE WAY, DULUTH, GA, 30096",88882979,"L"
172719,"3233 CHESTNUT RIDGE ROAD PMB 25","GRANTSVILLE","MD",21536,39.6976508710001,-79.098662963,219,"3233 CHESTNUT RIDGE ROAD PMB 25, GRANTSVILLE, MD, 21536","Match","Exact","3233 CHESTNUT RIDGE RD, GRANTSVILLE, MD, 21536",640365077,"L"
172720,"3233 EAST MEMORIAL ROAD SUITE 103","EDMOND","OK",73013,35.6091568300001,-97.456441765,220,"3233 EAST MEMORIAL ROAD SUITE 103, EDMOND, OK, 73013","Match","Exact","3233 E MEMORIAL RD, EDMOND, OK, 73013",100426071,"L"
172721,"3233 EAST MEMORIAL ROAD SUITE 104","EDMOND","OK",73013,35.6091568300001,-97.456441765,221,"3233 EAST MEMORIAL ROAD SUITE 104, EDMOND, OK, 73013","Match","Exact","3233 E MEMORIAL RD, EDMOND, OK, 73013",100426071,"L"
172722,"3233 KIRKMAN ST","LAKE CHARLES","LA",70601,30.199253066,-93.2097536799999,222,"3233 KIRKMAN ST, LAKE CHARLES, LA, 70601","Match","Exact","3233 KIRKMAN ST, LAKE CHARLES, LA, 70601",88438100,"L"
172723,"3233 MABERRY CT","GRAND PRAIRIE","TX",75052,32.6923936150001,-97.033896068,223,"3233 MABERRY CT, GRAND PRAIRIE, TX, 75052","Match","Exact","3233 MABERRY CT, GRAND PRAIRIE, TX, 75052",102984458,"R"
172724,"3233 MANGUM RD    APT 201","HOUSTON","TX",77092,29.8182661390001,-95.459394241,224,"3233 MANGUM RD    APT 201, HOUSTON, TX, 77092","Match","Exact","3233 MANGUM RD, HOUSTON, TX, 77092",96639580,"L"
172725,"3233 N ARSENAL AVE","INDIANAPOLIS","IN",46218,39.8142664170001,-86.134067999,225,"3233 N ARSENAL AVE, INDIANAPOLIS, IN, 46218","Match","Exact","3233 N ARSENAL AVE, INDIANAPOLIS, IN, 46218",107990166,"R"
172726,"3233 S HIGHPOINTE DR","NEW BERLIN","WI",53151,NA,NA,226,"3233 S HIGHPOINTE DR, NEW BERLIN, WI, 53151","Tie",NA,NA,NA,NA
172727,"3233 S SHERWOOD FOREST BLVD","BATON ROUGE","LA",70816,30.4238507110001,-91.051473804,227,"3233 S SHERWOOD FOREST BLVD, BATON ROUGE, LA, 70816","Match","Exact","3233 S SHERWOOD FOREST BLVD, BATON ROUGE, LA, 70816",92200464,"L"
172728,"3233 SPARR BLVD","GLENDALE","CA",91208,34.1975322220001,-118.226661003,228,"3233 SPARR BLVD, GLENDALE, CA, 91208","Match","Exact","3233 SPARR BLVD, GLENDALE, CA, 91208",141609052,"L"
172729,"3233 SU CREEK FALLS AVE","ATLANTA","GA",30316,NA,NA,229,"3233 SU CREEK FALLS AVE, ATLANTA, GA, 30316","No_Match",NA,NA,NA,NA
172730,"3233 TAYSHEE CIR","ANCHORAGE","AK",99504,61.1915019960001,-149.755071495,230,"3233 TAYSHEE CIR, ANCHORAGE, AK, 99504","Match","Exact","3233 TAYSHEE CIR, ANCHORAGE, AK, 99504",190802984,"L"
172731,"3233 W WINDWARD PASS","SPRINGFIELD","MO",65810,37.1057151310001,-93.345568826,231,"3233 W WINDWARD PASS, SPRINGFIELD, MO, 65810","Match","Exact","3233 W WINDWARD PASS, SPRINGFIELD, MO, 65810",76710521,"R"
172732,"3233 WAYBURN AVE SW","GRANDVILLE","MI",49418,42.90552208,-85.74884596,232,"3233 WAYBURN AVE SW, GRANDVILLE, MI, 49418","Match","Exact","3233 WAYBURN AVE SW, GRANDVILLE, MI, 49418",12453737,"R"
172733,"3233 WICKLOW LANE","LAKE WYLIE","SD",29710,NA,NA,233,"3233 WICKLOW LANE, LAKE WYLIE, SD, 29710","No_Match",NA,NA,NA,NA
172734,"32331 CAMBRIDGE","WARREN","MI",48092,NA,NA,234,"32331 CAMBRIDGE, WARREN, MI, 48092","No_Match",NA,NA,NA,NA
172735,"32331 E 721 TERRACE","WAGONER","OK",74467,35.9708089060001,-95.308915885,235,"32331 E 721 TERRACE, WAGONER, OK, 74467","Match","Exact","32331 E 721 TER, WAGONER, OK, 74467",83143972,"R"
172736,"32334 RINCON RANCH ROAD","PAUMA VALLEY","CA",92061,33.30169555,-116.942985307,236,"32334 RINCON RANCH ROAD, PAUMA VALLEY, CA, 92061","Match","Exact","32334 RINCON RANCH RD, PAUMA VALLEY, CA, 92061",195309465,"L"
172737,"32334 W 281ST STREEET SOUTH","BRISTOW","OK",74010,NA,NA,237,"32334 W 281ST STREEET SOUTH, BRISTOW, OK, 74010","No_Match",NA,NA,NA,NA
172738,"32336 BAYSHORE DRIVE","MILLSBORO","DE",19966,38.629794804,-75.1888867499999,238,"32336 BAYSHORE DRIVE, MILLSBORO, DE, 19966","Match","Exact","32336 BAYSHORE DR, MILLSBORO, DE, 19966",647454771,"R"
172739,"3234 ASHLAND AVENUE","INDIANAPOLIS","IN",46226,39.8161437030001,-86.038817594,239,"3234 ASHLAND AVENUE, INDIANAPOLIS, IN, 46226","Match","Exact","3234 ASHLAND AVE, INDIANAPOLIS, IN, 46226",108002619,"L"
172740,"3234 BENT OAK ROAD","PENSACOLA","FL",32526,30.446246203,-87.30308923,240,"3234 BENT OAK ROAD, PENSACOLA, FL, 32526","Match","Exact","3234 BENT OAK RD, PENSACOLA, FL, 32526",93212271,"R"
172741,"3234 EMPIRE BLVD SW","ATLANTA","GA",30354,33.6675562230001,-84.39293846,241,"3234 EMPIRE BLVD SW, ATLANTA, GA, 30354","Match","Exact","3234 EMPIRE BLVD SW, ATLANTA, GA, 30354",17412094,"L"
172742,"3234 FRICK ROAD","HOUSTON","TX",77086,29.9229245500001,-95.472444669,242,"3234 FRICK ROAD, HOUSTON, TX, 77086","Match","Exact","3234 FRICK RD, HOUSTON, TX, 77086",96653614,"L"
172743,"3234 GERVAIS LANE","MYRTLE BEACH","SC",29588,33.624959645,-79.027899727,243,"3234 GERVAIS LANE, MYRTLE BEACH, SC, 29588","Match","Exact","3234 GERVAIS LN, MYRTLE BEACH, SC, 29588",631030994,"R"
172744,"3234 MEADOW STREET","TOMS RIVER","NJ",8753,39.956635353,-74.113981444,244,"3234 MEADOW STREET, TOMS RIVER, NJ, 8753","Match","Exact","3234 MEADOW ST, TOMS RIVER, NJ, 08753",203737714,"L"
172745,"3234 N CALIFORNIA AVE 2 N","CHICAGO","IL",60618,41.9404588850001,-87.697861599,245,"3234 N CALIFORNIA AVE 2 N, CHICAGO, IL, 60618","Match","Non_Exact","3234 N CALIFORNIA AVE, CHICAGO, IL, 60618",111760733,"L"
172746,"3234 NORTH 1000 EAST","BUHL","ID",83316,42.466410851,-114.849082739,246,"3234 NORTH 1000 EAST, BUHL, ID, 83316","Match","Exact","3234 N 1000 E, BUHL, ID, 83316",649896988,"R"
172747,"3234 RECTOR ROAD","MORNING VIEW","KY",41063,38.88084323,-84.501182743,247,"3234 RECTOR ROAD, MORNING VIEW, KY, 41063","Match","Exact","3234 RECTOR RD, MORNING VIEW, KY, 41063",652744369,"L"
172748,"3234 RUCKLE ST","INDIANAPOLIS","IN",46205,39.814690151,-86.148480889,248,"3234 RUCKLE ST, INDIANAPOLIS, IN, 46205","Match","Exact","3234 RUCKLE ST, INDIANAPOLIS, IN, 46205",107989150,"L"
172749,"3234 WEST NORRIS STREET","PHILADELPHIA","PA",19121,39.9869934600001,-75.186335712,249,"3234 WEST NORRIS STREET, PHILADELPHIA, PA, 19121","Match","Exact","3234 W NORRIS ST, PHILADELPHIA, PA, 19121",131403443,"L"
172750,"32342 RENDOVA CIR NE","CAMBRIDGE","MN",55008,45.5564613170001,-93.176577894,250,"32342 RENDOVA CIR NE, CAMBRIDGE, MN, 55008","Match","Exact","32342 RENDOVA CIRCLE N E, CAMBRIDGE, MN, 55008",97622068,"L"
172751,"32345 CONSTITUTION HIGHWAY  SUITE H","LOCUST GROVE","VA",22508,38.305287338,-77.808744108,251,"32345 CONSTITUTION HIGHWAY  SUITE H, LOCUST GROVE, VA, 22508","Match","Exact","32345 CONSTITUTION HWY, LOCUST GROVE, VA, 22508",29889912,"L"
172752,"32349 STONEY BROOK DRIVE","AVON LAKE","OH",44012,41.5049699200001,-82.0011605559999,252,"32349 STONEY BROOK DRIVE, AVON LAKE, OH, 44012","Match","Exact","32349 STONEY BROOK DR, AVON LAKE, OH, 44012",55431752,"R"
172753,"3235 ALBACORE ALLEY","SAN DIEGO","CA",92136,NA,NA,253,"3235 ALBACORE ALLEY, SAN DIEGO, CA, 92136","No_Match",NA,NA,NA,NA
172754,"3235 ARBORWOOD DRIVE","SUMTER","SC",29154,33.9149775990001,-80.4209917379999,254,"3235 ARBORWOOD DRIVE, SUMTER, SC, 29154","Match","Exact","3235 ARBORWOOD DR, SUMTER, SC, 29154",202713943,"R"
172755,"3235 CABERNET DR","MIRA LOMA","CA",91752,34.0300815040001,-117.511735066,255,"3235 CABERNET DR, MIRA LOMA, CA, 91752","Match","Exact","3235 CABERNET DR, MIRA LOMA, CA, 91752",194732582,"L"
172756,"3235 DAVIS AVE","ROANOKE","VA",24015,37.2419777170001,-79.998038465,256,"3235 DAVIS AVE, ROANOKE, VA, 24015","Match","Exact","3235 DAVIS AVE, ROANOKE, VA, 24015",62908736,"R"
172757,"3235 EDENBURG DRIVE","HUEYTOWN","AL",35023,33.4201033210001,-87.0449429619999,257,"3235 EDENBURG DRIVE, HUEYTOWN, AL, 35023","Match","Exact","3235 EDENBURG DR, HUEYTOWN, AL, 35023",640552727,"R"
172758,"3235 GARFIELD AVE","KANSAS CITY","MO",64109,39.06757622,-94.5587305239999,258,"3235 GARFIELD AVE, KANSAS CITY, MO, 64109","Match","Exact","3235 GARFIELD AVE, KANSAS CITY, MO, 64109",91449878,"L"
172759,"3235 GLADE SPRINGS","KINGWOOD","TX",77339,30.065288368,-95.191418632,259,"3235 GLADE SPRINGS, KINGWOOD, TX, 77339","Match","Non_Exact","3235 GLADE SPRINGS DR, KINGWOOD, TX, 77339",96048475,"L"
172760,"3235 GRACE AVENUE","BRONX","NY",10469,40.8755593290001,-73.837722277,260,"3235 GRACE AVENUE, BRONX, NY, 10469","Match","Exact","3235 GRACE AVE, BRONX, NY, 10469",80310286,"L"
172761,"3235 GROTEFENDT RD","MARINE","IL",62061,38.7740714440001,-89.8102467699999,261,"3235 GROTEFENDT RD, MARINE, IL, 62061","Match","Exact","3235 GROTEFENDT RD, MARINE, IL, 62061",107736428,"L"
172762,"3235 HIGHLAND RD APT 6104","BATON ROUGE","LA",70802,30.4191946120001,-91.176983939,262,"3235 HIGHLAND RD APT 6104, BATON ROUGE, LA, 70802","Match","Exact","3235 HIGHLAND RD, BATON ROUGE, LA, 70802",651016213,"L"
172763,"3235 LUBEC VALLEY LANE","HENDERSON","NV",89074,36.026250992,-115.103953924,263,"3235 LUBEC VALLEY LANE, HENDERSON, NV, 89074","Match","Non_Exact","3235 E LUBEC VALLEY LN, HENDERSON, NV, 89074",627060159,"R"
172764,"3235 N CR 100 W","ANDERSON","IN",46011,40.153970912,-85.690919315,264,"3235 N CR 100 W, ANDERSON, IN, 46011","Match","Exact","3235 CO RD 100 W, ANDERSON, IN, 46011",31109520,"L"
172765,"3235 N LECLAIRE","CHICAGO","IL",60641,41.9393606790001,-87.754254702,265,"3235 N LECLAIRE, CHICAGO, IL, 60641","Match","Non_Exact","3235 N LECLAIRE AVE, CHICAGO, IL, 60641",605151815,"R"
172766,"3235 NAVAJO DRIVE","CHATTANOOGA","TN",37411,35.02013458,-85.257868054,266,"3235 NAVAJO DRIVE, CHATTANOOGA, TN, 37411","Match","Exact","3235 NAVAJO DR, CHATTANOOGA, TN, 37411",59314281,"L"
172767,"3235 O STREET SE","WASHINGTON","MD",20020,NA,NA,267,"3235 O STREET SE, WASHINGTON, MD, 20020","No_Match",NA,NA,NA,NA
172768,"3235 OLD WASHINGTON RD","WALDORF","MD",20601,38.6224640500001,-76.910594932,268,"3235 OLD WASHINGTON RD, WALDORF, MD, 20601","Match","Non_Exact","3235 OLD WASHINGTON RD, WALDORF, MD, 20602",647438999,"L"
172769,"3235 ROSE CR","HATBORO","PA",19040,40.1740114,-75.096941036,269,"3235 ROSE CR, HATBORO, PA, 19040","Match","Exact","3235 ROSE CIR, HATBORO, PA, 19040",135126342,"R"
172770,"3235 ROSWELL RD NW UNIT 409","ATLANTA","GA",30305,33.843091653,-84.3790964999999,270,"3235 ROSWELL RD NW UNIT 409, ATLANTA, GA, 30305","Match","Non_Exact","3235 ROSWELL RD, ATLANTA, GA, 30305",17378356,"R"
172771,"3235 S EASTERN AVE","LAS VEGAS","NV",89169,36.131241172,-115.118527204,271,"3235 S EASTERN AVE, LAS VEGAS, NV, 89169","Match","Exact","3235 S EASTERN AVE, LAS VEGAS, NV, 89169",201871558,"R"
172772,"3235 SCHOENERSVILLE ROAD","BETHELEHEM","PA",18107,40.6565601400001,-75.417216009,272,"3235 SCHOENERSVILLE ROAD, BETHELEHEM, PA, 18107","Match","Non_Exact","3235 SCHOENERSVILLE RD, BETHLEHEM, PA, 18017",647958346,"L"
172773,"3235 SKYVIEW DRIVE","TALLAHASSEE","FL",32303,30.5150906150001,-84.346610071,273,"3235 SKYVIEW DRIVE, TALLAHASSEE, FL, 32303","Match","Exact","3235 SKYVIEW DR, TALLAHASSEE, FL, 32303",82877593,"R"
172774,"3235 W VISTA BONITA DRIVE","PHOENIX","AZ",85027,33.696960534,-112.129324226,274,"3235 W VISTA BONITA DRIVE, PHOENIX, AZ, 85027","Match","Exact","3235 W VISTA BONITA DR, PHOENIX, AZ, 85027",128892505,"R"
172775,"3235 WEST GREENWAY ROAD","PHOENIX","AZ",85053,33.625258236,-112.127825122,275,"3235 WEST GREENWAY ROAD, PHOENIX, AZ, 85053","Match","Exact","3235 W GREENWAY RD, PHOENIX, AZ, 85053",128177591,"L"
172776,"3235 WOODLAND DRIVE","LECLAIRE","IA",52753,41.584600197,-90.3898348399999,276,"3235 WOODLAND DRIVE, LECLAIRE, IA, 52753","Match","Exact","3235 WOODLAND DR, LECLAIRE, IA, 52753",122731076,"R"
172777,"32354 BONNET HILL","FARMINGTON HILLS","MI",48334,42.5058119510001,-83.3686141329999,277,"32354 BONNET HILL, FARMINGTON HILLS, MI, 48334","Match","Non_Exact","32354 BONNET HILL RD, FARMINGTON HILLS, MI, 48334",69775596,"R"
172778,"32354 HEILBERGER DR","ERHARD","MN",56534,46.432234986,-95.96250566,278,"32354 HEILBERGER DR, ERHARD, MN, 56534","Match","Exact","32354 HEILBERGER DR, ERHARD, MN, 56534",168334832,"R"
172779,"32356 270TH ST","NEOLA","IA",51559,41.4830122160001,-95.669949786,279,"32356 270TH ST, NEOLA, IA, 51559","Match","Exact","32356 270TH ST, NEOLA, IA, 51559",43920469,"R"
172780,"3236 CROSS WINDS RD","CHARLOTTE","NC",28227,35.1780620170001,-80.720320337,280,"3236 CROSS WINDS RD, CHARLOTTE, NC, 28227","Match","Exact","3236 CROSS WINDS RD, CHARLOTTE, NC, 28227",70576538,"R"
172781,"3236 EHLERS LANE","SAINT HELENA","CA",95474,38.531129429,-122.499062714,281,"3236 EHLERS LANE, SAINT HELENA, CA, 95474","Match","Non_Exact","3236 EHLERS LN, SAINT HELENA, CA, 94574",67447099,"R"
172782,"3236 ELMHURST STREET APT 1","DETROIT","MI",48206,42.3822746210001,-83.122163381,282,"3236 ELMHURST STREET APT 1, DETROIT, MI, 48206","Match","Exact","3236 ELMHURST ST, DETROIT, MI, 48206",95471400,"R"
172783,"3236 LANDMARK DRIVE SUITE 5","NORTH CHARLESTON","SD",29418,NA,NA,283,"3236 LANDMARK DRIVE SUITE 5, NORTH CHARLESTON, SD, 29418","No_Match",NA,NA,NA,NA
172784,"3236 LITTLE ISLAND ROAD","VIRGINIA BEACH","VA",23456,36.716487258,-75.935056172,284,"3236 LITTLE ISLAND ROAD, VIRGINIA BEACH, VA, 23456","Match","Exact","3236 LITTLE ISLAND RD, VA BCH, VA, 23456",122294707,"L"
172785,"3236 LONG ISLAND ST","WEST SACRAMENTO","CA",95691,38.5381486810001,-121.576883771,285,"3236 LONG ISLAND ST, WEST SACRAMENTO, CA, 95691","Match","Exact","3236 LONG ISLAND ST, WEST SACRAMENTO, CA, 95691",67706495,"L"
172786,"3236 MARINER BAY ST","LAS VEGAS","NV",89117,36.1320872630001,-115.284333905,286,"3236 MARINER BAY ST, LAS VEGAS, NV, 89117","Match","Exact","3236 MARINER BAY ST, LAS VEGAS, NV, 89117",201898045,"R"
172787,"3236 MERCER UNIVERSITY DR STE 117","CHAMBLEE","GA",30341,33.876684907,-84.257352215,287,"3236 MERCER UNIVERSITY DR STE 117, CHAMBLEE, GA, 30341","Match","Exact","3236 MERCER UNIVERSITY DR, CHAMBLEE, GA, 30341",639507563,"L"
172788,"3236 NE 61ST","PORTLAND","OR",97213,NA,NA,288,"3236 NE 61ST, PORTLAND, OR, 97213","No_Match",NA,NA,NA,NA
172789,"3236 RD M2 NE","MOSES LAKE","WA",98837,NA,NA,289,"3236 RD M2 NE, MOSES LAKE, WA, 98837","No_Match",NA,NA,NA,NA
172790,"3236 S MENDENHALL RD APT 4","MEMPHIS","TN",38115,35.060328311,-89.8858798209999,290,"3236 S MENDENHALL RD APT 4, MEMPHIS, TN, 38115","Match","Non_Exact","3236 S MENDENHALL RD, MEMPHIS, TN, 38115",72928147,"L"
172791,"3236 S SILVER ST","WICHITA","KS",67217,37.6362010280001,-97.345855463,291,"3236 S SILVER ST, WICHITA, KS, 67217","Match","Exact","3236 SILVER ST, WICHITA, KS, 67217",115656084,"L"
172792,"3236 VALLEY FORGE","FOREST HILL","TX",76140,32.6535555680001,-97.273282676,292,"3236 VALLEY FORGE, FOREST HILL, TX, 76140","Match","Non_Exact","3236 VALLEY FORGE TRL, FOREST HILL, TX, 76140",101902805,"R"
172793,"3236 WEST LOFTYVIEW COURT","HIGH POINT","NC",27260,35.9828231540001,-79.9639687539999,293,"3236 WEST LOFTYVIEW COURT, HIGH POINT, NC, 27260","Match","Exact","3236 W LOFTYVIEW CT, HIGH POINT, NC, 27260",131042730,"R"
172794,"3236 WOODLAND COURT","DAVENPORT","IA",52807,41.5538749360001,-90.537990754,294,"3236 WOODLAND COURT, DAVENPORT, IA, 52807","Match","Exact","3236 WOODLAND CT, DAVENPORT, IA, 52807",122709186,"L"
172795,"32360 NORTHAMPTON DRIVE","WARREN","MI",48093,42.5325287040001,-83.002949917,295,"32360 NORTHAMPTON DRIVE, WARREN, MI, 48093","Match","Exact","32360 NORTHAMPTON DR, WARREN, MI, 48093",110698705,"R"
172796,"3237 5TH AVENUE","BEAVER FALLS","PA",15010,40.7730878200001,-80.325012995,296,"3237 5TH AVENUE, BEAVER FALLS, PA, 15010","Match","Exact","3237 5TH AVE, BEAVER FALLS, PA, 15010",52556653,"L"
172797,"3237 ALJEMA AVE","BILLINGS","MT",59102,45.8004129080001,-108.597951524,297,"3237 ALJEMA AVE, BILLINGS, MT, 59102","Match","Exact","3237 ALJEMA AVE, BILLINGS, MT, 59102",181473786,"R"
172798,"3237 BEECHWOOD BOULEVARD","PITTSBURGH","PA",15217,40.4180809320001,-79.923159104,298,"3237 BEECHWOOD BOULEVARD, PITTSBURGH, PA, 15217","Match","Exact","3237 BEECHWOOD BLVD, PITTSBURGH, PA, 15217",51681244,"L"
172799,"3237 CAIN HARBOR DR","NASHVILLE","TN",37214,36.23955885,-86.6984646399999,299,"3237 CAIN HARBOR DR, NASHVILLE, TN, 37214","Match","Exact","3237 CAIN HARBOR DR, NASHVILLE, TN, 37214",97219655,"L"
172800,"3237 COASTAL HIGHWAY","CRAWFORDVILLE","FL",32327,30.1071870970001,-84.378708912,300,"3237 COASTAL HIGHWAY, CRAWFORDVILLE, FL, 32327","Match","Exact","3237 COASTAL HWY, CRAWFORDVILLE, FL, 32327",610456713,"R"
172801,"3237 GAINESVILLE CT","INDIANAPOLIS","IN",46227,39.6426445540001,-86.109775941,301,"3237 GAINESVILLE CT, INDIANAPOLIS, IN, 46227","Match","Exact","3237 GAINESVILLE CT, INDIANAPOLIS, IN, 46227",609040609,"R"
172802,"3237 GINA PL","WOODBRIDGE","VA",22193,38.645739092,-77.31082979,302,"3237 GINA PL, WOODBRIDGE, VA, 22193","Match","Exact","3237 GINA PL, WOODBRIDGE, VA, 22193",76532227,"R"
172803,"3237 GUILFORD AVENUE","INDIANAPOLIS","IN",46205,39.814126593,-86.139397012,303,"3237 GUILFORD AVENUE, INDIANAPOLIS, IN, 46205","Match","Exact","3237 GUILFORD AVE, INDIANAPOLIS, IN, 46205",107990101,"R"
172804,"3237 LONG BEACH RD UNIT 100","OCEANSIDE","NY",11572,40.6320399850001,-73.640804041,304,"3237 LONG BEACH RD UNIT 100, OCEANSIDE, NY, 11572","Match","Exact","3237 LONG BEACH RD, OCEANSIDE, NY, 11572",147681239,"L"
172805,"3237 MARYSVILLE BLVD","SACRAMENTO","CA",95815,38.6269709800001,-121.432437289,305,"3237 MARYSVILLE BLVD, SACRAMENTO, CA, 95815","Match","Exact","3237 MARYSVILLE BLVD, SACRAMENTO, CA, 95815",133330254,"L"
172806,"3237 MAX CT","CARMICHAEL","CA",95608,38.6238147190001,-121.333292519,306,"3237 MAX CT, CARMICHAEL, CA, 95608","Match","Exact","3237 MAX CT, CARMICHAEL, CA, 95608",133393998,"R"
172807,"3237 NANDALE DR","CINCINNATI","OH",45239,39.2166976140001,-84.588625736,307,"3237 NANDALE DR, CINCINNATI, OH, 45239","Match","Exact","3237 NANDALE DR, CINCINNATI, OH, 45239",624735275,"L"
172808,"3237 OAK TIMBER DRIVE","FOREST HILL","TX",76119,32.665232528,-97.278027188,308,"3237 OAK TIMBER DRIVE, FOREST HILL, TX, 76119","Match","Non_Exact","3237 OAK TIMBER DR E, FOREST HILL, TX, 76119",101902717,"L"
172809,"3237 OAK TREE LANE","WINTER HAVEN","FL",33884,28.0001327360001,-81.6429967399999,309,"3237 OAK TREE LANE, WINTER HAVEN, FL, 33884","Match","Exact","3237 OAK TREE LN, WINTER HAVEN, FL, 33884",614467782,"R"
172810,"3237 ORMOND RD","CLEVELAND","OH",44118,41.4951778440001,-81.563465196,310,"3237 ORMOND RD, CLEVELAND, OH, 44118","Match","Exact","3237 ORMOND RD, CLEVELAND, OH, 44118",61125238,"L"
172811,"3237 PATE CREEK VIEW","SNELLVILLE","GA",30078,33.832421912,-83.993362179,311,"3237 PATE CREEK VIEW, SNELLVILLE, GA, 30078","Match","Exact","3237 PATE CREEK VW, SNELLVILLE, GA, 30078",636271033,"L"
172812,"3237 S EDGEFIELD AVENUE","DALLAS","TX",75224,32.7098768550001,-96.84399681,312,"3237 S EDGEFIELD AVENUE, DALLAS, TX, 75224","Match","Exact","3237 S EDGEFIELD AVE, DALLAS, TX, 75224",102947722,"R"
172813,"3237 TULANE DR","KENNER","LA",70065,30.014588829,-90.276289952,313,"3237 TULANE DR, KENNER, LA, 70065","Match","Exact","3237 TULANE DR, KENNER, LA, 70065",93492313,"L"
172814,"3237 W 3400 NORTH","MOORE","ID",83255,43.7685577880001,-113.349100926,314,"3237 W 3400 NORTH, MOORE, ID, 83255","Match","Exact","3237 W 3400 N, MOORE, ID, 83255",647490917,"R"
172815,"3237 W SUNNYSIDE AVENUE APT 2E","CHICAGO","IL",60625,41.9629931760001,-87.7096894759999,315,"3237 W SUNNYSIDE AVENUE APT 2E, CHICAGO, IL, 60625","Match","Non_Exact","3237 W SUNNYSIDE AVE, CHICAGO, IL, 60625",605170108,"L"
172816,"32375 N GANTZEL RD","SAN TAN VALLEY","AZ",85142,NA,NA,316,"32375 N GANTZEL RD, SAN TAN VALLEY, AZ, 85142","No_Match",NA,NA,NA,NA
172817,"32377 HWY 131","STEAMBOAT SPRINGS","CO",80487,NA,NA,317,"32377 HWY 131, STEAMBOAT SPRINGS, CO, 80487","No_Match",NA,NA,NA,NA
172818,"3238 5TH BAXTER CROSSING","FORT MILL","SC",29708,35.0234817240001,-80.974155863,318,"3238 5TH BAXTER CROSSING, FORT MILL, SC, 29708","Match","Non_Exact","3238 FIFTH BAXTER ST, FORT MILL, SC, 29708",19809937,"L"
172819,"3238 ALICE STREET","DEARBORN","MI",48124,42.2883155260001,-83.246536008,319,"3238 ALICE STREET, DEARBORN, MI, 48124","Match","Exact","3238 ALICE ST, DEARBORN, MI, 48124",95445112,"R"
172820,"3238 AUTUMN ASH DRIVE","ZIONSVILLE","IN",46077,39.997452808,-86.258305781,320,"3238 AUTUMN ASH DRIVE, ZIONSVILLE, IN, 46077","Match","Exact","3238 AUTUMN ASH DR, ZIONSVILLE, IN, 46077",610979070,"R"
172821,"3238 BRIDLEPATH LANE","DRESHER","PA",19025,40.1306231470001,-75.1610466019999,321,"3238 BRIDLEPATH LANE, DRESHER, PA, 19025","Match","Exact","3238 BRIDLEPATH LN, DRESHER, PA, 19025",135091787,"R"
172822,"3238 COUNTY ROAD 536","ALVIN","TX",77511,29.4591469220001,-95.279615102,322,"3238 COUNTY ROAD 536, ALVIN, TX, 77511","Match","Exact","3238 CO RD 536, ALVIN, TX, 77511",116576215,"L"
172823,"3238 E ORCHARD ST","ONTARIO","CA",91762,NA,NA,323,"3238 E ORCHARD ST, ONTARIO, CA, 91762","No_Match",NA,NA,NA,NA
172824,"3238 EASTMONT AVENUE","PITTSBURGH","PA",15216,40.3866232940001,-80.036988215,324,"3238 EASTMONT AVENUE, PITTSBURGH, PA, 15216","Match","Exact","3238 EASTMONT AVE, PITTSBURGH, PA, 15216",51632524,"R"
172825,"3238 EDENDALE LANE","EUGENE","OR",97405,44.0193295610001,-123.112247491,325,"3238 EDENDALE LANE, EUGENE, OR, 97405","Match","Exact","3238 EDENDALE LN, EUGENE, OR, 97405",178168675,"R"
172826,"3238 FIORE COURT","FORT COLLINS","CO",80521,40.573665448,-105.137141155,326,"3238 FIORE COURT, FORT COLLINS, CO, 80521","Match","Exact","3238 FIORE CT, FORT COLLINS, CO, 80521",645455104,"R"
172827,"3238 HOUSTON ST","CORPUS CHRISTI","TX",78411,27.740985408,-97.402620519,327,"3238 HOUSTON ST, CORPUS CHRISTI, TX, 78411","Match","Exact","3238 HOUSTON ST, CORPUS CHRISTI, TX, 78411",652306209,"L"
172828,"3238 LINCOLN AVE","EAST SAINT LOUIS","IL",62204,38.634387669,-90.114125298,328,"3238 LINCOLN AVE, EAST SAINT LOUIS, IL, 62204","Match","Exact","3238 LINCOLN AVE, E SAINT LOUIS, IL, 62204",107830705,"R"
172829,"3238 MACKINAC TRAIL","SAULT SAINTE MARIE","MI",49783,46.4592075090001,-84.374199877,329,"3238 MACKINAC TRAIL, SAULT SAINTE MARIE, MI, 49783","Match","Non_Exact","3238 S MACKINAC TRL, SAULT SAINTE MARIE, MI, 49783",130557833,"L"
172830,"3238 ROON THE BEN","ANN ARBOR","MI",48108,42.2376320860001,-83.688347312,330,"3238 ROON THE BEN, ANN ARBOR, MI, 48108","Match","Exact","3238 ROON THE BEN, ANN ARBOR, MI, 48108",26042259,"L"
172831,"3238 W 64TH ST","CHICAGO","IL",60629,41.7771322020001,-87.704091512,331,"3238 W 64TH ST, CHICAGO, IL, 60629","Match","Non_Exact","3238 W 64TH ST, CHICAGO, IL, 60629",111819410,"R"
172832,"32382 VIA MENTONE","DANA POINT","CA",92629,33.4923965570001,-117.730654688,332,"32382 VIA MENTONE, DANA POINT, CA, 92629","Match","Exact","32382 VIA MENTONE, DANA POINT, CA, 92629",649779260,"L"
172833,"3239 8TH STREET","BOULDER","CO",80304,40.0331539050001,-105.286808125,333,"3239 8TH STREET, BOULDER, CO, 80304","Match","Exact","3239 8TH ST, BOULDER, CO, 80304",188159250,"L"
172834,"3239 A BRIGGS AVENUE","ALAMEDA","CA",94501,37.7560050120001,-122.231654679,334,"3239 A BRIGGS AVENUE, ALAMEDA, CA, 94501","Match","Exact","3239 BRIGGS AVE, ALAMEDA, CA, 94501",606338272,"L"
172835,"3239 BARLEY LANE","LANSDALE","PA",19446,40.212470065,-75.353856621,335,"3239 BARLEY LANE, LANSDALE, PA, 19446","Match","Exact","3239 BARLEY LN, LANSDALE, PA, 19446",135112749,"L"
172836,"3239 BELAIR RD","BALTIMORE","MD",21213,39.321239147,-76.574157536,336,"3239 BELAIR RD, BALTIMORE, MD, 21213","Match","Exact","3239 BELAIR RD, BALTIMORE, MD, 21213",206435709,"R"
172837,"3239 CHERYL CIRCLE","PLEASANTON","CA",94588,37.6810739330001,-121.898063371,337,"3239 CHERYL CIRCLE, PLEASANTON, CA, 94588","Match","Exact","3239 CHERYL CIR, PLEASANTON, CA, 94588",125031841,"L"
172838,"3239 COMMERCIAL WAY","SPRING HILL","FL",34606,28.4785727660001,-82.611080328,338,"3239 COMMERCIAL WAY, SPRING HILL, FL, 34606","Match","Exact","3239 COMMERCIAL WAY, SPRING HILL, FL, 34606",640311581,"R"
172839,"3239 E DRYCREEK RD","WEST COVINA","CA",91791,34.071113939,-117.87533513,339,"3239 E DRYCREEK RD, WEST COVINA, CA, 91791","Match","Exact","3239 E DRYCREEK RD, WEST COVINA, CA, 91791",636048054,"L"
172840,"3239 EAST 128TH ST","CLEVELAND","OH",44120,41.470322611,-81.5931562769999,340,"3239 EAST 128TH ST, CLEVELAND, OH, 44120","Match","Exact","3239 E 128TH ST, CLEVELAND, OH, 44120",61126479,"L"
172841,"3239 ELMWOOD DRIVE","DES MOINES","IA",50312,41.5802993080001,-93.661314268,341,"3239 ELMWOOD DRIVE, DES MOINES, IA, 50312","Match","Exact","3239 ELMWOOD DR, DES MOINES, IA, 50312",65780841,"R"
172842,"3239 GOLDEN TURTLE CIR 202","LOUISVILLE","KY",40218,38.2039931690001,-85.6792316579999,342,"3239 GOLDEN TURTLE CIR 202, LOUISVILLE, KY, 40218","Match","Exact","3239 GOLDEN TURTLE CIR, LOUISVILLE, KY, 40218",640117349,"R"
172843,"3239 JEFFERSON AVE 125","CINCINNATI","OH",45220,39.1396184880001,-84.512643469,343,"3239 JEFFERSON AVE 125, CINCINNATI, OH, 45220","Match","Exact","3239 JEFFERSON AVE, CINCINNATI, OH, 45220",103961612,"L"
172844,"3239 KINNARD SPRINGS ROAD","FRANKLIN","TN",37064,35.86632832,-86.9392015989999,344,"3239 KINNARD SPRINGS ROAD, FRANKLIN, TN, 37064","Match","Exact","3239 KINNARD SPRINGS RD, FRANKLIN, TN, 37064",624682216,"R"
172845,"3239 LAKE JEAN DRIVE","ORLANDO","FL",32817,28.5873500330001,-81.274738123,345,"3239 LAKE JEAN DRIVE, ORLANDO, FL, 32817","Match","Exact","3239 LAKE JEAN DR, ORLANDO, FL, 32817",624619670,"R"
172846,"3239 MILLERFIELD ROAD","MACON","GA",31211,32.866488454,-83.567418416,346,"3239 MILLERFIELD ROAD, MACON, GA, 31211","Match","Exact","3239 MILLERFIELD RD, MACON, GA, 31211",612939882,"R"
172847,"3239 MOON STONE LANE","SNELLVILE","GA",30039,33.8082682260001,-84.055239511,347,"3239 MOON STONE LANE, SNELLVILE, GA, 30039","Match","Non_Exact","3239 MOON STONE LN, SNELLVILLE, GA, 30039",624250763,"L"
172848,"3239 N DETROIT AVE","TOLEDO","OH",43610,41.681125847,-83.559766737,348,"3239 N DETROIT AVE, TOLEDO, OH, 43610","Match","Exact","3239 N DETROIT AVE, TOLEDO, OH, 43610",33961461,"L"
172849,"3239 N TROY STREET APT 1W","CHICAGO","IL",60618,41.9403283,-87.7064294579999,349,"3239 N TROY STREET APT 1W, CHICAGO, IL, 60618","Match","Non_Exact","3239 N TROY ST, CHICAGO, IL, 60618",616789598,"R"
172850,"3239 NORMAN E THAGARD BLVD","JACKSONVILLE","FL",32254,30.3438739760001,-81.724582502,350,"3239 NORMAN E THAGARD BLVD, JACKSONVILLE, FL, 32254","Match","Exact","3239 NORMAN E THAGARD BLVD, JACKSONVILLE, FL, 32254",83970137,"R"
172851,"3239 OAK BROOK LANE","EUSTIS","FL",32726,28.8578384670001,-81.647910415,351,"3239 OAK BROOK LANE, EUSTIS, FL, 32726","Match","Exact","3239 OAK BROOK LN, EUSTIS, FL, 32726",651597271,"L"
172852,"3239 PAULS CT","WOODBRIDGE","VA",22192,38.6582212480001,-77.308253766,352,"3239 PAULS CT, WOODBRIDGE, VA, 22192","Match","Exact","3239 PAULS CT, WOODBRIDGE, VA, 22192",76510682,"R"
172853,"3239 PAYDAY LANE","COLUMBUS","OH",43232,39.9116868880001,-82.8449097129999,353,"3239 PAYDAY LANE, COLUMBUS, OH, 43232","Match","Exact","3239 PAYDAY LN, COLUMBUS, OH, 43232",218664965,"R"
172854,"3239 PENNSYLVANIA ST","LONGVIEW","WA",98632,46.1581419840001,-122.962958334,354,"3239 PENNSYLVANIA ST, LONGVIEW, WA, 98632","Match","Exact","3239 PENNSYLVANIA ST, LONGVIEW, WA, 98632",184488465,"L"
172855,"3239 POWHATAN AVE","BALTIMORE","MD",21216,39.319609826,-76.670975674,355,"3239 POWHATAN AVE, BALTIMORE, MD, 21216","Match","Exact","3239 POWHATAN AVE, BALTIMORE, MD, 21216",206464742,"L"
172856,"3239 RAMOS CIR","SACRAMENTO","CA",95827,38.575698604,-121.309186628,356,"3239 RAMOS CIR, SACRAMENTO, CA, 95827","Match","Exact","3239 RAMOS CIR, SACRAMENTO, CA, 95827",133411936,"L"
172857,"3239 ROSEWEDGE WAY","LOUISVILLE","KY",40216,38.184707324,-85.850561985,357,"3239 ROSEWEDGE WAY, LOUISVILLE, KY, 40216","Match","Exact","3239 ROSEWEDGE WAY, LOUISVILLE, KY, 40216",96838219,"R"
172858,"3239 SHROPSHIRE BLVD UNIT 873","POWELL","TN",37849,36.022142258,-84.0496989009999,358,"3239 SHROPSHIRE BLVD UNIT 873, POWELL, TN, 37849","Match","Exact","3239 SHROPSHIRE BLVD, POWELL, TN, 37849",42611737,"L"
172859,"3239 SINGINGWOOD DR","TORRANCE","CA",90505,33.793364194,-118.346584592,359,"3239 SINGINGWOOD DR, TORRANCE, CA, 90505","Match","Exact","3239 SINGINGWOOD DR, TORRANCE, CA, 90505",141666098,"R"
172860,"3239 W TRADE AVE APT 2","MIAMI","FL",33133,25.736211988,-80.24654825,360,"3239 W TRADE AVE APT 2, MIAMI, FL, 33133","Match","Non_Exact","3239 W TRADE AVE, MIAMI, FL, 33133",116014516,"R"
172861,"3239 WASHBURN AVENUE NORTH","MINNEAPOLIS","MN",55412,45.014723116,-93.317153721,361,"3239 WASHBURN AVENUE NORTH, MINNEAPOLIS, MN, 55412","Match","Exact","3239 WASHBURN AVE N, MINNEAPOLIS, MN, 55412",43621291,"L"
172862,"32397 LARVOTTO COURT","WINCHESTER","CA",92596,33.5884801940001,-117.093453108,362,"32397 LARVOTTO COURT, WINCHESTER, CA, 92596","Match","Exact","32397 LARVOTTO CT, WINCHESTER, CA, 92596",609000038,"R"
172863,"32399 BARTEL ST","ELBERTA","AL",36530,30.4218218350001,-87.4744501979999,363,"32399 BARTEL ST, ELBERTA, AL, 36530","Match","Exact","32399 BARTEL ST, ELBERTA, AL, 36530",652574811,"R"
172864,"324 10TH STREET SUITE 223","OAKLAND","CA",94607,37.8003083990001,-122.269687644,364,"324 10TH STREET SUITE 223, OAKLAND, CA, 94607","Match","Exact","324 10TH ST, OAKLAND, CA, 94607",124997208,"R"
172865,"324 15TH ST GROUND FLOOR","BROOKLYN","NY",11215,40.6637672430001,-73.98559897,365,"324 15TH ST GROUND FLOOR, BROOKLYN, NY, 11215","Match","Exact","324 15TH ST, BROOKLYN, NY, 11215",59075786,"R"
172866,"324 165TH AVENUE","CEYLON","MN",56121,43.5361494480001,-94.54218493,366,"324 165TH AVENUE, CEYLON, MN, 56121","Match","Exact","324 165TH AVE, CEYLON, MN, 56121",648545513,"R"
172867,"324 1ST ST NW LOT 5","ELLENDALE","ND",58436,46.0033917010001,-98.5344312129999,367,"324 1ST ST NW LOT 5, ELLENDALE, ND, 58436","Match","Exact","324 1ST ST NW, ELLENDALE, ND, 58436",204424778,"R"
172868,"324 3RD AVE","KNIGHTDALE","NC",27545,35.790518284,-78.4814375409999,368,"324 3RD AVE, KNIGHTDALE, NC, 27545","Match","Exact","324 3RD AVE, KNIGHTDALE, NC, 27545",72512843,"R"
172869,"324 4TH AVE SE","CULLMAN","AL",35055,34.172648865,-86.8450807789999,369,"324 4TH AVE SE, CULLMAN, AL, 35055","Match","Non_Exact","324 4TH AVE SW, CULLMAN, AL, 35055",130220679,"R"
172870,"324 6TH AVE NORTH","JACKSONVILLE BEACH","FL",32250,30.2945941570001,-81.393404502,370,"324 6TH AVE NORTH, JACKSONVILLE BEACH, FL, 32250","Match","Exact","324 6TH AVE N, JACKSONVILLE BEACH, FL, 32250",83923501,"L"
172871,"324 ANCHOR RD","GREENVILLE","SC",29617,34.90001908,-82.4973829749999,371,"324 ANCHOR RD, GREENVILLE, SC, 29617","Match","Exact","324 ANCHOR RD, GREENVILLE, SC, 29617",38370815,"R"
172872,"324 ANNABEL DR","BOILING SPRINGS","SC",29316,35.0300515000001,-81.9471904599999,372,"324 ANNABEL DR, BOILING SPRINGS, SC, 29316","Match","Exact","324 ANNABEL DR, BOILING SPRINGS, SC, 29316",19492843,"R"
172873,"324 ARDEN DRIVE","COLUMBUS","OH",43214,40.038077791,-83.0084496649999,373,"324 ARDEN DRIVE, COLUMBUS, OH, 43214","Match","Non_Exact","324 ARDEN RD, COLUMBUS, OH, 43214",218693721,"L"
172874,"324 ASHMONT STREET","DORCHESTER","MA",2124,42.2871138360001,-71.059103111,374,"324 ASHMONT STREET, DORCHESTER, MA, 2124","Match","Exact","324 ASHMONT ST, DORCHESTER, MA, 02124",85715291,"L"
172875,"324 BELLEVIEW DR","SAN LEANDRO","CA",94577,37.7319557120001,-122.166212878,375,"324 BELLEVIEW DR, SAN LEANDRO, CA, 94577","Match","Exact","324 BELLEVIEW DR, SAN LEANDRO, CA, 94577",125010324,"R"
172876,"324 BELTON DRIVE","WILLIAMSTON","SC",29697,34.611981545,-82.4950573089999,376,"324 BELTON DRIVE, WILLIAMSTON, SC, 29697","Match","Exact","324 BELTON DR, WILLIAMSTON, SC, 29697",25484247,"L"
172877,"324 BELVA LANE","PLEASANT HILL","CA",94523,37.9541811350001,-122.070997954,377,"324 BELVA LANE, PLEASANT HILL, CA, 94523","Match","Exact","324 BELVA LN, PLEASANT HILL, CA, 94523",192048247,"R"
172878,"324 BLUE CREEK DR","HARVEST","AL",35749,34.845008228,-86.74195306,378,"324 BLUE CREEK DR, HARVEST, AL, 35749","Match","Exact","324 BLUE CREEK DR, HARVEST, AL, 35749",635802135,"L"
172879,"324 BLUE HERON LN","WOODBURY","MN",55125,44.9438008720001,-92.9466030309999,379,"324 BLUE HERON LN, WOODBURY, MN, 55125","Match","Exact","324 BLUE HERON LN, WOODBURY, MN, 55125",645553909,"L"
172880,"324 BLUEBIRD DR","RUSSELL","KY",41169,38.5100583600001,-82.701267791,380,"324 BLUEBIRD DR, RUSSELL, KY, 41169","Match","Exact","324 BLUEBIRD DR, RUSSELL, KY, 41169",151398035,"L"
172881,"324 BRADISH AVE","LA JUNTA","CO",81050,37.9856801220001,-103.53328328,381,"324 BRADISH AVE, LA JUNTA, CO, 81050","Match","Exact","324 BRADISH AVE, LA JUNTA, CO, 81050",112922201,"L"
172882,"324 BRANNANS COURT","MCDONOUGH","GA",30253,33.513963516,-84.18673483,382,"324 BRANNANS COURT, MCDONOUGH, GA, 30253","Match","Exact","324 BRANNANS CT, MCDONOUGH, GA, 30253",23208066,"R"
172883,"324 BROOKS AVE NORTH","THIEF RIVER FALLS","MN",56701,NA,NA,383,"324 BROOKS AVE NORTH, THIEF RIVER FALLS, MN, 56701","No_Match",NA,NA,NA,NA
172884,"324 BUFFALO TRAIL","LAKE JACKSON","TX",77566,29.0678257590001,-95.4936333059999,384,"324 BUFFALO TRAIL, LAKE JACKSON, TX, 77566","Match","Exact","324 BUFFALO TRL, LAKE JACKSON, TX, 77566",116574083,"R"
172885,"324 CANAL ROAD","WATERLOO","SC",29384,34.276366066,-82.02711242,385,"324 CANAL ROAD, WATERLOO, SC, 29384","Match","Exact","324 CANAL RD, WATERLOO, SC, 29384",44456405,"R"
172886,"324 CEDAR AVE S","MINNEAPOLIS","MN",55454,44.9709102210001,-93.247234799,386,"324 CEDAR AVE S, MINNEAPOLIS, MN, 55454","Match","Exact","324 CEDAR AVE S, MINNEAPOLIS, MN, 55454",43636975,"R"
172887,"324 CENTRAL STREET","NEWTON","MA",2466,42.342679112,-71.253223153,387,"324 CENTRAL STREET, NEWTON, MA, 2466","Match","Non_Exact","324 CENTRAL ST, AUBURNDALE, MA, 02466",86861571,"L"
172888,"324 CLAY STREET","KERRVILLE","TX",78028,30.048735048,-99.141366674,388,"324 CLAY STREET, KERRVILLE, TX, 78028","Match","Exact","324 CLAY ST, KERRVILLE, TX, 78028",176904545,"L"
172889,"324 COMMONS DR STE 20","BIRMINGAM","AL",35209,33.4420874520001,-86.830180881,389,"324 COMMONS DR STE 20, BIRMINGAM, AL, 35209","Match","Non_Exact","324 COMMONS DR, BIRMINGHAM, AL, 35209",81739905,"L"
172890,"324 COMMUNIPAW AVENUE","JERSEY CITY","NJ",7304,40.710499391,-74.0614339799999,390,"324 COMMUNIPAW AVENUE, JERSEY CITY, NJ, 7304","Match","Exact","324 COMMUNIPAW AVE, JERSEY CITY, NJ, 07304",59604845,"R"
172891,"324 CONVERSE COURT","COLUMBUS","GA",31907,32.4450399250001,-84.901063123,391,"324 CONVERSE COURT, COLUMBUS, GA, 31907","Match","Exact","324 CONVERSE CT, COLUMBUS, GA, 31907",98949522,"L"
172892,"324 COUNTY ROAD 1171","NOVA","OH",44859,41.0198487480001,-82.3538625039999,392,"324 COUNTY ROAD 1171, NOVA, OH, 44859","Match","Non_Exact","324 CO HWY 1171, NOVA, OH, 44859",30171685,"L"
172893,"324 CRANBERRY HILL CIRCLE","MAULDIN","SC",29662,34.773793009,-82.318718871,393,"324 CRANBERRY HILL CIRCLE, MAULDIN, SC, 29662","Match","Exact","324 CRANBERRY HILL CIR, MAULDIN, SC, 29662",647228031,"R"
172894,"324 CUMBERLAND WAY SE","SMYRNA","GA",30080,NA,NA,394,"324 CUMBERLAND WAY SE, SMYRNA, GA, 30080","Tie",NA,NA,NA,NA
172895,"324 CUSTER ST","ST PAUL","NE",68873,41.2086347950001,-98.453217767,395,"324 CUSTER ST, ST PAUL, NE, 68873","Match","Exact","324 CUSTER ST, SAINT PAUL, NE, 68873",198189445,"L"
172896,"324 DAVIS LAKE RD","MORTON","WA",98356,46.555733665,-122.264170369,396,"324 DAVIS LAKE RD, MORTON, WA, 98356","Match","Exact","324 DAVIS LAKE RD, MORTON, WA, 98356",180718498,"L"
172897,"324 DELIGHT MEADOWS RD","REISTERSTOWN","MD",21136,NA,NA,397,"324 DELIGHT MEADOWS RD, REISTERSTOWN, MD, 21136","No_Match",NA,NA,NA,NA
172898,"324 DEVONSHIRE DRIVE","ALPHARETTA","GA",30022,33.9988129600001,-84.2803164269999,398,"324 DEVONSHIRE DRIVE, ALPHARETTA, GA, 30022","Match","Exact","324 DEVONSHIRE DR, ALPHARETTA, GA, 30022",627205877,"L"
172899,"324 E BELTINE RD UNIT 401","DESOTO","TX",75115,NA,NA,399,"324 E BELTINE RD UNIT 401, DESOTO, TX, 75115","No_Match",NA,NA,NA,NA
172900,"324 E MAITLAND LN","NEW CASTLE","PA",16105,41.039112899,-80.339186076,400,"324 E MAITLAND LN, NEW CASTLE, PA, 16105","Match","Exact","324 E MAITLAND LN, NEW CASTLE, PA, 16105",65178975,"R"
172901,"324 E OLIVE STREET","OXNARD","CA",93033,34.1749867350001,-119.174547744,401,"324 E OLIVE STREET, OXNARD, CA, 93033","Match","Exact","324 E OLIVE ST, OXNARD, CA, 93033",110116530,"R"
172902,"324 EAST 108ST 1C","NEW YORK","NY",10029,NA,NA,402,"324 EAST 108ST 1C, NEW YORK, NY, 10029","No_Match",NA,NA,NA,NA
172903,"324 EAST 108TH STREET  12B","NEW YORK","NY",10029,40.7914555030001,-73.9404430819999,403,"324 EAST 108TH STREET  12B, NEW YORK, NY, 10029","Match","Exact","324 E 108TH ST, NEW YORK, NY, 10029",647151158,"R"
172904,"324 EAST 11TH STREET","LOCKPORT","IL",60441,41.5864101830001,-88.055061816,404,"324 EAST 11TH STREET, LOCKPORT, IL, 60441","Match","Exact","324 E 11TH ST, LOCKPORT, IL, 60441",111545044,"L"
172905,"324 EAST 28TH ST","BREMERTON","WA",98310,47.589041916,-122.644496492,405,"324 EAST 28TH ST, BREMERTON, WA, 98310","Match","Exact","324 E 28TH ST, BREMERTON, WA, 98310",187641599,"L"
172906,"324 EAST AVE D","KILLEEN","TX",76541,31.12000521,-97.7275413949999,406,"324 EAST AVE D, KILLEEN, TX, 76541","Match","Exact","324 E AVE D, KILLEEN, TX, 76541",146140185,"R"
172907,"324 EAST ESSEX","LANSDOWNE","PA",19050,39.9452046230001,-75.2664818659999,407,"324 EAST ESSEX, LANSDOWNE, PA, 19050","Match","Non_Exact","324 E ESSEX AVE, LANSDOWNE, PA, 19050",134877998,"R"
172908,"324 EAST HAZELWOOD AVE","RAHWAY","NJ",7065,40.6006641330001,-74.2760358149999,408,"324 EAST HAZELWOOD AVE, RAHWAY, NJ, 7065","Match","Exact","324 E HAZELWOOD AVE, RAHWAY, NJ, 07065",60563215,"L"
172909,"324 EAST HIGH STREET","PHILADELPHIA","PA",19144,40.0429212830001,-75.17407123,409,"324 EAST HIGH STREET, PHILADELPHIA, PA, 19144","Match","Exact","324 E HIGH ST, PHILADELPHIA, PA, 19144",638972946,"R"
172910,"324 EAST HUGHES STREET","TYLER","MN",56178,44.277992113,-96.13120817,410,"324 EAST HUGHES STREET, TYLER, MN, 56178","Match","Non_Exact","324 HUGHES ST, TYLER, MN, 56178",43957165,"R"
172911,"324 EAST RHODES STREET","LINCOLNTON","NC",28092,35.468207281,-81.251362715,411,"324 EAST RHODES STREET, LINCOLNTON, NC, 28092","Match","Exact","324 E RHODES ST, LINCOLNTON, NC, 28092",69526280,"R"
172912,"324 EAST SHARON AVENUE","PHOENIX","AZ",85022,33.6107940690001,-112.068610739,412,"324 EAST SHARON AVENUE, PHOENIX, AZ, 85022","Match","Non_Exact","324 E SHARON DR, PHOENIX, AZ, 85022",128183506,"L"
172913,"324 EDWARDS ST","MONROE","GA",30655,33.798596119,-83.710752978,413,"324 EDWARDS ST, MONROE, GA, 30655","Match","Exact","324 EDWARDS ST, MONROE, GA, 30655",77614546,"R"
172914,"324 ENCINITAS BLVD","ENCINITAS","CA",92024,33.0481113880001,-117.284396709,414,"324 ENCINITAS BLVD, ENCINITAS, CA, 92024","Match","Exact","324 ENCINITAS BLVD, ENCINITAS, CA, 92024",195369184,"L"
172915,"324 ESPLANADE LANE","COLUMBIA","SC",29229,34.1480532620001,-80.946698912,415,"324 ESPLANADE LANE, COLUMBIA, SC, 29229","Match","Exact","324 ESPLANADE LN, COLUMBIA, SC, 29229",638928638,"R"
172916,"324 FDR TERRACE","LAWNSIDE","NJ",8045,39.862478541,-75.017240817,416,"324 FDR TERRACE, LAWNSIDE, NJ, 8045","Match","Exact","324 FDR TER, LAWNSIDE, NJ, 08045",134368943,"R"
172917,"324 FOREST AVE","MIDDLETOWN","RI",2842,41.525353722,-71.285927848,417,"324 FOREST AVE, MIDDLETOWN, RI, 2842","Match","Exact","324 FOREST AVE, MIDDLETOWN, RI, 02842",650873901,"L"
172918,"324 FOREST CREEK DR","SENECA","SC",29678,34.6373330070001,-82.937929497,418,"324 FOREST CREEK DR, SENECA, SC, 29678","Match","Exact","324 FOREST CREEK DR, SENECA, SC, 29678",25675973,"R"
172919,"324 FOSSLAND AVENUE","WINTHROP HARBOR","IL",60096,NA,NA,419,"324 FOSSLAND AVENUE, WINTHROP HARBOR, IL, 60096","No_Match",NA,NA,NA,NA
172920,"324 FRANKLIN ST","CLARKSVILLE","TN",37040,36.527871787,-87.3575016619999,420,"324 FRANKLIN ST, CLARKSVILLE, TN, 37040","Match","Exact","324 FRANKLIN ST, CLARKSVILLE, TN, 37040",31815052,"R"
172921,"324 FRANKLIN STREET","CLARKSVILLE","TN",37040,36.527871787,-87.3575016619999,421,"324 FRANKLIN STREET, CLARKSVILLE, TN, 37040","Match","Exact","324 FRANKLIN ST, CLARKSVILLE, TN, 37040",31815052,"R"
172922,"324 FROST AVENUE","SAINT LOUIS","MO",63135,38.7596201910001,-90.3137934389999,422,"324 FROST AVENUE, SAINT LOUIS, MO, 63135","Match","Exact","324 FROST AVE, SAINT LOUIS, MO, 63135",100144955,"L"
172923,"324 GENESEE STREET","UTICA","NY",13502,43.0966953380001,-75.240913877,423,"324 GENESEE STREET, UTICA, NY, 13502","Match","Exact","324 GENESEE ST, UTICA, NY, 13502",636470417,"R"
172924,"324 GLEN DELLA DR","AVONDALE","LA",70094,29.917576357,-90.219923167,424,"324 GLEN DELLA DR, AVONDALE, LA, 70094","Match","Non_Exact","324 GLENDELLA DR, AVONDALE, LA, 70094",93496636,"R"
172925,"324 GREEN LAWN PLACE","NEPTUNE","NJ",7753,40.2204998810001,-74.069806356,425,"324 GREEN LAWN PLACE, NEPTUNE, NJ, 7753","Match","Non_Exact","324 GREENLAWN PL, NEPTUNE, NJ, 07753",90456935,"L"
172926,"324 GREEN STREET","WESTERNPORT","MD",21562,39.4907520570001,-79.0350514099999,426,"324 GREEN STREET, WESTERNPORT, MD, 21562","Match","Exact","324 GREEN ST, WESTERNPORT, MD, 21562",647304873,"R"
172927,"324 GREENSPRING LN","COLESVILLE","MD",20904,39.0832896970001,-77.004198915,427,"324 GREENSPRING LN, COLESVILLE, MD, 20904","Match","Exact","324 GREENSPRING LN, COLESVILLE, MD, 20904",62094207,"L"
172928,"324 GREENWOOD AVENUE","VINEYARD HAVEN","MA",2568,41.4583013210001,-70.6158906379999,428,"324 GREENWOOD AVENUE, VINEYARD HAVEN, MA, 2568","Match","Exact","324 GREENWOOD AVE, VINEYARD HAVEN, MA, 02568",118875285,"L"
172929,"324 HARPETH VALLEY RD","NASHVILLE","TN",37221,36.087549391,-86.949789919,429,"324 HARPETH VALLEY RD, NASHVILLE, TN, 37221","Match","Exact","324 HARPETH VALLEY RD, NASHVILLE, TN, 37221",97177945,"R"
172930,"324 HART MEWS","GAITHERSBURG","MD",20878,NA,NA,430,"324 HART MEWS, GAITHERSBURG, MD, 20878","Tie",NA,NA,NA,NA
172931,"324 HEWES AVE","CLARKSBURG","WV",26301,39.281103525,-80.338965114,431,"324 HEWES AVE, CLARKSBURG, WV, 26301","Match","Exact","324 HEWES AVE, CLARKSBURG, WV, 26301",605655160,"R"
172932,"324 INDIAN RIDGE DRIVE","LAKE ORION","MI",48362,42.7955921560001,-83.239103557,432,"324 INDIAN RIDGE DRIVE, LAKE ORION, MI, 48362","Match","Exact","324 INDIAN RIDGE DR, LAKE ORION, MI, 48362",69805123,"L"
172933,"324 INDUSTRIAL PARK RD","FRANKLIN","NC",28734,35.1601366740001,-83.4351451699999,433,"324 INDUSTRIAL PARK RD, FRANKLIN, NC, 28734","Match","Exact","324 INDUSTRIAL PARK RD, FRANKLIN, NC, 28734",640450664,"L"
172934,"324 JEFFERSON ST","FORT COLLINS","CO",80524,40.589658768,-105.075107182,434,"324 JEFFERSON ST, FORT COLLINS, CO, 80524","Match","Exact","324 JEFFERSON ST, FORT COLLINS, CO, 80524",639045741,"L"
172935,"324 JOHN HORTON RD","APEX","NC",27523,35.740942069,-78.982917883,435,"324 JOHN HORTON RD, APEX, NC, 27523","Match","Exact","324 JOHN HORTON RD, APEX, NC, 27523",600319078,"R"
172936,"324 KINNEY STREET","BELLEVUE","OH",44811,41.2659149460001,-82.848134293,436,"324 KINNEY STREET, BELLEVUE, OH, 44811","Match","Exact","324 KINNEY ST, BELLEVUE, OH, 44811",38673662,"L"
172937,"324 KODIAK RD","CARROLLTON","GA",30117,33.6084061610001,-85.14260207,437,"324 KODIAK RD, CARROLLTON, GA, 30117","Match","Exact","324 KODIAK RD, CARROLLTON, GA, 30117",632089515,"R"
172938,"324 LAKE DAISY LOOP","WINTER HAVEN","FL",33884,27.993138125,-81.653728267,438,"324 LAKE DAISY LOOP, WINTER HAVEN, FL, 33884","Match","Exact","324 LAKE DAISY LOOP, WINTER HAVEN, FL, 33884",104887878,"R"
172939,"324 LAKEBEND DRIVE","BRANDON","MS",39042,32.2861738600001,-90.0249912529999,439,"324 LAKEBEND DRIVE, BRANDON, MS, 39042","Match","Exact","324 LAKEBEND DR, BRANDON, MS, 39042",116907367,"R"
172940,"324 LAKESIDE DR","REDLANDS","CA",92373,34.0416121160001,-117.198015607,440,"324 LAKESIDE DR, REDLANDS, CA, 92373","Match","Non_Exact","324 LAKESIDE AVE, REDLANDS, CA, 92373",144663665,"R"
172941,"324 LEONARD WOOD SOUTH 103","HIGHLAND PAKR","IL",60035,42.2162193090001,-87.8142644769999,441,"324 LEONARD WOOD SOUTH 103, HIGHLAND PAKR, IL, 60035","Match","Non_Exact","324 LEONARD WOOD S, HIGHLAND PARK, IL, 60035",119743559,"R"
172942,"324 LOGTRAC RD","STANARDSVILLE","VA",22973,38.2787594100001,-78.4355219839999,442,"324 LOGTRAC RD, STANARDSVILLE, VA, 22973","Match","Exact","324 LOGTRAC RD, STANARDSVILLE, VA, 22973",29867178,"L"
172943,"324 LONDON WAY","LITHIA SPRINGS","GA",30122,NA,NA,443,"324 LONDON WAY, LITHIA SPRINGS, GA, 30122","No_Match",NA,NA,NA,NA
172944,"324 LONGFELLOWS LN","ELGIN","SC",29045,34.1439604080001,-80.8499660429999,444,"324 LONGFELLOWS LN, ELGIN, SC, 29045","Match","Exact","324 LONGFELLOWS LN, ELGIN, SC, 29045",645311431,"R"
172945,"324 MAIN ST  ROOM 111","PEORIA","IL",61602,40.692098887,-89.589846259,445,"324 MAIN ST  ROOM 111, PEORIA, IL, 61602","Match","Exact","324 MAIN ST, PEORIA, IL, 61602",8720196,"R"
172946,"324 MAIN STREET NUMBER 748","LAUREL","VA",20707,NA,NA,446,"324 MAIN STREET NUMBER 748, LAUREL, VA, 20707","No_Match",NA,NA,NA,NA
172947,"324 MAIN STREET UNIT 444","LAUREL","MD",20725,39.1046198810001,-76.844977681,447,"324 MAIN STREET UNIT 444, LAUREL, MD, 20725","Match","Non_Exact","324 MAIN ST, LAUREL, MD, 20707",76326228,"L"
172948,"324 MARVIN ROAD","ELKINS PARK","PA",19027,40.07701136,-75.115855868,448,"324 MARVIN ROAD, ELKINS PARK, PA, 19027","Match","Exact","324 MARVIN RD, ELKINS PARK, PA, 19027",135094538,"L"
172949,"324 MCKINLEY ST SW","STAPLES","MN",56441,NA,NA,449,"324 MCKINLEY ST SW, STAPLES, MN, 56441","No_Match",NA,NA,NA,NA
172950,"324 MILLCREEK LANE","NAPERVILLE","IL",60540,41.7690639100001,-88.1141405339999,450,"324 MILLCREEK LANE, NAPERVILLE, IL, 60540","Match","Exact","324 MILLCREEK LN, NAPERVILLE, IL, 60540",635447801,"R"
172951,"324 MOULTRIE SQUARE","ANDERSON","SC",29621,34.522622416,-82.654754973,451,"324 MOULTRIE SQUARE, ANDERSON, SC, 29621","Match","Exact","324 MOULTRIE SQ, ANDERSON, SC, 29621",25468698,"R"
172952,"324 N COMMERCE STREET","PORTLAND","IN",47371,40.435597429,-84.979266149,452,"324 N COMMERCE STREET, PORTLAND, IN, 47371","Match","Exact","324 N COMMERCE ST, PORTLAND, IN, 47371",45039495,"L"
172953,"324 N FAIR OAKS AVE","SUNNYVALE","CA",94085,37.382221633,-122.018147125,453,"324 N FAIR OAKS AVE, SUNNYVALE, CA, 94085","Match","Exact","324 N FAIR OAKS AVE, SUNNYVALE, CA, 94085",122957323,"R"
172954,"324 N LA LUNA AVE","OJAI","CA",93023,34.453859605,-119.282464714,454,"324 N LA LUNA AVE, OJAI, CA, 93023","Match","Exact","324 N LA LUNA AVE, OJAI, CA, 93023",110125275,"R"
172955,"324 N MAIN ST","POCATELLO","ID",83204,42.8638379010001,-112.452621536,455,"324 N MAIN ST, POCATELLO, ID, 83204","Match","Exact","324 N MAIN ST, POCATELLO, ID, 83204",204351539,"R"
172956,"324 N MAIN STREET","LAKE CITY","MI",49651,44.3372030950001,-85.214718863,456,"324 N MAIN STREET, LAKE CITY, MI, 49651","Match","Exact","324 N MAIN ST, LAKE CITY, MI, 49651",146063726,"R"
172957,"324 N RIVER ST","EAST DUNDEE","IL",60118,42.1012076040001,-88.274840242,457,"324 N RIVER ST, EAST DUNDEE, IL, 60118","Match","Exact","324 N RIVER ST, EAST DUNDEE, IL, 60118",119525742,"L"
172958,"324 NIGHT SAIL DRIVE NORTH APT 304","MEMPHIS","TN",38103,35.155663455,-90.056259997,458,"324 NIGHT SAIL DRIVE NORTH APT 304, MEMPHIS, TN, 38103","Match","Exact","324 NIGHT SAIL DR N, MEMPHIS, TN, 38103",643423689,"L"
172959,"324 NORTH AZUSA AVENUE","WEST COVINA","CA",91791,34.076005842,-117.907709806,459,"324 NORTH AZUSA AVENUE, WEST COVINA, CA, 91791","Match","Exact","324 N AZUSA AVE, WEST COVINA, CA, 91791",142667447,"R"
172960,"324 NORTH GENEVA STREET","ITHACA","NY",14850,42.441624475,-76.50085525,460,"324 NORTH GENEVA STREET, ITHACA, NY, 14850","Match","Exact","324 N GENEVA ST, ITHACA, NY, 14850",18855361,"L"
172961,"324 NORTH MAIN STREET","GODLEY","TX",76044,32.4503464210001,-97.525324871,461,"324 NORTH MAIN STREET, GODLEY, TX, 76044","Match","Exact","324 N MAIN ST, GODLEY, TX, 76044",103515068,"L"
172962,"324 NORTH MARYDELL AVENUE","DELAND","FL",32720,29.0323384160001,-81.3171470189999,462,"324 NORTH MARYDELL AVENUE, DELAND, FL, 32720","Match","Exact","324 N MARYDELL AVE, DELAND, FL, 32720",94565532,"L"
172963,"324 NORTH MCCARRONS BLVD","ROSEVILLE","MN",55113,NA,NA,463,"324 NORTH MCCARRONS BLVD, ROSEVILLE, MN, 55113","No_Match",NA,NA,NA,NA
172964,"324 NORTH ROAD","BUTLER","PA",16001,40.9162175380001,-79.982288301,464,"324 NORTH ROAD, BUTLER, PA, 16001","Match","Exact","324 NORTH RD, BUTLER, PA, 16001",52649154,"R"
172965,"324 NORTH UHRICH STREET","UHRICHSVILLE","OH",44683,40.3920285390001,-81.343664396,465,"324 NORTH UHRICH STREET, UHRICHSVILLE, OH, 44683","Match","Exact","324 N UHRICH ST, UHRICHSVILLE, OH, 44683",44243556,"L"
172966,"324 NW 114TH AVE STE 105","MIAMI","FL",33172,25.771162313,-80.38125308,466,"324 NW 114TH AVE STE 105, MIAMI, FL, 33172","Match","Non_Exact","324 NW 114TH AVE, MIAMI, FL, 33172",115969682,"L"
172967,"324 OCEAN VIEW AVE","SANTA CRUZ","CA",95062,36.972418658,-122.014847195,467,"324 OCEAN VIEW AVE, SANTA CRUZ, CA, 95062","Match","Exact","324 OCEAN VIEW AVE, SANTA CRUZ, CA, 95062",125506552,"R"
172968,"324 OHIO STREET","DEL RIO","TX",78840,29.405713076,-100.901236238,468,"324 OHIO STREET, DEL RIO, TX, 78840","Match","Exact","324 OHIO ST, DEL RIO, TX, 78840",173573640,"R"
172969,"324 OLYMPIC AVE","BUFFALO","NY",14215,42.931370686,-78.8184357979999,469,"324 OLYMPIC AVE, BUFFALO, NY, 14215","Match","Exact","324 OLYMPIC AVE, BUFFALO, NY, 14215",638005809,"L"
172970,"324 OSAGE STREET","PARK FOREST","IL",60466,41.472275386,-87.677586084,470,"324 OSAGE STREET, PARK FOREST, IL, 60466","Match","Exact","324 OSAGE ST, PARK FOREST, IL, 60466",111711434,"R"
172971,"324 PARK AVENUE","ROCK HILL","OH",29730,NA,NA,471,"324 PARK AVENUE, ROCK HILL, OH, 29730","No_Match",NA,NA,NA,NA
172972,"324 PARK ROAD","TIPTON","IN",46072,40.2758186500001,-86.037120178,472,"324 PARK ROAD, TIPTON, IN, 46072","Match","Exact","324 PARK RD, TIPTON, IN, 46072",29420134,"L"
172973,"324 PINE CREEK BENCH ROAD","SWAN VALLEY","ID",83404,NA,NA,473,"324 PINE CREEK BENCH ROAD, SWAN VALLEY, ID, 83404","No_Match",NA,NA,NA,NA
172974,"324 PLEASANT VALLEY ROAD","SPRINGFIELD","VT",5156,43.2673575420001,-72.538458727,474,"324 PLEASANT VALLEY ROAD, SPRINGFIELD, VT, 5156","Match","Exact","324 PLEASANT VALLEY RD, SPRINGFIELD, VT, 05156",139246294,"R"
172975,"324 POTOMAC AVE","QUANTICO","VA",22134,38.521779274,-77.2914333369999,475,"324 POTOMAC AVE, QUANTICO, VA, 22134","Match","Exact","324 POTOMAC AVE, QUANTICO, VA, 22134",76512471,"L"
172976,"324 PROSPECT ROAD","SPRINGFIELD","PA",19064,39.923480913,-75.335620809,476,"324 PROSPECT ROAD, SPRINGFIELD, PA, 19064","Match","Exact","324 PROSPECT RD, SPRINGFIELD, PA, 19064",134879502,"R"
172977,"324 PROVIDENCE LANE","KENNER","LA",70062,29.9731803230001,-90.2367052499999,477,"324 PROVIDENCE LANE, KENNER, LA, 70062","Match","Exact","324 PROVIDENCE LN, KENNER, LA, 70062",93514038,"L"
172978,"324 RAND DRIVE","FERGUSON","MO",63135,38.7408570870001,-90.281378656,478,"324 RAND DRIVE, FERGUSON, MO, 63135","Match","Exact","324 RAND DR, FERGUSON, MO, 63135",100175052,"L"
172979,"324 RIDGE AVE","KINGSTON","PA",18704,41.263634949,-75.893492834,479,"324 RIDGE AVE, KINGSTON, PA, 18704","Match","Exact","324 RIDGE AVE, KINGSTON, PA, 18704",604525011,"L"
172980,"324 S DIAMOND BAR BLVD","DIAMOND BAR","CA",91765,34.020434907,-117.809482671,480,"324 S DIAMOND BAR BLVD, DIAMOND BAR, CA, 91765","Match","Exact","324 S DIAMOND BAR BLVD, DIAMOND BAR, CA, 91765",142790316,"L"
172981,"324 S LARAMIE AVE UNIT 440663","CHICAGO","IL",60644,NA,NA,481,"324 S LARAMIE AVE UNIT 440663, CHICAGO, IL, 60644","Tie",NA,NA,NA,NA
172982,"324 S MAIN ST APT 9A","TULSA","OK",74103,NA,NA,482,"324 S MAIN ST APT 9A, TULSA, OK, 74103","Tie",NA,NA,NA,NA
172983,"324 S MERIDIAN","PUYALLUP","WA",98371,47.190005447,-122.293704145,483,"324 S MERIDIAN, PUYALLUP, WA, 98371","Match","Exact","324 S MERIDIAN, PUYALLUP, WA, 98371",184697520,"R"
172984,"324 S STATE HIGHWAY 103","SLOCOMB","AL",36375,NA,NA,484,"324 S STATE HIGHWAY 103, SLOCOMB, AL, 36375","No_Match",NA,NA,NA,NA
172985,"324 S STATE ST SUITE 1724","HEMET","CA",92543,NA,NA,485,"324 S STATE ST SUITE 1724, HEMET, CA, 92543","Tie",NA,NA,NA,NA
172986,"324 S WATER STREET","OLATHE","KS",66061,38.878682552,-94.8170632109999,486,"324 S WATER STREET, OLATHE, KS, 66061","Match","Exact","324 S WATER ST, OLATHE, KS, 66061",91283204,"L"
172987,"324 S WOOD ST","SPRING GREEN","WI",53588,43.1739149100001,-90.073951573,487,"324 S WOOD ST, SPRING GREEN, WI, 53588","Match","Exact","324 S WOOD ST, SPRING GREEN, WI, 53588",86531543,"L"
172988,"324 SAINT MARY STREET","HILLSDALE","NJ",7642,41.0128915390001,-74.03259479,488,"324 SAINT MARY STREET, HILLSDALE, NJ, 7642","Match","Exact","324 ST MARY ST, HILLSDALE, NJ, 07642",641217078,"R"
172989,"324 SANDY KNOLL DR","DOYLESTOWN","PA",18901,40.323828491,-75.150465094,489,"324 SANDY KNOLL DR, DOYLESTOWN, PA, 18901","Match","Exact","324 SANDY KNOLL DR, DOYLESTOWN, PA, 18901",134703083,"L"
172990,"324 SANTA CRUZ CT","LULING","LA",70070,29.902613253,-90.3694765719999,490,"324 SANTA CRUZ CT, LULING, LA, 70070","Match","Exact","324 SANTA CRUZ CT, LULING, LA, 70070",93617911,"R"
172991,"324 SECOND STREET","JACKSON","TN",38301,35.6095358100001,-88.805708334,491,"324 SECOND STREET, JACKSON, TN, 38301","Match","Exact","324 2ND ST, JACKSON, TN, 38301",21322813,"R"
172992,"324 SIP AVE","JERSEY CITY","NJ",7306,40.733108126,-74.075491759,492,"324 SIP AVE, JERSEY CITY, NJ, 7306","Match","Exact","324 SIP AVE, JERSEY CITY, NJ, 07306",59603753,"R"
172993,"324 SNOWSHOE DRIVE","SOUTHGATE","KY",41071,39.0695924180001,-84.482768381,493,"324 SNOWSHOE DRIVE, SOUTHGATE, KY, 41071","Match","Non_Exact","324 SNOW SHOE DR, SOUTHGATE, KY, 41071",104454667,"R"
172994,"324 SOUTH FIFTH ST","GOSHEN","IN",46528,41.5898250020001,-85.833089545,494,"324 SOUTH FIFTH ST, GOSHEN, IN, 46528","Match","Non_Exact","324 N 5TH ST, GOSHEN, IN, 46528",604679702,"R"
172995,"324 SOUTH KEARNEY STREET","DENVER","CO",80224,39.7106601680001,-104.917593072,495,"324 SOUTH KEARNEY STREET, DENVER, CO, 80224","Match","Exact","324 S KEARNEY ST, DENVER, CO, 80224",606007358,"L"
172996,"324 SPRINGLAKE COURT","NEWTON","KS",67114,38.0147508920001,-97.3485940639999,496,"324 SPRINGLAKE COURT, NEWTON, KS, 67114","Match","Exact","324 SPRINGLAKE CT, NEWTON, KS, 67114",637599430,"R"
172997,"324 SPY GLASS HILL ROAD","BATH","PA",18014,40.731774398,-75.389715494,497,"324 SPY GLASS HILL ROAD, BATH, PA, 18014","Match","Exact","324 SPY GLASS HILL RD, BATH, PA, 18014",653371648,"R"
172998,"324 STINSON LOOP","REDDING","CA",96003,40.605024545,-122.358696103,498,"324 STINSON LOOP, REDDING, CA, 96003","Match","Exact","324 STINSON LOOP, REDDING, CA, 96003",648177878,"L"
172999,"324 SUNFLOWER DRIVE","EGG HARBOR TWP","NJ",8234,39.3932359080001,-74.6260431489999,499,"324 SUNFLOWER DRIVE, EGG HARBOR TWP, NJ, 8234","Match","Exact","324 SUNFLOWER DR, EGG HARBOR TOWNSHIP, NJ, 08234",639917914,"L"
173000,"324 SUNSET BEACH ROAD","MORGANTOWN","WV",26508,39.683580884,-79.85630452,500,"324 SUNSET BEACH ROAD, MORGANTOWN, WV, 26508","Match","Exact","324 SUNSET BEACH RD, MORGANTOWN, WV, 26508",50775564,"R"
