"ID","Address","City","State","Zip","lat","long","id","input_address","match_indicator","match_type","matched_address","tiger_line_id","tiger_side"
192001,"3803 CAUTHORN DR","DALLAS","TX",75210,32.762283881,-96.740545453,1,"3803 CAUTHORN DR, DALLAS, TX, 75210","Match","Exact","3803 CAUTHORN DR, DALLAS, TX, 75210",102956384,"L"
192002,"3803 CHERRYBROOK ROAD","RANDALLSTOWN","MD",21133,39.3711259130001,-76.7914006399999,2,"3803 CHERRYBROOK ROAD, RANDALLSTOWN, MD, 21133","Match","Exact","3803 CHERRYBROOK RD, RANDALLSTOWN, MD, 21133",191466630,"R"
192003,"3803 CTY RD X","PITTSVILLE","WI",54466,NA,NA,3,"3803 CTY RD X, PITTSVILLE, WI, 54466","No_Match",NA,NA,NA,NA
192004,"3803 DERBY CIRCLE","QUARTZ HILL","CA",93536,34.634683878,-118.19888428,4,"3803 DERBY CIRCLE, QUARTZ HILL, CA, 93536","Match","Exact","3803 DERBY CIR, QUARTZ HILL, CA, 93536",624568851,"L"
192005,"3803 DIPLOMAT AVE","BOWIE","MD",20721,38.941388945,-76.757229841,5,"3803 DIPLOMAT AVE, BOWIE, MD, 20721","Match","Exact","3803 DIPLOMAT AVE, BOWIE, MD, 20721",624787003,"R"
192006,"3803 E FLOSSMOOR CIRCLE","MESA","AZ",85026,33.394327156,-111.748916085,6,"3803 E FLOSSMOOR CIRCLE, MESA, AZ, 85026","Match","Non_Exact","3803 E FLOSSMOOR CIR, MESA, AZ, 85206",128267579,"L"
192007,"3803 EAST GEER STREET","DURHAM","NC",27704,36.048841484,-78.8024745659999,7,"3803 EAST GEER STREET, DURHAM, NC, 27704","Match","Exact","3803 E GEER ST, DURHAM, NC, 27704",71736321,"L"
192008,"3803 JULIET LEIA CIRCLE WEST","JACKSONVILLE","FL",32218,30.4443489550001,-81.708612105,8,"3803 JULIET LEIA CIRCLE WEST, JACKSONVILLE, FL, 32218","Match","Exact","3803 JULIET LEIA CIR W, JACKSONVILLE, FL, 32218",624530609,"L"
192009,"3803 KILBOURNE HILL ROAD","COLUMBIA","SC",29205,33.9931858050001,-80.986279958,9,"3803 KILBOURNE HILL ROAD, COLUMBIA, SC, 29205","Match","Exact","3803 KILBOURNE HILL RD, COLUMBIA, SC, 29205",604771363,"L"
192010,"3803 LAKE ONTARIO DR","FREMONT","CA",94555,37.585335926,-122.057473228,10,"3803 LAKE ONTARIO DR, FREMONT, CA, 94555","Match","Exact","3803 LAKE ONTARIO DR, FREMONT, CA, 94555",125025044,"R"
192011,"3803 MARKET STREET","CLARKSTON","GA",30021,33.8070856480001,-84.2363005189999,11,"3803 MARKET STREET, CLARKSTON, GA, 30021","Match","Exact","3803 MARKET ST, CLARKSTON, GA, 30021",642374869,"R"
192012,"3803 MONUMENT CIR UNIT 214","ABINGDON","MD",21009,39.458664307,-76.315284257,12,"3803 MONUMENT CIR UNIT 214, ABINGDON, MD, 21009","Match","Exact","3803 MONUMENT CIR, ABINGDON, MD, 21009",651736090,"L"
192013,"3803 NE 94TH ST","SEATTLE","WA",98115,47.696697182,-122.287633845,13,"3803 NE 94TH ST, SEATTLE, WA, 98115","Match","Exact","3803 NE 94TH ST, SEATTLE, WA, 98115",186586042,"R"
192014,"3803 OBRIEN COURT SW","PRIOR LAKE","MN",55372,44.699742277,-93.443736969,14,"3803 OBRIEN COURT SW, PRIOR LAKE, MN, 55372","Match","Non_Exact","3803 O BRIEN CT SW, PRIOR LAKE, MN, 55372",648582775,"R"
192015,"3803 OVERVIEW DR","FREDERICKSBURG","VA",22408,38.22382614,-77.46633773,15,"3803 OVERVIEW DR, FREDERICKSBURG, VA, 22408","Match","Exact","3803 OVERVIEW DR, FREDERICKSBURG, VA, 22408",639945682,"L"
192016,"3803 PROSPECT CHURCH RD","OOLTEWAH","TN",37363,35.026242956,-85.047822829,16,"3803 PROSPECT CHURCH RD, OOLTEWAH, TN, 37363","Match","Exact","3803 PROSPECT CHURCH RD, OOLTEWAH, TN, 37363",653264397,"R"
192017,"3803 RIVER GROVE CT","TAMPA","FL",33610,28.0081969930001,-82.41600148,17,"3803 RIVER GROVE CT, TAMPA, FL, 33610","Match","Exact","3803 RIVER GROVE CT, TAMPA, FL, 33610",104643306,"R"
192018,"3803 S 54TH LANE","PHOENIX","AZ",85043,33.413437145,-112.176489301,18,"3803 S 54TH LANE, PHOENIX, AZ, 85043","Match","Exact","3803 S 54TH LN, PHOENIX, AZ, 85043",640970834,"L"
192019,"3803 SIOUX AVE","KINGMAN","AZ",86401,35.19520312,-113.983043055,19,"3803 SIOUX AVE, KINGMAN, AZ, 86401","Match","Exact","3803 SIOUX AVE, KINGMAN, AZ, 86401",190372265,"R"
192020,"3803 SWANN CT","SUITLAND","MD",20746,38.837314275,-76.920792526,20,"3803 SWANN CT, SUITLAND, MD, 20746","Match","Exact","3803 SWANN CT, SUITLAND, MD, 20746",76338289,"R"
192021,"3803 VERONA CANEY RD","LEWISBURG","TN",37091,35.603582144,-86.763412019,21,"3803 VERONA CANEY RD, LEWISBURG, TN, 37091","Match","Exact","3803 VERONA CANEY RD, LEWISBURG, TN, 37091",58976041,"R"
192022,"3803 W KANE AVE","MCHENRY","IL",60050,42.337909691,-88.270419633,22,"3803 W KANE AVE, MCHENRY, IL, 60050","Match","Exact","3803 KANE AVE, MCHENRY, IL, 60050",119822248,"R"
192023,"3803 W LAKE HOUSTON PKWY","KINGWOOD","TX",77339,30.063898771,-95.187823539,23,"3803 W LAKE HOUSTON PKWY, KINGWOOD, TX, 77339","Match","Exact","3803 W LAKE HOUSTON PKWY, KINGWOOD, TX, 77339",96668670,"L"
192024,"3803 WRIGHTSVILLE AVE SUITE 7","WILMINGTON","NC",28403,34.220100524,-77.897730969,24,"3803 WRIGHTSVILLE AVE SUITE 7, WILMINGTON, NC, 28403","Match","Exact","3803 WRIGHTSVILLE AVE, WILMINGTON, NC, 28403",152733695,"L"
192025,"3803 YARDLEY COURT UNIT 104","LOUISVILLE","KY",40299,38.1924648770001,-85.604002357,25,"3803 YARDLEY COURT UNIT 104, LOUISVILLE, KY, 40299","Match","Exact","3803 YARDLEY CT, LOUISVILLE, KY, 40299",611186372,"L"
192026,"38030 FAIRBROOK DR","MURRIETA","CA",92563,NA,NA,26,"38030 FAIRBROOK DR, MURRIETA, CA, 92563","No_Match",NA,NA,NA,NA
192027,"38032 POSTAL DRIVE STE 3252","ZEPHYRHILLS","FL",33542,NA,NA,27,"38032 POSTAL DRIVE STE 3252, ZEPHYRHILLS, FL, 33542","No_Match",NA,NA,NA,NA
192028,"3804 ASPEN SPRINGS","KENNESAW","GA",30144,34.043368312,-84.651559849,28,"3804 ASPEN SPRINGS, KENNESAW, GA, 30144","Match","Exact","3804 ASPEN SPRINGS, KENNESAW, GA, 30144",641845156,"L"
192029,"3804 BARRINGTON HILL DRIVE","RICHMOND","VA",23233,37.6424765450001,-77.6036654979999,29,"3804 BARRINGTON HILL DRIVE, RICHMOND, VA, 23233","Match","Exact","3804 BARRINGTON HILL DR, RICHMOND, VA, 23233",106665557,"L"
192030,"3804 CARRIZO DRIVE","PLANO","TX",75074,33.0362957990001,-96.65815951,30,"3804 CARRIZO DRIVE, PLANO, TX, 75074","Match","Exact","3804 CARRIZO DR, PLANO, TX, 75074",123511654,"R"
192031,"3804 COLBORNE RD","BALTIMORE","MD",21229,39.2979362770001,-76.6804916839999,31,"3804 COLBORNE RD, BALTIMORE, MD, 21229","Match","Exact","3804 COLBORNE RD, BALTIMORE, MD, 21229",206449904,"R"
192032,"3804 DOMINION MILL DRIVE","ALEXANDRIA","VA",22304,38.8042435730001,-77.0932605359999,32,"3804 DOMINION MILL DRIVE, ALEXANDRIA, VA, 22304","Match","Exact","3804 DOMINION MILL DR, ALEXANDRIA, VA, 22304",76063519,"R"
192033,"3804 E 127TH WAY","THORNTON","CO",80241,39.9265292750001,-104.945849482,33,"3804 E 127TH WAY, THORNTON, CO, 80241","Match","Exact","3804 E 127TH WAY, THORNTON, CO, 80241",177454635,"R"
192034,"3804 E 19TH ST","KANSAS CIY","MO",63127,NA,NA,34,"3804 E 19TH ST, KANSAS CIY, MO, 63127","No_Match",NA,NA,NA,NA
192035,"3804 GRENTON AVENUE","BALTIMORE","MD",21206,39.3370195570001,-76.563967384,35,"3804 GRENTON AVENUE, BALTIMORE, MD, 21206","Match","Exact","3804 GRENTON AVE, BALTIMORE, MD, 21206",206411199,"L"
192036,"3804 INDIAN SPRINGS TRAIL","ARLINGTON","TX",76016,NA,NA,36,"3804 INDIAN SPRINGS TRAIL, ARLINGTON, TX, 76016","No_Match",NA,NA,NA,NA
192037,"3804 LELAND DRIVE","AYDEN","NC",28513,35.486825636,-77.4370627879999,37,"3804 LELAND DRIVE, AYDEN, NC, 28513","Match","Exact","3804 LELAND DR, AYDEN, NC, 28513",618608582,"L"
192038,"3804 MARION CT","INDEPENDENCE","MO",64055,39.051348166,-94.429634897,38,"3804 MARION CT, INDEPENDENCE, MO, 64055","Match","Exact","3804 MARION CT, INDEPENDENCE, MO, 64055",91463961,"L"
192039,"3804 MORGAN COUNTY HWY","WARTBURG","TN",37887,36.105561779,-84.593534716,39,"3804 MORGAN COUNTY HWY, WARTBURG, TN, 37887","Match","Exact","3804 MORGAN COUNTY HWY, WARTBURG, TN, 37887",605276319,"R"
192040,"3804 NEIMAN RD","PLANO","TX",75025,33.087385241,-96.766198947,40,"3804 NEIMAN RD, PLANO, TX, 75025","Match","Exact","3804 NEIMAN RD, PLANO, TX, 75025",123537977,"R"
192041,"3804 NICHOLSON STREET","HYATTSVILLE","MD",20782,38.960730723,-76.954686351,41,"3804 NICHOLSON STREET, HYATTSVILLE, MD, 20782","Match","Exact","3804 NICHOLSON ST, HYATTSVILLE, MD, 20782",76360932,"L"
192042,"3804 NORTH STONE GULLY","MESA","AZ",85207,33.4847780760001,-111.662359007,42,"3804 NORTH STONE GULLY, MESA, AZ, 85207","Match","Exact","3804 N STONE GULLY, MESA, AZ, 85207",128970929,"L"
192043,"3804 PLUM VISTA PLACE","ARLINGTON","TX",76003,32.795377628,-97.08868553,43,"3804 PLUM VISTA PLACE, ARLINGTON, TX, 76003","Match","Non_Exact","3804 PLUM VISTA PL, ARLINGTON, TX, 76005",641606198,"R"
192044,"3804 RAPPAHANNOCK COURT","GREENSBORO","NC",27407,36.0169656670001,-79.873163857,44,"3804 RAPPAHANNOCK COURT, GREENSBORO, NC, 27407","Match","Exact","3804 RAPPAHANNOCK CT, GREENSBORO, NC, 27407",131049640,"L"
192045,"3804 ROBIN LANE","KALAMAZOO","MI",49008,42.2536704080001,-85.597700264,45,"3804 ROBIN LANE, KALAMAZOO, MI, 49008","Match","Exact","3804 ROBIN LN, KALAMAZOO, MI, 49008",12229373,"R"
192046,"3804 SCARLET OAK LN","LEXINGTON","KY",40514,37.977194824,-84.5458470409999,46,"3804 SCARLET OAK LN, LEXINGTON, KY, 40514","Match","Exact","3804 SCARLET OAK LN, LEXINGTON, KY, 40514",31938328,"L"
192047,"3804 SHAWNEE AVE","ANDERSON","SC",29626,34.4654078310001,-82.668373426,47,"3804 SHAWNEE AVE, ANDERSON, SC, 29626","Match","Exact","3804 SHAWNEE AVE, ANDERSON, SC, 29626",25452264,"R"
192048,"3804 SPICEBERRRY COURT","VIRGINIA BEACH","VA",23456,NA,NA,48,"3804 SPICEBERRRY COURT, VIRGINIA BEACH, VA, 23456","No_Match",NA,NA,NA,NA
192049,"3804 W 134TH STREET","CLEVELAND","OH",44111,41.450583522,-81.783497086,49,"3804 W 134TH STREET, CLEVELAND, OH, 44111","Match","Exact","3804 W 134TH ST, CLEVELAND, OH, 44111",61102902,"R"
192050,"3804 W NORTH B STREET","TAMPA","FL",33609,27.9467187750001,-82.5059191,50,"3804 W NORTH B STREET, TAMPA, FL, 33609","Match","Exact","3804 W NORTH B ST, TAMPA, FL, 33609",104525987,"L"
192051,"3804 WASHINGTON STREET","OAK BROOK","IL",60523,41.819450628,-87.930467715,51,"3804 WASHINGTON STREET, OAK BROOK, IL, 60523","Match","Exact","3804 WASHINGTON ST, OAK BROOK, IL, 60523",112549916,"R"
192052,"3804 WINGBOW CT","ORLANDO","FL",32817,28.594747382,-81.278088784,52,"3804 WINGBOW CT, ORLANDO, FL, 32817","Match","Exact","3804 WINGBOW CT, ORLANDO, FL, 32817",94312439,"L"
192053,"38048 JEFFERSON CROSSING","PRAIRIEVILLE","LA",70769,30.3100432950001,-90.970965015,53,"38048 JEFFERSON CROSSING, PRAIRIEVILLE, LA, 70769","Match","Non_Exact","38048 JEFFERSON CROSSING AVE, PRAIRIEVILLE, LA, 70769",115045474,"L"
192054,"3805 10TH AVE","VIENNA","WV",26105,39.3283193840001,-81.540775874,54,"3805 10TH AVE, VIENNA, WV, 26105","Match","Exact","3805 10TH AVE, VIENNA, WV, 26105",90891209,"L"
192055,"3805 10TH AVENUE","VIENNA","WV",26105,39.3283193840001,-81.540775874,55,"3805 10TH AVENUE, VIENNA, WV, 26105","Match","Exact","3805 10TH AVE, VIENNA, WV, 26105",90891209,"L"
192056,"3805 34TH ST E","BRADENTON","FL",34208,27.4647189020001,-82.520698319,56,"3805 34TH ST E, BRADENTON, FL, 34208","Match","Exact","3805 34TH ST E, BRADENTON, FL, 34208",16288413,"L"
192057,"3805 ACOSTA RD","FAIRFAX","VA",22031,38.84590795,-77.2651179329999,57,"3805 ACOSTA RD, FAIRFAX, VA, 22031","Match","Exact","3805 ACOSTA RD, FAIRFAX, VA, 22031",75970205,"L"
192058,"3805 BENT OAK DR","COLUMBIA","MO",65203,38.9246653750001,-92.392822575,58,"3805 BENT OAK DR, COLUMBIA, MO, 65203","Match","Exact","3805 BENT OAK DR, COLUMBIA, MO, 65203",23491705,"R"
192059,"3805 CAREY AVENUE","CHEYENNE","WY",82001,41.15062457,-104.8283133,59,"3805 CAREY AVENUE, CHEYENNE, WY, 82001","Match","Exact","3805 CAREY AVE, CHEYENNE, WY, 82001",160149018,"R"
192060,"3805 CHANTELLE DR","FAYETTEVILLE","NC",28306,34.9953928530001,-79.040744087,60,"3805 CHANTELLE DR, FAYETTEVILLE, NC, 28306","Match","Exact","3805 CHANTELLE DR, FAYETTEVILLE, NC, 28306",651384697,"R"
192061,"3805 CR 106","BAY CITY","TX",77414,NA,NA,61,"3805 CR 106, BAY CITY, TX, 77414","No_Match",NA,NA,NA,NA
192062,"3805 CRANE BLVD","JACKSON","MS",39216,32.343069617,-90.163246852,62,"3805 CRANE BLVD, JACKSON, MS, 39216","Match","Exact","3805 CRANE BLVD, JACKSON, MS, 39216",65370790,"L"
192063,"3805 E LONG AVE","CENTENNIAL","CO",80122,39.574682759,-104.943347151,63,"3805 E LONG AVE, CENTENNIAL, CO, 80122","Match","Exact","3805 E LONG AVE, CENTENNIAL, CO, 80122",177346108,"L"
192064,"3805 EAU CLAIRE AVE","WESTON","WI",54476,44.916542275,-89.576213922,64,"3805 EAU CLAIRE AVE, WESTON, WI, 54476","Match","Exact","3805 EAU CLAIRE AVE, WESTON, WI, 54476",117153674,"R"
192065,"3805 EDWARDS ROAD SUITE 100","CINCINNATI","OH",45209,39.1490970990001,-84.442458261,65,"3805 EDWARDS ROAD SUITE 100, CINCINNATI, OH, 45209","Match","Exact","3805 EDWARDS RD, CINCINNATI, OH, 45209",647370716,"L"
192066,"3805 ENONDALE RD","PORTERVILLE","MS",39352,32.6262153320001,-88.4341471879999,66,"3805 ENONDALE RD, PORTERVILLE, MS, 39352","Match","Exact","3805 ENONDALE RD, PORTERVILLE, MS, 39352",709815,"R"
192067,"3805 GRACELAND COURT","ELLICOTT CITY","MD",21042,39.2670871810001,-76.843131692,67,"3805 GRACELAND COURT, ELLICOTT CITY, MD, 21042","Match","Exact","3805 GRACELAND CT, ELLICOTT CITY, MD, 21042",158929243,"L"
192068,"3805 HOUMA BLVD UNIT C219","METAIRIE","LA",70006,30.010357872,-90.180656259,68,"3805 HOUMA BLVD UNIT C219, METAIRIE, LA, 70006","Match","Exact","3805 HOUMA BLVD, METAIRIE, LA, 70006",93497600,"R"
192069,"3805 KEYSTONE CT","COLUMBIA","MO",65203,38.9343968960001,-92.3927419949999,69,"3805 KEYSTONE CT, COLUMBIA, MO, 65203","Match","Exact","3805 KEYSTONE CT, COLUMBIA, MO, 65203",23493177,"R"
192070,"3805 KOZY KORNER RD","CENTER VALLEY","PA",18034,40.5249100560001,-75.464717051,70,"3805 KOZY KORNER RD, CENTER VALLEY, PA, 18034","Match","Exact","3805 KOZY KORNER RD, CENTER VALLEY, PA, 18034",649887199,"L"
192071,"3805 LAWS CHAPEL RD","MARYVILLE","TN",37801,35.728457796,-83.873416775,71,"3805 LAWS CHAPEL RD, MARYVILLE, TN, 37801","Match","Non_Exact","3805 LAWS CHAPEL RD, MARYVILLE, TN, 37803",627017991,"L"
192072,"3805 NEWTONBURG ROAD","MANITOWOC","WI",54220,44.05354435,-87.754738163,72,"3805 NEWTONBURG ROAD, MANITOWOC, WI, 54220","Match","Exact","3805 NEWTONBURG RD, MANITOWOC, WI, 54220",147959379,"R"
192073,"3805 ORCHARD STREET","LINCOLN","NE",68503,40.8248174350001,-96.666001117,73,"3805 ORCHARD STREET, LINCOLN, NE, 68503","Match","Exact","3805 ORCHARD ST, LINCOLN, NE, 68503",28258284,"R"
192074,"3805 PRESIDENTIAL PKWY 106","ATLANTA","GA",30340,33.8877485080001,-84.26475851,74,"3805 PRESIDENTIAL PKWY 106, ATLANTA, GA, 30340","Match","Exact","3805 PRESIDENTIAL PKWY, ATLANTA, GA, 30340",23361119,"R"
192075,"3805 ROSEMARY WAY","OCEANSIDE","CA",92057,33.2157428880001,-117.320696359,75,"3805 ROSEMARY WAY, OCEANSIDE, CA, 92057","Match","Exact","3805 ROSEMARY WAY, OCEANSIDE, CA, 92057",195418773,"R"
192076,"3805 RURAL ST","ROCKFORD","IL",61107,42.274447885,-89.037214649,76,"3805 RURAL ST, ROCKFORD, IL, 61107","Match","Exact","3805 RURAL ST, ROCKFORD, IL, 61107",49262147,"R"
192077,"3805 S 79TH E AVE STE B","TULSA","OK",74145,36.1076989090001,-95.889024494,77,"3805 S 79TH E AVE STE B, TULSA, OK, 74145","Match","Non_Exact","3805 S 79TH EAST AVE, TULSA, OK, 74145",166453357,"L"
192078,"3805 SAINT BARNABAS ROAD APT 202","SUITLAND","MD",20746,38.8381683370001,-76.9407418219999,78,"3805 SAINT BARNABAS ROAD APT 202, SUITLAND, MD, 20746","Match","Exact","3805 ST BARNABAS RD, SUITLAND, MD, 20746",647307015,"R"
192079,"3805 SAINT BARNABAS ROAD","SUITLAND","MD",20746,38.8381683370001,-76.9407418219999,79,"3805 SAINT BARNABAS ROAD, SUITLAND, MD, 20746","Match","Exact","3805 ST BARNABAS RD, SUITLAND, MD, 20746",647307015,"R"
192080,"3805 SHALLOW FORD WEST RD","TEMPLE","TX",76502,31.0764643260001,-97.414661306,80,"3805 SHALLOW FORD WEST RD, TEMPLE, TX, 76502","Match","Exact","3805 SHALLOW FORD WEST RD, TEMPLE, TX, 76502",648899420,"L"
192081,"3805 SHALLOW FORD WEST ROAD","TEMPLE","TX",76502,31.0764643260001,-97.414661306,81,"3805 SHALLOW FORD WEST ROAD, TEMPLE, TX, 76502","Match","Exact","3805 SHALLOW FORD WEST RD, TEMPLE, TX, 76502",648899420,"L"
192082,"3805 STEVENS ST APT A","JONESBORO","AR",72401,35.819814724,-90.654975544,82,"3805 STEVENS ST APT A, JONESBORO, AR, 72401","Match","Exact","3805 STEVENS ST, JONESBORO, AR, 72401",46910094,"L"
192083,"3805 W CULLOM AVE 3","CHICAGO","IL",60618,41.9591833740001,-87.722974097,83,"3805 W CULLOM AVE 3, CHICAGO, IL, 60618","Match","Non_Exact","3805 W CULLOM AVE, CHICAGO, IL, 60618",605187063,"L"
192084,"3805 W ELGIN ST","CAHNDLER","AZ",85226,33.297070827,-111.90780483,84,"3805 W ELGIN ST, CAHNDLER, AZ, 85226","Match","Non_Exact","3805 W ELGIN ST, CHANDLER, AZ, 85226",128320632,"L"
192085,"3805 W VERDUGO AVE UNIT D","BURBANK","CA",91505,34.1606311240001,-118.344777531,85,"3805 W VERDUGO AVE UNIT D, BURBANK, CA, 91505","Match","Non_Exact","3805 W VERDUGO AVE, BURBANK, CA, 91505",141592928,"R"
192086,"3805 WENTWOOD DRIVE","DALLAS","TX",75225,32.863361351,-96.7960721439999,86,"3805 WENTWOOD DRIVE, DALLAS, TX, 75225","Match","Exact","3805 WENTWOOD DR, DALLAS, TX, 75225",102906238,"L"
192087,"38053 LIVE OAK AVENUE","DADE CITY","FL",33523,28.3651791290001,-82.1878490289999,87,"38053 LIVE OAK AVENUE, DADE CITY, FL, 33523","Match","Exact","38053 LIVE OAK AVE, DADE CITY, FL, 33523",86344928,"R"
192088,"3806 24TH AVENUE SOUTH - APT 208","MINNEAPOLIS","MN",55406,44.93387549,-93.237197664,88,"3806 24TH AVENUE SOUTH - APT 208, MINNEAPOLIS, MN, 55406","Match","Exact","3806 24TH AVE S, MINNEAPOLIS, MN, 55406",43639267,"R"
192089,"3806 ADRIENNE DR","ALEXANDRIA","VA",22309,38.7177299310001,-77.097472221,89,"3806 ADRIENNE DR, ALEXANDRIA, VA, 22309","Match","Exact","3806 ADRIENNE DR, ALEXANDRIA, VA, 22309",75990588,"R"
192090,"3806 AUSTIN PARK LANE","DECATUR","GA",30032,33.7331626000001,-84.2365822629999,90,"3806 AUSTIN PARK LANE, DECATUR, GA, 30032","Match","Exact","3806 AUSTIN PARK LN, DECATUR, GA, 30032",619385952,"L"
192091,"3806 BAINBRIDGE ROAD","CLEVELAND","OH",44118,41.5091839190001,-81.543551166,91,"3806 BAINBRIDGE ROAD, CLEVELAND, OH, 44118","Match","Exact","3806 BAINBRIDGE RD, CLEVELAND, OH, 44118",61125137,"R"
192092,"3806 BELMORE LANE","PEARLAND","TX",77584,29.536179094,-95.285001506,92,"3806 BELMORE LANE, PEARLAND, TX, 77584","Match","Exact","3806 BELMORE LN, PEARLAND, TX, 77584",651991698,"R"
192093,"3806 CENTERVILLE RD","ANDERSON","SC",29625,34.5801360630001,-82.803052968,93,"3806 CENTERVILLE RD, ANDERSON, SC, 29625","Match","Exact","3806 CENTERVILLE RD, ANDERSON, SC, 29625",25483671,"R"
192094,"3806 CORNELL DRIVE","SHREVEPORT","LA",71107,32.571492715,-93.780026944,94,"3806 CORNELL DRIVE, SHREVEPORT, LA, 71107","Match","Exact","3806 CORNELL DR, SHREVEPORT, LA, 71107",57433734,"R"
192095,"3806 DIPLOMAT AVENUE","BOWIE","MD",20721,38.941408989,-76.7572520419999,95,"3806 DIPLOMAT AVENUE, BOWIE, MD, 20721","Match","Exact","3806 DIPLOMAT AVE, BOWIE, MD, 20721",624787003,"L"
192096,"3806 DOVEDALE COURT","RANDALLSTOWN","MD",21133,39.368464569,-76.7775149839999,96,"3806 DOVEDALE COURT, RANDALLSTOWN, MD, 21133","Match","Exact","3806 DOVEDALE CT, RANDALLSTOWN, MD, 21133",191466767,"L"
192097,"3806 DUNHILL CT","BOWIE","MD",20721,38.9416062490001,-76.7649434429999,97,"3806 DUNHILL CT, BOWIE, MD, 20721","Match","Exact","3806 DUNHILL CT, BOWIE, MD, 20721",624780703,"R"
192098,"3806 EMBARCADERO DRIVE","HOUSTON","TX",77082,29.7150865,-95.6658488749999,98,"3806 EMBARCADERO DRIVE, HOUSTON, TX, 77082","Match","Exact","3806 EMBARCADERO DR, HOUSTON, TX, 77082",96017398,"R"
192099,"3806 EZELL AVE","KLAMATH FALLS","OR",97603,42.1983027690001,-121.742225125,99,"3806 EZELL AVE, KLAMATH FALLS, OR, 97603","Match","Exact","3806 EZELL AVE, KLAMATH FALLS, OR, 97603",156661143,"R"
192100,"3806 LAWLER DRIVE","PINE LAWN","MO",63121,38.6985974880001,-90.283316132,100,"3806 LAWLER DRIVE, PINE LAWN, MO, 63121","Match","Non_Exact","3806 LAWLER DR, SAINT LOUIS, MO, 63121",648054892,"R"
192101,"3806 LONG MEADOW DR","MEBANE","NC",27302,36.060226114,-79.274815356,101,"3806 LONG MEADOW DR, MEBANE, NC, 27302","Match","Exact","3806 LONG MEADOW DR, MEBANE, NC, 27302",71696702,"L"
192102,"3806 MATHEWS ROAD","AMES","IA",50014,42.0734650630001,-93.668866295,102,"3806 MATHEWS ROAD, AMES, IA, 50014","Match","Exact","3806 MATHEWS RD, AMES, IA, 50014",65955411,"R"
192103,"3806 MIDHEIGHTS ROAD","BALTIMORE","MD",21215,39.3594083410001,-76.701287435,103,"3806 MIDHEIGHTS ROAD, BALTIMORE, MD, 21215","Match","Exact","3806 MIDHEIGHTS RD, BALTIMORE, MD, 21215",649505850,"R"
192104,"3806 NEWTON STREET","TORRANCE","CA",90505,33.800139594,-118.352740731,104,"3806 NEWTON STREET, TORRANCE, CA, 90505","Match","Exact","3806 NEWTON ST, TORRANCE, CA, 90505",141665522,"L"
192105,"3806 PURLEY DR","FREDERICKSBURG","VA",22408,38.2472160080001,-77.459775629,105,"3806 PURLEY DR, FREDERICKSBURG, VA, 22408","Match","Exact","3806 PURLEY DR, FREDERICKSBURG, VA, 22408",85019043,"R"
192106,"3806 S 11TH ST","TACOMA","WA",98405,47.250869333,-122.486901616,106,"3806 S 11TH ST, TACOMA, WA, 98405","Match","Exact","3806 S 11TH ST, TACOMA, WA, 98405",184645553,"L"
192107,"3806 SMITHERS LANE","MISSOURI CITY","TX",77459,29.5004376140001,-95.528817867,107,"3806 SMITHERS LANE, MISSOURI CITY, TX, 77459","Match","Exact","3806 SMITHERS LN, MISSOURI CITY, TX, 77459",78298900,"R"
192108,"3806 SW PLATEAU","BENTONVILLE","AR",72712,36.3721017080001,-94.254793589,108,"3806 SW PLATEAU, BENTONVILLE, AR, 72712","Match","Non_Exact","3806 SW PLATEAU BLVD, BENTONVILLE, AR, 72712",47885067,"R"
192109,"3806 SWEEPSTAKES CT","FLORISSANT","MO",63034,38.839277859,-90.3122920449999,109,"3806 SWEEPSTAKES CT, FLORISSANT, MO, 63034","Match","Exact","3806 SWEEPSTAKES CT, FLORISSANT, MO, 63034",100183602,"L"
192110,"3806 TURKEY MEADOW CT","COLLEGE STATION","TX",77845,30.530642691,-96.290248334,110,"3806 TURKEY MEADOW CT, COLLEGE STATION, TX, 77845","Match","Exact","3806 TURKEY MEADOW CT, COLLEGE STATION, TX, 77845",637050279,"L"
192111,"3806 WEST MANA LOA LANE","PHOENIX","AZ",85053,33.620458259,-112.140080614,111,"3806 WEST MANA LOA LANE, PHOENIX, AZ, 85053","Match","Non_Exact","3806 W MAUNA LOA LN, PHOENIX, AZ, 85053",128177303,"R"
192112,"3806 WEST RANDALL ST  UNIT A","TAMPA","FL",33611,27.9080107550001,-82.501257546,112,"3806 WEST RANDALL ST  UNIT A, TAMPA, FL, 33611","Match","Exact","3806 W RANDALL ST, TAMPA, FL, 33611",104569940,"L"
192113,"3807 14TH ST W","LEHIGH ACRES","FL",33971,26.625870917,-81.699988596,113,"3807 14TH ST W, LEHIGH ACRES, FL, 33971","Match","Exact","3807 14TH ST W, LEHIGH ACRES, FL, 33971",118111616,"R"
192114,"3807 324TH AVE SE","FALL CITY","WA",98024,47.574193613,-121.9087645,114,"3807 324TH AVE SE, FALL CITY, WA, 98024","Match","Exact","3807 324TH AVE SE, FALL CITY, WA, 98024",187048688,"L"
192115,"3807 ATLANTIC CT","YOUNGSTOWN","OH",44514,41.020771392,-80.581194311,115,"3807 ATLANTIC CT, YOUNGSTOWN, OH, 44514","Match","Exact","3807 ATLANTIC CT, YOUNGSTOWN, OH, 44514",64623468,"R"
192116,"3807 BEAVER DRIVE","AMARILLO","TX",79107,35.2397655350001,-101.793879761,116,"3807 BEAVER DRIVE, AMARILLO, TX, 79107","Match","Exact","3807 BEAVER DR, AMARILLO, TX, 79107",182467003,"L"
192117,"3807 BONNCREST LANE","N CHAS","SC",29420,32.9368196980001,-80.092918507,117,"3807 BONNCREST LANE, N CHAS, SC, 29420","Match","Non_Exact","3807 BONNECREST LN, N CHARLESTON, SC, 29420",640594468,"R"
192118,"3807 CHAPMAN DRIVE","FREDERICKSBURG","VA",22408,38.268088097,-77.463759968,118,"3807 CHAPMAN DRIVE, FREDERICKSBURG, VA, 22408","Match","Exact","3807 CHAPMAN DR, FREDERICKSBURG, VA, 22408",618670254,"R"
192119,"3807 CRIMSON CLOVER AVENUE","WAKE FOREST","NC",27587,35.9416129800001,-78.498569124,119,"3807 CRIMSON CLOVER AVENUE, WAKE FOREST, NC, 27587","Match","Exact","3807 CRIMSON CLOVER AVE, WAKE FOREST, NC, 27587",635866810,"L"
192120,"3807 DERRY STREET","HARRISBURG","PA",17111,40.2581352440001,-76.822671412,120,"3807 DERRY STREET, HARRISBURG, PA, 17111","Match","Exact","3807 DERRY ST, HARRISBURG, PA, 17111",70822471,"R"
192121,"3807 E PUEBLO AVE","MESA","AZ",85206,33.4009793000001,-111.748342143,121,"3807 E PUEBLO AVE, MESA, AZ, 85206","Match","Exact","3807 E PUEBLO AVE, MESA, AZ, 85206",128249092,"L"
192122,"3807 ECHO GROVE LN","HOUSTON","TX",77043,29.827580319,-95.570544809,122,"3807 ECHO GROVE LN, HOUSTON, TX, 77043","Match","Exact","3807 ECHO GROVE LN, HOUSTON, TX, 77043",96295650,"L"
192123,"3807 ELBERT AVENUE","ALEXANDRIA","VA",22305,38.8397212630001,-77.066040925,123,"3807 ELBERT AVENUE, ALEXANDRIA, VA, 22305","Match","Exact","3807 ELBERT AVE, ALEXANDRIA, VA, 22305",76064675,"R"
192124,"3807 EVANS TRAIL CT","BELTSVILLE","MD",20705,39.043475517,-76.9388273329999,124,"3807 EVANS TRAIL CT, BELTSVILLE, MD, 20705","Match","Exact","3807 EVANS TRAIL CT, BELTSVILLE, MD, 20705",76331158,"R"
192125,"3807 GLENMORE AVE","CINCINNATI","OH",45211,39.156586754,-84.6110424509999,125,"3807 GLENMORE AVE, CINCINNATI, OH, 45211","Match","Exact","3807 GLENMORE AVE, CINCINNATI, OH, 45211",103916968,"L"
192126,"3807 HOLDREGE ST SUITE 2","LINCOLN","NE",68503,40.828032955,-96.666183759,126,"3807 HOLDREGE ST SUITE 2, LINCOLN, NE, 68503","Match","Exact","3807 HOLDREGE ST, LINCOLN, NE, 68503",639318023,"R"
192127,"3807 HURON AVE","KALAMAZOO","MI",49006,42.304655004,-85.636292426,127,"3807 HURON AVE, KALAMAZOO, MI, 49006","Match","Exact","3807 HURON AVE, KALAMAZOO, MI, 49006",12223523,"L"
192128,"3807 KEMP BLVD","WICHITA FALLS","TX",76308,33.8732526920001,-98.5330125739999,128,"3807 KEMP BLVD, WICHITA FALLS, TX, 76308","Match","Exact","3807 KEMP BLVD, WICHITA FALLS, TX, 76308",169842839,"L"
192129,"3807 KEN WOOD CIRCLE","JOHNSTOWN","CO",80534,40.390218729,-104.984642914,129,"3807 KEN WOOD CIRCLE, JOHNSTOWN, CO, 80534","Match","Non_Exact","3807 KENWOOD CIR, JOHNSTOWN, CO, 80534",649034643,"R"
192130,"3807 LAKE PARK STREET","FALLBROOK","CA",92028,33.3202454780001,-117.151001069,130,"3807 LAKE PARK STREET, FALLBROOK, CA, 92028","Match","Exact","3807 LAKE PARK ST, FALLBROOK, CA, 92028",195431479,"L"
192131,"3807 MANCHESTER DR NW","ALBUQUERQUE","NM",87107,35.1273348350001,-106.668573255,131,"3807 MANCHESTER DR NW, ALBUQUERQUE, NM, 87107","Match","Exact","3807 MANCHESTER DR NW, ALBUQUERQUE, NM, 87107",206702376,"L"
192132,"3807 N HIMALAYA RD UNIT 3","DENVER","CO",80249,39.7695902,-104.75352658,132,"3807 N HIMALAYA RD UNIT 3, DENVER, CO, 80249","Match","Non_Exact","3807 N HIMALAYA RD, DENVER, CO, 80249",640655532,"L"
192133,"3807 N OCONNOR RD","IRVING","TX",75062,32.854881822,-96.9504571849999,133,"3807 N OCONNOR RD, IRVING, TX, 75062","Match","Non_Exact","3807 N O CONNOR RD, IRVING, TX, 75062",103269310,"L"
192134,"3807 NE MLK JR BLVD","PORTLAND","OR",97212,45.5501978950001,-122.661578477,134,"3807 NE MLK JR BLVD, PORTLAND, OR, 97212","Match","Exact","3807 NE M L KING BLVD, PORTLAND, OR, 97212",157504094,"L"
192135,"3807 NEEDLES PLACE","ALEXANDRIA","VA",22309,38.738990662,-77.097994305,135,"3807 NEEDLES PLACE, ALEXANDRIA, VA, 22309","Match","Exact","3807 NEEDLES PL, ALEXANDRIA, VA, 22309",75990225,"L"
192136,"3807 NEW HAMPSHIRE AVENUE NW","WASHINGTON","DC",20011,38.9379238490001,-77.0230475509999,136,"3807 NEW HAMPSHIRE AVENUE NW, WASHINGTON, DC, 20011","Match","Exact","3807 NEW HAMPSHIRE AVE NW, WASHINGTON, DC, 20011",641474341,"L"
192137,"3807 OUTLEY DRIVE","MOBILE","AL",36693,30.612265807,-88.168279776,137,"3807 OUTLEY DRIVE, MOBILE, AL, 36693","Match","Exact","3807 OUTLEY DR, MOBILE, AL, 36693",61953659,"L"
192138,"3807 PHAFFLE DR","BAKERSFIELD","CA",93309,35.3331666330001,-119.04582506,138,"3807 PHAFFLE DR, BAKERSFIELD, CA, 93309","Match","Exact","3807 PHAFFLE DR, BAKERSFIELD, CA, 93309",109086292,"L"
192139,"3807 RIDGEWOOD ROAD","COPLEY","OH",44321,41.1115649930001,-81.6541892609999,139,"3807 RIDGEWOOD ROAD, COPLEY, OH, 44321","Match","Exact","3807 RIDGEWOOD RD, COPLEY, OH, 44321",637596068,"R"
192140,"3807 ROCKY MOUND DRIVE","WENTZVILLE","MO",63385,38.82417315,-90.890012115,140,"3807 ROCKY MOUND DRIVE, WENTZVILLE, MO, 63385","Match","Exact","3807 ROCKY MOUND DR, WENTZVILLE, MO, 63385",640041471,"R"
192141,"3807 RUSSELL RD","WOODBRIDGE","VA",22192,38.6652695540001,-77.3255648379999,141,"3807 RUSSELL RD, WOODBRIDGE, VA, 22192","Match","Exact","3807 RUSSELL RD, WOODBRIDGE, VA, 22192",636659603,"L"
192142,"3807 SE 32ND ST","TOPEKA","KS",66605,39.009139125,-95.609212914,142,"3807 SE 32ND ST, TOPEKA, KS, 66605","Match","Exact","3807 SE 32ND ST, TOPEKA, KS, 66605",17894381,"L"
192143,"3807 SIERRA HWY NUM 215","ACTON","CA",93510,34.492908603,-118.198544181,143,"3807 SIERRA HWY NUM 215, ACTON, CA, 93510","Match","Exact","3807 SIERRA HWY, ACTON, CA, 93510",142808674,"L"
192144,"3807 SKIDAWAY ROAD","SAVANNAH","GA",31404,32.0295835100001,-81.0693566099999,144,"3807 SKIDAWAY ROAD, SAVANNAH, GA, 31404","Match","Non_Exact","3807 SKIDAWAY DR, SAVANNAH, GA, 31404",6222453,"R"
192145,"3807 SKYLARK","SAN ANTONIO","TX",78210,29.385176383,-98.442653621,145,"3807 SKYLARK, SAN ANTONIO, TX, 78210","Match","Non_Exact","3807 SKYLARK AVE, SAN ANTONIO, TX, 78210",101534957,"R"
192146,"3807 TRAPPERS FOREST DR","HOUSTON","TX",77008,29.867772157,-95.460968032,146,"3807 TRAPPERS FOREST DR, HOUSTON, TX, 77008","Match","Non_Exact","3807 TRAPPERS FOREST DR, HOUSTON, TX, 77088",96027463,"R"
192147,"3807 TREE SUMMIT PARKWAY","DULUTH","GA",30096,33.9894070610001,-84.167663133,147,"3807 TREE SUMMIT PARKWAY, DULUTH, GA, 30096","Match","Non_Exact","3807 TREE SUMMIT PKWY NW, DULUTH, GA, 30096",642059793,"R"
192148,"3807 VINCENT DRIVE","COLLEGEVILLE","PA",19426,40.1843220440001,-75.429441663,148,"3807 VINCENT DRIVE, COLLEGEVILLE, PA, 19426","Match","Exact","3807 VINCENT DR, COLLEGEVILLE, PA, 19426",605612709,"R"
192149,"3807 W SIERRA HWY  64350","ACTON","CA",93510,34.492905487,-118.198577008,149,"3807 W SIERRA HWY  64350, ACTON, CA, 93510","Match","Exact","3807 SIERRA HWY, ACTON, CA, 93510",142808674,"L"
192150,"3807 WALKER ST","HOUSTON","TX",77023,29.7439345930001,-95.3402513409999,150,"3807 WALKER ST, HOUSTON, TX, 77023","Match","Exact","3807 WALKER ST, HOUSTON, TX, 77023",96073637,"L"
192151,"3807 WEST DUNBAR DRIVE","PHOENIX","AZ",85041,33.379008841,-112.140963041,151,"3807 WEST DUNBAR DRIVE, PHOENIX, AZ, 85041","Match","Exact","3807 W DUNBAR DR, PHOENIX, AZ, 85041",128861847,"L"
192152,"3807 WILSHIRE BLVD STE1208","LOS ANGELES","CA",90010,34.0617011940001,-118.309312618,152,"3807 WILSHIRE BLVD STE1208, LOS ANGELES, CA, 90010","Match","Exact","3807 WILSHIRE BLVD, LOS ANGELES, CA, 90010",141603819,"R"
192153,"38079 DEAD LAKE ROAD","RICHVILLE","MN",56576,46.468311682,-95.705229855,153,"38079 DEAD LAKE ROAD, RICHVILLE, MN, 56576","Match","Exact","38079 DEAD LAKE RD, RICHVILLE, MN, 56576",168331493,"R"
192154,"3807B NEW HAMPSHIRE AVENUE NW","WASHINGTON","DC",20011,38.9379386840001,-77.023036393,154,"3807B NEW HAMPSHIRE AVENUE NW, WASHINGTON, DC, 20011","Match","Exact","3807 NEW HAMPSHIRE AVE NW, WASHINGTON, DC, 20011",641474341,"L"
192155,"3808  UNION ST STE 7D","FLUSHING","NY",11354,NA,NA,155,"3808  UNION ST STE 7D, FLUSHING, NY, 11354","No_Match",NA,NA,NA,NA
192156,"3808 5TH AVENUE SOUTH","MINNEAPOLIS","FL",55409,NA,NA,156,"3808 5TH AVENUE SOUTH, MINNEAPOLIS, FL, 55409","No_Match",NA,NA,NA,NA
192157,"3808 ALAMDRE LN","RICHARDSON","TX",75082,33.0036529650001,-96.642748811,157,"3808 ALAMDRE LN, RICHARDSON, TX, 75082","Match","Exact","3808 ALAMDRE LN, RICHARDSON, TX, 75082",210513190,"L"
192158,"3808 AUGUSTA AVENUE","RICHMOND","VA",23230,37.569614367,-77.4803452789999,158,"3808 AUGUSTA AVENUE, RICHMOND, VA, 23230","Match","Exact","3808 AUGUSTA AVE, RICHMOND, VA, 23230",201535135,"R"
192159,"3808 BAMBOO TERRACE","BRADENTON","FL",34210,27.466964852,-82.66389749,159,"3808 BAMBOO TERRACE, BRADENTON, FL, 34210","Match","Exact","3808 BAMBOO TER, BRADENTON, FL, 34210",16231976,"R"
192160,"3808 BLOOMINGDALE AVE","VALPARAISO","IN",46383,41.5032602250001,-87.0562322709999,160,"3808 BLOOMINGDALE AVE, VALPARAISO, IN, 46383","Match","Exact","3808 BLOOMINGDALE AVE, VALPARAISO, IN, 46383",119927978,"R"
192161,"3808 BOSTWYCK DRIVE","FUQUAY VARINA","NC",27526,35.6363111690001,-78.773793961,161,"3808 BOSTWYCK DRIVE, FUQUAY VARINA, NC, 27526","Match","Exact","3808 BOSTWYCK DR, FUQUAY VARINA, NC, 27526",648369309,"R"
192162,"3808 BRIARSTONE COVE","SNELLVILLE","GA",30039,33.8110102260001,-84.00425759,162,"3808 BRIARSTONE COVE, SNELLVILLE, GA, 30039","Match","Exact","3808 BRIARSTONE COVE, SNELLVILLE, GA, 30039",88936477,"L"
192163,"3808 CANDLEGROVE COURT","RICHMOND","VA",23223,37.5768635920001,-77.391891007,163,"3808 CANDLEGROVE COURT, RICHMOND, VA, 23223","Match","Exact","3808 CANDLEGROVE CT, RICHMOND, VA, 23223",624489885,"R"
192164,"3808 CIMWOOD DR","HARVEY","LA",70058,29.8430749240001,-90.0693283589999,164,"3808 CIMWOOD DR, HARVEY, LA, 70058","Match","Exact","3808 CIMWOOD DR, HARVEY, LA, 70058",93520531,"L"
192165,"3808 CROMWELL DRIVE","CARROLLTON","TX",75007,33.0146972160001,-96.903764398,165,"3808 CROMWELL DRIVE, CARROLLTON, TX, 75007","Match","Exact","3808 CROMWELL DR, CARROLLTON, TX, 75007",103381423,"R"
192166,"3808 DOMINION TOWNES CIRCLE","RICHMOND","VA",23223,37.5616171360001,-77.371498683,166,"3808 DOMINION TOWNES CIRCLE, RICHMOND, VA, 23223","Match","Non_Exact","3808 DOMINION TOWNES PL, RICHMOND, VA, 23223",643015791,"R"
192167,"3808 E 32ND STREET","DES MOINES","IA",50317,41.6299556760001,-93.555196117,167,"3808 E 32ND STREET, DES MOINES, IA, 50317","Match","Exact","3808 E 32ND ST, DES MOINES, IA, 50317",65788332,"L"
192168,"3808 E 3RD STREET","PANAMA CITY","FL",32401,30.1530619050001,-85.609329697,168,"3808 E 3RD STREET, PANAMA CITY, FL, 32401","Match","Exact","3808 E 3RD ST, PANAMA CITY, FL, 32401",7055667,"R"
192169,"3808 EASTERN AVE","BALTIMORE","MD",21224,39.286708123,-76.565074518,169,"3808 EASTERN AVE, BALTIMORE, MD, 21224","Match","Exact","3808 EASTERN AVE, BALTIMORE, MD, 21224",206426223,"L"
192170,"3808 ENCLAVE AVE APT 2","CINCINNATI","OH",45241,39.2922737850001,-84.400079804,170,"3808 ENCLAVE AVE APT 2, CINCINNATI, OH, 45241","Match","Exact","3808 ENCLAVE AVE, CINCINNATI, OH, 45241",645624485,"L"
192171,"3808 FULTON ST","HOUSTON","TX",77009,29.7945552040001,-95.3647846219999,171,"3808 FULTON ST, HOUSTON, TX, 77009","Match","Exact","3808 FULTON ST, HOUSTON, TX, 77009",96066033,"R"
192172,"3808 IDLEWILD PLACE","SUWANEE","GA",30024,34.026643216,-84.091266402,172,"3808 IDLEWILD PLACE, SUWANEE, GA, 30024","Match","Exact","3808 IDLEWILD PL, SUWANEE, GA, 30024",632182412,"R"
192173,"3808 LYNN REGIS CT","FAIRFAX","VA",22031,38.8456776,-77.266079846,173,"3808 LYNN REGIS CT, FAIRFAX, VA, 22031","Match","Exact","3808 LYNN REGIS CT, FAIRFAX, VA, 22031",75970204,"R"
192174,"3808 MCLAUGHLIN ST","BRIGHTON","AL",35020,33.4289211560001,-86.947306644,174,"3808 MCLAUGHLIN ST, BRIGHTON, AL, 35020","Match","Exact","3808 MCLAUGHLIN ST, BRIGHTON, AL, 35020",81705024,"L"
192175,"3808 N 60TH STREET","MILWAUKEE","WI",53216,43.086559562,-87.987011631,175,"3808 N 60TH STREET, MILWAUKEE, WI, 53216","Match","Exact","3808 N 60TH ST, MILWAUKEE, WI, 53216",77731298,"R"
192176,"3808 NORTH LANDING ROAD","VIRGINIA BEACH","VA",23456,36.7286490820001,-76.098761554,176,"3808 NORTH LANDING ROAD, VIRGINIA BEACH, VA, 23456","Match","Exact","3808 N LANDING RD, VA BCH, VA, 23456",649741017,"L"
192177,"3808 NW 84TH AVE","CORAL SPRINGS","FL",33065,26.278206169,-80.238139814,177,"3808 NW 84TH AVE, CORAL SPRINGS, FL, 33065","Match","Exact","3808 NW 84TH AVE, CORAL SPRINGS, FL, 33065",114737733,"L"
192178,"3808 PAXTON AVE STE 14A","CINCINNATI","OH",45209,39.14675133,-84.429170956,178,"3808 PAXTON AVE STE 14A, CINCINNATI, OH, 45209","Match","Exact","3808 PAXTON AVE, CINCINNATI, OH, 45209",103932957,"R"
192179,"3808 PINE VALLEY DR","PLANO","TX",75025,33.085385101,-96.767709662,179,"3808 PINE VALLEY DR, PLANO, TX, 75025","Match","Exact","3808 PINE VALLEY DR, PLANO, TX, 75025",642472133,"L"
192180,"3808 PLACID DR","MONROE","LA",71201,32.557780915,-92.094164905,180,"3808 PLACID DR, MONROE, LA, 71201","Match","Exact","3808 PLACID DR, MONROE, LA, 71201",612359792,"R"
192181,"3808 QUINCY ST","BRENTWOOD","MD",20722,38.9382050030001,-76.954904999,181,"3808 QUINCY ST, BRENTWOOD, MD, 20722","Match","Exact","3808 QUINCY ST, BRENTWOOD, MD, 20722",76304683,"L"
192182,"3808 REGENCY PKWY APT 302","SUITLAND","MD",20746,38.836696052,-76.913464979,182,"3808 REGENCY PKWY APT 302, SUITLAND, MD, 20746","Match","Exact","3808 REGENCY PKWY, SUITLAND, MD, 20746",76314683,"L"
192183,"3808 RIDGECREST DR","FLOWER MOUND","TX",75022,33.0374726800001,-97.135807556,183,"3808 RIDGECREST DR, FLOWER MOUND, TX, 75022","Match","Exact","3808 RIDGECREST DR, FLOWER MOUND, TX, 75022",103343793,"R"
192184,"3808 ROLLING MEADOWS","BEDFORD","TX",76021,32.864508297,-97.1264281379999,184,"3808 ROLLING MEADOWS, BEDFORD, TX, 76021","Match","Non_Exact","3808 ROLLING MEADOWS DR, BEDFORD, TX, 76021",101871797,"R"
192185,"3808 SISKIN DRIVE","KISSIMMEE","FL",34744,28.346067009,-81.28764259,185,"3808 SISKIN DRIVE, KISSIMMEE, FL, 34744","Match","Exact","3808 SISKIN DR, KISSIMMEE, FL, 34744",629461648,"R"
192186,"3808 SOUTH COURT STREET","MONTGOMERY","AL",36105,32.336833427,-86.3080241929999,186,"3808 SOUTH COURT STREET, MONTGOMERY, AL, 36105","Match","Exact","3808 S COURT ST, MONTGOMERY, AL, 36105",1488652,"R"
192187,"3808 SUNFLOWER CIR","BOWIE","MD",20721,38.9422828740001,-76.814823534,187,"3808 SUNFLOWER CIR, BOWIE, MD, 20721","Match","Exact","3808 SUNFLOWER CIR, BOWIE, MD, 20721",76336588,"L"
192188,"3808 TAYLOR STREET","CHEVY CHASE","MD",20815,38.980983156,-77.075784587,188,"3808 TAYLOR STREET, CHEVY CHASE, MD, 20815","Match","Exact","3808 TAYLOR ST, CHEVY CHASE, MD, 20815",637334539,"L"
192189,"3808 UNION ST STE 7D","FLUSHING","NY",11354,NA,NA,189,"3808 UNION ST STE 7D, FLUSHING, NY, 11354","No_Match",NA,NA,NA,NA
192190,"3808 UNION STREET SUITE 9A","FLUSHING","NY",11354,NA,NA,190,"3808 UNION STREET SUITE 9A, FLUSHING, NY, 11354","No_Match",NA,NA,NA,NA
192191,"3808 W POLK ST","CHICAGO","IL",60624,41.8707796260001,-87.720966994,191,"3808 W POLK ST, CHICAGO, IL, 60624","Match","Exact","3808 W POLK ST, CHICAGO, IL, 60624",605085023,"R"
192192,"3808 WEST FOREST PARK AVENUE","BALTIMORE","MD",21216,39.3255372350001,-76.683592806,192,"3808 WEST FOREST PARK AVENUE, BALTIMORE, MD, 21216","Match","Exact","3808 W FOREST PARK AVE, BALTIMORE, MD, 21216",206464771,"R"
192193,"3808 WHISPERING HEIGHTS DRIVE","EDMOND","OK",73013,35.6181119350001,-97.470591257,193,"3808 WHISPERING HEIGHTS DRIVE, EDMOND, OK, 73013","Match","Exact","3808 WHISPERING HEIGHTS DR, EDMOND, OK, 73013",100410448,"L"
192194,"3808 WILKINSON RD","SARASOTA","FL",34233,27.2914763530001,-82.49301393,194,"3808 WILKINSON RD, SARASOTA, FL, 34233","Match","Exact","3808 WILKINSON RD, SARASOTA, FL, 34233",16407315,"R"
192195,"3808-36 VISTA CAMPANA SOUTH","OCEANSIDE","CA",92057,33.215046747,-117.32443528,195,"3808-36 VISTA CAMPANA SOUTH, OCEANSIDE, CA, 92057","Match","Exact","3808 VIS CAMPANA S, OCEANSIDE, CA, 92057",195741625,"L"
192196,"3808-7 VISTA CAMPANA SOUTH","OCEANSIDE","CA",92057,33.215046747,-117.32443528,196,"3808-7 VISTA CAMPANA SOUTH, OCEANSIDE, CA, 92057","Match","Exact","3808 VIS CAMPANA S, OCEANSIDE, CA, 92057",195741625,"L"
192197,"38080 ROAD K-4","MANCOS","CO",81328,NA,NA,197,"38080 ROAD K-4, MANCOS, CO, 81328","No_Match",NA,NA,NA,NA
192198,"38083 ROUTE 52","FORT GAY","WV",25514,NA,NA,198,"38083 ROUTE 52, FORT GAY, WV, 25514","No_Match",NA,NA,NA,NA
192199,"38089 COVE COURT","PRAIRIEVILLE","LA",70769,30.31580416,-90.970905724,199,"38089 COVE COURT, PRAIRIEVILLE, LA, 70769","Match","Exact","38089 COVE CT, PRAIRIEVILLE, LA, 70769",115036937,"L"
192200,"3809 22ND ST S","FARGO","ND",58104,46.821046381,-96.8168539339999,200,"3809 22ND ST S, FARGO, ND, 58104","Match","Exact","3809 22ND ST S, FARGO, ND, 58104",151453925,"R"
192201,"3809 42ND STREET","SACRAMENTO","CA",95820,38.5402183460001,-121.457852232,201,"3809 42ND STREET, SACRAMENTO, CA, 95820","Match","Exact","3809 42ND ST, SACRAMENTO, CA, 95820",133327274,"L"
192202,"3809 46TH AVE SW","SEATTLE","WA",98116,47.5700365450001,-122.390787341,202,"3809 46TH AVE SW, SEATTLE, WA, 98116","Match","Exact","3809 46TH AVE SW, SEATTLE, WA, 98116",186660933,"R"
192203,"3809 AUSTRALIAN COURT","WEST PALM BEACH","FL",33404,26.7471903050001,-80.0691595659999,203,"3809 AUSTRALIAN COURT, WEST PALM BEACH, FL, 33404","Match","Non_Exact","3809 AUSTRALIAN CT, WEST PALM BEACH, FL, 33407",115579969,"L"
192204,"3809 BARDSTOWN ROAD","LOUISVILLE","KY",40218,38.196735157,-85.655732976,204,"3809 BARDSTOWN ROAD, LOUISVILLE, KY, 40218","Match","Exact","3809 BARDSTOWN RD, LOUISVILLE, KY, 40218",96856558,"L"
192205,"3809 BASSET COURT","KILLEEN","TX",76543,31.090564666,-97.699459538,205,"3809 BASSET COURT, KILLEEN, TX, 76543","Match","Exact","3809 BASSET CT, KILLEEN, TX, 76543",146203567,"L"
192206,"3809 BUTTERFIELD DR","BEAVERCREEK","OH",45431,39.762265245,-84.074429009,206,"3809 BUTTERFIELD DR, BEAVERCREEK, OH, 45431","Match","Exact","3809 BUTTERFIELD DR, BEAVERCREEK, OH, 45431",143391151,"R"
192207,"3809 CARRIAGE OAKS DRIVE","MONTGOMERY","AL",36116,32.323099487,-86.227081206,207,"3809 CARRIAGE OAKS DRIVE, MONTGOMERY, AL, 36116","Match","Exact","3809 CARRIAGE OAKS DR, MONTGOMERY, AL, 36116",1521384,"L"
192208,"3809 CITADEL DRIVE","GARLAND","TX",75040,32.9515629200001,-96.64354566,208,"3809 CITADEL DRIVE, GARLAND, TX, 75040","Match","Exact","3809 CITADEL DR, GARLAND, TX, 75040",103280925,"L"
192209,"3809 E BECKER LANE","PHOENIX","AZ",85028,33.5835255050001,-111.999962663,209,"3809 E BECKER LANE, PHOENIX, AZ, 85028","Match","Exact","3809 E BECKER LN, PHOENIX, AZ, 85028",128218588,"R"
192210,"3809 E BECKER ROAD","PHOENIX","AZ",85028,33.5835255050001,-111.999962663,210,"3809 E BECKER ROAD, PHOENIX, AZ, 85028","Match","Non_Exact","3809 E BECKER LN, PHOENIX, AZ, 85028",128218588,"R"
192211,"3809 EVERGREEN DR","TRINITY","NC",27370,35.84926405,-80.0158484259999,211,"3809 EVERGREEN DR, TRINITY, NC, 27370","Match","Exact","3809 EVERGREEN DR, TRINITY, NC, 27370",20425755,"L"
192212,"3809 FARRAGUT AVENUE","KENSINGTON","MD",20896,39.0319337970001,-77.075163259,212,"3809 FARRAGUT AVENUE, KENSINGTON, MD, 20896","Match","Non_Exact","3809 FARRAGUT AVE, KENSINGTON, MD, 20895",638144018,"R"
192213,"3809 FRANKLIN ST","DENVER","CO",80205,39.7701607020001,-104.968405638,213,"3809 FRANKLIN ST, DENVER, CO, 80205","Match","Exact","3809 FRANKLIN ST, DENVER, CO, 80205",177305184,"L"
192214,"3809 GAZEBO POND LANE 1105","TAMPA","FL",33613,28.073171587,-82.416604449,214,"3809 GAZEBO POND LANE 1105, TAMPA, FL, 33613","Match","Exact","3809 GAZEBO POND LN, TAMPA, FL, 33613",625385051,"L"
192215,"3809 HOLY CROSS DRIVE","DECATUR","GA",30034,33.6700179220001,-84.2362681499999,215,"3809 HOLY CROSS DRIVE, DECATUR, GA, 30034","Match","Exact","3809 HOLY CROSS DR, DECATUR, GA, 30034",23373323,"R"
192216,"3809 HWY 19","OWENSVILLE","MO",65066,38.2997564630001,-91.480657158,216,"3809 HWY 19, OWENSVILLE, MO, 65066","Match","Non_Exact","3809 STATE HWY 19, OWENSVILLE, MO, 65066",45250006,"L"
192217,"3809 KYNARD ST","DALLAS","TX",75215,32.760527242,-96.7628166919999,217,"3809 KYNARD ST, DALLAS, TX, 75215","Match","Exact","3809 KYNARD ST, DALLAS, TX, 75215",102955438,"R"
192218,"3809 LA MIRANDA PLACE","PITTSBURG","CA",94565,38.0049204800001,-121.905472788,218,"3809 LA MIRANDA PLACE, PITTSBURG, CA, 94565","Match","Exact","3809 LA MIRANDA PL, PITTSBURG, CA, 94565",192060821,"L"
192219,"3809 LAKEHURST DRIVE","MEMPHIS","TN",38128,35.2304121970001,-89.904786131,219,"3809 LAKEHURST DRIVE, MEMPHIS, TN, 38128","Match","Exact","3809 LAKEHURST DR, MEMPHIS, TN, 38128",72900094,"L"
192220,"3809 LOCKLAND DR APT 3","LOS ANGELES","CA",90008,34.0092129880001,-118.340314046,220,"3809 LOCKLAND DR APT 3, LOS ANGELES, CA, 90008","Match","Exact","3809 LOCKLAND DR, LOS ANGELES, CA, 90008",141602433,"R"
192221,"3809 MAYBELLE AVE  APT 6","OAKLAND","CA",94619,37.7903028710001,-122.193197584,221,"3809 MAYBELLE AVE  APT 6, OAKLAND, CA, 94619","Match","Exact","3809 MAYBELLE AVE, OAKLAND, CA, 94619",624464075,"L"
192222,"3809 N MILWAUKEE AVE UNIT B","CHICAGO","IL",60641,41.9497961660001,-87.741386074,222,"3809 N MILWAUKEE AVE UNIT B, CHICAGO, IL, 60641","Match","Non_Exact","3809 N MILWAUKEE AVE, CHICAGO, IL, 60641",111755833,"R"
192223,"3809 N VANCOUVER AVE","PORTLAND","OR",97227,45.5502077780001,-122.667974701,223,"3809 N VANCOUVER AVE, PORTLAND, OR, 97227","Match","Exact","3809 N VANCOUVER AVE, PORTLAND, OR, 97227",157503672,"L"
192224,"3809 PARRY AVENUE APT 305","DALLAS","TX",75226,32.7830007000001,-96.7659111039999,224,"3809 PARRY AVENUE APT 305, DALLAS, TX, 75226","Match","Exact","3809 PARRY AVE, DALLAS, TX, 75226",649819859,"L"
192225,"3809 PIPPINS PL","POINT OF ROCKS","MD",21777,39.280356666,-77.533576967,225,"3809 PIPPINS PL, POINT OF ROCKS, MD, 21777","Match","Exact","3809 PIPPINS PL, POINT OF ROCKS, MD, 21777",60738507,"R"
192226,"3809 REDBUD DR","LA PORTE","TX",77571,29.654256902,-95.061095499,226,"3809 REDBUD DR, LA PORTE, TX, 77571","Match","Exact","3809 REDBUD DR, LA PORTE, TX, 77571",96551892,"R"
192227,"3809 RHODE ISLAND AVE","BRENTWOOD","MD",20722,38.939064144,-76.955469094,227,"3809 RHODE ISLAND AVE, BRENTWOOD, MD, 20722","Match","Exact","3809 RHODE ISLAND AVE, BRENTWOOD, MD, 20722",76360844,"R"
192228,"3809 S PARK ST","KALAMAZOO","MI",49001,42.253627131,-85.587196868,228,"3809 S PARK ST, KALAMAZOO, MI, 49001","Match","Exact","3809 S PARK ST, KALAMAZOO, MI, 49001",12229570,"L"
192229,"3809 SOUTH PARK ST","KALAMAZOO","MI",49001,42.2536283950001,-85.5871968559999,229,"3809 SOUTH PARK ST, KALAMAZOO, MI, 49001","Match","Exact","3809 S PARK ST, KALAMAZOO, MI, 49001",12229570,"L"
192230,"3809 SPARROW POND LANE","RALEIGH","NC",27606,35.6972241570001,-78.7417804039999,230,"3809 SPARROW POND LANE, RALEIGH, NC, 27606","Match","Exact","3809 SPARROW POND LN, RALEIGH, NC, 27606",208364089,"L"
192231,"3809 STILL MEADOW DR","WHEATFIELD","IN",46392,41.1630976340001,-87.118245858,231,"3809 STILL MEADOW DR, WHEATFIELD, IN, 46392","Match","Non_Exact","3809 STILLMEADOW DR, WHEATFIELD, IN, 46392",15374538,"R"
192232,"3809 STOCKDALE HIGHWAY","BAKERSFIELD","CA",93309,35.3541730480001,-119.047418783,232,"3809 STOCKDALE HIGHWAY, BAKERSFIELD, CA, 93309","Match","Exact","3809 STOCKDALE HWY, BAKERSFIELD, CA, 93309",109085698,"L"
192233,"3809 TOWNSHIP RD 154","MILLERSBURG","OH",44654,NA,NA,233,"3809 TOWNSHIP RD 154, MILLERSBURG, OH, 44654","No_Match",NA,NA,NA,NA
192234,"3809 WABASH AVENUE APT 1A","BALTIMORE","MD",21215,39.327936381,-76.6652469269999,234,"3809 WABASH AVENUE APT 1A, BALTIMORE, MD, 21215","Match","Exact","3809 WABASH AVE, BALTIMORE, MD, 21215",638542022,"R"
192235,"38090 DELTA","CLINTON TOWNSHIP","MI",48036,42.579576742,-82.926744195,235,"38090 DELTA, CLINTON TOWNSHIP, MI, 48036","Match","Non_Exact","38090 DELTA ST, CLINTON TOWNSHIP, MI, 48036",110679733,"R"
192236,"38093 PARKMONT DRIVE","FREMONT","CA",94536,37.560559896,-121.988735859,236,"38093 PARKMONT DRIVE, FREMONT, CA, 94536","Match","Exact","38093 PARKMONT DR, FREMONT, CA, 94536",125029345,"R"
192237,"38099 SCHOLCRAFT RD 157","LIVONIA","MI",48150,42.381282291,-83.420049798,237,"38099 SCHOLCRAFT RD 157, LIVONIA, MI, 48150","Match","Non_Exact","38099 SCHOOLCRAFT RD, LIVONIA, MI, 48150",630040707,"L"
192238,"38099 SCHOOLCRAFT ROAD SUITE 133","LIVONIA","MI",48150,42.381282291,-83.420049798,238,"38099 SCHOOLCRAFT ROAD SUITE 133, LIVONIA, MI, 48150","Match","Exact","38099 SCHOOLCRAFT RD, LIVONIA, MI, 48150",630040707,"L"
192239,"38099 SCHOOLCRAFT STE 199","LIVONIA","MI",48150,42.381282291,-83.420049798,239,"38099 SCHOOLCRAFT STE 199, LIVONIA, MI, 48150","Match","Non_Exact","38099 SCHOOLCRAFT RD, LIVONIA, MI, 48150",630040707,"L"
192240,"3809OUTH 35TH STREET UNIT 130","GREENFIELD","WI",53220,NA,NA,240,"3809OUTH 35TH STREET UNIT 130, GREENFIELD, WI, 53220","No_Match",NA,NA,NA,NA
192241,"380H KNOLLWOOD STREET  STE 406","WINSTON SALEM","NC",27103,36.0910817060001,-80.286593109,241,"380H KNOLLWOOD STREET  STE 406, WINSTON SALEM, NC, 27103","Match","Exact","380 KNOLLWOOD ST, WINSTON SALEM, NC, 27103",84605247,"R"
192242,"381 AVENIDA CASTILLA UNIT C","LAGUNA WOODS","CA",92637,33.6042017410001,-117.716603099,242,"381 AVENIDA CASTILLA UNIT C, LAGUNA WOODS, CA, 92637","Match","Exact","381 AVE CASTILLA, LAGUNA WOODS, CA, 92637",144062607,"R"
192243,"381 BAILEY ROAD","POLAND","ME",4274,NA,NA,243,"381 BAILEY ROAD, POLAND, ME, 4274","No_Match",NA,NA,NA,NA
192244,"381 BLYTHE CREEK DR","BLYTHEWOOD","SC",29016,34.225338246,-80.985941756,244,"381 BLYTHE CREEK DR, BLYTHEWOOD, SC, 29016","Match","Exact","381 BLYTHE CREEK DR, BLYTHEWOOD, SC, 29016",642078814,"L"
192245,"381 CARHART COURT","EAST BRUNSWICK","NJ",8816,40.457328542,-74.402437329,245,"381 CARHART COURT, EAST BRUNSWICK, NJ, 8816","Match","Exact","381 CARHART CT, E BRUNSWICK, NJ, 08816",60359814,"R"
192246,"381 CROSBY AVE","PATERSON","NJ",7502,40.9224543350001,-74.188133383,246,"381 CROSBY AVE, PATERSON, NJ, 7502","Match","Exact","381 CROSBY AVE, PATERSON, NJ, 07502",65262593,"L"
192247,"381 E COUNTRY CLUB DR","HENDERSON","NV",89015,NA,NA,247,"381 E COUNTRY CLUB DR, HENDERSON, NV, 89015","Tie",NA,NA,NA,NA
192248,"381 E SHERIDAN ST 301","DANIA BEACH","FL",33004,26.0337742300001,-80.1372894789999,248,"381 E SHERIDAN ST 301, DANIA BEACH, FL, 33004","Match","Non_Exact","381 E SHERIDAN ST, DANIA BEACH, FL, 33004",608971583,"L"
192249,"381 E STATE ROAD 2","VALPARAISO","IN",46383,41.4846381130001,-86.9912667259999,249,"381 E STATE ROAD 2, VALPARAISO, IN, 46383","Match","Non_Exact","381 E STATE RD 2, VALPARAISO, IN, 46383",119915630,"L"
192250,"381 EAST 157 ST APT 2","BRONX","NY",10451,40.8218022120001,-73.915583813,250,"381 EAST 157 ST APT 2, BRONX, NY, 10451","Match","Exact","381 E 157TH ST, BRONX, NY, 10451",80300522,"L"
192251,"381 EAST BRANCH ROAD","COOLSPRING","PA",15730,NA,NA,251,"381 EAST BRANCH ROAD, COOLSPRING, PA, 15730","No_Match",NA,NA,NA,NA
192252,"381 ELKWOOD AVENUE","IMPERIAL BEACH","CA",91932,32.578094525,-117.1256379,252,"381 ELKWOOD AVENUE, IMPERIAL BEACH, CA, 91932","Match","Exact","381 ELKWOOD AVE, IMPERIAL BEACH, CA, 91932",195688137,"R"
192253,"381 FAITH CHAPEL RD","THOMASVILLE","NC",27360,35.816675241,-80.1182365399999,253,"381 FAITH CHAPEL RD, THOMASVILLE, NC, 27360","Match","Exact","381 FAITH CHAPEL RD, THOMASVILLE, NC, 27360",20227608,"L"
192254,"381 FLATBUSH ROAD","LITTLESTOWN","PA",17340,39.7815990610001,-77.0938392049999,254,"381 FLATBUSH ROAD, LITTLESTOWN, PA, 17340","Match","Exact","381 FLATBUSH RD, LITTLESTOWN, PA, 17340",60865935,"L"
192255,"381 FOREST AVENUE SUITE 100A","LAGUNA BEACH","CA",92651,33.5439277670001,-117.782052638,255,"381 FOREST AVENUE SUITE 100A, LAGUNA BEACH, CA, 92651","Match","Exact","381 FOREST AVE, LAGUNA BEACH, CA, 92651",144068420,"R"
192256,"381 FOREST PARKWAY","FOREST PARK","GA",30297,33.6205977880001,-84.3769065979999,256,"381 FOREST PARKWAY, FOREST PARK, GA, 30297","Match","Exact","381 FOREST PKWY, FOREST PARK, GA, 30297",612838703,"R"
192257,"381 GAGE RD","BREWSTER","NY",10509,41.43973721,-73.552565376,257,"381 GAGE RD, BREWSTER, NY, 10509","Match","Exact","381 GAGE RD, BREWSTER, NY, 10509",139691662,"L"
192258,"381 HIGHLAND STREET","WEST HAVEN","CT",6516,41.2759069420001,-72.966688033,258,"381 HIGHLAND STREET, WEST HAVEN, CT, 6516","Match","Exact","381 HIGHLAND ST, W HAVEN, CT, 06516",604740167,"R"
192259,"381 HOLLAND DR","STATESVILLE","NC",28677,35.7925559130001,-80.884436485,259,"381 HOLLAND DR, STATESVILLE, NC, 28677","Match","Exact","381 HOLLAND DR, STATESVILLE, NC, 28677",45983568,"L"
192260,"381 HUGUENOT STREET","NEW ROCHELLE","NY",10801,40.9068041900001,-73.785829183,260,"381 HUGUENOT STREET, NEW ROCHELLE, NY, 10801","Match","Exact","381 HUGUENOT ST, NEW ROCHELLE, NY, 10801",139807979,"R"
192261,"381 MAIN STREET","POUGHKEEPSIE","NY",12601,41.702285788,-73.924051822,261,"381 MAIN STREET, POUGHKEEPSIE, NY, 12601","Match","Exact","381 MAIN ST, POUGHKEEPSIE, NY, 12601",4168043,"L"
192262,"381 MAIN STREET","WEST NEWBURY","MA",1985,42.8006851430001,-70.989705106,262,"381 MAIN STREET, WEST NEWBURY, MA, 1985","Match","Exact","381 MAIN ST, WEST NEWBURY, MA, 01985",86687155,"R"
192263,"381 MALTA AVE","BALLSTON SPA","NY",12020,43.013901252,-73.8343416829999,263,"381 MALTA AVE, BALLSTON SPA, NY, 12020","Match","Exact","381 MALTA AVE, BALLSTON SPA, NY, 12020",18767822,"L"
192264,"381 MARACA ST","PUNTA GORDA","FL",33983,27.02227258,-82.0299059499999,264,"381 MARACA ST, PUNTA GORDA, FL, 33983","Match","Exact","381 MARACA ST, PUNTA GORDA, FL, 33983",4316905,"R"
192265,"381 MEADOW LN","MURFREESBORO","TN",37128,35.8490186590001,-86.484838382,265,"381 MEADOW LN, MURFREESBORO, TN, 37128","Match","Exact","381 MEADOW LN, MURFREESBORO, TN, 37128",59029402,"R"
192266,"381 MEREDITH DRIVE","SAN ANTONIO","TX",78228,29.4659037230001,-98.5463753719999,266,"381 MEREDITH DRIVE, SAN ANTONIO, TX, 78228","Match","Exact","381 MEREDITH DR, SAN ANTONIO, TX, 78228",101512519,"R"
192267,"381 MILL STREET","CONNEAUT","OH",44030,41.946901423,-80.5600927039999,267,"381 MILL STREET, CONNEAUT, OH, 44030","Match","Exact","381 MILL ST, CONNEAUT, OH, 44030",117310033,"L"
192268,"381 N HIGHLAND AVENUE","OSSINING","NY",10562,41.178773603,-73.8689344049999,268,"381 N HIGHLAND AVENUE, OSSINING, NY, 10562","Match","Exact","381 N HIGHLAND AVE, OSSINING, NY, 10562",139726582,"L"
192269,"381 OLD STAGE ROAD","WAYNESVILLE","OH",45068,39.5375198990001,-84.084529692,269,"381 OLD STAGE ROAD, WAYNESVILLE, OH, 45068","Match","Exact","381 OLD STAGE RD, WAYNESVILLE, OH, 45068",159032053,"R"
192270,"381 ORANGE LANE","CASSELBERRY","FL",32707,28.670505426,-81.345309641,270,"381 ORANGE LANE, CASSELBERRY, FL, 32707","Match","Exact","381 ORANGE LN, CASSELBERRY, FL, 32707",93763246,"R"
192271,"381 PENNSYLVANIA AVE","LOS GATOS","CA",95030,37.2263431800001,-121.991934588,271,"381 PENNSYLVANIA AVE, LOS GATOS, CA, 95030","Match","Exact","381 PENNSYLVANIA AVE, LOS GATOS, CA, 95030",122943646,"R"
192272,"381 PINEDALE AVENUE","SACRAMENTO","CA",95838,38.660297816,-121.457225418,272,"381 PINEDALE AVENUE, SACRAMENTO, CA, 95838","Match","Exact","381 PINEDALE AVE, SACRAMENTO, CA, 95838",133391083,"L"
192273,"381 PROVIDENCE DRIVE","MATTESON","IL",60443,41.518797702,-87.7439432049999,273,"381 PROVIDENCE DRIVE, MATTESON, IL, 60443","Match","Exact","381 PROVIDENCE DR, MATTESON, IL, 60443",637492776,"R"
192274,"381 QUINNIPIAC AVENUE","NORTH HAVEN","CT",6473,41.358143597,-72.857610704,274,"381 QUINNIPIAC AVENUE, NORTH HAVEN, CT, 6473","Match","Exact","381 QUINNIPIAC AVE, NORTH HAVEN, CT, 06473",3704860,"R"
192275,"381 RED ELM LANE","BOWLING GREEN","KY",42101,36.923231689,-86.5175638549999,275,"381 RED ELM LANE, BOWLING GREEN, KY, 42101","Match","Exact","381 RED ELM LN, BOWLING GREEN, KY, 42101",651583699,"L"
192276,"381 ROBERSON ROAD","PLAIN DEALING","LA",71064,32.8922458370001,-93.5731009,276,"381 ROBERSON ROAD, PLAIN DEALING, LA, 71064","Match","Exact","381 ROBERSON RD, PLAIN DEALING, LA, 71064",108521315,"R"
192277,"381 S DARRINGTON RD","EL PASO","TX",79928,NA,NA,277,"381 S DARRINGTON RD, EL PASO, TX, 79928","No_Match",NA,NA,NA,NA
192278,"381 S ORCHARD DR","BOLINGBROOK","IL",60440,41.6864998510001,-88.0985285209999,278,"381 S ORCHARD DR, BOLINGBROOK, IL, 60440","Match","Exact","381 ORCHARD DR, BOLINGBROOK, IL, 60440",111604279,"R"
192279,"381 SAYRE DR","PRINCETON","NJ",8540,40.3540246960001,-74.6225141789999,279,"381 SAYRE DR, PRINCETON, NJ, 8540","Match","Exact","381 SAYRE DR, PRINCETON, NJ, 08540",60310724,"L"
192280,"381 SHADOW OAKS","IRVINE","CA",92618,33.671428748,-117.785519669,280,"381 SHADOW OAKS, IRVINE, CA, 92618","Match","Exact","381 SHADOW OAKS, IRVINE, CA, 92618",633525890,"L"
192281,"381 SOUTH 6000 WEST","MENDON","UT",84325,NA,NA,281,"381 SOUTH 6000 WEST, MENDON, UT, 84325","No_Match",NA,NA,NA,NA
192282,"381 SOUTH ARGYLE AVE","ELMHURST","IL",60126,41.8892407110001,-87.94794854,282,"381 SOUTH ARGYLE AVE, ELMHURST, IL, 60126","Match","Non_Exact","381 ARGYLE AVE, ELMHURST, IL, 60126",112545106,"L"
192283,"381 SOUTH STREET","LITCHFIELD","CT",6759,41.734418261,-73.1863269419999,283,"381 SOUTH STREET, LITCHFIELD, CT, 6759","Match","Exact","381 SOUTH ST, LITCHFIELD, CT, 06759",3127710,"L"
192284,"381 STARLIGHT LANE","JUNO BEACH","FL",33408,26.8702617390001,-80.053290578,284,"381 STARLIGHT LANE, JUNO BEACH, FL, 33408","Match","Exact","381 STARLIGHT LN, JUNO BEACH, FL, 33408",115274759,"R"
192285,"381 SW 95TH TERRACE","PEMBROKE PINES","FL",33025,26.00507306,-80.272800173,285,"381 SW 95TH TERRACE, PEMBROKE PINES, FL, 33025","Match","Exact","381 SW 95TH TER, PEMBROKE PINES, FL, 33025",114770770,"L"
192286,"381 W ELM AVENUE","MCBEE","SC",29101,NA,NA,286,"381 W ELM AVENUE, MCBEE, SC, 29101","No_Match",NA,NA,NA,NA
192287,"381 W HOSPITAL DRIVE","OROFINO","ID",83544,NA,NA,287,"381 W HOSPITAL DRIVE, OROFINO, ID, 83544","Tie",NA,NA,NA,NA
192288,"381 W ROADRUNNER DRIVE","CHANDLER","AZ",85286,33.264655814,-111.847934471,288,"381 W ROADRUNNER DRIVE, CHANDLER, AZ, 85286","Match","Exact","381 W ROADRUNNER DR, CHANDLER, AZ, 85286",128860057,"L"
192289,"381 YOCTANGEE PARKWAY","CHILLICOTHE","OH",45601,39.341166876,-82.9888618959999,289,"381 YOCTANGEE PARKWAY, CHILLICOTHE, OH, 45601","Match","Exact","381 YOCTANGEE PKWY, CHILLICOTHE, OH, 45601",37481702,"R"
192290,"3810 12TH AVE","VIENNA","WV",26105,39.3278788700001,-81.5379363869999,290,"3810 12TH AVE, VIENNA, WV, 26105","Match","Exact","3810 12TH AVE, VIENNA, WV, 26105",648529272,"R"
192291,"3810 40TH AVE SE","TAPPEN","ND",58487,46.8638059190001,-99.616235683,291,"3810 40TH AVE SE, TAPPEN, ND, 58487","Match","Exact","3810 40TH AVE SE, TAPPEN, ND, 58487",647901563,"R"
192292,"3810 ALTAMESA BLVD","FORT WORTH","TX",76133,NA,NA,292,"3810 ALTAMESA BLVD, FORT WORTH, TX, 76133","No_Match",NA,NA,NA,NA
192293,"3810 ATHENS DR","PASADENA","TX",77505,29.653563666,-95.1401608,293,"3810 ATHENS DR, PASADENA, TX, 77505","Match","Exact","3810 ATHENS DR, PASADENA, TX, 77505",96543653,"L"
192294,"3810 AUSHERMAN ROAD","KNOXVILLE","MD",21758,39.3384217720001,-77.580245221,294,"3810 AUSHERMAN ROAD, KNOXVILLE, MD, 21758","Match","Exact","3810 AUSHERMAN RD, KNOXVILLE, MD, 21758",645480981,"L"
192295,"3810 BONITA LN","LA PORTE","TX",77571,29.6165635630001,-95.001500628,295,"3810 BONITA LN, LA PORTE, TX, 77571","Match","Exact","3810 BONITA LN, LA PORTE, TX, 77571",96116980,"L"
192296,"3810 BORMAN CT","GULF SHORES","AL",36542,NA,NA,296,"3810 BORMAN CT, GULF SHORES, AL, 36542","No_Match",NA,NA,NA,NA
192297,"3810 DESERT FOX DRIVE","SPARKS","NV",89436,39.6246305540001,-119.665165787,297,"3810 DESERT FOX DRIVE, SPARKS, NV, 89436","Match","Exact","3810 DESERT FOX DR, SPARKS, NV, 89436",619594662,"L"
192298,"3810 DONA DR","ZANESVILLE","OH",43701,39.8768168930001,-82.05481084,298,"3810 DONA DR, ZANESVILLE, OH, 43701","Match","Exact","3810 DONA DR, ZANESVILLE, OH, 43701",45595672,"R"
192299,"3810 E ORME ST","WICHITA","KS",67218,37.676537329,-97.292099471,299,"3810 E ORME ST, WICHITA, KS, 67218","Match","Exact","3810 E ORME ST, WICHITA, KS, 67218",115648324,"L"
192300,"3810 FINLEY ROAD","IRVING","TX",75062,32.850826451,-97.000933499,300,"3810 FINLEY ROAD, IRVING, TX, 75062","Match","Exact","3810 FINLEY RD, IRVING, TX, 75062",102885860,"L"
192301,"3810 GREYSTONE AVENUE APT 407","BRONX","NY",10463,40.8875487980001,-73.905247849,301,"3810 GREYSTONE AVENUE APT 407, BRONX, NY, 10463","Match","Exact","3810 GREYSTONE AVE, BRONX, NY, 10463",80296383,"R"
192302,"3810 HADLEY LANE","MANSFIELD","TX",76084,NA,NA,302,"3810 HADLEY LANE, MANSFIELD, TX, 76084","No_Match",NA,NA,NA,NA
192303,"3810 HOFFMEISTER AVE","ST. LOUIS","MO",63125,38.5393518600001,-90.2853185129999,303,"3810 HOFFMEISTER AVE, ST. LOUIS, MO, 63125","Match","Exact","3810 HOFFMEISTER AVE, SAINT LOUIS, MO, 63125",100155153,"L"
192304,"3810 INVERRARY BLVD SUITE 401","FORT LAUDERDALE","FL",33319,26.1715925780001,-80.2370741409999,304,"3810 INVERRARY BLVD SUITE 401, FORT LAUDERDALE, FL, 33319","Match","Exact","3810 INVERRARY BLVD, FORT LAUDERDALE, FL, 33319",645589730,"R"
192305,"3810 KARRINGTON PL","MONROE","NC",28110,35.038187991,-80.590225048,305,"3810 KARRINGTON PL, MONROE, NC, 28110","Match","Exact","3810 KARRINGTON PL, MONROE, NC, 28110",14190417,"L"
192306,"3810 LUNCESTON WAY   APT 103","RALEIGH","NC",27613,35.8736974720001,-78.7179655209999,306,"3810 LUNCESTON WAY   APT 103, RALEIGH, NC, 27613","Match","Exact","3810 LUNCESTON WAY, RALEIGH, NC, 27613",612815286,"L"
192307,"3810 MCNEIL ROAD","BOAZ","KY",42027,36.9518505930001,-88.590033019,307,"3810 MCNEIL ROAD, BOAZ, KY, 42027","Match","Exact","3810 MCNEIL RD, BOAZ, KY, 42027",632857769,"R"
192308,"3810 MURRELL RD 105","ROCKLEDGE","FL",32955,28.2947749210001,-80.7219209039999,308,"3810 MURRELL RD 105, ROCKLEDGE, FL, 32955","Match","Exact","3810 MURRELL RD, ROCKLEDGE, FL, 32955",93943632,"R"
192309,"3810 MURRELL ROAD B 339","ROCKLEDGE","FL",32955,28.2947749210001,-80.7219209039999,309,"3810 MURRELL ROAD B 339, ROCKLEDGE, FL, 32955","Match","Exact","3810 MURRELL RD, ROCKLEDGE, FL, 32955",93943632,"R"
192310,"3810 MURRELL ROAD STE 186","ROCKLEDGE","FL",32955,28.2947749210001,-80.7219209039999,310,"3810 MURRELL ROAD STE 186, ROCKLEDGE, FL, 32955","Match","Exact","3810 MURRELL RD, ROCKLEDGE, FL, 32955",93943632,"R"
192311,"3810 MURRELL ROAD SUITE 149","ROCKLEDGE","FL",32955,28.2947749210001,-80.7219209039999,311,"3810 MURRELL ROAD SUITE 149, ROCKLEDGE, FL, 32955","Match","Exact","3810 MURRELL RD, ROCKLEDGE, FL, 32955",93943632,"R"
192312,"3810 N BROADWAY","SPRINGFIELD","MO",65803,37.265871369,-93.301754457,312,"3810 N BROADWAY, SPRINGFIELD, MO, 65803","Match","Non_Exact","3810 N BROADWAY AVE, SPRINGFIELD, MO, 65803",76689158,"R"
192313,"3810 N STATE ROAD 267","BROWNSBURG","IN",46112,39.818919341,-86.40095488,313,"3810 N STATE ROAD 267, BROWNSBURG, IN, 46112","Match","Exact","3810 STATE RD 267, BROWNSBURG, IN, 46112",89212795,"L"
192314,"3810 NW 11 PLACE","LAUDERHILL","FL",33311,NA,NA,314,"3810 NW 11 PLACE, LAUDERHILL, FL, 33311","No_Match",NA,NA,NA,NA
192315,"3810 NW 25TH STREET","LAUDERDALE LAKES","FL",33311,26.1567871350001,-80.199375979,315,"3810 NW 25TH STREET, LAUDERDALE LAKES, FL, 33311","Match","Exact","3810 NW 25TH ST, LAUDERDALE LAKES, FL, 33311",114777029,"L"
192316,"3810 QUENTIN ROAD","BROOKLYN","NY",11234,40.615659824,-73.935223274,316,"3810 QUENTIN ROAD, BROOKLYN, NY, 11234","Match","Exact","3810 QUENTIN RD, BROOKLYN, NY, 11234",59090413,"R"
192317,"3810 RIDGECROFT ROAD","BALTIMORE","MD",21206,39.3390967550001,-76.5583008569999,317,"3810 RIDGECROFT ROAD, BALTIMORE, MD, 21206","Match","Exact","3810 RIDGECROFT RD, BALTIMORE, MD, 21206",206411289,"L"
192318,"3810 RINGNECK DRIVE","JACKSONVILLE","FL",32226,30.460953837,-81.5602310529999,318,"3810 RINGNECK DRIVE, JACKSONVILLE, FL, 32226","Match","Exact","3810 RINGNECK DR, JACKSONVILLE, FL, 32226",615386894,"R"
192319,"3810 RIVIERA ROAD","SARTELL","MN",56377,45.6707061000001,-94.2002502729999,319,"3810 RIVIERA ROAD, SARTELL, MN, 56377","Match","Exact","3810 RIVIERA RD, SARTELL, MN, 56377",653423913,"L"
192320,"3810 S ADVANTAGE WAY DR APT 304","MEMPHIS","TN",38128,NA,NA,320,"3810 S ADVANTAGE WAY DR APT 304, MEMPHIS, TN, 38128","Tie",NA,NA,NA,NA
192321,"3810 SAINT WILLIAM LN","HOUSTON","TX",77084,29.827456001,-95.690920435,321,"3810 SAINT WILLIAM LN, HOUSTON, TX, 77084","Match","Exact","3810 SAINT WILLIAM LN, HOUSTON, TX, 77084",96015634,"R"
192322,"3810 SANDALWOOD CT SUITE 200","FAIRFAX","VA",22031,38.8428437170001,-77.2500555139999,322,"3810 SANDALWOOD CT SUITE 200, FAIRFAX, VA, 22031","Match","Exact","3810 SANDALWOOD CT, FAIRFAX, VA, 22031",76016127,"R"
192323,"3810 SAULS ROAD","AUBREY","TX",76227,33.290852376,-97.070832143,323,"3810 SAULS ROAD, AUBREY, TX, 76227","Match","Exact","3810 SAULS RD, AUBREY, TX, 76227",641271401,"R"
192324,"3810 SHADOW PEAK STREET","LAS VEGAS","NV",89129,36.2281668790001,-115.322780987,324,"3810 SHADOW PEAK STREET, LAS VEGAS, NV, 89129","Match","Exact","3810 SHADOW PEAK ST, LAS VEGAS, NV, 89129",202002124,"R"
192325,"3810 SHELBY CIRCLE","HOUSTON","TX",77051,29.6706909000001,-95.3681140159999,325,"3810 SHELBY CIRCLE, HOUSTON, TX, 77051","Match","Exact","3810 SHELBY CIR, HOUSTON, TX, 77051",96543564,"R"
192326,"3810 SHEPHERDSVILLE ROAD","LOUISVILLE","KY",40218,38.189302776,-85.6597563879999,326,"3810 SHEPHERDSVILLE ROAD, LOUISVILLE, KY, 40218","Match","Exact","3810 SHEPHERDSVILLE RD, LOUISVILLE, KY, 40218",96908152,"R"
192327,"3810 SW MISSION AVE","TOPEKA","KS",66610,38.997063423,-95.72666143,327,"3810 SW MISSION AVE, TOPEKA, KS, 66610","Match","Exact","3810 SW MISSION AVE, TOPEKA, KS, 66610",17906873,"R"
192328,"3810 TRAPPERS FOREST DR","HOUSTON","TX",77088,29.8677809810001,-95.461009098,328,"3810 TRAPPERS FOREST DR, HOUSTON, TX, 77088","Match","Exact","3810 TRAPPERS FOREST DR, HOUSTON, TX, 77088",96027463,"L"
192329,"3810 W PARK CREEK DR","MERIDIAN","ID",83642,43.616627157,-116.440872058,329,"3810 W PARK CREEK DR, MERIDIAN, ID, 83642","Match","Exact","3810 W PARK CREEK DR, MERIDIAN, ID, 83642",117914758,"R"
192330,"3810 W RIVERSIDE AVE","MUNCIE","IN",47304,40.200249108,-85.431150626,330,"3810 W RIVERSIDE AVE, MUNCIE, IN, 47304","Match","Exact","3810 W RIVERSIDE AVE, MUNCIE, IN, 47304",30833622,"R"
192331,"3810 W STREET 201 SE","WASHINGTON","DC",20020,38.863062025,-76.9519524299999,331,"3810 W STREET 201 SE, WASHINGTON, DC, 20020","Match","Non_Exact","3810 W ST SE, WASHINGTON, DC, 20020",76233746,"L"
192332,"3810 WAKE FOREST HIGHWAY","DURHAM","NC",27703,NA,NA,332,"3810 WAKE FOREST HIGHWAY, DURHAM, NC, 27703","No_Match",NA,NA,NA,NA
192333,"3810 WEST COURT STREET","FLINT","MI",48532,NA,NA,333,"3810 WEST COURT STREET, FLINT, MI, 48532","No_Match",NA,NA,NA,NA
192334,"3810 WINONA AVE APT 215","SAN DIEGO","CA",92105,32.747146753,-117.087963453,334,"3810 WINONA AVE APT 215, SAN DIEGO, CA, 92105","Match","Exact","3810 WINONA AVE, SAN DIEGO, CA, 92105",195350170,"L"
192335,"38100 PLACER CREEK ST","MURRIETA","CA",92562,33.5681736000001,-117.250722282,335,"38100 PLACER CREEK ST, MURRIETA, CA, 92562","Match","Exact","38100 PLACER CREEK ST, MURRIETA, CA, 92562",195088297,"L"
192336,"3811 10TH AVE S","MINNEAPOLIS","MN",55407,44.933843208,-93.259962349,336,"3811 10TH AVE S, MINNEAPOLIS, MN, 55407","Match","Exact","3811 10TH AVE S, MINNEAPOLIS, MN, 55407",43634794,"L"
192337,"3811 22ND AVE","MOLINE","IL",61265,41.4920713870001,-90.481646484,337,"3811 22ND AVE, MOLINE, IL, 61265","Match","Exact","3811 22ND AVE, MOLINE, IL, 61265",9213895,"L"
192338,"3811 24TH STREET NE","WASHINGTON","DC",20018,38.9365979660001,-76.972159303,338,"3811 24TH STREET NE, WASHINGTON, DC, 20018","Match","Exact","3811 24TH ST NE, WASHINGTON, DC, 20018",76229212,"R"
192339,"3811 ASQUITH COURT","SPRINGDALE","MD",20774,38.9422380510001,-76.841676605,339,"3811 ASQUITH COURT, SPRINGDALE, MD, 20774","Match","Exact","3811 ASQUITH CT, SPRINGDALE, MD, 20774",76341561,"R"
192340,"3811 CABILDO PLACE","OCEAN SPRINGS","MS",39564,30.403512592,-88.7624195879999,340,"3811 CABILDO PLACE, OCEAN SPRINGS, MS, 39564","Match","Exact","3811 CABILDO PL, OCEAN SPRINGS, MS, 39564",89266987,"L"
192341,"3811 COLUMBUS AVE","NORFOLK","VA",23504,36.8813416850001,-76.280051156,341,"3811 COLUMBUS AVE, NORFOLK, VA, 23504","Match","Exact","3811 COLUMBUS AVE, NORFOLK, VA, 23504",122134022,"L"
192342,"3811 DAUPHINE ST","NEW ORLEANS","LA",70117,29.962851216,-90.0380584979999,342,"3811 DAUPHINE ST, NEW ORLEANS, LA, 70117","Match","Exact","3811 DAUPHINE ST, NEW ORLEANS, LA, 70117",191717384,"L"
192343,"3811 DEEP HOLLOW WAY","BOWIE","MD",20721,38.9410900980001,-76.7516741599999,343,"3811 DEEP HOLLOW WAY, BOWIE, MD, 20721","Match","Exact","3811 DEEP HOLLOW WAY, BOWIE, MD, 20721",624786980,"L"
192344,"3811 DELINA ROAD","CORNERSVILLE","TN",37047,35.3006315060001,-86.799748859,344,"3811 DELINA ROAD, CORNERSVILLE, TN, 37047","Match","Exact","3811 DELINA RD, CORNERSVILLE, TN, 37047",58973446,"R"
192345,"3811 DUCKLING WALK","GLEN ALLEN","VA",23060,NA,NA,345,"3811 DUCKLING WALK, GLEN ALLEN, VA, 23060","No_Match",NA,NA,NA,NA
192346,"3811 FLORIN ROAD STE 29","SACRAMENTO","CA",95823,38.4960277930001,-121.462733726,346,"3811 FLORIN ROAD STE 29, SACRAMENTO, CA, 95823","Match","Exact","3811 FLORIN RD, SACRAMENTO, CA, 95823",133351239,"L"
192347,"3811 GLEN EAGLES BL","UNIONTOWN","OH",44685,40.961897272,-81.443176028,347,"3811 GLEN EAGLES BL, UNIONTOWN, OH, 44685","Match","Exact","3811 GLEN EAGLES BLVD, UNIONTOWN, OH, 44685",61367458,"L"
192348,"3811 HUNTINGTON STREET NE","ST PETERSBURG","FL",33703,27.8067014320001,-82.6052241529999,348,"3811 HUNTINGTON STREET NE, ST PETERSBURG, FL, 33703","Match","Exact","3811 HUNTINGTON ST NE, SAINT PETERSBURG, FL, 33703",124712981,"R"
192349,"3811 LOCKPORT ST  SUITE 2","BISMARCK","ND",58503,46.8473398020001,-100.774043105,349,"3811 LOCKPORT ST  SUITE 2, BISMARCK, ND, 58503","Match","Exact","3811 LOCKPORT ST, BISMARCK, ND, 58503",198868199,"L"
192350,"3811 LOUISE AVE","CHANTILLY","VA",20151,38.89833938,-77.423134654,350,"3811 LOUISE AVE, CHANTILLY, VA, 20151","Match","Exact","3811 LOUISE AVE, CHANTILLY, VA, 20151",624844931,"L"
192351,"3811 LUNCESTON WAY 307","RALEIGH","NC",27613,NA,NA,351,"3811 LUNCESTON WAY 307, RALEIGH, NC, 27613","No_Match",NA,NA,NA,NA
192352,"3811 METRO PARKWAY UNIT 11205","FORT MYERS","FL",33916,26.606372784,-81.850545895,352,"3811 METRO PARKWAY UNIT 11205, FORT MYERS, FL, 33916","Match","Exact","3811 METRO PKWY, FORT MYERS, FL, 33916",118109200,"L"
192353,"3811 MONTGOMERY WAY","SMYRNA","TN",37167,35.9489990610001,-86.577975481,353,"3811 MONTGOMERY WAY, SMYRNA, TN, 37167","Match","Exact","3811 MONTGOMERY WAY, SMYRNA, TN, 37167",643086044,"L"
192354,"3811 N DAVIS ST","JACKSONVILLE","FL",32209,30.361859752,-81.6673630349999,354,"3811 N DAVIS ST, JACKSONVILLE, FL, 32209","Match","Exact","3811 N DAVIS ST, JACKSONVILLE, FL, 32209",83893315,"R"
192355,"3811 NORTHERN OAK DRIVE","CERES","CA",95307,37.598019164,-120.925186468,355,"3811 NORTHERN OAK DRIVE, CERES, CA, 95307","Match","Exact","3811 NORTHERN OAK DR, CERES, CA, 95307",614138105,"R"
192356,"3811 NW 21ST STREET 301","FORT LAUDERDALE","FL",33311,26.1528635600001,-80.2005206599999,356,"3811 NW 21ST STREET 301, FORT LAUDERDALE, FL, 33311","Match","Non_Exact","3811 NW 21ST ST, FORT LAUDERDALE, FL, 33311",636820584,"L"
192357,"3811 PARK HEIGHTS AVENUE","BALTIMORE","MD",21215,39.3322722070001,-76.6609040659999,357,"3811 PARK HEIGHTS AVENUE, BALTIMORE, MD, 21215","Match","Exact","3811 PARK HEIGHTS AVE, BALTIMORE, MD, 21215",640515613,"R"
192358,"3811 PROSPERITY CHURCH RD","CHARLOTTE","NC",28269,35.350136804,-80.775435801,358,"3811 PROSPERITY CHURCH RD, CHARLOTTE, NC, 28269","Match","Exact","3811 PROSPERITY CHURCH RD, CHARLOTTE, NC, 28269",635658032,"L"
192359,"3811 SPRING HILL ROAD","JOPLIN","MO",64804,37.049819497,-94.562535025,359,"3811 SPRING HILL ROAD, JOPLIN, MO, 64804","Match","Exact","3811 SPRING HILL, JOPLIN, MO, 64804",55993628,"L"
192360,"3811 STAUNTON AVE SE","CHARLESTON","WV",25304,38.3293312600001,-81.592594425,360,"3811 STAUNTON AVE SE, CHARLESTON, WV, 25304","Match","Exact","3811 STAUNTON AVE SE, CHARLESTON, WV, 25304",78595541,"R"
192361,"3811 STEINBROOKE TERRACE","COLUMBIA","MO",65203,38.8925432790001,-92.394587847,361,"3811 STEINBROOKE TERRACE, COLUMBIA, MO, 65203","Match","Exact","3811 STEINBROOKE TER, COLUMBIA, MO, 65203",649862131,"R"
192362,"3811 SUNFLOWER CIRCLE","MITCHELLVILLE","MD",20721,38.9423814850001,-76.815125263,362,"3811 SUNFLOWER CIRCLE, MITCHELLVILLE, MD, 20721","Match","Exact","3811 SUNFLOWER CIR, MITCHELLVILLE, MD, 20721",76336588,"R"
192363,"3811 SW 124 COURT","MIAMI","FL",33175,25.7333112580001,-80.396631753,363,"3811 SW 124 COURT, MIAMI, FL, 33175","Match","Exact","3811 SW 124TH CT, MIAMI, FL, 33175",116055577,"L"
192364,"3811 SWANN RD","SUITLAND","MD",20746,38.836997631,-76.918555488,364,"3811 SWANN RD, SUITLAND, MD, 20746","Match","Exact","3811 SWANN RD, SUITLAND, MD, 20746",76314573,"R"
192365,"3811 SWEET HAVEN","ADDISON","NY",14801,42.1810455500001,-77.273840051,365,"3811 SWEET HAVEN, ADDISON, NY, 14801","Match","Exact","3811 SWEET HAVEN, ADDISON, NY, 14801",14716051,"L"
192366,"3811 T ST NW","WASHINGTON","DC",20007,38.9153473700001,-77.074466141,366,"3811 T ST NW, WASHINGTON, DC, 20007","Match","Exact","3811 T ST NW, WASHINGTON, DC, 20007",76220993,"R"
192367,"3811 W CHARLESTON BLVD106","LAS VEGAS","NV",89102,NA,NA,367,"3811 W CHARLESTON BLVD106, LAS VEGAS, NV, 89102","No_Match",NA,NA,NA,NA
192368,"38111 WEST SPAULDING STREET","CONCORD","OH",44060,NA,NA,368,"38111 WEST SPAULDING STREET, CONCORD, OH, 44060","No_Match",NA,NA,NA,NA
192369,"38117 13TH STREET EAST","PALMDALE","CA",93550,34.575669217,-118.104729722,369,"38117 13TH STREET EAST, PALMDALE, CA, 93550","Match","Exact","38117 13TH ST E, PALMDALE, CA, 93550",141778166,"L"
192370,"3811NORTH EMERSON AVENUE","INDIANAPOLIS","IN",46226,NA,NA,370,"3811NORTH EMERSON AVENUE, INDIANAPOLIS, IN, 46226","No_Match",NA,NA,NA,NA
192371,"3812 169TH STREET APT9","HAMMOND","IN",46323,41.588113811,-87.436812047,371,"3812 169TH STREET APT9, HAMMOND, IN, 46323","Match","Exact","3812 169TH ST, HAMMOND, IN, 46323",606293617,"R"
192372,"3812 240TH PL SE","SAMMAMISH","WA",98029,47.574579284,-122.019822086,372,"3812 240TH PL SE, SAMMAMISH, WA, 98029","Match","Exact","3812 240TH PL SE, SAMMAMISH, WA, 98029",186926895,"L"
192373,"3812 39TH STREET","DES MOINES","IA",50310,41.630001367,-93.669624238,373,"3812 39TH STREET, DES MOINES, IA, 50310","Match","Exact","3812 39TH ST, DES MOINES, IA, 50310",65779364,"L"
192374,"3812 8TH ST NW UNIT A","WASHINGTON","DC",20011,38.9380589940001,-77.023159256,374,"3812 8TH ST NW UNIT A, WASHINGTON, DC, 20011","Match","Exact","3812 8TH ST NW, WASHINGTON, DC, 20011",76223647,"L"
192375,"3812 APPLETON LN","FLOWER MOUND","TX",75022,33.0355138130001,-97.089252908,375,"3812 APPLETON LN, FLOWER MOUND, TX, 75022","Match","Exact","3812 APPLETON LN, FLOWER MOUND, TX, 75022",103417005,"R"
192376,"3812 BENETTON WAY","LEANDER","TX",78641,30.526643101,-97.8980298559999,376,"3812 BENETTON WAY, LEANDER, TX, 78641","Match","Exact","3812 BENETTON WAY, LEANDER, TX, 78641",641748606,"R"
192377,"3812 BROCKETT TRAIL UNIT K","CLARKSTON","GA",30021,33.8220680850001,-84.2324787479999,377,"3812 BROCKETT TRAIL UNIT K, CLARKSTON, GA, 30021","Match","Exact","3812 BROCKETT TRL, CLARKSTON, GA, 30021",23362933,"R"
192378,"3812 BRUCE ROAD","CHESAPEAKE","VA",23321,36.8348133550001,-76.391788849,378,"3812 BRUCE ROAD, CHESAPEAKE, VA, 23321","Match","Exact","3812 BRUCE RD, CHESAPEAKE, VA, 23321",121784208,"R"
192379,"3812 CAMP ROAD","GREER","SC",29651,35.014806304,-82.279800806,379,"3812 CAMP ROAD, GREER, SC, 29651","Match","Exact","3812 CAMP RD, GREER, SC, 29651",38319084,"L"
192380,"3812 CREST RD","DREXEL HILL","PA",19026,39.941434359,-75.295032256,380,"3812 CREST RD, DREXEL HILL, PA, 19026","Match","Exact","3812 CREST RD, DREXEL HILL, PA, 19026",134876625,"L"
192381,"3812 DEBONAIR DRIVE","KNOXVILLE","TN",37912,35.993693809,-83.998890602,381,"3812 DEBONAIR DRIVE, KNOXVILLE, TN, 37912","Match","Exact","3812 DEBONAIR DR, KNOXVILLE, TN, 37912",42659683,"R"
192382,"3812 E 67TH TER","KANSAS CITY","MO",64132,39.0037507120001,-94.542211249,382,"3812 E 67TH TER, KANSAS CITY, MO, 64132","Match","Exact","3812 E 67TH TER, KANSAS CITY, MO, 64132",91457343,"L"
192383,"3812 E 72ND ST","KANSAS CITY","MO",64132,38.9955613070001,-94.5426681759999,383,"3812 E 72ND ST, KANSAS CITY, MO, 64132","Match","Exact","3812 E 72ND ST, KANSAS CITY, MO, 64132",91457391,"L"
192384,"3812 EAST IONA TERR","CUDAHY","WI",53110,42.9393337060001,-87.8545591869999,384,"3812 EAST IONA TERR, CUDAHY, WI, 53110","Match","Exact","3812 E IONA TER, CUDAHY, WI, 53110",77756474,"L"
192385,"3812 ETHRDGE PL NW","KENNESAW","GA",30144,34.045410023,-84.565304342,385,"3812 ETHRDGE PL NW, KENNESAW, GA, 30144","Match","Non_Exact","3812 ETHRIDGE PL NW, KENNESAW, GA, 30144",17234135,"L"
192386,"3812 HILLSBORO PIKE","NASHVILLE","TN",37215,36.1075958820001,-86.8128180309999,386,"3812 HILLSBORO PIKE, NASHVILLE, TN, 37215","Match","Exact","3812 HILLSBORO PIKE, NASHVILLE, TN, 37215",642165049,"R"
192387,"3812 JOG ROAD","GREENACRES","FL",33467,26.6207006560001,-80.1466232509999,387,"3812 JOG ROAD, GREENACRES, FL, 33467","Match","Exact","3812 JOG RD, GREENACRES, FL, 33467",115533144,"L"
192388,"3812 LAKEBEND DR APT B3","DAYTON","OH",45404,39.7974796080001,-84.154710408,388,"3812 LAKEBEND DR APT B3, DAYTON, OH, 45404","Match","Exact","3812 LAKEBEND DR, DAYTON, OH, 45404",143628967,"R"
192389,"3812 LAMBDA DRIVE","ERLANGER","KY",41018,38.999433986,-84.589589952,389,"3812 LAMBDA DRIVE, ERLANGER, KY, 41018","Match","Exact","3812 LAMBDA DR, ERLANGER, KY, 41018",103890091,"R"
192390,"3812 MEMORIAL BLVD APT 3","KINGSPORT","TN",37664,36.5295577540001,-82.501714894,390,"3812 MEMORIAL BLVD APT 3, KINGSPORT, TN, 37664","Match","Exact","3812 MEMORIAL BLVD, KINGSPORT, TN, 37664",604778750,"L"
192391,"3812 MILAN DR STE 6","ALEXANDRIA","VA",22305,38.841514676,-77.070006886,391,"3812 MILAN DR STE 6, ALEXANDRIA, VA, 22305","Match","Exact","3812 MILAN DR, ALEXANDRIA, VA, 22305",75987236,"L"
192392,"3812 NW 69TH ST","OKLAHOMA CITY","OK",73116,35.5421086790001,-97.587623562,392,"3812 NW 69TH ST, OKLAHOMA CITY, OK, 73116","Match","Exact","3812 NW 69TH ST, OKLAHOMA CITY, OK, 73116",100393129,"L"
192393,"3812 PRESTON POINTE WAY","CUMMING","GA",30041,34.1297942370001,-84.1135939229999,393,"3812 PRESTON POINTE WAY, CUMMING, GA, 30041","Match","Non_Exact","3812 PRESTON POINT WAY, CUMMING, GA, 30041",634100695,"R"
192394,"3812 ROCK TRAIL","PLANO","TX",75074,33.047673305,-96.657048897,394,"3812 ROCK TRAIL, PLANO, TX, 75074","Match","Exact","3812 ROCK TRL, PLANO, TX, 75074",123548042,"R"
192395,"3812 S UNION AVE","TULSA","OK",74107,36.107143498,-96.0116029,395,"3812 S UNION AVE, TULSA, OK, 74107","Match","Exact","3812 S UNION AVE, TULSA, OK, 74107",166510924,"R"
192396,"3812 SNOWDANCE COURT","COLLEGE STATION","TX",77845,30.565777761,-96.29279888,396,"3812 SNOWDANCE COURT, COLLEGE STATION, TX, 77845","Match","Exact","3812 SNOWDANCE CT, COLLEGE STATION, TX, 77845",617264797,"R"
192397,"3812 SWAN HOUSE COURT","BURTONSVILLE","MD",20866,39.090108286,-76.9311491829999,397,"3812 SWAN HOUSE COURT, BURTONSVILLE, MD, 20866","Match","Exact","3812 SWAN HOUSE CT, BURTONSVILLE, MD, 20866",638658076,"R"
192398,"3812 TIOGA STREET","DALLAS","TX",75241,32.663918557,-96.7577736269999,398,"3812 TIOGA STREET, DALLAS, TX, 75241","Match","Exact","3812 TIOGA ST, DALLAS, TX, 75241",103190646,"R"
192399,"3812 VALLEY SPRINGS AVE","BAKERSFIELD","CA",93309,35.3225477880001,-119.043276859,399,"3812 VALLEY SPRINGS AVE, BAKERSFIELD, CA, 93309","Match","Exact","3812 VALLEY SPRINGS AVE, BAKERSFIELD, CA, 93309",109091703,"R"
192400,"3812 VANGUARD CIRCLE","CARMEL","IN",46032,39.946786665,-86.2292511269999,400,"3812 VANGUARD CIRCLE, CARMEL, IN, 46032","Match","Exact","3812 VANGUARD CIR, CARMEL, IN, 46032",29316515,"L"
192401,"3812 W LINEBAUGH AVE","TAMPA","FL",33618,28.040131812,-82.505358616,401,"3812 W LINEBAUGH AVE, TAMPA, FL, 33618","Match","Exact","3812 W LINEBAUGH AVE, TAMPA, FL, 33618",104513984,"L"
192402,"3812 WAUCHULA STREET","CHATTANOOGA","TN",37406,35.0755109400001,-85.22951664,402,"3812 WAUCHULA STREET, CHATTANOOGA, TN, 37406","Match","Exact","3812 WAUCHULA ST, CHATTANOOGA, TN, 37406",59310110,"R"
192403,"3812 WEST GRETNA RD","GRETNA","VA",24557,36.953565133,-79.425822137,403,"3812 WEST GRETNA RD, GRETNA, VA, 24557","Match","Exact","3812 W GRETNA RD, GRETNA, VA, 24557",56628359,"L"
192404,"3812 WOLF CREEK","MELISSA","TX",75454,33.297852774,-96.548434151,404,"3812 WOLF CREEK, MELISSA, TX, 75454","Match","Non_Exact","3812 WOLF CREEK LN, MELISSA, TX, 75454",616836289,"L"
192405,"3812 YORKLAND DR NW APT 1","COMSTOCK PARK","MI",49321,43.0329920130001,-85.683118854,405,"3812 YORKLAND DR NW APT 1, COMSTOCK PARK, MI, 49321","Match","Non_Exact","3812 YORKLAND DR, COMSTOCK PARK, MI, 49321",650134061,"L"
192406,"38123 COUNTY STREET 2650","ANADARKO","OK",73005,NA,NA,406,"38123 COUNTY STREET 2650, ANADARKO, OK, 73005","No_Match",NA,NA,NA,NA
192407,"3813 1/2 WEST 54TH STREET","LOS ANGELES","CA",90043,33.9930637580001,-118.340368903,407,"3813 1/2 WEST 54TH STREET, LOS ANGELES, CA, 90043","Match","Exact","3813 W 54TH ST, LOS ANGELES, CA, 90043",141654722,"R"
192408,"3813 187TH PL SE","BOTHELL","WA",98012,47.827522908,-122.181801668,408,"3813 187TH PL SE, BOTHELL, WA, 98012","Match","Exact","3813 187TH PL SE, BOTHELL, WA, 98012",608926443,"L"
192409,"3813 CLAREMONT LANE","WOODBRIDGE","VA",22193,38.6234383560001,-77.3267372029999,409,"3813 CLAREMONT LANE, WOODBRIDGE, VA, 22193","Match","Exact","3813 CLAREMONT LN, WOODBRIDGE, VA, 22193",76509311,"L"
192410,"3813 DAISY LANE","WARRENTON","VA",20187,38.740166845,-77.70252005,410,"3813 DAISY LANE, WARRENTON, VA, 20187","Match","Exact","3813 DAISY LN, WARRENTON, VA, 20187",641137550,"L"
192411,"3813 DUCK RD 6","GRANDVIEW","MO",64030,38.8952319640001,-94.544053648,411,"3813 DUCK RD 6, GRANDVIEW, MO, 64030","Match","Exact","3813 DUCK RD, GRANDVIEW, MO, 64030",91476555,"R"
192412,"3813 E EVAN LANE","COLBERT","WA",99005,47.8188113200001,-117.355160884,412,"3813 E EVAN LANE, COLBERT, WA, 99005","Match","Exact","3813 E EVAN LN, COLBERT, WA, 99005",605634397,"L"
192413,"3813 EAST CATHEDRAL ROCK DRIVE","PHOENIX","AZ",85044,33.3083667450001,-112.004373866,413,"3813 EAST CATHEDRAL ROCK DRIVE, PHOENIX, AZ, 85044","Match","Exact","3813 E CATHEDRAL ROCK DR, PHOENIX, AZ, 85044",647729977,"R"
192414,"3813 EASTWAY RD","SOUTH EUCLID","OH",44118,41.504570862,-81.5425095859999,414,"3813 EASTWAY RD, SOUTH EUCLID, OH, 44118","Match","Exact","3813 EASTWAY RD, SOUTH EUCLID, OH, 44118",61125181,"L"
192415,"3813 GAILYN DR","BARTLETT","TN",38135,35.2291901500001,-89.857876875,415,"3813 GAILYN DR, BARTLETT, TN, 38135","Match","Exact","3813 GAILYN DR, BARTLETT, TN, 38135",72941446,"L"
192416,"3813 GREEN HILLS VILLAGE DR","NASHVILLE","TN",37215,36.109332577,-86.81535653,416,"3813 GREEN HILLS VILLAGE DR, NASHVILLE, TN, 37215","Match","Exact","3813 GREEN HILLS VILLAGE DR, NASHVILLE, TN, 37215",97230276,"L"
192417,"3813 HELIOS WAY SUITE B260","PFLUGERVILLE","TX",78660,30.4206525540001,-97.592773408,417,"3813 HELIOS WAY SUITE B260, PFLUGERVILLE, TX, 78660","Match","Exact","3813 HELIOS WAY, PFLUGERVILLE, TX, 78660",641801007,"R"
192418,"3813 HIGHGATE DRIVE","VALRICO","FL",33594,27.9155045370001,-82.2334263179999,418,"3813 HIGHGATE DRIVE, VALRICO, FL, 33594","Match","Exact","3813 HIGHGATE DR, VALRICO, FL, 33594",104545234,"L"
192419,"3813 HOUSTON LAKE DR","PEARLAND","TX",77581,29.5360809100001,-95.261971407,419,"3813 HOUSTON LAKE DR, PEARLAND, TX, 77581","Match","Exact","3813 HOUSTON LAKE DR, PEARLAND, TX, 77581",116649795,"R"
192420,"3813 JOCELYN STREET NW","WASHINGTON","DC",20015,38.9596927370001,-77.075059182,420,"3813 JOCELYN STREET NW, WASHINGTON, DC, 20015","Match","Exact","3813 JOCELYN ST NW, WASHINGTON, DC, 20015",76220257,"R"
192421,"3813 NORTH 78TH STREET","MILWAUKEE","WI",53222,43.0865698550001,-88.009783963,421,"3813 NORTH 78TH STREET, MILWAUKEE, WI, 53222","Match","Exact","3813 N 78TH ST, MILWAUKEE, WI, 53222",77730298,"L"
192422,"3813 OLD VINE WAY","VALDOSTA","GA",31605,30.894442999,-83.279764867,422,"3813 OLD VINE WAY, VALDOSTA, GA, 31605","Match","Exact","3813 OLD VINE WAY, VALDOSTA, GA, 31605",623926162,"L"
192423,"3813 PARKER AVE","LOUISVILLE","KY",40212,38.2693662360001,-85.811262851,423,"3813 PARKER AVE, LOUISVILLE, KY, 40212","Match","Exact","3813 PARKER AVE, LOUISVILLE, KY, 40212",96836084,"R"
192424,"3813 PENINAH STREET","YANKTON","SD",57078,42.922212695,-97.3773256279999,424,"3813 PENINAH STREET, YANKTON, SD, 57078","Match","Exact","3813 PENINAH ST, YANKTON, SD, 57078",645409298,"L"
192425,"3813 QUIET CREEK CIR","CHARLOTTE","NC",28213,35.285899579,-80.69864398,425,"3813 QUIET CREEK CIR, CHARLOTTE, NC, 28213","Match","Exact","3813 QUIET CREEK CR, CHARLOTTE, NC, 28213",641604635,"R"
192426,"3813 RONNIE AVENUE","RICHMOND","VA",23223,37.57612728,-77.398281889,426,"3813 RONNIE AVENUE, RICHMOND, VA, 23223","Match","Non_Exact","3813 RONNIE AVE, RICHMOND, VA, 23222",106649761,"R"
192427,"3813 STILL MEADOW LANE","LEXINGTON","KY",40509,37.9921714110001,-84.4124798779999,427,"3813 STILL MEADOW LANE, LEXINGTON, KY, 40509","Match","Exact","3813 STILL MEADOW LN, LEXINGTON, KY, 40509",31954021,"R"
192428,"3813 WINFORD DR","TARZANA","CA",91301,34.1391302120001,-118.551562358,428,"3813 WINFORD DR, TARZANA, CA, 91301","Match","Non_Exact","3813 WINFORD DR, TARZANA, CA, 91356",142039952,"R"
192429,"3813-21 GERMANTOWN AVENUE","PHILADELPHIA","PA",19140,40.0112528820001,-75.1515666069999,429,"3813-21 GERMANTOWN AVENUE, PHILADELPHIA, PA, 19140","Match","Exact","3813 GERMANTOWN AVE, PHILADELPHIA, PA, 19140",131417868,"R"
192430,"38137 RIVIERA CT","PALMDALE","CA",93552,34.5751915000001,-118.036906066,430,"38137 RIVIERA CT, PALMDALE, CA, 93552","Match","Exact","38137 RIVIERA CT, PALMDALE, CA, 93552",141837087,"R"
192431,"3814  N 17TH STREET","OMAHA","NE",68110,41.293628772,-95.938825095,431,"3814  N 17TH STREET, OMAHA, NE, 68110","Match","Exact","3814 N 17TH ST, OMAHA, NE, 68110",116987099,"L"
192432,"3814 114TH ST 2R","CORONA","NY",11368,40.753998133,-73.853341929,432,"3814 114TH ST 2R, CORONA, NY, 11368","Match","Exact","3814 114TH ST, CORONA, NY, 11368",59705619,"R"
192433,"3814 5TH ST NE","COLUMBIA HEIGHTS","MN",55421,45.0360496370001,-93.260003941,433,"3814 5TH ST NE, COLUMBIA HEIGHTS, MN, 55421","Match","Exact","3814 5TH ST NE, COLUMBIA HEIGHTS, MN, 55421",97488261,"L"
192434,"3814 ARCHWOOD RD","CAMERON PARK","CA",95682,38.662189583,-120.99530684,434,"3814 ARCHWOOD RD, CAMERON PARK, CA, 95682","Match","Exact","3814 ARCHWOOD RD, CAMERON PARK, CA, 95682",133024406,"L"
192435,"3814 AURORA MIST LANE","HOUSTON","TX",77053,29.601373279,-95.434892403,435,"3814 AURORA MIST LANE, HOUSTON, TX, 77053","Match","Exact","3814 AURORA MIST LN, HOUSTON, TX, 77053",625667318,"R"
192436,"3814 BOTELER ROAD","MOUNT AIRY","MD",21771,39.3858107400001,-77.131371305,436,"3814 BOTELER ROAD, MOUNT AIRY, MD, 21771","Match","Exact","3814 BOTELER RD, MOUNT AIRY, MD, 21771",209396698,"R"
192437,"3814 BRASWELL CIRCLE","VIRGINIA BEACH","VA",23462,36.807838314,-76.1128937779999,437,"3814 BRASWELL CIRCLE, VIRGINIA BEACH, VA, 23462","Match","Exact","3814 BRASWELL CIR, VA BCH, VA, 23462",641468442,"L"
192438,"3814 CHERIE GLEN ROAD","SNELLVILLE","GA",30039,33.8345192090001,-84.058583337,438,"3814 CHERIE GLEN ROAD, SNELLVILLE, GA, 30039","Match","Non_Exact","3814 CHERIE GLEN RD SW, SNELLVILLE, GA, 30039",88890148,"L"
192439,"3814 COTSWOLD AVE APT H","GREENSBORO","NC",27410,36.136800131,-79.854313099,439,"3814 COTSWOLD AVE APT H, GREENSBORO, NC, 27410","Match","Exact","3814 COTSWOLD AVE, GREENSBORO, NC, 27410",651894231,"R"
192440,"3814 CROCUS LN","RAPID CITY","SD",57702,44.056232869,-103.283102267,440,"3814 CROCUS LN, RAPID CITY, SD, 57702","Match","Exact","3814 CROCUS LN, RAPID CITY, SD, 57702",205507031,"R"
192441,"3814 DEER LANE","LOON LAKE","WA",99148,48.1055919450001,-117.606518109,441,"3814 DEER LANE, LOON LAKE, WA, 99148","Match","Exact","3814 DEER LN, LOON LAKE, WA, 99148",174855922,"L"
192442,"3814 DESERT SPRINGS LANE","FULSHEAR","TX",77441,29.727219114,-95.861404966,442,"3814 DESERT SPRINGS LANE, FULSHEAR, TX, 77441","Match","Exact","3814 DESERT SPRINGS LN, FULSHEAR, TX, 77441",651271112,"L"
192443,"3814 E AQUARIUS PLACE","CHANDLER","AZ",85249,33.222036578,-111.775249641,443,"3814 E AQUARIUS PLACE, CHANDLER, AZ, 85249","Match","Exact","3814 E AQUARIUS PL, CHANDLER, AZ, 85249",128873145,"L"
192444,"3814 E DEER PARK MILAN RD","CHATTAROY","WA",99003,47.9704783620001,-117.359333726,444,"3814 E DEER PARK MILAN RD, CHATTAROY, WA, 99003","Match","Exact","3814 E DEER PARK MILAN RD, CHATTAROY, WA, 99003",189849865,"R"
192445,"3814 PROPECT AVE E APT 204","CLEVELAND","OH",44115,NA,NA,445,"3814 PROPECT AVE E APT 204, CLEVELAND, OH, 44115","No_Match",NA,NA,NA,NA
192446,"3814 RIDGE AVE","SIOUX CITY","IA",51106,42.4778908800001,-96.35809138,446,"3814 RIDGE AVE, SIOUX CITY, IA, 51106","Match","Exact","3814 RIDGE AVE, SIOUX CITY, IA, 51106",93441663,"R"
192447,"3814 TRAVIS ST","DALLAS","TX",75204,32.8105322440001,-96.7975156049999,447,"3814 TRAVIS ST, DALLAS, TX, 75204","Match","Exact","3814 TRAVIS ST, DALLAS, TX, 75204",102908993,"R"
192448,"38140 HIXFORD PLACE","WESTLAND","MI",48185,42.318982598,-83.4154540819999,448,"38140 HIXFORD PLACE, WESTLAND, MI, 48185","Match","Exact","38140 HIXFORD PL, WESTLAND, MI, 48185",95498545,"R"
192449,"3815 250 STREET WEST","FARMINGTON","MN",55024,44.5871484300001,-93.141758344,449,"3815 250 STREET WEST, FARMINGTON, MN, 55024","Match","Exact","3815 250TH ST W, FARMINGTON, MN, 55024",37912688,"R"
192450,"3815 BAUM ST SE","CANTON","OH",44707,40.7412679110001,-81.324510327,450,"3815 BAUM ST SE, CANTON, OH, 44707","Match","Exact","3815 BAUM ST SE, CANTON, OH, 44707",64687320,"L"
192451,"3815 BROOKSIDE DRIVE","RAPID CITY","SD",57702,44.0792329930001,-103.282454928,451,"3815 BROOKSIDE DRIVE, RAPID CITY, SD, 57702","Match","Exact","3815 BROOKSIDE DR, RAPID CITY, SD, 57702",205506793,"L"
192452,"3815 FISHHATCHERY RD","GASTON","SC",29053,33.848431095,-81.1442326119999,452,"3815 FISHHATCHERY RD, GASTON, SC, 29053","Match","Non_Exact","3815 FISH HATCHERY RD, GASTON, SC, 29053",70064494,"R"
192453,"3815 GRANT STREET","READING","PA",19606,40.3172930210001,-75.87002989,453,"3815 GRANT STREET, READING, PA, 19606","Match","Exact","3815 GRANT ST, READING, PA, 19606",80443303,"R"
192454,"3815 HENPECK ROAD","QUINTON","VA",23141,37.5055959760001,-77.15582205,454,"3815 HENPECK ROAD, QUINTON, VA, 23141","Match","Exact","3815 HENPECK RD, QUINTON, VA, 23141",649854977,"L"
192455,"3815 IDLEWILD AVENUE","NORTH LITTLE ROCK","AR",72116,34.7903837120001,-92.255276183,455,"3815 IDLEWILD AVENUE, NORTH LITTLE ROCK, AR, 72116","Match","Exact","3815 IDLEWILD AVE, N LITTLE ROCK, AR, 72116",83514411,"L"
192456,"3815 INTERSTATE COURT","MONTGOMERY","AL",36109,32.3614690380001,-86.245575607,456,"3815 INTERSTATE COURT, MONTGOMERY, AL, 36109","Match","Exact","3815 INTERSTATE CT, MONTGOMERY, AL, 36109",639707582,"R"
192457,"3815 N HWY 1 SUITE 1","COCOA","FL",32926,NA,NA,457,"3815 N HWY 1 SUITE 1, COCOA, FL, 32926","No_Match",NA,NA,NA,NA
192458,"3815 NE 14TH PLACE","RENTON","WA",98056,47.5049830350001,-122.168688359,458,"3815 NE 14TH PLACE, RENTON, WA, 98056","Match","Exact","3815 NE 14TH PL, RENTON, WA, 98056",632446744,"L"
192459,"3815 NORTH KELLEY AVE STE 100","OKLAHOMA CITY","OK",73111,35.50948213,-97.4943841579999,459,"3815 NORTH KELLEY AVE STE 100, OKLAHOMA CITY, OK, 73111","Match","Exact","3815 N KELLEY AVE, OKLAHOMA CITY, OK, 73111",639571899,"L"
192460,"3815 PLUNKETT RD","LITHONIA","GA",30038,33.6722216100001,-84.106655056,460,"3815 PLUNKETT RD, LITHONIA, GA, 30038","Match","Exact","3815 PLUNKETT RD, LITHONIA, GA, 30038",23389748,"R"
192461,"3815 S OTHELLO ST STE 100","SEATTLE","WA",98188,NA,NA,461,"3815 S OTHELLO ST STE 100, SEATTLE, WA, 98188","No_Match",NA,NA,NA,NA
192462,"3815 S SALINA STREET","SYRACUSE","NY",13205,43.011500197,-76.14201997,462,"3815 S SALINA STREET, SYRACUSE, NY, 13205","Match","Exact","3815 S SALINA ST, SYRACUSE, NY, 13205",46604942,"L"
192463,"3815 SACHSE RD BLDG D","SACHSE","TX",75048,32.9732772990001,-96.584616241,463,"3815 SACHSE RD BLDG D, SACHSE, TX, 75048","Match","Exact","3815 SACHSE RD, SACHSE, TX, 75048",102925369,"L"
192464,"3815 SE TAYLOR STREET","PORTLAND","OR",97214,45.515022732,-122.62417465,464,"3815 SE TAYLOR STREET, PORTLAND, OR, 97214","Match","Exact","3815 SE TAYLOR ST, PORTLAND, OR, 97214",157514180,"L"
192465,"3815 SOUTHRIDGE DRIVE","SACHSE","TX",75048,NA,NA,465,"3815 SOUTHRIDGE DRIVE, SACHSE, TX, 75048","No_Match",NA,NA,NA,NA
192466,"3815 SUNROSE ROAD","SAN RAMON","CA",94582,37.7656069400001,-121.918808869,466,"3815 SUNROSE ROAD, SAN RAMON, CA, 94582","Match","Exact","3815 SUNROSE RD, SAN RAMON, CA, 94582",635113661,"L"
192467,"3815 TEAKWOOD PLACE","COLORADO SPRINGS","CO",80918,38.9134156690001,-104.754051655,467,"3815 TEAKWOOD PLACE, COLORADO SPRINGS, CO, 80918","Match","Exact","3815 TEAKWOOD PL, COLORADO SPRINGS, CO, 80918",105544821,"L"
192468,"3815 TYNE DRIVE","DURHAM","NC",27703,35.994436346,-78.813458242,468,"3815 TYNE DRIVE, DURHAM, NC, 27703","Match","Exact","3815 TYNE DR, DURHAM, NC, 27703",636545808,"R"
192469,"3815 UNION ROAD","CEDAR FALLS","IA",50613,42.50449344,-92.494968189,469,"3815 UNION ROAD, CEDAR FALLS, IA, 50613","Match","Exact","3815 UNION RD, CEDAR FALLS, IA, 50613",653198589,"R"
192470,"3815 US HWY 301 N","ELLENTON","FL",34222,NA,NA,470,"3815 US HWY 301 N, ELLENTON, FL, 34222","No_Match",NA,NA,NA,NA
192471,"3815 WEST CHESTER PIKE","NEWTOWN SQUARE","PA",19073,NA,NA,471,"3815 WEST CHESTER PIKE, NEWTOWN SQUARE, PA, 19073","No_Match",NA,NA,NA,NA
192472,"3815 WILLYS PKWY","TOLEDO","OH",43612,41.6894138210001,-83.571625782,472,"3815 WILLYS PKWY, TOLEDO, OH, 43612","Match","Exact","3815 WILLYS PKWY, TOLEDO, OH, 43612",33934215,"L"
192473,"3815","BLUFFTON","SC",29910,NA,NA,473,"3815, BLUFFTON, SC, 29910","No_Match",NA,NA,NA,NA
192474,"3816 106TH ST APT 42","URBANDALE","IA",50322,41.630220106,-93.763021172,474,"3816 106TH ST APT 42, URBANDALE, IA, 50322","Match","Exact","3816 106TH ST, URBANDALE, IA, 50322",640239738,"L"
192475,"3816 39TH STREET","SACRAMENTO","CA",95820,38.5400261080001,-121.463758842,475,"3816 39TH STREET, SACRAMENTO, CA, 95820","Match","Exact","3816 39TH ST, SACRAMENTO, CA, 95820",652199787,"R"
192476,"3816 9TH AVENUE","NEW YORK","NY",10034,40.8621266870001,-73.918218983,476,"3816 9TH AVENUE, NEW YORK, NY, 10034","Match","Exact","3816 9TH AVE, NEW YORK, NY, 10034",59659008,"L"
192477,"3816 BAY CITY RD APT C","MIDLAND","MI",48642,43.6049733610001,-84.180725051,477,"3816 BAY CITY RD APT C, MIDLAND, MI, 48642","Match","Exact","3816 BAY CITY RD, MIDLAND, MI, 48642",81204563,"L"
192478,"3816 BERRY AVE","DREXEL HILL","PA",19026,39.944612267,-75.2984106009999,478,"3816 BERRY AVE, DREXEL HILL, PA, 19026","Match","Exact","3816 BERRY AVE, DREXEL HILL, PA, 19026",134876498,"L"
192479,"3816 CHERRYBROOK RD","RANDALLSTOWN","MD",21133,39.371365381,-76.790925855,479,"3816 CHERRYBROOK RD, RANDALLSTOWN, MD, 21133","Match","Exact","3816 CHERRYBROOK RD, RANDALLSTOWN, MD, 21133",191466630,"L"
192480,"3816 CINNAMON","BAKERSFIELD","CA",93309,35.3199245270001,-119.063966273,480,"3816 CINNAMON, BAKERSFIELD, CA, 93309","Match","Non_Exact","3816 CINNAMON CT, BAKERSFIELD, CA, 93309",109091435,"L"
192481,"3816 CONFIDENCE DR","FORT WORTH","TX",76244,32.959807905,-97.278479408,481,"3816 CONFIDENCE DR, FORT WORTH, TX, 76244","Match","Exact","3816 CONFIDENCE DR, FORT WORTH, TX, 76244",619866812,"R"
192482,"3816 CROWNPOINT COURT","CARLSABD","CA",92010,33.1695981760001,-117.29252657,482,"3816 CROWNPOINT COURT, CARLSABD, CA, 92010","Match","Non_Exact","3816 CROWNPOINT CT, CARLSBAD, CA, 92010",195452103,"R"
192483,"3816 DONAHOE DR","ASHTABULA","OH",44004,41.8804741870001,-80.7420753279999,483,"3816 DONAHOE DR, ASHTABULA, OH, 44004","Match","Exact","3816 DONAHOE DR, ASHTABULA, OH, 44004",117329266,"R"
192484,"3816 E TALOWA ST","PHOENIX","AZ",85044,33.3354210470001,-112.001216412,484,"3816 E TALOWA ST, PHOENIX, AZ, 85044","Match","Exact","3816 E TALOWA ST, PHOENIX, AZ, 85044",647640557,"R"
192485,"3816 FAHRENHEIT COURT","LAS VEGAS","NV",89129,36.2293304660001,-115.327430631,485,"3816 FAHRENHEIT COURT, LAS VEGAS, NV, 89129","Match","Exact","3816 FAHRENHEIT CT, LAS VEGAS, NV, 89129",624073477,"R"
192486,"3816 GOLDFISH FARM RD SE","ALBANY","OR",97322,44.6254070210001,-123.048115551,486,"3816 GOLDFISH FARM RD SE, ALBANY, OR, 97322","Match","Non_Exact","3816 GOLDFISH FARM RD, ALBANY, OR, 97322",625342205,"R"
192487,"3816 HURON STREET","SACRAMENTO","CA",95838,38.636923085,-121.433925049,487,"3816 HURON STREET, SACRAMENTO, CA, 95838","Match","Exact","3816 HURON ST, SACRAMENTO, CA, 95838",133329795,"R"
192488,"3816 INGERSOLL AVE","DES MOINES","IA",50312,41.5863348880001,-93.668555241,488,"3816 INGERSOLL AVE, DES MOINES, IA, 50312","Match","Exact","3816 INGERSOLL AVE, DES MOINES, IA, 50312",65780785,"L"
192489,"3816 LANCASTER AVE","PHILADELPHIA","PA",19104,39.9605332180001,-75.1974078109999,489,"3816 LANCASTER AVE, PHILADELPHIA, PA, 19104","Match","Exact","3816 LANCASTER AVE, PHILADELPHIA, PA, 19104",131404229,"L"
192490,"3816 N 25TH ST UNIT B","SAINT LOUIS","MO",63107,38.659655259,-90.208969205,490,"3816 N 25TH ST UNIT B, SAINT LOUIS, MO, 63107","Match","Non_Exact","3816 N 25TH ST, SAINT LOUIS, MO, 63107",107603642,"R"
192491,"3816 N MAIN ST","JACKSONVILLE","FL",32206,30.3618774770001,-81.6534230409999,491,"3816 N MAIN ST, JACKSONVILLE, FL, 32206","Match","Exact","3816 N MAIN ST, JACKSONVILLE, FL, 32206",83898000,"L"
192492,"3816 NEPTUNE AVENUE","BROOKLYN","NY",11224,40.576573393,-74.0060556019999,492,"3816 NEPTUNE AVENUE, BROOKLYN, NY, 11224","Match","Exact","3816 NEPTUNE AVE, BROOKLYN, NY, 11224",59088769,"L"
192493,"3816 NORTH 27TH AVE","PHOENIX","AZ",85017,33.4917512060001,-112.117057471,493,"3816 NORTH 27TH AVE, PHOENIX, AZ, 85017","Match","Exact","3816 N 27TH AVE, PHOENIX, AZ, 85017",128582046,"L"
192494,"3816 NW CIMARRON","LEES SUMMIT","MO",64064,38.9848226120001,-94.387478092,494,"3816 NW CIMARRON, LEES SUMMIT, MO, 64064","Match","Non_Exact","3816 NW CIMARRON ST, LEES SUMMIT, MO, 64064",635337497,"R"
192495,"3816 OLIVE ST","SELMA","CA",93662,36.5896490120001,-119.603371209,495,"3816 OLIVE ST, SELMA, CA, 93662","Match","Non_Exact","3816 OLIVE, SELMA, CA, 93662",617784703,"R"
192496,"3816 PENNSGROVE STREET","PHILADELPHIA","PA",19104,39.9721227320001,-75.1999939299999,496,"3816 PENNSGROVE STREET, PHILADELPHIA, PA, 19104","Match","Exact","3816 PENNSGROVE ST, PHILADELPHIA, PA, 19104",131403553,"L"
192497,"3816 S COLDSTREAM AVE","BOISE","ID",83709,43.5682285940001,-116.306971006,497,"3816 S COLDSTREAM AVE, BOISE, ID, 83709","Match","Exact","3816 S COLDSTREAM AVE, BOISE, ID, 83709",624941503,"L"
192498,"3816 SE 122ND AVE","PORTLAND","OR",97236,45.4942249590001,-122.537653056,498,"3816 SE 122ND AVE, PORTLAND, OR, 97236","Match","Exact","3816 SE 122ND AVE, PORTLAND, OR, 97236",157560786,"L"
192499,"3816 SHENFIELD DRIVE","UNION","GA",30291,33.582604245,-84.52178702,499,"3816 SHENFIELD DRIVE, UNION, GA, 30291","Match","Non_Exact","3816 SHENFIELD DR, UNION CITY, GA, 30291",628099839,"R"
192500,"3816 SOLDIER STREET","COLUMBUS","OH",43232,39.915359499,-82.8951804989999,500,"3816 SOLDIER STREET, COLUMBUS, OH, 43232","Match","Exact","3816 SOLDIER ST, COLUMBUS, OH, 43232",631955218,"L"
