"ID","Address","City","State","Zip","lat","long","id","input_address","match_indicator","match_type","matched_address","tiger_line_id","tiger_side"
151501,"2810 LINCOLN WAY","LYNNWOOD","WA",98087,47.872718827,-122.271538538,1,"2810 LINCOLN WAY, LYNNWOOD, WA, 98087","Match","Exact","2810 LINCOLN WAY, LYNNWOOD, WA, 98087",187753182,"L"
151502,"2810 LOCKERIDGE COVE DR","SPRING","TX",77386,30.108863791,-95.3840014529999,2,"2810 LOCKERIDGE COVE DR, SPRING, TX, 77386","Match","Exact","2810 LOCKERIDGE COVE DR, SPRING, TX, 77386",631981235,"R"
151503,"2810 LOMBARD AVENUE SUITE 208","EVERETT","WA",98201,47.980431208,-122.202977544,3,"2810 LOMBARD AVENUE SUITE 208, EVERETT, WA, 98201","Match","Exact","2810 LOMBARD AVE, EVERETT, WA, 98201",187745231,"R"
151504,"2810 LYLE ST","BELLINGHAM","WA",98225,48.7666521350001,-122.473348985,4,"2810 LYLE ST, BELLINGHAM, WA, 98225","Match","Exact","2810 LYLE ST, BELLINGHAM, WA, 98225",183771613,"R"
151505,"2810 MISSOURI AVE STE 600","SHREVEPOR","LA",71109,32.4853172140001,-93.782401818,5,"2810 MISSOURI AVE STE 600, SHREVEPOR, LA, 71109","Match","Non_Exact","2810 MISSOURI AVE, SHREVEPORT, LA, 71109",57435537,"R"
151506,"2810 MORRIS AVE SUITE 108","UNION","NJ",7083,40.7072263060001,-74.300462328,6,"2810 MORRIS AVE SUITE 108, UNION, NJ, 7083","Match","Exact","2810 MORRIS AVE, UNION, NJ, 07083",60568991,"L"
151507,"2810 MORRIS AVENUE STE 102","UNION","NJ",7083,40.7072263060001,-74.300462328,7,"2810 MORRIS AVENUE STE 102, UNION, NJ, 7083","Match","Exact","2810 MORRIS AVE, UNION, NJ, 07083",60568991,"L"
151508,"2810 MOUNTAIN VIEW RD","FERNDALE","WA",98248,48.848293782,-122.633684276,8,"2810 MOUNTAIN VIEW RD, FERNDALE, WA, 98248","Match","Exact","2810 MOUNTAIN VIEW RD, FERNDALE, WA, 98248",635469864,"L"
151509,"2810 N CHURCH ST","WILMINGTON","DE",19802,39.7529395280001,-75.5299132,9,"2810 N CHURCH ST, WILMINGTON, DE, 19802","Match","Exact","2810 N CHURCH ST, WILMINGTON, DE, 19802",187259396,"R"
151510,"2810 N CHURCH STREET SUITE 9847","WILMINGTON","DE",19802,39.7529395280001,-75.5299132,10,"2810 N CHURCH STREET SUITE 9847, WILMINGTON, DE, 19802","Match","Non_Exact","2810 N CHURCH ST, WILMINGTON, DE, 19802",187259396,"R"
151511,"2810 N PARHAM RD - STE 303","RICHMOND","VA",23294,37.626444948,-77.5497423099999,11,"2810 N PARHAM RD - STE 303, RICHMOND, VA, 23294","Match","Non_Exact","2810 N PARHAM RD, RICHMOND, VA, 23294",106675794,"L"
151512,"2810 NE CLACKAMAS ST","PORTLAND","OR",97232,45.533042433,-122.63669884,12,"2810 NE CLACKAMAS ST, PORTLAND, OR, 97232","Match","Exact","2810 NE CLACKAMAS ST, PORTLAND, OR, 97232",157538831,"R"
151513,"2810 NORTH THIRD STREET","PHOENIX","AZ",85004,33.4790478130001,-112.069434229,13,"2810 NORTH THIRD STREET, PHOENIX, AZ, 85004","Match","Exact","2810 N 3RD ST, PHOENIX, AZ, 85004",128212947,"L"
151514,"2810 NORTH UNIVERSITY AVENUE","LITTLE ROCK","AR",72207,34.7777601340001,-92.340365526,14,"2810 NORTH UNIVERSITY AVENUE, LITTLE ROCK, AR, 72207","Match","Exact","2810 N UNIVERSITY AVE, LITTLE ROCK, AR, 72207",83503708,"L"
151515,"2810 PAA STREET BLDG A","HONOLULU","HI",96819,21.34514346,-157.895048362,15,"2810 PAA STREET BLDG A, HONOLULU, HI, 96819","Match","Exact","2810 PAA ST, HONOLULU, HI, 96819",203234386,"R"
151516,"2810 S HARBOR BLVD   B6","OXNARD","CA",93035,34.1726917010001,-119.231185732,16,"2810 S HARBOR BLVD   B6, OXNARD, CA, 93035","Match","Exact","2810 HARBOR BLVD, OXNARD, CA, 93035",110125031,"L"
151517,"2810 S JACKSON ROAD","EDINBURG","TX",78539,26.278828666,-98.19052267,17,"2810 S JACKSON ROAD, EDINBURG, TX, 78539","Match","Exact","2810 S JACKSON RD, EDINBURG, TX, 78539",653201946,"L"
151518,"2810 S US HIGHWAY 1","FORT PIERCE","FL",34982,27.4164548050001,-80.32593215,18,"2810 S US HIGHWAY 1, FORT PIERCE, FL, 34982","Match","Exact","2810 US HWY 1, FORT PIERCE, FL, 34982",611642422,"L"
151519,"2810 SHARER ROAD UNIT 27","TALLAHASSEE","FL",32312,30.4781382690001,-84.297521103,19,"2810 SHARER ROAD UNIT 27, TALLAHASSEE, FL, 32312","Match","Exact","2810 SHARER RD, TALLAHASSEE, FL, 32312",652506377,"L"
151520,"2810 SHIPLEY TERRACE SE SUITE 102","WASHINGTON","MD",20020,NA,NA,20,"2810 SHIPLEY TERRACE SE SUITE 102, WASHINGTON, MD, 20020","No_Match",NA,NA,NA,NA
151521,"2810 SKELTON ST","RICHMOND","VA",23223,37.577206604,-77.3874522529999,21,"2810 SKELTON ST, RICHMOND, VA, 23223","Match","Exact","2810 SKELTON ST, RICHMOND, VA, 23223",106650070,"L"
151522,"2810 SPRUCE LANE NW","BAUDETTE","MN",56623,48.7625254590001,-94.707571835,22,"2810 SPRUCE LANE NW, BAUDETTE, MN, 56623","Match","Exact","2810 SPRUCE LN NW, BAUDETTE, MN, 56623",176538526,"R"
151523,"2810 SUNDERLAND","WATERFORD","MI",48329,42.6786860870001,-83.42782744,23,"2810 SUNDERLAND, WATERFORD, MI, 48329","Match","Exact","2810 SUNDERLAND, WATERFORD, MI, 48329",637709158,"R"
151524,"2810 SYLVAN AVENUE","MADISON","WI",53705,43.0670567400001,-89.43651572,24,"2810 SYLVAN AVENUE, MADISON, WI, 53705","Match","Exact","2810 SYLVAN AVE, MADISON, WI, 53705",49468822,"R"
151525,"2810 THOREAU DRIVE","DURHAM","NC",27703,35.928011693,-78.837756348,25,"2810 THOREAU DRIVE, DURHAM, NC, 27703","Match","Exact","2810 THOREAU DR, DURHAM, NC, 27703",614175927,"R"
151526,"2810 TRINITY MILLS 209-246","CARROLLTON","TX",75006,32.987057497,-96.854250042,26,"2810 TRINITY MILLS 209-246, CARROLLTON, TX, 75006","Match","Non_Exact","2810 TRINITY MILLS RD, CARROLLTON, TX, 75006",103212527,"R"
151527,"2810 TROTWOOD AVE","COLUMBIA","TN",38401,35.597115973,-87.084384547,27,"2810 TROTWOOD AVE, COLUMBIA, TN, 38401","Match","Exact","2810 TROTWOOD AVE, COLUMBIA, TN, 38401",26884159,"L"
151528,"2810 VIA ORANGE WAY STE D","SPRING VALLEY","CA",91978,32.7292469670001,-116.969013864,28,"2810 VIA ORANGE WAY STE D, SPRING VALLEY, CA, 91978","Match","Exact","2810 VIA ORANGE WAY, SPRING VALLEY, CA, 91978",195362894,"R"
151529,"2810 W  WESTPORT RD","PEORIA","IL",61615,40.7366522410001,-89.636922699,29,"2810 W  WESTPORT RD, PEORIA, IL, 61615","Match","Exact","2810 W WESTPORT RD, PEORIA, IL, 61615",8714421,"L"
151530,"2810 W LATOKA ST","SPRINGFIELD","MO",65807,37.1798501370001,-93.334078916,30,"2810 W LATOKA ST, SPRINGFIELD, MO, 65807","Match","Exact","2810 W LATOKA ST, SPRINGFIELD, MO, 65807",76674315,"L"
151531,"2810 W STRONG ROAD","SPOKANE","WA",99208,47.7370576870001,-117.450778061,31,"2810 W STRONG ROAD, SPOKANE, WA, 99208","Match","Exact","2810 W STRONG RD, SPOKANE, WA, 99208",189904420,"R"
151532,"2810 WEST 43RD STREET UNIT 310","MINNEAPOLIS","MN",55410,44.924623769,-93.314866331,32,"2810 WEST 43RD STREET UNIT 310, MINNEAPOLIS, MN, 55410","Match","Exact","2810 W 43RD ST, MINNEAPOLIS, MN, 55410",43628186,"R"
151533,"2810 WEST 66TH TERRACE","MISSION HILLS","KS",66208,39.0087255230001,-94.61784696,33,"2810 WEST 66TH TERRACE, MISSION HILLS, KS, 66208","Match","Exact","2810 W 66TH TER, MISSION HILLS, KS, 66208",91337858,"R"
151534,"2810 WEST AIRLINE HIGHWAY","LAPLACE","LA",70068,30.077595479,-90.5242298379999,34,"2810 WEST AIRLINE HIGHWAY, LAPLACE, LA, 70068","Match","Non_Exact","2810 W AIRLINE HWY, LA PLACE, LA, 70068",93705032,"R"
151535,"2810 WESTPORT CIRCLE","CONWAY","AR",72034,35.078892087,-92.4704450519999,35,"2810 WESTPORT CIRCLE, CONWAY, AR, 72034","Match","Exact","2810 WESTPORT CIR, CONWAY, AR, 72034",141058147,"L"
151536,"2810 WHISPER WOOD TRAIL","ARLINGTON","TX",76016,32.690553821,-97.153614644,36,"2810 WHISPER WOOD TRAIL, ARLINGTON, TX, 76016","Match","Non_Exact","2810 WHISPERWOOD TRL, ARLINGTON, TX, 76016",102175297,"L"
151537,"2810 WHITE RIDGE PLACE 17","THOUSAND OAKS","CA",91362,34.213951384,-118.823485196,37,"2810 WHITE RIDGE PLACE 17, THOUSAND OAKS, CA, 91362","Match","Exact","2810 WHITE RIDGE PL, THOUSAND OAKS, CA, 91362",110084107,"L"
151538,"2810 WILLS CREEK ROAD / SUITE B","GADSDEN","AL",35904,NA,NA,38,"2810 WILLS CREEK ROAD / SUITE B, GADSDEN, AL, 35904","No_Match",NA,NA,NA,NA
151539,"2810 WOODMERE DR","PANAMA CITY","FL",32405,30.2000562320001,-85.65896352,39,"2810 WOODMERE DR, PANAMA CITY, FL, 32405","Match","Exact","2810 WOODMERE DR, PANAMA CITY, FL, 32405",636335218,"L"
151540,"2810 WYNDHAM DRIVE","HEPHZIBAH","GA",30815,33.3630584090001,-82.083696292,40,"2810 WYNDHAM DRIVE, HEPHZIBAH, GA, 30815","Match","Exact","2810 WYNDHAM DR, HEPHZIBAH, GA, 30815",645569542,"L"
151541,"2810-2 BRIGADOON DR","RALEIGH","NC",27606,35.771434529,-78.688965642,41,"2810-2 BRIGADOON DR, RALEIGH, NC, 27606","Match","Exact","2810 BRIGADOON DR, RALEIGH, NC, 27606",72502925,"R"
151542,"28100 US HIGHWAY 19 N SUITE 300","CLEARWATER","FL",33761,28.0289520380001,-82.738174418,42,"28100 US HIGHWAY 19 N SUITE 300, CLEARWATER, FL, 33761","Match","Non_Exact","28100 US HWY 19 N, CLEARWATER, FL, 33761",124722800,"L"
151543,"28102 CAMELLIA CT","LAGUNA NIGUEL","CA",92677,33.554879752,-117.708339695,43,"28102 CAMELLIA CT, LAGUNA NIGUEL, CA, 92677","Match","Exact","28102 CAMELLIA CT, LAGUNA NIGUEL, CA, 92677",144070681,"L"
151544,"28103 COPPERLEAF","BOERNE","TX",78015,29.7169249560001,-98.661471332,44,"28103 COPPERLEAF, BOERNE, TX, 78015","Match","Non_Exact","28103 COPPER LEAF, BOERNE, TX, 78015",101740459,"L"
151545,"28103 PABLO PICASSO DRIVE","ENGLEWOOD","FL",34223,26.97448511,-82.366251399,45,"28103 PABLO PICASSO DRIVE, ENGLEWOOD, FL, 34223","Match","Exact","28103 PABLO PICASSO DR, ENGLEWOOD, FL, 34223",640790916,"L"
151546,"28105 STATE HIGHWAY 249 STE 106","TOMBALL","TX",77375,NA,NA,46,"28105 STATE HIGHWAY 249 STE 106, TOMBALL, TX, 77375","No_Match",NA,NA,NA,NA
151547,"28109 ELLA ROAD","RANCHO PALOS VERDE","CA",90275,33.778617212,-118.394821824,47,"28109 ELLA ROAD, RANCHO PALOS VERDE, CA, 90275","Match","Exact","28109 ELLA RD, RANCHO PALOS VERDES, CA, 90275",141585251,"R"
151548,"2811 27TH AVE N","FORT DODGE","IA",50501,42.532112108,-94.159003017,48,"2811 27TH AVE N, FORT DODGE, IA, 50501","Match","Exact","2811 27TH AVE N, FORT DODGE, IA, 50501",66079358,"R"
151549,"2811 58TH ST","LUBBOCK","TX",79413,33.541146182,-101.876668612,49,"2811 58TH ST, LUBBOCK, TX, 79413","Match","Exact","2811 58TH ST, LUBBOCK, TX, 79413",185253966,"L"
151550,"2811 64TH ST N E","RUGBY","ND",58368,48.3405104600001,-100.01996343,50,"2811 64TH ST N E, RUGBY, ND, 58368","Match","Exact","2811 64TH ST NE, RUGBY, ND, 58368",198803098,"L"
151551,"2811 ADELINE ST","OAKLAND","CA",94608,37.8205503200001,-122.282260934,51,"2811 ADELINE ST, OAKLAND, CA, 94608","Match","Exact","2811 ADELINE ST, OAKLAND, CA, 94608",124995975,"L"
151552,"2811 BELKTON COURT","DELTONA","FL",32738,28.949458791,-81.1871874299999,52,"2811 BELKTON COURT, DELTONA, FL, 32738","Match","Exact","2811 BELKTON CT, DELTONA, FL, 32738",94501076,"R"
151553,"2811 DANZIG PL APT 103","LOUISVILLE","KY",40245,38.279551844,-85.495355369,53,"2811 DANZIG PL APT 103, LOUISVILLE, KY, 40245","Match","Exact","2811 DANZIG PL, LOUISVILLE, KY, 40245",648013556,"R"
151554,"2811 DRUID PARK DRIVE BALTIMORE","BALTIMORE","MD",21230,NA,NA,54,"2811 DRUID PARK DRIVE BALTIMORE, BALTIMORE, MD, 21230","No_Match",NA,NA,NA,NA
151555,"2811 DUNCAN TREE CIRCLE","VALRICO","FL",33594,27.924595917,-82.239254817,55,"2811 DUNCAN TREE CIRCLE, VALRICO, FL, 33594","Match","Exact","2811 DUNCAN TREE CIR, VALRICO, FL, 33594",104641649,"L"
151556,"2811 E 58TH ST","KANSAS CITY","MO",64130,39.021027911,-94.553235662,56,"2811 E 58TH ST, KANSAS CITY, MO, 64130","Match","Exact","2811 E 58TH ST, KANSAS CITY, MO, 64130",91452746,"R"
151557,"2811 E MADISON ST SUITE 205D","SEATTLE","WA",98112,47.623549344,-122.296062979,57,"2811 E MADISON ST SUITE 205D, SEATTLE, WA, 98112","Match","Non_Exact","2811 E MADISON ST, SEATTLE, WA, 98112",186991571,"R"
151558,"2811 HARRIETTE CT","NASHVILLE","TN",37206,36.183889976,-86.7128177009999,58,"2811 HARRIETTE CT, NASHVILLE, TN, 37206","Match","Exact","2811 HARRIETTE CT, NASHVILLE, TN, 37206",97194984,"R"
151559,"2811 HICKS LAKE LANE SE","LACEY","WA",98503,47.019684796,-122.802274989,59,"2811 HICKS LAKE LANE SE, LACEY, WA, 98503","Match","Exact","2811 HICKS LAKE LN SE, LACEY, WA, 98503",180953136,"L"
151560,"2811 INDUSTRIAL PLAZA DR","TALLAHASSEE","FL",32301,30.450239406,-84.2283425539999,60,"2811 INDUSTRIAL PLAZA DR, TALLAHASSEE, FL, 32301","Match","Exact","2811 INDUSTRIAL PLAZA DR, TALLAHASSEE, FL, 32301",82865242,"R"
151561,"2811 LAKEVIEW AVE","ROSEVILLE","MN",55113,45.0256784750001,-93.1416810059999,61,"2811 LAKEVIEW AVE, ROSEVILLE, MN, 55113","Match","Non_Exact","2811 LAKEVIEW ST, ROSEVILLE, MN, 55113",97640665,"L"
151562,"2811 LEEWARD AVE","LOS ANGELES","CA",90005,34.0587443590001,-118.284551455,62,"2811 LEEWARD AVE, LOS ANGELES, CA, 90005","Match","Exact","2811 LEEWARD AVE, LOS ANGELES, CA, 90005",642870690,"R"
151563,"2811 MCGEE AVE","BERKELEY","CA",94703,37.857157,-122.275365368,63,"2811 MCGEE AVE, BERKELEY, CA, 94703","Match","Exact","2811 MCGEE AVE, BERKELEY, CA, 94703",635727172,"L"
151564,"2811 MILTON AVE STE 375","JANESVILLE","WI",53545,42.7154443090001,-88.9998944019999,64,"2811 MILTON AVE STE 375, JANESVILLE, WI, 53545","Match","Exact","2811 MILTON AVE, JANESVILLE, WI, 53545",49852181,"L"
151565,"2811 MILTON AVENUE NUMBER 389","JANESVILLE","WI",53545,42.7154443090001,-88.9998944019999,65,"2811 MILTON AVENUE NUMBER 389, JANESVILLE, WI, 53545","Match","Exact","2811 MILTON AVE, JANESVILLE, WI, 53545",49852181,"L"
151566,"2811 MOLINO DE VIENTO","SANTA FE","NM",87505,35.6358171700001,-105.968903617,66,"2811 MOLINO DE VIENTO, SANTA FE, NM, 87505","Match","Exact","2811 MOLINO DE VIENTO, SANTA FE, NM, 87505",169378417,"L"
151567,"2811 MONROE STREET","DENVER","CO",80205,39.7572644210001,-104.945307364,67,"2811 MONROE STREET, DENVER, CO, 80205","Match","Exact","2811 MONROE ST, DENVER, CO, 80205",177310775,"L"
151568,"2811 NICKLAUS WAY","FREMONT","NE",68025,41.455740389,-96.5100751849999,68,"2811 NICKLAUS WAY, FREMONT, NE, 68025","Match","Exact","2811 NICKLAUS WAY, FREMONT, NE, 68025",136312656,"L"
151569,"2811 NORTH WINDSOR DRIVE","ARLINGTON HEIGHTS","IL",60004,42.126135488,-87.967761395,69,"2811 NORTH WINDSOR DRIVE, ARLINGTON HEIGHTS, IL, 60004","Match","Exact","2811 N WINDSOR DR, ARLINGTON HEIGHTS, IL, 60004",112359627,"L"
151570,"2811 NORTH WINDSOR DRIVE","ARLINGTON HTS","IL",60004,42.126135488,-87.967761395,70,"2811 NORTH WINDSOR DRIVE, ARLINGTON HTS, IL, 60004","Match","Exact","2811 N WINDSOR DR, ARLINGTON HEIGHTS, IL, 60004",112359627,"L"
151571,"2811 NW 22 DRIVE","GAINESVILLE","FL",32605,29.678089942,-82.354656604,71,"2811 NW 22 DRIVE, GAINESVILLE, FL, 32605","Match","Exact","2811 NW 22ND DR, GAINESVILLE, FL, 32605",6885004,"R"
151572,"2811 ORCHARD LANE","RAPID CITY","SD",57703,44.059210937,-103.169055431,72,"2811 ORCHARD LANE, RAPID CITY, SD, 57703","Match","Exact","2811 ORCHARD LN, RAPID CITY, SD, 57703",607271329,"R"
151573,"2811 OVERBROOK AVE","NORFOLK","VA",23513,36.8737395360001,-76.244583086,73,"2811 OVERBROOK AVE, NORFOLK, VA, 23513","Match","Exact","2811 OVERBROOK AVE, NORFOLK, VA, 23513",122124628,"L"
151574,"2811 PENNSYLVANIA AVE SE","WASHINGTON","DC",20020,38.8722403140001,-76.9676156789999,74,"2811 PENNSYLVANIA AVE SE, WASHINGTON, DC, 20020","Match","Exact","2811 PENNSYLVANIA AVE SE, WASHINGTON, DC, 20020",76231820,"R"
151575,"2811 RACE STREET","DENVER","CO",80205,39.757190849,-104.963453136,75,"2811 RACE STREET, DENVER, CO, 80205","Match","Exact","2811 RACE ST, DENVER, CO, 80205",177305472,"L"
151576,"2811 RACHEL ROAD","CHAMPAIGN","IL",61822,40.1214254280001,-88.292849138,76,"2811 RACHEL ROAD, CHAMPAIGN, IL, 61822","Match","Exact","2811 RACHEL RD, CHAMPAIGN, IL, 61822",8818100,"R"
151577,"2811 SE TATE AVE","PORT ST LUCIE","FL",34984,27.259832121,-80.342803625,77,"2811 SE TATE AVE, PORT ST LUCIE, FL, 34984","Match","Exact","2811 SE TATE AVE, PORT ST LUCIE, FL, 34984",120161301,"L"
151578,"2811 SKYLINE DRIVE","WEST MIFFLIN","PA",15122,40.358063143,-79.878227107,78,"2811 SKYLINE DRIVE, WEST MIFFLIN, PA, 15122","Match","Exact","2811 SKYLINE DR, WEST MIFFLIN, PA, 15122",641866722,"L"
151579,"2811 ST ANDREWS STREET  APT 40","MERIDIAN","MS",39301,32.355887699,-88.7066016539999,79,"2811 ST ANDREWS STREET  APT 40, MERIDIAN, MS, 39301","Match","Exact","2811 SAINT ANDREWS ST, MERIDIAN, MS, 39301",210232,"R"
151580,"2811 STRATFORD AVENUE    APT 4","CINCINNATI","OH",45220,39.133295908,-84.52182286,80,"2811 STRATFORD AVENUE    APT 4, CINCINNATI, OH, 45220","Match","Exact","2811 STRATFORD AVE, CINCINNATI, OH, 45220",103924602,"L"
151581,"2811 TAMIAMI TRAIL STE K","PORT CHARLOTTE","FL",33952,NA,NA,81,"2811 TAMIAMI TRAIL STE K, PORT CHARLOTTE, FL, 33952","No_Match",NA,NA,NA,NA
151582,"2811 TIPTON ST","SOUTH CHESTERFIELD","VA",23834,37.302839142,-77.4123708769999,82,"2811 TIPTON ST, SOUTH CHESTERFIELD, VA, 23834","Match","Exact","2811 TIPTON ST, SOUTH CHESTERFIELD, VA, 23834",201566464,"L"
151583,"2811 TIPTON STREET","SOUTH CHESTERFIELD","VA",23834,37.302839142,-77.4123708769999,83,"2811 TIPTON STREET, SOUTH CHESTERFIELD, VA, 23834","Match","Exact","2811 TIPTON ST, SOUTH CHESTERFIELD, VA, 23834",201566464,"L"
151584,"2811 TWAIN LANE","NORTH CHESTERFIELD","VA",23224,37.4690392150001,-77.514774486,84,"2811 TWAIN LANE, NORTH CHESTERFIELD, VA, 23224","Match","Exact","2811 TWAIN LN, NORTH CHESTERFIELD, VA, 23224",201544874,"L"
151585,"2811 WASHINGTON AVE","BEDFORD","IN",47421,38.8474231970001,-86.49805844,85,"2811 WASHINGTON AVE, BEDFORD, IN, 47421","Match","Exact","2811 WASHINGTON AVE, BEDFORD, IN, 47421",42074266,"L"
151586,"2811 WEST MALL DRIVE","FLORENCE","AL",35630,34.8404412960001,-87.640620089,86,"2811 WEST MALL DRIVE, FLORENCE, AL, 35630","Match","Exact","2811 W MALL DR, FLORENCE, AL, 35630",41322291,"L"
151587,"2811 WILDFLOWER DR","ROCKY RIVER","OH",44116,41.4648268230001,-81.855307819,87,"2811 WILDFLOWER DR, ROCKY RIVER, OH, 44116","Match","Exact","2811 WILDFLOWER DR, ROCKY RIVER, OH, 44116",61098307,"L"
151588,"28110 235TH AVE SE","MAPLE VALLEY","WA",98038,47.3500713180001,-122.028692325,88,"28110 235TH AVE SE, MAPLE VALLEY, WA, 98038","Match","Exact","28110 235TH AVE SE, MAPLE VALLEY, WA, 98038",186923504,"R"
151589,"28112 W TRAIL WAYS","CALDWELL","ID",83607,43.7802598390001,-116.734175872,89,"28112 W TRAIL WAYS, CALDWELL, ID, 83607","Match","Non_Exact","28112 W TRAIL WAY, CALDWELL, ID, 83607",122843859,"L"
151590,"28116 150TH PL SE","KENT","WA",98042,47.3497414300001,-122.140955224,90,"28116 150TH PL SE, KENT, WA, 98042","Match","Exact","28116 150TH PL SE, KENT, WA, 98042",640927709,"L"
151591,"28118 YELLOW CORNERSTONE DR","KATY","TX",77494,29.7150929210001,-95.8303311079999,91,"28118 YELLOW CORNERSTONE DR, KATY, TX, 77494","Match","Exact","28118 YELLOW CORNERSTONE DR, KATY, TX, 77494",647982454,"L"
151592,"28118 YELLOW CORNERSTONE DRIVE","KATY","TX",77494,29.7150929210001,-95.8303311079999,92,"28118 YELLOW CORNERSTONE DRIVE, KATY, TX, 77494","Match","Exact","28118 YELLOW CORNERSTONE DR, KATY, TX, 77494",647982454,"L"
151593,"2812 ALCAZAR ST NE","ALBUQUERQUE","NM",87110,35.11353395,-106.56778953,93,"2812 ALCAZAR ST NE, ALBUQUERQUE, NM, 87110","Match","Exact","2812 ALCAZAR ST NE, ALBUQUERQUE, NM, 87110",206716991,"R"
151594,"2812 AMELIA AVE","DECATUR","GA",30032,33.7415702220001,-84.27518706,94,"2812 AMELIA AVE, DECATUR, GA, 30032","Match","Exact","2812 AMELIA AVE, DECATUR, GA, 30032",23367765,"L"
151595,"2812 AMHERST RIDGE WAY","SOUTH CHESTERFIELD","VA",23834,37.293638849,-77.413035,95,"2812 AMHERST RIDGE WAY, SOUTH CHESTERFIELD, VA, 23834","Match","Exact","2812 AMHERST RIDGE WAY, SOUTH CHESTERFIELD, VA, 23834",201566476,"R"
151596,"2812 ARIZONA AVE APT C","SANTA MONICA","CA",90404,34.036215757,-118.473891385,96,"2812 ARIZONA AVE APT C, SANTA MONICA, CA, 90404","Match","Exact","2812 ARIZONA AVE, SANTA MONICA, CA, 90404",141568095,"R"
151597,"2812 ARTHUR STREET","WALL","NJ",7719,40.1798436170001,-74.066464168,97,"2812 ARTHUR STREET, WALL, NJ, 7719","Match","Exact","2812 ARTHUR ST, WALL, NJ, 07719",90458294,"L"
151598,"2812 BALLIETT CT","VIENNA","VA",22180,38.875683865,-77.243102069,98,"2812 BALLIETT CT, VIENNA, VA, 22180","Match","Exact","2812 BALLIETT CT, VIENNA, VA, 22180",645576778,"R"
151599,"2812 BERRY TRACE","SCHERTZ","TX",78154,29.581050152,-98.269399052,99,"2812 BERRY TRACE, SCHERTZ, TX, 78154","Match","Exact","2812 BERRY TRCE, SCHERTZ, TX, 78154",54836773,"R"
151600,"2812 BYRON DR","ROANOKE","VA",24019,37.3141016550001,-80.023986225,100,"2812 BYRON DR, ROANOKE, VA, 24019","Match","Exact","2812 BYRON DR, ROANOKE, VA, 24019",62902102,"L"
151601,"2812 CABIN CREEK DRIVE","BURTONSVILLE","MD",20866,39.0989525580001,-76.9546785269999,101,"2812 CABIN CREEK DRIVE, BURTONSVILLE, MD, 20866","Match","Exact","2812 CABIN CREEK DR, BURTONSVILLE, MD, 20866",62072938,"R"
151602,"2812 CHESTERFIELD PL NW","WASHINGTON","DC",20008,38.95234572,-77.056351305,102,"2812 CHESTERFIELD PL NW, WASHINGTON, DC, 20008","Match","Exact","2812 CHESTERFIELD PL NW, WASHINGTON, DC, 20008",76220706,"L"
151603,"2812 COASTAL RANGE WAY","LUTZ","FL",33559,28.1667910350001,-82.421239359,103,"2812 COASTAL RANGE WAY, LUTZ, FL, 33559","Match","Exact","2812 COASTAL RANGE WAY, LUTZ, FL, 33559",638635725,"R"
151604,"2812 CRUMS LANE","LOUISVILLE","KY",40216,38.1951044840001,-85.8265376529999,104,"2812 CRUMS LANE, LOUISVILLE, KY, 40216","Match","Exact","2812 CRUMS LN, LOUISVILLE, KY, 40216",96837001,"L"
151605,"2812 D ST APT 14","SACRAMENTO","CA",95816,38.580335523,-121.466117933,105,"2812 D ST APT 14, SACRAMENTO, CA, 95816","Match","Exact","2812 D ST, SACRAMENTO, CA, 95816",133324742,"R"
151606,"2812 EAST 76TH STREET  3RD FLOOR","CHICAGO","IL",60649,41.7582185150001,-87.5565334999999,106,"2812 EAST 76TH STREET  3RD FLOOR, CHICAGO, IL, 60649","Match","Exact","2812 E 76TH ST, CHICAGO, IL, 60649",111775856,"L"
151607,"2812 JILLS TRAIL","EDMOND","OK",73012,35.6658399770001,-97.520318161,107,"2812 JILLS TRAIL, EDMOND, OK, 73012","Match","Exact","2812 JILLS TRL, EDMOND, OK, 73012",100385614,"R"
151608,"2812 KAREN DRIVE","CHALMETTE","LA",70043,29.9415612180001,-89.9519936999999,108,"2812 KAREN DRIVE, CHALMETTE, LA, 70043","Match","Exact","2812 KAREN DR, CHALMETTE, LA, 70043",111194831,"L"
151609,"2812 LA JOLLA DR","ANTIOCH","CA",94509,37.9776340610001,-121.769809835,109,"2812 LA JOLLA DR, ANTIOCH, CA, 94509","Match","Non_Exact","2812 LA JOLLA DR, ANTIOCH, CA, 94531",192080185,"R"
151610,"2812 LARK DR","COLORADO SPRINGS","CO",80909,38.8711190860001,-104.789880396,110,"2812 LARK DR, COLORADO SPRINGS, CO, 80909","Match","Exact","2812 LARK DR, COLORADO SPRINGS, CO, 80909",105515697,"L"
151611,"2812 LEXINGTON BLVD","MISHAWAKA","IN",46544,41.6499011450001,-86.1346939699999,111,"2812 LEXINGTON BLVD, MISHAWAKA, IN, 46544","Match","Exact","2812 LEXINGTON BLVD, MISHAWAKA, IN, 46544",8063809,"L"
151612,"2812 MORGAN FARM CT","BUFORD","GA",30519,34.0637117040001,-83.939169648,112,"2812 MORGAN FARM CT, BUFORD, GA, 30519","Match","Exact","2812 MORGAN FARM CT, BUFORD, GA, 30519",633694337,"L"
151613,"2812 MOSS RD","HUNTSVILLE","AL",35810,34.7622986910001,-86.60999084,113,"2812 MOSS RD, HUNTSVILLE, AL, 35810","Match","Non_Exact","2812 MOSS RD NW, HUNTSVILLE, AL, 35810",58116350,"R"
151614,"2812 MUSKY MINT DR","LAND O LAKES","FL",34638,28.198920833,-82.531645666,114,"2812 MUSKY MINT DR, LAND O LAKES, FL, 34638","Match","Exact","2812 MUSKY MINT DR, LAND O LAKES, FL, 34638",650162557,"R"
151615,"2812 MUSSMAN DRIVE","INDIANAPOLIS","IN",46222,39.8064275630001,-86.235529597,115,"2812 MUSSMAN DRIVE, INDIANAPOLIS, IN, 46222","Match","Exact","2812 MUSSMAN DR, INDIANAPOLIS, IN, 46222",107979047,"L"
151616,"2812 N BIGELOW CT","PEORIA","IL",61604,40.7219724170001,-89.5968842889999,116,"2812 N BIGELOW CT, PEORIA, IL, 61604","Match","Exact","2812 N BIGELOW CT, PEORIA, IL, 61604",8718912,"R"
151617,"2812 NICHOLS ST","SPENCERPORT","NY",14559,43.1814744490001,-77.7978956699999,117,"2812 NICHOLS ST, SPENCERPORT, NY, 14559","Match","Exact","2812 NICHOLS ST, SPENCERPORT, NY, 14559",14528036,"R"
151618,"2812 NORTH 5TH STREET APT 504","MILWAUKEE","WI",53212,43.069718698,-87.9169778999999,118,"2812 NORTH 5TH STREET APT 504, MILWAUKEE, WI, 53212","Match","Exact","2812 N 5TH ST, MILWAUKEE, WI, 53212",77739574,"R"
151619,"2812 NORTHTOWN PLACE","MIDLAND","TX",79705,32.0303441020001,-102.122442588,119,"2812 NORTHTOWN PLACE, MIDLAND, TX, 79705","Match","Exact","2812 NORTHTOWN PL, MIDLAND, TX, 79705",139578497,"R"
151620,"2812 OAK PARK DRIVE","COOKEVILLE","TN",38506,36.201539272,-85.468980932,120,"2812 OAK PARK DRIVE, COOKEVILLE, TN, 38506","Match","Exact","2812 OAK PARK DR, COOKEVILLE, TN, 38506",605269313,"L"
151621,"2812 RICHMOND ROAD","TEXARKANA","TX",75503,33.4620298990001,-94.0922702559999,121,"2812 RICHMOND ROAD, TEXARKANA, TX, 75503","Match","Exact","2812 RICHMOND RD, TEXARKANA, TX, 75503",57678608,"R"
151622,"2812 S VICTORIA AVE 4","LOS ANGELES","CA",90016,34.030822394,-118.336330298,122,"2812 S VICTORIA AVE 4, LOS ANGELES, CA, 90016","Match","Non_Exact","2812 S VICTORIA AVE, LOS ANGELES, CA, 90016",141602112,"L"
151623,"2812 SAN MEDINA AVENUE","DALLAS","TX",75228,32.8329327000001,-96.666698893,123,"2812 SAN MEDINA AVENUE, DALLAS, TX, 75228","Match","Exact","2812 SAN MEDINA AVE, DALLAS, TX, 75228",102923606,"R"
151624,"2812 SANTA MONICA BLVD STE 201","SANTA MONICA","CA",90404,34.034878986,-118.472343592,124,"2812 SANTA MONICA BLVD STE 201, SANTA MONICA, CA, 90404","Match","Exact","2812 SANTA MONICA BLVD, SANTA MONICA, CA, 90404",241239416,"R"
151625,"2812 SE ASH ST","PORTLAND","OR",97214,45.521404192,-122.637008493,125,"2812 SE ASH ST, PORTLAND, OR, 97214","Match","Exact","2812 SE ASH ST, PORTLAND, OR, 97214",157507473,"R"
151626,"2812 SHADY LANE","MARYVILLE","TN",37803,35.7074018170001,-84.021512966,126,"2812 SHADY LANE, MARYVILLE, TN, 37803","Match","Exact","2812 SHADY LN, MARYVILLE, TN, 37803",89827853,"R"
151627,"2812 SHANANDALE DR","SILVER SPRING","MH",20904,NA,NA,127,"2812 SHANANDALE DR, SILVER SPRING, MH, 20904","No_Match",NA,NA,NA,NA
151628,"2812 SPANISH VALLEY DRIVE","MOAB","UT",84532,38.5308598440001,-109.497833047,128,"2812 SPANISH VALLEY DRIVE, MOAB, UT, 84532","Match","Exact","2812 SPANISH VALLEY DR, MOAB, UT, 84532",126066594,"L"
151629,"2812 SUTTON BLVD","MAPLEWOOD","MO",63143,38.6116616410001,-90.319925086,129,"2812 SUTTON BLVD, MAPLEWOOD, MO, 63143","Match","Exact","2812 SUTTON BLVD, MAPLEWOOD, MO, 63143",100136668,"L"
151630,"2812 SW 6TH AVE","AMARILLO","TX",79106,35.2112724,-101.867682288,130,"2812 SW 6TH AVE, AMARILLO, TX, 79106","Match","Exact","2812 6TH AVE, AMARILLO, TX, 79106",182469966,"R"
151631,"2812 VIEW RIDGE DR","MELBA","ID",83641,43.4139130360001,-116.591187298,131,"2812 VIEW RIDGE DR, MELBA, ID, 83641","Match","Exact","2812 VIEW RIDGE DR, MELBA, ID, 83641",122836562,"L"
151632,"2812 W 43RD AVE STE 2","KANSAS CITY","KS",66103,39.050339035,-94.618492159,132,"2812 W 43RD AVE STE 2, KANSAS CITY, KS, 66103","Match","Non_Exact","2812 W 43RD AVE, KANSAS CITY, KS, 66103",91142411,"R"
151633,"2812 W DEVOY DRIVE","ANAHEIM","CA",92804,33.8197593950001,-117.985387401,133,"2812 W DEVOY DRIVE, ANAHEIM, CA, 92804","Match","Exact","2812 W DEVOY DR, ANAHEIM, CA, 92804",144011618,"L"
151634,"2812 W HIGH GROVE CIR","ZIONSVILLE","IN",46077,40.0012506670001,-86.256486416,134,"2812 W HIGH GROVE CIR, ZIONSVILLE, IN, 46077","Match","Non_Exact","2812 E HIGH GROVE CIR, ZIONSVILLE, IN, 46077",610978343,"R"
151635,"2812 WEST 54TH STREET","LOS ANGELES","CA",90043,33.993166495,-118.323809123,135,"2812 WEST 54TH STREET, LOS ANGELES, CA, 90043","Match","Exact","2812 W 54TH ST, LOS ANGELES, CA, 90043",141655047,"L"
151636,"2812 WHEATLAND DR S","FARGO","ND",58103,46.839848868,-96.836825818,136,"2812 WHEATLAND DR S, FARGO, ND, 58103","Match","Exact","2812 WHEATLAND DR S, FARGO, ND, 58103",151460061,"R"
151637,"2812 WOOD HOLLOW PLACE","FORT WASHINGTON","MD",20744,38.7908756160001,-76.958890378,137,"2812 WOOD HOLLOW PLACE, FORT WASHINGTON, MD, 20744","Match","Exact","2812 WOOD HOLLOW PL, FT WASHINGTON, MD, 20744",76411809,"L"
151638,"28121 SECO CANYON RD 88","SANTA CLARITA","CA",91390,34.461119078,-118.534138954,138,"28121 SECO CANYON RD 88, SANTA CLARITA, CA, 91390","Match","Exact","28121 SECO CANYON RD, SANTA CLARITA, CA, 91390",241114655,"L"
151639,"28122 NORTHWOOD DR","MENIFEE","CA",92586,33.712417235,-117.199547232,139,"28122 NORTHWOOD DR, MENIFEE, CA, 92586","Match","Exact","28122 NORTHWOOD DR, MENIFEE, CA, 92586",194710727,"R"
151640,"28123 ORCHARD LAKE RD","FARMINGTON HILLS","MI",48334,42.505063191,-83.358928228,140,"28123 ORCHARD LAKE RD, FARMINGTON HILLS, MI, 48334","Match","Exact","28123 ORCHARD LAKE RD, FARMINGTON HILLS, MI, 48334",69723444,"L"
151641,"28125 W SEVEN MILE ROAD","LIVONIA","MI",48152,42.4274317680001,-83.324034586,141,"28125 W SEVEN MILE ROAD, LIVONIA, MI, 48152","Match","Exact","28125 W 7 MILE RD, LIVONIA, MI, 48152",95418688,"L"
151642,"2813 11TH AVE","LEWISTON","ID",83501,46.4093479740001,-116.992287601,142,"2813 11TH AVE, LEWISTON, ID, 83501","Match","Exact","2813 11TH AVE, LEWISTON, ID, 83501",173132617,"R"
151643,"2813 ALEXANDRIA PL","JANESVILLE","WI",53548,42.685478184,-89.055829046,143,"2813 ALEXANDRIA PL, JANESVILLE, WI, 53548","Match","Exact","2813 ALEXANDRIA PL, JANESVILLE, WI, 53548",49852525,"L"
151644,"2813 AZALEA AVE","TUSKEGEE","AL",36083,NA,NA,144,"2813 AZALEA AVE, TUSKEGEE, AL, 36083","No_Match",NA,NA,NA,NA
151645,"2813 CHERRY BLOSSOM COURT","WALDORF","KY",20603,NA,NA,145,"2813 CHERRY BLOSSOM COURT, WALDORF, KY, 20603","No_Match",NA,NA,NA,NA
151646,"2813 CLUBHOUSE DR","PLANT CITY","FL",33566,27.984721656,-82.164273523,146,"2813 CLUBHOUSE DR, PLANT CITY, FL, 33566","Match","Exact","2813 CLUBHOUSE DR, PLANT CITY, FL, 33566",104699909,"L"
151647,"2813 DEWBERRY ROAD","YORK","PA",17404,40.012827681,-76.7658976559999,147,"2813 DEWBERRY ROAD, YORK, PA, 17404","Match","Exact","2813 DEWBERRY RD, YORK, PA, 17404",636717129,"R"
151648,"2813 DH HARVELL CIRCLE","NAVARRE","FL",32566,30.4347835840001,-86.899281634,148,"2813 DH HARVELL CIRCLE, NAVARRE, FL, 32566","Match","Non_Exact","2813 D H HARVELL CIR, NAVARRE, FL, 32566",640615051,"L"
151649,"2813 EMERALD LAKE DR","HARLINGEN","TX",78550,26.180756435,-97.6605779669999,149,"2813 EMERALD LAKE DR, HARLINGEN, TX, 78550","Match","Exact","2813 EMERALD LAKE DR, HARLINGEN, TX, 78550",89957823,"L"
151650,"2813 GREENSBORO AVENUE","BELLEVUE","NE",68005,41.144193391,-95.9308590479999,150,"2813 GREENSBORO AVENUE, BELLEVUE, NE, 68005","Match","Exact","2813 GREENSBORO AVE, BELLEVUE, NE, 68005",28470442,"L"
151651,"2813 N 25TH STREET","PHOENIX","AZ",85008,33.478615695,-112.028017117,151,"2813 N 25TH STREET, PHOENIX, AZ, 85008","Match","Exact","2813 N 25TH ST, PHOENIX, AZ, 85008",128214456,"R"
151652,"2813 NORTH 17TH STREET","FORT DODGE","IA",50501,42.533172059,-94.174597727,152,"2813 NORTH 17TH STREET, FORT DODGE, IA, 50501","Match","Exact","2813 N 17TH ST, FORT DODGE, IA, 50501",66091981,"L"
151653,"2813 NORTH HURSTBOURNE PARKWAY","LOUISVILLE","KY",40223,NA,NA,153,"2813 NORTH HURSTBOURNE PARKWAY, LOUISVILLE, KY, 40223","No_Match",NA,NA,NA,NA
151654,"2813 OAKBROOK DRIVE","WESTON","FL",33332,26.0865647370001,-80.405217407,154,"2813 OAKBROOK DRIVE, WESTON, FL, 33332","Match","Exact","2813 OAKBROOK DR, WESTON, FL, 33332",114789310,"R"
151655,"2813 OAKLAND HILLS DR","PLANO","TX",75025,33.105932555,-96.746343455,155,"2813 OAKLAND HILLS DR, PLANO, TX, 75025","Match","Exact","2813 OAKLAND HILLS DR, PLANO, TX, 75025",123561668,"L"
151656,"2813 OAKLEY ST","BAKERSFIELD","CA",93311,35.329907975,-119.142791982,156,"2813 OAKLEY ST, BAKERSFIELD, CA, 93311","Match","Exact","2813 OAKLEY ST, BAKERSFIELD, CA, 93311",109526399,"R"
151657,"2813 OAKVALE FALLS DRIVE","DECATUR","GA",30034,33.677577194,-84.273337385,157,"2813 OAKVALE FALLS DRIVE, DECATUR, GA, 30034","Match","Exact","2813 OAKVALE FALLS DR, DECATUR, GA, 30034",23388225,"L"
151658,"2813 PLUMERIA DR","HARLINGEN","TX",78552,26.155560935,-97.7301568349999,158,"2813 PLUMERIA DR, HARLINGEN, TX, 78552","Match","Non_Exact","2813 PLUMERIA, HARLINGEN, TX, 78552",624729367,"L"
151659,"2813 ROSEGLEN WAY","ORLANDO","FL",32812,28.5108801150001,-81.338610048,159,"2813 ROSEGLEN WAY, ORLANDO, FL, 32812","Match","Exact","2813 ROSEGLEN WAY, ORLANDO, FL, 32812",625204055,"R"
151660,"2813 S HIAWASSEE ROAD  SUITE 104","ORLANDO","FL",32835,28.516542789,-81.484402401,160,"2813 S HIAWASSEE ROAD  SUITE 104, ORLANDO, FL, 32835","Match","Non_Exact","2813 S HIAWASSEE RD, ORLANDO, FL, 32835",636400122,"L"
151661,"2813 S HIELAND ROAD","ST. ANNE","IL",60964,41.0806822160001,-87.779702867,161,"2813 S HIELAND ROAD, ST. ANNE, IL, 60964","Match","Exact","2813 S HIELAND RD, SAINT ANNE, IL, 60964",616547781,"L"
151662,"2813 SOUTHWEST WESTPORT PLAZA DRIVE","TOPEKA","KS",66614,NA,NA,162,"2813 SOUTHWEST WESTPORT PLAZA DRIVE, TOPEKA, KS, 66614","No_Match",NA,NA,NA,NA
151663,"2813 VESTAVIA FOREST PL","VESTAVIA","AL",35216,33.426765231,-86.796411792,163,"2813 VESTAVIA FOREST PL, VESTAVIA, AL, 35216","Match","Exact","2813 VESTAVIA FOREST PL, VESTAVIA, AL, 35216",641585842,"L"
151664,"2813 W WALNUT HILL LN APT 1025","IRVING","TX",75038,32.866963578,-96.982944988,164,"2813 W WALNUT HILL LN APT 1025, IRVING, TX, 75038","Match","Non_Exact","2813 W WALNUT HILL LN, IRVING, TX, 75038",103174508,"R"
151665,"28131 OAKLAR DRIVE","SAUGUS","CA",91350,34.4534280280001,-118.501964627,165,"28131 OAKLAR DRIVE, SAUGUS, CA, 91350","Match","Exact","28131 OAKLAR DR, SAUGUS, CA, 91350",142670908,"R"
151666,"28134 GUILFORD LANE","SANTA CLARITA","CA",91350,34.4544516060001,-118.512910505,166,"28134 GUILFORD LANE, SANTA CLARITA, CA, 91350","Match","Exact","28134 GUILFORD LN, SANTA CLARITA, CA, 91350",142670880,"R"
151667,"28134 S WESTERN AVENUE 142","SAN PEDRO","CA",90732,33.7645673490001,-118.311153624,167,"28134 S WESTERN AVENUE 142, SAN PEDRO, CA, 90732","Match","Exact","28134 WESTERN AVE, SAN PEDRO, CA, 90732",141688893,"L"
151668,"2814 - 47TH STREET","MOLINE","IL",61265,NA,NA,168,"2814 - 47TH STREET, MOLINE, IL, 61265","No_Match",NA,NA,NA,NA
151669,"2814 38TH STREET","LUBBOCK","TX",79413,33.5596574630001,-101.877234306,169,"2814 38TH STREET, LUBBOCK, TX, 79413","Match","Exact","2814 38TH ST, LUBBOCK, TX, 79413",185253801,"R"
151670,"2814 B STADIUM DRIVE","PHENIX CITY","AL",36867,32.4868359270001,-85.020840203,170,"2814 B STADIUM DRIVE, PHENIX CITY, AL, 36867","Match","Exact","2814 STADIUM DR, PHENIX CITY, AL, 36867",69285158,"L"
151671,"2814 BAYWOOD TRAIL","FORT WAYNE","IN",46845,41.192276378,-85.105662352,171,"2814 BAYWOOD TRAIL, FORT WAYNE, IN, 46845","Match","Exact","2814 BAYWOOD TRL, FORT WAYNE, IN, 46845",6398216,"R"
151672,"2814 BLOSSOM STREET","COLUMBIA","SC",29205,33.996660316,-81.0030011699999,172,"2814 BLOSSOM STREET, COLUMBIA, SC, 29205","Match","Exact","2814 BLOSSOM ST, COLUMBIA, SC, 29205",71828275,"R"
151673,"2814 CHRENSHAW DR NW","HUNTSVILLE","AL",35810,34.7980984760001,-86.5991429109999,173,"2814 CHRENSHAW DR NW, HUNTSVILLE, AL, 35810","Match","Non_Exact","2814 CHRENSHAW CIR NW, HUNTSVILLE, AL, 35810",58115682,"R"
151674,"2814 CRAWFORD AVE","PARSONS","KS",67357,37.3425188790001,-95.278901488,174,"2814 CRAWFORD AVE, PARSONS, KS, 67357","Match","Exact","2814 CRAWFORD AVE, PARSONS, KS, 67357",13719407,"L"
151675,"2814 FLOWER ACRES RD","TEXARKANA","TX",75501,33.391926778,-94.085536216,175,"2814 FLOWER ACRES RD, TEXARKANA, TX, 75501","Match","Exact","2814 FLOWER ACRES RD, TEXARKANA, TX, 75501",57669461,"R"
151676,"2814 KALAWAO STREET","HONOLULU","HI",96822,21.3032935150001,-157.810840207,176,"2814 KALAWAO STREET, HONOLULU, HI, 96822","Match","Exact","2814 KALAWAO ST, HONOLULU, HI, 96822",203261970,"R"
151677,"2814 KENAI DR","CEDAR PARK","TX",78613,30.5217109870001,-97.780210488,177,"2814 KENAI DR, CEDAR PARK, TX, 78613","Match","Exact","2814 KENAI DR, CEDAR PARK, TX, 78613",616935203,"R"
151678,"2814 MAPLE BROOK LOOP","LUTZ","FL",33558,28.1675683070001,-82.488395558,178,"2814 MAPLE BROOK LOOP, LUTZ, FL, 33558","Match","Exact","2814 MAPLE BROOK LOOP, LUTZ, FL, 33558",641382836,"R"
151679,"2814 MATHERS WAY","TWINSBURG","OH",44087,41.3480397390001,-81.4279406639999,179,"2814 MATHERS WAY, TWINSBURG, OH, 44087","Match","Exact","2814 MATHERS WAY, TWINSBURG, OH, 44087",61374177,"R"
151680,"2814 N 90TH STREET","MILWAUKEE","WI",53222,43.070032143,-88.025000037,180,"2814 N 90TH STREET, MILWAUKEE, WI, 53222","Match","Exact","2814 N 90TH ST, MILWAUKEE, WI, 53222",77728521,"R"
151681,"2814 NORTH GREEN STREET","HARRISBURG","PA",17110,40.2902179490001,-76.9024835399999,181,"2814 NORTH GREEN STREET, HARRISBURG, PA, 17110","Match","Non_Exact","2814 GREEN ST, HARRISBURG, PA, 17110",70815540,"L"
151682,"2814 OAKTREE WAY","FALLBROOK","CA",92028,33.3421812010001,-117.186021816,182,"2814 OAKTREE WAY, FALLBROOK, CA, 92028","Match","Exact","2814 OAKTREE WAY, FALLBROOK, CA, 92028",195287599,"L"
151683,"2814 PADEN DRIVE","NASHVILLE","TN",37206,36.1735232230001,-86.724168258,183,"2814 PADEN DRIVE, NASHVILLE, TN, 37206","Match","Exact","2814 PADEN DR, NASHVILLE, TN, 37206",97194832,"R"
151684,"2814 PENNSYLVANIA AVENUE","SAINT LOUIS","MO",63118,38.6044233120001,-90.231328111,184,"2814 PENNSYLVANIA AVENUE, SAINT LOUIS, MO, 63118","Match","Exact","2814 PENNSYLVANIA AVE, SAINT LOUIS, MO, 63118",107598463,"L"
151685,"2814 PINEWAY DR","ORLANDO","FL",32839,28.4769451280001,-81.414122945,185,"2814 PINEWAY DR, ORLANDO, FL, 32839","Match","Exact","2814 PINEWAY DR, ORLANDO, FL, 32839",94274973,"L"
151686,"2814 PLEASANT VIEW RD UNIT 202","MIDDLETON","WI",53562,43.107907803,-89.536392226,186,"2814 PLEASANT VIEW RD UNIT 202, MIDDLETON, WI, 53562","Match","Exact","2814 PLEASANT VIEW RD, MIDDLETON, WI, 53562",645582553,"L"
151687,"2814 POINSETT HIGHWAY","GREENVILLE","SC",29609,34.924460019,-82.4329676529999,187,"2814 POINSETT HIGHWAY, GREENVILLE, SC, 29609","Match","Exact","2814 POINSETT HWY, GREENVILLE, SC, 29609",38375064,"R"
151688,"2814 SIX MILE LN","LOUISVILLE","KY",40220,38.204137261,-85.590100272,188,"2814 SIX MILE LN, LOUISVILLE, KY, 40220","Match","Exact","2814 SIX MILE LN, LOUISVILLE, KY, 40220",96880680,"R"
151689,"2814 SYLHOWE ROAD","OAKLAND","CA",94602,37.8069572320001,-122.195389546,189,"2814 SYLHOWE ROAD, OAKLAND, CA, 94602","Match","Exact","2814 SYLHOWE RD, OAKLAND, CA, 94602",624756773,"L"
151690,"2814 TRIWAY LN","HOUSTON","TX",77043,29.823222419,-95.5493555529999,190,"2814 TRIWAY LN, HOUSTON, TX, 77043","Match","Exact","2814 TRIWAY LN, HOUSTON, TX, 77043",96019666,"R"
151691,"2814 W STILES ST","PHILADELPHIA","PA",19121,39.975125964,-75.182210353,191,"2814 W STILES ST, PHILADELPHIA, PA, 19121","Match","Exact","2814 W STILES ST, PHILADELPHIA, PA, 19121",131404946,"L"
151692,"2814 WEST LAKE STREET","FORT COLLINS","CO",80521,40.5688847440001,-105.128930327,192,"2814 WEST LAKE STREET, FORT COLLINS, CO, 80521","Match","Exact","2814 W LAKE ST, FORT COLLINS, CO, 80521",188516647,"R"
151693,"2814 WOODLAND PARK DR","ATLANTA","GA",30345,33.8394228990001,-84.2732261529999,193,"2814 WOODLAND PARK DR, ATLANTA, GA, 30345","Match","Non_Exact","2814 WOODLAND PARK DR NE, ATLANTA, GA, 30345",640581103,"R"
151694,"28140 INTRACOASTAL ROAD","PLAQUEMINE","LA",70764,30.2410629410001,-91.31827569,194,"28140 INTRACOASTAL ROAD, PLAQUEMINE, LA, 70764","Match","Exact","28140 INTRACOASTAL RD, PLAQUEMINE, LA, 70764",85565633,"L"
151695,"28142 HIGHWAY 57","LEAKESVILLE","MS",39451,31.1299302780001,-88.641480074,195,"28142 HIGHWAY 57, LEAKESVILLE, MS, 39451","Match","Exact","28142 HWY 57, LEAKESVILLE, MS, 39451",649452818,"R"
151696,"28144 COOPERS LANE","WAVERLY","NJ",23890,NA,NA,196,"28144 COOPERS LANE, WAVERLY, NJ, 23890","No_Match",NA,NA,NA,NA
151697,"28144 COOPERS LANE","WAVERLY","VA",23890,36.9013449620001,-77.147301085,197,"28144 COOPERS LANE, WAVERLY, VA, 23890","Match","Exact","28144 COOPERS LN, WAVERLY, VA, 23890",168080528,"L"
151698,"28145 COUNTY ROAD 496","CHAMPION","MI",49814,46.5082716900001,-87.835581357,198,"28145 COUNTY ROAD 496, CHAMPION, MI, 49814","Match","Exact","28145 CO RD 496, CHAMPION, MI, 49814",182032229,"R"
151699,"28145 GIBRALTAR LN","CASTAIC","CA",91384,34.4567480170001,-118.628203477,199,"28145 GIBRALTAR LN, CASTAIC, CA, 91384","Match","Exact","28145 GIBRALTAR LN, CASTAIC, CA, 91384",627218772,"L"
151700,"28145 LILY ST NW","ISANTI","MN",55040,45.480028974,-93.347579471,200,"28145 LILY ST NW, ISANTI, MN, 55040","Match","Exact","28145 LILY ST NW, ISANTI, MN, 55040",97616468,"R"
151701,"28147 BERLIN DORY RD","SEDLEY","VA",23878,36.8567602190001,-77.021172012,201,"28147 BERLIN DORY RD, SEDLEY, VA, 23878","Match","Exact","28147 BERLIN DORY RD, SEDLEY, VA, 23878",82723112,"R"
151702,"2815 8TH STREET COURT WEST","BRADENTON","FL",34205,27.4754012550001,-82.57040906,202,"2815 8TH STREET COURT WEST, BRADENTON, FL, 34205","Match","Exact","2815 8TH STREET CT W, BRADENTON, FL, 34205",16257782,"L"
151703,"2815 ALDERBROOK CT N","PUYALLUP","WA",98374,47.1644646390001,-122.260523648,203,"2815 ALDERBROOK CT N, PUYALLUP, WA, 98374","Match","Exact","2815 ALDERBROOK CT N, PUYALLUP, WA, 98374",184636707,"R"
151704,"2815 BARTLETT STREET","OAKLAND","CA",94602,37.7904700670001,-122.207976147,204,"2815 BARTLETT STREET, OAKLAND, CA, 94602","Match","Exact","2815 BARTLETT ST, OAKLAND, CA, 94602",125004190,"L"
151705,"2815 BURNEY DRIVE","COLUMBIA","SC",29205,33.989635505,-81.0034476559999,205,"2815 BURNEY DRIVE, COLUMBIA, SC, 29205","Match","Exact","2815 BURNEY DR, COLUMBIA, SC, 29205",71828317,"L"
151706,"2815 CAMINO DEL MAR SUITE 41","DEL MAR","CA",92014,NA,NA,206,"2815 CAMINO DEL MAR SUITE 41, DEL MAR, CA, 92014","No_Match",NA,NA,NA,NA
151707,"2815 CAMINO DEL RIO SOUTH SUITE 250","SAN DIEGO","CA",92108,NA,NA,207,"2815 CAMINO DEL RIO SOUTH SUITE 250, SAN DIEGO, CA, 92108","No_Match",NA,NA,NA,NA
151708,"2815 DEFOE DRIVE","KATY","TX",77449,29.815022808,-95.7606340299999,208,"2815 DEFOE DRIVE, KATY, TX, 77449","Match","Exact","2815 DEFOE DR, KATY, TX, 77449",641966948,"R"
151709,"2815 DONAMIRE DRIVE","KENNESAW","GA",30144,34.040485806,-84.64047877,209,"2815 DONAMIRE DRIVE, KENNESAW, GA, 30144","Match","Non_Exact","2815 DONAMIRE DR NW, KENNESAW, GA, 30144",17235500,"L"
151710,"2815 ELLIOTT AVE STE 100","SEATTLE","WA",98121,47.615127699,-122.353465549,210,"2815 ELLIOTT AVE STE 100, SEATTLE, WA, 98121","Match","Exact","2815 ELLIOTT AVE, SEATTLE, WA, 98121",186588856,"L"
151711,"2815 ENFIELD DR","DURHAM","NC",27703,35.9418310190001,-78.878428833,211,"2815 ENFIELD DR, DURHAM, NC, 27703","Match","Exact","2815 ENFIELD DR, DURHAM, NC, 27703",71743287,"L"
151712,"2815 ENGLEWOOD DR","CUMMING","GA",30040,34.237229708,-84.101043797,212,"2815 ENGLEWOOD DR, CUMMING, GA, 30040","Match","Exact","2815 ENGLEWOOD DR, CUMMING, GA, 30040",637507182,"L"
151713,"2815 FERNWOOD STREET","SAN MATEO","CA",94403,37.536457205,-122.314335044,213,"2815 FERNWOOD STREET, SAN MATEO, CA, 94403","Match","Exact","2815 FERNWOOD ST, SAN MATEO, CA, 94403",192379765,"L"
151714,"2815 FORBS AVENUE STE 107","HOFFMAN ESTATES","IL",60192,42.072264848,-88.198412638,214,"2815 FORBS AVENUE STE 107, HOFFMAN ESTATES, IL, 60192","Match","Exact","2815 FORBS AVE, HOFFMAN EST, IL, 60192",617833805,"R"
151715,"2815 FOREST AVE","KC","MO",64109,39.0756656390001,-94.569748459,215,"2815 FOREST AVE, KC, MO, 64109","Match","Non_Exact","2815 FOREST AVE, KANSAS CITY, MO, 64109",91446425,"L"
151716,"2815 HOME STREET","SIOUX CITY","IA",51109,42.523770074,-96.4767301099999,216,"2815 HOME STREET, SIOUX CITY, IA, 51109","Match","Exact","2815 HOME ST, SIOUX CITY, IA, 51109",93427542,"L"
151717,"2815 HWY 15 N","LAUREL","MS",39440,31.7223118630001,-89.148322031,217,"2815 HWY 15 N, LAUREL, MS, 39440","Match","Exact","2815 HWY 15 N, LAUREL, MS, 39440",615677659,"R"
151718,"2815 MOHAWK AVENUE","GWYNN OAK","MD",21207,39.319692827,-76.6987448789999,218,"2815 MOHAWK AVENUE, GWYNN OAK, MD, 21207","Match","Exact","2815 MOHAWK AVE, GWYNN OAK, MD, 21207",206464695,"R"
151719,"2815 MULFORD","GRAND RAPIDS","MI",49546,NA,NA,219,"2815 MULFORD, GRAND RAPIDS, MI, 49546","No_Match",NA,NA,NA,NA
151720,"2815 N PINE GROVE AVE APT 2A","CHICAGO","IL",60657,NA,NA,220,"2815 N PINE GROVE AVE APT 2A, CHICAGO, IL, 60657","No_Match",NA,NA,NA,NA
151721,"2815 N SILVER CREEK DRIVE","PALMER","AK",99645,61.6105665920001,-149.218230095,221,"2815 N SILVER CREEK DRIVE, PALMER, AK, 99645","Match","Exact","2815 N SILVER CREEK DR, PALMER, AK, 99645",611935760,"R"
151722,"2815 NW 13TH STREET SUITE 305","GAINESVILLE","FL",32609,NA,NA,222,"2815 NW 13TH STREET SUITE 305, GAINESVILLE, FL, 32609","Tie",NA,NA,NA,NA
151723,"2815 NW 69TH TER","MARGATE","FL",33063,26.262378175,-80.2212057789999,223,"2815 NW 69TH TER, MARGATE, FL, 33063","Match","Exact","2815 NW 69TH TER, MARGATE, FL, 33063",114771701,"R"
151724,"2815 NW 88TH ST","MIAMI","FL",33147,25.8548607760001,-80.2432912959999,224,"2815 NW 88TH ST, MIAMI, FL, 33147","Match","Exact","2815 NW 88TH ST, MIAMI, FL, 33147",116000766,"R"
151725,"2815 OSLER DR 8102","GRAND PRAIRIE","TX",75051,32.731916617,-97.05181566,225,"2815 OSLER DR 8102, GRAND PRAIRIE, TX, 75051","Match","Exact","2815 OSLER DR, GRAND PRAIRIE, TX, 75051",102120717,"R"
151726,"2815 OSLER DR APT 4107","GRAND PRAIRIE","TX",75051,32.731916617,-97.05181566,226,"2815 OSLER DR APT 4107, GRAND PRAIRIE, TX, 75051","Match","Exact","2815 OSLER DR, GRAND PRAIRIE, TX, 75051",102120717,"R"
151727,"2815 PEACOCK AVENUE","N CHARLESTON","SC",29405,32.8592865630001,-80.001358156,227,"2815 PEACOCK AVENUE, N CHARLESTON, SC, 29405","Match","Exact","2815 PEACOCK AVE, N CHARLESTON, SC, 29405",108801530,"R"
151728,"2815 PERKINS RD","ARLINGTON","TX",76016,32.6979443210001,-97.199104011,228,"2815 PERKINS RD, ARLINGTON, TX, 76016","Match","Exact","2815 PERKINS RD, ARLINGTON, TX, 76016",101901918,"L"
151729,"2815 PRAIRIE AVENUE","MIAMI BEACH","FL",33140,25.804069741,-80.132404037,229,"2815 PRAIRIE AVENUE, MIAMI BEACH, FL, 33140","Match","Exact","2815 PRAIRIE AVE, MIAMI BEACH, FL, 33140",116009001,"R"
151730,"2815 PROVIDENCE WAY","POMONA","CA",91767,34.09710691,-117.741327044,230,"2815 PROVIDENCE WAY, POMONA, CA, 91767","Match","Exact","2815 PROVIDENCE WAY, POMONA, CA, 91767",241166658,"R"
151731,"2815 RUMSEY CANYON ROAD","RUMSEY","CA",95679,38.89457244,-122.24656137,231,"2815 RUMSEY CANYON ROAD, RUMSEY, CA, 95679","Match","Exact","2815 RUMSEY CANYON RD, RUMSEY, CA, 95679",67686945,"L"
151732,"2815 S OSCEOLA AVE","ORLANDO","FL",32806,28.511741279,-81.370133196,232,"2815 S OSCEOLA AVE, ORLANDO, FL, 32806","Match","Exact","2815 S OSCEOLA AVE, ORLANDO, FL, 32806",94382573,"L"
151733,"2815 SODORNO LANE","HENDERSON","NV",89074,36.038196482,-115.110142125,233,"2815 SODORNO LANE, HENDERSON, NV, 89074","Match","Exact","2815 SODORNO LN, HENDERSON, NV, 89074",201882273,"L"
151734,"2815 SOUTH ROBINSON DRIVE","LORENA","TX",76655,NA,NA,234,"2815 SOUTH ROBINSON DRIVE, LORENA, TX, 76655","No_Match",NA,NA,NA,NA
151735,"2815 STAR SKY WAY","HOUSTON","TX",77045,NA,NA,235,"2815 STAR SKY WAY, HOUSTON, TX, 77045","No_Match",NA,NA,NA,NA
151736,"2815 SW CHESTNUT DRIVE","ANKENY","IA",50023,41.700878614,-93.628300649,236,"2815 SW CHESTNUT DRIVE, ANKENY, IA, 50023","Match","Exact","2815 SW CHESTNUT DR, ANKENY, IA, 50023",617970935,"L"
151737,"2815 TAVISTOCK TRAIL","SOUTHFIELD","MI",48034,NA,NA,237,"2815 TAVISTOCK TRAIL, SOUTHFIELD, MI, 48034","No_Match",NA,NA,NA,NA
151738,"2815 TAYLOR ROAD","CENTRAL POINT","OR",97502,42.3742296300001,-122.94046819,238,"2815 TAYLOR ROAD, CENTRAL POINT, OR, 97502","Match","Exact","2815 TAYLOR RD, CENTRAL POINT, OR, 97502",635449129,"R"
151739,"2815 TOWNSGATE RD SUITE 320","WESTLAKE VILLAGE","CA",91361,34.152419003,-118.822920195,239,"2815 TOWNSGATE RD SUITE 320, WESTLAKE VILLAGE, CA, 91361","Match","Exact","2815 TOWNSGATE RD, WESTLAKE VILLAGE, CA, 91361",109977775,"L"
151740,"2815 UTOPIA PKWY","FLUSHING","NY",11358,NA,NA,240,"2815 UTOPIA PKWY, FLUSHING, NY, 11358","No_Match",NA,NA,NA,NA
151741,"2815 W 800 N","ST ANTHONY","ID",83445,NA,NA,241,"2815 W 800 N, ST ANTHONY, ID, 83445","No_Match",NA,NA,NA,NA
151742,"2815 W LYNDALE STREET","CHICAGO","IL",60647,41.922411848,-87.698341915,242,"2815 W LYNDALE STREET, CHICAGO, IL, 60647","Match","Exact","2815 W LYNDALE ST, CHICAGO, IL, 60647",605194971,"L"
151743,"2815 W PARK PL","OKLAHOMA CITY","OK",73107,35.479639977,-97.563910802,243,"2815 W PARK PL, OKLAHOMA CITY, OK, 73107","Match","Exact","2815 W PARK PL, OKLAHOMA CITY, OK, 73107",100398185,"R"
151744,"2815 W VIRGINIA AVE","TAMPA","FL",33607,27.9801141200001,-82.489261429,244,"2815 W VIRGINIA AVE, TAMPA, FL, 33607","Match","Exact","2815 WEST VIRGINIA AVE, TAMPA, FL, 33607",104516773,"R"
151745,"2815 WEST 86TH PLACE","CHICAGO","IL",60652,41.736213923,-87.6925437259999,245,"2815 WEST 86TH PLACE, CHICAGO, IL, 60652","Match","Exact","2815 W 86TH PL, CHICAGO, IL, 60652",111820107,"L"
151746,"2815 WEST COURTHOUSE ROAD","CREWE","VA",23930,37.1083771630001,-78.1087214029999,246,"2815 WEST COURTHOUSE ROAD, CREWE, VA, 23930","Match","Exact","2815 W COURTHOUSE RD, CREWE, VA, 23930",649899477,"L"
151747,"2815 WEST GREEN ACRES ROAD","ROGERS","AR",72758,36.3076864070001,-94.16081615,247,"2815 WEST GREEN ACRES ROAD, ROGERS, AR, 72758","Match","Exact","2815 W GREEN ACRES RD, ROGERS, AR, 72758",635480834,"L"
151748,"28150 DOROTHY AVE","LITTLE TORCH KEY FL","FL",33042,24.678744706,-81.3939631869999,248,"28150 DOROTHY AVE, LITTLE TORCH KEY FL, FL, 33042","Match","Non_Exact","28150 DOROTHY AVE, LITTLE TORCH KEY, FL, 33042",116471023,"R"
151749,"28150 LEMOYNE ROAD","MILLBURY","OH",43447,41.561102857,-83.473142294,249,"28150 LEMOYNE ROAD, MILLBURY, OH, 43447","Match","Exact","28150 LEMOYNE RD, MILLBURY, OH, 43447",649553844,"R"
151750,"28150 N ALMA SCHOOL PKWY 103-153","SCOTTSDALE","AZ",85262,33.7359249150001,-111.846188703,250,"28150 N ALMA SCHOOL PKWY 103-153, SCOTTSDALE, AZ, 85262","Match","Non_Exact","28150 N ALMA SCHOOL PKWY, SCOTTSDALE, AZ, 85262",128915788,"L"
151751,"28150 N ALMA SCHOOL PKWY 103-490","SCOTTSDALE","AZ",85262,33.7359249150001,-111.846188703,251,"28150 N ALMA SCHOOL PKWY 103-490, SCOTTSDALE, AZ, 85262","Match","Non_Exact","28150 N ALMA SCHOOL PKWY, SCOTTSDALE, AZ, 85262",128915788,"L"
151752,"28150 N ALMA SCHOOL PKWY 103194","SCOTTSDALE","AZ",85262,33.7359249150001,-111.846188703,252,"28150 N ALMA SCHOOL PKWY 103194, SCOTTSDALE, AZ, 85262","Match","Non_Exact","28150 N ALMA SCHOOL PKWY, SCOTTSDALE, AZ, 85262",128915788,"L"
151753,"28150 N ALMA SCHOOL RD STE 103-616","SCOTTSDALE","AZ",85262,NA,NA,253,"28150 N ALMA SCHOOL RD STE 103-616, SCOTTSDALE, AZ, 85262","No_Match",NA,NA,NA,NA
151754,"28150 N ALMA SCHOOL SUITE 103-687","SCOTTSDALE","AZ",85262,NA,NA,254,"28150 N ALMA SCHOOL SUITE 103-687, SCOTTSDALE, AZ, 85262","No_Match",NA,NA,NA,NA
151755,"28151 SECO CANYON RD 57","SANTA CLARITA","CA",91390,34.4624331110001,-118.533260811,255,"28151 SECO CANYON RD 57, SANTA CLARITA, CA, 91390","Match","Exact","28151 SECO CANYON RD, SANTA CLARITA, CA, 91390",640424174,"L"
151756,"28155 N 74TH ST","SCOTTSDALE","AZ",85266,33.7400509330001,-111.921493634,256,"28155 N 74TH ST, SCOTTSDALE, AZ, 85266","Match","Non_Exact","28155 N 74TH ST, SCOTTSDALE, AZ, 85266",128828506,"L"
151757,"28155 SAMANTHA COURT","SANTA CLARITA","CA",91350,34.443317962,-118.489588695,257,"28155 SAMANTHA COURT, SANTA CLARITA, CA, 91350","Match","Exact","28155 SAMANTHA CT, SANTA CLARITA, CA, 91350",627272241,"L"
151758,"28158 KINGSTON PIKE","CIRCLEVILLE","OH",43113,39.5124454480001,-82.928866982,258,"28158 KINGSTON PIKE, CIRCLEVILLE, OH, 43113","Match","Exact","28158 KINGSTON PIKE, CIRCLEVILLE, OH, 43113",37448489,"R"
151759,"2816 BENSON ROAD","FINKSBURG","MD",21048,39.465389056,-76.897412274,259,"2816 BENSON ROAD, FINKSBURG, MD, 21048","Match","Exact","2816 BENSON RD, FINKSBURG, MD, 21048",61780486,"L"
151760,"2816 BROAD AVE","ALTOONA","PA",16601,40.5005339800001,-78.414015395,260,"2816 BROAD AVE, ALTOONA, PA, 16601","Match","Exact","2816 BROAD AVE, ALTOONA, PA, 16601",49710040,"R"
151761,"2816 CARDASSI DR","OCOEE","FL",34761,28.610732065,-81.558213597,261,"2816 CARDASSI DR, OCOEE, FL, 34761","Match","Exact","2816 CARDASSI DR, OCOEE, FL, 34761",94428647,"R"
151762,"2816 CARRISA WAY","SACRAMENTO","CA",95821,38.6154880080001,-121.372754265,262,"2816 CARRISA WAY, SACRAMENTO, CA, 95821","Match","Exact","2816 CARRISA WAY, SACRAMENTO, CA, 95821",133333499,"R"
151763,"2816 CATHEDRAL OF LEARNING","PITTSBURGH","PA",15260,NA,NA,263,"2816 CATHEDRAL OF LEARNING, PITTSBURGH, PA, 15260","No_Match",NA,NA,NA,NA
151764,"2816 CENTRAL DRIVE STE 140","BEDFORD","TX",76021,32.8499350340001,-97.132283264,264,"2816 CENTRAL DRIVE STE 140, BEDFORD, TX, 76021","Match","Exact","2816 CENTRAL DR, BEDFORD, TX, 76021",101870833,"R"
151765,"2816 CHERRY LAUREL LANE","ATLANTA","GA",30311,33.6961883710001,-84.48161683,265,"2816 CHERRY LAUREL LANE, ATLANTA, GA, 30311","Match","Non_Exact","2816 CHERRY LAUREL LN SW, ATLANTA, GA, 30311",17337691,"L"
151766,"2816 CLEVELAND STREET","ELLOREE","SC",29047,33.5265429350001,-80.578400577,266,"2816 CLEVELAND STREET, ELLOREE, SC, 29047","Match","Exact","2816 CLEVELAND ST, ELLOREE, SC, 29047",618693808,"L"
151767,"2816 CLIFFE COURT","OVIEDO","FL",32765,28.6170752950001,-81.265693305,267,"2816 CLIFFE COURT, OVIEDO, FL, 32765","Match","Exact","2816 CLIFFE CT, OVIEDO, FL, 32765",627322109,"L"
151768,"2816 COLONIAL","SAINT LOUIS","MO",63121,38.6919107690001,-90.29495499,268,"2816 COLONIAL, SAINT LOUIS, MO, 63121","Match","Non_Exact","2816 COLONIAL AVE, SAINT LOUIS, MO, 63121",100151795,"R"
151769,"2816 DEERHURST DR","HIGHLAND VILLAGE","TX",75077,33.086408111,-97.081486984,269,"2816 DEERHURST DR, HIGHLAND VILLAGE, TX, 75077","Match","Exact","2816 DEERHURST DR, HIGHLAND VILLAGE, TX, 75077",627516172,"R"
151770,"2816 DORSET AVE","HENDERSON","NV",89074,36.0446995630001,-115.110610665,270,"2816 DORSET AVE, HENDERSON, NV, 89074","Match","Exact","2816 DORSET AVE, HENDERSON, NV, 89074",632505758,"L"
151771,"2816 E LOOP 390 N","MARSHALL","TX",75672,32.564014457,-94.307424344,271,"2816 E LOOP 390 N, MARSHALL, TX, 75672","Match","Exact","2816 E LOOP 390 N, MARSHALL, TX, 75672",141187774,"L"
151772,"2816 E MERCER LN","PHOENIX","AZ",85028,33.586397665,-112.021333308,272,"2816 E MERCER LN, PHOENIX, AZ, 85028","Match","Exact","2816 E MERCER LN, PHOENIX, AZ, 85028",128218195,"L"
151773,"2816 ELMWOOD AVENUE","ERIE","PA",16508,42.100323723,-80.098956716,273,"2816 ELMWOOD AVENUE, ERIE, PA, 16508","Match","Exact","2816 ELMWOOD AVE, ERIE, PA, 16508",117494557,"R"
151774,"2816 FRONTIER DRIVE","MIDLAND","TX",79705,32.017003093,-102.11711644,274,"2816 FRONTIER DRIVE, MIDLAND, TX, 79705","Match","Exact","2816 FRONTIER DR, MIDLAND, TX, 79705",139579271,"R"
151775,"2816 GLENDALE AVENUE","PARKVILLE","MD",21234,39.3718746420001,-76.548203293,275,"2816 GLENDALE AVENUE, PARKVILLE, MD, 21234","Match","Exact","2816 GLENDALE AVE, PARKVILLE, MD, 21234",206410928,"L"
151776,"2816 HIGH POINT ROAD","OWENSVILLE","MO",65066,38.1781799080001,-91.478234668,276,"2816 HIGH POINT ROAD, OWENSVILLE, MO, 65066","Match","Exact","2816 HIGH POINT RD, OWENSVILLE, MO, 65066",611770189,"L"
151777,"2816 HILLVIEW LN","LANCASTER","TX",75134,32.621904881,-96.783815019,277,"2816 HILLVIEW LN, LANCASTER, TX, 75134","Match","Exact","2816 HILLVIEW LN, LANCASTER, TX, 75134",619527352,"L"
151778,"2816 HONOLULU AVENUE - UNIT 347","VERDUGO CITY","CA",91046,34.211670209,-118.240348322,278,"2816 HONOLULU AVENUE - UNIT 347, VERDUGO CITY, CA, 91046","Match","Exact","2816 HONOLULU AVE, VERDUGO CITY, CA, 91046",652034568,"L"
151779,"2816 JEROME AVE STE 3A","BRONX","NY",10456,40.8711256390001,-73.893593804,279,"2816 JEROME AVE STE 3A, BRONX, NY, 10456","Match","Non_Exact","2816 JEROME AVE, BRONX, NY, 10468",80298792,"R"
151780,"2816 JP DAVIS","BAY CITY","TX",77414,NA,NA,280,"2816 JP DAVIS, BAY CITY, TX, 77414","No_Match",NA,NA,NA,NA
151781,"2816 L STREET APT C","SAN DIEGO","CA",92102,NA,NA,281,"2816 L STREET APT C, SAN DIEGO, CA, 92102","No_Match",NA,NA,NA,NA
151782,"2816 LAKE VISTA DR","WYLIE","TX",75098,32.980687189,-96.5155014869999,282,"2816 LAKE VISTA DR, WYLIE, TX, 75098","Match","Exact","2816 LAKE VISTA DR, WYLIE, TX, 75098",629640139,"L"
151783,"2816 N RICHMOND AVE","CHICAGO","IL",60618,41.93266785,-87.701317451,283,"2816 N RICHMOND AVE, CHICAGO, IL, 60618","Match","Non_Exact","2816 N RICHMOND ST, CHICAGO, IL, 60618",605207394,"L"
151784,"2816 OLD PRICETOWN ROAD","TEMPLE","PA",19560,NA,NA,284,"2816 OLD PRICETOWN ROAD, TEMPLE, PA, 19560","Tie",NA,NA,NA,NA
151785,"2816 PALM DRIVE","BILLINGS","MT",59102,45.800029146,-108.588041788,285,"2816 PALM DRIVE, BILLINGS, MT, 59102","Match","Exact","2816 PALM DR, BILLINGS, MT, 59102",645527034,"L"
151786,"2816 PANKAW LANE","VALRICO","FL",33596,27.9035934450001,-82.231597441,286,"2816 PANKAW LANE, VALRICO, FL, 33596","Match","Exact","2816 PANKAW LN, VALRICO, FL, 33596",104641590,"L"
151787,"2816 S KERCKHOFF AVE","SAN PEDRO","CA",90731,33.7185253490001,-118.289751888,287,"2816 S KERCKHOFF AVE, SAN PEDRO, CA, 90731","Match","Exact","2816 S KERCKHOFF AVE, SAN PEDRO, CA, 90731",141690865,"L"
151788,"2816 S TACOMA ST","KENNEWICK","WA",99337,46.1827637060001,-119.146733649,288,"2816 S TACOMA ST, KENNEWICK, WA, 99337","Match","Exact","2816 S TACOMA ST, KENNEWICK, WA, 99337",606989768,"R"
151789,"2816 SAXAPAHAW BETHLEHEM CH RD","GRAHAM","NC",27253,NA,NA,289,"2816 SAXAPAHAW BETHLEHEM CH RD, GRAHAM, NC, 27253","No_Match",NA,NA,NA,NA
151790,"2816 SIKES MILL ROAD","MONROE","NC",28110,35.0907566280001,-80.493822511,290,"2816 SIKES MILL ROAD, MONROE, NC, 28110","Match","Exact","2816 SIKES MILL RD, MONROE, NC, 28110",14181978,"R"
151791,"2816 SILVER LANE NW APT 103","MINNEAPOLIS","MN",55421,45.0425082940001,-93.220434129,291,"2816 SILVER LANE NW APT 103, MINNEAPOLIS, MN, 55421","Match","Non_Exact","2816 SILVER LN NE, MINNEAPOLIS, MN, 55421",635776538,"R"
151792,"2816 THE MALL APT 60","DALLAS","TX",75219,32.8142405300001,-96.8202461659999,292,"2816 THE MALL APT 60, DALLAS, TX, 75219","Match","Non_Exact","2816 THE MALL, DALLAS, TX, 75219",102905042,"R"
151793,"2816 VIA SEGOVIA","PALOS VERDES ESTATES","CA",90274,33.7645856250001,-118.420859488,293,"2816 VIA SEGOVIA, PALOS VERDES ESTATES, CA, 90274","Match","Exact","2816 VIA SEGOVIA, PALOS VERDES ESTATES, CA, 90274",141584989,"L"
151794,"2816 WHITTINGTON DR","TALLAHASSEE","FL",32309,30.5079680210001,-84.207974027,294,"2816 WHITTINGTON DR, TALLAHASSEE, FL, 32309","Match","Exact","2816 WHITTINGTON DR, TALLAHASSEE, FL, 32309",82870672,"L"
151795,"28160 WINDWOOD DRIVE EAST","BOERNE","TX",78006,29.716504372,-98.674598389,295,"28160 WINDWOOD DRIVE EAST, BOERNE, TX, 78006","Match","Exact","28160 WINDWOOD DR E, BOERNE, TX, 78006",101481117,"L"
151796,"28165 SWANSON LAKE ROAD","CRESTON","WA",99117,47.676859516,-118.545369078,296,"28165 SWANSON LAKE ROAD, CRESTON, WA, 99117","Match","Non_Exact","28165 SWANSON LAKE RD N, CRESTON, WA, 99117",174744553,"L"
151797,"28166 STATE HWY 2","LEON","IA",50144,40.747761186,-93.668134335,297,"28166 STATE HWY 2, LEON, IA, 50144","Match","Exact","28166 STATE HWY 2, LEON, IA, 50144",75266445,"R"
151798,"2817 25TH ST W","WILLISTON","ND",58801,48.167446802,-103.662373285,298,"2817 25TH ST W, WILLISTON, ND, 58801","Match","Exact","2817 25TH ST W, WILLISTON, ND, 58801",650365078,"L"
151799,"2817 27TH AVE NORTH","TEXAS CITY","TX",77590,29.4094440690001,-94.935951181,299,"2817 27TH AVE NORTH, TEXAS CITY, TX, 77590","Match","Exact","2817 27TH AVE N, TEXAS CITY, TX, 77590",96686983,"L"
151800,"2817 ANTHONY LANE SOUTH SUITE 104","ST ANTHONY","MN",55418,NA,NA,300,"2817 ANTHONY LANE SOUTH SUITE 104, ST ANTHONY, MN, 55418","No_Match",NA,NA,NA,NA
151801,"2817 ANTHONY LN S SUITE 105","MINNEAPOLIS","MN",55418,NA,NA,301,"2817 ANTHONY LN S SUITE 105, MINNEAPOLIS, MN, 55418","No_Match",NA,NA,NA,NA
151802,"2817 ARCE LN SE","RIO RANCHO","NM",87124,35.2291001030001,-106.680911168,302,"2817 ARCE LN SE, RIO RANCHO, NM, 87124","Match","Exact","2817 ARCE LN SE, RIO RANCHO, NM, 87124",629663118,"L"
151803,"2817 AVA LANE","DALLAS","TX",75227,32.7594740750001,-96.696265048,303,"2817 AVA LANE, DALLAS, TX, 75227","Match","Exact","2817 AVA LN, DALLAS, TX, 75227",102957460,"L"
151804,"2817 BAY COLONY LANE","LEXINGTON","KY",40511,38.103364932,-84.540380375,304,"2817 BAY COLONY LANE, LEXINGTON, KY, 40511","Match","Exact","2817 BAY COLONY LN, LEXINGTON, KY, 40511",634861532,"R"
151805,"2817 BELAIR ROAD","FALLSTON","MD",21047,39.48338076,-76.402274174,305,"2817 BELAIR ROAD, FALLSTON, MD, 21047","Match","Non_Exact","2817 BEL AIR RD, FALLSTON, MD, 21047",191666573,"L"
151806,"2817 BIRKHILL LN","INDIANLAND","SC",29707,35.059465985,-80.8927919019999,306,"2817 BIRKHILL LN, INDIANLAND, SC, 29707","Match","Non_Exact","2817 BIRKHILL LN, INDIAN LAND, SC, 29707",630188713,"L"
151807,"2817 BRIDAL WREATH LANE","DALLAS","TX",75233,32.695739356,-96.866027743,307,"2817 BRIDAL WREATH LANE, DALLAS, TX, 75233","Match","Exact","2817 BRIDAL WREATH LN, DALLAS, TX, 75233",102947200,"R"
151808,"2817 CRESTWOOD RD","CHARLESTON","WV",25302,38.409348665,-81.5804632649999,308,"2817 CRESTWOOD RD, CHARLESTON, WV, 25302","Match","Exact","2817 CRESTWOOD RD, CHARLESTON, WV, 25302",78648277,"R"
151809,"2817 CROSS TIMBERS RD","BURLESON","TX",76028,32.490883523,-97.3343866549999,309,"2817 CROSS TIMBERS RD, BURLESON, TX, 76028","Match","Non_Exact","2817 CROSS TIMBER RD, BURLESON, TX, 76028",653740965,"L"
151810,"2817 DONNA HILL DRIVE","NASHVILLE","TN",37214,36.2035254570001,-86.683330999,310,"2817 DONNA HILL DRIVE, NASHVILLE, TN, 37214","Match","Exact","2817 DONNA HILL DR, NASHVILLE, TN, 37214",97194679,"L"
151811,"2817 EAST VALLEY ROAD","MINDEN","NV",89423,39.042693909,-119.71466481,311,"2817 EAST VALLEY ROAD, MINDEN, NV, 89423","Match","Exact","2817 E VALLEY RD, MINDEN, NV, 89423",638563682,"R"
151812,"2817 EDWARDS PLATEAU","PFLUGERVILLE","TX",78660,30.4583339960001,-97.579732814,312,"2817 EDWARDS PLATEAU, PFLUGERVILLE, TX, 78660","Match","Non_Exact","2817 EDWARDS PLATEAU DR, PFLUGERVILLE, TX, 78660",639633083,"R"
151813,"2817 ELISTON STREET","BOWIE","MD",20716,38.9299402190001,-76.7196428399999,313,"2817 ELISTON STREET, BOWIE, MD, 20716","Match","Exact","2817 ELISTON ST, BOWIE, MD, 20716",76347862,"L"
151814,"2817 GEIGER RD","IDA","MI",48140,41.9100104120001,-83.553063159,314,"2817 GEIGER RD, IDA, MI, 48140","Match","Exact","2817 GEIGER RD, IDA, MI, 48140",40476951,"R"
151815,"2817 GOOSELEG WAY","LAKESIDE","AZ",85929,34.14196495,-109.986363303,315,"2817 GOOSELEG WAY, LAKESIDE, AZ, 85929","Match","Exact","2817 GOOSELEG WAY, LAKESIDE, AZ, 85929",647268376,"L"
151816,"2817 HIGHWAY 72E SUITE E","HUNTSVILLE","AL",35811,NA,NA,316,"2817 HIGHWAY 72E SUITE E, HUNTSVILLE, AL, 35811","No_Match",NA,NA,NA,NA
151817,"2817 HIKES LANE","LOUISVILLE","KY",40218,38.2068523520001,-85.6480078769999,317,"2817 HIKES LANE, LOUISVILLE, KY, 40218","Match","Exact","2817 HIKES LN, LOUISVILLE, KY, 40218",96856589,"L"
151818,"2817 HILLCREST DR E","COPLAY","PA",18037,40.678482608,-75.5635736259999,318,"2817 HILLCREST DR E, COPLAY, PA, 18037","Match","Exact","2817 HILLCREST DR E, COPLAY, PA, 18037",80756742,"L"
151819,"2817 LEIALOHA AVENUE","HONOLULU","HI",96816,21.285114143,-157.815138251,319,"2817 LEIALOHA AVENUE, HONOLULU, HI, 96816","Match","Exact","2817 LEIALOHA AVE, HONOLULU, HI, 96816",203242074,"R"
151820,"2817 MARBURG ST","DALLAS","TX",75215,32.7574353790001,-96.754036318,320,"2817 MARBURG ST, DALLAS, TX, 75215","Match","Exact","2817 MARBURG ST, DALLAS, TX, 75215",102955779,"L"
151821,"2817 MAYBANK HWY  UNIT 1","JOHNS ISLAND","SC",29455,32.7432963630001,-80.038856486,321,"2817 MAYBANK HWY  UNIT 1, JOHNS ISLAND, SC, 29455","Match","Exact","2817 MAYBANK HWY, JOHNS ISLAND, SC, 29455",108884467,"R"
151822,"2817 MECHANICSVILLE TPKE","RICHMOND","VA",23223,37.5637020780001,-77.405022371,322,"2817 MECHANICSVILLE TPKE, RICHMOND, VA, 23223","Match","Non_Exact","2817 MECHANICSVILLE PIKE, RICHMOND, VA, 23223",624430355,"R"
151823,"2817 MOUNTAIN RIDGE ROAD","WEAT COVINA","CA",91791,34.045948595,-117.891943304,323,"2817 MOUNTAIN RIDGE ROAD, WEAT COVINA, CA, 91791","Match","Non_Exact","2817 MOUNTAIN RIDGE RD, WEST COVINA, CA, 91791",142246055,"R"
151824,"2817 MOUNTAIN RIDGE ROAD","WEST COVINA","CA",91791,34.045948595,-117.891943304,324,"2817 MOUNTAIN RIDGE ROAD, WEST COVINA, CA, 91791","Match","Exact","2817 MOUNTAIN RIDGE RD, WEST COVINA, CA, 91791",142246055,"R"
151825,"2817 N WILMINGTON AVE","COMPTON","CA",90222,33.917137401,-118.239138624,325,"2817 N WILMINGTON AVE, COMPTON, CA, 90222","Match","Exact","2817 N WILMINGTON AVE, COMPTON, CA, 90222",647450246,"R"
151826,"2817 NE 24TH AVE","PORTLAND","OR",97212,45.5429481730001,-122.641135287,326,"2817 NE 24TH AVE, PORTLAND, OR, 97212","Match","Exact","2817 NE 24TH AVE, PORTLAND, OR, 97212",157506063,"L"
151827,"2817 NORTH HANLEY STREET","ST LOUIS","MO",63114,38.703672602,-90.325538141,327,"2817 NORTH HANLEY STREET, ST LOUIS, MO, 63114","Match","Non_Exact","2817 N HANLEY RD, SAINT LOUIS, MO, 63114",100133626,"L"
151828,"2817 NW 7TH AVENUE","WILTON MANORS","FL",33311,26.161668123,-80.152094246,328,"2817 NW 7TH AVENUE, WILTON MANORS, FL, 33311","Match","Exact","2817 NW 7TH AVE, WILTON MANORS, FL, 33311",114721536,"L"
151829,"2817 RUEKERT AVE","BALTIMORE","MD",21214,NA,NA,329,"2817 RUEKERT AVE, BALTIMORE, MD, 21214","No_Match",NA,NA,NA,NA
151830,"2817 SALERNO","DALLAS","TX",75224,32.715873822,-96.838695284,330,"2817 SALERNO, DALLAS, TX, 75224","Match","Non_Exact","2817 SALERNO DR, DALLAS, TX, 75224",103193480,"R"
151831,"2817 SANCHO PANZA CT","PUNTA GORDA","FL",33950,26.9101685090001,-82.084377662,331,"2817 SANCHO PANZA CT, PUNTA GORDA, FL, 33950","Match","Exact","2817 SANCHO PANZA CT, PUNTA GORDA, FL, 33950",4310130,"R"
151832,"2817 SANDERLING DR","FORT WAYNE","IN",46808,41.100700252,-85.179016828,332,"2817 SANDERLING DR, FORT WAYNE, IN, 46808","Match","Exact","2817 SANDERLING DR, FORT WAYNE, IN, 46808",6403235,"L"
151833,"2817 SANDSTONE DR","NORMAN","OK",73071,35.2188546510001,-97.400588549,333,"2817 SANDSTONE DR, NORMAN, OK, 73071","Match","Exact","2817 SANDSTONE DR, NORMAN, OK, 73071",99922726,"R"
151834,"2817 SECOND STREET","MONTGOMERY","AL",36108,32.3356848500001,-86.3434792309999,334,"2817 SECOND STREET, MONTGOMERY, AL, 36108","Match","Exact","2817 2ND ST, MONTGOMERY, AL, 36108",1508436,"L"
151835,"2817 SOUTHVIEW DR","LEXINGTON","KY",40503,38.008688502,-84.5360120569999,335,"2817 SOUTHVIEW DR, LEXINGTON, KY, 40503","Match","Exact","2817 SOUTHVIEW DR, LEXINGTON, KY, 40503",31920263,"R"
151836,"2817 W GRACE ST APT 2","RICHMOND","VA",23221,37.561924092,-77.471405884,336,"2817 W GRACE ST APT 2, RICHMOND, VA, 23221","Match","Non_Exact","2817 W GRACE ST, RICHMOND, VA, 23221",652322129,"L"
151837,"2817 W GRACE STREET","RICHMOND","VA",23221,37.561924092,-77.471405884,337,"2817 W GRACE STREET, RICHMOND, VA, 23221","Match","Exact","2817 W GRACE ST, RICHMOND, VA, 23221",652322129,"L"
151838,"2817 W JARVIS AVE","CHICAGO","IL",60645,42.015678441,-87.700502973,338,"2817 W JARVIS AVE, CHICAGO, IL, 60645","Match","Exact","2817 W JARVIS AVE, CHICAGO, IL, 60645",605264964,"L"
151839,"2817 W SUGAR CREEK ROAD","CHARLOTTE","NC",28262,35.3008077210001,-80.801929141,339,"2817 W SUGAR CREEK ROAD, CHARLOTTE, NC, 28262","Match","Exact","2817 W SUGAR CREEK RD, CHARLOTTE, NC, 28262",70478518,"R"
151840,"2817 WALTER DRIVE","NEW BERN","NC",28562,35.035800356,-77.027943888,340,"2817 WALTER DRIVE, NEW BERN, NC, 28562","Match","Exact","2817 WALTER DR, NEW BERN, NC, 28562",642481127,"R"
151841,"2817 WEST END AVE 126-198","NASHVILLE","TN",37203,36.1446182500001,-86.813073644,341,"2817 WEST END AVE 126-198, NASHVILLE, TN, 37203","Match","Exact","2817 W END AVE, NASHVILLE, TN, 37203",97189901,"L"
151842,"2817 WEST END AVE STE 126-357","NASHVILLE","TN",37203,36.1446182500001,-86.813073644,342,"2817 WEST END AVE STE 126-357, NASHVILLE, TN, 37203","Match","Exact","2817 W END AVE, NASHVILLE, TN, 37203",97189901,"L"
151843,"2817 WEST END AVENUE STREET 126 236","NASHVILLE","TN",37203,36.1446182500001,-86.813073644,343,"2817 WEST END AVENUE STREET 126 236, NASHVILLE, TN, 37203","Match","Exact","2817 W END AVE, NASHVILLE, TN, 37203",97189901,"L"
151844,"2817 WEST END AVENUE SUITE 126-308","NASHVILLE","TN",37203,36.1446182500001,-86.813073644,344,"2817 WEST END AVENUE SUITE 126-308, NASHVILLE, TN, 37203","Match","Exact","2817 W END AVE, NASHVILLE, TN, 37203",97189901,"L"
151845,"2817 YORKSHIRE AVE","HENDERSON","NV",89074,36.0434263550001,-115.110574859,345,"2817 YORKSHIRE AVE, HENDERSON, NV, 89074","Match","Exact","2817 YORKSHIRE AVE, HENDERSON, NV, 89074",201915957,"R"
151846,"28170 N ALMA SCHOOL PARKWAY ST 201","SCOTTSDALE","AZ",85262,33.7361471240001,-111.846050819,346,"28170 N ALMA SCHOOL PARKWAY ST 201, SCOTTSDALE, AZ, 85262","Match","Non_Exact","28170 N ALMA SCHOOL PKWY, SCOTTSDALE, AZ, 85262",128915788,"L"
151847,"28175 HAGGERTY ROAD","NOVI","MI",48377,42.5012876530001,-83.436434248,347,"28175 HAGGERTY ROAD, NOVI, MI, 48377","Match","Exact","28175 HAGGERTY RD, NOVI, MI, 48377",627763236,"L"
151848,"28176 HWY WW","CLARKSVILLE","MO",63336,39.2922773120001,-90.945881513,348,"28176 HWY WW, CLARKSVILLE, MO, 63336","Match","Exact","28176 HWY WW, CLARKSVILLE, MO, 63336",44660045,"L"
151849,"28179 RIDGECOVE CT S","RANCHO PALOS VERDES","CA",90275,33.775837574,-118.386619764,349,"28179 RIDGECOVE CT S, RANCHO PALOS VERDES, CA, 90275","Match","Exact","28179 RIDGECOVE CT S, RANCHO PALOS VERDES, CA, 90275",142722967,"R"
151850,"2818 211TH ST SW","LYNNWOOD","WA",98036,47.8072769550001,-122.271174806,350,"2818 211TH ST SW, LYNNWOOD, WA, 98036","Match","Exact","2818 211TH ST SW, LYNNWOOD, WA, 98036",187795718,"L"
151851,"2818 58TH STREET","LUBBOCK","TX",79413,33.5411667760001,-101.876866314,351,"2818 58TH STREET, LUBBOCK, TX, 79413","Match","Exact","2818 58TH ST, LUBBOCK, TX, 79413",185253966,"R"
151852,"2818 AILSA AVE","BALTIMORE","MD",21214,39.348460851,-76.568703376,352,"2818 AILSA AVE, BALTIMORE, MD, 21214","Match","Exact","2818 AILSA AVE, BALTIMORE, MD, 21214",206465461,"L"
151853,"2818 ASHMONT TER","SILVER SPRING","MD",20906,39.10210905,-77.056862839,353,"2818 ASHMONT TER, SILVER SPRING, MD, 20906","Match","Exact","2818 ASHMONT TER, SILVER SPRING, MD, 20906",62078415,"L"
151854,"2818 BREEZY POINT LANE","FRISCO","TX",75034,33.1280059790001,-96.865754673,354,"2818 BREEZY POINT LANE, FRISCO, TX, 75034","Match","Exact","2818 BREEZY POINT LN, FRISCO, TX, 75034",614139134,"L"
151855,"2818 CHABETT AVENUE","LAKELAND","FL",33810,28.0780539030001,-82.0113431,355,"2818 CHABETT AVENUE, LAKELAND, FL, 33810","Match","Exact","2818 CHABETT AVE, LAKELAND, FL, 33810",104888797,"L"
151856,"2818 COLLIER PARKWAY","LAND O LAKES","FL",34639,28.197741073,-82.434250866,356,"2818 COLLIER PARKWAY, LAND O LAKES, FL, 34639","Match","Exact","2818 COLLIER PKWY, LAND O LAKES, FL, 34639",641074363,"L"
151857,"2818 CYPRESS RIDGE BLVD","WESLEY CHAPEL","FL",33544,28.1928502060001,-82.3803146449999,357,"2818 CYPRESS RIDGE BLVD, WESLEY CHAPEL, FL, 33544","Match","Exact","2818 CYPRESS RIDGE BLVD, WESLEY CHAPEL, FL, 33544",647369549,"R"
151858,"2818 E BENNETT","SPRINGFIELD","MO",65804,NA,NA,358,"2818 E BENNETT, SPRINGFIELD, MO, 65804","No_Match",NA,NA,NA,NA
151859,"2818 E PIKES PEAK SVE","COLORADO SPRINGS","CO",80909,NA,NA,359,"2818 E PIKES PEAK SVE, COLORADO SPRINGS, CO, 80909","No_Match",NA,NA,NA,NA
151860,"2818 E STATE ROAD H","STOUTLAND","MO",65567,NA,NA,360,"2818 E STATE ROAD H, STOUTLAND, MO, 65567","No_Match",NA,NA,NA,NA
151861,"2818 EWALD CIRCLE","DETROIT","MI",48238,42.3892124270001,-83.145214287,361,"2818 EWALD CIRCLE, DETROIT, MI, 48238","Match","Exact","2818 EWALD CIR, DETROIT, MI, 48238",95470158,"R"
151862,"2818 FERN GLEN DRIVE","GARLAND","TX",75043,32.8373194420001,-96.584936955,362,"2818 FERN GLEN DRIVE, GARLAND, TX, 75043","Match","Exact","2818 FERN GLEN DR, GARLAND, TX, 75043",102933393,"R"
151863,"2818 GREENUP RD","LOUISVILLE","KY",40217,38.2119059980001,-85.730705717,363,"2818 GREENUP RD, LOUISVILLE, KY, 40217","Match","Exact","2818 GREENUP RD, LOUISVILLE, KY, 40217",96896819,"R"
151864,"2818 HILLIARD DRIVE","CHARLOTTE","NC",28205,35.2343121970001,-80.779637822,364,"2818 HILLIARD DRIVE, CHARLOTTE, NC, 28205","Match","Exact","2818 HILLIARD DR, CHARLOTTE, NC, 28205",70481361,"R"
151865,"2818 JACANA CT","LONGWOOD","FL",32779,28.7404031290001,-81.3878344079999,365,"2818 JACANA CT, LONGWOOD, FL, 32779","Match","Exact","2818 JACANA CT, LONGWOOD, FL, 32779",93735582,"L"
151866,"2818 KRYSTAL LEIGH CT","PANAMA CITY","FL",32405,30.181180414,-85.621829964,366,"2818 KRYSTAL LEIGH CT, PANAMA CITY, FL, 32405","Match","Exact","2818 KRYSTAL LEIGH CT, PANAMA CITY, FL, 32405",7052472,"L"
151867,"2818 LINCOLNWAY E","MISHAWAKA","IN",46544,41.6622756840001,-86.134006243,367,"2818 LINCOLNWAY E, MISHAWAKA, IN, 46544","Match","Exact","2818 LINCOLNWAY E, MISHAWAKA, IN, 46544",8063672,"L"
151868,"2818 MARKHAM WOODS","KINGWOOD","TX",77345,30.0773710870001,-95.1723195389999,368,"2818 MARKHAM WOODS, KINGWOOD, TX, 77345","Match","Non_Exact","2818 MARKHAM WOODS DR, KINGWOOD, TX, 77345",627518198,"R"
151869,"2818 OLIVIA CT","BRYANT","AR",72022,34.640811281,-92.459619058,369,"2818 OLIVIA CT, BRYANT, AR, 72022","Match","Exact","2818 OLIVIA CT, BRYANT, AR, 72022",627102441,"L"
151870,"2818 PIN OAK LN","LANHAM","MD",20706,38.928058123,-76.870614056,370,"2818 PIN OAK LN, LANHAM, MD, 20706","Match","Exact","2818 PIN OAK LN, LANHAM, MD, 20706",76352177,"R"
151871,"2818 SARATOGA DR","AUSTIN","TX",78733,30.350042875,-97.8608116999999,371,"2818 SARATOGA DR, AUSTIN, TX, 78733","Match","Exact","2818 SARATOGA DR, AUSTIN, TX, 78733",63924906,"L"
151872,"2818 W ORCHARD CT","VISALIA","CA",93277,36.300837964,-119.321695707,372,"2818 W ORCHARD CT, VISALIA, CA, 93277","Match","Exact","2818 W ORCHARD CT, VISALIA, CA, 93277",202790963,"L"
151873,"2818 WEST PICO BLVD SUITE A","LOS ANGELES","CA",90006,34.047220645,-118.3006463,373,"2818 WEST PICO BLVD SUITE A, LOS ANGELES, CA, 90006","Match","Exact","2818 W PICO BLVD, LOS ANGELES, CA, 90006",142729628,"L"
151874,"2818 WILD OAKS DR","DUNCAN","OK",73533,34.5389350950001,-97.962796725,374,"2818 WILD OAKS DR, DUNCAN, OK, 73533","Match","Non_Exact","2818 WILDOAKS DR, DUNCAN, OK, 73533",627119886,"L"
151875,"2818 WOODLEY ROAD","MONTGOMERY","AL",36116,32.3314359170001,-86.267489412,375,"2818 WOODLEY ROAD, MONTGOMERY, AL, 36116","Match","Non_Exact","2818 WOODLEY RD, MONTGOMERY, AL, 36111",1544617,"R"
151876,"2819 105TH AVE NE","BLAINE","MN",55449,45.1598901720001,-93.1996763,376,"2819 105TH AVE NE, BLAINE, MN, 55449","Match","Exact","2819 105TH AVE NE, BLAINE, MN, 55449",97538593,"L"
151877,"2819 35TH AVE S","FARGO","ND",58104,46.8272400710001,-96.82531096,377,"2819 35TH AVE S, FARGO, ND, 58104","Match","Exact","2819 35TH AVE S, FARGO, ND, 58104",151453784,"R"
151878,"2819 ATTABERRY DRIVE","CHARLOTTE","NC",28205,35.234915529,-80.8008115819999,378,"2819 ATTABERRY DRIVE, CHARLOTTE, NC, 28205","Match","Exact","2819 ATTABERRY DR, CHARLOTTE, NC, 28205",70480370,"L"
151879,"2819 CASTIGLIONE ST","NEW ORLEANS","LA",70119,29.984735787,-90.073788598,379,"2819 CASTIGLIONE ST, NEW ORLEANS, LA, 70119","Match","Exact","2819 CASTIGLIONE ST, NEW ORLEANS, LA, 70119",191708671,"R"
151880,"2819 CREST DRIVE","BAKERSFIELD","CA",93306,35.4095587830001,-118.962246165,380,"2819 CREST DRIVE, BAKERSFIELD, CA, 93306","Match","Exact","2819 CREST DR, BAKERSFIELD, CA, 93306",645295923,"R"
151881,"2819 E LESLIE DR","MERIDIAN","ID",83646,43.6291032500001,-116.359267587,381,"2819 E LESLIE DR, MERIDIAN, ID, 83646","Match","Exact","2819 E LESLIE DR, MERIDIAN, ID, 83646",632673583,"R"
151882,"2819 FOREST GLEN PARKWAY","WOODRIDGE","IL",60517,41.748848964,-88.050994182,382,"2819 FOREST GLEN PARKWAY, WOODRIDGE, IL, 60517","Match","Exact","2819 FOREST GLEN PKWY, WOODRIDGE, IL, 60517",112539180,"L"
151883,"2819 FOSTER LN  APT F229","AUSTIN","TX",78757,30.357497772,-97.738094501,383,"2819 FOSTER LN  APT F229, AUSTIN, TX, 78757","Match","Exact","2819 FOSTER LN, AUSTIN, TX, 78757",641675306,"L"
151884,"2819 FULTON AVENUE","BROOKLYN","NY",11207,40.6782166180001,-73.8904943439999,384,"2819 FULTON AVENUE, BROOKLYN, NY, 11207","Match","Non_Exact","2819 FULTON ST, BROOKLYN, NY, 11207",59085010,"L"
151885,"2819 GLADYS TER","DAYTONA BEACF","FL",32118,29.1736539180001,-80.984084896,385,"2819 GLADYS TER, DAYTONA BEACF, FL, 32118","Match","Non_Exact","2819 GLADYS TER, DAYTONA BEACH SHORES, FL, 32118",94528646,"L"
151886,"2819 GRAY CIR","COLUMBIA","TN",38401,35.5939607010001,-87.0851969349999,386,"2819 GRAY CIR, COLUMBIA, TN, 38401","Match","Exact","2819 GRAY CIR, COLUMBIA, TN, 38401",26883886,"R"
151887,"2819 HADEN MARTIN ROAD","PALMYRA","VA",22963,37.8368652660001,-78.3157563889999,387,"2819 HADEN MARTIN ROAD, PALMYRA, VA, 22963","Match","Exact","2819 HADEN MARTIN RD, PALMYRA, VA, 22963",73792055,"L"
151888,"2819 LEE RD","LEE","ME",4455,45.3588845190001,-68.2803744079999,388,"2819 LEE RD, LEE, ME, 4455","Match","Exact","2819 LEE RD, LEE, ME, 04455",605700844,"L"
151889,"2819 LOWMANS FERRY ROAD","PULASKI","VA",24301,37.012345016,-80.6986898609999,389,"2819 LOWMANS FERRY ROAD, PULASKI, VA, 24301","Match","Exact","2819 LOWMANS FERRY RD, PULASKI, VA, 24301",47022170,"L"
151890,"2819 MINNESOTA AVE SE","WASHINGTON","DC",20019,38.8754152290001,-76.9668131829999,390,"2819 MINNESOTA AVE SE, WASHINGTON, DC, 20019","Match","Exact","2819 MINNESOTA AVE SE, WASHINGTON, DC, 20019",76231697,"R"
151891,"2819 MONROE STREET","FORT WAYNE","IN",46806,41.058930951,-85.1294260069999,391,"2819 MONROE STREET, FORT WAYNE, IN, 46806","Match","Non_Exact","2819 S MONROE ST, FORT WAYNE, IN, 46806",6382590,"L"
151892,"2819 RING ROAD","ELIZABETHTOWN","KY",42701,37.722375438,-85.8394663299999,392,"2819 RING ROAD, ELIZABETHTOWN, KY, 42701","Match","Exact","2819 RING RD, ELIZABETHTOWN, KY, 42701",34624284,"R"
151893,"2819 SHAWNEE","FLINT","MI",48507,NA,NA,393,"2819 SHAWNEE, FLINT, MI, 48507","No_Match",NA,NA,NA,NA
151894,"2819 VIKING DRIVE APT 217","GREEN BAY","WI",54304,44.4773690820001,-88.087918587,394,"2819 VIKING DRIVE APT 217, GREEN BAY, WI, 54304","Match","Exact","2819 VIKING DR, GREEN BAY, WI, 54304",635650470,"L"
151895,"2819 W 22ND STREET RD","GREELEY","CO",80634,40.400059963,-104.728032875,395,"2819 W 22ND STREET RD, GREELEY, CO, 80634","Match","Exact","2819 W 22ND STREET RD, GREELEY, CO, 80634",188676179,"R"
151896,"2819 W HIGHLAND BLVD","MILWAUKEE","WI",53208,43.044525046,-87.949420177,396,"2819 W HIGHLAND BLVD, MILWAUKEE, WI, 53208","Match","Exact","2819 W HIGHLAND BLVD, MILWAUKEE, WI, 53208",77740016,"L"
151897,"2819 WANDER CIR","HOLLADAY","UT",84117,40.665344455,-111.812309327,397,"2819 WANDER CIR, HOLLADAY, UT, 84117","Match","Non_Exact","2819 E WANDER CIR, HOLLADAY, UT, 84117",176094790,"L"
151898,"2819 WOODLAWN AVE SW","ROANOKE","VA",24015,37.2507758190001,-79.986295296,398,"2819 WOODLAWN AVE SW, ROANOKE, VA, 24015","Match","Exact","2819 WOODLAWN AVE SW, ROANOKE, VA, 24015",62908665,"R"
151899,"28194 FOX RUN ROAD","MILLSBORO","DE",19966,38.5987473180001,-75.307841386,399,"28194 FOX RUN ROAD, MILLSBORO, DE, 19966","Match","Exact","28194 FOX RUN RD, MILLSBORO, DE, 19966",106093565,"L"
151900,"282 30TH ST","LINDENHURST","NY",11757,40.687474331,-73.387869252,400,"282 30TH ST, LINDENHURST, NY, 11757","Match","Exact","282 30TH ST, LINDENHURST, NY, 11757",113973717,"R"
151901,"282 AVENUE D","PORT ST JOE","FL",32456,29.8205038240001,-85.301907275,401,"282 AVENUE D, PORT ST JOE, FL, 32456","Match","Exact","282 AVE D, PORT SAINT JOE, FL, 32456",7147402,"L"
151902,"282 BAPTISTE CIRCLE","HOUMA","LA",70363,29.5657132590001,-90.67554991,402,"282 BAPTISTE CIRCLE, HOUMA, LA, 70363","Match","Exact","282 BAPTISTE CIR, HOUMA, LA, 70363",627808939,"R"
151903,"282 BEECH AVE","SANTA ROSA","CA",95409,38.46924023,-122.650302082,403,"282 BEECH AVE, SANTA ROSA, CA, 95409","Match","Exact","282 BEECH AVE, SANTA ROSA, CA, 95409",67474364,"R"
151904,"282 BLAUVELT ROAD","MONSEY","NY",10952,41.122078351,-74.069121271,404,"282 BLAUVELT ROAD, MONSEY, NY, 10952","Match","Exact","282 BLAUVELT RD, MONSEY, NY, 10952",618486052,"R"
151905,"282 BROOME STREET APT 20","NEW YORK","NY",10002,40.718473461,-73.9913569619999,405,"282 BROOME STREET APT 20, NEW YORK, NY, 10002","Match","Exact","282 BROOME ST, NEW YORK, NY, 10002",59654014,"R"
151906,"282 CALHOUN AVE","CALUMET CITY","IL",60409,41.628640762,-87.561610666,406,"282 CALHOUN AVE, CALUMET CITY, IL, 60409","Match","Exact","282 CALHOUN AVE, CALUMET CITY, IL, 60409",605704619,"R"
151907,"282 CANDLEBARK DRIVE","JACKSONVILLE","FL",32225,30.3305977730001,-81.4955124479999,407,"282 CANDLEBARK DRIVE, JACKSONVILLE, FL, 32225","Match","Exact","282 CANDLEBARK DR, JACKSONVILLE, FL, 32225",640970727,"R"
151908,"282 CHERRY LANE","INKSTER","MI",48141,42.3094773560001,-83.2933718849999,408,"282 CHERRY LANE, INKSTER, MI, 48141","Match","Exact","282 CHERRY LN, INKSTER, MI, 48141",633636347,"R"
151909,"282 CHESTER STREET","BROOKLYN","NY",11212,40.664590133,-73.910406633,409,"282 CHESTER STREET, BROOKLYN, NY, 11212","Match","Exact","282 CHESTER ST, BROOKLYN, NY, 11212",59084067,"R"
151910,"282 COOPER STREET APT 2R","BROOKLYN","HI",11237,NA,NA,410,"282 COOPER STREET APT 2R, BROOKLYN, HI, 11237","No_Match",NA,NA,NA,NA
151911,"282 CORPORATE DRIVE UNIT 2","PORTSMOUTH","NH",3801,43.073212131,-70.793631138,411,"282 CORPORATE DRIVE UNIT 2, PORTSMOUTH, NH, 3801","Match","Exact","282 CORPORATE DR, PORTSMOUTH, NH, 03801",113702368,"L"
151912,"282 E MT VERNON STREET","SMYRNA","DE",19977,39.3050778690001,-75.6017384479999,412,"282 E MT VERNON STREET, SMYRNA, DE, 19977","Match","Exact","282 E MOUNT VERNON ST, SMYRNA, DE, 19977",68094945,"L"
151913,"282 E SCARLET OAK DR","COOPERSVILLE","MI",49404,NA,NA,413,"282 E SCARLET OAK DR, COOPERSVILLE, MI, 49404","Tie",NA,NA,NA,NA
151914,"282 EAST GUNHILL","BRONX","NY",10467,40.8793470200001,-73.874936153,414,"282 EAST GUNHILL, BRONX, NY, 10467","Match","Non_Exact","282 E GUN HILL RD, BRONX, NY, 10467",80297163,"R"
151915,"282 ED ENGLISH DR BLDG 6 STE A","SHENANDOAH","TX",77385,NA,NA,415,"282 ED ENGLISH DR BLDG 6 STE A, SHENANDOAH, TX, 77385","No_Match",NA,NA,NA,NA
151916,"282 GOVERNOR BRADFORD RD","BREWSTER","MA",2631,41.7375740470001,-70.040106522,416,"282 GOVERNOR BRADFORD RD, BREWSTER, MA, 2631","Match","Exact","282 GOVERNOR BRADFORD RD, BREWSTER, MA, 02631",121567117,"L"
151917,"282 HICKORY LANE","MOUNT WASHINGTON","KY",40047,38.039903592,-85.522831772,417,"282 HICKORY LANE, MOUNT WASHINGTON, KY, 40047","Match","Exact","282 HICKORY LN, MOUNT WASHINGTON, KY, 40047",47737109,"L"
151918,"282 HINKLE RD","FAYETTEVILLE","WV",25840,38.0241616260001,-81.1218341159999,418,"282 HINKLE RD, FAYETTEVILLE, WV, 25840","Match","Exact","282 HINKLE RD, FAYETTEVILLE, WV, 25840",75101668,"L"
151919,"282 HURON PIKE","MITCHELL","IN",47446,NA,NA,419,"282 HURON PIKE, MITCHELL, IN, 47446","No_Match",NA,NA,NA,NA
151920,"282 J FORREST THOMAS ST","BLUFF CITY","TN",37618,36.472255494,-82.2617139,420,"282 J FORREST THOMAS ST, BLUFF CITY, TN, 37618","Match","Exact","282 J FORREST THOMAS ST, BLUFF CITY, TN, 37618",127834788,"L"
151921,"282 JOHN WAYNE DRIVE","LAFAYETTE","LA",70508,30.1761263020001,-92.0229012839999,421,"282 JOHN WAYNE DRIVE, LAFAYETTE, LA, 70508","Match","Exact","282 JOHN WAYNE DR, LAFAYETTE, LA, 70508",85618896,"R"
151922,"282 JORDAN ROAD","NAHUNTA","GA",31553,31.177241269,-81.891154697,422,"282 JORDAN ROAD, NAHUNTA, GA, 31553","Match","Exact","282 JORDAN RD, NAHUNTA, GA, 31553",9118282,"R"
151923,"282 KEMPER DOWNS DRIVE","AIKEN","SC",29803,33.525585918,-81.7705201539999,423,"282 KEMPER DOWNS DRIVE, AIKEN, SC, 29803","Match","Exact","282 KEMPER DOWNS DR, AIKEN, SC, 29803",653324102,"L"
151924,"282 LOCH LOMOND RD","RANCHO MIRAGE","CA",92270,33.8031567030001,-116.435747347,424,"282 LOCH LOMOND RD, RANCHO MIRAGE, CA, 92270","Match","Exact","282 LOCH LOMOND RD, RANCHO MIRAGE, CA, 92270",608982287,"R"
151925,"282 MAXEY DRIVE","BRANDON","MS",39042,32.2805794380001,-90.007712222,425,"282 MAXEY DRIVE, BRANDON, MS, 39042","Match","Non_Exact","282 MAXIE DR, BRANDON, MS, 39042",617153531,"L"
151926,"282 MIDDLE STREET APT 6","PORTSMOUTH","NH",3801,43.0720756210001,-70.7619422459999,426,"282 MIDDLE STREET APT 6, PORTSMOUTH, NH, 3801","Match","Exact","282 MIDDLE ST, PORTSMOUTH, NH, 03801",113666693,"R"
151927,"282 N REHOBOTH BLVD","MILFORD","DE",19963,38.9227615820001,-75.423937783,427,"282 N REHOBOTH BLVD, MILFORD, DE, 19963","Match","Exact","282 N REHOBOTH BLVD, MILFORD, DE, 19963",68111958,"L"
151928,"282 NEPTUNE AVENUE","JERSEY CITY","NJ",7305,40.697725781,-74.099589598,428,"282 NEPTUNE AVENUE, JERSEY CITY, NJ, 7305","Match","Exact","282 NEPTUNE AVE, JERSEY CITY, NJ, 07305",59602906,"R"
151929,"282 NEW MILFORD TURNPIKE","MARBEDALE","CT",6777,41.6608724540001,-73.373186687,429,"282 NEW MILFORD TURNPIKE, MARBEDALE, CT, 6777","Match","Non_Exact","282 NEW MILFORD TPKE, NEW PRESTON MARBLE DALE, CT, 06777",611475268,"L"
151930,"282 NORTH HARNETT SCHOOL ROAD","ANGIER","NC",27501,35.47724809,-78.778688683,430,"282 NORTH HARNETT SCHOOL ROAD, ANGIER, NC, 27501","Match","Exact","282 N HARNETT SCHOOL RD, ANGIER, NC, 27501",71991155,"R"
151931,"282 OLD FALLS BLVD","NORTH TONOWANDA","NY",14120,43.047585278,-78.8329098419999,431,"282 OLD FALLS BLVD, NORTH TONOWANDA, NY, 14120","Match","Non_Exact","282 OLD FALLS BLVD, N TONAWANDA, NY, 14120",48690691,"L"
151932,"282 OLD WOMAN SPRINGS RD STE B-7662","YUCCA VALLEY","CA",92284,34.2481610890001,-116.439657204,432,"282 OLD WOMAN SPRINGS RD STE B-7662, YUCCA VALLEY, CA, 92284","Match","Non_Exact","282 OLD WOMAN SPRINGS RD, YUCCA VALLEY, CA, 92284",144615621,"L"
151933,"282 PEELE ROAD","AURORA","NC",27806,35.2829112150001,-76.762213023,433,"282 PEELE ROAD, AURORA, NC, 27806","Match","Exact","282 PEELE RD, AURORA, NC, 27806",636556862,"L"
151934,"282 PORT RICHMOND AVENUE","STATEN ISLAND","NY",10302,40.6346541790001,-74.1356577609999,434,"282 PORT RICHMOND AVENUE, STATEN ISLAND, NY, 10302","Match","Exact","282 PORT RICHMOND AVE, STATEN ISLAND, NY, 10302",59877749,"R"
151935,"282 S KETCHAM AVE","AMITYVILLE","NY",11701,40.6617171950001,-73.423371989,435,"282 S KETCHAM AVE, AMITYVILLE, NY, 11701","Match","Exact","282 S KETCHAM AVE, AMITYVILLE, NY, 11701",113970968,"L"
151936,"282 SELDON DRIVE","SMYRNA","DE",19977,39.2417644830001,-75.623173466,436,"282 SELDON DRIVE, SMYRNA, DE, 19977","Match","Exact","282 SELDON DR, SMYRNA, DE, 19977",637310902,"R"
151937,"282 ST CLAIR AVE","CLAIRTON","PA",15025,40.291976649,-79.880927677,437,"282 ST CLAIR AVE, CLAIRTON, PA, 15025","Match","Exact","282 ST CLAIR AVE, CLAIRTON, PA, 15025",629095261,"L"
151938,"282 STATE HWY 64","LOUISBURG","MO",65685,37.7578158970001,-93.1383534989999,438,"282 STATE HWY 64, LOUISBURG, MO, 65685","Match","Exact","282 STATE HWY 64, LOUISBURG, MO, 65685",22938476,"R"
151939,"282 SUMMERHILL DRIVE","BROWNSVILLE","TN",38012,35.6036185200001,-89.2978984219999,439,"282 SUMMERHILL DRIVE, BROWNSVILLE, TN, 38012","Match","Non_Exact","282 SUMMER HILL DR, BROWNSVILLE, TN, 38012",63743252,"L"
151940,"282 SUMMIT VIEW DR","MCDONOUGH","GA",30253,33.504596378,-84.1738412239999,440,"282 SUMMIT VIEW DR, MCDONOUGH, GA, 30253","Match","Exact","282 SUMMIT VIEW DR, MCDONOUGH, GA, 30253",647589728,"R"
151941,"282 TIFFANY TERRACE","FREMONT","CA",94536,37.571933001,-121.963450944,441,"282 TIFFANY TERRACE, FREMONT, CA, 94536","Match","Exact","282 TIFFANY TER, FREMONT, CA, 94536",125079244,"R"
151942,"282 TRADEWINDS DRIVE APT 12","SAN JOSE","CA",95123,37.254091864,-121.827344792,442,"282 TRADEWINDS DRIVE APT 12, SAN JOSE, CA, 95123","Match","Exact","282 TRADEWINDS DR, SAN JOSE, CA, 95123",618192377,"L"
151943,"282 W 1ST S","RIGBY","ID",83442,43.670093895,-111.920027599,443,"282 W 1ST S, RIGBY, ID, 83442","Match","Exact","282 W 1ST S, RIGBY, ID, 83442",119296402,"R"
151944,"282 W COUNTRY CLUB DR","BRENTWOOD","CA",94513,37.9302749170001,-121.751264417,444,"282 W COUNTRY CLUB DR, BRENTWOOD, CA, 94513","Match","Exact","282 W COUNTRY CLUB DR, BRENTWOOD, CA, 94513",192114793,"R"
151945,"282 WEST HAWLEY RD","HAWLEY","MA",1339,42.584459012,-72.943237127,445,"282 WEST HAWLEY RD, HAWLEY, MA, 1339","Match","Exact","282 W HAWLEY RD, HAWLEY, MA, 01339",39913921,"L"
151946,"282 WHITE COTTAGE RD S","ANGWIN","CA",94508,38.5626756090001,-122.458814627,446,"282 WHITE COTTAGE RD S, ANGWIN, CA, 94508","Match","Exact","282 WHITE COTTAGE RD S, ANGWIN, CA, 94508",67412790,"R"
151947,"282 WHITNEY DRIVE","ROCHESTER HILLS","MI",48307,42.67297282,-83.1275901019999,447,"282 WHITNEY DRIVE, ROCHESTER HILLS, MI, 48307","Match","Exact","282 WHITNEY DR, ROCHESTER HILLS, MI, 48307",69755531,"L"
151948,"282 XENIA TOWNE SQUARE APT 501","XENIA","OH",45385,39.6855499500001,-83.935136837,448,"282 XENIA TOWNE SQUARE APT 501, XENIA, OH, 45385","Match","Non_Exact","282 XENIA TOWN SQ, XENIA, OH, 45385",143398291,"R"
151949,"282 YACHT CLUB DR","ST AUGUSTINE","FL",32084,29.9161649600001,-81.3070180989999,449,"282 YACHT CLUB DR, ST AUGUSTINE, FL, 32084","Match","Exact","282 YACHT CLUB DR, SAINT AUGUSTINE, FL, 32084",640411813,"R"
151950,"282-A COVE RD","HUDSON","WI",54016,44.9034120520001,-92.753998342,450,"282-A COVE RD, HUDSON, WI, 54016","Match","Exact","282 COVE RD, HUDSON, WI, 54016",110908763,"R"
151951,"2820 13TH AVE S","MINNEAPOLIS","MN",55407,44.951545196,-93.256277567,451,"2820 13TH AVE S, MINNEAPOLIS, MN, 55407","Match","Exact","2820 13TH AVE S, MINNEAPOLIS, MN, 55407",43785008,"R"
151952,"2820 169TH AVE SE","BELLEVUE","WA",98008,47.584549544,-122.115190104,452,"2820 169TH AVE SE, BELLEVUE, WA, 98008","Match","Exact","2820 169TH AVE SE, BELLEVUE, WA, 98008",186614900,"L"
151953,"2820 96TH STREET EAST","TACOMA","WA",98445,47.1699508830001,-122.391755436,453,"2820 96TH STREET EAST, TACOMA, WA, 98445","Match","Exact","2820 96TH ST E, TACOMA, WA, 98445",652989961,"R"
151954,"2820 ALPHA VALLEY HOME RD","MORRISTOWN","TN",37813,36.150983857,-83.347021228,454,"2820 ALPHA VALLEY HOME RD, MORRISTOWN, TN, 37813","Match","Exact","2820 ALPHA VALLEY HOME RD, MORRISTOWN, TN, 37813",42215973,"L"
151955,"2820 AUDUBON VILLAGE DRIVE  NO 258","AUDUBON","PA",19403,40.1292036140001,-75.437148296,455,"2820 AUDUBON VILLAGE DRIVE  NO 258, AUDUBON, PA, 19403","Match","Non_Exact","2820 AUDUBON VILLAGE DR, AUDUBON, PA, 19403",650147601,"L"
151956,"2820 AUDUBON VILLAGE DRIVE 306","AUDUBON","PA",19403,40.1292036140001,-75.437148296,456,"2820 AUDUBON VILLAGE DRIVE 306, AUDUBON, PA, 19403","Match","Exact","2820 AUDUBON VILLAGE DR, AUDUBON, PA, 19403",650147601,"L"
151957,"2820 AVENUE I","BROOKLYN","NY",11210,40.6289773770001,-73.9490168259999,457,"2820 AVENUE I, BROOKLYN, NY, 11210","Match","Exact","2820 AVE I, BROOKLYN, NY, 11210",59081793,"R"
151958,"2820 BANKS KNOLL DR","CARY","NC",27519,35.813473807,-78.8783608369999,458,"2820 BANKS KNOLL DR, CARY, NC, 27519","Match","Exact","2820 BANKS KNOLL DR, CARY, NC, 27519",642441749,"L"
151959,"2820 BEAR VALLEY PARKWAY SOUTH","ESCONDIDO","CA",92025,NA,NA,459,"2820 BEAR VALLEY PARKWAY SOUTH, ESCONDIDO, CA, 92025","No_Match",NA,NA,NA,NA
151960,"2820 BLODGETT ST APT 1","HOUSTON","TX",77004,29.7228243170001,-95.3687514279999,460,"2820 BLODGETT ST APT 1, HOUSTON, TX, 77004","Match","Exact","2820 BLODGETT ST, HOUSTON, TX, 77004",96071951,"R"
151961,"2820 CARRIAGE WAY","WEST LINN","OR",97068,45.38326972,-122.647268012,461,"2820 CARRIAGE WAY, WEST LINN, OR, 97068","Match","Exact","2820 CARRIAGE WAY, WEST LINN, OR, 97068",157993052,"R"
151962,"2820 CARUSO LN","LANCASTER","CA",93536,34.688145455,-118.182039988,462,"2820 CARUSO LN, LANCASTER, CA, 93536","Match","Exact","2820 CARUSO LN, LANCASTER, CA, 93536",141777628,"R"
151963,"2820 CASCADE ST","ERIE","PA",16508,42.1024601770001,-80.093107674,463,"2820 CASCADE ST, ERIE, PA, 16508","Match","Exact","2820 CASCADE ST, ERIE, PA, 16508",117494630,"R"
151964,"2820 CEDAR AVENUE","SCRANTON","PA",18505,41.381728552,-75.6907641239999,464,"2820 CEDAR AVENUE, SCRANTON, PA, 18505","Match","Exact","2820 CEDAR AVE, SCRANTON, PA, 18505",139322882,"R"
151965,"2820 CHAYOTE RD NE","RIO RANCHO","NM",87144,35.3040345740001,-106.605771638,465,"2820 CHAYOTE RD NE, RIO RANCHO, NM, 87144","Match","Exact","2820 CHAYOTE RD NE, RIO RANCHO, NM, 87144",194018412,"R"
151966,"2820 COLE CIRCLE DRIVE","VILLA RIDGE","MO",63089,38.438196771,-90.867707571,466,"2820 COLE CIRCLE DRIVE, VILLA RIDGE, MO, 63089","Match","Exact","2820 COLE CIRCLE DR, VILLA RIDGE, MO, 63089",99744574,"R"
151967,"2820 EAGLER ROCK RD","PENRYN","CA",95663,NA,NA,467,"2820 EAGLER ROCK RD, PENRYN, CA, 95663","No_Match",NA,NA,NA,NA
151968,"2820 EAST 116TH ST","CLEVELAND","OH",44120,41.4822760690001,-81.602907079,468,"2820 EAST 116TH ST, CLEVELAND, OH, 44120","Match","Exact","2820 E 116TH ST, CLEVELAND, OH, 44120",652733940,"R"
151969,"2820 EMBER WAY","ANN ARBOR","MI",48104,42.248329067,-83.71930291,469,"2820 EMBER WAY, ANN ARBOR, MI, 48104","Match","Exact","2820 EMBER WAY, ANN ARBOR, MI, 48104",26027685,"R"
151970,"2820 FOREST GREEN DR","ROUND ROCK","TX",78665,30.502681254,-97.619055788,470,"2820 FOREST GREEN DR, ROUND ROCK, TX, 78665","Match","Exact","2820 FOREST GREEN DR, ROUND ROCK, TX, 78665",126474626,"R"
151971,"2820 FOREST POINT DRIVE NUMBER 1110","ARLINGTON","TX",76006,32.7871910860001,-97.062810741,471,"2820 FOREST POINT DRIVE NUMBER 1110, ARLINGTON, TX, 76006","Match","Exact","2820 FOREST POINT DR, ARLINGTON, TX, 76006",101929162,"L"
151972,"2820 FOUNTAINVIEW DR APT E108","HOUSTON","TX",77057,29.7359559290001,-95.484248615,472,"2820 FOUNTAINVIEW DR APT E108, HOUSTON, TX, 77057","Match","Non_Exact","2820 FOUNTAIN VIEW DR, HOUSTON, TX, 77057",96620319,"R"
151973,"2820 FREEMAN MANOR DR","JONES","OK",73049,35.6274432870001,-97.333524443,473,"2820 FREEMAN MANOR DR, JONES, OK, 73049","Match","Exact","2820 FREEMAN MANOR DR, JONES, OK, 73049",646646281,"R"
151974,"2820 GARDENDALE DRIVE","FORT WORTH","TX",76120,32.738851798,-97.179610606,474,"2820 GARDENDALE DRIVE, FORT WORTH, TX, 76120","Match","Exact","2820 GARDENDALE DR, FORT WORTH, TX, 76120",619866321,"R"
151975,"2820 GOOSE CREEK LANE","MURFREESBORO","TN",37128,35.7979754630001,-86.446204832,475,"2820 GOOSE CREEK LANE, MURFREESBORO, TN, 37128","Match","Exact","2820 GOOSE CREEK LN, MURFREESBORO, TN, 37128",648035699,"L"
151976,"2820 HONOLULU AVE","VERDUGO CITY","CA",91046,34.211707678,-118.240408638,476,"2820 HONOLULU AVE, VERDUGO CITY, CA, 91046","Match","Exact","2820 HONOLULU AVE, VERDUGO CITY, CA, 91046",652034568,"L"
151977,"2820 JAN MAR DRIVE","AUBURNDALE","FL",33823,28.030812939,-81.81729633,477,"2820 JAN MAR DRIVE, AUBURNDALE, FL, 33823","Match","Exact","2820 JAN MAR DR, AUBURNDALE, FL, 33823",104845299,"R"
151978,"2820 JEFFERSON ST","PADUCAH","KY",42001,37.0741433520001,-88.632123064,478,"2820 JEFFERSON ST, PADUCAH, KY, 42001","Match","Exact","2820 JEFFERSON ST, PADUCAH, KY, 42001",8416121,"R"
151979,"2820 KILBORN DRIVE APT 7","CHARLOTTE","NC",28205,NA,NA,479,"2820 KILBORN DRIVE APT 7, CHARLOTTE, NC, 28205","No_Match",NA,NA,NA,NA
151980,"2820 KOEHLER AVE","DAYTON","OH",45414,39.8080856170001,-84.180908017,480,"2820 KOEHLER AVE, DAYTON, OH, 45414","Match","Exact","2820 KOEHLER AVE, DAYTON, OH, 45414",143569396,"R"
151981,"2820 LA LOMA DRIVE 28","RANCHO CORDOVA","CA",95670,38.5857269700001,-121.315040538,481,"2820 LA LOMA DRIVE 28, RANCHO CORDOVA, CA, 95670","Match","Non_Exact","2820 LA LOMA DR, RANCHO CORDOVA, CA, 95670",133404336,"R"
151982,"2820 LASSITER RD","MARIETTA","GA",30062,34.0193907760001,-84.4272777529999,482,"2820 LASSITER RD, MARIETTA, GA, 30062","Match","Exact","2820 LASSITER RD, MARIETTA, GA, 30062",17217445,"L"
151983,"2820 LASSITER ROAD STE B250","MARIETTA","GA",30062,34.0193907760001,-84.4272777529999,483,"2820 LASSITER ROAD STE B250, MARIETTA, GA, 30062","Match","Exact","2820 LASSITER RD, MARIETTA, GA, 30062",17217445,"L"
151984,"2820 LAWNDALE DRIVE STE 108","GREENSBORO","NC",27408,36.105373624,-79.819076825,484,"2820 LAWNDALE DRIVE STE 108, GREENSBORO, NC, 27408","Match","Exact","2820 LAWNDALE DR, GREENSBORO, NC, 27408",131030441,"R"
151985,"2820 MORENO ST","AUSTIN","TX",78723,30.293733162,-97.695778288,485,"2820 MORENO ST, AUSTIN, TX, 78723","Match","Exact","2820 MORENO ST, AUSTIN, TX, 78723",648999600,"L"
151986,"2820 N GREENVIEW AVE UNIT H","CHICAGO","IL",60657,41.9330757660001,-87.6660120189999,486,"2820 N GREENVIEW AVE UNIT H, CHICAGO, IL, 60657","Match","Non_Exact","2820 N GREENVIEW AVE, CHICAGO, IL, 60657",605234510,"L"
151987,"2820 N PINAL AVE SUITE 12-203","CASA GRANDE","AZ",85122,NA,NA,487,"2820 N PINAL AVE SUITE 12-203, CASA GRANDE, AZ, 85122","No_Match",NA,NA,NA,NA
151988,"2820 NEW HIGHWAY 51 STE B","LP","LA",70068,NA,NA,488,"2820 NEW HIGHWAY 51 STE B, LP, LA, 70068","No_Match",NA,NA,NA,NA
151989,"2820 NORTH GREENVIEW UNIT H","CHICAGO","IL",60657,41.9330598650001,-87.666011552,489,"2820 NORTH GREENVIEW UNIT H, CHICAGO, IL, 60657","Match","Non_Exact","2820 N GREENVIEW AVE, CHICAGO, IL, 60657",605234510,"L"
151990,"2820 NW 9TH STREET","FORT LAUDERDALE","FL",33311,26.134118766,-80.1823275629999,490,"2820 NW 9TH STREET, FORT LAUDERDALE, FL, 33311","Match","Non_Exact","2820 NW 9TH ST, FORT LAUDERDALE, FL, 33311",114710009,"L"
151991,"2820 OAK ST","SARASOTA","FL",34237,27.3313281760001,-82.512672905,491,"2820 OAK ST, SARASOTA, FL, 34237","Match","Exact","2820 OAK ST, SARASOTA, FL, 34237",16351570,"R"
151992,"2820 OLD STERLINGTON RD","MONROE","LA",71203,32.5506226260001,-92.065962564,492,"2820 OLD STERLINGTON RD, MONROE, LA, 71203","Match","Exact","2820 OLD STERLINGTON RD, MONROE, LA, 71203",161086408,"L"
151993,"2820 OLINVILLE AVENUE","BRONX","NY",10467,40.866924565,-73.8683096139999,493,"2820 OLINVILLE AVENUE, BRONX, NY, 10467","Match","Exact","2820 OLINVILLE AVE, BRONX, NY, 10467",80303387,"R"
151994,"2820 PARK PLACE DR","GRAND PRAIRIE","TX",75052,32.64007308,-97.0575211399999,494,"2820 PARK PLACE DR, GRAND PRAIRIE, TX, 75052","Match","Exact","2820 PARK PLACE DR, GRAND PRAIRIE, TX, 75052",618738791,"L"
151995,"2820 PEACHTREE INDUSTRIAL BLVD","DULUTH SUITE L","GA",30097,34.022889288,-84.146700391,495,"2820 PEACHTREE INDUSTRIAL BLVD, DULUTH SUITE L, GA, 30097","Match","Non_Exact","2820 PEACHTREE INDUSTRIAL BLVD, DULUTH, GA, 30097",88959103,"R"
151996,"2820 PRADO","GRAND PRAIRIE","TX",75054,32.595312891,-97.048706032,496,"2820 PRADO, GRAND PRAIRIE, TX, 75054","Match","Exact","2820 PRADO, GRAND PRAIRIE, TX, 75054",617669330,"R"
151997,"2820 QUAINT ST","SECANE","PA",19018,39.9088494580001,-75.3084435499999,497,"2820 QUAINT ST, SECANE, PA, 19018","Match","Exact","2820 QUAINT ST, SECANE, PA, 19018",652559854,"R"
151998,"2820 RIGE BOARD PLACE","CHESAPEAKE","VA",23323,NA,NA,498,"2820 RIGE BOARD PLACE, CHESAPEAKE, VA, 23323","No_Match",NA,NA,NA,NA
151999,"2820 S 123RD ST","OMAHA","NE",68144,41.2331692550001,-96.105677253,499,"2820 S 123RD ST, OMAHA, NE, 68144","Match","Non_Exact","2820 S 123RD CT, OMAHA, NE, 68144",116970966,"R"
152000,"2820 S ALMA SCHOOL RD   STE 18","CHANDLER","UT",85286,NA,NA,500,"2820 S ALMA SCHOOL RD   STE 18, CHANDLER, UT, 85286","No_Match",NA,NA,NA,NA
