"ID","Address","City","State","Zip","lat","long","id","input_address","match_indicator","match_type","matched_address","tiger_line_id","tiger_side"
205001,"4139 CALCULUS DR","DALLAS","TX",75244,32.918033085,-96.842531032,1,"4139 CALCULUS DR, DALLAS, TX, 75244","Match","Exact","4139 CALCULUS DR, DALLAS, TX, 75244",102899078,"L"
205002,"4139 DIXIE CANYON AVENUE 6","SHERMAN OAKS","CA",91423,34.1442124370001,-118.424881557,2,"4139 DIXIE CANYON AVENUE 6, SHERMAN OAKS, CA, 91423","Match","Exact","4139 DIXIE CANYON AVE, SHERMAN OAKS, CA, 91423",141565196,"L"
205003,"4139 EAST LAUGHLIN ROAD","CASA GRANDE","AZ",85194,32.8722281070001,-111.521773405,3,"4139 EAST LAUGHLIN ROAD, CASA GRANDE, AZ, 85194","Match","Exact","4139 E LAUGHLIN RD, CASA GRANDE, AZ, 85194",129188447,"L"
205004,"4139 ELIZABETH CT","CYPRESS","CA",90630,33.8158493880001,-118.060212845,4,"4139 ELIZABETH CT, CYPRESS, CA, 90630","Match","Exact","4139 ELIZABETH CT, CYPRESS, CA, 90630",609053678,"L"
205005,"4139 HAYWARD AVE","BALTIMORE","MD",21215,39.343527963,-76.689036594,5,"4139 HAYWARD AVE, BALTIMORE, MD, 21215","Match","Exact","4139 HAYWARD AVE, BALTIMORE, MD, 21215",206461526,"L"
205006,"4139 KEWANEE STREET","HOUSTON","TX",77051,29.6636842410001,-95.367244509,6,"4139 KEWANEE STREET, HOUSTON, TX, 77051","Match","Exact","4139 KEWANEE ST, HOUSTON, TX, 77051",96088834,"L"
205007,"4139 MIDSTREAM DR","MISSOURI CITY","TX",77459,29.596486015,-95.570886383,7,"4139 MIDSTREAM DR, MISSOURI CITY, TX, 77459","Match","Exact","4139 MIDSTREAM DR, MISSOURI CITY, TX, 77459",78293098,"R"
205008,"4139 PENNYCRESS DRIVE","JOHNSTOWN","CO",80534,40.399590753,-104.969926035,8,"4139 PENNYCRESS DRIVE, JOHNSTOWN, CO, 80534","Match","Exact","4139 PENNYCRESS DR, JOHNSTOWN, CO, 80534",646905999,"R"
205009,"4139 RHAWN STREET","PHILADELPHIA","PA",19136,40.040424806,-75.0277289169999,9,"4139 RHAWN STREET, PHILADELPHIA, PA, 19136","Match","Exact","4139 RHAWN ST, PHILADELPHIA, PA, 19136",131432810,"L"
205010,"4139 VIA MARINA 108","MARINA DEL REY","CA",90292,NA,NA,10,"4139 VIA MARINA 108, MARINA DEL REY, CA, 90292","No_Match",NA,NA,NA,NA
205011,"4139 VIA MARINA STE 1108","MARINA DEL REY","CA",90292,NA,NA,11,"4139 VIA MARINA STE 1108, MARINA DEL REY, CA, 90292","No_Match",NA,NA,NA,NA
205012,"4139 W ADOBE RANCH PL","MARANA","AZ",85658,32.418554182,-111.054623458,12,"4139 W ADOBE RANCH PL, MARANA, AZ, 85658","Match","Exact","4139 W ADOBE RANCH PL, MARANA, AZ, 85658",606800490,"L"
205013,"4139 WEST 90TH PLACE","HOMETOWN","IL",60456,41.728254791,-87.725408745,13,"4139 WEST 90TH PLACE, HOMETOWN, IL, 60456","Match","Exact","4139 W 90TH PL, HOMETOWN, IL, 60456",111875693,"L"
205014,"414  E RIDGE STREET","MEDARYVILLE","IN",47975,41.0798051130001,-86.887546049,14,"414  E RIDGE STREET, MEDARYVILLE, IN, 47975","Match","Non_Exact","414 E RIDGE ST, MEDARYVILLE, IN, 47957",647373290,"L"
205015,"414 1/2 N FILLMORE STREET","CORINTH","MS",38834,34.9344689220001,-88.5206206399999,15,"414 1/2 N FILLMORE STREET, CORINTH, MS, 38834","Match","Exact","414 N FILLMORE ST, CORINTH, MS, 38834",91048935,"R"
205016,"414 2ND ST APT 345","HERMOSA BEACH","CA",90254,33.855442903,-118.395130059,16,"414 2ND ST APT 345, HERMOSA BEACH, CA, 90254","Match","Exact","414 2ND ST, HERMOSA BEACH, CA, 90254",141583454,"R"
205017,"414 4TH ST NE","MASSILLON","OH",44646,40.8010805930001,-81.519639508,17,"414 4TH ST NE, MASSILLON, OH, 44646","Match","Exact","414 4TH ST NE, MASSILLON, OH, 44646",64669626,"R"
205018,"414 6TH AVE NE","LARGO","FL",33770,27.92216698,-82.783084931,18,"414 6TH AVE NE, LARGO, FL, 33770","Match","Exact","414 6TH AVE NE, LARGO, FL, 33770",124675334,"L"
205019,"414 6TH STREET","DEWITT","IA",52742,41.8212575760001,-90.53624562,19,"414 6TH STREET, DEWITT, IA, 52742","Match","Non_Exact","414 6TH ST, DE WITT, IA, 52742",16805028,"R"
205020,"414 A STREET","ROCK SPRINGS","WY",82901,41.5828728660001,-109.219663784,20,"414 A STREET, ROCK SPRINGS, WY, 82901","Match","Exact","414 A ST, ROCK SPRINGS, WY, 82901",149502688,"L"
205021,"414 ACKLEN PARK DRIVE UNIT 6","NASHVILLE","TN",37205,36.143402323,-86.823886801,21,"414 ACKLEN PARK DRIVE UNIT 6, NASHVILLE, TN, 37205","Match","Exact","414 ACKLEN PARK DR, NASHVILLE, TN, 37205",97189670,"R"
205022,"414 AFTON MEADOW LN","CARY","NC",27518,35.702216777,-78.7950160409999,22,"414 AFTON MEADOW LN, CARY, NC, 27518","Match","Exact","414 AFTON MEADOW LN, CARY, NC, 27518",612817700,"R"
205023,"414 APPLEDOWN DR","CARY","NC",27513,35.801914276,-78.7718988299999,23,"414 APPLEDOWN DR, CARY, NC, 27513","Match","Exact","414 APPLEDOWN DR, CARY, NC, 27513",72603806,"L"
205024,"414 AURORA DRIVE","EGG HARBOR TOWNSHIP","NJ",8234,39.355797696,-74.5870130489999,24,"414 AURORA DRIVE, EGG HARBOR TOWNSHIP, NJ, 8234","Match","Exact","414 AURORA DR, EGG HARBOR TOWNSHIP, NJ, 08234",202521939,"L"
205025,"414 AVENUE BALBOA","EL GRANADA","CA",94018,NA,NA,25,"414 AVENUE BALBOA, EL GRANADA, CA, 94018","No_Match",NA,NA,NA,NA
205026,"414 B WEST SECOND ST","ELMIRA","NY",14901,42.089634426,-76.8156106279999,26,"414 B WEST SECOND ST, ELMIRA, NY, 14901","Match","Exact","414 W 2ND ST, ELMIRA, NY, 14901",18533553,"R"
205027,"414 BAUXHALL CT","KATY","TX",77450,29.78064786,-95.720425212,27,"414 BAUXHALL CT, KATY, TX, 77450","Match","Exact","414 BAUXHALL CT, KATY, TX, 77450",96628454,"L"
205028,"414 BAXTER AVE STE B002","LOUISVILLE","KY",40204,38.248752849,-85.730923216,28,"414 BAXTER AVE STE B002, LOUISVILLE, KY, 40204","Match","Exact","414 BAXTER AVE, LOUISVILLE, KY, 40204",96845393,"R"
205029,"414 BECKER AVENUE SW","WILLMAR","MN",56201,45.1202866610001,-95.048049035,29,"414 BECKER AVENUE SW, WILLMAR, MN, 56201","Match","Exact","414 BECKER AVE SW, WILLMAR, MN, 56201",36712002,"L"
205030,"414 BEECHWOOD LANE","WOODSTOCK","GA",30189,34.139108105,-84.561276693,30,"414 BEECHWOOD LANE, WOODSTOCK, GA, 30189","Match","Exact","414 BEECHWOOD LN, WOODSTOCK, GA, 30189",68842998,"R"
205031,"414 BENSON AVE NE APT 1317","GRAND RAPIDS","MI",49503,42.970502563,-85.653194086,31,"414 BENSON AVE NE APT 1317, GRAND RAPIDS, MI, 49503","Match","Exact","414 BENSON AVE NE, GRAND RAPIDS, MI, 49503",12460183,"R"
205032,"414 BENSON AVE NE","GRAND RAPIDS","MI",49503,42.970502563,-85.653194086,32,"414 BENSON AVE NE, GRAND RAPIDS, MI, 49503","Match","Exact","414 BENSON AVE NE, GRAND RAPIDS, MI, 49503",12460183,"R"
205033,"414 BOULEVARD","GARFIELD","NJ",7026,40.904308416,-74.118208268,33,"414 BOULEVARD, GARFIELD, NJ, 7026","Match","Exact","414 BOULEVARD, GARFIELD, NJ, 07026",64381633,"R"
205034,"414 BOYD ROAD","LAURENS","SC",29360,34.530067393,-82.0838440699999,34,"414 BOYD ROAD, LAURENS, SC, 29360","Match","Exact","414 BOYD RD, LAURENS, SC, 29360",44454119,"L"
205035,"414 BRANCHMOOR COURT","FUQUAY VARINA","NC",27526,35.571558431,-78.806297688,35,"414 BRANCHMOOR COURT, FUQUAY VARINA, NC, 27526","Match","Exact","414 BRANCHMOOR CT, FUQUAY VARINA, NC, 27526",634096830,"L"
205036,"414 BROOKVIEW CIRCLE NW","ATLANTA","GA",30339,33.9070914070001,-84.4257610939999,36,"414 BROOKVIEW CIRCLE NW, ATLANTA, GA, 30339","Match","Non_Exact","414 BROOKVIEW CIR, ATLANTA, GA, 30339",17391206,"L"
205037,"414 CANTRELL LOOP","CEDARTOWN","GA",30125,34.072332413,-85.19929733,37,"414 CANTRELL LOOP, CEDARTOWN, GA, 30125","Match","Exact","414 CANTRELL LOOP, CEDARTOWN, GA, 30125",29621713,"R"
205038,"414 CATHANCE ROAD","TOPSHAM","ME",4086,43.9727574980001,-69.9346014619999,38,"414 CATHANCE ROAD, TOPSHAM, ME, 4086","Match","Exact","414 CATHANCE RD, TOPSHAM, ME, 04086",617947624,"L"
205039,"414 CHARLESTON GREENE","MALVERN","PA",19355,40.034402277,-75.525862939,39,"414 CHARLESTON GREENE, MALVERN, PA, 19355","Match","Exact","414 CHARLESTON GREENE, MALVERN, PA, 19355",627007286,"R"
205040,"414 CHATEAU PL","LAFAYETTE","LA",70503,30.1810830110001,-92.057465333,40,"414 CHATEAU PL, LAFAYETTE, LA, 70503","Match","Exact","414 CHATEAU PL, LAFAYETTE, LA, 70503",85638902,"R"
205041,"414 CHATHAM CIRCLE","BUFFALO GROVE","DC",60089,NA,NA,41,"414 CHATHAM CIRCLE, BUFFALO GROVE, DC, 60089","No_Match",NA,NA,NA,NA
205042,"414 CHURCH STREET","NEW MILFORD","NY",18834,NA,NA,42,"414 CHURCH STREET, NEW MILFORD, NY, 18834","No_Match",NA,NA,NA,NA
205043,"414 COLORADO AVENUE","LYNN HAVEN","FL",32444,30.2514078020001,-85.635785733,43,"414 COLORADO AVENUE, LYNN HAVEN, FL, 32444","Match","Exact","414 COLORADO AVE, LYNN HAVEN, FL, 32444",7059441,"L"
205044,"414 COMET DRIVE","HENDERSONVILLE","NC",28791,35.339875942,-82.483514842,44,"414 COMET DRIVE, HENDERSONVILLE, NC, 28791","Match","Exact","414 COMET DR, HENDERSONVILLE, NC, 28791",622013253,"R"
205045,"414 CONSERVATORY LN","AURORA","IL",60502,41.7604734350001,-88.236823833,45,"414 CONSERVATORY LN, AURORA, IL, 60502","Match","Exact","414 CONSERVATORY LN, AURORA, IL, 60502",222442426,"R"
205046,"414 COURT STREET","MONROE CITY","MO",63456,39.6544344550001,-91.739931353,46,"414 COURT STREET, MONROE CITY, MO, 63456","Match","Exact","414 COURT ST, MONROE CITY, MO, 63456",31764184,"L"
205047,"414 COX BROOK RD","NORTHFIELD","VT",5663,44.1749480120001,-72.6577382299999,47,"414 COX BROOK RD, NORTHFIELD, VT, 5663","Match","Exact","414 COX BROOK RD, NORTHFIELD, VT, 05663",136687282,"R"
205048,"414 CRIMSON DRIVE","PITTSBURGH","PA",15237,40.548085718,-80.090826116,48,"414 CRIMSON DRIVE, PITTSBURGH, PA, 15237","Match","Exact","414 CRIMSON DR, PITTSBURGH, PA, 15237",627533069,"L"
205049,"414 CUTLER DRIVE","NORTH SALT LAKE","UT",84054,40.848835729,-111.931873279,49,"414 CUTLER DRIVE, NORTH SALT LAKE, UT, 84054","Match","Exact","414 CUTLER DR, N SALT LAKE, UT, 84054",637499801,"R"
205050,"414 DAWN DR","DUNCANVILLE","TX",75137,32.632384712,-96.9040718799999,50,"414 DAWN DR, DUNCANVILLE, TX, 75137","Match","Exact","414 DAWN DR, DUNCANVILLE, TX, 75137",102972231,"R"
205051,"414 DE LA VINA STREET APT  C","SANTA BARBARA","CA",93101,34.414044243,-119.696894435,51,"414 DE LA VINA STREET APT  C, SANTA BARBARA, CA, 93101","Match","Non_Exact","414 DE LA VINA ST, SANTA BARBARA, CA, 93101",108659692,"R"
205052,"414 DRUID LN","CHATTANOOGA","TN",37405,35.0655315220001,-85.303624295,52,"414 DRUID LN, CHATTANOOGA, TN, 37405","Match","Exact","414 DRUID LN, CHATTANOOGA, TN, 37405",59303835,"R"
205053,"414 DUTTON MILL ROAD","MALVERN","PA",19355,39.9919450410001,-75.510589501,53,"414 DUTTON MILL ROAD, MALVERN, PA, 19355","Match","Exact","414 DUTTON MILL RD, MALVERN, PA, 19355",179507178,"L"
205054,"414 DUVALL COURT","BENICIA","CA",94510,38.0766953680001,-122.166016314,54,"414 DUVALL COURT, BENICIA, CA, 94510","Match","Exact","414 DUVALL CT, BENICIA, CA, 94510",192530310,"R"
205055,"414 E 14TH ST","NEW YORK","NY",10009,40.731174562,-73.982113396,55,"414 E 14TH ST, NEW YORK, NY, 10009","Match","Exact","414 E 14TH ST, NEW YORK, NY, 10009",59654600,"R"
205056,"414 E 32ND STREET","NEWPORT BEACH","CA",92663,33.616027391,-117.929755042,56,"414 E 32ND STREET, NEWPORT BEACH, CA, 92663","Match","Exact","414 32ND ST, NEWPORT BEACH, CA, 92663",609072397,"R"
205057,"414 E 84TH ST","LOS ANGELES","CA",90003,33.962842326,-118.267001787,57,"414 E 84TH ST, LOS ANGELES, CA, 90003","Match","Exact","414 E 84TH ST, LOS ANGELES, CA, 90003",141670921,"R"
205058,"414 E CANBY ST","LARAMIE","WY",82072,41.320315674,-105.59104548,58,"414 E CANBY ST, LARAMIE, WY, 82072","Match","Exact","414 E CANBY ST, LARAMIE, WY, 82072",168739806,"L"
205059,"414 E ELM STREET","GAINESVILLE","TX",76240,33.625005844,-97.142236279,59,"414 E ELM STREET, GAINESVILLE, TX, 76240","Match","Exact","414 E ELM ST, GAINESVILLE, TX, 76240",151334034,"R"
205060,"414 E MAIN ST P O BOX 341","KEWANNA","IN",46939,NA,NA,60,"414 E MAIN ST P O BOX 341, KEWANNA, IN, 46939","Tie",NA,NA,NA,NA
205061,"414 E OJAI AVE","OJAI","CA",93023,34.4480498020001,-119.242752347,61,"414 E OJAI AVE, OJAI, CA, 93023","Match","Exact","414 E OJAI AVE, OJAI, CA, 93023",109984140,"L"
205062,"414 E SHERMAN AVE STE B","COEUR DALENE","ID",83814,47.6734596490001,-116.780872089,62,"414 E SHERMAN AVE STE B, COEUR DALENE, ID, 83814","Match","Non_Exact","414 SHERMAN AVE, COEUR D ALENE, ID, 83814",192902873,"L"
205063,"414 E UNION HILLS DR  1263","PHOENIX","AZ",85022,NA,NA,63,"414 E UNION HILLS DR  1263, PHOENIX, AZ, 85022","No_Match",NA,NA,NA,NA
205064,"414 E YORK ST","OLNEY","IL",62450,38.7318989290001,-88.081490165,64,"414 E YORK ST, OLNEY, IL, 62450","Match","Exact","414 E YORK ST, OLNEY, IL, 62450",29952815,"R"
205065,"414 EAST 31ST STREET","BALTIMORE","MD",21218,39.326082953,-76.6101909669999,65,"414 EAST 31ST STREET, BALTIMORE, MD, 21218","Match","Exact","414 E 31ST ST, BALTIMORE, MD, 21218",206409000,"L"
205066,"414 EAST MAPLE STREET","HOLLY","MI",48442,42.7919628500001,-83.623573897,66,"414 EAST MAPLE STREET, HOLLY, MI, 48442","Match","Exact","414 E MAPLE ST, HOLLY, MI, 48442",69751325,"R"
205067,"414 ENCHANTED TRAILS DR","SPRING","TX",77388,30.0464151350001,-95.439116132,67,"414 ENCHANTED TRAILS DR, SPRING, TX, 77388","Match","Non_Exact","414 ENCHANTED TRAIL DR, SPRING, TX, 77388",96009111,"L"
205068,"414 ENGLEWOOD DR","MURPHY","TX",75094,33.031616737,-96.621198291,68,"414 ENGLEWOOD DR, MURPHY, TX, 75094","Match","Exact","414 ENGLEWOOD DR, MURPHY, TX, 75094",614185638,"L"
205069,"414 FAIRGROUND HEIGHTS","SHELBYVILLE","TN",37160,35.4829659050001,-86.4442908779999,69,"414 FAIRGROUND HEIGHTS, SHELBYVILLE, TN, 37160","Match","Exact","414 FAIRGROUND HTS, SHELBYVILLE, TN, 37160",58850116,"L"
205070,"414 FARMWOOD WAY","CANTON","GA",30115,34.226194934,-84.3389104779999,70,"414 FARMWOOD WAY, CANTON, GA, 30115","Match","Exact","414 FARMWOOD WAY, CANTON, GA, 30115",629557340,"R"
205071,"414 FENTON MILL RD","WILLIAMSBURG","VA",23188,37.3628969650001,-76.7383905899999,71,"414 FENTON MILL RD, WILLIAMSBURG, VA, 23188","Match","Exact","414 FENTON MILL RD, WILLIAMSBURG, VA, 23188",103792039,"R"
205072,"414 FLORIDA AVENUE NW SUITE A","WASHINGTON","DC",20001,38.914050011,-77.016705906,72,"414 FLORIDA AVENUE NW SUITE A, WASHINGTON, DC, 20001","Match","Exact","414 FLORIDA AVE NW, WASHINGTON, DC, 20001",638296331,"L"
205073,"414 FOURTH AVENUE","GALLOWAY","NJ",8205,39.4677007330001,-74.5069899489999,73,"414 FOURTH AVENUE, GALLOWAY, NJ, 8205","Match","Non_Exact","414 S 4TH AVE, GALLOWAY, NJ, 08205",202484750,"R"
205074,"414 GOLDENROD AVE","GADSDEN","AL",35901,34.038984779,-85.965721414,74,"414 GOLDENROD AVE, GADSDEN, AL, 35901","Match","Exact","414 GOLDENROD AVE, GADSDEN, AL, 35901",66772112,"L"
205075,"414 GRAND BOULEVARD","WARRINGTON","PA",18976,40.2481187750001,-75.1212420049999,75,"414 GRAND BOULEVARD, WARRINGTON, PA, 18976","Match","Exact","414 GRAND BLVD, WARRINGTON, PA, 18976",649172779,"R"
205076,"414 GREEN T LAKE E","HERNANDO","MS",38632,34.855106135,-89.98115151,76,"414 GREEN T LAKE E, HERNANDO, MS, 38632","Match","Non_Exact","414 GREEN T LAKE BLVD E, HERNANDO, MS, 38632",91828959,"L"
205077,"414 GUN CLUB RD","BOX SPRINGS","GA",31801,32.5708699780001,-84.5887574609999,77,"414 GUN CLUB RD, BOX SPRINGS, GA, 31801","Match","Exact","414 GUN CLUB RD, BOX SPRINGS, GA, 31801",648318871,"L"
205078,"414 HANOVER ROAD","BAINBRIDGE","GA",39817,30.958329581,-84.670866482,78,"414 HANOVER ROAD, BAINBRIDGE, GA, 39817","Match","Exact","414 HANOVER RD, BAINBRIDGE, GA, 39817",84288127,"R"
205079,"414 HAWTHORNE AVE","WILLIAMSPORT","PA",17701,41.2512566140001,-77.010003819,79,"414 HAWTHORNE AVE, WILLIAMSPORT, PA, 17701","Match","Exact","414 HAWTHORNE AVE, WILLIAMSPORT, PA, 17701",651778584,"R"
205080,"414 HAWTHORNE AVENUE","WILLIAMSPORT","PA",17701,41.2512566140001,-77.010003819,80,"414 HAWTHORNE AVENUE, WILLIAMSPORT, PA, 17701","Match","Exact","414 HAWTHORNE AVE, WILLIAMSPORT, PA, 17701",651778584,"R"
205081,"414 HENRY STREET APT 2","BROOKLYN","NY",11201,40.6870636720001,-73.9980214889999,81,"414 HENRY STREET APT 2, BROOKLYN, NY, 11201","Match","Exact","414 HENRY ST, BROOKLYN, NY, 11201",652209739,"R"
205082,"414 HENSON POINT","INVERNESS","FL",34450,28.8291966520001,-82.318321376,82,"414 HENSON POINT, INVERNESS, FL, 34450","Match","Exact","414 HENSON PT, INVERNESS, FL, 34450",86230604,"R"
205083,"414 HIGHLAND AVE","FORT MITCHELL","KY",41017,39.0344453810001,-84.546847602,83,"414 HIGHLAND AVE, FORT MITCHELL, KY, 41017","Match","Exact","414 HIGHLAND AVE, FORT MITCHELL, KY, 41017",103882057,"L"
205084,"414 HIGHWAY 90 E","LITTLE RIVER","SC",29566,33.862160895,-78.650001763,84,"414 HIGHWAY 90 E, LITTLE RIVER, SC, 29566","Match","Non_Exact","414 STATE HWY 90 E, LITTLE RIVER, SC, 29566",29083965,"R"
205085,"414 HORACE AVENUE NORTH","THIEF RIVER FALLS","MN",56701,48.1203705070001,-96.1784242319999,85,"414 HORACE AVENUE NORTH, THIEF RIVER FALLS, MN, 56701","Match","Exact","414 HORACE AVE N, THIEF RIVER FALLS, MN, 56701",176559787,"R"
205086,"414 HUDSON RD","BANGOR","ME",4401,44.8778398040001,-68.839079071,86,"414 HUDSON RD, BANGOR, ME, 4401","Match","Exact","414 HUDSON RD, BANGOR, ME, 04401",635471156,"L"
205087,"414 ISABELLA MANOR CT","CHESTERFIELD","MO",63017,38.663213898,-90.536436771,87,"414 ISABELLA MANOR CT, CHESTERFIELD, MO, 63017","Match","Exact","414 ISABELLA MANOR CT, CHESTERFIELD, MO, 63017",100197833,"L"
205088,"414 JEFFERSON DRIVE","LAKE CHARLES","LA",70605,30.1700260750001,-93.21694252,88,"414 JEFFERSON DRIVE, LAKE CHARLES, LA, 70605","Match","Exact","414 JEFFERSON DR, LAKE CHARLES, LA, 70605",88438453,"R"
205089,"414 KOA COURT","BEREA","KY",40403,37.5876065030001,-84.316559239,89,"414 KOA COURT, BEREA, KY, 40403","Match","Exact","414 KOA CT, BEREA, KY, 40403",231866171,"R"
205090,"414 LIGHT STREET  UNIT 3210","BALTIMORE","MD",21202,39.28405373,-76.613297195,90,"414 LIGHT STREET  UNIT 3210, BALTIMORE, MD, 21202","Match","Exact","414 LIGHT ST, BALTIMORE, MD, 21202",206449619,"L"
205091,"414 LINCOLN BOULEVARD","VENCE","CA",90291,34.0005544850001,-118.466204869,91,"414 LINCOLN BOULEVARD, VENCE, CA, 90291","Match","Non_Exact","414 LINCOLN BLVD, VENICE, CA, 90291",141569089,"L"
205092,"414 LINCOLN STREET","WATERTOWN","NY",13601,43.985075135,-75.8975151779999,92,"414 LINCOLN STREET, WATERTOWN, NY, 13601","Match","Exact","414 LINCOLN ST, WATERTOWN, NY, 13601",154245913,"L"
205093,"414 LONDON WAY","LITHIA SPRINGS","GA",30122,NA,NA,93,"414 LONDON WAY, LITHIA SPRINGS, GA, 30122","No_Match",NA,NA,NA,NA
205094,"414 MAGNOLIA ST","DENTON","TX",76201,33.2401210260001,-97.1367148639999,94,"414 MAGNOLIA ST, DENTON, TX, 76201","Match","Exact","414 MAGNOLIA ST, DENTON, TX, 76201",103338073,"L"
205095,"414 MAIN STREET 2ND FLOOR","IRWIN","PA",15642,40.331705436,-79.7110889369999,95,"414 MAIN STREET 2ND FLOOR, IRWIN, PA, 15642","Match","Exact","414 MAIN ST, IRWIN, PA, 15642",648081794,"R"
205096,"414 MAIN STREET","TOWER","MN",55790,47.8053016050001,-92.271652106,96,"414 MAIN STREET, TOWER, MN, 55790","Match","Exact","414 MAIN ST, TOWER, MN, 55790",163187395,"L"
205097,"414 MASON STREET 502","SAN FRANCISCO","CA",94102,37.787553121,-122.409946153,97,"414 MASON STREET 502, SAN FRANCISCO, CA, 94102","Match","Exact","414 MASON ST, SAN FRANCISCO, CA, 94102",192280958,"R"
205098,"414 MCCARRONS BLVD S","ROSEVILLE","MN",55113,44.9976531350001,-93.117786876,98,"414 MCCARRONS BLVD S, ROSEVILLE, MN, 55113","Match","Exact","414 MCCARRONS BLVD S, ROSEVILLE, MN, 55113",97643554,"L"
205099,"414 MEADOWBROOK LANE","WHEELING","IL",60090,42.1319919950001,-87.913676472,99,"414 MEADOWBROOK LANE, WHEELING, IL, 60090","Match","Exact","414 MEADOWBROOK LN, WHEELING, IL, 60090",111868883,"R"
205100,"414 MESA LILA ROAD","GLENDALE","CA",91208,34.2131162360001,-118.251119388,100,"414 MESA LILA ROAD, GLENDALE, CA, 91208","Match","Exact","414 MESA LILA RD, GLENDALE, CA, 91208",142834722,"R"
205101,"414 MORRIS AVENUE","BRONX","NY",10451,40.8155315590001,-73.9239244889999,101,"414 MORRIS AVENUE, BRONX, NY, 10451","Match","Exact","414 MORRIS AVE, BRONX, NY, 10451",650120721,"R"
205102,"414 N 46TH ST UPPER","SEATTLE","WA",98103,47.662141847,-122.353728004,102,"414 N 46TH ST UPPER, SEATTLE, WA, 98103","Match","Non_Exact","414 N 46TH ST, SEATTLE, WA, 98103",186581365,"L"
205103,"414 N CAMDEN DR    8TH FLOOR","BEVERLY HILLS","CA",90210,34.0687931190001,-118.404237371,103,"414 N CAMDEN DR    8TH FLOOR, BEVERLY HILLS, CA, 90210","Match","Non_Exact","414 N CAMDEN DR, BEVERLY HILLS, CA, 90210",141571560,"R"
205104,"414 N CAMDEN SUITE 1200","BEVERLY HILLS","CA",90210,NA,NA,104,"414 N CAMDEN SUITE 1200, BEVERLY HILLS, CA, 90210","No_Match",NA,NA,NA,NA
205105,"414 N DREW ST","MESA","AZ",85201,33.4224542750001,-111.832678043,105,"414 N DREW ST, MESA, AZ, 85201","Match","Exact","414 N DREW ST, MESA, AZ, 85201",128235034,"L"
205106,"414 N FOREST PARK BLVD APT 417","KNOXVILLE","TN",37919,35.943196519,-83.984200027,106,"414 N FOREST PARK BLVD APT 417, KNOXVILLE, TN, 37919","Match","Non_Exact","414 N FOREST PARK BLVD, KNOXVILLE, TN, 37919",42614343,"R"
205107,"414 N MAGNOLIA AVE","EL CAJON","CA",92020,32.799583797,-116.962353962,107,"414 N MAGNOLIA AVE, EL CAJON, CA, 92020","Match","Exact","414 N MAGNOLIA AVE, EL CAJON, CA, 92020",195329012,"L"
205108,"414 N MAIN STREET","THIENSVILLE","WI",53092,43.237923482,-87.984887456,108,"414 N MAIN STREET, THIENSVILLE, WI, 53092","Match","Exact","414 N MAIN ST, THIENSVILLE, WI, 53092",95900861,"R"
205109,"414 N ORANGE STREET","PERRY","FL",32347,30.1197270850001,-83.5801915929999,109,"414 N ORANGE STREET, PERRY, FL, 32347","Match","Exact","414 N ORANGE ST, PERRY, FL, 32347",53965108,"R"
205110,"414 N RIVER LN UNIT C","GENEVA","IL",60134,NA,NA,110,"414 N RIVER LN UNIT C, GENEVA, IL, 60134","Tie",NA,NA,NA,NA
205111,"414 N SCHOOL ST","AMANDA","OH",43102,39.6515885790001,-82.741345612,111,"414 N SCHOOL ST, AMANDA, OH, 43102","Match","Exact","414 N SCHOOL ST, AMANDA, OH, 43102",635873377,"R"
205112,"414 NE EVANS ST","MCMINNVILLE","OR",97128,45.21087499,-123.194463491,112,"414 NE EVANS ST, MCMINNVILLE, OR, 97128","Match","Exact","414 NE EVANS ST, MCMINNVILLE, OR, 97128",156493847,"R"
205113,"414 NE MEDFORD DR","LEES SUMMIT","MO",64064,38.9871804650001,-94.367774265,113,"414 NE MEDFORD DR, LEES SUMMIT, MO, 64064","Match","Exact","414 MEDFORD DR, LEES SUMMIT, MO, 64064",91488986,"L"
205114,"414 NORTH FOREST PARK BLVD APT 818","KNOXVILLE","TN",37919,35.943194428,-83.984198622,114,"414 NORTH FOREST PARK BLVD APT 818, KNOXVILLE, TN, 37919","Match","Exact","414 N FOREST PARK BLVD, KNOXVILLE, TN, 37919",42614343,"R"
205115,"414 NORTH LINCOLN STE 1","JEROME","ID",83338,42.727124008,-114.518463952,115,"414 NORTH LINCOLN STE 1, JEROME, ID, 83338","Match","Non_Exact","414 N LINCOLN AVE, JEROME, ID, 83338",105467959,"R"
205116,"414 NORTH MAIN STREET","LA MONTE","MO",65337,38.7786391020001,-93.424248013,116,"414 NORTH MAIN STREET, LA MONTE, MO, 65337","Match","Exact","414 N MAIN ST, LA MONTE, MO, 65337",54739724,"R"
205117,"414 NORTH STATE STREET","ABERDEEN","SD",57401,45.4701512070001,-98.47931167,117,"414 NORTH STATE STREET, ABERDEEN, SD, 57401","Match","Exact","414 N STATE ST, ABERDEEN, SD, 57401",200795325,"R"
205118,"414 NW 35TH ST","BOCA RATON","FL",33431,26.3811108360001,-80.0912729149999,118,"414 NW 35TH ST, BOCA RATON, FL, 33431","Match","Exact","414 NW 35TH ST, BOCA RATON, FL, 33431",115575434,"L"
205119,"414 OLD HARD ROAD SUITE 201","FLEMING ISLAND","FL",32003,30.084134987,-81.716282574,119,"414 OLD HARD ROAD SUITE 201, FLEMING ISLAND, FL, 32003","Match","Non_Exact","414 OLD HARD RD, FLEMING ISLAND, FL, 32003",606192816,"R"
205120,"414 OLD WHITFIELD ROAD","PEARL","MS",39208,32.2538647280001,-90.1206767199999,120,"414 OLD WHITFIELD ROAD, PEARL, MS, 39208","Match","Exact","414 OLD WHITFIELD RD, PEARL, MS, 39208",116911262,"R"
205121,"414 OYSTER CREEK VILLAGE DR","MISSOURI CITY","TX",77459,29.5471977220001,-95.5474391719999,121,"414 OYSTER CREEK VILLAGE DR, MISSOURI CITY, TX, 77459","Match","Exact","414 OYSTER CREEK VILLAGE DR, MISSOURI CITY, TX, 77459",78290771,"L"
205122,"414 PENDLETON WAY SUITE 5","OAKLAND","CA",94621,37.736071483,-122.200193553,122,"414 PENDLETON WAY SUITE 5, OAKLAND, CA, 94621","Match","Exact","414 PENDLETON WAY, OAKLAND, CA, 94621",125008349,"L"
205123,"414 PENN ROAD","WYNNEWOOD","PA",19096,40.0107200890001,-75.274247977,123,"414 PENN ROAD, WYNNEWOOD, PA, 19096","Match","Exact","414 PENN RD, WYNNEWOOD, PA, 19096",135087671,"L"
205124,"414 PINE CREEK RD","EXTON","PA",19341,40.058492168,-75.6250482949999,124,"414 PINE CREEK RD, EXTON, PA, 19341","Match","Exact","414 PINE CREEK RD, EXTON, PA, 19341",179512614,"R"
205125,"414 PINE GROVE AVENUE","GURNEE","IL",60031,42.3654033010001,-87.8910995529999,125,"414 PINE GROVE AVENUE, GURNEE, IL, 60031","Match","Exact","414 PINE GROVE AVE, GURNEE, IL, 60031",640088722,"L"
205126,"414 PLUSH MILL ROAD","WALLINGFORD","PA",19086,39.909126148,-75.3656096559999,126,"414 PLUSH MILL ROAD, WALLINGFORD, PA, 19086","Match","Exact","414 PLUSH MILL RD, WALLINGFORD, PA, 19086",134903738,"R"
205127,"414 PORTER AVENUE","BUFFALO","NY",14213,42.9028423010001,-78.887269364,127,"414 PORTER AVENUE, BUFFALO, NY, 14213","Match","Non_Exact","414 PORTER AVE, BUFFALO, NY, 14201",48290244,"L"
205128,"414 PRINCESS DRIVE","CANTON","MI",48188,42.3051579770001,-83.462900045,128,"414 PRINCESS DRIVE, CANTON, MI, 48188","Match","Exact","414 PRINCESS DR, CANTON, MI, 48188",95500287,"R"
205129,"414 RAINBOW LANE SUITE 4","MAMMOTH LAKES","CA",93546,37.645683396,-118.99990331,129,"414 RAINBOW LANE SUITE 4, MAMMOTH LAKES, CA, 93546","Match","Exact","414 RAINBOW LN, MAMMOTH LAKES, CA, 93546",650095049,"L"
205130,"414 RANDALL AVE","DE PERE","WI",54115,44.457134749,-88.056695597,130,"414 RANDALL AVE, DE PERE, WI, 54115","Match","Exact","414 RANDALL AVE, DE PERE, WI, 54115",148101216,"R"
205131,"414 RISTROPH ST","LULING","LA",70070,29.931703596,-90.367506323,131,"414 RISTROPH ST, LULING, LA, 70070","Match","Exact","414 RISTROPH ST, LULING, LA, 70070",93618104,"L"
205132,"414 RIVER VIEW PLAZA","TRENTON","NJ",8611,NA,NA,132,"414 RIVER VIEW PLAZA, TRENTON, NJ, 8611","No_Match",NA,NA,NA,NA
205133,"414 RIVERCHASE TRAIL","HOOVER","AL",35244,33.3540791140001,-86.7891296449999,133,"414 RIVERCHASE TRAIL, HOOVER, AL, 35244","Match","Exact","414 RIVERCHASE TRL, HOOVER, AL, 35244",627297792,"L"
205134,"414 ROARING BROOK ROAD","CHAPPAQUA","NY",10514,41.1812569040001,-73.772415999,134,"414 ROARING BROOK ROAD, CHAPPAQUA, NY, 10514","Match","Exact","414 ROARING BROOK RD, CHAPPAQUA, NY, 10514",139729674,"R"
205135,"414 RODNEY STREET","PENSACOLA","FL",32534,30.5662107700001,-87.27120712,135,"414 RODNEY STREET, PENSACOLA, FL, 32534","Match","Exact","414 RODNEY ST, PENSACOLA, FL, 32534",93210687,"R"
205136,"414 S 4TH AVENUE","GALLOWAY","NJ",8205,39.4677007330001,-74.5069899489999,136,"414 S 4TH AVENUE, GALLOWAY, NJ, 8205","Match","Exact","414 S 4TH AVE, GALLOWAY, NJ, 08205",202484750,"R"
205137,"414 S ARDMORE AVE APT 303","LOS ANGELES","CA",90020,34.0668333890001,-118.301586409,137,"414 S ARDMORE AVE APT 303, LOS ANGELES, CA, 90020","Match","Non_Exact","414 S ARDMORE AVE, LOS ANGELES, CA, 90020",141603862,"L"
205138,"414 S AVENUE F","CROWLEY","LA",70526,NA,NA,138,"414 S AVENUE F, CROWLEY, LA, 70526","Tie",NA,NA,NA,NA
205139,"414 S BACHER STREET","BUNNELL","FL",32110,29.467204909,-81.2519083239999,139,"414 S BACHER STREET, BUNNELL, FL, 32110","Match","Exact","414 S BACHER ST, BUNNELL, FL, 32110",94941604,"R"
205140,"414 S BLACKSTONE ST","JACKSON","MI",49201,42.244496557,-84.411775313,140,"414 S BLACKSTONE ST, JACKSON, MI, 49201","Match","Exact","414 S BLACKSTONE ST, JACKSON, MI, 49201",17616864,"R"
205141,"414 S DOGWOOD DR","BEREA","KY",40403,37.5612042600001,-84.3184140929999,141,"414 S DOGWOOD DR, BEREA, KY, 40403","Match","Exact","414 S DOGWOOD DR, BEREA, KY, 40403",31988556,"L"
205142,"414 S EDENTON ROAD STREET","HERTFORD","NC",27944,36.1824820860001,-76.475220534,142,"414 S EDENTON ROAD STREET, HERTFORD, NC, 27944","Match","Exact","414 S EDENTON ROAD ST, HERTFORD, NC, 27944",617257171,"L"
205143,"414 S MAIN ST UNIT E","SHERIDAN","IN",46069,40.135069979,-86.22062848,143,"414 S MAIN ST UNIT E, SHERIDAN, IN, 46069","Match","Non_Exact","414 S MAIN ST, SHERIDAN, IN, 46069",29288222,"L"
205144,"414 S MAIN ST","AUBURN","IN",46706,41.3651831810001,-85.055782709,144,"414 S MAIN ST, AUBURN, IN, 46706","Match","Exact","414 MAIN ST, AUBURN, IN, 46706",6515050,"R"
205145,"414 S MAPLE ST","LANCASTER","OH",43130,39.709367258,-82.5939577569999,145,"414 S MAPLE ST, LANCASTER, OH, 43130","Match","Exact","414 S MAPLE ST, LANCASTER, OH, 43130",37241970,"R"
205146,"414 S MERCER AVE","COVINGTON","VA",24426,37.7897580000001,-79.985721545,146,"414 S MERCER AVE, COVINGTON, VA, 24426","Match","Exact","414 S MERCER AVE, COVINGTON, VA, 24426",62548495,"L"
205147,"414 S PARLIAMENT DRIVE","VIRGINIA BEACH","VA",23462,36.8287145,-76.168846878,147,"414 S PARLIAMENT DRIVE, VIRGINIA BEACH, VA, 23462","Match","Exact","414 S PARLIAMENT DR, VA BCH, VA, 23462",122296068,"L"
205148,"414 S POLK STREET","AMARILLO","TX",79101,35.2094530200001,-101.83658859,148,"414 S POLK STREET, AMARILLO, TX, 79101","Match","Exact","414 S POLK ST, AMARILLO, TX, 79101",182472198,"R"
205149,"414 S SERVICE ROAD 364","PATCHOGUE","NY",11705,NA,NA,149,"414 S SERVICE ROAD 364, PATCHOGUE, NY, 11705","No_Match",NA,NA,NA,NA
205150,"414 SE 71ST PLACE","HILLSBORO","OR",97123,45.516735285,-122.906642686,150,"414 SE 71ST PLACE, HILLSBORO, OR, 97123","Match","Exact","414 SE 71ST PL, HILLSBORO, OR, 97123",158219635,"R"
205151,"414 SOUTH PULASKI SUITE 2","LITTLE ROCK","AR",72201,34.746901655,-92.285221532,151,"414 SOUTH PULASKI SUITE 2, LITTLE ROCK, AR, 72201","Match","Non_Exact","414 S PULASKI ST, LITTLE ROCK, AR, 72201",83510143,"R"
205152,"414 SPRING TRACE CT","GIYSTIB","TX",77094,29.7798289040001,-95.700437014,152,"414 SPRING TRACE CT, GIYSTIB, TX, 77094","Match","Non_Exact","414 SPRING TRACE CT, HOUSTON, TX, 77094",233480035,"L"
205153,"414 STONEWALL RD","CONCORD","VA",24538,37.355209372,-78.9761411439999,153,"414 STONEWALL RD, CONCORD, VA, 24538","Match","Exact","414 STONEWALL RD, CONCORD, VA, 24538",644908990,"R"
205154,"414 STUDEBAKER SPUR 2","CASTLE ROCK","WA",98611,46.3078052590001,-122.888811645,154,"414 STUDEBAKER SPUR 2, CASTLE ROCK, WA, 98611","Match","Exact","414 STUDEBAKER SPUR 2, CASTLE ROCK, WA, 98611",184494018,"L"
205155,"414 SW 140TH TERRACE SUITE 100","NEWBERRY","FL",32669,29.650546358,-82.492279135,155,"414 SW 140TH TERRACE SUITE 100, NEWBERRY, FL, 32669","Match","Non_Exact","414 SW 140 TER, NEWBERRY, FL, 32669",646102110,"R"
205156,"414 SWAN STREET","BUFFALO","NY",14204,42.8791927450001,-78.86031159,156,"414 SWAN STREET, BUFFALO, NY, 14204","Match","Exact","414 SWAN ST, BUFFALO, NY, 14204",48291644,"L"
205157,"414 THIRD STREET  NUMBER 1","BROOKLYN","NY",11215,40.67189862,-73.981433292,157,"414 THIRD STREET  NUMBER 1, BROOKLYN, NY, 11215","Match","Exact","414 3RD ST, BROOKLYN, NY, 11215",59078106,"R"
205158,"414 THIRD STREET","WALLACE","ID",83873,47.4719337010001,-115.928483151,158,"414 THIRD STREET, WALLACE, ID, 83873","Match","Exact","414 3RD ST, WALLACE, ID, 83873",203544291,"L"
205159,"414 TIGER DRIVE","PIGEON FORGE","TN",37863,NA,NA,159,"414 TIGER DRIVE, PIGEON FORGE, TN, 37863","No_Match",NA,NA,NA,NA
205160,"414 TRENTON TERRACE","MT LAUREL","NJ",8054,39.9173915630001,-74.917078008,160,"414 TRENTON TERRACE, MT LAUREL, NJ, 8054","Match","Exact","414 TRENTON TER, MOUNT LAUREL, NJ, 08054",134036642,"R"
205161,"414 VALLEY COVE DRIVE","RICHARDSON","TX",75080,32.9933090270001,-96.721530537,161,"414 VALLEY COVE DRIVE, RICHARDSON, TX, 75080","Match","Exact","414 VALLEY COVE DR, RICHARDSON, TX, 75080",210521908,"R"
205162,"414 W BROAD ST","BETHLEHEM","PA",18018,40.6224597040001,-75.388423609,162,"414 W BROAD ST, BETHLEHEM, PA, 18018","Match","Exact","414 W BROAD ST, BETHLEHEM, PA, 18018",80775939,"R"
205163,"414 W JOHANNA ST","AUSTIN","TX",78704,30.245240251,-97.755128589,163,"414 W JOHANNA ST, AUSTIN, TX, 78704","Match","Non_Exact","414 JOHANNA ST W, AUSTIN, TX, 78704",64015885,"R"
205164,"414 W WEATHERBY PLACE","CHANDLER","AZ",85286,33.278008954,-111.847193507,164,"414 W WEATHERBY PLACE, CHANDLER, AZ, 85286","Match","Exact","414 W WEATHERBY PL, CHANDLER, AZ, 85286",128822525,"L"
205165,"414 WARICK ROAD","WYNNEWOOD","PA",19096,39.9922260170001,-75.2735782359999,165,"414 WARICK ROAD, WYNNEWOOD, PA, 19096","Match","Exact","414 WARICK RD, WYNNEWOOD, PA, 19096",135105922,"L"
205166,"414 WARREN AVE","NORMAL","IL",61761,40.5285687420001,-88.9920205449999,166,"414 WARREN AVE, NORMAL, IL, 61761","Match","Exact","414 WARREN AVE, NORMAL, IL, 61761",20543998,"R"
205167,"414 WATER STREET UNIT 2909","BALTIMORE","MD",21202,39.2886031290001,-76.609568908,167,"414 WATER STREET UNIT 2909, BALTIMORE, MD, 21202","Match","Exact","414 WATER ST, BALTIMORE, MD, 21202",206420850,"L"
205168,"414 WEST 7TH AVENUE","COLUMBUS","OH",43201,39.9895449380001,-83.016866465,168,"414 WEST 7TH AVENUE, COLUMBUS, OH, 43201","Match","Exact","414 W 7TH AVE, COLUMBUS, OH, 43201",218650972,"R"
205169,"414 WEST NAPA STREET SUITE 404","SONOMA","CA",95476,38.2927451670001,-122.466183578,169,"414 WEST NAPA STREET SUITE 404, SONOMA, CA, 95476","Match","Exact","414 W NAPA ST, SONOMA, CA, 95476",67481621,"R"
205170,"414 WEST NORTH AVENUE","PITTSBURGH","PA",15212,40.454684743,-80.010796565,170,"414 WEST NORTH AVENUE, PITTSBURGH, PA, 15212","Match","Exact","414 W NORTH AVE, PITTSBURGH, PA, 15212",51626664,"R"
205171,"414 WINFIELD CT","SERGEANT BLUFF","IA",51054,42.388954966,-96.357425805,171,"414 WINFIELD CT, SERGEANT BLUFF, IA, 51054","Match","Exact","414 WINFIELD CT, SERGEANT BLUFF, IA, 51054",93433617,"R"
205172,"414 YERGER RD","LINDEN","PA",17744,NA,NA,172,"414 YERGER RD, LINDEN, PA, 17744","No_Match",NA,NA,NA,NA
205173,"4140 31ST ST S","ST PETERSBURG","FL",33712,27.7305289820001,-82.675170379,173,"4140 31ST ST S, ST PETERSBURG, FL, 33712","Match","Exact","4140 31ST ST S, SAINT PETERSBURG, FL, 33712",124709985,"L"
205174,"4140 65TH STREET","HOLLAND","MI",49423,42.7213996950001,-86.185391555,174,"4140 65TH STREET, HOLLAND, MI, 49423","Match","Exact","4140 65TH ST, HOLLAND, MI, 49423",11422482,"L"
205175,"4140 ARROYO WILLOW LANE","CALABASAS","CA",91301,34.1354589600001,-118.708539987,175,"4140 ARROYO WILLOW LANE, CALABASAS, CA, 91301","Match","Exact","4140 ARROYO WILLOW LN, CALABASAS, CA, 91301",141798439,"R"
205176,"4140 BORDEAUX DRIVE","KENNER","LA",70065,30.035976588,-90.259492843,176,"4140 BORDEAUX DRIVE, KENNER, LA, 70065","Match","Exact","4140 BORDEAUX DR, KENNER, LA, 70065",93492537,"R"
205177,"4140 CAMBRIDGE ST","KANSAS CITY","KS",66103,39.0523015680001,-94.608356004,177,"4140 CAMBRIDGE ST, KANSAS CITY, KS, 66103","Match","Exact","4140 CAMBRIDGE ST, KANSAS CITY, KS, 66103",653243322,"R"
205178,"4140 CENTENNIAL HILLS BLVD SUITE C","CASPER","WY",82609,NA,NA,178,"4140 CENTENNIAL HILLS BLVD SUITE C, CASPER, WY, 82609","No_Match",NA,NA,NA,NA
205179,"4140 DRANE FIELD ROAD","LAKELAND","FL",33811,27.9966142540001,-82.030246596,179,"4140 DRANE FIELD ROAD, LAKELAND, FL, 33811","Match","Exact","4140 DRANE FIELD RD, LAKELAND, FL, 33811",651731388,"L"
205180,"4140 E BASELINE RD STE101","MESA","AZ",85206,33.379188013,-111.745044016,180,"4140 E BASELINE RD STE101, MESA, AZ, 85206","Match","Non_Exact","4140 E BASELINE RD, MESA, AZ, 85206",128845462,"L"
205181,"4140 EAST PORTER RD","FRUITPORT","MI",49415,43.1575727360001,-86.142103549,181,"4140 EAST PORTER RD, FRUITPORT, MI, 49415","Match","Non_Exact","4140 PORTER RD, FRUITPORT, MI, 49415",77658019,"R"
205182,"4140 ELMER AVENUE","STUDIO CITY","CA",91602,34.143750912,-118.376779583,182,"4140 ELMER AVENUE, STUDIO CITY, CA, 91602","Match","Exact","4140 ELMER AVE, STUDIO CITY, CA, 91602",141566040,"R"
205183,"4140 FALLING WATER COURT","FLOWERY BRANCH","GA",30542,34.203972155,-83.849000098,183,"4140 FALLING WATER COURT, FLOWERY BRANCH, GA, 30542","Match","Exact","4140 FALLING WATER CT, FLOWERY BR, GA, 30542",618457156,"R"
205184,"4140 FOOTHILL RD","PLEASANTON","CA",94588,37.6699282910001,-121.919376035,184,"4140 FOOTHILL RD, PLEASANTON, CA, 94588","Match","Exact","4140 FOOTHILL RD, PLEASANTON, CA, 94588",125084080,"L"
205185,"4140 HILLSIDE DRIVE","NORTH LITTLE ROCK","AR",72118,34.793137469,-92.266867981,185,"4140 HILLSIDE DRIVE, NORTH LITTLE ROCK, AR, 72118","Match","Exact","4140 HILLSIDE DR, N LITTLE ROCK, AR, 72118",83508307,"R"
205186,"4140 HUCKLEBERRY DRIVE","FORT WORTH","TX",76137,32.8807108170001,-97.2971598999999,186,"4140 HUCKLEBERRY DRIVE, FORT WORTH, TX, 76137","Match","Exact","4140 HUCKLEBERRY DR, FORT WORTH, TX, 76137",101854326,"R"
205187,"4140 HUTCHINSON RIVER PKWY E  3 FL","BRONX","NY",10475,40.8641677040001,-73.824778664,187,"4140 HUTCHINSON RIVER PKWY E  3 FL, BRONX, NY, 10475","Match","Exact","4140 HUTCHINSON RIVER PKWY E, BRONX, NY, 10475",609509340,"R"
205188,"4140 JONESBORO ROAD SUITE D4","FOREST PARK","GA",30297,33.6410010180001,-84.3619994379999,188,"4140 JONESBORO ROAD SUITE D4, FOREST PARK, GA, 30297","Match","Exact","4140 JONESBORO RD, FOREST PARK, GA, 30297",651791142,"L"
205189,"4140 LAC ST PIERRE DRIVE","HARVEY","LA",70058,29.846771323,-90.043501708,189,"4140 LAC ST PIERRE DRIVE, HARVEY, LA, 70058","Match","Exact","4140 LAC ST PIERRE DR, HARVEY, LA, 70058",93544432,"L"
205190,"4140 MORENO DRIVE","PALM HARBOR","FL",34685,28.130123762,-82.7091124679999,190,"4140 MORENO DRIVE, PALM HARBOR, FL, 34685","Match","Exact","4140 MORENO DR, PALM HARBOR, FL, 34685",124759989,"R"
205191,"4140 N 16TH STREET","MILWAUKEE","WI",53209,43.092420292,-87.930685365,191,"4140 N 16TH STREET, MILWAUKEE, WI, 53209","Match","Exact","4140 N 16TH ST, MILWAUKEE, WI, 53209",77738644,"R"
205192,"4140 N CENTRAL AVE UNIT 1136","PHOENIX","AZ",85012,33.4959442030001,-112.073785104,192,"4140 N CENTRAL AVE UNIT 1136, PHOENIX, AZ, 85012","Match","Non_Exact","4140 N CENTRAL AVE, PHOENIX, AZ, 85012",612930602,"L"
205193,"4140 NW 2ND AVENUE","BOCA RATON","FL",33431,26.3872674400001,-80.084991454,193,"4140 NW 2ND AVENUE, BOCA RATON, FL, 33431","Match","Exact","4140 NW 2ND AVE, BOCA RATON, FL, 33431",115293446,"R"
205194,"4140 NW 37TH PLACE SUITE A","GAINESVILLE","FL",32606,29.687525093,-82.3873040889999,194,"4140 NW 37TH PLACE SUITE A, GAINESVILLE, FL, 32606","Match","Non_Exact","4140 NW 37TH PL, GAINESVILLE, FL, 32606",6877735,"L"
205195,"4140 PLAIN VIEW HWY","DUNN","NC",28334,35.2348995580001,-78.540208697,195,"4140 PLAIN VIEW HWY, DUNN, NC, 28334","Match","Exact","4140 PLAIN VIEW HWY, DUNN, NC, 28334",14246186,"R"
205196,"4140 RALEIGH LAGRANGE DR","ROSSVILLE","TN",38066,35.102561317,-89.596810198,196,"4140 RALEIGH LAGRANGE DR, ROSSVILLE, TN, 38066","Match","Exact","4140 RALEIGH LAGRANGE DR, ROSSVILLE, TN, 38066",635376344,"L"
205197,"4140 ROLAND AVE","BALTIMORE","MD",21211,39.3392358400001,-76.6336986909999,197,"4140 ROLAND AVE, BALTIMORE, MD, 21211","Match","Exact","4140 ROLAND AVE, BALTIMORE, MD, 21211",651575664,"L"
205198,"4140 SKYWAY AVENUE","NORTH PORT","FL",34288,27.0680805810001,-82.110952615,198,"4140 SKYWAY AVENUE, NORTH PORT, FL, 34288","Match","Exact","4140 SKYWAY AVE, NORTH PORT, FL, 34288",16344158,"L"
205199,"4140 STIRLING STREET","PHILADELPHIA","PA",19135,40.0267508900001,-75.0582275369999,199,"4140 STIRLING STREET, PHILADELPHIA, PA, 19135","Match","Exact","4140 STIRLING ST, PHILADELPHIA, PA, 19135",131434878,"R"
205200,"4140 TURNBRIDGE DR","SACRAMENTO","CA",95823,38.501181085,-121.459141217,200,"4140 TURNBRIDGE DR, SACRAMENTO, CA, 95823","Match","Exact","4140 TURNBRIDGE DR, SACRAMENTO, CA, 95823",133351399,"R"
205201,"4140 TURNERS BND","GOODLETTSVILLE","TN",37072,36.426341893,-86.699676176,201,"4140 TURNERS BND, GOODLETTSVILLE, TN, 37072","Match","Exact","4140 TURNERS BEND, GOODLETTSVILLE, TN, 37072",97451675,"L"
205202,"4140 VAN NESS AVE","ROUND ROCK","TX",78681,30.5674956170001,-97.745448104,202,"4140 VAN NESS AVE, ROUND ROCK, TX, 78681","Match","Exact","4140 VAN NESS AVE, ROUND ROCK, TX, 78681",648535862,"L"
205203,"4140 WEST PEUTZ ROAD","FRANKLIN","WI",53132,42.88745106,-87.972068188,203,"4140 WEST PEUTZ ROAD, FRANKLIN, WI, 53132","Match","Non_Exact","4140 W PUETZ RD, FRANKLIN, WI, 53132",77766040,"R"
205204,"4140 WORKMAN MILL RD UNIT 235","WHITTIER","CA",90601,34.0149049890001,-118.044632773,204,"4140 WORKMAN MILL RD UNIT 235, WHITTIER, CA, 90601","Match","Exact","4140 WORKMAN MILL RD, WHITTIER, CA, 90601",142850945,"L"
205205,"4140 WORKMAN MILL ROAD NO 72","WHITTIER","CA",90601,34.0149049890001,-118.044632773,205,"4140 WORKMAN MILL ROAD NO 72, WHITTIER, CA, 90601","Match","Non_Exact","4140 WORKMAN MILL RD, WHITTIER, CA, 90601",142850945,"L"
205206,"41400 GREENBRIAR LANE","PLYMOUTH","MI",48170,42.3902071540001,-83.450347748,206,"41400 GREENBRIAR LANE, PLYMOUTH, MI, 48170","Match","Exact","41400 GREENBRIAR LN, PLYMOUTH, MI, 48170",95410580,"R"
205207,"4141 11TH AVENUE A","MOLINE","IL",61265,NA,NA,207,"4141 11TH AVENUE A, MOLINE, IL, 61265","Tie",NA,NA,NA,NA
205208,"4141 28TH AVENUE S","FARGO","ND",58104,46.838286329,-96.849999032,208,"4141 28TH AVENUE S, FARGO, ND, 58104","Match","Exact","4141 28 AVE S, FARGO, ND, 58104",618487028,"R"
205209,"4141 38TH STREET SOUTH SUITE E1","FARGO","ND",58104,46.815631608,-96.84026117,209,"4141 38TH STREET SOUTH SUITE E1, FARGO, ND, 58104","Match","Exact","4141 38TH ST S, FARGO, ND, 58104",151466829,"L"
205210,"4141 63RD STREET","SACRAMENTO","CA",95820,38.537565796,-121.431086826,210,"4141 63RD STREET, SACRAMENTO, CA, 95820","Match","Exact","4141 63RD ST, SACRAMENTO, CA, 95820",133409900,"L"
205211,"4141 76TH ST APT 1G","WOODSIDE","NY",11373,NA,NA,211,"4141 76TH ST APT 1G, WOODSIDE, NY, 11373","No_Match",NA,NA,NA,NA
205212,"4141 ASHLEYTOWN LANE","CHARLOTTE","NC",28270,35.074693385,-80.77196341,212,"4141 ASHLEYTOWN LANE, CHARLOTTE, NC, 28270","Match","Exact","4141 ASHLEYTOWN LN, CHARLOTTE, NC, 28270",70513684,"L"
205213,"4141 ASHTON CLUB DRIVE","LAKE WALES","FL",33859,27.9551211950001,-81.650167497,213,"4141 ASHTON CLUB DRIVE, LAKE WALES, FL, 33859","Match","Exact","4141 ASHTON CLUB DR, LAKE WALES, FL, 33859",614466073,"R"
205214,"4141 BAILEY RD","PEARLAND","TX",77584,NA,NA,214,"4141 BAILEY RD, PEARLAND, TX, 77584","No_Match",NA,NA,NA,NA
205215,"4141 BAYMAR DR","YOUNGSTOWN","OH",44511,41.0583950810001,-80.704114478,215,"4141 BAYMAR DR, YOUNGSTOWN, OH, 44511","Match","Exact","4141 BAYMAR DR, YOUNGSTOWN, OH, 44511",64606903,"R"
205216,"4141 BROOKS MILL DRIVE","LITHONIA","GA",30038,33.6583874090001,-84.151779613,216,"4141 BROOKS MILL DRIVE, LITHONIA, GA, 30038","Match","Exact","4141 BROOKS MILL DR, LITHONIA, GA, 30038",23397733,"R"
205217,"4141 BUENA VISTA AVENUE","BALTIMORE","MD",21211,39.337461537,-76.641264656,217,"4141 BUENA VISTA AVENUE, BALTIMORE, MD, 21211","Match","Exact","4141 BUENA VISTA AVE, BALTIMORE, MD, 21211",206407270,"R"
205218,"4141 CANYONSIDE CIR","RIVERSIDE","CA",92509,34.0008419700001,-117.433778544,218,"4141 CANYONSIDE CIR, RIVERSIDE, CA, 92509","Match","Exact","4141 CANYONSIDE CIR, RIVERSIDE, CA, 92509",194828666,"L"
205219,"4141 CENTRAL AVENUE NE NO 207","COLUMBIA HEIGHTS","MN",55421,NA,NA,219,"4141 CENTRAL AVENUE NE NO 207, COLUMBIA HEIGHTS, MN, 55421","No_Match",NA,NA,NA,NA
205220,"4141 DEEP CREEK ROAD SPC 139","FREMONT","CA",94555,37.578747032,-122.051338987,220,"4141 DEEP CREEK ROAD SPC 139, FREMONT, CA, 94555","Match","Exact","4141 DEEP CREEK RD, FREMONT, CA, 94555",125026638,"R"
205221,"4141 DEER XING","EDMOND","OK",73025,35.748338446,-97.5367015589999,221,"4141 DEER XING, EDMOND, OK, 73025","Match","Exact","4141 DEER CROSSING, EDMOND, OK, 73025",121978370,"R"
205222,"4141 DUNDEE AVE APT B","COLUMBUS","OH",43227,39.9416907940001,-82.883684692,222,"4141 DUNDEE AVE APT B, COLUMBUS, OH, 43227","Match","Exact","4141 DUNDEE AVE, COLUMBUS, OH, 43227",135593285,"R"
205223,"4141 E DICKENSON PLACE","DENVER","CO",80222,39.671892159,-104.939200948,223,"4141 E DICKENSON PLACE, DENVER, CO, 80222","Match","Exact","4141 E DICKENSON PL, DENVER, CO, 80222",177340915,"L"
205224,"4141 EL CAMINO REAL","PALO ALTO","CA",94306,37.4126334790001,-122.124967864,224,"4141 EL CAMINO REAL, PALO ALTO, CA, 94306","Match","Exact","4141 EL CAMINO REAL, PALO ALTO, CA, 94306",614054399,"R"
205225,"4141 FRISCO GREEN 139","FRISCO","TX",75034,33.112507502,-96.828485106,225,"4141 FRISCO GREEN 139, FRISCO, TX, 75034","Match","Non_Exact","4141 FRISCO GREEN AVE, FRISCO, TX, 75034",649229278,"R"
205226,"4141 FRISCO GREEN AVENUE APT 436","FRISCO","TX",75034,33.112507502,-96.828485106,226,"4141 FRISCO GREEN AVENUE APT 436, FRISCO, TX, 75034","Match","Exact","4141 FRISCO GREEN AVE, FRISCO, TX, 75034",649229278,"R"
205227,"4141 HORIZON N PARKWAY 331","DALLAS","TX",75287,33.014899111,-96.8411404189999,227,"4141 HORIZON N PARKWAY 331, DALLAS, TX, 75287","Match","Exact","4141 HORIZON NORTH PKWY, DALLAS, TX, 75287",210492393,"L"
205228,"4141 HULL ROAD","LESLIE","MI",49251,42.461701652,-84.4431327249999,228,"4141 HULL ROAD, LESLIE, MI, 49251","Match","Non_Exact","4141 S HULL RD, LESLIE, MI, 49251",17522081,"L"
205229,"4141 HWY 11","RISING FAWN","GA",30738,34.7620983800001,-85.531593157,229,"4141 HWY 11, RISING FAWN, GA, 30738","Match","Non_Exact","4141 US HWY 11, RISING FAWN, GA, 30738",79398047,"L"
205230,"4141 N 73RD ST","MILWAUKEE","WI",53216,43.092577813,-88.003054939,230,"4141 N 73RD ST, MILWAUKEE, WI, 53216","Match","Exact","4141 N 73RD ST, MILWAUKEE, WI, 53216",77730349,"L"
205231,"4141 N HENDERSON RD PLAZA 4","ARLINGTON","VA",22203,38.8756323980001,-77.108881493,231,"4141 N HENDERSON RD PLAZA 4, ARLINGTON, VA, 22203","Match","Non_Exact","4141 N HENDERSON RD, ARLINGTON, VA, 22203",650106219,"R"
205232,"4141 N HENDERSON RD UNIT 626","ARLINGTON","VA",22203,38.8756323980001,-77.108881493,232,"4141 N HENDERSON RD UNIT 626, ARLINGTON, VA, 22203","Match","Non_Exact","4141 N HENDERSON RD, ARLINGTON, VA, 22203",650106219,"R"
205233,"4141 N REGAL ST","SPOKANE","WA",99207,47.695524864,-117.368101346,233,"4141 N REGAL ST, SPOKANE, WA, 99207","Match","Exact","4141 N REGAL ST, SPOKANE, WA, 99207",189879452,"L"
205234,"4141 NAUTILUS DRIVE APT 2A","MIAMI BEACH","FL",33140,25.813689574,-80.13563529,234,"4141 NAUTILUS DRIVE APT 2A, MIAMI BEACH, FL, 33140","Match","Exact","4141 NAUTILUS DR, MIAMI BEACH, FL, 33140",116274097,"R"
205235,"4141 NORTH KEDZIE AVENUE","CHICAGO","IL",60618,41.956840528,-87.7080964689999,235,"4141 NORTH KEDZIE AVENUE, CHICAGO, IL, 60618","Match","Exact","4141 N KEDZIE AVE, CHICAGO, IL, 60618",111757149,"R"
205236,"4141 NW 47TH TERRACE","LAUDERDALE LAKES","FL",33319,26.17645709,-80.214166913,236,"4141 NW 47TH TERRACE, LAUDERDALE LAKES, FL, 33319","Match","Exact","4141 NW 47TH TER, LAUDERDALE LAKES, FL, 33319",114706147,"L"
205237,"4141 OXFORD STREET","DES MOINES","IA",50313,41.635704993,-93.617527717,237,"4141 OXFORD STREET, DES MOINES, IA, 50313","Match","Exact","4141 OXFORD ST, DES MOINES, IA, 50313",65781599,"R"
205238,"4141 PALM AVE 183","SACRAMENTO","CA",95842,38.668362813,-121.36746649,238,"4141 PALM AVE 183, SACRAMENTO, CA, 95842","Match","Exact","4141 PALM AVE, SACRAMENTO, CA, 95842",648279650,"L"
205239,"4141 PALM AVE APT 601","SACRAMENTO","CA",95842,38.668362813,-121.36746649,239,"4141 PALM AVE APT 601, SACRAMENTO, CA, 95842","Match","Exact","4141 PALM AVE, SACRAMENTO, CA, 95842",648279650,"L"
205240,"4141 PARKLAKE AVENUE - SUITE 600","RALEIGH","NC",27612,35.834509645,-78.688546894,240,"4141 PARKLAKE AVENUE - SUITE 600, RALEIGH, NC, 27612","Match","Exact","4141 PARKLAKE AVE, RALEIGH, NC, 27612",612829574,"L"
205241,"4141 RT 84 SOUTH","HANOVER","IL",61041,42.3131161380001,-90.2730867609999,241,"4141 RT 84 SOUTH, HANOVER, IL, 61041","Match","Non_Exact","4141 STATE RTE 84 S, HANOVER, IL, 61041",27721055,"R"
205242,"4141 S FIGUEROA ST","LOS ANGELES","CA",90037,34.0083429630001,-118.28272627,242,"4141 S FIGUEROA ST, LOS ANGELES, CA, 90037","Match","Exact","4141 S FIGUEROA ST, LOS ANGELES, CA, 90037",141608117,"R"
205243,"4141 S SALINA STREET","SYRACUSE","NY",13205,43.008469657,-76.1426544449999,243,"4141 S SALINA STREET, SYRACUSE, NY, 13205","Match","Exact","4141 S SALINA ST, SYRACUSE, NY, 13205",46572033,"L"
205244,"4141 SAXONY CT SE","GRAND RAPIDS","MI",49508,42.888382225,-85.628359817,244,"4141 SAXONY CT SE, GRAND RAPIDS, MI, 49508","Match","Exact","4141 SAXONY CT SE, GRAND RAPIDS, MI, 49508",12471429,"R"
205245,"4141 SHOSHONE STREET","DENVER","CO",80211,39.773438782,-105.009988845,245,"4141 SHOSHONE STREET, DENVER, CO, 80211","Match","Exact","4141 SHOSHONE ST, DENVER, CO, 80211",177303343,"L"
205246,"4141 SILVERY WAY","SNELLVILLE","GA",30339,33.806177619,-83.9988804279999,246,"4141 SILVERY WAY, SNELLVILLE, GA, 30339","Match","Non_Exact","4141 SILVERY WAY, SNELLVILLE, GA, 30039",636750248,"L"
205247,"4141 SOUTHWEST FREEWAY STE 280","HOUSTON","TX",77027,NA,NA,247,"4141 SOUTHWEST FREEWAY STE 280, HOUSTON, TX, 77027","No_Match",NA,NA,NA,NA
205248,"4141 SOUTHWEST FREEWAY SUITE 255","HOUSTON","TX",77027,NA,NA,248,"4141 SOUTHWEST FREEWAY SUITE 255, HOUSTON, TX, 77027","No_Match",NA,NA,NA,NA
205249,"4141 SPRUCE ST APT 209","PHILADELPHIA","PA",19104,39.952131852,-75.206149309,249,"4141 SPRUCE ST APT 209, PHILADELPHIA, PA, 19104","Match","Exact","4141 SPRUCE ST, PHILADELPHIA, PA, 19104",131403877,"R"
205250,"4141 SUMMER RIDGE COURT","APEX","NC",27539,35.6920703060001,-78.802546063,250,"4141 SUMMER RIDGE COURT, APEX, NC, 27539","Match","Exact","4141 SUMMER RIDGE CT, APEX, NC, 27539",72591436,"L"
205251,"4141 W 59TH PL","LOS ANGELOS","CA",90043,33.986196615,-118.347295394,251,"4141 W 59TH PL, LOS ANGELOS, CA, 90043","Match","Non_Exact","4141 W 59TH PL, LOS ANGELES, CA, 90043",141654691,"R"
205252,"41415 ANDRE CT","NOVI","MI",48377,42.5175296420001,-83.458299433,252,"41415 ANDRE CT, NOVI, MI, 48377","Match","Exact","41415 ANDRE CT, NOVI, MI, 48377",69719309,"L"
205253,"41416 GRISWOLD RD","ELYRIA","OH",44035,NA,NA,253,"41416 GRISWOLD RD, ELYRIA, OH, 44035","No_Match",NA,NA,NA,NA
205254,"4142 ADAMS AVE 103 ROOM 547","SAN DIEGO","CA",92116,32.7632469430001,-117.106176185,254,"4142 ADAMS AVE 103 ROOM 547, SAN DIEGO, CA, 92116","Match","Exact","4142 ADAMS AVE, SAN DIEGO, CA, 92116",195346831,"L"
205255,"4142 ADAMS AVE 103-547","SAN DIEGO","CA",92116,32.7632469430001,-117.106176185,255,"4142 ADAMS AVE 103-547, SAN DIEGO, CA, 92116","Match","Exact","4142 ADAMS AVE, SAN DIEGO, CA, 92116",195346831,"L"
205256,"4142 ADAMS AVE STE 103-547","SAN DIEGO","CA",92116,32.7632469430001,-117.106176185,256,"4142 ADAMS AVE STE 103-547, SAN DIEGO, CA, 92116","Match","Exact","4142 ADAMS AVE, SAN DIEGO, CA, 92116",195346831,"L"
205257,"4142 ADAMS AVE SUITE 103 ROOM 547","SAN DIEGO","CA",92116,32.7632469430001,-117.106176185,257,"4142 ADAMS AVE SUITE 103 ROOM 547, SAN DIEGO, CA, 92116","Match","Exact","4142 ADAMS AVE, SAN DIEGO, CA, 92116",195346831,"L"
205258,"4142 BUNKER HILL DRIVE SOUTH","COOPERSBURG","PA",18036,40.5265782330001,-75.4010550639999,258,"4142 BUNKER HILL DRIVE SOUTH, COOPERSBURG, PA, 18036","Match","Exact","4142 BUNKER HILL DR S, COOPERSBURG, PA, 18036",617262017,"L"
205259,"4142 CORONA DRIVE","LOS ANGELES","CA",90032,34.0941163640001,-118.172394853,259,"4142 CORONA DRIVE, LOS ANGELES, CA, 90032","Match","Exact","4142 CORONA DR, LOS ANGELES, CA, 90032",141623231,"R"
205260,"4142 E SMITH RANCH RD","EAGLE MOUNTAIN","UT",84005,40.3577866890001,-111.964951503,260,"4142 E SMITH RANCH RD, EAGLE MOUNTAIN, UT, 84005","Match","Exact","4142 E SMITH RANCH RD, EAGLE MOUNTAIN, UT, 84005",645512206,"R"
205261,"4142 FALLSTAFF RD","BALTIMORE","MD",21215,39.3611674640001,-76.711403451,261,"4142 FALLSTAFF RD, BALTIMORE, MD, 21215","Match","Exact","4142 FALLSTAFF RD, BALTIMORE, MD, 21215",191469095,"R"
205262,"4142 GRAHAM ST","PLEASANTON","CA",94566,37.6700915910001,-121.870747288,262,"4142 GRAHAM ST, PLEASANTON, CA, 94566","Match","Exact","4142 GRAHAM ST, PLEASANTON, CA, 94566",606067466,"L"
205263,"4142 GUARD HILL RD","FRONT ROYAL","VA",22630,38.954640668,-78.200254769,263,"4142 GUARD HILL RD, FRONT ROYAL, VA, 22630","Match","Exact","4142 GUARD HILL RD, FRONT ROYAL, VA, 22630",647882381,"L"
205264,"4142 HARVEST LANE","SALISBURY","MD",21804,38.3057955300001,-75.552161607,264,"4142 HARVEST LANE, SALISBURY, MD, 21804","Match","Exact","4142 HARVEST LN, SALISBURY, MD, 21804",114454709,"R"
205265,"4142 LEIMERT BLVD","LOS ANGELES","CA",90008,34.009447057,-118.324584176,265,"4142 LEIMERT BLVD, LOS ANGELES, CA, 90008","Match","Exact","4142 LEIMERT BLVD, LOS ANGELES, CA, 90008",141606209,"L"
205266,"4142 MEADORS RD","FLORENCE","SC",29501,34.1705273860001,-79.891590206,266,"4142 MEADORS RD, FLORENCE, SC, 29501","Match","Exact","4142 MEADORS RD, FLORENCE, SC, 29501",652653058,"L"
205267,"4142 MELROSE AVE SUITE 31","ROANOKE","VA",24017,37.296166772,-80.004263527,267,"4142 MELROSE AVE SUITE 31, ROANOKE, VA, 24017","Match","Non_Exact","4142 MELROSE AVE NW, ROANOKE, VA, 24017",62945787,"R"
205268,"4142 OAK TREE COURT APT 12","EAST POINT","GA",30344,NA,NA,268,"4142 OAK TREE COURT APT 12, EAST POINT, GA, 30344","No_Match",NA,NA,NA,NA
205269,"4142 SORENSON DR","PEARLAND","TX",77584,29.538499636,-95.353182623,269,"4142 SORENSON DR, PEARLAND, TX, 77584","Match","Exact","4142 SORENSON DR, PEARLAND, TX, 77584",116611728,"L"
205270,"4142 STATE ST APT 1","SALEM","OR",97301,44.9279485870001,-122.979838531,270,"4142 STATE ST APT 1, SALEM, OR, 97301","Match","Exact","4142 STATE ST, SALEM, OR, 97301",652331170,"R"
205271,"4142 VALLEYFIELD","SAN ANTONIO","TX",78222,29.3761926660001,-98.4183424669999,271,"4142 VALLEYFIELD, SAN ANTONIO, TX, 78222","Match","Non_Exact","4142 VALLEYFIELD DR, SAN ANTONIO, TX, 78222",101535429,"R"
205272,"4142 WARWICK HILLS DRIVE","WESLEY CHAPEL","FL",33543,28.2174349040001,-82.312875901,272,"4142 WARWICK HILLS DRIVE, WESLEY CHAPEL, FL, 33543","Match","Exact","4142 WARWICK HILLS DR, WESLEY CHAPEL, FL, 33543",618494808,"R"
205273,"41428 253RD STREET","MITCHELL","SD",57301,43.7172668810001,-97.926315152,273,"41428 253RD STREET, MITCHELL, SD, 57301","Match","Exact","41428 253RD ST, MITCHELL, SD, 57301",200698052,"R"
205274,"4143 E ASCOT DR","SAN TAN VALLEY","AZ",85140,33.191810586,-111.521381914,274,"4143 E ASCOT DR, SAN TAN VALLEY, AZ, 85140","Match","Exact","4143 E ASCOT DR, SAN TAN VALLEY, AZ, 85140",129364599,"R"
205275,"4143 E ASCOT DR","SAN TAN VLY","AZ",85140,33.191810586,-111.521381914,275,"4143 E ASCOT DR, SAN TAN VLY, AZ, 85140","Match","Exact","4143 E ASCOT DR, SAN TAN VALLEY, AZ, 85140",129364599,"R"
205276,"4143 E BLANCHE DR","PHOENIX","AZ",85032,33.6235057810001,-111.991283637,276,"4143 E BLANCHE DR, PHOENIX, AZ, 85032","Match","Exact","4143 E BLANCHE DR, PHOENIX, AZ, 85032",128281011,"L"
205277,"4143 MOORE RD","CONLEY","GA",30288,33.660554303,-84.318779722,277,"4143 MOORE RD, CONLEY, GA, 30288","Match","Exact","4143 MOORE RD, CONLEY, GA, 30288",632649438,"R"
205278,"4143 MURDOCK AVENUE","BRONX","NY",10466,40.894591463,-73.841461634,278,"4143 MURDOCK AVENUE, BRONX, NY, 10466","Match","Exact","4143 MURDOCK AVE, BRONX, NY, 10466",80297769,"L"
205279,"4143 NEW HAMPSHIRE AVE NW UNIT 2","WASHINGTON","DC",20011,38.941414604,-77.020433848,279,"4143 NEW HAMPSHIRE AVE NW UNIT 2, WASHINGTON, DC, 20011","Match","Non_Exact","4143 NEW HAMPSHIRE AVE NW, WASHINGTON, DC, 20011",641474328,"L"
205280,"4143 TUNNEL HILL RD","RAMSEY","IN",47166,38.3212768820001,-86.20202145,280,"4143 TUNNEL HILL RD, RAMSEY, IN, 47166","Match","Non_Exact","4143 TUNNEL HILL RD NW, RAMSEY, IN, 47166",652683011,"R"
205281,"4143 W 132ND STREET UNIT B","HAWTHORNE","CA",90250,33.9130980190001,-118.347608517,281,"4143 W 132ND STREET UNIT B, HAWTHORNE, CA, 90250","Match","Non_Exact","4143 W 132ND ST, HAWTHORNE, CA, 90250",142752207,"R"
205282,"4143 W ALAMEDA RD","GLENDALE","AZ",85310,33.7054751480001,-112.149268417,282,"4143 W ALAMEDA RD, GLENDALE, AZ, 85310","Match","Exact","4143 W ALAMEDA RD, GLENDALE, AZ, 85310",128360839,"L"
205283,"4143 WESTMINSTER AVE","PHILADELPHIA","PA",19104,39.9701269020001,-75.207286336,283,"4143 WESTMINSTER AVE, PHILADELPHIA, PA, 19104","Match","Exact","4143 WESTMINSTER AVE, PHILADELPHIA, PA, 19104",131403092,"R"
205284,"4144 76TH STREET 6H","ELMHURST","NY",11373,NA,NA,284,"4144 76TH STREET 6H, ELMHURST, NY, 11373","No_Match",NA,NA,NA,NA
205285,"4144 BAGLEY STREET","DETROIT","MI",48209,42.320488691,-83.092956995,285,"4144 BAGLEY STREET, DETROIT, MI, 48209","Match","Exact","4144 BAGLEY ST, DETROIT, MI, 48209",95478274,"R"
205286,"4144 CARRIAGELITE DR","CINCINNATI","OH",45241,39.27452909,-84.3898324629999,286,"4144 CARRIAGELITE DR, CINCINNATI, OH, 45241","Match","Exact","4144 CARRIAGELITE DR, CINCINNATI, OH, 45241",103945002,"R"
205287,"4144 CHEYENNE CIRCLE","SANTA FE","NM",87507,35.630077692,-106.061413826,287,"4144 CHEYENNE CIRCLE, SANTA FE, NM, 87507","Match","Exact","4144 CHEYENNE CIR, SANTA FE, NM, 87507",169386168,"R"
205288,"4144 CLAIRMONT ROAD","CHAMBLEE","GA",30341,33.883401511,-84.3094466539999,288,"4144 CLAIRMONT ROAD, CHAMBLEE, GA, 30341","Match","Exact","4144 CLAIRMONT RD, CHAMBLEE, GA, 30341",640580212,"L"
205289,"4144 LINDELL BLVD SUITE 15","ST. LOUIS","MO",63108,38.640237159,-90.247200858,289,"4144 LINDELL BLVD SUITE 15, ST. LOUIS, MO, 63108","Match","Exact","4144 LINDELL BLVD, SAINT LOUIS, MO, 63108",605111817,"L"
205290,"4144 LINDELL BLVD SUITE 217","ST LOUIS","MO",63108,38.640237159,-90.247200858,290,"4144 LINDELL BLVD SUITE 217, ST LOUIS, MO, 63108","Match","Exact","4144 LINDELL BLVD, SAINT LOUIS, MO, 63108",605111817,"L"
205291,"4144 LINDELL SUITE 206","SAINT LOUIS","MO",63110,NA,NA,291,"4144 LINDELL SUITE 206, SAINT LOUIS, MO, 63110","No_Match",NA,NA,NA,NA
205292,"4144 MEADOW LANE","EAU CLAIRE","WI",54701,NA,NA,292,"4144 MEADOW LANE, EAU CLAIRE, WI, 54701","No_Match",NA,NA,NA,NA
205293,"4144 N 44TH STREET","PHOENIX","AZ",85018,33.4955304220001,-111.986910871,293,"4144 N 44TH STREET, PHOENIX, AZ, 85018","Match","Exact","4144 N 44TH ST, PHOENIX, AZ, 85018",128220530,"L"
205294,"4144 N CENTRAL EXPY STE 600","DALLAS","TX",75204,32.8141785600001,-96.7897705939999,294,"4144 N CENTRAL EXPY STE 600, DALLAS, TX, 75204","Match","Non_Exact","4144 N CENTRAL EXPY, DALLAS, TX, 75204",103262379,"R"
205295,"4144 OFFICE PARKWAY 3203","Dallas","TX",75204,32.8045408420001,-96.788240791,295,"4144 OFFICE PARKWAY 3203, Dallas, TX, 75204","Match","Exact","4144 OFFICE PKWY, DALLAS, TX, 75204",103278410,"R"
205296,"4144 WEST AVENUE","AYDEN","NC",28513,35.469933713,-77.4164528319999,296,"4144 WEST AVENUE, AYDEN, NC, 28513","Match","Exact","4144 WEST AVE, AYDEN, NC, 28513",605074647,"L"
205297,"4144 WOODCREEK DR","YPSILANTI","MI",48197,42.229484267,-83.672358704,297,"4144 WOODCREEK DR, YPSILANTI, MI, 48197","Match","Exact","4144 WOODCREEK DR, YPSILANTI, MI, 48197",636263868,"R"
205298,"4144 WORTHINGTON DR","NORTH HIGHLANDS","CA",95660,38.7030065800001,-121.368096084,298,"4144 WORTHINGTON DR, NORTH HIGHLANDS, CA, 95660","Match","Exact","4144 WORTHINGTON DR, NORTH HIGHLANDS, CA, 95660",133331872,"R"
205299,"41441 WEST PALMYRA LANE","MARICOPA","AZ",85138,33.0524381770001,-112.012268138,299,"41441 WEST PALMYRA LANE, MARICOPA, AZ, 85138","Match","Exact","41441 W PALMYRA LN, MARICOPA, AZ, 85138",627559526,"R"
205300,"41445 DAMASK DR","CLINTON TWP","MI",48038,42.602665707,-82.917155981,300,"41445 DAMASK DR, CLINTON TWP, MI, 48038","Match","Exact","41445 DAMASK DR, CLINTON TOWNSHIP, MI, 48038",617079686,"R"
205301,"41448 N ELIANA DRIVE","QUEEN CREEK","AZ",85140,NA,NA,301,"41448 N ELIANA DRIVE, QUEEN CREEK, AZ, 85140","Tie",NA,NA,NA,NA
205302,"4145 ASHLEYTOWN LANE","CHARLOTTE","NC",28270,35.0746814080001,-80.771896253,302,"4145 ASHLEYTOWN LANE, CHARLOTTE, NC, 28270","Match","Exact","4145 ASHLEYTOWN LN, CHARLOTTE, NC, 28270",70513684,"L"
205303,"4145 E GRANGER DR","MERIDIAN","ID",83646,43.6285649930001,-116.343613443,303,"4145 E GRANGER DR, MERIDIAN, ID, 83646","Match","Exact","4145 E GRANGER DR, MERIDIAN, ID, 83646",642578391,"L"
205304,"4145 E MEGAN STREET","GILBERT","AZ",85295,33.3208850660001,-111.701283756,304,"4145 E MEGAN STREET, GILBERT, AZ, 85295","Match","Exact","4145 E MEGAN ST, GILBERT, AZ, 85295",128864390,"R"
205305,"4145 FALCON AVE","LONG BEACH","CA",90807,33.8338410060001,-118.17288873,305,"4145 FALCON AVE, LONG BEACH, CA, 90807","Match","Exact","4145 FALCON AVE, LONG BEACH, CA, 90807",141686397,"L"
205306,"4145 FOREST AVENUE","KANSAS CITY","MO",64110,39.0516514760001,-94.5711072999999,306,"4145 FOREST AVENUE, KANSAS CITY, MO, 64110","Match","Exact","4145 FOREST AVE, KANSAS CITY, MO, 64110",91447977,"L"
205307,"4145 HARDSCRABBLE ROAD","COLUMBIA","SC",29223,34.135968475,-80.916134335,307,"4145 HARDSCRABBLE ROAD, COLUMBIA, SC, 29223","Match","Non_Exact","4145 HARD SCRABBLE RD, COLUMBIA, SC, 29223",604759956,"L"
205308,"4145 J STREET","PHILADELPHIA","PA",19124,40.0104276160001,-75.106272582,308,"4145 J STREET, PHILADELPHIA, PA, 19124","Match","Exact","4145 J ST, PHILADELPHIA, PA, 19124",131427140,"R"
205309,"4145 PADDINGTON STREET","COCOA","FL",32926,28.419112936,-80.831621398,309,"4145 PADDINGTON STREET, COCOA, FL, 32926","Match","Exact","4145 PADDINGTON ST, COCOA, FL, 32926",93913956,"L"
205310,"4145 PALO VERDE AVE","LAKEWOOD","CA",90713,33.8333480810001,-118.10775252,310,"4145 PALO VERDE AVE, LAKEWOOD, CA, 90713","Match","Exact","4145 PALO VERDE AVE, LAKEWOOD, CA, 90713",642863833,"L"
205311,"4145 RANIER PLACE","QUARTZ HILL","CA",93536,34.65040513,-118.20369158,311,"4145 RANIER PLACE, QUARTZ HILL, CA, 93536","Match","Exact","4145 RANIER PL, QUARTZ HILL, CA, 93536",624573574,"L"
205312,"4145 S WABASH AVE UNIT 3S","CHICAGO","IL",60653,41.819291402,-87.62471143,312,"4145 S WABASH AVE UNIT 3S, CHICAGO, IL, 60653","Match","Non_Exact","4145 S WABASH AVE, CHICAGO, IL, 60653",111770447,"L"
205313,"4145 TYNEBOURNE CIR","SAN DIEGO","CA",92130,32.959846934,-117.228952283,313,"4145 TYNEBOURNE CIR, SAN DIEGO, CA, 92130","Match","Exact","4145 TYNEBOURNE CIR, SAN DIEGO, CA, 92130",195690476,"R"
205314,"4145 WATERTRACE DRIVE","LEXINGTON","KY",40515,37.9667091600001,-84.508008345,314,"4145 WATERTRACE DRIVE, LEXINGTON, KY, 40515","Match","Exact","4145 WATERTRACE DR, LEXINGTON, KY, 40515",31938699,"L"
205315,"41455 CARLOTTA DR","PALM DESERT","CA",92211,33.747715375,-116.343756279,315,"41455 CARLOTTA DR, PALM DESERT, CA, 92211","Match","Exact","41455 CARLOTTA DR, PALM DESERT, CA, 92211",195045583,"L"
205316,"4146 DURWOOD DR","COLUMBUS","GA",31907,32.490606546,-84.923306236,316,"4146 DURWOOD DR, COLUMBUS, GA, 31907","Match","Exact","4146 DURWOOD DR, COLUMBUS, GA, 31907",98940537,"R"
205317,"4146 FITZSIMMONS ROAD","HOLYOKE","MN",55749,46.46933248,-92.416223315,317,"4146 FITZSIMMONS ROAD, HOLYOKE, MN, 55749","Match","Exact","4146 FITZSIMMONS RD, HOLYOKE, MN, 55749",162684625,"R"
205318,"4146 FLORA PLACE","ST LOUIS","MO",63110,38.61335439,-90.252426536,318,"4146 FLORA PLACE, ST LOUIS, MO, 63110","Match","Exact","4146 FLORA PL, SAINT LOUIS, MO, 63110",107597210,"L"
205319,"4146 HOMERLEE AVENUE -1","EAST CHICAGO","IN",46312,41.6386087010001,-87.486382063,319,"4146 HOMERLEE AVENUE -1, EAST CHICAGO, IN, 46312","Match","Exact","4146 HOMERLEE AVE, EAST CHICAGO, IN, 46312",98418081,"R"
205320,"4146 LANGLAND ST","CINCINNATI","OH",45223,39.1626203100001,-84.5382083489999,320,"4146 LANGLAND ST, CINCINNATI, OH, 45223","Match","Exact","4146 LANGLAND ST, CINCINNATI, OH, 45223",103922287,"R"
205321,"4146 NAKOMA RD","MADISON","WI",53711,43.0424933350001,-89.4456739459999,321,"4146 NAKOMA RD, MADISON, WI, 53711","Match","Exact","4146 NAKOMA RD, MADISON, WI, 53711",49469764,"R"
205322,"4146 NEWHALL ST","SHOREWOOD","WI",53211,43.092141575,-87.889916672,322,"4146 NEWHALL ST, SHOREWOOD, WI, 53211","Match","Non_Exact","4146 N NEWHALL ST, SHOREWOOD, WI, 53211",77743221,"R"
205323,"4146 POINT HOLLOW LN","FAIRFAX","VA",22033,38.877594667,-77.404736516,323,"4146 POINT HOLLOW LN, FAIRFAX, VA, 22033","Match","Exact","4146 POINT HOLLOW LN, FAIRFAX, VA, 22033",75964656,"R"
205324,"4146 PRESERVE TRAIL","SNELLVILLE","GA",30039,33.7835975510001,-84.029745224,324,"4146 PRESERVE TRAIL, SNELLVILLE, GA, 30039","Match","Exact","4146 PRESERVE TRL, SNELLVILLE, GA, 30039",628098922,"R"
205325,"4146 RIVER BREEZE CIR","CHESAPEAKE","VA",23321,36.79870736,-76.393327282,325,"4146 RIVER BREEZE CIR, CHESAPEAKE, VA, 23321","Match","Exact","4146 RIVER BREEZE CIR, CHESAPEAKE, VA, 23321",626696799,"R"
205326,"4146 S MAIN STREET","HOPE MILLS","NC",28348,34.9619672200001,-78.9431446259999,326,"4146 S MAIN STREET, HOPE MILLS, NC, 28348","Match","Exact","4146 S MAIN ST, HOPE MILLS, NC, 28348",64221478,"R"
205327,"4146 SAWMILL RD","OXFORD","NC",27565,36.3030643980001,-78.5352693419999,327,"4146 SAWMILL RD, OXFORD, NC, 27565","Match","Exact","4146 SAWMILL RD, OXFORD, NC, 27565",611857589,"L"
205328,"4146 TAMILYNN CT","SAN DIEGO","CA",92122,32.8503586670001,-117.20271709,328,"4146 TAMILYNN CT, SAN DIEGO, CA, 92122","Match","Exact","4146 TAMILYNN CT, SAN DIEGO, CA, 92122",195302273,"L"
205329,"4146 W CHICAGO AVENUE","CHICAGO","IL",60651,41.8953016930001,-87.730130319,329,"4146 W CHICAGO AVENUE, CHICAGO, IL, 60651","Match","Exact","4146 W CHICAGO AVE, CHICAGO, IL, 60651",111759317,"R"
205330,"41460 RYAN RD","STERLING HEIGHTS","MI",48314,42.5966783280001,-83.0709380879999,330,"41460 RYAN RD, STERLING HEIGHTS, MI, 48314","Match","Exact","41460 RYAN RD, STERLING HEIGHTS, MI, 48314",110714189,"R"
205331,"41462 ALEXO DR","LANCASTER","CA",93536,34.6360696830001,-118.196056281,331,"41462 ALEXO DR, LANCASTER, CA, 93536","Match","Exact","41462 ALEXO DR, LANCASTER, CA, 93536",624568896,"R"
205332,"4147 63RD STREET","WOODSIDE","NY",11377,NA,NA,332,"4147 63RD STREET, WOODSIDE, NY, 11377","No_Match",NA,NA,NA,NA
205333,"4147 CASTLE BLVD APT 404","SILVER SPRING","MD",20904,NA,NA,333,"4147 CASTLE BLVD APT 404, SILVER SPRING, MD, 20904","No_Match",NA,NA,NA,NA
205334,"4147 MAYFIELD ROAD","SOUTH EUCLID","OH",44121,41.5207534310001,-81.5308531009999,334,"4147 MAYFIELD ROAD, SOUTH EUCLID, OH, 44121","Match","Exact","4147 MAYFIELD RD, SOUTH EUCLID, OH, 44121",61125581,"L"
205335,"4147 MAYFIELD","SOUTH EUCLID","OH",44121,41.5207534310001,-81.5308531009999,335,"4147 MAYFIELD, SOUTH EUCLID, OH, 44121","Match","Non_Exact","4147 MAYFIELD RD, SOUTH EUCLID, OH, 44121",61125581,"L"
205336,"4147 SCOFIELD PLACE SUITE 100","STONE MOUNTAIN","GA",30083,33.7751429350001,-84.219398938,336,"4147 SCOFIELD PLACE SUITE 100, STONE MOUNTAIN, GA, 30083","Match","Exact","4147 SCOFIELD PL, STONE MOUNTAIN, GA, 30083",23371547,"R"
205337,"4147 STRAIGHT GUT ROAD","LAFAYETTE","GA",30728,34.778252287,-85.27527656,337,"4147 STRAIGHT GUT ROAD, LAFAYETTE, GA, 30728","Match","Non_Exact","4147 STRAIGHT GUT RD, LA FAYETTE, GA, 30728",66713042,"R"
205338,"4147 W CEDAR WAPSIE RD","CEDAR FALLS","IA",50613,42.6141317710001,-92.4192848389999,338,"4147 W CEDAR WAPSIE RD, CEDAR FALLS, IA, 50613","Match","Non_Exact","4147 W CEDAR WAPSI RD, CEDAR FALLS, IA, 50613",212735051,"R"
205339,"41479 COUNTRY ROSE CIRCLE","PARKER","CO",80138,39.4690834630001,-104.602240025,339,"41479 COUNTRY ROSE CIRCLE, PARKER, CO, 80138","Match","Exact","41479 COUNTRY ROSE CIR, PARKER, CO, 80138",608206128,"L"
205340,"4148 5TH STREET NE","COLOMBIA HEIGHTS","MN",55421,45.043634603,-93.260180684,340,"4148 5TH STREET NE, COLOMBIA HEIGHTS, MN, 55421","Match","Non_Exact","4148 5TH ST NE, COLUMBIA HEIGHTS, MN, 55421",97488155,"L"
205341,"4148 ARBOREA CT","ORCUTT","CA",93455,34.8817925320001,-120.419596244,341,"4148 ARBOREA CT, ORCUTT, CA, 93455","Match","Exact","4148 ARBOREA CT, ORCUTT, CA, 93455",108597171,"L"
205342,"4148 BANCROFT CIR","TUCKER","GA",30048,33.8523771390001,-84.219636936,342,"4148 BANCROFT CIR, TUCKER, GA, 30048","Match","Non_Exact","4148 BANCROFT CIR, TUCKER, GA, 30084",23386517,"L"
205343,"4148 BROOK CREEK LN","GREENVILLEILLE","NC",27858,35.580597411,-77.3233943559999,343,"4148 BROOK CREEK LN, GREENVILLEILLE, NC, 27858","Match","Non_Exact","4148 BROOK CREEK LN, GREENVILLE, NC, 27858",627149174,"R"
205344,"4148 CR 48","OKAHUMPKA","FL",34762,28.7476628360001,-81.8856080039999,344,"4148 CR 48, OKAHUMPKA, FL, 34762","Match","Exact","4148 CO RD 48, OKAHUMPKA, FL, 34762",94184334,"L"
205345,"4148 DEL MAR AVE","LONG BEACH","CA",90807,33.832936777,-118.201035422,345,"4148 DEL MAR AVE, LONG BEACH, CA, 90807","Match","Exact","4148 DEL MAR AVE, LONG BEACH, CA, 90807",141685115,"R"
205346,"4148 DOUBLE TREE LANE","HAMPSTEAD","MD",21074,39.626684658,-76.851683066,346,"4148 DOUBLE TREE LANE, HAMPSTEAD, MD, 21074","Match","Exact","4148 DOUBLE TREE LN, HAMPSTEAD, MD, 21074",653253846,"L"
205347,"4148 E SPRING HILL RD","MIDLAND","MI",48642,43.679439555,-84.201420055,347,"4148 E SPRING HILL RD, MIDLAND, MI, 48642","Match","Exact","4148 SPRING HILL RD, MIDLAND, MI, 48642",642647401,"R"
205348,"4148 ELDRED CT","WESTFIELD","IN",46062,40.0338759100001,-86.0987944,348,"4148 ELDRED CT, WESTFIELD, IN, 46062","Match","Exact","4148 ELDRED CT, WESTFIELD, IN, 46062",29339166,"L"
205349,"4148 ENGLISH OAKS AVE","TRACY","CA",95377,37.701495821,-121.439072673,349,"4148 ENGLISH OAKS AVE, TRACY, CA, 95377","Match","Non_Exact","4148 ENGLISH OAK AVE, TRACY, CA, 95377",133918703,"L"
205350,"4148 HAPPY CANYON DRIVE","DALLAS","TX",75241,32.6776927600001,-96.751398942,350,"4148 HAPPY CANYON DRIVE, DALLAS, TX, 75241","Match","Exact","4148 HAPPY CANYON DR, DALLAS, TX, 75241",102957117,"R"
205351,"4148 KENTRIDGE DR SE","GRAND RAPIDS","MI",49508,42.888098434,-85.6207058209999,351,"4148 KENTRIDGE DR SE, GRAND RAPIDS, MI, 49508","Match","Exact","4148 KENTRIDGE DR SE, GRAND RAPIDS, MI, 49508",12465416,"L"
205352,"4148 PRAIRIE ROSE DR","HOWELL","MI",48843,42.5362246890001,-83.9494846809999,352,"4148 PRAIRIE ROSE DR, HOWELL, MI, 48843","Match","Exact","4148 PRAIRIE ROSE DR, HOWELL, MI, 48843",630119381,"R"
205353,"4148 S KING DR UNIT 9","CHICAGO","IL",60653,NA,NA,353,"4148 S KING DR UNIT 9, CHICAGO, IL, 60653","No_Match",NA,NA,NA,NA
205354,"4148 TROOST AVENUE","KANSAS CITY","MO",64110,39.0516338680001,-94.572383077,354,"4148 TROOST AVENUE, KANSAS CITY, MO, 64110","Match","Exact","4148 TROOST AVE, KANSAS CITY, MO, 64110",91447972,"R"
205355,"4148 W CONGRESS","CHICAGO","IL",60624,41.8743199840001,-87.729119705,355,"4148 W CONGRESS, CHICAGO, IL, 60624","Match","Non_Exact","4148 W CONGRESS PKWY, CHICAGO, IL, 60624",111798510,"R"
205356,"41482 GIDDY UP CIR","ALDIE","VA",20105,38.912472216,-77.56982787,356,"41482 GIDDY UP CIR, ALDIE, VA, 20105","Match","Exact","41482 GIDDY UP CIR, ALDIE, VA, 20105",645674522,"R"
205357,"41484 ROAD 406","COARSEGOLD","CA",93614,37.09331445,-119.800874575,357,"41484 ROAD 406, COARSEGOLD, CA, 93614","Match","Exact","41484 RD 406, COARSEGOLD, CA, 93614",102333604,"R"
205358,"4149 BEAR CREEK BLVD","BEAR CREEK TW","PA",18702,NA,NA,358,"4149 BEAR CREEK BLVD, BEAR CREEK TW, PA, 18702","No_Match",NA,NA,NA,NA
205359,"4149 CHURCH STREET","SKOKIE","IL",60076,42.0480004280001,-87.731731528,359,"4149 CHURCH STREET, SKOKIE, IL, 60076","Match","Exact","4149 CHURCH ST, SKOKIE, IL, 60076",111739315,"L"
205360,"4149 E MCDONALD DR","PHOENIX","AZ",85018,33.5248061350001,-111.991971272,360,"4149 E MCDONALD DR, PHOENIX, AZ, 85018","Match","Exact","4149 E MCDONALD DR, PHOENIX, AZ, 85018",638497226,"R"
205361,"4149 EAST OXFORD DRIVE","TUCSON","AZ",85711,32.2229494700001,-110.9041445,361,"4149 EAST OXFORD DRIVE, TUCSON, AZ, 85711","Match","Exact","4149 E OXFORD DR, TUCSON, AZ, 85711",121175623,"L"
205362,"4149 GREAT OAK ROAD","ROCKVILLE","MD",20853,39.1063781720001,-77.0814934749999,362,"4149 GREAT OAK ROAD, ROCKVILLE, MD, 20853","Match","Exact","4149 GREAT OAK RD, ROCKVILLE, MD, 20853",62124183,"R"
205363,"4149 LYNDALE AVE NO","MINNEAPOLIS","MN",55412,45.0304143210001,-93.2881034169999,363,"4149 LYNDALE AVE NO, MINNEAPOLIS, MN, 55412","Match","Exact","4149 LYNDALE AVE N, MINNEAPOLIS, MN, 55412",636267112,"L"
205364,"4149 MISTY DRIVE","WEST JORDAN","UT",84084,40.634794119,-111.989858446,364,"4149 MISTY DRIVE, WEST JORDAN, UT, 84084","Match","Exact","4149 MISTY DR, WEST JORDAN, UT, 84084",630210723,"L"
205365,"4149 N 3RD STREET","OZARK","MO",65721,NA,NA,365,"4149 N 3RD STREET, OZARK, MO, 65721","Tie",NA,NA,NA,NA
205366,"4149 W SAINT KATERI DRIVE","PHOENIX","AZ",85041,33.3853533180001,-112.148640142,366,"4149 W SAINT KATERI DRIVE, PHOENIX, AZ, 85041","Match","Exact","4149 W SAINT KATERI DR, PHOENIX, AZ, 85041",243999558,"R"
205367,"41495 GREEN PADDOCK CIRCLE","ALDIE","VA",20105,38.9100137990001,-77.568370891,367,"41495 GREEN PADDOCK CIRCLE, ALDIE, VA, 20105","Match","Exact","41495 GREEN PADDOCK CIR, ALDIE, VA, 20105",642694584,"R"
205368,"414SOUTHSYCAMORESTREET","PETERSBURG","VA",23803,NA,NA,368,"414SOUTHSYCAMORESTREET, PETERSBURG, VA, 23803","No_Match",NA,NA,NA,NA
205369,"415  EAST AIRPORT FREEWAY SUITE 375","IRVING","TX",75062,32.8374162900001,-96.9366993199999,369,"415  EAST AIRPORT FREEWAY SUITE 375, IRVING, TX, 75062","Match","Exact","415 E AIRPORT FWY, IRVING, TX, 75062",103201552,"L"
205370,"415 11TH AVE","FRANKLINTON","LA",70438,30.8533680250001,-90.157536637,370,"415 11TH AVE, FRANKLINTON, LA, 70438","Match","Exact","415 11TH AVE, FRANKLINTON, LA, 70438",82454374,"R"
205371,"415 12TH AVENUE SE","CEDAR RAPIDS","IA",52401,41.971056892,-91.6566793699999,371,"415 12TH AVENUE SE, CEDAR RAPIDS, IA, 52401","Match","Exact","415 12TH AVE SE, CEDAR RAPIDS, IA, 52401",17026192,"R"
205372,"415 1ST STREET NE","ALICEVILLE","AL",35442,33.1306039250001,-88.15062412,372,"415 1ST STREET NE, ALICEVILLE, AL, 35442","Match","Exact","415 1ST ST NE, ALICEVILLE, AL, 35442",612006,"L"
205373,"415 2ND STREET","DAVIS","CA",95616,38.5429019900001,-121.743043447,373,"415 2ND STREET, DAVIS, CA, 95616","Match","Exact","415 2ND ST, DAVIS, CA, 95616",67691525,"L"
205374,"415 2ND STREET/BARB GEISLER","DAVIS","CA",95616,38.5429019900001,-121.743043447,374,"415 2ND STREET/BARB GEISLER, DAVIS, CA, 95616","Match","Non_Exact","415 2ND ST, DAVIS, CA, 95616",67691525,"L"
205375,"415 7TH AVE SW","LARGO","FL",33770,27.9102888240001,-82.792470017,375,"415 7TH AVE SW, LARGO, FL, 33770","Match","Exact","415 7TH AVE SW, LARGO, FL, 33770",124672027,"L"
205376,"415 ALHAMBRA STREET","CROCKETT","CA",94525,38.0546362950001,-122.212489261,376,"415 ALHAMBRA STREET, CROCKETT, CA, 94525","Match","Exact","415 ALHAMBRA ST, CROCKETT, CA, 94525",639865431,"L"
205377,"415 AMADOR AVE","VENTURA","CA",93004,34.29812536,-119.167948376,377,"415 AMADOR AVE, VENTURA, CA, 93004","Match","Exact","415 AMADOR AVE, VENTURA, CA, 93004",109996226,"L"
205378,"415 AMWELL ROAD SUITE 203","HILLSBOROUGH","NJ",8844,NA,NA,378,"415 AMWELL ROAD SUITE 203, HILLSBOROUGH, NJ, 8844","No_Match",NA,NA,NA,NA
205379,"415 ANITA ST","REDONDO BEACH","CA",90278,33.855015172,-118.388203983,379,"415 ANITA ST, REDONDO BEACH, CA, 90278","Match","Exact","415 ANITA ST, REDONDO BEACH, CA, 90278",141583806,"L"
205380,"415 APPLEWHITE ROAD","POTEET","TX",78065,29.114267785,-98.543174479,380,"415 APPLEWHITE ROAD, POTEET, TX, 78065","Match","Exact","415 APPLEWHITE RD, POTEET, TX, 78065",650910442,"L"
205381,"415 ARLINGTON AVENUE","LAKEWOOD","NJ",8701,40.08004105,-74.2088165009999,381,"415 ARLINGTON AVENUE, LAKEWOOD, NJ, 8701","Match","Exact","415 ARLINGTON AVE, LAKEWOOD, NJ, 08701",203724275,"L"
205382,"415 ARROWHEAD STREET","SITKA","AK",99835,57.05805086,-135.334656655,382,"415 ARROWHEAD STREET, SITKA, AK, 99835","Match","Exact","415 ARROWHEAD ST, SITKA, AK, 99835",191274169,"R"
205383,"415 ATLANTIC AVE","BROOKLYN","NY",11216,40.6866787800001,-73.9841606699999,383,"415 ATLANTIC AVE, BROOKLYN, NY, 11216","Match","Non_Exact","415 ATLANTIC AVE, BROOKLYN, NY, 11217",59075383,"L"
205384,"415 B AVE E","OSKALOOSA","IA",52577,NA,NA,384,"415 B AVE E, OSKALOOSA, IA, 52577","No_Match",NA,NA,NA,NA
205385,"415 BAXTER STREET","ATHENS","GA",30602,33.9509787260001,-83.380113593,385,"415 BAXTER STREET, ATHENS, GA, 30602","Match","Non_Exact","415 BAXTER ST, ATHENS, GA, 30605",4802357,"L"
205386,"415 BAY RIDGE AVENUE APT 2R","BROOKLYN","NY",11220,NA,NA,386,"415 BAY RIDGE AVENUE APT 2R, BROOKLYN, NY, 11220","No_Match",NA,NA,NA,NA
205387,"415 BEAVER STREET","SEWICKLEY","PA",15143,40.540906922,-80.181164141,387,"415 BEAVER STREET, SEWICKLEY, PA, 15143","Match","Exact","415 BEAVER ST, SEWICKLEY, PA, 15143",51610656,"L"
205388,"415 BEE TREE ROAD","SWANNANOA","NC",28778,35.610781527,-82.415283674,388,"415 BEE TREE ROAD, SWANNANOA, NC, 28778","Match","Exact","415 BEE TREE RD, SWANNANOA, NC, 28778",36851928,"L"
205389,"415 BERKELEY HILL DRIVE APT 1314","Charlotte","NC",28262,35.3252134900001,-80.7409336109999,389,"415 BERKELEY HILL DRIVE APT 1314, Charlotte, NC, 28262","Match","Exact","415 BERKELEY HILL DR, CHARLOTTE, NC, 28262",70553832,"L"
205390,"415 BERKELEY RUN","ATLANTA","GA",30342,33.906167693,-84.372070387,390,"415 BERKELEY RUN, ATLANTA, GA, 30342","Match","Non_Exact","415 BERKELEY RUN NE, ATLANTA, GA, 30342",17391860,"R"
205391,"415 BEVERLEY ROAD SUITE LT","BROOKLYN","NY",11218,40.643077588,-73.976208941,391,"415 BEVERLEY ROAD SUITE LT, BROOKLYN, NY, 11218","Match","Exact","415 BEVERLEY RD, BROOKLYN, NY, 11218",59080621,"L"
205392,"415 BLACK DIAMOND DRIVE","WILMINGTON","NC",28411,34.295228487,-77.751702242,392,"415 BLACK DIAMOND DRIVE, WILMINGTON, NC, 28411","Match","Exact","415 BLACK DIAMOND DR, WILMINGTON, NC, 28411",152747946,"L"
205393,"415 BOSTON BLVD","SEA GIRT","NJ",8750,40.1315822450001,-74.0373537469999,393,"415 BOSTON BLVD, SEA GIRT, NJ, 8750","Match","Exact","415 BOSTON BLVD, SEA GIRT, NJ, 08750",90467767,"R"
205394,"415 BOSTON POST ROAD SUITE 3510","MILFORD","CT",6460,41.2270382840001,-73.070222987,394,"415 BOSTON POST ROAD SUITE 3510, MILFORD, CT, 6460","Match","Exact","415 BOSTON POST RD, MILFORD, CT, 06460",3713322,"R"
205395,"415 BOYD GSRC","ATHENS","GA",30602,NA,NA,395,"415 BOYD GSRC, ATHENS, GA, 30602","No_Match",NA,NA,NA,NA
205396,"415 BRAINARD STREET","DETROIT","MI",48201,42.346752732,-83.06175731,396,"415 BRAINARD STREET, DETROIT, MI, 48201","Match","Exact","415 BRAINARD ST, DETROIT, MI, 48201",95477639,"L"
205397,"415 BRUCE ROAD","DOUGLASVILLE","GA",30134,33.805759983,-84.8164102379999,397,"415 BRUCE ROAD, DOUGLASVILLE, GA, 30134","Match","Exact","415 BRUCE RD, DOUGLASVILLE, GA, 30134",17730394,"L"
205398,"415 CAMBRIDGE STREET","PISCATAWAY","NJ",8854,40.596478511,-74.4420758379999,398,"415 CAMBRIDGE STREET, PISCATAWAY, NJ, 8854","Match","Exact","415 CAMBRIDGE ST, PISCATAWAY, NJ, 08854",60260328,"L"
205399,"415 CAMELLIA ST NUM B","KISSIMMEE","FL",34747,28.3224902760001,-81.545483131,399,"415 CAMELLIA ST NUM B, KISSIMMEE, FL, 34747","Match","Exact","415 CAMELLIA ST, KISSIMMEE, FL, 34747",176682064,"L"
205400,"415 CAMINO DE LA TIERRA","CORRALES","NM",87048,NA,NA,400,"415 CAMINO DE LA TIERRA, CORRALES, NM, 87048","No_Match",NA,NA,NA,NA
205401,"415 CEDAR LANE","SICKLERVILLE","IL",8081,NA,NA,401,"415 CEDAR LANE, SICKLERVILLE, IL, 8081","No_Match",NA,NA,NA,NA
205402,"415 CEDAR ST","HOWARD CITY","MI",49329,43.392626836,-85.4681811309999,402,"415 CEDAR ST, HOWARD CITY, MI, 49329","Match","Exact","415 CEDAR ST, HOWARD CITY, MI, 49329",110555799,"R"
205403,"415 CEDAR ST","MONROE","LA",71201,32.5191501200001,-92.094333647,403,"415 CEDAR ST, MONROE, LA, 71201","Match","Exact","415 CEDAR ST, MONROE, LA, 71201",161086158,"L"
205404,"415 CENTRAL AVE","HALEDON","NJ",7508,40.9388598370001,-74.195951319,404,"415 CENTRAL AVE, HALEDON, NJ, 7508","Match","Exact","415 CENTRAL AVE, HALEDON, NJ, 07508",641164925,"L"
205405,"415 CHARLOTTE AVENUE","SCOTTSBORO","AL",35768,NA,NA,405,"415 CHARLOTTE AVENUE, SCOTTSBORO, AL, 35768","Tie",NA,NA,NA,NA
205406,"415 CHAUNCEY STREET 2C","BROOKLYN","NY",11233,40.6817437350001,-73.917844206,406,"415 CHAUNCEY STREET 2C, BROOKLYN, NY, 11233","Match","Exact","415 CHAUNCEY ST, BROOKLYN, NY, 11233",642654030,"L"
205407,"415 CHRISTOPHER CT","CANTON","GA",30115,NA,NA,407,"415 CHRISTOPHER CT, CANTON, GA, 30115","No_Match",NA,NA,NA,NA
205408,"415 CLARENDON STREET","SYRACUSE","NY",13210,43.0383090240001,-76.124293816,408,"415 CLARENDON STREET, SYRACUSE, NY, 13210","Match","Exact","415 CLARENDON ST, SYRACUSE, NY, 13210",46573470,"L"
205409,"415 COCONUT COURT","SOUTH BAY","FL",33493,26.6615975,-80.708978029,409,"415 COCONUT COURT, SOUTH BAY, FL, 33493","Match","Exact","415 COCONUT CT, SOUTH BAY, FL, 33493",115248604,"L"
205410,"415 CONRAD","BUFFALO","WY",82834,44.337614252,-106.702945478,410,"415 CONRAD, BUFFALO, WY, 82834","Match","Non_Exact","415 CONRAD ST, BUFFALO, WY, 82834",147313145,"L"
205411,"415 COUNTRY CLUB DRIVE","HOLDENVILLE","OK",74848,35.0825686970001,-96.383492482,411,"415 COUNTRY CLUB DRIVE, HOLDENVILLE, OK, 74848","Match","Exact","415 COUNTRY CLUB DR, HOLDENVILLE, OK, 74848",107312399,"L"
205412,"415 CRESTWOOD AVENUE","TUCKAHOE","NY",10707,40.9725775200001,-73.8179819219999,412,"415 CRESTWOOD AVENUE, TUCKAHOE, NY, 10707","Match","Exact","415 CRESTWOOD AVE, TUCKAHOE, NY, 10707",139739576,"R"
205413,"415 DAIRY RD SUITE E-429","KAHULUI","HI",96732,20.8841158590001,-156.453523777,413,"415 DAIRY RD SUITE E-429, KAHULUI, HI, 96732","Match","Exact","415 DAIRY RD, KAHULUI, HI, 96732",636835601,"L"
205414,"415 DAIRY ROAD SUITE E 612","KAHULUI","HI",96732,20.8841158590001,-156.453523777,414,"415 DAIRY ROAD SUITE E 612, KAHULUI, HI, 96732","Match","Exact","415 DAIRY RD, KAHULUI, HI, 96732",636835601,"L"
205415,"415 DARRAGH CT","LINCOLN","CA",95648,38.877681108,-121.309635119,415,"415 DARRAGH CT, LINCOLN, CA, 95648","Match","Exact","415 DARRAGH CT, LINCOLN, CA, 95648",631999202,"L"
205416,"415 DAVIS","FENTON","MI",48430,42.7926543400001,-83.713429654,416,"415 DAVIS, FENTON, MI, 48430","Match","Non_Exact","415 DAVIS ST, FENTON, MI, 48430",69580037,"L"
205417,"415 DEMPSTER EVANSTON","EVANSTON","IL",60201,42.041156383,-87.677500917,417,"415 DEMPSTER EVANSTON, EVANSTON, IL, 60201","Match","Non_Exact","415 DEMPSTER ST, EVANSTON, IL, 60201",605191917,"R"
205418,"415 DIAMOND STREET","REDONDO BEACH","CA",90277,33.8443468,-118.388048453,418,"415 DIAMOND STREET, REDONDO BEACH, CA, 90277","Match","Exact","415 DIAMOND ST, REDONDO BEACH, CA, 90277",141583845,"L"
205419,"415 E 300 S UNIT 2","SALT LAKE CITY","UT",84111,NA,NA,419,"415 E 300 S UNIT 2, SALT LAKE CITY, UT, 84111","No_Match",NA,NA,NA,NA
205420,"415 E 51ST ST","HIBBING","MN",55746,47.3788473970001,-92.934563822,420,"415 E 51ST ST, HIBBING, MN, 55746","Match","Exact","415 E 51ST ST, HIBBING, MN, 55746",624280661,"L"
205421,"415 E BROADWAY 102","GLENDALE","CA",91205,34.146339923,-118.251220653,421,"415 E BROADWAY 102, GLENDALE, CA, 91205","Match","Non_Exact","415 E BROADWAY, GLENDALE, CA, 91205",142730719,"L"
205422,"415 E CAPE SHORES DRIV","LEWES","DE",19958,38.783446741,-75.1057091489999,422,"415 E CAPE SHORES DRIV, LEWES, DE, 19958","Match","Exact","415 E CAPE SHORES DR, LEWES, DE, 19958",106114728,"R"
205423,"415 E COOK ROAD SUITE 500","FORT WAYNE","IN",46825,NA,NA,423,"415 E COOK ROAD SUITE 500, FORT WAYNE, IN, 46825","Tie",NA,NA,NA,NA
205424,"415 E FM 2410 RD UNIT 2333","HARKER HTS","TX",76548,NA,NA,424,"415 E FM 2410 RD UNIT 2333, HARKER HTS, TX, 76548","No_Match",NA,NA,NA,NA
205425,"415 E FM 2410 ROAD PO BOX 2256","HARKER HEIGHTS","TX",76548,NA,NA,425,"415 E FM 2410 ROAD PO BOX 2256, HARKER HEIGHTS, TX, 76548","No_Match",NA,NA,NA,NA
205426,"415 E FRENCHMANS BEND ROAD","MONROE","LA",71203,32.630566,-92.048464329,426,"415 E FRENCHMANS BEND ROAD, MONROE, LA, 71203","Match","Exact","415 E FRENCHMANS BEND RD, MONROE, LA, 71203",612356732,"L"
205427,"415 E FRONT ST","PLAINFIELD","NJ",7060,40.623549032,-74.4188030669999,427,"415 E FRONT ST, PLAINFIELD, NJ, 7060","Match","Exact","415 E FRONT ST, PLAINFIELD, NJ, 07060",60560481,"L"
205428,"415 E MAIN STREET","CHARLESTON","AR",72933,35.2970811070001,-94.0383593019999,428,"415 E MAIN STREET, CHARLESTON, AR, 72933","Match","Exact","415 E MAIN ST, CHARLESTON, AR, 72933",55884985,"L"
205429,"415 E MARSHALL ST","ATHENS","MI",49011,42.08325696,-85.2308281049999,429,"415 E MARSHALL ST, ATHENS, MI, 49011","Match","Exact","415 MARSHALL ST, ATHENS, MI, 49011",11710211,"R"
205430,"415 E O STREET","BENICIA","CA",94510,38.053308762,-122.147308659,430,"415 E O STREET, BENICIA, CA, 94510","Match","Exact","415 E O ST, BENICIA, CA, 94510",192620669,"L"
205431,"415 E POLK STREET","WASHINGTON","IA",52353,41.2884947110001,-91.688243515,431,"415 E POLK STREET, WASHINGTON, IA, 52353","Match","Exact","415 E POLK ST, WASHINGTON, IA, 52353",84182680,"R"
205432,"415 E SERRETT STREET","HAMBURG","AR",71646,33.209503742,-91.794006695,432,"415 E SERRETT STREET, HAMBURG, AR, 71646","Match","Exact","415 E SERRETT ST, HAMBURG, AR, 71646",649535453,"L"
205433,"415 E WALKER ST","ASH GROVE","MO",65604,NA,NA,433,"415 E WALKER ST, ASH GROVE, MO, 65604","Tie",NA,NA,NA,NA
205434,"415 EAST ALLEN","SPRINGFIELD","IL",62703,39.7893854490001,-89.6507559089999,434,"415 EAST ALLEN, SPRINGFIELD, IL, 62703","Match","Non_Exact","415 E ALLEN ST, SPRINGFIELD, IL, 62703",97325322,"L"
205435,"415 EAST MAIN STREET","BOONVILLE","IN",47601,38.04993367,-87.2704411289999,435,"415 EAST MAIN STREET, BOONVILLE, IN, 47601","Match","Exact","415 E MAIN ST, BOONVILLE, IN, 47601",32206204,"L"
205436,"415 EAST VINE STREET SUITE 213","MILWAUKEE","WI",53212,43.053558362,-87.907509884,436,"415 EAST VINE STREET SUITE 213, MILWAUKEE, WI, 53212","Match","Exact","415 E VINE ST, MILWAUKEE, WI, 53212",77768568,"R"
205437,"415 EDGEWOOD XING","BRANDON","MS",39042,32.268266032,-89.962422449,437,"415 EDGEWOOD XING, BRANDON, MS, 39042","Match","Exact","415 EDGEWOOD CROSSING, BRANDON, MS, 39042",627501300,"R"
205438,"415 ESSEX PARK CIRCLE","FRANKLIN","TN",37069,35.9645469930001,-86.898038965,438,"415 ESSEX PARK CIRCLE, FRANKLIN, TN, 37069","Match","Exact","415 ESSEX PARK CIR, FRANKLIN, TN, 37069",73128763,"L"
205439,"415 EUCLID AVE 3","SAN FRANCISCO","CA",94118,37.784059214,-122.452935175,439,"415 EUCLID AVE 3, SAN FRANCISCO, CA, 94118","Match","Exact","415 EUCLID AVE, SAN FRANCISCO, CA, 94118",192282085,"L"
205440,"415 FARM TO MARKET 2410 SUITE 3076","HARKER HEIGHTS","TX",76548,NA,NA,440,"415 FARM TO MARKET 2410 SUITE 3076, HARKER HEIGHTS, TX, 76548","No_Match",NA,NA,NA,NA
205441,"415 FEDERAL STREET","BLUEFIELD","WV",24701,37.268535274,-81.2220826179999,441,"415 FEDERAL STREET, BLUEFIELD, WV, 24701","Match","Exact","415 FEDERAL ST, BLUEFIELD, WV, 24701",47678172,"R"
205442,"415 FIRST STREET","WINTERS","CA",95694,38.5222715260001,-121.970876707,442,"415 FIRST STREET, WINTERS, CA, 95694","Match","Exact","415 1ST ST, WINTERS, CA, 95694",67695019,"L"
205443,"415 FRANCIS ST","ST JOSEPH","MO",64501,39.767390558,-94.8551931649999,443,"415 FRANCIS ST, ST JOSEPH, MO, 64501","Match","Exact","415 FRANCIS ST, SAINT JOSEPH, MO, 64501",15952239,"L"
205444,"415 FURNACEBROOK PARKWAY","QUINCY","MA",2170,42.257695492,-71.010213684,444,"415 FURNACEBROOK PARKWAY, QUINCY, MA, 2170","Match","Non_Exact","415 FURNACE BROOK PKWY, QUINCY, MA, 02170",87249671,"R"
205445,"415 GARRISON STREET","WACO","TX",76704,31.572892949,-97.1220094559999,445,"415 GARRISON STREET, WACO, TX, 76704","Match","Exact","415 GARRISON ST, WACO, TX, 76704",146737808,"R"
205446,"415 GLENLEA DR","FRIENDSWOOD","TX",77546,29.5318759800001,-95.1985968449999,446,"415 GLENLEA DR, FRIENDSWOOD, TX, 77546","Match","Exact","415 GLENLEA DR, FRIENDSWOOD, TX, 77546",96681677,"L"
205447,"415 GOLDEN BEAR CT","SAINT JOSEPH","MI",49085,42.118377803,-86.470246719,447,"415 GOLDEN BEAR CT, SAINT JOSEPH, MI, 49085","Match","Exact","415 GOLDEN BEAR CT, SAINT JOSEPH, MI, 49085",643034522,"L"
205448,"415 GRAND AVENUE  SUITE 200","SOUTH SAN FRANCISCO","CA",94080,37.6558363610001,-122.413143138,448,"415 GRAND AVENUE  SUITE 200, SOUTH SAN FRANCISCO, CA, 94080","Match","Exact","415 GRAND AVE, S SAN FRAN, CA, 94080",192373361,"L"
205449,"415 HEMLOCK DRIVE","NEW CUMBERLAND","PA",17070,40.2018359150001,-76.8797142189999,449,"415 HEMLOCK DRIVE, NEW CUMBERLAND, PA, 17070","Match","Exact","415 HEMLOCK DR, NEW CUMBERLAND, PA, 17070",611413535,"R"
205450,"415 HICKORY HILLS DR","AUSTIN","AR",72007,35.041073318,-92.020226042,450,"415 HICKORY HILLS DR, AUSTIN, AR, 72007","Match","Exact","415 HICKORY HILLS DR, AUSTIN, AR, 72007",79717497,"L"
205451,"415 HOWARD AVENUE","NEW SMYRNA BEACH","FL",32168,29.0247060040001,-80.938382315,451,"415 HOWARD AVENUE, NEW SMYRNA BEACH, FL, 32168","Match","Exact","415 HOWARD AVE, NEW SMYRNA BEACH, FL, 32168",646270959,"R"
205452,"415 HUNTINGTON AVENUE","BUFFALO","NY",14214,42.9463640860001,-78.847739254,452,"415 HUNTINGTON AVENUE, BUFFALO, NY, 14214","Match","Exact","415 HUNTINGTON AVE, BUFFALO, NY, 14214",642136041,"R"
205453,"415 HWY 327","SILSBEE","TX",77656,NA,NA,453,"415 HWY 327, SILSBEE, TX, 77656","No_Match",NA,NA,NA,NA
205454,"415 JACKSON STREET","FAIRMONT","NC",28340,34.5051306620001,-79.117326986,454,"415 JACKSON STREET, FAIRMONT, NC, 28340","Match","Exact","415 JACKSON ST, FAIRMONT, NC, 28340",49141387,"L"
205455,"415 JONES STREET","CHARLOTTE","NC",28208,35.2535331730001,-80.8791666069999,455,"415 JONES STREET, CHARLOTTE, NC, 28208","Match","Exact","415 JONES ST, CHARLOTTE, NC, 28208",70507640,"L"
205456,"415 KINGSTON PLANTATION BLVD","BENTON","LA",71006,32.6334672290001,-93.733521846,456,"415 KINGSTON PLANTATION BLVD, BENTON, LA, 71006","Match","Exact","415 KINGSTON PLANTATION BLVD, BENTON, LA, 71006",648639546,"L"
205457,"415 LAFAYETTE AVE APT 4H","BROOKLYN","NY",11238,40.6890366330001,-73.958689034,457,"415 LAFAYETTE AVE APT 4H, BROOKLYN, NY, 11238","Match","Exact","415 LAFAYETTE AVE, BROOKLYN, NY, 11238",650073900,"L"
205458,"415 LAHONTAN PASS","SUWANEE","GA",30024,34.047591944,-84.1146764389999,458,"415 LAHONTAN PASS, SUWANEE, GA, 30024","Match","Exact","415 LAHONTAN PASS, SUWANEE, GA, 30024",627272758,"R"
205459,"415 LAKE MANOR TRCE","ALPHARETTA","GA",30022,NA,NA,459,"415 LAKE MANOR TRCE, ALPHARETTA, GA, 30022","No_Match",NA,NA,NA,NA
205460,"415 LAURELWOOD LANE","SOUTHBURY","CT",6488,41.4343719490001,-73.218460243,460,"415 LAURELWOOD LANE, SOUTHBURY, CT, 6488","Match","Exact","415 LAURELWOOD LN, SOUTHBURY, CT, 06488",627488565,"L"
205461,"415 LEAVENWORTH STREET APT 232","OMAHA","NE",68102,41.2522474450001,-95.923849483,461,"415 LEAVENWORTH STREET APT 232, OMAHA, NE, 68102","Match","Exact","415 LEAVENWORTH ST, OMAHA, NE, 68102",117010387,"R"
205462,"415 LECLAIR LANE","ESCONDIDO","CA",92026,33.171600433,-117.09327251,462,"415 LECLAIR LANE, ESCONDIDO, CA, 92026","Match","Exact","415 LECLAIR LN, ESCONDIDO, CA, 92026",195452478,"L"
205463,"415 LEE TOWN DR","PEA RIDGE","AR",72751,36.444733963,-94.111805444,463,"415 LEE TOWN DR, PEA RIDGE, AR, 72751","Match","Exact","415 LEE TOWN DR, PEA RIDGE, AR, 72751",47825198,"L"
205464,"415 LEXINGTON AVENUE 2D","BROOKLYN","NY",11216,40.6882928250001,-73.945643654,464,"415 LEXINGTON AVENUE 2D, BROOKLYN, NY, 11216","Match","Exact","415 LEXINGTON AVE, BROOKLYN, NY, 11216",59079160,"L"
205465,"415 LEXINGTON AVENUE APT 2C","BROOKLYN","NY",11216,40.6882928250001,-73.945643654,465,"415 LEXINGTON AVENUE APT 2C, BROOKLYN, NY, 11216","Match","Exact","415 LEXINGTON AVE, BROOKLYN, NY, 11216",59079160,"L"
205466,"415 LINCOLN AVE","FALLS CHURCH","VA",22046,38.890351262,-77.1710466759999,466,"415 LINCOLN AVE, FALLS CHURCH, VA, 22046","Match","Exact","415 LINCOLN AVE, FALLS CHURCH, VA, 22046",76133806,"L"
205467,"415 LISBON ST","LEWISTON","ME",4243,NA,NA,467,"415 LISBON ST, LEWISTON, ME, 4243","No_Match",NA,NA,NA,NA
205468,"415 LUMSDEN ROAD APT 206","CHARLOTTE","NC",28262,35.336104817,-80.7137348269999,468,"415 LUMSDEN ROAD APT 206, CHARLOTTE, NC, 28262","Match","Exact","415 LUMSDEN RD, CHARLOTTE, NC, 28262",642170198,"L"
205469,"415 MAIN AVENUE EAST UNIT 1","WEST FARGO","ND",58078,46.8767193570001,-96.892401636,469,"415 MAIN AVENUE EAST UNIT 1, WEST FARGO, ND, 58078","Match","Exact","415 MAIN AVE E, WEST FARGO, ND, 58078",640610031,"R"
205470,"415 MAIN SSTREET  PH1G","NEW YORK","NY",10044,40.7582768360001,-73.952842839,470,"415 MAIN SSTREET  PH1G, NEW YORK, NY, 10044","Match","Non_Exact","415 MAIN ST, NEW YORK, NY, 10044",624649873,"L"
205471,"415 MAIN STREET PO BOX 157","ALPHA","MI",49902,46.0462487140001,-88.378262477,471,"415 MAIN STREET PO BOX 157, ALPHA, MI, 49902","Match","Exact","415 MAIN ST, ALPHA, MI, 49902",165182994,"L"
205472,"415 MAIN STREET","MURPHYS","CA",95247,38.1376303070001,-120.464263888,472,"415 MAIN STREET, MURPHYS, CA, 95247","Match","Exact","415 MAIN ST, MURPHYS, CA, 95247",640446990,"L"
205473,"415 MAIN STREET","NEW EAGLE","PA",15067,40.209932134,-79.9551817939999,473,"415 MAIN STREET, NEW EAGLE, PA, 15067","Match","Exact","415 MAIN ST, NEW EAGLE, PA, 15067",52808241,"L"
205474,"415 MAIN STREET","WEST HAVEN","CT",6516,41.2713286680001,-72.952407846,474,"415 MAIN STREET, WEST HAVEN, CT, 6516","Match","Exact","415 MAIN ST, W HAVEN, CT, 06516",3700795,"R"
205475,"415 MALIN ST WIECKING CTR STE 302","MANKATO","MN",56001,44.152146621,-94.002989645,475,"415 MALIN ST WIECKING CTR STE 302, MANKATO, MN, 56001","Match","Exact","415 MALIN ST, MANKATO, MN, 56001",28121347,"L"
205476,"415 MALIN ST","MANKATO","MN",56001,44.152146621,-94.002989645,476,"415 MALIN ST, MANKATO, MN, 56001","Match","Exact","415 MALIN ST, MANKATO, MN, 56001",28121347,"L"
205477,"415 MARIA VOLK DRIVE","OCONTO FALLS","WI",54154,44.869015565,-88.128988963,477,"415 MARIA VOLK DRIVE, OCONTO FALLS, WI, 54154","Match","Non_Exact","415 MARIE VOLK DR, OCONTO FALLS, WI, 54154",170333682,"L"
205478,"415 MARKET ST","TORONTO","OH",43964,40.4654286790001,-80.601839087,478,"415 MARKET ST, TORONTO, OH, 43964","Match","Exact","415 MARKET ST, TORONTO, OH, 43964",37799801,"L"
205479,"415 MARTIN LUTHER KING DRIVE","LAKEWOOD","NJ",8701,40.0796265020001,-74.2114286679999,479,"415 MARTIN LUTHER KING DRIVE, LAKEWOOD, NJ, 8701","Match","Exact","415 MARTIN LUTHER KING DR, LAKEWOOD, NJ, 08701",203724260,"L"
205480,"415 MASSACHUSETTS AVE","INDIANAPOLIS","IN",46204,39.7728590410001,-86.152061491,480,"415 MASSACHUSETTS AVE, INDIANAPOLIS, IN, 46204","Match","Exact","415 MASSACHUSETTS AVE, INDIANAPOLIS, IN, 46204",107991853,"R"
205481,"415 MESA VISTA COURT","COLORADO SPRINGS","CO",80904,38.853540724,-104.860541172,481,"415 MESA VISTA COURT, COLORADO SPRINGS, CO, 80904","Match","Exact","415 MESA VISTA CT, COLORADO SPRINGS, CO, 80904",105507014,"L"
205482,"415 MINA MEADOW LANE","ALEXANDRIA","MN",56308,45.8961466590001,-95.483089476,482,"415 MINA MEADOW LANE, ALEXANDRIA, MN, 56308","Match","Exact","415 MINA MEADOW LN, ALEXANDRIA, MN, 56308",606996014,"R"
205483,"415 MING AVE","BAKERSFIELD","CA",93307,35.3394516230001,-119.00647852,483,"415 MING AVE, BAKERSFIELD, CA, 93307","Match","Exact","415 MING AVE, BAKERSFIELD, CA, 93307",109090860,"L"
205484,"415 MIRAMAR DRIVE","REDONDO BEACH","CA",90277,33.836757005,-118.383309439,484,"415 MIRAMAR DRIVE, REDONDO BEACH, CA, 90277","Match","Exact","415 MIRAMAR DR, REDONDO BEACH, CA, 90277",141584112,"L"
205485,"415 MISSION STREET SUITE 300","SAN FRANCISCO","CA",94105,37.7903190530001,-122.396860417,485,"415 MISSION STREET SUITE 300, SAN FRANCISCO, CA, 94105","Match","Exact","415 MISSION ST, SAN FRANCISCO, CA, 94105",192281586,"L"
205486,"415 MONTGOMERY STREET","JERSEY CITY","NJ",7302,40.7203779440001,-74.053378165,486,"415 MONTGOMERY STREET, JERSEY CITY, NJ, 7302","Match","Exact","415 MONTGOMERY ST, JERSEY CITY, NJ, 07302",59605918,"L"
205487,"415 MORGAN FALLS RD APT 9101","ATLANTA","GA",30350,NA,NA,487,"415 MORGAN FALLS RD APT 9101, ATLANTA, GA, 30350","No_Match",NA,NA,NA,NA
205488,"415 N  FRONT ST APT 518","COLUMBUS","OH",43215,NA,NA,488,"415 N  FRONT ST APT 518, COLUMBUS, OH, 43215","Tie",NA,NA,NA,NA
205489,"415 N 31ST ST","TEMPLE","TX",76502,31.105830477,-97.355762348,489,"415 N 31ST ST, TEMPLE, TX, 76502","Match","Non_Exact","415 N 31ST ST, TEMPLE, TX, 76504",146148131,"R"
205490,"415 N 31ST STREET","TEMPLE","TX",76504,31.105830477,-97.355762348,490,"415 N 31ST STREET, TEMPLE, TX, 76504","Match","Exact","415 N 31ST ST, TEMPLE, TX, 76504",146148131,"R"
205491,"415 N BLOXHAM AVENUE","TAVARES","FL",32778,28.8047406740001,-81.734557372,491,"415 N BLOXHAM AVENUE, TAVARES, FL, 32778","Match","Exact","415 N BLOXHAM AVE, TAVARES, FL, 32778",636336322,"L"
205492,"415 N BROADWAY","SANTA ANA","CA",92701,33.7481853310001,-117.869729936,492,"415 N BROADWAY, SANTA ANA, CA, 92701","Match","Exact","415 N BROADWAY, SANTA ANA, CA, 92701",144041982,"R"
205493,"415 N CENTER STREET","BLOOMINGTON","IL",61701,40.481476415,-88.994679225,493,"415 N CENTER STREET, BLOOMINGTON, IL, 61701","Match","Exact","415 N CENTER ST, BLOOMINGTON, IL, 61701",20545717,"R"
205494,"415 N CHURCH ST APT 1711","NASHVILLE","TN",37219,36.1636346810001,-86.779094189,494,"415 N CHURCH ST APT 1711, NASHVILLE, TN, 37219","Match","Exact","415 CHURCH ST, NASHVILLE, TN, 37219",606815470,"L"
205495,"415 N COMMERCIAL- 285","SEDGWICK","KS",67135,NA,NA,495,"415 N COMMERCIAL- 285, SEDGWICK, KS, 67135","No_Match",NA,NA,NA,NA
205496,"415 N GREENWOOD ST","PUEBLO","CO",81003,38.271171644,-104.61310499,496,"415 N GREENWOOD ST, PUEBLO, CO, 81003","Match","Exact","415 N GREENWOOD ST, PUEBLO, CO, 81003",105067152,"L"
205497,"415 N GROVE ST","EUSTIS","FL",32726,28.8565412620001,-81.683621693,497,"415 N GROVE ST, EUSTIS, FL, 32726","Match","Exact","415 N GROVE ST, EUSTIS, FL, 32726",94110803,"R"
205498,"415 N HOME RD","ONTARIO","OH",44906,40.7640303640001,-82.5709541799999,498,"415 N HOME RD, ONTARIO, OH, 44906","Match","Exact","415 N HOME RD, ONTARIO, OH, 44906",207222875,"L"
205499,"415 N IVORY","LUBBOCK","TX",79403,33.60332729,-101.821327841,499,"415 N IVORY, LUBBOCK, TX, 79403","Match","Non_Exact","415 N IVORY AVE, LUBBOCK, TX, 79403",185248346,"L"
205500,"415 N LASALLE STREET SUITE 401","CHICAGO","IL",60654,NA,NA,500,"415 N LASALLE STREET SUITE 401, CHICAGO, IL, 60654","No_Match",NA,NA,NA,NA
