"ID","Address","City","State","Zip","lat","long","id","input_address","match_indicator","match_type","matched_address","tiger_line_id","tiger_side"
273501,"6942 DEER CREEK TRACE","STONE MOUNTAIN","GA",30087,33.8000215230001,-84.106805751,1,"6942 DEER CREEK TRACE, STONE MOUNTAIN, GA, 30087","Match","Exact","6942 DEER CREEK TRCE, STONE MOUNTAIN, GA, 30087",23394806,"L"
273502,"6942 DIAMOND DRIVE","REX","GA",30273,NA,NA,2,"6942 DIAMOND DRIVE, REX, GA, 30273","No_Match",NA,NA,NA,NA
273503,"6942 FM 1960 E 159","HUMBLE","TX",77346,NA,NA,3,"6942 FM 1960 E 159, HUMBLE, TX, 77346","No_Match",NA,NA,NA,NA
273504,"6942 FM 1960 E PMB 118","HUMBLE","TX",77346,NA,NA,4,"6942 FM 1960 E PMB 118, HUMBLE, TX, 77346","No_Match",NA,NA,NA,NA
273505,"6942 FM 1960 RD E 267","HUMBLE","TX",77346,NA,NA,5,"6942 FM 1960 RD E 267, HUMBLE, TX, 77346","No_Match",NA,NA,NA,NA
273506,"6942 FM 1960 ROAD EAST","HUMBLE","TX",77346,29.9983271580001,-95.171862168,6,"6942 FM 1960 ROAD EAST, HUMBLE, TX, 77346","Match","Non_Exact","6942 FM 1960 RD, HUMBLE, TX, 77346",96663806,"R"
273507,"6942 FM RD 1960 RD E 267","HUMBLE","TX",77346,NA,NA,7,"6942 FM RD 1960 RD E 267, HUMBLE, TX, 77346","No_Match",NA,NA,NA,NA
273508,"6942 S ABERDEEN","CHICAGO","IL",60621,41.767919067,-87.651768727,8,"6942 S ABERDEEN, CHICAGO, IL, 60621","Match","Non_Exact","6942 S ABERDEEN ST, CHICAGO, IL, 60621",111830742,"R"
273509,"6942 SHADOWOOD ST","RIVERSIDE","CA",92506,33.925178568,-117.325359294,9,"6942 SHADOWOOD ST, RIVERSIDE, CA, 92506","Match","Exact","6942 SHADOWOOD ST, RIVERSIDE, CA, 92506",194801177,"L"
273510,"6942 SOUTH SPARROWTAIL ROAD","WEST JORDAN","UT",84081,40.625125719,-112.015008603,10,"6942 SOUTH SPARROWTAIL ROAD, WEST JORDAN, UT, 84081","Match","Non_Exact","6942 SPARROWTAIL RD, WEST JORDAN, UT, 84081",647272150,"R"
273511,"6942 SOUTH TUCANA LANE","GILBERT","AZ",85298,33.2241261290001,-111.724412852,11,"6942 SOUTH TUCANA LANE, GILBERT, AZ, 85298","Match","Exact","6942 S TUCANA LN, GILBERT, AZ, 85298",128874665,"R"
273512,"6942 W OLIVE AVE UNIT 43","PEORIA","AZ",85345,33.567092164,-112.208365983,12,"6942 W OLIVE AVE UNIT 43, PEORIA, AZ, 85345","Match","Non_Exact","6942 W OLIVE AVE, PEORIA, AZ, 85345",128427096,"R"
273513,"6943 CAVE SPRINGS RD","DOUGLASVILLE","GA",30134,NA,NA,13,"6943 CAVE SPRINGS RD, DOUGLASVILLE, GA, 30134","No_Match",NA,NA,NA,NA
273514,"6943 CONGRESSIONAL BLVD","SAN ANTONIO","TX",78244,29.4943667580001,-98.342920218,14,"6943 CONGRESSIONAL BLVD, SAN ANTONIO, TX, 78244","Match","Exact","6943 CONGRESSIONAL BLVD, SAN ANTONIO, TX, 78244",101570534,"L"
273515,"6943 W MONTROSE AVENUE","HARWOOD HEIGHTS","IL",60706,41.9610505250001,-87.80156217,15,"6943 W MONTROSE AVENUE, HARWOOD HEIGHTS, IL, 60706","Match","Non_Exact","6943 W MONTROSE AVE, HARWOOD HEIGHTS, IL, 60706",111749937,"L"
273516,"6944 BURCHELL AVENUE","FAR ROCKAWAY","NY",11692,NA,NA,16,"6944 BURCHELL AVENUE, FAR ROCKAWAY, NY, 11692","No_Match",NA,NA,NA,NA
273517,"6944 CLARIDGE PLACE","PITTSBURGH","PA",15208,40.4501873150001,-79.9070659289999,17,"6944 CLARIDGE PLACE, PITTSBURGH, PA, 15208","Match","Exact","6944 CLARIDGE PL, PITTSBURGH, PA, 15208",51647179,"L"
273518,"6944 NATIONAL RD","THORNVILLE","OH",43076,39.959354922,-82.412486981,18,"6944 NATIONAL RD, THORNVILLE, OH, 43076","Match","Non_Exact","6944 NATIONAL RD SE, THORNVILLE, OH, 43076",61508932,"R"
273519,"6944 NAVIGATION BLVD","HOUSTON","TX",77011,29.744193379,-95.30007244,19,"6944 NAVIGATION BLVD, HOUSTON, TX, 77011","Match","Exact","6944 NAVIGATION BLVD, HOUSTON, TX, 77011",96083023,"R"
273520,"6945 CONVERSE HUFF ROAD","PLAIN CITY","OH",43064,40.088804457,-83.277307492,20,"6945 CONVERSE HUFF ROAD, PLAIN CITY, OH, 43064","Match","Exact","6945 CONVERSE HUFF RD, PLAIN CITY, OH, 43064",635537178,"L"
273521,"6945 E 77TH ST","INDIANAPOLIS","IN",46250,39.8942592120001,-86.0465698629999,21,"6945 E 77TH ST, INDIANAPOLIS, IN, 46250","Match","Exact","6945 E 77TH ST, INDIANAPOLIS, IN, 46250",627093954,"R"
273522,"6945 FERNWOOD DRIVE UNIT H","CHARLOTTE","NC",28211,35.155484458,-80.753485074,22,"6945 FERNWOOD DRIVE UNIT H, CHARLOTTE, NC, 28211","Match","Exact","6945 FERNWOOD DR, CHARLOTTE, NC, 28211",653469758,"L"
273523,"6945 GREENFIELD LN","CUMMING","GA",30028,34.2948064220001,-84.186787776,23,"6945 GREENFIELD LN, CUMMING, GA, 30028","Match","Exact","6945 GREENFIELD LN, CUMMING, GA, 30028",634100917,"L"
273524,"6945 JULIA GARDENS DRIVE","COCONUT CREEK","FL",33073,26.317064207,-80.175351454,24,"6945 JULIA GARDENS DRIVE, COCONUT CREEK, FL, 33073","Match","Exact","6945 JULIA GARDENS DR, COCONUT CREEK, FL, 33073",651798992,"L"
273525,"6945 KNOB HILL RD","FORT WORTH","TX",76140,32.6547965610001,-97.2774046169999,25,"6945 KNOB HILL RD, FORT WORTH, TX, 76140","Match","Exact","6945 KNOB HILL, FORT WORTH, TX, 76140",101902749,"L"
273526,"6945 PIONEER DRIVE","MACUNGIE","PA",18062,40.5214100360001,-75.57203,26,"6945 PIONEER DRIVE, MACUNGIE, PA, 18062","Match","Exact","6945 PIONEER DR, MACUNGIE, PA, 18062",639849470,"L"
273527,"6945 RANCHITO AVE","VAN NUYS","CA",91405,34.196441893,-118.435625477,27,"6945 RANCHITO AVE, VAN NUYS, CA, 91405","Match","Exact","6945 RANCHITO AVE, VAN NUYS, CA, 91405",141561209,"L"
273528,"6945 S GREEN ST FLOOR 1","CHICAGO","IL",60621,41.7678658410001,-87.645697021,28,"6945 S GREEN ST FLOOR 1, CHICAGO, IL, 60621","Match","Non_Exact","6945 S GREEN ST, CHICAGO, IL, 60621",605489436,"L"
273529,"6945 S STONY ISLAND","CHICAGO","IL",60649,NA,NA,29,"6945 S STONY ISLAND, CHICAGO, IL, 60649","Tie",NA,NA,NA,NA
273530,"6945 TOKALON DRIVE","DALLAS","TX",75214,32.819121855,-96.7392796679999,30,"6945 TOKALON DRIVE, DALLAS, TX, 75214","Match","Exact","6945 TOKALON DR, DALLAS, TX, 75214",102919454,"L"
273531,"6945 WATERS EDGE DRIVE","STONE MOUNTAIN","GA",30087,33.7959611220001,-84.101980042,31,"6945 WATERS EDGE DRIVE, STONE MOUNTAIN, GA, 30087","Match","Exact","6945 WATERS EDGE DR, STONE MOUNTAIN, GA, 30087",23389081,"L"
273532,"6946 CANARY IVY WAY","LAS VEGAS","NV",89156,NA,NA,32,"6946 CANARY IVY WAY, LAS VEGAS, NV, 89156","No_Match",NA,NA,NA,NA
273533,"6946 LONG PINE CIR","COCONUT CREEK","FL",33073,26.3164421450001,-80.19542838,33,"6946 LONG PINE CIR, COCONUT CREEK, FL, 33073","Match","Exact","6946 LONG PINE CIR, COCONUT CREEK, FL, 33073",648618354,"R"
273534,"6946 N FRANKFORT RD","THORNTOWN","IN",46071,40.1399394950001,-86.570884832,34,"6946 N FRANKFORT RD, THORNTOWN, IN, 46071","Match","Exact","6946 N FRANKFORT RD, THORNTOWN, IN, 46071",610992531,"L"
273535,"6946 RASPBERRY RDG","LIBERTY TWP","OH",45011,39.37793758,-84.417199212,35,"6946 RASPBERRY RDG, LIBERTY TWP, OH, 45011","Match","Exact","6946 RASPBERRY RIDGE, LIBERTY TWP, OH, 45011",113808378,"L"
273536,"6946 SODA HILL DR","SHREVEPORT","LA",71107,32.6479068190001,-93.895737162,36,"6946 SODA HILL DR, SHREVEPORT, LA, 71107","Match","Exact","6946 SODA HILL DR, SHREVEPORT, LA, 71107",57490696,"R"
273537,"6946 SOUTH BENTON","KANSAS CITY","MO",64132,39.0006543380001,-94.553288998,37,"6946 SOUTH BENTON, KANSAS CITY, MO, 64132","Match","Non_Exact","6946 S BENTON AVE, KANSAS CITY, MO, 64132",91456885,"R"
273538,"69460 VISTA MONTANA COURT","CATHEDRAL CITY","CA",92234,33.7911508720001,-116.450415795,38,"69460 VISTA MONTANA COURT, CATHEDRAL CITY, CA, 92234","Match","Exact","69460 VISTA MONTANA CT, CATHEDRAL CITY, CA, 92234",618364067,"R"
273539,"6947 APPLE HARVEST DR","GERRARDSTOWN","WV",25420,39.3959699000001,-78.1014188239999,39,"6947 APPLE HARVEST DR, GERRARDSTOWN, WV, 25420","Match","Exact","6947 APPLE HARVEST DR, GERRARDSTOWN, WV, 25420",647477191,"L"
273540,"6947 BELLCLAIRE ST","TUJUNGA","CA",91042,34.259428918,-118.281979128,40,"6947 BELLCLAIRE ST, TUJUNGA, CA, 91042","Match","Exact","6947 BELLCLAIRE ST, TUJUNGA, CA, 91042",141588183,"R"
273541,"6947 BROOKHAVEN WAY","CITRUS HEIGHTS","CA",95621,38.6757423660001,-121.301994305,41,"6947 BROOKHAVEN WAY, CITRUS HEIGHTS, CA, 95621","Match","Exact","6947 BROOKHAVEN WAY, CITRUS HEIGHTS, CA, 95621",133342405,"L"
273542,"6947 CLOVIS RD","JACKSONVILLE","FL",32205,30.3079625460001,-81.7622677419999,42,"6947 CLOVIS RD, JACKSONVILLE, FL, 32205","Match","Exact","6947 CLOVIS RD, JACKSONVILLE, FL, 32205",83910075,"R"
273543,"6947 COAL CREEK PARKWAY SE - 713","NEWCASTLE","WA",98059,47.5382557890001,-122.166011951,43,"6947 COAL CREEK PARKWAY SE - 713, NEWCASTLE, WA, 98059","Match","Exact","6947 COAL CREEK PKWY SE, NEWCASTLE, WA, 98059",187039881,"R"
273544,"6947 COAL CREEK PKWY SE  PMB 389","NEWCASTLE","WA",98059,47.5382557890001,-122.166011951,44,"6947 COAL CREEK PKWY SE  PMB 389, NEWCASTLE, WA, 98059","Match","Exact","6947 COAL CREEK PKWY SE, NEWCASTLE, WA, 98059",187039881,"R"
273545,"6947 NAVA","GRAND PRAIRIE","TX",75054,32.6004083220001,-97.053156568,45,"6947 NAVA, GRAND PRAIRIE, TX, 75054","Match","Exact","6947 NAVA, GRAND PRAIRIE, TX, 75054",637606581,"R"
273546,"6947 PLANK ROAD","CHARLOTTESVILLE","VA",22903,38.0067797940001,-78.7336958559999,46,"6947 PLANK ROAD, CHARLOTTESVILLE, VA, 22903","Match","Exact","6947 PLANK RD, CHARLOTTESVILLE, VA, 22903",83397428,"L"
273547,"6947 STONEBRIDGE CT","STONE MOUNTAIN","GA",30087,NA,NA,47,"6947 STONEBRIDGE CT, STONE MOUNTAIN, GA, 30087","No_Match",NA,NA,NA,NA
273548,"6948 MAYFAIR TERRACE","LAUREL","MD",20707,39.0877666440001,-76.886414626,48,"6948 MAYFAIR TERRACE, LAUREL, MD, 20707","Match","Exact","6948 MAYFAIR TER, LAUREL, MD, 20707",76331495,"R"
273549,"6948 N WESTERN AVE","CHICAGO","IL",60645,42.0080965440001,-87.690155149,49,"6948 N WESTERN AVE, CHICAGO, IL, 60645","Match","Exact","6948 N WESTERN AVE, CHICAGO, IL, 60645",616790464,"L"
273550,"6948 PEPPERTREE DR","LONGMONT","CO",80503,40.100660071,-105.17464142,50,"6948 PEPPERTREE DR, LONGMONT, CO, 80503","Match","Exact","6948 PEPPERTREE DR, LONGMONT, CO, 80503",220752587,"L"
273551,"6948 PRINCE DR","COLORADO SPRINGS","CO",80918,38.9323273250001,-104.802488723,51,"6948 PRINCE DR, COLORADO SPRINGS, CO, 80918","Match","Exact","6948 PRINCE DR, COLORADO SPRINGS, CO, 80918",105562993,"L"
273552,"6948 SONYA DR","NASHVILLE","TN",37209,36.113788175,-86.9186101029999,52,"6948 SONYA DR, NASHVILLE, TN, 37209","Match","Exact","6948 SONYA DR, NASHVILLE, TN, 37209",633339755,"L"
273553,"6948 VILLA HERMOSA DRIVE","EL PASO","TX",79912,31.8494730890001,-106.548560046,53,"6948 VILLA HERMOSA DRIVE, EL PASO, TX, 79912","Match","Exact","6948 VILLA HERMOSA DR, EL PASO, TX, 79912",189334704,"L"
273554,"6949 ALMEDA AVE APT 2","ARVERNE","NY",11692,NA,NA,54,"6949 ALMEDA AVE APT 2, ARVERNE, NY, 11692","No_Match",NA,NA,NA,NA
273555,"6949 ELMO ST UNIT B","TUJUNGA","CA",91042,34.250992941,-118.283750395,55,"6949 ELMO ST UNIT B, TUJUNGA, CA, 91042","Match","Exact","6949 ELMO ST, TUJUNGA, CA, 91042",141588496,"R"
273556,"6949 KINGS COURT","LINCOLN","NE",68516,40.756675069,-96.6262431119999,56,"6949 KINGS COURT, LINCOLN, NE, 68516","Match","Exact","6949 KINGS CT, LINCOLN, NE, 68516",643648827,"R"
273557,"6949 THURSBY AVE","AVERNE","NY",11692,NA,NA,57,"6949 THURSBY AVE, AVERNE, NY, 11692","No_Match",NA,NA,NA,NA
273558,"6949 W WOLF ST","PHOENIX","AZ",85033,33.505912913,-112.207567972,58,"6949 W WOLF ST, PHOENIX, AZ, 85033","Match","Exact","6949 W WOLF ST, PHOENIX, AZ, 85033",128193961,"L"
273559,"695 11TH STREET","MEEKER","CO",81641,40.040238663,-107.922027655,59,"695 11TH STREET, MEEKER, CO, 81641","Match","Exact","695 11TH ST, MEEKER, CO, 81641",126000762,"L"
273560,"695 ANDANTE DR","SEDONA","AZ",86336,34.8728080400001,-111.806227128,60,"695 ANDANTE DR, SEDONA, AZ, 86336","Match","Exact","695 ANDANTE DR, SEDONA, AZ, 86336",159475221,"L"
273561,"695 CARL WILLIAMS ROAD","SENOIA","GA",30276,33.2487810920001,-84.525095651,61,"695 CARL WILLIAMS ROAD, SENOIA, GA, 30276","Match","Exact","695 CARL WILLIAMS RD, SENOIA, GA, 30276",9328334,"L"
273562,"695 CARLYLE PL","UNION","NJ",7083,40.688884429,-74.265890096,62,"695 CARLYLE PL, UNION, NJ, 7083","Match","Exact","695 CARLYLE PL, UNION, NJ, 07083",60572005,"R"
273563,"695 CARRIAGE DRIVE","BATAVIA","IL",60510,41.861952579,-88.3218757989999,63,"695 CARRIAGE DRIVE, BATAVIA, IL, 60510","Match","Exact","695 CARRIAGE DR, BATAVIA, IL, 60510",119537014,"R"
273564,"695 CASTLEWOOD DRIVE","STREAMWOOD","IL",60107,42.0208924570001,-88.21428844,64,"695 CASTLEWOOD DRIVE, STREAMWOOD, IL, 60107","Match","Exact","695 CASTLEWOOD DR, STREAMWOOD, IL, 60107",111884671,"L"
273565,"695 CENTER AVENUE","BEAVER SPRINGS","PA",17812,40.7467984830001,-77.204964662,65,"695 CENTER AVENUE, BEAVER SPRINGS, PA, 17812","Match","Exact","695 CENTER AVE, BEAVER SPRINGS, PA, 17812",47793248,"R"
273566,"695 CONCORD DRIVE","CHASKA","MN",55318,44.8030436060001,-93.617234705,66,"695 CONCORD DRIVE, CHASKA, MN, 55318","Match","Exact","695 CONCORD DR, CHASKA, MN, 55318",43502969,"L"
273567,"695 COOPER CT EAST","AURORA","IL",60504,41.742831804,-88.2417261539999,67,"695 COOPER CT EAST, AURORA, IL, 60504","Match","Non_Exact","695 COOPER CT, AURORA, IL, 60504",112535135,"R"
273568,"695 CRESTA CIRCLE","WEST PALM BEACH","FL",33413,26.686219694,-80.151702626,68,"695 CRESTA CIRCLE, WEST PALM BEACH, FL, 33413","Match","Exact","695 CRESTA CIR, WEST PALM BEACH, FL, 33413",636397488,"L"
273569,"695 CROWN ST","BROOKLYN","NY",11213,40.665426858,-73.9349189599999,69,"695 CROWN ST, BROOKLYN, NY, 11213","Match","Exact","695 CROWN ST, BROOKLYN, NY, 11213",59079875,"L"
273570,"695 DUTCHESS TURNPIKE SUITE 210","POUGHKEEPSIE","NY",12603,41.6989043390001,-73.8805667139999,70,"695 DUTCHESS TURNPIKE SUITE 210, POUGHKEEPSIE, NY, 12603","Match","Exact","695 DUTCHESS TPKE, POUGHKEEPSIE, NY, 12603",4169103,"L"
273571,"695 E MAIN STREET","GALLATIN","TN",37066,36.394458371,-86.4324411699999,71,"695 E MAIN STREET, GALLATIN, TN, 37066","Match","Exact","695 E MAIN ST, GALLATIN, TN, 37066",615415183,"R"
273572,"695 EAST 185TH STREET","CLEVELAND","OH",44119,41.588699692,-81.549874137,72,"695 EAST 185TH STREET, CLEVELAND, OH, 44119","Match","Exact","695 E 185TH ST, CLEVELAND, OH, 44119",61107881,"L"
273573,"695 EAST SHEFFIELD AVENUE","CHANDLER","AZ",85225,33.3250755170001,-111.830016479,73,"695 EAST SHEFFIELD AVENUE, CHANDLER, AZ, 85225","Match","Exact","695 E SHEFFIELD AVE, CHANDLER, AZ, 85225",128786271,"R"
273574,"695 FIELD ST SE  STE 412","ATLANTA","GA",30316,33.7517214060001,-84.3608645039999,74,"695 FIELD ST SE  STE 412, ATLANTA, GA, 30316","Match","Exact","695 FIELD ST SE, ATLANTA, GA, 30316",17408270,"R"
273575,"695 FIELD STREET SE SUITE 202","ATLANTA","GA",30316,33.7517214060001,-84.3608645039999,75,"695 FIELD STREET SE SUITE 202, ATLANTA, GA, 30316","Match","Exact","695 FIELD ST SE, ATLANTA, GA, 30316",17408270,"R"
273576,"695 HOWARD STREET APT 15A","SPARTANBURG","SC",29303,34.9590327810001,-81.946229882,76,"695 HOWARD STREET APT 15A, SPARTANBURG, SC, 29303","Match","Exact","695 HOWARD ST, SPARTANBURG, SC, 29303",19467413,"R"
273577,"695 HUNTINGTON RD","ATHENS","GA",30606,33.950089701,-83.463650059,77,"695 HUNTINGTON RD, ATHENS, GA, 30606","Match","Exact","695 HUNTINGTON RD, ATHENS, GA, 30606",4807274,"L"
273578,"695 JENKINS LANE","STRASBURG","VA",22657,38.9961307500001,-78.372702535,78,"695 JENKINS LANE, STRASBURG, VA, 22657","Match","Exact","695 JENKINS LN, STRASBURG, VA, 22657",55927690,"L"
273579,"695 KALALEA ST","HONOLULU","HI",96825,21.290266854,-157.691636788,79,"695 KALALEA ST, HONOLULU, HI, 96825","Match","Exact","695 KALALEA ST, HONOLULU, HI, 96825",203334079,"R"
273580,"695 LIVERNOIS ST","FERNDALE","MI",48220,42.4518924650001,-83.142611131,80,"695 LIVERNOIS ST, FERNDALE, MI, 48220","Match","Exact","695 LIVERNOIS ST, FERNDALE, MI, 48220",69807036,"L"
273581,"695 LOVE BRANCH RD","HARVEST","AL",35749,34.8484121660001,-86.784676267,81,"695 LOVE BRANCH RD, HARVEST, AL, 35749","Match","Exact","695 LOVE BRANCH RD, HARVEST, AL, 35749",58213627,"L"
273582,"695 LUCILLE AVENUE","MEMPHIS","TN",38106,35.0956474550001,-90.039145817,82,"695 LUCILLE AVENUE, MEMPHIS, TN, 38106","Match","Exact","695 LUCILLE AVE, MEMPHIS, TN, 38106",72908177,"R"
273583,"695 MAIN STREET APT 364","HARLEYSVILLE","PA",19438,40.2877901480001,-75.398256467,83,"695 MAIN STREET APT 364, HARLEYSVILLE, PA, 19438","Match","Exact","695 MAIN ST, HARLEYSVILLE, PA, 19438",135126451,"L"
273584,"695 MAIN STREET","BOYLSTON","MA",1505,42.352198394,-71.735199446,84,"695 MAIN STREET, BOYLSTON, MA, 1505","Match","Exact","695 MAIN ST, BOYLSTON, MA, 01505",40086322,"L"
273585,"695 MINNESOTA AVENUE","MCCOMB","MS",39648,31.2455916530001,-90.460244733,85,"695 MINNESOTA AVENUE, MCCOMB, MS, 39648","Match","Exact","695 MINNESOTA AVE, MCCOMB, MS, 39648",75858236,"L"
273586,"695 MITCHELLS LANE","MARIETTA","OH",45750,NA,NA,86,"695 MITCHELLS LANE, MARIETTA, OH, 45750","No_Match",NA,NA,NA,NA
273587,"695 N BATES","DINUBA","CA",93618,36.551102886,-119.392845939,87,"695 N BATES, DINUBA, CA, 93618","Match","Non_Exact","695 N BATES AVE, DINUBA, CA, 93618",202776560,"L"
273588,"695 NE 174TH STREET","33162","FL",33162,25.9351344290001,-80.186650118,88,"695 NE 174TH STREET, 33162, FL, 33162","Match","Non_Exact","695 NE 174TH ST, ULETA, FL, 33162",640556491,"L"
273589,"695 ORBITER LN","LAS VEGAS","NV",89148,36.035821255,-115.283569093,89,"695 ORBITER LN, LAS VEGAS, NV, 89148","Match","Exact","695 ORBITER LN, LAS VEGAS, NV, 89148",202003085,"R"
273590,"695 ORCHARD HEIGHTS RD NW 304","SALEM","OR",97304,44.9536893640001,-123.053778767,90,"695 ORCHARD HEIGHTS RD NW 304, SALEM, OR, 97304","Match","Exact","695 ORCHARD HEIGHTS RD NW, SALEM, OR, 97304",155779388,"R"
273591,"695 PARK AVENUE","PATERSON","NJ",7504,40.912450549,-74.134774068,91,"695 PARK AVENUE, PATERSON, NJ, 7504","Match","Exact","695 PARK AVE, PATERSON, NJ, 07504",65277617,"L"
273592,"695 PROSPECT AVE APT 3","BRONX","NY",10455,40.8159402100001,-73.9031363409999,92,"695 PROSPECT AVE APT 3, BRONX, NY, 10455","Match","Exact","695 PROSPECT AVE, BRONX, NY, 10455",80302184,"L"
273593,"695 ROCHESTER COURT","VENTURA","CA",93004,34.2812274230001,-119.167080178,93,"695 ROCHESTER COURT, VENTURA, CA, 93004","Match","Exact","695 ROCHESTER CT, VENTURA, CA, 93004",110039260,"L"
273594,"695 ROLLING THUNDER DR","OFALLON","MO",63368,38.742572556,-90.732549917,94,"695 ROLLING THUNDER DR, OFALLON, MO, 63368","Match","Non_Exact","695 ROLLING THUNDER DR, O FALLON, MO, 63368",100101615,"L"
273595,"695 S COMMERICAL AVE","SMITHVILLE","MO",64089,39.3761849200001,-94.579354166,95,"695 S COMMERICAL AVE, SMITHVILLE, MO, 64089","Match","Non_Exact","695 S COMMERCIAL AVE, SMITHVILLE, MO, 64089",89769013,"R"
273596,"695 SANTA BARBARA ST","PASADENA","CA",91101,34.1555686180001,-118.13540643,96,"695 SANTA BARBARA ST, PASADENA, CA, 91101","Match","Exact","695 SANTA BARBARA ST, PASADENA, CA, 91101",141628794,"L"
273597,"695 SCHOOLHOUSE LN","TOMS RIVER","NJ",8753,39.9668312650001,-74.1650660079999,97,"695 SCHOOLHOUSE LN, TOMS RIVER, NJ, 8753","Match","Exact","695 SCHOOLHOUSE LN, TOMS RIVER, NJ, 08753",203747273,"R"
273598,"695 SEBASTIAN BLVD","SEBASTIAN","FL",32958,27.7922697860001,-80.4853876,98,"695 SEBASTIAN BLVD, SEBASTIAN, FL, 32958","Match","Exact","695 SEBASTIAN BLVD, SEBASTIAN, FL, 32958",647913336,"R"
273599,"695 SIERRA MADRE BLVD","MADRE","CA",91024,NA,NA,99,"695 SIERRA MADRE BLVD, MADRE, CA, 91024","Tie",NA,NA,NA,NA
273600,"695 SOUTH VERMONT AVENUE STE 503","LOS ANGELES","CA",90005,34.059998077,-118.291638364,100,"695 SOUTH VERMONT AVENUE STE 503, LOS ANGELES, CA, 90005","Match","Exact","695 S VERMONT AVE, LOS ANGELES, CA, 90005",652036124,"R"
273601,"695 SW MILL VIEW WAY STE 101","BEND","OR",97702,44.050031754,-121.317408386,101,"695 SW MILL VIEW WAY STE 101, BEND, OR, 97702","Match","Non_Exact","695 SW MILL VIEW WAY, BEND, OR, 97702",152586893,"L"
273602,"695 SW SALERNO RD","STUART","FL",34997,27.1205895210001,-80.2628402189999,102,"695 SW SALERNO RD, STUART, FL, 34997","Match","Exact","695 SW SALERNO RD, STUART, FL, 34997",120408920,"L"
273603,"695 TOWN CENTER DRIVE STE 700","COSTA MESA","CA",92626,NA,NA,103,"695 TOWN CENTER DRIVE STE 700, COSTA MESA, CA, 92626","No_Match",NA,NA,NA,NA
273604,"695 TRUMAN PARKWAY  SUITE 201-202","HYDE PARK","MA",2136,NA,NA,104,"695 TRUMAN PARKWAY  SUITE 201-202, HYDE PARK, MA, 2136","No_Match",NA,NA,NA,NA
273605,"695 VICTORIAN COURT","CHARLOTTESVILLE","VA",22901,38.0554550480001,-78.462792042,105,"695 VICTORIAN COURT, CHARLOTTESVILLE, VA, 22901","Match","Exact","695 VICTORIAN CT, CHARLOTTESVILLE, VA, 22901",83373498,"R"
273606,"695 W FALMOUTH RD","MCBAIN","MI",49657,44.2365931190001,-85.108332229,106,"695 W FALMOUTH RD, MCBAIN, MI, 49657","Match","Non_Exact","695 W FALMOUTH RD, MC BAIN, MI, 49657",146065432,"L"
273607,"695 WASHINGTON ST 1403","BUFFALO","NY",14203,42.8927532160001,-78.870981898,107,"695 WASHINGTON ST 1403, BUFFALO, NY, 14203","Match","Exact","695 WASHINGTON ST, BUFFALO, NY, 14203",48290884,"R"
273608,"695 WESTWOOD AVE","MOAB","UT",84532,38.5876716070001,-109.563482236,108,"695 WESTWOOD AVE, MOAB, UT, 84532","Match","Non_Exact","695 WESTWOOD DR, MOAB, UT, 84532",126065652,"L"
273609,"695 YOUNG ROAD","ANGIER","NC",27501,35.479216083,-78.6692667619999,109,"695 YOUNG ROAD, ANGIER, NC, 27501","Match","Exact","695 YOUNG RD, ANGIER, NC, 27501",71989769,"L"
273610,"6950 AMERICANA PKWY STE H","REYNOLDSBURG","OH",43068,39.9298824580001,-82.816053869,110,"6950 AMERICANA PKWY STE H, REYNOLDSBURG, OH, 43068","Match","Exact","6950 AMERICANA PKWY, REYNOLDSBURG, OH, 43068",218677092,"L"
273611,"6950 ARLINGTON ST","BRECKSVILLE","OH",44141,41.3184512390001,-81.629724052,111,"6950 ARLINGTON ST, BRECKSVILLE, OH, 44141","Match","Exact","6950 ARLINGTON ST, BRECKSVILLE, OH, 44141",61141955,"R"
273612,"6950 BAKER CIR","CLERMONG","GA",30527,34.496922571,-83.7974816139999,112,"6950 BAKER CIR, CLERMONG, GA, 30527","Match","Non_Exact","6950 BAKER CIR, CLERMONT, GA, 30527",98245540,"L"
273613,"6950 BEACH BLVD STE E104","BUENA PARK","CA",90621,33.859753251,-117.998020612,113,"6950 BEACH BLVD STE E104, BUENA PARK, CA, 90621","Match","Exact","6950 BEACH BLVD, BUENA PARK, CA, 90621",609052673,"L"
273614,"6950 BRECKSVILLE ROAD","INDEPENDENCE","OH",44131,41.3736222110001,-81.63916533,114,"6950 BRECKSVILLE ROAD, INDEPENDENCE, OH, 44131","Match","Exact","6950 BRECKSVILLE RD, INDEPENDENCE, OH, 44131",61170905,"R"
273615,"6950 DAWNHILL RD","BARTLETT","TN",38135,35.235207141,-89.83150226,115,"6950 DAWNHILL RD, BARTLETT, TN, 38135","Match","Exact","6950 DAWNHILL RD, BARTLETT, TN, 38135",72900522,"L"
273616,"6950 E BELLEVIEW AVE SUITE 300","GREENWOOD VILLAGE","CO",80111,39.624077175,-104.908122637,116,"6950 E BELLEVIEW AVE SUITE 300, GREENWOOD VILLAGE, CO, 80111","Match","Non_Exact","6950 E BELLEVIEW AVE, GREENWOOD VILLAGE, CO, 80111",634911010,"R"
273617,"6950 NOLEN CIR","CINCINNATI","OH",45227,39.1468143720001,-84.374217204,117,"6950 NOLEN CIR, CINCINNATI, OH, 45227","Match","Exact","6950 NOLEN CIR, CINCINNATI, OH, 45227",103939467,"L"
273618,"6950 OAK ST","ARVADA","CO",80004,39.82297749,-105.119088333,118,"6950 OAK ST, ARVADA, CO, 80004","Match","Exact","6950 OAK ST, ARVADA, CO, 80004",177284743,"R"
273619,"6950 OLD SHELL RD","MOBILE","AL",36608,30.691577115,-88.2034785609999,119,"6950 OLD SHELL RD, MOBILE, AL, 36608","Match","Exact","6950 OLD SHELL RD, MOBILE, AL, 36608",640365798,"R"
273620,"6950 PLEASENT VIEW ROAD","ST MARYS","KS",66556,39.256932567,-96.110274759,120,"6950 PLEASENT VIEW ROAD, ST MARYS, KS, 66556","Match","Non_Exact","6950 PLEASANT VIEW RD, SAINT MARYS, KS, 66536",22313103,"L"
273621,"6950 S 77TH EAST AVE","TULSA","OK",74133,36.0619264960001,-95.891441959,121,"6950 S 77TH EAST AVE, TULSA, OK, 74133","Match","Exact","6950 S 77TH EAST AVE, TULSA, OK, 74133",166455024,"R"
273622,"6950 S CREGIER AVE UNIT F","CHICAGO","IL",60649,41.7688108500001,-87.5813008979999,122,"6950 S CREGIER AVE UNIT F, CHICAGO, IL, 60649","Match","Non_Exact","6950 S CREGIER AVE, CHICAGO, IL, 60649",111774619,"R"
273623,"6950 S FM 730","AZLE","TX",76020,32.8372526420001,-97.637732292,123,"6950 S FM 730, AZLE, TX, 76020","Match","Exact","6950 S FM 730, AZLE, TX, 76020",103599055,"R"
273624,"6950 S STEWART AVE","CHICAGO","IL",60621,41.76805303,-87.6347412269999,124,"6950 S STEWART AVE, CHICAGO, IL, 60621","Match","Exact","6950 S STEWART AVE, CHICAGO, IL, 60621",111831236,"R"
273625,"6950 SW 117 AVE","MIAMI","FL",33183,25.70316745,-80.382265132,125,"6950 SW 117 AVE, MIAMI, FL, 33183","Match","Exact","6950 SW 117TH AVE, MIAMI, FL, 33183",640559062,"L"
273626,"6951 1ST AVENUE SOUTH","RICHFIELD","MN",55423,44.8774678400001,-93.276886164,126,"6951 1ST AVENUE SOUTH, RICHFIELD, MN, 55423","Match","Exact","6951 1ST AVE S, RICHFIELD, MN, 55423",43835983,"L"
273627,"6951 DICKENS FERRY ROAD/29","MOBILE","AL",36608,30.688892219,-88.203569821,127,"6951 DICKENS FERRY ROAD/29, MOBILE, AL, 36608","Match","Non_Exact","6951 DICKENS FERRY RD, MOBILE, AL, 36608",61955305,"L"
273628,"6951 MCCLEAN BLVD","BALTIMORE","MD",21234,39.3700662960001,-76.567107428,128,"6951 MCCLEAN BLVD, BALTIMORE, MD, 21234","Match","Exact","6951 MCCLEAN BLVD, BALTIMORE, MD, 21234",206448812,"R"
273629,"6951 OLIVE BLVD","UNIVERSITY CITY","MO",63130,38.6652008670001,-90.3151261899999,129,"6951 OLIVE BLVD, UNIVERSITY CITY, MO, 63130","Match","Exact","6951 OLIVE BLVD, UNIVERSITY CITY, MO, 63130",100152041,"R"
273630,"6951 SEASCAPE DRIVE","GRAND PRAIRIE","TX",75054,32.600777077,-97.048902923,130,"6951 SEASCAPE DRIVE, GRAND PRAIRIE, TX, 75054","Match","Exact","6951 SEASCAPE DR, GRAND PRAIRIE, TX, 75054",617666888,"R"
273631,"6951 SEASCAPE DRV","GRAND PRAIRIE","TX",75054,32.600777077,-97.048902923,131,"6951 SEASCAPE DRV, GRAND PRAIRIE, TX, 75054","Match","Exact","6951 SEASCAPE DR, GRAND PRAIRIE, TX, 75054",617666888,"R"
273632,"6951 ST HWY 72","JACKSON","MO",63755,37.4095118920001,-89.759704556,132,"6951 ST HWY 72, JACKSON, MO, 63755","Match","Non_Exact","6951 STATE HWY 72, JACKSON, MO, 63755",617366973,"L"
273633,"6952 FORT DEPOSIT DRIVE","PENSACOLA","FL",32526,30.545339256,-87.399871315,133,"6952 FORT DEPOSIT DRIVE, PENSACOLA, FL, 32526","Match","Exact","6952 FORT DEPOSIT DR, PENSACOLA, FL, 32526",617457054,"R"
273634,"6952 S CHAPPEL AVENUE","CHICAGO","IL",60649,41.76884548,-87.575153669,134,"6952 S CHAPPEL AVENUE, CHICAGO, IL, 60649","Match","Exact","6952 S CHAPPEL AVE, CHICAGO, IL, 60649",111775512,"R"
273635,"6952 S WENTWORTH AVE","CHICAGO","IL",60621,41.7681054820001,-87.629847537,135,"6952 S WENTWORTH AVE, CHICAGO, IL, 60621","Match","Exact","6952 S WENTWORTH AVE, CHICAGO, IL, 60621",111831267,"R"
273636,"6952 VINTAGE LN","PORT ORANGE","FL",32128,29.0500753040001,-81.0294080419999,136,"6952 VINTAGE LN, PORT ORANGE, FL, 32128","Match","Exact","6952 VINTAGE LN, PORT ORANGE, FL, 32128",612319342,"R"
273637,"6952 W TACNA DR","TUCSON","AZ",85743,32.3612189670001,-111.113330248,137,"6952 W TACNA DR, TUCSON, AZ, 85743","Match","Exact","6952 W TACNA DR, TUCSON, AZ, 85743",121230203,"L"
273638,"6953 OGBURN FARMS DRIVE","WILLOW SPRINGS","NC",27592,35.576497466,-78.658357355,138,"6953 OGBURN FARMS DRIVE, WILLOW SPRINGS, NC, 27592","Match","Exact","6953 OGBURN FARMS DR, WILLOW SPRING, NC, 27592",612823610,"R"
273639,"6954 AMERICANA PKWY","REYNOLDSBURG","OH",43068,39.92989785,-82.8159565669999,139,"6954 AMERICANA PKWY, REYNOLDSBURG, OH, 43068","Match","Exact","6954 AMERICANA PKWY, REYNOLDSBURG, OH, 43068",218677092,"L"
273640,"6954 BRASWELL ST","LITHONIA","GA",30058,33.719170261,-84.103741567,140,"6954 BRASWELL ST, LITHONIA, GA, 30058","Match","Exact","6954 BRASWELL ST, LITHONIA, GA, 30058",23381937,"L"
273641,"6954 HOPEWELL RD WEST","ROBERTA","GA",31078,NA,NA,141,"6954 HOPEWELL RD WEST, ROBERTA, GA, 31078","No_Match",NA,NA,NA,NA
273642,"6954 MIDWAY AVE","GLENDALE","AZ",85303,33.5413158810001,-112.208817141,142,"6954 MIDWAY AVE, GLENDALE, AZ, 85303","Match","Non_Exact","6954 W MIDWAY AVE, GLENDALE, AZ, 85303",128837772,"L"
273643,"69549 KNOTTINGHAM LANE","EDWARDSBURG","MI",49112,41.788071212,-86.060452964,143,"69549 KNOTTINGHAM LANE, EDWARDSBURG, MI, 49112","Match","Exact","69549 KNOTTINGHAM LN, EDWARDSBURG, MI, 49112",22583753,"R"
273644,"6955 5TH STREET SW","VERO BEACH","FL",32968,NA,NA,144,"6955 5TH STREET SW, VERO BEACH, FL, 32968","No_Match",NA,NA,NA,NA
273645,"6955 DALE HOLLOW DRIVE SE","CALEDONIA","MI",49316,42.837868353,-85.615134032,145,"6955 DALE HOLLOW DRIVE SE, CALEDONIA, MI, 49316","Match","Exact","6955 DALE HOLLOW DR SE, CALEDONIA, MI, 49316",614109255,"R"
273646,"6955 HALL SCHOOL ROAD","MARTINSVILLE","IN",46151,39.5266794770001,-86.5427567629999,146,"6955 HALL SCHOOL ROAD, MARTINSVILLE, IN, 46151","Match","Exact","6955 HALL SCHOOL RD, MARTINSVILLE, IN, 46151",43542950,"R"
273647,"6955 HOMER KNOST ROAD","DENHAM SPRINGS","LA",70706,30.5566076480001,-90.971002094,147,"6955 HOMER KNOST ROAD, DENHAM SPRINGS, LA, 70706","Match","Exact","6955 HOMER KNOST RD, DENHAM SPRINGS, LA, 70706",627207333,"R"
273648,"6955 LIMERICK DR","BEAUMONT","TX",77706,30.090218239,-94.18364953,148,"6955 LIMERICK DR, BEAUMONT, TX, 77706","Match","Exact","6955 LIMERICK DR, BEAUMONT, TX, 77706",73875459,"R"
273649,"6955 N DURANGO DR 1115-127","LAS VEGAS","NV",89149,36.286618649,-115.287848045,149,"6955 N DURANGO DR 1115-127, LAS VEGAS, NV, 89149","Match","Non_Exact","6955 N DURANGO DR, LAS VEGAS, NV, 89149",630483314,"L"
273650,"6955 N DURANGO DR STE 1115-145","LAS VEGAS","NV",89149,36.286618649,-115.287848045,150,"6955 N DURANGO DR STE 1115-145, LAS VEGAS, NV, 89149","Match","Non_Exact","6955 N DURANGO DR, LAS VEGAS, NV, 89149",630483314,"L"
273651,"6955 N DURANGO STE 1115-296","LAS VEGAS","NV",89149,NA,NA,151,"6955 N DURANGO STE 1115-296, LAS VEGAS, NV, 89149","No_Match",NA,NA,NA,NA
273652,"6955 NORTH DURANGO DRIVE SUITE 1006","LAS VEGAS","NV",89149,36.2866130580001,-115.287847974,152,"6955 NORTH DURANGO DRIVE SUITE 1006, LAS VEGAS, NV, 89149","Match","Exact","6955 N DURANGO DR, LAS VEGAS, NV, 89149",630483314,"L"
273653,"6955 SW DANCASTER ROAD","TOPEKA","KS",66610,38.998898551,-95.785452112,153,"6955 SW DANCASTER ROAD, TOPEKA, KS, 66610","Match","Exact","6955 SW DANCASTER RD, TOPEKA, KS, 66610",17899669,"L"
273654,"6955 US HWY 50 W","BAINBRIDGE","OH",45612,39.241763398,-83.2228657379999,154,"6955 US HWY 50 W, BAINBRIDGE, OH, 45612","Match","Non_Exact","6955 US HWY 50, BAINBRIDGE, OH, 45612",37493028,"L"
273655,"6955 YATES STREET","WESTMINSTER","CO",80030,39.823024387,-105.049903963,155,"6955 YATES STREET, WESTMINSTER, CO, 80030","Match","Exact","6955 YATES ST, WESTMINSTER, CO, 80030",177297669,"R"
273656,"6956 00 25 RD","GARDEN","MI",49835,NA,NA,156,"6956 00 25 RD, GARDEN, MI, 49835","No_Match",NA,NA,NA,NA
273657,"6956 BOBOLINK WAY","SACRAMENTO","CA",95831,38.500094903,-121.556274864,157,"6956 BOBOLINK WAY, SACRAMENTO, CA, 95831","Match","Exact","6956 BOBOLINK WAY, SACRAMENTO, CA, 95831",133349451,"R"
273658,"6956 E BROAD STREET SUITE 207","COLUMBUS","OH",43213,39.982487351,-82.8163691999999,158,"6956 E BROAD STREET SUITE 207, COLUMBUS, OH, 43213","Match","Non_Exact","6956 E BROAD ST, COLUMBUS, OH, 43213",631991008,"L"
273659,"6956 EAST BROAD STREET","COLUMBUS","OH",43213,39.982485619,-82.8163853249999,159,"6956 EAST BROAD STREET, COLUMBUS, OH, 43213","Match","Exact","6956 E BROAD ST, COLUMBUS, OH, 43213",631991008,"L"
273660,"6956 NICHOLSON DR","MOLINO","TN",32577,NA,NA,160,"6956 NICHOLSON DR, MOLINO, TN, 32577","No_Match",NA,NA,NA,NA
273661,"69565 MORNINGSIDE DR","DESERT HOT SPRINGS","CA",92241,33.9277717310001,-116.448212986,161,"69565 MORNINGSIDE DR, DESERT HOT SPRINGS, CA, 92241","Match","Exact","69565 MORNINGSIDE DR, DESERT HOT SPRINGS, CA, 92241",194692516,"R"
273662,"6957 NORTH ASHLAND BOULEVARD STE1S","CHICAGO","IL",60626,42.008241049,-87.670037201,162,"6957 NORTH ASHLAND BOULEVARD STE1S, CHICAGO, IL, 60626","Match","Exact","6957 N ASHLAND BLVD, CHICAGO, IL, 60626",111745412,"R"
273663,"6958 DOGWOOD DR","SEAFORD","DE",19973,38.652072823,-75.63157281,163,"6958 DOGWOOD DR, SEAFORD, DE, 19973","Match","Exact","6958 DOGWOOD DR, SEAFORD, DE, 19973",106083517,"R"
273664,"6958 GRIFFIN RD","DAVIE","FL",33314,26.06477683,-80.2395690769999,164,"6958 GRIFFIN RD, DAVIE, FL, 33314","Match","Exact","6958 GRIFFIN RD, DAVIE, FL, 33314",637514397,"R"
273665,"6958 MEESE","LANSING","MI",48911,42.656704,-84.562274684,165,"6958 MEESE, LANSING, MI, 48911","Match","Non_Exact","6958 MEESE DR, LANSING, MI, 48911",17502672,"R"
273666,"6958 PLEASANT DR","AUSTELL","GA",30168,33.7842315350001,-84.586749076,166,"6958 PLEASANT DR, AUSTELL, GA, 30168","Match","Exact","6958 PLEASANT DR, AUSTELL, GA, 30168",17175096,"R"
273667,"6959 CLAYWOOD WAY","SAN JOSE","CA",95120,37.2066255030001,-121.827120372,167,"6959 CLAYWOOD WAY, SAN JOSE, CA, 95120","Match","Exact","6959 CLAYWOOD WAY, SAN JOSE, CA, 95120",122999749,"R"
273668,"6959 COURTHOUSE ROAD","SPOSTYLVANIA","VA",22551,38.16239769,-77.656642921,168,"6959 COURTHOUSE ROAD, SPOSTYLVANIA, VA, 22551","Match","Non_Exact","6959 COURTHOUSE RD, SPOTSYLVANIA, VA, 22551",640693588,"R"
273669,"6959 LEE ROAD 246","SMITHS STATION","AL",36877,32.522527586,-85.10767398,169,"6959 LEE ROAD 246, SMITHS STATION, AL, 36877","Match","Exact","6959 LEE ROAD 246, SMITHS STATION, AL, 36877",1577058,"R"
273670,"6959 LONGWATER DR","MAUMEE","OH",43537,41.556021091,-83.708931175,170,"6959 LONGWATER DR, MAUMEE, OH, 43537","Match","Exact","6959 LONGWATER DR, MAUMEE, OH, 43537",33962892,"L"
273671,"6959 NORTH MEADOW DR","PAINESVILLE","OH",44077,41.6801662020001,-81.277084338,171,"6959 NORTH MEADOW DR, PAINESVILLE, OH, 44077","Match","Exact","6959 N MEADOW DR, PAINESVILLE, OH, 44077",137476916,"R"
273672,"6959 NORTH RIDGE BLVD UNIT 1E","CHICAGO","IL",60645,NA,NA,172,"6959 NORTH RIDGE BLVD UNIT 1E, CHICAGO, IL, 60645","Tie",NA,NA,NA,NA
273673,"6959 W IRMA LN","GLENDALE","AZ",85308,33.6708383600001,-112.209425309,173,"6959 W IRMA LN, GLENDALE, AZ, 85308","Match","Exact","6959 W IRMA LN, GLENDALE, AZ, 85308",128394665,"R"
273674,"6959","CANAL WINCHESTER","OH",43110,NA,NA,174,"6959, CANAL WINCHESTER, OH, 43110","No_Match",NA,NA,NA,NA
273675,"696 CARLYSLE ST","AKRON","OH",44310,41.1042698890001,-81.51820801,175,"696 CARLYSLE ST, AKRON, OH, 44310","Match","Exact","696 CARLYSLE ST, AKRON, OH, 44310",61340820,"L"
273676,"696 CELESTIAL CIRCLE","CLAYTON","GA",30525,34.8393031530001,-83.375496916,176,"696 CELESTIAL CIRCLE, CLAYTON, GA, 30525","Match","Exact","696 CELESTIAL CIR, CLAYTON, GA, 30525",648286246,"R"
273677,"696 COUNTY ROAD 344","PIGGOTT","AR",72454,36.4183440680001,-90.1858529789999,177,"696 COUNTY ROAD 344, PIGGOTT, AR, 72454","Match","Exact","696 CO RD 344, PIGGOTT, AR, 72454",41035702,"L"
273678,"696 CUMBERLAND RD NE","ATLANTA","GA",30306,33.7961983960001,-84.364419115,178,"696 CUMBERLAND RD NE, ATLANTA, GA, 30306","Match","Exact","696 CUMBERLAND RD NE, ATLANTA, GA, 30306",17356267,"L"
273679,"696 D AVENIDA SEVILLA","LAGUNA WOODS","CA",92637,33.5999080780001,-117.702157322,179,"696 D AVENIDA SEVILLA, LAGUNA WOODS, CA, 92637","Match","Exact","696 AVE SEVILLA, LAGUNA WOODS, CA, 92637",609044260,"L"
273680,"696 E 320 S","SALEM","UT",84653,40.049571519,-111.659162583,180,"696 E 320 S, SALEM, UT, 84653","Match","Exact","696 320 S, SALEM, UT, 84653",625339828,"L"
273681,"696 E 8TH ST","SALEM","OH",44460,40.9080919370001,-80.851162072,181,"696 E 8TH ST, SALEM, OH, 44460","Match","Exact","696 E 8TH ST, SALEM, OH, 44460",639282605,"R"
273682,"696 FOX AVE APT 224","LEWISVILLE","TX",75067,33.0366608790001,-97.00398345,182,"696 FOX AVE APT 224, LEWISVILLE, TX, 75067","Match","Exact","696 FOX AVE, LEWISVILLE, TX, 75067",103426157,"R"
273683,"696 GREENWOOD AVENUE","AKRON","OH",44320,41.0881062990001,-81.565967153,183,"696 GREENWOOD AVENUE, AKRON, OH, 44320","Match","Exact","696 GREENWOOD AVE, AKRON, OH, 44320",61338345,"R"
273684,"696 HARRIS AVENUE","STATEN ISLAND","NY",10314,40.6054555470001,-74.1359778459999,184,"696 HARRIS AVENUE, STATEN ISLAND, NY, 10314","Match","Exact","696 HARRIS AVE, STATEN ISLAND, NY, 10314",59890833,"R"
273685,"696 MERRIMACK STREET APT 1","LOWELL","MA",1854,42.6484652400001,-71.319414631,185,"696 MERRIMACK STREET APT 1, LOWELL, MA, 1854","Match","Exact","696 MERRIMACK ST, LOWELL, MA, 01854",86878117,"L"
273686,"696 MOUNT ZION ROAD  SUITE 8-A","JONESBORO","GA",30236,33.5729090150001,-84.366929746,186,"696 MOUNT ZION ROAD  SUITE 8-A, JONESBORO, GA, 30236","Match","Exact","696 MOUNT ZION RD, JONESBORO, GA, 30236",23316185,"L"
273687,"696 MOWBRAY ARCH APT 440","NORFOLK","VA",23507,NA,NA,187,"696 MOWBRAY ARCH APT 440, NORFOLK, VA, 23507","No_Match",NA,NA,NA,NA
273688,"696 MT ZION RD 5B","JONESBORO","GA",30236,33.5729090150001,-84.366929746,188,"696 MT ZION RD 5B, JONESBORO, GA, 30236","Match","Exact","696 MOUNT ZION RD, JONESBORO, GA, 30236",23316185,"L"
273689,"696 MURSET AVE SE","PALM BAY","FL",32909,27.9815901210001,-80.639019444,189,"696 MURSET AVE SE, PALM BAY, FL, 32909","Match","Exact","696 MURSET AVE SE, PALM BAY, FL, 32909",93926602,"R"
273690,"696 N SANTA CRUZ AVE","LOS GATOS","CA",95030,37.235771034,-121.977605283,190,"696 N SANTA CRUZ AVE, LOS GATOS, CA, 95030","Match","Exact","696 N SANTA CRUZ AVE, LOS GATOS, CA, 95030",614044324,"R"
273691,"696 NEW HOPE ROAD","GOLDSBORO","NC",27534,35.384604515,-77.8979563939999,191,"696 NEW HOPE ROAD, GOLDSBORO, NC, 27534","Match","Non_Exact","696 E NEW HOPE RD, GOLDSBORO, NC, 27534",643172653,"R"
273692,"696 NORTH COLFAX STREET","BYRON","IL",61010,42.12687678,-89.263829587,192,"696 NORTH COLFAX STREET, BYRON, IL, 61010","Match","Exact","696 N COLFAX ST, BYRON, IL, 61010",52323482,"R"
273693,"696 OAKMONT LANE UNIT A1","WHEELING","IL",60090,42.1515301800001,-87.94340866,193,"696 OAKMONT LANE UNIT A1, WHEELING, IL, 60090","Match","Exact","696 OAKMONT LN, WHEELING, IL, 60090",111837773,"L"
273694,"696 PURDUE AVE","YOUNGSTOWN","OH",44515,41.0886455560001,-80.765697153,194,"696 PURDUE AVE, YOUNGSTOWN, OH, 44515","Match","Exact","696 PURDUE AVE, YOUNGSTOWN, OH, 44515",64591323,"R"
273695,"696 RIDGE WAY","LITHONIA","GA",30058,33.775688308,-84.084312943,195,"696 RIDGE WAY, LITHONIA, GA, 30058","Match","Exact","696 RIDGE WAY, LITHONIA, GA, 30058",23385494,"L"
273696,"696 S OLD HIGHWAY 141 APT 204","FENTON","MO",63026,NA,NA,196,"696 S OLD HIGHWAY 141 APT 204, FENTON, MO, 63026","No_Match",NA,NA,NA,NA
273697,"696 SAN RAMON VALLEY BLVD  STE 149","DANVILLE","CA",94526,NA,NA,197,"696 SAN RAMON VALLEY BLVD  STE 149, DANVILLE, CA, 94526","No_Match",NA,NA,NA,NA
273698,"696 SAN RAMON VALLEY BLVD NUM 264","DANVILLE","CA",94526,NA,NA,198,"696 SAN RAMON VALLEY BLVD NUM 264, DANVILLE, CA, 94526","No_Match",NA,NA,NA,NA
273699,"696 SISKIYOU BLVD APT 1","ASHLAND","OR",97520,42.191742091,-122.70440255,199,"696 SISKIYOU BLVD APT 1, ASHLAND, OR, 97520","Match","Exact","696 SISKIYOU BLVD, ASHLAND, OR, 97520",155521808,"L"
273700,"696 VINELAND AVE","HENDERSON","NV",89052,36.012006485,-115.101740668,200,"696 VINELAND AVE, HENDERSON, NV, 89052","Match","Exact","696 VINELAND AVE, HENDERSON, NV, 89052",201954645,"R"
273701,"696 WATER ST","HOBART","IN",46342,41.527388676,-87.255901685,201,"696 WATER ST, HOBART, IN, 46342","Match","Exact","696 WATER ST, HOBART, IN, 46342",98436756,"R"
273702,"696 WESTBROOK ST","SOUTH PORTLAND","ME",4106,43.640443299,-70.3110520979999,202,"696 WESTBROOK ST, SOUTH PORTLAND, ME, 4106","Match","Exact","696 WESTBROOK ST, SOUTH PORTLAND, ME, 04106",623906128,"L"
273703,"6960 APPIAN DR","SAN DIEGO","CA",92139,32.677403278,-117.038680474,203,"6960 APPIAN DR, SAN DIEGO, CA, 92139","Match","Exact","6960 APPIAN DR, SAN DIEGO, CA, 92139",195361527,"L"
273704,"6960 BRADY COURT","LIBERTY TOWNSHIP","OH",45044,39.398339621,-84.388466412,204,"6960 BRADY COURT, LIBERTY TOWNSHIP, OH, 45044","Match","Exact","6960 BRADY CT, LIBERTY TOWNSHIP, OH, 45044",604774401,"L"
273705,"6960 DOUBLETREE RD NE","CEDAR RAPIDS","IA",52402,42.0476454070001,-91.6511046109999,205,"6960 DOUBLETREE RD NE, CEDAR RAPIDS, IA, 52402","Match","Exact","6960 DOUBLETREE RD NE, CEDAR RAPIDS, IA, 52402",17041382,"R"
273706,"6960 KEATING DRIVE","RIVERSIDE","CA",92503,33.956790873,-117.471379724,206,"6960 KEATING DRIVE, RIVERSIDE, CA, 92503","Match","Exact","6960 KEATING DR, RIVERSIDE, CA, 92503",194736228,"R"
273707,"6960 MARVIN D LOVE FRWY B6","DALLAS","TX",75237,32.666161414,-96.865774255,207,"6960 MARVIN D LOVE FRWY B6, DALLAS, TX, 75237","Match","Exact","6960 MARVIN D LOVE FWY, DALLAS, TX, 75237",102993405,"L"
273708,"6960 MARVIN D LOVE FRWY","DALLAS","TX",75237,32.666161414,-96.865774255,208,"6960 MARVIN D LOVE FRWY, DALLAS, TX, 75237","Match","Exact","6960 MARVIN D LOVE FWY, DALLAS, TX, 75237",102993405,"L"
273709,"6960 MEADE STREET","PITTSBURGH","PA",15208,40.451876703,-79.906145978,209,"6960 MEADE STREET, PITTSBURGH, PA, 15208","Match","Exact","6960 MEADE ST, PITTSBURGH, PA, 15208",51647171,"R"
273710,"6960 NW 3RD AVE","MIAMI","FL",33150,25.838596066,-80.2024589389999,210,"6960 NW 3RD AVE, MIAMI, FL, 33150","Match","Exact","6960 NW 3RD AVE, MIAMI, FL, 33150",116006326,"L"
273711,"6960 RALEIGH STREET","HOLLYWOOD","FL",33024,26.0330550460001,-80.22777407,211,"6960 RALEIGH STREET, HOLLYWOOD, FL, 33024","Match","Exact","6960 RALEIGH ST, HOLLYWOOD, FL, 33024",114715858,"R"
273712,"6960 S COLUMBIA","TULSA","OK",74136,36.062550446,-95.9499437809999,212,"6960 S COLUMBIA, TULSA, OK, 74136","Match","Non_Exact","6960 S COLUMBIA AVE, TULSA, OK, 74136",166444751,"R"
273713,"6960 SVL BOX","SPRING VALLEY LAKE","CA",92395,NA,NA,213,"6960 SVL BOX, SPRING VALLEY LAKE, CA, 92395","No_Match",NA,NA,NA,NA
273714,"6960 SW 16TH STREET","PLANTATION","FL",33317,26.102927998,-80.240554002,214,"6960 SW 16TH STREET, PLANTATION, FL, 33317","Match","Exact","6960 SW 16TH ST, PLANTATION, FL, 33317",114711228,"L"
273715,"6960 SW 27TH ST","MIRAMAR","FL",33023,25.985538197,-80.2262763259999,215,"6960 SW 27TH ST, MIRAMAR, FL, 33023","Match","Exact","6960 SW 27TH ST, MIRAMAR, FL, 33023",114734349,"L"
273716,"6960 SW 36TH STREET","HOLLYWOOD","FL",33023,25.976725566,-80.2273230919999,216,"6960 SW 36TH STREET, HOLLYWOOD, FL, 33023","Match","Exact","6960 SW 36TH ST, HOLLYWOOD, FL, 33023",114734713,"R"
273717,"6960 TALKEETNA CT SW","ATLANTA","GA",30331,33.6820555250001,-84.6164929729999,217,"6960 TALKEETNA CT SW, ATLANTA, GA, 30331","Match","Exact","6960 TALKEETNA CT SW, ATLANTA, GA, 30331",642058985,"L"
273718,"6960 VIRGILIAN STREET","NEW ORLEANS","LA",70126,30.0241102700001,-90.018570188,218,"6960 VIRGILIAN STREET, NEW ORLEANS, LA, 70126","Match","Exact","6960 VIRGILIAN ST, NEW ORLEANS, LA, 70126",191705334,"L"
273719,"6960 W STATE AVE","GLENDALE","AZ",85303,33.5438086350001,-112.209224408,219,"6960 W STATE AVE, GLENDALE, AZ, 85303","Match","Exact","6960 W STATE AVE, GLENDALE, AZ, 85303",128418003,"R"
273720,"6961 DURFEE WAY","LIBERTY","UT",84310,41.3847942800001,-111.900504864,220,"6961 DURFEE WAY, LIBERTY, UT, 84310","Match","Exact","6961 DURFEE WAY, LIBERTY, UT, 84310",640981948,"L"
273721,"6961 HIGHWAY 397","PRESTON","MS",39354,32.830648104,-88.787879298,221,"6961 HIGHWAY 397, PRESTON, MS, 39354","Match","Non_Exact","6961 STATE HWY 397, PRESTON, MS, 39354",607680292,"L"
273722,"6961 N VERLAINE DR","COEUR D ALENE","ID",83815,47.7350790190001,-116.820241035,222,"6961 N VERLAINE DR, COEUR D ALENE, ID, 83815","Match","Exact","6961 N VERLAINE DR, COEUR D ALENE, ID, 83815",650464773,"L"
273723,"6961 SW 109TH COURT","MIAMI","FL",33173,25.703089558,-80.370590463,223,"6961 SW 109TH COURT, MIAMI, FL, 33173","Match","Exact","6961 SW 109TH CT, MIAMI, FL, 33173",116074756,"L"
273724,"6961 SW 1ST COURT","PEMBROKE PINES","FL",33023,26.0091344200001,-80.2262022259999,224,"6961 SW 1ST COURT, PEMBROKE PINES, FL, 33023","Match","Exact","6961 SW 1ST CT, PEMBROKE PINES, FL, 33023",114731868,"R"
273725,"6961 SW 9TH ST","PEMBROKE PINES","FL",33023,26.002334026,-80.226578525,225,"6961 SW 9TH ST, PEMBROKE PINES, FL, 33023","Match","Exact","6961 SW 9TH ST, PEMBROKE PINES, FL, 33023",114731922,"R"
273726,"6962 CORONET DR","BATON ROUGE","LA",70812,30.5144853300001,-91.117986854,226,"6962 CORONET DR, BATON ROUGE, LA, 70812","Match","Exact","6962 CORONET DR, BATON ROUGE, LA, 70812",92188382,"R"
273727,"6962 CREEKFRONT DR","FOUNTAIN","CO",80817,38.713367965,-104.697524302,227,"6962 CREEKFRONT DR, FOUNTAIN, CO, 80817","Match","Exact","6962 CREEKFRONT DR, FOUNTAIN, CO, 80817",610759986,"R"
273728,"6962 EAST QUAIL TRACK DRIVE","SCOTTSDALE","AZ",85266,33.731771807,-111.931352455,228,"6962 EAST QUAIL TRACK DRIVE, SCOTTSDALE, AZ, 85266","Match","Exact","6962 E QUAIL TRACK DR, SCOTTSDALE, AZ, 85266",128828514,"L"
273729,"6962 HOWE CT","SAN DIEGO","CA",92111,32.7746316970001,-117.169803002,229,"6962 HOWE CT, SAN DIEGO, CA, 92111","Match","Exact","6962 HOWE CT, SAN DIEGO, CA, 92111",195306643,"L"
273730,"6962 NORTH MEADOW RD","CONCORD TWP","OH",44077,41.6800689410001,-81.277191987,230,"6962 NORTH MEADOW RD, CONCORD TWP, OH, 44077","Match","Non_Exact","6962 N MEADOW DR, CONCORD TWP, OH, 44077",137476916,"L"
273731,"6962 RIVERSIDE WAY","FISHERS","IN",46038,39.9583044230001,-86.045153714,231,"6962 RIVERSIDE WAY, FISHERS, IN, 46038","Match","Exact","6962 RIVERSIDE WAY, FISHERS, IN, 46038",29305215,"R"
273732,"6962 SILVERWOOD STREET","PHILADELPHIA","PA",19128,40.041267098,-75.2312188989999,232,"6962 SILVERWOOD STREET, PHILADELPHIA, PA, 19128","Match","Exact","6962 SILVERWOOD ST, PHILADELPHIA, PA, 19128",131393655,"L"
273733,"6963 HOWELL ST","GREENWOOD","LA",71033,32.4444996190001,-93.973894364,233,"6963 HOWELL ST, GREENWOOD, LA, 71033","Match","Exact","6963 HOWELL ST, GREENWOOD, LA, 71033",57475368,"R"
273734,"69634 E HIGHWAY 26","WELCHES","OR",97067,45.3447299490001,-121.947803739,234,"69634 E HIGHWAY 26, WELCHES, OR, 97067","Match","Non_Exact","69634 E STATE HWY 26, WELCHES, OR, 97067",649972054,"L"
273735,"69635 CENTER ST","ST CLAIRSVILLE","OH",43950,NA,NA,235,"69635 CENTER ST, ST CLAIRSVILLE, OH, 43950","No_Match",NA,NA,NA,NA
273736,"6964 LIVERPOOL CT","INDIAN LAND","SC",29707,34.9400801030001,-80.82366455,236,"6964 LIVERPOOL CT, INDIAN LAND, SC, 29707","Match","Exact","6964 LIVERPOOL CT, INDIAN LAND, SC, 29707",645385006,"L"
273737,"6964 SE YEARLING LANE","MILWAUKIE","OR",97267,45.416712982,-122.591910099,237,"6964 SE YEARLING LANE, MILWAUKIE, OR, 97267","Match","Exact","6964 SE YEARLING LN, MILWAUKIE, OR, 97267",633196405,"R"
273738,"6964 SILVERADO TERR","LAKE WORTH","FL",33463,26.572896352,-80.1320731279999,238,"6964 SILVERADO TERR, LAKE WORTH, FL, 33463","Match","Exact","6964 SILVERADO TER, LAKE WORTH, FL, 33463",115568287,"R"
273739,"6965 ANDALUSIA DR","MACON","GA",31216,32.720100792,-83.700219754,239,"6965 ANDALUSIA DR, MACON, GA, 31216","Match","Exact","6965 ANDALUSIA DR, MACON, GA, 31216",81066099,"R"
273740,"6965 CREEKHOLLOW DRIVE APT 312","FORT WORTH","TX",76137,32.866028041,-97.28941424,240,"6965 CREEKHOLLOW DRIVE APT 312, FORT WORTH, TX, 76137","Match","Exact","6965 CREEKHOLLOW DR, FORT WORTH, TX, 76137",102108696,"R"
273741,"6965 EL CAMINO REAL STE 105","CARLSBAD","CA",92009,33.1033562980001,-117.266680214,241,"6965 EL CAMINO REAL STE 105, CARLSBAD, CA, 92009","Match","Exact","6965 EL CAMINO REAL, CARLSBAD, CA, 92009",195292225,"R"
273742,"6965 HWY 42 S SUITE 109","LOCUST GROVE","GA",30248,NA,NA,242,"6965 HWY 42 S SUITE 109, LOCUST GROVE, GA, 30248","No_Match",NA,NA,NA,NA
273743,"6965 HWY 42S STE 125","LOCUST GROVE","GA",30248,NA,NA,243,"6965 HWY 42S STE 125, LOCUST GROVE, GA, 30248","No_Match",NA,NA,NA,NA
273744,"6965 N WESTERN AVE","CHICAGO","IL",60645,42.008124127,-87.6901409709999,244,"6965 N WESTERN AVE, CHICAGO, IL, 60645","Match","Exact","6965 N WESTERN AVE, CHICAGO, IL, 60645",616790464,"R"
273745,"6965 N WESTERN AVENUE","CHICAGO","IL",60645,42.008124127,-87.6901409709999,245,"6965 N WESTERN AVENUE, CHICAGO, IL, 60645","Match","Exact","6965 N WESTERN AVE, CHICAGO, IL, 60645",616790464,"R"
273746,"6965 NORTH GLEN DRIVE","CUMMING","GA",30028,34.2609279070001,-84.2467131939999,246,"6965 NORTH GLEN DRIVE, CUMMING, GA, 30028","Match","Exact","6965 N GLEN DR, CUMMING, GA, 30028",70191239,"L"
273747,"6965 OLD BETHSAIDA WAY","RIVERDALE","GA",30296,33.5602998750001,-84.4844253649999,247,"6965 OLD BETHSAIDA WAY, RIVERDALE, GA, 30296","Match","Exact","6965 OLD BETHSAIDA WAY, RIVERDALE, GA, 30296",17378782,"L"
273748,"6965 PIAZZA GRANDE AVE SUITE 301","ORLANDO","FL",32835,28.5164444860001,-81.482456155,248,"6965 PIAZZA GRANDE AVE SUITE 301, ORLANDO, FL, 32835","Match","Exact","6965 PIAZZA GRANDE AVE, ORLANDO, FL, 32835",626953854,"R"
273749,"6965 PIAZZA GRANDE AVENUE  218","ORLANDO","FL",32835,28.5164444860001,-81.482456155,249,"6965 PIAZZA GRANDE AVENUE  218, ORLANDO, FL, 32835","Match","Exact","6965 PIAZZA GRANDE AVE, ORLANDO, FL, 32835",626953854,"R"
273750,"6965 PRESTONS ESTATES","ATLANTA","GA",30349,33.6453781320001,-84.615606054,250,"6965 PRESTONS ESTATES, ATLANTA, GA, 30349","Match","Non_Exact","6965 PRESTONS ESTATE, ATLANTA, GA, 30349",627062144,"R"
273751,"6965 REDBUD COURT","PLEASANT HILL","IA",50327,41.5801255200001,-93.4684644009999,251,"6965 REDBUD COURT, PLEASANT HILL, IA, 50327","Match","Exact","6965 REDBUD CT, PLEASANT HILL, IA, 50327",619595394,"R"
273752,"6965 S CRAIG CT","FRANKLIN","WI",53132,42.9179724580001,-87.9719758109999,252,"6965 S CRAIG CT, FRANKLIN, WI, 53132","Match","Exact","6965 S CRAIG CT, FRANKLIN, WI, 53132",612191938,"L"
273753,"6965 WESTGATE DR","BEAUMONT","TX",77706,30.0877828590001,-94.183358169,253,"6965 WESTGATE DR, BEAUMONT, TX, 77706","Match","Exact","6965 WESTGATE DR, BEAUMONT, TX, 77706",73875451,"L"
273754,"6965","CHICAGO","IL",60645,NA,NA,254,"6965, CHICAGO, IL, 60645","No_Match",NA,NA,NA,NA
273755,"6966 DARTMOUTH AVE","SAINT LOUIS","MO",63130,38.6616400610001,-90.312944708,255,"6966 DARTMOUTH AVE, SAINT LOUIS, MO, 63130","Match","Exact","6966 DARTMOUTH AVE, SAINT LOUIS, MO, 63130",100152081,"L"
273756,"6966 KODIAK DR","BATON ROUGE","LA",70810,NA,NA,256,"6966 KODIAK DR, BATON ROUGE, LA, 70810","No_Match",NA,NA,NA,NA
273757,"6966 N 89TH AVE STE A","OMAHA","NE",68122,41.322141308,-96.051998437,257,"6966 N 89TH AVE STE A, OMAHA, NE, 68122","Match","Non_Exact","6966 N 89TH AVE, OMAHA, NE, 68122",624354644,"L"
273758,"6966 WEMBLEY COURT","HAMILTON","OH",45011,39.384152493,-84.494926386,258,"6966 WEMBLEY COURT, HAMILTON, OH, 45011","Match","Exact","6966 WEMBLEY CT, HAMILTON, OH, 45011",113814942,"R"
273759,"6967 ASH CREEK CT","MIDDLETOWN","OH",45044,39.3859561790001,-84.3896551939999,259,"6967 ASH CREEK CT, MIDDLETOWN, OH, 45044","Match","Exact","6967 ASH CREEK CT, MIDDLETOWN, OH, 45044",113808846,"R"
273760,"6967 BONNES BLVD","AUSTELL","GA",30168,33.784848246,-84.563177012,260,"6967 BONNES BLVD, AUSTELL, GA, 30168","Match","Exact","6967 BONNES BLVD, AUSTELL, GA, 30168",614181630,"L"
273761,"6967 BONNIE BRAE LN","COLUMBUS","OH",43235,40.1068730490001,-83.044973794,261,"6967 BONNIE BRAE LN, COLUMBUS, OH, 43235","Match","Exact","6967 BONNIE BRAE LN, COLUMBUS, OH, 43235",218696047,"L"
273762,"6967 NIAGRA STE 44","ROMULUS","MI",48174,42.253651286,-83.354044247,262,"6967 NIAGRA STE 44, ROMULUS, MI, 48174","Match","Non_Exact","6967 NIAGARA ST, ROMULUS, MI, 48174",95417461,"L"
273763,"6967 W CHERYL DR","PEORIA","AZ",85345,33.5779678380001,-112.208786937,263,"6967 W CHERYL DR, PEORIA, AZ, 85345","Match","Exact","6967 W CHERYL DR, PEORIA, AZ, 85345",128192023,"R"
273764,"6968 CLARKRIDGE DR NUMBER 502","DALLAS","TX",75236,32.6675636140001,-96.9447337399999,264,"6968 CLARKRIDGE DR NUMBER 502, DALLAS, TX, 75236","Match","Exact","6968 CLARKRIDGE DR, DALLAS, TX, 75236",619123794,"L"
273765,"6968 CLARKRIDGE DRIVE APT 1203","DALLAS","TX",75236,32.6675636140001,-96.9447337399999,265,"6968 CLARKRIDGE DRIVE APT 1203, DALLAS, TX, 75236","Match","Exact","6968 CLARKRIDGE DR, DALLAS, TX, 75236",619123794,"L"
273766,"6968 CLARKSRIDGE DRIVE SUITE 1403","DALLAS","TX",75236,NA,NA,266,"6968 CLARKSRIDGE DRIVE SUITE 1403, DALLAS, TX, 75236","No_Match",NA,NA,NA,NA
273767,"6968 ENGE DRIVE","WEST BEND WI","WI",53090,43.442206748,-88.046844482,267,"6968 ENGE DRIVE, WEST BEND WI, WI, 53090","Match","Non_Exact","6968 ENGE DR, WEST BEND, WI, 53090",79561729,"L"
273768,"6968 FALLS VIEW CIRCLE","DELAWARE","OH",43015,40.189789768,-83.030390731,268,"6968 FALLS VIEW CIRCLE, DELAWARE, OH, 43015","Match","Exact","6968 FALLS VIEW CIR, DELAWARE, OH, 43015",213002132,"R"
273769,"6968 NORTH CLARK STREET","CHICAGO","IL",60626,42.0083695340001,-87.673821763,269,"6968 NORTH CLARK STREET, CHICAGO, IL, 60626","Match","Exact","6968 N CLARK ST, CHICAGO, IL, 60626",111745364,"L"
273770,"6968 PLUMROSE STREET","FONTANA","CA",92336,34.1273897310001,-117.474761081,270,"6968 PLUMROSE STREET, FONTANA, CA, 92336","Match","Exact","6968 PLUMROSE ST, FONTANA, CA, 92336",614813667,"R"
273771,"6968 SUNFLOWER LANE","MACUNGIE","PA",18062,40.5301151780001,-75.575322531,271,"6968 SUNFLOWER LANE, MACUNGIE, PA, 18062","Match","Exact","6968 SUNFLOWER LN, MACUNGIE, PA, 18062",627046266,"R"
273772,"6968 SW OLD WIRE RD","FORT WHITE","FL",32038,29.9729518730001,-82.6832593139999,272,"6968 SW OLD WIRE RD, FORT WHITE, FL, 32038","Match","Exact","6968 SW OLD WIRE RD, FORT WHITE, FL, 32038",649311245,"L"
273773,"6968 WEST NORTH AVE","CHICAGO","IL",60707,41.9089698880001,-87.7996546319999,273,"6968 WEST NORTH AVE, CHICAGO, IL, 60707","Match","Exact","6968 W NORTH AVE, CHICAGO, IL, 60707",112226210,"R"
273774,"6969 CREEKSIDE WAY","HAMILTON","OH",45011,39.3985379970001,-84.51817758,274,"6969 CREEKSIDE WAY, HAMILTON, OH, 45011","Match","Non_Exact","6969 CREEKSIDE, HAMILTON, OH, 45011",604776773,"L"
273775,"6969 FORESTVIEW COURT","WEST CHESTER","OH",45069,39.3249157990001,-84.395777569,275,"6969 FORESTVIEW COURT, WEST CHESTER, OH, 45069","Match","Non_Exact","6969 FOREST VIEW CT, WEST CHESTER, OH, 45069",113799450,"R"
273776,"6969 GALE AVENUE","LONG BEACH","CA",90805,33.8804061610001,-118.205965356,276,"6969 GALE AVENUE, LONG BEACH, CA, 90805","Match","Exact","6969 GALE AVE, LONG BEACH, CA, 90805",141683048,"L"
273777,"6969 HOLLISTER ST  APT 1309","HOUSTON","TX",77040,29.8618515140001,-95.505482061,277,"6969 HOLLISTER ST  APT 1309, HOUSTON, TX, 77040","Match","Exact","6969 HOLLISTER ST, HOUSTON, TX, 77040",96646837,"L"
273778,"6969 N ASHLAND BLVD 305","CHICAGO","IL",60626,42.0084618500001,-87.6700445609999,278,"6969 N ASHLAND BLVD 305, CHICAGO, IL, 60626","Match","Non_Exact","6969 N ASHLAND BLVD, CHICAGO, IL, 60626",111745412,"R"
273779,"6969 N WESTERN AVE","CHICAGO","IL",60645,42.0081789490001,-87.690142125,279,"6969 N WESTERN AVE, CHICAGO, IL, 60645","Match","Exact","6969 N WESTERN AVE, CHICAGO, IL, 60645",616790464,"R"
273780,"6969 N WESTERN AVENUE","CHICAGO","IL",60645,42.0081789490001,-87.690142125,280,"6969 N WESTERN AVENUE, CHICAGO, IL, 60645","Match","Exact","6969 N WESTERN AVE, CHICAGO, IL, 60645",616790464,"R"
273781,"6969 S CHANDLER RD","SAINT JOHNS","MI",48879,42.9156374840001,-84.483729855,281,"6969 S CHANDLER RD, SAINT JOHNS, MI, 48879","Match","Exact","6969 S CHANDLER RD, SAINT JOHNS, MI, 48879",17297734,"R"
273782,"6969 SE LAKE ROAD","PORTLAND","OR",97267,45.4232640560001,-122.590803786,282,"6969 SE LAKE ROAD, PORTLAND, OR, 97267","Match","Exact","6969 SE LAKE RD, PORTLAND, OR, 97267",157915838,"L"
273783,"6969 SOUTH LOOP E APT 2001","HOUSTON","TX",77087,NA,NA,283,"6969 SOUTH LOOP E APT 2001, HOUSTON, TX, 77087","No_Match",NA,NA,NA,NA
273784,"69699 350TH PLACE","HILL CITY","MN",55748,47.02609297,-93.591702346,284,"69699 350TH PLACE, HILL CITY, MN, 55748","Match","Exact","69699 350TH PL, HILL CITY, MN, 55748",162615817,"R"
273785,"697 25TH ST","OAKLAND","CA",94612,37.815174938,-122.273430231,285,"697 25TH ST, OAKLAND, CA, 94612","Match","Exact","697 25TH ST, OAKLAND, CA, 94612",606248728,"L"
273786,"697 6TH ST SUITE 105","PRESCOTT","AZ",86301,34.5529648680001,-112.465356141,286,"697 6TH ST SUITE 105, PRESCOTT, AZ, 86301","Match","Exact","697 6TH ST, PRESCOTT, AZ, 86301",159456768,"R"
273787,"697 A WHITESTONE DRIVE","LYNCHBURG","VA",24502,37.3240458490001,-79.245908732,287,"697 A WHITESTONE DRIVE, LYNCHBURG, VA, 24502","Match","Exact","697 WHITESTONE DR, LYNCHBURG, VA, 24502",644909207,"L"
273788,"697 ASH SWAMP ROAD","GLASTONBURY","CT",6033,41.6957201910001,-72.4902904149999,288,"697 ASH SWAMP ROAD, GLASTONBURY, CT, 6033","Match","Exact","697 ASH SWAMP RD, GLASTONBURY, CT, 06033",604943121,"L"
273789,"697 AUBURN AVE UNIT 209","DELRAY BEACH","FL",33444,26.45110716,-80.0865156199999,289,"697 AUBURN AVE UNIT 209, DELRAY BEACH, FL, 33444","Match","Exact","697 AUBURN AVE, DELRAY BEACH, FL, 33444",649884951,"L"
273790,"697 BLYTHEWOOD ROAD SW","CLEVELAND","TN",37311,35.1568460070001,-84.9117181569999,290,"697 BLYTHEWOOD ROAD SW, CLEVELAND, TN, 37311","Match","Exact","697 BLYTHEWOOD RD SW, CLEVELAND, TN, 37311",57585136,"R"
273791,"697 BUFF CT","CINCINNATI","OH",45231,39.230369243,-84.507200514,291,"697 BUFF CT, CINCINNATI, OH, 45231","Match","Exact","697 BUFF CT, CINCINNATI, OH, 45231",103949114,"R"
273792,"697 COUNTRY CLUB DRIVE","BEAVER","WV",25813,37.7451079900001,-81.071293263,292,"697 COUNTRY CLUB DRIVE, BEAVER, WV, 25813","Match","Exact","697 COUNTRY CLUB DR, BEAVER, WV, 25813",78853855,"R"
273793,"697 COX FERRY ROAD","FLORA","MS",39071,32.5519934860001,-90.331308049,293,"697 COX FERRY ROAD, FLORA, MS, 39071","Match","Exact","697 COX FERRY RD, FLORA, MS, 39071",152491934,"L"
273794,"697 E 150 S","KAYSVILLE","UT",84037,41.032199527,-111.921936714,294,"697 E 150 S, KAYSVILLE, UT, 84037","Match","Exact","697 E 150 S, KAYSVILLE, UT, 84037",155309299,"L"
273795,"697 E TAPER ST","KUNA","ID",83634,NA,NA,295,"697 E TAPER ST, KUNA, ID, 83634","No_Match",NA,NA,NA,NA
273796,"697 FOREST AVENUE","PARAMUS","NJ",7652,40.9637950580001,-74.049529885,296,"697 FOREST AVENUE, PARAMUS, NJ, 7652","Match","Exact","697 FOREST AVE, PARAMUS, NJ, 07652",64426345,"L"
273797,"697 GULLEY ROAD","HOWELL","MI",48843,42.610784665,-83.865006847,297,"697 GULLEY ROAD, HOWELL, MI, 48843","Match","Exact","697 GULLEY RD, HOWELL, MI, 48843",23543923,"L"
273798,"697 HILLCREST STREET","MEMPHIS","TN",38112,35.150567762,-89.9547936879999,298,"697 HILLCREST STREET, MEMPHIS, TN, 38112","Match","Exact","697 HILLCREST ST, MEMPHIS, TN, 38112",72915266,"L"
273799,"697 INDIANAPOLIS RD","MOORESVILLE","IN",46158,39.623418287,-86.365636363,299,"697 INDIANAPOLIS RD, MOORESVILLE, IN, 46158","Match","Exact","697 INDIANAPOLIS RD, MOORESVILLE, IN, 46158",43559352,"L"
273800,"697 MONUMENT TRAIL","LORENA","TX",76655,31.361902597,-97.1232620549999,300,"697 MONUMENT TRAIL, LORENA, TX, 76655","Match","Exact","697 MONUMENT TRL, LORENA, TX, 76655",146772906,"L"
273801,"697 NEEB ROAD","CINCINNATI","OH",45233,39.106257096,-84.636334526,301,"697 NEEB ROAD, CINCINNATI, OH, 45233","Match","Exact","697 NEEB RD, CINCINNATI, OH, 45233",103918317,"L"
273802,"697 NW BEAVER ST","PRINEVILLE","OR",97754,44.3064004350001,-120.848269633,302,"697 NW BEAVER ST, PRINEVILLE, OR, 97754","Match","Exact","697 NW BEAVER ST, PRINEVILLE, OR, 97754",152385124,"L"
273803,"697 PEACHTREE ST","TITUSVILLE","FL",32780,28.588147296,-80.809179993,303,"697 PEACHTREE ST, TITUSVILLE, FL, 32780","Match","Exact","697 PEACHTREE ST, TITUSVILLE, FL, 32780",601722850,"L"
273804,"697 REDWING DRIVE","MERCED","CA",95340,37.3343896650001,-120.462817023,304,"697 REDWING DRIVE, MERCED, CA, 95340","Match","Exact","697 REDWING DR, MERCED, CA, 95340",125340162,"L"
273805,"697 SWEET HOME RD","AMHERST","NY",14226,42.982561,-78.8077790529999,305,"697 SWEET HOME RD, AMHERST, NY, 14226","Match","Exact","697 SWEET HOME RD, AMHERST, NY, 14226",48295374,"R"
273806,"697 TIDELAND DRIVE","MIDWAY","GA",31320,NA,NA,306,"697 TIDELAND DRIVE, MIDWAY, GA, 31320","No_Match",NA,NA,NA,NA
273807,"6970 ASHLEY DR","COLORADO SPRINGS","CO",80922,38.8974720900001,-104.700122136,307,"6970 ASHLEY DR, COLORADO SPRINGS, CO, 80922","Match","Exact","6970 ASHLEY DR, COLORADO SPRINGS, CO, 80922",105539576,"R"
273808,"6970 OLIVE ST","COMMERCE CITY","CO",80022,39.823115102,-104.907927032,308,"6970 OLIVE ST, COMMERCE CITY, CO, 80022","Match","Exact","6970 OLIVE ST, COMMERCE CITY, CO, 80022",177312730,"R"
273809,"6970 S 1500 W","OWENSVILLE","IN",47665,38.253122589,-87.845591583,309,"6970 S 1500 W, OWENSVILLE, IN, 47665","Match","Non_Exact","6970 CO RD 1500 W, OWENSVILLE, IN, 47665",634486027,"R"
273810,"6970 VERNON","DEARBORN HEIGHTS","MI",48127,NA,NA,310,"6970 VERNON, DEARBORN HEIGHTS, MI, 48127","No_Match",NA,NA,NA,NA
273811,"6971 74TH ST CIR E","BRADENTON","FL",34203,NA,NA,311,"6971 74TH ST CIR E, BRADENTON, FL, 34203","No_Match",NA,NA,NA,NA
273812,"6971 HUNTER AVE","ST LOUIS","MO",63121,38.697787168,-90.289424948,312,"6971 HUNTER AVE, ST LOUIS, MO, 63121","Match","Exact","6971 HUNTER AVE, SAINT LOUIS, MO, 63121",100152504,"R"
273813,"6971 NW 51ST STREET","MIAMI","FL",33166,25.8198309140001,-80.3108571609999,313,"6971 NW 51ST STREET, MIAMI, FL, 33166","Match","Exact","6971 NW 51ST ST, MIAMI, FL, 33166",115957739,"R"
273814,"6971 W HOMOSASSA TRL","HOMOSASSA","FL",34448,28.818458654,-82.549947027,314,"6971 W HOMOSASSA TRL, HOMOSASSA, FL, 34448","Match","Exact","6971 W HOMOSASSA TRL, HOMOSASSA, FL, 34448",86198659,"L"
273815,"6972 FL GA HWY","HAVANA","FL",32333,30.6410562400001,-84.416900138,315,"6972 FL GA HWY, HAVANA, FL, 32333","Match","Exact","6972 FLORIDA GEORGIA HWY, HAVANA, FL, 32333",639774510,"R"
273816,"6972 NEW UPTON FARMS LANE","GLOUCESTER","VA",23061,37.5217081530001,-76.51032295,316,"6972 NEW UPTON FARMS LANE, GLOUCESTER, VA, 23061","Match","Exact","6972 NEW UPTON FARMS LN, GLOUCESTER, VA, 23061",168217243,"L"
273817,"6972 STATE ROAD 103 SOUTH","STRAUGHN","IN",47387,39.837706618,-85.352980888,317,"6972 STATE ROAD 103 SOUTH, STRAUGHN, IN, 47387","Match","Non_Exact","6972 STATE RD 103, STRAUGHN, IN, 47387",635606114,"R"
273818,"6973 DEEP CUP","COLUMBIA","MD",21045,39.1917894950001,-76.8357199829999,318,"6973 DEEP CUP, COLUMBIA, MD, 21045","Match","Exact","6973 DEEP CUP, COLUMBIA, MD, 21045",158926103,"L"
273819,"6973 VIRGINIA LANE","SAINT FRANCISVILLE","LA",70775,NA,NA,319,"6973 VIRGINIA LANE, SAINT FRANCISVILLE, LA, 70775","No_Match",NA,NA,NA,NA
273820,"69730 HIGHWAY 111 SUITE 210","RANCHO MIRAGE","CA",92270,33.7709518780001,-116.446662416,320,"69730 HIGHWAY 111 SUITE 210, RANCHO MIRAGE, CA, 92270","Match","Non_Exact","69730 STATE RTE 111, RANCHO MIRAGE, CA, 92270",638876764,"L"
273821,"69733 KNIGHT LN","ELGIN","OR",97827,45.562327204,-117.778502374,321,"69733 KNIGHT LN, ELGIN, OR, 97827","Match","Exact","69733 KNIGHT LN, ELGIN, OR, 97827",606383513,"R"
273822,"6974 BEAGLE DRIVE","HAMILTON","OH",45011,39.3827156290001,-84.523674114,322,"6974 BEAGLE DRIVE, HAMILTON, OH, 45011","Match","Exact","6974 BEAGLE DR, HAMILTON, OH, 45011",113815246,"R"
273823,"6974 OLEATHA AVE","SAINT LOUIS","MO",63139,38.599548586,-90.3104890339999,323,"6974 OLEATHA AVE, SAINT LOUIS, MO, 63139","Match","Exact","6974 OLEATHA AVE, SAINT LOUIS, MO, 63139",107598877,"L"
273824,"6975 COURTHOUSE ROAD","SPOTSYLVANIA","VA",22551,38.162454376,-77.6557073179999,324,"6975 COURTHOUSE ROAD, SPOTSYLVANIA, VA, 22551","Match","Exact","6975 COURTHOUSE RD, SPOTSYLVANIA, VA, 22551",228786316,"L"
273825,"6975 EMERSON LANE","SAN RAMON","CA",94582,37.7469208090001,-121.887992563,325,"6975 EMERSON LANE, SAN RAMON, CA, 94582","Match","Exact","6975 EMERSON LN, SAN RAMON, CA, 94582",632550182,"L"
273826,"6975 W LOUSIANA AVE","LAKEWOOD","CO",80232,39.6930539410001,-105.074328554,326,"6975 W LOUSIANA AVE, LAKEWOOD, CO, 80232","Match","Non_Exact","6975 W LOUISIANA AVE, LAKEWOOD, CO, 80232",177320644,"R"
273827,"6977 NAVAJO RD STE 193","SAN DIEGO","CA",92119,32.8045422640001,-117.044222284,327,"6977 NAVAJO RD STE 193, SAN DIEGO, CA, 92119","Match","Exact","6977 NAVAJO RD, SAN DIEGO, CA, 92119",195323338,"R"
273828,"6977 NAVAJO ROAD STE 170","SAN DIEGO","CA",92119,32.8045422640001,-117.044222284,328,"6977 NAVAJO ROAD STE 170, SAN DIEGO, CA, 92119","Match","Exact","6977 NAVAJO RD, SAN DIEGO, CA, 92119",195323338,"R"
273829,"6977 STONEWICK DRIVE","NEWBURGH","IN",47630,37.9415569400001,-87.374321948,329,"6977 STONEWICK DRIVE, NEWBURGH, IN, 47630","Match","Exact","6977 STONEWICK DR, NEWBURGH, IN, 47630",32216881,"R"
273830,"6978 WEST AURORA DRIVE","GLENDALE","AZ",85308,33.678301332,-112.210465298,330,"6978 WEST AURORA DRIVE, GLENDALE, AZ, 85308","Match","Exact","6978 W AURORA DR, GLENDALE, AZ, 85308",128388703,"L"
273831,"6978 WITHERS ROAD","RIVERSIDE","CA",92506,33.9235342530001,-117.338698984,331,"6978 WITHERS ROAD, RIVERSIDE, CA, 92506","Match","Exact","6978 WITHERS RD, RIVERSIDE, CA, 92506",194814500,"L"
273832,"6979 S R 105 S","ATKINS","AR",72823,NA,NA,332,"6979 S R 105 S, ATKINS, AR, 72823","No_Match",NA,NA,NA,NA
273833,"698 BEAR RIDGE DR NW","ISSAQUAH","WA",98027,47.5378778470001,-122.068890461,333,"698 BEAR RIDGE DR NW, ISSAQUAH, WA, 98027","Match","Exact","698 BEAR RIDGE DR NW, ISSAQUAH, WA, 98027",187076901,"R"
273834,"698 CRAIG LANE","NEOSHO","MO",64850,36.8445364820001,-94.360632192,334,"698 CRAIG LANE, NEOSHO, MO, 64850","Match","Exact","698 CRAIG LN, NEOSHO, MO, 64850",55989559,"R"
273835,"698 EAST DUANE AVENUE","SUNNYVALE","CA",94085,37.388275956,-122.012672644,335,"698 EAST DUANE AVENUE, SUNNYVALE, CA, 94085","Match","Exact","698 E DUANE AVE, SUNNYVALE, CA, 94085",122957389,"R"
273836,"698 FRANKLIN STREET","VINEYARD HAVEN","MA",2568,41.475466979,-70.605691297,336,"698 FRANKLIN STREET, VINEYARD HAVEN, MA, 2568","Match","Exact","698 FRANKLIN ST, VINEYARD HAVEN, MA, 02568",118866708,"L"
273837,"698 GRAND FOLIA COURT","SUGAR HILL","GA",30518,34.139955553,-84.0724395999999,337,"698 GRAND FOLIA COURT, SUGAR HILL, GA, 30518","Match","Non_Exact","698 GRAND FOLIA CT NE, SUGAR HILL, GA, 30518",625648615,"L"
273838,"698 MASSANUTTEN ROAD","GREENVILLE","NC",27834,35.696223221,-77.454101802,338,"698 MASSANUTTEN ROAD, GREENVILLE, NC, 27834","Match","Exact","698 MASSANUTTEN RD, GREENVILLE, NC, 27834",80025758,"L"
273839,"698 MILL ROAD","TELFORD","PA",18969,40.297675736,-75.385660227,339,"698 MILL ROAD, TELFORD, PA, 18969","Match","Exact","698 MILL RD, TELFORD, PA, 18969",135067224,"L"
273840,"698 MILLERTOWN ROAD","BLOOMSBURG","PA",17815,41.072777897,-76.472307996,340,"698 MILLERTOWN ROAD, BLOOMSBURG, PA, 17815","Match","Exact","698 MILLERTOWN RD, BLOOMSBURG, PA, 17815",59233604,"R"
273841,"698 MLK JR BLVD STE 66","MACON","GA",31201,NA,NA,341,"698 MLK JR BLVD STE 66, MACON, GA, 31201","No_Match",NA,NA,NA,NA
273842,"698 N 1280 E","AMERICAN FORK","UT",84003,40.3917980250001,-111.764488918,342,"698 N 1280 E, AMERICAN FORK, UT, 84003","Match","Exact","698 N 1280 E, AMERICAN FORK, UT, 84003",134251660,"R"
273843,"698 N MINNEWAWA","CLOVIS","CA",93611,NA,NA,343,"698 N MINNEWAWA, CLOVIS, CA, 93611","No_Match",NA,NA,NA,NA
273844,"698 NE 1ST AVENUE APT 4402","MIAMI","FL",33132,25.780438899,-80.192132327,344,"698 NE 1ST AVENUE APT 4402, MIAMI, FL, 33132","Match","Non_Exact","698 NE 1ST AVE, MIAMI, FL, 33132",116017858,"L"
273845,"698 NW 123 PLACE","MIAMI","FL",33182,25.774315652,-80.396183905,345,"698 NW 123 PLACE, MIAMI, FL, 33182","Match","Exact","698 NW 123 PL, MIAMI, FL, 33182",116093011,"R"
273846,"698 NW YORK DRIVE","BEND","OR",97703,44.0578063470001,-121.357338947,346,"698 NW YORK DRIVE, BEND, OR, 97703","Match","Exact","698 NW YORK DR, BEND, OR, 97703",152588020,"L"
273847,"698 OLD 3L HWY","FALMOUTH","KY",41040,NA,NA,347,"698 OLD 3L HWY, FALMOUTH, KY, 41040","No_Match",NA,NA,NA,NA
273848,"698 OVERBROOK ST","MUSKEGON HEIGHTS","MI",49444,43.19485173,-86.22709343,348,"698 OVERBROOK ST, MUSKEGON HEIGHTS, MI, 49444","Match","Non_Exact","698 OVERBROOK DR, MUSKEGON HEIGHTS, MI, 49444",77654060,"L"
273849,"698 SHORT BEACH RD","NISSEQUOGUE","NY",11780,40.9051204850001,-73.208930418,349,"698 SHORT BEACH RD, NISSEQUOGUE, NY, 11780","Match","Non_Exact","698 SHORT BEACH RD, SAINT JAMES, NY, 11780",113985962,"R"
273850,"698 WALKING HORSE RANCH DR","NORCO","CA",92860,33.9217998990001,-117.536231086,350,"698 WALKING HORSE RANCH DR, NORCO, CA, 92860","Match","Exact","698 WALKING HORSE RANCH DR, NORCO, CA, 92860",608986329,"L"
273851,"698 WEST 500 SOUTH","WEST BOUNTIFUL","UT",84087,NA,NA,351,"698 WEST 500 SOUTH, WEST BOUNTIFUL, UT, 84087","No_Match",NA,NA,NA,NA
273852,"6980 ARVILLE ST","LAS VEGAS","NV",89118,36.0630339890001,-115.19926827,352,"6980 ARVILLE ST, LAS VEGAS, NV, 89118","Match","Exact","6980 ARVILLE ST, LAS VEGAS, NV, 89118",201922509,"L"
273853,"6980 CAMP FAR WEST RD","SHERIDAN","CA",95681,38.997853342,-121.377254043,353,"6980 CAMP FAR WEST RD, SHERIDAN, CA, 95681","Match","Exact","6980 CAMP FAR WEST RD, SHERIDAN, CA, 95681",106780409,"R"
273854,"6980 CAMP VALLEY RD","RIVERDALE","GA",30296,33.5647353050001,-84.4667872479999,354,"6980 CAMP VALLEY RD, RIVERDALE, GA, 30296","Match","Exact","6980 CAMP VALLEY RD, RIVERDALE, GA, 30296",17351599,"L"
273855,"6980 LAFAYETTE PARK DRIVE","JACKSONVILLE","FL",32244,30.2199368890001,-81.7283293789999,355,"6980 LAFAYETTE PARK DRIVE, JACKSONVILLE, FL, 32244","Match","Exact","6980 LAFAYETTE PARK DR, JACKSONVILLE, FL, 32244",83962715,"R"
273856,"6980 MERCURY PLACE","CARLSBAD","CA",92009,33.104266953,-117.263322388,356,"6980 MERCURY PLACE, CARLSBAD, CA, 92009","Match","Exact","6980 MERCURY PL, CARLSBAD, CA, 92009",618567430,"L"
273857,"6980 SMOKE RANCH ROAD - STE 150","LAS VEGAS","NV",89128,36.203417793,-115.245880445,357,"6980 SMOKE RANCH ROAD - STE 150, LAS VEGAS, NV, 89128","Match","Exact","6980 SMOKE RANCH RD, LAS VEGAS, NV, 89128",201982601,"R"
273858,"69801 WILDWOOD RD","ORTHNEBD","OR",97459,43.5218729160001,-124.214121261,358,"69801 WILDWOOD RD, ORTHNEBD, OR, 97459","Match","Non_Exact","69801 WILDWOOD RD, NORTH BEND, OR, 97459",137007455,"R"
273859,"69804 SQUIRE LOOP","COVE","OR",97824,45.314289322,-117.798175242,359,"69804 SQUIRE LOOP, COVE, OR, 97824","Match","Exact","69804 SQUIRE LOOP, COVE, OR, 97824",632578723,"R"
273860,"69805 CAMP POLK ROAD","SISTERS","OR",97759,44.322403283,-121.521589711,360,"69805 CAMP POLK ROAD, SISTERS, OR, 97759","Match","Exact","69805 CAMP POLK RD, SISTERS, OR, 97759",152544873,"R"
273861,"6981 DEARWESTER DRIVE","CINCINNATI","OH",45236,39.2122219230001,-84.364824544,361,"6981 DEARWESTER DRIVE, CINCINNATI, OH, 45236","Match","Exact","6981 DEARWESTER DR, CINCINNATI, OH, 45236",103938868,"L"
273862,"6981 EDGEFIELD DR","NEW ORLEANS","LA",70128,30.056911992,-89.94822177,362,"6981 EDGEFIELD DR, NEW ORLEANS, LA, 70128","Match","Exact","6981 EDGEFIELD DR, NEW ORLEANS, LA, 70128",653311693,"L"
273863,"6981 NW 20TH CT","MARGATE","FL",33063,26.254414334,-80.21888157,363,"6981 NW 20TH CT, MARGATE, FL, 33063","Match","Exact","6981 NW 20TH CT, MARGATE, FL, 33063",114738755,"L"
273864,"6982 OCEAN MIST DR","BLAINE","WA",98230,NA,NA,364,"6982 OCEAN MIST DR, BLAINE, WA, 98230","No_Match",NA,NA,NA,NA
273865,"6983 BONNES BLVD","AUSTELL","GA",30168,33.784612473,-84.5631749,365,"6983 BONNES BLVD, AUSTELL, GA, 30168","Match","Exact","6983 BONNES BLVD, AUSTELL, GA, 30168",614181630,"L"
273866,"6983 CHASE RD","FABIUS","NY",13063,42.866012885,-76.0366349,366,"6983 CHASE RD, FABIUS, NY, 13063","Match","Exact","6983 CHASE RD, FABIUS, NY, 13063",46557216,"L"
273867,"6983 SERENA DR","CASTLE PINES","CO",80108,39.492016284,-104.907941492,367,"6983 SERENA DR, CASTLE PINES, CO, 80108","Match","Exact","6983 SERENA DR, CASTLE PINES, CO, 80108",130841515,"R"
273868,"6985 IRONGATE PL","FRISCO","TX",75034,33.137005344,-96.86893722,368,"6985 IRONGATE PL, FRISCO, TX, 75034","Match","Non_Exact","6985 IRONGATE PL, FRISCO, TX, 75036",614142268,"L"
273869,"6985 RICHMOND RD","SOLON","OH",44139,41.3690750640001,-81.488951161,369,"6985 RICHMOND RD, SOLON, OH, 44139","Match","Exact","6985 RICHMOND RD, SOLON, OH, 44139",61171581,"L"
273870,"6985 S UNION PARK CENTER STE 650","MIDVALE","UT",84047,40.624607439,-111.85695751,370,"6985 S UNION PARK CENTER STE 650, MIDVALE, UT, 84047","Match","Exact","6985 UNION PARK CTR, MIDVALE, UT, 84047",641002740,"L"
273871,"6985 SAINT HELENA ROAD","SANTA ROSA","CA",95404,38.5227798110001,-122.608861901,371,"6985 SAINT HELENA ROAD, SANTA ROSA, CA, 95404","Match","Exact","6985 ST HELENA RD, SANTA ROSA, CA, 95404",605001652,"L"
273872,"6985 SANTA FELICIA","GOLETA","CA",93117,34.4266872420001,-119.871005827,372,"6985 SANTA FELICIA, GOLETA, CA, 93117","Match","Non_Exact","6985 SANTA FELICIA DR, GOLETA, CA, 93117",647314464,"R"
273873,"6985 SOUTH UNION PARK CTR   STE 650","MIDVALE","UT",84047,40.6246704160001,-111.856852205,373,"6985 SOUTH UNION PARK CTR   STE 650, MIDVALE, UT, 84047","Match","Exact","6985 S UNION PARK CTR, MIDVALE, UT, 84047",641002740,"L"
273874,"6985 WAITE DR 69","LA MESA","CA",91941,32.7461973690001,-117.04733754,374,"6985 WAITE DR 69, LA MESA, CA, 91941","Match","Exact","6985 WAITE DR, LA MESA, CA, 91941",195351549,"R"
273875,"6985 WOOSTER PIKE","CINCINNATI","OH",45227,39.144712612,-84.3709852119999,375,"6985 WOOSTER PIKE, CINCINNATI, OH, 45227","Match","Exact","6985 WOOSTER PIKE, CINCINNATI, OH, 45227",103939534,"R"
273876,"6986 CLARK HILLS DR NE","RIO RANCHO","NM",87144,35.340578781,-106.595116466,376,"6986 CLARK HILLS DR NE, RIO RANCHO, NM, 87144","Match","Exact","6986 CLARK HILLS DR NE, RIO RANCHO, NM, 87144",194017943,"R"
273877,"6986 FLANNERY ST","LAS VEGAS","NV",89166,36.287384531,-115.329297277,377,"6986 FLANNERY ST, LAS VEGAS, NV, 89166","Match","Exact","6986 FLANNERY ST, LAS VEGAS, NV, 89166",641119809,"L"
273878,"6987  SYLVAN WOODS DRIVE","SANFORD","FL",32771,28.8097284940001,-81.379006977,378,"6987  SYLVAN WOODS DRIVE, SANFORD, FL, 32771","Match","Exact","6987 SYLVAN WOODS DR, SANFORD, FL, 32771",93770983,"R"
273879,"6987 COOLIDGE AVE","RIVERSIDE","CA",92506,33.9389419890001,-117.393524299,379,"6987 COOLIDGE AVE, RIVERSIDE, CA, 92506","Match","Exact","6987 COOLIDGE AVE, RIVERSIDE, CA, 92506",194743231,"R"
273880,"6987 SEISER CT","RIVERSIDE","CA",92506,33.924796283,-117.335882988,380,"6987 SEISER CT, RIVERSIDE, CA, 92506","Match","Exact","6987 SEISER CT, RIVERSIDE, CA, 92506",194789918,"R"
273881,"6988 ASHWOOD RD","WOODBURY","MN",55125,44.9472082300001,-92.965521979,381,"6988 ASHWOOD RD, WOODBURY, MN, 55125","Match","Exact","6988 ASHWOOD RD, WOODBURY, MN, 55125",97826525,"R"
273882,"6988 N TONTY AVE","CHICAGO","IL",60646,42.008228509,-87.772782509,382,"6988 N TONTY AVE, CHICAGO, IL, 60646","Match","Exact","6988 N TONTY AVE, CHICAGO, IL, 60646",605264842,"L"
273883,"6988 PINEHAVEN ROAD","OAKLAND","CA",94611,37.846198128,-122.21185869,383,"6988 PINEHAVEN ROAD, OAKLAND, CA, 94611","Match","Exact","6988 PINEHAVEN RD, OAKLAND, CA, 94611",125003243,"R"
273884,"6988 WINDRIFT CT","NEWBURGH","IN",47630,37.941535731,-87.3726012509999,384,"6988 WINDRIFT CT, NEWBURGH, IN, 47630","Match","Non_Exact","6988 WINDDRIFT CT, NEWBURGH, IN, 47630",32216879,"L"
273885,"6989  STATE ROUTE 125","HICKMAN","KY",42050,NA,NA,385,"6989  STATE ROUTE 125, HICKMAN, KY, 42050","No_Match",NA,NA,NA,NA
273886,"6989 HWY 85  SUITE D1","RIVERDALE","GA",30274,33.5798204330001,-84.411904339,386,"6989 HWY 85  SUITE D1, RIVERDALE, GA, 30274","Match","Non_Exact","6989 STATE RTE 85, RIVERDALE, GA, 30274",23312677,"R"
273887,"6989 SAGE AVE","YUCCA VALLEY","CA",92284,34.126925564,-116.422500515,387,"6989 SAGE AVE, YUCCA VALLEY, CA, 92284","Match","Exact","6989 SAGE AVE, YUCCA VALLEY, CA, 92284",144617074,"R"
273888,"699 ALEXITINE DRIVE","STAUNTON","VA",24401,38.1329330730001,-79.071758684,388,"699 ALEXITINE DRIVE, STAUNTON, VA, 24401","Match","Non_Exact","699 ALEXTINE DR, STAUNTON, VA, 24401",98847681,"R"
273889,"699 ALPINE VIEW ROAD","STOWE","VT",5672,44.500391054,-72.6912134259999,389,"699 ALPINE VIEW ROAD, STOWE, VT, 5672","Match","Exact","699 ALPINE VIEW RD, STOWE, VT, 05672",232723053,"R"
273890,"699 AUBURN AVE UNIT 206","DELRAY BEACH","FL",33444,26.4510822840001,-80.086543085,390,"699 AUBURN AVE UNIT 206, DELRAY BEACH, FL, 33444","Match","Exact","699 AUBURN AVE, DELRAY BEACH, FL, 33444",649884951,"L"
273891,"699 BOSTON RD","BILLERICA","MA",1821,42.535976674,-71.241018181,391,"699 BOSTON RD, BILLERICA, MA, 1821","Match","Exact","699 BOSTON RD, BILLERICA, MA, 01821",86908025,"R"
273892,"699 BOYLSTON STREET 14TH FL","BOSTON","MA",2116,42.3495560060001,-71.079337418,392,"699 BOYLSTON STREET 14TH FL, BOSTON, MA, 2116","Match","Exact","699 BOYLSTON ST, BOSTON, MA, 02116",85697992,"R"
273893,"699 BRIDLE RIDGE RD","EAGAN","MN",55123,44.8163481380001,-93.119257937,393,"699 BRIDLE RIDGE RD, EAGAN, MN, 55123","Match","Exact","699 BRIDLE RIDGE RD, EAGAN, MN, 55123",37972180,"R"
273894,"699 BRUCITE STREET","GABBS","NV",89409,38.868829003,-117.925074772,394,"699 BRUCITE STREET, GABBS, NV, 89409","Match","Exact","699 BRUCITE ST, GABBS, NV, 89409",140528613,"R"
273895,"699 CHALLENGER WAY","FORKED RIVER","NJ",8731,NA,NA,395,"699 CHALLENGER WAY, FORKED RIVER, NJ, 8731","No_Match",NA,NA,NA,NA
273896,"699 CONCORD AVE","BELMONT","MA",2478,42.3989435330001,-71.186051365,396,"699 CONCORD AVE, BELMONT, MA, 2478","Match","Exact","699 CONCORD AVE, BELMONT, MA, 02478",645276051,"R"
273897,"699 COY LANE","CHAGRIN FALLS","OH",44022,41.4490251930001,-81.3893740029999,397,"699 COY LANE, CHAGRIN FALLS, OH, 44022","Match","Exact","699 COY LN, CHAGRIN FALLS, OH, 44022",137439069,"R"
273898,"699 EMBARCADERO","MORRO BAY","CA",93442,35.3648649890001,-120.852893732,398,"699 EMBARCADERO, MORRO BAY, CA, 93442","Match","Exact","699 EMBARCADERO, MORRO BAY, CA, 93442",109729246,"L"
273899,"699 EXPOSITION BLVD","LOS ANGELES","CA",90089,34.0183627550001,-118.284990617,399,"699 EXPOSITION BLVD, LOS ANGELES, CA, 90089","Match","Exact","699 EXPOSITION BLVD, LOS ANGELES, CA, 90089",142729790,"R"
273900,"699 HARRINGTON ST","PALM BAY","FL",32908,27.982826376,-80.691003573,400,"699 HARRINGTON ST, PALM BAY, FL, 32908","Match","Non_Exact","699 HARRINGTON ST SW, PALM BAY, FL, 32908",631788861,"R"
273901,"699 HIGHWAY 130","WINNSBORO","LA",71295,32.1627651630001,-91.746901656,401,"699 HIGHWAY 130, WINNSBORO, LA, 71295","Match","Exact","699 HWY 130, WINNSBORO, LA, 71295",160861952,"R"
273902,"699 IRA STREET","ATLANTA","GA",30310,33.735753102,-84.3999603729999,402,"699 IRA STREET, ATLANTA, GA, 30310","Match","Non_Exact","699 IRA ST SW, ATLANTA, GA, 30310",17345982,"R"
273903,"699 JOHN STREET SUITE 317","SEATTLE","WA",98109,47.6197173730001,-122.343976675,403,"699 JOHN STREET SUITE 317, SEATTLE, WA, 98109","Match","Exact","699 JOHN ST, SEATTLE, WA, 98109",186967315,"R"
273904,"699 JOHN STREET","TEANECK","NJ",7666,40.8797869900001,-74.00373874,404,"699 JOHN STREET, TEANECK, NJ, 7666","Match","Exact","699 JOHN ST, TEANECK, NJ, 07666",64389673,"R"
273905,"699 JUNE DRIVE","MOLALLA","OR",97038,45.15931026,-122.586598447,405,"699 JUNE DRIVE, MOLALLA, OR, 97038","Match","Exact","699 JUNE DR, MOLALLA, OR, 97038",627653513,"L"
273906,"699 LEWELLING BLVD STE 146","SAN LEANDRO","CA",94579,NA,NA,406,"699 LEWELLING BLVD STE 146, SAN LEANDRO, CA, 94579","No_Match",NA,NA,NA,NA
273907,"699 LEWELLING BLVD","SAN LEANDRO","CA",94579,NA,NA,407,"699 LEWELLING BLVD, SAN LEANDRO, CA, 94579","No_Match",NA,NA,NA,NA
273908,"699 MCKIGHT AVE","WEST FORK","AR",72774,NA,NA,408,"699 MCKIGHT AVE, WEST FORK, AR, 72774","No_Match",NA,NA,NA,NA
273909,"699 MILDRED AVE","WOOD RIVER","IL",62095,38.871076971,-90.084726188,409,"699 MILDRED AVE, WOOD RIVER, IL, 62095","Match","Exact","699 MILDRED AVE, WOOD RIVER, IL, 62095",107685047,"L"
273910,"699 N VULCAN AV UNIT 91","ENCINITAS","CA",92021,NA,NA,410,"699 N VULCAN AV UNIT 91, ENCINITAS, CA, 92021","No_Match",NA,NA,NA,NA
273911,"699 REYNARD AVENUE","CINCINNATI","OH",45231,39.2230521820001,-84.508225916,411,"699 REYNARD AVENUE, CINCINNATI, OH, 45231","Match","Exact","699 REYNARD AVE, CINCINNATI, OH, 45231",103920340,"L"
273912,"699 RIVERBEND RD","FRANKLIN","NC",28734,35.2118621720001,-83.389983662,412,"699 RIVERBEND RD, FRANKLIN, NC, 28734","Match","Exact","699 RIVERBEND RD, FRANKLIN, NC, 28734",35499296,"R"
273913,"699 S 16TH","KERMAN","CA",93630,36.724049807,-120.046495713,413,"699 S 16TH, KERMAN, CA, 93630","Match","Non_Exact","699 S 16TH ST, KERMAN, CA, 93630",635817800,"R"
273914,"699 S FEDERAL HWY","HOLLYWOOD","FL",33020,26.006048848,-80.142803826,414,"699 S FEDERAL HWY, HOLLYWOOD, FL, 33020","Match","Exact","699 S FEDERAL HWY, HOLLYWOOD, FL, 33020",114732605,"L"
273915,"699 STRANDER BLVD","TUKWILA","WA",98188,47.4558286820001,-122.246948683,415,"699 STRANDER BLVD, TUKWILA, WA, 98188","Match","Exact","699 STRANDER BLVD, TUKWILA, WA, 98188",187007136,"R"
273916,"699 TIMBER TRACE LANE APT 206","TITUSVILLE","FL",32780,28.5440479280001,-80.8097632289999,416,"699 TIMBER TRACE LANE APT 206, TITUSVILLE, FL, 32780","Match","Exact","699 TIMBER TRACE LN, TITUSVILLE, FL, 32780",633849588,"R"
273917,"699 W SALISBURY BLVD","SALISBURY","MD",21801,NA,NA,417,"699 W SALISBURY BLVD, SALISBURY, MD, 21801","Tie",NA,NA,NA,NA
273918,"699 W SALISBURY PARKWAY","SALISBURY","MD",21801,38.366908804,-75.6072268619999,418,"699 W SALISBURY PARKWAY, SALISBURY, MD, 21801","Match","Exact","699 W SALISBURY PKWY, SALISBURY, MD, 21801",114493974,"L"
273919,"699 WALNUT STREET  STE 2000","DES MOINES","IA",50309,41.5856763850001,-93.62574469,419,"699 WALNUT STREET  STE 2000, DES MOINES, IA, 50309","Match","Exact","699 WALNUT ST, DES MOINES, IA, 50309",65783010,"R"
273920,"699 WASHINGTON WAY","SPARTANBURG","SC",29301,34.9749668150001,-81.978531479,420,"699 WASHINGTON WAY, SPARTANBURG, SC, 29301","Match","Exact","699 WASHINGTON WAY, SPARTANBURG, SC, 29301",19465307,"L"
273921,"699 WENDEL PLACE","TEANECK","NJ",7666,40.904322934,-74.0227712499999,421,"699 WENDEL PLACE, TEANECK, NJ, 7666","Match","Exact","699 WENDEL PL, TEANECK, NJ, 07666",64440512,"R"
273922,"699 WEST MAGEE ROAD APT 16103","TUCSON","AZ",85704,32.351780692,-110.980012416,422,"699 WEST MAGEE ROAD APT 16103, TUCSON, AZ, 85704","Match","Exact","699 W MAGEE RD, TUCSON, AZ, 85704",121409521,"L"
273923,"699 WHEELERS FARMS RD","MILFORD","CT",6461,NA,NA,423,"699 WHEELERS FARMS RD, MILFORD, CT, 6461","No_Match",NA,NA,NA,NA
273924,"699 WHEELOCK PARKWAY WEST","SAINT PAUL","MN",55117,NA,NA,424,"699 WHEELOCK PARKWAY WEST, SAINT PAUL, MN, 55117","Tie",NA,NA,NA,NA
273925,"699 WINDSOR TERRACE","SCHENECTADY","NY",12308,42.8125993360001,-73.931573164,425,"699 WINDSOR TERRACE, SCHENECTADY, NY, 12308","Match","Exact","699 WINDSOR TER, SCHENECTADY, NY, 12308",18025890,"L"
273926,"6990 CALLOWAY DRIVE","BAKERSFIELD","CA",93312,35.4239755620001,-119.109968426,426,"6990 CALLOWAY DRIVE, BAKERSFIELD, CA, 93312","Match","Exact","6990 CALLOWAY DR, BAKERSFIELD, CA, 93312",109082760,"R"
273927,"6990 HAWTHORNE ST","LANDOVER","MD",20785,38.924108102,-76.8847181579999,427,"6990 HAWTHORNE ST, LANDOVER, MD, 20785","Match","Exact","6990 HAWTHORNE ST, LANDOVER, MD, 20785",76309336,"L"
273928,"6990 IVY HILL DRIVE","WARRENTON","VA",20187,38.737423746,-77.791068235,428,"6990 IVY HILL DRIVE, WARRENTON, VA, 20187","Match","Exact","6990 IVY HILL DR, WARRENTON, VA, 20187",146275124,"R"
273929,"6990 REMUNDA RD","CORNING","CA",96021,40.0015719510001,-122.419310668,429,"6990 REMUNDA RD, CORNING, CA, 96021","Match","Exact","6990 REMUNDA RD, CORNING, CA, 96021",119396061,"L"
273930,"6990 RIEBER STREET","WORTHINGTON","OH",43085,40.1075552390001,-83.0271958869999,430,"6990 RIEBER STREET, WORTHINGTON, OH, 43085","Match","Exact","6990 RIEBER ST, WORTHINGTON, OH, 43085",218686855,"R"
273931,"6990 S OSTER RD","WOODBURN","OR",97071,45.0935225540001,-122.722395529,431,"6990 S OSTER RD, WOODBURN, OR, 97071","Match","Exact","6990 S OSTER RD, WOODBURN, OR, 97071",157905203,"L"
273932,"6990 SANDCASTLE DRIVE","CARLSBAD","CA",92008,33.1043446910001,-117.30895105,432,"6990 SANDCASTLE DRIVE, CARLSBAD, CA, 92008","Match","Non_Exact","6990 SANDCASTLE DR, CARLSBAD, CA, 92011",195402643,"L"
273933,"6990 STEPHENSON LANE UNIT A","JBER","AK",99506,61.2360451920001,-149.726360473,433,"6990 STEPHENSON LANE UNIT A, JBER, AK, 99506","Match","Exact","6990 STEPHENSON LN, JBER, AK, 99506",625155976,"L"
273934,"6990 TEZEL ROAD","SAN ANTONIO","TX",78250,29.4991346310001,-98.662338452,434,"6990 TEZEL ROAD, SAN ANTONIO, TX, 78250","Match","Exact","6990 TEZEL RD, SAN ANTONIO, TX, 78250",640623287,"L"
273935,"6991 COATSWORTH DRIVE","STOCKBRIDGE","GA",30281,33.590004826,-84.2413226049999,435,"6991 COATSWORTH DRIVE, STOCKBRIDGE, GA, 30281","Match","Exact","6991 COATSWORTH DR, STOCKBRIDGE, GA, 30281",210413404,"R"
273936,"6991 HANCOCK DR","PORT ST LUCIE","FL",34952,27.339113555,-80.326173056,436,"6991 HANCOCK DR, PORT ST LUCIE, FL, 34952","Match","Exact","6991 HANCOCK DR, PORT ST LUCIE, FL, 34952",120173519,"R"
273937,"6991 NCR 1200E","CHARLESTON","IL",61920,39.4789112380001,-88.2480475689999,437,"6991 NCR 1200E, CHARLESTON, IL, 61920","Match","Exact","6991 1200E, CHARLESTON, IL, 61920",650543067,"L"
273938,"6991 NORTH STATE ROAD 7","PARKLAND","FL",33073,NA,NA,438,"6991 NORTH STATE ROAD 7, PARKLAND, FL, 33073","No_Match",NA,NA,NA,NA
273939,"69910 M-62","EDWARDSBURG","MI",49112,NA,NA,439,"69910 M-62, EDWARDSBURG, MI, 49112","No_Match",NA,NA,NA,NA
273940,"69910 M62","EDWARDSBURG","MI",49112,NA,NA,440,"69910 M62, EDWARDSBURG, MI, 49112","No_Match",NA,NA,NA,NA
273941,"6992 149TH AVE SE","MCLEOD","ND",58057,46.3985225960001,-97.301195095,441,"6992 149TH AVE SE, MCLEOD, ND, 58057","Match","Exact","6992 149TH AVE SE, MCLEOD, ND, 58057",151672900,"R"
273942,"6992 LAKE EAGLEBROOK DRIVE","LAKELAND","FL",33813,NA,NA,442,"6992 LAKE EAGLEBROOK DRIVE, LAKELAND, FL, 33813","No_Match",NA,NA,NA,NA
273943,"6992 NW 42ND ST","MIAMI","FL",33166,25.8125439560001,-80.3104089449999,443,"6992 NW 42ND ST, MIAMI, FL, 33166","Match","Exact","6992 NW 42ND ST, MIAMI, FL, 33166",115957824,"L"
273944,"6992 ROAD 12","OTTAWA","OH",45875,41.079357714,-84.092241869,444,"6992 ROAD 12, OTTAWA, OH, 45875","Match","Exact","6992 RD 12, OTTAWA, OH, 45875",208939463,"L"
273945,"6993 APPLEWOOD DR","MADISON","WI",53719,43.046561969,-89.5249671139999,445,"6993 APPLEWOOD DR, MADISON, WI, 53719","Match","Exact","6993 APPLEWOOD DR, MADISON, WI, 53719",49517147,"R"
273946,"6993 APPLEWOOD DRIVE","MADISON","WI",53719,43.046561969,-89.5249671139999,446,"6993 APPLEWOOD DRIVE, MADISON, WI, 53719","Match","Exact","6993 APPLEWOOD DR, MADISON, WI, 53719",49517147,"R"
273947,"6993 STARS AVE","MCKINNEY","TX",75070,33.143710818,-96.705181238,447,"6993 STARS AVE, MCKINNEY, TX, 75070","Match","Exact","6993 STARS AVE, MCKINNEY, TX, 75070",642951281,"L"
273948,"6994 GALLOWAY POINT","RIVERDALE","GA",30296,33.564610739,-84.475912798,448,"6994 GALLOWAY POINT, RIVERDALE, GA, 30296","Match","Exact","6994 GALLOWAY PT, RIVERDALE, GA, 30296",610228238,"R"
273949,"6994 GILLIS WAY","GAINESVILLE","VA",20155,38.8069412420001,-77.6281180829999,449,"6994 GILLIS WAY, GAINESVILLE, VA, 20155","Match","Exact","6994 GILLIS WAY, GAINESVILLE, VA, 20155",624252319,"R"
273950,"6994 PINE SHADOW WAY","WINSTON","GA",30187,33.7255336100001,-84.794070913,450,"6994 PINE SHADOW WAY, WINSTON, GA, 30187","Match","Exact","6994 PINE SHADOW WAY, WINSTON, GA, 30187",639978720,"L"
273951,"6995 HAVENS RD","BLACKLICK","OH",43004,40.029571359,-82.8064555,451,"6995 HAVENS RD, BLACKLICK, OH, 43004","Match","Exact","6995 HAVENS RD, BLACKLICK, OH, 43004",218683549,"R"
273952,"6995 KILLARNEY DR","TROY","MI",48098,42.6207138460001,-83.203506529,452,"6995 KILLARNEY DR, TROY, MI, 48098","Match","Exact","6995 KILLARNEY DR, TROY, MI, 48098",69772445,"L"
273953,"6995 N ASTERION LANE","TUCSON","AZ",85741,32.333663136,-111.035359018,453,"6995 N ASTERION LANE, TUCSON, AZ, 85741","Match","Exact","6995 N ASTERION LN, TUCSON, AZ, 85741",121159291,"L"
273954,"6995 THORPE DRIVE","MASON","TN",38049,35.396803192,-89.520995929,454,"6995 THORPE DRIVE, MASON, TN, 38049","Match","Exact","6995 THORPE DR, MASON, TN, 38049",636659598,"L"
273955,"6995 TURNSTONE AVE","CASTLE ROCK","CO",80104,39.3662383610001,-104.789399011,455,"6995 TURNSTONE AVE, CASTLE ROCK, CO, 80104","Match","Exact","6995 TURNSTONE AVE, CASTLE ROCK, CO, 80104",624619977,"L"
273956,"6996 KITSON DR NE","ROCKFORD","MI",49341,43.089572795,-85.463638772,456,"6996 KITSON DR NE, ROCKFORD, MI, 49341","Match","Exact","6996 KITSON DR NE, ROCKFORD, MI, 49341",12498233,"R"
273957,"6996 QUEENFERRY CIRCLE","BOCA RATON","FL",33496,26.419591816,-80.159208886,457,"6996 QUEENFERRY CIRCLE, BOCA RATON, FL, 33496","Match","Exact","6996 QUEENFERRY CIR, BOCA RATON, FL, 33496",115481399,"L"
273958,"6996 TIAZZA GRANDE AVENUE SUITE 102","ORLANDO","FL",32835,NA,NA,458,"6996 TIAZZA GRANDE AVENUE SUITE 102, ORLANDO, FL, 32835","No_Match",NA,NA,NA,NA
273959,"6997 NAHAHHUM CANYON RD","CASHMERE","WA",98815,47.5443863950001,-120.442545734,459,"6997 NAHAHHUM CANYON RD, CASHMERE, WA, 98815","Match","Non_Exact","6997 NAHAHUN CANYON RD, CASHMERE, WA, 98815",641532399,"R"
273960,"6997 NAHAHUM CANYON RD","CASHMERE","WA",98815,47.5443863950001,-120.442545734,460,"6997 NAHAHUM CANYON RD, CASHMERE, WA, 98815","Match","Non_Exact","6997 NAHAHUN CANYON RD, CASHMERE, WA, 98815",641532399,"R"
273961,"6997 REUNION CIRCLE","FOUNTAIN","CO",80817,38.7017355460001,-104.695426054,461,"6997 REUNION CIRCLE, FOUNTAIN, CO, 80817","Match","Exact","6997 REUNION CIR, FOUNTAIN, CO, 80817",637577046,"R"
273962,"6998 E RALEIGH LAGRANGE ROAD","CORDOVA","TN",38018,35.163726635,-89.829804595,462,"6998 E RALEIGH LAGRANGE ROAD, CORDOVA, TN, 38018","Match","Exact","6998 RALEIGH LAGRANGE RD, CORDOVA, TN, 38018",72976232,"L"
273963,"6998 OLD MILLSTONE DRIVE","MECHANICSVILLE","VA",23111,37.5890363170001,-77.303904857,463,"6998 OLD MILLSTONE DRIVE, MECHANICSVILLE, VA, 23111","Match","Exact","6998 OLD MILLSTONE DR, MECHANICSVILLE, VA, 23111",84978628,"R"
273964,"6998 S WILSON DR","CHANDLER","AZ",85249,33.205039637,-111.792867315,464,"6998 S WILSON DR, CHANDLER, AZ, 85249","Match","Exact","6998 S WILSON DR, CHANDLER, AZ, 85249",128855375,"R"
273965,"6999 ASBURY GLIMP RD","RIPLEY","TN",38063,35.70575082,-89.6379109,465,"6999 ASBURY GLIMP RD, RIPLEY, TN, 38063","Match","Exact","6999 ASBURY GLIMP RD, RIPLEY, TN, 38063",63780727,"R"
273966,"6999 HWY 6 N","NAVASOTA","TX",77868,NA,NA,466,"6999 HWY 6 N, NAVASOTA, TX, 77868","No_Match",NA,NA,NA,NA
273967,"6999 MCPHERSON RD STE 109","LAREDO","TX",78045,27.5674621360001,-99.472983778,467,"6999 MCPHERSON RD STE 109, LAREDO, TX, 78045","Match","Non_Exact","6999 MCPHERSON RD, LAREDO, TX, 78041",617903397,"R"
273968,"6999 S SWEETBUSH AVE","TUCSON","AZ",85756,32.1249380830001,-110.887501353,468,"6999 S SWEETBUSH AVE, TUCSON, AZ, 85756","Match","Exact","6999 S SWEETBUSH AVE, TUCSON, AZ, 85756",627417608,"R"
273969,"6999 US HIGHWAY 2","WOLF POINT","MT",59201,NA,NA,469,"6999 US HIGHWAY 2, WOLF POINT, MT, 59201","No_Match",NA,NA,NA,NA
273970,"6999-02 MERRILL RD STE 284","JACKSONVILLE","FL",32277,30.3519949870001,-81.580959992,470,"6999-02 MERRILL RD STE 284, JACKSONVILLE, FL, 32277","Match","Exact","6999 MERRILL RD, JACKSONVILLE, FL, 32277",83903735,"L"
273971,"69B MONROE AVE","PITTSFORD","NY",14534,43.0926241510001,-77.520231328,471,"69B MONROE AVE, PITTSFORD, NY, 14534","Match","Exact","69 MONROE AVE, PITTSFORD, NY, 14534",14544924,"L"
273972,"69B RAFT HIGHLAND DRIVE NW","GIG HARBOUR","WA",98335,NA,NA,472,"69B RAFT HIGHLAND DRIVE NW, GIG HARBOUR, WA, 98335","No_Match",NA,NA,NA,NA
273973,"6A BREWHAUS LN","OCEAN VIEW","NJ",8230,39.222288839,-74.692857223,473,"6A BREWHAUS LN, OCEAN VIEW, NJ, 8230","Match","Exact","6 BREWHAUS LN, OCEAN VIEW, NJ, 08230",174350571,"R"
273974,"6A CLEVELAND COURT","GREENVILLE","SC",29680,34.823936583,-82.375732055,474,"6A CLEVELAND COURT, GREENVILLE, SC, 29680","Match","Non_Exact","6 CLEVELAND CT, GREENVILLE, SC, 29607",38345977,"R"
273975,"6A PETER STREET","UXBRIDGE","MA",1569,42.0732456430001,-71.633354504,475,"6A PETER STREET, UXBRIDGE, MA, 1569","Match","Exact","6 PETER ST, UXBRIDGE, MA, 01569",40024749,"L"
273976,"6A POTOMAC DRIVE","FAIRVIEW HEIGHTS","IL",62208,38.594076864,-90.006958975,476,"6A POTOMAC DRIVE, FAIRVIEW HEIGHTS, IL, 62208","Match","Exact","6 POTOMAC DR, FAIRVIEW HTS, IL, 62208",107840183,"R"
273977,"6A PULASKI AVENUE","CARTERET","NJ",7008,40.5729022720001,-74.2223982309999,477,"6A PULASKI AVENUE, CARTERET, NJ, 7008","Match","Exact","6 PULASKI AVE, CARTERET, NJ, 07008",60277226,"R"
273978,"6C ARESENAL ROAD","FRAMINGHAM","MA",1702,42.2917327500001,-71.41113835,478,"6C ARESENAL ROAD, FRAMINGHAM, MA, 1702","Match","Non_Exact","6 ARSENAL RD, FRAMINGHAM, MA, 01702",86848201,"L"
273979,"6D ESTATE ST PETER","ST THOMAS","VI",802,NA,NA,479,"6D ESTATE ST PETER, ST THOMAS, VI, 802","No_Match",NA,NA,NA,NA
273980,"6N040 VIRGINIA RD","ROSELLE","IL",60172,41.961444606,-88.117943595,480,"6N040 VIRGINIA RD, ROSELLE, IL, 60172","Match","Exact","6N40 VIRGINIA RD, ROSELLE, IL, 60172",112517475,"L"
273981,"6N741 BROOKHAVEN LANE","ST. CHARLES","IL",60174,41.9657961880001,-88.379721181,481,"6N741 BROOKHAVEN LANE, ST. CHARLES, IL, 60174","Match","Non_Exact","6 BROOKHAVEN LN, SAINT CHARLES, IL, 60175",119546484,"L"
273982,"6N954 CRESTWOOD DRIVE","ST CHARLES","IL",60175,41.9688654350001,-88.4232454359999,482,"6N954 CRESTWOOD DRIVE, ST CHARLES, IL, 60175","Match","Exact","6N954 CRESTWOOD DR, SAINT CHARLES, IL, 60175",119584831,"L"
273983,"6RIMROCK RD 61","BARSTOW","CA",92311,NA,NA,483,"6RIMROCK RD 61, BARSTOW, CA, 92311","No_Match",NA,NA,NA,NA
273984,"6S010 STEEPLE RUN DRIVE APT 1C","NAPERVILLE","IL",60540,41.78544329,-88.103664926,484,"6S010 STEEPLE RUN DRIVE APT 1C, NAPERVILLE, IL, 60540","Match","Exact","6S10 STEEPLE RUN DR, NAPERVILLE, IL, 60540",112530887,"L"
273985,"6S553 NAPER BLVD 5","NAPERVILLE","IL",60540,NA,NA,485,"6S553 NAPER BLVD 5, NAPERVILLE, IL, 60540","Tie",NA,NA,NA,NA
273986,"6TH PICKERING LOWER SOUTHFORK SP","ELKO","NV",89801,NA,NA,486,"6TH PICKERING LOWER SOUTHFORK SP, ELKO, NV, 89801","No_Match",NA,NA,NA,NA
273987,"6TH STREET","KIMMSWICK","MO",63052,NA,NA,487,"6TH STREET, KIMMSWICK, MO, 63052","No_Match",NA,NA,NA,NA
273988,"6WEST 132ND STREET","NEW YORK","NY",10037,NA,NA,488,"6WEST 132ND STREET, NEW YORK, NY, 10037","No_Match",NA,NA,NA,NA
273989,"7 08 179TH STREET","WHITESTONE","NY",11357,NA,NA,489,"7 08 179TH STREET, WHITESTONE, NY, 11357","No_Match",NA,NA,NA,NA
273990,"7 14TH STREET SW","HICKORY","NC",28602,35.7311425950001,-81.362410611,490,"7 14TH STREET SW, HICKORY, NC, 28602","Match","Exact","7 14TH ST SW, HICKORY, NC, 28602",45914076,"L"
273991,"7 3RD ST","WATERFORD","NY",12188,42.78859293,-73.6792844079999,491,"7 3RD ST, WATERFORD, NY, 12188","Match","Exact","7 3RD ST, WATERFORD, NY, 12188",18776356,"R"
273992,"7 4TH AVENUE","PATERSON","NJ",7524,40.936842906,-74.1564368159999,492,"7 4TH AVENUE, PATERSON, NJ, 7524","Match","Exact","7 4TH AVE, PATERSON, NJ, 07524",65267281,"L"
273993,"7 5TH STREET","CARNEGIE","PA",15106,40.4002599070001,-80.11191487,493,"7 5TH STREET, CARNEGIE, PA, 15106","Match","Exact","7 5TH ST, CARNEGIE, PA, 15106",51615954,"R"
273994,"7 8TH ST","CLINTONVILLE","WI",54929,44.6202530090001,-88.762251466,494,"7 8TH ST, CLINTONVILLE, WI, 54929","Match","Exact","7 8TH ST, CLINTONVILLE, WI, 54929",74960303,"L"
273995,"7 ADELE ROAD","WEST NYACK","NY",10994,41.099152175,-73.9697072229999,495,"7 ADELE ROAD, WEST NYACK, NY, 10994","Match","Exact","7 ADELE RD, WEST NYACK, NY, 10994",124598333,"L"
273996,"7 ALTAMONT CT","GREENVILLE","SC",29609,34.905121066,-82.386871016,496,"7 ALTAMONT CT, GREENVILLE, SC, 29609","Match","Exact","7 ALTAMONT CT, GREENVILLE, SC, 29609",38336406,"R"
273997,"7 AMHERST LN","HAZLET","NJ",7730,40.425764368,-74.166518853,497,"7 AMHERST LN, HAZLET, NJ, 7730","Match","Exact","7 AMHERST LN, HAZLET, NJ, 07730",90475482,"R"
273998,"7 ANDERSON AVENUE","WEST HAVEN","CT",6516,41.2599528920001,-72.937667291,498,"7 ANDERSON AVENUE, WEST HAVEN, CT, 6516","Match","Exact","7 ANDERSON AVE, W HAVEN, CT, 06516",648652435,"R"
273999,"7 ANDERSON AVENUE","WINTERS","CA",95694,38.5272493360001,-121.971291118,499,"7 ANDERSON AVENUE, WINTERS, CA, 95694","Match","Exact","7 ANDERSON AVE, WINTERS, CA, 95694",67697643,"L"
274000,"7 ANDREWS VIEW COURT","WINDSOR MILL","MD",21244,39.347458508,-76.7497316239999,500,"7 ANDREWS VIEW COURT, WINDSOR MILL, MD, 21244","Match","Exact","7 ANDREWS VIEW CT, WINDSOR MILL, MD, 21244",191507631,"L"
