"ID","Address","City","State","Zip","lat","long","id","input_address","match_indicator","match_type","matched_address","tiger_line_id","tiger_side"
89501,"1791 LAKENOLL DR  APT/ C","CINCINNATI","OH",45231,39.227771654,-84.555089998,1,"1791 LAKENOLL DR  APT/ C, CINCINNATI, OH, 45231","Match","Exact","1791 LAKENOLL DR, CINCINNATI, OH, 45231",103979624,"L"
89502,"1791 MADISON LANE","CHIPLEY","FL",32428,30.6695057270001,-85.579389729,2,"1791 MADISON LANE, CHIPLEY, FL, 32428","Match","Exact","1791 MADISON LN, CHIPLEY, FL, 32428",648765733,"R"
89503,"1791 S STACH ROAD","COEUR DALENE","ID",83814,47.662727793,-116.889615316,3,"1791 S STACH ROAD, COEUR DALENE, ID, 83814","Match","Non_Exact","1791 S STACH RD, COEUR D ALENE, ID, 83814",192939418,"R"
89504,"1791 SOLANO AVENUE","BERKLEY","CA",94707,37.89128865,-122.280279898,4,"1791 SOLANO AVENUE, BERKLEY, CA, 94707","Match","Non_Exact","1791 SOLANO AVE, BERKELEY, CA, 94707",124992292,"L"
89505,"1791 ST RT 140","PORTSMOUTH","OH",45662,38.7619213350001,-82.848785817,5,"1791 ST RT 140, PORTSMOUTH, OH, 45662","Match","Non_Exact","1791 STATE RTE 140, PORTSMOUTH, OH, 45662",55130301,"L"
89506,"1791 THIRD STREET","NORCO","CA",92860,33.916555483,-117.563563363,6,"1791 THIRD STREET, NORCO, CA, 92860","Match","Exact","1791 3RD ST, NORCO, CA, 92860",653193385,"R"
89507,"1791 TOWNSEND AVENUE APT 7B","BRONX","NY",10453,40.8481961100001,-73.910853948,7,"1791 TOWNSEND AVENUE APT 7B, BRONX, NY, 10453","Match","Exact","1791 TOWNSEND AVE, BRONX, NY, 10453",80299702,"L"
89508,"1791 W 700 S","SYRACUSE","UT",84075,41.103634162,-112.060418627,8,"1791 W 700 S, SYRACUSE, UT, 84075","Match","Exact","1791 W 700 S, SYRACUSE, UT, 84075",645862055,"L"
89509,"1791 WADING HERON WAY","THE VILLAGES","FL",32163,28.836879375,-81.9953298199999,9,"1791 WADING HERON WAY, THE VILLAGES, FL, 32163","Match","Exact","1791 WADING HERON WAY, THE VILLAGES, FL, 32163",642215117,"R"
89510,"1791 WOODCLIFFE TERRACE NE","ATLANTA","GA",30324,33.8038643790001,-84.3581768399999,10,"1791 WOODCLIFFE TERRACE NE, ATLANTA, GA, 30324","Match","Exact","1791 WOODCLIFFE TER NE, ATLANTA, GA, 30324",17356356,"R"
89511,"1791 WOODRUFF ROAD C","GREENVILLE","SC",29607,34.8195192810001,-82.2712063229999,11,"1791 WOODRUFF ROAD C, GREENVILLE, SC, 29607","Match","Exact","1791 WOODRUFF RD, GREENVILLE, SC, 29607",640458093,"R"
89512,"1791","DANVILLE","KY",40423,NA,NA,12,"1791, DANVILLE, KY, 40423","No_Match",NA,NA,NA,NA
89513,"17910 CHAGRIN BLVD","SHAKER HEIGHTS","OH",44122,41.464525839,-81.553407712,13,"17910 CHAGRIN BLVD, SHAKER HEIGHTS, OH, 44122","Match","Exact","17910 CHAGRIN BLVD, SHAKER HEIGHTS, OH, 44122",61128804,"R"
89514,"17910 MURPHY PKWY STE B","LATHROP","CA",95330,37.8027742850001,-121.292590992,14,"17910 MURPHY PKWY STE B, LATHROP, CA, 95330","Match","Exact","17910 MURPHY PKWY, LATHROP, CA, 95330",133876313,"R"
89515,"17910 POND RD","ASHTON","MD",20861,39.152139291,-76.9910131,15,"17910 POND RD, ASHTON, MD, 20861","Match","Exact","17910 POND RD, ASHTON, MD, 20861",62115479,"L"
89516,"17910 SKYPARK CIRCLE SUITE 103","IRVINE","CA",92614,33.688924388,-117.858920542,16,"17910 SKYPARK CIRCLE SUITE 103, IRVINE, CA, 92614","Match","Non_Exact","17910 SKY PARK CIR, IRVINE, CA, 92614",609071241,"L"
89517,"17911 BRAMSHOT PLACE","LUTZ","FL",33559,28.1320919730001,-82.421508984,17,"17911 BRAMSHOT PLACE, LUTZ, FL, 33559","Match","Exact","17911 BRAMSHOT PL, LUTZ, FL, 33559",641603657,"R"
89518,"17911 RIDGE TOP DRIVE","HOUSTON","TX",77090,30.0237208300001,-95.466238553,18,"17911 RIDGE TOP DRIVE, HOUSTON, TX, 77090","Match","Exact","17911 RIDGE TOP DR, HOUSTON, TX, 77090",96664939,"L"
89519,"17911 SW 92ND COURT","PALMETTO BAY","FL",33157,25.6033316200001,-80.341338558,19,"17911 SW 92ND COURT, PALMETTO BAY, FL, 33157","Match","Exact","17911 SW 92ND CT, PALMETTO BAY, FL, 33157",116261164,"R"
89520,"17911 SW SWANSTROM DR","SHERWOOD","OR",97140,45.360137276,-122.861852596,20,"17911 SW SWANSTROM DR, SHERWOOD, OR, 97140","Match","Exact","17911 SWANSTROM DR, SHERWOOD, OR, 97140",158222849,"R"
89521,"17913 VALLE DE LOBO DR","POWAY","CA",92064,33.030874784,-117.032279432,21,"17913 VALLE DE LOBO DR, POWAY, CA, 92064","Match","Exact","17913 VALLE DE LOBO DR, POWAY, CA, 92064",195317370,"R"
89522,"17914 MAGNOLIA BLVD UNIT 132","ENCINO","CA",91316,34.1653631250001,-118.523164394,22,"17914 MAGNOLIA BLVD UNIT 132, ENCINO, CA, 91316","Match","Exact","17914 MAGNOLIA BLVD, ENCINO, CA, 91316",648859361,"L"
89523,"17914 RAYMER STREET","SHERWOOD FOREST","CA",91325,34.227073138,-118.523468352,23,"17914 RAYMER STREET, SHERWOOD FOREST, CA, 91325","Match","Exact","17914 RAYMER ST, SHERWOOD FRST, CA, 91325",141543544,"L"
89524,"17915 ATKINSON AVENUE","TORRANCE","CA",90504,33.868517614,-118.325369224,24,"17915 ATKINSON AVENUE, TORRANCE, CA, 90504","Match","Exact","17915 ATKINSON AVE, TORRANCE, CA, 90504",141664542,"R"
89525,"17915 HYDE COVE COURT","RICHMOND","TX",77407,29.679291472,-95.696265395,25,"17915 HYDE COVE COURT, RICHMOND, TX, 77407","Match","Exact","17915 HYDE COVE CT, RICHMOND, TX, 77407",623688740,"R"
89526,"17915 SE MAIN SREET","PORTLAND","OR",97233,NA,NA,26,"17915 SE MAIN SREET, PORTLAND, OR, 97233","No_Match",NA,NA,NA,NA
89527,"17916 MERINO DR","ACCOKEEK","MD",20607,38.6418066850001,-77.038909619,27,"17916 MERINO DR, ACCOKEEK, MD, 20607","Match","Exact","17916 MERINO DR, ACCOKEEK, MD, 20607",76348967,"L"
89528,"17918 ANTONIO AVE","CERRITOS","CA",90703,33.868459554,-118.038200581,28,"17918 ANTONIO AVE, CERRITOS, CA, 90703","Match","Exact","17918 ANTONIO AVE, CERRITOS, CA, 90703",141754452,"L"
89529,"17918 MAHOGANY FOREST DRIVE","SPRING","TX",77379,30.024552197,-95.550120901,29,"17918 MAHOGANY FOREST DRIVE, SPRING, TX, 77379","Match","Exact","17918 MAHOGANY FOREST DR, SPRING, TX, 77379",96003632,"R"
89530,"17918 SUGARLOAF BAY DR","CYPRESS","TX",77429,29.991987341,-95.694634999,30,"17918 SUGARLOAF BAY DR, CYPRESS, TX, 77429","Match","Exact","17918 SUGARLOAF BAY DR, CYPRESS, TX, 77429",627714470,"R"
89531,"17919 JUNIPER GREEN TRL","HUMBLE","TX",77346,29.976250839,-95.204906825,31,"17919 JUNIPER GREEN TRL, HUMBLE, TX, 77346","Match","Exact","17919 JUNIPER GREEN TRL, HUMBLE, TX, 77346",628010617,"L"
89532,"17919 OLD MANSFIELD ROAD","FREDERICKTOWN","OH",43019,40.4948273250001,-82.488732721,32,"17919 OLD MANSFIELD ROAD, FREDERICKTOWN, OH, 43019","Match","Exact","17919 OLD MANSFIELD RD, FREDERICKTOWN, OH, 43019",24665605,"L"
89533,"1792 AUGUSTA DR UNIT 203","FORT MYERS","FL",33907,26.550439151,-81.879847016,33,"1792 AUGUSTA DR UNIT 203, FORT MYERS, FL, 33907","Match","Exact","1792 AUGUSTA DR, FORT MYERS, FL, 33907",644843532,"R"
89534,"1792 BELL TOWER LANE","WESTON","FL",33326,NA,NA,34,"1792 BELL TOWER LANE, WESTON, FL, 33326","No_Match",NA,NA,NA,NA
89535,"1792 COUNTY FARM RD","MARIETTA","GA",30008,NA,NA,35,"1792 COUNTY FARM RD, MARIETTA, GA, 30008","No_Match",NA,NA,NA,NA
89536,"1792 COUNTY SERVICES PARKWAY SW","MARIETTA","GA",30008,33.9078844260001,-84.582554116,36,"1792 COUNTY SERVICES PARKWAY SW, MARIETTA, GA, 30008","Match","Non_Exact","1792 COUNTY SERVICES PKWY, MARIETTA, GA, 30008",17252512,"R"
89537,"1792 COUNTY SERVICES PKWY","MARIETTA","GA",30008,33.9078844260001,-84.582554116,37,"1792 COUNTY SERVICES PKWY, MARIETTA, GA, 30008","Match","Exact","1792 COUNTY SERVICES PKWY, MARIETTA, GA, 30008",17252512,"R"
89538,"1792 HAPPY VALLEY CIRCLE","NEWNAN","GA",30263,33.473960521,-84.794439638,38,"1792 HAPPY VALLEY CIRCLE, NEWNAN, GA, 30263","Match","Exact","1792 HAPPY VALLEY CIR, NEWNAN, GA, 30263",632065429,"L"
89539,"1792 SAILING CLUB RD","CAMDEN","SC",29020,34.409169955,-80.773392356,39,"1792 SAILING CLUB RD, CAMDEN, SC, 29020","Match","Exact","1792 SAILING CLUB RD, CAMDEN, SC, 29020",78490450,"L"
89540,"1792 STATE HIGHWAY BB","HOLLISTER","MO",65672,NA,NA,40,"1792 STATE HIGHWAY BB, HOLLISTER, MO, 65672","No_Match",NA,NA,NA,NA
89541,"17920 AARONDALE ROAD","SONORA","CA",95370,37.9478687880001,-120.300511542,41,"17920 AARONDALE ROAD, SONORA, CA, 95370","Match","Exact","17920 AARONDALE RD, SONORA, CA, 95370",647306203,"R"
89542,"17920 MCLEAN RD SW","VASHON","WA",98070,47.4410724200001,-122.448547116,42,"17920 MCLEAN RD SW, VASHON, WA, 98070","Match","Exact","17920 MCLEAN RD SW, VASHON, WA, 98070",239775748,"R"
89543,"17920 NW 177TH AVE","ALACHUA","FL",32615,29.8172823520001,-82.532871579,43,"17920 NW 177TH AVE, ALACHUA, FL, 32615","Match","Exact","17920 NW 177TH AVE, ALACHUA, FL, 32615",6833551,"R"
89544,"17921 BURNSIDE DR","LUTZ","FL",33548,28.135435542,-82.4733448819999,44,"17921 BURNSIDE DR, LUTZ, FL, 33548","Match","Non_Exact","17921 BURNSIDE RD, LUTZ, FL, 33548",636057855,"R"
89545,"17921 BURNSIDE RD","LUTZ","FL",33548,28.135435542,-82.4733448819999,45,"17921 BURNSIDE RD, LUTZ, FL, 33548","Match","Exact","17921 BURNSIDE RD, LUTZ, FL, 33548",636057855,"R"
89546,"17921 DEVORE LANE","FORT MYERS","FL",33913,26.482970623,-81.7229994799999,46,"17921 DEVORE LANE, FORT MYERS, FL, 33913","Match","Exact","17921 DEVORE LN, FORT MYERS, FL, 33913",648650711,"R"
89547,"17921 E DAYSTAR RD","SPOKANE VALLEY","WA",99016,47.6382299270001,-117.16340083,47,"17921 E DAYSTAR RD, SPOKANE VALLEY, WA, 99016","Match","Exact","17921 E DAYSTAR RD, SPOKANE VALLEY, WA, 99016",653501464,"L"
89548,"17922 HOWSMOOR PL","LUTZ","FL",33559,28.1327952680001,-82.423988419,48,"17922 HOWSMOOR PL, LUTZ, FL, 33559","Match","Exact","17922 HOWSMOOR PL, LUTZ, FL, 33559",641603649,"L"
89549,"17924 E BATES AVE","AURORA","CO",80013,39.662837666,-104.779888305,49,"17924 E BATES AVE, AURORA, CO, 80013","Match","Exact","17924 E BATES AVE, AURORA, CO, 80013",177358385,"R"
89550,"17924 ROSECLIFF RD","CLEVELAND","OH",44119,41.5934572210001,-81.5540541509999,50,"17924 ROSECLIFF RD, CLEVELAND, OH, 44119","Match","Exact","17924 ROSECLIFF RD, CLEVELAND, OH, 44119",61107843,"R"
89551,"17924 SOUTH HALSTED STREET","HOMEWOOD","IL",60430,41.565016325,-87.636400479,51,"17924 SOUTH HALSTED STREET, HOMEWOOD, IL, 60430","Match","Non_Exact","17924 HALSTED ST, HOMEWOOD, IL, 60430",638457895,"L"
89552,"17925 IRIS AVENUE","RIVERSIDE","CA",92508,33.8872213810001,-117.350567976,52,"17925 IRIS AVENUE, RIVERSIDE, CA, 92508","Match","Exact","17925 IRIS AVE, RIVERSIDE, CA, 92508",194744575,"R"
89553,"17926 SUNRISE DRIVE","ROWLAND HEIGHTS","CA",91748,33.9705393940001,-117.917675846,53,"17926 SUNRISE DRIVE, ROWLAND HEIGHTS, CA, 91748","Match","Exact","17926 SUNRISE DR, ROWLAND HEIGHTS, CA, 91748",141776909,"L"
89554,"17927 NINE OAKS DRIVE","SPRING GROVE","MN",55974,43.5672396850001,-91.6060614369999,54,"17927 NINE OAKS DRIVE, SPRING GROVE, MN, 55974","Match","Exact","17927 NINE OAKS DR, SPRING GROVE, MN, 55974",55797211,"R"
89555,"17929 THELMA AVENUE - C","JUPITER","FL",33458,26.938100037,-80.126113205,55,"17929 THELMA AVENUE - C, JUPITER, FL, 33458","Match","Exact","17929 THELMA AVE, JUPITER, FL, 33458",636047256,"R"
89556,"1793 BLACK BEAR CIRCLE WEST","CORDOVA","TN",38016,35.1744183920001,-89.781031244,56,"1793 BLACK BEAR CIRCLE WEST, CORDOVA, TN, 38016","Match","Exact","1793 BLACK BEAR CIR W, CORDOVA, TN, 38016",607411679,"L"
89557,"1793 DREMAN AVE","CINCINNATI","OH",45223,39.153343727,-84.548187927,57,"1793 DREMAN AVE, CINCINNATI, OH, 45223","Match","Exact","1793 DREMAN AVE, CINCINNATI, OH, 45223",103922192,"L"
89558,"1793 JOPLIN LANE","VIRGINIA BEACH","VA",23464,36.784763383,-76.191059724,58,"1793 JOPLIN LANE, VIRGINIA BEACH, VA, 23464","Match","Exact","1793 JOPLIN LN, VA BCH, VA, 23464",122258197,"R"
89559,"1793 KELTNER CIRCLE UNIT 9","MEMPHIS","TN",38114,35.0960160490001,-89.996868165,59,"1793 KELTNER CIRCLE UNIT 9, MEMPHIS, TN, 38114","Match","Exact","1793 KELTNER CIR, MEMPHIS, TN, 38114",72917517,"R"
89560,"1793 MICHAELWOOD CT","SAINT CHARLES","MO",63303,38.7734638900001,-90.5291059639999,60,"1793 MICHAELWOOD CT, SAINT CHARLES, MO, 63303","Match","Exact","1793 MICHAELWOOD CT, SAINT CHARLES, MO, 63303",100052077,"R"
89561,"1793 OPA LOCKA BLVD","OPA LOCKA","FL",33054,25.899067815,-80.2294266229999,61,"1793 OPA LOCKA BLVD, OPA LOCKA, FL, 33054","Match","Exact","1793 OPA LOCKA BLVD, OPA LOCKA, FL, 33054",116056777,"R"
89562,"1793 PLYMOUTH ST","PHILADELPHIA","PA",19126,40.0641564100001,-75.1456478659999,62,"1793 PLYMOUTH ST, PHILADELPHIA, PA, 19126","Match","Exact","1793 PLYMOUTH ST, PHILADELPHIA, PA, 19126",131413659,"R"
89563,"1793 REVERE DR","HAMPTON","VA",23664,37.0581958280001,-76.297988286,63,"1793 REVERE DR, HAMPTON, VA, 23664","Match","Exact","1793 REVERE DR, HAMPTON, VA, 23664",103760475,"L"
89564,"1793 RIVERSIDE DRIVE","NEW YORK","NY",10034,40.8664851090001,-73.930522058,64,"1793 RIVERSIDE DRIVE, NEW YORK, NY, 10034","Match","Exact","1793 RIVERSIDE DR, NEW YORK, NY, 10034",59658777,"L"
89565,"1793 SOLAR LANE","VIRGINIA BEACH","VA",23456,36.7843104250001,-76.112845119,65,"1793 SOLAR LANE, VIRGINIA BEACH, VA, 23456","Match","Exact","1793 SOLAR LN, VA BCH, VA, 23456",122268099,"R"
89566,"1793 SWIMLEY ROAD","BERRYVILLE","VA",22611,39.2508810150001,-78.0217468769999,66,"1793 SWIMLEY ROAD, BERRYVILLE, VA, 22611","Match","Exact","1793 SWIMLEY RD, BERRYVILLE, VA, 22611",125895845,"L"
89567,"1793 WATERTON TRL","GRAYSON","GA",30017,33.891766159,-83.977101075,67,"1793 WATERTON TRL, GRAYSON, GA, 30017","Match","Exact","1793 WATERTON TRL, GRAYSON, GA, 30017",88922518,"R"
89568,"17930 LAKE CHABOT RD","CASTRO VALLEY","CA",94546,NA,NA,68,"17930 LAKE CHABOT RD, CASTRO VALLEY, CA, 94546","No_Match",NA,NA,NA,NA
89569,"17930 PECAN BAYOU LN","CYPRESS","TX",77433,29.927795861,-95.6890642819999,69,"17930 PECAN BAYOU LN, CYPRESS, TX, 77433","Match","Exact","17930 PECAN BAYOU LN, CYPRESS, TX, 77433",641756714,"L"
89570,"17930 ROSITA STREET","ENCINO","CA",91316,34.1572496370001,-118.523619706,70,"17930 ROSITA STREET, ENCINO, CA, 91316","Match","Exact","17930 ROSITA ST, ENCINO, CA, 91316",141555952,"L"
89571,"17934 BLISS DRIVE","POOLESVILLE","MD",20837,39.1519564610001,-77.41386669,71,"17934 BLISS DRIVE, POOLESVILLE, MD, 20837","Match","Exact","17934 BLISS DR, POOLESVILLE, MD, 20837",649775809,"L"
89572,"17934 DIAMOND PEAK CT","HUMBLE","TX",77346,29.978943041,-95.181565667,72,"17934 DIAMOND PEAK CT, HUMBLE, TX, 77346","Match","Exact","17934 DIAMOND PEAK CT, HUMBLE, TX, 77346",625722422,"R"
89573,"17936 CACHET ISLE DRIVE","ZEPHYRHILLS","FL",33647,28.1343297080001,-82.301029973,73,"17936 CACHET ISLE DRIVE, ZEPHYRHILLS, FL, 33647","Match","Non_Exact","17936 CACHET ISLE DR, TAMPA PALMS, FL, 33647",648495071,"L"
89574,"17939 50TH AVE S","SEATAC","WA",98188,47.442232759,-122.272111807,74,"17939 50TH AVE S, SEATAC, WA, 98188","Match","Exact","17939 50TH AVE S, SEATAC, WA, 98188",239773544,"R"
89575,"17939 LAKESHORE BLVD 102","CLEVELAND","OH",44119,41.588424091,-81.555654978,75,"17939 LAKESHORE BLVD 102, CLEVELAND, OH, 44119","Match","Exact","17939 LAKESHORE BLVD, CLEVELAND, OH, 44119",61107838,"L"
89576,"1794 20 3/4 STREET","RICE LAKE","WI",54868,45.465418395,-91.729984913,76,"1794 20 3/4 STREET, RICE LAKE, WI, 54868","Match","Exact","1794 20 3/4 ST, RICE LAKE, WI, 54868",646181174,"L"
89577,"1794 CURRY FORD ROAD","ORALDNO","FL",32806,28.524033246,-81.357531606,77,"1794 CURRY FORD ROAD, ORALDNO, FL, 32806","Match","Non_Exact","1794 CURRY FORD RD, ORLANDO, FL, 32806",94391910,"R"
89578,"1794 E SCORPIO PL","CHANDLER","AZ",85249,33.2215922180001,-111.810757181,78,"1794 E SCORPIO PL, CHANDLER, AZ, 85249","Match","Exact","1794 E SCORPIO PL, CHANDLER, AZ, 85249",128873048,"L"
89579,"1794 FRANKLIN BLVD","CARMEL","IN",46032,39.9582139280001,-86.1235537489999,79,"1794 FRANKLIN BLVD, CARMEL, IN, 46032","Match","Exact","1794 FRANKLIN BLVD, CARMEL, IN, 46032",29294915,"L"
89580,"1794 MCMICHAEL STREET","OANGEBURG","SC",29115,33.4919528290001,-80.830086222,80,"1794 MCMICHAEL STREET, OANGEBURG, SC, 29115","Match","Non_Exact","1794 MCMICHAEL ST, ORANGEBURG, SC, 29115",19217486,"R"
89581,"1794 N STATE ROAD 101","MILAN","IN",47031,39.102569632,-85.1311395769999,81,"1794 N STATE ROAD 101, MILAN, IN, 47031","Match","Exact","1794 STATE RD 101, MILAN, IN, 47031",31515846,"R"
89582,"1794 NW 34TH STREET","GAINESVILLE","FL",32605,29.66890081,-82.3723619529999,82,"1794 NW 34TH STREET, GAINESVILLE, FL, 32605","Match","Exact","1794 NW 34TH ST, GAINESVILLE, FL, 32605",6804857,"L"
89583,"1794 REDWOOD AVENUE","JEFFERSON","IA",50129,NA,NA,83,"1794 REDWOOD AVENUE, JEFFERSON, IA, 50129","No_Match",NA,NA,NA,NA
89584,"1794 SCENIC BLUFF ROAD","THOMSON","IL",61285,41.9538023870001,-90.056013513,84,"1794 SCENIC BLUFF ROAD, THOMSON, IL, 61285","Match","Exact","1794 SCENIC BLUFF RD, THOMSON, IL, 61285",607146047,"L"
89585,"1794 SOUTHRIDGE LN","OWENSVILLE","MO",65066,38.3302432790001,-91.49994861,85,"1794 SOUTHRIDGE LN, OWENSVILLE, MO, 65066","Match","Exact","1794 SOUTHRIDGE LN, OWENSVILLE, MO, 65066",45234881,"L"
89586,"1794 W 36TH ST","LOS ANGELES","CA",90018,34.022810271,-118.311602817,86,"1794 W 36TH ST, LOS ANGELES, CA, 90018","Match","Exact","1794 W 36TH ST, LOS ANGELES, CA, 90018",141605853,"L"
89587,"17940 N TAMIAMI TRL- STE 110-516","NORTH FORT MYERS","FL",33903,NA,NA,87,"17940 N TAMIAMI TRL- STE 110-516, NORTH FORT MYERS, FL, 33903","No_Match",NA,NA,NA,NA
89588,"17940 NE 19TH AVE","NORTH MIAMI BEACH","FL",33162,25.941037899,-80.162680554,88,"17940 NE 19TH AVE, NORTH MIAMI BEACH, FL, 33162","Match","Exact","17940 NE 19TH AVE, N MIAMI BEACH, FL, 33162",116035719,"L"
89589,"17940 NW 27TH AVE","MIAMI GARDENS","FL",33056,25.937906411,-80.245171759,89,"17940 NW 27TH AVE, MIAMI GARDENS, FL, 33056","Match","Exact","17940 NW 27TH AVE, MIAMI GARDENS, FL, 33056",639263032,"L"
89590,"17940 RAYMOND CT","FONTANA","CA",92336,34.1161870780001,-117.413574402,90,"17940 RAYMOND CT, FONTANA, CA, 92336","Match","Exact","17940 RAYMOND CT, FONTANA, CA, 92336",144964790,"L"
89591,"17940 SE MAIN STREET","PORTLAND","OR",97233,45.513650323,-122.477785653,91,"17940 SE MAIN STREET, PORTLAND, OR, 97233","Match","Exact","17940 SE MAIN ST, PORTLAND, OR, 97233",157524254,"R"
89592,"17940 SNYDER ROAD","CHAGRIN FALLS","OH",44023,41.3815116860001,-81.308554253,92,"17940 SNYDER ROAD, CHAGRIN FALLS, OH, 44023","Match","Exact","17940 SNYDER RD, CHAGRIN FALLS, OH, 44023",137442027,"R"
89593,"17941 US HWY 431 S","HEADLAND","AL",36345,NA,NA,93,"17941 US HWY 431 S, HEADLAND, AL, 36345","No_Match",NA,NA,NA,NA
89594,"17942 SILVER BEND DR","HUMBLE","TX",77346,29.9768909970001,-95.20625355,94,"17942 SILVER BEND DR, HUMBLE, TX, 77346","Match","Exact","17942 SILVER BEND DR, HUMBLE, TX, 77346",635219084,"L"
89595,"17943 W PORT ROYALE","SURPRISE","AZ",85388,33.620941809,-112.445434119,95,"17943 W PORT ROYALE, SURPRISE, AZ, 85388","Match","Non_Exact","17943 W PORT ROYALE LN, SURPRISE, AZ, 85388",243976194,"R"
89596,"17944 CALAVERAS DRIVE","LATHROP","CA",95330,37.797411912,-121.317829487,96,"17944 CALAVERAS DRIVE, LATHROP, CA, 95330","Match","Exact","17944 CALAVERAS DR, LATHROP, CA, 95330",649065391,"L"
89597,"17944 SW 33RD COURT","MIRAMAR","FL",33029,25.976647155,-80.384601345,97,"17944 SW 33RD COURT, MIRAMAR, FL, 33029","Match","Exact","17944 SW 33RD CT, MIRAMAR, FL, 33029",114777641,"L"
89598,"17948 380TH ST","MCGREGOR","MN",55760,46.563433665,-93.225921425,98,"17948 380TH ST, MCGREGOR, MN, 55760","Match","Exact","17948 380TH ST, MCGREGOR, MN, 55760",640881773,"L"
89599,"17948 E STATE HWY 29","BUCHANAN DAM","TX",78609,30.7397994990001,-98.4283626759999,99,"17948 E STATE HWY 29, BUCHANAN DAM, TX, 78609","Match","Non_Exact","17948 E STATE HWY 29, BUCHANAN DAM, TX, 78609",182265084,"R"
89600,"17948 FRALEY BLVD","DUMFRIES","VA",22026,38.562393544,-77.3286005799999,100,"17948 FRALEY BLVD, DUMFRIES, VA, 22026","Match","Exact","17948 FRALEY BLVD, DUMFRIES, VA, 22026",207146997,"R"
89601,"17949 ROMULUS ROAD","RALPH","AL",35480,33.133629199,-87.803537491,101,"17949 ROMULUS ROAD, RALPH, AL, 35480","Match","Exact","17949 ROMULUS RD, RALPH, AL, 35480",640928756,"R"
89602,"1795 200TH ST","PERCIVAL","IA",51648,40.758295263,-95.8426982,102,"1795 200TH ST, PERCIVAL, IA, 51648","Match","Exact","1795 200TH ST, PERCIVAL, IA, 51648",639157367,"L"
89603,"1795 200TH STREET","PERCIVAL","IA",51648,40.758295263,-95.8426982,103,"1795 200TH STREET, PERCIVAL, IA, 51648","Match","Exact","1795 200TH ST, PERCIVAL, IA, 51648",639157367,"L"
89604,"1795 233RD STREET","LIBERTYVILLE","IA",52567,NA,NA,104,"1795 233RD STREET, LIBERTYVILLE, IA, 52567","No_Match",NA,NA,NA,NA
89605,"1795 ALYSHEBA WAY STE 1001","LEXINGTON","KY",40509,38.016534762,-84.421762094,105,"1795 ALYSHEBA WAY STE 1001, LEXINGTON, KY, 40509","Match","Exact","1795 ALYSHEBA WAY, LEXINGTON, KY, 40509",31954093,"R"
89606,"1795 ALYSHEBA WAY STE 2102","LEXINGTON","KY",40509,38.016534762,-84.421762094,106,"1795 ALYSHEBA WAY STE 2102, LEXINGTON, KY, 40509","Match","Exact","1795 ALYSHEBA WAY, LEXINGTON, KY, 40509",31954093,"R"
89607,"1795 ALYSHEBA WAY STE 4103","LEXINGTON","KY",40509,38.016534762,-84.421762094,107,"1795 ALYSHEBA WAY STE 4103, LEXINGTON, KY, 40509","Match","Exact","1795 ALYSHEBA WAY, LEXINGTON, KY, 40509",31954093,"R"
89608,"1795 BENNINGFIELD DR SW","MARIETTA","GA",30064,33.909358071,-84.60839053,108,"1795 BENNINGFIELD DR SW, MARIETTA, GA, 30064","Match","Exact","1795 BENNINGFIELD DR SW, MARIETTA, GA, 30064",17196673,"L"
89609,"1795 BUFORD HWY","DULUTH","GA",30097,34.0259238350001,-84.102832973,109,"1795 BUFORD HWY, DULUTH, GA, 30097","Match","Exact","1795 BUFORD HWY, DULUTH, GA, 30097",647920778,"L"
89610,"1795 HARVARD YARD MAIL CENTER","CAMBRIDGE","MA",2138,NA,NA,110,"1795 HARVARD YARD MAIL CENTER, CAMBRIDGE, MA, 2138","No_Match",NA,NA,NA,NA
89611,"1795 LAKEWOOD DRIVE S","ST PETERSBURG","FL",33712,27.7213126180001,-82.656355043,111,"1795 LAKEWOOD DRIVE S, ST PETERSBURG, FL, 33712","Match","Exact","1795 LAKEWOOD DR S, SAINT PETERSBURG, FL, 33712",651745675,"R"
89612,"1795 LEAMINGTON LN","NAPLES","FL",34109,26.2620009280001,-81.783536724,112,"1795 LEAMINGTON LN, NAPLES, FL, 34109","Match","Exact","1795 LEAMINGTON LN, NAPLES, FL, 34109",115157398,"R"
89613,"1795 LONG BEACH BLVD","LONG BEACH","CA",90813,33.789714174,-118.189369032,113,"1795 LONG BEACH BLVD, LONG BEACH, CA, 90813","Match","Exact","1795 LONG BEACH BLVD, LONG BEACH, CA, 90813",141693670,"L"
89614,"1795 N FRY RD 429","KATY","TX",77449,29.792698348,-95.718892393,114,"1795 N FRY RD 429, KATY, TX, 77449","Match","Exact","1795 FRY RD, KATY, TX, 77449",233347271,"L"
89615,"1795 N FRY ROAD NO 262","KATY","TX",77449,29.792698348,-95.718892393,115,"1795 N FRY ROAD NO 262, KATY, TX, 77449","Match","Non_Exact","1795 FRY RD, KATY, TX, 77449",233347271,"L"
89616,"1795 N FRY STE 215","KATY","TX",77449,29.792698348,-95.718892393,116,"1795 N FRY STE 215, KATY, TX, 77449","Match","Non_Exact","1795 FRY RD, KATY, TX, 77449",233347271,"L"
89617,"1795 NOEL PLACE STE 105","MELBOURNE","FL",32935,NA,NA,117,"1795 NOEL PLACE STE 105, MELBOURNE, FL, 32935","No_Match",NA,NA,NA,NA
89618,"1795 NOME ST","AURORA","CO",80010,39.744654428,-104.851704456,118,"1795 NOME ST, AURORA, CO, 80010","Match","Exact","1795 NOME ST, AURORA, CO, 80010",177350635,"L"
89619,"1795 OAK RD","NORTH BRUNSWICK","NJ",8902,40.4447679140001,-74.479662049,119,"1795 OAK RD, NORTH BRUNSWICK, NJ, 8902","Match","Exact","1795 OAK RD, N BRUNSWICK, NJ, 08902",60264800,"R"
89620,"1795 RIVERSIDE DR APT 2A","NEW YORK","NY",10034,40.8664174210001,-73.9304305169999,120,"1795 RIVERSIDE DR APT 2A, NEW YORK, NY, 10034","Match","Exact","1795 RIVERSIDE DR, NEW YORK, NY, 10034",59658778,"L"
89621,"1795 RIVERSIDE DRIVE APT 5F","NEW YORK","NY",10034,40.8664174210001,-73.9304305169999,121,"1795 RIVERSIDE DRIVE APT 5F, NEW YORK, NY, 10034","Match","Exact","1795 RIVERSIDE DR, NEW YORK, NY, 10034",59658778,"L"
89622,"1795 S WILLIAMS STREET","DENVER","CO",80210,39.6840995540001,-104.966383626,122,"1795 S WILLIAMS STREET, DENVER, CO, 80210","Match","Exact","1795 S WILLIAMS ST, DENVER, CO, 80210",177332633,"R"
89623,"1795 SLEEPY HOLLOW LANE","PLAINFIELD","NJ",7060,40.6204331910001,-74.391895572,123,"1795 SLEEPY HOLLOW LANE, PLAINFIELD, NJ, 7060","Match","Exact","1795 SLEEPY HOLLOW LN, PLAINFIELD, NJ, 07060",60561068,"L"
89624,"1795 TIBURON WAY","SAN LUIS OBISPO","CA",93401,35.2623926380001,-120.62713649,124,"1795 TIBURON WAY, SAN LUIS OBISPO, CA, 93401","Match","Exact","1795 TIBURON WAY, SAN LUIS OBISPO, CA, 93401",645357580,"R"
89625,"1795 TROPHY DRIVE","MARIETTA","GA",30062,34.002316324,-84.498166025,125,"1795 TROPHY DRIVE, MARIETTA, GA, 30062","Match","Exact","1795 TROPHY DR, MARIETTA, GA, 30062",17217148,"L"
89626,"1795 W BROADWAY PMB 13","IDAHO FALLS","ID",83402,NA,NA,126,"1795 W BROADWAY PMB 13, IDAHO FALLS, ID, 83402","No_Match",NA,NA,NA,NA
89627,"1795 WEST 500 NORTH  APT 39","SALT LAKE CITY","UT",84116,40.7802933990001,-111.942599857,127,"1795 WEST 500 NORTH  APT 39, SALT LAKE CITY, UT, 84116","Match","Exact","1795 W 500 N, SALT LAKE CITY, UT, 84116",176065924,"L"
89628,"1795 WILLISTON ROAD","SOUTH BURLINGTON","VT",5403,44.463607923,-73.15634468,128,"1795 WILLISTON ROAD, SOUTH BURLINGTON, VT, 5403","Match","Exact","1795 WILLISTON RD, S BURLINGTON, VT, 05403",135859086,"L"
89629,"17950 N MILITARY TRAIL","BOCA RATON","FL",33496,26.410827284,-80.12166741,129,"17950 N MILITARY TRAIL, BOCA RATON, FL, 33496","Match","Exact","17950 N MILITARY TRL, BOCA RATON, FL, 33496",646936663,"L"
89630,"17951 BRIENZ COURT","TEHACHAPI","CA",93561,35.080811183,-118.555461993,130,"17951 BRIENZ COURT, TEHACHAPI, CA, 93561","Match","Exact","17951 BRIENZ CT, TEHACHAPI, CA, 93561",109472180,"L"
89631,"17951 W ROMA AVE","GOODYEAR","AZ",85395,33.4993924070001,-112.445932134,131,"17951 W ROMA AVE, GOODYEAR, AZ, 85395","Match","Exact","17951 W ROMA AVE, GOODYEAR, AZ, 85395",618471335,"L"
89632,"17952 GAS POINT RD","COTTONWOOD","CA",96022,40.3887136490001,-122.38488004,132,"17952 GAS POINT RD, COTTONWOOD, CA, 96022","Match","Exact","17952 GAS POINT RD, COTTONWOOD, CA, 96022",126618492,"L"
89633,"17954 W MAIN ST LOT 2","GALLIANO","LA",70354,NA,NA,133,"17954 W MAIN ST LOT 2, GALLIANO, LA, 70354","Tie",NA,NA,NA,NA
89634,"17955 NW RAPID ST","BEAVERTON","WA",97006,NA,NA,134,"17955 NW RAPID ST, BEAVERTON, WA, 97006","No_Match",NA,NA,NA,NA
89635,"17955 SEABREEZE DRIVE","PACIFIC PALASADES","CA",90272,34.0457189860001,-118.567473783,135,"17955 SEABREEZE DRIVE, PACIFIC PALASADES, CA, 90272","Match","Non_Exact","17955 SEABREEZE DR, PACIFIC PALISADES, CA, 90272",141557495,"R"
89636,"17956 LACEBARK CT","SAN BERNARDINO","CA",92407,34.1838664640001,-117.420683291,136,"17956 LACEBARK CT, SAN BERNARDINO, CA, 92407","Match","Exact","17956 LACEBARK CT, SAN BERNARDINO, CA, 92407",650226865,"L"
89637,"1796 CAMERON COURT","CROFTON","MD",21114,38.993594182,-76.67874482,137,"1796 CAMERON COURT, CROFTON, MD, 21114","Match","Exact","1796 CAMERON CT, CROFTON, MD, 21114",68162576,"R"
89638,"1796 CHALADAY LANE","EAST MEADOWS","NY",11554,40.701900616,-73.558817829,138,"1796 CHALADAY LANE, EAST MEADOWS, NY, 11554","Match","Non_Exact","1796 CHALADAY LN, EAST MEADOW, NY, 11554",147634623,"R"
89639,"1796 HAMILTON AVE","PALO ALTO","CA",94303,37.449692896,-122.132343669,139,"1796 HAMILTON AVE, PALO ALTO, CA, 94303","Match","Exact","1796 HAMILTON AVE, PALO ALTO, CA, 94303",122951053,"R"
89640,"1796 OUSLEY ROAD","MANSFIELD","TX",76063,32.5697200660001,-97.191935061,140,"1796 OUSLEY ROAD, MANSFIELD, TX, 76063","Match","Exact","1796 OUSLEY RD, MANSFIELD, TX, 76063",101904361,"L"
89641,"1796 SANDY PLAINS RD","MARIETTA","GA",30066,33.994669263,-84.517135461,141,"1796 SANDY PLAINS RD, MARIETTA, GA, 30066","Match","Exact","1796 SANDY PLAINS RD, MARIETTA, GA, 30066",17177644,"R"
89642,"1796 SATELLITE BLVD UNIT 1420","DULUTH","GA",30097,33.994487645,-84.0868076309999,142,"1796 SATELLITE BLVD UNIT 1420, DULUTH, GA, 30097","Match","Exact","1796 SATELLITE BLVD, DULUTH, GA, 30097",642536472,"R"
89643,"17960 DOMINGO DR","PARKER","CO",80134,39.484656537,-104.780910766,143,"17960 DOMINGO DR, PARKER, CO, 80134","Match","Exact","17960 DOMINGO DR, PARKER, CO, 80134",604580638,"L"
89644,"17960 NEW RIDERS WAY","ANDERSON","CA",96007,40.463577996,-122.389899585,144,"17960 NEW RIDERS WAY, ANDERSON, CA, 96007","Match","Exact","17960 NEW RIDERS WAY, ANDERSON, CA, 96007",126631560,"L"
89645,"17960 US HWY 431 N SUITE 108","HEADLAND","AL",36345,NA,NA,145,"17960 US HWY 431 N SUITE 108, HEADLAND, AL, 36345","No_Match",NA,NA,NA,NA
89646,"17961 NW 22 COURT","MIAMI GARDENS","FL",33056,25.9382782660001,-80.238393816,146,"17961 NW 22 COURT, MIAMI GARDENS, FL, 33056","Match","Exact","17961 NW 22ND CT, MIAMI GARDENS, FL, 33056",116027997,"L"
89647,"17961 RAYMER STREET","SHERWOOD FOREST","CA",91325,34.2272723510001,-118.524488747,147,"17961 RAYMER STREET, SHERWOOD FOREST, CA, 91325","Match","Exact","17961 RAYMER ST, SHERWOOD FRST, CA, 91325",141543534,"R"
89648,"17961 S 72ND EAST AVE","BIXBY","OK",74008,35.9029907600001,-95.896398404,148,"17961 S 72ND EAST AVE, BIXBY, OK, 74008","Match","Exact","17961 S 72ND E AVE, BIXBY, OK, 74008",627121813,"R"
89649,"17961 VANOWEN ST","RESEDA","CA",91335,34.193871071,-118.524849097,149,"17961 VANOWEN ST, RESEDA, CA, 91335","Match","Exact","17961 VANOWEN ST, RESEDA, CA, 91335",141555366,"R"
89650,"17963 STATE HIGHWAY 32","TOWNSEND","WI",54175,45.3303850200001,-88.5904860859999,150,"17963 STATE HIGHWAY 32, TOWNSEND, WI, 54175","Match","Exact","17963 STATE HWY 32, TOWNSEND, WI, 54175",170327972,"L"
89651,"17964 GLEN OAK AVENUE","LANSING","IL",60438,41.5693021960001,-87.557587279,151,"17964 GLEN OAK AVENUE, LANSING, IL, 60438","Match","Exact","17964 GLEN OAK AVE, LANSING, IL, 60438",111785246,"R"
89652,"17964 OWEN RD","MIDDLEFIELD","OH",44062,41.3823179070001,-81.0376626679999,152,"17964 OWEN RD, MIDDLEFIELD, OH, 44062","Match","Exact","17964 OWEN RD, MIDDLEFIELD, OH, 44062",633553983,"L"
89653,"17965 LANE DRIVE","MADERA","CA",93638,37.0102740520001,-120.086131303,153,"17965 LANE DRIVE, MADERA, CA, 93638","Match","Exact","17965 LANE DR, MADERA, CA, 93638",102347339,"R"
89654,"17965 W JOJOBA ROAD","GOODYEAR","GA",85338,NA,NA,154,"17965 W JOJOBA ROAD, GOODYEAR, GA, 85338","No_Match",NA,NA,NA,NA
89655,"17967 LOST CANYON ROAD 69","CANYON COUNTRY","CA",91387,34.402245029,-118.451242174,155,"17967 LOST CANYON ROAD 69, CANYON COUNTRY, CA, 91387","Match","Exact","17967 LOST CANYON RD, CANYON COUNTRY, CA, 91387",141861274,"L"
89656,"17968 HALFINGER ROAD","LINCOLN","DE",19960,NA,NA,156,"17968 HALFINGER ROAD, LINCOLN, DE, 19960","No_Match",NA,NA,NA,NA
89657,"1797 ALVARADO TERRACE SW","ATLANTA","GA",30310,33.734537662,-84.445437517,157,"1797 ALVARADO TERRACE SW, ATLANTA, GA, 30310","Match","Exact","1797 ALVARADO TER SW, ATLANTA, GA, 30310",17341126,"R"
89658,"1797 BRICK CHIMNEY ROAD","GEORGETOWN","SC",29440,33.4138259380001,-79.330066847,158,"1797 BRICK CHIMNEY ROAD, GEORGETOWN, SC, 29440","Match","Exact","1797 BRICK CHIMNEY RD, GEORGETOWN, SC, 29440",28960676,"L"
89659,"1797 CALIFORNIA ST APT 9","MOUNTAIN VIEW","CA",94041,37.396099668,-122.092645174,159,"1797 CALIFORNIA ST APT 9, MOUNTAIN VIEW, CA, 94041","Match","Exact","1797 CALIFORNIA ST, MOUNTAIN VIEW, CA, 94041",618163417,"L"
89660,"1797 E 900 S","SALT LAKE CITY","UT",84108,NA,NA,160,"1797 E 900 S, SALT LAKE CITY, UT, 84108","No_Match",NA,NA,NA,NA
89661,"1797 E WATERFORD COURT UNIT 317","AKRON","OH",44313,41.136475827,-81.540862954,161,"1797 E WATERFORD COURT UNIT 317, AKRON, OH, 44313","Match","Non_Exact","1797 E WATERFORD CT, AKRON, OH, 44313",61383529,"R"
89662,"1797 GENEVA ST","AURORA","CO",80010,39.7446718350001,-104.868185722,162,"1797 GENEVA ST, AURORA, CO, 80010","Match","Exact","1797 GENEVA ST, AURORA, CO, 80010",177314151,"L"
89663,"1797 GENEVA STREET","AURORA","CO",80010,39.7446718350001,-104.868185722,163,"1797 GENEVA STREET, AURORA, CO, 80010","Match","Exact","1797 GENEVA ST, AURORA, CO, 80010",177314151,"L"
89664,"1797 HOWE STREET","FAIRFIELD","CA",94534,38.2654949270001,-122.064225222,164,"1797 HOWE STREET, FAIRFIELD, CA, 94534","Match","Exact","1797 HOWE ST, FAIRFIELD, CA, 94534",192543759,"L"
89665,"1797 KING AVENUE","KINGS MILLS","OH",45034,39.357315198,-84.24551955,165,"1797 KING AVENUE, KINGS MILLS, OH, 45034","Match","Exact","1797 KING AVE, KINGS MILLS, OH, 45034",159036356,"R"
89666,"1797 MORGAN SMITH RD","GREENSBORO","NC",27405,36.135163548,-79.7694845509999,166,"1797 MORGAN SMITH RD, GREENSBORO, NC, 27405","Match","Non_Exact","1797 MORGAN SMITH DR, GREENSBORO, NC, 27405",131034368,"L"
89667,"1797 MORGAN SMITH ROAD","GREENSBORO","NC",27405,36.135163548,-79.7694845509999,167,"1797 MORGAN SMITH ROAD, GREENSBORO, NC, 27405","Match","Non_Exact","1797 MORGAN SMITH DR, GREENSBORO, NC, 27405",131034368,"L"
89668,"1797 OAKLAND STREET","AURORA","CO",80010,39.744669699,-104.85053656,168,"1797 OAKLAND STREET, AURORA, CO, 80010","Match","Exact","1797 OAKLAND ST, AURORA, CO, 80010",177350667,"L"
89669,"1797 SAGUNTO TERRACE","SAINT LOUIS","MO",63138,38.792140057,-90.219583238,169,"1797 SAGUNTO TERRACE, SAINT LOUIS, MO, 63138","Match","Exact","1797 SAGUNTO TER, SAINT LOUIS, MO, 63138",100194235,"R"
89670,"1797 SW 14TH APT 34","LINCOLN CITY","OR",97367,NA,NA,170,"1797 SW 14TH APT 34, LINCOLN CITY, OR, 97367","No_Match",NA,NA,NA,NA
89671,"1797 SW COMMARGO ST","PORT SAINT LUCIE","FL",34987,27.2891244250001,-80.4264454519999,171,"1797 SW COMMARGO ST, PORT SAINT LUCIE, FL, 34987","Match","Exact","1797 SW COMMARGO ST, PORT ST LUCIE, FL, 34987",120174756,"R"
89672,"1797 W HAWK WAY","CHANDLER","AZ",85286,33.26258396,-111.873376408,172,"1797 W HAWK WAY, CHANDLER, AZ, 85286","Match","Exact","1797 W HAWK WAY, CHANDLER, AZ, 85286",128806176,"R"
89673,"1797 WILLIAMSBURG DRIVE","HOFFMAN ESTATES","IL",60169,42.0570385460001,-88.132764062,173,"1797 WILLIAMSBURG DRIVE, HOFFMAN ESTATES, IL, 60169","Match","Exact","1797 WILLIAMSBURG DR, HOFFMAN EST, IL, 60169",112359282,"R"
89674,"17975 EVENER WAY","EDEN PRARIE","MN",55346,44.868934687,-93.5056215499999,174,"17975 EVENER WAY, EDEN PRARIE, MN, 55346","Match","Exact","17975 EVENER WAY, EDEN PRAIRIE, MN, 55346",43845645,"L"
89675,"17977 78TH RD N","LOXAHATCHEE","FL",33430,26.792671667,-80.3267632439999,175,"17977 78TH RD N, LOXAHATCHEE, FL, 33430","Match","Non_Exact","17977 78TH RD N, LOXAHATCHEE, FL, 33470",115507130,"L"
89676,"17977 MERRILL AVE","FONTANA","CA",92335,34.0922011750001,-117.412681294,176,"17977 MERRILL AVE, FONTANA, CA, 92335","Match","Exact","17977 MERRILL AVE, FONTANA, CA, 92335",144964275,"R"
89677,"17978 AGUAMIEL ROAD","SAN DIEGO","CA",92127,33.041398391,-117.079043068,177,"17978 AGUAMIEL ROAD, SAN DIEGO, CA, 92127","Match","Exact","17978 AGUAMIEL RD, SAN DIEGO, CA, 92127",195315222,"L"
89678,"1798 CLOVERMEADOW DR","VIENNA","VA",22182,38.942663641,-77.311364467,178,"1798 CLOVERMEADOW DR, VIENNA, VA, 22182","Match","Exact","1798 CLOVERMEADOW DR, VIENNA, VA, 22182",624786587,"L"
89679,"1798 DREXEL AVE NW","WARREN","OH",44485,41.250043799,-80.842609302,179,"1798 DREXEL AVE NW, WARREN, OH, 44485","Match","Exact","1798 DREXEL AVE NW, WARREN, OH, 44485",117404640,"R"
89680,"1798 EWING LANE","NEW RICHMOND","OH",45157,38.9113635940001,-84.2093164199999,180,"1798 EWING LANE, NEW RICHMOND, OH, 45157","Match","Exact","1798 EWING LN, NEW RICHMOND, OH, 45157",118448585,"R"
89681,"1798 HAYGOOD DRIVE NE","ATLANTA","GA",30307,33.7930345670001,-84.316716422,181,"1798 HAYGOOD DRIVE NE, ATLANTA, GA, 30307","Match","Exact","1798 HAYGOOD DR NE, ATLANTA, GA, 30307",632649767,"L"
89682,"1798 MELSON LANE STUDIO C","WESTVILLE","FL",32464,30.860293707,-85.900763202,182,"1798 MELSON LANE STUDIO C, WESTVILLE, FL, 32464","Match","Exact","1798 MELSON LN, WESTVILLE, FL, 32464",32655053,"R"
89683,"1798 NW 82ND AVENUE","DORAL","FL",33126,25.7902939470001,-80.3287691049999,183,"1798 NW 82ND AVENUE, DORAL, FL, 33126","Match","Exact","1798 NW 82ND AVE, DORAL, FL, 33126",115974098,"L"
89684,"1798 NW SPANISH RIVER BLVD","BOCA RATON","FL",33431,26.3872174520001,-80.1207168129999,184,"1798 NW SPANISH RIVER BLVD, BOCA RATON, FL, 33431","Match","Exact","1798 NW SPANISH RIVER BLVD, BOCA RATON, FL, 33431",635433943,"R"
89685,"1798 SUNSHINE PKWY","PALMDALE","CA",93551,34.595790638,-118.163346331,185,"1798 SUNSHINE PKWY, PALMDALE, CA, 93551","Match","Exact","1798 SUNSHINE PKWY, PALMDALE, CA, 93551",241210589,"L"
89686,"1798 TANGLEWOOD ROAD","ORWIGSBURG","PA",17961,40.6458241080001,-76.077670096,186,"1798 TANGLEWOOD ROAD, ORWIGSBURG, PA, 17961","Match","Exact","1798 TANGLEWOOD RD, ORWIGSBURG, PA, 17961",70948889,"R"
89687,"1798 TECHNOLOGY DR   STE 178","SAN JOSE","CA",95110,37.370216726,-121.921153816,187,"1798 TECHNOLOGY DR   STE 178, SAN JOSE, CA, 95110","Match","Exact","1798 TECHNOLOGY DR, SAN JOSE, CA, 95110",638169042,"R"
89688,"1798 TECHNOLOGY DRIVE 178","SAN JOSE","CA",95110,37.370216726,-121.921153816,188,"1798 TECHNOLOGY DRIVE 178, SAN JOSE, CA, 95110","Match","Exact","1798 TECHNOLOGY DR, SAN JOSE, CA, 95110",638169042,"R"
89689,"1798 VETERANS DRIVE","KINDRED","FL",34744,28.267152321,-81.3713794499999,189,"1798 VETERANS DRIVE, KINDRED, FL, 34744","Match","Exact","1798 VETERANS DR, KINDRED, FL, 34744",652050745,"R"
89690,"1798 WALNUT ST SUITE 6","BERKELEY","CA",94709,37.8749665980001,-122.267607936,190,"1798 WALNUT ST SUITE 6, BERKELEY, CA, 94709","Match","Exact","1798 WALNUT ST, BERKELEY, CA, 94709",606228360,"R"
89691,"17980 CASTLETON STREET","CITY OF INDUSTRY","CA",91748,33.992582488,-117.912312577,191,"17980 CASTLETON STREET, CITY OF INDUSTRY, CA, 91748","Match","Exact","17980 CASTLETON ST, CITY OF INDUSTRY, CA, 91748",141756990,"R"
89692,"17981 SKY PARK CIRCLE SUITE G","IRVINE","CA",92614,NA,NA,192,"17981 SKY PARK CIRCLE SUITE G, IRVINE, CA, 92614","No_Match",NA,NA,NA,NA
89693,"17982 WEST OCOTILLO AVENUE","GOODYEAR","AZ",85338,33.3310762400001,-112.437655255,193,"17982 WEST OCOTILLO AVENUE, GOODYEAR, AZ, 85338","Match","Exact","17982 W OCOTILLO AVE, GOODYEAR, AZ, 85338",243949830,"L"
89694,"17987 NC-27 W","CAMERON","NC",28326,35.3049978400001,-79.093102645,194,"17987 NC-27 W, CAMERON, NC, 28326","Match","Exact","17987 NC 27 W, CAMERON, NC, 28326",636630265,"R"
89695,"1799 271ST AVE SE","SAMMAMISH","WA",98075,47.5934505700001,-121.976797425,195,"1799 271ST AVE SE, SAMMAMISH, WA, 98075","Match","Exact","1799 271ST AVE SE, SAMMAMISH, WA, 98075",640930322,"L"
89696,"1799 BRIARCLIFF ROAD NE - BOX 15276","ATLANTA","GA",30333,33.805361281,-84.3368224929999,196,"1799 BRIARCLIFF ROAD NE - BOX 15276, ATLANTA, GA, 30333","Match","Non_Exact","1799 BRIARCLIFF RD NE, ATLANTA, GA, 30306",23358555,"R"
89697,"1799 CADYS FALLS ROAD","MORRISVILLE","VT",5661,44.5807708140001,-72.613355923,197,"1799 CADYS FALLS ROAD, MORRISVILLE, VT, 5661","Match","Exact","1799 CADYS FALLS RD, MORRISVILLE, VT, 05661",636513877,"L"
89698,"1799 E 91ST ST","BROOKLYN","NY",11236,40.629297783,-73.891095671,198,"1799 E 91ST ST, BROOKLYN, NY, 11236","Match","Exact","1799 E 91ST ST, BROOKLYN, NY, 11236",59087129,"L"
89699,"1799 E GRAND BLVD","DETROIT","MI",48211,42.3752899340001,-83.0358324269999,199,"1799 E GRAND BLVD, DETROIT, MI, 48211","Match","Exact","1799 E GRAND BLVD, DETROIT, MI, 48211",95481668,"L"
89700,"1799 EDITH MARIE DR","BEAVERCREEK","OH",45431,39.741907865,-84.052904541,200,"1799 EDITH MARIE DR, BEAVERCREEK, OH, 45431","Match","Exact","1799 EDITH MARIE DR, BEAVERCREEK, OH, 45431",143376911,"R"
89701,"1799 FM 528 APT 16008","WEBSTER","TX",77598,NA,NA,201,"1799 FM 528 APT 16008, WEBSTER, TX, 77598","No_Match",NA,NA,NA,NA
89702,"1799 HILO AVE NORTH","OAKDALE","MN",55128,44.975410062,-92.949736059,202,"1799 HILO AVE NORTH, OAKDALE, MN, 55128","Match","Exact","1799 HILO AVE N, OAKDALE, MN, 55128",639208637,"R"
89703,"1799 LEHIGH STATION RD","HENRIETTA","NY",14467,43.059310517,-77.605131031,203,"1799 LEHIGH STATION RD, HENRIETTA, NY, 14467","Match","Exact","1799 LEHIGH STATION RD, HENRIETTA, NY, 14467",14544082,"R"
89704,"1799 N DECATUR BLVD  UNIT 201","LAS VEGAS","NV",89108,NA,NA,204,"1799 N DECATUR BLVD  UNIT 201, LAS VEGAS, NV, 89108","No_Match",NA,NA,NA,NA
89705,"1799 N STATE RD 7","MARGATE","FL",33063,NA,NA,205,"1799 N STATE RD 7, MARGATE, FL, 33063","No_Match",NA,NA,NA,NA
89706,"1799 NORTH LEONARD AVENUE","CLOVIS","CA",93619,36.8624448420001,-119.639955352,206,"1799 NORTH LEONARD AVENUE, CLOVIS, CA, 93619","Match","Exact","1799 N LEONARD AVE, CLOVIS, CA, 93619",645796938,"L"
89707,"1799 POCOPSON ROAD","WEST CHESTER","PA",19382,39.8861408010001,-75.6319684269999,207,"1799 POCOPSON ROAD, WEST CHESTER, PA, 19382","Match","Exact","1799 POCOPSON RD, WEST CHESTER, PA, 19382",179492996,"R"
89708,"1799 R W BERNDS DR SW","WYOMING","MI",49519,42.882394462,-85.70962129,208,"1799 R W BERNDS DR SW, WYOMING, MI, 49519","Match","Non_Exact","1799 R W BERENDS DR SW, WYOMING, MI, 49519",12505206,"R"
89709,"1799 ROSEMARY ROAD","HIGHLAND PARK","IL",60035,42.161742261,-87.816292055,209,"1799 ROSEMARY ROAD, HIGHLAND PARK, IL, 60035","Match","Exact","1799 ROSEMARY RD, HIGHLAND PARK, IL, 60035",119651518,"R"
89710,"1799 STUMPF BLVD BLDG 5  NO 1","GRETNA","LA",70056,29.911819173,-90.040735518,210,"1799 STUMPF BLVD BLDG 5  NO 1, GRETNA, LA, 70056","Match","Exact","1799 STUMPF BLVD, GRETNA, LA, 70056",93550208,"L"
89711,"1799 STUMPF BLVD SUITE 5-3B","GRETNA","LA",70056,29.911819173,-90.040735518,211,"1799 STUMPF BLVD SUITE 5-3B, GRETNA, LA, 70056","Match","Exact","1799 STUMPF BLVD, GRETNA, LA, 70056",93550208,"L"
89712,"1799 SW 8TH ST","HOMESTEAD","FL",33034,25.4623829230001,-80.50137603,212,"1799 SW 8TH ST, HOMESTEAD, FL, 33034","Match","Non_Exact","1799 SW 8TH ST, HOMESTEAD, FL, 33030",646954558,"R"
89713,"1799 W FIFTH AVE 267","COLUMBUS","OH",43212,39.9892365590001,-83.0547156549999,213,"1799 W FIFTH AVE 267, COLUMBUS, OH, 43212","Match","Non_Exact","1799 W 5TH AVE, COLUMBUS, OH, 43212",218650650,"L"
89714,"1799 WEST FIFTH AVENUE - PMB 157","COLUMBUS","OH",43212,39.9892365590001,-83.0547156549999,214,"1799 WEST FIFTH AVENUE - PMB 157, COLUMBUS, OH, 43212","Match","Exact","1799 W 5TH AVE, COLUMBUS, OH, 43212",218650650,"L"
89715,"17990 COUNTY ROAD 85C","ESPARTO","CA",95627,38.67959883,-122.033893011,215,"17990 COUNTY ROAD 85C, ESPARTO, CA, 95627","Match","Exact","17990 CO RD 85C, ESPARTO, CA, 95627",67687938,"L"
89716,"17990 S DIANA ROAD","LOS BANOS","CA",93635,37.028300593,-120.849920741,216,"17990 S DIANA ROAD, LOS BANOS, CA, 93635","Match","Exact","17990 DIANA RD, LOS BANOS, CA, 93635",125291056,"R"
89717,"17993 US HIGHWAY 18 SUITE 103","APPLE VALLEY","CA",92307,NA,NA,217,"17993 US HIGHWAY 18 SUITE 103, APPLE VALLEY, CA, 92307","No_Match",NA,NA,NA,NA
89718,"17994 EQUINOX AVENUE","LAKEVILLE","MN",55044,44.6891772870001,-93.172927594,218,"17994 EQUINOX AVENUE, LAKEVILLE, MN, 55044","Match","Exact","17994 EQUINOX AVE, LAKEVILLE, MN, 55044",650594121,"L"
89719,"17997 NW 59TH AVE","STARKE","FL",32091,29.978736386,-82.144157741,219,"17997 NW 59TH AVE, STARKE, FL, 32091","Match","Exact","17997 NW 59TH AVE, STARKE, FL, 32091",649414272,"R"
89720,"17998 BLUEWATERS LANE","FLINT","TX",75762,NA,NA,220,"17998 BLUEWATERS LANE, FLINT, TX, 75762","No_Match",NA,NA,NA,NA
89721,"17999 MARQUETTE","ROSEVILLE","MI",48066,42.490737084,-82.936732717,221,"17999 MARQUETTE, ROSEVILLE, MI, 48066","Match","Non_Exact","17999 MARQUETTE ST, ROSEVILLE, MI, 48066",110684574,"L"
89722,"17B TUPLIC STREET APT 2B","PASSAIC","NJ",7055,NA,NA,222,"17B TUPLIC STREET APT 2B, PASSAIC, NJ, 7055","No_Match",NA,NA,NA,NA
89723,"17N 371 BINNIE LAKES TRAIL","DUNDEE","IL",60118,NA,NA,223,"17N 371 BINNIE LAKES TRAIL, DUNDEE, IL, 60118","Tie",NA,NA,NA,NA
89724,"17W466 KARBAN RD","OAKBROOK TERRACE","IL",60181,41.847741527,-87.968960393,224,"17W466 KARBAN RD, OAKBROOK TERRACE, IL, 60181","Match","Exact","17W466 KARBAN RD, OAKBROOK TER, IL, 60181",112732993,"R"
89725,"17W484 SUTTON PLACE","DARIEN","IL",60561,41.744285367,-87.966122958,225,"17W484 SUTTON PLACE, DARIEN, IL, 60561","Match","Exact","17 SUTTON PL, DARIEN, IL, 60561",112551573,"R"
89726,"17W702 BUTTERFIELD RD UNIT 312","OAKBROOK TERRACE","IL",60181,41.845057108,-87.986092641,226,"17W702 BUTTERFIELD RD UNIT 312, OAKBROOK TERRACE, IL, 60181","Match","Exact","17 BUTTERFIELD RD, OAKBROOK TER, IL, 60181",112591608,"L"
89727,"17W716 BUTTERFIELD RD APT 216","OAKBROOK TERRACE","IL",60181,41.845057108,-87.986092641,227,"17W716 BUTTERFIELD RD APT 216, OAKBROOK TERRACE, IL, 60181","Match","Exact","17 BUTTERFIELD RD, OAKBROOK TER, IL, 60181",112591608,"L"
89728,"18  BEVERLY ROAD","LAKE GROVE","NY",11755,40.838603285,-73.11350688,228,"18  BEVERLY ROAD, LAKE GROVE, NY, 11755","Match","Exact","18 BEVERLY RD, LAKE GROVE, NY, 11755",642661955,"R"
89729,"18  HAMPTON ROAD","HADDON TOWNSHIP","NJ",8108,39.9185670740001,-75.051756298,229,"18  HAMPTON ROAD, HADDON TOWNSHIP, NJ, 8108","Match","Exact","18 HAMPTON RD, HADDON TOWNSHIP, NJ, 08108",134419015,"R"
89730,"18 10TH ST UNIT 825","SAN FRANCISCO","CA",94103,37.7761129150001,-122.416964736,230,"18 10TH ST UNIT 825, SAN FRANCISCO, CA, 94103","Match","Exact","18 10TH ST, SAN FRANCISCO, CA, 94103",640935527,"R"
89731,"18 11TH AVENUE","FARMINGDALE","NY",11735,40.7081758400001,-73.4481239369999,231,"18 11TH AVENUE, FARMINGDALE, NY, 11735","Match","Exact","18 11TH AVE, FARMINGDALE, NY, 11735",147650342,"R"
89732,"18 4TH AVENUE EAST","ADA","MN",56510,47.299923936,-96.5147946929999,232,"18 4TH AVENUE EAST, ADA, MN, 56510","Match","Exact","18 4TH AVE E, ADA, MN, 56510",636519108,"R"
89733,"18 53RD STREET SE","WASHINGTON","DC",20019,38.8892043320001,-76.9259235229999,233,"18 53RD STREET SE, WASHINGTON, DC, 20019","Match","Exact","18 53RD ST SE, WASHINGTON, DC, 20019",641453469,"L"
89734,"18 ABBA CIR","MIDDLESEX","NC",27557,35.7327777630001,-78.2463694639999,234,"18 ABBA CIR, MIDDLESEX, NC, 27557","Match","Exact","18 ABBA CIR, MIDDLESEX, NC, 27557",624058512,"L"
89735,"18 ABBIE DRIVE","WEARE","NH",3281,43.0229316850001,-71.754270439,235,"18 ABBIE DRIVE, WEARE, NH, 3281","Match","Exact","18 ABBIE DR, WEARE, NH, 03281",113564134,"R"
89736,"18 ADELINE PLACE NUM 225","MANSFIELD CENTER","CT",6250,41.738310755,-72.207105887,236,"18 ADELINE PLACE NUM 225, MANSFIELD CENTER, CT, 6250","Match","Exact","18 ADELINE PL, MANSFIELD CENTER, CT, 06250",645565211,"R"
89737,"18 AGGIE COURT","GREENSBORO","NC",27401,36.0591653050001,-79.7492409449999,237,"18 AGGIE COURT, GREENSBORO, NC, 27401","Match","Exact","18 AGGIE CT, GREENSBORO, NC, 27401",131062750,"R"
89738,"18 ALDERFIELD LANE","MELVILLE","NY",11747,40.802380445,-73.402445819,238,"18 ALDERFIELD LANE, MELVILLE, NY, 11747","Match","Exact","18 ALDERFIELD LN, MELVILLE, NY, 11747",114037943,"R"
89739,"18 AMANDA CIRCLE","WINDSOR","CT",6095,41.830241793,-72.6497414299999,239,"18 AMANDA CIRCLE, WINDSOR, CT, 6095","Match","Exact","18 AMANDA CIR, WINDSOR, CT, 06095",3528483,"R"
89740,"18 APHRODITE DRIVE","BARNEGAT","NJ",8005,39.7451818600001,-74.232093424,240,"18 APHRODITE DRIVE, BARNEGAT, NJ, 8005","Match","Exact","18 APHRODITE DR, BARNEGAT, NJ, 08005",203760669,"R"
89741,"18 ARDMORE AVE","BEAUFORT","SC",29907,32.4647165270001,-80.64778011,241,"18 ARDMORE AVE, BEAUFORT, SC, 29907","Match","Exact","18 ARDMORE AVE, BEAUFORT, SC, 29907",615943676,"R"
89742,"18 ARTISAN STREET","LADERA RANCH","CA",92694,33.571526685,-117.639294172,242,"18 ARTISAN STREET, LADERA RANCH, CA, 92694","Match","Exact","18 ARTISAN ST, LADERA RANCH, CA, 92694",144403786,"L"
89743,"18 ASHFORD STREET","BROOKLYN","NY",11207,40.6820321970001,-73.887120528,243,"18 ASHFORD STREET, BROOKLYN, NY, 11207","Match","Exact","18 ASHFORD ST, BROOKLYN, NY, 11207",59084415,"R"
89744,"18 BARTOL ST STE 1056","SAN FRANCISCO","CA",94133,37.79789407,-122.403433004,244,"18 BARTOL ST STE 1056, SAN FRANCISCO, CA, 94133","Match","Exact","18 BARTOL ST, SAN FRANCISCO, CA, 94133",192281114,"R"
89745,"18 BARTOL STREET  SUITE 1009","SAN FRANCISCO","CA",94133,37.79789407,-122.403433004,245,"18 BARTOL STREET  SUITE 1009, SAN FRANCISCO, CA, 94133","Match","Exact","18 BARTOL ST, SAN FRANCISCO, CA, 94133",192281114,"R"
89746,"18 BARTOL STREET -995","SAN FRANCISCO","CA",94133,37.79789407,-122.403433004,246,"18 BARTOL STREET -995, SAN FRANCISCO, CA, 94133","Match","Exact","18 BARTOL ST, SAN FRANCISCO, CA, 94133",192281114,"R"
89747,"18 BARTOL STREET NO 1123","SAN FRANCISCO","CA",94113,NA,NA,247,"18 BARTOL STREET NO 1123, SAN FRANCISCO, CA, 94113","No_Match",NA,NA,NA,NA
89748,"18 BARTOL STREET","SAN FRANCISCO","CA",94133,37.79789407,-122.403433004,248,"18 BARTOL STREET, SAN FRANCISCO, CA, 94133","Match","Exact","18 BARTOL ST, SAN FRANCISCO, CA, 94133",192281114,"R"
89749,"18 BAY STREET SUITE 5","CAMBRIDGE","MA",2139,42.3679035260001,-71.11100573,249,"18 BAY STREET SUITE 5, CAMBRIDGE, MA, 2139","Match","Exact","18 BAY ST, CAMBRIDGE, MA, 02139",86868759,"L"
89750,"18 BAYSIDE ST NUMBER 2","DORCHESTER","MA",2125,42.308896685,-71.05035201,250,"18 BAYSIDE ST NUMBER 2, DORCHESTER, MA, 2125","Match","Exact","18 BAYSIDE ST, DORCHESTER, MA, 02125",85713720,"L"
89751,"18 BEACH ROAD","GLOUCESTER","MA",1930,42.615986385,-70.6385728399999,251,"18 BEACH ROAD, GLOUCESTER, MA, 1930","Match","Exact","18 BEACH RD, GLOUCESTER, MA, 01930",86634040,"L"
89752,"18 BEECHNUT TER","ITHACA","NY",14850,42.446924552,-76.414831305,252,"18 BEECHNUT TER, ITHACA, NY, 14850","Match","Exact","18 BEECHNUT TER, ITHACA, NY, 14850",18865434,"L"
89753,"18 BELAIR DRIVE","MOOSUP","CT",6354,41.7231165040001,-71.8811805239999,253,"18 BELAIR DRIVE, MOOSUP, CT, 6354","Match","Exact","18 BELAIR DR, MOOSUP, CT, 06354",56449636,"R"
89754,"18 BELVIDERE AVE","ALBANY","NY",12203,42.6708690890001,-73.8014267299999,254,"18 BELVIDERE AVE, ALBANY, NY, 12203","Match","Exact","18 BELVIDERE AVE, ALBANY, NY, 12203",18365578,"R"
89755,"18 BENEDICT PLACE","MOBILE","AL",36606,30.6865152070001,-88.097206754,255,"18 BENEDICT PLACE, MOBILE, AL, 36606","Match","Exact","18 BENEDICT PL, MOBILE, AL, 36606",61860274,"R"
89756,"18 BENTLY LANE","WILLINGBORO","NJ",8046,40.047062478,-74.8874541289999,256,"18 BENTLY LANE, WILLINGBORO, NJ, 8046","Match","Exact","18 BENTLY LN, WILLINGBORO, NJ, 08046",134029175,"R"
89757,"18 BIDWELL STREET","TAYLORS","SC",29687,34.894208345,-82.326959734,257,"18 BIDWELL STREET, TAYLORS, SC, 29687","Match","Exact","18 BIDWELL ST, TAYLORS, SC, 29687",38309007,"R"
89758,"18 BLAINE STREET","MANCHESTER","NH",3102,42.9792410680001,-71.471239058,258,"18 BLAINE STREET, MANCHESTER, NH, 3102","Match","Exact","18 BLAINE ST, MANCHESTER, NH, 03102",113531659,"L"
89759,"18 BLAIR CT","HOMOSASSA","FL",34446,28.7229448210001,-82.5274305679999,259,"18 BLAIR CT, HOMOSASSA, FL, 34446","Match","Exact","18 BLAIR CT, HOMOSASSA, FL, 34446",86208455,"R"
89760,"18 BLEVINS DRIVE","NEW CASTLE","DE",19720,39.6638892140001,-75.598917862,260,"18 BLEVINS DRIVE, NEW CASTLE, DE, 19720","Match","Exact","18 BLEVINS DR, NEW CASTLE, DE, 19720",187282952,"R"
89761,"18 BOBOLINK ROAD","ORINDA","CA",94563,37.899884049,-122.197847387,261,"18 BOBOLINK ROAD, ORINDA, CA, 94563","Match","Exact","18 BOBOLINK RD, ORINDA, CA, 94563",192044909,"R"
89762,"18 BOERUM ST 3B","BROOKLYN","NY",11219,40.7053506120001,-73.948734074,262,"18 BOERUM ST 3B, BROOKLYN, NY, 11219","Match","Non_Exact","18 BOERUM ST, BROOKLYN, NY, 11206",611186177,"R"
89763,"18 BOERUM STREET","BROOKLYN","NY",11206,40.7053506120001,-73.948734074,263,"18 BOERUM STREET, BROOKLYN, NY, 11206","Match","Exact","18 BOERUM ST, BROOKLYN, NY, 11206",611186177,"R"
89764,"18 BOSTON PLACE","KEENE","NH",3431,42.9234845560001,-72.274927761,264,"18 BOSTON PLACE, KEENE, NH, 3431","Match","Exact","18 BOSTON PL, KEENE, NH, 03431",124051438,"R"
89765,"18 BRACKEN HILL CT","CAROLINA","RI",2812,41.47646746,-71.660585087,265,"18 BRACKEN HILL CT, CAROLINA, RI, 2812","Match","Exact","18 BRACKEN HILL CT, CAROLINA, RI, 02812",58943652,"L"
89766,"18 BRETT CT","CABOT","AR",72023,35.035797275,-92.057238989,266,"18 BRETT CT, CABOT, AR, 72023","Match","Exact","18 BRETT CT, CABOT, AR, 72023",79721096,"L"
89767,"18 BRIDEKIRK CT","BLACKJACK","MO",63033,38.787685305,-90.262972164,267,"18 BRIDEKIRK CT, BLACKJACK, MO, 63033","Match","Non_Exact","18 BRIDEKIRK CT, BLACK JACK, MO, 63033",100167222,"R"
89768,"18 BRIDLE ROAD","SPRING VALLEY","NY",10977,41.1475223470001,-74.045277098,268,"18 BRIDLE ROAD, SPRING VALLEY, NY, 10977","Match","Exact","18 BRIDLE RD, SPRING VALLEY, NY, 10977",124593153,"L"
89769,"18 BRISTOL DR","MANHASSET","NY",11030,40.784414758,-73.672826514,269,"18 BRISTOL DR, MANHASSET, NY, 11030","Match","Exact","18 BRISTOL DR, MANHASSET, NY, 11030",147694920,"L"
89770,"18 BRISTOL DR","MIDDLETOWN","NY",10941,NA,NA,270,"18 BRISTOL DR, MIDDLETOWN, NY, 10941","No_Match",NA,NA,NA,NA
89771,"18 BROOK STREET","HACKENSACK","NJ",7601,40.903055803,-74.0539406199999,271,"18 BROOK STREET, HACKENSACK, NJ, 7601","Match","Exact","18 BROOK ST, HACKENSACK, NJ, 07601",64385684,"R"
89772,"18 BROOKHILL ROAD","EAST BRUNSWICK","NJ",8816,40.4323940190001,-74.406429696,272,"18 BROOKHILL ROAD, EAST BRUNSWICK, NJ, 8816","Match","Exact","18 BROOKHILL RD, E BRUNSWICK, NJ, 08816",624599994,"R"
89773,"18 BROOKSTONE WAY","HAYWARD","CA",94544,37.6486314840001,-122.078353745,273,"18 BROOKSTONE WAY, HAYWARD, CA, 94544","Match","Exact","18 BROOKSTONE WAY, HAYWARD, CA, 94544",125055943,"L"
89774,"18 BUBBLING CREEK DRIVE","TRAVELERS REST","SC",29690,34.980281673,-82.45773425,274,"18 BUBBLING CREEK DRIVE, TRAVELERS REST, SC, 29690","Match","Exact","18 BUBBLING CREEK DR, TRAVELERS REST, SC, 29690",38294459,"R"
89775,"18 BUSCH STREET","SIERRA CITY","CA",96125,39.565738981,-120.63097238,275,"18 BUSCH STREET, SIERRA CITY, CA, 96125","Match","Exact","18 BUSCH ST, SIERRA CITY, CA, 96125",106900240,"L"
89776,"18 BUTTONRIDGE PL","MT ZION","IL",62549,39.791596849,-88.887944811,276,"18 BUTTONRIDGE PL, MT ZION, IL, 62549","Match","Exact","18 BUTTONRIDGE PL, MT ZION, IL, 62549",648806349,"R"
89777,"18 CABOOSE CIR","NORTH CHILI","NY",14514,43.0871637610001,-77.792381936,277,"18 CABOOSE CIR, NORTH CHILI, NY, 14514","Match","Exact","18 CABOOSE CIR, NORTH CHILI, NY, 14514",627009090,"R"
89778,"18 CALIFORNIA AVE","CHARLESTON","WV",25311,38.3355272650001,-81.610929305,278,"18 CALIFORNIA AVE, CHARLESTON, WV, 25311","Match","Exact","18 CALIFORNIA AVE, CHARLESTON, WV, 25311",78595271,"R"
89779,"18 CALIFORNIA AVENUE","CHARLESTON","WV",25311,38.3355272650001,-81.610929305,279,"18 CALIFORNIA AVENUE, CHARLESTON, WV, 25311","Match","Exact","18 CALIFORNIA AVE, CHARLESTON, WV, 25311",78595271,"R"
89780,"18 CANAL STREET","MILLBURY","MA",1527,42.193275283,-71.7587673629999,280,"18 CANAL STREET, MILLBURY, MA, 1527","Match","Exact","18 CANAL ST, MILLBURY, MA, 01527",40015756,"R"
89781,"18 CANTAMAR COURT","HAMPTON","VA",23664,37.042840959,-76.2898244249999,281,"18 CANTAMAR COURT, HAMPTON, VA, 23664","Match","Exact","18 CANTAMAR CT, HAMPTON, VA, 23664",103803864,"L"
89782,"18 CANTERBURY CIRCLE","MADISON","WI",53711,43.0265103890001,-89.502813347,282,"18 CANTERBURY CIRCLE, MADISON, WI, 53711","Match","Exact","18 CANTERBURY CIR, MADISON, WI, 53711",49465101,"L"
89783,"18 CAPITAL SQUARE SW SUITE 602","ATLANTA","GA",30334,33.7483132450001,-84.388239418,283,"18 CAPITAL SQUARE SW SUITE 602, ATLANTA, GA, 30334","Match","Non_Exact","18 CAPITOL SQ SW, ATLANTA, GA, 30334",17344745,"L"
89784,"18 CASTLE HEIGHTS AVENUE","NYACK","NY",10960,41.1011407390001,-73.917982447,284,"18 CASTLE HEIGHTS AVENUE, NYACK, NY, 10960","Match","Exact","18 CASTLE HEIGHTS AVE, NYACK, NY, 10960",124600364,"R"
89785,"18 CATAWBA AVE","NEWFIELD","NJ",8344,39.546745453,-75.0240583779999,285,"18 CATAWBA AVE, NEWFIELD, NJ, 8344","Match","Exact","18 CATAWBA AVE, NEWFIELD, NJ, 08344",134578789,"L"
89786,"18 CENTER PARKWAY","RICHLAND","WA",99352,NA,NA,286,"18 CENTER PARKWAY, RICHLAND, WA, 99352","No_Match",NA,NA,NA,NA
89787,"18 CENTRE ST - C/O KANDI MONCELSI","NUTLEY","NJ",7110,40.80992996,-74.1471910069999,287,"18 CENTRE ST - C/O KANDI MONCELSI, NUTLEY, NJ, 7110","Match","Exact","18 CENTRE ST, NUTLEY, NJ, 07110",648109122,"R"
89788,"18 CERRITO STREET","BLUE DIAMOND","NV",89004,36.045597286,-115.403111382,288,"18 CERRITO STREET, BLUE DIAMOND, NV, 89004","Match","Exact","18 CERRITO ST, BLUE DIAMOND, NV, 89004",201853088,"L"
89789,"18 CHADBOURNE ROAD","LEXINGTON","MA",2421,42.4151139530001,-71.217943111,289,"18 CHADBOURNE ROAD, LEXINGTON, MA, 2421","Match","Exact","18 CHADBOURNE RD, LEXINGTON, MA, 02421",86884227,"L"
89790,"18 CHAPMAN AVE","SOUTH SAN FRANCISCO","CA",94080,37.662410122,-122.402390987,290,"18 CHAPMAN AVE, SOUTH SAN FRANCISCO, CA, 94080","Match","Exact","18 CHAPMAN AVE, S SAN FRAN, CA, 94080",192373293,"R"
89791,"18 CHARLES STREET","NEWPORT","OH",45768,39.390038137,-81.226756241,291,"18 CHARLES STREET, NEWPORT, OH, 45768","Match","Exact","18 CHARLES ST, NEWPORT, OH, 45768",45685957,"R"
89792,"18 CHECHESSEE CREEK DR","OKATIE","SC",29909,NA,NA,292,"18 CHECHESSEE CREEK DR, OKATIE, SC, 29909","Tie",NA,NA,NA,NA
89793,"18 CHELSEA LN","WINDSOR","CT",6095,41.8881032300001,-72.6338743589999,293,"18 CHELSEA LN, WINDSOR, CT, 6095","Match","Exact","18 CHELSEA LN, WINDSOR, CT, 06095",3487776,"R"
89794,"18 CHERRY LANE","BRUNSWICK","NY",12180,42.7538666680001,-73.65887924,294,"18 CHERRY LANE, BRUNSWICK, NY, 12180","Match","Non_Exact","18 CHERRY LN, TROY, NY, 12180",35746308,"R"
89795,"18 CHIPPER ROAD","WAPWALLOPEN","PA",18660,41.0964236020001,-76.005630649,295,"18 CHIPPER ROAD, WAPWALLOPEN, PA, 18660","Match","Exact","18 CHIPPER RD, WAPWALLOPEN, PA, 18660",80939686,"L"
89796,"18 CHURCH STREET","NORTH ATTLEBOROUGH","MA",2760,41.9831115700001,-71.3334513189999,296,"18 CHURCH STREET, NORTH ATTLEBOROUGH, MA, 2760","Match","Non_Exact","18 CHURCH ST, NORTH ATTLEBORO, MA, 02760",46745764,"R"
89797,"18 CIBOLA CIRCLE","SANTA FE","NM",87505,35.607865244,-105.91041506,297,"18 CIBOLA CIRCLE, SANTA FE, NM, 87505","Match","Exact","18 CIBOLA CIR, SANTA FE, NM, 87505",638154412,"R"
89798,"18 CLARK STREET","CALAIS","ME",4619,45.1697885090001,-67.2887548309999,298,"18 CLARK STREET, CALAIS, ME, 4619","Match","Exact","18 CLARK ST, CALAIS, ME, 04619",124223620,"R"
89799,"18 COLFAX ROAD","HAVERTOWN","PA",19083,39.989134495,-75.313896867,299,"18 COLFAX ROAD, HAVERTOWN, PA, 19083","Match","Exact","18 COLFAX RD, HAVERTOWN, PA, 19083",134898617,"R"
89800,"18 COLUMBIA TURNPIKE SUITE 300","FLORHAM PARK","NJ",7932,40.781023115,-74.373132185,300,"18 COLUMBIA TURNPIKE SUITE 300, FLORHAM PARK, NJ, 7932","Match","Exact","18 COLUMBIA TPKE, FLORHAM PARK, NJ, 07932",60514176,"R"
89801,"18 COLUMBINE ROAD","GUNNISON","CO",81230,38.5050805400001,-106.939171428,301,"18 COLUMBINE ROAD, GUNNISON, CO, 81230","Match","Exact","18 COLUMBINE RD, GUNNISON, CO, 81230",108374652,"L"
89802,"18 COLUMBUS BLVD","NEWTOWN SQUARE","PA",19073,39.976202975,-75.45079449,302,"18 COLUMBUS BLVD, NEWTOWN SQUARE, PA, 19073","Match","Non_Exact","18 COLUMBUS AVE, NEWTOWN SQUARE, PA, 19073",649194991,"R"
89803,"18 CONNELLY AVENUE","BUDD LAKE","NJ",7828,40.8785666730001,-74.7309368219999,303,"18 CONNELLY AVENUE, BUDD LAKE, NJ, 7828","Match","Exact","18 CONNELLY AVE, BUDD LAKE, NJ, 07828",60431892,"R"
89804,"18 COOPER ROAD","BRUNSWICK","NJ",7444,40.9634888950001,-74.298915531,304,"18 COOPER ROAD, BRUNSWICK, NJ, 7444","Match","Non_Exact","18 COOPER RD, POMPTON PLAINS, NJ, 07444",60427866,"R"
89805,"18 COREY RD","FLANDERS","NJ",7836,40.856670836,-74.7118383179999,305,"18 COREY RD, FLANDERS, NJ, 7836","Match","Exact","18 COREY RD, FLANDERS, NJ, 07836",635267733,"R"
89806,"18 COVEY COURT","HOPKINS","SC",29061,33.974860678,-80.872351226,306,"18 COVEY COURT, HOPKINS, SC, 29061","Match","Exact","18 COVEY CT, HOPKINS, SC, 29061",71831380,"L"
89807,"18 COYLE PLACE 2B","YONKERS","NY",10705,40.912476198,-73.890869681,307,"18 COYLE PLACE 2B, YONKERS, NY, 10705","Match","Exact","18 COYLE PL, YONKERS, NY, 10705",139744030,"L"
89808,"18 CRACKLEWOOD CT","EAST PEORIA","IL",61611,40.6403113160001,-89.550835922,308,"18 CRACKLEWOOD CT, EAST PEORIA, IL, 61611","Match","Exact","18 CRACKLEWOOD CT, EAST PEORIA, IL, 61611",22501147,"R"
89809,"18 CRAFTSMAN VIEW DRIVE","ASHEVILLE","NC",28804,35.6931629270001,-82.5888325029999,309,"18 CRAFTSMAN VIEW DRIVE, ASHEVILLE, NC, 28804","Match","Exact","18 CRAFTSMAN VIEW DR, ASHEVILLE, NC, 28804",648121244,"R"
89810,"18 CROFTLAND AVE","DORCHESTER","MA",2124,42.2809645820001,-71.0696261539999,310,"18 CROFTLAND AVE, DORCHESTER, MA, 2124","Match","Exact","18 CROFTLAND AVE, DORCHESTER, MA, 02124",85706084,"R"
89811,"18 CRYSTAL SPRING ROAD","MATTAPOISETT","MA",2739,41.6723742070001,-70.834841618,311,"18 CRYSTAL SPRING ROAD, MATTAPOISETT, MA, 2739","Match","Exact","18 CRYSTAL SPRING RD, MATTAPOISETT, MA, 02739",647358130,"R"
89812,"18 CYNTHIA ROAD","CORTLANDT MANOR","NY",10567,41.311196953,-73.876746495,312,"18 CYNTHIA ROAD, CORTLANDT MANOR, NY, 10567","Match","Exact","18 CYNTHIA RD, CORTLANDT MANOR, NY, 10567",139846763,"L"
89813,"18 CYPRESS STREET","WAREHAM","MA",2571,41.744252503,-70.698257821,313,"18 CYPRESS STREET, WAREHAM, MA, 2571","Match","Exact","18 CYPRESS ST, WAREHAM, MA, 02571",87426189,"R"
89814,"18 DAHLGREN AVENUE","PORTSMOUTH","VA",23702,36.798821875,-76.319523451,314,"18 DAHLGREN AVENUE, PORTSMOUTH, VA, 23702","Match","Exact","18 DAHLGREN AVE, PORTSMOUTH, VA, 23702",122200046,"R"
89815,"18 DARBY CT E","GAITHERSBURG","MD",20878,NA,NA,315,"18 DARBY CT E, GAITHERSBURG, MD, 20878","No_Match",NA,NA,NA,NA
89816,"18 DECATUR ST","ROOSEVELT","NY",11575,40.674522585,-73.5769329409999,316,"18 DECATUR ST, ROOSEVELT, NY, 11575","Match","Exact","18 DECATUR ST, ROOSEVELT, NY, 11575",147631495,"R"
89817,"18 DEER TRACK RD","FOXFIRE VLG","NC",27281,35.1685238850001,-79.575091549,317,"18 DEER TRACK RD, FOXFIRE VLG, NC, 27281","Match","Exact","18 DEER TRACK RD, FOXFIRE VILLAGE, NC, 27281",20294864,"R"
89818,"18 DEER TRACK ROAD","FOXFIRE VILLAGE","NC",27281,35.1685238850001,-79.575091549,318,"18 DEER TRACK ROAD, FOXFIRE VILLAGE, NC, 27281","Match","Exact","18 DEER TRACK RD, FOXFIRE VILLAGE, NC, 27281",20294864,"R"
89819,"18 DEFOREST ROAD","MONTAUK","NY",11954,41.04073971,-71.9169062729999,319,"18 DEFOREST ROAD, MONTAUK, NY, 11954","Match","Exact","18 DEFOREST RD, MONTAUK, NY, 11954",114032726,"R"
89820,"18 DELAVAN ST","BROOKLYN","NY",11231,40.6788990680001,-74.006779922,320,"18 DELAVAN ST, BROOKLYN, NY, 11231","Match","Non_Exact","18 DELEVAN ST, BROOKLYN, NY, 11231",59093661,"R"
89821,"18 DEVON WRIGHT DR NE","GLENNVILLE","GA",30427,31.87877031,-81.8759791369999,321,"18 DEVON WRIGHT DR NE, GLENNVILLE, GA, 30427","Match","Non_Exact","18 DEVON WRIGHT DR, GLENNVILLE, GA, 30427",632357213,"L"
89822,"18 DEVONWOOD LANE","PITTSFORD","NY",14534,43.0710496990001,-77.532730323,322,"18 DEVONWOOD LANE, PITTSFORD, NY, 14534","Match","Exact","18 DEVONWOOD LN, PITTSFORD, NY, 14534",14572549,"L"
89823,"18 DEXTER LANE","NORTH YARMOUTH","ME",4097,43.8329423870001,-70.2540864439999,323,"18 DEXTER LANE, NORTH YARMOUTH, ME, 4097","Match","Exact","18 DEXTER LN, NORTH YARMOUTH, ME, 04097",78021429,"L"
89824,"18 DIGNON ROAD","BILLERICA","MA",1821,42.571494676,-71.2251085239999,324,"18 DIGNON ROAD, BILLERICA, MA, 1821","Match","Exact","18 DIGNON RD, BILLERICA, MA, 01821",86907856,"L"
89825,"18 DOREEN RD","HAMILTON","NJ",8690,40.2343867720001,-74.66657015,325,"18 DOREEN RD, HAMILTON, NJ, 8690","Match","Non_Exact","18 DOREEN DR, HAMILTON, NJ, 08690",60184582,"L"
89826,"18 DOWNING CIRCLE","DOWNINGTOWN","PA",19335,40.0233973750001,-75.674690696,326,"18 DOWNING CIRCLE, DOWNINGTOWN, PA, 19335","Match","Exact","18 DOWNING CIR, DOWNINGTOWN, PA, 19335",179486303,"L"
89827,"18 DUNBARTON ROAD","STARKVILLE","MS",39759,33.4633263700001,-88.750940038,327,"18 DUNBARTON ROAD, STARKVILLE, MS, 39759","Match","Non_Exact","18 DUMBARTON RD, STARKVILLE, MS, 39759",617350052,"R"
89828,"18 DUNNELL LN","PAWTUCKET","RI",2860,NA,NA,328,"18 DUNNELL LN, PAWTUCKET, RI, 2860","Tie",NA,NA,NA,NA
89829,"18 E LOS OLIVOS STREET","SANTA BARBARA","CA",93105,34.4331617020001,-119.716706224,329,"18 E LOS OLIVOS STREET, SANTA BARBARA, CA, 93105","Match","Exact","18 E LOS OLIVOS ST, SANTA BARBARA, CA, 93105",108659557,"R"
89830,"18 E WILLIAM ST","DELAWARE","OH",43015,40.2987402000001,-83.066659833,330,"18 E WILLIAM ST, DELAWARE, OH, 43015","Match","Exact","18 E WILLIAM ST, DELAWARE, OH, 43015",24585227,"L"
89831,"18 E31 STREET","BROOKLYN","NY",11226,NA,NA,331,"18 E31 STREET, BROOKLYN, NY, 11226","No_Match",NA,NA,NA,NA
89832,"18 EAGLE STREET","NEWARK","NJ",7102,NA,NA,332,"18 EAGLE STREET, NEWARK, NJ, 7102","No_Match",NA,NA,NA,NA
89833,"18 EAST AVENUE","MOUNT CARMEL","PA",17851,40.798124747,-76.43698504,333,"18 EAST AVENUE, MOUNT CARMEL, PA, 17851","Match","Non_Exact","18 EAST ST, MOUNT CARMEL, PA, 17851",48076053,"R"
89834,"18 EAST MAIN STREET","ORANGE","MA",1364,42.5908179260001,-72.309067367,334,"18 EAST MAIN STREET, ORANGE, MA, 1364","Match","Exact","18 E MAIN ST, ORANGE, MA, 01364",39920393,"L"
89835,"18 EAST SOUTHERN AVENUE","SPRINGFIELD","OH",45506,39.9111510920001,-83.8112157589999,335,"18 EAST SOUTHERN AVENUE, SPRINGFIELD, OH, 45506","Match","Exact","18 E SOUTHERN AVE, SPRINGFIELD, OH, 45506",652711576,"L"
89836,"18 EAST THIRD STREET","LITCHFIELD","MN",55355,45.128617864,-94.527959803,336,"18 EAST THIRD STREET, LITCHFIELD, MN, 55355","Match","Exact","18 E 3RD ST, LITCHFIELD, MN, 55355",36980531,"L"
89837,"18 EASTBROOK BEND STE B","PEACHTREE CITY","GA",30269,33.4113882770001,-84.563230962,337,"18 EASTBROOK BEND STE B, PEACHTREE CITY, GA, 30269","Match","Exact","18 EASTBROOK BEND, PEACHTREE CITY, GA, 30269",75948677,"R"
89838,"18 EASTBROOK BND STE B","PEACHTREE CITY","GA",30269,33.4113882770001,-84.563230962,338,"18 EASTBROOK BND STE B, PEACHTREE CITY, GA, 30269","Match","Exact","18 EASTBROOK BEND, PEACHTREE CITY, GA, 30269",75948677,"R"
89839,"18 EASTHILL COURT","HAMPTON","VA",23664,37.0517604630001,-76.299856602,339,"18 EASTHILL COURT, HAMPTON, VA, 23664","Match","Exact","18 EASTHILL CT, HAMPTON, VA, 23664",103798953,"R"
89840,"18 EATON COURT","WELLESLEY","MA",2481,42.3125876930001,-71.274121129,340,"18 EATON COURT, WELLESLEY, MA, 2481","Match","Exact","18 EATON CT, WELLESLEY, MA, 02481",87291105,"L"
89841,"18 EDINBURGH DRIVE","PEEKSKILL","NY",10566,41.3012134080001,-73.8941627199999,341,"18 EDINBURGH DRIVE, PEEKSKILL, NY, 10566","Match","Exact","18 EDINBURGH DR, PEEKSKILL, NY, 10566",139829101,"R"
89842,"18 EHRLICH RD","AUSTIN","TX",78746,30.304710189,-97.835605775,342,"18 EHRLICH RD, AUSTIN, TX, 78746","Match","Exact","18 EHRLICH RD, AUSTIN, TX, 78746",63937771,"R"
89843,"18 ETNA PLACE","NANUET","NY",10954,41.120110346,-74.010542317,343,"18 ETNA PLACE, NANUET, NY, 10954","Match","Exact","18 ETNA PL, NANUET, NY, 10954",124627579,"L"
89844,"18 EVANS STREET","BATAVIA","NY",14020,42.995572021,-78.1868938329999,344,"18 EVANS STREET, BATAVIA, NY, 14020","Match","Exact","18 EVANS ST, BATAVIA, NY, 14020",48141379,"L"
89845,"18 FAIRLAWN DRIVE","HONEOYE FALLS","NY",14472,42.9546753180001,-77.5782159509999,345,"18 FAIRLAWN DRIVE, HONEOYE FALLS, NY, 14472","Match","Exact","18 FAIRLAWN DR, HONEOYE FALLS, NY, 14472",14549089,"R"
89846,"18 FAIRMONT DRIVE","COLUMBUS","NJ",8022,40.0858739280001,-74.665332282,346,"18 FAIRMONT DRIVE, COLUMBUS, NJ, 8022","Match","Exact","18 FAIRMONT DR, COLUMBUS, NJ, 08022",617130388,"R"
89847,"18 FIREHOUSE LANE","LEWIS","NY",12950,44.2762206880001,-73.564678242,347,"18 FIREHOUSE LANE, LEWIS, NY, 12950","Match","Exact","18 FIREHOUSE LN, LEWIS, NY, 12950",136266612,"R"
89848,"18 FLEETWOOD CT","NOVATO","CA",94947,38.1044072880001,-122.605163148,348,"18 FLEETWOOD CT, NOVATO, CA, 94947","Match","Exact","18 FLEETWOOD CT, NOVATO, CA, 94947",192757101,"R"
89849,"18 FLYNTWOOD DR","ANDERSON","IN",46012,40.1388962660001,-85.665730979,349,"18 FLYNTWOOD DR, ANDERSON, IN, 46012","Match","Exact","18 FLYNTWOOD DR, ANDERSON, IN, 46012",31120813,"L"
89850,"18 FOUR MILE BRANCH LANE","SPARTANBURG","SC",29302,34.9328107870001,-81.85859957,350,"18 FOUR MILE BRANCH LANE, SPARTANBURG, SC, 29302","Match","Exact","18 FOUR MILE BRANCH LN, SPARTANBURG, SC, 29302",19495856,"R"
89851,"18 FOX HOLLOW GULCH RD","BELLEVUE","ID",83313,43.459217562,-114.276574827,351,"18 FOX HOLLOW GULCH RD, BELLEVUE, ID, 83313","Match","Exact","18 FOX HOLLOW GULCH RD, BELLEVUE, ID, 83313",105221818,"R"
89852,"18 FREEDOM FARM ROAD","ACTON","MA",1720,42.4897177550001,-71.464439356,352,"18 FREEDOM FARM ROAD, ACTON, MA, 1720","Match","Exact","18 FREEDOM FARM RD, ACTON, MA, 01720",87098882,"L"
89853,"18 FREEDOM PLACE","ROHNERT PARK","CA",94928,38.362710092,-122.697858898,353,"18 FREEDOM PLACE, ROHNERT PARK, CA, 94928","Match","Exact","18 FREEDOM PL, ROHNERT PARK, CA, 94928",67518891,"L"
89854,"18 FRESH WATER DRIVE","FREDERICKSBURG","VA",22405,38.3067927540001,-77.4256527379999,354,"18 FRESH WATER DRIVE, FREDERICKSBURG, VA, 22405","Match","Exact","18 FRESH WATER DR, FREDERICKSBURG, VA, 22405",25564317,"R"
89855,"18 GALLANT FOX LANE","EGG HARBOR TOWNSHIP","NJ",8234,39.382412306,-74.621610961,355,"18 GALLANT FOX LANE, EGG HARBOR TOWNSHIP, NJ, 8234","Match","Exact","18 GALLANT FOX LN, EGG HARBOR TOWNSHIP, NJ, 08234",633347368,"R"
89856,"18 GARFIELD ROAD","WEST HARTFORD","CT",6107,41.755990012,-72.759678241,356,"18 GARFIELD ROAD, WEST HARTFORD, CT, 6107","Match","Exact","18 GARFIELD RD, WEST HARTFORD, CT, 06107",3493384,"L"
89857,"18 GATON LANE","CORAM","NY",11727,40.8958523310001,-73.014510173,357,"18 GATON LANE, CORAM, NY, 11727","Match","Exact","18 GATON LN, CORAM, NY, 11727",114004235,"L"
89858,"18 GENEVA ST","GAINES","PA",16921,41.752128273,-77.557307367,358,"18 GENEVA ST, GAINES, PA, 16921","Match","Exact","18 GENEVA ST, GAINES, PA, 16921",189658210,"R"
89859,"18 GLADSTONE ROAD","LANSDOWNE","PA",19050,39.9353428530001,-75.281270703,359,"18 GLADSTONE ROAD, LANSDOWNE, PA, 19050","Match","Exact","18 GLADSTONE RD, LANSDOWNE, PA, 19050",134884345,"L"
89860,"18 GLEN DRIVE","PETERBOROUGH","NH",3458,42.886355048,-71.940530704,360,"18 GLEN DRIVE, PETERBOROUGH, NH, 3458","Match","Exact","18 GLEN DR, PETERBOROUGH, NH, 03458",113521969,"R"
89861,"18 GLEN EAGLES RD","WASHINGTON","NJ",7882,40.770273693,-74.9872060289999,361,"18 GLEN EAGLES RD, WASHINGTON, NJ, 7882","Match","Exact","18 GLEN EAGLES RD, WASHINGTON, NJ, 07882",98095501,"L"
89862,"18 GLEN LOOP","COVINGTON","LA",70435,30.502552672,-90.0795391299999,362,"18 GLEN LOOP, COVINGTON, LA, 70435","Match","Exact","18 GLEN LOOP, COVINGTON, LA, 70435",635284351,"L"
89863,"18 GLENGARDEN STREET","PORTLAND","ME",4103,43.6823183500001,-70.2836867089999,363,"18 GLENGARDEN STREET, PORTLAND, ME, 4103","Match","Exact","18 GLENGARDEN ST, PORTLAND, ME, 04103",78082942,"L"
89864,"18 GLENLAKE ROAD","COLUMBIA","SC",29223,34.1073402000001,-80.9177025609999,364,"18 GLENLAKE ROAD, COLUMBIA, SC, 29223","Match","Exact","18 GLENLAKE RD, COLUMBIA, SC, 29223",71822547,"R"
89865,"18 GLENRIDGE ROAD","GLENVILLE","NY",12302,42.86831735,-73.9279436909999,365,"18 GLENRIDGE ROAD, GLENVILLE, NY, 12302","Match","Exact","18 GLENRIDGE RD, GLENVILLE, NY, 12302",648983106,"R"
89866,"18 GLORIEUX STREET","IRVINGTON","NJ",7111,40.7161632,-74.2422352839999,366,"18 GLORIEUX STREET, IRVINGTON, NJ, 7111","Match","Exact","18 GLORIEUX ST, IRVINGTON, NJ, 07111",63463766,"L"
89867,"18 GLOUCESTER PL","NEW ROCHELLE","NY",10801,40.9214518090001,-73.801742447,367,"18 GLOUCESTER PL, NEW ROCHELLE, NY, 10801","Match","Exact","18 GLOUCESTER PL, NEW ROCHELLE, NY, 10801",139842724,"L"
89868,"18 GOLDNEY DRIVE","NEWTOWN","PW",18940,NA,NA,368,"18 GOLDNEY DRIVE, NEWTOWN, PW, 18940","No_Match",NA,NA,NA,NA
89869,"18 GOODPORT LANE","GAITHERSBURG","MD",20878,39.151903329,-77.237901587,369,"18 GOODPORT LANE, GAITHERSBURG, MD, 20878","Match","Exact","18 GOODPORT LN, GAITHERSBURG, MD, 20878",624715229,"L"
89870,"18 GOULDS WAY","SEABROOK","NH",3874,42.8880492930001,-70.904850696,370,"18 GOULDS WAY, SEABROOK, NH, 3874","Match","Non_Exact","18 GOULD'S WAY, SEABROOK, NH, 03874",113716263,"R"
89871,"18 GRANDVIEW AVE","PEABODY","MA",1960,42.5350935720001,-70.935597139,371,"18 GRANDVIEW AVE, PEABODY, MA, 1960","Match","Exact","18 GRANDVIEW AVE, PEABODY, MA, 01960",616710948,"L"
89872,"18 GREEN PLACE","NEWPORT","VT",5855,44.93316693,-72.209924872,372,"18 GREEN PLACE, NEWPORT, VT, 5855","Match","Exact","18 GREEN PL, NEWPORT, VT, 05855",196764096,"R"
89873,"18 GREEN STREET","NEWARK","NJ",7102,40.73213292,-74.173141679,373,"18 GREEN STREET, NEWARK, NJ, 7102","Match","Exact","18 GREEN ST, NEWARK, NJ, 07102",638113173,"L"
89874,"18 GRIST MILL ROAD","GLASTONBURY","CT",6033,41.7092258270001,-72.5540211369999,374,"18 GRIST MILL ROAD, GLASTONBURY, CT, 6033","Match","Exact","18 GRIST MILL RD, GLASTONBURY, CT, 06033",3529511,"R"
89875,"18 GROVE PLACE","ROCHESTER","NY",14605,43.1591007500001,-77.600221308,375,"18 GROVE PLACE, ROCHESTER, NY, 14605","Match","Exact","18 GROVE PL, ROCHESTER, NY, 14605",639357661,"R"
89876,"18 GROVE STREET","HADDONFIELD","NJ",8033,39.9000275280001,-75.029525303,376,"18 GROVE STREET, HADDONFIELD, NJ, 8033","Match","Exact","18 GROVE ST, HADDONFIELD, NJ, 08033",134419704,"L"
89877,"18 GULICH AVE","CLEARFIELD","PA",16830,41.021334046,-78.444459416,377,"18 GULICH AVE, CLEARFIELD, PA, 16830","Match","Exact","18 GULICH AVE, CLEARFIELD, PA, 16830",50514968,"R"
89878,"18 HAMMOND RD","FALMOUTH","ME",4105,43.700782788,-70.238944166,378,"18 HAMMOND RD, FALMOUTH, ME, 4105","Match","Exact","18 HAMMOND RD, FALMOUTH, ME, 04105",78032051,"L"
89879,"18 HANOVER PLACE","SICKLERVILLE","NJ",8081,39.7174002790001,-74.979478063,379,"18 HANOVER PLACE, SICKLERVILLE, NJ, 8081","Match","Exact","18 HANOVER PL, SICKLERVILLE, NJ, 08081",134375640,"R"
89880,"18 HANOVER ST","LEBANON","NH",3766,43.6442255590001,-72.2542810269999,380,"18 HANOVER ST, LEBANON, NH, 3766","Match","Exact","18 HANOVER ST, LEBANON, NH, 03766",636320140,"L"
89881,"18 HARRISON STREET","FORT MONROE","VA",23651,37.0028111010001,-76.312374801,381,"18 HARRISON STREET, FORT MONROE, VA, 23651","Match","Exact","18 HARRISON ST, FORT MONROE, VA, 23651",103806844,"L"
89882,"18 HAVEN AVE","PORT WASHINGTON","NY",11050,40.829391607,-73.6880411399999,382,"18 HAVEN AVE, PORT WASHINGTON, NY, 11050","Match","Exact","18 HAVEN AVE, PORT WASHINGTON, NY, 11050",147659289,"R"
89883,"18 HAVERFORD RD","WEST WINDSOR","NJ",8550,40.286364366,-74.5884354249999,383,"18 HAVERFORD RD, WEST WINDSOR, NJ, 8550","Match","Exact","18 HAVERFORD RD, WEST WINDSOR, NJ, 08550",60198664,"L"
89884,"18 HAWTHORN ROAD","MILTON","MA",2186,42.2645622630001,-71.0907297479999,384,"18 HAWTHORN ROAD, MILTON, MA, 2186","Match","Exact","18 HAWTHORN RD, MILTON, MA, 02186",87331691,"L"
89885,"18 HEATHER WAY","NEWTOWN SQUARE","PA",19073,39.9713708730001,-75.411983731,385,"18 HEATHER WAY, NEWTOWN SQUARE, PA, 19073","Match","Exact","18 HEATHER WAY, NEWTOWN SQUARE, PA, 19073",134905260,"L"
89886,"18 HEMISON CT","PIKESVILLE","MD",21208,39.3967537390001,-76.746582554,386,"18 HEMISON CT, PIKESVILLE, MD, 21208","Match","Exact","18 HEMISON CT, PIKESVILLE, MD, 21208",648419050,"R"
89887,"18 HENRY STREET","BROCKTON","MA",2302,42.082209758,-71.002558913,387,"18 HENRY STREET, BROCKTON, MA, 2302","Match","Exact","18 HENRY ST, BROCKTON, MA, 02302",87444814,"L"
89888,"18 HERITAGE LANE","WAKEFIELD","MA",1880,42.515874447,-71.059538393,388,"18 HERITAGE LANE, WAKEFIELD, MA, 1880","Match","Exact","18 HERITAGE LN, WAKEFIELD, MA, 01880",86903922,"L"
89889,"18 HILAND DRIVE","QUEENSBURY","NY",12804,43.365904028,-73.631010142,389,"18 HILAND DRIVE, QUEENSBURY, NY, 12804","Match","Exact","18 HILAND DR, QUEENSBURY, NY, 12804",173897298,"R"
89890,"18 HILLCREST PARK","CLINTON","NJ",8809,40.6418001970001,-74.902534159,390,"18 HILLCREST PARK, CLINTON, NJ, 8809","Match","Exact","18 HILLCREST PARK, CLINTON, NJ, 08809",643965269,"R"
89891,"18 HILLSDALE STREET","AUBURN","ME",4210,44.1027496900001,-70.2427635989999,391,"18 HILLSDALE STREET, AUBURN, ME, 4210","Match","Exact","18 HILLSDALE ST, AUBURN, ME, 04210",77960498,"L"
89892,"18 HILLTOP DR","PITTSFORD","NY",14534,43.08041841,-77.5190957579999,392,"18 HILLTOP DR, PITTSFORD, NY, 14534","Match","Exact","18 HILLTOP DR, PITTSFORD, NY, 14534",14545009,"L"
89893,"18 HILLTOP DRIVE","CANTON","CT",6019,41.8604629910001,-72.88960825,393,"18 HILLTOP DRIVE, CANTON, CT, 6019","Match","Exact","18 HILLTOP DR, CANTON, CT, 06019",3541282,"L"
89894,"18 HOLCOMBE ROAD","LYMAN","SC",29365,34.976498001,-82.17599238,394,"18 HOLCOMBE ROAD, LYMAN, SC, 29365","Match","Exact","18 HOLCOMBE RD, LYMAN, SC, 29365",19485263,"R"
89895,"18 HOLLY HILL LANE","KATONAH","NY",10536,41.281193224,-73.6297673459999,395,"18 HOLLY HILL LANE, KATONAH, NY, 10536","Match","Exact","18 HOLLY HILL LN, KATONAH, NY, 10536",139780151,"L"
89896,"18 HOMESTEAD LANE","ROOSEVELT","NJ",8555,40.2201779980001,-74.4722064819999,396,"18 HOMESTEAD LANE, ROOSEVELT, NJ, 8555","Match","Exact","18 HOMESTEAD LN, ROOSEVELT, NJ, 08555",90446249,"R"
89897,"18 HOMSTEAD DR","FLORENCE","KY",41042,38.9691145190001,-84.6772129779999,397,"18 HOMSTEAD DR, FLORENCE, KY, 41042","Match","Non_Exact","18 HOMESTEAD DR, FLORENCE, KY, 41042",81954285,"L"
89898,"18 HONEY LOCUST LANE","EASTAMPTON","NJ",8060,39.991911907,-74.749459697,398,"18 HONEY LOCUST LANE, EASTAMPTON, NJ, 8060","Match","Exact","18 HONEY LOCUST LN, EASTAMPTON, NJ, 08060",134062408,"R"
89899,"18 HOOK MOUNTAIN ROAD SUITE 201","PINE BROOK","NJ",7058,40.8612336780001,-74.339738911,399,"18 HOOK MOUNTAIN ROAD SUITE 201, PINE BROOK, NJ, 7058","Match","Exact","18 HOOK MOUNTAIN RD, PINE BROOK, NJ, 07058",60488196,"L"
89900,"18 HUDSON WAY","GARNET VALLEY","PA",19060,39.868582539,-75.481078968,400,"18 HUDSON WAY, GARNET VALLEY, PA, 19060","Match","Exact","18 HUDSON WAY, GARNET VALLEY, PA, 19060",134909046,"L"
89901,"18 HUMMINGBIRD HILL","GREENE","ME",4236,44.2217735090001,-70.134247644,401,"18 HUMMINGBIRD HILL, GREENE, ME, 4236","Match","Exact","18 HUMMINGBIRD HILL, GREENE, ME, 04236",77969741,"L"
89902,"18 HUYLER ROAD","BRANCHBURG","NJ",8876,40.5670282930001,-74.6916095559999,402,"18 HUYLER ROAD, BRANCHBURG, NJ, 8876","Match","Exact","18 HUYLER RD, BRANCHBURG, NJ, 08876",59952559,"R"
89903,"18 IBIZA AISLE","IRVINE","CA",92614,33.682216639,-117.825409049,403,"18 IBIZA AISLE, IRVINE, CA, 92614","Match","Exact","18 IBIZA AISLE, IRVINE, CA, 92614",638578015,"R"
89904,"18 INDIAN PIPE LANE","HILTON HEAD ISLAND","SC",29925,32.2178286220001,-80.7539067119999,404,"18 INDIAN PIPE LANE, HILTON HEAD ISLAND, SC, 29925","Match","Non_Exact","18 INDIAN PIPE LN, HILTON HEAD ISLAND, SC, 29926",87627210,"R"
89905,"18 INTERVALE AVENUE","EAST PROVIDENCE","RI",2914,41.8075945790001,-71.360790008,405,"18 INTERVALE AVENUE, EAST PROVIDENCE, RI, 2914","Match","Exact","18 INTERVALE AVE, E PROVIDENCE, RI, 02914",47501012,"L"
89906,"18 INTREPID LANE","JAMESTOWN","RI",2835,41.5503364370001,-71.3662316639999,406,"18 INTREPID LANE, JAMESTOWN, RI, 2835","Match","Exact","18 INTREPID LN, JAMESTOWN, RI, 02835",47360727,"R"
89907,"18 IRVING STREET","PEABODY","MA",1960,42.5295611820001,-70.943749784,407,"18 IRVING STREET, PEABODY, MA, 1960","Match","Exact","18 IRVING ST, PEABODY, MA, 01960",86662172,"L"
89908,"18 JENNIFER PL","SAN FRANCISCO","CA",94107,37.779782638,-122.402541873,408,"18 JENNIFER PL, SAN FRANCISCO, CA, 94107","Match","Exact","18 JENNIFER PL, SAN FRANCISCO, CA, 94107",647247073,"L"
89909,"18 JOHN GALT ROAD","BEAUFORT","SC",29906,32.435367609,-80.719390131,409,"18 JOHN GALT ROAD, BEAUFORT, SC, 29906","Match","Exact","18 JOHN GALT RD, BEAUFORT, SC, 29906",646118980,"R"
89910,"18 JUPITER POINT ROAD","GROTON","CT",6340,41.3231688550001,-72.05773507,410,"18 JUPITER POINT ROAD, GROTON, CT, 6340","Match","Exact","18 JUPITER POINT RD, GROTON, CT, 06340",56852618,"L"
89911,"18 KATY LANE","FEEDING HILLS","MA",1030,42.0826838900001,-72.695413382,411,"18 KATY LANE, FEEDING HILLS, MA, 1030","Match","Exact","18 KATY LN, FEEDING HILLS, MA, 01030",4054457,"R"
89912,"18 KENNEDY PARK","PORTLAND","ME",4101,43.6647348020001,-70.255392141,412,"18 KENNEDY PARK, PORTLAND, ME, 4101","Match","Exact","18 KENNEDY PARK, PORTLAND, ME, 04101",78061832,"L"
89913,"18 KENNEDY STREET","PHENIX CITY","AL",36869,32.455804245,-85.096546556,413,"18 KENNEDY STREET, PHENIX CITY, AL, 36869","Match","Exact","18 KENNEDY ST, PHENIX CITY, AL, 36869",69282519,"R"
89914,"18 KING STREET","NORFOLK","MA",2056,42.096175569,-71.327974005,414,"18 KING STREET, NORFOLK, MA, 2056","Match","Exact","18 KING ST, NORFOLK, MA, 02056",87307519,"R"
89915,"18 KING STREET","PORT JEFF STATION","NY",11776,40.8968976690001,-73.0585178969999,415,"18 KING STREET, PORT JEFF STATION, NY, 11776","Match","Exact","18 KING ST, PORT JEFF STA, NY, 11776",114003398,"R"
89916,"18 KINGS CIRCLE","HEBER SPRINGS","AR",72543,35.5011184680001,-92.08895705,416,"18 KINGS CIRCLE, HEBER SPRINGS, AR, 72543","Match","Exact","18 KINGS CIR, HEBER SPRINGS, AR, 72543",636162461,"L"
89917,"18 LAKESHORE DRIVE","EASTCHESTER","NY",10709,40.9641026210001,-73.805625947,417,"18 LAKESHORE DRIVE, EASTCHESTER, NY, 10709","Match","Exact","18 LAKESHORE DR, EASTCHESTER, NY, 10709",139848287,"R"
89918,"18 LANARK RD","YONKERS","NY",10705,40.92454846,-73.8895239559999,418,"18 LANARK RD, YONKERS, NY, 10705","Match","Exact","18 LANARK RD, YONKERS, NY, 10705",139743863,"R"
89919,"18 LANCASTER STREET","CRAB ORCHARD","KY",40419,37.4640255260001,-84.5068537289999,419,"18 LANCASTER STREET, CRAB ORCHARD, KY, 40419","Match","Exact","18 LANCASTER ST, CRAB ORCHARD, KY, 40419",636728778,"R"
89920,"18 LAURA CT","MOUNT SINAI","NY",11766,40.934787557,-73.008043174,420,"18 LAURA CT, MOUNT SINAI, NY, 11766","Match","Exact","18 LAURA CT, MOUNT SINAI, NY, 11766",114274619,"L"
89921,"18 LAUREL AVE R","GLEN COVE","NY",11542,40.870476581,-73.642089867,421,"18 LAUREL AVE R, GLEN COVE, NY, 11542","Match","Exact","18 LAUREL AVE, GLEN COVE, NY, 11542",147657950,"R"
89922,"18 LEAF LANE","MATAWAN","NJ",7747,40.409095952,-74.259503603,422,"18 LEAF LANE, MATAWAN, NJ, 7747","Match","Exact","18 LEAF LN, MATAWAN, NJ, 07747",641917393,"R"
89923,"18 LEDGEWOOD RD","REDDING","CT",6896,41.2760905800001,-73.399374845,423,"18 LEDGEWOOD RD, REDDING, CT, 6896","Match","Exact","18 LEDGEWOOD RD, REDDING, CT, 06896",3264335,"R"
89924,"18 LINCOLN PLACE","WEST HAVEN","CT",6516,41.304014905,-72.969389661,424,"18 LINCOLN PLACE, WEST HAVEN, CT, 6516","Match","Exact","18 LINCOLN PL, W HAVEN, CT, 06516",3697730,"L"
89925,"18 LISA COURT","PARSIPPANY","NJ",7054,40.8517858810001,-74.410979117,425,"18 LISA COURT, PARSIPPANY, NJ, 7054","Match","Exact","18 LISA CT, PARSIPPANY, NJ, 07054",60475494,"R"
89926,"18 LOCKHART CIRCLE","AMHERST","NY",14228,43.045553103,-78.7617268349999,426,"18 LOCKHART CIRCLE, AMHERST, NY, 14228","Match","Exact","18 LOCKHART CIR, AMHERST, NY, 14228",48361195,"L"
89927,"18 LOCUST AVE NO 33W","WEST HAVEN","CT",6840,NA,NA,427,"18 LOCUST AVE NO 33W, WEST HAVEN, CT, 6840","No_Match",NA,NA,NA,NA
89928,"18 LOCUST DRIVE","GREAT NECK","NY",11021,40.7891016830001,-73.742825777,428,"18 LOCUST DRIVE, GREAT NECK, NY, 11021","Match","Exact","18 LOCUST DR, GREAT NECK, NY, 11021",147655967,"L"
89929,"18 LONGFELLOW DR","FRANKLIN","MA",2038,42.0892144920001,-71.3856640669999,429,"18 LONGFELLOW DR, FRANKLIN, MA, 2038","Match","Exact","18 LONGFELLOW DR, FRANKLIN, MA, 02038",87259774,"L"
89930,"18 LYMAN ST","WESTBOROUGH","MA",1581,42.2823647160001,-71.606969605,430,"18 LYMAN ST, WESTBOROUGH, MA, 1581","Match","Exact","18 LYMAN ST, WESTBOROUGH, MA, 01581",40036829,"L"
89931,"18 MAIN STREET","RANDOLPH","NY",14772,42.163985272,-78.96814091,431,"18 MAIN STREET, RANDOLPH, NY, 14772","Match","Exact","18 MAIN ST, RANDOLPH, NY, 14772",122023857,"L"
89932,"18 MALBON AVE","NEWPORT NEWA","VA",23601,37.0951973960001,-76.454786379,432,"18 MALBON AVE, NEWPORT NEWA, VA, 23601","Match","Non_Exact","18 MALBON AVE, NEWPORT NEWS, VA, 23601",103753133,"R"
89933,"18 MAPLE STREET","PUTNAM","CT",6260,41.915732731,-71.912982321,433,"18 MAPLE STREET, PUTNAM, CT, 6260","Match","Exact","18 MAPLE ST, PUTNAM, CT, 06260",56443823,"R"
89934,"18 MAPLE STREET","SALISBURY","MA",1952,42.84173344,-70.863543464,434,"18 MAPLE STREET, SALISBURY, MA, 1952","Match","Exact","18 MAPLE ST, SALISBURY, MA, 01952",86686804,"R"
89935,"18 MAPLEWOOD AVENUE","BIDDEFORD","ME",4005,43.4962938530001,-70.470098499,435,"18 MAPLEWOOD AVENUE, BIDDEFORD, ME, 4005","Match","Exact","18 MAPLEWOOD AVE, BIDDEFORD, ME, 04005",92741654,"L"
89936,"18 MAPLEWOOD TERRACE","LAKEWOOD","NJ",8701,40.0904389230001,-74.25544927,436,"18 MAPLEWOOD TERRACE, LAKEWOOD, NJ, 8701","Match","Exact","18 MAPLEWOOD TER, LAKEWOOD, NJ, 08701",624539268,"L"
89937,"18 MARCH AVE","BROOKVILLE","OH",45309,39.830516662,-84.420329044,437,"18 MARCH AVE, BROOKVILLE, OH, 45309","Match","Exact","18 MARCH AVE, BROOKVILLE, OH, 45309",143559779,"R"
89938,"18 MARTHA LAYNE COLLINS BLVD","COLD SPRINGS","KY",41076,39.026740569,-84.453396966,438,"18 MARTHA LAYNE COLLINS BLVD, COLD SPRINGS, KY, 41076","Match","Exact","18 MARTHA LAYNE COLLINS BLVD, COLD SPRING, KY, 41076",210236671,"L"
89939,"18 MARYBETH LANE","JACKSON","NJ",8527,40.1346531030001,-74.32652651,439,"18 MARYBETH LANE, JACKSON, NJ, 8527","Match","Non_Exact","18 MARY BETH LN, JACKSON, NJ, 08527",203760733,"R"
89940,"18 MCENTEE RD","MILFORD","NJ",8848,40.587271478,-75.1214608459999,440,"18 MCENTEE RD, MILFORD, NJ, 8848","Match","Exact","18 MCENTEE RD, MILFORD, NJ, 08848",60029265,"L"
89941,"18 MEADOWCREST DRIVE","RIVERSIDE","RI",2915,41.772408806,-71.349533316,441,"18 MEADOWCREST DRIVE, RIVERSIDE, RI, 2915","Match","Exact","18 MEADOWCREST DR, RIVERSIDE, RI, 02915",47476340,"R"
89942,"18 MEADOWRIDGE LANE","MILTON","DE",19968,38.7461805470001,-75.24197049,442,"18 MEADOWRIDGE LANE, MILTON, DE, 19968","Match","Exact","18 MEADOWRIDGE LN, MILTON, DE, 19968",106114890,"R"
89943,"18 MERRITT LN","KETTLE FALLS","WA",99141,48.7243619390001,-118.136453782,443,"18 MERRITT LN, KETTLE FALLS, WA, 99141","Match","Exact","18 MERRITT LN, KETTLE FALLS, WA, 99141",612287383,"R"
89944,"18 MERRYHILL LANE","PITTSFORD","NY",14534,43.079885689,-77.540689131,444,"18 MERRYHILL LANE, PITTSFORD, NY, 14534","Match","Exact","18 MERRYHILL LN, PITTSFORD, NY, 14534",14552189,"R"
89945,"18 MILDRED TERRACE","VAUXHALL","NJ",7088,40.7202945230001,-74.2804492289999,445,"18 MILDRED TERRACE, VAUXHALL, NJ, 7088","Match","Exact","18 MILDRED TER, VAUXHALL, NJ, 07088",60570969,"L"
89946,"18 MILES AVENUE","PROVIDENCE","RI",2906,41.834841774,-71.391896795,446,"18 MILES AVENUE, PROVIDENCE, RI, 2906","Match","Exact","18 MILES AVE, PROVIDENCE, RI, 02906",47483021,"L"
89947,"18 MILL RD","MORGANTOWN","PA",19543,40.1347557870001,-75.8792859769999,447,"18 MILL RD, MORGANTOWN, PA, 19543","Match","Exact","18 MILL RD, MORGANTOWN, PA, 19543",179675126,"R"
89948,"18 MONROE AVENUE","PITTSFORD","NY",14534,43.092734539,-77.52046738,448,"18 MONROE AVENUE, PITTSFORD, NY, 14534","Match","Exact","18 MONROE AVE, PITTSFORD, NY, 14534",14544924,"R"
89949,"18 MONTROSE STREET APT 2","SOMERVILLE","MA",2143,42.388393804,-71.0988136,449,"18 MONTROSE STREET APT 2, SOMERVILLE, MA, 2143","Match","Exact","18 MONTROSE ST, SOMERVILLE, MA, 02143",86869008,"L"
89950,"18 MONUMENT SQUARE","URBANA","OH",43078,NA,NA,450,"18 MONUMENT SQUARE, URBANA, OH, 43078","No_Match",NA,NA,NA,NA
89951,"18 MOORETOWN RD","SWEET VALLEY","PA",18656,41.311642637,-76.186999774,451,"18 MOORETOWN RD, SWEET VALLEY, PA, 18656","Match","Exact","18 MOORETOWN RD, SWEET VALLEY, PA, 18656",80954016,"L"
89952,"18 MORAN CIRCLE","SUDBURY","MA",1776,42.3486666590001,-71.4225583859999,452,"18 MORAN CIRCLE, SUDBURY, MA, 1776","Match","Exact","18 MORAN CIR, SUDBURY, MA, 01776",86847545,"R"
89953,"18 MORN MIST COURT","PARKVILLE","MD",21234,39.4087689610001,-76.494870454,453,"18 MORN MIST COURT, PARKVILLE, MD, 21234","Match","Exact","18 MORN MIST CT, PARKVILLE, MD, 21234",191497990,"L"
89954,"18 MORTON ST","MALONE","NY",12953,44.8501115400001,-74.2863086999999,454,"18 MORTON ST, MALONE, NY, 12953","Match","Exact","18 MORTON ST, MALONE, NY, 12953",636406757,"L"
89955,"18 MULBERRY BLUFF DRIVE","SAVANNAH","GA",31406,32.000852664,-81.033371035,455,"18 MULBERRY BLUFF DRIVE, SAVANNAH, GA, 31406","Match","Exact","18 MULBERRY BLUFF DR, SAVANNAH, GA, 31406",6184354,"L"
89956,"18 N 4TH ST","NILES","MI",49120,41.8281477350001,-86.254886517,456,"18 N 4TH ST, NILES, MI, 49120","Match","Exact","18 N 4TH ST, NILES, MI, 49120",119979454,"R"
89957,"18 N ADAIR ST","GREENWOOD","AR",72936,35.2116449810001,-94.257012022,457,"18 N ADAIR ST, GREENWOOD, AR, 72936","Match","Non_Exact","18 S ADAIR ST, GREENWOOD, AR, 72936",56134994,"R"
89958,"18 N CONGRESS STREET","YORK","SC",29745,34.994432466,-81.2417688849999,458,"18 N CONGRESS STREET, YORK, SC, 29745","Match","Exact","18 N CONGRESS ST, YORK, SC, 29745",19781978,"R"
89959,"18 N FOURTH AVENUE","STURGEON BAY","WI",54235,44.8349916380001,-87.375268091,459,"18 N FOURTH AVENUE, STURGEON BAY, WI, 54235","Match","Exact","18 N 4TH AVE, STURGEON BAY, WI, 54235",167249156,"R"
89960,"18 N MAIN STREET","MECHANICSBURG","OH",43044,40.072367296,-83.556322869,460,"18 N MAIN STREET, MECHANICSBURG, OH, 43044","Match","Exact","18 N MAIN ST, MECHANICSBURG, OH, 43044",134663621,"L"
89961,"18 N WALKER RD","HAMPTON","VA",23666,37.0354873790001,-76.4065963039999,461,"18 N WALKER RD, HAMPTON, VA, 23666","Match","Exact","18 N WALKER RD, HAMPTON, VA, 23666",103755887,"R"
89962,"18 NASH STREET APT 2","NEW HAVEN","CT",6511,41.3166080550001,-72.909960755,462,"18 NASH STREET APT 2, NEW HAVEN, CT, 6511","Match","Exact","18 NASH ST, NEW HAVEN, CT, 06511",3701523,"L"
89963,"18 NELSON PLACE APARTMENT 4","MAPLEWOOD","NJ",7040,40.717149433,-74.254474936,463,"18 NELSON PLACE APARTMENT 4, MAPLEWOOD, NJ, 7040","Match","Exact","18 NELSON PL, MAPLEWOOD, NJ, 07040",63463213,"R"
89964,"18 NELSON STREET","KEENE","NH",3431,42.937028884,-72.299504172,464,"18 NELSON STREET, KEENE, NH, 3431","Match","Exact","18 NELSON ST, KEENE, NH, 03431",124052617,"L"
89965,"18 NEWTON STREET","CAMILLA","GA",31730,31.239633369,-84.209996544,465,"18 NEWTON STREET, CAMILLA, GA, 31730","Match","Exact","18 NEWTON ST, CAMILLA, GA, 31730",84150803,"L"
89966,"18 NORTH 10TH STREET","DARBY","PA",19023,39.9202499530001,-75.2628407989999,466,"18 NORTH 10TH STREET, DARBY, PA, 19023","Match","Exact","18 N 10TH ST, DARBY, PA, 19023",134886380,"R"
89967,"18 NORTH FIRST STREET","PLEASANTVILLE","NJ",8232,39.3936516410001,-74.523254139,467,"18 NORTH FIRST STREET, PLEASANTVILLE, NJ, 8232","Match","Exact","18 N 1ST ST, PLEASANTVILLE, NJ, 08232",202486235,"R"
89968,"18 NORTH JEFFERSON AVENUE","COOKEVILLE","TN",38501,36.163606777,-85.500092283,468,"18 NORTH JEFFERSON AVENUE, COOKEVILLE, TN, 38501","Match","Exact","18 N JEFFERSON AVE, COOKEVILLE, TN, 38501",617748955,"R"
89969,"18 NORTH LOCUST ST","HAGERSTOWN","MD",21740,39.64147523,-77.717405938,469,"18 NORTH LOCUST ST, HAGERSTOWN, MD, 21740","Match","Exact","18 N LOCUST ST, HAGERSTOWN, MD, 21740",612158707,"R"
89970,"18 NORTH MADISON AVENUE SUITE 100","COOKEVILLE","TN",38501,36.163804768,-85.5006209749999,470,"18 NORTH MADISON AVENUE SUITE 100, COOKEVILLE, TN, 38501","Match","Exact","18 N MADISON AVE, COOKEVILLE, TN, 38501",25141269,"R"
89971,"18 NORTH MAIN STREET","MECHANICSBURG","OH",43044,40.0723471960001,-83.556302483,471,"18 NORTH MAIN STREET, MECHANICSBURG, OH, 43044","Match","Exact","18 N MAIN ST, MECHANICSBURG, OH, 43044",134663621,"L"
89972,"18 NORTHFIELD ROAD","GLEN COVE","NY",11542,40.868192503,-73.649702776,472,"18 NORTHFIELD ROAD, GLEN COVE, NY, 11542","Match","Exact","18 NORTHFIELD RD, GLEN COVE, NY, 11542",147657870,"R"
89973,"18 NORTHGATE VILLAGE","BURLINGTON TOWNSHIP","NJ",8016,40.052872119,-74.8379861289999,473,"18 NORTHGATE VILLAGE, BURLINGTON TOWNSHIP, NJ, 8016","Match","Exact","18 NORTHGATE VILLAGE, BURLINGTON TOWNSHIP, NJ, 08016",629318569,"R"
89974,"18 NOTTING HILL PLACE","GURLEY","AL",35748,34.7016969950001,-86.433403303,474,"18 NOTTING HILL PLACE, GURLEY, AL, 35748","Match","Exact","18 NOTTING HILL PL, GURLEY, AL, 35748",648180624,"R"
89975,"18 OAK KNOLL LANE","CEDARTOWN","GA",30125,34.009067664,-85.226622713,475,"18 OAK KNOLL LANE, CEDARTOWN, GA, 30125","Match","Non_Exact","18 OAK KNOLL RD, CEDARTOWN, GA, 30125",29622034,"R"
89976,"18 OAK LEAF BLUFF CT","SAINT CHARLES","MO",63304,38.7240412350001,-90.586133288,476,"18 OAK LEAF BLUFF CT, SAINT CHARLES, MO, 63304","Match","Exact","18 OAK LEAF BLUFF CT, SAINT CHARLES, MO, 63304",100078315,"R"
89977,"18 OAK RIDGE RD","LYNN","MA",1904,42.499338375,-70.9659770059999,477,"18 OAK RIDGE RD, LYNN, MA, 1904","Match","Exact","18 OAK RIDGE RD, LYNN, MA, 01904",86635575,"L"
89978,"18 OAK STREET SUITE 974","BRENTWOOD","CA",94513,37.934520503,-121.691486543,478,"18 OAK STREET SUITE 974, BRENTWOOD, CA, 94513","Match","Exact","18 OAK ST, BRENTWOOD, CA, 94513",192069694,"R"
89979,"18 OAKES BLVD","SAN LEANDRO","CA",94577,37.7301223950001,-122.159316044,479,"18 OAKES BLVD, SAN LEANDRO, CA, 94577","Match","Exact","18 OAKES BLVD, SAN LEANDRO, CA, 94577",125012022,"L"
89980,"18 OAKWOOD PLACE","DELMAR","NY",12054,42.6229589160001,-73.826512868,480,"18 OAKWOOD PLACE, DELMAR, NY, 12054","Match","Exact","18 OAKWOOD PL, DELMAR, NY, 12054",18309106,"L"
89981,"18 OLD KEMP HOLLOW LN","PLEASANT SHADE","TN",37145,36.3227417150001,-85.972622445,481,"18 OLD KEMP HOLLOW LN, PLEASANT SHADE, TN, 37145","Match","Exact","18 OLD KEMP HOLLOW LN, PLEASANT SHADE, TN, 37145",632537252,"R"
89982,"18 OLD LAMPASAS TRAIL","ODESSA","TX",79765,31.896311397,-102.299065282,482,"18 OLD LAMPASAS TRAIL, ODESSA, TX, 79765","Match","Non_Exact","18 OLD LAMPASAS, ODESSA, TX, 79765",633976063,"L"
89983,"18 ORCHARD HILL ROAD","HARWINTON","CT",6791,41.7686675250001,-73.094500726,483,"18 ORCHARD HILL ROAD, HARWINTON, CT, 6791","Match","Exact","18 ORCHARD HILL RD, HARWINTON, CT, 06791",3103605,"L"
89984,"18 OSBORNE ST APT 7","WHITE PLAINS","NY",10606,NA,NA,484,"18 OSBORNE ST APT 7, WHITE PLAINS, NY, 10606","Tie",NA,NA,NA,NA
89985,"18 OSSIAN STREET","DANSVILLE","NY",14437,42.5604407770001,-77.6978502009999,485,"18 OSSIAN STREET, DANSVILLE, NY, 14437","Match","Exact","18 OSSIAN ST, DANSVILLE, NY, 14437",14469022,"L"
89986,"18 OUTLOOK RD","WAKEFIELD","MA",1880,42.5071297690001,-71.0896951999999,486,"18 OUTLOOK RD, WAKEFIELD, MA, 1880","Match","Exact","18 OUTLOOK RD, WAKEFIELD, MA, 01880",86913047,"L"
89987,"18 OXFORD PLACE","MADISON","WI",53704,43.1095035120001,-89.364219448,487,"18 OXFORD PLACE, MADISON, WI, 53704","Match","Exact","18 OXFORD PL, MADISON, WI, 53704",49472600,"R"
89988,"18 PAEDEGAT ST","BROOKLYN","NY",11236,NA,NA,488,"18 PAEDEGAT ST, BROOKLYN, NY, 11236","No_Match",NA,NA,NA,NA
89989,"18 PAIGE AVE","CABOT","AR",72023,34.9615161500001,-92.027206597,489,"18 PAIGE AVE, CABOT, AR, 72023","Match","Exact","18 PAIGE AVE, CABOT, AR, 72023",79707069,"R"
89990,"18 PARK STREET","SANFORD","ME",4073,43.432897015,-70.7739204059999,490,"18 PARK STREET, SANFORD, ME, 4073","Match","Exact","18 PARK ST, SANFORD, ME, 04073",92775343,"L"
89991,"18 PARK VIEW AVE PENTHOUSE 43","JERSEY CITY","NJ",7302,40.7136923900001,-74.043545448,491,"18 PARK VIEW AVE PENTHOUSE 43, JERSEY CITY, NJ, 7302","Match","Exact","18 PARK VIEW AVE, JERSEY CITY, NJ, 07302",648386582,"R"
89992,"18 PARKVIEW DR","WESTVILLE","NJ",8093,39.86310974,-75.1238930609999,492,"18 PARKVIEW DR, WESTVILLE, NJ, 8093","Match","Exact","18 PARKVIEW DR, WESTVILLE, NJ, 08093",134583866,"R"
89993,"18 PATRIOTS ROAD","STRATHAM","NH",3885,43.021886244,-70.92180762,493,"18 PATRIOTS ROAD, STRATHAM, NH, 3885","Match","Exact","18 PATRIOTS RD, STRATHAM, NH, 03885",648227070,"R"
89994,"18 PATTON CEMETERY RD","SWANNANOA","NC",28778,35.60500268,-82.403501268,494,"18 PATTON CEMETERY RD, SWANNANOA, NC, 28778","Match","Non_Exact","18 PATTON CEMETARY RD, SWANNANOA, NC, 28778",36879192,"R"
89995,"18 PEAK STREET","STAMFORD","CT",6905,41.1077865070001,-73.550231265,495,"18 PEAK STREET, STAMFORD, CT, 6905","Match","Exact","18 PEAK ST, STAMFORD, CT, 06905",3242256,"L"
89996,"18 PEARSON STREET","BEVERLY","MA",1915,42.560116474,-70.893079949,496,"18 PEARSON STREET, BEVERLY, MA, 1915","Match","Exact","18 PEARSON ST, BEVERLY, MA, 01915",86641892,"L"
89997,"18 PETERS LANE","POUND RIDGE","NY",10576,41.2010466,-73.54384196,497,"18 PETERS LANE, POUND RIDGE, NY, 10576","Match","Exact","18 PETERS LN, POUND RIDGE, NY, 10576",139762932,"L"
89998,"18 PETZ RD","STAFFORD SPRINGS","CT",6076,NA,NA,498,"18 PETZ RD, STAFFORD SPRINGS, CT, 6076","No_Match",NA,NA,NA,NA
89999,"18 PHILLIPS ROAD","ANDREWS","NC",28901,NA,NA,499,"18 PHILLIPS ROAD, ANDREWS, NC, 28901","No_Match",NA,NA,NA,NA
90000,"18 PHILMONT DR","HAMPTON","VA",23666,37.0869903920001,-76.432414965,500,"18 PHILMONT DR, HAMPTON, VA, 23666","Match","Exact","18 PHILMONT DR, HAMPTON, VA, 23666",103763764,"R"
