"ID","Address","City","State","Zip","lat","long","id","input_address","match_indicator","match_type","matched_address","tiger_line_id","tiger_side"
287001,"76 KINGWOOD AVENUE","FRENCHTOWN","NJ",8825,40.523729926,-75.053131491,1,"76 KINGWOOD AVENUE, FRENCHTOWN, NJ, 8825","Match","Exact","76 KINGWOOD AVE, FRENCHTOWN, NJ, 08825",60015527,"L"
287002,"76 LAFAYETTE AVENUE","BROOKLYN","NY",11217,40.6871681490001,-73.974799331,2,"76 LAFAYETTE AVENUE, BROOKLYN, NY, 11217","Match","Exact","76 LAFAYETTE AVE, BROOKLYN, NY, 11217",59077664,"R"
287003,"76 LAKE STREET","PEABODY","MA",1960,42.5398156620001,-71.003151037,3,"76 LAKE STREET, PEABODY, MA, 1960","Match","Exact","76 LAKE ST, PEABODY, MA, 01960",86700333,"L"
287004,"76 LAKESHORE DRIVE","PARSIPPANY","NJ",7054,40.8521428540001,-74.426887966,4,"76 LAKESHORE DRIVE, PARSIPPANY, NJ, 7054","Match","Non_Exact","76 LAKE SHORE DR, PARSIPPANY, NJ, 07054",60446838,"L"
287005,"76 LIVE OAK AVE","LAREDO","TX",78045,27.5745276800001,-99.485139218,5,"76 LIVE OAK AVE, LAREDO, TX, 78045","Match","Exact","76 LIVE OAK AVE, LAREDO, TX, 78045",618555294,"R"
287006,"76 LOU GROZA BLVD","BEREA","OH",44017,NA,NA,6,"76 LOU GROZA BLVD, BEREA, OH, 44017","No_Match",NA,NA,NA,NA
287007,"76 LOWER MAIN STREET","NORTH BERWICK","ME",3906,43.300936091,-70.7265102439999,7,"76 LOWER MAIN STREET, NORTH BERWICK, ME, 3906","Match","Exact","76 LOWER MAIN ST, NORTH BERWICK, ME, 03906",92779177,"L"
287008,"76 LYNN CIRCLE","BRODHEAD","KY",40409,37.4084686940001,-84.4141341609999,8,"76 LYNN CIRCLE, BRODHEAD, KY, 40409","Match","Non_Exact","76 LYNN CIRCLE DR, BRODHEAD, KY, 40409",98152431,"R"
287009,"76 MAIN ST","LIVERMORE FALLS","ME",4254,44.4752525660001,-70.191567086,9,"76 MAIN ST, LIVERMORE FALLS, ME, 4254","Match","Exact","76 MAIN ST, LIVERMORE FALLS, ME, 04254",77964621,"L"
287010,"76 MAIN STREET PO BOX 31","LITTLETON","NH",3561,44.306653522,-71.7726497259999,10,"76 MAIN STREET PO BOX 31, LITTLETON, NH, 3561","Match","Exact","76 MAIN ST, LITTLETON, NH, 03561",145671977,"R"
287011,"76 MAIN STREET","LILBURN","GA",30047,33.885886084,-84.1343486499999,11,"76 MAIN STREET, LILBURN, GA, 30047","Match","Non_Exact","76 MAIN ST NW, LILBURN, GA, 30047",88886781,"R"
287012,"76 MAMARONECK AVE","WHITE PLAINS","NY",10601,41.030854011,-73.766113288,12,"76 MAMARONECK AVE, WHITE PLAINS, NY, 10601","Match","Exact","76 MAMARONECK AVE, WHITE PLAINS, NY, 10601",139741552,"R"
287013,"76 MANSION RIDGE BOULEVARD","MONROE","NY",10950,41.297058146,-74.1819519009999,13,"76 MANSION RIDGE BOULEVARD, MONROE, NY, 10950","Match","Exact","76 MANSION RIDGE BLVD, MONROE, NY, 10950",124463158,"R"
287014,"76 MILL ROAD","STONE RIDGE","NY",12484,41.8844809570001,-74.208022816,14,"76 MILL ROAD, STONE RIDGE, NY, 12484","Match","Exact","76 MILL RD, STONE RIDGE, NY, 12484",648151224,"L"
287015,"76 MILLER ST","MIDDLEBORO","MA",2346,41.8438506250001,-70.860841916,15,"76 MILLER ST, MIDDLEBORO, MA, 2346","Match","Exact","76 MILLER ST, MIDDLEBORO, MA, 02346",87419953,"L"
287016,"76 MONTBLEU DR","GETZVILLE","NY",14068,43.0220065880001,-78.746461204,16,"76 MONTBLEU DR, GETZVILLE, NY, 14068","Match","Exact","76 MONTBLEU DR, GETZVILLE, NY, 14068",48285320,"L"
287017,"76 MOOSE LN","ROCHESTER","NH",3867,43.312463645,-70.9512464379999,17,"76 MOOSE LN, ROCHESTER, NH, 3867","Match","Exact","76 MOOSE LN, ROCHESTER, NH, 03867",117817885,"L"
287018,"76 MORGAN ROAD","NORTH FERRISBURGH","VT",5473,44.261055319,-73.1883883519999,18,"76 MORGAN ROAD, NORTH FERRISBURGH, VT, 5473","Match","Exact","76 MORGAN RD, N FERRISBURGH, VT, 05473",136452461,"L"
287019,"76 MORRIS STREET","YONKERS","NY",10705,40.92202723,-73.89992211,19,"76 MORRIS STREET, YONKERS, NY, 10705","Match","Exact","76 MORRIS ST, YONKERS, NY, 10705",139804481,"L"
287020,"76 MOTT STREET APT 1F","NEW YORK","NY",10013,40.7164273320001,-73.997992036,20,"76 MOTT STREET APT 1F, NEW YORK, NY, 10013","Match","Exact","76 MOTT ST, NEW YORK, NY, 10013",59653819,"R"
287021,"76 MOUNTIANVIEW ROAD","MILBURN","NJ",7041,40.7210721000001,-74.302302474,21,"76 MOUNTIANVIEW ROAD, MILBURN, NJ, 7041","Match","Non_Exact","76 MOUNTAINVIEW RD, MILLBURN, NJ, 07041",63461922,"L"
287022,"76 N BRODWAY STE 2008","HICKSVILLE","NY",11801,40.76725744,-73.523642028,22,"76 N BRODWAY STE 2008, HICKSVILLE, NY, 11801","Match","Non_Exact","76 BROADWAY, HICKSVILLE, NY, 11801",147626438,"R"
287023,"76 N UNION STREET","ROCHESTER","NY",14607,43.1584584610001,-77.595106935,23,"76 N UNION STREET, ROCHESTER, NY, 14607","Match","Exact","76 N UNION ST, ROCHESTER, NY, 14607",14540310,"R"
287024,"76 NORTH FRANKLIN STREET","POTTSTOWN","PA",19464,40.2466321310001,-75.6439265619999,24,"76 NORTH FRANKLIN STREET, POTTSTOWN, PA, 19464","Match","Exact","76 N FRANKLIN ST, POTTSTOWN, PA, 19464",135062019,"R"
287025,"76 NW 97TH STREET","MIAMI SHORES","FL",33150,25.8642314200001,-80.199029341,25,"76 NW 97TH STREET, MIAMI SHORES, FL, 33150","Match","Exact","76 NW 97TH ST, MIAMI SHORES, FL, 33150",116003348,"L"
287026,"76 OAKLAND AVENUE","CAMILLA","GA",31730,NA,NA,26,"76 OAKLAND AVENUE, CAMILLA, GA, 31730","Tie",NA,NA,NA,NA
287027,"76 OLD LIME KILN RD","ARDEN","NC",28704,35.4456779330001,-82.5208865659999,27,"76 OLD LIME KILN RD, ARDEN, NC, 28704","Match","Exact","76 OLD LIME KILN RD, ARDEN, NC, 28704",36886974,"R"
287028,"76 OLD MILL RD","LEE","NH",3861,43.159123445,-70.9923842809999,28,"76 OLD MILL RD, LEE, NH, 3861","Match","Exact","76 OLD MILL RD, LEE, NH, 03861",117805407,"R"
287029,"76 ONONDAGA LANE","MANCHESTER","NY",14504,42.9765489580001,-77.224933408,29,"76 ONONDAGA LANE, MANCHESTER, NY, 14504","Match","Exact","76 ONONDAGA LN, MANCHESTER, NY, 14504",13487699,"R"
287030,"76 OUTLOOK AVE","CHESHIRE","MA",1225,42.566083082,-73.170652854,30,"76 OUTLOOK AVE, CHESHIRE, MA, 1225","Match","Exact","76 OUTLOOK AVE, CHESHIRE, MA, 01225",3945836,"L"
287031,"76 PAXTON ROAD","SPENCER","MA",1562,42.2669562900001,-71.9752228199999,31,"76 PAXTON ROAD, SPENCER, MA, 1562","Match","Exact","76 PAXTON RD, SPENCER, MA, 01562",40003865,"L"
287032,"76 PENBROOK CIRCLE","APPLETON","WI",54913,44.3050879840001,-88.412310199,32,"76 PENBROOK CIRCLE, APPLETON, WI, 54913","Match","Exact","76 PENBROOK CIR, APPLETON, WI, 54913",74915701,"R"
287033,"76 PERIWINKLE CIRCLE","TINTON FALLS","NJ",7712,40.2376768250001,-74.077634254,33,"76 PERIWINKLE CIRCLE, TINTON FALLS, NJ, 7712","Match","Exact","76 PERIWINKLE CIR, TINTON FALLS, NJ, 07712",90601837,"R"
287034,"76 PHELPS ROAD","OLD CHATHAM","NY",12136,42.407038055,-73.5905020009999,34,"76 PHELPS ROAD, OLD CHATHAM, NY, 12136","Match","Exact","76 PHELPS RD, OLD CHATHAM, NY, 12136",41483139,"R"
287035,"76 PICKERING STREET","DANVERS","MA",1923,42.5703711990001,-70.9479808409999,35,"76 PICKERING STREET, DANVERS, MA, 1923","Match","Exact","76 PICKERING ST, DANVERS, MA, 01923",86639025,"L"
287036,"76 PIERPONT ST UNIT 2","NEW HAVEN","CT",6513,41.3070344920001,-72.894065977,36,"76 PIERPONT ST UNIT 2, NEW HAVEN, CT, 6513","Match","Exact","76 PIERPONT ST, NEW HAVEN, CT, 06513",3703855,"L"
287037,"76 POPLAR DRIVE","SPRUCE PINE","NC",28777,35.9182419480001,-82.058987115,37,"76 POPLAR DRIVE, SPRUCE PINE, NC, 28777","Match","Exact","76 POPLAR DR, SPRUCE PINE, NC, 28777",37299583,"R"
287038,"76 PROGRESS DRIVE SUITE 218A","STAMFORD","CT",6902,41.054364225,-73.560106794,38,"76 PROGRESS DRIVE SUITE 218A, STAMFORD, CT, 6902","Match","Exact","76 PROGRESS DR, STAMFORD, CT, 06902",648738144,"R"
287039,"76 RAILROAD STREET","MECHANICVILLE","NY",12118,42.906675567,-73.691693366,39,"76 RAILROAD STREET, MECHANICVILLE, NY, 12118","Match","Exact","76 RAILROAD ST, MECHANICVILLE, NY, 12118",18770162,"R"
287040,"76 RIVERDALE AVENUE","BROOKLYN","NY",11212,40.6601991430001,-73.9139900929999,40,"76 RIVERDALE AVENUE, BROOKLYN, NY, 11212","Match","Exact","76 RIVERDALE AVE, BROOKLYN, NY, 11212",59084000,"R"
287041,"76 RIVERSIDE LN","RIVERSIDE","CT",6878,41.046181829,-73.585160158,41,"76 RIVERSIDE LN, RIVERSIDE, CT, 6878","Match","Exact","76 RIVERSIDE LN, RIVERSIDE, CT, 06878",3244123,"L"
287042,"76 RT 24","CHESTER","NJ",7930,40.7791119030001,-74.7162949579999,42,"76 RT 24, CHESTER, NJ, 7930","Match","Non_Exact","76 STATE RTE 24, CHESTER, NJ, 07930",60515046,"R"
287043,"76 RUNNER STONE DRIVE","EVINGTON","VA",24550,37.274640731,-79.290025656,43,"76 RUNNER STONE DRIVE, EVINGTON, VA, 24550","Match","Exact","76 RUNNER STONE DR, EVINGTON, VA, 24550",644895184,"L"
287044,"76 S BERGEN PL APT 3M","FREEPORT","NY",11520,NA,NA,44,"76 S BERGEN PL APT 3M, FREEPORT, NY, 11520","Tie",NA,NA,NA,NA
287045,"76 S MAIN ST","EAST WINDSOR","CT",6088,41.9017761330001,-72.610760276,45,"76 S MAIN ST, EAST WINDSOR, CT, 6088","Match","Exact","76 S MAIN ST, EAST WINDSOR, CT, 06088",3481477,"R"
287046,"76 S THIRD ST PO BOX 612","MOUNT WOLF","PA",17347,NA,NA,46,"76 S THIRD ST PO BOX 612, MOUNT WOLF, PA, 17347","Tie",NA,NA,NA,NA
287047,"76 SHELTER LANE","ROSLYN HEIGHTS","NY",11577,40.7749153440001,-73.6382261379999,47,"76 SHELTER LANE, ROSLYN HEIGHTS, NY, 11577","Match","Exact","76 SHELTER LN, ROSLYN HEIGHTS, NY, 11577",147664096,"R"
287048,"76 SHEPPARD ROAD","BEAUFORT","SC",29907,32.4525409180001,-80.624114786,48,"76 SHEPPARD ROAD, BEAUFORT, SC, 29907","Match","Exact","76 SHEPPARD RD, BEAUFORT, SC, 29907",87645894,"R"
287049,"76 SIMONDS AVENUE","CANTON","CT",6019,41.823677151,-72.916057673,49,"76 SIMONDS AVENUE, CANTON, CT, 6019","Match","Exact","76 SIMONDS AVE, CANTON, CT, 06019",648732879,"L"
287050,"76 SOUTH STREET","LAWRENCEVILLE","VA",23868,36.7654549330001,-77.8303002229999,50,"76 SOUTH STREET, LAWRENCEVILLE, VA, 23868","Match","Exact","76 SOUTH ST, LAWRENCEVILLE, VA, 23868",54030027,"R"
287051,"76 ST ALBANS PLACE","STATEN ISLAND","NY",10312,40.5442669460001,-74.160748627,51,"76 ST ALBANS PLACE, STATEN ISLAND, NY, 10312","Match","Exact","76 SAINT ALBANS PL, STATEN ISLAND, NY, 10312",59875441,"L"
287052,"76 ST PAUL STREET","BURLINGTON","VT",5401,44.477851849,-73.21416665,52,"76 ST PAUL STREET, BURLINGTON, VT, 5401","Match","Exact","76 SAINT PAUL ST, BURLINGTON, VT, 05401",135827953,"L"
287053,"76 ST PAUL STREET","BURLINGTON","VT",5402,NA,NA,53,"76 ST PAUL STREET, BURLINGTON, VT, 5402","No_Match",NA,NA,NA,NA
287054,"76 STATE HIGHWAY 20 W","FREEPORT","FL",32439,30.498771979,-86.137730178,54,"76 STATE HIGHWAY 20 W, FREEPORT, FL, 32439","Match","Exact","76 STATE HWY 20 W, FREEPORT, FL, 32439",32960322,"R"
287055,"76 STEPHENS ST","MATTESON","IL",60443,41.5237993100001,-87.7392210469999,55,"76 STEPHENS ST, MATTESON, IL, 60443","Match","Exact","76 STEPHENS ST, MATTESON, IL, 60443",601672213,"R"
287056,"76 STONEBRIDGE DRIVE","EAST AMHERST","NY",14051,43.023846242,-78.7242746009999,56,"76 STONEBRIDGE DRIVE, EAST AMHERST, NY, 14051","Match","Exact","76 STONEBRIDGE DR, EAST AMHERST, NY, 14051",650600970,"L"
287057,"76 STONEGATE DR","HURRICANE","WV",25526,38.4663943800001,-81.924644499,57,"76 STONEGATE DR, HURRICANE, WV, 25526","Match","Exact","76 STONEGATE DR, HURRICANE, WV, 25526",130532145,"L"
287058,"76 SUNSET COVE","FRANKFORT","OH",45628,39.4076671880001,-83.184034842,58,"76 SUNSET COVE, FRANKFORT, OH, 45628","Match","Exact","76 SUNSET COVE, FRANKFORT, OH, 45628",652890593,"R"
287059,"76 SWEETWOOD DRIVE","AMHERST","NY",14228,43.0105903570001,-78.8157399419999,59,"76 SWEETWOOD DRIVE, AMHERST, NY, 14228","Match","Exact","76 SWEETWOOD DR, AMHERST, NY, 14228",48284943,"R"
287060,"76 THURSTON TERRACE","GLEN ROCK","NJ",7452,40.9560356600001,-74.118748645,60,"76 THURSTON TERRACE, GLEN ROCK, NJ, 7452","Match","Exact","76 THURSTON TER, GLEN ROCK, NJ, 07452",64379901,"R"
287061,"76 UNION POINT RD","WEBSTER","MA",1570,42.041017077,-71.853688619,61,"76 UNION POINT RD, WEBSTER, MA, 1570","Match","Exact","76 UNION POINT RD, WEBSTER, MA, 01570",40020544,"R"
287062,"76 W 33ST","BAYONNE","NJ",7002,40.6745143410001,-74.1209074239999,62,"76 W 33ST, BAYONNE, NJ, 7002","Match","Non_Exact","76 WEST DR, BAYONNE, NJ, 07002",59602482,"R"
287063,"76 W JIMMIE LEEDS RD STE 305","GALLOWAY","NJ",8205,39.4730533320001,-74.5187720709999,63,"76 W JIMMIE LEEDS RD STE 305, GALLOWAY, NJ, 8205","Match","Non_Exact","76 E JIMMIE LEEDS RD, GALLOWAY, NJ, 08205",202484556,"R"
287064,"76 WALNUT ST","OXFORD","MA",1540,42.108904398,-71.8784103359999,64,"76 WALNUT ST, OXFORD, MA, 1540","Match","Exact","76 WALNUT ST, OXFORD, MA, 01540",40090078,"L"
287065,"76 WEST ADAMS AVE APT 902","DETROIT","MI",48226,42.3365115440001,-83.052001348,65,"76 WEST ADAMS AVE APT 902, DETROIT, MI, 48226","Match","Non_Exact","76 W ADAMS ST, DETROIT, MI, 48226",95479881,"R"
287066,"76 WESTERN AVE","FOND DU LAC","WI",54935,43.7732584170001,-88.450130225,66,"76 WESTERN AVE, FOND DU LAC, WI, 54935","Match","Exact","76 WESTERN AVE, FOND DU LAC, WI, 54935",74811010,"L"
287067,"76 WHEELER STREET","PEPPERELL","MA",1463,42.68483193,-71.651707296,67,"76 WHEELER STREET, PEPPERELL, MA, 1463","Match","Exact","76 WHEELER ST, PEPPERELL, MA, 01463",87097750,"L"
287068,"76 WHITEFIELD AVE  328","OCEAN GROVE","NJ",7756,40.2116061040001,-74.0124684369999,68,"76 WHITEFIELD AVE  328, OCEAN GROVE, NJ, 7756","Match","Exact","76 WHITEFIELD AVE, OCEAN GROVE, NJ, 07756",636498501,"R"
287069,"76 WILDFLOWER LANE","MORRISTOWN","NJ",7960,40.815429339,-74.517307248,69,"76 WILDFLOWER LANE, MORRISTOWN, NJ, 7960","Match","Exact","76 WILDFLOWER LN, MORRISTOWN, NJ, 07960",60466176,"R"
287070,"76 WILLISTON ROAD","BROOKLINE","MA",2445,42.340371969,-71.140212472,70,"76 WILLISTON ROAD, BROOKLINE, MA, 2445","Match","Exact","76 WILLISTON RD, BROOKLINE, MA, 02445",87332059,"L"
287071,"76 WILLOWDALE AVE","PORT WASHINGTON","NY",11050,40.824964703,-73.6884837219999,71,"76 WILLOWDALE AVE, PORT WASHINGTON, NY, 11050","Match","Exact","76 WILLOWDALE AVE, PORT WASHINGTON, NY, 11050",147659345,"L"
287072,"76 WINSTON AVE","BUFFALO","NY",14216,42.9496381230001,-78.840150106,72,"76 WINSTON AVE, BUFFALO, NY, 14216","Match","Non_Exact","76 WINSTON RD, BUFFALO, NY, 14216",48295906,"L"
287073,"76 WORTH AVENUE","HUDSON","NY",12534,42.242202671,-73.781057741,73,"76 WORTH AVENUE, HUDSON, NY, 12534","Match","Exact","76 WORTH AVE, HUDSON, NY, 12534",41488771,"R"
287074,"76-03 101ST AVENUE","OZONE PARK","NY",11416,40.6799080690001,-73.8613491839999,74,"76-03 101ST AVENUE, OZONE PARK, NY, 11416","Match","Exact","76-3 101ST AVE, OZONE PARK, NY, 11416",640993707,"L"
287075,"76-414 LAKO ST","KAILUA KONA","HI",96740,19.6140913740001,-155.958992503,75,"76-414 LAKO ST, KAILUA KONA, HI, 96740","Match","Exact","76-414 LAKO ST, KAILUA KONA, HI, 96740",203034255,"R"
287076,"76-6170 PLUMERIA ROAD","KAILUA-KONA","HI",96740,19.613474888,-155.976987076,76,"76-6170 PLUMERIA ROAD, KAILUA-KONA, HI, 96740","Match","Exact","76-6170 PLUMERIA RD, KAILUA KONA, HI, 96740",203002829,"L"
287077,"76-6246 ALII DRIVE 365","KAILUA KONA","HI",96740,NA,NA,77,"76-6246 ALII DRIVE 365, KAILUA KONA, HI, 96740","No_Match",NA,NA,NA,NA
287078,"76","CHASSELL","MI",49916,NA,NA,78,"76, CHASSELL, MI, 49916","No_Match",NA,NA,NA,NA
287079,"76","COLUMBIAVILLE","NY",12050,NA,NA,79,"76, COLUMBIAVILLE, NY, 12050","No_Match",NA,NA,NA,NA
287080,"760 7TH STREET SE","WASHINGTON","DC",20003,38.8796803820001,-76.996174173,80,"760 7TH STREET SE, WASHINGTON, DC, 20003","Match","Exact","760 7TH ST SE, WASHINGTON, DC, 20003",76241576,"L"
287081,"760 ALBATROSS DRIVE","IONE","CA",95640,38.3526266810001,-120.950079955,81,"760 ALBATROSS DRIVE, IONE, CA, 95640","Match","Exact","760 ALBATROSS DR, IONE, CA, 95640",646561563,"L"
287082,"760 ALTAM AVENUE","CARMEL","IN",46032,39.975348438,-86.1151962389999,82,"760 ALTAM AVENUE, CARMEL, IN, 46032","Match","Exact","760 ALTAM AVE, CARMEL, IN, 46032",29295109,"R"
287083,"760 ANDERSON STREET","CARLINVILLE","IL",62626,39.286120291,-89.887770056,83,"760 ANDERSON STREET, CARLINVILLE, IL, 62626","Match","Exact","760 ANDERSON ST, CARLINVILLE, IL, 62626",97915852,"L"
287084,"760 ASHBOURNE AVE","LINDENWOLD","NJ",8021,39.815659119,-74.966141351,84,"760 ASHBOURNE AVE, LINDENWOLD, NJ, 8021","Match","Exact","760 ASHBOURNE AVE, LINDENWOLD, NJ, 08021",134362250,"L"
287085,"760 ATLANTIC ST UNIT 10E","BRIDGEPORT","CT",6604,41.1641486120001,-73.196880155,85,"760 ATLANTIC ST UNIT 10E, BRIDGEPORT, CT, 6604","Match","Exact","760 ATLANTIC ST, BRIDGEPORT, CT, 06604",3229016,"R"
287086,"760 BECKY COURT","FAYETTEVILLE","GA",30214,33.4582079320001,-84.482279665,86,"760 BECKY COURT, FAYETTEVILLE, GA, 30214","Match","Exact","760 BECKY CT, FAYETTEVILLE, GA, 30214",635758161,"R"
287087,"760 BIRO DRIVE","PORT ORANGE","FL",32129,29.144126339,-81.004610836,87,"760 BIRO DRIVE, PORT ORANGE, FL, 32129","Match","Exact","760 BIRO DR, PORT ORANGE, FL, 32129",94527704,"R"
287088,"760 BOLTON RD NW","ATLANTA","GA",30331,33.775554335,-84.50420851,88,"760 BOLTON RD NW, ATLANTA, GA, 30331","Match","Exact","760 BOLTON RD NW, ATLANTA, GA, 30331",17336715,"L"
287089,"760 BRAINERD STREET","DANVILLE","VT",5828,44.4036762850001,-72.129740184,89,"760 BRAINERD STREET, DANVILLE, VT, 5828","Match","Exact","760 BRAINERD ST, DANVILLE, VT, 05828",181065952,"L"
287090,"760 BRIDGEVIEW BAY","NORTON SHORES","MI",49441,43.1761467600001,-86.263077218,90,"760 BRIDGEVIEW BAY, NORTON SHORES, MI, 49441","Match","Non_Exact","760 BRIDGEVIEW BAY LN, NORTON SHORES, MI, 49441",77659803,"L"
287091,"760 BROADWAY AVE NW","GRAND RAPIDS","MI",49504,42.9772917970001,-85.6794877739999,91,"760 BROADWAY AVE NW, GRAND RAPIDS, MI, 49504","Match","Exact","760 BROADWAY AVE NW, GRAND RAPIDS, MI, 49504",12456972,"R"
287092,"760 BROADWAY RM 2B-101","BROOKLYN","NY",11206,40.7005011260001,-73.9415415129999,92,"760 BROADWAY RM 2B-101, BROOKLYN, NY, 11206","Match","Exact","760 BROADWAY, BROOKLYN, NY, 11206",59078977,"R"
287093,"760 BROWN ST","TECUMSEH","MI",49286,42.0139785330001,-83.957410897,93,"760 BROWN ST, TECUMSEH, MI, 49286","Match","Exact","760 BROWN ST, TECUMSEH, MI, 49286",25952752,"L"
287094,"760 CABARRUS AVENUE","CONCORD","NC",28025,NA,NA,94,"760 CABARRUS AVENUE, CONCORD, NC, 28025","No_Match",NA,NA,NA,NA
287095,"760 CASHIERS LAKE ROAD/2283","CASHIERS","NC",28717,35.1037451220001,-83.105329775,95,"760 CASHIERS LAKE ROAD/2283, CASHIERS, NC, 28717","Match","Non_Exact","760 CASHIERS LAKE RD, CASHIERS, NC, 28717",35990781,"R"
287096,"760 CIRCLE DR","LEBEC","CA",93243,34.839942819,-118.867142075,96,"760 CIRCLE DR, LEBEC, CA, 93243","Match","Exact","760 CIRCLE DR, LEBEC, CA, 93243",649765800,"R"
287097,"760 CLIFFTOP DR","GAITHERSBURG","MD",20878,39.121149013,-77.215414912,97,"760 CLIFFTOP DR, GAITHERSBURG, MD, 20878","Match","Exact","760 CLIFFTOP DR, GAITHERSBURG, MD, 20878",62090006,"L"
287098,"760 CLYMER ROAD","MARYSVILLE","OH",43040,40.2271142860001,-83.350118121,98,"760 CLYMER ROAD, MARYSVILLE, OH, 43040","Match","Exact","760 CLYMER RD, MARYSVILLE, OH, 43040",635516576,"L"
287099,"760 COOPER STREET","AGAWAM","MA",1001,42.0727533300001,-72.64269297,99,"760 COOPER STREET, AGAWAM, MA, 1001","Match","Exact","760 COOPER ST, AGAWAM, MA, 01001",642366507,"R"
287100,"760 COUNTY ROAD 3071","LAMPASAS","TX",76550,31.0877013,-98.0916486099999,100,"760 COUNTY ROAD 3071, LAMPASAS, TX, 76550","Match","Exact","760 CO RD 3071, LAMPASAS, TX, 76550",146698181,"L"
287101,"760 D STREET NE","LINTON","IN",47441,NA,NA,101,"760 D STREET NE, LINTON, IN, 47441","No_Match",NA,NA,NA,NA
287102,"760 E 33 STREET","HIALEAH","FL",33013,25.852602302,-80.267318695,102,"760 E 33 STREET, HIALEAH, FL, 33013","Match","Exact","760 E 33RD ST, HIALEAH, FL, 33013",115999299,"R"
287103,"760 E CENTER STREET","CHINO VALLEY","AZ",86323,34.745591856,-112.450806373,103,"760 E CENTER STREET, CHINO VALLEY, AZ, 86323","Match","Exact","760 E CENTER ST, CHINO VALLEY, AZ, 86323",159450847,"L"
287104,"760 EAST CENTER STREET","CHINO VALLEY","AZ",86323,34.745591775,-112.450814853,104,"760 EAST CENTER STREET, CHINO VALLEY, AZ, 86323","Match","Exact","760 E CENTER ST, CHINO VALLEY, AZ, 86323",159450847,"L"
287105,"760 EAST KING SUITE 105","MERIDIAN","ID",83642,43.6065800050001,-116.381700621,105,"760 EAST KING SUITE 105, MERIDIAN, ID, 83642","Match","Non_Exact","760 E KING ST, MERIDIAN, ID, 83642",117875915,"L"
287106,"760 EAST WASHINGTON STREET","MONTICELLO","FL",32344,30.5451479590001,-83.863862055,106,"760 EAST WASHINGTON STREET, MONTICELLO, FL, 32344","Match","Exact","760 E WASHINGTON ST, MONTICELLO, FL, 32344",610850022,"R"
287107,"760 EAYRESTOWN RD APT A13-10","LUMBERTON","NJ",8048,39.9782245310001,-74.7824414569999,107,"760 EAYRESTOWN RD APT A13-10, LUMBERTON, NJ, 8048","Match","Exact","760 EAYRESTOWN RD, LUMBERTON, NJ, 08048",134035999,"L"
287108,"760 ELDERT LANE APT 10E","BROOKLYN","NY",11208,40.6713861040001,-73.863303005,108,"760 ELDERT LANE APT 10E, BROOKLYN, NY, 11208","Match","Exact","760 ELDERT LN, BROOKLYN, NY, 11208",609089629,"R"
287109,"760 ELMBROOK DRIVE","SIMPSONVILLE","SC",29681,34.7698620200001,-82.281209297,109,"760 ELMBROOK DRIVE, SIMPSONVILLE, SC, 29681","Match","Exact","760 ELMBROOK DR, SIMPSONVILLE, SC, 29681",652040079,"L"
287110,"760 FIDDLELEAF CIRCLE","WEST MELBOURNE","FL",32904,28.049336926,-80.688892514,110,"760 FIDDLELEAF CIRCLE, WEST MELBOURNE, FL, 32904","Match","Exact","760 FIDDLELEAF CIR, W MELBOURNE, FL, 32904",653176986,"L"
287111,"760 HICKORY HILL ROAD","WYCKOFF","NJ",7481,40.9784422000001,-74.179344676,111,"760 HICKORY HILL ROAD, WYCKOFF, NJ, 7481","Match","Exact","760 HICKORY HILL RD, WYCKOFF, NJ, 07481",64404359,"L"
287112,"760 HWY 77","ATWOOD","TN",38220,35.9754168810001,-88.655640643,112,"760 HWY 77, ATWOOD, TN, 38220","Match","Non_Exact","760 STATE RTE 77, ATWOOD, TN, 38220",647502151,"L"
287113,"760 IVY ST","DENVER","CO",80220,39.7283751190001,-104.920550698,113,"760 IVY ST, DENVER, CO, 80220","Match","Exact","760 IVY ST, DENVER, CO, 80220",177339717,"R"
287114,"760 JAZMIN AVE","VENTURA","CA",93004,34.2846813210001,-119.160193538,114,"760 JAZMIN AVE, VENTURA, CA, 93004","Match","Exact","760 JAZMIN AVE, VENTURA, CA, 93004",109957415,"L"
287115,"760 KING STREET","STRATFORD","CT",6614,41.2035235600001,-73.134858836,115,"760 KING STREET, STRATFORD, CT, 6614","Match","Exact","760 KING ST, STRATFORD, CT, 06614",3227723,"R"
287116,"760 KOSTNER DR","SAN DIEGO","CA",92154,32.582787254,-117.041989991,116,"760 KOSTNER DR, SAN DIEGO, CA, 92154","Match","Exact","760 KOSTNER DR, SAN DIEGO, CA, 92154",195364488,"R"
287117,"760 LAKEWOOD BLVD","AKRON","OH",44314,41.0558869120001,-81.5537921,117,"760 LAKEWOOD BLVD, AKRON, OH, 44314","Match","Exact","760 LAKEWOOD BLVD, AKRON, OH, 44314",61343879,"L"
287118,"760 LANCER COURT AP 7","DEPEW","NY",14043,42.9215738560001,-78.7174173399999,118,"760 LANCER COURT AP 7, DEPEW, NY, 14043","Match","Exact","760 LANCER CT, DEPEW, NY, 14043",48335161,"L"
287119,"760 LEGION LAKE RD","VILLA RICA","GA",30180,33.788633475,-84.93850484,119,"760 LEGION LAKE RD, VILLA RICA, GA, 30180","Match","Exact","760 LEGION LAKE RD, VILLA RICA, GA, 30180",618661926,"L"
287120,"760 LEHIGH CIR","ERIE","CO",80516,40.0354461420001,-105.039182993,120,"760 LEHIGH CIR, ERIE, CO, 80516","Match","Exact","760 LEHIGH CIR, ERIE, CO, 80516",188752968,"R"
287121,"760 LIBERTY COMMONS DRIVE NW","ATLANTA","GA",30314,33.7561625860001,-84.41429886,121,"760 LIBERTY COMMONS DRIVE NW, ATLANTA, GA, 30314","Match","Exact","760 LIBERTY COMMONS DR NW, ATLANTA, GA, 30314",647324975,"L"
287122,"760 LITTLE CREEK DR","EULESS","TX",76039,32.8475017870001,-97.08105404,122,"760 LITTLE CREEK DR, EULESS, TX, 76039","Match","Exact","760 LITTLE CREEK DR, EULESS, TX, 76039",101872825,"L"
287123,"760 MARKET AVENUE","MADERA","CA",93636,NA,NA,123,"760 MARKET AVENUE, MADERA, CA, 93636","No_Match",NA,NA,NA,NA
287124,"760 MCKAY WAY","WATERLOO","WI",53594,43.176901763,-89.001039174,124,"760 MCKAY WAY, WATERLOO, WI, 53594","Match","Non_Exact","760 MCKAYWAY, WATERLOO, WI, 53594",53229485,"R"
287125,"760 MCKELLER ST","TOOELE","UT",84074,40.5415858690001,-112.318335628,125,"760 MCKELLER ST, TOOELE, UT, 84074","Match","Non_Exact","760 MCKELLAR ST, TOOELE, UT, 84074",155398823,"R"
287126,"760 MIDVALE LANE","ALMONT","MI",48003,42.9267634600001,-83.0551028,126,"760 MIDVALE LANE, ALMONT, MI, 48003","Match","Exact","760 MIDVALE LN, ALMONT, MI, 48003",110466270,"R"
287127,"760 N CEDARWOOD AVENUE","FAYETTEVILLE","AR",72701,36.0746210780001,-94.185453125,127,"760 N CEDARWOOD AVENUE, FAYETTEVILLE, AR, 72701","Match","Exact","760 N CEDARWOOD AVE, FAYETTEVILLE, AR, 72701",49044692,"R"
287128,"760 N SWALLOW LN","GILBERT","AZ",85234,33.363937343,-111.703942088,128,"760 N SWALLOW LN, GILBERT, AZ, 85234","Match","Exact","760 N SWALLOW LN, GILBERT, AZ, 85234",128809821,"L"
287129,"760 NEWHALL DRIVE 1005","SAN JOSE","CA",95110,37.348467488,-121.923372207,129,"760 NEWHALL DRIVE 1005, SAN JOSE, CA, 95110","Match","Exact","760 NEWHALL DR, SAN JOSE, CA, 95110",640956307,"R"
287130,"760 NORTH 5TH AVENUE","COVINA","CA",91723,34.0936348330001,-117.896214011,130,"760 NORTH 5TH AVENUE, COVINA, CA, 91723","Match","Exact","760 N 5TH AVE, COVINA, CA, 91723",141715106,"R"
287131,"760 NOTRE DAME DRIVE","VACAVILLE","CA",95687,38.3539804870001,-121.943913391,131,"760 NOTRE DAME DRIVE, VACAVILLE, CA, 95687","Match","Exact","760 NOTRE DAME DR, VACAVILLE, CA, 95687",192582731,"R"
287132,"760 OLD ROSWELL RD STE 319","ROSWELL","GA",30076,34.0335504880001,-84.3405940379999,132,"760 OLD ROSWELL RD STE 319, ROSWELL, GA, 30076","Match","Non_Exact","760 OLD ROSWELL RD, ROSWELL, GA, 30076",17367887,"L"
287133,"760 OLD ROSWELL RD SUITE 342","ROSEWELL","GA",30076,34.0335504880001,-84.3405940379999,133,"760 OLD ROSWELL RD SUITE 342, ROSEWELL, GA, 30076","Match","Non_Exact","760 OLD ROSWELL RD, ROSWELL, GA, 30076",17367887,"L"
287134,"760 PARIS STREET","SAN FRANCISCO","CA",94112,37.7170780610001,-122.438428229,134,"760 PARIS STREET, SAN FRANCISCO, CA, 94112","Match","Exact","760 PARIS ST, SAN FRANCISCO, CA, 94112",192286634,"R"
287135,"760 PARKSIDE TRL NW","MARIETTA","GA",30064,33.9719761530001,-84.601765945,135,"760 PARKSIDE TRL NW, MARIETTA, GA, 30064","Match","Exact","760 PARKSIDE TRL NW, MARIETTA, GA, 30064",17219513,"R"
287136,"760 PHEASANT RUN DR","GARY","IN",46342,41.546540335,-87.251316749,136,"760 PHEASANT RUN DR, GARY, IN, 46342","Match","Non_Exact","760 PHEASANT RUN DR, HOBART, IN, 46342",606323813,"L"
287137,"760 PHEASANT RUN DR","HOBART","IN",46342,41.546540335,-87.251316749,137,"760 PHEASANT RUN DR, HOBART, IN, 46342","Match","Exact","760 PHEASANT RUN DR, HOBART, IN, 46342",606323813,"L"
287138,"760 PINE LEAF CT","JOHNS CREEK","GA",30022,34.0293491200001,-84.243906836,138,"760 PINE LEAF CT, JOHNS CREEK, GA, 30022","Match","Exact","760 PINE LEAF CT, JOHNS CREEK, GA, 30022",17394067,"L"
287139,"760 PONCE DE LEON","CORAL GABLES","FL",33134,25.7650900290001,-80.25860689,139,"760 PONCE DE LEON, CORAL GABLES, FL, 33134","Match","Non_Exact","760 PONCE DE LEON BLVD, CORAL GABLES, FL, 33134",116010715,"R"
287140,"760 POTOMAC RIVER RD","MCLEAN","VA",22102,38.9601128480001,-77.2079781479999,140,"760 POTOMAC RIVER RD, MCLEAN, VA, 22102","Match","Exact","760 POTOMAC RIVER RD, MCLEAN, VA, 22102",215951746,"R"
287141,"760 PRINCETON RD","JANESVILLE","WI",53546,42.6922640450001,-88.972100105,141,"760 PRINCETON RD, JANESVILLE, WI, 53546","Match","Exact","760 PRINCETON RD, JANESVILLE, WI, 53546",49855543,"R"
287142,"760 S KIHEI RD UNIT 502","KIHEI","HI",96753,20.7624039130001,-156.458100902,142,"760 S KIHEI RD UNIT 502, KIHEI, HI, 96753","Match","Non_Exact","760 S KIHEI RD, KIHEI, HI, 96753",642245413,"R"
287143,"760 S KIHEI ROAD APT 101","KIHEI","HI",96753,20.7624039130001,-156.458100902,143,"760 S KIHEI ROAD APT 101, KIHEI, HI, 96753","Match","Non_Exact","760 S KIHEI RD, KIHEI, HI, 96753",642245413,"R"
287144,"760 SIDNEY MARCUS BLVD NE UNIT 730","ATLANTA","GA",30324,33.8258879960001,-84.363115227,144,"760 SIDNEY MARCUS BLVD NE UNIT 730, ATLANTA, GA, 30324","Match","Exact","760 SIDNEY MARCUS BLVD NE, ATLANTA, GA, 30324",650107421,"L"
287145,"760 SOUTH MILITARY TRAIL","WEST PALM BEACH","FL",33415,26.6659552260001,-80.112445064,145,"760 SOUTH MILITARY TRAIL, WEST PALM BEACH, FL, 33415","Match","Exact","760 S MILITARY TRL, WEST PALM BEACH, FL, 33415",115272601,"L"
287146,"760 STATE HIGHWAY 187","HAMILTON","AL",35570,NA,NA,146,"760 STATE HIGHWAY 187, HAMILTON, AL, 35570","No_Match",NA,NA,NA,NA
287147,"760 TROMBLEY","GROSSE POINTE PARK","MI",48230,42.373716002,-82.9254148479999,147,"760 TROMBLEY, GROSSE POINTE PARK, MI, 48230","Match","Exact","760 TROMBLEY, GROSSE POINTE PARK, MI, 48230",95704254,"R"
287148,"760 US HWY 1 SUITE 200","NORTH PALM BEACH","FL",33408,26.8196314260001,-80.058526811,148,"760 US HWY 1 SUITE 200, NORTH PALM BEACH, FL, 33408","Match","Non_Exact","760 US HWY 1, NORTH PALM BEACH, FL, 33408",646839688,"L"
287149,"760 US ROUTE 6","MAHOPAC","NY",10541,41.3791125490001,-73.725863443,149,"760 US ROUTE 6, MAHOPAC, NY, 10541","Match","Non_Exact","760 US HWY 6, MAHOPAC, NY, 10541",139679101,"L"
287150,"760 VILLAGE CENTER DRIVE  STE 200","BURR RIDGE","IL",60527,41.753914052,-87.912005709,150,"760 VILLAGE CENTER DRIVE  STE 200, BURR RIDGE, IL, 60527","Match","Exact","760 VILLAGE CENTER DR, BURR RIDGE, IL, 60527",642123108,"R"
287151,"760 W 32ND ST","HOLLAND","MI",49423,42.768325786,-86.140404313,151,"760 W 32ND ST, HOLLAND, MI, 49423","Match","Exact","760 W 32ND ST, HOLLAND, MI, 49423",11447287,"L"
287152,"760 WEST 7TH STREET","WEST PALM BEACH","FL",33404,26.768547862,-80.064610675,152,"760 WEST 7TH STREET, WEST PALM BEACH, FL, 33404","Match","Exact","760 W 7TH ST, WEST PALM BEACH, FL, 33404",115531330,"R"
287153,"760 WEST EISENHOWER PARKWAY STE 120","ANN ARBOR","MI",48103,42.2436902360001,-83.7522819389999,153,"760 WEST EISENHOWER PARKWAY STE 120, ANN ARBOR, MI, 48103","Match","Exact","760 W EISENHOWER PKWY, ANN ARBOR, MI, 48103",26044234,"R"
287154,"760 WEST LINCOLN HIGHWAY","EXTON","PA",19341,NA,NA,154,"760 WEST LINCOLN HIGHWAY, EXTON, PA, 19341","No_Match",NA,NA,NA,NA
287155,"760 WEST NIELSEN AVE","FRESNO","CA",93706,36.743093921,-119.831754605,155,"760 WEST NIELSEN AVE, FRESNO, CA, 93706","Match","Exact","760 W NIELSEN AVE, FRESNO, CA, 93706",197612071,"R"
287156,"760 WEST PALM AVENUE","EL CAJON","CA",92020,32.7913524740001,-116.971685215,156,"760 WEST PALM AVENUE, EL CAJON, CA, 92020","Match","Exact","760 W PALM AVE, EL CAJON, CA, 92020",612880560,"R"
287157,"7600 16TH AVENUE","TAKOMA PARK","MD",20912,38.9828174680001,-76.9840746789999,157,"7600 16TH AVENUE, TAKOMA PARK, MD, 20912","Match","Exact","7600 16TH AVE, TAKOMA PARK, MD, 20912",76303273,"L"
287158,"7600 272ND STREET NW","STANWOOD","WA",98292,48.243086761,-122.339775616,158,"7600 272ND STREET NW, STANWOOD, WA, 98292","Match","Exact","7600 272ND ST NW, STANWOOD, WA, 98292",635070203,"R"
287159,"7600 5TH AVE SE","LACEY","WA",98503,47.046809382,-122.781253502,159,"7600 5TH AVE SE, LACEY, WA, 98503","Match","Exact","7600 5TH AVE SE, LACEY, WA, 98503",180948065,"L"
287160,"7600 ALICO ROAD 12-70","FORT MYERS","FL",33912,26.4926563980001,-81.8287357409999,160,"7600 ALICO ROAD 12-70, FORT MYERS, FL, 33912","Match","Exact","7600 ALICO RD, FORT MYERS, FL, 33912",117978255,"R"
287161,"7600 AMBERGATE PL H117","RIVERSIDE","CA",92504,33.9447122660001,-117.412300338,161,"7600 AMBERGATE PL H117, RIVERSIDE, CA, 92504","Match","Exact","7600 AMBERGATE PL, RIVERSIDE, CA, 92504",194789444,"R"
287162,"7600 BARLOWE ROAD","HYATTSVILLE","MD",20785,38.917003777,-76.8784350019999,162,"7600 BARLOWE ROAD, HYATTSVILLE, MD, 20785","Match","Exact","7600 BARLOWE RD, HYATTSVILLE, MD, 20785",76381097,"L"
287163,"7600 BOXBERRY TERRACE","GAITHERSBURG","MD",20879,39.18090046,-77.1617429469999,163,"7600 BOXBERRY TERRACE, GAITHERSBURG, MD, 20879","Match","Exact","7600 BOXBERRY TER, GAITHERSBURG, MD, 20879",62092279,"R"
287164,"7600 BRANDYWINE ROAD","BOSTON HEIGHTS","OH",44236,41.2693686380001,-81.5207348929999,164,"7600 BRANDYWINE ROAD, BOSTON HEIGHTS, OH, 44236","Match","Exact","7600 BRANDYWINE RD, BOSTON HEIGHTS, OH, 44236",61387074,"L"
287165,"7600 BURGOYNE RD","HOUSTON","TX",77063,29.742674794,-95.501799069,165,"7600 BURGOYNE RD, HOUSTON, TX, 77063","Match","Exact","7600 BURGOYNE RD, HOUSTON, TX, 77063",233389872,"R"
287166,"7600 BURNET RD SUITE 102","AUSTIN","TX",78757,30.352577382,-97.733029253,166,"7600 BURNET RD SUITE 102, AUSTIN, TX, 78757","Match","Exact","7600 BURNET RD, AUSTIN, TX, 78757",641675465,"L"
287167,"7600 CATON FARM ROAD","PLAINFIELD","IL",60586,NA,NA,167,"7600 CATON FARM ROAD, PLAINFIELD, IL, 60586","No_Match",NA,NA,NA,NA
287168,"7600 CHEVY CHASE DR STE 300","AUSTIN","TX",78752,30.339916755,-97.704584591,168,"7600 CHEVY CHASE DR STE 300, AUSTIN, TX, 78752","Match","Exact","7600 CHEVY CHASE DR, AUSTIN, TX, 78752",64022155,"L"
287169,"7600 CHEYENNE STREET","PITTSBURGH","PA",15218,40.4192385960001,-79.882206067,169,"7600 CHEYENNE STREET, PITTSBURGH, PA, 15218","Match","Exact","7600 CHEYENNE ST, PITTSBURGH, PA, 15218",51654450,"R"
287170,"7600 COMMERCE CT SUITE C","MIDLAND","MI",48642,43.6674628740001,-84.2447621479999,170,"7600 COMMERCE CT SUITE C, MIDLAND, MI, 48642","Match","Non_Exact","7600 N COMMERCE CT, MIDLAND, MI, 48642",81202995,"L"
287171,"7600 COMMERCE PARK","DUBUQUE","IA",52001,NA,NA,171,"7600 COMMERCE PARK, DUBUQUE, IA, 52001","No_Match",NA,NA,NA,NA
287172,"7600 COMMERCE PARK","DUBUQUE","IA",52002,42.4938757210001,-90.776867722,172,"7600 COMMERCE PARK, DUBUQUE, IA, 52002","Match","Non_Exact","7600 COMMERCE, DUBUQUE, IA, 52002",612967762,"R"
287173,"7600 COTTAGE HILL RD APT A103","MOBILE","AL",36695,30.6366898320001,-88.219151456,173,"7600 COTTAGE HILL RD APT A103, MOBILE, AL, 36695","Match","Exact","7600 COTTAGE HILL RD, MOBILE, AL, 36695",61960646,"R"
287174,"7600 DOGWOOD LANE","PARMA","OH",44130,41.3603833340001,-81.741388807,174,"7600 DOGWOOD LANE, PARMA, OH, 44130","Match","Exact","7600 DOGWOOD LN, PARMA, OH, 44130",649550046,"R"
287175,"7600 DUBLIN BLVD STE 275","DUBLIN","CA",94568,37.703999368,-121.929753346,175,"7600 DUBLIN BLVD STE 275, DUBLIN, CA, 94568","Match","Exact","7600 DUBLIN BLVD, DUBLIN, CA, 94568",125080908,"L"
287176,"7600 DUBLIN BLVD","DUBLIN","CA",94568,37.703999368,-121.929753346,176,"7600 DUBLIN BLVD, DUBLIN, CA, 94568","Match","Exact","7600 DUBLIN BLVD, DUBLIN, CA, 94568",125080908,"L"
287177,"7600 E 73RD TERR","KANSAS CITY","MO",64133,38.991251478,-94.499583456,177,"7600 E 73RD TERR, KANSAS CITY, MO, 64133","Match","Exact","7600 E 73RD TER, KANSAS CITY, MO, 64133",91464658,"L"
287178,"7600 EST STREET","INDIANAPOLIS","IN",46256,NA,NA,178,"7600 EST STREET, INDIANAPOLIS, IN, 46256","No_Match",NA,NA,NA,NA
287179,"7600 FODOR ROAD","NEW ALBANY","OH",43054,40.083274121,-82.817965315,179,"7600 FODOR ROAD, NEW ALBANY, OH, 43054","Match","Exact","7600 FODOR RD, NEW ALBANY, OH, 43054",218661434,"L"
287180,"7600 FULTON DR NW","MASSILLON","OH",44646,40.860935468,-81.4931065709999,180,"7600 FULTON DR NW, MASSILLON, OH, 44646","Match","Exact","7600 FULTON DR NW, MASSILLON, OH, 44646",64719535,"L"
287181,"7600 GEORGIA AVE NW STE 411","WASHINGTON","DC",20012,38.982107537,-77.026551442,181,"7600 GEORGIA AVE NW STE 411, WASHINGTON, DC, 20012","Match","Exact","7600 GEORGIA AVE NW, WASHINGTON, DC, 20012",76221706,"L"
287182,"7600 GILBERT ST","PHILADELPHIA","PA",19150,40.0673306680001,-75.163093426,182,"7600 GILBERT ST, PHILADELPHIA, PA, 19150","Match","Exact","7600 GILBERT ST, PHILADELPHIA, PA, 19150",131395111,"L"
287183,"7600 HELGERSON DRIVE SW","ROCHESTER","MN",55902,NA,NA,183,"7600 HELGERSON DRIVE SW, ROCHESTER, MN, 55902","No_Match",NA,NA,NA,NA
287184,"7600 HUNTINGTON PARK DRIVE STE 108","COLUMBUS","OH",43235,40.1174229330001,-83.008362292,184,"7600 HUNTINGTON PARK DRIVE STE 108, COLUMBUS, OH, 43235","Match","Exact","7600 HUNTINGTON PARK DR, COLUMBUS, OH, 43235",640025725,"L"
287185,"7600 IBM DRIVE","CHARLOTTE","NC",28262,35.3033316390001,-80.771403241,185,"7600 IBM DRIVE, CHARLOTTE, NC, 28262","Match","Exact","7600 IBM DR, CHARLOTTE, NC, 28262",614168499,"R"
287186,"7600 KIRBY DR 473","HOUSTON","TX",77030,29.6962707100001,-95.417119873,186,"7600 KIRBY DR 473, HOUSTON, TX, 77030","Match","Exact","7600 KIRBY DR, HOUSTON, TX, 77030",96609816,"R"
287187,"7600 KIRBY DRIVE APT 437","HOUSTON","TX",77030,29.6962707100001,-95.417119873,187,"7600 KIRBY DRIVE APT 437, HOUSTON, TX, 77030","Match","Exact","7600 KIRBY DR, HOUSTON, TX, 77030",96609816,"R"
287188,"7600 LAKERIDGE DRIVE","OCEAN SPRINGS","MS",39564,30.430690769,-88.73524716,188,"7600 LAKERIDGE DRIVE, OCEAN SPRINGS, MS, 39564","Match","Exact","7600 LAKERIDGE DR, OCEAN SPRINGS, MS, 39564",642169699,"L"
287189,"7600 LANDMARK WAY UNIT 715","GREENWOOD VILLAGE","CO",80111,39.6176532210001,-104.900373565,189,"7600 LANDMARK WAY UNIT 715, GREENWOOD VILLAGE, CO, 80111","Match","Exact","7600 LANDMARK WAY, GREENWOOD VILLAGE, CO, 80111",627308387,"L"
287190,"7600 LYONS ROAD","COCONUT CREEK","FL",33073,26.3267580020001,-80.18647609,190,"7600 LYONS ROAD, COCONUT CREEK, FL, 33073","Match","Exact","7600 LYONS RD, COCONUT CREEK, FL, 33073",641074471,"R"
287191,"7600 MALBEC COURT","KERNERSVILLE","NC",27284,36.2007514210001,-80.0035707009999,191,"7600 MALBEC COURT, KERNERSVILLE, NC, 27284","Match","Exact","7600 MALBEC CT, KERNERSVILLE, NC, 27284",617533864,"L"
287192,"7600 MEMPHIS AVE","BROOKLYN","OH",44144,41.439997319,-81.738414827,192,"7600 MEMPHIS AVE, BROOKLYN, OH, 44144","Match","Exact","7600 MEMPHIS AVE, BROOKLYN, OH, 44144",61105984,"R"
287193,"7600 MORGANTON RD","GREENBACK","TN",37742,35.6441981400001,-84.2044787309999,193,"7600 MORGANTON RD, GREENBACK, TN, 37742","Match","Exact","7600 MORGANTON RD, GREENBACK, TN, 37742",99973183,"L"
287194,"7600 N 16TH STREET SUITE 218","PHOENIX","AZ",85003,NA,NA,194,"7600 N 16TH STREET SUITE 218, PHOENIX, AZ, 85003","No_Match",NA,NA,NA,NA
287195,"7600 N ACADEMIC DRIVE","PEORIA","IL",61615,40.779247077,-89.684221038,195,"7600 N ACADEMIC DRIVE, PEORIA, IL, 61615","Match","Exact","7600 N ACADEMIC DR, PEORIA, IL, 61615",651065774,"L"
287196,"7600 N COLTRANE RD","OKLAHOMA CITY","OK",73121,35.548166171,-97.4418381899999,196,"7600 N COLTRANE RD, OKLAHOMA CITY, OK, 73121","Match","Exact","7600 N COLTRANE RD, OKLAHOMA CITY, OK, 73121",100424700,"R"
287197,"7600 N INGRAM AVE STE 125","FRESNO","CA",93711,36.8480223720001,-119.801822932,197,"7600 N INGRAM AVE STE 125, FRESNO, CA, 93711","Match","Non_Exact","7600 N INGRAM AVE, FRESNO, CA, 93711",617777308,"R"
287198,"7600 N INTERSTATE AVE STE 201","PORTLAND","OR",97217,45.578151641,-122.682072198,198,"7600 N INTERSTATE AVE STE 201, PORTLAND, OR, 97217","Match","Non_Exact","7600 N INTERSTATE AVE, PORTLAND, OR, 97217",157495794,"R"
287199,"7600 N INTERSTATE AVE STE 857","PORTLAND","OR",97217,45.578151641,-122.682072198,199,"7600 N INTERSTATE AVE STE 857, PORTLAND, OR, 97217","Match","Non_Exact","7600 N INTERSTATE AVE, PORTLAND, OR, 97217",157495794,"R"
287200,"7600 N LONG LAKE RD","TRAVERSE CITY","MI",49685,44.7455267330001,-85.7283912729999,200,"7600 N LONG LAKE RD, TRAVERSE CITY, MI, 49685","Match","Exact","7600 N LONG LAKE RD, TRAVERSE CITY, MI, 49685",635817740,"R"
287201,"7600 NE 166TH AVENUE","VANCOUVER","WA",98682,45.6783196860001,-122.5018898,201,"7600 NE 166TH AVENUE, VANCOUVER, WA, 98682","Match","Exact","7600 NE 166TH AVE, VANCOUVER, WA, 98682",635490580,"L"
287202,"7600 NW 4TH PL APT 103","MARGATE","FL",33063,26.2363392930001,-80.2261196119999,202,"7600 NW 4TH PL APT 103, MARGATE, FL, 33063","Match","Non_Exact","7600 NW 4TH PL, MARGATE, FL, 33063",114692420,"L"
287203,"7600 NW 50TH ST","LAUDERHILL","FL",33351,26.18673848,-80.258860919,203,"7600 NW 50TH ST, LAUDERHILL, FL, 33351","Match","Exact","7600 NW 50TH ST, LAUDERHILL, FL, 33351",114702199,"R"
287204,"7600 NW BARRY ROAD","KANSAS CITY","MO",64153,39.2469100120001,-94.668574787,204,"7600 NW BARRY ROAD, KANSAS CITY, MO, 64153","Match","Exact","7600 NW BARRY RD, KANSAS CITY, MO, 64153",636511454,"R"
287205,"7600 OLD KEENE MILL ROAD","SPRINGFIELD","VA",22152,38.7750988610001,-77.2037355799999,205,"7600 OLD KEENE MILL ROAD, SPRINGFIELD, VA, 22152","Match","Exact","7600 OLD KEENE MILL RD, SPRINGFIELD, VA, 22152",75983481,"R"
287206,"7600 ORA GLEN DRIVE UNIT 1761","GREENBELT","MD",20768,NA,NA,206,"7600 ORA GLEN DRIVE UNIT 1761, GREENBELT, MD, 20768","No_Match",NA,NA,NA,NA
287207,"7600 ROBERTS RD","CARY","NC",27519,35.770655554,-78.89802045,207,"7600 ROBERTS RD, CARY, NC, 27519","Match","Exact","7600 ROBERTS RD, CARY, NC, 27519",653787254,"L"
287208,"7600 ROBERTS ROAD","CARY","NC",27519,35.770655554,-78.89802045,208,"7600 ROBERTS ROAD, CARY, NC, 27519","Match","Exact","7600 ROBERTS RD, CARY, NC, 27519",653787254,"L"
287209,"7600 ROOSEVELT BLVD APT 608","PHILADELPHIA","PA",19152,40.0505897900001,-75.051483511,209,"7600 ROOSEVELT BLVD APT 608, PHILADELPHIA, PA, 19152","Match","Exact","7600 ROOSEVELT BLVD, PHILADELPHIA, PA, 19152",131457552,"L"
287210,"7600 ROOSEVELT RD SUITE 51","FOREST PARK","IL",60130,41.864798873,-87.8140481949999,210,"7600 ROOSEVELT RD SUITE 51, FOREST PARK, IL, 60130","Match","Exact","7600 ROOSEVELT RD, FOREST PARK, IL, 60130",111791926,"L"
287211,"7600 ROSSMAN HWY","EATON RAPIDS","MI",48827,42.611062029,-84.689770171,211,"7600 ROSSMAN HWY, EATON RAPIDS, MI, 48827","Match","Exact","7600 ROSSMAN HWY, EATON RAPIDS, MI, 48827",652792813,"R"
287212,"7600 S AVALON BLVD","LOS ANGELES","CA",90003,33.9710871500001,-118.265145816,212,"7600 S AVALON BLVD, LOS ANGELES, CA, 90003","Match","Exact","7600 AVALON BLVD, LOS ANGELES, CA, 90003",141670880,"L"
287213,"7600 S CENTRAL AVE","BURBANK","IL",60459,NA,NA,213,"7600 S CENTRAL AVE, BURBANK, IL, 60459","No_Match",NA,NA,NA,NA
287214,"7600 S JONES BLVD UNIT 1068","LAS VEGAS","NV",89139,36.0508209710001,-115.22521494,214,"7600 S JONES BLVD UNIT 1068, LAS VEGAS, NV, 89139","Match","Non_Exact","7600 S JONES BLVD, LAS VEGAS, NV, 89139",624652383,"L"
287215,"7600 S MINNESOTA AVENUE STE 202","SIOUX FALLS","SD",57108,NA,NA,215,"7600 S MINNESOTA AVENUE STE 202, SIOUX FALLS, SD, 57108","No_Match",NA,NA,NA,NA
287216,"7600 S RED ROAD STE 309","MIAMI","FL",33143,25.700543693,-80.2852464269999,216,"7600 S RED ROAD STE 309, MIAMI, FL, 33143","Match","Non_Exact","7600 S RED RD, MIAMI, FL, 33143",115985635,"R"
287217,"7600 S UNIVERISTY AVE SUITE 6","LITTLE ROCK","AR",72209,NA,NA,217,"7600 S UNIVERISTY AVE SUITE 6, LITTLE ROCK, AR, 72209","No_Match",NA,NA,NA,NA
287218,"7600 SEMINOLE BLVD SUITE 102","SEMINOLE","FL",33772,27.841399166,-82.787095213,218,"7600 SEMINOLE BLVD SUITE 102, SEMINOLE, FL, 33772","Match","Exact","7600 SEMINOLE BLVD, SEMINOLE, FL, 33772",124719933,"L"
287219,"7600 SKYVIEW DRIVE UNIT 201","LOUISVILLE","KY",40272,38.1134473010001,-85.89560578,219,"7600 SKYVIEW DRIVE UNIT 201, LOUISVILLE, KY, 40272","Match","Exact","7600 SKYVIEW DR, LOUISVILLE, KY, 40272",641779500,"L"
287220,"7600 TRAIL BLAZER TRAIL","WAKE FOREST","NC",27587,35.993957773,-78.611121414,220,"7600 TRAIL BLAZER TRAIL, WAKE FOREST, NC, 27587","Match","Exact","7600 TRAIL BLAZER TRL, WAKE FOREST, NC, 27587",612815789,"R"
287221,"7600 W 75TH STREET ROOM 24","OVERLAND PARK","KS",66204,38.9931217990001,-94.673636673,221,"7600 W 75TH STREET ROOM 24, OVERLAND PARK, KS, 66204","Match","Non_Exact","7600 W 75TH ST, OVERLAND PARK, KS, 66204",91275557,"R"
287222,"7600 W FAIRFIELD DR","PENSACOLA","FL",32506,30.4280225540001,-87.311714298,222,"7600 W FAIRFIELD DR, PENSACOLA, FL, 32506","Match","Exact","7600 W FAIRFIELD DR, PENSACOLA, FL, 32506",93212346,"R"
287223,"7600 W REEVES RD","BLOOMINGTON","IN",47404,39.2312843660001,-86.640060471,223,"7600 W REEVES RD, BLOOMINGTON, IN, 47404","Match","Exact","7600 W REEVES RD, BLOOMINGTON, IN, 47404",42337745,"R"
287224,"7600 WASHBURN","WASHINGTON TOWNSHIP","MI",48094,42.7201545120001,-83.03781811,224,"7600 WASHBURN, WASHINGTON TOWNSHIP, MI, 48094","Match","Exact","7600 WASHBURN, WASHINGTON TOWNSHIP, MI, 48094",110658101,"R"
287225,"7600 WEST 27TH STREET","ST. LOUIS PARK","MN",55426,44.954870134,-93.373970188,225,"7600 WEST 27TH STREET, ST. LOUIS PARK, MN, 55426","Match","Exact","7600 W 27TH ST, SAINT LOUIS PARK, MN, 55426",43619533,"R"
287226,"7600 WEST DEAN ROAD","MILWAUKEE","WI",53223,43.1705930740001,-88.004797201,226,"7600 WEST DEAN ROAD, MILWAUKEE, WI, 53223","Match","Exact","7600 W DEAN RD, MILWAUKEE, WI, 53223",648239786,"L"
287227,"7600 WEST HIGHWAY 329","REDDICK","FL",32686,NA,NA,227,"7600 WEST HIGHWAY 329, REDDICK, FL, 32686","No_Match",NA,NA,NA,NA
287228,"7600 WEST ROOSEVELT ROAD","FOREST PARK","IL",60130,41.864798873,-87.8140481949999,228,"7600 WEST ROOSEVELT ROAD, FOREST PARK, IL, 60130","Match","Non_Exact","7600 ROOSEVELT RD, FOREST PARK, IL, 60130",111791926,"L"
287229,"7600 WISCONSIN AVENUE SUITE 1010","BETHESDA","MD",20814,38.985986412,-77.0946906189999,229,"7600 WISCONSIN AVENUE SUITE 1010, BETHESDA, MD, 20814","Match","Exact","7600 WISCONSIN AVE, BETHESDA, MD, 20814",642722763,"R"
287230,"7600 WORNALL ROAD","KANSAS CITY","MO",64114,38.9905460200001,-94.594348221,230,"7600 WORNALL ROAD, KANSAS CITY, MO, 64114","Match","Exact","7600 WORNALL RD, KANSAS CITY, MO, 64114",91492394,"R"
287231,"7601 34TH AVE SO","MINNEAPOLIS","MN",55450,44.8658905770001,-93.223088832,231,"7601 34TH AVE SO, MINNEAPOLIS, MN, 55450","Match","Exact","7601 34TH AVE S, MINNEAPOLIS, MN, 55450",43852223,"L"
287232,"7601 AFTON DR","NEW ORLEANS","LA",70127,30.0405948170001,-89.9933603059999,232,"7601 AFTON DR, NEW ORLEANS, LA, 70127","Match","Exact","7601 AFTON DR, NEW ORLEANS, LA, 70127",191720623,"R"
287233,"7601 ANNABELLE LAKE ROAD","PRESQUE ISLE","WI",54557,46.214675819,-89.695007582,233,"7601 ANNABELLE LAKE ROAD, PRESQUE ISLE, WI, 54557","Match","Exact","7601 ANNABELLE LAKE RD, PRESQUE ISLE, WI, 54557",165567116,"L"
287234,"7601 AVOCET DRIVE","WESLEY CHAPEL","FL",33544,28.268276438,-82.357080676,234,"7601 AVOCET DRIVE, WESLEY CHAPEL, FL, 33544","Match","Exact","7601 AVOCET DR, WESLEY CHAPEL, FL, 33544",86344297,"R"
287235,"7601 BOULEVARD 26 SUITE 121","NORTH RICHLAND HILLS","TX",76180,32.829612233,-97.220066896,235,"7601 BOULEVARD 26 SUITE 121, NORTH RICHLAND HILLS, TX, 76180","Match","Exact","7601 BLVD 26, NORTH RICHLAND HILLS, TX, 76180",102141293,"L"
287236,"7601 BREAKWATER DR","NEW ORLEANS","LA",70124,30.023738446,-90.120624542,236,"7601 BREAKWATER DR, NEW ORLEANS, LA, 70124","Match","Exact","7601 BREAKWATER DR, NEW ORLEANS, LA, 70124",191756077,"R"
287237,"7601 BROOKVIEW LANE","INDIANAPOLIS","IN",46250,39.8930468080001,-86.0789950609999,237,"7601 BROOKVIEW LANE, INDIANAPOLIS, IN, 46250","Match","Exact","7601 BROOKVIEW LN, INDIANAPOLIS, IN, 46250",107995082,"R"
287238,"7601 BURNING TREE DRIVE SUITE 201","FRANKTOWN","CO",80116,39.3905416790001,-104.7487066,238,"7601 BURNING TREE DRIVE SUITE 201, FRANKTOWN, CO, 80116","Match","Exact","7601 BURNING TREE DR, FRANKTOWN, CO, 80116",636172134,"L"
287239,"7601 CHURCHILL WAY UNIT 1130","DALLAS","TX",75251,32.918024508,-96.775991929,239,"7601 CHURCHILL WAY UNIT 1130, DALLAS, TX, 75251","Match","Exact","7601 CHURCHILL WAY, DALLAS, TX, 75251",103208439,"R"
287240,"7601 CLARKE ROAD","WEST PALM BEACH","FL",33406,26.645080664,-80.076595187,240,"7601 CLARKE ROAD, WEST PALM BEACH, FL, 33406","Match","Exact","7601 CLARKE RD, WEST PALM BEACH, FL, 33406",115274081,"R"
287241,"7601 E CURRY RD","EDINBURG","TX",78542,26.2871956220001,-98.084427413,241,"7601 E CURRY RD, EDINBURG, TX, 78542","Match","Exact","7601 CURRY RD, EDINBURG, TX, 78542",635736685,"L"
287242,"7601 EAST FOREST LAKES DRIVE NW","KANSAS CITY","MO",64152,39.2328317550001,-94.7418382019999,242,"7601 EAST FOREST LAKES DRIVE NW, KANSAS CITY, MO, 64152","Match","Exact","7601 E FOREST LAKES DR NW, KANSAS CITY, MO, 64152",39709960,"R"
287243,"7601 EAST TREASURE DRIVE SUITE 811","MIAMI","FL",33141,25.847089827,-80.1462305759999,243,"7601 EAST TREASURE DRIVE SUITE 811, MIAMI, FL, 33141","Match","Exact","7601 E TREASURE DR, MIAMI, FL, 33141",650066778,"R"
287244,"7601 EL DOURO DR","SACRAMWNTO","CA",95831,38.478530988,-121.510046975,244,"7601 EL DOURO DR, SACRAMWNTO, CA, 95831","Match","Non_Exact","7601 EL DOURO DR, SACRAMENTO, CA, 95831",133366621,"L"
287245,"7601 EXBURY CT","LINCOLN","NE",68516,40.734018185,-96.63853839,245,"7601 EXBURY CT, LINCOLN, NE, 68516","Match","Exact","7601 EXBURY CT, LINCOLN, NE, 68516",635754856,"R"
287246,"7601 FM 1960 E SUITE 180","HUMBLE","TX",77346,NA,NA,246,"7601 FM 1960 E SUITE 180, HUMBLE, TX, 77346","No_Match",NA,NA,NA,NA
287247,"7601 FM 1960 EAST BOX 199","HUMBLE","TX",77346,NA,NA,247,"7601 FM 1960 EAST BOX 199, HUMBLE, TX, 77346","No_Match",NA,NA,NA,NA
287248,"7601 FM 1960 EAST STE 207","HUMBLE","TX",77346,NA,NA,248,"7601 FM 1960 EAST STE 207, HUMBLE, TX, 77346","No_Match",NA,NA,NA,NA
287249,"7601 FM 1960 RD EAST  BOX 149","HUMBLE","TX",77346,NA,NA,249,"7601 FM 1960 RD EAST  BOX 149, HUMBLE, TX, 77346","No_Match",NA,NA,NA,NA
287250,"7601 FM 1960 RD EAST NUM 112","HUMBLE","TX",77346,NA,NA,250,"7601 FM 1960 RD EAST NUM 112, HUMBLE, TX, 77346","No_Match",NA,NA,NA,NA
287251,"7601 FM 1960 ROAD EAST- BOX 105","HUMBLE","TX",77346,NA,NA,251,"7601 FM 1960 ROAD EAST- BOX 105, HUMBLE, TX, 77346","No_Match",NA,NA,NA,NA
287252,"7601 FM 1960 STE 103","HUMBLE","TX",77346,NA,NA,252,"7601 FM 1960 STE 103, HUMBLE, TX, 77346","No_Match",NA,NA,NA,NA
287253,"7601 GIBSON CEMETERY ROAD","MANSFIELD","TX",76063,32.594227432,-97.197448665,253,"7601 GIBSON CEMETERY ROAD, MANSFIELD, TX, 76063","Match","Exact","7601 GIBSON CEMETERY RD, MANSFIELD, TX, 76063",102129536,"R"
287254,"7601 KELTY DRIVE","RIVERSIDE","CA",92508,33.9141224030001,-117.318613493,254,"7601 KELTY DRIVE, RIVERSIDE, CA, 92508","Match","Exact","7601 KELTY DR, RIVERSIDE, CA, 92508",194872001,"L"
287255,"7601 KIMBERLY COURT","NORTH RICHLAND HILLS","TX",76182,32.8658289270001,-97.219178369,255,"7601 KIMBERLY COURT, NORTH RICHLAND HILLS, TX, 76182","Match","Exact","7601 KIMBERLY CT, NORTH RICHLAND HILLS, TX, 76182",101864497,"L"
287256,"7601 MORNING GLORY LANE","TAMPA","FL",33619,27.9443023600001,-82.371093932,256,"7601 MORNING GLORY LANE, TAMPA, FL, 33619","Match","Exact","7601 MORNING GLORY LN, TAMPA, FL, 33619",104538555,"R"
287257,"7601 N STATE STREET","REDWOOD VALLEY","CA",95470,39.250348472,-123.210651044,257,"7601 N STATE STREET, REDWOOD VALLEY, CA, 95470","Match","Exact","7601 N STATE ST, REDWOOD VALLEY, CA, 95470",67328755,"R"
287258,"7601 N WALNUT ST","MUNCIE","IN",47303,40.2584923840001,-85.3866339529999,258,"7601 N WALNUT ST, MUNCIE, IN, 47303","Match","Exact","7601 N WALNUT ST, MUNCIE, IN, 47303",641141273,"R"
287259,"7601 NE BLACKBURN RD","YAMHILL","OR",97148,45.3276967850001,-123.159851281,259,"7601 NE BLACKBURN RD, YAMHILL, OR, 97148","Match","Exact","7601 NE BLACKBURN RD, YAMHILL, OR, 97148",605554840,"R"
287260,"7601 NORTH 9TH AVENUE APT A212","PENSACOLA","FL",32514,30.504537198,-87.183953292,260,"7601 NORTH 9TH AVENUE APT A212, PENSACOLA, FL, 32514","Match","Exact","7601 N 9TH AVE, PENSACOLA, FL, 32514",93270123,"L"
287261,"7601 OLEARY ROA","KINMUNDY","IL",62854,38.7531733500001,-88.761694889,261,"7601 OLEARY ROA, KINMUNDY, IL, 62854","Match","Non_Exact","7601 OLEARY RD, KINMUNDY, IL, 62854",93038278,"L"
287262,"7601 RED FOX COURT","CLINTON","MD",20735,38.7598610200001,-76.8746700789999,262,"7601 RED FOX COURT, CLINTON, MD, 20735","Match","Exact","7601 RED FOX CT, CLINTON, MD, 20735",76332118,"L"
287263,"7601 RIVER ROAD","NORTH BERGEN","NJ",7047,40.794697011,-73.9971375169999,263,"7601 RIVER ROAD, NORTH BERGEN, NJ, 7047","Match","Exact","7601 RIVER RD, NORTH BERGEN, NJ, 07047",641117954,"L"
287264,"7601 ROBIN DRIVE","GILLETTE","WY",82718,44.2250723510001,-105.458178681,264,"7601 ROBIN DRIVE, GILLETTE, WY, 82718","Match","Exact","7601 ROBIN DR, GILLETTE, WY, 82718",607399033,"L"
287265,"7601 S SIESTA HILLS CT","SANDY","UT",84093,40.6139084860001,-111.851292277,265,"7601 S SIESTA HILLS CT, SANDY, UT, 84093","Match","Exact","7601 SIESTA HILLS CT, SANDY, UT, 84093",176142882,"L"
287266,"7601 SAYLES ROAD","JACKSONVILLE","AR",72076,34.95604603,-92.201171608,266,"7601 SAYLES ROAD, JACKSONVILLE, AR, 72076","Match","Exact","7601 SAYLES RD, JACKSONVILLE, AR, 72076",635385357,"R"
287267,"7601 SEBRING DR","HUBER HEIGHTS","OH",45424,39.8630779440001,-84.1129677499999,267,"7601 SEBRING DR, HUBER HEIGHTS, OH, 45424","Match","Exact","7601 SEBRING DR, HUBER HEIGHTS, OH, 45424",143586789,"R"
287268,"7601 SW 90TH AVENUE","MIAMI","FL",33173,25.6983032410001,-80.339985772,268,"7601 SW 90TH AVENUE, MIAMI, FL, 33173","Match","Exact","7601 SW 90TH AVE, MIAMI, FL, 33173",116073800,"L"
287269,"7601 TANGUERAY","LAKE CHARLES","LA",70607,30.1272054930001,-93.1914973199999,269,"7601 TANGUERAY, LAKE CHARLES, LA, 70607","Match","Non_Exact","7601 TANGUERAY RD, LAKE CHARLES, LA, 70607",88450306,"L"
287270,"7601 TYLERS HILL COURT","WEST CHESTER","OH",45069,39.366188224,-84.471394721,270,"7601 TYLERS HILL COURT, WEST CHESTER, OH, 45069","Match","Exact","7601 TYLERS HILL CT, WEST CHESTER, OH, 45069",604778328,"L"
287271,"7601 VALLEY DALE DR","AUSTIN","TX",78731,30.36927375,-97.768788542,271,"7601 VALLEY DALE DR, AUSTIN, TX, 78731","Match","Exact","7601 VALLEY DALE DR, AUSTIN, TX, 78731",63927469,"R"
287272,"7601 WAYZATA BOULEVARD SUITE 202","MINNEAPOLIS","MN",55426,44.9709380790001,-93.376376299,272,"7601 WAYZATA BOULEVARD SUITE 202, MINNEAPOLIS, MN, 55426","Match","Exact","7601 WAYZATA BLVD, MINNEAPOLIS, MN, 55426",43808454,"R"
287273,"7601 WOOLSTON AVE","PHILADELPHIA","PA",19150,40.06644872,-75.163967043,273,"7601 WOOLSTON AVE, PHILADELPHIA, PA, 19150","Match","Exact","7601 WOOLSTON AVE, PHILADELPHIA, PA, 19150",131395119,"R"
287274,"7602 BLUE IRIS LN","TAMPA","FL",33619,NA,NA,274,"7602 BLUE IRIS LN, TAMPA, FL, 33619","No_Match",NA,NA,NA,NA
287275,"7602 CAILLET ST","DALLAS","TX",75209,32.84833265,-96.824843985,275,"7602 CAILLET ST, DALLAS, TX, 75209","Match","Exact","7602 CAILLET ST, DALLAS, TX, 75209",102903606,"R"
287276,"7602 CROSSMEADOW DRIVE","AUSTIN","TX",78750,30.376991934,-97.786458667,276,"7602 CROSSMEADOW DRIVE, AUSTIN, TX, 78750","Match","Exact","7602 CROSSMEADOW DR, AUSTIN, TX, 78750",63927277,"L"
287277,"7602 DEL GLEN LANE","HOUSTON","TX",77072,29.6945511600001,-95.610828678,277,"7602 DEL GLEN LANE, HOUSTON, TX, 77072","Match","Exact","7602 DEL GLEN LN, HOUSTON, TX, 77072",96035158,"R"
287278,"7602 GRAYFIELD STREET","DEARBORN HEIGHTS","MI",48127,42.3463164200001,-83.266309583,278,"7602 GRAYFIELD STREET, DEARBORN HEIGHTS, MI, 48127","Match","Exact","7602 GRAYFIELD ST, DEARBORN HEIGHTS, MI, 48127",95431698,"R"
287279,"7602 HARMON RD","HARRISON","AR",72601,36.2922103240001,-92.96310539,279,"7602 HARMON RD, HARRISON, AR, 72601","Match","Exact","7602 HARMON RD, HARRISON, AR, 72601",639019939,"R"
287280,"7602 KENWELL ST","DALLAS","TX",75209,32.848503646,-96.827342356,280,"7602 KENWELL ST, DALLAS, TX, 75209","Match","Exact","7602 KENWELL ST, DALLAS, TX, 75209",102903560,"R"
287281,"7602 MELLOGROVE CT","SPRING","TX",77379,30.0384681140001,-95.539906028,281,"7602 MELLOGROVE CT, SPRING, TX, 77379","Match","Non_Exact","7602 MELLOWGROVE CT, SPRING, TX, 77379",96003406,"R"
287282,"7602 MELLOW GROVE CT","SPRING","TX",77379,30.0384681140001,-95.539906028,282,"7602 MELLOW GROVE CT, SPRING, TX, 77379","Match","Non_Exact","7602 MELLOWGROVE CT, SPRING, TX, 77379",96003406,"R"
287283,"7602 MICHIGAN RD","INDIANAPOLIS","IN",46268,39.890152716,-86.212388737,283,"7602 MICHIGAN RD, INDIANAPOLIS, IN, 46268","Match","Exact","7602 MICHIGAN RD, INDIANAPOLIS, IN, 46268",107981038,"L"
287284,"7602 N MICHIGAN RD","INDIANAPOLIS","IN",46268,39.890152716,-86.212388737,284,"7602 N MICHIGAN RD, INDIANAPOLIS, IN, 46268","Match","Exact","7602 MICHIGAN RD, INDIANAPOLIS, IN, 46268",107981038,"L"
287285,"7602 W SOUTHGATE AVE","PHOENIX","AZ",85043,33.4115171610001,-112.224282225,285,"7602 W SOUTHGATE AVE, PHOENIX, AZ, 85043","Match","Exact","7602 W SOUTHGATE AVE, PHOENIX, AZ, 85043",243954987,"L"
287286,"7603 ANTOINE DRIVE","HOUSTON","TX",77088,29.8748988420001,-95.4739882439999,286,"7603 ANTOINE DRIVE, HOUSTON, TX, 77088","Match","Exact","7603 ANTOINE DR, HOUSTON, TX, 77088",96649214,"L"
287287,"7603 BRAESDALE LANE","HOUSTON","TX",77071,29.670005567,-95.510500832,287,"7603 BRAESDALE LANE, HOUSTON, TX, 77071","Match","Exact","7603 BRAESDALE LN, HOUSTON, TX, 77071",96037936,"L"
287288,"7603 DEXTER RUN CIR","CORDOVA","TN",38016,35.165392792,-89.8092304579999,288,"7603 DEXTER RUN CIR, CORDOVA, TN, 38016","Match","Exact","7603 DEXTER RUN CIR, CORDOVA, TN, 38016",72954412,"L"
287289,"7603 DOLPHIN ARC DR","HUMBLE","TX",77346,29.98191861,-95.159322561,289,"7603 DOLPHIN ARC DR, HUMBLE, TX, 77346","Match","Exact","7603 DOLPHIN ARC DR, HUMBLE, TX, 77346",96420888,"L"
287290,"7603 HICKORY RIDGE RD","MULBERRY","AR",72947,35.5120179360001,-93.995215517,290,"7603 HICKORY RIDGE RD, MULBERRY, AR, 72947","Match","Exact","7603 HICKORY RIDGE RD, MULBERRY, AR, 72947",55891436,"L"
287291,"7603 MANDAN ROAD APT 101","GREENBELT","MD",20770,38.9939680730001,-76.864853293,291,"7603 MANDAN ROAD APT 101, GREENBELT, MD, 20770","Match","Exact","7603 MANDAN RD, GREENBELT, MD, 20770",643705438,"R"
287292,"7603 QUAIL DRIVE","HUNTSVILLE","AL",35802,NA,NA,292,"7603 QUAIL DRIVE, HUNTSVILLE, AL, 35802","No_Match",NA,NA,NA,NA
287293,"7603 S KREPPS RD","ST JOHNS","MI",48879,42.9062301960001,-84.503461637,293,"7603 S KREPPS RD, ST JOHNS, MI, 48879","Match","Exact","7603 S KREPPS RD, SAINT JOHNS, MI, 48879",17297423,"R"
287294,"7603 WEDGEWOOD WAY","MAPLE GROVE","MN",55311,45.093275503,-93.4513222099999,294,"7603 WEDGEWOOD WAY, MAPLE GROVE, MN, 55311","Match","Exact","7603 WEDGEWOOD WAY, MAPLE GROVE, MN, 55311",43815458,"R"
287295,"7604 271 STREET","NEW HYDE PARK","NY",11040,NA,NA,295,"7604 271 STREET, NEW HYDE PARK, NY, 11040","No_Match",NA,NA,NA,NA
287296,"7604 BASIN CREEK CT NW","ALBUQUERQUE","NM",87120,35.169336021,-106.693661873,296,"7604 BASIN CREEK CT NW, ALBUQUERQUE, NM, 87120","Match","Exact","7604 BASIN CREEK CT NW, ALBUQUERQUE, NM, 87120",206701840,"R"
287297,"7604 CHARLESTON AVENUE","PITTSBURGH","PA",15218,40.4302806690001,-79.893416326,297,"7604 CHARLESTON AVENUE, PITTSBURGH, PA, 15218","Match","Exact","7604 CHARLESTON AVE, PITTSBURGH, PA, 15218",51653511,"R"
287298,"7604 FAIRHAM AVE","UNIVERSITY CITY","MO",63130,38.6827299220001,-90.333735317,298,"7604 FAIRHAM AVE, UNIVERSITY CITY, MO, 63130","Match","Exact","7604 FAIRHAM AVE, UNIVERSITY CITY, MO, 63130",100133564,"L"
287299,"7604 PORTOSUENO AVENUE","BRADENTON","FL",34209,27.489567999,-82.6376369399999,299,"7604 PORTOSUENO AVENUE, BRADENTON, FL, 34209","Match","Exact","7604 PORTOSUENO AVE, BRADENTON, FL, 34209",16232094,"R"
287300,"7604 S  DAMEN","CHICAGO","IL",60620,41.755486708,-87.6732878879999,300,"7604 S  DAMEN, CHICAGO, IL, 60620","Match","Non_Exact","7604 S DAMEN AVE, CHICAGO, IL, 60620",111820702,"R"
287301,"7604 VEAL STATION ROAD","AZLE","TX",76020,32.877439456,-97.594172215,301,"7604 VEAL STATION ROAD, AZLE, TX, 76020","Match","Exact","7604 VEAL STATION RD, AZLE, TX, 76020",652305526,"R"
287302,"7604 WEST 32ND STREET","SIOUX FALLS","SD",57106,43.522081686,-96.8219740649999,302,"7604 WEST 32ND STREET, SIOUX FALLS, SD, 57106","Match","Exact","7604 W 32ND ST, SIOUX FALLS, SD, 57106",35010977,"R"
287303,"7605 ASHLEAF COVE","AUSTIN","TX",78759,30.417874012,-97.776914692,303,"7605 ASHLEAF COVE, AUSTIN, TX, 78759","Match","Exact","7605 ASHLEAF COVE, AUSTIN, TX, 78759",63925939,"L"
287304,"7605 AURORA AVENUE","URBANDALE","IA",50322,41.6365891090001,-93.722837668,304,"7605 AURORA AVENUE, URBANDALE, IA, 50322","Match","Exact","7605 AURORA AVE, URBANDALE, IA, 50322",65855978,"R"
287305,"7605 CONCORD AVE","FONTANA","CA",92336,34.115862867,-117.456765674,305,"7605 CONCORD AVE, FONTANA, CA, 92336","Match","Exact","7605 CONCORD AVE, FONTANA, CA, 92336",144964770,"R"
287306,"7605 INGRID PL","HYATTSVILLE","MD",20785,38.898959344,-76.8746379259999,306,"7605 INGRID PL, HYATTSVILLE, MD, 20785","Match","Exact","7605 INGRID PL, HYATTSVILLE, MD, 20785",624431374,"L"
287307,"7605 MARCHMAN WAY","PLANO","TX",75025,33.08107413,-96.757049818,307,"7605 MARCHMAN WAY, PLANO, TX, 75025","Match","Exact","7605 MARCHMAN WAY, PLANO, TX, 75025",123548634,"R"
287308,"7605 MINSTEAD AVE","HESPERIA","CA",92345,34.389187217,-117.272558194,308,"7605 MINSTEAD AVE, HESPERIA, CA, 92345","Match","Exact","7605 MINSTEAD AVE, HESPERIA, CA, 92345",144590706,"R"
287309,"7605 OAK GARDEN TRAIL","DALLAS","TX",75232,32.6564632270001,-96.8497158119999,309,"7605 OAK GARDEN TRAIL, DALLAS, TX, 75232","Match","Exact","7605 OAK GARDEN TRL, DALLAS, TX, 75232",102952739,"R"
287310,"7605 PROGRESS CIR STE 7","WEST MELBOURNE","FL",32904,28.0964852390001,-80.6772950989999,310,"7605 PROGRESS CIR STE 7, WEST MELBOURNE, FL, 32904","Match","Exact","7605 PROGRESS CIR, W MELBOURNE, FL, 32904",93934072,"R"
287311,"7605 SW DELTA AVE","LAWTON","OK",73505,34.603789432,-98.485735475,311,"7605 SW DELTA AVE, LAWTON, OK, 73505","Match","Exact","7605 SW DELTA AVE, LAWTON, OK, 73505",14994078,"R"
287312,"7605 SW GEARHART DR","BEAVERTON","OR",97007,45.4645268130001,-122.832457909,312,"7605 SW GEARHART DR, BEAVERTON, OR, 97007","Match","Exact","7605 SW GEARHART DR, BEAVERTON, OR, 97007",158222744,"L"
287313,"7605 WOODRIDGE DR","PEWEE VALLEY","KY",40219,38.3028335180001,-85.498490367,313,"7605 WOODRIDGE DR, PEWEE VALLEY, KY, 40219","Match","Non_Exact","7605 WOODRIDGE DR, PEWEE VALLEY, KY, 40056",130922924,"R"
287314,"7606 AUDUBON MEADOW WAY","ALEXANDRIA","VA",22306,38.7539082960001,-77.090255476,314,"7606 AUDUBON MEADOW WAY, ALEXANDRIA, VA, 22306","Match","Exact","7606 AUDUBON MEADOW WAY, ALEXANDRIA, VA, 22306",611814010,"L"
287315,"7606 CLOUDSTONE DR","FLORENCE","KY",41042,38.9933034950001,-84.682492861,315,"7606 CLOUDSTONE DR, FLORENCE, KY, 41042","Match","Non_Exact","7606 CLOUDSTONE CT, FLORENCE, KY, 41042",81964708,"R"
287316,"7606 CR 39","FORT CALHOUN","NE",68023,41.4890731520001,-96.078655526,316,"7606 CR 39, FORT CALHOUN, NE, 68023","Match","Exact","7606 CO RD 39, FORT CALHOUN, NE, 68023",633090787,"R"
287317,"7606 CROSSMEADOW DR","AUSTIN","TX",78750,30.377061886,-97.786451105,317,"7606 CROSSMEADOW DR, AUSTIN, TX, 78750","Match","Exact","7606 CROSSMEADOW DR, AUSTIN, TX, 78750",63927277,"L"
287318,"7606 FAIRWAY FOREST DRIVE NORTH","CORDOVA","TN",38016,35.1646048810001,-89.80840926,318,"7606 FAIRWAY FOREST DRIVE NORTH, CORDOVA, TN, 38016","Match","Exact","7606 FAIRWAY FOREST DR N, CORDOVA, TN, 38016",72954443,"L"
287319,"7606 HYLA DR","PINE BLUFF","AR",71603,34.1472800060001,-92.085204599,319,"7606 HYLA DR, PINE BLUFF, AR, 71603","Match","Exact","7606 HYLA DR, PINE BLUFF, AR, 71603",2563375,"R"
287320,"7606 INGRID PLACE","HYATTSVILLE","MD",20785,38.8989743990001,-76.8746305829999,320,"7606 INGRID PLACE, HYATTSVILLE, MD, 20785","Match","Exact","7606 INGRID PL, HYATTSVILLE, MD, 20785",624431374,"R"
287321,"7606 LEE LANDING DR","FALLS CHURCH","VA",22043,38.8778410050001,-77.208459166,321,"7606 LEE LANDING DR, FALLS CHURCH, VA, 22043","Match","Exact","7606 LEE LANDING DR, FALLS CHURCH, VA, 22043",76020827,"L"
287322,"7606 MERIWOOD DRIVE","FORT WAYNE","IN",46835,41.151678335,-85.062207089,322,"7606 MERIWOOD DRIVE, FORT WAYNE, IN, 46835","Match","Exact","7606 MERIWOOD DR, FORT WAYNE, IN, 46835",606514252,"L"
287323,"7606 PAGEWOOD LANE","HOUSTON","TX",77063,29.7267970520001,-95.502974363,323,"7606 PAGEWOOD LANE, HOUSTON, TX, 77063","Match","Exact","7606 PAGEWOOD LN, HOUSTON, TX, 77063",96031459,"R"
287324,"7606 QUANDARY CIRCLE","BOWIE","MD",20720,38.993699695,-76.7975958279999,324,"7606 QUANDARY CIRCLE, BOWIE, MD, 20720","Match","Exact","7606 QUANDARY CIR, BOWIE, MD, 20720",76340507,"L"
287325,"7606 S LAUREL WILLOW DRIVE","TUCSON","AZ",85747,32.11351066,-110.765302773,325,"7606 S LAUREL WILLOW DRIVE, TUCSON, AZ, 85747","Match","Exact","7606 S LAUREL WILLOW DR, TUCSON, AZ, 85747",653158656,"R"
287326,"7606 SHAW DR","TAMPA","FL",33615,28.019138517,-82.5844754,326,"7606 SHAW DR, TAMPA, FL, 33615","Match","Exact","7606 SHAW DR, TAMPA, FL, 33615",104507290,"L"
287327,"7606 SOUTH UNION APT3","CHICAGO","IL",60620,41.7558794820001,-87.641738846,327,"7606 SOUTH UNION APT3, CHICAGO, IL, 60620","Match","Non_Exact","7606 S UNION AVE, CHICAGO, IL, 60620",111831079,"R"
287328,"7607 195TH STREET CT E","SPANAWAY","WA",98387,47.079217413,-122.328556735,328,"7607 195TH STREET CT E, SPANAWAY, WA, 98387","Match","Exact","7607 195TH STREET CT E, SPANAWAY, WA, 98387",184739443,"R"
287329,"7607 E PALOUSE HWY","VALLEYFORD","WA",99036,47.5434713110001,-117.301262247,329,"7607 E PALOUSE HWY, VALLEYFORD, WA, 99036","Match","Exact","7607 E PALOUSE HWY, VALLEYFORD, WA, 99036",635492236,"R"
287330,"7607 FERN AVE SUITE 702","SHREVEPORT","LA",71105,NA,NA,330,"7607 FERN AVE SUITE 702, SHREVEPORT, LA, 71105","No_Match",NA,NA,NA,NA
287331,"7607 HANGAR LOOP DRIVE HANGAR 1","TAMPA","FL",33621,27.8550369430001,-82.491410249,331,"7607 HANGAR LOOP DRIVE HANGAR 1, TAMPA, FL, 33621","Match","Non_Exact","7607 HANGER LOOP DR, TAMPA, FL, 33608",104583650,"R"
287332,"7607 KILMICHAEL LANE","DALLAS","TX",75248,32.977224532,-96.777016614,332,"7607 KILMICHAEL LANE, DALLAS, TX, 75248","Match","Exact","7607 KILMICHAEL LN, DALLAS, TX, 75248",102896326,"L"
287333,"7607 MOVERN LN","WARRENTON","VA",20187,38.7217851450001,-77.776455915,333,"7607 MOVERN LN, WARRENTON, VA, 20187","Match","Exact","7607 MOVERN LN, WARRENTON, VA, 20187",641423031,"L"
287334,"7607 NE 148TH PL","KENMORE","WA",98028,47.735756795,-122.239311803,334,"7607 NE 148TH PL, KENMORE, WA, 98028","Match","Exact","7607 NE 148TH PL, KENMORE, WA, 98028",625305079,"L"
287335,"7607 NW 99TH TERRACE","TAMARAC","FL",33321,26.2159695570001,-80.283703588,335,"7607 NW 99TH TERRACE, TAMARAC, FL, 33321","Match","Exact","7607 NW 99TH TER, TAMARAC, FL, 33321",114784684,"L"
287336,"7607 S NORMANDIE","LOS ANGELES","CA",90044,33.97083078,-118.300301214,336,"7607 S NORMANDIE, LOS ANGELES, CA, 90044","Match","Non_Exact","7607 S NORMANDIE AVE, LOS ANGELES, CA, 90044",642190251,"R"
287337,"7607 W TOWNSEND STREET","MILWAUKEE","WI",53222,43.080543306,-88.007502884,337,"7607 W TOWNSEND STREET, MILWAUKEE, WI, 53222","Match","Exact","7607 W TOWNSEND ST, MILWAUKEE, WI, 53222",77730687,"L"
287338,"7607 WATERFORD LAKES DRIVE APT 3231","CHARLOTTE","NC",28210,35.121324859,-80.8775929449999,338,"7607 WATERFORD LAKES DRIVE APT 3231, CHARLOTTE, NC, 28210","Match","Exact","7607 WATERFORD LAKES DR, CHARLOTTE, NC, 28210",614091394,"R"
287339,"7608 AUTUMN FROST CIRCLE","FISHERS","IN",46038,39.947202276,-86.036936828,339,"7608 AUTUMN FROST CIRCLE, FISHERS, IN, 46038","Match","Exact","7608 AUTUMN FROST CIR, FISHERS, IN, 46038",29334124,"L"
287340,"7608 BROOKS AVENUE","FORT WORTH","TX",76118,32.8148940290001,-97.214018258,340,"7608 BROOKS AVENUE, FORT WORTH, TX, 76118","Match","Exact","7608 BROOKS AVE, FORT WORTH, TX, 76118",101866266,"R"
287341,"7608 CROSS VILLAGE DRIVE","GERMANTOWN","TN",38138,35.067010866,-89.8094073729999,341,"7608 CROSS VILLAGE DRIVE, GERMANTOWN, TN, 38138","Match","Exact","7608 CROSS VILLAGE DR, GERMANTOWN, TN, 38138",72930868,"L"
287342,"7608 E 73RD TERRACE","KANSAS CITY","MO",64113,38.991247501,-94.4995043979999,342,"7608 E 73RD TERRACE, KANSAS CITY, MO, 64113","Match","Non_Exact","7608 E 73RD TER, KANSAS CITY, MO, 64133",91464658,"L"
287343,"7608 ELMWOOD DR","DENHAM SPRINGS","LA",70706,30.541206602,-90.96165229,343,"7608 ELMWOOD DR, DENHAM SPRINGS, LA, 70706","Match","Exact","7608 ELMWOOD DR, DENHAM SPRINGS, LA, 70706",115087825,"R"
287344,"7608 GLACKENS DR","POTOMAC","MD",20854,39.0474756510001,-77.1555725589999,344,"7608 GLACKENS DR, POTOMAC, MD, 20854","Match","Exact","7608 GLACKENS DR, POTOMAC, MD, 20854",62055758,"R"
287345,"7608 HEARTSIDE WAY - UNIT 2020","ELKRIDGE","MD",21075,NA,NA,345,"7608 HEARTSIDE WAY - UNIT 2020, ELKRIDGE, MD, 21075","No_Match",NA,NA,NA,NA
287346,"7608 HIGHWAY 160","WALNUT SHADE","MO",65771,36.7403959660001,-93.199386094,346,"7608 HIGHWAY 160, WALNUT SHADE, MO, 65771","Match","Non_Exact","7608 US HWY 160, WALNUT SHADE, MO, 65771",20182967,"L"
287347,"7608 N 32ND STREET","BOULDER","CO",80302,40.11313339,-105.279163869,347,"7608 N 32ND STREET, BOULDER, CO, 80302","Match","Exact","7608 32ND ST, BOULDER, CO, 80302",188158437,"R"
287348,"7608 N KANSAS AVE","KANSAS CITY","MO",64119,39.2328072190001,-94.544239617,348,"7608 N KANSAS AVE, KANSAS CITY, MO, 64119","Match","Exact","7608 N KANSAS AVE, KANSAS CITY, MO, 64119",89782879,"R"
287349,"7608 PHEASANT CT","KANSAS CITY","MO",64139,38.979914443,-94.390222906,349,"7608 PHEASANT CT, KANSAS CITY, MO, 64139","Match","Exact","7608 PHEASANT CT, KANSAS CITY, MO, 64139",636179332,"L"
287350,"7608 ROSEWOOD DR","PORT RICHEY","FL",34668,28.3086374000001,-82.689193632,350,"7608 ROSEWOOD DR, PORT RICHEY, FL, 34668","Match","Exact","7608 ROSEWOOD DR, PORT RICHEY, FL, 34668",86340705,"R"
287351,"7608 SEANS TERRACE","LANHAM","MD",20706,38.956227857,-76.883828538,351,"7608 SEANS TERRACE, LANHAM, MD, 20706","Match","Exact","7608 SEANS TER, LANHAM, MD, 20706",76340240,"R"
287352,"7608 SHORE HAVEN DRIVE","LAS  VEGAS","NV",89131,36.204026089,-115.261540403,352,"7608 SHORE HAVEN DRIVE, LAS  VEGAS, NV, 89131","Match","Non_Exact","7608 SHORE HAVEN DR, LAS VEGAS, NV, 89128",201917296,"L"
287353,"7608 SILVER MALLARD AVE","LAS VEGAS","NV",89131,36.2960731490001,-115.261170729,353,"7608 SILVER MALLARD AVE, LAS VEGAS, NV, 89131","Match","Exact","7608 SILVER MALLARD AVE, LAS VEGAS, NV, 89131",201966927,"R"
287354,"7608 SLOEWOOD DR","LEESBURG","FL",34748,28.8114309420001,-81.829016248,354,"7608 SLOEWOOD DR, LEESBURG, FL, 34748","Match","Exact","7608 SLOEWOOD DR, LEESBURG, FL, 34748",637529325,"R"
287355,"7608 W 102ND STREET","OVERLAND PARK","KS",66212,38.9437221470001,-94.67444041,355,"7608 W 102ND STREET, OVERLAND PARK, KS, 66212","Match","Exact","7608 W 102ND ST, OVERLAND PARK, KS, 66212",91277390,"R"
287356,"7608 W MESCAL ST","PEORIA","AZ",85345,33.5869484780001,-112.224180003,356,"7608 W MESCAL ST, PEORIA, AZ, 85345","Match","Exact","7608 W MESCAL ST, PEORIA, AZ, 85345",128391341,"R"
287357,"7609 ASHLEAF COVE","AUSTIN","TX",78759,30.4178672900001,-97.7769483019999,357,"7609 ASHLEAF COVE, AUSTIN, TX, 78759","Match","Exact","7609 ASHLEAF COVE, AUSTIN, TX, 78759",63925939,"L"
287358,"7609 BELCREST DR","FRISCO","TX",75034,33.1416549580001,-96.814978701,358,"7609 BELCREST DR, FRISCO, TX, 75034","Match","Exact","7609 BELCREST DR, FRISCO, TX, 75034",123546434,"L"
287359,"7609 GLENCANNON DR","CHARLOTTE","NC",28227,35.212110076,-80.7170888379999,359,"7609 GLENCANNON DR, CHARLOTTE, NC, 28227","Match","Exact","7609 GLENCANNON DR, CHARLOTTE, NC, 28227",70494365,"L"
287360,"7609 GOLD MINE COURT","RALEIGH","NC",27615,35.881965458,-78.6584761779999,360,"7609 GOLD MINE COURT, RALEIGH, NC, 27615","Match","Exact","7609 GOLD MINE CT, RALEIGH, NC, 27615",72537692,"L"
287361,"7609 HAMILTON AVE","CINCINNATI","OH",45231,39.232665055,-84.5481847469999,361,"7609 HAMILTON AVE, CINCINNATI, OH, 45231","Match","Exact","7609 HAMILTON AVE, CINCINNATI, OH, 45231",103919678,"L"
287362,"7609 HARMANS ROAD  SUITE B","HANOVER","MD",21076,39.148739418,-76.707857487,362,"7609 HARMANS ROAD  SUITE B, HANOVER, MD, 21076","Match","Exact","7609 HARMANS RD, HANOVER, MD, 21076",648267775,"L"
287363,"7609 HWY 903","BRACEY","VA",23919,36.565753531,-78.0899727939999,363,"7609 HWY 903, BRACEY, VA, 23919","Match","Non_Exact","7609 STATE RTE 903, BRACEY, VA, 23919",54325875,"R"
287364,"7609 JUSTIN PLACE","CHAPEL HILL","NC",27514,35.9648361500001,-79.033498772,364,"7609 JUSTIN PLACE, CHAPEL HILL, NC, 27514","Match","Exact","7609 JUSTIN PL, CHAPEL HILL, NC, 27514",72387419,"L"
287365,"7609 KNOLLWOOD RD","TOWSON","MD",21286,39.3914449260001,-76.594394278,365,"7609 KNOLLWOOD RD, TOWSON, MD, 21286","Match","Exact","7609 KNOLLWOOD RD, TOWSON, MD, 21286",636800356,"L"
287366,"7609 LEONARD DR","FALLS CHURCH","VA",22043,38.9130901790001,-77.207258257,366,"7609 LEONARD DR, FALLS CHURCH, VA, 22043","Match","Exact","7609 LEONARD DR, FALLS CHURCH, VA, 22043",75962775,"L"
287367,"7609 LEONARD DRIVE","FALLS CHURCH","VA",22043,38.9130901790001,-77.207258257,367,"7609 LEONARD DRIVE, FALLS CHURCH, VA, 22043","Match","Exact","7609 LEONARD DR, FALLS CHURCH, VA, 22043",75962775,"L"
287368,"7609 MATHER LANE","INDIANAPOLIS","IN",46239,39.7039744370001,-86.0328362659999,368,"7609 MATHER LANE, INDIANAPOLIS, IN, 46239","Match","Exact","7609 MATHER LN, INDIANAPOLIS, IN, 46239",624027867,"L"
287369,"7609 S 5TH ST","BROKEN ARROW","OK",74011,35.9781181640001,-95.781764185,369,"7609 S 5TH ST, BROKEN ARROW, OK, 74011","Match","Exact","7609 S 5TH ST, BROKEN ARROW, OK, 74011",617313887,"L"
287370,"7609 S MAYWOOD LANE","OKLAHOMA CITY","OK",73150,NA,NA,370,"7609 S MAYWOOD LANE, OKLAHOMA CITY, OK, 73150","Tie",NA,NA,NA,NA
287371,"761 CRESTSIDE COURT","AUSTELL","GA",30168,33.7777989410001,-84.5785023239999,371,"761 CRESTSIDE COURT, AUSTELL, GA, 30168","Match","Exact","761 CRESTSIDE CT, AUSTELL, GA, 30168",17206988,"L"
287372,"761 DOROTHY COURT","ARCATA","CA",95521,40.863611066,-124.070148675,372,"761 DOROTHY COURT, ARCATA, CA, 95521","Match","Exact","761 DOROTHY CT, ARCATA, CA, 95521",112992493,"L"
287373,"761 E 155TH ST","DOLTON","IL",60419,NA,NA,373,"761 E 155TH ST, DOLTON, IL, 60419","No_Match",NA,NA,NA,NA
287374,"761 EAST 81 STREET","BROOKLYN","NY",11236,40.637007081,-73.913610163,374,"761 EAST 81 STREET, BROOKLYN, NY, 11236","Match","Exact","761 E 81ST ST, BROOKLYN, NY, 11236",59086405,"L"
287375,"761 EAST A STREET","DIXON","CA",95620,38.445495658,-121.81405702,375,"761 EAST A STREET, DIXON, CA, 95620","Match","Exact","761 E A ST, DIXON, CA, 95620",192540350,"L"
287376,"761 GREAT CLOUD","NEW BRAUNFELS","TX",78130,29.760594343,-98.0671957549999,376,"761 GREAT CLOUD, NEW BRAUNFELS, TX, 78130","Match","Non_Exact","761 GREAT CLOUD DR, NEW BRAUNFELS, TX, 78130",641470384,"L"
287377,"761 MARTINDALE FALLS","MARTINDALE","TX",78655,29.825852877,-97.842158379,377,"761 MARTINDALE FALLS, MARTINDALE, TX, 78655","Match","Non_Exact","761 MARTINDALE FALLS WAY, MARTINDALE, TX, 78655",54820176,"R"
287378,"761 MIKEN DRIVE","RICHMOND","IN",47374,39.8527754830001,-84.893241184,378,"761 MIKEN DRIVE, RICHMOND, IN, 47374","Match","Non_Exact","761 MIKAN DR, RICHMOND, IN, 47374",31326654,"R"
287379,"761 MODERN ICE DRIVE","SAN JOSE","CA",95112,37.361930312,-121.88969855,379,"761 MODERN ICE DRIVE, SAN JOSE, CA, 95112","Match","Exact","761 MODERN ICE DR, SAN JOSE, CA, 95112",615534050,"L"
287380,"761 MOSS SIDE DRIVE","BETHLEHEM","GA",30620,33.914840848,-83.7561378139999,380,"761 MOSS SIDE DRIVE, BETHLEHEM, GA, 30620","Match","Exact","761 MOSS SIDE DR, BETHLEHEM, GA, 30620",628068835,"R"
287381,"761 NE 73RD STREET","MIAMI","FL",33138,25.8425997310001,-80.1807505149999,381,"761 NE 73RD STREET, MIAMI, FL, 33138","Match","Exact","761 NE 73RD ST, MIAMI, FL, 33138",116007055,"L"
287382,"761 NEWBURG PL","WESTFIELD","IN",46074,40.013491221,-86.170840498,382,"761 NEWBURG PL, WESTFIELD, IN, 46074","Match","Exact","761 NEWBURG PL, WESTFIELD, IN, 46074",636074063,"L"
287383,"761 NW 4TH CT","BOCA RATON","FL",33432,26.3578721430001,-80.09527829,383,"761 NW 4TH CT, BOCA RATON, FL, 33432","Match","Exact","761 NW 4TH CT, BOCA RATON, FL, 33432",115302979,"L"
287384,"761 OLD CAMBRIDGE ROAD","HENRIETTA","TX",76365,33.8178400680001,-98.1463065409999,384,"761 OLD CAMBRIDGE ROAD, HENRIETTA, TX, 76365","Match","Exact","761 OLD CAMBRIDGE RD, HENRIETTA, TX, 76365",169780206,"L"
287385,"761 PECAN WAY","CAMPBELL","CA",95008,37.2760778310001,-121.968737981,385,"761 PECAN WAY, CAMPBELL, CA, 95008","Match","Exact","761 PECAN WAY, CAMPBELL, CA, 95008",122997393,"R"
287386,"761 RED ROCK ROAD","WICHITA FALLS","TX",76305,33.9176443370001,-98.32896723,386,"761 RED ROCK ROAD, WICHITA FALLS, TX, 76305","Match","Exact","761 RED ROCK RD, WICHITA FALLS, TX, 76305",169828923,"L"
287387,"761 RODEO ROAD","CAMDENTON","MO",65020,37.9942281240001,-92.7410111089999,387,"761 RODEO ROAD, CAMDENTON, MO, 65020","Match","Exact","761 RODEO RD, CAMDENTON, MO, 65020",22866288,"R"
287388,"761 S 5TH STREET","JEFFERSON","OR",97352,44.709355284,-123.005137219,388,"761 S 5TH STREET, JEFFERSON, OR, 97352","Match","Exact","761 S 5TH ST, JEFFERSON, OR, 97352",624258527,"R"
287389,"761 S EMPORIA STREET","DENVER","CO",80247,39.7021181040001,-104.874681958,389,"761 S EMPORIA STREET, DENVER, CO, 80247","Match","Exact","761 S EMPORIA ST, DENVER, CO, 80247",177343119,"R"
287390,"761 S HICKORY TERRACE","SPRINGFIELD","MO",65809,37.2001076240001,-93.2017329669999,390,"761 S HICKORY TERRACE, SPRINGFIELD, MO, 65809","Match","Exact","761 S HICKORY TER, SPRINGFIELD, MO, 65809",76710357,"L"
287391,"761 SARANAC DRIVE","SUNNYVALE","CA",94087,37.358647983,-122.044856193,391,"761 SARANAC DRIVE, SUNNYVALE, CA, 94087","Match","Exact","761 SARANAC DR, SUNNYVALE, CA, 94087",122937276,"R"
287392,"761 SOUTH SANTEE RD","MCCLELLANVILLE","SC",29458,33.154355788,-79.411276539,392,"761 SOUTH SANTEE RD, MCCLELLANVILLE, SC, 29458","Match","Non_Exact","761 S SANTEE RD, MC CLELLANVILLE, SC, 29458",108793344,"L"
287393,"761 SPROUL RD","SPRINGFIELD","PA",19064,NA,NA,393,"761 SPROUL RD, SPRINGFIELD, PA, 19064","No_Match",NA,NA,NA,NA
287394,"761 STATE ROUTE 369 LOT 82","PORT CRANE","NY",13833,NA,NA,394,"761 STATE ROUTE 369 LOT 82, PORT CRANE, NY, 13833","No_Match",NA,NA,NA,NA
287395,"761 STEPHEN AVE","PERTH AMBOY","NJ",8861,40.531781063,-74.2883059659999,395,"761 STEPHEN AVE, PERTH AMBOY, NJ, 8861","Match","Exact","761 STEPHEN AVE, PERTH AMBOY, NJ, 08861",60279665,"L"
287396,"761 SUNSET CIRCLE","CRANBERRY TWP","PA",16066,40.722015771,-80.128214274,396,"761 SUNSET CIRCLE, CRANBERRY TWP, PA, 16066","Match","Exact","761 SUNSET CIR, CRANBERRY TOWNSHIP, PA, 16066",52691708,"L"
287397,"761 W DOGWOOD ROAD","LORIS","SC",29569,34.0861056680001,-78.909588543,397,"761 W DOGWOOD ROAD, LORIS, SC, 29569","Match","Exact","761 W DOGWOOD RD, LORIS, SC, 29569",29088665,"L"
287398,"761 WEST CROSS STREET","WOODLAND","CA",95695,38.672172769,-121.796939899,398,"761 WEST CROSS STREET, WOODLAND, CA, 95695","Match","Exact","761 W CROSS ST, WOODLAND, CA, 95695",67689529,"L"
287399,"761 YORK STREET","MOUNT WOLF","PA",17347,40.065403003,-76.6746368889999,399,"761 YORK STREET, MOUNT WOLF, PA, 17347","Match","Exact","761 YORK ST, MOUNT WOLF, PA, 17347",611426408,"L"
287400,"7610 ANTIQUE OAK STREET","LIVE OAK","TX",78233,29.545131122,-98.340125692,400,"7610 ANTIQUE OAK STREET, LIVE OAK, TX, 78233","Match","Exact","7610 ANTIQUE OAK ST, LIVE OAK, TX, 78233",101503457,"R"
287401,"7610 BEVERLY BLVD","LOS ANGELES","CA",90048,34.0761210220001,-118.35648094,401,"7610 BEVERLY BLVD, LOS ANGELES, CA, 90048","Match","Non_Exact","7610 BEVERLY BLVD, LOS ANGELES, CA, 90036",141598580,"L"
287402,"7610 CHARLTON AVE","BERWYN HEIGHTS","MD",20740,38.985875508,-76.9097902359999,402,"7610 CHARLTON AVE, BERWYN HEIGHTS, MD, 20740","Match","Exact","7610 CHARLTON AVE, BERWYN HEIGHTS, MD, 20740",76305684,"L"
287403,"7610 COTTONWOOD DR STE 102","JENISON","MI",49428,42.9074421380001,-85.792089246,403,"7610 COTTONWOOD DR STE 102, JENISON, MI, 49428","Match","Exact","7610 COTTONWOOD DR, JENISON, MI, 49428",650177018,"R"
287404,"7610 HIGHWAY 41 NORTH","PALMETTO","FL",34221,NA,NA,404,"7610 HIGHWAY 41 NORTH, PALMETTO, FL, 34221","No_Match",NA,NA,NA,NA
287405,"7610 HIGHWAY 6","HITCHCOCK","TX",77563,29.3471565890001,-95.012113302,405,"7610 HIGHWAY 6, HITCHCOCK, TX, 77563","Match","Exact","7610 HWY 6, HITCHCOCK, TX, 77563",96687534,"L"
287406,"7610 N CYPRESSHEAD DR","PARKLAND","FL",33067,26.326207303,-80.228250841,406,"7610 N CYPRESSHEAD DR, PARKLAND, FL, 33067","Match","Exact","7610 N CYPRESSHEAD DR, PARKLAND, FL, 33067",114768011,"L"
287407,"7610 N G ST","SPOKAND","WA",99208,47.727705416,-117.459909884,407,"7610 N G ST, SPOKAND, WA, 99208","Match","Non_Exact","7610 N G ST, SPOKANE, WA, 99208",605639928,"R"
287408,"7610 N MERCIER CT","KANAS CITY","MO",64118,39.2335484220001,-94.593270896,408,"7610 N MERCIER CT, KANAS CITY, MO, 64118","Match","Non_Exact","7610 N MERCIER CT, KANSAS CITY, MO, 64118",624977379,"R"
287409,"7610 N NEWPORT AVE","TAMPA","FL",33604,28.0172775730001,-82.4705378039999,409,"7610 N NEWPORT AVE, TAMPA, FL, 33604","Match","Exact","7610 N NEWPORT AVE, TAMPA, FL, 33604",104517970,"L"
287410,"7610 N PATRIOT WAY","VAN NUYS","CA",91405,34.2089787570001,-118.464847282,410,"7610 N PATRIOT WAY, VAN NUYS, CA, 91405","Match","Exact","7610 PATRIOT WAY, VAN NUYS, CA, 91405",648663799,"L"
287411,"7610 PENNSYLVANIA AVENUE  SUITE 203","FORESTVILLE","MD",20747,NA,NA,411,"7610 PENNSYLVANIA AVENUE  SUITE 203, FORESTVILLE, MD, 20747","No_Match",NA,NA,NA,NA
287412,"7610 PENNSYLVANIA AVENUE STE 301","FORESTVILLE","MD",20747,NA,NA,412,"7610 PENNSYLVANIA AVENUE STE 301, FORESTVILLE, MD, 20747","No_Match",NA,NA,NA,NA
287413,"7610 RIVERPASS DRIVE","PEARLAND","TX",77581,29.571302346,-95.337830334,413,"7610 RIVERPASS DRIVE, PEARLAND, TX, 77581","Match","Non_Exact","7610 RIVER PASS DR, PEARLAND, TX, 77581",651886283,"R"
287414,"7610 SALEM-NOBLE RD","CHARLESTOWN","IN",47111,38.409801918,-85.725854752,414,"7610 SALEM-NOBLE RD, CHARLESTOWN, IN, 47111","Match","Non_Exact","7610 SALEM NOBLE RD, CHARLESTOWN, IN, 47111",64898248,"L"
287415,"7610 STIRLING ROAD C106","DAVIE","FL",33024,26.045597865,-80.241223024,415,"7610 STIRLING ROAD C106, DAVIE, FL, 33024","Match","Non_Exact","7610 STIRLING RD, PEMBROKE PINES, FL, 33024",637553094,"R"
287416,"7610 SUMMER SHORE DRIVE","ROSENBERG","TX",77469,29.5384826860001,-95.741925096,416,"7610 SUMMER SHORE DRIVE, ROSENBERG, TX, 77469","Match","Exact","7610 SUMMER SHORE, ROSENBERG, TX, 77469",616466181,"L"
287417,"7610 W  59TH TER APT 24","OVERLAND PARK","KS",66202,39.021647241,-94.6749679,417,"7610 W  59TH TER APT 24, OVERLAND PARK, KS, 66202","Match","Non_Exact","7610 W 59TH TER, OVERLAND PARK, KS, 66202",91326111,"L"
287418,"7610 WAINSTEAD DR","PARMA","OH",44129,41.393137417,-81.737109689,418,"7610 WAINSTEAD DR, PARMA, OH, 44129","Match","Exact","7610 WAINSTEAD DR, PARMA, OH, 44129",61106946,"R"
287419,"7610 WOODSPAN DR","DALLAS","TX",75232,32.6570019920001,-96.83189784,419,"7610 WOODSPAN DR, DALLAS, TX, 75232","Match","Exact","7610 WOODSPAN DR, DALLAS, TX, 75232",102953081,"L"
287420,"7610A GEORGIA AVENUE NW","WASHINGTON","DC",20012,38.98251033,-77.026558678,420,"7610A GEORGIA AVENUE NW, WASHINGTON, DC, 20012","Match","Exact","7610 GEORGIA AVE NW, WASHINGTON, DC, 20012",76221706,"L"
287421,"7611 36TH AVE N APT 213","NEW HOPE","MN",55427,45.0218791410001,-93.376641228,421,"7611 36TH AVE N APT 213, NEW HOPE, MN, 55427","Match","Exact","7611 36TH AVE N, NEW HOPE, MN, 55427",43728189,"L"
287422,"7611 37TH AVENUE STE 202","JACKSON HTS","NY",11372,NA,NA,422,"7611 37TH AVENUE STE 202, JACKSON HTS, NY, 11372","No_Match",NA,NA,NA,NA
287423,"7611 DEL GLEN LANE","HOUSTON","TX",77072,29.694216651,-95.6107998589999,423,"7611 DEL GLEN LANE, HOUSTON, TX, 77072","Match","Exact","7611 DEL GLEN LN, HOUSTON, TX, 77072",96035158,"L"
287424,"7611 E 100TH TER","KANSAS CITY","MO",64134,38.9415324560001,-94.499745285,424,"7611 E 100TH TER, KANSAS CITY, MO, 64134","Match","Exact","7611 E 100TH TER, KANSAS CITY, MO, 64134",91465818,"R"
287425,"7611 GUM RD","DUNDALK","MD",21222,39.2827351290001,-76.499643968,425,"7611 GUM RD, DUNDALK, MD, 21222","Match","Exact","7611 GUM RD, DUNDALK, MD, 21222",635886462,"L"
287426,"7611 GUNFLINT TRAIL","GRAND MARAIS","MN",55604,48.043415059,-90.476901246,426,"7611 GUNFLINT TRAIL, GRAND MARAIS, MN, 55604","Match","Exact","7611 GUNFLINT TRL, GRAND MARAIS, MN, 55604",194167410,"R"
287427,"7611 JARBOE STREET","KANSAS CITY","MO",64114,38.9905991690001,-94.602119096,427,"7611 JARBOE STREET, KANSAS CITY, MO, 64114","Match","Exact","7611 JARBOE ST, KANSAS CITY, MO, 64114",91453907,"L"
287428,"7611 LINWOOD AVE","CLEVELAND","OH",44103,41.5120699060001,-81.635901227,428,"7611 LINWOOD AVE, CLEVELAND, OH, 44103","Match","Exact","7611 LINWOOD AVE, CLEVELAND, OH, 44103",61113891,"L"
287429,"7611 N HIGHWAY 146","BAYTOWN","TX",77520,NA,NA,429,"7611 N HIGHWAY 146, BAYTOWN, TX, 77520","No_Match",NA,NA,NA,NA
287430,"7611 OCEAN HARBOR LANE","TAMPA","FL",33615,28.029072328,-82.56478215,430,"7611 OCEAN HARBOR LANE, TAMPA, FL, 33615","Match","Exact","7611 OCEAN HARBOR LN, TAMPA, FL, 33615",623855431,"L"
287431,"7611 PRESLAR COURT","WINDERMERE","FL",34786,28.4522066010001,-81.552517844,431,"7611 PRESLAR COURT, WINDERMERE, FL, 34786","Match","Exact","7611 PRESLAR CT, WINDERMERE, FL, 34786",94414733,"R"
287432,"7611 SOUTH COLES  UNIT 1A","CHICAGO","IL",60649,41.757570204,-87.556222436,432,"7611 SOUTH COLES  UNIT 1A, CHICAGO, IL, 60649","Match","Non_Exact","7611 S COLES AVE, CHICAGO, IL, 60649",605557204,"L"
287433,"7611 SOUTH OSBORNE RD SUITE 204","UPPER MARLBORO","MD",20772,38.7853995780001,-76.798718032,433,"7611 SOUTH OSBORNE RD SUITE 204, UPPER MARLBORO, MD, 20772","Match","Exact","7611 S OSBORNE RD, UPPER MARLBORO, MD, 20772",653268393,"R"
287434,"7611 SW 7TH PL","NORTH LAUDERDALE","FL",33068,26.2205732480001,-80.2285513159999,434,"7611 SW 7TH PL, NORTH LAUDERDALE, FL, 33068","Match","Exact","7611 SW 7TH PL, N LAUDERDALE, FL, 33068",114692572,"L"
287435,"7611 TIMBERLY COURT","MCLEAN","VA",22102,38.93906507,-77.208706896,435,"7611 TIMBERLY COURT, MCLEAN, VA, 22102","Match","Exact","7611 TIMBERLY CT, MCLEAN, VA, 22102",75962101,"R"
287436,"7611 W THOMAS RD SUITE B15","PHOENIX","AZ",85033,33.4801590050001,-112.221870726,436,"7611 W THOMAS RD SUITE B15, PHOENIX, AZ, 85033","Match","Non_Exact","7611 W THOMAS RD, PHOENIX, AZ, 85033",128948758,"L"
287437,"7612 160TH LANE N","PALM BEACH GARDENS","FL",33418,26.912742322,-80.152914865,437,"7612 160TH LANE N, PALM BEACH GARDENS, FL, 33418","Match","Exact","7612 160TH LN N, PALM BEACH GARDENS, FL, 33418",115262346,"R"
287438,"7612 BOLTONS CT","BRADENTON","FL",34201,27.4052371010001,-82.476786537,438,"7612 BOLTONS CT, BRADENTON, FL, 34201","Match","Exact","7612 BOLTONS CT, BRADENTON, FL, 34201",16283567,"R"
287439,"7612 DARLA WAY","SACRAMENTO","CA",95828,38.4783396280001,-121.403284151,439,"7612 DARLA WAY, SACRAMENTO, CA, 95828","Match","Exact","7612 DARLA WAY, SACRAMENTO, CA, 95828",133353849,"L"
287440,"7612 DONALD AVE","CLEVELAND","OH",44103,41.522969168,-81.635989488,440,"7612 DONALD AVE, CLEVELAND, OH, 44103","Match","Exact","7612 DONALD AVE, CLEVELAND, OH, 44103",61113806,"R"
287441,"7612 HARPS MILL RD","RALEIGH","NC",27615,35.887308826,-78.6183727969999,441,"7612 HARPS MILL RD, RALEIGH, NC, 27615","Match","Exact","7612 HARPS MILL RD, RALEIGH, NC, 27615",72505917,"R"
287442,"7612 HIGGINS LANE","PLANO","TX",75024,33.0810763260001,-96.7725884979999,442,"7612 HIGGINS LANE, PLANO, TX, 75024","Match","Exact","7612 HIGGINS LN, PLANO, TX, 75024",123510831,"R"
287443,"7612 NORTH TICHIGAN ROAD","WATERFORD","WI",53185,42.823100513,-88.2080632079999,443,"7612 NORTH TICHIGAN ROAD, WATERFORD, WI, 53185","Match","Exact","7612 N TICHIGAN RD, WATERFORD, WI, 53185",77903406,"L"
287444,"7612 NW MILREY DR","KANSAS CITY","MO",64152,39.2331579740001,-94.663380065,444,"7612 NW MILREY DR, KANSAS CITY, MO, 64152","Match","Exact","7612 NW MILREY DR, KANSAS CITY, MO, 64152",39711926,"L"
287445,"7612 SE RAMONA ST","PORTLAND","OR",97206,45.4809830090001,-122.584957311,445,"7612 SE RAMONA ST, PORTLAND, OR, 97206","Match","Exact","7612 SE RAMONA ST, PORTLAND, OR, 97206",638570435,"R"
287446,"7612 SENRAB DRIVE","BRADENTON","FL",34209,27.4948979490001,-82.638256804,446,"7612 SENRAB DRIVE, BRADENTON, FL, 34209","Match","Exact","7612 SENRAB DR, BRADENTON, FL, 34209",16231779,"R"
287447,"7612 VICAR STREET","NEW CARROLLTON","MD",20784,38.963727066,-76.875947136,447,"7612 VICAR STREET, NEW CARROLLTON, MD, 20784","Match","Exact","7612 VICAR ST, NEW CARROLLTON, MD, 20784",76308399,"L"
287448,"7613 BAJA CV","AUSTIN","TX",78759,30.421112727,-97.77575619,448,"7613 BAJA CV, AUSTIN, TX, 78759","Match","Exact","7613 BAJA COVE, AUSTIN, TX, 78759",63982609,"L"
287449,"7613 BARKBRIDGE ROAD","CHESTERFIELD","VA",23832,37.4396275940001,-77.534764932,449,"7613 BARKBRIDGE ROAD, CHESTERFIELD, VA, 23832","Match","Exact","7613 BARKBRIDGE RD, CHESTERFIELD, VA, 23832",201584550,"L"
287450,"7613 E MAGGEE CT","INVERNESS","FL",34450,28.8540149520001,-82.307392073,450,"7613 E MAGGEE CT, INVERNESS, FL, 34450","Match","Exact","7613 E MAGGEE CT, INVERNESS, FL, 34450",86219862,"R"
287451,"7613 LAKE BOLSENA DR","CORPUS CHRISTI","TX",78413,27.6728414580001,-97.4117173879999,451,"7613 LAKE BOLSENA DR, CORPUS CHRISTI, TX, 78413","Match","Exact","7613 LAKE BOLSENA DR, CORPUS CHRISTI, TX, 78413",178535792,"R"
287452,"7613 OLD KINGS ROAD","JACKSONVILLE","FL",32219,30.3904273540001,-81.750637694,452,"7613 OLD KINGS ROAD, JACKSONVILLE, FL, 32219","Match","Exact","7613 OLD KINGS RD, JACKSONVILLE, FL, 32219",83887360,"R"
287453,"7613 ROUNDTABLE DRIVE","FRISCO","TX",75035,33.141743766,-96.788927249,453,"7613 ROUNDTABLE DRIVE, FRISCO, TX, 75035","Match","Non_Exact","7613 ROUNDTABLE RD, FRISCO, TX, 75035",123527194,"R"
287454,"7613 TEESDALE DR","HOUSTON","TX",77028,29.8459281990001,-95.290956179,454,"7613 TEESDALE DR, HOUSTON, TX, 77028","Match","Exact","7613 TEESDALE DR, HOUSTON, TX, 77028",96076902,"L"
287455,"7613 US HWY 1 S","ST AUGUSTINE","FL",32086,NA,NA,455,"7613 US HWY 1 S, ST AUGUSTINE, FL, 32086","No_Match",NA,NA,NA,NA
287456,"7614 19TH AVE","BROOKLYN","NY",11214,40.61146316,-73.994717099,456,"7614 19TH AVE, BROOKLYN, NY, 11214","Match","Exact","7614 19TH AVE, BROOKLYN, NY, 11214",59088434,"R"
287457,"7614 BRYONWOOD DR","HOUSTON","TX",77055,29.7872591280001,-95.480408676,457,"7614 BRYONWOOD DR, HOUSTON, TX, 77055","Match","Exact","7614 BRYONWOOD DR, HOUSTON, TX, 77055",96031967,"R"
287458,"7614 CARLA ROAD","PIKESVILLE","MD",21208,39.3768879450001,-76.7022694729999,458,"7614 CARLA ROAD, PIKESVILLE, MD, 21208","Match","Exact","7614 CARLA RD, PIKESVILLE, MD, 21208",191468140,"L"
287459,"7614 GREEN WILLOW CT","HYATTSVILLE","MD",20785,NA,NA,459,"7614 GREEN WILLOW CT, HYATTSVILLE, MD, 20785","No_Match",NA,NA,NA,NA
287460,"7614 HEAVENLY PEAK STREET","LAS VEGAS","NV",89166,36.300134945,-115.316462776,460,"7614 HEAVENLY PEAK STREET, LAS VEGAS, NV, 89166","Match","Non_Exact","7614 N HEAVENLY PEAK ST, LAS VEGAS, NV, 89166",627162497,"R"
287461,"7614 HEYWARD CIRCLE","BRADENTON","FL",34201,27.4087083270001,-82.461673092,461,"7614 HEYWARD CIRCLE, BRADENTON, FL, 34201","Match","Exact","7614 HEYWARD CIR, BRADENTON, FL, 34201",16294137,"L"
287462,"7614 KNIGHTSHAYES DR","MANASSAS","VA",20111,38.708891554,-77.429635902,462,"7614 KNIGHTSHAYES DR, MANASSAS, VA, 20111","Match","Exact","7614 KNIGHTSHAYES DR, MANASSAS, VA, 20111",635834081,"L"
287463,"7614 N VANDIVER RD","SAN ANTONIO","TX",78209,29.504741557,-98.442093337,463,"7614 N VANDIVER RD, SAN ANTONIO, TX, 78209","Match","Exact","7614 N VANDIVER RD, SAN ANTONIO, TX, 78209",101499453,"R"
287464,"7614 NE 75TH TER","KANSAS CITY","MO",64158,39.230305539,-94.491210554,464,"7614 NE 75TH TER, KANSAS CITY, MO, 64158","Match","Exact","7614 NE 75TH TER, KANSAS CITY, MO, 64158",89782692,"L"
287465,"7614 NORTH MERIDIAN ROAD","NEWTON","KS",67114,38.134898632,-97.371810995,465,"7614 NORTH MERIDIAN ROAD, NEWTON, KS, 67114","Match","Exact","7614 N MERIDIAN RD, NEWTON, KS, 67114",629859321,"R"
287466,"7614 OAKPOST CT","UPPER MARLBORO","MD",20772,38.787051037,-76.840803796,466,"7614 OAKPOST CT, UPPER MARLBORO, MD, 20772","Match","Exact","7614 OAKPOST CT, UPPER MARLBORO, MD, 20772",638440159,"R"
287467,"7614 TABOR AVENUE","PHILADELPHIA","PA",19111,40.063829722,-75.076487393,467,"7614 TABOR AVENUE, PHILADELPHIA, PA, 19111","Match","Exact","7614 TABOR AVE, PHILADELPHIA, PA, 19111",131415582,"L"
287468,"7614 W NORTHVIEW AVE","GLENDALE","AZ",85303,33.543138433,-112.222887462,468,"7614 W NORTHVIEW AVE, GLENDALE, AZ, 85303","Match","Exact","7614 NORTHVIEW AVE, GLENDALE, AZ, 85303",128844898,"L"
287469,"7614","SAN ANTONIO","TX",78249,NA,NA,469,"7614, SAN ANTONIO, TX, 78249","No_Match",NA,NA,NA,NA
287470,"7615 47TH AVENUE  APT 2B","ELMHURST","NY",11373,40.739666094,-73.88726471,470,"7615 47TH AVENUE  APT 2B, ELMHURST, NY, 11373","Match","Exact","7615 47TH AVE, ELMHURST, NY, 11373",640915446,"L"
287471,"7615 BARATARIA BLVD","MARRERO","LA",70072,29.7728670000001,-90.086150248,471,"7615 BARATARIA BLVD, MARRERO, LA, 70072","Match","Exact","7615 BARATARIA BLVD, MARRERO, LA, 70072",93556204,"L"
287472,"7615 CANTERCHASE CT APT 3C","FORT WAYNE","IN",46804,41.075494226,-85.241890569,472,"7615 CANTERCHASE CT APT 3C, FORT WAYNE, IN, 46804","Match","Exact","7615 CANTERCHASE CT, FORT WAYNE, IN, 46804",6402326,"L"
287473,"7615 ETIWANDA AVENUE UNIT 481","ETIWANDA","CA",91739,34.115621112,-117.523567057,473,"7615 ETIWANDA AVENUE UNIT 481, ETIWANDA, CA, 91739","Match","Exact","7615 ETIWANDA AVE, ETIWANDA, CA, 91739",638618457,"L"
287474,"7615 FLORENCE SCHOOL DRIVE","HIGH POINT","NC",27265,36.0238839950001,-79.957199309,474,"7615 FLORENCE SCHOOL DRIVE, HIGH POINT, NC, 27265","Match","Exact","7615 FLORENCE SCHOOL DR, HIGH POINT, NC, 27265",131097749,"R"
287475,"7615 FOUNTAINBLEAU DRIVE 2132","NEW CARROLLTON","MD",20784,38.9590960210001,-76.878516793,475,"7615 FOUNTAINBLEAU DRIVE 2132, NEW CARROLLTON, MD, 20784","Match","Non_Exact","7615 FONTAINBLEAU DR, NEW CARROLLTON, MD, 20784",76386061,"R"
287476,"7615 GLADE AVE STE 122","CANOGA PARK","CA",91304,34.2087376310001,-118.608144617,476,"7615 GLADE AVE STE 122, CANOGA PARK, CA, 91304","Match","Exact","7615 GLADE AVE, CANOGA PARK, CA, 91304",642869473,"L"
287477,"7615 HWY 16 W","CLINTON","AR",72031,NA,NA,477,"7615 HWY 16 W, CLINTON, AR, 72031","No_Match",NA,NA,NA,NA
287478,"7615 LEMON GULCH WAY","CASTLE ROCK","CO",80108,39.4703896520001,-104.821755957,478,"7615 LEMON GULCH WAY, CASTLE ROCK, CO, 80108","Match","Exact","7615 LEMON GULCH WAY, CASTLE ROCK, CO, 80108",647982184,"L"
287479,"7615 MIMOSA","EL PASO","TX",79915,31.734760464,-106.377743758,479,"7615 MIMOSA, EL PASO, TX, 79915","Match","Non_Exact","7615 MIMOSA AVE, EL PASO, TX, 79915",189375565,"L"
287480,"7615 NORMANDY DRIVE","FORT RILEY","KS",66442,NA,NA,480,"7615 NORMANDY DRIVE, FORT RILEY, KS, 66442","No_Match",NA,NA,NA,NA
287481,"7615 NW LANCET LN","LAWTON","OK",73505,34.617076292,-98.4890636219999,481,"7615 NW LANCET LN, LAWTON, OK, 73505","Match","Exact","7615 NW LANCET LN, LAWTON, OK, 73505",15003873,"L"
287482,"7615 W GEORGETOWN WAY","FLORENCE","AZ",85132,33.058350348,-111.478402672,482,"7615 W GEORGETOWN WAY, FLORENCE, AZ, 85132","Match","Exact","7615 W GEORGETOWN WAY, FLORENCE, AZ, 85132",614459267,"R"
287483,"7615 YUMA DR","EL PASO","TX",79915,31.7575740460001,-106.359726821,483,"7615 YUMA DR, EL PASO, TX, 79915","Match","Exact","7615 YUMA DR, EL PASO, TX, 79915",189347381,"L"
287484,"7615","REYNOLDSBURG","OH",43068,NA,NA,484,"7615, REYNOLDSBURG, OH, 43068","No_Match",NA,NA,NA,NA
287485,"7616 4TH AVE S","BIRMINGHAM","AL",35206,33.5569767220001,-86.7244231889999,485,"7616 4TH AVE S, BIRMINGHAM, AL, 35206","Match","Exact","7616 4TH AVE S, BIRMINGHAM, AL, 35206",81586336,"L"
287486,"7616 ALVARADO RD","HENRICO","VA",23229,37.6109383310001,-77.539573807,486,"7616 ALVARADO RD, HENRICO, VA, 23229","Match","Exact","7616 ALVARADO RD, HENRICO, VA, 23229",106644985,"R"
287487,"7616 CASTILLO RD","FORT WORTH","TX",76112,32.7420008130001,-97.191787855,487,"7616 CASTILLO RD, FORT WORTH, TX, 76112","Match","Exact","7616 CASTILLO RD, FORT WORTH, TX, 76112",101901345,"R"
287488,"7616 COLORADO AVE N","BROOKLYN PARK","MN",55443,45.092627276,-93.3601351139999,488,"7616 COLORADO AVE N, BROOKLYN PARK, MN, 55443","Match","Exact","7616 COLORADO AVE N, BROOKLYN PARK, MN, 55443",43828998,"R"
287489,"7616 HEARTHSIDE WAY UNIT 5007","ELKRIDGE","MD",21075,39.174503245,-76.781056613,489,"7616 HEARTHSIDE WAY UNIT 5007, ELKRIDGE, MD, 21075","Match","Exact","7616 HEARTHSIDE WAY, ELKRIDGE, MD, 21075",645267919,"L"
287490,"7616 HINKLEY OAK DRIVE","DENTON","TX",76208,33.177644065,-97.055994449,490,"7616 HINKLEY OAK DRIVE, DENTON, TX, 76208","Match","Non_Exact","7616 HINKLEY OAKS DR, DENTON, TX, 76208",627909837,"L"
287491,"7616 HORATIO DR","ST LOUIS","MO",63121,38.7016343720001,-90.322344949,491,"7616 HORATIO DR, ST LOUIS, MO, 63121","Match","Exact","7616 HORATIO DR, SAINT LOUIS, MO, 63121",100133674,"L"
287492,"7616 INDEPENDENCE  DR","THE COLONY","TX",75056,33.1052912070001,-96.8546829329999,492,"7616 INDEPENDENCE  DR, THE COLONY, TX, 75056","Match","Exact","7616 INDEPENDENCE DR, THE COLONY, TX, 75056",103352656,"R"
287493,"7616 LBJ FREEWAY STE 404","DALLAS","TX",75251,32.923690015,-96.7757655889999,493,"7616 LBJ FREEWAY STE 404, DALLAS, TX, 75251","Match","Exact","7616 LYNDON B JOHNSON FWY, DALLAS, TX, 75251",638367132,"R"
287494,"7616 MAPLESHIRE DRIVE","RALEIGH","NC",27616,35.8394347880001,-78.507100371,494,"7616 MAPLESHIRE DRIVE, RALEIGH, NC, 27616","Match","Exact","7616 MAPLESHIRE DR, RALEIGH, NC, 27616",641564068,"L"
287495,"7616 NORTH 56TH STREET","TAMPA","FL",33617,28.0173483900001,-82.3934608929999,495,"7616 NORTH 56TH STREET, TAMPA, FL, 33617","Match","Exact","7616 N 56TH ST, TAMPA, FL, 33617",104532911,"L"
287496,"7616 RIVERVIEW ROAD","BRECKSVILLE","OH",44141,41.356390112,-81.603914485,496,"7616 RIVERVIEW ROAD, BRECKSVILLE, OH, 44141","Match","Exact","7616 RIVERVIEW RD, BRECKSVILLE, OH, 44141",61159344,"R"
287497,"7616 S MORGAN ST","CHICAGO","IL",60620,41.755632715,-87.649029841,497,"7616 S MORGAN ST, CHICAGO, IL, 60620","Match","Exact","7616 S MORGAN ST, CHICAGO, IL, 60620",111830984,"R"
287498,"7616 VINEYARD DRIVE","PLANO","TX",75025,33.079753786,-96.7047537559999,498,"7616 VINEYARD DRIVE, PLANO, TX, 75025","Match","Exact","7616 VINEYARD DR, PLANO, TX, 75025",123485459,"R"
287499,"7616 W C C CSWY UNIT 144","TAMPA","FL",33607,NA,NA,499,"7616 W C C CSWY UNIT 144, TAMPA, FL, 33607","No_Match",NA,NA,NA,NA
287500,"7616 W COURTNEY CAMPBELL CSWY 151","TAMPA","FL",33607,27.967459139,-82.565555734,500,"7616 W COURTNEY CAMPBELL CSWY 151, TAMPA, FL, 33607","Match","Non_Exact","7616 W COURTNEY CAMPBELL CSWY, TAMPA, FL, 33607",104508923,"R"
