"ID","Address","City","State","Zip","lat","long","id","input_address","match_indicator","match_type","matched_address","tiger_line_id","tiger_side"
2001,"100 CIRCLE DRIVE","HORSE CAVE","KY",42749,NA,NA,1,"100 CIRCLE DRIVE, HORSE CAVE, KY, 42749","No_Match",NA,NA,NA,NA
2002,"100 CIRCLE DRIVE","WAURIKA","OK",73573,34.163336214,-97.991924587,2,"100 CIRCLE DRIVE, WAURIKA, OK, 73573","Match","Exact","100 CIRCLE DR, WAURIKA, OK, 73573",15294739,"L"
2003,"100 CIVIC CENTER PLAZA","LOMPOC","CA",93436,34.638840165,-120.45282423,3,"100 CIVIC CENTER PLAZA, LOMPOC, CA, 93436","Match","Exact","100 CIVIC CENTER PLZ, LOMPOC, CA, 93436",108660959,"R"
2004,"100 CLAREMONT LANE SUITE 7","PALM BEACH SHORES","FL",33404,26.7769644320001,-80.03363118,4,"100 CLAREMONT LANE SUITE 7, PALM BEACH SHORES, FL, 33404","Match","Exact","100 CLAREMONT LN, PALM BEACH SHORES, FL, 33404",115277906,"L"
2005,"100 CLARK COURT","RUTHERFORD","NJ",7070,40.8398209330001,-74.121725999,5,"100 CLARK COURT, RUTHERFORD, NJ, 7070","Match","Exact","100 CLARK CT, RUTHERFORD, NJ, 07070",64394103,"R"
2006,"100 CLEVELAND AVENUE","VERSAILLES","KY",40383,38.0572325840001,-84.723451158,6,"100 CLEVELAND AVENUE, VERSAILLES, KY, 40383","Match","Exact","100 CLEVELAND AVE, VERSAILLES, KY, 40383",38496117,"L"
2007,"100 CLIFTON PLACE  STE 103","JERSEY CITY","NJ",7304,40.721332767,-74.064503535,7,"100 CLIFTON PLACE  STE 103, JERSEY CITY, NJ, 7304","Match","Exact","100 CLIFTON PL, JERSEY CITY, NJ, 07304",624560701,"R"
2008,"100 CLUB COURT","ALPHARETTA","GA",30005,34.0889363540001,-84.2226465219999,8,"100 CLUB COURT, ALPHARETTA, GA, 30005","Match","Exact","100 CLUB CT, ALPHARETTA, GA, 30005",17377392,"R"
2009,"100 CLUB DRIVE STE 210","BURNSVILLE","NC",28714,35.870192994,-82.345468969,9,"100 CLUB DRIVE STE 210, BURNSVILLE, NC, 28714","Match","Exact","100 CLUB DR, BURNSVILLE, NC, 28714",37429734,"L"
2010,"100 COBBLE CREEK ROAD","VICTOR","NY",14564,NA,NA,10,"100 COBBLE CREEK ROAD, VICTOR, NY, 14564","No_Match",NA,NA,NA,NA
2011,"100 CODDINGTON STREET","QUINCY","MA",2169,NA,NA,11,"100 CODDINGTON STREET, QUINCY, MA, 2169","No_Match",NA,NA,NA,NA
2012,"100 CODY DRIVE","GRIFFIN","GA",30223,33.29434158,-84.303135953,12,"100 CODY DRIVE, GRIFFIN, GA, 30223","Match","Exact","100 CODY DR, GRIFFIN, GA, 30223",618709790,"L"
2013,"100 COLCHESTER ROAD","ESSEX JCT","VT",5452,44.5039571290001,-73.1155616579999,13,"100 COLCHESTER ROAD, ESSEX JCT, VT, 5452","Match","Exact","100 COLCHESTER RD, ESSEX JCT, VT, 05452",135856867,"L"
2014,"100 COLFAX AVE APT 4Z","STATEN ISLAND","NY",10306,40.579967835,-74.1078874729999,14,"100 COLFAX AVE APT 4Z, STATEN ISLAND, NY, 10306","Match","Exact","100 COLFAX AVE, STATEN ISLAND, NY, 10306",59868309,"R"
2015,"100 COLLEGE AVE SUITE 130","ROCHESTER","NY",14607,43.1594173610001,-77.587284655,15,"100 COLLEGE AVE SUITE 130, ROCHESTER, NY, 14607","Match","Exact","100 COLLEGE AVE, ROCHESTER, NY, 14607",14540795,"L"
2016,"100 COLLEGE AVE","NEW BRUNSWICK","NJ",8901,40.501365277,-74.450002556,16,"100 COLLEGE AVE, NEW BRUNSWICK, NJ, 8901","Match","Exact","100 COLLEGE AVE, NEW BRUNSWICK, NJ, 08901",637781775,"L"
2017,"100 COLLEGE AVENUE PO BOX 346","ELAINE","AR",72333,NA,NA,17,"100 COLLEGE AVENUE PO BOX 346, ELAINE, AR, 72333","No_Match",NA,NA,NA,NA
2018,"100 COLLEGE DRIVE","ALLENTOWN","PA",18104,NA,NA,18,"100 COLLEGE DRIVE, ALLENTOWN, PA, 18104","No_Match",NA,NA,NA,NA
2019,"100 COLONY DRIVE","ROYAL PALM BEACH","FL",33411,26.697198315,-80.2296636359999,19,"100 COLONY DRIVE, ROYAL PALM BEACH, FL, 33411","Match","Exact","100 COLONY DR, ROYAL PALM BEACH, FL, 33411",115562706,"R"
2020,"100 COLUMBIA ROAD 54","WALDO","AR",71770,33.3294013340001,-93.3759337669999,20,"100 COLUMBIA ROAD 54, WALDO, AR, 71770","Match","Exact","100 COLUMBIA ROAD 54, WALDO, AR, 71770",606527619,"R"
2021,"100 COMMERCE DRIVE UNIT 891","TYRONE","GA",30290,33.477476885,-84.596190214,21,"100 COMMERCE DRIVE UNIT 891, TYRONE, GA, 30290","Match","Exact","100 COMMERCE DR, TYRONE, GA, 30290",75951887,"R"
2022,"100 COMMODORE DRIVE 526","PLANTATION","FL",33325,26.119912415,-80.3251243719999,22,"100 COMMODORE DRIVE 526, PLANTATION, FL, 33325","Match","Exact","100 COMMODORE DR, PLANTATION, FL, 33325",114697749,"R"
2023,"100 COMMONS RD   STE 7-322","DRIPPING SPRINGS","TX",78620,30.1920215420001,-98.084683609,23,"100 COMMONS RD   STE 7-322, DRIPPING SPRINGS, TX, 78620","Match","Exact","100 COMMONS RD, DRIPPING SPRINGS, TX, 78620",651531769,"L"
2024,"100 COMMONS ROAD","DRIPPING SPRINGS","TX",78620,30.1920215420001,-98.084683609,24,"100 COMMONS ROAD, DRIPPING SPRINGS, TX, 78620","Match","Exact","100 COMMONS RD, DRIPPING SPRINGS, TX, 78620",651531769,"L"
2025,"100 COMMUNITY XING","UNIONVILLE","TN",37180,35.6038866970001,-86.570820813,25,"100 COMMUNITY XING, UNIONVILLE, TN, 37180","Match","Exact","100 COMMUNITY CROSSING, UNIONVILLE, TN, 37180",642964842,"L"
2026,"100 COMPTON FAMILY ICE ARENA","NOTRE DAME","IN",46556,NA,NA,26,"100 COMPTON FAMILY ICE ARENA, NOTRE DAME, IN, 46556","No_Match",NA,NA,NA,NA
2027,"100 COOLBROOK DR","GREENVILLE","SC",29605,34.788962654,-82.37252391,27,"100 COOLBROOK DR, GREENVILLE, SC, 29605","Match","Exact","100 COOLBROOK DR, GREENVILLE, SC, 29605",38306192,"R"
2028,"100 COOLBROOK DRIVE","GREENVILLE","SC",29605,34.788962654,-82.37252391,28,"100 COOLBROOK DRIVE, GREENVILLE, SC, 29605","Match","Exact","100 COOLBROOK DR, GREENVILLE, SC, 29605",38306192,"R"
2029,"100 COOPERS HAWK DRIVE","CONWAY","AR",72034,35.0786862790001,-92.5150207039999,29,"100 COOPERS HAWK DRIVE, CONWAY, AR, 72034","Match","Exact","100 COOPERS HAWK DR, CONWAY, AR, 72034",650171509,"R"
2030,"100 CORPORATE PARKWAY ONE LAKE LEVE","BIRMINGHAM","AL",35242,33.417052964,-86.6821713749999,30,"100 CORPORATE PARKWAY ONE LAKE LEVE, BIRMINGHAM, AL, 35242","Match","Exact","100 CORPORATE PKWY, BIRMINGHAM, AL, 35242",221538344,"R"
2031,"100 COSTA RICA AVENUE","BURLINGAME","CA",94010,37.5716588700001,-122.348378463,31,"100 COSTA RICA AVENUE, BURLINGAME, CA, 94010","Match","Exact","100 COSTA RICA AVE, BURLINGAME, CA, 94010",192376858,"R"
2032,"100 COTTONWOOD COURT","NORTH AUGUSTA","SC",29860,33.5750147370001,-81.949996175,32,"100 COTTONWOOD COURT, NORTH AUGUSTA, SC, 29860","Match","Exact","100 COTTONWOOD CT, NORTH AUGUSTA, SC, 29860",633628113,"R"
2033,"100 COUNTY SERVICES PARK","SYLVA","NC",28779,NA,NA,33,"100 COUNTY SERVICES PARK, SYLVA, NC, 28779","No_Match",NA,NA,NA,NA
2034,"100 COURT HOUSE SQ 301","WAYNESBORO","TN",38485,NA,NA,34,"100 COURT HOUSE SQ 301, WAYNESBORO, TN, 38485","No_Match",NA,NA,NA,NA
2035,"100 COURTHOUSE DRIVE SUITE 1100","ARCADIA","LA",71001,32.547560914,-92.925549345,35,"100 COURTHOUSE DRIVE SUITE 1100, ARCADIA, LA, 71001","Match","Exact","100 COURTHOUSE DR, ARCADIA, LA, 71001",114410205,"R"
2036,"100 COVEY DRIVE  SUITE 204","FRANKLIN","TN",37067,35.9145322630001,-86.820798437,36,"100 COVEY DRIVE  SUITE 204, FRANKLIN, TN, 37067","Match","Exact","100 COVEY DR, FRANKLIN, TN, 37067",607912491,"R"
2037,"100 COVINGTON STREET UNIT 843","MADISONVILLE","LA",70447,30.411881597,-90.16107583,37,"100 COVINGTON STREET UNIT 843, MADISONVILLE, LA, 70447","Match","Exact","100 COVINGTON ST, MADISONVILLE, LA, 70447",635840214,"L"
2038,"100 CRESCENT CENTRE PARKWAY STE 600","TUCKER","GA",30084,33.8382413040001,-84.247531502,38,"100 CRESCENT CENTRE PARKWAY STE 600, TUCKER, GA, 30084","Match","Exact","100 CRESCENT CENTER PKWY, TUCKER, GA, 30084",23402595,"L"
2039,"100 CRESCENT CT STE 1700","DALLAS","TX",75201,32.7943658,-96.8033525389999,39,"100 CRESCENT CT STE 1700, DALLAS, TX, 75201","Match","Exact","100 CRESCENT CT, DALLAS, TX, 75201",102909121,"L"
2040,"100 CRESCENT CT STE 700","DALLAS","TX",75201,32.7943658,-96.8033525389999,40,"100 CRESCENT CT STE 700, DALLAS, TX, 75201","Match","Exact","100 CRESCENT CT, DALLAS, TX, 75201",102909121,"L"
2041,"100 CRESCENT CT SUITE 700","DALLAS","TX",75201,32.7943658,-96.8033525389999,41,"100 CRESCENT CT SUITE 700, DALLAS, TX, 75201","Match","Exact","100 CRESCENT CT, DALLAS, TX, 75201",102909121,"L"
2042,"100 CRESTLINE DRIVE","PLEASANTON","TX",78064,28.9758537880001,-98.518026063,42,"100 CRESTLINE DRIVE, PLEASANTON, TX, 78064","Match","Exact","100 CRESTLINE DR, PLEASANTON, TX, 78064",24456591,"R"
2043,"100 CRESTVIEW DRIVE","CEDAR PARK","TX",78613,30.516282824,-97.806793689,43,"100 CRESTVIEW DRIVE, CEDAR PARK, TX, 78613","Match","Exact","100 CRESTVIEW DR, CEDAR PARK, TX, 78613",617954349,"R"
2044,"100 CROSSING BLVD","FRAMINGHAM","MA",1702,NA,NA,44,"100 CROSSING BLVD, FRAMINGHAM, MA, 1702","No_Match",NA,NA,NA,NA
2045,"100 CROSSWAYS PARK WEST SUITE 403","WOODBURY","NY",11797,40.8101970110001,-73.487544734,45,"100 CROSSWAYS PARK WEST SUITE 403, WOODBURY, NY, 11797","Match","Non_Exact","100 CROSSWAYS PARK DR W, WOODBURY, NY, 11797",147640482,"R"
2046,"100 CROSSWICKS ST","BORDENTOWN","NJ",8505,40.1462480010001,-74.707844563,46,"100 CROSSWICKS ST, BORDENTOWN, NJ, 8505","Match","Exact","100 CROSSWICKS ST, BORDENTOWN, NJ, 08505",134050379,"R"
2047,"100 CROSSWICKS STREET","BORDENTOWN","NJ",8505,40.1462480010001,-74.707844563,47,"100 CROSSWICKS STREET, BORDENTOWN, NJ, 8505","Match","Exact","100 CROSSWICKS ST, BORDENTOWN, NJ, 08505",134050379,"R"
2048,"100 CULBERTSON UNIT 5242","BOZEMAN","MT",59717,NA,NA,48,"100 CULBERTSON UNIT 5242, BOZEMAN, MT, 59717","No_Match",NA,NA,NA,NA
2049,"100 CUMMINGS CENTER SUITE 207P","BEVERLY","MA",1915,NA,NA,49,"100 CUMMINGS CENTER SUITE 207P, BEVERLY, MA, 1915","No_Match",NA,NA,NA,NA
2050,"100 CUMMINGS CENTER SUITE 307G","BEVERLY","MA",1915,NA,NA,50,"100 CUMMINGS CENTER SUITE 307G, BEVERLY, MA, 1915","No_Match",NA,NA,NA,NA
2051,"100 DARBY CREEK LN UNIT 121","MORRISVILLE","NC",27560,35.9182996430001,-78.813249045,51,"100 DARBY CREEK LN UNIT 121, MORRISVILLE, NC, 27560","Match","Exact","100 DARBY CREEK LN, MORRISVILLE, NC, 27560",71770499,"R"
2052,"100 DARROW PLACE APT 20D","BRONX","NY",10475,NA,NA,52,"100 DARROW PLACE APT 20D, BRONX, NY, 10475","Tie",NA,NA,NA,NA
2053,"100 DAY ROAD","VENTURA","CA",93003,34.2780569780001,-119.22679976,53,"100 DAY ROAD, VENTURA, CA, 93003","Match","Exact","100 DAY RD, VENTURA, CA, 93003",640537310,"R"
2054,"100 DAYTON STREET","YELLOW SPRINGS","OH",45387,39.8072602330001,-83.887310369,54,"100 DAYTON STREET, YELLOW SPRINGS, OH, 45387","Match","Exact","100 DAYTON ST, YELLOW SPGS, OH, 45387",644185541,"R"
2055,"100 DEBS PLACE  APT 5A","BRONX","NY",10475,NA,NA,55,"100 DEBS PLACE  APT 5A, BRONX, NY, 10475","Tie",NA,NA,NA,NA
2056,"100 DECATUR STREET SE","ATLANTA","GA",30303,33.7530737330001,-84.3875672889999,56,"100 DECATUR STREET SE, ATLANTA, GA, 30303","Match","Exact","100 DECATUR ST SE, ATLANTA, GA, 30303",17433642,"L"
2057,"100 DEHAVEN DRIVE","YONKERS","NY",10703,40.964713912,-73.881490233,57,"100 DEHAVEN DRIVE, YONKERS, NY, 10703","Match","Exact","100 DEHAVEN DR, YONKERS, NY, 10703",139840288,"R"
2058,"100 DELAWARE AVENUE","COLONIA","NJ",7067,40.602647706,-74.319745594,58,"100 DELAWARE AVENUE, COLONIA, NJ, 7067","Match","Exact","100 DELAWARE AVE, COLONIA, NJ, 07067",60272401,"L"
2059,"100 DELFT DR","PELLA","IA",50219,41.4128149570001,-93.016547384,59,"100 DELFT DR, PELLA, IA, 50219","Match","Exact","100 DELFT DR, PELLA, IA, 50219",89476549,"R"
2060,"100 DENNISTON AVE APT 80","PITTSBURGH","PA",15206,40.457794231,-79.918151305,60,"100 DENNISTON AVE APT 80, PITTSBURGH, PA, 15206","Match","Exact","100 DENNISTON AVE, PITTSBURGH, PA, 15206",639083897,"R"
2061,"100 DENNISTON AVENUE/   9","PITTSBURGH","PA",15206,40.457794231,-79.918151305,61,"100 DENNISTON AVENUE/   9, PITTSBURGH, PA, 15206","Match","Non_Exact","100 DENNISTON AVE, PITTSBURGH, PA, 15206",639083897,"R"
2062,"100 DENNISTON STREET APARTMENT 93","PITTSBURGH","PA",15206,40.457794231,-79.918151305,62,"100 DENNISTON STREET APARTMENT 93, PITTSBURGH, PA, 15206","Match","Non_Exact","100 DENNISTON AVE, PITTSBURGH, PA, 15206",639083897,"R"
2063,"100 DENTY DRIVE","BRUNSWICK","GA",31525,31.2309224530001,-81.451865444,63,"100 DENTY DRIVE, BRUNSWICK, GA, 31525","Match","Exact","100 DENTY DR, BRUNSWICK, GA, 31525",211211897,"L"
2064,"100 DEVONSHIRE","IRVINE","CA",92620,33.708892104,-117.746712467,64,"100 DEVONSHIRE, IRVINE, CA, 92620","Match","Exact","100 DEVONSHIRE, IRVINE, CA, 92620",641617371,"L"
2065,"100 DEW FALL TRL","CIBOLO","TX",78108,29.5863792000001,-98.24761145,65,"100 DEW FALL TRL, CIBOLO, TX, 78108","Match","Exact","100 DEW FALL TRL, CIBOLO, TX, 78108",234719151,"L"
2066,"100 DIAMOND RANCH ROAD","POMONA","CA",91766,34.022625261,-117.777024608,66,"100 DIAMOND RANCH ROAD, POMONA, CA, 91766","Match","Exact","100 DIAMOND RANCH RD, POMONA, CA, 91766",142841616,"L"
2067,"100 DILLON DRIVE","YOUNGSVILLE","PA",16371,41.846093835,-79.304423368,67,"100 DILLON DRIVE, YOUNGSVILLE, PA, 16371","Match","Exact","100 DILLON DR, YOUNGSVILLE, PA, 16371",630468447,"R"
2068,"100 DIVISION ST PO BOX 69","PORTLAND","PA",18351,40.922501992,-75.0975234759999,68,"100 DIVISION ST PO BOX 69, PORTLAND, PA, 18351","Match","Exact","100 DIVISION ST, PORTLAND, PA, 18351",136957699,"L"
2069,"100 DIXWELL AVENUE","QUINCY","MA",2169,42.2486871020001,-71.006299976,69,"100 DIXWELL AVENUE, QUINCY, MA, 2169","Match","Exact","100 DIXWELL AVE, QUINCY, MA, 02169",87274162,"L"
2070,"100 DOCTORS DRIVE","FRANKFORT","KY",40601,38.1614616790001,-84.907927982,70,"100 DOCTORS DRIVE, FRANKFORT, KY, 40601","Match","Exact","100 DOCTORS DR, FRANKFORT, KY, 40601",639448302,"R"
2071,"100 DOLPHIN CT","BRONX","NY",10473,40.8071839140001,-73.850548121,71,"100 DOLPHIN CT, BRONX, NY, 10473","Match","Exact","100 DOLPHIN CT, BRONX, NY, 10473",650171153,"L"
2072,"100 DONIZETTI PL 2A","BRONX","NY",10475,NA,NA,72,"100 DONIZETTI PL 2A, BRONX, NY, 10475","Tie",NA,NA,NA,NA
2073,"100 DONIZETTI PLACE APT 21B","BRONX","NY",10475,NA,NA,73,"100 DONIZETTI PLACE APT 21B, BRONX, NY, 10475","Tie",NA,NA,NA,NA
2074,"100 DOUGLAS PARK DR","ST AUGUSTINE","FL",32084,NA,NA,74,"100 DOUGLAS PARK DR, ST AUGUSTINE, FL, 32084","No_Match",NA,NA,NA,NA
2075,"100 DRAKE DR UNIT 101","NORMAL","AL",35762,NA,NA,75,"100 DRAKE DR UNIT 101, NORMAL, AL, 35762","No_Match",NA,NA,NA,NA
2076,"100 DRAKE DRIVE  PO BOX 1051","NORMAL","AL",35762,NA,NA,76,"100 DRAKE DRIVE  PO BOX 1051, NORMAL, AL, 35762","No_Match",NA,NA,NA,NA
2077,"100 DUDLEY AVE UNIT E22","OLD SAYBROOK","CT",6475,41.294324616,-72.374414728,77,"100 DUDLEY AVE UNIT E22, OLD SAYBROOK, CT, 6475","Match","Exact","100 DUDLEY AVE, OLD SAYBROOK, CT, 06475",113878466,"R"
2078,"100 DUNWOODY RD APT 124","WINSTON SALEM","NC",27127,36.0442758680001,-80.2625558139999,78,"100 DUNWOODY RD APT 124, WINSTON SALEM, NC, 27127","Match","Exact","100 DUNWOODY RD, WINSTON SALEM, NC, 27127",84691694,"R"
2079,"100 DUTCH HILL RD SUITE 210","ORANGEBURG","NY",10962,41.0433645040001,-73.954939118,79,"100 DUTCH HILL RD SUITE 210, ORANGEBURG, NY, 10962","Match","Exact","100 DUTCH HILL RD, ORANGEBURG, NY, 10962",124599712,"R"
2080,"100 DUTCH HILL ROAD SUITE 210","ORANGEBURG","NY",10962,41.0433645040001,-73.954939118,80,"100 DUTCH HILL ROAD SUITE 210, ORANGEBURG, NY, 10962","Match","Exact","100 DUTCH HILL RD, ORANGEBURG, NY, 10962",124599712,"R"
2081,"100 DUTCH ROAD","CHARLESTON","WV",25302,38.3892256830001,-81.593402429,81,"100 DUTCH ROAD, CHARLESTON, WV, 25302","Match","Exact","100 DUTCH RD, CHARLESTON, WV, 25302",78594928,"L"
2082,"100 DUVAL RD","LANCASTER","MA",1523,42.5224599370001,-71.710983853,82,"100 DUVAL RD, LANCASTER, MA, 1523","Match","Exact","100 DUVAL RD, LANCASTER, MA, 01523",40058047,"L"
2083,"100 E 14TH ST 1701","CHICAGO","IL",60605,41.864127051,-87.624029034,83,"100 E 14TH ST 1701, CHICAGO, IL, 60605","Match","Non_Exact","100 E 14TH ST, CHICAGO, IL, 60605",616787793,"L"
2084,"100 E 14TH ST UNIT 2810","CHICAGO","IL",60605,41.864127051,-87.624029034,84,"100 E 14TH ST UNIT 2810, CHICAGO, IL, 60605","Match","Non_Exact","100 E 14TH ST, CHICAGO, IL, 60605",616787793,"L"
2085,"100 E 15TH STE 410","FORT WORTH","TX",76102,NA,NA,85,"100 E 15TH STE 410, FORT WORTH, TX, 76102","No_Match",NA,NA,NA,NA
2086,"100 E 18TH ST 4A","BROOKLYN","NY",11226,40.665436293,-73.99566879,86,"100 E 18TH ST 4A, BROOKLYN, NY, 11226","Match","Non_Exact","100 18TH ST, BROOKLYN, NY, 11215",652212794,"R"
2087,"100 E 1ST STREET","CRAIGSVILLE","VA",24430,38.081607422,-79.380569771,87,"100 E 1ST STREET, CRAIGSVILLE, VA, 24430","Match","Non_Exact","100 1ST AVE, CRAIGSVILLE, VA, 24430",640191962,"L"
2088,"100 E 27TH ST","AUSTIN","TX",78705,30.2917506380001,-97.737671366,88,"100 E 27TH ST, AUSTIN, TX, 78705","Match","Exact","100 E 27TH ST, AUSTIN, TX, 78705",63945659,"L"
2089,"100 E 27TH STREET","AUSTIN","TX",78705,30.2917506380001,-97.737671366,89,"100 E 27TH STREET, AUSTIN, TX, 78705","Match","Exact","100 E 27TH ST, AUSTIN, TX, 78705",63945659,"L"
2090,"100 E BELLEVUE 16C","CHICAGO","IL",60611,NA,NA,90,"100 E BELLEVUE 16C, CHICAGO, IL, 60611","No_Match",NA,NA,NA,NA
2091,"100 E BELLEVUE PL APT 16C","CHICAGO","IL",60611,41.9015986160001,-87.626243175,91,"100 E BELLEVUE PL APT 16C, CHICAGO, IL, 60611","Match","Non_Exact","100 E BELLEVUE PL, CHICAGO, IL, 60611",605072593,"L"
2092,"100 E BELLEVUE PL UNIT 27E","CHICAGO","IL",60611,41.9015986160001,-87.626243175,92,"100 E BELLEVUE PL UNIT 27E, CHICAGO, IL, 60611","Match","Non_Exact","100 E BELLEVUE PL, CHICAGO, IL, 60611",605072593,"L"
2093,"100 E BOYD SEC 1210","NORMAN","OK",73019,NA,NA,93,"100 E BOYD SEC 1210, NORMAN, OK, 73019","No_Match",NA,NA,NA,NA
2094,"100 E BROAD ST -STE 1350","COLUMBUS","OH",43215,NA,NA,94,"100 E BROAD ST -STE 1350, COLUMBUS, OH, 43215","Tie",NA,NA,NA,NA
2095,"100 E BROAD STREET","COLUMBUS","OH",43215,39.9625339730001,-82.997909151,95,"100 E BROAD STREET, COLUMBUS, OH, 43215","Match","Exact","100 E BROAD ST, COLUMBUS, OH, 43215",135576105,"L"
2096,"100 E CENTRAL TEXAS EXPRESSWAY","KILLEEN","TX",76541,31.100403203,-97.740659804,96,"100 E CENTRAL TEXAS EXPRESSWAY, KILLEEN, TX, 76541","Match","Exact","100 E CENTRAL TEXAS EXPY, KILLEEN, TX, 76541",648875925,"L"
2097,"100 E CORSICANA SUITE 101","ATHENS","TX",75731,NA,NA,97,"100 E CORSICANA SUITE 101, ATHENS, TX, 75731","No_Match",NA,NA,NA,NA
2098,"100 E DENTON DR","EULESS","TX",76039,NA,NA,98,"100 E DENTON DR, EULESS, TX, 76039","Tie",NA,NA,NA,NA
2099,"100 E ELM ST","BRECKENRIDGE","TX",76424,32.7562781780001,-98.9024450799999,99,"100 E ELM ST, BRECKENRIDGE, TX, 76424","Match","Exact","100 E ELM ST, BRECKENRIDGE, TX, 76424",187522157,"R"
2100,"100 E EUCLID SUITE 113","DES MOINES","IA",50313,41.627689047,-93.619337199,100,"100 E EUCLID SUITE 113, DES MOINES, IA, 50313","Match","Non_Exact","100 EUCLID AVE, DES MOINES, IA, 50313",65781424,"L"
2101,"100 E FEDERAL ST SUITE 600","YOUNGSTOWN","OH",44503,NA,NA,101,"100 E FEDERAL ST SUITE 600, YOUNGSTOWN, OH, 44503","No_Match",NA,NA,NA,NA
2102,"100 E FEDERAL STREET SUITE 422","YOUNGSTOWN","OH",45503,NA,NA,102,"100 E FEDERAL STREET SUITE 422, YOUNGSTOWN, OH, 45503","No_Match",NA,NA,NA,NA
2103,"100 E FERGUSON SUITE 416","TYLER","TX",75702,NA,NA,103,"100 E FERGUSON SUITE 416, TYLER, TX, 75702","No_Match",NA,NA,NA,NA
2104,"100 E FILLMORE STREET APT 230","PHOENIX","AZ",85004,33.4545160230001,-112.072437719,104,"100 E FILLMORE STREET APT 230, PHOENIX, AZ, 85004","Match","Non_Exact","100 E FILLMORE ST, PHOENIX, AZ, 85004",128213434,"L"
2105,"100 E GAY STREET UNIT 507","COLUMBUS","OH",43215,NA,NA,105,"100 E GAY STREET UNIT 507, COLUMBUS, OH, 43215","Tie",NA,NA,NA,NA
2106,"100 E GLENOLDEN AVE APT N5","GLENOLDEN","PA",19036,NA,NA,106,"100 E GLENOLDEN AVE APT N5, GLENOLDEN, PA, 19036","Tie",NA,NA,NA,NA
2107,"100 E GRAND AVE SUITE 160","DES MOINES","IA",50309,41.5896843840001,-93.616290828,107,"100 E GRAND AVE SUITE 160, DES MOINES, IA, 50309","Match","Non_Exact","100 E GRAND AVE, DES MOINES, IA, 50309",65853294,"L"
2108,"100 E GREEN ST","MIDDLETOWN","MD",21769,39.444057237,-77.540634701,108,"100 E GREEN ST, MIDDLETOWN, MD, 21769","Match","Exact","100 E GREEN ST, MIDDLETOWN, MD, 21769",60724102,"L"
2109,"100 E HURON ST  3004","CHICAGO","IL",60611,41.8949316690001,-87.625362175,109,"100 E HURON ST  3004, CHICAGO, IL, 60611","Match","Non_Exact","100 E HURON ST, CHICAGO, IL, 60611",111768950,"L"
2110,"100 E KANSAS ST STE H201","LANSING","KS",66043,39.2494355750001,-94.900040173,110,"100 E KANSAS ST STE H201, LANSING, KS, 66043","Match","Non_Exact","100 E KANSAS ST, LANSING, KS, 66043",91403109,"R"
2111,"100 E LINTON BLVD STE 109B","DELRAY BEACH","FL",33483,26.4397287740001,-80.074745679,111,"100 E LINTON BLVD STE 109B, DELRAY BEACH, FL, 33483","Match","Non_Exact","100 LINTON BLVD, DELRAY BEACH, FL, 33444",115298608,"L"
2112,"100 E LINTON BLVD STE 301B","DELRAY BEACH","FL",33483,26.4397287740001,-80.074745679,112,"100 E LINTON BLVD STE 301B, DELRAY BEACH, FL, 33483","Match","Non_Exact","100 LINTON BLVD, DELRAY BEACH, FL, 33444",115298608,"L"
2113,"100 E LINTON BLVD STE 501A","DELRAY BEACH","FL",33483,26.4397287740001,-80.074745679,113,"100 E LINTON BLVD STE 501A, DELRAY BEACH, FL, 33483","Match","Non_Exact","100 LINTON BLVD, DELRAY BEACH, FL, 33444",115298608,"L"
2114,"100 E LINTON BLVD SUITE 501","DELRAY BEACH","FL",33483,26.4397287740001,-80.074745679,114,"100 E LINTON BLVD SUITE 501, DELRAY BEACH, FL, 33483","Match","Non_Exact","100 LINTON BLVD, DELRAY BEACH, FL, 33444",115298608,"L"
2115,"100 E MAIN ST","NEW IBERIA","LA",70560,30.005838388,-91.8182384,115,"100 E MAIN ST, NEW IBERIA, LA, 70560","Match","Exact","100 E MAIN ST, NEW IBERIA, LA, 70560",85361662,"L"
2116,"100 E MAIN ST","WALHALLA","SC",29691,34.765015023,-83.065531417,116,"100 E MAIN ST, WALHALLA, SC, 29691","Match","Exact","100 E MAIN ST, WALHALLA, SC, 29691",25634669,"L"
2117,"100 E MAIN STREET","BLACK RIVER FALLS","WI",54615,NA,NA,117,"100 E MAIN STREET, BLACK RIVER FALLS, WI, 54615","Tie",NA,NA,NA,NA
2118,"100 E MAIN","GOESSEL","KS",67053,38.2464946920001,-97.3505776919999,118,"100 E MAIN, GOESSEL, KS, 67053","Match","Non_Exact","100 E MAIN ST, GOESSEL, KS, 67053",120706304,"R"
2119,"100 E MISTLETOE DR","KENNEDALE","TX",76060,32.6523887970001,-97.22117524,119,"100 E MISTLETOE DR, KENNEDALE, TX, 76060","Match","Exact","100 E MISTLETOE DR, KENNEDALE, TX, 76060",101903792,"R"
2120,"100 E NORMAL AVE MCCLAIN 205","KIRKSVILLE","MO",63501,NA,NA,120,"100 E NORMAL AVE MCCLAIN 205, KIRKSVILLE, MO, 63501","No_Match",NA,NA,NA,NA
2121,"100 E PEARL ST","GRANBURY","TX",76048,32.44221566,-97.787534584,121,"100 E PEARL ST, GRANBURY, TX, 76048","Match","Exact","100 E PEARL ST, GRANBURY, TX, 76048",158789162,"R"
2122,"100 E SECOND ST","MONROE","MI",48161,41.914316872,-83.39774289,122,"100 E SECOND ST, MONROE, MI, 48161","Match","Exact","100 E 2ND ST, MONROE, MI, 48161",40478166,"L"
2123,"100 E SIX FORKS ROAD SUITE 300","RALEIGH","NC",27609,NA,NA,123,"100 E SIX FORKS ROAD SUITE 300, RALEIGH, NC, 27609","No_Match",NA,NA,NA,NA
2124,"100 E THOUSAND OAKS BLVD SUITE 187","THOUSAND OAKS","CA",91360,NA,NA,124,"100 E THOUSAND OAKS BLVD SUITE 187, THOUSAND OAKS, CA, 91360","Tie",NA,NA,NA,NA
2125,"100 E TOUHY AVENUE SUITE 220","DES PLAINES","IL",60018,42.0107579030001,-87.9205498169999,125,"100 E TOUHY AVENUE SUITE 220, DES PLAINES, IL, 60018","Match","Non_Exact","100 TOUHY CT, DES PLAINES, IL, 60018",650593866,"R"
2126,"100 E VERMILION ST SUITE 150","LAFAYETTE","LA",70501,NA,NA,126,"100 E VERMILION ST SUITE 150, LAFAYETTE, LA, 70501","Tie",NA,NA,NA,NA
2127,"100 E WALTON ST UNIT 19F","CHICAGO","IL",60611,41.899998727,-87.6250267199999,127,"100 E WALTON ST UNIT 19F, CHICAGO, IL, 60611","Match","Non_Exact","100 E WALTON ST, CHICAGO, IL, 60611",647584897,"L"
2128,"100 E WHITESTONE BLVD STE 148 163","CEDAR PARK","TX",78613,NA,NA,128,"100 E WHITESTONE BLVD STE 148 163, CEDAR PARK, TX, 78613","Tie",NA,NA,NA,NA
2129,"100 EAGLE ROCK AVENUE SUITE 307","EAST HANOVER","NJ",7936,40.8310160290001,-74.338956406,129,"100 EAGLE ROCK AVENUE SUITE 307, EAST HANOVER, NJ, 7936","Match","Exact","100 EAGLE ROCK AVE, EAST HANOVER, NJ, 07936",60492848,"L"
2130,"100 EAGLE VIEW DR","ASHLAND","NE",68003,41.039035998,-96.3448787519999,130,"100 EAGLE VIEW DR, ASHLAND, NE, 68003","Match","Exact","100 EAGLE VW, ASHLAND, NE, 68003",10376993,"L"
2131,"100 EAST 118TH STREET NUMBER 205","NEW YORK","NY",10035,40.800555307,-73.9421587799999,131,"100 EAST 118TH STREET NUMBER 205, NEW YORK, NY, 10035","Match","Exact","100 E 118TH ST, NEW YORK, NY, 10035",59658006,"R"
2132,"100 EAST 11TH STREET","RIFLE","CO",81650,39.53970056,-107.783255212,132,"100 EAST 11TH STREET, RIFLE, CO, 81650","Match","Exact","100 E 11TH ST, RIFLE, CO, 81650",105800234,"R"
2133,"100 EAST 14TH ST 1005","CHICAGO","IL",60605,41.864127051,-87.624029034,133,"100 EAST 14TH ST 1005, CHICAGO, IL, 60605","Match","Exact","100 E 14TH ST, CHICAGO, IL, 60605",616787793,"L"
2134,"100 EAST 15TH STREET SUITE 410","FORT WORTH","TX",76102,32.748062604,-97.325601476,134,"100 EAST 15TH STREET SUITE 410, FORT WORTH, TX, 76102","Match","Exact","100 E 15TH ST, FORT WORTH, TX, 76102",101889088,"R"
2135,"100 EAST 15TH STREET SUITE 635","FORT WORTH","TX",76102,32.748062604,-97.325601476,135,"100 EAST 15TH STREET SUITE 635, FORT WORTH, TX, 76102","Match","Exact","100 E 15TH ST, FORT WORTH, TX, 76102",101889088,"R"
2136,"100 EAST 1ST STREET","CRAIGSVILLE","VA",24430,NA,NA,136,"100 EAST 1ST STREET, CRAIGSVILLE, VA, 24430","No_Match",NA,NA,NA,NA
2137,"100 EAST 56TH AVENUE","MERRIVILLE","IL",46410,NA,NA,137,"100 EAST 56TH AVENUE, MERRIVILLE, IL, 46410","No_Match",NA,NA,NA,NA
2138,"100 EAST 6TH STREET","DRUMRIGHT","OK",74030,35.9796644300001,-96.601836939,138,"100 EAST 6TH STREET, DRUMRIGHT, OK, 74030","Match","Exact","100 E 6TH ST, DRUMRIGHT, OK, 74030",640224878,"L"
2139,"100 EAST CEDAR AVENUE","HADDON TOWNSHIP","NJ",8107,39.9003868290001,-75.071836264,139,"100 EAST CEDAR AVENUE, HADDON TOWNSHIP, NJ, 8107","Match","Exact","100 E CEDAR AVE, HADDON TOWNSHIP, NJ, 08107",134350397,"R"
2140,"100 EAST EUCLID AVE SUITE A","DES MOINES","IA",50313,41.6277040310001,-93.617422174,140,"100 EAST EUCLID AVE SUITE A, DES MOINES, IA, 50313","Match","Exact","100 E EUCLID AVE, DES MOINES, IA, 50313",65781642,"L"
2141,"100 EAST GRAND AVE SUITE 200","DES MOINES","IA",50309,41.5896843840001,-93.616290828,141,"100 EAST GRAND AVE SUITE 200, DES MOINES, IA, 50309","Match","Exact","100 E GRAND AVE, DES MOINES, IA, 50309",65853294,"L"
2142,"100 EAST JACKSON STREET","RIPON","WI",54971,43.8462477,-88.839009899,142,"100 EAST JACKSON STREET, RIPON, WI, 54971","Match","Exact","100 E JACKSON ST, RIPON, WI, 54971",74833309,"R"
2143,"100 EAST KIMBERLY ROAD","DAVENPORT","IA",52806,41.560209226,-90.578167546,143,"100 EAST KIMBERLY ROAD, DAVENPORT, IA, 52806","Match","Non_Exact","100 E KIMBERLY RD, DAVENPORT, IA, 52807",122728829,"R"
2144,"100 EAST KING STREET","EDENTON","NC",27932,36.0580152110001,-76.609069497,144,"100 EAST KING STREET, EDENTON, NC, 27932","Match","Exact","100 E KING ST, EDENTON, NC, 27932",18468816,"L"
2145,"100 EAST LEAKE STREET","CLINTON","MS",39056,32.3402056310001,-90.3293575609999,145,"100 EAST LEAKE STREET, CLINTON, MS, 39056","Match","Exact","100 E LEAKE ST, CLINTON, MS, 39056",65362642,"R"
2146,"100 EAST LINTON BLVD SUITE 301B","DELRAY BEACH","FL",33483,26.439736682,-80.07321067,146,"100 EAST LINTON BLVD SUITE 301B, DELRAY BEACH, FL, 33483","Match","Exact","100 E LINTON BLVD, DELRAY BEACH, FL, 33483",115533994,"R"
2147,"100 EAST LOCUST AVE","LOMPOC","CA",93436,34.6325213100001,-120.457917513,147,"100 EAST LOCUST AVE, LOMPOC, CA, 93436","Match","Exact","100 E LOCUST AVE, LOMPOC, CA, 93436",108658386,"R"
2148,"100 EAST MAIN STREET-SUITE 103","SALISBURY","MD",21801,38.365500238,-75.6004688529999,148,"100 EAST MAIN STREET-SUITE 103, SALISBURY, MD, 21801","Match","Non_Exact","100 E MAIN ST, SALISBURY, MD, 21801",114452344,"R"
2149,"100 EAST MAIN STREET","MAYODAN","NC",27027,36.4124781350001,-79.966618226,149,"100 EAST MAIN STREET, MAYODAN, NC, 27027","Match","Exact","100 E MAIN ST, MAYODAN, NC, 27027",56212195,"R"
2150,"100 EAST ORCHARD AVENUE","INDIANOLA","IA",50125,41.3761418770001,-93.560566468,150,"100 EAST ORCHARD AVENUE, INDIANOLA, IA, 50125","Match","Exact","100 E ORCHARD AVE, INDIANOLA, IA, 50125",83771517,"L"
2151,"100 EAST PRATT STREET 26TH FLOOR","BALTIMORE","MD",21202,39.28656569,-76.613338574,151,"100 EAST PRATT STREET 26TH FLOOR, BALTIMORE, MD, 21202","Match","Exact","100 E PRATT ST, BALTIMORE, MD, 21202",206420815,"L"
2152,"100 EAST PROSPECT STREET","RED LION","PA",17356,39.9075692480001,-76.611014164,152,"100 EAST PROSPECT STREET, RED LION, PA, 17356","Match","Exact","100 E PROSPECT ST, RED LION, PA, 17356",88739228,"R"
2153,"100 EAST ST PO BOX 1045","MARS","PA",16046,40.6940445130001,-80.008769217,153,"100 EAST ST PO BOX 1045, MARS, PA, 16046","Match","Exact","100 EAST ST, MARS, PA, 16046",52685299,"R"
2154,"100 EAST STATE STREET","OKETO","KS",66518,39.9651005790001,-96.59604992,154,"100 EAST STATE STREET, OKETO, KS, 66518","Match","Non_Exact","100 E STATE RD, OKETO, KS, 66518",28421562,"L"
2155,"100 EAST TADDEI","ACAMPO","CA",95220,NA,NA,155,"100 EAST TADDEI, ACAMPO, CA, 95220","No_Match",NA,NA,NA,NA
2156,"100 EAST UNION STREET STE 6","WILKES-BARRE","PA",18702,41.245238199,-75.876354227,156,"100 EAST UNION STREET STE 6, WILKES-BARRE, PA, 18702","Match","Non_Exact","100 E UNION ST, WILKES BARRE, PA, 18701",80945386,"L"
2157,"100 EAST WASHINGTON  PO BOX 399","ROACHDALE","IN",46172,39.851991152,-86.800828926,157,"100 EAST WASHINGTON  PO BOX 399, ROACHDALE, IN, 46172","Match","Non_Exact","100 E WASHINGTON ST, ROACHDALE, IN, 46172",50102060,"R"
2158,"100 EAST WASHINGTON STREET APT 403","SYRACUSE","NY",13202,43.0495781970001,-76.152089525,158,"100 EAST WASHINGTON STREET APT 403, SYRACUSE, NY, 13202","Match","Exact","100 E WASHINGTON ST, SYRACUSE, NY, 13202",46604395,"R"
2159,"100 EASY STREET  UNIT 3518","CAREFREE","AZ",85377,33.823769978,-111.923609377,159,"100 EASY STREET  UNIT 3518, CAREFREE, AZ, 85377","Match","Exact","100 EASY ST, CAREFREE, AZ, 85377",128144335,"R"
2160,"100 EASY STREET STE 5701","CAREFREE","AZ",85377,33.823769978,-111.923609377,160,"100 EASY STREET STE 5701, CAREFREE, AZ, 85377","Match","Exact","100 EASY ST, CAREFREE, AZ, 85377",128144335,"R"
2161,"100 EDDIE JUNGEMANN RD","SAVANNAH","GA",31408,NA,NA,161,"100 EDDIE JUNGEMANN RD, SAVANNAH, GA, 31408","No_Match",NA,NA,NA,NA
2162,"100 EDGEWATER LANE","WILMINGTON","NC",28403,34.2167104590001,-77.821053591,162,"100 EDGEWATER LANE, WILMINGTON, NC, 28403","Match","Exact","100 EDGEWATER LN, WILMINGTON, NC, 28403",152734978,"L"
2163,"100 EDIE ROAD","SARATOGA SPRINGS","NY",12866,43.117057576,-73.7050197849999,163,"100 EDIE ROAD, SARATOGA SPRINGS, NY, 12866","Match","Exact","100 EDIE RD, SARATOGA SPGS, NY, 12866",641166969,"L"
2164,"100 EDISON PARK DRIVE","GAITHERSBURG","MD",20878,NA,NA,164,"100 EDISON PARK DRIVE, GAITHERSBURG, MD, 20878","No_Match",NA,NA,NA,NA
2165,"100 EDUCATION AVE","MUNFORD","TN",38058,NA,NA,165,"100 EDUCATION AVE, MUNFORD, TN, 38058","No_Match",NA,NA,NA,NA
2166,"100 EDUCATION LANE","PARSONS","WV",26287,NA,NA,166,"100 EDUCATION LANE, PARSONS, WV, 26287","No_Match",NA,NA,NA,NA
2167,"100 EL CAMINO REAL","BURLINGAME","CA",94010,37.5754822970001,-122.34655284,167,"100 EL CAMINO REAL, BURLINGAME, CA, 94010","Match","Exact","100 EL CAMINO REAL, BURLINGAME, CA, 94010",192376888,"R"
2168,"100 ELGAR PLACE 30B","BRONX","NY",10475,NA,NA,168,"100 ELGAR PLACE 30B, BRONX, NY, 10475","Tie",NA,NA,NA,NA
2169,"100 ELGAR PLACE APT 28 F","BRONX","NY",10475,NA,NA,169,"100 ELGAR PLACE APT 28 F, BRONX, NY, 10475","Tie",NA,NA,NA,NA
2170,"100 ELIOT STREET","NATICK","MA",1760,42.268697622,-71.320091326,170,"100 ELIOT STREET, NATICK, MA, 1760","Match","Exact","100 ELIOT ST, NATICK, MA, 01760",86928350,"L"
2171,"100 ELM STREET","EVERETT","MA",2149,42.413463371,-71.043082237,171,"100 ELM STREET, EVERETT, MA, 2149","Match","Exact","100 ELM ST, EVERETT, MA, 02149",86873958,"L"
2172,"100 ELM STREET","WARREN","RI",2885,41.7285992770001,-71.2688996919999,172,"100 ELM STREET, WARREN, RI, 2885","Match","Exact","100 ELM ST, WARREN, RI, 02885",46481066,"L"
2173,"100 ELM TREE LN","STERLING","VA",20164,39.0078042960001,-77.387556444,173,"100 ELM TREE LN, STERLING, VA, 20164","Match","Exact","100 ELM TREE LN, STERLING, VA, 20164",62328399,"R"
2174,"100 EMERALD CREEK EAST","ABITA SPRINGS","LA",70420,30.460478482,-90.046830923,174,"100 EMERALD CREEK EAST, ABITA SPRINGS, LA, 70420","Match","Exact","100 EMERALD CREEK E, ABITA SPRINGS, LA, 70420",611481970,"R"
2175,"100 ENSIGN JOHN UTIE","WILLIAMSBURG","VA",23185,NA,NA,175,"100 ENSIGN JOHN UTIE, WILLIAMSBURG, VA, 23185","No_Match",NA,NA,NA,NA
2176,"100 ERDMAN PLACE APT 5D","BRONX","NY",10475,NA,NA,176,"100 ERDMAN PLACE APT 5D, BRONX, NY, 10475","Tie",NA,NA,NA,NA
2177,"100 EUROPA DRIVE STE 271","CHAPEL HILL","NC",27517,NA,NA,177,"100 EUROPA DRIVE STE 271, CHAPEL HILL, NC, 27517","No_Match",NA,NA,NA,NA
2178,"100 EXECUTIVE DR SUITE B1","STERLING","VA",20165,38.9843597760001,-77.4435096289999,178,"100 EXECUTIVE DR SUITE B1, STERLING, VA, 20165","Match","Non_Exact","100 EXECUTIVE DR, STERLING, VA, 20166",62361956,"R"
2179,"100 EZELL DR","DESOTO","TX",75115,32.6241123450001,-96.8575284089999,179,"100 EZELL DR, DESOTO, TX, 75115","Match","Exact","100 EZELL DR, DESOTO, TX, 75115",103188371,"L"
2180,"100 FACTORY STREET","WEST WARWICK","RI",2893,NA,NA,180,"100 FACTORY STREET, WEST WARWICK, RI, 2893","No_Match",NA,NA,NA,NA
2181,"100 FAIRFAX LANE","BENTONVILLE","VA",22610,38.8239714950001,-78.247325781,181,"100 FAIRFAX LANE, BENTONVILLE, VA, 22610","Match","Exact","100 FAIRFAX LN, BENTONVILLE, VA, 22610",159097271,"R"
2182,"100 FAIRVIEW AVE EXT","BRIDGEPORT","CT",6606,41.204380443,-73.194585317,182,"100 FAIRVIEW AVE EXT, BRIDGEPORT, CT, 6606","Match","Non_Exact","100 FAIRVIEW AVE EXD, BRIDGEPORT, CT, 06606",3223405,"R"
2183,"100 FALCON DRIVE","FREDERICKSBURG","IA",50630,42.9652006900001,-92.184319404,183,"100 FALCON DRIVE, FREDERICKSBURG, IA, 50630","Match","Exact","100 FALCON DR, FREDERICKSBURG, IA, 50630",9747207,"L"
2184,"100 FALLEN ACORN AV","GROVELAND","FL",34736,NA,NA,184,"100 FALLEN ACORN AV, GROVELAND, FL, 34736","No_Match",NA,NA,NA,NA
2185,"100 FALLING ACORN AVE","GROVELAND","FL",34736,NA,NA,185,"100 FALLING ACORN AVE, GROVELAND, FL, 34736","No_Match",NA,NA,NA,NA
2186,"100 FANNING STREET","FORDS","NJ",8863,40.540650068,-74.319186401,186,"100 FANNING STREET, FORDS, NJ, 8863","Match","Exact","100 FANNING ST, FORDS, NJ, 08863",60278769,"R"
2187,"100 FARMLAND AVE","MERCED","CA",95340,NA,NA,187,"100 FARMLAND AVE, MERCED, CA, 95340","No_Match",NA,NA,NA,NA
2188,"100 FARMLAND AVE","MERCED","CA",95348,NA,NA,188,"100 FARMLAND AVE, MERCED, CA, 95348","No_Match",NA,NA,NA,NA
2189,"100 FARMLAND","MERCED","CA",95348,NA,NA,189,"100 FARMLAND, MERCED, CA, 95348","No_Match",NA,NA,NA,NA
2190,"100 FERRIN STREET UNIT 105","CHARLESTOWN","MA",2129,42.3769606290001,-71.058521936,190,"100 FERRIN STREET UNIT 105, CHARLESTOWN, MA, 2129","Match","Exact","100 FERRIN ST, CHARLESTOWN, MA, 02129",85709167,"L"
2191,"100 FESTIVAL PARK AVE","JACKSONVILLE","FL",32202,30.3207039270001,-81.6358577189999,191,"100 FESTIVAL PARK AVE, JACKSONVILLE, FL, 32202","Match","Exact","100 FESTIVAL PARK AVE, JACKSONVILLE, FL, 32202",83976694,"L"
2192,"100 FESTIVAL PARK AVENUE","JACKSONVILLE","FL",32202,30.3207039270001,-81.6358577189999,192,"100 FESTIVAL PARK AVENUE, JACKSONVILLE, FL, 32202","Match","Exact","100 FESTIVAL PARK AVE, JACKSONVILLE, FL, 32202",83976694,"L"
2193,"100 FIELD SPRINGS COURT","MACON","GA",31210,32.9264637310001,-83.782076807,193,"100 FIELD SPRINGS COURT, MACON, GA, 31210","Match","Exact","100 FIELD SPRING CT, MACON, GA, 31210",625259113,"L"
2194,"100 FIFTH AVENUE SUITE 514","PITTSBURGH","PA",15222,NA,NA,194,"100 FIFTH AVENUE SUITE 514, PITTSBURGH, PA, 15222","Tie",NA,NA,NA,NA
2195,"100 FIRST AVENUE","CLANTON","AL",35045,32.8407844500001,-86.624451571,195,"100 FIRST AVENUE, CLANTON, AL, 35045","Match","Non_Exact","100 1ST AVE N, CLANTON, AL, 35045",1242872,"L"
2196,"100 FIRWOOD ROAD","PORT WASHINGTON","NY",11050,40.8458309710001,-73.714363495,196,"100 FIRWOOD ROAD, PORT WASHINGTON, NY, 11050","Match","Exact","100 FIRWOOD RD, PORT WASHINGTON, NY, 11050",147658363,"R"
2197,"100 FISHER AVENUE 554","WHITE PLAINS","NY",10601,41.027414698,-73.774767227,197,"100 FISHER AVENUE 554, WHITE PLAINS, NY, 10601","Match","Non_Exact","100 FISHER AVE, WHITE PLAINS, NY, 10606",139841655,"R"
2198,"100 FOUNTAIN CIRCLE","DUNN","NC",28334,35.293046357,-78.611948201,198,"100 FOUNTAIN CIRCLE, DUNN, NC, 28334","Match","Exact","100 FOUNTAIN CIR, DUNN, NC, 28334",639634045,"R"
2199,"100 FOUR FALLS SUITE 311","WEST CONSHOHOCKEN","PA",19428,NA,NA,199,"100 FOUR FALLS SUITE 311, WEST CONSHOHOCKEN, PA, 19428","No_Match",NA,NA,NA,NA
2200,"100 FOWLER RD","TAYLORS","SC",29687,35.0554706300001,-82.312323984,200,"100 FOWLER RD, TAYLORS, SC, 29687","Match","Exact","100 FOWLER RD, TAYLORS, SC, 29687",38358762,"L"
2201,"100 FOX CREEK RD","ANDERSON","SC",29621,34.5479599230001,-82.6249677179999,201,"100 FOX CREEK RD, ANDERSON, SC, 29621","Match","Exact","100 FOX CREEK RD, ANDERSON, SC, 29621",25463791,"R"
2202,"100 FOX TRAIL LANE","VASS","NC",28394,35.2183025890001,-79.316567929,202,"100 FOX TRAIL LANE, VASS, NC, 28394","Match","Exact","100 FOX TRAIL LN, VASS, NC, 28394",632073652,"R"
2203,"100 FRANKLIN ST 111D","MORRISTOWN","NJ",7960,40.7910000530001,-74.467914449,203,"100 FRANKLIN ST 111D, MORRISTOWN, NJ, 7960","Match","Exact","100 FRANKLIN ST, MORRISTOWN, NJ, 07960",60486153,"L"
2204,"100 FRANKLIN TPKE","ALLENDALE","NJ",7401,41.0225979320001,-74.123612905,204,"100 FRANKLIN TPKE, ALLENDALE, NJ, 7401","Match","Exact","100 FRANKLIN TPKE, ALLENDALE, NJ, 07401",635483017,"R"
2205,"100 FREHOLD CT","CARY","NC",27519,35.8040595460001,-78.857872119,205,"100 FREHOLD CT, CARY, NC, 27519","Match","Exact","100 FREHOLD CT, CARY, NC, 27519",72655176,"L"
2206,"100 FRITZELLA RD","NEEDVILLE","TX",77461,NA,NA,206,"100 FRITZELLA RD, NEEDVILLE, TX, 77461","No_Match",NA,NA,NA,NA
2207,"100 FRITZELLA STREET","NEEDVILLE","TX",77461,NA,NA,207,"100 FRITZELLA STREET, NEEDVILLE, TX, 77461","No_Match",NA,NA,NA,NA
2208,"100 FRONT STREET","NEW RICHMOND","OH",45157,38.9499759070001,-84.283003117,208,"100 FRONT STREET, NEW RICHMOND, OH, 45157","Match","Exact","100 FRONT ST, NEW RICHMOND, OH, 45157",118466925,"R"
2209,"100 FULTON ST APT 4V","BOSTON","MA",2109,42.3626260410001,-71.0528906489999,209,"100 FULTON ST APT 4V, BOSTON, MA, 2109","Match","Exact","100 FULTON ST, BOSTON, MA, 02109",638999936,"L"
2210,"100 GALEN STREET","WALTHAM","MA",2451,42.3858920650001,-71.2469471599999,210,"100 GALEN STREET, WALTHAM, MA, 2451","Match","Exact","100 GALEN ST, WALTHAM, MA, 02451",86890140,"L"
2211,"100 GALLERIA PARKWAY STE 1010","ATLANTA","GA",30339,33.8831070030001,-84.46500331,211,"100 GALLERIA PARKWAY STE 1010, ATLANTA, GA, 30339","Match","Exact","100 GALLERIA PKWY, ATLANTA, GA, 30339",17226423,"L"
2212,"100 GALLOWAY RD","GALLOWAY","OH",43119,39.9491941690001,-83.154265516,212,"100 GALLOWAY RD, GALLOWAY, OH, 43119","Match","Exact","100 GALLOWAY RD, GALLOWAY, OH, 43119",218677314,"L"
2213,"100 GARDENIA COURT","LULING","LA",70070,29.902816172,-90.3505456,213,"100 GARDENIA COURT, LULING, LA, 70070","Match","Exact","100 GARDENIA CT, LULING, LA, 70070",93618493,"L"
2214,"100 GATEWAY BLVD APT BF-808","GREENVILLE","SC",29607,34.801213068,-82.2821182769999,214,"100 GATEWAY BLVD APT BF-808, GREENVILLE, SC, 29607","Match","Exact","100 GATEWAY BLVD, GREENVILLE, SC, 29607",38321434,"R"
2215,"100 GATEWAY PARKWAY","MARBLE FALLS","TX",78654,30.5650641830001,-98.271741783,215,"100 GATEWAY PARKWAY, MARBLE FALLS, TX, 78654","Match","Exact","100 GATEWAY PKWY, MARBLE FALLS, TX, 78654",146501859,"R"
2216,"100 GERALD GIBBS DR","MILL SPRING","NC",28756,35.3629170950001,-82.199144168,216,"100 GERALD GIBBS DR, MILL SPRING, NC, 28756","Match","Exact","100 GERALD GIBBS DR, MILL SPRING, NC, 28756",635937663,"L"
2217,"100 GIBSON BLVD - 405","VALLEY STREAM","NY",11581,40.649468723,-73.701271334,217,"100 GIBSON BLVD - 405, VALLEY STREAM, NY, 11581","Match","Exact","100 GIBSON BLVD, VALLEY STREAM, NY, 11581",147678290,"R"
2218,"100 GLEASON DRIVE","COVINGTON","VA",24426,37.801266136,-79.873569017,218,"100 GLEASON DRIVE, COVINGTON, VA, 24426","Match","Exact","100 GLEASON DR, COVINGTON, VA, 24426",213123226,"R"
2219,"100 GLEN STREET","GLEN COVE","NY",11542,40.863728748,-73.62799623,219,"100 GLEN STREET, GLEN COVE, NY, 11542","Match","Exact","100 GLEN ST, GLEN COVE, NY, 11542",147658197,"R"
2220,"100 GLENBOROUGH DR STE 400","HOUSTON","TX",77067,29.9513007730001,-95.421435359,220,"100 GLENBOROUGH DR STE 400, HOUSTON, TX, 77067","Match","Exact","100 GLENBOROUGH DR, HOUSTON, TX, 77067",96658983,"R"
2221,"100 GLENBOROUGH DR STE 431L","HOUSTON","TX",77067,29.9513007730001,-95.421435359,221,"100 GLENBOROUGH DR STE 431L, HOUSTON, TX, 77067","Match","Exact","100 GLENBOROUGH DR, HOUSTON, TX, 77067",96658983,"R"
2222,"100 GLENBOROUGH DRIVE SUITE 1000","HOUSTON","TX",77067,29.9513007730001,-95.421435359,222,"100 GLENBOROUGH DRIVE SUITE 1000, HOUSTON, TX, 77067","Match","Exact","100 GLENBOROUGH DR, HOUSTON, TX, 77067",96658983,"R"
2223,"100 GLENRIDGE WAY","MCDONOUGH","GA",30253,33.519637839,-84.1865604829999,223,"100 GLENRIDGE WAY, MCDONOUGH, GA, 30253","Match","Exact","100 GLENRIDGE WAY, MCDONOUGH, GA, 30253",210422828,"R"
2224,"100 GOLD AVS SW SUITE 204","ALBUQUERQUE","NM",87102,NA,NA,224,"100 GOLD AVS SW SUITE 204, ALBUQUERQUE, NM, 87102","No_Match",NA,NA,NA,NA
2225,"100 GOLDSTAR BLVD","WORCESTER","MA",1605,NA,NA,225,"100 GOLDSTAR BLVD, WORCESTER, MA, 1605","No_Match",NA,NA,NA,NA
2226,"100 GORWOOD DRIVE","CORAOPOLIS","PA",15108,NA,NA,226,"100 GORWOOD DRIVE, CORAOPOLIS, PA, 15108","No_Match",NA,NA,NA,NA
2227,"100 GOVERNOR ST","OKLEE","MN",56742,47.8415533140001,-95.855928003,227,"100 GOVERNOR ST, OKLEE, MN, 56742","Match","Exact","100 GOVERNOR ST, OKLEE, MN, 56742",203170347,"R"
2228,"100 GRAND AVE SUITE  2106","OAKLAND","CA",94612,37.8114623010001,-122.265329243,228,"100 GRAND AVE SUITE  2106, OAKLAND, CA, 94612","Match","Exact","100 GRAND AVE, OAKLAND, CA, 94612",125000343,"L"
2229,"100 GRANGE PLACE","CORTLAND","NY",13045,42.6063016250001,-76.170961254,229,"100 GRANGE PLACE, CORTLAND, NY, 13045","Match","Exact","100 GRANGE PL, CORTLAND, NY, 13045",624397475,"R"
2230,"100 GRANT AVENUE","TAKOMA PARK","MD",20912,38.979557427,-77.0076867669999,230,"100 GRANT AVENUE, TAKOMA PARK, MD, 20912","Match","Exact","100 GRANT AVE, TAKOMA PARK, MD, 20912",62068825,"L"
2231,"100 GRAYSTONE DR","MOORE","SC",29369,34.8380834120001,-82.0061595129999,231,"100 GRAYSTONE DR, MOORE, SC, 29369","Match","Exact","100 GRAYSTONE DR, MOORE, SC, 29369",19529583,"R"
2232,"100 GREENWAY APT 314","PERRYVILLE","MD",21903,39.563658656,-76.073562236,232,"100 GREENWAY APT 314, PERRYVILLE, MD, 21903","Match","Exact","100 GREENWAY, PERRYVILLE, MD, 21903",633926687,"L"
2233,"100 GREYSTONE DR C-5","NATCHITOCHES","LA",71457,31.7223132760001,-93.0883044029999,233,"100 GREYSTONE DR C-5, NATCHITOCHES, LA, 71457","Match","Exact","100 GREYSTONE DR, NATCHITOCHES, LA, 71457",13387215,"R"
2234,"100 GRIGGS RD","CLOVER","SC",29710,35.108588916,-81.174004162,234,"100 GRIGGS RD, CLOVER, SC, 29710","Match","Exact","100 GRIGGS RD, CLOVER, SC, 29710",19787537,"R"
2235,"100 GT THAMES SUITE C1","STARKVILLE","MS",39759,33.45006905,-88.845669084,235,"100 GT THAMES SUITE C1, STARKVILLE, MS, 39759","Match","Non_Exact","100 G T THAMES DR, STARKVILLE, MS, 39759",805937,"R"
2236,"100 GUINS CREEK LANE","MCKENZIE","TN",38201,36.061028284,-88.4437825269999,236,"100 GUINS CREEK LANE, MCKENZIE, TN, 38201","Match","Non_Exact","100 GUINS CREEK LN, MC KENZIE, TN, 38201",605255898,"R"
2237,"100 GULF STREET","LAMAR","MO",64759,37.5077153170001,-94.276995325,237,"100 GULF STREET, LAMAR, MO, 64759","Match","Exact","100 GULF ST, LAMAR, MO, 64759",99036772,"R"
2238,"100 HAINSVIEW DR","NEWARK","OH",43055,40.08317894,-82.286109844,238,"100 HAINSVIEW DR, NEWARK, OH, 43055","Match","Exact","100 HAINSVIEW DR, NEWARK, OH, 43055",61545957,"L"
2239,"100 HALLE RD","ZANESVILLE","OH",43701,39.989830743,-81.988926447,239,"100 HALLE RD, ZANESVILLE, OH, 43701","Match","Non_Exact","100 HALE RD, ZANESVILLE, OH, 43701",624029156,"L"
2240,"100 HAMILTON PLAZA SUITE 1212","PATERSON","NJ",7505,40.91339687,-74.17144073,240,"100 HAMILTON PLAZA SUITE 1212, PATERSON, NJ, 7505","Match","Non_Exact","100 HAMILTON ST, PATERSON, NJ, 07505",65263377,"R"
2241,"100 HAMM CEMETERY RD","SOMERSET","KY",42501,37.048938526,-84.5311821029999,241,"100 HAMM CEMETERY RD, SOMERSET, KY, 42501","Match","Exact","100 HAMM CEMETERY RD, SOMERSET, KY, 42501",39079817,"R"
2242,"100 HARBORVIEW PLACE SUITE C4","LA CROSSSE","WI",54601,43.81339905,-91.255975674,242,"100 HARBORVIEW PLACE SUITE C4, LA CROSSSE, WI, 54601","Match","Non_Exact","100 HARBORVIEW PLZ, LA CROSSE, WI, 54601",51022405,"R"
2243,"100 HARBOUR LAKE DRIVE","FAYETTEVILLE","GA",30215,33.433683913,-84.3929324919999,243,"100 HARBOUR LAKE DRIVE, FAYETTEVILLE, GA, 30215","Match","Exact","100 HARBOUR LAKE DR, FAYETTEVILLE, GA, 30215",637368081,"R"
2244,"100 HARRISON AVE 443","AUBURN","CA",95603,38.901436871,-121.066688054,244,"100 HARRISON AVE 443, AUBURN, CA, 95603","Match","Exact","100 HARRISON AVE, AUBURN, CA, 95603",106772265,"L"
2245,"100 HARTHAN WAY","ALBION","PA",16401,41.88971596,-80.354251474,245,"100 HARTHAN WAY, ALBION, PA, 16401","Match","Exact","100 HARTHAN WAY, ALBION, PA, 16401",117518323,"R"
2246,"100 HARTSFIELD CENTER PKWY STE 500","ATLANTA","GA",30354,33.654973012,-84.429184632,246,"100 HARTSFIELD CENTER PKWY STE 500, ATLANTA, GA, 30354","Match","Exact","100 HARTSFIELD CENTER PKWY, ATLANTA, GA, 30354",17382879,"L"
2247,"100 HARTSFIELD CENTRE PKWY  STE 500","ATLANTA","GA",30354,33.654973012,-84.429184632,247,"100 HARTSFIELD CENTRE PKWY  STE 500, ATLANTA, GA, 30354","Match","Exact","100 HARTSFIELD CENTER PKWY, ATLANTA, GA, 30354",17382879,"L"
2248,"100 HARVARD STREET","FITCHBURG","MA",1462,NA,NA,248,"100 HARVARD STREET, FITCHBURG, MA, 1462","No_Match",NA,NA,NA,NA
2249,"100 HAWKS CIRCLE","GRETNA","VA",24557,NA,NA,249,"100 HAWKS CIRCLE, GRETNA, VA, 24557","No_Match",NA,NA,NA,NA
2250,"100 HAY ST 6TH FLOOR","FAYETTEVILLE","NC",28301,35.0526689060001,-78.8785826339999,250,"100 HAY ST 6TH FLOOR, FAYETTEVILLE, NC, 28301","Match","Exact","100 HAY ST, FAYETTEVILLE, NC, 28301",64201804,"R"
2251,"100 HEATHER DRIVE","COTTAGE GROVE","WI",53527,43.077660784,-89.190296259,251,"100 HEATHER DRIVE, COTTAGE GROVE, WI, 53527","Match","Exact","100 HEATHER DR, COTTAGE GROVE, WI, 53527",49517760,"L"
2252,"100 HEIGHE STREET","BEL AIR","MD",21014,39.5307848050001,-76.345534836,252,"100 HEIGHE STREET, BEL AIR, MD, 21014","Match","Exact","100 HEIGHE ST, BEL AIR, MD, 21014",191641237,"R"
2253,"100 HELEN AVE","BALTIMORE","OH",43105,39.84001348,-82.604803429,253,"100 HELEN AVE, BALTIMORE, OH, 43105","Match","Exact","100 HELEN AVE, BALTIMORE, OH, 43105",37219323,"R"
2254,"100 HELICOPTER DR","FREDERICK","OK",73542,34.4019280630001,-99.0099892919999,254,"100 HELICOPTER DR, FREDERICK, OK, 73542","Match","Non_Exact","100 HELICOPTOR DR, FREDERICK, OK, 73542",125664416,"R"
2255,"100 HICKSVILLE RD","MASSAPEQUA","NY",11758,40.6732253050001,-73.4743688739999,255,"100 HICKSVILLE RD, MASSAPEQUA, NY, 11758","Match","Exact","100 HICKSVILLE RD, MASSAPEQUA, NY, 11758",147649236,"R"
2256,"100 HIGH COUNTRY DR","SEGUIN","TX",78155,29.536643111,-97.9566471749999,256,"100 HIGH COUNTRY DR, SEGUIN, TX, 78155","Match","Exact","100 HIGH COUNTRY DR, SEGUIN, TX, 78155",640616078,"L"
2257,"100 HIGH RIDGE LANE","LEWISVILLE","TX",75067,32.993771942,-96.994778708,257,"100 HIGH RIDGE LANE, LEWISVILLE, TX, 75067","Match","Exact","100 HIGH RIDGE LN, LEWISVILLE, TX, 75067",643093980,"L"
2258,"100 HIGH SCHOOL ROAD","CORYDON","IN",47112,38.2016718130001,-86.122007533,258,"100 HIGH SCHOOL ROAD, CORYDON, IN, 47112","Match","Exact","100 HIGH SCHOOL RD, CORYDON, IN, 47112",648121556,"R"
2259,"100 HIGHLAND AVE","YONKERS","NY",10705,40.924937072,-73.8984070669999,259,"100 HIGHLAND AVE, YONKERS, NY, 10705","Match","Exact","100 HIGHLAND AVE, YONKERS, NY, 10705",139743562,"R"
2260,"100 HIGHLAND AVENUE","PORT WASHINGTON","NY",11050,40.826331818,-73.675725202,260,"100 HIGHLAND AVENUE, PORT WASHINGTON, NY, 11050","Match","Exact","100 HIGHLAND AVE, PORT WASHINGTON, NY, 11050",147661329,"R"
2261,"100 HIGHLAND PARK VILLAGE SUITE 200","DALLAS","TX",75205,32.83627468,-96.806548165,261,"100 HIGHLAND PARK VILLAGE SUITE 200, DALLAS, TX, 75205","Match","Exact","100 HIGHLAND PARK VILLAGE, DALLAS, TX, 75205",103235124,"R"
2262,"100 HIGHLAND PARK VILLAGE SUITE 300","DALLAS","TX",75205,32.83627468,-96.806548165,262,"100 HIGHLAND PARK VILLAGE SUITE 300, DALLAS, TX, 75205","Match","Exact","100 HIGHLAND PARK VILLAGE, DALLAS, TX, 75205",103235124,"R"
2263,"100 HIGHPOINT DRIVE   SUITE101","CHALFONT","PA",18914,40.2604961640001,-75.211683323,263,"100 HIGHPOINT DRIVE   SUITE101, CHALFONT, PA, 18914","Match","Exact","100 HIGHPOINT DR, CHALFONT, PA, 18914",134730383,"R"
2264,"100 HIGHWAY 311","SCHRIEVER","LA",70395,29.72345771,-90.800239429,264,"100 HIGHWAY 311, SCHRIEVER, LA, 70395","Match","Non_Exact","100 STATE RTE 311, SCHRIEVER, LA, 70395",92054320,"L"
2265,"100 HILDA DR","NEW BERN","NC",28562,35.0186248370001,-77.000468642,265,"100 HILDA DR, NEW BERN, NC, 28562","Match","Exact","100 HILDA DR, NEW BERN, NC, 28562",624940863,"R"
2266,"100 HILL AVENUE N  PO BOX 9","JASPER","MN",56144,NA,NA,266,"100 HILL AVENUE N  PO BOX 9, JASPER, MN, 56144","Tie",NA,NA,NA,NA
2267,"100 HILL POINTE DR","MORGANTOWN","WV",26508,NA,NA,267,"100 HILL POINTE DR, MORGANTOWN, WV, 26508","No_Match",NA,NA,NA,NA
2268,"100 HILLABEE COURT","MONTGOMERY","AL",36117,32.3827959010001,-86.146916792,268,"100 HILLABEE COURT, MONTGOMERY, AL, 36117","Match","Exact","100 HILLABEE CT, MONTGOMERY, AL, 36117",1501931,"L"
2269,"100 HILLCREST CHASE TERRACE","AUSTELL","GA",30168,33.781816356,-84.553161887,269,"100 HILLCREST CHASE TERRACE, AUSTELL, GA, 30168","Match","Exact","100 HILLCREST CHASE TER, AUSTELL, GA, 30168",17227890,"L"
2270,"100 HILLSIDE DR APT D6","MIDDLETOWN","NY",10941,41.467843842,-74.346690931,270,"100 HILLSIDE DR APT D6, MIDDLETOWN, NY, 10941","Match","Exact","100 HILLSIDE DR, MIDDLETOWN, NY, 10941",124470011,"R"
2271,"100 HILLSIDE DRIVE A12","MIDDLETOWN","NY",10941,41.467843842,-74.346690931,271,"100 HILLSIDE DRIVE A12, MIDDLETOWN, NY, 10941","Match","Exact","100 HILLSIDE DR, MIDDLETOWN, NY, 10941",124470011,"R"
2272,"100 HINDS STREET","TONAWANDA","NY",14150,43.0118455790001,-78.897177982,272,"100 HINDS STREET, TONAWANDA, NY, 14150","Match","Exact","100 HINDS ST, TONAWANDA, NY, 14150",48284058,"R"
2273,"100 HODGEN DR","ATMORE","AL",36502,31.0015056710001,-87.460708321,273,"100 HODGEN DR, ATMORE, AL, 36502","Match","Exact","100 HODGEN DR, ATMORE, AL, 36502",1957311,"R"
2274,"100 HOLLOW ROCK CT","SLIDELL","LA",70461,30.2618303190001,-89.7538759619999,274,"100 HOLLOW ROCK CT, SLIDELL, LA, 70461","Match","Exact","100 HOLLOW ROCK CT, SLIDELL, LA, 70461",111249348,"R"
2275,"100 HOLLY PARK CT APT 10109","HOLLY SPRINGS","GA",30115,NA,NA,275,"100 HOLLY PARK CT APT 10109, HOLLY SPRINGS, GA, 30115","Tie",NA,NA,NA,NA
2276,"100 HOLMES CIRCLE APT 5","LYNCHBURG","VA",24501,37.4076963320001,-79.2114435239999,276,"100 HOLMES CIRCLE APT 5, LYNCHBURG, VA, 24501","Match","Exact","100 HOLMES CIR, LYNCHBURG, VA, 24501",62738319,"R"
2277,"100 HOMER MOON DRIVE","LOGANVILLE","GA",30052,NA,NA,277,"100 HOMER MOON DRIVE, LOGANVILLE, GA, 30052","No_Match",NA,NA,NA,NA
2278,"100 HOMER MOON ROAD","LOGANVILLE","GA",30052,NA,NA,278,"100 HOMER MOON ROAD, LOGANVILLE, GA, 30052","No_Match",NA,NA,NA,NA
2279,"100 HORIZON CENTER BLVD","HAMILTON","NJ",8691,40.1997765730001,-74.641553326,279,"100 HORIZON CENTER BLVD, HAMILTON, NJ, 8691","Match","Exact","100 HORIZON CENTER, HAMILTON, NJ, 08691",60189281,"L"
2280,"100 HORIZON CENTER BOULEVARD","HAMILTON","NJ",8691,40.1997765730001,-74.641553326,280,"100 HORIZON CENTER BOULEVARD, HAMILTON, NJ, 8691","Match","Exact","100 HORIZON CENTER, HAMILTON, NJ, 08691",60189281,"L"
2281,"100 HORSESHOE CIRCLE","WEST COVINA","CA",91791,34.0677891670001,-117.859337183,281,"100 HORSESHOE CIRCLE, WEST COVINA, CA, 91791","Match","Exact","100 HORSESHOE CIR, WEST COVINA, CA, 91791",141776436,"L"
2282,"100 HORSESHOE LANE","JACKSON","GA",30233,33.178933294,-84.038922611,282,"100 HORSESHOE LANE, JACKSON, GA, 30233","Match","Exact","100 HORSESHOE LN, JACKSON, GA, 30233",624671575,"L"
2283,"100 HOSPITAL DRIVE","BENNINGTON","VT",5201,42.8733428570001,-73.206788097,283,"100 HOSPITAL DRIVE, BENNINGTON, VT, 5201","Match","Exact","100 HOSPITAL DR, BENNINGTON, VT, 05201",639481693,"L"
2284,"100 HOSPITAL ROAD SUITE 2A","LEOMINSTER","MA",1453,42.5413156750001,-71.762108762,284,"100 HOSPITAL ROAD SUITE 2A, LEOMINSTER, MA, 1453","Match","Exact","100 HOSPITAL RD, LEOMINSTER, MA, 01453",40044554,"L"
2285,"100 HOUSTON ST","BUDA","TX",78610,30.080518322,-97.8427041799999,285,"100 HOUSTON ST, BUDA, TX, 78610","Match","Exact","100 HOUSTON ST, BUDA, TX, 78610",63819922,"L"
2286,"100 HOUSTON STREET","BUDA","TX",78610,30.080518322,-97.8427041799999,286,"100 HOUSTON STREET, BUDA, TX, 78610","Match","Exact","100 HOUSTON ST, BUDA, TX, 78610",63819922,"L"
2287,"100 HOUSTON STREET","GEORGE WEST","TX",78022,28.335936659,-98.112363629,287,"100 HOUSTON STREET, GEORGE WEST, TX, 78022","Match","Exact","100 HOUSTON ST, GEORGE WEST, TX, 78022",21574422,"L"
2288,"100 HOWE STREET","METHUEN","MA",1844,42.7490133000001,-71.172312913,288,"100 HOWE STREET, METHUEN, MA, 1844","Match","Exact","100 HOWE ST, METHUEN, MA, 01844",86689055,"L"
2289,"100 HOYLE LANE","SEVERNA PARK","MD",21146,NA,NA,289,"100 HOYLE LANE, SEVERNA PARK, MD, 21146","No_Match",NA,NA,NA,NA
2290,"100 HUFFMAN AVENUE","DAYTOIN","OH",45403,39.761380795,-84.1670108929999,290,"100 HUFFMAN AVENUE, DAYTOIN, OH, 45403","Match","Non_Exact","100 HUFFMAN AVE, DAYTON, OH, 45403",143574309,"L"
2291,"100 HULTON ROAD","OAKMONT","PA",15139,40.5262974130001,-79.844120673,291,"100 HULTON ROAD, OAKMONT, PA, 15139","Match","Exact","100 HULTON RD, OAKMONT, PA, 15139",51665535,"R"
2292,"100 HUNTERHILL RD APT 13A","TARBORO","NC",27886,35.898408891,-77.561056497,292,"100 HUNTERHILL RD APT 13A, TARBORO, NC, 27886","Match","Non_Exact","100 HUNTER HILL RD, TARBORO, NC, 27886",90188765,"R"
2293,"100 HUNTERWOOD COURT","SMYRNA","TN",37167,35.963740128,-86.530484142,293,"100 HUNTERWOOD COURT, SMYRNA, TN, 37167","Match","Exact","100 HUNTERWOOD CT, SMYRNA, TN, 37167",59029065,"R"
2294,"100 HUSPAH ROAD","SEABROOK","SC",29940,32.594066237,-80.788160061,294,"100 HUSPAH ROAD, SEABROOK, SC, 29940","Match","Non_Exact","100 HUSPAH DR, SEABROOK, SC, 29940",646139277,"R"
2295,"100 HUTCHESON STREET","HOUSTON","TX",77003,29.750382637,-95.3373712819999,295,"100 HUTCHESON STREET, HOUSTON, TX, 77003","Match","Exact","100 HUTCHESON ST, HOUSTON, TX, 77003",647636059,"R"
2296,"100 HWY 67 SUITE 5","CEDAR HILL","TX",75104,NA,NA,296,"100 HWY 67 SUITE 5, CEDAR HILL, TX, 75104","No_Match",NA,NA,NA,NA
2297,"100 IDLEWOOD LANE","CLAYTON","NC",27527,35.658121383,-78.3539739,297,"100 IDLEWOOD LANE, CLAYTON, NC, 27527","Match","Exact","100 IDLEWOOD LN, CLAYTON, NC, 27527",646663719,"R"
2298,"100 ILLINOIS STREET APT 345","BISMARCK","IL",61814,40.2637348900001,-87.613076701,298,"100 ILLINOIS STREET APT 345, BISMARCK, IL, 61814","Match","Exact","100 ILLINOIS ST, BISMARCK, IL, 61814",65993193,"L"
2299,"100 INDEPENDENCE BLVD","CHRISTIANSBURG","VA",24073,37.1442975460001,-80.416560507,299,"100 INDEPENDENCE BLVD, CHRISTIANSBURG, VA, 24073","Match","Exact","100 INDEPENDENCE BLVD, CHRISTIANSBURG, VA, 24073",73648877,"R"
2300,"100 INDEPENDENCE BOULEVARD","ASHEVILLE","NC",28805,35.6276034570001,-82.485417866,300,"100 INDEPENDENCE BOULEVARD, ASHEVILLE, NC, 28805","Match","Exact","100 INDEPENDENCE BLVD, ASHEVILLE, NC, 28805",36898966,"L"
2301,"100 INDEPENDENCE DRIVE","ORCHARD PARK","NY",14127,42.7447343900001,-78.727234037,301,"100 INDEPENDENCE DRIVE, ORCHARD PARK, NY, 14127","Match","Exact","100 INDEPENDENCE DR, ORCHARD PARK, NY, 14127",48317513,"L"
2302,"100 INDEPENDENCE LANE","ASHLAND","MA",1721,42.2808814540001,-71.4988067369999,302,"100 INDEPENDENCE LANE, ASHLAND, MA, 1721","Match","Exact","100 INDEPENDENCE LN, ASHLAND, MA, 01721",87136013,"L"
2303,"100 INDIAN LANE","SANGER","TX",76266,33.3597782250001,-97.157168032,303,"100 INDIAN LANE, SANGER, TX, 76266","Match","Exact","100 INDIAN LN, SANGER, TX, 76266",640350435,"R"
2304,"100 INDIAN ROCKS RD SUITE 12","BELLEAIR BLUFFS","FL",33770,NA,NA,304,"100 INDIAN ROCKS RD SUITE 12, BELLEAIR BLUFFS, FL, 33770","Tie",NA,NA,NA,NA
2305,"100 INDIAN TRACE CIRCLE","MERIDIANVILLE","AL",35759,34.849270312,-86.585544531,305,"100 INDIAN TRACE CIRCLE, MERIDIANVILLE, AL, 35759","Match","Exact","100 INDIAN TRACE CIR, MERIDIANVILLE, AL, 35759",58194091,"L"
2306,"100 INDIANWOOD BLVD","PARK FOREST","IL",60446,41.4808765930001,-87.676227099,306,"100 INDIANWOOD BLVD, PARK FOREST, IL, 60446","Match","Non_Exact","100 INDIANWOOD BLVD, PARK FOREST, IL, 60466",605645565,"R"
2307,"100 INEZ BLVD","ALTUS AFB","OK",73523,NA,NA,307,"100 INEZ BLVD, ALTUS AFB, OK, 73523","No_Match",NA,NA,NA,NA
2308,"100 INEZ BLVD","ALTUS","OK",73523,NA,NA,308,"100 INEZ BLVD, ALTUS, OK, 73523","No_Match",NA,NA,NA,NA
2309,"100 INSTITUTE ROAD","WORCESTER","MA",1609,42.273080975,-71.811229972,309,"100 INSTITUTE ROAD, WORCESTER, MA, 1609","Match","Exact","100 INSTITUTE RD, WORCESTER, MA, 01609",40085256,"L"
2310,"100 INTERLACHEN ROAD","BURNSVILLE","MN",55306,44.73230863,-93.275834421,310,"100 INTERLACHEN ROAD, BURNSVILLE, MN, 55306","Match","Exact","100 INTERLACHEN RD, BURNSVILLE, MN, 55306",37906189,"L"
2311,"100 IRELAND ST","HAMPTON","VA",23663,37.0346535080001,-76.317462549,311,"100 IRELAND ST, HAMPTON, VA, 23663","Match","Exact","100 IRELAND ST, HAMPTON, VA, 23663",103807536,"R"
2312,"100 IRON AVE","GRANTS","NM",87020,35.1531308570001,-107.855113722,312,"100 IRON AVE, GRANTS, NM, 87020","Match","Exact","100 IRON AVE, GRANTS, NM, 87020",636160517,"R"
2313,"100 ISAAC COURT","BERRYVILLE","VA",22611,39.153504286,-77.991568996,313,"100 ISAAC COURT, BERRYVILLE, VA, 22611","Match","Exact","100 ISAAC CT, BERRYVILLE, VA, 22611",223513744,"R"
2314,"100 ISLAND ROAD","MONROEVILLE","NJ",8343,39.624382387,-75.166300919,314,"100 ISLAND ROAD, MONROEVILLE, NJ, 8343","Match","Exact","100 ISLAND RD, MONROEVILLE, NJ, 08343",174413776,"R"
2315,"100 IVANHOE STREET","DENVER","CO",80220,39.718146303,-104.921465786,315,"100 IVANHOE STREET, DENVER, CO, 80220","Match","Exact","100 IVANHOE ST, DENVER, CO, 80220",177339769,"R"
2316,"100 IVYSIDE DRIVE","YORK","PA",17402,39.9598586980001,-76.61706452,316,"100 IVYSIDE DRIVE, YORK, PA, 17402","Match","Exact","100 IVYSIDE DR, YORK, PA, 17402",88739060,"R"
2317,"100 JACKSON ST STE 130B","HOUSTON","TX",77002,29.760077837,-95.353572496,317,"100 JACKSON ST STE 130B, HOUSTON, TX, 77002","Match","Exact","100 JACKSON ST, HOUSTON, TX, 77002",96069734,"R"
2318,"100 JACOBS PL POB 126","AQUEBOGUE","NY",11931,40.935594119,-72.613402702,318,"100 JACOBS PL POB 126, AQUEBOGUE, NY, 11931","Match","Exact","100 JACOBS PL, AQUEBOGUE, NY, 11931",643167172,"L"
2319,"100 JAMAICA ROAD","CARLISLE","OH",45005,39.589425007,-84.323671944,319,"100 JAMAICA ROAD, CARLISLE, OH, 45005","Match","Exact","100 JAMAICA RD, CARLISLE, OH, 45005",641130956,"L"
2320,"100 JAMES AVENUE","MANKATO","MN",56001,44.15334331,-94.007455665,320,"100 JAMES AVENUE, MANKATO, MN, 56001","Match","Exact","100 JAMES AVE, MANKATO, MN, 56001",636254737,"R"
2321,"100 JANE STREET SUITE 4P","NEW YORK","NY",10014,40.7381405560001,-74.008270367,321,"100 JANE STREET SUITE 4P, NEW YORK, NY, 10014","Match","Exact","100 JANE ST, NEW YORK, NY, 10014",640900702,"L"
2322,"100 JASMINE ST","BRIDGE CITY","TX",77611,30.009179212,-93.839229072,322,"100 JASMINE ST, BRIDGE CITY, TX, 77611","Match","Exact","100 JASMINE ST, BRIDGE CITY, TX, 77611",74006862,"L"
2323,"100 JAY ST APT 22F","BROOKLYN","NY",11201,40.7023535440001,-73.9867002569999,323,"100 JAY ST APT 22F, BROOKLYN, NY, 11201","Match","Exact","100 JAY ST, BROOKLYN, NY, 11201",59075078,"R"
2324,"100 JEFFERSON STREET","JEFFERSON CITY","MO",65101,38.5789192570001,-92.170194981,324,"100 JEFFERSON STREET, JEFFERSON CITY, MO, 65101","Match","Exact","100 JEFFERSON ST, JEFFERSON CITY, MO, 65101",34407735,"L"
2325,"100 JENNIE CT","FERRIS","TX",75125,32.5341088650001,-96.681732858,325,"100 JENNIE CT, FERRIS, TX, 75125","Match","Exact","100 JENNIE CT, FERRIS, TX, 75125",616469158,"R"
2326,"100 JERICHO QUADRANGLE 226","JERICHO","NY",11753,NA,NA,326,"100 JERICHO QUADRANGLE 226, JERICHO, NY, 11753","No_Match",NA,NA,NA,NA
2327,"100 JERICHO QUADRANGLE SUITE 142","JERICHO","NY",11753,NA,NA,327,"100 JERICHO QUADRANGLE SUITE 142, JERICHO, NY, 11753","No_Match",NA,NA,NA,NA
2328,"100 JERSEY AVE BOX B-2 BLDG B 103","NEW BRUNSWICK","NJ",8901,40.4883935170001,-74.457836841,328,"100 JERSEY AVE BOX B-2 BLDG B 103, NEW BRUNSWICK, NJ, 8901","Match","Exact","100 JERSEY AVE, NEW BRUNSWICK, NJ, 08901",60263612,"L"
2329,"100 JERSEY ST  APT 201","BOSTON","MA",2215,42.343661372,-71.097388435,329,"100 JERSEY ST  APT 201, BOSTON, MA, 2215","Match","Exact","100 JERSEY ST, BOSTON, MA, 02215",85727731,"L"
2330,"100 JETPLEX BLVD SW","HUNTSVILLE","AL",35824,34.647286224,-86.759159901,330,"100 JETPLEX BLVD SW, HUNTSVILLE, AL, 35824","Match","Exact","100 JETPLEX BLVD SW, HUNTSVILLE, AL, 35824",58196976,"R"
2331,"100 JIM OWEN DRIVE","ELIZABETHTOWN","KY",42701,NA,NA,331,"100 JIM OWEN DRIVE, ELIZABETHTOWN, KY, 42701","No_Match",NA,NA,NA,NA
2332,"100 JOHN STREET STE 3102","NEW YORK","NY",10038,40.7081997710001,-74.006494475,332,"100 JOHN STREET STE 3102, NEW YORK, NY, 10038","Match","Exact","100 JOHN ST, NEW YORK, NY, 10038",59660477,"R"
2333,"100 JUNIPER DRIVE","MCDONOUGH","GA",30253,33.4400882400001,-84.184338703,333,"100 JUNIPER DRIVE, MCDONOUGH, GA, 30253","Match","Exact","100 JUNIPER DR, MCDONOUGH, GA, 30253",23192340,"R"
2334,"100 KALE AVENUE","STERLING","VA",20164,39.0346898490001,-77.378276721,334,"100 KALE AVENUE, STERLING, VA, 20164","Match","Exact","100 KALE AVE, STERLING, VA, 20164",62327765,"R"
2335,"100 KANSAS STREET","FRANKFORT","IL",60423,41.4984641360001,-87.851222258,335,"100 KANSAS STREET, FRANKFORT, IL, 60423","Match","Exact","100 KANSAS ST, FRANKFORT, IL, 60423",111550910,"R"
2336,"100 KEASLER CIRCLE","ANDERSON","SC",29625,34.5919000660001,-82.8009560579999,336,"100 KEASLER CIRCLE, ANDERSON, SC, 29625","Match","Exact","100 KEASLER CIR, ANDERSON, SC, 29625",25489675,"L"
2337,"100 KELLENS CT","FAYETTEVILLE","GA",30215,33.457833512,-84.402773833,337,"100 KELLENS CT, FAYETTEVILLE, GA, 30215","Match","Exact","100 KELLENS CT, FAYETTEVILLE, GA, 30215",646021106,"L"
2338,"100 KENDLEWICK DR","CARY","NC",27511,35.75614934,-78.799298949,338,"100 KENDLEWICK DR, CARY, NC, 27511","Match","Exact","100 KENDLEWICK DR, CARY, NC, 27511",72523102,"L"
2339,"100 KENNEDY DR","GRETNA","LA",70053,29.9028149330001,-90.045032078,339,"100 KENNEDY DR, GRETNA, LA, 70053","Match","Exact","100 KENNEDY DR, GRETNA, LA, 70053",93532821,"L"
2340,"100 KIMES ROAD","ZANESVILLE","OH",43701,39.954125144,-82.089438859,340,"100 KIMES ROAD, ZANESVILLE, OH, 43701","Match","Exact","100 KIMES RD, ZANESVILLE, OH, 43701",45605918,"R"
2341,"100 KING ST SUITE 203","NORTHAMPTON","MA",1060,42.322528622,-72.632152155,341,"100 KING ST SUITE 203, NORTHAMPTON, MA, 1060","Match","Exact","100 KING ST, NORTHAMPTON, MA, 01060",39867568,"L"
2342,"100 KING STREET","LITTLETON","MA",1460,42.5395135850001,-71.502530248,342,"100 KING STREET, LITTLETON, MA, 1460","Match","Exact","100 KING ST, LITTLETON, MA, 01460",87140231,"L"
2343,"100 KINGS CASTLE DR","APEX","NC",27502,35.7400175810001,-78.85752597,343,"100 KINGS CASTLE DR, APEX, NC, 27502","Match","Exact","100 KINGS CASTLE DR, APEX, NC, 27502",208372179,"L"
2344,"100 KINGS DRIVE","TANEYTOWN","MD",21787,39.6511013910001,-77.170482248,344,"100 KINGS DRIVE, TANEYTOWN, MD, 21787","Match","Exact","100 KINGS DR, TANEYTOWN, MD, 21787",209392460,"L"
2345,"100 KINGS POND DR APT 122","JACSONVILLE","NC",28546,34.78587452,-77.394009016,345,"100 KINGS POND DR APT 122, JACSONVILLE, NC, 28546","Match","Non_Exact","100 KINGS POND DR, JACKSONVILLE, NC, 28546",620025958,"R"
2346,"100 KNIGHT WAY APT 803","FAYETTEVILLE","GA",30214,NA,NA,346,"100 KNIGHT WAY APT 803, FAYETTEVILLE, GA, 30214","No_Match",NA,NA,NA,NA
2347,"100 KNIGHT WAY","FAYETTEVILLE","GA",30214,NA,NA,347,"100 KNIGHT WAY, FAYETTEVILLE, GA, 30214","No_Match",NA,NA,NA,NA
2348,"100 LABREA BLVD","MCDONOUGH","GA",30253,NA,NA,348,"100 LABREA BLVD, MCDONOUGH, GA, 30253","No_Match",NA,NA,NA,NA
2349,"100 LAFAYETTE ST 2ND FLR","BATON ROUGE","LA",70801,30.447186394,-91.1893350509999,349,"100 LAFAYETTE ST 2ND FLR, BATON ROUGE, LA, 70801","Match","Exact","100 LAFAYETTE ST, BATON ROUGE, LA, 70801",92179549,"R"
2350,"100 LAFAYETTE STREET","HAVRE DE GRACE","MD",21078,39.5406503500001,-76.087154017,350,"100 LAFAYETTE STREET, HAVRE DE GRACE, MD, 21078","Match","Exact","100 LAFAYETTE ST, HAVRE DE GRACE, MD, 21078",191646788,"L"
2351,"100 LAKESIDE COURT","PINEHURST","NC",28374,35.211236366,-79.414914751,351,"100 LAKESIDE COURT, PINEHURST, NC, 28374","Match","Exact","100 LAKESIDE CT, PINEHURST, NC, 28374",20309523,"R"
2352,"100 LAKEVIEW CIR","JEFFERSON","TX",75657,NA,NA,352,"100 LAKEVIEW CIR, JEFFERSON, TX, 75657","No_Match",NA,NA,NA,NA
2353,"100 LAKEWOOD VILLAGE CR","DAYTONA BEACH","FL",32119,29.1668166690001,-81.04641708,353,"100 LAKEWOOD VILLAGE CR, DAYTONA BEACH, FL, 32119","Match","Exact","100 LAKEWOOD VILLAGE CIR, DAYTONA BEACH, FL, 32119",94569917,"L"
2354,"100 LANGSTON COURT","FRANKLIN","VA",23851,36.6694477950001,-76.926596204,354,"100 LANGSTON COURT, FRANKLIN, VA, 23851","Match","Non_Exact","100 LANGSTON ST, FRANKLIN, VA, 23851",82732361,"R"
2355,"100 LANTERN HILL ROAD","SHAVERTOWN","PA",18708,41.3019253470001,-75.9391391949999,355,"100 LANTERN HILL ROAD, SHAVERTOWN, PA, 18708","Match","Exact","100 LANTERN HILL RD, SHAVERTOWN, PA, 18708",604522464,"R"
2356,"100 LEANNA CRESCENT","BROCKPORT","NY",14420,43.2425993900001,-77.913101619,356,"100 LEANNA CRESCENT, BROCKPORT, NY, 14420","Match","Exact","100 LEANNA CRES, BROCKPORT, NY, 14420",623795521,"L"
2357,"100 LEAVIEW LANE","CHAGRIN FALLS","OH",44022,41.433307756,-81.325050673,357,"100 LEAVIEW LANE, CHAGRIN FALLS, OH, 44022","Match","Non_Exact","100 LEAVIEW AVE, CHAGRIN FALLS, OH, 44022",137433825,"R"
2358,"100 LEE AVENUE","YONKERS","NY",10705,40.910788116,-73.87898682,358,"100 LEE AVENUE, YONKERS, NY, 10705","Match","Exact","100 LEE AVE, YONKERS, NY, 10705",139745037,"R"
2359,"100 LEIGHS CT","TARBORO","NC",27886,35.8759968300001,-77.579560978,359,"100 LEIGHS CT, TARBORO, NC, 27886","Match","Exact","100 LEIGHS CT, TARBORO, NC, 27886",90189523,"R"
2360,"100 LELAND RD","CHESTNUT HILL","MA",2467,42.297934405,-71.1434009609999,360,"100 LELAND RD, CHESTNUT HILL, MA, 2467","Match","Exact","100 LELAND RD, CHESTNUT HILL, MA, 02467",85696236,"L"
2361,"100 LEONARD LANE","ELGIN","SC",29045,34.2697098800001,-80.823574552,361,"100 LEONARD LANE, ELGIN, SC, 29045","Match","Exact","100 LEONARD LN, ELGIN, SC, 29045",78490263,"L"
2362,"100 LIBERTY MINUTEMEN DRIVE","BEDFORD","VA",24523,37.3725569000001,-79.498505178,362,"100 LIBERTY MINUTEMEN DRIVE, BEDFORD, VA, 24523","Match","Exact","100 LIBERTY MINUTEMEN DR, BEDFORD, VA, 24523",638679523,"L"
2363,"100 LIGHT STREET FLOOR 12","BALT","MD",21202,39.2878431130001,-76.6136701409999,363,"100 LIGHT STREET FLOOR 12, BALT, MD, 21202","Match","Non_Exact","100 LIGHT ST, BALTIMORE, MD, 21202",206420784,"R"
2364,"100 LINCOLN WAY E STE E","CHAMBERSBURG","PA",17201,39.937495433,-77.66124195,364,"100 LINCOLN WAY E STE E, CHAMBERSBURG, PA, 17201","Match","Exact","100 LINCOLN WAY E, CHAMBERSBURG, PA, 17201",648383355,"L"
2365,"100 LINDEN BLVD APARTMENT 3F","BROOKLYN","NY",11226,40.652358103,-73.9551253229999,365,"100 LINDEN BLVD APARTMENT 3F, BROOKLYN, NY, 11226","Match","Exact","100 LINDEN BLVD, BROOKLYN, NY, 11226",650074270,"R"
2366,"100 LINDSTROM STREET","ABERDEEN","WA",98520,NA,NA,366,"100 LINDSTROM STREET, ABERDEEN, WA, 98520","No_Match",NA,NA,NA,NA
2367,"100 LITTLETON ROAD","WESTFORD","MA",1886,NA,NA,367,"100 LITTLETON ROAD, WESTFORD, MA, 1886","No_Match",NA,NA,NA,NA
2368,"100 LIVING WATERS TRAIL","WOODRUFF","SC",29388,NA,NA,368,"100 LIVING WATERS TRAIL, WOODRUFF, SC, 29388","No_Match",NA,NA,NA,NA
2369,"100 LONG POND ROAD   1368","PLYMOUTH","MA",2362,NA,NA,369,"100 LONG POND ROAD   1368, PLYMOUTH, MA, 2362","No_Match",NA,NA,NA,NA
2370,"100 LUCY RAGSDALE RD","JAMESTOWN","NC",27282,NA,NA,370,"100 LUCY RAGSDALE RD, JAMESTOWN, NC, 27282","No_Match",NA,NA,NA,NA
2371,"100 LUIS MUNOZ MARIN AVE","CAGUAS","PR",725,NA,NA,371,"100 LUIS MUNOZ MARIN AVE, CAGUAS, PR, 725","No_Match",NA,NA,NA,NA
2372,"100 LYNN RD","RALEIGH","NC",27609,35.8649867180001,-78.6377059609999,372,"100 LYNN RD, RALEIGH, NC, 27609","Match","Exact","100 LYNN RD, RALEIGH, NC, 27609",72521498,"L"
2373,"100 LYNN ROAD","RALEIGH","NC",27609,35.8649867180001,-78.6377059609999,373,"100 LYNN ROAD, RALEIGH, NC, 27609","Match","Exact","100 LYNN RD, RALEIGH, NC, 27609",72521498,"L"
2374,"100 M PRICE ROAD","PERKINSTON","MS",39573,NA,NA,374,"100 M PRICE ROAD, PERKINSTON, MS, 39573","Tie",NA,NA,NA,NA
2375,"100 MACARTHUR AVENUE","PANAMA CITY","FL",32401,NA,NA,375,"100 MACARTHUR AVENUE, PANAMA CITY, FL, 32401","Tie",NA,NA,NA,NA
2376,"100 MACK AVE DIASTER SVCS 3RD FL","DETROIT","MI",48244,42.347830485,-83.056874942,376,"100 MACK AVE DIASTER SVCS 3RD FL, DETROIT, MI, 48244","Match","Non_Exact","100 MACK AVE, DETROIT, MI, 48201",95477888,"R"
2377,"100 MADISON DRIVE","NEWARK","DE",19711,39.677099679,-75.767115527,377,"100 MADISON DRIVE, NEWARK, DE, 19711","Match","Exact","100 MADISON DR, NEWARK, DE, 19711",187299367,"L"
2378,"100 MAGNOLIA ROAD 3RD FLOOR","PINEHURST","NC",28374,35.1958492530001,-79.469994808,378,"100 MAGNOLIA ROAD 3RD FLOOR, PINEHURST, NC, 28374","Match","Exact","100 MAGNOLIA RD, PINEHURST, NC, 28374",20295697,"R"
2379,"100 MAGNOLIA ST STE 343","JACKSONVILLE","FL",32204,30.3243175700001,-81.6717209729999,379,"100 MAGNOLIA ST STE 343, JACKSONVILLE, FL, 32204","Match","Exact","100 MAGNOLIA ST, JACKSONVILLE, FL, 32204",83897035,"R"
2380,"100 MAIN ST N 333","SOUTHBURY","CT",6488,41.478206329,-73.2128322469999,380,"100 MAIN ST N 333, SOUTHBURY, CT, 6488","Match","Exact","100 MAIN ST N, SOUTHBURY, CT, 06488",3725658,"R"
2381,"100 MAIN ST PO BOX 44","CLAYTON","WI",54004,45.3322989910001,-92.170768333,381,"100 MAIN ST PO BOX 44, CLAYTON, WI, 54004","Match","Non_Exact","100 MAIN ST N, CLAYTON, WI, 54004",110843559,"R"
2382,"100 MAIN ST","FORT WORTH","TX",76102,32.7570985570001,-97.332867587,382,"100 MAIN ST, FORT WORTH, TX, 76102","Match","Exact","100 MAIN ST, FORT WORTH, TX, 76102",101884688,"R"
2383,"100 MAIN ST","STONINGTON","CT",6378,NA,NA,383,"100 MAIN ST, STONINGTON, CT, 6378","No_Match",NA,NA,NA,NA
2384,"100 MAIN ST","TROY","ID",83871,46.7368107790001,-116.769495978,384,"100 MAIN ST, TROY, ID, 83871","Match","Non_Exact","100 N MAIN ST, TROY, ID, 83871",193864135,"R"
2385,"100 MAIN STREET","BURLINGTON","VT",5401,44.4758388230001,-73.2154560019999,385,"100 MAIN STREET, BURLINGTON, VT, 5401","Match","Exact","100 MAIN ST, BURLINGTON, VT, 05401",135827968,"L"
2386,"100 MAIN STREET","HUNTINGTON","NY",11743,40.873277279,-73.421393886,386,"100 MAIN STREET, HUNTINGTON, NY, 11743","Match","Exact","100 MAIN ST, HUNTINGTON, NY, 11743",113962726,"R"
2387,"100 MAIN STREET","ST SIMONS ISLAND","GA",31522,31.164216998,-81.40070131,387,"100 MAIN STREET, ST SIMONS ISLAND, GA, 31522","Match","Exact","100 MAIN ST, ST SIMONS ISLAND, GA, 31522",9150326,"R"
2388,"100 MALLARD CT APT 3203","JACKSON","NJ",8527,NA,NA,388,"100 MALLARD CT APT 3203, JACKSON, NJ, 8527","No_Match",NA,NA,NA,NA
2389,"100 MANCHESTER DRIVE","WILLIAMSBURG","VA",23188,37.293253776,-76.798920328,389,"100 MANCHESTER DRIVE, WILLIAMSBURG, VA, 23188","Match","Non_Exact","100 MANCHESTER, WILLIAMSBURG, VA, 23188",103769780,"L"
2390,"100 MANNYPENNY AVENUE","BAYFIELD","WI",54814,46.8096976900001,-90.814724072,390,"100 MANNYPENNY AVENUE, BAYFIELD, WI, 54814","Match","Non_Exact","100 MANYPENNY AVE, BAYFIELD, WI, 54814",194281554,"L"
2391,"100 MANO DRIVE","KULA","HI",96790,20.788882738,-156.319005488,391,"100 MANO DRIVE, KULA, HI, 96790","Match","Exact","100 MANO DR, KULA, HI, 96790",85069119,"L"
2392,"100 MANSFIELD AVENUE","BURLINGTON","VT",5401,44.4832227750001,-73.199167948,392,"100 MANSFIELD AVENUE, BURLINGTON, VT, 5401","Match","Exact","100 MANSFIELD AVE, BURLINGTON, VT, 05401",637519356,"R"
2393,"100 MAPLE LANE","CLAYMONT","DE",19703,39.7932241500001,-75.4720609619999,393,"100 MAPLE LANE, CLAYMONT, DE, 19703","Match","Non_Exact","100 MAPLE RD, CLAYMONT, DE, 19703",187261210,"L"
2394,"100 MAPLE STREET","WYANDOTTE","MI",48192,42.2021161850001,-83.150136042,394,"100 MAPLE STREET, WYANDOTTE, MI, 48192","Match","Exact","100 MAPLE ST, WYANDOTTE, MI, 48192",95453306,"R"
2395,"100 MAPLEWOOD DRIVE","COLUMBIA","MO",65203,38.9516975430001,-92.361624804,395,"100 MAPLEWOOD DRIVE, COLUMBIA, MO, 65203","Match","Exact","100 MAPLEWOOD DR, COLUMBIA, MO, 65203",23480268,"L"
2396,"100 MARINER WAY","APTOS","CA",95003,NA,NA,396,"100 MARINER WAY, APTOS, CA, 95003","No_Match",NA,NA,NA,NA
2397,"100 MARIPOSA DR","CARY","NC",27513,35.7675884830001,-78.818497172,397,"100 MARIPOSA DR, CARY, NC, 27513","Match","Exact","100 MARIPOSA DR, CARY, NC, 27513",72558385,"R"
2398,"100 MARK LANE UNIT A3","WATERBURY","CT",6704,41.574880847,-73.0067468519999,398,"100 MARK LANE UNIT A3, WATERBURY, CT, 6704","Match","Exact","100 MARK LN, WATERBURY, CT, 06704",636504746,"L"
2399,"100 MARRON RD","FAYETTEVILLE","GA",30215,33.4155137160001,-84.4244191349999,399,"100 MARRON RD, FAYETTEVILLE, GA, 30215","Match","Exact","100 MARRON RD, FAYETTEVILLE, GA, 30215",75928647,"R"
2400,"100 MARTY LANE","LEXINGTON","SC",29073,33.915933411,-81.197957733,400,"100 MARTY LANE, LEXINGTON, SC, 29073","Match","Exact","100 MARTY LN, LEXINGTON, SC, 29073",70052562,"R"
2401,"100 MATHIS STREET","MERIGOLD","MS",38759,NA,NA,401,"100 MATHIS STREET, MERIGOLD, MS, 38759","No_Match",NA,NA,NA,NA
2402,"100 MCCONNELL DRIVE","LYONS","CO",80540,NA,NA,402,"100 MCCONNELL DRIVE, LYONS, CO, 80540","No_Match",NA,NA,NA,NA
2403,"100 MCDONALD STREET APT E23","LAFAYETTE","LA",70506,NA,NA,403,"100 MCDONALD STREET APT E23, LAFAYETTE, LA, 70506","No_Match",NA,NA,NA,NA
2404,"100 MCKAY WAY","WATERLOO","WI",53594,43.1761127390001,-88.990943982,404,"100 MCKAY WAY, WATERLOO, WI, 53594","Match","Exact","100 MCKAY WAY, WATERLOO, WI, 53594",625302453,"L"
2405,"100 MEADOWCREST PL","HOLLY SPRINGS","NC",27540,35.666054575,-78.7795150009999,405,"100 MEADOWCREST PL, HOLLY SPRINGS, NC, 27540","Match","Exact","100 MEADOWCREST PL, HOLLY SPRINGS, NC, 27540",612818279,"R"
2406,"100 MEETINGHOUSE CIRCLE","NEEDHAM","MA",2494,NA,NA,406,"100 MEETINGHOUSE CIRCLE, NEEDHAM, MA, 2494","No_Match",NA,NA,NA,NA
2407,"100 MELROSE AVE E  905","SEATTLE","WA",98102,47.6185792910001,-122.327844087,407,"100 MELROSE AVE E  905, SEATTLE, WA, 98102","Match","Exact","100 MELROSE AVE E, SEATTLE, WA, 98102",186709316,"R"
2408,"100 MENLO PARK PO BOX 2232","EDISON","NJ",8818,NA,NA,408,"100 MENLO PARK PO BOX 2232, EDISON, NJ, 8818","No_Match",NA,NA,NA,NA
2409,"100 MIAMI ROAD APT D3","PONTIAC","MI",48341,42.633783233,-83.318018979,409,"100 MIAMI ROAD APT D3, PONTIAC, MI, 48341","Match","Exact","100 MIAMI RD, PONTIAC, MI, 48341",69703624,"R"
2410,"100 MIDDLE STREET","PORTLAND","ME",4101,43.659265959,-70.251803762,410,"100 MIDDLE STREET, PORTLAND, ME, 4101","Match","Exact","100 MIDDLE ST, PORTLAND, ME, 04101",78028686,"L"
2411,"100 MIDDLE STREET","PORTLAND","ME",4104,NA,NA,411,"100 MIDDLE STREET, PORTLAND, ME, 4104","No_Match",NA,NA,NA,NA
2412,"100 MIDDLESEX AVENUE","SWAMPSCOTT","MA",1907,42.474301703,-70.918914995,412,"100 MIDDLESEX AVENUE, SWAMPSCOTT, MA, 1907","Match","Exact","100 MIDDLESEX AVE, SWAMPSCOTT, MA, 01907",86646492,"L"
2413,"100 MILL CIRCLE","WINCHENDON","MA",1475,42.696055464,-72.0125996259999,413,"100 MILL CIRCLE, WINCHENDON, MA, 1475","Match","Exact","100 MILL CIR, WINCHENDON, MA, 01475",40101555,"L"
2414,"100 MILL POND ROAD","CAYCE","SC",29033,33.9427391150001,-81.067370781,414,"100 MILL POND ROAD, CAYCE, SC, 29033","Match","Exact","100 MILL POND RD, CAYCE, SC, 29033",70057060,"R"
2415,"100 MIRACLE MILE  SUITE 300","CORAL GABLES","FL",33134,NA,NA,415,"100 MIRACLE MILE  SUITE 300, CORAL GABLES, FL, 33134","No_Match",NA,NA,NA,NA
2416,"100 MISSION TRAIL","WIMBERLEY","TX",78676,29.9511235860001,-98.06546172,416,"100 MISSION TRAIL, WIMBERLEY, TX, 78676","Match","Exact","100 MISSION TRL, WIMBERLEY, TX, 78676",63832684,"L"
2417,"100 MISSIONARY RIDGE DR","BIRMINGHAM","AL",35242,33.4191864480001,-86.6889706009999,417,"100 MISSIONARY RIDGE DR, BIRMINGHAM, AL, 35242","Match","Exact","100 MISSIONARY RIDGE DR, BIRMINGHAM, AL, 35242",221524255,"R"
2418,"100 MONA TERRACE","FAIRFIELD","CT",6824,NA,NA,418,"100 MONA TERRACE, FAIRFIELD, CT, 6824","No_Match",NA,NA,NA,NA
2419,"100 MONROE STREET","NEWARK","NJ",7105,40.729411628,-74.1596810349999,419,"100 MONROE STREET, NEWARK, NJ, 7105","Match","Exact","100 MONROE ST, NEWARK, NJ, 07105",63486446,"R"
2420,"100 MONTE CRESTA / SUITE 203","OAKLAND","CA",94611,37.8246289940001,-122.24991148,420,"100 MONTE CRESTA / SUITE 203, OAKLAND, CA, 94611","Match","Non_Exact","100 MONTE CRESTA AVE, OAKLAND, CA, 94611",125000602,"L"
2421,"100 MONTGOMARY AVE","MOBETIE","TX",79061,35.5086909730001,-100.441847957,421,"100 MONTGOMARY AVE, MOBETIE, TX, 79061","Match","Non_Exact","100 MONTGOMERY ST, MOBEETIE, TX, 79061",170117216,"L"
2422,"100 MONTGOMERY AVENUE","WEST PITTSTON","PA",18643,41.3269549450001,-75.798918837,422,"100 MONTGOMERY AVENUE, WEST PITTSTON, PA, 18643","Match","Exact","100 MONTGOMERY AVE, WEST PITTSTON, PA, 18643",80917674,"R"
2423,"100 MONTGOMERY STREET UNIT 3G","JERSEY CITY","NJ",7302,40.7169086310001,-74.0379695399999,423,"100 MONTGOMERY STREET UNIT 3G, JERSEY CITY, NJ, 7302","Match","Exact","100 MONTGOMERY ST, JERSEY CITY, NJ, 07302",59606329,"R"
2424,"100 MONTICELLO WAY","SOUTH RIVER","NJ",8882,40.4344831920001,-74.37123983,424,"100 MONTICELLO WAY, SOUTH RIVER, NJ, 8882","Match","Exact","100 MONTICELLO WAY, SOUTH RIVER, NJ, 08882",60317341,"L"
2425,"100 MOON LANE","BUTTE","MT",59701,45.9652753070001,-112.492335095,425,"100 MOON LANE, BUTTE, MT, 59701","Match","Exact","100 MOON LN, BUTTE, MT, 59701",153582054,"L"
2426,"100 MORRISSEY BLVD","BOSTON","MA",2125,NA,NA,426,"100 MORRISSEY BLVD, BOSTON, MA, 2125","No_Match",NA,NA,NA,NA
2427,"100 MOSSYROCK","HOT SPRINGS","AR",71913,34.4663305710001,-93.1345916129999,427,"100 MOSSYROCK, HOT SPRINGS, AR, 71913","Match","Non_Exact","100 MOSSYROCK ST, HOT SPRINGS, AR, 71913",22759634,"L"
2428,"100 MOUNT ROCK RD","NEWVILLE","PA",17241,40.168961627,-77.372630153,428,"100 MOUNT ROCK RD, NEWVILLE, PA, 17241","Match","Exact","100 MOUNT ROCK RD, NEWVILLE, PA, 17241",60931792,"L"
2429,"100 MOUNTAIN AVENUE","POMPTON PLAINS","NJ",7444,40.976162619,-74.309801455,429,"100 MOUNTAIN AVENUE, POMPTON PLAINS, NJ, 7444","Match","Exact","100 MOUNTAIN AVE, POMPTON PLAINS, NJ, 07444",60461280,"R"
2430,"100 MOUNTAIN VIEW DRIVE","MCCAMMON","ID",83250,42.638405635,-112.193965731,430,"100 MOUNTAIN VIEW DRIVE, MCCAMMON, ID, 83250","Match","Exact","100 MOUNTAIN VIEW DR, MCCAMMON, ID, 83250",204376613,"L"
2431,"100 MOUNTAIN VIEW DRIVE","RUIDOSO","NM",88345,NA,NA,431,"100 MOUNTAIN VIEW DRIVE, RUIDOSO, NM, 88345","Tie",NA,NA,NA,NA
2432,"100 MT CALVARY CHURCH ROAD","NEWNAN","GA",30263,NA,NA,432,"100 MT CALVARY CHURCH ROAD, NEWNAN, GA, 30263","No_Match",NA,NA,NA,NA
2433,"100 MUNICIPAL BOULEVARD","EDISON","NJ",8817,40.526249513,-74.3942875449999,433,"100 MUNICIPAL BOULEVARD, EDISON, NJ, 8817","Match","Exact","100 MUNICIPAL BLVD, EDISON, NJ, 08817",60313130,"R"
2434,"100 MUNICIPAL DR","TROPHY CLUB","TX",76262,32.997027157,-97.187871317,434,"100 MUNICIPAL DR, TROPHY CLUB, TX, 76262","Match","Exact","100 MUNICIPAL DR, TROPHY CLUB, TX, 76262",103375287,"L"
2435,"100 MUSTANG WAY","MERRITT ISLAND","FL",32953,28.376062974,-80.70003307,435,"100 MUSTANG WAY, MERRITT ISLAND, FL, 32953","Match","Exact","100 MUSTANG WAY, MERRITT ISLAND, FL, 32953",93893467,"L"
2436,"100 N 10TH ST","WATSEKA","IL",60970,40.776420231,-87.7218452669999,436,"100 N 10TH ST, WATSEKA, IL, 60970","Match","Exact","100 N 10TH ST, WATSEKA, IL, 60970",90754593,"R"
2437,"100 N 12TH ST","CORSICANA","TX",75110,32.0925585620001,-96.465940706,437,"100 N 12TH ST, CORSICANA, TX, 75110","Match","Exact","100 N 12TH ST, CORSICANA, TX, 75110",183883474,"L"
2438,"100 N 21ST ST","COLUMBUS","OH",43203,39.967724579,-82.972467546,438,"100 N 21ST ST, COLUMBUS, OH, 43203","Match","Exact","100 N 21ST ST, COLUMBUS, OH, 43203",218649375,"R"
2439,"100 N 22ND ST","PHILADELPHIA","PA",19103,39.956107651,-75.176223496,439,"100 N 22ND ST, PHILADELPHIA, PA, 19103","Match","Exact","100 N 22ND ST, PHILADELPHIA, PA, 19103",131406620,"L"
2440,"100 N 27TH STREET SUITE 230","BILLINGS","MT",59101,45.7827732760001,-108.504506833,440,"100 N 27TH STREET SUITE 230, BILLINGS, MT, 59101","Match","Non_Exact","100 N 27TH ST, BILLINGS, MT, 59101",181477743,"L"
2441,"100 N 2ND ST","DUPO","IL",62239,38.5191061890001,-90.20962524,441,"100 N 2ND ST, DUPO, IL, 62239","Match","Exact","100 N 2ND ST, DUPO, IL, 62239",107832125,"R"
2442,"100 N 5TH ST","SANGER","TX",76266,33.360669457,-97.1736932329999,442,"100 N 5TH ST, SANGER, TX, 76266","Match","Exact","100 N 5TH ST, SANGER, TX, 76266",103337462,"L"
2443,"100 N 6TH","HANNIBAL","MO",63401,39.707831324,-91.3603736439999,443,"100 N 6TH, HANNIBAL, MO, 63401","Match","Non_Exact","100 N 6TH ST, HANNIBAL, MO, 63401",35335984,"R"
2444,"100 N ADDISON AVE  UNIT 526","ELMHURST","IL",60126,41.900136886,-87.941657327,444,"100 N ADDISON AVE  UNIT 526, ELMHURST, IL, 60126","Match","Non_Exact","100 N ADDISON AVE, ELMHURST, IL, 60126",112545043,"L"
2445,"100 N ARLINGTON AVE APT 9D","RENO","NV",89501,NA,NA,445,"100 N ARLINGTON AVE APT 9D, RENO, NV, 89501","Tie",NA,NA,NA,NA
2446,"100 N ARLINGTON AVENUE","RENO","NV",89501,39.5250333070001,-119.816814326,446,"100 N ARLINGTON AVENUE, RENO, NV, 89501","Match","Exact","100 N ARLINGTON AVE, RENO, NV, 89501",107045036,"R"
2447,"100 N AVE G","CLIFTON","TX",76634,31.782436166,-97.5770026329999,447,"100 N AVE G, CLIFTON, TX, 76634","Match","Exact","100 N AVE G, CLIFTON, TX, 76634",158583458,"L"
2448,"100 N BARRANCA AVE 7TH FLOOR","WEST COVINA","CA",91791,NA,NA,448,"100 N BARRANCA AVE 7TH FLOOR, WEST COVINA, CA, 91791","No_Match",NA,NA,NA,NA
2449,"100 N BARRANCA AVENUE 7TH FLOOR","WEST COVINA","CA",91791,NA,NA,449,"100 N BARRANCA AVENUE 7TH FLOOR, WEST COVINA, CA, 91791","No_Match",NA,NA,NA,NA
2450,"100 N BISCAYNE BLVD  SUITE 2001","MIAMI","FL",33132,NA,NA,450,"100 N BISCAYNE BLVD  SUITE 2001, MIAMI, FL, 33132","No_Match",NA,NA,NA,NA
2451,"100 N BISCAYNE BOULEVARD - STE 1607","MIAMI","FL",33132,25.7763087610001,-80.187976135,451,"100 N BISCAYNE BOULEVARD - STE 1607, MIAMI, FL, 33132","Match","Exact","100 BISCAYNE BLVD, MIAMI, FL, 33132",116304291,"L"
2452,"100 N BRAND BLVD SUITE 306","GLENDALE","CA",91203,NA,NA,452,"100 N BRAND BLVD SUITE 306, GLENDALE, CA, 91203","No_Match",NA,NA,NA,NA
2453,"100 N BRAND BOULEVARD SUITE 604","GLENDALE","CA",91203,NA,NA,453,"100 N BRAND BOULEVARD SUITE 604, GLENDALE, CA, 91203","No_Match",NA,NA,NA,NA
2454,"100 N BROADVIEW CT","COLUMBIA","MO",65201,38.9493536690001,-92.223860792,454,"100 N BROADVIEW CT, COLUMBIA, MO, 65201","Match","Non_Exact","100 BROADVIEW, COLUMBIA, MO, 65201",23483408,"R"
2455,"100 N BROADWAY SUITE 1700","OKLAHOMA CITY","OK",73102,NA,NA,455,"100 N BROADWAY SUITE 1700, OKLAHOMA CITY, OK, 73102","No_Match",NA,NA,NA,NA
2456,"100 N BROADWAY","ROFF","OK",74865,34.6284915370001,-96.840825658,456,"100 N BROADWAY, ROFF, OK, 74865","Match","Exact","100 N BROADWAY, ROFF, OK, 74865",58492761,"L"
2457,"100 N C EXPRESSWAY SUITE 615","RICHARDSON","TX",75080,NA,NA,457,"100 N C EXPRESSWAY SUITE 615, RICHARDSON, TX, 75080","No_Match",NA,NA,NA,NA
2458,"100 N CENTRAL EXPRESSWAY  1201","RICHARDSON","TX",75080,NA,NA,458,"100 N CENTRAL EXPRESSWAY  1201, RICHARDSON, TX, 75080","Tie",NA,NA,NA,NA
2459,"100 N CENTRAL EXPRESSWAY STE 416","RICHARDSON","TX",75080,NA,NA,459,"100 N CENTRAL EXPRESSWAY STE 416, RICHARDSON, TX, 75080","Tie",NA,NA,NA,NA
2460,"100 N CENTRAL EXPRESSWAY SUITE 706","RICHARDSON","TX",75080,NA,NA,460,"100 N CENTRAL EXPRESSWAY SUITE 706, RICHARDSON, TX, 75080","Tie",NA,NA,NA,NA
2461,"100 N CENTRAL EXPY STE 1025","RICHARDSON","TX",75080,NA,NA,461,"100 N CENTRAL EXPY STE 1025, RICHARDSON, TX, 75080","Tie",NA,NA,NA,NA
2462,"100 N CENTRAL EXPY STE 160","RICHARDSON","TX",75080,NA,NA,462,"100 N CENTRAL EXPY STE 160, RICHARDSON, TX, 75080","Tie",NA,NA,NA,NA
2463,"100 N CITRUS STREET SUITE 632","WEST COVINA","CA",91791,34.0717194380001,-117.890078259,463,"100 N CITRUS STREET SUITE 632, WEST COVINA, CA, 91791","Match","Non_Exact","100 S CITRUS ST, WEST COVINA, CA, 91791",142782389,"L"
2464,"100 N CORONADO BLVD","CLIFTON","AZ",85533,33.053274609,-109.295459713,464,"100 N CORONADO BLVD, CLIFTON, AZ, 85533","Match","Exact","100 CORONADO BLVD, CLIFTON, AZ, 85533",137392468,"R"
2465,"100 N DUPONT RD","WILMINGTON","DE",19807,39.753494604,-75.588290184,465,"100 N DUPONT RD, WILMINGTON, DE, 19807","Match","Exact","100 N DUPONT RD, WILMINGTON, DE, 19807",614585270,"R"
2466,"100 N DUPONT ROAD","WILMINGTON","DE",19807,39.753494604,-75.588290184,466,"100 N DUPONT ROAD, WILMINGTON, DE, 19807","Match","Exact","100 N DUPONT RD, WILMINGTON, DE, 19807",614585270,"R"
2467,"100 N FIRST STREET","WYLIE","TX",75098,33.0151251230001,-96.5382338159999,467,"100 N FIRST STREET, WYLIE, TX, 75098","Match","Exact","100 N FIRST ST, WYLIE, TX, 75098",642952696,"L"
2468,"100 N FRONT ST","LA RUE","OH",43332,40.5777394340001,-83.3857302709999,468,"100 N FRONT ST, LA RUE, OH, 43332","Match","Exact","100 N FRONT ST, LA RUE, OH, 43332",12706626,"R"
2469,"100 N GLENVIEW DRIVE NUMBER 202","CARBONDALE","IL",62901,NA,NA,469,"100 N GLENVIEW DRIVE NUMBER 202, CARBONDALE, IL, 62901","Tie",NA,NA,NA,NA
2470,"100 N HARRIS","SALINE","MI",48176,42.1687689870001,-83.779483818,470,"100 N HARRIS, SALINE, MI, 48176","Match","Non_Exact","100 N HARRIS ST, SALINE, MI, 48176",26018934,"R"
2471,"100 N HERMITAGE AVE UNIT 915","CHICAGO","IL",60612,41.8833189310001,-87.67058696,471,"100 N HERMITAGE AVE UNIT 915, CHICAGO, IL, 60612","Match","Non_Exact","100 N HERMITAGE AVE, CHICAGO, IL, 60612",618343521,"L"
2472,"100 N HOUUSTON RD","WARNER ROBINS","GA",31093,32.61832107,-83.6415469629999,472,"100 N HOUUSTON RD, WARNER ROBINS, GA, 31093","Match","Non_Exact","100 N HOUSTON RD, WARNER ROBINS, GA, 31093",91218494,"R"
2473,"100 N HOWARD ST - STE R","SPOKANE","WA",99201,NA,NA,473,"100 N HOWARD ST - STE R, SPOKANE, WA, 99201","Tie",NA,NA,NA,NA
2474,"100 N HOWARD ST STE R","SPOKANE","WA",99201,NA,NA,474,"100 N HOWARD ST STE R, SPOKANE, WA, 99201","Tie",NA,NA,NA,NA
2475,"100 N HOWARD ST STE W","SPOKANE","WA",99201,NA,NA,475,"100 N HOWARD ST STE W, SPOKANE, WA, 99201","Tie",NA,NA,NA,NA
2476,"100 N KANSAS","OLATHE","KS",66061,38.8821537580001,-94.820656175,476,"100 N KANSAS, OLATHE, KS, 66061","Match","Non_Exact","100 N KANSAS AVE, OLATHE, KS, 66061",91283144,"R"
2477,"100 N LAFAYETTE ST STE 2","STARKVILLE","MS",39759,NA,NA,477,"100 N LAFAYETTE ST STE 2, STARKVILLE, MS, 39759","Tie",NA,NA,NA,NA
2478,"100 N LAKEVIEW CANYON RD","WESTLAKE VILLAGE","CA",91362,NA,NA,478,"100 N LAKEVIEW CANYON RD, WESTLAKE VILLAGE, CA, 91362","No_Match",NA,NA,NA,NA
2479,"100 N LAKEVIEW CANYON ROAD","WESTLAKE VILLAGE","CA",91362,NA,NA,479,"100 N LAKEVIEW CANYON ROAD, WESTLAKE VILLAGE, CA, 91362","No_Match",NA,NA,NA,NA
2480,"100 N MAIN ST STE 1003","WICHITA","KS",67202,NA,NA,480,"100 N MAIN ST STE 1003, WICHITA, KS, 67202","Tie",NA,NA,NA,NA
2481,"100 N MAIN ST","MARLBORO","NJ",7746,40.33186855,-74.2454889099999,481,"100 N MAIN ST, MARLBORO, NJ, 7746","Match","Exact","100 MAIN ST, MARLBORO, NJ, 07746",90559463,"R"
2482,"100 N MAIN STREET P O BOX 91","FARMLAND","IN",47340,NA,NA,482,"100 N MAIN STREET P O BOX 91, FARMLAND, IN, 47340","Tie",NA,NA,NA,NA
2483,"100 N MAIN STREET","CHAGRIN FALLS","OH",44022,41.4320633130001,-81.3924407219999,483,"100 N MAIN STREET, CHAGRIN FALLS, OH, 44022","Match","Exact","100 N MAIN ST, CHAGRIN FALLS, OH, 44022",61137110,"R"
2484,"100 N MAIN STREET","MULLINS","SC",29574,34.205728736,-79.254549684,484,"100 N MAIN STREET, MULLINS, SC, 29574","Match","Exact","100 N MAIN ST, MULLINS, SC, 29574",28774989,"R"
2485,"100 N MAIN","JOSEPH","OR",97846,45.3524831610001,-117.229856735,485,"100 N MAIN, JOSEPH, OR, 97846","Match","Non_Exact","100 N MAIN ST, JOSEPH, OR, 97846",139010689,"R"
2486,"100 N MCARTHUR AVENUE","DILLON","SC",29536,34.417187325,-79.372075132,486,"100 N MCARTHUR AVENUE, DILLON, SC, 29536","Match","Non_Exact","100 N MACARTHUR AVE, DILLON, SC, 29536",28819521,"R"
2487,"100 N MORAIN STREET STE 312","KENNEWICK","WA",99336,46.2081898970001,-119.169470509,487,"100 N MORAIN STREET STE 312, KENNEWICK, WA, 99336","Match","Non_Exact","100 S MORAIN ST, KENNEWICK, WA, 99336",175001399,"R"
2488,"100 N MORAIN STREET SUITE 312","KENNEWICK","WA",99336,46.2081898970001,-119.169470509,488,"100 N MORAIN STREET SUITE 312, KENNEWICK, WA, 99336","Match","Non_Exact","100 S MORAIN ST, KENNEWICK, WA, 99336",175001399,"R"
2489,"100 N OCHOA SUITE B","EL PASO","TX",79901,NA,NA,489,"100 N OCHOA SUITE B, EL PASO, TX, 79901","No_Match",NA,NA,NA,NA
2490,"100 N PATTERSON ST SUITE S","VALDOSTA","GA",31601,NA,NA,490,"100 N PATTERSON ST SUITE S, VALDOSTA, GA, 31601","Tie",NA,NA,NA,NA
2491,"100 N PATTERSON ST","VALDOSTA","GA",31601,30.830863193,-83.278880913,491,"100 N PATTERSON ST, VALDOSTA, GA, 31601","Match","Exact","100 N PATTERSON ST, VALDOSTA, GA, 31601",636359649,"L"
2492,"100 N PERRY PARKWAY","OREGON","WI",53575,42.9291959380001,-89.373607072,492,"100 N PERRY PARKWAY, OREGON, WI, 53575","Match","Exact","100 N PERRY PKWY, OREGON, WI, 53575",49477742,"R"
2493,"100 N PERRY PKWY","OREGON","WI",53575,42.9291959380001,-89.373607072,493,"100 N PERRY PKWY, OREGON, WI, 53575","Match","Exact","100 N PERRY PKWY, OREGON, WI, 53575",49477742,"R"
2494,"100 N RAILROAD AVE","ASHLAND","VA",23005,37.7589897400001,-77.4813623429999,494,"100 N RAILROAD AVE, ASHLAND, VA, 23005","Match","Exact","100 N RAILROAD AVE, ASHLAND, VA, 23005",84957162,"L"
2495,"100 N RAILROAD AVENUE","ASHLAND","VA",23005,37.7589897400001,-77.4813623429999,495,"100 N RAILROAD AVENUE, ASHLAND, VA, 23005","Match","Exact","100 N RAILROAD AVE, ASHLAND, VA, 23005",84957162,"L"
2496,"100 N RIVERSIDE PLAZA SUITE 1670","CHICAGO","IL",60606,NA,NA,496,"100 N RIVERSIDE PLAZA SUITE 1670, CHICAGO, IL, 60606","No_Match",NA,NA,NA,NA
2497,"100 N SECOND STREET","SILVERTON","OR",97381,45.005986675,-122.781003798,497,"100 N SECOND STREET, SILVERTON, OR, 97381","Match","Exact","100 N 2ND ST, SILVERTON, OR, 97381",156243341,"R"
2498,"100 N SOUTHPORT","MUNDELEIN","IL",60060,42.2641428970001,-88.024335949,498,"100 N SOUTHPORT, MUNDELEIN, IL, 60060","Match","Non_Exact","100 SOUTHPORT RD, MUNDELEIN, IL, 60060",629668275,"R"
2499,"100 N SPRING STREET","SEARCY","AR",72143,35.248779277,-91.7375460229999,499,"100 N SPRING STREET, SEARCY, AR, 72143","Match","Exact","100 N SPRING ST, SEARCY, AR, 72143",82947691,"R"
2500,"100 N STATE LINE AVENUE  RM 16","TEXARKANA","TX",75501,NA,NA,500,"100 N STATE LINE AVENUE  RM 16, TEXARKANA, TX, 75501","No_Match",NA,NA,NA,NA
