"ID","Address","City","State","Zip","lat","long","id","input_address","match_indicator","match_type","matched_address","tiger_line_id","tiger_side"
12501,"105 4TH ST E","HALSTAD","MN",56548,47.3507278690001,-96.824843014,1,"105 4TH ST E, HALSTAD, MN, 56548","Match","Exact","105 4TH ST E, HALSTAD, MN, 56548",168250767,"R"
12502,"105 5TH STREET","LESTER","IA",51242,NA,NA,2,"105 5TH STREET, LESTER, IA, 51242","No_Match",NA,NA,NA,NA
12503,"105 61ST ST E","PALMETTO","FL",34221,27.567360755,-82.564474546,3,"105 61ST ST E, PALMETTO, FL, 34221","Match","Exact","105 61ST ST E, PALMETTO, FL, 34221",16269067,"R"
12504,"105 7TH ST SW","PUYALLUP","WA",98371,47.191632027,-122.302690814,4,"105 7TH ST SW, PUYALLUP, WA, 98371","Match","Exact","105 7TH ST SW, PUYALLUP, WA, 98371",184705287,"L"
12505,"105 ADAMS AVENUE","ALEXANDRIA","VA",22301,38.816257211,-77.060830346,5,"105 ADAMS AVENUE, ALEXANDRIA, VA, 22301","Match","Exact","105 ADAMS AVE, ALEXANDRIA, VA, 22301",75988031,"R"
12506,"105 ADERHOLD HALL","ATHENS","GA",30605,NA,NA,6,"105 ADERHOLD HALL, ATHENS, GA, 30605","No_Match",NA,NA,NA,NA
12507,"105 ALDERWOOD COURT","LEXINGTON","SC",29072,34.008993511,-81.22036159,7,"105 ALDERWOOD COURT, LEXINGTON, SC, 29072","Match","Exact","105 ALDERWOOD CT, LEXINGTON, SC, 29072",70072292,"L"
12508,"105 ALEXANDER CT","MANKATO","MN",56001,44.1314400850001,-93.9930055579999,8,"105 ALEXANDER CT, MANKATO, MN, 56001","Match","Exact","105 ALEXANDER CT, MANKATO, MN, 56001",28116123,"R"
12509,"105 ALMOND DR","WINTERS","CA",95694,38.5301705270001,-121.967071501,9,"105 ALMOND DR, WINTERS, CA, 95694","Match","Exact","105 ALMOND DR, WINTERS, CA, 95694",67705878,"L"
12510,"105 ANDREA ROAD","CHELTENHAM","PA",19012,40.056397352,-75.110474788,10,"105 ANDREA ROAD, CHELTENHAM, PA, 19012","Match","Exact","105 ANDREA RD, CHELTENHAM, PA, 19012",135106442,"R"
12511,"105 ANNIES CIRCLE","SHELBY","NC",28152,35.2628972630001,-81.6493101,11,"105 ANNIES CIRCLE, SHELBY, NC, 28152","Match","Exact","105 ANNIES CIR, SHELBY, NC, 28152",19334011,"L"
12512,"105 APPLE TREE LANE","UNION","NJ",7083,40.7019574490001,-74.2524742049999,12,"105 APPLE TREE LANE, UNION, NJ, 7083","Match","Exact","105 APPLE TREE LN, UNION, NJ, 07083",60581571,"R"
12513,"105 ARNORHILL LANE","HOLLY SPRINGS","NC",27540,NA,NA,13,"105 ARNORHILL LANE, HOLLY SPRINGS, NC, 27540","No_Match",NA,NA,NA,NA
12514,"105 ASCOT LANE","MADISON","AL",35756,34.6948133010001,-86.793473347,14,"105 ASCOT LANE, MADISON, AL, 35756","Match","Exact","105 ASCOT LN, MADISON, AL, 35756",641542905,"R"
12515,"105 ASH STREET","LIVINGSTON","AL",35470,32.629643188,-88.1796760029999,15,"105 ASH STREET, LIVINGSTON, AL, 35470","Match","Exact","105 ASH ST, LIVINGSTON, AL, 35470",666426,"R"
12516,"105 ASHLAND CT","MCDONALD","PA",15057,40.3502142410001,-80.240130865,16,"105 ASHLAND CT, MCDONALD, PA, 15057","Match","Non_Exact","105 ASHLAND CT, MC DONALD, PA, 15057",624957199,"L"
12517,"105 ASHLAND DRIVE","ASHLAND CITY","TN",37035,36.2950494730001,-87.0467362059999,17,"105 ASHLAND DRIVE, ASHLAND CITY, TN, 37035","Match","Non_Exact","105 ASHLAND DR, ASHLAND CITY, TN, 37015",72883023,"L"
12518,"105 ASHLAND PLACE - APT 12A","BROOKLYN","NY",11201,40.692373579,-73.979001854,18,"105 ASHLAND PLACE - APT 12A, BROOKLYN, NY, 11201","Match","Exact","105 ASHLAND PL, BROOKLYN, NY, 11201",650072157,"L"
12519,"105 ASHLEY CREST DR","COLUMBIA","SC",29229,34.160093171,-80.927660798,19,"105 ASHLEY CREST DR, COLUMBIA, SC, 29229","Match","Exact","105 ASHLEY CREST DR, COLUMBIA, SC, 29229",604789022,"L"
12520,"105 AVENUE X SUITE 3H","BROOKLYN","NY",11223,40.589501494,-73.97988707,20,"105 AVENUE X SUITE 3H, BROOKLYN, NY, 11223","Match","Exact","105 AVE X, BROOKLYN, NY, 11223",59098457,"L"
12521,"105 AVONBROOK ROAD","WALLINGFORD","PA",19086,39.904628874,-75.3668457219999,21,"105 AVONBROOK ROAD, WALLINGFORD, PA, 19086","Match","Non_Exact","105 AVONBROOK LN, WALLINGFORD, PA, 19086",134871185,"L"
12522,"105 BARITONE","IRVINE","CA",92620,33.7066282480001,-117.748109569,22,"105 BARITONE, IRVINE, CA, 92620","Match","Exact","105 BARITONE, IRVINE, CA, 92620",651099083,"R"
12523,"105 BARKLEY PLACE","MONROE","LA",71203,32.56862676,-92.0586477639999,23,"105 BARKLEY PLACE, MONROE, LA, 71203","Match","Non_Exact","105 BARKLEY DR, MONROE, LA, 71203",161082384,"R"
12524,"105 BEAR VALLEY ROAD","FT. LOUDON","PA",17224,39.9119389470001,-77.895745058,24,"105 BEAR VALLEY ROAD, FT. LOUDON, PA, 17224","Match","Exact","105 BEAR VALLEY RD, FORT LOUDON, PA, 17224",605501983,"L"
12525,"105 BEHLMANN MEADOWS WAY","FLORISSANT","MO",63034,38.8182114140001,-90.2661525089999,25,"105 BEHLMANN MEADOWS WAY, FLORISSANT, MO, 63034","Match","Exact","105 BEHLMANN MEADOWS WAY, FLORISSANT, MO, 63034",645120433,"L"
12526,"105 BELLEZZA TERACE","ROYAL PALM BEACH WES","FL",33411,NA,NA,26,"105 BELLEZZA TERACE, ROYAL PALM BEACH WES, FL, 33411","No_Match",NA,NA,NA,NA
12527,"105 BETH HOPE LN","COLUMBIA","SC",29210,34.037277364,-81.1354329879999,27,"105 BETH HOPE LN, COLUMBIA, SC, 29210","Match","Exact","105 BETH HOPE LN, COLUMBIA, SC, 29210",624967703,"R"
12528,"105 BETHLEHEM CT","HAGERSTOWN","MD",21742,39.6104044520001,-77.70113594,28,"105 BETHLEHEM CT, HAGERSTOWN, MD, 21742","Match","Non_Exact","105 BETHLEHEM CT, HAGERSTOWN, MD, 21740",60806069,"R"
12529,"105 BIRCH ST","HIRAM","GA",30141,33.875817259,-84.774757313,29,"105 BIRCH ST, HIRAM, GA, 30141","Match","Exact","105 BIRCH ST, HIRAM, GA, 30141",618970194,"L"
12530,"105 BLACK OAK COURT","BYRON","GA",31008,32.637892885,-83.751214009,30,"105 BLACK OAK COURT, BYRON, GA, 31008","Match","Non_Exact","105 BLACK OAK, BYRON, GA, 31008",93722817,"R"
12531,"105 BLACK WALNUT DRIVE","ETTERS","PA",17319,40.160876402,-76.7896733169999,31,"105 BLACK WALNUT DRIVE, ETTERS, PA, 17319","Match","Exact","105 BLACK WALNUT DR, ETTERS, PA, 17319",88738347,"L"
12532,"105 BLOCKHOUSE CREEK CT","ALBANY","NY",12203,42.689831509,-73.884975771,32,"105 BLOCKHOUSE CREEK CT, ALBANY, NY, 12203","Match","Exact","105 BLOCKHOUSE CREEK CT, ALBANY, NY, 12203",18362307,"L"
12533,"105 BONHAM CIRCLE","COUNCIL BLUFFS","IA",51503,41.259484376,-95.825214933,33,"105 BONHAM CIRCLE, COUNCIL BLUFFS, IA, 51503","Match","Exact","105 BONHAM CIR, COUNCIL BLUFFS, IA, 51503",43912902,"R"
12534,"105 BORINQUEN AVENUE RAMEY BASE","AGUADILLA","PR",693,NA,NA,34,"105 BORINQUEN AVENUE RAMEY BASE, AGUADILLA, PR, 693","No_Match",NA,NA,NA,NA
12535,"105 BRAMBLEBUSH ROAD","MANCHESTER","CT",6040,41.7524866640001,-72.5644998889999,35,"105 BRAMBLEBUSH ROAD, MANCHESTER, CT, 6040","Match","Exact","105 BRAMBLEBUSH RD, MANCHESTER, CT, 06040",3525117,"L"
12536,"105 BRANCH VIEW DR","KYLE","TX",78640,30.029628272,-97.832034407,36,"105 BRANCH VIEW DR, KYLE, TX, 78640","Match","Exact","105 BRANCH VIEW DR, KYLE, TX, 78640",63824547,"L"
12537,"105 BRANDI LANE","WENATCHEE","WA",98801,47.4213921360001,-120.342249033,37,"105 BRANDI LANE, WENATCHEE, WA, 98801","Match","Exact","105 BRANDI LN, WENATCHEE, WA, 98801",156994148,"L"
12538,"105 BRENTWOOD DR","TEHACHAPI","CA",93561,35.122118266,-118.449231978,38,"105 BRENTWOOD DR, TEHACHAPI, CA, 93561","Match","Exact","105 BRENTWOOD DR, TEHACHAPI, CA, 93561",108991569,"R"
12539,"105 BRENWICK CT","STAFFORD","VA",22554,38.488490825,-77.387269056,39,"105 BRENWICK CT, STAFFORD, VA, 22554","Match","Non_Exact","105 BRENWICK DR, STAFFORD, VA, 22554",25581376,"L"
12540,"105 BRETT ROAD","ROCHESTER","NY",14609,43.1672354780001,-77.5502750859999,40,"105 BRETT ROAD, ROCHESTER, NY, 14609","Match","Exact","105 BRETT RD, ROCHESTER, NY, 14609",14542341,"R"
12541,"105 BRIDGEPORT COVE DR","HAMPTON","VA",23663,37.053574967,-76.3092573449999,41,"105 BRIDGEPORT COVE DR, HAMPTON, VA, 23663","Match","Exact","105 BRIDGEPORT COVE DR, HAMPTON, VA, 23663",103808823,"L"
12542,"105 BRIDGEWATER LN","OAK RIDGE","TN",37830,36.0249835400001,-84.204257734,42,"105 BRIDGEWATER LN, OAK RIDGE, TN, 37830","Match","Exact","105 BRIDGEWATER LN, OAK RIDGE, TN, 37830",90132615,"L"
12543,"105 BRIGHTON POINT","ATLANTA","GA",30328,33.9577337760001,-84.36630547,43,"105 BRIGHTON POINT, ATLANTA, GA, 30328","Match","Exact","105 BRIGHTON PT, ATLANTA, GA, 30328",17426753,"R"
12544,"105 BROAD AVE","STANTON","IA",51573,40.974089001,-95.103976269,44,"105 BROAD AVE, STANTON, IA, 51573","Match","Exact","105 BROAD AVE, STANTON, IA, 51573",624678627,"L"
12545,"105 BROAD STREET SW","ATLANTA","GA",30303,33.7521549860001,-84.393052568,45,"105 BROAD STREET SW, ATLANTA, GA, 30303","Match","Exact","105 BROAD ST SW, ATLANTA, GA, 30303",17344300,"R"
12546,"105 BROWNSVILLE ROAD STE 3","POWDER SPRINGS","GA",30127,33.7998753090001,-84.7573163499999,46,"105 BROWNSVILLE ROAD STE 3, POWDER SPRINGS, GA, 30127","Match","Exact","105 BROWNSVILLE RD, POWDER SPGS, GA, 30127",207992169,"L"
12547,"105 BRUNSWICK PLACE","LAFAYETTE","LA",70506,30.191834671,-92.085586905,47,"105 BRUNSWICK PLACE, LAFAYETTE, LA, 70506","Match","Exact","105 BRUNSWICK PL, LAFAYETTE, LA, 70506",85612150,"R"
12548,"105 BUCHANAN STREET","LAUREL","MS",39440,31.7219180210001,-89.128294089,48,"105 BUCHANAN STREET, LAUREL, MS, 39440","Match","Exact","105 BUCHANAN ST, LAUREL, MS, 39440",411760,"L"
12549,"105 BUENA VISTA RD","FAIRFIELD","CT",6825,41.200721108,-73.230883525,49,"105 BUENA VISTA RD, FAIRFIELD, CT, 6825","Match","Exact","105 BUENA VISTA RD, FAIRFIELD, CT, 06825",3220889,"L"
12550,"105 BURCH DR","GREER","SC",29651,34.9503182830001,-82.246318829,50,"105 BURCH DR, GREER, SC, 29651","Match","Non_Exact","105 BURCH ST, GREER, SC, 29651",638479955,"L"
12551,"105 BUSBEE VIEW RD","ASHEVILE","NC",28803,35.542131587,-82.517256205,51,"105 BUSBEE VIEW RD, ASHEVILE, NC, 28803","Match","Non_Exact","105 BUSBEE VIEW RD, ASHEVILLE, NC, 28803",36903845,"R"
12552,"105 CALABRIA AVE","CORAL GABLES","FL",33134,25.7629660370001,-80.25738603,52,"105 CALABRIA AVE, CORAL GABLES, FL, 33134","Match","Exact","105 CALABRIA AVE, CORAL GABLES, FL, 33134",116010733,"R"
12553,"105 CALUMET DRIVE","YANKTON","SD",57078,42.8732786630001,-97.511640687,53,"105 CALUMET DRIVE, YANKTON, SD, 57078","Match","Exact","105 CALUMET DR, YANKTON, SD, 57078",172847317,"R"
12554,"105 CAMBRIDGE DRIVE","NEWINGTON","CT",6111,41.661589786,-72.715027118,54,"105 CAMBRIDGE DRIVE, NEWINGTON, CT, 6111","Match","Exact","105 CAMBRIDGE DR, NEWINGTON, CT, 06111",3515543,"R"
12555,"105 CANDY ST","BAKERSFIELD","CA",93309,35.3556927020001,-119.050845561,55,"105 CANDY ST, BAKERSFIELD, CA, 93309","Match","Exact","105 CANDY ST, BAKERSFIELD, CA, 93309",109085670,"L"
12556,"105 CANTERBURY LANE SUITE 531","BOLINGBROOK","IL",60440,41.694317916,-88.079733215,56,"105 CANTERBURY LANE SUITE 531, BOLINGBROOK, IL, 60440","Match","Exact","105 CANTERBURY LN, BOLINGBROOK, IL, 60440",111595149,"L"
12557,"105 CANTERBURY LANE UNIT 1223","BOLINGBROOK","IL",60440,41.694317916,-88.079733215,57,"105 CANTERBURY LANE UNIT 1223, BOLINGBROOK, IL, 60440","Match","Exact","105 CANTERBURY LN, BOLINGBROOK, IL, 60440",111595149,"L"
12558,"105 CANTERBURY LN SUITE 531","BOLINGBROOK","IL",60440,41.694317916,-88.079733215,58,"105 CANTERBURY LN SUITE 531, BOLINGBROOK, IL, 60440","Match","Exact","105 CANTERBURY LN, BOLINGBROOK, IL, 60440",111595149,"L"
12559,"105 CANYON DRIVE","CANYON LAKE","TX",78133,29.877692134,-98.195633384,59,"105 CANYON DRIVE, CANYON LAKE, TX, 78133","Match","Non_Exact","105 CANYON CREEK, CANYON LAKE, TX, 78133",72238542,"L"
12560,"105 CAROLINA CHERRY CT","POOLER","GA",31322,32.149442579,-81.2602266499999,60,"105 CAROLINA CHERRY CT, POOLER, GA, 31322","Match","Exact","105 CAROLINA CHERRY CT, POOLER, GA, 31322",627347202,"R"
12561,"105 CARR 21 STE 214","SAN JUAN","PR",927,NA,NA,61,"105 CARR 21 STE 214, SAN JUAN, PR, 927","No_Match",NA,NA,NA,NA
12562,"105 CARVER CT","WARNER ROBINS","GA",31088,32.559370297,-83.6650414,62,"105 CARVER CT, WARNER ROBINS, GA, 31088","Match","Exact","105 CARVER CT, WARNER ROBINS, GA, 31088",91259398,"R"
12563,"105 CASEY ROAD PO BOX 5000","EAST AMHERST","NY",14051,43.0247281580001,-78.732796277,63,"105 CASEY ROAD PO BOX 5000, EAST AMHERST, NY, 14051","Match","Exact","105 CASEY RD, EAST AMHERST, NY, 14051",48318251,"R"
12564,"105 CASTLE MANOR COURT","GARNER","NC",27529,35.689339961,-78.6235849299999,64,"105 CASTLE MANOR COURT, GARNER, NC, 27529","Match","Exact","105 CASTLE MANOR CT, GARNER, NC, 27529",72534962,"L"
12565,"105 CATTAIL CT","FAYETTEVILLE","GA",30215,33.4426145470001,-84.517333841,65,"105 CATTAIL CT, FAYETTEVILLE, GA, 30215","Match","Exact","105 CATTAIL CT, FAYETTEVILLE, GA, 30215",637663118,"R"
12566,"105 CAUTERSKILL AVE","CATSKILL","NY",12414,42.216288913,-73.885198104,66,"105 CAUTERSKILL AVE, CATSKILL, NY, 12414","Match","Exact","105 CAUTERSKILL AVE, CATSKILL, NY, 12414",35694433,"L"
12567,"105 CENTRAL AVE 100-A","GOOSE CREEK","SC",29445,33.008481971,-80.042452477,67,"105 CENTRAL AVE 100-A, GOOSE CREEK, SC, 29445","Match","Exact","105 CENTRAL AVE, GOOSE CREEK, SC, 29445",605136952,"L"
12568,"105 CHALICE CT","STATESVILLE","NC",28625,35.812836696,-80.914258353,68,"105 CHALICE CT, STATESVILLE, NC, 28625","Match","Exact","105 CHALICE CT, STATESVILLE, NC, 28625",46008488,"L"
12569,"105 CHAPEL HILL DRIVE","DESOTO","TX",75115,32.590482573,-96.886015487,69,"105 CHAPEL HILL DRIVE, DESOTO, TX, 75115","Match","Exact","105 CHAPEL HILL, DESOTO, TX, 75115",102984830,"L"
12570,"105 CHARLEMAGNE CIRCLE","HARVEST","AL",35749,34.8092037260001,-86.762551721,70,"105 CHARLEMAGNE CIRCLE, HARVEST, AL, 35749","Match","Exact","105 CHARLEMAGNE CIR, HARVEST, AL, 35749",58135857,"R"
12571,"105 CHEROKEE RIDGE","JONESBORO","IL",62952,37.448382162,-89.2779263259999,71,"105 CHEROKEE RIDGE, JONESBORO, IL, 62952","Match","Non_Exact","105 CHEROKEE RIDGE DR, JONESBORO, IL, 62952",5968402,"R"
12572,"105 CHERRY BLOSSOM LANE","LOS GATOS","CA",95032,37.2355426330001,-121.95723986,72,"105 CHERRY BLOSSOM LANE, LOS GATOS, CA, 95032","Match","Exact","105 CHERRY BLOSSOM LN, LOS GATOS, CA, 95032",122945424,"L"
12573,"105 CHERRY STREET","LOUISVILLE","NE",68037,41.002059677,-96.16318291,73,"105 CHERRY STREET, LOUISVILLE, NE, 68037","Match","Exact","105 CHERRY ST, LOUISVILLE, NE, 68037",10353392,"R"
12574,"105 CHESTNUT ST","FOXBORO","MA",2035,42.0753151070001,-71.240664324,74,"105 CHESTNUT ST, FOXBORO, MA, 2035","Match","Exact","105 CHESTNUT ST, FOXBORO, MA, 02035",87274936,"R"
12575,"105 CHESTNUT STREET SUITE 28","NEEDHAM","MA",2492,42.2785040140001,-71.23723605,75,"105 CHESTNUT STREET SUITE 28, NEEDHAM, MA, 2492","Match","Exact","105 CHESTNUT ST, NEEDHAM, MA, 02492",87241390,"R"
12576,"105 CHINOS TRAIL","JUSTIN","TX",76247,33.0706780520001,-97.303018536,76,"105 CHINOS TRAIL, JUSTIN, TX, 76247","Match","Exact","105 CHINOS TRL, JUSTIN, TX, 76247",618810586,"R"
12577,"105 CHRISTINA LANDING DR UNIT 1302","WILMINGTON","DE",19801,39.7346054430001,-75.551435297,77,"105 CHRISTINA LANDING DR UNIT 1302, WILMINGTON, DE, 19801","Match","Exact","105 CHRISTINA LANDING DR, WILMINGTON, DE, 19801",614585235,"L"
12578,"105 CHURCH ST","MARION","AL",36756,32.6275569000001,-87.3282875149999,78,"105 CHURCH ST, MARION, AL, 36756","Match","Exact","105 CHURCH ST, MARION, AL, 36756",28057557,"L"
12579,"105 CHURCHILL DOWNS DR","BUSH","LA",70431,30.589219165,-89.9933792259999,79,"105 CHURCHILL DOWNS DR, BUSH, LA, 70431","Match","Exact","105 CHURCHILL DOWNS DR, BUSH, LA, 70431",111258044,"R"
12580,"105 CIMARRON SQUARE","POTEET","TX",78065,29.077661886,-98.5984949909999,80,"105 CIMARRON SQUARE, POTEET, TX, 78065","Match","Exact","105 CIMARRON SQ, POTEET, TX, 78065",650916973,"L"
12581,"105 CIRCLE WAY STREET","LAKE JACKSON","TX",77566,29.0403991540001,-95.4518356459999,81,"105 CIRCLE WAY STREET, LAKE JACKSON, TX, 77566","Match","Exact","105 CIRCLE WAY ST, LAKE JACKSON, TX, 77566",648907803,"R"
12582,"105 CLAIRE ST","BELLE CHASSE","LA",70037,29.864043123,-90.004555198,82,"105 CLAIRE ST, BELLE CHASSE, LA, 70037","Match","Exact","105 CLAIRE ST, BELLE CHASSE, LA, 70037",651163497,"R"
12583,"105 CLEAR WATER","BOERNE","TX",78006,29.785891125,-98.6983787789999,83,"105 CLEAR WATER, BOERNE, TX, 78006","Match","Exact","105 CLEAR WATER, BOERNE, TX, 78006",625139160,"L"
12584,"105 CLIFFORD COURT","NEWBERG","OR",97132,45.30741277,-122.978941029,84,"105 CLIFFORD COURT, NEWBERG, OR, 97132","Match","Exact","105 CLIFFORD CT, NEWBERG, OR, 97132",617663846,"R"
12585,"105 CLUBHOUSE DRIVE","EAST STROUDSBURG","PA",18302,41.0831196760001,-75.0719203359999,85,"105 CLUBHOUSE DRIVE, EAST STROUDSBURG, PA, 18302","Match","Exact","105 CLUBHOUSE DR, E STROUDSBURG, PA, 18302",136762499,"L"
12586,"105 COLLEGE DRIVE","GAMBIER","OH",43022,40.375892234,-82.3988955889999,86,"105 COLLEGE DRIVE, GAMBIER, OH, 43022","Match","Exact","105 COLLEGE DR, GAMBIER, OH, 43022",24632315,"L"
12587,"105 COLLEGE ST","SOMERSET","KY",42501,37.093620935,-84.6015281429999,87,"105 COLLEGE ST, SOMERSET, KY, 42501","Match","Exact","105 COLLEGE ST, SOMERSET, KY, 42501",39083982,"R"
12588,"105 COMMERCE ST STE 117","LAKE MARY","FL",32746,28.740128338,-81.3592223699999,88,"105 COMMERCE ST STE 117, LAKE MARY, FL, 32746","Match","Exact","105 COMMERCE ST, LAKE MARY, FL, 32746",93798555,"L"
12589,"105 COMMONS WAY","CENTRAL","SC",29630,34.7136047540001,-82.789466835,89,"105 COMMONS WAY, CENTRAL, SC, 29630","Match","Exact","105 COMMONS WAY, CENTRAL, SC, 29630",26199456,"L"
12590,"105 CONDOR RIDGE CT","AUDUBON","PA",19403,40.146141926,-75.442308058,90,"105 CONDOR RIDGE CT, AUDUBON, PA, 19403","Match","Exact","105 CONDOR RIDGE CT, AUDUBON, PA, 19403",605630480,"L"
12591,"105 CONESTOGA COURT","BOONSBORO","MD",21713,39.499963462,-77.66653683,91,"105 CONESTOGA COURT, BOONSBORO, MD, 21713","Match","Exact","105 CONESTOGA CT, BOONSBORO, MD, 21713",60807061,"R"
12592,"105 CORNERSTONE ST STE 302","LYNCHBURG","VA",24502,37.339738852,-79.2251684029999,92,"105 CORNERSTONE ST STE 302, LYNCHBURG, VA, 24502","Match","Exact","105 CORNERSTONE ST, LYNCHBURG, VA, 24502",624657915,"R"
12593,"105 CORNERSTONE ST UNIT 103","LYNCHBURG","VA",24502,37.339738852,-79.2251684029999,93,"105 CORNERSTONE ST UNIT 103, LYNCHBURG, VA, 24502","Match","Exact","105 CORNERSTONE ST, LYNCHBURG, VA, 24502",624657915,"R"
12594,"105 COUNTRY CLUB LANE","MADISONVILLE","KY",42431,37.294527074,-87.507925857,94,"105 COUNTRY CLUB LANE, MADISONVILLE, KY, 42431","Match","Exact","105 COUNTRY CLUB LN, MADISONVILLE, KY, 42431",11502590,"L"
12595,"105 COUNTRY MILE RD","HOLLY SPRINGS","NC",27540,35.641159563,-78.863833233,95,"105 COUNTRY MILE RD, HOLLY SPRINGS, NC, 27540","Match","Exact","105 COUNTRY MILE RD, HOLLY SPRINGS, NC, 27540",612813713,"L"
12596,"105 COUPLES CT","GREENVILLE","SC",29609,34.909654957,-82.345748332,96,"105 COUPLES CT, GREENVILLE, SC, 29609","Match","Exact","105 COUPLES CT, GREENVILLE, SC, 29609",38364957,"L"
12597,"105 COURTLAND STREET NE","ATLANTA","GA",30303,33.7573565820001,-84.384229407,97,"105 COURTLAND STREET NE, ATLANTA, GA, 30303","Match","Exact","105 COURTLAND ST NE, ATLANTA, GA, 30303",17344568,"R"
12598,"105 COVENTRY LN","ATHENS","OH",45701,39.3063591170001,-82.096996312,98,"105 COVENTRY LN, ATHENS, OH, 45701","Match","Exact","105 COVENTRY LN, ATHENS, OH, 45701",37103706,"L"
12599,"105 COX AVENUE","LAWRENCEBURG","TN",38464,35.2364929730001,-87.336792482,99,"105 COX AVENUE, LAWRENCEBURG, TN, 38464","Match","Exact","105 COX AVE, LAWRENCEBURG, TN, 38464",26825045,"L"
12600,"105 CRAB ORCHARD COURT","OAKDALE","PA",15071,40.382503899,-80.1749059219999,100,"105 CRAB ORCHARD COURT, OAKDALE, PA, 15071","Match","Exact","105 CRAB ORCHARD CT, OAKDALE, PA, 15071",51925098,"L"
12601,"105 CRANBURY ROAD","BRICK","NJ",8724,40.071197076,-74.0995917289999,101,"105 CRANBURY ROAD, BRICK, NJ, 8724","Match","Exact","105 CRANBURY RD, BRICK, NJ, 08724",203733842,"L"
12602,"105 DEER ROAD","PHILLIPS","NE",68865,NA,NA,102,"105 DEER ROAD, PHILLIPS, NE, 68865","No_Match",NA,NA,NA,NA
12603,"105 DEER RUN ROAD","SOUTH ROYALTON","VT",5068,43.8308055680001,-72.47339175,103,"105 DEER RUN ROAD, SOUTH ROYALTON, VT, 5068","Match","Exact","105 DEER RUN RD, S ROYALTON, VT, 05068",139250636,"L"
12604,"105 DEERWOOD COURT","CHAPEL HILL","NC",27517,35.9245492150001,-79.016356131,104,"105 DEERWOOD COURT, CHAPEL HILL, NC, 27517","Match","Exact","105 DEERWOOD CT, CHAPEL HILL, NC, 27517",72380777,"R"
12605,"105 DIANE STREET","SHELBYVILLE","TN",37160,35.482311576,-86.4022426939999,105,"105 DIANE STREET, SHELBYVILLE, TN, 37160","Match","Exact","105 DIANE ST, SHELBYVILLE, TN, 37160",58858448,"L"
12606,"105 DILLON DRIVE","PITTSBURGH","PA",15243,40.3744338270001,-80.078480581,106,"105 DILLON DRIVE, PITTSBURGH, PA, 15243","Match","Exact","105 DILLON DR, PITTSBURGH, PA, 15243",51618178,"L"
12607,"105 DOE RUN","CLINTON","NC",28328,NA,NA,107,"105 DOE RUN, CLINTON, NC, 28328","No_Match",NA,NA,NA,NA
12608,"105 DOVER PL","STAFFORD","VA",22556,38.476716921,-77.409576531,108,"105 DOVER PL, STAFFORD, VA, 22556","Match","Exact","105 DOVER PL, STAFFORD, VA, 22556",25562413,"R"
12609,"105 DRAKE UNIVERSITY OF DELAWARE","NEWARK","DE",19716,NA,NA,109,"105 DRAKE UNIVERSITY OF DELAWARE, NEWARK, DE, 19716","No_Match",NA,NA,NA,NA
12610,"105 DRYCREEK DR","FORNEY","TX",75126,32.7502861840001,-96.4466110229999,110,"105 DRYCREEK DR, FORNEY, TX, 75126","Match","Exact","105 DRYCREEK DR, FORNEY, TX, 75126",614179356,"R"
12611,"105 DUANE ST 50A","NEW YORK","NY",10007,40.7156901550001,-74.00640007,111,"105 DUANE ST 50A, NEW YORK, NY, 10007","Match","Exact","105 DUANE ST, NEW YORK, NY, 10007",59660355,"R"
12612,"105 DUANE STREET UNIT 28E","NEW YORK","NY",10007,40.7156901550001,-74.00640007,112,"105 DUANE STREET UNIT 28E, NEW YORK, NY, 10007","Match","Exact","105 DUANE ST, NEW YORK, NY, 10007",59660355,"R"
12613,"105 DURSTON LOOP","MORRISVILLE","NC",27560,35.840583291,-78.8589204849999,113,"105 DURSTON LOOP, MORRISVILLE, NC, 27560","Match","Exact","105 DURSTON LOOP, MORRISVILLE, NC, 27560",72641356,"L"
12614,"105 DYLIN CT","BOYD","TX",76023,32.9823449020001,-97.6000217009999,114,"105 DYLIN CT, BOYD, TX, 76023","Match","Exact","105 DYLIN CT, BOYD, TX, 76023",643007968,"L"
12615,"105 E 20TH ST","OWENSBORO","KY",42303,37.7565653010001,-87.109697763,115,"105 E 20TH ST, OWENSBORO, KY, 42303","Match","Exact","105 E 20TH ST, OWENSBORO, KY, 42303",37559769,"L"
12616,"105 E 2ND STREET","NELIGH","NE",68756,42.1265771660001,-98.030425313,116,"105 E 2ND STREET, NELIGH, NE, 68756","Match","Exact","105 E 2ND ST, NELIGH, NE, 68756",161679074,"L"
12617,"105 E 37TH STREET","NEW YORK","NY",10016,40.748855464,-73.9796244739999,117,"105 E 37TH STREET, NEW YORK, NY, 10016","Match","Exact","105 E 37TH ST, NEW YORK, NY, 10016",59654424,"L"
12618,"105 E 38TH STREET APT 5A","NEW YORK","NY",10016,40.7494608590001,-73.9791419269999,118,"105 E 38TH STREET APT 5A, NEW YORK, NY, 10016","Match","Non_Exact","105 E 38TH ST, NEW YORK, NY, 10016",59654389,"L"
12619,"105 E 7TH STREET STE 1","PLAINFIELD","NJ",7060,40.6148592430001,-74.417437623,119,"105 E 7TH STREET STE 1, PLAINFIELD, NJ, 7060","Match","Non_Exact","105 W 7TH ST, PLAINFIELD, NJ, 07060",60560520,"L"
12620,"105 E CENTER STREET SUITE B-14","MEBANE","NC",27302,NA,NA,120,"105 E CENTER STREET SUITE B-14, MEBANE, NC, 27302","Tie",NA,NA,NA,NA
12621,"105 E CHERRY ST","HILL CITY","KS",67642,39.3677365180001,-99.841732895,121,"105 E CHERRY ST, HILL CITY, KS, 67642","Match","Exact","105 E CHERRY ST, HILL CITY, KS, 67642",203629693,"L"
12622,"105 E CHESTNUT ST","GOLDSBORO","NC",27530,35.3816819360001,-77.9973818669999,122,"105 E CHESTNUT ST, GOLDSBORO, NC, 27530","Match","Exact","105 E CHESTNUT ST, GOLDSBORO, NC, 27530",14403385,"L"
12623,"105 E CUSTERS CREEK BND","PFLUGERVILLE","TX",78660,30.433383893,-97.623705969,123,"105 E CUSTERS CREEK BND, PFLUGERVILLE, TX, 78660","Match","Exact","105 E CUSTERS CREEK BEND, PFLUGERVILLE, TX, 78660",64003641,"L"
12624,"105 E EGGLESTON ST","MANOR","TX",78653,30.3428079870001,-97.557131995,124,"105 E EGGLESTON ST, MANOR, TX, 78653","Match","Exact","105 E EGGLESTON ST, MANOR, TX, 78653",63935835,"L"
12625,"105 E EMBERCREST DR","ARLINGTON","TX",76018,32.6678947990001,-97.114203747,125,"105 E EMBERCREST DR, ARLINGTON, TX, 76018","Match","Exact","105 E EMBERCREST DR, ARLINGTON, TX, 76018",102132032,"L"
12626,"105 E EVERGREEN RD","LEBANON","PA",17042,40.3087643420001,-76.404410904,126,"105 E EVERGREEN RD, LEBANON, PA, 17042","Match","Exact","105 E EVERGREEN RD, LEBANON, PA, 17042",80674707,"L"
12627,"105 E LAFAYETTE STREET","MONTICELLO","MO",63457,40.118725893,-91.712679586,127,"105 E LAFAYETTE STREET, MONTICELLO, MO, 63457","Match","Exact","105 LAFAYETTE ST, MONTICELLO, MO, 63457",607738343,"R"
12628,"105 E LIBERTY STREET","GIRARD","OH",44420,NA,NA,128,"105 E LIBERTY STREET, GIRARD, OH, 44420","Tie",NA,NA,NA,NA
12629,"105 E LOOP 281 SUITE 6","LONGVIEW","TX",75605,NA,NA,129,"105 E LOOP 281 SUITE 6, LONGVIEW, TX, 75605","Tie",NA,NA,NA,NA
12630,"105 E MAIN STREET SUITE 206","MORRIS","IL",60450,NA,NA,130,"105 E MAIN STREET SUITE 206, MORRIS, IL, 60450","Tie",NA,NA,NA,NA
12631,"105 E MAIN STREET","WARDENSVILLE","WV",26851,39.07660249,-78.5946132019999,131,"105 E MAIN STREET, WARDENSVILLE, WV, 26851","Match","Exact","105 E MAIN ST, WARDENSVILLE, WV, 26851",55493313,"L"
12632,"105 E MARKET ST","GREENWOOD","MS",38930,33.520722908,-90.181360689,132,"105 E MARKET ST, GREENWOOD, MS, 38930","Match","Exact","105 E MARKET ST, GREENWOOD, MS, 38930",1048366,"L"
12633,"105 E MISSOURI","FLOYDADA","TX",79235,33.985566852,-101.334648274,133,"105 E MISSOURI, FLOYDADA, TX, 79235","Match","Non_Exact","105 E MISSOURI ST, FLOYDADA, TX, 79235",185169027,"L"
12634,"105 E OVERTON STREET","MADILL","OK",73446,34.0914822720001,-96.772177885,134,"105 E OVERTON STREET, MADILL, OK, 73446","Match","Exact","105 E OVERTON ST, MADILL, OK, 73446",63233456,"L"
12635,"105 E PARK AVENUE","PLEASANTVILLE","NJ",8232,39.383014427,-74.527396916,135,"105 E PARK AVENUE, PLEASANTVILLE, NJ, 8232","Match","Exact","105 E PARK AVE, PLEASANTVILLE, NJ, 08232",202486347,"R"
12636,"105 E PIGEON PLUM DR APT 101","JUPITER","FL",33458,26.9111118070001,-80.098223493,136,"105 E PIGEON PLUM DR APT 101, JUPITER, FL, 33458","Match","Non_Exact","105 E PIGEON PLUM DR, JUPITER, FL, 33458",636095676,"R"
12637,"105 E SCHAUMBURG RD","SCHAUMBURG","IL",60194,42.02743681,-88.0766334959999,137,"105 E SCHAUMBURG RD, SCHAUMBURG, IL, 60194","Match","Exact","105 E SCHAUMBURG RD, SCHAUMBURG, IL, 60194",112385980,"R"
12638,"105 E SECOND STREET","SILER CITY","NC",27344,35.7238116820001,-79.46386026,138,"105 E SECOND STREET, SILER CITY, NC, 27344","Match","Exact","105 E 2ND ST, SILER CITY, NC, 27344",71341923,"L"
12639,"105 E WHITEHEAD TERRACE","ATHENS","GA",30606,NA,NA,139,"105 E WHITEHEAD TERRACE, ATHENS, GA, 30606","Tie",NA,NA,NA,NA
12640,"105 EAST 16TH ST","RICHMOND","VA",23224,37.517789889,-77.4466184629999,140,"105 EAST 16TH ST, RICHMOND, VA, 23224","Match","Exact","105 E 16TH ST, RICHMOND, VA, 23224",201541826,"R"
12641,"105 EAST 17TH AVE","TYNDALL","SD",57066,42.9922892530001,-97.862554469,141,"105 EAST 17TH AVE, TYNDALL, SD, 57066","Match","Exact","105 E 17TH AVE, TYNDALL, SD, 57066",172929449,"L"
12642,"105 EAST 38TH STREET SUITE 5-A","NEW YORK","NY",10016,40.7494682180001,-73.97915933,142,"105 EAST 38TH STREET SUITE 5-A, NEW YORK, NY, 10016","Match","Exact","105 E 38TH ST, NEW YORK, NY, 10016",59654389,"L"
12643,"105 EAST BOND","WEST MEMPHIS","AR",72301,35.148048707,-90.184624449,143,"105 EAST BOND, WEST MEMPHIS, AR, 72301","Match","Non_Exact","105 E BOND AVE, WEST MEMPHIS, AR, 72301",69372738,"R"
12644,"105 EAST CONAN STREET","ELY","MN",55731,47.9004809680001,-91.865292208,144,"105 EAST CONAN STREET, ELY, MN, 55731","Match","Exact","105 E CONAN ST, ELY, MN, 55731",163156933,"R"
12645,"105 EAST JOSEPH WAY","GILBERT","AZ",85295,33.298764713,-111.787610896,145,"105 EAST JOSEPH WAY, GILBERT, AZ, 85295","Match","Exact","105 E JOSEPH WAY, GILBERT, AZ, 85295",128860739,"R"
12646,"105 EAST LAFAYETTE","MONTICELLO","MO",63457,NA,NA,146,"105 EAST LAFAYETTE, MONTICELLO, MO, 63457","No_Match",NA,NA,NA,NA
12647,"105 EAST OLIVE STREET","MILO","IA",50166,41.2852663670001,-93.4380608989999,147,"105 EAST OLIVE STREET, MILO, IA, 50166","Match","Exact","105 E OLIVE ST, MILO, IA, 50166",83770939,"L"
12648,"105 EAST THIRD STREET","OTTUMWA","IA",52501,NA,NA,148,"105 EAST THIRD STREET, OTTUMWA, IA, 52501","No_Match",NA,NA,NA,NA
12649,"105 EAST TOWNLINE ROAD STE 128","VERNON HILLS","IL",60061,42.2404726340001,-87.961716184,149,"105 EAST TOWNLINE ROAD STE 128, VERNON HILLS, IL, 60061","Match","Exact","105 E TOWNLINE RD, VERNON HILLS, IL, 60061",119731227,"R"
12650,"105 EAST YEAGER BLVD","EDWASDS AFB","CA",93524,NA,NA,150,"105 EAST YEAGER BLVD, EDWASDS AFB, CA, 93524","No_Match",NA,NA,NA,NA
12651,"105 EASTHAVEN CIRCLE","BRANDON","MS",39042,32.2863152940001,-89.9744880229999,151,"105 EASTHAVEN CIRCLE, BRANDON, MS, 39042","Match","Exact","105 EASTHAVEN CIR, BRANDON, MS, 39042",116911414,"L"
12652,"105 EDGEHILL PL","CHAPEL HILL","NC",27516,35.925539857,-79.069637595,152,"105 EDGEHILL PL, CHAPEL HILL, NC, 27516","Match","Exact","105 EDGEHILL PL, CHAPEL HILL, NC, 27516",72390335,"L"
12653,"105 EDINBURGH CT","HIGHLAND VILLAGE","TX",75077,33.0748268900001,-97.0749349559999,153,"105 EDINBURGH CT, HIGHLAND VILLAGE, TX, 75077","Match","Exact","105 EDINBURGH CT, HIGHLAND VILLAGE, TX, 75077",103412926,"L"
12654,"105 EDWARDS STREET","DOWAGIAC","MI",49047,41.9838403540001,-86.099504887,154,"105 EDWARDS STREET, DOWAGIAC, MI, 49047","Match","Exact","105 EDWARDS ST, DOWAGIAC, MI, 49047",22579368,"L"
12655,"105 EDWARDS VILLAGE BLVD A101 1467","EDWARDS","CO",81632,39.643607741,-106.595245503,155,"105 EDWARDS VILLAGE BLVD A101 1467, EDWARDS, CO, 81632","Match","Exact","105 EDWARDS VILLAGE BLVD, EDWARDS, CO, 81632",105736819,"R"
12656,"105 ELM STREET","MALDEN","MA",2148,42.426933954,-71.0812087579999,156,"105 ELM STREET, MALDEN, MA, 2148","Match","Exact","105 ELM ST, MALDEN, MA, 02148",86859886,"R"
12657,"105 ELMWOOD CIRCLE","LE SUEUR","MN",56058,44.4514404180001,-93.908990525,157,"105 ELMWOOD CIRCLE, LE SUEUR, MN, 56058","Match","Exact","105 ELMWOOD CIR, LE SUEUR, MN, 56058",28648153,"R"
12658,"105 ENDEAN DRIVE","EAST WALPOLE","MA",2032,42.1667534440001,-71.214612,158,"105 ENDEAN DRIVE, EAST WALPOLE, MA, 2032","Match","Exact","105 ENDEAN DR, EAST WALPOLE, MA, 02032",637792063,"R"
12659,"105 ESMERALDA CT","SANTA CRUZ","CA",95060,36.999811016,-122.011865261,159,"105 ESMERALDA CT, SANTA CRUZ, CA, 95060","Match","Exact","105 ESMERALDA CT, SANTA CRUZ, CA, 95060",125520880,"R"
12660,"105 EUCALYPTUS AVENUE","SANTA CRUZ","CA",95060,36.955140483,-122.026982246,160,"105 EUCALYPTUS AVENUE, SANTA CRUZ, CA, 95060","Match","Exact","105 EUCALYPTUS AVE, SANTA CRUZ, CA, 95060",125508685,"L"
12661,"105 FAIRCLOTH STREET","ANDALUSIA","AL",36420,31.3134724170001,-86.464330063,161,"105 FAIRCLOTH STREET, ANDALUSIA, AL, 36420","Match","Exact","105 FAIRCLOTH ST, ANDALUSIA, AL, 36420",1852975,"R"
12662,"105 FAIRFIELD DRIVE","RICHLANDS","NC",28574,34.918544228,-77.568295232,162,"105 FAIRFIELD DRIVE, RICHLANDS, NC, 28574","Match","Exact","105 FAIRFIELD DR, RICHLANDS, NC, 28574",620025653,"R"
12663,"105 FALCON COURT","BOARDMAN","OR",97818,45.827096419,-119.714514102,163,"105 FALCON COURT, BOARDMAN, OR, 97818","Match","Exact","105 FALCON CT, BOARDMAN, OR, 97818",651846588,"R"
12664,"105 FALLOW CIR","CHELSEA","AL",35043,33.2971973730001,-86.7145789749999,164,"105 FALLOW CIR, CHELSEA, AL, 35043","Match","Exact","105 FALLOW CIR, CHELSEA, AL, 35043",608372195,"R"
12665,"105 FALLSTAFF RD","COLUMBIA","SC",29229,34.1590843050001,-80.934878644,165,"105 FALLSTAFF RD, COLUMBIA, SC, 29229","Match","Exact","105 FALLSTAFF RD, COLUMBIA, SC, 29229",604796577,"L"
12666,"105 FERNWOOD ROAD SUITE 100","COATESVILLE","PA",19320,NA,NA,166,"105 FERNWOOD ROAD SUITE 100, COATESVILLE, PA, 19320","No_Match",NA,NA,NA,NA
12667,"105 FIELD ROAD","CLINTON CORNERS","NY",12514,41.9211483600001,-73.7755506939999,167,"105 FIELD ROAD, CLINTON CORNERS, NY, 12514","Match","Exact","105 FIELD RD, CLINTON CORNERS, NY, 12514",635852018,"R"
12668,"105 FIELDMERE STREET","ELMONT","NY",11003,40.705774698,-73.718618401,168,"105 FIELDMERE STREET, ELMONT, NY, 11003","Match","Exact","105 FIELDMERE ST, ELMONT, NY, 11003",147665011,"R"
12669,"105 FIESTA CIRCLE","ORINDA","CA",94563,37.850738474,-122.144684045,169,"105 FIESTA CIRCLE, ORINDA, CA, 94563","Match","Exact","105 FIESTA CIR, ORINDA, CA, 94563",192051153,"L"
12670,"105 FITZGERALD STREET","LAFAYETTE","LA",70501,30.249951067,-92.023905794,170,"105 FITZGERALD STREET, LAFAYETTE, LA, 70501","Match","Exact","105 FITZGERALD ST, LAFAYETTE, LA, 70501",85614846,"L"
12671,"105 FLANNIGAN FAIRWAY","MABANK","TX",75156,32.3011568430001,-96.106732365,171,"105 FLANNIGAN FAIRWAY, MABANK, TX, 75156","Match","Non_Exact","105 FLANNAGAN FAIRWAY, MABANK, TX, 75156",125796809,"R"
12672,"105 FLATIRON CT","EDISON","NJ",8820,40.5497581070001,-74.402014832,172,"105 FLATIRON CT, EDISON, NJ, 8820","Match","Exact","105 FLATIRON CT, EDISON, NJ, 08820",60302651,"L"
12673,"105 FORREST AVE 12","LOS GATOS","CA",95032,37.2334736290001,-121.975560113,173,"105 FORREST AVE 12, LOS GATOS, CA, 95032","Match","Exact","105 FORREST AVE, LOS GATOS, CA, 95032",123001827,"R"
12674,"105 FORREST AVE APT 12","LOS GATOS","CA",95032,37.2334736290001,-121.975560113,174,"105 FORREST AVE APT 12, LOS GATOS, CA, 95032","Match","Exact","105 FORREST AVE, LOS GATOS, CA, 95032",123001827,"R"
12675,"105 FOX CIRCLE","BURNET","TX",78611,30.7158557330001,-98.2530570599999,175,"105 FOX CIRCLE, BURNET, TX, 78611","Match","Exact","105 FOX CIR, BURNET, TX, 78611",640544398,"R"
12676,"105 FOX DR","DUDLEY","NC",28333,35.296759653,-78.012683414,176,"105 FOX DR, DUDLEY, NC, 28333","Match","Exact","105 FOX DR, DUDLEY, NC, 28333",14423545,"R"
12677,"105 FRANKLIN ST","ROSEVILLE","CA",95678,38.7436443180001,-121.28192286,177,"105 FRANKLIN ST, ROSEVILLE, CA, 95678","Match","Exact","105 FRANKLIN ST, ROSEVILLE, CA, 95678",106764791,"L"
12678,"105 GALYN DR","BRUNSWICK","MD",21758,39.323723607,-77.609133449,178,"105 GALYN DR, BRUNSWICK, MD, 21758","Match","Exact","105 GALYN DR, BRUNSWICK, MD, 21758",633865294,"L"
12679,"105 GARDEN PLACE","VICTORIA","TX",77904,28.8323682540001,-96.958212544,179,"105 GARDEN PLACE, VICTORIA, TX, 77904","Match","Exact","105 GARDEN PL, VICTORIA, TX, 77904",44573574,"R"
12680,"105 GATEWAY DRIVE","ALVARADO","TX",76009,32.423174729,-97.217624831,180,"105 GATEWAY DRIVE, ALVARADO, TX, 76009","Match","Exact","105 GATEWAY DR, ALVARADO, TX, 76009",649196924,"R"
12681,"105 GAYMOOR DR","STAMFORD","CT",6907,41.1009636970001,-73.522904446,181,"105 GAYMOOR DR, STAMFORD, CT, 6907","Match","Exact","105 GAYMOOR DR, STAMFORD, CT, 06907",3246245,"R"
12682,"105 GAYMOOR DRIVE","STAMFORD","CT",6907,41.1009636970001,-73.522904446,182,"105 GAYMOOR DRIVE, STAMFORD, CT, 6907","Match","Exact","105 GAYMOOR DR, STAMFORD, CT, 06907",3246245,"R"
12683,"105 GENEVA AVE","BELLWOOD","IL",60104,41.8905786990001,-87.888360671,183,"105 GENEVA AVE, BELLWOOD, IL, 60104","Match","Exact","105 GENEVA AVE, BELLWOOD, IL, 60104",605139886,"L"
12684,"105 GOLF RANGE STREET","LAS VEGAS","NV",89145,36.174434966,-115.273029831,184,"105 GOLF RANGE STREET, LAS VEGAS, NV, 89145","Match","Exact","105 GOLF RANGE ST, LAS VEGAS, NV, 89145",201933985,"L"
12685,"105 GOVERNORS DR","FOREST PARK","GA",30297,33.618805094,-84.377028583,185,"105 GOVERNORS DR, FOREST PARK, GA, 30297","Match","Exact","105 GOVERNORS DR, FOREST PARK, GA, 30297",636375627,"L"
12686,"105 GRANGER VIEW CT","FRANKLIN","TN",37064,35.927054067,-86.848734558,186,"105 GRANGER VIEW CT, FRANKLIN, TN, 37064","Match","Non_Exact","105 GRANGERVIEW CT, FRANKLIN, TN, 37064",73120759,"R"
12687,"105 GREENE STREET UNIT 1601","JERSEY CITY","NJ",7302,40.7159512740001,-74.0358503539999,187,"105 GREENE STREET UNIT 1601, JERSEY CITY, NJ, 7302","Match","Exact","105 GREENE ST, JERSEY CITY, NJ, 07302",59606415,"L"
12688,"105 GREENLEAF DR","PONTE VEDRA","FL",32081,NA,NA,188,"105 GREENLEAF DR, PONTE VEDRA, FL, 32081","No_Match",NA,NA,NA,NA
12689,"105 GREENLEAF DRIVE","PONTE VEDRA","FL",32081,NA,NA,189,"105 GREENLEAF DRIVE, PONTE VEDRA, FL, 32081","No_Match",NA,NA,NA,NA
12690,"105 GREGORY STREET","AURORA","IL",60504,41.755577456,-88.223163149,190,"105 GREGORY STREET, AURORA, IL, 60504","Match","Exact","105 GREGORY ST, AURORA, IL, 60504",112535105,"L"
12691,"105 GROW AVENUE NW","BAINBRIDGE ISLAND","WA",98110,47.625055445,-122.524926671,191,"105 GROW AVENUE NW, BAINBRIDGE ISLAND, WA, 98110","Match","Exact","105 GROW AVE NW, BAINBRIDGE ISLAND, WA, 98110",633247652,"L"
12692,"105 GUY PARK AVE","AMSTERDAM","NY",12010,42.9425924970001,-74.1962789359999,192,"105 GUY PARK AVE, AMSTERDAM, NY, 12010","Match","Exact","105 GUY PARK AVE, AMSTERDAM, NY, 12010",637834927,"R"
12693,"105 HABERSHAM DR  SUITE D","FAYETTEVILLE","GA",30214,33.4586120050001,-84.453768275,193,"105 HABERSHAM DR  SUITE D, FAYETTEVILLE, GA, 30214","Match","Exact","105 HABERSHAM DR, FAYETTEVILLE, GA, 30214",75930351,"L"
12694,"105 HABERSHAM DRIVE SUITE D","FAYETTEVILLE","GA",30214,33.4586120050001,-84.453768275,194,"105 HABERSHAM DRIVE SUITE D, FAYETTEVILLE, GA, 30214","Match","Exact","105 HABERSHAM DR, FAYETTEVILLE, GA, 30214",75930351,"L"
12695,"105 HAMMOND WOOD PL","MORRISVILLE","NC",27560,35.833775673,-78.8445845909999,195,"105 HAMMOND WOOD PL, MORRISVILLE, NC, 27560","Match","Exact","105 HAMMOND WOOD PL, MORRISVILLE, NC, 27560",647277455,"L"
12696,"105 HANCOCK CROSSING","LAKE WYLIE","SC",29710,35.142251752,-81.0872717409999,196,"105 HANCOCK CROSSING, LAKE WYLIE, SC, 29710","Match","Exact","105 HANCOCK CROSSING, LAKE WYLIE, SC, 29710",19808263,"L"
12697,"105 HARDMAN COURT SUITE110","SOUTH SAINT PAUL","MN",55075,44.889311956,-93.0246987789999,197,"105 HARDMAN COURT SUITE110, SOUTH SAINT PAUL, MN, 55075","Match","Exact","105 HARDMAN CT, SOUTH SAINT PAUL, MN, 55075",628836627,"R"
12698,"105 HARRIS AVE","HEWLETT","NY",11557,40.642079159,-73.7013094759999,198,"105 HARRIS AVE, HEWLETT, NY, 11557","Match","Exact","105 HARRIS AVE, HEWLETT, NY, 11557",147678368,"L"
12699,"105 HAVEN PLACE","ALLEN","TX",75002,33.098947309,-96.627654023,199,"105 HAVEN PLACE, ALLEN, TX, 75002","Match","Exact","105 HAVEN PL, ALLEN, TX, 75002",210520966,"R"
12700,"105 HEDGEWOOD CT","CARY","NC",27519,35.819056856,-78.9072547489999,200,"105 HEDGEWOOD CT, CARY, NC, 27519","Match","Exact","105 HEDGEWOOD CT, CARY, NC, 27519",72644508,"L"
12701,"105 HEMLCOK TREE LANE","LEXINGTON","VA",24450,37.787728788,-79.634578996,201,"105 HEMLCOK TREE LANE, LEXINGTON, VA, 24450","Match","Non_Exact","105 HEMLOCK TREE RD, LEXINGTON, VA, 24450",63108208,"L"
12702,"105 HEMLOCK ST","SUMMERVILLE","GA",30747,34.486333046,-85.331621895,202,"105 HEMLOCK ST, SUMMERVILLE, GA, 30747","Match","Exact","105 HEMLOCK ST, SUMMERVILLE, GA, 30747",82027507,"R"
12703,"105 HERB RIVER DRIVE","SAVANNAH","GA",31406,31.9989335220001,-81.0478440589999,203,"105 HERB RIVER DRIVE, SAVANNAH, GA, 31406","Match","Exact","105 HERB RIVER DR, SAVANNAH, GA, 31406",6210360,"R"
12704,"105 HIGHGATE ROAD","ITHACA","NY",14850,42.4714279950001,-76.4910647729999,204,"105 HIGHGATE ROAD, ITHACA, NY, 14850","Match","Exact","105 HIGHGATE RD, ITHACA, NY, 14850",18857085,"R"
12705,"105 HIGHWAY 10 E","BELLEVILLE","AR",72824,NA,NA,205,"105 HIGHWAY 10 E, BELLEVILLE, AR, 72824","No_Match",NA,NA,NA,NA
12706,"105 HIGHWAY 27","WHITWELL","TN",37397,35.189368148,-85.485812338,206,"105 HIGHWAY 27, WHITWELL, TN, 37397","Match","Non_Exact","105 STATE HWY 27, WHITWELL, TN, 37397",58402863,"R"
12707,"105 HILL ROAD NORTH","PICKERINGTON","OH",43147,39.882348226,-82.759187099,207,"105 HILL ROAD NORTH, PICKERINGTON, OH, 43147","Match","Non_Exact","105 HILL RD S, PICKERINGTON, OH, 43147",37235028,"L"
12708,"105 HILLRIDGE CT","BOWLING GREEN","KY",42101,36.9684546400001,-86.4854732859999,208,"105 HILLRIDGE CT, BOWLING GREEN, KY, 42101","Match","Exact","105 HILLRIDGE CT, BOWLING GREEN, KY, 42101",28014225,"L"
12709,"105 HILLSBOROUGH CT","GRIFFIN","GA",30224,33.2301536730001,-84.3337226099999,209,"105 HILLSBOROUGH CT, GRIFFIN, GA, 30224","Match","Exact","105 HILLSBOROUGH CT, GRIFFIN, GA, 30224",23766540,"L"
12710,"105 HILLTOP LANE","CASSOPOLIS","MI",49031,41.901414501,-86.01189979,210,"105 HILLTOP LANE, CASSOPOLIS, MI, 49031","Match","Exact","105 HILLTOP LN, CASSOPOLIS, MI, 49031",642883884,"R"
12711,"105 HIRST ROAD","BRIARCLIFF MANOR","NY",10510,41.1305887950001,-73.840227453,211,"105 HIRST ROAD, BRIARCLIFF MANOR, NY, 10510","Match","Exact","105 HIRST RD, BRIARCLIFF MANOR, NY, 10510",139790490,"L"
12712,"105 HOBART ST","HAWLEY","MN",56549,46.8793921770001,-96.308398273,212,"105 HOBART ST, HAWLEY, MN, 56549","Match","Exact","105 HOBART ST, HAWLEY, MN, 56549",168037171,"L"
12713,"105 HOLIDAY DRIVE","MACON","GA",31210,32.8997590720001,-83.686020743,213,"105 HOLIDAY DRIVE, MACON, GA, 31210","Match","Non_Exact","105 HOLIDAY DR N, MACON, GA, 31210",81081474,"R"
12714,"105 HOLLY STREET","MYRTLE BEACH","SC",29572,33.793876488,-78.7474951569999,214,"105 HOLLY STREET, MYRTLE BEACH, SC, 29572","Match","Non_Exact","105 HOLLY LN, MYRTLE BEACH, SC, 29572",29104957,"R"
12715,"105 HOLMES ROAD","ARGYLE","NY",12809,43.290240709,-73.470377765,215,"105 HOLMES ROAD, ARGYLE, NY, 12809","Match","Exact","105 HOLMES RD, ARGYLE, NY, 12809",634302594,"R"
12716,"105 HORSESHOE DR","WILLIAMSBURG","VA",23185,37.293473835,-76.655856926,216,"105 HORSESHOE DR, WILLIAMSBURG, VA, 23185","Match","Exact","105 HORSESHOE DR, WILLIAMSBURG, VA, 23185",103747615,"L"
12717,"105 HUGHES AVE","BUFFALO","NY",14208,42.9245370040001,-78.850282334,217,"105 HUGHES AVE, BUFFALO, NY, 14208","Match","Exact","105 HUGHES AVE, BUFFALO, NY, 14208",48289927,"R"
12718,"105 HUMBLES FARM LANE","APPOMATTOX","VA",24522,37.4637367670001,-78.839064981,218,"105 HUMBLES FARM LANE, APPOMATTOX, VA, 24522","Match","Exact","105 HUMBLES FARM LN, APPOMATTOX, VA, 24522",197946040,"L"
12719,"105 HUNTERS GLEN","CLINTON","MN",39056,NA,NA,219,"105 HUNTERS GLEN, CLINTON, MN, 39056","No_Match",NA,NA,NA,NA
12720,"105 HWY 71 WEST","BASTROP","TX",78602,NA,NA,220,"105 HWY 71 WEST, BASTROP, TX, 78602","No_Match",NA,NA,NA,NA
12721,"105 ICHORD AVE","WAYNESVILLE","MO",65583,37.8133040600001,-92.223425768,221,"105 ICHORD AVE, WAYNESVILLE, MO, 65583","Match","Exact","105 ICHORD AVE, WAYNESVILLE, MO, 65583",26390414,"R"
12722,"105 INDIGO BRUSH DR","CIBOLO","TX",78108,29.5892115730001,-98.249653774,222,"105 INDIGO BRUSH DR, CIBOLO, TX, 78108","Match","Exact","105 INDIGO BRUSH DR, CIBOLO, TX, 78108",614166645,"R"
12723,"105 JACKS POINT ROAD","OXFORD","MD",21654,38.6845615070001,-76.167583626,223,"105 JACKS POINT ROAD, OXFORD, MD, 21654","Match","Exact","105 JACKS POINT RD, OXFORD, MD, 21654",209754388,"L"
12724,"105 JACKSON VALLEY","SHARPSBURG","GA",30277,33.373056058,-84.618115261,224,"105 JACKSON VALLEY, SHARPSBURG, GA, 30277","Match","Exact","105 JACKSON VALLEY, SHARPSBURG, GA, 30277",625134282,"L"
12725,"105 JAMES ST","BRANDON","FL",33510,27.940963235,-82.285569617,225,"105 JAMES ST, BRANDON, FL, 33510","Match","Exact","105 JAMES ST, BRANDON, FL, 33510",104543246,"R"
12726,"105 JAMESTOWN AVENUE","CLUTE","TX",77531,29.042537221,-95.4089263,226,"105 JAMESTOWN AVENUE, CLUTE, TX, 77531","Match","Exact","105 JAMESTOWN AVE, CLUTE, TX, 77531",116611151,"L"
12727,"105 JERSEY ST","BOSTON","MA",2215,42.343123695,-71.097158177,227,"105 JERSEY ST, BOSTON, MA, 2215","Match","Exact","105 JERSEY ST, BOSTON, MA, 02215",85727732,"R"
12728,"105 JESSUP RD","THOROFARE","NJ",8086,39.8414742480001,-75.192448427,228,"105 JESSUP RD, THOROFARE, NJ, 8086","Match","Exact","105 JESSUP RD, THOROFARE, NJ, 08086",134613922,"R"
12729,"105 JESSUP RD","WEST DEPTFORD","NJ",8086,39.8414742480001,-75.192448427,229,"105 JESSUP RD, WEST DEPTFORD, NJ, 8086","Match","Exact","105 JESSUP RD, WEST DEPTFORD, NJ, 08086",134613922,"R"
12730,"105 JOANNE WAY","ELMHURST","IL",60126,NA,NA,230,"105 JOANNE WAY, ELMHURST, IL, 60126","No_Match",NA,NA,NA,NA
12731,"105 JOHN C  MOSS","WARREN","AR",71671,NA,NA,231,"105 JOHN C  MOSS, WARREN, AR, 71671","No_Match",NA,NA,NA,NA
12732,"105 JOHNSON STREET TOP FLOOR","BROOKLYN","NY",11201,40.6948189940001,-73.983170597,232,"105 JOHNSON STREET TOP FLOOR, BROOKLYN, NY, 11201","Match","Exact","105 JOHNSON ST, BROOKLYN, NY, 11201",59077441,"L"
12733,"105 KATHY LANE","EGG HARBOR TOWNSHIP","NJ",8234,39.340681648,-74.6487361269999,233,"105 KATHY LANE, EGG HARBOR TOWNSHIP, NJ, 8234","Match","Exact","105 KATHY LN, EGG HARBOR TOWNSHIP, NJ, 08234",202512734,"L"
12734,"105 KAYFIELD PLACE","MADISON","MS",39110,32.5225111340001,-90.1226269799999,234,"105 KAYFIELD PLACE, MADISON, MS, 39110","Match","Exact","105 KAYFIELD PL, MADISON, MS, 39110",636469614,"R"
12735,"105 KAYLA DRIVE","FAYETTEVILLE","GA",30215,33.367693069,-84.430113471,235,"105 KAYLA DRIVE, FAYETTEVILLE, GA, 30215","Match","Exact","105 KAYLA DR, FAYETTEVILLE, GA, 30215",75926379,"R"
12736,"105 KEN CIR","FLINT","TX",75762,32.183418504,-95.321993866,236,"105 KEN CIR, FLINT, TX, 75762","Match","Exact","105 KEN CIR, FLINT, TX, 75762",627307400,"R"
12737,"105 KENT DRIVE","NORTH WALES","PA",19454,40.218524077,-75.239976978,237,"105 KENT DRIVE, NORTH WALES, PA, 19454","Match","Exact","105 KENT DR, NORTH WALES, PA, 19454",135107278,"R"
12738,"105 KENYON CT","JOPPA","MH",21085,NA,NA,238,"105 KENYON CT, JOPPA, MH, 21085","No_Match",NA,NA,NA,NA
12739,"105 KINGS HWY APT 2D","BROOKLYN","NY",11214,40.606124315,-73.9874498949999,239,"105 KINGS HWY APT 2D, BROOKLYN, NY, 11214","Match","Exact","105 KINGS HWY, BROOKLYN, NY, 11214",59088558,"L"
12740,"105 KINGS HWY","BROOKLYN","NY",11214,40.606124315,-73.9874498949999,240,"105 KINGS HWY, BROOKLYN, NY, 11214","Match","Exact","105 KINGS HWY, BROOKLYN, NY, 11214",59088558,"L"
12741,"105 KIPLING DRIVE","MILL VALLEY","CA",94941,37.9011785880001,-122.52183979,241,"105 KIPLING DRIVE, MILL VALLEY, CA, 94941","Match","Exact","105 KIPLING DR, MILL VALLEY, CA, 94941",192768620,"L"
12742,"105 KNOWLES LANE","WEST MONROE","LA",71291,32.5187425010001,-92.149195546,242,"105 KNOWLES LANE, WEST MONROE, LA, 71291","Match","Exact","105 KNOWLES LN, WEST MONROE, LA, 71291",612368862,"L"
12743,"105 KRISTEN COVE","MADISON","MS",39110,32.525502327,-90.122866516,243,"105 KRISTEN COVE, MADISON, MS, 39110","Match","Exact","105 KRISTEN COVE, MADISON, MS, 39110",648682678,"R"
12744,"105 LABAW COURT","HILLSBOROUGH","NJ",8844,40.4868298100001,-74.58891183,244,"105 LABAW COURT, HILLSBOROUGH, NJ, 8844","Match","Exact","105 LABAW CT, HILLSBOROUGH, NJ, 08844",651761871,"L"
12745,"105 LAKE ADA CIRCLE","SANFORD","FL",32773,28.7659457450001,-81.288714939,245,"105 LAKE ADA CIRCLE, SANFORD, FL, 32773","Match","Exact","105 LAKE ADA CIR, SANFORD, FL, 32773",93751432,"R"
12746,"105 LAKE BOWEN COURT","INMAN","SC",29349,35.1017213260001,-82.0441911359999,246,"105 LAKE BOWEN COURT, INMAN, SC, 29349","Match","Non_Exact","105 LAKE BOWEN DR, INMAN, SC, 29349",636581613,"R"
12747,"105 LAKE DRIVE","LAKE IN THE HILLS","IL",60156,42.1785274590001,-88.3211266609999,247,"105 LAKE DRIVE, LAKE IN THE HILLS, IL, 60156","Match","Exact","105 LAKE DR, LAKE IN THE HILLS, IL, 60156",119825371,"L"
12748,"105 LAKE EMERALD DRIVE UNIT 401","OAKLAND PARK","FL",33309,NA,NA,248,"105 LAKE EMERALD DRIVE UNIT 401, OAKLAND PARK, FL, 33309","No_Match",NA,NA,NA,NA
12749,"105 LAKE POWELL DRIVE","WEST MONROE","LA",71292,32.50499468,-92.2262263819999,249,"105 LAKE POWELL DRIVE, WEST MONROE, LA, 71292","Match","Exact","105 LAKE POWELL DR, WEST MONROE, LA, 71292",612374794,"R"
12750,"105 LAKE RIDGE DR","MASON","MI",48854,42.575202001,-84.512406523,250,"105 LAKE RIDGE DR, MASON, MI, 48854","Match","Exact","105 LAKE RIDGE DR, MASON, MI, 48854",618337533,"L"
12751,"105 LAKE TOP CT","ROSWELL","GA",30076,34.0043072550001,-84.309037186,251,"105 LAKE TOP CT, ROSWELL, GA, 30076","Match","Exact","105 LAKE TOP CT, ROSWELL, GA, 30076",17353399,"L"
12752,"105 LAKE VISTA DRIVE APT 1608","PONTE VEDRA BEACH","FL",32082,30.2511151730001,-81.392800011,252,"105 LAKE VISTA DRIVE APT 1608, PONTE VEDRA BEACH, FL, 32082","Match","Exact","105 LAKE VISTA DR, PONTE VEDRA BEACH, FL, 32082",639681111,"L"
12753,"105 LAKELAND SHORES RD","LAKELAND","MN",55043,44.9487821870001,-92.763813074,253,"105 LAKELAND SHORES RD, LAKELAND, MN, 55043","Match","Exact","105 LAKELAND SHORES RD, LAKELAND, MN, 55043",97824051,"R"
12754,"105 LAKERIDGE DR","HENDERSONVILLE","TN",37075,36.3299510640001,-86.658388698,254,"105 LAKERIDGE DR, HENDERSONVILLE, TN, 37075","Match","Non_Exact","105 LAKE RIDGE DR, HENDERSONVILLE, TN, 37075",29789814,"L"
12755,"105 LAKEWOOD DRIVE","GLEN CARBON","IL",62034,NA,NA,255,"105 LAKEWOOD DRIVE, GLEN CARBON, IL, 62034","No_Match",NA,NA,NA,NA
12756,"105 LANE XANG ROAD","GASTONIA","NC",28056,35.2892404080001,-81.069778143,256,"105 LANE XANG ROAD, GASTONIA, NC, 28056","Match","Exact","105 LANE XANG RD, GASTONIA, NC, 28056",649363237,"R"
12757,"105 LANKFORD AVE","CHARLOTTESVILLE","VA",22902,38.0214518550001,-78.487006966,257,"105 LANKFORD AVE, CHARLOTTESVILLE, VA, 22902","Match","Exact","105 LANKFORD AVE, CHARLOTTESVILLE, VA, 22902",640868316,"R"
12758,"105 LANKFORD AVENUE","CHARLOTTESVILLE","VA",22902,38.0214518550001,-78.487006966,258,"105 LANKFORD AVENUE, CHARLOTTESVILLE, VA, 22902","Match","Exact","105 LANKFORD AVE, CHARLOTTESVILLE, VA, 22902",640868316,"R"
12759,"105 LARCH ROW","WENHAM","MA",1984,42.598134665,-70.869609722,259,"105 LARCH ROW, WENHAM, MA, 1984","Match","Exact","105 LARCH ROW, WENHAM, MA, 01984",86691189,"R"
12760,"105 LAUREL ST","NEWPORT","AR",72112,35.6072887300001,-91.281382198,260,"105 LAUREL ST, NEWPORT, AR, 72112","Match","Exact","105 LAUREL ST, NEWPORT, AR, 72112",69426034,"L"
12761,"105 LAVENDER COURT","ROCKWALL","TX",75032,32.8455924130001,-96.3953978769999,261,"105 LAVENDER COURT, ROCKWALL, TX, 75032","Match","Non_Exact","105 LAVENDER PL, ROCKWALL, TX, 75032",629585314,"L"
12762,"105 LEGUIN LANE","LOCUST GROVE","GA",30248,33.3850215850001,-84.0577070099999,262,"105 LEGUIN LANE, LOCUST GROVE, GA, 30248","Match","Exact","105 LEGUIN LN, LOCUST GROVE, GA, 30248",23198652,"L"
12763,"105 LIMESTONE DR","BELLEFONTE","PA",16823,40.88655549,-77.739969187,263,"105 LIMESTONE DR, BELLEFONTE, PA, 16823","Match","Exact","105 LIMESTONE DR, BELLEFONTE, PA, 16823",50383094,"L"
12764,"105 LINCOLN  ROAD APT 5M","BROOKLYN","NY",11205,40.6610543790001,-73.959054723,264,"105 LINCOLN  ROAD APT 5M, BROOKLYN, NY, 11205","Match","Non_Exact","105 LINCOLN RD, BROOKLYN, NY, 11225",59079488,"L"
12765,"105 LINCOLN PKWY","EAST PEORIA","IL",61611,40.641899847,-89.5600634319999,265,"105 LINCOLN PKWY, EAST PEORIA, IL, 61611","Match","Exact","105 LINCOLN PKWY, EAST PEORIA, IL, 61611",22501113,"L"
12766,"105 LINDEN AVENUE","PRINCETON","NJ",8540,40.440196552,-74.583975669,266,"105 LINDEN AVENUE, PRINCETON, NJ, 8540","Match","Exact","105 LINDEN AVE, PRINCETON, NJ, 08540",59943342,"L"
12767,"105 LINDEN COVE","MADISON","MS",39110,32.5317075400001,-90.189210008,267,"105 LINDEN COVE, MADISON, MS, 39110","Match","Exact","105 LINDEN COVE, MADISON, MS, 39110",627552671,"L"
12768,"105 LINKSIDE DRIVE","SAINT SIMONS ISLAND","GA",31522,31.2038738480001,-81.370130903,268,"105 LINKSIDE DRIVE, SAINT SIMONS ISLAND, GA, 31522","Match","Exact","105 LINKSIDE DR, ST SIMONS ISLAND, GA, 31522",9147528,"L"
12769,"105 LINTON LANE","GUYTON","GA",31312,NA,NA,269,"105 LINTON LANE, GUYTON, GA, 31312","No_Match",NA,NA,NA,NA
12770,"105 LOCUST LANE","NEWBURGH","NY",12550,41.5283460430001,-74.051327457,270,"105 LOCUST LANE, NEWBURGH, NY, 12550","Match","Exact","105 LOCUST LN, NEWBURGH, NY, 12550",124411491,"L"
12771,"105 LOCUST LANE","WILLOW STREET","PA",17584,39.994028799,-76.2795601939999,271,"105 LOCUST LANE, WILLOW STREET, PA, 17584","Match","Exact","105 LOCUST LN, WILLOW STREET, PA, 17584",179677581,"L"
12772,"105 LOGAN RD","GREENWOOD","SC",29646,34.175961348,-82.230346174,272,"105 LOGAN RD, GREENWOOD, SC, 29646","Match","Exact","105 LOGAN RD, GREENWOOD, SC, 29646",50804495,"L"
12773,"105 LOMBARDY DRIVE","SHIRLEY","NY",11967,40.7473310440001,-72.8751611389999,273,"105 LOMBARDY DRIVE, SHIRLEY, NY, 11967","Match","Exact","105 LOMBARDY DR, SHIRLEY, NY, 11967",114023499,"L"
12774,"105 LONEBROOK DR","CHAPEL HILL","NC",27516,35.9624094270001,-79.062287482,274,"105 LONEBROOK DR, CHAPEL HILL, NC, 27516","Match","Exact","105 LONEBROOK DR, CHAPEL HILL, NC, 27516",72390489,"L"
12775,"105 LONG HOLLOW PIKE","GOODLETTSVILLE","TN",37072,36.3223253520001,-86.712439562,275,"105 LONG HOLLOW PIKE, GOODLETTSVILLE, TN, 37072","Match","Exact","105 LONG HOLLOW PIKE, GOODLETTSVILLE, TN, 37072",647605832,"L"
12776,"105 LONGVIEW DRIVE","SHIPPENSBURG","PA",17257,40.0452405230001,-77.498189262,276,"105 LONGVIEW DRIVE, SHIPPENSBURG, PA, 17257","Match","Exact","105 LONGVIEW DR, SHIPPENSBURG, PA, 17257",60962789,"R"
12777,"105 LORI DRIVE","WILLOW PARK","TX",76087,32.7658249140001,-97.641495097,277,"105 LORI DRIVE, WILLOW PARK, TX, 76087","Match","Exact","105 LORI DR, WILLOW PARK, TX, 76087",103596323,"R"
12778,"105 LOUDOUN STREET SE","LEESBURG","VA",20175,39.1137712600001,-77.563403804,278,"105 LOUDOUN STREET SE, LEESBURG, VA, 20175","Match","Exact","105 LOUDOUN ST SE, LEESBURG, VA, 20175",62323572,"L"
12779,"105 LOWNDES LANE","SUMMERVILLE","SC",29483,33.012404115,-80.196184697,279,"105 LOWNDES LANE, SUMMERVILLE, SC, 29483","Match","Exact","105 LOWNDES LN, SUMMERVILLE, SC, 29483",645292280,"R"
12780,"105 LUCYS PLACE","FAYETTEVILLE","GA",32015,33.396958893,-84.5241963999999,280,"105 LUCYS PLACE, FAYETTEVILLE, GA, 32015","Match","Non_Exact","105 LUCY'S PL, FAYETTEVILLE, GA, 30215",75934425,"R"
12781,"105 LYONS STREET","SPRING CITY","MD",37381,NA,NA,281,"105 LYONS STREET, SPRING CITY, MD, 37381","No_Match",NA,NA,NA,NA
12782,"105 MACLEAN RD","BREWSTER","MA",2631,41.738687332,-70.043580869,282,"105 MACLEAN RD, BREWSTER, MA, 2631","Match","Exact","105 MACLEAN RD, BREWSTER, MA, 02631",121570485,"L"
12783,"105 MADISON AVE","EVANSVILLE","IN",47713,37.9604776850001,-87.563545817,283,"105 MADISON AVE, EVANSVILLE, IN, 47713","Match","Exact","105 MADISON AVE, EVANSVILLE, IN, 47713",635872385,"R"
12784,"105 MADISON STREET","NEW CUMBERLAND","WV",26047,40.498198931,-80.610111639,284,"105 MADISON STREET, NEW CUMBERLAND, WV, 26047","Match","Exact","105 MADISON ST, NEW CUMBERLAND, WV, 26047",65504998,"L"
12785,"105 MAGNOLIA PLACE CIRCLE","BRANDON","MS",39047,32.366391944,-90.0489625279999,285,"105 MAGNOLIA PLACE CIRCLE, BRANDON, MS, 39047","Match","Exact","105 MAGNOLIA PLACE CIR, BRANDON, MS, 39047",649606714,"L"
12786,"105 MAIN ST","JOHNSON","NE",68378,40.409690088,-95.997950706,286,"105 MAIN ST, JOHNSON, NE, 68378","Match","Exact","105 MAIN ST, JOHNSON, NE, 68378",32465275,"L"
12787,"105 MAIN STREET","FALMOUTH","MA",2540,41.5530187750001,-70.617738549,287,"105 MAIN STREET, FALMOUTH, MA, 2540","Match","Exact","105 MAIN ST, FALMOUTH, MA, 02540",121573688,"L"
12788,"105 MANCHESTER DRIVE","MARIETTA","OH",45750,39.4096342890001,-81.472245103,288,"105 MANCHESTER DRIVE, MARIETTA, OH, 45750","Match","Exact","105 MANCHESTER DR, MARIETTA, OH, 45750",45685065,"L"
12789,"105 MAPLE AVENUE","WEST ORANGE","NJ",7052,40.7954248450001,-74.231749946,289,"105 MAPLE AVENUE, WEST ORANGE, NJ, 7052","Match","Non_Exact","105 MAPLE ST, WEST ORANGE, NJ, 07052",63449438,"R"
12790,"105 MAPLEWOOD ST","ROGERSVILLE","MO",65742,37.107271768,-93.0582366199999,290,"105 MAPLEWOOD ST, ROGERSVILLE, MO, 65742","Match","Exact","105 MAPLEWOOD ST, ROGERSVILLE, MO, 65742",226507990,"L"
12791,"105 MARIANNA DR","ABBEVILLE","AL",36310,31.5755367880001,-85.256552265,291,"105 MARIANNA DR, ABBEVILLE, AL, 36310","Match","Exact","105 MARIANNA DR, ABBEVILLE, AL, 36310",653329817,"L"
12792,"105 MARKET PLACE SUITE 5","GLASSBORO","NJ",8028,39.7115386990001,-75.110453034,292,"105 MARKET PLACE SUITE 5, GLASSBORO, NJ, 8028","Match","Exact","105 MARKET PL, GLASSBORO, NJ, 08028",134589166,"L"
12793,"105 MARY JANE LANE","NEW ORELANS","LA",70128,30.0639170540001,-89.951512927,293,"105 MARY JANE LANE, NEW ORELANS, LA, 70128","Match","Non_Exact","105 MARY JANE LN, NEW ORLEANS, LA, 70128",624937813,"L"
12794,"105 MASON RD","SILVERLAKE","WA",98645,46.3068996330001,-122.75937083,294,"105 MASON RD, SILVERLAKE, WA, 98645","Match","Exact","105 MASON RD, SILVERLAKE, WA, 98645",184494833,"R"
12795,"105 MASSBURY STREET","GAITHERSBURG","MD",20878,39.115825419,-77.2437849619999,295,"105 MASSBURY STREET, GAITHERSBURG, MD, 20878","Match","Exact","105 MASSBURY ST, GAITHERSBURG, MD, 20878",62098534,"R"
12796,"105 MCCONNELLS TRACE","LEXINGTON","KY",40511,NA,NA,296,"105 MCCONNELLS TRACE, LEXINGTON, KY, 40511","No_Match",NA,NA,NA,NA
12797,"105 MCINTOSH CROSSING","FAYETTEVILLE","GA",30214,33.4654380370001,-84.451939163,297,"105 MCINTOSH CROSSING, FAYETTEVILLE, GA, 30214","Match","Exact","105 MCINTOSH CROSSING, FAYETTEVILLE, GA, 30214",75940294,"R"
12798,"105 MEADOW STREAM DR","MOUNT HOLLY","NC",28120,35.2978576670001,-81.052624521,298,"105 MEADOW STREAM DR, MOUNT HOLLY, NC, 28120","Match","Exact","105 MEADOW STREAM DR, MOUNT HOLLY, NC, 28120",649286450,"L"
12799,"105 MELROSE AVENUE","TRYON","NC",28782,35.2071329280001,-82.240790985,299,"105 MELROSE AVENUE, TRYON, NC, 28782","Match","Exact","105 MELROSE AVE, TRYON, NC, 28782",44318271,"R"
12800,"105 MINK HOLLOW RD","COATESVILLE","PA",19320,39.9521017430001,-75.79293218,300,"105 MINK HOLLOW RD, COATESVILLE, PA, 19320","Match","Exact","105 MINK HOLLOW RD, COATESVILLE, PA, 19320",179536606,"L"
12801,"105 MIRANDA LN","GRIFFIN","GA",30223,33.294243034,-84.302987694,301,"105 MIRANDA LN, GRIFFIN, GA, 30223","Match","Non_Exact","105 MIRANDA DR, GRIFFIN, GA, 30223",618709806,"L"
12802,"105 MOBBLY BAY DR","OLDSMAR","FL",34677,28.021577915,-82.660654157,302,"105 MOBBLY BAY DR, OLDSMAR, FL, 34677","Match","Exact","105 MOBBLY BAY DR, OLDSMAR, FL, 34677",124800433,"R"
12803,"105 MONMOUTH AVE APT D-8","ASBURY PARK","NJ",7712,40.2165270420001,-74.018772999,303,"105 MONMOUTH AVE APT D-8, ASBURY PARK, NJ, 7712","Match","Exact","105 MONMOUTH AVE, ASBURY PARK, NJ, 07712",90463957,"L"
12804,"105 MONROE AVE","DOVER","NJ",7801,40.874702648,-74.54597122,304,"105 MONROE AVE, DOVER, NJ, 7801","Match","Exact","105 MONROE AVE, DOVER, NJ, 07801",60436746,"L"
12805,"105 MONT BLANC BLVD","DOVER","DE",19904,39.1683237180001,-75.547762593,305,"105 MONT BLANC BLVD, DOVER, DE, 19904","Match","Exact","105 MONT BLANC BLVD, DOVER, DE, 19904",633240736,"L"
12806,"105 MONTAGUE STREET - 103","BROOKLYN","NY",11201,40.6950417210001,-73.995174999,306,"105 MONTAGUE STREET - 103, BROOKLYN, NY, 11201","Match","Exact","105 MONTAGUE ST, BROOKLYN, NY, 11201",59074985,"L"
12807,"105 MORTON COURT","FORTSON","GU",31808,NA,NA,307,"105 MORTON COURT, FORTSON, GU, 31808","No_Match",NA,NA,NA,NA
12808,"105 MOSCIA LANE","WAYNE","PA",19087,40.0402036940001,-75.4068220469999,308,"105 MOSCIA LANE, WAYNE, PA, 19087","Match","Exact","105 MOSCIA LN, WAYNE, PA, 19087",134901611,"L"
12809,"105 MOUND AVE","EXCELSIOR","MN",55331,44.907734729,-93.5907024699999,309,"105 MOUND AVE, EXCELSIOR, MN, 55331","Match","Exact","105 MOUND AVE, EXCELSIOR, MN, 55331",43820048,"L"
12810,"105 N 2ND STREET","PHILADELPHIA","PA",19106,39.952119372,-75.143256127,310,"105 N 2ND STREET, PHILADELPHIA, PA, 19106","Match","Exact","105 N 2ND ST, PHILADELPHIA, PA, 19106",131424569,"R"
12811,"105 N 3RD ST","MIDLOTHIAN","TX",76065,32.4823320610001,-96.999899936,311,"105 N 3RD ST, MIDLOTHIAN, TX, 76065","Match","Exact","105 N 3RD ST, MIDLOTHIAN, TX, 76065",103447707,"R"
12812,"105 N 4TH STREET","GUNTER","TX",75058,33.4478112910001,-96.747412367,312,"105 N 4TH STREET, GUNTER, TX, 75058","Match","Exact","105 N 4TH ST, GUNTER, TX, 75058",63342896,"L"
12813,"105 N BARROW AVENUE","KIRBYVILLE","TX",75956,30.660858976,-93.896161507,313,"105 N BARROW AVENUE, KIRBYVILLE, TX, 75956","Match","Exact","105 N BARROW AVE, KIRBYVILLE, TX, 75956",32388279,"L"
12814,"105 N BAYARD AVE","SANTA CLARA","NM",88026,32.7750803430001,-108.152864825,314,"105 N BAYARD AVE, SANTA CLARA, NM, 88026","Match","Non_Exact","105 BAYARD ST, SANTA CLARA, NM, 88026",192656567,"R"
12815,"105 N BRUNSWICK AVENUE","SOUTH HILL","VA",23970,36.7269639040001,-78.130134238,315,"105 N BRUNSWICK AVENUE, SOUTH HILL, VA, 23970","Match","Exact","105 N BRUNSWICK AVE, SOUTH HILL, VA, 23970",54302711,"L"
12816,"105 N CAPITOL AVE","CORYDON","IN",47112,NA,NA,316,"105 N CAPITOL AVE, CORYDON, IN, 47112","Tie",NA,NA,NA,NA
12817,"105 N CONWAY ST APT A","HEBER SPRINGS","AR",72543,35.4919398380001,-92.0236325929999,317,"105 N CONWAY ST APT A, HEBER SPRINGS, AR, 72543","Match","Exact","105 CONWAY ST, HEBER SPRINGS, AR, 72543",43167570,"R"
12818,"105 N COURT ST","CROWN POINT","IN",46307,41.4185237720001,-87.3654979949999,318,"105 N COURT ST, CROWN POINT, IN, 46307","Match","Exact","105 N COURT ST, CROWN POINT, IN, 46307",98432816,"R"
12819,"105 N HALIFAX AVE","DAYTONA BEACH","FL",32118,29.226506853,-81.014506066,319,"105 N HALIFAX AVE, DAYTONA BEACH, FL, 32118","Match","Exact","105 N HALIFAX AVE, DAYTONA BEACH, FL, 32118",94525091,"L"
12820,"105 N HARVARD AVENUE","VILLA PARK","IL",60181,41.8912150690001,-87.984005393,320,"105 N HARVARD AVENUE, VILLA PARK, IL, 60181","Match","Exact","105 N HARVARD AVE, VILLA PARK, IL, 60181",112543028,"R"
12821,"105 N HIGH POINT RD","MADISON","WI",53717,43.068480965,-89.517601067,321,"105 N HIGH POINT RD, MADISON, WI, 53717","Match","Exact","105 N HIGH POINT RD, MADISON, WI, 53717",642076445,"R"
12822,"105 N HIGH ST","COLUMBUS GROVE","OH",45830,40.919586774,-84.057208191,322,"105 N HIGH ST, COLUMBUS GROVE, OH, 45830","Match","Exact","105 N HIGH ST, COLUMBUS GROVE, OH, 45830",36584129,"L"
12823,"105 N MAIN ST","COLLINSVILLE","TX",76233,33.560306149,-96.911281639,323,"105 N MAIN ST, COLLINSVILLE, TX, 76233","Match","Exact","105 N MAIN ST, COLLINSVILLE, TX, 76233",63348042,"R"
12824,"105 N MAIN ST","DENISON","IA",51442,42.0179291790001,-95.355282206,324,"105 N MAIN ST, DENISON, IA, 51442","Match","Exact","105 N MAIN ST, DENISON, IA, 51442",82261691,"L"
12825,"105 N MAIN ST","TOMPKINSVILLE","KY",42167,36.7000496950001,-85.6935456959999,325,"105 N MAIN ST, TOMPKINSVILLE, KY, 42167","Match","Exact","105 N MAIN ST, TOMPKINSVILLE, KY, 42167",29556645,"L"
12826,"105 N MAIN STREET  PO BOX 97","SPILLVILLE","IA",52168,43.206897757,-91.950778198,326,"105 N MAIN STREET  PO BOX 97, SPILLVILLE, IA, 52168","Match","Non_Exact","105 N MAIN ST, SPILLVILLE, IA, 52168",27511957,"L"
12827,"105 N MAIN","MCLOUD","OK",74851,35.4360542310001,-97.091871505,327,"105 N MAIN, MCLOUD, OK, 74851","Match","Non_Exact","105 N MAIN ST, MCLOUD, OK, 74851",607090957,"L"
12828,"105 N MINOR RD","KELSO","WA",98626,46.152593924,-122.899875642,328,"105 N MINOR RD, KELSO, WA, 98626","Match","Exact","105 MINOR RD, KELSO, WA, 98626",184516719,"L"
12829,"105 N PARK RD","TIFFIN","IA",52340,NA,NA,329,"105 N PARK RD, TIFFIN, IA, 52340","No_Match",NA,NA,NA,NA
12830,"105 N THORNCREST AVE","CREVE COEUR","IL",61610,40.6463236750001,-89.60096816,330,"105 N THORNCREST AVE, CREVE COEUR, IL, 61610","Match","Exact","105 N THORNCREST AVE, CREVE COEUR, IL, 61610",22496991,"L"
12831,"105 N VINE STREET","SHELBYVILLE","IN",46176,39.525257169,-85.767527629,331,"105 N VINE STREET, SHELBYVILLE, IN, 46176","Match","Exact","105 N VINE ST, SHELBYVILLE, IN, 46176",33217352,"L"
12832,"105 N WALNUT","CELINA","OH",45822,40.5494901070001,-84.5723606889999,332,"105 N WALNUT, CELINA, OH, 45822","Match","Non_Exact","105 N WALNUT ST, CELINA, OH, 45822",43111853,"L"
12833,"105 N WATER STREET","HILLS","MN",56138,NA,NA,333,"105 N WATER STREET, HILLS, MN, 56138","Tie",NA,NA,NA,NA
12834,"105 N WILLIAM","VICTORIA","TX",77901,28.7986290060001,-97.004053875,334,"105 N WILLIAM, VICTORIA, TX, 77901","Match","Non_Exact","105 N WILLIAM ST, VICTORIA, TX, 77901",44559573,"L"
12835,"105 NARROWWAY CT","BALTIMORE","MD",21231,NA,NA,335,"105 NARROWWAY CT, BALTIMORE, MD, 21231","No_Match",NA,NA,NA,NA
12836,"105 NCO DR","S BURLINGTON","VT",5403,44.4789438550001,-73.151845464,336,"105 NCO DR, S BURLINGTON, VT, 5403","Match","Exact","105 NCO DR, S BURLINGTON, VT, 05403",135842412,"L"
12837,"105 NCO DRIVE","SOUTH BURLINGTON","VT",5403,44.4789438550001,-73.151845464,337,"105 NCO DRIVE, SOUTH BURLINGTON, VT, 5403","Match","Exact","105 NCO DR, S BURLINGTON, VT, 05403",135842412,"L"
12838,"105 NIGHTSHADE LANE","GARNER","NC",27529,35.6229559110001,-78.544755704,338,"105 NIGHTSHADE LANE, GARNER, NC, 27529","Match","Exact","105 NIGHTSHADE LN, GARNER, NC, 27529",26553257,"L"
12839,"105 NOBLE VINES DR SUITE 4","CLARKSTON","GA",30021,NA,NA,339,"105 NOBLE VINES DR SUITE 4, CLARKSTON, GA, 30021","No_Match",NA,NA,NA,NA
12840,"105 NORTH 4TH STTREET","HENDERSON","MN",56044,44.5290015410001,-93.905691142,340,"105 NORTH 4TH STTREET, HENDERSON, MN, 56044","Match","Non_Exact","105 N 4TH ST, HENDERSON, MN, 56044",607217087,"L"
12841,"105 NORTH BLAKE ROAD UNIT 206","HOPKINS","MN",55343,NA,NA,341,"105 NORTH BLAKE ROAD UNIT 206, HOPKINS, MN, 55343","No_Match",NA,NA,NA,NA
12842,"105 NORTH CHURCH STREET","GASTONIA","NC",28054,35.2650409830001,-81.167723748,342,"105 NORTH CHURCH STREET, GASTONIA, NC, 28054","Match","Exact","105 N CHURCH ST, GASTONIA, NC, 28054",70413466,"L"
12843,"105 NORTH CREST PLACE","LAKEWOOD","NJ",8701,40.0908241340001,-74.2557738689999,343,"105 NORTH CREST PLACE, LAKEWOOD, NJ, 8701","Match","Exact","105 N CREST PL, LAKEWOOD, NJ, 08701",617580729,"L"
12844,"105 NORTH EDWARDS STREET","PLANT CITY","FL",33563,28.0131124270001,-82.148106405,344,"105 NORTH EDWARDS STREET, PLANT CITY, FL, 33563","Match","Exact","105 N EDWARDS ST, PLANT CITY, FL, 33563",104546907,"L"
12845,"105 NORTH GROVE STREET","MOUNT HOREB","WI",53572,43.0089399140001,-89.740378366,345,"105 NORTH GROVE STREET, MOUNT HOREB, WI, 53572","Match","Exact","105 N GROVE ST, MOUNT HOREB, WI, 53572",49540549,"R"
12846,"105 NORTH LINCOLN AVE SUITE 2","BEAVER DAM","WI",53916,43.4563961590001,-88.834230121,346,"105 NORTH LINCOLN AVE SUITE 2, BEAVER DAM, WI, 53916","Match","Exact","105 N LINCOLN AVE, BEAVER DAM, WI, 53916",53528066,"R"
12847,"105 NORTH NORTON AVENUE","SYLACAUGA","AL",35150,NA,NA,347,"105 NORTH NORTON AVENUE, SYLACAUGA, AL, 35150","Tie",NA,NA,NA,NA
12848,"105 NORTH PINE STREET","SPARTANBURG","SC",29302,34.952336846,-81.920775534,348,"105 NORTH PINE STREET, SPARTANBURG, SC, 29302","Match","Exact","105 N PINE ST, SPARTANBURG, SC, 29302",19468612,"R"
12849,"105 NORTH POND ROAD","AMSTON","CT",6231,41.6303868800001,-72.340435487,349,"105 NORTH POND ROAD, AMSTON, CT, 6231","Match","Exact","105 N POND RD, AMSTON, CT, 06231",619660083,"L"
12850,"105 NORTHERN AVE","GATESVILLE","TX",76528,31.4458653680001,-97.726675001,350,"105 NORTHERN AVE, GATESVILLE, TX, 76528","Match","Exact","105 NORTHERN AVE, GATESVILLE, TX, 76528",146557553,"L"
12851,"105 NORTHPARK DRIVE EAST","EAST STROUDSBURG","PA",18302,41.0627738330001,-75.045786178,351,"105 NORTHPARK DRIVE EAST, EAST STROUDSBURG, PA, 18302","Match","Exact","105 NORTHPARK DR E, E STROUDSBURG, PA, 18302",627849201,"L"
12852,"105 NURSERY LN STE 200","FORT WORTH","TX",76114,32.7598080450001,-97.3955423199999,352,"105 NURSERY LN STE 200, FORT WORTH, TX, 76114","Match","Exact","105 NURSERY LN, FORT WORTH, TX, 76114",651936857,"L"
12853,"105 NW 12TH AVENUE","SOUTH BAY","FL",33493,26.664308105,-80.723655116,353,"105 NW 12TH AVENUE, SOUTH BAY, FL, 33493","Match","Exact","105 NW 12TH AVE, SOUTH BAY, FL, 33493",115247072,"L"
12854,"105 NW 645TH TERR","GLADSTONE","MO",64118,NA,NA,354,"105 NW 645TH TERR, GLADSTONE, MO, 64118","No_Match",NA,NA,NA,NA
12855,"105 NWRR AVE UNIT 2033","HAMMOND","LA",70401,NA,NA,355,"105 NWRR AVE UNIT 2033, HAMMOND, LA, 70401","No_Match",NA,NA,NA,NA
12856,"105 OAK HILL CIRCLE","COVINGTON","GA",30016,33.542244612,-83.9690419189999,356,"105 OAK HILL CIRCLE, COVINGTON, GA, 30016","Match","Exact","105 OAK HILL CIR, COVINGTON, GA, 30016",23623418,"L"
12857,"105 OAK HOLLOW CT","GOLDSBORO","NC",27534,35.4633567750001,-77.921415914,357,"105 OAK HOLLOW CT, GOLDSBORO, NC, 27534","Match","Exact","105 OAK HOLLOW CT, GOLDSBORO, NC, 27534",605718996,"L"
12858,"105 OAK KNOLL WAY","ROSWELL","GA",30075,34.059595894,-84.37187425,358,"105 OAK KNOLL WAY, ROSWELL, GA, 30075","Match","Exact","105 OAK KNOLL WAY, ROSWELL, GA, 30075",17351822,"R"
12859,"105 OAKRIDGE COURT","COMBINED LOCKS","WI",54113,44.262233569,-88.296293538,359,"105 OAKRIDGE COURT, COMBINED LOCKS, WI, 54113","Match","Exact","105 OAKRIDGE CT, COMBINED LOCKS, WI, 54113",74898273,"L"
12860,"105 OAKWOOD CIRCLE","NICEVILLE","FL",32578,30.4733976270001,-86.414611042,360,"105 OAKWOOD CIRCLE, NICEVILLE, FL, 32578","Match","Exact","105 OAKWOOD CIR, NICEVILLE, FL, 32578",74435048,"L"
12861,"105 OLD MEADOWS RD","WILLIAMSBURG","VA",23188,37.2667738170001,-76.757148606,361,"105 OLD MEADOWS RD, WILLIAMSBURG, VA, 23188","Match","Exact","105 OLD MEADOWS RD, WILLIAMSBURG, VA, 23188",103776865,"R"
12862,"105 OLD YORK","BRIDGEWATER","NJ",8807,40.5574269640001,-74.6583221449999,362,"105 OLD YORK, BRIDGEWATER, NJ, 8807","Match","Non_Exact","105 OLD YORK RD, BRIDGEWATER, NJ, 08807",59944865,"L"
12863,"105 OLIVE STREET","TEXARKANA","AR",71854,33.42106971,-94.0413207559999,363,"105 OLIVE STREET, TEXARKANA, AR, 71854","Match","Exact","105 OLIVE ST, TEXARKANA, AR, 71854",57275938,"L"
12864,"105 PARADISE HARBOUR BLVD  201","NORTH PALM BEACH","FL",33408,26.8095440340001,-80.053708383,364,"105 PARADISE HARBOUR BLVD  201, NORTH PALM BEACH, FL, 33408","Match","Exact","105 PARADISE HARBOUR BLVD, NORTH PALM BEACH, FL, 33408",115349294,"L"
12865,"105 PARK PLACE","PINE BLUFF","AR",71601,34.2106582330001,-92.002563045,365,"105 PARK PLACE, PINE BLUFF, AR, 71601","Match","Exact","105 PARK PL, PINE BLUFF, AR, 71601",2552147,"L"
12866,"105 PARK STREET PO BOX 24","COON VALLEY","WI",54623,NA,NA,366,"105 PARK STREET PO BOX 24, COON VALLEY, WI, 54623","No_Match",NA,NA,NA,NA
12867,"105 PARKER HALL  3435 MAIN STREET","BUFFALO","NY",14214,42.941866937,-78.839062096,367,"105 PARKER HALL  3435 MAIN STREET, BUFFALO, NY, 14214","Match","Non_Exact","105 PARKER AVE, BUFFALO, NY, 14214",48296029,"R"
12868,"105 PARKWAY","ROCHELLE PARK","NJ",7662,40.8977385470001,-74.07597046,368,"105 PARKWAY, ROCHELLE PARK, NJ, 7662","Match","Exact","105 PARKWAY, ROCHELLE PARK, NJ, 07662",64384840,"R"
12869,"105 PARTRIDGE LANE","HUNTING VALLEY","OH",44022,41.4867711140001,-81.387879203,369,"105 PARTRIDGE LANE, HUNTING VALLEY, OH, 44022","Match","Non_Exact","105 PARTRIDGE LN, BENTLEYVILLE, OH, 44022",137432880,"L"
12870,"105 PAVO AVENUE","WAVERLY","TN",37185,36.0835122300001,-87.7958472669999,370,"105 PAVO AVENUE, WAVERLY, TN, 37185","Match","Exact","105 PAVO AVE, WAVERLY, TN, 37185",639938183,"R"
12871,"105 PEACE HAVEN COURT","WINSTON-SALEM","NC",27106,36.1222089980001,-80.310559901,371,"105 PEACE HAVEN COURT, WINSTON-SALEM, NC, 27106","Match","Non_Exact","105 PEACE HAVEN CT NW, WINSTON SALEM, NC, 27106",84667895,"L"
12872,"105 PEACEFUL LANE","WEST COLUMBIA","SC",29170,33.9275885070001,-81.182054146,372,"105 PEACEFUL LANE, WEST COLUMBIA, SC, 29170","Match","Exact","105 PEACEFUL LN, WEST COLUMBIA, SC, 29170",70052520,"R"
12873,"105 PEARSALL AVE","LYNBROOK","NY",11563,40.665167136,-73.672746014,373,"105 PEARSALL AVE, LYNBROOK, NY, 11563","Match","Exact","105 PEARSALL AVE, LYNBROOK, NY, 11563",147674900,"L"
12874,"105 PEBBLE BEACH COURT","FRANKFORT","KY",40601,38.1830719070001,-84.791995684,374,"105 PEBBLE BEACH COURT, FRANKFORT, KY, 40601","Match","Exact","105 PEBBLE BEACH CT, FRANKFORT, KY, 40601",97052199,"R"
12875,"105 PEBBLE BEACH DR","VICKSBURG","MS",39183,32.3937613040001,-90.774861201,375,"105 PEBBLE BEACH DR, VICKSBURG, MS, 39183","Match","Exact","105 PEBBLE BEACH DR, VICKSBURG, MS, 39183",71306135,"L"
12876,"105 PENNSYLVANIA AVENUE","LOUISVILLE","KY",40206,38.255549623,-85.683040837,376,"105 PENNSYLVANIA AVENUE, LOUISVILLE, KY, 40206","Match","Exact","105 PENNSYLVANIA AVE, LOUISVILLE, KY, 40206",640122450,"R"
12877,"105 PENNY LN","KELSO","WA",98626,46.189806635,-122.90984327,377,"105 PENNY LN, KELSO, WA, 98626","Match","Exact","105 PENNY LN, KELSO, WA, 98626",184517515,"L"
12878,"105 PICKARD STREET ROOM 110","SAN MARCOS","TX",78666,NA,NA,378,"105 PICKARD STREET ROOM 110, SAN MARCOS, TX, 78666","No_Match",NA,NA,NA,NA
12879,"105 PIDGEON ROOST LANE","CAMILLUS","NY",13031,NA,NA,379,"105 PIDGEON ROOST LANE, CAMILLUS, NY, 13031","No_Match",NA,NA,NA,NA
12880,"105 PIERCE ST","FIFE LAKE","MI",49633,44.576514247,-85.355323267,380,"105 PIERCE ST, FIFE LAKE, MI, 49633","Match","Exact","105 PIERCE ST, FIFE LAKE, MI, 49633",145544994,"R"
12881,"105 PINE CREEK TRL","ORMOND BEACH","FL",32174,29.330029117,-81.111205207,381,"105 PINE CREEK TRL, ORMOND BEACH, FL, 32174","Match","Exact","105 PINE CREEK TRL, ORMOND BEACH, FL, 32174",94585736,"L"
12882,"105 PINECREST CIR","BLUFFTON","SC",29910,32.2573456710001,-80.88917327,382,"105 PINECREST CIR, BLUFFTON, SC, 29910","Match","Exact","105 PINECREST CIR, BLUFFTON, SC, 29910",635577396,"L"
12883,"105 PINETREE DRIVE","WASHINGTON","NC",27889,35.5733346150001,-77.091993653,383,"105 PINETREE DRIVE, WASHINGTON, NC, 27889","Match","Exact","105 PINETREE DR, WASHINGTON, NC, 27889",67952856,"R"
12884,"105 PINNACLE RD","ELLINGTON","CT",6029,41.908834373,-72.440851782,384,"105 PINNACLE RD, ELLINGTON, CT, 6029","Match","Exact","105 PINNACLE RD, ELLINGTON, CT, 06029",57011502,"R"
12885,"105 PINNACLE TRAIL","IRVINE","CA",92618,33.6304681600001,-117.752865287,385,"105 PINNACLE TRAIL, IRVINE, CA, 92618","Match","Exact","105 PINNACLE TRL, IRVINE, CA, 92618",650075843,"R"
12886,"105 PLANTATION DRIVE","CRANSTON","RI",2920,41.760472237,-71.452998012,386,"105 PLANTATION DRIVE, CRANSTON, RI, 2920","Match","Exact","105 PLANTATION DR, CRANSTON, RI, 02920",47470940,"R"
12887,"105 PONCE DELEON DRIVE","ANDERSON","SC",29621,NA,NA,387,"105 PONCE DELEON DRIVE, ANDERSON, SC, 29621","No_Match",NA,NA,NA,NA
12888,"105 PONTIAC ROAD","QUINCY","MA",2169,42.2628860510001,-70.992776885,388,"105 PONTIAC ROAD, QUINCY, MA, 2169","Match","Exact","105 PONTIAC RD, QUINCY, MA, 02169",87249899,"R"
12889,"105 POPLAR GROVE RD","WILMINGTON","NC",28411,34.3076190370001,-77.7367399359999,389,"105 POPLAR GROVE RD, WILMINGTON, NC, 28411","Match","Exact","105 POPLAR GROVE RD, WILMINGTON, NC, 28411",14134538,"L"
12890,"105 PORTSMOUTH LN","NEWPORT","NC",28570,34.730975502,-76.865260387,390,"105 PORTSMOUTH LN, NEWPORT, NC, 28570","Match","Exact","105 PORTSMOUTH LN, NEWPORT, NC, 28570",33888959,"L"
12891,"105 PR 3407","BRIDGEPORT","TX",76426,33.1875214460001,-97.7944093579999,391,"105 PR 3407, BRIDGEPORT, TX, 76426","Match","Non_Exact","105 CO RD 3407, BRIDGEPORT, TX, 76426",103663512,"R"
12892,"105 PRAIRIE CROSSING COVE","LONOKE","AR",72086,NA,NA,392,"105 PRAIRIE CROSSING COVE, LONOKE, AR, 72086","No_Match",NA,NA,NA,NA
12893,"105 PREAKNESS DR","LAGRANGE","GA",30241,33.0148449600001,-84.9831030829999,393,"105 PREAKNESS DR, LAGRANGE, GA, 30241","Match","Exact","105 PREAKNESS DR, LAGRANGE, GA, 30241",617968140,"R"
12894,"105 PRIMROSE DRIVE","BLACKSBURG","VA",24060,37.2575970830001,-80.4116298439999,394,"105 PRIMROSE DRIVE, BLACKSBURG, VA, 24060","Match","Exact","105 PRIMROSE DR, BLACKSBURG, VA, 24060",73628264,"R"
12895,"105 PRIMROSE LANE","LA PORTE CITY","IA",50651,42.3158373410001,-92.201961296,395,"105 PRIMROSE LANE, LA PORTE CITY, IA, 50651","Match","Exact","105 PRIMROSE LN, LA PORTE CITY, IA, 50651",77245970,"L"
12896,"105 PRINCENTON BLVD","LOWELL","MA",1851,NA,NA,396,"105 PRINCENTON BLVD, LOWELL, MA, 1851","No_Match",NA,NA,NA,NA
12897,"105 PRYOR RD","RIDGEVILLE","SC",29472,33.09511193,-80.277866895,397,"105 PRYOR RD, RIDGEVILLE, SC, 29472","Match","Exact","105 PRYOR RD, RIDGEVILLE, SC, 29472",178455983,"R"
12898,"105 PULLIAM STREET","KING","NC",27021,36.2799171820001,-80.3606508129999,398,"105 PULLIAM STREET, KING, NC, 27021","Match","Exact","105 PULLIAM ST, KING, NC, 27021",56332254,"L"
12899,"105 QUAIL HOLLOW COURT","TULLAHOMA","TN",37388,35.398244719,-86.2009965029999,399,"105 QUAIL HOLLOW COURT, TULLAHOMA, TN, 37388","Match","Exact","105 QUAIL HOLLOW CT, TULLAHOMA, TN, 37388",58226571,"L"
12900,"105 R STREET NW","WASHINGTON","DC",20001,38.912611816,-77.01228767,400,"105 R STREET NW, WASHINGTON, DC, 20001","Match","Exact","105 R ST NW, WASHINGTON, DC, 20001",76224649,"R"
12901,"105 RANCHO LORENA DRIVE","LORENA","TX",76655,31.4247266180001,-97.244282633,401,"105 RANCHO LORENA DRIVE, LORENA, TX, 76655","Match","Exact","105 RANCHO LORENA DR, LORENA, TX, 76655",629617696,"R"
12902,"105 RED FOX DRIVE","JOHNSON CREEK","WI",53038,43.07467595,-88.759139573,402,"105 RED FOX DRIVE, JOHNSON CREEK, WI, 53038","Match","Exact","105 RED FOX DR, JOHNSON CREEK, WI, 53038",53251142,"L"
12903,"105 RED MAPLE CIRCLE","EASLEY","SC",29642,34.7838069700001,-82.548263994,403,"105 RED MAPLE CIRCLE, EASLEY, SC, 29642","Match","Exact","105 RED MAPLE CIR, EASLEY, SC, 29642",25473643,"L"
12904,"105 RESERVE RD","GREENSBURG","PA",15601,40.279382512,-79.504466943,404,"105 RESERVE RD, GREENSBURG, PA, 15601","Match","Exact","105 RESERVE RD, GREENSBURG, PA, 15601",627854817,"L"
12905,"105 RESERVOIR RD","JOHNSON","VT",5656,44.611968039,-72.7009632039999,405,"105 RESERVOIR RD, JOHNSON, VT, 5656","Match","Exact","105 RESERVOIR RD, JOHNSON, VT, 05656",136617964,"R"
12906,"105 RHODE ISLAND COURT","FREDERICK","MD",21701,39.411816672,-77.3999879209999,406,"105 RHODE ISLAND COURT, FREDERICK, MD, 21701","Match","Exact","105 RHODE ISLAND CT, FREDERICK, MD, 21701",60704260,"L"
12907,"105 RHONDA LANE","ROSE BUD","AR",72137,35.325444582,-91.9867991899999,407,"105 RHONDA LANE, ROSE BUD, AR, 72137","Match","Exact","105 RHONDA LN, ROSE BUD, AR, 72137",641797072,"L"
12908,"105 RING ROAD","PLYMPTON","MA",2367,41.9746159210001,-70.7870386669999,408,"105 RING ROAD, PLYMPTON, MA, 2367","Match","Exact","105 RING RD, PLYMPTON, MA, 02367",642659767,"L"
12909,"105 RIVER ROAD","SUNDERLAND","MA",1375,42.458127689,-72.582611163,409,"105 RIVER ROAD, SUNDERLAND, MA, 1375","Match","Exact","105 RIVER RD, SUNDERLAND, MA, 01375",39942881,"L"
12910,"105 RIVER STREET","GREENVILLE","SC",29601,34.8465982760001,-82.404306433,410,"105 RIVER STREET, GREENVILLE, SC, 29601","Match","Exact","105 RIVER ST, GREENVILLE, SC, 29601",38321766,"L"
12911,"105 RIVERSIDE DRIVE","SUFFOLK","VA",23435,36.880430125,-76.490021446,411,"105 RIVERSIDE DRIVE, SUFFOLK, VA, 23435","Match","Exact","105 RIVERSIDE DR, SUFFOLK, VA, 23435",122231056,"R"
12912,"105 RIVERVIEW DRIVE","VINTON","IA",52349,42.168746153,-92.0071260779999,412,"105 RIVERVIEW DRIVE, VINTON, IA, 52349","Match","Exact","105 RIVERVIEW DR, VINTON, IA, 52349",94710982,"L"
12913,"105 ROSEBUD ST  PO BOX 1009","BALDWIN","LA",70514,NA,NA,413,"105 ROSEBUD ST  PO BOX 1009, BALDWIN, LA, 70514","Tie",NA,NA,NA,NA
12914,"105 ROSWELL FARMS CT","ROSWELL","GA",30075,34.0202325700001,-84.369188412,414,"105 ROSWELL FARMS CT, ROSWELL, GA, 30075","Match","Exact","105 ROSWELL FARMS CT, ROSWELL, GA, 30075",17386455,"R"
12915,"105 ROTHERY RD APT A","CHARLOTTESVILLE","VA",22903,38.0406885450001,-78.508753871,415,"105 ROTHERY RD APT A, CHARLOTTESVILLE, VA, 22903","Match","Exact","105 ROTHERY RD, CHARLOTTESVILLE, VA, 22903",83369090,"R"
12916,"105 ROTHMOOR DR","GILBERT","IA",50105,42.1062839460001,-93.6447667049999,416,"105 ROTHMOOR DR, GILBERT, IA, 50105","Match","Exact","105 ROTHMOOR DR, GILBERT, IA, 50105",636279574,"L"
12917,"105 ROYAL LAGOON COURT","PONTE VEDRA","FL",32082,30.2212906500001,-81.3982051089999,417,"105 ROYAL LAGOON COURT, PONTE VEDRA, FL, 32082","Match","Exact","105 ROYAL LAGOON CT, PONTE VEDRA, FL, 32082",92601863,"R"
12918,"105 RUTGERS AVE 101","SWARTHMORE","PA",19081,39.90103478,-75.350459316,418,"105 RUTGERS AVE 101, SWARTHMORE, PA, 19081","Match","Exact","105 RUTGERS AVE, SWARTHMORE, PA, 19081",134879203,"L"
12919,"105 RUTGERS AVENUE NO 121","SWARTHMORE","PA",19081,39.90103478,-75.350459316,419,"105 RUTGERS AVENUE NO 121, SWARTHMORE, PA, 19081","Match","Non_Exact","105 RUTGERS AVE, SWARTHMORE, PA, 19081",134879203,"L"
12920,"105 RUTLAND STREET","WATERTOWN","MA",2472,42.371036836,-71.2055049589999,420,"105 RUTLAND STREET, WATERTOWN, MA, 2472","Match","Exact","105 RUTLAND ST, WATERTOWN, MA, 02472",653285516,"R"
12921,"105 S 1ST STREET UNIT 305","YAKIMA","WA",98901,NA,NA,421,"105 S 1ST STREET UNIT 305, YAKIMA, WA, 98901","Tie",NA,NA,NA,NA
12922,"105 S 31ST STREET","WEST DES MOINES","IA",50265,41.569884141,-93.7453620759999,422,"105 S 31ST STREET, WEST DES MOINES, IA, 50265","Match","Exact","105 S 31ST ST, W DES MOINES, IA, 50265",65795267,"R"
12923,"105 S ALLISON","GREENFIELD","MO",65661,37.4149242170001,-93.841303916,423,"105 S ALLISON, GREENFIELD, MO, 65661","Match","Non_Exact","105 ALLISON AVE, GREENFIELD, MO, 65661",76632640,"L"
12924,"105 S BLAIR ST","CRAWFORDSVILLE","IN",47933,40.041554024,-86.912150068,424,"105 S BLAIR ST, CRAWFORDSVILLE, IN, 47933","Match","Exact","105 S BLAIR ST, CRAWFORDSVILLE, IN, 47933",29362523,"L"
12925,"105 S CHARLES STREET","DALLASTOWN","PA",17313,39.8999420800001,-76.641703978,425,"105 S CHARLES STREET, DALLASTOWN, PA, 17313","Match","Exact","105 S CHARLES ST, DALLASTOWN, PA, 17313",88749507,"L"
12926,"105 S GLEN ARVEN AVE","TEMPLE TERRACE","FL",33617,28.032268457,-82.383949291,426,"105 S GLEN ARVEN AVE, TEMPLE TERRACE, FL, 33617","Match","Exact","105 S GLEN ARVEN AVE, TEMPLE TER, FL, 33617",104532670,"R"
12927,"105 S MADISON AVE","SPRING VALLEY","NY",10977,41.1028832270001,-74.0479868909999,427,"105 S MADISON AVE, SPRING VALLEY, NY, 10977","Match","Exact","105 S MADISON AVE, SPRING VALLEY, NY, 10977",124627495,"R"
12928,"105 S MAIN ST 550","HOPKINSVILLE","KY",42240,NA,NA,428,"105 S MAIN ST 550, HOPKINSVILLE, KY, 42240","Tie",NA,NA,NA,NA
12929,"105 S MANZANITA DR","EL PASO","TX",79928,31.6826328720001,-106.251045304,429,"105 S MANZANITA DR, EL PASO, TX, 79928","Match","Exact","105 S MANZANITA DR, EL PASO, TX, 79928",651819214,"L"
12930,"105 S NEWLAND STREET","LAKEWOOD","CO",80226,NA,NA,430,"105 S NEWLAND STREET, LAKEWOOD, CO, 80226","Tie",NA,NA,NA,NA
12931,"105 S PAUL LAURENCE DUNBAR","DAYTON","OH",45402,39.754128473,-84.218094719,431,"105 S PAUL LAURENCE DUNBAR, DAYTON, OH, 45402","Match","Non_Exact","105 S PAUL LAURENCE DUNBAR ST, DAYTON, OH, 45402",143570329,"R"
12932,"105 S RIVER ST","SEGUIN","TX",78155,29.5688359170001,-97.963780866,432,"105 S RIVER ST, SEGUIN, TX, 78155","Match","Exact","105 S RIVER ST, SEGUIN, TX, 78155",54827849,"L"
12933,"105 S SECOND STREET","OAKLAND","MD",21550,39.4090578190001,-79.4079256479999,433,"105 S SECOND STREET, OAKLAND, MD, 21550","Match","Exact","105 S 2ND ST, OAKLAND, MD, 21550",74181117,"L"
12934,"105 S US HIGHWAY 301 UNIT 110","TAMPA","FL",33619,NA,NA,434,"105 S US HIGHWAY 301 UNIT 110, TAMPA, FL, 33619","No_Match",NA,NA,NA,NA
12935,"105 SADDLEBACK CIR","YOUNGSVILLE","LA",70592,30.1107198230001,-91.999350179,435,"105 SADDLEBACK CIR, YOUNGSVILLE, LA, 70592","Match","Exact","105 SADDLEBACK CIR, YOUNGSVILLE, LA, 70592",636255342,"L"
12936,"105 SAINT JAMES PLACE","BROOKLYN","NY",11238,40.686243651,-73.964336005,436,"105 SAINT JAMES PLACE, BROOKLYN, NY, 11238","Match","Exact","105 ST JAMES PL, BROOKLYN, NY, 11238",59077965,"L"
12937,"105 SALTYBROOK LANE","HOLLY SPRINGS","NC",27540,35.670124689,-78.827239804,437,"105 SALTYBROOK LANE, HOLLY SPRINGS, NC, 27540","Match","Exact","105 SALTYBROOK LN, HOLLY SPRINGS, NC, 27540",612813189,"L"
12938,"105 SAN GABRIEL COURT","SAN PABLO","CA",94806,37.9639273560001,-122.340687923,438,"105 SAN GABRIEL COURT, SAN PABLO, CA, 94806","Match","Exact","105 SAN GABRIEL CT, SAN PABLO, CA, 94806",614388955,"L"
12939,"105 SANFORD ST STE 101","BROOKLYN","NY",11205,NA,NA,439,"105 SANFORD ST STE 101, BROOKLYN, NY, 11205","No_Match",NA,NA,NA,NA
12940,"105 SCARLETT PLACE DRIVE","BOWDON","GA",30108,33.5437615800001,-85.236703478,440,"105 SCARLETT PLACE DRIVE, BOWDON, GA, 30108","Match","Exact","105 SCARLETT PLACE DR, BOWDON, GA, 30108",627633365,"R"
12941,"105 SCOTT ROAD","CUMBERLAND","RI",2864,41.945397873,-71.426367324,441,"105 SCOTT ROAD, CUMBERLAND, RI, 2864","Match","Exact","105 SCOTT RD, CUMBERLAND, RI, 02864",47508631,"R"
12942,"105 SCOTTISH AVENUE","SIMPSONVILLE","SC",29680,34.7097990010001,-82.27956361,442,"105 SCOTTISH AVENUE, SIMPSONVILLE, SC, 29680","Match","Exact","105 SCOTTISH AVE, SIMPSONVILLE, SC, 29680",618096006,"L"
12943,"105 SE 35TH ST","OAK ISLAND","NC",28465,33.9158440750001,-78.126659509,443,"105 SE 35TH ST, OAK ISLAND, NC, 28465","Match","Exact","105 SE 35TH ST, OAK ISLAND, NC, 28465",153181630,"L"
12944,"105 SE 3RD STREET","BATTLE GROUND","WA",98604,45.7787654200001,-122.536197224,444,"105 SE 3RD STREET, BATTLE GROUND, WA, 98604","Match","Exact","105 SE 3RD ST, BATTLE GROUND, WA, 98604",158315159,"L"
12945,"105 SEABREEZE DR","DARTMOUTH","MA",2748,41.6022337590001,-70.9381302259999,445,"105 SEABREEZE DR, DARTMOUTH, MA, 2748","Match","Non_Exact","105 SEA BREEZE DR, DARTMOUTH, MA, 02748",46789268,"L"
12946,"105 SECOND ST","COALDALE","PA",18218,40.9069068760001,-76.125501514,446,"105 SECOND ST, COALDALE, PA, 18218","Match","Exact","105 SECOND ST, COALDALE, PA, 18218",70932747,"R"
12947,"105 SECOND STREET","ALBANY","NY",12210,42.660135435,-73.756358356,447,"105 SECOND STREET, ALBANY, NY, 12210","Match","Exact","105 2ND ST, ALBANY, NY, 12210",18310407,"R"
12948,"105 SERRA WAY 152","MILPITAS","CA",95035,37.4281127950001,-121.907389917,448,"105 SERRA WAY 152, MILPITAS, CA, 95035","Match","Exact","105 SERRA WAY, MILPITAS, CA, 95035",123158562,"L"
12949,"105 SHADDEN SPRINGS","GRAY","TN",37615,36.362590331,-82.478988704,449,"105 SHADDEN SPRINGS, GRAY, TN, 37615","Match","Exact","105 SHADDEN SPRINGS, GRAY, TN, 37615",645414921,"L"
12950,"105 SHARON LANE","GREENLAWN","NY",11740,40.8613689970001,-73.348012759,450,"105 SHARON LANE, GREENLAWN, NY, 11740","Match","Exact","105 SHARON LN, GREENLAWN, NY, 11740",113964742,"L"
12951,"105 SHELL DRIVE","BONITA SPRINGS","FL",34134,26.327856286,-81.771747945,451,"105 SHELL DRIVE, BONITA SPRINGS, FL, 34134","Match","Exact","105 SHELL DR, BONITA SPGS, FL, 34134",118052016,"L"
12952,"105 SHOREHAM WAY","MERRICK","NY",11566,40.6539383,-73.5406903799999,452,"105 SHOREHAM WAY, MERRICK, NY, 11566","Match","Exact","105 SHOREHAM WAY, MERRICK, NY, 11566",147636970,"L"
12953,"105 SIERRA VALLEY LOOP","MAUMELLE","AR",72113,34.8678616880001,-92.42630224,453,"105 SIERRA VALLEY LOOP, MAUMELLE, AR, 72113","Match","Exact","105 SIERRA VALLEY LOOP, MAUMELLE, AR, 72113",618978514,"R"
12954,"105 SILVER FALLS DRIVE","APOLLO BEACH","FL",33572,27.7607667770001,-82.400542478,454,"105 SILVER FALLS DRIVE, APOLLO BEACH, FL, 33572","Match","Exact","105 SILVER FALLS DR, APOLLO BEACH, FL, 33572",630043273,"L"
12955,"105 SIMPSON STREET","CARRBORO","NC",27510,35.9217561570001,-79.087603633,455,"105 SIMPSON STREET, CARRBORO, NC, 27510","Match","Exact","105 SIMPSON ST, CARRBORO, NC, 27510",72378177,"R"
12956,"105 SIMSBURY LANE","MACON","GA",31220,32.8278662050001,-83.745005433,456,"105 SIMSBURY LANE, MACON, GA, 31220","Match","Exact","105 SIMSBURY LN, MACON, GA, 31220",81076080,"R"
12957,"105 SKYLINE DRIVE","CALIFORNIA","PA",15419,40.062078064,-79.900384848,457,"105 SKYLINE DRIVE, CALIFORNIA, PA, 15419","Match","Exact","105 SKYLINE DR, CALIFORNIA, PA, 15419",52832847,"L"
12958,"105 SMITH RD","LANDRUM","SC",29356,35.0991567500001,-82.227513758,458,"105 SMITH RD, LANDRUM, SC, 29356","Match","Exact","105 SMITH RD, LANDRUM, SC, 29356",38316806,"L"
12959,"105 SMITH ST","PEMBROKE","VA",24136,37.3221634770001,-80.63216485,459,"105 SMITH ST, PEMBROKE, VA, 24136","Match","Exact","105 SMITH ST, PEMBROKE, VA, 24136",46983115,"L"
12960,"105 SOUTH 2ND ST SUITE 2","FORT COLLINS","CO",80525,NA,NA,460,"105 SOUTH 2ND ST SUITE 2, FORT COLLINS, CO, 80525","No_Match",NA,NA,NA,NA
12961,"105 SOUTH 820 EAST","AMERICAN FORK","UT",84003,40.3737379900001,-111.775648448,461,"105 SOUTH 820 EAST, AMERICAN FORK, UT, 84003","Match","Exact","105 S 820 E, AMERICAN FORK, UT, 84003",641006007,"R"
12962,"105 SOUTH BROADWAY","TALOGA","OK",73667,NA,NA,462,"105 SOUTH BROADWAY, TALOGA, OK, 73667","No_Match",NA,NA,NA,NA
12963,"105 SOUTH GREEN STREET","TEHACHAPI","CA",93561,35.131981857,-118.447547278,463,"105 SOUTH GREEN STREET, TEHACHAPI, CA, 93561","Match","Exact","105 S GREEN ST, TEHACHAPI, CA, 93561",108983153,"L"
12964,"105 SOUTH HILL AVE","OGILVIE","MN",56358,45.828701278,-93.425837894,464,"105 SOUTH HILL AVE, OGILVIE, MN, 56358","Match","Exact","105 S HILL AVE, OGILVIE, MN, 56358",163034671,"L"
12965,"105 SOUTH PERSHING AVENUE","AKRON","OH",44313,41.112364272,-81.58185952,465,"105 SOUTH PERSHING AVENUE, AKRON, OH, 44313","Match","Exact","105 S PERSHING AVE, AKRON, OH, 44313",61337984,"R"
12966,"105 SOUTH ROBERTA AVENUE","DOTHAN","AL",36301,31.2278092060001,-85.419002317,466,"105 SOUTH ROBERTA AVENUE, DOTHAN, AL, 36301","Match","Exact","105 S ROBERTA AVE, DOTHAN, AL, 36301",101213719,"L"
12967,"105 SOUTH SPRING STREET","BELLEFONTE","PA",16823,40.9114961080001,-77.779541083,467,"105 SOUTH SPRING STREET, BELLEFONTE, PA, 16823","Match","Exact","105 S SPRING ST, BELLEFONTE, PA, 16823",50379078,"L"
12968,"105 SOUTH ST","UPTON","MA",1568,42.1446756240001,-71.6002037919999,468,"105 SOUTH ST, UPTON, MA, 1568","Match","Exact","105 SOUTH ST, UPTON, MA, 01568",40107439,"R"
12969,"105 SOUTH STREET","HIGHLAND SPRINGS","VA",23075,37.535544154,-77.342113066,469,"105 SOUTH STREET, HIGHLAND SPRINGS, VA, 23075","Match","Exact","105 SOUTH ST, HIGHLAND SPGS, VA, 23075",636821667,"R"
12970,"105 SOUTH TURNER BLVD BUILDING 834","MAFB-GUNTER ANNEX","AL",36114,NA,NA,470,"105 SOUTH TURNER BLVD BUILDING 834, MAFB-GUNTER ANNEX, AL, 36114","No_Match",NA,NA,NA,NA
12971,"105 SOUTHERNPINE RD","COLUMBIA","SC",29229,34.1516788210001,-80.873071218,471,"105 SOUTHERNPINE RD, COLUMBIA, SC, 29229","Match","Non_Exact","105 SOUTHERN PINE RD, COLUMBIA, SC, 29229",630186108,"L"
12972,"105 SQUIRE STREET","NEW LONDON","CT",6320,41.344352433,-72.109936342,472,"105 SQUIRE STREET, NEW LONDON, CT, 6320","Match","Exact","105 SQUIRE ST, NEW LONDON, CT, 06320",56851194,"R"
12973,"105 ST PAULS AVE","SMITHFIELD","VA",23430,36.980944987,-76.612702617,473,"105 ST PAULS AVE, SMITHFIELD, VA, 23430","Match","Non_Exact","105 SAINT PAUL'S AVE, SMITHFIELD, VA, 23430",641754572,"L"
12974,"105 STAMFORD DRIVE","MOUNT LAUREL","NJ",8054,NA,NA,474,"105 STAMFORD DRIVE, MOUNT LAUREL, NJ, 8054","No_Match",NA,NA,NA,NA
12975,"105 START RD","CAMDEN","ME",4843,44.2407308410001,-69.095345027,475,"105 START RD, CAMDEN, ME, 4843","Match","Exact","105 START RD, CAMDEN, ME, 04843",75563656,"R"
12976,"105 STONE ST","FORNEY","TX",75126,32.7642115190001,-96.4801894349999,476,"105 STONE ST, FORNEY, TX, 75126","Match","Exact","105 STONE ST, FORNEY, TX, 75126",619896237,"L"
12977,"105 STONERIDGE CT","YOUNGSVILLE","NC",27596,35.9968957360001,-78.4513208939999,477,"105 STONERIDGE CT, YOUNGSVILLE, NC, 27596","Match","Exact","105 STONERIDGE CT, YOUNGSVILLE, NC, 27596",90246320,"L"
12978,"105 SUMMER LARK PLACE","THE WOODLANDS","TX",77382,30.2177453090001,-95.519342759,478,"105 SUMMER LARK PLACE, THE WOODLANDS, TX, 77382","Match","Exact","105 SUMMER LARK PL, THE WOODLANDS, TX, 77382",79318630,"L"
12979,"105 SUNNYSIDE DR","CHATTANOOGA","TN",37411,35.024243653,-85.242001252,479,"105 SUNNYSIDE DR, CHATTANOOGA, TN, 37411","Match","Exact","105 SUNNYSIDE DR, CHATTANOOGA, TN, 37411",59311031,"L"
12980,"105 SURRY DR","NASHVILLE","NC",27856,35.9521556240001,-77.9569642169999,480,"105 SURRY DR, NASHVILLE, NC, 27856","Match","Exact","105 SURRY DR, NASHVILLE, NC, 27856",90399113,"R"
12981,"105 SUZANNE COURT","MERRITT ISLAND","FL",32952,28.3551518360001,-80.665822011,481,"105 SUZANNE COURT, MERRITT ISLAND, FL, 32952","Match","Non_Exact","105 S SUZANNE CT, MERRITT ISLAND, FL, 32952",93898704,"R"
12982,"105 TALL PINES ROAD","GASTON","SC",29053,NA,NA,482,"105 TALL PINES ROAD, GASTON, SC, 29053","No_Match",NA,NA,NA,NA
12983,"105 TALLY DRIVE","PITTSBURGH","PA",15237,40.5385447300001,-80.020857602,483,"105 TALLY DRIVE, PITTSBURGH, PA, 15237","Match","Non_Exact","105 TALLEY DR, PITTSBURGH, PA, 15237",631289030,"R"
12984,"105 TAYLORS CREEK RD","BEAUFORT","NC",28516,34.710846292,-76.636130209,484,"105 TAYLORS CREEK RD, BEAUFORT, NC, 28516","Match","Exact","105 TAYLORS CREEK RD, BEAUFORT, NC, 28516",33869358,"L"
12985,"105 THE GRN RM 108","NEWARK","DE",19716,39.6813009050001,-75.752095544,485,"105 THE GRN RM 108, NEWARK, DE, 19716","Match","Non_Exact","105 THE GREEN, NEWARK, DE, 19716",606267801,"L"
12986,"105 THOMAS AVE","BROOMALL","PA",19008,39.9832327240001,-75.3432244059999,486,"105 THOMAS AVE, BROOMALL, PA, 19008","Match","Exact","105 THOMAS AVE, BROOMALL, PA, 19008",134873462,"R"
12987,"105 THOMASON BLVD UNIT F","GOOSE CREEK","SC",29445,33.0015450280001,-80.0398450019999,487,"105 THOMASON BLVD UNIT F, GOOSE CREEK, SC, 29445","Match","Exact","105 THOMASON BLVD, GOOSE CREEK, SC, 29445",100746100,"L"
12988,"105 THORNTON ST","SAN LEANDRO","CA",94577,37.721496717,-122.152808598,488,"105 THORNTON ST, SAN LEANDRO, CA, 94577","Match","Exact","105 THORNTON ST, SAN LEANDRO, CA, 94577",617284295,"L"
12989,"105 TIMBER CREEK COURT","ARGYLE","TX",76226,33.1293964180001,-97.183761958,489,"105 TIMBER CREEK COURT, ARGYLE, TX, 76226","Match","Non_Exact","105 TIMBER CREEK DR, ARGYLE, TX, 76226",614152695,"R"
12990,"105 TIMBER LANE","JUPITER","FL",33458,26.9233601610001,-80.110840324,490,"105 TIMBER LANE, JUPITER, FL, 33458","Match","Exact","105 TIMBER LN, JUPITER, FL, 33458",115263272,"R"
12991,"105 TIMBERLYNE COURT","CHAPEL HILL","NC",27514,35.9614281550001,-79.0478677409999,491,"105 TIMBERLYNE COURT, CHAPEL HILL, NC, 27514","Match","Exact","105 TIMBERLYNE CT, CHAPEL HILL, NC, 27514",72388769,"R"
12992,"105 TIMOTHY COURT","EATONTON","GA",31024,33.412716947,-83.2702455359999,492,"105 TIMOTHY COURT, EATONTON, GA, 31024","Match","Exact","105 TIMOTHY CT, EATONTON, GA, 31024",636063249,"L"
12993,"105 TOP FOREST DR","COLUMBIA","SC",29209,33.9682962150001,-80.951324676,493,"105 TOP FOREST DR, COLUMBIA, SC, 29209","Match","Exact","105 TOP FOREST DR, COLUMBIA, SC, 29209",645316443,"L"
12994,"105 TOWNSEND DRIVE","SLAUGHTERS","KY",42456,37.475923111,-87.497163101,494,"105 TOWNSEND DRIVE, SLAUGHTERS, KY, 42456","Match","Exact","105 TOWNSEND DR, SLAUGHTERS, KY, 42456",11517702,"R"
12995,"105 TOWNVIEW DRIVE","WAPPINGERS FALLS","NY",12591,41.5285273150001,-73.969835616,495,"105 TOWNVIEW DRIVE, WAPPINGERS FALLS, NY, 12591","Match","Non_Exact","105 TOWN VIEW DR, WAPPINGERS FALLS, NY, 12590",4181092,"L"
12996,"105 TRADING BAY RD SUITE 103","KENAI","AK",99611,60.5595484570001,-151.24661813,496,"105 TRADING BAY RD SUITE 103, KENAI, AK, 99611","Match","Exact","105 TRADING BAY RD, KENAI, AK, 99611",190995763,"L"
12997,"105 TRANSCRAFT DRIVE","ANNA","IL",62906,37.4577502440001,-89.234139103,497,"105 TRANSCRAFT DRIVE, ANNA, IL, 62906","Match","Exact","105 TRANSCRAFT DR, ANNA, IL, 62906",5969190,"L"
12998,"105 TRIFF COURT","FOLSOM","CA",95630,38.6661535000001,-121.164635935,498,"105 TRIFF COURT, FOLSOM, CA, 95630","Match","Exact","105 TRIFF CT, FOLSOM, CA, 95630",133384283,"L"
12999,"105 TURNER STREET","MAYVILLE","WI",53050,43.4971043200001,-88.540652156,499,"105 TURNER STREET, MAYVILLE, WI, 53050","Match","Exact","105 TURNER ST, MAYVILLE, WI, 53050",53531411,"L"
13000,"105 UPPER HOLIDAY LANE F324","BEECH MOUNTAIN","NC",28604,36.1983552350001,-81.882343282,500,"105 UPPER HOLIDAY LANE F324, BEECH MOUNTAIN, NC, 28604","Match","Exact","105 UPPER HOLIDAY LN, BEECH MOUNTAIN, NC, 28604",648459914,"L"
