"ID","Address","City","State","Zip","lat","long","id","input_address","match_indicator","match_type","matched_address","tiger_line_id","tiger_side"
304501,"8635 N PINERY PKWY","PARKER","CO",80134,NA,NA,1,"8635 N PINERY PKWY, PARKER, CO, 80134","Tie",NA,NA,NA,NA
304502,"8635 W SAHARA AVE  SUITE 680","LAS VEGAS","NV",89117,36.144108454,-115.28034735,2,"8635 W SAHARA AVE  SUITE 680, LAS VEGAS, NV, 89117","Match","Non_Exact","8635 W SAHARA AVE, LAS VEGAS, NV, 89117",201861531,"L"
304503,"8635 W SAHARA AVE 3044","LAS VEGAS","NV",89117,36.144108454,-115.28034735,3,"8635 W SAHARA AVE 3044, LAS VEGAS, NV, 89117","Match","Non_Exact","8635 W SAHARA AVE, LAS VEGAS, NV, 89117",201861531,"L"
304504,"8635 W SAHARA AVE 438","LAS VEGAS","NV",89117,36.144108454,-115.28034735,4,"8635 W SAHARA AVE 438, LAS VEGAS, NV, 89117","Match","Non_Exact","8635 W SAHARA AVE, LAS VEGAS, NV, 89117",201861531,"L"
304505,"8635 W SAHARA AVE SUITE 538","LAS VEGAS","NV",89117,36.144108454,-115.28034735,5,"8635 W SAHARA AVE SUITE 538, LAS VEGAS, NV, 89117","Match","Non_Exact","8635 W SAHARA AVE, LAS VEGAS, NV, 89117",201861531,"L"
304506,"8635 WEST CENTRAL","WICHITA","KS",67212,37.694099975,-97.442842331,6,"8635 WEST CENTRAL, WICHITA, KS, 67212","Match","Non_Exact","8635 W CENTRAL AVE, WICHITA, KS, 67212",115629432,"L"
304507,"8635 WINTHROP DRIVE","ALEXANDRIA","VA",22308,38.7222117650001,-77.0559334599999,7,"8635 WINTHROP DRIVE, ALEXANDRIA, VA, 22308","Match","Exact","8635 WINTHROP DR, ALEXANDRIA, VA, 22308",75991323,"L"
304508,"8636 1ST AVE S","BIRMINGHAM","AL",35206,33.5751018290001,-86.716994275,8,"8636 1ST AVE S, BIRMINGHAM, AL, 35206","Match","Exact","8636 1ST AVE S, BIRMINGHAM, AL, 35206",81586078,"L"
304509,"8636 COPPER FALLS AVENUE","LAS VEGAS","NV",89129,36.227273849,-115.281898154,9,"8636 COPPER FALLS AVENUE, LAS VEGAS, NV, 89129","Match","Exact","8636 COPPER FALLS AVE, LAS VEGAS, NV, 89129",201934218,"R"
304510,"8636 MEADOWVALE DRIVE","EDEN PRAIRIE","MN",55347,44.8464801270001,-93.480669156,10,"8636 MEADOWVALE DRIVE, EDEN PRAIRIE, MN, 55347","Match","Exact","8636 MEADOWVALE DR, EDEN PRAIRIE, MN, 55347",43658734,"R"
304511,"8636 NORTH MERCER WAY","MERCER ISLAND","WA",98040,47.5837128520001,-122.221345225,11,"8636 NORTH MERCER WAY, MERCER ISLAND, WA, 98040","Match","Exact","8636 N MERCER WAY, MERCER ISLAND, WA, 98040",239777534,"L"
304512,"8636 TROUBLECREEK RD","NEW PORT RICHEY","FL",34653,28.2320429170001,-82.6732358309999,12,"8636 TROUBLECREEK RD, NEW PORT RICHEY, FL, 34653","Match","Non_Exact","8636 TROUBLE CREEK RD, NEW PORT RICHEY, FL, 34653",86399193,"R"
304513,"8636 WASHINGTON","BROOKFIELD","IL",60513,41.827877501,-87.8378493439999,13,"8636 WASHINGTON, BROOKFIELD, IL, 60513","Match","Non_Exact","8636 WASHINGTON AVE, BROOKFIELD, IL, 60513",111792706,"R"
304514,"8637 FAWN LAKE CIRCLE","INDIANAPOLIS","IN",46278,39.910722035,-86.323832225,14,"8637 FAWN LAKE CIRCLE, INDIANAPOLIS, IN, 46278","Match","Exact","8637 FAWN LAKE CIR, INDIANAPOLIS, IN, 46278",108045377,"R"
304515,"8637 SW 42ND PLACE","GAINESVILLE","FL",32608,29.614911373,-82.433888037,15,"8637 SW 42ND PLACE, GAINESVILLE, FL, 32608","Match","Exact","8637 SW 42ND PL, GAINESVILLE, FL, 32608",6835523,"R"
304516,"8637 VERDOSA DRIVE","WHITTIER","CA",90605,33.955739371,-118.001007916,16,"8637 VERDOSA DRIVE, WHITTIER, CA, 90605","Match","Exact","8637 VERDOSA DR, WHITTIER, CA, 90605",142656699,"R"
304517,"86377 568TH AVE","CARROLL","NE",68723,42.348706152,-97.173917042,17,"86377 568TH AVE, CARROLL, NE, 68723","Match","Exact","86377 568TH AVE, CARROLL, NE, 68723",163748585,"L"
304518,"8638 BYRON CENTER AVE SW","BYRON CENTER","MI",49315,42.807629471,-85.7229335009999,18,"8638 BYRON CENTER AVE SW, BYRON CENTER, MI, 49315","Match","Exact","8638 BYRON CENTER AVE SW, BYRON CENTER, MI, 49315",12503733,"L"
304519,"8638 EAST MITCHELL DRIVE","SCOTTSDALE","AZ",85251,33.488445159,-111.895812972,19,"8638 EAST MITCHELL DRIVE, SCOTTSDALE, AZ, 85251","Match","Exact","8638 E MITCHELL DR, SCOTTSDALE, AZ, 85251",128230201,"L"
304520,"8638 GRAYSON PARK DRIVE","WILMINGTON","NC",28411,34.3039193380001,-77.777597986,20,"8638 GRAYSON PARK DRIVE, WILMINGTON, NC, 28411","Match","Exact","8638 GRAYSON PARK DR, WILMINGTON, NC, 28411",635496652,"R"
304521,"8638 WILLOW RUN ROAD","WINDSOR MILL","MD",21244,39.330341102,-76.799729821,21,"8638 WILLOW RUN ROAD, WINDSOR MILL, MD, 21244","Match","Exact","8638 WILLOW RUN RD, WINDSOR MILL, MD, 21244",191511154,"L"
304522,"8639 ARDENWOOD CT","TRINITY","FL",34655,28.1792786090001,-82.6720637509999,22,"8639 ARDENWOOD CT, TRINITY, FL, 34655","Match","Exact","8639 ARDENWOOD CT, TRINITY, FL, 34655",86406584,"R"
304523,"8639 CAROLINA BLVD PO BOX 429","CLYDE","NC",28721,35.5324606570001,-82.915299569,23,"8639 CAROLINA BLVD PO BOX 429, CLYDE, NC, 28721","Match","Exact","8639 CAROLINA BLVD, CLYDE, NC, 28721",615008039,"R"
304524,"8639 MAPLE GROVE RD","SPRING GROVE","PA",17362,39.8908414750001,-76.937731661,24,"8639 MAPLE GROVE RD, SPRING GROVE, PA, 17362","Match","Exact","8639 MAPLE GROVE RD, SPRING GROVE, PA, 17362",627245169,"L"
304525,"8639 MEADOW ROAD","DOWNEY","CA",90242,33.919471877,-118.139770965,25,"8639 MEADOW ROAD, DOWNEY, CA, 90242","Match","Exact","8639 MEADOW RD, DOWNEY, CA, 90242",142773537,"L"
304526,"8639 THORNCLIFF FWY","CORDOVA","TN",38016,35.192330328,-89.7746708239999,26,"8639 THORNCLIFF FWY, CORDOVA, TN, 38016","Match","Exact","8639 THORNCLIFF FWY, CORDOVA, TN, 38016",607408457,"R"
304527,"863C FLAT SHOALS ROAD SUITE 311","CONYERS","GA",30094,NA,NA,27,"863C FLAT SHOALS ROAD SUITE 311, CONYERS, GA, 30094","No_Match",NA,NA,NA,NA
304528,"864 ABEYTA DRIVE","SPRING CREEK","NV",89815,40.7568152580001,-115.542337805,28,"864 ABEYTA DRIVE, SPRING CREEK, NV, 89815","Match","Exact","864 ABEYTA DR, SPRING CREEK, NV, 89815",154552263,"L"
304529,"864 BUCKLEBURY LOOP","APOPKA","FL",32703,28.603899508,-81.530667018,29,"864 BUCKLEBURY LOOP, APOPKA, FL, 32703","Match","Exact","864 BUCKLEBURY LOOP, APOPKA, FL, 32703",649052235,"L"
304530,"864 E BUTTE AVE","ATHOL","ID",83801,47.9260453860001,-116.77353126,30,"864 E BUTTE AVE, ATHOL, ID, 83801","Match","Exact","864 E BUTTE AVE, ATHOL, ID, 83801",192938442,"R"
304531,"864 E MARKET STREET","AKRON","OH",44305,41.0730786890001,-81.491511386,31,"864 E MARKET STREET, AKRON, OH, 44305","Match","Exact","864 E MARKET ST, AKRON, OH, 44305",61350364,"R"
304532,"864 GALAPAGO ST","DENVER","CO",80204,39.729915485,-104.996400816,32,"864 GALAPAGO ST, DENVER, CO, 80204","Match","Exact","864 GALAPAGO ST, DENVER, CO, 80204",177330555,"R"
304533,"864 HARMONY ROAD","EATONTON","GA",31024,33.4322182490001,-83.277172997,33,"864 HARMONY ROAD, EATONTON, GA, 31024","Match","Exact","864 HARMONY RD, EATONTON, GA, 31024",635608664,"L"
304534,"864 HELENA DR","SUNNYVALE","CA",94087,37.342753616,-122.047016376,34,"864 HELENA DR, SUNNYVALE, CA, 94087","Match","Exact","864 HELENA DR, SUNNYVALE, CA, 94087",122937882,"L"
304535,"864 KEALAHOU STREET","HONOLULU","HI",96825,21.3109253850001,-157.673921597,35,"864 KEALAHOU STREET, HONOLULU, HI, 96825","Match","Exact","864 KEALAHOU ST, HONOLULU, HI, 96825",203241268,"L"
304536,"864 MARTIN RD","STONE MTN","GA",30088,33.7725552260001,-84.179729277,36,"864 MARTIN RD, STONE MTN, GA, 30088","Match","Exact","864 MARTIN RD, STONE MOUNTAIN, GA, 30088",23372284,"L"
304537,"864 N KING ST","ALICE","TX",78332,27.7598332960001,-98.075605154,37,"864 N KING ST, ALICE, TX, 78332","Match","Exact","864 N KING ST, ALICE, TX, 78332",21513730,"R"
304538,"864 NORTH MOLYNEAUX DRIVE","PRICE","UT",84501,39.614564882,-110.786874363,38,"864 NORTH MOLYNEAUX DRIVE, PRICE, UT, 84501","Match","Non_Exact","864 N MOLYNEUX DR, PRICE, UT, 84501",132828547,"L"
304539,"864 P-69","BAILEY","CO",80421,39.496845013,-105.522113494,39,"864 P-69, BAILEY, CO, 80421","Match","Non_Exact","864 P 69 RD, BAILEY, CO, 80421",108482347,"R"
304540,"864 PEROZZI STREET","ASHLAND","OR",97520,42.2122044610001,-122.712353454,40,"864 PEROZZI STREET, ASHLAND, OR, 97520","Match","Exact","864 PEROZZI ST, ASHLAND, OR, 97520",651583090,"L"
304541,"864 ROSE CIRCLE SW","ATLANTA","GA",30310,33.7309566490001,-84.41553563,41,"864 ROSE CIRCLE SW, ATLANTA, GA, 30310","Match","Exact","864 ROSE CIR SW, ATLANTA, GA, 30310",17345268,"L"
304542,"864 S 3RD ST","JACKSONVILLE","OR",97530,42.3064551470001,-122.971961842,42,"864 S 3RD ST, JACKSONVILLE, OR, 97530","Match","Exact","864 S 3RD ST, JACKSONVILLE, OR, 97530",624819433,"L"
304543,"864 S 490 W UNIT C-2","PLEASANT GROVE","UT",84062,40.3541669270001,-111.747834835,43,"864 S 490 W UNIT C-2, PLEASANT GROVE, UT, 84062","Match","Exact","864 490 W, PLEASANT GROVE, UT, 84062",617773791,"R"
304544,"864 SAVOY CT","LAKE ZURICH","IL",60047,42.190907494,-88.092790173,44,"864 SAVOY CT, LAKE ZURICH, IL, 60047","Match","Exact","864 SAVOY CT, LAKE ZURICH, IL, 60047",651657780,"L"
304545,"864 SPRUCE PL","PETERSBURG","IL",62675,39.9841579690001,-89.851508689,45,"864 SPRUCE PL, PETERSBURG, IL, 62675","Match","Exact","864 SPRUCE PL, PETERSBURG, IL, 62675",53272279,"L"
304546,"864 TURTLE COURT","NAPLES","FL",34108,26.2309789060001,-81.8021715249999,46,"864 TURTLE COURT, NAPLES, FL, 34108","Match","Exact","864 TURTLE CT, NAPLES, FL, 34108",115227646,"L"
304547,"864 UNION AVE","BRONX","NY",10454,40.8206928210001,-73.902704441,47,"864 UNION AVE, BRONX, NY, 10454","Match","Non_Exact","864 UNION AVE, BRONX, NY, 10459",80302024,"R"
304548,"864 VANDERBILT TER SE","LEESBURG","VA",20175,39.1001950780001,-77.557549755,48,"864 VANDERBILT TER SE, LEESBURG, VA, 20175","Match","Exact","864 VANDERBILT TER SE, LEESBURG, VA, 20175",62342095,"R"
304549,"864 WEST 11TH PLACE","MESA","AZ",85201,33.435559836,-111.84964187,49,"864 WEST 11TH PLACE, MESA, AZ, 85201","Match","Exact","864 W 11TH PL, MESA, AZ, 85201",128233615,"R"
304550,"864 WEST SHELBY DRIVE","MEMPHIS","TN",38109,35.020672221,-90.092698303,50,"864 WEST SHELBY DRIVE, MEMPHIS, TN, 38109","Match","Exact","864 W SHELBY DR, MEMPHIS, TN, 38109",72922023,"R"
304551,"864","CEDAR HILL","TX",75104,NA,NA,51,"864, CEDAR HILL, TX, 75104","No_Match",NA,NA,NA,NA
304552,"8640 BAKER RD","BEAUMONT","TX",77707,30.0502164170001,-94.1941996319999,52,"8640 BAKER RD, BEAUMONT, TX, 77707","Match","Exact","8640 BAKER RD, BEAUMONT, TX, 77707",73852333,"R"
304553,"8640 BRENTWOOD BLVD STE B","BRENTWOOD","CA",94513,37.926672926,-121.691663958,53,"8640 BRENTWOOD BLVD STE B, BRENTWOOD, CA, 94513","Match","Exact","8640 BRENTWOOD BLVD, BRENTWOOD, CA, 94513",617629247,"L"
304554,"8640 DAHLIA ST","HENDERSON","CO",80640,39.8535192680001,-104.931642676,54,"8640 DAHLIA ST, HENDERSON, CO, 80640","Match","Exact","8640 DAHLIA ST, HENDERSON, CO, 80640",633228240,"R"
304555,"8640 HERITAGE DRIVE","MARSHFIELD","WI",54449,44.6265390140001,-90.147593097,55,"8640 HERITAGE DRIVE, MARSHFIELD, WI, 54449","Match","Exact","8640 HERITAGE DR, MARSHFIELD, WI, 54449",640631841,"R"
304556,"8640 NORTH NEWHILL AVENUE","TUCSON","AZ",85742,32.3635213540001,-111.052877429,56,"8640 NORTH NEWHILL AVENUE, TUCSON, AZ, 85742","Match","Non_Exact","8640 N NEWHILL ST, TUCSON, AZ, 85742",121384484,"L"
304557,"8640 S EXCHANGE AVE FL 2","CHICAGO","IL",60617,41.738606985,-87.5526826,57,"8640 S EXCHANGE AVE FL 2, CHICAGO, IL, 60617","Match","Non_Exact","8640 S EXCHANGE AVE, CHICAGO, IL, 60617",616793590,"R"
304558,"8640 SE CAUSEY AVE","HAPPY VALLEY","OR",97086,45.4411812020001,-122.574673625,58,"8640 SE CAUSEY AVE, HAPPY VALLEY, OR, 97086","Match","Exact","8640 SE CAUSEY AVE, HAPPY VALLEY, OR, 97086",633303400,"R"
304559,"8640 SEMINOLE BLVD","SEMINOLE","FL",33772,27.8512788100001,-82.7871279669999,59,"8640 SEMINOLE BLVD, SEMINOLE, FL, 33772","Match","Exact","8640 SEMINOLE BLVD, SEMINOLE, FL, 33772",124795757,"L"
304560,"8640 UNIVERSITY CITY BLVD A3","CHARLOTTE","NC",28213,35.2978227680001,-80.7386399229999,60,"8640 UNIVERSITY CITY BLVD A3, CHARLOTTE, NC, 28213","Match","Exact","8640 UNIVERSITY CITY BLVD, CHARLOTTE, NC, 28213",642331017,"L"
304561,"8640 UNIVERSITY CITY BLVD STE P184","CHARLOTTE","NC",28213,35.2978227680001,-80.7386399229999,61,"8640 UNIVERSITY CITY BLVD STE P184, CHARLOTTE, NC, 28213","Match","Exact","8640 UNIVERSITY CITY BLVD, CHARLOTTE, NC, 28213",642331017,"L"
304562,"8640 UNIVERSITY CITY BVD STE A3-196","CHARLOTTE","NC",28213,35.2978227680001,-80.7386399229999,62,"8640 UNIVERSITY CITY BVD STE A3-196, CHARLOTTE, NC, 28213","Match","Exact","8640 UNIVERSITY CITY BLVD, CHARLOTTE, NC, 28213",642331017,"L"
304563,"8640 W MEADOW DR","PEORIA","AZ",85382,33.6423024600001,-112.244162044,63,"8640 W MEADOW DR, PEORIA, AZ, 85382","Match","Exact","8640 W MEADOW DR, PEORIA, AZ, 85382",128332722,"R"
304564,"8640 WAUKEGAN ROAD UNIT 531","MORTON GROVE","IL",60053,42.038818673,-87.799125325,64,"8640 WAUKEGAN ROAD UNIT 531, MORTON GROVE, IL, 60053","Match","Exact","8640 WAUKEGAN RD, MORTON GROVE, IL, 60053",605004813,"R"
304565,"8641 ANNABEL LEE LN","CHARLOTTE","NC",28277,35.051244427,-80.8060541409999,65,"8641 ANNABEL LEE LN, CHARLOTTE, NC, 28277","Match","Exact","8641 ANNABEL LEE LN, CHARLOTTE, NC, 28277",70561298,"L"
304566,"8641 DORRIS RD STE 150C","DOUGLASVILLE","GA",30134,33.7447244900001,-84.730113536,66,"8641 DORRIS RD STE 150C, DOUGLASVILLE, GA, 30134","Match","Exact","8641 DORRIS RD, DOUGLASVILLE, GA, 30134",645835418,"R"
304567,"8641 E 29TH AVE","DENVER","CO",80238,39.7581020580001,-104.887931423,67,"8641 E 29TH AVE, DENVER, CO, 80238","Match","Exact","8641 E 29TH AVE, DENVER, CO, 80238",606081557,"L"
304568,"8641 GLADIOLA CIRCLE","ARVADA","CO",80005,39.8511523490001,-105.162037635,68,"8641 GLADIOLA CIRCLE, ARVADA, CO, 80005","Match","Exact","8641 GLADIOLA CIR, ARVADA, CO, 80005",177763252,"R"
304569,"8642 DEBBIE LANE","DU QUOIN","IL",62832,37.9993209420001,-89.197739084,69,"8642 DEBBIE LANE, DU QUOIN, IL, 62832","Match","Exact","8642 DEBBIE LN, DU QUOIN, IL, 62832",633821031,"R"
304570,"8642 MARLAMOOR LANE","WEST PALM BEACH","FL",33412,26.803928802,-80.2238804899999,70,"8642 MARLAMOOR LANE, WEST PALM BEACH, FL, 33412","Match","Exact","8642 MARLAMOOR LN, WEST PALM BEACH, FL, 33412",115264463,"L"
304571,"8642 N 78TH AVE STE 1","PEORIA","AZ",85345,33.561983206,-112.227255551,71,"8642 N 78TH AVE STE 1, PEORIA, AZ, 85345","Match","Non_Exact","8642 N 78TH AVE, PEORIA, AZ, 85345",128191836,"L"
304572,"8642 TOWN CREEK ROAD","ROCKY MOUNT","NC",27803,35.846883174,-77.806000371,72,"8642 TOWN CREEK ROAD, ROCKY MOUNT, NC, 27803","Match","Exact","8642 TOWN CREEK RD, ROCKY MOUNT, NC, 27803",26703363,"R"
304573,"8642 WOODWARD AVE","DETROIT","MI",48202,42.3791518690001,-83.079264434,73,"8642 WOODWARD AVE, DETROIT, MI, 48202","Match","Exact","8642 WOODWARD AVE, DETROIT, MI, 48202",95475487,"R"
304574,"8643 EAST STATE ROAD 58","BLOOMFIELD","IN",47424,38.9229733180001,-86.7797725519999,74,"8643 EAST STATE ROAD 58, BLOOMFIELD, IN, 47424","Match","Non_Exact","8643 STATE RD 58, BLOOMFIELD, IN, 47424",627835684,"L"
304575,"8643 S RIVER DR","PALMER","AK",99645,61.4900312290001,-149.125796193,75,"8643 S RIVER DR, PALMER, AK, 99645","Match","Exact","8643 RIVER DR, PALMER, AK, 99645",191066822,"L"
304576,"8643 TWIN RIVER DR","VENTURA","CA",93004,34.261623259,-119.173521348,76,"8643 TWIN RIVER DR, VENTURA, CA, 93004","Match","Non_Exact","8643 TWIN RIVER CIR, VENTURA, CA, 93004",110043504,"L"
304577,"8644 E INDIGO ST","MESA","AR",85207,NA,NA,77,"8644 E INDIGO ST, MESA, AR, 85207","No_Match",NA,NA,NA,NA
304578,"8644 PLANTATION LANDING DR","WILMINGTON","NC",28411,34.302948412,-77.7737473339999,78,"8644 PLANTATION LANDING DR, WILMINGTON, NC, 28411","Match","Exact","8644 PLANTATION LANDING DR, WILMINGTON, NC, 28411",619929173,"R"
304579,"8644 STATE ROUTE 209","WILLIAMSTOWN","PW",17098,NA,NA,79,"8644 STATE ROUTE 209, WILLIAMSTOWN, PW, 17098","No_Match",NA,NA,NA,NA
304580,"8645  S CONSTANCE AVE","CHICAGO","IL",60617,41.7381645350001,-87.5793738679999,80,"8645  S CONSTANCE AVE, CHICAGO, IL, 60617","Match","Exact","8645 S CONSTANCE AVE, CHICAGO, IL, 60617",605551036,"L"
304581,"8645 E CHERYL DR","SCOTTSDALE","AZ",85258,33.57577458,-111.895314523,81,"8645 E CHERYL DR, SCOTTSDALE, AZ, 85258","Match","Exact","8645 E CHERYL DR, SCOTTSDALE, AZ, 85258",128228531,"L"
304582,"8645 MAIN STREET","WILLIAMSVILLE","NY",14221,42.9653122510001,-78.670607963,82,"8645 MAIN STREET, WILLIAMSVILLE, NY, 14221","Match","Exact","8645 MAIN ST, WILLIAMSVILLE, NY, 14221",48306654,"R"
304583,"8645 N MILITARY TRIL STE 508","WEST PALM BEACH","FL",33410,NA,NA,83,"8645 N MILITARY TRIL STE 508, WEST PALM BEACH, FL, 33410","No_Match",NA,NA,NA,NA
304584,"8645 SAN MARCO","STERLING HEIGHTS","MI",48313,42.5856931750001,-83.022217287,84,"8645 SAN MARCO, STERLING HEIGHTS, MI, 48313","Match","Non_Exact","8645 SAN MARCO BLVD, STERLING HEIGHTS, MI, 48313",110670932,"L"
304585,"8645 VANDERBILT LN APT 2102","FORTWORTH","TX",76120,32.759220747,-97.165098266,85,"8645 VANDERBILT LN APT 2102, FORTWORTH, TX, 76120","Match","Non_Exact","8645 VANDERBILT LN, FORT WORTH, TX, 76120",101904468,"R"
304586,"8645 VINTAGE EARTH PATH","LAUREL","MD",20723,39.1353225060001,-76.845025286,86,"8645 VINTAGE EARTH PATH, LAUREL, MD, 20723","Match","Exact","8645 VINTAGE EARTH PATH, LAUREL, MD, 20723",618240532,"L"
304587,"8645 WALNUT AVE","PENSACOLA","FL",32534,30.5224561740001,-87.276122571,87,"8645 WALNUT AVE, PENSACOLA, FL, 32534","Match","Exact","8645 WALNUT AVE, PENSACOLA, FL, 32534",93210882,"L"
304588,"8646 E NATAL AVE","MESA","AZ",85209,33.367665533,-111.647604715,88,"8646 E NATAL AVE, MESA, AZ, 85209","Match","Exact","8646 E NATAL AVE, MESA, AZ, 85209",128811959,"R"
304589,"8646 EAGLE CREEK PARKWAY SUITE 213","SAVAGE","MN",55378,NA,NA,89,"8646 EAGLE CREEK PARKWAY SUITE 213, SAVAGE, MN, 55378","No_Match",NA,NA,NA,NA
304590,"8646 JULIA MARIE CIRCLE","JACKSONVILLE","FL",32210,30.264625236,-81.7938854019999,90,"8646 JULIA MARIE CIRCLE, JACKSONVILLE, FL, 32210","Match","Exact","8646 JULIA MARIE CIR, JACKSONVILLE, FL, 32210",640964476,"R"
304591,"8646 S PARKLAND COURT","FRANKLIN","WI",53132,42.888034986,-87.998020524,91,"8646 S PARKLAND COURT, FRANKLIN, WI, 53132","Match","Exact","8646 PARKLAND CT, FRANKLIN, WI, 53132",77766048,"L"
304592,"8646 STATE ROUTE 224","DEERFIELD","OH",44411,NA,NA,92,"8646 STATE ROUTE 224, DEERFIELD, OH, 44411","No_Match",NA,NA,NA,NA
304593,"8647 E PAMPA AVE","MESA","AZ",85212,33.359664342,-111.647893916,93,"8647 E PAMPA AVE, MESA, AZ, 85212","Match","Exact","8647 E PAMPA AVE, MESA, AZ, 85212",128822106,"R"
304594,"8647 NW 21ST STREET","SUNRISE","FL",33322,26.1511492860001,-80.265488196,94,"8647 NW 21ST STREET, SUNRISE, FL, 33322","Match","Exact","8647 NW 21ST ST, SUNRISE, FL, 33322",114703552,"R"
304595,"8647 RICHMOND HIGHWAY SUITE 257","ALEXANDRIA","VA",22309,38.7225652880001,-77.121072721,95,"8647 RICHMOND HIGHWAY SUITE 257, ALEXANDRIA, VA, 22309","Match","Exact","8647 RICHMOND HWY, ALEXANDRIA, VA, 22309",75986497,"L"
304596,"8647 WURZBACH RD BLDG J-100","SAN ANTONIO","TX",78240,29.5223292790001,-98.571090891,96,"8647 WURZBACH RD BLDG J-100, SAN ANTONIO, TX, 78240","Match","Exact","8647 WURZBACH RD, SAN ANTONIO, TX, 78240",101545150,"L"
304597,"8648 JW CLAY BLVD","CHARLOTTE","NC",28262,35.3103339300001,-80.7529941719999,97,"8648 JW CLAY BLVD, CHARLOTTE, NC, 28262","Match","Non_Exact","8648 J W CLAY BLVD, CHARLOTTE, NC, 28262",642649775,"L"
304598,"8649 UNIVERSITY BLVD SUITE A3-60","CHARLOTTE","NC",28213,NA,NA,98,"8649 UNIVERSITY BLVD SUITE A3-60, CHARLOTTE, NC, 28213","No_Match",NA,NA,NA,NA
304599,"8649 WINE LEAF COVE","GERMANTOWN","TN",38139,35.095373259,-89.774552713,99,"8649 WINE LEAF COVE, GERMANTOWN, TN, 38139","Match","Exact","8649 WINE LEAF COVE, GERMANTOWN, TN, 38139",72932370,"R"
304600,"865 22ND STREET","OAKLAND","CA",94607,37.8134759160001,-122.277980002,100,"865 22ND STREET, OAKLAND, CA, 94607","Match","Exact","865 22ND ST, OAKLAND, CA, 94607",124996417,"L"
304601,"865 28TH STREET SE SUITE 700","GRAND RAPIDS","MI",49507,42.91279074,-85.645354518,101,"865 28TH STREET SE SUITE 700, GRAND RAPIDS, MI, 49507","Match","Non_Exact","865 28TH ST SE, GRAND RAPIDS, MI, 49508",615657037,"L"
304602,"865 BAIRD ST","AKRON","OH",44306,41.057949018,-81.497394043,102,"865 BAIRD ST, AKRON, OH, 44306","Match","Exact","865 BAIRD ST, AKRON, OH, 44306",61353141,"L"
304603,"865 CASHMERE DR Q2","LAKE HAVASU CITY","AZ",86404,34.509977384,-114.316870267,103,"865 CASHMERE DR Q2, LAKE HAVASU CITY, AZ, 86404","Match","Exact","865 CASHMERE DR, LAKE HAVASU CITY, AZ, 86404",190278891,"L"
304604,"865 CHASTIEN CT","FORT WORTH","TX",76131,32.892042917,-97.376168539,104,"865 CHASTIEN CT, FORT WORTH, TX, 76131","Match","Exact","865 CHASTIEN CT, FORT WORTH, TX, 76131",102112471,"L"
304605,"865 COMSTOCK AVE APT 19A","LOS ANGELES","CA",90024,34.0688434890001,-118.426056215,105,"865 COMSTOCK AVE APT 19A, LOS ANGELES, CA, 90024","Match","Exact","865 COMSTOCK AVE, LOS ANGELES, CA, 90024",141567810,"R"
304606,"865 DALEWOOD DR","RALEIGH","NC",27610,35.800711918,-78.6081094959999,106,"865 DALEWOOD DR, RALEIGH, NC, 27610","Match","Exact","865 DALEWOOD DR, RALEIGH, NC, 27610",72516882,"L"
304607,"865 DUNHAM STREET","CHARLESTON","SC",29492,32.8613517140001,-79.926880537,107,"865 DUNHAM STREET, CHARLESTON, SC, 29492","Match","Exact","865 DUNHAM ST, CHARLESTON, SC, 29492",100780455,"L"
304608,"865 DYLAN DRIVE","WENTZVILLE","MO",63385,38.783655235,-90.838528743,108,"865 DYLAN DRIVE, WENTZVILLE, MO, 63385","Match","Exact","865 DYLAN DR, WENTZVILLE, MO, 63385",100098445,"L"
304609,"865 E 3RD ST","CHATTANOOGA","TN",37403,35.050713343,-85.296768076,109,"865 E 3RD ST, CHATTANOOGA, TN, 37403","Match","Exact","865 E 3RD ST, CHATTANOOGA, TN, 37403",616177667,"L"
304610,"865 EAST CASCADE DRIVE","OREM","UT",84097,40.3255478930001,-111.674527682,110,"865 EAST CASCADE DRIVE, OREM, UT, 84097","Match","Non_Exact","865 CASCADE DR, OREM, UT, 84097",134248567,"R"
304611,"865 EAST GLEN AVENUE","RIDGEWOOD","NJ",7450,40.9833280570001,-74.0845393339999,111,"865 EAST GLEN AVENUE, RIDGEWOOD, NJ, 7450","Match","Exact","865 E GLEN AVE, RIDGEWOOD, NJ, 07450",64377677,"L"
304612,"865 ELHAM DRIVE","YORK","PA",17406,39.9860176180001,-76.5514658229999,112,"865 ELHAM DRIVE, YORK, PA, 17406","Match","Exact","865 ELHAM DR, YORK, PA, 17406",88739877,"L"
304613,"865 ERNEST DRIVE","SONOMA","CA",95476,38.3060578610001,-122.473338921,113,"865 ERNEST DRIVE, SONOMA, CA, 95476","Match","Exact","865 ERNEST DR, SONOMA, CA, 95476",67481053,"R"
304614,"865 FERNDALE ROAD N","WAYZATA","MN",55391,44.992675955,-93.522496588,114,"865 FERNDALE ROAD N, WAYZATA, MN, 55391","Match","Exact","865 FERNDALE RD N, WAYZATA, MN, 55391",43651911,"L"
304615,"865 FLORIDAT ST UNIT 2","SAN FRANCISCO","CA",94110,NA,NA,115,"865 FLORIDAT ST UNIT 2, SAN FRANCISCO, CA, 94110","No_Match",NA,NA,NA,NA
304616,"865 LOBSTER COURT","MURRELLS INLET","SC",29576,33.5418024100001,-79.058737438,116,"865 LOBSTER COURT, MURRELLS INLET, SC, 29576","Match","Exact","865 LOBSTER CT, MURRELLS INLET, SC, 29576",29004217,"L"
304617,"865 MANOR CT","TRACY","CA",95376,37.7503029760001,-121.438031528,117,"865 MANOR CT, TRACY, CA, 95376","Match","Exact","865 MANOR CT, TRACY, CA, 95376",133879925,"R"
304618,"865 MAY ST","JACKSONVILLE","FL",32204,30.315621315,-81.678119492,118,"865 MAY ST, JACKSONVILLE, FL, 32204","Match","Exact","865 MAY ST, JACKSONVILLE, FL, 32204",83896814,"L"
304619,"865 N HAVEN CREST COURT","GRAND JUNCTION","CO",81506,39.1305502270001,-108.553721501,119,"865 N HAVEN CREST COURT, GRAND JUNCTION, CO, 81506","Match","Exact","865 N HAVEN CREST CT, GRAND JCT, CO, 81506",122465068,"L"
304620,"865 NORTH MOSELEY DRIVE","STOCKBRIDGE","GA",30281,33.5682214770001,-84.160730714,120,"865 NORTH MOSELEY DRIVE, STOCKBRIDGE, GA, 30281","Match","Non_Exact","865 MOSELEY DR, STOCKBRIDGE, GA, 30281",23211917,"R"
304621,"865 NORTH SAM SNEAD LOOP","WASILLA","AK",99623,61.5864338110001,-149.525529455,121,"865 NORTH SAM SNEAD LOOP, WASILLA, AK, 99623","Match","Non_Exact","865 SAM SNEAD LOOP, WASILLA, AK, 99623",191044467,"L"
304622,"865 NW 3RD LANE","HOMESTEAD","FL",33034,25.4521260180001,-80.4909834429999,122,"865 NW 3RD LANE, HOMESTEAD, FL, 33034","Match","Exact","865 NW 3RD LN, HOMESTEAD, FL, 33034",116296250,"L"
304623,"865 OAKLEY DR","DELAWARE","OH",43015,40.247059533,-83.037147397,123,"865 OAKLEY DR, DELAWARE, OH, 43015","Match","Exact","865 OAKLEY DR, DELAWARE, OH, 43015",619929002,"R"
304624,"865 PULEHUIKI ROAD","KULA","HI",96790,20.7686222930001,-156.315250921,124,"865 PULEHUIKI ROAD, KULA, HI, 96790","Match","Exact","865 PULEHUIKI RD, KULA, HI, 96790",624917006,"L"
304625,"865 REGENCY COURT","LAWRENCEVILLE","GA",30044,33.941794395,-84.074222984,125,"865 REGENCY COURT, LAWRENCEVILLE, GA, 30044","Match","Non_Exact","865 REGENCY CT NW, LAWRENCEVILLE, GA, 30044",88886256,"R"
304626,"865 S EATON ST","LAKEWOOD","CO",80226,39.700924195,-105.059214082,126,"865 S EATON ST, LAKEWOOD, CO, 80226","Match","Exact","865 S EATON ST, LAKEWOOD, CO, 80226",177766951,"R"
304627,"865 S HILLSIDE DRIVE","KANAB","UT",84741,37.0345980640001,-112.514227719,127,"865 S HILLSIDE DRIVE, KANAB, UT, 84741","Match","Exact","865 S HILLSIDE DR, KANAB, UT, 84741",166120758,"R"
304628,"865 S IMPERIAL AVE","EL CENTRO","CA",92243,32.785799479,-115.569807739,128,"865 S IMPERIAL AVE, EL CENTRO, CA, 92243","Match","Exact","865 S IMPERIAL AVE, EL CENTRO, CA, 92243",194494291,"R"
304629,"865 S WOODSON CT","GARDNER","KS",66030,38.800011306,-94.905270049,129,"865 S WOODSON CT, GARDNER, KS, 66030","Match","Exact","865 S WOODSON CT, GARDNER, KS, 66030",632997176,"L"
304630,"865 SEDGEWOOD CIR","WEST MELBOURNE","FL",32904,28.05504018,-80.657644222,130,"865 SEDGEWOOD CIR, WEST MELBOURNE, FL, 32904","Match","Exact","865 SEDGEWOOD CIR, W MELBOURNE, FL, 32904",93958674,"R"
304631,"865 SUMMERFIELD DRIVE","LAKELAND","FL",33803,28.0045973750001,-81.967731096,131,"865 SUMMERFIELD DRIVE, LAKELAND, FL, 33803","Match","Exact","865 SUMMERFIELD DR, LAKELAND, FL, 33803",104885660,"L"
304632,"865 TAHOE BOULEVARD SUITE 214","INCLINE VILLAGE","NV",89451,39.249854731,-119.956160687,132,"865 TAHOE BOULEVARD SUITE 214, INCLINE VILLAGE, NV, 89451","Match","Exact","865 TAHOE BLVD, INCLINE VILLAGE, NV, 89451",107082664,"R"
304633,"865 TALLAPOOSA ST","NOTASULGA","AL",36866,32.5660259570001,-85.682869605,133,"865 TALLAPOOSA ST, NOTASULGA, AL, 36866","Match","Exact","865 TALLAPOOSA ST, NOTASULGA, AL, 36866",69137440,"L"
304634,"865 THE DALLES AVE","SUNNYVALE","CA",94087,37.344827611,-122.048859496,134,"865 THE DALLES AVE, SUNNYVALE, CA, 94087","Match","Exact","865 THE DALLES AVE, SUNNYVALE, CA, 94087",122937574,"R"
304635,"865 VALLEY MILL RD","WINCHESTER","VA",22602,39.1789310180001,-78.1074981579999,135,"865 VALLEY MILL RD, WINCHESTER, VA, 22602","Match","Exact","865 VALLEY MILL RD, WINCHESTER, VA, 22602",55592049,"R"
304636,"865 VIA DE LA PAZ STE 218","PACIFIC PALISADES","CA",90272,34.0458212240001,-118.527441956,136,"865 VIA DE LA PAZ STE 218, PACIFIC PALISADES, CA, 90272","Match","Exact","865 VIA DE LA PAZ, PACIFIC PALISADES, CA, 90272",141558498,"L"
304637,"865 WEST END AVE APT 8A","NEW YORK","NY",10025,40.79924207,-73.970304189,137,"865 WEST END AVE APT 8A, NEW YORK, NY, 10025","Match","Exact","865 W END AVE, NEW YORK, NY, 10025",59656823,"L"
304638,"865 WILLOWBROOK DRIVE","MONROE","OH",45050,39.4412801220001,-84.372476908,138,"865 WILLOWBROOK DRIVE, MONROE, OH, 45050","Match","Non_Exact","865 WILLOWBROOK, MONROE, OH, 45050",634033251,"L"
304639,"8650 BYRON HWY","BRENTWOOD","CA",94513,37.957809667,-121.640956581,139,"8650 BYRON HWY, BRENTWOOD, CA, 94513","Match","Exact","8650 BYRON HWY, BRENTWOOD, CA, 94513",639043319,"L"
304640,"8650 COLUMBIA AVENUE","MUNSTER","IN",46321,41.5570868670001,-87.501543516,140,"8650 COLUMBIA AVENUE, MUNSTER, IN, 46321","Match","Exact","8650 COLUMBIA AVE, MUNSTER, IN, 46321",98420580,"R"
304641,"8650 E PECOS LN","SCOTTSDALE","AZ",85250,33.5159170690001,-111.89529549,141,"8650 E PECOS LN, SCOTTSDALE, AZ, 85250","Match","Exact","8650 E PECOS LN, SCOTTSDALE, AZ, 85250",128229997,"L"
304642,"8650 E WOODLAND RD","TUCSON","AZ",86749,32.251998773,-110.807999613,142,"8650 E WOODLAND RD, TUCSON, AZ, 86749","Match","Non_Exact","8650 E WOODLAND RD, TUCSON, AZ, 85749",639808482,"R"
304643,"8650 GULANA AVENUE L3175","PLAYA DEL REY","CA",90293,33.9574842920001,-118.433584517,143,"8650 GULANA AVENUE L3175, PLAYA DEL REY, CA, 90293","Match","Exact","8650 GULANA AVE, PLAYA DEL REY, CA, 90293",141577789,"L"
304644,"8650 HARBORTOWNE DR","CLARKSTON","MI",48348,42.761731012,-83.474629008,144,"8650 HARBORTOWNE DR, CLARKSTON, MI, 48348","Match","Exact","8650 HARBORTOWNE DR, CLARKSTON, MI, 48348",69689554,"R"
304645,"8650 HIGHCREST DRIVE","BATON ROUGE","LA",70809,30.3726877770001,-91.0389879969999,145,"8650 HIGHCREST DRIVE, BATON ROUGE, LA, 70809","Match","Exact","8650 HIGHCREST DR, BATON ROUGE, LA, 70809",92211860,"R"
304646,"8650 HUNTERS KEY CIR","TAMPA","FL",33647,28.123818257,-82.367324728,146,"8650 HUNTERS KEY CIR, TAMPA, FL, 33647","Match","Exact","8650 HUNTERS KEY CIR, TAMPA, FL, 33647",104646121,"R"
304647,"8650 N 35TH AVE SUITE 114","PHOENIX","AZ",85051,33.5632536260001,-112.134227995,147,"8650 N 35TH AVE SUITE 114, PHOENIX, AZ, 85051","Match","Non_Exact","8650 N 35TH AVE, PHOENIX, AZ, 85051",128197077,"L"
304648,"8650 NW 3RD LANE SUITE 3","MIAMI","FL",33126,25.7742388560001,-80.3356178719999,148,"8650 NW 3RD LANE SUITE 3, MIAMI, FL, 33126","Match","Non_Exact","8650 NW 3RD LN, MIAMI, FL, 33126",116064902,"R"
304649,"8650 RIVERWOOD FARMS PKWY","CORDOVA","TN",38016,35.1647896850001,-89.7745325879999,149,"8650 RIVERWOOD FARMS PKWY, CORDOVA, TN, 38016","Match","Exact","8650 RIVERWOOD FARMS PKWY, CORDOVA, TN, 38016",643431024,"L"
304650,"8650 S PLEASANT GROVE RD","INVERNESS","FL",34452,28.7374352050001,-82.360859793,150,"8650 S PLEASANT GROVE RD, INVERNESS, FL, 34452","Match","Exact","8650 S PLEASANT GROVE RD, INVERNESS, FL, 34452",610731746,"L"
304651,"8650 SPICEWOOD SPRING SUITE 145","AUSTIN","TX",78759,30.433557314,-97.771758425,151,"8650 SPICEWOOD SPRING SUITE 145, AUSTIN, TX, 78759","Match","Non_Exact","8650 SPICEWOOD SPRINGS RD, AUSTIN, TX, 78759",620008051,"R"
304652,"8650 W MT HOPE HWY","GRAND LEDGE","MI",48837,42.712056584,-84.678169754,152,"8650 W MT HOPE HWY, GRAND LEDGE, MI, 48837","Match","Exact","8650 W MT HOPE HWY, GRAND LEDGE, MI, 48837",644320927,"R"
304653,"8650 WEST SAMPLE ROAD","CORAL SPRINGS","FL",33065,26.27219985,-80.2412490299999,153,"8650 WEST SAMPLE ROAD, CORAL SPRINGS, FL, 33065","Match","Exact","8650 W SAMPLE RD, CORAL SPRINGS, FL, 33065",637061039,"R"
304654,"8650 WESTOVER COURT","GRANBURY","TX",76049,32.362569449,-97.68710908,154,"8650 WESTOVER COURT, GRANBURY, TX, 76049","Match","Exact","8650 WESTOVER CT, GRANBURY, TX, 76049",158808511,"R"
304655,"86502 HOLMES","CHAPEL HILL","NC",27517,35.8370028250001,-79.043194854,155,"86502 HOLMES, CHAPEL HILL, NC, 27517","Match","Exact","86502 HOLMES, CHAPEL HILL, NC, 27517",71357355,"R"
304656,"8651 DAWES LAKE RD","MOBILE","AL",36619,30.6181245290001,-88.2445562199999,156,"8651 DAWES LAKE RD, MOBILE, AL, 36619","Match","Exact","8651 DAWES LAKE RD, MOBILE, AL, 36619",61958961,"L"
304657,"8651 EAGLE PEAK","HELOTES","TX",78023,29.5803601530001,-98.655002738,157,"8651 EAGLE PEAK, HELOTES, TX, 78023","Match","Exact","8651 EAGLE PEAK, HELOTES, TX, 78023",101735368,"L"
304658,"8651 GREEN CAY","WEST PALM BACH","FL",33411,26.717475834,-80.1779048879999,158,"8651 GREEN CAY, WEST PALM BACH, FL, 33411","Match","Non_Exact","8651 GREEN CAY, WELLINGTON, FL, 33411",115569463,"R"
304659,"8651 HIGHWAY N STE 100 PMB 3012","LAKE ST LOUIS","MO",63367,NA,NA,159,"8651 HIGHWAY N STE 100 PMB 3012, LAKE ST LOUIS, MO, 63367","No_Match",NA,NA,NA,NA
304660,"8651 MEADOWBROOK WAY SE","SNOQUALMIE","WA",98065,47.5221203790001,-121.815216502,160,"8651 MEADOWBROOK WAY SE, SNOQUALMIE, WA, 98065","Match","Exact","8651 MEADOWBROOK WAY SE, SNOQUALMIE, WA, 98065",187051110,"L"
304661,"8652 CRAWFORD AVE","SKOKIE","IL",60076,42.0380952840001,-87.727863402,161,"8652 CRAWFORD AVE, SKOKIE, IL, 60076","Match","Exact","8652 CRAWFORD AVE, SKOKIE, IL, 60076",111740136,"L"
304662,"8652 FOUNTAIN VALLEY DR","GAITHERSBURG","MD",20886,39.183318978,-77.178401698,162,"8652 FOUNTAIN VALLEY DR, GAITHERSBURG, MD, 20886","Match","Exact","8652 FOUNTAIN VALLEY DR, GAITHERSBURG, MD, 20886",636883133,"R"
304663,"8652 FOXFIELD DRIVE","BATON ROUGE","LA",70809,30.3731954150001,-91.039777627,163,"8652 FOXFIELD DRIVE, BATON ROUGE, LA, 70809","Match","Exact","8652 FOXFIELD DR, BATON ROUGE, LA, 70809",92211886,"L"
304664,"8652 HILLRIDGE DRIVE","OKLAHOMA CITY","OK",73141,35.491315786,-97.377089167,164,"8652 HILLRIDGE DRIVE, OKLAHOMA CITY, OK, 73141","Match","Exact","8652 HILLRIDGE DR, OKLAHOMA CITY, OK, 73141",100415809,"R"
304665,"8652 S 86TH AVE","JUSTICE","IL",60458,NA,NA,165,"8652 S 86TH AVE, JUSTICE, IL, 60458","Tie",NA,NA,NA,NA
304666,"8652 SW 42ND PLACE","GAINESVILLE","FL",32608,29.61502169,-82.434175615,166,"8652 SW 42ND PLACE, GAINESVILLE, FL, 32608","Match","Exact","8652 SW 42ND PL, GAINESVILLE, FL, 32608",6835523,"L"
304667,"8653 16TH ST PO BOX 7764","SILVER SPRING","MD",20910,38.9980942540001,-77.038556725,167,"8653 16TH ST PO BOX 7764, SILVER SPRING, MD, 20910","Match","Exact","8653 16TH ST, SILVER SPRING, MD, 20910",641074707,"L"
304668,"8653 OLD BONHOMME ROAD","SAINT LOUIS","MO",63132,38.6681927560001,-90.359597494,168,"8653 OLD BONHOMME ROAD, SAINT LOUIS, MO, 63132","Match","Exact","8653 OLD BONHOMME RD, SAINT LOUIS, MO, 63132",100132975,"R"
304669,"8654 145TH AVE SW","BOWMAN","ND",58623,NA,NA,169,"8654 145TH AVE SW, BOWMAN, ND, 58623","No_Match",NA,NA,NA,NA
304670,"8654 OAK CHASE CIRCLE","FAIRFAX STATION","VA",22039,38.7270266200001,-77.2533554779999,170,"8654 OAK CHASE CIRCLE, FAIRFAX STATION, VA, 22039","Match","Exact","8654 OAK CHASE CIR, FAIRFAX STATION, VA, 22039",76013042,"L"
304671,"8654 SUNLAND BOULEVARD UNIT 211","SUN VALLEY","CA",91352,34.227158596,-118.366047723,171,"8654 SUNLAND BOULEVARD UNIT 211, SUN VALLEY, CA, 91352","Match","Exact","8654 SUNLAND BLVD, SUN VALLEY, CA, 91352",647660369,"R"
304672,"8654 VISTA PINE COURT","ORLANDO","FL",32836,28.427564755,-81.502718074,172,"8654 VISTA PINE COURT, ORLANDO, FL, 32836","Match","Exact","8654 VISTA PINE CT, ORLANDO, FL, 32836",94288783,"L"
304673,"8654 VISTA PINE CT","ORLANDO","FL",32836,28.427564755,-81.502718074,173,"8654 VISTA PINE CT, ORLANDO, FL, 32836","Match","Exact","8654 VISTA PINE CT, ORLANDO, FL, 32836",94288783,"L"
304674,"8655 ALASKA WAY","ELK GROVE","CA",95624,38.444588965,-121.394368768,174,"8655 ALASKA WAY, ELK GROVE, CA, 95624","Match","Non_Exact","8655 ALISSA WAY, ELK GROVE, CA, 95624",133436041,"L"
304675,"8655 BELFORD AVE 165","LOS ANGELES","CA",90045,33.9589173740001,-118.383988292,175,"8655 BELFORD AVE 165, LOS ANGELES, CA, 90045","Match","Exact","8655 BELFORD AVE, LOS ANGELES, CA, 90045",141579594,"R"
304676,"8655 BELFORD AVE 263","LOS ANGELES","CA",90045,33.9589173740001,-118.383988292,176,"8655 BELFORD AVE 263, LOS ANGELES, CA, 90045","Match","Exact","8655 BELFORD AVE, LOS ANGELES, CA, 90045",141579594,"R"
304677,"8655 BELFORD AVE APT 285","LOS ANGELES","CA",90045,33.9589173740001,-118.383988292,177,"8655 BELFORD AVE APT 285, LOS ANGELES, CA, 90045","Match","Exact","8655 BELFORD AVE, LOS ANGELES, CA, 90045",141579594,"R"
304678,"8655 BELFORD AVE SUITE 170","LOS ANGELES","CA",90045,33.9589173740001,-118.383988292,178,"8655 BELFORD AVE SUITE 170, LOS ANGELES, CA, 90045","Match","Exact","8655 BELFORD AVE, LOS ANGELES, CA, 90045",141579594,"R"
304679,"8655 BELFORD AVE UNIT 246","LOS ANGELES","CA",90045,33.9589173740001,-118.383988292,179,"8655 BELFORD AVE UNIT 246, LOS ANGELES, CA, 90045","Match","Exact","8655 BELFORD AVE, LOS ANGELES, CA, 90045",141579594,"R"
304680,"8655 BELFORD AVE UNIT138","LOS ANGELES","CA",90045,33.9589173740001,-118.383988292,180,"8655 BELFORD AVE UNIT138, LOS ANGELES, CA, 90045","Match","Exact","8655 BELFORD AVE, LOS ANGELES, CA, 90045",141579594,"R"
304681,"8655 BROOKHOLLOW BLVD 9301","FRISCO","TX",75034,33.133752395,-96.806780938,181,"8655 BROOKHOLLOW BLVD 9301, FRISCO, TX, 75034","Match","Exact","8655 BROOKHOLLOW BLVD, FRISCO, TX, 75034",648154939,"R"
304682,"8655 BROOKHOLLOW BLVD APT 6211","FRISCO","TX",75034,33.133752395,-96.806780938,182,"8655 BROOKHOLLOW BLVD APT 6211, FRISCO, TX, 75034","Match","Exact","8655 BROOKHOLLOW BLVD, FRISCO, TX, 75034",648154939,"R"
304683,"8655 GEREN ROAD","SILVER SPRING","MD",20901,38.9973612100001,-77.006067011,183,"8655 GEREN ROAD, SILVER SPRING, MD, 20901","Match","Exact","8655 GEREN RD, SILVER SPRING, MD, 20901",62068569,"R"
304684,"8655 GRAVES AVE  27","SANTEE","CA",92071,32.832219593,-116.961337557,184,"8655 GRAVES AVE  27, SANTEE, CA, 92071","Match","Exact","8655 GRAVES AVE, SANTEE, CA, 92071",624600964,"R"
304685,"8655 KANE ROAD","FOUNTAIN","CO",80817,38.686526407,-104.666167771,185,"8655 KANE ROAD, FOUNTAIN, CO, 80817","Match","Exact","8655 KANE RD, FOUNTAIN, CO, 80817",610770853,"L"
304686,"8655 LOVELL LANE","BLACKLICK","OH",43004,40.002408432,-82.773686447,186,"8655 LOVELL LANE, BLACKLICK, OH, 43004","Match","Exact","8655 LOVELL LN, BLACKLICK, OH, 43004",218700263,"L"
304687,"8655 N BRITT AVE","KANSAS CITY","MO",64154,39.250846928,-94.615488231,187,"8655 N BRITT AVE, KANSAS CITY, MO, 64154","Match","Exact","8655 N BRITT AVE, KANSAS CITY, MO, 64154",642924613,"R"
304688,"8655 N GRANVILLE RD APT 9","MILWAUKEE","WI",53224,43.1749670730001,-88.041924627,188,"8655 N GRANVILLE RD APT 9, MILWAUKEE, WI, 53224","Match","Non_Exact","8655 N GRANVILLE RD, MILWAUKEE, WI, 53224",77765638,"L"
304689,"8655","SAINT LOUIS","MO",63134,NA,NA,189,"8655, SAINT LOUIS, MO, 63134","No_Match",NA,NA,NA,NA
304690,"8656 PARTRIDGE AVE","ST LOUIS","MO",63147,38.715173787,-90.240305991,190,"8656 PARTRIDGE AVE, ST LOUIS, MO, 63147","Match","Exact","8656 PARTRIDGE AVE, SAINT LOUIS, MO, 63147",605094426,"R"
304691,"8656 PAXTON STREET","HUMMELSTOWN","PA",17036,40.260967237,-76.733111518,191,"8656 PAXTON STREET, HUMMELSTOWN, PA, 17036","Match","Exact","8656 PAXTON ST, HUMMELSTOWN, PA, 17036",70824817,"L"
304692,"8656 VIA GIULA","BOCA RATON","FL",33496,26.402848095,-80.180867505,192,"8656 VIA GIULA, BOCA RATON, FL, 33496","Match","Exact","8656 VIA GIULA, BOCA RATON, FL, 33496",115483925,"R"
304693,"8657 BAYPINE RD SUITE 101","JACKSONVILLE","FL",32256,30.2270972160001,-81.5789447559999,193,"8657 BAYPINE RD SUITE 101, JACKSONVILLE, FL, 32256","Match","Exact","8657 BAYPINE RD, JACKSONVILLE, FL, 32256",83989467,"L"
304694,"8657 BLUE JAY WAY","PENSACOLA","FL",32534,30.522284675,-87.3061961449999,194,"8657 BLUE JAY WAY, PENSACOLA, FL, 32534","Match","Exact","8657 BLUE JAY WAY, PENSACOLA, FL, 32534",93238472,"L"
304695,"8657 MISSION SAN CARLOS DR 65","SANTEE","CA",92071,32.835674983,-117.035327168,195,"8657 MISSION SAN CARLOS DR 65, SANTEE, CA, 92071","Match","Exact","8657 MISSION SAN CARLOS DR, SANTEE, CA, 92071",195718755,"R"
304696,"8658 BLUEFIELD WAY","SACRAMENTO","CA",95823,38.4427100790001,-121.425054462,196,"8658 BLUEFIELD WAY, SACRAMENTO, CA, 95823","Match","Exact","8658 BLUEFIELD WAY, SACRAMENTO, CA, 95823",133380285,"R"
304697,"8658 E TURQUOISE AVE","SCOTTSDALE","AZ",85258,33.5739331280001,-111.894837431,197,"8658 E TURQUOISE AVE, SCOTTSDALE, AZ, 85258","Match","Exact","8658 E TURQUOISE AVE, SCOTTSDALE, AZ, 85258",128228579,"L"
304698,"8658 FLOWER PATH ST","HOUSTON","TX",77044,29.850644048,-95.1946212999999,198,"8658 FLOWER PATH ST, HOUSTON, TX, 77044","Match","Exact","8658 FLOWER PATH ST, HOUSTON, TX, 77044",96095005,"L"
304699,"8658 QUARTERS LAKE RD","BATON ROUGE","LA",70809,30.416736181,-91.094911869,199,"8658 QUARTERS LAKE RD, BATON ROUGE, LA, 70809","Match","Exact","8658 QUARTERS LAKE RD, BATON ROUGE, LA, 70809",92197362,"R"
304700,"8658 SOUTH COVE DRIVE","MAINEVILLE","OH",45039,39.31194465,-84.280643008,200,"8658 SOUTH COVE DRIVE, MAINEVILLE, OH, 45039","Match","Exact","8658 S COVE DR, MAINEVILLE, OH, 45039",159045867,"L"
304701,"8658 STATE ROUTE 104","HANNIBAL","NY",13074,43.3461169170001,-76.5699322249999,201,"8658 STATE ROUTE 104, HANNIBAL, NY, 13074","Match","Exact","8658 STATE RTE 104, HANNIBAL, NY, 13074",57832930,"L"
304702,"86584 PINEWOOD DRIVE","YULEE","FL",32097,30.6311290940001,-81.598533539,202,"86584 PINEWOOD DRIVE, YULEE, FL, 32097","Match","Exact","86584 PINEWOOD DR, YULEE, FL, 32097",84122008,"R"
304703,"8659 BEACH RD","PERRY","FL",32348,30.001176903,-83.558875711,203,"8659 BEACH RD, PERRY, FL, 32348","Match","Exact","8659 BEACH RD, PERRY, FL, 32348",53973009,"L"
304704,"8659 NW 181ST PL","REDDICK","FL",32686,29.4119639800001,-82.2680094089999,204,"8659 NW 181ST PL, REDDICK, FL, 32686","Match","Exact","8659 NW 181ST PL, REDDICK, FL, 32686",116813610,"L"
304705,"8659 W TIERRA BUENA LN","PEORIA","AZ",85382,33.627364115,-112.243840175,205,"8659 W TIERRA BUENA LN, PEORIA, AZ, 85382","Match","Exact","8659 W TIERRA BUENA LN, PEORIA, AZ, 85382",128399688,"L"
304706,"86599 MEADOWWOOD DRIVE","YULEE","FL",32097,30.612021467,-81.563700279,206,"86599 MEADOWWOOD DRIVE, YULEE, FL, 32097","Match","Exact","86599 MEADOWWOOD DR, YULEE, FL, 32097",610867405,"R"
304707,"866 ATWELLS AVENUE","PROVIDENCE","RI",2909,41.824931254,-71.4460543169999,207,"866 ATWELLS AVENUE, PROVIDENCE, RI, 2909","Match","Exact","866 ATWELLS AVE, PROVIDENCE, RI, 02909",47460271,"L"
304708,"866 CADOSIA ROAD","HANCOCK","NY",13783,NA,NA,208,"866 CADOSIA ROAD, HANCOCK, NY, 13783","No_Match",NA,NA,NA,NA
304709,"866 CLAY AVENUE","LANGHORNE","PA",19047,40.152446017,-74.900881135,209,"866 CLAY AVENUE, LANGHORNE, PA, 19047","Match","Exact","866 CLAY AVE, LANGHORNE, PA, 19047",134713169,"R"
304710,"866 CLEARFIELD LN","CINCINNATI","OH",45240,39.3048061860001,-84.509075175,210,"866 CLEARFIELD LN, CINCINNATI, OH, 45240","Match","Exact","866 CLEARFIELD LN, CINCINNATI, OH, 45240",103943283,"R"
304711,"866 DALMALLEY LANE","COPPELL","TX",75019,32.9916337810001,-96.9989789799999,211,"866 DALMALLEY LANE, COPPELL, TX, 75019","Match","Exact","866 DALMALLEY LN, COPPELL, TX, 75019",103411168,"R"
304712,"866 E 700 N APT C3","PROVO","UT",84606,40.2429907210001,-111.643670424,212,"866 E 700 N APT C3, PROVO, UT, 84606","Match","Non_Exact","866 E 700 N, PROVO, UT, 84606",134209580,"R"
304713,"866 GARCIE ROAD","ZWOLLE","LA",71486,31.6231703830001,-93.704963441,213,"866 GARCIE ROAD, ZWOLLE, LA, 71486","Match","Exact","866 GARCIE RD, ZWOLLE, LA, 71486",645536808,"R"
304714,"866 IWILEI ROAD SUITE 201","HONOLULU","HI",96817,21.3157786520001,-157.866361571,214,"866 IWILEI ROAD SUITE 201, HONOLULU, HI, 96817","Match","Exact","866 IWILEI RD, HONOLULU, HI, 96817",203259041,"R"
304715,"866 LATONKA DRIVE","MERCER","PA",16137,41.2784340960001,-80.186983681,215,"866 LATONKA DRIVE, MERCER, PA, 16137","Match","Exact","866 LATONKA DR, MERCER, PA, 16137",605365585,"R"
304716,"866 LAVERGNE LN","LA VERGNE","TN",37086,36.039812774,-86.54592342,216,"866 LAVERGNE LN, LA VERGNE, TN, 37086","Match","Exact","866 LAVERGNE LN, LA VERGNE, TN, 37086",632998581,"L"
304717,"866 M13","LENNON","MI",48449,NA,NA,217,"866 M13, LENNON, MI, 48449","No_Match",NA,NA,NA,NA
304718,"866 MARLENE DRIVE","GRETNA","LA",70056,29.8709399420001,-90.038297695,218,"866 MARLENE DRIVE, GRETNA, LA, 70056","Match","Exact","866 MARLENE DR, GRETNA, LA, 70056",648090765,"R"
304719,"866 NE 134TH ST","MIAMI","FL",33161,25.8987285900001,-80.1814693489999,219,"866 NE 134TH ST, MIAMI, FL, 33161","Match","Exact","866 NE 134TH ST, MIAMI, FL, 33161",116034353,"R"
304720,"866 PIKE STREET","SADIEVILLE","KY",40370,38.391698526,-84.530851013,220,"866 PIKE STREET, SADIEVILLE, KY, 40370","Match","Exact","866 PIKE ST, SADIEVILLE, KY, 40370",41240505,"L"
304721,"866 PULPIT ROCK CIR N","COLORADO SPRINGS","CO",80918,38.9210457080001,-104.811169935,221,"866 PULPIT ROCK CIR N, COLORADO SPRINGS, CO, 80918","Match","Exact","866 PULPIT ROCK CIR N, COLORADO SPRINGS, CO, 80918",105509604,"L"
304722,"866 RIVER BEND DR","ROCHESTER HILLS","MI",48308,42.6689366410001,-83.150609634,222,"866 RIVER BEND DR, ROCHESTER HILLS, MI, 48308","Match","Non_Exact","866 RIVER BEND DR, ROCHESTER HLS, MI, 48307",69713490,"L"
304723,"866 SQUIRE COURT","CARY","NC",27511,35.780460541,-78.7945853269999,223,"866 SQUIRE COURT, CARY, NC, 27511","Match","Exact","866 SQUIRE CT, CARY, NC, 27511",72646942,"R"
304724,"866 SUMMERLAKE DRIVE","FORT MILL","SC",29715,35.0601156820001,-80.9104732499999,224,"866 SUMMERLAKE DRIVE, FORT MILL, SC, 29715","Match","Exact","866 SUMMERLAKE DR, FORT MILL, SC, 29715",645273463,"R"
304725,"866 SUNSET RIDGE LANE","LAWRENCEVILLE","GA",30045,33.94645066,-83.9410053669999,225,"866 SUNSET RIDGE LANE, LAWRENCEVILLE, GA, 30045","Match","Non_Exact","866 SUNSET RIDGE LN SE, LAWRENCEVILLE, GA, 30045",627010353,"R"
304726,"866 UNITED NATIONS PLAZA RM 406","NEW YORK","NY",10017,NA,NA,226,"866 UNITED NATIONS PLAZA RM 406, NEW YORK, NY, 10017","No_Match",NA,NA,NA,NA
304727,"866 WEST END AVE 3B","NEW YORK","NY",10025,40.7992780210001,-73.970261556,227,"866 WEST END AVE 3B, NEW YORK, NY, 10025","Match","Exact","866 W END AVE, NEW YORK, NY, 10025",59656823,"R"
304728,"866 WILLOW TREE CIRCLE","CORDOVA","TN",38018,35.149202351,-89.79358732,228,"866 WILLOW TREE CIRCLE, CORDOVA, TN, 38018","Match","Exact","866 WILLOW TREE CIR, CORDOVA, TN, 38018",72949248,"R"
304729,"866 WILSON BLD","CENTRAL ISLIP","NY",11722,40.7777554030001,-73.208217862,229,"866 WILSON BLD, CENTRAL ISLIP, NY, 11722","Match","Non_Exact","866 WILSON BLVD, CENTRAL ISLIP, NY, 11722",113989974,"R"
304730,"8660 DRAYTON DRIVE","IRVING","TX",75063,32.9255085,-96.963420736,230,"8660 DRAYTON DRIVE, IRVING, TX, 75063","Match","Exact","8660 DRAYTON DR, IRVING, TX, 75063",635289899,"L"
304731,"8660 E 131ST ST","FISHERS","IN",46038,39.978661549,-86.016484255,231,"8660 E 131ST ST, FISHERS, IN, 46038","Match","Exact","8660 E 131ST ST, FISHERS, IN, 46038",642660665,"R"
304732,"8660 OLD VILLA CT","FAIR OAKS","CA",95628,38.6627454590001,-121.236321688,232,"8660 OLD VILLA CT, FAIR OAKS, CA, 95628","Match","Exact","8660 OLD VILLA CT, FAIR OAKS, CA, 95628",133383790,"R"
304733,"8660 SE 245TH AVE","PORTLAND","OR",97089,45.4602005570001,-122.410955146,233,"8660 SE 245TH AVE, PORTLAND, OR, 97089","Match","Non_Exact","8660 SE 245TH AVE, BORING, OR, 97089",157923044,"L"
304734,"8660 SHERIDAN DR/ PO BOX 821","SOMERSET","OH",43783,NA,NA,234,"8660 SHERIDAN DR/ PO BOX 821, SOMERSET, OH, 43783","No_Match",NA,NA,NA,NA
304735,"8660 WILLIWA AVE","ANCHORAGE","AK",99504,61.1884930510001,-149.719144856,235,"8660 WILLIWA AVE, ANCHORAGE, AK, 99504","Match","Exact","8660 WILLIWA AVE, ANCHORAGE, AK, 99504",190823719,"L"
304736,"8661 18TH STREET","RCH CUCAMONGA","CA",91701,34.128862547,-117.61734436,236,"8661 18TH STREET, RCH CUCAMONGA, CA, 91701","Match","Exact","8661 18TH ST, RANCHO CUCAMONGA, CA, 91701",144634100,"R"
304737,"8661 E 26TH AVE","DENVER","CO",80238,39.7546607950001,-104.887785433,237,"8661 E 26TH AVE, DENVER, CO, 80238","Match","Exact","8661 E 26TH AVE, DENVER, CO, 80238",606061157,"L"
304738,"8661 NW 26TH ST","SUNRISE","FL",33322,26.1573653630001,-80.265238443,238,"8661 NW 26TH ST, SUNRISE, FL, 33322","Match","Exact","8661 NW 26TH ST, SUNRISE, FL, 33322",114703518,"R"
304739,"8661C RAYSON RD","HOUSTON","TX",77080,29.8255553710001,-95.5049301559999,239,"8661C RAYSON RD, HOUSTON, TX, 77080","Match","Exact","8661 RAYSON RD, HOUSTON, TX, 77080",96026055,"L"
304740,"8662 CUB CREEK ROAD","NASHVILLE","TN",37209,36.178429986,-86.9849431219999,240,"8662 CUB CREEK ROAD, NASHVILLE, TN, 37209","Match","Exact","8662 CUB CREEK RD, NASHVILLE, TN, 37209",635466130,"R"
304741,"8662 DODGE AVE","WARREN","MI",48089,42.462536938,-83.01825557,241,"8662 DODGE AVE, WARREN, MI, 48089","Match","Exact","8662 DODGE AVE, WARREN, MI, 48089",110677527,"R"
304742,"8662 LAC JAC AVE","PARLIER","CA",93648,36.6101725890001,-119.484328146,242,"8662 LAC JAC AVE, PARLIER, CA, 93648","Match","Non_Exact","8662 S LAC JAC AVE, PARLIER, CA, 93648",197593442,"L"
304743,"8662 PALERMO DRIVE","HUNTINGTON BEACH","CA",92646,33.680671654,-117.977509204,243,"8662 PALERMO DRIVE, HUNTINGTON BEACH, CA, 92646","Match","Exact","8662 PALERMO DR, HUNTINGTON BEACH, CA, 92646",144020597,"R"
304744,"8662 STONE ROAD","ALGONAC","MI",48001,42.6476254580001,-82.560811631,244,"8662 STONE ROAD, ALGONAC, MI, 48001","Match","Exact","8662 STONE RD, ALGONAC, MI, 48001",642515868,"L"
304745,"8663 CAUSEWAY DRIVE","HOUSTON","TX",77083,29.6851075210001,-95.615743099,245,"8663 CAUSEWAY DRIVE, HOUSTON, TX, 77083","Match","Exact","8663 CAUSEWAY DR, HOUSTON, TX, 77083",96568309,"R"
304746,"8663 COUNTY ROAD 9790","WEST PLAINS","MO",65775,36.726206464,-91.694021607,246,"8663 COUNTY ROAD 9790, WEST PLAINS, MO, 65775","Match","Exact","8663 CO RD 9790, WEST PLAINS, MO, 65775",33325248,"L"
304747,"8663 GOLDEN FALLS CIRCLE","AVON","IN",46123,39.782022801,-86.368388474,247,"8663 GOLDEN FALLS CIRCLE, AVON, IN, 46123","Match","Exact","8663 GOLDEN FALLS CIR, AVON, IN, 46123",646617585,"L"
304748,"8663 LITTLE SUNFLOWER PLACE","PARKER","CO",80134,39.5591218770001,-104.783906627,248,"8663 LITTLE SUNFLOWER PLACE, PARKER, CO, 80134","Match","Exact","8663 LITTLE SUNFLOWER PL, PARKER, CO, 80134",130802962,"L"
304749,"86635 PINE GROVE ROAD","EUGENE","OR",97402,44.0107962490001,-123.24079391,249,"86635 PINE GROVE ROAD, EUGENE, OR, 97402","Match","Exact","86635 PINE GROVE RD, EUGENE, OR, 97402",178222736,"R"
304750,"8664 BRIDGEWOOD DR","SOUTHAVEN","MS",38671,34.98642484,-89.975459539,250,"8664 BRIDGEWOOD DR, SOUTHAVEN, MS, 38671","Match","Exact","8664 BRIDGEWOOD DR, SOUTHAVEN, MS, 38671",91825047,"R"
304751,"8664 DEAN DRIVE","MILLINGTON","MI",48746,43.279808143,-83.519518679,251,"8664 DEAN DRIVE, MILLINGTON, MI, 48746","Match","Exact","8664 DEAN DR, MILLINGTON, MI, 48746",81248764,"R"
304752,"8664 DILIP LANE","NAPLES","FL",34104,26.159825347,-81.6936590569999,252,"8664 DILIP LANE, NAPLES, FL, 34104","Match","Exact","8664 DILIP LN, NAPLES, FL, 34104",619112448,"R"
304753,"8664 GRAND AVENUE","RIVER GROVE","IL",60171,41.9297468120001,-87.8427107479999,253,"8664 GRAND AVENUE, RIVER GROVE, IL, 60171","Match","Exact","8664 GRAND AVE, RIVER GROVE, IL, 60171",111747770,"R"
304754,"8664 PA RTE 873","SLATINGTON","PA",18080,40.777960373,-75.60860547,254,"8664 PA RTE 873, SLATINGTON, PA, 18080","Match","Non_Exact","8664 STATE RTE 873, SLATINGTON, PA, 18080",80750760,"L"
304755,"8664 SW 55TH ST","COOPER CITY","FL",33328,26.0518761640001,-80.261316972,255,"8664 SW 55TH ST, COOPER CITY, FL, 33328","Match","Exact","8664 SW 55TH ST, COOPER CITY, FL, 33328",114711938,"L"
304756,"8665 AIRPORT ROAD","MIDDLETON","WI",53562,43.1109549220001,-89.582175515,256,"8665 AIRPORT ROAD, MIDDLETON, WI, 53562","Match","Exact","8665 AIRPORT RD, MIDDLETON, WI, 53562",630386867,"L"
304757,"8665 HALE AVE S","COTTAGE GROVE","MN",55016,44.8237076730001,-92.964698578,257,"8665 HALE AVE S, COTTAGE GROVE, MN, 55016","Match","Exact","8665 HALE AVE S, COTTAGE GROVE, MN, 55016",97815513,"L"
304758,"8665 WATER LYNN CIRCLE  NW  APT 304","CONCORD","NC",28027,35.3762567910001,-80.704021772,258,"8665 WATER LYNN CIRCLE  NW  APT 304, CONCORD, NC, 28027","Match","Non_Exact","8665 WATERLYNN CIR NW, CONCORD, NC, 28027",650869703,"L"
304759,"8666 E TRAVERSE HWY","TRAVERSE CITY","MI",49684,44.7754397910001,-85.681450109,259,"8666 E TRAVERSE HWY, TRAVERSE CITY, MI, 49684","Match","Exact","8666 E TRAVERSE HWY, TRAVERSE CITY, MI, 49684",649411527,"L"
304760,"8666 EAST SAN ALBERTO DRIVE","SCOTTSDALE","AZ",85258,33.5553195370001,-111.893785948,260,"8666 EAST SAN ALBERTO DRIVE, SCOTTSDALE, AZ, 85258","Match","Exact","8666 E SAN ALBERTO DR, SCOTTSDALE, AZ, 85258",128283983,"L"
304761,"8666 NW 47TH DRIVE","CORAL SPRINGS","FL",33067,26.289181221,-80.242062055,261,"8666 NW 47TH DRIVE, CORAL SPRINGS, FL, 33067","Match","Exact","8666 NW 47TH DR, CORAL SPRINGS, FL, 33067",114772826,"L"
304762,"8667 DENA COVE EAST","CORDOVA","TN",38016,35.1233040880001,-89.773655076,262,"8667 DENA COVE EAST, CORDOVA, TN, 38016","Match","Non_Exact","8667 DENA COVE E, CORDOVA, TN, 38018",607433510,"R"
304763,"8667 GRAND PRIX LN","BOYNTON BEACH","FL",33472,26.540130751,-80.176550106,263,"8667 GRAND PRIX LN, BOYNTON BEACH, FL, 33472","Match","Exact","8667 GRAND PRIX LN, BOYNTON BEACH, FL, 33472",648385824,"L"
304764,"8667 SAWPINE RD","DELRAY BEACH","FL",33446,26.450878,-80.1802613949999,264,"8667 SAWPINE RD, DELRAY BEACH, FL, 33446","Match","Exact","8667 SAWPINE RD, DELRAY BEACH, FL, 33446",115282536,"L"
304765,"86675 N HAMPTON CLUB WAY","FERNANDINA BEACH","FL",32034,30.604344972,-81.555240111,265,"86675 N HAMPTON CLUB WAY, FERNANDINA BEACH, FL, 32034","Match","Exact","86675 N HAMPTON CLUB WAY, FERNANDINA BCH, FL, 32034",635884955,"R"
304766,"8668 130TH AVE N","WEST PALM BEACH","FL",33412,26.8057845230001,-80.244733216,266,"8668 130TH AVE N, WEST PALM BEACH, FL, 33412","Match","Exact","8668 130TH AVE N, WEST PALM BEACH, FL, 33412",115264057,"L"
304767,"8668 ALVARADO STREET","INVER GROVE HEIGHTS","MN",55077,NA,NA,267,"8668 ALVARADO STREET, INVER GROVE HEIGHTS, MN, 55077","Tie",NA,NA,NA,NA
304768,"8668 ASH COURT","SPANISH FORT","AL",36527,30.669603389,-87.873534102,268,"8668 ASH COURT, SPANISH FORT, AL, 36527","Match","Exact","8668 ASH CT, SPANISH FORT, AL, 36527",131695096,"L"
304769,"8668 JOHN HICKMAN PKWY SUITE 1003","FRISCO","TX",75034,NA,NA,269,"8668 JOHN HICKMAN PKWY SUITE 1003, FRISCO, TX, 75034","No_Match",NA,NA,NA,NA
304770,"8668 JOHN HICKMAN PKWY UNIT 906","FRISCO","TX",75034,NA,NA,270,"8668 JOHN HICKMAN PKWY UNIT 906, FRISCO, TX, 75034","No_Match",NA,NA,NA,NA
304771,"8668 NAVARRE PARKWAY SUITE 336","NAVARRE","FL",32566,30.4019628120001,-86.859108007,271,"8668 NAVARRE PARKWAY SUITE 336, NAVARRE, FL, 32566","Match","Exact","8668 NAVARRE PKWY, NAVARRE, FL, 32566",74608142,"L"
304772,"8668 SIMMONS ROAD","REDDING","CA",96001,40.5367850870001,-122.455662952,272,"8668 SIMMONS ROAD, REDDING, CA, 96001","Match","Exact","8668 SIMMONS RD, REDDING, CA, 96001",126630646,"L"
304773,"8668 STANHOPE-KELLOGGSVILLE ROAD","WILLIAMSFIELD","OH",44093,41.513344766,-80.60523968,273,"8668 STANHOPE-KELLOGGSVILLE ROAD, WILLIAMSFIELD, OH, 44093","Match","Non_Exact","8668 STANHOPE KELLOGGSVILLE RD, WILLIAMSFIELD, OH, 44093",117323441,"R"
304774,"8669 CREIGTON DRIVE","POWELL","OH",43065,NA,NA,274,"8669 CREIGTON DRIVE, POWELL, OH, 43065","No_Match",NA,NA,NA,NA
304775,"8669 DOVELAND DRIVE APT H","PAHOKEE","FL",33476,NA,NA,275,"8669 DOVELAND DRIVE APT H, PAHOKEE, FL, 33476","No_Match",NA,NA,NA,NA
304776,"8669 ECHO GRANDE DRIVE","LAS VEGAS","NV",89131,36.3166027730001,-115.258397796,276,"8669 ECHO GRANDE DRIVE, LAS VEGAS, NV, 89131","Match","Exact","8669 ECHO GRANDE DR, LAS VEGAS, NV, 89131",641494838,"L"
304777,"8669 N IRON HORSE DR","LAKE POINT","UT",84074,40.6866824150001,-112.2527484,277,"8669 N IRON HORSE DR, LAKE POINT, UT, 84074","Match","Non_Exact","8669 N IRON HORSE RD, LAKE POINT, UT, 84074",651921077,"L"
304778,"8669 NW 36 STREET SUITE 340","MIAMI","FL",33166,25.8098064340001,-80.330613033,278,"8669 NW 36 STREET SUITE 340, MIAMI, FL, 33166","Match","Non_Exact","8669 NW 36TH ST, MIAMI, FL, 33166",648372961,"L"
304779,"8669 PORTAGE ST NW","MASSILLON","OH",44646,40.879987269,-81.510900748,279,"8669 PORTAGE ST NW, MASSILLON, OH, 44646","Match","Exact","8669 PORTAGE ST NW, MASSILLON, OH, 44646",625233911,"R"
304780,"8669 SALMON AVE 2052","KINGS BEACH","CA",96143,39.2361318320001,-120.020109054,280,"8669 SALMON AVE 2052, KINGS BEACH, CA, 96143","Match","Exact","8669 SALMON AVE, KINGS BEACH, CA, 96143",106753243,"R"
304781,"86695 AVENUE 54 SUITE D","COACHELLA","CA",92236,NA,NA,281,"86695 AVENUE 54 SUITE D, COACHELLA, CA, 92236","No_Match",NA,NA,NA,NA
304782,"867 ADOLPH RD","MILL CREEK","WV",26280,NA,NA,282,"867 ADOLPH RD, MILL CREEK, WV, 26280","No_Match",NA,NA,NA,NA
304783,"867 ALBERT HOOK RD","LACENTER","KY",42056,37.052713496,-88.965924372,283,"867 ALBERT HOOK RD, LACENTER, KY, 42056","Match","Non_Exact","867 ALBERT HOOK RD, LA CENTER, KY, 42056",27854295,"L"
304784,"867 BOYLSTON ST 5TH FLOOR UNIT 421","BOSTON","MA",2116,42.3485488680001,-71.0831334539999,284,"867 BOYLSTON ST 5TH FLOOR UNIT 421, BOSTON, MA, 2116","Match","Exact","867 BOYLSTON ST, BOSTON, MA, 02116",85697617,"R"
304785,"867 BOYLSTON ST 5TH FLOOR","BOSTON","MA",2116,42.3485488680001,-71.0831334539999,285,"867 BOYLSTON ST 5TH FLOOR, BOSTON, MA, 2116","Match","Exact","867 BOYLSTON ST, BOSTON, MA, 02116",85697617,"R"
304786,"867 BRECKENRIDGE DRIVE","MONTICELLO","IA",52310,42.248377915,-91.1966509919999,286,"867 BRECKENRIDGE DRIVE, MONTICELLO, IA, 52310","Match","Exact","867 BRECKENRIDGE DR, MONTICELLO, IA, 52310",612930783,"L"
304787,"867 CALLE CABRERA","SAN JUAN","PR",925,18.403693079,-66.0538440839999,287,"867 CALLE CABRERA, SAN JUAN, PR, 925","Match","Non_Exact","867 CLL CABRERA, SAN JUAN, PR, 00925",206609457,"R"
304788,"867 CLAYTON DRIVE","WORTHINGTON","OH",43085,40.083812042,-83.040799223,288,"867 CLAYTON DRIVE, WORTHINGTON, OH, 43085","Match","Exact","867 CLAYTON DR, WORTHINGTON, OH, 43085",218660322,"L"
304789,"867 COUNTY ROAD 2213","CLEVELAND","TX",77327,30.375085497,-94.97327943,289,"867 COUNTY ROAD 2213, CLEVELAND, TX, 77327","Match","Exact","867 CO RD 2213, CLEVELAND, TX, 77327",24127230,"L"
304790,"867 E COURTHOUSE RD","BLACKSTONE","VA",23824,37.09079962,-78.012518115,290,"867 E COURTHOUSE RD, BLACKSTONE, VA, 23824","Match","Exact","867 COURTHOUSE RD, BLACKSTONE, VA, 23824",54382362,"L"
304791,"867 E EIGHTH ST","TRAVERSE CITY","MI",49686,44.758920903,-85.60145591,291,"867 E EIGHTH ST, TRAVERSE CITY, MI, 49686","Match","Exact","867 E 8TH ST, TRAVERSE CITY, MI, 49686",145515044,"R"
304792,"867 EAGLE POINT","MONTGOMERY","TX",77316,30.273501981,-95.5620292899999,292,"867 EAGLE POINT, MONTGOMERY, TX, 77316","Match","Exact","867 EAGLE PT, MONTGOMERY, TX, 77316",79338828,"L"
304793,"867 EAST 13TH STREET","BROOKLYN","NY",11230,40.628081481,-73.963823237,293,"867 EAST 13TH STREET, BROOKLYN, NY, 11230","Match","Exact","867 E 13TH ST, BROOKLYN, NY, 11230",59099370,"L"
304794,"867 EAST 2260 SOUTH","PROVO","UT",84606,40.20360792,-111.642453617,294,"867 EAST 2260 SOUTH, PROVO, UT, 84606","Match","Exact","867 E 2260 S, PROVO, UT, 84606",134227662,"R"
304795,"867 EAST 9400 SOUTH","SANDY","UT",84094,40.5805932280001,-111.866960314,295,"867 EAST 9400 SOUTH, SANDY, UT, 84094","Match","Exact","867 E 9400 S, SANDY, UT, 84094",649761202,"L"
304796,"867 FILER AVE W","TWIN FALLS","ID",83301,42.571314859,-114.498631369,296,"867 FILER AVE W, TWIN FALLS, ID, 83301","Match","Exact","867 FILER AVE W, TWIN FALLS, ID, 83301",649576279,"L"
304797,"867 GRAFTON ST NUMBER 10","WORCESTER","MA",1604,42.248379711,-71.761941543,297,"867 GRAFTON ST NUMBER 10, WORCESTER, MA, 1604","Match","Exact","867 GRAFTON ST, WORCESTER, MA, 01604",40014761,"L"
304798,"867 GRAMERCY HILLS LANE","MABLETON","GA",30126,33.7971537510001,-84.529818561,298,"867 GRAMERCY HILLS LANE, MABLETON, GA, 30126","Match","Exact","867 GRAMERCY HILLS LN, MABLETON, GA, 30126",614185045,"R"
304799,"867 HARLEY STRICKLAND BLVD","ORANGE CITY","FL",32763,28.9171786220001,-81.289334326,299,"867 HARLEY STRICKLAND BLVD, ORANGE CITY, FL, 32763","Match","Exact","867 HARLEY STRICKLAND BLVD, ORANGE CITY, FL, 32763",94570671,"L"
304800,"867 JEFFERSON AVE","BUFFALO","NY",14204,42.8988114680001,-78.853964671,300,"867 JEFFERSON AVE, BUFFALO, NY, 14204","Match","Exact","867 JEFFERSON AVE, BUFFALO, NY, 14204",48291291,"R"
304801,"867 LAGUNA DRIVE","FERNANDINA BEACH","FL",32034,30.6609983280001,-81.433797799,301,"867 LAGUNA DRIVE, FERNANDINA BEACH, FL, 32034","Match","Exact","867 LAGUNA DR, FERNANDINA BCH, FL, 32034",84115972,"R"
304802,"867 LOUIE LN","SENECA","SC",29678,34.6541890440001,-82.868060768,302,"867 LOUIE LN, SENECA, SC, 29678","Match","Exact","867 LOUIE LN, SENECA, SC, 29678",25676252,"R"
304803,"867 N 6TH STREET","GROVER BEACH","CA",93433,35.129917005,-120.622814563,303,"867 N 6TH STREET, GROVER BEACH, CA, 93433","Match","Exact","867 N 6TH ST, GROVER BEACH, CA, 93433",645353916,"L"
304804,"867 PINEFALLS AVENUE","DIAMOND BAR","CA",91789,34.0011024660001,-117.847819984,304,"867 PINEFALLS AVENUE, DIAMOND BAR, CA, 91789","Match","Exact","867 PINEFALLS AVE, DIAMOND BAR, CA, 91789",141728747,"R"
304805,"867 S17TH STREET","NEWARK","NJ",7108,NA,NA,305,"867 S17TH STREET, NEWARK, NJ, 7108","No_Match",NA,NA,NA,NA
304806,"867 SUNDANCE DRIVE","CINCINNATI","OH",45233,39.1127603460001,-84.669254746,306,"867 SUNDANCE DRIVE, CINCINNATI, OH, 45233","Match","Exact","867 SUNDANCE DR, CINCINNATI, OH, 45233",103948916,"R"
304807,"867 W 181ST STREET 6B","NEW YORK","NY",10033,NA,NA,307,"867 W 181ST STREET 6B, NEW YORK, NY, 10033","No_Match",NA,NA,NA,NA
304808,"867 W BLOOMINGDALE AVE UNIT 6413","BRANDON","FL",33508,NA,NA,308,"867 W BLOOMINGDALE AVE UNIT 6413, BRANDON, FL, 33508","No_Match",NA,NA,NA,NA
304809,"867 W SMITH RD","BELLINGHAM","WA",98226,48.8332996950001,-122.528040662,309,"867 W SMITH RD, BELLINGHAM, WA, 98226","Match","Exact","867 W SMITH RD, BELLINGHAM, WA, 98226",627314516,"L"
304810,"867 WASHINGTON AVENUE","VANDENBERG AFB","CA",93437,NA,NA,310,"867 WASHINGTON AVENUE, VANDENBERG AFB, CA, 93437","No_Match",NA,NA,NA,NA
304811,"867 WEST 181ST STREET","NEW YORK","NY",10033,NA,NA,311,"867 WEST 181ST STREET, NEW YORK, NY, 10033","No_Match",NA,NA,NA,NA
304812,"8670 ASHLEY GLEN CIRCLE SOUTH","CORDOVA","TN",38018,NA,NA,312,"8670 ASHLEY GLEN CIRCLE SOUTH, CORDOVA, TN, 38018","No_Match",NA,NA,NA,NA
304813,"8670 NW BRIARWOOD DRIVE","PORTLAND","OR",97231,45.58229765,-122.863158485,313,"8670 NW BRIARWOOD DRIVE, PORTLAND, OR, 97231","Match","Exact","8670 NW BRIARWOOD DR, PORTLAND, OR, 97231",158202341,"R"
304814,"8670 W CHEYENNE AVE STE 135","LAS VEGAS","NV",89129,36.2186064380001,-115.284047291,314,"8670 W CHEYENNE AVE STE 135, LAS VEGAS, NV, 89129","Match","Non_Exact","8670 W CHEYENNE AVE, LAS VEGAS, NV, 89129",640232458,"R"
304815,"8670 WEST CHEYENNE AVE SUITE 120","LAS VEGAS","NV",89129,36.2186065180001,-115.28400997,315,"8670 WEST CHEYENNE AVE SUITE 120, LAS VEGAS, NV, 89129","Match","Exact","8670 W CHEYENNE AVE, LAS VEGAS, NV, 89129",640232458,"R"
304816,"8670 WEST GUSS CT","WASILLA","AK",99623,61.57276348,-149.668791605,316,"8670 WEST GUSS CT, WASILLA, AK, 99623","Match","Non_Exact","8670 GUS'S CT, WASILLA, AK, 99623",191043273,"R"
304817,"8670 WINCHESTER STREET APT 1308","LENEXA","KS",66219,38.971158813,-94.786564418,317,"8670 WINCHESTER STREET APT 1308, LENEXA, KS, 66219","Match","Exact","8670 WINCHESTER ST, LENEXA, KS, 66219",624318167,"L"
304818,"8671 CAMAC STREET","EASTON","MD",21601,38.787262239,-76.0412867759999,318,"8671 CAMAC STREET, EASTON, MD, 21601","Match","Exact","8671 CAMAC ST, EASTON, MD, 21601",631804307,"L"
304819,"8671 IRISBURG RD","AXTON","VA",24054,NA,NA,319,"8671 IRISBURG RD, AXTON, VA, 24054","No_Match",NA,NA,NA,NA
304820,"8671 ROSALIE AVENUE","SAINT LOUIS","MO",63144,38.61885454,-90.34368449,320,"8671 ROSALIE AVENUE, SAINT LOUIS, MO, 63144","Match","Exact","8671 ROSALIE AVE, SAINT LOUIS, MO, 63144",100135319,"R"
304821,"8672 CORTEZ AVE","GARDEN GROVE","CA",92844,33.771430244,-117.977850481,321,"8672 CORTEZ AVE, GARDEN GROVE, CA, 92844","Match","Exact","8672 CORTEZ AVE, GARDEN GROVE, CA, 92844",144095270,"L"
304822,"8672 SAN ACRLOS AVE   B","SOUTH GATE","CA",90280,NA,NA,322,"8672 SAN ACRLOS AVE   B, SOUTH GATE, CA, 90280","No_Match",NA,NA,NA,NA
304823,"86731 OVERSEAS HWY","ISLAMORADA","FL",33036,24.9586023910001,-80.5720391149999,323,"86731 OVERSEAS HWY, ISLAMORADA, FL, 33036","Match","Exact","86731 OVERSEAS HWY, ISLAMORADA, FL, 33036",116467249,"R"
304824,"8674 EAST SILVER RIDGE LANE","ANAHEIM HILLS","CA",92808,33.8572429010001,-117.724027457,324,"8674 EAST SILVER RIDGE LANE, ANAHEIM HILLS, CA, 92808","Match","Non_Exact","8674 E SILVER RIDGE LN, ANAHEIM, CA, 92808",144125471,"R"
304825,"8674 OAKHAM DRIVE","MECHANICSVILLE","VA",23116,37.6596621410001,-77.398648505,325,"8674 OAKHAM DRIVE, MECHANICSVILLE, VA, 23116","Match","Exact","8674 OAKHAM DR, MECHANICSVILLE, VA, 23116",640840326,"L"
304826,"8675 BROOKE AVENUE","WESTMINSTER","CA",92683,33.7275025530001,-117.977302105,326,"8675 BROOKE AVENUE, WESTMINSTER, CA, 92683","Match","Exact","8675 BROOKE AVE, WESTMINSTER, CA, 92683",144018372,"L"
304827,"8675 E KEMPER ROAD","CINCINNATI","OH",45249,39.2695696540001,-84.3226960809999,327,"8675 E KEMPER ROAD, CINCINNATI, OH, 45249","Match","Exact","8675 E KEMPER RD, CINCINNATI, OH, 45249",103958789,"R"
304828,"8675 MAIDSTONE CT","SEMINOLE","FL",33777,27.8667814400001,-82.760243513,328,"8675 MAIDSTONE CT, SEMINOLE, FL, 33777","Match","Exact","8675 MAIDSTONE CT, SEMINOLE, FL, 33777",124678788,"R"
304829,"8675 ROUNDHILL CT","SALINE","MI",48176,42.1606462990001,-83.7488333379999,329,"8675 ROUNDHILL CT, SALINE, MI, 48176","Match","Exact","8675 ROUNDHILL CT, SALINE, MI, 48176",26019217,"L"
304830,"8675 WATERLYNN CIRCLE  NW   APT 301","CONCORD","NC",28027,35.3766225790001,-80.704308467,330,"8675 WATERLYNN CIRCLE  NW   APT 301, CONCORD, NC, 28027","Match","Exact","8675 WATERLYNN CIR NW, CONCORD, NC, 28027",650869703,"L"
304831,"8676 MARKLEY DR","WADSWORTH","OH",44281,41.042308227,-81.810973734,331,"8676 MARKLEY DR, WADSWORTH, OH, 44281","Match","Exact","8676 MARKLEY DR, WADSWORTH, OH, 44281",58689033,"R"
304832,"8676 S DUCK RIDGE WAY","WEST JORDAN","UT",84081,40.593683814,-112.038996032,332,"8676 S DUCK RIDGE WAY, WEST JORDAN, UT, 84081","Match","Exact","8676 DUCK RIDGE WAY, WEST JORDAN, UT, 84081",645873775,"L"
304833,"8676 WATERSIDE COURT","LAUREL","MD",20723,39.132399707,-76.912597675,333,"8676 WATERSIDE COURT, LAUREL, MD, 20723","Match","Exact","8676 WATERSIDE CT, LAUREL, MD, 20723",619682655,"R"
304834,"8677 LONG SPUR TRAIL","EDMOND","OK",73034,35.7449687540001,-97.433037255,334,"8677 LONG SPUR TRAIL, EDMOND, OK, 73034","Match","Exact","8677 LONG SPUR TRL, EDMOND, OK, 73034",618368750,"R"
304835,"8677 OREGON ROAD","CANAL WINCHESTER","OH",43110,39.804072444,-82.84254433,335,"8677 OREGON ROAD, CANAL WINCHESTER, OH, 43110","Match","Exact","8677 OREGON RD, CANAL WINCHESTER, OH, 43110",218637459,"L"
304836,"8677 SHADOW CREST CIRCLE","ANTELOPE","CA",95843,38.7253295290001,-121.378036631,336,"8677 SHADOW CREST CIRCLE, ANTELOPE, CA, 95843","Match","Exact","8677 SHADOW CREST CIR, ANTELOPE, CA, 95843",133385147,"L"
304837,"8677 VILLA LA JOLLA DRIVE 1335","LA JOLLA","CA",92037,32.8659870610001,-117.233479428,337,"8677 VILLA LA JOLLA DRIVE 1335, LA JOLLA, CA, 92037","Match","Exact","8677 VILLA LA JOLLA DR, LA JOLLA, CA, 92037",611600313,"R"
304838,"8678 HIGHWAY 6","ROBELINE","LA",71469,31.7019765430001,-93.291130467,338,"8678 HIGHWAY 6, ROBELINE, LA, 71469","Match","Non_Exact","8678 STATE RTE 6, ROBELINE, LA, 71469",13360769,"L"
304839,"868 129TH LANE NE","BLAINE","MN",55434,45.205312969,-93.248339887,339,"868 129TH LANE NE, BLAINE, MN, 55434","Match","Exact","868 129TH LN NE, BLAINE, MN, 55434",618239871,"R"
304840,"868 A MAIN ST","WORCESTER","MA",1610,42.2536551920001,-71.8159011769999,340,"868 A MAIN ST, WORCESTER, MA, 1610","Match","Exact","868 MAIN ST, WORCESTER, MA, 01610",40009762,"R"
304841,"868 AMSTERDAM 11B","NEW YORK","NY",10025,40.7981619350001,-73.967374401,341,"868 AMSTERDAM 11B, NEW YORK, NY, 10025","Match","Non_Exact","868 AMSTERDAM AVE, NEW YORK, NY, 10025",59656850,"L"
304842,"868 ARBOR DOWNS DR","PLANO","TX",75203,33.049766495,-96.708309274,342,"868 ARBOR DOWNS DR, PLANO, TX, 75203","Match","Non_Exact","868 ARBOR DOWNS DR, PLANO, TX, 75023",210470498,"R"
304843,"868 BEECHWOOD DRIVE","DALY CITY","CA",94015,NA,NA,343,"868 BEECHWOOD DRIVE, DALY CITY, CA, 94015","No_Match",NA,NA,NA,NA
304844,"868 CONNELLEY FARM RD","SALYERSVILLE","KY",41465,37.749574699,-83.0975777789999,344,"868 CONNELLEY FARM RD, SALYERSVILLE, KY, 41465","Match","Non_Exact","868 CONNELLY FARM RD, SALYERSVILLE, KY, 41465",33485496,"R"
304845,"868 COVE PKWY UNIT B","COTTONWOOD","AZ",86326,34.723875358,-112.002578087,345,"868 COVE PKWY UNIT B, COTTONWOOD, AZ, 86326","Match","Exact","868 COVE PKWY, COTTONWOOD, AZ, 86326",608169700,"R"
304846,"868 CR 370","SHINER","TX",77984,29.4602545220001,-97.114570823,346,"868 CR 370, SHINER, TX, 77984","Match","Exact","868 CO RD 370, SHINER, TX, 77984",42270521,"L"
304847,"868 DESOTO ST","LAKE CHARLES","LA",70607,30.1657958750001,-93.209744427,347,"868 DESOTO ST, LAKE CHARLES, LA, 70607","Match","Exact","868 DESOTO ST, LAKE CHARLES, LA, 70607",88452959,"R"
304848,"868 GEHRKE ROAD","PORT ANGELES","WA",98362,48.1158486470001,-123.281207904,348,"868 GEHRKE ROAD, PORT ANGELES, WA, 98362","Match","Exact","868 GEHRKE RD, PORT ANGELES, WA, 98362",150878866,"R"
304849,"868 GEORGE W ENGRAM BLVD","DAYTONA BEACH","FL",32114,29.2128062470001,-81.0396375289999,349,"868 GEORGE W ENGRAM BLVD, DAYTONA BEACH, FL, 32114","Match","Exact","868 GEORGE W ENGRAM BLVD, DAYTONA BEACH, FL, 32114",94524155,"R"
304850,"868 GRAPE HILL DRIVE","BERKELEY SPRINGS","WV",25411,39.677555989,-78.124995596,350,"868 GRAPE HILL DRIVE, BERKELEY SPRINGS, WV, 25411","Match","Exact","868 GRAPE HILL DR, BERKELEY SPRINGS, WV, 25411",123466741,"R"
304851,"868 GRAVENSTEIN HIGHWAY NORTH","SEBASTOPOL","CA",95472,38.409701027,-122.840653087,351,"868 GRAVENSTEIN HIGHWAY NORTH, SEBASTOPOL, CA, 95472","Match","Exact","868 GRAVENSTEIN HWY N, SEBASTOPOL, CA, 95472",604999261,"L"
304852,"868 HWY 165 PO BOX 324","FT MITCHELL","AL",36856,32.306498907,-85.010928693,352,"868 HWY 165 PO BOX 324, FT MITCHELL, AL, 36856","Match","Non_Exact","868 STATE RTE 165, FORT MITCHELL, AL, 36856",639965830,"L"
304853,"868 LEE RD","DIBOLL","TX",75941,31.1652942700001,-94.811386806,353,"868 LEE RD, DIBOLL, TX, 75941","Match","Exact","868 LEE RD, DIBOLL, TX, 75941",624388609,"L"
304854,"868 LINCOLN LAKE","LOWELL","MI",49331,42.939778172,-85.3455828309999,354,"868 LINCOLN LAKE, LOWELL, MI, 49331","Match","Exact","868 LINCOLN LAKE, LOWELL, MI, 49331",12441809,"L"
304855,"868 MEADOWSWEET CIRCLE","SUN PRAIRIE","WI",53590,43.1889831140001,-89.184584939,355,"868 MEADOWSWEET CIRCLE, SUN PRAIRIE, WI, 53590","Match","Exact","868 MEADOWSWEET CIR, SUN PRAIRIE, WI, 53590",49522546,"L"
304856,"868 NEAL RD","REIDSVILLE","NC",27320,36.2935225160001,-79.519407948,356,"868 NEAL RD, REIDSVILLE, NC, 27320","Match","Exact","868 NEAL RD, REIDSVILLE, NC, 27320",636013888,"R"
304857,"868 OAKLAND RD","LOUISA","VA",23093,38.058297037,-78.059857409,357,"868 OAKLAND RD, LOUISA, VA, 23093","Match","Exact","868 OAKLAND RD, LOUISA, VA, 23093",84943741,"R"
304858,"868 PANTERA DR","DIAMOND BAR","CA",91765,NA,NA,358,"868 PANTERA DR, DIAMOND BAR, CA, 91765","No_Match",NA,NA,NA,NA
304859,"868 RAMONA AVENUE 9","SALT LAKE CITY","UT",84105,40.728275431,-111.866292228,359,"868 RAMONA AVENUE 9, SALT LAKE CITY, UT, 84105","Match","Exact","868 RAMONA AVE, SALT LAKE CITY, UT, 84105",176080898,"R"
304860,"868 ULULANI STREET SUITE 102","HILO","HI",96720,19.716095968,-155.084920429,360,"868 ULULANI STREET SUITE 102, HILO, HI, 96720","Match","Exact","868 ULULANI ST, HILO, HI, 96720",614312695,"R"
304861,"868 WEST POPLAR STREET","GRIFFIN","GA",30224,33.2459808040001,-84.276739441,361,"868 WEST POPLAR STREET, GRIFFIN, GA, 30224","Match","Exact","868 W POPLAR ST, GRIFFIN, GA, 30224",23768780,"R"
304862,"8680 BALLANTRAE DRIVE","COLORADO SPRINGS","CO",80920,38.9587373640001,-104.759233419,362,"8680 BALLANTRAE DRIVE, COLORADO SPRINGS, CO, 80920","Match","Exact","8680 BALLANTRAE DR, CO SPGS, CO, 80920",105545309,"R"
304863,"8680 MACON HIGHWAY","ATHENS","GA",30606,33.905192061,-83.4036380909999,363,"8680 MACON HIGHWAY, ATHENS, GA, 30606","Match","Exact","8680 MACON HWY, ATHENS, GA, 30606",642495616,"R"
304864,"8680 MAIN STREET","FRISCO","TX",75034,33.1505550420001,-96.807720698,364,"8680 MAIN STREET, FRISCO, TX, 75034","Match","Non_Exact","8680 MAIN ST, FRISCO, TX, 75033",123483028,"R"
304865,"8680 MIRALANI DRIVE STE 123","SAN DIEGO","CA",92126,32.895880209,-117.137821841,365,"8680 MIRALANI DRIVE STE 123, SAN DIEGO, CA, 92126","Match","Exact","8680 MIRALANI DR, SAN DIEGO, CA, 92126",195319144,"L"
304866,"8680 ROSEY CT","LAS VEGAS","NV",89149,36.267791677,-115.284437146,366,"8680 ROSEY CT, LAS VEGAS, NV, 89149","Match","Exact","8680 ROSEY CT, LAS VEGAS, NV, 89149",201919412,"R"
304867,"8680 TANGLEWOOD LANE","PARMA","OH",44129,41.3534584540001,-81.745071433,367,"8680 TANGLEWOOD LANE, PARMA, OH, 44129","Match","Exact","8680 TANGLEWOOD LN, PARMA, OH, 44129",61150954,"R"
304868,"8680 TRENTON CHAPEL WAY","MANASSAS","VA",20109,38.766365584,-77.5507009629999,368,"8680 TRENTON CHAPEL WAY, MANASSAS, VA, 20109","Match","Exact","8680 TRENTON CHAPEL WAY, MANASSAS, VA, 20109",207142990,"R"
304869,"8680 W STYNBROOK DRIVE","BOISE","ID",83704,43.643597518,-116.290387622,369,"8680 W STYNBROOK DRIVE, BOISE, ID, 83704","Match","Exact","8680 STYNBROOK DR, BOISE, ID, 83704",117857188,"R"
304870,"8681 COUNTY ROAD 353","TERRELL","TX",75161,32.7686751410001,-96.196121706,370,"8681 COUNTY ROAD 353, TERRELL, TX, 75161","Match","Exact","8681 CO RD 353, TERRELL, TX, 75161",123766841,"R"
304871,"8681 DALE RD","WOODBURY","MN",55129,44.8763204690001,-92.928702716,371,"8681 DALE RD, WOODBURY, MN, 55129","Match","Exact","8681 DALE RD, WOODBURY, MN, 55129",97825626,"R"
304872,"8681 KAUMUALII HWY","KEKAHA","HI",96752,21.960819214,-159.703400525,372,"8681 KAUMUALII HWY, KEKAHA, HI, 96752","Match","Exact","8681 KAUMUALII HWY, KEKAHA, HI, 96752",203403182,"L"
304873,"8681 SW 12 STREET","PEMBROKE PINES","FL",33025,25.998385265,-80.258459253,373,"8681 SW 12 STREET, PEMBROKE PINES, FL, 33025","Match","Non_Exact","8681 SW 12TH ST, PEMBROKE PINES, FL, 33025",114753989,"R"
304874,"8682 GLENCANYON DR","POWELL","OH",43065,40.1345358570001,-83.069458573,374,"8682 GLENCANYON DR, POWELL, OH, 43065","Match","Exact","8682 GLENCANYON DR, POWELL, OH, 43065",218664593,"R"
304875,"8682 REAGAN DRIVE","PENSACOLA","FL",32506,30.4328121120001,-87.3219360319999,375,"8682 REAGAN DRIVE, PENSACOLA, FL, 32506","Match","Exact","8682 REAGAN DR, PENSACOLA, FL, 32506",617456990,"R"
304876,"8683 ALVARADO CT","INVER GROVE HEIGHTS","MN",55077,44.825161343,-93.0866555109999,376,"8683 ALVARADO CT, INVER GROVE HEIGHTS, MN, 55077","Match","Exact","8683 ALVARADO CT, INVER GROVE HEIGHTS, MN, 55077",627110631,"L"
304877,"8683 DEEP VALLEY DR","HOUSTON","TX",77044,29.8512654400001,-95.204287388,377,"8683 DEEP VALLEY DR, HOUSTON, TX, 77044","Match","Exact","8683 DEEP VALLEY DR, HOUSTON, TX, 77044",96094985,"R"
304878,"8683 DOLLY VARDEN AVE","KINGS BEACH","CA",96143,39.2417063120001,-120.019685134,378,"8683 DOLLY VARDEN AVE, KINGS BEACH, CA, 96143","Match","Exact","8683 DOLLY VARDEN AVE, KINGS BEACH, CA, 96143",106753099,"R"
304879,"8683 RUBY RISE PLACE","BRISTOW","VA",20136,38.7667041010001,-77.585189902,379,"8683 RUBY RISE PLACE, BRISTOW, VA, 20136","Match","Exact","8683 RUBY RISE PL, BRISTOW, VA, 20136",76523753,"R"
304880,"8684 ASHMAN STREET","THREE SPRINGS","PA",17264,NA,NA,380,"8684 ASHMAN STREET, THREE SPRINGS, PA, 17264","No_Match",NA,NA,NA,NA
304881,"8684 COUNTY ROAD 241","CLYDE","TX",79510,32.300927852,-99.545166006,381,"8684 COUNTY ROAD 241, CLYDE, TX, 79510","Match","Exact","8684 CO RD 241, CLYDE, TX, 79510",636450308,"R"
304882,"8685 BAYMEADOWS RD E STE 1101","JACKSONVILLE","FL",32256,30.220822185,-81.57723658,382,"8685 BAYMEADOWS RD E STE 1101, JACKSONVILLE, FL, 32256","Match","Non_Exact","8685 BAYMEADOWS RD, JACKSONVILLE, FL, 32256",83920145,"L"
304883,"8685 ERIE ROAD","ANGOLA","NY",14006,NA,NA,383,"8685 ERIE ROAD, ANGOLA, NY, 14006","No_Match",NA,NA,NA,NA
304884,"8685 NORTH 5TH WEST","IDAHO FALLS","ID",83401,43.5736812050001,-112.038641764,384,"8685 NORTH 5TH WEST, IDAHO FALLS, ID, 83401","Match","Exact","8685 N 5TH W, IDAHO FALLS, ID, 83401",119190930,"L"
304885,"8685 US HWY 281 N 11","SPRING BRANCH","TX",78070,NA,NA,385,"8685 US HWY 281 N 11, SPRING BRANCH, TX, 78070","No_Match",NA,NA,NA,NA
304886,"8686 STONEHOUSE DR","ELLICOTT CITY","MD",21043,39.3016306280001,-76.815731018,386,"8686 STONEHOUSE DR, ELLICOTT CITY, MD, 21043","Match","Exact","8686 STONEHOUSE DR, ELLICOTT CITY, MD, 21043",619039613,"L"
304887,"8687 LANCASTER DR","ROHNERT PARK","CA",94928,38.3236942140001,-122.690071731,387,"8687 LANCASTER DR, ROHNERT PARK, CA, 94928","Match","Exact","8687 LANCASTER DR, ROHNERT PARK, CA, 94928",67473166,"R"
304888,"8687 LYNX ROAD","SAN DIEGO","CA",92126,32.922062646,-117.137077495,388,"8687 LYNX ROAD, SAN DIEGO, CA, 92126","Match","Exact","8687 LYNX RD, SAN DIEGO, CA, 92126",195318271,"R"
304889,"8687 MELROSE AVENUE STE G540","WEST HOLLYWOOD","CA",90069,34.081954377,-118.3811021,389,"8687 MELROSE AVENUE STE G540, WEST HOLLYWOOD, CA, 90069","Match","Non_Exact","8687 W MELROSE AVE, W HOLLYWOOD, CA, 90069",142718915,"R"
304890,"8687 N 19TH AVE W","COLFAX","IA",50054,41.7174118340001,-93.201280581,390,"8687 N 19TH AVE W, COLFAX, IA, 50054","Match","Exact","8687 N 19TH AVE W, COLFAX, IA, 50054",89436769,"L"
304891,"8688 BELLE CHASE DRIVE","HUBER HEIGHTS","OH",45424,39.881662357,-84.1398759259999,391,"8688 BELLE CHASE DRIVE, HUBER HEIGHTS, OH, 45424","Match","Exact","8688 BELLE CHASE DR, HUBER HEIGHTS, OH, 45424",143572820,"R"
304892,"8688 E 105 CT S","TULSA","OK",74133,36.010516141,-95.880391779,392,"8688 E 105 CT S, TULSA, OK, 74133","Match","Exact","8688 E 105TH CT S, TULSA, OK, 74133",624639437,"R"
304893,"8689 RIDGE RD","ELLICOTT CITY","MD",21043,39.2774712450001,-76.8095985109999,393,"8689 RIDGE RD, ELLICOTT CITY, MD, 21043","Match","Exact","8689 RIDGE RD, ELLICOTT CITY, MD, 21043",158923461,"L"
304894,"869 65TH PL","SPRINGFIELD","OR",97478,44.052510365,-122.91276296,394,"869 65TH PL, SPRINGFIELD, OR, 97478","Match","Exact","869 65TH PL, SPRINGFIELD, OR, 97478",178141091,"L"
304895,"869 ASHTON PARK COURT","LAWRENCEVILLE","GA",30045,33.948235734,-83.936934923,395,"869 ASHTON PARK COURT, LAWRENCEVILLE, GA, 30045","Match","Non_Exact","869 ASHTON PARK CT SE, LAWRENCEVILLE, GA, 30045",628087744,"R"
304896,"869 BONITA ROAD","JACKSONVILLE","FL",32233,30.333559119,-81.412818321,396,"869 BONITA ROAD, JACKSONVILLE, FL, 32233","Match","Exact","869 BONITA RD, JACKSONVILLE, FL, 32233",83907130,"R"
304897,"869 BRAMBLE WAY","GRAYSON","GA",30017,33.865715849,-83.9685071059999,397,"869 BRAMBLE WAY, GRAYSON, GA, 30017","Match","Exact","869 BRAMBLE WAY, GRAYSON, GA, 30017",624794563,"L"
304898,"869 BURRELL STREET","MARINA DEL REY","CA",90292,33.985903964,-118.449734997,398,"869 BURRELL STREET, MARINA DEL REY, CA, 90292","Match","Exact","869 BURRELL ST, MARINA DEL REY, CA, 90292",141577123,"L"
304899,"869 DRIGGS AVE","BROOKLYLN","NY",11211,40.709174085,-73.9624397649999,399,"869 DRIGGS AVE, BROOKLYLN, NY, 11211","Match","Non_Exact","869 DRIGGS AVE, BROOKLYN, NY, 11211",59076144,"L"
304900,"869 FORBES STREET","EAST HARTFORD","CT",6118,41.7520931,-72.605564635,400,"869 FORBES STREET, EAST HARTFORD, CT, 6118","Match","Exact","869 FORBES ST, EAST HARTFORD, CT, 06118",3496376,"R"
304901,"869 FORBEST STREET","EAST HARTFORD","CT",6118,NA,NA,401,"869 FORBEST STREET, EAST HARTFORD, CT, 6118","No_Match",NA,NA,NA,NA
304902,"869 IROLO ST STE 2","LOS ANGELES","CA",90005,34.056504879,-118.300893499,402,"869 IROLO ST STE 2, LOS ANGELES, CA, 90005","Match","Exact","869 IROLO ST, LOS ANGELES, CA, 90005",141604046,"R"
304903,"869 JIM FENLEY LOOP","LUFKIN","TX",75901,31.2693995650001,-94.626320012,403,"869 JIM FENLEY LOOP, LUFKIN, TX, 75901","Match","Exact","869 JIM FENLEY LOOP, LUFKIN, TX, 75901",23858331,"L"
304904,"869 LAS PALOMAS DRIVE","LAS VEGAS","NV",89138,36.1622444340001,-115.360697128,404,"869 LAS PALOMAS DRIVE, LAS VEGAS, NV, 89138","Match","Exact","869 LAS PALOMAS DR, LAS VEGAS, NV, 89138",632848808,"R"
304905,"869 LONGFELLOW ST","DETROIT","MI",48202,42.3828567300001,-83.0905936139999,405,"869 LONGFELLOW ST, DETROIT, MI, 48202","Match","Exact","869 LONGFELLOW ST, DETROIT, MI, 48202",95475176,"L"
304906,"869 LOWER PAGE ROAD","SMELTERVILLE","ID",83868,47.5317964330001,-116.202866205,406,"869 LOWER PAGE ROAD, SMELTERVILLE, ID, 83868","Match","Exact","869 LOWER PAGE RD, SMELTERVILLE, ID, 83868",203572847,"R"
304907,"869 LYNNHAVEN PARKWAY SUITE 113","VIRGINIA BEACH","VA",23452,36.8115792840001,-76.070954973,407,"869 LYNNHAVEN PARKWAY SUITE 113, VIRGINIA BEACH, VA, 23452","Match","Exact","869 LYNNHAVEN PKWY, VA BCH, VA, 23452",122302320,"R"
304908,"869 MIDDLE RIVER RD","MIDDLE RIVER","MD",21220,39.3469003600001,-76.45019537,408,"869 MIDDLE RIVER RD, MIDDLE RIVER, MD, 21220","Match","Exact","869 MIDDLE RIVER RD, MIDDLE RIVER, MD, 21220",191480904,"R"
304909,"869 NORTHRIDGE DRIVE","PRESCOTT","AZ",86301,34.5831777870001,-112.456008859,409,"869 NORTHRIDGE DRIVE, PRESCOTT, AZ, 86301","Match","Exact","869 NORTHRIDGE DR, PRESCOTT, AZ, 86301",631774827,"L"
304910,"869 S IROLO ST STE3","LOS ANGELES","CA",90005,34.056482913,-118.300893451,410,"869 S IROLO ST STE3, LOS ANGELES, CA, 90005","Match","Exact","869 IROLO ST, LOS ANGELES, CA, 90005",141604046,"R"
304911,"869 SLEEPING CHILD ROAD","HAMILTON","MT",59840,46.1919970550001,-114.155141775,411,"869 SLEEPING CHILD ROAD, HAMILTON, MT, 59840","Match","Exact","869 SLEEPING CHILD RD, HAMILTON, MT, 59840",153536894,"L"
304912,"869 STOKES ST","DANVILLE","VA",24541,36.5769834110001,-79.396143291,412,"869 STOKES ST, DANVILLE, VA, 24541","Match","Exact","869 STOKES ST, DANVILLE, VA, 24541",56590225,"L"
304913,"869 SURREY HILL WAY","ROCHESTER","NY",14623,43.0912810570001,-77.5753132849999,413,"869 SURREY HILL WAY, ROCHESTER, NY, 14623","Match","Exact","869 SURREY HILL WAY, ROCHESTER, NY, 14623",14591343,"L"
304914,"869 TAYLOR DRIVE","FOLCROFT","PA",19032,39.8850357250001,-75.285509926,414,"869 TAYLOR DRIVE, FOLCROFT, PA, 19032","Match","Exact","869 TAYLOR DR, FOLCROFT, PA, 19032",134885202,"L"
304915,"869 THORN STREET","RAHWAY","NJ",7065,40.599025091,-74.279399766,415,"869 THORN STREET, RAHWAY, NJ, 7065","Match","Exact","869 THORN ST, RAHWAY, NJ, 07065",60563192,"R"
304916,"869 W CENTER ST","PROVO","UT",84601,40.2337703960001,-111.673891939,416,"869 W CENTER ST, PROVO, UT, 84601","Match","Exact","869 W CENTER ST, PROVO, UT, 84601",134209041,"L"
304917,"869 WILLYS DR","ARNOLD","MD",21012,39.063137458,-76.495117587,417,"869 WILLYS DR, ARNOLD, MD, 21012","Match","Exact","869 WILLYS DR, ARNOLD, MD, 21012",68170095,"L"
304918,"869 WOOLSEY DR SW","GRAND RAPIDS","MI",49503,42.948068311,-85.6900762879999,418,"869 WOOLSEY DR SW, GRAND RAPIDS, MI, 49503","Match","Exact","869 WOOLSEY DR SW, GRAND RAPIDS, MI, 49503",12457998,"L"
304919,"869","TUCSON","AZ",85742,NA,NA,419,"869, TUCSON, AZ, 85742","No_Match",NA,NA,NA,NA
304920,"8690 AERO DRIVE  SUITE 115 304","SAN DIEGO","CA",92123,32.8097017800001,-117.141080823,420,"8690 AERO DRIVE  SUITE 115 304, SAN DIEGO, CA, 92123","Match","Exact","8690 AERO DR, SAN DIEGO, CA, 92123",195321165,"L"
304921,"8690 AERO DRIVE SUITE 115-304","SAN DIEGO","CA",92123,32.8097017800001,-117.141080823,421,"8690 AERO DRIVE SUITE 115-304, SAN DIEGO, CA, 92123","Match","Exact","8690 AERO DR, SAN DIEGO, CA, 92123",195321165,"L"
304922,"8690 JAFFA COURT WEST DRIVE APT 21","INDIANAPOLIS","IN",46260,39.9135015750001,-86.159910461,422,"8690 JAFFA COURT WEST DRIVE APT 21, INDIANAPOLIS, IN, 46260","Match","Exact","8690 JAFFA COURT WEST DR, INDIANAPOLIS, IN, 46260",108021588,"L"
304923,"8690 JAFFA CT WEST DRIVE 38","INDIANAPOLIS","IN",46260,NA,NA,423,"8690 JAFFA CT WEST DRIVE 38, INDIANAPOLIS, IN, 46260","No_Match",NA,NA,NA,NA
304924,"8690 N GROUSE RUN","STILLMAN VALLEY","IL",61084,42.1403167080001,-89.2024787569999,424,"8690 N GROUSE RUN, STILLMAN VALLEY, IL, 61084","Match","Exact","8690 N GROUSE RUN, STILLMAN VALLEY, IL, 61084",52331338,"L"
304925,"8691 BAY 16TH STREET","BROOKLYN","NY",11214,40.606280831,-74.006043846,425,"8691 BAY 16TH STREET, BROOKLYN, NY, 11214","Match","Exact","8691 BAY 16TH ST, BROOKLYN, NY, 11214",59088143,"L"
304926,"8691 BRENT DRIVE","CINCINATI","OH",45231,39.2258160060001,-84.5128527959999,426,"8691 BRENT DRIVE, CINCINATI, OH, 45231","Match","Non_Exact","8691 BRENT DR, CINCINNATI, OH, 45231",103920222,"L"
304927,"8691 MARTIN ROY RD","JENNINGS","LA",70546,30.1556895000001,-92.648093546,427,"8691 MARTIN ROY RD, JENNINGS, LA, 70546","Match","Exact","8691 MARTIN ROY RD, JENNINGS, LA, 70546",88221199,"R"
304928,"8691 NORTHWEST DRIVE","SOUTHAVEN","MS",38671,NA,NA,428,"8691 NORTHWEST DRIVE, SOUTHAVEN, MS, 38671","No_Match",NA,NA,NA,NA
304929,"8691 NW 38TH ST SUITE 238","SUNRISE","FL",33351,26.1725898220001,-80.26566525,429,"8691 NW 38TH ST SUITE 238, SUNRISE, FL, 33351","Match","Non_Exact","8691 NW 38TH ST, SUNRISE, FL, 33351",114795044,"R"
304930,"8692 HOMESTEAD RD","KINGSTON","OK",73439,33.9243982900001,-96.6865949049999,430,"8692 HOMESTEAD RD, KINGSTON, OK, 73439","Match","Exact","8692 HOMESTEAD RD, KINGSTON, OK, 73439",63237381,"L"
304931,"8692 S DUNNS FARM RD","MAPLE CITY","MI",49664,44.855468623,-85.936609409,431,"8692 S DUNNS FARM RD, MAPLE CITY, MI, 49664","Match","Exact","8692 S DUNNS FARM RD, MAPLE CITY, MI, 49664",145993665,"L"
304932,"8694 FALLBROOK WAY","SACRAMENTO","CA",95826,38.555475394,-121.384577685,432,"8694 FALLBROOK WAY, SACRAMENTO, CA, 95826","Match","Exact","8694 FALLBROOK WAY, SACRAMENTO, CA, 95826",133338613,"R"
304933,"8694 SANCHO STREET","HOLLISWOOD","NY",11423,NA,NA,433,"8694 SANCHO STREET, HOLLISWOOD, NY, 11423","No_Match",NA,NA,NA,NA
304934,"8695 NW 24TH COURT","SUNRISE","FL",33322,26.154317464,-80.265648987,434,"8695 NW 24TH COURT, SUNRISE, FL, 33322","Match","Exact","8695 NW 24TH CT, SUNRISE, FL, 33322",114703558,"R"
304935,"8695 SAN MARLO WAY","ORLANDO","FL",32825,28.5319096810001,-81.261457004,435,"8695 SAN MARLO WAY, ORLANDO, FL, 32825","Match","Exact","8695 SAN MARLO WAY, ORLANDO, FL, 32825",94294881,"L"
304936,"8696 2 VILLA LA JOLLA DRIVE","LA JOLLA","CA",92037,NA,NA,436,"8696 2 VILLA LA JOLLA DRIVE, LA JOLLA, CA, 92037","No_Match",NA,NA,NA,NA
304937,"8697 S WOODLAND HILLS DR","SPANISH FORK","UT",84660,40.072925807,-111.654371181,437,"8697 S WOODLAND HILLS DR, SPANISH FORK, UT, 84660","Match","Exact","8697 S WOODLAND HILLS DR, SPANISH FORK, UT, 84660",651128877,"R"
304938,"8697 WONDERLAND AVE","CLINTON","OH",44216,40.9077664210001,-81.52457989,438,"8697 WONDERLAND AVE, CLINTON, OH, 44216","Match","Non_Exact","8697 WONDERLAND AVE NW, CLINTON, OH, 44216",64721765,"L"
304939,"8698 253RD AVENUE  NW","ZIMMERMAN","MN",55398,45.4282934170001,-93.486302195,439,"8698 253RD AVENUE  NW, ZIMMERMAN, MN, 55398","Match","Exact","8698 253RD AVE NW, ZIMMERMAN, MN, 55398",97618604,"L"
304940,"8698 ELK GROVE BLVD 168","ELK GROVE","CA",95624,NA,NA,440,"8698 ELK GROVE BLVD 168, ELK GROVE, CA, 95624","No_Match",NA,NA,NA,NA
304941,"8698 OATKA TRL","LEROY","NY",14482,43.0035533820001,-77.912887425,441,"8698 OATKA TRL, LEROY, NY, 14482","Match","Non_Exact","8698 OATKA TRL, LE ROY, NY, 14482",642862296,"R"
304942,"8699 E WESLEY DRIVE","DENVER","CO",80231,39.6733293730001,-104.886574676,442,"8699 E WESLEY DRIVE, DENVER, CO, 80231","Match","Exact","8699 E WESLEY DR, DENVER, CO, 80231",177557305,"R"
304943,"8699 WYETH DRIVE","DENHAM SPRINGS","LA",70706,30.5879884830001,-90.941713492,443,"8699 WYETH DRIVE, DENHAM SPRINGS, LA, 70706","Match","Exact","8699 WYETH DR, DENHAM SPRINGS, LA, 70706",115087795,"L"
304944,"869A TRAMWAY LANE COURT NE","ALBUQUERQUE","NM",87122,35.1766423240001,-106.494068753,444,"869A TRAMWAY LANE COURT NE, ALBUQUERQUE, NM, 87122","Match","Exact","869 TRAMWAY LANE CT NE, ALBUQUERQUE, NM, 87122",206713963,"R"
304945,"87 8TH AVE N","CARRINGTON","ND",58421,47.450449937,-99.123370887,445,"87 8TH AVE N, CARRINGTON, ND, 58421","Match","Exact","87 8TH AVE N, CARRINGTON, ND, 58421",173971313,"L"
304946,"87 AKULE PLACE","WAILUKU","HI",96793,20.929201832,-156.509329256,446,"87 AKULE PLACE, WAILUKU, HI, 96793","Match","Exact","87 AKULE PL, WAILUKU, HI, 96793",641646674,"R"
304947,"87 ALTENTANN","NASHVILLE","TN",37215,36.0560357570001,-86.832283664,447,"87 ALTENTANN, NASHVILLE, TN, 37215","Match","Exact","87 ALTENTANN, NASHVILLE, TN, 37215",645770464,"L"
304948,"87 ANITA DRIVE","PISCATAWAY","NJ",8854,40.5720420010001,-74.4723824339999,448,"87 ANITA DRIVE, PISCATAWAY, NJ, 8854","Match","Exact","87 ANITA DR, PISCATAWAY, NJ, 08854",645533296,"R"
304949,"87 ARUNDEL DRIVE","HAYWARD","CA",94542,37.6544312820001,-122.015398389,449,"87 ARUNDEL DRIVE, HAYWARD, CA, 94542","Match","Exact","87 ARUNDEL DR, HAYWARD, CA, 94542",606174958,"L"
304950,"87 ASH STREET","PORTSMOUTH","NH",3801,43.0640264950001,-70.764996287,450,"87 ASH STREET, PORTSMOUTH, NH, 3801","Match","Exact","87 ASH ST, PORTSMOUTH, NH, 03801",113666811,"L"
304951,"87 ASHLAWN FARM ROAD","NEW IPSWICH","NH",3071,42.7490601850001,-71.8725150349999,451,"87 ASHLAWN FARM ROAD, NEW IPSWICH, NH, 3071","Match","Exact","87 ASHLAWN FARM RD, NEW IPSWICH, NH, 03071",113552407,"L"
304952,"87 ASHLEY DRIVE","GREENSBURG","PA",15601,40.2821885320001,-79.58048232,452,"87 ASHLEY DRIVE, GREENSBURG, PA, 15601","Match","Exact","87 ASHLEY DR, GREENSBURG, PA, 15601",52985136,"L"
304953,"87 BOWEN AVENUE","MEDFORD","MA",2155,42.407586694,-71.10559194,453,"87 BOWEN AVENUE, MEDFORD, MA, 2155","Match","Exact","87 BOWEN AVE, MEDFORD, MA, 02155",86858829,"R"
304954,"87 BROAD ST","NEWVILLE","PA",17241,40.166585889,-77.407310632,454,"87 BROAD ST, NEWVILLE, PA, 17241","Match","Exact","87 BROAD ST, NEWVILLE, PA, 17241",60930687,"R"
304955,"87 BROADWAY","NORWICH","CT",6360,41.5260088540001,-72.075785751,455,"87 BROADWAY, NORWICH, CT, 6360","Match","Exact","87 BROADWAY, NORWICH, CT, 06360",56846082,"R"
304956,"87 BROOKS PLACE","WEST BRIDGEWATER","MA",2379,42.039790366,-71.02412799,456,"87 BROOKS PLACE, WEST BRIDGEWATER, MA, 2379","Match","Exact","87 BROOKS PL, W BRIDGEWATER, MA, 02379",646613834,"L"
304957,"87 BUCKEYE ROAD","LAURENS","SC",29360,34.543073796,-82.0469023059999,457,"87 BUCKEYE ROAD, LAURENS, SC, 29360","Match","Exact","87 BUCKEYE RD, LAURENS, SC, 29360",44442892,"L"
304958,"87 BUNKER HILL ROAD","GUILFORD","CT",6437,41.3273898630001,-72.6990606479999,458,"87 BUNKER HILL ROAD, GUILFORD, CT, 6437","Match","Exact","87 BUNKER HILL RD, GUILFORD, CT, 06437",3746586,"R"
304959,"87 CAPE DOREY DR","HAMPTON","VA",23666,37.0522553800001,-76.403911078,459,"87 CAPE DOREY DR, HAMPTON, VA, 23666","Match","Exact","87 CAPE DOREY DR, HAMPTON, VA, 23666",103806991,"R"
304960,"87 CENTENNIAL ST  PO BOX 1831","SEABROOK","NH",3874,42.883295715,-70.859070339,460,"87 CENTENNIAL ST  PO BOX 1831, SEABROOK, NH, 3874","Match","Exact","87 CENTENNIAL ST, SEABROOK, NH, 03874",624587821,"R"
304961,"87 CLAY STREET NUMBER 2","NEW YORK","NY",11222,40.736617763,-73.954947631,461,"87 CLAY STREET NUMBER 2, NEW YORK, NY, 11222","Match","Non_Exact","87 CLAY ST, BROOKLYN, NY, 11222",59076241,"L"
304962,"87 CLIFFE AVENUE","LEXINGTON","MA",2420,42.430261112,-71.194008574,462,"87 CLIFFE AVENUE, LEXINGTON, MA, 2420","Match","Exact","87 CLIFFE AVE, LEXINGTON, MA, 02420",87171929,"R"
304963,"87 COLERIDGE","IRVINE","CA",92620,33.7040216080001,-117.735947756,463,"87 COLERIDGE, IRVINE, CA, 92620","Match","Exact","87 COLERIDGE, IRVINE, CA, 92620",641616548,"R"
304964,"87 CORN SILK AVENUE","HALETON","PA",18202,40.9379695330001,-76.1159662969999,464,"87 CORN SILK AVENUE, HALETON, PA, 18202","Match","Non_Exact","87 CORN SILK AVE, HAZLETON, PA, 18202",627592839,"R"
304965,"87 COURTHOUSE LANE","RUSTBURG","VA",24588,37.2774165270001,-79.102476539,465,"87 COURTHOUSE LANE, RUSTBURG, VA, 24588","Match","Exact","87 COURTHOUSE LN, RUSTBURG, VA, 24588",224255552,"R"
304966,"87 COWBOY LANE","SANFORD","NC",27330,35.422985195,-79.26964846,466,"87 COWBOY LANE, SANFORD, NC, 27330","Match","Exact","87 COWBOY LN, SANFORD, NC, 27330",72058661,"L"
304967,"87 CROSS HIGHWAY","WESTPORT","CT",6880,41.1613847570001,-73.3440998569999,467,"87 CROSS HIGHWAY, WESTPORT, CT, 6880","Match","Exact","87 CROSS HWY, WESTPORT, CT, 06880",3238622,"L"
304968,"87 CUMBERLAND STREET APT 4","BANGOR","ME",4401,44.806993757,-68.770646472,468,"87 CUMBERLAND STREET APT 4, BANGOR, ME, 4401","Match","Exact","87 CUMBERLAND ST, BANGOR, ME, 04401",123628492,"R"
304969,"87 DERBY ROAD","BERLIN","MA",1503,42.381156418,-71.659444955,469,"87 DERBY ROAD, BERLIN, MA, 1503","Match","Exact","87 DERBY RD, BERLIN, MA, 01503",40097333,"R"
304970,"87 DOVER RD","W HARTFORD","CT",6119,41.7668728240001,-72.734374225,470,"87 DOVER RD, W HARTFORD, CT, 6119","Match","Exact","87 DOVER RD, WEST HARTFORD, CT, 06119",3493726,"L"
304971,"87 DUTCH FLAT ROAD","POMEROY","WA",99347,46.465128958,-117.603542259,471,"87 DUTCH FLAT ROAD, POMEROY, WA, 99347","Match","Exact","87 DUTCH FLAT RD, POMEROY, WA, 99347",652382872,"R"
304972,"87 E AGATE AVE","LAS VEGAS","NV",89123,36.024637565,-115.168155544,472,"87 E AGATE AVE, LAS VEGAS, NV, 89123","Match","Exact","87 E AGATE AVE, LAS VEGAS, NV, 89123",624657664,"R"
304973,"87 EAST 100 SOUTH","PLEASANT GROVE","UT",84062,40.3624638520001,-111.739174957,473,"87 EAST 100 SOUTH, PLEASANT GROVE, UT, 84062","Match","Exact","87 E 100 S, PLEASANT GROVE, UT, 84062",134203370,"L"
304974,"87 EAST BROADWAY FLOOR 3","NEW YORK","NY",10002,40.7137678550001,-73.9936232859999,474,"87 EAST BROADWAY FLOOR 3, NEW YORK, NY, 10002","Match","Exact","87 E BROADWAY, NEW YORK, NY, 10002",59662076,"R"
304975,"87 EAST LIBERTY AVE","HILLSDALE","NJ",7642,41.0056099330001,-74.024056479,475,"87 EAST LIBERTY AVE, HILLSDALE, NJ, 7642","Match","Exact","87 E LIBERTY AVE, HILLSDALE, NJ, 07642",64369282,"R"
304976,"87 EAST MAIDEN STREET  SUITE 32","WASHINGTON","PA",15301,40.168150187,-80.242449197,476,"87 EAST MAIDEN STREET  SUITE 32, WASHINGTON, PA, 15301","Match","Exact","87 E MAIDEN ST, WASHINGTON, PA, 15301",52803404,"L"
304977,"87 EDMUND JONES RD","LUMBERTON","MS",39455,30.895473102,-89.359204239,477,"87 EDMUND JONES RD, LUMBERTON, MS, 39455","Match","Exact","87 EDMUND JONES RD, LUMBERTON, MS, 39455",649598835,"L"
304978,"87 EVENING SUN","IRVINE","CA",92620,33.681133528,-117.756583405,478,"87 EVENING SUN, IRVINE, CA, 92620","Match","Exact","87 EVENING SUN, IRVINE, CA, 92620",650171206,"L"
304979,"87 FAIRWAY PLACE","HATTIESBURG","MS",39402,31.347578823,-89.382808043,479,"87 FAIRWAY PLACE, HATTIESBURG, MS, 39402","Match","Exact","87 FAIRWAY PL, HATTIESBURG, MS, 39402",329053,"R"
304980,"87 FULTON PL","PALM COAST","FL",32137,29.5814279590001,-81.2225074089999,480,"87 FULTON PL, PALM COAST, FL, 32137","Match","Exact","87 FULTON PL, PALM COAST, FL, 32137",94954849,"L"
304981,"87 GEORGE ST","CARTERET","NJ",7008,40.597947773,-74.239330906,481,"87 GEORGE ST, CARTERET, NJ, 7008","Match","Exact","87 GEORGE ST, CARTERET, NJ, 07008",60276017,"L"
304982,"87 GLESS AVE","BELLEVILLE","NJ",7109,40.8074306070001,-74.1637438879999,482,"87 GLESS AVE, BELLEVILLE, NJ, 7109","Match","Exact","87 GLESS AVE, BELLEVILLE, NJ, 07109",643184922,"R"
304983,"87 GRAND AVE","NEWARK","NJ",7106,40.7476014280001,-74.2195377159999,483,"87 GRAND AVE, NEWARK, NJ, 7106","Match","Exact","87 GRAND AVE, NEWARK, NJ, 07106",618580694,"L"
304984,"87 GRANDVIEW DR","BLOOMINGBURG","NY",12721,41.5746464590001,-74.4473560289999,484,"87 GRANDVIEW DR, BLOOMINGBURG, NY, 12721","Match","Exact","87 GRANDVIEW DR, BLOOMINGBURG, NY, 12721",128990346,"L"
304985,"87 GRASSO PLAZA 301","ST LOUIS","MO",63123,38.550915531,-90.335024731,485,"87 GRASSO PLAZA 301, ST LOUIS, MO, 63123","Match","Exact","87 GRASSO PLZ, SAINT LOUIS, MO, 63123",635916485,"L"
304986,"87 GRASSO PLAZA SHOPPING CR STE 136","AFFTON","MO",63123,38.550915531,-90.335024731,486,"87 GRASSO PLAZA SHOPPING CR STE 136, AFFTON, MO, 63123","Match","Exact","87 GRASSO PLZ, AFFTON, MO, 63123",635916485,"L"
304987,"87 GREENCREST TERRACE","AKRON","OH",44313,41.1156428150001,-81.577412534,487,"87 GREENCREST TERRACE, AKRON, OH, 44313","Match","Exact","87 GREENCREST TER, AKRON, OH, 44313",61337513,"R"
304988,"87 HAGEMANN CT","SANTA CRUZ","CA",95062,36.9777271360001,-122.001119274,488,"87 HAGEMANN CT, SANTA CRUZ, CA, 95062","Match","Exact","87 HAGEMANN CT, SANTA CRUZ, CA, 95062",125507145,"L"
304989,"87 HEATHER GLEN LANE","MYSTIC","CT",6355,41.393181881,-71.985158968,489,"87 HEATHER GLEN LANE, MYSTIC, CT, 6355","Match","Exact","87 HEATHER GLEN LN, MYSTIC, CT, 06355",633261283,"L"
304990,"87 HINCHEY ROAD","ROCHESTER","NY",14624,43.138587597,-77.67347308,490,"87 HINCHEY ROAD, ROCHESTER, NY, 14624","Match","Exact","87 HINCHEY RD, ROCHESTER, NY, 14624",14530814,"L"
304991,"87 IH 10  STE102","BEAUMONT","TX",77707,NA,NA,491,"87 IH 10  STE102, BEAUMONT, TX, 77707","No_Match",NA,NA,NA,NA
304992,"87 J R LANE","KENTWOOD","LA",70444,30.873748666,-90.5839982109999,492,"87 J R LANE, KENTWOOD, LA, 70444","Match","Non_Exact","87 JR LN, KENTWOOD, LA, 70444",75721775,"L"
304993,"87 JENNETTE DR","BOARDMAN","OH",44512,41.0546403910001,-80.665661396,493,"87 JENNETTE DR, BOARDMAN, OH, 44512","Match","Non_Exact","87 JEANNETTE DR, BOARDMAN, OH, 44512",64617330,"L"
304994,"87 JOHN STREET","PROVIDENCE","RI",2906,41.822047808,-71.395904995,494,"87 JOHN STREET, PROVIDENCE, RI, 2906","Match","Exact","87 JOHN ST, PROVIDENCE, RI, 02906",47467704,"R"
304995,"87 LAKE REVERIE PL","TOMBALL","TX",77375,30.16455331,-95.554071414,495,"87 LAKE REVERIE PL, TOMBALL, TX, 77375","Match","Exact","87 LAKE REVERIE PL, TOMBALL, TX, 77375",652139493,"L"
304996,"87 LIBERTY PL APT 3","WEEHAWKEN","NJ",7086,40.774898906,-74.0195819959999,496,"87 LIBERTY PL APT 3, WEEHAWKEN, NJ, 7086","Match","Exact","87 LIBERTY PL, WEEHAWKEN, NJ, 07086",59599561,"L"
304997,"87 LISA DR","LANCASTER","KY",40444,37.668453706,-84.694848081,497,"87 LISA DR, LANCASTER, KY, 40444","Match","Exact","87 LISA DR, LANCASTER, KY, 40444",32533880,"L"
304998,"87 LOWELL STREET","ROCHESTER","NH",3867,43.288209049,-70.964118508,498,"87 LOWELL STREET, ROCHESTER, NH, 3867","Match","Exact","87 LOWELL ST, ROCHESTER, NH, 03867",117808980,"R"
304999,"87 LYNN ST","MECHANICSBURG","OH",43044,40.0767541880001,-83.5541559759999,499,"87 LYNN ST, MECHANICSBURG, OH, 43044","Match","Exact","87 LYNN ST, MECHANICSBURG, OH, 43044",606307538,"L"
305000,"87 MALDINER AVENUE","TONAWANDA","NY",14150,43.0084552640001,-78.8658796019999,500,"87 MALDINER AVENUE, TONAWANDA, NY, 14150","Match","Exact","87 MALDINER AVE, TONAWANDA, NY, 14150",48348502,"L"
