"ID","Address","City","State","Zip","lat","long","id","input_address","match_indicator","match_type","matched_address","tiger_line_id","tiger_side"
31001,"1170 SUTHERLAND AVE","AKRON","OH",44314,41.026599311,-81.5701586019999,1,"1170 SUTHERLAND AVE, AKRON, OH, 44314","Match","Exact","1170 SUTHERLAND AVE, AKRON, OH, 44314",61343405,"L"
31002,"1170 THOMAS STREET","MOORE HAVEN","FL",33417,26.84321214,-81.095868436,2,"1170 THOMAS STREET, MOORE HAVEN, FL, 33417","Match","Non_Exact","1170 THOMAS ST, MOORE HAVEN, FL, 33471",4247802,"L"
31003,"1170 THORNDALE DR","AKRON","OH",44320,41.092859333,-81.5800009559999,3,"1170 THORNDALE DR, AKRON, OH, 44320","Match","Exact","1170 THORNDALE DR, AKRON, OH, 44320",61338085,"L"
31004,"1170 TREE SWALLOW DR STE 302","WINTER SPRINGS","FL",32708,28.6989486160001,-81.262873928,4,"1170 TREE SWALLOW DR STE 302, WINTER SPRINGS, FL, 32708","Match","Exact","1170 TREE SWALLOW DR, WINTER SPRINGS, FL, 32708",650947420,"L"
31005,"1170 TURTLE CREEK DR APT 1134","NAPLES","FL",34110,26.304529114,-81.798161416,5,"1170 TURTLE CREEK DR APT 1134, NAPLES, FL, 34110","Match","Exact","1170 TURTLE CREEK DR, NAPLES, FL, 34110",115160062,"L"
31006,"1170 W 103RD STREET","KANSAS CITY","MO",64114,38.941987129,-94.606032392,6,"1170 W 103RD STREET, KANSAS CITY, MO, 64114","Match","Exact","1170 W 103RD ST, KANSAS CITY, MO, 64114",91455555,"R"
31007,"1170 WEST RIVER PARK DRIVE","INKSTER","MI",48141,42.303441412,-83.308559422,7,"1170 WEST RIVER PARK DRIVE, INKSTER, MI, 48141","Match","Exact","1170 W RIVER PARK DR, INKSTER, MI, 48141",95502894,"R"
31008,"11700 AUDELIA ROAD NO 112","DALLAS","TX",75243,32.908235936,-96.7176537289999,8,"11700 AUDELIA ROAD NO 112, DALLAS, TX, 75243","Match","Non_Exact","11700 AUDELIA RD, DALLAS, TX, 75243",648226400,"R"
31009,"11700 BISSONNET STREET APT 504","HOUSTON","TX",77099,29.674984958,-95.582997716,9,"11700 BISSONNET STREET APT 504, HOUSTON, TX, 77099","Match","Exact","11700 BISSONNET ST, HOUSTON, TX, 77099",96603249,"R"
31010,"11700 CHERRY GROVE DR","N POTOMAC","MD",20878,39.1071773740001,-77.242766946,10,"11700 CHERRY GROVE DR, N POTOMAC, MD, 20878","Match","Non_Exact","11700 CHERRY GROVE CT, N POTOMAC, MD, 20878",62048711,"L"
31011,"11700 CR 177","BULLARD","TX",75757,32.166630174,-95.364195297,11,"11700 CR 177, BULLARD, TX, 75757","Match","Exact","11700 CO RD 177, BULLARD, TX, 75757",651963233,"L"
31012,"11700 EAST JEFFERSON","DETROIT","MI",48214,42.368221367,-82.967599175,12,"11700 EAST JEFFERSON, DETROIT, MI, 48214","Match","Non_Exact","11700 E JEFFERSON AVE, DETROIT, MI, 48214",95485648,"R"
31013,"11700 FERNSHIRE ROAD","GAITHERSBURG","MD",20878,39.1319710540001,-77.2432511539999,13,"11700 FERNSHIRE ROAD, GAITHERSBURG, MD, 20878","Match","Exact","11700 FERNSHIRE RD, GAITHERSBURG, MD, 20878",62047456,"R"
31014,"11700 HIGHWAY 99 SOUTH","ASHLAND","OR",97520,42.057790976,-122.602969312,14,"11700 HIGHWAY 99 SOUTH, ASHLAND, OR, 97520","Match","Non_Exact","11700 OLD HWY 99 S, ASHLAND, OR, 97520",640097954,"L"
31015,"11700 HWY 50","DADEVILLE","AL",36853,NA,NA,15,"11700 HWY 50, DADEVILLE, AL, 36853","No_Match",NA,NA,NA,NA
31016,"11700 LEBANON RD APT 1627","FRISCO","TX",75035,33.11784564,-96.777019531,16,"11700 LEBANON RD APT 1627, FRISCO, TX, 75035","Match","Exact","11700 LEBANON RD, FRISCO, TX, 75035",123559225,"R"
31017,"11700 LUNA ROAD UNIT 12204","DALLAS","TX",75234,32.901758875,-96.918410958,17,"11700 LUNA ROAD UNIT 12204, DALLAS, TX, 75234","Match","Exact","11700 LUNA RD, DALLAS, TX, 75234",103243471,"R"
31018,"11700 MERIDIAN AVE S","EVERETT","WA",98208,47.892282364,-122.233486368,18,"11700 MERIDIAN AVE S, EVERETT, WA, 98208","Match","Exact","11700 MERIDIAN AVE S, EVERETT, WA, 98208",647656593,"R"
31019,"11700 N MERIDIAN RD","PLEASANT LAKE","MI",49272,42.4062649520001,-84.3540259809999,19,"11700 N MERIDIAN RD, PLEASANT LAKE, MI, 49272","Match","Exact","11700 N MERIDIAN RD, PLEASANT LAKE, MI, 49272",648840172,"R"
31020,"11700 NW 8TH ST","PLANTATION","FL",33325,26.1312202870001,-80.3043317899999,20,"11700 NW 8TH ST, PLANTATION, FL, 33325","Match","Exact","11700 NW 8TH ST, PLANTATION, FL, 33325",114698241,"L"
31021,"11700 OCKLAWAHA DR","LEESBURG","FL",34788,28.8524442340001,-81.762238955,21,"11700 OCKLAWAHA DR, LEESBURG, FL, 34788","Match","Exact","11700 OCKLAWAHA DR, LEESBURG, FL, 34788",94206826,"L"
31022,"11700 OLD COLUMBIA PIKE  APT 1311","SILVER SPRING","MD",20904,39.0489864620001,-76.979806449,22,"11700 OLD COLUMBIA PIKE  APT 1311, SILVER SPRING, MD, 20904","Match","Non_Exact","11700 OLD COLUMBIA PIKE, SILVER SPRING, MD, 20904",634537043,"L"
31023,"11700 OLD COLUMBIA PIKE","SILVER SPRING","MD",20904,39.0489864620001,-76.979806449,23,"11700 OLD COLUMBIA PIKE, SILVER SPRING, MD, 20904","Match","Exact","11700 OLD COLUMBIA PIKE, SILVER SPRING, MD, 20904",634537043,"L"
31024,"11700 PRESTON ROAD SUITE 660 - 229","DALLAS","TX",75230,32.907973127,-96.804132696,24,"11700 PRESTON ROAD SUITE 660 - 229, DALLAS, TX, 75230","Match","Exact","11700 PRESTON RD, DALLAS, TX, 75230",103206758,"R"
31025,"11700 W CHARLESTON  BLVD 170-443","LAS VEGAS","NV",89135,36.1589769220001,-115.349648099,25,"11700 W CHARLESTON  BLVD 170-443, LAS VEGAS, NV, 89135","Match","Non_Exact","11700 W CHARLESTON BLVD, LAS VEGAS, NV, 89135",613993012,"R"
31026,"11700 W CHARLESTON BLVD  NO 170 373","LAS VEGAS","NV",89135,NA,NA,26,"11700 W CHARLESTON BLVD  NO 170 373, LAS VEGAS, NV, 89135","No_Match",NA,NA,NA,NA
31027,"11700 W CHARLESTON BLVD STE 170-357","LAS VEGAS","NV",89135,36.1589769220001,-115.349648099,27,"11700 W CHARLESTON BLVD STE 170-357, LAS VEGAS, NV, 89135","Match","Non_Exact","11700 W CHARLESTON BLVD, LAS VEGAS, NV, 89135",613993012,"R"
31028,"11700 W CHARLESTON BLVD STE 170-420","LAS VEGAS","NV",89135,36.1589769220001,-115.349648099,28,"11700 W CHARLESTON BLVD STE 170-420, LAS VEGAS, NV, 89135","Match","Non_Exact","11700 W CHARLESTON BLVD, LAS VEGAS, NV, 89135",613993012,"R"
31029,"11700 WEST COUNTY ROAD 122","ODESSA","TX",79765,31.9144585490001,-102.248416302,29,"11700 WEST COUNTY ROAD 122, ODESSA, TX, 79765","Match","Exact","11700 W CO RD 122, ODESSA, TX, 79765",139589273,"L"
31030,"11701 100TH AVE NE","KIRKLAND","WA",98034,47.7056925970001,-122.207936063,30,"11701 100TH AVE NE, KIRKLAND, WA, 98034","Match","Exact","11701 100TH AVE NE, KIRKLAND, WA, 98034",186671224,"L"
31031,"11701 BERWICK RD","SILVER SPRING","MD",20904,39.0465819570001,-77.001327023,31,"11701 BERWICK RD, SILVER SPRING, MD, 20904","Match","Exact","11701 BERWICK RD, SILVER SPRING, MD, 20904",641074421,"R"
31032,"11701 DANIELSON ST APT 101","CANYON COUNTRY","CA",91387,NA,NA,32,"11701 DANIELSON ST APT 101, CANYON COUNTRY, CA, 91387","No_Match",NA,NA,NA,NA
31033,"11701 INVIDIA COURT","BAKERSFIELD","CA",93312,35.3913945800001,-119.131589042,33,"11701 INVIDIA COURT, BAKERSFIELD, CA, 93312","Match","Exact","11701 INVIDIA CT, BAKERSFIELD, CA, 93312",109526975,"L"
31034,"11701 NORTH WEST 12TH AVENUE","MIAMI","FL",33168,NA,NA,34,"11701 NORTH WEST 12TH AVENUE, MIAMI, FL, 33168","No_Match",NA,NA,NA,NA
31035,"11701 S STATE STREET APT 509","CHICAGO","IL",60628,41.6814948300001,-87.6227597,35,"11701 S STATE STREET APT 509, CHICAGO, IL, 60628","Match","Non_Exact","11701 S STATE ST, CHICAGO, IL, 60628",639801056,"L"
31036,"11701 S STATE STREET","CHICAGO","IL",60628,41.6814948300001,-87.6227597,36,"11701 S STATE STREET, CHICAGO, IL, 60628","Match","Exact","11701 S STATE ST, CHICAGO, IL, 60628",639801056,"L"
31037,"11701 SW 177 TERRACE","WINTER HAVEN","FL",33884,NA,NA,37,"11701 SW 177 TERRACE, WINTER HAVEN, FL, 33884","No_Match",NA,NA,NA,NA
31038,"11701 SWARTS DR","FAIRFAX","VA",22030,38.841323306,-77.350652033,38,"11701 SWARTS DR, FAIRFAX, VA, 22030","Match","Exact","11701 SWARTS DR, FAIRFAX, VA, 22030",75966077,"L"
31039,"11701 TELFAIR RD","PHILADELPHIA","PA",19154,40.0771963180001,-74.971337347,39,"11701 TELFAIR RD, PHILADELPHIA, PA, 19154","Match","Exact","11701 TELFAIR RD, PHILADELPHIA, PA, 19154",131441542,"R"
31040,"11701 W 36TH STREET","LITTLE ROCK","AR",72211,34.7216106880001,-92.4032950709999,40,"11701 W 36TH STREET, LITTLE ROCK, AR, 72211","Match","Exact","11701 W 36TH ST, LITTLE ROCK, AR, 72211",642519619,"L"
31041,"11701 WEST 36TH STREET","LITTLE ROCK","AR",72211,34.721610519,-92.4032879539999,41,"11701 WEST 36TH STREET, LITTLE ROCK, AR, 72211","Match","Exact","11701 W 36TH ST, LITTLE ROCK, AR, 72211",642519619,"L"
31042,"11701 YATES FORD RD","FAIRFAX STATION","VA",22039,38.776348365,-77.34929922,42,"11701 YATES FORD RD, FAIRFAX STATION, VA, 22039","Match","Exact","11701 YATES FORD RD, FAIRFAX STATION, VA, 22039",76055835,"L"
31043,"11702 135 AVENUE","SOUTH OZONE PARK","NY",11420,NA,NA,43,"11702 135 AVENUE, SOUTH OZONE PARK, NY, 11420","No_Match",NA,NA,NA,NA
31044,"11702 175TH STREET","ARTESIA","CA",90701,33.8720623670001,-118.083952934,44,"11702 175TH STREET, ARTESIA, CA, 90701","Match","Exact","11702 175TH ST, ARTESIA, CA, 90701",141743864,"R"
31045,"11702 ALDERIDGE LANE","SAN DIEGO","CA",92131,32.9322620350001,-117.086704305,45,"11702 ALDERIDGE LANE, SAN DIEGO, CA, 92131","Match","Exact","11702 ALDERIDGE LN, SAN DIEGO, CA, 92131",195660753,"L"
31046,"11702 FAWNVIEW DRIVE","HOUSTON","TX",77070,29.979676199,-95.599871342,46,"11702 FAWNVIEW DRIVE, HOUSTON, TX, 77070","Match","Exact","11702 FAWNVIEW DR, HOUSTON, TX, 77070",96004381,"L"
31047,"11702 FULHAM ROAD","SILVER SPRING","MD",20902,39.044977116,-77.02779161,47,"11702 FULHAM ROAD, SILVER SPRING, MD, 20902","Match","Non_Exact","11702 FULHAM ST, SILVER SPRING, MD, 20902",62064546,"L"
31048,"11702 GATES CR","BELLEVUE","NE",68123,41.134693774,-95.9791923669999,48,"11702 GATES CR, BELLEVUE, NE, 68123","Match","Exact","11702 GATES CIR, BELLEVUE, NE, 68123",636287289,"R"
31049,"11702 GRANT RD STE E","CYPRESS","TX",77429,29.9736322320001,-95.598706949,49,"11702 GRANT RD STE E, CYPRESS, TX, 77429","Match","Exact","11702 GRANT RD, CYPRESS, TX, 77429",642109876,"R"
31050,"11702 NORMONT DR","HOUSTON","TX",77070,29.984507025,-95.59399276,50,"11702 NORMONT DR, HOUSTON, TX, 77070","Match","Exact","11702 NORMONT DR, HOUSTON, TX, 77070",96004396,"R"
31051,"11702 PINE STREET","LOS ALAMITOS","CA",90720,33.792881553,-118.070190513,51,"11702 PINE STREET, LOS ALAMITOS, CA, 90720","Match","Exact","11702 PINE ST, LOS ALAMITOS, CA, 90720",609055157,"L"
31052,"11702 SE 157TH ST","RENTON","WA",98058,47.463019966,-122.184631907,52,"11702 SE 157TH ST, RENTON, WA, 98058","Match","Exact","11702 SE 157TH ST, RENTON, WA, 98058",186632814,"L"
31053,"11702-B GRANT ROAD SUITE 136","CYPRESS","TX",77429,29.9736322320001,-95.598706949,53,"11702-B GRANT ROAD SUITE 136, CYPRESS, TX, 77429","Match","Exact","11702 GRANT RD, CYPRESS, TX, 77429",642109876,"R"
31054,"11703 MCCRACKEN ROAD- LOWER","GARFIELD HEIGHTS","OH",44125,41.4224164240001,-81.602106195,54,"11703 MCCRACKEN ROAD- LOWER, GARFIELD HEIGHTS, OH, 44125","Match","Non_Exact","11703 MCCRACKEN RD, GARFIELD HEIGHTS, OH, 44125",61126904,"L"
31055,"11703 NE 11TH PLACE APT 1","BISCAYNE PARK","FL",33161,25.8837328590001,-80.1746247569999,55,"11703 NE 11TH PLACE APT 1, BISCAYNE PARK, FL, 33161","Match","Non_Exact","11703 NE 11TH PL, BISCAYNE PARK, FL, 33161",116037381,"R"
31056,"11703 NORINO DRIVE","WHITTIER","CA",90601,33.99827543,-118.052258998,56,"11703 NORINO DRIVE, WHITTIER, CA, 90601","Match","Exact","11703 NORINO DR, WHITTIER, CA, 90601",141736936,"L"
31057,"11703 PENDER LANE","STAFFORD","TX",77477,29.6572238470001,-95.588883669,57,"11703 PENDER LANE, STAFFORD, TX, 77477","Match","Exact","11703 PENDER LN, STAFFORD, TX, 77477",644745369,"R"
31058,"11703 ROAD 1 SE","MOSES LAKE","WA",98837,47.0768075760001,-119.24051361,58,"11703 ROAD 1 SE, MOSES LAKE, WA, 98837","Match","Exact","11703 RD 1 SE, MOSES LAKE, WA, 98837",157094422,"L"
31059,"11703 VALE ROAD","OAKTON","VA",22124,38.8908604820001,-77.3488139199999,59,"11703 VALE ROAD, OAKTON, VA, 22124","Match","Exact","11703 VALE RD, OAKTON, VA, 22124",75965547,"L"
31060,"11704 60 3/4 RD","COLLBRAN","CO",81624,NA,NA,60,"11704 60 3/4 RD, COLLBRAN, CO, 81624","Tie",NA,NA,NA,NA
31061,"11704 ABERDEEN ROAD","LEAWOOD","KS",66211,38.916881828,-94.620463461,61,"11704 ABERDEEN ROAD, LEAWOOD, KS, 66211","Match","Exact","11704 ABERDEEN RD, LEAWOOD, KS, 66211",91302693,"L"
31062,"11704 MEDICINE BOW PL SE","ALBUQUERQUE","NM",87123,35.0619248950001,-106.51607544,62,"11704 MEDICINE BOW PL SE, ALBUQUERQUE, NM, 87123","Match","Exact","11704 MEDICINE BOW PL SE, ALBUQUERQUE, NM, 87123",206782249,"R"
31063,"11704 PLEASANT RIDGE DR APT 802","LITTLE ROCK","TX",72223,NA,NA,63,"11704 PLEASANT RIDGE DR APT 802, LITTLE ROCK, TX, 72223","No_Match",NA,NA,NA,NA
31064,"11704 SAVONA WAY","ORLANDO","FL",32827,28.3975758230001,-81.252448804,64,"11704 SAVONA WAY, ORLANDO, FL, 32827","Match","Exact","11704 SAVONA WAY, ORLANDO, FL, 32827",645279679,"R"
31065,"11704 TENNESSEE AVENUE","LOS ANGELES","CA",90064,34.032104657,-118.446362044,65,"11704 TENNESSEE AVENUE, LOS ANGELES, CA, 90064","Match","Exact","11704 TENNESSEE AVE, LOS ANGELES, CA, 90064",142853981,"L"
31066,"11704 WHITTIER ROAD","MITCHELLVILLE","MD",20721,38.9423437130001,-76.8026599249999,66,"11704 WHITTIER ROAD, MITCHELLVILLE, MD, 20721","Match","Exact","11704 WHITTIER RD, MITCHELLVILLE, MD, 20721",76311073,"L"
31067,"11705 2ND DR SE - A","EVERETT","WA",98208,47.891515278,-122.228761539,67,"11705 2ND DR SE - A, EVERETT, WA, 98208","Match","Exact","11705 2ND DR SE, EVERETT, WA, 98208",647653773,"L"
31068,"11705 AIRPORT WAY SUITE 307","BROOMFIELD","CO",80021,39.9109108230001,-105.10988232,68,"11705 AIRPORT WAY SUITE 307, BROOMFIELD, CO, 80021","Match","Exact","11705 AIRPORT WAY, BROOMFIELD, CO, 80021",177762451,"L"
31069,"11705 BIG CANOE","JASPER","GA",30143,NA,NA,69,"11705 BIG CANOE, JASPER, GA, 30143","No_Match",NA,NA,NA,NA
31070,"11705 BOYETTE ROAD SUITE 254","RIVERVIEW","FL",33569,27.853535133,-82.3070943439999,70,"11705 BOYETTE ROAD SUITE 254, RIVERVIEW, FL, 33569","Match","Exact","11705 BOYETTE RD, RIVERVIEW, FL, 33569",104574796,"L"
31071,"11705 BOYETTE ROAD SUITE 276","RIVERVIEW","FL",33569,27.853535133,-82.3070943439999,71,"11705 BOYETTE ROAD SUITE 276, RIVERVIEW, FL, 33569","Match","Exact","11705 BOYETTE RD, RIVERVIEW, FL, 33569",104574796,"L"
31072,"11705 BOYETTE ROAD SUITE 424","RIVERVIEW","FL",33569,27.853535133,-82.3070943439999,72,"11705 BOYETTE ROAD SUITE 424, RIVERVIEW, FL, 33569","Match","Exact","11705 BOYETTE RD, RIVERVIEW, FL, 33569",104574796,"L"
31073,"11705 BOYETTE ROAD SUITE 525","RIVERVIEW","FL",33569,27.853535133,-82.3070943439999,73,"11705 BOYETTE ROAD SUITE 525, RIVERVIEW, FL, 33569","Match","Exact","11705 BOYETTE RD, RIVERVIEW, FL, 33569",104574796,"L"
31074,"11705 NE 11 PLACE","MIAMI","FL",33161,25.883743704,-80.174622292,74,"11705 NE 11 PLACE, MIAMI, FL, 33161","Match","Exact","11705 NE 11TH PL, MIAMI, FL, 33161",116037381,"R"
31075,"11705 WASHINGTON ST","KANSAS CITY","MO",64114,38.9147803770001,-94.597164606,75,"11705 WASHINGTON ST, KANSAS CITY, MO, 64114","Match","Exact","11705 WASHINGTON ST, KANSAS CITY, MO, 64114",652555860,"L"
31076,"11706 218 AVE CT E","BONNEY LAKE","WA",98391,47.1494529190001,-122.138454661,76,"11706 218 AVE CT E, BONNEY LAKE, WA, 98391","Match","Exact","11706 218TH AVENUE CT E, BONNEY LAKE, WA, 98391",184688247,"L"
31077,"11706 APPLE BLOSSOM CT","FREDERICKSBURG","VA",22407,38.2803157480001,-77.5713629259999,77,"11706 APPLE BLOSSOM CT, FREDERICKSBURG, VA, 22407","Match","Exact","11706 APPLE BLOSSOM CT, FREDERICKSBURG, VA, 22407",85018729,"L"
31078,"11706 COLDSTREAM DR","POTOMAC","MD",20854,39.0483038290001,-77.1816229249999,78,"11706 COLDSTREAM DR, POTOMAC, MD, 20854","Match","Exact","11706 COLDSTREAM DR, POTOMAC, MD, 20854",62054002,"L"
31079,"11706 FORTUNE PARK DR","HOUSTON","TX",77047,29.6267906580001,-95.402388381,79,"11706 FORTUNE PARK DR, HOUSTON, TX, 77047","Match","Exact","11706 FORTUNE PARK DR, HOUSTON, TX, 77047",624584864,"R"
31080,"11706 HADLEY","OVERLAND PARK","KS",66210,38.9159864710001,-94.683322349,80,"11706 HADLEY, OVERLAND PARK, KS, 66210","Match","Non_Exact","11706 HADLEY ST, OVERLAND PARK, KS, 66210",91277636,"R"
31081,"11706 HARRISTOWN DR","HOUSTON","TX",77047,29.6247329510001,-95.404481263,81,"11706 HARRISTOWN DR, HOUSTON, TX, 77047","Match","Exact","11706 HARRISTOWN DR, HOUSTON, TX, 77047",638594075,"R"
31082,"11706 HILLCROFT STREET","HOUSTON","TX",77035,29.6516774410001,-95.492265612,82,"11706 HILLCROFT STREET, HOUSTON, TX, 77035","Match","Exact","11706 HILLCROFT ST, HOUSTON, TX, 77035",96038326,"R"
31083,"11706 LONGWOOD GARDEN WAY","HOUSTON","TX",77047,29.6266960300001,-95.393904978,83,"11706 LONGWOOD GARDEN WAY, HOUSTON, TX, 77047","Match","Exact","11706 LONGWOOD GARDEN WAY, HOUSTON, TX, 77047",624585226,"R"
31084,"11706 MEADOWCHASE DR","HOUSTON","TX",77065,29.913472228,-95.59314273,84,"11706 MEADOWCHASE DR, HOUSTON, TX, 77065","Match","Exact","11706 MEADOWCHASE DR, HOUSTON, TX, 77065",96226653,"L"
31085,"11706 NAVEL AVE","MORENO VALLEY","CA",92557,33.9503038450001,-117.216046828,85,"11706 NAVEL AVE, MORENO VALLEY, CA, 92557","Match","Exact","11706 NAVEL AVE, MORENO VALLEY, CA, 92557",618341833,"L"
31086,"11706 NORTH MARIANNE CIRCLE","HOUSTON","TX",77071,29.635661935,-95.5143719879999,86,"11706 NORTH MARIANNE CIRCLE, HOUSTON, TX, 77071","Match","Exact","11706 N MARIANNE CIR, HOUSTON, TX, 77071",96595282,"R"
31087,"11706 TIMBERKNOLL ST","HOUSTON","TX",77024,29.7644334660001,-95.5249367229999,87,"11706 TIMBERKNOLL ST, HOUSTON, TX, 77024","Match","Exact","11706 TIMBERKNOLL ST, HOUSTON, TX, 77024",96029897,"R"
31088,"11706 W DONALD CT","SUN CITY","AZ",85373,33.688777428,-112.312647409,88,"11706 W DONALD CT, SUN CITY, AZ, 85373","Match","Exact","11706 W DONALD CT, SUN CITY, AZ, 85373",244020012,"L"
31089,"11706 W MOUNTAIN VIEW DR","AVONDALE","AZ",85323,33.423457408,-112.31298618,89,"11706 W MOUNTAIN VIEW DR, AVONDALE, AZ, 85323","Match","Exact","11706 W MOUNTAIN VIEW DR, AVONDALE, AZ, 85323",640971354,"L"
31090,"11707 PENDLETON PIKE","INDIANAPOLIS","IN",46236,39.870554316,-85.959171182,90,"11707 PENDLETON PIKE, INDIANAPOLIS, IN, 46236","Match","Exact","11707 PENDLETON PIKE, INDIANAPOLIS, IN, 46236",649766120,"R"
31091,"11707 S 110TH AVE","PAPILLION","NE",68046,41.136112285,-96.083170246,91,"11707 S 110TH AVE, PAPILLION, NE, 68046","Match","Non_Exact","11707 S 110TH ST, PAPILLION, NE, 68046",646710010,"L"
31092,"11707 S MORGAN ST","CHICAGO","IL",60643,41.681136049,-87.646877237,92,"11707 S MORGAN ST, CHICAGO, IL, 60643","Match","Exact","11707 S MORGAN ST, CHICAGO, IL, 60643",605466007,"L"
31093,"11708 E 75TH ST","RAYTOWN","MO",64138,38.9860971470001,-94.444516861,93,"11708 E 75TH ST, RAYTOWN, MO, 64138","Match","Exact","11708 E 75TH ST, RAYTOWN, MO, 64138",91467274,"L"
31094,"11709 250TH AVE E","BUCKLEY","WA",98321,47.1518950010001,-122.096548471,94,"11709 250TH AVE E, BUCKLEY, WA, 98321","Match","Exact","11709 250TH AVE E, BUCKLEY, WA, 98321",184651144,"L"
31095,"11709 DUCKETTOWN ROAD","LAUREL","MD",20708,39.009475136,-76.802535603,95,"11709 DUCKETTOWN ROAD, LAUREL, MD, 20708","Match","Exact","11709 DUCKETTOWN RD, LAUREL, MD, 20708",647287850,"R"
31096,"11709 N MARLTON AVENUE","UPPER MARLBORO","MD",20772,38.7758308630001,-76.795980777,96,"11709 N MARLTON AVENUE, UPPER MARLBORO, MD, 20772","Match","Exact","11709 N MARLTON AVE, UPPER MARLBORO, MD, 20772",635445898,"R"
31097,"11709 N MICKE GROVE RD","LODI","CA",95240,38.078794912,-121.269233112,97,"11709 N MICKE GROVE RD, LODI, CA, 95240","Match","Exact","11709 N MICKE GROVE RD, LODI, CA, 95240",133845944,"L"
31098,"11709 ROE AVENUE SUITE D210","LEAWOOD","KS",66211,38.9162083590001,-94.639774748,98,"11709 ROE AVENUE SUITE D210, LEAWOOD, KS, 66211","Match","Exact","11709 ROE AVE, LEAWOOD, KS, 66211",650174099,"L"
31099,"11709 S 75TH EAST AVE","BIXBY","OK",74008,35.9933559900001,-95.892212978,99,"11709 S 75TH EAST AVE, BIXBY, OK, 74008","Match","Exact","11709 S 75TH EAST AVE, BIXBY, OK, 74008",166462337,"R"
31100,"11709 S OAK ST","JENKS","OK",74037,35.993192745,-95.991411926,100,"11709 S OAK ST, JENKS, OK, 74037","Match","Exact","11709 S OAK ST, JENKS, OK, 74037",627999575,"R"
31101,"11709 SAVORY DRIVE","FORT WORTH","TX",76244,32.9441173880001,-97.291813244,101,"11709 SAVORY DRIVE, FORT WORTH, TX, 76244","Match","Exact","11709 SAVORY DR, FORT WORTH, TX, 76244",101929638,"L"
31102,"11709 W CLEVELAND AVE  SUITE 2","WEST ALLIS","WI",53227,42.995431598,-88.0583614929999,102,"11709 W CLEVELAND AVE  SUITE 2, WEST ALLIS, WI, 53227","Match","Non_Exact","11709 W CLEVELAND AVE, WEST ALLIS, WI, 53227",77745216,"L"
31103,"11709 WOODLEY AVE","GRANADA HILLS","CA",91344,34.283484286,-118.484511671,103,"11709 WOODLEY AVE, GRANADA HILLS, CA, 91344","Match","Exact","11709 WOODLEY AVE, GRANADA HILLS, CA, 91344",141542824,"L"
31104,"1170C ADAMLEE PLACE","LIMA","OH",45801,40.7676722780001,-84.126210307,104,"1170C ADAMLEE PLACE, LIMA, OH, 45801","Match","Exact","1170 ADAMLEE PL, LIMA, OH, 45801",209543182,"R"
31105,"1171 108TH PL","KNOXVILLE","IA",50138,41.3525767460001,-93.1477369839999,105,"1171 108TH PL, KNOXVILLE, IA, 50138","Match","Exact","1171 108TH PL, KNOXVILLE, IA, 50138",89477758,"R"
31106,"1171 ALLEN AVENUE UNIT 302","GLENDALE","CA",91201,34.1755415800001,-118.291874508,106,"1171 ALLEN AVENUE UNIT 302, GLENDALE, CA, 91201","Match","Exact","1171 ALLEN AVE, GLENDALE, CA, 91201",241240149,"L"
31107,"1171 BLUE RIDGE LANE","COLTON","CA",92324,34.0505909340001,-117.295630874,107,"1171 BLUE RIDGE LANE, COLTON, CA, 92324","Match","Exact","1171 BLUE RIDGE LN, COLTON, CA, 92324",144977092,"R"
31108,"1171 CROCKETT DRIVE","OLIVETTE","MO",63132,NA,NA,108,"1171 CROCKETT DRIVE, OLIVETTE, MO, 63132","No_Match",NA,NA,NA,NA
31109,"1171 E 19TH ST","BROOKLYN","NY",11230,40.621951961,-73.956895909,109,"1171 E 19TH ST, BROOKLYN, NY, 11230","Match","Exact","1171 E 19TH ST, BROOKLYN, NY, 11230",59089933,"L"
31110,"1171 EVENING CANYON AVE","HENDERSON","NV",89014,36.049486857,-115.033926321,110,"1171 EVENING CANYON AVE, HENDERSON, NV, 89014","Match","Exact","1171 EVENING CANYON AVE, HENDERSON, NV, 89014",201929507,"L"
31111,"1171 FOLKSTONE DRIVE","MCDONOUGH","GA",30253,33.4520467150001,-84.178806696,111,"1171 FOLKSTONE DRIVE, MCDONOUGH, GA, 30253","Match","Exact","1171 FOLKSTONE DR, MCDONOUGH, GA, 30253",210414196,"L"
31112,"1171 GLENDALE DRIVE","GREENSBORO","NC",27406,36.00892449,-79.8240394429999,112,"1171 GLENDALE DRIVE, GREENSBORO, NC, 27406","Match","Exact","1171 GLENDALE DR, GREENSBORO, NC, 27406",131106480,"L"
31113,"1171 LINDEN AVE","HIGHLAND PARK","IL",60035,42.173964126,-87.783350507,113,"1171 LINDEN AVE, HIGHLAND PARK, IL, 60035","Match","Exact","1171 LINDEN AVE, HIGHLAND PARK, IL, 60035",119651872,"R"
31114,"1171 N 17TH AVE","BLAIR","NE",68008,41.5558813710001,-96.1392869759999,114,"1171 N 17TH AVE, BLAIR, NE, 68008","Match","Exact","1171 N 17TH AVE, BLAIR, NE, 68008",176760644,"L"
31115,"1171 OAK RIDGE RD","BUCHANAN","VA",24066,37.487708427,-79.803533062,115,"1171 OAK RIDGE RD, BUCHANAN, VA, 24066","Match","Exact","1171 OAK RIDGE RD, BUCHANAN, VA, 24066",62471979,"R"
31116,"1171 OAK STREET","JUNCTION CITY","OR",97448,44.2237509190001,-123.211338387,116,"1171 OAK STREET, JUNCTION CITY, OR, 97448","Match","Exact","1171 OAK ST, JUNCTION CITY, OR, 97448",178161717,"L"
31117,"1171 ROCK CREEK RD","POMONA","KS",66076,38.5501657470001,-95.408744418,117,"1171 ROCK CREEK RD, POMONA, KS, 66076","Match","Exact","1171 ROCK CREEK RD, POMONA, KS, 66076",10617293,"L"
31118,"1171 S MAIN ST","CHELSEA","MI",48118,42.3055703730001,-84.0211925089999,118,"1171 S MAIN ST, CHELSEA, MI, 48118","Match","Exact","1171 S MAIN ST, CHELSEA, MI, 48118",26044096,"L"
31119,"1171 S ROBERTSON BLVD SUITE 271","LOS ANGELES","CA",90035,34.0564514320001,-118.383685098,119,"1171 S ROBERTSON BLVD SUITE 271, LOS ANGELES, CA, 90035","Match","Non_Exact","1171 S ROBERTSON BLVD, LOS ANGELES, CA, 90035",141573009,"R"
31120,"1171 S ROBERTSON NUM 243","LOS ANGELES","CA",90035,NA,NA,120,"1171 S ROBERTSON NUM 243, LOS ANGELES, CA, 90035","No_Match",NA,NA,NA,NA
31121,"1171 S WEST TEMPLE","SALT LAKE CITY","UT",84101,40.7435709740001,-111.893933594,121,"1171 S WEST TEMPLE, SALT LAKE CITY, UT, 84101","Match","Exact","1171 S WEST TEMPLE, SALT LAKE CITY, UT, 84101",176077910,"L"
31122,"1171 TEA ROSE CIRCLE","SAN JOSE","CA",95131,37.386820653,-121.893082611,122,"1171 TEA ROSE CIRCLE, SAN JOSE, CA, 95131","Match","Exact","1171 TEA ROSE CIR, SAN JOSE, CA, 95131",123009485,"L"
31123,"1171 VIRGINIA ST","BERKELEY","CA",94702,37.8738513800001,-122.290660424,123,"1171 VIRGINIA ST, BERKELEY, CA, 94702","Match","Exact","1171 VIRGINIA ST, BERKELEY, CA, 94702",124993531,"L"
31124,"1171 W SAN BERNARDINO SUITE E","COVINA","CA",91722,NA,NA,124,"1171 W SAN BERNARDINO SUITE E, COVINA, CA, 91722","No_Match",NA,NA,NA,NA
31125,"1171 WAHL ST","BURNS HARBOR","IN",46304,41.6045999,-87.12590185,125,"1171 WAHL ST, BURNS HARBOR, IN, 46304","Match","Exact","1171 WAHL ST, BURNS HARBOR, IN, 46304",119919913,"R"
31126,"1171 WATTS AVE","UNIVERSITY CITY","MO",63130,38.670546255,-90.319912658,126,"1171 WATTS AVE, UNIVERSITY CITY, MO, 63130","Match","Exact","1171 WATTS AVE, UNIVERSITY CITY, MO, 63130",100134257,"L"
31127,"1171 WHITLOCK AVE NW","MARIETTA","GA",30064,33.951367041,-84.5822188449999,127,"1171 WHITLOCK AVE NW, MARIETTA, GA, 30064","Match","Exact","1171 WHITLOCK AVE NW, MARIETTA, GA, 30064",17212123,"L"
31128,"1171","MARIETTA","GA",30064,NA,NA,128,"1171, MARIETTA, GA, 30064","No_Match",NA,NA,NA,NA
31129,"11710 138TH ST CT E","PUYALLUP","WA",98374,47.1303875500001,-122.273436917,129,"11710 138TH ST CT E, PUYALLUP, WA, 98374","Match","Exact","11710 138TH STREET CT E, PUYALLUP, WA, 98374",648949165,"R"
31130,"11710 ADRIANA MARIA","SAN ANTONIO","TX",78253,29.4465182960001,-98.721240365,130,"11710 ADRIANA MARIA, SAN ANTONIO, TX, 78253","Match","Exact","11710 ADRIANA MARIA, SAN ANTONIO, TX, 78253",101687620,"L"
31131,"11710 BRIAR FOREST DRIVE APT 1806","HOUSTON","TX",77077,29.747028599,-95.584927156,131,"11710 BRIAR FOREST DRIVE APT 1806, HOUSTON, TX, 77077","Match","Exact","11710 BRIAR FOREST DR, HOUSTON, TX, 77077",96619102,"R"
31132,"11710 MONTGOMERY CIRCLE","LONGMONT","CO",80504,40.168298244,-105.01453855,132,"11710 MONTGOMERY CIRCLE, LONGMONT, CO, 80504","Match","Exact","11710 MONTGOMERY CIR, LONGMONT, CO, 80504",188754429,"R"
31133,"11710 OLD GEORGETOWN ROAD 1429","ROCKVILLE","MD",20852,39.0505947930001,-77.118955839,133,"11710 OLD GEORGETOWN ROAD 1429, ROCKVILLE, MD, 20852","Match","Non_Exact","11710 OLD GEORGETOWN RD, ROCKVILLE, MD, 20852",650358815,"L"
31134,"11710 OLD GEORGETOWN ROAD UNIT 1623","NORTH BETHESDA","MD",20852,39.0505947930001,-77.118955839,134,"11710 OLD GEORGETOWN ROAD UNIT 1623, NORTH BETHESDA, MD, 20852","Match","Non_Exact","11710 OLD GEORGETOWN RD, NORTH BETHESDA, MD, 20852",650358815,"L"
31135,"11710 OLDE ENGLISH DR UNIT K","RESTON","VA",20190,38.960787247,-77.3515245,135,"11710 OLDE ENGLISH DR UNIT K, RESTON, VA, 20190","Match","Exact","11710 OLDE ENGLISH DR, RESTON, VA, 20190",75997165,"R"
31136,"11710 OVERSEAS HWY","MARATHON","FL",33050,24.7301619300001,-81.031154721,136,"11710 OVERSEAS HWY, MARATHON, FL, 33050","Match","Exact","11710 OVERSEAS HWY, MARATHON, FL, 33050",116473860,"R"
31137,"11710 PARLIAMENT ST APT 701","SAN ANTONIO","TX",78213,29.5473539000001,-98.5129382109999,137,"11710 PARLIAMENT ST APT 701, SAN ANTONIO, TX, 78213","Match","Exact","11710 PARLIAMENT ST, SAN ANTONIO, TX, 78213",609090904,"R"
31138,"11710 PLAZA AMERICA DR SUITE 1000","RESTON","VA",20190,38.9527318360001,-77.350455113,138,"11710 PLAZA AMERICA DR SUITE 1000, RESTON, VA, 20190","Match","Exact","11710 PLAZA AMERICA DR, RESTON, VA, 20190",641104945,"L"
31139,"11710 PLAZA AMERICA DRIVE STE 2000","RESTON","VA",20190,38.9527318360001,-77.350455113,139,"11710 PLAZA AMERICA DRIVE STE 2000, RESTON, VA, 20190","Match","Exact","11710 PLAZA AMERICA DR, RESTON, VA, 20190",641104945,"L"
31140,"11710 PLAZA AMERICA DRIVE SUITE 130","RESTON","VA",20190,38.9527318360001,-77.350455113,140,"11710 PLAZA AMERICA DRIVE SUITE 130, RESTON, VA, 20190","Match","Exact","11710 PLAZA AMERICA DR, RESTON, VA, 20190",641104945,"L"
31141,"11710 SANDY STREAM DR","TOMBALL","TX",77375,30.0468543200001,-95.594199353,141,"11710 SANDY STREAM DR, TOMBALL, TX, 77375","Match","Exact","11710 SANDY STREAM DR, TOMBALL, TX, 77375",96145604,"R"
31142,"11710 STERLING BROOK ST","PEARLAND","TX",77584,29.5729362490001,-95.400734311,142,"11710 STERLING BROOK ST, PEARLAND, TX, 77584","Match","Exact","11710 STERLING BROOK ST, PEARLAND, TX, 77584",116644399,"L"
31143,"11711 26 MILE","WASHINGTON","MI",48094,42.7141346130001,-83.015582579,143,"11711 26 MILE, WASHINGTON, MI, 48094","Match","Non_Exact","11711 26 MILE RD, WASHINGTON, MI, 48094",110702607,"L"
31144,"11711 4TH AVE W","EVERETT","WA",98204,47.8920466530001,-122.238859315,144,"11711 4TH AVE W, EVERETT, WA, 98204","Match","Exact","11711 4TH AVE W, EVERETT, WA, 98204",187758510,"L"
31145,"11711 COLLETT AVE APT 2214","RIVERSIDE","CA",92505,33.9059644440001,-117.494258039,145,"11711 COLLETT AVE APT 2214, RIVERSIDE, CA, 92505","Match","Exact","11711 COLLETT AVE, RIVERSIDE, CA, 92505",608986138,"R"
31146,"11711 MEMORIAL 57","HOUSTON","TX",77024,29.7534183880001,-95.525962627,146,"11711 MEMORIAL 57, HOUSTON, TX, 77024","Match","Non_Exact","11711 MEMORIAL DR, HOUSTON, TX, 77024",96624311,"L"
31147,"11711 NORTH COLLEGE AVE SUITE 180","CARMEL","IN",46032,39.959293098,-86.145906338,147,"11711 NORTH COLLEGE AVE SUITE 180, CARMEL, IN, 46032","Match","Non_Exact","11711 COLLEGE AVE, CARMEL, IN, 46032",29334313,"R"
31148,"11711 PRINCETON PIKE STE 301-206","CINCINNATI","OH",45246,39.291083143,-84.466612186,148,"11711 PRINCETON PIKE STE 301-206, CINCINNATI, OH, 45246","Match","Exact","11711 PRINCETON PIKE, CINCINNATI, OH, 45246",103958564,"L"
31149,"11711 PRINCETON PIKE SUITE 341-238","SPRINGDALE","OH",45246,39.291083143,-84.466612186,149,"11711 PRINCETON PIKE SUITE 341-238, SPRINGDALE, OH, 45246","Match","Exact","11711 PRINCETON PIKE, SPRINGDALE, OH, 45246",103958564,"L"
31150,"11711 RIVER VINE CT","TOMBALL","TX",77377,30.01604288,-95.604719826,150,"11711 RIVER VINE CT, TOMBALL, TX, 77377","Match","Exact","11711 RIVER VINE CT, TOMBALL, TX, 77377",96168952,"L"
31151,"11712 ARLINGTON AVE","NORTHPORT","AL",35475,33.3021459660001,-87.598919515,151,"11712 ARLINGTON AVE, NORTHPORT, AL, 35475","Match","Exact","11712 ARLINGTON AVE, NORTHPORT, AL, 35475",82144766,"L"
31152,"11712 CENTURION WAY","POTOMAC","MD",20854,39.0727621950001,-77.242432644,152,"11712 CENTURION WAY, POTOMAC, MD, 20854","Match","Exact","11712 CENTURION WAY, POTOMAC, MD, 20854",62118158,"L"
31153,"11712 COUNTY ROAD 37","WAYLAND","NY",14572,42.5700053350001,-77.5349346309999,153,"11712 COUNTY ROAD 37, WAYLAND, NY, 14572","Match","Exact","11712 CO RD 37, WAYLAND, NY, 14572",14723770,"R"
31154,"11712 GWENDOLYN LANE","OKLAHOMA CITY","OK",73131,35.5878226570001,-97.4433954529999,154,"11712 GWENDOLYN LANE, OKLAHOMA CITY, OK, 73131","Match","Exact","11712 GWENDOLYN LN, OKLAHOMA CITY, OK, 73131",624244674,"R"
31155,"11712 JEFFERSON AVENUE STE C476","NEWPORT NEWS","VA",23606,37.0788534930001,-76.477753686,155,"11712 JEFFERSON AVENUE STE C476, NEWPORT NEWS, VA, 23606","Match","Exact","11712 JEFFERSON AVE, NEWPORT NEWS, VA, 23606",103824674,"R"
31156,"11712 N CHARLOTTE ST","KANSAS CITY","MO",64155,39.30600658,-94.568625426,156,"11712 N CHARLOTTE ST, KANSAS CITY, MO, 64155","Match","Exact","11712 N CHARLOTTE ST, KANSAS CITY, MO, 64155",635617111,"L"
31157,"11712 PACESFERRY DRIVE","RALEIGH","NC",27614,35.942840888,-78.6165578439999,157,"11712 PACESFERRY DRIVE, RALEIGH, NC, 27614","Match","Exact","11712 PACESFERRY DR, RALEIGH, NC, 27614",72524397,"R"
31158,"11712C JEFFERSON AVE STE C283","NEWPORT NEWS","VA",23606,37.0788931880001,-76.477778148,158,"11712C JEFFERSON AVE STE C283, NEWPORT NEWS, VA, 23606","Match","Exact","11712 JEFFERSON AVE, NEWPORT NEWS, VA, 23606",103824674,"R"
31159,"11713 FORT CAROLINE LAKES CT","JACKSONVILLE","FL",32225,30.3520090650001,-81.508961929,159,"11713 FORT CAROLINE LAKES CT, JACKSONVILLE, FL, 32225","Match","Exact","11713 FORT CAROLINE LAKES CT, JACKSONVILLE, FL, 32225",83978537,"R"
31160,"11713 GEORGIA AVE N","CHAMPLIN","MN",55316,45.166603744,-93.3650426889999,160,"11713 GEORGIA AVE N, CHAMPLIN, MN, 55316","Match","Exact","11713 GEORGIA AVE N, CHAMPLIN, MN, 55316",43662838,"L"
31161,"11713 GLEN ABBEY COURT","WALDORF","MD",20602,38.5925285700001,-76.9103933279999,161,"11713 GLEN ABBEY COURT, WALDORF, MD, 20602","Match","Exact","11713 GLEN ABBEY CT, WALDORF, MD, 20602",25428146,"R"
31162,"11713 S LOCUST AVE","JENKS","OK",74037,35.993787157,-95.9853431669999,162,"11713 S LOCUST AVE, JENKS, OK, 74037","Match","Exact","11713 S LOCUST AVE, JENKS, OK, 74037",166506898,"L"
31163,"11713 SOUTH BISHOP","CHICAGO","IL",60643,41.680902571,-87.657828727,163,"11713 SOUTH BISHOP, CHICAGO, IL, 60643","Match","Non_Exact","11713 S BISHOP ST, CHICAGO, IL, 60643",111823747,"L"
31164,"11714 BIXBY HILL RD PO BOX 183","ARCADE","NY",14009,42.508223936,-78.43274611,164,"11714 BIXBY HILL RD PO BOX 183, ARCADE, NY, 14009","Match","Exact","11714 BIXBY HILL RD, ARCADE, NY, 14009",635631303,"R"
31165,"11714 DUNES ROAD","BOYNTON BEACH","FL",33436,26.5032789160001,-80.116319392,165,"11714 DUNES ROAD, BOYNTON BEACH, FL, 33436","Match","Exact","11714 DUNES RD, BOYNTON BEACH, FL, 33436",115576785,"R"
31166,"11714 KENNEDY LANE","FREDERICKSBURG","VA",22407,38.2800886250001,-77.535005616,166,"11714 KENNEDY LANE, FREDERICKSBURG, VA, 22407","Match","Exact","11714 KENNEDY LN, FREDERICKSBURG, VA, 22407",85027682,"L"
31167,"11714 KENNINGTON SQUARE E","PICKERINGTON","OH",43147,39.902023023,-82.709954392,167,"11714 KENNINGTON SQUARE E, PICKERINGTON, OH, 43147","Match","Exact","11714 KENNINGTON SQ E, PICKERINGTON, OH, 43147",37234606,"R"
31168,"11714 SE 239TH PL","KENT","WA",98031,47.387361072,-122.184657633,168,"11714 SE 239TH PL, KENT, WA, 98031","Match","Exact","11714 SE 239TH PL, KENT, WA, 98031",627672115,"L"
31169,"11714 WILDWOOD RIDGE DRIVE","COLORADO SPRINGS","CO",89021,39.0020673980001,-104.796762323,169,"11714 WILDWOOD RIDGE DRIVE, COLORADO SPRINGS, CO, 89021","Match","Non_Exact","11714 WILDWOOD RIDGE DR, COLO SPGS, CO, 80921",627887209,"L"
31170,"11715  238TH ST","ELMONT","NY",11003,NA,NA,170,"11715  238TH ST, ELMONT, NY, 11003","No_Match",NA,NA,NA,NA
31171,"11715 BROCKRIDGE COURT","BAKERSFIELD","CA",93312,35.3876628410001,-119.133592634,171,"11715 BROCKRIDGE COURT, BAKERSFIELD, CA, 93312","Match","Exact","11715 BROCKRIDGE CT, BAKERSFIELD, CA, 93312",109082596,"L"
31172,"11715 GULF STATION","HELOTES","TX",78023,29.552571496,-98.675425032,172,"11715 GULF STATION, HELOTES, TX, 78023","Match","Exact","11715 GULF STATION, HELOTES, TX, 78023",101583923,"R"
31173,"11715 LEONESSA DR","RICHMOND","TX",77406,29.6911532010001,-95.791979969,173,"11715 LEONESSA DR, RICHMOND, TX, 77406","Match","Exact","11715 LEONESSA DR, RICHMOND, TX, 77406",642952663,"L"
31174,"11715 NERO DR","FLORISSANT","MO",63033,38.779622837,-90.27539222,174,"11715 NERO DR, FLORISSANT, MO, 63033","Match","Exact","11715 NERO DR, FLORISSANT, MO, 63033",100145573,"L"
31175,"11715 TIMBERLAKE DR","SAN DIEGO","CA",92131,32.9141074,-117.083131915,175,"11715 TIMBERLAKE DR, SAN DIEGO, CA, 92131","Match","Exact","11715 TIMBERLAKE DR, SAN DIEGO, CA, 92131",195320176,"R"
31176,"11715 W 107TH AVE","WESTMINSTER","CO",80021,39.8901456730001,-105.130484792,176,"11715 W 107TH AVE, WESTMINSTER, CO, 80021","Match","Exact","11715 W 107TH AVE, WESTMINSTER, CO, 80021",647329916,"L"
31177,"11715 W 81ST AVE","ARVADA","CO",80005,39.843541658,-105.130344014,177,"11715 W 81ST AVE, ARVADA, CO, 80005","Match","Exact","11715 W 81ST AVE, ARVADA, CO, 80005",648074347,"R"
31178,"11715-C BELLFORT VILLAGE","HOUSTON","TX",77031,29.649684302,-95.560676114,178,"11715-C BELLFORT VILLAGE, HOUSTON, TX, 77031","Match","Non_Exact","11715 BELLFORT VILLAGE DR, HOUSTON, TX, 77031",96353651,"R"
31179,"11716 DUNHAM ROAD","SAGAMORE HILLS","OH",44067,41.341990348,-81.562108812,179,"11716 DUNHAM ROAD, SAGAMORE HILLS, OH, 44067","Match","Exact","11716 DUNHAM RD, SAGAMORE HILLS, OH, 44067",61360716,"L"
31180,"11716 EASTFIELD RD","POWAY","CA",92064,32.9294065390001,-117.059364631,180,"11716 EASTFIELD RD, POWAY, CA, 92064","Match","Exact","11716 EASTFIELD RD, POWAY, CA, 92064",195670218,"R"
31181,"11716 NW 17TH","YUKON","OK",73099,NA,NA,181,"11716 NW 17TH, YUKON, OK, 73099","No_Match",NA,NA,NA,NA
31182,"11716 PLEASANT RIDGE CIRCLE APT1904","LITTLE ROCK","AR",72223,34.7960942760001,-92.4055670829999,182,"11716 PLEASANT RIDGE CIRCLE APT1904, LITTLE ROCK, AR, 72223","Match","Exact","11716 PLEASANT RIDGE CIR, LITTLE ROCK, AR, 72223",83532026,"L"
31183,"11717 5TH ST  -  PO BOX 65","NORTH ZULCH","TX",77872,NA,NA,183,"11717 5TH ST  -  PO BOX 65, NORTH ZULCH, TX, 77872","No_Match",NA,NA,NA,NA
31184,"11717 BERNARDO PLAZA CT 205","SAN DIEGO","CA",92128,33.0195115720001,-117.077543095,184,"11717 BERNARDO PLAZA CT 205, SAN DIEGO, CA, 92128","Match","Exact","11717 BERNARDO PLAZA CT, SAN DIEGO, CA, 92128",195679537,"R"
31185,"11717 KIMBOLTON PLACE","GLEN ALLEN","VA",23059,37.6845422330001,-77.507206423,185,"11717 KIMBOLTON PLACE, GLEN ALLEN, VA, 23059","Match","Exact","11717 KIMBOLTON PL, GLEN ALLEN, VA, 23059",106672484,"L"
31186,"11717 KINGFISHER LANE","JACKSONVILLE","FL",32218,30.4487854110001,-81.6713453949999,186,"11717 KINGFISHER LANE, JACKSONVILLE, FL, 32218","Match","Non_Exact","11717 KINGFISHER LN E, JACKSONVILLE, FL, 32218",83890433,"R"
31187,"11717A REISTERSTOWN","MARYLAND","MD",21136,NA,NA,187,"11717A REISTERSTOWN, MARYLAND, MD, 21136","No_Match",NA,NA,NA,NA
31188,"11718 GWYNNE LANE","LOS ANGELES","CA",90077,34.11559958,-118.473310857,188,"11718 GWYNNE LANE, LOS ANGELES, CA, 90077","Match","Exact","11718 GWYNNE LN, LOS ANGELES, CA, 90077",141789943,"R"
31189,"11718 N WILLOW CIR","HOUSTON","TX",77071,29.635658123,-95.515729627,189,"11718 N WILLOW CIR, HOUSTON, TX, 77071","Match","Exact","11718 N WILLOW CIR, HOUSTON, TX, 77071",96038558,"L"
31190,"11718 NORWICK PLAZA APT 40","OMAHA","NE",68164,41.306992596,-96.0917390719999,190,"11718 NORWICK PLAZA APT 40, OMAHA, NE, 68164","Match","Exact","11718 NORWICK PLZ, OMAHA, NE, 68164",116993515,"R"
31191,"11718 S FEDERAL HIGHWAY SUITE 425","HOBE SOUND","FL",33455,27.0600839620001,-80.136986038,191,"11718 S FEDERAL HIGHWAY SUITE 425, HOBE SOUND, FL, 33455","Match","Non_Exact","11718 SE FEDERAL HWY, HOBE SOUND, FL, 33455",635585969,"L"
31192,"11718 SWEETBRIAR RIDGE DR","CHARLOTTE","NC",28269,35.35504723,-80.797302955,192,"11718 SWEETBRIAR RIDGE DR, CHARLOTTE, NC, 28269","Match","Exact","11718 SWEETBRIAR RIDGE DR, CHARLOTTE, NC, 28269",641595947,"L"
31193,"11719 258TH AVENUE E","BUCKLEY","WA",98321,47.150781126,-122.08600553,193,"11719 258TH AVENUE E, BUCKLEY, WA, 98321","Match","Exact","11719 258TH AVE E, BUCKLEY, WA, 98321",638576078,"L"
31194,"11719 COOPER RD","CHISHOLM","MN",55719,47.558619337,-92.9151796209999,194,"11719 COOPER RD, CHISHOLM, MN, 55719","Match","Exact","11719 COOPER RD, CHISHOLM, MN, 55719",163191562,"L"
31195,"11719 ERWIN RIDGE AVE","CHARLOTTE","NC",28213,35.2974925940001,-80.6980106,195,"11719 ERWIN RIDGE AVE, CHARLOTTE, NC, 28213","Match","Exact","11719 ERWIN RIDGE AVE, CHARLOTTE, NC, 28213",70562493,"R"
31196,"11719 GILA BEND LANE","TOMBALL","TX",77377,30.04309491,-95.614239594,196,"11719 GILA BEND LANE, TOMBALL, TX, 77377","Match","Exact","11719 GILA BEND LN, TOMBALL, TX, 77377",96169145,"L"
31197,"11719 S VAN NESS AVENUE","HAWTHORNE","CA",90250,33.9272663410001,-118.317764742,197,"11719 S VAN NESS AVENUE, HAWTHORNE, CA, 90250","Match","Exact","11719 S VAN NESS AVE, HAWTHORNE, CA, 90250",141808240,"R"
31198,"1172 BRAMPTON PLACE","LAKE MARY","FL",32746,28.769079468,-81.374027127,198,"1172 BRAMPTON PLACE, LAKE MARY, FL, 32746","Match","Exact","1172 BRAMPTON PL, LAKE MARY, FL, 32746",93771327,"L"
31199,"1172 BURNSIDE RD","SEBASTOPOL","CA",95472,38.38306027,-122.853452617,199,"1172 BURNSIDE RD, SEBASTOPOL, CA, 95472","Match","Exact","1172 BURNSIDE RD, SEBASTOPOL, CA, 95472",604998010,"R"
31200,"1172 FIRST AVENUE","SALT LAKE CITY","UT",84103,40.77055484,-111.854379372,200,"1172 FIRST AVENUE, SALT LAKE CITY, UT, 84103","Match","Non_Exact","1172 E 1ST AVE, SALT LAKE CITY, UT, 84103",176068207,"R"
31201,"1172 HASTINGS CT","SANTA MARIA","CA",93455,NA,NA,201,"1172 HASTINGS CT, SANTA MARIA, CA, 93455","No_Match",NA,NA,NA,NA
31202,"1172 HUMMINGBIRD LANE","PLYMOUTH","WI",53073,43.7388068770001,-87.9647205529999,202,"1172 HUMMINGBIRD LANE, PLYMOUTH, WI, 53073","Match","Exact","1172 HUMMINGBIRD LN, PLYMOUTH, WI, 53073",79512552,"R"
31203,"1172 HWY 28","BLAND","MO",65014,38.2955977840001,-91.604955257,203,"1172 HWY 28, BLAND, MO, 65014","Match","Exact","1172 HWY 28, BLAND, MO, 65014",45249863,"R"
31204,"1172 JAY ST","BOULDER","CO",80302,40.008359484,-105.288499956,204,"1172 JAY ST, BOULDER, CO, 80302","Match","Exact","1172 JAY ST, BOULDER, CO, 80302",188204343,"R"
31205,"1172 KNOLL CREST CT","TRAVERSE CITY","MI",49686,44.7288545060001,-85.5985389969999,205,"1172 KNOLL CREST CT, TRAVERSE CITY, MI, 49686","Match","Exact","1172 KNOLL CREST CT, TRAVERSE CITY, MI, 49686",145533646,"R"
31206,"1172 KOEBEL RD","COLUMBUS","OH",43207,39.9125700930001,-82.964088077,206,"1172 KOEBEL RD, COLUMBUS, OH, 43207","Match","Exact","1172 KOEBEL RD, COLUMBUS, OH, 43207",218644988,"L"
31207,"1172 MURPHY AVE STE 241","SAN JOSE","CA",95131,37.3819206810001,-121.89471679,207,"1172 MURPHY AVE STE 241, SAN JOSE, CA, 95131","Match","Exact","1172 MURPHY AVE, SAN JOSE, CA, 95131",123175575,"R"
31208,"1172 MURPHY AVE SUITE 237","SAN JOSE","CA",95131,37.3819206810001,-121.89471679,208,"1172 MURPHY AVE SUITE 237, SAN JOSE, CA, 95131","Match","Exact","1172 MURPHY AVE, SAN JOSE, CA, 95131",123175575,"R"
31209,"1172 N 200 EAST RD","CERRO GORDO","IL",61818,39.962420874,-88.707150505,209,"1172 N 200 EAST RD, CERRO GORDO, IL, 61818","Match","Exact","1172 N 200 EAST RD, CERRO GORDO, IL, 61818",8549264,"L"
31210,"1172 NE 210TH TERRACE","MIAMI","FL",33179,25.968804778,-80.180133772,210,"1172 NE 210TH TERRACE, MIAMI, FL, 33179","Match","Exact","1172 NE 210TH TER, MIAMI, FL, 33179",116249807,"L"
31211,"1172 OCEAN AVE LOWER","OAKLAND","CA",94608,37.846760578,-122.2868288,211,"1172 OCEAN AVE LOWER, OAKLAND, CA, 94608","Match","Exact","1172 OCEAN AVE, OAKLAND, CA, 94608",124994364,"R"
31212,"1172 OLD SALEM RD","CONYERS","GA",30094,33.6528580190001,-84.008349595,212,"1172 OLD SALEM RD, CONYERS, GA, 30094","Match","Non_Exact","1172 OLD SALEM RD SE, CONYERS, GA, 30094",23750217,"L"
31213,"1172 OLD SALEM ROAD","CONYERS","GA",30094,33.6528580190001,-84.008349595,213,"1172 OLD SALEM ROAD, CONYERS, GA, 30094","Match","Non_Exact","1172 OLD SALEM RD SE, CONYERS, GA, 30094",23750217,"L"
31214,"1172 ORLEANS DR","MUNDELEIN","IL",60060,42.234438051,-87.9837198449999,214,"1172 ORLEANS DR, MUNDELEIN, IL, 60060","Match","Exact","1172 ORLEANS DR, MUNDELEIN, IL, 60060",119692603,"L"
31215,"1172 RED ASH CT","CENTERVILLE","OH",45458,39.5858762770001,-84.147079992,215,"1172 RED ASH CT, CENTERVILLE, OH, 45458","Match","Exact","1172 RED ASH CT, CENTERVILLE, OH, 45458",143605128,"R"
31216,"1172 RIDGE ROAD","POTTSTOWN","PA",19465,40.1745310040001,-75.66999613,216,"1172 RIDGE ROAD, POTTSTOWN, PA, 19465","Match","Exact","1172 RIDGE RD, POTTSTOWN, PA, 19465",179552452,"L"
31217,"1172 RIDGEWAY AVE","VINCENNES","IN",47591,38.681922667,-87.506076422,217,"1172 RIDGEWAY AVE, VINCENNES, IN, 47591","Match","Exact","1172 RIDGEWAY AVE, VINCENNES, IN, 47591",30058997,"R"
31218,"1172 RUSSELL DRIVE","DECATUR","GA",30030,33.7605647300001,-84.27420778,218,"1172 RUSSELL DRIVE, DECATUR, GA, 30030","Match","Exact","1172 RUSSELL DR, DECATUR, GA, 30030",23369656,"L"
31219,"1172 S DIXIE HWY STE 554","CORAL GABLES","FL",33146,25.715523666,-80.275640467,219,"1172 S DIXIE HWY STE 554, CORAL GABLES, FL, 33146","Match","Non_Exact","1172 S DIXIE HWY, CORAL GABLES, FL, 33146",116013457,"L"
31220,"1172 SALEM RIDGE LANE","CINCINNATI","OH",45230,39.075761373,-84.3952185479999,220,"1172 SALEM RIDGE LANE, CINCINNATI, OH, 45230","Match","Exact","1172 SALEM RIDGE LN, CINCINNATI, OH, 45230",103957565,"L"
31221,"1172 SHADOW LN","TOLEDO","OH",43615,41.650948869,-83.657845634,221,"1172 SHADOW LN, TOLEDO, OH, 43615","Match","Exact","1172 SHADOW LN, TOLEDO, OH, 43615",33934861,"R"
31222,"1172 SHOMAN ST","WATERFORD","MI",48327,42.6551293410001,-83.410693464,222,"1172 SHOMAN ST, WATERFORD, MI, 48327","Match","Non_Exact","1172 SHOMAN RD, WATERFORD, MI, 48327",653391299,"L"
31223,"1172 SOUTH DIXIE HWY  STE 461","CORAL GABLES","FL",33146,25.715538941,-80.2756210869999,223,"1172 SOUTH DIXIE HWY  STE 461, CORAL GABLES, FL, 33146","Match","Exact","1172 S DIXIE HWY, CORAL GABLES, FL, 33146",116013457,"L"
31224,"1172 SOUTH DIXIEHIGHWAY NUM 472","MIAMI","FL",33146,NA,NA,224,"1172 SOUTH DIXIEHIGHWAY NUM 472, MIAMI, FL, 33146","No_Match",NA,NA,NA,NA
31225,"1172 SPENCER HILL DRIVE","ST. PETERS","MO",63376,38.787120069,-90.5989394599999,225,"1172 SPENCER HILL DRIVE, ST. PETERS, MO, 63376","Match","Exact","1172 SPENCER HILL DR, SAINT PETERS, MO, 63376",605564685,"L"
31226,"1172 STADIUM ROAD - ROOM 117C","GAINESVILLE","FL",32611,NA,NA,226,"1172 STADIUM ROAD - ROOM 117C, GAINESVILLE, FL, 32611","No_Match",NA,NA,NA,NA
31227,"1172 SWEEPING OAKS DRIVE","SAINT CHARLES","MO",63304,38.7348428330001,-90.5969468489999,227,"1172 SWEEPING OAKS DRIVE, SAINT CHARLES, MO, 63304","Match","Exact","1172 SWEEPING OAKS DR, SAINT CHARLES, MO, 63304",100095959,"R"
31228,"1172 TRISTRAM CIRCLE","MANTUA","NJ",8051,39.7907299980001,-75.180174439,228,"1172 TRISTRAM CIRCLE, MANTUA, NJ, 8051","Match","Exact","1172 TRISTRAM CIR, MANTUA, NJ, 08051",134614308,"L"
31229,"1172 YORK STREET SUITE 7","DENVER","CO",80206,39.7345622340001,-104.959784798,229,"1172 YORK STREET SUITE 7, DENVER, CO, 80206","Match","Exact","1172 YORK ST, DENVER, CO, 80206",177310969,"R"
31230,"11720 BELTSVILLE DR SUITE 800-A18","UPPER MARLBORO","MD",20705,NA,NA,230,"11720 BELTSVILLE DR SUITE 800-A18, UPPER MARLBORO, MD, 20705","No_Match",NA,NA,NA,NA
31231,"11720 CAPSTAN DRIVE","UPPER MARLBORO","MD",20772,38.796906424,-76.801850337,231,"11720 CAPSTAN DRIVE, UPPER MARLBORO, MD, 20772","Match","Exact","11720 CAPSTAN DR, UPPER MARLBORO, MD, 20772",76344674,"L"
31232,"11720 DREXWOOD DRIVE","PRINCESS ANNE","MD",21853,38.20301297,-75.712365271,232,"11720 DREXWOOD DRIVE, PRINCESS ANNE, MD, 21853","Match","Exact","11720 DREXWOOD DR, PRINCESS ANNE, MD, 21853",104166996,"R"
31233,"11720 EDGEWATER DR","LAKEWOOD","OH",44107,41.4900260000001,-81.768919669,233,"11720 EDGEWATER DR, LAKEWOOD, OH, 44107","Match","Exact","11720 EDGEWATER DR, LAKEWOOD, OH, 44107",650124257,"R"
31234,"11720 GLEN COURT","POTOMAC","MD",20854,39.048858927,-77.2278106159999,234,"11720 GLEN COURT, POTOMAC, MD, 20854","Match","Exact","11720 GLEN CT, POTOMAC, MD, 20854",62118321,"R"
31235,"11720 MCGINTY DRIVE","FREDERICKSBURG","VA",22407,38.280307609,-77.590480182,235,"11720 MCGINTY DRIVE, FREDERICKSBURG, VA, 22407","Match","Exact","11720 MCGINTY DR, FREDERICKSBURG, VA, 22407",85019552,"L"
31236,"11720 OLIVE BLVD","CREVE COEUR","MO",63141,38.6704387560001,-90.441590881,236,"11720 OLIVE BLVD, CREVE COEUR, MO, 63141","Match","Exact","11720 OLIVE BLVD, CREVE COEUR, MO, 63141",635735929,"L"
31237,"11720 PORTER VALLEY DR","NORTHRIDGE","CA",91326,34.2843413350001,-118.553777154,237,"11720 PORTER VALLEY DR, NORTHRIDGE, CA, 91326","Match","Exact","11720 PORTER VALLEY DR, NORTHRIDGE, CA, 91326",141539138,"R"
31238,"11720 SR 27","HECTOR","AR",72843,35.471559321,-92.974881527,238,"11720 SR 27, HECTOR, AR, 72843","Match","Non_Exact","11720 STATE HWY 27, HECTOR, AR, 72843",641722537,"L"
31239,"11720 STATE RT H SE","AGENCY","MO",64401,NA,NA,239,"11720 STATE RT H SE, AGENCY, MO, 64401","No_Match",NA,NA,NA,NA
31240,"11720 US HWY 19 SUITE 6","PORT RICHEY","FL",34668,28.32774815,-82.699145954,240,"11720 US HWY 19 SUITE 6, PORT RICHEY, FL, 34668","Match","Non_Exact","11720 US HWY 19, PORT RICHEY, FL, 34668",653184434,"L"
31241,"11721 183RD STREET - 362","ARTESIA","CA",90701,33.8657367390001,-118.083811592,241,"11721 183RD STREET - 362, ARTESIA, CA, 90701","Match","Exact","11721 183RD ST, ARTESIA, CA, 90701",141744344,"L"
31242,"11721 COPPERGATE DRIVE","RALEIGH","NC",27614,35.9559948080001,-78.543947956,242,"11721 COPPERGATE DRIVE, RALEIGH, NC, 27614","Match","Exact","11721 COPPERGATE DR, RALEIGH, NC, 27614",612819456,"L"
31243,"11721 HEIGHTS TRAIL LN","PEARLAND","TX",77584,29.5470123740001,-95.402897556,243,"11721 HEIGHTS TRAIL LN, PEARLAND, TX, 77584","Match","Exact","11721 HEIGHTS TRAIL LN, PEARLAND, TX, 77584",651961003,"L"
31244,"11721 MORNINGMIST LN","COLUMBIA","MD",21044,39.203153861,-76.9011854889999,244,"11721 MORNINGMIST LN, COLUMBIA, MD, 21044","Match","Exact","11721 MORNINGMIST LN, COLUMBIA, MD, 21044",647292742,"L"
31245,"11721 NC HWY 119 N","SEMORA","NC",27343,36.4691467430001,-79.18091801,245,"11721 NC HWY 119 N, SEMORA, NC, 27343","Match","Non_Exact","11721 STATE HWY 119 N, SEMORA, NC, 27343",640093781,"L"
31246,"11721 OAK AVENUE NORTH","SEMINOLE","FL",33772,27.827579589,-82.800544002,246,"11721 OAK AVENUE NORTH, SEMINOLE, FL, 33772","Match","Exact","11721 OAK AVE N, SEMINOLE, FL, 33772",124690768,"R"
31247,"11721 PARKWAY DRIVE","NORTH HUNTINGDON","PA",15642,40.3296505610001,-79.737276639,247,"11721 PARKWAY DRIVE, NORTH HUNTINGDON, PA, 15642","Match","Exact","11721 PARKWAY DR, N HUNTINGDON, PA, 15642",52966252,"R"
31248,"11721 THISTLEHILL DR","LOVELAND","OH",45140,39.2798656850001,-84.295125877,248,"11721 THISTLEHILL DR, LOVELAND, OH, 45140","Match","Exact","11721 THISTLEHILL DR, LOVELAND, OH, 45140",103945977,"L"
31249,"11721 WEST GREAT LAKES ROAD","CARRIER","OK",73727,36.521383954,-98.031572935,249,"11721 WEST GREAT LAKES ROAD, CARRIER, OK, 73727","Match","Exact","11721 W GREAT LAKES RD, CARRIER, OK, 73727",154069154,"R"
31250,"11721 WHITTIER BLVD  UNIT 233","WHITTIER","CA",90601,NA,NA,250,"11721 WHITTIER BLVD  UNIT 233, WHITTIER, CA, 90601","No_Match",NA,NA,NA,NA
31251,"11721 WHITTIER BLVD 149","WHITTIER","CA",90601,NA,NA,251,"11721 WHITTIER BLVD 149, WHITTIER, CA, 90601","No_Match",NA,NA,NA,NA
31252,"11721 WHITTIER BLVD NO 245","WHITTIER","CA",90601,NA,NA,252,"11721 WHITTIER BLVD NO 245, WHITTIER, CA, 90601","No_Match",NA,NA,NA,NA
31253,"11722 CABOT HILL ST","HOUSTON","TX",77044,29.890234627,-95.213375769,253,"11722 CABOT HILL ST, HOUSTON, TX, 77044","Match","Exact","11722 CABOT HILL ST, HOUSTON, TX, 77044",635049542,"R"
31254,"11722 LARRY ROAD","FAIRFAX","VA",22030,38.8375284470001,-77.353176752,254,"11722 LARRY ROAD, FAIRFAX, VA, 22030","Match","Exact","11722 LARRY RD, FAIRFAX, VA, 22030",75966082,"R"
31255,"11722 LONG LEAF CIR","SAINT LOUIS","MO",63146,38.6880218050001,-90.432910523,255,"11722 LONG LEAF CIR, SAINT LOUIS, MO, 63146","Match","Exact","11722 LONG LEAF CIR, SAINT LOUIS, MO, 63146",100174112,"L"
31256,"11722 NEWEL ELM ST","HOUSTON","TX",77038,29.903005858,-95.4639806879999,256,"11722 NEWEL ELM ST, HOUSTON, TX, 77038","Match","Exact","11722 NEWEL ELM ST, HOUSTON, TX, 77038",624580770,"L"
31257,"11722 PERRY CROSSING PKWY","SELLERSBURG","IN",47172,38.4444192350001,-85.7710742629999,257,"11722 PERRY CROSSING PKWY, SELLERSBURG, IN, 47172","Match","Exact","11722 PERRY CROSSING PKWY, SELLERSBURG, IN, 47172",637322424,"L"
31258,"11722 WEST DODGE ROAD","OMAHA","NE",68154,41.2631634250001,-96.09526618,258,"11722 WEST DODGE ROAD, OMAHA, NE, 68154","Match","Exact","11722 W DODGE RD, OMAHA, NE, 68154",116972027,"R"
31259,"117220 NW 20 AVENUE","MIAMI GARDENS","FL",33056,NA,NA,259,"117220 NW 20 AVENUE, MIAMI GARDENS, FL, 33056","No_Match",NA,NA,NA,NA
31260,"11723 CARAWAY HILL","SAN ANTONIO","TX",78245,29.4165798700001,-98.7235365939999,260,"11723 CARAWAY HILL, SAN ANTONIO, TX, 78245","Match","Exact","11723 CARAWAY HILL, SAN ANTONIO, TX, 78245",653859307,"R"
31261,"11723 NORTH MARJORY AVENUE","TAMPA","FL",33612,28.0563776400001,-82.465515449,261,"11723 NORTH MARJORY AVENUE, TAMPA, FL, 33612","Match","Non_Exact","11723 MARJORY AVE, TAMPA, FL, 33612",104511817,"R"
31262,"11723 SHOTGUN WAY","HELOTES","TX",78023,29.5527766170001,-98.67831727,262,"11723 SHOTGUN WAY, HELOTES, TX, 78023","Match","Exact","11723 SHOTGUN WAY, HELOTES, TX, 78023",101586582,"L"
31263,"11723 SOLANO CT","MEADOWS PLACE","TX",77477,29.6587997880001,-95.595345913,263,"11723 SOLANO CT, MEADOWS PLACE, TX, 77477","Match","Exact","11723 SOLANO CT, MEADOWS PLACE, TX, 77477",78266369,"R"
31264,"11724 BALLAH ROAD","ORIENT","OH",43146,39.7678488280001,-83.171145324,264,"11724 BALLAH ROAD, ORIENT, OH, 43146","Match","Exact","11724 BALLAH RD, ORIENT, OH, 43146",37462032,"L"
31265,"11724 DOVE AVE","CLEVELAND","OH",44105,41.452223711,-81.6014548809999,265,"11724 DOVE AVE, CLEVELAND, OH, 44105","Match","Exact","11724 DOVE AVE, CLEVELAND, OH, 44105",638815614,"R"
31266,"11724 EDISON DRIVE","KNOXVILLE","TN",37932,35.9105206940001,-84.184578627,266,"11724 EDISON DRIVE, KNOXVILLE, TN, 37932","Match","Exact","11724 EDISON DR, KNOXVILLE, TN, 37932",624790068,"L"
31267,"11724 OAK ST","SAN ANTONIO","FL",33576,NA,NA,267,"11724 OAK ST, SAN ANTONIO, FL, 33576","No_Match",NA,NA,NA,NA
31268,"11724 RD DD","ATWOOD","KS",67730,39.987465,-101.217709833,268,"11724 RD DD, ATWOOD, KS, 67730","Match","Exact","11724 RD DD, ATWOOD, KS, 67730",161501031,"L"
31269,"11724 SW 115 TERRACE","MIAMI","FL",33186,25.6610824690001,-80.384373263,269,"11724 SW 115 TERRACE, MIAMI, FL, 33186","Match","Exact","11724 SW 115TH TER, MIAMI, FL, 33186",116270638,"L"
31270,"11725 15TH AVE NE APT 407","SEATTLE","WA",98125,47.714764904,-122.312523691,270,"11725 15TH AVE NE APT 407, SEATTLE, WA, 98125","Match","Exact","11725 15TH AVE NE, SEATTLE, WA, 98125",186584423,"L"
31271,"11725 171ST PL NE","REDMOND","WA",98052,47.705258932,-122.112218825,271,"11725 171ST PL NE, REDMOND, WA, 98052","Match","Exact","11725 171ST PL NE, REDMOND, WA, 98052",627282668,"L"
31272,"11725 1ST AVE NE","SEATTLE","WA",98125,47.7143142090001,-122.328773509,272,"11725 1ST AVE NE, SEATTLE, WA, 98125","Match","Exact","11725 1ST AVE NE, SEATTLE, WA, 98125",186677976,"L"
31273,"11725 DONNER PASS RD","TRUCKEE","CA",96161,39.326021435,-120.215080241,273,"11725 DONNER PASS RD, TRUCKEE, CA, 96161","Match","Exact","11725 DONNER PASS RD, TRUCKEE, CA, 96161",640108866,"R"
31274,"11725 DOWNEY AVE 7","DOWNEY","CA",90241,33.9341577280001,-118.137118423,274,"11725 DOWNEY AVE 7, DOWNEY, CA, 90241","Match","Exact","11725 DOWNEY AVE, DOWNEY, CA, 90241",142773344,"R"
31275,"11725 LE HAVRE DR","POTOMAC","MD",20854,39.047409126,-77.1876001099999,275,"11725 LE HAVRE DR, POTOMAC, MD, 20854","Match","Exact","11725 LE HAVRE DR, POTOMAC, MD, 20854",62053729,"R"
31276,"11725 SHANNON POINTE RD","INDIANAPOLIS","IN",46229,39.788020509,-85.95603032,276,"11725 SHANNON POINTE RD, INDIANAPOLIS, IN, 46229","Match","Exact","11725 SHANNON POINTE RD, INDIANAPOLIS, IN, 46229",108030500,"R"
31277,"11725 STOCKDALE CT","PINEVILLE","NC",28134,35.0752283590001,-80.8908855079999,277,"11725 STOCKDALE CT, PINEVILLE, NC, 28134","Match","Exact","11725 STOCKDALE CT, PINEVILLE, NC, 28134",611630507,"R"
31278,"11725 SUN GLASS DR","MANOR","TX",78653,30.3580024460001,-97.540834546,278,"11725 SUN GLASS DR, MANOR, TX, 78653","Match","Exact","11725 SUN GLASS DR, MANOR, TX, 78653",635102239,"R"
31279,"11726 9TH AVE NE","SEATTLE","WA",98125,47.714294566,-122.319292752,279,"11726 9TH AVE NE, SEATTLE, WA, 98125","Match","Exact","11726 9TH AVE NE, SEATTLE, WA, 98125",186579987,"R"
31280,"11726 BIRCH MEADOW DRIVE","HOUSTON","TX",77071,29.65061554,-95.535698305,280,"11726 BIRCH MEADOW DRIVE, HOUSTON, TX, 77071","Match","Exact","11726 BIRCH MEADOW DR, HOUSTON, TX, 77071",96353501,"L"
31281,"11726 CRITTON CIRCLE","WOODBRIDGE","VA",22192,38.699545625,-77.312206649,281,"11726 CRITTON CIRCLE, WOODBRIDGE, VA, 22192","Match","Exact","11726 CRITTON CIR, WOODBRIDGE, VA, 22192",76515851,"L"
31282,"11726 FOREST COURT","DALLAS","TX",75230,32.9087791590001,-96.7912978269999,282,"11726 FOREST COURT, DALLAS, TX, 75230","Match","Exact","11726 FOREST CT, DALLAS, TX, 75230",102996171,"L"
31283,"11726 N CRESCENT PARK DR","HOUSTON","TX",77067,NA,NA,283,"11726 N CRESCENT PARK DR, HOUSTON, TX, 77067","Tie",NA,NA,NA,NA
31284,"11727 DRAYTON DR","AUSTIN","TX",78758,30.3887735750001,-97.691309522,284,"11727 DRAYTON DR, AUSTIN, TX, 78758","Match","Exact","11727 DRAYTON DR, AUSTIN, TX, 78758",63930356,"R"
31285,"11727 E SAM HOUSTON PARKWAY N","HOUSTON","TX",77044,NA,NA,285,"11727 E SAM HOUSTON PARKWAY N, HOUSTON, TX, 77044","No_Match",NA,NA,NA,NA
31286,"11728 ANNANDALE RD","CROWLEY","TX",76036,32.54912174,-97.4629680419999,286,"11728 ANNANDALE RD, CROWLEY, TX, 76036","Match","Exact","11728 ANNANDALE RD, CROWLEY, TX, 76036",649441774,"R"
31287,"11728 E GOLF LINKS RD","TUCSON","AZ",85730,32.1918195150001,-110.741315997,287,"11728 E GOLF LINKS RD, TUCSON, AZ, 85730","Match","Exact","11728 E GOLF LINKS RD, TUCSON, AZ, 85730",121189304,"R"
31288,"11728 FAUNCETOWN ROAD","TOWNVILLE","PA",16360,41.633446287,-79.858821689,288,"11728 FAUNCETOWN ROAD, TOWNVILLE, PA, 16360","Match","Exact","11728 FAUNCETOWN RD, TOWNVILLE, PA, 16360",98593231,"R"
31289,"11728 PALMER COURT","FAYETTEVILLE","GA",30215,33.4300669300001,-84.391135779,289,"11728 PALMER COURT, FAYETTEVILLE, GA, 30215","Match","Exact","11728 PALMER CT, FAYETTEVILLE, GA, 30215",23327187,"R"
31290,"11728 ROCK CREEK ROAD","MULBERRY","AR",72947,35.599906333,-94.1068093229999,290,"11728 ROCK CREEK ROAD, MULBERRY, AR, 72947","Match","Exact","11728 ROCK CREEK RD, MULBERRY, AR, 72947",53497237,"R"
31291,"11728 WEST MAUNA LOA LANE","EL MIRAGE","AZ",85335,33.6193028380001,-112.312845883,291,"11728 WEST MAUNA LOA LANE, EL MIRAGE, AZ, 85335","Match","Exact","11728 W MAUNA LOA LN, EL MIRAGE, AZ, 85335",128877828,"R"
31292,"11729 FAN TAIL LANE","ORLANDO","FL",32827,28.3965703910001,-81.2592134719999,292,"11729 FAN TAIL LANE, ORLANDO, FL, 32827","Match","Exact","11729 FAN TAIL LN, ORLANDO, FL, 32827",627027808,"L"
31293,"1173 BENNETT RD","POWDER SPRINGS","GA",30127,33.84753067,-84.7308118669999,293,"1173 BENNETT RD, POWDER SPRINGS, GA, 30127","Match","Exact","1173 BENNETT RD, POWDER SPGS, GA, 30127",618921212,"L"
31294,"1173 BERGEN STREET","NEWARK","NJ",7112,40.704225104,-74.211857708,294,"1173 BERGEN STREET, NEWARK, NJ, 7112","Match","Exact","1173 BERGEN ST, NEWARK, NJ, 07112",63466193,"R"
31295,"1173 CADILLAC BLVD","AKRON","OH",44320,41.082905865,-81.561183576,295,"1173 CADILLAC BLVD, AKRON, OH, 44320","Match","Exact","1173 CADILLAC BLVD, AKRON, OH, 44320",61338612,"R"
31296,"1173 CHARLES AVE","FLINT","MI",48505,43.077770559,-83.687445801,296,"1173 CHARLES AVE, FLINT, MI, 48505","Match","Exact","1173 CHARLES AVE, FLINT, MI, 48505",69566400,"L"
31297,"1173 DEVONSHIRE DRIVE","VACAVILLE","CA",95687,38.3429111250001,-121.989445914,297,"1173 DEVONSHIRE DRIVE, VACAVILLE, CA, 95687","Match","Exact","1173 DEVONSHIRE DR, VACAVILLE, CA, 95687",192534931,"L"
31298,"1173 E HUDSON ST","COLUMBUS","OH",43211,40.0141517800001,-82.978689762,298,"1173 E HUDSON ST, COLUMBUS, OH, 43211","Match","Exact","1173 E HUDSON ST, COLUMBUS, OH, 43211",649632619,"R"
31299,"1173 E SAN TAN DR","GILBERT","AZ",85296,33.332291492,-111.765270168,299,"1173 E SAN TAN DR, GILBERT, AZ, 85296","Match","Exact","1173 E SAN TAN DR, GILBERT, AZ, 85296",128822774,"L"
31300,"1173 EAST ISLAND PLACE","MEMPHIS","TN",38103,NA,NA,300,"1173 EAST ISLAND PLACE, MEMPHIS, TN, 38103","No_Match",NA,NA,NA,NA
31301,"1173 ELM AVE","SEASIDE","CA",93955,36.607598162,-121.841061375,301,"1173 ELM AVE, SEASIDE, CA, 93955","Match","Exact","1173 ELM AVE, SEASIDE, CA, 93955",196821185,"L"
31302,"1173 GLENFIELD DR","SALISBURY","NC",28147,35.672997465,-80.5452643,302,"1173 GLENFIELD DR, SALISBURY, NC, 28147","Match","Exact","1173 GLENFIELD DR, SALISBURY, NC, 28147",625106244,"R"
31303,"1173 GREYWOOD LN","THE VILLAGES","FL",32163,28.853718956,-81.980730931,303,"1173 GREYWOOD LN, THE VILLAGES, FL, 32163","Match","Exact","1173 GREYWOOD LN, THE VILLAGES, FL, 32163",641349250,"L"
31304,"1173 HIGHWAY 359","WASHINGTON","LA",70589,30.638074569,-91.943040184,304,"1173 HIGHWAY 359, WASHINGTON, LA, 70589","Match","Non_Exact","1173 STATE RTE 359, WASHINGTON, LA, 70589",106453925,"L"
31305,"1173 MADISON AVE N","BAINBRIDGE ISLAND","WA",98110,47.634631384,-122.521010973,305,"1173 MADISON AVE N, BAINBRIDGE ISLAND, WA, 98110","Match","Exact","1173 MADISON AVE N, BAINBRIDGE ISLAND, WA, 98110",187667249,"L"
31306,"1173 OSPREY WAY","APOPKA","FL",32712,28.700331142,-81.518772263,306,"1173 OSPREY WAY, APOPKA, FL, 32712","Match","Exact","1173 OSPREY WAY, APOPKA, FL, 32712",94391207,"R"
31307,"1173 PHILIPSBURG BIGLER HWY","PHILIPSBURG","PA",16866,40.904829432,-78.2345144619999,307,"1173 PHILIPSBURG BIGLER HWY, PHILIPSBURG, PA, 16866","Match","Exact","1173 PHILIPSBURG BIGLER HWY, PHILIPSBURG, PA, 16866",50460421,"L"
31308,"1173 PLANTATION PASS","GALLATIN","TN",37066,36.334842861,-86.4839402699999,308,"1173 PLANTATION PASS, GALLATIN, TN, 37066","Match","Exact","1173 PLANTATION PASS, GALLATIN, TN, 37066",29797110,"R"
31309,"1173 PRAIRIE VIEW DR 73305","WEST DES MONIES","IA",50266,41.587910304,-93.780555839,309,"1173 PRAIRIE VIEW DR 73305, WEST DES MONIES, IA, 50266","Match","Non_Exact","1173 PRAIRIE VIEW DR, WEST DES MOINES, IA, 50266",65796583,"L"
31310,"1173 S 250 W STE 201","ST GEORGE","UT",84770,NA,NA,310,"1173 S 250 W STE 201, ST GEORGE, UT, 84770","No_Match",NA,NA,NA,NA
31311,"1173 S 250 W STE 301","SAINT GEORGE","UT",84770,NA,NA,311,"1173 S 250 W STE 301, SAINT GEORGE, UT, 84770","No_Match",NA,NA,NA,NA
31312,"1173 S 250 W","SAINT GEORGE","UT",84770,37.0886547710001,-113.588938485,312,"1173 S 250 W, SAINT GEORGE, UT, 84770","Match","Exact","1173 S 250 W, SAINT GEORGE, UT, 84770",627771960,"R"
31313,"1173 SCENIC DRIVE","SHELBY","NC",28150,35.3259673810001,-81.4981920119999,313,"1173 SCENIC DRIVE, SHELBY, NC, 28150","Match","Exact","1173 SCENIC DR, SHELBY, NC, 28150",640611481,"R"
31314,"1173 STATION RD","VALLEY CITY","OH",44280,41.242261387,-81.954263171,314,"1173 STATION RD, VALLEY CITY, OH, 44280","Match","Exact","1173 STATION RD, VALLEY CITY, OH, 44280",58683639,"L"
31315,"1173 TYLER RD","DENMARK","SC",29042,33.272199293,-81.1902613349999,315,"1173 TYLER RD, DENMARK, SC, 29042","Match","Exact","1173 TYLER RD, DENMARK, SC, 29042",18963142,"R"
31316,"1173 W LIVE OAK ST","MIAMI","AZ",85539,33.3948610890001,-110.876389055,316,"1173 W LIVE OAK ST, MIAMI, AZ, 85539","Match","Non_Exact","1173 W LIVE OAK, MIAMI, AZ, 85539",159348547,"R"
31317,"1173 WILLIAMS LANE","HANAHAN","SC",29410,32.9450629240001,-80.0048183009999,317,"1173 WILLIAMS LANE, HANAHAN, SC, 29410","Match","Exact","1173 WILLIAMS LN, HANAHAN, SC, 29410",100777666,"L"
31318,"11730 CLIFFWOOD RD","VICTORVILLE","CA",92392,34.495937466,-117.40760757,318,"11730 CLIFFWOOD RD, VICTORVILLE, CA, 92392","Match","Non_Exact","11730 CLIFFWOOD ST, VICTORVILLE, CA, 92392",616141915,"L"
31319,"11730 GREEN CORAL DR","HOUSTON","TX",77044,29.8905520710001,-95.217998639,319,"11730 GREEN CORAL DR, HOUSTON, TX, 77044","Match","Exact","11730 GREEN CORAL DR, HOUSTON, TX, 77044",641930650,"R"
31320,"11730 KOUROS WAY","RANCHO CORDOVA","CA",95742,38.543157658,-121.240885873,320,"11730 KOUROS WAY, RANCHO CORDOVA, CA, 95742","Match","Exact","11730 KOUROS WAY, RANCHO CORDOVA, CA, 95742",614159604,"R"
31321,"11730 MARKSBERRY LANE UNIT A","CINCINNATI","OH",45249,39.281269566,-84.343327158,321,"11730 MARKSBERRY LANE UNIT A, CINCINNATI, OH, 45249","Match","Exact","11730 MARKSBERRY LN, CINCINNATI, OH, 45249",103964435,"L"
31322,"11730 N FARNSWORTH RD","HAYWARD","WI",54843,NA,NA,322,"11730 N FARNSWORTH RD, HAYWARD, WI, 54843","Tie",NA,NA,NA,NA
31323,"11730 S SAM HOUSTON PKWY W","HOUSTON","TX",77031,29.650747343,-95.546367237,323,"11730 S SAM HOUSTON PKWY W, HOUSTON, TX, 77031","Match","Non_Exact","11730 SAM HOUSTON PKWY, HOUSTON, TX, 77031",638165754,"L"
31324,"11730 SELA LN","HOUSTON","TX",77072,29.6956341310001,-95.5854219509999,324,"11730 SELA LN, HOUSTON, TX, 77072","Match","Exact","11730 SELA LN, HOUSTON, TX, 77072",640073337,"R"
31325,"11730 SR 131","SYMSONIA","KY",42082,36.9167723840001,-88.520557986,325,"11730 SR 131, SYMSONIA, KY, 42082","Match","Non_Exact","11730 STATE HWY 131, SYMSONIA, KY, 42082",27880987,"R"
31326,"11730 SW BEL AIRE LN APT 8","BEAVERTON","OR",97008,45.462463407,-122.797651378,326,"11730 SW BEL AIRE LN APT 8, BEAVERTON, OR, 97008","Match","Non_Exact","11730 SW BEL AIRE LN, BEAVERTON, OR, 97008",158189436,"L"
31327,"11730 TANEYTOWN PIKE","TANEYTOWN","MD",21787,39.6846797810001,-77.257112277,327,"11730 TANEYTOWN PIKE, TANEYTOWN, MD, 21787","Match","Exact","11730 TANEYTOWN PIKE, TANEYTOWN, MD, 21787",60695109,"R"
31328,"11731 JONQUIL ST NW","COON RAPIDS","MN",55433,45.1848077920001,-93.344081148,328,"11731 JONQUIL ST NW, COON RAPIDS, MN, 55433","Match","Exact","11731 JONQUIL ST NW, COON RAPIDS, MN, 55433",97495047,"L"
31329,"11731 SAND CREEK BOULEVARD","FISHERS","IN",46037,39.958479638,-85.9851419889999,329,"11731 SAND CREEK BOULEVARD, FISHERS, IN, 46037","Match","Non_Exact","11731 SAND CREEK BLVD, FISHERS, IN, 46038",646578202,"R"
31330,"11731 SW 45TH AVE","PORTLAND","OR",97219,45.4408468870001,-122.723076246,330,"11731 SW 45TH AVE, PORTLAND, OR, 97219","Match","Exact","11731 SW 45TH AVE, PORTLAND, OR, 97219",157525216,"R"
31331,"11732 SMITHFORD RD","HICKORY GROVE","SC",29717,34.9856097090001,-81.431632515,331,"11732 SMITHFORD RD, HICKORY GROVE, SC, 29717","Match","Exact","11732 SMITHFORD RD, HICKORY GROVE, SC, 29717",19780633,"R"
31332,"11733 BLUE TICK CT","CHARLOTTE","NC",28269,35.3689913970001,-80.805349254,332,"11733 BLUE TICK CT, CHARLOTTE, NC, 28269","Match","Exact","11733 BLUE TICK CT, CHARLOTTE, NC, 28269",70553556,"L"
31333,"11733 NATURE TRAIL","PORT RICHEY","FL",34668,28.327785104,-82.674144058,333,"11733 NATURE TRAIL, PORT RICHEY, FL, 34668","Match","Exact","11733 NATURE TRL, PORT RICHEY, FL, 34668",86340676,"R"
31334,"11733 SHERWOOD WAY","AUBURN","CA",95602,38.9587045810001,-121.104811435,334,"11733 SHERWOOD WAY, AUBURN, CA, 95602","Match","Exact","11733 SHERWOOD WAY, AUBURN, CA, 95602",106793266,"L"
31335,"11733 WAYNERIDGE STREET","FULTON","MD",20759,39.1604035990001,-76.9210363559999,335,"11733 WAYNERIDGE STREET, FULTON, MD, 20759","Match","Exact","11733 WAYNERIDGE ST, FULTON, MD, 20759",158922064,"L"
31336,"11733 WHITCOMB STREET","DETROIT","MI",48227,42.373402426,-83.195397166,336,"11733 WHITCOMB STREET, DETROIT, MI, 48227","Match","Exact","11733 WHITCOMB ST, DETROIT, MI, 48227",95441561,"L"
31337,"11734 BUCKWHEAT ROAD","ALDEN","NY",14004,42.9510874090001,-78.550361789,337,"11734 BUCKWHEAT ROAD, ALDEN, NY, 14004","Match","Exact","11734 BUCKWHEAT RD, ALDEN, NY, 14004",48347714,"L"
31338,"11734 WILSHIRE BLVD C-108","LOS ANGELES","CA",90025,34.0491329560001,-118.461251801,338,"11734 WILSHIRE BLVD C-108, LOS ANGELES, CA, 90025","Match","Exact","11734 WILSHIRE BLVD, LOS ANGELES, CA, 90025",650065218,"L"
31339,"11735 HOYT AVE","TAMPA","FL",33617,28.056129308,-82.381667818,339,"11735 HOYT AVE, TAMPA, FL, 33617","Match","Exact","11735 HOYT AVE, TAMPA, FL, 33617",647013844,"R"
31340,"11735 LUCILLE","OVERLAND PARK","KS",66210,NA,NA,340,"11735 LUCILLE, OVERLAND PARK, KS, 66210","Tie",NA,NA,NA,NA
31341,"11736 OSPREY POINTE BLVD","CLERMONT","FL",34711,28.521676859,-81.7593353629999,341,"11736 OSPREY POINTE BLVD, CLERMONT, FL, 34711","Match","Exact","11736 OSPREY POINTE BLVD, CLERMONT, FL, 34711",94161390,"L"
31342,"11737 78TH AVE","ALLENDALE","MI",49401,42.9817095020001,-85.979262901,342,"11737 78TH AVE, ALLENDALE, MI, 49401","Match","Exact","11737 78TH AVE, ALLENDALE, MI, 49401",71081230,"R"
31343,"11737 W LARCH RD","TRACY","CA",95304,37.765022618,-121.449725421,343,"11737 W LARCH RD, TRACY, CA, 95304","Match","Exact","11737 W LARCH RD, TRACY, CA, 95304",653690397,"R"
31344,"11738 COURTLEIGH DR  112","LOS ANGELES","CA",90066,33.9986024450001,-118.417736844,344,"11738 COURTLEIGH DR  112, LOS ANGELES, CA, 90066","Match","Exact","11738 COURTLEIGH DR, LOS ANGELES, CA, 90066",141574091,"L"
31345,"11738 PLUMPOINT DR","HOUSTON","TX",77099,29.667615604,-95.584726651,345,"11738 PLUMPOINT DR, HOUSTON, TX, 77099","Match","Exact","11738 PLUMPOINT DR, HOUSTON, TX, 77099",96036066,"L"
31346,"11739 207TH STREET","LAKEWOOD","CA",90715,33.8423460770001,-118.083246745,346,"11739 207TH STREET, LAKEWOOD, CA, 90715","Match","Exact","11739 207TH ST, LAKEWOOD, CA, 90715",642870332,"L"
31347,"1174 54TH AVE S","SAINT PETERSBURG","FL",33705,27.719409441,-82.649706623,347,"1174 54TH AVE S, SAINT PETERSBURG, FL, 33705","Match","Exact","1174 54TH AVE S, SAINT PETERSBURG, FL, 33705",124792869,"L"
31348,"1174 CREEK LOCKS ROAD 330","BLOOMINGTON","NY",12411,41.878052499,-74.037025049,348,"1174 CREEK LOCKS ROAD 330, BLOOMINGTON, NY, 12411","Match","Exact","1174 CREEK LOCKS RD, BLOOMINGTON, NY, 12411",41933277,"R"
31349,"1174 EASTERN PARKWAY","BROOKLYN","NY",11213,40.668530595,-73.930267359,349,"1174 EASTERN PARKWAY, BROOKLYN, NY, 11213","Match","Exact","1174 EASTERN PKWY, BROOKLYN, NY, 11213",640852558,"L"
31350,"1174 FIRST AVENUE","BERWICK","PA",18603,41.055392324,-76.2521023099999,350,"1174 FIRST AVENUE, BERWICK, PA, 18603","Match","Exact","1174 FIRST AVE, BERWICK, PA, 18603",639718806,"R"
31351,"1174 FOREST  BLUFF TRAIL","ROUND ROCK","TX",78665,30.528084586,-97.614450072,351,"1174 FOREST  BLUFF TRAIL, ROUND ROCK, TX, 78665","Match","Exact","1174 FOREST BLUFF TRL, ROUND ROCK, TX, 78665",126454833,"L"
31352,"1174 FOREST AVE APT 3","BRONX","NY",10456,40.8288226720001,-73.901785622,352,"1174 FOREST AVE APT 3, BRONX, NY, 10456","Match","Exact","1174 FOREST AVE, BRONX, NY, 10456",80301973,"R"
31353,"1174 J A COCHRAN BYPASS","CHESTER","SC",29706,34.6912029710001,-81.212050626,353,"1174 J A COCHRAN BYPASS, CHESTER, SC, 29706","Match","Exact","1174 J A COCHRAN BYP, CHESTER, SC, 29706",40564036,"L"
31354,"1174 KIPLING COURT","LANSDALE","PA",19446,40.228728055,-75.3068635079999,354,"1174 KIPLING COURT, LANSDALE, PA, 19446","Match","Exact","1174 KIPLING CT, LANSDALE, PA, 19446",605629672,"R"
31355,"1174 KRA NUR DRIVE","BURTON","MI",48509,43.0308571790001,-83.58264874,355,"1174 KRA NUR DRIVE, BURTON, MI, 48509","Match","Exact","1174 KRA NUR DR, BURTON, MI, 48509",69587957,"R"
31356,"1174 LOUISVILLE HIGHWAY","GOODLETTSVILLE","TN",37072,36.3697286130001,-86.710430615,356,"1174 LOUISVILLE HIGHWAY, GOODLETTSVILLE, TN, 37072","Match","Exact","1174 LOUISVILLE HWY, GOODLETTSVILLE, TN, 37072",611949410,"L"
31357,"1174 NE 10TH ST","GRANTS PASS","OR",97526,42.450595471,-123.312627212,357,"1174 NE 10TH ST, GRANTS PASS, OR, 97526","Match","Exact","1174 NE 10TH ST, GRANTS PASS, OR, 97526",156572693,"R"
31358,"1174 PACES CREEK ROAD","MANCHESTER","KY",40962,37.133415175,-83.7329326299999,358,"1174 PACES CREEK ROAD, MANCHESTER, KY, 40962","Match","Exact","1174 PACES CREEK RD, MANCHESTER, KY, 40962",649908878,"R"
31359,"1174 PELHAM WOOD ROAD","PARKVILLE","MD",21234,39.381434933,-76.572728976,359,"1174 PELHAM WOOD ROAD, PARKVILLE, MD, 21234","Match","Non_Exact","1174 PELHAMWOOD RD, PARKVILLE, MD, 21234",191475693,"L"
31360,"1174 POLSON AVE","CLOVIS","CA",93612,36.8332049950001,-119.694055528,360,"1174 POLSON AVE, CLOVIS, CA, 93612","Match","Exact","1174 POLSON AVE, CLOVIS, CA, 93612",197601572,"R"
31361,"1174 POWELL CT SE","ATLANTA","GA",30316,33.722382501,-84.3421960969999,361,"1174 POWELL CT SE, ATLANTA, GA, 30316","Match","Exact","1174 POWELL CT SE, ATLANTA, GA, 30316",23365801,"L"
31362,"1174 RED DUNES RUN","AVON","IN",46123,39.7806978770001,-86.369897968,362,"1174 RED DUNES RUN, AVON, IN, 46123","Match","Exact","1174 RED DUNES RUN, AVON, IN, 46123",89235760,"R"
31363,"1174 REDDING LANE","LINCOLNTON","NC",28092,35.4712901140001,-81.2834617409999,363,"1174 REDDING LANE, LINCOLNTON, NC, 28092","Match","Exact","1174 REDDING LN, LINCOLNTON, NC, 28092",69539541,"L"
31364,"1174 SAND HILL ROAD","HOPE MILLS","NC",28348,34.9338740790001,-78.8950762979999,364,"1174 SAND HILL ROAD, HOPE MILLS, NC, 28348","Match","Non_Exact","1174 SANDHILL RD, HOPE MILLS, NC, 28348",64271284,"R"
31365,"1174 VAN ANTWERP RD","NISKAYUNA","NY",12309,42.8072780160001,-73.896379338,365,"1174 VAN ANTWERP RD, NISKAYUNA, NY, 12309","Match","Exact","1174 VAN ANTWERP RD, NISKAYUNA, NY, 12309",18029714,"R"
31366,"1174 WEST FARMS RD 3B","BRONX","NY",10459,40.828307914,-73.8886508539999,366,"1174 WEST FARMS RD 3B, BRONX, NY, 10459","Match","Exact","1174 W FARMS RD, BRONX, NY, 10459",80302359,"R"
31367,"1174 WHITTEN RD","MEMPHIS","TN",38134,35.1572021540001,-89.837101667,367,"1174 WHITTEN RD, MEMPHIS, TN, 38134","Match","Exact","1174 WHITTEN RD, MEMPHIS, TN, 38134",610915490,"R"
31368,"1174 WILLIS COTTON ROAD","SUMMIT","MS",39666,31.2927592550001,-90.537905896,368,"1174 WILLIS COTTON ROAD, SUMMIT, MS, 39666","Match","Exact","1174 WILLIS COTTON RD, SUMMIT, MS, 39666",649830146,"R"
31369,"1174 WOODLAND CHURCH RD","WAKE FOREST","NC",27587,36.077087255,-78.569166029,369,"1174 WOODLAND CHURCH RD, WAKE FOREST, NC, 27587","Match","Exact","1174 WOODLAND CHURCH RD, WAKE FOREST, NC, 27587",635986870,"R"
31370,"11740 BANDERA AVE APARTMENT 308","LOS ANGELES","CA",90059,33.9264349090001,-118.239859504,370,"11740 BANDERA AVE APARTMENT 308, LOS ANGELES, CA, 90059","Match","Non_Exact","11740 BANDERA ST, LOS ANGELES, CA, 90059",141802143,"L"
31371,"11740 DUBLIN BLVD STE 205","DUBLIN","CA",94568,37.7045337010001,-121.983007544,371,"11740 DUBLIN BLVD STE 205, DUBLIN, CA, 94568","Match","Exact","11740 DUBLIN BLVD, DUBLIN, CA, 94568",640798065,"R"
31372,"11740 SAN VICENTE BLVD STE 109-555","LOS ANGELES","CA",90049,34.053198293,-118.466932807,372,"11740 SAN VICENTE BLVD STE 109-555, LOS ANGELES, CA, 90049","Match","Non_Exact","11740 W SAN VICENTE BLVD, LOS ANGELES, CA, 90049",141566942,"L"
31373,"11740 SAN VICENTE BLVD STE 109","LOS ANGELES","CA",90049,34.053198293,-118.466932807,373,"11740 SAN VICENTE BLVD STE 109, LOS ANGELES, CA, 90049","Match","Non_Exact","11740 W SAN VICENTE BLVD, LOS ANGELES, CA, 90049",141566942,"L"
31374,"11740 SERENITY LANE","INDIANAPOLIS","IN",46229,39.792277321,-85.956452371,374,"11740 SERENITY LANE, INDIANAPOLIS, IN, 46229","Match","Exact","11740 SERENITY LN, INDIANAPOLIS, IN, 46229",108060972,"L"
31375,"11740 WILSHIRE BLVD APT A207","LOS ANGELES","CA",90025,34.0490903250001,-118.461304562,375,"11740 WILSHIRE BLVD APT A207, LOS ANGELES, CA, 90025","Match","Exact","11740 WILSHIRE BLVD, LOS ANGELES, CA, 90025",650065218,"L"
31376,"11741 CEDAR ROCK DR NE","ROCKFORD","MI",49341,43.1785622100001,-85.5560613279999,376,"11741 CEDAR ROCK DR NE, ROCKFORD, MI, 49341","Match","Exact","11741 CEDAR ROCK DR NE, ROCKFORD, MI, 49341",12499047,"L"
31377,"11742 BATTLE RIDGE ROAD","REMINGTON","VA",22734,38.544141917,-77.8017316529999,377,"11742 BATTLE RIDGE ROAD, REMINGTON, VA, 22734","Match","Non_Exact","11742 BATTLE RIDGE DR, REMINGTON, VA, 22734",146281124,"R"
31378,"11742 GREEN COLLING PARK DR","HOUSTON","TX",77047,29.6256895330001,-95.403162935,378,"11742 GREEN COLLING PARK DR, HOUSTON, TX, 77047","Match","Exact","11742 GREEN COLLING PARK DR, HOUSTON, TX, 77047",624584730,"R"
31379,"11742 US HWY 431","BOAZ","AL",35956,34.1692924120001,-86.1389630639999,379,"11742 US HWY 431, BOAZ, AL, 35956","Match","Exact","11742 US HWY 431, BOAZ, AL, 35956",66760898,"R"
31380,"11742 WAYWARD DAISY","SAN ANTONIO","TX",78245,29.4190676150001,-98.724751667,380,"11742 WAYWARD DAISY, SAN ANTONIO, TX, 78245","Match","Exact","11742 WAYWARD DAISY, SAN ANTONIO, TX, 78245",619943578,"R"
31381,"11742 WILSHIRE","DETROIT","MI",48213,42.405561004,-82.991614962,381,"11742 WILSHIRE, DETROIT, MI, 48213","Match","Non_Exact","11742 WILSHIRE DR, DETROIT, MI, 48213",95468383,"R"
31382,"11743 19TH AVE NE","SEATTLE","WA",98125,47.7142962,-122.308490536,382,"11743 19TH AVE NE, SEATTLE, WA, 98125","Match","Exact","11743 19TH AVE NE, SEATTLE, WA, 98125",186584500,"L"
31383,"11743 ECKERT LN","ST LOUIS","MO",63138,38.78203037,-90.1942015979999,383,"11743 ECKERT LN, ST LOUIS, MO, 63138","Match","Exact","11743 ECKERT LN, SAINT LOUIS, MO, 63138",100151133,"L"
31384,"11743 HG TRUEMAN ROAD","LUSBY","MD",20657,38.373215155,-76.439250568,384,"11743 HG TRUEMAN ROAD, LUSBY, MD, 20657","Match","Non_Exact","11743 H G TRUEMAN RD, LUSBY, MD, 20657",78181674,"L"
31385,"11743 PORTOLA COURT","ADELANTO","CA",92301,34.5344691810001,-117.40718338,385,"11743 PORTOLA COURT, ADELANTO, CA, 92301","Match","Exact","11743 PORTOLA CT, ADELANTO, CA, 92301",144739026,"L"
31386,"11744 172ND CT NE","REDMOND","WA",98052,47.705280169,-122.10976253,386,"11744 172ND CT NE, REDMOND, WA, 98052","Match","Exact","11744 172 CT NE, REDMOND, WA, 98052",627330271,"L"
31387,"11744 COUNTY ROAD 10","UNION SPRINGS","AL",36089,32.298142839,-85.530995578,387,"11744 COUNTY ROAD 10, UNION SPRINGS, AL, 36089","Match","Exact","11744 CO RD 10, UNION SPRINGS, AL, 36089",640060354,"L"
31388,"11744 FLAMINGO DRIVE","BATON ROUGE","LA",70814,30.490553219,-91.054374831,388,"11744 FLAMINGO DRIVE, BATON ROUGE, LA, 70814","Match","Exact","11744 FLAMINGO DR, BATON ROUGE, LA, 70814",92190550,"R"
31389,"11744 PETIT PIERRE AVENUE","BATON ROUGE","LA",70810,30.3785445080001,-91.081511413,389,"11744 PETIT PIERRE AVENUE, BATON ROUGE, LA, 70810","Match","Exact","11744 PETIT PIERRE AVE, BATON ROUGE, LA, 70810",646560855,"L"
31390,"11744 SE SUNNY WAY","HAPPY VALLEY","OR",97086,45.437788465,-122.540226854,390,"11744 SE SUNNY WAY, HAPPY VALLEY, OR, 97086","Match","Exact","11744 SE SUNNY WAY, HAPPY VALLEY, OR, 97086",157993391,"R"
31391,"11745 CASA LINDA CT","DUBLIN","CA",94568,37.708764006,-121.942551881,391,"11745 CASA LINDA CT, DUBLIN, CA, 94568","Match","Exact","11745 CASA LINDA CT, DUBLIN, CA, 94568",125016524,"R"
31392,"11745 DURLAND AVE NE","SEATTLE","WA",98125,47.7139865710001,-122.28113647,392,"11745 DURLAND AVE NE, SEATTLE, WA, 98125","Match","Exact","11745 DURLAND AVE NE, SEATTLE, WA, 98125",647814425,"L"
31393,"11745 RANCHO DR","LEESBURG","FL",34788,28.8459777510001,-81.7622538799999,393,"11745 RANCHO DR, LEESBURG, FL, 34788","Match","Exact","11745 RANCHO DR, LEESBURG, FL, 34788",94098862,"R"
31394,"11745 SAN ROSARITA COURT","LAS VEGAS","NV",89138,36.1681712860001,-115.353053475,394,"11745 SAN ROSARITA COURT, LAS VEGAS, NV, 89138","Match","Exact","11745 SAN ROSARITA CT, LAS VEGAS, NV, 89138",612989089,"L"
31395,"11745 SE 321ST PL","AUBURN","WA",98092,47.314044263,-122.185565513,395,"11745 SE 321ST PL, AUBURN, WA, 98092","Match","Exact","11745 SE 321ST PL, AUBURN, WA, 98092",186935059,"R"
31396,"11745 SW 26 CT","MIRAMAR","FL",33025,25.984121841,-80.301955441,396,"11745 SW 26 CT, MIRAMAR, FL, 33025","Match","Exact","11745 SW 26TH CT, MIRAMAR, FL, 33025",637526944,"R"
31397,"11745 WESTPORT CROSSING DRIVE","ST LOUIS","MO",63146,38.6924544300001,-90.432506512,397,"11745 WESTPORT CROSSING DRIVE, ST LOUIS, MO, 63146","Match","Exact","11745 WESTPORT CROSSING DR, SAINT LOUIS, MO, 63146",629169181,"R"
31398,"11746 CHERRY POINT","JEROME","MI",49249,42.068887874,-84.4272701049999,398,"11746 CHERRY POINT, JEROME, MI, 49249","Match","Exact","11746 CHERRY PT, JEROME, MI, 49249",8288739,"R"
31399,"11746 GREEN CORAL DR","HOUSTON","TX",77044,29.890839871,-95.217998639,399,"11746 GREEN CORAL DR, HOUSTON, TX, 77044","Match","Exact","11746 GREEN CORAL DR, HOUSTON, TX, 77044",641930650,"R"
31400,"11746 S HARRELLS FERRY RD C","BATON ROUGE","LA",70816,NA,NA,400,"11746 S HARRELLS FERRY RD C, BATON ROUGE, LA, 70816","Tie",NA,NA,NA,NA
31401,"11746 S LAKE STONE CIRCLE","SOUTH JORDAN","UT",84009,NA,NA,401,"11746 S LAKE STONE CIRCLE, SOUTH JORDAN, UT, 84009","Tie",NA,NA,NA,NA
31402,"11747 173RD PL NE","REDMOND","WA",98052,47.7053640840001,-122.108497117,402,"11747 173RD PL NE, REDMOND, WA, 98052","Match","Exact","11747 173RD PL NE, REDMOND, WA, 98052",627330310,"L"
31403,"11747 KY HIGHWAY 698","HUSTONVILLE","KY",40437,37.401460302,-84.7843331619999,403,"11747 KY HIGHWAY 698, HUSTONVILLE, KY, 40437","Match","Non_Exact","11747 STATE HWY 698, HUSTONVILLE, KY, 40437",636244321,"R"
31404,"11747 SE FLORIDA AVE","HOBE SOUND","FL",33455,27.06109279,-80.141044498,404,"11747 SE FLORIDA AVE, HOBE SOUND, FL, 33455","Match","Exact","11747 SE FLORIDA AVE, HOBE SOUND, FL, 33455",633985697,"R"
31405,"11747 SOUTH VERMONT BLVD UNIT 1","LOS ANGELES","CA",90044,33.9269058950001,-118.291977355,405,"11747 SOUTH VERMONT BLVD UNIT 1, LOS ANGELES, CA, 90044","Match","Non_Exact","11747 S VERMONT AVE, LOS ANGELES, CA, 90044",642865201,"R"
31406,"11748 S 252ND EAST AVE","BROKEN ARROW","OK",74014,35.993143758,-95.696038148,406,"11748 S 252ND EAST AVE, BROKEN ARROW, OK, 74014","Match","Exact","11748 S 252ND E AVE, BROKEN ARROW, OK, 74014",83162622,"L"
31407,"11748 VILLAGE POND WAY","RANCHO CORDOVA","CA",95742,NA,NA,407,"11748 VILLAGE POND WAY, RANCHO CORDOVA, CA, 95742","No_Match",NA,NA,NA,NA
31408,"11749 DURRAND","COLLEGE STATION","TX",77845,30.567234742,-96.337230726,408,"11749 DURRAND, COLLEGE STATION, TX, 77845","Match","Non_Exact","11749 DURRAND ST, COLLEGE STATION, TX, 77845",21834891,"L"
31409,"11749 WATERCREST LANE","BOCA RATON","FL",33498,26.38904698,-80.231953953,409,"11749 WATERCREST LANE, BOCA RATON, FL, 33498","Match","Exact","11749 WATERCREST LN, BOCA RATON, FL, 33498",115504116,"R"
31410,"11749 WEST LOAMI ROAD","LOAMI","IL",62661,39.675187249,-89.885358647,410,"11749 WEST LOAMI ROAD, LOAMI, IL, 62661","Match","Exact","11749 W LOAMI RD, LOAMI, IL, 62661",97315781,"L"
31411,"1175 85TH AVE NW","MOORHEAD","MN",56560,46.970257621,-96.8026117109999,411,"1175 85TH AVE NW, MOORHEAD, MN, 56560","Match","Exact","1175 85TH AVE NW, MOORHEAD, MN, 56560",168028743,"L"
31412,"1175 ALEXANDER WAY APT 103","NORTH LIBERTY","IA",52317,41.758017485,-91.627749203,412,"1175 ALEXANDER WAY APT 103, NORTH LIBERTY, IA, 52317","Match","Exact","1175 ALEXANDER WAY, NORTH LIBERTY, IA, 52317",618427266,"R"
31413,"1175 ALLISON RD","BELLEFONTAINE","OH",43311,40.3758900620001,-83.749919597,413,"1175 ALLISON RD, BELLEFONTAINE, OH, 43311","Match","Exact","1175 ALLISON RD, BELLEFONTAINE, OH, 43311",640314546,"L"
31414,"1175 AMBLE DR","ARDEN HILLS","MN",55112,45.076885496,-93.151657695,414,"1175 AMBLE DR, ARDEN HILLS, MN, 55112","Match","Exact","1175 AMBLE DR, ARDEN HILLS, MN, 55112",97635139,"R"
31415,"1175 BANDY RUN ROAD","HERNDON","VA",20170,39.0006189540001,-77.366950818,415,"1175 BANDY RUN ROAD, HERNDON, VA, 20170","Match","Exact","1175 BANDY RUN RD, HERNDON, VA, 20170",215924839,"L"
31416,"1175 BECHTEL AVE","MANSFIELD","OH",44905,40.756467528,-82.473409139,416,"1175 BECHTEL AVE, MANSFIELD, OH, 44905","Match","Exact","1175 BECHTEL AVE, MANSFIELD, OH, 44905",12834474,"L"
31417,"1175 BRANHAM LN UNIT 18655","SAN JOSE","CA",95158,37.2625103720001,-121.878841614,417,"1175 BRANHAM LN UNIT 18655, SAN JOSE, CA, 95158","Match","Non_Exact","1175 BRANHAM LN, SAN JOSE, CA, 95118",122922107,"L"
31418,"1175 BROOKS PARK DR","OKOBOJI","IA",51355,43.389356439,-95.129860047,418,"1175 BROOKS PARK DR, OKOBOJI, IA, 51355","Match","Exact","1175 BROOKS PARK DR, OKOBOJI, IA, 51355",627105591,"L"
31419,"1175 BUFORD HIGHWAY SUITE 112","SUWANNE","GA",30024,NA,NA,419,"1175 BUFORD HIGHWAY SUITE 112, SUWANNE, GA, 30024","No_Match",NA,NA,NA,NA
31420,"1175 CANE BAY BLVD","SUMMERVILLE","SC",29486,NA,NA,420,"1175 CANE BAY BLVD, SUMMERVILLE, SC, 29486","No_Match",NA,NA,NA,NA
31421,"1175 CARBONE DR","COLUMBUS","OH",43224,40.052140196,-82.9863496569999,421,"1175 CARBONE DR, COLUMBUS, OH, 43224","Match","Exact","1175 CARBONE DR, COLUMBUS, OH, 43224",135571207,"R"
31422,"1175 CHADBYRNE DRIVE","COLUMBUS","OH",43235,40.116395862,-83.047981775,422,"1175 CHADBYRNE DRIVE, COLUMBUS, OH, 43235","Match","Exact","1175 CHADBYRNE DR, COLUMBUS, OH, 43235",624574751,"R"
31423,"1175 CONCORD TURNPIKE","ARLINGTON","MA",2474,NA,NA,423,"1175 CONCORD TURNPIKE, ARLINGTON, MA, 2474","No_Match",NA,NA,NA,NA
31424,"1175 COUNTY LINE RD WEST","EASTABOGA","AL",36260,33.5858084180001,-85.9481265809999,424,"1175 COUNTY LINE RD WEST, EASTABOGA, AL, 36260","Match","Exact","1175 COUNTY LINE RD W, EASTABOGA, AL, 36260",646241545,"L"
31425,"1175 CRIMSON CLOVER DRIVE","CONWAY","AR",72034,35.0952026580001,-92.483168567,425,"1175 CRIMSON CLOVER DRIVE, CONWAY, AR, 72034","Match","Exact","1175 CRIMSON CLOVER DR, CONWAY, AR, 72034",141070163,"R"
31426,"1175 DICKINSON ST","ELIZABETH","NJ",7201,40.663025514,-74.214117062,426,"1175 DICKINSON ST, ELIZABETH, NJ, 7201","Match","Exact","1175 DICKINSON ST, ELIZABETH, NJ, 07201",60585579,"R"
31427,"1175 E CACTUS ROAD","PALM SPRINGS","CA",92264,33.807806204,-116.534839995,427,"1175 E CACTUS ROAD, PALM SPRINGS, CA, 92264","Match","Exact","1175 E CACTUS RD, PALM SPRINGS, CA, 92264",194762135,"R"
31428,"1175 E OCEAN AVE 209","LONG BEACH","CA",90802,NA,NA,428,"1175 E OCEAN AVE 209, LONG BEACH, CA, 90802","No_Match",NA,NA,NA,NA
31429,"1175 EAST INDIAN VALLEY DR","OZARK","MO",65721,37.056689857,-93.193882096,429,"1175 EAST INDIAN VALLEY DR, OZARK, MO, 65721","Match","Exact","1175 E INDIAN VALLEY DR, OZARK, MO, 65721",636235663,"L"
31430,"1175 ELLINGTON ROAD","SOUTH WINDSOR","CT",6074,41.8252868820001,-72.582121362,430,"1175 ELLINGTON ROAD, SOUTH WINDSOR, CT, 6074","Match","Exact","1175 ELLINGTON RD, SOUTH WINDSOR, CT, 06074",611392685,"R"
31431,"1175 ELM TERRACE","RAHWAY","NJ",7065,40.61060717,-74.2998874309999,431,"1175 ELM TERRACE, RAHWAY, NJ, 7065","Match","Exact","1175 ELM TER, RAHWAY, NJ, 07065",60561978,"R"
31432,"1175 FINDLAY AVENUE -- 13V","BRONX","NY",10456,40.832157029,-73.9127171649999,432,"1175 FINDLAY AVENUE -- 13V, BRONX, NY, 10456","Match","Exact","1175 FINDLAY AVE, BRONX, NY, 10456",80299965,"L"
31433,"1175 GARNER AVENUE","SCHENECTADY","NY",12309,42.8096642030001,-73.905334495,433,"1175 GARNER AVENUE, SCHENECTADY, NY, 12309","Match","Exact","1175 GARNER AVE, SCHENECTADY, NY, 12309",18029611,"L"
31434,"1175 GREEN STREET","CONYERS","GA",30012,33.6588206480001,-84.012138696,434,"1175 GREEN STREET, CONYERS, GA, 30012","Match","Non_Exact","1175 GREEN ST SE, CONYERS, GA, 30012",23741057,"R"
31435,"1175 HIDDEN HARBOR LN","KISSIMMEE","FL",34746,28.235529909,-81.415529689,435,"1175 HIDDEN HARBOR LN, KISSIMMEE, FL, 34746","Match","Exact","1175 HIDDEN HARBOR LN, KISSIMMEE, FL, 34746",176670971,"R"
31436,"1175 KARLA DR","PARIS","KY",40361,38.167495606,-84.260758884,436,"1175 KARLA DR, PARIS, KY, 40361","Match","Exact","1175 KARLA DR, PARIS, KY, 40361",31880921,"L"
31437,"1175 KELLUM LOOP RD","JACKSONVILLE","NC",28546,34.8102379590001,-77.355674071,437,"1175 KELLUM LOOP RD, JACKSONVILLE, NC, 28546","Match","Exact","1175 KELLUM LOOP RD, JACKSONVILLE, NC, 28546",637106322,"L"
31438,"1175 KINWEST PARKWAY SUITE 100","IRVING","TX",75063,32.9096734020001,-96.963476187,438,"1175 KINWEST PARKWAY SUITE 100, IRVING, TX, 75063","Match","Exact","1175 KINWEST PKWY, IRVING, TX, 75063",653841394,"L"
31439,"1175 LIVINGSTON AVENUE","NEW BRUNSWICK","NJ",8902,40.4653559700001,-74.47483909,439,"1175 LIVINGSTON AVENUE, NEW BRUNSWICK, NJ, 8902","Match","Exact","1175 LIVINGSTON AVE, NEW BRUNSWICK, NJ, 08902",60263456,"R"
31440,"1175 MAYFAIR LN","GLENCOE","IL",60022,42.141929545,-87.7766394079999,440,"1175 MAYFAIR LN, GLENCOE, IL, 60022","Match","Exact","1175 MAYFAIR LN, GLENCOE, IL, 60022",111840062,"R"
31441,"1175 MENDENHALL PENINSULA RD","JUNEAU","AK",99801,58.3501513510001,-134.625535957,441,"1175 MENDENHALL PENINSULA RD, JUNEAU, AK, 99801","Match","Exact","1175 MENDENHALL PENINSULA RD, JUNEAU, AK, 99801",190970533,"L"
31442,"1175 N HILL AVE","PASADENA","CA",91104,34.1662066430001,-118.121515739,442,"1175 N HILL AVE, PASADENA, CA, 91104","Match","Exact","1175 N HILL AVE, PASADENA, CA, 91104",141628945,"L"
31443,"1175 N ROCK ISLAND RD","MARGATE","FL",33063,26.2441252990001,-80.2214001519999,443,"1175 N ROCK ISLAND RD, MARGATE, FL, 33063","Match","Exact","1175 ROCK ISLAND RD, MARGATE, FL, 33063",114692128,"L"
31444,"1175 NE 125TH ST STE 214","NORTH MIAMI","FL",33161,25.8907627950001,-80.1745841919999,444,"1175 NE 125TH ST STE 214, NORTH MIAMI, FL, 33161","Match","Non_Exact","1175 NE 125TH ST, NORTH MIAMI, FL, 33161",116037318,"L"
31445,"1175 NORTH KESTREL LANE NUMBER 206","LOUISVILLE","CO",80027,39.9900567340001,-105.129594158,445,"1175 NORTH KESTREL LANE NUMBER 206, LOUISVILLE, CO, 80027","Match","Non_Exact","1175 KESTREL LN, LOUISVILLE, CO, 80027",650713872,"R"
31446,"1175 NW 67 STREET","MIAMI","FL",33150,25.8357393210001,-80.216349754,446,"1175 NW 67 STREET, MIAMI, FL, 33150","Match","Non_Exact","1175 NW 67TH ST, MIAMI, FL, 33166",116288592,"R"
31447,"1175 OLD HARRIS ROAD APT 815","DALLAS","GA",30157,33.90217347,-84.81113916,447,"1175 OLD HARRIS ROAD APT 815, DALLAS, GA, 30157","Match","Non_Exact","1175 OLD HARRIS RD, DALLAS, GA, 30157",207993759,"R"
31448,"1175 OLD LAFAYETTE ROAD","HARTSVILLE","TN",37074,36.3992859210001,-86.1293591529999,448,"1175 OLD LAFAYETTE ROAD, HARTSVILLE, TN, 37074","Match","Exact","1175 OLD LAFAYETTE RD, HARTSVILLE, TN, 37074",44624341,"L"
31449,"1175 OSAGE ST  SUITE 100","DENVER","CO",80204,39.7347931090001,-105.005276041,449,"1175 OSAGE ST  SUITE 100, DENVER, CO, 80204","Match","Exact","1175 OSAGE ST, DENVER, CO, 80204",606003918,"L"
31450,"1175 PARKER ROAD BLD C SUITE 210","CONYERS","GA",30094,NA,NA,450,"1175 PARKER ROAD BLD C SUITE 210, CONYERS, GA, 30094","No_Match",NA,NA,NA,NA
31451,"1175 PICKFORD ROAD","SAN DIEGO","CA",92131,NA,NA,451,"1175 PICKFORD ROAD, SAN DIEGO, CA, 92131","No_Match",NA,NA,NA,NA
31452,"1175 POND ROAD","VERNON","VT",5354,42.7355279450001,-72.5008181219999,452,"1175 POND ROAD, VERNON, VT, 5354","Match","Exact","1175 POND RD, VERNON, VT, 05354",171100144,"R"
31453,"1175 REVOLUTION MILL DRIVE STE 7A","GREENSBORO","NC",27405,NA,NA,453,"1175 REVOLUTION MILL DRIVE STE 7A, GREENSBORO, NC, 27405","No_Match",NA,NA,NA,NA
31454,"1175 ROSEDALE STREET","TOCCOA","GA",30577,34.584547005,-83.3175244349999,454,"1175 ROSEDALE STREET, TOCCOA, GA, 30577","Match","Exact","1175 ROSEDALE ST, TOCCOA, GA, 30577",97843085,"R"
31455,"1175 SHORES BLVD","ROCKWALL","TX",75087,32.945625955,-96.475041469,455,"1175 SHORES BLVD, ROCKWALL, TX, 75087","Match","Exact","1175 SHORES BLVD, ROCKWALL, TX, 75087",123785825,"L"
31456,"1175 WESTWOOD DRIVE","VAN WERT","OH",45891,40.853406686,-84.59476534,456,"1175 WESTWOOD DRIVE, VAN WERT, OH, 45891","Match","Exact","1175 WESTWOOD DR, VAN WERT, OH, 45891",647373434,"L"
31457,"1175 WILBERFORCE-CLIFTON RD","XENIA","OH",45385,NA,NA,457,"1175 WILBERFORCE-CLIFTON RD, XENIA, OH, 45385","No_Match",NA,NA,NA,NA
31458,"1175 WILDWOOD ROAD","MIFFLINBURG","PA",17844,40.865427405,-77.026683992,458,"1175 WILDWOOD ROAD, MIFFLINBURG, PA, 17844","Match","Exact","1175 WILDWOOD RD, MIFFLINBURG, PA, 17844",48188275,"R"
31459,"1175 WINROSE STREET","JACKSON","MS",39211,32.390868272,-90.138014321,459,"1175 WINROSE STREET, JACKSON, MS, 39211","Match","Non_Exact","1175 WINNROSE ST, JACKSON, MS, 39211",65360605,"R"
31460,"1175 WINSTON ST","ST PAUL","MN",55108,NA,NA,460,"1175 WINSTON ST, ST PAUL, MN, 55108","No_Match",NA,NA,NA,NA
31461,"1175 WYKE ROAD","SHELBY","NC",28150,35.3043836000001,-81.514809611,461,"1175 WYKE ROAD, SHELBY, NC, 28150","Match","Exact","1175 WYKE RD, SHELBY, NC, 28150",19319122,"R"
31462,"1175 YORK AVE  APT 3K  ATTN WORMSER","NEW YORK","NY",10065,40.7613013000001,-73.95780314,462,"1175 YORK AVE  APT 3K  ATTN WORMSER, NEW YORK, NY, 10065","Match","Exact","1175 YORK AVE, NEW YORK, NY, 10065",59658459,"L"
31463,"1175 YORK AVE 15E","NEW YORK","NY",10065,40.7613013000001,-73.95780314,463,"1175 YORK AVE 15E, NEW YORK, NY, 10065","Match","Exact","1175 YORK AVE, NEW YORK, NY, 10065",59658459,"L"
31464,"1175 YORK AVE SUITE 6K","NEW YORK","NY",10065,40.7613013000001,-73.95780314,464,"1175 YORK AVE SUITE 6K, NEW YORK, NY, 10065","Match","Exact","1175 YORK AVE, NEW YORK, NY, 10065",59658459,"L"
31465,"11750 RYAN JACOBSEN DR APT 302","CHARLOTTE","NC",28262,35.3346231350001,-80.709618684,465,"11750 RYAN JACOBSEN DR APT 302, CHARLOTTE, NC, 28262","Match","Exact","11750 RYAN JACOBSEN DR, CHARLOTTE, NC, 28262",649298250,"L"
31466,"11750 S COUNTY RD K","MERRILL","WI",54452,NA,NA,466,"11750 S COUNTY RD K, MERRILL, WI, 54452","No_Match",NA,NA,NA,NA
31467,"11750 SOLAR CIRCLE 10108","PARKER","CO",80134,NA,NA,467,"11750 SOLAR CIRCLE 10108, PARKER, CO, 80134","No_Match",NA,NA,NA,NA
31468,"11751 HANOVER RD","SILVER CREEK","NY",14136,42.515244581,-79.1217511839999,468,"11751 HANOVER RD, SILVER CREEK, NY, 14136","Match","Exact","11751 HANOVER RD, SILVER CREEK, NY, 14136",120776099,"L"
31469,"11751 MONROVIA ST","OVERLAND PARK","KS",66210,38.9151610930001,-94.725631517,469,"11751 MONROVIA ST, OVERLAND PARK, KS, 66210","Match","Exact","11751 MONROVIA ST, OVERLAND PARK, KS, 66210",91272076,"L"
31470,"11751 NOTTINGHAM RD","DETROIT","MI",48224,42.427860213,-82.941713125,470,"11751 NOTTINGHAM RD, DETROIT, MI, 48224","Match","Exact","11751 NOTTINGHAM RD, DETROIT, MI, 48224",95486579,"L"
31471,"11751 S SUNNYBROOK BLVD","OLATHE","KS",66061,38.915681362,-94.840015928,471,"11751 S SUNNYBROOK BLVD, OLATHE, KS, 66061","Match","Exact","11751 S SUNNYBROOK BLVD, OLATHE, KS, 66061",619907883,"R"
31472,"11752 176TH AVENUE NORTHEAST","REDMOND","WA",98052,47.7055847080001,-122.105257101,472,"11752 176TH AVENUE NORTHEAST, REDMOND, WA, 98052","Match","Exact","11752 176TH AVE NE, REDMOND, WA, 98052",627330324,"L"
31473,"11752 GARDEN GROVE BLVD STE 201","GARDEN GROVE","CA",92843,33.7743108280001,-117.927699036,473,"11752 GARDEN GROVE BLVD STE 201, GARDEN GROVE, CA, 92843","Match","Exact","11752 GARDEN GROVE BLVD, GARDEN GROVE, CA, 92843",144036453,"R"
31474,"11752 GARDEN GROVE BLVD STE 202","GARDEN GROVE","CA",92843,33.7743108280001,-117.927699036,474,"11752 GARDEN GROVE BLVD STE 202, GARDEN GROVE, CA, 92843","Match","Exact","11752 GARDEN GROVE BLVD, GARDEN GROVE, CA, 92843",144036453,"R"
31475,"11752 HIGHGROVE COURT","ADELANTO","CA",92301,34.5387372060001,-117.406802948,475,"11752 HIGHGROVE COURT, ADELANTO, CA, 92301","Match","Exact","11752 HIGHGROVE CT, ADELANTO, CA, 92301",614826949,"L"
31476,"11752 JONES ST","AUBURN","CA",95603,38.9359151640001,-121.096560929,476,"11752 JONES ST, AUBURN, CA, 95603","Match","Exact","11752 JONES ST, AUBURN, CA, 95603",106766951,"R"
31477,"11752 N WOODLEAF LN","HIGHLAND","UT",84003,40.4450872300001,-111.819376987,477,"11752 N WOODLEAF LN, HIGHLAND, UT, 84003","Match","Exact","11752 N WOODLEAF LN, HIGHLAND, UT, 84003",645692379,"R"
31478,"11753 PERRY ST","WESTMINSTER","CO",80031,39.909459263,-105.040239632,478,"11753 PERRY ST, WESTMINSTER, CO, 80031","Match","Exact","11753 PERRY ST, WESTMINSTER, CO, 80031",177456769,"R"
31479,"11753 WEWST ATLANTIC BLVD APT 502","CORAL SPRINGS","FL",33071,NA,NA,479,"11753 WEWST ATLANTIC BLVD APT 502, CORAL SPRINGS, FL, 33071","No_Match",NA,NA,NA,NA
31480,"11754 140TH AVE","FORESTON","MN",56330,45.717698468,-93.6988679579999,480,"11754 140TH AVE, FORESTON, MN, 56330","Match","Exact","11754 140TH AVE, FORESTON, MN, 56330",163071217,"R"
31481,"11754 CHAPEL ESTATES DRIVE","CLARKSVILLE","MD",21029,39.234697678,-76.923146603,481,"11754 CHAPEL ESTATES DRIVE, CLARKSVILLE, MD, 21029","Match","Exact","11754 CHAPEL ESTATES DR, CLARKSVILLE, MD, 21029",645524815,"L"
31482,"11755 BRENFORD CREST DR","RIVERVIEW","FL",33579,27.803351994,-82.295854789,482,"11755 BRENFORD CREST DR, RIVERVIEW, FL, 33579","Match","Exact","11755 BRENFORD CREST DR, RIVERVIEW, FL, 33579",104702447,"R"
31483,"11755 MAGALA DRIVE UNIT 1264","RANCHO CUCAMONGA","CA",91730,NA,NA,483,"11755 MAGALA DRIVE UNIT 1264, RANCHO CUCAMONGA, CA, 91730","No_Match",NA,NA,NA,NA
31484,"11755 MALAGA DRIVE UNIT 1239","RANCHO CUCAMONGA","CA",91730,34.110921574,-117.549493004,484,"11755 MALAGA DRIVE UNIT 1239, RANCHO CUCAMONGA, CA, 91730","Match","Exact","11755 MALAGA DR, RANCHO CUCAMONGA, CA, 91730",614816018,"R"
31485,"11755 NORTH RANCH DRIVE","SAINT LOUIS","MO",63033,38.7935402680001,-90.2371789109999,485,"11755 NORTH RANCH DRIVE, SAINT LOUIS, MO, 63033","Match","Non_Exact","11755 N RANCH DR, FLORISSANT, MO, 63033",100148526,"L"
31486,"11756 KITTREDGE ST","COMMERCE CITY","CO",80022,39.9104224550001,-104.800946468,486,"11756 KITTREDGE ST, COMMERCE CITY, CO, 80022","Match","Exact","11756 KITTREDGE ST, COMMERCE CITY, CO, 80022",649040696,"R"
31487,"11756 N US HWY 83","LEAKEY","TX",78873,29.852400807,-99.6808049379999,487,"11756 N US HWY 83, LEAKEY, TX, 78873","Match","Exact","11756 N US HWY 83, LEAKEY, TX, 78873",183413964,"R"
31488,"11757 KATY FWY NO 1300","HOUSTON","TX",77079,29.784163344,-95.592998455,488,"11757 KATY FWY NO 1300, HOUSTON, TX, 77079","Match","Non_Exact","11757 KATY FWY, HOUSTON, TX, 77079",96629886,"L"
31489,"11757 OXFORDSHIRE PL","ORLANDO","FL",32824,28.3949391190001,-81.386054196,489,"11757 OXFORDSHIRE PL, ORLANDO, FL, 32824","Match","Exact","11757 OXFORDSHIRE PL, ORLANDO, FL, 32824",94339995,"L"
31490,"11757 W NORTH AVE","WAUWATOSA","WI",53226,43.060006135,-88.059626597,490,"11757 W NORTH AVE, WAUWATOSA, WI, 53226","Match","Exact","11757 W NORTH AVE, WAUWATOSA, WI, 53226",77727429,"L"
31491,"11757 WEST KEN CARYL AVE SUITE F429","LITTLETON","CO",80127,39.5807322580001,-105.130908696,491,"11757 WEST KEN CARYL AVE SUITE F429, LITTLETON, CO, 80127","Match","Exact","11757 W KEN CARYL AVE, LITTLETON, CO, 80127",177322695,"L"
31492,"11758 WOODVIEW TRAIL","GAYLORD","MI",49735,44.8587861520001,-84.772991917,492,"11758 WOODVIEW TRAIL, GAYLORD, MI, 49735","Match","Exact","11758 WOODVIEW TRL, GAYLORD, MI, 49735",625354051,"R"
31493,"11759 RIVER HILLS PARKWAY","ROCKTON","IL",61072,42.430660994,-89.0562033849999,493,"11759 RIVER HILLS PARKWAY, ROCKTON, IL, 61072","Match","Exact","11759 RIVER HILLS PKWY, ROCKTON, IL, 61072",49296430,"L"
31494,"1176 BRIGHTON PL","GLEN ELLYN","IL",60137,41.861249688,-88.0348053659999,494,"1176 BRIGHTON PL, GLEN ELLYN, IL, 60137","Match","Exact","1176 BRIGHTON PL, GLEN ELLYN, IL, 60137",112532387,"R"
31495,"1176 BUCKNELL DR","MONROEVILLE","PA",15146,40.4213569070001,-79.752013727,495,"1176 BUCKNELL DR, MONROEVILLE, PA, 15146","Match","Exact","1176 BUCKNELL DR, MONROEVILLE, PA, 15146",51937076,"L"
31496,"1176 CHETFORD DR","LEXINGTON","KY",40509,38.008739749,-84.4087905979999,496,"1176 CHETFORD DR, LEXINGTON, KY, 40509","Match","Exact","1176 CHETFORD DR, LEXINGTON, KY, 40509",31940137,"R"
31497,"1176 CHURCH ST","CORTLAND","NY",13045,42.5088321470001,-76.199024423,497,"1176 CHURCH ST, CORTLAND, NY, 13045","Match","Exact","1176 CHURCH ST, CORTLAND, NY, 13045",45805568,"R"
31498,"1176 DONNYBROOK RD","CATAWBA","SC",29704,34.8541241120001,-80.948591888,498,"1176 DONNYBROOK RD, CATAWBA, SC, 29704","Match","Exact","1176 DONNYBROOK RD, CATAWBA, SC, 29704",19819728,"R"
31499,"1176 EAST 10TH STREET","BROOKLYN","NY",11230,40.620517126,-73.9653916779999,499,"1176 EAST 10TH STREET, BROOKLYN, NY, 11230","Match","Exact","1176 E 10TH ST, BROOKLYN, NY, 11230",59089609,"R"
31500,"1176 FARMINGTON AVENUE","BERLIN","CT",6037,41.6284023010001,-72.75621534,500,"1176 FARMINGTON AVENUE, BERLIN, CT, 6037","Match","Exact","1176 FARMINGTON AVE, BERLIN, CT, 06037",639783838,"R"
