"ID","Address","City","State","Zip","lat","long","id","input_address","match_indicator","match_type","matched_address","tiger_line_id","tiger_side"
254501,"6000 BROWNSBORO ROAD","LOUISVILLE","KY",40222,38.285203745,-85.6256350789999,1,"6000 BROWNSBORO ROAD, LOUISVILLE, KY, 40222","Match","Exact","6000 BROWNSBORO RD, LOUISVILLE, KY, 40222",618972312,"R"
254502,"6000 CANTERBURY DRIVE STE I-119","CULVER CITY","CA",90230,33.984550326,-118.382082455,2,"6000 CANTERBURY DRIVE STE I-119, CULVER CITY, CA, 90230","Match","Exact","6000 CANTERBURY DR, CULVER CITY, CA, 90230",141579124,"L"
254503,"6000 CLAIBORNE DR","MC LEAN","VA",22101,38.935540797,-77.140113394,3,"6000 CLAIBORNE DR, MC LEAN, VA, 22101","Match","Exact","6000 CLAIBORNE DR, MC LEAN, VA, 22101",75964219,"R"
254504,"6000 COATBRIDGE LANE","CHARLOTTE","NC",28212,35.17507613,-80.765115919,4,"6000 COATBRIDGE LANE, CHARLOTTE, NC, 28212","Match","Exact","6000 COATBRIDGE LN, CHARLOTTE, NC, 28212",70492434,"R"
254505,"6000 COLLEGE PARKWAY","PENSACOLA","FL",32503,30.4864399370001,-87.2146126169999,5,"6000 COLLEGE PARKWAY, PENSACOLA, FL, 32503","Match","Non_Exact","6000 COLLEGE PKWY, PENSACOLA, FL, 32504",93218617,"R"
254506,"6000 COLLEGE PARKWAY","PENSACOLA","FL",32504,30.4864399370001,-87.2146126169999,6,"6000 COLLEGE PARKWAY, PENSACOLA, FL, 32504","Match","Exact","6000 COLLEGE PKWY, PENSACOLA, FL, 32504",93218617,"R"
254507,"6000 COOMBS FARM DR STE 202A","MORGANTOWN","WV",26508,NA,NA,7,"6000 COOMBS FARM DR STE 202A, MORGANTOWN, WV, 26508","No_Match",NA,NA,NA,NA
254508,"6000 COUNTY ROAD 120","SAINT CLOUD","MN",56303,NA,NA,8,"6000 COUNTY ROAD 120, SAINT CLOUD, MN, 56303","No_Match",NA,NA,NA,NA
254509,"6000 COUNTY ROAD 15","MAPLESVILLE","AL",36750,32.7651512740001,-86.792661269,9,"6000 COUNTY ROAD 15, MAPLESVILLE, AL, 36750","Match","Exact","6000 CO RD 15, MAPLESVILLE, AL, 36750",1232858,"R"
254510,"6000 E DE AVE","KALAMAZOO","MI",49004,42.369072777,-85.514606753,10,"6000 E DE AVE, KALAMAZOO, MI, 49004","Match","Exact","6000 E DE AVE, KALAMAZOO, MI, 49004",635478589,"R"
254511,"6000 E LONG LOOK DR","PRESCOTT VALLEY","AZ",86314,NA,NA,11,"6000 E LONG LOOK DR, PRESCOTT VALLEY, AZ, 86314","No_Match",NA,NA,NA,NA
254512,"6000 E LONG LOOK DRIVE","PRESCOTT VALLEY","AZ",86314,NA,NA,12,"6000 E LONG LOOK DRIVE, PRESCOTT VALLEY, AZ, 86314","No_Match",NA,NA,NA,NA
254513,"6000 ELDORADO PKWY 434","FRISCO","TX",75033,33.17526172,-96.8353625509999,13,"6000 ELDORADO PKWY 434, FRISCO, TX, 75033","Match","Exact","6000 ELDORADO PKWY, FRISCO, TX, 75033",638534516,"L"
254514,"6000 ERDMAN AVE","BALTIMORE","MD",21205,39.300815992,-76.5454923199999,14,"6000 ERDMAN AVE, BALTIMORE, MD, 21205","Match","Exact","6000 ERDMAN AVE, BALTIMORE, MD, 21205",206459311,"R"
254515,"6000 ERDMAN AVENUE","BALTIMORE","MD",21205,39.300815992,-76.5454923199999,15,"6000 ERDMAN AVENUE, BALTIMORE, MD, 21205","Match","Exact","6000 ERDMAN AVE, BALTIMORE, MD, 21205",206459311,"R"
254516,"6000 EXECUTIVE BLVD","NORTH BETHESDA","MD",20852,39.048794861,-77.1204913449999,16,"6000 EXECUTIVE BLVD, NORTH BETHESDA, MD, 20852","Match","Exact","6000 EXECUTIVE BLVD, NORTH BETHESDA, MD, 20852",637818434,"L"
254517,"6000 GARLANDS LANE  SUITE 120","BARRINGTON","IL",60010,42.157623873,-88.1238890939999,17,"6000 GARLANDS LANE  SUITE 120, BARRINGTON, IL, 60010","Match","Exact","6000 GARLANDS LN, BARRINGTON, IL, 60010",119759977,"R"
254518,"6000 GREENBELT ROAD SUITE 13","GREENBELT","MD",20770,38.998001564,-76.911847831,18,"6000 GREENBELT ROAD SUITE 13, GREENBELT, MD, 20770","Match","Exact","6000 GREENBELT RD, GREENBELT, MD, 20770",76411110,"R"
254519,"6000 GREENWOOD PLAZA BLVD STE 105","GREENWOOD VILLAGE","CO",80111,39.6077141820001,-104.898372921,19,"6000 GREENWOOD PLAZA BLVD STE 105, GREENWOOD VILLAGE, CO, 80111","Match","Exact","6000 GREENWOOD PLAZA BLVD, GREENWOOD VILLAGE, CO, 80111",177516667,"L"
254520,"6000 HIGHWAY 55 EAST","CLOVER","SC",29710,NA,NA,20,"6000 HIGHWAY 55 EAST, CLOVER, SC, 29710","No_Match",NA,NA,NA,NA
254521,"6000 HITCHING POST LANE","LINCOLN","NE",68523,40.7525780300001,-96.760546714,21,"6000 HITCHING POST LANE, LINCOLN, NE, 68523","Match","Exact","6000 HITCHING POST LN, LINCOLN, NE, 68523",28284580,"R"
254522,"6000 HOGABOOM RD","GROVES","TX",77619,29.95360458,-93.933694633,22,"6000 HOGABOOM RD, GROVES, TX, 77619","Match","Exact","6000 HOGABOOM RD, GROVES, TX, 77619",73862405,"R"
254523,"6000 JOHNSTON STREET APT 804","LAFAYETTE","LA",70503,30.1680906460001,-92.08252378,23,"6000 JOHNSTON STREET APT 804, LAFAYETTE, LA, 70503","Match","Exact","6000 JOHNSTON ST, LAFAYETTE, LA, 70503",642025892,"L"
254524,"6000 LAKELAND HIGHLANDS RD","LAKELAND","FL",33812,27.9565454890001,-81.923631171,24,"6000 LAKELAND HIGHLANDS RD, LAKELAND, FL, 33812","Match","Non_Exact","6000 LAKELAND HIGHLANDS RD, LAKELAND, FL, 33813",104877266,"L"
254525,"6000 LAKELAND HIGHLANDS ROAD","LAKELAND","FL",33813,27.9565454890001,-81.923631171,25,"6000 LAKELAND HIGHLANDS ROAD, LAKELAND, FL, 33813","Match","Exact","6000 LAKELAND HIGHLANDS RD, LAKELAND, FL, 33813",104877266,"L"
254526,"6000 LANDMARK PLACE","BRENTWOOD","TN",37027,36.0383113670001,-86.817436266,26,"6000 LANDMARK PLACE, BRENTWOOD, TN, 37027","Match","Exact","6000 LANDMARK PL, BRENTWOOD, TN, 37027",607903372,"R"
254527,"6000 MAIN STREET SW","LAKEWOOD","WA",98499,47.161962658,-122.515625831,27,"6000 MAIN STREET SW, LAKEWOOD, WA, 98499","Match","Exact","6000 MAIN ST SW, LAKEWOOD, WA, 98499",646001286,"R"
254528,"6000 MOSS RANCH ROAD","MIAMI","FL",33156,25.6537664570001,-80.290035928,28,"6000 MOSS RANCH ROAD, MIAMI, FL, 33156","Match","Exact","6000 MOSS RANCH RD, MIAMI, FL, 33156",115986140,"L"
254529,"6000 N CALLE DE LA CULEBRA","TUCSON","AZ",85718,NA,NA,29,"6000 N CALLE DE LA CULEBRA, TUCSON, AZ, 85718","Tie",NA,NA,NA,NA
254530,"6000 N CICERO AVE UNIT 308","CHICAGO","IL",60646,41.9899720170001,-87.748330553,30,"6000 N CICERO AVE UNIT 308, CHICAGO, IL, 60646","Match","Non_Exact","6000 N CICERO AVE, CHICAGO, IL, 60646",638611601,"L"
254531,"6000 OHIO DRIVE APT 2711","PLANO","TX",75093,33.0539843120001,-96.788959485,31,"6000 OHIO DRIVE APT 2711, PLANO, TX, 75093","Match","Exact","6000 OHIO DR, PLANO, TX, 75093",210475567,"L"
254532,"6000 ORANGE AVENUE","SACRAMENTO","CA",95823,38.488749236,-121.434356723,32,"6000 ORANGE AVENUE, SACRAMENTO, CA, 95823","Match","Exact","6000 ORANGE AVE, SACRAMENTO, CA, 95823",133352684,"R"
254533,"6000 RADECKE AVENUE SUITE 202","BALTIMORE","MD",21206,39.330796084,-76.531683792,33,"6000 RADECKE AVENUE SUITE 202, BALTIMORE, MD, 21206","Match","Exact","6000 RADECKE AVE, BALTIMORE, MD, 21206",206466244,"L"
254534,"6000 REIMS RD SUITE 3508","HOUSTON","TX",77036,29.716647892,-95.515786519,34,"6000 REIMS RD SUITE 3508, HOUSTON, TX, 77036","Match","Exact","6000 REIMS RD, HOUSTON, TX, 77036",96614244,"L"
254535,"6000 REIMS ROAD SUITE 3508","HOUSTON","TX",77036,29.716647892,-95.515786519,35,"6000 REIMS ROAD SUITE 3508, HOUSTON, TX, 77036","Match","Exact","6000 REIMS RD, HOUSTON, TX, 77036",96614244,"L"
254536,"6000 RIDGE AVENUE","PHILADELPHIA","PA",19128,40.031637824,-75.21315264,36,"6000 RIDGE AVENUE, PHILADELPHIA, PA, 19128","Match","Exact","6000 RIDGE AVE, PHILADELPHIA, PA, 19128",131396445,"L"
254537,"6000 S 5TH AVE","POCATELLO","ID",83204,NA,NA,37,"6000 S 5TH AVE, POCATELLO, ID, 83204","No_Match",NA,NA,NA,NA
254538,"6000 S FLORIDA AVE SUITE 5024","LAKELAND","FL",33807,NA,NA,38,"6000 S FLORIDA AVE SUITE 5024, LAKELAND, FL, 33807","No_Match",NA,NA,NA,NA
254539,"6000 S FRASER ST APT 9-202","AURORA","CO",80016,39.60687361,-104.811984658,39,"6000 S FRASER ST APT 9-202, AURORA, CO, 80016","Match","Non_Exact","6000 S FRASER ST, AURORA, CO, 80016",646615842,"L"
254540,"6000 S GALWAY AVENUE","SIOUX FALLS","SD",57106,43.491164025,-96.816888965,40,"6000 S GALWAY AVENUE, SIOUX FALLS, SD, 57106","Match","Exact","6000 S GALWAY AVE, SIOUX FALLS, SD, 57106",635742953,"L"
254541,"6000 S RIO GRANDE AVENUE SUITE 104","ORLANDO","FL",32809,28.4706725940001,-81.4008111059999,41,"6000 S RIO GRANDE AVENUE SUITE 104, ORLANDO, FL, 32809","Match","Non_Exact","6000 S RIO GRANDE AVE, ORLANDO, FL, 32809",94283815,"R"
254542,"6000 SNOW CRYSTAL","COLUMBIA","MD",21044,39.208042187,-76.884213353,42,"6000 SNOW CRYSTAL, COLUMBIA, MD, 21044","Match","Exact","6000 SNOW CRYSTAL, COLUMBIA, MD, 21044",158924426,"R"
254543,"6000 SOUTH GREEN STREET APT 3N","CHICAGO","IL",60621,41.7850439200001,-87.64613724,43,"6000 SOUTH GREEN STREET APT 3N, CHICAGO, IL, 60621","Match","Exact","6000 S GREEN ST, CHICAGO, IL, 60621",111830049,"R"
254544,"6000 SOUTH INDIANA AVE APT 204","CHICAGO","IL",60637,41.785470666,-87.620614954,44,"6000 SOUTH INDIANA AVE APT 204, CHICAGO, IL, 60637","Match","Exact","6000 S INDIANA AVE, CHICAGO, IL, 60637",111771158,"R"
254545,"6000 SOUTH LAKESHORE DRIVE","TEMPE","AZ",85283,33.366100331,-111.919923585,45,"6000 SOUTH LAKESHORE DRIVE, TEMPE, AZ, 85283","Match","Exact","6000 S LAKESHORE DR, TEMPE, AZ, 85283",128238588,"R"
254546,"6000 SOUTH UNION AVENUE","CHICAGO","IL",60621,41.7850557460001,-87.6424927799999,46,"6000 SOUTH UNION AVENUE, CHICAGO, IL, 60621","Match","Exact","6000 S UNION AVE, CHICAGO, IL, 60621",111830077,"R"
254547,"6000 STANLEY AVE","CARMICHAEL","CA",95608,38.622331059,-121.324719423,47,"6000 STANLEY AVE, CARMICHAEL, CA, 95608","Match","Exact","6000 STANLEY AVE, CARMICHAEL, CA, 95608",133343314,"R"
254548,"6000 STEWART PARKWAY 5464","DOUGLASVILLE","GA",30154,33.7191171750001,-84.772052683,48,"6000 STEWART PARKWAY 5464, DOUGLASVILLE, GA, 30154","Match","Non_Exact","6000 STEWART PKWY, DOUGLASVILLE, GA, 30135",625205130,"L"
254549,"6000 STEWART PARKWAY STE 6088","DOUGLASVILLE","GA",30154,33.7191171750001,-84.772052683,49,"6000 STEWART PARKWAY STE 6088, DOUGLASVILLE, GA, 30154","Match","Non_Exact","6000 STEWART PKWY, DOUGLASVILLE, GA, 30135",625205130,"L"
254550,"6000 STODDARD COURT APT 302","ALEXANDRIA","VA",22315,38.7622986920001,-77.140350051,50,"6000 STODDARD COURT APT 302, ALEXANDRIA, VA, 22315","Match","Exact","6000 STODDARD CT, ALEXANDRIA, VA, 22315",76037535,"L"
254551,"6000 SUNFOREST DRIVE 2607","HOUSTON","TX",77092,29.848420839,-95.477332696,51,"6000 SUNFOREST DRIVE 2607, HOUSTON, TX, 77092","Match","Non_Exact","6000 W SUNFOREST DR, HOUSTON, TX, 77092",96643451,"R"
254552,"6000 TERRACE OAKS LANE","FORT WORTH","TX",76112,32.7766227500001,-97.2289213239999,52,"6000 TERRACE OAKS LANE, FORT WORTH, TX, 76112","Match","Exact","6000 TERRACE OAKS LN, FORT WORTH, TX, 76112",102103157,"L"
254553,"6000 TOMOKA DRIVE","ORLANDO","FL",32909,28.4712904960001,-81.393995151,53,"6000 TOMOKA DRIVE, ORLANDO, FL, 32909","Match","Non_Exact","6000 TOMOKA DR, ORLANDO, FL, 32809",94426652,"R"
254554,"6000 TUNNEL LOOP RD","GRANTS PASS","OR",97526,42.5829587810001,-123.419258362,54,"6000 TUNNEL LOOP RD, GRANTS PASS, OR, 97526","Match","Exact","6000 TUNNEL LOOP RD, GRANTS PASS, OR, 97526",649935899,"L"
254555,"6000 UNIVERSITY AVE STE 350","WEST DES MOINES","IA",50266,41.60040824,-93.795583641,55,"6000 UNIVERSITY AVE STE 350, WEST DES MOINES, IA, 50266","Match","Exact","6000 UNIVERSITY AVE, WEST DES MOINES, IA, 50266",643004412,"L"
254556,"6000 UPPER BRANDON PLACE","NORFOLK","VA",23508,36.8962277380001,-76.3046147009999,56,"6000 UPPER BRANDON PLACE, NORFOLK, VA, 23508","Match","Exact","6000 UPPER BRANDON PL, NORFOLK, VA, 23508",122131492,"R"
254557,"6000 W 2100 S","SALT LAKE CITY","UT",84128,40.7260577530001,-112.03294129,57,"6000 W 2100 S, SALT LAKE CITY, UT, 84128","Match","Exact","6000 W 2100 S, SALT LAKE CITY, UT, 84128",176138749,"L"
254558,"6000 W 87TH STREET","OVERLAND PARK","KS",66207,38.971330612,-94.654745528,58,"6000 W 87TH STREET, OVERLAND PARK, KS, 66207","Match","Exact","6000 W 87TH ST, OVERLAND PARK, KS, 66207",91337346,"R"
254559,"6000 W ATLANTIC BLVD STE 5","MARGATE","FL",33063,26.235352802,-80.205230977,59,"6000 W ATLANTIC BLVD STE 5, MARGATE, FL, 33063","Match","Non_Exact","6000 W ATLANTIC BLVD, MARGATE, FL, 33063",635913614,"R"
254560,"6000 W MAIN ST","LOWELL","IN",46356,41.3283289930001,-87.4052801019999,60,"6000 W MAIN ST, LOWELL, IN, 46356","Match","Exact","6000 W MAIN ST, LOWELL, IN, 46356",98412633,"L"
254561,"6000 W OAKEY BLVD","LAS VEGAS","NV",89146,36.1518048,-115.223476264,61,"6000 W OAKEY BLVD, LAS VEGAS, NV, 89146","Match","Exact","6000 W OAKEY BLVD, LAS VEGAS, NV, 89146",630143830,"R"
254562,"6000 WEST FLORISSANT AVENUE","SAINT LOUIS","MO",63136,38.709128879,-90.251518049,62,"6000 WEST FLORISSANT AVENUE, SAINT LOUIS, MO, 63136","Match","Exact","6000 W FLORISSANT AVE, SAINT LOUIS, MO, 63136",618275276,"L"
254563,"6000 WESTERN PLACE STE 200","FORT WORTH","TX",76107,32.7349570210001,-97.414555197,63,"6000 WESTERN PLACE STE 200, FORT WORTH, TX, 76107","Match","Exact","6000 WESTERN PL, FORT WORTH, TX, 76107",102136180,"R"
254564,"6000 WESTMINSTER","SAINT LOUIS","MO",63112,38.6530732960001,-90.294065744,64,"6000 WESTMINSTER, SAINT LOUIS, MO, 63112","Match","Non_Exact","6000 WESTMINSTER PL, SAINT LOUIS, MO, 63112",641138222,"L"
254565,"6000 WHIPPOORWILL DRIVE","WARRENTON","VA",20187,NA,NA,65,"6000 WHIPPOORWILL DRIVE, WARRENTON, VA, 20187","No_Match",NA,NA,NA,NA
254566,"6000 WRIGHT STREET","ARVADA","CO",80004,39.8058895680001,-105.139499965,66,"6000 WRIGHT STREET, ARVADA, CO, 80004","Match","Exact","6000 WRIGHT ST, ARVADA, CO, 80004",177284285,"R"
254567,"6001 4TH STREET NE","FRIDLEY","MN",55432,45.077231565,-93.261885863,67,"6001 4TH STREET NE, FRIDLEY, MN, 55432","Match","Exact","6001 4TH ST NE, FRIDLEY, MN, 55432",97487469,"R"
254568,"6001 ARGYLE FOREST BLVD STE 21-354","JACKSONVILLE","FL",32244,30.192187658,-81.7400512569999,68,"6001 ARGYLE FOREST BLVD STE 21-354, JACKSONVILLE, FL, 32244","Match","Exact","6001 ARGYLE FOREST BLVD, JACKSONVILLE, FL, 32244",83933134,"R"
254569,"6001 BATON ROUGE DRIVE","AUSTIN","TX",78727,30.436913272,-97.7457270899999,69,"6001 BATON ROUGE DRIVE, AUSTIN, TX, 78727","Match","Exact","6001 BATON ROUGE DR, AUSTIN, TX, 78727",63926335,"L"
254570,"6001 BEECH TREE DRIVE","ALEXANDRIA","VA",22310,38.7862558410001,-77.087717115,70,"6001 BEECH TREE DRIVE, ALEXANDRIA, VA, 22310","Match","Exact","6001 BEECH TREE DR, ALEXANDRIA, VA, 22310",75988922,"L"
254571,"6001 BLUE HILLS LN","NORMAN","OK",73026,35.1978315280001,-97.352454374,71,"6001 BLUE HILLS LN, NORMAN, OK, 73026","Match","Exact","6001 BLUE HILLS LN, NORMAN, OK, 73026",240928431,"R"
254572,"6001 BUTLER LANE STE 200","SCOTTS VALLEY","CA",95066,37.060643988,-122.006059749,72,"6001 BUTLER LANE STE 200, SCOTTS VALLEY, CA, 95066","Match","Exact","6001 BUTLER LN, SCOTTS VALLEY, CA, 95066",125506668,"L"
254573,"6001 CRANE STREET","HOUSTON","TX",77026,29.7970633250001,-95.310364792,73,"6001 CRANE STREET, HOUSTON, TX, 77026","Match","Exact","6001 CRANE ST, HOUSTON, TX, 77026",96079255,"L"
254574,"6001 CRESTWOOD BOULEVARD","BIRMINGHAM","AL",35212,33.5312600570001,-86.738802075,74,"6001 CRESTWOOD BOULEVARD, BIRMINGHAM, AL, 35212","Match","Exact","6001 CRESTWOOD BLVD, BIRMINGHAM, AL, 35212",650322866,"R"
254575,"6001 DODGE ST UNO CEC SUITE 219","OMAHA","NE",68182,41.2596281610001,-96.0149323539999,75,"6001 DODGE ST UNO CEC SUITE 219, OMAHA, NE, 68182","Match","Exact","6001 DODGE ST, OMAHA, NE, 68182",117008423,"L"
254576,"6001 DODGE STREET - FH211","OMAHA","NE",68182,41.2596281610001,-96.0149323539999,76,"6001 DODGE STREET - FH211, OMAHA, NE, 68182","Match","Exact","6001 DODGE ST, OMAHA, NE, 68182",117008423,"L"
254577,"6001 DOROTHEA ST","NEW ORLEANS","LA",70126,30.0255857270001,-90.0230695119999,77,"6001 DOROTHEA ST, NEW ORLEANS, LA, 70126","Match","Exact","6001 DOROTHEA ST, NEW ORLEANS, LA, 70126",191705304,"L"
254578,"6001 DREXEL ROAD","PHILADELPHIA","PA",19131,39.988307465,-75.2465569569999,78,"6001 DREXEL ROAD, PHILADELPHIA, PA, 19131","Match","Exact","6001 DREXEL RD, PHILADELPHIA, PA, 19131",639333137,"R"
254579,"6001 E MOLLOY AVE BLDG 641","SYRACUSE","NY",13211,NA,NA,79,"6001 E MOLLOY AVE BLDG 641, SYRACUSE, NY, 13211","No_Match",NA,NA,NA,NA
254580,"6001 E WALLISVILLE RD","BAYTOWN","TX",77521,NA,NA,80,"6001 E WALLISVILLE RD, BAYTOWN, TX, 77521","No_Match",NA,NA,NA,NA
254581,"6001 E WALLISVILLE ROAD","BAYTOWN","TX",77521,NA,NA,81,"6001 E WALLISVILLE ROAD, BAYTOWN, TX, 77521","No_Match",NA,NA,NA,NA
254582,"6001 E WALLISVILLE","BAYTOWN","TX",77521,NA,NA,82,"6001 E WALLISVILLE, BAYTOWN, TX, 77521","No_Match",NA,NA,NA,NA
254583,"6001 E","CLEVELAND","OH",44103,NA,NA,83,"6001 E, CLEVELAND, OH, 44103","No_Match",NA,NA,NA,NA
254584,"6001 EAGLE PASS","PLANO","TX",75023,33.0555516850001,-96.702077028,84,"6001 EAGLE PASS, PLANO, TX, 75023","Match","Exact","6001 EAGLE PASS, PLANO, TX, 75023",123488767,"R"
254585,"6001 GARRET VALLEY LANE","ARLINGTON","TN",38002,NA,NA,85,"6001 GARRET VALLEY LANE, ARLINGTON, TN, 38002","No_Match",NA,NA,NA,NA
254586,"6001 HIGHWAY A1A BOX 8144","VERO BEACH","FL",32963,NA,NA,86,"6001 HIGHWAY A1A BOX 8144, VERO BEACH, FL, 32963","No_Match",NA,NA,NA,NA
254587,"6001 INTERNATIONAL BLVD","OAKLAND","CA",94621,37.7646902600001,-122.198800713,87,"6001 INTERNATIONAL BLVD, OAKLAND, CA, 94621","Match","Exact","6001 INTERNATIONAL BLVD, OAKLAND, CA, 94621",606308840,"R"
254588,"6001 IVY GLEN DR","ARLINGTON","TX",76017,32.6480585080001,-97.118723878,88,"6001 IVY GLEN DR, ARLINGTON, TX, 76017","Match","Exact","6001 IVY GLEN DR, ARLINGTON, TX, 76017",101911664,"L"
254589,"6001 LAKESIDE AVENUE SUITE 22","RICHMOND","VA",23228,37.6112229830001,-77.4693751359999,89,"6001 LAKESIDE AVENUE SUITE 22, RICHMOND, VA, 23228","Match","Exact","6001 LAKESIDE AVE, RICHMOND, VA, 23228",106689816,"R"
254590,"6001 MALLARD DRIVE S","CHARLOTTE","NC",28227,35.2103256620001,-80.711828351,90,"6001 MALLARD DRIVE S, CHARLOTTE, NC, 28227","Match","Non_Exact","6001 MALLARD DR, CHARLOTTE, NC, 28227",70494387,"R"
254591,"6001 MAURY AVENUE","WOODLAND HILLS","CA",91367,34.179821154,-118.660920249,91,"6001 MAURY AVENUE, WOODLAND HILLS, CA, 91367","Match","Exact","6001 MAURY AVE, WOODLAND HILLS, CA, 91367",141722611,"L"
254592,"6001 MONUMENT DRIVE","GRANTS PASS","OR",97526,42.506053105,-123.375402295,92,"6001 MONUMENT DRIVE, GRANTS PASS, OR, 97526","Match","Exact","6001 MONUMENT DR, GRANTS PASS, OR, 97526",156597299,"L"
254593,"6001 N ADAMS RD SUITE 135","BLOOMFIELD HILLS","MI",48304,42.6050156540001,-83.208519678,93,"6001 N ADAMS RD SUITE 135, BLOOMFIELD HILLS, MI, 48304","Match","Non_Exact","6001 N ADAMS RD, BLOOMFIELD HILLS, MI, 48304",69814066,"L"
254594,"6001 NE 99TH ST","VANCOUVER","WA",98665,45.693189728,-122.611188792,94,"6001 NE 99TH ST, VANCOUVER, WA, 98665","Match","Exact","6001 NE 99TH ST, VANCOUVER, WA, 98665",158352261,"R"
254595,"6001 NEARGATE DRIVE","WAXHAW","NC",28173,34.9806241470001,-80.715844152,95,"6001 NEARGATE DRIVE, WAXHAW, NC, 28173","Match","Exact","6001 NEARGATE DR, WAXHAW, NC, 28173",14234025,"R"
254596,"6001 NORTH HILLS DRIVE","RALEIGH","NC",27609,35.8631710860001,-78.653910909,96,"6001 NORTH HILLS DRIVE, RALEIGH, NC, 27609","Match","Exact","6001 N HILLS DR, RALEIGH, NC, 27609",639845708,"L"
254597,"6001 NW 8TH AVENUE","MIAMI","FL",33127,25.8304755500001,-80.210422556,97,"6001 NW 8TH AVENUE, MIAMI, FL, 33127","Match","Exact","6001 NW 8TH AVE, MIAMI, FL, 33127",116004826,"R"
254598,"6001 OLD COLLINSVILLE ROAD STE 4B","FAIRVIEW HEIGHTS","IL",62208,NA,NA,98,"6001 OLD COLLINSVILLE ROAD STE 4B, FAIRVIEW HEIGHTS, IL, 62208","No_Match",NA,NA,NA,NA
254599,"6001 PEBBLE CREEK COURT","GURNEE","IL",60031,42.3525784440001,-87.951785961,99,"6001 PEBBLE CREEK COURT, GURNEE, IL, 60031","Match","Exact","6001 PEBBLE CREEK CT, GURNEE, IL, 60031",647204655,"R"
254600,"6001 RD 84","PASCO","WA",99301,NA,NA,100,"6001 RD 84, PASCO, WA, 99301","No_Match",NA,NA,NA,NA
254601,"6001 RIMINI COURT","ELK GROVE","CA",95757,38.396439506,-121.433889857,101,"6001 RIMINI COURT, ELK GROVE, CA, 95757","Match","Exact","6001 RIMINI CT, ELK GROVE, CA, 95757",133430721,"L"
254602,"6001 RON KING TRAIL","LITTLETON","CO",80125,NA,NA,102,"6001 RON KING TRAIL, LITTLETON, CO, 80125","No_Match",NA,NA,NA,NA
254603,"6001 S KINGS HWY  UNIT 132","MYRTLE BEACH","SC",29575,33.628530235,-78.963162326,103,"6001 S KINGS HWY  UNIT 132, MYRTLE BEACH, SC, 29575","Match","Non_Exact","6001 S KINGS HWY, MYRTLE BEACH, SC, 29575",29058302,"L"
254604,"6001 SAND PINES ESTATES BLVD","ORLANDO","FL",32819,28.476125412,-81.4869237939999,104,"6001 SAND PINES ESTATES BLVD, ORLANDO, FL, 32819","Match","Exact","6001 SAND PINES ESTATES BLVD, ORLANDO, FL, 32819",635628561,"R"
254605,"6001 SEDGEWICK RD","INDIAN TRAIL","NC",28079,35.093372204,-80.600438361,105,"6001 SEDGEWICK RD, INDIAN TRAIL, NC, 28079","Match","Exact","6001 SEDGEWICK RD, INDIAN TRAIL, NC, 28079",618497581,"L"
254606,"6001 SHEPHERD MOUNTAIN CV APT 226","AUSTIN","TX",78730,30.357522477,-97.7962598349999,106,"6001 SHEPHERD MOUNTAIN CV APT 226, AUSTIN, TX, 78730","Match","Exact","6001 SHEPHERD MOUNTAIN COVE, AUSTIN, TX, 78730",63925482,"L"
254607,"6001 SOUTH KINGS HWY","MYRTLE BEACH","SC",29575,33.628556454,-78.9631314009999,107,"6001 SOUTH KINGS HWY, MYRTLE BEACH, SC, 29575","Match","Exact","6001 S KINGS HWY, MYRTLE BEACH, SC, 29575",29058302,"L"
254608,"6001 SOUTHWIND DR","NORTH LITTLE ROCK","AR",72118,34.8099368950001,-92.336258325,108,"6001 SOUTHWIND DR, NORTH LITTLE ROCK, AR, 72118","Match","Exact","6001 SOUTHWIND DR, N LITTLE ROCK, AR, 72118",642518551,"L"
254609,"6001 STARS AND STRIPES BLVD","NEW ORLEANS","LA",70126,NA,NA,109,"6001 STARS AND STRIPES BLVD, NEW ORLEANS, LA, 70126","No_Match",NA,NA,NA,NA
254610,"6001 SW 127TH AVE","MIAMI","FL",33183,25.7111925460001,-80.3989332359999,110,"6001 SW 127TH AVE, MIAMI, FL, 33183","Match","Exact","6001 SW 127TH AVE, MIAMI, FL, 33183",115965307,"L"
254611,"6001 SW 70 STREET STE 528","MIAMI","FL",33143,25.7060452000001,-80.291054876,111,"6001 SW 70 STREET STE 528, MIAMI, FL, 33143","Match","Non_Exact","6001 SW 70TH ST, MIAMI, FL, 33143",115978926,"R"
254612,"6001 THREE NOTCH ROAD","MOBILE","AL",36619,30.589052657,-88.182322283,112,"6001 THREE NOTCH ROAD, MOBILE, AL, 36619","Match","Exact","6001 THREE NOTCH RD, MOBILE, AL, 36619",61929755,"R"
254613,"6001 TROTTER RIDGE RD","SUMMERFIELD","NC",27358,36.167205552,-79.922467512,113,"6001 TROTTER RIDGE RD, SUMMERFIELD, NC, 27358","Match","Exact","6001 TROTTER RIDGE RD, SUMMERFIELD, NC, 27358",131073997,"R"
254614,"6001 UNION MILL ROAD","CLIFTON","VA",20124,38.8255860140001,-77.4129317379999,114,"6001 UNION MILL ROAD, CLIFTON, VA, 20124","Match","Exact","6001 UNION MILL RD, CLIFTON, VA, 20124",76037895,"L"
254615,"6001 W 159TH ST","STILWELL","KS",66083,38.840091225,-94.654737531,115,"6001 W 159TH ST, STILWELL, KS, 66083","Match","Non_Exact","6001 W 159TH ST, STILWELL, KS, 66085",641830544,"R"
254616,"6001 W 159TH ST","STILWELL","KS",66085,38.840091225,-94.654737531,116,"6001 W 159TH ST, STILWELL, KS, 66085","Match","Exact","6001 W 159TH ST, STILWELL, KS, 66085",641830544,"R"
254617,"6001 W 3RD ST","LOS ANGELES","CA",90036,34.0699514620001,-118.351162012,117,"6001 W 3RD ST, LOS ANGELES, CA, 90036","Match","Exact","6001 W 3RD ST, LOS ANGELES, CA, 90036",141599129,"R"
254618,"6001 W PARMER LN STE 1119","AUSTIN","TX",78727,30.4424437000001,-97.741816472,118,"6001 W PARMER LN STE 1119, AUSTIN, TX, 78727","Match","Non_Exact","6001 W PARMER LN, AUSTIN, TX, 78727",642469816,"L"
254619,"6001 WALDEN POND ROAD","GAINESVILLE","GA",30506,34.424040818,-83.8092589999999,119,"6001 WALDEN POND ROAD, GAINESVILLE, GA, 30506","Match","Exact","6001 WALDEN POND RD, GAINESVILLE, GA, 30506",98245031,"L"
254620,"6001 WEST B STREET","BELLEVILLE","IL",62223,38.552193678,-90.034420085,120,"6001 WEST B STREET, BELLEVILLE, IL, 62223","Match","Exact","6001 W B ST, BELLEVILLE, IL, 62223",107838892,"R"
254621,"6001 WOODLAND AVENUE","CLEVELAND","OH",44104,41.488033079,-81.648562623,121,"6001 WOODLAND AVENUE, CLEVELAND, OH, 44104","Match","Exact","6001 WOODLAND AVE, CLEVELAND, OH, 44104",61113536,"L"
254622,"6002 5TH AVE NW","SEATTLE","WA",98107,47.6725043700001,-122.362922361,122,"6002 5TH AVE NW, SEATTLE, WA, 98107","Match","Exact","6002 5TH AVE NW, SEATTLE, WA, 98107",186579182,"R"
254623,"6002 ARBUTUS LANE","CLINTON","MD",20735,38.784081719,-76.903473081,123,"6002 ARBUTUS LANE, CLINTON, MD, 20735","Match","Exact","6002 ARBUTUS LN, CLINTON, MD, 20735",76320396,"L"
254624,"6002 BAIRD STREET","DURHAM","NC",27712,36.110115045,-78.9145813769999,124,"6002 BAIRD STREET, DURHAM, NC, 27712","Match","Exact","6002 BAIRD ST, DURHAM, NC, 27712",71734944,"R"
254625,"6002 BIRCHWOOD LN APT 4","SCHOFIELD","WI",54476,44.9027940340001,-89.584425993,125,"6002 BIRCHWOOD LN APT 4, SCHOFIELD, WI, 54476","Match","Exact","6002 BIRCHWOOD LN, SCHOFIELD, WI, 54476",117158739,"R"
254626,"6002 BUR OAK DRIVE","SPRING","TX",77379,30.037412927,-95.5073730889999,126,"6002 BUR OAK DRIVE, SPRING, TX, 77379","Match","Exact","6002 BUR OAK DR, SPRING, TX, 77379",96666850,"R"
254627,"6002 BURWOOD AVE","LOS ANGELES","CA",90042,34.126753079,-118.188699146,127,"6002 BURWOOD AVE, LOS ANGELES, CA, 90042","Match","Exact","6002 BURWOOD AVE, LOS ANGELES, CA, 90042",141614571,"R"
254628,"6002 CRYSTAL RIVER DRIVE APT 101","TAMPA","FL",33617,28.010866573,-82.388523178,128,"6002 CRYSTAL RIVER DRIVE APT 101, TAMPA, FL, 33617","Match","Exact","6002 CRYSTAL RIVER DR, TAMPA, FL, 33617",104533116,"R"
254629,"6002 CURTIER DRIVE UNIT E","ALEXANDRIA","VA",22310,38.76495154,-77.150109169,129,"6002 CURTIER DRIVE UNIT E, ALEXANDRIA, VA, 22310","Match","Exact","6002 CURTIER DR, ALEXANDRIA, VA, 22310",76017148,"L"
254630,"6002 DIAMOND RUBY - BOX 127","CHRISTIANSTED","VI",820,NA,NA,130,"6002 DIAMOND RUBY - BOX 127, CHRISTIANSTED, VI, 820","No_Match",NA,NA,NA,NA
254631,"6002 ESSEX","ROMULUS","MI",48174,42.2646870310001,-83.3832688529999,131,"6002 ESSEX, ROMULUS, MI, 48174","Match","Non_Exact","6002 ESSEX ST, ROMULUS, MI, 48174",95416750,"R"
254632,"6002 JOSEPH SCOTT DRIVE","ELKRIDGE","MD",21075,39.21056916,-76.710795247,132,"6002 JOSEPH SCOTT DRIVE, ELKRIDGE, MD, 21075","Match","Exact","6002 JOSEPH SCOTT DR, ELKRIDGE, MD, 21075",618715504,"R"
254633,"6002 KNIGHTS RIDGE WAY","ALEXANDRIA","VA",22310,38.7904621270001,-77.143563974,133,"6002 KNIGHTS RIDGE WAY, ALEXANDRIA, VA, 22310","Match","Exact","6002 KNIGHTS RIDGE WAY, ALEXANDRIA, VA, 22310",642591390,"L"
254634,"6002 OLD CAPITOL TRL","WILMINGTON","DE",19808,39.710719903,-75.6776288569999,134,"6002 OLD CAPITOL TRL, WILMINGTON, DE, 19808","Match","Exact","6002 OLD CAPITOL TRL, WILMINGTON, DE, 19808",187264423,"L"
254635,"6002 POINTE WEST BLVD","BRADENTON","FL",34209,27.4795336280001,-82.621622967,135,"6002 POINTE WEST BLVD, BRADENTON, FL, 34209","Match","Exact","6002 POINTE WEST BLVD, BRADENTON, FL, 34209",16233028,"L"
254636,"6002 S 700 W","MURRAY","UT",84123,40.640514926,-111.910212519,136,"6002 S 700 W, MURRAY, UT, 84123","Match","Exact","6002 S 700 W, MURRAY, UT, 84123",176084378,"R"
254637,"6002 STATE ROUTE 31","CICERO","NY",13039,43.1760952490001,-76.104834065,137,"6002 STATE ROUTE 31, CICERO, NY, 13039","Match","Exact","6002 STATE RTE 31, CICERO, NY, 13039",46624939,"R"
254638,"6002 SUNWOOD DRIVE","INDIANAPOLIS","IN",46224,39.8188334210001,-86.2651593309999,138,"6002 SUNWOOD DRIVE, INDIANAPOLIS, IN, 46224","Match","Exact","6002 SUNWOOD DR, INDIANAPOLIS, IN, 46224",107978048,"R"
254639,"6002 UPHAM DRIVE","HENRICO","VA",23227,37.6269574410001,-77.441238466,139,"6002 UPHAM DRIVE, HENRICO, VA, 23227","Match","Non_Exact","6002 UPHAM DR, RICHMOND, VA, 23227",106648709,"L"
254640,"6002 WYSE FORD RD","DOVER","NC",28526,NA,NA,140,"6002 WYSE FORD RD, DOVER, NC, 28526","No_Match",NA,NA,NA,NA
254641,"60020 STIRLING DR","BEND","OR",97702,43.9791969,-121.205736523,141,"60020 STIRLING DR, BEND, OR, 97702","Match","Exact","60020 STIRLING DR, BEND, OR, 97702",152528582,"R"
254642,"6003 98TH ST E","PUYALLUP","WA",98373,47.1682742900001,-122.349440284,142,"6003 98TH ST E, PUYALLUP, WA, 98373","Match","Exact","6003 98TH ST E, PUYALLUP, WA, 98373",184633331,"L"
254643,"6003 ALTERGATE LANE 4303","ARLINGTON","TX",76001,NA,NA,143,"6003 ALTERGATE LANE 4303, ARLINGTON, TX, 76001","No_Match",NA,NA,NA,NA
254644,"6003 COFFER WOODS COURT","BURKE","VA",22015,38.7904971350001,-77.2902294039999,144,"6003 COFFER WOODS COURT, BURKE, VA, 22015","Match","Exact","6003 COFFER WOODS CT, BURKE, VA, 22015",76057538,"L"
254645,"6003 COLONIAL TERRACE","TEMPLE HILLS","MD",20748,38.806602931,-76.9209728609999,145,"6003 COLONIAL TERRACE, TEMPLE HILLS, MD, 20748","Match","Exact","6003 COLONIAL TER, TEMPLE HILLS, MD, 20748",76316874,"R"
254646,"6003 COMPTON AVE STE 2","LOS ANGELES","CA",90001,33.985612148,-118.247713853,146,"6003 COMPTON AVE STE 2, LOS ANGELES, CA, 90001","Match","Exact","6003 COMPTON AVE, LOS ANGELES, CA, 90001",141670659,"R"
254647,"6003 CONSTITUTION HILL","CHRISTIANSTED","VI",820,NA,NA,147,"6003 CONSTITUTION HILL, CHRISTIANSTED, VI, 820","No_Match",NA,NA,NA,NA
254648,"6003 E BEAR CREEK RD","PRESTON","ID",83263,42.1892654330001,-111.731161308,148,"6003 E BEAR CREEK RD, PRESTON, ID, 83263","Match","Exact","6003 E BEAR CREEK RD, PRESTON, ID, 83263",167531230,"L"
254649,"6003 GLENEAGLES CIR","SAN JOSE","CA",95138,37.2719424150001,-121.752759195,149,"6003 GLENEAGLES CIR, SAN JOSE, CA, 95138","Match","Exact","6003 GLENEAGLES CIR, SAN JOSE, CA, 95138",636426282,"R"
254650,"6003 LADYS SECRET DR","INDIAN TRAIL","NC",28079,35.086529828,-80.607330115,150,"6003 LADYS SECRET DR, INDIAN TRAIL, NC, 28079","Match","Exact","6003 LADYS SECRET DR, INDIAN TRAIL, NC, 28079",618499539,"R"
254651,"6003 MIDDLETON LN","TEMPLE HILLS","MD",20748,38.8076010190001,-76.921612394,151,"6003 MIDDLETON LN, TEMPLE HILLS, MD, 20748","Match","Exact","6003 MIDDLETON LN, TEMPLE HILLS, MD, 20748",647284755,"R"
254652,"6003 MIDWOOD AVE","MONONA","WI",53716,43.0550059020001,-89.335420562,152,"6003 MIDWOOD AVE, MONONA, WI, 53716","Match","Exact","6003 MIDWOOD AVE, MONONA, WI, 53716",49475515,"R"
254653,"6003 MORNINGSIDE DRIVE","PARMA","OH",44133,41.4005460010001,-81.726834272,153,"6003 MORNINGSIDE DRIVE, PARMA, OH, 44133","Match","Non_Exact","6003 MORNINGSIDE DR, PARMA, OH, 44129",61107354,"L"
254654,"6003 OLD MANOR DR","ROANOKE","VA",24019,37.332273704,-79.93608475,154,"6003 OLD MANOR DR, ROANOKE, VA, 24019","Match","Exact","6003 OLD MANOR DR, ROANOKE, VA, 24019",62917810,"R"
254655,"6003 SILVER STAR ROAD SUITE 1","ORLANDO","FL",32808,28.5779075400001,-81.4640712619999,155,"6003 SILVER STAR ROAD SUITE 1, ORLANDO, FL, 32808","Match","Exact","6003 SILVER STAR RD, ORLANDO, FL, 32808",94269031,"R"
254656,"6003 SOUTH CEDAR STREET","PINE BLUFF","AR",71603,34.166522813,-92.019135591,156,"6003 SOUTH CEDAR STREET, PINE BLUFF, AR, 71603","Match","Exact","6003 S CEDAR ST, PINE BLUFF, AR, 71603",2554131,"R"
254657,"6003 UPDALE COURT","BALTIMORE","MD",21207,39.3379916550001,-76.712281992,157,"6003 UPDALE COURT, BALTIMORE, MD, 21207","Match","Exact","6003 UPDALE CT, BALTIMORE, MD, 21207",191493249,"R"
254658,"6003 WINDEMERE DRIVE","HUNTSVILLE","AL",35810,34.7932215160001,-86.614668552,158,"6003 WINDEMERE DRIVE, HUNTSVILLE, AL, 35810","Match","Exact","6003 WINDEMERE DR, HUNTSVILLE, AL, 35810",58115275,"L"
254659,"6003","BOULDER","CO",80306,NA,NA,159,"6003, BOULDER, CO, 80306","No_Match",NA,NA,NA,NA
254660,"60039 STIRLING DRIVE","BEND","OR",97702,43.9805365990001,-121.206498515,160,"60039 STIRLING DRIVE, BEND, OR, 97702","Match","Exact","60039 STIRLING DR, BEND, OR, 97702",152528567,"L"
254661,"6004 226TH DR NE","GRANITE FALLS","WA",98252,48.050688596,-121.926521025,161,"6004 226TH DR NE, GRANITE FALLS, WA, 98252","Match","Exact","6004 226TH DR NE, GRANITE FALLS, WA, 98252",635330862,"L"
254662,"6004 CACTUS VALLEY ROAD","CHARLOTTE","NC",28277,35.0573529260001,-80.786116469,162,"6004 CACTUS VALLEY ROAD, CHARLOTTE, NC, 28277","Match","Exact","6004 CACTUS VALLEY RD, CHARLOTTE, NC, 28277",638684911,"R"
254663,"6004 CHARLOTTE COURT","SHAWNEE","KS",66216,39.0197557600001,-94.7582508249999,163,"6004 CHARLOTTE COURT, SHAWNEE, KS, 66216","Match","Exact","6004 CHARLOTTE CT, SHAWNEE, KS, 66216",91328898,"R"
254664,"6004 CHINABERRY CT","CHARLOTTE","NC",28269,35.3724606070001,-80.757841134,164,"6004 CHINABERRY CT, CHARLOTTE, NC, 28269","Match","Exact","6004 CHINABERRY CT, CHARLOTTE, NC, 28269",70519464,"L"
254665,"6004 CLEVELAND AVE","COLUMBUS","OH",43231,40.0952062710001,-82.95029742,165,"6004 CLEVELAND AVE, COLUMBUS, OH, 43231","Match","Exact","6004 CLEVELAND AVE, COLUMBUS, OH, 43231",135570650,"R"
254666,"6004 DOWLINGWOOD DRIVE","BEAUFORT","SC",29902,32.3849467960001,-80.7353317449999,166,"6004 DOWLINGWOOD DRIVE, BEAUFORT, SC, 29902","Match","Exact","6004 DOWLINGWOOD DR, BEAUFORT, SC, 29902",647917239,"L"
254667,"6004 EAGLE WATCH CT","NORTH FORT MYERS","FL",33917,26.6827512620001,-81.857713029,167,"6004 EAGLE WATCH CT, NORTH FORT MYERS, FL, 33917","Match","Exact","6004 EAGLE WATCH CT, N FORT MYERS, FL, 33917",118083643,"R"
254668,"6004 ENGLISHOAK DRIVE","ARLINGTON","TX",76016,32.7074334230001,-97.199899229,168,"6004 ENGLISHOAK DRIVE, ARLINGTON, TX, 76016","Match","Exact","6004 ENGLISHOAK DR, ARLINGTON, TX, 76016",102111542,"R"
254669,"6004 LOVE MILL ROAD","MONROE","NC",28110,35.142323274,-80.442325506,169,"6004 LOVE MILL ROAD, MONROE, NC, 28110","Match","Exact","6004 LOVE MILL RD, MONROE, NC, 28110",642589503,"R"
254670,"6004 N EWING ST","INDIANAPOLIS","IN",46220,39.864013932,-86.105504298,170,"6004 N EWING ST, INDIANAPOLIS, IN, 46220","Match","Exact","6004 N EWING ST, INDIANAPOLIS, IN, 46220",107995331,"L"
254671,"6004 PRESWELL CT","GAINESVILLE","VA",20155,38.8180590480001,-77.622046456,171,"6004 PRESWELL CT, GAINESVILLE, VA, 20155","Match","Exact","6004 PRESWELL CT, GAINESVILLE, VA, 20155",616827722,"L"
254672,"6004 ROSS LANE","MAYS LICK","KY",41055,38.531237812,-83.829169748,172,"6004 ROSS LANE, MAYS LICK, KY, 41055","Match","Non_Exact","6004 ROSS DR, MAYSLICK, KY, 41055",58606095,"L"
254673,"6004 ROYAL POINCIANA LANE","TAMARAC","FL",33319,26.1816623890001,-80.230674328,173,"6004 ROYAL POINCIANA LANE, TAMARAC, FL, 33319","Match","Exact","6004 ROYAL POINCIANA LN, TAMARAC, FL, 33319",114705838,"L"
254674,"6004 S ELIZABETH ST","CHICAGO","IL",60636,41.7848957420001,-87.655857112,174,"6004 S ELIZABETH ST, CHICAGO, IL, 60636","Match","Exact","6004 S ELIZABETH ST, CHICAGO, IL, 60636",605487249,"R"
254675,"6004 SCARLET CT","SUMMERVILLE","SC",29485,32.9658695910001,-80.2452229909999,175,"6004 SCARLET CT, SUMMERVILLE, SC, 29485","Match","Exact","6004 SCARLET CT, SUMMERVILLE, SC, 29485",636285110,"R"
254676,"6004 WHITE CHAPEL WAY","GREENSBORO","NC",27405,36.136455444,-79.780289835,176,"6004 WHITE CHAPEL WAY, GREENSBORO, NC, 27405","Match","Exact","6004 WHITE CHAPEL WAY, GREENSBORO, NC, 27405",628848986,"R"
254677,"6005 ANDOVER DR APT 31","THE COLONY","TX",75056,33.0567305650001,-96.8505707589999,177,"6005 ANDOVER DR APT 31, THE COLONY, TX, 75056","Match","Exact","6005 ANDOVER DR, THE COLONY, TX, 75056",636498499,"L"
254678,"6005 BAYOU HERON ROAD","MOSS POINT","MS",39562,30.4161592450001,-88.421157976,178,"6005 BAYOU HERON ROAD, MOSS POINT, MS, 39562","Match","Exact","6005 BAYOU HERON RD, MOSS POINT, MS, 39562",649417159,"L"
254679,"6005 CANADERO DRIVE","RALEIGH","NC",27612,35.870018547,-78.738817605,179,"6005 CANADERO DRIVE, RALEIGH, NC, 27612","Match","Exact","6005 CANADERO DR, RALEIGH, NC, 27612",72524142,"L"
254680,"6005 CEDAR HILL ROAD","CEDAR HILL","MO",63016,38.371141521,-90.625194439,180,"6005 CEDAR HILL ROAD, CEDAR HILL, MO, 63016","Match","Exact","6005 CEDAR HILL RD, CEDAR HILL, MO, 63016",607854358,"L"
254681,"6005 CHITTIM COURT","RALEIGH","NC",27616,35.861982245,-78.556258774,181,"6005 CHITTIM COURT, RALEIGH, NC, 27616","Match","Exact","6005 CHITTIM CT, RALEIGH, NC, 27616",72625797,"R"
254682,"6005 CONNELY DRIVE","FRISCO","TX",75034,33.1289005090001,-96.81599627,182,"6005 CONNELY DRIVE, FRISCO, TX, 75034","Match","Exact","6005 CONNELY DR, FRISCO, TX, 75034",210483934,"R"
254683,"6005 EAGLES CREST DR","CHESTERFIELD","VA",23832,37.370718681,-77.497039977,183,"6005 EAGLES CREST DR, CHESTERFIELD, VA, 23832","Match","Exact","6005 EAGLES CREST DR, CHESTERFIELD, VA, 23832",624752641,"R"
254684,"6005 FRANZ COURT","KATY","TX",77493,29.800430912,-95.827331519,184,"6005 FRANZ COURT, KATY, TX, 77493","Match","Non_Exact","6005 FRANZ RD, KATY, TX, 77493",642048684,"R"
254685,"6005 GLOSTER ROAD","BETHESDA","MD",20816,38.9699614570001,-77.123791688,185,"6005 GLOSTER ROAD, BETHESDA, MD, 20816","Match","Exact","6005 GLOSTER RD, BETHESDA, MD, 20816",62058714,"R"
254686,"6005 LUTHER AVENUE","CLEVELAND","OH",44103,41.5162807930001,-81.6485181419999,186,"6005 LUTHER AVENUE, CLEVELAND, OH, 44103","Match","Exact","6005 LUTHER AVE, CLEVELAND, OH, 44103",61112865,"L"
254687,"6005 MEADOWDALE RD","ARLINTON","TX",76017,32.648176146,-97.1188191479999,187,"6005 MEADOWDALE RD, ARLINTON, TX, 76017","Match","Non_Exact","6005 MEADOWDALE RD, ARLINGTON, TX, 76017",101911663,"R"
254688,"6005 N SWANSON DR","SIOUX FALLS","SD",57107,43.6142053130001,-96.753154127,188,"6005 N SWANSON DR, SIOUX FALLS, SD, 57107","Match","Exact","6005 N SWANSON DR, SIOUX FALLS, SD, 57107",34977603,"L"
254689,"6005 N WAYSIDE DR","HOUSTON","TX",77028,29.8162630160001,-95.284552477,189,"6005 N WAYSIDE DR, HOUSTON, TX, 77028","Match","Exact","6005 N WAYSIDE DR, HOUSTON, TX, 77028",233478842,"L"
254690,"6005 NEWINGTON PLACE","SUFFOLK","VA",23435,36.852464721,-76.4674541109999,190,"6005 NEWINGTON PLACE, SUFFOLK, VA, 23435","Match","Exact","6005 NEWINGTON PL, SUFFOLK, VA, 23435",640858695,"R"
254691,"6005 OLD POAG RD","EDWARDSVILLE","IL",62025,38.8144048660001,-89.985743562,191,"6005 OLD POAG RD, EDWARDSVILLE, IL, 62025","Match","Exact","6005 OLD POAG RD, EDWARDSVILLE, IL, 62025",647155359,"R"
254692,"6005 PARK AVE SUITE 501","MEMPHIS","TN",38119,35.0999702460001,-89.860936338,192,"6005 PARK AVE SUITE 501, MEMPHIS, TN, 38119","Match","Exact","6005 PARK AVE, MEMPHIS, TN, 38119",607441974,"R"
254693,"6005 PLUMAS STREET THIRD FLOOR","RENO","NV",89519,39.4719963680001,-119.811255199,193,"6005 PLUMAS STREET THIRD FLOOR, RENO, NV, 89519","Match","Non_Exact","6005 PLUMAS ST, RENO, NV, 89509",107045927,"R"
254694,"6005 RAVENS CREST DRIVE","PLAINSBORO","NJ",8536,40.328246183,-74.553837506,194,"6005 RAVENS CREST DRIVE, PLAINSBORO, NJ, 8536","Match","Exact","6005 RAVENS CREST DR, PLAINSBORO, NJ, 08536",647274874,"R"
254695,"6005 SALEM ROAD SW SUITE B","ROCHESTER","MN",55902,NA,NA,195,"6005 SALEM ROAD SW SUITE B, ROCHESTER, MN, 55902","No_Match",NA,NA,NA,NA
254696,"6005 SENECA CIRCLE","DISCOVERY BAY","CA",94505,37.9189711940001,-121.616912951,196,"6005 SENECA CIRCLE, DISCOVERY BAY, CA, 94505","Match","Exact","6005 SENECA CIR, DISCOVERY BAY, CA, 94505",639326904,"L"
254697,"6005 STATE BRIDGE ROAD","DULUTH","GA",30097,NA,NA,197,"6005 STATE BRIDGE ROAD, DULUTH, GA, 30097","No_Match",NA,NA,NA,NA
254698,"6005 VINTAGE POINT OVERLOOK","MABLETON","GA",30126,NA,NA,198,"6005 VINTAGE POINT OVERLOOK, MABLETON, GA, 30126","No_Match",NA,NA,NA,NA
254699,"6005 W CHARLESTON STREET","BROKEN ARROW","OK",74011,36.006927325,-95.86475401,199,"6005 W CHARLESTON STREET, BROKEN ARROW, OK, 74011","Match","Exact","6005 W CHARLESTON ST, BROKEN ARROW, OK, 74011",642071195,"L"
254700,"6005 W INDIANOLA AVE","PHOENIX","AZ",85033,33.4924145260001,-112.188805922,200,"6005 W INDIANOLA AVE, PHOENIX, AZ, 85033","Match","Exact","6005 W INDIANOLA AVE, PHOENIX, AZ, 85033",128318604,"L"
254701,"6006 147TH AVE SE","BELLEVUE","WA",98006,47.5484781580001,-122.143666611,201,"6006 147TH AVE SE, BELLEVUE, WA, 98006","Match","Exact","6006 147TH AVE SE, BELLEVUE, WA, 98006",239773017,"R"
254702,"6006 17TH AVE NW","SEATTLE","WA",98107,47.6724545660001,-122.378872207,202,"6006 17TH AVE NW, SEATTLE, WA, 98107","Match","Exact","6006 17TH AVE NW, SEATTLE, WA, 98107",186658985,"R"
254703,"6006 BEAU LANE","ORLANDO","FL",32808,28.5861443690001,-81.463878742,203,"6006 BEAU LANE, ORLANDO, FL, 32808","Match","Exact","6006 BEAU LN, ORLANDO, FL, 32808",94268887,"L"
254704,"6006 BELLAIRE BLVD SUITE 101-A","HOUSTON","TX",77081,29.7055288810001,-95.487610535,204,"6006 BELLAIRE BLVD SUITE 101-A, HOUSTON, TX, 77081","Match","Exact","6006 BELLAIRE BLVD, HOUSTON, TX, 77081",96609371,"R"
254705,"6006 BRIDGEFIELD STREET","NORCROSS","GA",30093,33.897882044,-84.193120388,205,"6006 BRIDGEFIELD STREET, NORCROSS, GA, 30093","Match","Exact","6006 BRIDGEFIELD ST, NORCROSS, GA, 30093",647020190,"R"
254706,"6006 BUTTERFLY AVE","DUNSMUIR","CA",96025,41.208091585,-122.27101162,206,"6006 BUTTERFLY AVE, DUNSMUIR, CA, 96025","Match","Exact","6006 BUTTERFLY AVE, DUNSMUIR, CA, 96025",113310741,"R"
254707,"6006 CHANNEL VIEW","SAN ANTONIO","TX",78222,29.37842097,-98.372032041,207,"6006 CHANNEL VIEW, SAN ANTONIO, TX, 78222","Match","Non_Exact","6006 CHANNEL, SAN ANTONIO, TX, 78222",619943471,"R"
254708,"6006 EADS ST NE APT 302","WASHINGTON","DC",20019,38.8958247670001,-76.914851015,208,"6006 EADS ST NE APT 302, WASHINGTON, DC, 20019","Match","Exact","6006 EADS ST NE, WASHINGTON, DC, 20019",76234195,"L"
254709,"6006 EATONS CREEK ROAD","JOELTON","TN",37080,36.3016020430001,-86.884301175,209,"6006 EATONS CREEK ROAD, JOELTON, TN, 37080","Match","Exact","6006 EATONS CREEK RD, JOELTON, TN, 37080",97177382,"R"
254710,"6006 FRONTENAC STREET","PHILADELPHIA","PA",19149,40.0365740730001,-75.0854888439999,210,"6006 FRONTENAC STREET, PHILADELPHIA, PA, 19149","Match","Exact","6006 FRONTENAC ST, PHILADELPHIA, PA, 19149",131426772,"L"
254711,"6006 HWY 63","MOSS POINT","MS",39563,30.4334017360001,-88.52517218,211,"6006 HWY 63, MOSS POINT, MS, 39563","Match","Non_Exact","6006 STATE HWY 63, MOSS POINT, MS, 39563",89268720,"R"
254712,"6006 LONG PEAK DR","ORLANDO","FL",32810,28.6187386390001,-81.458066414,212,"6006 LONG PEAK DR, ORLANDO, FL, 32810","Match","Exact","6006 LONG PEAK DR, ORLANDO, FL, 32810",94341187,"L"
254713,"6006 MAGNOLIA PARK BLVD","RIVERVIEW","FL",33578,27.892205953,-82.35001447,213,"6006 MAGNOLIA PARK BLVD, RIVERVIEW, FL, 33578","Match","Exact","6006 MAGNOLIA PARK BLVD, RIVERVIEW, FL, 33578",646580982,"R"
254714,"6006 MAYCREST AVE","EASTVALE","CA",92880,33.9799958140001,-117.578836585,214,"6006 MAYCREST AVE, EASTVALE, CA, 92880","Match","Exact","6006 MAYCREST AVE, EASTVALE, CA, 92880",626526796,"L"
254715,"6006 MEADOWLARK LANE","CHARLESTON","WV",25312,38.469145208,-81.6722949699999,215,"6006 MEADOWLARK LANE, CHARLESTON, WV, 25312","Match","Exact","6006 MEADOWLARK LN, CHARLESTON, WV, 25312",78611348,"R"
254716,"6006 N 83RD AVE STE 201A","GLENDALE","AZ",85303,33.5244713220001,-112.237664387,216,"6006 N 83RD AVE STE 201A, GLENDALE, AZ, 85303","Match","Non_Exact","6006 N 83RD AVE, GLENDALE, AZ, 85303",128831797,"L"
254717,"6006 N HIGHLANDS AVENUE","MADISON","WI",53705,43.0802833590001,-89.482518442,217,"6006 N HIGHLANDS AVENUE, MADISON, WI, 53705","Match","Exact","6006 N HIGHLANDS AVE, MADISON, WI, 53705",49493698,"R"
254718,"6006 OAK BLUFF TER NUM 201","CHESTER","VA",23831,37.352964521,-77.458901979,218,"6006 OAK BLUFF TER NUM 201, CHESTER, VA, 23831","Match","Exact","6006 OAK BLUFF TER, CHESTER, VA, 23831",616525357,"R"
254719,"6006 S EBERHART","CHICAGO","IL",60637,41.785518429,-87.613276829,219,"6006 S EBERHART, CHICAGO, IL, 60637","Match","Non_Exact","6006 S EBERHART AVE, CHICAGO, IL, 60637",605564283,"R"
254720,"6006 S RYAN STREET","SEATTLE","WA",98178,47.5097002110001,-122.258527955,220,"6006 S RYAN STREET, SEATTLE, WA, 98178","Match","Exact","6006 S RYAN ST, SEATTLE, WA, 98178",186629485,"L"
254721,"6006 THREE CHOPT RD","RICHMOND","VA",23226,NA,NA,221,"6006 THREE CHOPT RD, RICHMOND, VA, 23226","No_Match",NA,NA,NA,NA
254722,"6006 TIFFIN AVE","CASTALIA","OH",44824,41.4041089660001,-82.792801627,222,"6006 TIFFIN AVE, CASTALIA, OH, 44824","Match","Exact","6006 TIFFIN AVE, CASTALIA, OH, 44824",636598107,"R"
254723,"6006 W 159TH ST BLDG B","OAK FOREST","IL",60452,41.6027517850001,-87.7650970129999,223,"6006 W 159TH ST BLDG B, OAK FOREST, IL, 60452","Match","Exact","6006 159TH ST, OAK FOREST, IL, 60452",111869460,"R"
254724,"6007 50TH STREET CT W","UNIVERSITY PLACE","WA",98467,47.2114815410001,-122.518023083,224,"6007 50TH STREET CT W, UNIVERSITY PLACE, WA, 98467","Match","Exact","6007 50TH STREET CT W, UNIVERSITY PLACE, WA, 98467",184713931,"L"
254725,"6007 BEREWICK COMMONS PARKWAY","CHARLOTTE","NC",28278,35.156468369,-80.980106715,225,"6007 BEREWICK COMMONS PARKWAY, CHARLOTTE, NC, 28278","Match","Exact","6007 BEREWICK COMMONS PKWY, CHARLOTTE, NC, 28278",635657254,"R"
254726,"6007 CULROSS CLOSE","HUMBLE","TX",77347,NA,NA,226,"6007 CULROSS CLOSE, HUMBLE, TX, 77347","No_Match",NA,NA,NA,NA
254727,"6007 DIAMOND BAY CT","HOUSTON","TX",77041,29.856325531,-95.593599076,227,"6007 DIAMOND BAY CT, HOUSTON, TX, 77041","Match","Exact","6007 DIAMOND BAY CT, HOUSTON, TX, 77041",636958421,"R"
254728,"6007 E 14TH STREET","KANSAS CITY","MO",64126,39.0948477090001,-94.5121686689999,228,"6007 E 14TH STREET, KANSAS CITY, MO, 64126","Match","Exact","6007 E 14TH ST, KANSAS CITY, MO, 64126",91458684,"R"
254729,"6007 FINANCIAL PLAZA SUITE 5C","SHREVEPORT","LA",71129,NA,NA,229,"6007 FINANCIAL PLAZA SUITE 5C, SHREVEPORT, LA, 71129","No_Match",NA,NA,NA,NA
254730,"6007 LAKE BREEZE ROAD","GROVE","OK",74344,36.5922198750001,-94.838727815,230,"6007 LAKE BREEZE ROAD, GROVE, OK, 74344","Match","Exact","6007 LAKE BREEZE RD, GROVE, OK, 74344",613661843,"L"
254731,"6007 LINDSEY ROAD","PITTSVILLE","WI",54466,44.463922262,-90.300018527,231,"6007 LINDSEY ROAD, PITTSVILLE, WI, 54466","Match","Exact","6007 LINDSEY RD, PITTSVILLE, WI, 54466",51280083,"L"
254732,"6007 N SHERIDAN RD APT 33A","CHICAGO","IL",60660,NA,NA,232,"6007 N SHERIDAN RD APT 33A, CHICAGO, IL, 60660","No_Match",NA,NA,NA,NA
254733,"6007 NANCE RD","SANGER","TX",76266,33.390510803,-97.2310434349999,233,"6007 NANCE RD, SANGER, TX, 76266","Match","Exact","6007 NANCE RD, SANGER, TX, 76266",218055225,"L"
254734,"6007 S BOWIE ST","AMARILLO","TX",79118,35.146600279,-101.858373793,234,"6007 S BOWIE ST, AMARILLO, TX, 79118","Match","Exact","6007 BOWIE ST, AMARILLO, TX, 79118",600387624,"L"
254735,"6007 S RUBY RIDGE CV","SALT LAKE CITY","UT",84121,40.6420544320001,-111.833908115,235,"6007 S RUBY RIDGE CV, SALT LAKE CITY, UT, 84121","Match","Exact","6007 S RUBY RIDGE COVE, SALT LAKE CITY, UT, 84121",604581272,"L"
254736,"6007 SWEET PEA CT","ALEXANDRIA","VA",22310,38.783964714,-77.139092529,236,"6007 SWEET PEA CT, ALEXANDRIA, VA, 22310","Match","Exact","6007 SWEET PEA CT, ALEXANDRIA, VA, 22310",76016593,"R"
254737,"6007 TREEHILLS PKWY","STONE MOUNTAIN","GA",30088,33.753284412,-84.186977871,237,"6007 TREEHILLS PKWY, STONE MOUNTAIN, GA, 30088","Match","Exact","6007 TREEHILLS PKWY, STONE MOUNTAIN, GA, 30088",614077038,"L"
254738,"6007 TURTLE RIVER AVENUE","LAS VEGAS","NV",89156,36.2089568960001,-115.041233657,238,"6007 TURTLE RIVER AVENUE, LAS VEGAS, NV, 89156","Match","Exact","6007 TURTLE RIVER AVE, LAS VEGAS, NV, 89156",201977736,"R"
254739,"6007 VETERANS PARKWAY","COLUMBUS","GA",31909,32.5286718620001,-84.959185573,239,"6007 VETERANS PARKWAY, COLUMBUS, GA, 31909","Match","Exact","6007 VETERANS PKWY, COLUMBUS, GA, 31909",98953840,"L"
254740,"6007 W 146TH TERRACE","OVERLAND PARK","KS",66223,38.8632382860001,-94.65767046,240,"6007 W 146TH TERRACE, OVERLAND PARK, KS, 66223","Match","Exact","6007 W 146TH TER, OVERLAND PARK, KS, 66223",91324441,"R"
254741,"6008 8TH AVENUE","BROOKLYN","NY",11220,40.6354112710001,-74.009648904,241,"6008 8TH AVENUE, BROOKLYN, NY, 11220","Match","Exact","6008 8TH AVE, BROOKLYN, NY, 11220",59094631,"R"
254742,"6008 ATHENS BEACH DRIVE NW","OLYMPIA","WA",98502,47.11663766,-122.924887596,242,"6008 ATHENS BEACH DRIVE NW, OLYMPIA, WA, 98502","Match","Exact","6008 ATHENS BEACH DR NW, OLYMPIA, WA, 98502",180941945,"R"
254743,"6008 BAYWOOD AVENUE","BALTIMORE","MD",21209,39.3627319510001,-76.683016688,243,"6008 BAYWOOD AVENUE, BALTIMORE, MD, 21209","Match","Exact","6008 BAYWOOD AVE, BALTIMORE, MD, 21209",206404742,"L"
254744,"6008 BIXBY VILLAGE DR UNIT 31","LONG BEACH","CA",90803,33.7713580220001,-118.114165398,244,"6008 BIXBY VILLAGE DR UNIT 31, LONG BEACH, CA, 90803","Match","Exact","6008 BIXBY VILLAGE DR, LONG BEACH, CA, 90803",142662032,"L"
254745,"6008 BUCK LAKE ROAD","TALLAHASSEE","FL",32317,30.4635402260001,-84.175691608,245,"6008 BUCK LAKE ROAD, TALLAHASSEE, FL, 32317","Match","Exact","6008 BUCK LAKE RD, TALLAHASSEE, FL, 32317",82857601,"L"
254746,"6008 FM 433 E","VERNON","TX",76384,34.1053217580001,-99.248539762,246,"6008 FM 433 E, VERNON, TX, 76384","Match","Exact","6008 FM 433 E, VERNON, TX, 76384",183242984,"R"
254747,"6008 HIGHLANDS PARKWAY","COLUMBIA","MO",65203,38.8856826750001,-92.365499369,247,"6008 HIGHLANDS PARKWAY, COLUMBIA, MO, 65203","Match","Exact","6008 HIGHLANDS PKWY, COLUMBIA, MO, 65203",604996323,"R"
254748,"6008 HUDSON AVE APT 509","WEST NEW YORK","NJ",7093,40.7872753620001,-74.012389401,248,"6008 HUDSON AVE APT 509, WEST NEW YORK, NJ, 7093","Match","Exact","6008 HUDSON AVE, WEST NEW YORK, NJ, 07093",59598902,"R"
254749,"6008 HWY 44","GONZALES","LA",70737,30.1547995330001,-90.921514673,249,"6008 HWY 44, GONZALES, LA, 70737","Match","Non_Exact","6008 STATE RTE 44, GONZALES, LA, 70737",638986277,"R"
254750,"6008 MCABEE ROAD","SAN JOSE","CA",95120,37.2339847150001,-121.875783798,250,"6008 MCABEE ROAD, SAN JOSE, CA, 95120","Match","Exact","6008 MCABEE RD, SAN JOSE, CA, 95120",122991237,"L"
254751,"6008 NEWTOWN AVENUE","PHILADELPHIA","PA",19111,40.0486574270001,-75.106021362,251,"6008 NEWTOWN AVENUE, PHILADELPHIA, PA, 19111","Match","Exact","6008 NEWTOWN AVE, PHILADELPHIA, PA, 19111",652463379,"L"
254752,"6008 PARKWAY DRIVE","LAUREL","MD",20707,39.108643756,-76.902564511,252,"6008 PARKWAY DRIVE, LAUREL, MD, 20707","Match","Exact","6008 PARKWAY DR, LAUREL, MD, 20707",76338654,"L"
254753,"6008 PINEBROOK DRIVE","MONTGOMERY","AL",36601,32.389973195,-86.198184853,253,"6008 PINEBROOK DRIVE, MONTGOMERY, AL, 36601","Match","Non_Exact","6008 PINEBROOK DR, MONTGOMERY, AL, 36117",1472644,"L"
254754,"6008 SPRINGHILL DR APT 204","GREENBELT","MD",20770,39.00625075,-76.9041866219999,254,"6008 SPRINGHILL DR APT 204, GREENBELT, MD, 20770","Match","Exact","6008 SPRINGHILL DR, GREENBELT, MD, 20770",76365099,"L"
254755,"6008 SUMMERSTON PLACE","CHARLOTTE","NC",28277,35.074299325,-80.781068647,255,"6008 SUMMERSTON PLACE, CHARLOTTE, NC, 28277","Match","Exact","6008 SUMMERSTON PL, CHARLOTTE, NC, 28277",70561497,"L"
254756,"6008 YOUREE DRIVE","SHREVEPORT","LA",71105,32.4528145190001,-93.722163138,256,"6008 YOUREE DRIVE, SHREVEPORT, LA, 71105","Match","Exact","6008 YOUREE DR, SHREVEPORT, LA, 71105",57441327,"R"
254757,"6009 137TH PL SW","EDMONDS","WA",98026,47.8738391630001,-122.314762949,257,"6009 137TH PL SW, EDMONDS, WA, 98026","Match","Exact","6009 137TH PL SW, EDMONDS, WA, 98026",608935807,"L"
254758,"6009 CANADICE HILL ROAD","SPRINGWATER","NY",14560,42.733196552,-77.540552862,258,"6009 CANADICE HILL ROAD, SPRINGWATER, NY, 14560","Match","Exact","6009 CANADICE HILL RD, SPRINGWATER, NY, 14560",13478880,"R"
254759,"6009 CAPITOL BOULEVARD SW SUITE 103","TUMWATER","WA",98501,46.9950623120001,-122.907595186,259,"6009 CAPITOL BOULEVARD SW SUITE 103, TUMWATER, WA, 98501","Match","Exact","6009 CAPITOL BLVD SW, TUMWATER, WA, 98501",180945539,"R"
254760,"6009 CHARLES ST","BALTIMORE","MD",21207,39.3011268070001,-76.728339304,260,"6009 CHARLES ST, BALTIMORE, MD, 21207","Match","Exact","6009 CHARLES ST, BALTIMORE, MD, 21207",191499045,"L"
254761,"6009 FRIENDSHIP LANE","KNOXVILLE","TN",37912,36.010592419,-83.996119461,261,"6009 FRIENDSHIP LANE, KNOXVILLE, TN, 37912","Match","Exact","6009 FRIENDSHIP LN, KNOXVILLE, TN, 37912",645246372,"L"
254762,"6009 GLEN ABBEY CT","GARLAND","TX",75044,32.9695682380001,-96.635986679,262,"6009 GLEN ABBEY CT, GARLAND, TX, 75044","Match","Exact","6009 GLEN ABBEY CT, GARLAND, TX, 75044",103211895,"L"
254763,"6009 HERITAGE STATION ROAD","BELLEVILLE","IL",62223,38.5313560280001,-90.0372336789999,263,"6009 HERITAGE STATION ROAD, BELLEVILLE, IL, 62223","Match","Exact","6009 HERITAGE STATION RD, BELLEVILLE, IL, 62223",107839033,"R"
254764,"6009 HERON POND DRIVE","PORT ORANGE","FL",32129,29.080082223,-81.0343208689999,264,"6009 HERON POND DRIVE, PORT ORANGE, FL, 32129","Match","Non_Exact","6009 HERON POND DR, PORT ORANGE, FL, 32128",94564019,"R"
254765,"6009 MACON CIRCLE","HUNTSVILLE","AL",35802,34.683309255,-86.5576692389999,265,"6009 MACON CIRCLE, HUNTSVILLE, AL, 35802","Match","Non_Exact","6009 MACON CIR SE, HUNTSVILLE, AL, 35802",58121513,"L"
254766,"6009 MANNINGTON AVE","BALTIMORE","MD",21206,39.346381588,-76.5286639409999,266,"6009 MANNINGTON AVE, BALTIMORE, MD, 21206","Match","Exact","6009 MANNINGTON AVE, BALTIMORE, MD, 21206",191477820,"R"
254767,"6009 MORNINGSIDE DR","RICHMOND","VA",23226,37.5895305290001,-77.513594161,267,"6009 MORNINGSIDE DR, RICHMOND, VA, 23226","Match","Exact","6009 MORNINGSIDE DR, RICHMOND, VA, 23226",106647091,"L"
254768,"6009 N 6TH AVE","PORTLAND","OR",97211,45.5665801330001,-122.659382676,268,"6009 N 6TH AVE, PORTLAND, OR, 97211","Match","Non_Exact","6009 NE 6TH AVE, PORTLAND, OR, 97211",157503811,"L"
254769,"6009 NORTH COUNTY ROAD 1150","MIDLAND","TX",79705,32.07793538,-102.036828562,269,"6009 NORTH COUNTY ROAD 1150, MIDLAND, TX, 79705","Match","Exact","6009 N CO RD 1150, MIDLAND, TX, 79705",642977847,"L"
254770,"6009 POURING GLORIES WAY","CLARKSVILLE","MD",21029,39.2078574430001,-76.934289758,270,"6009 POURING GLORIES WAY, CLARKSVILLE, MD, 21029","Match","Exact","6009 POURING GLORIES WAY, CLARKSVILLE, MD, 21029",614148583,"R"
254771,"6009 PRINCESS BLDV","BIRMINGHAM","AL",35215,33.6724203200001,-86.6865684479999,271,"6009 PRINCESS BLDV, BIRMINGHAM, AL, 35215","Match","Non_Exact","6009 PRINCESS BLVD, BIRMINGHAM, AL, 35215",81771392,"R"
254772,"6009 RANCHVIEW COURT","PARKER","TX",75002,33.046815671,-96.614280489,272,"6009 RANCHVIEW COURT, PARKER, TX, 75002","Match","Exact","6009 RANCHVIEW CT, PARKER, TX, 75002",123496571,"L"
254773,"6009 RIO VISTA AVE","CORPUS CHRISTI","TX",78412,27.716555321,-97.3392744939999,273,"6009 RIO VISTA AVE, CORPUS CHRISTI, TX, 78412","Match","Exact","6009 RIO VISTA AVE, CORPUS CHRISTI, TX, 78412",178522054,"R"
254774,"6009 RUSK AVE","EL PASO","TX",79905,31.7624632700001,-106.414905555,274,"6009 RUSK AVE, EL PASO, TX, 79905","Match","Exact","6009 RUSK AVE, EL PASO, TX, 79905",189345680,"L"
254775,"6009 RUTHERFORD LN","FAIRHOPE","AL",36532,30.511620366,-87.9198522189999,275,"6009 RUTHERFORD LN, FAIRHOPE, AL, 36532","Match","Exact","6009 RUTHERFORD LN, FAIRHOPE, AL, 36532",652958739,"L"
254776,"6009 SE WALKERS CAY COURT","STUART","FL",34997,27.1318574910001,-80.196308833,276,"6009 SE WALKERS CAY COURT, STUART, FL, 34997","Match","Exact","6009 SE WALKERS CAY CT, STUART, FL, 34997",120429281,"L"
254777,"6009 SILVERLEAF DRIVE S","FARGO","ND",58104,46.7932435970001,-96.824705307,277,"6009 SILVERLEAF DRIVE S, FARGO, ND, 58104","Match","Exact","6009 SILVERLEAF DR S, FARGO, ND, 58104",618486450,"R"
254778,"6009 SIX MILE LANE","LOUISVILLE","KY",40218,38.197581687,-85.64700031,278,"6009 SIX MILE LANE, LOUISVILLE, KY, 40218","Match","Exact","6009 SIX MILE LN, LOUISVILLE, KY, 40218",639481580,"R"
254779,"6009 SOUTHPORT DRIVE","BETHESDA","MD",20814,39.0217998530001,-77.11925504,279,"6009 SOUTHPORT DRIVE, BETHESDA, MD, 20814","Match","Exact","6009 SOUTHPORT DR, BETHESDA, MD, 20814",62056745,"R"
254780,"6009 SWEETWATER COURT","FREDERICK","MD",21703,39.3971992130001,-77.50257808,280,"6009 SWEETWATER COURT, FREDERICK, MD, 21703","Match","Exact","6009 SWEETWATER CT, FREDERICK, MD, 21703",60703178,"R"
254781,"6009 W 34TH ST N","WICHITA","KS",67205,37.746562822,-97.4127927439999,281,"6009 W 34TH ST N, WICHITA, KS, 67205","Match","Exact","6009 W 34TH ST N, WICHITA, KS, 67205",115716239,"L"
254782,"6009 W PARKER RD   STE 149 BOX 295","PLANO","TX",75093,33.045296797,-96.831626645,282,"6009 W PARKER RD   STE 149 BOX 295, PLANO, TX, 75093","Match","Non_Exact","6009 W PARKER RD, PLANO, TX, 75093",210508639,"L"
254783,"6009 W PARKER RD 149-345","PLANO","TX",75093,33.045296797,-96.831626645,283,"6009 W PARKER RD 149-345, PLANO, TX, 75093","Match","Non_Exact","6009 W PARKER RD, PLANO, TX, 75093",210508639,"L"
254784,"6009 WATERMELON STREET","NORTH LAS VEGAS","NV",89081,36.270093581,-115.08879677,284,"6009 WATERMELON STREET, NORTH LAS VEGAS, NV, 89081","Match","Exact","6009 WATERMELON ST, N LAS VEGAS, NV, 89081",626862647,"R"
254785,"6009 WATERWAY DRIVE","GARLAND","TX",75043,32.8421391730001,-96.56380889,285,"6009 WATERWAY DRIVE, GARLAND, TX, 75043","Match","Exact","6009 WATERWAY DR, GARLAND, TX, 75043",635762899,"L"
254786,"6009 WEST PARKER RD SUITE 149-275","PLANO","TX",75093,33.045296797,-96.831599992,286,"6009 WEST PARKER RD SUITE 149-275, PLANO, TX, 75093","Match","Exact","6009 W PARKER RD, PLANO, TX, 75093",210508639,"L"
254787,"6009 WEST PARKER RD UNIT 299","PLANO","TX",75093,33.045296797,-96.831599992,287,"6009 WEST PARKER RD UNIT 299, PLANO, TX, 75093","Match","Exact","6009 W PARKER RD, PLANO, TX, 75093",210508639,"L"
254788,"6009 WEST PARKER ROAD 149-898","PLANO","TX",75093,33.045296797,-96.831599992,288,"6009 WEST PARKER ROAD 149-898, PLANO, TX, 75093","Match","Exact","6009 W PARKER RD, PLANO, TX, 75093",210508639,"L"
254789,"6009 WEST PARKER ROAD/SUITE 149","PLANO","TX",75093,33.045296797,-96.831599992,289,"6009 WEST PARKER ROAD/SUITE 149, PLANO, TX, 75093","Match","Non_Exact","6009 W PARKER RD, PLANO, TX, 75093",210508639,"L"
254790,"6009 WISTER STREET","PHILADELPHIA","PA",19138,40.0453442200001,-75.1581912,290,"6009 WISTER STREET, PHILADELPHIA, PA, 19138","Match","Exact","6009 WISTER ST, PHILADELPHIA, PA, 19138",131413448,"R"
254791,"6009 WOODLAND AVE","KANSAS CITY","MO",64110,39.0173218,-94.566058751,291,"6009 WOODLAND AVE, KANSAS CITY, MO, 64110","Match","Exact","6009 WOODLAND AVE, KANSAS CITY, MO, 64110",91482559,"L"
254792,"60092","RENTON","WA",98058,NA,NA,292,"60092, RENTON, WA, 98058","No_Match",NA,NA,NA,NA
254793,"600A 25TH AVE NW","AUSTIN","MN",55912,43.693712336,-92.9817731539999,293,"600A 25TH AVE NW, AUSTIN, MN, 55912","Match","Exact","600 25TH AVE NW, AUSTIN, MN, 55912",636675112,"R"
254794,"600A SOUTH BLVD","EVANSTON","IL",60202,42.027740196,-87.6791577559999,294,"600A SOUTH BLVD, EVANSTON, IL, 60202","Match","Exact","600 SOUTH BLVD, EVANSTON, IL, 60202",111745021,"L"
254795,"600A WEST BROAD STREET","QUAKERTOWN","PA",18951,40.4417320860001,-75.3417320779999,295,"600A WEST BROAD STREET, QUAKERTOWN, PA, 18951","Match","Exact","600 W BROAD ST, QUAKERTOWN, PA, 18951",134696696,"R"
254796,"600B ABRUZZI DR STE 119","CHESTER","MD",21619,38.972820438,-76.264514946,296,"600B ABRUZZI DR STE 119, CHESTER, MD, 21619","Match","Exact","600 ABRUZZI DR, CHESTER, MD, 21619",653271634,"L"
254797,"600B E 3RD ST","BIG SPRING","TX",79720,32.254736166,-101.471150542,297,"600B E 3RD ST, BIG SPRING, TX, 79720","Match","Exact","600 E 3RD ST, BIG SPRING, TX, 79720",182873069,"R"
254798,"601 1/2 HWY 10 EAST","DETROIT LAKES","MN",56501,NA,NA,298,"601 1/2 HWY 10 EAST, DETROIT LAKES, MN, 56501","No_Match",NA,NA,NA,NA
254799,"601 13TH ST","EAST MOLINE","IL",61244,41.52662496,-90.4288111499999,299,"601 13TH ST, EAST MOLINE, IL, 61244","Match","Exact","601 13TH ST, EAST MOLINE, IL, 61244",9214189,"R"
254800,"601 13TH ST","MONETT","MO",65708,36.9259951280001,-93.9139286399999,300,"601 13TH ST, MONETT, MO, 65708","Match","Exact","601 13TH ST, MONETT, MO, 65708",49396714,"R"
254801,"601 13TH STREET NW   11TH FLOOR","WASHINGTON","DC",20005,38.897420647,-77.0296115949999,301,"601 13TH STREET NW   11TH FLOOR, WASHINGTON, DC, 20005","Match","Exact","601 13TH ST NW, WASHINGTON, DC, 20005",76226300,"R"
254802,"601 13TH STREET NW SUITE 900","SOUTH WASHINGTON DC","DC",20005,38.897420647,-77.0296115949999,302,"601 13TH STREET NW SUITE 900, SOUTH WASHINGTON DC, DC, 20005","Match","Non_Exact","601 13TH ST NW, WASHINGTON, DC, 20005",76226300,"R"
254803,"601 13TH STREET NW","WASHINGTON","DC",20005,38.897420647,-77.0296115949999,303,"601 13TH STREET NW, WASHINGTON, DC, 20005","Match","Exact","601 13TH ST NW, WASHINGTON, DC, 20005",76226300,"R"
254804,"601 15TH STREET NE","WASHINGTON","DC",20002,38.8973561080001,-76.983636841,304,"601 15TH STREET NE, WASHINGTON, DC, 20002","Match","Exact","601 15TH ST NE, WASHINGTON, DC, 20002",76230419,"R"
254805,"601 16TH AVE S","NAMPA","ID",83651,43.572106987,-116.560569294,305,"601 16TH AVE S, NAMPA, ID, 83651","Match","Exact","601 16TH AVE S, NAMPA, ID, 83651",122787210,"L"
254806,"601 17TH AVENUE SOUTH","SAINT PETERSBURG","FL",33701,27.753476891,-82.640523053,306,"601 17TH AVENUE SOUTH, SAINT PETERSBURG, FL, 33701","Match","Exact","601 17TH AVE S, SAINT PETERSBURG, FL, 33701",124708542,"R"
254807,"601 1ST STREET","JONESVILLE","LA",71343,NA,NA,307,"601 1ST STREET, JONESVILLE, LA, 71343","No_Match",NA,NA,NA,NA
254808,"601 21ST STREET","BEAUMONT","TX",77706,30.086427373,-94.141160025,308,"601 21ST STREET, BEAUMONT, TX, 77706","Match","Exact","601 21ST ST, BEAUMONT, TX, 77706",73852895,"L"
254809,"601 26 AVENUE EAST","WEST FARGO","ND",58078,NA,NA,309,"601 26 AVENUE EAST, WEST FARGO, ND, 58078","No_Match",NA,NA,NA,NA
254810,"601 26TH AVE N","MINNEAPOIS","MN",55411,45.005909597,-93.286560815,310,"601 26TH AVE N, MINNEAPOIS, MN, 55411","Match","Non_Exact","601 26TH AVE N, MINNEAPOLIS, MN, 55411",43622568,"L"
254811,"601 26TH AVENUE SOUTH","ST PETERSBURG","FL",33712,27.744847937,-82.6409321209999,311,"601 26TH AVENUE SOUTH, ST PETERSBURG, FL, 33712","Match","Non_Exact","601 26TH AVE S, SAINT PETERSBURG, FL, 33705",124710932,"R"
254812,"601 38TH STREET SOUTH","ST PETERSBURG","FL",33711,27.765168386,-82.6850738369999,312,"601 38TH STREET SOUTH, ST PETERSBURG, FL, 33711","Match","Exact","601 38TH ST S, SAINT PETERSBURG, FL, 33711",124705387,"R"
254813,"601 45TH STREET SOUTH","ST PETERSBURG","FL",33711,27.7645542160001,-82.694369369,313,"601 45TH STREET SOUTH, ST PETERSBURG, FL, 33711","Match","Exact","601 45TH ST S, SAINT PETERSBURG, FL, 33711",124700815,"R"
254814,"601 4TH AVE E","OLYMPIA","WA",98501,47.045321157,-122.895399308,314,"601 4TH AVE E, OLYMPIA, WA, 98501","Match","Exact","601 4TH AVE E, OLYMPIA, WA, 98501",180944225,"R"
254815,"601 4TH ST PO BOX 338","AUDUBON","MN",56511,46.863871497,-95.981829725,315,"601 4TH ST PO BOX 338, AUDUBON, MN, 56511","Match","Exact","601 4TH ST, AUDUBON, MN, 56511",167952081,"R"
254816,"601 54TH ST","GALVESTON","TX",77551,29.294344778,-94.8287007439999,316,"601 54TH ST, GALVESTON, TX, 77551","Match","Exact","601 54TH ST, GALVESTON, TX, 77551",636289401,"R"
254817,"601 5TH PO BOX 566","EDGEMONT","SD",57735,43.2988704750001,-103.829462012,317,"601 5TH PO BOX 566, EDGEMONT, SD, 57735","Match","Non_Exact","601 5TH AVE, EDGEMONT, SD, 57735",174183329,"R"
254818,"601 65TH STREET","WEST NEW YORK","NJ",7093,40.7943561180001,-74.016799998,318,"601 65TH STREET, WEST NEW YORK, NJ, 7093","Match","Exact","601 65TH ST, WEST NEW YORK, NJ, 07093",59598527,"L"
254819,"601 70 AVE N APT 214","BROOKLYN CENTER","MN",55430,NA,NA,319,"601 70 AVE N APT 214, BROOKLYN CENTER, MN, 55430","No_Match",NA,NA,NA,NA
254820,"601 7TH STREET","IRETON","IA",51027,42.971804729,-96.3190319459999,320,"601 7TH STREET, IRETON, IA, 51027","Match","Exact","601 7TH ST, IRETON, IA, 51027",93367243,"L"
254821,"601 8TH ST","LAUREL","MD",20707,39.10293584,-76.857378296,321,"601 8TH ST, LAUREL, MD, 20707","Match","Exact","601 8TH ST, LAUREL, MD, 20707",76325611,"R"
254822,"601 ABBEY DRIVE","WOODSTOCK","GA",30188,34.0911635690001,-84.478324876,322,"601 ABBEY DRIVE, WOODSTOCK, GA, 30188","Match","Exact","601 ABBEY DR, WOODSTOCK, GA, 30188",617673953,"R"
254823,"601 ABRAHAM CIRCLE","APEX","NC",27502,35.727044812,-78.8620210619999,323,"601 ABRAHAM CIRCLE, APEX, NC, 27502","Match","Exact","601 ABRAHAM CIR, APEX, NC, 27502",72493717,"L"
254824,"601 ALISO DRIVE SE","ALBUQUERQUE","NM",87109,35.0720885480001,-106.601058722,324,"601 ALISO DRIVE SE, ALBUQUERQUE, NM, 87109","Match","Non_Exact","601 ALISO DR SE, ALBUQUERQUE, NM, 87108",206710511,"R"
254825,"601 ANDERSON STREET","GREENVILLE","SC",29601,34.836186904,-82.414815513,325,"601 ANDERSON STREET, GREENVILLE, SC, 29601","Match","Exact","601 ANDERSON ST, GREENVILLE, SC, 29601",38300400,"L"
254826,"601 ANNAKA LOOP","CHESAPEAKE","VA",23323,36.760280261,-76.349419331,326,"601 ANNAKA LOOP, CHESAPEAKE, VA, 23323","Match","Exact","601 ANNAKA LOOP, CHESAPEAKE, VA, 23323",635105937,"R"
254827,"601 ANSON AVE","ABILENE","TX",79601,32.4867630470001,-99.725999434,327,"601 ANSON AVE, ABILENE, TX, 79601","Match","Exact","601 ANSON AVE, ABILENE, TX, 79601",129961672,"L"
254828,"601 BADGER DRIVE","JACKSON","MS",39213,NA,NA,328,"601 BADGER DRIVE, JACKSON, MS, 39213","No_Match",NA,NA,NA,NA
254829,"601 BALFOUR DR","WINDCREST","TN",78239,NA,NA,329,"601 BALFOUR DR, WINDCREST, TN, 78239","No_Match",NA,NA,NA,NA
254830,"601 BARNHART ROAD","TROY","OH",45373,40.029716707,-84.2397227719999,330,"601 BARNHART ROAD, TROY, OH, 45373","Match","Exact","601 BARNHART RD, TROY, OH, 45373",641747577,"L"
254831,"601 BEAR RIVER DRIVE","EVANSTON","WY",82930,41.264877703,-110.932929179,331,"601 BEAR RIVER DRIVE, EVANSTON, WY, 82930","Match","Exact","601 BEAR RIVER DR, EVANSTON, WY, 82930",160260096,"L"
254832,"601 BEAUMONT BLVD","PACIFICA","CA",94044,37.651874058,-122.484152527,332,"601 BEAUMONT BLVD, PACIFICA, CA, 94044","Match","Exact","601 BEAUMONT BLVD, PACIFICA, CA, 94044",192369343,"L"
254833,"601 BEECH STREET","CLARE","MI",48617,43.8197275730001,-84.7704702089999,333,"601 BEECH STREET, CLARE, MI, 48617","Match","Exact","601 BEECH ST, CLARE, MI, 48617",110377472,"L"
254834,"601 BEECHWOOD DRIVE","BONAIRE","GA",31005,32.5637271260001,-83.645393354,334,"601 BEECHWOOD DRIVE, BONAIRE, GA, 31005","Match","Exact","601 BEECHWOOD DR, BONAIRE, GA, 31005",618740273,"L"
254835,"601 BEL AIR BLVD  307","MOBILE","AL",36606,30.670641405,-88.117949256,335,"601 BEL AIR BLVD  307, MOBILE, AL, 36606","Match","Exact","601 BEL AIR BLVD, MOBILE, AL, 36606",61931229,"R"
254836,"601 BEL AIR BLVD STE 404","MOBILE","AL",36606,30.670641405,-88.117949256,336,"601 BEL AIR BLVD STE 404, MOBILE, AL, 36606","Match","Exact","601 BEL AIR BLVD, MOBILE, AL, 36606",61931229,"R"
254837,"601 BERRYMAN AVENUE","DANVILLE","VA",24541,36.5802996050001,-79.391765842,337,"601 BERRYMAN AVENUE, DANVILLE, VA, 24541","Match","Exact","601 BERRYMAN AVE, DANVILLE, VA, 24541",56590221,"L"
254838,"601 BLACKSTONE VILLAGE","MERIDEN","CT",6450,41.552682141,-72.7828602119999,338,"601 BLACKSTONE VILLAGE, MERIDEN, CT, 6450","Match","Exact","601 BLACKSTONE VILLAGE, MERIDEN, CT, 06450",636503611,"L"
254839,"601 BLUE RIDGE ROAD","COLUMBIA","MO",65202,38.9831855950001,-92.331436717,339,"601 BLUE RIDGE ROAD, COLUMBIA, MO, 65202","Match","Exact","601 BLUE RIDGE RD, COLUMBIA, MO, 65202",643933524,"L"
254840,"601 BLUE RIDGE","COLUMBIA","MO",65202,38.9831855950001,-92.331436717,340,"601 BLUE RIDGE, COLUMBIA, MO, 65202","Match","Non_Exact","601 BLUE RIDGE RD, COLUMBIA, MO, 65202",643933524,"L"
254841,"601 BONNABEL BLVD","METAIRIE","LA",70005,29.999411351,-90.142698547,341,"601 BONNABEL BLVD, METAIRIE, LA, 70005","Match","Exact","601 BONNABEL BLVD, METAIRIE, LA, 70005",93502993,"R"
254842,"601 BRICKELL KEY DR - STE 700","MIAMI","FL",33131,25.766708199,-80.185043438,342,"601 BRICKELL KEY DR - STE 700, MIAMI, FL, 33131","Match","Exact","601 BRICKELL KEY DR, MIAMI, FL, 33131",650066552,"L"
254843,"601 BROAD STREET SE SUITE C","GAINESVILLE","GA",30501,NA,NA,343,"601 BROAD STREET SE SUITE C, GAINESVILLE, GA, 30501","No_Match",NA,NA,NA,NA
254844,"601 BROOKMEDE DRIVE","MOUNT STERLING","KY",40380,38.051464019,-83.957569549,344,"601 BROOKMEDE DRIVE, MOUNT STERLING, KY, 40380","Match","Non_Exact","601 BROOKMEDE DR, MT STERLING, KY, 40353",32035801,"L"
254845,"601 BRYDEN AVE","LEWISTON","ID",83501,46.3805642940001,-117.001859167,345,"601 BRYDEN AVE, LEWISTON, ID, 83501","Match","Exact","601 BRYDEN AVE, LEWISTON, ID, 83501",173141880,"R"
254846,"601 BURGESS ST APT 2","SAINT PAUL","MN",55103,44.9683719270001,-93.124087978,346,"601 BURGESS ST APT 2, SAINT PAUL, MN, 55103","Match","Exact","601 BURGESS ST, SAINT PAUL, MN, 55103",97643804,"R"
254847,"601 BUS LOOP 70 ST 241","COLUMBIA","MO",65202,NA,NA,347,"601 BUS LOOP 70 ST 241, COLUMBIA, MO, 65202","No_Match",NA,NA,NA,NA
254848,"601 BUSINESS CENTRE DRIVE","LANSING","MI",48917,42.7279637070001,-84.5896364399999,348,"601 BUSINESS CENTRE DRIVE, LANSING, MI, 48917","Match","Non_Exact","601 BUS CENTRE DR, LANSING, MI, 48917",636257733,"L"
254849,"601 CALLE MIGUEL","SAN CLEMENTE","CA",92672,33.4370731110001,-117.613624573,349,"601 CALLE MIGUEL, SAN CLEMENTE, CA, 92672","Match","Non_Exact","601 CLL MIGUEL, SAN CLEMENTE, CA, 92672",144075794,"L"
254850,"601 CAMP ST","KILGORE","TX",75662,32.3605146150001,-94.8749735499999,350,"601 CAMP ST, KILGORE, TX, 75662","Match","Exact","601 CAMP ST, KILGORE, TX, 75662",79628328,"L"
254851,"601 CAMPBELL AVE SW","ROANOKE","VA",24016,37.2710981480001,-79.952542984,351,"601 CAMPBELL AVE SW, ROANOKE, VA, 24016","Match","Exact","601 CAMPBELL AVE SW, ROANOKE, VA, 24016",640190777,"R"
254852,"601 CANNERY AVENUE STE 415","SACRAMENTO","CA",95811,38.597931354,-121.490956142,352,"601 CANNERY AVENUE STE 415, SACRAMENTO, CA, 95811","Match","Exact","601 CANNERY AVE, SACRAMENTO, CA, 95811",640792793,"L"
254853,"601 CANOE COURT","ALBANY","GA",31721,31.569651207,-84.255560026,353,"601 CANOE COURT, ALBANY, GA, 31721","Match","Exact","601 CANOE CT, ALBANY, GA, 31721",84312161,"L"
254854,"601 CANOE CREEK DR","HENDERSON","KY",42420,37.816740854,-87.604180871,354,"601 CANOE CREEK DR, HENDERSON, KY, 42420","Match","Exact","601 CANOE CREEK DR, HENDERSON, KY, 42420",57944657,"L"
254855,"601 CANYON RD","SANTA FE","NM",87501,35.681903511,-105.928993225,355,"601 CANYON RD, SANTA FE, NM, 87501","Match","Exact","601 CANYON RD, SANTA FE, NM, 87501",612403407,"L"
254856,"601 CARSON","SAN ANTONIO","TX",78208,29.441570739,-98.46698693,356,"601 CARSON, SAN ANTONIO, TX, 78208","Match","Non_Exact","601 E CARSON, SAN ANTONIO, TX, 78208",101525313,"L"
254857,"601 CENTER WAY","LAKE JACKSON","TX",77566,29.0353380980001,-95.432673576,357,"601 CENTER WAY, LAKE JACKSON, TX, 77566","Match","Exact","601 CENTER WAY, LAKE JACKSON, TX, 77566",116579864,"L"
254858,"601 CENTRAL AVE-3","BUELLTON","CA",93427,34.618176723,-120.192040931,358,"601 CENTRAL AVE-3, BUELLTON, CA, 93427","Match","Non_Exact","601 CENTRAL AVE, BUELLTON, CA, 93427",108695788,"L"
254859,"601 CHARIT CT","STOCKBRIDGE","GA",30281,33.5258980240001,-84.260873911,359,"601 CHARIT CT, STOCKBRIDGE, GA, 30281","Match","Non_Exact","601 CHARIOT CT, STOCKBRIDGE, GA, 30281",23208386,"L"
254860,"601 CIEN RD STE 130D","KEMAH","TX",77565,NA,NA,360,"601 CIEN RD STE 130D, KEMAH, TX, 77565","No_Match",NA,NA,NA,NA
254861,"601 CIRCLE DRIVE","FORT MORGAN","CO",80701,40.244605833,-103.793679222,361,"601 CIRCLE DRIVE, FORT MORGAN, CO, 80701","Match","Exact","601 CIRCLE DR, FORT MORGAN, CO, 80701",190137709,"L"
254862,"601 CLAY AVE","TYRONE","PA",16686,40.670345588,-78.251038621,362,"601 CLAY AVE, TYRONE, PA, 16686","Match","Exact","601 CLAY AVE, TYRONE, PA, 16686",647667654,"L"
254863,"601 CLOVIS CT","COLLEGE STATION","TX",77845,30.5820319690001,-96.31187655,363,"601 CLOVIS CT, COLLEGE STATION, TX, 77845","Match","Exact","601 CLOVIS CT, COLLEGE STATION, TX, 77845",21830264,"L"
254864,"601 COLUMNS DRIVE","LITHIA SPRINGS","GA",30122,33.7698259140001,-84.6338428449999,364,"601 COLUMNS DRIVE, LITHIA SPRINGS, GA, 30122","Match","Exact","601 COLUMNS DR, LITHIA SPGS, GA, 30122",632433819,"R"
254865,"601 COMMONWEALTH AVENUE SUITE 1500","HARRISBURG","PA",17120,40.2656575390001,-76.8823788029999,365,"601 COMMONWEALTH AVENUE SUITE 1500, HARRISBURG, PA, 17120","Match","Exact","601 COMMONWEALTH AVE, HARRISBURG, PA, 17120",70842594,"R"
254866,"601 COUNTRY CLUB RD APT 136","EUGENE","OR",97401,44.0643060130001,-123.093852187,366,"601 COUNTRY CLUB RD APT 136, EUGENE, OR, 97401","Match","Exact","601 COUNTRY CLUB RD, EUGENE, OR, 97401",605382224,"R"
254867,"601 CR 123-A","MARBLE FALLS","TX",78654,30.475340612,-98.29798794,367,"601 CR 123-A, MARBLE FALLS, TX, 78654","Match","Non_Exact","601 CREEK LN, MARBLE FALLS, TX, 78654",146509481,"R"
254868,"601 CYNTHIA DRIVE","FAYETTE","OH",43521,41.6644292290001,-84.326229714,368,"601 CYNTHIA DRIVE, FAYETTE, OH, 43521","Match","Exact","601 CYNTHIA DR, FAYETTE, OH, 43521",207387487,"R"
254869,"601 DATE ST","SCHLESWIG","IA",51461,42.1642984550001,-95.430765503,369,"601 DATE ST, SCHLESWIG, IA, 51461","Match","Exact","601 DATE ST, SCHLESWIG, IA, 51461",82258331,"R"
254870,"601 DEERFIELD ROAD SUITE 200","DEERFIELD","IL",60015,42.1672785260001,-87.842938695,370,"601 DEERFIELD ROAD SUITE 200, DEERFIELD, IL, 60015","Match","Exact","601 DEERFIELD RD, DEERFIELD, IL, 60015",119650886,"L"
254871,"601 DEKALB STREET 2ND FLOOR","NORRISTOWN","PA",19401,40.1037126570001,-75.348031395,371,"601 DEKALB STREET 2ND FLOOR, NORRISTOWN, PA, 19401","Match","Non_Exact","601 DEKALB ST, NORRISTOWN, PA, 19405",135082321,"L"
254872,"601 DOUGLAS DRIVE","JUPITER","FL",33458,26.9394062690001,-80.102517969,372,"601 DOUGLAS DRIVE, JUPITER, FL, 33458","Match","Exact","601 DOUGLAS DR, JUPITER, FL, 33458",115351627,"R"
254873,"601 E 14TH STREET SUITE B","SAN LEANDRO","CA",94577,NA,NA,373,"601 E 14TH STREET SUITE B, SAN LEANDRO, CA, 94577","No_Match",NA,NA,NA,NA
254874,"601 E 3RD ST","LYONS","SD",57041,43.723083467,-96.869467781,374,"601 E 3RD ST, LYONS, SD, 57041","Match","Exact","601 3RD ST, LYONS, SD, 57041",34968597,"R"
254875,"601 E 8TH STREET  APT 138","AZUSA","CA",91702,34.1353813600001,-117.900682295,375,"601 E 8TH STREET  APT 138, AZUSA, CA, 91702","Match","Non_Exact","601 E 8TH ST, AZUSA, CA, 91702",142838738,"L"
254876,"601 E AIRPORT BLVD","SANFORD","FL",32773,28.7702850480001,-81.272640047,376,"601 E AIRPORT BLVD, SANFORD, FL, 32773","Match","Exact","601 E AIRPORT BLVD, SANFORD, FL, 32773",618310441,"L"
254877,"601 E BURGESS RD APT K8","PENSACOLA","FL",32504,30.494140455,-87.227479009,377,"601 E BURGESS RD APT K8, PENSACOLA, FL, 32504","Match","Non_Exact","601 E BURGESS RD, PENSACOLA, FL, 32504",93249552,"R"
254878,"601 E CHARLESTON BLVD STE 100","LAS VEGAS","NV",89104,36.15889236,-115.145819196,378,"601 E CHARLESTON BLVD STE 100, LAS VEGAS, NV, 89104","Match","Non_Exact","601 E CHARLESTON BLVD, LAS VEGAS, NV, 89104",201867622,"L"
254879,"601 E GREENLAWN AVE","LANSING","MI",48910,42.7051487620001,-84.544478179,379,"601 E GREENLAWN AVE, LANSING, MI, 48910","Match","Exact","601 E GREENLAWN AVE, LANSING, MI, 48910",17500324,"L"
254880,"601 E HANCOCK ST APT 15","APPLETON","WI",54911,44.268810671,-88.398185267,380,"601 E HANCOCK ST APT 15, APPLETON, WI, 54911","Match","Non_Exact","601 E HANCOCK ST, APPLETON, WI, 54911",74920791,"R"
254881,"601 E JACKSON  SUITE D","EL CAMPO","TX",77437,NA,NA,381,"601 E JACKSON  SUITE D, EL CAMPO, TX, 77437","No_Match",NA,NA,NA,NA
254882,"601 E JACKSON","EL CAMPO","TX",77437,NA,NA,382,"601 E JACKSON, EL CAMPO, TX, 77437","No_Match",NA,NA,NA,NA
254883,"601 E KENNEDY BLVE","TAMPA","FL",33602,NA,NA,383,"601 E KENNEDY BLVE, TAMPA, FL, 33602","No_Match",NA,NA,NA,NA
254884,"601 E LEMON AVE","MONROVIA","CA",91016,34.147111066,-117.9920382,384,"601 E LEMON AVE, MONROVIA, CA, 91016","Match","Exact","601 E LEMON AVE, MONROVIA, CA, 91016",141647234,"L"
254885,"601 E MAIN ST PO BOX 132","MARION","KS",66861,NA,NA,385,"601 E MAIN ST PO BOX 132, MARION, KS, 66861","Tie",NA,NA,NA,NA
254886,"601 E MAIN STREET","FORRESTON","IL",61030,42.1275808400001,-89.574717821,386,"601 E MAIN STREET, FORRESTON, IL, 61030","Match","Exact","601 E MAIN ST, FORRESTON, IL, 61030",52316957,"R"
254887,"601 E MOLER STREET","COLUMBUS","OH",43207,39.934490194,-82.979615934,387,"601 E MOLER STREET, COLUMBUS, OH, 43207","Match","Exact","601 E MOLER ST, COLUMBUS, OH, 43207",135585618,"R"
254888,"601 E NEVERSINK RD","READING","PA",19606,40.30434784,-75.877786831,388,"601 E NEVERSINK RD, READING, PA, 19606","Match","Exact","601 E NEVERSINK RD, READING, PA, 19606",80385489,"R"
254889,"601 E NORTH STREET","UNION CITY","OH",45390,40.2013246770001,-84.800512861,389,"601 E NORTH STREET, UNION CITY, OH, 45390","Match","Exact","601 E NORTH ST, UNION CITY, OH, 45390",54533528,"R"
254890,"601 E PALOMAR ST STE C116","CHULA VISTA","CA",91911,32.6033022870001,-117.079142172,390,"601 E PALOMAR ST STE C116, CHULA VISTA, CA, 91911","Match","Exact","601 PALOMAR ST, CHULA VISTA, CA, 91911",652179847,"L"
254891,"601 E RANDOLPH RD 210","SILVER SPRING","MD",20904,39.066336259,-77.02042574,391,"601 E RANDOLPH RD 210, SILVER SPRING, MD, 20904","Match","Exact","601 RANDOLPH RD, SILVER SPRING, MD, 20904",62063515,"R"
254892,"601 E SUNSET DRIVE","BELLINGHAM","WA",98225,48.7696283870001,-122.469092966,392,"601 E SUNSET DRIVE, BELLINGHAM, WA, 98225","Match","Exact","601 SUNSET DR, BELLINGHAM, WA, 98225",653045304,"L"
254893,"601 E TABER ST","FORT WAYNE","IN",46803,41.0633992520001,-85.129471428,393,"601 E TABER ST, FORT WAYNE, IN, 46803","Match","Exact","601 E TABER ST, FORT WAYNE, IN, 46803",6379864,"L"
254894,"601 E WYANDOTTE","MERIDEN","KS",66512,39.187195337,-95.57318071,394,"601 E WYANDOTTE, MERIDEN, KS, 66512","Match","Non_Exact","601 WYANDOTTE RD, MERIDEN, KS, 66512",22261099,"R"
254895,"601 EAST  BELL RD  2 - 584","PHOENIX","AZ",85022,33.640282326,-112.067252558,395,"601 EAST  BELL RD  2 - 584, PHOENIX, AZ, 85022","Match","Exact","601 E BELL RD, PHOENIX, AZ, 85022",128914595,"L"
254896,"601 EAST 11TH STREET","WASHINGTON","NC",27889,35.548393165,-77.040889046,396,"601 EAST 11TH STREET, WASHINGTON, NC, 27889","Match","Exact","601 E 11TH ST, WASHINGTON, NC, 27889",67953327,"L"
254897,"601 EAST 20TH STREET","ALMA","GA",31510,31.5349928370001,-82.454818609,397,"601 EAST 20TH STREET, ALMA, GA, 31510","Match","Exact","601 E 20TH ST, ALMA, GA, 31510",4565661,"L"
254898,"601 EAST 32ND STREET - APT 510","CHICAGO","IL",60616,41.8365945520001,-87.616973459,398,"601 EAST 32ND STREET - APT 510, CHICAGO, IL, 60616","Match","Exact","601 E 32ND ST, CHICAGO, IL, 60616",111770186,"R"
254899,"601 EAST 32ND UNIT 200","CHICAGO","IL",60616,41.8365945520001,-87.616973459,399,"601 EAST 32ND UNIT 200, CHICAGO, IL, 60616","Match","Non_Exact","601 E 32ND ST, CHICAGO, IL, 60616",111770186,"R"
254900,"601 EAST AVENUE","BLUE RAPIDS","KS",66411,39.6816246130001,-96.654595208,400,"601 EAST AVENUE, BLUE RAPIDS, KS, 66411","Match","Exact","601 EAST AVE, BLUE RAPIDS, KS, 66411",28426295,"L"
254901,"601 EAST BELT LINE","DESOTO","TX",75115,32.5897119690001,-96.844540374,401,"601 EAST BELT LINE, DESOTO, TX, 75115","Match","Non_Exact","601 E BELT LINE RD, DESOTO, TX, 75115",103186462,"L"
254902,"601 EAST EPPINGTON DR","TROTWOOD","OH",45426,39.804303872,-84.301399514,402,"601 EAST EPPINGTON DR, TROTWOOD, OH, 45426","Match","Non_Exact","601 N EPPINGTON DR, TROTWOOD, OH, 45426",143562673,"L"
254903,"601 EAST LAKESHORE DRIVE SUITE 104","MANISTIQUE","MI",49854,45.9535222260001,-86.246514029,403,"601 EAST LAKESHORE DRIVE SUITE 104, MANISTIQUE, MI, 49854","Match","Exact","601 E LAKESHORE DR, MANISTIQUE, MI, 49854",636265753,"R"
254904,"601 EAST MAIN STREET","PIKETON","OH",45661,39.0694361400001,-83.011196965,404,"601 EAST MAIN STREET, PIKETON, OH, 45661","Match","Exact","601 E MAIN ST, PIKETON, OH, 45661",55065415,"R"
254905,"601 EAST MEYER BLVD","KANSAS CITY","MO",64131,39.0117248600001,-94.5803614659999,405,"601 EAST MEYER BLVD, KANSAS CITY, MO, 64131","Match","Exact","601 E MEYER BLVD, KANSAS CITY, MO, 64131",91454556,"R"
254906,"601 EAST TRADE STREET","CHARLOTTE","NC",28202,35.222857059,-80.8379363929999,406,"601 EAST TRADE STREET, CHARLOTTE, NC, 28202","Match","Exact","601 E TRADE ST, CHARLOTTE, NC, 28202",70487473,"L"
254907,"601 ELIZABETH DR","THOMASVILLE","NC",27360,35.8890743810001,-80.10378108,407,"601 ELIZABETH DR, THOMASVILLE, NC, 27360","Match","Exact","601 ELIZABETH DR, THOMASVILLE, NC, 27360",20216372,"R"
254908,"601 EWING ST STE A-5","PRINCETON","NJ",8540,40.370263412,-74.6590308949999,408,"601 EWING ST STE A-5, PRINCETON, NJ, 8540","Match","Exact","601 EWING ST, PRINCETON, NJ, 08540",60170656,"R"
254909,"601 FAIRCHILD ST","CORALVILLE","IA",52241,41.6819027230001,-91.572955854,409,"601 FAIRCHILD ST, CORALVILLE, IA, 52241","Match","Exact","601 FAIRCHILD ST, CORALVILLE, IA, 52241",84494083,"L"
254910,"601 FAYETTEVILLE STREET","DURHAM","NC",27701,NA,NA,410,"601 FAYETTEVILLE STREET, DURHAM, NC, 27701","Tie",NA,NA,NA,NA
254911,"601 FISHBACK CIRCLE","PLANO","TX",75074,33.0053126500001,-96.652592199,411,"601 FISHBACK CIRCLE, PLANO, TX, 75074","Match","Exact","601 FISHBACK CIR, PLANO, TX, 75074",642783237,"R"
254912,"601 FOX HILLS DR N","BLOOMFIELD","MI",48304,NA,NA,412,"601 FOX HILLS DR N, BLOOMFIELD, MI, 48304","No_Match",NA,NA,NA,NA
254913,"601 FRANKLIN AVENUE","BREWTON","AL",36426,31.094533088,-87.090579024,413,"601 FRANKLIN AVENUE, BREWTON, AL, 36426","Match","Exact","601 FRANKLIN AVE, BREWTON, AL, 36426",1932537,"L"
254914,"601 FREEDOM ST","HOLMEN","WI",54636,43.9424075270001,-91.247916381,414,"601 FREEDOM ST, HOLMEN, WI, 54636","Match","Exact","601 FREEDOM ST, HOLMEN, WI, 54636",51022818,"L"
254915,"601 FREEMAN AVENUE","LAS VEGAS","NV",89106,36.190140254,-115.149922786,415,"601 FREEMAN AVENUE, LAS VEGAS, NV, 89106","Match","Exact","601 FREEMAN AVE, LAS VEGAS, NV, 89106",201865252,"L"
254916,"601 FULLVIEW AVENUE","WOODLAND PARK","CO",80863,38.9997134220001,-105.047473479,416,"601 FULLVIEW AVENUE, WOODLAND PARK, CO, 80863","Match","Non_Exact","601 E FULLVIEW AVE, WOODLAND PARK, CO, 80863",130950276,"R"
254917,"601 GLEN ELLYN PLACE","GLEN ELLYN","IL",60137,41.8803650790001,-88.063081069,417,"601 GLEN ELLYN PLACE, GLEN ELLYN, IL, 60137","Match","Exact","601 GLEN ELLYN PL, GLEN ELLYN, IL, 60137",112524649,"R"
254918,"601 GRAND PARKE DR","SAINT JOHNS","FL",32259,NA,NA,418,"601 GRAND PARKE DR, SAINT JOHNS, FL, 32259","No_Match",NA,NA,NA,NA
254919,"601 GREGG AVE","FLORENCE","SC",29501,34.194503147,-79.777010569,419,"601 GREGG AVE, FLORENCE, SC, 29501","Match","Exact","601 GREGG AVE, FLORENCE, SC, 29501",28878223,"R"
254920,"601 HALLWOOD FARMS LN","RICHMOND","VA",23223,37.5499274960001,-77.380332457,420,"601 HALLWOOD FARMS LN, RICHMOND, VA, 23223","Match","Exact","601 HALLWOOD FARMS LN, RICHMOND, VA, 23223",106671890,"R"
254921,"601 HARPER ST STE 2","MANKATO","MN",56001,44.186697243,-94.000349,421,"601 HARPER ST STE 2, MANKATO, MN, 56001","Match","Exact","601 HARPER ST, MANKATO, MN, 56001",28115708,"L"
254922,"601 HARVARD AVE","STANTON","IA",51573,40.98442119,-95.109198012,422,"601 HARVARD AVE, STANTON, IA, 51573","Match","Exact","601 HARVARD AVE, STANTON, IA, 51573",43873298,"L"
254923,"601 HARVEY STREET","CLUTE","TX",77531,29.0241286940001,-95.397925867,423,"601 HARVEY STREET, CLUTE, TX, 77531","Match","Exact","601 HARVEY ST, CLUTE, TX, 77531",116580634,"L"
254924,"601 HILL N DALE RD","LEXINGTON","KY",40503,38.0162848580001,-84.541982843,424,"601 HILL N DALE RD, LEXINGTON, KY, 40503","Match","Exact","601 HILL N DALE RD, LEXINGTON, KY, 40503",31942198,"R"
254925,"601 HILL N DALE ROAD","LEXINGTON","KY",40503,38.0162848580001,-84.541982843,425,"601 HILL N DALE ROAD, LEXINGTON, KY, 40503","Match","Exact","601 HILL N DALE RD, LEXINGTON, KY, 40503",31942198,"R"
254926,"601 HILLCREST AVE","GASTONIA","NC",28052,35.2456089660001,-81.193160586,426,"601 HILLCREST AVE, GASTONIA, NC, 28052","Match","Exact","601 HILLCREST AVE, GASTONIA, NC, 28052",70379499,"L"
254927,"601 HOPE STREET","WABASSO","MN",56293,44.4009111130001,-95.2470200929999,427,"601 HOPE STREET, WABASSO, MN, 56293","Match","Exact","601 HOPE ST, WABASSO, MN, 56293",33817686,"L"
254928,"601 HORTON STREET","DETROIT","MI",48202,42.373898576,-83.066233094,428,"601 HORTON STREET, DETROIT, MI, 48202","Match","Exact","601 HORTON ST, DETROIT, MI, 48202",95476843,"L"
254929,"601 HUDSON AVE SUITE 102","TAKOMA PARK","MD",20912,38.9925080790001,-77.004433288,429,"601 HUDSON AVE SUITE 102, TAKOMA PARK, MD, 20912","Match","Exact","601 HUDSON AVE, TAKOMA PARK, MD, 20912",638658761,"L"
254930,"601 HUNTER ROAD","WILMETTE","IL",60091,42.075650791,-87.732307668,430,"601 HUNTER ROAD, WILMETTE, IL, 60091","Match","Exact","601 HUNTER RD, WILMETTE, IL, 60091",111738790,"L"
254931,"601 I STREET NW","WASHINGTON","DC",20001,38.9008737450001,-77.020066745,431,"601 I STREET NW, WASHINGTON, DC, 20001","Match","Exact","601 I ST NW, WASHINGTON, DC, 20001",76226261,"R"
254932,"601 IBERVILLE STREET APT404","NEW ORLEANS","LA",70130,29.953482083,-90.067320361,432,"601 IBERVILLE STREET APT404, NEW ORLEANS, LA, 70130","Match","Exact","601 IBERVILLE ST, NEW ORLEANS, LA, 70130",191710859,"R"
254933,"601 JACKSON STREET 5TH FLOOR","SAN FRANCISCO","CA",94133,37.7961987670001,-122.405198771,433,"601 JACKSON STREET 5TH FLOOR, SAN FRANCISCO, CA, 94133","Match","Exact","601 JACKSON ST, SAN FRANCISCO, CA, 94133",192281206,"L"
254934,"601 JAMES CANYON HIGHWAY","CLOUDCROFT","NM",88317,NA,NA,434,"601 JAMES CANYON HIGHWAY, CLOUDCROFT, NM, 88317","No_Match",NA,NA,NA,NA
254935,"601 JEFFERSON STREET","BLACKSBURG","VA",24060,37.23061742,-80.402237879,435,"601 JEFFERSON STREET, BLACKSBURG, VA, 24060","Match","Exact","601 JEFFERSON ST, BLACKSBURG, VA, 24060",617115602,"L"
254936,"601 JONES FERRY RD APT K2","CARRBORO","NC",27510,NA,NA,436,"601 JONES FERRY RD APT K2, CARRBORO, NC, 27510","No_Match",NA,NA,NA,NA
254937,"601 KEYSTONE AVENUE","WEST EASTON","PA",18042,40.6783629990001,-75.238355148,437,"601 KEYSTONE AVENUE, WEST EASTON, PA, 18042","Match","Exact","601 KEYSTONE AVE, WEST EASTON, PA, 18042",136881856,"R"
254938,"601 L ST SE APT M02","WASHINGTON","DC",20003,NA,NA,438,"601 L ST SE APT M02, WASHINGTON, DC, 20003","No_Match",NA,NA,NA,NA
254939,"601 L STREET SUITE 118","WASHINGTON","DC",20003,38.877521302,-76.997626022,439,"601 L STREET SUITE 118, WASHINGTON, DC, 20003","Match","Non_Exact","601 L ST SE, WASHINGTON, DC, 20003",76244626,"R"
254940,"601 LAKE JORDAN BLVD","KINGSLAND","GA",31548,30.7928669680001,-81.654016665,440,"601 LAKE JORDAN BLVD, KINGSLAND, GA, 31548","Match","Exact","601 LAKE JORDAN BLVD, KINGSLAND, GA, 31548",125703383,"L"
254941,"601 LAMPWICK LANE","KNOXVILLE","TN",37912,36.0302667060001,-83.979142591,441,"601 LAMPWICK LANE, KNOXVILLE, TN, 37912","Match","Exact","601 LAMPWICK LN, KNOXVILLE, TN, 37912",645246975,"R"
254942,"601 LANCASHIRE WAY SUITE A","CONCORD","NC",28025,35.3713833400001,-80.568590399,442,"601 LANCASHIRE WAY SUITE A, CONCORD, NC, 28025","Match","Exact","601 LANCASHIRE WAY, CONCORD, NC, 28025",640579500,"L"
254943,"601 LAS VEGAS BLVD SOUTH","LAS VEGAS","NV",89101,36.1633253630001,-115.144515602,443,"601 LAS VEGAS BLVD SOUTH, LAS VEGAS, NV, 89101","Match","Exact","601 LAS VEGAS BLVD S, LAS VEGAS, NV, 89101",201867491,"L"
254944,"601 LAUREL LANE","SHADE","OH",45776,39.2033597880001,-82.0566364969999,444,"601 LAUREL LANE, SHADE, OH, 45776","Match","Exact","601 LAUREL LN, SHADE, OH, 45776",628859370,"L"
254945,"601 LAUREL ST","BASTROP","TX",78602,30.123415165,-97.321530673,445,"601 LAUREL ST, BASTROP, TX, 78602","Match","Exact","601 LAUREL ST, BASTROP, TX, 78602",45466695,"L"
254946,"601 LINDEN AVE  APT 103","LONG BEACH","CA",90802,33.774175842,-118.186361512,446,"601 LINDEN AVE  APT 103, LONG BEACH, CA, 90802","Match","Exact","601 LINDEN AVE, LONG BEACH, CA, 90802",141694235,"L"
254947,"601 LINE STREET","DECATUR","AL",35601,34.609422259,-86.9830722199999,447,"601 LINE STREET, DECATUR, AL, 35601","Match","Non_Exact","601 LINE ST NE, DECATUR, AL, 35601",97113758,"L"
254948,"601 LLANO CT","SOUTHLAKE","TX",76092,32.9485076550001,-97.1606671,448,"601 LLANO CT, SOUTHLAKE, TX, 76092","Match","Exact","601 LLANO CT, SOUTHLAKE, TX, 76092",102087659,"R"
254949,"601 LOVATO PLACE","TAOS","NM",87571,NA,NA,449,"601 LOVATO PLACE, TAOS, NM, 87571","No_Match",NA,NA,NA,NA
254950,"601 MADISON AVENUE","PATERSON","NJ",7014,NA,NA,450,"601 MADISON AVENUE, PATERSON, NJ, 7014","No_Match",NA,NA,NA,NA
254951,"601 MADISON STREET","DELANO","CA",93215,35.7650976940001,-119.240224023,451,"601 MADISON STREET, DELANO, CA, 93215","Match","Exact","601 MADISON ST, DELANO, CA, 93215",108997791,"L"
254952,"601 MAGNOLIA AVENUE","FREDERICK","MD",21701,39.4240204770001,-77.420494779,452,"601 MAGNOLIA AVENUE, FREDERICK, MD, 21701","Match","Exact","601 MAGNOLIA AVE, FREDERICK, MD, 21701",60686531,"L"
254953,"601 MAGNOLIA COURT","KENNETT SQUARE","PA",19348,39.8432954300001,-75.718258174,453,"601 MAGNOLIA COURT, KENNETT SQUARE, PA, 19348","Match","Non_Exact","601 MAGNOLIA ST, KENNETT SQUARE, PA, 19348",634479456,"R"
254954,"601 MAIN ST","ARKADELPHIA","AR",71923,34.1195701770001,-93.0536641369999,454,"601 MAIN ST, ARKADELPHIA, AR, 71923","Match","Exact","601 MAIN ST, ARKADELPHIA, AR, 71923",10550667,"L"
254955,"601 MAIN ST","LUBBOCK","TX",79401,33.5855175290001,-101.840984915,455,"601 MAIN ST, LUBBOCK, TX, 79401","Match","Exact","601 MAIN ST, LUBBOCK, TX, 79401",185254750,"L"
254956,"601 MANITOU AVE  APT 6","MANITOU SPRINGS","CO",80829,38.8575651890001,-104.912458135,456,"601 MANITOU AVE  APT 6, MANITOU SPRINGS, CO, 80829","Match","Exact","601 MANITOU AVE, MANITOU SPRINGS, CO, 80829",105505961,"L"
254957,"601 MARTIN LUTHER KING BLVD","CLARKSDALE","MS",38614,NA,NA,457,"601 MARTIN LUTHER KING BLVD, CLARKSDALE, MS, 38614","No_Match",NA,NA,NA,NA
254958,"601 MASSACHUSETTS AVE NW STE 7328","WASHINGTON","DC",20001,38.901522243,-77.020039722,458,"601 MASSACHUSETTS AVE NW STE 7328, WASHINGTON, DC, 20001","Match","Exact","601 MASSACHUSETTS AVE NW, WASHINGTON, DC, 20001",640479306,"R"
254959,"601 MASTERS STREET","CORBIN","KY",40701,NA,NA,459,"601 MASTERS STREET, CORBIN, KY, 40701","No_Match",NA,NA,NA,NA
254960,"601 MCHENRY AVE","MODESTO","CA",95350,37.6529085220001,-120.993799229,460,"601 MCHENRY AVE, MODESTO, CA, 95350","Match","Exact","601 MCHENRY AVE, MODESTO, CA, 95350",102604670,"L"
254961,"601 MEANDERING WOODS DRIVE","KELLER","TX",76248,32.921588624,-97.213993761,461,"601 MEANDERING WOODS DRIVE, KELLER, TX, 76248","Match","Exact","601 MEANDERING WOODS DR, KELLER, TX, 76248",102117880,"R"
254962,"601 MECHANIC STREET SUITE 312","FRANKLIN","VA",23851,36.680513982,-76.9229074799999,462,"601 MECHANIC STREET SUITE 312, FRANKLIN, VA, 23851","Match","Non_Exact","601 N MECHANIC ST, FRANKLIN, VA, 23851",82706894,"L"
254963,"601 MERRYTURN ROAD","MADISON","WI",53714,43.0904209390001,-89.292101584,463,"601 MERRYTURN ROAD, MADISON, WI, 53714","Match","Exact","601 MERRYTURN RD, MADISON, WI, 53714",49479525,"L"
254964,"601 MIDLOTHIAN BLVD","WATERLOO","IA",50701,42.4714783860001,-92.35953604,464,"601 MIDLOTHIAN BLVD, WATERLOO, IA, 50701","Match","Exact","601 MIDLOTHIAN BLVD, WATERLOO, IA, 50701",77253688,"L"
254965,"601 MIDWOOD STREET APT 2","BROOKLYN","NY",11203,40.6607403100001,-73.940638263,465,"601 MIDWOOD STREET APT 2, BROOKLYN, NY, 11203","Match","Exact","601 MIDWOOD ST, BROOKLYN, NY, 11203",59079819,"L"
254966,"601 MINNESOTA AVENUE","KANSAS CITY","KS",66101,39.1155408450001,-94.624269247,466,"601 MINNESOTA AVENUE, KANSAS CITY, KS, 66101","Match","Exact","601 MINNESOTA AVE, KANSAS CITY, KS, 66101",91140914,"L"
254967,"601 MONTECILLO RD","SAN RAFAEL","CA",94903,38.011771691,-122.561419795,467,"601 MONTECILLO RD, SAN RAFAEL, CA, 94903","Match","Exact","601 MONTECILLO RD, SAN RAFAEL, CA, 94903",605802556,"L"
254968,"601 MORRIS STREET SUITE 205","CHARLESTON","WV",25301,38.3485101810001,-81.624410312,468,"601 MORRIS STREET SUITE 205, CHARLESTON, WV, 25301","Match","Exact","601 MORRIS ST, CHARLESTON, WV, 25301",78593711,"L"
254969,"601 MOURNING DOVE ROAD","AUDUBON","PA",19403,40.13950071,-75.4171680269999,469,"601 MOURNING DOVE ROAD, AUDUBON, PA, 19403","Match","Exact","601 MOURNING DOVE RD, AUDUBON, PA, 19403",135069895,"R"
254970,"601 MUNDIS MILL RD","YORK","PA",17406,40.0115790200001,-76.701378747,470,"601 MUNDIS MILL RD, YORK, PA, 17406","Match","Exact","601 MUNDIS MILL RD, YORK, PA, 17406",88721283,"L"
254971,"601 MUNDIS MILL ROAD","YORK","PA",17406,40.0115790200001,-76.701378747,471,"601 MUNDIS MILL ROAD, YORK, PA, 17406","Match","Exact","601 MUNDIS MILL RD, YORK, PA, 17406",88721283,"L"
254972,"601 MYRTLE STREET","BURLINGTON","OK",73722,36.897997719,-98.424445018,472,"601 MYRTLE STREET, BURLINGTON, OK, 73722","Match","Exact","601 MYRTLE ST, BURLINGTON, OK, 73722",154407674,"L"
254973,"601 N 4TH","BOSWELL","OK",74727,34.028605768,-95.872167846,473,"601 N 4TH, BOSWELL, OK, 74727","Match","Non_Exact","601 4TH ST, BOSWELL, OK, 74727",63157695,"L"
254974,"601 N 7TH STREET","BELLEVUE","IA",52031,42.261523524,-90.43291498,474,"601 N 7TH STREET, BELLEVUE, IA, 52031","Match","Exact","601 N 7TH ST, BELLEVUE, IA, 52031",16961234,"R"
254975,"601 N ASHLEY DR 310","TAMPA","FL",33602,27.948641509,-82.4603579819999,475,"601 N ASHLEY DR 310, TAMPA, FL, 33602","Match","Non_Exact","601 N ASHLEY DR, TAMPA, FL, 33602",104530096,"R"
254976,"601 N ASHLEY DRIVE 8TH FLOOR","TAMPA","FL",33602,27.948641509,-82.4603579819999,476,"601 N ASHLEY DRIVE 8TH FLOOR, TAMPA, FL, 33602","Match","Non_Exact","601 N ASHLEY DR, TAMPA, FL, 33602",104530096,"R"
254977,"601 N ASHLEY STREET","VALDOSTA","GA",31301,NA,NA,477,"601 N ASHLEY STREET, VALDOSTA, GA, 31301","No_Match",NA,NA,NA,NA
254978,"601 N BLACK HORSE PIKE D6","WILLIAMSTOWN","NJ",8094,NA,NA,478,"601 N BLACK HORSE PIKE D6, WILLIAMSTOWN, NJ, 8094","Tie",NA,NA,NA,NA
254979,"601 N BROADWAY ST","BLANKET","TX",76432,31.824860093,-98.7886843269999,479,"601 N BROADWAY ST, BLANKET, TX, 76432","Match","Non_Exact","601 N BROADWAY, BLANKET, TX, 76432",129457934,"R"
254980,"601 N CHELAN AVE","WENATCHEE","WA",98801,47.4308933280001,-120.319759588,480,"601 N CHELAN AVE, WENATCHEE, WA, 98801","Match","Exact","601 N CHELAN AVE, WENATCHEE, WA, 98801",156973967,"L"
254981,"601 N CHESTNUT ST  SUITE B","CADILLAC","MI",49601,44.2489004230001,-85.416684249,481,"601 N CHESTNUT ST  SUITE B, CADILLAC, MI, 49601","Match","Exact","601 CHESTNUT ST, CADILLAC, MI, 49601",146096616,"R"
254982,"601 N CONGRESS AVE SUITE 421","DELRAY BEACH","FL",33445,NA,NA,482,"601 N CONGRESS AVE SUITE 421, DELRAY BEACH, FL, 33445","Tie",NA,NA,NA,NA
254983,"601 N CONGRESS AVENUE SUITE 302","DELRAY BEACH","FL",33445,NA,NA,483,"601 N CONGRESS AVENUE SUITE 302, DELRAY BEACH, FL, 33445","Tie",NA,NA,NA,NA
254984,"601 N GRAND AVE","LOS ANGELES","CA",90012,34.060647972,-118.243863037,484,"601 N GRAND AVE, LOS ANGELES, CA, 90012","Match","Exact","601 N GRAND AVE, LOS ANGELES, CA, 90012",141617945,"L"
254985,"601 N HART BLVD","ORLANDO","FL",32818,28.5507746010001,-81.470720693,485,"601 N HART BLVD, ORLANDO, FL, 32818","Match","Exact","601 N HART BLVD, ORLANDO, FL, 32818",637871820,"R"
254986,"601 N HIGH STREET","CHILLICOTHE","OH",45601,39.3453517360001,-82.992478561,486,"601 N HIGH STREET, CHILLICOTHE, OH, 45601","Match","Exact","601 N HIGH ST, CHILLICOTHE, OH, 45601",37481660,"R"
254987,"601 N KANSAS AVE","LEAGUE CITY","TX",77573,29.515654528,-95.092663653,487,"601 N KANSAS AVE, LEAGUE CITY, TX, 77573","Match","Exact","601 N KANSAS AVE, LEAGUE CITY, TX, 77573",647488737,"R"
254988,"601 N MADISON AVE","BAY CITY","MI",48708,43.5958355820001,-83.884786062,488,"601 N MADISON AVE, BAY CITY, MI, 48708","Match","Exact","601 N MADISON AVE, BAY CITY, MI, 48708",81140895,"L"
254989,"601 N MUR-LEN ROAD  SUITE 16","OLATHE","KS",66062,38.897694728,-94.779582213,489,"601 N MUR-LEN ROAD  SUITE 16, OLATHE, KS, 66062","Match","Non_Exact","601 N MUR-LEN RD, OLATHE, KS, 66062",91295199,"L"
254990,"601 N PARK BLVD","GRAPEVINE","TX",76051,NA,NA,490,"601 N PARK BLVD, GRAPEVINE, TX, 76051","Tie",NA,NA,NA,NA
254991,"601 N SCHROEDER STREET","BALTIMORE","MD",21217,39.2956378750001,-76.634200994,491,"601 N SCHROEDER STREET, BALTIMORE, MD, 21217","Match","Exact","601 N SCHROEDER ST, BALTIMORE, MD, 21217",651574449,"R"
254992,"601 N WALNUT ST APT B","LA HABRA","CA",90631,NA,NA,492,"601 N WALNUT ST APT B, LA HABRA, CA, 90631","Tie",NA,NA,NA,NA
254993,"601 NE 19TH STREET","GAINESVILLE","FL",32641,29.6570292980001,-82.3006400799999,493,"601 NE 19TH STREET, GAINESVILLE, FL, 32641","Match","Exact","601 NE 19TH ST, GAINESVILLE, FL, 32641",647853758,"R"
254994,"601 NE 36TH ST SUITE 1711","MIAMI","FL",33137,25.8107578950001,-80.1866694299999,494,"601 NE 36TH ST SUITE 1711, MIAMI, FL, 33137","Match","Non_Exact","601 NE 36TH ST, MIAMI, FL, 33137",647892373,"L"
254995,"601 NE 36TH STREET UNIT 2604","MIAMI","FL",33137,25.8107578950001,-80.1866694299999,495,"601 NE 36TH STREET UNIT 2604, MIAMI, FL, 33137","Match","Non_Exact","601 NE 36TH ST, MIAMI, FL, 33137",647892373,"L"
254996,"601 NE 39TH STREET","POMPANO BEACH","FL",33064,26.278877406,-80.1157382549999,496,"601 NE 39TH STREET, POMPANO BEACH, FL, 33064","Match","Exact","601 NE 39TH ST, POMPANO BEACH, FL, 33064",114742588,"L"
254997,"601 NE 3RD STREET","POMPANO BEACH","FL",33060,26.234322864,-80.117779349,497,"601 NE 3RD STREET, POMPANO BEACH, FL, 33060","Match","Exact","601 NE 3RD ST, POMPANO BEACH, FL, 33060",114695157,"L"
254998,"601 NE 49TH AVE","HILLSBORO","OR",97124,45.527136338,-122.932950425,498,"601 NE 49TH AVE, HILLSBORO, OR, 97124","Match","Non_Exact","601 49TH, HILLSBORO, OR, 97124",649032256,"R"
254999,"601 NE 70TH ST 125","GLADSTONE","MO",64118,39.2210140060001,-94.57373044,499,"601 NE 70TH ST 125, GLADSTONE, MO, 64118","Match","Non_Exact","601 NE 70TH ST, GLADSTONE, MO, 64118",89754662,"R"
255000,"601 NEW RIVERSIDE ROAD","BLUFFTON","SC",29910,NA,NA,500,"601 NEW RIVERSIDE ROAD, BLUFFTON, SC, 29910","No_Match",NA,NA,NA,NA
