"ID","Address","City","State","Zip","lat","long","id","input_address","match_indicator","match_type","matched_address","tiger_line_id","tiger_side"
279001,"7136 HARMONY PL SW","COVINGTON","GA",30014,33.5814445780001,-83.856421138,1,"7136 HARMONY PL SW, COVINGTON, GA, 30014","Match","Exact","7136 HARMONY PL SW, COVINGTON, GA, 30014",23621763,"R"
279002,"7136 HASELL AVENUE 209","VAN NUYS","CA",91406,NA,NA,2,"7136 HASELL AVENUE 209, VAN NUYS, CA, 91406","No_Match",NA,NA,NA,NA
279003,"7136 HASKELL AVE","VAN NUYS","CA",91406,34.2000166010001,-118.474917463,3,"7136 HASKELL AVE, VAN NUYS, CA, 91406","Match","Exact","7136 HASKELL AVE, VAN NUYS, CA, 91406",141559975,"R"
279004,"7136 LEE ROAD","LODI","WI",53555,43.2719167930001,-89.542903413,4,"7136 LEE ROAD, LODI, WI, 53555","Match","Exact","7136 LEE RD, LODI, WI, 53555",49509487,"R"
279005,"7136 MCEWEN PLANCE","MINT HILL","NC",28227,35.1698579930001,-80.672663453,5,"7136 MCEWEN PLANCE, MINT HILL, NC, 28227","Match","Non_Exact","7136 MCEWEN PL, MINT HILL, NC, 28227",70551354,"L"
279006,"7137 E RANCHO VISTA DRIVE B21","SCOTTSDALE","AZ",85251,33.507635819,-111.927270269,6,"7137 E RANCHO VISTA DRIVE B21, SCOTTSDALE, AZ, 85251","Match","Non_Exact","7137 E RANCHO VISTA DR, SCOTTSDALE, AZ, 85251",128222582,"L"
279007,"7137 FOUNDERS CLUB COURT","CHARLOTTE","NC",28262,35.38902991,-80.758152861,7,"7137 FOUNDERS CLUB COURT, CHARLOTTE, NC, 28262","Match","Non_Exact","7137 FOUNDERS CLUB CT, CHARLOTTE, NC, 28269",618151800,"R"
279008,"7137 KNOTTYPINE AVENUE","WINTER PARK","FL",32792,28.5905502470001,-81.293067505,8,"7137 KNOTTYPINE AVENUE, WINTER PARK, FL, 32792","Match","Exact","7137 KNOTTYPINE AVE, WINTER PARK, FL, 32792",94292721,"L"
279009,"7137 OAKCREEK DRIVE","STOCKTON","CA",95207,38.0152211280001,-121.345837688,9,"7137 OAKCREEK DRIVE, STOCKTON, CA, 95207","Match","Exact","7137 OAKCREEK DR, STOCKTON, CA, 95207",133843824,"L"
279010,"7137 OLD JASPER HWY","DORA","AL",35062,33.717756964,-86.988788612,10,"7137 OLD JASPER HWY, DORA, AL, 35062","Match","Exact","7137 OLD JASPER HWY, DORA, AL, 35062",81734576,"R"
279011,"7137 VAUGHN LANE","CAMDEN","IL",62319,40.13221824,-90.7780371919999,11,"7137 VAUGHN LANE, CAMDEN, IL, 62319","Match","Exact","7137 VAUGHN LN, CAMDEN, IL, 62319",15706157,"L"
279012,"7137 WEAVERS PLACE","NORTH LAS VEGAS","NV",89084,36.2895933950001,-115.188861219,12,"7137 WEAVERS PLACE, NORTH LAS VEGAS, NV, 89084","Match","Exact","7137 WEAVERS PL, N LAS VEGAS, NV, 89084",612683132,"L"
279013,"7138 EDEN BROOK RD","COLUMBIA","MD",21046,39.172858412,-76.863177676,13,"7138 EDEN BROOK RD, COLUMBIA, MD, 21046","Match","Non_Exact","7138 EDEN BROOK DR, COLUMBIA, MD, 21046",158963046,"L"
279014,"7138 GLENDORA STREET","PENSACOLA","FL",32526,30.4463357010001,-87.309771338,14,"7138 GLENDORA STREET, PENSACOLA, FL, 32526","Match","Exact","7138 GLENDORA ST, PENSACOLA, FL, 32526",93212127,"R"
279015,"7138 HEDGE DR","DALLAS","TX",75249,32.625562583,-96.946072782,15,"7138 HEDGE DR, DALLAS, TX, 75249","Match","Exact","7138 HEDGE DR, DALLAS, TX, 75249",102941649,"L"
279016,"7138 KASSARINE PASS","HOUSTON","TX",77033,29.6798177810001,-95.3366727809999,16,"7138 KASSARINE PASS, HOUSTON, TX, 77033","Match","Exact","7138 KASSARINE PASS, HOUSTON, TX, 77033",96089642,"R"
279017,"7138 OLD PROVIDENCE ROAD","CHARLOTTE","NC",28226,NA,NA,17,"7138 OLD PROVIDENCE ROAD, CHARLOTTE, NC, 28226","Tie",NA,NA,NA,NA
279018,"7138 ROYAL COACH LANE","HAZELWOOD","MO",63042,38.7922622830001,-90.367960011,18,"7138 ROYAL COACH LANE, HAZELWOOD, MO, 63042","Match","Exact","7138 ROYAL COACH LN, HAZELWOOD, MO, 63042",100118759,"R"
279019,"7138 SALE AVE","WEST HILLS","CA",91307,34.200103309,-118.618961217,19,"7138 SALE AVE, WEST HILLS, CA, 91307","Match","Non_Exact","7138 N SALE AVE, WEST HILLS, CA, 91307",241190441,"R"
279020,"7138 SE TERRACE TRAILS DRIVE","PORTLAND","OR",97266,45.470503648,-122.551483638,20,"7138 SE TERRACE TRAILS DRIVE, PORTLAND, OR, 97266","Match","Exact","7138 SE TERRACE TRAILS DR, PORTLAND, OR, 97266",157555156,"R"
279021,"7138 STARLING DR","SCHERERVILLE","IN",46375,41.488802869,-87.396911188,21,"7138 STARLING DR, SCHERERVILLE, IN, 46375","Match","Exact","7138 STARLING DR, SCHERERVILLE, IN, 46375",98444874,"R"
279022,"7138 STEEL DUST DR","NEW ALBANY","OH",43054,40.106804987,-82.8250135119999,22,"7138 STEEL DUST DR, NEW ALBANY, OH, 43054","Match","Exact","7138 STEEL DUST DR, NEW ALBANY, OH, 43054",218701250,"R"
279023,"7138 VILLAGE PKWY","DUBLIN","CA",94568,37.709457925,-121.926601618,23,"7138 VILLAGE PKWY, DUBLIN, CA, 94568","Match","Exact","7138 VILLAGE PKWY, DUBLIN, CA, 94568",640548496,"L"
279024,"7139 AVALON TRAIL DRIVE","INDIANAPOLIS","IN",46250,39.8841910300001,-86.049946669,24,"7139 AVALON TRAIL DRIVE, INDIANAPOLIS, IN, 46250","Match","Exact","7139 AVALON TRAIL DR, INDIANAPOLIS, IN, 46250",107996702,"R"
279025,"7139 EAST CORALITE STREET","LONG BEACH","CA",90808,33.8180614730001,-118.094348688,25,"7139 EAST CORALITE STREET, LONG BEACH, CA, 90808","Match","Exact","7139 E CORALITE ST, LONG BEACH, CA, 90808",141746242,"L"
279026,"7139 GREENWOOD AVE","MORTON GROVE","IL",60053,42.0426322810001,-87.804931515,26,"7139 GREENWOOD AVE, MORTON GROVE, IL, 60053","Match","Non_Exact","7139 GREENWOOD ST, MORTON GROVE, IL, 60053",111734535,"L"
279027,"7139 HIGHWAY 85 UNIT 741409","RIVERDALE","GA",30274,33.579407986,-84.411955404,27,"7139 HIGHWAY 85 UNIT 741409, RIVERDALE, GA, 30274","Match","Non_Exact","7139 STATE RTE 85, RIVERDALE, GA, 30274",23312677,"R"
279028,"7139 ODOM RD","SANGER","TX",76266,33.4156982910001,-97.250738505,28,"7139 ODOM RD, SANGER, TX, 76266","Match","Exact","7139 ODOM RD, SANGER, TX, 76266",218055711,"L"
279029,"7139 PLUTO DRIVE","INDIANAPOLIS","IN",46241,39.7573831500001,-86.2861062219999,29,"7139 PLUTO DRIVE, INDIANAPOLIS, IN, 46241","Match","Exact","7139 PLUTO DR, INDIANAPOLIS, IN, 46241",636515301,"L"
279030,"7139 S ST LAWERENCE AVE","CHICAGO","IL",60619,41.7650450240001,-87.610400536,30,"7139 S ST LAWERENCE AVE, CHICAGO, IL, 60619","Match","Non_Exact","7139 S ST LAWRENCE AVE, CHICAGO, IL, 60619",111772552,"L"
279031,"7139 SMITHERS WAY","ATLANT","GA",30331,33.68376226,-84.618920327,31,"7139 SMITHERS WAY, ATLANT, GA, 30331","Match","Non_Exact","7139 SMITHERS WAY SW, ATLANTA, GA, 30331",628066303,"L"
279032,"713D EAST GREENVILLE STREET NUM 152","ANDERSON","SC",29621,34.5146381320001,-82.6467224629999,32,"713D EAST GREENVILLE STREET NUM 152, ANDERSON, SC, 29621","Match","Exact","713 E GREENVILLE ST, ANDERSON, SC, 29621",25478738,"L"
279033,"714 1/2 N EDINBURGH AVE","LOS ANGELES","CA",90046,34.0841294090001,-118.363740328,33,"714 1/2 N EDINBURGH AVE, LOS ANGELES, CA, 90046","Match","Exact","714 N EDINBURGH AVE, LOS ANGELES, CA, 90046",141598278,"R"
279034,"714 2ND STREET","BARABOO","WI",53913,43.4690788450001,-89.732214321,34,"714 2ND STREET, BARABOO, WI, 53913","Match","Exact","714 2ND ST, BARABOO, WI, 53913",86534429,"L"
279035,"714 3RD AVENUE","SAN FRANCISCO","CA",94118,37.775223743,-122.460632305,35,"714 3RD AVENUE, SAN FRANCISCO, CA, 94118","Match","Exact","714 3RD AVE, SAN FRANCISCO, CA, 94118",192281932,"L"
279036,"714 9TH STREET STE 102","DURHAM","NC",27705,36.0082205630001,-78.922136445,36,"714 9TH STREET STE 102, DURHAM, NC, 27705","Match","Exact","714 9TH ST, DURHAM, NC, 27705",635317637,"R"
279037,"714 AUBURN AVE","BUFFALO","NY",14222,42.9186450380001,-78.87393802,37,"714 AUBURN AVE, BUFFALO, NY, 14222","Match","Exact","714 AUBURN AVE, BUFFALO, NY, 14222",48289168,"L"
279038,"714 BARTON STREET","SAVANNAH","GA",31415,32.0741611550001,-81.121436833,38,"714 BARTON STREET, SAVANNAH, GA, 31415","Match","Exact","714 BARTON ST, SAVANNAH, GA, 31415",6170641,"L"
279039,"714 BENJAMIN PKWY","GREENSBORO","NC",27408,36.085262718,-79.82123516,39,"714 BENJAMIN PKWY, GREENSBORO, NC, 27408","Match","Exact","714 BENJAMIN PKWY, GREENSBORO, NC, 27408",131029433,"R"
279040,"714 BISHOP KNIGHT","COLUMBUS","OH",43228,39.9645861450001,-83.15071832,40,"714 BISHOP KNIGHT, COLUMBUS, OH, 43228","Match","Non_Exact","714 BISHOPKNIGHT, COLUMBUS, OH, 43228",218561733,"R"
279041,"714 BROCKHURST STREET APT B","OAKLAND","CA",94609,37.8222709510001,-122.271599252,41,"714 BROCKHURST STREET APT B, OAKLAND, CA, 94609","Match","Exact","714 BROCKHURST ST, OAKLAND, CA, 94609",652204731,"R"
279042,"714 C STREET STE 212","SAN RAFAEL","CA",94901,37.970628983,-122.531170978,42,"714 C STREET STE 212, SAN RAFAEL, CA, 94901","Match","Exact","714 C ST, SAN RAFAEL, CA, 94901",192764584,"R"
279043,"714 CASTLESTONE LANE","MATTHEWS","NC",28104,34.99603905,-80.684628434,43,"714 CASTLESTONE LANE, MATTHEWS, NC, 28104","Match","Exact","714 CASTLESTONE LN, MATTHEWS, NC, 28104",649476379,"L"
279044,"714 CEDAR STREET","COSHOCTON","OH",43812,40.2439714390001,-81.861055924,44,"714 CEDAR STREET, COSHOCTON, OH, 43812","Match","Exact","714 CEDAR ST, COSHOCTON, OH, 43812",52119099,"R"
279045,"714 CHELSEA RD","MULLICA HILL","NJ",8062,39.750055855,-75.232926761,45,"714 CHELSEA RD, MULLICA HILL, NJ, 8062","Match","Exact","714 CHELSEA RD, MULLICA HILL, NJ, 08062",623966303,"R"
279046,"714 COLONIAL DRIVE","GARLAND","TX",75043,32.8717541280001,-96.616122594,46,"714 COLONIAL DRIVE, GARLAND, TX, 75043","Match","Exact","714 COLONIAL DR, GARLAND, TX, 75043",102928544,"R"
279047,"714 COTILLION PLACE","MT. PLEASANT","SC",29464,32.839507316,-79.8468527489999,47,"714 COTILLION PLACE, MT. PLEASANT, SC, 29464","Match","Exact","714 COTILLION PL, MOUNT PLEASANT, SC, 29464",108853965,"R"
279048,"714 DELLA DRIVE","LEXINGTON","KY",40504,38.0304353560001,-84.5309303829999,48,"714 DELLA DRIVE, LEXINGTON, KY, 40504","Match","Exact","714 DELLA DR, LEXINGTON, KY, 40504",31948317,"L"
279049,"714 DIXIE ST STE 101 BLDG 296","FORT KNOX","KY",40121,NA,NA,49,"714 DIXIE ST STE 101 BLDG 296, FORT KNOX, KY, 40121","No_Match",NA,NA,NA,NA
279050,"714 E 33RD STREET","INDIANAPOLIS","IN",46205,39.8158926130001,-86.144660715,50,"714 E 33RD STREET, INDIANAPOLIS, IN, 46205","Match","Exact","714 E 33RD ST, INDIANAPOLIS, IN, 46205",107990085,"L"
279051,"714 E 4TH AVENUE","SAN MATEO","CA",94401,37.5671842350001,-122.318021288,51,"714 E 4TH AVENUE, SAN MATEO, CA, 94401","Match","Exact","714 E 4TH AVE, SAN MATEO, CA, 94401",652198333,"R"
279052,"714 E 530 S","SMITHFIELD","UT",84335,41.8255358420001,-111.812895844,52,"714 E 530 S, SMITHFIELD, UT, 84335","Match","Exact","714 E 530 S, SMITHFIELD, UT, 84335",155105148,"R"
279053,"714 E ANDERSON ROAD","DONNA","TX",78537,26.2709585900001,-98.052180713,53,"714 E ANDERSON ROAD, DONNA, TX, 78537","Match","Exact","714 ANDERSON RD, DONNA, TX, 78537",71541745,"L"
279054,"714 E JEFFERSON","RICHLAND","MO",65556,37.8594032440001,-92.3908291879999,54,"714 E JEFFERSON, RICHLAND, MO, 65556","Match","Non_Exact","714 E JEFFERSON AVE, RICHLAND, MO, 65556",26402981,"R"
279055,"714 E OAKSIDE ST","SOUTH BEND","IN",46614,41.6455415200001,-86.24103822,55,"714 E OAKSIDE ST, SOUTH BEND, IN, 46614","Match","Exact","714 E OAKSIDE ST, SOUTH BEND, IN, 46614",8057655,"R"
279056,"714 E VIRGINIA","GLENDORA","CA",91741,34.1451301860001,-117.854365205,56,"714 E VIRGINIA, GLENDORA, CA, 91741","Match","Non_Exact","714 E VIRGINIA AVE, GLENDORA, CA, 91741",141717539,"R"
279057,"714 EAST BELTLINE ROAD","DESOTO","TX",75115,32.5897867690001,-96.870873285,57,"714 EAST BELTLINE ROAD, DESOTO, TX, 75115","Match","Non_Exact","714 W BELT LINE RD, DESOTO, TX, 75115",102944138,"L"
279058,"714 EAST DRIVE","MEMPHIS","TN",38112,NA,NA,58,"714 EAST DRIVE, MEMPHIS, TN, 38112","No_Match",NA,NA,NA,NA
279059,"714 EAST MAIN STREE","TITUSVILLE","PA",16354,41.6281099180001,-79.659003566,59,"714 EAST MAIN STREE, TITUSVILLE, PA, 16354","Match","Non_Exact","714 E MAIN ST, TITUSVILLE, PA, 16354",647331353,"R"
279060,"714 ECHLES STREET","MEMPHIS","TN",38111,35.111795188,-89.938370112,60,"714 ECHLES STREET, MEMPHIS, TN, 38111","Match","Exact","714 ECHLES ST, MEMPHIS, TN, 38111",72919792,"L"
279061,"714 ENTERPRISE BLVD","LAKE CHARLES","LA",70601,30.2292853970001,-93.2042873299999,61,"714 ENTERPRISE BLVD, LAKE CHARLES, LA, 70601","Match","Exact","714 ENTERPRISE BLVD, LAKE CHARLES, LA, 70601",88436438,"R"
279062,"714 FREDERICKSBURG RD","SAN ANTONIO","TX",78201,29.449446263,-98.511364565,62,"714 FREDERICKSBURG RD, SAN ANTONIO, TX, 78201","Match","Exact","714 FREDERICKSBURG RD, SAN ANTONIO, TX, 78201",101514788,"R"
279063,"714 GERMANTOWN PIKE","LAFAYETTE HILL","PA",19444,40.0848184970001,-75.245944276,63,"714 GERMANTOWN PIKE, LAFAYETTE HILL, PA, 19444","Match","Exact","714 GERMANTOWN PIKE, LAFAYETTE HILL, PA, 19444",135132334,"R"
279064,"714 GLENWOOD DYER ROAD","GLENWOOD","IL",60425,41.537201596,-87.594246261,64,"714 GLENWOOD DYER ROAD, GLENWOOD, IL, 60425","Match","Exact","714 GLENWOOD DYER RD, GLENWOOD, IL, 60425",632749281,"L"
279065,"714 GREENSBORO AVE SUITE G78","TUSCALOOSA","AL",35401,33.2077235630001,-87.5674800959999,65,"714 GREENSBORO AVE SUITE G78, TUSCALOOSA, AL, 35401","Match","Exact","714 GREENSBORO AVE, TUSCALOOSA, AL, 35401",82147707,"R"
279066,"714 HALE DR","ALPINE","CA",91901,32.8459248990001,-116.764678088,66,"714 HALE DR, ALPINE, CA, 91901","Match","Exact","714 HALE DR, ALPINE, CA, 91901",195423074,"R"
279067,"714 HARTLINE DRIVE","MACCLENNY","FL",32063,30.272095962,-82.1294584569999,67,"714 HARTLINE DRIVE, MACCLENNY, FL, 32063","Match","Exact","714 HARTLINE DR, MACCLENNY, FL, 32063",634785146,"L"
279068,"714 HELEN CT","CRANBERRY TWP","PA",16066,40.6845029360001,-80.1447339109999,68,"714 HELEN CT, CRANBERRY TWP, PA, 16066","Match","Exact","714 HELEN CT, CRANBERRY TOWNSHIP, PA, 16066",52688590,"R"
279069,"714 HUNTER CT SW","VIENNA","VA",22180,38.8865740680001,-77.2699093809999,69,"714 HUNTER CT SW, VIENNA, VA, 22180","Match","Exact","714 HUNTER CT SW, VIENNA, VA, 22180",75968855,"R"
279070,"714 JAMESTOWN ROAD","WILLIAMSBURG","VA",23185,37.2655867930001,-76.7182158479999,70,"714 JAMESTOWN ROAD, WILLIAMSBURG, VA, 23185","Match","Exact","714 JAMESTOWN RD, WILLIAMSBURG, VA, 23185",103839028,"R"
279071,"714 JULIAN CIRCLE","LAFAYETTE","CO",80026,39.9935203040001,-105.106730366,71,"714 JULIAN CIRCLE, LAFAYETTE, CO, 80026","Match","Exact","714 JULIAN CIR, LAFAYETTE, CO, 80026",188184186,"R"
279072,"714 KENNEDY STREET NW STE 2","WASHINGTON","DC",20011,38.956363761,-77.0226543319999,72,"714 KENNEDY STREET NW STE 2, WASHINGTON, DC, 20011","Match","Exact","714 KENNEDY ST NW, WASHINGTON, DC, 20011",76223389,"L"
279073,"714 KENTUCKY AVE","ST CLOUD","FL",34769,28.2514236170001,-81.285797187,73,"714 KENTUCKY AVE, ST CLOUD, FL, 34769","Match","Exact","714 KENTUCKY AVE, SAINT CLOUD, FL, 34769",176660212,"R"
279074,"714 LANDSDOWNE AVE","PORTAGE","MI",49002,42.2440538650001,-85.5816238909999,74,"714 LANDSDOWNE AVE, PORTAGE, MI, 49002","Match","Exact","714 LANDSDOWNE AVE, PORTAGE, MI, 49002",12230438,"L"
279075,"714 LIBERTY ST","DALLAS","TX",75204,32.7903038110001,-96.7878168189999,75,"714 LIBERTY ST, DALLAS, TX, 75204","Match","Exact","714 LIBERTY ST, DALLAS, TX, 75204",647936539,"R"
279076,"714 LONG BEACH BLVD","COMPTON","CA",90221,NA,NA,76,"714 LONG BEACH BLVD, COMPTON, CA, 90221","Tie",NA,NA,NA,NA
279077,"714 LUDLOW AVE","ROCHESTER","MI",48307,42.684001719,-83.1425087439999,77,"714 LUDLOW AVE, ROCHESTER, MI, 48307","Match","Exact","714 LUDLOW AVE, ROCHESTER, MI, 48307",69713144,"R"
279078,"714 MABELLE ST","MOSCOW","ID",83843,46.7259788960001,-116.992268968,78,"714 MABELLE ST, MOSCOW, ID, 83843","Match","Exact","714 MABELLE ST, MOSCOW, ID, 83843",193870688,"R"
279079,"714 MAIN STREET","BESSIE","OK",73622,NA,NA,79,"714 MAIN STREET, BESSIE, OK, 73622","No_Match",NA,NA,NA,NA
279080,"714 MILL POND DR","PHENIX CITY","AL",36870,NA,NA,80,"714 MILL POND DR, PHENIX CITY, AL, 36870","No_Match",NA,NA,NA,NA
279081,"714 MISSISSIPPI STREET","LAWRENCE","KS",66044,38.9708826410001,-95.244062861,81,"714 MISSISSIPPI STREET, LAWRENCE, KS, 66044","Match","Exact","714 MISSISSIPPI ST, LAWRENCE, KS, 66044",17683918,"L"
279082,"714 MLK JR BLVD  SUITE 3","SAVANNAH","GA",31401,32.0689475470001,-81.10153482,82,"714 MLK JR BLVD  SUITE 3, SAVANNAH, GA, 31401","Match","Exact","714 MARTIN LUTHER KING JR BLVD, SAVANNAH, GA, 31401",6171091,"L"
279083,"714 MONTAUK HIGHWAY","EAST QUOGUE","NY",11942,40.837481516,-72.5845554859999,83,"714 MONTAUK HIGHWAY, EAST QUOGUE, NY, 11942","Match","Exact","714 MONTAUK HWY, EAST QUOGUE, NY, 11942",114027805,"L"
279084,"714 MORRIS PARK AVE","BRONX","NY",10462,40.845336751,-73.86554591,84,"714 MORRIS PARK AVE, BRONX, NY, 10462","Match","Exact","714 MORRIS PARK AVE, BRONX, NY, 10462",80304440,"R"
279085,"714 N 44TH STREET","KENTWOOD","MI",49548,42.8838249730001,-85.64829837,85,"714 N 44TH STREET, KENTWOOD, MI, 49548","Match","Non_Exact","714 44TH ST SE, KENTWOOD, MI, 49548",652807869,"R"
279086,"714 N 56TH STREET","OMAHA","NE",68132,41.267208473,-95.998243947,86,"714 N 56TH STREET, OMAHA, NE, 68132","Match","Exact","714 N 56TH ST, OMAHA, NE, 68132",116978497,"L"
279087,"714 N ATWOOD STREET","VISALIA","CA",93291,36.3352197130001,-119.347081043,87,"714 N ATWOOD STREET, VISALIA, CA, 93291","Match","Exact","714 N ATWOOD ST, VISALIA, CA, 93291",202795399,"R"
279088,"714 N KENTUCKY","IOLA","KS",66749,37.929611879,-95.3907208809999,88,"714 N KENTUCKY, IOLA, KS, 66749","Match","Non_Exact","714 N KENTUCKY ST, IOLA, KS, 66749",27425639,"L"
279089,"714 N MAIN ST","FONDA","IA",50540,42.5869978200001,-94.846170523,89,"714 N MAIN ST, FONDA, IA, 50540","Match","Exact","714 N MAIN ST, FONDA, IA, 50540",77476586,"R"
279090,"714 N THIRD STREET","MARQUETTE","MI",49855,46.5493818150001,-87.394750317,90,"714 N THIRD STREET, MARQUETTE, MI, 49855","Match","Exact","714 N 3RD ST, MARQUETTE, MI, 49855",182034725,"R"
279091,"714 NORTH BROADWAY AVE","OKLAHOMA CITY","OK",73102,35.474191498,-97.5142222059999,91,"714 NORTH BROADWAY AVE, OKLAHOMA CITY, OK, 73102","Match","Exact","714 N BROADWAY AVE, OKLAHOMA CITY, OK, 73102",100402408,"R"
279092,"714 NORTH LEONA LANE","FORREST","IL",61741,40.7556054470001,-88.414114071,92,"714 NORTH LEONA LANE, FORREST, IL, 61741","Match","Non_Exact","714 LEONA LN, FORREST, IL, 61741",22391175,"L"
279093,"714 NOTTING HILL WAY","MADISON","WI",53718,43.088321244,-89.263551621,93,"714 NOTTING HILL WAY, MADISON, WI, 53718","Match","Exact","714 NOTTING HILL WAY, MADISON, WI, 53718",627013027,"L"
279094,"714 NW 3RD DR","PENDLETON","OR",97801,45.6788449150001,-118.790170705,94,"714 NW 3RD DR, PENDLETON, OR, 97801","Match","Exact","714 NW 3RD DR, PENDLETON, OR, 97801",170432919,"R"
279095,"714 ORCHARD AVENUE","OPELIKA","AL",36801,32.6400017080001,-85.384726069,95,"714 ORCHARD AVENUE, OPELIKA, AL, 36801","Match","Exact","714 ORCHARD AVE, OPELIKA, AL, 36801",1571687,"R"
279096,"714 OVERBROOK DRIVE","COLUMBUS","OH",43214,40.047305984,-83.001572965,96,"714 OVERBROOK DRIVE, COLUMBUS, OH, 43214","Match","Exact","714 OVERBROOK DR, COLUMBUS, OH, 43214",218693917,"L"
279097,"714 PARKER DEN DRIVE","RUSKIN","FL",33570,27.724995247,-82.442811295,97,"714 PARKER DEN DRIVE, RUSKIN, FL, 33570","Match","Exact","714 PARKER DEN DR, RUSKIN, FL, 33570",624780309,"L"
279098,"714 PARKVIEW LN","MADISON","MN",56256,45.015162785,-96.182890743,98,"714 PARKVIEW LN, MADISON, MN, 56256","Match","Exact","714 PARKVIEW LN, MADISON, MN, 56256",165078166,"R"
279099,"714 PERIWINKLE LANE","AURORA","IL",60504,41.743465891,-88.272381562,99,"714 PERIWINKLE LANE, AURORA, IL, 60504","Match","Exact","714 PERIWINKLE LN, AURORA, IL, 60504",119566951,"L"
279100,"714 PINE STREET","CALLAO","MO",63534,39.766079355,-92.623327535,100,"714 PINE STREET, CALLAO, MO, 63534","Match","Exact","714 PINE ST, CALLAO, MO, 63534",636259688,"R"
279101,"714 PLUMAS ST","YUBA CITY","CA",95992,39.138038142,-121.616538238,101,"714 PLUMAS ST, YUBA CITY, CA, 95992","Match","Non_Exact","714 PLUMAS ST, YUBA CITY, CA, 95991",68568765,"L"
279102,"714 POINT LICK TERRACE","CHARLESTON","WV",25306,38.3244228790001,-81.507231346,102,"714 POINT LICK TERRACE, CHARLESTON, WV, 25306","Match","Exact","714 POINT LICK TER, CHARLESTON, WV, 25306",78635075,"R"
279103,"714 RICHEY ROAD","TAYLORSVILLE","NC",28681,35.8483014510001,-81.318434199,103,"714 RICHEY ROAD, TAYLORSVILLE, NC, 28681","Match","Exact","714 RICHEY RD, TAYLORSVILLE, NC, 28681",45794739,"R"
279104,"714 ROARING SPRINGS DRIVE","GLENN HEIGHTS","TX",75154,32.5523029280001,-96.871247908,104,"714 ROARING SPRINGS DRIVE, GLENN HEIGHTS, TX, 75154","Match","Exact","714 ROARING SPRINGS DR, GLENN HEIGHTS, TX, 75154",103279765,"R"
279105,"714 S BROOKS RD","MEDICAL LAKE","WA",99022,47.649677974,-117.686572294,105,"714 S BROOKS RD, MEDICAL LAKE, WA, 99022","Match","Exact","714 S BROOKS RD, MEDICAL LAKE, WA, 99022",636698317,"L"
279106,"714 S EBERLING DR","MUSTANG","OK",73064,NA,NA,106,"714 S EBERLING DR, MUSTANG, OK, 73064","No_Match",NA,NA,NA,NA
279107,"714 S FRONT STREET","CHESANING","MI",48616,43.1796378810001,-84.116722249,107,"714 S FRONT STREET, CHESANING, MI, 48616","Match","Exact","714 S FRONT ST, CHESANING, MI, 48616",647414285,"L"
279108,"714 SAMARA AVENUE","VOLGA","SD",57071,44.3166904390001,-96.928407109,108,"714 SAMARA AVENUE, VOLGA, SD, 57071","Match","Exact","714 SAMARA AVE, VOLGA, SD, 57071",193622050,"R"
279109,"714 SE 16TH AVE B","PORTLAND","OR",97214,45.517757987,-122.649572543,109,"714 SE 16TH AVE B, PORTLAND, OR, 97214","Match","Non_Exact","714 SE 16TH AVE, PORTLAND, OR, 97214",157506923,"L"
279110,"714 SHAMROCK BLVD","VENICE","FL",34293,27.0739991310001,-82.4006399739999,110,"714 SHAMROCK BLVD, VENICE, FL, 34293","Match","Exact","714 SHAMROCK BLVD, VENICE, FL, 34293",649835875,"R"
279111,"714 SOUTH LAKE DRIVE","LEXINGTON","SC",29072,33.969163705,-81.234996845,111,"714 SOUTH LAKE DRIVE, LEXINGTON, SC, 29072","Match","Exact","714 S LAKE DR, LEXINGTON, SC, 29072",647022060,"L"
279112,"714 SOUTH PEA RIDGE ROAD","TEMPLE","TX",76502,31.113700716,-97.432004002,112,"714 SOUTH PEA RIDGE ROAD, TEMPLE, TX, 76502","Match","Exact","714 S PEA RIDGE RD, TEMPLE, TX, 76502",146198959,"L"
279113,"714 SOUTHARD ST","KEY WEST","FL",33040,24.5567061580001,-81.7990970289999,113,"714 SOUTHARD ST, KEY WEST, FL, 33040","Match","Exact","714 SOUTHARD ST, KEY WEST, FL, 33040",116484334,"R"
279114,"714 SPELLMAN DR","FLINT","MI",48503,43.030764983,-83.692384233,114,"714 SPELLMAN DR, FLINT, MI, 48503","Match","Non_Exact","714 SPELMAN DR, FLINT, MI, 48503",617481407,"R"
279115,"714 STAPLES AVENUE","KALAMAZOO","MI",49007,42.2977077520001,-85.597121563,115,"714 STAPLES AVENUE, KALAMAZOO, MI, 49007","Match","Exact","714 STAPLES AVE, KALAMAZOO, MI, 49007",12226601,"R"
279116,"714 SW 16TH AVE APT 309","GAINESVILLE","FL",32601,NA,NA,116,"714 SW 16TH AVE APT 309, GAINESVILLE, FL, 32601","Tie",NA,NA,NA,NA
279117,"714 TAHLENA AVENUE","MADISON","TN",37115,36.2507666320001,-86.691842621,117,"714 TAHLENA AVENUE, MADISON, TN, 37115","Match","Exact","714 TAHLENA AVE, MADISON, TN, 37115",97183363,"R"
279118,"714 TERRACE PLACE","UNIONDALE","NY",11553,40.6956919040001,-73.5874639789999,118,"714 TERRACE PLACE, UNIONDALE, NY, 11553","Match","Exact","714 TERRACE PL, UNIONDALE, NY, 11553",147630447,"R"
279119,"714 VENTURE DRIVE NUM 190","MORGANTOWN","WV",26508,NA,NA,119,"714 VENTURE DRIVE NUM 190, MORGANTOWN, WV, 26508","No_Match",NA,NA,NA,NA
279120,"714 VISTA VIA DR","TAFT","CA",93268,35.1302429580001,-119.478307792,120,"714 VISTA VIA DR, TAFT, CA, 93268","Match","Exact","714 VISTA VIA DR, TAFT, CA, 93268",109450321,"L"
279121,"714 W 5TH STREET SUITE 120","HASTINGS","NE",68901,NA,NA,121,"714 W 5TH STREET SUITE 120, HASTINGS, NE, 68901","Tie",NA,NA,NA,NA
279122,"714 W EDGEWOOD AVE","MESA","AZ",85210,33.3997611790001,-111.845989491,122,"714 W EDGEWOOD AVE, MESA, AZ, 85210","Match","Exact","714 W EDGEWOOD AVE, MESA, AZ, 85210",128235250,"R"
279123,"714 WALNUT HOLLOW","MANSFIELD","TX",76063,32.5737978670001,-97.1036152089999,123,"714 WALNUT HOLLOW, MANSFIELD, TX, 76063","Match","Non_Exact","714 WALNUT HOLLOW DR, MANSFIELD, TX, 76063",618508013,"R"
279124,"714 WEST 7TH STREET","ATLANTIC","IA",50022,41.404064029,-95.022587097,124,"714 WEST 7TH STREET, ATLANTIC, IA, 50022","Match","Exact","714 W 7TH ST, ATLANTIC, IA, 50022",61593976,"L"
279125,"714-91 ST","NIAGARA FALLS","NY",14304,NA,NA,125,"714-91 ST, NIAGARA FALLS, NY, 14304","No_Match",NA,NA,NA,NA
279126,"714","DUMFRIES","VA",22026,NA,NA,126,"714, DUMFRIES, VA, 22026","No_Match",NA,NA,NA,NA
279127,"714","GLENNALLEN","AK",99588,NA,NA,127,"714, GLENNALLEN, AK, 99588","No_Match",NA,NA,NA,NA
279128,"714","LOS ALTOS","CA",94023,NA,NA,128,"714, LOS ALTOS, CA, 94023","No_Match",NA,NA,NA,NA
279129,"7140 BLUFFSTREAM CT","COLUMBUS","OH",43235,40.1110155320001,-83.047736831,129,"7140 BLUFFSTREAM CT, COLUMBUS, OH, 43235","Match","Exact","7140 BLUFFSTREAM CT, COLUMBUS, OH, 43235",135620982,"L"
279130,"7140 E STATE ST","COLUMBUS","IN",47201,NA,NA,130,"7140 E STATE ST, COLUMBUS, IN, 47201","No_Match",NA,NA,NA,NA
279131,"7140 KEVIN COURT","HUDSONVILLE","MI",49426,42.8981507460001,-85.854023647,131,"7140 KEVIN COURT, HUDSONVILLE, MI, 49426","Match","Exact","7140 KEVIN CT, HUDSONVILLE, MI, 49426",71082911,"R"
279132,"7140 LAS VISTAS DRIVE","LAS CRUCES","NM",88005,32.261514705,-106.84839304,132,"7140 LAS VISTAS DRIVE, LAS CRUCES, NM, 88005","Match","Exact","7140 LAS VISTAS DR, LAS CRUCES, NM, 88005",612734493,"R"
279133,"7140 MICKEN RD C","BATON ROUGE","LA",70811,NA,NA,133,"7140 MICKEN RD C, BATON ROUGE, LA, 70811","No_Match",NA,NA,NA,NA
279134,"7140 OAK HILLS LANE","COLORADO SPRINGS","CO",80919,38.935077737,-104.851759239,134,"7140 OAK HILLS LANE, COLORADO SPRINGS, CO, 80919","Match","Exact","7140 OAK HILLS LN, COLORADO SPRINGS, CO, 80919",105509106,"L"
279135,"7140 S STATE RD 63","TERRE HAUTE","IN",47802,39.380569049,-87.4588060139999,135,"7140 S STATE RD 63, TERRE HAUTE, IN, 47802","Match","Non_Exact","7140 S STATE RD 63, TERRE HAUTE, IN, 47802",636111388,"L"
279136,"7140 STEWART LANE","BENBROOK","TX",76126,32.6686765370001,-97.4946656879999,136,"7140 STEWART LANE, BENBROOK, TX, 76126","Match","Exact","7140 STEWART LN, BENBROOK, TX, 76126",616465727,"R"
279137,"7140 VINLAND STREET","DALLAS","TX",75227,32.789298617,-96.6887612949999,137,"7140 VINLAND STREET, DALLAS, TX, 75227","Match","Exact","7140 VINLAND ST, DALLAS, TX, 75227",102971837,"L"
279138,"7140 W HAPPY VALLEY ROAD","PEORIA","AZ",85383,33.7108418890001,-112.212788891,138,"7140 W HAPPY VALLEY ROAD, PEORIA, AZ, 85383","Match","Exact","7140 W HAPPY VALLEY RD, PEORIA, AZ, 85383",635212063,"R"
279139,"7141 DOUGLAS ROAD","JOELTON","TN",37080,36.324747932,-86.9053969139999,139,"7141 DOUGLAS ROAD, JOELTON, TN, 37080","Match","Exact","7141 DOUGLAS RD, JOELTON, TN, 37080",639246628,"L"
279140,"7141 ELLIOTT DR","DALLAS","TX",75227,32.790168646,-96.688871604,140,"7141 ELLIOTT DR, DALLAS, TX, 75227","Match","Exact","7141 ELLIOTT DR, DALLAS, TX, 75227",102924931,"L"
279141,"7141 KEIBER CIR","YOUNGSTOWN","FL",32466,30.3129762460001,-85.5350855469999,141,"7141 KEIBER CIR, YOUNGSTOWN, FL, 32466","Match","Exact","7141 KEIBER CIR, YOUNGSTOWN, FL, 32466",7050713,"L"
279142,"7141 MAPLELAWN DRIVE","YPSILANTI","MI",48197,42.186515371,-83.572451713,142,"7141 MAPLELAWN DRIVE, YPSILANTI, MI, 48197","Match","Exact","7141 MAPLELAWN DR, YPSILANTI, MI, 48197",619256476,"R"
279143,"7141 MERCURY AVE","HAYMARKET","VA",20169,38.8015863470001,-77.648131604,143,"7141 MERCURY AVE, HAYMARKET, VA, 20169","Match","Exact","7141 MERCURY AVE, HAYMARKET, VA, 20169",652319468,"L"
279144,"7141 RIDGEFIELD DRIVE","NEW ORLEANS","LA",70128,30.0600332330001,-89.94783704,144,"7141 RIDGEFIELD DRIVE, NEW ORLEANS, LA, 70128","Match","Exact","7141 RIDGEFIELD DR, NEW ORLEANS, LA, 70128",191748866,"R"
279145,"71415 220TH STREET","COLO","IA",50056,42.0342621350001,-93.281352413,145,"71415 220TH STREET, COLO, IA, 50056","Match","Exact","71415 220TH ST, COLO, IA, 50056",65964063,"L"
279146,"7142 N 57TH AVE","GLENDALE","AZ",85301,33.5415623960001,-112.181188036,146,"7142 N 57TH AVE, GLENDALE, AZ, 85301","Match","Exact","7142 N 57TH AVE, GLENDALE, AZ, 85301",128193064,"L"
279147,"7142 PARK AVENUE","HOUMA","LA",70364,29.6028713910001,-90.73930718,147,"7142 PARK AVENUE, HOUMA, LA, 70364","Match","Non_Exact","7142 W PARK AVE, HOUMA, LA, 70364",92049753,"L"
279148,"7142 RACINE WAY","RALEIGH","NC",27615,35.8757293740001,-78.5957473829999,148,"7142 RACINE WAY, RALEIGH, NC, 27615","Match","Exact","7142 RACINE WAY, RALEIGH, NC, 27615",635864650,"R"
279149,"7143 E SOUTHERN AVE STE 135","MESA","AZ",85209,33.3933155990001,-111.677503542,149,"7143 E SOUTHERN AVE STE 135, MESA, AZ, 85209","Match","Non_Exact","7143 E SOUTHERN AVE, MESA, AZ, 85209",128252894,"R"
279150,"7143 FALMOUTH CURVE","SHAKOPEE","MN",55379,44.7807712920001,-93.430148248,150,"7143 FALMOUTH CURVE, SHAKOPEE, MN, 55379","Match","Exact","7143 FALMOUTH CURVE, SHAKOPEE, MN, 55379",38152975,"L"
279151,"7143 LERNER HALL","NEW YORK","NY",10027,NA,NA,151,"7143 LERNER HALL, NEW YORK, NY, 10027","No_Match",NA,NA,NA,NA
279152,"7143 S MICHIGAN AVE","CHICAGO","IL",60619,41.76476589,-87.6216628239999,152,"7143 S MICHIGAN AVE, CHICAGO, IL, 60619","Match","Exact","7143 S MICHIGAN AVE, CHICAGO, IL, 60619",111772298,"L"
279153,"7143 STATE RD 54 UNIT 109","NEW PORT RICHEY","FL",34653,NA,NA,153,"7143 STATE RD 54 UNIT 109, NEW PORT RICHEY, FL, 34653","No_Match",NA,NA,NA,NA
279154,"7143 SW SAGERT STREET UNIT104","TUALATIN","OR",97062,45.3754490270001,-122.750213046,154,"7143 SW SAGERT STREET UNIT104, TUALATIN, OR, 97062","Match","Non_Exact","7143 SW SAGERT ST, TUALATIN, OR, 97062",158193437,"R"
279155,"7143 VANN DRIVE","PITTSBURGH","PA",15206,40.4649183760001,-79.8943525879999,155,"7143 VANN DRIVE, PITTSBURGH, PA, 15206","Match","Non_Exact","7143 VANN RD, PITTSBURGH, PA, 15206",51647622,"R"
279156,"7143 W BRONCO TR","PEORIA","AZ",85383,33.7137941140001,-112.213135359,156,"7143 W BRONCO TR, PEORIA, AZ, 85383","Match","Exact","7143 W BRONCO TRL, PEORIA, AZ, 85383",640590557,"L"
279157,"7143 WILLOW CREEK RD","FORT WORTH","TX",76135,32.844293769,-97.518481853,157,"7143 WILLOW CREEK RD, FORT WORTH, TX, 76135","Match","Exact","7143 WILLOW CREEK RD, FORT WORTH, TX, 76135",101850129,"R"
279158,"7143 WOODLEY AVE","VAN NUYS","CA",91406,34.200098665,-118.483664374,158,"7143 WOODLEY AVE, VAN NUYS, CA, 91406","Match","Exact","7143 WOODLEY AVE, VAN NUYS, CA, 91406",141556362,"L"
279159,"7144 BEAUMONT PL","HANOVER","MD",21076,39.1845299340001,-76.737843211,159,"7144 BEAUMONT PL, HANOVER, MD, 21076","Match","Exact","7144 BEAUMONT PL, HANOVER, MD, 21076",645267231,"R"
279160,"7144 E STETSON DR  C200","SCOTTSDALE","AZ",85251,33.4994946320001,-111.927399385,160,"7144 E STETSON DR  C200, SCOTTSDALE, AZ, 85251","Match","Non_Exact","7144 E STETSON DR, SCOTTSDALE, AZ, 85251",128222601,"L"
279161,"7144 EVERGREEN BLVD","POLK CITY","FL",33860,28.2135558160001,-81.8191841669999,161,"7144 EVERGREEN BLVD, POLK CITY, FL, 33860","Match","Non_Exact","7144 EVERGREEN BLVD, POLK CITY, FL, 33868",104968188,"L"
279162,"7144 GENTRY ROAD","MARERRO","LA",70072,29.8784087000001,-90.129030181,162,"7144 GENTRY ROAD, MARERRO, LA, 70072","Match","Non_Exact","7144 GENTRY RD, MARRERO, LA, 70072",628673968,"L"
279163,"7144 MORNING LIGHT TRAIL","COLUMBIA","MD",21044,39.189264146,-76.916214537,163,"7144 MORNING LIGHT TRAIL, COLUMBIA, MD, 21044","Match","Exact","7144 MORNING LIGHT TRL, COLUMBIA, MD, 21044",158936674,"R"
279164,"7144 N HARLEM AVENUE UNIT 108","CHICAGO","IL",60631,42.0110494420001,-87.8066497359999,164,"7144 N HARLEM AVENUE UNIT 108, CHICAGO, IL, 60631","Match","Non_Exact","7144 N HARLEM AVE, CHICAGO, IL, 60631",112376060,"L"
279165,"7144 THOMAS BOULEVARD","PITTSBURGH","PA",15208,40.4513438330001,-79.901331812,165,"7144 THOMAS BOULEVARD, PITTSBURGH, PA, 15208","Match","Non_Exact","7144 THOMAS ST, PITTSBURGH, PA, 15208",51647320,"R"
279166,"7144 TREVENO PLACE","LOCUST GROVE","GA",30248,33.341308799,-84.205431119,166,"7144 TREVENO PLACE, LOCUST GROVE, GA, 30248","Match","Exact","7144 TREVENO PL, LOCUST GROVE, GA, 30248",648257784,"L"
279167,"7144 WATERMAN AVENUE","SAINT LOUIS","MO",63130,38.6535814060001,-90.319403614,167,"7144 WATERMAN AVENUE, SAINT LOUIS, MO, 63130","Match","Exact","7144 WATERMAN AVE, SAINT LOUIS, MO, 63130",100135868,"L"
279168,"7144 WINCHESTER ROAD","MEMPHIS","TN",38125,35.048978822,-89.824787119,168,"7144 WINCHESTER ROAD, MEMPHIS, TN, 38125","Match","Exact","7144 WINCHESTER RD, MEMPHIS, TN, 38125",72973928,"L"
279169,"7145 CYPRESS AVENUE UNIT 2","FONTANA","CA",92336,34.124205655,-117.444613461,169,"7145 CYPRESS AVENUE UNIT 2, FONTANA, CA, 92336","Match","Exact","7145 CYPRESS AVE, FONTANA, CA, 92336",617106213,"L"
279170,"7145 E SECOND ST","SCOTTSDALE","AZ",85251,33.491302408,-111.927076274,170,"7145 E SECOND ST, SCOTTSDALE, AZ, 85251","Match","Exact","7145 E 2ND ST, SCOTTSDALE, AZ, 85251",128222756,"R"
279171,"7145 FARMHOUSE LANE","CUMMING","GA",30028,34.27628285,-84.2402507629999,171,"7145 FARMHOUSE LANE, CUMMING, GA, 30028","Match","Non_Exact","7145 FARM HOUSE LN, CUMMING, GA, 30028",70184706,"R"
279172,"7145 HAVENRIDGE WAY","MCDONOUGH","GA",30253,33.4787894,-84.1565428609999,172,"7145 HAVENRIDGE WAY, MCDONOUGH, GA, 30253","Match","Exact","7145 HAVENRIDGE WAY, MCDONOUGH, GA, 30253",23202128,"R"
279173,"7145 HILLSIDE DR","CLARKSTON","MI",48346,42.733660027,-83.425092408,173,"7145 HILLSIDE DR, CLARKSTON, MI, 48346","Match","Exact","7145 HILLSIDE DR, CLARKSTON, MI, 48346",69768619,"L"
279174,"7145 MOHAWK STREET","SAN DIEGO","CA",92115,32.7698253500001,-117.043864889,174,"7145 MOHAWK STREET, SAN DIEGO, CA, 92115","Match","Exact","7145 MOHAWK ST, SAN DIEGO, CA, 92115",195323868,"R"
279175,"7145 NE MIAMI CT SUITE B14","MIAMI","FL",33138,25.840521419,-80.195587599,175,"7145 NE MIAMI CT SUITE B14, MIAMI, FL, 33138","Match","Non_Exact","7145 NE MIAMI CT, MIAMI, FL, 33138",116056332,"R"
279176,"7145 READING ROAD APT 411","ROSENBERG","TX",77471,29.5390399980001,-95.746163908,176,"7145 READING ROAD APT 411, ROSENBERG, TX, 77471","Match","Exact","7145 READING RD, ROSENBERG, TX, 77471",649135478,"L"
279177,"7145 S MAXWELL PT","HOMOSASSA","FL",34446,28.7582271630001,-82.531393508,177,"7145 S MAXWELL PT, HOMOSASSA, FL, 34446","Match","Exact","7145 S MAXWELL PT, HOMOSASSA, FL, 34446",610734535,"R"
279178,"7145 SITIO CORAZON","CARLSBAD","CA",92109,33.097302078,-117.224742766,178,"7145 SITIO CORAZON, CARLSBAD, CA, 92109","Match","Non_Exact","7145 SITIO CORAZON, CARLSBAD, CA, 92009",618731952,"L"
279179,"7145 SUMMIT ST","KANSAS CITY","MO",64114,38.9985991710001,-94.598455105,179,"7145 SUMMIT ST, KANSAS CITY, MO, 64114","Match","Exact","7145 SUMMIT ST, KANSAS CITY, MO, 64114",91453938,"L"
279180,"7145 TRACYTON BLVD NW","BREMERTON","WA",98311,47.6292418620001,-122.671434072,180,"7145 TRACYTON BLVD NW, BREMERTON, WA, 98311","Match","Exact","7145 TRACYTON BLVD NW, BREMERTON, WA, 98311",187653291,"L"
279181,"7145 VIA LEONARDO","LAKE WORTH","FL",33467,26.570905302,-80.177728547,181,"7145 VIA LEONARDO, LAKE WORTH, FL, 33467","Match","Exact","7145 VIA LEONARDO, LAKE WORTH, FL, 33467",625410095,"L"
279182,"7145 WARNER ROAD","PANAMA","NY",14767,42.098655029,-79.525079805,182,"7145 WARNER ROAD, PANAMA, NY, 14767","Match","Exact","7145 WARNER RD, PANAMA, NY, 14767",120773877,"R"
279183,"7146 EGYPT ROAD","STERLING","OH",44276,40.8879046870001,-81.8228019059999,183,"7146 EGYPT ROAD, STERLING, OH, 44276","Match","Exact","7146 EGYPT RD, STERLING, OH, 44276",58719752,"L"
279184,"7146 N 58 AVENUE","GLENDALE","AZ",85301,33.5416127180001,-112.183673047,184,"7146 N 58 AVENUE, GLENDALE, AZ, 85301","Match","Exact","7146 N 58TH AVE, GLENDALE, AZ, 85301",128193033,"L"
279185,"7146 SE 12TH CIRCLE","OCALA","FL",34480,29.114295665,-82.1144139849999,185,"7146 SE 12TH CIRCLE, OCALA, FL, 34480","Match","Exact","7146 SE 12TH CIR, OCALA, FL, 34480",625727781,"R"
279186,"7147 DESERT JEWEL DR","EL PASO","TX",79912,NA,NA,186,"7147 DESERT JEWEL DR, EL PASO, TX, 79912","No_Match",NA,NA,NA,NA
279187,"7147 E COLUMBUS DRIVE","ANAHEIM","CA",92807,33.8395365800001,-117.743465631,187,"7147 E COLUMBUS DRIVE, ANAHEIM, CA, 92807","Match","Exact","7147 COLUMBUS DR, ANAHEIM, CA, 92807",144009677,"L"
279188,"7147 E RANCHO VISTA DR - B35","SCOTTSDALE","AZ",85251,33.5076604220001,-111.92710625,188,"7147 E RANCHO VISTA DR - B35, SCOTTSDALE, AZ, 85251","Match","Non_Exact","7147 E RANCHO VISTA DR, SCOTTSDALE, AZ, 85251",128222582,"L"
279189,"7147 GLEN OAKS DRIVE","BATON ROUGE","LA",70812,30.510149379,-91.118859715,189,"7147 GLEN OAKS DRIVE, BATON ROUGE, LA, 70812","Match","Exact","7147 GLEN OAKS DR, BATON ROUGE, LA, 70812",92188379,"L"
279190,"7147 JONESBORO ROAD SUITE 870051","JONESBORO","GA",30287,NA,NA,190,"7147 JONESBORO ROAD SUITE 870051, JONESBORO, GA, 30287","No_Match",NA,NA,NA,NA
279191,"7147 KENTHURST LN","THE PLAINS","VA",20198,38.8110553270001,-77.802721076,191,"7147 KENTHURST LN, THE PLAINS, VA, 20198","Match","Exact","7147 KENTHURST LN, THE PLAINS, VA, 20198",146306574,"R"
279192,"7147 PLEASANT GROVE ROAD","PLEASANT GROVE","CA",95668,38.7760522610001,-121.488260039,192,"7147 PLEASANT GROVE ROAD, PLEASANT GROVE, CA, 95668","Match","Exact","7147 PLEASANT GROVE RD, PLEASANT GROVE, CA, 95668",652196907,"R"
279193,"7147 SMOOTH PATH","COLUMBIA","MD",21045,39.187743013,-76.83829273,193,"7147 SMOOTH PATH, COLUMBIA, MD, 21045","Match","Exact","7147 SMOOTH PATH, COLUMBIA, MD, 21045",158926013,"L"
279194,"7147 VERONA BLVD","PITTSBURGH","PA",15235,40.4745774180001,-79.8880895029999,194,"7147 VERONA BLVD, PITTSBURGH, PA, 15235","Match","Exact","7147 VERONA BLVD, PITTSBURGH, PA, 15235",629110172,"L"
279195,"7147 WEST 800 SOUTH","UNION MILLS","IN",46382,41.49178762,-86.839037199,195,"7147 WEST 800 SOUTH, UNION MILLS, IN, 46382","Match","Exact","7147 W 800 S, UNION MILLS, IN, 46382",15401109,"R"
279196,"7148 COBBLEDALE AVE NW","NORTH CANTON","OH",44720,40.8842953560001,-81.461873445,196,"7148 COBBLEDALE AVE NW, NORTH CANTON, OH, 44720","Match","Exact","7148 COBBLEDALE AVE NW, NORTH CANTON, OH, 44720",64707425,"R"
279197,"7148 MILLERS MANOR CT","LIBERTY TWP","OH",45011,39.3742718460001,-84.442191336,197,"7148 MILLERS MANOR CT, LIBERTY TWP, OH, 45011","Match","Exact","7148 MILLERS MANOR CT, LIBERTY TWP, OH, 45011",604775783,"L"
279198,"7148 S 96TH STREET","COTTAGE GROVE","MN",55016,44.811194087,-92.962887681,198,"7148 S 96TH STREET, COTTAGE GROVE, MN, 55016","Match","Non_Exact","7148 96TH ST S, COTTAGE GROVE, MN, 55016",97805752,"L"
279199,"7148 TALTON RIDGE DR","CARY","NC",27519,35.7994430370001,-78.8749766719999,199,"7148 TALTON RIDGE DR, CARY, NC, 27519","Match","Exact","7148 TALTON RIDGE DR, CARY, NC, 27519",624669609,"R"
279200,"7148 WESTHAVEN ROAD","NEW ORLEANS","LA",70126,30.032674285,-89.9966271549999,200,"7148 WESTHAVEN ROAD, NEW ORLEANS, LA, 70126","Match","Non_Exact","7148 WESTHAVEN DR, NEW ORLEANS, LA, 70126",191720497,"L"
279201,"7148 WHITFORD STREET","LAS VEGAS","NV",89166,36.2907057420001,-115.323365577,201,"7148 WHITFORD STREET, LAS VEGAS, NV, 89166","Match","Non_Exact","7148 N WHITFORD ST, LAS VEGAS, NV, 89166",627161901,"R"
279202,"7149 BEALE LN","COLORADO SPRINGS","CO",80916,38.823640932,-104.69229344,202,"7149 BEALE LN, COLORADO SPRINGS, CO, 80916","Match","Exact","7149 BEALE LN, COLORADO SPRINGS, CO, 80916",643444274,"R"
279203,"7149 MORAINE VALLEY LANE","STEVENS POINT","WI",54482,44.469113183,-89.4295490169999,203,"7149 MORAINE VALLEY LANE, STEVENS POINT, WI, 54482","Match","Exact","7149 MORAINE VALLEY LN, STEVENS POINT, WI, 54482",626227477,"L"
279204,"7149 NW WOLF RD","LAWTON","OK",73507,34.7971069970001,-98.51279762,204,"7149 NW WOLF RD, LAWTON, OK, 73507","Match","Exact","7149 NW WOLF RD, LAWTON, OK, 73507",14980427,"R"
279205,"7149 S PARNELL AVE","CHICAGO","IL",60621,41.764389308,-87.6382890039999,205,"7149 S PARNELL AVE, CHICAGO, IL, 60621","Match","Exact","7149 S PARNELL AVE, CHICAGO, IL, 60621",111831283,"L"
279206,"715  YUCATAN CT","KISSIMMEE","FL",34758,28.1589841160001,-81.45480127,206,"715  YUCATAN CT, KISSIMMEE, FL, 34758","Match","Exact","715 YUCATAN CT, KISSIMMEE, FL, 34758",176693237,"R"
279207,"715 1/2 PARK AVENUE","SOUTH PASADENA","CA",91030,34.1177834480001,-118.147761397,207,"715 1/2 PARK AVENUE, SOUTH PASADENA, CA, 91030","Match","Exact","715 PARK AVE, SOUTH PASADENA, CA, 91030",141630310,"R"
279208,"715 101ST AVENUE WEST","DULUTH","MN",55808,46.664061652,-92.227908183,208,"715 101ST AVENUE WEST, DULUTH, MN, 55808","Match","Exact","715 101ST AVE W, DULUTH, MN, 55808",636519486,"L"
279209,"715 15TH ST","BEAVER FALLS","PA",15010,40.7559644150001,-80.319569676,209,"715 15TH ST, BEAVER FALLS, PA, 15010","Match","Exact","715 15TH ST, BEAVER FALLS, PA, 15010",52556907,"L"
279210,"715 33RD STREET","SIOUX CITY","IA",51104,42.5272215200001,-96.4015696719999,210,"715 33RD STREET, SIOUX CITY, IA, 51104","Match","Exact","715 33RD ST, SIOUX CITY, IA, 51104",93445039,"L"
279211,"715 5 AVE","BROOKLYN","NY",11215,40.660659176,-73.994128991,211,"715 5 AVE, BROOKLYN, NY, 11215","Match","Exact","715 5TH AVE, BROOKLYN, NY, 11215",59075750,"L"
279212,"715 5TH AVE STE 22","HOLDREGE","NE",68949,40.4389726900001,-99.370470713,212,"715 5TH AVE STE 22, HOLDREGE, NE, 68949","Match","Exact","715 5TH AVE, HOLDREGE, NE, 68949",137762614,"L"
279213,"715 5TH AVE","PATTON","PA",16668,40.6334949050001,-78.6501590299999,213,"715 5TH AVE, PATTON, PA, 16668","Match","Exact","715 5TH AVE, PATTON, PA, 16668",50261002,"L"
279214,"715 7TH STREET","HOT SPRINGS","AR",71913,34.4953281420001,-93.068341843,214,"715 7TH STREET, HOT SPRINGS, AR, 71913","Match","Exact","715 7TH ST, HOT SPRINGS, AR, 71913",22732971,"R"
279215,"715 A GILBERT FERRY RD","ATTALLA","AL",35954,33.996861419,-86.098402218,215,"715 A GILBERT FERRY RD, ATTALLA, AL, 35954","Match","Non_Exact","715 GILBERT FERRY RD SE, ATTALLA, AL, 35954",66765564,"L"
279216,"715 ALDRIDGE DRIVE","KOKOMO","IN",46902,40.458093708,-86.1391839029999,216,"715 ALDRIDGE DRIVE, KOKOMO, IN, 46902","Match","Exact","715 ALDRIDGE DR, KOKOMO, IN, 46902",27264255,"L"
279217,"715 ANCHORAGE AVE","MODESTO","CA",95350,37.684833047,-121.001939137,217,"715 ANCHORAGE AVE, MODESTO, CA, 95350","Match","Exact","715 ANCHORAGE AVE, MODESTO, CA, 95350",102600222,"R"
279218,"715 APACHE DRIVE","FREMONT","MI",49412,43.4599144060001,-85.9311625,218,"715 APACHE DRIVE, FREMONT, MI, 49412","Match","Exact","715 APACHE DR, FREMONT, MI, 49412",640430641,"R"
279219,"715 ARMOUR ROAD 309","NORTH KANSAS CITY","MO",64116,39.1428464630001,-94.5723669069999,219,"715 ARMOUR ROAD 309, NORTH KANSAS CITY, MO, 64116","Match","Exact","715 ARMOUR RD, N KANSAS CITY, MO, 64116",89756762,"R"
279220,"715 AVENUE S","BROOKLYN","NY",11223,NA,NA,220,"715 AVENUE S, BROOKLYN, NY, 11223","No_Match",NA,NA,NA,NA
279221,"715 BRECKENRIDGE STREET","HELENA","MT",59601,46.585220749,-112.029406964,221,"715 BRECKENRIDGE STREET, HELENA, MT, 59601","Match","Exact","715 BRECKENRIDGE ST, HELENA, MT, 59601",202349912,"L"
279222,"715 BRIXTON CIRCLE","SIMPSONVILLE","SC",29681,34.815571581,-82.214594238,222,"715 BRIXTON CIRCLE, SIMPSONVILLE, SC, 29681","Match","Exact","715 BRIXTON CIR, SIMPSONVILLE, SC, 29681",628078103,"L"
279223,"715 C RAPIDAN RIVER CT","CHESAPEAKE","VA",23320,36.745295926,-76.268044813,223,"715 C RAPIDAN RIVER CT, CHESAPEAKE, VA, 23320","Match","Exact","715 RAPIDAN RIVER CT, CHESAPEAKE, VA, 23320",121781606,"L"
279224,"715 CAYUGA ST NW","MASSILLON","OH",44647,40.7969117390001,-81.5635587359999,224,"715 CAYUGA ST NW, MASSILLON, OH, 44647","Match","Exact","715 CAYUGA ST NW, MASSILLON, OH, 44647",64667964,"L"
279225,"715 CEDAR STREET","GARBERVILLE","CA",95542,40.1023330420001,-123.792079376,225,"715 CEDAR STREET, GARBERVILLE, CA, 95542","Match","Exact","715 CEDAR ST, GARBERVILLE, CA, 95542",113015170,"R"
279226,"715 COLLEGE STREET","HEALDSBURG","CA",95448,38.6178915570001,-122.865743971,226,"715 COLLEGE STREET, HEALDSBURG, CA, 95448","Match","Exact","715 COLLEGE ST, HEALDSBURG, CA, 95448",67461909,"L"
279227,"715 COTTONWOOD DRIVE","STARKVILLE","MS",39759,33.4534571610001,-88.8374079609999,227,"715 COTTONWOOD DRIVE, STARKVILLE, MS, 39759","Match","Exact","715 COTTONWOOD DR, STARKVILLE, MS, 39759",797326,"L"
279228,"715 CYPRIAN CT","GAMBRILLS","MD",21054,39.035889653,-76.657987377,228,"715 CYPRIAN CT, GAMBRILLS, MD, 21054","Match","Exact","715 CYPRIAN CT, GAMBRILLS, MD, 21054",68214530,"L"
279229,"715 DISCOVERY BLVD  SUITE 509","CEDAR PARK","TX",78613,30.5195871380001,-97.820393097,229,"715 DISCOVERY BLVD  SUITE 509, CEDAR PARK, TX, 78613","Match","Exact","715 DISCOVERY BLVD, CEDAR PARK, TX, 78613",126473566,"L"
279230,"715 DOOLAN CANYON DRIVE","UKIAH","CA",95482,39.1306043290001,-123.216451178,230,"715 DOOLAN CANYON DRIVE, UKIAH, CA, 95482","Match","Exact","715 DOOLAN CANYON DR, UKIAH, CA, 95482",634191974,"R"
279231,"715 E 19TH STREET","KEARNEY","MO",64060,39.3533220630001,-94.350281117,231,"715 E 19TH STREET, KEARNEY, MO, 64060","Match","Exact","715 E 19TH ST, KEARNEY, MO, 64060",89788354,"L"
279232,"715 E 5TH STREET SUITE 214","CHARLOTTE","NC",28202,NA,NA,232,"715 E 5TH STREET SUITE 214, CHARLOTTE, NC, 28202","Tie",NA,NA,NA,NA
279233,"715 E 6TH ST","NEWBERG","OR",97132,45.295819183,-122.972614757,233,"715 E 6TH ST, NEWBERG, OR, 97132","Match","Exact","715 E 6TH ST, NEWBERG, OR, 97132",156499789,"R"
279234,"715 E COLORADO BLVD","SPEARFISH","SD",57783,44.4826331630001,-103.848286232,234,"715 E COLORADO BLVD, SPEARFISH, SD, 57783","Match","Exact","715 E COLORADO BLVD, SPEARFISH, SD, 57783",193378439,"L"
279235,"715 E COLTON AVE","REDLANDS","CA",92374,34.0628428050001,-117.174683773,235,"715 E COLTON AVE, REDLANDS, CA, 92374","Match","Exact","715 E COLTON AVE, REDLANDS, CA, 92374",144664341,"L"
279236,"715 E HYMAN AVE","ASPEN","CO",81611,39.1882857480001,-106.815998567,236,"715 E HYMAN AVE, ASPEN, CO, 81611","Match","Exact","715 E HYMAN AVE, ASPEN, CO, 81611",105956724,"L"
279237,"715 E IDAHO AVE STE 1A","LAS CRUCES","NM",88001,32.2980195220001,-106.768406542,237,"715 E IDAHO AVE STE 1A, LAS CRUCES, NM, 88001","Match","Non_Exact","715 E IDAHO AVE, LAS CRUCES, NM, 88001",189545445,"L"
279238,"715 E WASHINGTON STREET","MUNCIE","IN",47305,40.1944263020001,-85.379283915,238,"715 E WASHINGTON STREET, MUNCIE, IN, 47305","Match","Exact","715 E WASHINGTON ST, MUNCIE, IN, 47305",30836560,"R"
279239,"715 EAST 249TH STREET","EUCLID","OH",44123,41.6047133260001,-81.510475718,239,"715 EAST 249TH STREET, EUCLID, OH, 44123","Match","Exact","715 E 249TH ST, EUCLID, OH, 44123",61108483,"L"
279240,"715 EAST 43RD STREET","BROOKLYN","NY",11203,40.63827395,-73.935727844,240,"715 EAST 43RD STREET, BROOKLYN, NY, 11203","Match","Exact","715 E 43RD ST, BROOKLYN, NY, 11203",59082084,"L"
279241,"715 ELM AVENUE","WACO","TX",76704,31.5670299350001,-97.122841921,241,"715 ELM AVENUE, WACO, TX, 76704","Match","Exact","715 ELM AVE, WACO, TX, 76704",146737869,"R"
279242,"715 EVERETT STREET SOUTH","STILLWATER","MN",55082,45.061253154,-92.816584032,242,"715 EVERETT STREET SOUTH, STILLWATER, MN, 55082","Match","Non_Exact","715 EVERETT ST, STILLWATER, MN, 55082",97790615,"L"
279243,"715 FLETCHER PL","ROCKVILLE","MD",20851,39.083453166,-77.118602359,243,"715 FLETCHER PL, ROCKVILLE, MD, 20851","Match","Exact","715 FLETCHER PL, ROCKVILLE, MD, 20851",62055498,"R"
279244,"715 FM1959 ROAD STE 503","HOUSTON","TX",77034,29.594008509,-95.179727416,244,"715 FM1959 ROAD STE 503, HOUSTON, TX, 77034","Match","Non_Exact","715 FM 1959 RD, HOUSTON, TX, 77034",96592532,"L"
279245,"715 FOXBORO LN","DALLAS","TX",75241,32.676323763,-96.8143138469999,245,"715 FOXBORO LN, DALLAS, TX, 75241","Match","Exact","715 FOXBORO LN, DALLAS, TX, 75241",102951679,"L"
279246,"715 GLEN STREET APARTMENT 3","JANESVILLE","WI",53545,42.6894937600001,-89.018414932,246,"715 GLEN STREET APARTMENT 3, JANESVILLE, WI, 53545","Match","Exact","715 GLEN ST, JANESVILLE, WI, 53545",49853865,"L"
279247,"715 HARRIETT ST","HENDERSON","NC",27536,36.3165312570001,-78.395757666,247,"715 HARRIETT ST, HENDERSON, NC, 27536","Match","Exact","715 HARRIETT ST, HENDERSON, NC, 27536",90271653,"R"
279248,"715 HIGHWAY 52","PRESTON","MN",55965,NA,NA,248,"715 HIGHWAY 52, PRESTON, MN, 55965","No_Match",NA,NA,NA,NA
279249,"715 HOLT STREET","FORDYCE","AR",71742,33.8174190870001,-92.431811861,249,"715 HOLT STREET, FORDYCE, AR, 71742","Match","Exact","715 HOLT ST, FORDYCE, AR, 71742",2392211,"L"
279250,"715 HUMBER LANE","ORLANDO","FL",32807,28.533356956,-81.302842716,250,"715 HUMBER LANE, ORLANDO, FL, 32807","Match","Exact","715 HUMBER LN, ORLANDO, FL, 32807",94294015,"L"
279251,"715 HUSTEAD ST APT 55","DUNCANVILLE","TX",75116,32.6603849200001,-96.907439529,251,"715 HUSTEAD ST APT 55, DUNCANVILLE, TX, 75116","Match","Exact","715 HUSTEAD ST, DUNCANVILLE, TX, 75116",102943095,"L"
279252,"715 IROQUOIS STREET","ORADELL","NJ",7649,40.9657851920001,-74.035308917,252,"715 IROQUOIS STREET, ORADELL, NJ, 7649","Match","Exact","715 IROQUOIS ST, ORADELL, NJ, 07649",64378870,"L"
279253,"715 KALAMAR DRIVE","LEHIGH ACRES","FL",33974,26.552553806,-81.64193604,253,"715 KALAMAR DRIVE, LEHIGH ACRES, FL, 33974","Match","Exact","715 KALAMAR DR, LEHIGH ACRES, FL, 33974",118083720,"L"
279254,"715 KOPAVI TRAIL","PRESCOTT","AZ",86303,34.53080966,-112.486813681,254,"715 KOPAVI TRAIL, PRESCOTT, AZ, 86303","Match","Exact","715 KOPAVI TRL, PRESCOTT, AZ, 86303",159457734,"R"
279255,"715 LINCOLN RD","MARQUETTE HEIGHTS","IL",61554,40.615653438,-89.602699711,255,"715 LINCOLN RD, MARQUETTE HEIGHTS, IL, 61554","Match","Exact","715 LINCOLN RD, MARQUETTE HEIGHTS, IL, 61554",608213955,"L"
279256,"715 LOGAN COURT","WYLIE","TX",75098,33.0154904340001,-96.552196255,256,"715 LOGAN COURT, WYLIE, TX, 75098","Match","Exact","715 LOGAN CT, WYLIE, TX, 75098",123550880,"L"
279257,"715 LONDON DRIVE","CHARLESTON","SC",29412,NA,NA,257,"715 LONDON DRIVE, CHARLESTON, SC, 29412","No_Match",NA,NA,NA,NA
279258,"715 LONGRUN RD","VALPARAISO","IN",46385,41.5382097680001,-87.142283199,258,"715 LONGRUN RD, VALPARAISO, IN, 46385","Match","Non_Exact","715 LONG RUN RD, VALPARAISO, IN, 46385",119911500,"R"
279259,"715 LUTHER BARGER RD","SALISBURY","NC",28146,35.5873110200001,-80.409112896,259,"715 LUTHER BARGER RD, SALISBURY, NC, 28146","Match","Exact","715 LUTHER BARGER RD, SALISBURY, NC, 28146",636862060,"R"
279260,"715 MAC ARTHUR BL","SAN LEANDRO","CA",94577,37.7379156120001,-122.14256361,260,"715 MAC ARTHUR BL, SAN LEANDRO, CA, 94577","Match","Non_Exact","715 MACARTHUR BLVD, SAN LEANDRO, CA, 94577",606341833,"R"
279261,"715 MAIN STREET","GROVEPORT","OH",43125,39.851026925,-82.880947175,261,"715 MAIN STREET, GROVEPORT, OH, 43125","Match","Exact","715 MAIN ST, GROVEPORT, OH, 43125",642841751,"R"
279262,"715 MAIN STREET","GROVEPORT","OH",43215,39.851026925,-82.880947175,262,"715 MAIN STREET, GROVEPORT, OH, 43215","Match","Non_Exact","715 MAIN ST, GROVEPORT, OH, 43125",642841751,"R"
279263,"715 MAIN STREET","QUINTER","KS",67752,39.0653635730001,-100.234795293,263,"715 MAIN STREET, QUINTER, KS, 67752","Match","Exact","715 MAIN ST, QUINTER, KS, 67752",203595194,"L"
279264,"715 MARTIN LUTHER KING JR BLVD","PANAMA CITY","FL",32401,30.1617087380001,-85.65032566,264,"715 MARTIN LUTHER KING JR BLVD, PANAMA CITY, FL, 32401","Match","Exact","715 MARTIN LUTHER KING JR BLVD, PANAMA CITY, FL, 32401",7029968,"L"
279265,"715 MARTIN STREET","CLEARFIELD","PA",16830,41.029011193,-78.4503284789999,265,"715 MARTIN STREET, CLEARFIELD, PA, 16830","Match","Exact","715 MARTIN ST, CLEARFIELD, PA, 16830",50514833,"R"
279266,"715 MEADOW AVE","ROCKDALE","IL",60436,41.506954636,-88.1164888929999,266,"715 MEADOW AVE, ROCKDALE, IL, 60436","Match","Exact","715 MEADOW AVE, ROCKDALE, IL, 60436",111540171,"R"
279267,"715 MIDWEST CLUB PARKWAY","OAK BROOK","IL",60523,41.8291658950001,-87.989196271,267,"715 MIDWEST CLUB PARKWAY, OAK BROOK, IL, 60523","Match","Exact","715 MIDWEST CLUB PKWY, OAK BROOK, IL, 60523",112547049,"L"
279268,"715 MORRIS STREET","ALBANY","NY",12208,42.6645574400001,-73.7920487059999,268,"715 MORRIS STREET, ALBANY, NY, 12208","Match","Exact","715 MORRIS ST, ALBANY, NY, 12208",18308550,"R"
279269,"715 MULBERRY ST","WATERLOO","IA",50703,42.4989914980001,-92.332766844,269,"715 MULBERRY ST, WATERLOO, IA, 50703","Match","Exact","715 MULBERRY ST, WATERLOO, IA, 50703",77252756,"L"
279270,"715 N 21ST APT 502","SAINT LOUIS","MO",63103,NA,NA,270,"715 N 21ST APT 502, SAINT LOUIS, MO, 63103","No_Match",NA,NA,NA,NA
279271,"715 N 43RD SR","WACO","TX",76710,NA,NA,271,"715 N 43RD SR, WACO, TX, 76710","No_Match",NA,NA,NA,NA
279272,"715 N FAIRVIEW AVE","MT PROSPECT","IL",60056,42.0792415330001,-87.945299946,272,"715 N FAIRVIEW AVE, MT PROSPECT, IL, 60056","Match","Exact","715 N FAIRVIEW AVE, MOUNT PROSPECT, IL, 60056",111719614,"R"
279273,"715 N MAIN ST","ST MARTINVILLE","LA",70582,30.12970847,-91.827304726,273,"715 N MAIN ST, ST MARTINVILLE, LA, 70582","Match","Exact","715 N MAIN ST, SAINT MARTINVILLE, LA, 70582",85834979,"L"
279274,"715 N MONROE ST","RIDGEWOOD","NJ",7450,41.0012432990001,-74.1306417289999,274,"715 N MONROE ST, RIDGEWOOD, NJ, 7450","Match","Exact","715 N MONROE ST, RIDGEWOOD, NJ, 07450",64404998,"R"
279275,"715 NAVY STREET","SANTA MONICA","CA",90405,34.0019543540001,-118.472962745,275,"715 NAVY STREET, SANTA MONICA, CA, 90405","Match","Exact","715 NAVY ST, SANTA MONICA, CA, 90405",141568951,"L"
279276,"715 NORTH HIGHLAND AVENUE","PITTSBURGH","PA",15206,40.4684892660001,-79.921583497,276,"715 NORTH HIGHLAND AVENUE, PITTSBURGH, PA, 15206","Match","Exact","715 N HIGHLAND AVE, PITTSBURGH, PA, 15206",639328973,"L"
279277,"715 NORTH PILATE AVENUE","NEWTON","MS",39345,32.325528923,-89.147326208,277,"715 NORTH PILATE AVENUE, NEWTON, MS, 39345","Match","Exact","715 N PILATE AVE, NEWTON, MS, 39345",4877069,"L"
279278,"715 NW 151ST STREET","VANCOUVER","WA",98685,45.730162137,-122.677821689,278,"715 NW 151ST STREET, VANCOUVER, WA, 98685","Match","Exact","715 NW 151ST ST, VANCOUVER, WA, 98685",158372206,"L"
279279,"715 NW 2ND ST","CHECOTAH","OK",74426,35.4781465470001,-95.522721062,279,"715 NW 2ND ST, CHECOTAH, OK, 74426","Match","Exact","715 NW 2ND ST, CHECOTAH, OK, 74426",632715577,"R"
279280,"715 PARK AVENUE SOUTH","ERIE","PA",16502,42.12399013,-80.101415184,280,"715 PARK AVENUE SOUTH, ERIE, PA, 16502","Match","Non_Exact","715 PARK AVE N, ERIE, PA, 16502",117494028,"L"
279281,"715 PARK MEADOW DR","KATY","TX",77450,29.771375483,-95.7449761139999,281,"715 PARK MEADOW DR, KATY, TX, 77450","Match","Exact","715 PARK MEADOW DR, KATY, TX, 77450",96013870,"R"
279282,"715 PARK STREET","GAINESVILLE","GA",30501,34.306247053,-83.8219535869999,282,"715 PARK STREET, GAINESVILLE, GA, 30501","Match","Exact","715 PARK ST, GAINESVILLE, GA, 30501",98249061,"L"
279283,"715 PARKER ST STE 3B","FORT COLLINS","CO",80525,40.5652440760001,-105.067194505,283,"715 PARKER ST STE 3B, FORT COLLINS, CO, 80525","Match","Exact","715 PARKER ST, FORT COLLINS, CO, 80525",188491591,"L"
279284,"715 PARKMONT AVE","DALLAS","TX",75214,32.8044468420001,-96.761757333,284,"715 PARKMONT AVE, DALLAS, TX, 75214","Match","Non_Exact","715 PARKMONT ST, DALLAS, TX, 75214",102919769,"L"
279285,"715 PEACHTREE ST NE SUITE 100","ATLANTA","GA",30308,33.7741818700001,-84.3847130939999,285,"715 PEACHTREE ST NE SUITE 100, ATLANTA, GA, 30308","Match","Non_Exact","715 PEACHTREE ST, ATLANTA, GA, 30308",17343615,"R"
279286,"715 PEACHTREE ST SUITE 8800","ATLANTA","GA",30308,33.7741818700001,-84.3847130939999,286,"715 PEACHTREE ST SUITE 8800, ATLANTA, GA, 30308","Match","Exact","715 PEACHTREE ST, ATLANTA, GA, 30308",17343615,"R"
279287,"715 PEACHTREE ST","ATLANTA","GA",30308,33.7741818700001,-84.3847130939999,287,"715 PEACHTREE ST, ATLANTA, GA, 30308","Match","Exact","715 PEACHTREE ST, ATLANTA, GA, 30308",17343615,"R"
279288,"715 PEACHTREE STREET NE SUITE 100","ATLANTA","GA",30308,33.7741818700001,-84.3847130939999,288,"715 PEACHTREE STREET NE SUITE 100, ATLANTA, GA, 30308","Match","Non_Exact","715 PEACHTREE ST, ATLANTA, GA, 30308",17343615,"R"
279289,"715 PECO DRIVE","LANTANA","TX",76226,33.096405444,-97.1241001669999,289,"715 PECO DRIVE, LANTANA, TX, 76226","Match","Non_Exact","715 PECO ST, LANTANA, TX, 76226",636192784,"L"
279290,"715 PENN AVENUE N","MINNEAPOLIS","MN",55411,44.985395456,-93.3082844749999,290,"715 PENN AVENUE N, MINNEAPOLIS, MN, 55411","Match","Exact","715 PENN AVE N, MINNEAPOLIS, MN, 55411",641220346,"L"
279291,"715 PLEASANT AVE","PECKVILLE","PA",18452,41.478704378,-75.579643339,291,"715 PLEASANT AVE, PECKVILLE, PA, 18452","Match","Non_Exact","715 S PLEASANT AVE, PECKVILLE, PA, 18452",623571591,"L"
279292,"715 PRYORTOWN RD","VILLA RIDGE","IL",62996,37.183744926,-89.149451061,292,"715 PRYORTOWN RD, VILLA RIDGE, IL, 62996","Match","Exact","715 PRYORTOWN RD, VILLA RIDGE, IL, 62996",5947035,"L"
279293,"715 RAVENS POINT ST","TRACY CITY","TN",37387,NA,NA,293,"715 RAVENS POINT ST, TRACY CITY, TN, 37387","No_Match",NA,NA,NA,NA
279294,"715 RICE RD APT 30H","RIDGELAND","MS",39157,32.421420228,-90.106401865,294,"715 RICE RD APT 30H, RIDGELAND, MS, 39157","Match","Exact","715 RICE RD, RIDGELAND, MS, 39157",152491625,"R"
279295,"715 RIVER FOREST ROAD","EVANSDALE","IA",50707,42.4688682570001,-92.297636062,295,"715 RIVER FOREST ROAD, EVANSDALE, IA, 50707","Match","Exact","715 RIVER FOREST RD, EVANSDALE, IA, 50707",77255641,"L"
279296,"715 ROSEWOOD DR","PITTSBURGH","PA",15239,40.5104727550001,-79.771271038,296,"715 ROSEWOOD DR, PITTSBURGH, PA, 15239","Match","Exact","715 ROSEWOOD DR, PITTSBURGH, PA, 15239",635789524,"L"
279297,"715 ROYAL AVE","ROCKFORD","IL",61101,42.283221579,-89.120805275,297,"715 ROYAL AVE, ROCKFORD, IL, 61101","Match","Exact","715 ROYAL AVE, ROCKFORD, IL, 61101",49252024,"R"
279298,"715 S CALHOUN ST RM 300","FORT WAYNE","IN",46802,41.0800818120001,-85.1398060289999,298,"715 S CALHOUN ST RM 300, FORT WAYNE, IN, 46802","Match","Non_Exact","715 S CALHOUN ST, FORT WAYNE, IN, 46802",6379256,"L"
279299,"715 S EXTENSION ROAD 11","MESA","AZ",85210,33.401989986,-111.848470688,299,"715 S EXTENSION ROAD 11, MESA, AZ, 85210","Match","Non_Exact","715 S EXTENSION RD, MESA, AZ, 85210",128947842,"L"
279300,"715 S HOLLAND SYLVANIA RD LOT 20","TOLEDO","OH",43615,41.6276710830001,-83.684182569,300,"715 S HOLLAND SYLVANIA RD LOT 20, TOLEDO, OH, 43615","Match","Non_Exact","715 S HOLLAND SYLVANIA RD, TOLEDO, OH, 43615",647830694,"L"
279301,"715 S MAPLE ST","VINTON","VA",24179,37.2745161010001,-79.898942641,301,"715 S MAPLE ST, VINTON, VA, 24179","Match","Exact","715 S MAPLE ST, VINTON, VA, 24179",62906452,"R"
279302,"715 S MEDINA","LOCKHART","TX",78644,29.8735564900001,-97.679938915,302,"715 S MEDINA, LOCKHART, TX, 78644","Match","Non_Exact","715 S MEDINA ST, LOCKHART, TX, 78644",45534106,"L"
279303,"715 S POWELL PKWY","ANNA","TX",75409,33.3433621840001,-96.5518180299999,303,"715 S POWELL PKWY, ANNA, TX, 75409","Match","Exact","715 S POWELL PKWY, ANNA, TX, 75409",210471739,"L"
279304,"715 S WALNUT AVE UNIT 1","BREA","CA",92821,33.9098723270001,-117.905271675,304,"715 S WALNUT AVE UNIT 1, BREA, CA, 92821","Match","Non_Exact","715 S WALNUT AVE, BREA, CA, 92821",144007431,"R"
279305,"715 S WATERMELON DRIVE","PUEBLO WEST","CO",81007,38.310016708,-104.759862666,305,"715 S WATERMELON DRIVE, PUEBLO WEST, CO, 81007","Match","Exact","715 S WATERMELON DR, PUEBLO WEST, CO, 81007",105034591,"L"
279306,"715 SE 9TH STREET","GAINESVILE","FL",32601,29.645670942,-82.315097699,306,"715 SE 9TH STREET, GAINESVILE, FL, 32601","Match","Non_Exact","715 SE 9TH ST, GAINESVILLE, FL, 32601",6809277,"L"
279307,"715 SE OLSON DR","WAUKEE","IA",50263,41.60717119,-93.860319099,307,"715 SE OLSON DR, WAUKEE, IA, 50263","Match","Exact","715 SE OLSON DR, WAUKEE, IA, 50263",600637864,"R"
279308,"715 SEASIDE AVENUE","ABSECON","NJ",8201,39.433989667,-74.50938071,308,"715 SEASIDE AVENUE, ABSECON, NJ, 8201","Match","Exact","715 SEASIDE AVE, ABSECON, NJ, 08201",202484935,"L"
279309,"715 SHANTILL WAY","LAKE HELEN","FL",32744,28.9605053940001,-81.240922616,309,"715 SHANTILL WAY, LAKE HELEN, FL, 32744","Match","Exact","715 SHANTILL WAY, LAKE HELEN, FL, 32744",94566588,"L"
279310,"715 SOUTH 13TH AVE","FAIRVIEW","OK",73737,36.2652145750001,-98.470347802,310,"715 SOUTH 13TH AVE, FAIRVIEW, OK, 73737","Match","Exact","715 S 13TH AVE, FAIRVIEW, OK, 73737",154941377,"R"
279311,"715 SOUTH 32ND STREET","MUSKOGEE","OK",74401,35.7469163000001,-95.402584783,311,"715 SOUTH 32ND STREET, MUSKOGEE, OK, 74401","Match","Exact","715 S 32ND ST, MUSKOGEE, OK, 74401",91971595,"L"
279312,"715 SOUTH DUPONT HIGHWAY","MILFORD","DE",19963,38.8989410020001,-75.439466378,312,"715 SOUTH DUPONT HIGHWAY, MILFORD, DE, 19963","Match","Non_Exact","715 S DUPONT BLVD, MILFORD, DE, 19963",106116286,"R"
279313,"715 SOUTH VIRGINIA STREET","HOPKINSVILLE","KY",42240,36.8660129350001,-87.4872814719999,313,"715 SOUTH VIRGINIA STREET, HOPKINSVILLE, KY, 42240","Match","Exact","715 S VIRGINIA ST, HOPKINSVILLE, KY, 42240",11272307,"R"
279314,"715 SOUTHWINDS DR","BRYN MAWR","PA",19010,40.0055829450001,-75.346544765,314,"715 SOUTHWINDS DR, BRYN MAWR, PA, 19010","Match","Exact","715 SOUTHWINDS DR, BRYN MAWR, PA, 19010",134892233,"L"
279315,"715 SUMMERWOOD DRIVE","ROCK HILL","SC",29732,34.9545466170001,-81.029009945,315,"715 SUMMERWOOD DRIVE, ROCK HILL, SC, 29732","Match","Exact","715 SUMMERWOOD DR, ROCK HILL, SC, 29732",19791139,"L"
279316,"715 SUNNYSLOPE DR  APT 8","HARTLAND","WI",53029,NA,NA,316,"715 SUNNYSLOPE DR  APT 8, HARTLAND, WI, 53029","No_Match",NA,NA,NA,NA
279317,"715 SW RUSTIC CIRCLE","STUART","FL",34997,27.127674601,-80.2608138749999,317,"715 SW RUSTIC CIRCLE, STUART, FL, 34997","Match","Exact","715 SW RUSTIC CIR, STUART, FL, 34997",120414500,"R"
279318,"715 TRUMAN ST SE","ALBUQUERQUE","NM",87108,35.070879947,-106.587310017,318,"715 TRUMAN ST SE, ALBUQUERQUE, NM, 87108","Match","Exact","715 TRUMAN ST SE, ALBUQUERQUE, NM, 87108",206718184,"R"
279319,"715 UNION STREET","BROOKLYN","NY",11215,40.6767243780001,-73.9812378249999,319,"715 UNION STREET, BROOKLYN, NY, 11215","Match","Exact","715 UNION ST, BROOKLYN, NY, 11215",652211773,"L"
279320,"715 UNION WOODS DRIVE","BRODNAX","VA",23920,36.7426996020001,-77.9108148029999,320,"715 UNION WOODS DRIVE, BRODNAX, VA, 23920","Match","Exact","715 UNION WOODS DR, BRODNAX, VA, 23920",54024554,"R"
279321,"715 UNISON CT","CARY","NC",27519,35.7761347430001,-78.8814852249999,321,"715 UNISON CT, CARY, NC, 27519","Match","Exact","715 UNISON CT, CARY, NC, 27519",627232466,"L"
279322,"715 W 180TH ST APT 52","NEW YORK","NY",10033,40.8496413070001,-73.93685054,322,"715 W 180TH ST APT 52, NEW YORK, NY, 10033","Match","Non_Exact","715 W 180TH ST, NEW YORK, NY, 10033",59655592,"R"
279323,"715 W 2ND STREET","OTTAWA","KS",66067,38.615808316,-95.27722371,323,"715 W 2ND STREET, OTTAWA, KS, 66067","Match","Exact","715 W 2ND ST, OTTAWA, KS, 66067",10603437,"L"
279324,"715 W BAKER AVENUE","ABINGDON","MD",21009,39.451610042,-76.252852354,324,"715 W BAKER AVENUE, ABINGDON, MD, 21009","Match","Exact","715 W BAKER AVE, ABINGDON, MD, 21009",191645072,"R"
279325,"715 W LYMAN AVENUE","WINTER PARK","FL",32789,28.594887552,-81.358461384,325,"715 W LYMAN AVENUE, WINTER PARK, FL, 32789","Match","Exact","715 W LYMAN AVE, WINTER PARK, FL, 32789",94422609,"R"
279326,"715 W SOUTH ST","SMYRNA","DE",19977,39.2918731840001,-75.6143367339999,326,"715 W SOUTH ST, SMYRNA, DE, 19977","Match","Exact","715 W SOUTH ST, SMYRNA, DE, 19977",646517108,"R"
279327,"715 W SR 434 STE O","LONGWOOD","FL",32750,NA,NA,327,"715 W SR 434 STE O, LONGWOOD, FL, 32750","No_Match",NA,NA,NA,NA
279328,"715 W WORLEY STREET","COLUMBIA","MO",65203,38.958969601,-92.3479222779999,328,"715 W WORLEY STREET, COLUMBIA, MO, 65203","Match","Exact","715 W WORLEY ST, COLUMBIA, MO, 65203",23480465,"R"
279329,"715 WALLIS AVENUE","FARRELL","PA",16121,41.2124503380001,-80.501459396,329,"715 WALLIS AVENUE, FARRELL, PA, 16121","Match","Exact","715 WALLIS AVE, FARRELL, PA, 16121",605372679,"R"
279330,"715 WALNUT ST - 2ND FL","GADSDEN","AL",35901,34.0114164230001,-86.010472986,330,"715 WALNUT ST - 2ND FL, GADSDEN, AL, 35901","Match","Exact","715 WALNUT ST, GADSDEN, AL, 35901",650423426,"R"
279331,"715 WALNUT ST 2ND FL","GADSDEN","AL",35901,34.0114164230001,-86.010472986,331,"715 WALNUT ST 2ND FL, GADSDEN, AL, 35901","Match","Exact","715 WALNUT ST, GADSDEN, AL, 35901",650423426,"R"
279332,"715 WALNUT ST STE 100","GADSDEN","AL",35901,34.0114164230001,-86.010472986,332,"715 WALNUT ST STE 100, GADSDEN, AL, 35901","Match","Exact","715 WALNUT ST, GADSDEN, AL, 35901",650423426,"R"
279333,"715 WASHINGTON AVENUE 2ND FLOOR","MIAMI BEACH","FL",33139,25.7773194750001,-80.133526068,333,"715 WASHINGTON AVENUE 2ND FLOOR, MIAMI BEACH, FL, 33139","Match","Exact","715 WASHINGTON AVE, MIAMI BEACH, FL, 33139",116020806,"R"
279334,"715 WASHINGTON AVENUE","SAVANNAH","GA",31405,32.0455642850001,-81.0881615769999,334,"715 WASHINGTON AVENUE, SAVANNAH, GA, 31405","Match","Exact","715 WASHINGTON AVE, SAVANNAH, GA, 31405",6178200,"R"
279335,"715 WEISER ST","READING","PA",19601,40.3467179150001,-75.937778688,335,"715 WEISER ST, READING, PA, 19601","Match","Exact","715 WEISER ST, READING, PA, 19601",80444391,"R"
279336,"715 WEST MAIN","EASTLAND","TX",76448,32.401789235,-98.824465474,336,"715 WEST MAIN, EASTLAND, TX, 76448","Match","Non_Exact","715 W MAIN ST, EASTLAND, TX, 76448",158685773,"R"
279337,"715 WEST NETTIE","KINGSVILLE","TX",78363,27.524581604,-97.876696427,337,"715 WEST NETTIE, KINGSVILLE, TX, 78363","Match","Non_Exact","715 W NETTIE AVE, KINGSVILLE, TX, 78363",72100374,"L"
279338,"715 WESTON RD","HOT SPRINGS","AR",71913,34.4776225310001,-93.121429454,338,"715 WESTON RD, HOT SPRINGS, AR, 71913","Match","Exact","715 WESTON RD, HOT SPRINGS, AR, 71913",610980779,"R"
279339,"715 WINDING CREEK TERRACE","BRENTWOOD","CA",94513,37.9353340480001,-121.710653326,339,"715 WINDING CREEK TERRACE, BRENTWOOD, CA, 94513","Match","Exact","715 WINDING CREEK TER, BRENTWOOD, CA, 94513",192102615,"L"
279340,"715 WISCONSIN STREET","LAKE GENEVA","WI",53147,42.5941896050001,-88.433974011,340,"715 WISCONSIN STREET, LAKE GENEVA, WI, 53147","Match","Exact","715 WISCONSIN ST, LAKE GENEVA, WI, 53147",649745734,"R"
279341,"7150 15 ST EAST","SARASOTA","FL",34236,27.4143366380001,-82.5467469659999,341,"7150 15 ST EAST, SARASOTA, FL, 34236","Match","Non_Exact","7150 15TH ST E, SARASOTA, FL, 34243",16276327,"R"
279342,"7150 DURANGO DRIVE","HORN LAKE","MS",38637,34.9651643070001,-90.0555541529999,342,"7150 DURANGO DRIVE, HORN LAKE, MS, 38637","Match","Exact","7150 DURANGO DR, HORN LAKE, MS, 38637",91854716,"R"
279343,"7150 E GRAND AVE SUITE1209","DALLAS","TX",75223,32.80600257,-96.734269937,343,"7150 E GRAND AVE SUITE1209, DALLAS, TX, 75223","Match","Non_Exact","7150 E GRAND AVE, DALLAS, TX, 75223",102921346,"R"
279344,"7150 E JACKSON DR","NEW ORLEANS","LA",70117,NA,NA,344,"7150 E JACKSON DR, NEW ORLEANS, LA, 70117","No_Match",NA,NA,NA,NA
279345,"7150 GRANITE CIRCLE SUITE 203","TOLEDO","OH",43617,NA,NA,345,"7150 GRANITE CIRCLE SUITE 203, TOLEDO, OH, 43617","Tie",NA,NA,NA,NA
279346,"7150 GRANITE CIRCLE","TOLEDO","OH",43617,NA,NA,346,"7150 GRANITE CIRCLE, TOLEDO, OH, 43617","Tie",NA,NA,NA,NA
279347,"7150 HAMILTON BLVD UNIT 323","TREXLERTOWN","PA",18087,40.550966364,-75.596519331,347,"7150 HAMILTON BLVD UNIT 323, TREXLERTOWN, PA, 18087","Match","Exact","7150 HAMILTON BLVD, TREXLERTOWN, PA, 18087",80798829,"R"
279348,"7150 JACKSON ST","TAYLOR","MI",48180,42.2560372510001,-83.2335814319999,348,"7150 JACKSON ST, TAYLOR, MI, 48180","Match","Exact","7150 JACKSON ST, TAYLOR, MI, 48180",95446070,"R"
279349,"7150 JEFFERSON HIGHWAY SUITE 530","BATON ROUGE","LA",70806,30.433962035,-91.115830123,349,"7150 JEFFERSON HIGHWAY SUITE 530, BATON ROUGE, LA, 70806","Match","Exact","7150 JEFFERSON HWY, BATON ROUGE, LA, 70806",618004927,"R"
279350,"7150 N 16TH STREET","PHOENIX","AZ",85020,33.541072764,-112.047497265,350,"7150 N 16TH STREET, PHOENIX, AZ, 85020","Match","Exact","7150 N 16TH ST, PHOENIX, AZ, 85020",128918945,"L"
279351,"7150 OSBORN ROAD","CINCINNATI","OH",45177,NA,NA,351,"7150 OSBORN ROAD, CINCINNATI, OH, 45177","No_Match",NA,NA,NA,NA
279352,"7150 PARSONS BLVD","FLUSHING","NY",11365,NA,NA,352,"7150 PARSONS BLVD, FLUSHING, NY, 11365","No_Match",NA,NA,NA,NA
279353,"7150 RED LION FIVE POINTS RD","SPRINGBORO","OH",45066,39.5446776210001,-84.214680062,353,"7150 RED LION FIVE POINTS RD, SPRINGBORO, OH, 45066","Match","Exact","7150 RED LION 5 POINTS RD, SPRINGBORO, OH, 45066",652639697,"L"
279354,"7150 S 91ST ST APT 405","LINCOLN","NE",68526,40.7389227900001,-96.59570715,354,"7150 S 91ST ST APT 405, LINCOLN, NE, 68526","Match","Non_Exact","7150 S 91ST ST, LINCOLN, NE, 68526",28263082,"L"
279355,"7150 SAN MATEO BLVD SUITE 187","DALLAS","TX",75223,32.8070003170001,-96.736268846,355,"7150 SAN MATEO BLVD SUITE 187, DALLAS, TX, 75223","Match","Exact","7150 SAN MATEO BLVD, DALLAS, TX, 75223",103231483,"L"
279356,"7150 SEAMAN RD","OREGON","OH",43616,41.6528155670001,-83.3777113639999,356,"7150 SEAMAN RD, OREGON, OH, 43616","Match","Non_Exact","7150 SEAMAN ST, OREGON, OH, 43616",648789860,"R"
279357,"7150 TAMPA AVENUE","RESEDA","CA",91335,34.1999819960001,-118.553506439,357,"7150 TAMPA AVENUE, RESEDA, CA, 91335","Match","Exact","7150 TAMPA AVE, RESEDA, CA, 91335",141554186,"R"
279358,"7150 TREERIDGE DRIVE","CINCINNATI","OH",45244,39.109904639,-84.3561123389999,358,"7150 TREERIDGE DRIVE, CINCINNATI, OH, 45244","Match","Exact","7150 TREERIDGE DR, CINCINNATI, OH, 45244",103959007,"L"
279359,"7150 W CATHEDRAL VALLEY RD","ASH FORK","AZ",86320,NA,NA,359,"7150 W CATHEDRAL VALLEY RD, ASH FORK, AZ, 86320","No_Match",NA,NA,NA,NA
279360,"7150 WARWICK DR","YPSILANTI","MI",48197,42.1744608220001,-83.616420209,360,"7150 WARWICK DR, YPSILANTI, MI, 48197","Match","Exact","7150 WARWICK DR, YPSILANTI, MI, 48197",619078917,"R"
279361,"71502","NORTH CHARLESTON","SC",29415,NA,NA,361,"71502, NORTH CHARLESTON, SC, 29415","No_Match",NA,NA,NA,NA
279362,"7151  N W 45  CT","LAUDERHILL","FL",33319,26.1811440820001,-80.245132476,362,"7151  N W 45  CT, LAUDERHILL, FL, 33319","Match","Exact","7151 NW 45TH CT, LAUDERHILL, FL, 33319",114702970,"L"
279363,"7151 BEECH RIDGE TRAIL","TALLAHASSEE","FL",32312,30.5672444510001,-84.215840032,363,"7151 BEECH RIDGE TRAIL, TALLAHASSEE, FL, 32312","Match","Exact","7151 BEECH RIDGE TRL, TALLAHASSEE, FL, 32312",82900038,"R"
279364,"7151 BIRCHTREE PLACE","FONTANA","CA",92336,34.123915895,-117.47039625,364,"7151 BIRCHTREE PLACE, FONTANA, CA, 92336","Match","Non_Exact","7151 BIRCH TREE PL, FONTANA, CA, 92336",145229834,"L"
279365,"7151 O KELLY CHAPEL RD SUITE 229","CARY","NC",27519,35.845755511,-78.887046873,365,"7151 O KELLY CHAPEL RD SUITE 229, CARY, NC, 27519","Match","Non_Exact","7151 OKELLY CHAPEL RD, CARY, NC, 27519",648949695,"L"
279366,"7151 OFFICE CITY DRIVE STE 110","HOUSTON","TX",77087,29.700285679,-95.290053547,366,"7151 OFFICE CITY DRIVE STE 110, HOUSTON, TX, 77087","Match","Non_Exact","7151 OFFICE CITY DR, HOUSTON, TX, 77012",96610767,"L"
279367,"7151 OKELLY CHAPEL RD BX 143","CARY","NC",27519,35.845755511,-78.887046873,367,"7151 OKELLY CHAPEL RD BX 143, CARY, NC, 27519","Match","Exact","7151 OKELLY CHAPEL RD, CARY, NC, 27519",648949695,"L"
279368,"7151 OKELLY CHAPEL RD NUM130","CARY","NC",27519,35.845755511,-78.887046873,368,"7151 OKELLY CHAPEL RD NUM130, CARY, NC, 27519","Match","Exact","7151 OKELLY CHAPEL RD, CARY, NC, 27519",648949695,"L"
279369,"7151 OKELLY CHAPEL RD NUM252","CARY","NC",27519,35.845755511,-78.887046873,369,"7151 OKELLY CHAPEL RD NUM252, CARY, NC, 27519","Match","Exact","7151 OKELLY CHAPEL RD, CARY, NC, 27519",648949695,"L"
279370,"7151 OKELLY CHAPEL RD","CARY","NC",27519,35.845755511,-78.887046873,370,"7151 OKELLY CHAPEL RD, CARY, NC, 27519","Match","Exact","7151 OKELLY CHAPEL RD, CARY, NC, 27519",648949695,"L"
279371,"7151 S DURNAGO DR UNIT 106","LAS VEGAS","NV",89113,36.058187294,-115.279221845,371,"7151 S DURNAGO DR UNIT 106, LAS VEGAS, NV, 89113","Match","Non_Exact","7151 DURANGO DR, LAS VEGAS, NV, 89113",627470117,"R"
279372,"7151 WOODLAKE PARKWAY LOT 427","SAN ANTONIO","TX",78218,NA,NA,372,"7151 WOODLAKE PARKWAY LOT 427, SAN ANTONIO, TX, 78218","No_Match",NA,NA,NA,NA
279373,"7152 HIDDEN VALLEY DRIVE","LAMBERTVILLE","MI",48144,41.744192782,-83.619691903,373,"7152 HIDDEN VALLEY DRIVE, LAMBERTVILLE, MI, 48144","Match","Exact","7152 HIDDEN VALLEY DR, LAMBERTVILLE, MI, 48144",40498093,"L"
279374,"7152 KNAPP NE","ADA","MI",49301,43.0078185730001,-85.4938162459999,374,"7152 KNAPP NE, ADA, MI, 49301","Match","Non_Exact","7152 KNAPP ST NE, ADA, MI, 49301",12479396,"R"
279375,"7152 MUSTANG RIM DR","COLORADO SPRINGS","CO",80923,38.92909847,-104.687182659,375,"7152 MUSTANG RIM DR, COLORADO SPRINGS, CO, 80923","Match","Exact","7152 MUSTANG RIM DR, COLORADO SPRINGS, CO, 80923",643505226,"L"
279376,"7153 10TH STREET NORTH","OAKDALE","MN",55128,NA,NA,376,"7153 10TH STREET NORTH, OAKDALE, MN, 55128","No_Match",NA,NA,NA,NA
279377,"7153 FENTON RD","BRISTOLVILLE","OH",44402,41.411143892,-80.875264704,377,"7153 FENTON RD, BRISTOLVILLE, OH, 44402","Match","Non_Exact","7153 FENTON RD NW, BRISTOLVILLE, OH, 44402",117400761,"R"
279378,"7153 KENDRICK COURT","HAMILTON","OH",45011,39.381838531,-84.493532379,378,"7153 KENDRICK COURT, HAMILTON, OH, 45011","Match","Exact","7153 KENDRICK CT, HAMILTON, OH, 45011",113819089,"R"
279379,"7153 W OAKLAND PARK BLVD","LAUDERHILL","FL",33313,26.1655281930001,-80.2439453,379,"7153 W OAKLAND PARK BLVD, LAUDERHILL, FL, 33313","Match","Exact","7153 W OAKLAND PARK BLVD, LAUDERHILL, FL, 33313",114703102,"R"
279380,"7154 BURKES GARDEN ROAD","TAZEWELL","VA",24651,37.0973436250001,-81.3406196879999,380,"7154 BURKES GARDEN ROAD, TAZEWELL, VA, 24651","Match","Exact","7154 BURKES GARDEN RD, TAZEWELL, VA, 24651",47298220,"L"
279381,"7154 GALLERY RIDGE","SAN ANTONIO","TX",78250,29.5065237060001,-98.6816225869999,381,"7154 GALLERY RIDGE, SAN ANTONIO, TX, 78250","Match","Exact","7154 GALLERY RIDGE, SAN ANTONIO, TX, 78250",101488691,"R"
279382,"7154 MEADOW LANE","WARRENTON","VA",20187,38.7426393120001,-77.708375627,382,"7154 MEADOW LANE, WARRENTON, VA, 20187","Match","Exact","7154 MEADOW LN, WARRENTON, VA, 20187",146287001,"L"
279383,"7154 MT AIRY PLACE","PHILADELPHIA","PA",19119,40.044761055,-75.20627455,383,"7154 MT AIRY PLACE, PHILADELPHIA, PA, 19119","Match","Exact","7154 MOUNT AIRY PL, PHILADELPHIA, PA, 19119",131394288,"R"
279384,"7154 N 58TH DR","GLENDALE","AZ",85301,33.5415087370001,-112.184955092,384,"7154 N 58TH DR, GLENDALE, AZ, 85301","Match","Exact","7154 N 58TH DR, GLENDALE, AZ, 85301",128193025,"L"
279385,"7154 N UNIVERSITY DRIVE 186","TAMARAC","FL",33321,26.2119574990001,-80.252376102,385,"7154 N UNIVERSITY DRIVE 186, TAMARAC, FL, 33321","Match","Non_Exact","7154 N UNIVERSITY DR, TAMARAC, FL, 33321",114702376,"L"
279386,"7154 N UNIVERSITY DRIVE PMB 107","TAMARAC","FL",33321,26.2119574990001,-80.252376102,386,"7154 N UNIVERSITY DRIVE PMB 107, TAMARAC, FL, 33321","Match","Non_Exact","7154 N UNIVERSITY DR, TAMARAC, FL, 33321",114702376,"L"
279387,"7154 RADBOURNE ROAD","UPPER DARBY","PA",19082,39.9482643330001,-75.258548548,387,"7154 RADBOURNE ROAD, UPPER DARBY, PA, 19082","Match","Exact","7154 RADBOURNE RD, UPPER DARBY, PA, 19082",134878504,"L"
279388,"7154 STATE STREET NUM 393","BOISE","ID",83714,43.6673873,-116.277607159,388,"7154 STATE STREET NUM 393, BOISE, ID, 83714","Match","Non_Exact","7154 W STATE ST, BOISE, ID, 83714",648157084,"R"
279389,"7154 W STATE STREET STE 164","BOISE","ID",83714,43.667393502,-116.27761679,389,"7154 W STATE STREET STE 164, BOISE, ID, 83714","Match","Non_Exact","7154 W STATE ST, BOISE, ID, 83714",648157084,"R"
279390,"7155 BELLE POINTE DR","BELLEVILLE","MI",48111,42.2507188540001,-83.4837239299999,390,"7155 BELLE POINTE DR, BELLEVILLE, MI, 48111","Match","Exact","7155 BELLE POINTE DR, BELLEVILLE, MI, 48111",95723966,"R"
279391,"7155 CELOME CT","SAN DIEGO","CA",92129,32.9379163950001,-117.166831512,391,"7155 CELOME CT, SAN DIEGO, CA, 92129","Match","Exact","7155 CELOME CT, SAN DIEGO, CA, 92129",195391185,"L"
279392,"7155 CHURCH AVENUE","POTTS CAMP","MS",38659,34.642019798,-89.301025044,392,"7155 CHURCH AVENUE, POTTS CAMP, MS, 38659","Match","Exact","7155 CHURCH AVE, POTTS CAMP, MS, 38659",647360784,"R"
279393,"7155 COOPER DRIVE APT B","LEWIS MCCHORD","WA",98433,47.1035133780001,-122.5773664,393,"7155 COOPER DRIVE APT B, LEWIS MCCHORD, WA, 98433","Match","Exact","7155 COOPER DR, LEWIS MCCHORD, WA, 98433",641608368,"L"
279394,"7155 GRAND ESTUARY TRAIL","BRADENTON","FL",34212,27.5080487020001,-82.467857311,394,"7155 GRAND ESTUARY TRAIL, BRADENTON, FL, 34212","Match","Exact","7155 GRAND ESTUARY TRL, BRADENTON, FL, 34212",640863722,"R"
279395,"7155 MARLBOROUGH TERRACE","BERKELEY","CA",94705,37.8621346210001,-122.22390389,395,"7155 MARLBOROUGH TERRACE, BERKELEY, CA, 94705","Match","Exact","7155 MARLBOROUGH TER, BERKELEY, CA, 94705",652225314,"L"
279396,"7155 OAKRIDGE DRIVE","SAN ANTONIO","TX",78229,29.4991107720001,-98.558267711,396,"7155 OAKRIDGE DRIVE, SAN ANTONIO, TX, 78229","Match","Exact","7155 OAKRIDGE DR, SAN ANTONIO, TX, 78229",101491880,"L"
279397,"7155 PENDALE CIRCLE","PENDLETON","NY",14120,43.0795213980001,-78.757367571,397,"7155 PENDALE CIRCLE, PENDLETON, NY, 14120","Match","Non_Exact","7155 PENDALE CIR, N TONAWANDA, NY, 14120",637609169,"L"
279398,"7155 RAMSGATE AVE APT 107","LOS ANGELES","CA",90045,33.9723281280001,-118.374085688,398,"7155 RAMSGATE AVE APT 107, LOS ANGELES, CA, 90045","Match","Exact","7155 RAMSGATE AVE, LOS ANGELES, CA, 90045",640413575,"R"
279399,"7155 S EAST END","CHICAGO","IL",60649,41.7650389610001,-87.583638725,399,"7155 S EAST END, CHICAGO, IL, 60649","Match","Non_Exact","7155 S EAST END AVE, CHICAGO, IL, 60649",641753706,"L"
279400,"7155 SCARVAN ROAD","YUCCA VALLEY","CA",92284,34.1230446280001,-116.438088002,400,"7155 SCARVAN ROAD, YUCCA VALLEY, CA, 92284","Match","Exact","7155 SCARVAN RD, YUCCA VALLEY, CA, 92284",144628752,"R"
279401,"7155 TALISMAN LANE","COLUMBIA","MD",21045,39.190784374,-76.839891983,401,"7155 TALISMAN LANE, COLUMBIA, MD, 21045","Match","Exact","7155 TALISMAN LN, COLUMBIA, MD, 21045",158946990,"L"
279402,"7156 E OLD ROAD 30","PIERCETON","IN",46562,41.236016777,-85.703968754,402,"7156 E OLD ROAD 30, PIERCETON, IN, 46562","Match","Exact","7156 E OLD ROAD 30, PIERCETON, IN, 46562",7935650,"L"
279403,"7156 IRONWOOD DRIVE","ORLANDO","FL",32818,28.559702515,-81.482956647,403,"7156 IRONWOOD DRIVE, ORLANDO, FL, 32818","Match","Exact","7156 IRONWOOD DR, ORLANDO, FL, 32818",94342211,"L"
279404,"7156 NORTH FENWICK AVENUE","PORTLAND","OR",97217,45.5748473560001,-122.685239285,404,"7156 NORTH FENWICK AVENUE, PORTLAND, OR, 97217","Match","Exact","7156 N FENWICK AVE, PORTLAND, OR, 97217",157495726,"R"
279405,"7156 S VERBENA WAY","CENTENNIAL","CO",80112,39.5865518780001,-104.890384793,405,"7156 S VERBENA WAY, CENTENNIAL, CO, 80112","Match","Exact","7156 S VERBENA WAY, CENTENNIAL, CO, 80112",177346911,"L"
279406,"7156 SUNSET CT","MECHANICSVILLE","VA",23111,37.5919455040001,-77.347548714,406,"7156 SUNSET CT, MECHANICSVILLE, VA, 23111","Match","Exact","7156 SUNSET CT, MECHANICSVILLE, VA, 23111",84962627,"L"
279407,"7156 SUSANNAH DRIVE","REYNOLDSBURG","OH",43068,39.9235320390001,-82.805334366,407,"7156 SUSANNAH DRIVE, REYNOLDSBURG, OH, 43068","Match","Exact","7156 SUSANNAH DR, REYNOLDSBURG, OH, 43068",650427560,"R"
279408,"7156 WEST 127TH STREET - 63","PALOS HEIGHTS","IL",60463,41.660745008,-87.7956778559999,408,"7156 WEST 127TH STREET - 63, PALOS HEIGHTS, IL, 60463","Match","Exact","7156 W 127TH ST, PALOS HEIGHTS, IL, 60463",111815009,"R"
279409,"7156 WOODSON RD","RAYTOWN","MO",64133,38.9916160080001,-94.447553667,409,"7156 WOODSON RD, RAYTOWN, MO, 64133","Match","Exact","7156 WOODSON RD, RAYTOWN, MO, 64133",629856017,"R"
279410,"71566 FAIRVIEW ROAD","ANITA","IA",50020,NA,NA,410,"71566 FAIRVIEW ROAD, ANITA, IA, 50020","No_Match",NA,NA,NA,NA
279411,"7157 COUNTRY RUN PARKWAY","ORLANDO","FL",32818,28.598922556,-81.487338831,411,"7157 COUNTRY RUN PARKWAY, ORLANDO, FL, 32818","Match","Exact","7157 COUNTRY RUN PKWY, ORLANDO, FL, 32818",606137933,"R"
279412,"7157 HILLBOLDT RD","SEALY","TX",77474,NA,NA,412,"7157 HILLBOLDT RD, SEALY, TX, 77474","No_Match",NA,NA,NA,NA
279413,"7158 FOCH RD","NEW ORLEANS","LA",70126,30.025749982,-90.0202032029999,413,"7158 FOCH RD, NEW ORLEANS, LA, 70126","Match","Exact","7158 FOCH RD, NEW ORLEANS, LA, 70126",191705314,"L"
279414,"7158 GLEN TERRACE APT 1","SAN ANTONIO","TX",78239,29.5103898520001,-98.3452138009999,414,"7158 GLEN TERRACE APT 1, SAN ANTONIO, TX, 78239","Match","Exact","7158 GLEN TER, SAN ANTONIO, TX, 78239",101504164,"L"
279415,"7158 S QUINCE ST","CENTENNIAL","CO",80112,39.5864748910001,-104.901648501,415,"7158 S QUINCE ST, CENTENNIAL, CO, 80112","Match","Exact","7158 S QUINCE ST, CENTENNIAL, CO, 80112",177346738,"L"
279416,"7158 UPLAND STREET","PITTSBURGH","PA",15208,40.4623616110001,-79.895817549,416,"7158 UPLAND STREET, PITTSBURGH, PA, 15208","Match","Exact","7158 UPLAND ST, PITTSBURGH, PA, 15208",630082096,"R"
279417,"7159 COUNTY ROAD 9A","GARRETT","IN",46738,41.2691337970001,-85.1455584029999,417,"7159 COUNTY ROAD 9A, GARRETT, IN, 46738","Match","Exact","7159 CO RD 9A, GARRETT, IN, 46738",6514442,"R"
279418,"7159 LODGE POLE DR","GRAND RAPIDS","MI",49548,42.833783763,-85.660422252,418,"7159 LODGE POLE DR, GRAND RAPIDS, MI, 49548","Match","Exact","7159 LODGE POLE DR, GRAND RAPIDS, MI, 49548",12490741,"L"
279419,"7159 WEIL AVE","ST LOUIS","MO",63119,38.5874596310001,-90.31813305,419,"7159 WEIL AVE, ST LOUIS, MO, 63119","Match","Exact","7159 WEIL AVE, SAINT LOUIS, MO, 63119",640510417,"R"
279420,"7159 WINDSOR LAKE PARKWAY","LOVES PARK","IL",61111,42.3271300910001,-89.034589215,420,"7159 WINDSOR LAKE PARKWAY, LOVES PARK, IL, 61111","Match","Exact","7159 WINDSOR LAKE PKWY, LOVES PARK, IL, 61111",49280903,"R"
279421,"71590 HOOVER LINE RD","IRON RIVER","WI",54847,46.6133188270001,-91.490388587,421,"71590 HOOVER LINE RD, IRON RIVER, WI, 54847","Match","Exact","71590 HOOVER LINE RD, IRON RIVER, WI, 54847",194293075,"L"
279422,"715A ACADEMY TER","LINDEN","NJ",7036,40.6310758980001,-74.273303987,422,"715A ACADEMY TER, LINDEN, NJ, 7036","Match","Exact","715 ACADEMY TER, LINDEN, NJ, 07036",60575504,"L"
279423,"716 11TH AVENUE","SALT LAKE CITY","UT",84103,40.7818806290001,-111.867928554,423,"716 11TH AVENUE, SALT LAKE CITY, UT, 84103","Match","Non_Exact","716 E 11TH AVE, SALT LAKE CITY, UT, 84103",176067814,"R"
279424,"716 8TH STREET","SNOHOMISH","WA",98290,47.921931086,-122.090959649,424,"716 8TH STREET, SNOHOMISH, WA, 98290","Match","Exact","716 8TH ST, SNOHOMISH, WA, 98290",187818998,"L"
279425,"716 ASKIN STREET","MAUMEE","OH",43537,41.575145343,-83.6248951219999,425,"716 ASKIN STREET, MAUMEE, OH, 43537","Match","Exact","716 ASKIN ST, MAUMEE, OH, 43537",33936826,"R"
279426,"716 AUSTIN AVE","ALBION","MI",49224,42.2536816050001,-84.763170949,426,"716 AUSTIN AVE, ALBION, MI, 49224","Match","Exact","716 AUSTIN AVE, ALBION, MI, 49224",11706838,"R"
279427,"716 BEECH DR","SENECA","SC",29678,34.674931121,-82.944067229,427,"716 BEECH DR, SENECA, SC, 29678","Match","Exact","716 BEECH DR, SENECA, SC, 29678",25645190,"L"
279428,"716 BRIGHTON DRIVE","LINWOOD","NJ",8221,39.3553435200001,-74.574560245,428,"716 BRIGHTON DRIVE, LINWOOD, NJ, 8221","Match","Exact","716 BRIGHTON DR, LINWOOD, NJ, 08221",202483274,"L"
279429,"716 BROADWAY ST","NEW ORLEANS","LA",70118,29.93865713,-90.125812576,429,"716 BROADWAY ST, NEW ORLEANS, LA, 70118","Match","Exact","716 BROADWAY ST, NEW ORLEANS, LA, 70118",191701756,"L"
279430,"716 BUCHANAN","GARY","IN",46402,41.59791369,-87.35330336,430,"716 BUCHANAN, GARY, IN, 46402","Match","Non_Exact","716 BUCHANAN ST, GARY, IN, 46402",98426109,"R"
279431,"716 CALLE ESTADO APT  3","MIRAMAR","PR",907,18.452169355,-66.084076704,431,"716 CALLE ESTADO APT  3, MIRAMAR, PR, 907","Match","Non_Exact","716 CLL ESTADO, MIRAMAR, PR, 00907",206605892,"R"
279432,"716 CASTLE CREEK DR","COPPELL","TX",75019,32.986513217,-96.965788486,432,"716 CASTLE CREEK DR, COPPELL, TX, 75019","Match","Exact","716 CASTLE CREEK DR, COPPELL, TX, 75019",102997589,"L"
279433,"716 CASTLETON DR","GREENCASTLE","IN",46135,39.6542706810001,-86.84497695,433,"716 CASTLETON DR, GREENCASTLE, IN, 46135","Match","Exact","716 CASTLETON DR, GREENCASTLE, IN, 46135",50104742,"R"
279434,"716 CENTRAL AVENUE","UNION BEACH","NJ",7735,40.443884817,-74.165425783,434,"716 CENTRAL AVENUE, UNION BEACH, NJ, 7735","Match","Exact","716 CENTRAL AVE, UNION BEACH, NJ, 07735",90475290,"R"
279435,"716 CLARK STREET","REDFIELD","IA",50233,41.58887945,-94.192442226,435,"716 CLARK STREET, REDFIELD, IA, 50233","Match","Exact","716 CLARK ST, REDFIELD, IA, 50233",65629064,"R"
279436,"716 COLONY LANE","FRANKFORT","IL",60423,41.4957299920001,-87.8100542289999,436,"716 COLONY LANE, FRANKFORT, IL, 60423","Match","Exact","716 COLONY LN, FRANKFORT, IL, 60423",111551212,"R"
279437,"716 COLUMBINE DRIVE","ESTES PARK","CO",80517,40.367133338,-105.55084136,437,"716 COLUMBINE DRIVE, ESTES PARK, CO, 80517","Match","Exact","716 COLUMBINE DR, ESTES PARK, CO, 80517",647363001,"L"
279438,"716 COSMOPOLITAN DRIVE","ATLANTA","GA",30324,33.821641288,-84.362815155,438,"716 COSMOPOLITAN DRIVE, ATLANTA, GA, 30324","Match","Exact","716 COSMOPOLITAN DR, ATLANTA, GA, 30324",650738037,"L"
279439,"716 COUNTRY CLUB DRIVE","OXFORD","NE",68967,40.253755686,-99.629149605,439,"716 COUNTRY CLUB DRIVE, OXFORD, NE, 68967","Match","Exact","716 COUNTRY CLUB DR, OXFORD, NE, 68967",138064705,"L"
279440,"716 CRAGMONT AVENUE","BERKELEY","CA",94708,37.897834693,-122.268317367,440,"716 CRAGMONT AVENUE, BERKELEY, CA, 94708","Match","Exact","716 CRAGMONT AVE, BERKELEY, CA, 94708",124992507,"R"
279441,"716 CRESTWOOD ST","MARY ESTHER","FL",32569,30.4123711440001,-86.6467306659999,441,"716 CRESTWOOD ST, MARY ESTHER, FL, 32569","Match","Exact","716 CRESTWOOD ST, MARY ESTHER, FL, 32569",74389635,"R"
279442,"716 DIAS CREEK RD","CAPE MAY CH","NJ",8210,39.087560529,-74.872412105,442,"716 DIAS CREEK RD, CAPE MAY CH, NJ, 8210","Match","Exact","716 DIAS CREEK RD, CAPE MAY CH, NJ, 08210",625190409,"R"
279443,"716 DIXWELL AVENUE","NEW HAVEN","CT",6511,41.333393506,-72.935155214,443,"716 DIXWELL AVENUE, NEW HAVEN, CT, 6511","Match","Exact","716 DIXWELL AVE, NEW HAVEN, CT, 06511",3699053,"L"
279444,"716 DOCTORS DRIVE APT G","KINSTON","NC",28501,35.291707451,-77.587463047,444,"716 DOCTORS DRIVE APT G, KINSTON, NC, 28501","Match","Exact","716 DOCTORS DR, KINSTON, NC, 28501",13891003,"L"
279445,"716 DORMAN STREET","INDIANAPOLIS","IN",46202,39.7769162370001,-86.1384734329999,445,"716 DORMAN STREET, INDIANAPOLIS, IN, 46202","Match","Exact","716 DORMAN ST, INDIANAPOLIS, IN, 46202",107993151,"L"
279446,"716 E 56TH STREET C","TACOMA","WA",98404,47.206309655,-122.42173723,446,"716 E 56TH STREET C, TACOMA, WA, 98404","Match","Non_Exact","716 E 56TH ST, TACOMA, WA, 98404",184628719,"R"
279447,"716 E CARSON STREET","LONG BEACH","CA",90807,33.8318238150001,-118.183691207,447,"716 E CARSON STREET, LONG BEACH, CA, 90807","Match","Exact","716 CARSON ST, LONG BEACH, CA, 90807",141686300,"R"
279448,"716 E FAIRFIELD RD  STE 120","GREENVILLE","SC",29605,NA,NA,448,"716 E FAIRFIELD RD  STE 120, GREENVILLE, SC, 29605","Tie",NA,NA,NA,NA
279449,"716 EASTVIEW DR","YUKON","OK",73099,35.501862284,-97.717113309,449,"716 EASTVIEW DR, YUKON, OK, 73099","Match","Exact","716 EASTVIEW DR, YUKON, OK, 73099",92553864,"R"
279450,"716 ELDORADO DRIVE","DESOTO","TX",75115,32.5806553890001,-96.843381038,450,"716 ELDORADO DRIVE, DESOTO, TX, 75115","Match","Exact","716 ELDORADO DR, DESOTO, TX, 75115",642862087,"R"
279451,"716 ENGLISH TUDOR LANE","CHARLOTTE","NC",28211,35.1881823890001,-80.8067829349999,451,"716 ENGLISH TUDOR LANE, CHARLOTTE, NC, 28211","Match","Exact","716 ENGLISH TUDOR LN, CHARLOTTE, NC, 28211",618149814,"R"
279452,"716 FIR CHASE","FAIRBURN","GA",30213,33.5638709290001,-84.623165383,452,"716 FIR CHASE, FAIRBURN, GA, 30213","Match","Exact","716 FIR CHASE, FAIRBURN, GA, 30213",629547790,"L"
279453,"716 FUNSTON AVE","SAN FRANCISCO","CA",94118,37.77462576,-122.471334187,453,"716 FUNSTON AVE, SAN FRANCISCO, CA, 94118","Match","Exact","716 FUNSTON AVE, SAN FRANCISCO, CA, 94118",192281826,"L"
279454,"716 GIDDINGS AVE","ANNAPOLIS","MD",21401,38.989042985,-76.5032709769999,454,"716 GIDDINGS AVE, ANNAPOLIS, MD, 21401","Match","Exact","716 GIDDINGS AVE, ANNAPOLIS, MD, 21401",68172469,"L"
279455,"716 GILLON DRIVE","ARLINGTON","TX",76001,32.6201892650001,-97.116890548,455,"716 GILLON DRIVE, ARLINGTON, TX, 76001","Match","Exact","716 GILLON DR, ARLINGTON, TX, 76001",101961117,"L"
279456,"716 GIMGHOUL ROAD","CHAPEL HILL","NC",27514,35.9124225910001,-79.040244751,456,"716 GIMGHOUL ROAD, CHAPEL HILL, NC, 27514","Match","Exact","716 GIMGHOUL RD, CHAPEL HILL, NC, 27514",72380510,"R"
279457,"716 GREENBRIAR DRIVE","LAKE PARK","FL",33403,26.799587021,-80.066915884,457,"716 GREENBRIAR DRIVE, LAKE PARK, FL, 33403","Match","Exact","716 GREENBRIAR DR, LAKE PARK, FL, 33403",115527912,"L"
279458,"716 GREENMEADOW COURT","CRYSTAL LAKE","IL",60014,42.1984717560001,-88.346657804,458,"716 GREENMEADOW COURT, CRYSTAL LAKE, IL, 60014","Match","Exact","716 GREENMEADOW CT, CRYSTAL LAKE, IL, 60014",119832935,"R"
279459,"716 HIGHTOWER AVE S","LEHIGH ACRES","FL",33973,26.6053242510001,-81.7194284129999,459,"716 HIGHTOWER AVE S, LEHIGH ACRES, FL, 33973","Match","Exact","716 HIGHTOWER AVE S, LEHIGH ACRES, FL, 33973",651800748,"R"
279460,"716 ISLAND VIEW DRIVE","SEAL BEACH","CA",90740,33.7455633450001,-118.094324289,460,"716 ISLAND VIEW DRIVE, SEAL BEACH, CA, 90740","Match","Exact","716 ISLAND VIEW DR, SEAL BEACH, CA, 90740",144117098,"L"
279461,"716 ITASCA PLACE","DAUPHIN ISLAND","AL",36528,30.247538746,-88.106808149,461,"716 ITASCA PLACE, DAUPHIN ISLAND, AL, 36528","Match","Exact","716 ITASCA PL, DAUPHIN ISLAND, AL, 36528",61840789,"R"
279462,"716 JACKSON AVE","NAPERVILLE","IL",60540,41.772165113,-88.159765511,462,"716 JACKSON AVE, NAPERVILLE, IL, 60540","Match","Non_Exact","716 W JACKSON AVE, NAPERVILLE, IL, 60540",639893018,"R"
279463,"716 KENNEDY NW","WASHINGTON","DC",20011,38.956362934,-77.0226838259999,463,"716 KENNEDY NW, WASHINGTON, DC, 20011","Match","Non_Exact","716 KENNEDY ST NW, WASHINGTON, DC, 20011",76223389,"L"
279464,"716 KING RANCH RD","CANTON","MS",39046,32.6253227490001,-90.0547747429999,464,"716 KING RANCH RD, CANTON, MS, 39046","Match","Exact","716 KING RANCH RD, CANTON, MS, 39046",152500430,"R"
279465,"716 LANGTRY DRIVE","LAS VEGAS","NV",89107,36.179128371,-115.194318587,465,"716 LANGTRY DRIVE, LAS VEGAS, NV, 89107","Match","Exact","716 LANGTRY DR, LAS VEGAS, NV, 89107",640232120,"R"
279466,"716 LEE STREET EAST","CHARLESTON","WV",25301,38.351514095,-81.633834221,466,"716 LEE STREET EAST, CHARLESTON, WV, 25301","Match","Exact","716 LEE ST E, CHARLESTON, WV, 25301",78592528,"L"
279467,"716 LINCOLN ST","CALEXICO","CA",92231,32.6751950250001,-115.511428563,467,"716 LINCOLN ST, CALEXICO, CA, 92231","Match","Exact","716 LINCOLN ST, CALEXICO, CA, 92231",194501767,"L"
279468,"716 MAPLE STREET","EAST JORDAN","MI",49727,45.1450401330001,-85.119171029,468,"716 MAPLE STREET, EAST JORDAN, MI, 49727","Match","Exact","716 MAPLE ST, EAST JORDAN, MI, 49727",134493221,"L"
279469,"716 MARCY AVE","BROOKLYN","NY",11216,40.689218055,-73.947986579,469,"716 MARCY AVE, BROOKLYN, NY, 11216","Match","Exact","716 MARCY AVE, BROOKLYN, NY, 11216",59078883,"R"
279470,"716 MCGILL PLACE","DURHAM","NC",27701,36.009669097,-78.8843677739999,470,"716 MCGILL PLACE, DURHAM, NC, 27701","Match","Exact","716 MCGILL PL, DURHAM, NC, 27701",71741832,"R"
279471,"716 MIRAMAR DRIVE","FULLERTON","CA",92831,33.884924336,-117.914565041,471,"716 MIRAMAR DRIVE, FULLERTON, CA, 92831","Match","Exact","716 MIRAMAR DR, FULLERTON, CA, 92831",144008878,"R"
279472,"716 MOHANSIC AVE","LOGANVILLE","GA",30052,33.8450373000001,-83.828454419,472,"716 MOHANSIC AVE, LOGANVILLE, GA, 30052","Match","Exact","716 MOHANSIC AVE, LOGANVILLE, GA, 30052",618474428,"L"
279473,"716 MONORE STREET NE APT 401","WASHINGTON","AL",20017,NA,NA,473,"716 MONORE STREET NE APT 401, WASHINGTON, AL, 20017","No_Match",NA,NA,NA,NA
279474,"716 N 23RD STREET","BILLINGS","MT",59101,45.790404118,-108.50489546,474,"716 N 23RD STREET, BILLINGS, MT, 59101","Match","Exact","716 N 23RD ST, BILLINGS, MT, 59101",181477586,"L"
279475,"716 N CHURCH ST","ROCKFORD","IL",61103,42.2777053070001,-89.090928267,475,"716 N CHURCH ST, ROCKFORD, IL, 61103","Match","Exact","716 N CHURCH ST, ROCKFORD, IL, 61103",49253256,"L"
279476,"716 N COUNTRY CLUB RD","TUCSON","AZ",85716,32.23051066,-110.926703677,476,"716 N COUNTRY CLUB RD, TUCSON, AZ, 85716","Match","Exact","716 N COUNTRY CLUB RD, TUCSON, AZ, 85716",121174645,"R"
279477,"716 NE 20TH STREET","OKLAHOMA CITY","OK",73105,35.490172414,-97.500458241,477,"716 NE 20TH STREET, OKLAHOMA CITY, OK, 73105","Match","Exact","716 NE 20TH ST, OKLAHOMA CITY, OK, 73105",100401414,"R"
279478,"716 NEWMAN SPRINGS RD 117","LINCROFT","NJ",7738,40.3310346960001,-74.124491239,478,"716 NEWMAN SPRINGS RD 117, LINCROFT, NJ, 7738","Match","Exact","716 NEWMAN SPRINGS RD, LINCROFT, NJ, 07738",624284008,"R"
279479,"716 NIAGARA FALLS BLVD","NORTH TONAWANDA","NY",14120,43.057967755,-78.834639373,479,"716 NIAGARA FALLS BLVD, NORTH TONAWANDA, NY, 14120","Match","Exact","716 NIAGARA FALLS BLVD, N TONAWANDA, NY, 14120",639577899,"L"
279480,"716 NORTH 31ST STREET","NEDERLAND","TX",77627,29.965314119,-94.007389145,480,"716 NORTH 31ST STREET, NEDERLAND, TX, 77627","Match","Exact","716 N 31ST ST, NEDERLAND, TX, 77627",641444232,"L"
279481,"716 NORTH SHERWOOD AVE","SIOUX FALLS","SD",57103,43.5532522830001,-96.688935879,481,"716 NORTH SHERWOOD AVE, SIOUX FALLS, SD, 57103","Match","Exact","716 N SHERWOOD AVE, SIOUX FALLS, SD, 57103",34981872,"R"
279482,"716 NW 1ST AVE","BOYNTON BEACH","FL",33426,26.5280625350001,-80.0778642559999,482,"716 NW 1ST AVE, BOYNTON BEACH, FL, 33426","Match","Exact","716 NW 1ST AVE, BOYNTON BEACH, FL, 33426",115287014,"L"
279483,"716 PERALTA STREET","OAKLAND","CA",94610,37.8066228110001,-122.297826704,483,"716 PERALTA STREET, OAKLAND, CA, 94610","Match","Non_Exact","716 PERALTA ST, OAKLAND, CA, 94607",124995384,"R"
279484,"716 PERRY AVE","WAXAHACHIE","TX",75165,32.379407637,-96.830462691,484,"716 PERRY AVE, WAXAHACHIE, TX, 75165","Match","Exact","716 PERRY AVE, WAXAHACHIE, TX, 75165",103480825,"R"
279485,"716 PINE BLUFF LANE","NEW ALEXANDRIA","PA",15670,40.4132893250001,-79.381680492,485,"716 PINE BLUFF LANE, NEW ALEXANDRIA, PA, 15670","Match","Exact","716 PINE BLUFF LN, NEW ALEXANDRIA, PA, 15670",52943810,"L"
279486,"716 RAMSEY COURT","SALISBURY","MD",21804,38.3429673140001,-75.5800393,486,"716 RAMSEY COURT, SALISBURY, MD, 21804","Match","Exact","716 RAMSEY CT, SALISBURY, MD, 21804",648485434,"R"
279487,"716 RAVEN STREET","RAYMORE","MO",64083,38.7920891840001,-94.449196322,487,"716 RAVEN STREET, RAYMORE, MO, 64083","Match","Exact","716 RAVEN ST, RAYMORE, MO, 64083",100923782,"R"
279488,"716 RICHMOND ST","RALEIGH","NC",27609,35.842515184,-78.652323586,488,"716 RICHMOND ST, RALEIGH, NC, 27609","Match","Exact","716 RICHMOND ST, RALEIGH, NC, 27609",72496628,"R"
279489,"716 RIVER RD","EWING","NJ",8628,40.2429293960001,-74.822214516,489,"716 RIVER RD, EWING, NJ, 8628","Match","Exact","716 RIVER RD, EWING, NJ, 08628",60217013,"L"
279490,"716 ROOK RD","CHARLOTTE","NC",28216,35.288657212,-80.897700474,490,"716 ROOK RD, CHARLOTTE, NC, 28216","Match","Exact","716 ROOK RD, CHARLOTTE, NC, 28216",618155804,"L"
279491,"716 S 2ND STREET APT 3","Philadelphia","PA",19147,39.9397009350001,-75.145996699,491,"716 S 2ND STREET APT 3, Philadelphia, PA, 19147","Match","Non_Exact","716 S 2ND ST, PHILADELPHIA, PA, 19147",131424872,"R"
279492,"716 S COURTLAND AVE","KOKOMO","IN",46901,40.4799289320001,-86.1377946859999,492,"716 S COURTLAND AVE, KOKOMO, IN, 46901","Match","Exact","716 S COURTLAND AVE, KOKOMO, IN, 46901",27276856,"L"
279493,"716 S HILLVIEW RD","ALLENTOWN","PA",18103,40.57144708,-75.533734726,493,"716 S HILLVIEW RD, ALLENTOWN, PA, 18103","Match","Exact","716 S HILLVIEW RD, ALLENTOWN, PA, 18103",80781778,"R"
279494,"716 S LOCUST AVE","LAWRENCEBURG","TN",38464,35.2324635030001,-87.333655651,494,"716 S LOCUST AVE, LAWRENCEBURG, TN, 38464","Match","Exact","716 S LOCUST AVE, LAWRENCEBURG, TN, 38464",26826316,"R"
279495,"716 S UNION ST","RICHMOND","TX",77469,29.576196172,-95.767388071,495,"716 S UNION ST, RICHMOND, TX, 77469","Match","Exact","716 S UNION ST, RICHMOND, TX, 77469",78264036,"L"
279496,"716 S VAIL AVE","MONTEBELLO","CA",90640,34.003678903,-118.123604359,496,"716 S VAIL AVE, MONTEBELLO, CA, 90640","Match","Exact","716 S VAIL AVE, MONTEBELLO, CA, 90640",241250185,"L"
279497,"716 S4TH ST","COUNCIL BLUFFS","IA",51503,NA,NA,497,"716 S4TH ST, COUNCIL BLUFFS, IA, 51503","No_Match",NA,NA,NA,NA
279498,"716 SARALAND BLVD SOUTH","SARALAND","AL",36571,30.8055796740001,-88.0717357619999,498,"716 SARALAND BLVD SOUTH, SARALAND, AL, 36571","Match","Exact","716 SARALAND BLVD S, SARALAND, AL, 36571",638261010,"L"
279499,"716 SCHOOLHOUSE RD","BRIELLE","NJ",8730,40.112650779,-74.064403706,499,"716 SCHOOLHOUSE RD, BRIELLE, NJ, 8730","Match","Exact","716 SCHOOLHOUSE RD, BRIELLE, NJ, 08730",646962520,"L"
279500,"716 SE 11TH TERR","LEES SUMMIT","MO",64081,38.8973726030001,-94.355613664,500,"716 SE 11TH TERR, LEES SUMMIT, MO, 64081","Match","Exact","716 SE 11TH TER, LEES SUMMIT, MO, 64081",91512612,"R"
