"ID","Address","City","State","Zip","lat","long","id","input_address","match_indicator","match_type","matched_address","tiger_line_id","tiger_side"
8001,"102 RAYMOND ST PO BOX 138","GLENBURN","ND",58740,48.515097946,-101.223556896,1,"102 RAYMOND ST PO BOX 138, GLENBURN, ND, 58740","Match","Exact","102 RAYMOND ST, GLENBURN, ND, 58740",199904657,"L"
8002,"102 REBECCA LN","PALATKAA","FL",32177,29.626868062,-81.659285199,2,"102 REBECCA LN, PALATKAA, FL, 32177","Match","Non_Exact","102 REBECCA LN, PALATKA, FL, 32177",86074116,"L"
8003,"102 RED BIRD DRIVE","DURHAM","NC",27704,36.013728628,-78.810522286,3,"102 RED BIRD DRIVE, DURHAM, NC, 27704","Match","Exact","102 RED BIRD DR, DURHAM, NC, 27704",648112266,"R"
8004,"102 REEF LANE VILLA 2","KEY BISCAYNE","FL",33149,NA,NA,4,"102 REEF LANE VILLA 2, KEY BISCAYNE, FL, 33149","No_Match",NA,NA,NA,NA
8005,"102 RENAISSANCE RUN CT","NICHOLASVILLE","KY",40356,37.9795127100001,-84.612368902,5,"102 RENAISSANCE RUN CT, NICHOLASVILLE, KY, 40356","Match","Non_Exact","102 RENAISSANCE CT, NICHOLASVILLE, KY, 40356",619616706,"R"
8006,"102 REVELLE ROAD","WARSAW","NC",28398,35.008060635,-78.079921623,6,"102 REVELLE ROAD, WARSAW, NC, 28398","Match","Exact","102 REVELLE RD, WARSAW, NC, 28398",13442287,"R"
8007,"102 RIBERBEND CLUB POINTE","GRANITE FALLS","NC",28630,35.789354743,-81.380643408,7,"102 RIBERBEND CLUB POINTE, GRANITE FALLS, NC, 28630","Match","Non_Exact","102 RIVERBEND CLUB POINTE, GRANITE FALLS, NC, 28630",45867953,"R"
8008,"102 RIDGECREST AVENUE","BECKLEY","WV",25801,37.759826468,-81.1719594849999,8,"102 RIDGECREST AVENUE, BECKLEY, WV, 25801","Match","Exact","102 RIDGECREST AVE, BECKLEY, WV, 25801",78827355,"L"
8009,"102 RIDGEVIEW DR","SCRANTON","PA",18504,41.430786481,-75.699669872,9,"102 RIDGEVIEW DR, SCRANTON, PA, 18504","Match","Exact","102 RIDGEVIEW DR, SCRANTON, PA, 18504",139347212,"R"
8010,"102 RIDLEY STREET","SMYRNA","TN",37167,35.980740939,-86.520912816,10,"102 RIDLEY STREET, SMYRNA, TN, 37167","Match","Exact","102 RIDLEY ST, SMYRNA, TN, 37167",59021181,"R"
8011,"102 RIGHT FORK LAUREL CREEK","LENORE","WV",25676,NA,NA,11,"102 RIGHT FORK LAUREL CREEK, LENORE, WV, 25676","Tie",NA,NA,NA,NA
8012,"102 RILLA VISTA","SAN ANTONIO","TX",78216,29.4969195310001,-98.4974096349999,12,"102 RILLA VISTA, SAN ANTONIO, TX, 78216","Match","Non_Exact","102 RILLA VISTA DR, SAN ANTONIO, TX, 78216",101497257,"R"
8013,"102 RIVERWOODS RD","IOWA FALLS","IA",50126,42.5237179910001,-93.277068845,13,"102 RIVERWOODS RD, IOWA FALLS, IA, 50126","Match","Exact","102 RIVERWOODS RD, IOWA FALLS, IA, 50126",77435209,"L"
8014,"102 ROSEBUD LANE","COUNCIL BLUFFS","IA",51503,41.2542702480001,-95.7966175719999,14,"102 ROSEBUD LANE, COUNCIL BLUFFS, IA, 51503","Match","Exact","102 ROSEBUD LN, COUNCIL BLUFFS, IA, 51503",43926206,"L"
8015,"102 ROSEDALE AVE","COVINGTON","VA",24426,37.795575829,-79.99891353,15,"102 ROSEDALE AVE, COVINGTON, VA, 24426","Match","Exact","102 ROSEDALE AVE, COVINGTON, VA, 24426",62560457,"L"
8016,"102 ROYAL OAKS DR","DOUBLE OAK","TX",75077,33.0617084730001,-97.097563634,16,"102 ROYAL OAKS DR, DOUBLE OAK, TX, 75077","Match","Exact","102 ROYAL OAKS DR, DOUBLE OAK, TX, 75077",103388471,"R"
8017,"102 RUE CHAPPELLE","WEST MONROE","LA",71291,32.554345015,-92.1536697559999,17,"102 RUE CHAPPELLE, WEST MONROE, LA, 71291","Match","Non_Exact","102 RUE CHAPELLE, WEST MONROE, LA, 71291",616292442,"R"
8018,"102 RUE FELICITE","LAFAYETTE","LA",70507,30.2723090580001,-91.998868164,18,"102 RUE FELICITE, LAFAYETTE, LA, 70507","Match","Exact","102 RUE FELICITE, LAFAYETTE, LA, 70507",85628243,"R"
8019,"102 RUSTIC LIVE OAK TRAIL","BONAIRE","GA",31005,32.5296112520001,-83.611610125,19,"102 RUSTIC LIVE OAK TRAIL, BONAIRE, GA, 31005","Match","Exact","102 RUSTIC LIVE OAK TRL, BONAIRE, GA, 31005",650962723,"R"
8020,"102 S 1ST ST","VINCENT","IA",50594,NA,NA,20,"102 S 1ST ST, VINCENT, IA, 50594","No_Match",NA,NA,NA,NA
8021,"102 S BEATTIE ST","HELENA","MT",59601,46.5836667510001,-112.029790387,21,"102 S BEATTIE ST, HELENA, MT, 59601","Match","Exact","102 S BEATTIE ST, HELENA, MT, 59601",202350012,"L"
8022,"102 S CHEROKEE AVE","CLAREMORE","OK",74017,36.311522134,-95.613812056,22,"102 S CHEROKEE AVE, CLAREMORE, OK, 74017","Match","Exact","102 S CHEROKEE AVE, CLAREMORE, OK, 74017",20683430,"R"
8023,"102 S EAST STREET","ODON","IN",47562,38.8426118020001,-86.9875634589999,23,"102 S EAST STREET, ODON, IN, 47562","Match","Exact","102 S EAST ST, ODON, IN, 47562",32065058,"L"
8024,"102 S HICKORY STREET","MOUNT VERNON","MO",65712,37.1034745420001,-93.817830669,24,"102 S HICKORY STREET, MOUNT VERNON, MO, 65712","Match","Exact","102 S HICKORY ST, MOUNT VERNON, MO, 65712",99857356,"R"
8025,"102 S HIGH STREET","WEST CHESTER","PA",19382,39.9587397980001,-75.6034263669999,25,"102 S HIGH STREET, WEST CHESTER, PA, 19382","Match","Exact","102 S HIGH ST, WEST CHESTER, PA, 19382",179490709,"R"
8026,"102 S LAKESHORE DRIVE","LAKE CITY","MN",55041,44.4493743830001,-92.266662189,26,"102 S LAKESHORE DRIVE, LAKE CITY, MN, 55041","Match","Exact","102 S LAKESHORE DR, LAKE CITY, MN, 55041",31620189,"L"
8027,"102 S MAIN STREET","PROSPER","TX",75078,NA,NA,27,"102 S MAIN STREET, PROSPER, TX, 75078","Tie",NA,NA,NA,NA
8028,"102 S MAIN","BENTON","AR",72015,NA,NA,28,"102 S MAIN, BENTON, AR, 72015","No_Match",NA,NA,NA,NA
8029,"102 S MAIN","SHARON","OK",73857,36.2758052080001,-99.3392002739999,29,"102 S MAIN, SHARON, OK, 73857","Match","Non_Exact","102 S MAIN ST, SHARON, OK, 73857",198730063,"L"
8030,"102 S MARGARET","KIRBYVILLE","TX",75956,30.6605794070001,-93.893866025,30,"102 S MARGARET, KIRBYVILLE, TX, 75956","Match","Non_Exact","102 S MARGARET AVE, KIRBYVILLE, TX, 75956",32388306,"R"
8031,"102 S PLATEAU ST","MARFA","TX",79843,NA,NA,31,"102 S PLATEAU ST, MARFA, TX, 79843","No_Match",NA,NA,NA,NA
8032,"102 S RIDGEWOOD DR","SEBRING","FL",33870,27.4953637080001,-81.441155135,32,"102 S RIDGEWOOD DR, SEBRING, FL, 33870","Match","Exact","102 S RIDGEWOOD DR, SEBRING, FL, 33870",4683608,"R"
8033,"102 S SAINT LOUIS AVE","LOVELAND","CO",80537,NA,NA,33,"102 S SAINT LOUIS AVE, LOVELAND, CO, 80537","Tie",NA,NA,NA,NA
8034,"102 S TEJON STREET SUITE 1100","COLORADO SPRINGS","CO",80903,NA,NA,34,"102 S TEJON STREET SUITE 1100, COLORADO SPRINGS, CO, 80903","Tie",NA,NA,NA,NA
8035,"102 S WASHINGTON STREET","OCONTO FALLS","WI",54154,44.8747468030001,-88.140313422,35,"102 S WASHINGTON STREET, OCONTO FALLS, WI, 54154","Match","Exact","102 S WASHINGTON ST, OCONTO FALLS, WI, 54154",170324633,"R"
8036,"102 S WINDWOOD","CARL JUNCTION","MO",64834,37.151204358,-94.542695043,36,"102 S WINDWOOD, CARL JUNCTION, MO, 64834","Match","Non_Exact","102 S WINDWOOD DR, CARL JUNCTION, MO, 64834",66157745,"R"
8037,"102 S ZEUS ST","MOXEE","WA",98936,46.5528845910001,-120.374381543,37,"102 S ZEUS ST, MOXEE, WA, 98936","Match","Exact","102 ZEUS ST, MOXEE, WA, 98936",640726457,"L"
8038,"102 SAINT CLAIRE AVENUE","WYOMING","OH",45215,39.219770227,-84.476498694,38,"102 SAINT CLAIRE AVENUE, WYOMING, OH, 45215","Match","Non_Exact","102 ST CLARE AVE, WYOMING, OH, 45215",103926680,"R"
8039,"102 SCHAEFFER AVENUE PO BOX 397","CENTRE HALL","PA",16828,40.842692706,-77.685200089,39,"102 SCHAEFFER AVENUE PO BOX 397, CENTRE HALL, PA, 16828","Match","Exact","102 SCHAEFFER AVE, CENTRE HALL, PA, 16828",50386766,"L"
8040,"102 SCHOFIELD DRIVE","EAST BERLIN","PA",17316,39.977429494,-77.032102015,40,"102 SCHOFIELD DRIVE, EAST BERLIN, PA, 17316","Match","Exact","102 SCHOFIELD DR, EAST BERLIN, PA, 17316",60860231,"R"
8041,"102 SERENITY CT","DOUGLASSVILLE","PA",19518,40.3098917820001,-75.725173969,41,"102 SERENITY CT, DOUGLASSVILLE, PA, 19518","Match","Exact","102 SERENITY CT, DOUGLASSVILLE, PA, 19518",630299948,"L"
8042,"102 SHADOWBROOK DR","TUNKHANNOCK","PA",18657,41.5483782090001,-75.911066163,42,"102 SHADOWBROOK DR, TUNKHANNOCK, PA, 18657","Match","Non_Exact","102 SHADOWBROOK RD, TUNKHANNOCK, PA, 18657",140195989,"R"
8043,"102 SHARON STREET","MORGANTON","NC",28655,35.7538366320001,-81.684463802,43,"102 SHARON STREET, MORGANTON, NC, 28655","Match","Exact","102 SHARON ST, MORGANTON, NC, 28655",37157373,"L"
8044,"102 SHAW LANE","WILSONVILLE","AL",35186,33.3319370310001,-86.57140794,44,"102 SHAW LANE, WILSONVILLE, AL, 35186","Match","Exact","102 SHAW LN, WILSONVILLE, AL, 35186",646369289,"R"
8045,"102 SHEPHERD STREET","SUFFOLK","VA",23434,36.716206798,-76.5731455759999,45,"102 SHEPHERD STREET, SUFFOLK, VA, 23434","Match","Exact","102 SHEPHERD ST, SUFFOLK, VA, 23434",122231612,"L"
8046,"102 SHIPPY LANE","PACOLET","SC",29372,34.9343829590001,-81.721913839,46,"102 SHIPPY LANE, PACOLET, SC, 29372","Match","Exact","102 SHIPPY LN, PACOLET, SC, 29372",18994469,"R"
8047,"102 SILVER CREEK CIRCLE","MADISON","AL",35758,34.736560217,-86.747100056,47,"102 SILVER CREEK CIRCLE, MADISON, AL, 35758","Match","Exact","102 SILVER CREEK CIR, MADISON, AL, 35758",58157015,"R"
8048,"102 SILVER FOX","IRVINE","CA",92620,33.7248245920001,-117.759894653,48,"102 SILVER FOX, IRVINE, CA, 92620","Match","Exact","102 SILVER FOX, IRVINE, CA, 92620",144127505,"L"
8049,"102 SILVER LACE ST","LAKE JACKSON","TX",77566,29.0178956300001,-95.441278832,49,"102 SILVER LACE ST, LAKE JACKSON, TX, 77566","Match","Exact","102 SILVER LACE ST, LAKE JACKSON, TX, 77566",116601992,"L"
8050,"102 SIMS LN","TULLAHOMA","TN",37388,35.3461405260001,-86.200701371,50,"102 SIMS LN, TULLAHOMA, TN, 37388","Match","Exact","102 SIMS LN, TULLAHOMA, TN, 37388",58230261,"R"
8051,"102 SKYLINE DRIVE","DUNCANSVILLE","PA",16635,NA,NA,51,"102 SKYLINE DRIVE, DUNCANSVILLE, PA, 16635","No_Match",NA,NA,NA,NA
8052,"102 SLUYTER ST SE","KENTWOOD","MI",49548,42.8737072270001,-85.661889149,52,"102 SLUYTER ST SE, KENTWOOD, MI, 49548","Match","Exact","102 SLUYTER ST SE, KENTWOOD, MI, 49548",12464080,"R"
8053,"102 SOLDIER SQUARE","CASSELBERRY","FL",32707,NA,NA,53,"102 SOLDIER SQUARE, CASSELBERRY, FL, 32707","No_Match",NA,NA,NA,NA
8054,"102 SOUTH 4TH AVENUE APT 240","AVONDALE","AZ",85323,33.4345377450001,-112.354074335,54,"102 SOUTH 4TH AVENUE APT 240, AVONDALE, AZ, 85323","Match","Exact","102 S 4TH AVE, AVONDALE, AZ, 85323",128322100,"R"
8055,"102 SOUTH ARDMORE AVENUE","LOS ANGELES","CA",90004,34.0734913540001,-118.301669264,55,"102 SOUTH ARDMORE AVENUE, LOS ANGELES, CA, 90004","Match","Exact","102 S ARDMORE AVE, LOS ANGELES, CA, 90004",141603458,"L"
8056,"102 SOUTH BURNT MILL ROAD","VOORHEES","NJ",8043,39.857844739,-75.007146086,56,"102 SOUTH BURNT MILL ROAD, VOORHEES, NJ, 8043","Match","Exact","102 S BURNT MILL RD, VOORHEES, NJ, 08043",134403800,"R"
8057,"102 SOUTH CAPITOL PARKWAY","MONTGOMERY","AL",36107,32.378781922,-86.284870551,57,"102 SOUTH CAPITOL PARKWAY, MONTGOMERY, AL, 36107","Match","Exact","102 S CAPITOL PKWY, MONTGOMERY, AL, 36107",1470183,"R"
8058,"102 SOUTH CENTRAL STREET","ARMSTRONG","MO",65230,39.2699482830001,-92.70111538,58,"102 SOUTH CENTRAL STREET, ARMSTRONG, MO, 65230","Match","Non_Exact","102 CENTRAL ST, ARMSTRONG, MO, 65230",23104837,"R"
8059,"102 SOUTH MAIN ST  634","POCATELLO","ID",83204,42.8620358270001,-112.45053847,59,"102 SOUTH MAIN ST  634, POCATELLO, ID, 83204","Match","Exact","102 S MAIN ST, POCATELLO, ID, 83204",204351577,"L"
8060,"102 SOUTH MAIN STREET UNIT 634","POCATELLO","ID",83204,42.8620358270001,-112.45053847,60,"102 SOUTH MAIN STREET UNIT 634, POCATELLO, ID, 83204","Match","Exact","102 S MAIN ST, POCATELLO, ID, 83204",204351577,"L"
8061,"102 SOUTH MAIN STREET","CREEDE","CO",81130,37.852247452,-106.926973773,61,"102 SOUTH MAIN STREET, CREEDE, CO, 81130","Match","Exact","102 S MAIN ST, CREEDE, CO, 81130",176943723,"R"
8062,"102 SOUTH MAIN STREET","GREER","SC",29650,34.9388363680001,-82.227081574,62,"102 SOUTH MAIN STREET, GREER, SC, 29650","Match","Non_Exact","102 N MAIN ST, GREER, SC, 29650",38311050,"R"
8063,"102 SOUTH MAIN STREET","STATESBORO","GA",30458,32.4468211120001,-81.7836084589999,63,"102 SOUTH MAIN STREET, STATESBORO, GA, 30458","Match","Exact","102 S MAIN ST, STATESBORO, GA, 30458",6115280,"R"
8064,"102 SOUTH MAIN","WAGNER","SD",57380,NA,NA,64,"102 SOUTH MAIN, WAGNER, SD, 57380","No_Match",NA,NA,NA,NA
8065,"102 SOUTH NATIONAL AVENUE","FORT SCOTT","KS",66701,37.840754385,-94.707315748,65,"102 SOUTH NATIONAL AVENUE, FORT SCOTT, KS, 66701","Match","Exact","102 S NATIONAL AVE, FORT SCOTT, KS, 66701",27474815,"L"
8066,"102 SOUTH RAIL STREET EAST","SHOSHONE","ID",83352,42.93537073,-114.406628603,66,"102 SOUTH RAIL STREET EAST, SHOSHONE, ID, 83352","Match","Exact","102 S RAIL ST E, SHOSHONE, ID, 83352",105693628,"L"
8067,"102 SOUTH STREET APT 2","BIDDEFORD","ME",4005,43.4925479240001,-70.4628014209999,67,"102 SOUTH STREET APT 2, BIDDEFORD, ME, 4005","Match","Exact","102 SOUTH ST, BIDDEFORD, ME, 04005",92741671,"R"
8068,"102 SPRIGG STREET","FRANKFORT","KY",40601,38.1035389680001,-84.931255799,68,"102 SPRIGG STREET, FRANKFORT, KY, 40601","Match","Non_Exact","102 SPRIGG, FRANKFORT, KY, 40601",97048824,"R"
8069,"102 SPRINGVALE DR","SAN ANTONIO","TX",78227,29.397930629,-98.644322944,69,"102 SPRINGVALE DR, SAN ANTONIO, TX, 78227","Match","Exact","102 SPRINGVALE DR, SAN ANTONIO, TX, 78227",101507142,"L"
8070,"102 STATE RT 5 WEST PO BOX 217","ELBRIDGE","NY",13060,NA,NA,70,"102 STATE RT 5 WEST PO BOX 217, ELBRIDGE, NY, 13060","No_Match",NA,NA,NA,NA
8071,"102 STATE STREET","HACKENSACK","NJ",7601,40.8821752150001,-74.045550307,71,"102 STATE STREET, HACKENSACK, NJ, 7601","Match","Exact","102 STATE ST, HACKENSACK, NJ, 07601",64386397,"R"
8072,"102 STRAW FLOWER PATH","PEACHTREE CITY","GA",30269,33.3960677150001,-84.5607967569999,72,"102 STRAW FLOWER PATH, PEACHTREE CITY, GA, 30269","Match","Non_Exact","102 STRAWFLOWER PATH, PEACHTREE CITY, GA, 30269",75932225,"R"
8073,"102 SUMMIT STREET","DARBY","PA",19023,39.9199156880001,-75.257724203,73,"102 SUMMIT STREET, DARBY, PA, 19023","Match","Exact","102 SUMMIT ST, DARBY, PA, 19023",134886423,"L"
8074,"102 SUNMAR CT APT 1A","GWYNN OAK","MD",21207,39.344698298,-76.7317744549999,74,"102 SUNMAR CT APT 1A, GWYNN OAK, MD, 21207","Match","Exact","102 SUNMAR CT, GWYNN OAK, MD, 21207",191503391,"L"
8075,"102 SUNRISE COVE","BATESVILLE","MS",38606,34.327187796,-89.931971168,75,"102 SUNRISE COVE, BATESVILLE, MS, 38606","Match","Exact","102 SUNRISE COVE, BATESVILLE, MS, 38606",80091539,"R"
8076,"102 SUNRISE DRIVE","SUNRISE BEACH","TX",78643,30.593511069,-98.426246765,76,"102 SUNRISE DRIVE, SUNRISE BEACH, TX, 78643","Match","Exact","102 SUNRISE DR, SUNRISE BEACH, TX, 78643",182249958,"L"
8077,"102 SUNSET DR","ITHACA","NY",14850,42.464745802,-76.4954328649999,77,"102 SUNSET DR, ITHACA, NY, 14850","Match","Non_Exact","102 N SUNSET DR, ITHACA, NY, 14850",18872550,"L"
8078,"102 SUSAN CONSTANT COURT","LA PLATA","MD",20646,38.5345517050001,-76.9883549429999,78,"102 SUSAN CONSTANT COURT, LA PLATA, MD, 20646","Match","Exact","102 SUSAN CONSTANT CT, LA PLATA, MD, 20646",614117893,"R"
8079,"102 SW 6 AVE APT 402","MIAMI","FL",33130,25.7727312600001,-80.204349298,79,"102 SW 6 AVE APT 402, MIAMI, FL, 33130","Match","Non_Exact","102 SW 6TH AVE, MIAMI, FL, 33130",116018250,"R"
8080,"102 SWIFT WIND PL","APEX","NC",27539,35.6981032210001,-78.779785491,80,"102 SWIFT WIND PL, APEX, NC, 27539","Match","Exact","102 SWIFT WIND PL, APEX, NC, 27539",612816345,"R"
8081,"102 SYCAMORE CIRCLE","JONESBOROUGH","TN",37659,36.297499315,-82.436707988,81,"102 SYCAMORE CIRCLE, JONESBOROUGH, TN, 37659","Match","Exact","102 SYCAMORE CIR, JONESBOROUGH, TN, 37659",636645109,"L"
8082,"102 TALL OAKS TRL","WEST MONROE","LA",71291,NA,NA,82,"102 TALL OAKS TRL, WEST MONROE, LA, 71291","No_Match",NA,NA,NA,NA
8083,"102 TANGLEWOOD DRIVE","GREENTOWN","PA",18426,41.367882794,-75.238529479,83,"102 TANGLEWOOD DRIVE, GREENTOWN, PA, 18426","Match","Exact","102 TANGLEWOOD DR, GREENTOWN, PA, 18426",191430740,"L"
8084,"102 TANGLEWYLDE AVENUE","BRONXVILLE","NY",10708,40.9416563610001,-73.823639543,84,"102 TANGLEWYLDE AVENUE, BRONXVILLE, NY, 10708","Match","Exact","102 TANGLEWYLDE AVE, BRONXVILLE, NY, 10708",639309166,"R"
8085,"102 TATE STUDENT CENTER","ATHENS","GA",30602,NA,NA,85,"102 TATE STUDENT CENTER, ATHENS, GA, 30602","No_Match",NA,NA,NA,NA
8086,"102 TAYLORS MILLS RD","MANALAPAN","NJ",7726,40.2999726790001,-74.331533217,86,"102 TAYLORS MILLS RD, MANALAPAN, NJ, 7726","Match","Exact","102 TAYLORS MILLS RD, MANALAPAN, NJ, 07726",624715565,"R"
8087,"102 TIMBER LANE","JACKSONVILLE","NC",28540,34.803958176,-77.460492186,87,"102 TIMBER LANE, JACKSONVILLE, NC, 28540","Match","Exact","102 TIMBER LN, JACKSONVILLE, NC, 28540",14010712,"L"
8088,"102 TOURNAMENT DRIVE EAST","HAWTHORN WOODS","IL",60047,42.234868422,-88.069373538,88,"102 TOURNAMENT DRIVE EAST, HAWTHORN WOODS, IL, 60047","Match","Exact","102 TOURNAMENT DR E, HAWTHORN WDS, IL, 60047",645127266,"L"
8089,"102 TRACIER CREST","CLINTON","MS",39056,32.337950732,-90.35300211,89,"102 TRACIER CREST, CLINTON, MS, 39056","Match","Exact","102 TRACIER CRST, CLINTON, MS, 39056",65383228,"L"
8090,"102 TRAPPER TRL","BASTROP","TX",78602,30.10298686,-97.355311258,90,"102 TRAPPER TRL, BASTROP, TX, 78602","Match","Exact","102 TRAPPER TRL, BASTROP, TX, 78602",624787504,"R"
8091,"102 TRICKUM CT","WARNER ROBINS","GA",31088,32.5661809900001,-83.717041196,91,"102 TRICKUM CT, WARNER ROBINS, GA, 31088","Match","Exact","102 TRICKUM CT, WARNER ROBINS, GA, 31088",627752157,"R"
8092,"102 TUFTS ROAD","BELFAST","ME",4915,44.4036275070001,-69.060903943,92,"102 TUFTS ROAD, BELFAST, ME, 4915","Match","Exact","102 TUFTS RD, BELFAST, ME, 04915",75630273,"R"
8093,"102 TWO MOONS LN","JUDSONIA","AR",72081,NA,NA,93,"102 TWO MOONS LN, JUDSONIA, AR, 72081","No_Match",NA,NA,NA,NA
8094,"102 W 10TH ST","LAMAR","MO",64759,37.4956932440001,-94.276185837,94,"102 W 10TH ST, LAMAR, MO, 64759","Match","Exact","102 W 10TH ST, LAMAR, MO, 64759",99038519,"R"
8095,"102 W FERRY ST PO BOX 422","SALINA","OK",74365,NA,NA,95,"102 W FERRY ST PO BOX 422, SALINA, OK, 74365","Tie",NA,NA,NA,NA
8096,"102 W LOSEY ST","SCOTT AFB","IL",62225,38.542722977,-89.865051987,96,"102 W LOSEY ST, SCOTT AFB, IL, 62225","Match","Exact","102 W LOSEY ST, SCOTT AFB, IL, 62225",647677351,"L"
8097,"102 W MAIN ST 102","NEW ALBANY","OH",43054,NA,NA,97,"102 W MAIN ST 102, NEW ALBANY, OH, 43054","Tie",NA,NA,NA,NA
8098,"102 W MAIN ST SUITE 201","AUBURN","WA",98001,47.2799529980001,-122.251475376,98,"102 W MAIN ST SUITE 201, AUBURN, WA, 98001","Match","Exact","102 MAIN ST, AUBURN, WA, 98001",186952112,"R"
8099,"102 W MAIN STREET BOX 503","NEW ALBANY","OH",43054,NA,NA,99,"102 W MAIN STREET BOX 503, NEW ALBANY, OH, 43054","Tie",NA,NA,NA,NA
8100,"102 W MAIN STREET PO BOX 367","ELK POINT","SD",57025,NA,NA,100,"102 W MAIN STREET PO BOX 367, ELK POINT, SD, 57025","Tie",NA,NA,NA,NA
8101,"102 W MORLATTON RD","DOUGLASSVILLE","PA",19518,NA,NA,101,"102 W MORLATTON RD, DOUGLASSVILLE, PA, 19518","Tie",NA,NA,NA,NA
8102,"102 W SOUTH ST","ARCANUM","OH",45304,39.990248912,-84.5546871779999,102,"102 W SOUTH ST, ARCANUM, OH, 45304","Match","Exact","102 W SOUTH ST, ARCANUM, OH, 45304",54555957,"R"
8103,"102 W VANCE ST","FUQUAY VARINA","NC",27526,35.5820547490001,-78.800726018,103,"102 W VANCE ST, FUQUAY VARINA, NC, 27526","Match","Exact","102 W VANCE ST, FUQUAY VARINA, NC, 27526",72490881,"R"
8104,"102 W VIRGINIA AVE","TEMPLE","TX",76501,31.117468672,-97.334560403,104,"102 W VIRGINIA AVE, TEMPLE, TX, 76501","Match","Exact","102 WEST VIRGINIA AVE, TEMPLE, TX, 76501",146152897,"R"
8105,"102 WALLIS DRIVE","AUSTIN","TX",78746,30.277743441,-97.7831489339999,105,"102 WALLIS DRIVE, AUSTIN, TX, 78746","Match","Exact","102 WALLIS DR, AUSTIN, TX, 78746",63941584,"R"
8106,"102 WASHBURN","DALHART","TX",79022,NA,NA,106,"102 WASHBURN, DALHART, TX, 79022","No_Match",NA,NA,NA,NA
8107,"102 WASHINGTON BLVD","BIG SPRING","TX",79720,32.2472462370001,-101.459398256,107,"102 WASHINGTON BLVD, BIG SPRING, TX, 79720","Match","Exact","102 WASHINGTON BLVD, BIG SPRING, TX, 79720",182877498,"L"
8108,"102 WATER OAK LN","WEATHERFORD","TX",76086,32.7532490560001,-97.820796466,108,"102 WATER OAK LN, WEATHERFORD, TX, 76086","Match","Exact","102 WATER OAK LN, WEATHERFORD, TX, 76086",627944529,"R"
8109,"102 WAVERLY RD","WAVERLY","PA",18471,41.525051321,-75.711761668,109,"102 WAVERLY RD, WAVERLY, PA, 18471","Match","Exact","102 WAVERLY RD, WAVERLY, PA, 18471",647343673,"R"
8110,"102 WEBER COURT","FRANKLIN","IN",46131,39.481026291,-86.034483033,110,"102 WEBER COURT, FRANKLIN, IN, 46131","Match","Exact","102 WEBER CT, FRANKLIN, IN, 46131",114651330,"R"
8111,"102 WEBER CT","FRANKLIN","IN",46131,39.481026291,-86.034483033,111,"102 WEBER CT, FRANKLIN, IN, 46131","Match","Exact","102 WEBER CT, FRANKLIN, IN, 46131",114651330,"R"
8112,"102 WESRT CHURCH STREET","FREDERICK","MD",21701,NA,NA,112,"102 WESRT CHURCH STREET, FREDERICK, MD, 21701","No_Match",NA,NA,NA,NA
8113,"102 WEST 2ND STREET","WESTON","WV",26452,39.039474565,-80.469008141,113,"102 WEST 2ND STREET, WESTON, WV, 26452","Match","Exact","102 W 2ND ST, WESTON, WV, 26452",615419594,"R"
8114,"102 WEST 5 STREET","HIALEAH","FL",33010,25.8262196110001,-80.283629166,114,"102 WEST 5 STREET, HIALEAH, FL, 33010","Match","Exact","102 W 5TH ST, HIALEAH, FL, 33010",115959169,"L"
8115,"102 WEST 80TH STREET NO 51","NEW YORK","NY",10024,40.7827453900001,-73.975262227,115,"102 WEST 80TH STREET NO 51, NEW YORK, NY, 10024","Match","Non_Exact","102 W 80TH ST, NEW YORK, NY, 10024",59656682,"L"
8116,"102 WEST BRANNON ROAD","NICHOLASVILLE","KY",40356,37.9736760160001,-84.5943237279999,116,"102 WEST BRANNON ROAD, NICHOLASVILLE, KY, 40356","Match","Exact","102 W BRANNON RD, NICHOLASVILLE, KY, 40356",38467215,"R"
8117,"102 WEST HIGH STREET","SPRINGFIELD","OH",45502,39.923463999,-83.8125527019999,117,"102 WEST HIGH STREET, SPRINGFIELD, OH, 45502","Match","Exact","102 W HIGH ST, SPRINGFIELD, OH, 45502",135008770,"R"
8118,"102 WEST IDAHO AVENUE","HOMEDALE","ID",83628,43.6177375940001,-116.936236564,118,"102 WEST IDAHO AVENUE, HOMEDALE, ID, 83628","Match","Exact","102 W IDAHO AVE, HOMEDALE, ID, 83628",118568041,"L"
8119,"102 WEST JEFFERSON STREET SUITE A","CULVER","IN",46511,41.2166986890001,-86.423801396,119,"102 WEST JEFFERSON STREET SUITE A, CULVER, IN, 46511","Match","Exact","102 W JEFFERSON ST, CULVER, IN, 46511",7644799,"L"
8120,"102 WEST MAIN RD","MIDDLETOWN","RI",2842,41.508399893,-71.301879935,120,"102 WEST MAIN RD, MIDDLETOWN, RI, 2842","Match","Exact","102 W MAIN RD, MIDDLETOWN, RI, 02842",47347076,"L"
8121,"102 WEST MAIN STREET UNIT 221","NEW ALBANY","OH",43054,40.0812006900001,-82.812131815,121,"102 WEST MAIN STREET UNIT 221, NEW ALBANY, OH, 43054","Match","Exact","102 W MAIN ST, NEW ALBANY, OH, 43054",218688649,"L"
8122,"102 WEST RIVER AVENUE","BRUCE","WI",54819,NA,NA,122,"102 WEST RIVER AVENUE, BRUCE, WI, 54819","No_Match",NA,NA,NA,NA
8123,"102 WESTCHESTER LANE","HINESVILLE","GA",31313,31.800973818,-81.645978615,123,"102 WESTCHESTER LANE, HINESVILLE, GA, 31313","Match","Exact","102 WESTCHESTER LN, HINESVILLE, GA, 31313",619375083,"R"
8124,"102 WHETSTONE COURT","DURHAM","NC",27703,35.9891002430001,-78.812019643,124,"102 WHETSTONE COURT, DURHAM, NC, 27703","Match","Exact","102 WHETSTONE CT, DURHAM, NC, 27703",71755859,"R"
8125,"102 WHITE OAK CT","VICTORIA","TX",77901,28.840605012,-96.969090355,125,"102 WHITE OAK CT, VICTORIA, TX, 77901","Match","Exact","102 WHITE OAK CT, VICTORIA, TX, 77901",44580828,"L"
8126,"102 WILLOW STREET","NEW RICHMOND","OH",45157,38.9505442600001,-84.282116775,126,"102 WILLOW STREET, NEW RICHMOND, OH, 45157","Match","Exact","102 WILLOW ST, NEW RICHMOND, OH, 45157",118466929,"R"
8127,"102 WINDRIDGE DR","SANDY SPRINGS","GA",30350,33.980678561,-84.351656181,127,"102 WINDRIDGE DR, SANDY SPRINGS, GA, 30350","Match","Exact","102 WINDRIDGE DR, SANDY SPRINGS, GA, 30350",643065122,"L"
8128,"102 WINTERGREEN PL","GOLDSBORO","NC",27534,35.3932029740001,-77.9001399539999,128,"102 WINTERGREEN PL, GOLDSBORO, NC, 27534","Match","Exact","102 WINTERGREEN PL, GOLDSBORO, NC, 27534",14418827,"L"
8129,"102 WONDER WORLD DR STE 304-126","SAN MARCOS","TX",78666,29.865417931,-97.963062855,129,"102 WONDER WORLD DR STE 304-126, SAN MARCOS, TX, 78666","Match","Exact","102 WONDER WORLD DR, SAN MARCOS, TX, 78666",63822174,"L"
8130,"102 WOODFIELD DR","WARNER ROBINS","GA",31088,32.5893817250001,-83.639917539,130,"102 WOODFIELD DR, WARNER ROBINS, GA, 31088","Match","Exact","102 WOODFIELD DR, WARNER ROBINS, GA, 31088",91259123,"R"
8131,"102 WOODMONT BOULEVARD SUITE 510","NASHVILLE","TN",37205,36.118734492,-86.841122143,131,"102 WOODMONT BOULEVARD SUITE 510, NASHVILLE, TN, 37205","Match","Non_Exact","102 WOODMONT CIR, NASHVILLE, TN, 37205",625164153,"L"
8132,"102 WOODYSIDE DRIVE","HENDERSONVILLE","TN",37075,36.282866617,-86.615302754,132,"102 WOODYSIDE DRIVE, HENDERSONVILLE, TN, 37075","Match","Exact","102 WOODYSIDE DR, HENDERSONVILLE, TN, 37075",29775616,"R"
8133,"102 YAUPON COURT","RAEFORD","NC",28376,35.0014035080001,-79.1698598,133,"102 YAUPON COURT, RAEFORD, NC, 28376","Match","Exact","102 YAUPON CT, RAEFORD, NC, 28376",76182910,"R"
8134,"102 ZIEGLERVILLE RD   BOX 128","ZIEGLERVILLE","PA",19492,NA,NA,134,"102 ZIEGLERVILLE RD   BOX 128, ZIEGLERVILLE, PA, 19492","No_Match",NA,NA,NA,NA
8135,"102 ZIMMER RD","DALEVILLE","AL",36322,31.3114043030001,-85.7276852319999,135,"102 ZIMMER RD, DALEVILLE, AL, 36322","Match","Exact","102 ZIMMER RD, DALEVILLE, AL, 36322",99610738,"R"
8136,"102-30 215 STREET","QUEENS VILLAGE","NY",11429,40.7127057220001,-73.743884312,136,"102-30 215 STREET, QUEENS VILLAGE, NY, 11429","Match","Exact","102-30 215TH ST, QUEENS VILLAGE, NY, 11429",59717968,"R"
8137,"102-35 64TH RD APT 5E","FOREST HILLS","NY",11375,40.731293006,-73.8525976139999,137,"102-35 64TH RD APT 5E, FOREST HILLS, NY, 11375","Match","Exact","102-35 64TH RD, FOREST HILLS, NY, 11375",59705790,"L"
8138,"102-50 187 STREET","HOLLIS","NY",11423,40.7068843330001,-73.770284175,138,"102-50 187 STREET, HOLLIS, NY, 11423","Match","Exact","102-50 187TH ST, HOLLIS, NY, 11423",59716588,"R"
8139,"102","ADRIAN","MI",49221,NA,NA,139,"102, ADRIAN, MI, 49221","No_Match",NA,NA,NA,NA
8140,"102","OCEANPORT","NJ",7757,NA,NA,140,"102, OCEANPORT, NJ, 7757","No_Match",NA,NA,NA,NA
8141,"1020 10TH AVE W SUITE 65","PALMETTO","FL",34221,27.5218499750001,-82.575622911,141,"1020 10TH AVE W SUITE 65, PALMETTO, FL, 34221","Match","Exact","1020 10TH AVE W, PALMETTO, FL, 34221",16243101,"L"
8142,"1020 10TH AVE W","PALMETTO","FL",34221,27.5218499750001,-82.575622911,142,"1020 10TH AVE W, PALMETTO, FL, 34221","Match","Exact","1020 10TH AVE W, PALMETTO, FL, 34221",16243101,"L"
8143,"1020 12TH STREET NORTH","BIRMINGHAM","AL",35204,33.519361953,-86.823727746,143,"1020 12TH STREET NORTH, BIRMINGHAM, AL, 35204","Match","Non_Exact","1020 12TH ST N, BIRMINGHAM, AL, 35203",81574110,"L"
8144,"1020 16TH STREET NW SUITE 204","WASHINGTON","DC",20036,38.902833716,-77.03654793,144,"1020 16TH STREET NW SUITE 204, WASHINGTON, DC, 20036","Match","Exact","1020 16TH ST NW, WASHINGTON, DC, 20036",76225740,"L"
8145,"1020 59TH STREET WEST","BRADENTON","FL",34209,27.4903438110001,-82.620447966,145,"1020 59TH STREET WEST, BRADENTON, FL, 34209","Match","Exact","1020 59TH ST W, BRADENTON, FL, 34209",16247908,"R"
8146,"1020 6TH AVE SE STE 1-117","ABERDEEN","SD",57401,45.459207463,-98.472876786,146,"1020 6TH AVE SE STE 1-117, ABERDEEN, SD, 57401","Match","Exact","1020 6TH AVE SE, ABERDEEN, SD, 57401",200795706,"L"
8147,"1020 6TH STREET","CEDAR RAPIDS","IA",52401,41.9735246390001,-91.656255131,147,"1020 6TH STREET, CEDAR RAPIDS, IA, 52401","Match","Non_Exact","1020 6TH ST SE, CEDAR RAPIDS, IA, 52401",17026188,"L"
8148,"1020 9TH AVENUE SW","BESSEMER","AL",35022,33.3653483780001,-86.998446098,148,"1020 9TH AVENUE SW, BESSEMER, AL, 35022","Match","Exact","1020 9TH AVE SW, BESSEMER, AL, 35022",649274471,"R"
8149,"1020 A STREET","FRESNO","CA",93706,36.7270854600001,-119.800300195,149,"1020 A STREET, FRESNO, CA, 93706","Match","Exact","1020 A ST, FRESNO, CA, 93706",197579462,"R"
8150,"1020 ALABAMA STREET","SACRAMENTO","CA",94590,38.10892511,-122.248099736,150,"1020 ALABAMA STREET, SACRAMENTO, CA, 94590","Match","Non_Exact","1020 ALABAMA ST, VALLEJO, CA, 94590",192527483,"L"
8151,"1020 ANASTASIA BLVD","SAINT AUGUSTINE","FL",32080,29.8808785300001,-81.286826774,151,"1020 ANASTASIA BLVD, SAINT AUGUSTINE, FL, 32080","Match","Exact","1020 ANASTASIA BLVD, SAINT AUGUSTINE, FL, 32080",92615088,"R"
8152,"1020 AOLOA PL APT 311B","KAILUA","HI",96734,21.3902240780001,-157.737941412,152,"1020 AOLOA PL APT 311B, KAILUA, HI, 96734","Match","Exact","1020 AOLOA PL, KAILUA, HI, 96734",203240145,"R"
8153,"1020 ARROWHEAD LN","FALLON","NV",89406,39.473008883,-118.830538375,153,"1020 ARROWHEAD LN, FALLON, NV, 89406","Match","Exact","1020 ARROWHEAD LN, FALLON, NV, 89406",636425003,"R"
8154,"1020 AUBURN AVE","LAFAYETTE","LA",70503,30.2086711850001,-92.011857968,154,"1020 AUBURN AVE, LAFAYETTE, LA, 70503","Match","Exact","1020 AUBURN AVE, LAFAYETTE, LA, 70503",85616448,"R"
8155,"1020 BANNISTER PL","CHARLOTTE","NC",28213,35.273304653,-80.789491743,155,"1020 BANNISTER PL, CHARLOTTE, NC, 28213","Match","Exact","1020 BANNISTER PL, CHARLOTTE, NC, 28213",70480837,"R"
8156,"1020 BARNETT ROAD SUITE B","COLUMBUS","OH",43227,39.9511940370001,-82.905850978,156,"1020 BARNETT ROAD SUITE B, COLUMBUS, OH, 43227","Match","Exact","1020 BARNETT RD, COLUMBUS, OH, 43227",135591750,"L"
8157,"1020 BELL ST","EDMONDS","WA",98020,47.8113008620001,-122.362850373,157,"1020 BELL ST, EDMONDS, WA, 98020","Match","Exact","1020 BELL ST, EDMONDS, WA, 98020",187754655,"R"
8158,"1020 BLACK OAK DR","ROSEBURG","OR",97471,43.229387941,-123.418664779,158,"1020 BLACK OAK DR, ROSEBURG, OR, 97471","Match","Exact","1020 BLACK OAK DR, ROSEBURG, OR, 97471",613876727,"L"
8159,"1020 BLUE SPRUCE RIDGE WAY","TILLAMOOK","OR",97141,45.449377854,-123.750160247,159,"1020 BLUE SPRUCE RIDGE WAY, TILLAMOOK, OR, 97141","Match","Exact","1020 BLUE SPRUCE RIDGE WAY, TILLAMOOK, OR, 97141",156399043,"L"
8160,"1020 BLUEFIELD ROAD","LEXINGTON","SC",29073,33.8723786690001,-81.242081022,160,"1020 BLUEFIELD ROAD, LEXINGTON, SC, 29073","Match","Exact","1020 BLUEFIELD RD, LEXINGTON, SC, 29073",641133628,"L"
8161,"1020 BRAND 738","STAFFORD","TX",77477,29.6116024780001,-95.5778434219999,161,"1020 BRAND 738, STAFFORD, TX, 77477","Match","Non_Exact","1020 BRAND LN, STAFFORD, TX, 77477",640662188,"L"
8162,"1020 BRAND LANE APT 415","STAFFORD","TX",77477,29.6116024780001,-95.5778434219999,162,"1020 BRAND LANE APT 415, STAFFORD, TX, 77477","Match","Exact","1020 BRAND LN, STAFFORD, TX, 77477",640662188,"L"
8163,"1020 BRIAR ROSE LANE","LADSON","SC",29456,33.0235371470001,-80.107370222,163,"1020 BRIAR ROSE LANE, LADSON, SC, 29456","Match","Exact","1020 BRIAR ROSE LN, LADSON, SC, 29456",605125113,"L"
8164,"1020 BROMPTON PL","MENDOTA HTS","MN",55118,44.914300628,-93.1153759649999,164,"1020 BROMPTON PL, MENDOTA HTS, MN, 55118","Match","Exact","1020 BROMPTON PL, MENDOTA HEIGHTS, MN, 55118",37915505,"L"
8165,"1020 CAPTAINS TABLE RD APT 3","SACRAMENTO","CA",95822,38.535115525,-121.517048188,165,"1020 CAPTAINS TABLE RD APT 3, SACRAMENTO, CA, 95822","Match","Exact","1020 CAPTAINS TABLE RD, SACRAMENTO, CA, 95822",133389866,"L"
8166,"1020 CAROLINE ST","NANTY GLO","PA",15943,40.4707738490001,-78.838343615,166,"1020 CAROLINE ST, NANTY GLO, PA, 15943","Match","Exact","1020 CAROLINE ST, NANTY GLO, PA, 15943",50237012,"L"
8167,"1020 CAVE SPRING BLVD","SAINT PETERS","MO",63376,38.7932223350001,-90.5719541839999,167,"1020 CAVE SPRING BLVD, SAINT PETERS, MO, 63376","Match","Exact","1020 CAVE SPRINGS BLVD, SAINT PETERS, MO, 63376",606665108,"L"
8168,"1020 CEDAR GLEN SOUTH DR","PLAINFIELD","IN",46168,39.6782435810001,-86.389182206,168,"1020 CEDAR GLEN SOUTH DR, PLAINFIELD, IN, 46168","Match","Exact","1020 CEDAR GLEN SOUTH DR, PLAINFIELD, IN, 46168",89208738,"L"
8169,"1020 CENTER RIDGE RD","COLLIERVILLE","TN",38017,35.0169139670001,-89.691432741,169,"1020 CENTER RIDGE RD, COLLIERVILLE, TN, 38017","Match","Exact","1020 CENTER RIDGE RD, COLLIERVILLE, TN, 38017",72971261,"L"
8170,"1020 CHARLES DUPUIS RD","BREAUX BRIDGE","LA",70517,30.3432535370001,-91.8240694149999,170,"1020 CHARLES DUPUIS RD, BREAUX BRIDGE, LA, 70517","Match","Exact","1020 CHARLES DUPUIS RD, BREAUX BRIDGE, LA, 70517",85827895,"R"
8171,"1020 CHICKADEE LOOP","FAIRBANKS","AK",99712,64.9007676150001,-147.721778556,171,"1020 CHICKADEE LOOP, FAIRBANKS, AK, 99712","Match","Exact","1020 CHICKADEE LOOP, FAIRBANKS, AK, 99712",640083768,"R"
8172,"1020 CHIPPEWA STREET","GRAFTON","OH",44044,41.283280276,-82.0556863749999,172,"1020 CHIPPEWA STREET, GRAFTON, OH, 44044","Match","Exact","1020 CHIPPEWA ST, GRAFTON, OH, 44044",639965507,"L"
8173,"1020 COMMERCE BLVD","PELHAM","AL",35124,33.33588259,-86.790937737,173,"1020 COMMERCE BLVD, PELHAM, AL, 35124","Match","Exact","1020 COMMERCE BLVD, PELHAM, AL, 35124",82064720,"R"
8174,"1020 COMMERCE PARK DRIVE SUITE L","OAK RIDGE","TN",37830,35.9891177010001,-84.224804196,174,"1020 COMMERCE PARK DRIVE SUITE L, OAK RIDGE, TN, 37830","Match","Exact","1020 COMMERCE PARK DR, OAK RIDGE, TN, 37830",90134831,"R"
8175,"1020 D AWAWAMALU ST","HONOLULU","HI",96825,21.3022907800001,-157.685793758,175,"1020 D AWAWAMALU ST, HONOLULU, HI, 96825","Match","Exact","1020 AWAWAMALU ST, HONOLULU, HI, 96825",631972221,"L"
8176,"1020 DARLINGTON AVE","EAST LANSING","MI",48823,42.752169173,-84.496353603,176,"1020 DARLINGTON AVE, EAST LANSING, MI, 48823","Match","Exact","1020 DARLINGTON AVE, EAST LANSING, MI, 48823",17500659,"R"
8177,"1020 DARROW AVE","EVANSTON","IL",60202,42.036392447,-87.6976831219999,177,"1020 DARROW AVE, EVANSTON, IL, 60202","Match","Exact","1020 DARROW AVE, EVANSTON, IL, 60202",605251439,"L"
8178,"1020 DEWEY AVENUE","EVANSTON","IL",60201,42.0361901270001,-87.6961377329999,178,"1020 DEWEY AVENUE, EVANSTON, IL, 60201","Match","Non_Exact","1020 DEWEY AVE, EVANSTON, IL, 60202",111743332,"L"
8179,"1020 DONNA LANE","HUNTINGTOWN","MD",20639,38.5914429580001,-76.632743878,179,"1020 DONNA LANE, HUNTINGTOWN, MD, 20639","Match","Exact","1020 DONNA LN, HUNTINGTOWN, MD, 20639",78190824,"L"
8180,"1020 E 135TH PLACE","GLENPOOL","OK",74033,35.966902454,-95.9934007639999,180,"1020 E 135TH PLACE, GLENPOOL, OK, 74033","Match","Exact","1020 135 PL, GLENPOOL, OK, 74033",613472493,"L"
8181,"1020 E 15TH STREET","PLANO","TX",75074,33.019662559,-96.700572014,181,"1020 E 15TH STREET, PLANO, TX, 75074","Match","Exact","1020 E 15TH ST, PLANO, TX, 75074",123489924,"R"
8182,"1020 E 3RD AVE","BROOMFIELD","CO",80020,39.923414758,-105.060476614,182,"1020 E 3RD AVE, BROOMFIELD, CO, 80020","Match","Exact","1020 E 3RD AVE, BROOMFIELD, CO, 80020",188168549,"R"
8183,"1020 E ADAMS AVE","FOWLER","CA",93625,36.6345145230001,-119.66598175,183,"1020 E ADAMS AVE, FOWLER, CA, 93625","Match","Exact","1020 E ADAMS AVE, FOWLER, CA, 93625",197587967,"L"
8184,"1020 E BRADBURY AVE","INDIANAPOLIS","IN",46203,39.7346156460001,-86.1414954649999,184,"1020 E BRADBURY AVE, INDIANAPOLIS, IN, 46203","Match","Exact","1020 E BRADBURY AVE, INDIANAPOLIS, IN, 46203",107994061,"L"
8185,"1020 E CENTER ST","KINGSPORT","TN",37660,36.5431828330001,-82.549754921,185,"1020 E CENTER ST, KINGSPORT, TN, 37660","Match","Exact","1020 E CENTER ST, KINGSPORT, TN, 37660",615212482,"L"
8186,"1020 E COMMERCIAL AVE","ANACONDA","MT",59711,46.128055788,-112.939461144,186,"1020 E COMMERCIAL AVE, ANACONDA, MT, 59711","Match","Exact","1020 E COMMERCIAL AVE, ANACONDA, MT, 59711",152706010,"R"
8187,"1020 E PALMER ST","INDIANAPOLIS","IN",46203,39.7462731190001,-86.141575697,187,"1020 E PALMER ST, INDIANAPOLIS, IN, 46203","Match","Exact","1020 PALMER ST, INDIANAPOLIS, IN, 46203",107993835,"L"
8188,"1020 E SAGINAW ST","LANSING","MI",48906,42.7408994640001,-84.53703239,188,"1020 E SAGINAW ST, LANSING, MI, 48906","Match","Exact","1020 E SAGINAW ST, LANSING, MI, 48906",633511462,"R"
8189,"1020 EAST RAY ROAD  7","CHANDLER","AZ",85225,33.3207506540001,-111.823460294,189,"1020 EAST RAY ROAD  7, CHANDLER, AZ, 85225","Match","Exact","1020 E RAY RD, CHANDLER, AZ, 85225",128786584,"L"
8190,"1020 EAST RIVER DRIVE","DEFIANCE","OH",43512,41.2898274840001,-84.34735144,190,"1020 EAST RIVER DRIVE, DEFIANCE, OH, 43512","Match","Exact","1020 E RIVER DR, DEFIANCE, OH, 43512",207559177,"L"
8191,"1020 EAST SQUARE LAKE ROAD","BLOOMFIELD HILLS","MI",48304,42.604438342,-83.2266022439999,191,"1020 EAST SQUARE LAKE ROAD, BLOOMFIELD HILLS, MI, 48304","Match","Exact","1020 E SQUARE LAKE RD, BLOOMFIELD HILLS, MI, 48304",69709662,"R"
8192,"1020 EL SUR AVE","ARCADIA","CA",91006,34.1262964470001,-118.011973826,192,"1020 EL SUR AVE, ARCADIA, CA, 91006","Match","Non_Exact","1020 EL SUR ST, ARCADIA, CA, 91006",141646503,"R"
8193,"1020 EPHESUS SCHOOL ROAD","WAYNESBURG","KY",40489,37.392489772,-84.572777969,193,"1020 EPHESUS SCHOOL ROAD, WAYNESBURG, KY, 40489","Match","Exact","1020 EPHESUS SCHOOL RD, WAYNESBURG, KY, 40489",651259072,"R"
8194,"1020 ETHELDORE STREET","MOSS BEACH","CA",94038,37.525463222,-122.509058815,194,"1020 ETHELDORE STREET, MOSS BEACH, CA, 94038","Match","Exact","1020 ETHELDORE ST, MOSS BEACH, CA, 94038",192370600,"R"
8195,"1020 FARMINGTON ROAD","MADISON","GA",30650,33.6173078670001,-83.3239740449999,195,"1020 FARMINGTON ROAD, MADISON, GA, 30650","Match","Exact","1020 FARMINGTON RD, MADISON, GA, 30650",16623585,"L"
8196,"1020 FILLMORE STREET APT 305","SAN FRANCISCO","CA",94115,37.7788676440001,-122.431802621,196,"1020 FILLMORE STREET APT 305, SAN FRANCISCO, CA, 94115","Match","Exact","1020 FILLMORE ST, SAN FRANCISCO, CA, 94115",192283682,"R"
8197,"1020 FRONT ST","SACRAMENTO","CA",95814,38.580937272,-121.506745395,197,"1020 FRONT ST, SACRAMENTO, CA, 95814","Match","Exact","1020 FRONT ST, SACRAMENTO, CA, 95814",133366192,"R"
8198,"1020 FRONT STREET","EVANSTON","WY",82930,41.269118409,-110.966224192,198,"1020 FRONT STREET, EVANSTON, WY, 82930","Match","Exact","1020 FRONT ST, EVANSTON, WY, 82930",160259866,"R"
8199,"1020 GLENHURST WAY","CLARKSVILLE","TN",37040,36.621758594,-87.311664471,199,"1020 GLENHURST WAY, CLARKSVILLE, TN, 37040","Match","Exact","1020 GLENHURST WAY, CLARKSVILLE, TN, 37040",634965568,"L"
8200,"1020 GOWDY AVENUE","POINT PLEASANT BEACH","NJ",8742,40.085415389,-74.05375853,200,"1020 GOWDY AVENUE, POINT PLEASANT BEACH, NJ, 8742","Match","Exact","1020 GOWDY AVE, PT PLEASANT BEACH, NJ, 08742",203735660,"L"
8201,"1020 GRAND AVE","LARAMIE","WY",82070,41.310452737,-105.584108385,201,"1020 GRAND AVE, LARAMIE, WY, 82070","Match","Non_Exact","1020 E GRAND AVE, LARAMIE, WY, 82070",168740250,"L"
8202,"1020 GRAND CONCOURSE    SUITE 15-X","BRONX","NY",10451,40.830258906,-73.920676516,202,"1020 GRAND CONCOURSE    SUITE 15-X, BRONX, NY, 10451","Match","Exact","1020 GRAND CONCOURSE, BRONX, NY, 10451",640809824,"R"
8203,"1020 GRAND CONCOURSE   17F","BRONX","NY",10451,40.830258906,-73.920676516,203,"1020 GRAND CONCOURSE   17F, BRONX, NY, 10451","Match","Exact","1020 GRAND CONCOURSE, BRONX, NY, 10451",640809824,"R"
8204,"1020 GRAND CONCOURSE  STE 22U","BRONX","NY",10451,40.830258906,-73.920676516,204,"1020 GRAND CONCOURSE  STE 22U, BRONX, NY, 10451","Match","Exact","1020 GRAND CONCOURSE, BRONX, NY, 10451",640809824,"R"
8205,"1020 GRAND CONCOURSE 17F","BRONX","NY",10451,40.830258906,-73.920676516,205,"1020 GRAND CONCOURSE 17F, BRONX, NY, 10451","Match","Exact","1020 GRAND CONCOURSE, BRONX, NY, 10451",640809824,"R"
8206,"1020 GRAND CONCOURSE APT 19P","BRONX","NY",10451,40.830258906,-73.920676516,206,"1020 GRAND CONCOURSE APT 19P, BRONX, NY, 10451","Match","Exact","1020 GRAND CONCOURSE, BRONX, NY, 10451",640809824,"R"
8207,"1020 GRANT STREET","BUFFALO","NY",14207,42.9400516850001,-78.8911227199999,207,"1020 GRANT STREET, BUFFALO, NY, 14207","Match","Exact","1020 GRANT ST, BUFFALO, NY, 14207",48288469,"L"
8208,"1020 HILLANDALE DR","FAIRFIELD","AL",35064,33.454067568,-86.937810311,208,"1020 HILLANDALE DR, FAIRFIELD, AL, 35064","Match","Exact","1020 HILLANDALE DR, FAIRFIELD, AL, 35064",81547688,"R"
8209,"1020 HUNTINGTON ROAD","KANSAS CITY","MO",64113,39.0191356940001,-94.5999737829999,209,"1020 HUNTINGTON ROAD, KANSAS CITY, MO, 64113","Match","Exact","1020 HUNTINGTON RD, KANSAS CITY, MO, 64113",91526414,"R"
8210,"1020 IVY WOODS DR","FOREST","VA",24551,37.3914810250001,-79.3261173559999,210,"1020 IVY WOODS DR, FOREST, VA, 24551","Match","Exact","1020 IVY WOODS DR, FOREST, VA, 24551",62649021,"L"
8211,"1020 JARDIN CT","BURLINGTON","NJ",8016,40.051274043,-74.876811978,211,"1020 JARDIN CT, BURLINGTON, NJ, 8016","Match","Exact","1020 JARDIN CT, BURLINGTON, NJ, 08016",617125631,"R"
8212,"1020 KENTUCKY AVE","LAKELAND","FL",33805,28.0552376690001,-81.955307421,212,"1020 KENTUCKY AVE, LAKELAND, FL, 33805","Match","Non_Exact","1020 N KENTUCKY AVE, LAKELAND, FL, 33805",104810375,"L"
8213,"1020 LAFAYETTE DR NE","ALBUQUERQUE","NM",87106,35.0924447690001,-106.60862844,213,"1020 LAFAYETTE DR NE, ALBUQUERQUE, NM, 87106","Match","Exact","1020 LAFAYETTE DR NE, ALBUQUERQUE, NM, 87106",206710145,"R"
8214,"1020 LEMANS RD","SAINT MARYS","PA",15857,41.406665327,-78.531550835,214,"1020 LEMANS RD, SAINT MARYS, PA, 15857","Match","Exact","1020 LEMANS RD, SAINT MARYS, PA, 15857",157853622,"L"
8215,"1020 LINCOLN STREET NW","MAPLE LAKDE","MN",55358,45.2389738740001,-94.018340751,215,"1020 LINCOLN STREET NW, MAPLE LAKDE, MN, 55358","Match","Non_Exact","1020 LINCOLN ST NW, MAPLE LAKE, MN, 55358",648841550,"R"
8216,"1020 LONGMEADOW LANE","WESTERN SPRINGS","IL",60558,41.789031659,-87.901198984,216,"1020 LONGMEADOW LANE, WESTERN SPRINGS, IL, 60558","Match","Exact","1020 LONGMEADOW LN, WESTERN SPRINGS, IL, 60558",111789500,"R"
8217,"1020 LYBARGER ST NE","OLYMPIA","WA",98506,47.0528616600001,-122.879964762,217,"1020 LYBARGER ST NE, OLYMPIA, WA, 98506","Match","Exact","1020 LYBARGER ST NE, OLYMPIA, WA, 98506",180946051,"R"
8218,"1020 MINNESOTA ST E","CANNON FALLS","MN",55009,44.5113274180001,-92.888181991,218,"1020 MINNESOTA ST E, CANNON FALLS, MN, 55009","Match","Exact","1020 MINNESOTA ST E, CANNON FALLS, MN, 55009",31565595,"L"
8219,"1020 N BLACKSTONE ST","JACKSON","MI",49202,42.261118315,-84.411912936,219,"1020 N BLACKSTONE ST, JACKSON, MI, 49202","Match","Exact","1020 N BLACKSTONE ST, JACKSON, MI, 49202",17616689,"L"
8220,"1020 N COLUMBIA AVE","EDINBURG","TX",78541,26.3156032150001,-98.1994114239999,220,"1020 N COLUMBIA AVE, EDINBURG, TX, 78541","Match","Non_Exact","1020 COLUMBIA DR, EDINBURG, TX, 78541",71552244,"R"
8221,"1020 N LOVEKIN BLVD UNIT 35","BLYTHE","CA",92225,33.627492745,-114.605868242,221,"1020 N LOVEKIN BLVD UNIT 35, BLYTHE, CA, 92225","Match","Non_Exact","1020 N LOVEKIN BLVD, BLYTHE, CA, 92225",647416041,"R"
8222,"1020 N M 30","GLADWIN","MI",48624,43.957906166,-84.366220921,222,"1020 N M 30, GLADWIN, MI, 48624","Match","Non_Exact","1020 STATE HWY 30, GLADWIN, MI, 48624",110423165,"R"
8223,"1020 N MAIN STREET","COLUMBIA","IL",62236,38.451304001,-90.209280865,223,"1020 N MAIN STREET, COLUMBIA, IL, 62236","Match","Exact","1020 N MAIN ST, COLUMBIA, IL, 62236",116434433,"R"
8224,"1020 N PARKER AVE","INDIANAPOLIS","IN",46201,39.7816504670001,-86.1137471869999,224,"1020 N PARKER AVE, INDIANAPOLIS, IN, 46201","Match","Exact","1020 N PARKER AVE, INDIANAPOLIS, IN, 46201",107998940,"L"
8225,"1020 N TAYLOR","ST LOUIS","MO",63113,NA,NA,225,"1020 N TAYLOR, ST LOUIS, MO, 63113","No_Match",NA,NA,NA,NA
8226,"1020 N TWYCKENHAM DR","SOUTH BEND","IN",46617,41.688775762,-86.225907851,226,"1020 N TWYCKENHAM DR, SOUTH BEND, IN, 46617","Match","Exact","1020 N TWYCKENHAM DR, SOUTH BEND, IN, 46617",8054816,"R"
8227,"1020 N WOOD STREET APT 2","CHICAGO","IL",60622,41.900232331,-87.672306727,227,"1020 N WOOD STREET APT 2, CHICAGO, IL, 60622","Match","Non_Exact","1020 N WOOD ST, CHICAGO, IL, 60622",605039418,"L"
8228,"1020 NE 117TH ST","SEATTLE","WA",98125,47.714011822,-122.317512287,228,"1020 NE 117TH ST, SEATTLE, WA, 98125","Match","Exact","1020 NE 117TH ST, SEATTLE, WA, 98125",186584410,"L"
8229,"1020 NE 16TH ST","OCALA","FL",34470,29.202736778,-82.1276268679999,229,"1020 NE 16TH ST, OCALA, FL, 34470","Match","Exact","1020 NE 16TH ST, OCALA, FL, 34470",647933644,"R"
8230,"1020 NE 176TH STREET","NORTH MIAMI BEACH","FL",33162,25.937085027,-80.179943705,230,"1020 NE 176TH STREET, NORTH MIAMI BEACH, FL, 33162","Match","Exact","1020 NE 176TH ST, N MIAMI BEACH, FL, 33162",116035408,"R"
8231,"1020 NE 68TH ST","VANCOUVER","WA",98665,45.671386662,-122.661585709,231,"1020 NE 68TH ST, VANCOUVER, WA, 98665","Match","Exact","1020 NE 68TH ST, VANCOUVER, WA, 98665",649874666,"L"
8232,"1020 NE BRISTOL DRIVE","LEES SUMMIT","MO",64086,38.9294123,-94.3270722679999,232,"1020 NE BRISTOL DRIVE, LEES SUMMIT, MO, 64086","Match","Exact","1020 NE BRISTOL DR, LEES SUMMIT, MO, 64086",91501738,"R"
8233,"1020 NEW HOLLAND AVENUE","LANCASTER","PA",17601,40.054288892,-76.286253656,233,"1020 NEW HOLLAND AVENUE, LANCASTER, PA, 17601","Match","Exact","1020 NEW HOLLAND AVE, LANCASTER, PA, 17601",179665770,"R"
8234,"1020 NORTH GLOSTER ST BOX 170","TUPELO","MS",38804,34.276962589,-88.715579038,234,"1020 NORTH GLOSTER ST BOX 170, TUPELO, MS, 38804","Match","Exact","1020 N GLOSTER ST, TUPELO, MS, 38804",611040358,"R"
8235,"1020 NORTH HIGHLAND ST UNIT 307","ARLINGTON","VA",22201,38.885145879,-77.0947060089999,235,"1020 NORTH HIGHLAND ST UNIT 307, ARLINGTON, VA, 22201","Match","Exact","1020 N HIGHLAND ST, ARLINGTON, VA, 22201",76470028,"L"
8236,"1020 NORTH KINGSHIGHWAY SUITE D","CAPE GIRARDEAU","MO",63701,37.320307745,-89.557320733,236,"1020 NORTH KINGSHIGHWAY SUITE D, CAPE GIRARDEAU, MO, 63701","Match","Non_Exact","1020 N KINGSHIGHWAY ST, CAPE GIRARDEAU, MO, 63701",647583211,"R"
8237,"1020 NORTH MAIN ST","COLUMBIA","IL",62236,38.4513007130001,-90.209274114,237,"1020 NORTH MAIN ST, COLUMBIA, IL, 62236","Match","Exact","1020 N MAIN ST, COLUMBIA, IL, 62236",116434433,"R"
8238,"1020 NORTH QUINCY STREET APT 1009","ARLINGTON","VA",22201,38.8834922560001,-77.107878167,238,"1020 NORTH QUINCY STREET APT 1009, ARLINGTON, VA, 22201","Match","Exact","1020 N QUINCY ST, ARLINGTON, VA, 22201",76474266,"L"
8239,"1020 NORTH RODNEY STREET","WILMINGTON","DE",19806,39.752117877,-75.563212557,239,"1020 NORTH RODNEY STREET, WILMINGTON, DE, 19806","Match","Exact","1020 N RODNEY ST, WILMINGTON, DE, 19806",187257084,"R"
8240,"1020 NW 22ND AVE","DELRAY BEACH","FL",33445,26.475543902,-80.0973573649999,240,"1020 NW 22ND AVE, DELRAY BEACH, FL, 33445","Match","Exact","1020 NW 22ND AVE, DELRAY BEACH, FL, 33445",115289598,"R"
8241,"1020 OH 222","BETHEL","OH",45106,38.84381933,-84.099592919,241,"1020 OH 222, BETHEL, OH, 45106","Match","Non_Exact","1020 STATE RTE 222, BETHEL, OH, 45106",613713655,"R"
8242,"1020 OLD DANIEL BOONE RD APT 0","RICHMOND","KY",40475,37.8447265790001,-84.318212338,242,"1020 OLD DANIEL BOONE RD APT 0, RICHMOND, KY, 40475","Match","Non_Exact","1020 OLD DANIEL BOONE RD, RICHMOND, KY, 40475",635748489,"L"
8243,"1020 OLD SPRINGFIELD PIKE","XENIA","OH",45385,39.7122857430001,-83.934364671,243,"1020 OLD SPRINGFIELD PIKE, XENIA, OH, 45385","Match","Exact","1020 OLD SPRINGFIELD PIKE, XENIA, OH, 45385",143379620,"L"
8244,"1020 PALM STREET","SAN LUIS OBISPO","CA",93401,35.2828867850001,-120.661755168,244,"1020 PALM STREET, SAN LUIS OBISPO, CA, 93401","Match","Exact","1020 PALM ST, SAN LUIS OBISPO, CA, 93401",109732111,"L"
8245,"1020 PAR VIEW CIRCLE","CEDAR HILL","TX",75104,32.5699341540001,-97.021562122,245,"1020 PAR VIEW CIRCLE, CEDAR HILL, TX, 75104","Match","Exact","1020 PAR VIEW CIR, CEDAR HILL, TX, 75104",103277712,"L"
8246,"1020 PARK DR 841","FLOSSMOOR","IL",60422,41.5437562500001,-87.679067432,246,"1020 PARK DR 841, FLOSSMOOR, IL, 60422","Match","Exact","1020 PARK DR, FLOSSMOOR, IL, 60422",111709816,"R"
8247,"1020 PARK DRIVE SUITE 690","FLOSSMOOR","IL",60422,41.5437562500001,-87.679067432,247,"1020 PARK DRIVE SUITE 690, FLOSSMOOR, IL, 60422","Match","Exact","1020 PARK DR, FLOSSMOOR, IL, 60422",111709816,"R"
8248,"1020 PARK DRIVE","FLOSSMOOR","IL",60422,41.5437562500001,-87.679067432,248,"1020 PARK DRIVE, FLOSSMOOR, IL, 60422","Match","Exact","1020 PARK DR, FLOSSMOOR, IL, 60422",111709816,"R"
8249,"1020 PLAIN STREET STE 110","MARSHFIELD","MA",2050,42.1070931240001,-70.759404737,249,"1020 PLAIN STREET STE 110, MARSHFIELD, MA, 2050","Match","Exact","1020 PLAIN ST, MARSHFIELD, MA, 02050",619847071,"L"
8250,"1020 POPLAR STREET","EAST POINT","GA",30344,33.67373661,-84.4226129049999,250,"1020 POPLAR STREET, EAST POINT, GA, 30344","Match","Non_Exact","1020 POPLAR ST SW, EAST POINT, GA, 30344",17349270,"L"
8251,"1020 PROGRESS ST APT M606","PITTSBURGH","PA",15212,40.454613201,-79.990935824,251,"1020 PROGRESS ST APT M606, PITTSBURGH, PA, 15212","Match","Exact","1020 PROGRESS ST, PITTSBURGH, PA, 15212",51708428,"L"
8252,"1020 PROSPECT STREET     SUITE 311","LA JOLLA","CA",92037,32.8475568330001,-117.274628332,252,"1020 PROSPECT STREET     SUITE 311, LA JOLLA, CA, 92037","Match","Exact","1020 PROSPECT ST, LA JOLLA, CA, 92037",195298455,"L"
8253,"1020 RN WHITFIELD STREET","FLORENCE","MS",39073,32.148093798,-90.1367860409999,253,"1020 RN WHITFIELD STREET, FLORENCE, MS, 39073","Match","Non_Exact","1020 R N WHITFIELD ST, FLORENCE, MS, 39073",116905733,"R"
8254,"1020 ROOSEVELT AVE","SAN ANTONIO","TX",78210,29.394091089,-98.4860215529999,254,"1020 ROOSEVELT AVE, SAN ANTONIO, TX, 78210","Match","Exact","1020 ROOSEVELT AVE, SAN ANTONIO, TX, 78210",101709591,"L"
8255,"1020 ROSEWALD STREET","BURLINGTON","NC",27217,NA,NA,255,"1020 ROSEWALD STREET, BURLINGTON, NC, 27217","No_Match",NA,NA,NA,NA
8256,"1020 S WILLIAMS ST APT C11","WESTMONT","IL",60559,41.7763398110001,-87.984355594,256,"1020 S WILLIAMS ST APT C11, WESTMONT, IL, 60559","Match","Non_Exact","1020 S WILLIAMS ST, WESTMONT, IL, 60559",639891826,"R"
8257,"1020 S ZENO WAY","AURORA","CO",80017,39.6989788440001,-104.773067473,257,"1020 S ZENO WAY, AURORA, CO, 80017","Match","Exact","1020 S ZENO WAY, AURORA, CO, 80017",177372084,"R"
8258,"1020 SCOTLAND DR","DESOTO","TX",75115,32.642340131,-96.8819163749999,258,"1020 SCOTLAND DR, DESOTO, TX, 75115","Match","Exact","1020 SCOTLAND DR, DESOTO, TX, 75115",649827733,"R"
8259,"1020 SCOTLAND DRIVE APT 1505","DESOTO","TX",75115,32.642340131,-96.8819163749999,259,"1020 SCOTLAND DRIVE APT 1505, DESOTO, TX, 75115","Match","Exact","1020 SCOTLAND DR, DESOTO, TX, 75115",649827733,"R"
8260,"1020 SE MARKET ST","PORTLAND","OR",97214,45.5107826390001,-122.655459255,260,"1020 SE MARKET ST, PORTLAND, OR, 97214","Match","Exact","1020 SE MARKET ST, PORTLAND, OR, 97214",157508352,"R"
8261,"1020 SHERI LANE","CARLISLE","OH",45005,39.566445598,-84.3355467219999,261,"1020 SHERI LANE, CARLISLE, OH, 45005","Match","Exact","1020 SHERI LN, CARLISLE, OH, 45005",159017248,"L"
8262,"1020 SHILOH CROSSING BLVD STE 3","BILLINGS","MT",59102,45.7512392530001,-108.615755309,262,"1020 SHILOH CROSSING BLVD STE 3, BILLINGS, MT, 59102","Match","Exact","1020 SHILOH CROSSING BLVD, BILLINGS, MT, 59102",642187473,"L"
8263,"1020 SNOWY ROCK RIDGE DR","SHOW LOW","AZ",85901,34.289547677,-110.178208776,263,"1020 SNOWY ROCK RIDGE DR, SHOW LOW, AZ, 85901","Match","Exact","1020 SNOWY ROCK RIDGE DR, SHOW LOW, AZ, 85901",172634590,"R"
8264,"1020 SOUTH 4TH STREET","ATCHISON","KS",66002,39.5510346610001,-95.117802019,264,"1020 SOUTH 4TH STREET, ATCHISON, KS, 66002","Match","Exact","1020 S 4TH ST, ATCHISON, KS, 66002",10062782,"R"
8265,"1020 SOUTH 57TH STREET","WEST ALLIS","WI",53214,43.020675802,-87.984209833,265,"1020 SOUTH 57TH STREET, WEST ALLIS, WI, 53214","Match","Exact","1020 S 57TH ST, WEST ALLIS, WI, 53214",77734378,"L"
8266,"1020 SOUTH BETHANY ROAD","MCDONOUGH","GA",30252,33.4017136960001,-84.091388271,266,"1020 SOUTH BETHANY ROAD, MCDONOUGH, GA, 30252","Match","Exact","1020 S BETHANY RD, MCDONOUGH, GA, 30252",652436116,"L"
8267,"1020 SOUTH GARNETT","TULSA","OK",74128,36.149171645,-95.851180619,267,"1020 SOUTH GARNETT, TULSA, OK, 74128","Match","Non_Exact","1020 S GARNETT RD, TULSA, OK, 74128",166448945,"R"
8268,"1020 SOUTH SAPPINGTON RD","CRESTWOOD","MO",63126,NA,NA,268,"1020 SOUTH SAPPINGTON RD, CRESTWOOD, MO, 63126","No_Match",NA,NA,NA,NA
8269,"1020 SOUTH SAPPINGTON RD","SAINT LOUIS","MO",63126,38.5637114310001,-90.384300487,269,"1020 SOUTH SAPPINGTON RD, SAINT LOUIS, MO, 63126","Match","Non_Exact","1020 SAPPINGTON RD, SAINT LOUIS, MO, 63126",100193996,"L"
8270,"1020 SOUTH SCENIC HIGHWAY","LAKE WALES","FL",33853,27.8844520320001,-81.581344813,270,"1020 SOUTH SCENIC HIGHWAY, LAKE WALES, FL, 33853","Match","Exact","1020 S SCENIC HWY, LAKE WALES, FL, 33853",104832301,"R"
8271,"1020 SOUTH WASHINGTON STREET","OWOSSO","MI",48867,42.987610669,-84.1708210049999,271,"1020 SOUTH WASHINGTON STREET, OWOSSO, MI, 48867","Match","Exact","1020 S WASHINGTON ST, OWOSSO, MI, 48867",23648877,"L"
8272,"1020 STURBRIDGE DRIVE","MEDINA","OH",44256,41.120383992,-81.841731528,272,"1020 STURBRIDGE DRIVE, MEDINA, OH, 44256","Match","Exact","1020 STURBRIDGE DR, MEDINA, OH, 44256",58684762,"R"
8273,"1020 SUNSET DR","BOUNTIFUL","UT",84010,40.8784805700001,-111.859330285,273,"1020 SUNSET DR, BOUNTIFUL, UT, 84010","Match","Exact","1020 SUNSET DR, BOUNTIFUL, UT, 84010",229353688,"R"
8274,"1020 SUNSET DRIVE","CLARKSVILLE","TN",37040,36.5120863990001,-87.358195715,274,"1020 SUNSET DRIVE, CLARKSVILLE, TN, 37040","Match","Exact","1020 SUNSET DR, CLARKSVILLE, TN, 37040",624752538,"R"
8275,"1020 SW 10 AVE","MIAMI","FL",33130,25.76371821,-80.211366551,275,"1020 SW 10 AVE, MIAMI, FL, 33130","Match","Exact","1020 SW 10TH AVE, MIAMI, FL, 33130",116017035,"R"
8276,"1020 SW 130TH","OKLAHOMA CITY","OK",73170,35.338265891,-97.533312817,276,"1020 SW 130TH, OKLAHOMA CITY, OK, 73170","Match","Non_Exact","1020 SW 130TH ST, OKLAHOMA CITY, OK, 73170",99947143,"L"
8277,"1020 SWALLOW DRIVE","CHERRY HILL","NJ",8003,39.87515102,-74.979008485,277,"1020 SWALLOW DRIVE, CHERRY HILL, NJ, 8003","Match","Exact","1020 SWALLOW DR, CHERRY HILL, NJ, 08003",134359091,"L"
8278,"1020 THIRD AVENUE SW","CARMEL","IN",46032,39.964993415,-86.131117092,278,"1020 THIRD AVENUE SW, CARMEL, IN, 46032","Match","Exact","1020 3RD AVE SW, CARMEL, IN, 46032",29329360,"L"
8279,"1020 TRAVITINE TRAIL","LOGANVILLE","GA",30052,33.75483454,-83.877851175,279,"1020 TRAVITINE TRAIL, LOGANVILLE, GA, 30052","Match","Exact","1020 TRAVITINE TRL, LOGANVILLE, GA, 30052",618463748,"R"
8280,"1020 UPNOR ROAD","BALTIMORE","MD",21212,39.35740989,-76.599218459,280,"1020 UPNOR ROAD, BALTIMORE, MD, 21212","Match","Exact","1020 UPNOR RD, BALTIMORE, MD, 21212",206447281,"L"
8281,"1020 VENETIAN CT","CARY","NC",27518,35.7234025340001,-78.797499579,281,"1020 VENETIAN CT, CARY, NC, 27518","Match","Exact","1020 VENETIAN CT, CARY, NC, 27518",612821600,"R"
8282,"1020 VETERANS MEMORIAL DR","CARLISLE","IA",50047,41.482462277,-93.4971272289999,282,"1020 VETERANS MEMORIAL DR, CARLISLE, IA, 50047","Match","Exact","1020 VETERANS MEMORIAL DR, CARLISLE, IA, 50047",627103779,"L"
8283,"1020 VINCENNES STREET","NEW ALBANY","IN",47150,38.298082514,-85.811894823,283,"1020 VINCENNES STREET, NEW ALBANY, IN, 47150","Match","Exact","1020 VINCENNES ST, NEW ALBANY, IN, 47150",89545598,"R"
8284,"1020 W GATE CITY BLVD","GREENSBORO","NC",27403,NA,NA,284,"1020 W GATE CITY BLVD, GREENSBORO, NC, 27403","No_Match",NA,NA,NA,NA
8285,"1020 W GREENWAY DR","TEMPE","AZ",85282,33.3833078970001,-111.953174163,285,"1020 W GREENWAY DR, TEMPE, AZ, 85282","Match","Exact","1020 W GREENWAY DR, TEMPE, AZ, 85282",128226851,"R"
8286,"1020 W LAWRENCE AVE APT 508","CHICAGO","IL",60640,41.9690801730001,-87.6559888479999,286,"1020 W LAWRENCE AVE APT 508, CHICAGO, IL, 60640","Match","Non_Exact","1020 W LAWRENCE AVE, CHICAGO, IL, 60640",605185737,"R"
8287,"1020 W LAWRENCE AVE UNIT 501","CHICAGO","IL",60640,41.9690801730001,-87.6559888479999,287,"1020 W LAWRENCE AVE UNIT 501, CHICAGO, IL, 60640","Match","Non_Exact","1020 W LAWRENCE AVE, CHICAGO, IL, 60640",605185737,"R"
8288,"1020 W LOOP N FWY FRONTAGE RD 280","HOUSTON","TX",77055,NA,NA,288,"1020 W LOOP N FWY FRONTAGE RD 280, HOUSTON, TX, 77055","No_Match",NA,NA,NA,NA
8289,"1020 W MCDOWELL RD","JACKSON","MS",39204,32.2684937660001,-90.2344534429999,289,"1020 W MCDOWELL RD, JACKSON, MS, 39204","Match","Exact","1020 W MCDOWELL RD, JACKSON, MS, 39204",65367506,"R"
8290,"1020 W MEDICINE LAKE DR UNIT 332","PLYMOUTH","MN",55441,44.989250172,-93.423903976,290,"1020 W MEDICINE LAKE DR UNIT 332, PLYMOUTH, MN, 55441","Match","Non_Exact","1020 W MEDICINE LAKE DR, PLYMOUTH, MN, 55441",640284412,"R"
8291,"1020 WAHLER PL SE","WASHINGTON","DC",20032,38.834891155,-76.989809748,291,"1020 WAHLER PL SE, WASHINGTON, DC, 20032","Match","Exact","1020 WAHLER PL SE, WASHINGTON, DC, 20032",634521701,"L"
8292,"1020 WALDEN LANE","LAKE FOREST","IL",60045,42.2333939310001,-87.823115518,292,"1020 WALDEN LANE, LAKE FOREST, IL, 60045","Match","Exact","1020 WALDEN LN, LAKE FOREST, IL, 60045",119647811,"L"
8293,"1020 WASHINGTON AVENUE","EAST POINT","GA",30344,33.6760452940001,-84.422583405,293,"1020 WASHINGTON AVENUE, EAST POINT, GA, 30344","Match","Exact","1020 WASHINGTON AVE, EAST POINT, GA, 30344",17349268,"L"
8294,"1020 WASHINGTON ROAD","RYE","NH",3870,43.0009569150001,-70.7967618929999,294,"1020 WASHINGTON ROAD, RYE, NH, 3870","Match","Exact","1020 WASHINGTON RD, RYE, NH, 03870",113667732,"L"
8295,"1020 WEDGEWOOD RD","BETHLEHEM","PA",18017,40.653807751,-75.3958819009999,295,"1020 WEDGEWOOD RD, BETHLEHEM, PA, 18017","Match","Exact","1020 WEDGEWOOD RD, BETHLEHEM, PA, 18017",136875689,"R"
8296,"1020 WEST ATHERTON DRIVE SUITE 220","TAYLORSVILLE","UT",84123,40.6707668600001,-111.919132322,296,"1020 WEST ATHERTON DRIVE SUITE 220, TAYLORSVILLE, UT, 84123","Match","Non_Exact","1020 ATHERTON DR, TAYLORSVILLE, UT, 84123",176110278,"R"
8297,"1020 WEST BRYN MAWR AVE SUITE 401","CHICAGO","IL",60660,41.9836953510001,-87.656386728,297,"1020 WEST BRYN MAWR AVE SUITE 401, CHICAGO, IL, 60660","Match","Exact","1020 W BRYN MAWR AVE, CHICAGO, IL, 60660",605185932,"R"
8298,"1020 WEST STREET","PANAMA CITY","FL",32404,30.1286901930001,-85.6078455099999,298,"1020 WEST STREET, PANAMA CITY, FL, 32404","Match","Exact","1020 WEST ST, PANAMA CITY, FL, 32404",7031660,"R"
8299,"1020 WHITLOW BLVD","SUMMERVILLE","SC",29483,33.004500056,-80.258809291,299,"1020 WHITLOW BLVD, SUMMERVILLE, SC, 29483","Match","Exact","1020 WHITLOW BLVD, SUMMERVILLE, SC, 29483",646638804,"L"
8300,"1020 WILDWOOD ST","WHITE HOUSE","TN",37188,36.4226660360001,-86.682072101,300,"1020 WILDWOOD ST, WHITE HOUSE, TN, 37188","Match","Exact","1020 WILDWOOD ST, WHITE HOUSE, TN, 37188",29774106,"R"
8301,"1020 WOODFIELD CIRCLE","PALM BEACH GARDENS","FL",33418,26.814125704,-80.121718417,301,"1020 WOODFIELD CIRCLE, PALM BEACH GARDENS, FL, 33418","Match","Exact","1020 WOODFIELD CIR, PALM BEACH GARDENS, FL, 33418",115548728,"R"
8302,"1020-30 MICHEL STREET","MILWAUKEE","WI",53204,NA,NA,302,"1020-30 MICHEL STREET, MILWAUKEE, WI, 53204","No_Match",NA,NA,NA,NA
8303,"1020","CHARLOTTESVILLE","VA",22901,NA,NA,303,"1020, CHARLOTTESVILLE, VA, 22901","No_Match",NA,NA,NA,NA
8304,"1020","FLOSSMOOR","IL",60443,NA,NA,304,"1020, FLOSSMOOR, IL, 60443","No_Match",NA,NA,NA,NA
8305,"10200 BELLE RIVE BLVD APT 23","JACKSONVILLE","FL",32256,30.209915214,-81.551954139,305,"10200 BELLE RIVE BLVD APT 23, JACKSONVILLE, FL, 32256","Match","Exact","10200 BELLE RIVE BV, JACKSONVILLE, FL, 32256",83973239,"L"
8306,"10200 BOLSA AVE SPC 64","WESTMINSTER","CA",92683,33.744959286,-117.951113199,306,"10200 BOLSA AVE SPC 64, WESTMINSTER, CA, 92683","Match","Exact","10200 BOLSA AVE, WESTMINSTER, CA, 92683",630985178,"R"
8307,"10200 CAVE AVE","BAKERSFIELD","CA",93312,35.3918457400001,-119.116016416,307,"10200 CAVE AVE, BAKERSFIELD, CA, 93312","Match","Exact","10200 CAVE AVE, BAKERSFIELD, CA, 93312",109132549,"R"
8308,"10200 CITY WALK DRIVE APT 341","WOODBURY","MN",55129,44.943743897,-92.899661506,308,"10200 CITY WALK DRIVE APT 341, WOODBURY, MN, 55129","Match","Exact","10200 CITY WALK DR, WOODBURY, MN, 55129",614153793,"L"
8309,"10200 DIXIE HWY","LOUISVILLE","KY",40272,38.1075101230001,-85.866808852,309,"10200 DIXIE HWY, LOUISVILLE, KY, 40272","Match","Exact","10200 DIXIE HWY, LOUISVILLE, KY, 40272",640120626,"R"
8310,"10200 DWELL COURT NUM 214","ORLANDO","FL",32832,28.381963254,-81.244276767,310,"10200 DWELL COURT NUM 214, ORLANDO, FL, 32832","Match","Exact","10200 DWELL CT, ORLANDO, FL, 32832",646615821,"R"
8311,"10200 E DRY CREEK RD UNIT 2-102","ENGLEWOOD","CO",80112,39.580787651,-104.87024913,311,"10200 E DRY CREEK RD UNIT 2-102, ENGLEWOOD, CO, 80112","Match","Non_Exact","10200 E DRY CREEK RD, ENGLEWOOD, CO, 80112",617958238,"R"
8312,"10200 E GIRARD AVE STE C204","DENVER","CO",80231,39.655735592,-104.869051442,312,"10200 E GIRARD AVE STE C204, DENVER, CO, 80231","Match","Non_Exact","10200 E GIRARD AVE, DENVER, CO, 80231",646605549,"R"
8313,"10200 E GIRARD AVE STE C370","DENVER","CO",80231,39.655735592,-104.869051442,313,"10200 E GIRARD AVE STE C370, DENVER, CO, 80231","Match","Non_Exact","10200 E GIRARD AVE, DENVER, CO, 80231",646605549,"R"
8314,"10200 FIRWOOD DRIVE","CUPERTINO","CA",95014,37.320063197,-122.074472897,314,"10200 FIRWOOD DRIVE, CUPERTINO, CA, 95014","Match","Exact","10200 FIRWOOD DR, CUPERTINO, CA, 95014",122936227,"L"
8315,"10200 HEMLOCK WAY","JONESBORO","GA",30238,33.4779631010001,-84.383392374,315,"10200 HEMLOCK WAY, JONESBORO, GA, 30238","Match","Exact","10200 HEMLOCK WAY, JONESBORO, GA, 30238",645216421,"L"
8316,"10200 HERTZFELD ROAD","WATERVILLE","OH",43566,NA,NA,316,"10200 HERTZFELD ROAD, WATERVILLE, OH, 43566","No_Match",NA,NA,NA,NA
8317,"10200 INDEPENDENCE PKWY 612","PLANO","TX",75025,33.116466303,-96.7507115349999,317,"10200 INDEPENDENCE PKWY 612, PLANO, TX, 75025","Match","Exact","10200 INDEPENDENCE PKWY, PLANO, TX, 75025",632071440,"L"
8318,"10200 INDEPENDENCE PKWY APT 701","PLANO","TX",75025,33.116466303,-96.7507115349999,318,"10200 INDEPENDENCE PKWY APT 701, PLANO, TX, 75025","Match","Exact","10200 INDEPENDENCE PKWY, PLANO, TX, 75025",632071440,"L"
8319,"10200 MEMPHIS AVE","BROOKLYN","OH",44144,41.4401702490001,-81.757620945,319,"10200 MEMPHIS AVE, BROOKLYN, OH, 44144","Match","Exact","10200 MEMPHIS AVE, BROOKLYN, OH, 44144",61105040,"R"
8320,"10200 MILLER AVE APT 401","CUPERTINO","CA",95014,NA,NA,320,"10200 MILLER AVE APT 401, CUPERTINO, CA, 95014","No_Match",NA,NA,NA,NA
8321,"10200 NORTH MCALISTER ROAD","ISLAND CITY","OR",97850,45.3399784910001,-118.045312909,321,"10200 NORTH MCALISTER ROAD, ISLAND CITY, OR, 97850","Match","Non_Exact","10200 S MCALISTER RD, ISLAND CITY, OR, 97850",138853722,"L"
8322,"10200 RAMSEY WAY","DICKSON","TN",37055,NA,NA,322,"10200 RAMSEY WAY, DICKSON, TN, 37055","No_Match",NA,NA,NA,NA
8323,"10200 S MCALISTER RD","ISLAND CITY","OR",97850,45.3399646460001,-118.045312909,323,"10200 S MCALISTER RD, ISLAND CITY, OR, 97850","Match","Exact","10200 S MCALISTER RD, ISLAND CITY, OR, 97850",138853722,"L"
8324,"10200 SLATER AVENUE","FOUNTAIN VALLEY","CA",92708,NA,NA,324,"10200 SLATER AVENUE, FOUNTAIN VALLEY, CA, 92708","No_Match",NA,NA,NA,NA
8325,"10200 SW 107TH AVE","MIAMI","FL",33176,25.6732126570001,-80.3677730109999,325,"10200 SW 107TH AVE, MIAMI, FL, 33176","Match","Exact","10200 SW 107TH AVE, MIAMI, FL, 33176",614007415,"R"
8326,"10200 SW 49TH AVE","OCALA","FL",34476,29.0747653650001,-82.202144203,326,"10200 SW 49TH AVE, OCALA, FL, 34476","Match","Exact","10200 SW 49TH AVE, OCALA, FL, 34476",116717924,"L"
8327,"10200 US HWY 290 W STE 301","AUSTIN","TX",78736,NA,NA,327,"10200 US HWY 290 W STE 301, AUSTIN, TX, 78736","No_Match",NA,NA,NA,NA
8328,"10200 W 100TH AVE","WESTMINSTER","CO",80021,39.8782020990001,-105.107547532,328,"10200 W 100TH AVE, WESTMINSTER, CO, 80021","Match","Exact","10200 W 100TH AVE, WESTMINSTER, CO, 80021",636173021,"L"
8329,"10200 W 44TH AVE STE 115","WHEAT RIDGE","CO",80033,39.77814756,-105.112184762,329,"10200 W 44TH AVE STE 115, WHEAT RIDGE, CO, 80033","Match","Non_Exact","10200 W 44TH AVE, WHEAT RIDGE, CO, 80033",177734205,"L"
8330,"10201 AQUA AZUL CT","AUSTIN","TX",78733,30.3353112930001,-97.8762344309999,330,"10201 AQUA AZUL CT, AUSTIN, TX, 78733","Match","Exact","10201 AQUA AZUL CT, AUSTIN, TX, 78733",63924819,"L"
8331,"10201 BALTIMORE AVENUE UNIT 5110","COLLEGE PARK","MD",20740,39.021044105,-76.925422117,331,"10201 BALTIMORE AVENUE UNIT 5110, COLLEGE PARK, MD, 20740","Match","Exact","10201 BALTIMORE AVE, COLLEGE PARK, MD, 20740",613197640,"R"
8332,"10201 BARCELONA RD P O BOX 518","UNIONTOWN","AR",72955,35.5886568980001,-94.4440347569999,332,"10201 BARCELONA RD P O BOX 518, UNIONTOWN, AR, 72955","Match","Exact","10201 BARCELONA RD, UNIONTOWN, AR, 72955",53494848,"L"
8333,"10201 BUFFALO RIDGE ROAD","EDMOND","OK",73025,NA,NA,333,"10201 BUFFALO RIDGE ROAD, EDMOND, OK, 73025","No_Match",NA,NA,NA,NA
8334,"10201 BUFFALO SPEEDWAY APT 5212","HOUSTON","TX",77054,29.6719170590001,-95.4247793659999,334,"10201 BUFFALO SPEEDWAY APT 5212, HOUSTON, TX, 77054","Match","Exact","10201 BUFFALO SPEEDWAY, HOUSTON, TX, 77054",649105313,"R"
8335,"10201 EXPLORER COURT","TAMPA","FL",33615,28.0167959130001,-82.5982668779999,335,"10201 EXPLORER COURT, TAMPA, FL, 33615","Match","Exact","10201 EXPLORER CT, TAMPA, FL, 33615",104602170,"L"
8336,"10201 FALCON PINE BLVD APT 108","ORLANDO","FL",32829,28.50033518,-81.238123324,336,"10201 FALCON PINE BLVD APT 108, ORLANDO, FL, 32829","Match","Non_Exact","10201 FALCON PINE DR, ORLANDO, FL, 32829",640904062,"L"
8337,"10201 FLATLAND AVENUE UNIT 360572","BROOKLYN","NY",11236,NA,NA,337,"10201 FLATLAND AVENUE UNIT 360572, BROOKLYN, NY, 11236","No_Match",NA,NA,NA,NA
8338,"10201 GREEN CLOVER DRIVE","ELLIOTT CITY","MD",21042,39.308993226,-76.865561296,338,"10201 GREEN CLOVER DRIVE, ELLIOTT CITY, MD, 21042","Match","Non_Exact","10201 GREEN CLOVER DR, ELLICOTT CITY, MD, 21042",158922241,"L"
8339,"10201 GROSVENOR PL APT 1010","ROCKVILLE","MD",20852,39.0238017610001,-77.106291117,339,"10201 GROSVENOR PL APT 1010, ROCKVILLE, MD, 20852","Match","Exact","10201 GROSVENOR PL, ROCKVILLE, MD, 20852",650130901,"L"
8340,"10201 GROSVENOR PLACE  APT 420","ROCKVILLE","MD",20852,39.0238017610001,-77.106291117,340,"10201 GROSVENOR PLACE  APT 420, ROCKVILLE, MD, 20852","Match","Exact","10201 GROSVENOR PL, ROCKVILLE, MD, 20852",650130901,"L"
8341,"10201 GROSVENOR PLACE APT 1221","ROCKVILLE","MD",20852,39.0238017610001,-77.106291117,341,"10201 GROSVENOR PLACE APT 1221, ROCKVILLE, MD, 20852","Match","Exact","10201 GROSVENOR PL, ROCKVILLE, MD, 20852",650130901,"L"
8342,"10201 GROSVENOR PLACE SUITE 507","ROCKVILLE","MD",20852,39.0238017610001,-77.106291117,342,"10201 GROSVENOR PLACE SUITE 507, ROCKVILLE, MD, 20852","Match","Exact","10201 GROSVENOR PL, ROCKVILLE, MD, 20852",650130901,"L"
8343,"10201 LINDLEY AVE APT 198","NORTHRIDGE","CA",91325,34.2550445680001,-118.527425193,343,"10201 LINDLEY AVE APT 198, NORTHRIDGE, CA, 91325","Match","Exact","10201 LINDLEY AVE, NORTHRIDGE, CA, 91325",141542283,"L"
8344,"10201 LINDLEY AVE NUM 151","NORTHRIDGE","CA",91325,34.2550445680001,-118.527425193,344,"10201 LINDLEY AVE NUM 151, NORTHRIDGE, CA, 91325","Match","Exact","10201 LINDLEY AVE, NORTHRIDGE, CA, 91325",141542283,"L"
8345,"10201 MARTIN LUTHER KING JR HWY 220","BOWIE","MD",20720,NA,NA,345,"10201 MARTIN LUTHER KING JR HWY 220, BOWIE, MD, 20720","No_Match",NA,NA,NA,NA
8346,"10201 MAVERICK DRIVE","FORT WORTH","TX",76108,32.750181535,-97.5044863859999,346,"10201 MAVERICK DRIVE, FORT WORTH, TX, 76108","Match","Exact","10201 MAVERICK DR, FORT WORTH, TX, 76108",102120353,"L"
8347,"10201 MCINTYRE ROAD","OWENSBORO","KY",42301,37.6893234200001,-87.3522270559999,347,"10201 MCINTYRE ROAD, OWENSBORO, KY, 42301","Match","Exact","10201 MCINTYRE RD, OWENSBORO, KY, 42301",37556255,"L"
8348,"10201 MEREDITH AVENUE","SILVER SPRING","MD",20910,39.021306307,-77.064905137,348,"10201 MEREDITH AVENUE, SILVER SPRING, MD, 20910","Match","Exact","10201 MEREDITH AVE, SILVER SPRING, MD, 20910",62062723,"R"
8349,"10201 N 99TH AVE - 7C","PEORIA","AZ",85345,33.577389162,-112.272480854,349,"10201 N 99TH AVE - 7C, PEORIA, AZ, 85345","Match","Non_Exact","10201 N 99TH AVE, PEORIA, AZ, 85345",128405885,"R"
8350,"10201 OLIVEWOOD WAY 158","ESTERO","FL",33928,26.441250552,-81.785886273,350,"10201 OLIVEWOOD WAY 158, ESTERO, FL, 33928","Match","Exact","10201 OLIVEWOOD WAY, ESTERO, FL, 33928",641068110,"R"
8351,"10201 S HOPI LN","GOODYEAR","AZ",85338,33.353470574,-112.437228188,351,"10201 S HOPI LN, GOODYEAR, AZ, 85338","Match","Exact","10201 HOPI LN, GOODYEAR, AZ, 85338",128390268,"L"
8352,"10201 S PRAIRIE AVE","INGLEWOOD","CA",90303,33.9435630410001,-118.343898176,352,"10201 S PRAIRIE AVE, INGLEWOOD, CA, 90303","Match","Exact","10201 S PRAIRIE AVE, INGLEWOOD, CA, 90303",141656862,"R"
8353,"10201 SOUTH 51ST ST SUITE 240","PHOENIX","AZ",85044,33.3543506280001,-111.972685368,353,"10201 SOUTH 51ST ST SUITE 240, PHOENIX, AZ, 85044","Match","Exact","10201 S 51ST ST, PHOENIX, AZ, 85044",128811462,"R"
8354,"10201 SOUTH INDIANA AVENUE","CHICAGO","IL",60628,41.708952201,-87.618674325,354,"10201 SOUTH INDIANA AVENUE, CHICAGO, IL, 60628","Match","Exact","10201 S INDIANA AVE, CHICAGO, IL, 60628",605524927,"L"
8355,"10201 SOUTH PEEBLY ROAD","NEWALLA","OK",74857,35.3659451950001,-97.212832941,355,"10201 SOUTH PEEBLY ROAD, NEWALLA, OK, 74857","Match","Exact","10201 S PEEBLY RD, NEWALLA, OK, 74857",99932561,"L"
8356,"10201 SPRING CYPRESS RD","HOUSTON","TX",77070,NA,NA,356,"10201 SPRING CYPRESS RD, HOUSTON, TX, 77070","No_Match",NA,NA,NA,NA
8357,"10201 SPRINGMERE DRIVE UNIT 302","LOUISVILLE","KY",40242,38.3003998980001,-85.5602292419999,357,"10201 SPRINGMERE DRIVE UNIT 302, LOUISVILLE, KY, 40242","Match","Non_Exact","10201 SPRINGMERE DR, LOUISVILLE, KY, 40241",96976391,"R"
8358,"10201 STAR LANDING RD","LK CORMORANT","MS",38641,34.90422476,-90.170280124,358,"10201 STAR LANDING RD, LK CORMORANT, MS, 38641","Match","Exact","10201 STAR LANDING RD, LAKE CORMORANT, MS, 38641",641081686,"L"
8359,"10201 STAR LANDING RD","WALLS","MS",38680,NA,NA,359,"10201 STAR LANDING RD, WALLS, MS, 38680","No_Match",NA,NA,NA,NA
8360,"10201 UNIVERSITY AVE  SUITE A15-101","CLIVE","IA",50325,41.6004376380001,-93.758067511,360,"10201 UNIVERSITY AVE  SUITE A15-101, CLIVE, IA, 50325","Match","Exact","10201 UNIVERSITY AVE, CLIVE, IA, 50325",65774856,"R"
8361,"10201 W 89TH TERRACE","OVERLAND PARK","KS",66212,38.966720717,-94.703892513,361,"10201 W 89TH TERRACE, OVERLAND PARK, KS, 66212","Match","Exact","10201 W 89TH TER, OVERLAND PARK, KS, 66212",91275097,"L"
8362,"10201 W LINCOLN AVE SUITE 107","WEST ALLIS","WI",53227,43.002591017,-88.038940781,362,"10201 W LINCOLN AVE SUITE 107, WEST ALLIS, WI, 53227","Match","Non_Exact","10201 W LINCOLN AVE, WEST ALLIS, WI, 53227",77745341,"L"
8363,"10201","FRANKLIN PARK","IL",60131,NA,NA,363,"10201, FRANKLIN PARK, IL, 60131","No_Match",NA,NA,NA,NA
8364,"10202 34TH AVE E","TACOMA","WA",98446,47.1642999800001,-122.383730032,364,"10202 34TH AVE E, TACOMA, WA, 98446","Match","Exact","10202 34TH AVE E, TACOMA, WA, 98446",184657527,"L"
8365,"10202 TIMBERWOOD CIRCLE","LOUISVILLE","KY",40223,38.229618648,-85.566212278,365,"10202 TIMBERWOOD CIRCLE, LOUISVILLE, KY, 40223","Match","Exact","10202 TIMBERWOOD CIR, LOUISVILLE, KY, 40223",96864700,"R"
8366,"10202","ZEPHYR COVE","NV",89448,NA,NA,366,"10202, ZEPHYR COVE, NV, 89448","No_Match",NA,NA,NA,NA
8367,"10203 GREENFIELD PARK ROAD","LOUISVILLE","KY",40258,38.130161613,-85.877543051,367,"10203 GREENFIELD PARK ROAD, LOUISVILLE, KY, 40258","Match","Exact","10203 GREENFIELD PARK RD, LOUISVILLE, KY, 40258",96889724,"R"
8368,"10203 SPICEWOOD MESA","AUSTIN","TX",78759,30.4195564790001,-97.789341205,368,"10203 SPICEWOOD MESA, AUSTIN, TX, 78759","Match","Exact","10203 SPICEWOOD MESA, AUSTIN, TX, 78759",64008464,"R"
8369,"10203 W MELVINA STREET","WAUWATOSA","WI",53222,43.087725312,-88.04054805,369,"10203 W MELVINA STREET, WAUWATOSA, WI, 53222","Match","Exact","10203 W MELVINA ST, WAUWATOSA, WI, 53222",77727321,"L"
8370,"10203 WELLHOUSE CT","JACKSONVILLE","FL",32220,30.3291902010001,-81.835081066,370,"10203 WELLHOUSE CT, JACKSONVILLE, FL, 32220","Match","Exact","10203 WELLHOUSE CT, JACKSONVILLE, FL, 32220",83949255,"L"
8371,"10204 BEVANS LANE","MIDDLE RIVER","MD",21220,39.364126148,-76.415842336,371,"10204 BEVANS LANE, MIDDLE RIVER, MD, 21220","Match","Non_Exact","10204 BEVANS RD, MIDDLE RIVER, MD, 21220",648404717,"L"
8372,"10204 E ISLETA AVE","MESA","AZ",85209,33.385649163,-111.61094955,372,"10204 E ISLETA AVE, MESA, AZ, 85209","Match","Exact","10204 E ISLETA AVE, MESA, AZ, 85209",243959531,"L"
8373,"10204 PRINCE PLACE UNIT 308","UPPER MARLBORO","MD",20774,38.890316813,-76.8391272649999,373,"10204 PRINCE PLACE UNIT 308, UPPER MARLBORO, MD, 20774","Match","Exact","10204 PRINCE PL, UPPER MARLBORO, MD, 20774",76367288,"R"
8374,"10204 RIDGELINE DRIVE","MONTGOMERY VILLAGE","MD",20886,39.1747115250001,-77.206932507,374,"10204 RIDGELINE DRIVE, MONTGOMERY VILLAGE, MD, 20886","Match","Exact","10204 RIDGELINE DR, MONTGOMERY VILLAGE, MD, 20886",62050036,"R"
8375,"10204 S WILTON PL","LOS ANGELES","CA",90047,33.9438530580001,-118.314266531,375,"10204 S WILTON PL, LOS ANGELES, CA, 90047","Match","Exact","10204 S WILTON PL, LOS ANGELES, CA, 90047",141660552,"L"
8376,"10205 COURTNEY PALMS BLVD A104","TAMPA","FL",33619,27.9271700730001,-82.3475893299999,376,"10205 COURTNEY PALMS BLVD A104, TAMPA, FL, 33619","Match","Exact","10205 COURTNEY PALMS BLVD, TAMPA, FL, 33619",104666507,"L"
8377,"10205 DOGWOOD ST","FIRESTONE","CO",80504,40.1488952670001,-104.938522313,377,"10205 DOGWOOD ST, FIRESTONE, CO, 80504","Match","Exact","10205 DOGWOOD ST, FIRESTONE, CO, 80504",188752703,"R"
8378,"10205 E ELM LAKE DR","FORBES","ND",58439,45.908112617,-98.6847069139999,378,"10205 E ELM LAKE DR, FORBES, ND, 58439","Match","Exact","10205 E ELM LAKE DR, FORBES, ND, 58439",605397081,"R"
8379,"10205 JOLIET STREET","SAINT JOHN","IN",46373,41.4424585100001,-87.458721861,379,"10205 JOLIET STREET, SAINT JOHN, IN, 46373","Match","Exact","10205 JOLIET ST, SAINT JOHN, IN, 46373",647752805,"L"
8380,"10205 MADISON GROVE AVENUE","LAS VEGAS","NV",89166,36.2961167120001,-115.317217467,380,"10205 MADISON GROVE AVENUE, LAS VEGAS, NV, 89166","Match","Exact","10205 MADISON GROVE AVE, LAS VEGAS, NV, 89166",627162573,"R"
8381,"10205 NAPOLEAN STREET","FREDERICKSBURG","VA",22408,NA,NA,381,"10205 NAPOLEAN STREET, FREDERICKSBURG, VA, 22408","No_Match",NA,NA,NA,NA
8382,"10205 PINTAIL PLACE APT 103","CHARLOTTE","NC",28269,35.3400390090001,-80.771102484,382,"10205 PINTAIL PLACE APT 103, CHARLOTTE, NC, 28269","Match","Exact","10205 PINTAIL PL, CHARLOTTE, NC, 28269",619675297,"L"
8383,"10206 CRESTED IRIS DRIVE","MONTGOMERY VILLAGE","MD",20886,39.179723413,-77.211852203,383,"10206 CRESTED IRIS DRIVE, MONTGOMERY VILLAGE, MD, 20886","Match","Exact","10206 CRESTED IRIS DR, MONTGOMERY VILLAGE, MD, 20886",636221211,"L"
8384,"10206 GRETCHEN COURT","MANASSAS","VA",20110,38.7359742580001,-77.488282393,384,"10206 GRETCHEN COURT, MANASSAS, VA, 20110","Match","Exact","10206 GRETCHEN CT, MANASSAS, VA, 20110",76505283,"R"
8385,"10206 MOSSY ROCK CIRCLE","LOS ANGELES","CA",90077,34.121126304,-118.44322125,385,"10206 MOSSY ROCK CIRCLE, LOS ANGELES, CA, 90077","Match","Exact","10206 MOSSY ROCK CIR, LOS ANGELES, CA, 90077",640418321,"L"
8386,"10206 PRISM DRIVE","AUSTIN","TX",78726,30.434675091,-97.820992167,386,"10206 PRISM DRIVE, AUSTIN, TX, 78726","Match","Exact","10206 PRISM DR, AUSTIN, TX, 78726",63980415,"L"
8387,"10206 SOUTH DENKER AVENUE","LOS ANGELES","CA",90047,33.943963296,-118.304614867,387,"10206 SOUTH DENKER AVENUE, LOS ANGELES, CA, 90047","Match","Exact","10206 S DENKER AVE, LOS ANGELES, CA, 90047",141660812,"L"
8388,"10206 STATE ROUTE 249","BRYAN","OH",43506,41.383469109,-84.627589711,388,"10206 STATE ROUTE 249, BRYAN, OH, 43506","Match","Exact","10206 STATE RTE 249, BRYAN, OH, 43506",207559710,"R"
8389,"10206 TOSCANA DRIVE","BAKERSFIELD","CA",93306,35.4090824090001,-118.890666377,389,"10206 TOSCANA DRIVE, BAKERSFIELD, CA, 93306","Match","Exact","10206 TOSCANA DR, BAKERSFIELD, CA, 93306",616457897,"R"
8390,"10206 WALKERTON LANE","OAKTON","VA",22124,38.88320808,-77.296603476,390,"10206 WALKERTON LANE, OAKTON, VA, 22124","Match","Exact","10206 WALKERTON LN, OAKTON, VA, 22124",76025956,"R"
8391,"10206 ZENOBIA CIRCE","WESTMINSTER","CO",80031,39.881176317,-105.052369161,391,"10206 ZENOBIA CIRCE, WESTMINSTER, CO, 80031","Match","Non_Exact","10206 ZENOBIA CIR, WESTMINSTER, CO, 80031",177438428,"L"
8392,"10207 AVIGNON WAY","BAKERSFIELD","CA",93306,NA,NA,392,"10207 AVIGNON WAY, BAKERSFIELD, CA, 93306","No_Match",NA,NA,NA,NA
8393,"10207 BIGNONIA DRIVE","LAUREL","MD",20708,NA,NA,393,"10207 BIGNONIA DRIVE, LAUREL, MD, 20708","No_Match",NA,NA,NA,NA
8394,"10207 CAMDEN GARDEN LANE","KATY","TX",77494,NA,NA,394,"10207 CAMDEN GARDEN LANE, KATY, TX, 77494","No_Match",NA,NA,NA,NA
8395,"10207 COLLETT AVENUE","NORTH HILLS","CA",91343,34.255181319,-118.483699381,395,"10207 COLLETT AVENUE, NORTH HILLS, CA, 91343","Match","Exact","10207 COLLETT AVE, NORTH HILLS, CA, 91343",141543381,"L"
8396,"10207 KASHMERE LANE","ESCONDIDO","CA",92029,33.093836002,-117.113270099,396,"10207 KASHMERE LANE, ESCONDIDO, CA, 92029","Match","Exact","10207 KASHMERE LN, ESCONDIDO, CA, 92029",195311978,"L"
8397,"10207 LAND O LAKES BLVD","LAND O LAKES","FL",34638,NA,NA,397,"10207 LAND O LAKES BLVD, LAND O LAKES, FL, 34638","No_Match",NA,NA,NA,NA
8398,"10207 NAVARRE CT","HENRICO","VA",23238,37.595158901,-77.6022593989999,398,"10207 NAVARRE CT, HENRICO, VA, 23238","Match","Exact","10207 NAVARRE CT, HENRICO, VA, 23238",106666088,"L"
8399,"10207 STATE ROUTE 88","GARRETTSVILLE","OH",44231,41.2699202760001,-81.101192471,399,"10207 STATE ROUTE 88, GARRETTSVILLE, OH, 44231","Match","Exact","10207 STATE RTE 88, GARRETTSVILLE, OH, 44231",137549093,"L"
8400,"10207 WREN LN","EAGLE RIVER","AK",99577,61.312684313,-149.502170427,400,"10207 WREN LN, EAGLE RIVER, AK, 99577","Match","Exact","10207 WREN LN, EAGLE RIVER, AK, 99577",190793430,"R"
8401,"10208 BLANSFORD WAY","MIDDLE RIVER","MD",21220,39.360009909,-76.434366704,401,"10208 BLANSFORD WAY, MIDDLE RIVER, MD, 21220","Match","Exact","10208 BLANSFORD WAY, MIDDLE RIVER, MD, 21220",650945606,"R"
8402,"10208 CARLTON RD","PORT ST LUCIE","FL",34987,27.278404455,-80.529919741,402,"10208 CARLTON RD, PORT ST LUCIE, FL, 34987","Match","Exact","10208 CARLTON RD, PORT ST LUCIE, FL, 34987",120136892,"R"
8403,"10208 DEERCLIFF DR","TAMPA","FL",33647,28.130443647,-82.323360895,403,"10208 DEERCLIFF DR, TAMPA, FL, 33647","Match","Exact","10208 DEERCLIFF DR, TAMPA, FL, 33647",104627962,"L"
8404,"10208 DUNSFORD DRIVE","LONE TREE","CO",80124,39.531096383,-104.898907641,404,"10208 DUNSFORD DRIVE, LONE TREE, CO, 80124","Match","Exact","10208 DUNSFORD DR, LONE TREE, CO, 80124",130831240,"R"
8405,"10208 E 7TH ST","TULSA","OK",74128,36.1520249880001,-95.863750301,405,"10208 E 7TH ST, TULSA, OK, 74128","Match","Exact","10208 E 7TH ST, TULSA, OK, 74128",166448744,"R"
8406,"10208 GOLD DR","GRASS VALLEY","CA",95945,39.22515795,-121.086557961,406,"10208 GOLD DR, GRASS VALLEY, CA, 95945","Match","Exact","10208 GOLD DR, GRASS VALLEY, CA, 95945",106533668,"L"
8407,"10208 NW 63RD DR","PARKLAND","FL",33076,26.308807734,-80.262449418,407,"10208 NW 63RD DR, PARKLAND, FL, 33076","Match","Exact","10208 NW 63RD DR, PARKLAND, FL, 33076",114768374,"L"
8408,"10208 S INDIANAPOLIS AVE 301","CHICAGO","IL",60617,41.7098520110001,-87.5321874049999,408,"10208 S INDIANAPOLIS AVE 301, CHICAGO, IL, 60617","Match","Non_Exact","10208 S INDIANAPOLIS AVE, CHICAGO, IL, 60617",616797074,"R"
8409,"10208 S INDIANAPOLIS AVE SUITE 400","CHICAGO","IL",60617,41.7098520110001,-87.5321874049999,409,"10208 S INDIANAPOLIS AVE SUITE 400, CHICAGO, IL, 60617","Match","Non_Exact","10208 S INDIANAPOLIS AVE, CHICAGO, IL, 60617",616797074,"R"
8410,"10208 SUMATRA ST","EL PASO","TX",79925,31.779400434,-106.345177534,410,"10208 SUMATRA ST, EL PASO, TX, 79925","Match","Exact","10208 SUMATRA ST, EL PASO, TX, 79925",189347225,"R"
8411,"10208 SUMMERVIEW CIRCLE","RIVERVIEW","FL",33578,27.79699558,-82.336763837,411,"10208 SUMMERVIEW CIRCLE, RIVERVIEW, FL, 33578","Match","Exact","10208 SUMMERVIEW CIR, RIVERVIEW, FL, 33578",633390064,"L"
8412,"10209 CHESTNUT RIDGE RD","AUSTIN","TX",78726,30.4339244820001,-97.823231477,412,"10209 CHESTNUT RIDGE RD, AUSTIN, TX, 78726","Match","Exact","10209 CHESTNUT RIDGE RD, AUSTIN, TX, 78726",64027776,"R"
8413,"10209 E LINCOLN","WICHITA","KS",67207,37.671560856,-97.2191191479999,413,"10209 E LINCOLN, WICHITA, KS, 67207","Match","Non_Exact","10209 E LINCOLN ST, WICHITA, KS, 67207",115704612,"R"
8414,"10209 GOLDEN LIGHT CT","RIVERVIEW","FL",33578,NA,NA,414,"10209 GOLDEN LIGHT CT, RIVERVIEW, FL, 33578","No_Match",NA,NA,NA,NA
8415,"10209 GOVENORS DRIVE","CHAPEL HILL","NC",27517,NA,NA,415,"10209 GOVENORS DRIVE, CHAPEL HILL, NC, 27517","No_Match",NA,NA,NA,NA
8416,"10209 N 57TH STREET","PARADISE VALLEY","AZ",85253,33.5793219130001,-111.958393639,416,"10209 N 57TH STREET, PARADISE VALLEY, AZ, 85253","Match","Exact","10209 N 57TH ST, PARADISE VALLEY, AZ, 85253",128220815,"R"
8417,"10209 WASHBURN CIRCLE","BLOOMINGTON","MN",55431,44.818914073,-93.317798437,417,"10209 WASHBURN CIRCLE, BLOOMINGTON, MN, 55431","Match","Non_Exact","10209 WASHBURN CIR S, BLOOMINGTON, MN, 55431",43595352,"L"
8418,"10209 WEST ROAD","HARRISON","OH",45030,39.254717385,-84.785398626,418,"10209 WEST ROAD, HARRISON, OH, 45030","Match","Exact","10209 WEST RD, HARRISON, OH, 45030",103941730,"L"
8419,"1020A AUBURN AVE","LAFAYETTE","LA",70503,30.208670871,-92.011857552,419,"1020A AUBURN AVE, LAFAYETTE, LA, 70503","Match","Exact","1020 AUBURN AVE, LAFAYETTE, LA, 70503",85616448,"R"
8420,"1020NBALLARD WAY","KIMBERLY","ID",83341,NA,NA,420,"1020NBALLARD WAY, KIMBERLY, ID, 83341","No_Match",NA,NA,NA,NA
8421,"1021 11TH ST NORTH","WAHPETON","ND",58075,46.2747163170001,-96.615684431,421,"1021 11TH ST NORTH, WAHPETON, ND, 58075","Match","Exact","1021 11TH ST N, WAHPETON, ND, 58075",638152728,"L"
8422,"1021 32ND AVENUE SOUTH 103","MOOREHEAD","MN",56560,46.8419237150001,-96.764307429,422,"1021 32ND AVENUE SOUTH 103, MOOREHEAD, MN, 56560","Match","Non_Exact","1021 32ND AVE S, MOORHEAD, MN, 56560",168030628,"R"
8423,"1021 34TH PL","FOREST GROVE","OR",97116,45.538049427,-123.129722669,423,"1021 34TH PL, FOREST GROVE, OR, 97116","Match","Exact","1021 34TH PL, FOREST GROVE, OR, 97116",627568536,"R"
8424,"1021 5TH ST BLDG 318","HOLLOMAN AFB","NM",88330,NA,NA,424,"1021 5TH ST BLDG 318, HOLLOMAN AFB, NM, 88330","No_Match",NA,NA,NA,NA
8425,"1021 6TH AVENUE","AUGUSTA","GA",30901,33.4499341640001,-81.9900784769999,425,"1021 6TH AVENUE, AUGUSTA, GA, 30901","Match","Exact","1021 6TH AVE, AUGUSTA, GA, 30901",55640323,"R"
8426,"1021 ABBIE GLENN LN","SHREVEPORT","LA",71106,32.3543884900001,-93.68819759,426,"1021 ABBIE GLENN LN, SHREVEPORT, LA, 71106","Match","Exact","1021 ABBIE GLENN LN, SHREVEPORT, LA, 71106",625656465,"R"
8427,"1021 ALDEN CIR","DEKALB","IL",60115,NA,NA,427,"1021 ALDEN CIR, DEKALB, IL, 60115","No_Match",NA,NA,NA,NA
8428,"1021 AQUA LANE","MADISON","GA",30650,33.5139755870001,-83.496908989,428,"1021 AQUA LANE, MADISON, GA, 30650","Match","Exact","1021 AQUA LN, MADISON, GA, 30650",77591880,"L"
8429,"1021 ARLINGTON BLVD APT 730","ARLINGTON","VA",22209,38.8909467820001,-77.0685436529999,429,"1021 ARLINGTON BLVD APT 730, ARLINGTON, VA, 22209","Match","Exact","1021 ARLINGTON BLVD, ARLINGTON, VA, 22209",635443880,"R"
8430,"1021 ASH ST","CROSSETT","AR",71635,33.1101502590001,-91.949693326,430,"1021 ASH ST, CROSSETT, AR, 71635","Match","Exact","1021 ASH ST, CROSSETT, AR, 71635",31450259,"L"
8431,"1021 AUDREY WAY","ALLEN","TX",75013,33.104446454,-96.685336482,431,"1021 AUDREY WAY, ALLEN, TX, 75013","Match","Exact","1021 AUDREY WAY, ALLEN, TX, 75013",624271399,"R"
8432,"1021 AVONDALE AVENUE","COLUMBUS","OH",43212,39.979252247,-83.042190515,432,"1021 AVONDALE AVENUE, COLUMBUS, OH, 43212","Match","Exact","1021 AVONDALE AVE, COLUMBUS, OH, 43212",218681081,"L"
8433,"1021 BARCLAY ROAD","CHESTER SPRINGS","PA",19425,40.084525913,-75.682401453,433,"1021 BARCLAY ROAD, CHESTER SPRINGS, PA, 19425","Match","Non_Exact","1021 BARCLAY, CHESTER SPRINGS, PA, 19425",642921160,"L"
8434,"1021 BAYWOOD DRIVE","WILLIAMTSOWN","NJ",8094,39.7029086040001,-75.004375173,434,"1021 BAYWOOD DRIVE, WILLIAMTSOWN, NJ, 8094","Match","Non_Exact","1021 BAYWOOD DR, WILLIAMSTOWN, NJ, 08094",134600826,"L"
8435,"1021 BROOKS LANE","DELRAY BEACH","FL",33483,26.4437995910001,-80.0635828819999,435,"1021 BROOKS LANE, DELRAY BEACH, FL, 33483","Match","Exact","1021 BROOKS LN, DELRAY BEACH, FL, 33483",115335894,"L"
8436,"1021 BROOKSTONE CT","GEORGETOWN","IN",47122,38.290154923,-85.952860237,436,"1021 BROOKSTONE CT, GEORGETOWN, IN, 47122","Match","Exact","1021 BROOKSTONE CT, GEORGETOWN, IN, 47122",89551894,"R"
8437,"1021 BURLINGAME AVE","BURLINGAME","CA",94010,37.580809016,-122.34384315,437,"1021 BURLINGAME AVE, BURLINGAME, CA, 94010","Match","Exact","1021 BURLINGAME AVE, BURLINGAME, CA, 94010",192376461,"L"
8438,"1021 BURLINGAME AVENUE","BURLINGAME","CA",94010,37.580809016,-122.34384315,438,"1021 BURLINGAME AVENUE, BURLINGAME, CA, 94010","Match","Exact","1021 BURLINGAME AVE, BURLINGAME, CA, 94010",192376461,"L"
8439,"1021 CAMDEN HILL COURT","LAWRENCEVILLE","GA",30046,33.940114738,-84.012762901,439,"1021 CAMDEN HILL COURT, LAWRENCEVILLE, GA, 30046","Match","Exact","1021 CAMDEN HILL CT, LAWRENCEVILLE, GA, 30046",88917574,"R"
8440,"1021 CANNONBALL RUN A201","KNIGHTDALE","NC",27545,NA,NA,440,"1021 CANNONBALL RUN A201, KNIGHTDALE, NC, 27545","No_Match",NA,NA,NA,NA
8441,"1021 CARLISLE AVE SUITE H","RICHMOND","VA",23231,37.5175754040001,-77.405845302,441,"1021 CARLISLE AVE SUITE H, RICHMOND, VA, 23231","Match","Exact","1021 CARLISLE AVE, RICHMOND, VA, 23231",625256855,"R"
8442,"1021 CARRINGTON RIDGE","STOCKBRIDGE","GA",30281,NA,NA,442,"1021 CARRINGTON RIDGE, STOCKBRIDGE, GA, 30281","No_Match",NA,NA,NA,NA
8443,"1021 CHERRY STREET 3-R","PHILADELPHIA","PA",19107,39.9546285120001,-75.157244899,443,"1021 CHERRY STREET 3-R, PHILADELPHIA, PA, 19107","Match","Exact","1021 CHERRY ST, PHILADELPHIA, PA, 19107",131423457,"R"
8444,"1021 CHIEFTAIN LOOKOUT","MADISON","WI",53711,43.0414665810001,-89.4541494329999,444,"1021 CHIEFTAIN LOOKOUT, MADISON, WI, 53711","Match","Exact","1021 CHIEFTAIN LOOKOUT, MADISON, WI, 53711",49468239,"L"
8445,"1021 CRAGMONT AVE","BERKELEY","CA",94708,37.8903097680001,-122.264889613,445,"1021 CRAGMONT AVE, BERKELEY, CA, 94708","Match","Exact","1021 CRAGMONT AVE, BERKELEY, CA, 94708",634222377,"L"
8446,"1021 CTY RD 315","ASPERMONT","TX",79502,33.273319273,-100.267523009,446,"1021 CTY RD 315, ASPERMONT, TX, 79502","Match","Exact","1021 CO RD 315, ASPERMONT, TX, 79502",186365083,"R"
8447,"1021 DELMAS AVE","NASHVILLE","TN",37216,36.199781714,-86.743034971,447,"1021 DELMAS AVE, NASHVILLE, TN, 37216","Match","Exact","1021 DELMAS AVE, NASHVILLE, TN, 37216",97212123,"L"
8448,"1021 DIAMOND WAY","BOGART","GA",30622,NA,NA,448,"1021 DIAMOND WAY, BOGART, GA, 30622","No_Match",NA,NA,NA,NA
8449,"1021 DIXIE STREET","FLORENCE","SC",29501,34.2043861290001,-79.78629742,449,"1021 DIXIE STREET, FLORENCE, SC, 29501","Match","Exact","1021 DIXIE ST, FLORENCE, SC, 29501",642395427,"R"
8450,"1021 DODGE AVE UNIT B","EVANSTON","IL",60202,42.036137689,-87.699246454,450,"1021 DODGE AVE UNIT B, EVANSTON, IL, 60202","Match","Exact","1021 DODGE AVE, EVANSTON, IL, 60202",111743281,"R"
8451,"1021 E 170TH PLACE","SOUTH HOLLAND","IL",60473,41.5854641500001,-87.5923721899999,451,"1021 E 170TH PLACE, SOUTH HOLLAND, IL, 60473","Match","Exact","1021 E 170TH PL, SOUTH HOLLAND, IL, 60473",111780718,"R"
8452,"1021 EAST 2ND AVE","PINE BLUFF","AR",71601,34.228009238,-91.992617589,452,"1021 EAST 2ND AVE, PINE BLUFF, AR, 71601","Match","Exact","1021 E 2ND AVE, PINE BLUFF, AR, 71601",2551718,"L"
8453,"1021 EAST BROAD STREET","COLUMBUS","OH",43205,39.9653450180001,-82.973485728,453,"1021 EAST BROAD STREET, COLUMBUS, OH, 43205","Match","Exact","1021 E BROAD ST, COLUMBUS, OH, 43205",218649274,"R"
8454,"1021 EMBER CREST DRIVE","ROCKWALL","TX",75087,32.971507742,-96.448802337,454,"1021 EMBER CREST DRIVE, ROCKWALL, TX, 75087","Match","Exact","1021 EMBER CREST DR, ROCKWALL, TX, 75087",642816410,"R"
8455,"1021 F AVE","VIRGINIA BEACH","VA",23454,36.8118875810001,-76.020957905,455,"1021 F AVE, VIRGINIA BEACH, VA, 23454","Match","Exact","1021 F AVE, VIRGINIA BCH, VA, 23454",122271429,"L"
8456,"1021 FLAGTREE LANE","PIKESVILLE","MD",21208,39.364111199,-76.743512599,456,"1021 FLAGTREE LANE, PIKESVILLE, MD, 21208","Match","Exact","1021 FLAGTREE LN, PIKESVILLE, MD, 21208",191468201,"R"
8457,"1021 FLORIDA STREET","ORLANDO","FL",32810,NA,NA,457,"1021 FLORIDA STREET, ORLANDO, FL, 32810","No_Match",NA,NA,NA,NA
8458,"1021 GERMAN SCHOOL RD","RICHMOND","VA",23225,37.516391582,-77.5122796329999,458,"1021 GERMAN SCHOOL RD, RICHMOND, VA, 23225","Match","Exact","1021 GERMAN SCHOOL RD, RICHMOND, VA, 23225",201536374,"R"
8459,"1021 HALIFAX STREET","PETERSBURG","VA",23803,37.21255533,-77.410504271,459,"1021 HALIFAX STREET, PETERSBURG, VA, 23803","Match","Exact","1021 HALIFAX ST, PETERSBURG, VA, 23803",54214790,"R"
8460,"1021 HIGHLAND RIDGE DRIVE","MANHATTAN","KS",66503,39.1812287980001,-96.642085731,460,"1021 HIGHLAND RIDGE DRIVE, MANHATTAN, KS, 66503","Match","Exact","1021 HIGHLAND RIDGE DR, MANHATTAN, KS, 66503",633161440,"L"
8461,"1021 HWY 71 S","OKOBOJI","IA",51355,NA,NA,461,"1021 HWY 71 S, OKOBOJI, IA, 51355","No_Match",NA,NA,NA,NA
8462,"1021 JOBS RUN ROAD","KERENS","WV",26276,39.0666991420001,-79.712314007,462,"1021 JOBS RUN ROAD, KERENS, WV, 26276","Match","Exact","1021 JOBS RUN, KERENS, WV, 26276",652002573,"L"
8463,"1021 JUNEAU ST","KEWAUNEE","WI",54216,44.4528638620001,-87.505908011,463,"1021 JUNEAU ST, KEWAUNEE, WI, 54216","Match","Exact","1021 JUNEAU ST, KEWAUNEE, WI, 54216",148177958,"L"
8464,"1021 KINGSWAY DR STE 3","CAPE GIRARDEAU","MO",63701,37.3213527780001,-89.55733624,464,"1021 KINGSWAY DR STE 3, CAPE GIRARDEAU, MO, 63701","Match","Exact","1021 KINGSWAY DR, CAPE GIRARDEAU, MO, 63701",35182112,"L"
8465,"1021 LAKELAND HILLS BLVD","LAKELAND","FL",33803,28.0563795320001,-81.9541659719999,465,"1021 LAKELAND HILLS BLVD, LAKELAND, FL, 33803","Match","Non_Exact","1021 LAKELAND HILLS BLVD, LAKELAND, FL, 33805",104810387,"R"
8466,"1021 LYNDA LANE","ARLINGTON","TX",76013,32.7179703950001,-97.118680984,466,"1021 LYNDA LANE, ARLINGTON, TX, 76013","Match","Exact","1021 LYNDA LN, ARLINGTON, TX, 76013",101907869,"R"
8467,"1021 MARGARET DRIVE","LADSON","SC",29456,32.970951536,-80.143352076,467,"1021 MARGARET DRIVE, LADSON, SC, 29456","Match","Exact","1021 MARGARET DR, LADSON, SC, 29456",178460893,"L"
8468,"1021 MARIE DRIVE","WARRENVILLE","SC",29851,33.527428345,-81.721490468,468,"1021 MARIE DRIVE, WARRENVILLE, SC, 29851","Match","Exact","1021 MARIE DR, WARRENVILLE, SC, 29851",636583002,"R"
8469,"1021 MARTEX DRIVE","APOPKA","FL",32703,28.6652483020001,-81.448419202,469,"1021 MARTEX DRIVE, APOPKA, FL, 32703","Match","Exact","1021 MARTEX DR, APOPKA, FL, 32703",93741238,"L"
8470,"1021 MAYBERRY COURT","COPPER CANYON","TX",75077,33.081284388,-97.0915349269999,470,"1021 MAYBERRY COURT, COPPER CANYON, TX, 75077","Match","Exact","1021 MAYBERRY CT, COPPER CANYON, TX, 75077",103343539,"R"
8471,"1021 MICHIGAN AVENUE","ADRIAN","MI",49221,41.8957393320001,-84.0542534429999,471,"1021 MICHIGAN AVENUE, ADRIAN, MI, 49221","Match","Exact","1021 MICHIGAN AVE, ADRIAN, MI, 49221",25943129,"R"
8472,"1021 MOCHA MATTARI ST","HENDERSON","NV",89052,35.9921819910001,-115.109577419,472,"1021 MOCHA MATTARI ST, HENDERSON, NV, 89052","Match","Exact","1021 MOCHA MATTARI ST, HENDERSON, NV, 89052",623841355,"R"
8473,"1021 MONTGOMERY BELL RD","WESLEY CHAPEL","FL",33543,28.173478985,-82.278328292,473,"1021 MONTGOMERY BELL RD, WESLEY CHAPEL, FL, 33543","Match","Exact","1021 MONTGOMERY BELL RD, WESLEY CHAPEL, FL, 33543",650546246,"R"
8474,"1021 N AVON ST","BURBANK","CA",91505,34.169451569,-118.345395218,474,"1021 N AVON ST, BURBANK, CA, 91505","Match","Exact","1021 N AVON ST, BURBANK, CA, 91505",142725964,"L"
8475,"1021 N BOWMAN SPRINGS RD","KENNEDALE","TX",76060,32.6586798600001,-97.226532935,475,"1021 N BOWMAN SPRINGS RD, KENNEDALE, TX, 76060","Match","Exact","1021 N BOWMAN SPRINGS RD, KENNEDALE, TX, 76060",649631064,"L"
8476,"1021 N DARLENE DR","VAIL","AZ",85641,31.981535277,-110.716017484,476,"1021 N DARLENE DR, VAIL, AZ, 85641","Match","Exact","1021 N DARLENE DR, VAIL, AZ, 85641",606838455,"L"
8477,"1021 N MARKET PLAZA SUITE 107","PUEBLO WEST","CO",81007,38.3262276460001,-104.697930642,477,"1021 N MARKET PLAZA SUITE 107, PUEBLO WEST, CO, 81007","Match","Exact","1021 MARKET PLZ, PUEBLO WEST, CO, 81007",105086288,"L"
8478,"1021 N ONTARIO ST","BURBANK","CA",91505,34.1717302280001,-118.342970179,478,"1021 N ONTARIO ST, BURBANK, CA, 91505","Match","Exact","1021 N ONTARIO ST, BURBANK, CA, 91505",142725974,"L"
8479,"1021 NE 182ND ST","SHORELINE","WA",98155,47.76104423,-122.318499771,479,"1021 NE 182ND ST, SHORELINE, WA, 98155","Match","Exact","1021 NE 182ND ST, SHORELINE, WA, 98155",186575735,"R"
8480,"1021 NORTH MCKNIGHT ROAD 1K","SAINT LOUIS","MO",63132,38.6684661790001,-90.35717626,480,"1021 NORTH MCKNIGHT ROAD 1K, SAINT LOUIS, MO, 63132","Match","Exact","1021 N MCKNIGHT RD, SAINT LOUIS, MO, 63132",100132882,"L"
8481,"1021 NORTH ROSE STREET","KALAMAZOO","MI",49007,42.3011320040001,-85.585040196,481,"1021 NORTH ROSE STREET, KALAMAZOO, MI, 49007","Match","Exact","1021 N ROSE ST, KALAMAZOO, MI, 49007",12249631,"L"
8482,"1021 OLD BATES PIKE","CLEVELAND","TN",37311,35.1534404670001,-84.859853997,482,"1021 OLD BATES PIKE, CLEVELAND, TN, 37311","Match","Exact","1021 OLD BATES PIKE, CLEVELAND, TN, 37311",57574723,"R"
8483,"1021 PALAMINO LN","ELGIN","SC",29045,34.138122595,-80.851913531,483,"1021 PALAMINO LN, ELGIN, SC, 29045","Match","Exact","1021 PALAMINO LN, ELGIN, SC, 29045",633746795,"L"
8484,"1021 PARKWOOD AVENUE","GROVELAND","FL",34736,28.554686819,-81.8453122339999,484,"1021 PARKWOOD AVENUE, GROVELAND, FL, 34736","Match","Non_Exact","1021 PARKWOOD ST, GROVELAND, FL, 34736",94160505,"R"
8485,"1021 PECAN AVE","SANFORD","FM",32771,NA,NA,485,"1021 PECAN AVE, SANFORD, FM, 32771","No_Match",NA,NA,NA,NA
8486,"1021 PEGRAM STREET","CHARLOTTE","NC",28205,35.225826204,-80.819996224,486,"1021 PEGRAM STREET, CHARLOTTE, NC, 28205","Match","Exact","1021 PEGRAM ST, CHARLOTTE, NC, 28205",70479620,"L"
8487,"1021 PICO BLVD","SANTA MONICA","CA",90405,34.0136211940001,-118.480379633,487,"1021 PICO BLVD, SANTA MONICA, CA, 90405","Match","Exact","1021 PICO BLVD, SANTA MONICA, CA, 90405",141559754,"L"
8488,"1021 PORTAGE AVENUE","SOUTH BEND","IN",46616,41.688641998,-86.263309613,488,"1021 PORTAGE AVENUE, SOUTH BEND, IN, 46616","Match","Exact","1021 PORTAGE AVE, SOUTH BEND, IN, 46616",8053882,"L"
8489,"1021 QUASH STREET","HAMPTON","VA",23669,37.037040097,-76.3509709799999,489,"1021 QUASH STREET, HAMPTON, VA, 23669","Match","Exact","1021 QUASH ST, HAMPTON, VA, 23669",103758465,"L"
8490,"1021 RECREO RD","LOS LUNAS","NM",87031,34.82475378,-106.742174051,490,"1021 RECREO RD, LOS LUNAS, NM, 87031","Match","Exact","1021 RECREO RD, LOS LUNAS, NM, 87031",631788839,"L"
8491,"1021 RIVER RD","BINGHAMTON","NY",13901,42.1657641190001,-75.848848951,491,"1021 RIVER RD, BINGHAMTON, NY, 13901","Match","Exact","1021 RIVER RD, BINGHAMTON, NY, 13901",46351728,"L"
8492,"1021 RIVER ROAD","BINGHAMTON","NY",13901,42.1657641190001,-75.848848951,492,"1021 RIVER ROAD, BINGHAMTON, NY, 13901","Match","Exact","1021 RIVER RD, BINGHAMTON, NY, 13901",46351728,"L"
8493,"1021 RIVIERA DR","VIRGINIA BEACH","VA",23464,36.809666647,-76.201901274,493,"1021 RIVIERA DR, VIRGINIA BEACH, VA, 23464","Match","Exact","1021 RIVIERA DR, VA BCH, VA, 23464",122294899,"R"
8494,"1021 ROLLING MEADOWS DR","LITTLE CHUTE","WI",54140,44.291487341,-88.330110007,494,"1021 ROLLING MEADOWS DR, LITTLE CHUTE, WI, 54140","Match","Exact","1021 ROLLING MEADOWS DR, LITTLE CHUTE, WI, 54140",74898838,"L"
8495,"1021 ROMAN KNOLL COURT APARTMENT A","HARRISBURG","PA",17109,40.28102475,-76.816668872,495,"1021 ROMAN KNOLL COURT APARTMENT A, HARRISBURG, PA, 17109","Match","Exact","1021 ROMAN KNOLL CT, HARRISBURG, PA, 17109",70846162,"R"
8496,"1021 S 37TH STREET","SAN DIEGO","CA",92113,32.695669557,-117.114592323,496,"1021 S 37TH STREET, SAN DIEGO, CA, 92113","Match","Exact","1021 S 37TH ST, SAN DIEGO, CA, 92113",612871686,"L"
8497,"1021 S AVENUE L","CROWLEY","LA",70526,30.2017802760001,-92.363965664,497,"1021 S AVENUE L, CROWLEY, LA, 70526","Match","Exact","1021 S AVE L, CROWLEY, LA, 70526",88304520,"R"
8498,"1021 S GROVE AVE","OAK PARK","IL",60304,41.8701456520001,-87.795234358,498,"1021 S GROVE AVE, OAK PARK, IL, 60304","Match","Exact","1021 S GROVE AVE, OAK PARK, IL, 60304",111794022,"R"
8499,"1021 S PARK AVE","TITUSVILLE","FL",32780,28.6036518810001,-80.8184295029999,499,"1021 S PARK AVE, TITUSVILLE, FL, 32780","Match","Exact","1021 S PARK AVE, TITUSVILLE, FL, 32780",93891355,"L"
8500,"1021 S SOTO STREET APT 107","LOS ANGELES","CA",90023,34.032045585,-118.217114076,500,"1021 S SOTO STREET APT 107, LOS ANGELES, CA, 90023","Match","Non_Exact","1021 S SOTO ST, LOS ANGELES, CA, 90023",141624340,"R"
