"ID","Address","City","State","Zip","lat","long","id","input_address","match_indicator","match_type","matched_address","tiger_line_id","tiger_side"
192501,"3816 SOUTH LAKE TERRACE","MIRAMAR","FL",33023,25.9749009670001,-80.219198722,1,"3816 SOUTH LAKE TERRACE, MIRAMAR, FL, 33023","Match","Exact","3816 S LAKE TER, MIRAMAR, FL, 33023",651802428,"R"
192502,"3816 STADIUM DR","FORT WORTH","TX",76109,32.693988615,-97.365159778,2,"3816 STADIUM DR, FORT WORTH, TX, 76109","Match","Exact","3816 STADIUM DR, FORT WORTH, TX, 76109",101886391,"R"
192503,"3816 STADIUM DRIVE","FORT WORTH","TX",76109,32.693988615,-97.365159778,3,"3816 STADIUM DRIVE, FORT WORTH, TX, 76109","Match","Exact","3816 STADIUM DR, FORT WORTH, TX, 76109",101886391,"R"
192504,"3816 STANDIUM DR","FORT WORTH","TX",76109,NA,NA,4,"3816 STANDIUM DR, FORT WORTH, TX, 76109","No_Match",NA,NA,NA,NA
192505,"3816 STOCKTON ROAD","FURLONG","PA",18901,40.298970737,-75.068240362,5,"3816 STOCKTON ROAD, FURLONG, PA, 18901","Match","Non_Exact","3816 STOCKTON RD, FURLONG, PA, 18925",625535418,"L"
192506,"3816 SWEETGRASS LANE","CHARLOTTE","NC",28226,35.1017164900001,-80.797342643,6,"3816 SWEETGRASS LANE, CHARLOTTE, NC, 28226","Match","Exact","3816 SWEETGRASS LN, CHARLOTTE, NC, 28226",70512321,"L"
192507,"3816 TROTTER ROAD","COLUMBIA","SC",29209,33.980135756,-80.888681704,7,"3816 TROTTER ROAD, COLUMBIA, SC, 29209","Match","Exact","3816 TROTTER RD, COLUMBIA, SC, 29209",604773301,"R"
192508,"3816 US HWY 601 S","CONCORD","NC",28025,35.364588584,-80.544369106,8,"3816 US HWY 601 S, CONCORD, NC, 28025","Match","Exact","3816 US HWY 601 S, CONCORD, NC, 28025",617713843,"L"
192509,"3816 VIRGINIA ROAD","LOS ANGELES","CA",90008,34.016976694,-118.339357925,9,"3816 VIRGINIA ROAD, LOS ANGELES, CA, 90008","Match","Exact","3816 VIRGINIA RD, LOS ANGELES, CA, 90008",652033752,"L"
192510,"3816 W BERYL AVE","PHOENIX","AZ",85051,33.579502142,-112.141281783,10,"3816 W BERYL AVE, PHOENIX, AZ, 85051","Match","Exact","3816 W BERYL AVE, PHOENIX, AZ, 85051",128196820,"R"
192511,"38168 EGRET WAY","NORTH BRANCH","MN",55056,45.501697263,-93.021190884,11,"38168 EGRET WAY, NORTH BRANCH, MN, 55056","Match","Exact","38168 EGRET WAY, NORTH BRANCH, MN, 55056",97573641,"R"
192512,"3817 38TH AVE S","MINNEAPOLIS","MN",55406,44.9338270530001,-93.217868363,12,"3817 38TH AVE S, MINNEAPOLIS, MN, 55406","Match","Exact","3817 38TH AVE S, MINNEAPOLIS, MN, 55406",43640180,"L"
192513,"3817 ASHEFORD TRACE","ANTIOCH","TN",37013,36.0423062790001,-86.622430139,13,"3817 ASHEFORD TRACE, ANTIOCH, TN, 37013","Match","Exact","3817 ASHEFORD TRCE, ANTIOCH, TN, 37013",97221761,"L"
192514,"3817 BEECH STREET","LARAMIE","WY",82070,NA,NA,14,"3817 BEECH STREET, LARAMIE, WY, 82070","No_Match",NA,NA,NA,NA
192515,"3817 BUCKNELL DR","GARLAND","TX",75042,32.9214469080001,-96.6894456639999,15,"3817 BUCKNELL DR, GARLAND, TX, 75042","Match","Exact","3817 BUCKNELL DR, GARLAND, TX, 75042",102916789,"R"
192516,"3817 COOPER SQUARE COURT APT 11202","INDIANAPOLIS","IN",46205,39.8260892710001,-86.1091151959999,16,"3817 COOPER SQUARE COURT APT 11202, INDIANAPOLIS, IN, 46205","Match","Exact","3817 COOPER SQUARE CT, INDIANAPOLIS, IN, 46205",641064002,"L"
192517,"3817 EAST IVA STREET","COMPTON","CA",90221,33.8818910730001,-118.202563375,17,"3817 EAST IVA STREET, COMPTON, CA, 90221","Match","Exact","3817 E IVA ST, COMPTON, CA, 90221",141683005,"L"
192518,"3817 HEATHER WAY","SOMERSET","KY",42503,37.1478458230001,-84.564607333,18,"3817 HEATHER WAY, SOMERSET, KY, 42503","Match","Exact","3817 HEATHER WAY, SOMERSET, KY, 42503",39075709,"R"
192519,"3817 HWY 35 S STE B","ROCKPORT","TX",78382,NA,NA,19,"3817 HWY 35 S STE B, ROCKPORT, TX, 78382","No_Match",NA,NA,NA,NA
192520,"3817 INKSTER RD","INKSTER","MI",48141,42.2813927720001,-83.30950963,20,"3817 INKSTER RD, INKSTER, MI, 48141","Match","Exact","3817 INKSTER RD, INKSTER, MI, 48141",95434788,"L"
192521,"3817 LAKESHORE DR","TAMPA","FL",33604,28.010687079,-82.416088727,21,"3817 LAKESHORE DR, TAMPA, FL, 33604","Match","Exact","3817 LAKESHORE DR, TAMPA, FL, 33604",639417515,"L"
192522,"3817 MACALASTER DRIVE NE APT 212","MINNEAPOLIS","MN",55421,45.0380174910001,-93.215718053,22,"3817 MACALASTER DRIVE NE APT 212, MINNEAPOLIS, MN, 55421","Match","Exact","3817 MACALASTER DR NE, MINNEAPOLIS, MN, 55421",97684746,"R"
192523,"3817 MAY STREET","SACRAMENTO","CA",95838,38.637028102,-121.442756101,23,"3817 MAY STREET, SACRAMENTO, CA, 95838","Match","Exact","3817 MAY ST, SACRAMENTO, CA, 95838",133329573,"L"
192524,"3817 MORNING SIDE DRIVE","EL SOBRANTE","CA",94803,37.9753593140001,-122.272155484,24,"3817 MORNING SIDE DRIVE, EL SOBRANTE, CA, 94803","Match","Non_Exact","3817 MORNINGSIDE DR, EL SOBRANTE, CA, 94803",192042774,"L"
192525,"3817 PRINGLE ST","SAN DIEGO","CA",92103,32.7476339360001,-117.180020663,25,"3817 PRINGLE ST, SAN DIEGO, CA, 92103","Match","Exact","3817 PRINGLE ST, SAN DIEGO, CA, 92103",195341885,"R"
192526,"3817 SOUTH K ST","TULARE","CA",93274,36.1779986700001,-119.339220838,26,"3817 SOUTH K ST, TULARE, CA, 93274","Match","Exact","3817 S K ST, TULARE, CA, 93274",607525242,"R"
192527,"3817 SW SANDSTONE DR","LEES SUMMIT","MO",64082,38.8505936060001,-94.405323605,27,"3817 SW SANDSTONE DR, LEES SUMMIT, MO, 64082","Match","Exact","3817 SW SANDSTONE DR, LEES SUMMIT, MO, 64082",91520101,"R"
192528,"3817 W 59TH PL","CHICAGO","IL",60629,41.785091085,-87.718568089,28,"3817 W 59TH PL, CHICAGO, IL, 60629","Match","Exact","3817 W 59TH PL, CHICAGO, IL, 60629",111801265,"L"
192529,"3817 W COCHISE DR","PHOENIX","AZ",85051,33.580553933,-112.140518778,29,"3817 W COCHISE DR, PHOENIX, AZ, 85051","Match","Exact","3817 W COCHISE DR, PHOENIX, AZ, 85051",128196819,"L"
192530,"3817 WENDELKIN ST","DALLAS","TX",75215,32.7562202720001,-96.768493808,30,"3817 WENDELKIN ST, DALLAS, TX, 75215","Match","Exact","3817 WENDELKIN ST, DALLAS, TX, 75215",102950673,"R"
192531,"3817 WEST BELLE PLAINE AVE APT 1M","CHICAGO","IL",60618,41.9555301560001,-87.7234370049999,31,"3817 WEST BELLE PLAINE AVE APT 1M, CHICAGO, IL, 60618","Match","Exact","3817 W BELLE PLAINE AVE, CHICAGO, IL, 60618",605187285,"L"
192532,"3817 WEST FOREST HILL AVENUE","FRANKLIN","WI",53132,42.895530358,-87.964979598,32,"3817 WEST FOREST HILL AVENUE, FRANKLIN, WI, 53132","Match","Exact","3817 W FOREST HILL AVE, FRANKLIN, WI, 53132",77766461,"L"
192533,"3817 YELLOWSTONE ST","IRVING","TX",75062,32.8398136550001,-97.0021692939999,33,"3817 YELLOWSTONE ST, IRVING, TX, 75062","Match","Exact","3817 YELLOWSTONE ST, IRVING, TX, 75062",102886002,"R"
192534,"38174 WEST COLONIAL HIGHWAY","HAMILTON","VA",20158,NA,NA,34,"38174 WEST COLONIAL HIGHWAY, HAMILTON, VA, 20158","No_Match",NA,NA,NA,NA
192535,"3818 ADIROLF RD","JACKSONVILLE","FL",32207,30.2930846030001,-81.625187535,35,"3818 ADIROLF RD, JACKSONVILLE, FL, 32207","Match","Exact","3818 ADIROLF RD, JACKSONVILLE, FL, 32207",83916012,"R"
192536,"3818 BLUE SPRINGS DR","HOUSTON","TX",77068,30.0012640670001,-95.49451326,36,"3818 BLUE SPRINGS DR, HOUSTON, TX, 77068","Match","Exact","3818 BLUE SPRING DR, HOUSTON, TX, 77068",96009993,"L"
192537,"3818 BRIARBROOK PLACE","LAND O'LAKES","FL",34639,28.2124486000001,-82.4228637799999,37,"3818 BRIARBROOK PLACE, LAND O'LAKES, FL, 34639","Match","Non_Exact","3818 BRIARBROOK PL, LAND O LAKES, FL, 34639",86352780,"R"
192538,"3818 BROWN ROAD","LANCASTER","SC",29720,34.6203031800001,-80.841800746,38,"3818 BROWN ROAD, LANCASTER, SC, 29720","Match","Exact","3818 BROWN RD, LANCASTER, SC, 29720",40705449,"R"
192539,"3818 BUTTERNUT DRIVE","DECATUR","GA",30034,33.6923530620001,-84.232363415,39,"3818 BUTTERNUT DRIVE, DECATUR, GA, 30034","Match","Exact","3818 BUTTERNUT DR, DECATUR, GA, 30034",23371415,"L"
192540,"3818 C CLEMMONS ROAD","CLEMMONS","NC",27012,36.0198399860001,-80.3885122739999,40,"3818 C CLEMMONS ROAD, CLEMMONS, NC, 27012","Match","Exact","3818 CLEMMONS RD, CLEMMONS, NC, 27012",623832281,"L"
192541,"3818 CHURCH AVENUE","BROOKLYN","NY",11203,40.6511800980001,-73.941670856,41,"3818 CHURCH AVENUE, BROOKLYN, NY, 11203","Match","Exact","3818 CHURCH AVE, BROOKLYN, NY, 11203",59081826,"R"
192542,"3818 CREHSHAW BLVD","LOS ANGELES","CA",90008,NA,NA,42,"3818 CREHSHAW BLVD, LOS ANGELES, CA, 90008","No_Match",NA,NA,NA,NA
192543,"3818 CRENSHAW BLVD  STE 392","LOS ANGELES","CA",90008,34.016092341,-118.3348751,43,"3818 CRENSHAW BLVD  STE 392, LOS ANGELES, CA, 90008","Match","Exact","3818 CRENSHAW BLVD, LOS ANGELES, CA, 90008",652033773,"L"
192544,"3818 CRENSHAW BLVD STE 363","LOS ANGELES","CA",90008,34.016092341,-118.3348751,44,"3818 CRENSHAW BLVD STE 363, LOS ANGELES, CA, 90008","Match","Exact","3818 CRENSHAW BLVD, LOS ANGELES, CA, 90008",652033773,"L"
192545,"3818 CRENSHAW BLVD STE 403","LOS ANGELES","CA",90008,34.016092341,-118.3348751,45,"3818 CRENSHAW BLVD STE 403, LOS ANGELES, CA, 90008","Match","Exact","3818 CRENSHAW BLVD, LOS ANGELES, CA, 90008",652033773,"L"
192546,"3818 CRENSHAW BLVD SUITE 314","LOS ANGELES","CA",90008,34.016092341,-118.3348751,46,"3818 CRENSHAW BLVD SUITE 314, LOS ANGELES, CA, 90008","Match","Exact","3818 CRENSHAW BLVD, LOS ANGELES, CA, 90008",652033773,"L"
192547,"3818 CRENSHAW BLVD","LOS ANGELS","CA",90008,34.016092341,-118.3348751,47,"3818 CRENSHAW BLVD, LOS ANGELS, CA, 90008","Match","Non_Exact","3818 CRENSHAW BLVD, LOS ANGELES, CA, 90008",652033773,"L"
192548,"3818 CRENSHAW BOULEVARD STE 403","LOS ANGELES","CA",90008,34.016092341,-118.3348751,48,"3818 CRENSHAW BOULEVARD STE 403, LOS ANGELES, CA, 90008","Match","Exact","3818 CRENSHAW BLVD, LOS ANGELES, CA, 90008",652033773,"L"
192549,"3818 CRENSHAW BOULEVARD SUITE 430","LOS ANGELES","CA",90008,34.016092341,-118.3348751,49,"3818 CRENSHAW BOULEVARD SUITE 430, LOS ANGELES, CA, 90008","Match","Exact","3818 CRENSHAW BLVD, LOS ANGELES, CA, 90008",652033773,"L"
192550,"3818 CRENSHAW BOULEVARD","LOS ANGELES","CA",90008,34.016092341,-118.3348751,50,"3818 CRENSHAW BOULEVARD, LOS ANGELES, CA, 90008","Match","Exact","3818 CRENSHAW BLVD, LOS ANGELES, CA, 90008",652033773,"L"
192551,"3818 CREST DRIVE","HEPHZIBAH","GA",30815,33.378490727,-82.108932123,51,"3818 CREST DRIVE, HEPHZIBAH, GA, 30815","Match","Exact","3818 CREST DR, HEPHZIBAH, GA, 30815",55647055,"R"
192552,"3818 GARDEN BLVD","CAPE CORAL","FL",33909,26.727950777,-81.925012959,52,"3818 GARDEN BLVD, CAPE CORAL, FL, 33909","Match","Exact","3818 GARDEN BLVD, CAPE CORAL, FL, 33909",646830436,"R"
192553,"3818 HOLLAND AVE APT 102","DALLAS","TX",75219,32.8137137370001,-96.80398917,53,"3818 HOLLAND AVE APT 102, DALLAS, TX, 75219","Match","Exact","3818 HOLLAND AVE, DALLAS, TX, 75219",103200761,"R"
192554,"3818 LIVELY LANE","DALLAS","TX",75220,32.874599485,-96.8513589899999,54,"3818 LIVELY LANE, DALLAS, TX, 75220","Match","Exact","3818 LIVELY LN, DALLAS, TX, 75220",102898999,"R"
192555,"3818 MAYFAIR STREET","PITTSBURGH","PA",15204,40.459738907,-80.080298638,55,"3818 MAYFAIR STREET, PITTSBURGH, PA, 15204","Match","Exact","3818 MAYFAIR ST, PITTSBURGH, PA, 15204",639673837,"R"
192556,"3818 MERLE STREET","PITTSBURGH","PA",15204,40.458028364,-80.0778688629999,56,"3818 MERLE STREET, PITTSBURGH, PA, 15204","Match","Exact","3818 MERLE ST, PITTSBURGH, PA, 15204",635642924,"R"
192557,"3818 MOFFETT RD","CERES","CA",95307,37.582447975,-120.947747179,57,"3818 MOFFETT RD, CERES, CA, 95307","Match","Exact","3818 MOFFETT RD, CERES, CA, 95307",642919391,"L"
192558,"3818 N ELSTON AVENUE","CHICAGO","IL",60618,41.950633284,-87.7146966729999,58,"3818 N ELSTON AVENUE, CHICAGO, IL, 60618","Match","Exact","3818 N ELSTON AVE, CHICAGO, IL, 60618",111757094,"L"
192559,"3818 N RICHMOND","CHICAGI","IL",60618,41.950743905,-87.70182166,59,"3818 N RICHMOND, CHICAGI, IL, 60618","Match","Non_Exact","3818 N RICHMOND ST, CHICAGO, IL, 60618",111760568,"L"
192560,"3818 N SCHREIBER WAY","COEUR D ALENE","ID",83815,47.7138887730001,-116.802512238,60,"3818 N SCHREIBER WAY, COEUR D ALENE, ID, 83815","Match","Exact","3818 N SCHREIBER WAY, COEUR D ALENE, ID, 83815",192924462,"R"
192561,"3818 N SCHREIBER WAY","COEUR DALENE","ID",83815,47.7139100900001,-116.80250302,61,"3818 N SCHREIBER WAY, COEUR DALENE, ID, 83815","Match","Non_Exact","3818 N SCHREIBER WAY, COEUR D ALENE, ID, 83815",192924462,"R"
192562,"3818 N VIRKUS COURT","MISSOURI CITY","TX",77459,29.5009429900001,-95.543028071,62,"3818 N VIRKUS COURT, MISSOURI CITY, TX, 77459","Match","Exact","3818 N VIRKUS CT, MISSOURI CITY, TX, 77459",638590320,"R"
192563,"3818 PAUL MILL RD","ELLICOTT CITY","MD",21042,39.265684391,-76.845873556,63,"3818 PAUL MILL RD, ELLICOTT CITY, MD, 21042","Match","Exact","3818 PAUL MILL RD, ELLICOTT CITY, MD, 21042",158929240,"R"
192564,"3818 PINEDALE DR SW","HUNTSVILLE","AL",35805,34.699157192,-86.622405095,64,"3818 PINEDALE DR SW, HUNTSVILLE, AL, 35805","Match","Exact","3818 PINEDALE DR SW, HUNTSVILLE, AL, 35805",58119923,"R"
192565,"3818 ROSS STREET","AMARILLO","TX",79118,35.173986223,-101.816799394,65,"3818 ROSS STREET, AMARILLO, TX, 79118","Match","Exact","3818 ROSS ST, AMARILLO, TX, 79118",182664151,"R"
192566,"3818 S FIGUEROA ST","LOS ANGELES","CA",90037,34.0152304590001,-118.282744187,66,"3818 S FIGUEROA ST, LOS ANGELES, CA, 90037","Match","Exact","3818 S FIGUEROA ST, LOS ANGELES, CA, 90037",141607955,"L"
192567,"3818 SCHREIBER WAY","CDA","ID",83815,NA,NA,67,"3818 SCHREIBER WAY, CDA, ID, 83815","No_Match",NA,NA,NA,NA
192568,"3818 SE 116TH STREET","RUNNELLS","IA",50237,NA,NA,68,"3818 SE 116TH STREET, RUNNELLS, IA, 50237","No_Match",NA,NA,NA,NA
192569,"3818 SONORA AVE","DALLAS","TX",75216,32.7032073230001,-96.795921359,69,"3818 SONORA AVE, DALLAS, TX, 75216","Match","Exact","3818 SONORA AVE, DALLAS, TX, 75216",102951496,"L"
192570,"3818 TEAL BAY LANE","FULSHEAR","TX",77441,29.7281412500001,-95.861927625,70,"3818 TEAL BAY LANE, FULSHEAR, TX, 77441","Match","Exact","3818 TEAL BAY LN, FULSHEAR, TX, 77441",651271196,"L"
192571,"3818 VENUS CT","SAN JOSE","CA",95121,37.3026949650001,-121.794172185,71,"3818 VENUS CT, SAN JOSE, CA, 95121","Match","Exact","3818 VENUS CT, SAN JOSE, CA, 95121",123173142,"L"
192572,"3818 WARRINGTON DRIVE","CHARLOTTE","NC",28211,35.1610569470001,-80.802491043,72,"3818 WARRINGTON DRIVE, CHARLOTTE, NC, 28211","Match","Exact","3818 WARRINGTON DR, CHARLOTTE, NC, 28211",70489803,"R"
192573,"3818 WISH AVENUE","INDIANAPOLIS","IN",46268,39.900237442,-86.225747742,73,"3818 WISH AVENUE, INDIANAPOLIS, IN, 46268","Match","Exact","3818 WISH AVE, INDIANAPOLIS, IN, 46268",108041101,"L"
192574,"3818 WOODLEA AVENUE","BALTIMORE","MD",21206,39.339321834,-76.5595275759999,74,"3818 WOODLEA AVENUE, BALTIMORE, MD, 21206","Match","Exact","3818 WOODLEA AVE, BALTIMORE, MD, 21206",206411271,"L"
192575,"38180 DEL WEBB BLVD 141","PALM DESERT","CA",92211,33.7719787070001,-116.294998735,75,"38180 DEL WEBB BLVD 141, PALM DESERT, CA, 92211","Match","Non_Exact","38180 DEL WEBB BLVD, PALM DESERT, CA, 92211",195086435,"R"
192576,"38180 SADDLE LANE","CLINTON TOWNSHIP","MI",48036,42.578847888,-82.937807703,76,"38180 SADDLE LANE, CLINTON TOWNSHIP, MI, 48036","Match","Exact","38180 SADDLE LN, CLINTON TOWNSHIP, MI, 48036",110679575,"R"
192577,"38180 WEST COLONIAL HIGHWAY","HAMILTON","VA",20158,NA,NA,77,"38180 WEST COLONIAL HIGHWAY, HAMILTON, VA, 20158","No_Match",NA,NA,NA,NA
192578,"3818B E SCOTT ST","JOINT BASE MDL","NJ",8641,40.0493888460001,-74.5819315319999,78,"3818B E SCOTT ST, JOINT BASE MDL, NJ, 8641","Match","Exact","3818 E SCOTT ST, JOINT BASE MDL, NJ, 08641",134080934,"R"
192579,"3819 49TH AVE SW","SEATTLE","WA",98116,47.570003146,-122.394778212,79,"3819 49TH AVE SW, SEATTLE, WA, 98116","Match","Exact","3819 49TH AVE SW, SEATTLE, WA, 98116",186660911,"R"
192580,"3819 COLLIER RD","RANDALLSTOWN","MD",21133,39.378612463,-76.802099007,80,"3819 COLLIER RD, RANDALLSTOWN, MD, 21133","Match","Exact","3819 COLLIER RD, RANDALLSTOWN, MD, 21133",191463255,"R"
192581,"3819 DONNA ROAD","RALEIGH","NC",27604,35.826957083,-78.574121195,81,"3819 DONNA ROAD, RALEIGH, NC, 27604","Match","Exact","3819 DONNA RD, RALEIGH, NC, 27604",208361300,"R"
192582,"3819 EMERALD LAKE DR","MISSOURI CITY","TX",77459,29.5200554030001,-95.523032165,82,"3819 EMERALD LAKE DR, MISSOURI CITY, TX, 77459","Match","Non_Exact","3819 EMERALD LAKE RD, MISSOURI CITY, TX, 77459",635221728,"R"
192583,"3819 FAIROAKS ROAD","SOUTH EUCLID","OH",44121,41.543099065,-81.543966144,83,"3819 FAIROAKS ROAD, SOUTH EUCLID, OH, 44121","Match","Exact","3819 FAIROAKS RD, SOUTH EUCLID, OH, 44121",61124231,"L"
192584,"3819 FOUR MILE RD N STE B","TRAVERSE CITY","MI",49686,44.7428151920001,-85.5360773479999,84,"3819 FOUR MILE RD N STE B, TRAVERSE CITY, MI, 49686","Match","Exact","3819 FOUR MILE RD N, TRAVERSE CITY, MI, 49686",145519690,"L"
192585,"3819 HUNT MANOR DRIVE","FAIRFAX","VA",22033,38.8846520160001,-77.38715354,85,"3819 HUNT MANOR DRIVE, FAIRFAX, VA, 22033","Match","Exact","3819 HUNT MANOR DR, FAIRFAX, VA, 22033",76039705,"R"
192586,"3819 HURON DR","TROY","MI",48084,42.5734737180001,-83.165071396,86,"3819 HURON DR, TROY, MI, 48084","Match","Exact","3819 HURON DR, TROY, MI, 48084",69792194,"R"
192587,"3819 LOGUE ROAD","MYAKKA CITY","FL",34251,27.4653496020001,-82.1531890159999,87,"3819 LOGUE ROAD, MYAKKA CITY, FL, 34251","Match","Exact","3819 LOGUE RD, MYAKKA CITY, FL, 34251",635513100,"L"
192588,"3819 MARTINGALE DRIVE SE","CONYERS","GA",30094,33.5772677,-84.027472168,88,"3819 MARTINGALE DRIVE SE, CONYERS, GA, 30094","Match","Exact","3819 MARTINGALE DR SE, CONYERS, GA, 30094",23747776,"R"
192589,"3819 MONROE ST","COLUMBIA","SC",29205,33.9906088600001,-80.98765121,89,"3819 MONROE ST, COLUMBIA, SC, 29205","Match","Exact","3819 MONROE ST, COLUMBIA, SC, 29205",71828786,"L"
192590,"3819 NE 45TH ST","SEATTLE","WA",98105,47.661259654,-122.286925276,90,"3819 NE 45TH ST, SEATTLE, WA, 98105","Match","Exact","3819 NE 45TH ST, SEATTLE, WA, 98105",186588147,"R"
192591,"3819 OSBORNE OAKS WAY","TAMPA","FL",33610,27.9898205170001,-82.4166345149999,91,"3819 OSBORNE OAKS WAY, TAMPA, FL, 33610","Match","Exact","3819 OSBORNE OAKS WAY, TAMPA, FL, 33610",624217983,"R"
192592,"3819 S 9TH AVE","TUCSON","AZ",85714,32.177242022,-110.971648533,92,"3819 S 9TH AVE, TUCSON, AZ, 85714","Match","Exact","3819 S 9TH AVE, TUCSON, AZ, 85714",652597160,"L"
192593,"3819 SHELLEY ROAD SOUTH","WEST PALM BEACH","FL",33407,26.755112071,-80.095128393,93,"3819 SHELLEY ROAD SOUTH, WEST PALM BEACH, FL, 33407","Match","Exact","3819 SHELLEY RD S, WEST PALM BEACH, FL, 33407",115330948,"R"
192594,"3819 TOWNE CROSSING BLVD","MESQUITE","TX",75150,32.817152789,-96.6308978009999,94,"3819 TOWNE CROSSING BLVD, MESQUITE, TX, 75150","Match","Exact","3819 TOWNE CROSSING BLVD, MESQUITE, TX, 75150",102931181,"R"
192595,"3819 W DE BLAAY CT SE","KENTWOOD","MI",49512,42.861534448,-85.570001914,95,"3819 W DE BLAAY CT SE, KENTWOOD, MI, 49512","Match","Exact","3819 W DE BLAAY CT SE, KENTWOOD, MI, 49512",12487098,"L"
192596,"3819 WATER DROP COURT","BURTONSVILLE","MD",20866,39.086441033,-76.932500014,96,"3819 WATER DROP COURT, BURTONSVILLE, MD, 20866","Match","Exact","3819 WATER DROP CT, BURTONSVILLE, MD, 20866",645492186,"L"
192597,"3819 WOODMONT ROAD","TOLEDO","OH",43613,41.6892135730001,-83.609561496,97,"3819 WOODMONT ROAD, TOLEDO, OH, 43613","Match","Exact","3819 WOODMONT RD, TOLEDO, OH, 43613",33933172,"L"
192598,"38190 HIGHWAY 27","DAVENPORT","FL",33837,NA,NA,98,"38190 HIGHWAY 27, DAVENPORT, FL, 33837","No_Match",NA,NA,NA,NA
192599,"382 ASSET PARKWAY","SANFORD","NC",27332,35.314263983,-79.0717161009999,99,"382 ASSET PARKWAY, SANFORD, NC, 27332","Match","Exact","382 ASSET PKWY, SANFORD, NC, 27332",614155264,"R"
192600,"382 BAILEY HILLS ROAD","FRANKLIN","NC",28734,35.2390177460001,-83.353752329,100,"382 BAILEY HILLS ROAD, FRANKLIN, NC, 28734","Match","Exact","382 BAILEY HILLS RD, FRANKLIN, NC, 28734",35520290,"L"
192601,"382 BUTLER ST APT 3","BROOKLYN","NY",11217,40.6795037800001,-73.980140862,101,"382 BUTLER ST APT 3, BROOKLYN, NY, 11217","Match","Exact","382 BUTLER ST, BROOKLYN, NY, 11217",59096550,"R"
192602,"382 CENTRAL PARK WEST APT 7D","NEW YORK","NY",10025,40.7927236140001,-73.963924321,102,"382 CENTRAL PARK WEST APT 7D, NEW YORK, NY, 10025","Match","Exact","382 CENTRAL PARK W, NEW YORK, NY, 10025",650071991,"L"
192603,"382 CLINTON STREET","COSTA MESA","CA",92626,33.6675315590001,-117.878876541,103,"382 CLINTON STREET, COSTA MESA, CA, 92626","Match","Exact","382 CLINTON ST, COSTA MESA, CA, 92626",144048937,"R"
192604,"382 EAST FREEHOLD RD","FREEHOLD","NJ",7728,40.275719231,-74.249173835,104,"382 EAST FREEHOLD RD, FREEHOLD, NJ, 7728","Match","Exact","382 E FREEHOLD RD, FREEHOLD, NJ, 07728",653263646,"R"
192605,"382 FAIRFAX ROAD","DREXEL HILL","PA",19026,39.948662691,-75.285786657,105,"382 FAIRFAX ROAD, DREXEL HILL, PA, 19026","Match","Exact","382 FAIRFAX RD, DREXEL HILL, PA, 19026",652458178,"L"
192606,"382 FARM LANE","MORRISDALE","PA",16858,41.042400393,-78.241425604,106,"382 FARM LANE, MORRISDALE, PA, 16858","Match","Exact","382 FARM LN, MORRISDALE, PA, 16858",50516544,"R"
192607,"382 FLORIDA AVE","AURORA","IL",60506,41.7744917950001,-88.3222019739999,107,"382 FLORIDA AVE, AURORA, IL, 60506","Match","Exact","382 FLORIDA AVE, AURORA, IL, 60506",119550909,"L"
192608,"382 GRACE LOOP","DERMOTT","AR",71638,33.5447087840001,-91.474497508,108,"382 GRACE LOOP, DERMOTT, AR, 71638","Match","Exact","382 GRACE LOOP, DERMOTT, AR, 71638",610264109,"R"
192609,"382 HANCOCK ST","BROOKLYN","NY",11216,40.683630974,-73.9404598949999,109,"382 HANCOCK ST, BROOKLYN, NY, 11216","Match","Exact","382 HANCOCK ST, BROOKLYN, NY, 11216",652211677,"R"
192610,"382 HARRIS RD APT 19","HAYWARD","CA",94544,37.636324582,-122.068186495,110,"382 HARRIS RD APT 19, HAYWARD, CA, 94544","Match","Exact","382 HARRIS RD, HAYWARD, CA, 94544",125022094,"L"
192611,"382 JOHNSON RIDGE ROAD","ELKIN","NC",28621,36.2594257910001,-80.8282546889999,111,"382 JOHNSON RIDGE ROAD, ELKIN, NC, 28621","Match","Exact","382 JOHNSON RIDGE RD, ELKIN, NC, 28621",154192219,"R"
192612,"382 LAKE DAWSON PL","LAKE MARY","FL",32746,28.7719951880001,-81.3425700069999,112,"382 LAKE DAWSON PL, LAKE MARY, FL, 32746","Match","Exact","382 LAKE DAWSON PL, LAKE MARY, FL, 32746",93779358,"R"
192613,"382 MILL AVENUE APT 101","MEMPHIS","TN",38107,35.1567584040001,-90.037998064,113,"382 MILL AVENUE APT 101, MEMPHIS, TN, 38107","Match","Exact","382 MILL AVE, MEMPHIS, TN, 38107",638146605,"L"
192614,"382 N LEMON AVE NUM 812","WALNUT","CA",91789,34.0195178860001,-117.865441077,114,"382 N LEMON AVE NUM 812, WALNUT, CA, 91789","Match","Exact","382 LEMON AVE, WALNUT, CA, 91789",241246087,"R"
192615,"382 N LEMON AVE","WALNUT","CA",91789,34.019545087,-117.865454179,115,"382 N LEMON AVE, WALNUT, CA, 91789","Match","Exact","382 LEMON AVE, WALNUT, CA, 91789",241246087,"R"
192616,"382 NW 14TH STREET","POMPANO BEACH","FL",33060,26.244954331,-80.12832069,116,"382 NW 14TH STREET, POMPANO BEACH, FL, 33060","Match","Exact","382 NW 14TH ST, POMPANO BEACH, FL, 33060",114769212,"L"
192617,"382 OLD PETERSHAM RD","BARRE","MA",1005,42.472732717,-72.096970407,117,"382 OLD PETERSHAM RD, BARRE, MA, 1005","Match","Exact","382 OLD PETERSHAM RD, BARRE, MA, 01005",39993732,"L"
192618,"382 OLD RIVER ROAD","TORNHURST","PA",18424,41.177582526,-75.5829356409999,118,"382 OLD RIVER ROAD, TORNHURST, PA, 18424","Match","Non_Exact","382 RIVER RD, THORNHURST, PA, 18424",651775680,"R"
192619,"382 ORANGE BLOSSOM","IRVINE","CA",92618,33.672685797,-117.772168065,119,"382 ORANGE BLOSSOM, IRVINE, CA, 92618","Match","Exact","382 ORANGE BLOSSOM, IRVINE, CA, 92618",635327756,"L"
192620,"382 PATTERSON AVE SE","ATLANTA","GA",30316,33.7430492290001,-84.3428681409999,120,"382 PATTERSON AVE SE, ATLANTA, GA, 30316","Match","Exact","382 PATTERSON AVE SE, ATLANTA, GA, 30316",23365354,"L"
192621,"382 PINEHAVEN DRIVE","NEW LONDON","NC",28127,35.4990725690001,-80.113470111,121,"382 PINEHAVEN DRIVE, NEW LONDON, NC, 28127","Match","Exact","382 PINEHAVEN DR, NEW LONDON, NC, 28127",20025469,"L"
192622,"382 PLEASANT HILL RD","RUTHERFORDTON","NC",28139,35.33070323,-82.012335559,122,"382 PLEASANT HILL RD, RUTHERFORDTON, NC, 28139","Match","Exact","382 PLEASANT HILL RD, RUTHERFORDTON, NC, 28139",636057763,"L"
192623,"382 PROSPECT PLACE 19","BROOKLYN","NY",11238,40.6766569000001,-73.964065574,123,"382 PROSPECT PLACE 19, BROOKLYN, NY, 11238","Match","Exact","382 PROSPECT PL, BROOKLYN, NY, 11238",59078412,"R"
192624,"382 S 22ND AVE","BRIGHTON","CO",80601,39.9798048050001,-104.795360248,124,"382 S 22ND AVE, BRIGHTON, CO, 80601","Match","Exact","382 S 22ND AVE, BRIGHTON, CO, 80601",177348896,"L"
192625,"382 S MEADOWBROOK DR UNIT B","SAN DIEGO","CA",92114,32.7073595570001,-117.03256796,125,"382 S MEADOWBROOK DR UNIT B, SAN DIEGO, CA, 92114","Match","Exact","382 MEADOWBROOK DR, SAN DIEGO, CA, 92114",195360984,"L"
192626,"382 SAINT CLAIRE DRIVE","ALPHARETTA","GA",30004,34.1314842140001,-84.245248492,126,"382 SAINT CLAIRE DRIVE, ALPHARETTA, GA, 30004","Match","Non_Exact","382 ST CLAIR DR, ALPHARETTA, GA, 30004",629552737,"R"
192627,"382 STILL MEADOW LN","FLINTSTONE","GA",30725,34.8951842180001,-85.363871116,127,"382 STILL MEADOW LN, FLINTSTONE, GA, 30725","Match","Exact","382 STILL MEADOW LN, FLINTSTONE, GA, 30725",66733310,"R"
192628,"382 THOMPKINS AVENUE","BROOKLYN","NY",11216,NA,NA,128,"382 THOMPKINS AVENUE, BROOKLYN, NY, 11216","No_Match",NA,NA,NA,NA
192629,"382 TOWNSHIP ROAD 1101","NOVA","OH",44859,NA,NA,129,"382 TOWNSHIP ROAD 1101, NOVA, OH, 44859","No_Match",NA,NA,NA,NA
192630,"382 WASHINGTON AVENUE  N","BATTLE CREEK","MI",49037,42.3361913790001,-85.190317814,130,"382 WASHINGTON AVENUE  N, BATTLE CREEK, MI, 49037","Match","Exact","382 WASHINGTON AVE N, BATTLE CREEK, MI, 49037",11713702,"R"
192631,"382 WEATHERFORD DR","MADISON","AL",35757,34.7853241760001,-86.736203839,131,"382 WEATHERFORD DR, MADISON, AL, 35757","Match","Exact","382 WEATHERFORD DR, MADISON, AL, 35757",633489893,"R"
192632,"382 WHISPERING OAKS LOOP","KILLEEN","TX",76549,30.9366974970001,-97.795218581,132,"382 WHISPERING OAKS LOOP, KILLEEN, TX, 76549","Match","Exact","382 WHISPERING OAKS LOOP, KILLEEN, TX, 76549",648777399,"R"
192633,"382 WHITLOCK WILLOW WAY NW","MARIETTA","GA",30064,33.9525312600001,-84.563773437,133,"382 WHITLOCK WILLOW WAY NW, MARIETTA, GA, 30064","Match","Exact","382 WHITLOCK WILLOW WAY NW, MARIETTA, GA, 30064",17206853,"L"
192634,"382 WOODLAND PLACE","SOUTH ORANGE","NJ",7079,40.750582842,-74.247343676,134,"382 WOODLAND PLACE, SOUTH ORANGE, NJ, 7079","Match","Exact","382 WOODLAND PL, SOUTH ORANGE, NJ, 07079",63472113,"R"
192635,"3820 BROOKE LAKES DR","FORT MEADE","FL",33841,27.760710725,-81.743402744,135,"3820 BROOKE LAKES DR, FORT MEADE, FL, 33841","Match","Exact","3820 BROOKE LAKES DR, FORT MEADE, FL, 33841",625001619,"R"
192636,"3820 CENTRAL AVE NUM 146","CHEYENNE","WY",82001,41.1507482380001,-104.822483531,136,"3820 CENTRAL AVE NUM 146, CHEYENNE, WY, 82001","Match","Exact","3820 CENTRAL AVE, CHEYENNE, WY, 82001",160149153,"L"
192637,"3820 CENTRAL AVE NUM 183","CHEYENNE","FL",82001,NA,NA,137,"3820 CENTRAL AVE NUM 183, CHEYENNE, FL, 82001","No_Match",NA,NA,NA,NA
192638,"3820 COTSWOLD AVE APT F","GREENSBORO","NC",27410,36.1367846900001,-79.8544144969999,138,"3820 COTSWOLD AVE APT F, GREENSBORO, NC, 27410","Match","Exact","3820 COTSWOLD AVE, GREENSBORO, NC, 27410",651894231,"R"
192639,"3820 E BLACKLIDGE","TUCSON","AZ",85716,32.261469204,-110.911526206,139,"3820 E BLACKLIDGE, TUCSON, AZ, 85716","Match","Non_Exact","3820 E BLACKLIDGE DR, TUCSON, AZ, 85716",652597201,"R"
192640,"3820 GARMON MILL ROAD","MIDLAND","NC",28107,35.224763608,-80.5107685409999,140,"3820 GARMON MILL ROAD, MIDLAND, NC, 28107","Match","Exact","3820 GARMON MILL RD, MIDLAND, NC, 28107",24892781,"R"
192641,"3820 HAINES STREET UNIT 7","SAN DIEGO","CA",92109,32.7888015140001,-117.239465697,141,"3820 HAINES STREET UNIT 7, SAN DIEGO, CA, 92109","Match","Exact","3820 HAINES ST, SAN DIEGO, CA, 92109",195303370,"L"
192642,"3820 HAZARD ST","HOUSTON","TX",77098,29.738388081,-95.4071044459999,142,"3820 HAZARD ST, HOUSTON, TX, 77098","Match","Exact","3820 HAZARD ST, HOUSTON, TX, 77098",96064077,"R"
192643,"3820 LAKE ST","HOUSTON","TX",77098,29.7329820740001,-95.419861163,143,"3820 LAKE ST, HOUSTON, TX, 77098","Match","Exact","3820 LAKE ST, HOUSTON, TX, 77098",96063207,"R"
192644,"3820 LINK RD","LITHIA","FL",33547,27.8543385460001,-82.068920466,144,"3820 LINK RD, LITHIA, FL, 33547","Match","Exact","3820 LINK RD, LITHIA, FL, 33547",104631384,"L"
192645,"3820 MERTON DRIVE  SUITE 200","RALEIGH","NC",27609,35.829575624,-78.63322135,145,"3820 MERTON DRIVE  SUITE 200, RALEIGH, NC, 27609","Match","Exact","3820 MERTON DR, RALEIGH, NC, 27609",72507169,"R"
192646,"3820 MUNDY MILL ROAD","OAKWOOD","GA",30566,NA,NA,146,"3820 MUNDY MILL ROAD, OAKWOOD, GA, 30566","No_Match",NA,NA,NA,NA
192647,"3820 N 13TH STREET","ROGERS","AR",72756,36.373883231,-94.133663365,147,"3820 N 13TH STREET, ROGERS, AR, 72756","Match","Exact","3820 N 13TH ST, ROGERS, AR, 72756",47833374,"L"
192648,"3820 N FREMONT ST UNIT 1","CHICAGO","IL",60613,41.951884647,-87.652046639,148,"3820 N FREMONT ST UNIT 1, CHICAGO, IL, 60613","Match","Non_Exact","3820 N FREMONT ST, CHICAGO, IL, 60613",605237132,"L"
192649,"3820 NATHAN WAY","PALO ALTO","CA",94303,37.426368505,-122.105652793,149,"3820 NATHAN WAY, PALO ALTO, CA, 94303","Match","Exact","3820 NATHAN WAY, PALO ALTO, CA, 94303",122953354,"R"
192650,"3820 NORTH WATKINS","MEMPHIS","TN",38127,35.2290074960001,-90.003195426,150,"3820 NORTH WATKINS, MEMPHIS, TN, 38127","Match","Non_Exact","3820 N WATKINS ST, MEMPHIS, TN, 38127",607397627,"R"
192651,"3820 NW HAYES AVENUE","CORVALLIS","OR",97330,44.581225519,-123.293341003,151,"3820 NW HAYES AVENUE, CORVALLIS, OR, 97330","Match","Exact","3820 NW HAYES AVE, CORVALLIS, OR, 97330",155846571,"R"
192652,"3820 ORANGE LAKE DRIVE","ORLANDO","FL",32817,28.596069889,-81.2674681459999,152,"3820 ORANGE LAKE DRIVE, ORLANDO, FL, 32817","Match","Exact","3820 ORANGE LAKE DR, ORLANDO, FL, 32817",606102211,"R"
192653,"3820 PACIFIC AVENUE","LONG BEACH","CA",90807,33.827278678,-118.194684949,153,"3820 PACIFIC AVENUE, LONG BEACH, CA, 90807","Match","Non_Exact","3820 N PACIFIC AVE, LONG BEACH, CA, 90807",141686109,"R"
192654,"3820 PACKARD ROAD SUITE 250","ANN ARBOR","MI",48108,42.2454276830001,-83.6850100789999,154,"3820 PACKARD ROAD SUITE 250, ANN ARBOR, MI, 48108","Match","Exact","3820 PACKARD RD, ANN ARBOR, MI, 48108",26048410,"R"
192655,"3820 PARK BLVD APT 21","PALO ALTO","CA",94306,37.420322845,-122.128768746,155,"3820 PARK BLVD APT 21, PALO ALTO, CA, 94306","Match","Exact","3820 PARK BLVD, PALO ALTO, CA, 94306",122952336,"R"
192656,"3820 PLEASANT HILL RD SUITE 3","DULUTH","GA",30096,33.9957985780001,-84.162454383,156,"3820 PLEASANT HILL RD SUITE 3, DULUTH, GA, 30096","Match","Exact","3820 PLEASANT HILL RD, DULUTH, GA, 30096",88919692,"R"
192657,"3820 QUINNEY XING STREET SE","CONYERS","GA",30013,NA,NA,157,"3820 QUINNEY XING STREET SE, CONYERS, GA, 30013","No_Match",NA,NA,NA,NA
192658,"3820 ROCHE STREET","HOBART","IN",46342,41.549003649,-87.288023298,158,"3820 ROCHE STREET, HOBART, IN, 46342","Match","Exact","3820 ROCHE ST, HOBART, IN, 46342",98435542,"R"
192659,"3820 ROSWELL RD NE","ATLANTA","GA",30342,33.8587894300001,-84.3808528229999,159,"3820 ROSWELL RD NE, ATLANTA, GA, 30342","Match","Non_Exact","3820 ROSWELL RD, ATLANTA, GA, 30342",618356523,"L"
192660,"3820 S COCHRAN AVE","LOS ANGELES","CA",90008,34.017490294,-118.361185746,160,"3820 S COCHRAN AVE, LOS ANGELES, CA, 90008","Match","Exact","3820 S COCHRAN AVE, LOS ANGELES, CA, 90008",141601389,"L"
192661,"3820 SE SILVERLAKE VIEW","BARTLESVILLE","OK",74006,36.6954051550001,-95.934616617,161,"3820 SE SILVERLAKE VIEW, BARTLESVILLE, OK, 74006","Match","Non_Exact","3820 SILVER LAKE VW, BARTLESVILLE, OK, 74006",18707871,"R"
192662,"3820 SOLSTICE AVE","MERCED","CA",95348,37.336747815,-120.487811585,162,"3820 SOLSTICE AVE, MERCED, CA, 95348","Match","Exact","3820 SOLSTICE AVE, MERCED, CA, 95348",641277913,"R"
192663,"3820 SOMERSET DRIVE","LOS ANGELES","CA",90008,34.0166700570001,-118.33742757,163,"3820 SOMERSET DRIVE, LOS ANGELES, CA, 90008","Match","Exact","3820 SOMERSET DR, LOS ANGELES, CA, 90008",652033758,"L"
192664,"3820 SW 48TH CT","FORT LAUDERDALE","FL",33312,26.062482173,-80.197126093,164,"3820 SW 48TH CT, FORT LAUDERDALE, FL, 33312","Match","Exact","3820 SW 48TH CT, FORT LAUDERDALE, FL, 33312",114818656,"R"
192665,"3820 SWEET BRIAR DR","MEDINA","OH",44256,41.1719868490001,-81.7505740129999,165,"3820 SWEET BRIAR DR, MEDINA, OH, 44256","Match","Exact","3820 SWEET BRIAR DR, MEDINA, OH, 44256",58684920,"L"
192666,"3820 TALLGRASS PRAIRIE LANE 4203","FORT WORTH","TX",76105,NA,NA,166,"3820 TALLGRASS PRAIRIE LANE 4203, FORT WORTH, TX, 76105","No_Match",NA,NA,NA,NA
192667,"3820 TAPESTRY COURT","PLANO","TX",75075,33.0338187040001,-96.766058822,167,"3820 TAPESTRY COURT, PLANO, TX, 75075","Match","Exact","3820 TAPESTRY CT, PLANO, TX, 75075",210505786,"R"
192668,"3820 VALENTINE MILL RD","GORDONSVILLE","VA",22942,38.079590024,-78.113298771,168,"3820 VALENTINE MILL RD, GORDONSVILLE, VA, 22942","Match","Exact","3820 VALENTINE MILL RD, GORDONSVILLE, VA, 22942",84935795,"R"
192669,"3820 VITRUVIAN WAY APT 534","ADDISON","TX",75001,32.9357342000001,-96.8518945609999,169,"3820 VITRUVIAN WAY APT 534, ADDISON, TX, 75001","Match","Exact","3820 VITRUVIAN WAY, ADDISON, TX, 75001",639551775,"R"
192670,"3820 VITRUVIAN WAY","ADDISON","TX",75001,32.9357342000001,-96.8518945609999,170,"3820 VITRUVIAN WAY, ADDISON, TX, 75001","Match","Exact","3820 VITRUVIAN WAY, ADDISON, TX, 75001",639551775,"R"
192671,"3820 W HAPPY VALLEY RD  STE 141 223","GLENDALE","AZ",85310,33.7127782950001,-112.142414568,171,"3820 W HAPPY VALLEY RD  STE 141 223, GLENDALE, AZ, 85310","Match","Non_Exact","3820 W HAPPY VALLEY RD, GLENDALE, AZ, 85310",243922072,"R"
192672,"3820 W OGDEN AVE","CHICAGO","IL",60623,NA,NA,172,"3820 W OGDEN AVE, CHICAGO, IL, 60623","Tie",NA,NA,NA,NA
192673,"3820 WESTWICK TRACE","KENNESAW","GA",30152,34.0063993380001,-84.662566377,173,"3820 WESTWICK TRACE, KENNESAW, GA, 30152","Match","Non_Exact","3820 WESTWICK TRCE NW, KENNESAW, GA, 30152",17225658,"L"
192674,"3820 YELLOWSTONE CT N","PLYMOUTH","MN",55446,45.024400423,-93.518556369,174,"3820 YELLOWSTONE CT N, PLYMOUTH, MN, 55446","Match","Exact","3820 YELLOWSTONE CT N, PLYMOUTH, MN, 55446",43661652,"L"
192675,"3821 AMHERST AVENUE","DALLAS","TX",75225,32.852024398,-96.797238874,175,"3821 AMHERST AVENUE, DALLAS, TX, 75225","Match","Exact","3821 AMHERST AVE, DALLAS, TX, 75225",102906300,"L"
192676,"3821 ATTUCKS DRIVE","POWELL","OH",43065,40.1546261130001,-83.0896556659999,176,"3821 ATTUCKS DRIVE, POWELL, OH, 43065","Match","Exact","3821 ATTUCKS DR, POWELL, OH, 43065",637207452,"L"
192677,"3821 BASELINE RD","LITTLE ROCK","AR",72209,34.6680696670001,-92.321199456,177,"3821 BASELINE RD, LITTLE ROCK, AR, 72209","Match","Exact","3821 BASELINE RD, LITTLE ROCK, AR, 72209",83558963,"L"
192678,"3821 BONSALL AVENUE","DREXEL HILL","PA",19026,39.9464393900001,-75.301260858,178,"3821 BONSALL AVENUE, DREXEL HILL, PA, 19026","Match","Exact","3821 BONSALL AVE, DREXEL HILL, PA, 19026",134876444,"R"
192679,"3821 BRYAN AVE","FORT WORTH","TX",76110,32.692890967,-97.325028214,179,"3821 BRYAN AVE, FORT WORTH, TX, 76110","Match","Exact","3821 BRYAN AVE, FORT WORTH, TX, 76110",101892265,"L"
192680,"3821 C EAST HIGHWAY 160","PAGOSA SPRINGS","CO",81147,NA,NA,180,"3821 C EAST HIGHWAY 160, PAGOSA SPRINGS, CO, 81147","No_Match",NA,NA,NA,NA
192681,"3821 CASTLEBERRY DRIVE","TALLAHASSEE","FL",32303,30.5046181920001,-84.339854187,181,"3821 CASTLEBERRY DRIVE, TALLAHASSEE, FL, 32303","Match","Exact","3821 CASTLEBERRY DR, TALLAHASSEE, FL, 32303",82886551,"R"
192682,"3821 COLONY CROSSING DRIVE","CHARLOTTE","NC",28226,35.143441249,-80.818662901,182,"3821 COLONY CROSSING DRIVE, CHARLOTTE, NC, 28226","Match","Exact","3821 COLONY CROSSING DR, CHARLOTTE, NC, 28226",70489887,"L"
192683,"3821 DANFIELD LANE","NORMAN","OK",73072,35.245087692,-97.499362312,183,"3821 DANFIELD LANE, NORMAN, OK, 73072","Match","Exact","3821 DANFIELD LN, NORMAN, OK, 73072",617928160,"R"
192684,"3821 E HUNTINGTON BLVD","FRESNO","CA",93702,36.7393883570001,-119.76062918,184,"3821 E HUNTINGTON BLVD, FRESNO, CA, 93702","Match","Exact","3821 E HUNTINGTON BLVD, FRESNO, CA, 93702",197580768,"L"
192685,"3821 ENDICOTT PL SPRINGDALE","SPRINGDALE","MD",20774,38.943266169,-76.845128465,185,"3821 ENDICOTT PL SPRINGDALE, SPRINGDALE, MD, 20774","Match","Exact","3821 ENDICOTT PL, SPRINGDALE, MD, 20774",76341558,"R"
192686,"3821 FARABAUGH LANE","PUEBLO","CO",81005,38.215652876,-104.657302801,186,"3821 FARABAUGH LANE, PUEBLO, CO, 81005","Match","Exact","3821 FARABAUGH LN, PUEBLO, CO, 81005",105022867,"R"
192687,"3821 GREENWILLOW LN","IDAHO FALLS","ID",83401,43.5048387950001,-111.958045603,187,"3821 GREENWILLOW LN, IDAHO FALLS, ID, 83401","Match","Exact","3821 GREENWILLOW LN, IDAHO FALLS, ID, 83401",119146606,"L"
192688,"3821 HAMILTON ST UNIT 303","HYATTSVILLE","MD",20781,38.9531164950001,-76.9541635699999,188,"3821 HAMILTON ST UNIT 303, HYATTSVILLE, MD, 20781","Match","Exact","3821 HAMILTON ST, HYATTSVILLE, MD, 20781",76339194,"R"
192689,"3821 HILLSHIRE DRIVE","ANTIOCH","TN",37013,36.081827015,-86.598638309,189,"3821 HILLSHIRE DRIVE, ANTIOCH, TN, 37013","Match","Exact","3821 HILLSHIRE DR, ANTIOCH, TN, 37013",97207621,"L"
192690,"3821 JUNIPER TRACE  STE 208","BEE CAVE","TX",78738,30.3079939580001,-97.934390244,190,"3821 JUNIPER TRACE  STE 208, BEE CAVE, TX, 78738","Match","Exact","3821 JUNIPER TRCE, BEE CAVE, TX, 78738",64018758,"R"
192691,"3821 MORROW STREET","SHREVEPORT","LA",71105,32.458335999,-93.800153682,191,"3821 MORROW STREET, SHREVEPORT, LA, 71105","Match","Non_Exact","3821 MORROW ST, SHREVEPORT, LA, 71109",57460295,"L"
192692,"3821 N 51ST AVE","HOLLYWOOD","FL",33021,26.044113469,-80.195101224,192,"3821 N 51ST AVE, HOLLYWOOD, FL, 33021","Match","Exact","3821 N 51ST AVE, HOLLYWOOD, FL, 33021",114716745,"R"
192693,"3821 N MILWAUKEE AVE UNIT D","CHICAGO","OH",60641,NA,NA,193,"3821 N MILWAUKEE AVE UNIT D, CHICAGO, OH, 60641","No_Match",NA,NA,NA,NA
192694,"3821 NE 16TH AVE","OAKLAND PARK","FL",33334,26.1744638600001,-80.1262213539999,194,"3821 NE 16TH AVE, OAKLAND PARK, FL, 33334","Match","Exact","3821 NE 16TH AVE, OAKLAND PARK, FL, 33334",114724387,"R"
192695,"3821 NORTH MACGREGOR WAY","HOUSTON","TX",77004,29.710031244,-95.354913656,195,"3821 NORTH MACGREGOR WAY, HOUSTON, TX, 77004","Match","Exact","3821 N MACGREGOR WAY, HOUSTON, TX, 77004",96610273,"L"
192696,"3821 NW 108TH DR","CORAL SPRINGS","FL",33065,26.277749848,-80.271155777,196,"3821 NW 108TH DR, CORAL SPRINGS, FL, 33065","Match","Exact","3821 NW 108TH DR, CORAL SPRINGS, FL, 33065",114689903,"R"
192697,"3821 PARK RIDGE AVE","PAHRUMP","NV",89048,36.164084286,-115.968370109,197,"3821 PARK RIDGE AVE, PAHRUMP, NV, 89048","Match","Exact","3821 PARK RIDGE AVE, PAHRUMP, NV, 89048",140593496,"R"
192698,"3821 PINWOOD CIR","NORTON","OH",44203,41.0297613160001,-81.629141051,198,"3821 PINWOOD CIR, NORTON, OH, 44203","Match","Exact","3821 PINWOOD CIR, NORTON, OH, 44203",61388974,"L"
192699,"3821 ROCKY MOUND DRIVE","WENTZVILLE","MO",63385,38.8221397180001,-90.889515619,199,"3821 ROCKY MOUND DRIVE, WENTZVILLE, MO, 63385","Match","Exact","3821 ROCKY MOUND DR, WENTZVILLE, MO, 63385",100066415,"R"
192700,"3821 SE HILLSIDE DR","MILWAUKIE","OR",97267,45.3937195620001,-122.623989645,200,"3821 SE HILLSIDE DR, MILWAUKIE, OR, 97267","Match","Exact","3821 SE HILLSIDE DR, MILWAUKIE, OR, 97267",157942785,"L"
192701,"3821 SOUTH 6660 WEST","WEST VALLEY CITY","UT",84128,40.6888513270001,-112.050127188,201,"3821 SOUTH 6660 WEST, WEST VALLEY CITY, UT, 84128","Match","Exact","3821 S 6660 W, WEST VALLEY CITY, UT, 84128",176063981,"L"
192702,"3821 SOUTHERN AVE","SHREVEPORT","LA",71106,32.47044507,-93.754989613,202,"3821 SOUTHERN AVE, SHREVEPORT, LA, 71106","Match","Exact","3821 SOUTHERN AVE, SHREVEPORT, LA, 71106",57437079,"L"
192703,"3821 SW EVERGREEN LN","LEES SUMMIT","MO",64082,38.849805674,-94.38510654,203,"3821 SW EVERGREEN LN, LEES SUMMIT, MO, 64082","Match","Exact","3821 SW EVERGREEN LN, LEES SUMMIT, MO, 64082",91523905,"L"
192704,"3821 W CAMINO DEL RIO","GLENDALE","AZ",85310,NA,NA,204,"3821 W CAMINO DEL RIO, GLENDALE, AZ, 85310","No_Match",NA,NA,NA,NA
192705,"3821 W LAKE STREET","CHICAGO","IL",60624,41.8852357640001,-87.721468954,205,"3821 W LAKE STREET, CHICAGO, IL, 60624","Match","Exact","3821 W LAKE ST, CHICAGO, IL, 60624",616783217,"L"
192706,"38215 RICHLOAM CLAY SINK RD","WEBSTER","FL",33597,28.5014642730001,-82.113313117,206,"38215 RICHLOAM CLAY SINK RD, WEBSTER, FL, 33597","Match","Exact","38215 RICHLOAM CLAY SINK RD, WEBSTER, FL, 33597",85453901,"R"
192707,"3821B TAMIAMI TRAIL SUITE  317","PORT CHARLOTTE","FL",33952,26.972374976,-82.086271524,207,"3821B TAMIAMI TRAIL SUITE  317, PORT CHARLOTTE, FL, 33952","Match","Exact","3821 TAMIAMI TRL, PORT CHARLOTTE, FL, 33952",610490298,"L"
192708,"3821B TAMIAMI TRAIL SUITE 317","PORT CHARLOTTE","FL",33952,26.972374976,-82.086271524,208,"3821B TAMIAMI TRAIL SUITE 317, PORT CHARLOTTE, FL, 33952","Match","Exact","3821 TAMIAMI TRL, PORT CHARLOTTE, FL, 33952",610490298,"L"
192709,"3821K BROCKETT TRAIL","CLARKSON","GA",30021,33.8220911920001,-84.2327990429999,209,"3821K BROCKETT TRAIL, CLARKSON, GA, 30021","Match","Non_Exact","3821 BROCKETT TRL, CLARKSTON, GA, 30021",23362933,"L"
192710,"3822 186TH PL SE","BOTHELL","WA",98012,47.8282294410001,-122.181722898,210,"3822 186TH PL SE, BOTHELL, WA, 98012","Match","Exact","3822 186 PL SE, BOTHELL, WA, 98012",608926368,"R"
192711,"3822 2ND STREET SE SUITE 101","WASHINGTON","DC",20032,38.834941438,-77.0028110119999,211,"3822 2ND STREET SE SUITE 101, WASHINGTON, DC, 20032","Match","Exact","3822 2ND ST SE, WASHINGTON, DC, 20032",76232583,"L"
192712,"3822 ABATTOIR RD","ANGIER","NC",27501,35.458614691,-78.648795176,212,"3822 ABATTOIR RD, ANGIER, NC, 27501","Match","Exact","3822 ABATTOIR RD, ANGIER, NC, 27501",650719099,"R"
192713,"3822 BUSSE STREET","MADISON","WI",53714,43.0859301410001,-89.324753228,213,"3822 BUSSE STREET, MADISON, WI, 53714","Match","Exact","3822 BUSSE ST, MADISON, WI, 53714",49487111,"L"
192714,"3822 CEDARBROOK CT","NORMAN","OK",73072,35.226144774,-97.4977273539999,214,"3822 CEDARBROOK CT, NORMAN, OK, 73072","Match","Exact","3822 CEDARBROOK CT, NORMAN, OK, 73072",99914191,"L"
192715,"3822 CORLISS AVE N","SEATTLE","WA",98103,47.6534330970001,-122.33145734,215,"3822 CORLISS AVE N, SEATTLE, WA, 98103","Match","Exact","3822 CORLISS AVE N, SEATTLE, WA, 98103",186583011,"R"
192716,"3822 EDGEWATER STREET","HIGH POINT","NC",27265,36.018586918,-80.006041594,216,"3822 EDGEWATER STREET, HIGH POINT, NC, 27265","Match","Exact","3822 EDGEWATER ST, HIGH POINT, NC, 27265",131064266,"L"
192717,"3822 GRAPE CREEK RD","SAN ANGELO","TX",76903,31.4984381470001,-100.462292395,217,"3822 GRAPE CREEK RD, SAN ANGELO, TX, 76903","Match","Exact","3822 GRAPE CREEK RD, SAN ANGELO, TX, 76903",190695852,"R"
192718,"3822 HARRISON AVE","BROOKFIELD","IL",60513,41.8214827630001,-87.85615847,218,"3822 HARRISON AVE, BROOKFIELD, IL, 60513","Match","Exact","3822 HARRISON AVE, BROOKFIELD, IL, 60513",111792373,"R"
192719,"3822 HUELVA COURT","NAPLES","FL",34109,26.235587309,-81.746827805,219,"3822 HUELVA COURT, NAPLES, FL, 34109","Match","Exact","3822 HUELVA CT, NAPLES, FL, 34109",115152256,"R"
192720,"3822 LEAFY WAY","MIAMI","FL",33133,25.7188282610001,-80.254637525,220,"3822 LEAFY WAY, MIAMI, FL, 33133","Match","Exact","3822 LEAFY WAY, MIAMI, FL, 33133",116264125,"L"
192721,"3822 PANORAMA DRIVE","MISSOURI CITY","TX",77459,29.5669315430001,-95.5372345439999,221,"3822 PANORAMA DRIVE, MISSOURI CITY, TX, 77459","Match","Exact","3822 PANORAMA DR, MISSOURI CITY, TX, 77459",645479009,"R"
192722,"3822 S WESTMONT AVE","BLOOMINGTON","IN",47403,39.1257039270001,-86.619739411,222,"3822 S WESTMONT AVE, BLOOMINGTON, IN, 47403","Match","Exact","3822 S WESTMONT AVE, BLOOMINGTON, IN, 47403",42320538,"L"
192723,"3822 SPRUCE ST","RACINE","WI",53403,42.6852990790001,-87.815304607,223,"3822 SPRUCE ST, RACINE, WI, 53403","Match","Exact","3822 SPRUCE ST, RACINE, WI, 53403",77911833,"R"
192724,"3822 SW 39TH STREET","TOPEKA","KS",66610,38.9964263850001,-95.725586645,224,"3822 SW 39TH STREET, TOPEKA, KS, 66610","Match","Exact","3822 SW 39TH ST, TOPEKA, KS, 66610",640615502,"L"
192725,"3822 UNIT K DRY BROOK RD","CHARLOTTE","NC",28269,NA,NA,225,"3822 UNIT K DRY BROOK RD, CHARLOTTE, NC, 28269","No_Match",NA,NA,NA,NA
192726,"3822 W HAYFORD ST","CHICAGO","IL",60652,41.7557189070001,-87.718971631,226,"3822 W HAYFORD ST, CHICAGO, IL, 60652","Match","Exact","3822 W HAYFORD ST, CHICAGO, IL, 60652",111816692,"R"
192727,"3822 W HEMLOCK ST","MILWAILEE","WI",53209,43.1527378600001,-87.959803015,227,"3822 W HEMLOCK ST, MILWAILEE, WI, 53209","Match","Non_Exact","3822 W HEMLOCK ST, MILWAUKEE, WI, 53209",77735153,"R"
192728,"3822 WELLINGTON CT","WEST LINN","CA",97068,NA,NA,228,"3822 WELLINGTON CT, WEST LINN, CA, 97068","No_Match",NA,NA,NA,NA
192729,"3822 WHITEHEAD BLVD","PANAMA CITY","FL",32404,30.205268844,-85.598962673,229,"3822 WHITEHEAD BLVD, PANAMA CITY, FL, 32404","Match","Exact","3822 WHITEHEAD BLVD, PANAMA CITY, FL, 32404",650811849,"L"
192730,"3822 WHITMIRE HWY","UNION","SC",29379,34.621628184,-81.597230252,230,"3822 WHITMIRE HWY, UNION, SC, 29379","Match","Exact","3822 WHITMIRE HWY, UNION, SC, 29379",19725639,"L"
192731,"3822 YELLOWSTONE ST","IRVING","TX",75062,32.8397780440001,-97.002244687,231,"3822 YELLOWSTONE ST, IRVING, TX, 75062","Match","Exact","3822 YELLOWSTONE ST, IRVING, TX, 75062",102886002,"L"
192732,"3823 37TH AVE S","SEATTLE","WA",98118,47.569424547,-122.286124078,232,"3823 37TH AVE S, SEATTLE, WA, 98118","Match","Exact","3823 37TH AVE S, SEATTLE, WA, 98118",186669487,"R"
192733,"3823 ASHBURY ROAD","ROUND ROCK","TX",78681,30.566251698,-97.7492462389999,233,"3823 ASHBURY ROAD, ROUND ROCK, TX, 78681","Match","Exact","3823 ASHBURY RD, ROUND ROCK, TX, 78681",648535853,"L"
192734,"3823 AUGUSTINE PLACE","REX","GA",30273,33.5756559590001,-84.2666878209999,234,"3823 AUGUSTINE PLACE, REX, GA, 30273","Match","Exact","3823 AUGUSTINE PL, REX, GA, 30273",649999008,"R"
192735,"3823 AUTUMN DRIVE","REDWOOD CITY","CA",94061,37.456292139,-122.256290882,235,"3823 AUTUMN DRIVE, REDWOOD CITY, CA, 94061","Match","Exact","3823 AUTUMN DR, REDWOOD CITY, CA, 94061",192386075,"L"
192736,"3823 BUSH CREEK DRIVE","FREDERICK","MD",21704,39.337325875,-77.354071674,236,"3823 BUSH CREEK DRIVE, FREDERICK, MD, 21704","Match","Exact","3823 BUSH CREEK DR, FREDERICK, MD, 21704",60748169,"L"
192737,"3823 COUNTY ROAD 4220","COMMERCE","TX",75428,33.245214887,-95.863301091,237,"3823 COUNTY ROAD 4220, COMMERCE, TX, 75428","Match","Exact","3823 CO RD 4220, COMMERCE, TX, 75428",652079527,"R"
192738,"3823 DAMIAN DR","ZEPHYRHILLS","FL",33542,28.2130402270001,-82.234937298,238,"3823 DAMIAN DR, ZEPHYRHILLS, FL, 33542","Match","Non_Exact","3823 DAMIAN DR, ZEPHYRHILLS, FL, 33541",86369169,"R"
192739,"3823 HIGHWAY 41 S","FORSYTH","GA",31029,NA,NA,239,"3823 HIGHWAY 41 S, FORSYTH, GA, 31029","No_Match",NA,NA,NA,NA
192740,"3823 N DUSTIN","FARMINGTON","NM",87401,36.7639059700001,-108.201472108,240,"3823 N DUSTIN, FARMINGTON, NM, 87401","Match","Non_Exact","3823 N DUSTIN AVE, FARMINGTON, NM, 87401",646611009,"R"
192741,"3823 PINE AVE","LONG BEACH","CA",90807,33.8273148070001,-118.193248311,241,"3823 PINE AVE, LONG BEACH, CA, 90807","Match","Exact","3823 PINE AVE, LONG BEACH, CA, 90807",141686111,"L"
192742,"3823 S GIBRALTAR ST","AURORA","CO",80013,39.6470157580001,-104.75664314,242,"3823 S GIBRALTAR ST, AURORA, CO, 80013","Match","Exact","3823 S GIBRALTAR ST, AURORA, CO, 80013",177358893,"R"
192743,"3823 SHAW SSTREET","COLUMBIA","SC",29203,34.0382429590001,-81.024334672,243,"3823 SHAW SSTREET, COLUMBIA, SC, 29203","Match","Non_Exact","3823 SHAW ST, COLUMBIA, SC, 29203",622679846,"L"
192744,"3823 STRINGTOWN ROAD","FULTS","IL",62244,38.1834948270001,-90.2233581199999,244,"3823 STRINGTOWN ROAD, FULTS, IL, 62244","Match","Exact","3823 STRINGTOWN RD, FULTS, IL, 62244",116442739,"L"
192745,"3823 WEST 12TH STREET - SUITE 9B","ERIE","PA",16505,42.091453974,-80.168094159,245,"3823 WEST 12TH STREET - SUITE 9B, ERIE, PA, 16505","Match","Exact","3823 W 12TH ST, ERIE, PA, 16505",117492469,"L"
192746,"38232 PALMER ROAD","COLTON POINT","MD",20626,38.2325043700001,-76.754798168,246,"38232 PALMER ROAD, COLTON POINT, MD, 20626","Match","Non_Exact","38232 PALMER RD, COLTONS POINT, MD, 20626",36610545,"L"
192747,"38234 CHELTENHAM DR","WILLOUGHBY","OH",44094,41.6614552300001,-81.405609554,247,"38234 CHELTENHAM DR, WILLOUGHBY, OH, 44094","Match","Exact","38234 CHELTENHAM DR, WILLOUGHBY, OH, 44094",137462872,"L"
192748,"38234 PARKMONT DR","FREMONT","CA",94536,37.559001424,-121.989681965,248,"38234 PARKMONT DR, FREMONT, CA, 94536","Match","Exact","38234 PARKMONT DR, FREMONT, CA, 94536",125040425,"L"
192749,"38235 247TH AVE SE","ENUMCLAW","WA",98022,47.2574236670001,-122.01301928,249,"38235 247TH AVE SE, ENUMCLAW, WA, 98022","Match","Exact","38235 247TH AVE SE, ENUMCLAW, WA, 98022",186634061,"L"
192750,"38237 ANNA B STREET","REHOBOTH","DE",19971,38.7045475680001,-75.083495429,250,"38237 ANNA B STREET, REHOBOTH, DE, 19971","Match","Non_Exact","38237 ANNA B ST, REHOBOTH BCH, DE, 19971",106131155,"L"
192751,"3824 5TH STREET NW","WASHINGTON","DC",20011,38.9380801520001,-77.019012031,251,"3824 5TH STREET NW, WASHINGTON, DC, 20011","Match","Exact","3824 5TH ST NW, WASHINGTON, DC, 20011",76223692,"L"
192752,"3824 BROADWAY AVE","SHEBOYGAN FALLS","WI",53085,43.713088752,-87.79318284,252,"3824 BROADWAY AVE, SHEBOYGAN FALLS, WI, 53085","Match","Non_Exact","3824 BROADWAY RD, SHEBOYGAN FALLS, WI, 53085",79512274,"R"
192753,"3824 CAT MINT ST","TAMPA","FL",33619,NA,NA,253,"3824 CAT MINT ST, TAMPA, FL, 33619","No_Match",NA,NA,NA,NA
192754,"3824 CEDAR SPRINGS RD SUITE 1192","DALLAS","TX",75219,32.809572659,-96.8093275859999,254,"3824 CEDAR SPRINGS RD SUITE 1192, DALLAS, TX, 75219","Match","Exact","3824 CEDAR SPRINGS RD, DALLAS, TX, 75219",103199265,"R"
192755,"3824 CEDAR SPRINGS ROAD  801-5149","DALLAS","TX",75219,32.809572659,-96.8093275859999,255,"3824 CEDAR SPRINGS ROAD  801-5149, DALLAS, TX, 75219","Match","Exact","3824 CEDAR SPRINGS RD, DALLAS, TX, 75219",103199265,"R"
192756,"3824 CEDAR SPRINGS ROAD  STE 504","DALLAS","TX",75219,32.809572659,-96.8093275859999,256,"3824 CEDAR SPRINGS ROAD  STE 504, DALLAS, TX, 75219","Match","Exact","3824 CEDAR SPRINGS RD, DALLAS, TX, 75219",103199265,"R"
192757,"3824 CEDAR SPRINGS ROAD BOX 429","DALLAS","TX",75219,32.809572659,-96.8093275859999,257,"3824 CEDAR SPRINGS ROAD BOX 429, DALLAS, TX, 75219","Match","Exact","3824 CEDAR SPRINGS RD, DALLAS, TX, 75219",103199265,"R"
192758,"3824 CEDAR SPRINGS ROAD NUMBER 150","DALLAS","TX",75219,32.809572659,-96.8093275859999,258,"3824 CEDAR SPRINGS ROAD NUMBER 150, DALLAS, TX, 75219","Match","Exact","3824 CEDAR SPRINGS RD, DALLAS, TX, 75219",103199265,"R"
192759,"3824 CORWIN ROAD","GARNER","NC",27529,35.7271852380001,-78.612940897,259,"3824 CORWIN ROAD, GARNER, NC, 27529","Match","Exact","3824 CORWIN RD, GARNER, NC, 27529",72511616,"L"
192760,"3824 EAST 93RD STREET","CLEVELAND","OH",44105,41.454753876,-81.6213864979999,260,"3824 EAST 93RD STREET, CLEVELAND, OH, 44105","Match","Exact","3824 E 93RD ST, CLEVELAND, OH, 44105",61118946,"R"
192761,"3824 EAST LAKEVIEW BLVD","COCOA","FL",32926,NA,NA,261,"3824 EAST LAKEVIEW BLVD, COCOA, FL, 32926","No_Match",NA,NA,NA,NA
192762,"3824 ERSKINE STREET UNIT 22","LUBBOCK","TX",79415,33.606810594,-101.89765414,262,"3824 ERSKINE STREET UNIT 22, LUBBOCK, TX, 79415","Match","Exact","3824 ERSKINE ST, LUBBOCK, TX, 79415",635013978,"R"
192763,"3824 HARDSCRABBLE ROAD","ALEXANDRIA","OH",43001,40.114049918,-82.5876606699999,263,"3824 HARDSCRABBLE ROAD, ALEXANDRIA, OH, 43001","Match","Exact","3824 HARDSCRABBLE RD, ALEXANDRIA, OH, 43001",61512270,"R"
192764,"3824 HICKSWOOD CREEK DRIVE","HIGH POINT","NC",27265,36.0228686510001,-79.969372574,264,"3824 HICKSWOOD CREEK DRIVE, HIGH POINT, NC, 27265","Match","Exact","3824 HICKSWOOD CREEK DR, HIGH POINT, NC, 27265",639617056,"R"
192765,"3824 HILL ROAD","ALLISON PARK","PA",15101,40.5551301240001,-79.939869733,265,"3824 HILL ROAD, ALLISON PARK, PA, 15101","Match","Exact","3824 HILL RD, ALLISON PARK, PA, 15101",51934064,"R"
192766,"3824 HOFFMAN ST","PLANO","IL",60545,41.6689169200001,-88.497176994,266,"3824 HOFFMAN ST, PLANO, IL, 60545","Match","Exact","3824 HOFFMAN ST, PLANO, IL, 60545",600431980,"L"
192767,"3824 HORSEMINT TRAIL","LEXINGTON","KY",40509,37.992281242,-84.411335456,267,"3824 HORSEMINT TRAIL, LEXINGTON, KY, 40509","Match","Exact","3824 HORSEMINT TRL, LEXINGTON, KY, 40509",31954565,"L"
192768,"3824 KING LANE","SAN MATEO","CA",94403,37.5328191190001,-122.294855938,268,"3824 KING LANE, SAN MATEO, CA, 94403","Match","Exact","3824 KING LN, SAN MATEO, CA, 94403",192380149,"R"
192769,"3824 MALIBU COUNTRY DRIVE","MAILBU","CA",90265,34.036198579,-118.711073976,269,"3824 MALIBU COUNTRY DRIVE, MAILBU, CA, 90265","Match","Non_Exact","3824 MALIBU COUNTRY DR, MALIBU, CA, 90265",141534147,"R"
192770,"3824 MISSELL AVE","DURHAM","NC",27713,35.9481721660001,-78.9176561799999,270,"3824 MISSELL AVE, DURHAM, NC, 27713","Match","Exact","3824 MISSELL AVE, DURHAM, NC, 27713",71740958,"R"
192771,"3824 MITCHELL ROAD","CERES","CA",95307,37.5822780390001,-120.93871517,271,"3824 MITCHELL ROAD, CERES, CA, 95307","Match","Exact","3824 MITCHELL RD, CERES, CA, 95307",102592866,"L"
192772,"3824 N MACARTHUR BLVD","WARR ACRES","OK",73122,35.509131606,-97.618928206,272,"3824 N MACARTHUR BLVD, WARR ACRES, OK, 73122","Match","Exact","3824 N MACARTHUR BLVD, WARR ACRES, OK, 73122",100390342,"R"
192773,"3824 N TWIN CITY HWY","NEDERLAND","TX",77627,29.99864955,-94.018205934,273,"3824 N TWIN CITY HWY, NEDERLAND, TX, 77627","Match","Exact","3824 N TWIN CITY HWY, NEDERLAND, TX, 77627",73859085,"R"
192774,"3824 PRATT AVE","BRONX","NY",10466,40.888714517,-73.834471531,274,"3824 PRATT AVE, BRONX, NY, 10466","Match","Exact","3824 PRATT AVE, BRONX, NY, 10466",80297863,"R"
192775,"3824 SE FRANCIS ST","PORTLAND","OR",97202,45.4947539230001,-122.623408657,275,"3824 SE FRANCIS ST, PORTLAND, OR, 97202","Match","Exact","3824 SE FRANCIS ST, PORTLAND, OR, 97202",157514492,"R"
192776,"3824 SHADY MEADOW DRIVE","GRAPEVINE","TX",76051,32.9007038720001,-97.107889368,276,"3824 SHADY MEADOW DRIVE, GRAPEVINE, TX, 76051","Match","Exact","3824 SHADY MEADOW DR, GRAPEVINE, TX, 76051",101933165,"R"
192777,"3824 TUNSTALL DR","FRISCO","TX",75036,33.1578165080001,-96.922041184,277,"3824 TUNSTALL DR, FRISCO, TX, 75036","Match","Exact","3824 TUNSTALL DR, FRISCO, TX, 75036",648082778,"R"
192778,"3824 W BUENA VISTA ST UNIT 2","DETROIT","MI",48238,42.387243418,-83.130611506,278,"3824 W BUENA VISTA ST UNIT 2, DETROIT, MI, 48238","Match","Non_Exact","3824 W BUENA VISTA ST, DETROIT, MI, 48238",95470522,"R"
192779,"3824 W VLIET STREET","MILWAUKEE","WI",53208,43.04875846,-87.9612925339999,279,"3824 W VLIET STREET, MILWAUKEE, WI, 53208","Match","Exact","3824 W VLIET ST, MILWAUKEE, WI, 53208",77734123,"R"
192780,"3824 WAYSIDE ROAD","STUART","VA",24171,36.6220627760001,-80.261154345,280,"3824 WAYSIDE ROAD, STUART, VA, 24171","Match","Exact","3824 WAYSIDE RD, STUART, VA, 24171",56565732,"R"
192781,"38246 500TH AVE","NEW YORK MILLS","MN",56567,46.517022366,-95.45003012,281,"38246 500TH AVE, NEW YORK MILLS, MN, 56567","Match","Exact","38246 500TH AVE, NEW YORK MILLS, MN, 56567",168345469,"R"
192782,"3825 1ST STREET","DES MOINES","IA",50313,41.6300433100001,-93.6187158819999,282,"3825 1ST STREET, DES MOINES, IA, 50313","Match","Exact","3825 1ST ST, DES MOINES, IA, 50313",65781625,"R"
192783,"3825 28TH ST SW","GRANDVILLE","MI",49418,NA,NA,283,"3825 28TH ST SW, GRANDVILLE, MI, 49418","No_Match",NA,NA,NA,NA
192784,"3825 BENTFORD COURT","ORLANDO","FL",32817,28.5960338300001,-81.281629203,284,"3825 BENTFORD COURT, ORLANDO, FL, 32817","Match","Exact","3825 BENTFORD CT, ORLANDO, FL, 32817",94312423,"R"
192785,"3825 CAMBRIDGE ST MAIL STOP 2018","KANSAS CITY","KS",66160,39.058442067,-94.6083722229999,285,"3825 CAMBRIDGE ST MAIL STOP 2018, KANSAS CITY, KS, 66160","Match","Non_Exact","3825 CAMBRIDGE ST, KANSAS CITY, KS, 66103",91148346,"L"
192786,"3825 CRESCENT PARK BLVD","ORLANDO","FL",32812,28.463381719,-81.334518026,286,"3825 CRESCENT PARK BLVD, ORLANDO, FL, 32812","Match","Exact","3825 CRESCENT PARK BLVD, ORLANDO, FL, 32812",94359482,"R"
192787,"3825 DAVANA ROAD","SHERMAN OAKS","CA",91423,34.1407250020001,-118.434233297,287,"3825 DAVANA ROAD, SHERMAN OAKS, CA, 91423","Match","Exact","3825 DAVANA RD, SHERMAN OAKS, CA, 91423",141562558,"L"
192788,"3825 DOUBLE EAGLE DRIVE APT 2927","ORLANDO","FL",32839,28.472932627,-81.422006417,288,"3825 DOUBLE EAGLE DRIVE APT 2927, ORLANDO, FL, 32839","Match","Exact","3825 DOUBLE EAGLE DR, ORLANDO, FL, 32839",648265404,"R"
192789,"3825 DRIFTWOOD DRIVE","SAN ANGELO","TX",76904,31.428613623,-100.490642409,289,"3825 DRIFTWOOD DRIVE, SAN ANGELO, TX, 76904","Match","Exact","3825 DRIFTWOOD DR, SAN ANGELO, TX, 76904",190680383,"L"
192790,"3825 DRY BROOK RD APT C","CHARLOTTE","NC",28269,NA,NA,290,"3825 DRY BROOK RD APT C, CHARLOTTE, NC, 28269","No_Match",NA,NA,NA,NA
192791,"3825 E 183RD STREET","CLEVELAND","OH",44122,41.455563871,-81.550963541,291,"3825 E 183RD STREET, CLEVELAND, OH, 44122","Match","Exact","3825 E 183RD ST, CLEVELAND, OH, 44122",652734871,"L"
192792,"3825 E 2ND ST","TUCSON","AZ",85716,32.234357023,-110.911461391,292,"3825 E 2ND ST, TUCSON, AZ, 85716","Match","Exact","3825 E 2ND ST, TUCSON, AZ, 85716",652597172,"L"
192793,"3825 E CAMELBACK RD 288","PHOENIX","AZ",85018,33.5098670680001,-111.998387212,293,"3825 E CAMELBACK RD 288, PHOENIX, AZ, 85018","Match","Non_Exact","3825 E CAMELBACK RD, PHOENIX, AZ, 85018",128920662,"R"
192794,"3825 E KLEINDALE","TUCSON","AZ",85716,32.2687373700001,-110.911220799,294,"3825 E KLEINDALE, TUCSON, AZ, 85716","Match","Non_Exact","3825 E KLEINDALE RD, TUCSON, AZ, 85716",121168837,"L"
192795,"3825 EASTERN AVE NO 1","CINCINNATI","OH",45226,39.1111803360001,-84.4351672029999,295,"3825 EASTERN AVE NO 1, CINCINNATI, OH, 45226","Match","Non_Exact","3825 EASTERN AVE, CINCINNATI, OH, 45226",103937354,"R"
192796,"3825 FINNEY AVE","ST LOUIS","MO",63113,38.6462683400001,-90.234065435,296,"3825 FINNEY AVE, ST LOUIS, MO, 63113","Match","Exact","3825 FINNEY AVE, SAINT LOUIS, MO, 63113",107597529,"R"
192797,"3825 FLORESTA WAY","LOS ANGELES","CA",90043,33.997457072,-118.341307693,297,"3825 FLORESTA WAY, LOS ANGELES, CA, 90043","Match","Exact","3825 FLORESTA WAY, LOS ANGELES, CA, 90043",141602467,"R"
192798,"3825 FOWLER RD","WEST SACRAMENTO","CA",95691,38.5277140950001,-121.579354938,298,"3825 FOWLER RD, WEST SACRAMENTO, CA, 95691","Match","Exact","3825 FOWLER RD, WEST SACRAMENTO, CA, 95691",606339821,"L"
192799,"3825 HENDERSHOT AVE NW","GRAND RAPIDS","MI",49544,43.0352832630001,-85.749286787,299,"3825 HENDERSHOT AVE NW, GRAND RAPIDS, MI, 49544","Match","Exact","3825 HENDERSHOT AVE NW, GRAND RAPIDS, MI, 49544",642601979,"L"
192800,"3825 HIDDEN FOREST COVE","MEMPHIS","TN",38135,35.2299439990001,-89.886321407,300,"3825 HIDDEN FOREST COVE, MEMPHIS, TN, 38135","Match","Exact","3825 HIDDEN FOREST COVE, MEMPHIS, TN, 38135",72964771,"L"
192801,"3825 HIGH STREET APARTMENT 202","OAKLAND","CA",94619,37.78954207,-122.190725872,301,"3825 HIGH STREET APARTMENT 202, OAKLAND, CA, 94619","Match","Exact","3825 HIGH ST, OAKLAND, CA, 94619",617287785,"L"
192802,"3825 HUNT CHASE DR","GREENSBORO","NC",27407,36.0085684050001,-79.909847478,302,"3825 HUNT CHASE DR, GREENSBORO, NC, 27407","Match","Exact","3825 HUNT CHASE DR, GREENSBORO, NC, 27407",131087428,"L"
192803,"3825 ILLONA LANE","OCEANSIDE","NY",11572,40.618718992,-73.630633717,303,"3825 ILLONA LANE, OCEANSIDE, NY, 11572","Match","Exact","3825 ILLONA LN, OCEANSIDE, NY, 11572",147681952,"R"
192804,"3825 JOHNSTON OEHLER RD STE B104","CHARLOTTE","NC",28269,35.3654734940001,-80.7720774859999,304,"3825 JOHNSTON OEHLER RD STE B104, CHARLOTTE, NC, 28269","Match","Exact","3825 JOHNSTON OEHLER RD, CHARLOTTE, NC, 28269",648556420,"L"
192805,"3825 JOHNSTON OEHLER RD","CHARLOTTE","NC",28269,35.3654734940001,-80.7720774859999,305,"3825 JOHNSTON OEHLER RD, CHARLOTTE, NC, 28269","Match","Exact","3825 JOHNSTON OEHLER RD, CHARLOTTE, NC, 28269",648556420,"L"
192806,"3825 JOHNSTON OEHLER ROAD","CHARLOTTE","NC",28269,35.3654734940001,-80.7720774859999,306,"3825 JOHNSTON OEHLER ROAD, CHARLOTTE, NC, 28269","Match","Exact","3825 JOHNSTON OEHLER RD, CHARLOTTE, NC, 28269",648556420,"L"
192807,"3825 LOCKWOOD AVENUE","TOLEDO","OH",43612,41.6896116230001,-83.569400909,307,"3825 LOCKWOOD AVENUE, TOLEDO, OH, 43612","Match","Exact","3825 LOCKWOOD AVE, TOLEDO, OH, 43612",33934332,"L"
192808,"3825 LUTHER WARD ROAD","POWDER SPRINGS","GA",30127,33.9279940930001,-84.6715983139999,308,"3825 LUTHER WARD ROAD, POWDER SPRINGS, GA, 30127","Match","Exact","3825 LUTHER WARD RD, POWDER SPGS, GA, 30127",17201034,"L"
192809,"3825 MAJESTIC PALM WAY","DELRAY BEACH","FL",33445,26.480477024,-80.108665297,309,"3825 MAJESTIC PALM WAY, DELRAY BEACH, FL, 33445","Match","Exact","3825 MAJESTIC PALM WAY, DELRAY BEACH, FL, 33445",115576585,"R"
192810,"3825 MARKET ST  SUITE 2","WILMINGTON","NC",28403,34.2411725520001,-77.899112724,310,"3825 MARKET ST  SUITE 2, WILMINGTON, NC, 28403","Match","Exact","3825 MARKET ST, WILMINGTON, NC, 28403",640609494,"L"
192811,"3825 MEETING STREET","DULUTH","GA",30096,33.996973945,-84.1644899789999,311,"3825 MEETING STREET, DULUTH, GA, 30096","Match","Non_Exact","3825 MEETING ST NW, DULUTH, GA, 30096",88916107,"R"
192812,"3825 MINITREE GLEN DR","PROVIDENCE FORGE","VA",23140,37.4475154140001,-77.037693314,312,"3825 MINITREE GLEN DR, PROVIDENCE FORGE, VA, 23140","Match","Exact","3825 MINITREE GLEN DR, PROVIDENCE FORGE, VA, 23140",106732469,"L"
192813,"3825 MISSION AVE D5","OCEANSIDE","CA",92058,33.2264751290001,-117.329826756,313,"3825 MISSION AVE D5, OCEANSIDE, CA, 92058","Match","Non_Exact","3825 MISSION AVE, OCEANSIDE, CA, 92057",636697808,"R"
192814,"3825 N 33RD ST","BOISE","ID",83703,43.6545765820001,-116.23041845,314,"3825 N 33RD ST, BOISE, ID, 83703","Match","Exact","3825 N 33RD ST, BOISE, ID, 83703",117897059,"L"
192815,"3825 N SMEDLEY ST","PHILADELPHIA","PA",19140,40.011792604,-75.154789899,315,"3825 N SMEDLEY ST, PHILADELPHIA, PA, 19140","Match","Exact","3825 N SMEDLEY ST, PHILADELPHIA, PA, 19140",131417857,"R"
192816,"3825 RAYMOND AVE","SOUTH OGDEN","UT",84403,41.193077895,-111.961487562,316,"3825 RAYMOND AVE, SOUTH OGDEN, UT, 84403","Match","Exact","3825 RAYMOND AVE, SOUTH OGDEN, UT, 84403",155698464,"R"
192817,"3825 RIDGEWOOD ROAD","JACKSON","MS",39211,32.3403582390001,-90.14190272,317,"3825 RIDGEWOOD ROAD, JACKSON, MS, 39211","Match","Exact","3825 RIDGEWOOD RD, JACKSON, MS, 39211",65373437,"L"
192818,"3825 ROLAND BLVD","ST LOUIS","MO",63121,38.703152237,-90.294374641,318,"3825 ROLAND BLVD, ST LOUIS, MO, 63121","Match","Exact","3825 ROLAND BLVD, SAINT LOUIS, MO, 63121",100151686,"L"
192819,"3825 ROSELAND AVE APT A","DALLAS","TX",75203,32.7989701330001,-96.78678115,319,"3825 ROSELAND AVE APT A, DALLAS, TX, 75203","Match","Non_Exact","3825 ROSELAND AVE, DALLAS, TX, 75204",102910796,"L"
192820,"3825 SIERRA VISTA WAY","NORMAN","OK",73071,35.264489515,-97.4293248119999,320,"3825 SIERRA VISTA WAY, NORMAN, OK, 73071","Match","Exact","3825 SIERRA VISTA WAY, NORMAN, OK, 73071",641687869,"L"
192821,"3825 SOUTH CAPITOL STREET SW","WASHINGTON","DC",20032,38.835111942,-77.007959065,321,"3825 SOUTH CAPITOL STREET SW, WASHINGTON, DC, 20032","Match","Non_Exact","3825 S CAPITOL ST SE, WASHINGTON, DC, 20032",76227570,"R"
192822,"3825 SW 54TH PLACE","PORTLAND","OR",97221,45.4957572260001,-122.732617931,322,"3825 SW 54TH PLACE, PORTLAND, OR, 97221","Match","Exact","3825 SW 54TH PL, PORTLAND, OR, 97221",157496341,"R"
192823,"3825 TIGERS BAY RD  SUITE 161","DAYTONA BEACH","FL",32124,NA,NA,323,"3825 TIGERS BAY RD  SUITE 161, DAYTONA BEACH, FL, 32124","No_Match",NA,NA,NA,NA
192824,"3825 W ANTHEM WAY UNIT 1028","ANTHEM","AZ",85086,33.8693193940001,-112.140424196,324,"3825 W ANTHEM WAY UNIT 1028, ANTHEM, AZ, 85086","Match","Non_Exact","3825 W ANTHEM WAY, ANTHEM, AZ, 85086",244019742,"R"
192825,"3825 W MCDOWELL RD APT 402","PHOENIX","AZ",85009,33.4659521300001,-112.141844245,325,"3825 W MCDOWELL RD APT 402, PHOENIX, AZ, 85009","Match","Non_Exact","3825 W MCDOWELL RD, PHOENIX, AZ, 85009",128201627,"L"
192826,"3825 WEST JARLATH STREET","LINCOLNWOOD","IL",60712,42.012665397,-87.724313514,326,"3825 WEST JARLATH STREET, LINCOLNWOOD, IL, 60712","Match","Exact","3825 W JARLATH ST, LINCOLNWOOD, IL, 60712",605258531,"L"
192827,"3825 WILDBRIAR LANE","LINCOLN","NE",68516,40.7584772220001,-96.665091472,327,"3825 WILDBRIAR LANE, LINCOLN, NE, 68516","Match","Exact","3825 WILDBRIAR LN, LINCOLN, NE, 68516",28260717,"R"
192828,"3825 WOODWARD DR","NASHBILLE","TN",37207,36.2217349110001,-86.813449255,328,"3825 WOODWARD DR, NASHBILLE, TN, 37207","Match","Non_Exact","3825 WOODWARD DR, NASHVILLE, TN, 37207",97184158,"L"
192829,"38251 POTATO CANYON RD","OAK GLEN","CA",92399,34.0541185550001,-116.968060026,329,"38251 POTATO CANYON RD, OAK GLEN, CA, 92399","Match","Exact","38251 POTATO CANYON RD, OAK GLEN, CA, 92399",144974148,"R"
192830,"38252 STONE EDEN DRIVE","HAMILTON","VA",20158,39.126660891,-77.6799465989999,330,"38252 STONE EDEN DRIVE, HAMILTON, VA, 20158","Match","Exact","38252 STONE EDEN DR, HAMILTON, VA, 20158",218925325,"L"
192831,"38258 EZRA CIR AVON PARK FL 33825","AVON PARK","FL",33825,27.5876222420001,-81.5087799729999,331,"38258 EZRA CIR AVON PARK FL 33825, AVON PARK, FL, 33825","Match","Exact","38258 EZRA CIR, AVON PARK, FL, 33825",650090107,"R"
192832,"3825A S OAK RIDGE DR","BLOOMINGTON","IN",47401,39.1288721270001,-86.452550545,332,"3825A S OAK RIDGE DR, BLOOMINGTON, IN, 47401","Match","Exact","3825 S OAK RIDGE DR, BLOOMINGTON, IN, 47401",636028374,"L"
192833,"3826 24TH AVENUE WEST","SEATTLE","WA",98199,47.6544228710001,-122.38744414,333,"3826 24TH AVENUE WEST, SEATTLE, WA, 98199","Match","Exact","3826 24TH AVE W, SEATTLE, WA, 98199",187016977,"R"
192834,"3826 A STREET","TACOMA","WA",98418,47.2220195680001,-122.43135109,334,"3826 A STREET, TACOMA, WA, 98418","Match","Exact","3826 A ST, TACOMA, WA, 98418",652990324,"R"
192835,"3826 CEMETERY HILL ROAD","CARROLLTON","TX",75007,33.0153588490001,-96.892358023,335,"3826 CEMETERY HILL ROAD, CARROLLTON, TX, 75007","Match","Exact","3826 CEMETERY HILL RD, CARROLLTON, TX, 75007",103413374,"R"
192836,"3826 COUNTY ROAD 547 N","DAVENPORT","FL",33837,28.2193478080001,-81.593152857,336,"3826 COUNTY ROAD 547 N, DAVENPORT, FL, 33837","Match","Exact","3826 CO RD 547 N, DAVENPORT, FL, 33837",104853864,"R"
192837,"3826 CRESTWAY PLACE","LOS ANGELES","CA",90043,33.998131524,-118.340706317,337,"3826 CRESTWAY PLACE, LOS ANGELES, CA, 90043","Match","Exact","3826 CRESTWAY PL, LOS ANGELES, CA, 90043",141602476,"L"
192838,"3826 EVERGREEN STREET","EAST CHICAGO","IN",46312,41.6431012780001,-87.437792314,338,"3826 EVERGREEN STREET, EAST CHICAGO, IN, 46312","Match","Exact","3826 EVERGREEN ST, EAST CHICAGO, IN, 46312",98452137,"R"
192839,"3826 JANIS DRIVE","RICHTON PARK","IL",60471,41.4727446630001,-87.709846974,339,"3826 JANIS DRIVE, RICHTON PARK, IL, 60471","Match","Exact","3826 JANIS DR, RICHTON PARK, IL, 60471",645571771,"R"
192840,"3826 KATY HOLLOW DR","KATY","TX",77449,29.8285510580001,-95.72313732,340,"3826 KATY HOLLOW DR, KATY, TX, 77449","Match","Exact","3826 KATY HOLLOW DR, KATY, TX, 77449",639343344,"L"
192841,"3826 MICKEY DRIVE","MEMPHIS","TN",38116,35.0442600820001,-90.011346336,341,"3826 MICKEY DRIVE, MEMPHIS, TN, 38116","Match","Exact","3826 MICKEY DR, MEMPHIS, TN, 38116",72910428,"L"
192842,"3826 NORTH FRONT STREET","FAYETTEVILLE","AR",72703,36.1211838580001,-94.14406934,342,"3826 NORTH FRONT STREET, FAYETTEVILLE, AR, 72703","Match","Exact","3826 N FRONT ST, FAYETTEVILLE, AR, 72703",49045934,"R"
192843,"3826 S 800 E","ZIONSVILLE","IN",46077,39.9858410960001,-86.317547136,343,"3826 S 800 E, ZIONSVILLE, IN, 46077","Match","Exact","3826 S 800 E, ZIONSVILLE, IN, 46077",610974909,"R"
192844,"3826 VAN NESS STREET NW","WASHINGTON","DC",20016,38.9431600360001,-77.075335276,344,"3826 VAN NESS STREET NW, WASHINGTON, DC, 20016","Match","Exact","3826 VAN NESS ST NW, WASHINGTON, DC, 20016",76220495,"L"
192845,"3826 W PARKRIDGE CIRCLE","SPRINGFIELD","MO",65802,37.1978629440001,-93.3568642,345,"3826 W PARKRIDGE CIRCLE, SPRINGFIELD, MO, 65802","Match","Exact","3826 W PARKRIDGE CIR, SPRINGFIELD, MO, 65802",605879510,"R"
192846,"3826 WINDWAY CT","ORLANDO","FL",32817,28.5949159090001,-81.279092675,346,"3826 WINDWAY CT, ORLANDO, FL, 32817","Match","Exact","3826 WINDWAY CT, ORLANDO, FL, 32817",94312436,"L"
192847,"38260 TAMARAC H 115","WILLOUGHBY","OH",44094,41.686109463,-81.405639768,347,"38260 TAMARAC H 115, WILLOUGHBY, OH, 44094","Match","Non_Exact","38260 TAMARAC BLVD, WILLOUGHBY, OH, 44094",604783318,"R"
192848,"3827 34TH STREET UNIT 3","MOUNT RAINIER","MD",20712,38.9371951570001,-76.9607543979999,348,"3827 34TH STREET UNIT 3, MOUNT RAINIER, MD, 20712","Match","Exact","3827 34TH ST, MOUNT RAINIER, MD, 20712",638363621,"R"
192849,"3827 50TH AVENUE S","ST PETERSBURG","FL",33711,27.721948727,-82.684374949,349,"3827 50TH AVENUE S, ST PETERSBURG, FL, 33711","Match","Exact","3827 50TH AVE S, SAINT PETERSBURG, FL, 33711",124710228,"R"
192850,"3827 64TH AVENUE APT 2","HYATTSVILLE","MD",20784,38.9372078480001,-76.908228099,350,"3827 64TH AVENUE APT 2, HYATTSVILLE, MD, 20784","Match","Exact","3827 64TH AVE, HYATTSVILLE, MD, 20784",653859822,"R"
192851,"3827 ALVA THOMAS ROAD","PANAMA CITY","FL",32404,30.208531367,-85.6003022359999,351,"3827 ALVA THOMAS ROAD, PANAMA CITY, FL, 32404","Match","Exact","3827 ALVA THOMAS RD, PANAMA CITY, FL, 32404",614888780,"R"
192852,"3827 BECK ROAD","SAINT JOSEPH","MO",64506,39.788381176,-94.799590732,352,"3827 BECK ROAD, SAINT JOSEPH, MO, 64506","Match","Exact","3827 BECK RD, SAINT JOSEPH, MO, 64506",15960999,"R"
192853,"3827 CANTERBURY ROAD","TRENT WOODS","NC",28562,35.0877083880001,-77.080954945,353,"3827 CANTERBURY ROAD, TRENT WOODS, NC, 28562","Match","Exact","3827 CANTERBURY RD, TRENT WOODS, NC, 28562",640599561,"L"
192854,"3827 HALLOWAY CIRCLE","UPPER MARLBORO","MD",20772,38.836538707,-76.719275537,354,"3827 HALLOWAY CIRCLE, UPPER MARLBORO, MD, 20772","Match","Exact","3827 HALLOWAY CIR, UPPER MARLBORO, MD, 20772",76329028,"R"
192855,"3827 HIGHWAY 19 S","OWENSVILLE","MO",65066,NA,NA,355,"3827 HIGHWAY 19 S, OWENSVILLE, MO, 65066","No_Match",NA,NA,NA,NA
192856,"3827 N 10TH ST STE 205","MCALLEN","TX",78501,26.237691999,-98.224204082,356,"3827 N 10TH ST STE 205, MCALLEN, TX, 78501","Match","Non_Exact","3827 N 10TH ST, MCALLEN, TX, 78501",71494846,"L"
192857,"3827 N 23RD STREET","MILWAUKEE","WI",53206,43.0866606910001,-87.941007035,357,"3827 N 23RD STREET, MILWAUKEE, WI, 53206","Match","Exact","3827 N 23RD ST, MILWAUKEE, WI, 53206",77737836,"L"
192858,"3827 N MAIN ST","MARION","NY",14505,43.1435017410001,-77.1887087809999,358,"3827 N MAIN ST, MARION, NY, 14505","Match","Exact","3827 N MAIN ST, MARION, NY, 14505",14910529,"L"
192859,"3827 OHIO AVENUE","SAINT LOUIS","MO",63118,38.5856967650001,-90.229359933,359,"3827 OHIO AVENUE, SAINT LOUIS, MO, 63118","Match","Exact","3827 OHIO AVE, SAINT LOUIS, MO, 63118",605147679,"R"
192860,"3827 PALOMINO CIRCLE","SOUTH BEND","IN",46628,NA,NA,360,"3827 PALOMINO CIRCLE, SOUTH BEND, IN, 46628","No_Match",NA,NA,NA,NA
192861,"3827 S CARSON ST UNIT 505 25 1022","CARSON CITY","NV",89701,39.131844303,-119.770045164,361,"3827 S CARSON ST UNIT 505 25 1022, CARSON CITY, NV, 89701","Match","Non_Exact","3827 S CARSON ST, CARSON CITY, NV, 89701",653198132,"L"
192862,"3827 S COCKRELL HILL ROAD","DALLAS","TX",75236,32.696437281,-96.891478454,362,"3827 S COCKRELL HILL ROAD, DALLAS, TX, 75236","Match","Exact","3827 S COCKRELL HILL RD, DALLAS, TX, 75236",647952366,"R"
192863,"3827 TRAPPERS RUN DRIVE","MATTHEWS","NC",28105,35.167085378,-80.718174048,363,"3827 TRAPPERS RUN DRIVE, MATTHEWS, NC, 28105","Match","Exact","3827 TRAPPERS RUN DR, MATTHEWS, NC, 28105",70522801,"L"
192864,"3827 TULANE AVE","NEW ORLEANS","LA",70119,29.967351808,-90.102672331,364,"3827 TULANE AVE, NEW ORLEANS, LA, 70119","Match","Exact","3827 TULANE AVE, NEW ORLEANS, LA, 70119",191706886,"R"
192865,"38275 OX LAKE LANDING","CROSSLAKE","MN",56442,46.707542775,-94.114574563,365,"38275 OX LAKE LANDING, CROSSLAKE, MN, 56442","Match","Exact","38275 OX LAKE LNDG, CROSSLAKE, MN, 56442",642482704,"L"
192866,"3828 3RD AVENUE","LOS ANGELES","CA",90008,34.017101333,-118.320343207,366,"3828 3RD AVENUE, LOS ANGELES, CA, 90008","Match","Exact","3828 3RD AVE, LOS ANGELES, CA, 90008",141606187,"L"
192867,"3828 ALTAMIRA DRIVE","CHATTANOOGA","TN",37412,34.9865276410001,-85.262203272,367,"3828 ALTAMIRA DRIVE, CHATTANOOGA, TN, 37412","Match","Exact","3828 ALTAMIRA DR, CHATTANOOGA, TN, 37412",59314589,"R"
192868,"3828 AUSTINBURG RD","ASHTABULA","OH",44004,41.8307308770001,-80.8040230839999,368,"3828 AUSTINBURG RD, ASHTABULA, OH, 44004","Match","Exact","3828 AUSTINBURG RD, ASHTABULA, OH, 44004",117313807,"R"
192869,"3828 BROOKSIDE RD","TOLEDO","OH",43606,41.6679178420001,-83.635135566,369,"3828 BROOKSIDE RD, TOLEDO, OH, 43606","Match","Exact","3828 BROOKSIDE RD, TOLEDO, OH, 43606",33934768,"R"
192870,"3828 E PORTLAND AVE","TACOMA","WA",98404,47.2226837790001,-122.407692018,370,"3828 E PORTLAND AVE, TACOMA, WA, 98404","Match","Exact","3828 E PORTLAND AVE, TACOMA, WA, 98404",184627208,"R"
192871,"3828 IRWIN KUNTZ DR","HARVEY","LA",70058,29.86079196,-90.0760245339999,371,"3828 IRWIN KUNTZ DR, HARVEY, LA, 70058","Match","Exact","3828 IRWIN KUNTZ DR, HARVEY, LA, 70058",93509801,"L"
192872,"3828 N 77TH ST","MILWAUKEE","WI",53222,43.0868395260001,-88.0085681689999,372,"3828 N 77TH ST, MILWAUKEE, WI, 53222","Match","Exact","3828 N 77TH ST, MILWAUKEE, WI, 53222",77730308,"R"
192873,"3828 PASEO","KANSAS CITY","MO",64109,39.0568943260001,-94.567436094,373,"3828 PASEO, KANSAS CITY, MO, 64109","Match","Non_Exact","3828 PASEO BLVD, KANSAS CITY, MO, 64109",91447859,"R"
192874,"3828 S WHEELING AVE","TULSA","OK",74105,36.1072863310001,-95.964649766,374,"3828 S WHEELING AVE, TULSA, OK, 74105","Match","Exact","3828 S WHEELING AVE, TULSA, OK, 74105",166443454,"R"
192875,"3828 SALEM RD 108","COVINGTON","GA",30016,NA,NA,375,"3828 SALEM RD 108, COVINGTON, GA, 30016","No_Match",NA,NA,NA,NA
192876,"3828 SALEM RD PMB18","COVINGTON","GA",30016,NA,NA,376,"3828 SALEM RD PMB18, COVINGTON, GA, 30016","No_Match",NA,NA,NA,NA
192877,"3828 SALEM ROAD 183","COVINGTON","GA",30016,NA,NA,377,"3828 SALEM ROAD 183, COVINGTON, GA, 30016","No_Match",NA,NA,NA,NA
192878,"3828 SOUTH IROQUOIS LANE","GOLD CANYON","AZ",85118,33.379245897,-111.43788345,378,"3828 SOUTH IROQUOIS LANE, GOLD CANYON, AZ, 85118","Match","Exact","3828 S IROQUOIS LN, GOLD CANYON, AZ, 85118",648005431,"R"
192879,"3828 TRENTON DR","SNELLVILLE","GA",30039,33.819117766,-84.0490308349999,379,"3828 TRENTON DR, SNELLVILLE, GA, 30039","Match","Exact","3828 TRENTON DR, SNELLVILLE, GA, 30039",88935374,"R"
192880,"3828 WILMINGTON AVENUE","SAINT LOUIS","MO",63116,38.568357405,-90.26111904,380,"3828 WILMINGTON AVENUE, SAINT LOUIS, MO, 63116","Match","Exact","3828 WILMINGTON AVE, SAINT LOUIS, MO, 63116",107601500,"L"
192881,"38280 RUSTY SPUR TRAIL","AGATE","CO",80101,39.420738382,-104.236533237,381,"38280 RUSTY SPUR TRAIL, AGATE, CO, 80101","Match","Exact","38280 RUSTY SPUR TRL, AGATE, CO, 80101",645459204,"R"
192882,"38281 HURRICANE DRIVE","WILLOUGHBY","OH",44094,41.6627496990001,-81.405364209,382,"38281 HURRICANE DRIVE, WILLOUGHBY, OH, 44094","Match","Exact","38281 HURRICANE DR, WILLOUGHBY, OH, 44094",640167938,"L"
192883,"3829 1ST ST SE","WASHINGTON","DC",20032,38.834001448,-77.005888242,383,"3829 1ST ST SE, WASHINGTON, DC, 20032","Match","Exact","3829 1ST ST SE, WASHINGTON, DC, 20032",76227860,"R"
192884,"3829 BOYSENBERRY COURT","VIRGINIA BEACH","VA",23456,NA,NA,384,"3829 BOYSENBERRY COURT, VIRGINIA BEACH, VA, 23456","No_Match",NA,NA,NA,NA
192885,"3829 DEASON DRIVE","EDMOND","OK",73013,35.6335748020001,-97.438259648,385,"3829 DEASON DRIVE, EDMOND, OK, 73013","Match","Exact","3829 DEASON DR, EDMOND, OK, 73013",646678846,"L"
192886,"3829 FORESTVILLE ROAD","RALEIGH","NC",27616,35.874450084,-78.51224796,386,"3829 FORESTVILLE ROAD, RALEIGH, NC, 27616","Match","Exact","3829 FORESTVILLE RD, RALEIGH, NC, 27616",208378401,"R"
192887,"3829 HOLLYWOOD BLVD SUITE A","HOLLYWOOD","FL",33021,26.010660068,-80.1815790969999,387,"3829 HOLLYWOOD BLVD SUITE A, HOLLYWOOD, FL, 33021","Match","Exact","3829 HOLLYWOOD BLVD, HOLLYWOOD, FL, 33021",114717632,"R"
192888,"3829 MILLENIA BLVD 11-306","ORLANDO","FL",32839,NA,NA,388,"3829 MILLENIA BLVD 11-306, ORLANDO, FL, 32839","No_Match",NA,NA,NA,NA
192889,"3829 N ROOSEVELT ST APT 6","KINGSMAN","AZ",86409,35.2345598860001,-114.018252992,389,"3829 N ROOSEVELT ST APT 6, KINGSMAN, AZ, 86409","Match","Non_Exact","3829 N ROOSEVELT ST, KINGMAN, AZ, 86409",618624538,"L"
192890,"3829 PORTOLA AVENUE","LOS ANGELES","CA",90032,34.0897302560001,-118.172168539,390,"3829 PORTOLA AVENUE, LOS ANGELES, CA, 90032","Match","Exact","3829 PORTOLA AVE, LOS ANGELES, CA, 90032",624564113,"L"
192891,"3829 S 117TH EAST AVE","TULSA","OK",74146,36.108008279,-95.846900628,391,"3829 S 117TH EAST AVE, TULSA, OK, 74146","Match","Exact","3829 S 117TH E AVE, TULSA, OK, 74146",166474057,"R"
192892,"3829 SE MARKET ST","PORTLAND","OR",97214,45.510846873,-122.623579575,392,"3829 SE MARKET ST, PORTLAND, OR, 97214","Match","Exact","3829 SE MARKET ST, PORTLAND, OR, 97214",157514197,"L"
192893,"38290 FAIRWAY CT UNIT 151B","CLINTON TOWNSHIP","MI",48038,42.578859392,-82.949330286,393,"38290 FAIRWAY CT UNIT 151B, CLINTON TOWNSHIP, MI, 48038","Match","Exact","38290 FAIRWAY CT, CLINTON TOWNSHIP, MI, 48038",110727152,"R"
192894,"38295 253RD ST","PLANKINTON","SD",57368,43.7169917780001,-98.559526607,394,"38295 253RD ST, PLANKINTON, SD, 57368","Match","Exact","38295 253RD ST, PLANKINTON, SD, 57368",199170494,"R"
192895,"38299 SARATOGA CIRCLE","FARMINGTON HILLS","MI",48331,42.485336182,-83.4247167619999,395,"38299 SARATOGA CIRCLE, FARMINGTON HILLS, MI, 48331","Match","Exact","38299 SARATOGA CIR, FARMINGTON HILLS, MI, 48331",69820139,"L"
192896,"383 16TH ST NW UNIT 6","ATLANTA","GA",30363,33.790102447,-84.3968979159999,396,"383 16TH ST NW UNIT 6, ATLANTA, GA, 30363","Match","Exact","383 16TH ST NW, ATLANTA, GA, 30363",634083791,"R"
192897,"383 62ND STREET","OAKLAND","CA",94618,37.8488776450001,-122.255905441,397,"383 62ND STREET, OAKLAND, CA, 94618","Match","Exact","383 62ND ST, OAKLAND, CA, 94618",124999035,"L"
192898,"383 BEAUMONT FARMS DR","SHARPSBURG","GA",30277,33.417695006,-84.646563726,398,"383 BEAUMONT FARMS DR, SHARPSBURG, GA, 30277","Match","Exact","383 BEAUMONT FARMS DR, SHARPSBURG, GA, 30277",614453858,"R"
192899,"383 C VILLAGE DRIVE","JASPER","AL",35504,33.848054259,-87.231458642,399,"383 C VILLAGE DRIVE, JASPER, AL, 35504","Match","Exact","383 VILLAGE DR, JASPER, AL, 35504",651033879,"L"
192900,"383 CHEROKEE PL SE","ATLANTA","GA",30312,33.737781268,-84.3750575779999,400,"383 CHEROKEE PL SE, ATLANTA, GA, 30312","Match","Exact","383 CHEROKEE PL SE, ATLANTA, GA, 30312",17358096,"R"
192901,"383 COLLINS RD","SEBREE","KY",42455,37.5728537900001,-87.5067077049999,401,"383 COLLINS RD, SEBREE, KY, 42455","Match","Exact","383 COLLINS RD, SEBREE, KY, 42455",12122945,"R"
192902,"383 CORONA STREET","DENVER","CO",80218,39.7217385550001,-104.974068033,402,"383 CORONA STREET, DENVER, CO, 80218","Match","Exact","383 CORONA ST, DENVER, CO, 80218",177331579,"L"
192903,"383 DEPOT STREET","SOUTH EASTON","MA",2375,42.0351791430001,-71.100606688,403,"383 DEPOT STREET, SOUTH EASTON, MA, 2375","Match","Exact","383 DEPOT ST, SOUTH EASTON, MA, 02375",649754230,"R"
192904,"383 FRANKLIN ST","BLOOMFIELD","NJ",7003,40.792232803,-74.1951441269999,404,"383 FRANKLIN ST, BLOOMFIELD, NJ, 7003","Match","Exact","383 FRANKLIN ST, BLOOMFIELD, NJ, 07003",63451241,"R"
192905,"383 GLORIA AVE","SAN JOSE","CA",95127,37.3641297780001,-121.818372465,405,"383 GLORIA AVE, SAN JOSE, CA, 95127","Match","Exact","383 GLORIA AVE, SAN JOSE, CA, 95127",122913010,"R"
192906,"383 GRAND STREET     APT M-806","NYC","NY",10002,40.7164213280001,-73.988300913,406,"383 GRAND STREET     APT M-806, NYC, NY, 10002","Match","Exact","383 GRAND ST, NEW YORK, NY, 10002",59654291,"R"
192907,"383 GRASSMEADE WAY","SNELLVILLE","GA",30078,33.8964526440001,-84.024362944,407,"383 GRASSMEADE WAY, SNELLVILLE, GA, 30078","Match","Exact","383 GRASSMEADE WAY, SNELLVILLE, GA, 30078",641635128,"L"
192908,"383 HAPPY VALLEY LN","AFTON","WY",83110,42.680457034,-110.930830118,408,"383 HAPPY VALLEY LN, AFTON, WY, 83110","Match","Exact","383 HAPPY VALLEY LN, AFTON, WY, 83110",611001032,"R"
192909,"383 HEATH RETREAT ROAD","WAYNESVILLE","NC",28786,35.4525210400001,-82.913679578,409,"383 HEATH RETREAT ROAD, WAYNESVILLE, NC, 28786","Match","Exact","383 HEATH RETREAT RD, WAYNESVILLE, NC, 28786",151835279,"L"
192910,"383 HIGHWAY 264","SECOND MESA","AZ",86043,NA,NA,410,"383 HIGHWAY 264, SECOND MESA, AZ, 86043","No_Match",NA,NA,NA,NA
192911,"383 KINGS HIGHWAY NORTH   SUITE 201","CHERRY HILL","NJ",8034,39.9110480890001,-75.013586905,411,"383 KINGS HIGHWAY NORTH   SUITE 201, CHERRY HILL, NJ, 8034","Match","Non_Exact","383 KINGS HWY S, CHERRY HILL, NJ, 08034",134354784,"L"
192912,"383 KINGSTON AVE PMB 197","BROOKLYN","NY",11213,40.66591064,-73.942511737,412,"383 KINGSTON AVE PMB 197, BROOKLYN, NY, 11213","Match","Exact","383 KINGSTON AVE, BROOKLYN, NY, 11213",642653979,"L"
192913,"383 KINGSTON AVE SUITE 189","BROOKLYN","NY",11213,40.66591064,-73.942511737,413,"383 KINGSTON AVE SUITE 189, BROOKLYN, NY, 11213","Match","Exact","383 KINGSTON AVE, BROOKLYN, NY, 11213",642653979,"L"
192914,"383 KINGSTON AVE","BROOKLYN","NY",11213,40.66591064,-73.942511737,414,"383 KINGSTON AVE, BROOKLYN, NY, 11213","Match","Exact","383 KINGSTON AVE, BROOKLYN, NY, 11213",642653979,"L"
192915,"383 KINGSTON AVENUE SUITE 232","BROOKLYN","NY",11213,40.66591064,-73.942511737,415,"383 KINGSTON AVENUE SUITE 232, BROOKLYN, NY, 11213","Match","Exact","383 KINGSTON AVE, BROOKLYN, NY, 11213",642653979,"L"
192916,"383 KINGSTON AVENUE","BROOKLYN","NY",11213,40.66591064,-73.942511737,416,"383 KINGSTON AVENUE, BROOKLYN, NY, 11213","Match","Exact","383 KINGSTON AVE, BROOKLYN, NY, 11213",642653979,"L"
192917,"383 LADY GUINEVERE WAY","JONESBORO","GA",30236,33.5606182940001,-84.377885917,417,"383 LADY GUINEVERE WAY, JONESBORO, GA, 30236","Match","Exact","383 LADY GUINEVERE WAY, JONESBORO, GA, 30236",23313199,"R"
192918,"383 LEE RD 255","SALEM","AL",36874,32.6195550350001,-85.208178555,418,"383 LEE RD 255, SALEM, AL, 36874","Match","Exact","383 LEE ROAD 255, SALEM, AL, 36874",636438289,"L"
192919,"383 LIBERTY AVE","HAMITON","OH",45013,39.407051016,-84.5674906309999,419,"383 LIBERTY AVE, HAMITON, OH, 45013","Match","Non_Exact","383 LIBERTY AVE, HAMILTON, OH, 45013",113789261,"L"
192920,"383 LIMESTONE RD","CARLISLE","PA",17015,40.1854154160001,-77.164722588,420,"383 LIMESTONE RD, CARLISLE, PA, 17015","Match","Exact","383 LIMESTONE RD, CARLISLE, PA, 17015",60955779,"R"
192921,"383 MARCUS GARVEY APT 4R","BROOKLYN","NY",11221,40.6840932490001,-73.9382521909999,421,"383 MARCUS GARVEY APT 4R, BROOKLYN, NY, 11221","Match","Non_Exact","383 MARCUS GARVEY BLVD, BROOKLYN, NY, 11221",59079278,"L"
192922,"383 MULL AVE","AKRON","OH",44313,41.0993585730001,-81.563141059,422,"383 MULL AVE, AKRON, OH, 44313","Match","Exact","383 MULL AVE, AKRON, OH, 44313",61393273,"R"
192923,"383 N 2700 W","PROVO","UT",84601,40.2390804570001,-111.706580532,423,"383 N 2700 W, PROVO, UT, 84601","Match","Exact","383 2700 W, PROVO, UT, 84601",134246912,"L"
192924,"383 N WILMOT RD APT 85B","TUCSON","AZ",85711,32.2261321280001,-110.857938904,424,"383 N WILMOT RD APT 85B, TUCSON, AZ, 85711","Match","Non_Exact","383 N WILMOT RD, TUCSON, AZ, 85711",648146201,"L"
192925,"383 NORTH 2700 WEST","PROVO","UT",84601,40.2390804570001,-111.706580532,425,"383 NORTH 2700 WEST, PROVO, UT, 84601","Match","Non_Exact","383 2700 W, PROVO, UT, 84601",134246912,"L"
192926,"383 OAK CIRCLE","WINCHESTER","TN",37398,35.194761348,-86.142510789,426,"383 OAK CIRCLE, WINCHESTER, TN, 37398","Match","Exact","383 OAK CIR, WINCHESTER, TN, 37398",57961058,"L"
192927,"383 OLD BAYVIEW ROAD","NORTH EAST","MD",21901,39.6458394410001,-75.959885771,427,"383 OLD BAYVIEW ROAD, NORTH EAST, MD, 21901","Match","Exact","383 OLD BAYVIEW RD, NORTH EAST, MD, 21901",207859408,"R"
192928,"383 OLD ITHACA RD","HORSEHEADS","NY",14845,42.1884909940001,-76.801710871,428,"383 OLD ITHACA RD, HORSEHEADS, NY, 14845","Match","Exact","383 ITHACA RD, HORSEHEADS, NY, 14845",616477318,"L"
192929,"383 REDWOOD LANE","BOCA RATON","FL",33847,26.4215417500001,-80.08601399,429,"383 REDWOOD LANE, BOCA RATON, FL, 33847","Match","Non_Exact","383 REDWOOD LN, BOCA RATON, FL, 33487",115317499,"R"
192930,"383 RIVER  POINT DR","MCDONOUGH","GA",30252,33.5430738410001,-84.073181927,430,"383 RIVER  POINT DR, MCDONOUGH, GA, 30252","Match","Exact","383 RIVER POINT DR, MCDONOUGH, GA, 30252",23202698,"L"
192931,"383 ROQUETTE AVENUE","SOUTH FLORAL PARK","NY",11001,40.7142548310001,-73.700417923,431,"383 ROQUETTE AVENUE, SOUTH FLORAL PARK, NY, 11001","Match","Exact","383 ROQUETTE AVE, SOUTH FLORAL PARK, NY, 11001",147666621,"R"
192932,"383 S BENSON RD","FAIRFIELD","CT",6824,41.143903176,-73.243784288,432,"383 S BENSON RD, FAIRFIELD, CT, 6824","Match","Exact","383 S BENSON RD, FAIRFIELD, CT, 06824",3228407,"L"
192933,"383 SEALOCK AVE","STEUBENVILLE","OH",43952,40.3875893040001,-80.647204431,433,"383 SEALOCK AVE, STEUBENVILLE, OH, 43952","Match","Exact","383 SEALOCK AVE, STEUBENVILLE, OH, 43952",37806518,"R"
192934,"383 STERLING PL APT 3F","BROOKLYN","NY",11238,40.6750542980001,-73.96539281,434,"383 STERLING PL APT 3F, BROOKLYN, NY, 11238","Match","Exact","383 STERLING PL, BROOKLYN, NY, 11238",650086297,"L"
192935,"383 STERLING PLACE","BROOKLYN","NY",11238,40.6750542980001,-73.96539281,435,"383 STERLING PLACE, BROOKLYN, NY, 11238","Match","Exact","383 STERLING PL, BROOKLYN, NY, 11238",650086297,"L"
192936,"383 W FOUNTAIN STREET","PROVIDENCE","RI",2903,41.8189256470001,-71.422302582,436,"383 W FOUNTAIN STREET, PROVIDENCE, RI, 2903","Match","Exact","383 W FOUNTAIN ST, PROVIDENCE, RI, 02903",47465634,"R"
192937,"383 W MAIN ST","WESTERVILLE","OH",43081,40.124959393,-82.9458493069999,437,"383 W MAIN ST, WESTERVILLE, OH, 43081","Match","Exact","383 W MAIN ST, WESTERVILLE, OH, 43081",218702103,"L"
192938,"383 WASHINGTON STREET","MIDDLETOWN","CT",6457,41.55854513,-72.6628708759999,438,"383 WASHINGTON STREET, MIDDLETOWN, CT, 6457","Match","Exact","383 WASHINGTON ST, MIDDLETOWN, CT, 06457",637846553,"R"
192939,"383 WEST ROADRUNNER LANE","FAYETTEVILLE","AR",72701,36.0081395190001,-94.178638787,439,"383 WEST ROADRUNNER LANE, FAYETTEVILLE, AR, 72701","Match","Exact","383 W ROADRUNNER LN, FAYETTEVILLE, AR, 72701",49078062,"L"
192940,"383 WILD ACRES DR","DINGMANS FERRY","PA",18328,41.2158704920001,-74.941387321,440,"383 WILD ACRES DR, DINGMANS FERRY, PA, 18328","Match","Exact","383 WILD ACRES DR, DINGMANS FERRY, PA, 18328",191405674,"R"
192941,"3830 52ND STREET","DES MOINES","IA",50310,41.6301980530001,-93.690173025,441,"3830 52ND STREET, DES MOINES, IA, 50310","Match","Exact","3830 52ND ST, DES MOINES, IA, 50310",65779073,"L"
192942,"3830 AUBURN BLVD","CARMICHAEL","CA",95821,38.6401097560001,-121.374845577,442,"3830 AUBURN BLVD, CARMICHAEL, CA, 95821","Match","Non_Exact","3830 AUBURN BLVD, SACRAMENTO, CA, 95821",133333079,"R"
192943,"3830 AVOCET COURT","RENO","NV",89508,39.6788101710001,-119.960975873,443,"3830 AVOCET COURT, RENO, NV, 89508","Match","Exact","3830 AVOCET CT, RENO, NV, 89508",107039179,"L"
192944,"3830 BERLEIGH HILL COURT","BURTHONSVILLE","MD",20866,39.1006417770001,-76.9333508139999,444,"3830 BERLEIGH HILL COURT, BURTHONSVILLE, MD, 20866","Match","Non_Exact","3830 BERLEIGH HILL CT, BURTONSVILLE, MD, 20866",640176960,"R"
192945,"3830 BRICKNELL CV","MEMPHIS","TN",38128,35.230306408,-89.9076931019999,445,"3830 BRICKNELL CV, MEMPHIS, TN, 38128","Match","Exact","3830 BRICKNELL COVE, MEMPHIS, TN, 38128",72899137,"R"
192946,"3830 CREEKVIEW CIRCLE","COLLEGE PARK","GA",30349,33.603435173,-84.5097279839999,446,"3830 CREEKVIEW CIRCLE, COLLEGE PARK, GA, 30349","Match","Exact","3830 CREEKVIEW CIR, COLLEGE PARK, GA, 30349",17377688,"L"
192947,"3830 CRESTSTONE PL","SAN DIEGO","CA",92130,32.9599794920001,-117.23194622,447,"3830 CRESTSTONE PL, SAN DIEGO, CA, 92130","Match","Exact","3830 CRESTSTONE PL, SAN DIEGO, CA, 92130",651696212,"R"
192948,"3830 DAVIES DRIVE","COLUMBIA","SC",29223,34.066238168,-80.975175743,448,"3830 DAVIES DRIVE, COLUMBIA, SC, 29223","Match","Exact","3830 DAVIES DR, COLUMBIA, SC, 29223",71823091,"R"
192949,"3830 E 1150 N","MACY","IN",46951,40.9348306200001,-86.004434498,449,"3830 E 1150 N, MACY, IN, 46951","Match","Exact","3830 E 1150 N, MACY, IN, 46951",106397535,"L"
192950,"3830 FALLS CIRCLE","CARMEL","IN",46033,40.021276701,-86.1022899559999,450,"3830 FALLS CIRCLE, CARMEL, IN, 46033","Match","Exact","3830 FALLS CIR, CARMEL, IN, 46033",231600733,"L"
192951,"3830 FLATLANDS AVENUE UNIT 2R","BROOKLYN","NY",11234,40.6193792400001,-73.9382024299999,451,"3830 FLATLANDS AVENUE UNIT 2R, BROOKLYN, NY, 11234","Match","Exact","3830 FLATLANDS AVE, BROOKLYN, NY, 11234",59099186,"R"
192952,"3830 GARRETT RD","DREXEL HILL","PA",19026,39.9440777360001,-75.297653274,452,"3830 GARRETT RD, DREXEL HILL, PA, 19026","Match","Exact","3830 GARRETT RD, DREXEL HILL, PA, 19026",134876500,"L"
192953,"3830 GRIFFITH AVE","BELLINGHAM","WA",98225,48.7809174930001,-122.56115182,453,"3830 GRIFFITH AVE, BELLINGHAM, WA, 98225","Match","Exact","3830 GRIFFITH AVE, BELLINGHAM, WA, 98225",625006267,"R"
192954,"3830 LERCH STREET","CHATTANOOGA","TN",37411,35.0155370150001,-85.244600764,454,"3830 LERCH STREET, CHATTANOOGA, TN, 37411","Match","Non_Exact","3830 LERCH AVE, CHATTANOOGA, TN, 37411",59342811,"R"
192955,"3830 MANCHESTER DRIVE","CHARLOTTE","NC",28217,35.1987623420001,-80.890098732,455,"3830 MANCHESTER DRIVE, CHARLOTTE, NC, 28217","Match","Exact","3830 MANCHESTER DR, CHARLOTTE, NC, 28217",70484829,"R"
192956,"3830 N 7TH ST","PHOENIX","AZ",85014,33.491553922,-112.065049889,456,"3830 N 7TH ST, PHOENIX, AZ, 85014","Match","Exact","3830 N 7TH ST, PHOENIX, AZ, 85014",128208818,"L"
192957,"3830 N 7TH ST","PHOENIX","NY",85014,NA,NA,457,"3830 N 7TH ST, PHOENIX, NY, 85014","No_Match",NA,NA,NA,NA
192958,"3830 N GRIMES STREET SUITE A","HOBBS","NM",88240,32.7417609770001,-103.144886668,458,"3830 N GRIMES STREET SUITE A, HOBBS, NM, 88240","Match","Non_Exact","3830 N GRIMES ST, HOBBS, NM, 88240",132043811,"R"
192959,"3830 N MORRIS BLVD","SHOREWOOD","WI",53211,43.086918789,-87.8919858259999,459,"3830 N MORRIS BLVD, SHOREWOOD, WI, 53211","Match","Exact","3830 N MORRIS BLVD, SHOREWOOD, WI, 53211",77743208,"R"
192960,"3830 N ORACLE RD","TUCSON","AZ",85705,32.2762196910001,-110.978052923,460,"3830 N ORACLE RD, TUCSON, AZ, 85705","Match","Exact","3830 N ORACLE RD, TUCSON, AZ, 85705",639810438,"R"
192961,"3830 NORTH WESTPOINT DRIVE","RENO","NV",89509,39.48971619,-119.860268226,461,"3830 NORTH WESTPOINT DRIVE, RENO, NV, 89509","Match","Exact","3830 N WESTPOINT DR, RENO, NV, 89509",107074406,"L"
192962,"3830 NOTTINGHAM CT","CLEVES","OH",45002,39.163859202,-84.71278317,462,"3830 NOTTINGHAM CT, CLEVES, OH, 45002","Match","Exact","3830 NOTTINGHAM CT, CLEVES, OH, 45002",103978071,"R"
192963,"3830 PALM AVE","MIMS","FL",32754,28.73385812,-80.868333203,463,"3830 PALM AVE, MIMS, FL, 32754","Match","Exact","3830 PALM AVE, MIMS, FL, 32754",93885011,"L"
192964,"3830 RIVER FALLS","SAN ANTONIO","TX",78259,29.6135485500001,-98.422188703,464,"3830 RIVER FALLS, SAN ANTONIO, TX, 78259","Match","Exact","3830 RIVER FALLS, SAN ANTONIO, TX, 78259",101698911,"R"
192965,"3830 ROALD AMUNDSEN AVE B","ANCHORAGE","AK",99517,61.1851645840001,-149.955934721,465,"3830 ROALD AMUNDSEN AVE B, ANCHORAGE, AK, 99517","Match","Exact","3830 ROALD AMUNDSEN AVE, ANCHORAGE, AK, 99517",190819810,"R"
192966,"3830 SE 19 AVE","GAINESVILLE","FL",32641,29.634275544,-82.276809187,466,"3830 SE 19 AVE, GAINESVILLE, FL, 32641","Match","Exact","3830 SE 19TH AVE, GAINESVILLE, FL, 32641",6849490,"L"
192967,"3830 SMOKE TREE DR","COLORADO SPRINGS","CO",80920,38.9419780260001,-104.754579308,467,"3830 SMOKE TREE DR, COLORADO SPRINGS, CO, 80920","Match","Exact","3830 SMOKE TREE DR, CO SPGS, CO, 80920",105530692,"R"
192968,"3830 SOUTH GRAND BLVD","SAINT LOUIS","MO",63118,38.5879920080001,-90.244540397,468,"3830 SOUTH GRAND BLVD, SAINT LOUIS, MO, 63118","Match","Exact","3830 S GRAND BLVD, SAINT LOUIS, MO, 63118",639789142,"L"
192969,"3830 SUN VALLEY DR","HOUSTON","TX",77025,29.683867229,-95.438759279,469,"3830 SUN VALLEY DR, HOUSTON, TX, 77025","Match","Exact","3830 SUN VALLEY DR, HOUSTON, TX, 77025",96040061,"R"
192970,"3830 U STREET","SACRAMENTO","CA",95817,38.5579916990001,-121.4599814,470,"3830 U STREET, SACRAMENTO, CA, 95817","Match","Exact","3830 U ST, SACRAMENTO, CA, 95817",133325350,"R"
192971,"3830 V ROAD","BRUNO","NE",68014,41.294994778,-96.9666554089999,471,"3830 V ROAD, BRUNO, NE, 68014","Match","Exact","3830 V RD, BRUNO, NE, 68014",56957197,"R"
192972,"3830 VALLEY CENTRE DR STE 705-264","SAN DIEGO","CA",92130,32.9377051480001,-117.232078271,472,"3830 VALLEY CENTRE DR STE 705-264, SAN DIEGO, CA, 92130","Match","Exact","3830 VALLEY CENTRE DR, SAN DIEGO, CA, 92130",195659366,"L"
192973,"3830 VALLEY CENTRE DRIVE STE 705716","SAN DIEGO","CA",92130,32.9377051480001,-117.232078271,473,"3830 VALLEY CENTRE DRIVE STE 705716, SAN DIEGO, CA, 92130","Match","Exact","3830 VALLEY CENTRE DR, SAN DIEGO, CA, 92130",195659366,"L"
192974,"3830 VALLEY CENTRE SUITE 705 PMB503","SAN DIEGO","CA",92130,32.9377051480001,-117.232078271,474,"3830 VALLEY CENTRE SUITE 705 PMB503, SAN DIEGO, CA, 92130","Match","Non_Exact","3830 VALLEY CENTRE DR, SAN DIEGO, CA, 92130",195659366,"L"
192975,"3830 VILLANOVA","HOUSTON","TX",77005,29.710870089,-95.43804985,475,"3830 VILLANOVA, HOUSTON, TX, 77005","Match","Non_Exact","3830 VILLANOVA ST, HOUSTON, TX, 77005",96034793,"R"
192976,"3830 WELLAND AVE","LOS ANGELES","CA",90008,34.016372032,-118.326072387,476,"3830 WELLAND AVE, LOS ANGELES, CA, 90008","Match","Exact","3830 WELLAND AVE, LOS ANGELES, CA, 90008",652033807,"L"
192977,"38300 30TH STREET EAST 192","PALMDALE","CA",93550,34.577912924,-118.076191285,477,"38300 30TH STREET EAST 192, PALMDALE, CA, 93550","Match","Exact","38300 30TH ST E, PALMDALE, CA, 93550",241248962,"L"
192978,"38301 E MUNRO RD","LONE JACK","MO",64070,38.9220701880001,-94.138282843,478,"38301 E MUNRO RD, LONE JACK, MO, 64070","Match","Exact","38301 E MUNRO RD, LONE JACK, MO, 64070",91504708,"L"
192979,"38301 LA LOMA AVENUE","PALMDALE","CA",93551,34.577969964,-118.135500408,479,"38301 LA LOMA AVENUE, PALMDALE, CA, 93551","Match","Exact","38301 LA LOMA AVE, PALMDALE, CA, 93551",141799520,"R"
192980,"38302 PINE DRIVE","CLINTON","MI",48038,42.577880323,-82.962192907,480,"38302 PINE DRIVE, CLINTON, MI, 48038","Match","Non_Exact","38302 PINE DR, CLINTON TOWNSHIP, MI, 48038",617081683,"L"
192981,"38309 MIDI ESTATES DRIVE","LONE JACK","MO",64070,38.892103321,-94.1415594699999,481,"38309 MIDI ESTATES DRIVE, LONE JACK, MO, 64070","Match","Exact","38309 MIDI ESTATES DR, LONE JACK, MO, 64070",627115421,"R"
192982,"3831 9TH STREET","NORTH BEACH","MD",20714,38.7108196450001,-76.5381727,482,"3831 9TH STREET, NORTH BEACH, MD, 20714","Match","Exact","3831 9TH ST, NORTH BEACH, MD, 20714",78175388,"R"
192983,"3831 BERRY AVE","DREXEL HILL","PA",19026,39.9445656120001,-75.298519647,483,"3831 BERRY AVE, DREXEL HILL, PA, 19026","Match","Exact","3831 BERRY AVE, DREXEL HILL, PA, 19026",134876498,"R"
192984,"3831 CLEARLIGHT RD","CELINA","TX",75009,33.272846282,-96.8055205649999,484,"3831 CLEARLIGHT RD, CELINA, TX, 75009","Match","Exact","3831 CLEARLIGHT RD, CELINA, TX, 75009",642250236,"R"
192985,"3831 EAST NOWATA DRIVE","PHOENIX","AZ",85044,33.3390462730001,-112.000430487,485,"3831 EAST NOWATA DRIVE, PHOENIX, AZ, 85044","Match","Exact","3831 E NOWATA DR, PHOENIX, AZ, 85044",128236035,"R"
192986,"3831 FREDERICK AVENUE 245","SAINT JOSEPH","MO",64506,39.7769670500001,-94.799469953,486,"3831 FREDERICK AVENUE 245, SAINT JOSEPH, MO, 64506","Match","Exact","3831 FREDERICK AVE, SAINT JOSEPH, MO, 64506",15955475,"L"
192987,"3831 HALIFAX ROAD","WILMINGTON","NC",28403,34.2124335460001,-77.901262483,487,"3831 HALIFAX ROAD, WILMINGTON, NC, 28403","Match","Exact","3831 HALIFAX RD, WILMINGTON, NC, 28403",152733455,"L"
192988,"3831 JANIS DRIVE","RICHTON PARK","IL",60471,41.4727585890001,-87.709968684,488,"3831 JANIS DRIVE, RICHTON PARK, IL, 60471","Match","Exact","3831 JANIS DR, RICHTON PARK, IL, 60471",645571771,"L"
192989,"3831 MIDWAY PL NE","ALBUQUERQUE","NM",87109,35.149776849,-106.600797027,489,"3831 MIDWAY PL NE, ALBUQUERQUE, NM, 87109","Match","Exact","3831 MIDWAY PL NE, ALBUQUERQUE, NM, 87109",206704154,"L"
192990,"3831 NW 21ST  STREET APT 310","LAUDERDALE LAKES","FL",33311,26.1528615170001,-80.200739802,490,"3831 NW 21ST  STREET APT 310, LAUDERDALE LAKES, FL, 33311","Match","Non_Exact","3831 NW 21ST ST, LAUDERDALE LAKES, FL, 33311",636820584,"L"
192991,"3831 PINECREST RD","ROCKFORD","IL",61107,42.2863580210001,-89.036333658,491,"3831 PINECREST RD, ROCKFORD, IL, 61107","Match","Exact","3831 PINECREST RD, ROCKFORD, IL, 61107",642296109,"R"
192992,"3831 W 55TH PLACE","CHICAGO","IL",60629,41.7923388300001,-87.719074733,492,"3831 W 55TH PLACE, CHICAGO, IL, 60629","Match","Exact","3831 W 55TH PL, CHICAGO, IL, 60629",111800954,"L"
192993,"3831 W FUQUA","HOUSTON","TX",77045,29.613501946,-95.4334742249999,493,"3831 W FUQUA, HOUSTON, TX, 77045","Match","Non_Exact","3831 W FUQUA ST, HOUSTON, TX, 77045",96593428,"L"
192994,"38313 N 17TH WAY","DESERT HILLS","AZ",85086,33.8320076730001,-112.044077693,494,"38313 N 17TH WAY, DESERT HILLS, AZ, 85086","Match","Exact","38313 N 17TH WAY, DESERT HILLS, AZ, 85086",627410743,"R"
192995,"3832 1/2 WEST 107TH ST","INGLEWOOD","CA",90303,33.938774134,-118.340649016,495,"3832 1/2 WEST 107TH ST, INGLEWOOD, CA, 90303","Match","Exact","3832 W 107TH ST, INGLEWOOD, CA, 90303",142751841,"L"
192996,"3832 26TH AVE S","MINNEAPOLIS","MN",55406,44.933464933,-93.23467407,496,"3832 26TH AVE S, MINNEAPOLIS, MN, 55406","Match","Exact","3832 26TH AVE S, MINNEAPOLIS, MN, 55406",43639858,"R"
192997,"3832 GRAYTON STREET","DETROIT","MI",48224,42.396435109,-82.9262257079999,497,"3832 GRAYTON STREET, DETROIT, MI, 48224","Match","Exact","3832 GRAYTON ST, DETROIT, MI, 48224",95487486,"R"
192998,"3832 HAVEN AVE","FREMONT","CA",94538,37.5266876150001,-121.956043772,498,"3832 HAVEN AVE, FREMONT, CA, 94538","Match","Exact","3832 HAVEN AVE, FREMONT, CA, 94538",125033951,"L"
192999,"3832 HWY 367N","BALD KNOB","AR",72010,NA,NA,499,"3832 HWY 367N, BALD KNOB, AR, 72010","No_Match",NA,NA,NA,NA
193000,"3832 INDIANA STREET","ANCHORAGE","AK",99503,61.185741099,-149.899780279,500,"3832 INDIANA STREET, ANCHORAGE, AK, 99503","Match","Exact","3832 INDIANA ST, ANCHORAGE, AK, 99503",190797145,"R"
