"ID","Address","City","State","Zip","lat","long","id","input_address","match_indicator","match_type","matched_address","tiger_line_id","tiger_side"
66001,"1494 E QUEEN VALLEY DR","QUEEN VALLEY","AZ",85118,33.299500933,-111.287638402,1,"1494 E QUEEN VALLEY DR, QUEEN VALLEY, AZ, 85118","Match","Exact","1494 E QUEEN VALLEY DR, QUEEN VALLEY, AZ, 85118",635776775,"L"
66002,"1494 FAIRMOUNT AVE","ST PAUL","MN",55105,44.9369837930001,-93.163370172,2,"1494 FAIRMOUNT AVE, ST PAUL, MN, 55105","Match","Exact","1494 FAIRMOUNT AVE, SAINT PAUL, MN, 55105",97645859,"L"
66003,"1494 NASHVILLE DR","TALLAHASSEE","FL",32304,30.4613492940001,-84.36690401,3,"1494 NASHVILLE DR, TALLAHASSEE, FL, 32304","Match","Exact","1494 NASHVILLE DR, TALLAHASSEE, FL, 32304",82862216,"L"
66004,"1494 OLD YORK ROAD SUITE 200","ABINGTON","PA",19001,40.1244605630001,-75.117353336,4,"1494 OLD YORK ROAD SUITE 200, ABINGTON, PA, 19001","Match","Exact","1494 YORK RD, ABINGTON, PA, 19001",135093297,"L"
66005,"14940 GRASSY KNOLL CT","WOODBRIDGE","VA",22193,38.6271599630001,-77.3865063279999,5,"14940 GRASSY KNOLL CT, WOODBRIDGE, VA, 22193","Match","Exact","14940 GRASSY KNOLL CT, WOODBRIDGE, VA, 22193",207143739,"R"
66006,"14940 PERRIS BLVD F","MORENO VALLEY","CA",92553,33.9038543,-117.226294695,6,"14940 PERRIS BLVD F, MORENO VALLEY, CA, 92553","Match","Exact","14940 PERRIS BLVD, MORENO VALLEY, CA, 92553",194875675,"L"
66007,"14940 PIERCE ST","MIAMI","FL",33145,25.6301497480001,-80.369178501,7,"14940 PIERCE ST, MIAMI, FL, 33145","Match","Non_Exact","14940 PIERCE ST, MIAMI, FL, 33176",115982029,"R"
66008,"14940 S 81ST CT","ORLAND PARK","IL",60462,41.6189367010001,-87.817567619,8,"14940 S 81ST CT, ORLAND PARK, IL, 60462","Match","Exact","14940 81ST CT, ORLAND PARK, IL, 60462",111701362,"R"
66009,"14940 VICTORY LANE","GLENELLLLLG","MD",21737,39.2571167500001,-77.036565659,9,"14940 VICTORY LANE, GLENELLLLLG, MD, 21737","Match","Non_Exact","14940 VICTORY LN, GLENELG, MD, 21737",642675237,"R"
66010,"14941 WHITTIER LOOP","WOODBRIDGE","VA",22193,38.627359842,-77.3434714099999,10,"14941 WHITTIER LOOP, WOODBRIDGE, VA, 22193","Match","Exact","14941 WHITTIER LOOP, WOODBRIDGE, VA, 22193",207141696,"R"
66011,"14942 ATMORE PLACE","HOUSTON","TX",77082,29.7277915220001,-95.6509608969999,11,"14942 ATMORE PLACE, HOUSTON, TX, 77082","Match","Non_Exact","14942 ATMORE PLACE DR, HOUSTON, TX, 77082",636879802,"L"
66012,"14942 BURBANK BLVD STE 203","SHERMAN OAKS","CA",91411,34.1721084960001,-118.458560156,12,"14942 BURBANK BLVD STE 203, SHERMAN OAKS, CA, 91411","Match","Exact","14942 BURBANK BLVD, SHERMAN OAKS, CA, 91411",141560661,"L"
66013,"14942 W CARIBBEAN LANE","SURPRISE","AZ",85379,33.62326004,-112.382283581,13,"14942 W CARIBBEAN LANE, SURPRISE, AZ, 85379","Match","Exact","14942 W CARIBBEAN LN, SURPRISE, AZ, 85379",128431404,"R"
66014,"14943 SW 37 ST","MIAMI","FL",33185,25.7329004640001,-80.436107512,14,"14943 SW 37 ST, MIAMI, FL, 33185","Match","Exact","14943 SW 37TH ST, MIAMI, FL, 33185",116082716,"L"
66015,"14944 BRAMELL","DETROIT","MI",48223,42.3968837420001,-83.264247975,15,"14944 BRAMELL, DETROIT, MI, 48223","Match","Non_Exact","14944 BRAMELL ST, DETROIT, MI, 48223",95421142,"R"
66016,"14944 QUIRAUK SCHOOL RD","SABILLASVILLE","MD",21780,39.6438775450001,-77.511108802,16,"14944 QUIRAUK SCHOOL RD, SABILLASVILLE, MD, 21780","Match","Exact","14944 QUIRAUK SCHOOL RD, SABILLASVILLE, MD, 21780",635806189,"L"
66017,"14945 NIGHTHAWK LANE","BOWIE","MD",20716,38.9461835230001,-76.7475878289999,17,"14945 NIGHTHAWK LANE, BOWIE, MD, 20716","Match","Exact","14945 NIGHTHAWK LN, BOWIE, MD, 20716",76327985,"R"
66018,"14945 RANCH CREEK LN","GAITHERSBURG","MD",20878,NA,NA,18,"14945 RANCH CREEK LN, GAITHERSBURG, MD, 20878","No_Match",NA,NA,NA,NA
66019,"14945 RANCH CREEK LN","VALLEY CENTER","CA",92082,33.2733479350001,-117.007724103,19,"14945 RANCH CREEK LN, VALLEY CENTER, CA, 92082","Match","Exact","14945 RANCH CREEK LN, VALLEY CENTER, CA, 92082",195728150,"R"
66020,"14945 SW SEQUOIA PARKWAY SUITE 150","PORTLAND","OR",97224,45.4123423090001,-122.746933635,20,"14945 SW SEQUOIA PARKWAY SUITE 150, PORTLAND, OR, 97224","Match","Non_Exact","14945 SW SEQUOIA PKWY, PORTLAND, OR, 97224",645538384,"L"
66021,"14946 SUGAR PEAK DRIVE","SUGAR LAND","TX",77498,29.661242438,-95.6500038619999,21,"14946 SUGAR PEAK DRIVE, SUGAR LAND, TX, 77498","Match","Exact","14946 SUGAR PEAK DR, SUGAR LAND, TX, 77498",627292650,"L"
66022,"14947 123RD STREET","SOUTH OZONE PARK","NY",11420,NA,NA,22,"14947 123RD STREET, SOUTH OZONE PARK, NY, 11420","No_Match",NA,NA,NA,NA
66023,"14947 MADISON COURT","HAYMARKET","VA",20169,38.810544668,-77.6351462649999,23,"14947 MADISON COURT, HAYMARKET, VA, 20169","Match","Exact","14947 MADISON CT, HAYMARKET, VA, 20169",76517264,"R"
66024,"14947 SUNSET GARDEN CT","VICTORVILLE","CA",92394,34.5222204670001,-117.369553506,24,"14947 SUNSET GARDEN CT, VICTORVILLE, CA, 92394","Match","Non_Exact","14947 SUNSET GARDENS CT, VICTORVILLE, CA, 92394",614827719,"R"
66025,"14948 GLASTONBURY AVENUE","DETROIT","MI",48223,42.3977510730001,-83.225125877,25,"14948 GLASTONBURY AVENUE, DETROIT, MI, 48223","Match","Exact","14948 GLASTONBURY AVE, DETROIT, MI, 48223",95423400,"R"
66026,"14948 GREENBERRY HILL CT","CHESTERFIELD","MO",63017,38.6254906990001,-90.542732044,26,"14948 GREENBERRY HILL CT, CHESTERFIELD, MO, 63017","Match","Exact","14948 GREENBERRY HILL CT, CHESTERFIELD, MO, 63017",100111588,"R"
66027,"1495 BIG MARROWBONE ROAD","ASHLAND CITY","TN",37015,36.258309184,-86.990333587,27,"1495 BIG MARROWBONE ROAD, ASHLAND CITY, TN, 37015","Match","Exact","1495 BIG MARROWBONE RD, ASHLAND CITY, TN, 37015",608456688,"L"
66028,"1495 CANADAVILLE LOOP","EADS","TN",38028,35.1925177630001,-89.567596704,28,"1495 CANADAVILLE LOOP, EADS, TN, 38028","Match","Exact","1495 CANADAVILLE LOOP, EADS, TN, 38028",72704553,"R"
66029,"1495 CANYON BLVD","BOULDER","CO",80302,40.0167032100001,-105.27552617,29,"1495 CANYON BLVD, BOULDER, CO, 80302","Match","Exact","1495 CANYON BLVD, BOULDER, CO, 80302",188159756,"L"
66030,"1495 E NINE MILE RD","PENSACOLA","FL",32514,30.532467023,-87.236732686,30,"1495 E NINE MILE RD, PENSACOLA, FL, 32514","Match","Exact","1495 E NINE MILE RD, PENSACOLA, FL, 32514",93283376,"R"
66031,"1495 ETNA ST","ST PAUL","MN",55106,44.986320446,-93.041834051,31,"1495 ETNA ST, ST PAUL, MN, 55106","Match","Non_Exact","1495 N ETNA ST, SAINT PAUL, MN, 55106",97651333,"L"
66032,"1495 FAIR RD","SCHUYLKILL HAVEN","PA",17972,40.555544201,-76.248676438,32,"1495 FAIR RD, SCHUYLKILL HAVEN, PA, 17972","Match","Exact","1495 FAIR RD, SCHUYLKILL HAVEN, PA, 17972",70978447,"L"
66033,"1495 HOUSE STREET NE","BELMONT","MI",49306,43.100679712,-85.631454361,33,"1495 HOUSE STREET NE, BELMONT, MI, 49306","Match","Exact","1495 HOUSE ST NE, BELMONT, MI, 49306",648418965,"R"
66034,"1495 LAKE ST","HOBART","IN",46342,41.5126415780001,-87.254932872,34,"1495 LAKE ST, HOBART, IN, 46342","Match","Exact","1495 LAKE ST, HOBART, IN, 46342",98449903,"R"
66035,"1495 LANNOCK DR","DANVILLE","KY",40422,37.662247225,-84.79006608,35,"1495 LANNOCK DR, DANVILLE, KY, 40422","Match","Exact","1495 LANNOCK DR, DANVILLE, KY, 40422",32493538,"R"
66036,"1495 N 200 E","OREM","UT",84057,40.325082696,-111.691272572,36,"1495 N 200 E, OREM, UT, 84057","Match","Exact","1495 200 E, OREM, UT, 84057",616580212,"R"
66037,"1495 N HAMPTON RD SUITE C","DESOTO","TX",75115,NA,NA,37,"1495 N HAMPTON RD SUITE C, DESOTO, TX, 75115","Tie",NA,NA,NA,NA
66038,"1495 NEAL AVENUE COURT NORTH","LAKE ELMO","MN",55042,44.9694044510001,-92.840016726,38,"1495 NEAL AVENUE COURT NORTH, LAKE ELMO, MN, 55042","Match","Exact","1495 NEAL AVENUE CT N, LAKE ELMO, MN, 55042",97827682,"R"
66039,"1495 NORTH AVE","PLAINFIELD","NJ",7062,40.635731562,-74.3946806659999,39,"1495 NORTH AVE, PLAINFIELD, NJ, 7062","Match","Exact","1495 NORTH AVE, PLAINFIELD, NJ, 07062",60567387,"L"
66040,"1495 NW 4TH STREET","GRESHM","OR",97030,45.500225502,-122.447174304,40,"1495 NW 4TH STREET, GRESHM, OR, 97030","Match","Non_Exact","1495 NW 4TH ST, GRESHAM, OR, 97030",157534915,"R"
66041,"1495 OAK RIDGE RD","AUSTELL","GA",30168,33.7823639170001,-84.597603035,41,"1495 OAK RIDGE RD, AUSTELL, GA, 30168","Match","Exact","1495 OAK RIDGE RD, AUSTELL, GA, 30168",647804830,"L"
66042,"1495 PACIFIC HIGHWAY  SUITE 400","SAN DIEGO","CA",92101,32.720778212,-117.171017313,42,"1495 PACIFIC HIGHWAY  SUITE 400, SAN DIEGO, CA, 92101","Match","Exact","1495 PACIFIC HWY, SAN DIEGO, CA, 92101",195343332,"R"
66043,"1495 PACIFIC HIGHWAY ST 400","SAN DIEGO","CA",94101,32.720778212,-117.171017313,43,"1495 PACIFIC HIGHWAY ST 400, SAN DIEGO, CA, 94101","Match","Non_Exact","1495 PACIFIC HWY, SAN DIEGO, CA, 92101",195343332,"R"
66044,"1495 S NORFOLK CT","AURORA","CO",80017,39.689814992,-104.795172006,44,"1495 S NORFOLK CT, AURORA, CO, 80017","Match","Exact","1495 S NORFOLK CT, AURORA, CO, 80017",177356390,"R"
66045,"1495 SE 3RD STREET","CEDAREDGE","CO",81413,38.8854588680001,-107.927505036,45,"1495 SE 3RD STREET, CEDAREDGE, CO, 81413","Match","Exact","1495 SE 3RD ST, CEDAREDGE, CO, 81413",122367819,"L"
66046,"1495 SMITH COUNTY ROAD 64","MIZE","MS",39116,NA,NA,46,"1495 SMITH COUNTY ROAD 64, MIZE, MS, 39116","No_Match",NA,NA,NA,NA
66047,"1495 WHITE ASH DR","PAINESVILLE","OH",44077,41.7305877960001,-81.197934821,47,"1495 WHITE ASH DR, PAINESVILLE, OH, 44077","Match","Exact","1495 WHITE ASH DR, PAINESVILLE, OH, 44077",137473674,"R"
66048,"14950 107TH STREET","FELLSMERE","FL",32948,27.7905658870001,-80.633246143,48,"14950 107TH STREET, FELLSMERE, FL, 32948","Match","Exact","14950 107TH ST, FELLSMERE, FL, 32948",649151074,"R"
66049,"14950 BLUE LAKE COURT","FONTANA","CA",92336,34.120108089,-117.479188701,49,"14950 BLUE LAKE COURT, FONTANA, CA, 92336","Match","Exact","14950 BLUE LAKE CT, FONTANA, CA, 92336",144964754,"L"
66050,"14950 HAVENRIDGE DRIVE","HOUSTON","TX",77083,29.6788555150001,-95.651543867,50,"14950 HAVENRIDGE DRIVE, HOUSTON, TX, 77083","Match","Exact","14950 HAVENRIDGE DR, HOUSTON, TX, 77083",78265290,"L"
66051,"14950 HEATHROW FOREST PKWY STE 145","HOUSTON","TX",77032,29.92604779,-95.3293473369999,51,"14950 HEATHROW FOREST PKWY STE 145, HOUSTON, TX, 77032","Match","Non_Exact","14950 HEATHROW FORREST PKWY, HOUSTON, TX, 77032",96654247,"L"
66052,"14950 HIGHLAND DRIVE","MC KENZIE","TN",38201,36.120263343,-88.521414131,52,"14950 HIGHLAND DRIVE, MC KENZIE, TN, 38201","Match","Exact","14950 HIGHLAND DR, MC KENZIE, TN, 38201",613953209,"R"
66053,"14950 MICHELLE LANE","BEAUMONT","TX",77713,30.050382697,-94.283582936,53,"14950 MICHELLE LANE, BEAUMONT, TX, 77713","Match","Exact","14950 MICHELLE LN, BEAUMONT, TX, 77713",653228466,"R"
66054,"14950 POTOMAC HEIGHTS PLACE","WOODBRIDGE","VA",22191,38.627415468,-77.274828849,54,"14950 POTOMAC HEIGHTS PLACE, WOODBRIDGE, VA, 22191","Match","Exact","14950 POTOMAC HEIGHTS PL, WOODBRIDGE, VA, 22191",646641849,"R"
66055,"14950 SW 288 STREET","HOMESTEAD","FL",33033,25.4994646690001,-80.433443032,55,"14950 SW 288 STREET, HOMESTEAD, FL, 33033","Match","Exact","14950 SW 288TH ST, HOMESTEAD, FL, 33033",116278340,"L"
66056,"14950 WACO ST NW","RAMSEY","MN",55303,45.2420932900001,-93.3945555349999,56,"14950 WACO ST NW, RAMSEY, MN, 55303","Match","Exact","14950 WACO ST NW, RAMSEY, MN, 55303",653433206,"R"
66057,"14951 BELLOWS FALLS LANE SUITE 818","HUMBLE","TX",77396,29.9340916670001,-95.259622081,57,"14951 BELLOWS FALLS LANE SUITE 818, HUMBLE, TX, 77396","Match","Non_Exact","14951 BELLOW FALLS LN, HUMBLE, TX, 77396",645430269,"L"
66058,"14951 BLACKBURN ROAD","ATHENS","AL",35611,34.7760735320001,-87.054395519,58,"14951 BLACKBURN ROAD, ATHENS, AL, 35611","Match","Exact","14951 BLACKBURN RD, ATHENS, AL, 35611",95236473,"L"
66059,"14951 CHANDLER ROAD","OMAHA","NE",68138,41.183519634,-96.148078098,59,"14951 CHANDLER ROAD, OMAHA, NE, 68138","Match","Exact","14951 CHANDLER RD, OMAHA, NE, 68138",28478504,"R"
66060,"14951 DALLAS PARKWAY STE 200","DALLAS","TX",75254,32.947815136,-96.823622841,60,"14951 DALLAS PARKWAY STE 200, DALLAS, TX, 75254","Match","Exact","14951 DALLAS PKWY, DALLAS, TX, 75254",639650280,"L"
66061,"14951 GLASTONBURY","DETROIT","MI",48223,42.397771456,-83.225141536,61,"14951 GLASTONBURY, DETROIT, MI, 48223","Match","Non_Exact","14951 GLASTONBURY AVE, DETROIT, MI, 48223",95423400,"L"
66062,"14951 ROYAL OAKS LANE 2604","NORTH MIAMI","FL",33181,25.91325815,-80.1522814689999,62,"14951 ROYAL OAKS LANE 2604, NORTH MIAMI, FL, 33181","Match","Exact","14951 ROYAL OAKS LN, NORTH MIAMI, FL, 33181",649356995,"R"
66063,"14951 SW 59TH ST","MIAMI","FL",33193,25.7094672440001,-80.4351802259999,63,"14951 SW 59TH ST, MIAMI, FL, 33193","Match","Exact","14951 SW 59TH ST, MIAMI, FL, 33193",116062015,"R"
66064,"14952 101ST WAY SE","YELM","WA",98597,46.940375712,-122.623554878,64,"14952 101ST WAY SE, YELM, WA, 98597","Match","Exact","14952 101ST WAY SE, YELM, WA, 98597",627421895,"R"
66065,"14953 CARRY BACK DRIVE","NORTH POTOMAC","MD",20878,39.100961861,-77.260496804,65,"14953 CARRY BACK DRIVE, NORTH POTOMAC, MD, 20878","Match","Exact","14953 CARRY BACK DR, N POTOMAC, MD, 20878",62083701,"L"
66066,"14953 SYLVAN STREET","VAN NUYS","CA",91411,34.184849098,-118.458958127,66,"14953 SYLVAN STREET, VAN NUYS, CA, 91411","Match","Exact","14953 SYLVAN ST, VAN NUYS, CA, 91411",141560297,"R"
66067,"14955 GALAXIE AVENUE","APPLE VALLEY","MN",55124,44.7328097750001,-93.207468204,67,"14955 GALAXIE AVENUE, APPLE VALLEY, MN, 55124","Match","Non_Exact","14955 GALAXIE AVE W, APPLE VALLEY, MN, 55124",37939749,"R"
66068,"14955 W BELL RD SUITE 7953","SURPRISE","AZ",85374,NA,NA,68,"14955 W BELL RD SUITE 7953, SURPRISE, AZ, 85374","No_Match",NA,NA,NA,NA
66069,"14959 L STREET","OMAHA","NE",68137,41.212221533,-96.14661102,69,"14959 L STREET, OMAHA, NE, 68137","Match","Exact","14959 L ST, OMAHA, NE, 68137",116971063,"L"
66070,"1496 BRANDON ROAD","SANTA YNEZ","CA",93460,34.6246775590001,-120.093727239,70,"1496 BRANDON ROAD, SANTA YNEZ, CA, 93460","Match","Non_Exact","1496 BRANDON DR, SANTA YNEZ, CA, 93460",108592842,"R"
66071,"1496 CAMPGROUND RD","MCDONOUGH","GA",30252,33.4908402790001,-84.128532975,71,"1496 CAMPGROUND RD, MCDONOUGH, GA, 30252","Match","Exact","1496 CAMPGROUND RD, MCDONOUGH, GA, 30252",210411819,"R"
66072,"1496 CLOVERNOLL DR","CINCINNATI","GA",45231,NA,NA,72,"1496 CLOVERNOLL DR, CINCINNATI, GA, 45231","No_Match",NA,NA,NA,NA
66073,"1496 COMMERCIAL STREET","SALEM","OR",97301,44.9544675510001,-123.033809957,73,"1496 COMMERCIAL STREET, SALEM, OR, 97301","Match","Non_Exact","1496 COMMERCIAL ST NE, SALEM, OR, 97301",156246658,"R"
66074,"1496 E HARRISON ST","GILBERT","AZ",85295,33.31635763,-111.759123491,74,"1496 E HARRISON ST, GILBERT, AZ, 85295","Match","Exact","1496 E HARRISON ST, GILBERT, AZ, 85295",128810338,"L"
66075,"1496 E HIGHWAY 20","COLVILLE","WA",99114,48.5141770270001,-117.653521067,75,"1496 E HIGHWAY 20, COLVILLE, WA, 99114","Match","Non_Exact","1496 STATE RTE 20, COLVILLE, WA, 99114",174866863,"R"
66076,"1496 EAST LINCOLN","BIRMINGHAM","MI",48009,42.5391738220001,-83.2015704469999,76,"1496 EAST LINCOLN, BIRMINGHAM, MI, 48009","Match","Non_Exact","1496 E LINCOLN ST, BIRMINGHAM, MI, 48009",69735682,"R"
66077,"1496 HAGEY DRIVE","BARBERTON","OH",44203,40.994387954,-81.6424792349999,77,"1496 HAGEY DRIVE, BARBERTON, OH, 44203","Match","Exact","1496 HAGEY DR, BARBERTON, OH, 44203",61356866,"L"
66078,"1496 HAZEL GREEN DRIVE","FRISCO","TX",75033,33.192233098,-96.878348563,78,"1496 HAZEL GREEN DRIVE, FRISCO, TX, 75033","Match","Exact","1496 HAZEL GREEN DR, FRISCO, TX, 75033",614130340,"L"
66079,"1496 LIBERTY PKWY NW","ATLANTA","GA",30318,33.81614876,-84.438262902,79,"1496 LIBERTY PKWY NW, ATLANTA, GA, 30318","Match","Exact","1496 LIBERTY PKWY NW, ATLANTA, GA, 30318",650725025,"R"
66080,"1496 S FARM ROAD 63","SPRINGFIELD","MO",65802,37.191149094,-93.514184755,80,"1496 S FARM ROAD 63, SPRINGFIELD, MO, 65802","Match","Non_Exact","1496 S FARM RD 63, SPRINGFIELD, MO, 65802",605881433,"R"
66081,"1496 UNION VILLAGE RD","NORWICH","VT",5055,43.772784341,-72.257777902,81,"1496 UNION VILLAGE RD, NORWICH, VT, 5055","Match","Exact","1496 UNION VILLAGE RD, NORWICH, VT, 05055",139282331,"R"
66082,"1496 W PAGE AVENUE","Gilbert","AZ",85233,33.355533526,-111.822316705,82,"1496 W PAGE AVENUE, Gilbert, AZ, 85233","Match","Exact","1496 W PAGE AVE, GILBERT, AZ, 85233",128794381,"L"
66083,"14960 DICKENS STREET UNIT 313","SHERMAN OAKS","CA",91403,34.1514117140001,-118.459238787,83,"14960 DICKENS STREET UNIT 313, SHERMAN OAKS, CA, 91403","Match","Exact","14960 DICKENS ST, SHERMAN OAKS, CA, 91403",141560856,"L"
66084,"14960 LADY VICTORIA BLVD","ORLANDO","FL",32826,28.567412717,-81.161922139,84,"14960 LADY VICTORIA BLVD, ORLANDO, FL, 32826","Match","Exact","14960 LADY VICTORIA BLVD, ORLANDO, FL, 32826",94409061,"L"
66085,"14960 OAK KNOLL DR","RED BLUFF","CA",96080,40.2285199470001,-122.342420625,85,"14960 OAK KNOLL DR, RED BLUFF, CA, 96080","Match","Exact","14960 OAK KNOLL DR, RED BLUFF, CA, 96080",119366448,"R"
66086,"14963 S GRAVES RD","MULINO","OR",97042,45.2249854550001,-122.560816741,86,"14963 S GRAVES RD, MULINO, OR, 97042","Match","Exact","14963 S GRAVES RD, MULINO, OR, 97042",157901541,"R"
66087,"14965 COUNTY RD 545","NEVADA","TX",75173,33.073764522,-96.428944991,87,"14965 COUNTY RD 545, NEVADA, TX, 75173","Match","Exact","14965 CO RD 545, NEVADA, TX, 75173",642471443,"R"
66088,"14965 FM 279","CHANDLER","TX",75758,32.361036728,-95.50399443,88,"14965 FM 279, CHANDLER, TX, 75758","Match","Exact","14965 FM 279, CHANDLER, TX, 75758",42946328,"R"
66089,"14965 NEWPORT RD","CLEARWATER","FL",33764,27.9078327730001,-82.739699457,89,"14965 NEWPORT RD, CLEARWATER, FL, 33764","Match","Exact","14965 NEWPORT RD, CLEARWATER, FL, 33764",643373339,"R"
66090,"14965 SUN VALLEY DR","SUMMERSET","SD",57769,44.2228421070001,-103.36697918,90,"14965 SUN VALLEY DR, SUMMERSET, SD, 57769","Match","Exact","14965 SUN VALLEY DR, SUMMERSET, SD, 57769",200932032,"R"
66091,"14967 GRANITE PEAK AVENUE","FONTANA","CA",92336,34.143540971,-117.477539061,91,"14967 GRANITE PEAK AVENUE, FONTANA, CA, 92336","Match","Exact","14967 GRANITE PEAK AVE, FONTANA, CA, 92336",145229476,"L"
66092,"14968 GARDENHILL DRIVE","LA MIRADA","CA",90638,33.911741014,-118.012883127,92,"14968 GARDENHILL DRIVE, LA MIRADA, CA, 90638","Match","Exact","14968 GARDENHILL DR, LA MIRADA, CA, 90638",141752102,"R"
66093,"1497 BUCK RANGE RD","MINERAL SPGS","AR",71851,33.844702096,-93.858898396,93,"1497 BUCK RANGE RD, MINERAL SPGS, AR, 71851","Match","Exact","1497 BUCK RANGE RD, MINERAL SPRINGS, AR, 71851",651776246,"R"
66094,"1497 CHERRY ST EXT","PENDLETON","SC",29670,34.645424027,-82.74428291,94,"1497 CHERRY ST EXT, PENDLETON, SC, 29670","Match","Non_Exact","1497 CHERRY ST EXD, PENDLETON, SC, 29670",25441831,"L"
66095,"1497 E STATE ROAD 47","MARSHALL","IN",47859,39.878420335,-87.2127846779999,95,"1497 E STATE ROAD 47, MARSHALL, IN, 47859","Match","Exact","1497 STATE RD 47, MARSHALL, IN, 47859",66406062,"R"
66096,"1497 FOUR MILE RD","WASHINGTON","MO",63090,38.5342886130001,-91.098399796,96,"1497 FOUR MILE RD, WASHINGTON, MO, 63090","Match","Exact","1497 4 MILE RD, WASHINGTON, MO, 63090",648437591,"L"
66097,"1497 HAWSER CT APT 104","VIRGINIA BEACH","VA",23453,36.7947290050001,-76.106300633,97,"1497 HAWSER CT APT 104, VIRGINIA BEACH, VA, 23453","Match","Exact","1497 HAWSER CT, VIRGINIA BCH, VA, 23453",632538028,"R"
66098,"1497 HUNTINGTON LANE","CLEVELAND","OH",44118,41.519420257,-81.547331893,98,"1497 HUNTINGTON LANE, CLEVELAND, OH, 44118","Match","Exact","1497 HUNTINGTON LN, CLEVELAND, OH, 44118",629094250,"R"
66099,"1497 LARA ROAD","LANCASTER","VA",22503,37.8216207840001,-76.506960525,99,"1497 LARA ROAD, LANCASTER, VA, 22503","Match","Exact","1497 LARA RD, LANCASTER, VA, 22503",653470630,"R"
66100,"1497 MAIN STREET NO 304","DUNEDIN","FL",34698,28.019490961,-82.764757359,100,"1497 MAIN STREET NO 304, DUNEDIN, FL, 34698","Match","Non_Exact","1497 MAIN ST, DUNEDIN, FL, 34698",124741720,"R"
66101,"1497 MAIN STREET STE 185","DUNEDIN","FL",34698,28.019490961,-82.764757359,101,"1497 MAIN STREET STE 185, DUNEDIN, FL, 34698","Match","Exact","1497 MAIN ST, DUNEDIN, FL, 34698",124741720,"R"
66102,"1497 N HILL AVENUE BLDG A","PASADENA","CA",91104,34.1719552320001,-118.121562727,102,"1497 N HILL AVENUE BLDG A, PASADENA, CA, 91104","Match","Non_Exact","1497 N HILL AVE, PASADENA, CA, 91104",141628931,"L"
66103,"1497 PEARL ROAD","BRUNSWICK","OH",44212,41.234158092,-81.841374656,103,"1497 PEARL ROAD, BRUNSWICK, OH, 44212","Match","Exact","1497 PEARL RD, BRUNSWICK, OH, 44212",58686510,"R"
66104,"14970 EAGLE RANCH ROAD","BOX ELDER","SD",57719,44.16742866,-103.053877059,104,"14970 EAGLE RANCH ROAD, BOX ELDER, SD, 57719","Match","Non_Exact","14970 EAGLE RANCH DR, BOX ELDER, SD, 57719",646725608,"L"
66105,"14971 FM 2904","TEMPLE","TX",76501,31.079921934,-97.173153379,105,"14971 FM 2904, TEMPLE, TX, 76501","Match","Exact","14971 FM 2904, TEMPLE, TX, 76501",653524607,"L"
66106,"14971 OLD FREDERICKTOWN RD","EAST LIVERPOOL","OH",43920,40.684334866,-80.566898872,106,"14971 OLD FREDERICKTOWN RD, EAST LIVERPOOL, OH, 43920","Match","Exact","14971 OLD FREDERICKTOWN RD, EAST LIVERPOOL, OH, 43920",63658815,"L"
66107,"14972 SOUTH UNION CHURCH ROAD","ELLENDALE","DE",19941,38.7714196050001,-75.48694668,107,"14972 SOUTH UNION CHURCH ROAD, ELLENDALE, DE, 19941","Match","Exact","14972 S UNION CHURCH RD, ELLENDALE, DE, 19941",635791488,"L"
66108,"14975 PAGE MILL ROAD","LOS ALTOS HILLS","CA",94022,37.3845949560001,-122.165802769,108,"14975 PAGE MILL ROAD, LOS ALTOS HILLS, CA, 94022","Match","Exact","14975 PAGE MILL RD, LOS ALTOS HILLS, CA, 94022",615551096,"L"
66109,"14976 W WETHERSFIELD RD","SURPRISE","AZ",85379,33.595535044,-112.382703448,109,"14976 W WETHERSFIELD RD, SURPRISE, AZ, 85379","Match","Exact","14976 W WETHERSFIELD RD, SURPRISE, AZ, 85379",243966377,"L"
66110,"14978 BRITTNEY LN","LITTLE FALLS","MN",56345,46.0170572060001,-94.3459005719999,110,"14978 BRITTNEY LN, LITTLE FALLS, MN, 56345","Match","Exact","14978 BRITTNEY LN, LITTLE FALLS, MN, 56345",167411800,"R"
66111,"14978 PEBBLEBROOK PLACE","VICTORVILLE","CA",92394,34.5228575460001,-117.37122465,111,"14978 PEBBLEBROOK PLACE, VICTORVILLE, CA, 92394","Match","Exact","14978 PEBBLEBROOK PL, VICTORVILLE, CA, 92394",614835653,"L"
66112,"1498 BRICK RD","CHERRY HILL","NJ",8003,39.8783672060001,-74.933442194,112,"1498 BRICK RD, CHERRY HILL, NJ, 8003","Match","Exact","1498 BRICK RD, CHERRY HILL, NJ, 08003",134417949,"L"
66113,"1498 CATLIN LANE","ALEXANDRIA","VA",22311,38.8304319810001,-77.123815034,113,"1498 CATLIN LANE, ALEXANDRIA, VA, 22311","Match","Exact","1498 CATLIN LN, ALEXANDRIA, VA, 22311",76065728,"L"
66114,"1498 CRANE CREEK DRIVE","MT PLEASANT","SC",29466,32.89180064,-79.7646674539999,114,"1498 CRANE CREEK DRIVE, MT PLEASANT, SC, 29466","Match","Exact","1498 CRANE CREEK DR, MOUNT PLEASANT, SC, 29466",627152824,"R"
66115,"1498 E 9TH STREET","BROOKLYN","NY",11230,40.6125433920001,-73.9648278129999,115,"1498 E 9TH STREET, BROOKLYN, NY, 11230","Match","Exact","1498 E 9TH ST, BROOKLYN, NY, 11230",59089646,"R"
66116,"1498 E MAIN STREET - SUITE 103-335","COTTAGE GROVE","OR",97424,NA,NA,116,"1498 E MAIN STREET - SUITE 103-335, COTTAGE GROVE, OR, 97424","Tie",NA,NA,NA,NA
66117,"1498 HWY 47","WEST POINT","MS",39773,33.6248816790001,-88.748907824,117,"1498 HWY 47, WEST POINT, MS, 39773","Match","Non_Exact","1498 STATE HWY 47, WEST POINT, MS, 39773",607672263,"R"
66118,"1498 INTERSTATE 20 WEST","CISCO","TX",76437,NA,NA,118,"1498 INTERSTATE 20 WEST, CISCO, TX, 76437","No_Match",NA,NA,NA,NA
66119,"1498 JOY LANE","DECATUR","GA",30032,33.748926736,-84.246794665,119,"1498 JOY LANE, DECATUR, GA, 30032","Match","Exact","1498 JOY LN, DECATUR, GA, 30032",23370224,"L"
66120,"1498 NORTH AVE","NEW ROCHELLE","NY",10804,40.9528946520001,-73.796363453,120,"1498 NORTH AVE, NEW ROCHELLE, NY, 10804","Match","Exact","1498 NORTH AVE, NEW ROCHELLE, NY, 10804",139807141,"L"
66121,"1498 PRINCETON ROAD","MUSKEGON","MI",49441,43.199113901,-86.2805378749999,121,"1498 PRINCETON ROAD, MUSKEGON, MI, 49441","Match","Exact","1498 PRINCETON RD, MUSKEGON, MI, 49441",77652647,"R"
66122,"1498 REISTERSTOWN RD 320","BALTIMORE COUNTY","MD",21208,39.377109482,-76.7253058539999,122,"1498 REISTERSTOWN RD 320, BALTIMORE COUNTY, MD, 21208","Match","Non_Exact","1498 REISTERSTOWN RD, BALTIMORE, MD, 21208",191467823,"L"
66123,"1498 ROCK HILL DR","EAGLE PASS","TX",78852,28.728147059,-100.486004167,123,"1498 ROCK HILL DR, EAGLE PASS, TX, 78852","Match","Non_Exact","1498 ROCKHILL DR, EAGLE PASS, TX, 78852",653222160,"L"
66124,"1498 S CHERRY ST","CORNELIUS","OR",97113,45.517503816,-123.053288753,124,"1498 S CHERRY ST, CORNELIUS, OR, 97113","Match","Exact","1498 S CHERRY ST, CORNELIUS, OR, 97113",158177308,"L"
66125,"1498 SPRING PLACE NW APT 202","WASHINGTON","DC",20010,38.9369889930001,-77.034149196,125,"1498 SPRING PLACE NW APT 202, WASHINGTON, DC, 20010","Match","Exact","1498 SPRING PL NW, WASHINGTON, DC, 20010",76222934,"L"
66126,"1498 SWORDFISH STREET","FOSTER CITY","CA",94404,37.5573868990001,-122.247991619,126,"1498 SWORDFISH STREET, FOSTER CITY, CA, 94404","Match","Exact","1498 SWORDFISH ST, FOSTER CITY, CA, 94404",192384591,"R"
66127,"1498 WALES DR","WHEATON","IL",60189,41.84935455,-88.097323945,127,"1498 WALES DR, WHEATON, IL, 60189","Match","Exact","1498 WALES DR, WHEATON, IL, 60189",112529696,"L"
66128,"1498 WANDO LANDING STREET","DANIEL ISLAND","SC",29492,32.842935777,-79.904519959,128,"1498 WANDO LANDING STREET, DANIEL ISLAND, SC, 29492","Match","Exact","1498 WANDO LANDING ST, DANIEL ISLAND, SC, 29492",638903230,"L"
66129,"14980 FM 2100 RD","CROSBY","TX",77532,29.903336917,-95.063556202,129,"14980 FM 2100 RD, CROSBY, TX, 77532","Match","Non_Exact","14980 FM 2100, CROSBY, TX, 77532",641745296,"R"
66130,"14980 RANCH CREEK LANE","VALLEY CENTER","CA",92082,33.2741710280001,-117.007748858,130,"14980 RANCH CREEK LANE, VALLEY CENTER, CA, 92082","Match","Exact","14980 RANCH CREEK LN, VALLEY CENTER, CA, 92082",195728151,"L"
66131,"14980 SANDALWOOD LANE","CHINO HILLS","CA",91709,33.981169408,-117.715709354,131,"14980 SANDALWOOD LANE, CHINO HILLS, CA, 91709","Match","Exact","14980 SANDALWOOD LN, CHINO HILLS, CA, 91709",144677790,"R"
66132,"14982 DAWNHAVEN DR","WESTFIELD","IN",46074,40.0053431590001,-86.187619313,132,"14982 DAWNHAVEN DR, WESTFIELD, IN, 46074","Match","Exact","14982 DAWNHAVEN DR, WESTFIELD, IN, 46074",646656478,"R"
66133,"14983 S ROSE CANYON ROAD","HERRIMAN","UT",84096,40.478866183,-112.074033983,133,"14983 S ROSE CANYON ROAD, HERRIMAN, UT, 84096","Match","Non_Exact","14983 W ROSE CANYON RD, HERRIMAN, UT, 84096",616065990,"R"
66134,"14983 SELTON WAY","HERRIMAN","UT",84096,NA,NA,134,"14983 SELTON WAY, HERRIMAN, UT, 84096","No_Match",NA,NA,NA,NA
66135,"14985 E WAGONTRAIL DR","AURORA","CO",80015,39.6303833960001,-104.813489497,135,"14985 E WAGONTRAIL DR, AURORA, CO, 80015","Match","Exact","14985 E WAGONTRAIL DR, AURORA, CO, 80015",177355870,"L"
66136,"14985 HIMEBAUGH AVE","OMAHA","NE",68116,41.310821876,-96.149150737,136,"14985 HIMEBAUGH AVE, OMAHA, NE, 68116","Match","Exact","14985 HIMEBAUGH AVE, OMAHA, NE, 68116",624290795,"L"
66137,"14986 LORD FAIRFAX HIGHWAY","WHITE POST","VA",22663,39.0578017920001,-78.1108349049999,137,"14986 LORD FAIRFAX HIGHWAY, WHITE POST, VA, 22663","Match","Exact","14986 LORD FAIRFAX HWY, WHITE POST, VA, 22663",125899296,"R"
66138,"14986 NW CORNELL RD","PORTLAND","OR",97229,45.5318576340001,-122.832516356,138,"14986 NW CORNELL RD, PORTLAND, OR, 97229","Match","Exact","14986 NW CORNELL RD, PORTLAND, OR, 97229",605215155,"L"
66139,"14986 PATTON AVE","SAN LEANDRO","CA",94578,37.7087708710001,-122.126217234,139,"14986 PATTON AVE, SAN LEANDRO, CA, 94578","Match","Exact","14986 PATTON AVE, SAN LEANDRO, CA, 94578",125013476,"L"
66140,"1499 E 1160 S","SPANISH FORK","UT",84660,NA,NA,140,"1499 E 1160 S, SPANISH FORK, UT, 84660","No_Match",NA,NA,NA,NA
66141,"1499 E XENIA DR","FAIRBORN","OH",45324,39.8130238300001,-83.991095856,141,"1499 E XENIA DR, FAIRBORN, OH, 45324","Match","Exact","1499 E XENIA DR, FAIRBORN, OH, 45324",143418855,"R"
66142,"1499 EAST 10TH STREET","BROOKLYN","NY",11230,40.6126494710001,-73.963884601,142,"1499 EAST 10TH STREET, BROOKLYN, NY, 11230","Match","Exact","1499 E 10TH ST, BROOKLYN, NY, 11230",59089650,"L"
66143,"1499 HARD RD","COLUMBUS","OH",43235,40.116942222,-83.057830225,143,"1499 HARD RD, COLUMBUS, OH, 43235","Match","Exact","1499 HARD RD, COLUMBUS, OH, 43235",627908334,"R"
66144,"1499 HARD ROAD","COLUMBUS","OH",43235,40.116942222,-83.057830225,144,"1499 HARD ROAD, COLUMBUS, OH, 43235","Match","Exact","1499 HARD RD, COLUMBUS, OH, 43235",627908334,"R"
66145,"1499 HUNTINGTON DRIVE SUITE 318","SOUTH PASADENA","CA",91030,34.1040555060001,-118.150413451,145,"1499 HUNTINGTON DRIVE SUITE 318, SOUTH PASADENA, CA, 91030","Match","Exact","1499 HUNTINGTON DR, SOUTH PASADENA, CA, 91030",142735785,"R"
66146,"1499 KESSOCK WAY","STONE MOUNTAIN","GA",30083,33.824841097,-84.197502417,146,"1499 KESSOCK WAY, STONE MOUNTAIN, GA, 30083","Match","Exact","1499 KESSOCK WAY, STONE MOUNTAIN, GA, 30083",23402500,"L"
66147,"1499 MAIN ST PO BOX 76","GRESHAM","WI",54128,44.855578526,-88.7871054509999,147,"1499 MAIN ST PO BOX 76, GRESHAM, WI, 54128","Match","Exact","1499 MAIN ST, GRESHAM, WI, 54128",126877091,"L"
66148,"1499 MCLAINE STREET","CANTON","MI",48188,42.2941300040001,-83.522029565,148,"1499 MCLAINE STREET, CANTON, MI, 48188","Match","Non_Exact","1499 MCLAINE, CANTON, MI, 48188",95697636,"L"
66149,"1499 MEADOW LANE","CONCORD","CA",94520,37.964465698,-122.046433813,149,"1499 MEADOW LANE, CONCORD, CA, 94520","Match","Exact","1499 MEADOW LN, CONCORD, CA, 94520",192116756,"R"
66150,"1499 N CENTRAL AVE","SIDNEY","MT",59270,NA,NA,150,"1499 N CENTRAL AVE, SIDNEY, MT, 59270","Tie",NA,NA,NA,NA
66151,"1499 NW 91ST AVE APT 1134","CORAL SPRINGS","FL",33071,26.249476089,-80.246686628,151,"1499 NW 91ST AVE APT 1134, CORAL SPRINGS, FL, 33071","Match","Non_Exact","1499 NW 91ST AVE, CORAL SPRINGS, FL, 33071",650016990,"L"
66152,"1499 PARTON RD","CANYON LAKE","TX",78133,29.942127725,-98.222033002,152,"1499 PARTON RD, CANYON LAKE, TX, 78133","Match","Exact","1499 PARTON RD, CANYON LAKE, TX, 78133",635393806,"R"
66153,"1499 REGAL ROW SUITE 203","DALLAS","TX",75247,32.835251005,-96.876816326,153,"1499 REGAL ROW SUITE 203, DALLAS, TX, 75247","Match","Exact","1499 REGAL ROW, DALLAS, TX, 75247",103201738,"L"
66154,"1499 REGAL ROW SUITE 505","DALLAS","TX",75104,32.835251005,-96.876816326,154,"1499 REGAL ROW SUITE 505, DALLAS, TX, 75104","Match","Non_Exact","1499 REGAL ROW, DALLAS, TX, 75247",103201738,"L"
66155,"1499 SLEEPY HOLLOW ROAD","WHITE BLUFF","TN",37187,36.0967800980001,-87.22557284,155,"1499 SLEEPY HOLLOW ROAD, WHITE BLUFF, TN, 37187","Match","Exact","1499 SLEEPY HOLLOW RD, WHITE BLUFF, TN, 37187",72762306,"R"
66156,"1499 SOUTH 500 WEST","MAPLETON","UT",84664,40.1160517390001,-111.584611219,156,"1499 SOUTH 500 WEST, MAPLETON, UT, 84664","Match","Non_Exact","1499 500 W, MAPLETON, UT, 84664",645135283,"L"
66157,"1499 US HWY 17 NORTH","WAUCHULA","FL",33873,27.5714726320001,-81.8165828909999,157,"1499 US HWY 17 NORTH, WAUCHULA, FL, 33873","Match","Exact","1499 US HWY 17 N, WAUCHULA, FL, 33873",639987598,"L"
66158,"14993 KUTZTOWN RD","KUTZTOWN","PA",19530,40.500209102,-75.799276446,158,"14993 KUTZTOWN RD, KUTZTOWN, PA, 19530","Match","Exact","14993 KUTZTOWN RD, KUTZTOWN, PA, 19530",80404643,"L"
66159,"14993 ROUNDUP LANE","FONTANA","CA",92336,34.154757949,-117.47743063,159,"14993 ROUNDUP LANE, FONTANA, CA, 92336","Match","Exact","14993 ROUNDUP LN, FONTANA, CA, 92336",144982964,"R"
66160,"14995 BETHANY ESTATES WAY","MONTPELIER","VA",23192,37.81216335,-77.665209206,160,"14995 BETHANY ESTATES WAY, MONTPELIER, VA, 23192","Match","Exact","14995 BETHANY ESTATES WAY, MONTPELIER, VA, 23192",641114399,"R"
66161,"14995 HANDRICKS LN","CROWN POINT","IN",46307,NA,NA,161,"14995 HANDRICKS LN, CROWN POINT, IN, 46307","No_Match",NA,NA,NA,NA
66162,"14995 MISSION SQUARE DRIVE","NOBLESVILLE","IN",46060,40.0072090890001,-86.002722203,162,"14995 MISSION SQUARE DRIVE, NOBLESVILLE, IN, 46060","Match","Exact","14995 MISSION SQ, NOBLESVILLE, IN, 46060",646578777,"R"
66163,"14995 PINE AVENUE","FONTANA","CA",92335,34.0869778360001,-117.477718165,163,"14995 PINE AVENUE, FONTANA, CA, 92335","Match","Exact","14995 PINE AVE, FONTANA, CA, 92335",144641543,"R"
66164,"14995 RIVER ROAD","CORONA","CA",92880,33.931830959,-117.610759519,164,"14995 RIVER ROAD, CORONA, CA, 92880","Match","Exact","14995 RIVER RD, CORONA, CA, 92880",635977956,"R"
66165,"14996  50TH ST SOUTH","WELLINGTON","FL",33414,26.608616446,-80.2870254159999,165,"14996  50TH ST SOUTH, WELLINGTON, FL, 33414","Match","Exact","14996 50TH ST S, WELLINGTON, FL, 33414",618582050,"L"
66166,"14997 ELSINORE AVE","PARKER","CO",80134,39.5297873110001,-104.815945857,166,"14997 ELSINORE AVE, PARKER, CO, 80134","Match","Exact","14997 ELSINORE AVE, PARKER, CO, 80134",645843497,"L"
66167,"14A FRANK STREET","ROCKPORT","MA",1966,42.6378179540001,-70.610083824,167,"14A FRANK STREET, ROCKPORT, MA, 1966","Match","Exact","14 FRANK ST, ROCKPORT, MA, 01966",86707753,"R"
66168,"14A MARION ROAD","WESTPORT","CT",6880,41.132981912,-73.378119781,168,"14A MARION ROAD, WESTPORT, CT, 6880","Match","Exact","14 MARION RD, WESTPORT, CT, 06880",3261993,"R"
66169,"14B DORING DR","DANIELSON","CT",6239,41.817657432,-71.8857956379999,169,"14B DORING DR, DANIELSON, CT, 6239","Match","Exact","14 DORING DR, DANIELSON, CT, 06239",623931662,"R"
66170,"14B TRULL STREET UNIT 4","DORCHESTER","MA",2125,NA,NA,170,"14B TRULL STREET UNIT 4, DORCHESTER, MA, 2125","No_Match",NA,NA,NA,NA
66171,"14M READING ROAD","EDISON","NJ",8817,40.548617005,-74.3887092589999,171,"14M READING ROAD, EDISON, NJ, 8817","Match","Exact","14 READING RD, EDISON, NJ, 08817",60321579,"L"
66172,"14O SOUTH HEARTZ RD","COPPELL","TX",75019,NA,NA,172,"14O SOUTH HEARTZ RD, COPPELL, TX, 75019","No_Match",NA,NA,NA,NA
66173,"14R CARLTON STREET APT 2","SOMERVILLE","MA",2143,42.3811373400001,-71.09983585,173,"14R CARLTON STREET APT 2, SOMERVILLE, MA, 2143","Match","Exact","14 CARLTON ST, SOMERVILLE, MA, 02143",86869061,"R"
66174,"15  NEWFANE RD","NEW FAIRFIELD","CT",6812,41.455008352,-73.5341010499999,174,"15  NEWFANE RD, NEW FAIRFIELD, CT, 6812","Match","Exact","15 NEWFANE RD, NEW FAIRFIELD, CT, 06812",3275123,"L"
66175,"15  PINE LANE","NESCOPECK","PA",18635,41.0357683570001,-76.1493528299999,175,"15  PINE LANE, NESCOPECK, PA, 18635","Match","Exact","15 PINE LN, NESCOPECK, PA, 18635",80954130,"R"
66176,"15 01 132ND STREET","COLLEGE POINT","NY",11356,NA,NA,176,"15 01 132ND STREET, COLLEGE POINT, NY, 11356","No_Match",NA,NA,NA,NA
66177,"15 21ST ST  S SUITE 200","FARGO","ND",58103,46.875404266,-96.813392375,177,"15 21ST ST  S SUITE 200, FARGO, ND, 58103","Match","Exact","15 21ST ST S, FARGO, ND, 58103",151471803,"R"
66178,"15 4TH STREET","CENTRAL CITY","IA",52214,NA,NA,178,"15 4TH STREET, CENTRAL CITY, IA, 52214","Tie",NA,NA,NA,NA
66179,"15 5TH ST","FOND DU LAC","WI",54935,43.7727847090001,-88.446546052,179,"15 5TH ST, FOND DU LAC, WI, 54935","Match","Exact","15 5TH ST, FOND DU LAC, WI, 54935",74834933,"L"
66180,"15 ABINGDON SQ APT 54","NEW YORK","NY",10014,40.7370102960001,-74.005386609,180,"15 ABINGDON SQ APT 54, NEW YORK, NY, 10014","Match","Exact","15 ABINGDON SQ, NEW YORK, NY, 10014",59659826,"R"
66181,"15 ADAIR WAY","HAYWARD","CA",94542,37.6516543390001,-122.01143741,181,"15 ADAIR WAY, HAYWARD, CA, 94542","Match","Exact","15 ADAIR WAY, HAYWARD, CA, 94542",606239240,"L"
66182,"15 ALPINE DR","RANDOLPH","NJ",7869,40.8219692920001,-74.549637936,182,"15 ALPINE DR, RANDOLPH, NJ, 7869","Match","Exact","15 ALPINE DR, RANDOLPH, NJ, 07869",60437690,"L"
66183,"15 ALPINE PL","KEARNY","NJ",7032,40.774086133,-74.148887023,183,"15 ALPINE PL, KEARNY, NJ, 7032","Match","Exact","15 ALPINE PL, KEARNY, NJ, 07032",59611007,"L"
66184,"15 AMBER ROAD","WESTMINSTER","MA",1473,42.5712424220001,-71.876960119,184,"15 AMBER ROAD, WESTMINSTER, MA, 1473","Match","Exact","15 AMBER RD, WESTMINSTER, MA, 01473",40069131,"R"
66185,"15 AMITY COURT","WARWICK","NY",10990,41.2743417020001,-74.461982151,185,"15 AMITY COURT, WARWICK, NY, 10990","Match","Exact","15 AMITY CT, WARWICK, NY, 10990",124423190,"L"
66186,"15 AMY STREET APT 3","PROVIDENCE","RI",2906,41.825036847,-71.392069248,186,"15 AMY STREET APT 3, PROVIDENCE, RI, 2906","Match","Exact","15 AMY ST, PROVIDENCE, RI, 02906",47467682,"R"
66187,"15 ANDREA COURT","NEW ROCHELLE","NY",10804,40.957067211,-73.785135515,187,"15 ANDREA COURT, NEW ROCHELLE, NY, 10804","Match","Exact","15 ANDREA CT, NEW ROCHELLE, NY, 10804",139749509,"R"
66188,"15 ANNANDALE ROAD","HOLBROOK","NY",11741,40.7832721230001,-73.060857184,188,"15 ANNANDALE ROAD, HOLBROOK, NY, 11741","Match","Exact","15 ANNANDALE RD, HOLBROOK, NY, 11741",114008286,"L"
66189,"15 ANNETTE PL","MIDDLETOWN","CT",6457,41.573117187,-72.6749620639999,189,"15 ANNETTE PL, MIDDLETOWN, CT, 6457","Match","Exact","15 ANNETTE PL, MIDDLETOWN, CT, 06457",113888852,"R"
66190,"15 ANTHONY COURT","HUNTINGTON","NY",11743,40.894190607,-73.409103267,190,"15 ANTHONY COURT, HUNTINGTON, NY, 11743","Match","Exact","15 ANTHONY CT, HUNTINGTON, NY, 11743",114033820,"R"
66191,"15 ARAPAHO TRAIL","PALMYRA","VA",22963,37.937056936,-78.331803351,191,"15 ARAPAHO TRAIL, PALMYRA, VA, 22963","Match","Exact","15 ARAPAHO TRL, PALMYRA, VA, 22963",73787830,"R"
66192,"15 ART BARN ROAD","SEDONA","AZ",86336,34.872571871,-111.757400972,192,"15 ART BARN ROAD, SEDONA, AZ, 86336","Match","Exact","15 ART BARN RD, SEDONA, AZ, 86336",188985589,"L"
66193,"15 ASHLEY ROAD","ASHEVILLE","NC",28805,35.633638933,-82.4801117219999,193,"15 ASHLEY ROAD, ASHEVILLE, NC, 28805","Match","Exact","15 ASHLEY RD, ASHEVILLE, NC, 28805",36898041,"L"
66194,"15 ASHTON STREET","HARTFORD","CT",6095,NA,NA,194,"15 ASHTON STREET, HARTFORD, CT, 6095","No_Match",NA,NA,NA,NA
66195,"15 ASPEN DRIVE","NORTH CALDWELL","NJ",7006,40.8678364140001,-74.2466011779999,195,"15 ASPEN DRIVE, NORTH CALDWELL, NJ, 7006","Match","Exact","15 ASPEN DR, N CALDWELL, NJ, 07006",63473176,"L"
66196,"15 ATLAS COURT","HUNTINGTON","NY",11743,40.8355632870001,-73.363878202,196,"15 ATLAS COURT, HUNTINGTON, NY, 11743","Match","Exact","15 ATLAS CT, HUNTINGTON, NY, 11743",113968211,"R"
66197,"15 AYERS ST","BARRE","VT",5641,44.1908087780001,-72.497162383,197,"15 AYERS ST, BARRE, VT, 5641","Match","Exact","15 AYERS ST, BARRE, VT, 05641",136671043,"L"
66198,"15 BACON COURT","BRONXVILLE","NY",10708,40.946292466,-73.832781229,198,"15 BACON COURT, BRONXVILLE, NY, 10708","Match","Exact","15 BACON CT, BRONXVILLE, NY, 10708",139781204,"L"
66199,"15 BACON","FRANKLIN","MA",2038,42.067379246,-71.399646719,199,"15 BACON, FRANKLIN, MA, 2038","Match","Non_Exact","15 BACON ST, FRANKLIN, MA, 02038",87290521,"R"
66200,"15 BAKERS HILL LANE","COLLINS","MS",39428,31.6268597160001,-89.550259991,200,"15 BAKERS HILL LANE, COLLINS, MS, 39428","Match","Non_Exact","15 BAKER'S HILL, COLLINS, MS, 39428",2916710,"L"
66201,"15 BALTUSROL WAY","SPRINGFIELD","NJ",7081,40.71676597,-74.326234654,201,"15 BALTUSROL WAY, SPRINGFIELD, NJ, 7081","Match","Exact","15 BALTUSROL WAY, SPRINGFIELD, NJ, 07081",60568625,"L"
66202,"15 BANFF LANE","BELLA VISTA","AR",72715,36.4753251020001,-94.3340346319999,202,"15 BANFF LANE, BELLA VISTA, AR, 72715","Match","Exact","15 BANFF LN, BELLA VISTA, AR, 72715",47844060,"L"
66203,"15 BANK ROW","GREENFIELD","MA",1301,42.5875510590001,-72.600375403,203,"15 BANK ROW, GREENFIELD, MA, 1301","Match","Non_Exact","15 BANK ROW ST, GREENFIELD, MA, 01301",39916861,"R"
66204,"15 BARLOW PLAIN DRIVE","FAIRFIELD","CT",6824,41.1538307340001,-73.250057351,204,"15 BARLOW PLAIN DRIVE, FAIRFIELD, CT, 6824","Match","Exact","15 BARLOW PLAIN DR, FAIRFIELD, CT, 06824",3241242,"L"
66205,"15 BARNSDALE ROAD","SHORT HILLS","NJ",7078,40.732054034,-74.315862266,205,"15 BARNSDALE ROAD, SHORT HILLS, NJ, 7078","Match","Exact","15 BARNSDALE RD, SHORT HILLS, NJ, 07078",63461706,"R"
66206,"15 BARROWS STREET","EASTON","MA",2356,42.0650091300001,-71.104781133,206,"15 BARROWS STREET, EASTON, MA, 2356","Match","Non_Exact","15 BARROWS ST, NORTH EASTON, MA, 02356",46773747,"R"
66207,"15 BARTON RD","MOUNTAIN LAKES","NJ",7046,40.892794457,-74.4366664779999,207,"15 BARTON RD, MOUNTAIN LAKES, NJ, 7046","Match","Exact","15 BARTON RD, MOUNTAIN LAKES, NJ, 07046",649305070,"R"
66208,"15 BAVARIAN LANE","WILMINGTON","DE",19810,39.8235047150001,-75.46292676,208,"15 BAVARIAN LANE, WILMINGTON, DE, 19810","Match","Exact","15 BAVARIAN LN, WILMINGTON, DE, 19810",187282847,"L"
66209,"15 BAYBERRY RD","ELMSFORD","NY",10523,41.0663025710001,-73.8021033809999,209,"15 BAYBERRY RD, ELMSFORD, NY, 10523","Match","Exact","15 BAYBERRY RD, ELMSFORD, NY, 10523",139736099,"R"
66210,"15 BEACON STREET","PORTLAND","ME",4103,43.66496606,-70.2873409969999,210,"15 BEACON STREET, PORTLAND, ME, 4103","Match","Exact","15 BEACON ST, PORTLAND, ME, 04103",652635800,"R"
66211,"15 BEAR COURT","HAMILTON","NJ",8620,40.1767567470001,-74.6508036289999,211,"15 BEAR COURT, HAMILTON, NJ, 8620","Match","Exact","15 BEAR CT, HAMILTON, NJ, 08620",60193663,"R"
66212,"15 BEATTYS TOLLGATE ROAD","MARIETTA","PA",17547,40.0662114150001,-76.6103384159999,212,"15 BEATTYS TOLLGATE ROAD, MARIETTA, PA, 17547","Match","Exact","15 BEATTYS TOLLGATE RD, MARIETTA, PA, 17547",179651367,"R"
66213,"15 BEDFORD ROAD","LOWELLVILLE","OH",44436,41.0893205100001,-80.530520838,213,"15 BEDFORD ROAD, LOWELLVILLE, OH, 44436","Match","Exact","15 BEDFORD RD, LOWELLVILLE, OH, 44436",64617951,"L"
66214,"15 BEIDEMAN AVE SUITE 105","CHERRY HILL","NJ",8002,39.920413679,-75.037476725,214,"15 BEIDEMAN AVE SUITE 105, CHERRY HILL, NJ, 8002","Match","Exact","15 BEIDEMAN AVE, CHERRY HILL, NJ, 08002",134383169,"L"
66215,"15 BELLWOOD LANE","CASTLETON-ON-HUDSON","NY",12033,42.559508453,-73.686641405,215,"15 BELLWOOD LANE, CASTLETON-ON-HUDSON, NY, 12033","Match","Exact","15 BELLWOOD LN, CASTLETON ON HUDSON, NY, 12033",35734444,"L"
66216,"15 BERKSHIRE HEIGHTS ROAD","GREAT BARRINGTON","MA",1230,42.1936176770001,-73.3735888799999,216,"15 BERKSHIRE HEIGHTS ROAD, GREAT BARRINGTON, MA, 1230","Match","Exact","15 BERKSHIRE HEIGHTS RD, GREAT BARRINGTON, MA, 01230",3929363,"R"
66217,"15 BETHANY LN","YOUNGSVILLE","NC",27596,36.045857719,-78.4475517819999,217,"15 BETHANY LN, YOUNGSVILLE, NC, 27596","Match","Exact","15 BETHANY LN, YOUNGSVILLE, NC, 27596",635527877,"L"
66218,"15 BLAKELY CIRCLE","RANDOLPH","MA",2368,42.1802812450001,-71.0352469169999,218,"15 BLAKELY CIRCLE, RANDOLPH, MA, 2368","Match","Exact","15 BLAKELY CIR, RANDOLPH, MA, 02368",87268454,"R"
66219,"15 BLAKERLY  CIR","RANDOLPH","MA",2368,NA,NA,219,"15 BLAKERLY  CIR, RANDOLPH, MA, 2368","No_Match",NA,NA,NA,NA
66220,"15 BOILING SPRINGS AVE APT C","EAST RUTHERFORD","NJ",7073,40.8363368880001,-74.094976644,220,"15 BOILING SPRINGS AVE APT C, EAST RUTHERFORD, NJ, 7073","Match","Exact","15 BOILING SPRINGS AVE, E RUTHERFORD, NJ, 07073",64395260,"R"
66221,"15 BOW STREET","PEABODY","MA",1960,42.549165857,-71.0168998889999,221,"15 BOW STREET, PEABODY, MA, 1960","Match","Exact","15 BOW ST, PEABODY, MA, 01960",86700060,"L"
66222,"15 BOWMAN ST","LEXINGTON","MA",2421,42.416548961,-71.2018746099999,222,"15 BOWMAN ST, LEXINGTON, MA, 2421","Match","Exact","15 BOWMAN ST, LEXINGTON, MA, 02421",619605836,"L"
66223,"15 BOWMAN STREET","LEXINGTON","MA",2421,42.416548961,-71.2018746099999,223,"15 BOWMAN STREET, LEXINGTON, MA, 2421","Match","Exact","15 BOWMAN ST, LEXINGTON, MA, 02421",619605836,"L"
66224,"15 BOX TURTLE LANE","SICKLERVILLE","NJ",8081,39.7510016420001,-74.963713094,224,"15 BOX TURTLE LANE, SICKLERVILLE, NJ, 8081","Match","Exact","15 BOX TURTLE LN, SICKLERVILLE, NJ, 08081",134379184,"R"
66225,"15 BRADBURY HILLS ROAD","BRADBURY","CA",91008,34.1477981290001,-117.963974116,225,"15 BRADBURY HILLS ROAD, BRADBURY, CA, 91008","Match","Exact","15 BRADBURY HILLS RD, BRADBURY, CA, 91008",142256281,"L"
66226,"15 BRAMLEY ROAD","WEST HARTFORD","CT",6110,41.730988999,-72.7492901269999,226,"15 BRAMLEY ROAD, WEST HARTFORD, CT, 6110","Match","Exact","15 BRAMLEY RD, WEST HARTFORD, CT, 06110",3513595,"L"
66227,"15 BREWSTER AVENUE","WINTHROP","MA",2152,42.361554303,-70.970021652,227,"15 BREWSTER AVENUE, WINTHROP, MA, 2152","Match","Exact","15 BREWSTER AVE, WINTHROP, MA, 02152",85718149,"R"
66228,"15 BRIAR COURT","CHESHIRE","CT",6410,41.5068206020001,-72.921874347,228,"15 BRIAR COURT, CHESHIRE, CT, 6410","Match","Exact","15 BRIAR CT, CHESHIRE, CT, 06410",3737236,"L"
66229,"15 BRIAR LANE","BLOOMFIELD","CT",6002,41.8551399140001,-72.735325968,229,"15 BRIAR LANE, BLOOMFIELD, CT, 6002","Match","Exact","15 BRIAR LN, BLOOMFIELD, CT, 06002",3485485,"L"
66230,"15 BRIDGE STREET APT 2","WARREN","RI",2885,41.7211297270001,-71.282000146,230,"15 BRIDGE STREET APT 2, WARREN, RI, 2885","Match","Exact","15 BRIDGE ST, WARREN, RI, 02885",46480475,"R"
66231,"15 BRIGGS POND WAY","SHARON","MA",2067,42.07572378,-71.139150542,231,"15 BRIGGS POND WAY, SHARON, MA, 2067","Match","Exact","15 BRIGGS POND WAY, SHARON, MA, 02067",87263356,"L"
66232,"15 BROAD ST","AKRON","OH",44305,41.0713339600001,-81.488723855,232,"15 BROAD ST, AKRON, OH, 44305","Match","Exact","15 BROAD ST, AKRON, OH, 44305",61350437,"R"
66233,"15 BROAD STREET APT 3300","MANHATTAN","NY",10005,40.706500722,-74.011045979,233,"15 BROAD STREET APT 3300, MANHATTAN, NY, 10005","Match","Non_Exact","15 BROAD ST, WALL STREET, NY, 10005",59659662,"L"
66234,"15 BROAD STREET APT 3300","NEW YORK","NY",10005,40.706500722,-74.011045979,234,"15 BROAD STREET APT 3300, NEW YORK, NY, 10005","Match","Exact","15 BROAD ST, NEW YORK, NY, 10005",59659662,"L"
66235,"15 BROAD STREET","AKRON","OH",44305,41.0713339600001,-81.488723855,235,"15 BROAD STREET, AKRON, OH, 44305","Match","Exact","15 BROAD ST, AKRON, OH, 44305",61350437,"R"
66236,"15 BRYNMORE RD","NEW EGYPT","NJ",8533,40.0637140370001,-74.528091493,236,"15 BRYNMORE RD, NEW EGYPT, NJ, 8533","Match","Exact","15 BRYNMORE RD, NEW EGYPT, NJ, 08533",203839531,"L"
66237,"15 BUMBLEBEE CT","BLYTHEWOOD","SC",29016,34.197933838,-81.012316304,237,"15 BUMBLEBEE CT, BLYTHEWOOD, SC, 29016","Match","Exact","15 BUMBLEBEE CT, BLYTHEWOOD, SC, 29016",645308026,"L"
66238,"15 BURR ST","SPRINGFIELD","MA",1109,42.115108057,-72.5625657859999,238,"15 BURR ST, SPRINGFIELD, MA, 1109","Match","Exact","15 BURR ST, SPRINGFIELD, MA, 01109",4035646,"R"
66239,"15 BURWELL ROAD","WEST ROXBURY","MA",2132,42.2917783570001,-71.148924165,239,"15 BURWELL ROAD, WEST ROXBURY, MA, 2132","Match","Exact","15 BURWELL RD, WEST ROXBURY, MA, 02132",85696229,"R"
66240,"15 BUTTE PLACE","SAN FRANCISCO","CA",94103,37.7737270800001,-122.402166669,240,"15 BUTTE PLACE, SAN FRANCISCO, CA, 94103","Match","Exact","15 BUTTE PL, SAN FRANCISCO, CA, 94103",192287853,"L"
66241,"15 BUTTERNUT DRIVE","NAPERVILLE","IL",60540,41.7571522470001,-88.142308676,241,"15 BUTTERNUT DRIVE, NAPERVILLE, IL, 60540","Match","Exact","15 BUTTERNUT DR, NAPERVILLE, IL, 60540",112536361,"L"
66242,"15 CALLE MUNOZ RIVERA","RINCON","PR",677,NA,NA,242,"15 CALLE MUNOZ RIVERA, RINCON, PR, 677","Tie",NA,NA,NA,NA
66243,"15 CALLE TAFT SUITE 402","SAN JUAN","PR",911,18.453113952,-66.060327092,243,"15 CALLE TAFT SUITE 402, SAN JUAN, PR, 911","Match","Non_Exact","15 CLL TAFT, SAN JUAN, PR, 00911",650138680,"L"
66244,"15 CALVERT ST","NEWPORT","RI",2840,41.4936508810001,-71.307476027,244,"15 CALVERT ST, NEWPORT, RI, 2840","Match","Exact","15 CALVERT ST, NEWPORT, RI, 02840",47349489,"R"
66245,"15 CAMPBELL ST","LURAY","VA",22835,38.66437075,-78.4595840229999,245,"15 CAMPBELL ST, LURAY, VA, 22835","Match","Exact","15 CAMPBELL ST, LURAY, VA, 22835",29912519,"R"
66246,"15 CANOE BROOK RD","SHORT HILLS","NJ",7078,40.7417699390001,-74.341719956,246,"15 CANOE BROOK RD, SHORT HILLS, NJ, 7078","Match","Exact","15 CANOE BROOK RD, SHORT HILLS, NJ, 07078",63456685,"R"
66247,"15 CANTERBURY DRIVE","FRANKLINTON","NC",27525,36.0412842050001,-78.4313602299999,247,"15 CANTERBURY DRIVE, FRANKLINTON, NC, 27525","Match","Exact","15 CANTERBURY DR, FRANKLINTON, NC, 27525",624725699,"L"
66248,"15 CANTERBURY ROAD","CHARLOTTESVILLE","VA",22903,38.0459619650001,-78.52977598,248,"15 CANTERBURY ROAD, CHARLOTTESVILLE, VA, 22903","Match","Exact","15 CANTERBURY RD, CHARLOTTESVILLE, VA, 22903",83400427,"L"
66249,"15 CANTERBURY ROAD","STOW","MA",1775,42.459090115,-71.488366774,249,"15 CANTERBURY ROAD, STOW, MA, 1775","Match","Exact","15 CANTERBURY RD, STOW, MA, 01775",86841592,"R"
66250,"15 CARRIAGE ROAD","ROSLYN","NY",11576,40.766306119,-73.66673156,250,"15 CARRIAGE ROAD, ROSLYN, NY, 11576","Match","Exact","15 CARRIAGE RD, ROSLYN, NY, 11576",147663041,"L"
66251,"15 CARY STREET","BROCKTON","MA",2320,NA,NA,251,"15 CARY STREET, BROCKTON, MA, 2320","No_Match",NA,NA,NA,NA
66252,"15 CASCO STREET","PORTLAND","ME",4101,43.6567088520001,-70.2619159939999,252,"15 CASCO STREET, PORTLAND, ME, 4101","Match","Exact","15 CASCO ST, PORTLAND, ME, 04101",78028177,"R"
66253,"15 CASTLE HILL AVENUE NO 1","GREAT BARRINGTON","MA",1230,42.1955730180001,-73.3662004509999,253,"15 CASTLE HILL AVENUE NO 1, GREAT BARRINGTON, MA, 1230","Match","Non_Exact","15 CASTLE HILL AVE, GREAT BARRINGTON, MA, 01230",3957372,"L"
66254,"15 CATHEDRAL AVENUE","PROVIDENCE","RI",2908,41.8440012350001,-71.449479701,254,"15 CATHEDRAL AVENUE, PROVIDENCE, RI, 2908","Match","Exact","15 CATHEDRAL AVE, PROVIDENCE, RI, 02908",47457829,"R"
66255,"15 CEDAR HILL DRIVE","CAMPOBELLO","SC",29322,35.1739479570001,-82.0317508639999,255,"15 CEDAR HILL DRIVE, CAMPOBELLO, SC, 29322","Match","Exact","15 CEDAR HILL DR, CAMPOBELLO, SC, 29322",19482272,"R"
66256,"15 CEDAR ROAD","BELMONT","ME",4952,44.3973940880001,-69.1123096699999,256,"15 CEDAR ROAD, BELMONT, ME, 4952","Match","Exact","15 CEDAR RD, BELMONT, ME, 04952",75640399,"R"
66257,"15 CEDAR ROAD","NEW OXFORD","PA",17350,39.893258571,-77.0398021139999,257,"15 CEDAR ROAD, NEW OXFORD, PA, 17350","Match","Exact","15 CEDAR RD, NEW OXFORD, PA, 17350",617911559,"R"
66258,"15 CEDAR","BLOOMFIELD","NJ",7003,40.790798189,-74.185208002,258,"15 CEDAR, BLOOMFIELD, NJ, 7003","Match","Non_Exact","15 CEDAR ST, BLOOMFIELD, NJ, 07003",63454089,"L"
66259,"15 CENTERWOOD STREET","WEST BABYLON","NY",11704,40.7379807340001,-73.3672220449999,259,"15 CENTERWOOD STREET, WEST BABYLON, NY, 11704","Match","Exact","15 CENTERWOOD ST, WEST BABYLON, NY, 11704",647274794,"L"
66260,"15 CENTRAL AVENUE N","ELBOW LAKE","MN",56531,45.9932029450001,-95.97671865,260,"15 CENTRAL AVENUE N, ELBOW LAKE, MN, 56531","Match","Non_Exact","15 CENTRAL AVE, ELBOW LAKE, MN, 56531",203189298,"R"
66261,"15 CENTRAL PARK WEST PH 40B","NEW YORK","NY",10023,40.7696469420001,-73.980759205,261,"15 CENTRAL PARK WEST PH 40B, NEW YORK, NY, 10023","Match","Exact","15 CENTRAL PARK W, NEW YORK, NY, 10023",59657062,"L"
66262,"15 CENTREDALE AVENUE","NORTH PROVIDENCE","RI",2911,41.8539692750001,-71.483063815,262,"15 CENTREDALE AVENUE, NORTH PROVIDENCE, RI, 2911","Match","Non_Exact","15 CENTERDALE AVE, N PROVIDENCE, RI, 02911",47495955,"R"
66263,"15 CHAFFEE AVE","ALBERTSON","NY",11507,40.7696905130001,-73.6515415809999,263,"15 CHAFFEE AVE, ALBERTSON, NY, 11507","Match","Exact","15 CHAFFEE AVE, ALBERTSON, NY, 11507",147663258,"L"
66264,"15 CHANNEL CENTER STREET STUDIO 213","BOSTON","MA",2210,NA,NA,264,"15 CHANNEL CENTER STREET STUDIO 213, BOSTON, MA, 2210","No_Match",NA,NA,NA,NA
66265,"15 CHANNEL CENTER STREET STUDIO 610","BOSTON","MA",2210,NA,NA,265,"15 CHANNEL CENTER STREET STUDIO 610, BOSTON, MA, 2210","No_Match",NA,NA,NA,NA
66266,"15 CHAPEL DR","LEHIGHTON","PA",18235,40.788111719,-75.801348714,266,"15 CHAPEL DR, LEHIGHTON, PA, 18235","Match","Exact","15 CHAPEL DR, LEHIGHTON, PA, 18235",636374579,"R"
66267,"15 CHARLES STREET APT10C","NEW YORK","NY",10014,40.735194908,-74.001167132,267,"15 CHARLES STREET APT10C, NEW YORK, NY, 10014","Match","Exact","15 CHARLES ST, NEW YORK, NY, 10014",59660003,"R"
66268,"15 CHERRY STREET","HUDSON","MA",1749,42.3913001870001,-71.5600854799999,268,"15 CHERRY STREET, HUDSON, MA, 1749","Match","Exact","15 CHERRY ST, HUDSON, MA, 01749",86899160,"R"
66269,"15 CHESHIRE ST","HUNTINGTON STATION","NY",11746,40.859049122,-73.413629427,269,"15 CHESHIRE ST, HUNTINGTON STATION, NY, 11746","Match","Exact","15 CHESHIRE ST, HUNTINGTON STATION, NY, 11746",113963708,"R"
66270,"15 CHICK ROAD","CAMANO ISLAND","WA",98282,48.2474101760001,-122.480495737,270,"15 CHICK ROAD, CAMANO ISLAND, WA, 98282","Match","Exact","15 CHICK RD, CAMANO ISLAND, WA, 98282",187594348,"L"
66271,"15 CHOKEBERRY DR","EDISON","NJ",8837,40.5275820900001,-74.347225182,271,"15 CHOKEBERRY DR, EDISON, NJ, 8837","Match","Exact","15 CHOKEBERRY DR, EDISON, NJ, 08837",645531189,"R"
66272,"15 CHRISTINE COURT","BOHEMIA","NY",11716,40.7523865580001,-73.1290314299999,272,"15 CHRISTINE COURT, BOHEMIA, NY, 11716","Match","Exact","15 CHRISTINE CT, BOHEMIA, NY, 11716",625226581,"L"
66273,"15 CHUCKWAGON RD","RENO","NV",89508,39.844351999,-119.932576518,273,"15 CHUCKWAGON RD, RENO, NV, 89508","Match","Exact","15 CHUCKWAGON RD, RENO, NV, 89508",107102710,"L"
66274,"15 CHURCHILL LN","SMITHTOWN","NY",11787,40.8441617730001,-73.244265658,274,"15 CHURCHILL LN, SMITHTOWN, NY, 11787","Match","Exact","15 CHURCHILL LN, SMITHTOWN, NY, 11787",113983484,"L"
66275,"15 CIRCLE DR","HAWTHORN WOODS","IL",60047,42.2165410790001,-88.049786008,275,"15 CIRCLE DR, HAWTHORN WOODS, IL, 60047","Match","Exact","15 CIRCLE DR, HAWTHORN WDS, IL, 60047",119637509,"R"
66276,"15 CLEMSON COURT","ROCKVILLE","MD",20850,39.09935476,-77.163346169,276,"15 CLEMSON COURT, ROCKVILLE, MD, 20850","Match","Exact","15 CLEMSON CT, ROCKVILLE, MD, 20850",62053021,"R"
66277,"15 COCHRAN RD","RINEYVILLE","KY",40162,37.7725078330001,-86.113759579,277,"15 COCHRAN RD, RINEYVILLE, KY, 40162","Match","Non_Exact","15 COCHRAN LN, RINEYVILLE, KY, 40162",34641600,"L"
66278,"15 COLUMBIA PLACE","MOUNT VERNON","NY",10552,40.925880648,-73.8234876129999,278,"15 COLUMBIA PLACE, MOUNT VERNON, NY, 10552","Match","Exact","15 COLUMBIA PL, MOUNT VERNON, NY, 10552",139748572,"R"
66279,"15 COLUMBIA ROAD","COLORADO SPRINGS","CO",80904,38.857725142,-104.88474666,279,"15 COLUMBIA ROAD, COLORADO SPRINGS, CO, 80904","Match","Exact","15 COLUMBIA RD, COLORADO SPRINGS, CO, 80904",639292035,"R"
66280,"15 COLUMBIA STREET SUITE 501","BANGOR","ME",4401,44.801312856,-68.772331174,280,"15 COLUMBIA STREET SUITE 501, BANGOR, ME, 4401","Match","Exact","15 COLUMBIA ST, BANGOR, ME, 04401",123628530,"R"
66281,"15 COMMONWEALTH BLVD","NEWCASTLE","DE",19720,39.6784572610001,-75.571356693,281,"15 COMMONWEALTH BLVD, NEWCASTLE, DE, 19720","Match","Non_Exact","15 COMMONWEALTH BLVD, NEW CASTLE, DE, 19720",187268709,"R"
66282,"15 COREY AVENUE","BROCKTON","MA",2301,42.113358003,-71.029129357,282,"15 COREY AVENUE, BROCKTON, MA, 2301","Match","Exact","15 COREY AVE, BROCKTON, MA, 02301",648493246,"L"
66283,"15 CORNWELL COURT","COLDWATER","MI",49036,41.9438561110001,-85.0002938869999,283,"15 CORNWELL COURT, COLDWATER, MI, 49036","Match","Exact","15 CORNWELL CT, COLDWATER, MI, 49036",8212525,"L"
66284,"15 COTTAGE ST","BARRE","VT",5641,44.2020768890001,-72.506893168,284,"15 COTTAGE ST, BARRE, VT, 5641","Match","Exact","15 COTTAGE ST, BARRE, VT, 05641",136669230,"R"
66285,"15 COTTON HILL ROAD","BERNE","NY",12023,NA,NA,285,"15 COTTON HILL ROAD, BERNE, NY, 12023","No_Match",NA,NA,NA,NA
66286,"15 COVE MEADOW ROAD","STONINGTON","ME",4681,44.1838212110001,-68.695507592,286,"15 COVE MEADOW ROAD, STONINGTON, ME, 4681","Match","Exact","15 COVE MEADOW RD, STONINGTON, ME, 04681",110262664,"L"
66287,"15 COVENTRY DRIVE","CLIFTON PARK","NY",12065,42.8865771280001,-73.818455657,287,"15 COVENTRY DRIVE, CLIFTON PARK, NY, 12065","Match","Exact","15 COVENTRY DR, CLIFTON PARK, NY, 12065",18784011,"L"
66288,"15 CRANBURY WOODS ROAD","NORWALK","CT",6851,41.1552209320001,-73.394312089,288,"15 CRANBURY WOODS ROAD, NORWALK, CT, 6851","Match","Exact","15 CRANBURY WOODS RD, NORWALK, CT, 06851",3275300,"L"
66289,"15 CRANSTON RD","KENDALL PARK","NJ",8824,40.416480832,-74.570884188,289,"15 CRANSTON RD, KENDALL PARK, NJ, 8824","Match","Exact","15 CRANSTON RD, KENDALL PARK, NJ, 08824",60257374,"R"
66290,"15 CREEKVIEW DRIVE","NEWNAN","GA",30263,33.4205186840001,-84.812184061,290,"15 CREEKVIEW DRIVE, NEWNAN, GA, 30263","Match","Exact","15 CREEKVIEW DR, NEWNAN, GA, 30263",9334528,"R"
66291,"15 CRESCENT RD","GREENBELT","MD",20770,39.004823501,-76.876757475,291,"15 CRESCENT RD, GREENBELT, MD, 20770","Match","Exact","15 CRESCENT RD, GREENBELT, MD, 20770",76326797,"L"
66292,"15 CRESCENT RIDGE ROAD","BOONTON","NJ",7005,40.9358749260001,-74.4585724729999,292,"15 CRESCENT RIDGE ROAD, BOONTON, NJ, 7005","Match","Exact","15 CRESCENT RIDGE RD, BOONTON, NJ, 07005",632488614,"L"
66293,"15 CURRIDEN AVENUE","CLARKSBORO","NJ",8020,39.7995048980001,-75.2274325339999,293,"15 CURRIDEN AVENUE, CLARKSBORO, NJ, 8020","Match","Exact","15 CURRIDEN AVE, CLARKSBORO, NJ, 08020",134597031,"L"
66294,"15 CURRRAN ROAD","LYNN","MA",1905,42.465368116,-70.978956097,294,"15 CURRRAN ROAD, LYNN, MA, 1905","Match","Non_Exact","15 CURRAN RD, LYNN, MA, 01905",86638038,"R"
66295,"15 CYPRESS BLVD W","HOMOSASSA","FL",34446,28.7373948530001,-82.53844801,295,"15 CYPRESS BLVD W, HOMOSASSA, FL, 34446","Match","Exact","15 CYPRESS BLVD W, HOMOSASSA, FL, 34446",86208653,"R"
66296,"15 DALMORE ROAD","ELGIN","SC",29045,34.1445208640001,-80.8033397459999,296,"15 DALMORE ROAD, ELGIN, SC, 29045","Match","Exact","15 DALMORE RD, ELGIN, SC, 29045",645241909,"L"
66297,"15 DAMIEN ROAD","WHEELING","WV",26003,40.0805488570001,-80.677551579,297,"15 DAMIEN ROAD, WHEELING, WV, 26003","Match","Non_Exact","15 DAMIAN RD, WHEELING, WV, 26003",38108512,"L"
66298,"15 DANA DRIVE","OXFORD","MA",1540,42.1329486440001,-71.850902264,298,"15 DANA DRIVE, OXFORD, MA, 1540","Match","Exact","15 DANA DR, OXFORD, MA, 01540",40048334,"L"
66299,"15 DARST AVENUE","FERGUSON","MO",63135,38.7466988910001,-90.3057898869999,299,"15 DARST AVENUE, FERGUSON, MO, 63135","Match","Non_Exact","15 DARST RD, FERGUSON, MO, 63135",100145911,"L"
66300,"15 DAVENPORT AVE APT 4J","NEW ROCHELLE","NY",10805,40.9059970980001,-73.7720706979999,300,"15 DAVENPORT AVE APT 4J, NEW ROCHELLE, NY, 10805","Match","Exact","15 DAVENPORT AVE, NEW ROCHELLE, NY, 10805",139848128,"R"
66301,"15 DAYTON STREET","ELIZABETH","NJ",7202,40.6565810980001,-74.230912678,301,"15 DAYTON STREET, ELIZABETH, NJ, 7202","Match","Exact","15 DAYTON ST, ELIZABETH, NJ, 07202",60578142,"R"
66302,"15 DEL FIORE","LAKE ELSINORE","CA",92532,33.6825674360001,-117.287579944,302,"15 DEL FIORE, LAKE ELSINORE, CA, 92532","Match","Exact","15 DEL FIORE, LAKE ELSINORE, CA, 92532",194882833,"L"
66303,"15 DEL VERDE RD","ROCHESTER","NY",14624,43.1396758120001,-77.7347505719999,303,"15 DEL VERDE RD, ROCHESTER, NY, 14624","Match","Exact","15 DEL VERDE RD, ROCHESTER, NY, 14624",14528702,"L"
66304,"15 DELAVAL RD","WORCESTER","MA",1606,42.3135776440001,-71.8105441449999,304,"15 DELAVAL RD, WORCESTER, MA, 1606","Match","Exact","15 DELAVAL RD, WORCESTER, MA, 01606",40005875,"L"
66305,"15 DELL DRIVE","WILMINGTON","MA",1887,42.540560709,-71.186863252,305,"15 DELL DRIVE, WILMINGTON, MA, 1887","Match","Exact","15 DELL DR, WILMINGTON, MA, 01887",86905564,"R"
66306,"15 DEPOT STREET","BRIDGTON","ME",4009,44.0537435050001,-70.702943405,306,"15 DEPOT STREET, BRIDGTON, ME, 4009","Match","Exact","15 DEPOT ST, BRIDGTON, ME, 04009",78018096,"R"
66307,"15 DIAMOND MATCH RD","MILO","ME",4463,45.2650002500001,-68.993350364,307,"15 DIAMOND MATCH RD, MILO, ME, 4463","Match","Exact","15 DIAMOND MATCH RD, MILO, ME, 04463",637047834,"L"
66308,"15 DOLLOF DRIVE","BRUNSWICK","ME",4011,43.9178975340001,-69.90403472,308,"15 DOLLOF DRIVE, BRUNSWICK, ME, 4011","Match","Non_Exact","15 DOLLOFF DR, BRUNSWICK, ME, 04011",78041232,"L"
66309,"15 DOLOMITE CT","DOVER","DE",19904,39.230531866,-75.5889945599999,309,"15 DOLOMITE CT, DOVER, DE, 19904","Match","Exact","15 DOLOMITE CT, DOVER, DE, 19904",617132426,"L"
66310,"15 DORIAN COURT","NEWNAN","GA",30265,33.4855989280001,-84.670053636,310,"15 DORIAN COURT, NEWNAN, GA, 30265","Match","Non_Exact","15 DORAIN CT, NEWNAN, GA, 30265",650053116,"R"
66311,"15 DORIS STREET","TRUMBULL","CT",6611,41.279664263,-73.234861988,311,"15 DORIS STREET, TRUMBULL, CT, 6611","Match","Exact","15 DORIS ST, TRUMBULL, CT, 06611",3217139,"L"
66312,"15 DOWNINGTOWN COURT","WARREN","NJ",7059,40.6392132710001,-74.5702931719999,312,"15 DOWNINGTOWN COURT, WARREN, NJ, 7059","Match","Exact","15 DOWNINGTOWN CT, WARREN, NJ, 07059",59953014,"R"
66313,"15 DRUMMOND STREET","BOSTON","MA",2121,42.300819571,-71.083916728,313,"15 DRUMMOND STREET, BOSTON, MA, 2121","Match","Exact","15 DRUMMOND ST, BOSTON, MA, 02121",85701658,"L"
66314,"15 DUDLEY STREET","BOSTON","MA",2119,42.329488204,-71.089401057,314,"15 DUDLEY STREET, BOSTON, MA, 2119","Match","Exact","15 DUDLEY ST, BOSTON, MA, 02119",85719312,"R"
66315,"15 DUNCAN ROAD","WARWICK","RI",2886,41.695718533,-71.425122147,315,"15 DUNCAN ROAD, WARWICK, RI, 2886","Match","Exact","15 DUNCAN RD, WARWICK, RI, 02886",159149531,"R"
66316,"15 DUNROBIN LANE","WATERTOWN","CT",6795,41.607252299,-73.143766141,316,"15 DUNROBIN LANE, WATERTOWN, CT, 6795","Match","Exact","15 DUNROBIN LN, WATERTOWN, CT, 06795",3108480,"L"
66317,"15 DUSKY MEADOW PLACE","THE WOODLANDS","TX",77381,30.172049868,-95.5072575679999,317,"15 DUSKY MEADOW PLACE, THE WOODLANDS, TX, 77381","Match","Exact","15 DUSKY MEADOW PL, THE WOODLANDS, TX, 77381",79282114,"R"
66318,"15 DUTCH HILL RD","ORANGEBURG","NY",10962,41.0493257850001,-73.9552042349999,318,"15 DUTCH HILL RD, ORANGEBURG, NY, 10962","Match","Exact","15 DUTCH HILL RD, ORANGEBURG, NY, 10962",124599649,"L"
66319,"15 E 22ND STR","MINNEAPOLIS","MN",55404,44.960894598,-93.277567608,319,"15 E 22ND STR, MINNEAPOLIS, MN, 55404","Match","Exact","15 E 22ND ST, MINNEAPOLIS, MN, 55404",43632279,"R"
66320,"15 E 40TH ST RM 501A","NEW YORK","NY",10016,40.751708782,-73.9806436539999,320,"15 E 40TH ST RM 501A, NEW YORK, NY, 10016","Match","Non_Exact","15 E 40TH ST, NEW YORK, NY, 10016",59658638,"L"
66321,"15 E CARL ST","HICKSVILLE","NY",11801,40.76543438,-73.519749491,321,"15 E CARL ST, HICKSVILLE, NY, 11801","Match","Exact","15 E CARL ST, HICKSVILLE, NY, 11801",637935393,"R"
66322,"15 E CENTER STREET","MADISONVILLE","KY",42431,37.328126142,-87.4983821279999,322,"15 E CENTER STREET, MADISONVILLE, KY, 42431","Match","Exact","15 E CENTER ST, MADISONVILLE, KY, 42431",11504565,"R"
66323,"15 E CHAUTAUQUA ST","MAYVILLE","NY",14757,42.2552484570001,-79.503477257,323,"15 E CHAUTAUQUA ST, MAYVILLE, NY, 14757","Match","Exact","15 E CHAUTAUQUA ST, MAYVILLE, NY, 14757",639384867,"R"
66324,"15 E CHURCHVILLE RD BOX 192","BEL AIR","MD",21014,NA,NA,324,"15 E CHURCHVILLE RD BOX 192, BEL AIR, MD, 21014","Tie",NA,NA,NA,NA
66325,"15 E DEER PARK DR STE 200","GAITHERSBURG","MD",20877,NA,NA,325,"15 E DEER PARK DR STE 200, GAITHERSBURG, MD, 20877","Tie",NA,NA,NA,NA
66326,"15 E KIRBY STREET SUITE 217","DETROIT","MI",48202,NA,NA,326,"15 E KIRBY STREET SUITE 217, DETROIT, MI, 48202","Tie",NA,NA,NA,NA
66327,"15 E LOOCKERMAN PLAZA","DOVER","DE",19901,39.159074506,-75.520107282,327,"15 E LOOCKERMAN PLAZA, DOVER, DE, 19901","Match","Non_Exact","15 E LOOCKERMAN ST, DOVER, DE, 19901",68088285,"L"
66328,"15 E MAIN ST STE 300","CARMEL","IN",46032,NA,NA,328,"15 E MAIN ST STE 300, CARMEL, IN, 46032","Tie",NA,NA,NA,NA
66329,"15 E MAIN ST","GOUVERNEUR","NY",13642,NA,NA,329,"15 E MAIN ST, GOUVERNEUR, NY, 13642","Tie",NA,NA,NA,NA
66330,"15 E MAIN STREET   STE 110","WESTMINSTER","MD",21157,NA,NA,330,"15 E MAIN STREET   STE 110, WESTMINSTER, MD, 21157","Tie",NA,NA,NA,NA
66331,"15 E MAIN STREET STE 110","WESTMINSTER","MD",21157,NA,NA,331,"15 E MAIN STREET STE 110, WESTMINSTER, MD, 21157","Tie",NA,NA,NA,NA
66332,"15 E MAIN STREET SUITE 25","HERSHEY","PA",17033,NA,NA,332,"15 E MAIN STREET SUITE 25, HERSHEY, PA, 17033","Tie",NA,NA,NA,NA
66333,"15 E MARKET STREET SUITE 531","LEESBURG","VA",20178,NA,NA,333,"15 E MARKET STREET SUITE 531, LEESBURG, VA, 20178","No_Match",NA,NA,NA,NA
66334,"15 E PEBBLE BEACH DR","TEMPE","AZ",85282,33.390700254,-111.93927766,334,"15 E PEBBLE BEACH DR, TEMPE, AZ, 85282","Match","Exact","15 E PEBBLE BEACH DR, TEMPE, AZ, 85282",128227463,"R"
66335,"15 EAGLES LANDING SUITE 5","REHOBETH BEACH","DE",19971,38.7074487960001,-75.0984837349999,335,"15 EAGLES LANDING SUITE 5, REHOBETH BEACH, DE, 19971","Match","Non_Exact","15 EAGLES LNDG, REHOBOTH BCH, DE, 19971",639980959,"R"
66336,"15 EAST 100 SOUTH","TOOELE","UT",84074,40.5285368890001,-112.298064511,336,"15 EAST 100 SOUTH, TOOELE, UT, 84074","Match","Exact","15 E 100 S, TOOELE, UT, 84074",155390237,"R"
66337,"15 EAST 199ST 1A","BRONX","NY",10468,NA,NA,337,"15 EAST 199ST 1A, BRONX, NY, 10468","No_Match",NA,NA,NA,NA
66338,"15 EAST 55TH TERRACE","KANSAS CITY","MO",64113,39.02674395,-94.58724957,338,"15 EAST 55TH TERRACE, KANSAS CITY, MO, 64113","Match","Exact","15 E 55TH TER, KANSAS CITY, MO, 64113",91448251,"R"
66339,"15 EAST BYWAY","GREENWICH","CT",6831,41.0393790850001,-73.670965785,339,"15 EAST BYWAY, GREENWICH, CT, 6831","Match","Non_Exact","15 E BYWAY AVE, GREENWICH, CT, 06831",3255886,"R"
66340,"15 EAST CENTRAL AVENUE","MOORESTOWN","NJ",8057,39.96845913,-74.948863445,340,"15 EAST CENTRAL AVENUE, MOORESTOWN, NJ, 8057","Match","Exact","15 E CENTRAL AVE, MOORESTOWN, NJ, 08057",134030688,"L"
66341,"15 EAST HIGH STREET","MANHEIM","PA",17545,40.16403275,-76.394729743,341,"15 EAST HIGH STREET, MANHEIM, PA, 17545","Match","Exact","15 E HIGH ST, MANHEIM, PA, 17545",179678937,"R"
66342,"15 EAST MAIN STREET","GREENWICH","OH",44837,41.0299005590001,-82.5179466339999,342,"15 EAST MAIN STREET, GREENWICH, OH, 44837","Match","Non_Exact","15 MAIN ST, GREENWICH, OH, 44837",639592408,"R"
66343,"15 EAST MALLORY AVENUE","MEMPHIS","TN",38109,35.0866154620001,-90.062381043,343,"15 EAST MALLORY AVENUE, MEMPHIS, TN, 38109","Match","Exact","15 E MALLORY AVE, MEMPHIS, TN, 38109",72906236,"R"
66344,"15 EAST MONTGOMERY CROSS ROAD","SAVANNAH","GA",31406,NA,NA,344,"15 EAST MONTGOMERY CROSS ROAD, SAVANNAH, GA, 31406","No_Match",NA,NA,NA,NA
66345,"15 EAST NELSON STREET","LEXINGTON","VA",24450,37.7840493960001,-79.4428045349999,345,"15 EAST NELSON STREET, LEXINGTON, VA, 24450","Match","Exact","15 E NELSON ST, LEXINGTON, VA, 24450",63109354,"L"
66346,"15 EAST PHILOADELPHIA STREET","YORK","PA",17401,39.9635322560001,-76.729593133,346,"15 EAST PHILOADELPHIA STREET, YORK, PA, 17401","Match","Non_Exact","15 W PHILADELPHIA ST, YORK, PA, 17401",639610387,"R"
66347,"15 EAST STREET","STONEHAM","MA",2180,42.483155847,-71.077962508,347,"15 EAST STREET, STONEHAM, MA, 2180","Match","Exact","15 EAST ST, STONEHAM, MA, 02180",649944059,"R"
66348,"15 EASTON CT","SPRINGBORO","OH",45066,39.576852015,-84.2260443819999,348,"15 EASTON CT, SPRINGBORO, OH, 45066","Match","Exact","15 EASTON CT, SPRINGBORO, OH, 45066",159032917,"L"
66349,"15 EDGE LANE","WILLINGBORO","NJ",8046,40.0143517540001,-74.868939246,349,"15 EDGE LANE, WILLINGBORO, NJ, 8046","Match","Exact","15 EDGE LN, WILLINGBORO, NJ, 08046",134032171,"L"
66350,"15 EIGHTHST","ST AUGUSTINE","FL",32080,NA,NA,350,"15 EIGHTHST, ST AUGUSTINE, FL, 32080","No_Match",NA,NA,NA,NA
66351,"15 ELENA COURT","CORTLANDT MANOR","NY",10567,41.2456266410001,-73.900486142,351,"15 ELENA COURT, CORTLANDT MANOR, NY, 10567","Match","Exact","15 ELENA CT, CORTLANDT MANOR, NY, 10567",139767688,"L"
66352,"15 ELKINS AVE","FRANKLIN","NH",3235,43.4422179060001,-71.6469349779999,352,"15 ELKINS AVE, FRANKLIN, NH, 3235","Match","Non_Exact","15 ELKINS ST, FRANKLIN, NH, 03235",117744087,"L"
66353,"15 ELKINS ST","FRANKLIN","NH",3235,43.4422179060001,-71.6469349779999,353,"15 ELKINS ST, FRANKLIN, NH, 3235","Match","Exact","15 ELKINS ST, FRANKLIN, NH, 03235",117744087,"L"
66354,"15 ELLIOT ROAD","WEST MIDDLESEX","PA",16159,41.1761977680001,-80.495125592,354,"15 ELLIOT ROAD, WEST MIDDLESEX, PA, 16159","Match","Exact","15 ELLIOT RD, W MIDDLESEX, PA, 16159",70667145,"L"
66355,"15 ELLIS STREET","BROCKTON","MA",2301,42.0881154740001,-71.031339411,355,"15 ELLIS STREET, BROCKTON, MA, 2301","Match","Exact","15 ELLIS ST, BROCKTON, MA, 02301",87441993,"R"
66356,"15 ELMHURST STREET","DORCHESTER","MA",2124,42.288628235,-71.076374154,356,"15 ELMHURST STREET, DORCHESTER, MA, 2124","Match","Exact","15 ELMHURST ST, DORCHESTER, MA, 02124",85705908,"R"
66357,"15 EMILY LN","PATAGONIA","AZ",85624,31.547639717,-110.735567742,357,"15 EMILY LN, PATAGONIA, AZ, 85624","Match","Exact","15 EMILY LN, PATAGONIA, AZ, 85624",120895949,"R"
66358,"15 EMS D23 LN","SYRACUSE","IN",46567,41.371088462,-85.786741562,358,"15 EMS D23 LN, SYRACUSE, IN, 46567","Match","Exact","15 EMS D23 LN, SYRACUSE, IN, 46567",7930454,"R"
66359,"15 ENCINA AVENUE","MONTEREY","CA",93940,36.5989511440001,-121.866581282,359,"15 ENCINA AVENUE, MONTEREY, CA, 93940","Match","Exact","15 ENCINA AVE, MONTEREY, CA, 93940",196815648,"L"
66360,"15 ENGERMAN AVE","DENTON","MD",21629,38.869147555,-75.8216326849999,360,"15 ENGERMAN AVE, DENTON, MD, 21629","Match","Exact","15 ENGERMAN AVE, DENTON, MD, 21629",68316997,"L"
66361,"15 ESPLANADE WAY","BAYVILLE","NJ",8721,39.9157889350001,-74.158078732,361,"15 ESPLANADE WAY, BAYVILLE, NJ, 8721","Match","Exact","15 ESPLANADE WAY, BAYVILLE, NJ, 08721",636185817,"L"
66362,"15 ESQUIRE","SAN ANTONIO","TX",78257,29.66570417,-98.6146049549999,362,"15 ESQUIRE, SAN ANTONIO, TX, 78257","Match","Exact","15 ESQUIRE, SAN ANTONIO, TX, 78257",625746850,"L"
66363,"15 EUCLID AVENUE","HILLSBOROUGH","NJ",8844,40.461403493,-74.6162606629999,363,"15 EUCLID AVENUE, HILLSBOROUGH, NJ, 8844","Match","Exact","15 EUCLID AVE, HILLSBOROUGH, NJ, 08844",59943022,"L"
66364,"15 EUGENIA STREET","EUREKA SPRINGS","AR",72632,36.400458579,-93.745531464,364,"15 EUGENIA STREET, EUREKA SPRINGS, AR, 72632","Match","Exact","15 EUGENIA ST, EUREKA SPGS, AR, 72632",20078512,"L"
66365,"15 EUPHORIA RD","SILVER CITY","NM",88061,32.8464429480001,-108.219584253,365,"15 EUPHORIA RD, SILVER CITY, NM, 88061","Match","Exact","15 EUPHORIA RD, SILVER CITY, NM, 88061",192685947,"R"
66366,"15 EVELYN STREET","HOOKSETT","NH",3106,43.057004981,-71.41408705,366,"15 EVELYN STREET, HOOKSETT, NH, 3106","Match","Exact","15 EVELYN ST, HOOKSETT, NH, 03106",117738834,"R"
66367,"15 EVERGREEN COURT","LEBANON","NJ",8833,40.6695967360001,-74.847740599,367,"15 EVERGREEN COURT, LEBANON, NJ, 8833","Match","Exact","15 EVERGREEN CT, LEBANON, NJ, 08833",60009806,"L"
66368,"15 FAIRFAX RD","MILTON","MA",2186,42.2635358520001,-71.089522256,368,"15 FAIRFAX RD, MILTON, MA, 2186","Match","Exact","15 FAIRFAX RD, MILTON, MA, 02186",87247254,"R"
66369,"15 FAIRMOUNT WAY","HULL","MA",2045,42.272937454,-70.86489599,369,"15 FAIRMOUNT WAY, HULL, MA, 2045","Match","Exact","15 FAIRMOUNT WAY, HULL, MA, 02045",87429967,"R"
66370,"15 FAIRVIEW AVENUE","SOMERVILLE","NJ",8876,40.564831229,-74.602870109,370,"15 FAIRVIEW AVENUE, SOMERVILLE, NJ, 8876","Match","Exact","15 FAIRVIEW AVE, SOMERVILLE, NJ, 08876",59938275,"L"
66371,"15 FARMDALE LANE","PALM COAST","FL",32137,29.580038469,-81.227198135,371,"15 FARMDALE LANE, PALM COAST, FL, 32137","Match","Exact","15 FARMDALE LN, PALM COAST, FL, 32137",636361273,"R"
66372,"15 FERNCLIFF ROAD","SCARSDALE","NY",10583,40.986340038,-73.7955966809999,372,"15 FERNCLIFF ROAD, SCARSDALE, NY, 10583","Match","Exact","15 FERNCLIFF RD, SCARSDALE, NY, 10583",139740193,"L"
66373,"15 FIDDLER LN","LEVITTOWN","NY",11756,40.740934559,-73.5040184429999,373,"15 FIDDLER LN, LEVITTOWN, NY, 11756","Match","Exact","15 FIDDLER LN, LEVITTOWN, NY, 11756",147644464,"L"
66374,"15 FIRST COLONY DRIVE","COLUMBUS","MS",39702,33.447142264,-88.369416665,374,"15 FIRST COLONY DRIVE, COLUMBUS, MS, 39702","Match","Exact","15 FIRST COLONY DR, COLUMBUS, MS, 39702",753814,"L"
66375,"15 FIRWOOD DRIVE","PITTSBURGH","PA",15239,40.4791910800001,-79.73227249,375,"15 FIRWOOD DRIVE, PITTSBURGH, PA, 15239","Match","Exact","15 FIRWOOD DR, PITTSBURGH, PA, 15239",51676458,"L"
66376,"15 FLINT RD","NEWARK","DE",19711,39.756071918,-75.7465361979999,376,"15 FLINT RD, NEWARK, DE, 19711","Match","Exact","15 FLINT RD, NEWARK, DE, 19711",187251817,"L"
66377,"15 FLORA STREET","KINGSTREE","SC",29556,33.6808507470001,-79.8218853339999,377,"15 FLORA STREET, KINGSTREE, SC, 29556","Match","Exact","15 FLORA ST, KINGSTREE, SC, 29556",29190706,"L"
66378,"15 FLORIDA ST","LOWELL","MA",1852,42.6386355990001,-71.280458311,378,"15 FLORIDA ST, LOWELL, MA, 1852","Match","Exact","15 FLORIDA ST, LOWELL, MA, 01852",86879504,"R"
66379,"15 FLYAWAY POND DRIVE","EASTON","MA",2356,42.0681967150001,-71.120067916,379,"15 FLYAWAY POND DRIVE, EASTON, MA, 2356","Match","Non_Exact","15 FLYAWAY POND DR, NORTH EASTON, MA, 02356",46790446,"R"
66380,"15 FOOTES LANE","MORRISTOWN","NJ",7960,40.778440147,-74.48323249,380,"15 FOOTES LANE, MORRISTOWN, NJ, 7960","Match","Exact","15 FOOTES LN, MORRISTOWN, NJ, 07960",60458320,"R"
66381,"15 FRANDON DRIVE","DANBURY","CT",6811,41.44141448,-73.4453311199999,381,"15 FRANDON DRIVE, DANBURY, CT, 6811","Match","Exact","15 FRANDON DR, DANBURY, CT, 06811",3231054,"R"
66382,"15 FRANKLIN DRIVE","MCSHERRYSTOWN","PA",17344,39.8090178640001,-77.021887471,382,"15 FRANKLIN DRIVE, MCSHERRYSTOWN, PA, 17344","Match","Exact","15 FRANKLIN DR, MCSHERRYSTOWN, PA, 17344",60875254,"R"
66383,"15 FRANKLIN ST UNIT 464","AVONDALE ESTATES","GA",30002,NA,NA,383,"15 FRANKLIN ST UNIT 464, AVONDALE ESTATES, GA, 30002","No_Match",NA,NA,NA,NA
66384,"15 FRANKLIN STREET PO BOX 26","AVONDALE ESTATES","GA",30002,NA,NA,384,"15 FRANKLIN STREET PO BOX 26, AVONDALE ESTATES, GA, 30002","No_Match",NA,NA,NA,NA
66385,"15 FRANKLIN STREET PO BOX 8","HARTFORD","MI",49057,42.206461163,-86.1699498949999,385,"15 FRANKLIN STREET PO BOX 8, HARTFORD, MI, 49057","Match","Exact","15 FRANKLIN ST, HARTFORD, MI, 49057",34751459,"R"
66386,"15 FREDERICK AVENUE","FREDERICK","MD",21701,39.4313040110001,-77.407142587,386,"15 FREDERICK AVENUE, FREDERICK, MD, 21701","Match","Exact","15 FREDERICK AVE, FREDERICK, MD, 21701",60725484,"R"
66387,"15 FREEMAN CT","COVINGTON","GA",30016,33.5197534860001,-84.0135940769999,387,"15 FREEMAN CT, COVINGTON, GA, 30016","Match","Exact","15 FREEMAN CT, COVINGTON, GA, 30016",23625382,"L"
66388,"15 FREMONT ST","PLYMOUTH","MA",2360,41.952998968,-70.658296354,388,"15 FREMONT ST, PLYMOUTH, MA, 2360","Match","Exact","15 FREMONT ST, PLYMOUTH, MA, 02360",87438493,"L"
66389,"15 FULCHER CT","HAMPTON","VA",23666,37.0597957910001,-76.448164971,389,"15 FULCHER CT, HAMPTON, VA, 23666","Match","Exact","15 FULCHER CT, HAMPTON, VA, 23666",103803067,"L"
66390,"15 GABLED PINES PL","THE WOODLANDS","TX",77382,30.2019255480001,-95.5330319179999,390,"15 GABLED PINES PL, THE WOODLANDS, TX, 77382","Match","Exact","15 GABLED PINES PL, THE WOODLANDS, TX, 77382",79319410,"L"
66391,"15 GARDEN LANE","DURHAM","NH",3824,43.130087808,-70.928921268,391,"15 GARDEN LANE, DURHAM, NH, 3824","Match","Exact","15 GARDEN LN, DURHAM, NH, 03824",117805890,"R"
66392,"15 GARDEN LN APT D2 HUNTER HILLS","FLEMINGTON","NJ",8822,40.5168499370001,-74.863433862,392,"15 GARDEN LN APT D2 HUNTER HILLS, FLEMINGTON, NJ, 8822","Match","Exact","15 GARDEN LN, FLEMINGTON, NJ, 08822",60019661,"R"
66393,"15 GATES AVE APT 15D","BROOKLYN","NY",11238,40.684154537,-73.9685332,393,"15 GATES AVE APT 15D, BROOKLYN, NY, 11238","Match","Exact","15 GATES AVE, BROOKLYN, NY, 11238",59077971,"L"
66394,"15 GATEWAY DRIVE","GREAT NECK","NY",11021,NA,NA,394,"15 GATEWAY DRIVE, GREAT NECK, NY, 11021","No_Match",NA,NA,NA,NA
66395,"15 GAY STREET","NORTH CHELMSFORD","MA",1863,42.637609178,-71.379855192,395,"15 GAY STREET, NORTH CHELMSFORD, MA, 1863","Match","Exact","15 GAY ST, N CHELMSFORD, MA, 01863",86837853,"L"
66396,"15 GEORGES RIVER TERRACE","WARREN","ME",4864,44.120478328,-69.243077962,396,"15 GEORGES RIVER TERRACE, WARREN, ME, 4864","Match","Exact","15 GEORGES RIVER TER, WARREN, ME, 04864",75562702,"R"
66397,"15 GERALD AVENUE","FREEPORT","NY",11520,40.6380541240001,-73.59357943,397,"15 GERALD AVENUE, FREEPORT, NY, 11520","Match","Exact","15 GERALD AVE, FREEPORT, NY, 11520",147638388,"L"
66398,"15 GLORIA ROBINSON CT","JERSEY CITY","NJ",7306,40.7308360850001,-74.0831047029999,398,"15 GLORIA ROBINSON CT, JERSEY CITY, NJ, 7306","Match","Exact","15 GLORIA ROBINSON CT, JERSEY CITY, NJ, 07306",648394730,"R"
66399,"15 GOLDENROD","IRVINE","CA",92614,33.6709187020001,-117.79904552,399,"15 GOLDENROD, IRVINE, CA, 92614","Match","Exact","15 GOLDENROD, IRVINE, CA, 92614",616893816,"L"
66400,"15 GOLF CLUB ROAD","NORTHEAST HARBOR","ME",4662,44.3084422650001,-68.3000325679999,400,"15 GOLF CLUB ROAD, NORTHEAST HARBOR, ME, 4662","Match","Non_Exact","15 GOLF CLUB LN, NORTHEAST HARBOR, ME, 04662",625495237,"R"
66401,"15 GRAND PLACE","NEWTOWN","CT",6470,41.4121269350001,-73.295444897,401,"15 GRAND PLACE, NEWTOWN, CT, 6470","Match","Exact","15 GRAND PL, NEWTOWN, CT, 06470",3272195,"L"
66402,"15 GRAND REGENCY CIR","THE WOODLANDS","TX",77382,30.19605116,-95.543701787,402,"15 GRAND REGENCY CIR, THE WOODLANDS, TX, 77382","Match","Exact","15 GRAND REGENCY CIR, THE WOODLANDS, TX, 77382",79340624,"L"
66403,"15 GRAND VIEW DR","LEBANON","CT",6249,41.6713278620001,-72.233835154,403,"15 GRAND VIEW DR, LEBANON, CT, 6249","Match","Exact","15 GRAND VIEW DR, LEBANON, CT, 06249",625498006,"R"
66404,"15 GRANDIN TERRACE","ANNADALE","NJ",8801,40.608591129,-74.896742106,404,"15 GRANDIN TERRACE, ANNADALE, NJ, 8801","Match","Non_Exact","15 GRANDIN TER, ANNANDALE, NJ, 08801",60026515,"R"
66405,"15 GRANT AVENUE","WHITE PLAINS","NY",10603,41.043132696,-73.7677952889999,405,"15 GRANT AVENUE, WHITE PLAINS, NY, 10603","Match","Exact","15 GRANT AVE, WHITE PLAINS, NY, 10603",139741295,"R"
66406,"15 GRAY INN CT","PRINCE FREDERICK","MD",20678,38.53904433,-76.587030415,406,"15 GRAY INN CT, PRINCE FREDERICK, MD, 20678","Match","Exact","15 GRAY INN CT, PRINCE FREDERICK, MD, 20678",647260835,"L"
66407,"15 GREEK WAY","NEWARK","NJ",7103,40.741531708,-74.180980943,407,"15 GREEK WAY, NEWARK, NJ, 7103","Match","Exact","15 GREEK WAY, NEWARK, NJ, 07103",649275613,"L"
66408,"15 GREEN ACRES ROAD","WASHINGTON","IN",47501,38.657096279,-87.1619974559999,408,"15 GREEN ACRES ROAD, WASHINGTON, IN, 47501","Match","Exact","15 GREEN ACRES RD, WASHINGTON, IN, 47501",32070273,"L"
66409,"15 GREENBRIAR CIRCLE","NEWTOWN","PA",18940,40.2882361470001,-74.8979691009999,409,"15 GREENBRIAR CIRCLE, NEWTOWN, PA, 18940","Match","Exact","15 GREENBRIAR CIR, NEWTOWN, PA, 18940",134747911,"L"
66410,"15 GREENE PLACE","YONKERS","NY",10701,40.9359697580001,-73.864642767,410,"15 GREENE PLACE, YONKERS, NY, 10701","Match","Exact","15 GREENE PL, YONKERS, NY, 10701",139744666,"L"
66411,"15 GREENVILLE STREET","BOSTON","MA",2119,42.327678824,-71.080700871,411,"15 GREENVILLE STREET, BOSTON, MA, 2119","Match","Exact","15 GREENVILLE ST, BOSTON, MA, 02119",85700535,"R"
66412,"15 GRIST MILL ROAD","ACTON","MA",1720,42.4633260900001,-71.488644693,412,"15 GRIST MILL ROAD, ACTON, MA, 1720","Match","Exact","15 GRIST MILL RD, ACTON, MA, 01720",86841586,"L"
66413,"15 GROVE STREET","LINCOLN PARK","NJ",7035,40.9232177550001,-74.2945851859999,413,"15 GROVE STREET, LINCOLN PARK, NJ, 7035","Match","Exact","15 GROVE ST, LINCOLN PARK, NJ, 07035",60457742,"L"
66414,"15 HAMILTON DR","ROSLYN","NY",11576,40.761809568,-73.664884414,414,"15 HAMILTON DR, ROSLYN, NY, 11576","Match","Exact","15 HAMILTON DR, ROSLYN, NY, 11576",147663047,"L"
66415,"15 HAMMOND ST","MONSEY","NY",10952,41.103065373,-74.066953701,415,"15 HAMMOND ST, MONSEY, NY, 10952","Match","Exact","15 HAMMOND ST, MONSEY, NY, 10952",124630310,"R"
66416,"15 HARDING AVE","MALDEN","MA",2148,42.430326015,-71.058212301,416,"15 HARDING AVE, MALDEN, MA, 2148","Match","Exact","15 HARDING AVE, MALDEN, MA, 02148",86872570,"R"
66417,"15 HARRIS LANE","HARRISON","NY",10528,40.961953314,-73.7155423839999,417,"15 HARRIS LANE, HARRISON, NY, 10528","Match","Exact","15 HARRIS LN, HARRISON, NY, 10528",139756026,"R"
66418,"15 HARRISON AVE","AMITYVILLE","NY",11701,40.6941504280001,-73.421503794,418,"15 HARRISON AVE, AMITYVILLE, NY, 11701","Match","Exact","15 HARRISON AVE, AMITYVILLE, NY, 11701",649746853,"L"
66419,"15 HARVEY AVE","COVINGTON","GA",30016,33.5003892660001,-83.947851839,419,"15 HARVEY AVE, COVINGTON, GA, 30016","Match","Exact","15 HARVEY AVE, COVINGTON, GA, 30016",23638105,"L"
66420,"15 HAWTHORNE DR N APT 1","NEW LONDON","CT",6321,NA,NA,420,"15 HAWTHORNE DR N APT 1, NEW LONDON, CT, 6321","No_Match",NA,NA,NA,NA
66421,"15 HEATHERFIELD CT","KILMARNOCK","VA",22482,37.7088516320001,-76.377073877,421,"15 HEATHERFIELD CT, KILMARNOCK, VA, 22482","Match","Exact","15 HEATHERFIELD CT, KILMARNOCK, VA, 22482",30809045,"R"
66422,"15 HEIDI LANE","WOODCLIFF LAKE","NJ",7677,41.0254248410001,-74.067714213,422,"15 HEIDI LANE, WOODCLIFF LAKE, NJ, 7677","Match","Exact","15 HEIDI LN, WOODCLIFF LAKE, NJ, 07677",64367085,"R"
66423,"15 HERALD DRIVE","BETHLEHEM","GA",30620,33.9240458560001,-83.7164414109999,423,"15 HERALD DRIVE, BETHLEHEM, GA, 30620","Match","Exact","15 HERALD DR, BETHLEHEM, GA, 30620",651188207,"R"
66424,"15 HERITAGE DRIVE","DOVER","DE",19904,39.1695011190001,-75.5495835569999,424,"15 HERITAGE DRIVE, DOVER, DE, 19904","Match","Exact","15 HERITAGE DR, DOVER, DE, 19904",68087977,"R"
66425,"15 HERITAGE DRIVE","HOWELL","NJ",7731,40.1416238300001,-74.236671894,425,"15 HERITAGE DRIVE, HOWELL, NJ, 7731","Match","Exact","15 HERITAGE DR, HOWELL, NJ, 07731",90488102,"R"
66426,"15 HERITAGE LANE","SCOTCH PLAINS","NJ",7076,40.6238656420001,-74.377102592,426,"15 HERITAGE LANE, SCOTCH PLAINS, NJ, 7076","Match","Exact","15 HERITAGE LN, SCOTCH PLAINS, NJ, 07076",60561134,"R"
66427,"15 HERSCHEL STREET","LYNN","MA",1902,42.477868732,-70.93126215,427,"15 HERSCHEL STREET, LYNN, MA, 1902","Match","Exact","15 HERSCHEL ST, LYNN, MA, 01902",86646262,"L"
66428,"15 HIAWATHA ROAD","PUTNAM VALLEY","NY",10579,41.4012161380001,-73.8368262339999,428,"15 HIAWATHA ROAD, PUTNAM VALLEY, NY, 10579","Match","Exact","15 HIAWATHA RD, PUTNAM VALLEY, NY, 10579",139684009,"R"
66429,"15 HICKS AVENUE","MEDFORD","MA",2155,42.4009561120001,-71.1036187729999,429,"15 HICKS AVENUE, MEDFORD, MA, 2155","Match","Exact","15 HICKS AVE, MEDFORD, MA, 02155",86859319,"R"
66430,"15 HIGHLAND AVE","WESTERLY","RI",2891,41.376609918,-71.822619909,430,"15 HIGHLAND AVE, WESTERLY, RI, 2891","Match","Exact","15 HIGHLAND AVE, WESTERLY, RI, 02891",58940222,"R"
66431,"15 HIGHPOINT DRIVE","MEDIA","PA",19063,39.900626168,-75.4479666459999,431,"15 HIGHPOINT DRIVE, MEDIA, PA, 19063","Match","Exact","15 HIGHPOINT DR, MEDIA, PA, 19063",652541456,"L"
66432,"15 HILL STREE","ERIN","TN",37061,NA,NA,432,"15 HILL STREE, ERIN, TN, 37061","No_Match",NA,NA,NA,NA
66433,"15 HILL STREET","ERIN","TN",37061,NA,NA,433,"15 HILL STREET, ERIN, TN, 37061","No_Match",NA,NA,NA,NA
66434,"15 HILLER DRIVE","SEEKONK","MA",2771,41.8836335940001,-71.33690541,434,"15 HILLER DRIVE, SEEKONK, MA, 2771","Match","Exact","15 HILLER DR, SEEKONK, MA, 02771",46746779,"L"
66435,"15 HILLIARD ST","CAMBRIDGE","MA",2138,42.3741087860001,-71.1236953659999,435,"15 HILLIARD ST, CAMBRIDGE, MA, 2138","Match","Exact","15 HILLIARD ST, CAMBRIDGE, MA, 02138",86868045,"R"
66436,"15 HILLOVER LN","SAG HARBOR","NY",11963,40.99064966,-72.335259698,436,"15 HILLOVER LN, SAG HARBOR, NY, 11963","Match","Exact","15 HILLOVER LN, SAG HARBOR, NY, 11963",113959391,"L"
66437,"15 HOB R0AD","LOS LUNAS","NM",87031,34.7628460120001,-106.716742015,437,"15 HOB R0AD, LOS LUNAS, NM, 87031","Match","Non_Exact","15 HOB RD, LOS LUNAS, NM, 87031",635549866,"R"
66438,"15 HOLLY DRIVE","WEST BERLIN","NJ",8091,39.8024364140001,-74.925554947,438,"15 HOLLY DRIVE, WEST BERLIN, NJ, 8091","Match","Exact","15 HOLLY DR, WEST BERLIN, NJ, 08091",134419518,"L"
66439,"15 HOLYOKE STREET","MALDEN","MA",2148,42.423750727,-71.0625999379999,439,"15 HOLYOKE STREET, MALDEN, MA, 2148","Match","Exact","15 HOLYOKE ST, MALDEN, MA, 02148",640150025,"R"
66440,"15 HOPSON LANE","NORWICH","VT",5055,43.7020516740001,-72.31639738,440,"15 HOPSON LANE, NORWICH, VT, 5055","Match","Exact","15 HOPSON LN, NORWICH, VT, 05055",139259283,"L"
66441,"15 HORTON STREET","NEWBURYPORT","MA",1950,42.8053469170001,-70.866239014,441,"15 HORTON STREET, NEWBURYPORT, MA, 1950","Match","Exact","15 HORTON ST, NEWBURYPORT, MA, 01950",86676892,"L"
66442,"15 HOSMER STREET","MATTAPAN","MA",2126,42.2813198810001,-71.0914733559999,442,"15 HOSMER STREET, MATTAPAN, MA, 2126","Match","Exact","15 HOSMER ST, MATTAPAN, MA, 02126",85725828,"R"
66443,"15 HOWELL DRIVE","LITTLE ROCK","AR",72204,34.7363020650001,-92.3702055369999,443,"15 HOWELL DRIVE, LITTLE ROCK, AR, 72204","Match","Exact","15 HOWELL DR, LITTLE ROCK, AR, 72204",83533879,"R"
66444,"15 HUCKLEBERRY ROAD","HOPKINTON","MA",1748,42.2537773350001,-71.564475842,444,"15 HUCKLEBERRY ROAD, HOPKINTON, MA, 1748","Match","Exact","15 HUCKLEBERRY RD, HOPKINTON, MA, 01748",87123141,"R"
66445,"15 HUGUENOT ST APT 5","NEW PALTZ","NY",12561,41.7499935380001,-74.089159334,445,"15 HUGUENOT ST APT 5, NEW PALTZ, NY, 12561","Match","Exact","15 HUGUENOT ST, NEW PALTZ, NY, 12561",41882509,"L"
66446,"15 HUNTER DRIVE","MEDANALES","NM",87548,36.2046377,-106.194505022,446,"15 HUNTER DRIVE, MEDANALES, NM, 87548","Match","Exact","15 HUNTER DR, MEDANALES, NM, 87548",632134949,"L"
66447,"15 HYLAND STRINGER","RAYMOND","WA",98577,46.5876359480001,-123.631893842,447,"15 HYLAND STRINGER, RAYMOND, WA, 98577","Match","Non_Exact","15 HYLAND STRINGER RD, RAYMOND, WA, 98577",176010240,"L"
66448,"15 ICE LAKE DRIVE","MOUNTAIN TOP","PA",18707,41.1566664260001,-75.9763794529999,448,"15 ICE LAKE DRIVE, MOUNTAIN TOP, PA, 18707","Match","Non_Exact","15 LAKE AVE, MOUNTAIN TOP, PA, 18707",80920857,"L"
66449,"15 IDELL ROAD","VALLEY STREAM","NY",11580,40.6781537270001,-73.7044271509999,449,"15 IDELL ROAD, VALLEY STREAM, NY, 11580","Match","Exact","15 IDELL RD, VALLEY STREAM, NY, 11580",147668700,"L"
66450,"15 INGLESID LANE","LIVERPOOL","NY",13090,43.124256227,-76.233099162,450,"15 INGLESID LANE, LIVERPOOL, NY, 13090","Match","Exact","15 INGLESID LN, LIVERPOOL, NY, 13090",46583615,"L"
66451,"15 INMAN ST APT 4D","CAMBRIDGE","MA",2139,42.3673867090001,-71.104783488,451,"15 INMAN ST APT 4D, CAMBRIDGE, MA, 2139","Match","Exact","15 INMAN ST, CAMBRIDGE, MA, 02139",87108396,"L"
66452,"15 INWOOD MANOR","SAN ANTONIO","TX",78248,29.58778347,-98.5376350069999,452,"15 INWOOD MANOR, SAN ANTONIO, TX, 78248","Match","Exact","15 INWOOD MANOR, SAN ANTONIO, TX, 78248",101567400,"R"
66453,"15 IRELAND BROOK DR","NORTH BRUNSWICK","NJ",8902,40.4161352300001,-74.482682809,453,"15 IRELAND BROOK DR, NORTH BRUNSWICK, NJ, 8902","Match","Exact","15 IRELAND BROOK DR, N BRUNSWICK, NJ, 08902",60300111,"L"
66454,"15 JAMIE DR","BELLINGHAM","MA",2019,42.088223548,-71.479069879,454,"15 JAMIE DR, BELLINGHAM, MA, 2019","Match","Exact","15 JAMIE DR, BELLINGHAM, MA, 02019",87284265,"R"
66455,"15 JC LANE","COLLINS","MS",39428,NA,NA,455,"15 JC LANE, COLLINS, MS, 39428","No_Match",NA,NA,NA,NA
66456,"15 JEAN PLACE","SYOSSET","NY",11791,40.7999573490001,-73.495187,456,"15 JEAN PLACE, SYOSSET, NY, 11791","Match","Exact","15 JEAN PL, SYOSSET, NY, 11791",147641823,"R"
66457,"15 JONES STREET APT 6A","NEW YORK","NY",10014,40.732210905,-74.0019928739999,457,"15 JONES STREET APT 6A, NEW YORK, NY, 10014","Match","Exact","15 JONES ST, NEW YORK, NY, 10014",59660019,"R"
66458,"15 JUNE ST","DUDLEY","MA",1571,42.058404899,-71.9114366699999,458,"15 JUNE ST, DUDLEY, MA, 1571","Match","Exact","15 JUNE ST, DUDLEY, MA, 01571",636370106,"R"
66459,"15 KACIE LANE","EAST HAMPSTEAD","NH",3826,NA,NA,459,"15 KACIE LANE, EAST HAMPSTEAD, NH, 3826","No_Match",NA,NA,NA,NA
66460,"15 KARNELL DRIVE","PISCATAWAY","NJ",8854,40.536261934,-74.447711291,460,"15 KARNELL DRIVE, PISCATAWAY, NJ, 8854","Match","Exact","15 KARNELL DR, PISCATAWAY, NJ, 08854",60344073,"R"
66461,"15 KARSYN LANE","DELBARTON","WV",25670,37.736041819,-82.1921111619999,461,"15 KARSYN LANE, DELBARTON, WV, 25670","Match","Exact","15 KARSYN LN, DELBARTON, WV, 25670",612434004,"R"
66462,"15 KARY WAY","MORRISTOWN","NJ",7960,40.7962425950001,-74.459636691,462,"15 KARY WAY, MORRISTOWN, NJ, 7960","Match","Exact","15 KARY WAY, MORRISTOWN, NJ, 07960",60463592,"R"
66463,"15 KAZERSKY DRIVE","WALLINGFORD","CT",6492,41.5075085080001,-72.8448961459999,463,"15 KAZERSKY DRIVE, WALLINGFORD, CT, 6492","Match","Exact","15 KAZERSKY DR, WALLINGFORD, CT, 06492",651693056,"R"
66464,"15 KELLEY DRIVE","FLORENCE","KY",41042,38.9875659420001,-84.6649727819999,464,"15 KELLEY DRIVE, FLORENCE, KY, 41042","Match","Exact","15 KELLEY DR, FLORENCE, KY, 41042",81962192,"R"
66465,"15 KELLY DR","GRANITE CITY","IL",62040,38.7148329510001,-90.047802114,465,"15 KELLY DR, GRANITE CITY, IL, 62040","Match","Exact","15 KELLY DR, GRANITE CITY, IL, 62040",647130939,"R"
66466,"15 KELLY WAY","STAFFORD","VA",22556,38.470854698,-77.458311763,466,"15 KELLY WAY, STAFFORD, VA, 22556","Match","Exact","15 KELLY WAY, STAFFORD, VA, 22556",25562342,"L"
66467,"15 KELTON CT","OAKLAND","CA",94611,37.8240854320001,-122.250682515,467,"15 KELTON CT, OAKLAND, CA, 94611","Match","Exact","15 KELTON CT, OAKLAND, CA, 94611",125000590,"R"
66468,"15 KENT ROAD","GLOUCESTER","MA",1930,42.617141921,-70.708906278,468,"15 KENT ROAD, GLOUCESTER, MA, 1930","Match","Exact","15 KENT RD, GLOUCESTER, MA, 01930",86679511,"R"
66469,"15 KENT STREET","NEW HYDE PARK","NY",11040,40.7530949280001,-73.663259983,469,"15 KENT STREET, NEW HYDE PARK, NY, 11040","Match","Exact","15 KENT ST, NEW HYDE PARK, NY, 11040",147671398,"L"
66470,"15 KEWAUNEE CT","MADISON","WI",53705,43.0640382,-89.460776755,470,"15 KEWAUNEE CT, MADISON, WI, 53705","Match","Exact","15 KEWAUNEE CT, MADISON, WI, 53705",49467262,"L"
66471,"15 KIMBERLY CT","MANALAPAN","NJ",7726,40.323929723,-74.3488176179999,471,"15 KIMBERLY CT, MANALAPAN, NJ, 7726","Match","Exact","15 KIMBERLY CT, MANALAPAN, NJ, 07726",90493540,"L"
66472,"15 KINGSBURY LANE","KENNEBUNK","ME",4043,43.374173125,-70.5449489229999,472,"15 KINGSBURY LANE, KENNEBUNK, ME, 4043","Match","Exact","15 KINGSBURY LN, KENNEBUNK, ME, 04043",628446417,"R"
66473,"15 KINGSWOOD LANE","AUBURNDALE","MA",2466,42.3519865100001,-71.25495145,473,"15 KINGSWOOD LANE, AUBURNDALE, MA, 2466","Match","Non_Exact","15 KINGSWOOD RD, AUBURNDALE, MA, 02466",87126933,"L"
66474,"15 KIRCHNER DRIVE","SOUTH PARK","PA",15129,NA,NA,474,"15 KIRCHNER DRIVE, SOUTH PARK, PA, 15129","No_Match",NA,NA,NA,NA
66475,"15 KOCH LN","EAST BRUNSWICK","NJ",8816,40.4308849720001,-74.432736318,475,"15 KOCH LN, EAST BRUNSWICK, NJ, 8816","Match","Exact","15 KOCH LN, E BRUNSWICK, NJ, 08816",645309630,"L"
66476,"15 KYLE AVENUE","HOHENWALD","TN",38462,NA,NA,476,"15 KYLE AVENUE, HOHENWALD, TN, 38462","No_Match",NA,NA,NA,NA
66477,"15 LA JOLLA CIRCLE","MONTGOMERY","TX",77356,30.3936002790001,-95.646609623,477,"15 LA JOLLA CIRCLE, MONTGOMERY, TX, 77356","Match","Exact","15 LA JOLLA CIR, MONTGOMERY, TX, 77356",79300234,"L"
66478,"15 LAFAYETTE PLACE","BURLINGTON","VT",5401,44.4807274080001,-73.210167208,478,"15 LAFAYETTE PLACE, BURLINGTON, VT, 5401","Match","Exact","15 LAFAYETTE PL, BURLINGTON, VT, 05401",135842639,"R"
66479,"15 LAFAYETTE ST APT 66","SCHENECTADY","NY",12304,42.8154484030001,-73.936124804,479,"15 LAFAYETTE ST APT 66, SCHENECTADY, NY, 12304","Match","Non_Exact","15 LAFAYETTE ST, SCHENECTADY, NY, 12305",18025860,"L"
66480,"15 LAKE LEAF PL","THE WOODLANDS","TX",77381,30.1922144380001,-95.533085033,480,"15 LAKE LEAF PL, THE WOODLANDS, TX, 77381","Match","Exact","15 LAKE LEAF PL, THE WOODLANDS, TX, 77381",79305287,"L"
66481,"15 LAMPLIGHTER LANE","SOUTH EASTON","MA",2375,42.0230691260001,-71.1215090219999,481,"15 LAMPLIGHTER LANE, SOUTH EASTON, MA, 2375","Match","Exact","15 LAMPLIGHTER LN, SOUTH EASTON, MA, 02375",46779679,"L"
66482,"15 LAMSON AVE","BELCHERTOWN","MA",1007,42.3079933760001,-72.4563565829999,482,"15 LAMSON AVE, BELCHERTOWN, MA, 1007","Match","Exact","15 LAMSON AVE, BELCHERTOWN, MA, 01007",39858249,"L"
66483,"15 LANGDON STREET APARTMENT 1","CAMBRIDGE","MA",2138,42.380720673,-71.120510042,483,"15 LANGDON STREET APARTMENT 1, CAMBRIDGE, MA, 2138","Match","Exact","15 LANGDON ST, CAMBRIDGE, MA, 02138",86868063,"R"
66484,"15 LAPIDGE STREET APT 2","SAN FRANCISCO","CA",94110,37.7613327170001,-122.422370223,484,"15 LAPIDGE STREET APT 2, SAN FRANCISCO, CA, 94110","Match","Exact","15 LAPIDGE ST, SAN FRANCISCO, CA, 94110",192292613,"L"
66485,"15 LAURA RD","WABAN","MA",2468,42.322703157,-71.2399559579999,485,"15 LAURA RD, WABAN, MA, 2468","Match","Exact","15 LAURA RD, WABAN, MA, 02468",87081493,"R"
66486,"15 LAUREL LN","BERNARDSVILLE","NJ",7924,40.716359561,-74.576485643,486,"15 LAUREL LN, BERNARDSVILLE, NJ, 7924","Match","Exact","15 LAUREL LN, BERNARDSVILLE, NJ, 07924",59958733,"R"
66487,"15 LAUREL WOODS ROAD","WOODBRIDGE","CT",6798,41.53794013,-73.244222895,487,"15 LAUREL WOODS ROAD, WOODBRIDGE, CT, 6798","Match","Non_Exact","15 LAUREL WOODS RD, WOODBURY, CT, 06798",3108705,"R"
66488,"15 LAURIE LANE","JAMESTOWN","NY",14701,42.0887397770001,-79.216960033,488,"15 LAURIE LANE, JAMESTOWN, NY, 14701","Match","Exact","15 LAURIE LN, JAMESTOWN, NY, 14701",120753721,"L"
66489,"15 LAWRENCE AVENUE","POTSDAM","NY",13676,44.6722985220001,-74.978356778,489,"15 LAWRENCE AVENUE, POTSDAM, NY, 13676","Match","Exact","15 LAWRENCE AVE, POTSDAM, NY, 13676",155160182,"R"
66490,"15 LEHIGH CT  A","LITTLE ROCK","AR",72204,34.7220602630001,-92.3787846009999,490,"15 LEHIGH CT  A, LITTLE ROCK, AR, 72204","Match","Exact","15 LEHIGH CT, LITTLE ROCK, AR, 72204",640451378,"R"
66491,"15 LEHIGH DRIVE","KENDALL PARK","NJ",8824,40.4105460530001,-74.580262316,491,"15 LEHIGH DRIVE, KENDALL PARK, NJ, 8824","Match","Exact","15 LEHIGH DR, KENDALL PARK, NJ, 08824",60298302,"L"
66492,"15 LEWIS PARKWAY","YONKERS","NY",10705,40.913851849,-73.8887295059999,492,"15 LEWIS PARKWAY, YONKERS, NY, 10705","Match","Exact","15 LEWIS PKWY, YONKERS, NY, 10705",139744032,"L"
66493,"15 LEWIS STREET SUITE 302","HARTFORD","CT",6103,41.7649403770001,-72.675448628,493,"15 LEWIS STREET SUITE 302, HARTFORD, CT, 6103","Match","Exact","15 LEWIS ST, HARTFORD, CT, 06103",3495197,"L"
66494,"15 LINCOLN ST STE 156","WAKEFIELD","MA",1880,42.503068661,-71.0690496289999,494,"15 LINCOLN ST STE 156, WAKEFIELD, MA, 1880","Match","Exact","15 LINCOLN ST, WAKEFIELD, MA, 01880",87080988,"L"
66495,"15 LINDBERGH CIRCLE","HUNTINGTON","NY",11743,40.8393895250001,-73.373126353,495,"15 LINDBERGH CIRCLE, HUNTINGTON, NY, 11743","Match","Exact","15 LINDBERGH CIR, HUNTINGTON, NY, 11743",114240972,"L"
66496,"15 LITTLE BARLEY LANE","GRAYSON","GA",30017,33.909409941,-83.946946875,496,"15 LITTLE BARLEY LANE, GRAYSON, GA, 30017","Match","Exact","15 LITTLE BARLEY LN, GRAYSON, GA, 30017",635859989,"L"
66497,"15 LITTLE BEASLEY","BLAIRSVILLE","GA",30512,34.8707721750001,-83.935761901,497,"15 LITTLE BEASLEY, BLAIRSVILLE, GA, 30512","Match","Exact","15 LITTLE BEASLEY, BLAIRSVILLE, GA, 30512",629426486,"L"
66498,"15 LIVINGSTON AVE","YONKERS","NY",10705,40.9232108460001,-73.899126021,498,"15 LIVINGSTON AVE, YONKERS, NY, 10705","Match","Exact","15 LIVINGSTON AVE, YONKERS, NY, 10705",139743576,"R"
66499,"15 LOBAO DRIVE","DANVERS","MA",1923,42.5853605090001,-70.952133497,499,"15 LOBAO DRIVE, DANVERS, MA, 1923","Match","Exact","15 LOBAO DR, DANVERS, MA, 01923",86638763,"R"
66500,"15 LOVEJOY CIRCLE","POWDER SPRINGS","GA",30127,33.8037009560001,-84.74410147,500,"15 LOVEJOY CIRCLE, POWDER SPRINGS, GA, 30127","Match","Exact","15 LOVEJOY CIR, POWDER SPGS, GA, 30127",17749794,"L"
