"ID","Address","City","State","Zip","lat","long","id","input_address","match_indicator","match_type","matched_address","tiger_line_id","tiger_side"
258001,"611 23RD AVENUE EAST","TUSCALOOSA","AL",35404,33.209782563,-87.50831274,1,"611 23RD AVENUE EAST, TUSCALOOSA, AL, 35404","Match","Exact","611 23RD AVE E, TUSCALOOSA, AL, 35404",82174791,"L"
258002,"611 4TH STREET","CHENEY","WA",99004,47.489732229,-117.57674413,2,"611 4TH STREET, CHENEY, WA, 99004","Match","Exact","611 4TH ST, CHENEY, WA, 99004",189861074,"R"
258003,"611 4TH STREET","MATTOON","WI",54450,45.003374642,-89.042090074,3,"611 4TH STREET, MATTOON, WI, 54450","Match","Exact","611 4TH ST, MATTOON, WI, 54450",126870208,"L"
258004,"611 6TH AVE S","NAMPA","ID",83651,43.5791666960001,-116.571130611,4,"611 6TH AVE S, NAMPA, ID, 83651","Match","Exact","611 6TH AVE S, NAMPA, ID, 83651",122786916,"L"
258005,"611 90TH AVE SE","WILLMAR","MN",56201,45.0380874850001,-95.035052327,5,"611 90TH AVE SE, WILLMAR, MN, 56201","Match","Exact","611 90TH AVE SE, WILLMAR, MN, 56201",36712634,"L"
258006,"611 ACCESS ROAD","STRATFORD","CT",6615,41.170022712,-73.1288115359999,6,"611 ACCESS ROAD, STRATFORD, CT, 6615","Match","Exact","611 ACCESS RD, STRATFORD, CT, 06615",3275954,"L"
258007,"611 AIRFIELD ROAD","AURORA","TX",76078,33.0538669160001,-97.524805806,7,"611 AIRFIELD ROAD, AURORA, TX, 76078","Match","Exact","611 AIRFIELD RD, AURORA, TX, 76078",103669486,"L"
258008,"611 ALLEGHENY STREET","JERSEY SHORE","PA",17740,41.2038541150001,-77.262217767,8,"611 ALLEGHENY STREET, JERSEY SHORE, PA, 17740","Match","Exact","611 ALLEGHENY ST, JERSEY SHORE, PA, 17740",59468506,"L"
258009,"611 ANDERSON RD","ENON VALLEY","PA",16120,40.849350998,-80.467526858,9,"611 ANDERSON RD, ENON VALLEY, PA, 16120","Match","Exact","611 ANDERSON RD, ENON VALLEY, PA, 16120",52580399,"L"
258010,"611 ASHBURN LANE","DURHAM","NC",27703,35.968895936,-78.792871579,10,"611 ASHBURN LANE, DURHAM, NC, 27703","Match","Exact","611 ASHBURN LN, DURHAM, NC, 27703",618111143,"L"
258011,"611 ASPEN TRACE DRIVE","SAINT PETERS","MO",63376,38.774970732,-90.652509731,11,"611 ASPEN TRACE DRIVE, SAINT PETERS, MO, 63376","Match","Exact","611 ASPEN TRACE DR, SAINT PETERS, MO, 63376",617977730,"L"
258012,"611 AVON STREET","CHARLOTTESVILLE","VA",22902,38.024731339,-78.4788869939999,12,"611 AVON STREET, CHARLOTTESVILLE, VA, 22902","Match","Exact","611 AVON ST, CHARLOTTESVILLE, VA, 22902",83406854,"R"
258013,"611 BEAVERS RD","CANTON","GA",30115,34.2347709800001,-84.3740482119999,13,"611 BEAVERS RD, CANTON, GA, 30115","Match","Exact","611 BEAVERS RD, CANTON, GA, 30115",68827481,"L"
258014,"611 BEN ALI DRIVE SUIT  104","DANVILLE","KY",40422,37.649258624,-84.809988828,14,"611 BEN ALI DRIVE SUIT  104, DANVILLE, KY, 40422","Match","Exact","611 BEN ALI DR, DANVILLE, KY, 40422",32486835,"L"
258015,"611 BIRMINGHAM AVE","WILMINGTON","DE",19804,39.7187480110001,-75.601390102,15,"611 BIRMINGHAM AVE, WILMINGTON, DE, 19804","Match","Exact","611 BIRMINGHAM AVE, WILMINGTON, DE, 19804",187267785,"R"
258016,"611 BLANCHE STREET","JACKSON","MO",63755,37.376481964,-89.66223345,16,"611 BLANCHE STREET, JACKSON, MO, 63755","Match","Exact","611 BLANCHE ST, JACKSON, MO, 63755",35177647,"L"
258017,"611 BRIARWOOD DRIVE","DE SOTO","IL",62924,37.8182789780001,-89.214792589,17,"611 BRIARWOOD DRIVE, DE SOTO, IL, 62924","Match","Exact","611 BRIARWOOD DR, DE SOTO, IL, 62924",647619889,"R"
258018,"611 BROOKE HAMPTON DRIVE","TALLAHASSEE","FL",32311,30.3969673880001,-84.260789551,18,"611 BROOKE HAMPTON DRIVE, TALLAHASSEE, FL, 32311","Match","Exact","611 BROOKE HAMPTON DR, TALLAHASSEE, FL, 32311",618822153,"L"
258019,"611 BROOKLYN BLVD","SEA GIRT","NJ",8750,40.136363342,-74.040702982,19,"611 BROOKLYN BLVD, SEA GIRT, NJ, 8750","Match","Exact","611 BROOKLYN BLVD, SEA GIRT, NJ, 08750",90467709,"R"
258020,"611 CAMPUS DRIVE","TOWNSEND","DE",19734,NA,NA,20,"611 CAMPUS DRIVE, TOWNSEND, DE, 19734","No_Match",NA,NA,NA,NA
258021,"611 CAYMAN WAY","SAVOY","IL",61874,40.0716060440001,-88.259086865,21,"611 CAYMAN WAY, SAVOY, IL, 61874","Match","Exact","611 CAYMAN WAY, SAVOY, IL, 61874",616813892,"L"
258022,"611 CEMETERY RD","MIDDLETON","ID",83644,43.7114112460001,-116.632546071,22,"611 CEMETERY RD, MIDDLETON, ID, 83644","Match","Exact","611 CEMETERY RD, MIDDLETON, ID, 83644",122801489,"L"
258023,"611 CENTRAL AVE","BUTNER","NC",27509,36.138802431,-78.763031763,23,"611 CENTRAL AVE, BUTNER, NC, 27509","Match","Exact","611 CENTRAL AVE, BUTNER, NC, 27509",77104434,"L"
258024,"611 CHARLES RD","SHELBY","NC",28152,35.2823185350001,-81.562492897,24,"611 CHARLES RD, SHELBY, NC, 28152","Match","Exact","611 CHARLES RD, SHELBY, NC, 28152",636567650,"R"
258025,"611 CHURCH STREET","GEORGETOWN","TX",78626,NA,NA,25,"611 CHURCH STREET, GEORGETOWN, TX, 78626","Tie",NA,NA,NA,NA
258026,"611 CLARE RIDGE COURT","FRANKLIN","TN",37064,NA,NA,26,"611 CLARE RIDGE COURT, FRANKLIN, TN, 37064","No_Match",NA,NA,NA,NA
258027,"611 COLUMBIA STREET NW SUITE 2B","OLYMPIA","WA",98501,47.0493146040001,-122.903628023,27,"611 COLUMBIA STREET NW SUITE 2B, OLYMPIA, WA, 98501","Match","Exact","611 COLUMBIA ST NW, OLYMPIA, WA, 98501",180944029,"L"
258028,"611 COREY LANE","CHAMPAIGN","IL",61822,40.1513277710001,-88.253887415,28,"611 COREY LANE, CHAMPAIGN, IL, 61822","Match","Exact","611 COREY LN, CHAMPAIGN, IL, 61822",8858890,"R"
258029,"611 COUNTRY LANE","RAYMORE","MO",64083,38.792818256,-94.465311484,29,"611 COUNTRY LANE, RAYMORE, MO, 64083","Match","Exact","611 COUNTRY LN, RAYMORE, MO, 64083",100925968,"L"
258030,"611 COUNTRY LN","RAYMORE","MO",64083,38.792818256,-94.465311484,30,"611 COUNTRY LN, RAYMORE, MO, 64083","Match","Exact","611 COUNTRY LN, RAYMORE, MO, 64083",100925968,"L"
258031,"611 CRESCENT DRIVE APT 5","CHAMPAIGN","IL",61821,40.1100656610001,-88.2813599089999,31,"611 CRESCENT DRIVE APT 5, CHAMPAIGN, IL, 61821","Match","Exact","611 CRESCENT DR, CHAMPAIGN, IL, 61821",8809200,"R"
258032,"611 CYPRESS STREET","THROOP","PA",18512,41.447325483,-75.6131141559999,32,"611 CYPRESS STREET, THROOP, PA, 18512","Match","Exact","611 CYPRESS ST, THROOP, PA, 18512",636634857,"L"
258033,"611 DOLASH CT","NEWBERG","OR",97132,45.304874383,-122.956450335,33,"611 DOLASH CT, NEWBERG, OR, 97132","Match","Exact","611 DOLASH CT, NEWBERG, OR, 97132",156510852,"R"
258034,"611 DRUID RD E SUITE 715","CLEARWATER","FL",33756,27.9572638230001,-82.798393717,34,"611 DRUID RD E SUITE 715, CLEARWATER, FL, 33756","Match","Exact","611 DRUID RD E, CLEARWATER, FL, 33756",637647218,"R"
258035,"611 E 3RD STREET","STOVER","MO",65078,NA,NA,35,"611 E 3RD STREET, STOVER, MO, 65078","Tie",NA,NA,NA,NA
258036,"611 E CARLSON ST STE 117","CHEYENNE","WY",82009,41.1712381890001,-104.819619097,36,"611 E CARLSON ST STE 117, CHEYENNE, WY, 82009","Match","Non_Exact","611 E CARLSON ST, CHEYENNE, WY, 82009",160147827,"R"
258037,"611 E CR 5400","LUBBOCK","TX",79403,NA,NA,37,"611 E CR 5400, LUBBOCK, TX, 79403","Tie",NA,NA,NA,NA
258038,"611 E FARNEMAN ST","SOUTH BEND","IN",46614,41.64267254,-86.243366857,38,"611 E FARNEMAN ST, SOUTH BEND, IN, 46614","Match","Exact","611 E FARNEMAN ST, SOUTH BEND, IN, 46614",8091905,"R"
258039,"611 E LAUREL ST","SCOTTSBORO","AL",35768,34.672746058,-86.027151804,39,"611 E LAUREL ST, SCOTTSBORO, AL, 35768","Match","Exact","611 E LAUREL ST, SCOTTSBORO, AL, 35768",58025820,"R"
258040,"611 E MAIN STE 8","RIVERTON","WY",82501,NA,NA,40,"611 E MAIN STE 8, RIVERTON, WY, 82501","No_Match",NA,NA,NA,NA
258041,"611 E WASHINGTON ST","PITTSFIELD","IL",62363,NA,NA,41,"611 E WASHINGTON ST, PITTSFIELD, IL, 62363","Tie",NA,NA,NA,NA
258042,"611 EAST 29TH STREET","BRYAN","TX",77803,30.669798015,-96.368275442,42,"611 EAST 29TH STREET, BRYAN, TX, 77803","Match","Exact","611 E 29TH ST, BRYAN, TX, 77803",21813218,"R"
258043,"611 EAST 47 HIGHWAY","FRANKLIN","KS",66735,37.5137725120001,-94.741067288,43,"611 EAST 47 HIGHWAY, FRANKLIN, KS, 66735","Match","Exact","611 E 47 HWY, FRANKLIN, KS, 66735",636616960,"L"
258044,"611 EAST 60 SOUTH","PRESTON","ID",83263,42.095001853,-111.861878346,44,"611 EAST 60 SOUTH, PRESTON, ID, 83263","Match","Non_Exact","611 60 S, PRESTON, ID, 83263",167545250,"L"
258045,"611 EAST AMELIA STREET APT 2","ORLANDO","FL",32803,28.5494360490001,-81.370194192,45,"611 EAST AMELIA STREET APT 2, ORLANDO, FL, 32803","Match","Exact","611 E AMELIA ST, ORLANDO, FL, 32803",94427062,"L"
258046,"611 EAST JACKSON ST","BRAZIL","IN",47834,39.5240144960001,-87.1196761429999,46,"611 EAST JACKSON ST, BRAZIL, IN, 47834","Match","Exact","611 E JACKSON ST, BRAZIL, IN, 47834",638367962,"R"
258047,"611 EAST MAIN STREET STE 111","EAST DUNDEE","IL",60118,42.0981009500001,-88.284114097,47,"611 EAST MAIN STREET STE 111, EAST DUNDEE, IL, 60118","Match","Non_Exact","611 W MAIN ST, EAST DUNDEE, IL, 60118",119500390,"L"
258048,"611 EAST MCCORKLE CIRCLE","GREENVILLE","MS",38703,33.398882583,-91.026328126,48,"611 EAST MCCORKLE CIRCLE, GREENVILLE, MS, 38703","Match","Exact","611 E MCCORKLE CIR, GREENVILLE, MS, 38703",1154197,"L"
258049,"611 EAST PORTER STREET","ALBION","MI",49224,42.2437879460001,-84.745801886,49,"611 EAST PORTER STREET, ALBION, MI, 49224","Match","Exact","611 E PORTER ST, ALBION, MI, 49224",11729041,"R"
258050,"611 EAST UNION STREET","MINDEN","LA",71055,32.612471155,-93.276081742,50,"611 EAST UNION STREET, MINDEN, LA, 71055","Match","Exact","611 E UNION ST, MINDEN, LA, 71055",73393880,"L"
258051,"611 EDWARDS DRIVE","FREDERICKSBURG","VA",22405,38.3214552330001,-77.425695306,51,"611 EDWARDS DRIVE, FREDERICKSBURG, VA, 22405","Match","Exact","611 EDWARDS DR, FREDERICKSBURG, VA, 22405",635807180,"L"
258052,"611 ELLIOTT RD","DAWSONVILLE","GA",30534,34.360586577,-84.0239843379999,52,"611 ELLIOTT RD, DAWSONVILLE, GA, 30534","Match","Exact","611 ELLIOTT RD, DAWSONVILLE, GA, 30534",649911833,"R"
258053,"611 ESTUARY TRAIL","ALPHARETTA","GA",30005,34.109081174,-84.229518446,53,"611 ESTUARY TRAIL, ALPHARETTA, GA, 30005","Match","Exact","611 ESTUARY TRL, ALPHARETTA, GA, 30005",646213415,"L"
258054,"611 EVANS LOOP RD","MANSFIELD","LA",71052,32.12825875,-93.591228238,54,"611 EVANS LOOP RD, MANSFIELD, LA, 71052","Match","Exact","611 EVANS LOOP, MANSFIELD, LA, 71052",651738242,"R"
258055,"611 FAIRVIEW AVENUE","GALION","OH",44833,40.7406274310001,-82.78332045,55,"611 FAIRVIEW AVENUE, GALION, OH, 44833","Match","Exact","611 FAIRVIEW AVE, GALION, OH, 44833",12076361,"R"
258056,"611 FERN MEADOW LOOP APT 101","MIDLOTHIAN","VA",23114,37.490572199,-77.657486461,56,"611 FERN MEADOW LOOP APT 101, MIDLOTHIAN, VA, 23114","Match","Exact","611 FERN MEADOW LOOP, MIDLOTHIAN, VA, 23114",616559343,"L"
258057,"611 FREEDOM CT","NASHVILLE","TN",37209,36.1557277370001,-86.879123624,57,"611 FREEDOM CT, NASHVILLE, TN, 37209","Match","Exact","611 FREEDOM CT, NASHVILLE, TN, 37209",97178555,"L"
258058,"611 FRONT STREET","LAHAINA","HI",96761,20.8710891810001,-156.676774742,58,"611 FRONT STREET, LAHAINA, HI, 96761","Match","Exact","611 FRONT ST, LAHAINA, HI, 96761",85065262,"L"
258059,"611 GRAFTON ST","FREDERICKSBURG","VA",22405,38.3217733050001,-77.430901363,59,"611 GRAFTON ST, FREDERICKSBURG, VA, 22405","Match","Exact","611 GRAFTON ST, FREDERICKSBURG, VA, 22405",25584021,"L"
258060,"611 GREENWOOD DRIVE","IOWA CITY","IA",52246,41.652759797,-91.546900705,60,"611 GREENWOOD DRIVE, IOWA CITY, IA, 52246","Match","Exact","611 GREENWOOD DR, IOWA CITY, IA, 52246",84494628,"L"
258061,"611 HARRINGTON RD","DELTON","MI",49046,NA,NA,61,"611 HARRINGTON RD, DELTON, MI, 49046","No_Match",NA,NA,NA,NA
258062,"611 HIGH STREET STE 203","DEDHAM","MA",2026,42.2484846900001,-71.174415967,62,"611 HIGH STREET STE 203, DEDHAM, MA, 2026","Match","Exact","611 HIGH ST, DEDHAM, MA, 02026",87307491,"L"
258063,"611 HIGHPOINTE DRIVE","NEW CASTLE","DE",19720,39.565434446,-75.656006651,63,"611 HIGHPOINTE DRIVE, NEW CASTLE, DE, 19720","Match","Exact","611 HIGHPOINTE DR, NEW CASTLE, DE, 19720",648680170,"L"
258064,"611 HIGHWAY 49","JACKSON","CA",95642,NA,NA,64,"611 HIGHWAY 49, JACKSON, CA, 95642","No_Match",NA,NA,NA,NA
258065,"611 HIGHWAY 74 SOUTH SUITE 800","PEACHTREE CITY","GA",30269,NA,NA,65,"611 HIGHWAY 74 SOUTH SUITE 800, PEACHTREE CITY, GA, 30269","No_Match",NA,NA,NA,NA
258066,"611 JEFFERSON AVENUE","ST PETER","MN",56082,44.31820622,-93.970538468,66,"611 JEFFERSON AVENUE, ST PETER, MN, 56082","Match","Exact","611 JEFFERSON AVE, SAINT PETER, MN, 56082",610529738,"R"
258067,"611 JENNETTE PLACE","MEMPHIS","TN",38126,35.1186269670001,-90.041667032,67,"611 JENNETTE PLACE, MEMPHIS, TN, 38126","Match","Exact","611 JENNETTE PL, MEMPHIS, TN, 38126",72907625,"R"
258068,"611 LAKESIDE DRIVE","CONWAY","SC",29526,33.8419816430001,-79.0471007089999,68,"611 LAKESIDE DRIVE, CONWAY, SC, 29526","Match","Exact","611 LAKESIDE DR, CONWAY, SC, 29526",635648287,"L"
258069,"611 LAKEVIEW DRIVE","SABETHA","KS",66534,39.9082459540001,-95.804676106,69,"611 LAKEVIEW DRIVE, SABETHA, KS, 66534","Match","Exact","611 LAKEVIEW DR, SABETHA, KS, 66534",10189703,"L"
258070,"611 LAREDO ST UNIT REAR","LAREDO","TX",78040,27.507476259,-99.4905785989999,70,"611 LAREDO ST UNIT REAR, LAREDO, TX, 78040","Match","Exact","611 LAREDO ST, LAREDO, TX, 78040",21672280,"R"
258071,"611 LE PARC CIRCLE","BUFFALO GROVE","IL",60089,42.153702391,-87.945421774,71,"611 LE PARC CIRCLE, BUFFALO GROVE, IL, 60089","Match","Exact","611 LE PARC CIR, BUFFALO GROVE, IL, 60089",119731692,"R"
258072,"611 LEMON BLUFF RD","OSTEEN","FL",32764,28.8298659640001,-81.144827988,72,"611 LEMON BLUFF RD, OSTEEN, FL, 32764","Match","Exact","611 LEMON BLUFF RD, OSTEEN, FL, 32764",94593172,"R"
258073,"611 LIVE OAK AVENUE","PASCAGOULA","MS",39567,30.369902758,-88.557926015,73,"611 LIVE OAK AVENUE, PASCAGOULA, MS, 39567","Match","Exact","611 LIVE OAK AVE, PASCAGOULA, MS, 39567",89252135,"L"
258074,"611 LIVE OAK STREET","BOWIE","TX",76230,33.5647863030001,-97.850673912,74,"611 LIVE OAK STREET, BOWIE, TX, 76230","Match","Exact","611 LIVE OAK ST, BOWIE, TX, 76230",152115073,"R"
258075,"611 MAIN STREET","ONALASKA","WI",54650,43.884028217,-91.229095453,75,"611 MAIN STREET, ONALASKA, WI, 54650","Match","Exact","611 MAIN ST, ONALASKA, WI, 54650",51010822,"L"
258076,"611 MARY ERNA DRIVE","FAIRBURN","GA",30213,33.5827743730001,-84.6033351409999,76,"611 MARY ERNA DRIVE, FAIRBURN, GA, 30213","Match","Exact","611 MARY ERNA DR, FAIRBURN, GA, 30213",17372349,"R"
258077,"611 MILLRUN CT","MACON","GA",30120,32.917659357,-83.732328404,77,"611 MILLRUN CT, MACON, GA, 30120","Match","Non_Exact","611 MILLRUN CT, MACON, GA, 31210",81079294,"L"
258078,"611 MIMOSA RD","WESTMINSTER","SC",29693,34.662782226,-83.101695537,78,"611 MIMOSA RD, WESTMINSTER, SC, 29693","Match","Exact","611 MIMOSA RD, WESTMINSTER, SC, 29693",636638987,"R"
258079,"611 MULBERRY ST B","ALLENDALE","SC",29810,33.013495977,-81.3081708569999,79,"611 MULBERRY ST B, ALLENDALE, SC, 29810","Match","Exact","611 MULBERRY ST, ALLENDALE, SC, 29810",19045353,"L"
258080,"611 MULBERRY ST","SCOTTDALE","PA",15683,40.1039214040001,-79.590766504,80,"611 MULBERRY ST, SCOTTDALE, PA, 15683","Match","Exact","611 MULBERRY ST, SCOTTDALE, PA, 15683",52957169,"L"
258081,"611 N 27TH STREET SUITE 9","LINCOLN","NE",68503,40.8189933310001,-96.682389244,81,"611 N 27TH STREET SUITE 9, LINCOLN, NE, 68503","Match","Non_Exact","611 N 27TH ST, LINCOLN, NE, 68503",647357148,"L"
258082,"611 N 6TH ST","MARLOW","OK",73055,34.654232124,-97.9621435079999,82,"611 N 6TH ST, MARLOW, OK, 73055","Match","Exact","611 N 6TH ST, MARLOW, OK, 73055",13676912,"L"
258083,"611 N CATALPA","PITTSBURG","KS",66762,37.413231481,-94.713198623,83,"611 N CATALPA, PITTSBURG, KS, 66762","Match","Non_Exact","611 N CATALPA ST, PITTSBURG, KS, 66762",33423223,"L"
258084,"611 N CURRIE DRIVE","SANFORD","NC",27330,35.4753041480001,-79.205657994,84,"611 N CURRIE DRIVE, SANFORD, NC, 27330","Match","Exact","611 N CURRIE DR, SANFORD, NC, 27330",72059348,"L"
258085,"611 N MAIN STREET","LA FERIA","TX",78559,26.1625472310001,-97.8241542979999,85,"611 N MAIN STREET, LA FERIA, TX, 78559","Match","Exact","611 N MAIN ST, LA FERIA, TX, 78559",89952796,"L"
258086,"611 N MONTFORD AVENUE","BALTIMORE","MD",21205,39.297875516,-76.583663426,86,"611 N MONTFORD AVENUE, BALTIMORE, MD, 21205","Match","Exact","611 N MONTFORD AVE, BALTIMORE, MD, 21205",635527503,"R"
258087,"611 N OTTAWA AVENUE","PARK RIDGE","IL",60068,42.0190281800001,-87.8175484659999,87,"611 N OTTAWA AVENUE, PARK RIDGE, IL, 60068","Match","Exact","611 OTTAWA AVE, PARK RIDGE, IL, 60068",111733211,"L"
258088,"611 N PERRY","NAPOLEON","OH",43545,41.392774984,-84.125918632,88,"611 N PERRY, NAPOLEON, OH, 43545","Match","Non_Exact","611 N PERRY ST, NAPOLEON, OH, 43545",33780164,"L"
258089,"611 N SAGINAW","HOLLY","MI",48442,42.7983702000001,-83.6278454819999,89,"611 N SAGINAW, HOLLY, MI, 48442","Match","Non_Exact","611 N SAGINAW ST, HOLLY, MI, 48442",69751156,"L"
258090,"611 N STATE ST","STANTON","MI",48888,43.2974073610001,-85.084806047,90,"611 N STATE ST, STANTON, MI, 48888","Match","Exact","611 N STATE ST, STANTON, MI, 48888",110561684,"L"
258091,"611 N WYMORE ROAD SUITE 203","WINTER PARK","FL",32789,28.6039806000001,-81.385225718,91,"611 N WYMORE ROAD SUITE 203, WINTER PARK, FL, 32789","Match","Non_Exact","611 N WYMORE RD, WINTER PARK, FL, 32789",94409918,"L"
258092,"611 NATIONAL CHURCH HOLLOW","MORGANTOWN","WV",26501,39.6024979160001,-80.036502061,92,"611 NATIONAL CHURCH HOLLOW, MORGANTOWN, WV, 26501","Match","Exact","611 NATIONAL CHURCH HOLLOW, MORGANTOWN, WV, 26501",50740474,"L"
258093,"611 NE 18TH AVE","HILLSBORO","OR",97124,45.5281628110001,-122.963331556,93,"611 NE 18TH AVE, HILLSBORO, OR, 97124","Match","Exact","611 NE 18TH AVE, HILLSBORO, OR, 97124",158179116,"L"
258094,"611 NORTH 31ST STREET","BISMARCK","ND",58501,46.8106093540001,-100.745746221,94,"611 NORTH 31ST STREET, BISMARCK, ND, 58501","Match","Exact","611 N 31ST ST, BISMARCK, ND, 58501",198849971,"R"
258095,"611 NORTH DAIRY ASHFORD SUITE 342","HOUSTON","TX",77079,29.7686567320001,-95.606246905,95,"611 NORTH DAIRY ASHFORD SUITE 342, HOUSTON, TX, 77079","Match","Non_Exact","611 N DAIRY ASHFORD ST, HOUSTON, TX, 77079",96119177,"R"
258096,"611 NORTH FIFTH STREET","NASHVILLE","TN",37207,36.181455348,-86.764081101,96,"611 NORTH FIFTH STREET, NASHVILLE, TN, 37207","Match","Exact","611 N 5TH ST, NASHVILLE, TN, 37207",97220743,"R"
258097,"611 NORTH LAMAR BLVD","OXFORD","MS",38655,34.371345014,-89.517626664,97,"611 NORTH LAMAR BLVD, OXFORD, MS, 38655","Match","Exact","611 N LAMAR BLVD, OXFORD, MS, 38655",76962696,"L"
258098,"611 NORTH SERRANO AVE","LOS ANGELES","CA",90004,34.08198767,-118.30691527,98,"611 NORTH SERRANO AVE, LOS ANGELES, CA, 90004","Match","Exact","611 N SERRANO AVE, LOS ANGELES, CA, 90004",141603319,"L"
258099,"611 NORTH WYMORE ROAD SUITE 100","WINTER PARK","FL",32789,28.603979517,-81.385225797,99,"611 NORTH WYMORE ROAD SUITE 100, WINTER PARK, FL, 32789","Match","Exact","611 N WYMORE RD, WINTER PARK, FL, 32789",94409918,"L"
258100,"611 NORTHGATE DR","HIDEAWAY LAKE","TX",75771,32.503535614,-95.4534545069999,100,"611 NORTHGATE DR, HIDEAWAY LAKE, TX, 75771","Match","Non_Exact","611 NORTHGATE DR, HIDEAWAY, TX, 75771",141261509,"L"
258101,"611 NW 4TH ST","ATKINS","AR",72823,NA,NA,101,"611 NW 4TH ST, ATKINS, AR, 72823","Tie",NA,NA,NA,NA
258102,"611 OAK RD","OCALA","FM",34472,NA,NA,102,"611 OAK RD, OCALA, FM, 34472","No_Match",NA,NA,NA,NA
258103,"611 OHANNESON AVE","SHAFTER","CA",93263,35.5018374270001,-119.290207417,103,"611 OHANNESON AVE, SHAFTER, CA, 93263","Match","Exact","611 OHANNESON AVE, SHAFTER, CA, 93263",109531317,"L"
258104,"611 OWEN BLVD","CHARLOTTE","NC",28213,35.276825667,-80.7590158799999,104,"611 OWEN BLVD, CHARLOTTE, NC, 28213","Match","Exact","611 OWEN BLVD, CHARLOTTE, NC, 28213",70556959,"L"
258105,"611 PENNSYLVANIA AVE SE 496","WASHINGTON","CA",20003,NA,NA,105,"611 PENNSYLVANIA AVE SE 496, WASHINGTON, CA, 20003","No_Match",NA,NA,NA,NA
258106,"611 PENNSYLVANIA AVE SE","WASHINGTON","DC",20003,38.8853455650001,-76.998078076,106,"611 PENNSYLVANIA AVE SE, WASHINGTON, DC, 20003","Match","Exact","611 PENNSYLVANIA AVE SE, WASHINGTON, DC, 20003",641474058,"R"
258107,"611 PENNSYLVANIA AVENUE SE 268","WASHINGTON","DC",20003,38.8853455650001,-76.998078076,107,"611 PENNSYLVANIA AVENUE SE 268, WASHINGTON, DC, 20003","Match","Exact","611 PENNSYLVANIA AVE SE, WASHINGTON, DC, 20003",641474058,"R"
258108,"611 PENNSYLVANIA AVENUE SE 353","WASHINGTON","DC",20003,38.8853455650001,-76.998078076,108,"611 PENNSYLVANIA AVENUE SE 353, WASHINGTON, DC, 20003","Match","Exact","611 PENNSYLVANIA AVE SE, WASHINGTON, DC, 20003",641474058,"R"
258109,"611 RIVIERA DUNES WAY  APT 408","PALMETTO","FL",34221,27.5110552200001,-82.5612977229999,109,"611 RIVIERA DUNES WAY  APT 408, PALMETTO, FL, 34221","Match","Exact","611 RIVIERA DUNES WAY, PALMETTO, FL, 34221",644948651,"R"
258110,"611 ROBERT AVE N","MAPLE LAKE","MN",55358,45.235408449,-94.006286044,110,"611 ROBERT AVE N, MAPLE LAKE, MN, 55358","Match","Exact","611 ROBERT AVE N, MAPLE LAKE, MN, 55358",44009585,"R"
258111,"611 ROBINSON AVENUE","ROARING SPRING","PA",16673,40.3366557950001,-78.394046019,111,"611 ROBINSON AVENUE, ROARING SPRING, PA, 16673","Match","Exact","611 ROBINSON AVE, ROARING SPRING, PA, 16673",49717955,"L"
258112,"611 ROLLING HILLS DR","LIBERTY HILL","TX",78642,30.646216397,-97.9469556,112,"611 ROLLING HILLS DR, LIBERTY HILL, TX, 78642","Match","Exact","611 ROLLING HILLS DR, LIBERTY HILL, TX, 78642",636386024,"R"
258113,"611 ROSEMARY ST","DEARBORN HTS","MI",48127,42.315173341,-83.3037588669999,113,"611 ROSEMARY ST, DEARBORN HTS, MI, 48127","Match","Exact","611 ROSEMARY ST, DEARBORN HEIGHTS, MI, 48127",95429863,"L"
258114,"611 ROUNDSTONE DR","WELDON SPRING","MO",63304,38.7160584010001,-90.6202407709999,114,"611 ROUNDSTONE DR, WELDON SPRING, MO, 63304","Match","Exact","611 ROUNDSTONE DR, WELDON SPRING, MO, 63304",100088899,"R"
258115,"611 S CATALINA STREET - 222","LOS ANGELES","CA",90005,34.063155351,-118.29536738,115,"611 S CATALINA STREET - 222, LOS ANGELES, CA, 90005","Match","Non_Exact","611 S CATALINA ST, LOS ANGELES, CA, 90005",642867163,"R"
258116,"611 S CLARA STREET","APPLETON","WI",54915,44.2566969330001,-88.365083985,116,"611 S CLARA STREET, APPLETON, WI, 54915","Match","Exact","611 S CLARA ST, APPLETON, WI, 54915",74921083,"R"
258117,"611 S FLOOD AVE","NORMAN","OK",73069,35.210825173,-97.452998688,117,"611 S FLOOD AVE, NORMAN, OK, 73069","Match","Exact","611 S FLOOD AVE, NORMAN, OK, 73069",99911207,"L"
258118,"611 S FLOWER STREET","INGLEWOOD","CA",90301,33.9565047620001,-118.346954947,118,"611 S FLOWER STREET, INGLEWOOD, CA, 90301","Match","Exact","611 S FLOWER ST, INGLEWOOD, CA, 90301",141655335,"R"
258119,"611 S FORT HARRISON AVE STE 329","CLEARWATER","FL",33756,27.9593556880001,-82.79993961,119,"611 S FORT HARRISON AVE STE 329, CLEARWATER, FL, 33756","Match","Non_Exact","611 S FT HARRISON AVE, CLEARWATER, FL, 33756",124664483,"L"
258120,"611 S FORT HARRISON AVENUE 247","CLEARWATER","FL",33756,27.9593556880001,-82.79993961,120,"611 S FORT HARRISON AVENUE 247, CLEARWATER, FL, 33756","Match","Non_Exact","611 S FT HARRISON AVE, CLEARWATER, FL, 33756",124664483,"L"
258121,"611 S FT HARRISON AVE SUITE 162","CLEARWATER","FL",33756,27.9593556880001,-82.79993961,121,"611 S FT HARRISON AVE SUITE 162, CLEARWATER, FL, 33756","Match","Non_Exact","611 S FT HARRISON AVE, CLEARWATER, FL, 33756",124664483,"L"
258122,"611 S GASKIN AVE","DOUGLAS","GA",31533,31.5030398920001,-82.845396659,122,"611 S GASKIN AVE, DOUGLAS, GA, 31533","Match","Exact","611 S GASKIN AVE, DOUGLAS, GA, 31533",6927779,"L"
258123,"611 S MAIN STREET","GAINESBORO","TN",38562,36.3506537160001,-85.658443194,123,"611 S MAIN STREET, GAINESBORO, TN, 38562","Match","Exact","611 S MAIN ST, GAINESBORO, TN, 38562",25102400,"L"
258124,"611 S PALM CANYON DR STE 7-223","PALM SPRINGS","CA",92264,NA,NA,124,"611 S PALM CANYON DR STE 7-223, PALM SPRINGS, CA, 92264","Tie",NA,NA,NA,NA
258125,"611 S WELLS ST APT 1807","CHICAGO","IL",60607,41.8741971200001,-87.633612452,125,"611 S WELLS ST APT 1807, CHICAGO, IL, 60607","Match","Non_Exact","611 S WELLS ST, CHICAGO, IL, 60607",111827691,"L"
258126,"611 SE CHURCH STREET","STUART","FL",34994,27.1917465600001,-80.244204646,126,"611 SE CHURCH STREET, STUART, FL, 34994","Match","Exact","611 SE CHURCH ST, STUART, FL, 34994",120401532,"R"
258127,"611 SHEPHERD DRIVE APT 532","HOUSTON","TX",77007,29.7676533280001,-95.4094229,127,"611 SHEPHERD DRIVE APT 532, HOUSTON, TX, 77007","Match","Exact","611 SHEPHERD DR, HOUSTON, TX, 77007",96061756,"L"
258128,"611 SOUTH GARRETT","MARSHALL","TX",75670,32.5387036810001,-94.361446396,128,"611 SOUTH GARRETT, MARSHALL, TX, 75670","Match","Non_Exact","611 S GARRETT ST, MARSHALL, TX, 75670",141185711,"L"
258129,"611 SOUTH IVY STREET","ARLINGTON","VA",22204,38.8658854980001,-77.092357447,129,"611 SOUTH IVY STREET, ARLINGTON, VA, 22204","Match","Exact","611 S IVY ST, ARLINGTON, VA, 22204",76470544,"L"
258130,"611 SPRING VALLEY RD","ALTAMONTE SPRINGS","FL",32714,28.654220464,-81.40171313,130,"611 SPRING VALLEY RD, ALTAMONTE SPRINGS, FL, 32714","Match","Exact","611 SPRING VALLEY RD, ALTAMONTE SPRINGS, FL, 32714",93742132,"L"
258131,"611 STONEBRANCH DR","LOGANVILLE","GA",30052,33.868221367,-83.945778402,131,"611 STONEBRANCH DR, LOGANVILLE, GA, 30052","Match","Exact","611 STONEBRANCH DR, LOGANVILLE, GA, 30052",646946724,"R"
258132,"611 SUMMER ST","WALPOLE","MA",2188,42.1913868820001,-70.970473738,132,"611 SUMMER ST, WALPOLE, MA, 2188","Match","Non_Exact","611 SUMMER ST, WEYMOUTH, MA, 02188",646602928,"R"
258133,"611 SUNDERLAND AVE","CHESTER SPRINGS","PA",19425,40.0863789650001,-75.682132853,133,"611 SUNDERLAND AVE, CHESTER SPRINGS, PA, 19425","Match","Non_Exact","611 SUNDERLAND, CHESTER SPRINGS, PA, 19425",617729663,"L"
258134,"611 SW 19TH","SEMINOLE","TX",79360,NA,NA,134,"611 SW 19TH, SEMINOLE, TX, 79360","No_Match",NA,NA,NA,NA
258135,"611 SW 3RD ST","LEE'S SUMMIT","MO",64048,NA,NA,135,"611 SW 3RD ST, LEE'S SUMMIT, MO, 64048","No_Match",NA,NA,NA,NA
258136,"611 SW DEXTER CIRCLE","LAKE CITY","FL",32025,30.1808072320001,-82.651995352,136,"611 SW DEXTER CIRCLE, LAKE CITY, FL, 32025","Match","Exact","611 SW DEXTER CIR, LAKE CITY, FL, 32025",629902457,"R"
258137,"611 SWAN LAKE RD","HYDRO","OK",73048,NA,NA,137,"611 SWAN LAKE RD, HYDRO, OK, 73048","No_Match",NA,NA,NA,NA
258138,"611 TALMADGE COURT","LEESBURG","VA",20174,39.085381898,-77.5492982329999,138,"611 TALMADGE COURT, LEESBURG, VA, 20174","Match","Non_Exact","611 TALMADGE CT, LEESBURG, VA, 20175",62339609,"R"
258139,"611 TEN EYCK AVE","LYNDHURST","NJ",7071,40.800510096,-74.1233228529999,139,"611 TEN EYCK AVE, LYNDHURST, NJ, 7071","Match","Non_Exact","611 TENEYCK AVE, LYNDHURST, NJ, 07071",64395891,"L"
258140,"611 VILLAGE SPRINGS DR SE","ADA","MI",49301,42.951240812,-85.549774245,140,"611 VILLAGE SPRINGS DR SE, ADA, MI, 49301","Match","Non_Exact","611 VILLAGE SPRINGS DR, ADA, MI, 49301",616675761,"L"
258141,"611 W 231ST ST","CARSON","CA",90745,33.8167761510001,-118.285807763,141,"611 W 231ST ST, CARSON, CA, 90745","Match","Non_Exact","611 W 231ST ST, CARSON, CA, 90745",142690736,"R"
258142,"611 W 8TH ST","OSHKOSH","WI",54902,44.0110535050001,-88.553044302,142,"611 W 8TH ST, OSHKOSH, WI, 54902","Match","Non_Exact","611 W 8TH AVE, OSHKOSH, WI, 54902",74489889,"L"
258143,"611 W 9TH STREET","ANTIOCH","CA",94509,38.011892833,-121.813982031,143,"611 W 9TH STREET, ANTIOCH, CA, 94509","Match","Exact","611 W 9TH ST, ANTIOCH, CA, 94509",192032350,"L"
258144,"611 W CALLENDAR ST","LIVINGSTON","MT",59047,45.657935873,-110.566380638,144,"611 W CALLENDAR ST, LIVINGSTON, MT, 59047","Match","Non_Exact","611 W CALLENDER ST, LIVINGSTON, MT, 59047",610910660,"R"
258145,"611 W CEDAR STREET","KALAMAZOO","MI",49007,42.2874738310001,-85.5912186469999,145,"611 W CEDAR STREET, KALAMAZOO, MI, 49007","Match","Exact","611 W CEDAR ST, KALAMAZOO, MI, 49007",12228908,"L"
258146,"611 W MAIN ST","BLANCHESTER","OH",45107,39.2907838260001,-83.995848861,146,"611 W MAIN ST, BLANCHESTER, OH, 45107","Match","Exact","611 W MAIN ST, BLANCHESTER, OH, 45107",146842714,"R"
258147,"611 W STRATFORD DR","PEORIA","IL",61614,40.7333752210001,-89.602076214,147,"611 W STRATFORD DR, PEORIA, IL, 61614","Match","Exact","611 W STRATFORD DR, PEORIA, IL, 61614",8715263,"R"
258148,"611 W TURKEYFOOT LAKE RD STE C","AKRON","OH",44319,NA,NA,148,"611 W TURKEYFOOT LAKE RD STE C, AKRON, OH, 44319","Tie",NA,NA,NA,NA
258149,"611 W WORLEY","COLUMBIA","MO",65203,NA,NA,149,"611 W WORLEY, COLUMBIA, MO, 65203","No_Match",NA,NA,NA,NA
258150,"611 WALLER STREET","SAN FRANCISCO","CA",94117,37.7707215290001,-122.433785445,150,"611 WALLER STREET, SAN FRANCISCO, CA, 94117","Match","Exact","611 WALLER ST, SAN FRANCISCO, CA, 94117",192283584,"L"
258151,"611 WARREN ROAD APT C","CODY","WY",82414,44.531683172,-109.037038898,151,"611 WARREN ROAD APT C, CODY, WY, 82414","Match","Exact","611 WARREN RD, CODY, WY, 82414",149205039,"L"
258152,"611 WESLEY AVE","FERGUSON","MO",63135,38.7427187420001,-90.3131069299999,152,"611 WESLEY AVE, FERGUSON, MO, 63135","Match","Exact","611 WESLEY AVE, FERGUSON, MO, 63135",100145916,"R"
258153,"611 WEST 148TH STREET SUITE 47","NEW YORK","NY",10031,40.8284480300001,-73.949257256,153,"611 WEST 148TH STREET SUITE 47, NEW YORK, NY, 10031","Match","Exact","611 W 148TH ST, NEW YORK, NY, 10031",59655900,"R"
258154,"611 WEST 14TH STREET","AUSTIN","TX",78701,30.2776161510001,-97.7456829229999,154,"611 WEST 14TH STREET, AUSTIN, TX, 78701","Match","Exact","611 W 14TH ST, AUSTIN, TX, 78701",63943256,"L"
258155,"611 WEST 9TH STREET","SAN PEDRO","CA",90731,33.7360404880001,-118.290497409,155,"611 WEST 9TH STREET, SAN PEDRO, CA, 90731","Match","Exact","611 W 9TH ST, SAN PEDRO, CA, 90731",141690569,"L"
258156,"611 WEST HWY 212","MONTEVIDEO","MN",56265,NA,NA,156,"611 WEST HWY 212, MONTEVIDEO, MN, 56265","No_Match",NA,NA,NA,NA
258157,"611 WEST MAIN STREET","KENT","OH",44240,41.153814003,-81.3676353979999,157,"611 WEST MAIN STREET, KENT, OH, 44240","Match","Exact","611 W MAIN ST, KENT, OH, 44240",625354260,"R"
258158,"611 WEST MARKET","SILVER CITY","NM",88061,32.771490746,-108.280186719,158,"611 WEST MARKET, SILVER CITY, NM, 88061","Match","Non_Exact","611 W MARKET ST, SILVER CITY, NM, 88061",192654418,"L"
258159,"611 WEST PORTER LANE","WEST BOUNTIFUL","UT",84087,40.91321033,-111.896285813,159,"611 WEST PORTER LANE, WEST BOUNTIFUL, UT, 84087","Match","Exact","611 W PORTER LN, W BOUNTIFUL, UT, 84087",630029289,"R"
258160,"611 WILLIAM PENN PLACE SUITE 800","PITTSBURGH","PA",15219,40.441220957,-79.996692058,160,"611 WILLIAM PENN PLACE SUITE 800, PITTSBURGH, PA, 15219","Match","Exact","611 WILLIAM PENN PL, PITTSBURGH, PA, 15219",51635012,"L"
258161,"611 WILLOW OAKS BLVD","HAMPTON","VA",23669,37.068478043,-76.329050539,161,"611 WILLOW OAKS BLVD, HAMPTON, VA, 23669","Match","Exact","611 WILLOW OAKS BLVD, HAMPTON, VA, 23669",103772385,"L"
258162,"611 WOODBOURNE AVENUE","BALTIMORE","MD",21212,39.3552170450001,-76.607145664,162,"611 WOODBOURNE AVENUE, BALTIMORE, MD, 21212","Match","Exact","611 WOODBOURNE AVE, BALTIMORE, MD, 21212",206465267,"R"
258163,"611 WOODSIDE SIERRA UNIT 5","SACRAMENTO","CA",95825,38.578648877,-121.40783624,163,"611 WOODSIDE SIERRA UNIT 5, SACRAMENTO, CA, 95825","Match","Exact","611 WOODSIDE SIERRA, SACRAMENTO, CA, 95825",133422398,"L"
258164,"611 YACAVONA ST","KENT","OH",44240,41.142331706,-81.384678121,164,"611 YACAVONA ST, KENT, OH, 44240","Match","Exact","611 YACAVONA ST, KENT, OH, 44240",137515539,"R"
258165,"611-19TH STREET","BIRMINGHAM","AL",35218,NA,NA,165,"611-19TH STREET, BIRMINGHAM, AL, 35218","No_Match",NA,NA,NA,NA
258166,"611-56TH STREET","WEST NEW YORK","NJ",7093,NA,NA,166,"611-56TH STREET, WEST NEW YORK, NJ, 7093","No_Match",NA,NA,NA,NA
258167,"611-A LORNA SQUARE","BIRMINGHAM","AL",35216,33.3966423050001,-86.803015506,167,"611-A LORNA SQUARE, BIRMINGHAM, AL, 35216","Match","Exact","611 LORNA SQ, BIRMINGHAM, AL, 35216",81651725,"R"
258168,"611","CMCH","NJ",8210,NA,NA,168,"611, CMCH, NJ, 8210","No_Match",NA,NA,NA,NA
258169,"611","PRATTVILLE","AL",36067,NA,NA,169,"611, PRATTVILLE, AL, 36067","No_Match",NA,NA,NA,NA
258170,"6110 183RD STREET","FRESH MEADOWS","NY",11365,NA,NA,170,"6110 183RD STREET, FRESH MEADOWS, NY, 11365","No_Match",NA,NA,NA,NA
258171,"6110 33RD AVE","SHELLSBURG","IA",52332,42.1375752760001,-91.84873896,171,"6110 33RD AVE, SHELLSBURG, IA, 52332","Match","Non_Exact","6110 33RD AVENUE DR, SHELLSBURG, IA, 52332",94726285,"R"
258172,"6110 AMHERST PL","MATTESON","IL",60443,41.50698191,-87.764227697,172,"6110 AMHERST PL, MATTESON, IL, 60443","Match","Exact","6110 AMHERST PL, MATTESON, IL, 60443",612840196,"L"
258173,"6110 BLVD OF CHAMPIONS SUITE B","NORTH LAUDERDALE","FL",33068,NA,NA,173,"6110 BLVD OF CHAMPIONS SUITE B, NORTH LAUDERDALE, FL, 33068","No_Match",NA,NA,NA,NA
258174,"6110 CAYCE LANE","COLUMBIA","TN",38401,35.6013219210001,-87.094527885,174,"6110 CAYCE LANE, COLUMBIA, TN, 38401","Match","Exact","6110 CAYCE LN, COLUMBIA, TN, 38401",26899281,"R"
258175,"6110 CEDAR AVENUE","PHILADELPHIA","PA",19143,39.952713714,-75.2450464779999,175,"6110 CEDAR AVENUE, PHILADELPHIA, PA, 19143","Match","Exact","6110 CEDAR AVE, PHILADELPHIA, PA, 19143",131397656,"L"
258176,"6110 COUNTY RD 25","CARDINGTON","OH",43315,40.4584327480001,-82.722003937,176,"6110 COUNTY RD 25, CARDINGTON, OH, 43315","Match","Exact","6110 CO RD 25, CARDINGTON, OH, 43315",12753192,"L"
258177,"6110 DELANCEY STREET","PHILADELPHIA","PA",19143,39.9562961030001,-75.244300825,177,"6110 DELANCEY STREET, PHILADELPHIA, PA, 19143","Match","Exact","6110 DELANCEY ST, PHILADELPHIA, PA, 19143",131397620,"L"
258178,"6110 E MASTERS DR APT 123","FORT WORTH","TX",76137,32.8567623770001,-97.2907387719999,178,"6110 E MASTERS DR APT 123, FORT WORTH, TX, 76137","Match","Non_Exact","6110 MASTERS DR E, FORT WORTH, TX, 76137",102168209,"R"
258179,"6110 EAST 30TH STREET","TUCSON","AZ",85711,32.198852964,-110.861816311,179,"6110 EAST 30TH STREET, TUCSON, AZ, 85711","Match","Exact","6110 E 30TH ST, TUCSON, AZ, 85711",121181636,"R"
258180,"6110 FAIRDALE LN APT 201","HOUSTON","TX",77057,29.733014138,-95.4878259119999,180,"6110 FAIRDALE LN APT 201, HOUSTON, TX, 77057","Match","Exact","6110 FAIRDALE LN, HOUSTON, TX, 77057",96620376,"R"
258181,"6110 FIR AVENUE","CLEVELAND","OH",44102,41.479807921,-81.728528318,181,"6110 FIR AVENUE, CLEVELAND, OH, 44102","Match","Exact","6110 FIR AVE, CLEVELAND, OH, 44102",61101349,"R"
258182,"6110 HALLET STREET","SHAWNEE","KS",66216,39.0169450240001,-94.749927058,182,"6110 HALLET STREET, SHAWNEE, KS, 66216","Match","Exact","6110 HALLET ST, SHAWNEE, KS, 66216",91298384,"L"
258183,"6110 HARPERS XING","LANGHORNE","PA",19047,NA,NA,183,"6110 HARPERS XING, LANGHORNE, PA, 19047","No_Match",NA,NA,NA,NA
258184,"6110 HOMEWOOD AVE","ROWLETT","TX",75089,32.9188680030001,-96.580310356,184,"6110 HOMEWOOD AVE, ROWLETT, TX, 75089","Match","Exact","6110 HOMEWOOD AVE, ROWLETT, TX, 75089",103167096,"R"
258185,"6110 LOVAGE","CROSBY","TX",77532,29.9153944660001,-95.067706228,185,"6110 LOVAGE, CROSBY, TX, 77532","Match","Non_Exact","6110 LOVAGE AVE, CROSBY, TX, 77532",645845339,"L"
258186,"6110 MCGILLICUTTY LANE","PORTAGE","MI",49024,42.228837604,-85.6342510269999,186,"6110 MCGILLICUTTY LANE, PORTAGE, MI, 49024","Match","Non_Exact","6110 MCGILLICUDDY LN, PORTAGE, MI, 49024",617448599,"L"
258187,"6110 MONROE HIGHWAY","BALL","LA",71405,31.4109224420001,-92.412211627,187,"6110 MONROE HIGHWAY, BALL, LA, 71405","Match","Exact","6110 MONROE HWY, BALL, LA, 71405",11808163,"R"
258188,"6110 MUSIC STREET","NEW ORLEANS","LA",70122,30.0214254420001,-90.055180757,188,"6110 MUSIC STREET, NEW ORLEANS, LA, 70122","Match","Exact","6110 MUSIC ST, NEW ORLEANS, LA, 70122",191751609,"L"
258189,"6110 N WOODLAND AVE","GLADSTONE","MO",64118,39.2057296040001,-94.559466137,189,"6110 N WOODLAND AVE, GLADSTONE, MO, 64118","Match","Exact","6110 N WOODLAND AVE, GLADSTONE, MO, 64118",89757416,"L"
258190,"6110 OAKRIDGE DR","LINCOLN","NE",68516,40.7668962990001,-96.637155018,190,"6110 OAKRIDGE DR, LINCOLN, NE, 68516","Match","Exact","6110 OAKRIDGE DR, LINCOLN, NE, 68516",28261474,"L"
258191,"6110 PINE CREEK CROSSING","GRAND BLANC","MI",48439,42.9415526120001,-83.596058165,191,"6110 PINE CREEK CROSSING, GRAND BLANC, MI, 48439","Match","Exact","6110 PINE CREEK CROSSING, GRAND BLANC, MI, 48439",69615286,"L"
258192,"6110 RICHFIELD RD","FLINT","MI",48506,43.0572481950001,-83.5900142579999,192,"6110 RICHFIELD RD, FLINT, MI, 48506","Match","Exact","6110 RICHFIELD RD, FLINT, MI, 48506",69603165,"R"
258193,"6110 S 46TH ST","LINCOLN","NE",68516,40.7508774,-96.6561973669999,193,"6110 S 46TH ST, LINCOLN, NE, 68516","Match","Exact","6110 S 46TH ST, LINCOLN, NE, 68516",28271006,"R"
258194,"6110 STAG LEAP LN","MECHANICSBURG","PA",17025,40.2975956000001,-76.994417103,194,"6110 STAG LEAP LN, MECHANICSBURG, PA, 17025","Match","Non_Exact","6110 STAG LEAP LN, EAST PENNSBORO, PA, 17025",632400380,"R"
258195,"6110 SW 93 CT","MIAMI","FL",33173,25.7116914120001,-80.3450705449999,195,"6110 SW 93 CT, MIAMI, FL, 33173","Match","Exact","6110 SW 93RD CT, MIAMI, FL, 33173",115973722,"R"
258196,"6110 VERANDA WAY","DALLAS","TX",75241,32.6679055070001,-96.769171419,196,"6110 VERANDA WAY, DALLAS, TX, 75241","Match","Exact","6110 VERANDA WAY, DALLAS, TX, 75241",636106587,"R"
258197,"6110 WENZEL ROAD","ALTON","IL",62002,38.958043102,-90.1566705499999,197,"6110 WENZEL ROAD, ALTON, IL, 62002","Match","Exact","6110 WENZEL RD, ALTON, IL, 62002",617018763,"L"
258198,"6110 WEST PLEASANT RIDGE ROAD","ARLINGTON","TX",76016,32.681244873,-97.203308385,198,"6110 WEST PLEASANT RIDGE ROAD, ARLINGTON, TX, 76016","Match","Exact","6110 W PLEASANT RIDGE RD, ARLINGTON, TX, 76016",101947181,"L"
258199,"61107 CABIN LANE","BEND","OR",97702,44.019752974,-121.271696049,199,"61107 CABIN LANE, BEND, OR, 97702","Match","Exact","61107 CABIN LN, BEND, OR, 97702",152582408,"R"
258200,"6111 82ND STREET","LUBBOCK","TX",79424,33.519696858,-101.946631842,200,"6111 82ND STREET, LUBBOCK, TX, 79424","Match","Exact","6111 82ND ST, LUBBOCK, TX, 79424",185273058,"L"
258201,"6111 APPLE VALLEY LN","HOUSTON","TX",77069,29.977728934,-95.523125909,201,"6111 APPLE VALLEY LN, HOUSTON, TX, 77069","Match","Exact","6111 APPLE VALLEY LN, HOUSTON, TX, 77069",96009660,"L"
258202,"6111 CAMERON COVE LANE","KATY","TX",77450,29.708938158,-95.7582221439999,202,"6111 CAMERON COVE LANE, KATY, TX, 77450","Match","Exact","6111 CAMERON COVE LN, KATY, TX, 77450",628032832,"R"
258203,"6111 CHANEY DRIVE","TOLEDO","OH",43615,41.670567969,-83.687983484,203,"6111 CHANEY DRIVE, TOLEDO, OH, 43615","Match","Exact","6111 CHANEY DR, TOLEDO, OH, 43615",33928981,"R"
258204,"6111 ENTIAT CT","PASCO","WA",99301,46.283318926,-119.193686535,204,"6111 ENTIAT CT, PASCO, WA, 99301","Match","Exact","6111 ENTIAT CT, PASCO, WA, 99301",627333506,"L"
258205,"6111 GLADWELL DRIVE","HOUSTON","TX",77072,29.7139044850001,-95.568158077,205,"6111 GLADWELL DRIVE, HOUSTON, TX, 77072","Match","Non_Exact","6111 GLADEWELL DR, HOUSTON, TX, 77072",96119895,"R"
258206,"6111 HARRISON STREET","MERRILLVILLE","IN",46410,41.5072457140001,-87.3457364079999,206,"6111 HARRISON STREET, MERRILLVILLE, IN, 46410","Match","Exact","6111 HARRISON ST, MERRILLVILLE, IN, 46410",98434834,"L"
258207,"6111 HEISLEY ROAD","MENTOR","OH",44060,41.7051552300001,-81.306425271,207,"6111 HEISLEY ROAD, MENTOR, OH, 44060","Match","Exact","6111 HEISLEY RD, MENTOR, OH, 44060",137462633,"L"
258208,"6111 MULHOLLAND HWY","LOS ANGELES","CA",90068,34.130745243,-118.320909529,208,"6111 MULHOLLAND HWY, LOS ANGELES, CA, 90068","Match","Exact","6111 MULHOLLAND HWY, LOS ANGELES, CA, 90068",141789855,"R"
258209,"6111 N CENTRAL AVENUE 3RD FLOOR","TAMPA","FL",33604,28.0026095740001,-82.455368987,209,"6111 N CENTRAL AVENUE 3RD FLOOR, TAMPA, FL, 33604","Match","Non_Exact","6111 N CENTRAL AVE, TAMPA, FL, 33604",104521991,"R"
258210,"6111 N DUNKIRK CT","AURORA","CO",80019,39.807914484,-104.761785189,210,"6111 N DUNKIRK CT, AURORA, CO, 80019","Match","Exact","6111 DUNKIRK CT, AURORA, CO, 80019",177467938,"R"
258211,"6111 ROLLING HILLS BLVD","LINCOLN","NE",68512,40.751119401,-96.692678848,211,"6111 ROLLING HILLS BLVD, LINCOLN, NE, 68512","Match","Exact","6111 ROLLING HILLS BLVD, LINCOLN, NE, 68512",28283206,"R"
258212,"6111 S GRAMERCY PL","LOS ANGELES","CA",90047,33.984195889,-118.313432384,212,"6111 S GRAMERCY PL, LOS ANGELES, CA, 90047","Match","Non_Exact","6111 S GRAMERCY PL, LOS ANGELES, CA, 90047",141657974,"R"
258213,"6111 SANDY BANK TERRACE","RIVIERA BEACH","FL",33407,26.775753751,-80.112140881,213,"6111 SANDY BANK TERRACE, RIVIERA BEACH, FL, 33407","Match","Exact","6111 SANDY BANK TER, RIVIERA BEACH, FL, 33407",624760900,"L"
258214,"6111 SEWARD ROAD","PFAFFTOWN","NC",27040,36.1730418120001,-80.4095517819999,214,"6111 SEWARD ROAD, PFAFFTOWN, NC, 27040","Match","Exact","6111 SEWARD RD, PFAFFTOWN, NC, 27040",635548228,"R"
258215,"6111 SHORE ACRES DR","BRADENTON","FL",34209,27.506301781,-82.622629133,215,"6111 SHORE ACRES DR, BRADENTON, FL, 34209","Match","Exact","6111 SHORE ACRES DR, BRADENTON, FL, 34209",16242460,"L"
258216,"6111 SUZANNE CIRCLE","DAYTON","OH",45459,39.6628973740001,-84.210099043,216,"6111 SUZANNE CIRCLE, DAYTON, OH, 45459","Match","Exact","6111 SUZANNE CIR, DAYTON, OH, 45459",143592047,"R"
258217,"6111 SW 159TH COURT","MIAMI","FL",33193,25.7081759590001,-80.451336009,217,"6111 SW 159TH COURT, MIAMI, FL, 33193","Match","Non_Exact","6111 SW 159TH CT, MIAMI, FL, 33193",642168746,"L"
258218,"6111 TEZEL RD STE 105","SAN ANTONIO","TX",78250,29.4903663710001,-98.6654573329999,218,"6111 TEZEL RD STE 105, SAN ANTONIO, TX, 78250","Match","Exact","6111 TEZEL RD, SAN ANTONIO, TX, 78250",101488908,"L"
258219,"6111 WILLOBEND BLVD STE 616","HOUSTON","TX",77096,NA,NA,219,"6111 WILLOBEND BLVD STE 616, HOUSTON, TX, 77096","No_Match",NA,NA,NA,NA
258220,"6112 7TH AVENUE","BROOKLYN","NY",11220,40.636146807,-74.0124750809999,220,"6112 7TH AVENUE, BROOKLYN, NY, 11220","Match","Exact","6112 7TH AVE, BROOKLYN, NY, 11220",59094612,"R"
258221,"6112 ASHTON CT","FORT COLLINS","CO",80525,40.501893975,-105.060132407,221,"6112 ASHTON CT, FORT COLLINS, CO, 80525","Match","Exact","6112 ASHTON CT, FORT COLLINS, CO, 80525",188538265,"L"
258222,"6112 AVENUE K LIPSCOMB","LIPSCOMB","AL",35020,33.4283816720001,-86.919793609,222,"6112 AVENUE K LIPSCOMB, LIPSCOMB, AL, 35020","Match","Non_Exact","6112 AVE K, BESSEMER, AL, 35020",81558331,"L"
258223,"6112 BEREWICK COMMON PARKWAY","CHARLOTTE","NC",28278,35.157888621,-80.980307422,223,"6112 BEREWICK COMMON PARKWAY, CHARLOTTE, NC, 28278","Match","Non_Exact","6112 BEREWICK COMMONS PKWY, CHARLOTTE, NC, 28278",612427855,"L"
258224,"6112 CALEIGH DRIVE","CHARLESTOWN","IN",47111,38.390316425,-85.7167846409999,224,"6112 CALEIGH DRIVE, CHARLESTOWN, IN, 47111","Match","Exact","6112 CALEIGH DR, CHARLESTOWN, IN, 47111",628102504,"R"
258225,"6112 CYPRESS RANCH BLVD","SPICEWOOD","TX",78669,30.34978857,-98.083135017,225,"6112 CYPRESS RANCH BLVD, SPICEWOOD, TX, 78669","Match","Exact","6112 CYPRESS RANCH BLVD, SPICEWOOD, TX, 78669",641734286,"R"
258226,"6112 ENSLEY DRIVE","FLOURTOWN","PA",19031,40.1043032490001,-75.222696324,226,"6112 ENSLEY DRIVE, FLOURTOWN, PA, 19031","Match","Exact","6112 ENSLEY DR, FLOURTOWN, PA, 19031",135105974,"L"
258227,"6112 GEORGE BAYLOR DR","CENTREVILLE","VA",20121,38.8296288540001,-77.430997334,227,"6112 GEORGE BAYLOR DR, CENTREVILLE, VA, 20121","Match","Exact","6112 GEORGE BAYLOR DR, CENTREVILLE, VA, 20121",641077949,"L"
258228,"6112 GROOMS ROAD","LAS CRUCES","NM",88011,32.38622493,-106.697906779,228,"6112 GROOMS ROAD, LAS CRUCES, NM, 88011","Match","Exact","6112 GROOMS RD, LAS CRUCES, NM, 88011",636598913,"L"
258229,"6112 HIGH MEADOWS DR","KRUM","TX",76249,33.2939871720001,-97.2278426089999,229,"6112 HIGH MEADOWS DR, KRUM, TX, 76249","Match","Exact","6112 HIGH MEADOWS DR, KRUM, TX, 76249",627923380,"L"
258230,"6112 JOAQUIN MURIETA AVE UNIT C","NEWARK","CA",94560,37.519601847,-121.997567323,230,"6112 JOAQUIN MURIETA AVE UNIT C, NEWARK, CA, 94560","Match","Exact","6112 JOAQUIN MURIETA AVE, NEWARK, CA, 94560",606316875,"L"
258231,"6112 KINGBIRD MANOR DR","LITHIA","FL",33547,27.8573036170001,-82.183125309,231,"6112 KINGBIRD MANOR DR, LITHIA, FL, 33547","Match","Exact","6112 KINGBIRD MANOR DR, LITHIA, FL, 33547",104642239,"L"
258232,"6112 LEVI ROAD","HIXSON","TN",37343,35.176679972,-85.270708117,232,"6112 LEVI ROAD, HIXSON, TN, 37343","Match","Exact","6112 LEVI RD, HIXSON, TN, 37343",605425213,"L"
258233,"6112 MCCART AVE STE 202","FORT WORTH","TX",76133,32.656697417,-97.3605007,233,"6112 MCCART AVE STE 202, FORT WORTH, TX, 76133","Match","Exact","6112 MCCART AVE, FORT WORTH, TX, 76133",101893824,"R"
258234,"6112 MEADOW AVE","BALTIMORE","MD",21207,39.3139566940001,-76.726407025,234,"6112 MEADOW AVE, BALTIMORE, MD, 21207","Match","Exact","6112 MEADOW AVE, BALTIMORE, MD, 21207",191511181,"R"
258235,"6112 PANORAMA DRIVE","BAKERSFIELD","CA",93306,35.4028602400001,-118.925385393,235,"6112 PANORAMA DRIVE, BAKERSFIELD, CA, 93306","Match","Exact","6112 PANORAMA DR, BAKERSFIELD, CA, 93306",109097380,"L"
258236,"6112 RHYTHM BLVD","ORLANDO","FL",32808,28.6013222500001,-81.464202345,236,"6112 RHYTHM BLVD, ORLANDO, FL, 32808","Match","Exact","6112 RHYTHM BLVD, ORLANDO, FL, 32808",94268609,"L"
258237,"6112 SILVER STAR RD","ORLANDO","FL",32808,NA,NA,237,"6112 SILVER STAR RD, ORLANDO, FL, 32808","No_Match",NA,NA,NA,NA
258238,"6112 TOWN WALK DR","HAMDEN","CT",6518,41.3907336730001,-72.9147226599999,238,"6112 TOWN WALK DR, HAMDEN, CT, 6518","Match","Exact","6112 TOWN WALK DR, HAMDEN, CT, 06518",646810863,"L"
258239,"6112 W 26TH ST","CICERO","IL",60804,NA,NA,239,"6112 W 26TH ST, CICERO, IL, 60804","Tie",NA,NA,NA,NA
258240,"6113  TALAVERA COURT","ALEXANDRIA","VA",22310,38.785798232,-77.134139493,240,"6113  TALAVERA COURT, ALEXANDRIA, VA, 22310","Match","Exact","6113 TALAVERA CT, ALEXANDRIA, VA, 22310",76005579,"L"
258241,"6113 55TH AVENUE CIRCLE EAST","BRADENTON","FL",34203,27.4437284910001,-82.482998755,241,"6113 55TH AVENUE CIRCLE EAST, BRADENTON, FL, 34203","Match","Exact","6113 55TH AVENUE CIR E, BRADENTON, FL, 34203",16254075,"L"
258242,"6113 AMBER BLUFFS CRESCENT","RALEIGH","NC",27616,NA,NA,242,"6113 AMBER BLUFFS CRESCENT, RALEIGH, NC, 27616","No_Match",NA,NA,NA,NA
258243,"6113 APPLELEAF LANE","SELLERSBURG","IN",47172,38.3539440810001,-85.746229343,243,"6113 APPLELEAF LANE, SELLERSBURG, IN, 47172","Match","Non_Exact","6113 APPLE LEAF LN, SELLERSBURG, IN, 47172",64907222,"L"
258244,"6113 BIRKDALE DR","PLANO","TX",75093,33.049677004,-96.833592713,244,"6113 BIRKDALE DR, PLANO, TX, 75093","Match","Exact","6113 BIRKDALE DR, PLANO, TX, 75093",123531434,"L"
258245,"6113 CANE SPRINGS RD","ANTIOCH","TN",37013,36.023763838,-86.63983129,245,"6113 CANE SPRINGS RD, ANTIOCH, TN, 37013","Match","Exact","6113 CANE SPRINGS RD, ANTIOCH, TN, 37013",641651874,"L"
258246,"6113 EVERS BLVD","CHEYENNE","WY",82009,41.177701637,-104.840182628,246,"6113 EVERS BLVD, CHEYENNE, WY, 82009","Match","Non_Exact","6113 EVERS AVE, CHEYENNE, WY, 82009",160178869,"R"
258247,"6113 FRANCE AVE S","EDINA","MN",55410,44.8922377980001,-93.328990642,247,"6113 FRANCE AVE S, EDINA, MN, 55410","Match","Exact","6113 FRANCE AVE S, EDINA, MN, 55410",43629341,"L"
258248,"6113 MARQUETTE ROAD","BALTIMORE","MD",21206,39.3293136020001,-76.52648447,248,"6113 MARQUETTE ROAD, BALTIMORE, MD, 21206","Match","Exact","6113 MARQUETTE RD, BALTIMORE, MD, 21206",191478076,"R"
258249,"6113 OTIS STREET","HYATTSVILLE","MD",20785,38.9349683250001,-76.913973933,249,"6113 OTIS STREET, HYATTSVILLE, MD, 20785","Match","Exact","6113 OTIS ST, HYATTSVILLE, MD, 20785",76307644,"R"
258250,"6113 SALLEY ROAD","NORTH","SC",29112,33.6024615110001,-81.159729801,250,"6113 SALLEY ROAD, NORTH, SC, 29112","Match","Exact","6113 SALLEY RD, NORTH, SC, 29112",605536280,"R"
258251,"6113 SARATOGA BLVD STE F105","CORPUS CHRISTI","TX",78414,NA,NA,251,"6113 SARATOGA BLVD STE F105, CORPUS CHRISTI, TX, 78414","No_Match",NA,NA,NA,NA
258252,"6114 57TH AVE NE","SEATTLE","WA",98115,47.6729421250001,-122.266173783,252,"6114 57TH AVE NE, SEATTLE, WA, 98115","Match","Exact","6114 57TH AVE NE, SEATTLE, WA, 98115",186601995,"R"
258253,"6114 77TH ST","LUBBOCK","TX",79424,33.5233337610001,-101.949892271,253,"6114 77TH ST, LUBBOCK, TX, 79424","Match","Exact","6114 77TH ST, LUBBOCK, TX, 79424",650042909,"L"
258254,"6114 BROADMEADOW","SAN ANTONIO","TX",78240,29.5099830510001,-98.602711786,254,"6114 BROADMEADOW, SAN ANTONIO, TX, 78240","Match","Exact","6114 BROADMEADOW, SAN ANTONIO, TX, 78240",101564977,"R"
258255,"6114 FISHBURG RD","HUBER HEIGHTS","OH",45424,39.8392879640001,-84.108781425,255,"6114 FISHBURG RD, HUBER HEIGHTS, OH, 45424","Match","Exact","6114 FISHBURG RD, HUBER HEIGHTS, OH, 45424",647940572,"R"
258256,"6114 HALLTOWN ROAD","GLOUCESTER","VA",23061,37.373626745,-76.544282596,256,"6114 HALLTOWN ROAD, GLOUCESTER, VA, 23061","Match","Non_Exact","6114 HALL TOWN RD, GLOUCESTER, VA, 23061",168203500,"L"
258257,"6114 JANAE ST","AMARILLO","TX",79118,35.1469888760001,-101.852757752,257,"6114 JANAE ST, AMARILLO, TX, 79118","Match","Exact","6114 JANAE ST, AMARILLO, TX, 79118",600387785,"R"
258258,"6114 KATIE","SAN ANGELO","TX",76904,31.403262607,-100.50475108,258,"6114 KATIE, SAN ANGELO, TX, 76904","Match","Non_Exact","6114 KATIE LN, SAN ANGELO, TX, 76904",645300788,"L"
258259,"6114 LA SALLE AVE STE 835","OAKLAND","CA",94611,37.826347148,-122.210336033,259,"6114 LA SALLE AVE STE 835, OAKLAND, CA, 94611","Match","Non_Exact","6114 LA SALLE AVE, OAKLAND, CA, 94611",125003446,"R"
258260,"6114 LA SALLE AVE SUITE 168","OAKLAND","CA",94611,37.826347148,-122.210336033,260,"6114 LA SALLE AVE SUITE 168, OAKLAND, CA, 94611","Match","Non_Exact","6114 LA SALLE AVE, OAKLAND, CA, 94611",125003446,"R"
258261,"6114 LA SALLE AVE","OAKLAND","CA",94611,37.826347148,-122.210336033,261,"6114 LA SALLE AVE, OAKLAND, CA, 94611","Match","Exact","6114 LA SALLE AVE, OAKLAND, CA, 94611",125003446,"R"
258262,"6114 LASALLE AVE STE 583","OAKLAND","CA",94611,37.827875884,-122.217553067,262,"6114 LASALLE AVE STE 583, OAKLAND, CA, 94611","Match","Exact","6114 LASALLE AVE, OAKLAND, CA, 94611",125049958,"L"
258263,"6114 LASALLE AVE","OAKLAND","CA",94611,37.827875884,-122.217553067,263,"6114 LASALLE AVE, OAKLAND, CA, 94611","Match","Exact","6114 LASALLE AVE, OAKLAND, CA, 94611",125049958,"L"
258264,"6114 MASSAPONAX DRIVE","FREDERICKSBURG","VA",22407,38.2471588810001,-77.53763671,264,"6114 MASSAPONAX DRIVE, FREDERICKSBURG, VA, 22407","Match","Exact","6114 MASSAPONAX DR, FREDERICKSBURG, VA, 22407",85009798,"R"
258265,"6114 MEYER AVE","BRIGHTON","MI",48116,42.5142080300001,-83.773057611,265,"6114 MEYER AVE, BRIGHTON, MI, 48116","Match","Exact","6114 MEYER AVE, BRIGHTON, MI, 48116",23570407,"L"
258266,"6114 SPRINGFLOWER COURT","CHARLOTTE","NC",28262,35.2998154590001,-80.7964009309999,266,"6114 SPRINGFLOWER COURT, CHARLOTTE, NC, 28262","Match","Exact","6114 SPRINGFLOWER CT, CHARLOTTE, NC, 28262",70553776,"L"
258267,"6114 SUNAN DR","ST CHARLES","MO",63301,NA,NA,267,"6114 SUNAN DR, ST CHARLES, MO, 63301","No_Match",NA,NA,NA,NA
258268,"6114 SW 35TH COURT","MIRAMAR","FL",33023,25.9785598020001,-80.208684154,268,"6114 SW 35TH COURT, MIRAMAR, FL, 33023","Match","Exact","6114 SW 35TH CT, MIRAMAR, FL, 33023",114734950,"L"
258269,"6114 WOOD CREEK CT","JUPITER","FL",33458,26.9629753140001,-80.130415902,269,"6114 WOOD CREEK CT, JUPITER, FL, 33458","Match","Non_Exact","6114 WOOD CREEK RD, JUPITER, FL, 33458",115343142,"R"
258270,"6114B FRANCONIA ROAD","ALEXANDRIA","MD",22310,NA,NA,270,"6114B FRANCONIA ROAD, ALEXANDRIA, MD, 22310","No_Match",NA,NA,NA,NA
258271,"6115 14TH ST NW","WASHINGTON","DC",20011,38.9642997070001,-77.033408427,271,"6115 14TH ST NW, WASHINGTON, DC, 20011","Match","Exact","6115 14TH ST NW, WASHINGTON, DC, 20011",76221644,"R"
258272,"6115 510TH AVE","AMES","IA",50014,NA,NA,272,"6115 510TH AVE, AMES, IA, 50014","No_Match",NA,NA,NA,NA
258273,"6115 97TH STREET SUITE 11C","REGO PARK","NY",11374,NA,NA,273,"6115 97TH STREET SUITE 11C, REGO PARK, NY, 11374","No_Match",NA,NA,NA,NA
258274,"6115 BACHER ST","HOUSTON","TX",77028,29.8177262,-95.277412353,274,"6115 BACHER ST, HOUSTON, TX, 77028","Match","Exact","6115 BACHER ST, HOUSTON, TX, 77028",96078113,"L"
258275,"6115 BEACON AVE SOUTH","SEATTLE","WA",98108,47.5475335630001,-122.300992867,275,"6115 BEACON AVE SOUTH, SEATTLE, WA, 98108","Match","Exact","6115 BEACON AVE S, SEATTLE, WA, 98108",186595541,"R"
258276,"6115 DOWNFIELD WOOD DRIVE","CHARLOTTE","NC",28269,35.3724950440001,-80.758010113,276,"6115 DOWNFIELD WOOD DRIVE, CHARLOTTE, NC, 28269","Match","Exact","6115 DOWNFIELD WOOD DR, CHARLOTTE, NC, 28269",70527895,"L"
258277,"6115 E SAN BERNARDINO","TUCSON","AZ",85715,32.2595840920001,-110.86161142,277,"6115 E SAN BERNARDINO, TUCSON, AZ, 85715","Match","Non_Exact","6115 E SAN BERNARDINO ST, TUCSON, AZ, 85715",121178292,"L"
258278,"6115 EAST LIVINGSTON AVE","COLUMBUS","OH",43232,39.9421757490001,-82.832073919,278,"6115 EAST LIVINGSTON AVE, COLUMBUS, OH, 43232","Match","Exact","6115 E LIVINGSTON AVE, COLUMBUS, OH, 43232",637292133,"R"
258279,"6115 EST SMITH BAY BOX 7 STE 315","ST THOMAS","VI",802,NA,NA,279,"6115 EST SMITH BAY BOX 7 STE 315, ST THOMAS, VI, 802","No_Match",NA,NA,NA,NA
258280,"6115 ESTATE SMITH BAY ROAD STE 321","ST THOMAS","VI",802,NA,NA,280,"6115 ESTATE SMITH BAY ROAD STE 321, ST THOMAS, VI, 802","No_Match",NA,NA,NA,NA
258281,"6115 HARTFORD","DETROIT","MI",48210,42.3487418280001,-83.113297125,281,"6115 HARTFORD, DETROIT, MI, 48210","Match","Non_Exact","6115 HARTFORD ST, DETROIT, MI, 48210",95472208,"L"
258282,"6115 LILLIAN HWY","PENSACOLA","FL",32506,30.4241345130001,-87.296843242,282,"6115 LILLIAN HWY, PENSACOLA, FL, 32506","Match","Exact","6115 LILLIAN HWY, PENSACOLA, FL, 32506",647794251,"L"
258283,"6115 NE 185TH STREET","KENMORE","WA",98028,47.762651174,-122.262550611,283,"6115 NE 185TH STREET, KENMORE, WA, 98028","Match","Exact","6115 NE 185TH ST, KENMORE, WA, 98028",186597404,"R"
258284,"6115 NOBLESTOWN ROAD","OAKDALE","PA",15071,40.398195129,-80.187638174,284,"6115 NOBLESTOWN ROAD, OAKDALE, PA, 15071","Match","Exact","6115 NOBLESTOWN RD, OAKDALE, PA, 15071",51611771,"R"
258285,"6115 NORTH HILLS CIRLCE","CHARLOTTE","NC",28213,35.2696777310001,-80.763794693,285,"6115 NORTH HILLS CIRLCE, CHARLOTTE, NC, 28213","Match","Non_Exact","6115 N HILLS CRES, CHARLOTTE, NC, 28213",70534354,"R"
258286,"6115 NOTTINGHAM DRIVE","EAST RIDGE","TN",37412,34.997477545,-85.216081109,286,"6115 NOTTINGHAM DRIVE, EAST RIDGE, TN, 37412","Match","Exact","6115 NOTTINGHAM DR, EAST RIDGE, TN, 37412",59315501,"L"
258287,"6115 OREGON DR","FORT WAYNE","IN",46825,41.1343196060001,-85.159043719,287,"6115 OREGON DR, FORT WAYNE, IN, 46825","Match","Exact","6115 OREGON DR, FORT WAYNE, IN, 46825",6376385,"L"
258288,"6115 RICHARDSON LANE","AUSTIN","TX",78741,30.237055588,-97.69795728,288,"6115 RICHARDSON LANE, AUSTIN, TX, 78741","Match","Exact","6115 RICHARDSON LN, AUSTIN, TX, 78741",64000489,"L"
258289,"6115 SMOKEY RIDGE DRIVE","PLAINFIELD","IL",60586,41.5532412110001,-88.2323934779999,289,"6115 SMOKEY RIDGE DRIVE, PLAINFIELD, IL, 60586","Match","Exact","6115 SMOKEY RIDGE DR, PLAINFIELD, IL, 60586",111627237,"L"
258290,"6115 SUNSET BLVD  STE M100","LOS ANGELES","CA",90028,34.098027308,-118.322576884,290,"6115 SUNSET BLVD  STE M100, LOS ANGELES, CA, 90028","Match","Non_Exact","6115 W SUNSET BLVD, LOS ANGELES, CA, 90028",141602833,"R"
258291,"6115 UPSHUR DR","GAINESVILLE","GA",30506,34.317670354,-83.999846325,291,"6115 UPSHUR DR, GAINESVILLE, GA, 30506","Match","Exact","6115 UPSHUR DR, GAINESVILLE, GA, 30506",627205576,"L"
258292,"6115 WASHINGTON AVE","PHILADELPHIA","PA",19143,39.9481885920001,-75.2460650199999,292,"6115 WASHINGTON AVE, PHILADELPHIA, PA, 19143","Match","Exact","6115 WASHINGTON AVE, PHILADELPHIA, PA, 19143",131397853,"R"
258293,"6115 WINDRIDGE CT","PRINCETON","NJ",8540,40.3069977420001,-74.643951096,293,"6115 WINDRIDGE CT, PRINCETON, NJ, 8540","Match","Exact","6115 WINDRIDGE CT, PRINCETON, NJ, 08540",641527783,"R"
258294,"6115 YEAGAR COURT","NEW MARKET","MD",21774,39.399968105,-77.304336716,294,"6115 YEAGAR COURT, NEW MARKET, MD, 21774","Match","Non_Exact","6115 YEAGER CT, NEW MARKET, MD, 21774",649147932,"R"
258295,"61156 HILMER CREEK DR","BEND","OR",97702,44.0208811470001,-121.276907419,295,"61156 HILMER CREEK DR, BEND, OR, 97702","Match","Exact","61156 HILMER CREEK DR, BEND, OR, 97702",633403840,"R"
258296,"6116 127TH PL SE","BELLEVUE","WA",98006,47.5477520170001,-122.170770307,296,"6116 127TH PL SE, BELLEVUE, WA, 98006","Match","Exact","6116 127TH PL SE, BELLEVUE, WA, 98006",186609367,"L"
258297,"6116 ALAMO CIRCLE","LAS VEGAS","NV",89107,36.164552724,-115.224642409,297,"6116 ALAMO CIRCLE, LAS VEGAS, NV, 89107","Match","Exact","6116 ALAMO CIR, LAS VEGAS, NV, 89107",201861056,"R"
258298,"6116 ALMERIA WAY","PALMDALE","CA",93552,34.561966613,-118.02031694,298,"6116 ALMERIA WAY, PALMDALE, CA, 93552","Match","Exact","6116 ALMERIA WAY, PALMDALE, CA, 93552",141838393,"R"
258299,"6116 CLAPTON DRIVE","WAKE FOREST","NC",27587,35.950912739,-78.473815025,299,"6116 CLAPTON DRIVE, WAKE FOREST, NC, 27587","Match","Exact","6116 CLAPTON DR, WAKE FOREST, NC, 27587",612820986,"R"
258300,"6116 HAGER RD","GREENCASTLE","PA",17225,39.823716066,-77.8008735459999,300,"6116 HAGER RD, GREENCASTLE, PA, 17225","Match","Exact","6116 HAGER RD, GREENCASTLE, PA, 17225",647521225,"R"
258301,"6116 HURLEY WADE ROAD","MOSS POINT","MS",39562,30.661135356,-88.5078960659999,301,"6116 HURLEY WADE ROAD, MOSS POINT, MS, 39562","Match","Exact","6116 HURLEY WADE RD, MOSS POINT, MS, 39562",89288543,"L"
258302,"6116 LAUREL LANE","PROSPECT","KY",40059,38.3350572430001,-85.5498533209999,302,"6116 LAUREL LANE, PROSPECT, KY, 40059","Match","Exact","6116 LAUREL LN, PROSPECT, KY, 40059",614162691,"R"
258303,"6116 MYRTLE AVENUE","GLENDALE","NY",11385,NA,NA,303,"6116 MYRTLE AVENUE, GLENDALE, NY, 11385","No_Match",NA,NA,NA,NA
258304,"6116 N CENTRAL EXPY 7TH FL STE 700","DALLAS","TX",75206,32.8416650360001,-96.775196696,304,"6116 N CENTRAL EXPY 7TH FL STE 700, DALLAS, TX, 75206","Match","Non_Exact","6116 N CENTRAL EXPY, DALLAS, TX, 75206",103201933,"R"
258305,"6116 N KINGS HIGHWAY","ALEXANDRIA","VA",22303,38.785472113,-77.0778291949999,305,"6116 N KINGS HIGHWAY, ALEXANDRIA, VA, 22303","Match","Exact","6116 N KINGS HWY, ALEXANDRIA, VA, 22303",638227457,"R"
258306,"6116 N LAKEWAY DRIVE","WARR ACRES","OK",73132,35.5437262180001,-97.625330858,306,"6116 N LAKEWAY DRIVE, WARR ACRES, OK, 73132","Match","Exact","6116 N LAKEWAY DR, WARR ACRES, OK, 73132",100422281,"L"
258307,"6116 N SAN GABRIEL BLVD","SAN GABRIEL","CA",91775,34.110597199,-118.091095699,307,"6116 N SAN GABRIEL BLVD, SAN GABRIEL, CA, 91775","Match","Exact","6116 N SAN GABRIEL BLVD, SAN GABRIEL, CA, 91775",141634673,"R"
258308,"6116 N VAN NESS BLVD","FRESNO","CA",93711,36.8249821250001,-119.835354896,308,"6116 N VAN NESS BLVD, FRESNO, CA, 93711","Match","Exact","6116 N VAN NESS BLVD, FRESNO, CA, 93711",197600390,"R"
258309,"6116 REIGER AVE","DALLAS","TX",75214,32.8068243110001,-96.7509954829999,309,"6116 REIGER AVE, DALLAS, TX, 75214","Match","Exact","6116 REIGER AVE, DALLAS, TX, 75214",102920075,"R"
258310,"6116 SEAT PLEASANT DRIVE","SEAT PLEASANT","MD",20743,38.897054428,-76.901536113,310,"6116 SEAT PLEASANT DRIVE, SEAT PLEASANT, MD, 20743","Match","Exact","6116 SEAT PLEASANT DR, SEAT PLEASANT, MD, 20743",76317700,"L"
258311,"6116 VALLEY ESTATES DRIVE","RALEIGH","NC",27612,35.8653129150001,-78.675595008,311,"6116 VALLEY ESTATES DRIVE, RALEIGH, NC, 27612","Match","Exact","6116 VALLEY ESTATES DR, RALEIGH, NC, 27612",72495655,"L"
258312,"6116 VIRGINIA AVE S","EDINA","MN",55424,44.8918924710001,-93.345662209,312,"6116 VIRGINIA AVE S, EDINA, MN, 55424","Match","Exact","6116 VIRGINIA AVE S, EDINA, MN, 55424",43834692,"R"
258313,"6116 WILSON MILLS RD","MAYFIELD VILLAGE","OH",44143,41.5389748280001,-81.459331569,313,"6116 WILSON MILLS RD, MAYFIELD VILLAGE, OH, 44143","Match","Exact","6116 WILSON MILLS RD, MAYFIELD VLG, OH, 44143",61179743,"R"
258314,"6116 WINTON ST","DALLAS","TX",75214,32.835664787,-96.760782047,314,"6116 WINTON ST, DALLAS, TX, 75214","Match","Exact","6116 WINTON ST, DALLAS, TX, 75214",102918458,"R"
258315,"6117 BRANDY WOOD TRAIL","ARLINGTON","TX",76018,32.6462947160001,-97.074537498,315,"6117 BRANDY WOOD TRAIL, ARLINGTON, TX, 76018","Match","Exact","6117 BRANDY WOOD TRL, ARLINGTON, TX, 76018",102112176,"R"
258316,"6117 BROADWAY ST","PEARLAND","TX",77581,29.559450263,-95.314754895,316,"6117 BROADWAY ST, PEARLAND, TX, 77581","Match","Exact","6117 BROADWAY ST, PEARLAND, TX, 77581",116568388,"R"
258317,"6117 DOUGHERTY ROAD","DUBLIN","CA",94568,37.7088327020001,-121.910261368,317,"6117 DOUGHERTY ROAD, DUBLIN, CA, 94568","Match","Exact","6117 DOUGHERTY RD, DUBLIN, CA, 94568",651666159,"R"
258318,"6117 E COUNTRY CLUB VISTA DR","TUCSON","AZ",85750,32.2703992560001,-110.862384318,318,"6117 E COUNTRY CLUB VISTA DR, TUCSON, AZ, 85750","Match","Exact","6117 E COUNTRY CLUB VISTA DR, TUCSON, AZ, 85750",121211791,"R"
258319,"6117 EAGLE COURT","JOSHUA","TX",76058,32.512253872,-97.4657586719999,319,"6117 EAGLE COURT, JOSHUA, TX, 76058","Match","Exact","6117 EAGLE CT, JOSHUA, TX, 76058",627677697,"L"
258320,"6117 PERIMETER LAKES DR","DUBLIN","OH",43017,40.1059775860001,-83.156278909,320,"6117 PERIMETER LAKES DR, DUBLIN, OH, 43017","Match","Exact","6117 PERIMETER LAKES DR, DUBLIN, OH, 43017",218572362,"L"
258321,"6117 RESEDA BOULEVARD  SUITE R","TARZANA","CA",91335,34.1811474690001,-118.536019385,321,"6117 RESEDA BOULEVARD  SUITE R, TARZANA, CA, 91335","Match","Exact","6117 RESEDA BLVD, TARZANA, CA, 91335",141554597,"L"
258322,"6117 RIDDLE COURT","DOUGLASVILLE","GA",30134,33.774650174,-84.748569805,322,"6117 RIDDLE COURT, DOUGLASVILLE, GA, 30134","Match","Exact","6117 RIDDLE CT, DOUGLASVILLE, GA, 30134",618477168,"R"
258323,"6117 SAMPSON ROAD","DAHLGREN","VA",22448,NA,NA,323,"6117 SAMPSON ROAD, DAHLGREN, VA, 22448","No_Match",NA,NA,NA,NA
258324,"6117 SEABROOK ROAD","LANHAM","MD",20706,38.969461827,-76.84262632,324,"6117 SEABROOK ROAD, LANHAM, MD, 20706","Match","Exact","6117 SEABROOK RD, LANHAM, MD, 20706",76310348,"R"
258325,"6117 SOUTHERN HILLS DRIVE","GOSHEN","OH",45122,39.249322438,-84.2041240619999,325,"6117 SOUTHERN HILLS DRIVE, GOSHEN, OH, 45122","Match","Exact","6117 SOUTHERN HILLS DR, GOSHEN, OH, 45122",618759895,"L"
258326,"6117 SW 4TH ST","TOPEKA","KS",66615,39.060906647,-95.765297028,326,"6117 SW 4TH ST, TOPEKA, KS, 66615","Match","Exact","6117 SW 4TH ST, TOPEKA, KS, 66615",629458210,"L"
258327,"6118 ALPINE STREET","DISTRICT HEIGHTS","MD",20747,38.8600144220001,-76.901732534,327,"6118 ALPINE STREET, DISTRICT HEIGHTS, MD, 20747","Match","Exact","6118 ALPINE ST, DISTRICT HEIGHTS, MD, 20747",76318448,"L"
258328,"6118 BANNER COURT","SAN JOSE","CA",95123,37.236626202,-121.823590129,328,"6118 BANNER COURT, SAN JOSE, CA, 95123","Match","Exact","6118 BANNER CT, SAN JOSE, CA, 95123",122925308,"R"
258329,"6118 BARBARA ST","JUPITER","FL",33458,26.9015956640001,-80.129657638,329,"6118 BARBARA ST, JUPITER, FL, 33458","Match","Exact","6118 BARBARA ST, JUPITER, FL, 33458",115342700,"R"
258330,"6118 CREEK RIDGE CT","MINNETONKA","MN",55345,44.894061902,-93.494539758,330,"6118 CREEK RIDGE CT, MINNETONKA, MN, 55345","Match","Exact","6118 CREEK RIDGE CT, MINNETONKA, MN, 55345",43838232,"L"
258331,"6118 ESTATE PETERBORG","ST THOMAS","VI",802,NA,NA,331,"6118 ESTATE PETERBORG, ST THOMAS, VI, 802","No_Match",NA,NA,NA,NA
258332,"6118 FRANCONIA RD  STE 212","ALEXANDRIA","VA",22310,38.7818477020001,-77.147497584,332,"6118 FRANCONIA RD  STE 212, ALEXANDRIA, VA, 22310","Match","Exact","6118 FRANCONIA RD, ALEXANDRIA, VA, 22310",76045342,"R"
258333,"6118 FRANCONIA RD STE 212","ALEXANDRIA","VA",22310,38.7818477020001,-77.147497584,333,"6118 FRANCONIA RD STE 212, ALEXANDRIA, VA, 22310","Match","Exact","6118 FRANCONIA RD, ALEXANDRIA, VA, 22310",76045342,"R"
258334,"6118 KAHL AVE NE","ALBERTVILLE,","MN",55301,45.239778077,-93.676520017,334,"6118 KAHL AVE NE, ALBERTVILLE,, MN, 55301","Match","Non_Exact","6118 KAHL AVE, ALBERTVILLE, MN, 55301",44022282,"L"
258335,"6118 LEGACY CIRCLE","CHARLOTTE","NC",28277,35.0424396920001,-80.772253892,335,"6118 LEGACY CIRCLE, CHARLOTTE, NC, 28277","Match","Exact","6118 LEGACY CIR, CHARLOTTE, NC, 28277",70546474,"R"
258336,"6118 LINCOLNSHIRE COURT","ROCKWALL","TX",75087,32.914577368,-96.502432674,336,"6118 LINCOLNSHIRE COURT, ROCKWALL, TX, 75087","Match","Exact","6118 LINCOLNSHIRE CT, ROCKWALL, TX, 75087",123787507,"R"
258337,"6118 LITHIA RD","BUCHANAN","VA",24066,NA,NA,337,"6118 LITHIA RD, BUCHANAN, VA, 24066","No_Match",NA,NA,NA,NA
258338,"6118 MARBLE HOLLOW LANE","KATY","TX",77450,29.7109892820001,-95.748360002,338,"6118 MARBLE HOLLOW LANE, KATY, TX, 77450","Match","Exact","6118 MARBLE HOLLOW LN, KATY, TX, 77450",627294154,"L"
258339,"6118 NW 113TH PL","ALACHUA","FL",32615,29.7588994220001,-82.410777531,339,"6118 NW 113TH PL, ALACHUA, FL, 32615","Match","Exact","6118 NW 113TH PL, ALACHUA, FL, 32615",6802154,"L"
258340,"6118 SW HIGHWAY 200","OCALA","FL",34476,29.1143299140001,-82.2213051539999,340,"6118 SW HIGHWAY 200, OCALA, FL, 34476","Match","Non_Exact","6118 STATE RD 200, OCALA, FL, 34476",638650330,"R"
258341,"61180 KEPLER ST","BEND","OR",97702,44.021760412,-121.331034424,341,"61180 KEPLER ST, BEND, OR, 97702","Match","Exact","61180 KEPLER ST, BEND, OR, 97702",152588182,"L"
258342,"6119 55TH TER E","BRADENTON","FL",34203,27.442986745,-82.4832147879999,342,"6119 55TH TER E, BRADENTON, FL, 34203","Match","Exact","6119 55TH TER E, BRADENTON, FL, 34203",16254104,"L"
258343,"6119 AMBASSADOR DR","ORLANDO","FL",32808,28.5700728890001,-81.465714503,343,"6119 AMBASSADOR DR, ORLANDO, FL, 32808","Match","Exact","6119 AMBASSADOR DR, ORLANDO, FL, 32808",94269020,"R"
258344,"6119 BEARD AVE N","BROOKLYN CENTER","MI",55429,NA,NA,344,"6119 BEARD AVE N, BROOKLYN CENTER, MI, 55429","No_Match",NA,NA,NA,NA
258345,"6119 CRAUGHWELL LANE","DUBLIN","OH",43017,40.1046429350001,-83.15569691,345,"6119 CRAUGHWELL LANE, DUBLIN, OH, 43017","Match","Exact","6119 CRAUGHWELL LN, DUBLIN, OH, 43017",641178984,"L"
258346,"6119 EAST WASHINGTON BLVD SUITE 201","COMMERCE","CA",90040,33.996301278,-118.147905385,346,"6119 EAST WASHINGTON BLVD SUITE 201, COMMERCE, CA, 90040","Match","Exact","6119 E WASHINGTON BLVD, COMMERCE, CA, 90040",142738236,"L"
258347,"6119 GREENVILLE AVE","DALLAS","TX",75206,32.8599168740001,-96.768054186,347,"6119 GREENVILLE AVE, DALLAS, TX, 75206","Match","Exact","6119 GREENVILLE AVE, DALLAS, TX, 75206",103237662,"L"
258348,"6119 N FAIRFIELD AVE APT 1","CHICAGO","IL",60659,41.9926277770001,-87.698245841,348,"6119 N FAIRFIELD AVE APT 1, CHICAGO, IL, 60659","Match","Non_Exact","6119 N FAIRFIELD AVE, CHICAGO, IL, 60659",111744696,"R"
258349,"6119 N JEFFERSON STREET APT 4","KANSAS CITY","MO",64118,39.2056849370001,-94.588265397,349,"6119 N JEFFERSON STREET APT 4, KANSAS CITY, MO, 64118","Match","Non_Exact","6119 N JEFFERSON ST, KANSAS CITY, MO, 64118",89755679,"R"
258350,"6119 OAK LANE","STOCKTON","CA",95212,38.044762356,-121.240911185,350,"6119 OAK LANE, STOCKTON, CA, 95212","Match","Exact","6119 OAK LN, STOCKTON, CA, 95212",133856247,"L"
258351,"6119 OUTPOST RD","SYLVANIA","OH",43560,41.6990041880001,-83.689339489,351,"6119 OUTPOST RD, SYLVANIA, OH, 43560","Match","Exact","6119 OUTPOST RD, SYLVANIA, OH, 43560",648148965,"L"
258352,"6119 SCOTT AVE NORTH","BROOKLYN CENTER","MN",55429,45.0665168400001,-93.345282394,352,"6119 SCOTT AVE NORTH, BROOKLYN CENTER, MN, 55429","Match","Exact","6119 SCOTT AVE N, BROOKLYN CENTER, MN, 55429",43829373,"L"
258353,"6119 TACOMA AVE S","TACOMA","WA",98408,47.2016655190001,-122.43916657,353,"6119 TACOMA AVE S, TACOMA, WA, 98408","Match","Exact","6119 TACOMA AVE S, TACOMA, WA, 98408",184628420,"L"
258354,"61195 MAGNOLIA LANE","BEND","OR",97702,44.0222639620001,-121.269048514,354,"61195 MAGNOLIA LANE, BEND, OR, 97702","Match","Exact","61195 MAGNOLIA LN, BEND, OR, 97702",152557003,"L"
258355,"612 13TH AVENUE NORTH  LOWER","JACKSONVILLE BEACH","FL",32250,30.300975522,-81.3977861499999,355,"612 13TH AVENUE NORTH  LOWER, JACKSONVILLE BEACH, FL, 32250","Match","Exact","612 13TH AVE N, JACKSONVILLE BEACH, FL, 32250",83923113,"L"
258356,"612 3RD ST","FENTON","MI",48430,42.8003849400001,-83.697837571,356,"612 3RD ST, FENTON, MI, 48430","Match","Exact","612 3RD ST, FENTON, MI, 48430",69604780,"R"
258357,"612 4TH STREET EAST","WILLISTON","ND",58801,48.1480080970001,-103.613460718,357,"612 4TH STREET EAST, WILLISTON, ND, 58801","Match","Exact","612 4TH ST E, WILLISTON, ND, 58801",167740538,"R"
258358,"612 5TH STREET","HOLLISTER","CA",95023,36.8515845370001,-121.407955667,358,"612 5TH STREET, HOLLISTER, CA, 95023","Match","Exact","612 5TH ST, HOLLISTER, CA, 95023",125435799,"R"
258359,"612 8TH ST SE","ORANGE CITY","IA",51041,42.997558118,-96.06545926,359,"612 8TH ST SE, ORANGE CITY, IA, 51041","Match","Non_Exact","612 8TH ST SW, ORANGE CITY, IA, 51041",641235439,"R"
258360,"612 ALEJANDRO LANE","GREENACRES","FL",33413,26.6858816650001,-80.14246415,360,"612 ALEJANDRO LANE, GREENACRES, FL, 33413","Match","Exact","612 ALEJANDRO LN, GREENACRES, FL, 33413",636846023,"L"
258361,"612 ARCHER ST","HOUSTON","TX",77009,29.796352906,-95.3737996249999,361,"612 ARCHER ST, HOUSTON, TX, 77009","Match","Exact","612 ARCHER ST, HOUSTON, TX, 77009",96065522,"R"
258362,"612 ARLINGTON ISLE","ALAMEDA","CA",94501,37.764186276,-122.264631023,362,"612 ARLINGTON ISLE, ALAMEDA, CA, 94501","Match","Exact","612 ARLINGTON ISLE, ALAMEDA, CA, 94501",606811785,"R"
258363,"612 BENBOW CT","DAVIS","CA",95618,38.5466945520001,-121.715771841,363,"612 BENBOW CT, DAVIS, CA, 95618","Match","Exact","612 BENBOW CT, DAVIS, CA, 95618",67701551,"R"
258364,"612 BENTLY DRIVE","LAWRENCE","KS",66049,38.9904026290001,-95.272229044,364,"612 BENTLY DRIVE, LAWRENCE, KS, 66049","Match","Exact","612 BENTLY DR, LAWRENCE, KS, 66049",17697886,"L"
258365,"612 BLUE RIDGE DRIVE","MEDFORD","NY",11763,40.83546368,-73.001908473,365,"612 BLUE RIDGE DRIVE, MEDFORD, NY, 11763","Match","Exact","612 BLUE RIDGE DR, MEDFORD, NY, 11763",114247108,"L"
258366,"612 BRITTON LN","MOSCOW","ID",83843,46.7473569800001,-116.993425507,366,"612 BRITTON LN, MOSCOW, ID, 83843","Match","Exact","612 BRITTON LN, MOSCOW, ID, 83843",649923631,"L"
258367,"612 BROGDEN STREET","DUDLEY","NC",28333,35.2953011540001,-78.023148987,367,"612 BROGDEN STREET, DUDLEY, NC, 28333","Match","Exact","612 BROGDEN ST, DUDLEY, NC, 28333",14409891,"R"
258368,"612 CAMBRIDGE ROAD","BALA CYNWYD","PA",19004,40.0168892510001,-75.233140299,368,"612 CAMBRIDGE ROAD, BALA CYNWYD, PA, 19004","Match","Exact","612 CAMBRIDGE RD, BALA CYNWYD, PA, 19004",135091370,"L"
258369,"612 CAMELLIA DR","LAFAYETTE","LA",70503,30.182453568,-92.0510395429999,369,"612 CAMELLIA DR, LAFAYETTE, LA, 70503","Match","Exact","612 CAMELLIA DR, LAFAYETTE, LA, 70503",85618034,"R"
258370,"612 CATAWBA RIVER DRIVE","FLORENCE","SC",29501,34.257739875,-79.765287869,370,"612 CATAWBA RIVER DRIVE, FLORENCE, SC, 29501","Match","Exact","612 CATAWBA RIVER DR, FLORENCE, SC, 29501",78400193,"L"
258371,"612 CENTER AVE","SHEBOYGAN","WI",53081,43.7508693030001,-87.709908828,371,"612 CENTER AVE, SHEBOYGAN, WI, 53081","Match","Exact","612 CENTER AVE, SHEBOYGAN, WI, 53081",79497146,"R"
258372,"612 CHRISTIAN LANE","BRANCHBURG","NJ",8876,40.561788822,-74.719067632,372,"612 CHRISTIAN LANE, BRANCHBURG, NJ, 8876","Match","Exact","612 CHRISTIAN LN, BRANCHBURG, NJ, 08876",59952557,"R"
258373,"612 CLOVER FLAT ROAD","CEDAR PARK","TX",78613,30.5247571090001,-97.795353545,373,"612 CLOVER FLAT ROAD, CEDAR PARK, TX, 78613","Match","Exact","612 CLOVER FLAT RD, CEDAR PARK, TX, 78613",617955583,"R"
258374,"612 COMMERCE ST","LYNCHBURG","VA",24504,37.417709603,-79.1434101249999,374,"612 COMMERCE ST, LYNCHBURG, VA, 24504","Match","Exact","612 COMMERCE ST, LYNCHBURG, VA, 24504",62736992,"L"
258375,"612 CROSSHILL ROAD","ROYERSFORD","PA",19468,40.1763224630001,-75.529145876,375,"612 CROSSHILL ROAD, ROYERSFORD, PA, 19468","Match","Exact","612 CROSSHILL RD, ROYERSFORD, PA, 19468",135121271,"L"
258376,"612 CROSSING DRIVE","DURHAM","NC",27703,35.9700006190001,-78.8098912469999,376,"612 CROSSING DRIVE, DURHAM, NC, 27703","Match","Exact","612 CROSSING DR, DURHAM, NC, 27703",71773831,"R"
258377,"612 DAUPHIN ST","GREEN BAY","WI",54301,44.4776965290001,-88.013537641,377,"612 DAUPHIN ST, GREEN BAY, WI, 54301","Match","Exact","612 DAUPHIN ST, GREEN BAY, WI, 54301",148101836,"R"
258378,"612 DIRK WAY","COLUMBUS","GA",31907,32.4554725990001,-84.899421183,378,"612 DIRK WAY, COLUMBUS, GA, 31907","Match","Exact","612 DIRK WAY, COLUMBUS, GA, 31907",98943620,"L"
258379,"612 DRENNON ROAD","NEW CASTLE","KY",40050,38.442685177,-85.159165155,379,"612 DRENNON ROAD, NEW CASTLE, KY, 40050","Match","Exact","612 DRENNON RD, NEW CASTLE, KY, 40050",649789032,"L"
258380,"612 DUTCHMANS CREEK TRAIL","IRMO","SC",29063,34.1622872300001,-81.242126247,380,"612 DUTCHMANS CREEK TRAIL, IRMO, SC, 29063","Match","Exact","612 DUTCHMANS CREEK TRL, IRMO, SC, 29063",645403334,"L"
258381,"612 E BAY ST","SEBEWAING","MI",48759,43.726078215,-83.444501996,381,"612 E BAY ST, SEBEWAING, MI, 48759","Match","Exact","612 E BAY ST, SEBEWAING, MI, 48759",161245888,"R"
258382,"612 E CAMPUS DRIVE APT A1","CARBONDALE","IL",62901,37.713258705,-89.208259943,382,"612 E CAMPUS DRIVE APT A1, CARBONDALE, IL, 62901","Match","Non_Exact","612 E CAMPUS DR, CARBONDALE, IL, 62901",95122549,"L"
258383,"612 E LOCUST LN","NAMPA","ID",83686,NA,NA,383,"612 E LOCUST LN, NAMPA, ID, 83686","Tie",NA,NA,NA,NA
258384,"612 E VINE ST","MOUNT VERNON","OH",43050,40.392144542,-82.475371809,384,"612 E VINE ST, MOUNT VERNON, OH, 43050","Match","Exact","612 E VINE ST, MOUNT VERNON, OH, 43050",24616310,"L"
258385,"612 E WORTHY STREET","GONZALES","LA",70737,30.2256546830001,-90.9176570399999,385,"612 E WORTHY STREET, GONZALES, LA, 70737","Match","Exact","612 E WORTHY ST, GONZALES, LA, 70737",115041947,"L"
258386,"612 EAGLES NEST DRIVE","HEWITT","TX",76643,31.446712856,-97.2002003119999,386,"612 EAGLES NEST DRIVE, HEWITT, TX, 76643","Match","Exact","612 EAGLES NEST DR, HEWITT, TX, 76643",146761899,"R"
258387,"612 EARLY STREET","SAVANNAH","GA",31405,32.017523494,-81.100202278,387,"612 EARLY STREET, SAVANNAH, GA, 31405","Match","Exact","612 EARLY ST, SAVANNAH, GA, 31405",6173484,"L"
258388,"612 EAST CHURCH STREET","ORFORDVILLE","WI",53576,42.6293079660001,-89.2453341679999,388,"612 EAST CHURCH STREET, ORFORDVILLE, WI, 53576","Match","Exact","612 E CHURCH ST, ORFORDVILLE, WI, 53576",49862784,"R"
258389,"612 EAST WASHINGTON BLVD APT 6","PASADENA","CA",91104,34.1689349010001,-118.138112889,389,"612 EAST WASHINGTON BLVD APT 6, PASADENA, CA, 91104","Match","Exact","612 E WASHINGTON BLVD, PASADENA, CA, 91104",141795152,"R"
258390,"612 EASY ST","FORT COBB","OK",73038,35.2186810520001,-98.4948443439999,390,"612 EASY ST, FORT COBB, OK, 73038","Match","Exact","612 EASY ST, FORT COBB, OK, 73038",92437309,"R"
258391,"612 EL CAMINO REAL S","LAKELAND","FL",33813,27.989777369,-81.963844479,391,"612 EL CAMINO REAL S, LAKELAND, FL, 33813","Match","Exact","612 EL CAMINO REAL S, LAKELAND, FL, 33813",104812278,"L"
258392,"612 FAIRVIEW AVENUE","SOUTH MILWAUKEE","WI",53172,42.9238998970001,-87.853574044,392,"612 FAIRVIEW AVENUE, SOUTH MILWAUKEE, WI, 53172","Match","Exact","612 FAIRVIEW AVE, S MILWAUKEE, WI, 53172",77756585,"R"
258393,"612 FERNANDO ST","OJAI","CA",93023,34.4514543820001,-119.280443171,393,"612 FERNANDO ST, OJAI, CA, 93023","Match","Exact","612 FERNANDO ST, OJAI, CA, 93023",109981474,"R"
258394,"612 FILLMORE STREET","HARRISBURG","PA",17104,40.2624088330001,-76.845581591,394,"612 FILLMORE STREET, HARRISBURG, PA, 17104","Match","Exact","612 FILLMORE ST, HARRISBURG, PA, 17104",70821592,"R"
258395,"612 FISHER CIRCLE","FOLSOM","CA",95630,38.65342085,-121.166578936,395,"612 FISHER CIRCLE, FOLSOM, CA, 95630","Match","Exact","612 FISHER CIR, FOLSOM, CA, 95630",133390465,"L"
258396,"612 FLAT GAP ROAD","BEREA","KY",40403,37.536684284,-84.3368423329999,396,"612 FLAT GAP ROAD, BEREA, KY, 40403","Match","Exact","612 FLAT GAP RD, BEREA, KY, 40403",32022193,"R"
258397,"612 GLEN OAK ROAD","VENICE","FL",34293,27.078354629,-82.403171573,397,"612 GLEN OAK ROAD, VENICE, FL, 34293","Match","Exact","612 GLEN OAK RD, VENICE, FL, 34293",16363420,"R"
258398,"612 GORDON AVE","BOWLING GREEN","KY",42101,37.004962316,-86.4430361289999,398,"612 GORDON AVE, BOWLING GREEN, KY, 42101","Match","Exact","612 GORDON AVE, BOWLING GREEN, KY, 42101",28022350,"R"
258399,"612 HANNAH HILL","PORT MATILDA","PA",16870,40.77862264,-78.121010584,399,"612 HANNAH HILL, PORT MATILDA, PA, 16870","Match","Exact","612 HANNAH HILL, PORT MATILDA, PA, 16870",50405739,"L"
258400,"612 HANOVER ROAD","FARMINGTON","NY",14425,NA,NA,400,"612 HANOVER ROAD, FARMINGTON, NY, 14425","No_Match",NA,NA,NA,NA
258401,"612 HENDERSON ROAD","BEL AIR","MD",21014,39.553411499,-76.352482971,401,"612 HENDERSON ROAD, BEL AIR, MD, 21014","Match","Exact","612 HENDERSON RD, BEL AIR, MD, 21014",191640895,"L"
258402,"612 HIGH HAMPTON DRIVE","MARTINEZ","GA",30907,33.5449914220001,-82.079057717,402,"612 HIGH HAMPTON DRIVE, MARTINEZ, GA, 30907","Match","Exact","612 HIGH HAMPTON DR, MARTINEZ, GA, 30907",55379579,"L"
258403,"612 HUNTING PARK DRIVE","SALISBURY","MD",21801,38.342953509,-75.620693058,403,"612 HUNTING PARK DRIVE, SALISBURY, MD, 21801","Match","Exact","612 HUNTING PARK DR, SALISBURY, MD, 21801",114453152,"L"
258404,"612 HWY 150 SOUTH","WEST UNION","IA",52175,NA,NA,404,"612 HWY 150 SOUTH, WEST UNION, IA, 52175","No_Match",NA,NA,NA,NA
258405,"612 JULIA ST","BATON ROUGE","LA",70802,30.4371906430001,-91.1843708659999,405,"612 JULIA ST, BATON ROUGE, LA, 70802","Match","Exact","612 JULIA ST, BATON ROUGE, LA, 70802",92182929,"R"
258406,"612 KERRY HAWKINS COVE","LAVERGNE","TN",37086,36.044899419,-86.5474187459999,406,"612 KERRY HAWKINS COVE, LAVERGNE, TN, 37086","Match","Non_Exact","612 KERRY HAWKINS COVE, LA VERGNE, TN, 37086",59036458,"R"
258407,"612 KLOTTER APARTMENT 2","CINCINNATI","OH",45214,39.1228563390001,-84.5309413109999,407,"612 KLOTTER APARTMENT 2, CINCINNATI, OH, 45214","Match","Non_Exact","612 KLOTTER AVE, CINCINNATI, OH, 45214",103970193,"R"
258408,"612 LAKESIDE CIRCLE","EDMOND","OK",73012,35.6499294990001,-97.519000444,408,"612 LAKESIDE CIRCLE, EDMOND, OK, 73012","Match","Exact","612 LAKESIDE CIR, EDMOND, OK, 73012",100385773,"R"
258409,"612 LANCASTER CIRCLE","SIOUX CITY","IA",51103,42.503260541,-96.461154472,409,"612 LANCASTER CIRCLE, SIOUX CITY, IA, 51103","Match","Exact","612 LANCASTER CIR, SIOUX CITY, IA, 51103",93430529,"R"
258410,"612 MARKET STREET N","LAKE PARK","IA",51347,NA,NA,410,"612 MARKET STREET N, LAKE PARK, IA, 51347","No_Match",NA,NA,NA,NA
258411,"612 MASHIE DRIVE","SUMMERFIELD","NC",27358,36.2607600090001,-79.827859049,411,"612 MASHIE DRIVE, SUMMERFIELD, NC, 27358","Match","Exact","612 MASHIE DR, SUMMERFIELD, NC, 27358",56243856,"L"
258412,"612 MILL SPRINGS CT","BIRMINGHAM","AL",35244,33.3955805420001,-86.741006147,412,"612 MILL SPRINGS CT, BIRMINGHAM, AL, 35244","Match","Exact","612 MILL SPRINGS CT, BIRMINGHAM, AL, 35244",635488851,"R"
258413,"612 N 1ST STREET SUITE 2-188","HAMILTON","MT",59840,NA,NA,413,"612 N 1ST STREET SUITE 2-188, HAMILTON, MT, 59840","Tie",NA,NA,NA,NA
258414,"612 N 21ST ST","RICHMOND","VA",23223,37.5366255770001,-77.419803888,414,"612 N 21ST ST, RICHMOND, VA, 23223","Match","Exact","612 N 21ST ST, RICHMOND, VA, 23223",201541197,"L"
258415,"612 N BOOTH CALLOWAY RD APT 1402","HURST","TX",76053,NA,NA,415,"612 N BOOTH CALLOWAY RD APT 1402, HURST, TX, 76053","No_Match",NA,NA,NA,NA
258416,"612 N FRANKLIN AVE","SAND SPRINGS","OK",74063,36.143722385,-96.117660109,416,"612 N FRANKLIN AVE, SAND SPRINGS, OK, 74063","Match","Exact","612 N FRANKLIN AVE, SAND SPRINGS, OK, 74063",166431651,"R"
258417,"612 N PINE STREET","ROLLA","MO",65401,37.948527401,-91.77153614,417,"612 N PINE STREET, ROLLA, MO, 65401","Match","Exact","612 N PINE ST, ROLLA, MO, 65401",45075167,"R"
258418,"612 N SANDY LN","ELKHORN","WI",53121,NA,NA,418,"612 N SANDY LN, ELKHORN, WI, 53121","Tie",NA,NA,NA,NA
258419,"612 N STATE RD","DAVISON","MI",48423,43.0364290800001,-83.5180062969999,419,"612 N STATE RD, DAVISON, MI, 48423","Match","Exact","612 N STATE RD, DAVISON, MI, 48423",69578477,"R"
258420,"612 NAPOLEON ST","JOHNSTOWN","PA",15901,40.3189765810001,-78.918536257,420,"612 NAPOLEON ST, JOHNSTOWN, PA, 15901","Match","Exact","612 NAPOLEON ST, JOHNSTOWN, PA, 15901",50231068,"R"
258421,"612 NORTH SECOND STREET","MEMPHIS","TN",38107,35.161088088,-90.045040306,421,"612 NORTH SECOND STREET, MEMPHIS, TN, 38107","Match","Exact","612 N 2ND ST, MEMPHIS, TN, 38107",72902780,"R"
258422,"612 NORTH SILVER CREEK CIRCLE","DESOTO","TX",75115,32.597295085,-96.894933927,422,"612 NORTH SILVER CREEK CIRCLE, DESOTO, TX, 75115","Match","Exact","612 N SILVER CREEK CIR, DESOTO, TX, 75115",102994358,"R"
258423,"612 NORTH WISCONSIN DRIVE","HOWARDS GROVE","WI",53083,43.8398058400001,-87.820923346,423,"612 NORTH WISCONSIN DRIVE, HOWARDS GROVE, WI, 53083","Match","Exact","612 N WISCONSIN DR, HOWARDS GROVE, WI, 53083",79491990,"L"
258424,"612 NW 97TH","OKLAHOMA CITY","OK",73114,NA,NA,424,"612 NW 97TH, OKLAHOMA CITY, OK, 73114","No_Match",NA,NA,NA,NA
258425,"612 OBERNUEFEMANN RD","OFALLON","IL",62269,38.5974653540001,-89.92782698,425,"612 OBERNUEFEMANN RD, OFALLON, IL, 62269","Match","Non_Exact","612 OBERNUEFERMANN RD, O FALLON, IL, 62269",107930835,"R"
258426,"612 OBISPO AVE","LONG BEACH","CA",90814,33.7737843250001,-118.154577986,426,"612 OBISPO AVE, LONG BEACH, CA, 90814","Match","Non_Exact","612 N OBISPO AVE, LONG BEACH, CA, 90814",141701695,"R"
258427,"612 OCEAN DRIVE NUMBER 4","MANHATTAN BEACH","CA",90266,33.881109311,-118.409487,427,"612 OCEAN DRIVE NUMBER 4, MANHATTAN BEACH, CA, 90266","Match","Exact","612 OCEAN DR, MANHATTAN BEACH, CA, 90266",141581800,"R"
258428,"612 PARKMAN AVE","SELMA","AL",36701,32.408921768,-87.02733834,428,"612 PARKMAN AVE, SELMA, AL, 36701","Match","Exact","612 PARKMAN AVE, SELMA, AL, 36701",1284059,"R"
258429,"612 PERSHING DRIVE","SILVER SPRING","MD",20910,39.0002306100001,-77.021546605,429,"612 PERSHING DRIVE, SILVER SPRING, MD, 20910","Match","Exact","612 PERSHING DR, SILVER SPRING, MD, 20910",62068184,"L"
258430,"612 PINE RIDGE","EDINBURG","TX",78539,NA,NA,430,"612 PINE RIDGE, EDINBURG, TX, 78539","No_Match",NA,NA,NA,NA
258431,"612 POWDERHORN DRIVE","FORT COLLINS","CO",80526,40.5497024540001,-105.087267399,431,"612 POWDERHORN DRIVE, FORT COLLINS, CO, 80526","Match","Exact","612 POWDERHORN DR, FORT COLLINS, CO, 80526",188491386,"R"
258432,"612 RED HAT ROAD","DECATUR","AL",35601,34.6208487850001,-87.070096107,432,"612 RED HAT ROAD, DECATUR, AL, 35601","Match","Exact","612 RED HAT RD, DECATUR, AL, 35601",648336778,"R"
258433,"612 REICHARDT STREET","LITTLE ROCK","AR",72202,34.7415456260001,-92.249026653,433,"612 REICHARDT STREET, LITTLE ROCK, AR, 72202","Match","Exact","612 REICHARDT ST, LITTLE ROCK, AR, 72202",83515652,"R"
258434,"612 RICE ST","HEMPSTEAD","TX",77445,30.1000049670001,-96.0738631249999,434,"612 RICE ST, HEMPSTEAD, TX, 77445","Match","Exact","612 RICE ST, HEMPSTEAD, TX, 77445",78351720,"R"
258435,"612 S 22ND ST","COLUMBUS","OH",43205,39.952553568,-82.972683993,435,"612 S 22ND ST, COLUMBUS, OH, 43205","Match","Exact","612 S 22ND ST, COLUMBUS, OH, 43205",218649370,"L"
258436,"612 S 60TH STREET","PHILADELPHIA","PA",19143,39.952043883,-75.242837685,436,"612 S 60TH STREET, PHILADELPHIA, PA, 19143","Match","Exact","612 S 60TH ST, PHILADELPHIA, PA, 19143",131397776,"R"
258437,"612 S FLOWER ST 721","LOS ANGELES","CA",90017,34.0497136340001,-118.257800493,437,"612 S FLOWER ST 721, LOS ANGELES, CA, 90017","Match","Non_Exact","612 S FLOWER ST, LOS ANGELES, CA, 90017",141617184,"L"
258438,"612 S MAIN ST  SUITE 203","HOPKINSVILLE","KY",42240,36.8667943890001,-87.488019551,438,"612 S MAIN ST  SUITE 203, HOPKINSVILLE, KY, 42240","Match","Non_Exact","612 S MAIN ST, HOPKINSVILLE, KY, 42240",11272300,"L"
258439,"612 S MAIN STREET  SUITE 203","HOPKINSVILLE","KY",42240,36.8667943890001,-87.488019551,439,"612 S MAIN STREET  SUITE 203, HOPKINSVILLE, KY, 42240","Match","Non_Exact","612 S MAIN ST, HOPKINSVILLE, KY, 42240",11272300,"L"
258440,"612 SALEM AVENUE","DAYTON","OH",45406,39.769311311,-84.211617562,440,"612 SALEM AVENUE, DAYTON, OH, 45406","Match","Exact","612 SALEM AVE, DAYTON, OH, 45406",143569700,"L"
258441,"612 SAN LUIS REY RD","ARCADIA","CA",91007,34.1464603900001,-118.036106081,441,"612 SAN LUIS REY RD, ARCADIA, CA, 91007","Match","Exact","612 SAN LUIS REY RD, ARCADIA, CA, 91007",141644925,"R"
258442,"612 SEVERIGE COURT","ROCKWALL","TX",75032,32.880801712,-96.4859437919999,442,"612 SEVERIGE COURT, ROCKWALL, TX, 75032","Match","Exact","612 SEVERIGE CT, ROCKWALL, TX, 75032",123783242,"L"
258443,"612 SHELBY STREET","FRANKFORT","KY",40601,38.1891766140001,-84.876757138,443,"612 SHELBY STREET, FRANKFORT, KY, 40601","Match","Exact","612 SHELBY ST, FRANKFORT, KY, 40601",97044774,"L"
258444,"612 SOPHIA ST","RIVER RIDGE","LA",70123,29.972033292,-90.229435934,444,"612 SOPHIA ST, RIVER RIDGE, LA, 70123","Match","Exact","612 SOPHIA ST, RIVER RIDGE, LA, 70123",93496146,"L"
258445,"612 SOUTH 5TH AVENUE","DES PLAINES","IL",60016,42.041608608,-87.905363424,445,"612 SOUTH 5TH AVENUE, DES PLAINES, IL, 60016","Match","Exact","612 S 5TH AVE, DES PLAINES, IL, 60016",111722436,"R"
258446,"612 SOUTH MAIN ST","PHILLIPSBURG","NJ",8865,40.6833998450001,-75.184509942,446,"612 SOUTH MAIN ST, PHILLIPSBURG, NJ, 8865","Match","Exact","612 S MAIN ST, PHILLIPSBURG, NJ, 08865",98087424,"R"
258447,"612 ST ANDREWS DR","LONGMONT","CO",80504,40.190627444,-105.079346178,447,"612 ST ANDREWS DR, LONGMONT, CO, 80504","Match","Exact","612 SAINT ANDREWS DR, LONGMONT, CO, 80504",188183087,"L"
258448,"612 SW 168 LANE SUITE A","PEMBROKE PINES","FL",33027,NA,NA,448,"612 SW 168 LANE SUITE A, PEMBROKE PINES, FL, 33027","Tie",NA,NA,NA,NA
258449,"612 SW TIMBERVIEW DR","GRIMES","IA",50111,41.6806430230001,-93.8012044719999,449,"612 SW TIMBERVIEW DR, GRIMES, IA, 50111","Match","Exact","612 TIMBERVIEW DR, GRIMES, IA, 50111",65804805,"L"
258450,"612 TAMENEND CT","FISHERS","IN",46037,39.934732808,-85.9453567049999,450,"612 TAMENEND CT, FISHERS, IN, 46037","Match","Exact","612 TAMENEND CT, FISHERS, IN, 46037",29299831,"L"
258451,"612 THRASHER LN","AUSTIN","TX",78741,30.2380029190001,-97.693430909,451,"612 THRASHER LN, AUSTIN, TX, 78741","Match","Exact","612 THRASHER LN, AUSTIN, TX, 78741",63949171,"R"
258452,"612 TORHUNTA DR","HOPE MILLS","NC",28348,34.9172631180001,-78.91063293,452,"612 TORHUNTA DR, HOPE MILLS, NC, 28348","Match","Exact","612 TORHUNTA DR, HOPE MILLS, NC, 28348",64233155,"L"
258453,"612 UNITY LANE","WEISER","ID",83672,44.236752327,-116.857380759,453,"612 UNITY LANE, WEISER, ID, 83672","Match","Exact","612 UNITY LN, WEISER, ID, 83672",138427720,"R"
258454,"612 W 21ST AVE","GARY","IN",46407,41.580469296,-87.3444632599999,454,"612 W 21ST AVE, GARY, IN, 46407","Match","Exact","612 W 21ST AVE, GARY, IN, 46407",606321498,"R"
258455,"612 W 34TH ST","AUSTIN","TX",78705,30.3004932000001,-97.739945486,455,"612 W 34TH ST, AUSTIN, TX, 78705","Match","Exact","612 W 34TH ST, AUSTIN, TX, 78705",63942505,"R"
258456,"612 W ADAMS ST","IRON RIVER","MI",49935,46.0924077190001,-88.645135608,456,"612 W ADAMS ST, IRON RIVER, MI, 49935","Match","Exact","612 W ADAMS ST, IRON RIVER, MI, 49935",165180498,"R"
258457,"612 W ADAMS STREET SUITE 207","IRON RIVER","MI",49935,46.0924077190001,-88.645135608,457,"612 W ADAMS STREET SUITE 207, IRON RIVER, MI, 49935","Match","Non_Exact","612 W ADAMS ST, IRON RIVER, MI, 49935",165180498,"R"
258458,"612 W ARMITAGE AVE","ELMHURST","IL",60126,41.9130807820001,-87.962931396,458,"612 W ARMITAGE AVE, ELMHURST, IL, 60126","Match","Exact","612 W ARMITAGE AVE, ELMHURST, IL, 60126",112735789,"R"
258459,"612 W BROOKSIDE STREET","COLORADO SPRINGS","CO",80905,NA,NA,459,"612 W BROOKSIDE STREET, COLORADO SPRINGS, CO, 80905","Tie",NA,NA,NA,NA
258460,"612 W DUE WEST AVE","MADISON","TN",37115,36.249454803,-86.736952448,460,"612 W DUE WEST AVE, MADISON, TN, 37115","Match","Exact","612 W DUE WEST AVE, MADISON, TN, 37115",97187009,"R"
258461,"612 W EMMA ST","TAMPA","FL",33603,27.986062116,-82.466708039,461,"612 W EMMA ST, TAMPA, FL, 33603","Match","Exact","612 W EMMA ST, TAMPA, FL, 33603",104520795,"L"
258462,"612 W HORTTER ST","PHILADELPHIA","PA",19119,40.0397918690001,-75.194163099,462,"612 W HORTTER ST, PHILADELPHIA, PA, 19119","Match","Exact","612 W HORTTER ST, PHILADELPHIA, PA, 19119",131394577,"L"
258463,"612 W MAIN AVE APT 809","SPOKANE","WA",99201,47.6590425140001,-117.421264324,463,"612 W MAIN AVE APT 809, SPOKANE, WA, 99201","Match","Non_Exact","612 W MAIN AVE, SPOKANE, WA, 99201",189876564,"R"
258464,"612 W MAIN STREET SUITE 200","MADISON","WI",53703,NA,NA,464,"612 W MAIN STREET SUITE 200, MADISON, WI, 53703","Tie",NA,NA,NA,NA
258465,"612 W MAIN STREET SUITE 301","MADISON","WI",53703,NA,NA,465,"612 W MAIN STREET SUITE 301, MADISON, WI, 53703","Tie",NA,NA,NA,NA
258466,"612 W MAPLE AVE","STERLING","VA",20164,39.0032734430001,-77.4137349969999,466,"612 W MAPLE AVE, STERLING, VA, 20164","Match","Exact","612 W MAPLE AVE, STERLING, VA, 20164",62327200,"R"
258467,"612 WALTON AVENUE","MAMARONECK","NY",10543,40.9388907920001,-73.7321924839999,467,"612 WALTON AVENUE, MAMARONECK, NY, 10543","Match","Exact","612 WALTON AVE, MAMARONECK, NY, 10543",139755400,"L"
258468,"612 WASHINGTON AVE S","LONG BEACH","WA",98631,46.3549959960001,-124.052311842,468,"612 WASHINGTON AVE S, LONG BEACH, WA, 98631","Match","Non_Exact","612 WASHINGTON AVE N, LONG BEACH, WA, 98631",175994979,"R"
258469,"612 WASHINGTON STREET SUITE 108","DENVER","CO",80203,39.725924375,-104.978763005,469,"612 WASHINGTON STREET SUITE 108, DENVER, CO, 80203","Match","Exact","612 WASHINGTON ST, DENVER, CO, 80203",177331515,"R"
258470,"612 WASHINGTON STREET","TOMS RIVER","NJ",8753,39.95286594,-74.174643713,470,"612 WASHINGTON STREET, TOMS RIVER, NJ, 8753","Match","Exact","612 WASHINGTON ST, TOMS RIVER, NJ, 08753",203728658,"L"
258471,"612 WAYCROSS RD","CINCINNATI","OH",45240,39.2713664570001,-84.500409125,471,"612 WAYCROSS RD, CINCINNATI, OH, 45240","Match","Exact","612 WAYCROSS RD, CINCINNATI, OH, 45240",103943719,"R"
258472,"612 WEST BELMONT ST","PENSACOLA","FL",32503,30.4161632770001,-87.2246158459999,472,"612 WEST BELMONT ST, PENSACOLA, FL, 32503","Match","Non_Exact","612 W BELMONT ST, PENSACOLA, FL, 32501",93220311,"R"
258473,"612 WEST MAIN ST","LEBANON","TN",37087,36.2094790300001,-86.305764821,473,"612 WEST MAIN ST, LEBANON, TN, 37087","Match","Exact","612 W MAIN ST, LEBANON, TN, 37087",615137046,"L"
258474,"612 WEST MAIN STREET SUITE 301","MADISON","WI",53703,43.06712865,-89.392567688,474,"612 WEST MAIN STREET SUITE 301, MADISON, WI, 53703","Match","Exact","612 W MAIN ST, MADISON, WI, 53703",49472353,"R"
258475,"612 WILLOUGHBY AVENUE","BROOKLYN","NY",11206,40.694371372,-73.9448183659999,475,"612 WILLOUGHBY AVENUE, BROOKLYN, NY, 11206","Match","Exact","612 WILLOUGHBY AVE, BROOKLYN, NY, 11206",59079005,"R"
258476,"612 WOODSIDE PARKWAY","SILVER SPRING","MD",20910,39.0008240830001,-77.019679109,476,"612 WOODSIDE PARKWAY, SILVER SPRING, MD, 20910","Match","Exact","612 WOODSIDE PKWY, SILVER SPRING, MD, 20910",62068198,"L"
258477,"6120 33RD LANE NE","OLYMPIA","WA",98516,47.0787542030001,-122.801018391,477,"6120 33RD LANE NE, OLYMPIA, WA, 98516","Match","Exact","6120 33RD LN NE, OLYMPIA, WA, 98516",180954942,"L"
258478,"6120 ADRIATIC WAY","GREENACRES","FL",33413,26.6899980960001,-80.138078234,478,"6120 ADRIATIC WAY, GREENACRES, FL, 33413","Match","Exact","6120 ADRIATIC WAY, GREENACRES, FL, 33413",638633444,"L"
258479,"6120 AVERY DR AT 3210","FORT WORTH","TX",76132,32.6732730050001,-97.419513504,479,"6120 AVERY DR AT 3210, FORT WORTH, TX, 76132","Match","Exact","6120 AVERY DR, FORT WORTH, TX, 76132",619869347,"R"
258480,"6120 BANDIT AL LANE","ST. LEONARD","MD",20685,38.452585115,-76.5454471529999,480,"6120 BANDIT AL LANE, ST. LEONARD, MD, 20685","Match","Exact","6120 BANDIT AL LN, SAINT LEONARD, MD, 20685",78178684,"L"
258481,"6120 BELLAIRE BLVD APT 408","HOUSTON","TX",77081,29.705498651,-95.489761218,481,"6120 BELLAIRE BLVD APT 408, HOUSTON, TX, 77081","Match","Exact","6120 BELLAIRE BLVD, HOUSTON, TX, 77081",96609271,"R"
258482,"6120 BREEZEWOOD DR APT 302","GREENBELT","MD",20770,39.0010635780001,-76.906582062,482,"6120 BREEZEWOOD DR APT 302, GREENBELT, MD, 20770","Match","Exact","6120 BREEZEWOOD DR, GREENBELT, MD, 20770",76365028,"L"
258483,"6120 CLEARSKY DRIVE","JACKSONVILLE","FL",32258,30.133793982,-81.5426799429999,483,"6120 CLEARSKY DRIVE, JACKSONVILLE, FL, 32258","Match","Exact","6120 CLEARSKY DR, JACKSONVILLE, FL, 32258",627922877,"R"
258484,"6120 CYPRESSWOOD DRIVE","KLEIN","TX",77379,30.0187990490001,-95.499228365,484,"6120 CYPRESSWOOD DRIVE, KLEIN, TX, 77379","Match","Exact","6120 CYPRESSWOOD DR, KLEIN, TX, 77379",642472727,"L"
258485,"6120 CYPRESSWOOD DRIVE","SPRING","TX",77379,30.0187990490001,-95.499228365,485,"6120 CYPRESSWOOD DRIVE, SPRING, TX, 77379","Match","Exact","6120 CYPRESSWOOD DR, SPRING, TX, 77379",642472727,"L"
258486,"6120 E VIA ESTRELLA AVE","PARADISE VALLEY","AZ",85253,33.5782517650001,-111.948944649,486,"6120 E VIA ESTRELLA AVE, PARADISE VALLEY, AZ, 85253","Match","Exact","6120 E VIA ESTRELLA AVE, PARADISE VALLEY, AZ, 85253",128221105,"L"
258487,"6120 GRANT STREET","OMAHA","NE",68104,41.279582797,-96.0074743279999,487,"6120 GRANT STREET, OMAHA, NE, 68104","Match","Exact","6120 GRANT ST, OMAHA, NE, 68104",116976510,"R"
258488,"6120 INNOVATION WAY","CARLSBAD","CA",92009,33.1297691720001,-117.259312164,488,"6120 INNOVATION WAY, CARLSBAD, CA, 92009","Match","Exact","6120 INNOVATION WAY, CARLSBAD, CA, 92009",195766919,"L"
258489,"6120 KENILWORTH AVENUE","RIVERDALE","MD",20737,38.9610172440001,-76.9199023159999,489,"6120 KENILWORTH AVENUE, RIVERDALE, MD, 20737","Match","Exact","6120 KENILWORTH AVE, RIVERDALE, MD, 20737",638356451,"L"
258490,"6120 LOMBARD AVENUE","EVERETT","WA",98203,47.9420058040001,-122.202075123,490,"6120 LOMBARD AVENUE, EVERETT, WA, 98203","Match","Exact","6120 LOMBARD AVE, EVERETT, WA, 98203",187746882,"R"
258491,"6120 N HERMITAGE AVE UNIT D","CHICAGO","IL",60660,41.9934331580001,-87.6733837039999,491,"6120 N HERMITAGE AVE UNIT D, CHICAGO, IL, 60660","Match","Non_Exact","6120 N HERMITAGE AVE, CHICAGO, IL, 60660",605178028,"L"
258492,"6120 N VINE STREET","VACAVILLE","CA",95688,38.381091428,-121.99207235,492,"6120 N VINE STREET, VACAVILLE, CA, 95688","Match","Exact","6120 N VINE ST, VACAVILLE, CA, 95688",192552235,"R"
258493,"6120 NW 93RD ST","KANSAS CITY","MO",64154,NA,NA,493,"6120 NW 93RD ST, KANSAS CITY, MO, 64154","No_Match",NA,NA,NA,NA
258494,"6120 PINE VIEW TERRACE","RIVERDALE","GA",30296,33.585465836,-84.424833312,494,"6120 PINE VIEW TERRACE, RIVERDALE, GA, 30296","Match","Exact","6120 PINE VIEW TER, RIVERDALE, GA, 30296",23312549,"L"
258495,"6120 RABBIT TRACK STREET","LAS VEGAS","NV",89130,36.2706829690001,-115.225841552,495,"6120 RABBIT TRACK STREET, LAS VEGAS, NV, 89130","Match","Exact","6120 RABBIT TRACK ST, LAS VEGAS, NV, 89130",612690133,"R"
258496,"6120 S UNIVERSITY","CHICAGO","IL",60637,NA,NA,496,"6120 S UNIVERSITY, CHICAGO, IL, 60637","No_Match",NA,NA,NA,NA
258497,"6120 SOUTH YALE AVENUE  SUITE 1900","TULSA","OK",74136,36.073798497,-95.922161622,497,"6120 SOUTH YALE AVENUE  SUITE 1900, TULSA, OK, 74136","Match","Exact","6120 S YALE AVE, TULSA, OK, 74136",640193321,"R"
258498,"6120 SWISS AVE UNIT 140528","DALLAS","TX",75214,32.8136351970001,-96.756355701,498,"6120 SWISS AVE UNIT 140528, DALLAS, TX, 75214","Match","Exact","6120 SWISS AVE, DALLAS, TX, 75214",102919695,"R"
258499,"6120 SWISS AVE UNIT 141121","DALLAS","TX",75214,32.8136351970001,-96.756355701,499,"6120 SWISS AVE UNIT 141121, DALLAS, TX, 75214","Match","Exact","6120 SWISS AVE, DALLAS, TX, 75214",102919695,"R"
258500,"6120 TUSCANY CR NW","CANTON","OH",44718,40.8694632520001,-81.478943123,500,"6120 TUSCANY CR NW, CANTON, OH, 44718","Match","Exact","6120 TUSCANY CIR NW, CANTON, OH, 44718",64700428,"R"
