"ID","Address","City","State","Zip","lat","long","id","input_address","match_indicator","match_type","matched_address","tiger_line_id","tiger_side"
131501,"2381 LONGMEADOW ST NW","GRAND RAPIDS","MI",49504,43.001128991,-85.7275836749999,1,"2381 LONGMEADOW ST NW, GRAND RAPIDS, MI, 49504","Match","Exact","2381 LONGMEADOW ST NW, GRAND RAPIDS, MI, 49504",638546295,"R"
131502,"2381 N STATE ROAD 550","VINCENNES","IN",47591,38.714485498,-87.375669318,2,"2381 N STATE ROAD 550, VINCENNES, IN, 47591","Match","Non_Exact","2381 N STATE RD 550, VINCENNES, IN, 47591",30062367,"L"
131503,"2381 SHORTRIDGE COURT","ERIE","CO",80516,40.0370930620001,-105.080799519,3,"2381 SHORTRIDGE COURT, ERIE, CO, 80516","Match","Exact","2381 SHORTRIDGE CT, ERIE, CO, 80516",188239091,"R"
131504,"2381 VERA AVE","CINCINNATI","OH",45237,39.1915024370001,-84.44510447,4,"2381 VERA AVE, CINCINNATI, OH, 45237","Match","Exact","2381 VERA AVE, CINCINNATI, OH, 45237",103929099,"R"
131505,"2381 WALNUT BOTTOM ROAD","CARLISLE","PA",17015,40.1294984470001,-77.2891432769999,5,"2381 WALNUT BOTTOM ROAD, CARLISLE, PA, 17015","Match","Exact","2381 WALNUT BOTTOM RD, CARLISLE, PA, 17015",647935066,"L"
131506,"23811 132ND AVE SE APT M1","KENT","WA",98042,47.388522273,-122.165452527,6,"23811 132ND AVE SE APT M1, KENT, WA, 98042","Match","Exact","23811 132ND AVE SE, KENT, WA, 98042",187045800,"L"
131507,"23811 BRIER RD","BRIER","WA",98036,47.782298106,-122.27427629,7,"23811 BRIER RD, BRIER, WA, 98036","Match","Exact","23811 BRIER RD, BRIER, WA, 98036",187757663,"L"
131508,"23811 WASHINGTON AVE C110 - 210","MURRIETA","CA",92562,33.5721790280001,-117.234269034,8,"23811 WASHINGTON AVE C110 - 210, MURRIETA, CA, 92562","Match","Exact","23811 WASHINGTON AVE, MURRIETA, CA, 92562",637399355,"L"
131509,"23811 WASHINGTON AVE C110-252","MURRIETA","CA",92562,33.5721790280001,-117.234269034,9,"23811 WASHINGTON AVE C110-252, MURRIETA, CA, 92562","Match","Exact","23811 WASHINGTON AVE, MURRIETA, CA, 92562",637399355,"L"
131510,"23811 WASHINGTON AVE C110-342","MURRIETA","CA",92562,33.5721790280001,-117.234269034,10,"23811 WASHINGTON AVE C110-342, MURRIETA, CA, 92562","Match","Exact","23811 WASHINGTON AVE, MURRIETA, CA, 92562",637399355,"L"
131511,"23812 GREENVILLE BORDEN RD","BORDEN","IN",47106,38.413965196,-85.9575824679999,11,"23812 GREENVILLE BORDEN RD, BORDEN, IN, 47106","Match","Exact","23812 GREENVILLE BORDEN RD, BORDEN, IN, 47106",653405802,"L"
131512,"23812 LEXINGTON","EASTPOINTE","MI",48021,42.470804796,-82.934443195,12,"23812 LEXINGTON, EASTPOINTE, MI, 48021","Match","Non_Exact","23812 LEXINGTON AVE, EASTPOINTE, MI, 48021",110684740,"R"
131513,"23813 COUNTY ROAD 44-A","EUSTIS","FL",32736,NA,NA,13,"23813 COUNTY ROAD 44-A, EUSTIS, FL, 32736","No_Match",NA,NA,NA,NA
131514,"23813 W TRAIL WEST","PLEVNA","KS",67568,37.9703610820001,-98.27446989,14,"23813 W TRAIL WEST, PLEVNA, KS, 67568","Match","Non_Exact","23813 W TRAIL WEST RD, PLEVNA, KS, 67568",142941895,"R"
131515,"23814 114TH AVE SE","KENT","WA",98031,47.387996097,-122.189430992,15,"23814 114TH AVE SE, KENT, WA, 98031","Match","Exact","23814 114TH AVE SE, KENT, WA, 98031",648714771,"L"
131516,"23815 BARSTOW STREET","SPRING","TX",77389,30.1103314370001,-95.504900879,16,"23815 BARSTOW STREET, SPRING, TX, 77389","Match","Exact","23815 BARSTOW ST, SPRING, TX, 77389",96001956,"L"
131517,"23815 NORTHWESTERN HIGHWAY STE 2000","SOUTHFIELD","MI",48075,42.4642319210001,-83.230163282,17,"23815 NORTHWESTERN HIGHWAY STE 2000, SOUTHFIELD, MI, 48075","Match","Exact","23815 NORTHWESTERN HWY, SOUTHFIELD, MI, 48075",69815665,"L"
131518,"23817 230TH PLACE SE","MAPLE VALLEY","WA",98038,47.388357,-122.034124525,18,"23817 230TH PLACE SE, MAPLE VALLEY, WA, 98038","Match","Exact","23817 230TH PL SE, MAPLE VALLEY, WA, 98038",186957041,"R"
131519,"23818 SAN BARRIA DRIVE","KATY","TX",77493,29.8356276740001,-95.788579974,19,"23818 SAN BARRIA DRIVE, KATY, TX, 77493","Match","Exact","23818 SAN BARRIA DR, KATY, TX, 77493",646717401,"L"
131520,"23819 EAST GROVELAND ROAD","BEACHWOOD","OH",44122,41.4970617120001,-81.5108646199999,20,"23819 EAST GROVELAND ROAD, BEACHWOOD, OH, 44122","Match","Exact","23819 E GROVELAND RD, BEACHWOOD, OH, 44122",61134137,"L"
131521,"2382 ALLEN ROAD","ELK","WA",99099,48.0557666180001,-117.293149453,21,"2382 ALLEN ROAD, ELK, WA, 99099","Match","Non_Exact","2382 ALLEN RD, ELK, WA, 99009",169919444,"L"
131522,"2382 E MOUNTAIN STREET","PASADENA","CA",91104,34.1615246430001,-118.101651099,22,"2382 E MOUNTAIN STREET, PASADENA, CA, 91104","Match","Exact","2382 E MOUNTAIN ST, PASADENA, CA, 91104",141632380,"R"
131523,"2382 HARRISON ST","LARAMIE","WY",82070,41.307497223,-105.628890941,23,"2382 HARRISON ST, LARAMIE, WY, 82070","Match","Non_Exact","2382 W HARRISON ST, LARAMIE, WY, 82070",168738895,"L"
131524,"2382 HIGHWAY 24","NEWPORT","NC",28570,NA,NA,24,"2382 HIGHWAY 24, NEWPORT, NC, 28570","No_Match",NA,NA,NA,NA
131525,"2382 N LEMON AVE SUITE 208","WALNUT","CA",91789,NA,NA,25,"2382 N LEMON AVE SUITE 208, WALNUT, CA, 91789","No_Match",NA,NA,NA,NA
131526,"2382 NW LOVEJOY ST","PORTLAND","OR",97210,45.529753316,-122.700195144,26,"2382 NW LOVEJOY ST, PORTLAND, OR, 97210","Match","Exact","2382 NW LOVEJOY ST, PORTLAND, OR, 97210",157498116,"L"
131527,"2382 OLD FOUNTAIN ROAD","LAWRENCEVILLE","GA",30043,34.024344403,-83.9274839289999,27,"2382 OLD FOUNTAIN ROAD, LAWRENCEVILLE, GA, 30043","Match","Exact","2382 OLD FOUNTAIN RD, LAWRENCEVILLE, GA, 30043",632655067,"R"
131528,"2382 SCHOLARSHIP","IRVINE","CA",92612,33.6675533960001,-117.851494151,28,"2382 SCHOLARSHIP, IRVINE, CA, 92612","Match","Exact","2382 SCHOLARSHIP, IRVINE, CA, 92612",144383372,"R"
131529,"2382 WINDMILL CREEK ROAD","CHINO HILLS","CA",91709,33.98901512,-117.752534173,29,"2382 WINDMILL CREEK ROAD, CHINO HILLS, CA, 91709","Match","Exact","2382 WINDMILL CREEK RD, CHINO HILLS, CA, 91709",144968206,"L"
131530,"23820 SARA COURT","CRETE","IL",60417,41.459829153,-87.5570716509999,30,"23820 SARA COURT, CRETE, IL, 60417","Match","Non_Exact","23820 S SARA CT, CRETE, IL, 60417",617398096,"R"
131531,"23820 SARAH COURT","CRETE","IL",60417,NA,NA,31,"23820 SARAH COURT, CRETE, IL, 60417","No_Match",NA,NA,NA,NA
131532,"23821 FIELDCREST LN","MURRIETA","CA",92562,33.568249532,-117.235813164,32,"23821 FIELDCREST LN, MURRIETA, CA, 92562","Match","Exact","23821 FIELDCREST LN, MURRIETA, CA, 92562",195088441,"L"
131533,"23821 SE 5TH ST","SAMMAMISH","WA",98074,47.605079609,-122.021767052,33,"23821 SE 5TH ST, SAMMAMISH, WA, 98074","Match","Exact","23821 SE 5TH ST, SAMMAMISH, WA, 98074",186942846,"L"
131534,"23823 MALIBU RD 108","MALIBU","CA",90265,34.0335232140001,-118.693912393,34,"23823 MALIBU RD 108, MALIBU, CA, 90265","Match","Exact","23823 MALIBU RD, MALIBU, CA, 90265",142838258,"L"
131535,"23823 MALIBU ROAD / STE 50416","MALIBU","CA",90265,34.0335232140001,-118.693912393,35,"23823 MALIBU ROAD / STE 50416, MALIBU, CA, 90265","Match","Exact","23823 MALIBU RD, MALIBU, CA, 90265",142838258,"L"
131536,"23825 30TH STREET","STEWART","MN",55385,44.6517173220001,-94.474934305,36,"23825 30TH STREET, STEWART, MN, 55385","Match","Exact","23825 30TH ST, STEWART, MN, 55385",36816180,"R"
131537,"23828 MERVELL DEAN RD","HOLLYWOOD","MD",20636,38.321339075,-76.5440302539999,37,"23828 MERVELL DEAN RD, HOLLYWOOD, MD, 20636","Match","Exact","23828 MERVELL DEAN RD, HOLLYWOOD, MD, 20636",642620188,"R"
131538,"23828 TOMBALL PARKWAY","TOMBALL","TX",77375,NA,NA,38,"23828 TOMBALL PARKWAY, TOMBALL, TX, 77375","No_Match",NA,NA,NA,NA
131539,"2383 292ND ST","OSKALOOSA","IA",52577,41.2301125230001,-92.610218886,39,"2383 292ND ST, OSKALOOSA, IA, 52577","Match","Exact","2383 292ND ST, OSKALOOSA, IA, 52577",89381565,"R"
131540,"2383 2ND AVE S","SAINT PETERSBURG","FL",33712,27.7692449780001,-82.665478637,40,"2383 2ND AVE S, SAINT PETERSBURG, FL, 33712","Match","Exact","2383 2ND AVE S, SAINT PETERSBURG, FL, 33712",124705999,"R"
131541,"2383 AKERS MILL RD","ALTANTA","GA",30339,NA,NA,41,"2383 AKERS MILL RD, ALTANTA, GA, 30339","No_Match",NA,NA,NA,NA
131542,"2383 AKERS MILL ROAD SE APT U7","ATLANTA","GA",30339,33.8947237410001,-84.452155029,42,"2383 AKERS MILL ROAD SE APT U7, ATLANTA, GA, 30339","Match","Exact","2383 AKERS MILL RD SE, ATLANTA, GA, 30339",17267781,"L"
131543,"2383 BAKER MOUNTAIN ROAD","YELLOW SPRING","VA",26865,NA,NA,43,"2383 BAKER MOUNTAIN ROAD, YELLOW SPRING, VA, 26865","No_Match",NA,NA,NA,NA
131544,"2383 BELLAROSA CIRCLE","ROYAL PALM BEACH","FL",33411,26.7194554760001,-80.2114594929999,44,"2383 BELLAROSA CIRCLE, ROYAL PALM BEACH, FL, 33411","Match","Exact","2383 BELLAROSA CIR, ROYAL PALM BEACH, FL, 33411",629926437,"R"
131545,"2383 BROADMOOR LN","COLUMBUS","IN",47203,39.2348310020001,-85.898564075,45,"2383 BROADMOOR LN, COLUMBUS, IN, 47203","Match","Exact","2383 BROADMOOR LN, COLUMBUS, IN, 47203",30979837,"R"
131546,"2383 CORONADO AVENUE","VINELAND","NJ",8360,39.4524086810001,-75.0515928189999,46,"2383 CORONADO AVENUE, VINELAND, NJ, 8360","Match","Non_Exact","2383 CORONADO DR, VINELAND, NJ, 08360",617570839,"L"
131547,"2383 CORONADO DRIVE","VINELAND","NJ",8360,39.4524086810001,-75.0515928189999,47,"2383 CORONADO DRIVE, VINELAND, NJ, 8360","Match","Exact","2383 CORONADO DR, VINELAND, NJ, 08360",617570839,"L"
131548,"2383 HICKS PIKE","CYNTHIANA","KY",41031,38.3284948300001,-84.4090721329999,48,"2383 HICKS PIKE, CYNTHIANA, KY, 41031","Match","Exact","2383 HICKS PIKE, CYNTHIANA, KY, 41031",57895330,"L"
131549,"2383 NETHERLANDS DR         UNIT 3","CLEARWATER","FL",33763,28.0078714360001,-82.737840763,49,"2383 NETHERLANDS DR         UNIT 3, CLEARWATER, FL, 33763","Match","Exact","2383 NETHERLANDS DR, CLEARWATER, FL, 33763",647878877,"R"
131550,"2383 NORTHPOINTE DR","MIAMISBURG","OH",45342,39.6374160780001,-84.241242379,50,"2383 NORTHPOINTE DR, MIAMISBURG, OH, 45342","Match","Exact","2383 NORTHPOINTE DR, MIAMISBURG, OH, 45342",629165784,"L"
131551,"23830 FRONT AVE","MATTAWAN","MI",49071,NA,NA,51,"23830 FRONT AVE, MATTAWAN, MI, 49071","No_Match",NA,NA,NA,NA
131552,"23830 JONATHAN PLACE","MURRIETA","CA",92562,33.5713509550001,-117.22883348,52,"23830 JONATHAN PLACE, MURRIETA, CA, 92562","Match","Exact","23830 JONATHAN PL, MURRIETA, CA, 92562",635970943,"R"
131553,"23833 NW 182ND RD","HIGH SPRINGS","FL",32643,NA,NA,53,"23833 NW 182ND RD, HIGH SPRINGS, FL, 32643","No_Match",NA,NA,NA,NA
131554,"23833 W CORONA AVE","BUCKEYE","AZ",85326,33.405934046,-112.563364453,54,"23833 W CORONA AVE, BUCKEYE, AZ, 85326","Match","Exact","23833 W CORONA AVE, BUCKEYE, AZ, 85326",627231131,"L"
131555,"23835 BELLA VISTA DRIVE","NEWHALL","CA",91321,34.3712343120001,-118.550818619,55,"23835 BELLA VISTA DRIVE, NEWHALL, CA, 91321","Match","Exact","23835 BELLA VISTA DR, NEWHALL, CA, 91321",645531340,"R"
131556,"23835 LAKEVIEW DR","RIO HONDO","TX",78583,26.213321428,-97.585678978,56,"23835 LAKEVIEW DR, RIO HONDO, TX, 78583","Match","Exact","23835 LAKEVIEW DR, RIO HONDO, TX, 78583",624902320,"R"
131557,"23835 NAPLES SHORE DRIVE","KATY","TX",77493,29.8420184980001,-95.788413815,57,"23835 NAPLES SHORE DRIVE, KATY, TX, 77493","Match","Exact","23835 NAPLES SHORE DR, KATY, TX, 77493",652672998,"L"
131558,"23838 PACIFIC COAST HIGHWAY 112","MALIBU","CA",90265,34.0351183920001,-118.697413501,58,"23838 PACIFIC COAST HIGHWAY 112, MALIBU, CA, 90265","Match","Exact","23838 PACIFIC COAST HWY, MALIBU, CA, 90265",241104963,"R"
131559,"23838 PACIFIC COAST HWY UNIT 2852","MALIBU","CA",90265,34.0351183920001,-118.697413501,59,"23838 PACIFIC COAST HWY UNIT 2852, MALIBU, CA, 90265","Match","Exact","23838 PACIFIC COAST HWY, MALIBU, CA, 90265",241104963,"R"
131560,"23839 BEAVERWOOD DR","SPRING","TX",77373,30.0633328770001,-95.3802476559999,60,"23839 BEAVERWOOD DR, SPRING, TX, 77373","Match","Exact","23839 BEAVERWOOD DR, SPRING, TX, 77373",96042529,"L"
131561,"23839 COUNTY ROAD 1660","STONEWALL","OK",74871,34.60733251,-96.535514438,61,"23839 COUNTY ROAD 1660, STONEWALL, OK, 74871","Match","Exact","23839 CO RD 1660, STONEWALL, OK, 74871",606933740,"R"
131562,"23839 COUNTY ROAD 17","COSHOCTON","OH",43812,40.3023520560001,-82.010710219,62,"23839 COUNTY ROAD 17, COSHOCTON, OH, 43812","Match","Exact","23839 CO RD 17, COSHOCTON, OH, 43812",52111467,"L"
131563,"23839 DEL MONTE DR SUITE 88","VALENCIA","CA",91355,34.4119067440001,-118.551326521,63,"23839 DEL MONTE DR SUITE 88, VALENCIA, CA, 91355","Match","Non_Exact","23839 DEL MONTE DR, VALENCIA, CA, 91355",142701721,"L"
131564,"2384 BALL DRIVE","RICHFIELD","WI",53076,43.276364834,-88.234457025,64,"2384 BALL DRIVE, RICHFIELD, WI, 53076","Match","Exact","2384 BALL DR, RICHFIELD, WI, 53076",79566047,"L"
131565,"2384 CLIFTON SPRINGS MANOR","DECATUR","GA",30034,33.6894349470001,-84.292106602,65,"2384 CLIFTON SPRINGS MANOR, DECATUR, GA, 30034","Match","Exact","2384 CLIFTON SPRINGS MANOR, DECATUR, GA, 30034",23369133,"L"
131566,"2384 E STAGECOACH ROAD","KILLEEN","TX",76542,NA,NA,66,"2384 E STAGECOACH ROAD, KILLEEN, TX, 76542","Tie",NA,NA,NA,NA
131567,"2384 N QUINCY STREET","ARLINGTON","VA",22207,38.9030182500001,-77.1052988609999,67,"2384 N QUINCY STREET, ARLINGTON, VA, 22207","Match","Exact","2384 N QUINCY ST, ARLINGTON, VA, 22207",76469325,"L"
131568,"2384 ORIOLE ST","OAK HARBOR","WA",98277,48.294872216,-122.632472676,68,"2384 ORIOLE ST, OAK HARBOR, WA, 98277","Match","Exact","2384 ORIOLE ST, OAK HARBOR, WA, 98277",187613065,"R"
131569,"2384 ROUTE 34B","AURORA","NY",13026,42.7347342840001,-76.617642755,69,"2384 ROUTE 34B, AURORA, NY, 13026","Match","Non_Exact","2384 STATE RTE 34B, AURORA, NY, 13026",640042496,"R"
131570,"2384 S ROBERT CT","ROUND LAKE","IL",60073,42.30434819,-88.089655723,70,"2384 S ROBERT CT, ROUND LAKE, IL, 60073","Match","Exact","2384 ROBERT CT, ROUND LAKE, IL, 60073",119758609,"L"
131571,"2384 STATE ROUTE 34B","AURORA","NY",13026,42.7347342840001,-76.617642755,71,"2384 STATE ROUTE 34B, AURORA, NY, 13026","Match","Exact","2384 STATE RTE 34B, AURORA, NY, 13026",640042496,"R"
131572,"23841 LONGACRE STREET","FARMINGTON","MI",48335,42.4663835580001,-83.390354026,72,"23841 LONGACRE STREET, FARMINGTON, MI, 48335","Match","Exact","23841 LONGACRE ST, FARMINGTON, MI, 48335",69806667,"L"
131573,"23844 MARCELLUS HWY","DOWAGIAC","MI",49047,42.0125088410001,-86.0274194839999,73,"23844 MARCELLUS HWY, DOWAGIAC, MI, 49047","Match","Exact","23844 MARCELLUS HWY, DOWAGIAC, MI, 49047",22578327,"L"
131574,"23844 SW 107TH PLACE","HOMESTEAD","FL",33032,25.5457508050001,-80.365223256,74,"23844 SW 107TH PLACE, HOMESTEAD, FL, 33032","Match","Exact","23844 SW 107TH PL, HOMESTEAD, FL, 33032",624582505,"R"
131575,"23846 MATADOR WAY","MURRIETA","CA",92562,33.590140487,-117.208756343,75,"23846 MATADOR WAY, MURRIETA, CA, 92562","Match","Exact","23846 MATADOR WAY, MURRIETA, CA, 92562",194846795,"R"
131576,"23846 SUNNYMEAD BLVD SUITE 15","MORENO VALLEY","CA",92553,33.939048524,-117.246973,76,"23846 SUNNYMEAD BLVD SUITE 15, MORENO VALLEY, CA, 92553","Match","Exact","23846 SUNNYMEAD BLVD, MORENO VALLEY, CA, 92553",194749349,"L"
131577,"2385 ACTON PARK CIRCLE","BIRMINGHAM","AL",35243,33.426395402,-86.743725933,77,"2385 ACTON PARK CIRCLE, BIRMINGHAM, AL, 35243","Match","Exact","2385 ACTON PARK CIR, BIRMINGHAM, AL, 35243",646805060,"R"
131578,"2385 AVENUE B","BEAUMONT","TX",77701,30.0633606550001,-94.099948164,78,"2385 AVENUE B, BEAUMONT, TX, 77701","Match","Exact","2385 AVE B, BEAUMONT, TX, 77701",73856830,"L"
131579,"2385 BULVERDE ROAD","BULVERDE","TX",78163,29.7433987920001,-98.4518150279999,79,"2385 BULVERDE ROAD, BULVERDE, TX, 78163","Match","Exact","2385 BULVERDE RD, BULVERDE, TX, 78163",640406806,"L"
131580,"2385 CABRILLO AVENUE","SANTA CLARA","CA",95050,37.3590395140001,-121.967697256,80,"2385 CABRILLO AVENUE, SANTA CLARA, CA, 95050","Match","Exact","2385 CABRILLO AVE, SANTA CLARA, CA, 95050",122898923,"R"
131581,"2385 CORBETT STREET","JACKSONVILLE","FL",32204,30.328495923,-81.690066873,81,"2385 CORBETT STREET, JACKSONVILLE, FL, 32204","Match","Exact","2385 CORBETT ST, JACKSONVILLE, FL, 32204",83938632,"L"
131582,"2385 CORNELL CIRCLE","CORONA","CA",92881,33.84341734,-117.53907152,82,"2385 CORNELL CIRCLE, CORONA, CA, 92881","Match","Exact","2385 CORNELL CIR, CORONA, CA, 92881",608996577,"R"
131583,"2385 DEFOORS FERRY RD NW","ATLANTA","GA",30318,33.8201643990001,-84.4352373839999,83,"2385 DEFOORS FERRY RD NW, ATLANTA, GA, 30318","Match","Exact","2385 DEFOORS FERRY RD NW, ATLANTA, GA, 30318",618352503,"R"
131584,"2385 EAGLECREST DR","LEHI","UT",84043,40.41813783,-111.846384927,84,"2385 EAGLECREST DR, LEHI, UT, 84043","Match","Exact","2385 EAGLECREST DR, LEHI, UT, 84043",134246423,"R"
131585,"2385 GAREY ROAD NE","JUNCTION CITY","OH",43748,39.734773955,-82.283034521,85,"2385 GAREY ROAD NE, JUNCTION CITY, OH, 43748","Match","Exact","2385 GAREY RD NE, JUNCTION CITY, OH, 43748",37380978,"L"
131586,"2385 GRAND AVENUE","BALDWIN","NY",11510,40.6524343,-73.61152594,86,"2385 GRAND AVENUE, BALDWIN, NY, 11510","Match","Exact","2385 GRAND AVE, BALDWIN, NY, 11510",640606689,"L"
131587,"2385 HILLVIEW DRIVE","LAGUNA BEACH","CA",92651,33.5495042850001,-117.760982624,87,"2385 HILLVIEW DRIVE, LAGUNA BEACH, CA, 92651","Match","Exact","2385 HILLVIEW DR, LAGUNA BEACH, CA, 92651",144090812,"R"
131588,"2385 HOPI CIRCLE","BISHOP","CA",93514,37.3865878080001,-118.418351348,88,"2385 HOPI CIRCLE, BISHOP, CA, 93514","Match","Exact","2385 HOPI CIR, BISHOP, CA, 93514",175848447,"L"
131589,"2385 MIDWAY RD SUITE 100","CARROLLTON","TX",75006,32.9754446160001,-96.843087209,89,"2385 MIDWAY RD SUITE 100, CARROLLTON, TX, 75006","Match","Exact","2385 MIDWAY RD, CARROLLTON, TX, 75006",653226369,"R"
131590,"2385 MINT BLVD","FAIRFIELD","IA",52556,40.9610517080001,-91.922026629,90,"2385 MINT BLVD, FAIRFIELD, IA, 52556","Match","Exact","2385 MINT BLVD, FAIRFIELD, IA, 52556",84425863,"R"
131591,"2385 NIUMALU RD","LIHUE","HI",96766,NA,NA,91,"2385 NIUMALU RD, LIHUE, HI, 96766","No_Match",NA,NA,NA,NA
131592,"2385 NW EXECUTIVE CENTER DR STE 100","BOCA RATON","FL",33431,26.3693559880001,-80.1287353129999,92,"2385 NW EXECUTIVE CENTER DR STE 100, BOCA RATON, FL, 33431","Match","Non_Exact","2385 EXECUTIVE CENTER DR NW, BOCA RATON, FL, 33431",115301892,"L"
131593,"2385 NW EXECUTIVE CENTER DR STE 350","BOCA RATON","FL",33431,26.3693559880001,-80.1287353129999,93,"2385 NW EXECUTIVE CENTER DR STE 350, BOCA RATON, FL, 33431","Match","Non_Exact","2385 EXECUTIVE CENTER DR NW, BOCA RATON, FL, 33431",115301892,"L"
131594,"2385 OAK STREET","SALEM","OH",44460,40.8974417150001,-80.828335468,94,"2385 OAK STREET, SALEM, OH, 44460","Match","Exact","2385 OAK ST, SALEM, OH, 44460",63651286,"R"
131595,"2385 S FAIRVIEW AVE","FRESNO","CA",93706,36.7146474800001,-119.804350161,95,"2385 S FAIRVIEW AVE, FRESNO, CA, 93706","Match","Exact","2385 S FAIRVIEW AVE, FRESNO, CA, 93706",197579550,"L"
131596,"2385 S HURON PARKWAY","ANN ARBOR","MI",48104,42.253367779,-83.698209487,96,"2385 S HURON PARKWAY, ANN ARBOR, MI, 48104","Match","Exact","2385 S HURON PKWY, ANN ARBOR, MI, 48104",26016646,"L"
131597,"2385 S HURON PKWY STE 2N","ANN ARBOR","MI",48104,42.253367779,-83.698209487,97,"2385 S HURON PKWY STE 2N, ANN ARBOR, MI, 48104","Match","Non_Exact","2385 S HURON PKWY, ANN ARBOR, MI, 48104",26016646,"L"
131598,"2385 SUMMIT OAKS CT","LAWRENCEVILLE","GA",30043,33.9982866730001,-84.0634494619999,98,"2385 SUMMIT OAKS CT, LAWRENCEVILLE, GA, 30043","Match","Exact","2385 SUMMIT OAKS CT, LAWRENCEVILLE, GA, 30043",623837014,"R"
131599,"2385 TAHITIAN LN APT 21","CLEARWATER","FL",33763,28.0074455710001,-82.736569319,99,"2385 TAHITIAN LN APT 21, CLEARWATER, FL, 33763","Match","Exact","2385 TAHITIAN LN, CLEARWATER, FL, 33763",124681421,"R"
131600,"2385 W ELM ST","WRIGHTSVILLE","GA",31096,32.7294783670001,-82.725017905,100,"2385 W ELM ST, WRIGHTSVILLE, GA, 31096","Match","Exact","2385 W ELM ST, WRIGHTSVILLE, GA, 31096",100827797,"R"
131601,"2385 WALL ST","CONYER","FM",30013,NA,NA,101,"2385 WALL ST, CONYER, FM, 30013","No_Match",NA,NA,NA,NA
131602,"2385 WORTHINGTON DRIVE","POWDER SPRING","GA",30127,33.8328766280001,-84.680364485,102,"2385 WORTHINGTON DRIVE, POWDER SPRING, GA, 30127","Match","Non_Exact","2385 WORTHINGTON DR, POWDER SPGS, GA, 30127",642999295,"L"
131603,"2385 XAVIER DR SE","MASSILLON","OH",44646,40.7702817310001,-81.4917514799999,103,"2385 XAVIER DR SE, MASSILLON, OH, 44646","Match","Exact","2385 XAVIER DR SE, MASSILLON, OH, 44646",64713454,"L"
131604,"23851 YALE","DEARBORN","MI",48124,42.2885939600001,-83.268790993,104,"23851 YALE, DEARBORN, MI, 48124","Match","Non_Exact","23851 YALE ST, DEARBORN, MI, 48124",95436429,"L"
131605,"23852 PARKLAND AVENUE","MORENO VALLEY","CA",92557,33.9585434110001,-117.246495965,105,"23852 PARKLAND AVENUE, MORENO VALLEY, CA, 92557","Match","Exact","23852 PARKLAND AVE, MORENO VALLEY, CA, 92557",194790195,"R"
131606,"23853 BETTS PLACE","MORENO VALLEY","CA",92553,33.9231367730001,-117.247051003,106,"23853 BETTS PLACE, MORENO VALLEY, CA, 92553","Match","Exact","23853 BETTS PL, MORENO VALLEY, CA, 92553",194747731,"R"
131607,"23853 CATAMARAN WAY","LAGUNA NIGUEL","CA",92677,33.49411086,-117.713594308,107,"23853 CATAMARAN WAY, LAGUNA NIGUEL, CA, 92677","Match","Exact","23853 CATAMARAN WAY, LAGUNA NIGUEL, CA, 92677",640214273,"L"
131608,"23853 SW 107TH COURT","HOMESTEAD","FL",33032,25.5455607690001,-80.364410198,108,"23853 SW 107TH COURT, HOMESTEAD, FL, 33032","Match","Exact","23853 SW 107TH CT, HOMESTEAD, FL, 33032",625021464,"L"
131609,"23854 E CR 2100 N","OAKLAND","IL",61943,NA,NA,109,"23854 E CR 2100 N, OAKLAND, IL, 61943","No_Match",NA,NA,NA,NA
131610,"23856 ROAD 265 N","HAVRE","MT",59501,NA,NA,110,"23856 ROAD 265 N, HAVRE, MT, 59501","No_Match",NA,NA,NA,NA
131611,"23858 BRAZIL CREEK LOOP","SHADY POINT","OK",74956,35.1454064480001,-94.68036349,111,"23858 BRAZIL CREEK LOOP, SHADY POINT, OK, 74956","Match","Exact","23858 BRAZIL CREEK LOOP, SHADY POINT, OK, 74956",606804476,"L"
131612,"23859 BANAS ROAD","COLTON","CA",92324,34.036573209,-117.284553652,112,"23859 BANAS ROAD, COLTON, CA, 92324","Match","Non_Exact","23859 BANAS DR, COLTON, CA, 92324",144977641,"L"
131613,"2386 BENTLEY RIDGE DRIVE","SAN JOSE","CA",95138,37.2864717080001,-121.771496493,113,"2386 BENTLEY RIDGE DRIVE, SAN JOSE, CA, 95138","Match","Exact","2386 BENTLEY RIDGE DR, SAN JOSE, CA, 95138",618191422,"L"
131614,"2386 E DEL MAR BLVD - UNIT 219","PASADENA","CA",91107,NA,NA,114,"2386 E DEL MAR BLVD - UNIT 219, PASADENA, CA, 91107","No_Match",NA,NA,NA,NA
131615,"2386 FAIR OAKS BLVD 100","SACRAMENTO","CA",95825,38.574514021,-121.406888067,115,"2386 FAIR OAKS BLVD 100, SACRAMENTO, CA, 95825","Match","Exact","2386 FAIR OAKS BLVD, SACRAMENTO, CA, 95825",133422403,"R"
131616,"2386 HANCOCK ROAD","WILLIAMSTOWN","MA",1267,42.617242967,-73.2839879049999,116,"2386 HANCOCK ROAD, WILLIAMSTOWN, MA, 1267","Match","Exact","2386 HANCOCK RD, WILLIAMSTOWN, MA, 01267",3918675,"R"
131617,"2386 LACEY DRIVE","MILPITAS","CA",95035,37.43369589,-121.865687638,117,"2386 LACEY DRIVE, MILPITAS, CA, 95035","Match","Exact","2386 LACEY DR, MILPITAS, CA, 95035",122961318,"R"
131618,"2386 MEYERS DR","SANTA ROSA","CA",95403,38.4629484640001,-122.722876245,118,"2386 MEYERS DR, SANTA ROSA, CA, 95403","Match","Exact","2386 MEYERS DR, SANTA ROSA, CA, 95403",67468557,"R"
131619,"2386 SHOAFF ROAD","HUNTERTOWN","IN",46748,41.2397836710001,-85.1776490789999,119,"2386 SHOAFF ROAD, HUNTERTOWN, IN, 46748","Match","Non_Exact","2386 W SHOAFF RD, HUNTERTOWN, IN, 46748",645430253,"R"
131620,"2386 TROLLEY BRIDGE ROAD","QUAKERTOWN","PA",18951,40.4855548940001,-75.39702844,120,"2386 TROLLEY BRIDGE ROAD, QUAKERTOWN, PA, 18951","Match","Exact","2386 TROLLEY BRIDGE RD, QUAKERTOWN, PA, 18951",134782786,"R"
131621,"2386-A DUNWOODY CROSSINGS","ATLANTA","GA",30338,33.921421412,-84.29094477,121,"2386-A DUNWOODY CROSSINGS, ATLANTA, GA, 30338","Match","Non_Exact","2386 DUNWOODY CROSSING, ATLANTA, GA, 30338",23412881,"L"
131622,"23861 140TH AVE","MAHNOMEN","MN",56557,47.2990865190001,-95.9708000859999,122,"23861 140TH AVE, MAHNOMEN, MN, 56557","Match","Exact","23861 140TH AVE, MAHNOMEN, MN, 56557",606430828,"L"
131623,"23862 SW 109 PLACE","MIAMI","FL",33032,25.5456820700001,-80.369146131,123,"23862 SW 109 PLACE, MIAMI, FL, 33032","Match","Non_Exact","23862 SW 109TH PL, NARANJA, FL, 33032",624582638,"R"
131624,"23866 MOUNTAIN LAUREL CT","MURRIETTA","CA",92562,33.580422302,-117.219520046,124,"23866 MOUNTAIN LAUREL CT, MURRIETTA, CA, 92562","Match","Non_Exact","23866 MOUNTAIN LAUREL CT, MURRIETA, CA, 92562",194846433,"R"
131625,"23867 HOBBS RD","NOBLESVILLE","IN",46060,40.135597671,-85.9111844769999,125,"23867 HOBBS RD, NOBLESVILLE, IN, 46060","Match","Exact","23867 HOBBS RD, NOBLESVILLE, IN, 46060",29301873,"L"
131626,"23868 VICTORY BLVD","LOS ANGELES","CA",91367,34.1863615830001,-118.645865449,126,"23868 VICTORY BLVD, LOS ANGELES, CA, 91367","Match","Non_Exact","23868 VICTORY BLVD, WOODLAND HILLS, CA, 91367",141722924,"L"
131627,"2386A RICE BLVD SUITE 197","2386A RICE BLVD 197","TX",77005,29.7174800830001,-95.4146475969999,127,"2386A RICE BLVD SUITE 197, 2386A RICE BLVD 197, TX, 77005","Match","Non_Exact","2386 RICE BLVD, HOUSTON, TX, 77005",96063831,"R"
131628,"2387 BROPHY ROAD","EAGLE POINT","OR",97524,42.50270498,-122.757817889,128,"2387 BROPHY ROAD, EAGLE POINT, OR, 97524","Match","Exact","2387 BROPHY RD, EAGLE POINT, OR, 97524",155507637,"L"
131629,"2387 DARTMOUTH DRIVE","REDDING","CA",96001,40.5635244310001,-122.42486309,129,"2387 DARTMOUTH DRIVE, REDDING, CA, 96001","Match","Exact","2387 DARTMOUTH DR, REDDING, CA, 96001",629156682,"L"
131630,"2387 PENNSYLVANIA AVENUE","MARYVILLE","TN",37804,35.7878355920001,-83.9480108939999,130,"2387 PENNSYLVANIA AVENUE, MARYVILLE, TN, 37804","Match","Exact","2387 PENNSYLVANIA AVE, MARYVILLE, TN, 37804",89848772,"L"
131631,"2387 RAINBOW DRIVE APARTMENT 19","DENVER","CO",80229,39.8548932570001,-104.957966846,131,"2387 RAINBOW DRIVE APARTMENT 19, DENVER, CO, 80229","Match","Exact","2387 RAINBOW DR, DENVER, CO, 80229",648341409,"L"
131632,"2387 REGENCY PARK DR","DELAND","FL",32724,28.9870892930001,-81.295316438,132,"2387 REGENCY PARK DR, DELAND, FL, 32724","Match","Exact","2387 REGENCY PARK DR, DELAND, FL, 32724",650757748,"R"
131633,"2387 WEST 68TH STREET SUITE 303","HIALEAH","FL",33016,25.884140836,-80.331580362,133,"2387 WEST 68TH STREET SUITE 303, HIALEAH, FL, 33016","Match","Exact","2387 W 68TH ST, HIALEAH, FL, 33016",609039841,"R"
131634,"2387 WEST CHURCH STREET","ORLANDO","FL",32805,28.540049783,-81.412919317,134,"2387 WEST CHURCH STREET, ORLANDO, FL, 32805","Match","Exact","2387 W CHURCH ST, ORLANDO, FL, 32805",94355101,"R"
131635,"23870 S BARD RD","ESTACADA","OR",97023,45.260696695,-122.326307957,135,"23870 S BARD RD, ESTACADA, OR, 97023","Match","Exact","23870 S BARD RD, ESTACADA, OR, 97023",157957506,"R"
131636,"23875 COMMERCE PARK ROAD SUITE 140","BEACHWOOD","OH",44122,41.458816278,-81.514340601,136,"23875 COMMERCE PARK ROAD SUITE 140, BEACHWOOD, OH, 44122","Match","Exact","23875 COMMERCE PARK, BEACHWOOD, OH, 44122",638511654,"L"
131637,"23875 NW 188TH AVENUE","HIGH SPRINGS","FL",32643,NA,NA,137,"23875 NW 188TH AVENUE, HIGH SPRINGS, FL, 32643","No_Match",NA,NA,NA,NA
131638,"23875 RIVER RD","CORNING","CA",96021,39.975181906,-122.143092844,138,"23875 RIVER RD, CORNING, CA, 96021","Match","Exact","23875 RIVER RD, CORNING, CA, 96021",119376998,"L"
131639,"23875 W STATE RT 65","GRAND RAPIDS","OH",43522,41.411719841,-83.8616050219999,139,"23875 W STATE RT 65, GRAND RAPIDS, OH, 43522","Match","Exact","23875 STATE RTE 65, GRAND RAPIDS, OH, 43522",38726011,"R"
131640,"23879 MADISON STREET","TORRANCE","CA",90505,33.8075771640001,-118.348869254,140,"23879 MADISON STREET, TORRANCE, CA, 90505","Match","Exact","23879 MADISON ST, TORRANCE, CA, 90505",641496945,"R"
131641,"2388 EAST SHORE LANE","CULVER","IN",46511,41.1929704130001,-86.393372447,141,"2388 EAST SHORE LANE, CULVER, IN, 46511","Match","Exact","2388 E SHORE LN, CULVER, IN, 46511",7645309,"L"
131642,"2388 LAMBERT DRIVE","ASHEBORO","NC",27205,35.6729590040001,-79.834786335,142,"2388 LAMBERT DRIVE, ASHEBORO, NC, 27205","Match","Exact","2388 LAMBERT DR, ASHEBORO, NC, 27205",20440608,"L"
131643,"2388 LIBERTY WAY","VIRGINIA BEACH","VA",23456,NA,NA,143,"2388 LIBERTY WAY, VIRGINIA BEACH, VA, 23456","No_Match",NA,NA,NA,NA
131644,"2388 N WOODBRIDGE RD","WHEELER","MI",48662,43.329366732,-84.409651856,144,"2388 N WOODBRIDGE RD, WHEELER, MI, 48662","Match","Exact","2388 N WOODBRIDGE RD, WHEELER, MI, 48662",80164630,"R"
131645,"2388 RUMLEY ROAD","LESLIE","AR",72645,35.7884347680001,-92.503578687,145,"2388 RUMLEY ROAD, LESLIE, AR, 72645","Match","Non_Exact","2388 RUMLEY RD N, LESLIE, AR, 72645",43424837,"R"
131646,"2388 SCENIC HWY","SNELLVILLE","GA",30078,NA,NA,146,"2388 SCENIC HWY, SNELLVILLE, GA, 30078","No_Match",NA,NA,NA,NA
131647,"23880 PURITAN RD","EUCLID","OH",44123,41.6041537470001,-81.515763094,147,"23880 PURITAN RD, EUCLID, OH, 44123","Match","Non_Exact","23880 PURITAN AVE, EUCLID, OH, 44123",61108466,"R"
131648,"23881 STATE HIGHWAY 49 WEST","JEFFERSON","TX",75657,32.7720618590001,-94.3899771329999,148,"23881 STATE HIGHWAY 49 WEST, JEFFERSON, TX, 75657","Match","Non_Exact","23881 STATE HWY 49, JEFFERSON, TX, 75657",57752018,"L"
131649,"23889 FM 1488","MAGNOLIA","TX",77355,30.189557859,-95.815230204,149,"23889 FM 1488, MAGNOLIA, TX, 77355","Match","Non_Exact","23889 FM 1488 RD, MAGNOLIA, TX, 77355",78363118,"R"
131650,"2389 BOHEMIAN HWY","OCCIDENTAL","CA",95465,NA,NA,150,"2389 BOHEMIAN HWY, OCCIDENTAL, CA, 95465","No_Match",NA,NA,NA,NA
131651,"2389 CHANNING AVE","SCOTCH PLAINS","NJ",7076,40.6489628530001,-74.3671548999999,151,"2389 CHANNING AVE, SCOTCH PLAINS, NJ, 7076","Match","Exact","2389 CHANNING AVE, SCOTCH PLAINS, NJ, 07076",60567808,"L"
131652,"2389 CORBIN AVE","NEW BRITAIN","CT",6053,41.6935957150001,-72.7954227009999,152,"2389 CORBIN AVE, NEW BRITAIN, CT, 6053","Match","Exact","2389 CORBIN AVE, NEW BRITAIN, CT, 06053",3509678,"R"
131653,"2389 CYPRESS DRIVE","WOODBURY","MN",55125,44.914012406,-92.965700338,153,"2389 CYPRESS DRIVE, WOODBURY, MN, 55125","Match","Exact","2389 CYPRESS DR, WOODBURY, MN, 55125",97802127,"R"
131654,"2389 EAST 2450TH ROAD","MARSEILLES","IL",61341,41.281028141,-88.6952158349999,154,"2389 EAST 2450TH ROAD, MARSEILLES, IL, 61341","Match","Exact","2389 E 2450TH RD, MARSEILLES, IL, 61341",8613417,"L"
131655,"2389 GLADMAR STREET","MONTEREY PARK","CA",91754,34.0367720090001,-118.15091715,155,"2389 GLADMAR STREET, MONTEREY PARK, CA, 91754","Match","Exact","2389 GLADMAR ST, MONTEREY PARK, CA, 91754",141637765,"R"
131656,"2389 LOBACH DRIVE","MECHANICSBURG","PA",17055,40.1605544120001,-77.015038003,156,"2389 LOBACH DRIVE, MECHANICSBURG, PA, 17055","Match","Exact","2389 LOBACH DR, MECHANICSBURG, PA, 17055",634658415,"R"
131657,"2389 MAIN ST STE 100","GLASTONBURY","CT",6033,41.712218464,-72.608549992,157,"2389 MAIN ST STE 100, GLASTONBURY, CT, 6033","Match","Exact","2389 MAIN ST, GLASTONBURY, CT, 06033",3496583,"L"
131658,"2389 MAIN STREET STE 100","GLASTONBURY","CT",6033,41.712218464,-72.608549992,158,"2389 MAIN STREET STE 100, GLASTONBURY, CT, 6033","Match","Exact","2389 MAIN ST, GLASTONBURY, CT, 06033",3496583,"L"
131659,"2389 MAIN STREET SUITE 100","GLASTONBURY","CT",6033,41.712218464,-72.608549992,159,"2389 MAIN STREET SUITE 100, GLASTONBURY, CT, 6033","Match","Exact","2389 MAIN ST, GLASTONBURY, CT, 06033",3496583,"L"
131660,"2389 MAIN STREET","GLASTONBURY","CT",6033,41.712218464,-72.608549992,160,"2389 MAIN STREET, GLASTONBURY, CT, 6033","Match","Exact","2389 MAIN ST, GLASTONBURY, CT, 06033",3496583,"L"
131661,"23890 COPPER HILL DR SUITE 254","VALENCIA","CA",91354,NA,NA,161,"23890 COPPER HILL DR SUITE 254, VALENCIA, CA, 91354","No_Match",NA,NA,NA,NA
131662,"23890 COPPER HILL DRIVE 204","VALENCIA","CA",91354,NA,NA,162,"23890 COPPER HILL DRIVE 204, VALENCIA, CA, 91354","No_Match",NA,NA,NA,NA
131663,"23890 COPPER HILL DRIVE UNIT 204","VALENCIA","CA",91354,NA,NA,163,"23890 COPPER HILL DRIVE UNIT 204, VALENCIA, CA, 91354","No_Match",NA,NA,NA,NA
131664,"23892","BELLEVILLE","IL",62223,NA,NA,164,"23892, BELLEVILLE, IL, 62223","No_Match",NA,NA,NA,NA
131665,"23897 ROCKSIDE ROAD","BEDFORD HEIGHTS","OH",44146,41.409529553,-81.5105595379999,165,"23897 ROCKSIDE ROAD, BEDFORD HEIGHTS, OH, 44146","Match","Exact","23897 ROCKSIDE RD, BEDFORD HEIGHTS, OH, 44146",61135755,"L"
131666,"239  BEGONIA DRIVE","PAHOKEE","FL",33476,26.821399995,-80.668000588,166,"239  BEGONIA DRIVE, PAHOKEE, FL, 33476","Match","Exact","239 BEGONIA DR, PAHOKEE, FL, 33476",115240155,"L"
131667,"239 1ST AVE N","MAZEPPA","MN",55956,44.273468275,-92.546569838,167,"239 1ST AVE N, MAZEPPA, MN, 55956","Match","Exact","239 1ST AVE N, MAZEPPA, MN, 55956",31621789,"L"
131668,"239 ALPHONSE STREET","ROCHESTER","NY",14621,43.1763603420001,-77.597630865,168,"239 ALPHONSE STREET, ROCHESTER, NY, 14621","Match","Exact","239 ALPHONSE ST, ROCHESTER, NY, 14621",14538275,"R"
131669,"239 AMELIA OLIVE BRANCH ROAD","AMELIA","OH",45102,39.0506042280001,-84.225911352,169,"239 AMELIA OLIVE BRANCH ROAD, AMELIA, OH, 45102","Match","Exact","239 AMELIA OLIVE BRANCH RD, AMELIA, OH, 45102",118447308,"R"
131670,"239 ANNANDALE RD","BILLINGS","MT",59105,45.8415153600001,-108.494672818,170,"239 ANNANDALE RD, BILLINGS, MT, 59105","Match","Exact","239 ANNANDALE RD, BILLINGS, MT, 59105",627624919,"R"
131671,"239 ARROWOOD WAY","BASKING RIDGE","NJ",7920,40.6601331700001,-74.557068186,171,"239 ARROWOOD WAY, BASKING RIDGE, NJ, 7920","Match","Exact","239 ARROWOOD WAY, BASKING RIDGE, NJ, 07920",59953489,"R"
131672,"239 ARTERIAL HOSTOS AVE STE 402","HATO REY","PR",918,NA,NA,172,"239 ARTERIAL HOSTOS AVE STE 402, HATO REY, PR, 918","No_Match",NA,NA,NA,NA
131673,"239 BALDWIN STREET","GAITHERSBURG","MD",20878,39.1135077000001,-77.203142339,173,"239 BALDWIN STREET, GAITHERSBURG, MD, 20878","Match","Exact","239 BALDWIN ST, GAITHERSBURG, MD, 20878",640672277,"R"
131674,"239 BANKER STREET UNIT 4H","BROOKLYN","NY",11222,40.726078154,-73.9561195539999,174,"239 BANKER STREET UNIT 4H, BROOKLYN, NY, 11222","Match","Exact","239 BANKER ST, BROOKLYN, NY, 11222",59096856,"R"
131675,"239 BETTS ROAD","ORINGTON","ME",4474,44.691153281,-68.779858433,175,"239 BETTS ROAD, ORINGTON, ME, 4474","Match","Non_Exact","239 BETTS RD, ORRINGTON, ME, 04474",123647859,"L"
131676,"239 BLUE LAKE DR","HUFFMAN","TX",77336,30.106927409,-95.1303999199999,176,"239 BLUE LAKE DR, HUFFMAN, TX, 77336","Match","Exact","239 BLUE LAKE DR, HUFFMAN, TX, 77336",96047842,"L"
131677,"239 BRANNAN STREET SUITE 7C","SAN FRANCISCO","CA",94107,37.7826447910001,-122.391055314,177,"239 BRANNAN STREET SUITE 7C, SAN FRANCISCO, CA, 94107","Match","Exact","239 BRANNAN ST, SAN FRANCISCO, CA, 94107",192294940,"L"
131678,"239 BRUSH MOUNTAIN ROAD","HOLLIDAYSBURG","PA",16648,40.449731264,-78.374496517,178,"239 BRUSH MOUNTAIN ROAD, HOLLIDAYSBURG, PA, 16648","Match","Exact","239 BRUSH MOUNTAIN RD, HOLLIDAYSBURG, PA, 16648",49714075,"R"
131679,"239 CATE HARBOUR LOOP  APT 106","BRADENTON","FL",34212,NA,NA,179,"239 CATE HARBOUR LOOP  APT 106, BRADENTON, FL, 34212","No_Match",NA,NA,NA,NA
131680,"239 CENTRAL AVE","DEER PARK","NY",11729,40.750930512,-73.3358920699999,180,"239 CENTRAL AVE, DEER PARK, NY, 11729","Match","Exact","239 CENTRAL AVE, DEER PARK, NY, 11729",113976107,"R"
131681,"239 CHATTAROY DRIVE","CHARLOTTE","NC",28214,35.298376633,-80.975838713,181,"239 CHATTAROY DRIVE, CHARLOTTE, NC, 28214","Match","Exact","239 CHATTAROY DR, CHARLOTTE, NC, 28214",70532174,"L"
131682,"239 CHURCH ST","WHITAKER","PA",15120,40.3987777500001,-79.886783603,182,"239 CHURCH ST, WHITAKER, PA, 15120","Match","Non_Exact","239 CHURCH ST, HOMESTEAD, PA, 15120",51654408,"L"
131683,"239 COCOANUT ROW","PALM BEACH","FL",33480,26.707011892,-80.040968988,183,"239 COCOANUT ROW, PALM BEACH, FL, 33480","Match","Exact","239 COCOANUT ROW, PALM BEACH, FL, 33480",115279777,"L"
131684,"239 COUNTY ROAD 820","HEIDELBERG","MS",39439,NA,NA,184,"239 COUNTY ROAD 820, HEIDELBERG, MS, 39439","No_Match",NA,NA,NA,NA
131685,"239 COUNTY ROAD 848","LOGAN","AL",35098,34.134256222,-87.052196822,185,"239 COUNTY ROAD 848, LOGAN, AL, 35098","Match","Exact","239 CO RD 848, LOGAN, AL, 35098",130213262,"R"
131686,"239 CR 1482","BOGATA","TX",75417,33.4049426550001,-95.145618293,186,"239 CR 1482, BOGATA, TX, 75417","Match","Exact","239 CO RD 1482, BOGATA, TX, 75417",653205320,"R"
131687,"239 E 1ST AVE","ROSELLE","NJ",7203,NA,NA,187,"239 E 1ST AVE, ROSELLE, NJ, 7203","Tie",NA,NA,NA,NA
131688,"239 E HARRIS STREET","OGDEN","UT",84401,41.1988318900001,-111.975401809,188,"239 E HARRIS STREET, OGDEN, UT, 84401","Match","Exact","239 E HARRIS ST, OGDEN, UT, 84401",155696134,"R"
131689,"239 E HIGH ST","REDKEY","IN",47373,40.3494854850001,-85.146111982,189,"239 E HIGH ST, REDKEY, IN, 47373","Match","Exact","239 E HIGH ST, REDKEY, IN, 47373",45045449,"R"
131690,"239 E MAIN ST","HERMISTON","OR",97838,45.8405043290001,-119.287969397,190,"239 E MAIN ST, HERMISTON, OR, 97838","Match","Exact","239 E MAIN ST, HERMISTON, OR, 97838",170390733,"R"
131691,"239 EAST 79TH STREET APT 15K","NEW YORK","NY",10075,40.773801178,-73.956132165,191,"239 EAST 79TH STREET APT 15K, NEW YORK, NY, 10075","Match","Exact","239 E 79TH ST, NEW YORK, NY, 10075",650074395,"L"
131692,"239 EAST 79TH STREET APT 4H","NEW YORK","NY",10075,40.773801178,-73.956132165,192,"239 EAST 79TH STREET APT 4H, NEW YORK, NY, 10075","Match","Exact","239 E 79TH ST, NEW YORK, NY, 10075",650074395,"L"
131693,"239 EAST ST","LEXINGTON","MA",2420,42.4583539400001,-71.203953715,193,"239 EAST ST, LEXINGTON, MA, 2420","Match","Exact","239 EAST ST, LEXINGTON, MA, 02420",86883077,"R"
131694,"239 EDENFIELD AVENUE","WATERTOWN","MA",2472,42.377657126,-71.190641421,194,"239 EDENFIELD AVENUE, WATERTOWN, MA, 2472","Match","Exact","239 EDENFIELD AVE, WATERTOWN, MA, 02472",86891232,"R"
131695,"239 FORESIDE ROAD","FALMOUTH","ME",4105,43.732622093,-70.2108992249999,195,"239 FORESIDE ROAD, FALMOUTH, ME, 4105","Match","Exact","239 FORESIDE RD, FALMOUTH, ME, 04105",78036749,"R"
131696,"239 FOURTH AVE SUITE 1602","PITTSBURGH","PA",15222,40.4397463080001,-80.002266317,196,"239 FOURTH AVE SUITE 1602, PITTSBURGH, PA, 15222","Match","Exact","239 4TH AVE, PITTSBURGH, PA, 15222",635646242,"L"
131697,"239 FRANKLIN ROAD","FRANKLIN","TN",37064,35.9328329690001,-86.862210907,197,"239 FRANKLIN ROAD, FRANKLIN, TN, 37064","Match","Exact","239 FRANKLIN RD, FRANKLIN, TN, 37064",73104123,"L"
131698,"239 FRANKLIN ROAD","FRANKLIN","TN",37065,35.9328329690001,-86.862210907,198,"239 FRANKLIN ROAD, FRANKLIN, TN, 37065","Match","Non_Exact","239 FRANKLIN RD, FRANKLIN, TN, 37064",73104123,"L"
131699,"239 GLENDALE ROAD","UPPER DARBY","DE",19082,NA,NA,199,"239 GLENDALE ROAD, UPPER DARBY, DE, 19082","No_Match",NA,NA,NA,NA
131700,"239 GLENWOOD AVENUE","EAST ORANGE","NJ",7017,40.77736917,-74.2129775889999,200,"239 GLENWOOD AVENUE, EAST ORANGE, NJ, 7017","Match","Exact","239 GLENWOOD AVE, EAST ORANGE, NJ, 07017",63451418,"L"
131701,"239 GRAFTON STREET","BROOKLYN","NY",11212,40.662269064,-73.9175947429999,201,"239 GRAFTON STREET, BROOKLYN, NY, 11212","Match","Exact","239 GRAFTON ST, BROOKLYN, NY, 11212",59083956,"L"
131702,"239 GREAT NECK ROAD","GREAT NECK","NY",11021,40.7818656680001,-73.7320015189999,202,"239 GREAT NECK ROAD, GREAT NECK, NY, 11021","Match","Exact","239 GREAT NECK RD, GREAT NECK, NY, 11021",147656395,"R"
131703,"239 GREENMOOR","IRVINE","CA",92614,33.667828661,-117.79894784,203,"239 GREENMOOR, IRVINE, CA, 92614","Match","Exact","239 GREENMOOR, IRVINE, CA, 92614",616893774,"R"
131704,"239 GROUSE LANE","LEWISBURG","PA",17837,41.0060124510001,-77.02984771,204,"239 GROUSE LANE, LEWISBURG, PA, 17837","Match","Exact","239 GROUSE LN, LEWISBURG, PA, 17837",48202248,"L"
131705,"239 HALSEY STREET","NEWARK","NJ",7102,40.733932634,-74.17492029,205,"239 HALSEY STREET, NEWARK, NJ, 7102","Match","Exact","239 HALSEY ST, NEWARK, NJ, 07102",63467468,"R"
131706,"239 HAMPTON STREET","ROCK HILL","SC",29730,34.923795323,-81.027721507,206,"239 HAMPTON STREET, ROCK HILL, SC, 29730","Match","Exact","239 HAMPTON ST, ROCK HILL, SC, 29730",19791636,"L"
131707,"239 HARRISON TOWN RD","MANSON","NC",27553,36.519297958,-78.247767589,207,"239 HARRISON TOWN RD, MANSON, NC, 27553","Match","Exact","239 HARRISON TOWN RD, MANSON, NC, 27553",635422219,"L"
131708,"239 HARRISON TOWN ROAD","MANSON","NC",27553,36.519297958,-78.247767589,208,"239 HARRISON TOWN ROAD, MANSON, NC, 27553","Match","Exact","239 HARRISON TOWN RD, MANSON, NC, 27553",635422219,"L"
131709,"239 HENDERSON TANYARD ROAD","PITTSBORO","NC",27312,35.8024065920001,-79.2768027829999,209,"239 HENDERSON TANYARD ROAD, PITTSBORO, NC, 27312","Match","Exact","239 HENDERSON TANYARD RD, PITTSBORO, NC, 27312",71379347,"R"
131710,"239 INRVINGTON DR","SAN ANTONIO","TX",78209,NA,NA,210,"239 INRVINGTON DR, SAN ANTONIO, TX, 78209","No_Match",NA,NA,NA,NA
131711,"239 JUANITA CT","SANTA ROSA","CA",95401,38.4314282720001,-122.759927058,211,"239 JUANITA CT, SANTA ROSA, CA, 95401","Match","Exact","239 JUANITA CT, SANTA ROSA, CA, 95401",67467673,"L"
131712,"239 KINGSTON STREET SOUTH","SAINT PETERSBURG","FL",33733,27.768919166,-82.684299226,212,"239 KINGSTON STREET SOUTH, SAINT PETERSBURG, FL, 33733","Match","Non_Exact","239 KINGSTON ST S, SAINT PETERSBURG, FL, 33711",124705350,"R"
131713,"239 LAKEVIEW DRIVE","SITKA","AK",99835,57.056815326,-135.339562034,213,"239 LAKEVIEW DRIVE, SITKA, AK, 99835","Match","Exact","239 LAKEVIEW DR, SITKA, AK, 99835",207109888,"R"
131714,"239 LARKSPUR ROAD","COLUMBIA","SC",29212,34.069566136,-81.190527937,214,"239 LARKSPUR ROAD, COLUMBIA, SC, 29212","Match","Exact","239 LARKSPUR RD, COLUMBIA, SC, 29212",70049037,"R"
131715,"239 LYONS AVE 1","NEWARK","NJ",7112,40.710637406,-74.2147433809999,215,"239 LYONS AVE 1, NEWARK, NJ, 7112","Match","Exact","239 LYONS AVE, NEWARK, NJ, 07112",63465270,"R"
131716,"239 MADISON AVE","ST MICHAELS","MD",21663,38.7726697100001,-76.2084954119999,216,"239 MADISON AVE, ST MICHAELS, MD, 21663","Match","Exact","239 MADISON AVE, SAINT MICHAELS, MD, 21663",209753156,"L"
131717,"239 MALLARD DR","CARROLLTON","GA",30116,33.621842988,-84.959442278,217,"239 MALLARD DR, CARROLLTON, GA, 30116","Match","Exact","239 MALLARD DR, CARROLLTON, GA, 30116",637666042,"R"
131718,"239 MCKEE STREET","FLORAL PARK","NY",11001,40.7365797670001,-73.6995489569999,218,"239 MCKEE STREET, FLORAL PARK, NY, 11001","Match","Exact","239 MCKEE ST, FLORAL PARK, NY, 11001",147665648,"R"
131719,"239 MCMILLAN CT UNIT 101","CORTLAND","IL",60112,41.9351225990001,-88.698403593,219,"239 MCMILLAN CT UNIT 101, CORTLAND, IL, 60112","Match","Exact","239 MCMILLAN CT, CORTLAND, IL, 60112",635520987,"L"
131720,"239 MIDDLE TURNPIKE E","MANCHESTER","CT",6040,41.7836350090001,-72.511979254,220,"239 MIDDLE TURNPIKE E, MANCHESTER, CT, 6040","Match","Exact","239 MIDDLE TPKE E, MANCHESTER, CT, 06040",604944391,"L"
131721,"239 MILLCREEK WAY","TOOELE","UT",84074,40.520344713,-112.305709178,221,"239 MILLCREEK WAY, TOOELE, UT, 84074","Match","Exact","239 MILLCREEK WAY, TOOELE, UT, 84074",155390592,"L"
131722,"239 MONMOUTH STREET","GLOUCESTER CITY","NJ",8030,39.898329598,-75.124296196,222,"239 MONMOUTH STREET, GLOUCESTER CITY, NJ, 8030","Match","Exact","239 MONMOUTH ST, GLOUCESTER CITY, NJ, 08030",134346580,"L"
131723,"239 N 11TH STREET","FORT DODGE","IA",50501,42.5080357150001,-94.184037396,223,"239 N 11TH STREET, FORT DODGE, IA, 50501","Match","Exact","239 N 11TH ST, FORT DODGE, IA, 50501",66072251,"R"
131724,"239 N 1250 W SUITE 3","CENTERVILLE","UT",84014,40.919440928,-111.896894663,224,"239 N 1250 W SUITE 3, CENTERVILLE, UT, 84014","Match","Non_Exact","239 N 1250 W, CENTERVILLE, UT, 84014",645858723,"L"
131725,"239 N 9TH ST W325","BROOKLYN","NY",11211,40.7172387370001,-73.9537788769999,225,"239 N 9TH ST W325, BROOKLYN, NY, 11211","Match","Non_Exact","239 N 9TH ST, BROOKLYN, NY, 11211",59076465,"L"
131726,"239 N SHERWOOD ST","FORT COLLINS","CO",80521,40.5899334910001,-105.084261588,226,"239 N SHERWOOD ST, FORT COLLINS, CO, 80521","Match","Exact","239 N SHERWOOD ST, FORT COLLINS, CO, 80521",188570964,"L"
131727,"239 NE BROAD STREET","SOUTHERN PINES","NC",28387,35.17479911,-79.3900331999999,227,"239 NE BROAD STREET, SOUTHERN PINES, NC, 28387","Match","Exact","239 NE BROAD ST, SOUTHERN PINES, NC, 28387",20296288,"R"
131728,"239 NORTH LAUREL STREET","MANHEIM","PA",17545,40.171359501,-76.3956286119999,228,"239 NORTH LAUREL STREET, MANHEIM, PA, 17545","Match","Exact","239 N LAUREL ST, MANHEIM, PA, 17545",647547960,"R"
131729,"239 OAK ST","BROCKTON","MA",2301,42.100870263,-71.0354347219999,229,"239 OAK ST, BROCKTON, MA, 2301","Match","Exact","239 OAK ST, BROCKTON, MA, 02301",87482236,"R"
131730,"239 OLD COLUMBIA RD","DICKSON","TN",37055,36.069987499,-87.3446903779999,230,"239 OLD COLUMBIA RD, DICKSON, TN, 37055","Match","Exact","239 OLD COLUMBIA RD, DICKSON, TN, 37055",72761338,"R"
131731,"239 REGENT RD","HARRISBURG","PA",17112,40.3230672030001,-76.755871788,231,"239 REGENT RD, HARRISBURG, PA, 17112","Match","Exact","239 REGENT RD, HARRISBURG, PA, 17112",70840845,"L"
131732,"239 ROUTE 22 EAST - SUITE 307","GREEN BROOK","NJ",8812,NA,NA,232,"239 ROUTE 22 EAST - SUITE 307, GREEN BROOK, NJ, 8812","No_Match",NA,NA,NA,NA
131733,"239 S FAYETTEVILLE ST","LIBERTY","NC",27298,35.8497233690001,-79.57021932,233,"239 S FAYETTEVILLE ST, LIBERTY, NC, 27298","Match","Exact","239 S FAYETTEVILLE ST, LIBERTY, NC, 27298",20440948,"R"
131734,"239 S LA CIENEGA BLVD SUITE 207","BEVERLY HILLS","CA",90211,NA,NA,234,"239 S LA CIENEGA BLVD SUITE 207, BEVERLY HILLS, CA, 90211","Tie",NA,NA,NA,NA
131735,"239 S MAIN ST STE 100","CEDAR CITY","UT",84720,37.672984796,-113.061583974,235,"239 S MAIN ST STE 100, CEDAR CITY, UT, 84720","Match","Non_Exact","239 S MAIN ST, CEDAR CITY, UT, 84720",165406973,"L"
131736,"239 S MATANZAS BLVD","ST. AUGUSTINE","FL",32080,29.886900498,-81.298999285,236,"239 S MATANZAS BLVD, ST. AUGUSTINE, FL, 32080","Match","Exact","239 S MATANZAS BLVD, SAINT AUGUSTINE, FL, 32080",92582669,"L"
131737,"239 S SAN LUIS REY TRL","CASA GRANDE","AZ",85194,32.861554353,-111.677410365,237,"239 S SAN LUIS REY TRL, CASA GRANDE, AZ, 85194","Match","Exact","239 S SAN LUIS REY TRL, CASA GRANDE, AZ, 85194",625036532,"R"
131738,"239 SELBY AVE","ST PAUL","MN",55102,44.9465503340001,-93.110751842,238,"239 SELBY AVE, ST PAUL, MN, 55102","Match","Exact","239 SELBY AVE, SAINT PAUL, MN, 55102",97667496,"R"
131739,"239 SHERIDAN ROAD","EL PASO","TX",79906,31.803159447,-106.436033656,239,"239 SHERIDAN ROAD, EL PASO, TX, 79906","Match","Exact","239 SHERIDAN RD, EL PASO, TX, 79906",189397117,"L"
131740,"239 SKILLMAN ST","BROOKLYN","NY",11205,40.691076921,-73.956402042,240,"239 SKILLMAN ST, BROOKLYN, NY, 11205","Match","Exact","239 SKILLMAN ST, BROOKLYN, NY, 11205",59078634,"L"
131741,"239 SOUTH 8TH AVE","HIGHLAND PARK","NJ",8904,40.498082593,-74.41943384,241,"239 SOUTH 8TH AVE, HIGHLAND PARK, NJ, 8904","Match","Exact","239 S 8TH AVE, HIGHLAND PARK, NJ, 08904",60328492,"L"
131742,"239 SOUTH COURT STREET","MEDINA","OH",44256,41.1372709560001,-81.864044897,242,"239 SOUTH COURT STREET, MEDINA, OH, 44256","Match","Exact","239 S COURT ST, MEDINA, OH, 44256",58694525,"R"
131743,"239 SOUTH LN","WEST WINDSOR","NJ",8550,40.264616662,-74.582103595,243,"239 SOUTH LN, WEST WINDSOR, NJ, 8550","Match","Exact","239 SOUTH LN, WEST WINDSOR, NJ, 08550",642734567,"R"
131744,"239 SOUTHOLME","SAN ANTONIO","TX",78204,29.404090818,-98.5145506869999,244,"239 SOUTHOLME, SAN ANTONIO, TX, 78204","Match","Non_Exact","239 SOUTHOLME AVE, SAN ANTONIO, TX, 78204",101518497,"R"
131745,"239 SUN UP RANCH RD","SEDONA","AZ",86351,34.780449467,-111.787482412,245,"239 SUN UP RANCH RD, SEDONA, AZ, 86351","Match","Exact","239 SUN UP RANCH RD, SEDONA, AZ, 86351",159535356,"L"
131746,"239 SWEET CANE TRL","GRAYSON","GA",30017,33.9111929050001,-83.960998096,246,"239 SWEET CANE TRL, GRAYSON, GA, 30017","Match","Exact","239 SWEET CANE TRL, GRAYSON, GA, 30017",628089693,"R"
131747,"239 SYCAMORE DRIVE","LANCASTER","SC",29720,34.928233118,-80.7902045119999,247,"239 SYCAMORE DRIVE, LANCASTER, SC, 29720","Match","Exact","239 SYCAMORE DR, LANCASTER, SC, 29720",650931380,"R"
131748,"239 THORNE WOOD LN","HAMPTON","GA",30228,33.4625234160001,-84.238528889,248,"239 THORNE WOOD LN, HAMPTON, GA, 30228","Match","Exact","239 THORNE WOOD LN, HAMPTON, GA, 30228",23202604,"L"
131749,"239 TOULON DR","ST LOUIS","MO",63129,38.484406129,-90.2944486979999,249,"239 TOULON DR, ST LOUIS, MO, 63129","Match","Exact","239 TOULON DR, SAINT LOUIS, MO, 63129",100158274,"L"
131750,"239 TRUMBULL AVE","YOUNGSTOWN","OH",44505,41.1411339410001,-80.657961751,250,"239 TRUMBULL AVE, YOUNGSTOWN, OH, 44505","Match","Exact","239 TRUMBULL AVE, YOUNGSTOWN, OH, 44505",117413049,"R"
131751,"239 W 14TH ST","NEW YORK","NY",10011,40.739248886,-74.001317045,251,"239 W 14TH ST, NEW YORK, NY, 10011","Match","Exact","239 W 14TH ST, NEW YORK, NY, 10011",650154361,"R"
131752,"239 W 520 N","OREM","UT",84057,40.3068113570001,-111.701393692,252,"239 W 520 N, OREM, UT, 84057","Match","Exact","239 W 520 N, OREM, UT, 84057",134239899,"R"
131753,"239 W RITTENHOUSE ST","PHILADELPHIA","PA",19144,40.0344204690001,-75.1798798039999,253,"239 W RITTENHOUSE ST, PHILADELPHIA, PA, 19144","Match","Exact","239 W RITTENHOUSE ST, PHILADELPHIA, PA, 19144",642122365,"R"
131754,"239 W SHASTA AVE","CHICO","CA",95973,39.762403637,-121.871062742,254,"239 W SHASTA AVE, CHICO, CA, 95973","Match","Exact","239 W SHASTA AVE, CHICO, CA, 95973",68473980,"R"
131755,"239 W THOMPSON ROAD","PAYSON","AZ",85541,34.317985976,-111.138236332,255,"239 W THOMPSON ROAD, PAYSON, AZ, 85541","Match","Exact","239 THOMPSON RD, PAYSON, AZ, 85541",159371275,"L"
131756,"239 WALKER STREET SW","ATLANTA","GA",30313,33.7482140330001,-84.402689749,256,"239 WALKER STREET SW, ATLANTA, GA, 30313","Match","Exact","239 WALKER ST SW, ATLANTA, GA, 30313",17344155,"R"
131757,"239 WEST 2ND STREET","HALSEY","OR",97348,44.3874073270001,-123.109834966,257,"239 WEST 2ND STREET, HALSEY, OR, 97348","Match","Exact","239 W 2ND ST, HALSEY, OR, 97348",156075991,"L"
131758,"239 WEST BENSON ST","DECATUR","GA",30030,33.760924194,-84.298949663,258,"239 WEST BENSON ST, DECATUR, GA, 30030","Match","Exact","239 W BENSON ST, DECATUR, GA, 30030",23367419,"R"
131759,"239 WEST CENTER STREET","WEST BRIDGEWATER","MA",2379,42.016823012,-71.0212018459999,259,"239 WEST CENTER STREET, WEST BRIDGEWATER, MA, 2379","Match","Exact","239 W CENTER ST, W BRIDGEWATER, MA, 02379",87482917,"R"
131760,"239 WESTEND RD","LANDAFF","NH",3585,NA,NA,260,"239 WESTEND RD, LANDAFF, NH, 3585","No_Match",NA,NA,NA,NA
131761,"239 WINDHAM DRIVE","EXTON","PA",19341,40.0504167660001,-75.6664268609999,261,"239 WINDHAM DRIVE, EXTON, PA, 19341","Match","Exact","239 WINDHAM DR, EXTON, PA, 19341",645869257,"R"
131762,"239-03 147TH RD","ROSEDALE","NY",11422,NA,NA,262,"239-03 147TH RD, ROSEDALE, NY, 11422","Tie",NA,NA,NA,NA
131763,"2390 30TH STREET SUITE 219","CLEVELAND","OH",44115,41.4946861270001,-81.667022582,263,"2390 30TH STREET SUITE 219, CLEVELAND, OH, 44115","Match","Non_Exact","2390 E 30TH ST, CLEVELAND, OH, 44115",61111614,"R"
131764,"2390 BLACK OAK STREET","TURLOCK","CA",95382,37.529661375,-120.873816769,264,"2390 BLACK OAK STREET, TURLOCK, CA, 95382","Match","Exact","2390 BLACK OAK ST, TURLOCK, CA, 95382",102647126,"L"
131765,"2390 CAMP CREEK ROAD","CAMP CREEK","WV",25820,37.504257264,-81.132820478,265,"2390 CAMP CREEK ROAD, CAMP CREEK, WV, 25820","Match","Exact","2390 CAMP CREEK RD, CAMP CREEK, WV, 25820",47709678,"R"
131766,"2390 COOLEY PLACE","PASADENA","CA",91104,34.1633675520001,-118.101391106,266,"2390 COOLEY PLACE, PASADENA, CA, 91104","Match","Exact","2390 COOLEY PL, PASADENA, CA, 91104",652036938,"R"
131767,"2390 CRENSHAW BLVD 431","TORRANCE","CA",90501,33.8228177180001,-118.328433401,267,"2390 CRENSHAW BLVD 431, TORRANCE, CA, 90501","Match","Exact","2390 CRENSHAW BLVD, TORRANCE, CA, 90501",241250382,"L"
131768,"2390 CRENSHAW BLVD SUITE 182","TORRANCE","CA",90501,33.8228177180001,-118.328433401,268,"2390 CRENSHAW BLVD SUITE 182, TORRANCE, CA, 90501","Match","Exact","2390 CRENSHAW BLVD, TORRANCE, CA, 90501",241250382,"L"
131769,"2390 CRENSHAW BLVD SUITE 543","TORRANCE","CA",90501,33.8228177180001,-118.328433401,269,"2390 CRENSHAW BLVD SUITE 543, TORRANCE, CA, 90501","Match","Exact","2390 CRENSHAW BLVD, TORRANCE, CA, 90501",241250382,"L"
131770,"2390 CRENSHAW BLVD UNIT 358","TORRANCE","CA",90501,33.8228177180001,-118.328433401,270,"2390 CRENSHAW BLVD UNIT 358, TORRANCE, CA, 90501","Match","Exact","2390 CRENSHAW BLVD, TORRANCE, CA, 90501",241250382,"L"
131771,"2390 CRENSHAW BLVD/ 130","TORRANCE","CA",90501,33.8228177180001,-118.328433401,271,"2390 CRENSHAW BLVD/ 130, TORRANCE, CA, 90501","Match","Non_Exact","2390 CRENSHAW BLVD, TORRANCE, CA, 90501",241250382,"L"
131772,"2390 DEVOY AVENUE","MEMPHIS","TN",38108,35.1649613020001,-89.9777141329999,272,"2390 DEVOY AVENUE, MEMPHIS, TN, 38108","Match","Exact","2390 DEVOY AVE, MEMPHIS, TN, 38108",72912927,"L"
131773,"2390 E CAMELBACK RD SUITE 130","PHOENIX","AZ",85016,33.5093262930001,-112.030602311,273,"2390 E CAMELBACK RD SUITE 130, PHOENIX, AZ, 85016","Match","Non_Exact","2390 E CAMELBACK RD, PHOENIX, AZ, 85016",128209857,"L"
131774,"2390 E CAMELBACK RD SUITE 130","PHOENIX","AZ",85284,NA,NA,274,"2390 E CAMELBACK RD SUITE 130, PHOENIX, AZ, 85284","No_Match",NA,NA,NA,NA
131775,"2390 ERIN DRIVE","SPARKS","NV",89434,NA,NA,275,"2390 ERIN DRIVE, SPARKS, NV, 89434","No_Match",NA,NA,NA,NA
131776,"2390 FAIRBURN RD LOT 213","DOUGLASVILLE","GA",30135,33.7403091630001,-84.678196245,276,"2390 FAIRBURN RD LOT 213, DOUGLASVILLE, GA, 30135","Match","Exact","2390 FAIRBURN RD, DOUGLASVILLE, GA, 30135",16655748,"L"
131777,"2390 FAIRBURN RD LOT 26","DOUGLASVILLE","GA",30135,33.7403091630001,-84.678196245,277,"2390 FAIRBURN RD LOT 26, DOUGLASVILLE, GA, 30135","Match","Exact","2390 FAIRBURN RD, DOUGLASVILLE, GA, 30135",16655748,"L"
131778,"2390 HILLSBORO ROAD","FRANKLIN","TN",37069,36.00678557,-86.886821136,278,"2390 HILLSBORO ROAD, FRANKLIN, TN, 37069","Match","Exact","2390 HILLSBORO RD, FRANKLIN, TN, 37069",73110617,"L"
131779,"2390 MANOR OAK COURT","BUFORD","GA",30519,34.04790884,-83.966015274,279,"2390 MANOR OAK COURT, BUFORD, GA, 30519","Match","Exact","2390 MANOR OAK CT, BUFORD, GA, 30519",88933250,"R"
131780,"2390 NORTH RD","LOS ALAMOS","NM",87544,35.9001695520001,-106.324652598,280,"2390 NORTH RD, LOS ALAMOS, NM, 87544","Match","Exact","2390 NORTH RD, LOS ALAMOS, NM, 87544",143758657,"R"
131781,"2390 OCONNER AVE","REDDING","CA",96001,40.56668438,-122.431319636,281,"2390 OCONNER AVE, REDDING, CA, 96001","Match","Exact","2390 OCONNER AVE, REDDING, CA, 96001",126657982,"L"
131782,"2390 PEACE PORTAL DRIVE SUITE 300","BLAINE","WA",98230,48.976925501,-122.730183147,282,"2390 PEACE PORTAL DRIVE SUITE 300, BLAINE, WA, 98230","Match","Exact","2390 PEACE PORTAL DR, BLAINE, WA, 98230",636499443,"R"
131783,"2390 QUEENSWOOD CIRCLE","KISSIMMEE","FL",34743,28.3183867560001,-81.354007324,283,"2390 QUEENSWOOD CIRCLE, KISSIMMEE, FL, 34743","Match","Exact","2390 QUEENSWOOD CIR, KISSIMMEE, FL, 34743",176701551,"R"
131784,"2390 SAND LAKE RD","LONGWOOD","FL",32779,28.6800753800001,-81.428841855,284,"2390 SAND LAKE RD, LONGWOOD, FL, 32779","Match","Exact","2390 SAND LAKE RD, LONGWOOD, FL, 32779",93767162,"R"
131785,"2390 TAMIAMI TRAIL N SUITE 202","NAPLES","FL",34103,NA,NA,285,"2390 TAMIAMI TRAIL N SUITE 202, NAPLES, FL, 34103","No_Match",NA,NA,NA,NA
131786,"2390 TAMIAMI TRAIL NORTH SUITE 202","NAPLES","FL",34103,NA,NA,286,"2390 TAMIAMI TRAIL NORTH SUITE 202, NAPLES, FL, 34103","No_Match",NA,NA,NA,NA
131787,"2390 VICTOR AVE","REDDING","CA",96002,40.5721406050001,-122.338791206,287,"2390 VICTOR AVE, REDDING, CA, 96002","Match","Exact","2390 VICTOR AVE, REDDING, CA, 96002",126705514,"R"
131788,"2390 W 2100 S","SYRACUSE","UT",84075,41.0839015970001,-112.072074066,288,"2390 W 2100 S, SYRACUSE, UT, 84075","Match","Exact","2390 W 2100 S, SYRACUSE, UT, 84075",635817294,"L"
131789,"23900 ARMADA CENTER ROAD","ARMADA","MI",48005,42.8503705570001,-82.87885908,289,"23900 ARMADA CENTER ROAD, ARMADA, MI, 48005","Match","Exact","23900 ARMADA CENTER RD, ARMADA, MI, 48005",647596702,"R"
131790,"23900 HARVEST","MORRISON","OK",73061,36.26096962,-97.053350806,290,"23900 HARVEST, MORRISON, OK, 73061","Match","Exact","23900 HARVEST, MORRISON, OK, 73061",154998485,"R"
131791,"23901 233RD AVE SW","RYDER","ND",58779,47.992656691,-101.654428327,291,"23901 233RD AVE SW, RYDER, ND, 58779","Match","Exact","23901 233RD AVE SW, RYDER, ND, 58779",200518139,"L"
131792,"23901 CALABASAS RD STE 2002","CALABASAS","CA",91302,34.14936535,-118.663577349,292,"23901 CALABASAS RD STE 2002, CALABASAS, CA, 91302","Match","Exact","23901 CALABASAS RD, CALABASAS, CA, 91302",241249720,"L"
131793,"23901 CALABASAS RD STE 2002","CALABASASC","CA",91302,34.14936535,-118.663577349,293,"23901 CALABASAS RD STE 2002, CALABASASC, CA, 91302","Match","Non_Exact","23901 CALABASAS RD, CALABASAS, CA, 91302",241249720,"L"
131794,"23901 CALABASAS ROAD STE 2064","CALABASAS","CA",91302,34.14936535,-118.663577349,294,"23901 CALABASAS ROAD STE 2064, CALABASAS, CA, 91302","Match","Exact","23901 CALABASAS RD, CALABASAS, CA, 91302",241249720,"L"
131795,"23901 CIVIC CENTER WAY 379","MALIBU","CA",90265,34.0353688820001,-118.695079682,295,"23901 CIVIC CENTER WAY 379, MALIBU, CA, 90265","Match","Exact","23901 CIVIC CENTER WAY, MALIBU, CA, 90265",241110259,"L"
131796,"23901 S23 HWY","LACONA","IA",50139,NA,NA,296,"23901 S23 HWY, LACONA, IA, 50139","No_Match",NA,NA,NA,NA
131797,"23902 ALPINE LODDGE","SAN ANTONIO","TX",78258,29.663592425,-98.466504716,297,"23902 ALPINE LODDGE, SAN ANTONIO, TX, 78258","Match","Non_Exact","23902 ALPINE LODGE, SAN ANTONIO, TX, 78258",619989362,"R"
131798,"23902 SE 384TH ST","ENUMCLAW","WA",98022,47.256442448,-122.02389127,298,"23902 SE 384TH ST, ENUMCLAW, WA, 98022","Match","Exact","23902 SE 384TH ST, ENUMCLAW, WA, 98022",186642805,"L"
131799,"23902 SPRING SCENT","SAN ANTONIO","TX",78258,29.6640945990001,-98.4840648799999,299,"23902 SPRING SCENT, SAN ANTONIO, TX, 78258","Match","Exact","23902 SPRING SCENT, SAN ANTONIO, TX, 78258",619992942,"L"
131800,"23903 7TH AVE W","BOTHELL","WA",98021,47.7814256030001,-122.241821469,300,"23903 7TH AVE W, BOTHELL, WA, 98021","Match","Exact","23903 7TH AVE W, BOTHELL, WA, 98021",187821123,"R"
131801,"23905 CLINTON KEITH RD 114-299","WILDOMAR","CA",92595,33.5977148320001,-117.240428792,301,"23905 CLINTON KEITH RD 114-299, WILDOMAR, CA, 92595","Match","Exact","23905 CLINTON KEITH RD, WILDOMAR, CA, 92595",194715195,"R"
131802,"23905 CLINTON KEITH RD SUITE 114","WILDOMAR","CA",92595,33.5977148320001,-117.240428792,302,"23905 CLINTON KEITH RD SUITE 114, WILDOMAR, CA, 92595","Match","Exact","23905 CLINTON KEITH RD, WILDOMAR, CA, 92595",194715195,"R"
131803,"23905 CLINTON KEITH ROAD 114-263","WILDOMAR","CA",92595,33.5977148320001,-117.240428792,303,"23905 CLINTON KEITH ROAD 114-263, WILDOMAR, CA, 92595","Match","Exact","23905 CLINTON KEITH RD, WILDOMAR, CA, 92595",194715195,"R"
131804,"23905 CLINTON KEITH ROAD 114-299","WILDOMAR","CA",92595,33.5977148320001,-117.240428792,304,"23905 CLINTON KEITH ROAD 114-299, WILDOMAR, CA, 92595","Match","Exact","23905 CLINTON KEITH RD, WILDOMAR, CA, 92595",194715195,"R"
131805,"23907 WESLEY DRIVE","FARMINGTON","MI",48335,42.4669549660001,-83.387727631,305,"23907 WESLEY DRIVE, FARMINGTON, MI, 48335","Match","Non_Exact","23907 WESLEY ST, FARMINGTON, MI, 48335",69724922,"L"
131806,"23907 WESLEY","FARMINGTON","MI",48335,42.4669549660001,-83.387727631,306,"23907 WESLEY, FARMINGTON, MI, 48335","Match","Non_Exact","23907 WESLEY ST, FARMINGTON, MI, 48335",69724922,"L"
131807,"23908 22ND DR SE","BOTHELL","WA",98021,47.7810793180001,-122.202879233,307,"23908 22ND DR SE, BOTHELL, WA, 98021","Match","Exact","23908 22ND DR SE, BOTHELL, WA, 98021",187795746,"L"
131808,"23908 231ST PL SE","MAPLE VALLEY","WA",98038,47.3878577900001,-122.032481351,308,"23908 231ST PL SE, MAPLE VALLEY, WA, 98038","Match","Exact","23908 231ST PL SE, MAPLE VALLEY, WA, 98038",186958383,"L"
131809,"23908 CANAL ROAD","ORANGE BEACH","AL",36561,NA,NA,309,"23908 CANAL ROAD, ORANGE BEACH, AL, 36561","No_Match",NA,NA,NA,NA
131810,"23908 SARDA RD","SANTA CLARITA","CA",91355,34.3892700050001,-118.552712216,310,"23908 SARDA RD, SANTA CLARITA, CA, 91355","Match","Exact","23908 SARDA RD, SANTA CLARITA, CA, 91355",647676506,"R"
131811,"23909 230TH PL SE","MAPLE VALLEY","WA",98038,47.387817517,-122.034270694,311,"23909 230TH PL SE, MAPLE VALLEY, WA, 98038","Match","Exact","23909 230TH PL SE, MAPLE VALLEY, WA, 98038",186957041,"R"
131812,"2391 BRANT STREET","ARROYO GRANDE","CA",93420,35.0673511460001,-120.583188688,312,"2391 BRANT STREET, ARROYO GRANDE, CA, 93420","Match","Exact","2391 BRANT ST, ARROYO GRANDE, CA, 93420",645319310,"L"
131813,"2391 CR 3442","WINNSBORO","TX",75494,32.9395825610001,-95.15188994,313,"2391 CR 3442, WINNSBORO, TX, 75494","Match","Exact","2391 CO RD 3442, WINNSBORO, TX, 75494",83206857,"R"
131814,"2391 FAIRVIEW CHURCH ROAD","THREE SPRINGS","PA",17264,NA,NA,314,"2391 FAIRVIEW CHURCH ROAD, THREE SPRINGS, PA, 17264","No_Match",NA,NA,NA,NA
131815,"2391 HEMPHILL ROAD","KETTERING","OH",45440,39.6843861780001,-84.1194269119999,315,"2391 HEMPHILL ROAD, KETTERING, OH, 45440","Match","Exact","2391 HEMPHILL RD, KETTERING, OH, 45440",143584755,"L"
131816,"2391 LOST CREEK RD","CARBON HILL","AL",35549,33.887204603,-87.462044835,316,"2391 LOST CREEK RD, CARBON HILL, AL, 35549","Match","Exact","2391 LOST CREEK RD, CARBON HILL, AL, 35549",120577912,"R"
131817,"2391 N EL MOLINO AVENUE","ALTADENA","CA",91001,34.1863608080001,-118.133562459,317,"2391 N EL MOLINO AVENUE, ALTADENA, CA, 91001","Match","Exact","2391 EL MOLINO AVE, ALTADENA, CA, 91001",141628251,"L"
131818,"2391 N FOX FARM ROAD","WARSAW","IN",46581,NA,NA,318,"2391 N FOX FARM ROAD, WARSAW, IN, 46581","Tie",NA,NA,NA,NA
131819,"2391 NE LOOP 410  SUITE 403","SAN ANTONIO","TX",78217,29.516321228,-98.4204655889999,319,"2391 NE LOOP 410  SUITE 403, SAN ANTONIO, TX, 78217","Match","Non_Exact","2391 NE LOOP 410, SAN ANTONIO, TX, 78217",641419989,"L"
131820,"2391 NE LOOP 410 SUITE 104","SAN ANTONIO","TX",78217,29.516321228,-98.4204655889999,320,"2391 NE LOOP 410 SUITE 104, SAN ANTONIO, TX, 78217","Match","Non_Exact","2391 NE LOOP 410, SAN ANTONIO, TX, 78217",641419989,"L"
131821,"2391 PINE ISLAND CT","JACKSONVILLE","FL",32224,30.3089962720001,-81.430099804,321,"2391 PINE ISLAND CT, JACKSONVILLE, FL, 32224","Match","Exact","2391 PINE ISLAND CT, JACKSONVILLE, FL, 32224",83943047,"L"
131822,"2391 PLACER STREET","REDDING","CA",96001,40.5788759000001,-122.403871034,322,"2391 PLACER STREET, REDDING, CA, 96001","Match","Exact","2391 PLACER ST, REDDING, CA, 96001",126706238,"L"
131823,"2391 PONTIAC ROAD","AUBURN HILLS","MI",48326,42.6709612760001,-83.241648923,323,"2391 PONTIAC ROAD, AUBURN HILLS, MI, 48326","Match","Exact","2391 PONTIAC RD, AUBURN HILLS, MI, 48326",69708856,"L"
131824,"2391 S RIDGE RD","GREEN BAY","WI",54304,44.489764194,-88.076207906,324,"2391 S RIDGE RD, GREEN BAY, WI, 54304","Match","Exact","2391 S RIDGE RD, GREEN BAY, WI, 54304",148097734,"L"
131825,"2391 US 11","KIRKWOOD","NY",13795,42.00294605,-75.760932566,325,"2391 US 11, KIRKWOOD, NY, 13795","Match","Non_Exact","2391 US HWY 11, KIRKWOOD, NY, 13795",653458835,"L"
131826,"2391 VENTURA AVE","ROSE HILL","IA",52586,41.307925658,-92.4652243149999,326,"2391 VENTURA AVE, ROSE HILL, IA, 52586","Match","Exact","2391 VENTURA AVE, ROSE HILL, IA, 52586",89380044,"L"
131827,"2391 W TANGERINE RD","ORO VALLEY","AZ",85742,32.423817006,-111.018818535,327,"2391 W TANGERINE RD, ORO VALLEY, AZ, 85742","Match","Exact","2391 W TANGERINE RD, ORO VALLEY, AZ, 85742",637149512,"L"
131828,"23910 TOWNSHIP ROAD 59","ADA","OH",45810,NA,NA,328,"23910 TOWNSHIP ROAD 59, ADA, OH, 45810","No_Match",NA,NA,NA,NA
131829,"23911 EAST HURLEYS NECK ROAD","MARDELA SPRINGS","MD",21837,38.4124570280001,-75.78493782,329,"23911 EAST HURLEYS NECK ROAD, MARDELA SPRINGS, MD, 21837","Match","Exact","23911 E HURLEYS NECK RD, MARDELA SPRINGS, MD, 21837",647252440,"R"
131830,"23911 ROTUNDA RD","VALENCIA","CA",91355,34.384860883,-118.552532233,330,"23911 ROTUNDA RD, VALENCIA, CA, 91355","Match","Exact","23911 ROTUNDA RD, VALENCIA, CA, 91355",142711135,"L"
131831,"23912 59TH PL W","MOUNTLAKE TERRACE","WA",98043,47.78173487,-122.311679578,331,"23912 59TH PL W, MOUNTLAKE TERRACE, WA, 98043","Match","Exact","23912 59TH PL W, MOUNTLAKE TERRACE, WA, 98043",187756756,"R"
131832,"23914 S ALMA SCHOOL RD","CHANDLER","AZ",85248,33.2298922140001,-111.858396587,332,"23914 S ALMA SCHOOL RD, CHANDLER, AZ, 85248","Match","Exact","23914 S ALMA SCHOOL RD, CHANDLER, AZ, 85248",640588109,"L"
131833,"23915 GLENHILL DRIVE","BEACHWOOD","OH",44122,41.500382992,-81.509765939,333,"23915 GLENHILL DRIVE, BEACHWOOD, OH, 44122","Match","Exact","23915 GLENHILL DR, BEACHWOOD, OH, 44122",61125861,"L"
131834,"23915 SYLVAN ST","WOODLAND HILLS","CA",91367,34.1839573350001,-118.647445611,334,"23915 SYLVAN ST, WOODLAND HILLS, CA, 91367","Match","Exact","23915 SYLVAN ST, WOODLAND HILLS, CA, 91367",141722933,"R"
131835,"23919 AYSCOUGH LN","KATY","TX",77493,29.8048070080001,-95.784036229,335,"23919 AYSCOUGH LN, KATY, TX, 77493","Match","Exact","23919 AYSCOUGH LN, KATY, TX, 77493",638923810,"R"
131836,"2392 - 181ST ST","CURRIE","MN",56123,NA,NA,336,"2392 - 181ST ST, CURRIE, MN, 56123","No_Match",NA,NA,NA,NA
131837,"2392 BARRINGTON TRACE CIR SW","ATLANTA","GA",30331,33.688028423,-84.548348929,337,"2392 BARRINGTON TRACE CIR SW, ATLANTA, GA, 30331","Match","Non_Exact","2392 BARRINGTON TRACE CIR, ATLANTA, GA, 30331",629826320,"L"
131838,"2392 PRESCOTT LANE","LEXINGTON","KY",40511,38.0942768040001,-84.5056231789999,338,"2392 PRESCOTT LANE, LEXINGTON, KY, 40511","Match","Exact","2392 PRESCOTT LN, LEXINGTON, KY, 40511",31954941,"L"
131839,"2392 VINEYARD ST","WAILUKU","HI",96793,20.88706961,-156.507668935,339,"2392 VINEYARD ST, WAILUKU, HI, 96793","Match","Non_Exact","2392 W VINEYARD ST, WAILUKU, HI, 96793",85059098,"R"
131840,"23920 29TH AVE W","BRIER","WA",98036,47.7818320600001,-122.27197256,340,"23920 29TH AVE W, BRIER, WA, 98036","Match","Exact","23920 29TH AVE W, BRIER, WA, 98036",187757680,"R"
131841,"23921 W WAYLAND DRIVE","BUCKEYE","AZ",85326,33.3946291170001,-112.565480374,341,"23921 W WAYLAND DRIVE, BUCKEYE, AZ, 85326","Match","Exact","23921 W WAYLAND DR, BUCKEYE, AZ, 85326",639829058,"R"
131842,"23921 WARTHEN RD","ELMIRA","OR",97437,44.0731178280001,-123.396246455,342,"23921 WARTHEN RD, ELMIRA, OR, 97437","Match","Exact","23921 WARTHEN RD, ELMIRA, OR, 97437",642182120,"R"
131843,"23923 RHEA COUNTY HIGHWAY","SPRING CITY","TN",37381,35.7056498700001,-84.848420028,343,"23923 RHEA COUNTY HIGHWAY, SPRING CITY, TN, 37381","Match","Exact","23923 RHEA COUNTY HWY, SPRING CITY, TN, 37381",612096029,"L"
131844,"23928 EAST POWERS DRIVE","AURORA","CO",80016,39.615397757,-104.709266895,344,"23928 EAST POWERS DRIVE, AURORA, CO, 80016","Match","Exact","23928 E POWERS DR, AURORA, CO, 80016",177562381,"L"
131845,"23929 US HWY 65","WARSAW","MO",65355,38.3462145510001,-93.340460552,345,"23929 US HWY 65, WARSAW, MO, 65355","Match","Exact","23929 US HWY 65, WARSAW, MO, 65355",22700981,"L"
131846,"2393 CREEK NATION RD","JEFFERSON","GA",30549,34.124521196,-83.683627036,346,"2393 CREEK NATION RD, JEFFERSON, GA, 30549","Match","Exact","2393 CREEK NATION RD, JEFFERSON, GA, 30549",647520922,"L"
131847,"2393 DEADIRCK AVENUE","MEMPHIS","TN",38114,35.104921758,-89.9825283329999,347,"2393 DEADIRCK AVENUE, MEMPHIS, TN, 38114","Match","Non_Exact","2393 DEADRICK AVE, MEMPHIS, TN, 38114",72917942,"R"
131848,"2393 N CR 960 W","WEST BADEN SPRINGS","IN",47469,38.5935784340001,-86.638192874,348,"2393 N CR 960 W, WEST BADEN SPRINGS, IN, 47469","Match","Exact","2393 N CO RD 960 W, WEST BADEN SPRINGS, IN, 47469",32156070,"L"
131849,"23930 CADENZA DR","MURRIETA","CA",92562,33.5743671130001,-117.223212137,349,"23930 CADENZA DR, MURRIETA, CA, 92562","Match","Exact","23930 CADENZA DR, MURRIETA, CA, 92562",194842439,"L"
131850,"23931 HWY 99 STE 101","EDMONDS","WA",98026,NA,NA,350,"23931 HWY 99 STE 101, EDMONDS, WA, 98026","No_Match",NA,NA,NA,NA
131851,"23935 BEAUMONT DRIVE","NORTH OLMSTED","OH",44070,41.434539897,-81.885914053,351,"23935 BEAUMONT DRIVE, NORTH OLMSTED, OH, 44070","Match","Exact","23935 BEAUMONT DR, NORTH OLMSTED, OH, 44070",61159290,"L"
131852,"23935 MADISON ST","TORRANCE","CA",90505,33.80719514,-118.34886948,352,"23935 MADISON ST, TORRANCE, CA, 90505","Match","Exact","23935 MADISON ST, TORRANCE, CA, 90505",641496945,"R"
131853,"23937 N 73RD LN","PEORIA","AZ",85383,NA,NA,353,"23937 N 73RD LN, PEORIA, AZ, 85383","Tie",NA,NA,NA,NA
131854,"23937 PORCHER ROAD","NEWCOMERSTOWN","OH",43832,40.293840308,-81.629511121,354,"23937 PORCHER ROAD, NEWCOMERSTOWN, OH, 43832","Match","Exact","23937 PORCHER RD, NEWCOMERSTOWN, OH, 43832",52107105,"L"
131855,"23938 109TH AVE SE 2C-103","KENT","WA",98031,47.388357527,-122.19580152,355,"23938 109TH AVE SE 2C-103, KENT, WA, 98031","Match","Exact","23938 109TH AVE SE, KENT, WA, 98031",650027080,"R"
131856,"23938 MILAZZO DRIVE","RICHMOND","TX",77406,29.6915569990001,-95.790214022,356,"23938 MILAZZO DRIVE, RICHMOND, TX, 77406","Match","Exact","23938 MILAZZO DR, RICHMOND, TX, 77406",641098050,"L"
131857,"2394 BROADWAY STREET","SAN FRANCISCO","CA",94115,37.7940899220001,-122.436378471,357,"2394 BROADWAY STREET, SAN FRANCISCO, CA, 94115","Match","Exact","2394 BROADWAY ST, SAN FRANCISCO, CA, 94115",192279688,"R"
131858,"2394 BROWNS FERRY ROAD","GEORGETOWN","SC",29440,33.4473953040001,-79.306137456,358,"2394 BROWNS FERRY ROAD, GEORGETOWN, SC, 29440","Match","Exact","2394 BROWNS FERRY RD, GEORGETOWN, SC, 29440",638852829,"R"
131859,"2394 CALDER ST","BEAUMONT","TX",77702,30.0857643050001,-94.12235896,359,"2394 CALDER ST, BEAUMONT, TX, 77702","Match","Non_Exact","2394 CALDER AVE, BEAUMONT, TX, 77702",73853692,"R"
131860,"2394 CALYPSO LANE","LEAGUE CITY","TX",77573,29.539729795,-95.0692567199999,360,"2394 CALYPSO LANE, LEAGUE CITY, TX, 77573","Match","Exact","2394 CALYPSO LN, LEAGUE CITY, TX, 77573",96731843,"R"
131861,"2394 SUNSET STRIP","HIXSON","TN",37343,35.121092865,-85.229737612,361,"2394 SUNSET STRIP, HIXSON, TN, 37343","Match","Exact","2394 SUNSET STRIP, HIXSON, TN, 37343",59332592,"R"
131862,"2394 SW 28TH TER","FORT LAUDERDALE","FL",33312,26.09222249,-80.180647619,362,"2394 SW 28TH TER, FORT LAUDERDALE, FL, 33312","Match","Exact","2394 SW 28TH TER, FORT LAUDERDALE, FL, 33312",114715005,"L"
131863,"2394 TUSCAN HILLS LANE","LAS CRUCES","NM",88011,32.3493106270001,-106.726469649,363,"2394 TUSCAN HILLS LANE, LAS CRUCES, NM, 88011","Match","Exact","2394 TUSCAN HILLS LN, LAS CRUCES, NM, 88011",612716840,"L"
131864,"23940 MCMILLAN AVENUE","WARREN","MI",48091,42.4688673370001,-83.068483134,364,"23940 MCMILLAN AVENUE, WARREN, MI, 48091","Match","Exact","23940 MCMILLAN AVE, WARREN, MI, 48091",110670360,"R"
131865,"23941 E OAKLAND RD","BAY VILLAGE","OH",44140,41.4785228530001,-81.8848918469999,365,"23941 E OAKLAND RD, BAY VILLAGE, OH, 44140","Match","Exact","23941 E OAKLAND RD, BAY VILLAGE, OH, 44140",61138907,"L"
131866,"23945 SUNNYMEAD BOULEVARD","MORENO VALLEY","CA",92553,33.939077309,-117.244668229,366,"23945 SUNNYMEAD BOULEVARD, MORENO VALLEY, CA, 92553","Match","Exact","23945 SUNNYMEAD BLVD, MORENO VALLEY, CA, 92553",194749356,"R"
131867,"23946 VINCENT DRIVE","NORTH OLMSTED","OH",44070,41.4475531430001,-81.8866107219999,367,"23946 VINCENT DRIVE, NORTH OLMSTED, OH, 44070","Match","Exact","23946 VINCENT DR, NORTH OLMSTED, OH, 44070",61139355,"R"
131868,"23947 ARROYO PARK DR UNIT 175","VALENCIA","CA",91355,34.404544086,-118.553691904,368,"23947 ARROYO PARK DR UNIT 175, VALENCIA, CA, 91355","Match","Exact","23947 ARROYO PARK DR, VALENCIA, CA, 91355",142711119,"L"
131869,"2395 CREEKSIDE LN","LOOMIS","CA",95650,38.8520224430001,-121.222087267,369,"2395 CREEKSIDE LN, LOOMIS, CA, 95650","Match","Exact","2395 CREEKSIDE LN, LOOMIS, CA, 95650",106807554,"R"
131870,"2395 DELAWARE AVE SP 3","SANTA CRUZ","CA",95060,36.9545405980001,-122.06156363,370,"2395 DELAWARE AVE SP 3, SANTA CRUZ, CA, 95060","Match","Exact","2395 DELAWARE AVE, SANTA CRUZ, CA, 95060",125531375,"L"
131871,"2395 DOVERL HWY","DAWSON","GA",39842,31.731200222,-84.5129445329999,371,"2395 DOVERL HWY, DAWSON, GA, 39842","Match","Non_Exact","2395 DOVEREL HWY, DAWSON, GA, 39842",89116173,"R"
131872,"2395 HAMMOCK VIEW DR","WINTER GARDEN","FL",34787,28.507813303,-81.5885148149999,372,"2395 HAMMOCK VIEW DR, WINTER GARDEN, FL, 34787","Match","Exact","2395 HAMMOCK VIEW DR, WINTER GARDEN, FL, 34787",94409368,"R"
131873,"2395 KERSHNER ROAD","DAYTON","OH",45414,39.8738951060001,-84.248205474,373,"2395 KERSHNER ROAD, DAYTON, OH, 45414","Match","Exact","2395 KERSHNER RD, DAYTON, OH, 45414",631817341,"L"
131874,"2395 KEY AVENUE","SANFORD","FL",32771,28.7904735340001,-81.251198041,374,"2395 KEY AVENUE, SANFORD, FL, 32771","Match","Exact","2395 KEY AVE, SANFORD, FL, 32771",632115425,"R"
131875,"2395 LAKE PANCOAST DRIVE APT 10","MIAMI BEACH","FL",33140,25.8008524210001,-80.1278484919999,375,"2395 LAKE PANCOAST DRIVE APT 10, MIAMI BEACH, FL, 33140","Match","Exact","2395 LAKE PANCOAST DR, MIAMI BEACH, FL, 33140",116021080,"R"
131876,"2395 PARK AVENUE","MEMPHIS","TN",38114,35.108420704,-89.9825973229999,376,"2395 PARK AVENUE, MEMPHIS, TN, 38114","Match","Exact","2395 PARK AVE, MEMPHIS, TN, 38114",72917925,"R"
131877,"2395 SE ROCK SPRINGS DR","PORT SAINT LUCIE","FL",34952,27.26976232,-80.261571496,377,"2395 SE ROCK SPRINGS DR, PORT SAINT LUCIE, FL, 34952","Match","Exact","2395 SE ROCK SPRINGS DR, PORT ST LUCIE, FL, 34952",120173866,"L"
131878,"2395 TROOP DRIVE SUITE 103","SARTELL","MN",56377,45.58905015,-94.223379725,378,"2395 TROOP DRIVE SUITE 103, SARTELL, MN, 56377","Match","Exact","2395 TROOP DR, SARTELL, MN, 56377",611979880,"R"
131879,"2395 VALENTINE AVENUE APT 3C","BRONX","NY",10458,40.859209487,-73.8971776989999,379,"2395 VALENTINE AVENUE APT 3C, BRONX, NY, 10458","Match","Exact","2395 VALENTINE AVE, BRONX, NY, 10458",80298772,"L"
131880,"23950 SE 7TH LANE","SAMMAMISH","WA",98074,47.602026477,-122.020790047,380,"23950 SE 7TH LANE, SAMMAMISH, WA, 98074","Match","Exact","23950 SE 7TH LN, SAMMAMISH, WA, 98074",186942870,"R"
131881,"23953 PRAIRIE RD","SEDRO WOOLLEY","WA",98284,48.586021401,-122.225821415,381,"23953 PRAIRIE RD, SEDRO WOOLLEY, WA, 98284","Match","Exact","23953 PRAIRIE RD, SEDRO WOOLLEY, WA, 98284",635491565,"R"
131882,"23959 REDWOOD CT","TWAIN HARTE","CA",95383,38.053630463,-120.197896967,382,"23959 REDWOOD CT, TWAIN HARTE, CA, 95383","Match","Exact","23959 REDWOOD CT, TWAIN HARTE, CA, 95383",101454569,"R"
131883,"2396 ANDREWS VALLEY DR","KISSIMMEE","FL",34758,28.231190011,-81.4947932059999,383,"2396 ANDREWS VALLEY DR, KISSIMMEE, FL, 34758","Match","Exact","2396 ANDREWS VALLEY DR, KISSIMMEE, FL, 34758",633968365,"R"
131884,"2396 ANSON DRIVE","COLUMBUS","OH",43220,40.032308303,-83.080794391,384,"2396 ANSON DRIVE, COLUMBUS, OH, 43220","Match","Non_Exact","2396 ANSON ST, COLUMBUS, OH, 43220",218656417,"R"
131885,"2396 CABLE AVE","MEMPHIS","TN",38114,35.1118892590001,-89.982346599,385,"2396 CABLE AVE, MEMPHIS, TN, 38114","Match","Exact","2396 CABLE AVE, MEMPHIS, TN, 38114",72970534,"L"
131886,"2396 CAMBRIDGE STREET","EAST MEADOW","NY",11554,40.7130696990001,-73.557007723,386,"2396 CAMBRIDGE STREET, EAST MEADOW, NY, 11554","Match","Exact","2396 CAMBRIDGE ST, EAST MEADOW, NY, 11554",147632822,"R"
131887,"2396 DOWLEN ROAD","BEAUMONT","TX",77706,30.101204873,-94.1682988969999,387,"2396 DOWLEN ROAD, BEAUMONT, TX, 77706","Match","Exact","2396 DOWLEN RD, BEAUMONT, TX, 77706",73917494,"R"
131888,"2396 E MISSISSIPPI CIRCLE","AURORA","CO",80018,NA,NA,388,"2396 E MISSISSIPPI CIRCLE, AURORA, CO, 80018","No_Match",NA,NA,NA,NA
131889,"2396 NORTH MUSSELMAN STATION RD","FRANKFORT","OH",45628,39.3812143010001,-83.153703928,389,"2396 NORTH MUSSELMAN STATION RD, FRANKFORT, OH, 45628","Match","Exact","2396 N MUSSELMAN STATION RD, FRANKFORT, OH, 45628",37499445,"R"
131890,"2396 NORTHPARTK STREET","THOUSAND OAKS","CA",91362,NA,NA,390,"2396 NORTHPARTK STREET, THOUSAND OAKS, CA, 91362","No_Match",NA,NA,NA,NA
131891,"2396 WEST CANTEBURY STREET","SPRINGFIELD","MO",65810,37.119694112,-93.328075166,391,"2396 WEST CANTEBURY STREET, SPRINGFIELD, MO, 65810","Match","Exact","2396 W CANTEBURY ST, SPRINGFIELD, MO, 65810",76696555,"L"
131892,"2396 WILDCAT CREEK BLVD","SPRINGDALE","AR",72762,36.1626466820001,-94.2760425119999,392,"2396 WILDCAT CREEK BLVD, SPRINGDALE, AR, 72762","Match","Exact","2396 WILDCAT CREEK BLVD, SPRINGDALE, AR, 72762",49033307,"R"
131893,"23961 LYNNEWOOD DRIVE","ST MICHAELS","MD",21663,38.7700596920001,-76.247944699,393,"23961 LYNNEWOOD DRIVE, ST MICHAELS, MD, 21663","Match","Exact","23961 LYNNEWOOD DR, SAINT MICHAELS, MD, 21663",68388016,"L"
131894,"23969 LAVENDER MEADOW PL","ASHBURN","VA",20148,38.9572857540001,-77.561513868,394,"23969 LAVENDER MEADOW PL, ASHBURN, VA, 20148","Match","Exact","23969 LAVENDER MEADOW PL, ASHBURN, VA, 20148",642440335,"L"
131895,"2397 6TH STREET NW","WASHINGTON","DC",20001,38.922317821,-77.021062317,395,"2397 6TH STREET NW, WASHINGTON, DC, 20001","Match","Exact","2397 6TH ST NW, WASHINGTON, DC, 20001",76224372,"R"
131896,"2397 COUNTY ROAD SS","RICE LAKE","WI",54868,NA,NA,396,"2397 COUNTY ROAD SS, RICE LAKE, WI, 54868","No_Match",NA,NA,NA,NA
131897,"2397 HIGHWAY 92","PINEVILLE","KY",40977,NA,NA,397,"2397 HIGHWAY 92, PINEVILLE, KY, 40977","No_Match",NA,NA,NA,NA
131898,"2397 HWY 96N","URSA","IL",62376,NA,NA,398,"2397 HWY 96N, URSA, IL, 62376","No_Match",NA,NA,NA,NA
131899,"2397 LEWISBURG PIKE","SPRING HILL","TN",37174,35.7422271390001,-86.8390778569999,399,"2397 LEWISBURG PIKE, SPRING HILL, TN, 37174","Match","Exact","2397 LEWISBURG PIKE, SPRING HILL, TN, 37174",638709801,"R"
131900,"2397 SOUTH 500 EAST","PIERCETON","IN",46562,41.2015310850001,-85.748032037,400,"2397 SOUTH 500 EAST, PIERCETON, IN, 46562","Match","Exact","2397 S 500 E, PIERCETON, IN, 46562",7929976,"L"
131901,"2397 TROLAND RD","TALLAHASSEE","FL",32308,30.4723267910001,-84.2519229649999,401,"2397 TROLAND RD, TALLAHASSEE, FL, 32308","Match","Exact","2397 TROLAND RD, TALLAHASSEE, FL, 32308",82853180,"R"
131902,"2397 VERDUN STREET","MEMPHIS","TN",38114,35.079421487,-90.001157255,402,"2397 VERDUN STREET, MEMPHIS, TN, 38114","Match","Exact","2397 VERDUN ST, MEMPHIS, TN, 38114",72917568,"R"
131903,"2397 WEST PEGGY DRIVE","SAN TAN VALLEY","AZ",85142,33.1711574170001,-111.591525634,403,"2397 WEST PEGGY DRIVE, SAN TAN VALLEY, AZ, 85142","Match","Exact","2397 W PEGGY DR, SAN TAN VALLEY, AZ, 85142",129350139,"R"
131904,"23972 KONARSKA DRIVE","BROWNSTOWN","MI",48134,42.130334309,-83.26641591,404,"23972 KONARSKA DRIVE, BROWNSTOWN, MI, 48134","Match","Exact","23972 KONARSKA DR, BROWNSTOWN, MI, 48134",632508734,"L"
131905,"23972 OLD 44 DRIVE","MILLVILLE","CA",96062,40.552261865,-122.18350874,405,"23972 OLD 44 DRIVE, MILLVILLE, CA, 96062","Match","Exact","23972 OLD 44 DR, MILLVILLE, CA, 96062",126684109,"R"
131906,"23976 CARRILLO","MISSION VIEJO","CA",92691,33.6141394420001,-117.667876877,406,"23976 CARRILLO, MISSION VIEJO, CA, 92691","Match","Exact","23976 CARRILLO, MISSION VIEJO, CA, 92691",144065101,"L"
131907,"2397B HYLAN BLVD","STATEN ISLAND","NY",10306,40.5724640490001,-74.107762533,407,"2397B HYLAN BLVD, STATEN ISLAND, NY, 10306","Match","Exact","2397 HYLAN BLVD, STATEN ISLAND, NY, 10306",59868894,"R"
131908,"2398 BRIDGE CREEK ROAD","MARIANNA","FL",32448,30.739576986,-85.154709334,408,"2398 BRIDGE CREEK ROAD, MARIANNA, FL, 32448","Match","Exact","2398 BRIDGE CREEK RD, MARIANNA, FL, 32448",652503686,"R"
131909,"2398 COMMERCIAL WAY SUITE 194","SPRING HILL","FL",34606,28.4669203450001,-82.621480139,409,"2398 COMMERCIAL WAY SUITE 194, SPRING HILL, FL, 34606","Match","Exact","2398 COMMERCIAL WAY, SPRING HILL, FL, 34606",85461240,"R"
131910,"2398 COMMERCIAL WAY SUITE 232","SPRING HILL","FL",34609,28.4669203450001,-82.621480139,410,"2398 COMMERCIAL WAY SUITE 232, SPRING HILL, FL, 34609","Match","Non_Exact","2398 COMMERCIAL WAY, SPRING HILL, FL, 34606",85461240,"R"
131911,"2398 LAMAR AVENUE","MEMPHIS","TN",38114,35.103687128,-89.983097121,411,"2398 LAMAR AVENUE, MEMPHIS, TN, 38114","Match","Exact","2398 LAMAR AVE, MEMPHIS, TN, 38114",72917452,"L"
131912,"2398 LENORA CHURCH RD STE 104","SNELLVILLE","GA",30078,33.853006824,-84.019112058,412,"2398 LENORA CHURCH RD STE 104, SNELLVILLE, GA, 30078","Match","Exact","2398 LENORA CHURCH RD, SNELLVILLE, GA, 30078",642535873,"L"
131913,"2398 NEWFOUND HARBOR DRIVE","MERRITT ISLAND","FL",32952,28.3161364740001,-80.659933009,413,"2398 NEWFOUND HARBOR DRIVE, MERRITT ISLAND, FL, 32952","Match","Exact","2398 NEWFOUND HARBOR DR, MERRITT ISLAND, FL, 32952",93898958,"L"
131914,"2398 RAYNOR DRIVE","VIRGINIA BEACH","VA",23456,NA,NA,414,"2398 RAYNOR DRIVE, VIRGINIA BEACH, VA, 23456","No_Match",NA,NA,NA,NA
131915,"2398 RESERVOIR ROAD","HOLLIDAYSBURG","PA",16648,40.420570653,-78.363604892,415,"2398 RESERVOIR ROAD, HOLLIDAYSBURG, PA, 16648","Match","Exact","2398 RESERVOIR RD, HOLLIDAYSBURG, PA, 16648",49736960,"L"
131916,"2398 SADLER RD","FERNANDINA BEACH","FL",32034,30.639174473,-81.4407918759999,416,"2398 SADLER RD, FERNANDINA BEACH, FL, 32034","Match","Exact","2398 SADLER RD, FERNANDINA BCH, FL, 32034",610870466,"L"
131917,"2398 SADLER ROAD SUITE 200","FERNANDINA BEACH","FL",32034,30.639174473,-81.4407918759999,417,"2398 SADLER ROAD SUITE 200, FERNANDINA BEACH, FL, 32034","Match","Exact","2398 SADLER RD, FERNANDINA BCH, FL, 32034",610870466,"L"
131918,"23985 GULL AVE","CLEAR LAKE","IA",50428,43.240825461,-93.374388858,418,"23985 GULL AVE, CLEAR LAKE, IA, 50428","Match","Exact","23985 GULL AVE, CLEAR LAKE, IA, 50428",7288849,"R"
131919,"23985 POPE ROAD","HEMPSTEAD","TX",77445,30.1319903630001,-96.1320761539999,419,"23985 POPE ROAD, HEMPSTEAD, TX, 77445","Match","Exact","23985 POPE RD, HEMPSTEAD, TX, 77445",649857888,"L"
131920,"23986 ALISO CREEK 201","LAGUNA NIGUEL","CA",92677,33.5899133950001,-117.723696208,420,"23986 ALISO CREEK 201, LAGUNA NIGUEL, CA, 92677","Match","Non_Exact","23986 ALISO CREEK RD, LAGUNA NIGUEL, CA, 92677",635475335,"R"
131921,"23988 GREENLAWN AVENUE","BEACHWOOD","OH",44122,41.4954327890001,-81.509976738,421,"23988 GREENLAWN AVENUE, BEACHWOOD, OH, 44122","Match","Exact","23988 GREENLAWN AVE, BEACHWOOD, OH, 44122",61134143,"R"
131922,"2399 CRANE COURT","FAYETTEVILLE","AR",72704,36.1021142160001,-94.192876656,422,"2399 CRANE COURT, FAYETTEVILLE, AR, 72704","Match","Non_Exact","2399 W CRANE CT, FAYETTEVILLE, AR, 72704",614108817,"R"
131923,"2399 FM 895","COOPER","TX",75432,NA,NA,423,"2399 FM 895, COOPER, TX, 75432","No_Match",NA,NA,NA,NA
131924,"2399 HENDRICKS ST","GARY","IN",46404,41.575236396,-87.380289288,424,"2399 HENDRICKS ST, GARY, IN, 46404","Match","Exact","2399 HENDRICKS ST, GARY, IN, 46404",606282295,"L"
131925,"2399 MONTE VILLA CTS","MARIETTA","GA",30062,33.9791868890001,-84.484174581,425,"2399 MONTE VILLA CTS, MARIETTA, GA, 30062","Match","Non_Exact","2399 MONTE VILLA CT, MARIETTA, GA, 30062",618320130,"R"
131926,"2399 MT LEBANON CHURCH RD","GREENSBURG","KY",42743,37.2288389280001,-85.555477407,426,"2399 MT LEBANON CHURCH RD, GREENSBURG, KY, 42743","Match","Exact","2399 MOUNT LEBANON CHURCH RD, GREENSBURG, KY, 42743",69321246,"L"
131927,"2399 NO CONCORD","REEDLEY","CA",93654,36.618000409,-119.445888288,427,"2399 NO CONCORD, REEDLEY, CA, 93654","Match","Exact","2399 CONCORD, REEDLEY, CA, 93654",625177351,"R"
131928,"23995 FREEWAY PARK","FARMINGTON HILLS","MI",48335,42.4654559480001,-83.423127054,428,"23995 FREEWAY PARK, FARMINGTON HILLS, MI, 48335","Match","Non_Exact","23995 FREEWAY PARK DR, FARMINGTON HILLS, MI, 48335",69818057,"L"
131929,"23995 LEANN DR","HAMPTON","MN",55031,44.601762927,-92.858299635,429,"23995 LEANN DR, HAMPTON, MN, 55031","Match","Non_Exact","23995 LEEANN DR, HAMPTON, MN, 55031",37935538,"L"
131930,"23996 HOOKER RD","SAND LAKE","MI",49343,43.3358413110001,-85.562026714,430,"23996 HOOKER RD, SAND LAKE, MI, 49343","Match","Exact","23996 HOOKER RD, SAND LAKE, MI, 49343",110571422,"L"
131931,"23997 ABERDEEN AVE","BELLE PLAINE","MN",56011,44.6023956560001,-93.6442070159999,431,"23997 ABERDEEN AVE, BELLE PLAINE, MN, 56011","Match","Exact","23997 ABERDEEN AVE, BELLE PLAINE, MN, 56011",38146675,"L"
131932,"23999 NORTHWESTERN HWY","SOUTHFIELD","MI",48075,42.465616524,-83.232237303,432,"23999 NORTHWESTERN HWY, SOUTHFIELD, MI, 48075","Match","Exact","23999 NORTHWESTERN HWY, SOUTHFIELD, MI, 48075",69815660,"L"
131933,"239A NORTH SYRACUSE AVE","NORTH MASSAPEQUA","NY",11758,40.7090647270001,-73.464201423,433,"239A NORTH SYRACUSE AVE, NORTH MASSAPEQUA, NY, 11758","Match","Exact","239 N SYRACUSE AVE, N MASSAPEQUA, NY, 11758",147649990,"R"
131934,"239WOODBERRY DR","ORANGEBURG","SC",29115,NA,NA,434,"239WOODBERRY DR, ORANGEBURG, SC, 29115","No_Match",NA,NA,NA,NA
131935,"23A JOHNSON ST","NEWBURYPORT","MA",1950,42.8096113720001,-70.883894697,435,"23A JOHNSON ST, NEWBURYPORT, MA, 1950","Match","Exact","23 JOHNSON ST, NEWBURYPORT, MA, 01950",86686868,"L"
131936,"23A ROCKY HILL RD","YARMOUTH","ME",4096,43.796966087,-70.180041806,436,"23A ROCKY HILL RD, YARMOUTH, ME, 4096","Match","Exact","23 ROCKY HILL RD, YARMOUTH, ME, 04096",78031741,"L"
131937,"23A SKILLMAN AVE APT 1","JERSEY CITY","NJ",7306,40.7370722110001,-74.0637689229999,437,"23A SKILLMAN AVE APT 1, JERSEY CITY, NJ, 7306","Match","Exact","23 SKILLMAN AVE, JERSEY CITY, NJ, 07306",59604046,"L"
131938,"23C/O 411 ELM STREET","WESTFIELD","NJ",7090,40.654896939,-74.3539698399999,438,"23C/O 411 ELM STREET, WESTFIELD, NJ, 7090","Match","Exact","411 ELM ST, WESTFIELD, NJ, 07090",60566905,"L"
131939,"23R PARK PLACE","MIDDLETOWN","CT",6457,41.5607405800001,-72.6588034169999,439,"23R PARK PLACE, MIDDLETOWN, CT, 6457","Match","Exact","23 PARK PL, MIDDLETOWN, CT, 06457",113889130,"R"
131940,"23W304 ST JAMES CT","GLEN ELLYN","IL",60137,41.834792733,-88.079288349,440,"23W304 ST JAMES CT, GLEN ELLYN, IL, 60137","Match","Exact","23W304 SAINT JAMES CT, GLEN ELLYN, IL, 60137",112530449,"R"
131941,"24 13TH STREET","LAKEWOOD","NJ",8701,NA,NA,441,"24 13TH STREET, LAKEWOOD, NJ, 8701","No_Match",NA,NA,NA,NA
131942,"24 14TH AVE SW","MINOT","ND",58701,48.2218912430001,-101.293562834,442,"24 14TH AVE SW, MINOT, ND, 58701","Match","Exact","24 14TH AVE SW, MINOT, ND, 58701",200490157,"R"
131943,"24 1ST AVENUE E SUITE D","KALISPELL","MT",59901,48.2007924850001,-114.312945206,443,"24 1ST AVENUE E SUITE D, KALISPELL, MT, 59901","Match","Non_Exact","24 1ST AVENUE EAST N, KALISPELL, MT, 59901",204087121,"L"
131944,"24 21ST ST","SAN DIEGO","CA",92102,32.705233326,-117.144880977,444,"24 21ST ST, SAN DIEGO, CA, 92102","Match","Exact","24 21ST ST, SAN DIEGO, CA, 92102",195401915,"L"
131945,"24 A FALCON CIRCLE","CARTERSVILLE","GA",30121,NA,NA,445,"24 A FALCON CIRCLE, CARTERSVILLE, GA, 30121","Tie",NA,NA,NA,NA
131946,"24 ADAMS LN","NORWALK","CT",6850,41.152909161,-73.436753741,446,"24 ADAMS LN, NORWALK, CT, 6850","Match","Exact","24 ADAMS LN, NORWALK, CT, 06850",3260807,"L"
131947,"24 ADAMS ST","KEENE","NH",3431,42.925947138,-72.274780886,447,"24 ADAMS ST, KEENE, NH, 3431","Match","Exact","24 ADAMS ST, KEENE, NH, 03431",124051399,"R"
131948,"24 ADELPHI TRAIL","HOPATCONG","NJ",7843,40.9538907450001,-74.656257403,448,"24 ADELPHI TRAIL, HOPATCONG, NJ, 7843","Match","Exact","24 ADELPHI TRL, HOPATCONG, NJ, 07843",98007039,"L"
131949,"24 ADRIAN STREET APT 2","SOMERVILLE","MA",2143,42.3774127030001,-71.098475929,449,"24 ADRIAN STREET APT 2, SOMERVILLE, MA, 2143","Match","Exact","24 ADRIAN ST, SOMERVILLE, MA, 02143",86869327,"R"
131950,"24 AKIN WAY","CARTERSVILLE","GA",30120,34.248081433,-84.875249797,450,"24 AKIN WAY, CARTERSVILLE, GA, 30120","Match","Exact","24 AKIN WAY, CARTERSVILLE, GA, 30120",30469223,"R"
131951,"24 ALAMEDA","ROCHESTER","NY",14613,43.187112208,-77.631542462,451,"24 ALAMEDA, ROCHESTER, NY, 14613","Match","Non_Exact","24 ALAMEDA ST, ROCHESTER, NY, 14613",14531852,"R"
131952,"24 ALAN ROAD","MARLBOROUGH","MA",1752,42.3680885960001,-71.528838718,452,"24 ALAN ROAD, MARLBOROUGH, MA, 1752","Match","Exact","24 ALAN RD, MARLBOROUGH, MA, 01752",86901033,"L"
131953,"24 ALGONQUIN DRIVE","CHAPPAQUA","NY",10514,41.1625142620001,-73.754049423,453,"24 ALGONQUIN DRIVE, CHAPPAQUA, NY, 10514","Match","Exact","24 ALGONQUIN DR, CHAPPAQUA, NY, 10514",139736470,"R"
131954,"24 AMMANN ROAD","BOERNE","TX",78015,29.78687681,-98.679869471,454,"24 AMMANN ROAD, BOERNE, TX, 78015","Match","Exact","24 AMMANN RD, BOERNE, TX, 78015",633517594,"R"
131955,"24 APPLE HILL DRIVE","LITITZ","PA",17543,40.134406674,-76.281754602,455,"24 APPLE HILL DRIVE, LITITZ, PA, 17543","Match","Exact","24 APPLE HILL DR, LITITZ, PA, 17543",179689634,"R"
131956,"24 AQUINNAH DRIVE","POOLER","GA",31322,32.0580204240001,-81.262794936,456,"24 AQUINNAH DRIVE, POOLER, GA, 31322","Match","Exact","24 AQUINNAH DR, POOLER, GA, 31322",614109390,"R"
131957,"24 ARBORSIDE","IRVINE","CA",92603,33.624587256,-117.82299277,457,"24 ARBORSIDE, IRVINE, CA, 92603","Match","Exact","24 ARBORSIDE, IRVINE, CA, 92603",608140609,"L"
131958,"24 ASHFIELD ROAD","SHELBURNE FALLS","MA",1370,42.61633957,-72.7508298239999,458,"24 ASHFIELD ROAD, SHELBURNE FALLS, MA, 1370","Match","Exact","24 ASHFIELD RD, SHELBURNE FALLS, MA, 01370",39931497,"L"
131959,"24 ASHLAND AVE","SOUTHBRIDGE","MA",1550,42.0665216740001,-72.015168058,459,"24 ASHLAND AVE, SOUTHBRIDGE, MA, 1550","Match","Exact","24 ASHLAND AVE, SOUTHBRIDGE, MA, 01550",40001705,"L"
131960,"24 ASHLAND DR","DESTREHAN","LA",70047,29.9666870090001,-90.3684881189999,460,"24 ASHLAND DR, DESTREHAN, LA, 70047","Match","Exact","24 ASHLAND DR, DESTREHAN, LA, 70047",93617700,"R"
131961,"24 ASILOMAR RD","LAGUNA NIGUEL","CA",92677,33.503454671,-117.692804671,461,"24 ASILOMAR RD, LAGUNA NIGUEL, CA, 92677","Match","Exact","24 ASILOMAR RD, LAGUNA NIGUEL, CA, 92677",144391246,"R"
131962,"24 AVALON","HIGHLAND PARK","MI",48203,42.3999530610001,-83.094465053,462,"24 AVALON, HIGHLAND PARK, MI, 48203","Match","Non_Exact","24 AVALON ST, HIGHLAND PARK, MI, 48203",95463664,"R"
131963,"24 AVENUE 70","STAPLETON","NE",69163,41.459715863,-100.597931026,463,"24 AVENUE 70, STAPLETON, NE, 69163","Match","Exact","24 AVE 70, STAPLETON, NE, 69163",162133379,"L"
131964,"24 BALSAM CT","LAWRENCEVILLE","NJ",8648,40.277243227,-74.7248701039999,464,"24 BALSAM CT, LAWRENCEVILLE, NJ, 8648","Match","Exact","24 BALSAM CT, LAWRENCEVILLE, NJ, 08648",60210645,"L"
131965,"24 BANBURY CROSS","SHARPSBURG","GA",30277,33.4563359840001,-84.646759206,465,"24 BANBURY CROSS, SHARPSBURG, GA, 30277","Match","Exact","24 BANBURY CROSS, SHARPSBURG, GA, 30277",9334895,"L"
131966,"24 BANCROFT LANE","HAINESPORT","NJ",8036,39.970291833,-74.8282387579999,466,"24 BANCROFT LANE, HAINESPORT, NJ, 8036","Match","Exact","24 BANCROFT LN, HAINESPORT, NJ, 08036",134095053,"L"
131967,"24 BARBERIE AVE","HIGHLANDS","NJ",7732,40.4058732130001,-73.99066621,467,"24 BARBERIE AVE, HIGHLANDS, NJ, 7732","Match","Exact","24 BARBERIE AVE, HIGHLANDS, NJ, 07732",90468579,"R"
131968,"24 BAY ROAD PO BOX 2047","NORTH FALMOUTH","MA",2556,41.64704197,-70.6199115319999,468,"24 BAY ROAD PO BOX 2047, NORTH FALMOUTH, MA, 2556","Match","Exact","24 BAY RD, N FALMOUTH, MA, 02556",121588874,"L"
131969,"24 BAY ROAD","NORTH FALMOUTH","MA",2556,41.64704197,-70.6199115319999,469,"24 BAY ROAD, NORTH FALMOUTH, MA, 2556","Match","Exact","24 BAY RD, N FALMOUTH, MA, 02556",121588874,"L"
131970,"24 BAYARD PLACE","NEWARK","NJ",7106,40.7364845230001,-74.233709107,470,"24 BAYARD PLACE, NEWARK, NJ, 7106","Match","Exact","24 BAYARD PL, NEWARK, NJ, 07106",63463990,"L"
131971,"24 BAYVIEW CT","HAMPTON","VA",23664,37.0386641900001,-76.297337877,471,"24 BAYVIEW CT, HAMPTON, VA, 23664","Match","Exact","24 BAYVIEW CT, HAMPTON, VA, 23664",103803853,"R"
131972,"24 BEACH ROAD PO BOX 1698","VINEYARD HAVEN","MA",2568,41.4536092980001,-70.6004355009999,472,"24 BEACH ROAD PO BOX 1698, VINEYARD HAVEN, MA, 2568","Match","Exact","24 BEACH RD, VINEYARD HAVEN, MA, 02568",635761886,"L"
131973,"24 BEACHWAY DRIVE SUITE H","INDIANAPOLIS","IN",46224,39.776488113,-86.2697978859999,473,"24 BEACHWAY DRIVE SUITE H, INDIANAPOLIS, IN, 46224","Match","Exact","24 BEACHWAY DR, INDIANAPOLIS, IN, 46224",640810633,"L"
131974,"24 BELLMONT DRIVE","COLLEGEVILLE","PA",19426,40.21234249,-75.4834756549999,474,"24 BELLMONT DRIVE, COLLEGEVILLE, PA, 19426","Match","Exact","24 BELLMONT DR, COLLEGEVILLE, PA, 19426",617141365,"L"
131975,"24 BELVEDERE AVENUE","JERSEY CITY","NJ",7304,40.722120218,-74.08355112,475,"24 BELVEDERE AVENUE, JERSEY CITY, NJ, 7304","Match","Non_Exact","24 BELVIDERE AVE, JERSEY CITY, NJ, 07304",59604147,"R"
131976,"24 BIRCH STREET","KINGSTREE","SC",29556,33.6856084950001,-79.816020397,476,"24 BIRCH STREET, KINGSTREE, SC, 29556","Match","Exact","24 BIRCH ST, KINGSTREE, SC, 29556",29205148,"L"
131977,"24 BIRDSHALL FARM DRIVE","ARMONK","NY",10504,NA,NA,477,"24 BIRDSHALL FARM DRIVE, ARMONK, NY, 10504","No_Match",NA,NA,NA,NA
131978,"24 BISHOP STREET","LOWELL","MA",1852,42.625615118,-71.2844906569999,478,"24 BISHOP STREET, LOWELL, MA, 1852","Match","Exact","24 BISHOP ST, LOWELL, MA, 01852",86879632,"L"
131979,"24 BLAKEPORT LN","PALM COAST","FL",32137,29.552833901,-81.2013155719999,479,"24 BLAKEPORT LN, PALM COAST, FL, 32137","Match","Exact","24 BLAKEPORT LN, PALM COAST, FL, 32137",636361102,"R"
131980,"24 BLISS LANE","SURRY","ME",4684,NA,NA,480,"24 BLISS LANE, SURRY, ME, 4684","No_Match",NA,NA,NA,NA
131981,"24 BLOOMER ROAD","NORTH SALEM","NY",10560,41.355235361,-73.57956016,481,"24 BLOOMER ROAD, NORTH SALEM, NY, 10560","Match","Exact","24 BLOOMER RD, NORTH SALEM, NY, 10560",653518878,"R"
131982,"24 BLUE JAY CT","HOWELL","NJ",7731,40.1424557,-74.217398749,482,"24 BLUE JAY CT, HOWELL, NJ, 7731","Match","Exact","24 BLUE JAY CT, HOWELL, NJ, 07731",90496144,"R"
131983,"24 BLUE JAY LN","NORTH OAKS","MN",55127,45.0890468960001,-93.113052469,483,"24 BLUE JAY LN, NORTH OAKS, MN, 55127","Match","Exact","24 BLUE JAY LN, NORTH OAKS, MN, 55127",97659366,"L"
131984,"24 BLUEBERRY DR","MILLTOWN","NJ",8850,40.452947694,-74.426279709,484,"24 BLUEBERRY DR, MILLTOWN, NJ, 8850","Match","Exact","24 BLUEBERRY DR, MILLTOWN, NJ, 08850",60267354,"R"
131985,"24 BOND STREET","NEW YORK","NY",10012,40.7265227240001,-73.993867134,485,"24 BOND STREET, NEW YORK, NY, 10012","Match","Exact","24 BOND ST, NEW YORK, NY, 10012",59653905,"L"
131986,"24 BRIDGE ST","ST JOHNSVILLE","NY",13452,42.997992239,-74.679167214,486,"24 BRIDGE ST, ST JOHNSVILLE, NY, 13452","Match","Exact","24 BRIDGE ST, SAINT JOHNSVILLE, NY, 13452",18611825,"L"
131987,"24 BRIDGESTONE DRIVE","CONWAY","AR",72032,35.080707498,-92.4074110669999,487,"24 BRIDGESTONE DRIVE, CONWAY, AR, 72032","Match","Exact","24 BRIDGESTONE DR, CONWAY, AR, 72032",141058674,"L"
131988,"24 BRIDLE PATH","ARCADIA","FM",34266,NA,NA,488,"24 BRIDLE PATH, ARCADIA, FM, 34266","No_Match",NA,NA,NA,NA
131989,"24 BRIGHTON DRIVE","NEWBURGH","NY",12550,41.530315419,-74.087438887,489,"24 BRIGHTON DRIVE, NEWBURGH, NY, 12550","Match","Exact","24 BRIGHTON DR, NEWBURGH, NY, 12550",619677646,"R"
131990,"24 BROAD AVENUE","PARAMUS","NJ",7652,40.9298542610001,-74.0683002,490,"24 BROAD AVENUE, PARAMUS, NJ, 7652","Match","Exact","24 BROAD AVE, PARAMUS, NJ, 07652",64383336,"R"
131991,"24 BROOKLYN AVENUE","VALLEY STREAM","NY",11581,40.659086546,-73.699563113,491,"24 BROOKLYN AVENUE, VALLEY STREAM, NY, 11581","Match","Exact","24 BROOKLYN AVE, VALLEY STREAM, NY, 11581",147670249,"R"
131992,"24 BROUGHTON RD","CHARLESTON","SC",29407,32.7712666670001,-79.969827397,492,"24 BROUGHTON RD, CHARLESTON, SC, 29407","Match","Exact","24 BROUGHTON RD, CHARLESTON, SC, 29407",108806393,"R"
131993,"24 BUTLER STREET","MILPITAS","CA",95035,37.430358502,-121.91105924,493,"24 BUTLER STREET, MILPITAS, CA, 95035","Match","Exact","24 BUTLER ST, MILPITAS, CA, 95035",122958953,"R"
131994,"24 BUTTERNUT LANE","ROCKLAND","MA",2370,42.123374197,-70.9060792499999,494,"24 BUTTERNUT LANE, ROCKLAND, MA, 2370","Match","Exact","24 BUTTERNUT LN, ROCKLAND, MA, 02370",87448661,"L"
131995,"24 BYRD AVENUE","BOSTON","MA",2131,42.2860745,-71.114591799,495,"24 BYRD AVENUE, BOSTON, MA, 2131","Match","Exact","24 BYRD AVE, BOSTON, MA, 02131",85704814,"L"
131996,"24 CALLE PASTADERO","SAN CLEMENTE","CA",92672,33.4379598680001,-117.592823185,496,"24 CALLE PASTADERO, SAN CLEMENTE, CA, 92672","Match","Non_Exact","24 CLL PASTADERO, SAN CLEMENTE, CA, 92672",144095328,"L"
131997,"24 CAMBRIDGE DRIVE","NORTH CALDWELL","NJ",7006,40.8624357030001,-74.266546213,497,"24 CAMBRIDGE DRIVE, NORTH CALDWELL, NJ, 7006","Match","Exact","24 CAMBRIDGE DR, N CALDWELL, NJ, 07006",63495016,"L"
131998,"24 CANAL STREET","BELLOWS FALLS","VT",5101,43.135286018,-72.445432876,498,"24 CANAL STREET, BELLOWS FALLS, VT, 5101","Match","Exact","24 CANAL ST, BELLOWS FALLS, VT, 05101",171084154,"L"
131999,"24 CARAGANA LANE","YEMASSEE","SC",29945,NA,NA,499,"24 CARAGANA LANE, YEMASSEE, SC, 29945","No_Match",NA,NA,NA,NA
132000,"24 CARDINAL DRIVE","NATCHEZ","MS",39120,31.5494011500001,-91.229608688,500,"24 CARDINAL DRIVE, NATCHEZ, MS, 39120","Match","Exact","24 CARDINAL DR, NATCHEZ, MS, 39120",610788320,"R"
