"ID","Address","City","State","Zip","lat","long","id","input_address","match_indicator","match_type","matched_address","tiger_line_id","tiger_side"
113001,"210 E MONTICELLO DR","KAYSVILLE","UT",84037,41.0174772770001,-111.934531263,1,"210 E MONTICELLO DR, KAYSVILLE, UT, 84037","Match","Exact","210 E MONTICELLO DR, KAYSVILLE, UT, 84037",229363126,"L"
113002,"210 E ROCKLAND ST","PHILADELPHIA","PA",19120,40.024310648,-75.1213211259999,2,"210 E ROCKLAND ST, PHILADELPHIA, PA, 19120","Match","Exact","210 E ROCKLAND ST, PHILADELPHIA, PA, 19120",131420065,"R"
113003,"210 E TAYLOR ST","KOKOMO","IN",46903,40.489296053,-86.129813148,3,"210 E TAYLOR ST, KOKOMO, IN, 46903","Match","Non_Exact","210 E TAYLOR ST, KOKOMO, IN, 46901",27263806,"L"
113004,"210 E UNION CITY RD","COLDWATER","MI",49036,42.014680965,-85.0384634059999,4,"210 E UNION CITY RD, COLDWATER, MI, 49036","Match","Exact","210 E UNION CITY RD, COLDWATER, MI, 49036",8217463,"L"
113005,"210 E WATER ST","FARMERVILLE","LA",71241,NA,NA,5,"210 E WATER ST, FARMERVILLE, LA, 71241","No_Match",NA,NA,NA,NA
113006,"210 EAST 2ND STREET","FRONT ROYAL","VA",22630,38.9217218480001,-78.191154518,6,"210 EAST 2ND STREET, FRONT ROYAL, VA, 22630","Match","Exact","210 E 2ND ST, FRONT ROYAL, VA, 22630",638846146,"L"
113007,"210 EAST 4TH AVENUE","FRIENDSVILLE","TN",37737,35.762119876,-84.130403593,7,"210 EAST 4TH AVENUE, FRIENDSVILLE, TN, 37737","Match","Exact","210 E 4TH AVE, FRIENDSVILLE, TN, 37737",89825537,"L"
113008,"210 EAST 83RD STREET APT 2A","NEW YORK","NY",10028,40.7767079550001,-73.955037573,8,"210 EAST 83RD STREET APT 2A, NEW YORK, NY, 10028","Match","Exact","210 E 83RD ST, NEW YORK, NY, 10028",59658275,"R"
113009,"210 EAST 86TH STREET SUITE 202A","NEW YORK","NY",10028,40.778618941,-73.9535135099999,9,"210 EAST 86TH STREET SUITE 202A, NEW YORK, NY, 10028","Match","Exact","210 E 86TH ST, NEW YORK, NY, 10028",652208963,"R"
113010,"210 EAST CHARLESTON AVE","WILDWOOD CREST","NJ",8260,38.9636185570001,-74.848520956,10,"210 EAST CHARLESTON AVE, WILDWOOD CREST, NJ, 8260","Match","Exact","210 E CHARLESTON AVE, WILDWOOD CREST, NJ, 08260",174333105,"L"
113011,"210 EAST DYER STREET","BRECKENRIDGE","TX",76424,32.757318775,-98.901117357,11,"210 EAST DYER STREET, BRECKENRIDGE, TX, 76424","Match","Exact","210 E DYER ST, BRECKENRIDGE, TX, 76424",187522083,"R"
113012,"210 EAST HALL STREET","CARTERVILLE","MO",64835,37.149920061,-94.440671117,12,"210 EAST HALL STREET, CARTERVILLE, MO, 64835","Match","Exact","210 E HALL ST, CARTERVILLE, MO, 64835",66150168,"L"
113013,"210 EAST HEYWOOD STREET","SAN BENITO","TX",78586,26.132578187,-97.6293665649999,13,"210 EAST HEYWOOD STREET, SAN BENITO, TX, 78586","Match","Exact","210 E HEYWOOD ST, SAN BENITO, TX, 78586",89959551,"R"
113014,"210 EAST LIBERTY STREET","CHARLES TOWN","WV",25414,39.2903942340001,-77.858921198,14,"210 EAST LIBERTY STREET, CHARLES TOWN, WV, 25414","Match","Exact","210 E LIBERTY ST, CHARLES TOWN, WV, 25414",123421945,"L"
113015,"210 EAST MAIN 593","ROSEBUD","TX",76570,NA,NA,15,"210 EAST MAIN 593, ROSEBUD, TX, 76570","No_Match",NA,NA,NA,NA
113016,"210 EAST MAIN STREET","AMSTERDAM","NY",12010,42.933539684,-74.18477696,16,"210 EAST MAIN STREET, AMSTERDAM, NY, 12010","Match","Exact","210 E MAIN ST, AMSTERDAM, NY, 12010",18616651,"R"
113017,"210 EAST MAIN STREET","BATAVIA","NY",14020,42.9972093050001,-78.1808462609999,17,"210 EAST MAIN STREET, BATAVIA, NY, 14020","Match","Exact","210 E MAIN ST, BATAVIA, NY, 14020",48141581,"L"
113018,"210 EAST ROAD","WEST BROOKFIELD","MA",1585,42.210436895,-72.183896449,18,"210 EAST ROAD, WEST BROOKFIELD, MA, 1585","Match","Exact","210 EAST RD, W BROOKFIELD, MA, 01585",39997699,"L"
113019,"210 EASTWOOD","HIGBEE","MO",65257,39.3003365700001,-92.510479848,19,"210 EASTWOOD, HIGBEE, MO, 65257","Match","Non_Exact","210 EASTWOOD ST, HIGBEE, MO, 65257",23797854,"L"
113020,"210 ECTOR DR SUIT 152","EULESS","TX",76039,32.838074239,-97.090736824,20,"210 ECTOR DR SUIT 152, EULESS, TX, 76039","Match","Non_Exact","210 N ECTOR DR, EULESS, TX, 76039",102142625,"R"
113021,"210 EDWARDS RD","LYMAN","SC",29365,34.9605450830001,-82.145018039,21,"210 EDWARDS RD, LYMAN, SC, 29365","Match","Exact","210 EDWARDS RD, LYMAN, SC, 29365",618460570,"R"
113022,"210 EIGHTH ST","LAFAYETTE","LA",70501,30.225086042,-92.011458405,22,"210 EIGHTH ST, LAFAYETTE, LA, 70501","Match","Exact","210 8TH ST, LAFAYETTE, LA, 70501",85616187,"R"
113023,"210 ELM ST","ROME","NY",13440,43.219074291,-75.453504117,23,"210 ELM ST, ROME, NY, 13440","Match","Exact","210 ELM ST, ROME, NY, 13440",171522138,"R"
113024,"210 ELM STREET","GROTON","NY",13073,42.587647185,-76.3638860519999,24,"210 ELM STREET, GROTON, NY, 13073","Match","Exact","210 ELM ST, GROTON, NY, 13073",18853585,"R"
113025,"210 ELMWOOD DR","PITTSBURG","KS",66762,37.3983918960001,-94.716751417,25,"210 ELMWOOD DR, PITTSBURG, KS, 66762","Match","Exact","210 ELMWOOD DR, PITTSBURG, KS, 66762",33423738,"L"
113026,"210 EMANUEL CLEAVER II BLVD APT 3E","KANSAS CITY","MO",64112,39.042109381,-94.58378927,26,"210 EMANUEL CLEAVER II BLVD APT 3E, KANSAS CITY, MO, 64112","Match","Exact","210 EMANUEL CLEAVER II BLVD, KANSAS CITY, MO, 64112",91539801,"L"
113027,"210 ENCHANTMENT RD","RAPID CITY","SD",57701,44.0363260560001,-103.221958032,27,"210 ENCHANTMENT RD, RAPID CITY, SD, 57701","Match","Exact","210 ENCHANTMENT RD, RAPID CITY, SD, 57701",625304485,"L"
113028,"210 ENID LANE","NORTHFIELD","IL",60093,42.096062949,-87.786746431,28,"210 ENID LANE, NORTHFIELD, IL, 60093","Match","Exact","210 ENID LN, NORTHFIELD, IL, 60093",111729414,"L"
113029,"210 ERIE STREET","EDINBORO","PA",16412,41.8760637080001,-80.131563069,29,"210 ERIE STREET, EDINBORO, PA, 16412","Match","Exact","210 ERIE ST, EDINBORO, PA, 16412",117489045,"R"
113030,"210 ERNIE PYLE STREET","GALAX","VA",24333,36.651099376,-80.931232598,30,"210 ERNIE PYLE STREET, GALAX, VA, 24333","Match","Exact","210 ERNIE PYLE ST, GALAX, VA, 24333",153806609,"R"
113031,"210 FAIRFIELD DRIVE","ELLENWOOD","GA",30294,33.6210957500001,-84.226549721,31,"210 FAIRFIELD DRIVE, ELLENWOOD, GA, 30294","Match","Exact","210 FAIRFIELD DR, ELLENWOOD, GA, 30294",23188159,"R"
113032,"210 FERDINAND STREET - SUITE 2","FREDERICKSBURG","VA",22401,38.294098149,-77.457941881,32,"210 FERDINAND STREET - SUITE 2, FREDERICKSBURG, VA, 22401","Match","Exact","210 FERDINAND ST, FREDERICKSBURG, VA, 22401",616380312,"L"
113033,"210 FERNDALE STREET NORTH","MAPLEWOOD","MN",55119,44.9469816180001,-92.989781216,33,"210 FERNDALE STREET NORTH, MAPLEWOOD, MN, 55119","Match","Non_Exact","210 FERNDALE ST, MAPLEWOOD, MN, 55119",97655450,"R"
113034,"210 FIR AVE APT 304","FORKS","WA",98331,47.952111486,-124.3799869,34,"210 FIR AVE APT 304, FORKS, WA, 98331","Match","Exact","210 FIR AVE, FORKS, WA, 98331",623952496,"L"
113035,"210 FIRE STATION DRIVE","ALBION","IN",46701,41.395603328,-85.4082799459999,35,"210 FIRE STATION DRIVE, ALBION, IN, 46701","Match","Non_Exact","210 FIRESTATION DR, ALBION, IN, 46701",611565765,"L"
113036,"210 FIRETREE LANE","CARY","NC",27513,35.800513644,-78.843531007,36,"210 FIRETREE LANE, CARY, NC, 27513","Match","Exact","210 FIRETREE LN, CARY, NC, 27513",72641248,"R"
113037,"210 FLOWER HILL RD","SMITHVILLE","TX",78957,29.9562028010001,-97.142507649,37,"210 FLOWER HILL RD, SMITHVILLE, TX, 78957","Match","Exact","210 FLOWER HILL RD, SMITHVILLE, TX, 78957",45500997,"L"
113038,"210 FOUNTAIN ST","MANDEVILLE","LA",70448,30.3670536180001,-90.098589996,38,"210 FOUNTAIN ST, MANDEVILLE, LA, 70448","Match","Exact","210 FOUNTAIN ST, MANDEVILLE, LA, 70448",640228595,"L"
113039,"210 FOUNTAYNE LN","LAWRENCE","NJ",8648,40.281355096,-74.683900663,39,"210 FOUNTAYNE LN, LAWRENCE, NJ, 8648","Match","Exact","210 FOUNTAYNE LN, LAWRENCE, NJ, 08648",653265395,"R"
113040,"210 FOXTAIL LN","JANE LEW","WV",26378,NA,NA,40,"210 FOXTAIL LN, JANE LEW, WV, 26378","No_Match",NA,NA,NA,NA
113041,"210 FOXTROT LANE","ABILENE","TX",79602,32.3271037230001,-99.693757795,41,"210 FOXTROT LANE, ABILENE, TX, 79602","Match","Exact","210 FOXTROT LN, ABILENE, TX, 79602",646245569,"R"
113042,"210 FRISCO STREET","WILLOW SPRINGS","MO",65793,36.992137438,-91.972730295,42,"210 FRISCO STREET, WILLOW SPRINGS, MO, 65793","Match","Non_Exact","210 W FRISCO ST, WILLOW SPGS, MO, 65793",33307646,"L"
113043,"210 FULLERTON AVENUE","WHITEHALL","PA",18052,NA,NA,43,"210 FULLERTON AVENUE, WHITEHALL, PA, 18052","No_Match",NA,NA,NA,NA
113044,"210 FULTON STREET","HANCOCK","MD",21750,39.703343842,-78.1802740809999,44,"210 FULTON STREET, HANCOCK, MD, 21750","Match","Exact","210 FULTON ST, HANCOCK, MD, 21750",635755972,"R"
113045,"210 GIBSON CIR","DERMOTT","AR",71638,33.515062856,-91.440584818,45,"210 GIBSON CIR, DERMOTT, AR, 71638","Match","Non_Exact","210 GIBSON CIRCLE DR, DERMOTT, AR, 71638",69037862,"L"
113046,"210 GRAY FOX COURT","EDGEWATER","MD",21037,38.930951038,-76.5617144129999,46,"210 GRAY FOX COURT, EDGEWATER, MD, 21037","Match","Exact","210 GRAY FOX CT, EDGEWATER, MD, 21037",68209158,"R"
113047,"210 GREEN ST","SYRACUSE","NY",13203,43.05441484,-76.139709533,47,"210 GREEN ST, SYRACUSE, NY, 13203","Match","Exact","210 GREEN ST, SYRACUSE, NY, 13203",46571287,"R"
113048,"210 HARRISON AVENUE","CLIFTON HEIGHTS","PA",19018,39.9313295580001,-75.296746604,48,"210 HARRISON AVENUE, CLIFTON HEIGHTS, PA, 19018","Match","Exact","210 HARRISON AVE, CLIFTON HEIGHTS, PA, 19018",134883169,"R"
113049,"210 HAYDEN AVE","EVANSTON","WY",82930,41.244878052,-110.943956621,49,"210 HAYDEN AVE, EVANSTON, WY, 82930","Match","Exact","210 HAYDEN AVE, EVANSTON, WY, 82930",160264857,"L"
113050,"210 HAZELWOOD COURT","GROVETOWN","GA",30813,NA,NA,50,"210 HAZELWOOD COURT, GROVETOWN, GA, 30813","No_Match",NA,NA,NA,NA
113051,"210 HENDRIX AVE","ATLANTA","GA",30315,33.7323386250001,-84.395777009,51,"210 HENDRIX AVE, ATLANTA, GA, 30315","Match","Non_Exact","210 HENDRIX AVE SW, ATLANTA, GA, 30315",17346053,"L"
113052,"210 HERITAGE MILL DR","MADISON","AL",35758,34.705649733,-86.766855966,52,"210 HERITAGE MILL DR, MADISON, AL, 35758","Match","Exact","210 HERITAGE MILL DR, MADISON, AL, 35758",648016157,"R"
113053,"210 HERMOSA DRIVE NE","ALBUQUERQUE","NM",87108,35.080445958,-106.603166102,53,"210 HERMOSA DRIVE NE, ALBUQUERQUE, NM, 87108","Match","Exact","210 HERMOSA DR NE, ALBUQUERQUE, NM, 87108",206710421,"R"
113054,"210 HERRICK ROAD","NEWTON CENTRE","MA",2459,42.326997654,-71.1917249539999,54,"210 HERRICK ROAD, NEWTON CENTRE, MA, 2459","Match","Exact","210 HERRICK RD, NEWTON CENTRE, MA, 02459",87127183,"L"
113055,"210 HIGH STREET EXT","LANCASTER","MA",1523,NA,NA,55,"210 HIGH STREET EXT, LANCASTER, MA, 1523","No_Match",NA,NA,NA,NA
113056,"210 HOBBS STREET BOX 210","CONWAY","NH",3818,43.9725812930001,-71.1324394339999,56,"210 HOBBS STREET BOX 210, CONWAY, NH, 3818","Match","Exact","210 HOBBS ST, CONWAY, NH, 03818",145609540,"L"
113057,"210 HODGES LANE","TAKOMA PARK","MD",20912,38.9837179530001,-77.0140950059999,57,"210 HODGES LANE, TAKOMA PARK, MD, 20912","Match","Exact","210 HODGES LN, TAKOMA PARK, MD, 20912",62068757,"L"
113058,"210 HULIHEN DRIVE","NEWARK","DE",19709,39.6810411920001,-75.765080978,58,"210 HULIHEN DRIVE, NEWARK, DE, 19709","Match","Non_Exact","210 HULLIHEN DR, NEWARK, DE, 19711",187262731,"L"
113059,"210 HURST POINT","COLLEGE PARK","GA",30349,33.5692113060001,-84.502305478,59,"210 HURST POINT, COLLEGE PARK, GA, 30349","Match","Exact","210 HURST PT, COLLEGE PARK, GA, 30349",17351333,"L"
113060,"210 ILLINOIS STREET","PARK FOREST","IL",60466,41.5022198930001,-87.679099695,60,"210 ILLINOIS STREET, PARK FOREST, IL, 60466","Match","Exact","210 ILLINOIS ST, PARK FOREST, IL, 60466",111710485,"R"
113061,"210 INGLEWOOD DR","ENTERPRISE","AL",36330,31.352035136,-85.8522012,61,"210 INGLEWOOD DR, ENTERPRISE, AL, 36330","Match","Exact","210 INGLEWOOD DR, ENTERPRISE, AL, 36330",99555108,"L"
113062,"210 ISLAND ST","CHIPPEWA FALLS","WI",54729,44.9348060500001,-91.395209705,62,"210 ISLAND ST, CHIPPEWA FALLS, WI, 54729","Match","Exact","210 ISLAND ST, CHIPPEWA FALLS, WI, 54729",78924393,"L"
113063,"210 JACKSON ST","WEST MONROE","LA",71291,32.519553333,-92.137960049,63,"210 JACKSON ST, WEST MONROE, LA, 71291","Match","Exact","210 JACKSON ST, WEST MONROE, LA, 71291",161083038,"R"
113064,"210 JAMESTOWN PARK DRIVE SUITE 200","BRENTWOOD","TN",37027,36.0341643510001,-86.8117110009999,64,"210 JAMESTOWN PARK DRIVE SUITE 200, BRENTWOOD, TN, 37027","Match","Non_Exact","210 JAMESTOWN PARK RD, BRENTWOOD, TN, 37027",73116149,"R"
113065,"210 JEWEL STREET","SAN RAFAEL","CA",94901,37.9756361600001,-122.512255325,65,"210 JEWEL STREET, SAN RAFAEL, CA, 94901","Match","Non_Exact","210 JEWELL ST, SAN RAFAEL, CA, 94901",192767093,"R"
113066,"210 JOHNS ST NE","ORTING","WA",98360,47.1164322770001,-122.224004115,66,"210 JOHNS ST NE, ORTING, WA, 98360","Match","Exact","210 JOHNS ST NE, ORTING, WA, 98360",645835940,"R"
113067,"210 JOHNSON AVE N","FOSSTON","MN",56542,NA,NA,67,"210 JOHNSON AVE N, FOSSTON, MN, 56542","No_Match",NA,NA,NA,NA
113068,"210 JOSEPH POND LANE","CARY","NC",27519,35.775599046,-78.870581583,68,"210 JOSEPH POND LANE, CARY, NC, 27519","Match","Exact","210 JOSEPH POND LN, CARY, NC, 27519",72589528,"R"
113069,"210 K ST","HOQUIAM","WA",98550,46.9803503690001,-123.892234744,69,"210 K ST, HOQUIAM, WA, 98550","Match","Exact","210 K ST, HOQUIAM, WA, 98550",180580349,"L"
113070,"210 KENSINGTON DR","YOUNGSVILLE","NC",27596,36.047284201,-78.534646783,70,"210 KENSINGTON DR, YOUNGSVILLE, NC, 27596","Match","Exact","210 KENSINGTON DR, YOUNGSVILLE, NC, 27596",90247195,"R"
113071,"210 KERRIGAN BLVD","NEWARK","NJ",7106,40.732298106,-74.2423509939999,71,"210 KERRIGAN BLVD, NEWARK, NJ, 7106","Match","Exact","210 KERRIGAN BLVD, NEWARK, NJ, 07106",63463525,"R"
113072,"210 KINGFISHER LANE","FRIDAY HARBOR","WA",98250,48.574744389,-123.152498729,72,"210 KINGFISHER LANE, FRIDAY HARBOR, WA, 98250","Match","Exact","210 KINGFISHER LN, FRIDAY HARBOR, WA, 98250",152175092,"L"
113073,"210 KINGS CREEK DR APT 302","FAYETTEVILLE","NC",28311,35.1457603600001,-78.875497498,73,"210 KINGS CREEK DR APT 302, FAYETTEVILLE, NC, 28311","Match","Exact","210 KINGS CREEK DR, FAYETTEVILLE, NC, 28311",64249096,"R"
113074,"210 LAKESHORE WAY","LAGRANGE","GA",30240,33.0435364410001,-85.1374339289999,74,"210 LAKESHORE WAY, LAGRANGE, GA, 30240","Match","Exact","210 LAKESHORE WAY, LAGRANGE, GA, 30240",1758556,"R"
113075,"210 LAKESIDE DRIVE","NEWNAN","GA",30263,33.390476484,-84.867389235,75,"210 LAKESIDE DRIVE, NEWNAN, GA, 30263","Match","Exact","210 LAKESIDE DR, NEWNAN, GA, 30263",651750702,"R"
113076,"210 LAKEVIEW DR","NICHOLASVILLE","KY",40356,37.888464426,-84.567456938,76,"210 LAKEVIEW DR, NICHOLASVILLE, KY, 40356","Match","Exact","210 LAKEVIEW DR, NICHOLASVILLE, KY, 40356",38464225,"R"
113077,"210 LAMBS LANE","CHARLOTTESVILLE","VA",22901,38.0766919450001,-78.5055561,77,"210 LAMBS LANE, CHARLOTTESVILLE, VA, 22901","Match","Exact","210 LAMBS LN, CHARLOTTESVILLE, VA, 22901",83403469,"L"
113078,"210 LANDFALL RD","ATLANTA","GA",30328,33.9418798950001,-84.399536348,78,"210 LANDFALL RD, ATLANTA, GA, 30328","Match","Non_Exact","210 LANDFALL RD NW, ATLANTA, GA, 30328",17333035,"L"
113079,"210 LANDMARK DR","NORMAL","IL",61761,40.5142637450001,-88.954733125,79,"210 LANDMARK DR, NORMAL, IL, 61761","Match","Exact","210 LANDMARK DR, NORMAL, IL, 61761",649793121,"L"
113080,"210 LARCH COURT","MIDDLETOWN","MD",21769,39.438032288,-77.534638622,80,"210 LARCH COURT, MIDDLETOWN, MD, 21769","Match","Exact","210 LARCH CT, MIDDLETOWN, MD, 21769",636223122,"L"
113081,"210 LAUREL AVE","TILLAMOOK","OR",97141,45.4569494900001,-123.842078921,81,"210 LAUREL AVE, TILLAMOOK, OR, 97141","Match","Exact","210 LAUREL AVE, TILLAMOOK, OR, 97141",156385040,"L"
113082,"210 LEAH LANE","DAVIS","OK",73030,34.5057118720001,-97.1664115679999,82,"210 LEAH LANE, DAVIS, OK, 73030","Match","Exact","210 LEAH LN, DAVIS, OK, 73030",651996918,"L"
113083,"210 LEE AVENUE","ELAINE","AR",72333,34.3128918950001,-90.853429437,83,"210 LEE AVENUE, ELAINE, AR, 72333","Match","Exact","210 LEE AVE, ELAINE, AR, 72333",12302047,"R"
113084,"210 LEE STREET","COLUMBIA","AL",31324,31.295990558,-85.11398629,84,"210 LEE STREET, COLUMBIA, AL, 31324","Match","Non_Exact","210 LEE ST, COLUMBIA, AL, 36319",101206869,"R"
113085,"210 LINCOLN AVENUE","HAVERTOWN","PA",19083,39.97574336,-75.315648545,85,"210 LINCOLN AVENUE, HAVERTOWN, PA, 19083","Match","Exact","210 LINCOLN AVE, HAVERTOWN, PA, 19083",134875264,"L"
113086,"210 LINDEN AVE APT 4","ITHACA","NY",14850,42.439714823,-76.484170836,86,"210 LINDEN AVE APT 4, ITHACA, NY, 14850","Match","Exact","210 LINDEN AVE, ITHACA, NY, 14850",18857719,"L"
113087,"210 LINDIN ST","APPOMATTOX","VA",24522,37.353767277,-78.83064351,87,"210 LINDIN ST, APPOMATTOX, VA, 24522","Match","Non_Exact","210 LINDEN ST, APPOMATTOX, VA, 24522",197928699,"R"
113088,"210 LOCKAMY ROAD","CLINTON","NC",28328,35.1248161720001,-78.361168321,88,"210 LOCKAMY ROAD, CLINTON, NC, 28328","Match","Exact","210 LOCKAMY RD, CLINTON, NC, 28328",636546565,"R"
113089,"210 LOCUST AVE","LOCUST","NC",28097,35.2564994950001,-80.42691776,89,"210 LOCUST AVE, LOCUST, NC, 28097","Match","Exact","210 LOCUST AVE, LOCUST, NC, 28097",14078410,"L"
113090,"210 LOCUST LN","ALEXANDRIA","VA",22302,38.817746293,-77.0667680399999,90,"210 LOCUST LN, ALEXANDRIA, VA, 22302","Match","Exact","210 LOCUST LN, ALEXANDRIA, VA, 22302",75987913,"L"
113091,"210 LOCUST STREET APT 8F","PHILADELPHIA","PA",19106,39.94513074,-75.145129396,91,"210 LOCUST STREET APT 8F, PHILADELPHIA, PA, 19106","Match","Exact","210 LOCUST ST, PHILADELPHIA, PA, 19106",131424764,"R"
113092,"210 LONDONDERRY DRIVE","NEW BRIGHTON","PA",15066,40.7338795470001,-80.2874632799999,92,"210 LONDONDERRY DRIVE, NEW BRIGHTON, PA, 15066","Match","Exact","210 LONDONDERRY DR, NEW BRIGHTON, PA, 15066",645554453,"R"
113093,"210 LONG RD","TULLY","NY",13159,42.784495357,-76.1547491319999,93,"210 LONG RD, TULLY, NY, 13159","Match","Exact","210 LONG RD, TULLY, NY, 13159",46625676,"R"
113094,"210 LOTTIE ST","BELLINGHAM","WA",98225,48.754910711,-122.478346419,94,"210 LOTTIE ST, BELLINGHAM, WA, 98225","Match","Exact","210 LOTTIE ST, BELLINGHAM, WA, 98225",183771956,"R"
113095,"210 MAGNOLIA AVENUE","CHARLOTTE","NC",28203,35.206637646,-80.860678526,95,"210 MAGNOLIA AVENUE, CHARLOTTE, NC, 28203","Match","Exact","210 MAGNOLIA AVE, CHARLOTTE, NC, 28203",70627396,"R"
113096,"210 MAIN ST","SCALES MOUND","IL",61075,NA,NA,96,"210 MAIN ST, SCALES MOUND, IL, 61075","No_Match",NA,NA,NA,NA
113097,"210 MAIN STREET","BIWABIK","MN",55708,47.5248037110001,-92.2380732889999,97,"210 MAIN STREET, BIWABIK, MN, 55708","Match","Non_Exact","210 MAIN ST, BIWABIK, MN, 55705",163224557,"R"
113098,"210 MAIN STREET","MAURICE","IA",51036,42.9658041230001,-96.179938662,98,"210 MAIN STREET, MAURICE, IA, 51036","Match","Exact","210 MAIN ST, MAURICE, IA, 51036",93367585,"L"
113099,"210 MAIN STREET","SMITHFIELD","VA",23430,36.9815830410001,-76.632405229,99,"210 MAIN STREET, SMITHFIELD, VA, 23430","Match","Exact","210 MAIN ST, SMITHFIELD, VA, 23430",198623614,"L"
113100,"210 MARKET ST","YORKVILLE","OH",43971,40.1582802770001,-80.706918348,100,"210 MARKET ST, YORKVILLE, OH, 43971","Match","Exact","210 MARKET ST, YORKVILLE, OH, 43971",606932166,"L"
113101,"210 MCFARLIN ST","KINGSTREE","SC",29556,33.6608156290001,-79.834127639,101,"210 MCFARLIN ST, KINGSTREE, SC, 29556","Match","Exact","210 MCFARLIN ST, KINGSTREE, SC, 29556",29190541,"L"
113102,"210 MCKINLEY STREET","MIDDLETOWN","OH",45042,39.516382605,-84.384657105,102,"210 MCKINLEY STREET, MIDDLETOWN, OH, 45042","Match","Exact","210 MCKINLEY ST, MIDDLETOWN, OH, 45042",113796080,"L"
113103,"210 MCKOY STREET","CLINTON","NC",28328,34.9978440450001,-78.324475654,103,"210 MCKOY STREET, CLINTON, NC, 28328","Match","Exact","210 MCKOY ST, CLINTON, NC, 28328",604867174,"L"
113104,"210 MCLEOD STREET","MERRITT ISLAND","FL",32953,28.3596529960001,-80.701260938,104,"210 MCLEOD STREET, MERRITT ISLAND, FL, 32953","Match","Non_Exact","210 MC LEOD ST, MERRITT ISLAND, FL, 32953",93894862,"R"
113105,"210 MEADOW DRIVE","CARY","NC",27511,35.776889333,-78.777341972,105,"210 MEADOW DRIVE, CARY, NC, 27511","Match","Exact","210 MEADOW DR, CARY, NC, 27511",72498584,"R"
113106,"210 MEADOWLARK DR","JEFFERSON","TX",75657,32.720981674,-94.560183857,106,"210 MEADOWLARK DR, JEFFERSON, TX, 75657","Match","Exact","210 MEADOWLARK DR, JEFFERSON, TX, 75657",57749557,"R"
113107,"210 MELBOURNE","DETROIT","MI",48202,42.377319426,-83.0749271559999,107,"210 MELBOURNE, DETROIT, MI, 48202","Match","Non_Exact","210 MELBOURNE ST, DETROIT, MI, 48202",95475572,"R"
113108,"210 MERWOOD STREET","BELLEVUE","NE",68005,41.161682113,-95.913780434,108,"210 MERWOOD STREET, BELLEVUE, NE, 68005","Match","Exact","210 MERWOOD ST, BELLEVUE, NE, 68005",28470790,"L"
113109,"210 MILL STREET","NEVADA CITY","CA",95959,39.2624098430001,-121.021518106,109,"210 MILL STREET, NEVADA CITY, CA, 95959","Match","Exact","210 MILL ST, NEVADA CITY, CA, 95959",106529890,"L"
113110,"210 N  RUBY STREET","ELLENSBURG","WA",98926,46.993650906,-120.54442306,110,"210 N  RUBY STREET, ELLENSBURG, WA, 98926","Match","Exact","210 N RUBY ST, ELLENSBURG, WA, 98926",157210945,"R"
113111,"210 N 17TH STREET SUITE 105","63103","MO",63103,NA,NA,111,"210 N 17TH STREET SUITE 105, 63103, MO, 63103","No_Match",NA,NA,NA,NA
113112,"210 N 24TH STREET","PHOENIX","AZ",85034,33.450495495,-112.03016463,112,"210 N 24TH STREET, PHOENIX, AZ, 85034","Match","Exact","210 N 24TH ST, PHOENIX, AZ, 85034",128215006,"L"
113113,"210 N 2ND ST APT 208","MINNEAPOLIS","MN",55401,NA,NA,113,"210 N 2ND ST APT 208, MINNEAPOLIS, MN, 55401","Tie",NA,NA,NA,NA
113114,"210 N 4TH STREET SUITE 100","SAN JOSE","CA",95112,NA,NA,114,"210 N 4TH STREET SUITE 100, SAN JOSE, CA, 95112","Tie",NA,NA,NA,NA
113115,"210 N 5TH STREET","LEWISTON","NY",14092,43.174517962,-79.040942807,115,"210 N 5TH STREET, LEWISTON, NY, 14092","Match","Exact","210 N 5TH ST, LEWISTON, NY, 14092",48684536,"R"
113116,"210 N 6TH ST","BYESVILLE","OH",43723,39.971423445,-81.542829097,116,"210 N 6TH ST, BYESVILLE, OH, 43723","Match","Exact","210 N 6TH ST, BYESVILLE, OH, 43723",612393421,"R"
113117,"210 N AGNES AVE","BEVERLY","KS",67423,39.015508233,-97.9735442149999,117,"210 N AGNES AVE, BEVERLY, KS, 67423","Match","Exact","210 AGNES AVE, BEVERLY, KS, 67423",171132346,"L"
113118,"210 N BRIDGE STREET BOX 270","SMITHVILLE","MO",64089,39.389218301,-94.580821656,118,"210 N BRIDGE STREET BOX 270, SMITHVILLE, MO, 64089","Match","Non_Exact","210 N BRIDGE ST, SMITHVILLE, MO, 64089",89749844,"L"
113119,"210 N CARTER SCHOOL ROAD","KNOXVILLE","TN",37871,36.025452713,-83.7188260999999,119,"210 N CARTER SCHOOL ROAD, KNOXVILLE, TN, 37871","Match","Non_Exact","210 N CARTER SCHOOL RD, STRAW PLAINS, TN, 37871",42605641,"R"
113120,"210 N CHURCH ST APT 2011","CHARLOTTE","NC",28202,NA,NA,120,"210 N CHURCH ST APT 2011, CHARLOTTE, NC, 28202","Tie",NA,NA,NA,NA
113121,"210 N ELIDA STREET","WINNEBAGO","IL",61088,42.267591833,-89.241412349,121,"210 N ELIDA STREET, WINNEBAGO, IL, 61088","Match","Exact","210 N ELIDA ST, WINNEBAGO, IL, 61088",49249953,"R"
113122,"210 N FREDERICK","CAPE GIRARDEAU","MO",63701,37.3067960240001,-89.525111785,122,"210 N FREDERICK, CAPE GIRARDEAU, MO, 63701","Match","Non_Exact","210 N FREDERICK ST, CAPE GIRARDEAU, MO, 63701",35182761,"R"
113123,"210 N KANSAS AVE STE 1","ELLSWORTH","KS",67439,38.7303783690001,-98.2317187149999,123,"210 N KANSAS AVE STE 1, ELLSWORTH, KS, 67439","Match","Non_Exact","210 N KANSAS AVE, ELLSWORTH, KS, 67439",639224285,"L"
113124,"210 N MAIN ST PO BOX 558","PONTIAC","IL",61764,NA,NA,124,"210 N MAIN ST PO BOX 558, PONTIAC, IL, 61764","Tie",NA,NA,NA,NA
113125,"210 N MASON ST","BOWIE","TX",76230,33.559135579,-97.848567464,125,"210 N MASON ST, BOWIE, TX, 76230","Match","Exact","210 N MASON ST, BOWIE, TX, 76230",152115284,"L"
113126,"210 N MOCK RD","ALBANY","GA",31705,NA,NA,126,"210 N MOCK RD, ALBANY, GA, 31705","Tie",NA,NA,NA,NA
113127,"210 N PINE DRIVE","MONTGOMERY","TX",77356,30.505915212,-95.6173292399999,127,"210 N PINE DRIVE, MONTGOMERY, TX, 77356","Match","Exact","210 N PINE DR, MONTGOMERY, TX, 77356",641116861,"L"
113128,"210 N RIVER ST","EAST DUNDEE","IL",60118,42.1002056230001,-88.274638441,128,"210 N RIVER ST, EAST DUNDEE, IL, 60118","Match","Exact","210 N RIVER ST, EAST DUNDEE, IL, 60118",119525743,"L"
113129,"210 N RUBY ST","ELLENSBURG","WA",98926,46.993650906,-120.54442306,129,"210 N RUBY ST, ELLENSBURG, WA, 98926","Match","Exact","210 N RUBY ST, ELLENSBURG, WA, 98926",157210945,"R"
113130,"210 N SAINT ANDREWS ST","DOTHAN","AL",36303,31.225470025,-85.39141641,130,"210 N SAINT ANDREWS ST, DOTHAN, AL, 36303","Match","Exact","210 N ST ANDREWS ST, DOTHAN, AL, 36303",101215368,"R"
113131,"210 N UNION RD","WILLIAMSVILLE","NY",14221,42.9664079680001,-78.757214026,131,"210 N UNION RD, WILLIAMSVILLE, NY, 14221","Match","Exact","210 N UNION RD, WILLIAMSVILLE, NY, 14221",613977031,"L"
113132,"210 NANTUCKET DR","SUMMERVILLE","SC",29485,32.957083593,-80.184267958,132,"210 NANTUCKET DR, SUMMERVILLE, SC, 29485","Match","Exact","210 NANTUCKET DR, SUMMERVILLE, SC, 29485",178460672,"L"
113133,"210 NE 18TH ST","MOORE","OK",73160,35.353768927,-97.4924824459999,133,"210 NE 18TH ST, MOORE, OK, 73160","Match","Exact","210 NE 18TH ST, MOORE, OK, 73160",99905612,"R"
113134,"210 NE DELAWARE AVE STE 200","ANKENY","IA",50021,NA,NA,134,"210 NE DELAWARE AVE STE 200, ANKENY, IA, 50021","Tie",NA,NA,NA,NA
113135,"210 NEFF STREET","POWHATAN POINT","OH",43942,39.8674076900001,-80.794729594,135,"210 NEFF STREET, POWHATAN POINT, OH, 43942","Match","Exact","210 NEFF ST, POWHATAN POINT, OH, 43942",36203378,"R"
113136,"210 NEFF STREET","POWHATAN PT","OH",43942,39.8674076900001,-80.794729594,136,"210 NEFF STREET, POWHATAN PT, OH, 43942","Match","Exact","210 NEFF ST, POWHATAN POINT, OH, 43942",36203378,"R"
113137,"210 NINA LANE","STAFFORD","TX",77477,29.6152719780001,-95.577344335,137,"210 NINA LANE, STAFFORD, TX, 77477","Match","Exact","210 NINA LN, STAFFORD, TX, 77477",636765399,"L"
113138,"210 NORTH 17TH STREET SUITE 102","ST LOUIS","MO",63102,38.630512319,-90.204584654,138,"210 NORTH 17TH STREET SUITE 102, ST LOUIS, MO, 63102","Match","Non_Exact","210 N 17TH ST, SAINT LOUIS, MO, 63103",107604542,"R"
113139,"210 NORTH 9TH STREET","BOISE","ID",83702,43.617111487,-116.203791868,139,"210 NORTH 9TH STREET, BOISE, ID, 83702","Match","Exact","210 N 9TH ST, BOISE, ID, 83702",117864726,"R"
113140,"210 NORTH BROADWAY STREET","OWENSVILLE","OH",45160,39.1238842750001,-84.135605631,140,"210 NORTH BROADWAY STREET, OWENSVILLE, OH, 45160","Match","Exact","210 N BROADWAY ST, OWENSVILLE, OH, 45160",647500227,"L"
113141,"210 NORTH BROADWAY","SLEEPY HOLLOW","NY",10591,41.083433776,-73.8587071919999,141,"210 NORTH BROADWAY, SLEEPY HOLLOW, NY, 10591","Match","Exact","210 N BROADWAY, SLEEPY HOLLOW, NY, 10591",139798923,"R"
113142,"210 NORTH BROBST STREET","SHILLINGTON","PA",19607,40.306224791,-75.967237795,142,"210 NORTH BROBST STREET, SHILLINGTON, PA, 19607","Match","Exact","210 N BROBST ST, SHILLINGTON, PA, 19607",80380932,"L"
113143,"210 NORTH HIGGINS SUITE 222","MISSOULA","MT",59801,NA,NA,143,"210 NORTH HIGGINS SUITE 222, MISSOULA, MT, 59801","No_Match",NA,NA,NA,NA
113144,"210 NORTH MAIN STREET","OAKBORO","NC",28129,35.2236484150001,-80.3258512629999,144,"210 NORTH MAIN STREET, OAKBORO, NC, 28129","Match","Exact","210 N MAIN ST, OAKBORO, NC, 28129",14083196,"R"
113145,"210 NORTH Q AVENUE","NATIONAL CITY","CA",91950,32.6893496930001,-117.092485764,145,"210 NORTH Q AVENUE, NATIONAL CITY, CA, 91950","Match","Exact","210 N Q AVE, NATIONAL CITY, CA, 91950",195654241,"L"
113146,"210 NORTH WILLOW","PAULS VALLEY","OK",73075,34.740656598,-97.221463808,146,"210 NORTH WILLOW, PAULS VALLEY, OK, 73075","Match","Non_Exact","210 N WILLOW ST, PAULS VALLEY, OK, 73075",15143146,"R"
113147,"210 NW 17TH COURT UNIT 2","FORT LAUDERDALE","FL",33306,NA,NA,147,"210 NW 17TH COURT UNIT 2, FORT LAUDERDALE, FL, 33306","No_Match",NA,NA,NA,NA
113148,"210 NW 29TH ST","GAINESVILLE","FL",32607,29.6538943090001,-82.3663739849999,148,"210 NW 29TH ST, GAINESVILLE, FL, 32607","Match","Exact","210 NW 29TH ST, GAINESVILLE, FL, 32607",6843651,"L"
113149,"210 O STREET","LINCOLN","NE",68508,40.8137031590001,-96.719437738,149,"210 O STREET, LINCOLN, NE, 68508","Match","Exact","210 O ST, LINCOLN, NE, 68508",28251733,"L"
113150,"210 OAK HILL ROAD","SWANVILLE","ME",4915,44.4740642300001,-69.037829443,150,"210 OAK HILL ROAD, SWANVILLE, ME, 4915","Match","Exact","210 OAK HILL RD, SWANVILLE, ME, 04915",75630332,"L"
113151,"210 OAKWOOD ST","HIGH POINT","NC",27262,35.955944704,-80.0130190419999,151,"210 OAKWOOD ST, HIGH POINT, NC, 27262","Match","Exact","210 OAKWOOD ST, HIGH POINT, NC, 27262",131039285,"R"
113152,"210 OGLE AVE","KNOXVILLE","TN",37920,35.932553989,-83.915093063,152,"210 OGLE AVE, KNOXVILLE, TN, 37920","Match","Exact","210 OGLE AVE, KNOXVILLE, TN, 37920",42624816,"L"
113153,"210 OLD COUNTY ROAD","SEVERNA PARK","MD",21146,39.0677828720001,-76.544886191,153,"210 OLD COUNTY ROAD, SEVERNA PARK, MD, 21146","Match","Exact","210 OLD COUNTY RD, SEVERNA PARK, MD, 21146",68167983,"R"
113154,"210 OLD STEELE CREEK CT","AZLE","TX",76020,32.8442605870001,-97.601588877,154,"210 OLD STEELE CREEK CT, AZLE, TX, 76020","Match","Exact","210 OLD STEELE CREEK CT, AZLE, TX, 76020",103597177,"R"
113155,"210 OLEAN AVENUE","JERSEY CITY","NJ",7306,40.7283057230001,-74.077680952,155,"210 OLEAN AVENUE, JERSEY CITY, NJ, 7306","Match","Exact","210 OLEAN AVE, JERSEY CITY, NJ, 07306",59604182,"R"
113156,"210 ORCHARD LANE","GLASSBORO","NJ",8028,39.7135866560001,-75.098012204,156,"210 ORCHARD LANE, GLASSBORO, NJ, 8028","Match","Exact","210 ORCHARD LN, GLASSBORO, NJ, 08028",134623456,"L"
113157,"210 ORCHARD STREET","WESTFIELD","NJ",7090,40.6535050780001,-74.350524357,157,"210 ORCHARD STREET, WESTFIELD, NJ, 7090","Match","Exact","210 ORCHARD ST, WESTFIELD, NJ, 07090",641777252,"R"
113158,"210 OREGON TRAIL","LINCOLN","NE",68521,40.845545971,-96.7242120619999,158,"210 OREGON TRAIL, LINCOLN, NE, 68521","Match","Exact","210 OREGON TRL, LINCOLN, NE, 68521",28251416,"R"
113159,"210 OSBORNE ROAD","ALBANY","NY",12205,42.7023975020001,-73.7842031929999,159,"210 OSBORNE ROAD, ALBANY, NY, 12205","Match","Exact","210 OSBORNE RD, ALBANY, NY, 12205",651580673,"R"
113160,"210 PARK AVENUE  SUITE 143","WORCESTER","MA",1609,NA,NA,160,"210 PARK AVENUE  SUITE 143, WORCESTER, MA, 1609","No_Match",NA,NA,NA,NA
113161,"210 PARK CIRCLE","ATTLEBORO","MA",2703,41.906570264,-71.351028684,161,"210 PARK CIRCLE, ATTLEBORO, MA, 2703","Match","Exact","210 PARK CIR, ATTLEBORO, MA, 02703",46798280,"L"
113162,"210 PARK LOOP","CALHOUN","KY",42327,NA,NA,162,"210 PARK LOOP, CALHOUN, KY, 42327","No_Match",NA,NA,NA,NA
113163,"210 PARKWAY","DEL RIO","TX",78840,29.3447870520001,-100.893730657,163,"210 PARKWAY, DEL RIO, TX, 78840","Match","Non_Exact","210 PARKWAY AVE, DEL RIO, TX, 78840",173580599,"R"
113164,"210 PAWLEYS DRIVE","SIMPSONVILLE","SC",29681,34.8060859450001,-82.212758127,164,"210 PAWLEYS DRIVE, SIMPSONVILLE, SC, 29681","Match","Exact","210 PAWLEYS DR, SIMPSONVILLE, SC, 29681",632145109,"R"
113165,"210 PEARL STREET","JACKSON","OH",45640,39.051592655,-82.638635783,165,"210 PEARL STREET, JACKSON, OH, 45640","Match","Exact","210 PEARL ST, JACKSON, OH, 45640",54771302,"R"
113166,"210 PEBBLE BROOKE COURT","COVINGTON","GA",30016,33.5864904740001,-83.957061166,166,"210 PEBBLE BROOKE COURT, COVINGTON, GA, 30016","Match","Exact","210 PEBBLE BROOKE CT, COVINGTON, GA, 30016",23638379,"R"
113167,"210 PELHAM RD UNIT 218A","FT. WALTON BEACH","FL",32547,30.434846884,-86.637003866,167,"210 PELHAM RD UNIT 218A, FT. WALTON BEACH, FL, 32547","Match","Exact","210 PELHAM RD, FORT WALTON BEACH, FL, 32547",611451097,"R"
113168,"210 PEONY LANE","SEWELL","NJ",8080,39.79007993,-75.092146156,168,"210 PEONY LANE, SEWELL, NJ, 8080","Match","Exact","210 PEONY LN, SEWELL, NJ, 08080",642133226,"R"
113169,"210 PEYTON RD","YORK","PA",17403,39.9495731050001,-76.712245288,169,"210 PEYTON RD, YORK, PA, 17403","Match","Exact","210 PEYTON RD, YORK, PA, 17403",611416809,"R"
113170,"210 PINE SHADOWS DR","HOUSTON","TX",77586,29.5778916880001,-95.051637163,170,"210 PINE SHADOWS DR, HOUSTON, TX, 77586","Match","Non_Exact","210 PINE SHADOWS DR, SEABROOK, TX, 77586",96116419,"L"
113171,"210 PINE STREET","MINERAL SPRINGS","AR",71851,33.8238494460001,-93.894699465,171,"210 PINE STREET, MINERAL SPRINGS, AR, 71851","Match","Exact","210 PINE ST, MINERAL SPRINGS, AR, 71851",610314630,"R"
113172,"210 PLUM","NORTH LITTLE ROCK","AR",72114,NA,NA,172,"210 PLUM, NORTH LITTLE ROCK, AR, 72114","No_Match",NA,NA,NA,NA
113173,"210 POLK STREET","HUNTSVILLE","AR",72740,36.0879821570001,-93.739182303,173,"210 POLK STREET, HUNTSVILLE, AR, 72740","Match","Exact","210 POLK ST, HUNTSVILLE, AR, 72740",48929871,"R"
113174,"210 POPLAR ST","EL PASO","TX",79901,31.774206921,-106.463560382,174,"210 POPLAR ST, EL PASO, TX, 79901","Match","Exact","210 POPLAR ST, EL PASO, TX, 79901",189342894,"R"
113175,"210 POTOMAC RIDGE DRIVE","FORT WASHINGTON","MD",20744,38.7716359460001,-77.00373653,175,"210 POTOMAC RIDGE DRIVE, FORT WASHINGTON, MD, 20744","Match","Exact","210 POTOMAC RIDGE DR, FT WASHINGTON, MD, 20744",639248592,"L"
113176,"210 RAVENSAIDE DRIVE","HOUMA","LA",70360,29.5976741280001,-90.771486662,176,"210 RAVENSAIDE DRIVE, HOUMA, LA, 70360","Match","Exact","210 RAVENSAIDE DR, HOUMA, LA, 70360",648242611,"R"
113177,"210 REFLECTIONS DRIVE APT 23","SAN RAMON","CA",94583,37.7626061300001,-121.948579088,177,"210 REFLECTIONS DRIVE APT 23, SAN RAMON, CA, 94583","Match","Exact","210 REFLECTIONS DR, SAN RAMON, CA, 94583",635414202,"L"
113178,"210 RICHARDSON ROAD","LANSDALE","PA",19446,40.266129603,-75.244057782,178,"210 RICHARDSON ROAD, LANSDALE, PA, 19446","Match","Exact","210 RICHARDSON RD, LANSDALE, PA, 19446",135112870,"R"
113179,"210 RIDGE RD","LAKE MARY","FL",32746,28.767640585,-81.326141418,179,"210 RIDGE RD, LAKE MARY, FL, 32746","Match","Exact","210 RIDGE RD, LAKE MARY, FL, 32746",93774027,"R"
113180,"210 RIVERSIDE DRIVE 6A","NEW YORK","NY",10025,40.7940661470001,-73.976298572,180,"210 RIVERSIDE DRIVE 6A, NEW YORK, NY, 10025","Match","Exact","210 RIVERSIDE DR, NEW YORK, NY, 10025",650153023,"R"
113181,"210 RIVERVIEW PLACE","LILLINGTON","NC",27546,35.416122638,-78.830731622,181,"210 RIVERVIEW PLACE, LILLINGTON, NC, 27546","Match","Exact","210 RIVERVIEW PL, LILLINGTON, NC, 27546",71982843,"R"
113182,"210 ROGER RD","LAFAYETTE","LA",70507,30.278666995,-92.083093476,182,"210 ROGER RD, LAFAYETTE, LA, 70507","Match","Exact","210 ROGER RD, LAFAYETTE, LA, 70507",85629247,"R"
113183,"210 ROLLING CREEK CIRCLE","IRMO","SC",29063,34.1581710890001,-81.2399389889999,183,"210 ROLLING CREEK CIRCLE, IRMO, SC, 29063","Match","Exact","210 ROLLING CREEK CIR, IRMO, SC, 29063",71854289,"R"
113184,"210 ROSE DRIVE","ENGLEWOOD","TN",37329,35.4298255750001,-84.493282166,184,"210 ROSE DRIVE, ENGLEWOOD, TN, 37329","Match","Exact","210 ROSE DR, ENGLEWOOD, TN, 37329",88544596,"R"
113185,"210 RUCKER STREET","AMERICUS","GA",31719,32.090439546,-84.237903649,185,"210 RUCKER STREET, AMERICUS, GA, 31719","Match","Exact","210 RUCKER ST, AMERICUS, GA, 31719",647754119,"R"
113186,"210 RUCKER STREET","PARIS","KY",40361,38.2188588060001,-84.253524155,186,"210 RUCKER STREET, PARIS, KY, 40361","Match","Exact","210 RUCKER ST, PARIS, KY, 40361",31878600,"R"
113187,"210 RUTLAND CT","ATLANTA","GA",30350,33.9611185530001,-84.289339666,187,"210 RUTLAND CT, ATLANTA, GA, 30350","Match","Exact","210 RUTLAND CT, ATLANTA, GA, 30350",17361402,"L"
113188,"210 S 2ND STREET","COLWICH","KS",67030,37.7807707600001,-97.5372373069999,188,"210 S 2ND STREET, COLWICH, KS, 67030","Match","Exact","210 S 2ND ST, COLWICH, KS, 67030",115622923,"R"
113189,"210 S 45 TH","PHILADELPHIA","PA",19104,39.954849338,-75.211765269,189,"210 S 45 TH, PHILADELPHIA, PA, 19104","Match","Non_Exact","210 S 45TH ST, PHILADELPHIA, PA, 19104",652295284,"R"
113190,"210 S 4TH STREET","CLEAR LAKE","IA",50428,43.1350543090001,-93.3794394239999,190,"210 S 4TH STREET, CLEAR LAKE, IA, 50428","Match","Exact","210 S 4TH ST, CLEAR LAKE, IA, 50428",7288331,"R"
113191,"210 S ACADEMY","SANGER","CA",93657,NA,NA,191,"210 S ACADEMY, SANGER, CA, 93657","Tie",NA,NA,NA,NA
113192,"210 S BLAIRSFERRY CROSING","HIAWATHA","IA",52233,42.039082917,-91.706072402,192,"210 S BLAIRSFERRY CROSING, HIAWATHA, IA, 52233","Match","Non_Exact","210 BLAIRSFERRY CROSSING, HIAWATHA, IA, 52233",17041148,"L"
113193,"210 S CENTRAL AVE","BALTIMORE","MD",21202,39.288200735,-76.599408587,193,"210 S CENTRAL AVE, BALTIMORE, MD, 21202","Match","Exact","210 S CENTRAL AVE, BALTIMORE, MD, 21202",206421724,"R"
113194,"210 S COTTA CT","VISALIA","CA",93292,36.3291884110001,-119.279641939,194,"210 S COTTA CT, VISALIA, CA, 93292","Match","Exact","210 S COTTA CT, VISALIA, CA, 93292",202804291,"L"
113195,"210 S HAYWARD ST","WOODSTOCK","IL",60098,42.313590473,-88.451384574,195,"210 S HAYWARD ST, WOODSTOCK, IL, 60098","Match","Exact","210 S HAYWARD ST, WOODSTOCK, IL, 60098",119816494,"L"
113196,"210 S HENNEPIN AVE","DIXON","IL",61021,41.842176523,-89.483476491,196,"210 S HENNEPIN AVE, DIXON, IL, 61021","Match","Exact","210 S HENNEPIN AVE, DIXON, IL, 61021",48743685,"R"
113197,"210 S HILLCREST DR","GOLDSBORO","NC",27534,35.373375202,-77.9588496169999,197,"210 S HILLCREST DR, GOLDSBORO, NC, 27534","Match","Exact","210 HILLCREST DR, GOLDSBORO, NC, 27534",14423666,"L"
113198,"210 S HIMES AVE","TAMPA","FL",33609,27.942154929,-82.501587289,198,"210 S HIMES AVE, TAMPA, FL, 33609","Match","Exact","210 S HIMES AVE, TAMPA, FL, 33609",104526120,"L"
113199,"210 S HOLLY ST","SILOAM SPGS","AR",72761,36.1844006320001,-94.55894182,199,"210 S HOLLY ST, SILOAM SPGS, AR, 72761","Match","Exact","210 S HOLLY ST, SILOAM SPRINGS, AR, 72761",637580601,"L"
113200,"210 S HUDSON STREET SUITE 375","SEATTLE","WA",98134,47.557411722,-122.332171338,200,"210 S HUDSON STREET SUITE 375, SEATTLE, WA, 98134","Match","Non_Exact","210 S HUDSON ST, SEATTLE, WA, 98134",186591740,"L"
113201,"210 S LAFAYETTE PK PLACE APT 306","LOS ANGELES","CA",90057,34.0688762010001,-118.279450825,201,"210 S LAFAYETTE PK PLACE APT 306, LOS ANGELES, CA, 90057","Match","Non_Exact","210 S LA FAYETTE PARK PL, LOS ANGELES, CA, 90057",141605207,"L"
113202,"210 S LOPEZ STREET","CLEWISTON","FL",33440,26.7530775230001,-80.9436461559999,202,"210 S LOPEZ STREET, CLEWISTON, FL, 33440","Match","Exact","210 S LOPEZ ST, CLEWISTON, FL, 33440",4494010,"L"
113203,"210 S MAIN STREET","EDWARDSVILLE","IL",62025,38.810105122,-89.955336012,203,"210 S MAIN STREET, EDWARDSVILLE, IL, 62025","Match","Exact","210 S MAIN ST, EDWARDSVILLE, IL, 62025",107689900,"L"
113204,"210 S MAPLE AVE","EATON","CO",80615,40.5276269390001,-104.714364251,204,"210 S MAPLE AVE, EATON, CO, 80615","Match","Exact","210 MAPLE AVE, EATON, CO, 80615",188674510,"L"
113205,"210 S MARKET STREET","MARTINGSBURG","PA",16662,40.3096915740001,-78.325926059,205,"210 S MARKET STREET, MARTINGSBURG, PA, 16662","Match","Non_Exact","210 S MARKET ST, MARTINSBURG, PA, 16662",49719511,"L"
113206,"210 S ORCHARD DR","PURCELLVILLE","VA",20132,39.135024941,-77.720222796,206,"210 S ORCHARD DR, PURCELLVILLE, VA, 20132","Match","Exact","210 S ORCHARD DR, PURCELLVILLE, VA, 20132",62319087,"R"
113207,"210 S PULASKI ST","LITTLE ROCK","AR",72201,34.7488908610001,-92.2848251949999,207,"210 S PULASKI ST, LITTLE ROCK, AR, 72201","Match","Exact","210 S PULASKI ST, LITTLE ROCK, AR, 72201",83510153,"R"
113208,"210 S RANDOLPH STREET","GARRETT","IN",46738,41.3492207040001,-85.135636725,208,"210 S RANDOLPH STREET, GARRETT, IN, 46738","Match","Exact","210 S RANDOLPH ST, GARRETT, IN, 46738",6514159,"L"
113209,"210 S VILLAGE DRUNIT 201","ST PETERSBURG","FL",33716,NA,NA,209,"210 S VILLAGE DRUNIT 201, ST PETERSBURG, FL, 33716","No_Match",NA,NA,NA,NA
113210,"210 S WASHINGTON ST","TAYLORVILLE","IL",62568,39.5481844890001,-89.2961735329999,210,"210 S WASHINGTON ST, TAYLORVILLE, IL, 62568","Match","Exact","210 S WASHINGTON ST, TAYLORVILLE, IL, 62568",99308706,"R"
113211,"210 S WASHINGTON","LOUISVILLE","CO",80027,39.96984637,-105.153893612,211,"210 S WASHINGTON, LOUISVILLE, CO, 80027","Match","Non_Exact","210 S WASHINGTON AVE, LOUISVILLE, CO, 80027",188165954,"L"
113212,"210 S WATER STREET","OWOSSO","MI",48867,42.9967370030001,-84.172178839,212,"210 S WATER STREET, OWOSSO, MI, 48867","Match","Exact","210 S WATER ST, OWOSSO, MI, 48867",23660691,"R"
113213,"210 SABAL PALMS ROW","YOUNGSVILLE","LA",70592,30.1197565350001,-91.988826927,213,"210 SABAL PALMS ROW, YOUNGSVILLE, LA, 70592","Match","Exact","210 SABAL PALMS ROW, YOUNGSVILLE, LA, 70592",642936237,"R"
113214,"210 SAWTOOTH COURT","CANTON","GA",30114,34.1655035000001,-84.520292473,214,"210 SAWTOOTH COURT, CANTON, GA, 30114","Match","Exact","210 SAWTOOTH CT, CANTON, GA, 30114",617658587,"R"
113215,"210 SE MADISON ST STE 15","PORTLAND","OR",97214,45.5129333840001,-122.66364687,215,"210 SE MADISON ST STE 15, PORTLAND, OR, 97214","Match","Non_Exact","210 SE MADISON ST, PORTLAND, OR, 97214",653420951,"R"
113216,"210 SECOND AVENUE APARTMENT 309","LONG BEACH","MS",39560,30.3506907830001,-89.155406856,216,"210 SECOND AVENUE APARTMENT 309, LONG BEACH, MS, 39560","Match","Exact","210 2ND AVE, LONG BEACH, MS, 39560",111417071,"L"
113217,"210 SEYE WAILO TRAIL","CLARKESVILLE","GA",30523,34.701636437,-83.627196391,217,"210 SEYE WAILO TRAIL, CLARKESVILLE, GA, 30523","Match","Exact","210 SEYE WAILO TRL, CLARKESVILLE, GA, 30523",616848375,"L"
113218,"210 SHADOWLEDGE LANE","ROSWELL","GA",30076,33.988436613,-84.281796355,218,"210 SHADOWLEDGE LANE, ROSWELL, GA, 30076","Match","Exact","210 SHADOWLEDGE LN, ROSWELL, GA, 30076",17361989,"L"
113219,"210 SHADY HILL LN","DOUBLE OAK","TX",75077,33.0607758580001,-97.120603919,219,"210 SHADY HILL LN, DOUBLE OAK, TX, 75077","Match","Exact","210 SHADY HILL LN, DOUBLE OAK, TX, 75077",103344149,"R"
113220,"210 SHERIDAN ST","BLAIR","NE",68008,NA,NA,220,"210 SHERIDAN ST, BLAIR, NE, 68008","No_Match",NA,NA,NA,NA
113221,"210 SHORE DRIVE","RIVIERA BEACH","FL",33404,26.791758628,-80.051326848,221,"210 SHORE DRIVE, RIVIERA BEACH, FL, 33404","Match","Exact","210 SHORE DR, RIVIERA BEACH, FL, 33404",115580222,"L"
113222,"210 SHORT SPRINGS","TULLAHOMA","TN",37388,35.392178077,-86.2010460819999,222,"210 SHORT SPRINGS, TULLAHOMA, TN, 37388","Match","Non_Exact","210 SHORT SPRINGS RD, TULLAHOMA, TN, 37388",58225820,"R"
113223,"210 SILVER DR","DECATUR","IL",62521,39.814521401,-88.913446571,223,"210 SILVER DR, DECATUR, IL, 62521","Match","Exact","210 SILVER DR, DECATUR, IL, 62521",20749869,"R"
113224,"210 SILVERBROOK ROAD P O BOX 373","RANDLE","WA",98377,46.535843314,-121.955151705,224,"210 SILVERBROOK ROAD P O BOX 373, RANDLE, WA, 98377","Match","Exact","210 SILVERBROOK RD, RANDLE, WA, 98377",180703988,"L"
113225,"210 SKYLANE BLVD","MADISON","AL",35757,34.8103218910001,-86.720564528,225,"210 SKYLANE BLVD, MADISON, AL, 35757","Match","Exact","210 SKYLANE BLVD, MADISON, AL, 35757",58136093,"R"
113226,"210 SMALLWOOD DR","MICKLETON","NJ",8056,39.7876630440001,-75.2639964809999,226,"210 SMALLWOOD DR, MICKLETON, NJ, 8056","Match","Exact","210 SMALLWOOD DR, MICKLETON, NJ, 08056",627003735,"L"
113227,"210 SMALLWOOD DRIVE","MICKLETON","NJ",8056,39.7876630440001,-75.2639964809999,227,"210 SMALLWOOD DRIVE, MICKLETON, NJ, 8056","Match","Exact","210 SMALLWOOD DR, MICKLETON, NJ, 08056",627003735,"L"
113228,"210 SOUTH 16TH STREET","EMMAUS","PA",18049,40.521492003,-75.51263073,228,"210 SOUTH 16TH STREET, EMMAUS, PA, 18049","Match","Exact","210 S 16TH ST, EMMAUS, PA, 18049",80766623,"R"
113229,"210 SOUTH 25TH AVENUE","HATTIESBURG","MS",39401,31.3225414080001,-89.32778085,229,"210 SOUTH 25TH AVENUE, HATTIESBURG, MS, 39401","Match","Exact","210 S 25TH AVE, HATTIESBURG, MS, 39401",324191,"L"
113230,"210 SOUTH 25TH STREET","DENISON","IA",51442,42.0140226280001,-95.337462574,230,"210 SOUTH 25TH STREET, DENISON, IA, 51442","Match","Exact","210 S 25TH ST, DENISON, IA, 51442",82273460,"R"
113231,"210 SOUTH CHERRY STREET","WINSTON SALEM","NC",27101,NA,NA,231,"210 SOUTH CHERRY STREET, WINSTON SALEM, NC, 27101","No_Match",NA,NA,NA,NA
113232,"210 SOUTH CLAYBORN AVE","PARKERS PRAIRIE","MN",56361,46.1521255380001,-95.33202963,232,"210 SOUTH CLAYBORN AVE, PARKERS PRAIRIE, MN, 56361","Match","Exact","210 S CLAYBORN AVE, PARKERS PR, MN, 56361",168301314,"L"
113233,"210 SOUTH ELIZABETH STREET","KIRBYVILLE","TX",75956,30.659484219,-93.892772961,233,"210 SOUTH ELIZABETH STREET, KIRBYVILLE, TX, 75956","Match","Non_Exact","210 S ELIZABETH AVE, KIRBYVILLE, TX, 75956",32388335,"R"
113234,"210 SOUTH KALAMAZOO","WHITE PIGEON","MI",49099,41.796549606,-85.643176626,234,"210 SOUTH KALAMAZOO, WHITE PIGEON, MI, 49099","Match","Non_Exact","210 S KALAMAZOO ST, WHITE PIGEON, MI, 49099",15316860,"L"
113235,"210 SOUTH KINGS AVENUE SUITE D","BRANDON","FL",33511,27.9356562520001,-82.293944035,235,"210 SOUTH KINGS AVENUE SUITE D, BRANDON, FL, 33511","Match","Exact","210 S KINGS AVE, BRANDON, FL, 33511",104543059,"R"
113236,"210 SOUTH MICHIGAN ST/200","SOUTH BEND","IN",46601,41.674921548,-86.250318368,236,"210 SOUTH MICHIGAN ST/200, SOUTH BEND, IN, 46601","Match","Non_Exact","210 S MICHIGAN ST, SOUTH BEND, IN, 46601",8088018,"L"
113237,"210 SOUTH PRINCE STREET","LANCASTER","PA",17603,40.0343253080001,-76.307113229,237,"210 SOUTH PRINCE STREET, LANCASTER, PA, 17603","Match","Exact","210 S PRINCE ST, LANCASTER, PA, 17603",179664540,"R"
113238,"210 SOUTH SCIENTIFIC STREET APT C","HIGH POINT","NC",27260,35.977430364,-79.953025119,238,"210 SOUTH SCIENTIFIC STREET APT C, HIGH POINT, NC, 27260","Match","Exact","210 S SCIENTIFIC ST, HIGH POINT, NC, 27260",131042844,"R"
113239,"210 SOUTH VALENTINE STREET","ABBEVILLE","LA",70510,NA,NA,239,"210 SOUTH VALENTINE STREET, ABBEVILLE, LA, 70510","No_Match",NA,NA,NA,NA
113240,"210 SOUTH WABASH STREET","WABASH","IN",46992,40.7968056980001,-85.8206592769999,240,"210 SOUTH WABASH STREET, WABASH, IN, 46992","Match","Exact","210 S WABASH ST, WABASH, IN, 46992",15529722,"L"
113241,"210 SPACE PARK NORTH","GOODLETTSVILLE","TN",37072,36.3224093000001,-86.708378895,241,"210 SPACE PARK NORTH, GOODLETTSVILLE, TN, 37072","Match","Exact","210 SPACE PARK N, GOODLETTSVILLE, TN, 37072",97216104,"R"
113242,"210 SPENCE ST","KERRVILLE","TX",78028,30.0543156700001,-99.1515596789999,242,"210 SPENCE ST, KERRVILLE, TX, 78028","Match","Exact","210 SPENCE ST, KERRVILLE, TX, 78028",176887541,"L"
113243,"210 SPRING HILL DR SUITE 155","SPRING","TX",77386,30.1219747530001,-95.439728644,243,"210 SPRING HILL DR SUITE 155, SPRING, TX, 77386","Match","Exact","210 SPRING HILL DR, SPRING, TX, 77386",645494039,"R"
113244,"210 SQUIRREL HOLLOW","ENTERPRISE","AL",36330,31.360120916,-85.879435116,244,"210 SQUIRREL HOLLOW, ENTERPRISE, AL, 36330","Match","Non_Exact","210 SQUIRREL HOLLOW DR, ENTERPRISE, AL, 36330",650639399,"L"
113245,"210 STATE STREET","SAINT JOSEPH","MI",49085,42.1101597790001,-86.4812329,245,"210 STATE STREET, SAINT JOSEPH, MI, 49085","Match","Exact","210 STATE ST, SAINT JOSEPH, MI, 49085",119971723,"R"
113246,"210 STEVEN TAYLOR ROAD","WAKE FOREST","NC",27587,36.0082640000001,-78.497374323,246,"210 STEVEN TAYLOR ROAD, WAKE FOREST, NC, 27587","Match","Exact","210 STEVEN TAYLOR RD, WAKE FOREST, NC, 27587",648606881,"R"
113247,"210 STONEBURY COURT","LEXINGTON","SC",29073,33.896506195,-81.222039606,247,"210 STONEBURY COURT, LEXINGTON, SC, 29073","Match","Exact","210 STONEBURY CT, LEXINGTON, SC, 29073",614120903,"L"
113248,"210 STONEBURY CT","LEXINGTON","SC",29073,33.896506195,-81.222039606,248,"210 STONEBURY CT, LEXINGTON, SC, 29073","Match","Exact","210 STONEBURY CT, LEXINGTON, SC, 29073",614120903,"L"
113249,"210 SUMNER STREET","STOUGHTON","MA",2072,42.116852377,-71.093591093,249,"210 SUMNER STREET, STOUGHTON, MA, 2072","Match","Exact","210 SUMNER ST, STOUGHTON, MA, 02072",641132194,"L"
113250,"210 SUNDERLAND DRIVE","SAVANNAH","GA",31406,31.993701818,-81.135271082,250,"210 SUNDERLAND DRIVE, SAVANNAH, GA, 31406","Match","Exact","210 SUNDERLAND DR, SAVANNAH, GA, 31406",6173748,"R"
113251,"210 SUNNYVIEW LANE SUITE 101","KALISPELL","MT",59901,48.2151479670001,-114.327289268,251,"210 SUNNYVIEW LANE SUITE 101, KALISPELL, MT, 59901","Match","Exact","210 SUNNYVIEW LN, KALISPELL, MT, 59901",204105849,"R"
113252,"210 SUNSET STREET","ORWELL","OH",44076,41.5307550750001,-80.874925406,252,"210 SUNSET STREET, ORWELL, OH, 44076","Match","Exact","210 SUNSET ST, ORWELL, OH, 44076",117330619,"R"
113253,"210 SW 24TH STREET","OAK GROVE","MO",64075,38.9912356,-94.130635529,253,"210 SW 24TH STREET, OAK GROVE, MO, 64075","Match","Exact","210 SW 24TH ST, OAK GROVE, MO, 64075",629962808,"R"
113254,"210 SW 3RD STREET","BRYANT","AR",72022,34.592505142,-92.490831434,254,"210 SW 3RD STREET, BRYANT, AR, 72022","Match","Exact","210 SW 3RD ST, BRYANT, AR, 72022",24196093,"R"
113255,"210 SW CLAY ST","TOPEKA","KS",66606,39.0608091400001,-95.685274761,255,"210 SW CLAY ST, TOPEKA, KS, 66606","Match","Exact","210 SW CLAY ST, TOPEKA, KS, 66606",17888875,"L"
113256,"210 SW MARKET STREET","LEES SUMMIT","MO",64063,NA,NA,256,"210 SW MARKET STREET, LEES SUMMIT, MO, 64063","No_Match",NA,NA,NA,NA
113257,"210 SYCAMORE AVENUE","SHREWSBURY","NJ",7702,40.3255995000001,-74.050307918,257,"210 SYCAMORE AVENUE, SHREWSBURY, NJ, 7702","Match","Exact","210 SYCAMORE AVE, SHREWSBURY, NJ, 07702",90454862,"L"
113258,"210 TALO VERDE DR","TAMUNING","GU",96913,13.4984890280001,144.794175046,258,"210 TALO VERDE DR, TAMUNING, GU, 96913","Match","Exact","210 TALO VERDE DR, TAMUNING, GU, 96913",647993650,"R"
113259,"210 TAOS DRIVE","WOODWAY","TX",76712,31.505929028,-97.20652062,259,"210 TAOS DRIVE, WOODWAY, TX, 76712","Match","Exact","210 TAOS DR, WOODWAY, TX, 76712",146742285,"L"
113260,"210 THOMAS ROAD","MENDHAM","NJ",7945,40.7642205110001,-74.602271499,260,"210 THOMAS ROAD, MENDHAM, NJ, 7945","Match","Exact","210 THOMAS RD, MENDHAM, NJ, 07945",60492171,"R"
113261,"210 TIMBER VIEW COURT","FREDERICK","MD",21702,39.4624387010001,-77.407066003,261,"210 TIMBER VIEW COURT, FREDERICK, MD, 21702","Match","Exact","210 TIMBER VIEW CT, FREDERICK, MD, 21702",632778578,"L"
113262,"210 TINDALL STREET","SPARTANBURG","SC",29301,34.9644271760001,-81.9884702159999,262,"210 TINDALL STREET, SPARTANBURG, SC, 29301","Match","Exact","210 TINDALL ST, SPARTANBURG, SC, 29301",19465745,"L"
113263,"210 TOWN CENTRE DRIVE","LATHROP","CA",95330,NA,NA,263,"210 TOWN CENTRE DRIVE, LATHROP, CA, 95330","No_Match",NA,NA,NA,NA
113264,"210 TOWNE CENTRE DR","LATHROP","CA",95330,NA,NA,264,"210 TOWNE CENTRE DR, LATHROP, CA, 95330","No_Match",NA,NA,NA,NA
113265,"210 TOWNE CENTRE DRIVE","LATHROP","CA",95330,NA,NA,265,"210 TOWNE CENTRE DRIVE, LATHROP, CA, 95330","No_Match",NA,NA,NA,NA
113266,"210 TOWNEPARK CIR STE 200","LOUISVILLE","KY",40243,38.241205678,-85.5176470819999,266,"210 TOWNEPARK CIR STE 200, LOUISVILLE, KY, 40243","Match","Exact","210 TOWNEPARK CIR, LOUISVILLE, KY, 40243",642504907,"R"
113267,"210 UNCAS POINT ROAD","GUILFORD","CT",6437,41.2489724340001,-72.710023598,267,"210 UNCAS POINT ROAD, GUILFORD, CT, 6437","Match","Exact","210 UNCAS POINT RD, GUILFORD, CT, 06437",3732107,"L"
113268,"210 UNION WHARF STE 210","BOSTON","MA",2109,NA,NA,268,"210 UNION WHARF STE 210, BOSTON, MA, 2109","No_Match",NA,NA,NA,NA
113269,"210 VAN NUYS BLVD","SAVANNAH","GA",31419,31.985878169,-81.144166829,269,"210 VAN NUYS BLVD, SAVANNAH, GA, 31419","Match","Exact","210 VAN NUYS BLVD, SAVANNAH, GA, 31419",6173708,"R"
113270,"210 VENTURA DR","WEST MONROE","LA",71292,32.4939112530001,-92.171682109,270,"210 VENTURA DR, WEST MONROE, LA, 71292","Match","Exact","210 VENTURA DR, WEST MONROE, LA, 71292",161081501,"R"
113271,"210 VERDAN DRIVE NORTH","YORK","PA",17403,39.940094603,-76.712623556,271,"210 VERDAN DRIVE NORTH, YORK, PA, 17403","Match","Exact","210 VERDAN DR N, YORK, PA, 17403",88732663,"L"
113272,"210 VILLAGE DRIVE","LEXINGTON","NC",27292,35.8008151550001,-80.260665145,272,"210 VILLAGE DRIVE, LEXINGTON, NC, 27292","Match","Exact","210 VILLAGE DR, LEXINGTON, NC, 27292",20208305,"R"
113273,"210 VILLAGE GATE BLVD","DELAWARE","OH",43015,40.2984792020001,-83.041698848,273,"210 VILLAGE GATE BLVD, DELAWARE, OH, 43015","Match","Exact","210 VILLAGE GATE BLVD, DELAWARE, OH, 43015",24598524,"L"
113274,"210 W 140TH STREET APT 3B","NEW YORK","NY",10030,40.8186676460001,-73.9418679999999,274,"210 W 140TH STREET APT 3B, NEW YORK, NY, 10030","Match","Non_Exact","210 W 140TH ST, NEW YORK, NY, 10030",59656295,"L"
113275,"210 W 150TH ST APT 2D","NEW YORK","NY",10039,40.824991503,-73.9372187709999,275,"210 W 150TH ST APT 2D, NEW YORK, NY, 10039","Match","Non_Exact","210 W 150TH ST, NEW YORK, NY, 10039",59656271,"L"
113276,"210 W 16 ST STE 6H","NEW YORK","NY",10011,40.7401170890001,-73.999281792,276,"210 W 16 ST STE 6H, NEW YORK, NY, 10011","Match","Non_Exact","210 W 16TH ST, NEW YORK, NY, 10011",650084140,"L"
113277,"210 W 24TH ST","AUSTIN","TX",78712,30.287548816,-97.739667832,277,"210 W 24TH ST, AUSTIN, TX, 78712","Match","Exact","210 W 24TH ST, AUSTIN, TX, 78712",63945700,"R"
113278,"210 W CONTINENTAL RD STE 216B","GREEN VALLEY","AZ",85622,31.8515393070001,-110.995631405,278,"210 W CONTINENTAL RD STE 216B, GREEN VALLEY, AZ, 85622","Match","Non_Exact","210 W CONTINENTAL RD, GREEN VALLEY, AZ, 85622",121124157,"L"
113279,"210 W COVENTRY PL","MT PROSPECT","IL",60056,42.093160579,-87.9417555859999,279,"210 W COVENTRY PL, MT PROSPECT, IL, 60056","Match","Exact","210 W COVENTRY PL, MOUNT PROSPECT, IL, 60056",111718129,"R"
113280,"210 W DEPOT ST","HUNTSVILLE","MO",65259,39.4395236610001,-92.54659305,280,"210 W DEPOT ST, HUNTSVILLE, MO, 65259","Match","Exact","210 W DEPOT ST, HUNTSVILLE, MO, 65259",639659600,"R"
113281,"210 W ELM ST","LODI","CA",95240,NA,NA,281,"210 W ELM ST, LODI, CA, 95240","Tie",NA,NA,NA,NA
113282,"210 W HAMILTON AVE 116","STATE COLLEGE","PA",16801,NA,NA,282,"210 W HAMILTON AVE 116, STATE COLLEGE, PA, 16801","Tie",NA,NA,NA,NA
113283,"210 W HAMILTON AVE NUM 171","STATE COLLEGE","PA",16801,NA,NA,283,"210 W HAMILTON AVE NUM 171, STATE COLLEGE, PA, 16801","Tie",NA,NA,NA,NA
113284,"210 W HAMILTON","STATE COLLEGE","PA",16801,40.7880966330001,-77.8563287549999,284,"210 W HAMILTON, STATE COLLEGE, PA, 16801","Match","Non_Exact","210 W HAMILTON AVE, STATE COLLEGE, PA, 16801",50398620,"L"
113285,"210 W HOLLAND DR","IRVING","TX",75062,32.8384910410001,-96.946526106,285,"210 W HOLLAND DR, IRVING, TX, 75062","Match","Exact","210 W HOLLAND DR, IRVING, TX, 75062",102891920,"L"
113286,"210 W LOS OLIVOS ST","SANTA BARBARA","CA",93105,34.4305611130001,-119.719497807,286,"210 W LOS OLIVOS ST, SANTA BARBARA, CA, 93105","Match","Exact","210 W LOS OLIVOS ST, SANTA BARBARA, CA, 93105",108604618,"R"
113287,"210 W MAIN STREET","EMMETT","ID",83617,43.875602916,-116.501514346,287,"210 W MAIN STREET, EMMETT, ID, 83617","Match","Exact","210 W MAIN ST, EMMETT, ID, 83617",122880097,"R"
113288,"210 W MALLARD DR SUITE A","BOISE","ID",83706,NA,NA,288,"210 W MALLARD DR SUITE A, BOISE, ID, 83706","Tie",NA,NA,NA,NA
113289,"210 W MONROE ST","KOKOMO","IN",46901,40.4918553740001,-86.132611971,289,"210 W MONROE ST, KOKOMO, IN, 46901","Match","Exact","210 W MONROE ST, KOKOMO, IN, 46901",27279590,"R"
113290,"210 W OKLAHOMA AVE","GUTHRIE","OK",73044,35.8780430750001,-97.426730218,290,"210 W OKLAHOMA AVE, GUTHRIE, OK, 73044","Match","Exact","210 W OKLAHOMA AVE, GUTHRIE, OK, 73044",121956127,"R"
113291,"210 W PATTON","STURGEON","MO",65284,39.23286626,-92.2824997339999,291,"210 W PATTON, STURGEON, MO, 65284","Match","Non_Exact","210 W PATTON ST, STURGEON, MO, 65284",23476086,"R"
113292,"210 W RITTENHOUSE SQ ST  STE1804","PHILADELPHIA","PA",19103,39.949628483,-75.172918059,292,"210 W RITTENHOUSE SQ ST  STE1804, PHILADELPHIA, PA, 19103","Match","Non_Exact","210 W RITTENHOUSE SQ, PHILADELPHIA, PA, 19103",650128038,"R"
113293,"210 W SAMANO ST","EDIBURG","TX",78539,26.29565466,-98.1648988429999,293,"210 W SAMANO ST, EDIBURG, TX, 78539","Match","Non_Exact","210 W SAMANO ST, EDINBURG, TX, 78539",71551491,"L"
113294,"210 W THIRD ST","LEXINGTON","KY",40508,38.0506087740001,-84.493760117,294,"210 W THIRD ST, LEXINGTON, KY, 40508","Match","Exact","210 W 3RD ST, LEXINGTON, KY, 40508",31921781,"L"
113295,"210 W WM J BRYAN PKWY NUM 2102","BRYAN","TX",77803,NA,NA,295,"210 W WM J BRYAN PKWY NUM 2102, BRYAN, TX, 77803","Tie",NA,NA,NA,NA
113296,"210 WALKER ST  UNIT 13","ATLANTA","GA",30313,33.749148066,-84.40191788,296,"210 WALKER ST  UNIT 13, ATLANTA, GA, 30313","Match","Non_Exact","210 WALKER ST SW, ATLANTA, GA, 30313",17344151,"L"
113297,"210 WALNUT ST ROOM 559","DES MOINES","IA",50309,41.586880939,-93.619906989,297,"210 WALNUT ST ROOM 559, DES MOINES, IA, 50309","Match","Exact","210 WALNUT ST, DES MOINES, IA, 50309",65853277,"L"
113298,"210 WALNUT","MARYNEAL","TX",79535,NA,NA,298,"210 WALNUT, MARYNEAL, TX, 79535","No_Match",NA,NA,NA,NA
113299,"210 WARD AVE 219B","HONOLULU","HI",96814,21.2951793570001,-157.85755567,299,"210 WARD AVE 219B, HONOLULU, HI, 96814","Match","Exact","210 WARD AVE, HONOLULU, HI, 96814",203241422,"L"
113300,"210 WARREN ST","SCOTTSVILLE","VA",24590,37.801808695,-78.4980228329999,300,"210 WARREN ST, SCOTTSVILLE, VA, 24590","Match","Exact","210 WARREN ST, SCOTTSVILLE, VA, 24590",83378337,"R"
113301,"210 WATER STREET","MENASHA","WI",54952,44.2000132090001,-88.456627912,301,"210 WATER STREET, MENASHA, WI, 54952","Match","Exact","210 WATER ST, MENASHA, WI, 54952",74492019,"L"
113302,"210 WEST 18TH STREET B","GEORGETOWN","TX",78626,30.6277181400001,-97.6780966809999,302,"210 WEST 18TH STREET B, GEORGETOWN, TX, 78626","Match","Exact","210 W 18TH ST, GEORGETOWN, TX, 78626",126416806,"L"
113303,"210 WEST 61 STREET","NEW YORK","NY",10023,40.771794691,-73.987002004,303,"210 WEST 61 STREET, NEW YORK, NY, 10023","Match","Exact","210 W 61ST ST, NEW YORK, NY, 10023",650072697,"L"
113304,"210 WEST 7TH STREET","JACKSONVILLE","FM",32206,NA,NA,304,"210 WEST 7TH STREET, JACKSONVILLE, FM, 32206","No_Match",NA,NA,NA,NA
113305,"210 WEST AVE","PAWTUCKET","RI",2860,41.869607155,-71.3912455719999,305,"210 WEST AVE, PAWTUCKET, RI, 2860","Match","Exact","210 WEST AVE, PAWTUCKET, RI, 02860",47464228,"L"
113306,"210 WEST BAY PLAZA","PLATTSBURGH","NY",12901,44.711129876,-73.448851895,306,"210 WEST BAY PLAZA, PLATTSBURGH, NY, 12901","Match","Exact","210 W BAY PLZ, PLATTSBURGH, NY, 12901",650140919,"L"
113307,"210 WEST BLUE STREET","SAINT PAULS","NC",28384,34.8057769710001,-78.9729172949999,307,"210 WEST BLUE STREET, SAINT PAULS, NC, 28384","Match","Exact","210 W BLUE ST, SAINT PAULS, NC, 28384",49143284,"R"
113308,"210 WEST CAMERON AVENUE","CHAPEL HILL","NC",27516,35.9100182440001,-79.056088455,308,"210 WEST CAMERON AVENUE, CHAPEL HILL, NC, 27516","Match","Exact","210 W CAMERON AVE, CHAPEL HILL, NC, 27516",639555443,"L"
113309,"210 WEST CANTON STREET","BOSTON","MA",2116,42.345184783,-71.0770651719999,309,"210 WEST CANTON STREET, BOSTON, MA, 2116","Match","Exact","210 W CANTON ST, BOSTON, MA, 02116",85728124,"L"
113310,"210 WEST CULVER RD","KNOX","IN",46534,41.2880527840001,-86.625693714,310,"210 WEST CULVER RD, KNOX, IN, 46534","Match","Exact","210 W CULVER RD, KNOX, IN, 46534",8249716,"L"
113311,"210 WEST F STREET","ENCINITAS","CA",92024,33.043222744,-117.294994779,311,"210 WEST F STREET, ENCINITAS, CA, 92024","Match","Exact","210 W F ST, ENCINITAS, CA, 92024",612881934,"R"
113312,"210 WEST FRONT STREET  P O BOX5867","MONROE","MI",48161,41.917055281,-83.4012013719999,312,"210 WEST FRONT STREET  P O BOX5867, MONROE, MI, 48161","Match","Exact","210 W FRONT ST, MONROE, MI, 48161",40501177,"R"
113313,"210 WEST FRONT STREET-STEPHYS PLACE","RED BANK","NJ",7701,40.350918549,-74.0747458929999,313,"210 WEST FRONT STREET-STEPHYS PLACE, RED BANK, NJ, 7701","Match","Non_Exact","210 W FRONT ST, RED BANK, NJ, 07701",640005340,"R"
113314,"210 WEST FRONT STREET","RED BANK","NJ",7704,NA,NA,314,"210 WEST FRONT STREET, RED BANK, NJ, 7704","No_Match",NA,NA,NA,NA
113315,"210 WEST GRANT STREET SUITE 208","LANCASTER","PA",17603,40.0384038070001,-76.308814304,315,"210 WEST GRANT STREET SUITE 208, LANCASTER, PA, 17603","Match","Exact","210 W GRANT ST, LANCASTER, PA, 17603",179664514,"L"
113316,"210 WEST HAMILTON AVENUE 139","STATE COLLEGE","PA",16801,40.7881012300001,-77.856322377,316,"210 WEST HAMILTON AVENUE 139, STATE COLLEGE, PA, 16801","Match","Exact","210 W HAMILTON AVE, STATE COLLEGE, PA, 16801",50398620,"L"
113317,"210 WEST JACKSON STREET","MEXICO","MO",65265,39.172157272,-91.883824051,317,"210 WEST JACKSON STREET, MEXICO, MO, 65265","Match","Exact","210 W JACKSON ST, MEXICO, MO, 65265",34293463,"L"
113318,"210 WEST KANSAS AVE","BONIFAY","FL",32425,30.796164859,-85.680948632,318,"210 WEST KANSAS AVE, BONIFAY, FL, 32425","Match","Exact","210 W KANSAS AVE, BONIFAY, FL, 32425",32656431,"L"
113319,"210 WEST LAS CRUCES","LAS CRUCESN","NM",88011,NA,NA,319,"210 WEST LAS CRUCES, LAS CRUCESN, NM, 88011","No_Match",NA,NA,NA,NA
113320,"210 WEST MAIN ST","AYER","MA",1432,42.556206693,-71.603140106,320,"210 WEST MAIN ST, AYER, MA, 1432","Match","Exact","210 W MAIN ST, AYER, MA, 01432",651193220,"R"
113321,"210 WEST MAIN STREET APT E","CRAWFORDSVILLE","IN",47933,40.041715777,-86.9031339649999,321,"210 WEST MAIN STREET APT E, CRAWFORDSVILLE, IN, 47933","Match","Exact","210 W MAIN ST, CRAWFORDSVILLE, IN, 47933",29351748,"L"
113322,"210 WEST MAIN","CENTER","ND",58530,47.1153607890001,-101.302021925,322,"210 WEST MAIN, CENTER, ND, 58530","Match","Non_Exact","210 W MAIN ST, CENTER, ND, 58530",199084951,"L"
113323,"210 WEST NESHANNOCK AVE","NEW WILMINGTON","PA",16142,41.1224597030001,-80.3347962679999,323,"210 WEST NESHANNOCK AVE, NEW WILMINGTON, PA, 16142","Match","Exact","210 W NESHANNOCK AVE, NEW WILMINGTON, PA, 16142",65178740,"L"
113324,"210 WEST OAK ST","PALESTINE","TX",75801,31.762614136,-95.632638032,324,"210 WEST OAK ST, PALESTINE, TX, 75801","Match","Exact","210 W OAK ST, PALESTINE, TX, 75801",74651867,"R"
113325,"210 WEST ROBERT STREET APT 20","HAMMOND","LA",70401,30.5056841200001,-90.463123916,325,"210 WEST ROBERT STREET APT 20, HAMMOND, LA, 70401","Match","Exact","210 W ROBERT ST, HAMMOND, LA, 70401",75751654,"L"
113326,"210 WEST SCENIC DRIVE","NORTH LITTLE ROCK","AR",72118,34.7833637260001,-92.284590991,326,"210 WEST SCENIC DRIVE, NORTH LITTLE ROCK, AR, 72118","Match","Exact","210 W SCENIC DR, N LITTLE ROCK, AR, 72118",83507800,"L"
113327,"210 WESTSIDE AVENUE","FREEPORT","NY",11520,40.6376892600001,-73.5895181559999,327,"210 WESTSIDE AVENUE, FREEPORT, NY, 11520","Match","Exact","210 WESTSIDE AVE, FREEPORT, NY, 11520",147638487,"R"
113328,"210 WESTWOOD PL STE 110","BRENTWOOD","TN",37027,36.0345574890001,-86.8058804729999,328,"210 WESTWOOD PL STE 110, BRENTWOOD, TN, 37027","Match","Exact","210 WESTWOOD PL, BRENTWOOD, TN, 37027",607902197,"L"
113329,"210 WEXFORD CT","COLUMBIA","SC",29212,34.087577792,-81.225748758,329,"210 WEXFORD CT, COLUMBIA, SC, 29212","Match","Exact","210 WEXFORD CT, COLUMBIA, SC, 29212",70088460,"R"
113330,"210 WILFORD LANE","COTATI","CA",94931,38.33214574,-122.70885105,330,"210 WILFORD LANE, COTATI, CA, 94931","Match","Exact","210 WILFORD LN, COTATI, CA, 94931",67512913,"L"
113331,"210 WILLARD STREET","BERLINE","NH",3570,44.4744437780001,-71.18242215,331,"210 WILLARD STREET, BERLINE, NH, 3570","Match","Non_Exact","210 WILLARD ST, BERLIN, NH, 03570",167897071,"R"
113332,"210 WILLETT AVE","DIXON","IL",61021,41.844522758,-89.5017829449999,332,"210 WILLETT AVE, DIXON, IL, 61021","Match","Exact","210 WILLETT AVE, DIXON, IL, 61021",48757228,"R"
113333,"210 WILLIAMS ST","LAKEWOOD","NJ",8701,40.0725504210001,-74.221826514,333,"210 WILLIAMS ST, LAKEWOOD, NJ, 8701","Match","Exact","210 WILLIAMS ST, LAKEWOOD, NJ, 08701",203724066,"R"
113334,"210 WILLOW LEAF DRIVE","SENECA","SC",29672,34.7064968180001,-82.919697861,334,"210 WILLOW LEAF DRIVE, SENECA, SC, 29672","Match","Exact","210 WILLOW LEAF DR, SENECA, SC, 29672",617666997,"R"
113335,"210 WILSHIRE BLVD","CASSELBERRY","FL",32707,28.6495679070001,-81.330384265,335,"210 WILSHIRE BLVD, CASSELBERRY, FL, 32707","Match","Exact","210 WILSHIRE BLVD, CASSELBERRY, FL, 32707",647548002,"L"
113336,"210 WINCHESTER RD A203","HUNTSVILLE","AL",35811,34.792721538,-86.5681896249999,336,"210 WINCHESTER RD A203, HUNTSVILLE, AL, 35811","Match","Non_Exact","210 WINCHESTER RD NE, HUNTSVILLE, AL, 35811",58217871,"L"
113337,"210 WORRELL RD","ANTIOCH","CA",94509,37.993997028,-121.802384905,337,"210 WORRELL RD, ANTIOCH, CA, 94509","Match","Exact","210 WORRELL RD, ANTIOCH, CA, 94509",192067823,"R"
113338,"2100  N HWY 360 SUITE 1102","GRAND PRAIRIE","TX",75050,NA,NA,338,"2100  N HWY 360 SUITE 1102, GRAND PRAIRIE, TX, 75050","No_Match",NA,NA,NA,NA
113339,"2100 141ST AVENUE N","ROGERS","MN",55374,NA,NA,339,"2100 141ST AVENUE N, ROGERS, MN, 55374","No_Match",NA,NA,NA,NA
113340,"2100 19TH STREET NW APT 806","WASHINGTON","DC",20009,38.917884767,-77.044288571,340,"2100 19TH STREET NW APT 806, WASHINGTON, DC, 20009","Match","Exact","2100 19TH ST NW, WASHINGTON, DC, 20009",76222735,"L"
113341,"2100 23RD AVENUE","OAKLAND","CA",94606,37.7887284870001,-122.231587409,341,"2100 23RD AVENUE, OAKLAND, CA, 94606","Match","Exact","2100 23RD AVE, OAKLAND, CA, 94606",642189184,"R"
113342,"2100 45TH ST STE A1A","WEST PALM BEACH","FL",33407,26.7588830020001,-80.086515044,342,"2100 45TH ST STE A1A, WEST PALM BEACH, FL, 33407","Match","Exact","2100 45TH ST, WEST PALM BEACH, FL, 33407",645858219,"L"
113343,"2100 4TH AVE","SAN DIEGO","CA",92101,32.7272928840001,-117.161175214,343,"2100 4TH AVE, SAN DIEGO, CA, 92101","Match","Exact","2100 4TH AVE, SAN DIEGO, CA, 92101",195343467,"L"
113344,"2100 51ST AVE APT 101","OAKLAND","CA",94601,37.7737615200001,-122.204246879,344,"2100 51ST AVE APT 101, OAKLAND, CA, 94601","Match","Exact","2100 51ST AVE, OAKLAND, CA, 94601",125007485,"R"
113345,"2100 ARBOR CIRCLE EAST APT 202","YPSILANTI","MI",48197,42.2582194410001,-83.666504972,345,"2100 ARBOR CIRCLE EAST APT 202, YPSILANTI, MI, 48197","Match","Exact","2100 ARBOR CIR E, YPSILANTI, MI, 48197",26038029,"L"
113346,"2100 ARCH STREET 7TH FLOOR","PHILADELPHIA","PA",19103,39.955852043,-75.174720629,346,"2100 ARCH STREET 7TH FLOOR, PHILADELPHIA, PA, 19103","Match","Exact","2100 ARCH ST, PHILADELPHIA, PA, 19103",131406640,"L"
113347,"2100 AVE DE LAS FLORES","THOUSAND OAKS","CA",91362,34.2078805080001,-118.841519098,347,"2100 AVE DE LAS FLORES, THOUSAND OAKS, CA, 91362","Match","Non_Exact","2100 E AVE DE LAS FLORES, THOUSAND OAKS, CA, 91362",110049261,"R"
113348,"2100 AVIATIOIN WAY","BRIDGEPORT","WV",26330,NA,NA,348,"2100 AVIATIOIN WAY, BRIDGEPORT, WV, 26330","No_Match",NA,NA,NA,NA
113349,"2100 AZTEC RD NE STE A","ALBUQUERQUE","NM",87107,35.1201992490001,-106.621589053,349,"2100 AZTEC RD NE STE A, ALBUQUERQUE, NM, 87107","Match","Exact","2100 AZTEC RD NE, ALBUQUERQUE, NM, 87107",206709385,"R"
113350,"2100 BALTIMORE ROAD","ROCKVILLE","MD",20851,39.084837307,-77.1182290259999,350,"2100 BALTIMORE ROAD, ROCKVILLE, MD, 20851","Match","Exact","2100 BALTIMORE RD, ROCKVILLE, MD, 20851",62055482,"L"
113351,"2100 BARRITT ST","LANSING","MI",48912,42.7582056050001,-84.521559528,351,"2100 BARRITT ST, LANSING, MI, 48912","Match","Exact","2100 BARRITT ST, LANSING, MI, 48912",17500452,"R"
113352,"2100 BARSHAM CT","CEDAR PARK","TX",78613,30.4702599390001,-97.849655296,352,"2100 BARSHAM CT, CEDAR PARK, TX, 78613","Match","Exact","2100 BARSHAM CT, CEDAR PARK, TX, 78613",64079673,"L"
113353,"2100 BATTLEFIELD ROAD","PERRYVILLE","KY",40468,37.679591219,-84.969824225,353,"2100 BATTLEFIELD ROAD, PERRYVILLE, KY, 40468","Match","Exact","2100 BATTLEFIELD RD, PERRYVILLE, KY, 40468",637749614,"R"
113354,"2100 BEEKMAN PLACE 3O","BROOKLYN","NY",11225,40.6599589050001,-73.9618379089999,354,"2100 BEEKMAN PLACE 3O, BROOKLYN, NY, 11225","Match","Exact","2100 BEEKMAN PL, BROOKLYN, NY, 11225",59078541,"R"
113355,"2100 BENT CREEK DRIVE","SAN RAMON","CA",94582,37.7322965590001,-121.911114937,355,"2100 BENT CREEK DRIVE, SAN RAMON, CA, 94582","Match","Exact","2100 BENT CREEK DR, SAN RAMON, CA, 94582",192093841,"R"
113356,"2100 BIRCHCREST DR","CHARLOTTE","NC",28205,35.2204329310001,-80.762650207,356,"2100 BIRCHCREST DR, CHARLOTTE, NC, 28205","Match","Exact","2100 BIRCHCREST DR, CHARLOTTE, NC, 28205",70579295,"R"
113357,"2100 BRADYVILLE HILL ROAD","BRADYVILLE","TN",37026,35.740028828,-86.134879747,357,"2100 BRADYVILLE HILL ROAD, BRADYVILLE, TN, 37026","Match","Exact","2100 BRADYVILLE HILL RD, BRADYVILLE, TN, 37026",87948550,"R"
113358,"2100 BRIARCLIFF DR","HIGH POINT","NC",27265,35.9897518180001,-79.986452184,358,"2100 BRIARCLIFF DR, HIGH POINT, NC, 27265","Match","Exact","2100 BRIARCLIFF DR, HIGH POINT, NC, 27265",131040006,"R"
113359,"2100 BRISTOL ST","MIDDLETON","WI",53562,43.0983603560001,-89.506576925,359,"2100 BRISTOL ST, MIDDLETON, WI, 53562","Match","Exact","2100 BRISTOL ST, MIDDLETON, WI, 53562",49464555,"L"
113360,"2100 BROOKS DR","DISTRICT HEIGHTS","MD",20747,NA,NA,360,"2100 BROOKS DR, DISTRICT HEIGHTS, MD, 20747","No_Match",NA,NA,NA,NA
113361,"2100 CALLISON HIGHWAY","GREENWOOD","SC",29646,NA,NA,361,"2100 CALLISON HIGHWAY, GREENWOOD, SC, 29646","No_Match",NA,NA,NA,NA
113362,"2100 CAMPUS DRIVE","ROCHESTER","MN",55904,44.022584597,-92.430652122,362,"2100 CAMPUS DRIVE, ROCHESTER, MN, 55904","Match","Non_Exact","2100 CAMPUS DR SE, ROCHESTER, MN, 55904",639386684,"L"
113363,"2100 CANAL STREET","JEANERETTE","LA",70544,29.885472361,-91.688354725,363,"2100 CANAL STREET, JEANERETTE, LA, 70544","Match","Exact","2100 CANAL ST, JEANERETTE, LA, 70544",85371092,"L"
113364,"2100 CENTURY CIRCLE","IRVING","TX",75062,NA,NA,364,"2100 CENTURY CIRCLE, IRVING, TX, 75062","No_Match",NA,NA,NA,NA
113365,"2100 COLLEGE STREET","NEWBBERRY","SC",29108,34.28378832,-81.622854035,365,"2100 COLLEGE STREET, NEWBBERRY, SC, 29108","Match","Non_Exact","2100 COLLEGE ST, NEWBERRY, SC, 29108",45372559,"R"
113366,"2100 COWAN BOULEVARD","FREDERICKSBURG","VA",22401,NA,NA,366,"2100 COWAN BOULEVARD, FREDERICKSBURG, VA, 22401","No_Match",NA,NA,NA,NA
113367,"2100 CRICKET LN","COLUMBIANA","OH",44408,40.8696361950001,-80.654811638,367,"2100 CRICKET LN, COLUMBIANA, OH, 44408","Match","Exact","2100 CRICKET LN, COLUMBIANA, OH, 44408",63630247,"L"
113368,"2100 CYPRESS CLUB 9220","ARLINGTON","TX",76010,NA,NA,368,"2100 CYPRESS CLUB 9220, ARLINGTON, TX, 76010","No_Match",NA,NA,NA,NA
113369,"2100 DALLAS PARKWAY SUITE 106","PLANO","TX",75093,33.0285850070001,-96.828819543,369,"2100 DALLAS PARKWAY SUITE 106, PLANO, TX, 75093","Match","Exact","2100 DALLAS PKWY, PLANO, TX, 75093",210475656,"L"
113370,"2100 DR MARTIN LUTHER KING JR ST S0","ST PETERSBURG","FL",33705,NA,NA,370,"2100 DR MARTIN LUTHER KING JR ST S0, ST PETERSBURG, FL, 33705","No_Match",NA,NA,NA,NA
113371,"2100 E 53RD ST NORTH","PARK CITY","KS",67219,37.7813288080001,-97.311954121,371,"2100 E 53RD ST NORTH, PARK CITY, KS, 67219","Match","Exact","2100 E 53RD ST N, PARK CITY, KS, 67219",640634570,"L"
113372,"2100 E GANS RD","COLUMBIA","MO",65201,38.8912964470001,-92.312587756,372,"2100 E GANS RD, COLUMBIA, MO, 65201","Match","Exact","2100 E GANS RD, COLUMBIA, MO, 65201",649650758,"R"
113373,"2100 E KATELLA AVENUE APT 414","ANAHEIM","CA",92806,33.8032599640001,-117.887693558,373,"2100 E KATELLA AVENUE APT 414, ANAHEIM, CA, 92806","Match","Non_Exact","2100 E KATELLA AVE, ANAHEIM, CA, 92806",651238847,"R"
113374,"2100 EAST FAIR AVE","SAINT LOUIS","MO",63107,38.676674887,-90.2189479639999,374,"2100 EAST FAIR AVE, SAINT LOUIS, MO, 63107","Match","Exact","2100 E FAIR AVE, SAINT LOUIS, MO, 63107",605100646,"L"
113375,"2100 EAST FRONTIER ROAD","FLAGSTAFF","AZ",86005,35.1390456890001,-111.652056826,375,"2100 EAST FRONTIER ROAD, FLAGSTAFF, AZ, 86005","Match","Non_Exact","2100 E FRONTIER AVE, FLAGSTAFF, AZ, 86005",188861600,"R"
113376,"2100 EAST PARHAM ROAD UNIT 3181","HENRICO","VA",23228,37.64060547,-77.486643917,376,"2100 EAST PARHAM ROAD UNIT 3181, HENRICO, VA, 23228","Match","Exact","2100 E PARHAM RD, HENRICO, VA, 23228",613886026,"R"
113377,"2100 EAST TAHQUITZ CANYON WAY","PALM SPRINGS","CA",92662,33.823175559,-116.523641971,377,"2100 EAST TAHQUITZ CANYON WAY, PALM SPRINGS, CA, 92662","Match","Non_Exact","2100 E TAHQUITZ CANYON WAY, PALM SPRINGS, CA, 92262",194763705,"L"
113378,"2100 EAST TREMONT AVE  -   APT 2F","BRONX","NY",10462,40.8419218240001,-73.858114734,378,"2100 EAST TREMONT AVE  -   APT 2F, BRONX, NY, 10462","Match","Exact","2100 E TREMONT AVE, BRONX, NY, 10462",609396337,"R"
113379,"2100 ELLISON LAKES DR NW 322","KENNESAW","GA",30152,34.000623724,-84.607962729,379,"2100 ELLISON LAKES DR NW 322, KENNESAW, GA, 30152","Match","Exact","2100 ELLISON LAKES DR NW, KENNESAW, GA, 30152",640221179,"R"
113380,"2100 ELLISON LAKES DRIVE NW APT 725","KENNESAW","GA",30152,34.000623724,-84.607962729,380,"2100 ELLISON LAKES DRIVE NW APT 725, KENNESAW, GA, 30152","Match","Exact","2100 ELLISON LAKES DR NW, KENNESAW, GA, 30152",640221179,"R"
113381,"2100 EVERGREEN PARKWAY","LEBANON","MO",65536,37.6496609910001,-92.6663519749999,381,"2100 EVERGREEN PARKWAY, LEBANON, MO, 65536","Match","Exact","2100 EVERGREEN PKWY, LEBANON, MO, 65536",641440110,"R"
113382,"2100 FLETCHER AVENUE SUITE 105","LINCOLN","NE",68521,NA,NA,382,"2100 FLETCHER AVENUE SUITE 105, LINCOLN, NE, 68521","No_Match",NA,NA,NA,NA
113383,"2100 FONTAINE ROAD","LEXINGTON","KY",40502,38.0173507280001,-84.4690629139999,383,"2100 FONTAINE ROAD, LEXINGTON, KY, 40502","Match","Exact","2100 FONTAINE RD, LEXINGTON, KY, 40502",31930619,"R"
113384,"2100 FOURTH STREET C353","SAN RAFAEL","CA",94901,37.9755285320001,-122.546540332,384,"2100 FOURTH STREET C353, SAN RAFAEL, CA, 94901","Match","Exact","2100 4TH ST, SAN RAFAEL, CA, 94901",192763827,"R"
113385,"2100 FRED BROWN DR","LAS VEGAS","NV",89106,36.1978069290001,-115.162765733,385,"2100 FRED BROWN DR, LAS VEGAS, NV, 89106","Match","Exact","2100 FRED BROWN DR, LAS VEGAS, NV, 89106",201977056,"R"
113386,"2100 GANG ROAD SUITE 210","PALO ALTO","CA",94303,NA,NA,386,"2100 GANG ROAD SUITE 210, PALO ALTO, CA, 94303","No_Match",NA,NA,NA,NA
113387,"2100 GODDARD WAY","WAXHAW","NC",28173,34.9699647940001,-80.810888495,387,"2100 GODDARD WAY, WAXHAW, NC, 28173","Match","Exact","2100 GODDARD WAY, WAXHAW, NC, 28173",614177767,"R"
113388,"2100 GRANVILLE TOWERS LANE CB5100","CHAPEL HILL","NC",27599,NA,NA,388,"2100 GRANVILLE TOWERS LANE CB5100, CHAPEL HILL, NC, 27599","No_Match",NA,NA,NA,NA
113389,"2100 HAMILTON ROAD","COLUMBUS","GA",31904,32.4840342100001,-84.984291881,389,"2100 HAMILTON ROAD, COLUMBUS, GA, 31904","Match","Exact","2100 HAMILTON RD, COLUMBUS, GA, 31904",98937721,"R"
113390,"2100 HIGHWAY 16","SEARCY","AR",72143,35.2766214980001,-91.755867828,390,"2100 HIGHWAY 16, SEARCY, AR, 72143","Match","Exact","2100 HWY 16, SEARCY, AR, 72143",639020886,"R"
113391,"2100 HIGHWAY 64","EADS","TN",38028,35.2219513840001,-89.605058302,391,"2100 HIGHWAY 64, EADS, TN, 38028","Match","Non_Exact","2100 US HWY 64, EADS, TN, 38028",634031765,"R"
113392,"2100 HUNTINGTON DRIVE SUITE 8","SAN MARINO","CA",91108,34.120988379,-118.108517088,392,"2100 HUNTINGTON DRIVE SUITE 8, SAN MARINO, CA, 91108","Match","Exact","2100 HUNTINGTON DR, SAN MARINO, CA, 91108",141633553,"R"
113393,"2100 KENNICOTT ROAD","WINDSOR MILL","MD",21244,39.3168814270001,-76.7574241409999,393,"2100 KENNICOTT ROAD, WINDSOR MILL, MD, 21244","Match","Exact","2100 KENNICOTT RD, WINDSOR MILL, MD, 21244",191482909,"L"
113394,"2100 KEY WEST CV","AUSTIN","TX",78746,30.2772089170001,-97.838536271,394,"2100 KEY WEST CV, AUSTIN, TX, 78746","Match","Exact","2100 KEY WEST COVE, AUSTIN, TX, 78746",63937928,"R"
113395,"2100 LAUREL LANE","STREETSBORO","OH",44241,41.2236799570001,-81.3196845909999,395,"2100 LAUREL LANE, STREETSBORO, OH, 44241","Match","Exact","2100 LAUREL LN, STREETSBORO, OH, 44241",137528244,"R"
113396,"2100 LEE HWY UNIT 116","ARLINGTON","VA",22201,38.8963330460001,-77.0846236899999,396,"2100 LEE HWY UNIT 116, ARLINGTON, VA, 22201","Match","Non_Exact","2100 N LEE HWY, ARLINGTON, VA, 22201",649844344,"L"
113397,"2100 LEWIS STREET","LAKEWOOD","CO",80215,39.748863328,-105.112784674,397,"2100 LEWIS STREET, LAKEWOOD, CO, 80215","Match","Exact","2100 LEWIS ST, LAKEWOOD, CO, 80215",640550947,"R"
113398,"2100 LITTLE COYOTE ROAD","BIG SKY","MT",59716,45.2702916200001,-111.301248581,398,"2100 LITTLE COYOTE ROAD, BIG SKY, MT, 59716","Match","Exact","2100 LITTLE COYOTE RD, BIG SKY, MT, 59716",163544906,"L"
113399,"2100 LOWDEN STREET","FORT WORTH","TX",76110,32.7095855520001,-97.349161281,399,"2100 LOWDEN STREET, FORT WORTH, TX, 76110","Match","Non_Exact","2100 W LOWDEN ST, FORT WORTH, TX, 76110",101887137,"R"
113400,"2100 LYNDORA ROAD","VIRGINIA BEACH","VA",23464,36.7782633580001,-76.155825668,400,"2100 LYNDORA ROAD, VIRGINIA BEACH, VA, 23464","Match","Exact","2100 LYNDORA RD, VA BCH, VA, 23464",122286015,"L"
113401,"2100 M ST NW 170-307","WASHINGTON","DC",20037,38.9056024490001,-77.046708751,401,"2100 M ST NW 170-307, WASHINGTON, DC, 20037","Match","Exact","2100 M ST NW, WASHINGTON, DC, 20037",76225348,"L"
113402,"2100 M ST NW STE 170-404","WASHINGTON","DC",20037,38.9056024490001,-77.046708751,402,"2100 M ST NW STE 170-404, WASHINGTON, DC, 20037","Match","Exact","2100 M ST NW, WASHINGTON, DC, 20037",76225348,"L"
113403,"2100 M STREET NW SUITE 170","WASHINGTON","DC",20037,38.9056024490001,-77.046708751,403,"2100 M STREET NW SUITE 170, WASHINGTON, DC, 20037","Match","Exact","2100 M ST NW, WASHINGTON, DC, 20037",76225348,"L"
113404,"2100 MAGIC VALLEY COURT","COOL","CA",95614,38.886107924,-120.964265353,404,"2100 MAGIC VALLEY COURT, COOL, CA, 95614","Match","Exact","2100 MAGIC VALLEY CT, COOL, CA, 95614",133070899,"L"
113405,"2100 MARCONI AVE","SACRAMENTO","CA",95821,38.6190968550001,-121.417448083,405,"2100 MARCONI AVE, SACRAMENTO, CA, 95821","Match","Exact","2100 MARCONI AVE, SACRAMENTO, CA, 95821",133330792,"R"
113406,"2100 MERRICK DRIVE","PEACHTREE CITY","GA",30269,33.3986297970001,-84.603719106,406,"2100 MERRICK DRIVE, PEACHTREE CITY, GA, 30269","Match","Exact","2100 MERRICK DR, PEACHTREE CITY, GA, 30269",647459277,"R"
113407,"2100 N 145TH AVE APT 1092","GOODYEAR","AZ",85395,33.471297786,-112.372007172,407,"2100 N 145TH AVE APT 1092, GOODYEAR, AZ, 85395","Match","Non_Exact","2100 N 145TH AVE, GOODYEAR, AZ, 85395",647765347,"L"
113408,"2100 N BASS DRIVE","MOUNT JULIET","TN",37122,36.217148518,-86.524063123,408,"2100 N BASS DRIVE, MOUNT JULIET, TN, 37122","Match","Exact","2100 N BASS DR, MOUNT JULIET, TN, 37122",89695137,"R"
113409,"2100 N BROADWAY SUITE 209","SANTA ANA","CA",92706,33.76412385,-117.869583936,409,"2100 N BROADWAY SUITE 209, SANTA ANA, CA, 92706","Match","Non_Exact","2100 N BROADWAY, SANTA ANA, CA, 92706",144041778,"L"
113410,"2100 N CENTRAL PARK AVE APT 3","CHICAGO","IL",60647,41.9191528360001,-87.7168350109999,410,"2100 N CENTRAL PARK AVE APT 3, CHICAGO, IL, 60647","Match","Non_Exact","2100 N CENTRAL PARK AVE, CHICAGO, IL, 60647",605222667,"L"
113411,"2100 N FLORIDA MANGO RD","WEST PALM BEACH","FL",33409,26.695949152,-80.078688116,411,"2100 N FLORIDA MANGO RD, WEST PALM BEACH, FL, 33409","Match","Exact","2100 N FLORIDA MANGO RD, WEST PALM BEACH, FL, 33409",115272165,"R"
113412,"2100 N GRANT AVE","WILMINGTON","DE",19806,39.762684624,-75.564078703,412,"2100 N GRANT AVE, WILMINGTON, DE, 19806","Match","Exact","2100 N GRANT AVE, WILMINGTON, DE, 19806",187256695,"R"
113413,"2100 N HAMPTON ROAD","DESOTO","TX",75115,32.631818271,-96.8569956059999,413,"2100 N HAMPTON ROAD, DESOTO, TX, 75115","Match","Exact","2100 N HAMPTON RD, DESOTO, TX, 75115",103188379,"R"
113414,"2100 N SPRING ST","NEW ULM","MN",56073,NA,NA,414,"2100 N SPRING ST, NEW ULM, MN, 56073","No_Match",NA,NA,NA,NA
113415,"2100 NE 3RD CT","BOYNTON BEACH","FL",33435,26.5474203050001,-80.0616561849999,415,"2100 NE 3RD CT, BOYNTON BEACH, FL, 33435","Match","Non_Exact","2100 3RD CT NE, BOYNTON BEACH, FL, 33435",636398299,"R"
113416,"2100 NE 65TH STREET","GLADSTONE","MO",64118,39.210549529,-94.555111333,416,"2100 NE 65TH STREET, GLADSTONE, MO, 64118","Match","Exact","2100 NE 65TH ST, GLADSTONE, MO, 64118",89757346,"L"
113417,"2100 NORTH ALAFAYA TRAIL SUITE 500","ORLANDO","FL",32826,28.5733429750001,-81.2078639549999,417,"2100 NORTH ALAFAYA TRAIL SUITE 500, ORLANDO, FL, 32826","Match","Non_Exact","2100 ALAFAYA TRL, ORLANDO, FL, 32826",637844956,"R"
113418,"2100 NORTH BROADWAY","ADA","OK",74820,NA,NA,418,"2100 NORTH BROADWAY, ADA, OK, 74820","No_Match",NA,NA,NA,NA
113419,"2100 NORTH RIDGE RD","ELYRIA","OH",44035,41.418661302,-82.122048548,419,"2100 NORTH RIDGE RD, ELYRIA, OH, 44035","Match","Exact","2100 N RIDGE RD, ELYRIA, OH, 44035",55439229,"R"
113420,"2100 NORTH SHEFFIELD AVENUE UNIT 1","CHICAGO","IL",60614,41.920033147,-87.6534361659999,420,"2100 NORTH SHEFFIELD AVENUE UNIT 1, CHICAGO, IL, 60614","Match","Exact","2100 N SHEFFIELD AVE, CHICAGO, IL, 60614",605243304,"L"
113421,"2100 NW 51ST STREET","BOCA RATON","FL",33431,NA,NA,421,"2100 NW 51ST STREET, BOCA RATON, FL, 33431","No_Match",NA,NA,NA,NA
113422,"2100 NW 62ND AVE","MARGATE","FL",33063,26.2543870210001,-80.209501378,422,"2100 NW 62ND AVE, MARGATE, FL, 33063","Match","Exact","2100 NW 62ND AVE, MARGATE, FL, 33063",608969216,"L"
113423,"2100 NW 70TH AVENUE","SUNRISE","FL",33313,26.152919968,-80.241013717,423,"2100 NW 70TH AVENUE, SUNRISE, FL, 33313","Match","Exact","2100 NW 70TH AVE, SUNRISE, FL, 33313",114704441,"R"
113424,"2100 ORETHA C HALEY BLVD","NEW ORLEANS","LA",70113,29.937566959,-90.082179502,424,"2100 ORETHA C HALEY BLVD, NEW ORLEANS, LA, 70113","Match","Exact","2100 ORETHA C HALEY BLVD, NEW ORLEANS, LA, 70113",191713940,"L"
113425,"2100 PARKE AVE","BURLEY","ID",83318,42.5268452440001,-113.803133467,425,"2100 PARKE AVE, BURLEY, ID, 83318","Match","Exact","2100 PARKE AVE, BURLEY, ID, 83318",105302634,"L"
113426,"2100 PARKE AVENUE","BURLEY","ID",83318,42.5268452440001,-113.803133467,426,"2100 PARKE AVENUE, BURLEY, ID, 83318","Match","Exact","2100 PARKE AVE, BURLEY, ID, 83318",105302634,"L"
113427,"2100 PLEASANT HILL RD","DULUTH","GA",30096,33.957078279,-84.1332682239999,427,"2100 PLEASANT HILL RD, DULUTH, GA, 30096","Match","Exact","2100 PLEASANT HILL RD, DULUTH, GA, 30096",88943666,"R"
113428,"2100 QUINCY STREET","SALINA","KS",67401,38.8051862610001,-97.6035578669999,428,"2100 QUINCY STREET, SALINA, KS, 67401","Match","Exact","2100 QUINCY ST, SALINA, KS, 67401",196686225,"L"
113429,"2100 READING PLAZA","ELKHORN","NE",68022,41.279543856,-96.233160377,429,"2100 READING PLAZA, ELKHORN, NE, 68022","Match","Exact","2100 READING PLZ, ELKHORN, NE, 68022",624547902,"L"
113430,"2100 REDONDO BEACH BLVD  STE 403-C","TORRANCE","CA",90504,33.886257851,-118.315775593,430,"2100 REDONDO BEACH BLVD  STE 403-C, TORRANCE, CA, 90504","Match","Non_Exact","2100 W REDONDO BEACH BLVD, TORRANCE, CA, 90504",141823427,"R"
113431,"2100 REV RICHARD WILSON DR  SUITE 6","KENNER","LA",70062,NA,NA,431,"2100 REV RICHARD WILSON DR  SUITE 6, KENNER, LA, 70062","No_Match",NA,NA,NA,NA
113432,"2100 RIDING SPUR DR","SAINT LOUIS","MO",63146,38.7031885650001,-90.470202955,432,"2100 RIDING SPUR DR, SAINT LOUIS, MO, 63146","Match","Exact","2100 RIDING SPUR DR, SAINT LOUIS, MO, 63146",100186446,"L"
113433,"2100 RIVERSIDE PARKWAY 128 147","LAWRENCEVILLE","GA",30043,NA,NA,433,"2100 RIVERSIDE PARKWAY 128 147, LAWRENCEVILLE, GA, 30043","No_Match",NA,NA,NA,NA
113434,"2100 RIVERSIDE PKWAY  SUITE 128-139","LAWRENCEVILLE","GA",30043,NA,NA,434,"2100 RIVERSIDE PKWAY  SUITE 128-139, LAWRENCEVILLE, GA, 30043","No_Match",NA,NA,NA,NA
113435,"2100 RIVERSIDE PKWY ST 128 B 129","LAWRENCEVILLE","GA",30043,NA,NA,435,"2100 RIVERSIDE PKWY ST 128 B 129, LAWRENCEVILLE, GA, 30043","No_Match",NA,NA,NA,NA
113436,"2100 RIVERSIDE PKWY STE 128-174","LAWRENCEVILLE","GA",30043,NA,NA,436,"2100 RIVERSIDE PKWY STE 128-174, LAWRENCEVILLE, GA, 30043","No_Match",NA,NA,NA,NA
113437,"2100 RIVERSIDE PKWY STE 128","LAWRENCEVILLE","GA",30043,NA,NA,437,"2100 RIVERSIDE PKWY STE 128, LAWRENCEVILLE, GA, 30043","No_Match",NA,NA,NA,NA
113438,"2100 ROLLA ST","JOPLIN","MO",64801,37.106821473,-94.489660541,438,"2100 ROLLA ST, JOPLIN, MO, 64801","Match","Exact","2100 ROLLA ST, JOPLIN, MO, 64801",66149392,"R"
113439,"2100 ROLLA STREET","JOPLIN","MO",64801,37.106821473,-94.489660541,439,"2100 ROLLA STREET, JOPLIN, MO, 64801","Match","Exact","2100 ROLLA ST, JOPLIN, MO, 64801",66149392,"R"
113440,"2100 ROLLING GREEN LANE","NORTH MANKATO","MN",56003,44.1916727460001,-94.050968095,440,"2100 ROLLING GREEN LANE, NORTH MANKATO, MN, 56003","Match","Exact","2100 ROLLING GREEN LN, NORTH MANKATO, MN, 56003",651248661,"R"
113441,"2100 ROSWELL RD NE STE 200C-1111","MARIETTA","GA",30062,33.96611467,-84.491417502,441,"2100 ROSWELL RD NE STE 200C-1111, MARIETTA, GA, 30062","Match","Non_Exact","2100 ROSWELL RD, MARIETTA, GA, 30062",17255069,"R"
113442,"2100 S  FLOYD STREET  SUITE W310","LOUIUSVILLE","KY",40208,38.2171667760001,-85.754666136,442,"2100 S  FLOYD STREET  SUITE W310, LOUIUSVILLE, KY, 40208","Match","Non_Exact","2100 S FLOYD ST, LOUISVILLE, KY, 40208",653260118,"R"
113443,"2100 S 12TH AVENUE","OZARK","MO",65721,36.997843946,-93.195979885,443,"2100 S 12TH AVENUE, OZARK, MO, 65721","Match","Exact","2100 S 12TH AVE, OZARK, MO, 65721",99817362,"R"
113444,"2100 S FLOYD STREET W310","LOUISVILLE","KY",40208,38.2171667760001,-85.754666136,444,"2100 S FLOYD STREET W310, LOUISVILLE, KY, 40208","Match","Non_Exact","2100 S FLOYD ST, LOUISVILLE, KY, 40208",653260118,"R"
113445,"2100 S GREAT SOUTHWEST PKWY STE 601","GRAND PRAIRIE","TX",75051,NA,NA,445,"2100 S GREAT SOUTHWEST PKWY STE 601, GRAND PRAIRIE, TX, 75051","No_Match",NA,NA,NA,NA
113446,"2100 S HOMAN AVENUE","CHICAGO","IL",60623,41.8534601310001,-87.7101827119999,446,"2100 S HOMAN AVENUE, CHICAGO, IL, 60623","Match","Exact","2100 S HOMAN AVE, CHICAGO, IL, 60623",605095529,"R"
113447,"2100 S MOBBERLY","LONGVIEW","TX",75602,32.4686467670001,-94.730386805,447,"2100 S MOBBERLY, LONGVIEW, TX, 75602","Match","Non_Exact","2100 S MOBBERLY AVE, LONGVIEW, TX, 75602",637942076,"L"
113448,"2100 SAN DIEGO STREET","EL PASO","TX",79930,31.7877752220001,-106.473403925,448,"2100 SAN DIEGO STREET, EL PASO, TX, 79930","Match","Non_Exact","2100 SAN DIEGO AVE, EL PASO, TX, 79930",189341209,"R"
113449,"2100 SANDERS SUITE 200","NORTHBROOK","IL",60062,42.11593857,-87.877706159,449,"2100 SANDERS SUITE 200, NORTHBROOK, IL, 60062","Match","Non_Exact","2100 SANDERS RD, NORTHBROOK, IL, 60062",639814789,"R"
113450,"2100 SANDY LANE","BELLEVUE","TX",76228,33.528935711,-98.053848569,450,"2100 SANDY LANE, BELLEVUE, TX, 76228","Match","Exact","2100 SANDY LN, BELLEVUE, TX, 76228",169793050,"L"
113451,"2100 SANS SOUCI BLVD -602","MIAMI","FL",33181,25.8883384480001,-80.1580435179999,451,"2100 SANS SOUCI BLVD -602, MIAMI, FL, 33181","Match","Exact","2100 SANS SOUCI BLVD, MIAMI, FL, 33181",640560472,"R"
113452,"2100 SE 164TH AVENUE SUITE D111","VANCOUVER","WA",98683,45.6061635560001,-122.503940902,452,"2100 SE 164TH AVENUE SUITE D111, VANCOUVER, WA, 98683","Match","Non_Exact","2100 SE 164TH AVE, VANCOUVER, WA, 98683",158356413,"R"
113453,"2100 SOUTH BRIDGE PKWY STE 6050","BIRMINGHAM","AL",35209,NA,NA,453,"2100 SOUTH BRIDGE PKWY STE 6050, BIRMINGHAM, AL, 35209","No_Match",NA,NA,NA,NA
113454,"2100 SOUTH FLOYD STREET ROOM W310","LOUISIVLLE","KY",40208,38.2171744010001,-85.754664468,454,"2100 SOUTH FLOYD STREET ROOM W310, LOUISIVLLE, KY, 40208","Match","Non_Exact","2100 S FLOYD ST, LOUISVILLE, KY, 40208",653260118,"R"
113455,"2100 SOUTH MOBBERLY AVE","LONGVIEW","TX",75602,32.4686505710001,-94.730386353,455,"2100 SOUTH MOBBERLY AVE, LONGVIEW, TX, 75602","Match","Exact","2100 S MOBBERLY AVE, LONGVIEW, TX, 75602",637942076,"L"
113456,"2100 SOUTH OCEAN LANE APT 1009","FT LAUDERDALE","FL",33316,26.096686275,-80.107953363,456,"2100 SOUTH OCEAN LANE APT 1009, FT LAUDERDALE, FL, 33316","Match","Exact","2100 S OCEAN LN, FORT LAUDERDALE, FL, 33316",114751292,"L"
113457,"2100 SOUTH PALM CIRCLE","NORTH PALM BEACH","FL",33408,26.851648556,-80.065041213,457,"2100 SOUTH PALM CIRCLE, NORTH PALM BEACH, FL, 33408","Match","Exact","2100 S PALM CIR, NORTH PALM BEACH, FL, 33408",115274910,"L"
113458,"2100 SOUTHBRIDGE PARKWAY SUITE 460","BIRMINGHAM","AL",35209,NA,NA,458,"2100 SOUTHBRIDGE PARKWAY SUITE 460, BIRMINGHAM, AL, 35209","No_Match",NA,NA,NA,NA
113459,"2100 STATE HIGHWAY M28 E","MARQUETTE","MI",49855,NA,NA,459,"2100 STATE HIGHWAY M28 E, MARQUETTE, MI, 49855","No_Match",NA,NA,NA,NA
113460,"2100 STELLA COURT C/O APRIL STEFFY","COLUMBUS","OH",43215,39.9822268610001,-83.062297719,460,"2100 STELLA COURT C/O APRIL STEFFY, COLUMBUS, OH, 43215","Match","Exact","2100 STELLA CT, COLUMBUS, OH, 43215",218680969,"R"
113461,"2100 SW 251","ANDREWS","TX",79714,32.2843253180001,-102.54963338,461,"2100 SW 251, ANDREWS, TX, 79714","Match","Exact","2100 SW 251, ANDREWS, TX, 79714",627306617,"R"
113462,"2100 SW WALDEN DR","LEE'S SUMMIT","MO",64081,38.906502131,-94.4167287609999,462,"2100 SW WALDEN DR, LEE'S SUMMIT, MO, 64081","Match","Non_Exact","2100 SW WALDEN DR, LEES SUMMIT, MO, 64081",91511774,"L"
113463,"2100 TEVIS AVENUE","SACRAMENTO","CA",95825,38.6036776920001,-121.40483975,463,"2100 TEVIS AVENUE, SACRAMENTO, CA, 95825","Match","Non_Exact","2100 TEVIS RD, SACRAMENTO, CA, 95825",133331163,"R"
113464,"2100 THIRD AVENUE SUITE 500","ANOKA","MN",55303,45.1985867990001,-93.3872179589999,464,"2100 THIRD AVENUE SUITE 500, ANOKA, MN, 55303","Match","Exact","2100 3RD AVE, ANOKA, MN, 55303",97483205,"R"
113465,"2100 TILTON RD","PORT ST LUCIE","FL",34952,27.330400777,-80.3042458,465,"2100 TILTON RD, PORT ST LUCIE, FL, 34952","Match","Exact","2100 TILTON RD, PORT ST LUCIE, FL, 34952",648128009,"L"
113466,"2100 TULANE STREET","GAUTIER","MS",39553,30.381391208,-88.644016358,466,"2100 TULANE STREET, GAUTIER, MS, 39553","Match","Non_Exact","2100 TULANE DR, GAUTIER, MS, 39553",89272386,"R"
113467,"2100 US RT 60","CULLODEN","WV",25510,38.418967127,-82.0622195879999,467,"2100 US RT 60, CULLODEN, WV, 25510","Match","Non_Exact","2100 US HWY 60, CULLODEN, WV, 25510",636679651,"L"
113468,"2100 VALLEY VIEW PARKWAY UNIT 1227","EL DORADO HILLS","CA",95762,38.6483259730001,-121.059861581,468,"2100 VALLEY VIEW PARKWAY UNIT 1227, EL DORADO HILLS, CA, 95762","Match","Exact","2100 VALLEY VIEW PKWY, EL DORADO HILLS, CA, 95762",645555997,"R"
113469,"2100 VAN BUREN STREET 301","HOLLYWOOD","FL",33020,26.010097866,-80.149392775,469,"2100 VAN BUREN STREET 301, HOLLYWOOD, FL, 33020","Match","Exact","2100 VAN BUREN ST, HOLLYWOOD, FL, 33020",114730609,"L"
113470,"2100 W HIGHWAY 90","ALPINE","TX",79830,30.35489893,-103.686427147,470,"2100 W HIGHWAY 90, ALPINE, TX, 79830","Match","Exact","2100 W HWY 90, ALPINE, TX, 79830",639252087,"R"
113471,"2100 W LEMON TREE PLACE 41","CHANDLER","AZ",85224,33.3323581700001,-111.878485261,471,"2100 W LEMON TREE PLACE 41, CHANDLER, AZ, 85224","Match","Non_Exact","2100 W LEMON TREE PL, CHANDLER, AZ, 85224",128943622,"L"
113472,"2100 W MT PLEASANT BLVD","MUNCIE","IN",47302,40.1580493480001,-85.417139578,472,"2100 W MT PLEASANT BLVD, MUNCIE, IN, 47302","Match","Exact","2100 W MOUNT PLEASANT BLVD, MUNCIE, IN, 47302",30835310,"L"
113473,"2100 W MUHAMMAD ALI BLVD","LOUISVILLE","KY",40212,38.2542612300001,-85.785761764,473,"2100 W MUHAMMAD ALI BLVD, LOUISVILLE, KY, 40212","Match","Exact","2100 W MUHAMMAD ALI BLVD, LOUISVILLE, KY, 40212",96841754,"L"
113474,"2100 WASHINGTON STREET","GARY","IN",46407,41.5801987090001,-87.337901889,474,"2100 WASHINGTON STREET, GARY, IN, 46407","Match","Exact","2100 WASHINGTON ST, GARY, IN, 46407",98426908,"R"
113475,"2100 WAVERLY STREET","COLUMBIA","SC",29204,34.0190486880001,-81.017662269,475,"2100 WAVERLY STREET, COLUMBIA, SC, 29204","Match","Exact","2100 WAVERLY ST, COLUMBIA, SC, 29204",71842847,"R"
113476,"2100 WEBSTER STREET  SUITE 332","SAN FRANCISCO","CA",94115,NA,NA,476,"2100 WEBSTER STREET  SUITE 332, SAN FRANCISCO, CA, 94115","No_Match",NA,NA,NA,NA
113477,"2100 WELLMAN RD","LAWRENCE","KS",66044,39.080564726,-95.247872617,477,"2100 WELLMAN RD, LAWRENCE, KS, 66044","Match","Exact","2100 WELLMAN RD, LAWRENCE, KS, 66044",22264261,"R"
113478,"2100 WEST 93RD STREET","LOS ANGELES","CA",90047,33.9519412920001,-118.315051688,478,"2100 WEST 93RD STREET, LOS ANGELES, CA, 90047","Match","Exact","2100 W 93RD ST, LOS ANGELES, CA, 90047",141658760,"L"
113479,"2100 WEST DECORAH RD","WEST BEND","WI",53095,43.412258615,-88.2075272169999,479,"2100 WEST DECORAH RD, WEST BEND, WI, 53095","Match","Exact","2100 W DECORAH RD, WEST BEND, WI, 53095",638388156,"R"
113480,"2100 WEST LOOP SOUTH SUITE 1602","HOUSTON","TX",77027,NA,NA,480,"2100 WEST LOOP SOUTH SUITE 1602, HOUSTON, TX, 77027","No_Match",NA,NA,NA,NA
113481,"2100 WEST LOOP SOUTH SUITE 900","HOUSTON","TX",77024,NA,NA,481,"2100 WEST LOOP SOUTH SUITE 900, HOUSTON, TX, 77024","No_Match",NA,NA,NA,NA
113482,"2100 WHITE OAKS CIRCLE NE","ALEXANDRIA","MN",56308,45.9133535060001,-95.3546570839999,482,"2100 WHITE OAKS CIRCLE NE, ALEXANDRIA, MN, 56308","Match","Non_Exact","2100 WHITE OAKS CIR, ALEXANDRIA, MN, 56308",204666434,"L"
113483,"2100 WHITESTONE CT SE","SMYRNA","GA",30080,33.8595127840001,-84.492390079,483,"2100 WHITESTONE CT SE, SMYRNA, GA, 30080","Match","Non_Exact","2100 WHITE STONE CT, SMYRNA, GA, 30080",635536299,"L"
113484,"2100 WOOD DUCK LN","GRANBURY","TX",76049,32.4622725340001,-97.751183574,484,"2100 WOOD DUCK LN, GRANBURY, TX, 76049","Match","Exact","2100 WOOD DUCK LN, GRANBURY, TX, 76049",637593546,"R"
113485,"2100 WORDSWORTH CT APT 401","HERNDON","VA",20170,38.9571194430001,-77.396212089,485,"2100 WORDSWORTH CT APT 401, HERNDON, VA, 20170","Match","Exact","2100 WORDSWORTH CT, HERNDON, VA, 20170",76035983,"L"
113486,"21000 141ST AVENUE","ROGERS","MN",55374,45.210293479,-93.545686385,486,"21000 141ST AVENUE, ROGERS, MN, 55374","Match","Non_Exact","21000 141ST AVE N, ROGERS, MN, 55374",43853531,"R"
113487,"21000 DEVONSHIRE STREET SUITE 111","CHATSWORTH","CA",91311,34.257237328,-118.590926495,487,"21000 DEVONSHIRE STREET SUITE 111, CHATSWORTH, CA, 91311","Match","Exact","21000 DEVONSHIRE ST, CHATSWORTH, CA, 91311",141532052,"L"
113488,"21000 FRANZ ROAD","KATY","TX",77449,NA,NA,488,"21000 FRANZ ROAD, KATY, TX, 77449","No_Match",NA,NA,NA,NA
113489,"21000 MARIPOSA ROAD APT B","LAKE ELSINORE","CA",92350,33.6502821870001,-117.293482699,489,"21000 MARIPOSA ROAD APT B, LAKE ELSINORE, CA, 92350","Match","Non_Exact","21000 MARIPOSA RD, LAKE ELSINORE, CA, 92530",194708015,"L"
113490,"21000 MIDDLEBELT ROAD","FARMINGTON HILLS","MI",48336,42.4438194140001,-83.3364057209999,490,"21000 MIDDLEBELT ROAD, FARMINGTON HILLS, MI, 48336","Match","Exact","21000 MIDDLEBELT RD, FARMINGTON HILLS, MI, 48336",69731781,"R"
113491,"21000 SLAB BRIDGE RD","FREELAND","MD",21053,39.699972594,-76.76453316,491,"21000 SLAB BRIDGE RD, FREELAND, MD, 21053","Match","Exact","21000 SLAB BRIDGE RD, FREELAND, MD, 21053",191554186,"L"
113492,"21000 STATE HWY 16 S UNIT A","VON ORMY","TX",78073,NA,NA,492,"21000 STATE HWY 16 S UNIT A, VON ORMY, TX, 78073","No_Match",NA,NA,NA,NA
113493,"21000 WEST TEN MILE RD","SOUTHFIELD","MI",48075,42.4726797920001,-83.250273803,493,"21000 WEST TEN MILE RD, SOUTHFIELD, MI, 48075","Match","Exact","21000 W 10 MILE RD, SOUTHFIELD, MI, 48075",647524977,"R"
113494,"21001 HORACE HARDING EXPRESSWAY","OAKLAND GARDENS","NY",11364,NA,NA,494,"21001 HORACE HARDING EXPRESSWAY, OAKLAND GARDENS, NY, 11364","No_Match",NA,NA,NA,NA
113495,"21001 N TATUM BLVD SUITE 1630-500","PHOENIX","AZ",85050,33.6792157,-111.977307394,495,"21001 N TATUM BLVD SUITE 1630-500, PHOENIX, AZ, 85050","Match","Non_Exact","21001 N TATUM BLVD, PHOENIX, AZ, 85050",624991344,"R"
113496,"21001 SAN SIMEON WAY APT 209","MIAMI","FL",33179,NA,NA,496,"21001 SAN SIMEON WAY APT 209, MIAMI, FL, 33179","No_Match",NA,NA,NA,NA
113497,"21001 SAN SIMEON WAY APT 303","NORTH MIAMI BEACH","FL",33179,NA,NA,497,"21001 SAN SIMEON WAY APT 303, NORTH MIAMI BEACH, FL, 33179","No_Match",NA,NA,NA,NA
113498,"21002 NE 44TH ST","SAMMAMISH","WA",98074,47.6488834630001,-122.059768758,498,"21002 NE 44TH ST, SAMMAMISH, WA, 98074","Match","Exact","21002 NE 44TH ST, SAMMAMISH, WA, 98074",186617332,"L"
113499,"21002 ROYAL VILLA DR","KATY","TX",77449,29.8694328890001,-95.729374776,499,"21002 ROYAL VILLA DR, KATY, TX, 77449","Match","Exact","21002 ROYAL VILLA DR, KATY, TX, 77449",96014013,"L"
113500,"21003 ANGUS DRIVE","CLEVELAND","TX",77328,30.351637049,-95.264329813,500,"21003 ANGUS DRIVE, CLEVELAND, TX, 77328","Match","Exact","21003 ANGUS DR, CLEVELAND, TX, 77328",641137108,"L"
