"ID","Address","City","State","Zip","lat","long","id","input_address","match_indicator","match_type","matched_address","tiger_line_id","tiger_side"
40501,"1237 N 3000 W","WEST POINT","UT",84015,41.1315657100001,-112.083799348,1,"1237 N 3000 W, WEST POINT, UT, 84015","Match","Non_Exact","1237 N 3000 W, WEST POINT, UT, 84015",229356926,"L"
40502,"1237 NORWELL DRIVE","COLUMBUS","OH",43220,40.0479503650001,-83.0538561659999,2,"1237 NORWELL DRIVE, COLUMBUS, OH, 43220","Match","Exact","1237 NORWELL DR, COLUMBUS, OH, 43220",218693168,"L"
40503,"1237 OLD TIMBER TRL","FLINT","MI",48532,43.0225552140001,-83.805687501,3,"1237 OLD TIMBER TRL, FLINT, MI, 48532","Match","Exact","1237 OLD TIMBER TRL, FLINT, MI, 48532",627647646,"L"
40504,"1237 ORMSBY COURT","LOUISVILLE","KY",40203,38.233323297,-85.764993351,4,"1237 ORMSBY COURT, LOUISVILLE, KY, 40203","Match","Exact","1237 ORMSBY CT, LOUISVILLE, KY, 40203",96843940,"L"
40505,"1237 QUAIL RIDGE DRIVE","ONEIDA","WI",54155,44.544393375,-88.135518194,5,"1237 QUAIL RIDGE DRIVE, ONEIDA, WI, 54155","Match","Exact","1237 QUAIL RIDGE DR, ONEIDA, WI, 54155",148121923,"R"
40506,"1237 RENEE DR","DECATUR","GA",30035,33.757580229,-84.231132271,6,"1237 RENEE DR, DECATUR, GA, 30035","Match","Exact","1237 RENEE DR, DECATUR, GA, 30035",23404655,"R"
40507,"1237 ROSSVIEW RD","CLARKSVILLE","TN",37043,36.555095292,-87.257160566,7,"1237 ROSSVIEW RD, CLARKSVILLE, TN, 37043","Match","Exact","1237 ROSSVIEW RD, CLARKSVILLE, TN, 37043",31833300,"L"
40508,"1237 S VAL VISTA DR","MESSA","AZ",85204,33.392834292,-111.753797156,8,"1237 S VAL VISTA DR, MESSA, AZ, 85204","Match","Non_Exact","1237 S VAL VISTA DR, MESA, AZ, 85204",128933803,"L"
40509,"1237 S VICTORIA AVE STE 167","OXNARD","CA",93035,34.188742818,-119.22126264,9,"1237 S VICTORIA AVE STE 167, OXNARD, CA, 93035","Match","Exact","1237 VICTORIA AVE, OXNARD, CA, 93035",109954763,"R"
40510,"1237 SOUTH EUCLID STREET SUITE D","ANAHEIM","CA",92802,33.8152710590001,-117.941417719,10,"1237 SOUTH EUCLID STREET SUITE D, ANAHEIM, CA, 92802","Match","Exact","1237 S EUCLID ST, ANAHEIM, CA, 92802",635482008,"R"
40511,"1237 SPAR AVENUE","BEACHWOOD","NJ",8722,39.923360931,-74.2042085959999,11,"1237 SPAR AVENUE, BEACHWOOD, NJ, 8722","Match","Exact","1237 SPAR AVE, BEACHWOOD, NJ, 08722",203730388,"L"
40512,"1237 SUNFLOWER AVENUE","COVINA","CA",91724,34.102087876,-117.846355586,12,"1237 SUNFLOWER AVENUE, COVINA, CA, 91724","Match","Non_Exact","1237 N SUNFLOWER AVE, COVINA, CA, 91724",142819101,"L"
40513,"1237 W 45TH STREET","LOS ANGELES","CA",90037,34.002678776,-118.296725491,13,"1237 W 45TH STREET, LOS ANGELES, CA, 90037","Match","Exact","1237 W 45TH ST, LOS ANGELES, CA, 90037",141607778,"R"
40514,"1237 W BRUCE STREET SUITE 103","MILWAUKEE","WI",53204,43.0253231230001,-87.9272412189999,14,"1237 W BRUCE STREET SUITE 103, MILWAUKEE, WI, 53204","Match","Non_Exact","1237 W BRUCE ST, MILWAUKEE, WI, 53204",612190844,"L"
40515,"1237 W CR 800 N","LIZTON","IN",46149,39.8790753480001,-86.548371683,15,"1237 W CR 800 N, LIZTON, IN, 46149","Match","Exact","1237 W CO RD 800 N, LIZTON, IN, 46149",641433496,"L"
40516,"1237 W MONROE ST","SANDUSKY","OH",44870,41.4467208090001,-82.7185080529999,16,"1237 W MONROE ST, SANDUSKY, OH, 44870","Match","Exact","1237 W MONROE ST, SANDUSKY, OH, 44870",55324667,"L"
40517,"1237 W PARLIAMENT","CRETE","IL",60417,41.447618193,-87.6432662719999,17,"1237 W PARLIAMENT, CRETE, IL, 60417","Match","Non_Exact","1237 PARLIAMENT ST, CRETE, IL, 60417",111630125,"R"
40518,"1237 WASHINGTON AVENUE","MADISON","IL",62060,38.6893806410001,-90.153142039,18,"1237 WASHINGTON AVENUE, MADISON, IL, 62060","Match","Exact","1237 WASHINGTON AVE, MADISON, IL, 62060",107683042,"L"
40519,"1237 WOODCHASE TRAIL","BATAVIA","OH",45103,39.0797536470001,-84.233547025,19,"1237 WOODCHASE TRAIL, BATAVIA, OH, 45103","Match","Exact","1237 WOODCHASE TRL, BATAVIA, OH, 45103",618765268,"R"
40520,"1237 WOODLAND DR","UNIONTOWN","OH",44685,40.9489702970001,-81.489835999,20,"1237 WOODLAND DR, UNIONTOWN, OH, 44685","Match","Exact","1237 WOODLAND DR, UNIONTOWN, OH, 44685",61359636,"L"
40521,"1237 WRIGHT AVE","CROWLEY","NY",70526,NA,NA,21,"1237 WRIGHT AVE, CROWLEY, NY, 70526","No_Match",NA,NA,NA,NA
40522,"12370 CLEVELAND AVENUE NW","UNIONTOWN","OH",44685,40.9650244850001,-81.408547061,22,"12370 CLEVELAND AVENUE NW, UNIONTOWN, OH, 44685","Match","Exact","12370 CLEVELAND AVE NW, UNIONTOWN, OH, 44685",64690831,"R"
40523,"12370 CROOKED CREEK LANE","FT MYERS","FL",33913,26.598583193,-81.7556912869999,23,"12370 CROOKED CREEK LANE, FT MYERS, FL, 33913","Match","Exact","12370 CROOKED CREEK LN, FORT MYERS, FL, 33913",619097926,"L"
40524,"12370 ROCK RIDGE LANE","FORT MYERS","FL",33913,26.5978356840001,-81.755098816,24,"12370 ROCK RIDGE LANE, FORT MYERS, FL, 33913","Match","Exact","12370 ROCK RIDGE LN, FORT MYERS, FL, 33913",640701963,"L"
40525,"12371 E HARNEY LANE","LODI","CA",95240,38.101766588,-121.16485493,25,"12371 E HARNEY LANE, LODI, CA, 95240","Match","Exact","12371 E HARNEY LN, LODI, CA, 95240",133905688,"L"
40526,"12371 ELMHURST DR","ATHENS","AL",35613,34.7393291010001,-86.879630379,26,"12371 ELMHURST DR, ATHENS, AL, 35613","Match","Non_Exact","12371 ELM HURST DR, ATHENS, AL, 35613",637496533,"R"
40527,"12371 TORBERG PLACE","FISHERS","IN",46038,39.965771751,-86.014950066,27,"12371 TORBERG PLACE, FISHERS, IN, 46038","Match","Exact","12371 TORBERG PL, FISHERS, IN, 46038",29305528,"R"
40528,"12373 310TH AVE","STRATHCONA","MN",56759,48.576713247,-95.9279990909999,28,"12373 310TH AVE, STRATHCONA, MN, 56759","Match","Exact","12373 310TH AVE, STRATHCONA, MN, 56759",176606547,"L"
40529,"12373 DOGWOOD TRAIL","GLOUCESTER","VA",23061,37.547427741,-76.541868366,29,"12373 DOGWOOD TRAIL, GLOUCESTER, VA, 23061","Match","Exact","12373 DOGWOOD TRL, GLOUCESTER, VA, 23061",168217504,"R"
40530,"12373 N 147TH DR","SURPRISE","AZ",85379,33.5961954380001,-112.377162823,30,"12373 N 147TH DR, SURPRISE, AZ, 85379","Match","Exact","12373 N 147TH DR, SURPRISE, AZ, 85379",244012187,"R"
40531,"12374 TRAMONTO DRIVE","CONROE","TX",77304,30.3797724180001,-95.546282898,31,"12374 TRAMONTO DRIVE, CONROE, TX, 77304","Match","Exact","12374 TRAMONTO DR, CONROE, TX, 77304",635035983,"R"
40532,"12375 ALDERBROOK DR","RANCHO CUCAMONGA","CA",91739,34.1154818690001,-117.535416797,32,"12375 ALDERBROOK DR, RANCHO CUCAMONGA, CA, 91739","Match","Exact","12375 ALDERBROOK DR, ETIWANDA, CA, 91739",614814138,"R"
40533,"12375 EAST CLINTON AVENUE","SANGER","CA",93657,36.771913053,-119.568706857,33,"12375 EAST CLINTON AVENUE, SANGER, CA, 93657","Match","Exact","12375 E CLINTON AVE, SANGER, CA, 93657",197643728,"R"
40534,"12375 JAYCIE CIRCLE","MIDWEST CITY","OK",73130,35.4454042300001,-97.3106968929999,34,"12375 JAYCIE CIRCLE, MIDWEST CITY, OK, 73130","Match","Exact","12375 JAYCIE CIR, MIDWEST CITY, OK, 73130",638578647,"L"
40535,"12375 S MILITARY TRL  LOT 73","BOYNTON BEACH","FL",33436,26.4937543070001,-80.123030311,35,"12375 S MILITARY TRL  LOT 73, BOYNTON BEACH, FL, 33436","Match","Exact","12375 MILITARY TRL, BOYNTON BEACH, FL, 33436",115288485,"R"
40536,"12375 S MILITARY TRL LOT 73","BOYNTON BEACH","FL",33436,26.4937543070001,-80.123030311,36,"12375 S MILITARY TRL LOT 73, BOYNTON BEACH, FL, 33436","Match","Exact","12375 MILITARY TRL, BOYNTON BEACH, FL, 33436",115288485,"R"
40537,"12375 SUNCHASE DRIVE","JACKSONVILLE","FL",32246,NA,NA,37,"12375 SUNCHASE DRIVE, JACKSONVILLE, FL, 32246","No_Match",NA,NA,NA,NA
40538,"12375 SW 202ND AVE","MIAMI","FL",33196,25.648216345,-80.520467659,38,"12375 SW 202ND AVE, MIAMI, FL, 33196","Match","Exact","12375 SW 202ND AVE, MIAMI, FL, 33196",115952580,"R"
40539,"12377 MAVERICK DRIVE APARTMENT D","MARYLAND HEIGHTS","MO",63043,38.7172688300001,-90.4511200699999,39,"12377 MAVERICK DRIVE APARTMENT D, MARYLAND HEIGHTS, MO, 63043","Match","Exact","12377 MAVERICK DR, MARYLAND HEIGHTS, MO, 63043",635921149,"R"
40540,"12378 SW 82ND AVE","MIAMI","FL",33156,25.6555187290001,-80.3263254989999,40,"12378 SW 82ND AVE, MIAMI, FL, 33156","Match","Exact","12378 SW 82ND AVE, MIAMI, FL, 33156",115984913,"R"
40541,"12379 CASCASES POINTE DRIVE","BOCA RATON","FL",33428,NA,NA,41,"12379 CASCASES POINTE DRIVE, BOCA RATON, FL, 33428","No_Match",NA,NA,NA,NA
40542,"12379 FAIRHAVEN DR","BATON ROUGE","LA",70815,30.4497376900001,-91.045520612,42,"12379 FAIRHAVEN DR, BATON ROUGE, LA, 70815","Match","Exact","12379 FAIRHAVEN DR, BATON ROUGE, LA, 70815",92191678,"L"
40543,"12379 W WAVERLY DR","CASA GRANDE","AZ",85194,32.9817089960001,-111.700126259,43,"12379 W WAVERLY DR, CASA GRANDE, AZ, 85194","Match","Exact","12379 W WAVERLY DR, CASA GRANDE, AZ, 85194",648072762,"L"
40544,"1238 3RD AVE N","SEATTLE","WA",98109,47.6301505170001,-122.351321986,44,"1238 3RD AVE N, SEATTLE, WA, 98109","Match","Exact","1238 3RD AVE N, SEATTLE, WA, 98109",186582351,"R"
40545,"1238 ANDREW ROAD","FAYETTEVILLE","NC",28311,NA,NA,45,"1238 ANDREW ROAD, FAYETTEVILLE, NC, 28311","No_Match",NA,NA,NA,NA
40546,"1238 BURNETTS CHAPEL ROAD","GREENSBORO","NC",27406,35.948942656,-79.83371984,46,"1238 BURNETTS CHAPEL ROAD, GREENSBORO, NC, 27406","Match","Exact","1238 BURNETTS CHAPEL RD, GREENSBORO, NC, 27406",639239883,"R"
40547,"1238 CAMERON LANE","RIPON","CA",95366,37.74874813,-121.109473477,47,"1238 CAMERON LANE, RIPON, CA, 95366","Match","Exact","1238 CAMERON LN, RIPON, CA, 95366",133928838,"R"
40548,"1238 CHERRY STREET","MADERA","CA",93638,36.9476184060001,-120.043154115,48,"1238 CHERRY STREET, MADERA, CA, 93638","Match","Exact","1238 CHERRY ST, MADERA, CA, 93638",650896657,"R"
40549,"1238 CRYSTAL HEIGHTS RD","CRYSTAL CITY","MO",63019,38.239282088,-90.378261955,49,"1238 CRYSTAL HEIGHTS RD, CRYSTAL CITY, MO, 63019","Match","Exact","1238 CRYSTAL HEIGHTS RD, CRYSTAL CITY, MO, 63019",62805896,"R"
40550,"1238 E 10TH STREET","CHARLOTTE","NC",28204,35.222772107,-80.824659234,50,"1238 E 10TH STREET, CHARLOTTE, NC, 28204","Match","Exact","1238 E 10TH ST, CHARLOTTE, NC, 28204",640628634,"R"
40551,"1238 ESTES DRIVE","SANTA MARIA","CA",93454,34.949541476,-120.416549667,51,"1238 ESTES DRIVE, SANTA MARIA, CA, 93454","Match","Exact","1238 ESTES DR, SANTA MARIA, CA, 93454",108595937,"L"
40552,"1238 FERDON ROAD","ANN ARBOR","MI",48104,42.2661056590001,-83.72547537,52,"1238 FERDON ROAD, ANN ARBOR, MI, 48104","Match","Exact","1238 FERDON RD, ANN ARBOR, MI, 48104",26015358,"R"
40553,"1238 FM 2560","SULPHUR SPRINGS","TX",75482,33.0686447190001,-95.564831154,53,"1238 FM 2560, SULPHUR SPRINGS, TX, 75482","Match","Exact","1238 FM 2560, SULPHUR SPRINGS, TX, 75482",42791898,"L"
40554,"1238 JEFFERY DR","HOMEWOOD","IL",60430,41.548511332,-87.647509154,54,"1238 JEFFERY DR, HOMEWOOD, IL, 60430","Match","Exact","1238 JEFFERY DR, HOMEWOOD, IL, 60430",111712693,"R"
40555,"1238 KELLEYTOWN ROAD","MCDONOUGH","GA",30252,33.5472497750001,-84.105618522,55,"1238 KELLEYTOWN ROAD, MCDONOUGH, GA, 30252","Match","Exact","1238 KELLEYTOWN RD, MCDONOUGH, GA, 30252",23198116,"L"
40556,"1238 LE JACK CIRCLE","FOREST","VA",24551,37.388901205,-79.30805279,56,"1238 LE JACK CIRCLE, FOREST, VA, 24551","Match","Non_Exact","1238 LEJACK CIR, FOREST, VA, 24551",641113275,"L"
40557,"1238 MCNUTT ROAD","CONWAY","AR",72034,35.063383715,-92.492290767,57,"1238 MCNUTT ROAD, CONWAY, AR, 72034","Match","Exact","1238 MCNUTT RD, CONWAY, AR, 72034",641750212,"R"
40558,"1238 NORTH STREET","PITTSFIELD","MA",1201,42.4772333450001,-73.245031642,58,"1238 NORTH STREET, PITTSFIELD, MA, 1201","Match","Exact","1238 NORTH ST, PITTSFIELD, MA, 01201",3953252,"R"
40559,"1238 PINE GROVE DRIVE","EASTON","PA",18045,40.7141930700001,-75.2494701059999,59,"1238 PINE GROVE DRIVE, EASTON, PA, 18045","Match","Exact","1238 PINE GROVE DR, EASTON, PA, 18045",136893170,"R"
40560,"1238 S 10TH ST","OMAHA","NE",68108,41.246524095,-95.929344595,60,"1238 S 10TH ST, OMAHA, NE, 68108","Match","Non_Exact","1238 S 10TH ST, OMAHA, NE, 68108",650399310,"R"
40561,"1238 S BURLINGTON DR","MUNCIE","IN",47302,40.1842358700001,-85.355761974,61,"1238 S BURLINGTON DR, MUNCIE, IN, 47302","Match","Exact","1238 S BURLINGTON DR, MUNCIE, IN, 47302",30838666,"L"
40562,"1238 SALEM CREEK BOULEVARD","INDIANAPOLIS","IN",46231,39.7482177410001,-86.324343198,62,"1238 SALEM CREEK BOULEVARD, INDIANAPOLIS, IN, 46231","Match","Exact","1238 SALEM CREEK BLVD, INDIANAPOLIS, IN, 46231",108046425,"R"
40563,"1238 SAN JOAQUIN AVE","TULARE","CO",93274,NA,NA,63,"1238 SAN JOAQUIN AVE, TULARE, CO, 93274","No_Match",NA,NA,NA,NA
40564,"1238 SOUTH 50TH STREET","WEST MILWAUKEE","WI",53214,43.0182562160001,-87.976044401,64,"1238 SOUTH 50TH STREET, WEST MILWAUKEE, WI, 53214","Match","Exact","1238 S 50TH ST, W MILWAUKEE, WI, 53214",77734508,"L"
40565,"1238 SW CARDINELL WAY","PORTLAND","OR",97201,45.509412501,-122.688473458,65,"1238 SW CARDINELL WAY, PORTLAND, OR, 97201","Match","Non_Exact","1238 SW CARDINELL DR, PORTLAND, OR, 97201",642879006,"L"
40566,"1238 UNIVERSITY CITY BLVD UNIT 140","BLACKSBURG","VA",24060,37.242499448,-80.432031927,66,"1238 UNIVERSITY CITY BLVD UNIT 140, BLACKSBURG, VA, 24060","Match","Exact","1238 UNIVERSITY CITY BLVD, BLACKSBURG, VA, 24060",73615952,"R"
40567,"1238 VALLEY HWY","CHARLOTTE","MI",48813,42.5826679850001,-84.8610710629999,67,"1238 VALLEY HWY, CHARLOTTE, MI, 48813","Match","Exact","1238 VALLEY HWY, CHARLOTTE, MI, 48813",12029994,"R"
40568,"1238 VERSAILLES AVE","ALAMEDA","CA",94501,37.758391766,-122.239129978,68,"1238 VERSAILLES AVE, ALAMEDA, CA, 94501","Match","Exact","1238 VERSAILLES AVE, ALAMEDA, CA, 94501",125006777,"R"
40569,"1238 W MALIBU DR","TEMPE","AZ",85282,33.391996002,-111.958294359,69,"1238 W MALIBU DR, TEMPE, AZ, 85282","Match","Exact","1238 W MALIBU DR, TEMPE, AZ, 85282",128226747,"R"
40570,"1238 W WINNEMAC","CHICAGO","IL",60640,41.973632191,-87.660978953,70,"1238 W WINNEMAC, CHICAGO, IL, 60640","Match","Non_Exact","1238 W WINNEMAC AVE, CHICAGO, IL, 60640",111761520,"R"
40571,"1238 WATERFORD RD","WEST CHESTER","PA",19380,40.0114765590001,-75.575493745,71,"1238 WATERFORD RD, WEST CHESTER, PA, 19380","Match","Exact","1238 WATERFORD RD, WEST CHESTER, PA, 19380",179489846,"R"
40572,"1238 WELLER WAY","SACRAMENTO","CA",95818,38.5515588850001,-121.50185465,72,"1238 WELLER WAY, SACRAMENTO, CA, 95818","Match","Exact","1238 WELLER WAY, SACRAMENTO, CA, 95818",133322567,"R"
40573,"1238 WILLOWGREEN COURT","WESTLAKE VILLAGE","CA",91361,34.148830289,-118.842214654,73,"1238 WILLOWGREEN COURT, WESTLAKE VILLAGE, CA, 91361","Match","Exact","1238 WILLOWGREEN CT, WESTLAKE VILLAGE, CA, 91361",109977373,"L"
40574,"12380 W BELFORT AVE STE A","HOUSTON","TX",77099,29.660438136,-95.596951669,74,"12380 W BELFORT AVE STE A, HOUSTON, TX, 77099","Match","Non_Exact","12380 W BELLFORT AVE, HOUSTON, TX, 77099",78348383,"L"
40575,"12381 DALE STREET","GARDEN GROVE","CA",92841,33.7827783500001,-117.984064792,75,"12381 DALE STREET, GARDEN GROVE, CA, 92841","Match","Non_Exact","12381 DALE AVE, GARDEN GROVE, CA, 92841",144414334,"R"
40576,"12381 EASTON STREET NE","ALLIANCE","OH",44601,40.879605015,-81.1644963419999,76,"12381 EASTON STREET NE, ALLIANCE, OH, 44601","Match","Exact","12381 EASTON ST NE, ALLIANCE, OH, 44601",64722091,"L"
40577,"12381 PIPELINE AVENUE","CHINO","CA",91710,34.027826109,-117.715521883,77,"12381 PIPELINE AVENUE, CHINO, CA, 91710","Match","Exact","12381 PIPELINE AVE, CHINO, CA, 91710",144670652,"L"
40578,"12381 ROSSRIDGE CT","ST. LOUIS","MO",63146,38.68435006,-90.452772898,78,"12381 ROSSRIDGE CT, ST. LOUIS, MO, 63146","Match","Exact","12381 ROSSRIDGE CT, SAINT LOUIS, MO, 63146",100124276,"R"
40579,"12382 DOYLESTOWN RD","RITTMAN","OH",44270,40.977128985,-81.7580012189999,79,"12382 DOYLESTOWN RD, RITTMAN, OH, 44270","Match","Exact","12382 DOYLESTOWN RD, RITTMAN, OH, 44270",58720043,"R"
40580,"12383 SW 264TH TERRACE","HOMESTEAD","FL",33032,25.5211972660001,-80.3919797679999,80,"12383 SW 264TH TERRACE, HOMESTEAD, FL, 33032","Match","Exact","12383 SW 264TH TER, HOMESTEAD, FL, 33032",115991296,"R"
40581,"12384 YUMA COURT","MORENO VALLEY","CA",92557,33.9407404730001,-117.214036354,81,"12384 YUMA COURT, MORENO VALLEY, CA, 92557","Match","Exact","12384 YUMA CT, MORENO VALLEY, CA, 92557",194790658,"R"
40582,"12385 SUSSEX HIGHWAY","GREENWOOD","DE",19950,38.8131587930001,-75.5850839029999,82,"12385 SUSSEX HIGHWAY, GREENWOOD, DE, 19950","Match","Exact","12385 SUSSEX HWY, GREENWOOD, DE, 19950",649187826,"R"
40583,"12386 154 ROAD NORTH","JUPITER","FL",33478,26.9045267770001,-80.2309771559999,83,"12386 154 ROAD NORTH, JUPITER, FL, 33478","Match","Exact","12386 154TH RD N, JUPITER, FL, 33478",115260076,"R"
40584,"12386 STARTING GATE WAY","ASHLAND","VA",23005,37.751962237,-77.530395238,84,"12386 STARTING GATE WAY, ASHLAND, VA, 23005","Match","Exact","12386 STARTING GATE WAY, ASHLAND, VA, 23005",618115834,"R"
40585,"12386 STATE RD 535 - UNIT 441","ORLANDO","FL",32836,NA,NA,85,"12386 STATE RD 535 - UNIT 441, ORLANDO, FL, 32836","No_Match",NA,NA,NA,NA
40586,"12386 STATE ROAD 535 NUM 200","ORLANDO","FL",32836,NA,NA,86,"12386 STATE ROAD 535 NUM 200, ORLANDO, FL, 32836","No_Match",NA,NA,NA,NA
40587,"12386 W 34TH PL","WHEAT RIDGE","CO",80033,39.7633049470001,-105.13731278,87,"12386 W 34TH PL, WHEAT RIDGE, CO, 80033","Match","Exact","12386 W 34TH PL, WHEAT RIDGE, CO, 80033",177800407,"L"
40588,"12387 CRABAPPLE RD","ALPHARETTA","GA",30004,34.0854800490001,-84.354808743,88,"12387 CRABAPPLE RD, ALPHARETTA, GA, 30004","Match","Exact","12387 CRABAPPLE RD, ALPHARETTA, GA, 30004",642626477,"R"
40589,"12387 E HARVARD DR","AURORA","CO",80014,39.6704670870001,-104.843645701,89,"12387 E HARVARD DR, AURORA, CO, 80014","Match","Exact","12387 E HARVARD DR, AURORA, CO, 80014",177549078,"L"
40590,"12387 OAK FIELDS DRIVE","GEISMAR","LA",70734,30.2515651470001,-91.012213188,90,"12387 OAK FIELDS DRIVE, GEISMAR, LA, 70734","Match","Exact","12387 OAK FIELDS DR, GEISMAR, LA, 70734",635169356,"R"
40591,"12389 KEITHVILLE KEATCHIE RD","KEITHVILLE","LA",71047,32.300896734,-93.851711397,91,"12389 KEITHVILLE KEATCHIE RD, KEITHVILLE, LA, 71047","Match","Exact","12389 KEITHVILLE KEATCHIE RD, KEITHVILLE, LA, 71047",57433406,"L"
40592,"1239 BLUE LEAF DR","RICHMOND","TX",77469,29.5536570900001,-95.709608308,92,"1239 BLUE LEAF DR, RICHMOND, TX, 77469","Match","Exact","1239 BLUE LEAF DR, RICHMOND, TX, 77469",629607627,"R"
40593,"1239 EAST 25TH STREET","BROOKLYN","NY",11210,NA,NA,93,"1239 EAST 25TH STREET, BROOKLYN, NY, 11210","No_Match",NA,NA,NA,NA
40594,"1239 FINLEY ROAD","CAMP HILL","AL",36850,NA,NA,94,"1239 FINLEY ROAD, CAMP HILL, AL, 36850","No_Match",NA,NA,NA,NA
40595,"1239 FLETCHER DRIVE","REYNOLDSBURG","OH",43068,39.9607237320001,-82.7822612319999,95,"1239 FLETCHER DRIVE, REYNOLDSBURG, OH, 43068","Match","Exact","1239 FLETCHER DR, REYNOLDSBURG, OH, 43068",135595485,"R"
40596,"1239 GARNER AVE","SCHENECTADY","NY",12309,42.8112687230001,-73.904708834,96,"1239 GARNER AVE, SCHENECTADY, NY, 12309","Match","Exact","1239 GARNER AVE, SCHENECTADY, NY, 12309",18029606,"L"
40597,"1239 HALL SE","GRAND RAPIDS","MI",49506,42.9410328550001,-85.63794173,97,"1239 HALL SE, GRAND RAPIDS, MI, 49506","Match","Non_Exact","1239 HALL ST SE, GRAND RAPIDS, MI, 49506",12461818,"L"
40598,"1239 HAWK RIDGE ROAD","LAFAYETTE","CO",80026,40.0125656210001,-105.085728432,98,"1239 HAWK RIDGE ROAD, LAFAYETTE, CO, 80026","Match","Exact","1239 HAWK RIDGE RD, LAFAYETTE, CO, 80026",641291474,"R"
40599,"1239 JEFFREY LA","LANGHORNE","PA",19047,40.1621470910001,-74.9347814239999,99,"1239 JEFFREY LA, LANGHORNE, PA, 19047","Match","Exact","1239 JEFFREY LN, LANGHORNE, PA, 19047",636358762,"R"
40600,"1239 JENIFER STREET APT 1","MADISON","WI",53703,43.083097174,-89.362741,100,"1239 JENIFER STREET APT 1, MADISON, WI, 53703","Match","Exact","1239 JENIFER ST, MADISON, WI, 53703",49473315,"R"
40601,"1239 LOASA DRIVE","PUEBLO WEST","CO",81007,38.3261485960001,-104.799595703,101,"1239 LOASA DRIVE, PUEBLO WEST, CO, 81007","Match","Non_Exact","1239 W LOASA DR, PUEBLO WEST, CO, 81007",105034318,"R"
40602,"1239 MARYLAND AVENUE NE","WASHIGNTON","DC",20002,38.8976254610001,-76.989455243,102,"1239 MARYLAND AVENUE NE, WASHIGNTON, DC, 20002","Match","Non_Exact","1239 MARYLAND AVE NE, WASHINGTON, DC, 20002",638246851,"R"
40603,"1239 NW 67TH STREET","OCALA","FL",34475,29.2562152990001,-82.147987212,103,"1239 NW 67TH STREET, OCALA, FL, 34475","Match","Exact","1239 NW 67TH ST, OCALA, FL, 34475",116707323,"L"
40604,"1239 ORCHARD DR","AMES","IA",50010,42.0335374570001,-93.6289699069999,104,"1239 ORCHARD DR, AMES, IA, 50010","Match","Exact","1239 ORCHARD DR, AMES, IA, 50010",635597958,"L"
40605,"1239 PACIFIC STREET","BROOKLYN","NY",11216,40.677765816,-73.951437218,105,"1239 PACIFIC STREET, BROOKLYN, NY, 11216","Match","Exact","1239 PACIFIC ST, BROOKLYN, NY, 11216",59079350,"L"
40606,"1239 RUSSELL PARKWAY","WARNER ROBINS","GA",31088,32.5939750100001,-83.6481151419999,106,"1239 RUSSELL PARKWAY, WARNER ROBINS, GA, 31088","Match","Exact","1239 RUSSELL PKWY, WARNER ROBINS, GA, 31088",91219072,"R"
40607,"1239 SAINT ANN STREET","SCRANTON","PA",18504,41.4023427050001,-75.69020118,107,"1239 SAINT ANN STREET, SCRANTON, PA, 18504","Match","Exact","1239 SAINT ANN ST, SCRANTON, PA, 18504",139322118,"L"
40608,"1239 SAINT CLAIRE PL","SCHAUMBURG","IL",60173,42.029943492,-88.053212459,108,"1239 SAINT CLAIRE PL, SCHAUMBURG, IL, 60173","Match","Exact","1239 SAINT CLAIRE PL, SCHAUMBURG, IL, 60173",111878776,"L"
40609,"1239 SHAFFER DR APT 3","LOAIN","OH",44053,41.4205120920001,-82.187564406,109,"1239 SHAFFER DR APT 3, LOAIN, OH, 44053","Match","Non_Exact","1239 SHAFFER DR, LORAIN, OH, 44053",55436515,"L"
40610,"1239 SUDAN ST","MOBILE","AL",36609,30.638568639,-88.1541721419999,110,"1239 SUDAN ST, MOBILE, AL, 36609","Match","Non_Exact","1239 SUDAN ST, MOBILE, AL, 36693",646577565,"L"
40611,"1239 TAYLOR STREET","PORT TOWNSEND","WA",98368,48.121113462,-122.762637092,111,"1239 TAYLOR STREET, PORT TOWNSEND, WA, 98368","Match","Exact","1239 TAYLOR ST, PORT TOWNSEND, WA, 98368",151991562,"L"
40612,"1239 W 18TH ST","CHICAGO","IL",60608,41.857917333,-87.658211624,112,"1239 W 18TH ST, CHICAGO, IL, 60608","Match","Exact","1239 W 18TH ST, CHICAGO, IL, 60608",605105984,"L"
40613,"1239 W DAWN DRIVE","TUCSON","AZ",85704,32.360097658,-110.993027787,113,"1239 W DAWN DRIVE, TUCSON, AZ, 85704","Match","Exact","1239 W DAWN DR, TUCSON, AZ, 85704",121164166,"L"
40614,"1239 WASHINGTON AVENUE APT 7","ASBURY PARK","NJ",7712,40.220008024,-74.02095387,114,"1239 WASHINGTON AVENUE APT 7, ASBURY PARK, NJ, 7712","Match","Exact","1239 WASHINGTON AVE, ASBURY PARK, NJ, 07712",90463344,"R"
40615,"1239 WEATHERVANE LANE APT 3B","AKRON","OH",44313,41.1365422600001,-81.552183229,115,"1239 WEATHERVANE LANE APT 3B, AKRON, OH, 44313","Match","Exact","1239 WEATHERVANE LN, AKRON, OH, 44313",640189303,"R"
40616,"1239 WICKS LANE","BILLINGS","MT",59105,45.8274269090001,-108.453473625,116,"1239 WICKS LANE, BILLINGS, MT, 59105","Match","Exact","1239 WICKS LN, BILLINGS, MT, 59105",618672084,"L"
40617,"12390 N COPELAND LN","FLAGSTAFF","AZ",86004,35.3189418170001,-111.557030388,117,"12390 N COPELAND LN, FLAGSTAFF, AZ, 86004","Match","Exact","12390 N COPELAND LN, FLAGSTAFF, AZ, 86004",651669600,"L"
40618,"12390 NW 26TH COURT","CORAL SPRINGS","FL",33065,26.2641651120001,-80.2925873569999,118,"12390 NW 26TH COURT, CORAL SPRINGS, FL, 33065","Match","Exact","12390 NW 26TH CT, CORAL SPRINGS, FL, 33065",114772606,"L"
40619,"12390 SW 124TH TERR","MIAMI","FL",33186,25.652664757,-80.395326317,119,"12390 SW 124TH TERR, MIAMI, FL, 33186","Match","Exact","12390 SW 124TH TER, MIAMI, FL, 33186",638639003,"L"
40620,"12391 BRADFORD DRIVE","PARKER","CO",80134,39.5316308660001,-104.845128538,120,"12391 BRADFORD DRIVE, PARKER, CO, 80134","Match","Exact","12391 BRADFORD DR, PARKER, CO, 80134",625210068,"R"
40621,"12391 CHALLENDON DR","RANCHO CUCAMONGA","CA",91739,34.1478559,-117.534651625,121,"12391 CHALLENDON DR, RANCHO CUCAMONGA, CA, 91739","Match","Exact","12391 CHALLENDON DR, ETIWANDA, CA, 91739",614817416,"R"
40622,"12391 SW 76 ST","MIAMI","FL",33183,25.69697297,-80.393988884,122,"12391 SW 76 ST, MIAMI, FL, 33183","Match","Exact","12391 SW 76TH ST, MIAMI, FL, 33183",116072223,"R"
40623,"12392 HAWK CREEK DRIVE","FRISCO","TX",75033,33.181338711,-96.8813030319999,123,"12392 HAWK CREEK DRIVE, FRISCO, TX, 75033","Match","Exact","12392 HAWK CREEK DR, FRISCO, TX, 75033",103412771,"L"
40624,"12393 SW 124 TERR","MIAMI","FL",33186,25.652675722,-80.3953543809999,124,"12393 SW 124 TERR, MIAMI, FL, 33186","Match","Exact","12393 SW 124TH TER, MIAMI, FL, 33186",638639003,"R"
40625,"12394 MEADOW DR","WINNEBAGO","IL",61088,42.3084695690001,-89.280213755,125,"12394 MEADOW DR, WINNEBAGO, IL, 61088","Match","Exact","12394 MEADOW DR, WINNEBAGO, IL, 61088",648156726,"R"
40626,"12394 PLUM LANE","WILTON","CA",95693,38.4392737110001,-121.208127107,126,"12394 PLUM LANE, WILTON, CA, 95693","Match","Exact","12394 PLUM LN, WILTON, CA, 95693",133359214,"L"
40627,"12396 DRAKE ST NW","COON RAPIDS","MN",55448,45.194726114,-93.3040471369999,127,"12396 DRAKE ST NW, COON RAPIDS, MN, 55448","Match","Exact","12396 DRAKE ST NW, COON RAPIDS, MN, 55448",645488146,"L"
40628,"12396 RUST LANE","KEITHVILLE","LA",71047,32.3010837590001,-93.875893344,128,"12396 RUST LANE, KEITHVILLE, LA, 71047","Match","Exact","12396 RUST LN, KEITHVILLE, LA, 71047",629113043,"R"
40629,"12396 WORLD TRADE DR","SAN DIEGO","CA",92128,32.987424596,-117.067839928,129,"12396 WORLD TRADE DR, SAN DIEGO, CA, 92128","Match","Exact","12396 WORLD TRADE DR, SAN DIEGO, CA, 92128",195666829,"R"
40630,"12397 RIVER VALLEY DRIVE","FISHERS","IN",46037,39.967714163,-85.943172835,130,"12397 RIVER VALLEY DRIVE, FISHERS, IN, 46037","Match","Exact","12397 RIVER VALLEY DR, FISHERS, IN, 46037",624412146,"R"
40631,"12397 S 176TH AVE","GOODYEAR","AZ",85338,33.333758974,-112.42851517,131,"12397 S 176TH AVE, GOODYEAR, AZ, 85338","Match","Exact","12397 S 176TH AVE, GOODYEAR, AZ, 85338",243924125,"L"
40632,"12399 FLATLANDS AVENUE APT 8A","BROOKLYN","NY",11207,40.6570642070001,-73.876269822,132,"12399 FLATLANDS AVENUE APT 8A, BROOKLYN, NY, 11207","Match","Exact","12399 FLATLANDS AVE, BROOKLYN, NY, 11207",634254539,"L"
40633,"12399 W DIXIE HWY","NORTH MIAMI","FL",33161,NA,NA,133,"12399 W DIXIE HWY, NORTH MIAMI, FL, 33161","No_Match",NA,NA,NA,NA
40634,"123A E HIGH STREET","GLASSBORO","NJ",8028,NA,NA,134,"123A E HIGH STREET, GLASSBORO, NJ, 8028","Tie",NA,NA,NA,NA
40635,"123A HIGHWAY 80 EAST SUITE 279","CLINTON","MS",39056,NA,NA,135,"123A HIGHWAY 80 EAST SUITE 279, CLINTON, MS, 39056","No_Match",NA,NA,NA,NA
40636,"123A WILSON STREET","RIDGELAND","SC",29936,32.481070355,-80.9772269439999,136,"123A WILSON STREET, RIDGELAND, SC, 29936","Match","Exact","123 WILSON ST, RIDGELAND, SC, 29936",33148423,"R"
40637,"124  HILLSIDE AVENUE","TEANECK","NJ",7666,40.8755022720001,-74.016337574,137,"124  HILLSIDE AVENUE, TEANECK, NJ, 7666","Match","Exact","124 HILLSIDE AVE, TEANECK, NJ, 07666",64389306,"L"
40638,"124 1/2 SOUTH MAIN STREET","CELINA","OH",45822,40.548713698,-84.570789835,138,"124 1/2 SOUTH MAIN STREET, CELINA, OH, 45822","Match","Exact","124 S MAIN ST, CELINA, OH, 45822",43084241,"R"
40639,"124 17TH AVE E","SEATTLE","WA",98112,47.6188404280001,-122.31012649,139,"124 17TH AVE E, SEATTLE, WA, 98112","Match","Exact","124 17TH AVE E, SEATTLE, WA, 98112",638598934,"R"
40640,"124 21 FLATLANDS AVE STE 8K","BROOKLYN","NY",11208,NA,NA,140,"124 21 FLATLANDS AVE STE 8K, BROOKLYN, NY, 11208","No_Match",NA,NA,NA,NA
40641,"124 21ST AVE","SEATTLE","WA",98122,47.601954042,-122.305033779,141,"124 21ST AVE, SEATTLE, WA, 98122","Match","Exact","124 21ST AVE, SEATTLE, WA, 98122",186593191,"R"
40642,"124 246TH WAY SE","SAMMAMISH","WA",98074,47.6078381360001,-122.011627671,142,"124 246TH WAY SE, SAMMAMISH, WA, 98074","Match","Exact","124 246TH WAY SE, SAMMAMISH, WA, 98074",186934103,"R"
40643,"124 2ND AVE","TWO HARBORS","MN",55616,47.0207589,-91.661577439,143,"124 2ND AVE, TWO HARBORS, MN, 55616","Match","Exact","124 2ND AVE, TWO HARBORS, MN, 55616",194219218,"R"
40644,"124 2ND STREET","BARABOO","WI",53913,43.4689358520001,-89.7420059249999,144,"124 2ND STREET, BARABOO, WI, 53913","Match","Exact","124 2ND ST, BARABOO, WI, 53913",86534437,"L"
40645,"124 4TH AVE S STE 180","KENT","WA",98032,47.3813430810001,-122.23739921,145,"124 4TH AVE S STE 180, KENT, WA, 98032","Match","Exact","124 4TH AVE S, KENT, WA, 98032",186634621,"L"
40646,"124 6TH AVENUE","DEWITT","IA",52742,41.8160533380001,-90.5389025919999,146,"124 6TH AVENUE, DEWITT, IA, 52742","Match","Non_Exact","124 6TH AVE, DE WITT, IA, 52742",16805118,"R"
40647,"124 AIRSTRIP ROAD","EAST STROUDSBURG","PA",18301,41.035082189,-75.155862133,147,"124 AIRSTRIP ROAD, EAST STROUDSBURG, PA, 18301","Match","Exact","124 AIRSTRIP RD, E STROUDSBURG, PA, 18301",136760004,"L"
40648,"124 ALMONTE BLVD UNIT 6","MILL VALLEY","CA",94941,37.8901697570001,-122.527489949,148,"124 ALMONTE BLVD UNIT 6, MILL VALLEY, CA, 94941","Match","Exact","124 ALMONTE BLVD, MILL VALLEY, CA, 94941",192766808,"R"
40649,"124 ALTON ROAD","NASHVILLE","TN",37205,36.0920630270001,-86.874302142,149,"124 ALTON ROAD, NASHVILLE, TN, 37205","Match","Exact","124 ALTON RD, NASHVILLE, TN, 37205",97181074,"L"
40650,"124 ANCHOR LN","MILFORD","DE",19963,38.937839351,-75.4226976639999,150,"124 ANCHOR LN, MILFORD, DE, 19963","Match","Exact","124 ANCHOR LN, MILFORD, DE, 19963",617125626,"R"
40651,"124 ANDERSON RD","MAGNOLIA","DE",19962,39.0597140990001,-75.4923218869999,151,"124 ANDERSON RD, MAGNOLIA, DE, 19962","Match","Exact","124 ANDERSON RD, MAGNOLIA, DE, 19962",68102812,"R"
40652,"124 ANDERSON STREET","FAYETTEVILLE","NC",28301,35.0532685590001,-78.879567698,152,"124 ANDERSON STREET, FAYETTEVILLE, NC, 28301","Match","Exact","124 ANDERSON ST, FAYETTEVILLE, NC, 28301",64246477,"R"
40653,"124 ANKERICH RD","BOWERSVILLE","GA",30516,NA,NA,153,"124 ANKERICH RD, BOWERSVILLE, GA, 30516","No_Match",NA,NA,NA,NA
40654,"124 ANN ST","NEW IBERIA","LA",70560,30.0000191770001,-91.8090915769999,154,"124 ANN ST, NEW IBERIA, LA, 70560","Match","Exact","124 ANN ST, NEW IBERIA, LA, 70560",85372075,"L"
40655,"124 ARBOR HILL LANE SW","HUNTSVILLE","AL",35824,34.6602647560001,-86.719961698,155,"124 ARBOR HILL LANE SW, HUNTSVILLE, AL, 35824","Match","Exact","124 ARBOR HILL LN SW, HUNTSVILLE, AL, 35824",624484564,"L"
40656,"124 ARMSDALE ROAD SUITE112","KITTANNING","PA",16201,NA,NA,156,"124 ARMSDALE ROAD SUITE112, KITTANNING, PA, 16201","No_Match",NA,NA,NA,NA
40657,"124 ARMSDALE ROAD","KITTANNING","PA",16201,NA,NA,157,"124 ARMSDALE ROAD, KITTANNING, PA, 16201","No_Match",NA,NA,NA,NA
40658,"124 ATKINS AVE","ASBURY PARK","NJ",7712,40.215369858,-74.020723296,158,"124 ATKINS AVE, ASBURY PARK, NJ, 7712","Match","Exact","124 ATKINS AVE, ASBURY PARK, NJ, 07712",90463942,"R"
40659,"124 AVALON LANE","BIG ROCK","TN",37023,NA,NA,159,"124 AVALON LANE, BIG ROCK, TN, 37023","No_Match",NA,NA,NA,NA
40660,"124 BANION CT","SAN PABLO","CA",94806,37.9910072590001,-122.313450048,160,"124 BANION CT, SAN PABLO, CA, 94806","Match","Exact","124 BANION CT, SAN PABLO, CA, 94806",192037729,"R"
40661,"124 BAYVIEW DRIVE","FERGUSON","MO",63135,38.7448924490001,-90.290502294,161,"124 BAYVIEW DRIVE, FERGUSON, MO, 63135","Match","Exact","124 BAYVIEW DR, FERGUSON, MO, 63135",100177468,"L"
40662,"124 BELLA VISTA WAY","ROYAL PALM BEACH","FL",33411,26.685433893,-80.2052203069999,162,"124 BELLA VISTA WAY, ROYAL PALM BEACH, FL, 33411","Match","Exact","124 BELLA VISTA WAY, ROYAL PALM BEACH, FL, 33411",115581412,"R"
40663,"124 BENT TREE TRL","BURLESON","TX",76028,32.5048456660001,-97.254996016,163,"124 BENT TREE TRL, BURLESON, TX, 76028","Match","Exact","124 BENT TREE TRL, BURLESON, TX, 76028",103540404,"L"
40664,"124 BLUEBONET OAK COURT","BUNNLEVEL","NC",28323,35.3067103860001,-78.963395928,164,"124 BLUEBONET OAK COURT, BUNNLEVEL, NC, 28323","Match","Non_Exact","124 BLUEBONNET OAK CT, BUNNLEVEL, NC, 28323",634104531,"R"
40665,"124 BRACKEN CT","JACKSONVILLE","FL",32259,30.1133939380001,-81.6248366679999,165,"124 BRACKEN CT, JACKSONVILLE, FL, 32259","Match","Exact","124 BRACKEN CT, JACKSONVILLE, FL, 32259",92603120,"R"
40666,"124 BROADKILL RD 601","MILTON","DE",19968,NA,NA,166,"124 BROADKILL RD 601, MILTON, DE, 19968","No_Match",NA,NA,NA,NA
40667,"124 BROADKILL RD NUM 605","MILTON","DE",19968,NA,NA,167,"124 BROADKILL RD NUM 605, MILTON, DE, 19968","No_Match",NA,NA,NA,NA
40668,"124 BROADKILL RD","MILTON","DE",19968,NA,NA,168,"124 BROADKILL RD, MILTON, DE, 19968","No_Match",NA,NA,NA,NA
40669,"124 BROOK STREET","WILLOW GROVE","PA",19090,40.152242475,-75.1090193919999,169,"124 BROOK STREET, WILLOW GROVE, PA, 19090","Match","Exact","124 BROOK ST, WILLOW GROVE, PA, 19090",135101506,"L"
40670,"124 BROWNING HEIGHTS WAY","CENTRAL","SC",29630,34.7632555550001,-82.822137176,170,"124 BROWNING HEIGHTS WAY, CENTRAL, SC, 29630","Match","Exact","124 BROWNING HEIGHTS WAY, CENTRAL, SC, 29630",26219907,"R"
40671,"124 BULLARD PARKWAY","TEMPLE TERRACE","FL",33617,28.032581104,-82.3929542449999,171,"124 BULLARD PARKWAY, TEMPLE TERRACE, FL, 33617","Match","Exact","124 BULLARD PKWY, TEMPLE TER, FL, 33617",104532577,"L"
40672,"124 BURLINGOTN AVE","PATERSON","NJ",7502,40.914630464,-74.198562006,172,"124 BURLINGOTN AVE, PATERSON, NJ, 7502","Match","Non_Exact","124 BURLINGTON AVE, PATERSON, NJ, 07502",65260654,"R"
40673,"124 BUTTERNUT LANE","MANDEVILLE","LA",70448,30.3750193820001,-90.036196775,173,"124 BUTTERNUT LANE, MANDEVILLE, LA, 70448","Match","Exact","124 BUTTERNUT LN, MANDEVILLE, LA, 70448",111342331,"R"
40674,"124 CANAL STREET","LEWISTON","ME",4240,44.0937256710001,-70.2166342899999,174,"124 CANAL STREET, LEWISTON, ME, 4240","Match","Exact","124 CANAL ST, LEWISTON, ME, 04240",77961652,"L"
40675,"124 CANTERBURY TRAIL","WEST SENECA","NY",14224,42.8490413980001,-78.702391507,175,"124 CANTERBURY TRAIL, WEST SENECA, NY, 14224","Match","Exact","124 CANTERBURY TRL, WEST SENECA, NY, 14224",48316474,"R"
40676,"124 CAPTAIN H M SHREVE BLVD","SHREVEPORT","LA",71115,32.4266502520001,-93.6911693279999,176,"124 CAPTAIN H M SHREVE BLVD, SHREVEPORT, LA, 71115","Match","Exact","124 CAPTAIN H M SHREVE BLVD, SHREVEPORT, LA, 71115",624669035,"L"
40677,"124 CARDINAL","IRVINE","CA",92618,33.699465236,-117.721499746,177,"124 CARDINAL, IRVINE, CA, 92618","Match","Exact","124 CARDINAL, IRVINE, CA, 92618",650595342,"R"
40678,"124 CASTLEPINES DR","WILLOW PARK","TX",76008,32.7262381240001,-97.626629903,178,"124 CASTLEPINES DR, WILLOW PARK, TX, 76008","Match","Non_Exact","124 CASTLE PINES DR, WILLOW PARK, TX, 76008",611017681,"R"
40679,"124 CAYMAN DRIVE","PALM SPRINGS","FL",33461,26.6298718,-80.090120938,179,"124 CAYMAN DRIVE, PALM SPRINGS, FL, 33461","Match","Exact","124 CAYMAN DR, PALM SPRINGS, FL, 33461",115541528,"R"
40680,"124 CHENOWETH DRIVE","SIMPSONVILLE","SC",29681,34.7831125160001,-82.2425950849999,180,"124 CHENOWETH DRIVE, SIMPSONVILLE, SC, 29681","Match","Exact","124 CHENOWETH DR, SIMPSONVILLE, SC, 29681",38329395,"R"
40681,"124 CHOTA SHORES WAY","LOUDON","TN",37774,35.697972126,-84.255095485,181,"124 CHOTA SHORES WAY, LOUDON, TN, 37774","Match","Exact","124 CHOTA SHORES WAY, LOUDON, TN, 37774",635415982,"R"
40682,"124 CIRCLE PARK","SWEETWATER","TN",37874,35.6122630080001,-84.4768816499999,182,"124 CIRCLE PARK, SWEETWATER, TN, 37874","Match","Exact","124 CIRCLE PARK, SWEETWATER, TN, 37874",612105699,"R"
40683,"124 CLARK ROAD","TILTON","NH",3276,43.4484487190001,-71.6159805949999,183,"124 CLARK ROAD, TILTON, NH, 3276","Match","Exact","124 CLARK RD, TILTON, NH, 03276",145482958,"R"
40684,"124 CLEARBROOK LANE APT B","COSTA MESA","CA",92626,33.6627744800001,-117.905180529,184,"124 CLEARBROOK LANE APT B, COSTA MESA, CA, 92626","Match","Exact","124 CLEARBROOK LN, COSTA MESA, CA, 92626",144048194,"R"
40685,"124 CLOVER POINT CIRCLE","GUYTON","GA",31312,NA,NA,185,"124 CLOVER POINT CIRCLE, GUYTON, GA, 31312","No_Match",NA,NA,NA,NA
40686,"124 CLOVER ROAD","SYRACUSE","NY",13219,43.0426926710001,-76.209321259,186,"124 CLOVER ROAD, SYRACUSE, NY, 13219","Match","Exact","124 CLOVER RD, SYRACUSE, NY, 13219",46565347,"R"
40687,"124 COCKS LANE","LOCUST VALLEY","NY",11560,40.878831473,-73.5724984289999,187,"124 COCKS LANE, LOCUST VALLEY, NY, 11560","Match","Exact","124 COCKS LN, LOCUST VALLEY, NY, 11560",147655123,"R"
40688,"124 COLES RD","CROMWELL","CT",6416,41.617738742,-72.6901571229999,188,"124 COLES RD, CROMWELL, CT, 6416","Match","Exact","124 COLES RD, CROMWELL, CT, 06416",113903030,"R"
40689,"124 CONKLIN AVE","BINGHAMTON","NY",13903,42.093218382,-75.903531701,189,"124 CONKLIN AVE, BINGHAMTON, NY, 13903","Match","Exact","124 CONKLIN AVE, BINGHAMTON, NY, 13903",46343355,"R"
40690,"124 COOLIDGE HILL ROAD","WATERTOWN","MA",2472,42.36830264,-71.151225728,190,"124 COOLIDGE HILL ROAD, WATERTOWN, MA, 2472","Match","Exact","124 COOLIDGE HILL, WATERTOWN, MA, 02472",87108114,"L"
40691,"124 COUNTRY GARDEN LN","ANDERSON","SC",29626,34.486648202,-82.74448647,191,"124 COUNTRY GARDEN LN, ANDERSON, SC, 29626","Match","Exact","124 COUNTRY GARDEN LN, ANDERSON, SC, 29626",25469218,"L"
40692,"124 COUNTY ROAD 3000","LOTT","TX",76656,31.123196728,-97.1151264169999,192,"124 COUNTY ROAD 3000, LOTT, TX, 76656","Match","Exact","124 CO RD 3000, LOTT, TX, 76656",627728322,"L"
40693,"124 COURTLAND LANE","MATAWAN","NJ",7747,40.4033814920001,-74.22286092,193,"124 COURTLAND LANE, MATAWAN, NJ, 7747","Match","Exact","124 COURTLAND LN, MATAWAN, NJ, 07747",90473620,"R"
40694,"124 COVINGTON COVE","GEORGETOWN","TX",78628,30.6009156700001,-97.789012117,194,"124 COVINGTON COVE, GEORGETOWN, TX, 78628","Match","Exact","124 COVINGTON COVE, GEORGETOWN, TX, 78628",641117245,"R"
40695,"124 CRAWFORD DRIVE","VICTORIA","TX",77904,28.9012784510001,-97.0817603689999,195,"124 CRAWFORD DRIVE, VICTORIA, TX, 77904","Match","Exact","124 CRAWFORD DR, VICTORIA, TX, 77904",44577666,"R"
40696,"124 CULVERTON DRIVE","ROCHESTER","NY",14609,43.187508103,-77.559532776,196,"124 CULVERTON DRIVE, ROCHESTER, NY, 14609","Match","Exact","124 CULVERTON DR, ROCHESTER, NY, 14609",14541711,"R"
40697,"124 DALES AVENUE","DANVILLE","KY",40422,37.6457138120001,-84.8288472899999,197,"124 DALES AVENUE, DANVILLE, KY, 40422","Match","Exact","124 DALES AVE, DANVILLE, KY, 40422",32486789,"R"
40698,"124 DARTER CIRCLE","LOCKESBURG","AR",71846,33.9625776250001,-94.15447571,198,"124 DARTER CIRCLE, LOCKESBURG, AR, 71846","Match","Non_Exact","124 DARTER, LOCKESBURG, AR, 71846",84830567,"R"
40699,"124 DEBBIE DRIVE","PENDLETON","SC",29670,34.6606064900001,-82.7184758449999,199,"124 DEBBIE DRIVE, PENDLETON, SC, 29670","Match","Exact","124 DEBBIE DR, PENDLETON, SC, 29670",25462969,"R"
40700,"124 DEPEW DR","LOUDON","TN",37774,35.714115457,-84.262981413,200,"124 DEPEW DR, LOUDON, TN, 37774","Match","Exact","124 DEPEW DR, LOUDON, TN, 37774",633660759,"R"
40701,"124 DODGE STREET","SALIDA","CO",81201,38.530108048,-105.991571649,201,"124 DODGE STREET, SALIDA, CO, 81201","Match","Exact","124 DODGE ST, SALIDA, CO, 81201",108255019,"R"
40702,"124 DOGWOOD CT","BRUNSWICK","GA",31523,31.127151242,-81.585968295,202,"124 DOGWOOD CT, BRUNSWICK, GA, 31523","Match","Exact","124 DOGWOOD CT, BRUNSWICK, GA, 31523",628073927,"L"
40703,"124 DOVER COURT","HURDLE MILLS","NC",27541,36.1850312550001,-79.090692508,203,"124 DOVER COURT, HURDLE MILLS, NC, 27541","Match","Exact","124 DOVER CT, HURDLE MILLS, NC, 27541",636751556,"L"
40704,"124 DOWNING STREET WEST","DELAWARE","OH",43015,40.3315424510001,-83.0776960009999,204,"124 DOWNING STREET WEST, DELAWARE, OH, 43015","Match","Exact","124 DOWNING ST W, DELAWARE, OH, 43015",24584704,"R"
40705,"124 DRAKE DRIVE C/O SEAN GILIBERTI","WEXFORD","PA",15090,NA,NA,205,"124 DRAKE DRIVE C/O SEAN GILIBERTI, WEXFORD, PA, 15090","No_Match",NA,NA,NA,NA
40706,"124 E 117TH ST APT 4D","NEW YORK","NY",10035,40.7996486480001,-73.941961786,206,"124 E 117TH ST APT 4D, NEW YORK, NY, 10035","Match","Non_Exact","124 E 117TH ST, NEW YORK, NY, 10035",59658041,"R"
40707,"124 E 17TH ST","SAINT CLOUD","FL",34769,NA,NA,207,"124 E 17TH ST, SAINT CLOUD, FL, 34769","Tie",NA,NA,NA,NA
40708,"124 E 24TH STREET APT 3B","NEW YORK","NY",10010,40.7404155360001,-73.984845788,208,"124 E 24TH STREET APT 3B, NEW YORK, NY, 10010","Match","Non_Exact","124 E 24TH ST, NEW YORK, NY, 10010",59653648,"R"
40709,"124 E 2ND ST","HERMANN","MO",65041,38.7060488340001,-91.436914149,209,"124 E 2ND ST, HERMANN, MO, 65041","Match","Exact","124 E 2ND ST, HERMANN, MO, 65041",45237340,"L"
40710,"124 E 30TH ST SUITE D","NATIONAL CITY","CA",91950,NA,NA,210,"124 E 30TH ST SUITE D, NATIONAL CITY, CA, 91950","Tie",NA,NA,NA,NA
40711,"124 E 3RD AVE APT 208","ANCHORAGE","AK",99501,NA,NA,211,"124 E 3RD AVE APT 208, ANCHORAGE, AK, 99501","Tie",NA,NA,NA,NA
40712,"124 E 5TH STREET","LOCKPORT","IL",60441,41.593402987,-88.05509599,212,"124 E 5TH STREET, LOCKPORT, IL, 60441","Match","Exact","124 E 5TH ST, LOCKPORT, IL, 60441",111544912,"L"
40713,"124 E HWY 13 UNIT 204","BURNSVILLE","MN",55337,44.7787027630001,-93.275003188,213,"124 E HWY 13 UNIT 204, BURNSVILLE, MN, 55337","Match","Non_Exact","124 HWY 13 E, BURNSVILLE, MN, 55337",37904005,"R"
40714,"124 E LONGDEN AVE","ARCADIA","CA",91006,34.11421777,-118.026579049,214,"124 E LONGDEN AVE, ARCADIA, CA, 91006","Match","Exact","124 E LONGDEN AVE, ARCADIA, CA, 91006",640132275,"R"
40715,"124 E MAIN ST APT 208","DENVILLE","NJ",7834,NA,NA,215,"124 E MAIN ST APT 208, DENVILLE, NJ, 7834","Tie",NA,NA,NA,NA
40716,"124 E MAIN","NORMAN","OK",73069,NA,NA,216,"124 E MAIN, NORMAN, OK, 73069","No_Match",NA,NA,NA,NA
40717,"124 E SANTA FE AVE","SANTA FE","NM",87505,35.6804475550001,-105.940649527,217,"124 E SANTA FE AVE, SANTA FE, NM, 87505","Match","Exact","124 E SANTA FE AVE, SANTA FE, NM, 87505",169378823,"R"
40718,"124 E SCHUYLER ST","BOONVILLE","NY",13309,NA,NA,218,"124 E SCHUYLER ST, BOONVILLE, NY, 13309","Tie",NA,NA,NA,NA
40719,"124 EAST 40TH STREET SUITE 1004","NEW YORK","NY",10016,40.750289837,-73.9773120629999,219,"124 EAST 40TH STREET SUITE 1004, NEW YORK, NY, 10016","Match","Exact","124 E 40TH ST, NEW YORK, NY, 10016",59661969,"R"
40720,"124 EAST BOOKER AVENUE","WYANDANCH","NY",11798,40.7396399560001,-73.3604384779999,220,"124 EAST BOOKER AVENUE, WYANDANCH, NY, 11798","Match","Exact","124 E BOOKER AVE, WYANDANCH, NY, 11798",113974974,"R"
40721,"124 EAST FIRST SOUTH STREET","CARLINVILLE","IL",62626,39.27870375,-89.880811595,221,"124 EAST FIRST SOUTH STREET, CARLINVILLE, IL, 62626","Match","Exact","124 E 1ST SOUTH ST, CARLINVILLE, IL, 62626",97925554,"R"
40722,"124 EAST GRAND AVE","TOWER CITY","PA",17980,40.5883371150001,-76.5581588639999,222,"124 EAST GRAND AVE, TOWER CITY, PA, 17980","Match","Exact","124 E GRAND AVE, TOWER CITY, PA, 17980",70950717,"R"
40723,"124 EAST PINCKNEY STREET","LINCOLNVILLE","SC",29485,33.010287883,-80.153208584,223,"124 EAST PINCKNEY STREET, LINCOLNVILLE, SC, 29485","Match","Exact","124 E PINCKNEY ST, LINCOLNVILLE, SC, 29485",108795941,"L"
40724,"124 ELLINGTON BLVD APT 404","GAITHERSBURG","MD",20878,39.1155401550001,-77.204168298,224,"124 ELLINGTON BLVD APT 404, GAITHERSBURG, MD, 20878","Match","Exact","124 ELLINGTON BLVD, GAITHERSBURG, MD, 20878",640672181,"L"
40725,"124 ELLINGTON BLVD APT 570","GAITHERSBURG","MD",20878,39.1155401550001,-77.204168298,225,"124 ELLINGTON BLVD APT 570, GAITHERSBURG, MD, 20878","Match","Exact","124 ELLINGTON BLVD, GAITHERSBURG, MD, 20878",640672181,"L"
40726,"124 ELMGROVE AVE","TROY","NY",12180,42.714321392,-73.6635666619999,226,"124 ELMGROVE AVE, TROY, NY, 12180","Match","Exact","124 ELMGROVE AVE, TROY, NY, 12180",35730774,"R"
40727,"124 ELMWOOD DRIVE","GLENSHAW","PA",15116,40.5458450090001,-79.979886586,227,"124 ELMWOOD DRIVE, GLENSHAW, PA, 15116","Match","Exact","124 ELMWOOD DR, GLENSHAW, PA, 15116",51715302,"R"
40728,"124 EMELINE DR","HAWTHORNE","NJ",7506,40.9809248080001,-74.1690140379999,228,"124 EMELINE DR, HAWTHORNE, NJ, 7506","Match","Exact","124 EMELINE DR, HAWTHORNE, NJ, 07506",65275969,"L"
40729,"124 EMERSON AVE","PLAINFIELD","NJ",7062,40.636203885,-74.409996776,229,"124 EMERSON AVE, PLAINFIELD, NJ, 7062","Match","Exact","124 EMERSON AVE, PLAINFIELD, NJ, 07062",60567102,"R"
40730,"124 EPPIRT STREET","EAST ORANGE","NJ",7018,40.753257176,-74.220622562,230,"124 EPPIRT STREET, EAST ORANGE, NJ, 7018","Match","Exact","124 EPPIRT ST, EAST ORANGE, NJ, 07018",63481398,"L"
40731,"124 ESTORIA ST","ATLANTA","GA",30316,33.7509754760001,-84.363299959,231,"124 ESTORIA ST, ATLANTA, GA, 30316","Match","Non_Exact","124 ESTORIA ST SE, ATLANTA, GA, 30316",17357739,"L"
40732,"124 FAIRFIELD CIR E","ROYERSFORD","PA",19468,40.2005755180001,-75.505017815,232,"124 FAIRFIELD CIR E, ROYERSFORD, PA, 19468","Match","Non_Exact","124 FAIRFIELD CIR, ROYERSFORD, PA, 19468",645862400,"R"
40733,"124 FARM STREET","HASTINGS","MN",55033,44.7453197090001,-92.87359887,233,"124 FARM STREET, HASTINGS, MN, 55033","Match","Exact","124 FARM ST, HASTINGS, MN, 55033",37913661,"L"
40734,"124 FELLOWS CT APT E","ELMHURST","IL",60126,41.890712154,-87.956393873,234,"124 FELLOWS CT APT E, ELMHURST, IL, 60126","Match","Exact","124 FELLOWS CT, ELMHURST, IL, 60126",653203910,"R"
40735,"124 FISHER LANE","PORT ROYAL","PA",17082,40.4787041230001,-77.457512314,235,"124 FISHER LANE, PORT ROYAL, PA, 17082","Match","Exact","124 FISHER LN, PORT ROYAL, PA, 17082",629904514,"R"
40736,"124 FORSYTH STREET SUITE 5","NEW YORK","NY",10002,40.719293088,-73.992384306,236,"124 FORSYTH STREET SUITE 5, NEW YORK, NY, 10002","Match","Exact","124 FORSYTH ST, NEW YORK, NY, 10002",640889785,"R"
40737,"124 FOXTAIL DRIVE","NICHOLASVILLE","KY",40356,37.939846194,-84.568151068,237,"124 FOXTAIL DRIVE, NICHOLASVILLE, KY, 40356","Match","Exact","124 FOXTAIL DR, NICHOLASVILLE, KY, 40356",38464690,"R"
40738,"124 FRAZIER CT STE 1","GEORGETOWN","KY",40324,38.2339654300001,-84.536024415,238,"124 FRAZIER CT STE 1, GEORGETOWN, KY, 40324","Match","Exact","124 FRAZIER CT, GEORGETOWN, KY, 40324",41239310,"R"
40739,"124 FRESNO AVE","MODESTO","CA",95351,37.630594709,-121.001345382,239,"124 FRESNO AVE, MODESTO, CA, 95351","Match","Exact","124 FRESNO AVE, MODESTO, CA, 95351",102604635,"R"
40740,"124 FUNKHOUSER BUILDING","LEXINGTON","KY",40511,NA,NA,240,"124 FUNKHOUSER BUILDING, LEXINGTON, KY, 40511","No_Match",NA,NA,NA,NA
40741,"124 G ELM AVE SE","FORT WALTON BEACH","FL",32548,30.40664343,-86.59746347,241,"124 G ELM AVE SE, FORT WALTON BEACH, FL, 32548","Match","Exact","124 ELM AVE SE, FORT WALTON BEACH, FL, 32548",74393040,"R"
40742,"124 GLASTONBURY DRIVE","MOORESVILLE","NC",28115,35.602980374,-80.785108744,242,"124 GLASTONBURY DRIVE, MOORESVILLE, NC, 28115","Match","Exact","124 GLASTONBURY DR, MOORESVILLE, NC, 28115",653471127,"R"
40743,"124 GLENWOOD AVENUE","LEONIA","NJ",7605,40.857522741,-73.987871658,243,"124 GLENWOOD AVENUE, LEONIA, NJ, 7605","Match","Exact","124 GLENWOOD AVE, LEONIA, NJ, 07605",64389937,"L"
40744,"124 GOTTHARD STREET","NEWARK","NJ",7105,NA,NA,244,"124 GOTTHARD STREET, NEWARK, NJ, 7105","No_Match",NA,NA,NA,NA
40745,"124 GRAFTON ST","CHESTER","VT",5143,43.2621727540001,-72.595339129,245,"124 GRAFTON ST, CHESTER, VT, 5143","Match","Exact","124 GRAFTON ST, CHESTER, VT, 05143",139274352,"L"
40746,"124 GRANT AVE","WHITAKER","PA",15120,40.3990930030001,-79.887058834,246,"124 GRANT AVE, WHITAKER, PA, 15120","Match","Non_Exact","124 GRANT AVE, HOMESTEAD, PA, 15120",51654414,"R"
40747,"124 GRANT RD","MARQUETTE HEIGHTS","IL",61554,40.6187372430001,-89.606568684,247,"124 GRANT RD, MARQUETTE HEIGHTS, IL, 61554","Match","Exact","124 GRANT RD, MARQUETTE HEIGHTS, IL, 61554",608214201,"R"
40748,"124 GREENE LANE","CHERRY HILL","NJ",8003,39.9002411160001,-74.956125906,248,"124 GREENE LANE, CHERRY HILL, NJ, 8003","Match","Exact","124 GREENE LN, CHERRY HILL, NJ, 08003",651345903,"L"
40749,"124 HAIG ST","CELINA","OH",45822,40.545347522,-84.5283604909999,249,"124 HAIG ST, CELINA, OH, 45822","Match","Exact","124 HAIG ST, CELINA, OH, 45822",43109334,"R"
40750,"124 HAMPTON PARK EAST","WESTERVILLE","OH",43081,40.129153553,-82.916981139,250,"124 HAMPTON PARK EAST, WESTERVILLE, OH, 43081","Match","Exact","124 HAMPTON PARK E, WESTERVILLE, OH, 43081",135750632,"R"
40751,"124 HARVEST CIR","OREGON","WI",53575,42.9059453290001,-89.381468675,251,"124 HARVEST CIR, OREGON, WI, 53575","Match","Exact","124 HARVEST CIR, OREGON, WI, 53575",49505200,"L"
40752,"124 HAWKINS LANE","ANDERSON","SC",29621,34.406597463,-82.551784691,252,"124 HAWKINS LANE, ANDERSON, SC, 29621","Match","Exact","124 HAWKINS LN, ANDERSON, SC, 29621",25463908,"L"
40753,"124 HAYDENVILLE RD","WHATELY","MA",1093,NA,NA,253,"124 HAYDENVILLE RD, WHATELY, MA, 1093","No_Match",NA,NA,NA,NA
40754,"124 HELEN RD SW","PATASKALA","OH",43062,40.0337199360001,-82.7337157009999,254,"124 HELEN RD SW, PATASKALA, OH, 43062","Match","Exact","124 HELEN RD SW, PATASKALA, OH, 43062",61502352,"R"
40755,"124 HERBERICH AVE","AKRON","OH",44301,NA,NA,255,"124 HERBERICH AVE, AKRON, OH, 44301","No_Match",NA,NA,NA,NA
40756,"124 HERITAGE AVENUE 10","PORTSMOUTH","NH",3801,43.035211014,-70.7981718139999,256,"124 HERITAGE AVENUE 10, PORTSMOUTH, NH, 3801","Match","Exact","124 HERITAGE AVE, PORTSMOUTH, NH, 03801",639625996,"R"
40757,"124 HICKORY DRIVE","HAINES CITY","FL",33844,28.093952985,-81.6320072079999,257,"124 HICKORY DRIVE, HAINES CITY, FL, 33844","Match","Non_Exact","124 HICKORY DR W, HAINES CITY, FL, 33844",104827554,"L"
40758,"124 HILLSIDE ROAD","NORTH ANDOVER","MA",1845,42.664737345,-71.115249021,258,"124 HILLSIDE ROAD, NORTH ANDOVER, MA, 1845","Match","Exact","124 HILLSIDE RD, NORTH ANDOVER, MA, 01845",86684386,"L"
40759,"124 HINCKLEY COURT","ROSEVILLE","CA",95747,38.7820469700001,-121.336548239,259,"124 HINCKLEY COURT, ROSEVILLE, CA, 95747","Match","Exact","124 HINCKLEY CT, ROSEVILLE, CA, 95747",106811939,"R"
40760,"124 HOLDEN RD","ALTO","NM",88312,33.4244249540001,-105.570876858,260,"124 HOLDEN RD, ALTO, NM, 88312","Match","Exact","124 HOLDEN RD, ALTO, NM, 88312",169153035,"R"
40761,"124 HORSE WHISPERER CT","DECATUR","TX",76234,33.1355070820001,-97.561669162,261,"124 HORSE WHISPERER CT, DECATUR, TX, 76234","Match","Exact","124 HORSE WHISPERER CT, DECATUR, TX, 76234",625207743,"R"
40762,"124 IDLEWOOD DRIVE","COVINGTON","KY",41017,38.9825190510001,-84.5273042379999,262,"124 IDLEWOOD DRIVE, COVINGTON, KY, 41017","Match","Exact","124 IDLEWOOD DR, COVINGTON, KY, 41017",103883311,"R"
40763,"124 INDIANOLA AVENUE","DAYTON","OH",45405,39.781695433,-84.2061997489999,263,"124 INDIANOLA AVENUE, DAYTON, OH, 45405","Match","Exact","124 INDIANOLA AVE, DAYTON, OH, 45405",143569924,"R"
40764,"124 JAY ST","STONY POINT","NY",10980,41.238993319,-73.988702782,264,"124 JAY ST, STONY POINT, NY, 10980","Match","Exact","124 JAY ST, STONY POINT, NY, 10980",124590529,"R"
40765,"124 JENNA CT","LAKEWOOD","NJ",8701,40.063243114,-74.225304208,265,"124 JENNA CT, LAKEWOOD, NJ, 8701","Match","Exact","124 JENNA CT, LAKEWOOD, NJ, 08701",203724113,"L"
40766,"124 JESSEN DRIVE","LOVELAND","CO",80537,40.3934047160001,-105.086872326,266,"124 JESSEN DRIVE, LOVELAND, CO, 80537","Match","Exact","124 JESSEN DR, LOVELAND, CO, 80537",640626740,"R"
40767,"124 JESTAN BLVD","NEW CASTLE","DE",19720,39.6122913620001,-75.6560184539999,267,"124 JESTAN BLVD, NEW CASTLE, DE, 19720","Match","Exact","124 JESTAN BLVD, NEW CASTLE, DE, 19720",187292679,"L"
40768,"124 JULIA DRIVE","COPPERAS COVE","TX",76522,31.182149942,-97.9476215079999,268,"124 JULIA DRIVE, COPPERAS COVE, TX, 76522","Match","Exact","124 JULIA DR, COPPERAS COVE, TX, 76522",146573276,"R"
40769,"124 KALVESTA DR","MORRISVILLE","NC",27560,35.8200387640001,-78.819514999,269,"124 KALVESTA DR, MORRISVILLE, NC, 27560","Match","Exact","124 KALVESTA DR, MORRISVILLE, NC, 27560",72641490,"R"
40770,"124 KING ROAD","KNOX","PA",16232,41.275889315,-79.62205541,270,"124 KING ROAD, KNOX, PA, 16232","Match","Exact","124 KING RD, KNOX, PA, 16232",66232757,"R"
40771,"124 KINGLET WAY","MADISON","AL",35756,NA,NA,271,"124 KINGLET WAY, MADISON, AL, 35756","No_Match",NA,NA,NA,NA
40772,"124 KRAML DR","BURR RIDGE","IL",60527,41.7308835210001,-87.93101574,272,"124 KRAML DR, BURR RIDGE, IL, 60527","Match","Exact","124 KRAML DR, BURR RIDGE, IL, 60527",112588906,"R"
40773,"124 LAKE GEORGE DRIVE","COLLINGS LAKES","NJ",8094,39.588557488,-74.876029785,273,"124 LAKE GEORGE DRIVE, COLLINGS LAKES, NJ, 8094","Match","Non_Exact","124 LAKE GEORGE DR, WILLIAMSTOWN, NJ, 08094",202533016,"R"
40774,"124 LANGWELL DRIVE","ANDERSON","SC",29621,34.5799031120001,-82.6062587069999,274,"124 LANGWELL DRIVE, ANDERSON, SC, 29621","Match","Exact","124 LANGWELL DR, ANDERSON, SC, 29621",633752634,"R"
40775,"124 LIBRARY RD","WISE","VA",24293,36.9756091830001,-82.582869954,275,"124 LIBRARY RD, WISE, VA, 24293","Match","Non_Exact","124 LIBRARY RD SW, WISE, VA, 24293",83453162,"L"
40776,"124 LINCOLN AVE","IVYLAND","PA",18974,40.2095049800001,-75.073270474,276,"124 LINCOLN AVE, IVYLAND, PA, 18974","Match","Exact","124 LINCOLN AVE, IVYLAND, PA, 18974",134706291,"L"
40777,"124 LINKS DRIVE APT J-101","CANTON","MS",39046,32.563035488,-90.0587415959999,277,"124 LINKS DRIVE APT J-101, CANTON, MS, 39046","Match","Exact","124 LINKS DR, CANTON, MS, 39046",637407160,"L"
40778,"124 LONESOME TRL","HASLET","TX",76052,32.945113167,-97.36126845,278,"124 LONESOME TRL, HASLET, TX, 76052","Match","Non_Exact","124 LONESOME, HASLET, TX, 76052",617675280,"R"
40779,"124 LONG HILL RD","SOUTH WINDSOR","CT",6074,41.804647097,-72.5941153749999,279,"124 LONG HILL RD, SOUTH WINDSOR, CT, 6074","Match","Exact","124 LONG HILL RD, SOUTH WINDSOR, CT, 06074",640267321,"R"
40780,"124 LYNN ST","CARROLL","IA",51401,42.079279172,-94.863239428,280,"124 LYNN ST, CARROLL, IA, 51401","Match","Exact","124 LYNN ST, CARROLL, IA, 51401",68629921,"R"
40781,"124 MAIDEN CHOICE LANE","BALTIMORE","MD",21228,39.2721260430001,-76.712449566,281,"124 MAIDEN CHOICE LANE, BALTIMORE, MD, 21228","Match","Exact","124 MAIDEN CHOICE LN, BALTIMORE, MD, 21228",191484957,"R"
40782,"124 MAIN ST- PO BOX 57","BENNETT","IA",52721,41.7383202520001,-90.973993209,282,"124 MAIN ST- PO BOX 57, BENNETT, IA, 52721","Match","Non_Exact","124 MAIN ST, BENNETT, IA, 52721",16705865,"L"
40783,"124 MAIN STREET PO BOX 101","LITTLE FERRY","NJ",7643,40.850766831,-74.0382157989999,283,"124 MAIN STREET PO BOX 101, LITTLE FERRY, NJ, 7643","Match","Exact","124 MAIN ST, LITTLE FERRY, NJ, 07643",64397139,"R"
40784,"124 MAIN STREET","COLLINSVILLE","CT",6019,41.810664961,-72.922004193,284,"124 MAIN STREET, COLLINSVILLE, CT, 6019","Match","Exact","124 MAIN ST, COLLINSVILLE, CT, 06019",635727435,"L"
40785,"124 MAIN STREET","SPENCER","MA",1562,42.243670423,-71.995831987,285,"124 MAIN STREET, SPENCER, MA, 1562","Match","Exact","124 MAIN ST, SPENCER, MA, 01562",40003036,"R"
40786,"124 MALLARD DR","BOERNE","TX",78006,29.869901483,-98.627795125,286,"124 MALLARD DR, BOERNE, TX, 78006","Match","Exact","124 MALLARD DR, BOERNE, TX, 78006",102768871,"L"
40787,"124 MALLARD STREET","GREENVILLE","SC",29601,34.840360564,-82.413837983,287,"124 MALLARD STREET, GREENVILLE, SC, 29601","Match","Exact","124 MALLARD ST, GREENVILLE, SC, 29601",38300388,"R"
40788,"124 MANOR CIRCLE","MOORESVILLE","NC",28115,35.579106284,-80.7960009769999,288,"124 MANOR CIRCLE, MOORESVILLE, NC, 28115","Match","Exact","124 MANOR CIR, MOORESVILLE, NC, 28115",45991975,"L"
40789,"124 MARIPOSA DRIVE","CLOVIS","NM",88101,34.430682634,-103.180036901,289,"124 MARIPOSA DRIVE, CLOVIS, NM, 88101","Match","Exact","124 MARIPOSA DR, CLOVIS, NM, 88101",649583270,"L"
40790,"124 MARRIOTT DRIVE STE 102","TALLAHASSEE","FL",32301,30.4412450130001,-84.2639369729999,290,"124 MARRIOTT DRIVE STE 102, TALLAHASSEE, FL, 32301","Match","Exact","124 MARRIOTT DR, TALLAHASSEE, FL, 32301",82868601,"R"
40791,"124 MARRIOTT DRIVE STE 104","TALLAHASSEE","FL",32301,30.4412450130001,-84.2639369729999,291,"124 MARRIOTT DRIVE STE 104, TALLAHASSEE, FL, 32301","Match","Exact","124 MARRIOTT DR, TALLAHASSEE, FL, 32301",82868601,"R"
40792,"124 MARRIOTT DRIVE SUITE 102","TALLAHASSEE","FL",32301,30.4412450130001,-84.2639369729999,292,"124 MARRIOTT DRIVE SUITE 102, TALLAHASSEE, FL, 32301","Match","Exact","124 MARRIOTT DR, TALLAHASSEE, FL, 32301",82868601,"R"
40793,"124 MASTERS LANE","ELIZABETHTOWN","KY",42701,37.7969247010001,-85.862315232,293,"124 MASTERS LANE, ELIZABETHTOWN, KY, 42701","Match","Exact","124 MASTERS LN, ELIZABETHTOWN, KY, 42701",636514619,"R"
40794,"124 MCCOMB AVE","PORT GIBSON","MS",39150,31.946083066,-90.985734015,294,"124 MCCOMB AVE, PORT GIBSON, MS, 39150","Match","Non_Exact","124 MC COMB AVE, PORT GIBSON, MS, 39150",638750229,"L"
40795,"124 MIDDLE ROAD","SOUTHAMPTON","MA",1073,42.1916579040001,-72.706798513,295,"124 MIDDLE ROAD, SOUTHAMPTON, MA, 1073","Match","Exact","124 MIDDLE RD, SOUTHAMPTON, MA, 01073",39856673,"R"
40796,"124 MILROY LN","MOORESVILLE","NC",28115,35.5373175760001,-80.791745433,296,"124 MILROY LN, MOORESVILLE, NC, 28115","Match","Exact","124 MILROY LN, MOORESVILLE, NC, 28115",46020975,"R"
40797,"124 MONITOR STREET","BROOKLYN","NY",11222,40.723821797,-73.942302883,297,"124 MONITOR STREET, BROOKLYN, NY, 11222","Match","Exact","124 MONITOR ST, BROOKLYN, NY, 11222",59076947,"R"
40798,"124 MOUNT AUBURN STREET SUITE 520N","CAMBRIDGE","MA",2134,NA,NA,298,"124 MOUNT AUBURN STREET SUITE 520N, CAMBRIDGE, MA, 2134","No_Match",NA,NA,NA,NA
40799,"124 MUNSON ROAD","BEACON ROAD","CT",6403,41.440274651,-73.0383697729999,299,"124 MUNSON ROAD, BEACON ROAD, CT, 6403","Match","Non_Exact","124 MUNSON RD, BEACON FALLS, CT, 06403",638999079,"L"
40800,"124 N 24TH STREET","OMAHA","NE",68102,41.26011807,-95.946910636,300,"124 N 24TH STREET, OMAHA, NE, 68102","Match","Non_Exact","124 N 24TH ST, OMAHA, NE, 68131",636295770,"L"
40801,"124 N 2ND AVE W","NEWTON","IA",50208,41.7004800720001,-93.0540188959999,301,"124 N 2ND AVE W, NEWTON, IA, 50208","Match","Exact","124 N 2ND AVE W, NEWTON, IA, 50208",89424721,"L"
40802,"124 N CALIFORNIA ST UNIT 22","CHANDLER","AZ",85225,NA,NA,302,"124 N CALIFORNIA ST UNIT 22, CHANDLER, AZ, 85225","Tie",NA,NA,NA,NA
40803,"124 N CALIFORNIA ST UNIT 42","CHANDLER","AZ",85225,NA,NA,303,"124 N CALIFORNIA ST UNIT 42, CHANDLER, AZ, 85225","Tie",NA,NA,NA,NA
40804,"124 N MAIN P O BOX 42","MONTICELLO","IN",47960,NA,NA,304,"124 N MAIN P O BOX 42, MONTICELLO, IN, 47960","No_Match",NA,NA,NA,NA
40805,"124 N MAIN ST","WHITE HALL","IL",62092,39.437178207,-90.403636013,305,"124 N MAIN ST, WHITE HALL, IL, 62092","Match","Exact","124 N MAIN ST, WHITE HALL, IL, 62092",89156564,"R"
40806,"124 N MAYSVILLE ST","MOUNT STERLING","KY",40353,38.058572832,-83.9428129309999,306,"124 N MAYSVILLE ST, MOUNT STERLING, KY, 40353","Match","Non_Exact","124 MAYSVILLE RD, MT STERLING, KY, 40353",32029739,"L"
40807,"124 N NEW JERSEY AVENUE","ATLANTIC CITY","NJ",8401,39.367596269,-74.420538021,307,"124 N NEW JERSEY AVENUE, ATLANTIC CITY, NJ, 8401","Match","Exact","124 N NEW JERSEY AVE, ATLANTIC CITY, NJ, 08401",202504695,"L"
40808,"124 N NOVA ROAD STE 113","ORMOND BEACH","FL",32174,NA,NA,308,"124 N NOVA ROAD STE 113, ORMOND BEACH, FL, 32174","Tie",NA,NA,NA,NA
40809,"124 N OFFICE ST","BRAIDWOOD","IL",60408,41.265162628,-88.229179497,309,"124 N OFFICE ST, BRAIDWOOD, IL, 60408","Match","Exact","124 N OFFICE ST, BRAIDWOOD, IL, 60408",111529250,"L"
40810,"124 N THIRD STREET","LAURENS","IA",50554,42.8469845170001,-94.851469763,310,"124 N THIRD STREET, LAURENS, IA, 50554","Match","Exact","124 N 3RD ST, LAURENS, IA, 50554",77473091,"R"
40811,"124 N WATER ST SUITE 303A","ROCKFORD","IL",61107,42.2691949900001,-89.09128722,311,"124 N WATER ST SUITE 303A, ROCKFORD, IL, 61107","Match","Non_Exact","124 S WATER ST, ROCKFORD, IL, 61107",49253300,"L"
40812,"124 NE 19TH AVENUE","CAMAS","WA",98607,45.592905929,-122.409611791,312,"124 NE 19TH AVENUE, CAMAS, WA, 98607","Match","Exact","124 NE 19TH AVE, CAMAS, WA, 98607",158331581,"L"
40813,"124 NEW YORK AVE","BROOKLYN","NY",11216,40.6758214540001,-73.947163928,313,"124 NEW YORK AVE, BROOKLYN, NY, 11216","Match","Exact","124 NEW YORK AVE, BROOKLYN, NY, 11216",59079431,"R"
40814,"124 NEW YORK AVENUE","BROOKLYN","NY",11216,40.6758214540001,-73.947163928,314,"124 NEW YORK AVENUE, BROOKLYN, NY, 11216","Match","Exact","124 NEW YORK AVE, BROOKLYN, NY, 11216",59079431,"R"
40815,"124 NEWINGTON RD","WEST HARTFORD","CT",6110,41.7281875200001,-72.732664007,315,"124 NEWINGTON RD, WEST HARTFORD, CT, 6110","Match","Exact","124 NEWINGTON RD, WEST HARTFORD, CT, 06110",3513870,"L"
40816,"124 NORTH 200 WEST","AMERICAN FORK","UT",84003,40.3794723930001,-111.803839388,316,"124 NORTH 200 WEST, AMERICAN FORK, UT, 84003","Match","Exact","124 N 200 W, AMERICAN FORK, UT, 84003",134223018,"R"
40817,"124 NORTH COURT","ROSLYN HEIGHTS","NY",11577,NA,NA,317,"124 NORTH COURT, ROSLYN HEIGHTS, NY, 11577","No_Match",NA,NA,NA,NA
40818,"124 NORTH LINDEN ROAD","MANSFIELD","OH",44906,40.763302121,-82.5434914529999,318,"124 NORTH LINDEN ROAD, MANSFIELD, OH, 44906","Match","Exact","124 N LINDEN RD, MANSFIELD, OH, 44906",12831100,"R"
40819,"124 NORTH MAIN ST","DUMAS","AR",71639,33.887509338,-91.4918940759999,319,"124 NORTH MAIN ST, DUMAS, AR, 71639","Match","Exact","124 N MAIN ST, DUMAS, AR, 71639",25894490,"R"
40820,"124 NORTH PARK AVENUE","WARREN","OH",44481,41.2364769480001,-80.817988935,320,"124 NORTH PARK AVENUE, WARREN, OH, 44481","Match","Exact","124 N PARK AVE, WARREN, OH, 44481",117405663,"R"
40821,"124 NORTH SUMNER AVENUE","SCRANTON","PA",18504,41.4143710660001,-75.683221864,321,"124 NORTH SUMNER AVENUE, SCRANTON, PA, 18504","Match","Exact","124 N SUMNER AVE, SCRANTON, PA, 18504",139322287,"R"
40822,"124 NORTH TUSTIN AVENUE D3","ANAHEIM","CA",92807,33.8431083930001,-117.833023229,322,"124 NORTH TUSTIN AVENUE D3, ANAHEIM, CA, 92807","Match","Exact","124 N TUSTIN AVE, ANAHEIM, CA, 92807",144029790,"R"
40823,"124 NORTH WATER STREET SUITE 206","ROCKFORD","IL",61107,42.2691995380001,-89.091283257,323,"124 NORTH WATER STREET SUITE 206, ROCKFORD, IL, 61107","Match","Non_Exact","124 S WATER ST, ROCKFORD, IL, 61107",49253300,"L"
40824,"124 NW 1ST AVE","ONTARIO","OR",97914,NA,NA,324,"124 NW 1ST AVE, ONTARIO, OR, 97914","Tie",NA,NA,NA,NA
40825,"124 OLD WASHINGTON STREET","HANOVER","MA",2339,NA,NA,325,"124 OLD WASHINGTON STREET, HANOVER, MA, 2339","Tie",NA,NA,NA,NA
40826,"124 PALERMO COURT","APEX","NC",27539,35.675778558,-78.8029626699999,326,"124 PALERMO COURT, APEX, NC, 27539","Match","Exact","124 PALERMO CT, APEX, NC, 27539",639844190,"R"
40827,"124 PARK CREEK COURT","GAINESVILLE","GA",30504,34.293688881,-83.858343073,327,"124 PARK CREEK COURT, GAINESVILLE, GA, 30504","Match","Exact","124 PARK CREEK CT, GAINESVILLE, GA, 30504",618456192,"L"
40828,"124 PARK STREET","STATESVILLE","NC",28677,35.7885929540001,-80.879217318,328,"124 PARK STREET, STATESVILLE, NC, 28677","Match","Exact","124 PARK ST, STATESVILLE, NC, 28677",45983729,"R"
40829,"124 PATHKILLER TRAIL","LOUDON","TN",37774,35.746423228,-84.335533611,329,"124 PATHKILLER TRAIL, LOUDON, TN, 37774","Match","Exact","124 PATHKILLER TRL, LOUDON, TN, 37774",633660661,"L"
40830,"124 PATRICK RD","TEWKSBURY","MA",1876,42.6025089350001,-71.2196321869999,330,"124 PATRICK RD, TEWKSBURY, MA, 1876","Match","Exact","124 PATRICK RD, TEWKSBURY, MA, 01876",649930552,"L"
40831,"124 PECAN DRIVE","GRIFFIN","GA",30223,33.2746456030001,-84.305635084,331,"124 PECAN DRIVE, GRIFFIN, GA, 30223","Match","Exact","124 PECAN DR, GRIFFIN, GA, 30223",23766572,"L"
40832,"124 PENN DRIVE","NICHOLASVILLE","KY",40356,37.8488964480001,-84.566865072,332,"124 PENN DRIVE, NICHOLASVILLE, KY, 40356","Match","Exact","124 PENN DR, NICHOLASVILLE, KY, 40356",38469228,"L"
40833,"124 PENNSYLVANIA AVE","BROOKLYN","NY",11207,40.6749558430001,-73.8966556189999,333,"124 PENNSYLVANIA AVE, BROOKLYN, NY, 11207","Match","Exact","124 PENNSYLVANIA AVE, BROOKLYN, NY, 11207",59084648,"R"
40834,"124 PEYTON ROAD","WILLIAMSBURG","VA",23185,37.2449243190001,-76.677379462,334,"124 PEYTON ROAD, WILLIAMSBURG, VA, 23185","Match","Exact","124 PEYTON RD, WILLIAMSBURG, VA, 23185",103748426,"R"
40835,"124 PIERCE PLANTATION ROAD","THIBODAUX","LA",70301,29.7522894040001,-90.7303343999999,335,"124 PIERCE PLANTATION ROAD, THIBODAUX, LA, 70301","Match","Exact","124 PIERCE PLANTATION RD, THIBODAUX, LA, 70301",92338557,"L"
40836,"124 PINEWOOD PL","THOMASVILLE","GA",31792,30.810779735,-83.983571178,336,"124 PINEWOOD PL, THOMASVILLE, GA, 31792","Match","Exact","124 PINEWOOD PL, THOMASVILLE, GA, 31792",83108939,"L"
40837,"124 PLEASANT RIDGE DR","EDWARDSVILLE","IL",62025,38.7822374300001,-89.9693747859999,337,"124 PLEASANT RIDGE DR, EDWARDSVILLE, IL, 62025","Match","Exact","124 PLEASANT RIDGE DR, EDWARDSVILLE, IL, 62025",107715744,"R"
40838,"124 POND EDGE LANE","CHAPIN","SC",29036,34.136123237,-81.286849284,338,"124 POND EDGE LANE, CHAPIN, SC, 29036","Match","Exact","124 POND EDGE LN, CHAPIN, SC, 29036",71837041,"L"
40839,"124 PROVIDENCE STREET","WEST WARWICK","RI",2893,41.7130806690001,-71.517268523,339,"124 PROVIDENCE STREET, WEST WARWICK, RI, 2893","Match","Exact","124 PROVIDENCE ST, WEST WARWICK, RI, 02893",650982890,"L"
40840,"124 RAMBLING TRAIL DR","LA VERNIA","TX",78121,29.3228387280001,-98.1420360709999,340,"124 RAMBLING TRAIL DR, LA VERNIA, TX, 78121","Match","Exact","124 RAMBLING TRAIL DR, LA VERNIA, TX, 78121",637202755,"L"
40841,"124 RAMSFORD LANE","SIMPSONVILLE","SC",29681,34.814650407,-82.216782385,341,"124 RAMSFORD LANE, SIMPSONVILLE, SC, 29681","Match","Exact","124 RAMSFORD LN, SIMPSONVILLE, SC, 29681",624809255,"R"
40842,"124 RANDOLPH ROAD","WHITE PLAINS","NY",10607,41.041219921,-73.784678389,342,"124 RANDOLPH ROAD, WHITE PLAINS, NY, 10607","Match","Exact","124 RANDOLPH RD, WHITE PLAINS, NY, 10607",139793345,"L"
40843,"124 RBOR VISTA DRIVE","OCEAN SPRINGS","MS",39564,NA,NA,343,"124 RBOR VISTA DRIVE, OCEAN SPRINGS, MS, 39564","No_Match",NA,NA,NA,NA
40844,"124 RED DEVIL DRIVE","LIBERTY","SC",29657,34.767845768,-82.703264097,344,"124 RED DEVIL DRIVE, LIBERTY, SC, 29657","Match","Exact","124 RED DEVIL DR, LIBERTY, SC, 29657",645219828,"R"
40845,"124 REGAL RD","BRUNSWICK","GA",31523,31.132622401,-81.572236157,345,"124 REGAL RD, BRUNSWICK, GA, 31523","Match","Exact","124 REGAL RD, BRUNSWICK, GA, 31523",647330452,"L"
40846,"124 RIVERCHASE LANE","MOORESVILLE","NC",28115,35.5572076990001,-80.758119661,346,"124 RIVERCHASE LANE, MOORESVILLE, NC, 28115","Match","Exact","124 RIVERCHASE LN, MOORESVILLE, NC, 28115",627825693,"R"
40847,"124 RIVERSIDE DRIVE SUITE 101","EUREKA","MT",59917,48.8744602190001,-115.043082364,347,"124 RIVERSIDE DRIVE SUITE 101, EUREKA, MT, 59917","Match","Exact","124 RIVERSIDE DR, EUREKA, MT, 59917",169649413,"L"
40848,"124 S 4TH STREET","MUSKOGEE","OK",74401,35.747514799,-95.3733722549999,348,"124 S 4TH STREET, MUSKOGEE, OK, 74401","Match","Exact","124 S 4TH ST, MUSKOGEE, OK, 74401",91962650,"R"
40849,"124 S 9TH STREET","FREDERICK","OK",73542,NA,NA,349,"124 S 9TH STREET, FREDERICK, OK, 73542","No_Match",NA,NA,NA,NA
40850,"124 S BROADWAY ST STE 104","FOREST CITY","NC",28043,NA,NA,350,"124 S BROADWAY ST STE 104, FOREST CITY, NC, 28043","Tie",NA,NA,NA,NA
40851,"124 S CENTRAL AVE","ELMSFORD","NY",10523,41.050989729,-73.822222956,351,"124 S CENTRAL AVE, ELMSFORD, NY, 10523","Match","Exact","124 S CENTRAL AVE, ELMSFORD, NY, 10523",139737465,"L"
40852,"124 S JOHNSON AVE","POCATELLO","ID",83204,42.8586922690001,-112.455459764,352,"124 S JOHNSON AVE, POCATELLO, ID, 83204","Match","Exact","124 S JOHNSON AVE, POCATELLO, ID, 83204",204351521,"L"
40853,"124 S MAIN ST","MOUNT PLEASANT","IA",52641,40.9662400440001,-91.553236434,353,"124 S MAIN ST, MOUNT PLEASANT, IA, 52641","Match","Exact","124 S MAIN ST, MOUNT PLEASANT, IA, 52641",16084482,"R"
40854,"124 S MAIN STREET","BRINKLEY","AR",72021,34.886790203,-91.194593635,354,"124 S MAIN STREET, BRINKLEY, AR, 72021","Match","Exact","124 S MAIN ST, BRINKLEY, AR, 72021",10911403,"L"
40855,"124 S MAIN STREET","BROWNSTOWN","IN",47220,38.8788920710001,-86.041964419,355,"124 S MAIN STREET, BROWNSTOWN, IN, 47220","Match","Exact","124 S MAIN ST, BROWNSTOWN, IN, 47220",31250987,"L"
40856,"124 S PARKBEND WAY","CALDWELL","ID",83605,43.6693784710001,-116.65820536,356,"124 S PARKBEND WAY, CALDWELL, ID, 83605","Match","Exact","124 PARKBEND WAY, CALDWELL, ID, 83605",633119684,"L"
40857,"124 S PHILLIPS AVENUE","SIOUX FALLS","SD",57104,43.546947194,-96.7267795069999,357,"124 S PHILLIPS AVENUE, SIOUX FALLS, SD, 57104","Match","Exact","124 S PHILLIPS AVE, SIOUX FALLS, SD, 57104",34972255,"L"
40858,"124 S POMPERAUG AVE","WOODBURY","CT",6798,41.5249928740001,-73.20476244,358,"124 S POMPERAUG AVE, WOODBURY, CT, 6798","Match","Exact","124 S POMPERAUG AVE, WOODBURY, CT, 06798",611471509,"R"
40859,"124 S SCALES STREET","REIDSVILLE","NC",27320,36.361201518,-79.6643024259999,359,"124 S SCALES STREET, REIDSVILLE, NC, 27320","Match","Exact","124 S SCALES ST, REIDSVILLE, NC, 27320",56217627,"L"
40860,"124 S WASHINGTON ST","FARMERSVILLE","TX",75442,33.1627441570001,-96.361202615,360,"124 S WASHINGTON ST, FARMERSVILLE, TX, 75442","Match","Exact","124 S WASHINGTON ST, FARMERSVILLE, TX, 75442",210473228,"L"
40861,"124 SANDALWOOD LANE","BOLINGBROOK","IL",60440,41.6989048980001,-88.119099109,361,"124 SANDALWOOD LANE, BOLINGBROOK, IL, 60440","Match","Exact","124 SANDALWOOD LN, BOLINGBROOK, IL, 60440",111567673,"L"
40862,"124 SLADE AVENUE","BALTIMORE","MD",21208,39.367522551,-76.719923631,362,"124 SLADE AVENUE, BALTIMORE, MD, 21208","Match","Exact","124 SLADE AVE, BALTIMORE, MD, 21208",645532614,"R"
40863,"124 SOUTH BROAD STREET - PO BOX 482","KENBRIDGE","VA",23944,36.9635897860001,-78.1239869729999,363,"124 SOUTH BROAD STREET - PO BOX 482, KENBRIDGE, VA, 23944","Match","Non_Exact","124 N BROAD ST, KENBRIDGE, VA, 23944",54262643,"R"
40864,"124 SOUTH MAIN ST SUITE 2C","JONESBORO","GA",30236,33.5165488650001,-84.353921868,364,"124 SOUTH MAIN ST SUITE 2C, JONESBORO, GA, 30236","Match","Exact","124 S MAIN ST, JONESBORO, GA, 30236",23317103,"R"
40865,"124 SOUTH PATH","MANITOU SPRINGS","CO",80829,38.8557817010001,-104.911094091,365,"124 SOUTH PATH, MANITOU SPRINGS, CO, 80829","Match","Exact","124 SOUTH PATH, MANITOU SPRINGS, CO, 80829",105553894,"R"
40866,"124 SPRINGFLOWER DR","NORWAY","SC",29113,33.4513953050001,-81.1332056909999,366,"124 SPRINGFLOWER DR, NORWAY, SC, 29113","Match","Exact","124 SPRINGFLOWER DR, NORWAY, SC, 29113",618716796,"L"
40867,"124 ST DELPHINE DR","THIBODAUX","LA",70301,29.816159181,-90.8114757499999,367,"124 ST DELPHINE DR, THIBODAUX, LA, 70301","Match","Exact","124 ST DELPHINE DR, THIBODAUX, LA, 70301",624543403,"R"
40868,"124 ST RTE 124","COOLVILLE","OH",45723,NA,NA,368,"124 ST RTE 124, COOLVILLE, OH, 45723","No_Match",NA,NA,NA,NA
40869,"124 STRAWTOWN ROAD","NEW CITY","NY",10956,41.1479576610001,-73.9663269609999,369,"124 STRAWTOWN ROAD, NEW CITY, NY, 10956","Match","Exact","124 STRAWTOWN RD, NEW CITY, NY, 10956",124597471,"L"
40870,"124 SUISUN COURT","VACAVILLE","CA",95688,38.3636506550001,-122.013951161,370,"124 SUISUN COURT, VACAVILLE, CA, 95688","Match","Exact","124 SUISUN CT, VACAVILLE, CA, 95688",192533849,"L"
40871,"124 SW WALNUT AVE","DALLAS","OR",97338,44.9264605640001,-123.315661029,371,"124 SW WALNUT AVE, DALLAS, OR, 97338","Match","Exact","124 SW WALNUT AVE, DALLAS, OR, 97338",155770729,"R"
40872,"124 TAIL SPIN CIR","BROCK","TX",76087,32.6512721020001,-97.9324353819999,372,"124 TAIL SPIN CIR, BROCK, TX, 76087","Match","Exact","124 TAIL SPIN CIR, BROCK, TX, 76087",103600136,"L"
40873,"124 TEA OLIVE AVE","LEXINGTON","SC",29073,33.8994894090001,-81.238081958,373,"124 TEA OLIVE AVE, LEXINGTON, SC, 29073","Match","Exact","124 TEA OLIVE AVE, LEXINGTON, SC, 29073",614121345,"L"
40874,"124 TEMPLE AVENUE N","FAYETTE","AL",35555,33.684977383,-87.830930498,374,"124 TEMPLE AVENUE N, FAYETTE, AL, 35555","Match","Exact","124 TEMPLE AVE N, FAYETTE, AL, 35555",120505747,"R"
40875,"124 THOMPSON ST","STAUNTON","VA",24401,38.1505612230001,-79.0882216589999,375,"124 THOMPSON ST, STAUNTON, VA, 24401","Match","Exact","124 THOMPSON ST, STAUNTON, VA, 24401",98848189,"L"
40876,"124 THUNDER RIDGE ROAD","HUDDLESTON","VA",24104,37.0731790460001,-79.533200576,376,"124 THUNDER RIDGE ROAD, HUDDLESTON, VA, 24104","Match","Exact","124 THUNDER RIDGE RD, HUDDLESTON, VA, 24104",228435496,"R"
40877,"124 TODD CENTER DRIVE","COLUMBIA","IL",62236,38.435332197,-90.174604243,377,"124 TODD CENTER DRIVE, COLUMBIA, IL, 62236","Match","Exact","124 TODD CENTER DR, COLUMBIA, IL, 62236",116444219,"R"
40878,"124 TOWNSHIP LINE RD","BUTLER","PA",16002,40.816784295,-79.91094327,378,"124 TOWNSHIP LINE RD, BUTLER, PA, 16002","Match","Exact","124 TOWNSHIP LINE RD, BUTLER, PA, 16002",645568302,"R"
40879,"124 TOWNSHIP LINE RD","PORT ANGELES","WA",98362,48.04356563,-123.335741848,379,"124 TOWNSHIP LINE RD, PORT ANGELES, WA, 98362","Match","Exact","124 TOWNSHIP LINE RD, PORT ANGELES, WA, 98362",606555516,"R"
40880,"124 TRACE RIDGE DRIVE","RIDGELAND","MS",39157,32.431365182,-90.120885892,380,"124 TRACE RIDGE DRIVE, RIDGELAND, MS, 39157","Match","Exact","124 TRACE RIDGE DR, RIDGELAND, MS, 39157",152480822,"L"
40881,"124 TREMONT AVE","PLEASANTVILLE","NJ",8232,39.3822847490001,-74.53499799,381,"124 TREMONT AVE, PLEASANTVILLE, NJ, 8232","Match","Exact","124 TREMONT AVE, PLEASANTVILLE, NJ, 08232",202486072,"R"
40882,"124 TUNNEL DRIVE","CANON CITY","CO",81212,38.436101444,-105.259359006,382,"124 TUNNEL DRIVE, CANON CITY, CO, 81212","Match","Exact","124 TUNNEL DR, CANON CITY, CO, 81212",637373489,"R"
40883,"124 TURNEY RD","FAIRFIELD","CT",6824,41.147129174,-73.242038231,383,"124 TURNEY RD, FAIRFIELD, CT, 6824","Match","Exact","124 TURNEY RD, FAIRFIELD, CT, 06824",3228397,"R"
40884,"124 US HIGHWAY 14A WEST","POWELL","WY",82435,NA,NA,384,"124 US HIGHWAY 14A WEST, POWELL, WY, 82435","No_Match",NA,NA,NA,NA
40885,"124 VANDERBILT AVE","WEST BABYLON","NY",11704,40.707866924,-73.339116874,385,"124 VANDERBILT AVE, WEST BABYLON, NY, 11704","Match","Exact","124 VANDERBILT AVE, WEST BABYLON, NY, 11704",113976856,"L"
40886,"124 VINE DRIVE","BRANDON","MS",39047,32.3566709580001,-89.97962656,386,"124 VINE DRIVE, BRANDON, MS, 39047","Match","Exact","124 VINE DR, BRANDON, MS, 39047",649676697,"R"
40887,"124 W 111TH PL","CHICAGO","IL",60628,41.6916459670001,-87.626398723,387,"124 W 111TH PL, CHICAGO, IL, 60628","Match","Exact","124 W 111TH PL, CHICAGO, IL, 60628",111833988,"R"
40888,"124 W ALLEGAN ST STE 700","LANSING","MI",48933,NA,NA,388,"124 W ALLEGAN ST STE 700, LANSING, MI, 48933","Tie",NA,NA,NA,NA
40889,"124 W BAY VIEW DR","ANNAPOLIS","MD",21403,38.9267231320001,-76.495792598,389,"124 W BAY VIEW DR, ANNAPOLIS, MD, 21403","Match","Exact","124 W BAY VIEW DR, ANNAPOLIS, MD, 21403",68173857,"R"
40890,"124 W BRANCH ST","ARROYO GRANDE","CA",93420,35.1224076280001,-120.582737219,390,"124 W BRANCH ST, ARROYO GRANDE, CA, 93420","Match","Exact","124 W BRANCH ST, ARROYO GRANDE, CA, 93420",639051970,"R"
40891,"124 W CAPITOL AVE SUITE 950","LITTLE ROCK","AR",72201,NA,NA,391,"124 W CAPITOL AVE SUITE 950, LITTLE ROCK, AR, 72201","Tie",NA,NA,NA,NA
40892,"124 W FREISTADT RD - 332","THIENSVILLE","WI",53092,NA,NA,392,"124 W FREISTADT RD - 332, THIENSVILLE, WI, 53092","Tie",NA,NA,NA,NA
40893,"124 W FREISTADT ROAD 594","THIENSVILLE","WI",53092,NA,NA,393,"124 W FREISTADT ROAD 594, THIENSVILLE, WI, 53092","Tie",NA,NA,NA,NA
40894,"124 W FREISTADT ROAD","THIENSVILLE","WI",53092,43.2361738340001,-87.985944799,394,"124 W FREISTADT ROAD, THIENSVILLE, WI, 53092","Match","Exact","124 W FREISTADT RD, THIENSVILLE, WI, 53092",612754714,"R"
40895,"124 W HAWTHORNE STREET","MOUNT HOLLY","NC",28120,NA,NA,395,"124 W HAWTHORNE STREET, MOUNT HOLLY, NC, 28120","Tie",NA,NA,NA,NA
40896,"124 W KING HENRY CT","PALATINE","IL",60067,42.133046472,-88.0469166089999,396,"124 W KING HENRY CT, PALATINE, IL, 60067","Match","Exact","124 W KING HENRY CT, PALATINE, IL, 60067",111836487,"R"
40897,"124 W LAFAYETTE ST","MEDINA","OH",44215,41.1342570630001,-81.8636066559999,397,"124 W LAFAYETTE ST, MEDINA, OH, 44215","Match","Non_Exact","124 LAFAYETTE ST, MEDINA, OH, 44256",58676344,"R"
40898,"124 W LAMAR STE C","AMERICUS","GA",31709,NA,NA,398,"124 W LAMAR STE C, AMERICUS, GA, 31709","No_Match",NA,NA,NA,NA
40899,"124 W MAIN STREET STE 240","EL CAJON","CA",92020,NA,NA,399,"124 W MAIN STREET STE 240, EL CAJON, CA, 92020","Tie",NA,NA,NA,NA
40900,"124 W MYRNA LN","TEMPE","AZ",85284,33.3286879340001,-111.939354107,400,"124 W MYRNA LN, TEMPE, AZ, 85284","Match","Exact","124 W MYRNA LN, TEMPE, AZ, 85284",128784653,"L"
40901,"124 W PIONEER PKWY","ARLINGTON","TX",76010,32.708046993,-97.108065819,401,"124 W PIONEER PKWY, ARLINGTON, TX, 76010","Match","Exact","124 W PIONEER PKWY, ARLINGTON, TX, 76010",102134411,"L"
40902,"124 W WASHINGTON STREET","MORRIS","IL",60450,41.3573437470001,-88.424129589,402,"124 W WASHINGTON STREET, MORRIS, IL, 60450","Match","Exact","124 W WASHINGTON ST, MORRIS, IL, 60450",54441817,"L"
40903,"124 W WASHINGTON","NEW IBERIA","LA",70560,30.005111415,-91.8210417189999,403,"124 W WASHINGTON, NEW IBERIA, LA, 70560","Match","Non_Exact","124 W WASHINGTON ST, NEW IBERIA, LA, 70560",85374545,"R"
40904,"124 WADSWORTH STREET","SYRACUSE","NY",13203,43.069913989,-76.13889554,404,"124 WADSWORTH STREET, SYRACUSE, NY, 13203","Match","Exact","124 WADSWORTH ST, SYRACUSE, NY, 13203",46569639,"R"
40905,"124 WALLIN ST","BRODHEAD","KY",40409,37.3990432480001,-84.418273111,405,"124 WALLIN ST, BRODHEAD, KY, 40409","Match","Exact","124 WALLIN ST, BRODHEAD, KY, 40409",98153239,"L"
40906,"124 WALNUT LANE","COLUMBUS","NC",28722,35.2277891460001,-82.193716557,406,"124 WALNUT LANE, COLUMBUS, NC, 28722","Match","Exact","124 WALNUT LN, COLUMBUS, NC, 28722",44316351,"R"
40907,"124 WARREN STREET","BENTLEYVILLE","PA",15314,40.1264551900001,-79.9997541609999,407,"124 WARREN STREET, BENTLEYVILLE, PA, 15314","Match","Exact","124 WARREN ST, BENTLEYVILLE, PA, 15314",52825224,"R"
40908,"124 WASHINGTON HEIGHTS","FOREST CITY","NC",28043,35.331410416,-81.8777395119999,408,"124 WASHINGTON HEIGHTS, FOREST CITY, NC, 28043","Match","Exact","124 WASHINGTON HTS, FOREST CITY, NC, 28043",19387476,"R"
40909,"124 WASHINGTON STREET","EAST GREENVILLE","PA",18041,40.4038421970001,-75.4983856279999,409,"124 WASHINGTON STREET, EAST GREENVILLE, PA, 18041","Match","Exact","124 WASHINGTON ST, E GREENVILLE, PA, 18041",135129739,"R"
40910,"124 WELCOME CHURCH LOOP","BOX SPRINGS","GA",31801,32.574312628,-84.593554619,410,"124 WELCOME CHURCH LOOP, BOX SPRINGS, GA, 31801","Match","Exact","124 WELCOME CHURCH LOOP, BOX SPRINGS, GA, 31801",76828127,"R"
40911,"124 WENTZ STREET","PHILADELPHIA","PA",19120,40.0360927850001,-75.12280792,411,"124 WENTZ STREET, PHILADELPHIA, PA, 19120","Match","Exact","124 WENTZ ST, PHILADELPHIA, PA, 19120",131419503,"L"
40912,"124 WEST 1ST STREET","FLINT","MI",48502,43.0155101610001,-83.691503385,412,"124 WEST 1ST STREET, FLINT, MI, 48502","Match","Exact","124 W FIRST ST, FLINT, MI, 48502",69568051,"R"
40913,"124 WEST ALLEGAN ST SUITE 1100","LANSING","MI",48933,42.7326481690001,-84.552733748,413,"124 WEST ALLEGAN ST SUITE 1100, LANSING, MI, 48933","Match","Exact","124 W ALLEGAN ST, LANSING, MI, 48933",17499257,"R"
40914,"124 WEST FAIRFIELD TERRACE","ROUND LAKE BEACH","IL",60073,42.3771939540001,-88.08682552,414,"124 WEST FAIRFIELD TERRACE, ROUND LAKE BEACH, IL, 60073","Match","Exact","124 W FAIRFIELD TER, ROUND LAKE BEACH, IL, 60073",119623860,"L"
40915,"124 WEST FRONT STREET","FREDERICA","DE",19946,39.0083897120001,-75.470619545,415,"124 WEST FRONT STREET, FREDERICA, DE, 19946","Match","Exact","124 W FRONT ST, FREDERICA, DE, 19946",68093904,"R"
40916,"124 WEST GORGAS LANE","PHILADELPHIA","PA",19119,40.0543341790001,-75.1890915509999,416,"124 WEST GORGAS LANE, PHILADELPHIA, PA, 19119","Match","Exact","124 W GORGAS LN, PHILADELPHIA, PA, 19119",131394490,"L"
40917,"124 WEST HILO ST","NAPLES","FL",34113,25.9830741100001,-81.7289199749999,417,"124 WEST HILO ST, NAPLES, FL, 34113","Match","Exact","124 W HILO ST, NAPLES, FL, 34113",115122120,"L"
40918,"124 WEST LINCOLN AVE","FERGUS FALLS","MN",56537,46.2835013810001,-96.0747090099999,418,"124 WEST LINCOLN AVE, FERGUS FALLS, MN, 56537","Match","Exact","124 W LINCOLN AVE, FERGUS FALLS, MN, 56537",168288828,"L"
40919,"124 WEST MICHIGAN AVENUE APT 201","YPSILANTI","MI",48197,42.241038917,-83.61349589,419,"124 WEST MICHIGAN AVENUE APT 201, YPSILANTI, MI, 48197","Match","Exact","124 W MICHIGAN AVE, YPSILANTI, MI, 48197",26020860,"R"
40920,"124 WEST MYRTLE STREET","ANGLETON","TX",77515,29.165484136,-95.432180312,420,"124 WEST MYRTLE STREET, ANGLETON, TX, 77515","Match","Exact","124 W MYRTLE ST, ANGLETON, TX, 77515",116578252,"L"
40921,"124 WEST OAK","YANTIS","TX",75497,32.930458468,-95.5885799709999,421,"124 WEST OAK, YANTIS, TX, 75497","Match","Exact","124 W OAK, YANTIS, TX, 75497",42972591,"R"
40922,"124 WEST ST","JUNEAU","WI",53039,43.4073430920001,-88.704786574,422,"124 WEST ST, JUNEAU, WI, 53039","Match","Exact","124 WEST ST, JUNEAU, WI, 53039",637816891,"R"
40923,"124 WESTMONT DRIVE","MIDDLETOWN","CT",6457,41.565705425,-72.677569572,423,"124 WESTMONT DRIVE, MIDDLETOWN, CT, 6457","Match","Exact","124 WESTMONT DR, MIDDLETOWN, CT, 06457",113888854,"L"
40924,"124 WESTOVER DRIVE","BRISTOL","TN",37620,36.587598164,-82.130354535,424,"124 WESTOVER DRIVE, BRISTOL, TN, 37620","Match","Exact","124 WESTOVER DR, BRISTOL, TN, 37620",127863898,"R"
40925,"124 WHARTON DRIVE","NEWARK","DE",19711,39.6955557520001,-75.749573749,425,"124 WHARTON DRIVE, NEWARK, DE, 19711","Match","Exact","124 WHARTON DR, NEWARK, DE, 19711",606357323,"R"
40926,"124 WILLIAMS AVE S","RENTON","WA",98057,47.482653037,-122.206599033,426,"124 WILLIAMS AVE S, RENTON, WA, 98057","Match","Exact","124 WILLIAMS AVE S, RENTON, WA, 98057",187007671,"L"
40927,"124 WOODLYN AVENUE","TROOPER","PA",19403,40.1420185630001,-75.395605955,427,"124 WOODLYN AVENUE, TROOPER, PA, 19403","Match","Exact","124 WOODLYN AVE, TROOPER, PA, 19403",635807847,"R"
40928,"124 WOODSTOCK AVE","PUTNAM","CT",6260,41.922964601,-71.9145573719999,428,"124 WOODSTOCK AVE, PUTNAM, CT, 6260","Match","Exact","124 WOODSTOCK AVE, PUTNAM, CT, 06260",56443775,"L"
40929,"124 WYCKOFF AVENUE APT 3R","BROOKLYN","NY",11237,40.703546977,-73.918013032,429,"124 WYCKOFF AVENUE APT 3R, BROOKLYN, NY, 11237","Match","Exact","124 WYCKOFF AVE, BROOKLYN, NY, 11237",59082908,"R"
40930,"124 YORK STREET","YORK","ME",3909,43.1457298720001,-70.6569283649999,430,"124 YORK STREET, YORK, ME, 3909","Match","Exact","124 YORK ST, YORK, ME, 03909",636214311,"R"
40931,"124-27 135TH PLACE","SOUTH OZONE PARK","NY",11420,40.6736474160001,-73.802681411,431,"124-27 135TH PLACE, SOUTH OZONE PARK, NY, 11420","Match","Exact","124-27 135TH PL, SOUTH OZONE PARK, NY, 11420",59715131,"L"
40932,"124","COVINGTON","KY",41011,NA,NA,432,"124, COVINGTON, KY, 41011","No_Match",NA,NA,NA,NA
40933,"1240 10TH AVE SW","ALBANY","OR",97321,44.6286606990001,-123.118597732,433,"1240 10TH AVE SW, ALBANY, OR, 97321","Match","Exact","1240 10TH AVE SW, ALBANY, OR, 97321",156070752,"R"
40934,"1240 2ND ST","MARQUETTE","MI",49855,46.555014391,-87.393532556,434,"1240 2ND ST, MARQUETTE, MI, 49855","Match","Exact","1240 2ND ST, MARQUETTE, MI, 49855",182034541,"R"
40935,"1240 2ND ST","WASCO","CA",93280,35.5997261740001,-119.339708905,435,"1240 2ND ST, WASCO, CA, 93280","Match","Exact","1240 2ND ST, WASCO, CA, 93280",109009504,"R"
40936,"1240 33RD ST","SAN DIEGO","CA",92102,32.71820733,-117.123185646,436,"1240 33RD ST, SAN DIEGO, CA, 92102","Match","Exact","1240 33RD ST, SAN DIEGO, CA, 92102",612868763,"L"
40937,"1240 4H PARK DRIVE","BLUFFTON","IN",46714,NA,NA,437,"1240 4H PARK DRIVE, BLUFFTON, IN, 46714","No_Match",NA,NA,NA,NA
40938,"1240 4TH ST NW 420","WASHINGTON","DC",20001,38.9066790110001,-77.016179326,438,"1240 4TH ST NW 420, WASHINGTON, DC, 20001","Match","Exact","1240 4TH ST NW, WASHINGTON, DC, 20001",76226477,"L"
40939,"1240 4TH STREET NE APT 601","WASHINGTON","DC",20002,38.906836549,-77.00057479,439,"1240 4TH STREET NE APT 601, WASHINGTON, DC, 20002","Match","Exact","1240 4TH ST NE, WASHINGTON, DC, 20002",76229660,"L"
40940,"1240 BATON DR","DELTONA","FL",32725,28.9045705020001,-81.239450375,440,"1240 BATON DR, DELTONA, FL, 32725","Match","Exact","1240 BATON DR, DELTONA, FL, 32725",94502706,"R"
40941,"1240 BAY VIEW WAY","WELLINGTON","FL",33414,26.664963872,-80.2146944,441,"1240 BAY VIEW WAY, WELLINGTON, FL, 33414","Match","Exact","1240 BAY VIEW WAY, WELLINGTON, FL, 33414",618581766,"R"
40942,"1240 BERGEN PARKWAY SUITE A-250-3","EVERGREEN","CO",80439,39.69302148,-105.356762796,442,"1240 BERGEN PARKWAY SUITE A-250-3, EVERGREEN, CO, 80439","Match","Exact","1240 BERGEN PKWY, EVERGREEN, CO, 80439",637907834,"L"
40943,"1240 BERRIER ROAD","LEXINGTON","NC",27295,35.94518135,-80.269037855,443,"1240 BERRIER ROAD, LEXINGTON, NC, 27295","Match","Exact","1240 BERRIER RD, LEXINGTON, NC, 27295",647179675,"R"
40944,"1240 BRIARBEND WAY","GREENCASTLE","PA",17225,39.779680291,-77.7417680519999,444,"1240 BRIARBEND WAY, GREENCASTLE, PA, 17225","Match","Exact","1240 BRIARBEND WAY, GREENCASTLE, PA, 17225",616760705,"R"
40945,"1240 CALIFORNIA ST 1635","YUCAIPA","CA",92399,NA,NA,445,"1240 CALIFORNIA ST 1635, YUCAIPA, CA, 92399","No_Match",NA,NA,NA,NA
40946,"1240 CALLE 7 EXT SAN AGUSTIN","SAN JUAN","PR",926,18.3926272840001,-66.039134039,446,"1240 CALLE 7 EXT SAN AGUSTIN, SAN JUAN, PR, 926","Match","Non_Exact","1240 CLL 7, SAN JUAN, PR, 00926",206610057,"R"
40947,"1240 CLINTON STREET","NOBLESVILLE","IN",46060,40.0474963660001,-86.009275819,447,"1240 CLINTON STREET, NOBLESVILLE, IN, 46060","Match","Exact","1240 CLINTON ST, NOBLESVILLE, IN, 46060",29291227,"R"
40948,"1240 CLOVERFIELD DRIVE","BEL AIR","MD",21015,39.556201188,-76.313493178,448,"1240 CLOVERFIELD DRIVE, BEL AIR, MD, 21015","Match","Exact","1240 CLOVERFIELD DR, BEL AIR, MD, 21015",650922619,"R"
40949,"1240 COLORADO BLVD UNIT 23","DENVER","CO",80206,39.7352186580001,-104.940592244,449,"1240 COLORADO BLVD UNIT 23, DENVER, CO, 80206","Match","Exact","1240 COLORADO BLVD, DENVER, CO, 80206",177311365,"R"
40950,"1240 CR KA","HARTSHORN","MO",65479,37.299153975,-91.634257915,450,"1240 CR KA, HARTSHORN, MO, 65479","Match","Non_Exact","1240 CR K A, HARTSHORN, MO, 65479",81977134,"R"
40951,"1240 E HANLEY AVE","DALTON GARDENS","ID",83815,47.729789655,-116.769496056,451,"1240 E HANLEY AVE, DALTON GARDENS, ID, 83815","Match","Exact","1240 E HANLEY AVE, DALTON GARDENS, ID, 83815",192901735,"L"
40952,"1240 E KALAMA AVENUE","MADISON HEIGHTS","MI",48071,42.482253314,-83.092123565,452,"1240 E KALAMA AVENUE, MADISON HEIGHTS, MI, 48071","Match","Exact","1240 E KALAMA AVE, MADISON HEIGHTS, MI, 48071",69748312,"R"
40953,"1240 E ONTARIO AVE SUITE 102-170","CORONA","CA",92881,33.847879687,-117.542171619,453,"1240 E ONTARIO AVE SUITE 102-170, CORONA, CA, 92881","Match","Exact","1240 ONTARIO AVE, CORONA, CA, 92881",608987688,"R"
40954,"1240 E ONTARIO AVE SUITE 102-195","CORONA","CA",92881,33.847879687,-117.542171619,454,"1240 E ONTARIO AVE SUITE 102-195, CORONA, CA, 92881","Match","Exact","1240 ONTARIO AVE, CORONA, CA, 92881",608987688,"R"
40955,"1240 E PLAZA BLVD  SUITE 604 366","NATIONAL CITY","CA",91950,32.6771381290001,-117.093585931,455,"1240 E PLAZA BLVD  SUITE 604 366, NATIONAL CITY, CA, 91950","Match","Non_Exact","1240 E PLAZA BLVD, NATIONAL CITY, CA, 91950",195667549,"R"
40956,"1240 E VERLEA DRIVE","TEMPE","AZ",85282,33.402795171,-111.918390074,456,"1240 E VERLEA DRIVE, TEMPE, AZ, 85282","Match","Exact","1240 E VERLEA DR, TEMPE, AZ, 85282",128232110,"L"
40957,"1240 FONGER ST NE","SPARTA","MI",49345,43.138694817,-85.638927589,457,"1240 FONGER ST NE, SPARTA, MI, 49345","Match","Exact","1240 FONGER ST NE, SPARTA, MI, 49345",633508025,"R"
40958,"1240 GARDEN RD","MARRERO","LA",70072,29.8892463610001,-90.1201380909999,458,"1240 GARDEN RD, MARRERO, LA, 70072","Match","Exact","1240 GARDEN RD, MARRERO, LA, 70072",93505772,"R"
40959,"1240 GRAY AVENUE","UNION","NJ",7083,40.6946306570001,-74.243907613,459,"1240 GRAY AVENUE, UNION, NJ, 7083","Match","Exact","1240 GRAY AVE, UNION, NJ, 07083",60576468,"L"
40960,"1240 HAMPTON BLVD 435","NORTH LAUDERDALE","FL",33068,26.21269155,-80.228560694,460,"1240 HAMPTON BLVD 435, NORTH LAUDERDALE, FL, 33068","Match","Exact","1240 HAMPTON BLVD, N LAUDERDALE, FL, 33068",638638079,"L"
40961,"1240 HARRINGTON DRIVE","KNOXVILLE","TN",37922,35.8946694030001,-84.037790555,461,"1240 HARRINGTON DRIVE, KNOXVILLE, TN, 37922","Match","Exact","1240 HARRINGTON DR, KNOXVILLE, TN, 37922",42634014,"L"
40962,"1240 HEMLOCK STREET","NAPA","CA",94559,38.284910107,-122.290771352,462,"1240 HEMLOCK STREET, NAPA, CA, 94559","Match","Exact","1240 HEMLOCK ST, NAPA, CA, 94559",67417118,"L"
40963,"1240 HIGHWAY 138","CONYERS","GA",30094,33.634770115,-84.024728206,463,"1240 HIGHWAY 138, CONYERS, GA, 30094","Match","Non_Exact","1240 STATE RTE 138, CONYERS, GA, 30094",23749973,"L"
40964,"1240 HOHLFELDER ROAD","GLENCOE","IL",60022,42.1446869100001,-87.775066012,464,"1240 HOHLFELDER ROAD, GLENCOE, IL, 60022","Match","Exact","1240 HOHLFELDER RD, GLENCOE, IL, 60022",111840071,"L"
40965,"1240 INDIA STREET - UNIT 2002","SAN DIEGO","CA",92101,32.7182129510001,-117.168280742,465,"1240 INDIA STREET - UNIT 2002, SAN DIEGO, CA, 92101","Match","Exact","1240 INDIA ST, SAN DIEGO, CA, 92101",195343400,"L"
40966,"1240 LAKE PARK BLVD STE 200","RICHARDSON","TX",75084,NA,NA,466,"1240 LAKE PARK BLVD STE 200, RICHARDSON, TX, 75084","No_Match",NA,NA,NA,NA
40967,"1240 LINCOLN HWY","WAPAKONETA","OH",45895,40.583527776,-84.202783492,467,"1240 LINCOLN HWY, WAPAKONETA, OH, 45895","Match","Exact","1240 LINCOLN HWY, WAPAKONETA, OH, 45895",647348708,"R"
40968,"1240 MAIN ST SUITE 2","GREEN BAY","WI",54302,44.5114564900001,-87.9978206,468,"1240 MAIN ST SUITE 2, GREEN BAY, WI, 54302","Match","Exact","1240 MAIN ST, GREEN BAY, WI, 54302",148102705,"R"
40969,"1240 MEMORIAL LANE","HUNTINGTON","IN",46750,40.8802974120001,-85.5107938799999,469,"1240 MEMORIAL LANE, HUNTINGTON, IN, 46750","Match","Exact","1240 MEMORIAL LN, HUNTINGTON, IN, 46750",6546140,"L"
40970,"1240 MENOHER DRIVE","JOINT BASE ANDREWS","MD",20762,NA,NA,470,"1240 MENOHER DRIVE, JOINT BASE ANDREWS, MD, 20762","No_Match",NA,NA,NA,NA
40971,"1240 METROPOLITAN PKWY","ATLANTA","GA",30310,33.720954928,-84.407849966,471,"1240 METROPOLITAN PKWY, ATLANTA, GA, 30310","Match","Non_Exact","1240 METROPOLITAN PKWY SW, ATLANTA, GA, 30310",17345477,"L"
40972,"1240 MOUNT KISCO DRIVE","CHARLOTTE","NC",28213,35.2753253170001,-80.786366497,472,"1240 MOUNT KISCO DRIVE, CHARLOTTE, NC, 28213","Match","Exact","1240 MOUNT KISCO DR, CHARLOTTE, NC, 28213",70480871,"R"
40973,"1240 N 129TH TERRACE","KANSAS CITY","KS",66109,39.1196172200001,-94.8798982929999,473,"1240 N 129TH TERRACE, KANSAS CITY, KS, 66109","Match","Exact","1240 N 129TH TER, KANSAS CITY, KS, 66109",648269005,"L"
40974,"1240 N OGDEN DR 11","WEST HOLLYWOOD","CA",90046,34.0932819020001,-118.359139418,474,"1240 N OGDEN DR 11, WEST HOLLYWOOD, CA, 90046","Match","Non_Exact","1240 N OGDEN DR, W HOLLYWOOD, CA, 90046",141598350,"R"
40975,"1240 NW 50 STREET","DEERFIELD BEACH","FL",33442,26.2918635510001,-80.141484416,475,"1240 NW 50 STREET, DEERFIELD BEACH, FL, 33442","Match","Exact","1240 NW 50TH ST, DEERFIELD BEACH, FL, 33442",114771894,"L"
40976,"1240 OCOTILLO DR","EL CENTRO","CA",92243,32.776658141,-115.565981346,476,"1240 OCOTILLO DR, EL CENTRO, CA, 92243","Match","Exact","1240 OCOTILLO DR, EL CENTRO, CA, 92243",194495991,"L"
40977,"1240 OLD MANCHESTER RD","CHELSEA","MI",48118,42.3048413920001,-84.024371201,477,"1240 OLD MANCHESTER RD, CHELSEA, MI, 48118","Match","Exact","1240 OLD MANCHESTER RD, CHELSEA, MI, 48118",653388233,"R"
40978,"1240 OLD RIVER ROAD","CARTHAGE","NC",28327,35.3897717630001,-79.341644753,478,"1240 OLD RIVER ROAD, CARTHAGE, NC, 28327","Match","Exact","1240 OLD RIVER RD, CARTHAGE, NC, 28327",20346256,"L"
40979,"1240 PACKSADDLE TRAIL","PROSPER","TX",75078,33.2514171830001,-96.787236079,479,"1240 PACKSADDLE TRAIL, PROSPER, TX, 75078","Match","Exact","1240 PACKSADDLE TRL, PROSPER, TX, 75078",618762298,"R"
40980,"1240 PEPPERMILL LANE","SPRINGDALE","AR",72762,36.195740147,-94.151263247,480,"1240 PEPPERMILL LANE, SPRINGDALE, AR, 72762","Match","Exact","1240 PEPPERMILL LN, SPRINGDALE, AR, 72762",49061790,"R"
40981,"1240 PINE GROVE ST-PO BOX 2038","BRISTOL","PA",19007,40.101421159,-74.843149768,481,"1240 PINE GROVE ST-PO BOX 2038, BRISTOL, PA, 19007","Match","Non_Exact","1240 PINE GROVE ST, BRISTOL, PA, 19007",134804671,"R"
40982,"1240 POTTER AVE","ROCKWALL","TX",75087,32.956594764,-96.4745605269999,482,"1240 POTTER AVE, ROCKWALL, TX, 75087","Match","Exact","1240 POTTER AVE, ROCKWALL, TX, 75087",213565766,"R"
40983,"1240 POWELL STREET","EMERYVILLE","CA",94608,37.8401639800001,-122.286155373,483,"1240 POWELL STREET, EMERYVILLE, CA, 94608","Match","Exact","1240 POWELL ST, EMERYVILLE, CA, 94608",124994424,"R"
40984,"1240 RALEIGH STREET","DENVER","CO",80204,39.735893936,-105.041617226,484,"1240 RALEIGH STREET, DENVER, CO, 80204","Match","Exact","1240 RALEIGH ST, DENVER, CO, 80204",177386076,"R"
40985,"1240 RANDOLPH ST NE","WASHINGTON","DC",20017,38.9383189960001,-76.9894285949999,485,"1240 RANDOLPH ST NE, WASHINGTON, DC, 20017","Match","Exact","1240 RANDOLPH ST NE, WASHINGTON, DC, 20017",76228340,"L"
40986,"1240 RAY CHARLES BLVD APT 401","TAMPA","FL",33602,NA,NA,486,"1240 RAY CHARLES BLVD APT 401, TAMPA, FL, 33602","No_Match",NA,NA,NA,NA
40987,"1240 ROSECRANS AVENUE","MANHATTAN BEACH","CA",90266,33.9018651760001,-118.38995964,487,"1240 ROSECRANS AVENUE, MANHATTAN BEACH, CA, 90266","Match","Exact","1240 ROSECRANS AVE, MANHATTAN BEACH, CA, 90266",642867646,"R"
40988,"1240 ROUTE 130","ROBBINSVILLE","NJ",8691,40.237501066,-74.5845715199999,488,"1240 ROUTE 130, ROBBINSVILLE, NJ, 8691","Match","Non_Exact","1240 US HWY 130, ROBBINSVILLE, NJ, 08691",60223560,"R"
40989,"1240 S BROAD ST STE 220","LANSDALE","PA",19446,NA,NA,489,"1240 S BROAD ST STE 220, LANSDALE, PA, 19446","Tie",NA,NA,NA,NA
40990,"1240 S ESPINA ST","LAS CRUCES","NM",88001,32.2993366150001,-106.765687319,490,"1240 S ESPINA ST, LAS CRUCES, NM, 88001","Match","Exact","1240 S ESPINA ST, LAS CRUCES, NM, 88001",189545448,"R"
40991,"1240 SAMPSON STREET","HOUSTON","TX",77003,29.742746384,-95.345811439,491,"1240 SAMPSON STREET, HOUSTON, TX, 77003","Match","Exact","1240 SAMPSON ST, HOUSTON, TX, 77003",96073492,"R"
40992,"1240 SANCTUARY DR","OVIEDO","FL",32766,28.654360812,-81.155436272,492,"1240 SANCTUARY DR, OVIEDO, FL, 32766","Match","Exact","1240 SANCTUARY DR, OVIEDO, FL, 32766",93790726,"R"
40993,"1240 SANFORD STREET","MUSKEGON","MI",49441,43.2298894960001,-86.2453637369999,493,"1240 SANFORD STREET, MUSKEGON, MI, 49441","Match","Exact","1240 SANFORD ST, MUSKEGON, MI, 49441",77651350,"L"
40994,"1240 SHERMAN AVENUE","BRONX","NY",10456,40.8344420700001,-73.915495597,494,"1240 SHERMAN AVENUE, BRONX, NY, 10456","Match","Exact","1240 SHERMAN AVE, BRONX, NY, 10456",80299887,"R"
40995,"1240 SIGMAN ROAD SUITE 109","CONYERS","GA",30012,NA,NA,495,"1240 SIGMAN ROAD SUITE 109, CONYERS, GA, 30012","Tie",NA,NA,NA,NA
40996,"1240 SOUTH SHERBOURNE DR UNIT 105","LOS ANGELES","CA",90035,34.055004872,-118.37946967,496,"1240 SOUTH SHERBOURNE DR UNIT 105, LOS ANGELES, CA, 90035","Match","Exact","1240 S SHERBOURNE DR, LOS ANGELES, CA, 90035",141573075,"L"
40997,"1240 TAHOE CT","ROCKINGHAM","VA",22801,38.3928877380001,-78.839221561,497,"1240 TAHOE CT, ROCKINGHAM, VA, 22801","Match","Exact","1240 TAHOE CT, ROCKINGHAM, VA, 22801",55730183,"R"
40998,"1240 TAYLORSVILLE ROAD","LENOIR","NC",28645,35.918618574,-81.489637102,498,"1240 TAYLORSVILLE ROAD, LENOIR, NC, 28645","Match","Non_Exact","1240 TAYLORSVILLE RD SE, LENOIR, NC, 28645",45862670,"L"
40999,"1240 TUCKALEECHEE TRAIL","MARYVILLE","TN",37803,35.750655372,-83.914497121,499,"1240 TUCKALEECHEE TRAIL, MARYVILLE, TN, 37803","Match","Exact","1240 TUCKALEECHEE TRL, MARYVILLE, TN, 37803",89840146,"R"
41000,"1240 W 57TH TER","KANSAS CITY","MO",64113,39.02347295,-94.604049246,500,"1240 W 57TH TER, KANSAS CITY, MO, 64113","Match","Non_Exact","1240 W 57TH TER, KANSAS CITY, MO, 64113",91447167,"R"
