"ID","Address","City","State","Zip","lat","long","id","input_address","match_indicator","match_type","matched_address","tiger_line_id","tiger_side"
19501,"11 YARDLEY COURT","SICKLERVILLE","NJ",8081,39.757421891,-74.9859417499999,1,"11 YARDLEY COURT, SICKLERVILLE, NJ, 8081","Match","Exact","11 YARDLEY CT, SICKLERVILLE, NJ, 08081",134375928,"L"
19502,"11-10 150TH STREET","WHITESTONE","NY",11357,40.7913594390001,-73.814815414,2,"11-10 150TH STREET, WHITESTONE, NY, 11357","Match","Exact","11-10 150TH ST, WHITESTONE, NY, 11357",59700602,"R"
19503,"11-13 MAPLE AVE FLOOR 3","NORTHAMPTON","MA",1060,42.315881882,-72.630905417,3,"11-13 MAPLE AVE FLOOR 3, NORTHAMPTON, MA, 1060","Match","Exact","11 MAPLE AVE, NORTHAMPTON, MA, 01060",39849897,"R"
19504,"11-15 N 2ND STREET 403","PHILADELPHIA","PA",19106,NA,NA,4,"11-15 N 2ND STREET 403, PHILADELPHIA, PA, 19106","Tie",NA,NA,NA,NA
19505,"11-22 44TH ROAD SUITE 200","SUNNYSIDE","NY",11101,40.7491757540001,-73.9487942,5,"11-22 44TH ROAD SUITE 200, SUNNYSIDE, NY, 11101","Match","Non_Exact","11-22 44TH RD, LONG IS CITY, NY, 11101",59691892,"R"
19506,"11-25 45TH AVENUE APT AE","LONG ISLAND CITY","NY",11101,40.747677584,-73.949200698,6,"11-25 45TH AVENUE APT AE, LONG ISLAND CITY, NY, 11101","Match","Exact","11-25 45TH AVE, LONG ISLAND CITY, NY, 11101",59691907,"L"
19507,"11-2996 APELE ROAD","MOUNTAIN VIEW","HI",96771,19.492000954,-155.092871402,7,"11-2996 APELE ROAD, MOUNTAIN VIEW, HI, 96771","Match","Exact","11-2996 APELE RD, MOUNTAIN VIEW, HI, 96771",638509644,"L"
19508,"11-58 49TH AVE APT 4A","LONG ISLAND CITY","NY",11101,40.7426342160001,-73.949835354,8,"11-58 49TH AVE APT 4A, LONG ISLAND CITY, NY, 11101","Match","Exact","11-58 49TH AVE, LONG ISLAND CITY, NY, 11101",59729875,"R"
19509,"11-B 2ND STREET","WORCESTER","MA",1602,42.2553191740001,-71.847996267,9,"11-B 2ND STREET, WORCESTER, MA, 1602","Match","Exact","11 2ND ST, WORCESTER, MA, 01602",40074970,"L"
19510,"11-B CARDINAL DR","ORMOND BEACH","FL",32176,29.2722170160001,-81.038625596,10,"11-B CARDINAL DR, ORMOND BEACH, FL, 32176","Match","Exact","11 CARDINAL DR, ORMOND BEACH, FL, 32176",94523163,"L"
19511,"11","EAST PROVIDENCE","RI",2914,NA,NA,11,"11, EAST PROVIDENCE, RI, 2914","No_Match",NA,NA,NA,NA
19512,"11","ESCONDIDO","CA",92025,NA,NA,12,"11, ESCONDIDO, CA, 92025","No_Match",NA,NA,NA,NA
19513,"11","PHOENIX","MD",21131,NA,NA,13,"11, PHOENIX, MD, 21131","No_Match",NA,NA,NA,NA
19514,"11","SAN FRANCISCO","CA",94133,NA,NA,14,"11, SAN FRANCISCO, CA, 94133","No_Match",NA,NA,NA,NA
19515,"11","SHARON","MA",2067,NA,NA,15,"11, SHARON, MA, 2067","No_Match",NA,NA,NA,NA
19516,"11","TRAVELERS REST","SC",29690,NA,NA,16,"11, TRAVELERS REST, SC, 29690","No_Match",NA,NA,NA,NA
19517,"110 1/2 W 1ST STREET","SUMNER","IA",50674,42.84745845,-92.097987847,17,"110 1/2 W 1ST STREET, SUMNER, IA, 50674","Match","Exact","110 W 1ST ST, SUMNER, IA, 50674",77344733,"R"
19518,"110 1/2 W WESTOVER DR","TYLERTOWN","MS",39667,31.112457224,-90.1580545419999,18,"110 1/2 W WESTOVER DR, TYLERTOWN, MS, 39667","Match","Exact","110 W WESTOVER DR, TYLERTOWN, MS, 39667",82574232,"L"
19519,"110 18 STREET","BELLEAIR BEACH","FL",33786,27.9232797990001,-82.842917668,19,"110 18 STREET, BELLEAIR BEACH, FL, 33786","Match","Exact","110 18TH ST, BELLEAIR BCH, FL, 33786",124663046,"R"
19520,"110 20TH AVENUE NE","ST PETERSBURG","FL",33704,27.790545939,-82.634270606,20,"110 20TH AVENUE NE, ST PETERSBURG, FL, 33704","Match","Exact","110 20TH AVE NE, SAINT PETERSBURG, FL, 33704",124713197,"R"
19521,"110 28TH STREET SW","MINOT","ND",58701,48.2352333420001,-101.335011346,21,"110 28TH STREET SW, MINOT, ND, 58701","Match","Exact","110 28TH ST SW, MINOT, ND, 58701",200489696,"L"
19522,"110 2ND AVENUE NE","DECATUR","AL",35601,34.6040772580001,-86.985053664,22,"110 2ND AVENUE NE, DECATUR, AL, 35601","Match","Exact","110 2ND AVE NE, DECATUR, AL, 35601",97113725,"R"
19523,"110 2ND ST UNIT 106","CAMBRIDGE","MA",2141,42.367909459,-71.079278543,23,"110 2ND ST UNIT 106, CAMBRIDGE, MA, 2141","Match","Exact","110 2ND ST, CAMBRIDGE, MA, 02141",86870907,"L"
19524,"110 2ND STREET","PORTAGE","PA",15946,40.3984180310001,-78.669758889,24,"110 2ND STREET, PORTAGE, PA, 15946","Match","Exact","110 2ND ST, PORTAGE, PA, 15946",50239975,"L"
19525,"110 3RD AVE N","HORACE","ND",58047,46.7629372650001,-96.906418722,25,"110 3RD AVE N, HORACE, ND, 58047","Match","Exact","110 3RD AVE N, HORACE, ND, 58047",151465632,"R"
19526,"110 3RD ST SW","WINTER HAVEN","FL",33880,28.0212134110001,-81.730502889,26,"110 3RD ST SW, WINTER HAVEN, FL, 33880","Match","Exact","110 3RD ST SW, WINTER HAVEN, FL, 33880",104823897,"R"
19527,"110 44TH ST","SANDUSKY","OH",44870,41.4346718190001,-82.698597298,27,"110 44TH ST, SANDUSKY, OH, 44870","Match","Exact","110 44TH ST, SANDUSKY, OH, 44870",55325139,"R"
19528,"110 5TH ST NE","BONDURANT","IA",50035,41.7058714070001,-93.463027134,28,"110 5TH ST NE, BONDURANT, IA, 50035","Match","Exact","110 5TH ST NE, BONDURANT, IA, 50035",65842515,"L"
19529,"110 7TH AVE S","KIRKLAND","WA",98033,47.670417532,-122.204979924,29,"110 7TH AVE S, KIRKLAND, WA, 98033","Match","Exact","110 7TH AVE S, KIRKLAND, WA, 98033",186603510,"L"
19530,"110 8TH STREET COMMONS WEST","TROY","NY",12180,42.731720459,-73.683877127,30,"110 8TH STREET COMMONS WEST, TROY, NY, 12180","Match","Exact","110 8TH ST, TROY, NY, 12180",639392576,"R"
19531,"110 9TH LANE NE","FAIRFIELD","MT",59436,47.6270186180001,-111.794961411,31,"110 9TH LANE NE, FAIRFIELD, MT, 59436","Match","Exact","110 9TH LN NE, FAIRFIELD, MT, 59436",202614601,"L"
19532,"110 A NAMAUU PL","KIHEI","HI",96753,20.7572503270001,-156.453900942,32,"110 A NAMAUU PL, KIHEI, HI, 96753","Match","Exact","110 NAMAUU PL, KIHEI, HI, 96753",85067633,"L"
19533,"110 ADDISON HILL ROAD","ELKLAND","PA",16920,NA,NA,33,"110 ADDISON HILL ROAD, ELKLAND, PA, 16920","No_Match",NA,NA,NA,NA
19534,"110 AL-JENNAH BLVD","LOCUST  GROVE","GA",30248,33.3298494860001,-84.093708941,34,"110 AL-JENNAH BLVD, LOCUST  GROVE, GA, 30248","Match","Exact","110 AL-JENNAH BLVD, LOCUST GROVE, GA, 30248",618488777,"L"
19535,"110 ALCOLADE DRIVE EAST","SHIRLY","NY",11967,40.7669653930001,-72.858009556,35,"110 ALCOLADE DRIVE EAST, SHIRLY, NY, 11967","Match","Non_Exact","110 ALCOLADE DR E, SHIRLEY, NY, 11967",114019560,"L"
19536,"110 ALTAMONT TERRACE","TRAVELERS REST","SC",29690,34.9495365650001,-82.435327413,36,"110 ALTAMONT TERRACE, TRAVELERS REST, SC, 29690","Match","Exact","110 ALTAMONT TER, TRAVELERS REST, SC, 29690",38294903,"R"
19537,"110 AMERICAN BLVD UNIT 3","TURNERSVILLE","NJ",8012,39.723040526,-75.032671197,37,"110 AMERICAN BLVD UNIT 3, TURNERSVILLE, NJ, 8012","Match","Exact","110 AMERICAN BLVD, TURNERSVILLE, NJ, 08012",134614505,"R"
19538,"110 ANAWAN AVE","WEST ROXBURY","MA",2132,42.2832773270001,-71.1497123899999,38,"110 ANAWAN AVE, WEST ROXBURY, MA, 2132","Match","Exact","110 ANAWAN AVE, WEST ROXBURY, MA, 02132",85702819,"L"
19539,"110 ANGLE STREET","CHERRYVILLE","NC",28021,35.375872628,-81.377260585,39,"110 ANGLE STREET, CHERRYVILLE, NC, 28021","Match","Exact","110 ANGLE ST, CHERRYVILLE, NC, 28021",70369564,"L"
19540,"110 ARNOLD AVE SUITE 125","WHITEMAN AFB","MO",65305,NA,NA,40,"110 ARNOLD AVE SUITE 125, WHITEMAN AFB, MO, 65305","No_Match",NA,NA,NA,NA
19541,"110 ASHLEY CT","WEST COLUMBIA","SC",29169,34.002511532,-81.072485198,41,"110 ASHLEY CT, WEST COLUMBIA, SC, 29169","Match","Exact","110 ASHLEY CT, WEST COLUMBIA, SC, 29169",70071682,"R"
19542,"110 ASHWOOD AVENUE","SUMMIT","NJ",7901,40.7059235150001,-74.3514927479999,42,"110 ASHWOOD AVENUE, SUMMIT, NJ, 7901","Match","Exact","110 ASHWOOD AVE, SUMMIT, NJ, 07901",60605387,"L"
19543,"110 ATLANTIC AVENUE","LONG BRANCH","NJ",7740,40.3201116870001,-73.9840013479999,43,"110 ATLANTIC AVENUE, LONG BRANCH, NJ, 7740","Match","Exact","110 ATLANTIC AVE, LONG BRANCH, NJ, 07740",90532606,"L"
19544,"110 AULD BRASS ROAD","WALTERBORO","SC",29488,32.9339982380001,-80.66456018,44,"110 AULD BRASS ROAD, WALTERBORO, SC, 29488","Match","Exact","110 AULD BRASS RD, WALTERBORO, SC, 29488",19169245,"L"
19545,"110 AZALEA AVENUE","HUEYTOWN","AL",35023,33.4505521090001,-86.9780132339999,45,"110 AZALEA AVENUE, HUEYTOWN, AL, 35023","Match","Exact","110 AZALEA AVE, HUEYTOWN, AL, 35023",81714029,"L"
19546,"110 AZALEA STREET","RACELAND","LA",70394,29.675179869,-90.6225588789999,46,"110 AZALEA STREET, RACELAND, LA, 70394","Match","Exact","110 AZALEA ST, RACELAND, LA, 70394",92343161,"L"
19547,"110 B 8TH ST PO BOX 552","STERLING CITY","TX",76951,31.840499057,-100.977708964,47,"110 B 8TH ST PO BOX 552, STERLING CITY, TX, 76951","Match","Exact","110 8TH ST, STERLING CITY, TX, 76951",186011269,"R"
19548,"110 B APPLECROSS ROAD","PINEHURST","NC",28374,35.179805937,-79.435308565,48,"110 B APPLECROSS ROAD, PINEHURST, NC, 28374","Match","Exact","110 APPLECROSS RD, PINEHURST, NC, 28374",20337423,"L"
19549,"110 BANK ST SE SUITE 405","MINNEAPOLIS","MN",55414,44.986867311,-93.256359647,49,"110 BANK ST SE SUITE 405, MINNEAPOLIS, MN, 55414","Match","Exact","110 BANK ST SE, MINNEAPOLIS, MN, 55414",43632937,"R"
19550,"110 BANKRIDGE RD","FORT MILL","SC",29715,NA,NA,50,"110 BANKRIDGE RD, FORT MILL, SC, 29715","No_Match",NA,NA,NA,NA
19551,"110 BEACHVIEW ROAD","EAST BOSTON","MA",2128,42.3914762740001,-71.005922603,51,"110 BEACHVIEW ROAD, EAST BOSTON, MA, 2128","Match","Exact","110 BEACHVIEW RD, EAST BOSTON, MA, 02128",85717946,"L"
19552,"110 BELLA CIMA DRIVE","AUSTIN","TX",78734,30.3826477650001,-97.951225994,52,"110 BELLA CIMA DRIVE, AUSTIN, TX, 78734","Match","Exact","110 BELLA CIMA DR, AUSTIN, TX, 78734",63998184,"L"
19553,"110 BELLEMEADE BLVD STE B","GRETNA","LA",70056,29.892515174,-90.036958334,53,"110 BELLEMEADE BLVD STE B, GRETNA, LA, 70056","Match","Exact","110 BELLEMEADE BLVD, GRETNA, LA, 70056",93510482,"R"
19554,"110 BELVEDERE","THERMOPOLIS","WY",82443,43.638180822,-108.221663158,54,"110 BELVEDERE, THERMOPOLIS, WY, 82443","Match","Non_Exact","110 BELVEDERE DR, THERMOPOLIS, WY, 82443",148934458,"L"
19555,"110 BEND FARM RD","FREDERICKSBURG","VA",22408,38.2731922090001,-77.4476596929999,55,"110 BEND FARM RD, FREDERICKSBURG, VA, 22408","Match","Exact","110 BEND FARM RD, FREDERICKSBURG, VA, 22408",85005753,"L"
19556,"110 BERKY ACRES ROAD","GREENSBURG","PA",15601,40.2680294640001,-79.4877554939999,56,"110 BERKY ACRES ROAD, GREENSBURG, PA, 15601","Match","Exact","110 BERKY ACRES RD, GREENSBURG, PA, 15601",53023656,"R"
19557,"110 BIRCH LANE","NAUGATUCK","CT",6770,41.4994868740001,-73.069282212,57,"110 BIRCH LANE, NAUGATUCK, CT, 6770","Match","Exact","110 BIRCH LN, NAUGATUCK, CT, 06770",3717045,"L"
19558,"110 BLACKFORD AVENUE","STATEN ISLAND","NY",10302,40.632303978,-74.1395609479999,58,"110 BLACKFORD AVENUE, STATEN ISLAND, NY, 10302","Match","Exact","110 BLACKFORD AVE, STATEN ISLAND, NY, 10302",59877607,"L"
19559,"110 BLACKWOOD CIR","FAYETTEVILLE","GA",30214,33.539389167,-84.470716185,59,"110 BLACKWOOD CIR, FAYETTEVILLE, GA, 30214","Match","Exact","110 BLACKWOOD CIR, FAYETTEVILLE, GA, 30214",75937930,"L"
19560,"110 BOEING AVE","HAMPTON","VA",23669,37.060866543,-76.349214861,60,"110 BOEING AVE, HAMPTON, VA, 23669","Match","Exact","110 BOEING AVE, HAMPTON, VA, 23669",103767094,"R"
19561,"110 BOULDERWOOD DRIVE","BERNARDSVILLE","NJ",7924,40.7237184350001,-74.604966699,61,"110 BOULDERWOOD DRIVE, BERNARDSVILLE, NJ, 7924","Match","Exact","110 BOULDERWOOD DR, BERNARDSVILLE, NJ, 07924",636226368,"L"
19562,"110 BRIDLEMERE AVENUE","INTERLAKEN","NJ",7712,40.2339211670001,-74.009614384,62,"110 BRIDLEMERE AVENUE, INTERLAKEN, NJ, 7712","Match","Exact","110 BRIDLEMERE AVE, INTERLAKEN, NJ, 07712",90463254,"L"
19563,"110 BRIGHTON CIRCLE","BRUNSWICK","GA",31525,31.2416718540001,-81.514602016,63,"110 BRIGHTON CIRCLE, BRUNSWICK, GA, 31525","Match","Exact","110 BRIGHTON CIR, BRUNSWICK, GA, 31525",211212186,"L"
19564,"110 BRISTOL RD","CHALFONT","PA",18914,40.288965283,-75.195188101,64,"110 BRISTOL RD, CHALFONT, PA, 18914","Match","Exact","110 BRISTOL RD, CHALFONT, PA, 18914",134727654,"R"
19565,"110 BROADWAY 303","BROOKLYN","NY",11249,40.710421511,-73.964985138,65,"110 BROADWAY 303, BROOKLYN, NY, 11249","Match","Exact","110 BROADWAY, BROOKLYN, NY, 11249",59096540,"R"
19566,"110 BROADWAY ST STE 530","SAN ANTONIO","TX",78205,29.426834946,-98.48787635,66,"110 BROADWAY ST STE 530, SAN ANTONIO, TX, 78205","Match","Non_Exact","110 BROADWAY, SAN ANTONIO, TX, 78205",101719151,"R"
19567,"110 BROADWAY ST STE 550","SAN ANTONIO","TX",78205,29.426834946,-98.48787635,67,"110 BROADWAY ST STE 550, SAN ANTONIO, TX, 78205","Match","Non_Exact","110 BROADWAY, SAN ANTONIO, TX, 78205",101719151,"R"
19568,"110 BROADWAY STE 360","SAN ANTONIO","TX",78205,29.426834946,-98.48787635,68,"110 BROADWAY STE 360, SAN ANTONIO, TX, 78205","Match","Exact","110 BROADWAY, SAN ANTONIO, TX, 78205",101719151,"R"
19569,"110 BROADWAY SUITE 170","SAN ANTONIO","TX",78205,29.426834946,-98.48787635,69,"110 BROADWAY SUITE 170, SAN ANTONIO, TX, 78205","Match","Exact","110 BROADWAY, SAN ANTONIO, TX, 78205",101719151,"R"
19570,"110 BROADWAY SUITE 500","SAN ANTONIO","TX",78205,29.426834946,-98.48787635,70,"110 BROADWAY SUITE 500, SAN ANTONIO, TX, 78205","Match","Exact","110 BROADWAY, SAN ANTONIO, TX, 78205",101719151,"R"
19571,"110 BROOKWOOD DRIVE","WESTBROOK","CT",6498,41.3041161680001,-72.4582319209999,71,"110 BROOKWOOD DRIVE, WESTBROOK, CT, 6498","Match","Exact","110 BROOKWOOD DR, WESTBROOK, CT, 06498",113892991,"L"
19572,"110 BROWN STREET","WAXAHACHIE","TX",75165,32.3926135400001,-96.8440548949999,72,"110 BROWN STREET, WAXAHACHIE, TX, 75165","Match","Exact","110 BROWN ST, WAXAHACHIE, TX, 75165",103451055,"L"
19573,"110 BRUCE STREET SUITE 204","SEVIERVILLE","TN",37862,35.8667598490001,-83.5633598429999,73,"110 BRUCE STREET SUITE 204, SEVIERVILLE, TN, 37862","Match","Exact","110 BRUCE ST, SEVIERVILLE, TN, 37862",107525651,"L"
19574,"110 BRUSH CREEK DRIVE","NEW LONDON","IA",52645,40.9171983360001,-91.409487805,74,"110 BRUSH CREEK DRIVE, NEW LONDON, IA, 52645","Match","Exact","110 BRUSH CREEK DR, NEW LONDON, IA, 52645",639958973,"R"
19575,"110 BYBERRY RD             UNIT O10","PHILADELPHIA","PA",19116,40.128142166,-75.0230722169999,75,"110 BYBERRY RD             UNIT O10, PHILADELPHIA, PA, 19116","Match","Exact","110 BYBERRY RD, PHILADELPHIA, PA, 19116",131439069,"R"
19576,"110 CALTON LANE","MOUNTAIN BROOK","AL",35213,NA,NA,76,"110 CALTON LANE, MOUNTAIN BROOK, AL, 35213","No_Match",NA,NA,NA,NA
19577,"110 CAMERON DR APT 202","ELIZABETH CITY","NC",27909,36.2846128400001,-76.2714583279999,77,"110 CAMERON DR APT 202, ELIZABETH CITY, NC, 27909","Match","Exact","110 CAMERON DR, ELIZABETH CITY, NC, 27909",629676370,"R"
19578,"110 CANNERY WAY","BERLIN","MD",21811,38.33161534,-75.202241994,78,"110 CANNERY WAY, BERLIN, MD, 21811","Match","Exact","110 CANNERY WAY, BERLIN, MD, 21811",648463739,"R"
19579,"110 CARLETTA STREET","BARNESVILLE","GA",30204,NA,NA,79,"110 CARLETTA STREET, BARNESVILLE, GA, 30204","No_Match",NA,NA,NA,NA
19580,"110 CARROLLTON CIRCLE","LAFAYETTE","LA",70503,30.149866074,-92.0660042119999,80,"110 CARROLLTON CIRCLE, LAFAYETTE, LA, 70503","Match","Non_Exact","110 CARROLTON CIR, LAFAYETTE, LA, 70503",85636949,"R"
19581,"110 CARSON RD","BATTLE MOUNTAIN","NV",89820,40.63308627,-116.950164607,81,"110 CARSON RD, BATTLE MOUNTAIN, NV, 89820","Match","Exact","110 CARSON RD, BATTLE MOUNTAIN, NV, 89820",140247247,"R"
19582,"110 CASENTINI ST APT C","SALINAS","CA",93907,36.6856192760001,-121.655191075,82,"110 CASENTINI ST APT C, SALINAS, CA, 93907","Match","Exact","110 CASENTINI ST, SALINAS, CA, 93907",196853083,"R"
19583,"110 CEDAR HILLS DR","FREDERICKSBURGS","TX",78624,30.287867771,-98.958991193,83,"110 CEDAR HILLS DR, FREDERICKSBURGS, TX, 78624","Match","Non_Exact","110 CEDAR HILLS DR, FREDERICKSBURG, TX, 78624",176835046,"L"
19584,"110 CEDAR RD  APT 27","AMITYVILLE","NY",11701,40.7102009130001,-73.411711371,84,"110 CEDAR RD  APT 27, AMITYVILLE, NY, 11701","Match","Exact","110 CEDAR RD, AMITYVILLE, NY, 11701",113971209,"L"
19585,"110 CEDAR RD SUITE 62","AMITYVILLE","NY",11701,40.7102009130001,-73.411711371,85,"110 CEDAR RD SUITE 62, AMITYVILLE, NY, 11701","Match","Exact","110 CEDAR RD, AMITYVILLE, NY, 11701",113971209,"L"
19586,"110 CENTRAL PLAZA SOUTH SUITE 436","CANTON","OH",44702,40.798295264,-81.3746213159999,86,"110 CENTRAL PLAZA SOUTH SUITE 436, CANTON, OH, 44702","Match","Exact","110 CENTRAL PLZ S, CANTON, OH, 44702",64682249,"L"
19587,"110 CENTRAL ST","SOMERVILLE","MA",2143,42.389888243,-71.1023950969999,87,"110 CENTRAL ST, SOMERVILLE, MA, 2143","Match","Exact","110 CENTRAL ST, SOMERVILLE, MA, 02143",86868962,"L"
19588,"110 CENTURY LANE","SILVER LAKE","MN",55381,44.903482024,-94.1899236789999,88,"110 CENTURY LANE, SILVER LAKE, MN, 55381","Match","Exact","110 CENTURY LN, SILVER LAKE, MN, 55381",36820332,"R"
19589,"110 CHAMPION DR","FAYETTEVILLE","GA",30214,33.517313276,-84.530100921,89,"110 CHAMPION DR, FAYETTEVILLE, GA, 30214","Match","Exact","110 CHAMPION DR, FAYETTEVILLE, GA, 30214",75929493,"R"
19590,"110 CHAPEL COURT","DOWNINGTOWN","PA",19335,40.0459995350001,-75.775646108,90,"110 CHAPEL COURT, DOWNINGTOWN, PA, 19335","Match","Exact","110 CHAPEL CT, DOWNINGTOWN, PA, 19335",613604162,"R"
19591,"110 CHAPMAN STREET","BUENA VISTA","GA",31803,32.3173593330001,-84.512276942,91,"110 CHAPMAN STREET, BUENA VISTA, GA, 31803","Match","Exact","110 CHAPMAN ST, BUENA VISTA, GA, 31803",30606007,"L"
19592,"110 CHARLESTON DR","MISHAWAKA","IN",46545,41.6889605740001,-86.181426034,92,"110 CHARLESTON DR, MISHAWAKA, IN, 46545","Match","Exact","110 CHARLESTON DR, MISHAWAKA, IN, 46545",651071183,"L"
19593,"110 CHARLESTON DRIVE","MOORESVILLE","NC",28117,35.579789174,-80.8815310689999,93,"110 CHARLESTON DRIVE, MOORESVILLE, NC, 28117","Match","Exact","110 CHARLESTON DR, MOORESVILLE, NC, 28117",46019264,"R"
19594,"110 CHARTER OAK DR","CHESHIRE","CT",6410,41.5531645570001,-72.9519514679999,94,"110 CHARTER OAK DR, CHESHIRE, CT, 6410","Match","Exact","110 CHARTER OAK DR, CHESHIRE, CT, 06410",3751837,"L"
19595,"110 CHASON LN","WEST MONROE","LA",71291,32.5375637080001,-92.236059634,95,"110 CHASON LN, WEST MONROE, LA, 71291","Match","Exact","110 CHASON LN, WEST MONROE, LA, 71291",612363616,"R"
19596,"110 CHATTERTON PARKWAY","WHITE PLAINS","NY",10606,41.028632418,-73.780328566,96,"110 CHATTERTON PARKWAY, WHITE PLAINS, NY, 10606","Match","Exact","110 CHATTERTON PKWY, WHITE PLAINS, NY, 10606",139741442,"R"
19597,"110 CHERRY TREE LANE","KING NC","NC",27021,36.269809663,-80.343236911,97,"110 CHERRY TREE LANE, KING NC, NC, 27021","Match","Non_Exact","110 CHERRY TREE LN, KING, NC, 27021",56343868,"R"
19598,"110 CHESNUT RIDGE ROAD  SUITE 150","MONTVALE","NJ",7645,NA,NA,98,"110 CHESNUT RIDGE ROAD  SUITE 150, MONTVALE, NJ, 7645","No_Match",NA,NA,NA,NA
19599,"110 CHESTER STREET","KINGSTON","PA",18704,41.261941854,-75.890632314,99,"110 CHESTER STREET, KINGSTON, PA, 18704","Match","Exact","110 CHESTER ST, KINGSTON, PA, 18704",80913784,"L"
19600,"110 CHESTNUT RIDGE ROAD  177","MONTVALE","NJ",7645,41.0626672240001,-74.069363514,100,"110 CHESTNUT RIDGE ROAD  177, MONTVALE, NJ, 7645","Match","Non_Exact","110 OLD CHESTNUT RIDGE RD, MONTVALE, NJ, 07645",64365768,"L"
19601,"110 CHESTNUTRIDGE ROAD PMB 342","MONTVALE","NJ",7645,41.0626672240001,-74.069363514,101,"110 CHESTNUTRIDGE ROAD PMB 342, MONTVALE, NJ, 7645","Match","Non_Exact","110 OLD CHESTNUT RIDGE RD, MONTVALE, NJ, 07645",64365768,"L"
19602,"110 CHETAN WAY","LAKE LURE","NC",28746,35.4708667290001,-82.1801594409999,102,"110 CHETAN WAY, LAKE LURE, NC, 28746","Match","Exact","110 CHETAN WAY, LAKE LURE, NC, 28746",633061026,"R"
19603,"110 CHINQUAPIN COURT","HALLSVILLE","TX",75650,32.489256943,-94.578796083,103,"110 CHINQUAPIN COURT, HALLSVILLE, TX, 75650","Match","Exact","110 CHINQUAPIN CT, HALLSVILLE, TX, 75650",141191754,"L"
19604,"110 CHOCTAW DR","OAKLAND","TN",38060,35.226130342,-89.525530084,104,"110 CHOCTAW DR, OAKLAND, TN, 38060","Match","Exact","110 CHOCTAW DR, OAKLAND, TN, 38060",638185972,"R"
19605,"110 CHRISTIAN LANE","BRANDON","MS",39042,32.2257550090001,-89.988664733,105,"110 CHRISTIAN LANE, BRANDON, MS, 39042","Match","Exact","110 CHRISTIAN LN, BRANDON, MS, 39042",632789347,"L"
19606,"110 CHURCH ST","FERGUSON","MO",63135,38.7450445110001,-90.303680393,106,"110 CHURCH ST, FERGUSON, MO, 63135","Match","Exact","110 CHURCH ST, FERGUSON, MO, 63135",100146173,"R"
19607,"110 CHURCH STREET","LENOIR","NC",28645,NA,NA,107,"110 CHURCH STREET, LENOIR, NC, 28645","Tie",NA,NA,NA,NA
19608,"110 CIRCLE DRIVE N","CANASTOTA","NY",13032,43.075430188,-75.737366929,108,"110 CIRCLE DRIVE N, CANASTOTA, NY, 13032","Match","Exact","110 CIRCLE DR N, CANASTOTA, NY, 13032",46511808,"L"
19609,"110 CLAREMONT PLACE","MOUNT VERNON","WA",98274,48.420743293,-122.321766053,109,"110 CLAREMONT PLACE, MOUNT VERNON, WA, 98274","Match","Exact","110 CLAREMONT PL, MOUNT VERNON, WA, 98274",183650813,"R"
19610,"110 CLEVELAND AVE","COLONIA","NJ",7067,40.5963491750001,-74.312254002,110,"110 CLEVELAND AVE, COLONIA, NJ, 7067","Match","Exact","110 CLEVELAND AVE, COLONIA, NJ, 07067",60362072,"L"
19611,"110 CLEVELAND STREET UNIT 3F","NEW BRITAIN","CT",6053,41.6714025580001,-72.7962034829999,111,"110 CLEVELAND STREET UNIT 3F, NEW BRITAIN, CT, 6053","Match","Exact","110 CLEVELAND ST, NEW BRITAIN, CT, 06053",3510467,"L"
19612,"110 COACH DR","GRIFFIN","GA",30224,33.231508564,-84.306022193,112,"110 COACH DR, GRIFFIN, GA, 30224","Match","Exact","110 COACH DR, GRIFFIN, GA, 30224",23766197,"L"
19613,"110 COHANSEY STREET","BRIDGETON","NJ",8320,NA,NA,113,"110 COHANSEY STREET, BRIDGETON, NJ, 8320","No_Match",NA,NA,NA,NA
19614,"110 COLISEUM XING NUM 6000","HAMPTON","VA",23666,37.049161268,-76.391530878,114,"110 COLISEUM XING NUM 6000, HAMPTON, VA, 23666","Match","Non_Exact","110 COLISEUM DR, HAMPTON, VA, 23666",239684671,"L"
19615,"110 COLUMBIA STREET  APT 12B","NEW YORK CITY","NY",10002,40.7189178770001,-73.9792759599999,115,"110 COLUMBIA STREET  APT 12B, NEW YORK CITY, NY, 10002","Match","Exact","110 COLUMBIA ST, NEW YORK, NY, 10002",609812337,"R"
19616,"110 COLUMBUS BLVD","AMITYVILLE","NY",11701,40.7079652460001,-73.412254043,116,"110 COLUMBUS BLVD, AMITYVILLE, NY, 11701","Match","Exact","110 COLUMBUS BLVD, AMITYVILLE, NY, 11701",113971197,"R"
19617,"110 COMPASS DR","CLAYMONT","DE",19703,39.805420757,-75.470935298,117,"110 COMPASS DR, CLAYMONT, DE, 19703","Match","Exact","110 COMPASS DR, CLAYMONT, DE, 19703",187261014,"L"
19618,"110 CONDUIT STREET","NEW BEDFORD","MA",2745,41.6722209970001,-70.924219373,118,"110 CONDUIT STREET, NEW BEDFORD, MA, 2745","Match","Exact","110 CONDUIT ST, NEW BEDFORD, MA, 02745",46752324,"R"
19619,"110 CONFORTI AVE","WEST ORANGE","NJ",7052,40.80229088,-74.259987082,119,"110 CONFORTI AVE, WEST ORANGE, NJ, 7052","Match","Exact","110 CONFORTI AVE, WEST ORANGE, NJ, 07052",63460583,"L"
19620,"110 COOL SPRINGS ROAD","WINSTON-SALEM","NC",27107,NA,NA,120,"110 COOL SPRINGS ROAD, WINSTON-SALEM, NC, 27107","Tie",NA,NA,NA,NA
19621,"110 COOPERS POND DR","BLYTHEWOOD","SC",29016,34.1996325220001,-80.959375039,121,"110 COOPERS POND DR, BLYTHEWOOD, SC, 29016","Match","Exact","110 COOPERS POND DR, BLYTHEWOOD, SC, 29016",623832753,"R"
19622,"110 COPPER WOOD LN SE J205","LACEY","WA",98516,47.0604380020001,-122.743887507,122,"110 COPPER WOOD LN SE J205, LACEY, WA, 98516","Match","Non_Exact","110 COPPERWOOD LN SE, LACEY, WA, 98516",650457944,"R"
19623,"110 COTTONWOOD UNIT 2C","BRANSON","MO",65616,NA,NA,123,"110 COTTONWOOD UNIT 2C, BRANSON, MO, 65616","Tie",NA,NA,NA,NA
19624,"110 COUNTRY LANE C","LAFAYETTE","LA",70508,30.148600764,-92.016690699,124,"110 COUNTRY LANE C, LAFAYETTE, LA, 70508","Match","Exact","110 COUNTRY LN, LAFAYETTE, LA, 70508",85619489,"R"
19625,"110 COUNTY ROAD 460","JONESBORO","AR",72404,35.743873304,-90.6674755239999,125,"110 COUNTY ROAD 460, JONESBORO, AR, 72404","Match","Exact","110 CO RD 460, JONESBORO, AR, 72404",46932039,"R"
19626,"110 COURTHOUSE SQUARE","BUCHANAN","GA",30113,NA,NA,126,"110 COURTHOUSE SQUARE, BUCHANAN, GA, 30113","No_Match",NA,NA,NA,NA
19627,"110 CR 472","BROWNWOOD","TX",76801,31.706992052,-99.0907700509999,127,"110 CR 472, BROWNWOOD, TX, 76801","Match","Exact","110 CO RD 472, BROWNWOOD, TX, 76801",129470282,"L"
19628,"110 CRESCENT HILL AVE","ARLINGTON","MA",2474,42.4310234370001,-71.185180271,128,"110 CRESCENT HILL AVE, ARLINGTON, MA, 2474","Match","Exact","110 CRESCENT HILL AVE, ARLINGTON, MA, 02474",623794801,"L"
19629,"110 CRESTVIEW DR","CANYON LAKE","TX",78133,29.868623131,-98.280614231,129,"110 CRESTVIEW DR, CANYON LAKE, TX, 78133","Match","Exact","110 CRESTVIEW DR, CANYON LAKE, TX, 78133",72240549,"R"
19630,"110 CROMWELL CT","SMYRNA","DE",19977,39.2406407240001,-75.6370997929999,130,"110 CROMWELL CT, SMYRNA, DE, 19977","Match","Exact","110 CROMWELL CT, SMYRNA, DE, 19977",635150895,"R"
19631,"110 CUMBERLAND DRIVE","OVILLA","TX",75154,32.517856513,-96.888033444,131,"110 CUMBERLAND DRIVE, OVILLA, TX, 75154","Match","Exact","110 CUMBERLAND DR, OVILLA, TX, 75154",627305493,"R"
19632,"110 CYBERNETICS WAY","YORKTOWN","VA",23693,37.1178223970001,-76.4665421939999,132,"110 CYBERNETICS WAY, YORKTOWN, VA, 23693","Match","Exact","110 CYBERNETICS WAY, YORKTOWN, VA, 23693",103796021,"R"
19633,"110 DAHOON TRAIL","MT. DORA","FL",32757,28.809221688,-81.688577546,133,"110 DAHOON TRAIL, MT. DORA, FL, 32757","Match","Exact","110 DAHOON TRL, MOUNT DORA, FL, 32757",94153954,"R"
19634,"110 DEARBORN ST SE","ATLANTA","GA",30317,33.7501226520001,-84.3272250809999,134,"110 DEARBORN ST SE, ATLANTA, GA, 30317","Match","Exact","110 DEARBORN ST SE, ATLANTA, GA, 30317",23394935,"L"
19635,"110 DEER HILL AVENUE","DANBURY","CT",6810,41.3879909460001,-73.451449682,135,"110 DEER HILL AVENUE, DANBURY, CT, 6810","Match","Exact","110 DEER HILL AVE, DANBURY, CT, 06810",3231929,"L"
19636,"110 DELAWARE AVENUE","UNIONTOWN","PA",15401,39.901149155,-79.7436845519999,136,"110 DELAWARE AVENUE, UNIONTOWN, PA, 15401","Match","Exact","110 DELAWARE AVE, UNIONTOWN, PA, 15401",632698490,"R"
19637,"110 DEPOT ST","LENOIR CITY","TN",37771,NA,NA,137,"110 DEPOT ST, LENOIR CITY, TN, 37771","Tie",NA,NA,NA,NA
19638,"110 DICK STREET","FAYETTEVILLE","NC",28301,35.051266432,-78.8769986039999,138,"110 DICK STREET, FAYETTEVILLE, NC, 28301","Match","Exact","110 DICK ST, FAYETTEVILLE, NC, 28301",635550415,"R"
19639,"110 DOGWOOD AVE","GLASGOW","KY",42141,37.014461107,-85.919675863,139,"110 DOGWOOD AVE, GLASGOW, KY, 42141","Match","Exact","110 DOGWOOD AVE, GLASGOW, KY, 42141",29518101,"R"
19640,"110 DOVER COURT","BOSSIER CITY","LA",71111,32.5657167540001,-93.713857375,140,"110 DOVER COURT, BOSSIER CITY, LA, 71111","Match","Exact","110 DOVER CT, BOSSIER CITY, LA, 71111",108522169,"L"
19641,"110 DOVER CT","BOSSIER CITY","LA",71111,32.5657167540001,-93.713857375,141,"110 DOVER CT, BOSSIER CITY, LA, 71111","Match","Exact","110 DOVER CT, BOSSIER CITY, LA, 71111",108522169,"L"
19642,"110 DOVER LANE","JACKSONVILLE","NC",28540,34.7834668200001,-77.438286234,142,"110 DOVER LANE, JACKSONVILLE, NC, 28540","Match","Exact","110 DOVER LN, JACKSONVILLE, NC, 28540",14020642,"R"
19643,"110 DURHAM DR","CRAWFORDSVILLE","IN",47933,40.029396187,-86.901123914,143,"110 DURHAM DR, CRAWFORDSVILLE, IN, 47933","Match","Exact","110 DURHAM DR, CRAWFORDSVILLE, IN, 47933",29359146,"R"
19644,"110 E 25TH ST","NEW YORK","NY",10010,40.7412233790001,-73.984848055,144,"110 E 25TH ST, NEW YORK, NY, 10010","Match","Exact","110 E 25TH ST, NEW YORK, NY, 10010",59653644,"R"
19645,"110 E 25TH STREET","NEW YORK","NY",10010,40.7412233790001,-73.984848055,145,"110 E 25TH STREET, NEW YORK, NY, 10010","Match","Exact","110 E 25TH ST, NEW YORK, NY, 10010",59653644,"R"
19646,"110 E 39TH STREET","NORFOLK","VA",23504,36.8819610830001,-76.2815505999999,146,"110 E 39TH STREET, NORFOLK, VA, 23504","Match","Exact","110 E 39TH ST, NORFOLK, VA, 23504",122134021,"L"
19647,"110 E 3RD ST","STORM LAKE","IA",50588,42.6409382310001,-95.2006847599999,147,"110 E 3RD ST, STORM LAKE, IA, 50588","Match","Exact","110 E 3RD ST, STORM LAKE, IA, 50588",77378701,"L"
19648,"110 E 3RD STREET","LEXINGTON","KY",40508,38.0492709110001,-84.492276859,148,"110 E 3RD STREET, LEXINGTON, KY, 40508","Match","Exact","110 E 3RD ST, LEXINGTON, KY, 40508",31948524,"R"
19649,"110 E 4TH ST N","NEWTON","IA",50208,41.699947364,-93.0497722489999,149,"110 E 4TH ST N, NEWTON, IA, 50208","Match","Exact","110 E 4TH ST N, NEWTON, IA, 50208",89436346,"R"
19650,"110 E 59TH ST FL 30","NEW YORK","NY",10022,40.762796343,-73.9695338499999,150,"110 E 59TH ST FL 30, NEW YORK, NY, 10022","Match","Non_Exact","110 E 59TH ST, NEW YORK, NY, 10022",59657442,"R"
19651,"110 E 59TH STREET","NEW YORK","NY",10022,40.762796343,-73.9695338499999,151,"110 E 59TH STREET, NEW YORK, NY, 10022","Match","Exact","110 E 59TH ST, NEW YORK, NY, 10022",59657442,"R"
19652,"110 E 9TH AVENUE","LONGMONT","CO",80504,40.1739841290001,-105.092092928,152,"110 E 9TH AVENUE, LONGMONT, CO, 80504","Match","Exact","110 E 9TH AVE, LONGMONT, CO, 80504",652263333,"L"
19653,"110 E ARLINGTON BLVD SUITE N","GREENVILLE","NC",27858,35.590820443,-77.377789498,153,"110 E ARLINGTON BLVD SUITE N, GREENVILLE, NC, 27858","Match","Non_Exact","110 E ARLINGTON BLVD, GREENVILLE, NC, 27858",80009542,"L"
19654,"110 E BARFOOT STREET","UNION","MS",39365,32.571811687,-89.1066569659999,154,"110 E BARFOOT STREET, UNION, MS, 39365","Match","Exact","110 E BARFOOT ST, UNION, MS, 39365",4880653,"L"
19655,"110 E BROWARD  BLVD 1700","FORT LAUDERDALE","FL",33301,26.122267998,-80.1423641869999,155,"110 E BROWARD  BLVD 1700, FORT LAUDERDALE, FL, 33301","Match","Non_Exact","110 E BROWARD BLVD, FORT LAUDERDALE, FL, 33301",114722809,"R"
19656,"110 E BROWARD BLVD STE 1736","FT LAUDERDALE","FL",33301,26.122267998,-80.1423641869999,156,"110 E BROWARD BLVD STE 1736, FT LAUDERDALE, FL, 33301","Match","Non_Exact","110 E BROWARD BLVD, FORT LAUDERDALE, FL, 33301",114722809,"R"
19657,"110 E BROWARD BLVD STE 1990","FORT LAUDERDALE","FL",33301,26.122267998,-80.1423641869999,157,"110 E BROWARD BLVD STE 1990, FORT LAUDERDALE, FL, 33301","Match","Non_Exact","110 E BROWARD BLVD, FORT LAUDERDALE, FL, 33301",114722809,"R"
19658,"110 E CLAY ST STE D","CLINTON","KY",42031,NA,NA,158,"110 E CLAY ST STE D, CLINTON, KY, 42031","No_Match",NA,NA,NA,NA
19659,"110 E COON LAKE RD","HOWELL","MI",48843,42.5391640880001,-83.9316041229999,159,"110 E COON LAKE RD, HOWELL, MI, 48843","Match","Exact","110 E COON LAKE RD, HOWELL, MI, 48843",23542713,"R"
19660,"110 E ECHO GLEN DR","HOUSTON","TX",77076,29.8635470360001,-95.397215058,160,"110 E ECHO GLEN DR, HOUSTON, TX, 77076","Match","Exact","110 E ECHO GLEN DR, HOUSTON, TX, 77076",96053764,"R"
19661,"110 E FOSTER AVE APT 303","STATE COLLEGE","PA",16801,NA,NA,161,"110 E FOSTER AVE APT 303, STATE COLLEGE, PA, 16801","Tie",NA,NA,NA,NA
19662,"110 E HOUSTON ST - 7TH FLR","SAN ANTONIO","TX",78205,NA,NA,162,"110 E HOUSTON ST - 7TH FLR, SAN ANTONIO, TX, 78205","Tie",NA,NA,NA,NA
19663,"110 E HOUSTON ST 7TH FL","SAN ANTONIO","TX",78205,NA,NA,163,"110 E HOUSTON ST 7TH FL, SAN ANTONIO, TX, 78205","Tie",NA,NA,NA,NA
19664,"110 E HOUSTON ST 7TH FLOOR 149","SAN ANTONIO","TX",78205,NA,NA,164,"110 E HOUSTON ST 7TH FLOOR 149, SAN ANTONIO, TX, 78205","Tie",NA,NA,NA,NA
19665,"110 E HOUSTON STREET 7TH FLOOR","SAN ANTONIO","TX",78205,NA,NA,165,"110 E HOUSTON STREET 7TH FLOOR, SAN ANTONIO, TX, 78205","Tie",NA,NA,NA,NA
19666,"110 E KING ST","LANCASTER","PA",17602,40.038222497,-76.3032261239999,166,"110 E KING ST, LANCASTER, PA, 17602","Match","Exact","110 E KING ST, LANCASTER, PA, 17602",179664631,"R"
19667,"110 E KYLE ST","ROGERSVILLE","TN",37857,36.407946587,-83.0069333069999,167,"110 E KYLE ST, ROGERSVILLE, TN, 37857","Match","Exact","110 E KYLE ST, ROGERSVILLE, TN, 37857",42393912,"R"
19668,"110 E LEXINGTON STREET - SUITE 200","BALTIMORE","MD",21202,39.2911927650001,-76.613342573,168,"110 E LEXINGTON STREET - SUITE 200, BALTIMORE, MD, 21202","Match","Non_Exact","110 E LEXINGTON ST, BALTIMORE, MD, 21202",206420694,"L"
19669,"110 E MAIN ST","FORESTVILLE","WI",54213,44.689982652,-87.4790216649999,169,"110 E MAIN ST, FORESTVILLE, WI, 54213","Match","Exact","110 E MAIN ST, FORESTVILLE, WI, 54213",167251852,"L"
19670,"110 E NORTH LOOP BLVD","AUSTIN","TX",78751,30.317839539,-97.722428054,170,"110 E NORTH LOOP BLVD, AUSTIN, TX, 78751","Match","Exact","110 N LOOP BLVD, AUSTIN, TX, 78751",63931720,"R"
19671,"110 E SCHILLER ST STE 205","ELMHURST","IL",60126,41.9011318660001,-87.937959712,171,"110 E SCHILLER ST STE 205, ELMHURST, IL, 60126","Match","Exact","110 SCHILLER ST, ELMHURST, IL, 60126",112545065,"R"
19672,"110 E SECOND STREET","SOUTH HILL","VA",23970,36.720242516,-78.131075445,172,"110 E SECOND STREET, SOUTH HILL, VA, 23970","Match","Exact","110 E 2ND ST, SOUTH HILL, VA, 23970",54302801,"L"
19673,"110 E SHELDON STREET","KENNEY","IL",61749,40.097844948,-89.0862127349999,173,"110 E SHELDON STREET, KENNEY, IL, 61749","Match","Non_Exact","110 SHELDON ST, KENNEY, IL, 61749",20511279,"R"
19674,"110 E SOUTH ST","ALVIN","TX",77511,29.4092087700001,-95.243347098,174,"110 E SOUTH ST, ALVIN, TX, 77511","Match","Exact","110 E SOUTH ST, ALVIN, TX, 77511",116646953,"L"
19675,"110 E STREET","BELLE CHASSE","LA",70037,29.86200258,-89.9963567779999,175,"110 E STREET, BELLE CHASSE, LA, 70037","Match","Exact","110 E ST, BELLE CHASSE, LA, 70037",191939476,"L"
19676,"110 E ZORANNE DRIVE","FARMINGDALE","NY",11735,40.7202496620001,-73.4714692859999,176,"110 E ZORANNE DRIVE, FARMINGDALE, NY, 11735","Match","Exact","110 E ZORANNE DR, FARMINGDALE, NY, 11735",147649741,"R"
19677,"110 EAGLE RIDGE DR","PAPILLION","NE",68133,41.1553477370001,-96.010912284,177,"110 EAGLE RIDGE DR, PAPILLION, NE, 68133","Match","Non_Exact","110 EAGLE RIDGE DR, PAPILLION, NE, 68046",28499245,"R"
19678,"110 EAGLE TRL SW","HUNTSVILLE","AL",35824,34.626939731,-86.7299653759999,178,"110 EAGLE TRL SW, HUNTSVILLE, AL, 35824","Match","Exact","110 EAGLE TRL SW, HUNTSVILLE, AL, 35824",58139670,"R"
19679,"110 EARLE STREET","BECKLEY","WV",25801,37.771401213,-81.170359183,179,"110 EARLE STREET, BECKLEY, WV, 25801","Match","Exact","110 EARLE ST, BECKLEY, WV, 25801",78818403,"R"
19680,"110 EAST 10TH STREET","ERIE","PA",16501,42.1260599400001,-80.081110634,180,"110 EAST 10TH STREET, ERIE, PA, 16501","Match","Exact","110 E 10TH ST, ERIE, PA, 16501",117523850,"L"
19681,"110 EAST 18TH STREET","RICHMOND","VA",23224,37.516823722,-77.448038545,181,"110 EAST 18TH STREET, RICHMOND, VA, 23224","Match","Exact","110 E 18TH ST, RICHMOND, VA, 23224",201542041,"L"
19682,"110 EAST 1ST STREET","CHESTER","MT",59522,NA,NA,182,"110 EAST 1ST STREET, CHESTER, MT, 59522","No_Match",NA,NA,NA,NA
19683,"110 EAST 25TH STREET","NEW YORK","NY",10010,NA,NA,183,"110 EAST 25TH STREET, NEW YORK, NY, 10010","Tie",NA,NA,NA,NA
19684,"110 EAST 39TH STREET -A","NORFOLK","VA",23504,36.8819609600001,-76.2815538089999,184,"110 EAST 39TH STREET -A, NORFOLK, VA, 23504","Match","Exact","110 E 39TH ST, NORFOLK, VA, 23504",122134021,"L"
19685,"110 EAST 39TH STREET","NORFOLK","VA",23504,36.8819609600001,-76.2815538089999,185,"110 EAST 39TH STREET, NORFOLK, VA, 23504","Match","Exact","110 E 39TH ST, NORFOLK, VA, 23504",122134021,"L"
19686,"110 EAST 8TH AVE","ROME","GA",30161,34.2557465310001,-85.1655344709999,186,"110 EAST 8TH AVE, ROME, GA, 30161","Match","Exact","110 E 8TH AVE, ROME, GA, 30161",30706160,"R"
19687,"110 EAST BROWARD BLVD STE 1700","FT LAUDERDALE","FL",33301,26.122267998,-80.142364605,187,"110 EAST BROWARD BLVD STE 1700, FT LAUDERDALE, FL, 33301","Match","Exact","110 E BROWARD BLVD, FORT LAUDERDALE, FL, 33301",114722809,"R"
19688,"110 EAST BRYANT STREET","ENFIELD","VA",27823,NA,NA,188,"110 EAST BRYANT STREET, ENFIELD, VA, 27823","No_Match",NA,NA,NA,NA
19689,"110 EAST CHERRY STREET","CHEROKEE","IA",51012,42.752652094,-95.550442491,189,"110 EAST CHERRY STREET, CHEROKEE, IA, 51012","Match","Exact","110 E CHERRY ST, CHEROKEE, IA, 51012",82751773,"R"
19690,"110 EAST DEKALB STREET","CAMDEN","SC",29020,NA,NA,190,"110 EAST DEKALB STREET, CAMDEN, SC, 29020","No_Match",NA,NA,NA,NA
19691,"110 EAST GAMBIER STREET SUITE 3","MOUNT VERNON","OH",43050,40.3915921890001,-82.482845039,191,"110 EAST GAMBIER STREET SUITE 3, MOUNT VERNON, OH, 43050","Match","Exact","110 E GAMBIER ST, MOUNT VERNON, OH, 43050",24616336,"L"
19692,"110 EAST GAMBIER STREET","MOUNT VERNON","OH",43050,40.3915921890001,-82.482845039,192,"110 EAST GAMBIER STREET, MOUNT VERNON, OH, 43050","Match","Exact","110 E GAMBIER ST, MOUNT VERNON, OH, 43050",24616336,"L"
19693,"110 EAST HIGH STREET","MOUNT VERNON","OH",43050,40.3935483380001,-82.4838416549999,193,"110 EAST HIGH STREET, MOUNT VERNON, OH, 43050","Match","Exact","110 E HIGH ST, MOUNT VERNON, OH, 43050",24634019,"R"
19694,"110 EAST HOUSTON STREET 7TH FLOOR","SAN ANTONIO","TX",78205,29.426426989,-98.493559803,194,"110 EAST HOUSTON STREET 7TH FLOOR, SAN ANTONIO, TX, 78205","Match","Exact","110 E HOUSTON ST, SAN ANTONIO, TX, 78205",101526357,"R"
19695,"110 EAST JEFFERSON AVE","CHESTER","MT",59522,NA,NA,195,"110 EAST JEFFERSON AVE, CHESTER, MT, 59522","Tie",NA,NA,NA,NA
19696,"110 EAST MAIN STREET","CEDAR BLUFFS","NE",68015,41.397004387,-96.609060907,196,"110 EAST MAIN STREET, CEDAR BLUFFS, NE, 68015","Match","Exact","110 E MAIN ST, CEDAR BLUFFS, NE, 68015",28507568,"R"
19697,"110 EAST MAIN STREET","ROCKTON","IL",61072,42.4525015930001,-89.0722791269999,197,"110 EAST MAIN STREET, ROCKTON, IL, 61072","Match","Exact","110 E MAIN ST, ROCKTON, IL, 61072",49247613,"R"
19698,"110 EAST MAIN-CROSS STREET","BROWNSVILLE","KY",42210,37.1929918590001,-86.2691909389999,198,"110 EAST MAIN-CROSS STREET, BROWNSVILLE, KY, 42210","Match","Non_Exact","110 MAIN CROSS ST, BROWNSVILLE, KY, 42210",15756090,"R"
19699,"110 EAST ORANGE AVENUE","DAYTONA BEACH","FL",32114,29.208241543,-81.017840522,199,"110 EAST ORANGE AVENUE, DAYTONA BEACH, FL, 32114","Match","Non_Exact","110 ORANGE AVE, DAYTONA BEACH, FL, 32114",94525484,"R"
19700,"110 EAST PARK ROAD","WHEATLAND","IA",52777,41.8368399980001,-90.839864581,200,"110 EAST PARK ROAD, WHEATLAND, IA, 52777","Match","Exact","110 E PARK RD, WHEATLAND, IA, 52777",16804129,"R"
19701,"110 EAST PIKE STREET","PONTIAC","MI",48342,42.637470593,-83.287883924,201,"110 EAST PIKE STREET, PONTIAC, MI, 48342","Match","Exact","110 E PIKE ST, PONTIAC, MI, 48342",69705768,"R"
19702,"110 EAST STEVENSON","HALE CENTER","TX",79041,NA,NA,202,"110 EAST STEVENSON, HALE CENTER, TX, 79041","No_Match",NA,NA,NA,NA
19703,"110 EDGEGROVE AVE","STATEN ISLAND","NY",10312,40.545859938,-74.1787847689999,203,"110 EDGEGROVE AVE, STATEN ISLAND, NY, 10312","Match","Exact","110 EDGEGROVE AVE, STATEN ISLAND, NY, 10312",59874785,"L"
19704,"110 EDGEWATER TRAIL","FAYETTEVILLE","GA",30215,33.4327644900001,-84.5117434109999,204,"110 EDGEWATER TRAIL, FAYETTEVILLE, GA, 30215","Match","Exact","110 EDGEWATER TRL, FAYETTEVILLE, GA, 30215",75946632,"R"
19705,"110 EDWARDS CIRCLE","ATHENS","GA",30606,33.960137827,-83.4063518569999,205,"110 EDWARDS CIRCLE, ATHENS, GA, 30606","Match","Exact","110 EDWARDS CIR, ATHENS, GA, 30606",4801289,"R"
19706,"110 EISENHOWER DR","NEW PARIS","PA",15554,40.1178398110001,-78.5741271749999,206,"110 EISENHOWER DR, NEW PARIS, PA, 15554","Match","Exact","110 EISENHOWER DR, NEW PARIS, PA, 15554",50158716,"R"
19707,"110 ELKINS RD","INGLIS","FL",34449,29.0336640400001,-82.685571183,207,"110 ELKINS RD, INGLIS, FL, 34449","Match","Exact","110 ELKINS RD, INGLIS, FL, 34449",43330147,"L"
19708,"110 ELVERNAN DR","WEST LAFAYETTE","IN",47906,40.4199516190001,-87.031279769,208,"110 ELVERNAN DR, WEST LAFAYETTE, IN, 47906","Match","Exact","110 ELVERNAN DR, W LAFAYETTE, IN, 47906",27318054,"L"
19709,"110 FAIRVIEW LN","PLYMOUTH","MA",2360,41.8756367300001,-70.589959401,209,"110 FAIRVIEW LN, PLYMOUTH, MA, 2360","Match","Exact","110 FAIRVIEW LN, PLYMOUTH, MA, 02360",646686294,"L"
19710,"110 FALLS AVENUE","HAWLEY","PA",18428,41.472504955,-75.171587874,210,"110 FALLS AVENUE, HAWLEY, PA, 18428","Match","Exact","110 FALLS AVE, HAWLEY, PA, 18428",140179023,"R"
19711,"110 FALLSTAFF ROAD","COLUMBIA","SC",29229,34.1591088010001,-80.935078947,211,"110 FALLSTAFF ROAD, COLUMBIA, SC, 29229","Match","Exact","110 FALLSTAFF RD, COLUMBIA, SC, 29229",604796577,"R"
19712,"110 FINN ALLEY","SITKA","AK",99835,57.0521477120001,-135.32650596,212,"110 FINN ALLEY, SITKA, AK, 99835","Match","Exact","110 FINN ALY, SITKA, AK, 99835",191274372,"L"
19713,"110 FLAMING ARROW WAY","SEDONA","AZ",86336,34.8734129280001,-111.791933498,213,"110 FLAMING ARROW WAY, SEDONA, AZ, 86336","Match","Exact","110 FLAMING ARROW WAY, SEDONA, AZ, 86336",159473823,"R"
19714,"110 FLOCCHINI CIRCLE STE 400","ROSEVILLE","CA",95648,38.8855261200001,-121.293741044,214,"110 FLOCCHINI CIRCLE STE 400, ROSEVILLE, CA, 95648","Match","Non_Exact","110 FLOCCHINI CIR, LINCOLN, CA, 95648",106793508,"R"
19715,"110 FLORIDA AVE","JUPITER","FL",33458,26.94341473,-80.094653765,215,"110 FLORIDA AVE, JUPITER, FL, 33458","Match","Exact","110 FLORIDA AVE, JUPITER, FL, 33458",115546998,"L"
19716,"110 FOREST STREET APT 2","MONTCLAIR","NJ",7042,40.8188141110001,-74.211647816,216,"110 FOREST STREET APT 2, MONTCLAIR, NJ, 7042","Match","Exact","110 FOREST ST, MONTCLAIR, NJ, 07042",641256948,"L"
19717,"110 FORT CHERRY RD","MCDONALD","PA",15057,40.348187055,-80.281051244,217,"110 FORT CHERRY RD, MCDONALD, PA, 15057","Match","Non_Exact","110 FORT CHERRY RD, MC DONALD, PA, 15057",52791107,"R"
19718,"110 FORT CHERRY ROAD","MCDONALD","PA",15057,40.348187055,-80.281051244,218,"110 FORT CHERRY ROAD, MCDONALD, PA, 15057","Match","Non_Exact","110 FORT CHERRY RD, MC DONALD, PA, 15057",52791107,"R"
19719,"110 FOUNTAIN POINTE LANE UNIT 102","MYRTLE BEACH","SC",29578,33.718779254,-78.944584875,219,"110 FOUNTAIN POINTE LANE UNIT 102, MYRTLE BEACH, SC, 29578","Match","Non_Exact","110 FOUNTAIN POINTE LN, MYRTLE BEACH, SC, 29579",631941645,"R"
19720,"110 FOX TRAIL DRIVE","GRAY","LA",70359,29.6933554980001,-90.757942666,220,"110 FOX TRAIL DRIVE, GRAY, LA, 70359","Match","Exact","110 FOX TRAIL DR, GRAY, LA, 70359",609028848,"R"
19721,"110 FRANKLIN STREET","CLARKSVILLE","TN",37040,36.5273299,-87.3600652229999,221,"110 FRANKLIN STREET, CLARKSVILLE, TN, 37040","Match","Exact","110 FRANKLIN ST, CLARKSVILLE, TN, 37040",31815029,"R"
19722,"110 FRONT STREET STE 300 - SOLANO","JUPITER","FL",33477,NA,NA,222,"110 FRONT STREET STE 300 - SOLANO, JUPITER, FL, 33477","No_Match",NA,NA,NA,NA
19723,"110 G LAMPLIGHTER LANE","SPRINGFIELD","MA",1119,42.1353723870001,-72.5087024159999,223,"110 G LAMPLIGHTER LANE, SPRINGFIELD, MA, 1119","Match","Exact","110 LAMPLIGHTER LN, SPRINGFIELD, MA, 01119",4025256,"L"
19724,"110 GALLATIN AVENUE","NASHVILLE","TN",37206,NA,NA,224,"110 GALLATIN AVENUE, NASHVILLE, TN, 37206","No_Match",NA,NA,NA,NA
19725,"110 GENESEE STREET STE 300","AUBURN","NY",13021,NA,NA,225,"110 GENESEE STREET STE 300, AUBURN, NY, 13021","No_Match",NA,NA,NA,NA
19726,"110 GLEN HILL DR","GLENDALE HEIGHTS","IL",60139,41.9066179480001,-88.085555095,226,"110 GLEN HILL DR, GLENDALE HEIGHTS, IL, 60139","Match","Exact","110 GLEN HILL DR, GLENDALE HEIGHTS, IL, 60139",112680719,"L"
19727,"110 GLENDALE ST","EVERETT","MA",2149,42.415632687,-71.0513377139999,227,"110 GLENDALE ST, EVERETT, MA, 2149","Match","Exact","110 GLENDALE ST, EVERETT, MA, 02149",86873770,"L"
19728,"110 GLENGARY DRIVE","FLAT ROCK","NC",28731,35.275542452,-82.45229627,228,"110 GLENGARY DRIVE, FLAT ROCK, NC, 28731","Match","Exact","110 GLENGARY DR, FLAT ROCK, NC, 28731",152256349,"L"
19729,"110 GOLF LANE","CENTRALIA","IL",62801,38.5337690260001,-89.096188336,229,"110 GOLF LANE, CENTRALIA, IL, 62801","Match","Exact","110 GOLF LN, CENTRALIA, IL, 62801",93048548,"R"
19730,"110 GORDON CT","BROWNSBURG","IN",46112,39.83486172,-86.394500592,230,"110 GORDON CT, BROWNSBURG, IN, 46112","Match","Exact","110 GORDON CT, BROWNSBURG, IN, 46112",89197484,"L"
19731,"110 GRALAN DRIVE","BYRON","GA",31008,32.6490419200001,-83.7565906139999,231,"110 GRALAN DRIVE, BYRON, GA, 31008","Match","Exact","110 GRALAN DR, BYRON, GA, 31008",93723754,"L"
19732,"110 GRANADA DRIVE","APTOS","CA",95003,36.9627683200001,-121.892861528,232,"110 GRANADA DRIVE, APTOS, CA, 95003","Match","Exact","110 GRANADA DR, APTOS, CA, 95003",125510677,"R"
19733,"110 GRAY CREEK COURT","MACON","GA",31211,32.9042432790001,-83.538003392,233,"110 GRAY CREEK COURT, MACON, GA, 31211","Match","Non_Exact","110 GRAYCREEK CT, MACON, GA, 31211",65485122,"L"
19734,"110 GRAY FOX CROSSING","BONAIRE","GA",31005,32.566273154,-83.640566937,234,"110 GRAY FOX CROSSING, BONAIRE, GA, 31005","Match","Exact","110 GRAY FOX CROSSING, BONAIRE, GA, 31005",627753359,"L"
19735,"110 GREEN STREET APT A606","BROOKLYN","NY",11222,40.7335063560001,-73.957275189,235,"110 GREEN STREET APT A606, BROOKLYN, NY, 11222","Match","Exact","110 GREEN ST, BROOKLYN, NY, 11222",59076255,"R"
19736,"110 GREENSWAY","PEACHTREE CITY","GA",30269,33.412201838,-84.568472307,236,"110 GREENSWAY, PEACHTREE CITY, GA, 30269","Match","Exact","110 GREENSWAY, PEACHTREE CITY, GA, 30269",75946222,"L"
19737,"110 GROVE ST APT 3C","BROOKLYN","NY",11221,40.693115199,-73.920834064,237,"110 GROVE ST APT 3C, BROOKLYN, NY, 11221","Match","Exact","110 GROVE ST, BROOKLYN, NY, 11221",59082979,"R"
19738,"110 GUY SMITH RD","LA GRANGE","NC",28551,35.439791244,-77.7990277609999,238,"110 GUY SMITH RD, LA GRANGE, NC, 28551","Match","Exact","110 SMITH RD, LA GRANGE, NC, 28551",26511315,"L"
19739,"110 GWYN AVENUE","ELKIN","NC",28621,36.2455356790001,-80.8490224459999,239,"110 GWYN AVENUE, ELKIN, NC, 28621","Match","Exact","110 GWYN AVE, ELKIN, NC, 28621",154167061,"R"
19740,"110 HABERSHAM DRIVE SUITE 135","FAYETTEVILLE","GA",30214,33.4586474120001,-84.454742927,240,"110 HABERSHAM DRIVE SUITE 135, FAYETTEVILLE, GA, 30214","Match","Exact","110 HABERSHAM DR, FAYETTEVILLE, GA, 30214",75930351,"R"
19741,"110 HABERSHAM DRIVE","ATHENS","GA",30606,33.9286488500001,-83.3813240859999,241,"110 HABERSHAM DRIVE, ATHENS, GA, 30606","Match","Exact","110 HABERSHAM DR, ATHENS, GA, 30606",4810270,"R"
19742,"110 HABERSHAM DRIVE","FAYETTEVILLE","GA",30214,33.4586474120001,-84.454742927,242,"110 HABERSHAM DRIVE, FAYETTEVILLE, GA, 30214","Match","Exact","110 HABERSHAM DR, FAYETTEVILLE, GA, 30214",75930351,"R"
19743,"110 HABERSHAM DRIVE","FAYETTEVILLE",NA,30214,33.4586474120001,-84.454742927,243,"110 HABERSHAM DRIVE, FAYETTEVILLE, , 30214","Match","Exact","110 HABERSHAM DR, FAYETTEVILLE, GA, 30214",75930351,"R"
19744,"110 HAHNSTOWN ROAD","EPHRATA","PA",17522,40.169467507,-76.131346489,244,"110 HAHNSTOWN ROAD, EPHRATA, PA, 17522","Match","Exact","110 HAHNSTOWN RD, EPHRATA, PA, 17522",179719057,"L"
19745,"110 HALEY LANE","JULIETTE","GA",31046,32.9519969930001,-83.7800589939999,245,"110 HALEY LANE, JULIETTE, GA, 31046","Match","Exact","110 HALEY LN, JULIETTE, GA, 31046",66668033,"R"
19746,"110 HAMPSHIRE RD","SAVANNAH","GA",31410,31.9934580020001,-80.981466611,246,"110 HAMPSHIRE RD, SAVANNAH, GA, 31410","Match","Exact","110 HAMPSHIRE RD, SAVANNAH, GA, 31410",6192737,"L"
19747,"110 HANSON STREET","BEREA","KY",40403,37.5667980760001,-84.301694229,247,"110 HANSON STREET, BEREA, KY, 40403","Match","Exact","110 HANSON ST, BEREA, KY, 40403",31988865,"L"
19748,"110 HARDY DRIVE","GROVETOWN","GA",30813,33.4503975540001,-82.198906827,248,"110 HARDY DRIVE, GROVETOWN, GA, 30813","Match","Exact","110 HARDY DR, GROVETOWN, GA, 30813",55373429,"L"
19749,"110 HARRIS STREET 309","BASALT","CO",81621,39.3874027090001,-107.08526503,249,"110 HARRIS STREET 309, BASALT, CO, 81621","Match","Exact","110 HARRIS ST, BASALT, CO, 81621",640302267,"R"
19750,"110 HASTINGS WAY","MONMOUTH","IL",61462,NA,NA,250,"110 HASTINGS WAY, MONMOUTH, IL, 61462","No_Match",NA,NA,NA,NA
19751,"110 HEARNE CT APT 103","ANNAPOLIS","MD",21401,38.978384084,-76.5464555029999,251,"110 HEARNE CT APT 103, ANNAPOLIS, MD, 21401","Match","Exact","110 HEARNE CT, ANNAPOLIS, MD, 21401",68170755,"L"
19752,"110 HEISMAN ST","CLEMSON","SC",29634,34.6813504150001,-82.842774925,252,"110 HEISMAN ST, CLEMSON, SC, 29634","Match","Exact","110 HEISMAN ST, CLEMSON, SC, 29634",26163972,"L"
19753,"110 HEISMAN STREET","CLEMSON","SC",29634,34.6813504150001,-82.842774925,253,"110 HEISMAN STREET, CLEMSON, SC, 29634","Match","Exact","110 HEISMAN ST, CLEMSON, SC, 29634",26163972,"L"
19754,"110 HEWETT STREET","NEILLSVILLE","WI",54456,44.555542819,-90.596303951,254,"110 HEWETT STREET, NEILLSVILLE, WI, 54456","Match","Exact","110 HEWETT ST, NEILLSVILLE, WI, 54456",50864193,"L"
19755,"110 HICKOCK CT","MEBANE","NC",27302,36.0635535500001,-79.260528017,255,"110 HICKOCK CT, MEBANE, NC, 27302","Match","Exact","110 HICKOCK CT, MEBANE, NC, 27302",651102811,"R"
19756,"110 HICKORY RD","SNEADS FERRY","NC",28460,34.5655329430001,-77.392776931,256,"110 HICKORY RD, SNEADS FERRY, NC, 28460","Match","Exact","110 HICKORY RD, SNEADS FERRY, NC, 28460",14021887,"R"
19757,"110 HIGHRIDGE RD","WEST HARTFORD","CT",6117,41.7831664880001,-72.773388392,257,"110 HIGHRIDGE RD, WEST HARTFORD, CT, 6117","Match","Non_Exact","110 HIGH RIDGE RD, WEST HARTFORD, CT, 06117",3485239,"R"
19758,"110 HIGHWAY 70 EAST SUITE 110","GARNER","NC",27529,NA,NA,258,"110 HIGHWAY 70 EAST SUITE 110, GARNER, NC, 27529","No_Match",NA,NA,NA,NA
19759,"110 HILL BLVD","LONDON","AR",72847,35.3249199260001,-93.257255572,259,"110 HILL BLVD, LONDON, AR, 72847","Match","Exact","110 HILL BLVD, LONDON, AR, 72847",81900638,"R"
19760,"110 HILLSIDE BLVD STE 16","LAKEWOOD","NJ",8701,40.0857250070001,-74.253848389,260,"110 HILLSIDE BLVD STE 16, LAKEWOOD, NJ, 8701","Match","Exact","110 HILLSIDE BLVD, LAKEWOOD, NJ, 08701",617581263,"R"
19761,"110 HOLBROOK ST","COLORADO SPRINGS","CO",80921,39.0525944410001,-104.822176559,261,"110 HOLBROOK ST, COLORADO SPRINGS, CO, 80921","Match","Exact","110 HOLBROOK ST, COLORADO SPRINGS, CO, 80921",105508523,"R"
19762,"110 HOLLYBROOK RD SW","ATLANTA","GA",30349,33.635190171,-84.578744129,262,"110 HOLLYBROOK RD SW, ATLANTA, GA, 30349","Match","Non_Exact","110 HOLLY BROOK RD SW, ATLANTA, GA, 30349",17337953,"L"
19763,"110 HUMBOLT STREET","WADSWORTH","OH",44281,41.025915565,-81.7240764479999,263,"110 HUMBOLT STREET, WADSWORTH, OH, 44281","Match","Non_Exact","110 HUMBOLT AVE, WADSWORTH, OH, 44281",58679198,"L"
19764,"110 HUMMINGBIRD DR","RIDGELAND","SC",29936,32.442199599,-80.9885471809999,264,"110 HUMMINGBIRD DR, RIDGELAND, SC, 29936","Match","Exact","110 HUMMINGBIRD DR, RIDGELAND, SC, 29936",33157964,"R"
19765,"110 HUNNICUTT STREET NW","ATLANTA","GA",30313,33.766624081,-84.393247004,265,"110 HUNNICUTT STREET NW, ATLANTA, GA, 30313","Match","Exact","110 HUNNICUTT ST NW, ATLANTA, GA, 30313",636144788,"L"
19766,"110 HUSEMAN RD","CAMPBELL HILL","IL",62916,37.9357937230001,-89.58723659,266,"110 HUSEMAN RD, CAMPBELL HILL, IL, 62916","Match","Exact","110 HUSEMAN RD, CAMPBELL HILL, IL, 62916",95125321,"R"
19767,"110 IDLEWOOD DRIVE","ASHEVILLE","NC",28806,35.5105973930001,-82.612732089,267,"110 IDLEWOOD DRIVE, ASHEVILLE, NC, 28806","Match","Exact","110 IDLEWOOD DR, ASHEVILLE, NC, 28806",36847105,"L"
19768,"110 INTERNATIONAL DRIVE","ATHENS","GA",30605,33.923417339,-83.347548562,268,"110 INTERNATIONAL DRIVE, ATHENS, GA, 30605","Match","Exact","110 INTERNATIONAL DR, ATHENS, GA, 30605",628025560,"R"
19769,"110 IVY DARLENE","NEW MARKET","AL",35761,34.9092928270001,-86.5325100009999,269,"110 IVY DARLENE, NEW MARKET, AL, 35761","Match","Non_Exact","110 IVY DARLENE DR, NEW MARKET, AL, 35761",648290768,"R"
19770,"110 JABEZ ST STE 339","NEWARK","NJ",7105,40.7209597030001,-74.151293896,270,"110 JABEZ ST STE 339, NEWARK, NJ, 7105","Match","Exact","110 JABEZ ST, NEWARK, NJ, 07105",63468843,"L"
19771,"110 JACKSON COURT","EAST STROUDSBURG","PA",18301,41.0336876550001,-75.20205641,271,"110 JACKSON COURT, EAST STROUDSBURG, PA, 18301","Match","Exact","110 JACKSON CT, E STROUDSBURG, PA, 18301",648553086,"L"
19772,"110 JAMES STREET","ELKTON","MD",21921,39.6220480370001,-75.833696765,272,"110 JAMES STREET, ELKTON, MD, 21921","Match","Exact","110 JAMES ST, ELKTON, MD, 21921",207856292,"R"
19773,"110 JANIE LN","GRIFFIN","GA",30223,33.291755595,-84.3140812629999,273,"110 JANIE LN, GRIFFIN, GA, 30223","Match","Exact","110 JANIE LN, GRIFFIN, GA, 30223",636418311,"L"
19774,"110 JEFFERSON ST","WICHITA FALLS","TX",76306,33.929163144,-98.4947966989999,274,"110 JEFFERSON ST, WICHITA FALLS, TX, 76306","Match","Exact","110 JEFFERSON ST, WICHITA FALLS, TX, 76306",169843672,"R"
19775,"110 JOE FLETCHER DRIVE","MADISON","AL",35756,34.601478883,-86.747772018,275,"110 JOE FLETCHER DRIVE, MADISON, AL, 35756","Match","Exact","110 JOE FLETCHER DR, MADISON, AL, 35756",642138518,"R"
19776,"110 JOHNSON ST","FREDERICK","CO",80530,40.1024730710001,-104.938189556,276,"110 JOHNSON ST, FREDERICK, CO, 80530","Match","Exact","110 JOHNSON ST, FREDERICK, CO, 80530",188736414,"R"
19777,"110 JOHNSON STREET","FREDONIA","NY",14063,42.4405065500001,-79.354290346,277,"110 JOHNSON STREET, FREDONIA, NY, 14063","Match","Exact","110 JOHNSON ST, FREDONIA, NY, 14063",120776585,"L"
19778,"110 JUNIPER STREET","SAN DIEGO","CA",92101,32.7292894330001,-117.163770127,278,"110 JUNIPER STREET, SAN DIEGO, CA, 92101","Match","Exact","110 JUNIPER ST, SAN DIEGO, CA, 92101",195343433,"L"
19779,"110 JUNIUS STREET","BROOKLYN","NY",11212,40.6723929840001,-73.903685222,279,"110 JUNIUS STREET, BROOKLYN, NY, 11212","Match","Exact","110 JUNIUS ST, BROOKLYN, NY, 11212",59084519,"R"
19780,"110 JUNIUS STREET","BROOKLYN","NY",11510,40.6723929840001,-73.903685222,280,"110 JUNIUS STREET, BROOKLYN, NY, 11510","Match","Non_Exact","110 JUNIUS ST, BROOKLYN, NY, 11212",59084519,"R"
19781,"110 JUSTICE ST","LOGAN","WV",25601,37.8553382420001,-81.994003601,281,"110 JUSTICE ST, LOGAN, WV, 25601","Match","Exact","110 JUSTICE ST, LOGAN, WV, 25601",78766303,"L"
19782,"110 JUSTIN COLE DRIVE","KINGSLAND","GA",31548,30.8181559670001,-81.625562813,282,"110 JUSTIN COLE DRIVE, KINGSLAND, GA, 31548","Match","Exact","110 JUSTIN COLE DR, KINGSLAND, GA, 31548",627730817,"R"
19783,"110 KAROLA DRIVE","SEBRING","FL",33870,27.5281628820001,-81.474208097,283,"110 KAROLA DRIVE, SEBRING, FL, 33870","Match","Exact","110 KAROLA DR, SEBRING, FL, 33870",4671857,"R"
19784,"110 KELLOGG MILL ROAD","FREDERICKSBURG","VA",22406,38.399612301,-77.527471638,284,"110 KELLOGG MILL ROAD, FREDERICKSBURG, VA, 22406","Match","Exact","110 KELLOGG MILL RD, FREDERICKSBURG, VA, 22406",636657962,"R"
19785,"110 KENDALL COURT","GRANITE BAY","CA",95746,38.7217244030001,-121.224441772,285,"110 KENDALL COURT, GRANITE BAY, CA, 95746","Match","Exact","110 KENDALL CT, GRANITE BAY, CA, 95746",106800950,"R"
19786,"110 KETTLE CREEK ROAD","TOMS RIVER","NJ",8753,40.016236674,-74.135206113,286,"110 KETTLE CREEK ROAD, TOMS RIVER, NJ, 8753","Match","Exact","110 KETTLE CREEK RD, TOMS RIVER, NJ, 08753",203736344,"L"
19787,"110 KING CHARLES PL","DEL RIO","TX",78840,29.407008525,-100.907818941,287,"110 KING CHARLES PL, DEL RIO, TX, 78840","Match","Exact","110 KING CHARLES PL, DEL RIO, TX, 78840",173572702,"R"
19788,"110 KING STREET","BROOKLYN","NY",11231,40.678159631,-74.011320499,288,"110 KING STREET, BROOKLYN, NY, 11231","Match","Exact","110 KING ST, BROOKLYN, NY, 11231",59093525,"R"
19789,"110 KITTS ROAD","WASHBURN","TN",37888,36.2555850690001,-83.668767684,289,"110 KITTS ROAD, WASHBURN, TN, 37888","Match","Exact","110 KITTS RD, WASHBURN, TN, 37888",639284861,"R"
19790,"110 LACEBARK LN","LONGVIEW","TX",75605,32.5716194410001,-94.693327552,290,"110 LACEBARK LN, LONGVIEW, TX, 75605","Match","Exact","110 LACEBARK LN, LONGVIEW, TX, 75605",652178901,"L"
19791,"110 LAKESHORE DRIVE","SCOTT CITY","MO",63780,37.218732802,-89.52870004,291,"110 LAKESHORE DRIVE, SCOTT CITY, MO, 63780","Match","Exact","110 LAKESHORE DR, SCOTT CITY, MO, 63780",38942872,"R"
19792,"110 LAKESTONE ROAD","MONCKS CORNER","SC",29461,33.1661202490001,-80.046614824,292,"110 LAKESTONE ROAD, MONCKS CORNER, SC, 29461","Match","Exact","110 LAKESTONE RD, MONCKS CORNER, SC, 29461",649701170,"R"
19793,"110 LAWRENCE ST E","RUSSELLVILLE","AL",35653,34.504745169,-87.730347106,293,"110 LAWRENCE ST E, RUSSELLVILLE, AL, 35653","Match","Exact","110 LAWRENCE ST E, RUSSELLVILLE, AL, 35653",41269821,"R"
19794,"110 LAZY LANE","BAYTOWN","TX",77520,29.7756743030001,-95.040669945,294,"110 LAZY LANE, BAYTOWN, TX, 77520","Match","Exact","110 LAZY LN, BAYTOWN, TX, 77520",96102346,"R"
19795,"110 LAZY LN","BAYTOWN","TX",77520,29.7756743030001,-95.040669945,295,"110 LAZY LN, BAYTOWN, TX, 77520","Match","Exact","110 LAZY LN, BAYTOWN, TX, 77520",96102346,"R"
19796,"110 LEA ANN TERRACE","WANTAGH","NY",11793,40.6986305460001,-73.5048380819999,296,"110 LEA ANN TERRACE, WANTAGH, NY, 11793","Match","Exact","110 LEA ANN TER, WANTAGH, NY, 11793",642871497,"R"
19797,"110 LEE ROAD 573","SMITHS","AL",36877,32.543661231,-85.144026759,297,"110 LEE ROAD 573, SMITHS, AL, 36877","Match","Exact","110 LEE ROAD 573, SMITHS, AL, 36877",1566516,"L"
19798,"110 LENOX ROAD 1A","BROOKLYN","NY",11226,40.6537955250001,-73.9558181529999,298,"110 LENOX ROAD 1A, BROOKLYN, NY, 11226","Match","Exact","110 LENOX RD, BROOKLYN, NY, 11226",650074262,"R"
19799,"110 LIMEKILN DRIVE","NEENAH","WI",54956,44.16600964,-88.440251704,299,"110 LIMEKILN DRIVE, NEENAH, WI, 54956","Match","Exact","110 LIMEKILN DR, NEENAH, WI, 54956",74504706,"L"
19800,"110 LINCOLN PARKWAY","CRYSTAL LAKE","IL",60014,42.244058555,-88.332066915,300,"110 LINCOLN PARKWAY, CRYSTAL LAKE, IL, 60014","Match","Exact","110 LINCOLN PKWY, CRYSTAL LAKE, IL, 60014",119819893,"L"
19801,"110 LINCOLN","RAYMOND","IL",62560,39.322226754,-89.578562884,301,"110 LINCOLN, RAYMOND, IL, 62560","Match","Non_Exact","110 LINCOLN ST, RAYMOND, IL, 62560",99435785,"R"
19802,"110 LIONHEART LN","WEST DEPTFORD","NJ",8086,39.821452465,-75.187343598,302,"110 LIONHEART LN, WEST DEPTFORD, NJ, 8086","Match","Exact","110 LIONHEART LN, WEST DEPTFORD, NJ, 08086",625725610,"R"
19803,"110 LITTLE JOHN COURT","EL PASO","TX",76302,NA,NA,303,"110 LITTLE JOHN COURT, EL PASO, TX, 76302","No_Match",NA,NA,NA,NA
19804,"110 LLOYD LANE","MARTINSVILLE","VA",24112,36.768372593,-79.881536916,304,"110 LLOYD LANE, MARTINSVILLE, VA, 24112","Match","Exact","110 LLOYD LN, MARTINSVILLE, VA, 24112",55538960,"R"
19805,"110 LYNNMOOR DRIVE","SILVER SPRING","MD",20901,39.0274751310001,-77.0069749579999,305,"110 LYNNMOOR DRIVE, SILVER SPRING, MD, 20901","Match","Exact","110 LYNNMOOR DR, SILVER SPRING, MD, 20901",62065121,"L"
19806,"110 LYONS PLAIN ROAD","WESTON","CT",6883,41.1969966770001,-73.353037528,306,"110 LYONS PLAIN ROAD, WESTON, CT, 6883","Match","Exact","110 LYONS PLAIN RD, WESTON, CT, 06883",3237557,"L"
19807,"110 MADRID RD","CANTONMENT","FL",32533,30.6109316610001,-87.352823084,307,"110 MADRID RD, CANTONMENT, FL, 32533","Match","Exact","110 MADRID RD, CANTONMENT, FL, 32533",93209694,"R"
19808,"110 MAGNOLIA DR","MCKEES ROCKS","PA",15136,NA,NA,308,"110 MAGNOLIA DR, MCKEES ROCKS, PA, 15136","No_Match",NA,NA,NA,NA
19809,"110 MAIN ST","COLFAX","LA",71417,31.516643226,-92.7130792299999,309,"110 MAIN ST, COLFAX, LA, 71417","Match","Exact","110 MAIN ST, COLFAX, LA, 71417",13265060,"L"
19810,"110 MAIN STREET BOX 124","HEISLERVILLE","NJ",8324,NA,NA,310,"110 MAIN STREET BOX 124, HEISLERVILLE, NJ, 8324","No_Match",NA,NA,NA,NA
19811,"110 MAIN STREET STUDIO 1B","BURLINGTON","VT",5401,44.4758493510001,-73.215155191,311,"110 MAIN STREET STUDIO 1B, BURLINGTON, VT, 5401","Match","Exact","110 MAIN ST, BURLINGTON, VT, 05401",135827968,"L"
19812,"110 MAIN STREET","HAMILTON","OH",45013,39.4028293270001,-84.5675544649999,312,"110 MAIN STREET, HAMILTON, OH, 45013","Match","Exact","110 MAIN ST, HAMILTON, OH, 45013",113789292,"R"
19813,"110 MAIN STREET","UNDERWOOD","MN",56586,NA,NA,313,"110 MAIN STREET, UNDERWOOD, MN, 56586","Tie",NA,NA,NA,NA
19814,"110 MALABAR ST","UPPER SANDUSKY","OH",43351,40.8305874160001,-83.253538367,314,"110 MALABAR ST, UPPER SANDUSKY, OH, 43351","Match","Non_Exact","110 MALABAR DR, UPPER SANDUSKY, OH, 43351",13046252,"L"
19815,"110 MARCOM DRIVE","MORRISVILLE","NC",27560,35.8573829110001,-78.826724553,315,"110 MARCOM DRIVE, MORRISVILLE, NC, 27560","Match","Exact","110 MARCOM DR, MORRISVILLE, NC, 27560",72644344,"R"
19816,"110 MARGINAL WAY 185","PORTLAND","ME",4101,43.6627605030001,-70.2638748809999,316,"110 MARGINAL WAY 185, PORTLAND, ME, 4101","Match","Exact","110 MARGINAL WAY, PORTLAND, ME, 04101",624855456,"L"
19817,"110 MARTER AVE SUITE 210","MOORESTOWN","NJ",8057,39.969894174,-74.920564766,317,"110 MARTER AVE SUITE 210, MOORESTOWN, NJ, 8057","Match","Exact","110 MARTER AVE, MOORESTOWN, NJ, 08057",642322760,"L"
19818,"110 MARTINSBOROUGH RD","GREENVILLE","NC",27858,35.5767764130001,-77.3747452819999,318,"110 MARTINSBOROUGH RD, GREENVILLE, NC, 27858","Match","Exact","110 MARTINSBOROUGH RD, GREENVILLE, NC, 27858",80009666,"L"
19819,"110 MARYLAND AVE NE STE 508","WASHINGTON","DC",20002,38.8912101500001,-77.005360803,319,"110 MARYLAND AVE NE STE 508, WASHINGTON, DC, 20002","Match","Exact","110 MARYLAND AVE NE, WASHINGTON, DC, 20002",76240394,"L"
19820,"110 MCCRACKEN DRIVE","MONACA","PA",15001,40.6694010050001,-80.286697885,320,"110 MCCRACKEN DRIVE, MONACA, PA, 15001","Match","Non_Exact","110 MCCRACKEN DR, MONACA, PA, 15061",52562603,"L"
19821,"110 MCCRACKEN DRIVE","MONACA","PA",15061,40.6694010050001,-80.286697885,321,"110 MCCRACKEN DRIVE, MONACA, PA, 15061","Match","Exact","110 MCCRACKEN DR, MONACA, PA, 15061",52562603,"L"
19822,"110 MCFARLAND CT APT 106","STANFORD","CA",94305,37.42579557,-122.156615241,322,"110 MCFARLAND CT APT 106, STANFORD, CA, 94305","Match","Exact","110 MCFARLAND CT, STANFORD, CA, 94305",647570442,"R"
19823,"110 MECHANIC STREET","CAMDEN","ME",4843,44.2086392420001,-69.0796047379999,323,"110 MECHANIC STREET, CAMDEN, ME, 4843","Match","Exact","110 MECHANIC ST, CAMDEN, ME, 04843",75563453,"R"
19824,"110 MELANIE CIRCLE","FAYETTEVILLE","GA",30214,33.52922521,-84.4711060079999,324,"110 MELANIE CIRCLE, FAYETTEVILLE, GA, 30214","Match","Exact","110 MELANIE CIR, FAYETTEVILLE, GA, 30214",75929984,"L"
19825,"110 MERRILL MEADOWS POINT","DOUGLASVILLE","GA",30134,33.801949844,-84.838001063,325,"110 MERRILL MEADOWS POINT, DOUGLASVILLE, GA, 30134","Match","Exact","110 MERRILL MEADOWS PT, DOUGLASVILLE, GA, 30134",618930268,"R"
19826,"110 MIDWOOD RD","GLEN ROCK","NJ",7452,40.965783534,-74.116416664,326,"110 MIDWOOD RD, GLEN ROCK, NJ, 7452","Match","Exact","110 MIDWOOD RD, GLEN ROCK, NJ, 07452",64376669,"R"
19827,"110 MILBURN STREET","ROCHESTER","NY",14607,43.14640912,-77.5794122619999,327,"110 MILBURN STREET, ROCHESTER, NY, 14607","Match","Exact","110 MILBURN ST, ROCHESTER, NY, 14607",14541019,"L"
19828,"110 MILITIA PLACE","ODENTON","MD",21113,39.1035551740001,-76.708602102,328,"110 MILITIA PLACE, ODENTON, MD, 21113","Match","Exact","110 MILITIA PL, ODENTON, MD, 21113",68206184,"L"
19829,"110 MILTON AVE APT  3","DORCHESTER","MA",2124,42.2816678560001,-71.075951215,329,"110 MILTON AVE APT  3, DORCHESTER, MA, 2124","Match","Exact","110 MILTON AVE, DORCHESTER, MA, 02124",85705976,"L"
19830,"110 MIMOSA DR","RICHARDSON","TX",75080,32.951573936,-96.760710925,330,"110 MIMOSA DR, RICHARDSON, TX, 75080","Match","Exact","110 MIMOSA DR, RICHARDSON, TX, 75080",103211431,"R"
19831,"110 MONROE DR","BILOXI","MS",39531,30.4044127980001,-88.94895832,331,"110 MONROE DR, BILOXI, MS, 39531","Match","Non_Exact","110 MONROE CIR, BILOXI, MS, 39531",629572375,"L"
19832,"110 MONTANA STREET","GREENVILLE","SC",29611,34.8623876290001,-82.428636469,332,"110 MONTANA STREET, GREENVILLE, SC, 29611","Match","Exact","110 MONTANA ST, GREENVILLE, SC, 29611",38299210,"R"
19833,"110 MOORE ST BOX 19","BROOKLYN","NY",11206,40.703885879,-73.9411789059999,333,"110 MOORE ST BOX 19, BROOKLYN, NY, 11206","Match","Exact","110 MOORE ST, BROOKLYN, NY, 11206",59078978,"R"
19834,"110 MOOSE CLUB ROAD","STATESVILLE","NC",28677,35.728193112,-80.895292038,334,"110 MOOSE CLUB ROAD, STATESVILLE, NC, 28677","Match","Exact","110 MOOSE CLUB RD, STATESVILLE, NC, 28677",640639021,"R"
19835,"110 MORNING SIDE","ABILENE","TX",79606,32.3043011710001,-99.79659156,335,"110 MORNING SIDE, ABILENE, TX, 79606","Match","Exact","110 MORNING SIDE, ABILENE, TX, 79606",636748407,"L"
19836,"110 N 10TH","PAYETTE","ID",83661,44.076219199,-116.931995894,336,"110 N 10TH, PAYETTE, ID, 83661","Match","Non_Exact","110 N 10TH ST, PAYETTE, ID, 83661",141418709,"R"
19837,"110 N 16TH ST","LEBANON","PA",17046,40.340346593,-76.4399904489999,337,"110 N 16TH ST, LEBANON, PA, 17046","Match","Non_Exact","110 N 16TH ST, LEBANON, PA, 17042",80673659,"R"
19838,"110 N 5TH - SUITE 201","QUINCY","IL",62301,NA,NA,338,"110 N 5TH - SUITE 201, QUINCY, IL, 62301","No_Match",NA,NA,NA,NA
19839,"110 N 5TH ST","BISMARCK","ND",58501,46.805595108,-100.784644416,339,"110 N 5TH ST, BISMARCK, ND, 58501","Match","Exact","110 N 5TH ST, BISMARCK, ND, 58501",198848561,"L"
19840,"110 N 7TH ST","AVONDALE","AZ",85323,33.436890765,-112.342138007,340,"110 N 7TH ST, AVONDALE, AZ, 85323","Match","Exact","110 N 7TH ST, AVONDALE, AZ, 85323",128168240,"L"
19841,"110 N 9TH STREET","NASHVILLE","TN",37206,36.178149046,-86.757420022,341,"110 N 9TH STREET, NASHVILLE, TN, 37206","Match","Exact","110 N 9TH ST, NASHVILLE, TN, 37206",617928777,"L"
19842,"110 N BEECH STREET","OXFORD","OH",45056,39.5118582260001,-84.743989492,342,"110 N BEECH STREET, OXFORD, OH, 45056","Match","Exact","110 N BEECH ST, OXFORD, OH, 45056",604773143,"L"
19843,"110 N BRADFORD STREET","BALTIMORE","MD",21224,39.293266358,-76.58407152,343,"110 N BRADFORD STREET, BALTIMORE, MD, 21224","Match","Exact","110 N BRADFORD ST, BALTIMORE, MD, 21224",206424753,"L"
19844,"110 N CASS AVE","WESTMONT","IL",60559,41.798017219,-87.975417514,344,"110 N CASS AVE, WESTMONT, IL, 60559","Match","Exact","110 N CASS AVE, WESTMONT, IL, 60559",112547851,"L"
19845,"110 N CEDAR ST APT 12","GLENDALE","CA",91206,34.1465926220001,-118.244304074,345,"110 N CEDAR ST APT 12, GLENDALE, CA, 91206","Match","Non_Exact","110 N CEDAR ST, GLENDALE, CA, 91206",141611007,"R"
19846,"110 N CHESTNUT ST PO BOX 2181","OLATHE","KS",66061,NA,NA,346,"110 N CHESTNUT ST PO BOX 2181, OLATHE, KS, 66061","Tie",NA,NA,NA,NA
19847,"110 N CYPRESS ST","ESSEX","MO",63846,NA,NA,347,"110 N CYPRESS ST, ESSEX, MO, 63846","Tie",NA,NA,NA,NA
19848,"110 N DUNLOP ST","PETERSBURG","VA",23803,37.2253293360001,-77.418220397,348,"110 N DUNLOP ST, PETERSBURG, VA, 23803","Match","Exact","110 N DUNLOP ST, PETERSBURG, VA, 23803",54147787,"L"
19849,"110 N FIRST ST","INDIANOLA","IA",50125,41.360475437,-93.5595781659999,349,"110 N FIRST ST, INDIANOLA, IA, 50125","Match","Exact","110 N 1ST ST, INDIANOLA, IA, 50125",83763839,"L"
19850,"110 N FOSS STREET","STATESBORO","GA",30458,32.4551059560001,-81.796077369,350,"110 N FOSS STREET, STATESBORO, GA, 30458","Match","Exact","110 N FOSS ST, STATESBORO, GA, 30458",6114992,"R"
19851,"110 N FRANKLIN ST","BASTROP","LA",71220,32.7784135320001,-91.913273171,351,"110 N FRANKLIN ST, BASTROP, LA, 71220","Match","Exact","110 N FRANKLIN ST, BASTROP, LA, 71220",75377586,"R"
19852,"110 N GARDEN AVE","SILER CITY","NC",27344,35.719465637,-79.4709011799999,352,"110 N GARDEN AVE, SILER CITY, NC, 27344","Match","Exact","110 N GARDEN AVE, SILER CITY, NC, 27344",71342934,"R"
19853,"110 N HIGGINS AVE","SAYRE","PA",18840,41.9825064120001,-76.5116520779999,353,"110 N HIGGINS AVE, SAYRE, PA, 18840","Match","Exact","110 N HIGGINS AVE, SAYRE, PA, 18840",176980964,"R"
19854,"110 N HIGH","BOWLING GREEN","MO",63334,39.3429043250001,-91.198558867,354,"110 N HIGH, BOWLING GREEN, MO, 63334","Match","Non_Exact","110 N HIGH ST, BOWLING GREEN, MO, 63334",44643132,"L"
19855,"110 N IVY ST","MEDFORD","OR",97501,42.325130046,-122.877693359,355,"110 N IVY ST, MEDFORD, OR, 97501","Match","Exact","110 N IVY ST, MEDFORD, OR, 97501",155514319,"R"
19856,"110 N MACLAY AVENUE STE 112","SAN FERNANDO","CA",91340,34.2843624970001,-118.43980274,356,"110 N MACLAY AVENUE STE 112, SAN FERNANDO, CA, 91340","Match","Non_Exact","110 MACLAY ST, SAN FERNANDO, CA, 91340",241239181,"R"
19857,"110 N MAIN ST 500","DAYTON","OH",45402,39.7612119450001,-84.192255539,357,"110 N MAIN ST 500, DAYTON, OH, 45402","Match","Exact","110 MAIN ST, DAYTON, OH, 45402",143571349,"R"
19858,"110 N MAIN ST SUITE 100","BRYAN","TX",77803,NA,NA,358,"110 N MAIN ST SUITE 100, BRYAN, TX, 77803","Tie",NA,NA,NA,NA
19859,"110 N MAIN ST","WAKEENEY","KS",67672,39.024217885,-99.883899947,359,"110 N MAIN ST, WAKEENEY, KS, 67672","Match","Exact","110 N MAIN ST, WAKEENEY, KS, 67672",150102295,"R"
19860,"110 N MAIN ST","YATES CENTER","KS",66783,37.881541515,-95.7324598339999,360,"110 N MAIN ST, YATES CENTER, KS, 66783","Match","Exact","110 N MAIN ST, YATES CENTER, KS, 66783",11326393,"R"
19861,"110 N MILAM PMB - 173","FREDERICKSBURG","TX",78624,NA,NA,361,"110 N MILAM PMB - 173, FREDERICKSBURG, TX, 78624","No_Match",NA,NA,NA,NA
19862,"110 N MILL ST","FERGUS FALLS","MN",56537,46.28366893,-96.074196183,362,"110 N MILL ST, FERGUS FALLS, MN, 56537","Match","Exact","110 N MILL ST, FERGUS FALLS, MN, 56537",168288824,"R"
19863,"110 N PARK AVE","WINTER PARK","FL",32789,28.5982717590001,-81.351045884,363,"110 N PARK AVE, WINTER PARK, FL, 32789","Match","Exact","110 N PARK AVE, WINTER PARK, FL, 32789",94278526,"R"
19864,"110 N PEORIA ST","MAGNOLIA","IL",61336,41.1119347480001,-89.196216969,364,"110 N PEORIA ST, MAGNOLIA, IL, 61336","Match","Non_Exact","110 S PEORIA ST, MAGNOLIA, IL, 61336",8893099,"L"
19865,"110 N SAN JOAQUIN ST","STOCKTON","CA",95202,37.954341501,-121.287491588,365,"110 N SAN JOAQUIN ST, STOCKTON, CA, 95202","Match","Exact","110 N SAN JOAQUIN ST, STOCKTON, CA, 95202",133932576,"R"
19866,"110 N WASHINGTON ST STE 300V","ROCKVILLE","MD",20850,NA,NA,366,"110 N WASHINGTON ST STE 300V, ROCKVILLE, MD, 20850","Tie",NA,NA,NA,NA
19867,"110 N WASHINGTON ST","GROTON","SD",57445,NA,NA,367,"110 N WASHINGTON ST, GROTON, SD, 57445","No_Match",NA,NA,NA,NA
19868,"110 NAMAUU PLACE","KIHEI","HI",96753,20.7572497940001,-156.453905385,368,"110 NAMAUU PLACE, KIHEI, HI, 96753","Match","Exact","110 NAMAUU PL, KIHEI, HI, 96753",85067633,"L"
19869,"110 NANCY PLACE","PALATKA","FL",32177,29.6285997160001,-81.658508694,369,"110 NANCY PLACE, PALATKA, FL, 32177","Match","Exact","110 NANCY PL, PALATKA, FL, 32177",86074119,"L"
19870,"110 NASHVIEW TRL","ALLENHURST","GA",31301,31.7623768770001,-81.604775406,370,"110 NASHVIEW TRL, ALLENHURST, GA, 31301","Match","Exact","110 NASHVIEW TRL, ALLENHURST, GA, 31301",650769078,"R"
19871,"110 NATCOR DRIVE -  PO BOX 367","DOVER","TN",37058,36.485498035,-87.831416387,371,"110 NATCOR DRIVE -  PO BOX 367, DOVER, TN, 37058","Match","Exact","110 NATCOR DR, DOVER, TN, 37058",607877306,"R"
19872,"110 NE 2ND PL STE 409","CAPE CORAL","FL",33909,NA,NA,372,"110 NE 2ND PL STE 409, CAPE CORAL, FL, 33909","No_Match",NA,NA,NA,NA
19873,"110 NEW CASTLE DR","JACKSONVILLE","NC",28540,34.7884473780001,-77.445502001,373,"110 NEW CASTLE DR, JACKSONVILLE, NC, 28540","Match","Non_Exact","110 NEWCASTLE DR, JACKSONVILLE, NC, 28540",605409806,"R"
19874,"110 NEW HARVEST DRIVE","HENRICO","VA",23231,37.4830978310001,-77.363211152,374,"110 NEW HARVEST DRIVE, HENRICO, VA, 23231","Match","Exact","110 NEW HARVEST DR, HENRICO, VA, 23231",643020824,"R"
19875,"110 NEW YORK AVENUE 2L","BROOKLYN","NY",11216,40.6761494150001,-73.947132008,375,"110 NEW YORK AVENUE 2L, BROOKLYN, NY, 11216","Match","Non_Exact","110 NEW YORK AVE, BROOKLYN, NY, 11216",634254794,"R"
19876,"110 NEWCASTLE CT","ROSWELL","GA",30076,34.0511950220001,-84.357915428,376,"110 NEWCASTLE CT, ROSWELL, GA, 30076","Match","Exact","110 NEWCASTLE CT, ROSWELL, GA, 30076",634083505,"R"
19877,"110 NEWGATE RD","OXFORD","CT",6478,41.4210559470001,-73.172827991,377,"110 NEWGATE RD, OXFORD, CT, 6478","Match","Exact","110 NEWGATE RD, OXFORD, CT, 06478",604749238,"L"
19878,"110 NOLAND CT","LYONS","CO",80540,40.215310678,-105.263365052,378,"110 NOLAND CT, LYONS, CO, 80540","Match","Exact","110 NOLAND CT, LYONS, CO, 80540",188243082,"L"
19879,"110 NORMAN DR","LAFAYETTE","LA",70501,30.245213182,-91.99473405,379,"110 NORMAN DR, LAFAYETTE, LA, 70501","Match","Exact","110 NORMAN DR, LAFAYETTE, LA, 70501",85616991,"R"
19880,"110 NORTH 2ND STREET","HEBER SPRINGS","AR",72543,35.491678312,-92.0302025079999,380,"110 NORTH 2ND STREET, HEBER SPRINGS, AR, 72543","Match","Exact","110 N 2ND ST, HEBER SPRINGS, AR, 72543",636162463,"L"
19881,"110 NORTH 3RD STREET","RIVER FALLS","WI",54022,44.857970709,-92.62292301,381,"110 NORTH 3RD STREET, RIVER FALLS, WI, 54022","Match","Exact","110 N 3RD ST, RIVER FALLS, WI, 54022",95856573,"R"
19882,"110 NORTH 7TH STREET","DOLORES","CO",81323,37.474693916,-108.500584894,382,"110 NORTH 7TH STREET, DOLORES, CO, 81323","Match","Exact","110 N 7TH ST, DOLORES, CO, 81323",639024456,"L"
19883,"110 NORTH ABC STREET","MILLEDGEVILLE","GA",31061,NA,NA,383,"110 NORTH ABC STREET, MILLEDGEVILLE, GA, 31061","No_Match",NA,NA,NA,NA
19884,"110 NORTH APOPKA AVENUE","INVERNESS","FL",34450,28.836760117,-82.3301755419999,384,"110 NORTH APOPKA AVENUE, INVERNESS, FL, 34450","Match","Exact","110 N APOPKA AVE, INVERNESS, FL, 34450",86203246,"R"
19885,"110 NORTH FARMER STREET","OTSEGO","MI",49078,42.460683354,-85.696788329,385,"110 NORTH FARMER STREET, OTSEGO, MI, 49078","Match","Exact","110 N FARMER ST, OTSEGO, MI, 49078",11428394,"R"
19886,"110 NORTH MAIN ST","WALTON","IN",46994,40.6602330270001,-86.242618458,386,"110 NORTH MAIN ST, WALTON, IN, 46994","Match","Non_Exact","110 S MAIN ST, WALTON, IN, 46994",27189532,"R"
19887,"110 NORTH MAIN STREET","CADOTT","WI",54727,44.9448331740001,-91.1505768979999,387,"110 NORTH MAIN STREET, CADOTT, WI, 54727","Match","Exact","110 N MAIN ST, CADOTT, WI, 54727",78921431,"R"
19888,"110 NORTH MAIN STREET","MAGDALENA","NM",87825,34.117599071,-107.243727387,388,"110 NORTH MAIN STREET, MAGDALENA, NM, 87825","Match","Exact","110 N MAIN ST, MAGDALENA, NM, 87825",193233724,"R"
19889,"110 NORTH MILL STREET","FERGUS FALLS","MN",56537,46.283667085,-96.07419619,389,"110 NORTH MILL STREET, FERGUS FALLS, MN, 56537","Match","Exact","110 N MILL ST, FERGUS FALLS, MN, 56537",168288824,"R"
19890,"110 NORTH SAN JOAQUIN ST 2ND FLR","STOCKTON","CA",95202,37.954339885,-121.287491145,390,"110 NORTH SAN JOAQUIN ST 2ND FLR, STOCKTON, CA, 95202","Match","Exact","110 N SAN JOAQUIN ST, STOCKTON, CA, 95202",133932576,"R"
19891,"110 NORTH SAN JOAQUIN STREET","STOCKTON","CA",95202,37.954339885,-121.287491145,391,"110 NORTH SAN JOAQUIN STREET, STOCKTON, CA, 95202","Match","Exact","110 N SAN JOAQUIN ST, STOCKTON, CA, 95202",133932576,"R"
19892,"110 NORTH SECOND STREET","PULASKI","TN",38478,35.1994447590001,-87.0316969789999,392,"110 NORTH SECOND STREET, PULASKI, TN, 38478","Match","Exact","110 N 2ND ST, PULASKI, TN, 38478",45313450,"L"
19893,"110 NORTH STREET","ATHENS","PA",18810,41.959146192,-76.5196079899999,393,"110 NORTH STREET, ATHENS, PA, 18810","Match","Exact","110 NORTH ST, ATHENS, PA, 18810",176957147,"L"
19894,"110 NORTH THIRD AVENUE- UNIT 60","MOUNT VERNON","NY",10550,40.91528585,-73.836537639,394,"110 NORTH THIRD AVENUE- UNIT 60, MOUNT VERNON, NY, 10550","Match","Non_Exact","110 N 3RD AVE, MOUNT VERNON, NY, 10550",139848104,"L"
19895,"110 NORTH UNION STREET","DANVILLE","VA",24541,36.5878356690001,-79.392661114,395,"110 NORTH UNION STREET, DANVILLE, VA, 24541","Match","Exact","110 N UNION ST, DANVILLE, VA, 24541",56589831,"R"
19896,"110 NORTH WOODBURY RD","PITMAN","NJ",8071,39.7387386620001,-75.122642581,396,"110 NORTH WOODBURY RD, PITMAN, NJ, 8071","Match","Exact","110 N WOODBURY RD, PITMAN, NJ, 08071",636220867,"L"
19897,"110 NORTHMILL PKWY","STOCKBRIDGE","GA",30281,33.5327291450001,-84.149484909,397,"110 NORTHMILL PKWY, STOCKBRIDGE, GA, 30281","Match","Exact","110 NORTHMILL PKWY, STOCKBRIDGE, GA, 30281",23195857,"R"
19898,"110 NW 4TH ST SPC F9","WARRENTON","OR",97146,46.1721176720001,-123.925145174,398,"110 NW 4TH ST SPC F9, WARRENTON, OR, 97146","Match","Non_Exact","110 NW 4TH ST, WARRENTON, OR, 97146",159236570,"L"
19899,"110 OAKLAND ST","MOUNT HOLLY","NC",28120,35.297659638,-81.018068716,399,"110 OAKLAND ST, MOUNT HOLLY, NC, 28120","Match","Exact","110 OAKLAND ST, MOUNT HOLLY, NC, 28120",70391292,"R"
19900,"110 OAKWOOD DRIVE SUITE 500","WINSTON-SALEM","NC",27103,36.090733556,-80.281911437,400,"110 OAKWOOD DRIVE SUITE 500, WINSTON-SALEM, NC, 27103","Match","Exact","110 OAKWOOD DR, WINSTON SALEM, NC, 27103",84605262,"R"
19901,"110 OGLETHORPE PROFESSIONAL BLVD","SAVANNAH","GA",31406,32.003526853,-81.109671084,401,"110 OGLETHORPE PROFESSIONAL BLVD, SAVANNAH, GA, 31406","Match","Exact","110 OGLETHORPE PROFESSIONAL BLVD, SAVANNAH, GA, 31406",6198738,"R"
19902,"110 OGSTON TERRACE","MALVERNE","NY",11565,40.678207528,-73.672955975,402,"110 OGSTON TERRACE, MALVERNE, NY, 11565","Match","Exact","110 OGSTON TER, MALVERNE, NY, 11565",147674234,"R"
19903,"110 OLD MAMARONECK ROAD","WHITE PLAINS","NY",10605,41.018226892,-73.7610115049999,403,"110 OLD MAMARONECK ROAD, WHITE PLAINS, NY, 10605","Match","Exact","110 OLD MAMARONECK RD, WHITE PLAINS, NY, 10605",624538103,"R"
19904,"110 OLD STURBRIDGE RD","SOUTHBRIDGE","MA",1550,42.0835903990001,-72.052625258,404,"110 OLD STURBRIDGE RD, SOUTHBRIDGE, MA, 1550","Match","Exact","110 OLD STURBRIDGE RD, SOUTHBRIDGE, MA, 01550",623507904,"R"
19905,"110 OLIVE ST","OLIVE HILL","KY",41164,38.3029518810001,-83.1726328409999,405,"110 OLIVE ST, OLIVE HILL, KY, 41164","Match","Exact","110 OLIVE ST, OLIVE HILL, KY, 41164",39596845,"L"
19906,"110 ORIOLE TERRACE","NATCHEZ","MS",39120,31.564035733,-91.378563938,406,"110 ORIOLE TERRACE, NATCHEZ, MS, 39120","Match","Exact","110 ORIOLE TER, NATCHEZ, MS, 39120",79845035,"L"
19907,"110 OSCAR AVE","CANBY","MN",56220,44.7079329060001,-96.275250033,407,"110 OSCAR AVE, CANBY, MN, 56220","Match","Non_Exact","110 OSCAR AVE N, CANBY, MN, 56220",607198734,"L"
19908,"110 PADDOCK DR","NICHOLASVILLE","KY",40356,37.909394654,-84.597013862,408,"110 PADDOCK DR, NICHOLASVILLE, KY, 40356","Match","Exact","110 PADDOCK DR, NICHOLASVILLE, KY, 40356",38466317,"L"
19909,"110 PADRE DRIVE","BROUSSARD","LA",70518,30.1392778430001,-91.963511906,409,"110 PADRE DRIVE, BROUSSARD, LA, 70518","Match","Non_Exact","110 PADRE RD, BROUSSARD, LA, 70518",648162728,"R"
19910,"110 PAINTERS MILL ROAD SUITE 108B","OWINGS MILLS","MD",21117,39.410844281,-76.778901452,410,"110 PAINTERS MILL ROAD SUITE 108B, OWINGS MILLS, MD, 21117","Match","Exact","110 PAINTERS MILL RD, OWINGS MILLS, MD, 21117",191552104,"R"
19911,"110 PALISADE STREET","DOBBS FERRY","NY",10522,41.015192428,-73.876307025,411,"110 PALISADE STREET, DOBBS FERRY, NY, 10522","Match","Exact","110 PALISADE ST, DOBBS FERRY, NY, 10522",139731957,"R"
19912,"110 PARADISE LANE UNIT 1","TONAWANDA","NY",14150,43.01442975,-78.8429932669999,412,"110 PARADISE LANE UNIT 1, TONAWANDA, NY, 14150","Match","Exact","110 PARADISE LN, TONAWANDA, NY, 14150",48329112,"L"
19913,"110 PARK AVENUE","CHARLEVOIX","MI",49720,45.3181365670001,-85.259011607,413,"110 PARK AVENUE, CHARLEVOIX, MI, 49720","Match","Exact","110 PARK AVE, CHARLEVOIX, MI, 49720",134483446,"R"
19914,"110 PARK DRIVE","EVERSON","WA",98247,48.9198301870001,-122.349413093,414,"110 PARK DRIVE, EVERSON, WA, 98247","Match","Exact","110 PARK DR, EVERSON, WA, 98247",633406330,"R"
19915,"110 PARK TERRACE CIRCLE","SOUTH FULTON","TN",38257,36.490190151,-88.8746518739999,415,"110 PARK TERRACE CIRCLE, SOUTH FULTON, TN, 38257","Match","Exact","110 PARK TERRACE CIR, SOUTH FULTON, TN, 38257",30905188,"R"
19916,"110 PARKING PLAZA","SPENCER","WV",25276,NA,NA,416,"110 PARKING PLAZA, SPENCER, WV, 25276","No_Match",NA,NA,NA,NA
19917,"110 PARKWAY NORTH","SLIDELL","LA",70458,30.310833695,-89.7653711519999,417,"110 PARKWAY NORTH, SLIDELL, LA, 70458","Match","Non_Exact","110 PARKWAY NORTH DR, SLIDELL, LA, 70458",640228907,"R"
19918,"110 PELICAN BAY CIRCLE","SACRAMENTO","CA",95835,38.6827195610001,-121.52594229,418,"110 PELICAN BAY CIRCLE, SACRAMENTO, CA, 95835","Match","Exact","110 PELICAN BAY CIR, SACRAMENTO, CA, 95835",133444567,"R"
19919,"110 PELICAN PARK","MAYAGUEZ","PR",682,18.230703223,-67.148843644,419,"110 PELICAN PARK, MAYAGUEZ, PR, 682","Match","Exact","110 PELICAN PARK, MAYAGUEZ, PR, 00682",205809601,"R"
19920,"110 PENNOCK TRACE DR","JUPITER","FL",33458,26.930087729,-80.1090506209999,420,"110 PENNOCK TRACE DR, JUPITER, FL, 33458","Match","Exact","110 PENNOCK TRACE DR, JUPITER, FL, 33458",115580681,"R"
19921,"110 PHOENIX STREET","GREENWOOD","SC",29646,34.192672025,-82.1594209739999,421,"110 PHOENIX STREET, GREENWOOD, SC, 29646","Match","Exact","110 PHOENIX ST, GREENWOOD, SC, 29646",50804093,"L"
19922,"110 PINE ST","ST STEPHEN","SC",29479,NA,NA,422,"110 PINE ST, ST STEPHEN, SC, 29479","Tie",NA,NA,NA,NA
19923,"110 PINECREST DR","GREER","SC",29651,34.912457175,-82.226314356,423,"110 PINECREST DR, GREER, SC, 29651","Match","Exact","110 PINECREST DR, GREER, SC, 29651",38311159,"L"
19924,"110 PLAIN AVENUE","BOWLING GREEN","KY",42101,36.9901993620001,-86.456966236,424,"110 PLAIN AVENUE, BOWLING GREEN, KY, 42101","Match","Exact","110 PLAIN AVE, BOWLING GREEN, KY, 42101",28005478,"R"
19925,"110 PLUM COVE DR","GALENA","IL",61036,42.405395582,-90.330876662,425,"110 PLUM COVE DR, GALENA, IL, 61036","Match","Exact","110 PLUM COVE DR, GALENA, IL, 61036",27729185,"L"
19926,"110 PLYMUTH AVENUE","CHARLESTON","SC",29412,32.7663082610001,-79.991841483,426,"110 PLYMUTH AVENUE, CHARLESTON, SC, 29412","Match","Non_Exact","110 PLYMOUTH AVE, CHARLESTON, SC, 29412",615117653,"L"
19927,"110 PRESIDENTS WALK LANE","CARY","NC",27519,35.827153337,-78.8600267909999,427,"110 PRESIDENTS WALK LANE, CARY, NC, 27519","Match","Exact","110 PRESIDENTS WALK LN, CARY, NC, 27519",612820477,"R"
19928,"110 PROMINENCE POINT PKWAY","CANTON","GA",30114,34.191260529,-84.5100423869999,428,"110 PROMINENCE POINT PKWAY, CANTON, GA, 30114","Match","Exact","110 PROMINENCE POINT PKWY, CANTON, GA, 30114",629575068,"L"
19929,"110 PROSPECT AVE","NORTHAMPTON","MA",1060,42.3344123570001,-72.64923584,429,"110 PROSPECT AVE, NORTHAMPTON, MA, 1060","Match","Exact","110 PROSPECT AVE, NORTHAMPTON, MA, 01060",39849378,"L"
19930,"110 PROSPECT STREET SUITE 13","STAMFORD","CT",6902,NA,NA,430,"110 PROSPECT STREET SUITE 13, STAMFORD, CT, 6902","No_Match",NA,NA,NA,NA
19931,"110 PROSPECT STREET","STATEN ISLAND","NY",10304,40.628771961,-74.077656968,431,"110 PROSPECT STREET, STATEN ISLAND, NY, 10304","Match","Exact","110 PROSPECT ST, STATEN ISLAND, NY, 10304",59883830,"L"
19932,"110 QUAIL MEADOW DR","CONROE","TX",77384,30.2448005270001,-95.498068798,432,"110 QUAIL MEADOW DR, CONROE, TX, 77384","Match","Exact","110 QUAIL MEADOW DR, CONROE, TX, 77384",651126931,"R"
19933,"110 RED OAK CIRCLE","TEMPLE","TX",76502,31.037460552,-97.375246472,433,"110 RED OAK CIRCLE, TEMPLE, TX, 76502","Match","Exact","110 RED OAK CIR, TEMPLE, TX, 76502",146149789,"R"
19934,"110 RED OAKS COVE","DALE","TX",78616,30.0369311440001,-97.558301676,434,"110 RED OAKS COVE, DALE, TX, 78616","Match","Exact","110 RED OAKS COVE, DALE, TX, 78616",45473089,"R"
19935,"110 REV DR I S  COLE PLAZA","ATLANTIC CITY","NJ",8401,NA,NA,435,"110 REV DR I S  COLE PLAZA, ATLANTIC CITY, NJ, 8401","No_Match",NA,NA,NA,NA
19936,"110 REV DR I S COLE PLAZA","ATLANTIC CITY","NJ",8401,NA,NA,436,"110 REV DR I S COLE PLAZA, ATLANTIC CITY, NJ, 8401","No_Match",NA,NA,NA,NA
19937,"110 RIDGELAND LANE","SHARPS CHAPEL","TN",37866,36.2911001900001,-83.8527113009999,437,"110 RIDGELAND LANE, SHARPS CHAPEL, TN, 37866","Match","Exact","110 RIDGELAND LN, SHARPS CHAPEL, TN, 37866",42751309,"L"
19938,"110 RILLWOOD LANE","MARYVILLE","TN",37801,35.734523998,-84.011288495,438,"110 RILLWOOD LANE, MARYVILLE, TN, 37801","Match","Exact","110 RILLWOOD LN, MARYVILLE, TN, 37801",651604790,"R"
19939,"110 RIVER PARK PL","DUNDEE","MI",48131,41.9517432120001,-83.665657106,439,"110 RIVER PARK PL, DUNDEE, MI, 48131","Match","Exact","110 RIVER PARK PL, DUNDEE, MI, 48131",627076642,"L"
19940,"110 RIVERBEND DRIVE","MCDONOUGH","GA",30252,33.5322515390001,-84.057102489,440,"110 RIVERBEND DRIVE, MCDONOUGH, GA, 30252","Match","Exact","110 RIVERBEND DR, MCDONOUGH, GA, 30252",23215001,"L"
19941,"110 RIVERSIDE DRIVE APT 6F","NEW YORK","NY",10024,40.7877594,-73.981127434,441,"110 RIVERSIDE DRIVE APT 6F, NEW YORK, NY, 10024","Match","Exact","110 RIVERSIDE DR, NEW YORK, NY, 10024",59656603,"R"
19942,"110 RIVERSIDE DRIVE","NEW YORK","NY",10024,40.7877594,-73.981127434,442,"110 RIVERSIDE DRIVE, NEW YORK, NY, 10024","Match","Exact","110 RIVERSIDE DR, NEW YORK, NY, 10024",59656603,"R"
19943,"110 ROANOKE STREET E","BLACKSBURG","VA",24060,NA,NA,443,"110 ROANOKE STREET E, BLACKSBURG, VA, 24060","No_Match",NA,NA,NA,NA
19944,"110 ROBINHOOD","MCMURRAY","PA",15317,40.2585877930001,-80.1290136699999,444,"110 ROBINHOOD, MCMURRAY, PA, 15317","Match","Non_Exact","110 ROBINHOOD LN, MCMURRAY, PA, 15317",52806110,"L"
19945,"110 ROCHESTER AVE 4-P","BROOKLYN","NY",11233,40.6753659440001,-73.927719726,445,"110 ROCHESTER AVE 4-P, BROOKLYN, NY, 11233","Match","Exact","110 ROCHESTER AVE, BROOKLYN, NY, 11233",59083312,"R"
19946,"110 ROCKVIEW","IRVINE","CA",92612,33.6526272900001,-117.820328871,446,"110 ROCKVIEW, IRVINE, CA, 92612","Match","Exact","110 ROCKVIEW, IRVINE, CA, 92612",144097008,"R"
19947,"110 RODNEY LN","CAMP HILL","PA",17011,40.2518903430001,-76.963359872,447,"110 RODNEY LN, CAMP HILL, PA, 17011","Match","Exact","110 RODNEY LN, CAMP HILL, PA, 17011",647963242,"L"
19948,"110 ROLLING CREEK CIRCLE","IRMO","SC",29063,34.1586501570001,-81.237267904,448,"110 ROLLING CREEK CIRCLE, IRMO, SC, 29063","Match","Exact","110 ROLLING CREEK CIR, IRMO, SC, 29063",604796663,"L"
19949,"110 ROSS STREET","WOODBRIDGE","NJ",7095,40.555033318,-74.2810635829999,449,"110 ROSS STREET, WOODBRIDGE, NJ, 7095","Match","Exact","110 ROSS ST, WOODBRIDGE, NJ, 07095",60337772,"R"
19950,"110 RUMSEY ROAD","PHILIPSBURG","MT",59858,46.2977771660001,-113.301966578,450,"110 RUMSEY ROAD, PHILIPSBURG, MT, 59858","Match","Exact","110 RUMSEY RD, PHILIPSBURG, MT, 59858",153358144,"L"
19951,"110 RUTLEDGE DRIVE APARTMENT A","WILMINGTON","NC",28412,34.187786056,-77.944119375,451,"110 RUTLEDGE DRIVE APARTMENT A, WILMINGTON, NC, 28412","Match","Exact","110 RUTLEDGE DR, WILMINGTON, NC, 28412",152735151,"R"
19952,"110 S 7TH ST","RIO VISTA","CA",94571,38.158911732,-121.696478396,452,"110 S 7TH ST, RIO VISTA, CA, 94571","Match","Exact","110 S 7TH ST, RIO VISTA, CA, 94571",192525893,"L"
19953,"110 S ASHBY AVE","LIVINGSTON","NJ",7039,40.7874840580001,-74.323609442,453,"110 S ASHBY AVE, LIVINGSTON, NJ, 7039","Match","Exact","110 S ASHBY AVE, LIVINGSTON, NJ, 07039",63478103,"R"
19954,"110 S BLAINE ST","MOSCOW","ID",83843,46.733663054,-116.985793969,454,"110 S BLAINE ST, MOSCOW, ID, 83843","Match","Exact","110 S BLAINE ST, MOSCOW, ID, 83843",193850411,"R"
19955,"110 S BYNUM","LUFKIN","TX",75904,31.336366781,-94.738747592,455,"110 S BYNUM, LUFKIN, TX, 75904","Match","Exact","110 S BYNUM, LUFKIN, TX, 75904",23840671,"L"
19956,"110 S CENTENNIAL DRIVE SUITE B","MILLIKEN","CO",80543,40.329708854,-104.834304586,456,"110 S CENTENNIAL DRIVE SUITE B, MILLIKEN, CO, 80543","Match","Exact","110 CENTENNIAL DR, MILLIKEN, CO, 80543",634972128,"L"
19957,"110 S CLEVELAND","FARMERSVILLE","IL",62533,39.442962869,-89.65157053,457,"110 S CLEVELAND, FARMERSVILLE, IL, 62533","Match","Non_Exact","110 S CLEVELAND ST, FARMERSVILLE, IL, 62533",99433787,"L"
19958,"110 S COURT SQ","MCMINNVILLE","TN",37110,35.6812723940001,-85.773283423,458,"110 S COURT SQ, MCMINNVILLE, TN, 37110","Match","Exact","110 S COURT SQ, MCMINNVILLE, TN, 37110",81344788,"L"
19959,"110 S DURKEE ST","54911","WI",54914,NA,NA,459,"110 S DURKEE ST, 54911, WI, 54914","No_Match",NA,NA,NA,NA
19960,"110 S HAWTHORNE DR","SOUTH BEND","IN",46617,41.676443965,-86.217266782,460,"110 S HAWTHORNE DR, SOUTH BEND, IN, 46617","Match","Exact","110 S HAWTHORNE DR, SOUTH BEND, IN, 46617",8061134,"L"
19961,"110 S JEFF DAVIS AVE","JACKSONVILLE","AR",72076,NA,NA,461,"110 S JEFF DAVIS AVE, JACKSONVILLE, AR, 72076","Tie",NA,NA,NA,NA
19962,"110 S JOHNSON ST","WOODSTOCK","IL",60098,42.314520337,-88.4479733639999,462,"110 S JOHNSON ST, WOODSTOCK, IL, 60098","Match","Exact","110 S JOHNSON ST, WOODSTOCK, IL, 60098",119816921,"L"
19963,"110 S LA BREA AVENUE SUITE 215A","INGLEWOOD","CA",90301,33.9634357300001,-118.353338318,463,"110 S LA BREA AVENUE SUITE 215A, INGLEWOOD, CA, 90301","Match","Non_Exact","110 N LA BREA AVE, INGLEWOOD, CA, 90301",142750098,"R"
19964,"110 S LINN ST","ROLAND","IA",50236,42.166189022,-93.4990922819999,464,"110 S LINN ST, ROLAND, IA, 50236","Match","Exact","110 S LINN ST, ROLAND, IA, 50236",65941808,"R"
19965,"110 S LOCUST ST","BENNETT","IA",52721,NA,NA,465,"110 S LOCUST ST, BENNETT, IA, 52721","No_Match",NA,NA,NA,NA
19966,"110 S MAIN ST","MORGANVILLE","KS",67468,NA,NA,466,"110 S MAIN ST, MORGANVILLE, KS, 67468","Tie",NA,NA,NA,NA
19967,"110 S MAIN","NOBLE","OK",73068,35.1390871840001,-97.394680896,467,"110 S MAIN, NOBLE, OK, 73068","Match","Non_Exact","110 S MAIN ST, NOBLE, OK, 73068",99912782,"L"
19968,"110 S MARY AVE STE 2-107","NIPOMO","CA",93444,NA,NA,468,"110 S MARY AVE STE 2-107, NIPOMO, CA, 93444","No_Match",NA,NA,NA,NA
19969,"110 S PARK STREET","WILMINGTON","IL",60481,41.3062449720001,-88.1494789019999,469,"110 S PARK STREET, WILMINGTON, IL, 60481","Match","Exact","110 S PARK ST, WILMINGTON, IL, 60481",111530243,"R"
19970,"110 S PIONEER AVE","SHAVERTOWN","PA",18708,41.3055200540001,-75.934434793,470,"110 S PIONEER AVE, SHAVERTOWN, PA, 18708","Match","Exact","110 S PIONEER AVE, SHAVERTOWN, PA, 18708",80937028,"L"
19971,"110 S REGENT STREEET STE 200","SALT LAKE CITY","UT",84111,40.767055586,-111.88975469,471,"110 S REGENT STREEET STE 200, SALT LAKE CITY, UT, 84111","Match","Non_Exact","110 REGENT ST, SALT LAKE CITY, UT, 84111",176067384,"R"
19972,"110 S ROSEMEAD BLVD STE G","PASADENA","CA",91104,NA,NA,472,"110 S ROSEMEAD BLVD STE G, PASADENA, CA, 91104","No_Match",NA,NA,NA,NA
19973,"110 S SALUDA AVE","COLUMBIA","SC",29205,NA,NA,473,"110 S SALUDA AVE, COLUMBIA, SC, 29205","Tie",NA,NA,NA,NA
19974,"110 S WASHINGTON ST","BOULDER","MT",59632,46.2364840210001,-112.120957223,474,"110 S WASHINGTON ST, BOULDER, MT, 59632","Match","Exact","110 WASHINGTON ST, BOULDER, MT, 59632",153396824,"R"
19975,"110 S","MANKATO","MN",56001,44.1462589490001,-93.9945436739999,475,"110 S, MANKATO, MN, 56001","Match","Non_Exact","110 SOUTH RD, MANKATO, MN, 56001",28105748,"R"
19976,"110 SALINA STREET","ROCHESTER","NY",14619,43.1439070530001,-77.6521051189999,476,"110 SALINA STREET, ROCHESTER, NY, 14619","Match","Exact","110 SALINA ST, ROCHESTER, NY, 14619",642135864,"L"
19977,"110 SAMARITAN DRIVE STE 108","CUMMING","GA",30040,NA,NA,477,"110 SAMARITAN DRIVE STE 108, CUMMING, GA, 30040","No_Match",NA,NA,NA,NA
19978,"110 SAN ANTONIO ST APT 1125","AUSTIN","TX",78701,NA,NA,478,"110 SAN ANTONIO ST APT 1125, AUSTIN, TX, 78701","No_Match",NA,NA,NA,NA
19979,"110 SAN ANTONIO ST UNIT 1608","AUSTIN","TX",78701,NA,NA,479,"110 SAN ANTONIO ST UNIT 1608, AUSTIN, TX, 78701","No_Match",NA,NA,NA,NA
19980,"110 SANTA BARBARA AVE SUITE B8","MODESTO","CA",95354,37.6386977290001,-120.975382337,480,"110 SANTA BARBARA AVE SUITE B8, MODESTO, CA, 95354","Match","Exact","110 SANTA BARBARA AVE, MODESTO, CA, 95354",102606168,"R"
19981,"110 SAPPHIRE CT","KNIGHTDALE","NC",27545,35.813317899,-78.460079138,481,"110 SAPPHIRE CT, KNIGHTDALE, NC, 27545","Match","Exact","110 SAPPHIRE CT, KNIGHTDALE, NC, 27545",612815857,"R"
19982,"110 SARATOGA STREET SUITE 4","BALTIMORE","MD",21201,39.2930151480001,-76.6170051249999,482,"110 SARATOGA STREET SUITE 4, BALTIMORE, MD, 21201","Match","Non_Exact","110 W SARATOGA ST, BALTIMORE, MD, 21201",206420518,"R"
19983,"110 SCHOOL LANE","LOGAN TOWNSHIP","NJ",8085,39.751169125,-75.3541749029999,483,"110 SCHOOL LANE, LOGAN TOWNSHIP, NJ, 8085","Match","Exact","110 SCHOOL LN, LOGAN TOWNSHIP, NJ, 08085",643217923,"R"
19984,"110 SCOTT AVENUE SUITE 18A","HIGH POINT","NC",27262,35.9836930880001,-80.0242253219999,484,"110 SCOTT AVENUE SUITE 18A, HIGH POINT, NC, 27262","Match","Exact","110 SCOTT AVE, HIGH POINT, NC, 27262",131037828,"R"
19985,"110 SCOTT FARM RD","FRONT ROYAL","VA",22630,38.988143058,-78.0487134539999,485,"110 SCOTT FARM RD, FRONT ROYAL, VA, 22630","Match","Exact","110 SCOTT FARM RD, FRONT ROYAL, VA, 22630",159077020,"R"
19986,"110 SCOTT RD","BELLS","TX",75414,33.635703639,-96.405546688,486,"110 SCOTT RD, BELLS, TX, 75414","Match","Exact","110 SCOTT RD, BELLS, TX, 75414",646479209,"R"
19987,"110 SE 2ND ST UNIT 309","HALLANDALE BEACH","FL",33009,NA,NA,487,"110 SE 2ND ST UNIT 309, HALLANDALE BEACH, FL, 33009","Tie",NA,NA,NA,NA
19988,"110 SE 2ND STREET NUMBER 301","HALLANDALE","FL",33309,NA,NA,488,"110 SE 2ND STREET NUMBER 301, HALLANDALE, FL, 33309","No_Match",NA,NA,NA,NA
19989,"110 SE 4TH AVE SUITE 105","DELRAY BEACH","FL",33483,NA,NA,489,"110 SE 4TH AVE SUITE 105, DELRAY BEACH, FL, 33483","Tie",NA,NA,NA,NA
19990,"110 SE BALBOA AVE","STUART","FL",34994,27.200245513,-80.2405580619999,490,"110 SE BALBOA AVE, STUART, FL, 34994","Match","Exact","110 SE BALBOA AVE, STUART, FL, 34994",120401343,"L"
19991,"110 SE GRANT STREET 10","ANKENY","IA",50021,NA,NA,491,"110 SE GRANT STREET 10, ANKENY, IA, 50021","Tie",NA,NA,NA,NA
19992,"110 SEA POINT WAY","PITTSBURG","CA",94565,38.034751768,-121.88159616,492,"110 SEA POINT WAY, PITTSBURG, CA, 94565","Match","Exact","110 SEA POINT WAY, PITTSBURG, CA, 94565",192061273,"L"
19993,"110 SENECA ROAD","GREENSBORO","NC",27406,36.0349035240001,-79.79096372,493,"110 SENECA ROAD, GREENSBORO, NC, 27406","Match","Exact","110 SENECA RD, GREENSBORO, NC, 27406",131046356,"R"
19994,"110 SHAFER DR STE 5","BRODHEADSVILLE","PA",18322,40.920179594,-75.417453281,494,"110 SHAFER DR STE 5, BRODHEADSVILLE, PA, 18322","Match","Exact","110 SHAFER DR, BRODHEADSVILLE, PA, 18322",136764900,"R"
19995,"110 SHERI CT","NEW BERN","NC",28560,35.1203406380001,-76.954384964,495,"110 SHERI CT, NEW BERN, NC, 28560","Match","Exact","110 SHERI CT, NEW BERN, NC, 28560",34154202,"R"
19996,"110 SORENSEN ST  PO BOX 606","VIBORG","SD",57070,43.169380844,-97.08169558,496,"110 SORENSEN ST  PO BOX 606, VIBORG, SD, 57070","Match","Non_Exact","110 S SORENSEN ST, VIBORG, SD, 57070",173014395,"R"
19997,"110 SOUTH 74TH STREET WEST","MUSKOGEE","OK",74401,35.753311255,-95.46438189,497,"110 SOUTH 74TH STREET WEST, MUSKOGEE, OK, 74401","Match","Exact","110 S 74TH ST W, MUSKOGEE, OK, 74401",651754003,"R"
19998,"110 SOUTH A STREET","OXNARD","CA",93030,34.2027386880001,-119.178515429,498,"110 SOUTH A STREET, OXNARD, CA, 93030","Match","Exact","110 S A ST, OXNARD, CA, 93030",109958630,"L"
19999,"110 SOUTH BEECH  SUITE 1","PINE BLUFF","AR",71601,34.2293301650001,-92.009539146,499,"110 SOUTH BEECH  SUITE 1, PINE BLUFF, AR, 71601","Match","Non_Exact","110 S BEECH ST, PINE BLUFF, AR, 71601",2550404,"R"
20000,"110 SOUTH GOLIAD","ROCKWALL","TX",75087,32.9309556810001,-96.46033356,500,"110 SOUTH GOLIAD, ROCKWALL, TX, 75087","Match","Non_Exact","110 S GOLIAD ST, ROCKWALL, TX, 75087",123780145,"R"
