"ID","Address","City","State","Zip","lat","long","id","input_address","match_indicator","match_type","matched_address","tiger_line_id","tiger_side"
170001,"319 LAKEPOINTE DR","SOMERSET","KY",42503,37.0728698290001,-84.67844006,1,"319 LAKEPOINTE DR, SOMERSET, KY, 42503","Match","Exact","319 LAKEPOINTE DR, SOMERSET, KY, 42503",39097029,"R"
170002,"319 LIDA STREET","TRENTON","NJ",8610,40.200647858,-74.727940474,2,"319 LIDA STREET, TRENTON, NJ, 8610","Match","Exact","319 LIDA ST, TRENTON, NJ, 08610",60182656,"L"
170003,"319 LINKVIEW DRIVE","DUNCANVILLE","TX",75137,32.6242098430001,-96.91372881,3,"319 LINKVIEW DRIVE, DUNCANVILLE, TX, 75137","Match","Exact","319 LINKVIEW DR, DUNCANVILLE, TX, 75137",102943451,"R"
170004,"319 LOCKLEVEN DRIVE","COLUMBIA","SC",29223,34.1219838230001,-80.8944297149999,4,"319 LOCKLEVEN DRIVE, COLUMBIA, SC, 29223","Match","Exact","319 LOCKLEVEN DR, COLUMBIA, SC, 29223",604788975,"R"
170005,"319 LOS INDIOS RANCH RD","BOERNE","TX",78006,29.8115696780001,-98.637837274,5,"319 LOS INDIOS RANCH RD, BOERNE, TX, 78006","Match","Exact","319 LOS INDIOS RANCH RD, BOERNE, TX, 78006",102767010,"R"
170006,"319 LUCERNE DRIVE","NEW IBERIA","LA",70563,30.042559517,-91.797335893,6,"319 LUCERNE DRIVE, NEW IBERIA, LA, 70563","Match","Exact","319 LUCERNE DR, NEW IBERIA, LA, 70563",85362471,"R"
170007,"319 LYNN STREET","DANVILLE","VA",24541,36.5861728140001,-79.390237643,7,"319 LYNN STREET, DANVILLE, VA, 24541","Match","Exact","319 LYNN ST, DANVILLE, VA, 24541",56589889,"L"
170008,"319 MALLARD DR","AVON","IL",61415,40.6665390690001,-90.537493765,8,"319 MALLARD DR, AVON, IL, 61415","Match","Exact","319 MALLARD DR, AVON, IL, 61415",5506709,"R"
170009,"319 MAPLE AVE NW","RENTON","WA",98057,47.4870212060001,-122.221020114,9,"319 MAPLE AVE NW, RENTON, WA, 98057","Match","Exact","319 MAPLE AVE NW, RENTON, WA, 98057",239766187,"R"
170010,"319 MAPLE AVENUE","RICHMOND","VA",23226,37.5742473170001,-77.5195249939999,10,"319 MAPLE AVENUE, RICHMOND, VA, 23226","Match","Exact","319 MAPLE AVE, RICHMOND, VA, 23226",201532340,"R"
170011,"319 MAPLE STREET","NANTICOKE","PA",18634,NA,NA,11,"319 MAPLE STREET, NANTICOKE, PA, 18634","No_Match",NA,NA,NA,NA
170012,"319 MARTIN LANE","COTTONTOWN","TN",37048,36.4960405590001,-86.6233201599999,12,"319 MARTIN LANE, COTTONTOWN, TN, 37048","Match","Exact","319 MARTIN LN, COTTONTOWN, TN, 37048",29793519,"L"
170013,"319 MARY LANE","WARNER ROBINS","GA",31088,32.6025557150001,-83.651939328,13,"319 MARY LANE, WARNER ROBINS, GA, 31088","Match","Exact","319 MARY LN, WARNER ROBINS, GA, 31088",91218903,"L"
170014,"319 MEADOW VISTA DRIVE","TOWNSEND","DE",19734,39.3816987650001,-75.721347481,14,"319 MEADOW VISTA DRIVE, TOWNSEND, DE, 19734","Match","Exact","319 MEADOW VISTA DR, TOWNSEND, DE, 19734",187249367,"L"
170015,"319 MEIER STREET - FIRST FLOOR","EAST DUNDEE","IL",60118,42.101060943,-88.2755300439999,15,"319 MEIER STREET - FIRST FLOOR, EAST DUNDEE, IL, 60118","Match","Exact","319 MEIER ST, EAST DUNDEE, IL, 60118",119500513,"L"
170016,"319 MEIER STREET LOWR1","EAST DUNDEE","IL",60118,42.101060943,-88.2755300439999,16,"319 MEIER STREET LOWR1, EAST DUNDEE, IL, 60118","Match","Exact","319 MEIER ST, EAST DUNDEE, IL, 60118",119500513,"L"
170017,"319 MEIER STREET LWR 1","EAST DUNDEE","IL",60118,42.101060943,-88.2755300439999,17,"319 MEIER STREET LWR 1, EAST DUNDEE, IL, 60118","Match","Exact","319 MEIER ST, EAST DUNDEE, IL, 60118",119500513,"L"
170018,"319 MEIER STREET- FIRST FLOOR","EAST DUNDEE","IL",60118,42.101060943,-88.2755300439999,18,"319 MEIER STREET- FIRST FLOOR, EAST DUNDEE, IL, 60118","Match","Non_Exact","319 MEIER ST, EAST DUNDEE, IL, 60118",119500513,"L"
170019,"319 MELMARK COURT","RICHMOND","VA",23225,37.5100584200001,-77.5015808489999,19,"319 MELMARK COURT, RICHMOND, VA, 23225","Match","Exact","319 MELMARK CT, RICHMOND, VA, 23225",648105525,"R"
170020,"319 MIDWAY ISLAND","CLEARWATER","FL",33767,27.980411454,-82.812717553,20,"319 MIDWAY ISLAND, CLEARWATER, FL, 33767","Match","Exact","319 MIDWAY IS, CLEARWATER, FL, 33767",124663921,"R"
170021,"319 MILLER ROAD","LAKEWOOD","NJ",8701,40.0994024300001,-74.2471197309999,21,"319 MILLER ROAD, LAKEWOOD, NJ, 8701","Match","Exact","319 MILLER RD, LAKEWOOD, NJ, 08701",636226064,"R"
170022,"319 MOUNTAIN RD NE","ALBUQUERQUE","NM",87102,35.094378095,-106.642332728,22,"319 MOUNTAIN RD NE, ALBUQUERQUE, NM, 87102","Match","Exact","319 MOUNTAIN RD NE, ALBUQUERQUE, NM, 87102",206776685,"L"
170023,"319 N BENTON ST","OTTUMWA","IA",52501,41.027704568,-92.4202063879999,23,"319 N BENTON ST, OTTUMWA, IA, 52501","Match","Exact","319 N BENTON ST, OTTUMWA, IA, 52501",89614980,"L"
170024,"319 N MAIN","SPEARVILLE","KS",67876,NA,NA,24,"319 N MAIN, SPEARVILLE, KS, 67876","Tie",NA,NA,NA,NA
170025,"319 N WASHINGTON ST   UNIT 1775","OWOSSO","MI",48867,NA,NA,25,"319 N WASHINGTON ST   UNIT 1775, OWOSSO, MI, 48867","Tie",NA,NA,NA,NA
170026,"319 N WEBER RD PMB 279","BOLINGBROOK","IL",60490,41.6891493370001,-88.125903707,26,"319 N WEBER RD PMB 279, BOLINGBROOK, IL, 60490","Match","Exact","319 WEBER RD, BOLINGBROOK, IL, 60490",111583354,"R"
170027,"319 N WEBER RD PO BOX 382","BOLINGBROOK","IL",60490,41.6891493370001,-88.125903707,27,"319 N WEBER RD PO BOX 382, BOLINGBROOK, IL, 60490","Match","Exact","319 WEBER RD, BOLINGBROOK, IL, 60490",111583354,"R"
170028,"319 NEW BRITAIN ROAD UNIT 318","KENSINGTON","CT",6037,41.6399474510001,-72.769654218,28,"319 NEW BRITAIN ROAD UNIT 318, KENSINGTON, CT, 6037","Match","Non_Exact","319 NEW BRITAIN RD, KENSINGTON, CT, 06037",604947241,"L"
170029,"319 NEWMAN RD","LA MARQUE","TX",77568,29.3749422390001,-95.000963024,29,"319 NEWMAN RD, LA MARQUE, TX, 77568","Match","Exact","319 NEWMAN RD, LA MARQUE, TX, 77568",640294542,"L"
170030,"319 NORGULF ROAD","REISTERSTOWN","MD",21136,39.4698695820001,-76.818119134,30,"319 NORGULF ROAD, REISTERSTOWN, MD, 21136","Match","Exact","319 NORGULF RD, REISTERSTOWN, MD, 21136",191462294,"L"
170031,"319 NORTH 7TH STREET","SAINT PETER","MN",56082,44.330130882,-93.962503945,31,"319 NORTH 7TH STREET, SAINT PETER, MN, 56082","Match","Exact","319 N 7TH ST, SAINT PETER, MN, 56082",28689739,"R"
170032,"319 NORTH AVENUE S","SELMA","AL",36703,32.3784776540001,-87.0019679229999,32,"319 NORTH AVENUE S, SELMA, AL, 36703","Match","Non_Exact","319 NORTH AVE, SELMA, AL, 36703",1284684,"R"
170033,"319 NORTH EMBREE ST","PRINCETON","IN",47670,38.3577762100001,-87.575732075,33,"319 NORTH EMBREE ST, PRINCETON, IN, 47670","Match","Exact","319 N EMBREE ST, PRINCETON, IN, 47670",36382374,"L"
170034,"319 NORTH LAKE STREET","BOYNE CITY","MI",49712,45.2186270380001,-85.0149189959999,34,"319 NORTH LAKE STREET, BOYNE CITY, MI, 49712","Match","Exact","319 N LAKE ST, BOYNE CITY, MI, 49712",134486938,"L"
170035,"319 NORTH PRAIRIE AVE","FAIRMONT","MN",56031,43.6550603700001,-94.457960126,35,"319 NORTH PRAIRIE AVE, FAIRMONT, MN, 56031","Match","Exact","319 N PRAIRIE AVE, FAIRMONT, MN, 56031",9976223,"L"
170036,"319 NORTH SIERRA MADRE STREET","MOUNTAIN HOUSE","CA",95391,37.783365787,-121.554503693,36,"319 NORTH SIERRA MADRE STREET, MOUNTAIN HOUSE, CA, 95391","Match","Exact","319 N SIERRA MADRE ST, MOUNTAIN HOUSE, CA, 95391",600321879,"L"
170037,"319 NORTH WASHINGTON","BETHANY","IL",61914,39.647588371,-88.7394818769999,37,"319 NORTH WASHINGTON, BETHANY, IL, 61914","Match","Non_Exact","319 N WASHINGTON ST, BETHANY, IL, 61914",5815932,"R"
170038,"319 NOTTINGHAM ROAD PMB 207","SYRACUSE","NY",13210,43.02878773,-76.1115175739999,38,"319 NOTTINGHAM ROAD PMB 207, SYRACUSE, NY, 13210","Match","Exact","319 NOTTINGHAM RD, SYRACUSE, NY, 13210",653002795,"L"
170039,"319 NW 100TH ST","SEATTLE","WA",98177,47.701520078,-122.361044558,39,"319 NW 100TH ST, SEATTLE, WA, 98177","Match","Non_Exact","319 NW 100TH ST, SEATTLE, WA, 98177",186578527,"L"
170040,"319 NW SPRINGVIEW LOOP","PORT SAINT LUCIE","FL",34986,27.3343230620001,-80.394420418,40,"319 NW SPRINGVIEW LOOP, PORT SAINT LUCIE, FL, 34986","Match","Exact","319 SPRINGVIEW LOOP, PORT ST LUCIE, FL, 34986",633918960,"L"
170041,"319 NW WAITE ST","TOPEKA","KS",66606,39.0675027930001,-95.70418122,41,"319 NW WAITE ST, TOPEKA, KS, 66606","Match","Exact","319 NW WAITE ST, TOPEKA, KS, 66606",17885815,"L"
170042,"319 OAK STREET","THOMASVILLE","GA",31792,30.8372974430001,-83.985395625,42,"319 OAK STREET, THOMASVILLE, GA, 31792","Match","Exact","319 OAK ST, THOMASVILLE, GA, 31792",83103170,"L"
170043,"319 OPAL BROOK DR","ELIZABETHTON","TN",37643,36.3955881100001,-82.121358379,43,"319 OPAL BROOK DR, ELIZABETHTON, TN, 37643","Match","Exact","319 OPAL BROOK DR, ELIZABETHTON, TN, 37643",634030539,"L"
170044,"319 PANORAMA DRIVE","MARTINSBURG","WV",25403,NA,NA,44,"319 PANORAMA DRIVE, MARTINSBURG, WV, 25403","No_Match",NA,NA,NA,NA
170045,"319 PARK STREET","PLAINWELL","MI",49080,42.4407302590001,-85.6432863219999,45,"319 PARK STREET, PLAINWELL, MI, 49080","Match","Exact","319 PARK ST, PLAINWELL, MI, 49080",11428773,"R"
170046,"319 PINE STREET","POMPTON LAKES","NJ",7442,40.9848545070001,-74.28546727,46,"319 PINE STREET, POMPTON LAKES, NJ, 7442","Match","Exact","319 PINE ST, POMPTON LAKES, NJ, 07442",65256664,"R"
170047,"319 PINE STREET","SULLIVAN","MO",63080,38.210687729,-91.164186699,47,"319 PINE STREET, SULLIVAN, MO, 63080","Match","Exact","319 PINE ST, SULLIVAN, MO, 63080",99713995,"L"
170048,"319 PINEWOOD AVENUE","BROWNSVILLE","TN",38012,35.5954589310001,-89.2413855249999,48,"319 PINEWOOD AVENUE, BROWNSVILLE, TN, 38012","Match","Non_Exact","319 PINEWOOD ST, BROWNSVILLE, TN, 38012",63737146,"L"
170049,"319 RIPPLING DRIVE","BALL GROUND","GA",30107,34.286679269,-84.428776248,49,"319 RIPPLING DRIVE, BALL GROUND, GA, 30107","Match","Exact","319 RIPPLING DR, BALL GROUND, GA, 30107",648171369,"R"
170050,"319 RIVER ROAD","PHILLIPSBURG","NJ",8865,40.626240077,-75.186323852,50,"319 RIVER ROAD, PHILLIPSBURG, NJ, 8865","Match","Exact","319 RIVER RD, PHILLIPSBURG, NJ, 08865",98111804,"L"
170051,"319 ROSS AVENUE","ALAMOSA","CO",81101,37.47012312,-105.870174683,51,"319 ROSS AVENUE, ALAMOSA, CO, 81101","Match","Exact","319 ROSS AVE, ALAMOSA, CO, 81101",104175940,"L"
170052,"319 S 17TH ST SUITE 700","OMAHA","NE",68102,41.2573574510001,-95.938483989,52,"319 S 17TH ST SUITE 700, OMAHA, NE, 68102","Match","Non_Exact","319 S 17TH ST, OMAHA, NE, 68102",116988275,"L"
170053,"319 S 300 E","SAINT GEORGE","UT",84770,37.1027405410001,-113.576964361,53,"319 S 300 E, SAINT GEORGE, UT, 84770","Match","Exact","319 S 300 E, SAINT GEORGE, UT, 84770",607586897,"R"
170054,"319 S 9TH AVE","MAYWOOD","IL",60153,NA,NA,54,"319 S 9TH AVE, MAYWOOD, IL, 60153","Tie",NA,NA,NA,NA
170055,"319 S BOWIE","AMARILLO","TX",79106,35.212928957,-101.855194598,55,"319 S BOWIE, AMARILLO, TX, 79106","Match","Non_Exact","319 S BOWIE ST, AMARILLO, TX, 79106",182470612,"L"
170056,"319 S BROAD ST","LITITZ","PA",17543,40.1513230150001,-76.307097459,56,"319 S BROAD ST, LITITZ, PA, 17543","Match","Exact","319 S BROAD ST, LITITZ, PA, 17543",179655628,"L"
170057,"319 S GROVE ST","BERLIN","WI",54923,43.9622097970001,-88.9554446509999,57,"319 S GROVE ST, BERLIN, WI, 54923","Match","Exact","319 S GROVE ST, BERLIN, WI, 54923",73447740,"L"
170058,"319 S LIBERTY ST","REDGRANITE","WI",54970,44.0345493990001,-89.114919116,58,"319 S LIBERTY ST, REDGRANITE, WI, 54970","Match","Exact","319 S LIBERTY ST, REDGRANITE, WI, 54970",73480138,"L"
170059,"319 SABREWOOD LANE","PAULNE","SC",29374,34.8289137310001,-81.907060706,59,"319 SABREWOOD LANE, PAULNE, SC, 29374","Match","Non_Exact","319 SABREWOOD LN, PAULINE, SC, 29374",625162685,"L"
170060,"319 SANTA DOMINGO","HELOTES","TX",78023,29.5891789520001,-98.666249434,60,"319 SANTA DOMINGO, HELOTES, TX, 78023","Match","Exact","319 SANTA DOMINGO, HELOTES, TX, 78023",638591564,"L"
170061,"319 SCHUYLKILL ST","HARRISBURG","PA",17109,40.285686077,-76.8980715979999,61,"319 SCHUYLKILL ST, HARRISBURG, PA, 17109","Match","Non_Exact","319 SCHUYLKILL ST, HARRISBURG, PA, 17110",647496126,"R"
170062,"319 SE 13TH ST","CAPE CORAL","FL",33990,26.628410919,-81.968308749,62,"319 SE 13TH ST, CAPE CORAL, FL, 33990","Match","Non_Exact","319 SE 13TH ST, CAPE CORAL, FL, 33990",118008786,"L"
170063,"319 SHEARWATER POINT DRIVE","BLUFFTON","SC",29909,32.3061183460001,-80.9531932529999,63,"319 SHEARWATER POINT DRIVE, BLUFFTON, SC, 29909","Match","Exact","319 SHEARWATER POINT DR, BLUFFTON, SC, 29909",641617081,"L"
170064,"319 SIENNA DRIVE","CHAPIN","SC",29036,34.1327294000001,-81.262309844,64,"319 SIENNA DRIVE, CHAPIN, SC, 29036","Match","Exact","319 SIENNA DR, CHAPIN, SC, 29036",624382946,"L"
170065,"319 SOUTH MADISON AVENUE","DUNELLEN","NJ",8812,40.584777629,-74.466085151,65,"319 SOUTH MADISON AVENUE, DUNELLEN, NJ, 8812","Match","Exact","319 S MADISON AVE, DUNELLEN, NJ, 08812",60360493,"L"
170066,"319 ST JAMES CHURCH RD","ROSELAND","VA",22967,37.7306524960001,-79.014657947,66,"319 ST JAMES CHURCH RD, ROSELAND, VA, 22967","Match","Exact","319 ST JAMES CHURCH RD, ROSELAND, VA, 22967",98906152,"L"
170067,"319 SUNSET COLONY DRIVE","ROSHARON","TX",77583,29.4650148160001,-95.470268349,67,"319 SUNSET COLONY DRIVE, ROSHARON, TX, 77583","Match","Exact","319 SUNSET COLONY DR, ROSHARON, TX, 77583",627679048,"R"
170068,"319 SW COUNTY RD 138","FORT WHITE","FL",32038,29.8534318690001,-82.644946777,68,"319 SW COUNTY RD 138, FORT WHITE, FL, 32038","Match","Exact","319 SW CO RD 138, FORT WHITE, FL, 32038",606816306,"R"
170069,"319 SW WASHINGTON STREET SUITE 400","PORTLAND","OR",97204,45.519653809,-122.675048821,69,"319 SW WASHINGTON STREET SUITE 400, PORTLAND, OR, 97204","Match","Non_Exact","319 SW WASHINGTON ST, PORTLAND, OR, 97204",157504659,"R"
170070,"319 THE MAINE WEST","WILLIAMSBURG","VA",23185,37.243286314,-76.812690974,70,"319 THE MAINE WEST, WILLIAMSBURG, VA, 23185","Match","Exact","319 THE MAINE W, WILLIAMSBURG, VA, 23185",103772993,"L"
170071,"319 THIRD AVENUE NUMBER 4R","BROOKLYN","NY",11215,40.6767416480001,-73.9865933469999,71,"319 THIRD AVENUE NUMBER 4R, BROOKLYN, NY, 11215","Match","Exact","319 3RD AVE, BROOKLYN, NY, 11215",59075662,"L"
170072,"319 THOMAS JEFFERSON RD","LEHIGHTON","PA",18235,40.768251316,-75.790686783,72,"319 THOMAS JEFFERSON RD, LEHIGHTON, PA, 18235","Match","Exact","319 THOMAS JEFFERSON RD, LEHIGHTON, PA, 18235",80632012,"L"
170073,"319 THOMASTON ROAD UNIT 82","WATERTOWN","CT",6795,41.6133718390001,-73.1119317,73,"319 THOMASTON ROAD UNIT 82, WATERTOWN, CT, 6795","Match","Exact","319 THOMASTON RD, WATERTOWN, CT, 06795",648818278,"L"
170074,"319 TITTABAWASSEE ROAD","SAGINAW","MI",48604,43.4793855840001,-83.9197614459999,74,"319 TITTABAWASSEE ROAD, SAGINAW, MI, 48604","Match","Exact","319 TITTABAWASSEE RD, SAGINAW, MI, 48604",80210205,"L"
170075,"319 TOLERANCE CT","MOUNT LAUREL","NJ",8054,39.9418108310001,-74.897873668,75,"319 TOLERANCE CT, MOUNT LAUREL, NJ, 8054","Match","Exact","319 TOLERANCE CT, MOUNT LAUREL, NJ, 08054",134089814,"L"
170076,"319 TUCK RD","MCMINNVILLE","TN",32796,35.7223177610001,-85.77433726,76,"319 TUCK RD, MCMINNVILLE, TN, 32796","Match","Non_Exact","319 TUCK RD, MCMINNVILLE, TN, 37110",81354610,"L"
170077,"319 VANNA CT","HILLSIDE","IL",60162,41.8763264240001,-87.895228609,77,"319 VANNA CT, HILLSIDE, IL, 60162","Match","Exact","319 VANNA CT, HILLSIDE, IL, 60162",111727951,"R"
170078,"319 W BURNAM RD","COLUMBIA","MO",65203,NA,NA,78,"319 W BURNAM RD, COLUMBIA, MO, 65203","Tie",NA,NA,NA,NA
170079,"319 W CHISHOLM ST","ALPENA","MI",49707,45.0644243350001,-83.435949296,79,"319 W CHISHOLM ST, ALPENA, MI, 49707","Match","Exact","319 W CHISHOLM ST, ALPENA, MI, 49707",135791014,"R"
170080,"319 W COLLEGE TERRACE","FREDERICK","MD",21701,39.4186171860001,-77.42246464,80,"319 W COLLEGE TERRACE, FREDERICK, MD, 21701","Match","Exact","319 W COLLEGE TER, FREDERICK, MD, 21701",60672606,"L"
170081,"319 W DUMPLIN VALLEY RD","KODAK","TN",37764,35.97694964,-83.6227234679999,81,"319 W DUMPLIN VALLEY RD, KODAK, TN, 37764","Match","Exact","319 W DUMPLIN VALLEY RD, KODAK, TN, 37764",645030943,"R"
170082,"319 W HASTINGS RD","SPOKANE","WA",99218,47.768820653,-117.420163085,82,"319 W HASTINGS RD, SPOKANE, WA, 99218","Match","Exact","319 W HASTINGS RD, SPOKANE, WA, 99218",624664272,"L"
170083,"319 W LINCOLN AVE","ROYAL OAK","MI",48067,42.4833288310001,-83.146754479,83,"319 W LINCOLN AVE, ROYAL OAK, MI, 48067","Match","Exact","319 LINCOLN AVE, ROYAL OAK, MI, 48067",69745727,"L"
170084,"319 W ONTARIO ST SUITE 1","CHICAGO","IL",60654,41.893145399,-87.636893819,84,"319 W ONTARIO ST SUITE 1, CHICAGO, IL, 60654","Match","Non_Exact","319 W ONTARIO ST, CHICAGO, IL, 60654",605074036,"L"
170085,"319 W POINSETTIA STREET","LAKELAND","FL",33803,NA,NA,85,"319 W POINSETTIA STREET, LAKELAND, FL, 33803","Tie",NA,NA,NA,NA
170086,"319 W SECOND STREET","MADISON","IN",47250,38.735528059,-85.382630234,86,"319 W SECOND STREET, MADISON, IN, 47250","Match","Exact","319 W 2ND ST, MADISON, IN, 47250",31385812,"L"
170087,"319 W SWEET CORN DRIVE","SARATOGA SPRINGS","UT",84045,40.4007762790001,-111.927489062,87,"319 W SWEET CORN DRIVE, SARATOGA SPRINGS, UT, 84045","Match","Non_Exact","319 SWEET CORN WAY, SARATOGA SPRINGS, UT, 84045",601208603,"L"
170088,"319 W TULIP TREE AVE","ORANGE","CA",92865,33.839829627,-117.856413488,88,"319 W TULIP TREE AVE, ORANGE, CA, 92865","Match","Exact","319 TULIP TREE AVE, ORANGE, CA, 92865",617081926,"L"
170089,"319 WARD ROAD","TEXARKANA","AR",71854,33.424778148,-93.948703737,89,"319 WARD ROAD, TEXARKANA, AR, 71854","Match","Exact","319 WARD RD, TEXARKANA, AR, 71854",57289416,"R"
170090,"319 WARREN ST","LAKE GENEVA","WI",53147,42.5935820120001,-88.44023429,90,"319 WARREN ST, LAKE GENEVA, WI, 53147","Match","Exact","319 WARREN ST, LAKE GENEVA, WI, 53147",607346347,"R"
170091,"319 WASHINGTON STREET","CAMDEN","NJ",8103,39.940417413,-75.1245858409999,91,"319 WASHINGTON STREET, CAMDEN, NJ, 8103","Match","Exact","319 WASHINGTON ST, CAMDEN, NJ, 08103",134340866,"L"
170092,"319 WEBSTER AVENUE","CYTHIANA","KY",41031,38.382434695,-84.2921358679999,92,"319 WEBSTER AVENUE, CYTHIANA, KY, 41031","Match","Non_Exact","319 WEBSTER AVE, CYNTHIANA, KY, 41031",649783205,"L"
170093,"319 WEST COLUMBIA AVE  APT C","KISSIMMEE","NC",34741,NA,NA,93,"319 WEST COLUMBIA AVE  APT C, KISSIMMEE, NC, 34741","No_Match",NA,NA,NA,NA
170094,"319 WEST MAIN CROSS","PALMYRA","MO",63461,39.7996842790001,-91.525693825,94,"319 WEST MAIN CROSS, PALMYRA, MO, 63461","Match","Non_Exact","319 W MAIN CROSS ST, PALMYRA, MO, 63461",35331668,"L"
170095,"319 WEST MAIN STREET","CRISFIELD","MD",21817,37.981892256,-75.8531380859999,95,"319 WEST MAIN STREET, CRISFIELD, MD, 21817","Match","Exact","319 W MAIN ST, CRISFIELD, MD, 21817",104156784,"L"
170096,"319 WEST WALNUT STREET","LOCK HAVEN","PA",17745,41.1303577260001,-77.455629339,96,"319 WEST WALNUT STREET, LOCK HAVEN, PA, 17745","Match","Exact","319 W WALNUT ST, LOCK HAVEN, PA, 17745",77156663,"L"
170097,"319 WESTMOOR DR","LEBANON","IN",46052,40.0706272100001,-86.4707482599999,97,"319 WESTMOOR DR, LEBANON, IN, 46052","Match","Exact","319 WESTMOOR DR, LEBANON, IN, 46052",651929418,"R"
170098,"319 WESTTOWN ROAD SUITE W","WEST CHESTER","PA",19382,39.9614073660001,-75.588105936,98,"319 WESTTOWN ROAD SUITE W, WEST CHESTER, PA, 19382","Match","Exact","319 WESTTOWN RD, WEST CHESTER, PA, 19382",636604211,"L"
170099,"319 WRIGHT ST","POMEROY","OH",45769,39.038803676,-82.038614775,99,"319 WRIGHT ST, POMEROY, OH, 45769","Match","Exact","319 WRIGHT ST, POMEROY, OH, 45769",101273797,"L"
170100,"319","ENOLA","PA",17025,NA,NA,100,"319, ENOLA, PA, 17025","No_Match",NA,NA,NA,NA
170101,"3190 BELOTES FERRY ROAD","LEBANON","TN",37087,36.3109928540001,-86.3251018139999,101,"3190 BELOTES FERRY ROAD, LEBANON, TN, 37087","Match","Exact","3190 BELOTES FERRY RD, LEBANON, TN, 37087",89696783,"L"
170102,"3190 CORTONA DR","SAN JOSE","CA",95135,37.3129575290001,-121.771615337,102,"3190 CORTONA DR, SAN JOSE, CA, 95135","Match","Exact","3190 CORTONA DR, SAN JOSE, CA, 95135",123176033,"R"
170103,"3190 CORTSVILLE ROAD","SOUTH CHARLESTON","OH",45368,39.7955222590001,-83.761854069,103,"3190 CORTSVILLE ROAD, SOUTH CHARLESTON, OH, 45368","Match","Exact","3190 CORTSVILLE RD, S CHARLESTON, OH, 45368",135014607,"L"
170104,"3190 COTTONWOOD BEND 1008","FT MYERS","FL",33905,26.6993100240001,-81.7643236329999,104,"3190 COTTONWOOD BEND 1008, FT MYERS, FL, 33905","Match","Exact","3190 COTTONWOOD BEND, FORT MYERS, FL, 33905",618031083,"L"
170105,"3190 DISTILLERY ROAD","GREENBRIER","TN",37073,NA,NA,105,"3190 DISTILLERY ROAD, GREENBRIER, TN, 37073","No_Match",NA,NA,NA,NA
170106,"3190 E MILLBRAE AVE","FRESNO","CA",93710,36.8369713330001,-119.732838364,106,"3190 E MILLBRAE AVE, FRESNO, CA, 93710","Match","Exact","3190 E MILLBRAE AVE, FRESNO, CA, 93710",197598333,"L"
170107,"3190 EASTMAN LANE","PETALUMA","CA",94952,38.238407872,-122.698462453,107,"3190 EASTMAN LANE, PETALUMA, CA, 94952","Match","Exact","3190 EASTMAN LN, PETALUMA, CA, 94952",625101565,"L"
170108,"3190 N RIDGE RD","VERMILION","OH",44089,NA,NA,108,"3190 N RIDGE RD, VERMILION, OH, 44089","No_Match",NA,NA,NA,NA
170109,"3190 NW LANCASTER LANE TRLR 29","MOUNTAIN HOME","ID",83647,43.1546672530001,-115.709383787,109,"3190 NW LANCASTER LANE TRLR 29, MOUNTAIN HOME, ID, 83647","Match","Non_Exact","3190 NW LANCASTER LN, MOUNTAIN HOME, ID, 83647",117616004,"R"
170110,"3190 PACIFIC WAY","MIRAMAR","FL",33025,25.982319853,-80.2727528089999,110,"3190 PACIFIC WAY, MIRAMAR, FL, 33025","Match","Exact","3190 PACIFIC WAY, MIRAMAR, FL, 33025",114770501,"R"
170111,"3190 S HOPKINS AVE","TITUSVILLE","FL",32780,28.5802659730001,-80.805016165,111,"3190 S HOPKINS AVE, TITUSVILLE, FL, 32780","Match","Exact","3190 S HOPKINS AVE, TITUSVILLE, FL, 32780",651309163,"R"
170112,"3190 S VAUGHN WAY SUITE 500","AURORA","CO",80014,NA,NA,112,"3190 S VAUGHN WAY SUITE 500, AURORA, CO, 80014","No_Match",NA,NA,NA,NA
170113,"3190 SKANDER DR","FLINT","MI",48504,43.0794738210001,-83.739417965,113,"3190 SKANDER DR, FLINT, MI, 48504","Match","Exact","3190 SKANDER DR, FLINT, MI, 48504",69563630,"R"
170114,"3190 SKANDER DRIVE","FLINT","MI",48504,43.0794738210001,-83.739417965,114,"3190 SKANDER DRIVE, FLINT, MI, 48504","Match","Exact","3190 SKANDER DR, FLINT, MI, 48504",69563630,"R"
170115,"31900 NICHOLS SAWMILL RD","MAGNOLIA","TX",77355,30.206004637,-95.7501156009999,115,"31900 NICHOLS SAWMILL RD, MAGNOLIA, TX, 77355","Match","Exact","31900 NICHOLS SAWMILL RD, MAGNOLIA, TX, 77355",79277176,"R"
170116,"3191 AUTUMN LANE","CINCINATTI","OH",45239,39.204983785,-84.588967719,116,"3191 AUTUMN LANE, CINCINATTI, OH, 45239","Match","Non_Exact","3191 AUTUMN LN, CINCINNATI, OH, 45239",103916552,"R"
170117,"3191 CENTER STREET","BETHLEHEM","PA",18017,40.6592365700001,-75.3787010679999,117,"3191 CENTER STREET, BETHLEHEM, PA, 18017","Match","Exact","3191 CENTER ST, BETHLEHEM, PA, 18017",136898293,"L"
170118,"3191 GRAND AVE STE 188","MIAMI","FL",33133,25.727961712,-80.2454412019999,118,"3191 GRAND AVE STE 188, MIAMI, FL, 33133","Match","Exact","3191 GRAND AVE, MIAMI, FL, 33133",116015200,"R"
170119,"3191 GRAND AVENUE - 0175","MIAMI","FL",33233,25.727961712,-80.2454412019999,119,"3191 GRAND AVENUE - 0175, MIAMI, FL, 33233","Match","Non_Exact","3191 GRAND AVE, MIAMI, FL, 33133",116015200,"R"
170120,"3191 GRAND AVENUE","COCONUT GROVE","FL",33133,25.727961712,-80.2454412019999,120,"3191 GRAND AVENUE, COCONUT GROVE, FL, 33133","Match","Exact","3191 GRAND AVE, COCONUT GROVE, FL, 33133",116015200,"R"
170121,"3191 HOLIDAY SPRINGS BLVD UNIT 53","MARGATE","FL",33063,26.2679100240001,-80.232764634,121,"3191 HOLIDAY SPRINGS BLVD UNIT 53, MARGATE, FL, 33063","Match","Exact","3191 HOLIDAY SPRINGS BLVD, MARGATE, FL, 33063",648297677,"R"
170122,"3191 ORANGE STREET","NATIONAL CITY","CA",91950,32.661512713,-117.074063075,122,"3191 ORANGE STREET, NATIONAL CITY, CA, 91950","Match","Exact","3191 ORANGE ST, NATIONAL CITY, CA, 91950",195759323,"L"
170123,"3191 ROCKBRIDGE ROAD","AVONDALE ESTATES","GA",30002,33.7815377790001,-84.259041215,123,"3191 ROCKBRIDGE ROAD, AVONDALE ESTATES, GA, 30002","Match","Exact","3191 ROCKBRIDGE RD, AVONDALE EST, GA, 30002",642376314,"R"
170124,"3191 ROSEBROOK CV","SOUTHAVEN","MS",38672,34.9319224560001,-89.9336066069999,124,"3191 ROSEBROOK CV, SOUTHAVEN, MS, 38672","Match","Exact","3191 ROSEBROOK COVE, SOUTHAVEN, MS, 38672",91853536,"R"
170125,"3191 S VAUGHN WAY  LB","AURORA","CO",80014,NA,NA,125,"3191 S VAUGHN WAY  LB, AURORA, CO, 80014","No_Match",NA,NA,NA,NA
170126,"3191 S VAUGHN WAY","AURORA","CO",80014,NA,NA,126,"3191 S VAUGHN WAY, AURORA, CO, 80014","No_Match",NA,NA,NA,NA
170127,"31911 EAST NINE DR","LAGUNA NIGUEL","CA",92677,33.499896802,-117.718048829,127,"31911 EAST NINE DR, LAGUNA NIGUEL, CA, 92677","Match","Exact","31911 E NINE DR, LAGUNA NIGUEL, CA, 92677",144070358,"L"
170128,"31914 SOUTH LITE","MAGNOLIA","TX",77355,30.123695062,-95.7309073069999,128,"31914 SOUTH LITE, MAGNOLIA, TX, 77355","Match","Non_Exact","31914 S LITE ST, MAGNOLIA, TX, 77355",79278535,"R"
170129,"31915 RANCHO CALIFORNIA RD 200-375","TEMECULA","CA",92591,33.518082055,-117.096624315,129,"31915 RANCHO CALIFORNIA RD 200-375, TEMECULA, CA, 92591","Match","Exact","31915 RANCHO CALIFORNIA RD, TEMECULA, CA, 92591",630368138,"R"
170130,"3192 ADAMSWOOD DR","SAN JOSE","CA",95148,37.3283254560001,-121.785927783,130,"3192 ADAMSWOOD DR, SAN JOSE, CA, 95148","Match","Exact","3192 ADAMSWOOD DR, SAN JOSE, CA, 95148",122917307,"R"
170131,"3192 ALTON ROAD","ATLANTA","GA",30341,33.8801315220001,-84.257564014,131,"3192 ALTON ROAD, ATLANTA, GA, 30341","Match","Exact","3192 ALTON RD, ATLANTA, GA, 30341",23406813,"L"
170132,"3192 ARCHES BLUFF CIR","LANCASTER","SC",29720,34.9015162970001,-80.848222548,132,"3192 ARCHES BLUFF CIR, LANCASTER, SC, 29720","Match","Non_Exact","3192 ARCHES BLUFF DR, LANCASTER, SC, 29720",653325153,"L"
170133,"3192 BRANCH ST","DUQUOIN","IL",62832,38.064588803,-89.241334132,133,"3192 BRANCH ST, DUQUOIN, IL, 62832","Match","Non_Exact","3192 BRANCH ST, DU QUOIN, IL, 62832",93116897,"L"
170134,"3192 EAST PLEASANT RUN DRIVE","SHELBYVILLE","IN",46176,39.5110639640001,-85.730041346,134,"3192 EAST PLEASANT RUN DRIVE, SHELBYVILLE, IN, 46176","Match","Exact","3192 E PLEASANT RUN DR, SHELBYVILLE, IN, 46176",33219428,"R"
170135,"3192 EXCALIBUR AVE","WESTLAKE","OH",44145,41.4420004730001,-81.9404280379999,135,"3192 EXCALIBUR AVE, WESTLAKE, OH, 44145","Match","Exact","3192 EXCALIBUR AVE, WESTLAKE, OH, 44145",61153884,"L"
170136,"3192 HAYNES PARK DR","LITHONIA","GA",30038,33.690220498,-84.076725626,136,"3192 HAYNES PARK DR, LITHONIA, GA, 30038","Match","Exact","3192 HAYNES PARK DR, LITHONIA, GA, 30038",619382124,"L"
170137,"3192 LAMP POST LANE","TRAVERSE CITY","MI",49685,44.7342237600001,-85.7283226069999,137,"3192 LAMP POST LANE, TRAVERSE CITY, MI, 49685","Match","Exact","3192 LAMP POST LN, TRAVERSE CITY, MI, 49685",145538618,"R"
170138,"3192 MARTIN PL","E WENATCHEE","WA",98802,47.3850612750001,-120.223647972,138,"3192 MARTIN PL, E WENATCHEE, WA, 98802","Match","Exact","3192 MARTIN PL, EAST WENATCHEE, WA, 98802",619750431,"R"
170139,"3192 QUEENSBURY DR","LOS ANGELES","CA",90064,34.03302834,-118.408741935,139,"3192 QUEENSBURY DR, LOS ANGELES, CA, 90064","Match","Exact","3192 QUEENSBURY DR, LOS ANGELES, CA, 90064",141573600,"L"
170140,"31923 CHICOINE AVE","HAYWARD","CA",94544,37.616508536,-122.027533308,140,"31923 CHICOINE AVE, HAYWARD, CA, 94544","Match","Exact","31923 CHICOINE AVE, HAYWARD, CA, 94544",125025522,"R"
170141,"31927 CORTE POLLENSA","TEMECULA","CA",92592,33.4951554460001,-117.105245515,141,"31927 CORTE POLLENSA, TEMECULA, CA, 92592","Match","Exact","31927 CORTE POLLENSA, TEMECULA, CA, 92592",195085160,"R"
170142,"3193 CHURCH STREET","EAST POINT","GA",30344,33.668583412,-84.4471763189999,142,"3193 CHURCH STREET, EAST POINT, GA, 30344","Match","Exact","3193 CHURCH ST, EAST POINT, GA, 30344",17347993,"R"
170143,"3193 E LONG CIR S","CENTENNIAL","CO",80122,39.5739829440001,-104.953665456,143,"3193 E LONG CIR S, CENTENNIAL, CO, 80122","Match","Exact","3193 E LONG CIR S, CENTENNIAL, CO, 80122",177346053,"L"
170144,"3193 HIGHWAY 126 SUITE 101","BLOUNTVILLE","TN",37617,36.536797601,-82.3152953709999,144,"3193 HIGHWAY 126 SUITE 101, BLOUNTVILLE, TN, 37617","Match","Non_Exact","3193 STATE RTE 126, BLOUNTVILLE, TN, 37617",127836867,"L"
170145,"3193 LUDLOW RD","CLEVELAND","OH",44120,41.472757406,-81.57939484,145,"3193 LUDLOW RD, CLEVELAND, OH, 44120","Match","Exact","3193 LUDLOW RD, CLEVELAND, OH, 44120",61123485,"L"
170146,"3193 VALLEY BROOK PL","DECATUR","GA",30033,33.8074063770001,-84.26654975,146,"3193 VALLEY BROOK PL, DECATUR, GA, 30033","Match","Exact","3193 VALLEY BROOK PL, DECATUR, GA, 30033",23391820,"L"
170147,"3193 W LONDON DRIVE","YUMA","AZ",85364,32.693902624,-114.657229156,147,"3193 W LONDON DRIVE, YUMA, AZ, 85364","Match","Exact","3193 LONDON DR, YUMA, AZ, 85364",129656985,"L"
170148,"31935 WEST ROAD","NEW BOSTON","MI",48164,42.137215187,-83.349199787,148,"31935 WEST ROAD, NEW BOSTON, MI, 48164","Match","Exact","31935 WEST RD, NEW BOSTON, MI, 48164",95454917,"R"
170149,"31938 TEMECULA PARKWAY SUITE A","TEMECULA","CA",92592,33.4805919890001,-117.10049222,149,"31938 TEMECULA PARKWAY SUITE A, TEMECULA, CA, 92592","Match","Exact","31938 TEMECULA PKWY, TEMECULA, CA, 92592",651616810,"L"
170150,"31938 TEMECULA PKWY STE A397","TEMECULA","CA",92592,33.4805919890001,-117.10049222,150,"31938 TEMECULA PKWY STE A397, TEMECULA, CA, 92592","Match","Exact","31938 TEMECULA PKWY, TEMECULA, CA, 92592",651616810,"L"
170151,"3194 122ND ST","AMANA","IA",52203,41.829472761,-91.871567031,151,"3194 122ND ST, AMANA, IA, 52203","Match","Exact","3194 122ND ST, AMANA, IA, 52203",84389780,"L"
170152,"3194 E MCVICAR AVE","KINGMAN","AZ",86409,35.2668349210001,-114.005722978,152,"3194 E MCVICAR AVE, KINGMAN, AZ, 86409","Match","Exact","3194 MCVICAR AVE, KINGMAN, AZ, 86409",190307564,"L"
170153,"3194 INDUSTRIAL WAY SUITE K","CASTLE ROCK","CO",80109,39.4082461040001,-104.872255419,153,"3194 INDUSTRIAL WAY SUITE K, CASTLE ROCK, CO, 80109","Match","Exact","3194 INDUSTRIAL WAY, CASTLE ROCK, CO, 80109",130839543,"R"
170154,"3194 N 48TH ST","SPRINGDALE","AR",72762,36.2138827960001,-94.1827008449999,154,"3194 N 48TH ST, SPRINGDALE, AR, 72762","Match","Exact","3194 N 48TH ST, SPRINGDALE, AR, 72762",635793293,"R"
170155,"3194 QUINCY LANE","CLARKSVILLE","TN",37043,36.503025833,-87.230342387,155,"3194 QUINCY LANE, CLARKSVILLE, TN, 37043","Match","Exact","3194 QUINCY LN, CLARKSVILLE, TN, 37043",31830959,"R"
170156,"3194 S 206TH E PLACE","BROKEN ARROW","OK",74014,36.1176524530001,-95.7456378479999,156,"3194 S 206TH E PLACE, BROKEN ARROW, OK, 74014","Match","Exact","3194 S 206TH E PL, BROKEN ARROW, OK, 74014",617313417,"L"
170157,"3194 WESTOVER DR SE","WASHINGTON","DC",20020,38.867519056,-76.963348281,157,"3194 WESTOVER DR SE, WASHINGTON, DC, 20020","Match","Exact","3194 WESTOVER DR SE, WASHINGTON, DC, 20020",76232051,"L"
170158,"3194 WESTOVER DRIVE SE","WASHINGTON","DC",20020,38.867519056,-76.963348281,158,"3194 WESTOVER DRIVE SE, WASHINGTON, DC, 20020","Match","Exact","3194 WESTOVER DR SE, WASHINGTON, DC, 20020",76232051,"L"
170159,"31946 POPPY WAY","LAKE ELSINORE","CA",92532,33.660861573,-117.259798058,159,"31946 POPPY WAY, LAKE ELSINORE, CA, 92532","Match","Exact","31946 POPPY WAY, LAKE ELSINORE, CA, 92532",608994572,"L"
170160,"3195 BLUE RIDGE RD","COLUMBUS","OH",43219,40.0106715960001,-82.924824294,160,"3195 BLUE RIDGE RD, COLUMBUS, OH, 43219","Match","Exact","3195 BLUE RIDGE RD, COLUMBUS, OH, 43219",218692118,"R"
170161,"3195 BURDOCK AVE","WEST MELBOURNE","FL",32904,28.052368658,-80.674744445,161,"3195 BURDOCK AVE, WEST MELBOURNE, FL, 32904","Match","Exact","3195 BURDOCK AVE, W MELBOURNE, FL, 32904",632812298,"L"
170162,"3195 CRYSTAL RIVER HIGH DRIVE","CRYSTAL RIVER","FL",34428,NA,NA,162,"3195 CRYSTAL RIVER HIGH DRIVE, CRYSTAL RIVER, FL, 34428","No_Match",NA,NA,NA,NA
170163,"3195 DOWLEN RD STE 101-327","BEAUMONT","TX",77706,30.109389747,-94.168598596,163,"3195 DOWLEN RD STE 101-327, BEAUMONT, TX, 77706","Match","Exact","3195 DOWLEN RD, BEAUMONT, TX, 77706",73878393,"L"
170164,"3195 FOLSOM BLVD","SACRAMENTO","CA",95816,38.568354582,-121.465212283,164,"3195 FOLSOM BLVD, SACRAMENTO, CA, 95816","Match","Exact","3195 FOLSOM BLVD, SACRAMENTO, CA, 95816",133325088,"L"
170165,"3195 GABLE OAKS CT","MARIETTA","GA",30066,34.043298055,-84.4575164619999,165,"3195 GABLE OAKS CT, MARIETTA, GA, 30066","Match","Non_Exact","3195 GABLE OAKS CT NE, MARIETTA, GA, 30066",624671706,"R"
170166,"3195 GREEN OAKS DRIVE","WEST BLOOMFIELD","MI",48324,42.586937489,-83.415101826,166,"3195 GREEN OAKS DRIVE, WEST BLOOMFIELD, MI, 48324","Match","Exact","3195 GREEN OAKS DR, W BLOOMFIELD, MI, 48324",69822661,"L"
170167,"3195 HAZY HILLS AVE","HENDERSON","NV",89052,35.9929753220001,-115.12767787,167,"3195 HAZY HILLS AVE, HENDERSON, NV, 89052","Match","Exact","3195 HAZY HILLS AVE, HENDERSON, NV, 89052",650611552,"L"
170168,"3195 LAMAR AVENUE","PARIS","TX",75460,33.6608211440001,-95.517670013,168,"3195 LAMAR AVENUE, PARIS, TX, 75460","Match","Exact","3195 LAMAR AVE, PARIS, TX, 75460",63574687,"R"
170169,"3195 MT STERLING RD","METROPOLIS","IL",62910,37.1830238650001,-88.541666844,169,"3195 MT STERLING RD, METROPOLIS, IL, 62910","Match","Non_Exact","3195 MOUNT STERLING RD, NEW LIBERTY, IL, 62910",5902777,"L"
170170,"3195 N AUGUSTA DR","WADSWORTH","IL",60083,NA,NA,170,"3195 N AUGUSTA DR, WADSWORTH, IL, 60083","Tie",NA,NA,NA,NA
170171,"3195 N CONSTANTINE ST","BOISE","ID",83704,NA,NA,171,"3195 N CONSTANTINE ST, BOISE, ID, 83704","Tie",NA,NA,NA,NA
170172,"3195 NOBLE ROAD","SENECA FALLS","NY",13148,42.8867174900001,-76.75376901,172,"3195 NOBLE ROAD, SENECA FALLS, NY, 13148","Match","Exact","3195 NOBLE RD, SENECA FALLS, NY, 13148",14680957,"R"
170173,"3195 OLD WASHINGTON ROAD SUITE 224","WALDORF","MD",20602,38.622976254,-76.910076702,173,"3195 OLD WASHINGTON ROAD SUITE 224, WALDORF, MD, 20602","Match","Non_Exact","3195 OLD WASHINGTON RD, WALDORF, MD, 20602",647438999,"L"
170174,"3195 OLD WASHINGTON ROAD","WALDORF","MD",20602,38.622976254,-76.910076702,174,"3195 OLD WASHINGTON ROAD, WALDORF, MD, 20602","Match","Exact","3195 OLD WASHINGTON RD, WALDORF, MD, 20602",647438999,"L"
170175,"3195 PARK AVENUE","OCEANSIDE","NY",11572,40.63374363,-73.6313695269999,175,"3195 PARK AVENUE, OCEANSIDE, NY, 11572","Match","Exact","3195 PARK AVE, OCEANSIDE, NY, 11572",147681585,"L"
170176,"3195 RED HILL AVE SUITE J","COSTA MESA","CA",92626,NA,NA,176,"3195 RED HILL AVE SUITE J, COSTA MESA, CA, 92626","No_Match",NA,NA,NA,NA
170177,"3195 ROSEHEATH LANE","LITHONIA","GA",30038,33.693098181,-84.192021502,177,"3195 ROSEHEATH LANE, LITHONIA, GA, 30038","Match","Exact","3195 ROSEHEATH LN, LITHONIA, GA, 30038",23373045,"R"
170178,"3195 S SUPERIOR STREET SUITE 403","MILWAUKEE","WI",53207,42.987041226,-87.871084545,178,"3195 S SUPERIOR STREET SUITE 403, MILWAUKEE, WI, 53207","Match","Non_Exact","3195 S SUPERIOR ST, MILWAUKEE, WI, 53207",646186690,"R"
170179,"3195 S TROPICAL TRAIL","MERRITT ISLAND","FL",32952,28.3020199380001,-80.68327979,179,"3195 S TROPICAL TRAIL, MERRITT ISLAND, FL, 32952","Match","Exact","3195 S TROPICAL TRL, MERRITT ISLAND, FL, 32952",93947580,"R"
170180,"3195 SIEBENTHALER AVE","DAYTON","OH",45406,39.798254667,-84.2393068969999,180,"3195 SIEBENTHALER AVE, DAYTON, OH, 45406","Match","Non_Exact","3195 W SIEBENTHALER AVE, DAYTON, OH, 45406",636573087,"R"
170181,"3195 SOUTH SUPERIOR STREET","MILWAUKEE","WI",53207,42.987046062,-87.8710938259999,181,"3195 SOUTH SUPERIOR STREET, MILWAUKEE, WI, 53207","Match","Exact","3195 S SUPERIOR ST, MILWAUKEE, WI, 53207",646186690,"R"
170182,"3195 STEED DR","FLORISSANT","MO",63033,38.7945480870001,-90.294689611,182,"3195 STEED DR, FLORISSANT, MO, 63033","Match","Exact","3195 STEED DR, FLORISSANT, MO, 63033",100144723,"L"
170183,"3195 STEED DRIVE","FLORISSANT","MO",63033,38.7945480870001,-90.294689611,183,"3195 STEED DRIVE, FLORISSANT, MO, 63033","Match","Exact","3195 STEED DR, FLORISSANT, MO, 63033",100144723,"L"
170184,"31951 E BIRD ST","CARNATION","WA",98014,NA,NA,184,"31951 E BIRD ST, CARNATION, WA, 98014","No_Match",NA,NA,NA,NA
170185,"31951 MEDICINE CREEK RD","KENNEBEC","SD",57544,NA,NA,185,"31951 MEDICINE CREEK RD, KENNEBEC, SD, 57544","No_Match",NA,NA,NA,NA
170186,"31951 OXFORD MILL RD","CANNON FALLS","MN",55009,44.484037664,-92.93145483,186,"31951 OXFORD MILL RD, CANNON FALLS, MN, 55009","Match","Exact","31951 OXFORD MILL RD, CANNON FALLS, MN, 55009",31560090,"L"
170187,"31952 PACIFIC COAST HIGHWAY","MALIBU","CA",90265,34.0394576360001,-118.870988594,187,"31952 PACIFIC COAST HIGHWAY, MALIBU, CA, 90265","Match","Exact","31952 PACIFIC COAST HWY, MALIBU, CA, 90265",142784579,"R"
170188,"31956 VIA FAISAN","COTO DE CAZA","CA",92679,33.6186088870001,-117.574420954,188,"31956 VIA FAISAN, COTO DE CAZA, CA, 92679","Match","Exact","31956 VIA FAISAN, COTO DE CAZA, CA, 92679",144380023,"L"
170189,"31959 CARNEROS AVE","LEWES","DE",19958,38.7501401280001,-75.194202638,189,"31959 CARNEROS AVE, LEWES, DE, 19958","Match","Exact","31959 CARNEROS AVE, LEWES, DE, 19958",640585202,"R"
170190,"3196 DALE HOLLOW DRIVE","LEXINGTON","KY",40515,37.9870338170001,-84.4532862579999,190,"3196 DALE HOLLOW DRIVE, LEXINGTON, KY, 40515","Match","Exact","3196 DALE HOLLOW DR, LEXINGTON, KY, 40515",31940874,"R"
170191,"3196 SHELTER COVE LANE","ELK GROVE","CA",95758,38.407990275,-121.468189571,191,"3196 SHELTER COVE LANE, ELK GROVE, CA, 95758","Match","Exact","3196 SHELTER COVE LN, ELK GROVE, CA, 95758",133403557,"L"
170192,"3196 WESTOVER DR SE","WASHINGTON","DC",20020,38.8675472360001,-76.963463168,192,"3196 WESTOVER DR SE, WASHINGTON, DC, 20020","Match","Exact","3196 WESTOVER DR SE, WASHINGTON, DC, 20020",76232051,"L"
170193,"31966 AVENIDA MALLARI","TEMECULA","CA",92591,33.528528248,-117.102137542,193,"31966 AVENIDA MALLARI, TEMECULA, CA, 92591","Match","Exact","31966 AVE MALLARI, TEMECULA, CA, 92591",608999352,"L"
170194,"31969 ROSALES AVENUE","MURRIETA","CA",92563,33.5646738780001,-117.102354743,194,"31969 ROSALES AVENUE, MURRIETA, CA, 92563","Match","Exact","31969 ROSALES AVE, MURRIETA, CA, 92563",608999428,"R"
170195,"3197 BELMONT ST","BELLAIRE","OH",43906,40.013925833,-80.743302964,195,"3197 BELMONT ST, BELLAIRE, OH, 43906","Match","Exact","3197 BELMONT ST, BELLAIRE, OH, 43906",36265953,"R"
170196,"3197 S REDWOOD ROAD","WEST VALLEY CITY","UT",84119,40.702114759,-111.938912101,196,"3197 S REDWOOD ROAD, WEST VALLEY CITY, UT, 84119","Match","Exact","3197 REDWOOD RD, WEST VALLEY CITY, UT, 84119",616353935,"L"
170197,"3197 STATE ROAD 29","WILSON","WI",54027,NA,NA,197,"3197 STATE ROAD 29, WILSON, WI, 54027","No_Match",NA,NA,NA,NA
170198,"3197 SW ARANDA STREET","PORT SAINT LUCIE","FL",34953,27.2494088810001,-80.396952276,198,"3197 SW ARANDA STREET, PORT SAINT LUCIE, FL, 34953","Match","Exact","3197 SW ARANDA ST, PORT ST LUCIE, FL, 34953",120169919,"R"
170199,"31978 VOLLENTINE RD","GORDON","NE",69343,42.674881419,-102.030518368,199,"31978 VOLLENTINE RD, GORDON, NE, 69343","Match","Exact","31978 VOLLENTINE RD, GORDON, NE, 69343",650833637,"L"
170200,"3198 AIRPORT LOOP DR STE B","COSTA MESA","CA",92626,33.6854772930001,-117.865114274,200,"3198 AIRPORT LOOP DR STE B, COSTA MESA, CA, 92626","Match","Exact","3198 AIRPORT LOOP DR, COSTA MESA, CA, 92626",144049026,"R"
170201,"3198 AMBASSADOR AVE","SPRIN HILL","FL",34609,28.4792698580001,-82.4944897459999,201,"3198 AMBASSADOR AVE, SPRIN HILL, FL, 34609","Match","Non_Exact","3198 AMBASSADOR AVE, SPRING HILL, FL, 34609",85445644,"L"
170202,"3198 RIDGE ROAD EXTENSION","FREEDOM","PA",15042,NA,NA,202,"3198 RIDGE ROAD EXTENSION, FREEDOM, PA, 15042","No_Match",NA,NA,NA,NA
170203,"3198 SILVERADO TRAIL","NAPA","CA",94558,38.3480685010001,-122.283422416,203,"3198 SILVERADO TRAIL, NAPA, CA, 94558","Match","Exact","3198 SILVERADO TRL, NAPA, CA, 94558",67420940,"R"
170204,"3199 CRESTON PARK CT","DULUTH","GA",30096,33.9572108150001,-84.115265813,204,"3199 CRESTON PARK CT, DULUTH, GA, 30096","Match","Exact","3199 CRESTON PARK CT, DULUTH, GA, 30096",636429262,"R"
170205,"3199 DOBBINS ROAD","POLAND","OH",44514,41.0057618330001,-80.591139023,205,"3199 DOBBINS ROAD, POLAND, OH, 44514","Match","Exact","3199 DOBBINS RD, POLAND, OH, 44514",64615458,"R"
170206,"3199 KAWALKER LANE","SAN JOSE","CA",95127,37.3867136700001,-121.841432997,206,"3199 KAWALKER LANE, SAN JOSE, CA, 95127","Match","Exact","3199 KAWALKER LN, SAN JOSE, CA, 95127",122964715,"L"
170207,"3199 N STUDLEY RD","NORTH PLATTE","NE",69101,41.161472818,-100.734115241,207,"3199 N STUDLEY RD, NORTH PLATTE, NE, 69101","Match","Exact","3199 N STUDLEY RD, NORTH PLATTE, NE, 69101",151263523,"R"
170208,"3199 NORTH COTTONWOOD LANE","PROVO","UT",84604,40.275749537,-111.664837429,208,"3199 NORTH COTTONWOOD LANE, PROVO, UT, 84604","Match","Exact","3199 N COTTONWOOD LN, PROVO, UT, 84604",134232685,"L"
170209,"3199 ORCHARD VIEW CT","AUBURN HILLS","MI",48326,42.688206006,-83.2695681019999,209,"3199 ORCHARD VIEW CT, AUBURN HILLS, MI, 48326","Match","Exact","3199 ORCHARD VIEW CT, AUBURN HILLS, MI, 48326",69825270,"L"
170210,"3199 W PARK LANE DR","MERRIONETTE PARK","IL",60803,41.6791878230001,-87.7002719399999,210,"3199 W PARK LANE DR, MERRIONETTE PARK, IL, 60803","Match","Exact","3199 W PARK LANE DR, MERRIONETTE PARK, IL, 60803",639816054,"L"
170211,"31997 SAGINAW AVE","BURBANK","SD",57010,42.749279996,-96.875546162,211,"31997 SAGINAW AVE, BURBANK, SD, 57010","Match","Exact","31997 SAGINAW AVE, BURBANK, SD, 57010",172954336,"L"
170212,"31A YORKTOWNE PKWY","WHITING","NJ",8759,39.9606578230001,-74.365573399,212,"31A YORKTOWNE PKWY, WHITING, NJ, 8759","Match","Exact","31 YORKTOWNE PKWY, WHITING, NJ, 08759",203845325,"R"
170213,"31C COOPER ROAD","GLOCESTER","RI",2814,NA,NA,213,"31C COOPER ROAD, GLOCESTER, RI, 2814","Tie",NA,NA,NA,NA
170214,"32 10TH AVE SO STE 101","HOPKINS","MN",55343,44.9236920110001,-93.412742911,214,"32 10TH AVE SO STE 101, HOPKINS, MN, 55343","Match","Exact","32 10TH AVE S, HOPKINS, MN, 55343",43612419,"R"
170215,"32 6TH STREET NORTHWEST","SIOUX CENTER","IA",51250,43.083176764,-96.176174665,215,"32 6TH STREET NORTHWEST, SIOUX CENTER, IA, 51250","Match","Exact","32 6TH ST NW, SIOUX CENTER, IA, 51250",93371943,"R"
170216,"32 6TH STREET","HARRISON","NJ",7029,40.746271532,-74.152058828,216,"32 6TH STREET, HARRISON, NJ, 7029","Match","Exact","32 6TH ST, HARRISON, NJ, 07029",59601411,"L"
170217,"32 ADVENTURA","FESTUS","MO",63028,38.200804867,-90.420723105,217,"32 ADVENTURA, FESTUS, MO, 63028","Match","Non_Exact","32 ADVENTURA DR, FESTUS, MO, 63028",653456032,"L"
170218,"32 ALDEN AVE","ENFIELD","CT",6082,42.0024526190001,-72.598771458,218,"32 ALDEN AVE, ENFIELD, CT, 6082","Match","Exact","32 ALDEN AVE, ENFIELD, CT, 06082",3479961,"R"
170219,"32 ARNOLD LANE","ROBBINSVILLE","NJ",8691,40.2267557770001,-74.614384704,219,"32 ARNOLD LANE, ROBBINSVILLE, NJ, 8691","Match","Exact","32 ARNOLD LN, ROBBINSVILLE, NJ, 08691",60193022,"R"
170220,"32 ARTIST LAKE BLVD","MIDDLE ISLAND","NY",11953,40.8943418040001,-72.937126298,220,"32 ARTIST LAKE BLVD, MIDDLE ISLAND, NY, 11953","Match","Exact","32 ARTIST LAKE BLVD, MIDDLE ISLAND, NY, 11953",114011898,"L"
170221,"32 ATTERBURY AVENUE","TRENTON","NJ",8618,40.2269386180001,-74.782281736,221,"32 ATTERBURY AVENUE, TRENTON, NJ, 8618","Match","Exact","32 ATTERBURY AVE, TRENTON, NJ, 08618",60178097,"L"
170222,"32 AUGER WAY","BASYE","VA",22810,NA,NA,222,"32 AUGER WAY, BASYE, VA, 22810","No_Match",NA,NA,NA,NA
170223,"32 BALIN AVENUE","SOUTH SETAUKET","NY",11720,40.887514589,-73.081129873,223,"32 BALIN AVENUE, SOUTH SETAUKET, NY, 11720","Match","Exact","32 BALIN AVE, S SETAUKET, NY, 11720",114001899,"L"
170224,"32 BALSAM DRIVE","DIX HILLS","NY",11746,40.814267247,-73.349394488,224,"32 BALSAM DRIVE, DIX HILLS, NY, 11746","Match","Exact","32 BALSAM DR, DIX HILLS, NY, 11746",113968481,"L"
170225,"32 BALTIMORE AVE LANSDOWNE PA 19050","LANSDOWNE","PA",19050,NA,NA,225,"32 BALTIMORE AVE LANSDOWNE PA 19050, LANSDOWNE, PA, 19050","Tie",NA,NA,NA,NA
170226,"32 BANK STREET","BENNINGTON","VT",5201,42.8875291460001,-73.211453633,226,"32 BANK STREET, BENNINGTON, VT, 5201","Match","Exact","32 BANK ST, BENNINGTON, VT, 05201",139201485,"R"
170227,"32 BATES STREET","HARTFORD","CT",6114,41.7301347820001,-72.693521969,227,"32 BATES STREET, HARTFORD, CT, 6114","Match","Exact","32 BATES ST, HARTFORD, CT, 06114",3515847,"L"
170228,"32 BEECH STREET","EAST ORANGE","NJ",7018,40.758132163,-74.214738196,228,"32 BEECH STREET, EAST ORANGE, NJ, 7018","Match","Exact","32 BEECH ST, EAST ORANGE, NJ, 07018",63450631,"R"
170229,"32 BEECHWOOD ROAD","WELLESLEY","MA",2482,42.307317965,-71.318308491,229,"32 BEECHWOOD ROAD, WELLESLEY, MA, 2482","Match","Exact","32 BEECHWOOD RD, WELLESLEY, MA, 02482",87236406,"L"
170230,"32 BEGONIA COURT","PARKVILLE","MD",21234,39.383566047,-76.512339287,230,"32 BEGONIA COURT, PARKVILLE, MD, 21234","Match","Exact","32 BEGONIA CT, PARKVILLE, MD, 21234",191477484,"R"
170231,"32 BEN MERRILL ROAD","CLINTON","CT",6413,NA,NA,231,"32 BEN MERRILL ROAD, CLINTON, CT, 6413","Tie",NA,NA,NA,NA
170232,"32 BENHARDT ROAD","MILLTOWN","NJ",8850,40.4506337500001,-74.425687562,232,"32 BENHARDT ROAD, MILLTOWN, NJ, 8850","Match","Exact","32 BENHARDT RD, MILLTOWN, NJ, 08850",60299159,"R"
170233,"32 BERGEN AVE","WALDWICK","NJ",7463,41.0150997530001,-74.118492408,233,"32 BERGEN AVE, WALDWICK, NJ, 7463","Match","Exact","32 BERGEN AVE, WALDWICK, NJ, 07463",64365979,"R"
170234,"32 BIG DAM ROAD","DILLSBURG","PA",17019,40.0361181170001,-77.0302852519999,234,"32 BIG DAM ROAD, DILLSBURG, PA, 17019","Match","Exact","32 BIG DAM RD, DILLSBURG, PA, 17019",649993857,"L"
170235,"32 BLANCO","FOOTHILL RANCH","CA",92610,33.6835815910001,-117.66428443,235,"32 BLANCO, FOOTHILL RANCH, CA, 92610","Match","Exact","32 BLANCO, FOOTHILL RNCH, CA, 92610",144380649,"R"
170236,"32 BLUM STEET","NEWARK","NJ",7103,40.733137436,-74.2022309509999,236,"32 BLUM STEET, NEWARK, NJ, 7103","Match","Exact","32 BLUM ST, NEWARK, NJ, 07103",63465598,"R"
170237,"32 BLYDENBURGH LANE","STONY BROOK","NY",11790,40.9114904950001,-73.140447544,237,"32 BLYDENBURGH LANE, STONY BROOK, NY, 11790","Match","Exact","32 BLYDENBURGH LN, STONY BROOK, NY, 11790",114242160,"L"
170238,"32 BLYDENBURGH LN","STONY BROOK","NY",11790,40.9114904950001,-73.140447544,238,"32 BLYDENBURGH LN, STONY BROOK, NY, 11790","Match","Exact","32 BLYDENBURGH LN, STONY BROOK, NY, 11790",114242160,"L"
170239,"32 BOLTE LANE","RENSSELAERVILLE","NY",12147,42.538974862,-74.119900323,239,"32 BOLTE LANE, RENSSELAERVILLE, NY, 12147","Match","Exact","32 BOLTE LN, RENSSELAERVILLE, NY, 12147",18327602,"R"
170240,"32 BOLTON PLACE","BLOOMFIELD","NJ",7003,40.8367135870001,-74.169484075,240,"32 BOLTON PLACE, BLOOMFIELD, NJ, 7003","Match","Non_Exact","32 BOLTEN PL, BLOOMFIELD, NJ, 07003",63452424,"L"
170241,"32 BRANDON AVE","SPRINGFIELD","MA",1119,42.1385343220001,-72.51490992,241,"32 BRANDON AVE, SPRINGFIELD, MA, 1119","Match","Exact","32 BRANDON AVE, SPRINGFIELD, MA, 01119",4024618,"L"
170242,"32 BRIARWOOD AVE","SPRINGFIELD","MA",1118,42.101223874,-72.527782606,242,"32 BRIARWOOD AVE, SPRINGFIELD, MA, 1118","Match","Exact","32 BRIARWOOD AVE, SPRINGFIELD, MA, 01118",4037002,"R"
170243,"32 BRIGHTON ST","HIGHLAND PARK","MI",48203,42.4145492740001,-83.1157671829999,243,"32 BRIGHTON ST, HIGHLAND PARK, MI, 48203","Match","Exact","32 BRIGHTON ST, HIGHLAND PARK, MI, 48203",95462217,"R"
170244,"32 BROAD COVE RD","CAPE ELIZABETH","ME",4107,43.573337302,-70.212768664,244,"32 BROAD COVE RD, CAPE ELIZABETH, ME, 4107","Match","Exact","32 BROAD COVE RD, CAPE ELIZABETH, ME, 04107",647477192,"L"
170245,"32 BROADWAY SUITE 1214","NEW YORK","NY",10004,40.7063193490001,-74.0128719849999,245,"32 BROADWAY SUITE 1214, NEW YORK, NY, 10004","Match","Exact","32 BROADWAY, NEW YORK, NY, 10004",59659614,"R"
170246,"32 BUNCH DR","GARDEN VALLEY","ID",83622,44.189168212,-115.942488438,246,"32 BUNCH DR, GARDEN VALLEY, ID, 83622","Match","Exact","32 BUNCH DR, GARDEN VALLEY, ID, 83622",651761802,"R"
170247,"32 BURNHAM ST","SOMERVILLE","MA",2144,42.4018515750001,-71.12138734,247,"32 BURNHAM ST, SOMERVILLE, MA, 2144","Match","Exact","32 BURNHAM ST, SOMERVILLE, MA, 02144",86856031,"L"
170248,"32 BURR OAK CIRCLE","BUNNLEVEL","NC",28323,35.3047705610001,-78.969192038,248,"32 BURR OAK CIRCLE, BUNNLEVEL, NC, 28323","Match","Exact","32 BURR OAK CIR, BUNNLEVEL, NC, 28323",646935835,"R"
170249,"32 CALDWELL PLACE","LACKAWANNA","NY",14218,42.825099627,-78.832939736,249,"32 CALDWELL PLACE, LACKAWANNA, NY, 14218","Match","Exact","32 CALDWELL PL, LACKAWANNA, NY, 14218",48302483,"L"
170250,"32 CANNON STREET","POUGHKEEPSIE","NY",12601,41.70234205,-73.927802685,250,"32 CANNON STREET, POUGHKEEPSIE, NY, 12601","Match","Exact","32 CANNON ST, POUGHKEEPSIE, NY, 12601",4167994,"R"
170251,"32 CARTER RD","DIXFIELD","ME",4224,44.5480747490001,-70.388797701,251,"32 CARTER RD, DIXFIELD, ME, 4224","Match","Exact","32 CARTER RD, DIXFIELD, ME, 04224",92677759,"L"
170252,"32 CATAMARAN CIRCLE","PINGREE GROVE","IL",60140,NA,NA,252,"32 CATAMARAN CIRCLE, PINGREE GROVE, IL, 60140","No_Match",NA,NA,NA,NA
170253,"32 CENTRAL ST","TURNERS FALLS","MA",1376,42.604808029,-72.553606094,253,"32 CENTRAL ST, TURNERS FALLS, MA, 1376","Match","Exact","32 CENTRAL ST, TURNERS FALLS, MA, 01376",39916324,"L"
170254,"32 CHADWICK MANOR","FAIRPORT","NY",14450,NA,NA,254,"32 CHADWICK MANOR, FAIRPORT, NY, 14450","Tie",NA,NA,NA,NA
170255,"32 CHASE COMMONS","YAPHANK","NY",11980,40.8509807680001,-72.9039435989999,255,"32 CHASE COMMONS, YAPHANK, NY, 11980","Match","Exact","32 CHASE CMNS, YAPHANK, NY, 11980",643702868,"R"
170256,"32 CHATHAM STREET","CAMBRIDGE","MA",2139,42.3713432540001,-71.1085141189999,256,"32 CHATHAM STREET, CAMBRIDGE, MA, 2139","Match","Exact","32 CHATHAM ST, CAMBRIDGE, MA, 02139",642584921,"L"
170257,"32 CLEMS WAY","ACUSHNET","MA",2743,41.732091466,-70.8903831059999,257,"32 CLEMS WAY, ACUSHNET, MA, 2743","Match","Exact","32 CLEMS WAY, ACUSHNET, MA, 02743",46846462,"L"
170258,"32 CLOVERLEAF DR","DEPEW","NY",14043,42.934328436,-78.698014708,258,"32 CLOVERLEAF DR, DEPEW, NY, 14043","Match","Exact","32 CLOVERLEAF DR, DEPEW, NY, 14043",48306120,"R"
170259,"32 COLIGNI AVENUE APT 111","NEW ROCHELLE","NY",10801,40.9207889040001,-73.789293046,259,"32 COLIGNI AVENUE APT 111, NEW ROCHELLE, NY, 10801","Match","Exact","32 COLIGNI AVE, NEW ROCHELLE, NY, 10801",139842783,"L"
170260,"32 COLLINS AVENUE","BLOOMFIELD","NJ",7003,40.8358795620001,-74.1764594649999,260,"32 COLLINS AVENUE, BLOOMFIELD, NJ, 7003","Match","Exact","32 COLLINS AVE, BLOOMFIELD, NJ, 07003",63452406,"L"
170261,"32 COLONIAL ROAD","MIDLAND PARK","NJ",7432,41.0023684990001,-74.143745966,261,"32 COLONIAL ROAD, MIDLAND PARK, NJ, 7432","Match","Exact","32 COLONIAL RD, MIDLAND PARK, NJ, 07432",64402958,"R"
170262,"32 CONSTABLE DRIVE","RIVERHEAD","NY",11949,40.9372292620001,-72.700984391,262,"32 CONSTABLE DRIVE, RIVERHEAD, NY, 11949","Match","Non_Exact","32 CONSTABLE DR, RIVERHEAD, NY, 11901",114237159,"R"
170263,"32 CONSTANCE COURT","HENDERSONVILLE","NC",28792,35.3549943580001,-82.44486986,263,"32 CONSTANCE COURT, HENDERSONVILLE, NC, 28792","Match","Non_Exact","32 CONSTANCE WAY, HENDERSONVILLE, NC, 28792",624147488,"R"
170264,"32 CORAL PLACE","GREENWOOD VILLAGE","CO",80111,39.6235983280001,-104.883994427,264,"32 CORAL PLACE, GREENWOOD VILLAGE, CO, 80111","Match","Exact","32 CORAL PL, GREENWOOD VILLAGE, CO, 80111",177539450,"R"
170265,"32 COTTAGE ST","MEDWAY","MA",2053,42.1427229220001,-71.421468217,265,"32 COTTAGE ST, MEDWAY, MA, 2053","Match","Exact","32 COTTAGE ST, MEDWAY, MA, 02053",87238694,"L"
170266,"32 COUNTY ROAD 212","BURNSVILLE","MS",38833,34.821029923,-88.3260656209999,266,"32 COUNTY ROAD 212, BURNSVILLE, MS, 38833","Match","Exact","32 CO RD 212, BURNSVILLE, MS, 38833",607728587,"R"
170267,"32 COUNTY ROAD 2289","GLENWOOD","AL",36034,31.637530246,-86.052172034,267,"32 COUNTY ROAD 2289, GLENWOOD, AL, 36034","Match","Exact","32 CO RD 2289, GLENWOOD, AL, 36034",636439014,"L"
170268,"32 COURT ST STE 701","BROOKLYN","NY",11201,40.693012659,-73.99075089,268,"32 COURT ST STE 701, BROOKLYN, NY, 11201","Match","Exact","32 COURT ST, BROOKLYN, NY, 11201",59075037,"R"
170269,"32 CREST RD","NOVATO","CA",94949,38.1122374930001,-122.508956152,269,"32 CREST RD, NOVATO, CA, 94949","Match","Non_Exact","32 CREST RD, NOVATO, CA, 94945",647386846,"L"
170270,"32 CUMLEY ST","NEW HAVEN","CT",6514,41.354857553,-72.930493011,270,"32 CUMLEY ST, NEW HAVEN, CT, 6514","Match","Exact","32 CUMLEY ST, NEW HAVEN, CT, 06514",3738697,"L"
170271,"32 DANE STREET","BOSTON","MA",2130,42.310925404,-71.119404661,271,"32 DANE STREET, BOSTON, MA, 2130","Match","Exact","32 DANE ST, BOSTON, MA, 02130",85696545,"L"
170272,"32 DARTMOUTH DRIVE","HAZLET","NJ",7730,40.424681901,-74.174204031,272,"32 DARTMOUTH DRIVE, HAZLET, NJ, 7730","Match","Exact","32 DARTMOUTH DR, HAZLET, NJ, 07730",90475419,"L"
170273,"32 DAVIS ROAD","BURLINGTON","CT",6013,41.7927713130001,-72.9914822229999,273,"32 DAVIS ROAD, BURLINGTON, CT, 6013","Match","Exact","32 DAVIS RD, BURLINGTON, CT, 06013",3501786,"L"
170274,"32 DECATUR ISLAND","ANACORTES","WA",98221,NA,NA,274,"32 DECATUR ISLAND, ANACORTES, WA, 98221","No_Match",NA,NA,NA,NA
170275,"32 DEHART STREET","MORRISTOWN","NJ",7960,40.794363967,-74.482053903,275,"32 DEHART STREET, MORRISTOWN, NJ, 7960","Match","Exact","32 DEHART ST, MORRISTOWN, NJ, 07960",60443302,"L"
170276,"32 DELANE STREET","COLUMBIA","SC",29204,34.022299999,-81.005211744,276,"32 DELANE STREET, COLUMBIA, SC, 29204","Match","Non_Exact","32 DELANE DR, COLUMBIA, SC, 29204",604768989,"R"
170277,"32 DEMAREST ROAD","TEANECK","NJ",7666,40.8773108610001,-74.010185012,277,"32 DEMAREST ROAD, TEANECK, NJ, 7666","Match","Exact","32 DEMAREST RD, TEANECK, NJ, 07666",64389344,"R"
170278,"32 DEPEW STREET","PROVIDENCE","RI",2907,41.783162401,-71.4197505189999,278,"32 DEPEW STREET, PROVIDENCE, RI, 2907","Match","Exact","32 DEPEW ST, PROVIDENCE, RI, 02907",47467157,"L"
170279,"32 DUDLEY STREET","ROXBURY","MA",2119,42.329401804,-71.088594342,279,"32 DUDLEY STREET, ROXBURY, MA, 2119","Match","Exact","32 DUDLEY ST, ROXBURY, MA, 02119",85700343,"L"
170280,"32 E AIRLINE HWY","KENNER","LA",70062,29.9811787630001,-90.273495136,280,"32 E AIRLINE HWY, KENNER, LA, 70062","Match","Exact","32 E AIRLINE HWY, KENNER, LA, 70062",93539005,"L"
170281,"32 E ANGELFISH CT","BEVERLY HILLS","FL",34465,28.952807814,-82.4341886079999,281,"32 E ANGELFISH CT, BEVERLY HILLS, FL, 34465","Match","Exact","32 E ANGELFISH CT, BEVERLY HILLS, FL, 34465",86234038,"R"
170282,"32 E BALTIMORE AVE","LANSDOWNE","PA",19050,39.937801173,-75.2743228859999,282,"32 E BALTIMORE AVE, LANSDOWNE, PA, 19050","Match","Non_Exact","32 W BALTIMORE AVE, LANSDOWNE, PA, 19050",134877906,"L"
170283,"32 E BLACK HORSE PIKE SUITE 3","PLEASANTVILLE","NJ",8232,NA,NA,283,"32 E BLACK HORSE PIKE SUITE 3, PLEASANTVILLE, NJ, 8232","Tie",NA,NA,NA,NA
170284,"32 E CHEROKEE SUITE 104","MCALESTER","OK",74501,35.16582176,-95.745603946,284,"32 E CHEROKEE SUITE 104, MCALESTER, OK, 74501","Match","Exact","32 CHEROKEE, MCALESTER, OK, 74501",106285612,"L"
170285,"32 E CLINTON STREET","DOVER","NJ",7801,40.8865429910001,-74.557661832,285,"32 E CLINTON STREET, DOVER, NJ, 7801","Match","Exact","32 E CLINTON ST, DOVER, NJ, 07801",60436239,"R"
170286,"32 E KING ST","SHIPPENSBURG","PA",17257,40.050984785,-77.519497459,286,"32 E KING ST, SHIPPENSBURG, PA, 17257","Match","Exact","32 E KING ST, SHIPPENSBURG, PA, 17257",60935936,"R"
170287,"32 E LAKE BLVD","MORRISTOWN","NJ",7960,40.7946825940001,-74.500823757,287,"32 E LAKE BLVD, MORRISTOWN, NJ, 7960","Match","Exact","32 E LAKE BLVD, MORRISTOWN, NJ, 07960",60441867,"L"
170288,"32 E MAIN ST","WILLIAMSTON","SC",29697,34.619054421,-82.476730604,288,"32 E MAIN ST, WILLIAMSTON, SC, 29697","Match","Exact","32 E MAIN ST, WILLIAMSTON, SC, 29697",25446045,"R"
170289,"32 EAGLE LAKE ROAD","BAR HARBOR","ME",4609,44.385498602,-68.218773556,289,"32 EAGLE LAKE ROAD, BAR HARBOR, ME, 4609","Match","Exact","32 EAGLE LAKE RD, BAR HARBOR, ME, 04609",110256486,"R"
170290,"32 EAST 4TH STREET","BROOKLYN","NY",11218,40.6518653000001,-73.97807168,290,"32 EAST 4TH STREET, BROOKLYN, NY, 11218","Match","Exact","32 E 4TH ST, BROOKLYN, NY, 11218",59080435,"R"
170291,"32 EASTFORD STREET FLR-3","HARTFORD","CT",6112,41.7922306990001,-72.682859305,291,"32 EASTFORD STREET FLR-3, HARTFORD, CT, 6112","Match","Exact","32 EASTFORD ST, HARTFORD, CT, 06112",3489017,"R"
170292,"32 EASY STREET","HURLEY","NY",12443,41.9131642350001,-74.050602527,292,"32 EASY STREET, HURLEY, NY, 12443","Match","Exact","32 EASY ST, HURLEY, NY, 12443",41925848,"L"
170293,"32 EL GALLO RD","CEDAR CREST","NM",87008,35.127007179,-106.359129465,293,"32 EL GALLO RD, CEDAR CREST, NM, 87008","Match","Exact","32 EL GALLO RD, CEDAR CREST, NM, 87008",206729314,"R"
170294,"32 ELIZABETH AVE SUITE 2B","NEWARK","NJ",7108,40.7223133480001,-74.1878729319999,294,"32 ELIZABETH AVE SUITE 2B, NEWARK, NJ, 7108","Match","Exact","32 ELIZABETH AVE, NEWARK, NJ, 07108",63467725,"L"
170295,"32 ELK MEADOW LANE","BLACK HAWK","CO",80422,39.9042840130001,-105.462443554,295,"32 ELK MEADOW LANE, BLACK HAWK, CO, 80422","Match","Exact","32 ELK MEADOW LN, BLACK HAWK, CO, 80422",605941214,"L"
170296,"32 ELMWOOD CRESCENT","BRIDGEWATER","MA",2324,42.0052131140001,-70.958104871,296,"32 ELMWOOD CRESCENT, BRIDGEWATER, MA, 2324","Match","Exact","32 ELMWOOD CRES, BRIDGEWATER, MA, 02324",626908889,"R"
170297,"32 EVANS DR","GLEN HEAD","NY",11545,40.8057089330001,-73.569159927,297,"32 EVANS DR, GLEN HEAD, NY, 11545","Match","Exact","32 EVANS DR, GLEN HEAD, NY, 11545",147697712,"R"
170298,"32 EXECUTIVE PARK","IRVINE","CA",92620,33.6856066400001,-117.860495514,298,"32 EXECUTIVE PARK, IRVINE, CA, 92620","Match","Non_Exact","32 EXECUTIVE PARK, IRVINE, CA, 92614",612205046,"L"
170299,"32 FAIRWAY AVENUE","WEST LONG BRANCH","NJ",7764,40.2903904450001,-74.0086797559999,299,"32 FAIRWAY AVENUE, WEST LONG BRANCH, NJ, 7764","Match","Exact","32 FAIRWAY AVE, W LONG BRANCH, NJ, 07764",90461486,"L"
170300,"32 FARVIEW AVE 2ND FLOOR","DANBURY","CT",6810,41.401278436,-73.4618897839999,300,"32 FARVIEW AVE 2ND FLOOR, DANBURY, CT, 6810","Match","Exact","32 FARVIEW AVE, DANBURY, CT, 06810",635729311,"L"
170301,"32 FIRE DEPARTMENT ROAD","MORGANTOWN","WV",26508,39.5470293550001,-79.874545375,301,"32 FIRE DEPARTMENT ROAD, MORGANTOWN, WV, 26508","Match","Exact","32 FIRE DEPARTMENT RD, MORGANTOWN, WV, 26508",50777180,"R"
170302,"32 FOUNDATION DRIVE","FREDERICKSBURG","VA",22405,38.258639444,-77.358354417,302,"32 FOUNDATION DRIVE, FREDERICKSBURG, VA, 22405","Match","Exact","32 FOUNDATION DR, FREDERICKSBURG, VA, 22405",632545532,"R"
170303,"32 FRANCIS STREET SUITE 3","BOSTON","MA",2115,42.335218104,-71.106529306,303,"32 FRANCIS STREET SUITE 3, BOSTON, MA, 2115","Match","Exact","32 FRANCIS ST, BOSTON, MA, 02115",85698462,"L"
170304,"32 FRANKLIN PLACE","GLEN ROCK","NJ",7452,40.9541723150001,-74.106134991,304,"32 FRANKLIN PLACE, GLEN ROCK, NJ, 7452","Match","Exact","32 FRANKLIN PL, GLEN ROCK, NJ, 07452",64380561,"R"
170305,"32 FRANKLIN STREET","MARTINSVILLE","VA",24112,36.691774943,-79.872566486,305,"32 FRANKLIN STREET, MARTINSVILLE, VA, 24112","Match","Exact","32 FRANKLIN ST, MARTINSVILLE, VA, 24112",55549910,"R"
170306,"32 FRANKLIN STREET","PISCATAWAY","NJ",8854,40.5579233660001,-74.438701464,306,"32 FRANKLIN STREET, PISCATAWAY, NJ, 8854","Match","Exact","32 FRANKLIN ST, PISCATAWAY, NJ, 08854",60260879,"L"
170307,"32 FRANKLIN STREET","WORCESTER","MA",1608,42.261795588,-71.801592972,307,"32 FRANKLIN STREET, WORCESTER, MA, 1608","Match","Exact","32 FRANKLIN ST, WORCESTER, MA, 01608",40010974,"R"
170308,"32 FREMONT ROAD","SLEEPY HOLLOW","NY",10591,41.102325658,-73.8618512739999,308,"32 FREMONT ROAD, SLEEPY HOLLOW, NY, 10591","Match","Exact","32 FREMONT RD, SLEEPY HOLLOW, NY, 10591",139730634,"L"
170309,"32 FREMONT STREET UNIT 2","BLOOMFIELD","NJ",7003,40.7940034170001,-74.193845733,309,"32 FREMONT STREET UNIT 2, BLOOMFIELD, NJ, 7003","Match","Exact","32 FREMONT ST, BLOOMFIELD, NJ, 07003",63451169,"L"
170310,"32 FRIENDLY LANE","OTTUMWA","IA",52501,41.001188287,-92.434812015,310,"32 FRIENDLY LANE, OTTUMWA, IA, 52501","Match","Exact","32 FRIENDLY LN, OTTUMWA, IA, 52501",89622716,"R"
170311,"32 GAIL ROAD","MORRIS PLAINS","NJ",7950,40.834076125,-74.457642565,311,"32 GAIL ROAD, MORRIS PLAINS, NJ, 7950","Match","Exact","32 GAIL RD, MORRIS PLAINS, NJ, 07950",60442757,"R"
170312,"32 GILE POND ROAD","NORTH SUTTON","NH",3260,43.3480332610001,-71.933129139,312,"32 GILE POND ROAD, NORTH SUTTON, NH, 3260","Match","Exact","32 GILE POND RD, NORTH SUTTON, NH, 03260",117710097,"R"
170313,"32 GLADE CREEK SCHOOL ROAD","ENNICE","NC",28623,36.5009455000001,-80.981234054,313,"32 GLADE CREEK SCHOOL ROAD, ENNICE, NC, 28623","Match","Exact","32 GLADE CREEK SCHOOL RD, ENNICE, NC, 28623",154016979,"R"
170314,"32 GORDON ST","CHARLESTON","SC",29403,32.8045773900001,-79.955284121,314,"32 GORDON ST, CHARLESTON, SC, 29403","Match","Exact","32 GORDON ST, CHARLESTON, SC, 29403",108806169,"R"
170315,"32 GRACE MEADOWS COURT","GRAY","TN",37615,36.4120221920001,-82.4422908889999,315,"32 GRACE MEADOWS COURT, GRAY, TN, 37615","Match","Exact","32 GRACE MEADOWS CT, GRAY, TN, 37615",632078341,"R"
170316,"32 GRANT ST","SPENCER","MA",1562,42.251003671,-71.9957387329999,316,"32 GRANT ST, SPENCER, MA, 1562","Match","Exact","32 GRANT ST, SPENCER, MA, 01562",40083026,"L"
170317,"32 GREELEY CIR","ARLINGTON","MA",2474,42.43174265,-71.168831134,317,"32 GREELEY CIR, ARLINGTON, MA, 2474","Match","Exact","32 GREELEY CIR, ARLINGTON, MA, 02474",86885014,"R"
170318,"32 GREENWOOD STREET","NEW HAVEN","CT",6519,41.3047633350001,-72.9445366049999,318,"32 GREENWOOD STREET, NEW HAVEN, CT, 6519","Match","Exact","32 GREENWOOD ST, NEW HAVEN, CT, 06519",3700352,"L"
170319,"32 GREENWOOD STREET","WORCESTER","MA",1607,42.2308357790001,-71.793436196,319,"32 GREENWOOD STREET, WORCESTER, MA, 1607","Match","Exact","32 GREENWOOD ST, WORCESTER, MA, 01607",636370196,"R"
170320,"32 GRIDLEY STREET","QUINCY","MA",2169,42.2504984600001,-71.044485029,320,"32 GRIDLEY STREET, QUINCY, MA, 2169","Match","Exact","32 GRIDLEY ST, QUINCY, MA, 02169",87248216,"L"
170321,"32 HARLECH DRIVE","WILMINGTON","DE",19807,39.7572690690001,-75.615494424,321,"32 HARLECH DRIVE, WILMINGTON, DE, 19807","Match","Exact","32 HARLECH DR, WILMINGTON, DE, 19807",187253920,"L"
170322,"32 HART STREET","BROOKLYN","NY",11206,40.692950857,-73.950666918,322,"32 HART STREET, BROOKLYN, NY, 11206","Match","Exact","32 HART ST, BROOKLYN, NY, 11206",59078746,"R"
170323,"32 HARTFORD AVE","WETHERSFIELD","CT",6109,41.714606917,-72.654147238,323,"32 HARTFORD AVE, WETHERSFIELD, CT, 6109","Match","Exact","32 HARTFORD AVE, WETHERSFIELD, CT, 06109",3529838,"R"
170324,"32 HIGH ST","NEW HAVEN","CT",6510,41.3073263040001,-72.930754276,324,"32 HIGH ST, NEW HAVEN, CT, 6510","Match","Exact","32 HIGH ST, NEW HAVEN, CT, 06510",3701139,"L"
170325,"32 HOBSON LANE","WELLS","ME",4090,43.2928344370001,-70.5908421349999,325,"32 HOBSON LANE, WELLS, ME, 4090","Match","Exact","32 HOBSON LN, WELLS, ME, 04090",92779115,"L"
170326,"32 HOIT MILL RD APT 202","WEARE","NH",3281,43.041138446,-71.6645713089999,326,"32 HOIT MILL RD APT 202, WEARE, NH, 3281","Match","Exact","32 HOIT MILL RD, WEARE, NH, 03281",624216397,"R"
170327,"32 HOMESTEAD DR","PEMBERTON","NJ",8068,39.975162192,-74.67363154,327,"32 HOMESTEAD DR, PEMBERTON, NJ, 8068","Match","Exact","32 HOMESTEAD DR, PEMBERTON, NJ, 08068",617528854,"R"
170328,"32 HOMETOWNE CT","CARTERSVILLE","GA",30120,34.1842084300001,-84.794111817,328,"32 HOMETOWNE CT, CARTERSVILLE, GA, 30120","Match","Exact","32 HOMETOWNE CT, CARTERSVILLE, GA, 30120",30464043,"L"
170329,"32 HOPE AVE","STATEN ISLAND","NY",10305,40.610272326,-74.064637362,329,"32 HOPE AVE, STATEN ISLAND, NY, 10305","Match","Exact","32 HOPE AVE, STATEN ISLAND, NY, 10305",59869887,"L"
170330,"32 HOPKINS HILL ROAD","NAUGATUCK","CT",6770,41.487993653,-73.026336492,330,"32 HOPKINS HILL ROAD, NAUGATUCK, CT, 6770","Match","Exact","32 HOPKINS HILL RD, NAUGATUCK, CT, 06770",641622726,"L"
170331,"32 HOUSTON ST APT 1","SAN FRANCISCO","CA",94133,37.803891746,-122.415841336,331,"32 HOUSTON ST APT 1, SAN FRANCISCO, CA, 94133","Match","Exact","32 HOUSTON ST, SAN FRANCISCO, CA, 94133",192280299,"R"
170332,"32 INTERVALE ROAD","LIVINGSTON","NJ",7039,40.79112637,-74.333217565,332,"32 INTERVALE ROAD, LIVINGSTON, NJ, 7039","Match","Exact","32 INTERVALE RD, LIVINGSTON, NJ, 07039",63457928,"R"
170333,"32 ITHACA STREET","WAVERLY","NY",14892,42.0081077400001,-76.529762867,333,"32 ITHACA STREET, WAVERLY, NY, 14892","Match","Exact","32 ITHACA ST, WAVERLY, NY, 14892",46707508,"R"
170334,"32 J EAST ALPINE STREET","NEWARK","NJ",7114,40.7186836070001,-74.189124353,334,"32 J EAST ALPINE STREET, NEWARK, NJ, 7114","Match","Exact","32 E ALPINE ST, NEWARK, NJ, 07114",63466465,"R"
170335,"32 JANA DR","MONROE","LA",71203,32.5534625670001,-92.061366984,335,"32 JANA DR, MONROE, LA, 71203","Match","Exact","32 JANA DR, MONROE, LA, 71203",161086439,"R"
170336,"32 JOHN STREET","PROVIDENCE","RI",2906,41.8217276820001,-71.3995715419999,336,"32 JOHN STREET, PROVIDENCE, RI, 2906","Match","Exact","32 JOHN ST, PROVIDENCE, RI, 02906",47466599,"L"
170337,"32 JOHNSON LANE","MADISON","CT",6443,41.2846413120001,-72.625870349,337,"32 JOHNSON LANE, MADISON, CT, 6443","Match","Exact","32 JOHNSON LN, MADISON, CT, 06443",3709756,"R"
170338,"32 JOYCETON WAY","UPPER MARLBORO","MD",20774,38.894882366,-76.8177619149999,338,"32 JOYCETON WAY, UPPER MARLBORO, MD, 20774","Match","Exact","32 JOYCETON WAY, UPPER MARLBORO, MD, 20774",624265880,"R"
170339,"32 KATES GLEN","PLYMOUTH","MA",2360,41.8935173290001,-70.605129086,339,"32 KATES GLEN, PLYMOUTH, MA, 2360","Match","Exact","32 KATES GLEN, PLYMOUTH, MA, 02360",628254788,"L"
170340,"32 KENNETH AVE","HUNTINGTON","NY",11743,40.8523542240001,-73.340272789,340,"32 KENNETH AVE, HUNTINGTON, NY, 11743","Match","Exact","32 KENNETH AVE, HUNTINGTON, NY, 11743",113968524,"R"
170341,"32 KING GEORGES GRANT","FREDERICKSBURG","VA",22405,38.328302879,-77.407155159,341,"32 KING GEORGES GRANT, FREDERICKSBURG, VA, 22405","Match","Exact","32 KING GEORGES GRANT, FREDERICKSBURG, VA, 22405",636657094,"L"
170342,"32 LAKE SHORE DRIVE","GROSSE POINTE FARMS","MI",48236,NA,NA,342,"32 LAKE SHORE DRIVE, GROSSE POINTE FARMS, MI, 48236","Tie",NA,NA,NA,NA
170343,"32 LAMA DRIVE","SHIRLEY","NY",11967,40.7809629990001,-72.869933537,343,"32 LAMA DRIVE, SHIRLEY, NY, 11967","Match","Exact","32 LAMA DR, SHIRLEY, NY, 11967",114047641,"L"
170344,"32 LARK BUNTING LANE","LITTLETON","CO",80127,39.5987583510001,-105.166427234,344,"32 LARK BUNTING LANE, LITTLETON, CO, 80127","Match","Exact","32 LARK BUNTING LN, LITTLETON, CO, 80127",640549515,"L"
170345,"32 LARKIN CIR","WEST ORANGE","NJ",7052,40.761719799,-74.296939008,345,"32 LARKIN CIR, WEST ORANGE, NJ, 7052","Match","Exact","32 LARKIN CIR, WEST ORANGE, NJ, 07052",635267715,"L"
170346,"32 LAWN PARK AVENUE","LAWRENCEVILLE","NJ",8648,40.2631255580001,-74.742088768,346,"32 LAWN PARK AVENUE, LAWRENCEVILLE, NJ, 8648","Match","Exact","32 LAWN PARK AVE, LAWRENCEVILLE, NJ, 08648",60171667,"R"
170347,"32 LEGION ROAD","OAK RIDGE","NJ",7438,41.0207022280001,-74.519054146,347,"32 LEGION ROAD, OAK RIDGE, NJ, 7438","Match","Exact","32 LEGION RD, OAK RIDGE, NJ, 07438",60472500,"L"
170348,"32 LEYBRIDGE DR","HUDSON","NH",3051,42.7811023570001,-71.451603354,348,"32 LEYBRIDGE DR, HUDSON, NH, 3051","Match","Exact","32 LEYBRIDGE DR, HUDSON, NH, 03051",647329905,"L"
170349,"32 LINDEN AVE APT 2","EAST ORANGE","NJ",7018,40.7546780860001,-74.2163929129999,349,"32 LINDEN AVE APT 2, EAST ORANGE, NJ, 7018","Match","Exact","32 LINDEN AVE, EAST ORANGE, NJ, 07018",63456059,"R"
170350,"32 LINDEN CT","ROSLYN HEIGHTS","NY",11577,40.78865067,-73.641371415,350,"32 LINDEN CT, ROSLYN HEIGHTS, NY, 11577","Match","Exact","32 LINDEN CT, ROSLYN HEIGHTS, NY, 11577",147693187,"R"
170351,"32 LONGVIEW ROAD","TRUMBULL","CT",6611,41.2452626140001,-73.152139285,351,"32 LONGVIEW ROAD, TRUMBULL, CT, 6611","Match","Exact","32 LONGVIEW RD, TRUMBULL, CT, 06611",3225925,"R"
170352,"32 LORDSHIP LANE","DOVER","DE",19901,39.1118461680001,-75.5278758059999,352,"32 LORDSHIP LANE, DOVER, DE, 19901","Match","Exact","32 LORDSHIP LN, DOVER, DE, 19901",68100703,"R"
170353,"32 LOUVAIN DRIVE","HANOVER","PA",17331,39.7531872340001,-76.9695500289999,353,"32 LOUVAIN DRIVE, HANOVER, PA, 17331","Match","Exact","32 LOUVAIN DR, HANOVER, PA, 17331",613695771,"R"
170354,"32 LOWELL ROAD","PEMBROKE","MA",2359,42.081911415,-70.8254689199999,354,"32 LOWELL ROAD, PEMBROKE, MA, 2359","Match","Exact","32 LOWELL RD, PEMBROKE, MA, 02359",87449891,"R"
170355,"32 MAGNOLIA MARSH DRIVE","RICHMOND HILL","GA",31324,31.842428725,-81.256404996,355,"32 MAGNOLIA MARSH DRIVE, RICHMOND HILL, GA, 31324","Match","Exact","32 MAGNOLIA MARSH DR, RICHMOND HILL, GA, 31324",6092438,"R"
170356,"32 MAIN AVE N","HARMONY","MN",55939,43.5546819800001,-92.0099718389999,356,"32 MAIN AVE N, HARMONY, MN, 55939","Match","Exact","32 MAIN AVE N, HARMONY, MN, 55939",27563562,"R"
170357,"32 MAIN STREET NUM 170","MONTPELIER","VT",5602,44.2589962490001,-72.5763192759999,357,"32 MAIN STREET NUM 170, MONTPELIER, VT, 5602","Match","Exact","32 MAIN ST, MONTPELIER, VT, 05602",136665727,"L"
170358,"32 MAIN STREET","WESTERNPORT","MD",21562,39.484518994,-79.045220441,358,"32 MAIN STREET, WESTERNPORT, MD, 21562","Match","Exact","32 MAIN ST, WESTERNPORT, MD, 21562",123339745,"R"
170359,"32 MANZANAL RD","CORRALES","NM",87048,35.257575817,-106.600641635,359,"32 MANZANAL RD, CORRALES, NM, 87048","Match","Exact","32 MANZANAL RD, CORRALES, NM, 87048",635849351,"R"
170360,"32 MAPLE STREET","MARCELLUS","NY",13108,42.9847961500001,-76.336359284,360,"32 MAPLE STREET, MARCELLUS, NY, 13108","Match","Exact","32 MAPLE ST, MARCELLUS, NY, 13108",624253014,"L"
170361,"32 MARBLE HILL AVENUE","BRONX","NY",10463,40.875306466,-73.910245195,361,"32 MARBLE HILL AVENUE, BRONX, NY, 10463","Match","Exact","32 MARBLE HILL AVE, BRONX, NY, 10463",59661895,"R"
170362,"32 MARNE RD","CHEEKTOWAGA","NY",14215,42.923604342,-78.796741588,362,"32 MARNE RD, CHEEKTOWAGA, NY, 14215","Match","Exact","32 MARNE RD, CHEEKTOWAGA, NY, 14215",48297647,"L"
170363,"32 MARSAC PLACE","NEWARK","NJ",7106,40.7326668630001,-74.240073303,363,"32 MARSAC PLACE, NEWARK, NJ, 7106","Match","Exact","32 MARSAC PL, NEWARK, NJ, 07106",63463523,"L"
170364,"32 MARYVALE DRIVE","APALACHIN","NY",13732,42.0569931750001,-76.1434611289999,364,"32 MARYVALE DRIVE, APALACHIN, NY, 13732","Match","Exact","32 MARYVALE DR, APALACHIN, NY, 13732",635604782,"R"
170365,"32 MCCRACKEN ROAD","CLEARFIELD","PA",16830,41.069294687,-78.35245273,365,"32 MCCRACKEN ROAD, CLEARFIELD, PA, 16830","Match","Exact","32 MCCRACKEN RD, CLEARFIELD, PA, 16830",50517349,"L"
170366,"32 MECHANIC ST","MARLBOROUGH","MA",1752,42.3470621220001,-71.5547277859999,366,"32 MECHANIC ST, MARLBOROUGH, MA, 1752","Match","Exact","32 MECHANIC ST, MARLBOROUGH, MA, 01752",86899397,"R"
170367,"32 MELISSA CAROL CIRCLE","GREENSBORO","NC",27407,36.051495559,-79.894724291,367,"32 MELISSA CAROL CIRCLE, GREENSBORO, NC, 27407","Match","Exact","32 MELISSA CAROL CIR, GREENSBORO, NC, 27407",131118046,"R"
170368,"32 MERRYDALE DRIVE","ROCHESTER","NY",14624,43.1423560600001,-77.6765222019999,368,"32 MERRYDALE DRIVE, ROCHESTER, NY, 14624","Match","Exact","32 MERRYDALE DR, ROCHESTER, NY, 14624",14530794,"L"
170369,"32 MIDDLE WALLOP RD","BEAR","DE",19701,39.591769076,-75.735813245,369,"32 MIDDLE WALLOP RD, BEAR, DE, 19701","Match","Exact","32 MIDDLE WALLOP RD, BEAR, DE, 19701",187276643,"R"
170370,"32 MIDDLE WALLOP ROAD","BEAR","DE",19701,39.591769076,-75.735813245,370,"32 MIDDLE WALLOP ROAD, BEAR, DE, 19701","Match","Exact","32 MIDDLE WALLOP RD, BEAR, DE, 19701",187276643,"R"
170371,"32 MOHAWK LANE","BRENTWOOD","NH",3833,42.983697874,-71.0253613679999,371,"32 MOHAWK LANE, BRENTWOOD, NH, 3833","Match","Exact","32 MOHAWK LN, BRENTWOOD, NH, 03833",113710688,"L"
170372,"32 MORTON STREET APT6A","NEW YORK","NY",10014,40.7308716590001,-74.005044572,372,"32 MORTON STREET APT6A, NEW YORK, NY, 10014","Match","Exact","32 MORTON ST, NEW YORK, NY, 10014",59659896,"L"
170373,"32 MOUNT PLEASANT SQUARE","RANDOLPH","MA",2368,42.171939938,-71.045439941,373,"32 MOUNT PLEASANT SQUARE, RANDOLPH, MA, 2368","Match","Exact","32 MOUNT PLEASANT SQ, RANDOLPH, MA, 02368",87268204,"R"
170374,"32 N 50TH STREET","PHILADELPHIA","PA",19139,39.960053579,-75.220810887,374,"32 N 50TH STREET, PHILADELPHIA, PA, 19139","Match","Exact","32 N 50TH ST, PHILADELPHIA, PA, 19139",131399645,"L"
170375,"32 N 53RD STREET","PHILADELPHIA","PA",19139,39.9607892280001,-75.2267388189999,375,"32 N 53RD STREET, PHILADELPHIA, PA, 19139","Match","Exact","32 N 53RD ST, PHILADELPHIA, PA, 19139",131399199,"L"
170376,"32 N COURT ST","SULLIVAN","IN",47882,39.095786295,-87.4083759389999,376,"32 N COURT ST, SULLIVAN, IN, 47882","Match","Exact","32 N COURT ST, SULLIVAN, IN, 47882",27074787,"L"
170377,"32 N GAGE ST","TOCCOA","GA",30577,NA,NA,377,"32 N GAGE ST, TOCCOA, GA, 30577","No_Match",NA,NA,NA,NA
170378,"32 N GENESEE ST","WAUKEGAN","IL",60085,42.3600284080001,-87.831349823,378,"32 N GENESEE ST, WAUKEGAN, IL, 60085","Match","Exact","32 N GENESEE ST, WAUKEGAN, IL, 60085",119645487,"L"
170379,"32 N MAIN STREET SUITE 303","BELMONT","NC",28012,35.24129537,-81.038215786,379,"32 N MAIN STREET SUITE 303, BELMONT, NC, 28012","Match","Non_Exact","32 S MAIN ST, BELMONT, NC, 28012",70385827,"L"
170380,"32 N WASHINGTON ST STE 1","YPSILANTI","MI",48197,NA,NA,380,"32 N WASHINGTON ST STE 1, YPSILANTI, MI, 48197","Tie",NA,NA,NA,NA
170381,"32 NAVAJO PATH","LAKE GEORGE","CO",80827,38.9566134040001,-105.477247022,381,"32 NAVAJO PATH, LAKE GEORGE, CO, 80827","Match","Exact","32 NAVAJO PATH, LAKE GEORGE, CO, 80827",108474883,"R"
170382,"32 NE 20TH COURT","WILTON MANORS","FL",33305,26.1540866500001,-80.1456391089999,382,"32 NE 20TH COURT, WILTON MANORS, FL, 33305","Match","Non_Exact","32 NE 20TH CT, WILTON MANORS, FL, 33305",612224185,"R"
170383,"32 NE 20TH CT","WILTON MANORS","FL",33305,26.1540866500001,-80.1456391089999,383,"32 NE 20TH CT, WILTON MANORS, FL, 33305","Match","Non_Exact","32 NE 20TH CT, WILTON MANORS, FL, 33305",612224185,"R"
170384,"32 NE BLEVINS ROAD","SOMERVILLE","AL",35670,34.46926369,-86.795335386,384,"32 NE BLEVINS ROAD, SOMERVILLE, AL, 35670","Match","Exact","32 BLEVINS RD, SOMERVILLE, AL, 35670",97107923,"L"
170385,"32 NEWBERRY ST","PONTIAC","MI",48341,42.637618021,-83.316602964,385,"32 NEWBERRY ST, PONTIAC, MI, 48341","Match","Exact","32 NEWBERRY ST, PONTIAC, MI, 48341",69703704,"R"
170386,"32 NEWELL AVE","TRENTON","NJ",8618,40.2347648360001,-74.797127428,386,"32 NEWELL AVE, TRENTON, NJ, 8618","Match","Exact","32 NEWELL AVE, TRENTON, NJ, 08618",60177717,"L"
170387,"32 NICHOLS AVENUE","BROOKLYN","NY",11208,40.689868877,-73.8699342529999,387,"32 NICHOLS AVENUE, BROOKLYN, NY, 11208","Match","Exact","32 NICHOLS AVE, BROOKLYN, NY, 11208",59095066,"R"
170388,"32 NORTH MAIN STREET","ANDOVER","MA",1810,42.658446875,-71.142227925,388,"32 NORTH MAIN STREET, ANDOVER, MA, 1810","Match","Exact","32 N MAIN ST, ANDOVER, MA, 01810",86629457,"L"
170389,"32 NORTH QUEEN STREET","YORK","PA",17403,39.964555601,-76.7243271959999,389,"32 NORTH QUEEN STREET, YORK, PA, 17403","Match","Exact","32 N QUEEN ST, YORK, PA, 17403",611418894,"L"
170390,"32 NORTH SHORE BLVD","HELMETTA","NJ",8828,40.3773422370001,-74.413659905,390,"32 NORTH SHORE BLVD, HELMETTA, NJ, 8828","Match","Exact","32 N SHORE BLVD, HELMETTA, NJ, 08828",60270015,"L"
170391,"32 NORWICH ROAD","PLAINFIELD","CT",6374,41.71621638,-71.903118342,391,"32 NORWICH ROAD, PLAINFIELD, CT, 6374","Match","Exact","32 NORWICH RD, PLAINFIELD, CT, 06374",56450704,"R"
170392,"32 NW 13TH AVE","DELRAY BEACH","FL",33444,26.462597628,-80.086404869,392,"32 NW 13TH AVE, DELRAY BEACH, FL, 33444","Match","Exact","32 NW 13TH AVE, DELRAY BEACH, FL, 33444",115547198,"L"
170393,"32 OAK STREET APT 2","PROVIDENCE","RI",2909,41.815237417,-71.4342084359999,393,"32 OAK STREET APT 2, PROVIDENCE, RI, 2909","Match","Exact","32 OAK ST, PROVIDENCE, RI, 02909",639342703,"L"
170394,"32 OAKLAND STREET","FALL RIVER","MA",2720,41.716023324,-71.1369600789999,394,"32 OAKLAND STREET, FALL RIVER, MA, 2720","Match","Exact","32 OAKLAND ST, FALL RIVER, MA, 02720",46771087,"L"
170395,"32 OHSLON CIRCLE","MEDWAY","MA",2053,NA,NA,395,"32 OHSLON CIRCLE, MEDWAY, MA, 2053","No_Match",NA,NA,NA,NA
170396,"32 OLD COACH ROAD","BASKING RIDGE","NJ",7920,40.6722077540001,-74.5855849279999,396,"32 OLD COACH ROAD, BASKING RIDGE, NJ, 7920","Match","Exact","32 OLD COACH RD, BASKING RIDGE, NJ, 07920",59945916,"L"
170397,"32 OLD COUNTY ROAD EAST","HADDAM","CT",6438,41.432071094,-72.5224576809999,397,"32 OLD COUNTY ROAD EAST, HADDAM, CT, 6438","Match","Exact","32 OLD CO RD E, HADDAM, CT, 06438",113903416,"R"
170398,"32 OLDHAM RD","ARLINGTON","MA",2474,42.4339842950001,-71.167453858,398,"32 OLDHAM RD, ARLINGTON, MA, 2474","Match","Exact","32 OLDHAM RD, ARLINGTON, MA, 02474",86887638,"L"
170399,"32 ONEIDA AVENUE","SELDEN","NY",11784,40.8543750580001,-73.026635867,399,"32 ONEIDA AVENUE, SELDEN, NY, 11784","Match","Exact","32 ONEIDA AVE, SELDEN, NY, 11784",114007761,"R"
170400,"32 OVERLOOK ROAD","NARRAGANSETT","RI",2882,41.490290321,-71.444132172,400,"32 OVERLOOK ROAD, NARRAGANSETT, RI, 2882","Match","Exact","32 OVERLOOK RD, NARRAGANSETT, RI, 02882",58905848,"R"
170401,"32 OVERMOUNT AVENUE","WOODLAND PARK","NJ",7424,40.8884769140001,-74.20178644,401,"32 OVERMOUNT AVENUE, WOODLAND PARK, NJ, 7424","Match","Exact","32 OVERMOUNT AVE, WOODLAND PARK, NJ, 07424",65261562,"R"
170402,"32 PALFREY LANE","WILLINGBORO","NJ",8046,40.0350228400001,-74.901692652,402,"32 PALFREY LANE, WILLINGBORO, NJ, 8046","Match","Exact","32 PALFREY LN, WILLINGBORO, NJ, 08046",134058294,"R"
170403,"32 PARK AVENUE","CRANFORD","NJ",7016,40.659442907,-74.319325395,403,"32 PARK AVENUE, CRANFORD, NJ, 7016","Match","Exact","32 PARK AVE, CRANFORD, NJ, 07016",60569761,"R"
170404,"32 PATRICK DRIVE","SEYMOUR","CT",6483,41.3783096810001,-73.10500753,404,"32 PATRICK DRIVE, SEYMOUR, CT, 6483","Match","Exact","32 PATRICK DR, SEYMOUR, CT, 06483",3754976,"R"
170405,"32 PEACHTREE ST NW","ATLANTA","GA",30303,33.7545821950001,-84.389580446,405,"32 PEACHTREE ST NW, ATLANTA, GA, 30303","Match","Exact","32 PEACHTREE ST NW, ATLANTA, GA, 30303",17344540,"L"
170406,"32 PHEASANT ROAD","MATTESON","IL",60443,41.525636983,-87.760678572,406,"32 PHEASANT ROAD, MATTESON, IL, 60443","Match","Exact","32 PHEASANT RD, MATTESON, IL, 60443",111706763,"R"
170407,"32 PHINNEY LANE","CANTERBURY","CT",6331,41.665436421,-71.977491261,407,"32 PHINNEY LANE, CANTERBURY, CT, 6331","Match","Exact","32 PHINNEY LN, CANTERBURY, CT, 06331",56453774,"L"
170408,"32 PHINNEY LN PO BOX 406","CANTERBURY","CT",6331,41.665436421,-71.977491261,408,"32 PHINNEY LN PO BOX 406, CANTERBURY, CT, 6331","Match","Exact","32 PHINNEY LN, CANTERBURY, CT, 06331",56453774,"L"
170409,"32 PICKFORD ROAD","MONTGOMERY","IL",60538,41.701894328,-88.3392577829999,409,"32 PICKFORD ROAD, MONTGOMERY, IL, 60538","Match","Exact","32 PICKFORD RD, MONTGOMERY, IL, 60538",640152561,"R"
170410,"32 PITTSBURGH AVE","PISCATAWAY","NJ",8854,40.5641182160001,-74.487822116,410,"32 PITTSBURGH AVE, PISCATAWAY, NJ, 8854","Match","Exact","32 PITTSBURGH AVE, PISCATAWAY, NJ, 08854",60296491,"R"
170411,"32 POWDER HORN PLACE","LONGMONT","CO",80504,40.1800524830001,-105.091524577,411,"32 POWDER HORN PLACE, LONGMONT, CO, 80504","Match","Non_Exact","32 POWDERHORN PL, LONGMONT, CO, 80504",188156241,"L"
170412,"32 POWDER HOUSE BLVD APT 1","SOMERVILLE","MA",2144,42.4019463750001,-71.11863576,412,"32 POWDER HOUSE BLVD APT 1, SOMERVILLE, MA, 2144","Match","Exact","32 POWDER HOUSE BLVD, SOMERVILLE, MA, 02144",86856036,"L"
170413,"32 RAMAPO AVENUE","STATEN ISLAND","NY",10309,40.5416471300001,-74.202989476,413,"32 RAMAPO AVENUE, STATEN ISLAND, NY, 10309","Match","Exact","32 RAMAPO AVE, STATEN ISLAND, NY, 10309",59883553,"R"
170414,"32 RANDOLPH AVE 201","ELKINS","WV",26241,38.9219493790001,-79.842334001,414,"32 RANDOLPH AVE 201, ELKINS, WV, 26241","Match","Exact","32 RANDOLPH AVE, ELKINS, WV, 26241",53371304,"L"
170415,"32 RAVEN HILLS CT","COLORADO SPRINGS","CO",80919,38.9351747960001,-104.826638705,415,"32 RAVEN HILLS CT, COLORADO SPRINGS, CO, 80919","Match","Exact","32 RAVEN HILLS CT, COLORADO SPRINGS, CO, 80919",105509377,"L"
170416,"32 REDFIELD STREET","TUNKHANNOCK","PA",18657,41.544096676,-75.9433739569999,416,"32 REDFIELD STREET, TUNKHANNOCK, PA, 18657","Match","Exact","32 REDFIELD ST, TUNKHANNOCK, PA, 18657",647496394,"R"
170417,"32 REMBRANDT WAY","EAST WINDSOR","NJ",8520,40.2542301450001,-74.544159905,417,"32 REMBRANDT WAY, EAST WINDSOR, NJ, 8520","Match","Exact","32 REMBRANDT WAY, EAST WINDSOR, NJ, 08520",60222227,"L"
170418,"32 RENA MARIE CIRCLE","WASHINGTONVILLE","NY",10992,41.4052504470001,-74.1729224429999,418,"32 RENA MARIE CIRCLE, WASHINGTONVILLE, NY, 10992","Match","Exact","32 RENA MARIE CIR, WASHINGTONVILLE, NY, 10992",124492285,"R"
170419,"32 RIDGE RD","PLEASANT","MI",48069,42.4709787990001,-83.1482835799999,419,"32 RIDGE RD, PLEASANT, MI, 48069","Match","Non_Exact","32 RIDGE RD, PLEASANT RIDGE, MI, 48069",629320628,"R"
170420,"32 RIVER STREET","PEAK","SC",29122,34.2417318290001,-81.324043395,420,"32 RIVER STREET, PEAK, SC, 29122","Match","Exact","32 RIVER ST, PEAK, SC, 29122",45380994,"R"
170421,"32 RIVOLI STREET","SAN FRANCISCO","CA",94117,37.7626343640001,-122.44842685,421,"32 RIVOLI STREET, SAN FRANCISCO, CA, 94117","Match","Exact","32 RIVOLI ST, SAN FRANCISCO, CA, 94117",192282418,"R"
170422,"32 ROBIN WAY","SAN CARLOS","CA",94070,37.4858742340001,-122.264330008,422,"32 ROBIN WAY, SAN CARLOS, CA, 94070","Match","Exact","32 ROBIN WAY, SAN CARLOS, CA, 94070",192385440,"L"
170423,"32 ROCHESTER AVENUE STE 1","BROOKLYN","NY",11212,40.677870231,-73.9274863809999,423,"32 ROCHESTER AVENUE STE 1, BROOKLYN, NY, 11212","Match","Non_Exact","32 ROCHESTER AVE, BROOKLYN, NY, 11233",59083313,"R"
170424,"32 ROLLINS LANE","PALM COAST","FL",32164,29.519004727,-81.258187146,424,"32 ROLLINS LANE, PALM COAST, FL, 32164","Match","Exact","32 ROLLINS LN, PALM COAST, FL, 32164",94962932,"L"
170425,"32 ROSE CT","DOTHAN","AL",36303,31.241912707,-85.5320121779999,425,"32 ROSE CT, DOTHAN, AL, 36303","Match","Exact","32 ROSE CT, DOTHAN, AL, 36303",101207528,"R"
170426,"32 ROYAL OAK ROAD","STONE RIDGE","NY",12484,41.834183755,-74.156986431,426,"32 ROYAL OAK ROAD, STONE RIDGE, NY, 12484","Match","Exact","32 ROYAL OAK RD, STONE RIDGE, NY, 12484",41870074,"L"
170427,"32 S STATE STREET","GREENFIELD","IN",46140,39.78489145,-85.7692920649999,427,"32 S STATE STREET, GREENFIELD, IN, 46140","Match","Exact","32 S STATE ST, GREENFIELD, IN, 46140",31072867,"L"
170428,"32 SAND LANE","ISLANDIA","NY",11749,40.805477522,-73.1669590289999,428,"32 SAND LANE, ISLANDIA, NY, 11749","Match","Exact","32 SAND LN, ISLANDIA, NY, 11749",113989405,"R"
170429,"32 SANDHILL RD","ESSEX JCT","VT",5452,44.4824606290001,-73.050253085,429,"32 SANDHILL RD, ESSEX JCT, VT, 5452","Match","Exact","32 SANDHILL RD, ESSEX JCT, VT, 05452",135830315,"L"
170430,"32 SCHOOL STREET","PINE BLUFF","AR",71602,34.235517896,-92.054593403,430,"32 SCHOOL STREET, PINE BLUFF, AR, 71602","Match","Exact","32 SCHOOL ST, PINE BLUFF, AR, 71602",2548923,"R"
170431,"32 SEDGWICK VILLAGE LANE","DARIEN","CT",6820,41.079109649,-73.466450751,431,"32 SEDGWICK VILLAGE LANE, DARIEN, CT, 6820","Match","Non_Exact","32 SEDGEWICK VILLAGE LN, DARIEN, CT, 06820",3273239,"R"
170432,"32 SETTLERS WAY","BUZZARDS BAY","MA",2532,41.762152744,-70.589302986,432,"32 SETTLERS WAY, BUZZARDS BAY, MA, 2532","Match","Exact","32 SETTLERS WAY, BUZZARDS BAY, MA, 02532",650032861,"R"
170433,"32 SHAW DRIVE","MONESSEN","PA",15062,40.144509471,-79.878068062,433,"32 SHAW DRIVE, MONESSEN, PA, 15062","Match","Exact","32 SHAW DR, MONESSEN, PA, 15062",52959299,"L"
170434,"32 SHELL ISLAND RD","ST. MARKS","FL",32355,30.1607879100001,-84.207602309,434,"32 SHELL ISLAND RD, ST. MARKS, FL, 32355","Match","Exact","32 SHELL ISLAND RD, SAINT MARKS, FL, 32355",610439430,"R"
170435,"32 SHILOH DRIVE","JACKSON","TN",38305,35.6837359530001,-88.8217895189999,435,"32 SHILOH DRIVE, JACKSON, TN, 38305","Match","Exact","32 SHILOH DR, JACKSON, TN, 38305",21320589,"R"
170436,"32 SHUTE FARM LANE","CLARKSBORO","NJ",8020,39.803388338,-75.2369024,436,"32 SHUTE FARM LANE, CLARKSBORO, NJ, 8020","Match","Exact","32 SHUTE FARM LN, CLARKSBORO, NJ, 08020",643210483,"R"
170437,"32 SILVER STAR RD","ORLANDO","FL",32804,NA,NA,437,"32 SILVER STAR RD, ORLANDO, FL, 32804","No_Match",NA,NA,NA,NA
170438,"32 SKYVIEW TERRACE","STERLING","NJ",7980,40.6789237930001,-74.484311858,438,"32 SKYVIEW TERRACE, STERLING, NJ, 7980","Match","Non_Exact","32 SKYVIEW TER, STIRLING, NJ, 07980",60464339,"R"
170439,"32 SMULL AVENUE","CALDWELL","NJ",7666,NA,NA,439,"32 SMULL AVENUE, CALDWELL, NJ, 7666","No_Match",NA,NA,NA,NA
170440,"32 SOUTH COURT STREET  PO BOX 323","ALAMO","TN",38001,35.7848180510001,-89.11696546,440,"32 SOUTH COURT STREET  PO BOX 323, ALAMO, TN, 38001","Match","Exact","32 S COURT ST, ALAMO, TN, 38001",63319820,"R"
170441,"32 SOUTH FREDERICK","OELWEIN","IA",50662,42.677992321,-91.913363238,441,"32 SOUTH FREDERICK, OELWEIN, IA, 50662","Match","Non_Exact","32 S FREDERICK AVE, OELWEIN, IA, 50662",108200753,"L"
170442,"32 SOUTHERN SLOPE DRIVE","MILLSBURN","NJ",7041,40.71926318,-74.300604656,442,"32 SOUTHERN SLOPE DRIVE, MILLSBURN, NJ, 7041","Match","Non_Exact","32 SOUTHERN SLOPE DR, MILLBURN, NJ, 07041",63484219,"L"
170443,"32 STANFORD HILL ROAD","ESSEX","CT",6426,41.3445296610001,-72.3960537849999,443,"32 STANFORD HILL ROAD, ESSEX, CT, 6426","Match","Exact","32 STANFORD HILL RD, ESSEX, CT, 06426",635786305,"L"
170444,"32 STONEYMEADE WAY","ACTON","MA",1720,42.482783592,-71.40189431,444,"32 STONEYMEADE WAY, ACTON, MA, 1720","Match","Exact","32 STONEYMEADE WAY, ACTON, MA, 01720",87122990,"L"
170445,"32 SUGAR CREEK CENTER SUITE 8","BELLA VISTA","AR",72714,36.4393475250001,-94.236932993,445,"32 SUGAR CREEK CENTER SUITE 8, BELLA VISTA, AR, 72714","Match","Exact","32 SUGAR CREEK CTR, BELLA VISTA, AR, 72714",635792802,"L"
170446,"32 SYCAMORE SE","GRAND RAPIDS","MI",49503,42.950138042,-85.666358714,446,"32 SYCAMORE SE, GRAND RAPIDS, MI, 49503","Match","Non_Exact","32 SYCAMORE ST SE, GRAND RAPIDS, MI, 49503",12458937,"R"
170447,"32 TAMARACK DRIVE","SOUTH BERWICK","ME",3908,43.2353854290001,-70.779547513,447,"32 TAMARACK DRIVE, SOUTH BERWICK, ME, 3908","Match","Exact","32 TAMARACK DR, SOUTH BERWICK, ME, 03908",653248453,"L"
170448,"32 THOMASTON TRL","SPRINGFIELD","OH",45503,39.975695822,-83.80315354,448,"32 THOMASTON TRL, SPRINGFIELD, OH, 45503","Match","Exact","32 THOMASTON TRL, SPRINGFIELD, OH, 45503",135006415,"L"
170449,"32 THORNWOOD LANE","ROSLYN HEIGHTS","NY",11577,40.790748513,-73.622982215,449,"32 THORNWOOD LANE, ROSLYN HEIGHTS, NY, 11577","Match","Exact","32 THORNWOOD LN, ROSLYN HEIGHTS, NY, 11577",147623343,"L"
170450,"32 THORWALD AVENUE","HAMPTON","NH",3842,42.9289858670001,-70.80420868,450,"32 THORWALD AVENUE, HAMPTON, NH, 3842","Match","Exact","32 THORWALD AVE, HAMPTON, NH, 03842",113677217,"L"
170451,"32 TIMBER LANE","BROWNSBURG","IN",46112,39.8557391300001,-86.399117581,451,"32 TIMBER LANE, BROWNSBURG, IN, 46112","Match","Exact","32 TIMBER LN, BROWNSBURG, IN, 46112",89198252,"L"
170452,"32 TOWER LN","DENISON","TX",75020,33.768186131,-96.546997757,452,"32 TOWER LN, DENISON, TX, 75020","Match","Exact","32 TOWER LN, DENISON, TX, 75020",635383170,"L"
170453,"32 TRAUB DR","SOUTHAMPTON","PA",18966,40.1899320800001,-75.015574783,453,"32 TRAUB DR, SOUTHAMPTON, PA, 18966","Match","Exact","32 TRAUB DR, SOUTHAMPTON, PA, 18966",134728548,"L"
170454,"32 TUCK CIRCLE","RENO","NV",89506,39.629325185,-119.85654028,454,"32 TUCK CIRCLE, RENO, NV, 89506","Match","Exact","32 TUCK CIR, RENO, NV, 89506",107040480,"L"
170455,"32 UNION ST","EAST BRIDGEWATER","MA",2333,42.033378095,-70.9589710129999,455,"32 UNION ST, EAST BRIDGEWATER, MA, 2333","Match","Exact","32 UNION ST, E BRIDGEWATER, MA, 02333",87446479,"L"
170456,"32 UNION STREET","OBERLIN","OH",44074,41.2982398730001,-82.218616993,456,"32 UNION STREET, OBERLIN, OH, 44074","Match","Exact","32 UNION ST, OBERLIN, OH, 44074",55449621,"L"
170457,"32 UPLAND COURT","RINEYVILLE","KY",40162,37.730138653,-85.979848939,457,"32 UPLAND COURT, RINEYVILLE, KY, 40162","Match","Exact","32 UPLAND CT, RINEYVILLE, KY, 40162",617574527,"R"
170458,"32 UTICA ROAD","PONTIAC","MI",48341,42.636595684,-83.3203866969999,458,"32 UTICA ROAD, PONTIAC, MI, 48341","Match","Exact","32 UTICA RD, PONTIAC, MI, 48341",69703517,"R"
170459,"32 VIEWMONT ROAD","COPAKE","NY",12516,42.1251644120001,-73.55894334,459,"32 VIEWMONT ROAD, COPAKE, NY, 12516","Match","Exact","32 VIEWMONT RD, COPAKE, NY, 12516",41523232,"R"
170460,"32 W 200 S NUM 214","SALT LAKE CITY","UT",84101,NA,NA,460,"32 W 200 S NUM 214, SALT LAKE CITY, UT, 84101","No_Match",NA,NA,NA,NA
170461,"32 W 200 S STE 121","SALT LAKE CITY","UT",84101,NA,NA,461,"32 W 200 S STE 121, SALT LAKE CITY, UT, 84101","No_Match",NA,NA,NA,NA
170462,"32 W 200 SOUTH 307","SALT LAKE CITY","UT",84101,NA,NA,462,"32 W 200 SOUTH 307, SALT LAKE CITY, UT, 84101","No_Match",NA,NA,NA,NA
170463,"32 W CLINTON STREET","JOLIET","IL",60432,NA,NA,463,"32 W CLINTON STREET, JOLIET, IL, 60432","Tie",NA,NA,NA,NA
170464,"32 W LINCOLN AVE","HATFIELD","PA",19440,40.2782816380001,-75.298993122,464,"32 W LINCOLN AVE, HATFIELD, PA, 19440","Match","Exact","32 W LINCOLN AVE, HATFIELD, PA, 19440",135072755,"R"
170465,"32 W PAMELA","ARABI","LA",70032,NA,NA,465,"32 W PAMELA, ARABI, LA, 70032","Tie",NA,NA,NA,NA
170466,"32 W SUFFOLK AVENUE","CENTRAL ISLIP","NY",11722,40.789637123,-73.2067556439999,466,"32 W SUFFOLK AVENUE, CENTRAL ISLIP, NY, 11722","Match","Exact","32 W SUFFOLK AVE, CENTRAL ISLIP, NY, 11722",113989615,"R"
170467,"32 WADDINGTON CT","ROCKVILLE","MD",20850,39.073368886,-77.151972857,467,"32 WADDINGTON CT, ROCKVILLE, MD, 20850","Match","Exact","32 WADDINGTON CT, ROCKVILLE, MD, 20850",642986304,"L"
170468,"32 WATERLOO STREET SUITE 100","WARRENTON","VA",20187,38.7139469960001,-77.7964557879999,468,"32 WATERLOO STREET SUITE 100, WARRENTON, VA, 20187","Match","Non_Exact","32 WATERLOO ST, WARRENTON, VA, 20186",146258442,"L"
170469,"32 WATERS EDGE","CONGERS","NY",10920,41.150431559,-73.952359524,469,"32 WATERS EDGE, CONGERS, NY, 10920","Match","Exact","32 WATERS EDGE, CONGERS, NY, 10920",124606426,"L"
170470,"32 WEATHERVANE CIR","CREAM RIDGE","NJ",8514,40.137152106,-74.4682187609999,470,"32 WEATHERVANE CIR, CREAM RIDGE, NJ, 8514","Match","Exact","32 WEATHERVANE CIR, CREAM RIDGE, NJ, 08514",649151931,"L"
170471,"32 WEBSTER AVE","PORTSMOUTH","VA",23704,36.8453674450001,-76.312312888,471,"32 WEBSTER AVE, PORTSMOUTH, VA, 23704","Match","Exact","32 WEBSTER AVE, PORTSMOUTH, VA, 23704",122194639,"R"
170472,"32 WERNIK PLACE - SUITE A","METUCHEN","NJ",8840,40.5389297670001,-74.360884937,472,"32 WERNIK PLACE - SUITE A, METUCHEN, NJ, 8840","Match","Exact","32 WERNIK PL, METUCHEN, NJ, 08840",60336644,"R"
170473,"32 WEST 131ST STREET APT 1W","NEW YORK","NY",10037,40.8106708080001,-73.940600134,473,"32 WEST 131ST STREET APT 1W, NEW YORK, NY, 10037","Match","Exact","32 W 131ST ST, NEW YORK, NY, 10037",59656433,"L"
170474,"32 WEST 200 SOUTH  SUITE 158","SALT LAKE CITY","UT",84101,NA,NA,474,"32 WEST 200 SOUTH  SUITE 158, SALT LAKE CITY, UT, 84101","No_Match",NA,NA,NA,NA
170475,"32 WEST 200 SOUTH SUITE 307","SALT LAKE CITY","UT",84101,NA,NA,475,"32 WEST 200 SOUTH SUITE 307, SALT LAKE CITY, UT, 84101","No_Match",NA,NA,NA,NA
170476,"32 WEST 200 SOUTH","SALT LAKE CITY","UT",84101,40.7650080660001,-111.892071019,476,"32 WEST 200 SOUTH, SALT LAKE CITY, UT, 84101","Match","Exact","32 W 200 S, SALT LAKE CITY, UT, 84101",176067342,"R"
170477,"32 WEST 8TH ST SUITE 306","ERIE","PA",16501,42.1273010040001,-80.084398864,477,"32 WEST 8TH ST SUITE 306, ERIE, PA, 16501","Match","Exact","32 W 8TH ST, ERIE, PA, 16501",117494262,"R"
170478,"32 WEST NORTH STREET","YORK","PA",17401,39.9661245360001,-76.7308247889999,478,"32 WEST NORTH STREET, YORK, PA, 17401","Match","Non_Exact","32 W NORTH ST, YORK, PA, 17403",88730614,"L"
170479,"32 WHITE OAK STREET - APT 2","NEW ROCHELLE","NY",10801,40.9255461540001,-73.789944357,479,"32 WHITE OAK STREET - APT 2, NEW ROCHELLE, NY, 10801","Match","Exact","32 WHITE OAK ST, NEW ROCHELLE, NY, 10801",139750071,"L"
170480,"32 WILDWOOD LN","NEWPORT","WA",99156,48.099240525,-117.098760349,480,"32 WILDWOOD LN, NEWPORT, WA, 99156","Match","Exact","32 WILDWOOD LN, NEWPORT, WA, 99156",624911704,"R"
170481,"32 WILLOWBROOK DRIVE","NORTH CALDWELL","NJ",7006,40.865548641,-74.2465163959999,481,"32 WILLOWBROOK DRIVE, NORTH CALDWELL, NJ, 7006","Match","Exact","32 WILLOWBROOK DR, N CALDWELL, NJ, 07006",63446756,"R"
170482,"32 WILOWA LANE","SANTA FE","NM",87505,35.555964589,-105.863088035,482,"32 WILOWA LANE, SANTA FE, NM, 87505","Match","Exact","32 WILOWA LN, SANTA FE, NM, 87505",169406343,"R"
170483,"32 WILSON AVENUE","COLUMBUS","OH",43205,39.965185321,-82.966076078,483,"32 WILSON AVENUE, COLUMBUS, OH, 43205","Match","Exact","32 WILSON AVE, COLUMBUS, OH, 43205",135581260,"L"
170484,"32 WILSON STREET","HOPKINTON","MA",1748,42.2380837970001,-71.5169453299999,484,"32 WILSON STREET, HOPKINTON, MA, 1748","Match","Exact","32 WILSON ST, HOPKINTON, MA, 01748",87114900,"L"
170485,"32 WOOD STREET B","SAINT PAUL","MN",55107,44.9356139760001,-93.083768246,485,"32 WOOD STREET B, SAINT PAUL, MN, 55107","Match","Non_Exact","32 E WOOD ST, SAINT PAUL, MN, 55107",97654239,"R"
170486,"32 WOOD VALLEY TRACE","DAWSONVILLE","GA",30534,34.367257368,-84.059999917,486,"32 WOOD VALLEY TRACE, DAWSONVILLE, GA, 30534","Match","Non_Exact","32 WOOD VALLEY TRL, DAWSONVILLE, GA, 30534",619810721,"R"
170487,"32-1091 HAWAII BELT ROAD","NINOLE","HI",96773,19.9437365480001,-155.175861326,487,"32-1091 HAWAII BELT ROAD, NINOLE, HI, 96773","Match","Exact","32-1091 HAWAII BELT RD, NINOLE, HI, 96773",203019577,"L"
170488,"32-34 VALLEY ST","HIGHLANDS","NJ",7732,40.402762948,-73.987427296,488,"32-34 VALLEY ST, HIGHLANDS, NJ, 7732","Match","Exact","32 VALLEY ST, HIGHLANDS, NJ, 07732",90468625,"R"
170489,"32-44 105TH STREET","EAST ELMHUST","NY",11369,40.7587885880001,-73.863911344,489,"32-44 105TH STREET, EAST ELMHUST, NY, 11369","Match","Non_Exact","32 105TH ST, EAST ELMHURST, NY, 11369",59699434,"R"
170490,"32","PHILADELPHIA","PA",19149,NA,NA,490,"32, PHILADELPHIA, PA, 19149","No_Match",NA,NA,NA,NA
170491,"32","PORTLAND","OR",97212,NA,NA,491,"32, PORTLAND, OR, 97212","No_Match",NA,NA,NA,NA
170492,"320 1/2 N 1ST ST","COUNCIL BLUFFS","IA",51503,41.266171942,-95.845901638,492,"320 1/2 N 1ST ST, COUNCIL BLUFFS, IA, 51503","Match","Exact","320 N 1ST ST, COUNCIL BLUFFS, IA, 51503",43903940,"L"
170493,"320 1/2 N 6TH","PERRY","OK",73077,36.286345671,-97.285765012,493,"320 1/2 N 6TH, PERRY, OK, 73077","Match","Non_Exact","320 N 6TH ST, PERRY, OK, 73077",154986343,"R"
170494,"320 10TH STREET STE 139","OAKLAND","CA",94607,37.8002925750001,-122.269647053,494,"320 10TH STREET STE 139, OAKLAND, CA, 94607","Match","Exact","320 10TH ST, OAKLAND, CA, 94607",124997208,"R"
170495,"320 13TH STREET NW","NAPLES","FL",34120,26.2344263370001,-81.633010659,495,"320 13TH STREET NW, NAPLES, FL, 34120","Match","Exact","320 13TH ST NW, NAPLES, FL, 34120",635578815,"R"
170496,"320 15TH AVE","SEATTLE","WA",98122,47.604642583,-122.312856965,496,"320 15TH AVE, SEATTLE, WA, 98122","Match","Exact","320 15TH AVE, SEATTLE, WA, 98122",186592632,"R"
170497,"320 21ST STREET NE","WASHINGTON","DC",20002,38.8941446330001,-76.975073779,497,"320 21ST STREET NE, WASHINGTON, DC, 20002","Match","Exact","320 21ST ST NE, WASHINGTON, DC, 20002",76231365,"L"
170498,"320 24TH AVEUE","CUMBERLAND","WI",54829,45.5530739000001,-92.088090299,498,"320 24TH AVEUE, CUMBERLAND, WI, 54829","Match","Non_Exact","320 24TH AVE, CUMBERLAND, WI, 54829",126292726,"R"
170499,"320 2ND STREET","STEDMAN","NC",28391,35.0074872920001,-78.692576703,499,"320 2ND STREET, STEDMAN, NC, 28391","Match","Exact","320 2ND ST, STEDMAN, NC, 28391",64210390,"L"
170500,"320 51 STREET","BROOKLYN","NY",11220,40.6467095740001,-74.014488028,500,"320 51 STREET, BROOKLYN, NY, 11220","Match","Exact","320 51ST ST, BROOKLYN, NY, 11220",59094393,"R"
