"ID","Address","City","State","Zip","lat","long","id","input_address","match_indicator","match_type","matched_address","tiger_line_id","tiger_side"
129001,"2324 BAY LAKES COURT","ARLINGTON","TX",76016,32.707498995,-97.196124404,1,"2324 BAY LAKES COURT, ARLINGTON, TX, 76016","Match","Exact","2324 BAY LAKES CT, ARLINGTON, TX, 76016",637162252,"R"
129002,"2324 BOYLAN RD","BOZEMAN","MT",59715,45.7051000320001,-111.003179658,2,"2324 BOYLAN RD, BOZEMAN, MT, 59715","Match","Exact","2324 BOYLAN RD, BOZEMAN, MT, 59715",641194916,"R"
129003,"2324 BRIGHTSEAT RD APT 4","LANDOVER","MD",20785,38.9208870300001,-76.859910376,3,"2324 BRIGHTSEAT RD APT 4, LANDOVER, MD, 20785","Match","Exact","2324 BRIGHTSEAT RD, LANDOVER, MD, 20785",76404845,"L"
129004,"2324 BUTTE PL","WALDORF","MD",20603,38.647892057,-76.9715317979999,4,"2324 BUTTE PL, WALDORF, MD, 20603","Match","Exact","2324 BUTTE PL, WALDORF, MD, 20603",25389517,"R"
129005,"2324 BUTTONWOOD DR","JACKSONVILLE","FL",32216,30.304107801,-81.5993871049999,5,"2324 BUTTONWOOD DR, JACKSONVILLE, FL, 32216","Match","Exact","2324 BUTTONWOOD DR, JACKSONVILLE, FL, 32216",83918574,"R"
129006,"2324 CAMINO DEL VERDES","ROUND ROCK","TX",78681,30.5341523290001,-97.714003315,6,"2324 CAMINO DEL VERDES, ROUND ROCK, TX, 78681","Match","Non_Exact","2324 CAMINO DEL VERDES PL, ROUND ROCK, TX, 78681",126475054,"R"
129007,"2324 CLINTON AVE","BERWYN","IL",60402,41.84818231,-87.797090988,7,"2324 CLINTON AVE, BERWYN, IL, 60402","Match","Exact","2324 CLINTON AVE, BERWYN, IL, 60402",605123785,"R"
129008,"2324 COLLEGE STREET","JACKSONVILLE","FL",32204,30.3152186070001,-81.6878249119999,8,"2324 COLLEGE STREET, JACKSONVILLE, FL, 32204","Match","Exact","2324 COLLEGE ST, JACKSONVILLE, FL, 32204",83896647,"L"
129009,"2324 COPPERSTONE DR APT 2-F","HIGH POINT","NC",27265,36.0215201560001,-79.971097163,9,"2324 COPPERSTONE DR APT 2-F, HIGH POINT, NC, 27265","Match","Exact","2324 COPPERSTONE DR, HIGH POINT, NC, 27265",619933571,"L"
129010,"2324 COUNTRY CLUB RD","JACKSONVILLE","NC",28546,34.7739983180001,-77.36776638,10,"2324 COUNTRY CLUB RD, JACKSONVILLE, NC, 28546","Match","Exact","2324 COUNTRY CLUB RD, JACKSONVILLE, NC, 28546",14012547,"R"
129011,"2324 DEERLICK LANE","HARVEY","LA",70058,29.8657436280001,-90.077348552,11,"2324 DEERLICK LANE, HARVEY, LA, 70058","Match","Exact","2324 DEERLICK LN, HARVEY, LA, 70058",93509700,"L"
129012,"2324 E WASHINGTON AVE","REEDLEY","CA",93654,36.591794173,-119.424234927,12,"2324 E WASHINGTON AVE, REEDLEY, CA, 93654","Match","Exact","2324 E WASHINGTON AVE, REEDLEY, CA, 93654",197647033,"R"
129013,"2324 FALLS GABLE LN APT 1","BALTIMORE","MD",21209,39.380432807,-76.672656062,13,"2324 FALLS GABLE LN APT 1, BALTIMORE, MD, 21209","Match","Exact","2324 FALLS GABLE LN, BALTIMORE, MD, 21209",191504032,"L"
129014,"2324 GRAND CANAL BLVD  SUITE 9","STOCKTON","CA",95207,37.984011287,-121.335451175,14,"2324 GRAND CANAL BLVD  SUITE 9, STOCKTON, CA, 95207","Match","Exact","2324 GRAND CANAL BLVD, STOCKTON, CA, 95207",133846997,"R"
129015,"2324 HERITAGE PARK CIR NW","KENNESAW","GA",30144,34.008924936,-84.562022011,15,"2324 HERITAGE PARK CIR NW, KENNESAW, GA, 30144","Match","Exact","2324 HERITAGE PARK CIR NW, KENNESAW, GA, 30144",618320442,"R"
129016,"2324 LIMESTONE LANE","GARLAND","TX",75040,32.9368275210001,-96.627404328,16,"2324 LIMESTONE LANE, GARLAND, TX, 75040","Match","Exact","2324 LIMESTONE LN, GARLAND, TX, 75040",102926364,"R"
129017,"2324 LLOYD DRIVE","CHESAPEAKE","VA",23325,36.7995050920001,-76.246959406,17,"2324 LLOYD DRIVE, CHESAPEAKE, VA, 23325","Match","Exact","2324 LLOYD DR, CHESAPEAKE, VA, 23325",121772185,"L"
129018,"2324 MIDDLESEX DRIVE","TOLEDO","OH",43606,41.6652645030001,-83.618310037,18,"2324 MIDDLESEX DRIVE, TOLEDO, OH, 43606","Match","Exact","2324 MIDDLESEX DR, TOLEDO, OH, 43606",33935346,"R"
129019,"2324 MURIEL COURT","CINCINNATI","OH",45219,39.1255962860001,-84.5278495969999,19,"2324 MURIEL COURT, CINCINNATI, OH, 45219","Match","Exact","2324 MURIEL CT, CINCINNATI, OH, 45219",103966631,"L"
129020,"2324 N 15TH ST","MILWAUKEE","WI",53206,43.0610274090001,-87.9314176249999,20,"2324 N 15TH ST, MILWAUKEE, WI, 53206","Match","Exact","2324 N 15TH ST, MILWAUKEE, WI, 53206",653038303,"R"
129021,"2324 PAULDING AVE SUITE 3E","BRONX","NY",10469,40.8601204620001,-73.858800054,21,"2324 PAULDING AVE SUITE 3E, BRONX, NY, 10469","Match","Exact","2324 PAULDING AVE, BRONX, NY, 10469",80303574,"R"
129022,"2324 PUMP ROAD","HENRICO","VA",23233,37.6250091150001,-77.608562648,22,"2324 PUMP ROAD, HENRICO, VA, 23233","Match","Exact","2324 PUMP RD, HENRICO, VA, 23233",106684322,"L"
129023,"2324 QUAKER COURT","ORLANDO","FL",32837,28.3537846040001,-81.4091109619999,23,"2324 QUAKER COURT, ORLANDO, FL, 32837","Match","Exact","2324 QUAKER CT, ORLANDO, FL, 32837",94324687,"R"
129024,"2324 ROCKEFELLER AVENUE","EVERETT","WA",98201,47.986798015,-122.205618201,24,"2324 ROCKEFELLER AVENUE, EVERETT, WA, 98201","Match","Exact","2324 ROCKEFELLER AVE, EVERETT, WA, 98201",187745053,"R"
129025,"2324 ROZZELLES FERRY ROAD","CHARLOTTE","NC",28208,35.244981786,-80.865142968,25,"2324 ROZZELLES FERRY ROAD, CHARLOTTE, NC, 28208","Match","Exact","2324 ROZZELLES FERRY RD, CHARLOTTE, NC, 28208",70477438,"R"
129026,"2324 SECOND STREET PIKE STE 2B","NEWTOWN","PA",18940,40.267614187,-74.9973671939999,26,"2324 SECOND STREET PIKE STE 2B, NEWTOWN, PA, 18940","Match","Exact","2324 2ND STREET PIKE, NEWTOWN, PA, 18940",134718561,"L"
129027,"2324 SIMONSON DRIVE","WELLINGTON","FL",33414,26.645070237,-80.202269953,27,"2324 SIMONSON DRIVE, WELLINGTON, FL, 33414","Match","Exact","2324 SIMONSON DR, WELLINGTON, FL, 33414",115584041,"R"
129028,"2324 SOUTH CONGRESS AVE SUITE 2F","PALM SPRINGS","FL",33406,26.641916587,-80.088187535,28,"2324 SOUTH CONGRESS AVE SUITE 2F, PALM SPRINGS, FL, 33406","Match","Exact","2324 S CONGRESS AVE, PALM SPRINGS, FL, 33406",115274023,"L"
129029,"2324 STRAHLE STREET","PHILADELPHIA","PA",19152,40.0632642950001,-75.045178322,29,"2324 STRAHLE STREET, PHILADELPHIA, PA, 19152","Match","Exact","2324 STRAHLE ST, PHILADELPHIA, PA, 19152",131450108,"R"
129030,"2324 SUGAR RUN ROAD","WEST UNION","WV",26456,39.1806120860001,-80.849023586,30,"2324 SUGAR RUN ROAD, WEST UNION, WV, 26456","Match","Exact","2324 SUGAR RUN, WEST UNION, WV, 26456",55193480,"L"
129031,"2324 SW 147 AVENUE UNIT 140","MIAMI","FL",33185,NA,NA,31,"2324 SW 147 AVENUE UNIT 140, MIAMI, FL, 33185","No_Match",NA,NA,NA,NA
129032,"2324 TAYLOR AVE","RACINE","WI",53403,42.702388221,-87.813109164,32,"2324 TAYLOR AVE, RACINE, WI, 53403","Match","Exact","2324 TAYLOR AVE, RACINE, WI, 53403",77909702,"R"
129033,"2324 TOLEDANO STREET  APT D","NEW ORLEANS","LA",70115,29.935274663,-90.093477943,33,"2324 TOLEDANO STREET  APT D, NEW ORLEANS, LA, 70115","Match","Exact","2324 TOLEDANO ST, NEW ORLEANS, LA, 70115",191712452,"L"
129034,"2324 W MINERS DR","DUNLAP","IL",61525,40.826368722,-89.628210919,34,"2324 W MINERS DR, DUNLAP, IL, 61525","Match","Exact","2324 W MINERS DR, DUNLAP, IL, 61525",8732335,"R"
129035,"2324 W SUNRISE DR","PHOENIX","AZ",85041,33.352299778,-112.109808738,35,"2324 W SUNRISE DR, PHOENIX, AZ, 85041","Match","Exact","2324 W SUNRISE DR, PHOENIX, AZ, 85041",640975745,"L"
129036,"2324 W TANQUE VERDE CT","CHANDLER","AZ",85224,33.3296349230001,-111.884134147,36,"2324 W TANQUE VERDE CT, CHANDLER, AZ, 85224","Match","Exact","2324 W TANQUE VERDE CT, CHANDLER, AZ, 85224",128240885,"R"
129037,"2324 WEST 28TH","EUGENE","OR",97405,44.0286981560001,-123.128301156,37,"2324 WEST 28TH, EUGENE, OR, 97405","Match","Non_Exact","2324 W 28TH AVE, EUGENE, OR, 97405",178168522,"L"
129038,"23241 CARLYSLE","DEARBORN","MI",48124,42.283764826,-83.261440176,38,"23241 CARLYSLE, DEARBORN, MI, 48124","Match","Non_Exact","23241 CARLYSLE ST, DEARBORN, MI, 48124",95436717,"L"
129039,"23246 COUNTRY LIVING ROAD","MILLSBORO","DE",19966,38.5974531780001,-75.3363473749999,39,"23246 COUNTRY LIVING ROAD, MILLSBORO, DE, 19966","Match","Non_Exact","23246 COUNTRY LIVING DR, MILLSBORO, DE, 19966",106122011,"R"
129040,"23247 CALLE DIAZ APT 293","MORENO VALLEY","CA",92557,33.9458179550001,-117.256582886,40,"23247 CALLE DIAZ APT 293, MORENO VALLEY, CA, 92557","Match","Non_Exact","23247 CLL DIAZ, MORENO VALLEY, CA, 92557",194790287,"L"
129041,"2325 14TH PLACE SE","WASHINGTON DC","DC",20020,38.858807385,-76.987172849,41,"2325 14TH PLACE SE, WASHINGTON DC, DC, 20020","Match","Exact","2325 14TH PL SE, WASHINGTON, DC, 20020",76232406,"L"
129042,"2325 27TH STREET ENSLEY","BIRMINGHAM","AL",35208,NA,NA,42,"2325 27TH STREET ENSLEY, BIRMINGHAM, AL, 35208","No_Match",NA,NA,NA,NA
129043,"2325 6TH AVE","SCOTTSBLUFF","NE",69361,41.869823608,-103.654775009,43,"2325 6TH AVE, SCOTTSBLUFF, NE, 69361","Match","Exact","2325 6TH AVE, SCOTTSBLUFF, NE, 69361",636295414,"R"
129044,"2325 ANOKA AVENUE","BALTIMORE","MD",21215,39.321341605,-76.656001039,44,"2325 ANOKA AVENUE, BALTIMORE, MD, 21215","Match","Exact","2325 ANOKA AVE, BALTIMORE, MD, 21215",647411886,"L"
129045,"2325 ATASCOCITA RD STE E105","HUMBLE","TX",77396,29.9702949590001,-95.233189458,45,"2325 ATASCOCITA RD STE E105, HUMBLE, TX, 77396","Match","Exact","2325 ATASCOCITA RD, HUMBLE, TX, 77396",648884799,"L"
129046,"2325 AUBURN STREET SOUTH","SAINT PETERSBURG","FL",33712,27.747339712,-82.669483939,46,"2325 AUBURN STREET SOUTH, SAINT PETERSBURG, FL, 33712","Match","Exact","2325 AUBURN ST S, SAINT PETERSBURG, FL, 33712",124710027,"R"
129047,"2325 AUTUMN BLAZE COURT","WAXHAW","NC",28173,34.9533501810001,-80.696006531,47,"2325 AUTUMN BLAZE COURT, WAXHAW, NC, 28173","Match","Exact","2325 AUTUMN BLAZE CT, WAXHAW, NC, 28173",629297918,"R"
129048,"2325 BERKELEY AVE","LOS ANGELES","CA",90026,34.0846351760001,-118.262513208,48,"2325 BERKELEY AVE, LOS ANGELES, CA, 90026","Match","Exact","2325 BERKELEY AVE, LOS ANGELES, CA, 90026",141615895,"R"
129049,"2325 BODETTE AVE","TOLEDO","OH",43613,41.718419623,-83.600993982,49,"2325 BODETTE AVE, TOLEDO, OH, 43613","Match","Exact","2325 BODETTE AVE, TOLEDO, OH, 43613",33932790,"L"
129050,"2325 CENTRAL AVENUE","SAINT PETERSBURG","FL",33713,27.771024273,-82.664823127,50,"2325 CENTRAL AVENUE, SAINT PETERSBURG, FL, 33713","Match","Exact","2325 CENTRAL AVE, SAINT PETERSBURG, FL, 33713",124705950,"R"
129051,"2325 CIMARRON DRIVE","SANTA CLARA","CA",95051,37.364509695,-121.967326597,51,"2325 CIMARRON DRIVE, SANTA CLARA, CA, 95051","Match","Exact","2325 CIMARRON DR, SANTA CLARA, CA, 95051",122898867,"R"
129052,"2325 CR 5600","ELK CITY","KS",67344,37.313328488,-95.854866253,52,"2325 CR 5600, ELK CITY, KS, 67344","Match","Exact","2325 CR 5600, ELK CITY, KS, 67344",13779585,"R"
129053,"2325 CROYDON RD","CHARLOTTE","NC",28207,35.18297276,-80.836809895,53,"2325 CROYDON RD, CHARLOTTE, NC, 28207","Match","Exact","2325 CROYDON RD, CHARLOTTE, NC, 28207",70488145,"L"
129054,"2325 DAISY HILL AVE","LAS VEGAS","NV",89106,36.193625426,-115.173106241,54,"2325 DAISY HILL AVE, LAS VEGAS, NV, 89106","Match","Exact","2325 DAISY HILL AVE, LAS VEGAS, NV, 89106",201931083,"L"
129055,"2325 DOUGHERTY FERRY RD SUITE 203","ST LOUIS","MO",63122,38.581864717,-90.447084635,55,"2325 DOUGHERTY FERRY RD SUITE 203, ST LOUIS, MO, 63122","Match","Exact","2325 DOUGHERTY FERRY RD, SAINT LOUIS, MO, 63122",604547169,"R"
129056,"2325 DULLES CORNER BLVD STE 670","HERNDON","VA",20171,38.9598415990001,-77.422850292,56,"2325 DULLES CORNER BLVD STE 670, HERNDON, VA, 20171","Match","Exact","2325 DULLES CORNER BLVD, HERNDON, VA, 20171",76024323,"R"
129057,"2325 E GLADE AVE","MESA","AZ",85204,33.3914247320001,-111.781281162,57,"2325 E GLADE AVE, MESA, AZ, 85204","Match","Exact","2325 E GLADE AVE, MESA, AZ, 85204",128247137,"R"
129058,"2325 E HUNTINGDON STREET","PHILADELPHIA","PA",19125,39.981645622,-75.1210504639999,58,"2325 E HUNTINGDON STREET, PHILADELPHIA, PA, 19125","Match","Exact","2325 E HUNTINGDON ST, PHILADELPHIA, PA, 19125",131425931,"L"
129059,"2325 E I-44 SERVICE ROAD","OKLAHOMA CITY","OK",73154,NA,NA,59,"2325 E I-44 SERVICE ROAD, OKLAHOMA CITY, OK, 73154","No_Match",NA,NA,NA,NA
129060,"2325 E NEW YORK STREET","INDIANAPOLIS","IN",46201,39.7715470810001,-86.122353599,60,"2325 E NEW YORK STREET, INDIANAPOLIS, IN, 46201","Match","Exact","2325 E NEW YORK ST, INDIANAPOLIS, IN, 46201",108052157,"R"
129061,"2325 E ST","SACRAMENTO","CA",95816,38.5809972320001,-121.473144627,61,"2325 E ST, SACRAMENTO, CA, 95816","Match","Exact","2325 E ST, SACRAMENTO, CA, 95816",133323725,"L"
129062,"2325 ELK SHOALS CHURCH LOOP","STONY POINT","NC",28678,35.814699272,-81.111310368,62,"2325 ELK SHOALS CHURCH LOOP, STONY POINT, NC, 28678","Match","Exact","2325 ELK SHOALS CHURCH LOOP, STONY POINT, NC, 28678",223800167,"R"
129063,"2325 FELLS LANE","WILMINGTON","DE",19808,39.7478758350001,-75.639353999,63,"2325 FELLS LANE, WILMINGTON, DE, 19808","Match","Exact","2325 FELLS LN, WILMINGTON, DE, 19808",187253421,"L"
129064,"2325 FLAT TOP EGERIA RD","FLAT TOP","WV",25841,37.5869674320001,-81.133378481,64,"2325 FLAT TOP EGERIA RD, FLAT TOP, WV, 25841","Match","Exact","2325 FLAT TOP EGERIA RD, FLAT TOP, WV, 25841",650002222,"L"
129065,"2325 GREENFIELD LANE","KNOXVILLE","TN",37917,35.9988429960001,-83.9076573409999,65,"2325 GREENFIELD LANE, KNOXVILLE, TN, 37917","Match","Exact","2325 GREENFIELD LN, KNOXVILLE, TN, 37917",42631744,"L"
129066,"2325 HILLTOP MALL ROAD","RICHMOND","CA",94806,37.9832297340001,-122.328621792,66,"2325 HILLTOP MALL ROAD, RICHMOND, CA, 94806","Match","Exact","2325 HILLTOP MALL RD, RICHMOND, CA, 94806",607756271,"R"
129067,"2325 ILION AVE N","MINNEAPOLIS","MN",55411,45.0030407880001,-93.3014571419999,67,"2325 ILION AVE N, MINNEAPOLIS, MN, 55411","Match","Exact","2325 ILION AVE N, MINNEAPOLIS, MN, 55411",43833060,"L"
129068,"2325 INNWOOD DR","AUSTINTOWN","OH",44515,41.0767417480001,-80.742429913,68,"2325 INNWOOD DR, AUSTINTOWN, OH, 44515","Match","Exact","2325 INNWOOD DR, AUSTINTOWN, OH, 44515",64592016,"L"
129069,"2325 KINMERE DRIVE","GASTONIA","NC",28056,35.2086960400001,-81.1319597849999,69,"2325 KINMERE DRIVE, GASTONIA, NC, 28056","Match","Exact","2325 KINMERE DR, GASTONIA, NC, 28056",617954694,"R"
129070,"2325 LOCUST AVENUE","DALLAS","TX",75216,32.701077755,-96.785259394,70,"2325 LOCUST AVENUE, DALLAS, TX, 75216","Match","Exact","2325 LOCUST AVE, DALLAS, TX, 75216",102952091,"L"
129071,"2325 MOHAWK LANE","GLENVIEW","IL",60026,42.0978704990001,-87.8647833369999,71,"2325 MOHAWK LANE, GLENVIEW, IL, 60026","Match","Exact","2325 MOHAWK LN, GLENVIEW, IL, 60026",111719325,"R"
129072,"2325 MURET STREET","IRVING","TX",75062,32.844847449,-96.9752223679999,72,"2325 MURET STREET, IRVING, TX, 75062","Match","Exact","2325 MURET ST, IRVING, TX, 75062",102886757,"R"
129073,"2325 N 12TH ST","PHOENIX","AZ",85006,33.473341326,-112.056360356,73,"2325 N 12TH ST, PHOENIX, AZ, 85006","Match","Exact","2325 N 12TH ST, PHOENIX, AZ, 85006",128213210,"R"
129074,"2325 N DEVON AVE","TEA","SD",57064,43.4647926650001,-96.83881034,74,"2325 N DEVON AVE, TEA, SD, 57064","Match","Exact","2325 N DEVON AVE, TEA, SD, 57064",635027803,"L"
129075,"2325 NASHVILLE PIKE APT 1333","GALLATIN","TN",37066,36.3360514870001,-86.543961257,75,"2325 NASHVILLE PIKE APT 1333, GALLATIN, TN, 37066","Match","Exact","2325 NASHVILLE PIKE, GALLATIN, TN, 37066",645571902,"R"
129076,"2325 OHIO PARKWAY","ROCKFORD","IL",61108,42.242529076,-89.046826024,76,"2325 OHIO PARKWAY, ROCKFORD, IL, 61108","Match","Exact","2325 OHIO PKWY, ROCKFORD, IL, 61108",640225926,"R"
129077,"2325 OSAGE AVE","LOUISVILLE","KY",40210,38.2395787990001,-85.792695797,77,"2325 OSAGE AVE, LOUISVILLE, KY, 40210","Match","Exact","2325 OSAGE AVE, LOUISVILLE, KY, 40210",96842965,"R"
129078,"2325 PINEY POINT LANE","ATLANTA","GA",30339,NA,NA,78,"2325 PINEY POINT LANE, ATLANTA, GA, 30339","No_Match",NA,NA,NA,NA
129079,"2325 PRIMM ROAD","CHARLOTTE","NC",28216,35.332980477,-80.89920812,79,"2325 PRIMM ROAD, CHARLOTTE, NC, 28216","Match","Exact","2325 PRIMM RD, CHARLOTTE, NC, 28216",70555429,"L"
129080,"2325 SEA SHELL RD APT 107","VIRGINIA BEACH","VA",23451,NA,NA,80,"2325 SEA SHELL RD APT 107, VIRGINIA BEACH, VA, 23451","No_Match",NA,NA,NA,NA
129081,"2325 SOUTH MARTIN STREET","LITTLE ROCK","AR",72204,34.730076302,-92.311737501,81,"2325 SOUTH MARTIN STREET, LITTLE ROCK, AR, 72204","Match","Exact","2325 S MARTIN ST, LITTLE ROCK, AR, 72204",83509422,"L"
129082,"2325 SUGARLOAF CLUB DR","DULUTH","GA",30097,33.99105917,-84.104315721,82,"2325 SUGARLOAF CLUB DR, DULUTH, GA, 30097","Match","Exact","2325 SUGARLOAF CLUB DR, DULUTH, GA, 30097",88931899,"R"
129083,"2325 SYMMES ST","CINCINNATI","OH",45206,39.1234707410001,-84.49827513,83,"2325 SYMMES ST, CINCINNATI, OH, 45206","Match","Exact","2325 SYMMES ST, CINCINNATI, OH, 45206",103925991,"L"
129084,"2325 W HADDON AVE APT 1R","CHICAGO","IL",60622,41.9021061440001,-87.685362192,84,"2325 W HADDON AVE APT 1R, CHICAGO, IL, 60622","Match","Non_Exact","2325 W HADDON AVE, CHICAGO, IL, 60622",605066721,"L"
129085,"2325 WAVELL ST","HOUSTON","TX",77088,29.883752762,-95.44622213,85,"2325 WAVELL ST, HOUSTON, TX, 77088","Match","Exact","2325 WAVELL ST, HOUSTON, TX, 77088",96649431,"L"
129086,"2325 WEST 4260 SOUTH","SALT LAKE CITY","UT",84129,40.6781952270001,-111.950386771,86,"2325 WEST 4260 SOUTH, SALT LAKE CITY, UT, 84129","Match","Exact","2325 W 4260 S, SALT LAKE CITY, UT, 84129",176136337,"R"
129087,"2325 WILLOWBROOK DRIVE G-6","MURFREESBORO","TN",37130,35.8655131960001,-86.351290142,87,"2325 WILLOWBROOK DRIVE G-6, MURFREESBORO, TN, 37130","Match","Exact","2325 WILLOWBROOK DR, MURFREESBORO, TN, 37130",650654665,"L"
129088,"2325-C BRIARCLIFF ROAD","ATLANTA","GA",30329,33.8223102920001,-84.33476494,88,"2325-C BRIARCLIFF ROAD, ATLANTA, GA, 30329","Match","Non_Exact","2325 BRIARCLIFF RD NE, ATLANTA, GA, 30329",23358329,"R"
129089,"23251 N 166TH DR","SURPRISE","AZ",85387,NA,NA,89,"23251 N 166TH DR, SURPRISE, AZ, 85387","No_Match",NA,NA,NA,NA
129090,"23252 CHARLSTON PL","LAND O' LAKES","FL",34639,28.2180969390001,-82.4302892269999,90,"23252 CHARLSTON PL, LAND O' LAKES, FL, 34639","Match","Non_Exact","23252 CHARLSTON PL, LAND O LAKES, FL, 34639",86353378,"L"
129091,"23252 KELSEY LANE","WATERLOO","NE",68069,41.279200517,-96.281502309,91,"23252 KELSEY LANE, WATERLOO, NE, 68069","Match","Exact","23252 KELSEY LN, WATERLOO, NE, 68069",615301220,"L"
129092,"23252 KELSEY LN","WATERLOO","NE",68069,41.279200517,-96.281502309,92,"23252 KELSEY LN, WATERLOO, NE, 68069","Match","Exact","23252 KELSEY LN, WATERLOO, NE, 68069",615301220,"L"
129093,"23254 LEONORA DRIVE","WOODLAND HILLS","CA",91367,34.162697892,-118.632658429,93,"23254 LEONORA DRIVE, WOODLAND HILLS, CA, 91367","Match","Exact","23254 LEONORA DR, WOODLAND HILLS, CA, 91367",141723491,"L"
129094,"23255 FM 3009","SAN ANTONIO","TX",78266,29.6573346070001,-98.30564679,94,"23255 FM 3009, SAN ANTONIO, TX, 78266","Match","Exact","23255 FM 3009, SAN ANTONIO, TX, 78266",72250183,"R"
129095,"23255 OASIS BOULEVARD","ROBERTSDALE","AL",36567,30.6307796560001,-87.623419315,95,"23255 OASIS BOULEVARD, ROBERTSDALE, AL, 36567","Match","Exact","23255 OASIS BLVD, ROBERTSDALE, AL, 36567",131675807,"L"
129096,"23258 BURBANK BLVD","WOODLAND HILLS","CA",91367,34.1719008600001,-118.633477767,96,"23258 BURBANK BLVD, WOODLAND HILLS, CA, 91367","Match","Exact","23258 BURBANK BLVD, WOODLAND HILLS, CA, 91367",141723440,"L"
129097,"23258 STATE HWY 56","AUSTIN","MN",55912,43.692170505,-92.869087157,97,"23258 STATE HWY 56, AUSTIN, MN, 55912","Match","Exact","23258 STATE HWY 56, AUSTIN, MN, 55912",610514627,"R"
129098,"2326 BOOKER STREET","WINSTON-SALEM","NC",27105,36.1147548690001,-80.215569836,98,"2326 BOOKER STREET, WINSTON-SALEM, NC, 27105","Match","Exact","2326 BOOKER ST, WINSTON SALEM, NC, 27105",84646024,"R"
129099,"2326 COUNCIL LANE","BUFORD","GA",30519,34.1118061650001,-83.885390269,99,"2326 COUNCIL LANE, BUFORD, GA, 30519","Match","Exact","2326 COUNCIL LN, BUFORD, GA, 30519",618448827,"R"
129100,"2326 COUNTY LINE ROAD WEST","BRADLEY","SC",29819,34.0291660280001,-82.1565809849999,100,"2326 COUNTY LINE ROAD WEST, BRADLEY, SC, 29819","Match","Exact","2326 COUNTY LINE RD W, BRADLEY, SC, 29819",50809294,"L"
129101,"2326 E GRAND AVE","EVERETT","WA",98201,NA,NA,101,"2326 E GRAND AVE, EVERETT, WA, 98201","Tie",NA,NA,NA,NA
129102,"2326 E MIFFLIN STREET","MADISON","WI",53704,43.0984433850001,-89.353265654,102,"2326 E MIFFLIN STREET, MADISON, WI, 53704","Match","Exact","2326 E MIFFLIN ST, MADISON, WI, 53704",49472923,"L"
129103,"2326 EASTBURY WAY","SANTA MARIA","CA",93455,34.9177149700001,-120.440003782,103,"2326 EASTBURY WAY, SANTA MARIA, CA, 93455","Match","Exact","2326 EASTBURY WAY, SANTA MARIA, CA, 93455",616216152,"L"
129104,"2326 JACQUELINE DR","GARLAND","TX",75042,32.9263425930001,-96.6625449109999,104,"2326 JACQUELINE DR, GARLAND, TX, 75042","Match","Exact","2326 JACQUELINE DR, GARLAND, TX, 75042",103169335,"R"
129105,"2326 LAWRENCEVILLE HWY APT 3","DECATUR","GA",30033,33.8153134450001,-84.26880815,105,"2326 LAWRENCEVILLE HWY APT 3, DECATUR, GA, 30033","Match","Exact","2326 LAWRENCEVILLE HWY, DECATUR, GA, 30033",23362338,"L"
129106,"2326 N 70TH AVE","OMAHA","NE",68104,41.2799554900001,-96.0214855299999,106,"2326 N 70TH AVE, OMAHA, NE, 68104","Match","Exact","2326 N 70TH AVE, OMAHA, NE, 68104",116976086,"L"
129107,"2326 OTTAWA","ENID","OK",73703,36.377502018,-97.906891531,107,"2326 OTTAWA, ENID, OK, 73703","Match","Non_Exact","2326 OTTAWA AVE, ENID, OK, 73703",154081604,"R"
129108,"2326 RHODES AVE","BATON ROUGE","LA",70802,30.469021749,-91.147936987,108,"2326 RHODES AVE, BATON ROUGE, LA, 70802","Match","Exact","2326 RHODES AVE, BATON ROUGE, LA, 70802",92181686,"R"
129109,"2326 S BEVERLY CIRCLE","STAFFORD","TX",77477,29.6061567290001,-95.542491228,109,"2326 S BEVERLY CIRCLE, STAFFORD, TX, 77477","Match","Exact","2326 S BEVERLY CIR, STAFFORD, TX, 77477",78334005,"R"
129110,"2326 S CONGRESS AVENUE SUITE 1-A","WEST PALM BEACH","FL",33406,26.73281282,-80.0899779809999,110,"2326 S CONGRESS AVENUE SUITE 1-A, WEST PALM BEACH, FL, 33406","Match","Non_Exact","2326 CONGRESS AVE, WEST PALM BEACH, FL, 33401",611521281,"R"
129111,"2326 TOWN AND COUNTRY DR","KISSIMMEE","FL",34744,28.3125298570001,-81.389184657,111,"2326 TOWN AND COUNTRY DR, KISSIMMEE, FL, 34744","Match","Exact","2326 TOWN AND COUNTRY DR, KISSIMMEE, FL, 34744",176657778,"L"
129112,"2326 W D STREET","JENKS","OK",74037,36.026847306,-96.007626556,112,"2326 W D STREET, JENKS, OK, 74037","Match","Exact","2326 W D ST, JENKS, OK, 74037",166493953,"L"
129113,"2326 WAGNER HEIGHTS RD UNIT 2","STOCKTON","CA",95209,38.034537089,-121.343896842,113,"2326 WAGNER HEIGHTS RD UNIT 2, STOCKTON, CA, 95209","Match","Exact","2326 WAGNER HEIGHTS RD, STOCKTON, CA, 95209",640552243,"L"
129114,"2326 WINTERHAVEN DR","CAMERON PARK","CA",95682,38.6973535870001,-120.99649865,114,"2326 WINTERHAVEN DR, CAMERON PARK, CA, 95682","Match","Exact","2326 WINTERHAVEN DR, CAMERON PARK, CA, 95682",607163269,"L"
129115,"23260 UNIVERSITY AVE EXT NW","SAINT FRANCIS","MN",55070,45.391495197,-93.26535088,115,"23260 UNIVERSITY AVE EXT NW, SAINT FRANCIS, MN, 55070","Match","Exact","23260 UNIVERSITY AVE EXTENDED NW, SAINT FRANCIS, MN, 55070",97522142,"L"
129116,"23265 SE 57TH ST","ISSAQUAH","WA",98029,47.5515284530001,-122.028256525,116,"23265 SE 57TH ST, ISSAQUAH, WA, 98029","Match","Exact","23265 SE 57TH ST, ISSAQUAH, WA, 98029",186618994,"R"
129117,"2327 42ND STREET SOUTH","SAINT PETERSBURG","FL",33771,27.747029562,-82.689984947,117,"2327 42ND STREET SOUTH, SAINT PETERSBURG, FL, 33771","Match","Non_Exact","2327 42ND ST S, SAINT PETERSBURG, FL, 33711",124751626,"R"
129118,"2327 BROOKE GROVE RD","MITCHELLVILLE","MD",20721,38.9213970380001,-76.836597023,118,"2327 BROOKE GROVE RD, MITCHELLVILLE, MD, 20721","Match","Exact","2327 BROOKE GROVE RD, MITCHELLVILLE, MD, 20721",650139948,"L"
129119,"2327 BYRON CENTER AVE SW","WYOMING","MI",49519,42.922827754,-85.725078679,119,"2327 BYRON CENTER AVE SW, WYOMING, MI, 49519","Match","Exact","2327 BYRON CENTER AVE SW, WYOMING, MI, 49519",12496115,"R"
129120,"2327 COX RD","JARRETTSVILLE","MD",21084,39.629787654,-76.506448258,120,"2327 COX RD, JARRETTSVILLE, MD, 21084","Match","Exact","2327 COX RD, JARRETTSVILLE, MD, 21084",191638307,"L"
129121,"2327 E FRANKLIN AVE S MINNEAPOLIS","MINNEAPOLIS","MN",55406,NA,NA,121,"2327 E FRANKLIN AVE S MINNEAPOLIS, MINNEAPOLIS, MN, 55406","No_Match",NA,NA,NA,NA
129122,"2327 EAST FRANKLIN AVENUE","MINNEAPOLIS","MN",55406,44.9627403480001,-93.238793473,122,"2327 EAST FRANKLIN AVENUE, MINNEAPOLIS, MN, 55406","Match","Exact","2327 E FRANKLIN AVE, MINNEAPOLIS, MN, 55406",652845761,"R"
129123,"2327 LAUREL LANE","AUGUSTA","GA",30904,33.497374833,-82.007672315,123,"2327 LAUREL LANE, AUGUSTA, GA, 30904","Match","Exact","2327 LAUREL LN, AUGUSTA, GA, 30904",55649283,"R"
129124,"2327 MACLAURA HALL AVE","CHARLESTON","SC",29414,32.857494988,-80.072058027,124,"2327 MACLAURA HALL AVE, CHARLESTON, SC, 29414","Match","Exact","2327 MACLAURA HALL AVE, CHARLESTON, SC, 29414",108825225,"L"
129125,"2327 N BURNING TREE ST","WICHITA","KS",67228,37.726300032,-97.177646296,125,"2327 N BURNING TREE ST, WICHITA, KS, 67228","Match","Non_Exact","2327 BURNING TREE, WICHITA, KS, 67228",624859551,"L"
129126,"2327 OVERLOOK AVE","YOUNGSTOWN","OH",44509,41.09149934,-80.694229841,126,"2327 OVERLOOK AVE, YOUNGSTOWN, OH, 44509","Match","Exact","2327 OVERLOOK AVE, YOUNGSTOWN, OH, 44509",647901028,"L"
129127,"2327 PROSPECT RD","DES MOINES","IA",50310,41.6197734740001,-93.6492654319999,127,"2327 PROSPECT RD, DES MOINES, IA, 50310","Match","Exact","2327 PROSPECT RD, DES MOINES, IA, 50310",65780476,"R"
129128,"2327 SCARFF ST","LOS ANGELES","CA",90007,34.0326234660001,-118.280145118,128,"2327 SCARFF ST, LOS ANGELES, CA, 90007","Match","Exact","2327 SCARFF ST, LOS ANGELES, CA, 90007",141607445,"R"
129129,"2327 VETERANS BLVD SUITE J","KENNER","LA",70062,NA,NA,129,"2327 VETERANS BLVD SUITE J, KENNER, LA, 70062","No_Match",NA,NA,NA,NA
129130,"2327 W ROSECRANS AVE","GARDENA","CA",90249,33.901941085,-118.319033942,130,"2327 W ROSECRANS AVE, GARDENA, CA, 90249","Match","Exact","2327 W ROSECRANS AVE, GARDENA, CA, 90249",241242881,"R"
129131,"2327 WALTON PLACE NORTH","MINNEAPOLIS","MN",55411,45.0037938400001,-93.310760257,131,"2327 WALTON PLACE NORTH, MINNEAPOLIS, MN, 55411","Match","Non_Exact","2327 WALTON PL, MINNEAPOLIS, MN, 55411",43678560,"L"
129132,"2327 WILSON AVENUE","WALKER","MI",49534,NA,NA,132,"2327 WILSON AVENUE, WALKER, MI, 49534","Tie",NA,NA,NA,NA
129133,"23270 ORANGE AVE 5","LAKE FOREST","CA",92630,33.6237911100001,-117.694220978,133,"23270 ORANGE AVE 5, LAKE FOREST, CA, 92630","Match","Exact","23270 ORANGE AVE, LAKE FOREST, CA, 92630",650984797,"R"
129134,"23272 MORNING WALK DRIVE","BRAMBLETON","VA",20148,38.9727716030001,-77.53741452,134,"23272 MORNING WALK DRIVE, BRAMBLETON, VA, 20148","Match","Exact","23272 MORNING WALK DR, BRAMBLETON, VA, 20148",632731601,"L"
129135,"23274 CALLE DIAZ NUM 300","MORENO VALLEY","CA",92557,33.9457728690001,-117.256468705,135,"23274 CALLE DIAZ NUM 300, MORENO VALLEY, CA, 92557","Match","Non_Exact","23274 CLL DIAZ, MORENO VALLEY, CA, 92557",194790287,"R"
129136,"23274 NICHOLSON STREET","HOLLYWOOD","MD",20636,38.311628553,-76.5885640179999,136,"23274 NICHOLSON STREET, HOLLYWOOD, MD, 20636","Match","Exact","23274 NICHOLSON ST, HOLLYWOOD, MD, 20636",647274510,"R"
129137,"23276 SOUTH POINTE DR SUITE 219","LAGUNA HILLS","CA",92653,33.625664928,-117.724265787,137,"23276 SOUTH POINTE DR SUITE 219, LAGUNA HILLS, CA, 92653","Match","Exact","23276 S POINTE DR, LAGUNA HILLS, CA, 92653",144062225,"R"
129138,"23277 453RD AVE","MADISON","SD",57042,44.0098651010001,-97.149418695,138,"23277 453RD AVE, MADISON, SD, 57042","Match","Exact","23277 453RD AVE, MADISON, SD, 57042",636607714,"L"
129139,"23278 250TH ST","CARROLL","IA",51401,41.993120565,-94.837406164,139,"23278 250TH ST, CARROLL, IA, 51401","Match","Exact","23278 250TH ST, CARROLL, IA, 51401",68632707,"L"
129140,"2328 77TH AVE NE","LAKE STEVENS","WA",98258,48.018599061,-122.127054765,140,"2328 77TH AVE NE, LAKE STEVENS, WA, 98258","Match","Exact","2328 77TH AVE NE, LAKE STEVENS, WA, 98258",187748792,"L"
129141,"2328 ANNETTE STREET APT B","NEW ORLEANS","LA",70118,29.9806854020001,-90.0636957949999,141,"2328 ANNETTE STREET APT B, NEW ORLEANS, LA, 70118","Match","Non_Exact","2328 ANNETTE ST, NEW ORLEANS, LA, 70119",191709322,"L"
129142,"2328 APALACHEE PARKWAY STE 7","TALLAHASSEE","FL",32301,30.429574244,-84.2423826899999,142,"2328 APALACHEE PARKWAY STE 7, TALLAHASSEE, FL, 32301","Match","Exact","2328 APALACHEE PKWY, TALLAHASSEE, FL, 32301",82854734,"L"
129143,"2328 CAMPBELLTON RD SW","ATLANTA","GA",30311,33.704542229,-84.463213212,143,"2328 CAMPBELLTON RD SW, ATLANTA, GA, 30311","Match","Exact","2328 CAMPBELLTON RD SW, ATLANTA, GA, 30311",650080322,"L"
129144,"2328 CENTRAL AVE NE","MINNEAPOLIS","MN",55418,45.011279341,-93.247339161,144,"2328 CENTRAL AVE NE, MINNEAPOLIS, MN, 55418","Match","Exact","2328 CENTRAL AVE NE, MINNEAPOLIS, MN, 55418",43636236,"L"
129145,"2328 CITADEL WAY STE 103 309","MELBOURNE","FL",32940,NA,NA,145,"2328 CITADEL WAY STE 103 309, MELBOURNE, FL, 32940","No_Match",NA,NA,NA,NA
129146,"2328 E 46TH AVENUE","DENVER","CO",80216,39.779996065,-104.958968855,146,"2328 E 46TH AVENUE, DENVER, CO, 80216","Match","Exact","2328 E 46TH AVE, DENVER, CO, 80216",177310131,"R"
129147,"2328 E INDIANOLA AVENUE","PHOENIX","AZ",85016,33.4921152150001,-112.031654878,147,"2328 E INDIANOLA AVENUE, PHOENIX, AZ, 85016","Match","Exact","2328 E INDIANOLA AVE, PHOENIX, AZ, 85016",128209989,"L"
129148,"2328 E LICOLN HIGHWAY NO 236","NEW LENOX","IL",60451,NA,NA,148,"2328 E LICOLN HIGHWAY NO 236, NEW LENOX, IL, 60451","No_Match",NA,NA,NA,NA
129149,"2328 E VAN BUREN ST","PHOENIX","AZ",85006,33.451373958,-112.03180711,149,"2328 E VAN BUREN ST, PHOENIX, AZ, 85006","Match","Exact","2328 E VAN BUREN ST, PHOENIX, AZ, 85006",128215005,"L"
129150,"2328 EAST 96TH STREET","CHICAGO","IL",60617,41.721347307,-87.5667871369999,150,"2328 EAST 96TH STREET, CHICAGO, IL, 60617","Match","Exact","2328 E 96TH ST, CHICAGO, IL, 60617",111777127,"L"
129151,"2328 ETCHEVERRY DRIVE","STOCKTON","CA",95212,38.0036287990001,-121.279040596,151,"2328 ETCHEVERRY DRIVE, STOCKTON, CA, 95212","Match","Exact","2328 ETCHEVERRY DR, STOCKTON, CA, 95212",133932231,"L"
129152,"2328 FLOWER SPRING ST","LAS VEGAS","NV",89134,36.202944996,-115.294782974,152,"2328 FLOWER SPRING ST, LAS VEGAS, NV, 89134","Match","Exact","2328 FLOWER SPRING ST, LAS VEGAS, NV, 89134",640234464,"R"
129153,"2328 HEIDI CIRCLE","CHAMBERSBURG","PA",17202,39.9628291240001,-77.711787366,153,"2328 HEIDI CIRCLE, CHAMBERSBURG, PA, 17202","Match","Exact","2328 HEIDI CIR, CHAMBERSBURG, PA, 17202",60098992,"R"
129154,"2328 LAWNDALE DR","DALLAS","TX",75211,32.762386442,-96.8608597369999,154,"2328 LAWNDALE DR, DALLAS, TX, 75211","Match","Exact","2328 LAWNDALE DR, DALLAS, TX, 75211",102944562,"L"
129155,"2328 MISTY IVY CT","BUFORD","GA",30519,34.060402525,-83.938911751,155,"2328 MISTY IVY CT, BUFORD, GA, 30519","Match","Exact","2328 MISTY IVY CT, BUFORD, GA, 30519",648032280,"R"
129156,"2328 N 83RD LN","KANSAS CITY","KS",66109,39.1325802530001,-94.773238733,156,"2328 N 83RD LN, KANSAS CITY, KS, 66109","Match","Exact","2328 N 83 LN, KANSAS CITY, KS, 66109",91132653,"L"
129157,"2328 N MILWAUKEE AVENUE FL 2","CHICAGO","IL",60647,41.9234840450001,-87.698299447,157,"2328 N MILWAUKEE AVENUE FL 2, CHICAGO, IL, 60647","Match","Non_Exact","2328 N MILWAUKEE AVE, CHICAGO, IL, 60647",111762626,"L"
129158,"2328 PEACH ORCHARD ROAD","BRENT","AL",35034,32.877236598,-87.308662257,158,"2328 PEACH ORCHARD ROAD, BRENT, AL, 35034","Match","Exact","2328 PEACH ORCHARD RD, BRENT, AL, 35034",640075796,"L"
129159,"2328 POHLMAN RD","FLORISSANT","MO",63033,38.7835657320001,-90.279865399,159,"2328 POHLMAN RD, FLORISSANT, MO, 63033","Match","Exact","2328 POHLMAN RD, FLORISSANT, MO, 63033",100173158,"R"
129160,"2328 RANCHVIEW DR","LITTLE ELM","TX",75068,33.1867226430001,-96.8990580339999,160,"2328 RANCHVIEW DR, LITTLE ELM, TX, 75068","Match","Exact","2328 RANCHVIEW DR, LITTLE ELM, TX, 75068",619764029,"L"
129161,"2328 RUE MAISON","BILOXI","MS",39532,30.43157653,-88.977634746,161,"2328 RUE MAISON, BILOXI, MS, 39532","Match","Exact","2328 RUE MAISON, BILOXI, MS, 39532",629616791,"L"
129162,"2328 SARATOGA DRIVE","LOUISVILLE","KY",40205,38.218816175,-85.6980219879999,162,"2328 SARATOGA DRIVE, LOUISVILLE, KY, 40205","Match","Exact","2328 SARATOGA DR, LOUISVILLE, KY, 40205",96853047,"R"
129163,"2328 SE DIAMOND CT","STUART","FL",34997,27.1435675010001,-80.2237241139999,163,"2328 SE DIAMOND CT, STUART, FL, 34997","Match","Exact","2328 SE DIAMOND CT, STUART, FL, 34997",120403258,"R"
129164,"2328 SELMA AVE","NASHVILLE","TN",37214,36.175853788,-86.686441536,164,"2328 SELMA AVE, NASHVILLE, TN, 37214","Match","Non_Exact","2328 SELMA DR, NASHVILLE, TN, 37214",649548968,"L"
129165,"2328 SHALLOW CREEK LN","FRIENDSWOOD","TX",77546,29.4797999200001,-95.188989856,165,"2328 SHALLOW CREEK LN, FRIENDSWOOD, TX, 77546","Match","Exact","2328 SHALLOW CREEK LN, FRIENDSWOOD, TX, 77546",651653899,"R"
129166,"2328 SW EVANS AVENUE","LAWTON","OK",73505,34.601946733,-98.424851943,166,"2328 SW EVANS AVENUE, LAWTON, OK, 73505","Match","Exact","2328 SW EVANS AVE, LAWTON, OK, 73505",14994609,"L"
129167,"2328 TAYLOR DRIVE","WEST LINN","OR",97068,45.3546062240001,-122.653766699,167,"2328 TAYLOR DRIVE, WEST LINN, OR, 97068","Match","Exact","2328 TAYLOR DR, WEST LINN, OR, 97068",157952339,"L"
129168,"2328 TOPAZ RD","COTTONDALE","FL",32431,30.7356137080001,-85.314491131,168,"2328 TOPAZ RD, COTTONDALE, FL, 32431","Match","Exact","2328 TOPAZ RD, COTTONDALE, FL, 32431",632731193,"R"
129169,"2328 TURPIN DRIVE","ORLANDO","FL",32837,28.396148376,-81.414211385,169,"2328 TURPIN DRIVE, ORLANDO, FL, 32837","Match","Exact","2328 TURPIN DR, ORLANDO, FL, 32837",94339471,"L"
129170,"2328 VIA SALDIVAR STREET","GLENDALE","CA",91208,34.1823056110001,-118.240638518,170,"2328 VIA SALDIVAR STREET, GLENDALE, CA, 91208","Match","Non_Exact","2328 VIA SALDIVAR, GLENDALE, CA, 91208",241240366,"R"
129171,"2328 W CHARLESTON STREET","CHICAGO","IL",60647,41.919882097,-87.686178973,171,"2328 W CHARLESTON STREET, CHICAGO, IL, 60647","Match","Exact","2328 W CHARLESTON ST, CHICAGO, IL, 60647",605232914,"R"
129172,"2328 W ST RD 235","BROOKER","FL",32622,NA,NA,172,"2328 W ST RD 235, BROOKER, FL, 32622","No_Match",NA,NA,NA,NA
129173,"2328 W WASHINGTON AVENUE","SANTA ANA","CA",92706,33.75586323,-117.901529744,173,"2328 W WASHINGTON AVENUE, SANTA ANA, CA, 92706","Match","Exact","2328 W WASHINGTON AVE, SANTA ANA, CA, 92706",144040344,"L"
129174,"2328 WARD STREET","BERKELEY","CA",94705,37.86017646,-122.261376022,174,"2328 WARD STREET, BERKELEY, CA, 94705","Match","Exact","2328 WARD ST, BERKELEY, CA, 94705",635729432,"R"
129175,"2328 WICKET COURT","FLORENCE","KY",41042,38.98097933,-84.69564193,175,"2328 WICKET COURT, FLORENCE, KY, 41042","Match","Exact","2328 WICKET CT, FLORENCE, KY, 41042",631013281,"L"
129176,"2328 WINNEBAGO STREET","LA CROSSE","WI",54601,43.8037089110001,-91.2208910639999,176,"2328 WINNEBAGO STREET, LA CROSSE, WI, 54601","Match","Exact","2328 WINNEBAGO ST, LA CROSSE, WI, 54601",605365377,"R"
129177,"23280 GERBERA ST","MORENO VALLEY","CA",92553,33.9185426870001,-117.255746386,177,"23280 GERBERA ST, MORENO VALLEY, CA, 92553","Match","Exact","23280 GERBERA ST, MORENO VALLEY, CA, 92553",194790442,"R"
129178,"23281 HELEN COURT","JERSEYVILLE","IL",62052,39.1205160660001,-90.364769759,178,"23281 HELEN COURT, JERSEYVILLE, IL, 62052","Match","Exact","23281 HELEN CT, JERSEYVILLE, IL, 62052",97877721,"R"
129179,"23283 COUNTY ROAD 1038","MATHIS","TX",78368,28.0513338160001,-97.837577182,179,"23283 COUNTY ROAD 1038, MATHIS, TX, 78368","Match","Exact","23283 CO RD 1038, MATHIS, TX, 78368",640822925,"L"
129180,"23283 SHINNECOCK HILLS DRIVE","ATHENS","AL",35613,34.75715309,-86.920322857,180,"23283 SHINNECOCK HILLS DRIVE, ATHENS, AL, 35613","Match","Exact","23283 SHINNECOCK HILLS DR, ATHENS, AL, 35613",650656570,"R"
129181,"23284 W PIMA ST","BUCKEYE","AZ",85326,33.432912608,-112.551728156,181,"23284 W PIMA ST, BUCKEYE, AZ, 85326","Match","Exact","23284 W PIMA ST, BUCKEYE, AZ, 85326",647632638,"R"
129182,"23285 GRAYSON DRIVE","SOUTHFIELD","MI",48075,42.4616618040001,-83.202733118,182,"23285 GRAYSON DRIVE, SOUTHFIELD, MI, 48075","Match","Exact","23285 GRAYSON DR, SOUTHFIELD, MI, 48075",69840554,"R"
129183,"23287 N SIERRA HIGHWAY","NEWHALL","CA",91321,34.360834325,-118.506964684,183,"23287 N SIERRA HIGHWAY, NEWHALL, CA, 91321","Match","Exact","23287 SIERRA HWY, NEWHALL, CA, 91321",653183521,"R"
129184,"2329 130TH CT NE","BLAINE","MN",55449,45.206358123,-93.21220723,184,"2329 130TH CT NE, BLAINE, MN, 55449","Match","Exact","2329 130TH CT NE, BLAINE, MN, 55449",97505890,"L"
129185,"2329 700TH STREET","ELK HORN","IA",51531,41.6022751670001,-95.127487317,185,"2329 700TH STREET, ELK HORN, IA, 51531","Match","Exact","2329 700TH ST, ELK HORN, IA, 51531",61801316,"R"
129186,"2329 BROOKGATE WAY","ELLENWOOD","GA",30294,33.646548212,-84.310361545,186,"2329 BROOKGATE WAY, ELLENWOOD, GA, 30294","Match","Exact","2329 BROOKGATE WAY, ELLENWOOD, GA, 30294",636093080,"L"
129187,"2329 CANYON VIEW GLEN","ESCONDIDO","CA",92026,33.16910232,-117.133632703,187,"2329 CANYON VIEW GLEN, ESCONDIDO, CA, 92026","Match","Exact","2329 CANYON VIEW GLEN, ESCONDIDO, CA, 92026",195430303,"L"
129188,"2329 CARDINAL LANE","GARLAND","TX",75042,32.903787772,-96.6616061349999,188,"2329 CARDINAL LANE, GARLAND, TX, 75042","Match","Exact","2329 CARDINAL LN, GARLAND, TX, 75042",102926660,"R"
129189,"2329 CIMARRON DR","SANTA CLARA","CA",95051,37.36448052,-121.967260744,189,"2329 CIMARRON DR, SANTA CLARA, CA, 95051","Match","Exact","2329 CIMARRON DR, SANTA CLARA, CA, 95051",122898867,"R"
129190,"2329 COPPERLEAF STREET","RICHLAND","WA",99354,46.3162987680001,-119.32123395,190,"2329 COPPERLEAF STREET, RICHLAND, WA, 99354","Match","Exact","2329 COPPERLEAF ST, RICHLAND, WA, 99354",649892521,"R"
129191,"2329 CORAL WAY","CORAL GABLES","FL",33145,NA,NA,191,"2329 CORAL WAY, CORAL GABLES, FL, 33145","No_Match",NA,NA,NA,NA
129192,"2329 DEWEY DR","SPRING HILL","TN",37174,35.760093827,-86.9161215889999,192,"2329 DEWEY DR, SPRING HILL, TN, 37174","Match","Exact","2329 DEWEY DR, SPRING HILL, TN, 37174",642244556,"L"
129193,"2329 E ASHLAN AVE","FRESNO","CA",93726,36.794086964,-119.783058186,193,"2329 E ASHLAN AVE, FRESNO, CA, 93726","Match","Exact","2329 E ASHLAN AVE, FRESNO, CA, 93726",197575208,"L"
129194,"2329 EAST MAIN STREET","MEDFORD","OR",97504,42.328208718,-122.841283013,194,"2329 EAST MAIN STREET, MEDFORD, OR, 97504","Match","Exact","2329 E MAIN ST, MEDFORD, OR, 97504",638589925,"L"
129195,"2329 EMERSON STREET","DENVER","CO",80205,39.7511355460001,-104.97576203,195,"2329 EMERSON STREET, DENVER, CO, 80205","Match","Exact","2329 EMERSON ST, DENVER, CO, 80205",177305645,"L"
129196,"2329 FAULKNER SPRINGS RD","MCMINNVILLE","TN",37110,35.7142042850001,-85.761373135,196,"2329 FAULKNER SPRINGS RD, MCMINNVILLE, TN, 37110","Match","Exact","2329 FAULKNER SPRINGS RD, MCMINNVILLE, TN, 37110",81345242,"L"
129197,"2329 HICKORY CORNER ROAD","AUGUSTA","WV",26704,39.325168208,-78.5413685939999,197,"2329 HICKORY CORNER ROAD, AUGUSTA, WV, 26704","Match","Exact","2329 HICKORY CORNER RD, AUGUSTA, WV, 26704",56056204,"R"
129198,"2329 IVEY OAKS PLACE","STONE MOUNTAIN","GA",30087,33.8521474120001,-84.1593988879999,198,"2329 IVEY OAKS PLACE, STONE MOUNTAIN, GA, 30087","Match","Exact","2329 IVEY OAKS PL, STONE MOUNTAIN, GA, 30087",642368303,"L"
129199,"2329 KATELAND COURT","ABINGDON","MD",21009,39.4710899400001,-76.331922554,199,"2329 KATELAND COURT, ABINGDON, MD, 21009","Match","Exact","2329 KATELAND CT, ABINGDON, MD, 21009",191686202,"L"
129200,"2329 N CAREER AVE","SIOUX FALLS","SD",57107,43.5695982510001,-96.7810572879999,200,"2329 N CAREER AVE, SIOUX FALLS, SD, 57107","Match","Exact","2329 N CAREER AVE, SIOUX FALLS, SD, 57107",637797498,"R"
129201,"2329 NORTH MONROE STRE","BALTIMORE","MD",21217,39.3145389750001,-76.649283629,201,"2329 NORTH MONROE STRE, BALTIMORE, MD, 21217","Match","Non_Exact","2329 N MONROE ST, BALTIMORE, MD, 21217",206432746,"R"
129202,"2329 NOSTRAND AVE 100","BROOKLYN","NY",11210,40.627770522,-73.9470533639999,202,"2329 NOSTRAND AVE 100, BROOKLYN, NY, 11210","Match","Exact","2329 NOSTRAND AVE, BROOKLYN, NY, 11210",59081796,"L"
129203,"2329 OVERLOOK LN","DENTON","TX",76207,33.2386669520001,-97.16624038,203,"2329 OVERLOOK LN, DENTON, TX, 76207","Match","Exact","2329 OVERLOOK LN, DENTON, TX, 76207",103411320,"R"
129204,"2329 QUINCE DR SE","DECATUR","AL",35601,34.568507045,-86.9541216119999,204,"2329 QUINCE DR SE, DECATUR, AL, 35601","Match","Exact","2329 QUINCE DR SE, DECATUR, AL, 35601",97141124,"R"
129205,"2329 RIVER BLUFF DRIVE","NIXA","MO",65714,37.074415446,-93.372894834,205,"2329 RIVER BLUFF DRIVE, NIXA, MO, 65714","Match","Exact","2329 RIVER BLUFF DR, NIXA, MO, 65714",99843391,"R"
129206,"2329 S 17TH STREET","PHILADELPHIA","PA",19145,39.9221046600001,-75.17513746,206,"2329 S 17TH STREET, PHILADELPHIA, PA, 19145","Match","Exact","2329 S 17TH ST, PHILADELPHIA, PA, 19145",131411459,"L"
129207,"2329 SCHEIBER ROAD","NICOLAUS","CA",95659,38.9168177930001,-121.569378616,207,"2329 SCHEIBER ROAD, NICOLAUS, CA, 95659","Match","Exact","2329 SCHEIBER RD, NICOLAUS, CA, 95659",68583613,"L"
129208,"2329 STOCKTON DR","FLEMING ISLAND","FL",32003,30.0719357200001,-81.69444355,208,"2329 STOCKTON DR, FLEMING ISLAND, FL, 32003","Match","Exact","2329 STOCKTON DR, FLEMING ISLAND, FL, 32003",83836941,"R"
129209,"2329 TILLMAN AVENUE","WINTER GARDEN","FL",34787,28.51546239,-81.580465305,209,"2329 TILLMAN AVENUE, WINTER GARDEN, FL, 34787","Match","Exact","2329 TILLMAN AVE, WINTER GARDEN, FL, 34787",639780974,"R"
129210,"2329 WEST MCLEAN AVENUE 2","CHICAGO","IL",60647,41.9183568130001,-87.685952376,210,"2329 WEST MCLEAN AVENUE 2, CHICAGO, IL, 60647","Match","Exact","2329 W MCLEAN AVE, CHICAGO, IL, 60647",605233010,"L"
129211,"23292 BUNTE CT","BROWNSTOWN","MI",48183,42.133018275,-83.2592084519999,211,"23292 BUNTE CT, BROWNSTOWN, MI, 48183","Match","Exact","23292 BUNTE CT, BROWNSTOWN, MI, 48183",95687211,"L"
129212,"23293 BY THE MILL ROAD","CALIFORNIA","MD",20619,38.307210243,-76.524298749,212,"23293 BY THE MILL ROAD, CALIFORNIA, MD, 20619","Match","Exact","23293 BY THE MILL RD, CALIFORNIA, MD, 20619",638784551,"L"
129213,"23293 N ROSEDAT CT","ST CLAIR SHORES","MI",48080,NA,NA,213,"23293 N ROSEDAT CT, ST CLAIR SHORES, MI, 48080","No_Match",NA,NA,NA,NA
129214,"23293 STATE ROUTE 172","MINERVA","OH",44657,40.795659631,-81.0647968979999,214,"23293 STATE ROUTE 172, MINERVA, OH, 44657","Match","Exact","23293 STATE RTE 172, MINERVA, OH, 44657",640435298,"R"
129215,"23296 IROQUOIS ST","CLINTON TOWNSHIP","MI",48036,42.578342305,-82.881080841,215,"23296 IROQUOIS ST, CLINTON TOWNSHIP, MI, 48036","Match","Exact","23296 IROQUOIS ST, CLINTON TOWNSHIP, MI, 48036",110739838,"R"
129216,"233 12 AVE S","SAINT CLOUD","MN",56301,45.555029,-94.164424879,216,"233 12 AVE S, SAINT CLOUD, MN, 56301","Match","Exact","233 12TH AVE S, SAINT CLOUD, MN, 56301",614533129,"L"
129217,"233 12TH AVE S","ST CLOUD","MN",56301,45.555029,-94.164424879,217,"233 12TH AVE S, ST CLOUD, MN, 56301","Match","Exact","233 12TH AVE S, SAINT CLOUD, MN, 56301",614533129,"L"
129218,"233 12TH STREET STE 743","COLUMBUS","GA",31901,32.468602081,-84.9898323959999,218,"233 12TH STREET STE 743, COLUMBUS, GA, 31901","Match","Exact","233 12TH ST, COLUMBUS, GA, 31901",98937872,"L"
129219,"233 27TH AVENUE W","LAUREL","MT",59044,45.6701851230001,-108.822570214,219,"233 27TH AVENUE W, LAUREL, MT, 59044","Match","Exact","233 27TH AVE W, LAUREL, MT, 59044",181460874,"R"
129220,"233 3RD STREET NORTH SUITE 301","SAINT PETERSBURG","FL",33701,27.774021605,-82.637092832,220,"233 3RD STREET NORTH SUITE 301, SAINT PETERSBURG, FL, 33701","Match","Exact","233 3RD ST N, SAINT PETERSBURG, FL, 33701",124708205,"R"
129221,"233 3RD STREET","BRAZORIA","TX",77422,29.049154958,-95.572950277,221,"233 3RD STREET, BRAZORIA, TX, 77422","Match","Exact","233 3RD ST, BRAZORIA, TX, 77422",116573402,"R"
129222,"233 79TH STREET","NORTH BERGEN","NJ",7047,40.799179757,-74.001820487,222,"233 79TH STREET, NORTH BERGEN, NJ, 7047","Match","Exact","233 79TH ST, NORTH BERGEN, NJ, 07047",59599775,"L"
129223,"233 ALISO DR NE","ALBUQUERQUE","NM",87108,35.0807954090001,-106.600998034,223,"233 ALISO DR NE, ALBUQUERQUE, NM, 87108","Match","Exact","233 ALISO DR NE, ALBUQUERQUE, NM, 87108",206710443,"L"
129224,"233 ALLEGHANY DR","SALISBURY","NC",28147,35.7143705240001,-80.512063457,224,"233 ALLEGHANY DR, SALISBURY, NC, 28147","Match","Exact","233 ALLEGHANY DR, SALISBURY, NC, 28147",25282783,"L"
129225,"233 ALLEN DR","RANDOLPH","VT",5060,43.9295112140001,-72.690952076,225,"233 ALLEN DR, RANDOLPH, VT, 5060","Match","Exact","233 ALLEN DR, RANDOLPH, VT, 05060",181138497,"L"
129226,"233 BIRCHWOOD LANE","BEECH MOUNTAIN","NC",28604,36.1983560250001,-81.875056948,226,"233 BIRCHWOOD LANE, BEECH MOUNTAIN, NC, 28604","Match","Exact","233 BIRCHWOOD LN, BEECH MOUNTAIN, NC, 28604",627144414,"L"
129227,"233 BROADWAY SUITE 2220","NEW YORK","NY",10279,40.7123439530001,-74.007826769,227,"233 BROADWAY SUITE 2220, NEW YORK, NY, 10279","Match","Exact","233 BROADWAY, NEW YORK, NY, 10279",59660366,"L"
129228,"233 CATAMOUNT DRIVE","CLOVER","SC",29710,NA,NA,228,"233 CATAMOUNT DRIVE, CLOVER, SC, 29710","No_Match",NA,NA,NA,NA
129229,"233 COPPER SPUR LANE","VICTORIA","TX",77905,28.785108587,-97.077562734,229,"233 COPPER SPUR LANE, VICTORIA, TX, 77905","Match","Exact","233 COPPER SPUR LN, VICTORIA, TX, 77905",44571393,"R"
129230,"233 CORNELL AVE","SWARTHMORE","PA",19081,39.898457767,-75.349578896,230,"233 CORNELL AVE, SWARTHMORE, PA, 19081","Match","Exact","233 CORNELL AVE, SWARTHMORE, PA, 19081",134879216,"L"
129231,"233 CR 3780","HAGARVILLE","AR",72839,35.539378217,-93.303517497,231,"233 CR 3780, HAGARVILLE, AR, 72839","Match","Exact","233 CO RD 3780, HAGARVILLE, AR, 72839",73535996,"R"
129232,"233 DEAN ST","NORTON","MA",2766,41.912266678,-71.2028204489999,232,"233 DEAN ST, NORTON, MA, 2766","Match","Exact","233 DEAN ST, NORTON, MA, 02766",619589914,"L"
129233,"233 DEER PARK TRAIL","CANTON","GA",30114,34.196841277,-84.5425167189999,233,"233 DEER PARK TRAIL, CANTON, GA, 30114","Match","Exact","233 DEER PARK TRL, CANTON, GA, 30114",634105505,"R"
129234,"233 DELMONT AVE","PHILADELPHIA","PA",19003,39.9996158480001,-75.294108513,234,"233 DELMONT AVE, PHILADELPHIA, PA, 19003","Match","Non_Exact","233 DELMONT AVE, ARDMORE, PA, 19003",135087163,"L"
129235,"233 DOWNS RD","WORCESTER","VT",5682,44.3692173210001,-72.576298376,235,"233 DOWNS RD, WORCESTER, VT, 5682","Match","Exact","233 DOWNS RD, WORCESTER, VT, 05682",136696656,"R"
129236,"233 E 13TH ST 1403","CHICAGO","IL",60605,41.865847273,-87.621280091,236,"233 E 13TH ST 1403, CHICAGO, IL, 60605","Match","Non_Exact","233 E 13TH ST, CHICAGO, IL, 60605",619947261,"R"
129237,"233 E 184TH STREET","CARSON","CA",90746,33.8630583770001,-118.271874887,237,"233 E 184TH STREET, CARSON, CA, 90746","Match","Exact","233 E 184TH ST, CARSON, CA, 90746",141680390,"L"
129238,"233 E 200 S","SANTAQUIN","UT",84655,39.9723838840001,-111.780329612,238,"233 E 200 S, SANTAQUIN, UT, 84655","Match","Exact","233 E 200 S, SANTAQUIN, UT, 84655",134189349,"L"
129239,"233 E GIRARD AVENUE","PHILADELPHIA","PA",19125,39.9694413600001,-75.132599972,239,"233 E GIRARD AVENUE, PHILADELPHIA, PA, 19125","Match","Exact","233 E GIRARD AVE, PHILADELPHIA, PA, 19125",131425614,"L"
129240,"233 E MAIN STREET","PORT LAVACA","TX",77979,28.615572872,-96.6251887929999,240,"233 E MAIN STREET, PORT LAVACA, TX, 77979","Match","Exact","233 E MAIN ST, PORT LAVACA, TX, 77979",79228532,"L"
129241,"233 E POPLAR ST","TAYLORVILLE","IL",62568,39.5512915190001,-89.293121935,241,"233 E POPLAR ST, TAYLORVILLE, IL, 62568","Match","Exact","233 E POPLAR ST, TAYLORVILLE, IL, 62568",606579356,"L"
129242,"233 E RAMONA AVE","SALT LAKE CITY","UT",84115,40.728049222,-111.884310145,242,"233 E RAMONA AVE, SALT LAKE CITY, UT, 84115","Match","Exact","233 RAMONA AVE, SALT LAKE CITY, UT, 84115",176078707,"L"
129243,"233 E SOUTHERN AVE APT 26-202","TEMPE","AZ",85285,NA,NA,243,"233 E SOUTHERN AVE APT 26-202, TEMPE, AZ, 85285","No_Match",NA,NA,NA,NA
129244,"233 EAGLE WAY","STOCKBRIDGE","GA",30281,33.5249695860001,-84.2400622919999,244,"233 EAGLE WAY, STOCKBRIDGE, GA, 30281","Match","Exact","233 EAGLE WAY, STOCKBRIDGE, GA, 30281",23211841,"L"
129245,"233 EAST 35TH STREET","NEW YORK","NY",10016,40.745917901,-73.976492161,245,"233 EAST 35TH STREET, NEW YORK, NY, 10016","Match","Exact","233 E 35TH ST, NEW YORK, NY, 10016",59654479,"L"
129246,"233 EAST MISSION ROAD","FALLBROOK","CA",92028,33.3846165840001,-117.250046594,246,"233 EAST MISSION ROAD, FALLBROOK, CA, 92028","Match","Exact","233 E MISSION RD, FALLBROOK, CA, 92028",612859230,"R"
129247,"233 EAST WACKER DRIVE  APT 2311","CHICAGO","IL",60601,41.887999458,-87.621793612,247,"233 EAST WACKER DRIVE  APT 2311, CHICAGO, IL, 60601","Match","Exact","233 E WACKER DR, CHICAGO, IL, 60601",641806506,"R"
129248,"233 ELLIS AVE","BELLEVUE","OH",44811,41.268086257,-82.843140176,248,"233 ELLIS AVE, BELLEVUE, OH, 44811","Match","Exact","233 ELLIS AVE, BELLEVUE, OH, 44811",38673643,"L"
129249,"233 ERLANGER BLVD","NORTH BABYLON","NY",11703,40.743700264,-73.338383589,249,"233 ERLANGER BLVD, NORTH BABYLON, NY, 11703","Match","Exact","233 ERLANGER BLVD, NORTH BABYLON, NY, 11703",652210397,"R"
129250,"233 ETRUSCAN LN E","CORNING","NY",14830,42.1381686940001,-77.04608309,250,"233 ETRUSCAN LN E, CORNING, NY, 14830","Match","Exact","233 ETRUSCAN LN E, CORNING, NY, 14830",14719180,"R"
129251,"233 FOREST AVE","SOMERSET","MA",2726,41.7512380410001,-71.14354923,251,"233 FOREST AVE, SOMERSET, MA, 2726","Match","Exact","233 FOREST AVE, SOMERSET, MA, 02726",46768676,"L"
129252,"233 FOSTER DRIVE","OSWEGO","IL",60543,41.6953465180001,-88.274585501,252,"233 FOSTER DRIVE, OSWEGO, IL, 60543","Match","Exact","233 FOSTER DR, OSWEGO, IL, 60543",54501573,"L"
129253,"233 GENEVA DRIVE","STROUDSBURG","PA",18360,40.9825072450001,-75.2764016039999,253,"233 GENEVA DRIVE, STROUDSBURG, PA, 18360","Match","Exact","233 GENEVA DR, STROUDSBURG, PA, 18360",136779355,"R"
129254,"233 GERMANTOWN RD","WEST MILFORD","NJ",7480,41.0343974690001,-74.3945017459999,254,"233 GERMANTOWN RD, WEST MILFORD, NJ, 7480","Match","Exact","233 GERMANTOWN RD, WEST MILFORD, NJ, 07480",65253582,"R"
129255,"233 GERMANTOWN ROAD","WEST MILFORD","NJ",7480,41.0343974690001,-74.3945017459999,255,"233 GERMANTOWN ROAD, WEST MILFORD, NJ, 7480","Match","Exact","233 GERMANTOWN RD, WEST MILFORD, NJ, 07480",65253582,"R"
129256,"233 GOLDFIELD DRIVE","GARNER","NC",27529,35.594750678,-78.534686956,256,"233 GOLDFIELD DRIVE, GARNER, NC, 27529","Match","Exact","233 GOLDFIELD DR, GARNER, NC, 27529",26542475,"R"
129257,"233 GOODWIN BRIDGE RD","TRAVELERS REST","SC",29690,35.0510322330001,-82.4451714099999,257,"233 GOODWIN BRIDGE RD, TRAVELERS REST, SC, 29690","Match","Exact","233 GOODWIN BRIDGE RD, TRAVELERS REST, SC, 29690",641037051,"L"
129258,"233 GREEN VIEW RD","MOYOCK","NC",27958,36.489513824,-76.1773146639999,258,"233 GREEN VIEW RD, MOYOCK, NC, 27958","Match","Exact","233 GREEN VIEW RD, MOYOCK, NC, 27958",626812125,"L"
129259,"233 HALSTEAD AVE APT 6G","MAMARONECK","NY",10543,NA,NA,259,"233 HALSTEAD AVE APT 6G, MAMARONECK, NY, 10543","No_Match",NA,NA,NA,NA
129260,"233 HALSTEAD AVE APT6G","MAMARONECK","NY",10543,NA,NA,260,"233 HALSTEAD AVE APT6G, MAMARONECK, NY, 10543","No_Match",NA,NA,NA,NA
129261,"233 HAMBRICK AVENUE","SUTHERLIN","OR",97479,43.3875006810001,-123.231874406,261,"233 HAMBRICK AVENUE, SUTHERLIN, OR, 97479","Match","Exact","233 HAMBRICK AVE, SUTHERLIN, OR, 97479",137222409,"R"
129262,"233 HANCE ROAD","FAIR HAVEN","NJ",7704,40.3556697980001,-74.041402863,262,"233 HANCE ROAD, FAIR HAVEN, NJ, 7704","Match","Exact","233 HANCE RD, FAIR HAVEN, NJ, 07704",90484944,"L"
129263,"233 HANKS HILL RD","STORRS MANSFIELD","CT",6268,41.802572561,-72.22331329,263,"233 HANKS HILL RD, STORRS MANSFIELD, CT, 6268","Match","Exact","233 HANKS HILL RD, STORRS MANSFIELD, CT, 06268",56992787,"R"
129264,"233 HARBOR CREEK DR","CARY","NC",27511,35.7674294880001,-78.7929347529999,264,"233 HARBOR CREEK DR, CARY, NC, 27511","Match","Exact","233 HARBOR CREEK DR, CARY, NC, 27511",72620384,"R"
129265,"233 HENRY","MEMPHIS","TN",38107,35.165970385,-90.039138542,265,"233 HENRY, MEMPHIS, TN, 38107","Match","Non_Exact","233 HENRY AVE, MEMPHIS, TN, 38107",72902847,"R"
129266,"233 ILLINOIS AVENUE- SUITE 1- 793","FORT LEONARD WOOD","MO",65473,37.7614702880001,-92.1140698679999,266,"233 ILLINOIS AVENUE- SUITE 1- 793, FORT LEONARD WOOD, MO, 65473","Match","Exact","233 ILLINOIS, FORT LEONARD WOOD, MO, 65473",26399490,"L"
129267,"233 INNER DRIVE","LE SUEUR","MN",56058,44.4535299340001,-93.9041897399999,267,"233 INNER DRIVE, LE SUEUR, MN, 56058","Match","Exact","233 INNER DR, LE SUEUR, MN, 56058",28647893,"L"
129268,"233 IRVING AVENUE","PROVIDENCE","RI",2906,41.834504361,-71.3831917049999,268,"233 IRVING AVENUE, PROVIDENCE, RI, 2906","Match","Exact","233 IRVING AVE, PROVIDENCE, RI, 02906",47465422,"R"
129269,"233 ISLAND CREEK LANE","SAVANNAH","GA",31410,32.0014964010001,-80.9854643419999,269,"233 ISLAND CREEK LANE, SAVANNAH, GA, 31410","Match","Exact","233 ISLAND CREEK LN, SAVANNAH, GA, 31410",651706626,"L"
129270,"233 JAMAICA AVE APT 4J","BROOKLYN","NY",11207,40.680406954,-73.8926857499999,270,"233 JAMAICA AVE APT 4J, BROOKLYN, NY, 11207","Match","Exact","233 JAMAICA AVE, BROOKLYN, NY, 11207",59084349,"L"
129271,"233 JUNIPER LANE","BOLINGBROOK","IL",60440,41.708587531,-88.0762691419999,271,"233 JUNIPER LANE, BOLINGBROOK, IL, 60440","Match","Exact","233 JUNIPER LN, BOLINGBROOK, IL, 60440",111535050,"L"
129272,"233 KIVA RD","DURANGO","CO",81303,37.1966710950001,-107.8624102,272,"233 KIVA RD, DURANGO, CO, 81303","Match","Exact","233 KIVA RD, DURANGO, CO, 81303",91730382,"L"
129273,"233 LAKE SYLVIA ROAD","LINCOLNTON","NC",28092,35.4553412430001,-81.2508517539999,273,"233 LAKE SYLVIA ROAD, LINCOLNTON, NC, 28092","Match","Exact","233 LAKE SYLVIA RD, LINCOLNTON, NC, 28092",651052474,"L"
129274,"233 LANEY ROAD","CHERAW","SC",29520,34.704130612,-79.937298265,274,"233 LANEY ROAD, CHERAW, SC, 29520","Match","Exact","233 LANEY RD, CHERAW, SC, 29520",14336528,"L"
129275,"233 LUCY ROAD","KINGSPORT","TN",37660,36.5866384870001,-82.492727627,275,"233 LUCY ROAD, KINGSPORT, TN, 37660","Match","Exact","233 LUCY RD, KINGSPORT, TN, 37660",127835915,"R"
129276,"233 MAGNOLIA TRACE DR","BALLWIN","MO",63021,38.5752120710001,-90.541244816,276,"233 MAGNOLIA TRACE DR, BALLWIN, MO, 63021","Match","Exact","233 MAGNOLIA TRACE DR, BALLWIN, MO, 63021",618048849,"L"
129277,"233 MAIN STREET","FALMOUTH","KY",41040,38.677670203,-84.329633593,277,"233 MAIN STREET, FALMOUTH, KY, 41040","Match","Exact","233 MAIN ST, FALMOUTH, KY, 41040",104481675,"L"
129278,"233 MAIN STREET","WATERVILLE","ME",4901,44.555386626,-69.6318179749999,278,"233 MAIN STREET, WATERVILLE, ME, 4901","Match","Exact","233 MAIN ST, WATERVILLE, ME, 04901",75470757,"R"
129279,"233 MAIN STREET","WINSLOW","ME",4901,44.555386626,-69.6318179749999,279,"233 MAIN STREET, WINSLOW, ME, 4901","Match","Exact","233 MAIN ST, WINSLOW, ME, 04901",75470757,"R"
129280,"233 MANSFIELD GROVE ROAD UNIT 409","EAST HAVEN","CT",6512,41.2541114100001,-72.8623287149999,280,"233 MANSFIELD GROVE ROAD UNIT 409, EAST HAVEN, CT, 6512","Match","Exact","233 MANSFIELD GROVE RD, EAST HAVEN, CT, 06512",3751010,"R"
129281,"233 MARSDEN AVENUE","CARNEYS POINT","NJ",8069,39.725014237,-75.458618313,281,"233 MARSDEN AVENUE, CARNEYS POINT, NJ, 8069","Match","Exact","233 MARSDEN AVE, CARNEYS POINT, NJ, 08069",174416495,"L"
129282,"233 MASSACHUSETTS AVE","NORTH ANDOVER","MA",1845,42.6946421330001,-71.135832616,282,"233 MASSACHUSETTS AVE, NORTH ANDOVER, MA, 1845","Match","Exact","233 MASSACHUSETTS AVE, NORTH ANDOVER, MA, 01845",639983002,"R"
129283,"233 MATHER MAIL CENTER","CAMBRIDGE","MA",2138,NA,NA,283,"233 MATHER MAIL CENTER, CAMBRIDGE, MA, 2138","No_Match",NA,NA,NA,NA
129284,"233 MCLEOD RD","CHAPIN","SC",29036,34.1473268760001,-81.287092751,284,"233 MCLEOD RD, CHAPIN, SC, 29036","Match","Exact","233 MCLEOD RD, CHAPIN, SC, 29036",71810092,"L"
129285,"233 MITCHELL STREET SUITE 300C","ATLANTA","GA",30303,33.751924263,-84.394794831,285,"233 MITCHELL STREET SUITE 300C, ATLANTA, GA, 30303","Match","Non_Exact","233 MITCHELL ST SW, ATLANTA, GA, 30303",17344268,"R"
129286,"233 MITCHELL STREET SW SUITE 425","ATLANTA","GA",30303,33.751924263,-84.394794831,286,"233 MITCHELL STREET SW SUITE 425, ATLANTA, GA, 30303","Match","Exact","233 MITCHELL ST SW, ATLANTA, GA, 30303",17344268,"R"
129287,"233 MIXON ROAD","TALLAPOOSA","GA",30176,33.6945814440001,-85.318788339,287,"233 MIXON ROAD, TALLAPOOSA, GA, 30176","Match","Exact","233 MIXON RD, TALLAPOOSA, GA, 30176",31043993,"R"
129288,"233 N 1250 W SUITE 202","CENTERVILLE","UT",84014,40.9193771930001,-111.896894663,288,"233 N 1250 W SUITE 202, CENTERVILLE, UT, 84014","Match","Non_Exact","233 N 1250 W, CENTERVILLE, UT, 84014",645858723,"L"
129289,"233 N ADAMS ST","MEMPHIS","MO",63555,40.460591869,-92.168256292,289,"233 N ADAMS ST, MEMPHIS, MO, 63555","Match","Exact","233 N ADAMS ST, MEMPHIS, MO, 63555",13231781,"L"
129290,"233 N GREENWOOD AVE","FORT SMITH","AR",72901,35.3778589450001,-94.403491736,290,"233 N GREENWOOD AVE, FORT SMITH, AR, 72901","Match","Exact","233 N GREENWOOD AVE, FORT SMITH, AR, 72901",56103507,"L"
129291,"233 N NEW BALLAS RD","ST LOUIS","MO",63141,38.6604898370001,-90.4432855809999,291,"233 N NEW BALLAS RD, ST LOUIS, MO, 63141","Match","Exact","233 N NEW BALLAS RD, SAINT LOUIS, MO, 63141",100162692,"L"
129292,"233 N RIVERSIDE DR","NEPTUNE","NJ",7753,40.20091159,-74.04594303,292,"233 N RIVERSIDE DR, NEPTUNE, NJ, 7753","Match","Exact","233 N RIVERSIDE DR, NEPTUNE, NJ, 07753",90458032,"R"
129293,"233 NE 58TH AVENUE","PORTLAND","OR",97213,45.5245344510001,-122.604311143,293,"233 NE 58TH AVENUE, PORTLAND, OR, 97213","Match","Exact","233 NE 58TH AVE, PORTLAND, OR, 97213",157512450,"L"
129294,"233 NORTH MILLS AVENUE","LODI","CA",95242,38.1306820190001,-121.297539495,294,"233 NORTH MILLS AVENUE, LODI, CA, 95242","Match","Non_Exact","233 S MILLS AVE, LODI, CA, 95242",133916541,"L"
129295,"233 ORIOLE DRIVE","ANNA","TX",75409,33.3761094820001,-96.549696543,295,"233 ORIOLE DRIVE, ANNA, TX, 75409","Match","Exact","233 ORIOLE DR, ANNA, TX, 75409",616583028,"L"
129296,"233 PEACHTREE STREET NW HARRIS TOWE","ATLANTA","GA",30303,33.7601625350001,-84.3875665309999,296,"233 PEACHTREE STREET NW HARRIS TOWE, ATLANTA, GA, 30303","Match","Exact","233 PEACHTREE ST NW, ATLANTA, GA, 30303",17344484,"R"
129297,"233 PEARL STREET UNIT 16","HARTFORD","CT",6103,41.7664530800001,-72.677881138,297,"233 PEARL STREET UNIT 16, HARTFORD, CT, 6103","Match","Exact","233 PEARL ST, HARTFORD, CT, 06103",3494920,"L"
129298,"233 PRESIDENT STREET STE 1","BROOKLYN","NY",11231,40.6821040350001,-73.997516129,298,"233 PRESIDENT STREET STE 1, BROOKLYN, NY, 11231","Match","Exact","233 PRESIDENT ST, BROOKLYN, NY, 11231",59074847,"L"
129299,"233 PROSPECT ST","OWATONNA","MN",55060,44.0773518670001,-93.222611608,299,"233 PROSPECT ST, OWATONNA, MN, 55060","Match","Non_Exact","233 PROSPECT ST E, OWATONNA, MN, 55060",38171700,"L"
129300,"233 REDWOOD STREET","BIRMINGHAM","AL",35210,33.5222743670001,-86.723888743,300,"233 REDWOOD STREET, BIRMINGHAM, AL, 35210","Match","Exact","233 REDWOOD ST, BIRMINGHAM, AL, 35210",81587375,"L"
129301,"233 REUBEN DRIVE","ALEXANDER","AR",72002,34.7049753850001,-92.5661687849999,301,"233 REUBEN DRIVE, ALEXANDER, AR, 72002","Match","Exact","233 REUBEN DR, ALEXANDER, AR, 72002",650887733,"R"
129302,"233 ROCK ROAD PO BOX 125","GLEN ROCK","NJ",7452,40.9624778310001,-74.130535999,302,"233 ROCK ROAD PO BOX 125, GLEN ROCK, NJ, 7452","Match","Exact","233 ROCK RD, GLEN ROCK, NJ, 07452",64405351,"L"
129303,"233 ROGUE RIVER HWY -916","GRANTS PASS","OR",97527,42.426962845,-123.331391846,303,"233 ROGUE RIVER HWY -916, GRANTS PASS, OR, 97527","Match","Exact","233 ROGUE RIVER HWY, GRANTS PASS, OR, 97527",156573652,"L"
129304,"233 ROGUE RIVER HWY 322","GRANTS PASS","OR",97527,42.426962845,-123.331391846,304,"233 ROGUE RIVER HWY 322, GRANTS PASS, OR, 97527","Match","Exact","233 ROGUE RIVER HWY, GRANTS PASS, OR, 97527",156573652,"L"
129305,"233 S 13TH ST    1900 US BANK BLDG","LINCOLN","NE",68508,NA,NA,305,"233 S 13TH ST    1900 US BANK BLDG, LINCOLN, NE, 68508","Tie",NA,NA,NA,NA
129306,"233 S 13TH ST 11TH FL","LINCOLN","NE",68508,NA,NA,306,"233 S 13TH ST 11TH FL, LINCOLN, NE, 68508","Tie",NA,NA,NA,NA
129307,"233 S 13TH ST 1900 US BANK BLDG","LINCOLN","NE",68508,NA,NA,307,"233 S 13TH ST 1900 US BANK BLDG, LINCOLN, NE, 68508","Tie",NA,NA,NA,NA
129308,"233 S 2370 W","PROVO","UT",84601,40.230641151,-111.700231357,308,"233 S 2370 W, PROVO, UT, 84601","Match","Exact","233 S 2370 W, PROVO, UT, 84601",134240098,"L"
129309,"233 S FEDERAL HWY STE 411","BOCA RATON","FL",33432,NA,NA,309,"233 S FEDERAL HWY STE 411, BOCA RATON, FL, 33432","Tie",NA,NA,NA,NA
129310,"233 S GILBERT AVE","LAGRANGE","IL",60525,41.809637083,-87.888999871,310,"233 S GILBERT AVE, LAGRANGE, IL, 60525","Match","Non_Exact","233 GILBERT AVE, LAGRANGE HLDS, IL, 60525",111789322,"L"
129311,"233 S STATE ST","BELLINGHAM","WA",98225,48.7349325390001,-122.496945461,311,"233 S STATE ST, BELLINGHAM, WA, 98225","Match","Exact","233 S STATE ST, BELLINGHAM, WA, 98225",183831040,"L"
129312,"233 S STATE","WESTVILLE","IL",61883,40.0406579310001,-87.638552184,312,"233 S STATE, WESTVILLE, IL, 61883","Match","Non_Exact","233 S STATE ST, WESTVILLE, IL, 61883",66000574,"L"
129313,"233 S THIRD AVE","WINNECONNE","WI",54986,44.108713272,-88.7150343119999,313,"233 S THIRD AVE, WINNECONNE, WI, 54986","Match","Non_Exact","233 S 3RD ST, WINNECONNE, WI, 54986",74483241,"R"
129314,"233 S WACKER DR UNIT 6645","CHICAGO","IL",60606,NA,NA,314,"233 S WACKER DR UNIT 6645, CHICAGO, IL, 60606","Tie",NA,NA,NA,NA
129315,"233 S WACKER DRIVE SUITE 5900","CHICAGO","IL",60606,NA,NA,315,"233 S WACKER DRIVE SUITE 5900, CHICAGO, IL, 60606","Tie",NA,NA,NA,NA
129316,"233 S WACKER DRIVE SUITE 8400","CHICAGO","IL",60606,NA,NA,316,"233 S WACKER DRIVE SUITE 8400, CHICAGO, IL, 60606","Tie",NA,NA,NA,NA
129317,"233 SABRINA COURT","WOODSTOCK","GA",30188,34.10602428,-84.4838018519999,317,"233 SABRINA COURT, WOODSTOCK, GA, 30188","Match","Exact","233 SABRINA CT, WOODSTOCK, GA, 30188",68828654,"L"
129318,"233 SADDLEBROOK LANE","WAXAHACHIE","TX",75165,32.4202367500001,-96.831193474,318,"233 SADDLEBROOK LANE, WAXAHACHIE, TX, 75165","Match","Exact","233 SADDLEBROOK LN, WAXAHACHIE, TX, 75165",608444907,"R"
129319,"233 SAINT MARY STREET UNIT 1","NEEDHAM","MA",2494,42.313536395,-71.2343791439999,319,"233 SAINT MARY STREET UNIT 1, NEEDHAM, MA, 2494","Match","Exact","233 ST MARY ST, NEEDHAM, MA, 02494",87240486,"R"
129320,"233 SAVOY AVE","SPRINGFIELD","MA",1103,NA,NA,320,"233 SAVOY AVE, SPRINGFIELD, MA, 1103","No_Match",NA,NA,NA,NA
129321,"233 SCOTT STREET","SAN FRANCISCO","CA",94117,37.7718133130001,-122.435445612,321,"233 SCOTT STREET, SAN FRANCISCO, CA, 94117","Match","Exact","233 SCOTT ST, SAN FRANCISCO, CA, 94117",192283571,"L"
129322,"233 SEMINOLE TRAIL","CRESTVIEW","FL",32536,30.7717387590001,-86.5817680279999,322,"233 SEMINOLE TRAIL, CRESTVIEW, FL, 32536","Match","Exact","233 SEMINOLE TRL, CRESTVIEW, FL, 32536",74379622,"R"
129323,"233 SHERRY LANE","BURLESON","TX",76028,32.514767211,-97.268684513,323,"233 SHERRY LANE, BURLESON, TX, 76028","Match","Exact","233 SHERRY LN, BURLESON, TX, 76028",225914346,"L"
129324,"233 SINGING HILLS DRIVE","CLARKESVILLE","GA",30523,34.6137158180001,-83.553434121,324,"233 SINGING HILLS DRIVE, CLARKESVILLE, GA, 30523","Match","Non_Exact","233 SINGING HILLS RD, CLARKESVILLE, GA, 30523",615822916,"L"
129325,"233 SLOOP LOOP POINT RD","HAMPSTEAD","NC",28443,NA,NA,325,"233 SLOOP LOOP POINT RD, HAMPSTEAD, NC, 28443","No_Match",NA,NA,NA,NA
129326,"233 SOMERSET GLEN","WALES","WI",53183,43.004772223,-88.373333002,326,"233 SOMERSET GLEN, WALES, WI, 53183","Match","Exact","233 SOMERSET GLEN, WALES, WI, 53183",53842305,"R"
129327,"233 SOMERSET STREET","NEW BRUNSWICK","NJ",8901,40.49405297,-74.4539765709999,327,"233 SOMERSET STREET, NEW BRUNSWICK, NJ, 8901","Match","Exact","233 SOMERSET ST, NEW BRUNSWICK, NJ, 08901",60360815,"R"
129328,"233 SOUTH 13TH STREET STE 1900","LINCOLN","NE",68508,NA,NA,328,"233 SOUTH 13TH STREET STE 1900, LINCOLN, NE, 68508","No_Match",NA,NA,NA,NA
129329,"233 SOUTH 1ST STREET SUITE 3W","BROOKLYN","NY",11211,40.7127605630001,-73.958536529,329,"233 SOUTH 1ST STREET SUITE 3W, BROOKLYN, NY, 11211","Match","Exact","233 S 1ST ST, BROOKLYN, NY, 11211",59076127,"L"
129330,"233 SOUTH 4TH AVENUE","YUMA","AZ",85364,32.72268869,-114.624579472,330,"233 SOUTH 4TH AVENUE, YUMA, AZ, 85364","Match","Exact","233 S 4TH AVE, YUMA, AZ, 85364",647565106,"L"
129331,"233 SOUTH STEPHENSON AVE","IRON MOUNTAIN","MI",49801,45.8208570570001,-88.06527842,331,"233 SOUTH STEPHENSON AVE, IRON MOUNTAIN, MI, 49801","Match","Exact","233 S STEPHENSON AVE, IRON MOUNTAIN, MI, 49801",170158676,"R"
129332,"233 SOUTH WACKER DRIVE SUITE 2150","CHICAGO","IL",60606,41.8785162550001,-87.6366603829999,332,"233 SOUTH WACKER DRIVE SUITE 2150, CHICAGO, IL, 60606","Match","Exact","233 S WACKER DR, CHICAGO, IL, 60606",112050003,"L"
129333,"233 SPRING STREET -APT2","TRENTON","NJ",8618,40.2252727530001,-74.774128267,333,"233 SPRING STREET -APT2, TRENTON, NJ, 8618","Match","Exact","233 SPRING ST, TRENTON, NJ, 08618",60178408,"L"
129334,"233 STEAMBOAT COURT","NASHVILLE","TN",37214,36.235314439,-86.69671121,334,"233 STEAMBOAT COURT, NASHVILLE, TN, 37214","Match","Exact","233 STEAMBOAT CT, NASHVILLE, TN, 37214",97213822,"L"
129335,"233 STORE HILL ROAD","WESTBURY","NY",11568,40.779737079,-73.576524422,335,"233 STORE HILL ROAD, WESTBURY, NY, 11568","Match","Exact","233 STORE HILL RD, WESTBURY, NY, 11568",147624052,"L"
129336,"233 SW 186TH STREET","NORMANDY PARK","WA",98166,47.4363619490001,-122.338405711,336,"233 SW 186TH STREET, NORMANDY PARK, WA, 98166","Match","Exact","233 SW 186TH ST, NORMANDY PARK, WA, 98166",186625525,"L"
129337,"233 SWEETBRIAR COURT","CLAYTON","NC",27527,35.6498257150001,-78.3898315759999,337,"233 SWEETBRIAR COURT, CLAYTON, NC, 27527","Match","Exact","233 SWEETBRIAR CT, CLAYTON, NC, 27527",26553051,"R"
129338,"233 TONI STREET","ORLANDO","FL",32810,28.6192279700001,-81.390392458,338,"233 TONI STREET, ORLANDO, FL, 32810","Match","Exact","233 TONI ST, ORLANDO, FL, 32810",94275730,"R"
129339,"233 W 6TH STREET","WINNEMUCCA","NV",89445,40.969449931,-117.733448592,339,"233 W 6TH STREET, WINNEMUCCA, NV, 89445","Match","Exact","233 W 6TH ST, WINNEMUCCA, NV, 89445",170905709,"R"
129340,"233 W CENTER AVE","DORCHESTER","WI",54425,45.0032242250001,-90.332843349,340,"233 W CENTER AVE, DORCHESTER, WI, 54425","Match","Exact","233 W CENTER AVE, DORCHESTER, WI, 54425",50872299,"L"
129341,"233 W HINTZ ROAD","WHEELING","IL",60090,42.124231465,-87.923313921,341,"233 W HINTZ ROAD, WHEELING, IL, 60090","Match","Exact","233 W HINTZ RD, WHEELING, IL, 60090",111718248,"L"
129342,"233 W PLEASANT STREET","SPRINGFIELD","OH",45506,39.919081611,-83.815461914,342,"233 W PLEASANT STREET, SPRINGFIELD, OH, 45506","Match","Exact","233 W PLEASANT ST, SPRINGFIELD, OH, 45506",135008902,"L"
129343,"233 W TWOHIG AVE","SAN ANGELO","TX",76903,31.4600893210001,-100.439853616,343,"233 W TWOHIG AVE, SAN ANGELO, TX, 76903","Match","Exact","233 W TWOHIG AVE, SAN ANGELO, TX, 76903",607999290,"L"
129344,"233 WAINWRIGHT STREET","NEWARK","NJ",7112,40.7127604900001,-74.222414612,344,"233 WAINWRIGHT STREET, NEWARK, NJ, 7112","Match","Exact","233 WAINWRIGHT ST, NEWARK, NJ, 07112",63485368,"R"
129345,"233 WASHINGTON ST","GRAND HAVEN","MI",49417,43.0638051440001,-86.230459995,345,"233 WASHINGTON ST, GRAND HAVEN, MI, 49417","Match","Non_Exact","233 WASHINGTON AVE, GRAND HAVEN, MI, 49417",71084399,"R"
129346,"233 WATCHUNG FORK","WESTFIELD","NJ",7090,40.659501467,-74.358751957,346,"233 WATCHUNG FORK, WESTFIELD, NJ, 7090","Match","Exact","233 WATCHUNG FORK, WESTFIELD, NJ, 07090",60603607,"L"
129347,"233 WEST 26TH STREET","NORFOLK","VA",23517,36.871605882,-76.285597702,347,"233 WEST 26TH STREET, NORFOLK, VA, 23517","Match","Exact","233 W 26TH ST, NORFOLK, VA, 23517",122123397,"L"
129348,"233 WEST ARTESIA BOULEVARD","LONG BEACH","CA",90805,33.874288349,-118.206154552,348,"233 WEST ARTESIA BOULEVARD, LONG BEACH, CA, 90805","Match","Exact","233 W ARTESIA BLVD, LONG BEACH, CA, 90805",141683119,"R"
129349,"233 WEST AVENUE A","BELLE GLADE","FL",33430,26.6857614800001,-80.670200618,349,"233 WEST AVENUE A, BELLE GLADE, FL, 33430","Match","Exact","233 W AVE A, BELLE GLADE, FL, 33430",115246603,"L"
129350,"233 WEST COLT ROAD","TEMPE","AZ",85284,33.33786194,-111.940995459,350,"233 WEST COLT ROAD, TEMPE, AZ, 85284","Match","Exact","233 W COLT RD, TEMPE, AZ, 85284",128269629,"R"
129351,"233 WEST GAY STREET","WEST CHESTER","PA",19380,39.95918206,-75.6082371479999,351,"233 WEST GAY STREET, WEST CHESTER, PA, 19380","Match","Exact","233 W GAY ST, WEST CHESTER, PA, 19380",179490622,"R"
129352,"233 WEST LINDEN AVE 1","LINDEN","NJ",7036,40.6278333330001,-74.2518294019999,352,"233 WEST LINDEN AVE 1, LINDEN, NJ, 7036","Match","Exact","233 W LINDEN AVE, LINDEN, NJ, 07036",60576212,"L"
129353,"233 WILEY STREET","BRENTWOOD","NY",11717,40.761329797,-73.218117104,353,"233 WILEY STREET, BRENTWOOD, NY, 11717","Match","Exact","233 WILEY ST, BRENTWOOD, NY, 11717",113985876,"L"
129354,"233 WOODBORO DRIVE","WEST CHICAGO","IL",60185,41.882987508,-88.187049712,354,"233 WOODBORO DRIVE, WEST CHICAGO, IL, 60185","Match","Exact","233 WOODBORO DR, WEST CHICAGO, IL, 60185",112601021,"R"
129355,"233-09 LINDEN BLVD","CAMBRIA HTS.","NY",11411,40.6910657450001,-73.72896317,355,"233-09 LINDEN BLVD, CAMBRIA HTS., NY, 11411","Match","Exact","233-9 LINDEN BLVD, CAMBRIA HTS, NY, 11411",59721011,"L"
129356,"233-21 LINDEN BLVD","CAMBRIA HEIGHTS","NY",11411,40.691048793,-73.728868071,356,"233-21 LINDEN BLVD, CAMBRIA HEIGHTS, NY, 11411","Match","Exact","233-21 LINDEN BLVD, CAMBRIA HTS, NY, 11411",59721011,"L"
129357,"233","HARTSDALE","NY",10530,NA,NA,357,"233, HARTSDALE, NY, 10530","No_Match",NA,NA,NA,NA
129358,"2330 14TH PL SE","WASHINGTON","DC",20020,38.8587793900001,-76.987184186,358,"2330 14TH PL SE, WASHINGTON, DC, 20020","Match","Exact","2330 14TH PL SE, WASHINGTON, DC, 20020",76232406,"R"
129359,"2330 27TH ST APT 1","ASTORIA","NY",11105,NA,NA,359,"2330 27TH ST APT 1, ASTORIA, NY, 11105","No_Match",NA,NA,NA,NA
129360,"2330 27TH ST","ASTORIA","NY",11105,NA,NA,360,"2330 27TH ST, ASTORIA, NY, 11105","No_Match",NA,NA,NA,NA
129361,"2330 38TH STREET","TWO RIVERS","WI",54241,44.1694788020001,-87.580526945,361,"2330 38TH STREET, TWO RIVERS, WI, 54241","Match","Exact","2330 38TH ST, TWO RIVERS, WI, 54241",147951058,"R"
129362,"2330 55TH AVE SE","OLYMPIA","WA",98501,46.998187128,-122.868324316,362,"2330 55TH AVE SE, OLYMPIA, WA, 98501","Match","Exact","2330 55TH AVE SE, OLYMPIA, WA, 98501",614105032,"R"
129363,"2330 ABERDEEN BLVD","GASTONIA","NC",28054,35.268558834,-81.1387259909999,363,"2330 ABERDEEN BLVD, GASTONIA, NC, 28054","Match","Exact","2330 ABERDEEN BLVD, GASTONIA, NC, 28054",639475423,"R"
129364,"2330 ARDEN WAY STE G","SACRAMENTO","CA",95828,38.5960815610001,-121.409900323,364,"2330 ARDEN WAY STE G, SACRAMENTO, CA, 95828","Match","Non_Exact","2330 ARDEN WAY, SACRAMENTO, CA, 95825",133335511,"R"
129365,"2330 BAYLESS WAY","SACRAMENTO","CA",95835,38.672182585,-121.515675839,365,"2330 BAYLESS WAY, SACRAMENTO, CA, 95835","Match","Exact","2330 BAYLESS WAY, SACRAMENTO, CA, 95835",133443345,"L"
129366,"2330 CANDLE RIDGE TRAIL","GEORGETOWN","TX",78626,30.635031489,-97.6534873099999,366,"2330 CANDLE RIDGE TRAIL, GEORGETOWN, TX, 78626","Match","Exact","2330 CANDLE RIDGE TRL, GEORGETOWN, TX, 78626",126474078,"R"
129367,"2330 CHANCE ROAD","MOLINO","FL",32577,30.7025151550001,-87.360723368,367,"2330 CHANCE ROAD, MOLINO, FL, 32577","Match","Exact","2330 CHANCE RD, MOLINO, FL, 32577",93247580,"R"
129368,"2330 CLEMENTINE LN","RENO","NV",89521,39.4184847500001,-119.721995737,368,"2330 CLEMENTINE LN, RENO, NV, 89521","Match","Exact","2330 CLEMENTINE LN, RENO, NV, 89521",107125661,"L"
129369,"2330 COUNTY ROAD F E","WHITE BEAR LAKE","MN",55110,NA,NA,369,"2330 COUNTY ROAD F E, WHITE BEAR LAKE, MN, 55110","No_Match",NA,NA,NA,NA
129370,"2330 E BROADWAY","HELENA","MT",59601,46.584143689,-111.998900016,370,"2330 E BROADWAY, HELENA, MT, 59601","Match","Non_Exact","2330 E BROADWAY ST, HELENA, MT, 59601",202371082,"L"
129371,"2330 E MONUMENT ST","BALTIMORE","MD",21205,39.2987944490001,-76.5842909799999,371,"2330 E MONUMENT ST, BALTIMORE, MD, 21205","Match","Exact","2330 E MONUMENT ST, BALTIMORE, MD, 21205",206423985,"L"
129372,"2330 EAST AVENUE J8 SPC 210","LANCASTER","CA",93535,NA,NA,372,"2330 EAST AVENUE J8 SPC 210, LANCASTER, CA, 93535","No_Match",NA,NA,NA,NA
129373,"2330 GLENDALE LANE","SACRAMENTO","CA",95825,38.5980475420001,-121.408746231,373,"2330 GLENDALE LANE, SACRAMENTO, CA, 95825","Match","Exact","2330 GLENDALE LN, SACRAMENTO, CA, 95825",133335508,"R"
129374,"2330 GOOD HOPE ROAD SE STE 1204","WASHINGTON","DC",20020,38.8639651120001,-76.974954783,374,"2330 GOOD HOPE ROAD SE STE 1204, WASHINGTON, DC, 20020","Match","Exact","2330 GOOD HOPE RD SE, WASHINGTON, DC, 20020",638106596,"L"
129375,"2330 GOSHEN ROAD","WINCHESTER","KY",40391,38.0190610720001,-84.073781343,375,"2330 GOSHEN ROAD, WINCHESTER, KY, 40391","Match","Exact","2330 GOSHEN RD, WINCHESTER, KY, 40391",31789562,"R"
129376,"2330 GRANADA AVE","LONG BEACH","CA",90815,33.8006878780001,-118.148078049,376,"2330 GRANADA AVE, LONG BEACH, CA, 90815","Match","Non_Exact","2330 GRAND AVE, LONG BEACH, CA, 90815",642868240,"R"
129377,"2330 GREEN ST","HARRISBURG","PA",17110,40.2824407740001,-76.89887651,377,"2330 GREEN ST, HARRISBURG, PA, 17110","Match","Exact","2330 GREEN ST, HARRISBURG, PA, 17110",70816449,"L"
129378,"2330 INDIAN WOODS ROAD","WINDSOR","NC",27983,35.9687351850001,-77.070449076,378,"2330 INDIAN WOODS ROAD, WINDSOR, NC, 27983","Match","Exact","2330 INDIAN WOODS RD, WINDSOR, NC, 27983",639723358,"L"
129379,"2330 INTERSTATE 30","MESQUITE","TX",75150,NA,NA,379,"2330 INTERSTATE 30, MESQUITE, TX, 75150","No_Match",NA,NA,NA,NA
129380,"2330 INWOOD RD STE 340","DALLAS","TX",75235,32.8195646180001,-96.838320871,380,"2330 INWOOD RD STE 340, DALLAS, TX, 75235","Match","Exact","2330 INWOOD RD, DALLAS, TX, 75235",103232867,"R"
129381,"2330 LAKE VIEW BLVD","PORT CHARLOTTE","FL",33948,26.9945884540001,-82.128703688,381,"2330 LAKE VIEW BLVD, PORT CHARLOTTE, FL, 33948","Match","Exact","2330 LAKE VIEW BLVD, PORT CHARLOTTE, FL, 33948",4298631,"R"
129382,"2330 LOU GURLEY RD","BOWERSVILLE","GA",30516,34.3900531420001,-83.027204544,382,"2330 LOU GURLEY RD, BOWERSVILLE, GA, 30516","Match","Exact","2330 LOU GURLEY RD, BOWERSVILLE, GA, 30516",610579885,"L"
129383,"2330 MADISON AVE","GRANITE CITY","IL",62040,38.7048070430001,-90.139982678,383,"2330 MADISON AVE, GRANITE CITY, IL, 62040","Match","Exact","2330 MADISON AVE, GRANITE CITY, IL, 62040",107683180,"R"
129384,"2330 MEADOWRIDGE CT","CEDARBURG","WI",53012,43.359337366,-88.060785013,384,"2330 MEADOWRIDGE CT, CEDARBURG, WI, 53012","Match","Exact","2330 MEADOWRIDGE CT, CEDARBURG, WI, 53012",95908812,"R"
129385,"2330 N 900 W","CROMWELL","IN",46732,41.3853333970001,-85.597042787,385,"2330 N 900 W, CROMWELL, IN, 46732","Match","Exact","2330 N 900 W, CROMWELL, IN, 46732",6578745,"R"
129386,"2330 N DEER CREEK PL","TUCSON","AZ",85749,32.249613762,-110.788617993,386,"2330 N DEER CREEK PL, TUCSON, AZ, 85749","Match","Exact","2330 N DEER CREEK PL, TUCSON, AZ, 85749",121387531,"R"
129387,"2330 N HARRISON ST","SHAWNEE","OK",74804,35.3537636610001,-96.9121369379999,387,"2330 N HARRISON ST, SHAWNEE, OK, 74804","Match","Exact","2330 N HARRISON ST, SHAWNEE, OK, 74804",100580722,"L"
129388,"2330 N HARRISON","SHAWNEE","OK",74804,NA,NA,388,"2330 N HARRISON, SHAWNEE, OK, 74804","No_Match",NA,NA,NA,NA
129389,"2330 N PLEASANTS HIGHWAY","SAINT MARYS","WV",26170,39.427051159,-81.178167038,389,"2330 N PLEASANTS HIGHWAY, SAINT MARYS, WV, 26170","Match","Exact","2330 N PLEASANTS HWY, SAINT MARYS, WV, 26170",614611964,"R"
129390,"2330 NW BELGRAVE AVENUE","PORTLAND","OR",97210,45.5387297080001,-122.723177309,390,"2330 NW BELGRAVE AVENUE, PORTLAND, OR, 97210","Match","Non_Exact","2330 NW BELGRAVE ST, PORTLAND, OR, 97210",157605426,"R"
129391,"2330 NW PROFESSIONAL DR 102","CORVALLIS","OR",97330,44.591512203,-123.277947831,391,"2330 NW PROFESSIONAL DR 102, CORVALLIS, OR, 97330","Match","Exact","2330 PROFESSIONAL DR, CORVALLIS, OR, 97330",155858309,"L"
129392,"2330 PARK PLACE DR","GRETNA","LA",70056,29.8944284360001,-90.017259041,392,"2330 PARK PLACE DR, GRETNA, LA, 70056","Match","Exact","2330 PARK PLACE DR, GRETNA, LA, 70056",93550859,"R"
129393,"2330 PASEO DEL PRADO STE C204","LAS VEGAS","NV",89102,36.145717932,-115.177571741,393,"2330 PASEO DEL PRADO STE C204, LAS VEGAS, NV, 89102","Match","Non_Exact","2330 PSO DEL PRADO, LAS VEGAS, NV, 89102",201974352,"R"
129394,"2330 PASEO DEL PRADO STE C205","LAS VEGAS","NV",89102,NA,NA,394,"2330 PASEO DEL PRADO STE C205, LAS VEGAS, NV, 89102","No_Match",NA,NA,NA,NA
129395,"2330 PINE","JENISON","MI",49428,42.90347367,-85.840623979,395,"2330 PINE, JENISON, MI, 49428","Match","Non_Exact","2330 PINE ST, JENISON, MI, 49428",71082997,"L"
129396,"2330 PRAIRIE HILL DRIVE","MARION","IA",52302,42.045469401,-91.5524996459999,396,"2330 PRAIRIE HILL DRIVE, MARION, IA, 52302","Match","Exact","2330 PRAIRIE HILL DR, MARION, IA, 52302",642508010,"R"
129397,"2330 ROCHESTER RD APT 102","ROYAL OAK","MI",48073,42.5093832490001,-83.141850007,397,"2330 ROCHESTER RD APT 102, ROYAL OAK, MI, 48073","Match","Exact","2330 ROCHESTER RD, ROYAL OAK, MI, 48073",69744117,"R"
129398,"2330 S BROADWAY UNIT 102","LOS ANGELES","CA",90007,34.0277494920001,-118.268176227,398,"2330 S BROADWAY UNIT 102, LOS ANGELES, CA, 90007","Match","Non_Exact","2330 S BROADWAY, LOS ANGELES, CA, 90007",141619081,"L"
129399,"2330 S KEARNEY ST UNIT 115","DENVER","CO",80222,39.7514517390001,-104.917543877,399,"2330 S KEARNEY ST UNIT 115, DENVER, CO, 80222","Match","Non_Exact","2330 KEARNEY ST, DENVER, CO, 80207",177312295,"R"
129400,"2330 SCENIC HIGHWAY SOUTH","SNELLVILLE","GA",30078,NA,NA,400,"2330 SCENIC HIGHWAY SOUTH, SNELLVILLE, GA, 30078","No_Match",NA,NA,NA,NA
129401,"2330 SCENIC HWY S STE 637","SNELLVILLE","GA",30078,NA,NA,401,"2330 SCENIC HWY S STE 637, SNELLVILLE, GA, 30078","No_Match",NA,NA,NA,NA
129402,"2330 SCENIC HWY S STE 708","SNELLVILLE","GA",30078,NA,NA,402,"2330 SCENIC HWY S STE 708, SNELLVILLE, GA, 30078","No_Match",NA,NA,NA,NA
129403,"2330 SCENIC HWY S","SNELLVILLE","GA",30078,NA,NA,403,"2330 SCENIC HWY S, SNELLVILLE, GA, 30078","No_Match",NA,NA,NA,NA
129404,"2330 SCOTT STREET","HOLLYWOOD","FL",33020,26.0297175640001,-80.154043528,404,"2330 SCOTT STREET, HOLLYWOOD, FL, 33020","Match","Exact","2330 SCOTT ST, HOLLYWOOD, FL, 33020",114729592,"L"
129405,"2330 SIMONSON DRIVE","WELLINGTON","FL",33414,26.645073295,-80.202176471,405,"2330 SIMONSON DRIVE, WELLINGTON, FL, 33414","Match","Exact","2330 SIMONSON DR, WELLINGTON, FL, 33414",115584041,"R"
129406,"2330 SOUTH NOVA RD","SOUTH DAYTONA","FL",32119,29.158982473,-81.022417285,406,"2330 SOUTH NOVA RD, SOUTH DAYTONA, FL, 32119","Match","Exact","2330 S NOVA RD, S DAYTONA, FL, 32119",639880688,"R"
129407,"2330 SW WILLISTON RD APT 2718","GAINESVILLE","FL",32608,29.613800429,-82.357031417,407,"2330 SW WILLISTON RD APT 2718, GAINESVILLE, FL, 32608","Match","Exact","2330 WILLISTON RD, GAINESVILLE, FL, 32608",6849366,"L"
129408,"2330 SW WILLISTON ROAD APT 526","GAINESVILLE","FL",32608,29.613800429,-82.357031417,408,"2330 SW WILLISTON ROAD APT 526, GAINESVILLE, FL, 32608","Match","Exact","2330 WILLISTON RD, GAINESVILLE, FL, 32608",6849366,"L"
129409,"2330 TIMBER SHADOWS DRIVE SUITE 108","KINGWOOD","TX",77339,NA,NA,409,"2330 TIMBER SHADOWS DRIVE SUITE 108, KINGWOOD, TX, 77339","No_Match",NA,NA,NA,NA
129410,"2330 TRIMBLE","TALLAHASSEE","FL",32317,NA,NA,410,"2330 TRIMBLE, TALLAHASSEE, FL, 32317","No_Match",NA,NA,NA,NA
129411,"2330 UPLAND PLACE","CINCINNAT","OH",45206,39.1229465170001,-84.482522779,411,"2330 UPLAND PLACE, CINCINNAT, OH, 45206","Match","Non_Exact","2330 UPLAND PL, CINCINNATI, OH, 45206",103926472,"R"
129412,"2330 VANGUARD WAY SUITE D201","COSTA MESA","CA",92626,33.659339285,-117.904630801,412,"2330 VANGUARD WAY SUITE D201, COSTA MESA, CA, 92626","Match","Exact","2330 VANGUARD WAY, COSTA MESA, CA, 92626",623840224,"R"
129413,"2330 VIRGINIA STREE","BERKELEY","CA",94709,37.877334811,-122.2637573,413,"2330 VIRGINIA STREE, BERKELEY, CA, 94709","Match","Non_Exact","2330 VIRGINIA ST, BERKELEY, CA, 94709",124998228,"R"
129414,"2330 W JOPPA ROAD SUITE 107-A","LUTHERVILLE","MD",21093,39.4178754930001,-76.667094307,414,"2330 W JOPPA ROAD SUITE 107-A, LUTHERVILLE, MD, 21093","Match","Non_Exact","2330 W JOPPA RD, LUTHERVILLE, MD, 21093",191541478,"R"
129415,"2330 W SUNRISE PL","CHANDLER","AZ",85248,33.2547128360001,-111.878654141,415,"2330 W SUNRISE PL, CHANDLER, AZ, 85248","Match","Exact","2330 W SUNRISE PL, CHANDLER, AZ, 85248",640976972,"R"
129416,"2330 W TRESTLE DR","MERIDIAN","ID",83646,43.636841594,-116.422557633,416,"2330 W TRESTLE DR, MERIDIAN, ID, 83646","Match","Exact","2330 W TRESTLE DR, MERIDIAN, ID, 83646",117934062,"R"
129417,"2330 WATERS FERRY DRIVE","LAWRENCEVILLE","GA",30034,34.0101256570001,-83.998678102,417,"2330 WATERS FERRY DRIVE, LAWRENCEVILLE, GA, 30034","Match","Non_Exact","2330 WATERS FERRY DR, LAWRENCEVILLE, GA, 30043",88941589,"R"
129418,"2330 WEST VALENCIA DRIVE","FULLERTON","CA",92833,33.866468421,-117.968748276,418,"2330 WEST VALENCIA DRIVE, FULLERTON, CA, 92833","Match","Exact","2330 W VALENCIA DR, FULLERTON, CA, 92833",144010641,"L"
129419,"23300 AQUASCO ROAD","AQUASCO","MD",20608,38.5683322080001,-76.7256568079999,419,"23300 AQUASCO ROAD, AQUASCO, MD, 20608","Match","Exact","23300 AQUASCO RD, AQUASCO, MD, 20608",637800978,"R"
129420,"23300 COTTONWOOD AVE","MORENO VALLEY","CA",92553,33.924542638,-117.255533759,420,"23300 COTTONWOOD AVE, MORENO VALLEY, CA, 92553","Match","Exact","23300 COTTONWOOD AVE, MORENO VALLEY, CA, 92553",194747630,"L"
129421,"23300 HARPER AVENUE","PORT CHARLOTTE","FL",33980,26.9617708810001,-82.064369954,421,"23300 HARPER AVENUE, PORT CHARLOTTE, FL, 33980","Match","Exact","23300 HARPER AVE, PORT CHARLOTTE, FL, 33980",4306189,"L"
129422,"23300 VENTURA BLVD SUITE 200","WOODLAND HILLS","CA",91364,34.1619565180001,-118.631991785,422,"23300 VENTURA BLVD SUITE 200, WOODLAND HILLS, CA, 91364","Match","Exact","23300 VENTURA BLVD, WOODLAND HILLS, CA, 91364",652033851,"L"
129423,"23301 DIXIE HWY LOT 28","WEST POINT","KY",40177,37.9760732990001,-85.965472814,423,"23301 DIXIE HWY LOT 28, WEST POINT, KY, 40177","Match","Exact","23301 DIXIE HWY, WEST POINT, KY, 40177",647587069,"R"
129424,"23301 TOWNSHIP ROAD 209","ALVADA","OH",44802,NA,NA,424,"23301 TOWNSHIP ROAD 209, ALVADA, OH, 44802","No_Match",NA,NA,NA,NA
129425,"23303 BRIER RD","BRIER","WA",98036,47.7870809730001,-122.274286866,425,"23303 BRIER RD, BRIER, WA, 98036","Match","Exact","23303 BRIER RD, BRIER, WA, 98036",187757659,"L"
129426,"23304 LA PIERRE DR","MOUNTLAKE TERRACE","WA",98043,47.7873910050001,-122.299298944,426,"23304 LA PIERRE DR, MOUNTLAKE TERRACE, WA, 98043","Match","Non_Exact","23304 LA PIERRE DR SW, MOUNTLAKE TERRACE, WA, 98043",187756952,"R"
129427,"23305 96TH AVENUE N","PORT BYRON","IL",61275,41.6158032960001,-90.299620883,427,"23305 96TH AVENUE N, PORT BYRON, IL, 61275","Match","Exact","23305 96TH AVE N, PORT BYRON, IL, 61275",9218481,"R"
129428,"23305 BOWLIN ROAD","WESTON","MO",64098,39.513590117,-94.881558277,428,"23305 BOWLIN ROAD, WESTON, MO, 64098","Match","Non_Exact","23305 BOWLIN LN, WESTON, MO, 64098",39713554,"R"
129429,"23305 PARK DRIVE","LEBANON","MO",65536,37.6740156550001,-92.621857397,429,"23305 PARK DRIVE, LEBANON, MO, 65536","Match","Exact","23305 PARK DR, LEBANON, MO, 65536",639210977,"L"
129430,"23307 KNIGHT HOLLOW CT","KATY","TX",77494,29.7402814050001,-95.771045992,430,"23307 KNIGHT HOLLOW CT, KATY, TX, 77494","Match","Exact","23307 KNIGHT HOLLOW CT, KATY, TX, 77494",78323005,"L"
129431,"23308 NORTH PRESTON HIGHWAY","BRUCETON MILLS","WV",26525,39.7113229010001,-79.5072292629999,431,"23308 NORTH PRESTON HIGHWAY, BRUCETON MILLS, WV, 26525","Match","Exact","23308 N PRESTON HWY, BRUCETON MILLS, WV, 26525",611585078,"R"
129432,"23308 W POMPANO","MALIBU","CA",90265,34.0655731840001,-118.649556256,432,"23308 W POMPANO, MALIBU, CA, 90265","Match","Non_Exact","23308 W POMPANO ST, MALIBU, CA, 90265",141786646,"R"
129433,"23308 WESTMONT DR","RUTHER GLEN","VA",22546,37.9429193560001,-77.4622462729999,433,"23308 WESTMONT DR, RUTHER GLEN, VA, 22546","Match","Exact","23308 WESTMONT DR, RUTHER GLEN, VA, 22546",625214104,"L"
129434,"2331 11TH ST","HEMPSTEAD","TX",77445,30.0833024510001,-96.0803701949999,434,"2331 11TH ST, HEMPSTEAD, TX, 77445","Match","Exact","2331 11TH ST, HEMPSTEAD, TX, 77445",78352198,"L"
129435,"2331 ALBERTON LN","PEARLAND","TX",77584,29.553883043,-95.3659487749999,435,"2331 ALBERTON LN, PEARLAND, TX, 77584","Match","Exact","2331 ALBERTON LN, PEARLAND, TX, 77584",116611817,"R"
129436,"2331 BELMONT","PARSONS","KS",67357,37.338685223,-95.271219703,436,"2331 BELMONT, PARSONS, KS, 67357","Match","Non_Exact","2331 BELMONT AVE, PARSONS, KS, 67357",13719594,"R"
129437,"2331 BROCKETT ROAD","TUCKER","GA",30084,33.8533335020001,-84.223099953,437,"2331 BROCKETT ROAD, TUCKER, GA, 30084","Match","Exact","2331 BROCKETT RD, TUCKER, GA, 30084",23363513,"L"
129438,"2331 BROWARD RD","JACKSONVILLE","FL",32218,30.423818818,-81.68211386,438,"2331 BROWARD RD, JACKSONVILLE, FL, 32218","Match","Exact","2331 BROWARD RD, JACKSONVILLE, FL, 32218",83890536,"R"
129439,"2331 CABO WAY","GOLD RIVER","CA",95670,38.6183304560001,-121.25048685,439,"2331 CABO WAY, GOLD RIVER, CA, 95670","Match","Exact","2331 CABO WAY, GOLD RIVER, CA, 95670",133409682,"L"
129440,"2331 CALEXICO WAY SOUTH","ST PETERSBURG","FL",33712,27.7270702660001,-82.664975749,440,"2331 CALEXICO WAY SOUTH, ST PETERSBURG, FL, 33712","Match","Exact","2331 CALEXICO WAY S, SAINT PETERSBURG, FL, 33712",124710211,"R"
129441,"2331 CHATHAM ROAD","SPRINGFIELD","IL",62704,39.7742212150001,-89.686912209,441,"2331 CHATHAM ROAD, SPRINGFIELD, IL, 62704","Match","Exact","2331 CHATHAM RD, SPRINGFIELD, IL, 62704",97323571,"R"
129442,"2331 CHATHAM ROAD","SPRINGFIELDS","IL",62704,39.7742212150001,-89.686912209,442,"2331 CHATHAM ROAD, SPRINGFIELDS, IL, 62704","Match","Non_Exact","2331 CHATHAM RD, SPRINGFIELD, IL, 62704",97323571,"R"
129443,"2331 GUS THOMASSON RD STE 136","DALLAS","TX",75228,NA,NA,443,"2331 GUS THOMASSON RD STE 136, DALLAS, TX, 75228","No_Match",NA,NA,NA,NA
129444,"2331 HIGHWAY 79 NORTH","BROWNSVILLE","TN",38012,35.612948702,-89.235482629,444,"2331 HIGHWAY 79 NORTH, BROWNSVILLE, TN, 38012","Match","Exact","2331 HWY 79 N, BROWNSVILLE, TN, 38012",648713371,"L"
129445,"2331 LAKE TERRACE LANE","LA HABRA","CA",90631,33.9269143720001,-117.920874075,445,"2331 LAKE TERRACE LANE, LA HABRA, CA, 90631","Match","Exact","2331 LAKE TERRACE LN, LA HABRA, CA, 90631",144006464,"L"
129446,"2331 LANDFORD ST","LANCASTER","CA",93535,NA,NA,446,"2331 LANDFORD ST, LANCASTER, CA, 93535","No_Match",NA,NA,NA,NA
129447,"2331 MIDVALE AVE","LOS ANGELES","CA",90064,34.0411076720001,-118.430728725,447,"2331 MIDVALE AVE, LOS ANGELES, CA, 90064","Match","Exact","2331 MIDVALE AVE, LOS ANGELES, CA, 90064",141569956,"R"
129448,"2331 MT ISLE HARBOR DRIVE","CHARLOTTE","NC",28214,35.33837398,-80.9738704709999,448,"2331 MT ISLE HARBOR DRIVE, CHARLOTTE, NC, 28214","Match","Exact","2331 MOUNT ISLE HARBOR DR, CHARLOTTE, NC, 28214",653469444,"R"
129449,"2331 N SPAULDING AVE","CHICAGO","IL",60647,41.9235071520001,-87.710431985,449,"2331 N SPAULDING AVE, CHICAGO, IL, 60647","Match","Exact","2331 N SPAULDING AVE, CHICAGO, IL, 60647",605221506,"R"
129450,"2331 N STATE RD 7 STE 120","LAUDERHILL","FL",33313,26.156767862,-80.203022722,450,"2331 N STATE RD 7 STE 120, LAUDERHILL, FL, 33313","Match","Non_Exact","2331 N STATE RD 7, LAUDERHILL, FL, 33313",114777034,"L"
129451,"2331 NE 26 TH STREET","FORT LAUDERDALE","FL",33305,26.1598011580001,-80.1175048549999,451,"2331 NE 26 TH STREET, FORT LAUDERDALE, FL, 33305","Match","Non_Exact","2331 NE 26TH ST, FORT LAUDERDALE, FL, 33305",114725379,"L"
129452,"2331 NORTH STATE RD 7  SUITE115","LAUDERDALE LAKES","FL",33313,26.1567634,-80.203022629,452,"2331 NORTH STATE RD 7  SUITE115, LAUDERDALE LAKES, FL, 33313","Match","Exact","2331 N STATE RD 7, LAUDERDALE LAKES, FL, 33313",114777034,"L"
129453,"2331 NORTH WILLIAMS STREET","DENVER","CO",80205,39.751139514,-104.965945465,453,"2331 NORTH WILLIAMS STREET, DENVER, CO, 80205","Match","Non_Exact","2331 WILLIAMS ST, DENVER, CO, 80205",177305977,"L"
129454,"2331 OBERLIN AVE","LORAIN","OH",44052,41.448219979,-82.185200305,454,"2331 OBERLIN AVE, LORAIN, OH, 44052","Match","Exact","2331 OBERLIN AVE, LORAIN, OH, 44052",55404517,"L"
129455,"2331 OLD FAIRWAY ROAD","HUNTSVILLE","AL",35806,NA,NA,455,"2331 OLD FAIRWAY ROAD, HUNTSVILLE, AL, 35806","No_Match",NA,NA,NA,NA
129456,"2331 RETREAT VIEW CIRCLE","SANFORD","FL",32771,28.7914479840001,-81.329598081,456,"2331 RETREAT VIEW CIRCLE, SANFORD, FL, 32771","Match","Exact","2331 RETREAT VIEW CIR, SANFORD, FL, 32771",618451922,"R"
129457,"2331 RIVER EDGE DRIVE","BELTON","TX",76513,31.0917219560001,-97.450976894,457,"2331 RIVER EDGE DRIVE, BELTON, TX, 76513","Match","Non_Exact","2331 RIVERS EDGE DR, BELTON, TX, 76513",642827249,"L"
129458,"2331 S 18TH STREET","UNION GAP","WA",98903,46.5687910010001,-120.47778108,458,"2331 S 18TH STREET, UNION GAP, WA, 98903","Match","Exact","2331 S 18TH ST, UNION GAP, WA, 98903",637866324,"L"
129459,"2331 S KRAMERIA ST","DENVER","CO",80222,39.6732240380001,-104.923028077,459,"2331 S KRAMERIA ST, DENVER, CO, 80222","Match","Exact","2331 S KRAMERIA ST, DENVER, CO, 80222",177341445,"L"
129460,"2331 SANDRIDGE CIRCLE","EUSTIS","FL",32726,NA,NA,460,"2331 SANDRIDGE CIRCLE, EUSTIS, FL, 32726","No_Match",NA,NA,NA,NA
129461,"2331 STAGECOACH ROAD","STOCKTON","CA",95215,37.9391428870001,-121.230659343,461,"2331 STAGECOACH ROAD, STOCKTON, CA, 95215","Match","Exact","2331 STAGECOACH RD, STOCKTON, CA, 95215",133928036,"R"
129462,"2331 VERNELL WAY","ROUND ROCK","TX",78664,30.5339077460001,-97.6665081959999,462,"2331 VERNELL WAY, ROUND ROCK, TX, 78664","Match","Exact","2331 VERNELL WAY, ROUND ROCK, TX, 78664",126484600,"L"
129463,"2331 W 13190 S","RIVERTON","UT",84065,40.5112849610001,-111.950757239,463,"2331 W 13190 S, RIVERTON, UT, 84065","Match","Exact","2331 W 13190 S, RIVERTON, UT, 84065",176151950,"L"
129464,"2331 W IRENE","PAHRUMP","NV",89060,NA,NA,464,"2331 W IRENE, PAHRUMP, NV, 89060","Tie",NA,NA,NA,NA
129465,"2331 WARMER RANGE AVENUE","MENLO PARK","CA",94025,37.425451809,-122.205348274,465,"2331 WARMER RANGE AVENUE, MENLO PARK, CA, 94025","Match","Non_Exact","2331 WARNER RANGE AVE, MENLO PARK, CA, 94025",192365717,"L"
129466,"23310 E DESMET CT","LIBERTY LAKE","WA",99019,47.6667175740001,-117.091738759,466,"23310 E DESMET CT, LIBERTY LAKE, WA, 99019","Match","Exact","23310 E DESMET CT, LIBERTY LAKE, WA, 99019",189906392,"R"
129467,"23311 HICKORY PASS","SAN ANTONIO","TX",78264,29.1766399840001,-98.47082841,467,"23311 HICKORY PASS, SAN ANTONIO, TX, 78264","Match","Exact","23311 HICKORY PASS, SAN ANTONIO, TX, 78264",101699984,"L"
129468,"23313 HOOVER AVE","HAZEL PARK","MI",48030,42.4643388700001,-83.092695643,468,"23313 HOOVER AVE, HAZEL PARK, MI, 48030","Match","Exact","23313 HOOVER AVE, HAZEL PARK, MI, 48030",69748415,"L"
129469,"23317 BARFIELD DRIVE","VALENCIA","CA",91354,34.447667025,-118.543568777,469,"23317 BARFIELD DRIVE, VALENCIA, CA, 91354","Match","Exact","23317 BARFIELD DR, VALENCIA, CA, 91354",141855570,"L"
129470,"23317 BEACHWOOD BLVD","BEACHWOOD","OH",44122,41.4969641050001,-81.5144181589999,470,"23317 BEACHWOOD BLVD, BEACHWOOD, OH, 44122","Match","Exact","23317 BEACHWOOD BLVD, BEACHWOOD, OH, 44122",61126058,"L"
129471,"23318 CLAYSTONE AVE","CORONA","CA",92883,33.7818646600001,-117.501235486,471,"23318 CLAYSTONE AVE, CORONA, CA, 92883","Match","Exact","23318 CLAYSTONE AVE, CORONA, CA, 92883",194779018,"L"
129472,"23318 MILLVILLE WAY","MILLVILLE","CA",96062,40.541613157,-122.181679039,472,"23318 MILLVILLE WAY, MILLVILLE, CA, 96062","Match","Exact","23318 MILLVILLE WAY, MILLVILLE, CA, 96062",652198475,"R"
129473,"23318 OLIVE WOOD PLAZA DR STE D","MORENO VALLEY","CA",92553,33.9401212170001,-117.255318467,473,"23318 OLIVE WOOD PLAZA DR STE D, MORENO VALLEY, CA, 92553","Match","Exact","23318 OLIVE WOOD PLAZA DR, MORENO VALLEY, CA, 92553",194747510,"L"
129474,"23318 W PALOMA BLANCA DR","MALIBU","CA",90265,34.064278723,-118.649727577,474,"23318 W PALOMA BLANCA DR, MALIBU, CA, 90265","Match","Exact","23318 W PALOMA BLANCA DR, MALIBU, CA, 90265",141794713,"R"
129475,"23319 81ST AVE SE","WOODINVILLE","WA",98072,47.7850905610001,-122.124794785,475,"23319 81ST AVE SE, WOODINVILLE, WA, 98072","Match","Exact","23319 81ST AVE SE, WOODINVILLE, WA, 98072",187796374,"L"
129476,"23319 SAWMILL CROSS LN","SPRING","TX",77373,30.1006145900001,-95.426322774,476,"23319 SAWMILL CROSS LN, SPRING, TX, 77373","Match","Exact","23319 SAWMILL CROSS LN, SPRING, TX, 77373",96564121,"R"
129477,"2332 44TH AVE SW","SEATTLE","WA",98116,47.5826875160001,-122.387789275,477,"2332 44TH AVE SW, SEATTLE, WA, 98116","Match","Exact","2332 44TH AVE SW, SEATTLE, WA, 98116",186660839,"L"
129478,"2332 ALAMEDA AVE","ALAMEDA","CA",94501,37.7637127140001,-122.244356703,478,"2332 ALAMEDA AVE, ALAMEDA, CA, 94501","Match","Exact","2332 ALAMEDA AVE, ALAMEDA, CA, 94501",125005411,"R"
129479,"2332 AVALON WAY","SAN RAMON","CA",94582,37.7584805330001,-121.885581347,479,"2332 AVALON WAY, SAN RAMON, CA, 94582","Match","Exact","2332 AVALON WAY, SAN RAMON, CA, 94582",192116654,"L"
129480,"2332 BARRINGTON TRACE CIR SW","ATLANTA","GA",30331,33.6866212630001,-84.5496454729999,480,"2332 BARRINGTON TRACE CIR SW, ATLANTA, GA, 30331","Match","Non_Exact","2332 BARRINGTON TRACE CIR, ATLANTA, GA, 30331",629826356,"L"
129481,"2332 BEATTIES FORD RD","CHARLOTTE","NC",28216,35.2661101940001,-80.8540514759999,481,"2332 BEATTIES FORD RD, CHARLOTTE, NC, 28216","Match","Exact","2332 BEATTIES FORD RD, CHARLOTTE, NC, 28216",70477195,"R"
129482,"2332 BLYTHE BLVD","CEDAR FALLS","IA",50613,42.496276896,-92.47258315,482,"2332 BLYTHE BLVD, CEDAR FALLS, IA, 50613","Match","Exact","2332 BLYTHE BLVD, CEDAR FALLS, IA, 50613",650296752,"L"
129483,"2332 DOIDGE AVE","PINOLE","CA",94564,37.9801986320001,-122.263924921,483,"2332 DOIDGE AVE, PINOLE, CA, 94564","Match","Exact","2332 DOIDGE AVE, PINOLE, CA, 94564",192044557,"R"
129484,"2332 EAST 7TH STREET","SUPERIOR","WI",54880,46.7021631260001,-92.050585595,484,"2332 EAST 7TH STREET, SUPERIOR, WI, 54880","Match","Exact","2332 E 7TH ST, SUPERIOR, WI, 54880",164841469,"R"
129485,"2332 EAST SENECA STREET","TUCSON","AZ",85719,32.2465684430001,-110.937866605,485,"2332 EAST SENECA STREET, TUCSON, AZ, 85719","Match","Exact","2332 E SENECA ST, TUCSON, AZ, 85719",121173636,"R"
129486,"2332 FARNSLEY RD","LOUISVILLE","KY",40216,38.2029120500001,-85.823599864,486,"2332 FARNSLEY RD, LOUISVILLE, KY, 40216","Match","Exact","2332 FARNSLEY RD, LOUISVILLE, KY, 40216",96837096,"L"
129487,"2332 FOURTH ST UNIT B","BERKELEY","CA",94710,37.8629024210001,-122.298385048,487,"2332 FOURTH ST UNIT B, BERKELEY, CA, 94710","Match","Exact","2332 4TH ST, BERKELEY, CA, 94710",124993037,"R"
129488,"2332 GEORGIA DRIVE","WESTLAKE","OH",44145,41.4554232,-81.954682341,488,"2332 GEORGIA DRIVE, WESTLAKE, OH, 44145","Match","Exact","2332 GEORGIA DR, WESTLAKE, OH, 44145",61137848,"R"
129489,"2332 HOSP WAY  UNIT 206","CARLSBAD","CA",92008,33.1752217060001,-117.327690767,489,"2332 HOSP WAY  UNIT 206, CARLSBAD, CA, 92008","Match","Exact","2332 HOSP WAY, CARLSBAD, CA, 92008",195723030,"L"
129490,"2332 LEXINGTON AVE N","ROSEVILLE","MN",55113,45.011549502,-93.146519124,490,"2332 LEXINGTON AVE N, ROSEVILLE, MN, 55113","Match","Exact","2332 LEXINGTON AVE N, ROSEVILLE, MN, 55113",97664431,"R"
129491,"2332 LONGHORN ST","DALLAS","TX",75228,32.8003323510001,-96.7138662949999,491,"2332 LONGHORN ST, DALLAS, TX, 75228","Match","Exact","2332 LONGHORN ST, DALLAS, TX, 75228",103199807,"R"
129492,"2332 MOUNT HARMONY CHURCH ROAD","MATTHEWS","NC",28104,35.110345636,-80.6817097479999,492,"2332 MOUNT HARMONY CHURCH ROAD, MATTHEWS, NC, 28104","Match","Exact","2332 MOUNT HARMONY CHURCH RD, MATTHEWS, NC, 28104",635387532,"L"
129493,"2332 N 45TH STREET","OMAHA","NE",68104,41.280053847,-95.980594375,493,"2332 N 45TH STREET, OMAHA, NE, 68104","Match","Exact","2332 N 45TH ST, OMAHA, NE, 68104",116978778,"L"
129494,"2332 N 67TH STREET","WAUWATOSA","WI",53213,43.0613890540001,-87.9962666229999,494,"2332 N 67TH STREET, WAUWATOSA, WI, 53213","Match","Exact","2332 N 67TH ST, WAUWATOSA, WI, 53213",77731050,"R"
129495,"2332 N MILWAUKEE AVE / STE 104","CHICAGO","IL",60647,41.923559525,-87.698424932,495,"2332 N MILWAUKEE AVE / STE 104, CHICAGO, IL, 60647","Match","Non_Exact","2332 N MILWAUKEE AVE, CHICAGO, IL, 60647",111762626,"L"
129496,"2332 NE 17TH TERRACE","WILTON MANORS","FL",33305,26.1570453360001,-80.123890143,496,"2332 NE 17TH TERRACE, WILTON MANORS, FL, 33305","Match","Exact","2332 NE 17TH TER, WILTON MANORS, FL, 33305",114725286,"R"
129497,"2332 NORTH 116TH STREET","SEATTLE","WA",98133,47.7131445000001,-122.330653668,497,"2332 NORTH 116TH STREET, SEATTLE, WA, 98133","Match","Exact","2332 N 116TH ST, SEATTLE, WA, 98133",186579744,"L"
129498,"2332 NORTH EFFEL COURT","DECATUR","GA",30032,33.7205626080001,-84.289601488,498,"2332 NORTH EFFEL COURT, DECATUR, GA, 30032","Match","Non_Exact","2332 N EIFFEL CT, DECATUR, GA, 30032",23401899,"R"
129499,"2332 PRESTON PARK COURT","DECATUR","GA",30032,33.7206425950001,-84.3095138419999,499,"2332 PRESTON PARK COURT, DECATUR, GA, 30032","Match","Exact","2332 PRESTON PARK CT, DECATUR, GA, 30032",619387994,"L"
129500,"2332 RIDGE VIEW DRIVE","HURRICANE","UT",84737,37.1730909390001,-113.331182509,500,"2332 RIDGE VIEW DRIVE, HURRICANE, UT, 84737","Match","Exact","2332 RIDGE VIEW DR, HURRICANE, UT, 84737",166179104,"L"
