"ID","Address","City","State","Zip","lat","long","id","input_address","match_indicator","match_type","matched_address","tiger_line_id","tiger_side"
56501,"14 AUTUMN AVENUE","FREEPORT","FL",32439,30.492430515,-86.1616780749999,1,"14 AUTUMN AVENUE, FREEPORT, FL, 32439","Match","Exact","14 AUTUMN AVE, FREEPORT, FL, 32439",616252889,"R"
56502,"14 AUTUMN RIDGE ROAD","SOUTH SALEM","NY",10590,41.2850482470001,-73.574011503,2,"14 AUTUMN RIDGE ROAD, SOUTH SALEM, NY, 10590","Match","Exact","14 AUTUMN RIDGE RD, SOUTH SALEM, NY, 10590",640546257,"R"
56503,"14 AYNSLEY CT","MONTVILLE","NJ",7045,40.9071973600001,-74.3818463859999,3,"14 AYNSLEY CT, MONTVILLE, NJ, 7045","Match","Exact","14 AYNSLEY CT, MONTVILLE, NJ, 07045",60462048,"R"
56504,"14 BACK STREET P O BOX 218","NANTUCKET","MA",2554,41.2761490180001,-70.096406644,4,"14 BACK STREET P O BOX 218, NANTUCKET, MA, 2554","Match","Exact","14 BACK ST, NANTUCKET, MA, 02554",118730531,"R"
56505,"14 BANTA COURT","MAHWAH","NJ",7430,41.0967118240001,-74.154581793,5,"14 BANTA COURT, MAHWAH, NJ, 7430","Match","Exact","14 BANTA CT, MAHWAH, NJ, 07430",64400276,"L"
56506,"14 BARNARD PLACE","BOSTON","MA",2127,42.337170599,-71.0392725529999,6,"14 BARNARD PLACE, BOSTON, MA, 2127","Match","Exact","14 BARNARD PL, BOSTON, MA, 02127",85721158,"R"
56507,"14 BARTON RD","WELLESLEY HILLS","MA",2481,42.3176953290001,-71.244614207,7,"14 BARTON RD, WELLESLEY HILLS, MA, 2481","Match","Exact","14 BARTON RD, WELLESLEY HILLS, MA, 02481",624380364,"R"
56508,"14 BEACON COURT","HOLMDEL","NJ",7733,40.4185505470001,-74.147814207,8,"14 BEACON COURT, HOLMDEL, NJ, 7733","Match","Exact","14 BEACON CT, HOLMDEL, NJ, 07733",90499724,"R"
56509,"14 BEACON ST STE 604","BOSTON","MA",2108,42.358008227,-71.062549335,9,"14 BEACON ST STE 604, BOSTON, MA, 2108","Match","Exact","14 BEACON ST, BOSTON, MA, 02108",85719875,"L"
56510,"14 BEACON STREET SUITE 604","BOSTON","MA",2108,42.358008227,-71.062549335,10,"14 BEACON STREET SUITE 604, BOSTON, MA, 2108","Match","Exact","14 BEACON ST, BOSTON, MA, 02108",85719875,"L"
56511,"14 BEACON STREET SUITE 718","BOSTON","MA",2108,42.358008227,-71.062549335,11,"14 BEACON STREET SUITE 718, BOSTON, MA, 2108","Match","Exact","14 BEACON ST, BOSTON, MA, 02108",85719875,"L"
56512,"14 BEEKMAN TERRACE","SUMMIT","NJ",7901,40.7139132240001,-74.378503257,12,"14 BEEKMAN TERRACE, SUMMIT, NJ, 7901","Match","Exact","14 BEEKMAN TER, SUMMIT, NJ, 07901",647623648,"L"
56513,"14 BELIN VILLAGE","AVOCA","PA",18641,NA,NA,13,"14 BELIN VILLAGE, AVOCA, PA, 18641","No_Match",NA,NA,NA,NA
56514,"14 BELLEVIEW TERRACE","PRINCETON","NJ",8540,40.3362225880001,-74.7144084829999,14,"14 BELLEVIEW TERRACE, PRINCETON, NJ, 8540","Match","Exact","14 BELLEVIEW TER, PRINCETON, NJ, 08540",60190967,"L"
56515,"14 BELVEDERE LANE","LAKEWOOD","NJ",8701,40.1084108520001,-74.196592244,15,"14 BELVEDERE LANE, LAKEWOOD, NJ, 8701","Match","Exact","14 BELVEDERE LN, LAKEWOOD, NJ, 08701",617759802,"L"
56516,"14 BENTWOOD DRIVE","BORDERTOWN","NJ",8505,40.1283160460001,-74.681715291,16,"14 BENTWOOD DRIVE, BORDERTOWN, NJ, 8505","Match","Non_Exact","14 BENTWOOD DR, BORDENTOWN, NJ, 08505",134066239,"L"
56517,"14 BERLANT AVENUE","LINDEN","NJ",7036,40.645244093,-74.280518124,17,"14 BERLANT AVENUE, LINDEN, NJ, 7036","Match","Exact","14 BERLANT AVE, LINDEN, NJ, 07036",60574999,"R"
56518,"14 BLACKSTONE RIVER RD","WORCESTER","MA",1607,42.233209667,-71.795106537,18,"14 BLACKSTONE RIVER RD, WORCESTER, MA, 1607","Match","Exact","14 BLACKSTONE RIVER RD, WORCESTER, MA, 01607",40012405,"R"
56519,"14 BLISS ROAD APARTMENT 2","NEWPORT","RI",2840,41.499138137,-71.305374872,19,"14 BLISS ROAD APARTMENT 2, NEWPORT, RI, 2840","Match","Exact","14 BLISS RD, NEWPORT, RI, 02840",47348785,"L"
56520,"14 BLOODY POINT ROAD","NEWINGTON","NH",3801,NA,NA,20,"14 BLOODY POINT ROAD, NEWINGTON, NH, 3801","No_Match",NA,NA,NA,NA
56521,"14 BLUE RIDGE","IRVINE","CA",92620,33.709577138,-117.764302594,21,"14 BLUE RIDGE, IRVINE, CA, 92620","Match","Exact","14 BLUE RIDGE, IRVINE, CA, 92620",144086623,"R"
56522,"14 BLUEBERRY LANE","METHUEN","MA",1844,42.7292645300001,-71.2280869159999,22,"14 BLUEBERRY LANE, METHUEN, MA, 1844","Match","Exact","14 BLUEBERRY LN, METHUEN, MA, 01844",637773343,"L"
56523,"14 BLUFF COURT","WHITE BLUFF","TN",37187,NA,NA,23,"14 BLUFF COURT, WHITE BLUFF, TN, 37187","No_Match",NA,NA,NA,NA
56524,"14 BOLAND RD","APALACHIN","NY",13732,42.0593946170001,-76.1215729,24,"14 BOLAND RD, APALACHIN, NY, 13732","Match","Exact","14 BOLAND RD, APALACHIN, NY, 13732",46711030,"R"
56525,"14 BON AIRE DRIVE","OLIVETTE","MO",63132,38.6614671730001,-90.3730025959999,25,"14 BON AIRE DRIVE, OLIVETTE, MO, 63132","Match","Exact","14 BON AIRE DR, OLIVETTE, MO, 63132",100131272,"R"
56526,"14 BOND LANE","BLOOMSBURG","PA",17815,41.0211758,-76.4240004389999,26,"14 BOND LANE, BLOOMSBURG, PA, 17815","Match","Exact","14 BOND LN, BLOOMSBURG, PA, 17815",623783252,"R"
56527,"14 BOWIE ROAD","ROLLING HILLS","CA",90274,33.757929668,-118.340807698,27,"14 BOWIE ROAD, ROLLING HILLS, CA, 90274","Match","Exact","14 BOWIE RD, ROLLING HILLS, CA, 90274",241244557,"L"
56528,"14 BOXWOOD CT","ORMOND BEACH","FL",32174,29.3082971260001,-81.0726951999999,28,"14 BOXWOOD CT, ORMOND BEACH, FL, 32174","Match","Exact","14 BOXWOOD CT, ORMOND BEACH, FL, 32174",94520439,"R"
56529,"14 BRETT COURT","TAYLORVILLE","IL",62568,39.53133274,-89.238597801,29,"14 BRETT COURT, TAYLORVILLE, IL, 62568","Match","Exact","14 BRETT CT, TAYLORVILLE, IL, 62568",99310728,"R"
56530,"14 BRIARHILL RD","CEDAR GROVE","NJ",7009,40.8470513440001,-74.2219594009999,30,"14 BRIARHILL RD, CEDAR GROVE, NJ, 7009","Match","Exact","14 BRIARHILL RD, CEDAR GROVE, NJ, 07009",63447824,"L"
56531,"14 BRIARWOOD LANE","BRIDGETON","NJ",8302,39.508274499,-75.178601339,31,"14 BRIARWOOD LANE, BRIDGETON, NJ, 8302","Match","Exact","14 BRIARWOOD LN, BRIDGETON, NJ, 08302",174117541,"R"
56532,"14 BRIDGE STREET","KIRKWOOD","NY",13795,42.0360988990001,-75.7961662609999,32,"14 BRIDGE STREET, KIRKWOOD, NY, 13795","Match","Exact","14 BRIDGE ST, KIRKWOOD, NY, 13795",46345769,"L"
56533,"14 BROADLEAF CT","BALTIMORE","MD",21234,39.386606726,-76.512633708,33,"14 BROADLEAF CT, BALTIMORE, MD, 21234","Match","Exact","14 BROADLEAF CT, BALTIMORE, MD, 21234",191477437,"L"
56534,"14 BROADMOOR DRIVE","MECHANICSBURG","PA",17055,40.18944731,-76.985600017,34,"14 BROADMOOR DRIVE, MECHANICSBURG, PA, 17055","Match","Exact","14 BROADMOOR DR, MECHANICSBURG, PA, 17055",60956802,"L"
56535,"14 BROOK STREET","KINGSTON","MA",2364,41.988673932,-70.727011636,35,"14 BROOK STREET, KINGSTON, MA, 2364","Match","Exact","14 BROOK ST, KINGSTON, MA, 02364",646708794,"L"
56536,"14 BROOKDALE COURT","VERONA","NJ",7044,40.826361992,-74.237170278,36,"14 BROOKDALE COURT, VERONA, NJ, 7044","Match","Exact","14 BROOKDALE CT, VERONA, NJ, 07044",63447926,"R"
56537,"14 BROOKWAY DRIVE","GREENVILLE","SC",29605,34.8249136420001,-82.407345386,37,"14 BROOKWAY DRIVE, GREENVILLE, SC, 29605","Match","Exact","14 BROOKWAY DR, GREENVILLE, SC, 29605",38300668,"R"
56538,"14 BUCKINGHAM DR","EAST BRUNSWICK","NJ",8816,40.408307329,-74.428446473,38,"14 BUCKINGHAM DR, EAST BRUNSWICK, NJ, 8816","Match","Exact","14 BUCKINGHAM DR, E BRUNSWICK, NJ, 08816",60313555,"L"
56539,"14 BUCKINGHAM DR","MANALAPAN","NJ",7726,40.2674271070001,-74.346259634,39,"14 BUCKINGHAM DR, MANALAPAN, NJ, 7726","Match","Exact","14 BUCKINGHAM DR, MANALAPAN, NJ, 07726",625727297,"L"
56540,"14 BUCKS CROSSING","TOLLAND","CT",6084,NA,NA,40,"14 BUCKS CROSSING, TOLLAND, CT, 6084","No_Match",NA,NA,NA,NA
56541,"14 BUNYAN DR","LIVINGSTON","NJ",7039,40.7798746120001,-74.311914948,41,"14 BUNYAN DR, LIVINGSTON, NJ, 7039","Match","Exact","14 BUNYAN DR, LIVINGSTON, NJ, 07039",63495246,"R"
56542,"14 BURNETT AVE","MAYS LANDING","NJ",8330,39.422437868,-74.791792565,42,"14 BURNETT AVE, MAYS LANDING, NJ, 8330","Match","Exact","14 BURNETT AVE, MAYS LANDING, NJ, 08330",202510487,"R"
56543,"14 BURNETT STREET","INMAN","SC",29349,35.055242594,-82.092312868,43,"14 BURNETT STREET, INMAN, SC, 29349","Match","Exact","14 BURNETT ST, INMAN, SC, 29349",19486964,"L"
56544,"14 BUTTERCUP LANE","JERICHO","VT",5465,44.5067876620001,-72.9699575619999,44,"14 BUTTERCUP LANE, JERICHO, VT, 5465","Match","Exact","14 BUTTERCUP LN, JERICHO, VT, 05465",135846360,"R"
56545,"14 CALDWELL COURT","DOVER","DE",19901,39.163465268,-75.502603162,45,"14 CALDWELL COURT, DOVER, DE, 19901","Match","Exact","14 CALDWELL CT, DOVER, DE, 19901",617130530,"R"
56546,"14 CALENDULA","RANCHO SANTA MARGARI","CA",92688,33.656654444,-117.581559553,46,"14 CALENDULA, RANCHO SANTA MARGARI, CA, 92688","Match","Non_Exact","14 CALENDULA, RANCHO SANTA MARGARITA, CA, 92688",144097373,"L"
56547,"14 CALYPSO COURT","GAITHERSBURG","MD",20879,39.16376267,-77.1753599369999,47,"14 CALYPSO COURT, GAITHERSBURG, MD, 20879","Match","Exact","14 CALYPSO CT, GAITHERSBURG, MD, 20879",62051359,"L"
56548,"14 CANDEE AVENUE","WEST HAVEN","CT",6516,41.2708123630001,-72.954915168,48,"14 CANDEE AVENUE, WEST HAVEN, CT, 6516","Match","Exact","14 CANDEE AVE, W HAVEN, CT, 06516",3700761,"L"
56549,"14 CARRIAGE LANE","WINCHESTER","MA",1890,42.4519412650001,-71.1794855799999,49,"14 CARRIAGE LANE, WINCHESTER, MA, 1890","Match","Exact","14 CARRIAGE LN, WINCHESTER, MA, 01890",86883778,"R"
56550,"14 CARVER STREET","VINALHAVEN","ME",4863,44.048970598,-68.8309859079999,50,"14 CARVER STREET, VINALHAVEN, ME, 4863","Match","Exact","14 CARVER ST, VINALHAVEN, ME, 04863",75553479,"L"
56551,"14 CATALPA STREET PO BOX 3266","WAKEFIELD","MA",1880,42.50689271,-71.058796953,51,"14 CATALPA STREET PO BOX 3266, WAKEFIELD, MA, 1880","Match","Exact","14 CATALPA ST, WAKEFIELD, MA, 01880",86904050,"L"
56552,"14 CEDAR CHASE COURT","CHESTERTOWN","MD",21620,39.216792055,-76.0580129959999,52,"14 CEDAR CHASE COURT, CHESTERTOWN, MD, 21620","Match","Non_Exact","14 CEDER CHASE CT, CHESTERTOWN, MD, 21620",68338437,"R"
56553,"14 CEDARWOOD ROAD","BILLERICA","MA",1821,42.5645589870001,-71.287243197,53,"14 CEDARWOOD ROAD, BILLERICA, MA, 1821","Match","Exact","14 CEDARWOOD RD, BILLERICA, MA, 01821",86896905,"L"
56554,"14 CENTRAL AVE NE","LEMARS","IA",51031,42.793288483,-96.166457753,54,"14 CENTRAL AVE NE, LEMARS, IA, 51031","Match","Non_Exact","14 CENTRAL AVE NE, LE MARS, IA, 51031",93328425,"R"
56555,"14 CHARING COURT","OWINGS MILLS","MD",21117,39.4608718740001,-76.7771150519999,55,"14 CHARING COURT, OWINGS MILLS, MD, 21117","Match","Exact","14 CHARING CT, OWINGS MILLS, MD, 21117",191561874,"L"
56556,"14 CHARLES HILL CIR","ORINDA","CA",94563,37.895101271,-122.168304375,56,"14 CHARLES HILL CIR, ORINDA, CA, 94563","Match","Exact","14 CHARLES HILL CIR, ORINDA, CA, 94563",192085959,"R"
56557,"14 CHERRYWOOD DR","LEWISTON","ME",4240,44.1068464370001,-70.149596146,57,"14 CHERRYWOOD DR, LEWISTON, ME, 4240","Match","Exact","14 CHERRYWOOD DR, LEWISTON, ME, 04240",77970284,"L"
56558,"14 CHERYL RD","BUFFALO","NY",14224,42.8133450340001,-78.740009148,58,"14 CHERYL RD, BUFFALO, NY, 14224","Match","Exact","14 CHERYL RD, BUFFALO, NY, 14224",48307942,"R"
56559,"14 CHESTER STREET","FRONT ROYAL","VA",22630,38.917919037,-78.190330979,59,"14 CHESTER STREET, FRONT ROYAL, VA, 22630","Match","Exact","14 CHESTER ST, FRONT ROYAL, VA, 22630",159074952,"L"
56560,"14 CHESTNUT ST","LUMBERTON","NJ",8048,39.964557131,-74.8074785589999,60,"14 CHESTNUT ST, LUMBERTON, NJ, 8048","Match","Exact","14 CHESTNUT ST, LUMBERTON, NJ, 08048",134076013,"R"
56561,"14 CHEVAL CT","FLORISSANT","MO",63031,38.807724309,-90.373849487,61,"14 CHEVAL CT, FLORISSANT, MO, 63031","Match","Exact","14 CHEVAL CT, FLORISSANT, MO, 63031",100182849,"L"
56562,"14 CHITTENDEN ROAD","FAIR LAWN","NJ",7410,40.9241239340001,-74.1287293249999,62,"14 CHITTENDEN ROAD, FAIR LAWN, NJ, 7410","Match","Exact","14 CHITTENDEN RD, FAIR LAWN, NJ, 07410",64405972,"L"
56563,"14 CHRYSTAL DRIVE","LEBANON","NJ",8833,40.608826224,-74.863524575,63,"14 CHRYSTAL DRIVE, LEBANON, NJ, 8833","Match","Exact","14 CHRYSTAL DR, LEBANON, NJ, 08833",60021509,"R"
56564,"14 CHURCH STREET","WARNER","NH",3278,43.2817731470001,-71.816548407,64,"14 CHURCH STREET, WARNER, NH, 3278","Match","Exact","14 CHURCH ST, WARNER, NH, 03278",117741866,"R"
56565,"14 CIMARRON TRAIL","PERKINS","OK",74059,35.9880916720001,-97.029566281,65,"14 CIMARRON TRAIL, PERKINS, OK, 74059","Match","Exact","14 CIMARRON TRL, PERKINS, OK, 74059",166379652,"R"
56566,"14 CIMARRON TRAILS","PERKINS","OK",74059,35.9880916720001,-97.029566281,66,"14 CIMARRON TRAILS, PERKINS, OK, 74059","Match","Exact","14 CIMARRON TRL, PERKINS, OK, 74059",166379652,"R"
56567,"14 CINDY LANE","CLIFTON PARK","NY",12065,42.848679728,-73.7660791929999,67,"14 CINDY LANE, CLIFTON PARK, NY, 12065","Match","Exact","14 CINDY LN, CLIFTON PARK, NY, 12065",18784036,"L"
56568,"14 CLARK LANE","MILTON","NY",12547,NA,NA,68,"14 CLARK LANE, MILTON, NY, 12547","No_Match",NA,NA,NA,NA
56569,"14 CLARK STREET","BELMONT","MA",2478,42.3930969040001,-71.175670907,69,"14 CLARK STREET, BELMONT, MA, 2478","Match","Exact","14 CLARK ST, BELMONT, MA, 02478",86891401,"L"
56570,"14 CLIFFORD RD","SELINSGROVE","PA",17870,40.8106502810001,-76.8985838089999,70,"14 CLIFFORD RD, SELINSGROVE, PA, 17870","Match","Exact","14 CLIFFORD RD, SELINSGROVE, PA, 17870",47813337,"L"
56571,"14 CLIFFORD ROAD","SELINSGROVE","PA",17870,40.8106502810001,-76.8985838089999,71,"14 CLIFFORD ROAD, SELINSGROVE, PA, 17870","Match","Exact","14 CLIFFORD RD, SELINSGROVE, PA, 17870",47813337,"L"
56572,"14 CLINTON STREET SUITE 7","SPRINGFIELD","VT",5156,43.2937214940001,-72.4780548429999,72,"14 CLINTON STREET SUITE 7, SPRINGFIELD, VT, 5156","Match","Exact","14 CLINTON ST, SPRINGFIELD, VT, 05156",139275155,"R"
56573,"14 COBBLE KNOLL DRIVE","SOUTH WALPOLE","MA",2071,42.0931061040001,-71.2816555169999,73,"14 COBBLE KNOLL DRIVE, SOUTH WALPOLE, MA, 2071","Match","Exact","14 COBBLE KNOLL DR, SOUTH WALPOLE, MA, 02071",87260882,"L"
56574,"14 COBBLE KNOLL DRIVE","WALPOLE","MA",2071,42.0931061040001,-71.2816555169999,74,"14 COBBLE KNOLL DRIVE, WALPOLE, MA, 2071","Match","Non_Exact","14 COBBLE KNOLL DR, SOUTH WALPOLE, MA, 02071",87260882,"L"
56575,"14 COLINA DRIVE","LA SELVA BEACH","CA",95076,36.9348110450001,-121.861242351,75,"14 COLINA DRIVE, LA SELVA BEACH, CA, 95076","Match","Exact","14 COLINA DR, LA SELVA BCH, CA, 95076",125511192,"L"
56576,"14 COLLINS RD","BETHANY","CT",6524,41.4055807770001,-73.0020893619999,76,"14 COLLINS RD, BETHANY, CT, 6524","Match","Exact","14 COLLINS RD, BETHANY, CT, 06524",3716837,"R"
56577,"14 COLONY RD","NEWPORT NEWS","VA",23602,37.115648585,-76.5136878879999,77,"14 COLONY RD, NEWPORT NEWS, VA, 23602","Match","Exact","14 COLONY RD, NEWPORT NEWS, VA, 23602",103751664,"R"
56578,"14 COMET RD","SYOSSET","NY",11791,40.7888080600001,-73.5031439269999,78,"14 COMET RD, SYOSSET, NY, 11791","Match","Exact","14 COMET RD, SYOSSET, NY, 11791",147641013,"L"
56579,"14 COMMERCIAL ST","ADAMS","MA",1220,42.6187918700001,-73.121054435,79,"14 COMMERCIAL ST, ADAMS, MA, 1220","Match","Exact","14 COMMERCIAL ST, ADAMS, MA, 01220",635538401,"R"
56580,"14 CONARD AVE","COLLINGSWOOD","NJ",8108,39.9138319240001,-75.061150464,80,"14 CONARD AVE, COLLINGSWOOD, NJ, 8108","Match","Exact","14 CONARD AVE, COLLINGSWOOD, NJ, 08108",134349979,"R"
56581,"14 CONCORD DRIVE","MARLBORO","NY",12542,41.60610602,-73.992692166,81,"14 CONCORD DRIVE, MARLBORO, NY, 12542","Match","Non_Exact","14 CONCORD ST, MARLBORO, NY, 12542",41885024,"R"
56582,"14 CONSTANT ROAD","HAMPTON","VA",23664,37.0796059670001,-76.276084832,82,"14 CONSTANT ROAD, HAMPTON, VA, 23664","Match","Exact","14 CONSTANT RD, HAMPTON, VA, 23664",103803474,"R"
56583,"14 CORMIER RD","BURLINGTON","MA",1803,42.4698318580001,-71.203271302,83,"14 CORMIER RD, BURLINGTON, MA, 1803","Match","Exact","14 CORMIER RD, BURLINGTON, MA, 01803",87081646,"L"
56584,"14 CORNWALL WAY","SAN LEANDRO","CA",94577,37.717588687,-122.146425934,84,"14 CORNWALL WAY, SAN LEANDRO, CA, 94577","Match","Exact","14 CORNWALL WAY, SAN LEANDRO, CA, 94577",606117593,"L"
56585,"14 CORRAL LANE","GOSHEN","NY",10924,41.4144133240001,-74.318456012,85,"14 CORRAL LANE, GOSHEN, NY, 10924","Match","Exact","14 CORRAL LN, GOSHEN, NY, 10924",636812322,"L"
56586,"14 CORTLAND ROAD","MONSEY","NY",10952,41.143577518,-74.078438207,86,"14 CORTLAND ROAD, MONSEY, NY, 10952","Match","Exact","14 CORTLAND RD, MONSEY, NY, 10952",124592614,"L"
56587,"14 COTTAGE PLACE DRIVE","ROBBINSVILLE","NJ",8691,40.2021851170001,-74.5993814669999,87,"14 COTTAGE PLACE DRIVE, ROBBINSVILLE, NJ, 8691","Match","Exact","14 COTTAGE PLACE DR, ROBBINSVILLE, NJ, 08691",60193070,"L"
56588,"14 COUNTRY CLUB LN","MARLTON","NJ",8053,39.835446667,-74.871638817,88,"14 COUNTRY CLUB LN, MARLTON, NJ, 8053","Match","Exact","14 COUNTRY CLUB LN, MARLTON, NJ, 08053",134037755,"R"
56589,"14 COUNTY RD N9146","SNOWFLAKE","AZ",85937,NA,NA,89,"14 COUNTY RD N9146, SNOWFLAKE, AZ, 85937","No_Match",NA,NA,NA,NA
56590,"14 COURT STREET","WAKEFIELD","MA",1880,42.513778109,-71.068879571,90,"14 COURT STREET, WAKEFIELD, MA, 1880","Match","Exact","14 COURT ST, WAKEFIELD, MA, 01880",86903663,"L"
56591,"14 CRABAPPLE COVE","HAMPTON","NJ",8827,40.7008387320001,-74.965007971,91,"14 CRABAPPLE COVE, HAMPTON, NJ, 8827","Match","Exact","14 CRABAPPLE COVE, HAMPTON, NJ, 08827",635445425,"R"
56592,"14 CREASTVIEW DR","AKRON","PA",17501,40.162411476,-76.2148838049999,92,"14 CREASTVIEW DR, AKRON, PA, 17501","Match","Non_Exact","14 CRESTVIEW DR, AKRON, PA, 17501",179656800,"L"
56593,"14 CREEKSIDE DRIVE","ENOLA","PA",17025,40.2782975370001,-76.927688163,93,"14 CREEKSIDE DRIVE, ENOLA, PA, 17025","Match","Exact","14 CREEKSIDE DR, ENOLA, PA, 17025",623597638,"L"
56594,"14 CREST AVE","ELMONT","NY",11003,40.7086887350001,-73.692600737,94,"14 CREST AVE, ELMONT, NY, 11003","Match","Exact","14 CREST AVE, ELMONT, NY, 11003",147666839,"L"
56595,"14 CREST DRIVE","WRANGELL","AK",99929,56.474674916,-132.380962932,95,"14 CREST DRIVE, WRANGELL, AK, 99929","Match","Exact","14 CREST DR, WRANGELL, AK, 99929",191279082,"L"
56596,"14 CRESTWOOD COURT","MONROE TOWNSHIP","NJ",8831,40.348828429,-74.4637682119999,96,"14 CRESTWOOD COURT, MONROE TOWNSHIP, NJ, 8831","Match","Non_Exact","14 CRESTWOOD LN, MONROE TOWNSHIP, NJ, 08831",637427629,"L"
56597,"14 CROCKETT","IRVINE","CA",92620,33.70011133,-117.764426544,97,"14 CROCKETT, IRVINE, CA, 92620","Match","Exact","14 CROCKETT, IRVINE, CA, 92620",144058245,"R"
56598,"14 CROWN BEND","SUGAR LAND","TX",77498,29.6329968200001,-95.644674885,98,"14 CROWN BEND, SUGAR LAND, TX, 77498","Match","Exact","14 CROWN BND, SUGAR LAND, TX, 77498",648705796,"R"
56599,"14 CYPRESS DRIVE","PARLIN","NJ",8859,40.4565815940001,-74.3120111219999,99,"14 CYPRESS DRIVE, PARLIN, NJ, 8859","Match","Exact","14 CYPRESS DR, PARLIN, NJ, 08859",60362572,"L"
56600,"14 CYPRESS DRIVE","SCHERERVILLE","IN",46375,41.522589505,-87.480907723,100,"14 CYPRESS DRIVE, SCHERERVILLE, IN, 46375","Match","Exact","14 CYPRESS DR, SCHERERVILLE, IN, 46375",98458673,"R"
56601,"14 DALEWOOD LN","KINGS PARK","NY",11754,40.8887506400001,-73.235053045,101,"14 DALEWOOD LN, KINGS PARK, NY, 11754","Match","Exact","14 DALEWOOD LN, KINGS PARK, NY, 11754",113980569,"R"
56602,"14 DAWN CIR APT A","LONGVIEW","TX",75605,32.5517401000001,-94.794267251,102,"14 DAWN CIR APT A, LONGVIEW, TX, 75605","Match","Exact","14 DAWN CIR, LONGVIEW, TX, 75605",141107594,"L"
56603,"14 DEL BONIS DRIVE","WEST KINGSTON","RI",2892,41.4871873000001,-71.632648731,103,"14 DEL BONIS DRIVE, WEST KINGSTON, RI, 2892","Match","Exact","14 DEL BONIS DR, WEST KINGSTON, RI, 02892",58909867,"L"
56604,"14 DEMAREST ROAD","LIVINGSTON","NJ",7039,40.7868991380001,-74.326714467,104,"14 DEMAREST ROAD, LIVINGSTON, NJ, 7039","Match","Exact","14 DEMAREST RD, LIVINGSTON, NJ, 07039",63458097,"R"
56605,"14 DICKENS DRIVE","PRINCETON JUNCTION","NJ",8550,40.269918139,-74.612058987,105,"14 DICKENS DRIVE, PRINCETON JUNCTION, NJ, 8550","Match","Exact","14 DICKENS DR, PRINCETON JCT, NJ, 08550",60193553,"R"
56606,"14 DODD ROAD","WEST CALDWELL","NJ",7006,40.84865461,-74.289734514,106,"14 DODD ROAD, WEST CALDWELL, NJ, 7006","Match","Exact","14 DODD RD, W CALDWELL, NJ, 07006",63482796,"R"
56607,"14 DOROTHY DRIVE","EPPING","NH",3042,43.0449072580001,-71.046121856,107,"14 DOROTHY DRIVE, EPPING, NH, 3042","Match","Non_Exact","14 DOROTHY RD, EPPING, NH, 03042",113692787,"L"
56608,"14 DUDLEY RD","TOWNSEND","MA",1469,42.6769571670001,-71.7006605129999,108,"14 DUDLEY RD, TOWNSEND, MA, 1469","Match","Exact","14 DUDLEY RD, TOWNSEND, MA, 01469",646638302,"R"
56609,"14 DUKE STREET","PROVIDENCE","RI",2908,41.8336267550001,-71.424817661,109,"14 DUKE STREET, PROVIDENCE, RI, 2908","Match","Exact","14 DUKE ST, PROVIDENCE, RI, 02908",47458683,"L"
56610,"14 E 9TH STREET","EUDORA","KS",66025,38.943931563,-95.099058068,110,"14 E 9TH STREET, EUDORA, KS, 66025","Match","Non_Exact","14 W 9TH ST, EUDORA, KS, 66025",17678778,"L"
56611,"14 E BIRCH AVE","FLAGSTAFF","AZ",86001,35.1993257400001,-111.648049973,111,"14 E BIRCH AVE, FLAGSTAFF, AZ, 86001","Match","Exact","14 E BIRCH AVE, FLAGSTAFF, AZ, 86001",188860940,"R"
56612,"14 E CAMP MCDONALD","PROSPECT HEIGHTS","IL",60070,42.0952796550001,-87.9354427869999,112,"14 E CAMP MCDONALD, PROSPECT HEIGHTS, IL, 60070","Match","Non_Exact","14 E CAMP MCDONALD RD, PROSPECT HEIGHTS, IL, 60070",111718396,"L"
56613,"14 E LINCOLN ST","VERONA","NJ",7044,40.8332665880001,-74.2503376779999,113,"14 E LINCOLN ST, VERONA, NJ, 7044","Match","Exact","14 E LINCOLN ST, VERONA, NJ, 07044",63472254,"R"
56614,"14 E MOUNT VERNON PLACE APT 303","BALTIMORE","MD",21202,NA,NA,114,"14 E MOUNT VERNON PLACE APT 303, BALTIMORE, MD, 21202","No_Match",NA,NA,NA,NA
56615,"14 E WASHINGTON STREET","ORLANDO","FL",32801,28.543538606,-81.3788781069999,115,"14 E WASHINGTON STREET, ORLANDO, FL, 32801","Match","Exact","14 E WASHINGTON ST, ORLANDO, FL, 32801",94282450,"R"
56616,"14 EAST 150TH STREET","HARVEY","IL",60426,41.617164981,-87.655139648,116,"14 EAST 150TH STREET, HARVEY, IL, 60426","Match","Exact","14 E 150TH ST, HARVEY, IL, 60426",111705596,"R"
56617,"14 EAST 38 TH  STREET 11 FLOOR","NEW YORK","NY",10016,40.7504768360001,-73.981588485,117,"14 EAST 38 TH  STREET 11 FLOOR, NEW YORK, NY, 10016","Match","Non_Exact","14 E 38TH ST, NEW YORK, NY, 10016",59661973,"R"
56618,"14 EAST JUDSON ST","PONTIAC","MI",48342,42.6334942560001,-83.290291891,118,"14 EAST JUDSON ST, PONTIAC, MI, 48342","Match","Exact","14 E JUDSON ST, PONTIAC, MI, 48342",69705857,"R"
56619,"14 EAST SMILEYAVE","SHELBY","OH",44875,NA,NA,119,"14 EAST SMILEYAVE, SHELBY, OH, 44875","No_Match",NA,NA,NA,NA
56620,"14 ECHO DRIVE","BARRINGTON","RI",2806,41.7378088670001,-71.3381697299999,120,"14 ECHO DRIVE, BARRINGTON, RI, 2806","Match","Exact","14 ECHO DR, BARRINGTON, RI, 02806",46479176,"R"
56621,"14 EFFIE LANE","MARTINSBURG","WV",25404,39.5382046600001,-77.905291265,121,"14 EFFIE LANE, MARTINSBURG, WV, 25404","Match","Exact","14 EFFIE LN, MARTINSBURG, WV, 25404",618010468,"R"
56622,"14 EIGHTH AVE","WAREHAM","MA",2571,41.7478861480001,-70.741520486,122,"14 EIGHTH AVE, WAREHAM, MA, 2571","Match","Exact","14 8TH AVE, WAREHAM, MA, 02571",87424890,"L"
56623,"14 ELFEN WAY","THE WOODLANDS","TX",77382,30.1878027750001,-95.55886835,123,"14 ELFEN WAY, THE WOODLANDS, TX, 77382","Match","Exact","14 ELFEN WAY, THE WOODLANDS, TX, 77382",79340438,"L"
56624,"14 ELIAS PLACE","STATEN ISLAND","NY",10314,40.6231765150001,-74.1305681009999,124,"14 ELIAS PLACE, STATEN ISLAND, NY, 10314","Match","Exact","14 ELIAS PL, STATEN ISLAND, NY, 10314",652648355,"R"
56625,"14 ELK STREET APT 2D","HEMPSTEAD","NY",11550,40.7110985260001,-73.617588455,125,"14 ELK STREET APT 2D, HEMPSTEAD, NY, 11550","Match","Exact","14 ELK ST, HEMPSTEAD, NY, 11550",147627341,"R"
56626,"14 ELLSWORTH STREET","CLIFTON","NJ",7012,40.852878511,-74.1518908369999,126,"14 ELLSWORTH STREET, CLIFTON, NJ, 7012","Match","Exact","14 ELLSWORTH ST, CLIFTON, NJ, 07012",65251457,"R"
56627,"14 ELMHURST PLACE","PINEHURST","NC",28374,35.1823520340001,-79.4512650309999,127,"14 ELMHURST PLACE, PINEHURST, NC, 28374","Match","Exact","14 ELMHURST PL, PINEHURST, NC, 28374",20310663,"R"
56628,"14 ELWOOD RD","CENTEREACH","NY",11720,40.8783809020001,-73.0764168379999,128,"14 ELWOOD RD, CENTEREACH, NY, 11720","Match","Exact","14 ELWOOD RD, CENTEREACH, NY, 11720",114002166,"R"
56629,"14 EMMA PLACE","EATONTOWN","NJ",7724,40.2893696960001,-74.060907057,129,"14 EMMA PLACE, EATONTOWN, NJ, 7724","Match","Exact","14 EMMA PL, EATONTOWN, NJ, 07724",90490646,"L"
56630,"14 ERSKINE DRIVE","MORRISTOWN","NJ",7960,40.784597643,-74.478466007,130,"14 ERSKINE DRIVE, MORRISTOWN, NJ, 7960","Match","Exact","14 ERSKINE DR, MORRISTOWN, NJ, 07960",60443432,"L"
56631,"14 ESHER WAY","EGG HARBOR TOWNSHIP","NJ",8234,39.4322604540001,-74.6209775739999,131,"14 ESHER WAY, EGG HARBOR TOWNSHIP, NJ, 8234","Match","Exact","14 ESHER WAY, EGG HARBOR TOWNSHIP, NJ, 08234",202507125,"R"
56632,"14 ESTATE DRIVE","WANTAGE","NJ",7461,41.200537404,-74.663753,132,"14 ESTATE DRIVE, WANTAGE, NJ, 7461","Match","Exact","14 ESTATE DR, WANTAGE, NJ, 07461",98010615,"L"
56633,"14 ETTIE DR","MILLVILLE","NJ",8332,39.396723755,-75.007112094,133,"14 ETTIE DR, MILLVILLE, NJ, 8332","Match","Exact","14 ETTIE DR, MILLVILLE, NJ, 08332",617270974,"R"
56634,"14 EUCLID STREET","BOSTON","MA",2124,42.2886294370001,-71.07140545,134,"14 EUCLID STREET, BOSTON, MA, 2124","Match","Exact","14 EUCLID ST, BOSTON, MA, 02124",85705999,"L"
56635,"14 EVERGREEN LANE","FESTUS","MO",63028,NA,NA,135,"14 EVERGREEN LANE, FESTUS, MO, 63028","No_Match",NA,NA,NA,NA
56636,"14 EVERGREEN ST","CHELMSFORD","MA",1824,42.61328816,-71.3341565979999,136,"14 EVERGREEN ST, CHELMSFORD, MA, 1824","Match","Exact","14 EVERGREEN ST, CHELMSFORD, MA, 01824",86893695,"L"
56637,"14 FACTORY RD","GOULDSBORO","ME",4607,44.4338764020001,-68.114020121,137,"14 FACTORY RD, GOULDSBORO, ME, 4607","Match","Exact","14 FACTORY RD, GOULDSBORO, ME, 04607",110257109,"L"
56638,"14 FAIR ACRES COVE","JACKSON","TN",38305,35.6883068550001,-88.8263660709999,138,"14 FAIR ACRES COVE, JACKSON, TN, 38305","Match","Exact","14 FAIR ACRES COVE, JACKSON, TN, 38305",21320445,"R"
56639,"14 FAIRLAWN CT","EAST AURORA","NY",14052,42.758919936,-78.6269790329999,139,"14 FAIRLAWN CT, EAST AURORA, NY, 14052","Match","Exact","14 FAIRLAWN CT, EAST AURORA, NY, 14052",48314287,"L"
56640,"14 FAIRVIEW AVE","SOUTH ORANGE","NJ",7079,40.744440249,-74.250286409,140,"14 FAIRVIEW AVE, SOUTH ORANGE, NJ, 7079","Match","Exact","14 FAIRVIEW AVE, SOUTH ORANGE, NJ, 07079",63463046,"L"
56641,"14 FAIRVIEW AVENUE","SOUTH ORANGE","NJ",7079,40.744440249,-74.250286409,141,"14 FAIRVIEW AVENUE, SOUTH ORANGE, NJ, 7079","Match","Exact","14 FAIRVIEW AVE, SOUTH ORANGE, NJ, 07079",63463046,"L"
56642,"14 FEESTONE ST","GREENVILLE","SC",29605,NA,NA,142,"14 FEESTONE ST, GREENVILLE, SC, 29605","No_Match",NA,NA,NA,NA
56643,"14 FERGUSON CT","PALM COAST","FL",32137,29.5689835740001,-81.208297301,143,"14 FERGUSON CT, PALM COAST, FL, 32137","Match","Exact","14 FERGUSON CT, PALM COAST, FL, 32137",94950272,"L"
56644,"14 FILLOW STREET","WESTPORT","CT",6880,41.1601079590001,-73.3589455489999,144,"14 FILLOW STREET, WESTPORT, CT, 6880","Match","Exact","14 FILLOW ST, WESTPORT, CT, 06880",3238128,"R"
56645,"14 FISHER RD","ROSSVILLE","GA",30741,34.937325764,-85.2970655399999,145,"14 FISHER RD, ROSSVILLE, GA, 30741","Match","Exact","14 FISHER RD, ROSSVILLE, GA, 30741",66733570,"L"
56646,"14 FOERY DR","UTICA","NY",13501,43.078208074,-75.273727618,146,"14 FOERY DR, UTICA, NY, 13501","Match","Exact","14 FOERY DR, UTICA, NY, 13501",171579533,"L"
56647,"14 FOREST AVE SUITE 22","CALDWELL","NJ",7006,40.8389843900001,-74.2732665,147,"14 FOREST AVE SUITE 22, CALDWELL, NJ, 7006","Match","Exact","14 FOREST AVE, CALDWELL, NJ, 07006",63459342,"R"
56648,"14 FOREST AVE","CALDWELL","NJ",7006,40.8389843900001,-74.2732665,148,"14 FOREST AVE, CALDWELL, NJ, 7006","Match","Exact","14 FOREST AVE, CALDWELL, NJ, 07006",63459342,"R"
56649,"14 FOUNDRY ROAD","SHARON","MA",2067,42.076494274,-71.2058418139999,149,"14 FOUNDRY ROAD, SHARON, MA, 2067","Match","Exact","14 FOUNDRY RD, SHARON, MA, 02067",87277767,"R"
56650,"14 FOXTAIL CIRCLE","ENGLEWOOD","CO",80113,39.6518847500001,-104.955319849,150,"14 FOXTAIL CIRCLE, ENGLEWOOD, CO, 80113","Match","Exact","14 FOXTAIL CIR, ENGLEWOOD, CO, 80113",177526889,"R"
56651,"14 GALAHAD WAY","NORTH EASTON","MA",2356,42.0345821510001,-71.129154308,151,"14 GALAHAD WAY, NORTH EASTON, MA, 2356","Match","Exact","14 GALAHAD WAY, NORTH EASTON, MA, 02356",46765558,"L"
56652,"14 GARNET","IRVINE","CA",92620,33.7241425300001,-117.747017277,152,"14 GARNET, IRVINE, CA, 92620","Match","Exact","14 GARNET, IRVINE, CA, 92620",144140846,"R"
56653,"14 GARRISON AVENUE","SOMERVILLE","MA",2144,42.4048921900001,-71.130762884,153,"14 GARRISON AVENUE, SOMERVILLE, MA, 2144","Match","Exact","14 GARRISON AVE, SOMERVILLE, MA, 02144",86889738,"L"
56654,"14 GARY DR","ENFIELD","CT",6082,42.012234044,-72.566813097,154,"14 GARY DR, ENFIELD, CT, 6082","Match","Exact","14 GARY DR, ENFIELD, CT, 06082",648839832,"R"
56655,"14 GASTON ROAD","MORRISTOWN","NJ",7960,40.807435551,-74.526027224,155,"14 GASTON ROAD, MORRISTOWN, NJ, 7960","Match","Exact","14 GASTON RD, MORRISTOWN, NJ, 07960",60441458,"R"
56656,"14 GERDES AVENUE","WEST ORANGE","NJ",7052,40.8244789720001,-74.252821621,156,"14 GERDES AVENUE, WEST ORANGE, NJ, 7052","Match","Exact","14 GERDES AVE, WEST ORANGE, NJ, 07052",63483284,"L"
56657,"14 GLEASON ST","BOSTON","MA",2121,42.2967553450001,-71.081509689,157,"14 GLEASON ST, BOSTON, MA, 2121","Match","Exact","14 GLEASON ST, BOSTON, MA, 02121",85701679,"L"
56658,"14 GLEN OAK ROAD","FREDERICKSBURG","VA",22405,38.328165074,-77.4233983409999,158,"14 GLEN OAK ROAD, FREDERICKSBURG, VA, 22405","Match","Exact","14 GLEN OAK RD, FREDERICKSBURG, VA, 22405",615265275,"L"
56659,"14 GLEN ROAD","WEST ORANGE","NJ",7052,40.7722105490001,-74.248789334,159,"14 GLEN ROAD, WEST ORANGE, NJ, 7052","Match","Exact","14 GLEN RD, WEST ORANGE, NJ, 07052",63471986,"R"
56660,"14 GLEN STREET STE 308","GLEN COVE","NY",11542,40.8640758500001,-73.631459464,160,"14 GLEN STREET STE 308, GLEN COVE, NY, 11542","Match","Exact","14 GLEN ST, GLEN COVE, NY, 11542",147658093,"R"
56661,"14 GOETHALS DR","ROCHESTER","NY",14616,43.2338187460001,-77.6849921529999,161,"14 GOETHALS DR, ROCHESTER, NY, 14616","Match","Exact","14 GOETHALS DR, ROCHESTER, NY, 14616",14526284,"R"
56662,"14 GOLDEN GATE LANE","SHIRLEY","NY",11967,40.760023489,-72.878612747,162,"14 GOLDEN GATE LANE, SHIRLEY, NY, 11967","Match","Exact","14 GOLDEN GATE LN, SHIRLEY, NY, 11967",114019370,"L"
56663,"14 GOLDENROD","IRVINE","CA",92614,33.671752269,-117.798736406,163,"14 GOLDENROD, IRVINE, CA, 92614","Match","Exact","14 GOLDENROD, IRVINE, CA, 92614",616893847,"R"
56664,"14 GRAND STREET","PORT JERVIS","NY",12771,41.3819155360001,-74.705948925,164,"14 GRAND STREET, PORT JERVIS, NY, 12771","Match","Exact","14 GRAND ST, PORT JERVIS, NY, 12771",124385046,"L"
56665,"14 GRAYSTONE  CT","BLOOMINGTON","IL",61704,40.511665844,-88.928892989,165,"14 GRAYSTONE  CT, BLOOMINGTON, IL, 61704","Match","Exact","14 GRAYSTONE CT, BLOOMINGTON, IL, 61704",20556661,"L"
56666,"14 GREEN HILL ROAD","GOLDENS BRIDGE","NY",10526,41.2994740020001,-73.6715824619999,166,"14 GREEN HILL ROAD, GOLDENS BRIDGE, NY, 10526","Match","Exact","14 GREEN HILL RD, GOLDENS BRG, NY, 10526",139783577,"L"
56667,"14 GRIFFIN ST","WARD","AR",72176,35.0277271250001,-91.95653538,167,"14 GRIFFIN ST, WARD, AR, 72176","Match","Exact","14 GRIFFIN ST, WARD, AR, 72176",79714532,"R"
56668,"14 GROVELAND ST APT 3","MATTAPAN","MA",2126,42.2719496240001,-71.0771989689999,168,"14 GROVELAND ST APT 3, MATTAPAN, MA, 2126","Match","Exact","14 GROVELAND ST, MATTAPAN, MA, 02126",85706150,"L"
56669,"14 HALL ST","RANDOLPH","MA",2368,42.19391004,-71.061629871,169,"14 HALL ST, RANDOLPH, MA, 2368","Match","Exact","14 HALL ST, RANDOLPH, MA, 02368",87264983,"L"
56670,"14 HARBOR DRIVE","LAKE WORTH","FL",33460,26.6421024910001,-80.0470226099999,170,"14 HARBOR DRIVE, LAKE WORTH, FL, 33460","Match","Exact","14 HARBOR DR, LAKE WORTH, FL, 33460",115281629,"R"
56671,"14 HARVARD PLACE","BROOKLINE","MA",2446,42.336182921,-71.1209305799999,171,"14 HARVARD PLACE, BROOKLINE, MA, 2446","Match","Exact","14 HARVARD PL, BROOKLINE, MA, 02446",87245288,"L"
56672,"14 HASKEL DR","PRINCETON JUNCTION","NJ",8550,40.291655459,-74.646563994,172,"14 HASKEL DR, PRINCETON JUNCTION, NJ, 8550","Match","Exact","14 HASKEL DR, PRINCETON JCT, NJ, 08550",60187822,"R"
56673,"14 HASTING ROAD","LEXINGTON","MA",2421,NA,NA,173,"14 HASTING ROAD, LEXINGTON, MA, 2421","No_Match",NA,NA,NA,NA
56674,"14 HEATH PLACE","NEWPORT NEWS","VA",23606,37.0749293110001,-76.4920159819999,174,"14 HEATH PLACE, NEWPORT NEWS, VA, 23606","Match","Exact","14 HEATH PL, NEWPORT NEWS, VA, 23606",103751986,"L"
56675,"14 HEATHCLIFF ROAD","RUMSON","NJ",7760,40.3538460250001,-74.00354247,175,"14 HEATHCLIFF ROAD, RUMSON, NJ, 7760","Match","Exact","14 HEATHCLIFF RD, RUMSON, NJ, 07760",90453041,"R"
56676,"14 HELEN AVENUE","COVENTRY","RI",2816,41.6727451190001,-71.5684386729999,176,"14 HELEN AVENUE, COVENTRY, RI, 2816","Match","Exact","14 HELEN AVE, COVENTRY, RI, 02816",159155881,"R"
56677,"14 HEMLOCK DRIVE","CLIFTON PARK","NY",12065,42.8510166930001,-73.807689823,177,"14 HEMLOCK DRIVE, CLIFTON PARK, NY, 12065","Match","Exact","14 HEMLOCK DR, CLIFTON PARK, NY, 12065",18774773,"R"
56678,"14 HEMLOCK LN","AMHERST","NY",14226,42.976748892,-78.8043431999999,178,"14 HEMLOCK LN, AMHERST, NY, 14226","Match","Exact","14 HEMLOCK LN, AMHERST, NY, 14226",48295649,"L"
56679,"14 HICKORY LN","IPSWICH","MA",1938,42.6742474700001,-70.925622779,179,"14 HICKORY LN, IPSWICH, MA, 1938","Match","Exact","14 HICKORY LN, IPSWICH, MA, 01938",86670499,"L"
56680,"14 HIGH MOUNTAIN TRAIL","LINCOLN PARK","NJ",7035,40.918729725,-74.308095435,180,"14 HIGH MOUNTAIN TRAIL, LINCOLN PARK, NJ, 7035","Match","Exact","14 HIGH MTN TRL, LINCOLN PARK, NJ, 07035",60453930,"L"
56681,"14 HIGH RIDGE ROAD","TOPSFIELD","MA",1983,42.621983078,-70.9366308369999,181,"14 HIGH RIDGE ROAD, TOPSFIELD, MA, 1983","Match","Exact","14 HIGH RIDGE RD, TOPSFIELD, MA, 01983",86674186,"R"
56682,"14 HIGH STREET","ASHAWAY","RI",2804,41.4244059580001,-71.7883940949999,182,"14 HIGH STREET, ASHAWAY, RI, 2804","Match","Exact","14 HIGH ST, ASHAWAY, RI, 02804",58913344,"R"
56683,"14 HIGH VIEW LANE","MERTZTOWN","PA",19539,40.4559822570001,-75.7281872579999,183,"14 HIGH VIEW LANE, MERTZTOWN, PA, 19539","Match","Non_Exact","14 HIGHVIEW LN, MERTZTOWN, PA, 19539",80450107,"R"
56684,"14 HILLCREST ST","LEOMINISTER","MA",1453,42.553217299,-71.770247298,184,"14 HILLCREST ST, LEOMINISTER, MA, 1453","Match","Non_Exact","14 HILLCREST ST, LEOMINSTER, MA, 01453",40150966,"L"
56685,"14 HILLSIDE AVENUE","LYNBROOK","NY",11563,40.663477475,-73.678406421,185,"14 HILLSIDE AVENUE, LYNBROOK, NY, 11563","Match","Exact","14 HILLSIDE AVE, LYNBROOK, NY, 11563",147670907,"R"
56686,"14 HOMESTEAD RD","SAGAMORE BEACH","MA",2562,41.782543198,-70.539383029,186,"14 HOMESTEAD RD, SAGAMORE BEACH, MA, 2562","Match","Exact","14 HOMESTEAD RD, SAGAMORE BCH, MA, 02562",121620193,"R"
56687,"14 HULL STREET","RANDOLPH","VT",5060,43.920169705,-72.6575445249999,187,"14 HULL STREET, RANDOLPH, VT, 5060","Match","Exact","14 HULL ST, RANDOLPH, VT, 05060",181158106,"R"
56688,"14 HUNTINGDON COURT","UPPER CHICHESTER","PA",19061,39.8367617930001,-75.4682059739999,188,"14 HUNTINGDON COURT, UPPER CHICHESTER, PA, 19061","Match","Non_Exact","14 HUNTINGTON CT, UPPER CHICHESTER, PA, 19061",606685798,"R"
56689,"14 HUNTINGTON RD","EDISON","NJ",8820,40.568794569,-74.3660526199999,189,"14 HUNTINGTON RD, EDISON, NJ, 8820","Match","Exact","14 HUNTINGTON RD, EDISON, NJ, 08820",60361905,"R"
56690,"14 ICEHOUSE LN","ROCKLAND","MA",2370,NA,NA,190,"14 ICEHOUSE LN, ROCKLAND, MA, 2370","No_Match",NA,NA,NA,NA
56691,"14 IDLE DAY DRIVE","CENTERPORT","NY",11721,40.902679768,-73.365925701,191,"14 IDLE DAY DRIVE, CENTERPORT, NY, 11721","Match","Exact","14 IDLE DAY DR, CENTERPORT, NY, 11721",113964208,"R"
56692,"14 IMPERIAL DRIVE","LOUDONVILLE","NY",12211,42.6990481510001,-73.7546210469999,192,"14 IMPERIAL DRIVE, LOUDONVILLE, NY, 12211","Match","Exact","14 IMPERIAL DR, LOUDONVILLE, NY, 12211",18309857,"L"
56693,"14 IRWIN STREET","LANESBOROUGH","MA",1237,42.4944456530001,-73.2360188549999,193,"14 IRWIN STREET, LANESBOROUGH, MA, 1237","Match","Exact","14 IRWIN ST, LANESBOROUGH, MA, 01237",3978323,"R"
56694,"14 JACOB DR","PRINCETON JCT","NJ",8550,40.29113341,-74.631286559,194,"14 JACOB DR, PRINCETON JCT, NJ, 8550","Match","Exact","14 JACOB DR, PRINCETON JCT, NJ, 08550",60173152,"R"
56695,"14 JEANETTI DR","DERBY","CT",6418,41.3226418250001,-73.053638795,195,"14 JEANETTI DR, DERBY, CT, 6418","Match","Exact","14 JEANETTI DR, DERBY, CT, 06418",648575209,"R"
56696,"14 JEFFERSON AVE","SHARON","MA",2067,42.1251045550001,-71.149005245,196,"14 JEFFERSON AVE, SHARON, MA, 2067","Match","Exact","14 JEFFERSON AVE, SHARON, MA, 02067",87263094,"R"
56697,"14 JEREMY WAY","OLD BRIDGE","NJ",8857,40.3505941760001,-74.352880187,197,"14 JEREMY WAY, OLD BRIDGE, NJ, 8857","Match","Exact","14 JEREMY WAY, OLD BRIDGE, NJ, 08857",60317104,"R"
56698,"14 JOAN DRIVE","NEWTOWN","CT",6470,41.37891195,-73.294970738,198,"14 JOAN DRIVE, NEWTOWN, CT, 6470","Match","Exact","14 JOAN DR, NEWTOWN, CT, 06470",601840548,"L"
56699,"14 JOELSON COURT","ALBANY","NY",12209,42.645306846,-73.794090244,199,"14 JOELSON COURT, ALBANY, NY, 12209","Match","Exact","14 JOELSON CT, ALBANY, NY, 12209",18309398,"L"
56700,"14 JOHN STREET","SALINAS","CA",93901,36.6709211690001,-121.654136106,200,"14 JOHN STREET, SALINAS, CA, 93901","Match","Exact","14 JOHN ST, SALINAS, CA, 93901",196819980,"R"
56701,"14 JONELL","BELLA VISTA","AR",72715,36.452925921,-94.2539463689999,201,"14 JONELL, BELLA VISTA, AR, 72715","Match","Non_Exact","14 JONELL LN, BELLA VISTA, AR, 72715",47821886,"R"
56702,"14 JONES AVE","DEPTFORD","NJ",8096,39.818752121,-75.1020872839999,202,"14 JONES AVE, DEPTFORD, NJ, 8096","Match","Exact","14 JONES AVE, DEPTFORD, NJ, 08096",134596609,"R"
56703,"14 JORDAN MARIE LANE","OLD MONROE","MO",63369,38.958864948,-90.8010321199999,203,"14 JORDAN MARIE LANE, OLD MONROE, MO, 63369","Match","Exact","14 JORDAN MARIE LN, OLD MONROE, MO, 63369",618453655,"R"
56704,"14 JORDAN RD","WINDHAM","NH",3087,42.769642966,-71.304346418,204,"14 JORDAN RD, WINDHAM, NH, 3087","Match","Exact","14 JORDAN RD, WINDHAM, NH, 03087",113683246,"L"
56705,"14 JOSEPH COURT","MONMOUTH JUNCTION","NJ",8852,40.389043529,-74.5763080369999,205,"14 JOSEPH COURT, MONMOUTH JUNCTION, NJ, 8852","Match","Exact","14 JOSEPH CT, MONMOUTH JCT, NJ, 08852",60294321,"L"
56706,"14 KANOUSE LANE","MONTVILLE","NJ",7045,40.913812658,-74.372838509,206,"14 KANOUSE LANE, MONTVILLE, NJ, 7045","Match","Exact","14 KANOUSE LN, MONTVILLE, NJ, 07045",645481447,"R"
56707,"14 KAYAK CT","NEWARK","DE",19702,39.6242216570001,-75.750523539,207,"14 KAYAK CT, NEWARK, DE, 19702","Match","Exact","14 KAYAK CT, NEWARK, DE, 19702",187265439,"R"
56708,"14 KAYE LN","JACKSONVILLE","AR",72076,34.8822999020001,-92.124176269,208,"14 KAYE LN, JACKSONVILLE, AR, 72076","Match","Exact","14 KAYE LN, JACKSONVILLE, AR, 72076",83518701,"L"
56709,"14 KENNETH ST","MOBILE","AL",36607,30.6878513080001,-88.081203005,209,"14 KENNETH ST, MOBILE, AL, 36607","Match","Exact","14 KENNETH ST, MOBILE, AL, 36607",652579944,"R"
56710,"14 KENSINGTON CIRCLE APT F","GARNERVILLE","NY",10923,41.2030634320001,-73.987735887,210,"14 KENSINGTON CIRCLE APT F, GARNERVILLE, NY, 10923","Match","Exact","14 KENSINGTON CIR, GARNERVILLE, NY, 10923",124608432,"L"
56711,"14 KENT AVENUE","PENNSVILLE","NJ",8070,39.6736916090001,-75.499782747,211,"14 KENT AVENUE, PENNSVILLE, NJ, 8070","Match","Exact","14 KENT AVE, PENNSVILLE, NJ, 08070",174412085,"L"
56712,"14 KEYES HOUSE RD","SHREWSBURY","MA",1545,42.3225990720001,-71.6960412729999,212,"14 KEYES HOUSE RD, SHREWSBURY, MA, 1545","Match","Exact","14 KEYES HOUSE RD, SHREWSBURY, MA, 01545",40046761,"R"
56713,"14 KILLINGTON STREET","CHAPPAQUA","NY",10514,41.167833955,-73.7478387209999,213,"14 KILLINGTON STREET, CHAPPAQUA, NY, 10514","Match","Exact","14 KILLINGTON ST, CHAPPAQUA, NY, 10514",139758885,"R"
56714,"14 KING HIGHWAY NORTH","RANDOLPH","NY",14772,NA,NA,214,"14 KING HIGHWAY NORTH, RANDOLPH, NY, 14772","No_Match",NA,NA,NA,NA
56715,"14 KLEGGSTONE CIR","BLOOMINGTON","IL",61704,40.5131638820001,-88.940216155,215,"14 KLEGGSTONE CIR, BLOOMINGTON, IL, 61704","Match","Exact","14 KLEGGSTONE CIR, BLOOMINGTON, IL, 61704",20562181,"R"
56716,"14 KNOLLCREST DRIVE","CINCINNATI","OH",45237,39.2135694570001,-84.439538575,216,"14 KNOLLCREST DRIVE, CINCINNATI, OH, 45237","Match","Exact","14 KNOLLCREST DR, CINCINNATI, OH, 45237",645615598,"R"
56717,"14 KOSIOR DRIVE","HADLEY","MA",1035,42.3369102550001,-72.586174079,217,"14 KOSIOR DRIVE, HADLEY, MA, 1035","Match","Exact","14 KOSIOR DR, HADLEY, MA, 01035",39851490,"L"
56718,"14 LAFAYETTE SQUARE / SUITE 1700","BUFFALO","NY",14203,42.8858767780001,-78.874192674,218,"14 LAFAYETTE SQUARE / SUITE 1700, BUFFALO, NY, 14203","Match","Exact","14 LAFAYETTE SQ, BUFFALO, NY, 14203",48291031,"L"
56719,"14 LAKE EAGLE CT NE","CARTERSVILLE","GA",30121,34.229409242,-84.728228826,219,"14 LAKE EAGLE CT NE, CARTERSVILLE, GA, 30121","Match","Exact","14 LAKE EAGLE CT NE, CARTERSVILLE, GA, 30121",635855163,"R"
56720,"14 LAKEVIEW DRIVE","SPOTSWOOD","NJ",8884,40.384548345,-74.3895056979999,220,"14 LAKEVIEW DRIVE, SPOTSWOOD, NJ, 8884","Match","Exact","14 LAKEVIEW DR, SPOTSWOOD, NJ, 08884",60271023,"R"
56721,"14 LASH UP LANE","SALEM","SC",29676,34.839128998,-82.909647392,221,"14 LASH UP LANE, SALEM, SC, 29676","Match","Exact","14 LASH UP LN, SALEM, SC, 29676",25668528,"R"
56722,"14 LAUREL HILL ROAD UNIT Z2","GREENBELT","MD",20770,NA,NA,222,"14 LAUREL HILL ROAD UNIT Z2, GREENBELT, MD, 20770","Tie",NA,NA,NA,NA
56723,"14 LAURELWOOD DRIVE","NORWELL","MA",2061,42.1883900970001,-70.793333177,223,"14 LAURELWOOD DRIVE, NORWELL, MA, 2061","Match","Exact","14 LAURELWOOD DR, NORWELL, MA, 02061",87496691,"L"
56724,"14 LAVERNE COURT","WHARTON","NJ",7885,40.9367272040001,-74.584921618,224,"14 LAVERNE COURT, WHARTON, NJ, 7885","Match","Exact","14 LAVERNE CT, WHARTON, NJ, 07885",60454369,"R"
56725,"14 LAW RANGE","SUMTER","SC",29150,33.9223395160001,-80.341191177,225,"14 LAW RANGE, SUMTER, SC, 29150","Match","Exact","14 LAW RANGE, SUMTER, SC, 29150",202669498,"L"
56726,"14 LAWRENCE DRIVE","FRANKLIN","MA",2038,42.071075163,-71.39212515,226,"14 LAWRENCE DRIVE, FRANKLIN, MA, 2038","Match","Exact","14 LAWRENCE DR, FRANKLIN, MA, 02038",87282804,"L"
56727,"14 LAWRENCE ROAD","MADISON","NJ",7940,40.743672653,-74.409151935,227,"14 LAWRENCE ROAD, MADISON, NJ, 7940","Match","Exact","14 LAWRENCE RD, MADISON, NJ, 07940",60469642,"L"
56728,"14 LAWSONS QUARRY ROAD","VINALHAVEN","ME",4863,44.0572003340001,-68.835676252,228,"14 LAWSONS QUARRY ROAD, VINALHAVEN, ME, 4863","Match","Exact","14 LAWSONS QUARRY RD, VINALHAVEN, ME, 04863",75553408,"R"
56729,"14 LEE ST","LANCASTER","MA",1523,42.437674502,-71.6738721729999,229,"14 LEE ST, LANCASTER, MA, 1523","Match","Exact","14 LEE ST, LANCASTER, MA, 01523",40035780,"L"
56730,"14 LENOX POINTE","ATLANTA","GA",30324,33.8254264880001,-84.354759137,230,"14 LENOX POINTE, ATLANTA, GA, 30324","Match","Exact","14 LENOX POINTE, ATLANTA, GA, 30324",647344443,"L"
56731,"14 LINDA LANE","COLLEGE STATION","TX",77845,30.643694812,-96.28561696,231,"14 LINDA LANE, COLLEGE STATION, TX, 77845","Match","Exact","14 LINDA LN, COLLEGE STATION, TX, 77845",21820123,"R"
56732,"14 LINDENCREST DR","DANBURY","CT",6811,41.4040544690001,-73.5148988019999,232,"14 LINDENCREST DR, DANBURY, CT, 6811","Match","Exact","14 LINDENCREST DR, DANBURY, CT, 06811",3253676,"L"
56733,"14 LIVERY LANE","NORTH SALEM","NY",10560,41.31373533,-73.650171234,233,"14 LIVERY LANE, NORTH SALEM, NY, 10560","Match","Exact","14 LIVERY LN, NORTH SALEM, NY, 10560",653450326,"L"
56734,"14 LIZ MAR PL","STREATOR","IL",61364,41.122703066,-88.807841307,234,"14 LIZ MAR PL, STREATOR, IL, 61364","Match","Exact","14 LIZ MAR PL, STREATOR, IL, 61364",8594232,"R"
56735,"14 LOGAN CIRCLE NW","WASHINGTON","DC",20005,38.9101950580001,-77.029713106,235,"14 LOGAN CIRCLE NW, WASHINGTON, DC, 20005","Match","Exact","14 LOGAN CIR NW, WASHINGTON, DC, 20005",76226056,"R"
56736,"14 LOMBARD STREET","SPRINGFIELD","MA",1105,42.0952310700001,-72.581811348,236,"14 LOMBARD STREET, SPRINGFIELD, MA, 1105","Match","Exact","14 LOMBARD ST, SPRINGFIELD, MA, 01105",4035362,"R"
56737,"14 LOUISE COURT P O BOX 1230","RISING SUN","MD",21911,39.6990669750001,-76.0603374789999,237,"14 LOUISE COURT P O BOX 1230, RISING SUN, MD, 21911","Match","Exact","14 LOUISE CT, RISING SUN, MD, 21911",641629904,"R"
56738,"14 LOVETT STREET","BEVERLY","MA",1915,42.5440085120001,-70.879258716,238,"14 LOVETT STREET, BEVERLY, MA, 1915","Match","Exact","14 LOVETT ST, BEVERLY, MA, 01915",86694961,"L"
56739,"14 LUCAS COURT","DAHLONEGA","GA",30533,34.5601898080001,-83.97232388,239,"14 LUCAS COURT, DAHLONEGA, GA, 30533","Match","Exact","14 LUCAS CT, DAHLONEGA, GA, 30533",648321951,"R"
56740,"14 LYON RD","MIDDLETOWN","NJ",7748,40.3672651860001,-74.1349588309999,240,"14 LYON RD, MIDDLETOWN, NJ, 7748","Match","Exact","14 LYON RD, MIDDLETOWN, NJ, 07748",90533777,"L"
56741,"14 MACK AVE","WEST LEBANON","NH",3784,43.6486457390001,-72.3064510409999,241,"14 MACK AVE, WEST LEBANON, NH, 3784","Match","Exact","14 MACK AVE, WEST LEBANON, NH, 03784",145685546,"L"
56742,"14 MADISON AVE","EAST BRUNSWICK","NJ",8816,40.409764958,-74.3728619359999,242,"14 MADISON AVE, EAST BRUNSWICK, NJ, 8816","Match","Exact","14 MADISON AVE, E BRUNSWICK, NJ, 08816",60282191,"R"
56743,"14 MADISON COURT","EDGEWATER PARK","NJ",8010,40.0539528740001,-74.897910329,243,"14 MADISON COURT, EDGEWATER PARK, NJ, 8010","Match","Exact","14 MADISON CT, EDGEWATER PARK, NJ, 08010",617125183,"R"
56744,"14 MADRID AVE","NEWNAN","GA",30263,33.384724175,-84.77621357,244,"14 MADRID AVE, NEWNAN, GA, 30263","Match","Exact","14 MADRID AVE, NEWNAN, GA, 30263",618368565,"L"
56745,"14 MAGIL COURT","NEWARK","DE",19702,39.6585375450001,-75.685963116,245,"14 MAGIL COURT, NEWARK, DE, 19702","Match","Exact","14 MAGIL CT, NEWARK, DE, 19702",605781941,"L"
56746,"14 MAHOPAC RD","WEST HEMPSTEAD","NY",11552,40.676777153,-73.6554334109999,246,"14 MAHOPAC RD, WEST HEMPSTEAD, NY, 11552","Match","Exact","14 MAHOPAC RD, W HEMPSTEAD, NY, 11552",147675434,"R"
56747,"14 MAIN STREET","DEPOSIT","NY",13754,42.063141849,-75.416822471,247,"14 MAIN STREET, DEPOSIT, NY, 13754","Match","Exact","14 MAIN ST, DEPOSIT, NY, 13754",41571507,"R"
56748,"14 MAIN STREET","SHELBURNE FALLS","OR",1370,NA,NA,248,"14 MAIN STREET, SHELBURNE FALLS, OR, 1370","No_Match",NA,NA,NA,NA
56749,"14 MAINE ST - BOX 44","BRUNSWICK","ME",4011,43.919457386,-69.9664431259999,249,"14 MAINE ST - BOX 44, BRUNSWICK, ME, 4011","Match","Exact","14 MAINE ST, BRUNSWICK, ME, 04011",78007983,"L"
56750,"14 MALIN STATION ROAD","MALVERN","PA",19355,40.049399092,-75.537857512,250,"14 MALIN STATION ROAD, MALVERN, PA, 19355","Match","Exact","14 MALIN STATION RD, MALVERN, PA, 19355",179557999,"L"
56751,"14 MALLARDS CREST CT","SICKLERVILLE","NJ",8081,39.75125388,-74.965528666,251,"14 MALLARDS CREST CT, SICKLERVILLE, NJ, 8081","Match","Exact","14 MALLARDS CREST CT, SICKLERVILLE, NJ, 08081",134379191,"R"
56752,"14 MAPLE PT","JONESBOROUGH","TN",37659,NA,NA,252,"14 MAPLE PT, JONESBOROUGH, TN, 37659","No_Match",NA,NA,NA,NA
56753,"14 MARKS WAY","CARVER","MA",2330,41.827272582,-70.7355783639999,253,"14 MARKS WAY, CARVER, MA, 2330","Match","Exact","14 MARKS WAY, CARVER, MA, 02330",87463228,"L"
56754,"14 MEADOW RIDGE LANE","LAFAYETTE","NJ",7848,41.126664174,-74.697344804,254,"14 MEADOW RIDGE LANE, LAFAYETTE, NJ, 7848","Match","Exact","14 MEADOW RIDGE LN, LAFAYETTE, NJ, 07848",633942504,"L"
56755,"14 MEADOW WOOD RD","KINGSTON","NH",3848,42.9570685460001,-71.021792843,255,"14 MEADOW WOOD RD, KINGSTON, NH, 3848","Match","Exact","14 MEADOW WOOD RD, KINGSTON, NH, 03848",113716872,"R"
56756,"14 MEADOWBROOK DRIVE","SOUTH HUNTINGTON","NY",11746,40.8374679400001,-73.405898587,256,"14 MEADOWBROOK DRIVE, SOUTH HUNTINGTON, NY, 11746","Match","Exact","14 MEADOWBROOK DR, S HUNTINGTON, NY, 11746",113965999,"R"
56757,"14 MECHANIC STREET","BEVERLY","MA",1915,42.552861826,-70.880710069,257,"14 MECHANIC STREET, BEVERLY, MA, 1915","Match","Exact","14 MECHANIC ST, BEVERLY, MA, 01915",86642496,"L"
56758,"14 MELROSE STREET","WORCESTER","MA",1605,42.290045885,-71.788779544,258,"14 MELROSE STREET, WORCESTER, MA, 1605","Match","Exact","14 MELROSE ST, WORCESTER, MA, 01605",40085531,"R"
56759,"14 MEREDITH DRIVE","TINTON FALLS","NJ",7724,40.3098473000001,-74.090991318,259,"14 MEREDITH DRIVE, TINTON FALLS, NJ, 7724","Match","Exact","14 MEREDITH DR, TINTON FALLS, NJ, 07724",90453907,"R"
56760,"14 MIDDLE LAUREL CHURCH ROAD","MARSHALL","NC",28753,35.9690627520001,-82.7045372279999,260,"14 MIDDLE LAUREL CHURCH ROAD, MARSHALL, NC, 28753","Match","Exact","14 MIDDLE LAUREL CHURCH RD, MARSHALL, NC, 28753",40927298,"L"
56761,"14 MIDLAND AVENUE","BASALT","CO",81621,39.368325348,-107.0347826,261,"14 MIDLAND AVENUE, BASALT, CO, 81621","Match","Exact","14 MIDLAND AVE, BASALT, CO, 81621",105736479,"R"
56762,"14 MILLISTON RD PMB 216","MILLIS","MA",2054,42.1684866620001,-71.3540060829999,262,"14 MILLISTON RD PMB 216, MILLIS, MA, 2054","Match","Exact","14 MILLISTON RD, MILLIS, MA, 02054",87274574,"R"
56763,"14 MILLSPRING COURT","SAINT PETERS","MO",63376,38.7617515630001,-90.5736451069999,263,"14 MILLSPRING COURT, SAINT PETERS, MO, 63376","Match","Non_Exact","14 MILL SPRING CT, SAINT PETERS, MO, 63376",647313049,"L"
56764,"14 MIMIDIS LANE SUITE A","SWANNANOA","NC",28778,35.5922648710001,-82.437466618,264,"14 MIMIDIS LANE SUITE A, SWANNANOA, NC, 28778","Match","Exact","14 MIMIDIS LN, SWANNANOA, NC, 28778",36879087,"R"
56765,"14 MISSION SANTIAGO","ODESSA","TX",79765,31.914270372,-102.273517561,265,"14 MISSION SANTIAGO, ODESSA, TX, 79765","Match","Non_Exact","14 MISSION SANTIAGO DR, ODESSA, TX, 79765",139599051,"L"
56766,"14 MLISS LANE","SAN RAFAEL","CA",94901,37.9533351270001,-122.515654116,266,"14 MLISS LANE, SAN RAFAEL, CA, 94901","Match","Exact","14 MLISS LN, SAN RAFAEL, CA, 94901",192767428,"R"
56767,"14 MONARCH BAY PL SUITE 454","MONARCH BEACH","CA",92629,33.484844464,-117.727206032,267,"14 MONARCH BAY PL SUITE 454, MONARCH BEACH, CA, 92629","Match","Non_Exact","14 MONARCH BAY DR, MONARCH BEACH, CA, 92629",144072531,"R"
56768,"14 MONARCH BAY PLAZA 133","MONARCH BEACH","CA",92629,33.484844464,-117.727206032,268,"14 MONARCH BAY PLAZA 133, MONARCH BEACH, CA, 92629","Match","Non_Exact","14 MONARCH BAY DR, MONARCH BEACH, CA, 92629",144072531,"R"
56769,"14 MONARCH BAY PLAZA SUITE 383","DANA POINT","CA",92692,NA,NA,269,"14 MONARCH BAY PLAZA SUITE 383, DANA POINT, CA, 92692","No_Match",NA,NA,NA,NA
56770,"14 MONTGOMERY STREET","CHICOPEE","MA",1020,42.1623318960001,-72.5823635099999,270,"14 MONTGOMERY STREET, CHICOPEE, MA, 1020","Match","Exact","14 MONTGOMERY ST, CHICOPEE, MA, 01020",4058693,"R"
56771,"14 MOOREFIELD COURT","DURHAM","NC",27705,36.0497580700001,-78.9309622,271,"14 MOOREFIELD COURT, DURHAM, NC, 27705","Match","Exact","14 MOOREFIELD CT, DURHAM, NC, 27705",71762233,"R"
56772,"14 MORGAN ROAD","ASTON","PA",19014,39.856265976,-75.4330835539999,272,"14 MORGAN ROAD, ASTON, PA, 19014","Match","Exact","14 MORGAN RD, ASTON, PA, 19014",134888343,"L"
56773,"14 MORNINGSIDE AVENUE","NEW YORK","NY",10026,40.8050330880001,-73.958218571,273,"14 MORNINGSIDE AVENUE, NEW YORK, NY, 10026","Match","Exact","14 MORNINGSIDE AVE, NEW YORK, NY, 10026",59656875,"R"
56774,"14 MOUNT AUBURN STREET","WATERTOWN","MA",2472,42.3666489990001,-71.181165612,274,"14 MOUNT AUBURN STREET, WATERTOWN, MA, 2472","Match","Exact","14 MOUNT AUBURN ST, WATERTOWN, MA, 02472",86865017,"L"
56775,"14 MOUNT VERNON STREET","LYNN","MA",1901,42.464377395,-70.941694388,275,"14 MOUNT VERNON STREET, LYNN, MA, 1901","Match","Exact","14 MOUNT VERNON ST, LYNN, MA, 01901",86645883,"L"
56776,"14 MULBERRY ST","SICKLERVILLE","NJ",8081,39.741338356,-75.0111549169999,276,"14 MULBERRY ST, SICKLERVILLE, NJ, 8081","Match","Exact","14 MULBERRY ST, SICKLERVILLE, NJ, 08081",134375977,"R"
56777,"14 MURRAY STREET SUITE 199","NEW YORK","NY",10007,40.713360611,-74.007894778,277,"14 MURRAY STREET SUITE 199, NEW YORK, NY, 10007","Match","Exact","14 MURRAY ST, NEW YORK, NY, 10007",59660365,"L"
56778,"14 N FRENCH BROAD AVENUE","ASHEVILLE","NC",28801,35.5943164780001,-82.558679148,278,"14 N FRENCH BROAD AVENUE, ASHEVILLE, NC, 28801","Match","Exact","14 N FRENCH BROAD AVE, ASHEVILLE, NC, 28801",647181915,"L"
56779,"14 N PARK PLACE","NEWARK","OH",43055,40.0584423560001,-82.402479716,279,"14 N PARK PLACE, NEWARK, OH, 43055","Match","Exact","14 N PARK PL, NEWARK, OH, 43055",61507911,"L"
56780,"14 N RUFUS ST","NEW HAVEN","IN",46774,NA,NA,280,"14 N RUFUS ST, NEW HAVEN, IN, 46774","No_Match",NA,NA,NA,NA
56781,"14 NE KILLINGSWORTH ST","PORTLAND","OR",97211,45.5627125550001,-122.666339599,281,"14 NE KILLINGSWORTH ST, PORTLAND, OR, 97211","Match","Exact","14 NE KILLINGSWORTH ST, PORTLAND, OR, 97211",157580273,"R"
56782,"14 NEW ST","STANHOPE","NJ",7874,40.9028775510001,-74.711260019,282,"14 NEW ST, STANHOPE, NJ, 7874","Match","Exact","14 NEW ST, STANHOPE, NJ, 07874",98006364,"L"
56783,"14 NIMMONS STREET","NEWNAN","GA",30263,33.3672717470001,-84.799922967,283,"14 NIMMONS STREET, NEWNAN, GA, 30263","Match","Exact","14 NIMMONS ST, NEWNAN, GA, 30263",9323106,"R"
56784,"14 NORCROSS STREET","ROSWELL","GA",30075,34.0254283890001,-84.360974273,284,"14 NORCROSS STREET, ROSWELL, GA, 30075","Match","Exact","14 NORCROSS ST, ROSWELL, GA, 30075",17352132,"L"
56785,"14 NORTH COASTAL HIGHWAY","PORT WENTWORTH","GA",31407,32.155634068,-81.16479486,285,"14 NORTH COASTAL HIGHWAY, PORT WENTWORTH, GA, 31407","Match","Exact","14 N COASTAL HWY, PRT WENTWORTH, GA, 31407",6167448,"R"
56786,"14 NORTH DANSVILLE STREET","COHOCTON","NY",14826,42.5045763190001,-77.508989153,286,"14 NORTH DANSVILLE STREET, COHOCTON, NY, 14826","Match","Exact","14 N DANSVILLE ST, COHOCTON, NY, 14826",14723955,"L"
56787,"14 NORTH DANVILLE ROAD","SANDOWN","NH",3873,42.956395263,-71.152386204,287,"14 NORTH DANVILLE ROAD, SANDOWN, NH, 3873","Match","Exact","14 N DANVILLE RD, SANDOWN, NH, 03873",646864139,"R"
56788,"14 NORTH GLENBROOK DRIVE","GRENADA","MS",38901,33.7124049990001,-89.79059846,288,"14 NORTH GLENBROOK DRIVE, GRENADA, MS, 38901","Match","Non_Exact","14 GLENBROOK DR, GRENADA, MS, 38901",607944001,"R"
56789,"14 NORTH STREET - PO BOX 19","PLYMOUTH","CT",6782,41.672718757,-73.053144247,289,"14 NORTH STREET - PO BOX 19, PLYMOUTH, CT, 6782","Match","Exact","14 NORTH ST, PLYMOUTH, CT, 06782",3117720,"R"
56790,"14 NORTH STREET","NORTH BROOKFIELD","MA",1535,42.2373924780001,-72.054672952,290,"14 NORTH STREET, NORTH BROOKFIELD, MA, 1535","Match","Exact","14 NORTH ST, NORTH BROOKFIELD, MA, 01535",39998850,"R"
56791,"14 O HILL RDG","LAGUNA NIGUEL","CA",92677,33.5034480240001,-117.687579186,291,"14 O HILL RDG, LAGUNA NIGUEL, CA, 92677","Match","Exact","14 O HILL RIDGE, LAGUNA NIGUEL, CA, 92677",144386248,"R"
56792,"14 OAK HILL STREET","INDIAN ISLAND","ME",4468,44.947654373,-68.6512185679999,292,"14 OAK HILL STREET, INDIAN ISLAND, ME, 4468","Match","Non_Exact","14 OAK HILL RD, INDIAN ISLAND, ME, 04468",123652488,"R"
56793,"14 OAKKNOLL CIRCLE","NEWARK","DE",19711,39.77452293,-75.725922824,293,"14 OAKKNOLL CIRCLE, NEWARK, DE, 19711","Match","Exact","14 OAKKNOLL CIR, NEWARK, DE, 19711",187277733,"R"
56794,"14 OLD CENTER HARBOR RD","MEREDITH","NH",3253,43.67486353,-71.484527875,294,"14 OLD CENTER HARBOR RD, MEREDITH, NH, 3253","Match","Exact","14 OLD CENTER HARBOR RD, MEREDITH, NH, 03253",627132462,"L"
56795,"14 OLD CHAPEL HILL ROAD","MIDDLEBURY","VT",5753,NA,NA,295,"14 OLD CHAPEL HILL ROAD, MIDDLEBURY, VT, 5753","No_Match",NA,NA,NA,NA
56796,"14 OLNEYVILLE SQ","PROVIDENCE","RI",2909,41.816740882,-71.443602493,296,"14 OLNEYVILLE SQ, PROVIDENCE, RI, 2909","Match","Exact","14 OLNEYVILLE SQ, PROVIDENCE, RI, 02909",47493816,"L"
56797,"14 OPAL CT","EAST AMHERST","NY",14051,43.0464390020001,-78.702690929,297,"14 OPAL CT, EAST AMHERST, NY, 14051","Match","Exact","14 OPAL CT, EAST AMHERST, NY, 14051",48317024,"L"
56798,"14 ORLE CIRCLE","LITTLE ROCK","AR",72223,34.7878947500001,-92.490174632,298,"14 ORLE CIRCLE, LITTLE ROCK, AR, 72223","Match","Exact","14 ORLE CIR, LITTLE ROCK, AR, 72223",616396300,"L"
56799,"14 OSBORNE STREET","FAIRFIELD","ME",4937,44.59287328,-69.59801297,299,"14 OSBORNE STREET, FAIRFIELD, ME, 4937","Match","Exact","14 OSBORNE ST, FAIRFIELD, ME, 04937",124142849,"L"
56800,"14 OVERVIEW CT","COLUMBIA","SC",29229,34.1884483260001,-80.899681336,300,"14 OVERVIEW CT, COLUMBIA, SC, 29229","Match","Exact","14 OVERVIEW CT, COLUMBIA, SC, 29229",645310031,"R"
56801,"14 PALMETTO CIRCLE","NEW CASTLE","DE",19720,39.639918643,-75.634642033,301,"14 PALMETTO CIRCLE, NEW CASTLE, DE, 19720","Match","Exact","14 PALMETTO CIR, NEW CASTLE, DE, 19720",187281851,"R"
56802,"14 PARK HILL 6","MENANDS","NY",12204,42.68847678,-73.7348451359999,302,"14 PARK HILL 6, MENANDS, NY, 12204","Match","Non_Exact","14 PARK HILL DR, MENANDS, NY, 12204",18325063,"L"
56803,"14 PARK ROAD","BELMONT","MA",2478,42.3770409040001,-71.1598399279999,303,"14 PARK ROAD, BELMONT, MA, 2478","Match","Exact","14 PARK RD, BELMONT, MA, 02478",86891894,"L"
56804,"14 PARK ST","DANVERS","MA",1923,42.563669787,-70.9362778289999,304,"14 PARK ST, DANVERS, MA, 1923","Match","Exact","14 PARK ST, DANVERS, MA, 01923",86639469,"L"
56805,"14 PARK STREET","HAVERHILL","MA",1830,42.7795530130001,-71.074216969,305,"14 PARK STREET, HAVERHILL, MA, 1830","Match","Exact","14 PARK ST, HAVERHILL, MA, 01830",86617668,"L"
56806,"14 PARSONS STREET","SAN FRANCISCO","CA",94118,37.775443184,-122.455397303,306,"14 PARSONS STREET, SAN FRANCISCO, CA, 94118","Match","Exact","14 PARSONS ST, SAN FRANCISCO, CA, 94118",192282141,"L"
56807,"14 PASAFLORA LANE","LADERA RANCH","CA",92694,NA,NA,307,"14 PASAFLORA LANE, LADERA RANCH, CA, 92694","No_Match",NA,NA,NA,NA
56808,"14 PENN PLAZA 1310","NEW YORK","NY",10122,40.750391413,-73.9910643169999,308,"14 PENN PLAZA 1310, NEW YORK, NY, 10122","Match","Non_Exact","14 PENN PLZ, NEW YORK, NY, 10001",59658589,"L"
56809,"14 PENN PLAZA SUITE 1010","NEW YORK","NY",10122,40.750391413,-73.9910643169999,309,"14 PENN PLAZA SUITE 1010, NEW YORK, NY, 10122","Match","Non_Exact","14 PENN PLZ, NEW YORK, NY, 10001",59658589,"L"
56810,"14 PENN PLAZA-SUITE 1800","NEW YORK","NY",10122,NA,NA,310,"14 PENN PLAZA-SUITE 1800, NEW YORK, NY, 10122","No_Match",NA,NA,NA,NA
56811,"14 PENNSYLVANIA PLAZA  STE 1010","NEW YORK","NY",10122,NA,NA,311,"14 PENNSYLVANIA PLAZA  STE 1010, NEW YORK, NY, 10122","No_Match",NA,NA,NA,NA
56812,"14 PETERSON PLACE","ST PAUL","MN",55127,45.1051509870001,-93.121735884,312,"14 PETERSON PLACE, ST PAUL, MN, 55127","Match","Exact","14 PETERSON PL, SAINT PAUL, MN, 55127",645494804,"R"
56813,"14 PETTICOAT LANE","TRUMBULL","CT",6611,NA,NA,313,"14 PETTICOAT LANE, TRUMBULL, CT, 6611","No_Match",NA,NA,NA,NA
56814,"14 PHEASANT LN","EAST SETAUKET","NY",11733,40.925046593,-73.0865317929999,314,"14 PHEASANT LN, EAST SETAUKET, NY, 11733","Match","Exact","14 PHEASANT LN, EAST SETAUKET, NY, 11733",114001095,"R"
56815,"14 PIN OAK DRIVE","LITTLETON","CO",80127,39.574832583,-105.1589935,315,"14 PIN OAK DRIVE, LITTLETON, CO, 80127","Match","Exact","14 PIN OAK DR, LITTLETON, CO, 80127",640548996,"L"
56816,"14 PINESTONE","IRVINE","CA",92604,33.683904999,-117.805236334,316,"14 PINESTONE, IRVINE, CA, 92604","Match","Exact","14 PINESTONE, IRVINE, CA, 92604",144419245,"R"
56817,"14 PINEVIEW AVENUE","DELMAR","NY",12054,42.6198231450001,-73.82963566,317,"14 PINEVIEW AVENUE, DELMAR, NY, 12054","Match","Exact","14 PINEVIEW AVE, DELMAR, NY, 12054",18305043,"L"
56818,"14 PITMAN ST APT 2","PROVIDENCE","RI",2906,41.826328404,-71.3931139279999,318,"14 PITMAN ST APT 2, PROVIDENCE, RI, 2906","Match","Exact","14 PITMAN ST, PROVIDENCE, RI, 02906",47467672,"L"
56819,"14 PLANTATION DRIVE","CUMBERLAND","RI",2864,41.961985521,-71.457422584,319,"14 PLANTATION DRIVE, CUMBERLAND, RI, 2864","Match","Exact","14 PLANTATION DR, CUMBERLAND, RI, 02864",47452755,"R"
56820,"14 PLEASANT AVE","SCARBOROUGH","ME",4074,43.591088089,-70.296943642,320,"14 PLEASANT AVE, SCARBOROUGH, ME, 4074","Match","Exact","14 PLEASANT AVE, SCARBOROUGH, ME, 04074",78030535,"R"
56821,"14 PLEASANT STREET","WESTFIELD","MA",1085,42.118830668,-72.7514799579999,321,"14 PLEASANT STREET, WESTFIELD, MA, 1085","Match","Exact","14 PLEASANT ST, WESTFIELD, MA, 01085",4061091,"L"
56822,"14 PLUM POPPY SOUTH","BALLSTON SPA","NY",12020,42.9645571660001,-73.7796836479999,322,"14 PLUM POPPY SOUTH, BALLSTON SPA, NY, 12020","Match","Non_Exact","14 PLUM POPPY RD S, BALLSTON SPA, NY, 12020",651352217,"R"
56823,"14 POND DR","SYOSSET","NY",11791,40.8278640930001,-73.492224452,323,"14 POND DR, SYOSSET, NY, 11791","Match","Exact","14 POND DR, SYOSSET, NY, 11791",147640319,"R"
56824,"14 POND DRIVE","SYOSSET","NY",11791,40.8278640930001,-73.492224452,324,"14 POND DRIVE, SYOSSET, NY, 11791","Match","Exact","14 POND DR, SYOSSET, NY, 11791",147640319,"R"
56825,"14 POND VIEW CT","IOWA CITY","IA",52240,41.6404024030001,-91.485718589,325,"14 POND VIEW CT, IOWA CITY, IA, 52240","Match","Exact","14 POND VIEW CT, IOWA CITY, IA, 52240",84503411,"L"
56826,"14 PONDER PLACE","NEWNAN","GA",30265,33.363294008,-84.706596395,326,"14 PONDER PLACE, NEWNAN, GA, 30265","Match","Exact","14 PONDER PL, NEWNAN, GA, 30265",614453936,"L"
56827,"14 POST OAK TRACE","VILLA RICA","GA",30180,33.7160461390001,-84.9577014879999,327,"14 POST OAK TRACE, VILLA RICA, GA, 30180","Match","Exact","14 POST OAK TRCE, VILLA RICA, GA, 30180",17119800,"R"
56828,"14 POWDER CREEK TRAIL","ARDEN","NC",28704,35.453236756,-82.5857719479999,328,"14 POWDER CREEK TRAIL, ARDEN, NC, 28704","Match","Exact","14 POWDER CREEK TRL, ARDEN, NC, 28704",607759569,"L"
56829,"14 PRESIDENT AVENUE PO BOX 701","BUHL","MN",55713,47.485981832,-92.7816467379999,329,"14 PRESIDENT AVENUE PO BOX 701, BUHL, MN, 55713","Match","Exact","14 PRESIDENT AVE, BUHL, MN, 55713",163169879,"R"
56830,"14 PRINCETON ARMS EAST","CRANBURY","NJ",8512,40.275279853,-74.566133951,330,"14 PRINCETON ARMS EAST, CRANBURY, NJ, 8512","Match","Non_Exact","14 PRINCETON ARMS W, CRANBURY, NJ, 08512",633903123,"R"
56831,"14 PROSPECT STREET","TOPSHAM","ME",4086,43.918430356,-69.9747400099999,331,"14 PROSPECT STREET, TOPSHAM, ME, 4086","Match","Exact","14 PROSPECT ST, TOPSHAM, ME, 04086",75599836,"R"
56832,"14 PROVENCIAL CT","VIOLET","LA",70092,29.903600339,-89.902192072,332,"14 PROVENCIAL CT, VIOLET, LA, 70092","Match","Exact","14 PROVENCIAL CT, VIOLET, LA, 70092",111198955,"L"
56833,"14 PUTNAM LANE","WORCESTER","MA",1604,42.2687102290001,-71.778403265,333,"14 PUTNAM LANE, WORCESTER, MA, 1604","Match","Exact","14 PUTNAM LN, WORCESTER, MA, 01604",40014094,"R"
56834,"14 R OLD POINT ROAD","NEWBURY","MA",1951,42.7999604500001,-70.813669708,334,"14 R OLD POINT ROAD, NEWBURY, MA, 1951","Match","Exact","14 OLD POINT RD, NEWBURY, MA, 01951",86623439,"L"
56835,"14 RANCHERS TRAIL","THE WOODLANDS","TX",77389,30.1469389700001,-95.54175365,335,"14 RANCHERS TRAIL, THE WOODLANDS, TX, 77389","Match","Non_Exact","14 RANCHER'S TRL, THE WOODLANDS, TX, 77389",641637112,"R"
56836,"14 RANDOM FARMS CIRCLE","CHAPPAQUA","NY",10514,41.205884687,-73.775678791,336,"14 RANDOM FARMS CIRCLE, CHAPPAQUA, NY, 10514","Match","Exact","14 RANDOM FARMS CIR, CHAPPAQUA, NY, 10514",139845552,"R"
56837,"14 RAPP ROAD","ALBANY","NY",12203,42.6972957040001,-73.851317385,337,"14 RAPP ROAD, ALBANY, NY, 12203","Match","Exact","14 RAPP RD, ALBANY, NY, 12203",18304126,"L"
56838,"14 RED BRUSH CT","MCLEANSVILLE","NC",27301,36.0661937420001,-79.686760066,338,"14 RED BRUSH CT, MCLEANSVILLE, NC, 27301","Match","Non_Exact","14 RED BRUSH CT, MC LEANSVILLE, NC, 27301",627220556,"R"
56839,"14 RED LEAF LANE","LADERA RANCH","CA",92694,33.546338384,-117.645989479,339,"14 RED LEAF LANE, LADERA RANCH, CA, 92694","Match","Exact","14 RED LEAF LN, LADERA RANCH, CA, 92694",608148320,"R"
56840,"14 RICH STREET","JACKSON","TN",38301,35.6320692310001,-88.792586172,340,"14 RICH STREET, JACKSON, TN, 38301","Match","Exact","14 RICH ST, JACKSON, TN, 38301",21322719,"L"
56841,"14 RIDGE RUN APT P","MARIETTA","GA",30067,33.933376163,-84.504290901,341,"14 RIDGE RUN APT P, MARIETTA, GA, 30067","Match","Non_Exact","14 RIDGE RUN SE, MARIETTA, GA, 30067",17254468,"L"
56842,"14 RITO GUICU","SANTA FE","NM",87507,35.562742208,-106.108809973,342,"14 RITO GUICU, SANTA FE, NM, 87507","Match","Exact","14 RITO GUICU, SANTA FE, NM, 87507",169428375,"L"
56843,"14 RIVERBEND COURT","NEWBURGH","IN",47630,37.941373792,-87.394874212,343,"14 RIVERBEND COURT, NEWBURGH, IN, 47630","Match","Exact","14 RIVERBEND CT, NEWBURGH, IN, 47630",32210872,"L"
56844,"14 ROBERT COURT","SWEDESBORO","NJ",8085,39.7491641990001,-75.3528149969999,344,"14 ROBERT COURT, SWEDESBORO, NJ, 8085","Match","Exact","14 ROBERT CT, SWEDESBORO, NJ, 08085",134613145,"R"
56845,"14 ROBIN PLACE","WEST NYACK","NY",10994,41.0863910480001,-73.994702057,345,"14 ROBIN PLACE, WEST NYACK, NY, 10994","Match","Exact","14 ROBIN PL, WEST NYACK, NY, 10994",124612548,"L"
56846,"14 ROCKWOOD ST","JAMAICA PLAIN","MA",2130,42.312189168,-71.12760859,346,"14 ROCKWOOD ST, JAMAICA PLAIN, MA, 2130","Match","Exact","14 ROCKWOOD ST, JAMAICA PLAIN, MA, 02130",85696469,"L"
56847,"14 RODERER DRIVE","RARITAN","NJ",8869,40.578726729,-74.660328594,347,"14 RODERER DRIVE, RARITAN, NJ, 8869","Match","Exact","14 RODERER DR, RARITAN, NJ, 08869",59962209,"R"
56848,"14 RONNIES PLAZA","SAINT LOUIS","MO",63126,NA,NA,348,"14 RONNIES PLAZA, SAINT LOUIS, MO, 63126","No_Match",NA,NA,NA,NA
56849,"14 ROTUNNO PLACE","NEW ROCHELLE","NY",10801,40.9244785320001,-73.7940353559999,349,"14 ROTUNNO PLACE, NEW ROCHELLE, NY, 10801","Match","Exact","14 ROTUNNO PL, NEW ROCHELLE, NY, 10801",139749810,"R"
56850,"14 ROYAL DRIVE","MILFORD","DE",19963,38.894135094,-75.4100151809999,350,"14 ROYAL DRIVE, MILFORD, DE, 19963","Match","Exact","14 ROYAL DR, MILFORD, DE, 19963",106135779,"L"
56851,"14 S PINE STREET","TEXAS CITY","TX",77590,NA,NA,351,"14 S PINE STREET, TEXAS CITY, TX, 77590","No_Match",NA,NA,NA,NA
56852,"14 SAG HARBOR COURT","SAINT CHARLES","MO",63303,38.7496270130001,-90.533655817,352,"14 SAG HARBOR COURT, SAINT CHARLES, MO, 63303","Match","Exact","14 SAG HARBOR CT, SAINT CHARLES, MO, 63303",605586537,"L"
56853,"14 SAGE STREET","HOLMDEL","NJ",7733,40.4122121880001,-74.176949943,353,"14 SAGE STREET, HOLMDEL, NJ, 7733","Match","Exact","14 SAGE ST, HOLMDEL, NJ, 07733",601549587,"L"
56854,"14 SALINA ST","ROCHESTER","NY",14611,43.1464890060001,-77.652245668,354,"14 SALINA ST, ROCHESTER, NY, 14611","Match","Exact","14 SALINA ST, ROCHESTER, NY, 14611",14533024,"L"
56855,"14 SAM DRIVE","TINTON FALLS","NJ",7724,40.2860672680001,-74.1052783809999,355,"14 SAM DRIVE, TINTON FALLS, NJ, 7724","Match","Exact","14 SAM DR, TINTON FALLS, NJ, 07724",601178342,"L"
56856,"14 SAND LANCE DR","BALDWINSVILLE","NY",13027,43.1578037560001,-76.362766227,356,"14 SAND LANCE DR, BALDWINSVILLE, NY, 13027","Match","Exact","14 SAND LANCE DR, BALDWINSVILLE, NY, 13027",636809918,"R"
56857,"14 SANDY KNOLL DR","DOYLESTOWN","PA",18901,40.3262179590001,-75.141898214,357,"14 SANDY KNOLL DR, DOYLESTOWN, PA, 18901","Match","Exact","14 SANDY KNOLL DR, DOYLESTOWN, PA, 18901",134703122,"L"
56858,"14 SANDY LANE A","TAYLOR","TX",76574,30.6118355130001,-97.4198515639999,358,"14 SANDY LANE A, TAYLOR, TX, 76574","Match","Exact","14 SANDY LN, TAYLOR, TX, 76574",126471107,"R"
56859,"14 SANFORDS BRG","EAST HADDAM","CT",6469,NA,NA,359,"14 SANFORDS BRG, EAST HADDAM, CT, 6469","No_Match",NA,NA,NA,NA
56860,"14 SANS SOUCI CT","BAYAMON","PR",957,NA,NA,360,"14 SANS SOUCI CT, BAYAMON, PR, 957","No_Match",NA,NA,NA,NA
56861,"14 SAYBROOK POINT","SAVANNAH","GA",31419,31.9751745250001,-81.260062009,361,"14 SAYBROOK POINT, SAVANNAH, GA, 31419","Match","Exact","14 SAYBROOK PT, SAVANNAH, GA, 31419",641808712,"R"
56862,"14 SCHOOL ST","WOODBURY","CT",6798,41.5474715600001,-73.209253737,362,"14 SCHOOL ST, WOODBURY, CT, 6798","Match","Exact","14 SCHOOL ST, WOODBURY, CT, 06798",3109058,"R"
56863,"14 SEA GATE AVENUE","WESTHAMPTON","NY",11977,40.8191925020001,-72.672795354,363,"14 SEA GATE AVENUE, WESTHAMPTON, NY, 11977","Match","Exact","14 SEA GATE AVE, WESTHAMPTON, NY, 11977",114049062,"L"
56864,"14 SEASHELL COURT","SIMPSONVILLE","SC",29681,34.7804937380001,-82.1850068159999,364,"14 SEASHELL COURT, SIMPSONVILLE, SC, 29681","Match","Exact","14 SEASHELL CT, SIMPSONVILLE, SC, 29681",640763353,"R"
56865,"14 SEASIDE PLACE","NORWALK","CT",6855,41.0936446650001,-73.4039117629999,365,"14 SEASIDE PLACE, NORWALK, CT, 6855","Match","Exact","14 SEASIDE PL, NORWALK, CT, 06855",3271244,"L"
56866,"14 SEVILLA DRIVE","CLIFTON PARK","NY",12065,42.851740825,-73.798111246,366,"14 SEVILLA DRIVE, CLIFTON PARK, NY, 12065","Match","Exact","14 SEVILLA DR, CLIFTON PARK, NY, 12065",18814268,"R"
56867,"14 SHADY RUN LANE","CUMBERLAND","ME",4021,43.8080723950001,-70.2447880079999,367,"14 SHADY RUN LANE, CUMBERLAND, ME, 4021","Match","Exact","14 SHADY RUN LN, CUMBERLAND, ME, 04021",78069059,"L"
56868,"14 SHEPHERD LN","ROSLYN HTS","NY",11577,40.7789678940001,-73.639940237,368,"14 SHEPHERD LN, ROSLYN HTS, NY, 11577","Match","Exact","14 SHEPHERD LN, ROSLYN HEIGHTS, NY, 11577",147664085,"R"
56869,"14 SHEPHERD ROAD","WESTBOROUGH","MA",1581,42.281964085,-71.602168734,369,"14 SHEPHERD ROAD, WESTBOROUGH, MA, 1581","Match","Exact","14 SHEPHERD RD, WESTBOROUGH, MA, 01581",40036834,"L"
56870,"14 SHORE ROAD","HOPATCONG","NJ",7843,40.921610335,-74.658265808,370,"14 SHORE ROAD, HOPATCONG, NJ, 7843","Match","Exact","14 SHORE RD, HOPATCONG, NJ, 07843",636496606,"R"
56871,"14 SHORT STREET","EDWARDSVILLE","PA",18704,41.2667529760001,-75.9082715169999,371,"14 SHORT STREET, EDWARDSVILLE, PA, 18704","Match","Exact","14 SHORT ST, EDWARDSVILLE, PA, 18704",80913003,"L"
56872,"14 SKAGIT KY","BELLEVUE","WA",98006,47.56854329,-122.183791484,372,"14 SKAGIT KY, BELLEVUE, WA, 98006","Match","Exact","14 SKAGIT KEY, BELLEVUE, WA, 98006",239772722,"L"
56873,"14 SKILTON LANE","BURLINGTON","MA",1803,42.5139462980001,-71.199935193,373,"14 SKILTON LANE, BURLINGTON, MA, 1803","Match","Exact","14 SKILTON LN, BURLINGTON, MA, 01803",86905469,"L"
56874,"14 SLEEPY HOLLOW DR","OAK RIDGE","NJ",7438,41.013578382,-74.523488652,374,"14 SLEEPY HOLLOW DR, OAK RIDGE, NJ, 7438","Match","Exact","14 SLEEPY HOLLOW DR, OAK RIDGE, NJ, 07438",60469173,"L"
56875,"14 SNUG HILL COURT","POTOMAC","MD",20854,39.023452854,-77.169778273,375,"14 SNUG HILL COURT, POTOMAC, MD, 20854","Match","Exact","14 SNUG HILL CT, POTOMAC, MD, 20854",62054499,"L"
56876,"14 SOUNDVIEW AVE APT 8","WHITE PLAINS","NY",10606,41.019817274,-73.77498408,376,"14 SOUNDVIEW AVE APT 8, WHITE PLAINS, NY, 10606","Match","Exact","14 SOUNDVIEW AVE, WHITE PLAINS, NY, 10606",139841671,"R"
56877,"14 SOUTH 9TH STREET","TERRE HAUTE","IN",47807,39.466317722,-87.404434282,377,"14 SOUTH 9TH STREET, TERRE HAUTE, IN, 47807","Match","Exact","14 S 9TH ST, TERRE HAUTE, IN, 47807",606497557,"L"
56878,"14 SOUTH CENTRAL STREET","MILFORD","MA",1757,42.1355361400001,-71.5073201549999,378,"14 SOUTH CENTRAL STREET, MILFORD, MA, 1757","Match","Exact","14 S CENTRAL ST, MILFORD, MA, 01757",40066428,"L"
56879,"14 SOUTH FRANKLIN AVENUE","BERGENFIELD","NJ",7621,40.9275576360001,-74.003083949,379,"14 SOUTH FRANKLIN AVENUE, BERGENFIELD, NJ, 7621","Match","Exact","14 S FRANKLIN AVE, BERGENFIELD, NJ, 07621",64388199,"R"
56880,"14 SOUTH LETITIA STREET APT 401","PHILADELPHIA","PA",19106,39.949287429,-75.143070698,380,"14 SOUTH LETITIA STREET APT 401, PHILADELPHIA, PA, 19106","Match","Non_Exact","14 LETITIA ST, PHILADELPHIA, PA, 19106",131424605,"R"
56881,"14 SOUTH MEADOW RIDGE","CONCORD","MA",1742,42.451068438,-71.3880274809999,381,"14 SOUTH MEADOW RIDGE, CONCORD, MA, 1742","Match","Exact","14 S MEADOW RIDGE, CONCORD, MA, 01742",87130388,"L"
56882,"14 SOUTH ORTMAN DRIVE 28 D","ORLANDO","FL",32805,28.5413476740001,-81.4302960589999,382,"14 SOUTH ORTMAN DRIVE 28 D, ORLANDO, FL, 32805","Match","Exact","14 S ORTMAN DR, ORLANDO, FL, 32805",652515627,"R"
56883,"14 SOUTH STATE STREET","NEWTOWN","PA",18940,40.229042086,-74.936761922,383,"14 SOUTH STATE STREET, NEWTOWN, PA, 18940","Match","Exact","14 S STATE ST, NEWTOWN, PA, 18940",134710736,"R"
56884,"14 SOUTH STREET","CONCORD","NH",3301,43.2007153920001,-71.5390179839999,384,"14 SOUTH STREET, CONCORD, NH, 3301","Match","Exact","14 SOUTH ST, CONCORD, NH, 03301",117716649,"L"
56885,"14 SOUTHGATE RD","TRUMBULL","CT",6611,NA,NA,385,"14 SOUTHGATE RD, TRUMBULL, CT, 6611","No_Match",NA,NA,NA,NA
56886,"14 SPINNAKER COURT","NARRAGANSETT","RI",2882,41.4263269030001,-71.484016675,386,"14 SPINNAKER COURT, NARRAGANSETT, RI, 2882","Match","Exact","14 SPINNAKER CT, NARRAGANSETT, RI, 02882",58912342,"L"
56887,"14 SPRING STREET","STATESBORO","GA",30458,32.4458318540001,-81.7962487519999,387,"14 SPRING STREET, STATESBORO, GA, 30458","Match","Exact","14 SPRING ST, STATESBORO, GA, 30458",6115289,"L"
56888,"14 SPRING STREET","WALTHAM","MA",2451,42.3767169070001,-71.2389400929999,388,"14 SPRING STREET, WALTHAM, MA, 2451","Match","Exact","14 SPRING ST, WALTHAM, MA, 02451",87112129,"L"
56889,"14 SQUIBNOCKET DRIVE","EAST FALMOUTH","MA",2536,41.577193444,-70.545536114,389,"14 SQUIBNOCKET DRIVE, EAST FALMOUTH, MA, 2536","Match","Exact","14 SQUIBNOCKET DR, EAST FALMOUTH, MA, 02536",121619500,"R"
56890,"14 SQUIRE LANE","HEBRON","OH",43025,39.9803432300001,-82.525129853,390,"14 SQUIRE LANE, HEBRON, OH, 43025","Match","Exact","14 SQUIRE LN, HEBRON, OH, 43025",61530894,"R"
56891,"14 STONELEIGH TRAIL","VICTOR","NY",14564,43.0192934140001,-77.397455099,391,"14 STONELEIGH TRAIL, VICTOR, NY, 14564","Match","Exact","14 STONELEIGH TRL, VICTOR, NY, 14564",13486418,"L"
56892,"14 STORY STREET SUITE 400","CAMBRIDGE","MA",2138,42.3740580260001,-71.1221668109999,392,"14 STORY STREET SUITE 400, CAMBRIDGE, MA, 2138","Match","Exact","14 STORY ST, CAMBRIDGE, MA, 02138",636944820,"L"
56893,"14 STRATTON RD","MANSFIELD","MA",2048,42.0268109690001,-71.236714564,393,"14 STRATTON RD, MANSFIELD, MA, 2048","Match","Exact","14 STRATTON RD, MANSFIELD, MA, 02048",46792778,"L"
56894,"14 SULLIVANS LANE","MISSOURI CITY","TX",77459,NA,NA,394,"14 SULLIVANS LANE, MISSOURI CITY, TX, 77459","Tie",NA,NA,NA,NA
56895,"14 SUMMIT PLACE","BRANFORD","CT",6405,41.279379394,-72.8482042489999,395,"14 SUMMIT PLACE, BRANFORD, CT, 6405","Match","Exact","14 SUMMIT PL, BRANFORD, CT, 06405",635591604,"R"
56896,"14 SUNRISE HILL DRIVE","WEST HARTFORD","CT",6107,41.7465253340001,-72.758606143,396,"14 SUNRISE HILL DRIVE, WEST HARTFORD, CT, 6107","Match","Exact","14 SUNRISE HILL DR, WEST HARTFORD, CT, 06107",3513150,"L"
56897,"14 SYCAMORE CIRCLE","STEVENS","PA",17578,40.218561392,-76.1187742239999,397,"14 SYCAMORE CIRCLE, STEVENS, PA, 17578","Match","Exact","14 SYCAMORE CIR, STEVENS, PA, 17578",179648426,"L"
56898,"14 TALCOTT ROAD","NORTH EASTON","MA",2356,42.031544662,-71.121372456,398,"14 TALCOTT ROAD, NORTH EASTON, MA, 2356","Match","Exact","14 TALCOTT RD, NORTH EASTON, MA, 02356",646615546,"L"
56899,"14 TALL OAKS DR","TROY","IL",62294,38.6798403280001,-89.8719707179999,399,"14 TALL OAKS DR, TROY, IL, 62294","Match","Exact","14 TALL OAKS DR, TROY, IL, 62294",107717301,"R"
56900,"14 TANAGER WAY","MEDFORD","NJ",8055,39.8582999060001,-74.7673325599999,400,"14 TANAGER WAY, MEDFORD, NJ, 8055","Match","Exact","14 TANAGER WAY, MEDFORD, NJ, 08055",134066851,"R"
56901,"14 TAYLOR STREET","NEWNAN","GA",30263,33.3803371560001,-84.811151604,401,"14 TAYLOR STREET, NEWNAN, GA, 30263","Match","Exact","14 TAYLOR ST, NEWNAN, GA, 30263",9319334,"L"
56902,"14 THE BOULEVARD","NEW ROCHELLE","NY",10801,40.920440124,-73.78069422,402,"14 THE BOULEVARD, NEW ROCHELLE, NY, 10801","Match","Exact","14 THE BOULEVARD, NEW ROCHELLE, NY, 10801",139750351,"L"
56903,"14 THOMAS NEWTON DR","WESTBOROUGH","MA",1581,42.295499303,-71.5882838159999,403,"14 THOMAS NEWTON DR, WESTBOROUGH, MA, 1581","Match","Exact","14 THOMAS NEWTON DR, WESTBOROUGH, MA, 01581",40109118,"L"
56904,"14 THOREAU DRIVE","SOUTH EASTON","MA",2375,42.0140170880001,-71.1421003849999,404,"14 THOREAU DRIVE, SOUTH EASTON, MA, 2375","Match","Exact","14 THOREAU DR, SOUTH EASTON, MA, 02375",46779875,"L"
56905,"14 TIDEWATER FARM ROAD","GREENLAND","NH",3840,43.052893162,-70.890986653,405,"14 TIDEWATER FARM ROAD, GREENLAND, NH, 3840","Match","Exact","14 TIDEWATER FARM RD, GREENLAND, NH, 03840",113706825,"R"
56906,"14 TONI COURT","PLAINVIEW","NY",11803,40.7820114350001,-73.4766260229999,406,"14 TONI COURT, PLAINVIEW, NY, 11803","Match","Exact","14 TONI CT, PLAINVIEW, NY, 11803",147642373,"R"
56907,"14 TRAVER TINE CIR","MILLSTADT","IL",62260,38.463126485,-90.0758615349999,407,"14 TRAVER TINE CIR, MILLSTADT, IL, 62260","Match","Exact","14 TRAVER TINE CIR, MILLSTADT, IL, 62260",107887889,"L"
56908,"14 TRIPP DRIVE","NANTUCKET","MA",2554,41.249879177,-70.103379831,408,"14 TRIPP DRIVE, NANTUCKET, MA, 2554","Match","Exact","14 TRIPP DR, NANTUCKET, MA, 02554",645511350,"R"
56909,"14 TURNER CHAPEL RD SE","ROME","GA",30161,34.258112109,-85.1374714579999,409,"14 TURNER CHAPEL RD SE, ROME, GA, 30161","Match","Exact","14 TURNER CHAPEL RD SE, ROME, GA, 30161",30677989,"R"
56910,"14 TURNING LEAF DRIVE","PITTSFORD","NY",14534,43.0513038870001,-77.539119306,410,"14 TURNING LEAF DRIVE, PITTSFORD, NY, 14534","Match","Exact","14 TURNING LEAF DR, PITTSFORD, NY, 14534",14580375,"R"
56911,"14 TYLER AVE","NORWICH","CT",6360,41.5302646050001,-72.084550249,411,"14 TYLER AVE, NORWICH, CT, 6360","Match","Exact","14 TYLER AVE, NORWICH, CT, 06360",56845845,"L"
56912,"14 UPTON ST - 4","BOSTON","MA",2118,42.342025004,-71.071852397,412,"14 UPTON ST - 4, BOSTON, MA, 2118","Match","Exact","14 UPTON ST, BOSTON, MA, 02118",85698132,"L"
56913,"14 VALLEY VIEW","IRVINE","CA",92612,33.6553616040001,-117.815445155,413,"14 VALLEY VIEW, IRVINE, CA, 92612","Match","Exact","14 VALLEY VW, IRVINE, CA, 92612",144058949,"R"
56914,"14 VAN BUREN STREET","KINGSTON","NY",12401,41.930163357,-74.007364504,414,"14 VAN BUREN STREET, KINGSTON, NY, 12401","Match","Exact","14 VAN BUREN ST, KINGSTON, NY, 12401",41864672,"R"
56915,"14 VAN BUREN STREET","WASHINGTON","DC",20012,38.969972684,-77.009572506,415,"14 VAN BUREN STREET, WASHINGTON, DC, 20012","Match","Non_Exact","14 VAN BUREN ST NW, WASHINGTON, DC, 20012",76222106,"L"
56916,"14 VERA ST","DORCHESTER","MA",2124,42.2784221950001,-71.075841665,416,"14 VERA ST, DORCHESTER, MA, 2124","Match","Exact","14 VERA ST, DORCHESTER, MA, 02124",85705983,"L"
56917,"14 VIKING DR","ENGLEWOOD","CO",80113,NA,NA,417,"14 VIKING DR, ENGLEWOOD, CO, 80113","No_Match",NA,NA,NA,NA
56918,"14 VINEYARD AVE","EAST PROVIDENCE","RI",2914,41.8017900520001,-71.36500118,418,"14 VINEYARD AVE, EAST PROVIDENCE, RI, 2914","Match","Exact","14 VINEYARD AVE, E PROVIDENCE, RI, 02914",47474998,"L"
56919,"14 VININGS LAKE DR SW","MABLETON","GA",30126,33.8184749850001,-84.555993368,419,"14 VININGS LAKE DR SW, MABLETON, GA, 30126","Match","Exact","14 VININGS LAKE DR SW, MABLETON, GA, 30126",17180410,"L"
56920,"14 VISTA CLIFF PL","RICHARDSON","TX",75080,32.986639864,-96.723585634,420,"14 VISTA CLIFF PL, RICHARDSON, TX, 75080","Match","Exact","14 VISTA CLIFF PL, RICHARDSON, TX, 75080",123488502,"R"
56921,"14 VITRUVIUS COURT","OAKLEY","CA",94561,37.9891432430001,-121.68705078,421,"14 VITRUVIUS COURT, OAKLEY, CA, 94561","Match","Exact","14 VITRUVIUS CT, OAKLEY, CA, 94561",627607796,"R"
56922,"14 VOGEL AVENUE","PISCATAWAY","NJ",8854,40.575046898,-74.464544839,422,"14 VOGEL AVENUE, PISCATAWAY, NJ, 8854","Match","Exact","14 VOGEL AVE, PISCATAWAY, NJ, 08854",60259916,"R"
56923,"14 VOGT DRIVE  PO BOX 6350","BRIDGEWATER","NJ",8807,40.588994412,-74.607144333,423,"14 VOGT DRIVE  PO BOX 6350, BRIDGEWATER, NJ, 8807","Match","Exact","14 VOGT DR, BRIDGEWATER, NJ, 08807",60001293,"R"
56924,"14 W 1ST ST SUITE 1","COQUILLE","OR",97423,NA,NA,424,"14 W 1ST ST SUITE 1, COQUILLE, OR, 97423","Tie",NA,NA,NA,NA
56925,"14 W 50TH ST N","TULSA","OK",74126,36.2257707040001,-95.996291463,425,"14 W 50TH ST N, TULSA, OK, 74126","Match","Exact","14 W 50TH ST N, TULSA, OK, 74126",166435405,"L"
56926,"14 W BROAD ST","BERGENFIELD","NJ",7621,40.920184954,-73.997282847,426,"14 W BROAD ST, BERGENFIELD, NJ, 7621","Match","Exact","14 W BROAD ST, BERGENFIELD, NJ, 07621",64372188,"L"
56927,"14 W BULLION","HAILEY","ID",83333,NA,NA,427,"14 W BULLION, HAILEY, ID, 83333","Tie",NA,NA,NA,NA
56928,"14 W JORDAN ST STE C","PENSACOLA","FL",32501,30.433568657,-87.220429161,428,"14 W JORDAN ST STE C, PENSACOLA, FL, 32501","Match","Non_Exact","14 W JORDAN ST, PENSACOLA, FL, 32501",93220025,"R"
56929,"14 W PARK ST","BLOOMSBURG","PA",17815,41.0123488360001,-76.3961513529999,429,"14 W PARK ST, BLOOMSBURG, PA, 17815","Match","Exact","14 W PARK ST, BLOOMSBURG, PA, 17815",59245110,"L"
56930,"14 WALDRON DRIVE","STONY POINT","NY",10980,41.221181626,-73.9888860789999,430,"14 WALDRON DRIVE, STONY POINT, NY, 10980","Match","Exact","14 WALDRON DR, STONY POINT, NY, 10980",124590662,"R"
56931,"14 WALL STREET 20TH FLOOR","NEW YORK","NY",10005,40.707350352,-74.011008424,431,"14 WALL STREET 20TH FLOOR, NEW YORK, NY, 10005","Match","Exact","14 WALL ST, NEW YORK, NY, 10005",59659656,"L"
56932,"14 WALL STREET STE 3-F","NEW YORK","NY",10005,40.707350352,-74.011008424,432,"14 WALL STREET STE 3-F, NEW YORK, NY, 10005","Match","Exact","14 WALL ST, NEW YORK, NY, 10005",59659656,"L"
56933,"14 WALNUT AVE","WHEELING","WV",26003,40.080861987,-80.69065563,433,"14 WALNUT AVE, WHEELING, WV, 26003","Match","Exact","14 WALNUT AVE, WHEELING, WV, 26003",38100882,"L"
56934,"14 WASHINGTON PLACE","HACKENACK","NJ",7601,40.879430552,-74.04408053,434,"14 WASHINGTON PLACE, HACKENACK, NJ, 7601","Match","Non_Exact","14 WASHINGTON PL, HACKENSACK, NJ, 07601",64386436,"L"
56935,"14 WATER LANE","POTTSVILLE","PA",17901,40.6979417680001,-76.284052179,435,"14 WATER LANE, POTTSVILLE, PA, 17901","Match","Exact","14 WATER LN, POTTSVILLE, PA, 17901",70966352,"R"
56936,"14 WATERMAN PL","ST LOUIS","MO",63112,38.648850511,-90.27477463,436,"14 WATERMAN PL, ST LOUIS, MO, 63112","Match","Exact","14 WATERMAN PL, SAINT LOUIS, MO, 63112",107594161,"L"
56937,"14 WATERVIEW LANE","SETAUKET","NY",11733,40.942812593,-73.138499955,437,"14 WATERVIEW LANE, SETAUKET, NY, 11733","Match","Exact","14 WATERVIEW LN, SETAUKET, NY, 11733",113986780,"L"
56938,"14 WEDGE LANE","CONCHO","AZ",85924,34.4236152490001,-109.637988025,438,"14 WEDGE LANE, CONCHO, AZ, 85924","Match","Exact","14 WEDGE LN, CONCHO, AZ, 85924",172112536,"R"
56939,"14 WELL AVE","DANBURY","CT",6810,41.390286776,-73.467819584,439,"14 WELL AVE, DANBURY, CT, 6810","Match","Exact","14 WELL AVE, DANBURY, CT, 06810",3231739,"L"
56940,"14 WEST MADISON STREET","LATROBE","PA",15650,40.306098535,-79.375342539,440,"14 WEST MADISON STREET, LATROBE, PA, 15650","Match","Exact","14 W MADISON ST, LATROBE, PA, 15650",636649830,"R"
56941,"14 WEST MANGO ROAD","LAKE WORTH","FL",33467,26.609398023,-80.1658942559999,441,"14 WEST MANGO ROAD, LAKE WORTH, FL, 33467","Match","Exact","14 W MANGO RD, LAKE WORTH, FL, 33467",115282944,"L"
56942,"14 WEST SOUTH STREET","CHAMBERSBURG","PA",17201,39.930271109,-77.663229341,442,"14 WEST SOUTH STREET, CHAMBERSBURG, PA, 17201","Match","Exact","14 W SOUTH ST, CHAMBERSBURG, PA, 17201",60095226,"L"
56943,"14 WHALER LN","BERLIN","MD",21811,38.396097072,-75.163200177,443,"14 WHALER LN, BERLIN, MD, 21811","Match","Exact","14 WHALER LN, BERLIN, MD, 21811",114510611,"L"
56944,"14 WHISPERING COURT","OWINGS MILLS","MD",21117,39.4318409690001,-76.806535109,444,"14 WHISPERING COURT, OWINGS MILLS, MD, 21117","Match","Exact","14 WHISPERING CT, OWINGS MILLS, MD, 21117",647305665,"R"
56945,"14 WHISTLER COURT","IRVINE","CA",92617,33.6348952330001,-117.839712233,445,"14 WHISTLER COURT, IRVINE, CA, 92617","Match","Exact","14 WHISTLER CT, IRVINE, CA, 92617",144383348,"L"
56946,"14 WHITE DOVE CT","LAKEWOOD","NJ",8701,40.069056118,-74.227580645,446,"14 WHITE DOVE CT, LAKEWOOD, NJ, 8701","Match","Exact","14 WHITE DOVE CT, LAKEWOOD, NJ, 08701",641795133,"R"
56947,"14 WHITTINGHAM TERRACE","MILLBURN","NJ",7041,40.7239309,-74.3044272929999,447,"14 WHITTINGHAM TERRACE, MILLBURN, NJ, 7041","Match","Exact","14 WHITTINGHAM TER, MILLBURN, NJ, 07041",63461846,"L"
56948,"14 WICKLOW DR","ORANGE","TX",77632,30.1650701240001,-93.753399148,448,"14 WICKLOW DR, ORANGE, TX, 77632","Match","Exact","14 WICKLOW DR, ORANGE, TX, 77632",74013693,"R"
56949,"14 WILCOX ROAD","DORCHESTER","MA",2124,42.2853403760001,-71.0585996299999,449,"14 WILCOX ROAD, DORCHESTER, MA, 2124","Match","Exact","14 WILCOX RD, DORCHESTER, MA, 02124",85715295,"L"
56950,"14 WILMORE STREET APT 3","MATTAPAN","MA",2126,42.2783338630001,-71.092930837,450,"14 WILMORE STREET APT 3, MATTAPAN, MA, 2126","Match","Exact","14 WILMORE ST, MATTAPAN, MA, 02126",85725830,"L"
56951,"14 WINDRIDGE LANE","BEEVILLE","TX",78102,28.4191016130001,-97.773173426,451,"14 WINDRIDGE LANE, BEEVILLE, TX, 78102","Match","Non_Exact","14 WINDRIDGE DR, BEEVILLE, TX, 78102",35612823,"L"
56952,"14 WINDSOR STREET","DOVER","MA",2030,42.2453490660001,-71.324755184,452,"14 WINDSOR STREET, DOVER, MA, 2030","Match","Non_Exact","14 WINDSOR RD, DOVER, MA, 02030",87237318,"R"
56953,"14 WINGED FOOT CT","CHESHIRE","CT",6410,41.5207417300001,-72.883871316,453,"14 WINGED FOOT CT, CHESHIRE, CT, 6410","Match","Exact","14 WINGED FOOT CT, CHESHIRE, CT, 06410",3751679,"R"
56954,"14 WINNEBAGO CIRCLE","CHEROKEE VILLAGE","AR",72529,36.30121876,-91.546551931,454,"14 WINNEBAGO CIRCLE, CHEROKEE VILLAGE, AR, 72529","Match","Exact","14 WINNEBAGO CIR, CHEROKEE VLG, AR, 72529",33251331,"L"
56955,"14 WOOD ST","LYNBROOK","NY",11563,40.65897812,-73.683936393,455,"14 WOOD ST, LYNBROOK, NY, 11563","Match","Exact","14 WOOD ST, LYNBROOK, NY, 11563",147670837,"R"
56956,"14 WOOD STREET","SAN FRANCISCO","CA",94118,37.783846139,-122.448690077,456,"14 WOOD STREET, SAN FRANCISCO, CA, 94118","Match","Exact","14 WOOD ST, SAN FRANCISCO, CA, 94118",653156904,"L"
56957,"14 WOODLAND AVE","VERONA","NJ",7044,40.833247692,-74.228664465,457,"14 WOODLAND AVE, VERONA, NJ, 7044","Match","Exact","14 WOODLAND AVE, VERONA, NJ, 07044",63447774,"R"
56958,"14 WOODRIDGE COURT","NEWTON","NJ",7860,41.0404536890001,-74.7578416659999,458,"14 WOODRIDGE COURT, NEWTON, NJ, 7860","Match","Exact","14 WOODRIDGE CT, NEWTON, NJ, 07860",627066202,"L"
56959,"14 WOODRIDGE CT","NEWTON","NJ",7860,41.0404536890001,-74.7578416659999,459,"14 WOODRIDGE CT, NEWTON, NJ, 7860","Match","Exact","14 WOODRIDGE CT, NEWTON, NJ, 07860",627066202,"L"
56960,"14 WOODSIDE AVE","BINGHAMTON","NY",13903,42.0983497230001,-75.867936425,460,"14 WOODSIDE AVE, BINGHAMTON, NY, 13903","Match","Exact","14 WOODSIDE AVE, BINGHAMTON, NY, 13903",46354971,"R"
56961,"14 WRIGHT BOULEVARD","HOPEWELL JUNCTION","NY",12533,41.60025805,-73.823910172,461,"14 WRIGHT BOULEVARD, HOPEWELL JUNCTION, NY, 12533","Match","Exact","14 WRIGHT BLVD, HOPEWELL JCT, NY, 12533",4198604,"R"
56962,"14 WRIGHT LN","BUZZARDS BAY","MA",2532,41.744454622,-70.620316456,462,"14 WRIGHT LN, BUZZARDS BAY, MA, 2532","Match","Exact","14 WRIGHT LN, BUZZARDS BAY, MA, 02532",121625130,"R"
56963,"14 WYCKOFF WAY","CHESTER","NJ",7930,40.774812469,-74.694931523,463,"14 WYCKOFF WAY, CHESTER, NJ, 7930","Match","Exact","14 WYCKOFF WAY, CHESTER, NJ, 07930",60475855,"R"
56964,"14 YOSEMITE DR","NEW ORLEANS","LA",70131,29.9169445900001,-90.011236804,464,"14 YOSEMITE DR, NEW ORLEANS, LA, 70131","Match","Exact","14 YOSEMITE DR, NEW ORLEANS, LA, 70131",191720183,"L"
56965,"14-00 BERDAN","FAIR LAWN","NJ",7410,NA,NA,465,"14-00 BERDAN, FAIR LAWN, NJ, 7410","Tie",NA,NA,NA,NA
56966,"14-16 SPRING STREET","SCHUYLERVILLE","NY",12871,43.1040392950001,-73.5797910439999,466,"14-16 SPRING STREET, SCHUYLERVILLE, NY, 12871","Match","Exact","14 SPRING ST, SCHUYLERVILLE, NY, 12871",18769419,"R"
56967,"14-31 31ST DRIVE","LONG ISLAND CITY","NY",11106,40.766813035,-73.9322084569999,467,"14-31 31ST DRIVE, LONG ISLAND CITY, NY, 11106","Match","Exact","14-31 31ST DR, LONG ISLAND CITY, NY, 11106",59696254,"L"
56968,"14-3456 MAUI STREET","PAHOA","HI",96778,19.5007231270001,-154.915740841,468,"14-3456 MAUI STREET, PAHOA, HI, 96778","Match","Non_Exact","14 MAUI RD, PAHOA, HI, 96778",202975250,"R"
56969,"14-O FERNWOOD DR","BOLINGBROOK","IL",60440,41.6928460510001,-88.0738247689999,469,"14-O FERNWOOD DR, BOLINGBROOK, IL, 60440","Match","Exact","14 FERNWOOD DR, BOLINGBROOK, IL, 60440",111535313,"R"
56970,"14","ARNOLD","MO",63010,NA,NA,470,"14, ARNOLD, MO, 63010","No_Match",NA,NA,NA,NA
56971,"14","LAYTON","UT",84041,NA,NA,471,"14, LAYTON, UT, 84041","No_Match",NA,NA,NA,NA
56972,"14","MILTON","GA",30004,NA,NA,472,"14, MILTON, GA, 30004","No_Match",NA,NA,NA,NA
56973,"14","PENNSVILLE","NJ",8070,NA,NA,473,"14, PENNSVILLE, NJ, 8070","No_Match",NA,NA,NA,NA
56974,"140 16TH ST NE","MCCLUSKY","ND",58463,47.646649982,-100.51998456,474,"140 16TH ST NE, MCCLUSKY, ND, 58463","Match","Exact","140 16TH ST NE, MCCLUSKY, ND, 58463",199124765,"L"
56975,"140 18TH STREET","CLARKSDALE","MS",38614,34.186279518,-90.5654781709999,475,"140 18TH STREET, CLARKSDALE, MS, 38614","Match","Exact","140 18TH ST, CLARKSDALE, MS, 38614",951713,"R"
56976,"140 78TH ST D6","NORTH BERGEN","NJ",7047,40.7977941840001,-74.000577662,476,"140 78TH ST D6, NORTH BERGEN, NJ, 7047","Match","Exact","140 78TH ST, NORTH BERGEN, NJ, 07047",59599810,"R"
56977,"140 8TH STREET","GORHAM","KS",67640,38.8852853750001,-99.0244580949999,477,"140 8TH STREET, GORHAM, KS, 67640","Match","Exact","140 8TH ST, GORHAM, KS, 67640",647756020,"L"
56978,"140 ABBY COURT","ELIZABETHTOWN","KY",42701,37.684167874,-85.860348855,478,"140 ABBY COURT, ELIZABETHTOWN, KY, 42701","Match","Exact","140 ABBY CT, ELIZABETHTOWN, KY, 42701",34623879,"R"
56979,"140 ADAMS AVE STE A5","HAUPPAUGE","NY",11788,40.8149003080001,-73.255999969,479,"140 ADAMS AVE STE A5, HAUPPAUGE, NY, 11788","Match","Exact","140 ADAMS AVE, HAUPPAUGE, NY, 11788",113983622,"L"
56980,"140 ADAMS AVE STE B12","HAUPPAUGE","NY",11788,40.8149003080001,-73.255999969,480,"140 ADAMS AVE STE B12, HAUPPAUGE, NY, 11788","Match","Exact","140 ADAMS AVE, HAUPPAUGE, NY, 11788",113983622,"L"
56981,"140 ADAMS AVENUE SUITE A5","HAUPPAUGE","NY",11788,40.8149003080001,-73.255999969,481,"140 ADAMS AVENUE SUITE A5, HAUPPAUGE, NY, 11788","Match","Exact","140 ADAMS AVE, HAUPPAUGE, NY, 11788",113983622,"L"
56982,"140 ADAMS STREET","IOLA","WI",54945,44.506679293,-89.1229739349999,482,"140 ADAMS STREET, IOLA, WI, 54945","Match","Exact","140 ADAMS ST, IOLA, WI, 54945",74954670,"L"
56983,"140 ADVANCE PT","MAITLAND","FL",32751,NA,NA,483,"140 ADVANCE PT, MAITLAND, FL, 32751","No_Match",NA,NA,NA,NA
56984,"140 ALLEN ROAD","WINSTON-SALEM","NC",27028,35.938323079,-80.6034376919999,484,"140 ALLEN ROAD, WINSTON-SALEM, NC, 27028","Match","Non_Exact","140 ALLEN RD, MOCKSVILLE, NC, 27028",640643401,"L"
56985,"140 ARBOR SPRINGS PKWY","NEWNAN","GA",30265,33.459244008,-84.703567697,485,"140 ARBOR SPRINGS PKWY, NEWNAN, GA, 30265","Match","Exact","140 ARBOR SPRINGS PKWY, NEWNAN, GA, 30265",634031742,"R"
56986,"140 ARCH ST","ATHENS","GA",30601,33.95858208,-83.3609424329999,486,"140 ARCH ST, ATHENS, GA, 30601","Match","Exact","140 ARCH ST, ATHENS, GA, 30601",4802856,"R"
56987,"140 ASCH LOOP","BRONX","NY",10475,NA,NA,487,"140 ASCH LOOP, BRONX, NY, 10475","Tie",NA,NA,NA,NA
56988,"140 ASTOR WAY","S YARMOUTH","MA",2664,41.6872584430001,-70.194407907,488,"140 ASTOR WAY, S YARMOUTH, MA, 2664","Match","Exact","140 ASTOR WAY, SOUTH YARMOUTH, MA, 02664",121566219,"L"
56989,"140 AUDUBON AVENUE APT 3A","JERSEY CITY","NJ",7305,40.7102130010001,-74.0905411049999,489,"140 AUDUBON AVENUE APT 3A, JERSEY CITY, NJ, 7305","Match","Exact","140 AUDUBON AVE, JERSEY CITY, NJ, 07305",59602140,"R"
56990,"140 AUDUBON AVENUE APT 5 F","JERSEY CITY","NJ",7305,40.7102130010001,-74.0905411049999,490,"140 AUDUBON AVENUE APT 5 F, JERSEY CITY, NJ, 7305","Match","Exact","140 AUDUBON AVE, JERSEY CITY, NJ, 07305",59602140,"R"
56991,"140 AUDUBON PARK","DAYTON","OH",45402,39.7646229370001,-84.211242526,491,"140 AUDUBON PARK, DAYTON, OH, 45402","Match","Exact","140 AUDUBON PARK, DAYTON, OH, 45402",637801233,"L"
56992,"140 B EAST LIMESTONE STREET","YELLOW SPRINGS","OH",45387,39.8032497460001,-83.889265226,492,"140 B EAST LIMESTONE STREET, YELLOW SPRINGS, OH, 45387","Match","Exact","140 E LIMESTONE ST, YELLOW SPGS, OH, 45387",143386147,"R"
56993,"140 BALDWIN ST","JOHNSON CITY","NY",13790,42.1112251860001,-75.957640489,493,"140 BALDWIN ST, JOHNSON CITY, NY, 13790","Match","Exact","140 BALDWIN ST, JOHNSON CITY, NY, 13790",46340181,"R"
56994,"140 BANKS ROAD","EASTON","CT",6612,41.2429635730001,-73.291094645,494,"140 BANKS ROAD, EASTON, CT, 6612","Match","Exact","140 BANKS RD, EASTON, CT, 06612",3239325,"R"
56995,"140 BARCELONA DRIVE","COVINGTON","GA",30016,33.506854079,-83.9427363789999,495,"140 BARCELONA DRIVE, COVINGTON, GA, 30016","Match","Exact","140 BARCELONA DR, COVINGTON, GA, 30016",618473066,"R"
56996,"140 BAY STREET 7N","JERSEY CITY","NJ",7302,40.7206358700001,-74.0392792919999,496,"140 BAY STREET 7N, JERSEY CITY, NJ, 7302","Match","Exact","140 BAY ST, JERSEY CITY, NJ, 07302",59606312,"R"
56997,"140 BAYONA DRIVE","SANTA CRUZ","CA",95060,36.969355211,-122.047426615,497,"140 BAYONA DRIVE, SANTA CRUZ, CA, 95060","Match","Exact","140 BAYONA DR, SANTA CRUZ, CA, 95060",125505483,"R"
56998,"140 BEEKS CIR","WILLIAMSON","GA",30292,33.1613662080001,-84.420235218,498,"140 BEEKS CIR, WILLIAMSON, GA, 30292","Match","Exact","140 BEEKS CIR, WILLIAMSON, GA, 30292",83669088,"R"
56999,"140 BEHRING WAY","JUPITER","FL",33458,NA,NA,499,"140 BEHRING WAY, JUPITER, FL, 33458","No_Match",NA,NA,NA,NA
57000,"140 BELLEVUE AVENUE","SPRINGFIELD","PA",19064,39.92083832,-75.3149211859999,500,"140 BELLEVUE AVENUE, SPRINGFIELD, PA, 19064","Match","Exact","140 BELLEVUE AVE, SPRINGFIELD, PA, 19064",134882953,"R"
