"ID","Address","City","State","Zip","lat","long","id","input_address","match_indicator","match_type","matched_address","tiger_line_id","tiger_side"
25501,"11279 HILLPARK AVENUE","BATON ROUGE","LA",70810,30.349622074,-91.1017004559999,1,"11279 HILLPARK AVENUE, BATON ROUGE, LA, 70810","Match","Exact","11279 HILLPARK AVE, BATON ROUGE, LA, 70810",618057987,"L"
25502,"11279 MANTUA CENTER RD","MANTUA","OH",44255,41.2987032870001,-81.245439102,2,"11279 MANTUA CENTER RD, MANTUA, OH, 44255","Match","Exact","11279 MANTUA CENTER RD, MANTUA, OH, 44255",137544090,"L"
25503,"11279 STATE ROUTE 21","HILLSBORO","MO",63050,NA,NA,3,"11279 STATE ROUTE 21, HILLSBORO, MO, 63050","No_Match",NA,NA,NA,NA
25504,"1128 16TH AVE","SEATTLE","WA",98122,47.611755246,-122.311470126,4,"1128 16TH AVE, SEATTLE, WA, 98122","Match","Exact","1128 16TH AVE, SEATTLE, WA, 98122",186592653,"R"
25505,"1128 33RD AVE S","SEATTLE","WA",98144,47.5932158690001,-122.290345414,5,"1128 33RD AVE S, SEATTLE, WA, 98144","Match","Exact","1128 33RD AVE S, SEATTLE, WA, 98144",186594608,"L"
25506,"1128 44TH STREET","BROOKLYN","NY",11219,40.640251866,-73.993224708,6,"1128 44TH STREET, BROOKLYN, NY, 11219","Match","Exact","1128 44TH ST, BROOKLYN, NY, 11219",59080103,"R"
25507,"1128 46TH PLACE SE","WASHINGTON","DC",20019,38.8776320900001,-76.9333808119999,7,"1128 46TH PLACE SE, WASHINGTON, DC, 20019","Match","Exact","1128 46TH PL SE, WASHINGTON, DC, 20019",76236687,"L"
25508,"1128 ALA NAPUNANI STREET PH5","HONOLULU","HI",96818,21.3482338090001,-157.90226744,8,"1128 ALA NAPUNANI STREET PH5, HONOLULU, HI, 96818","Match","Exact","1128 ALA NAPUNANI ST, HONOLULU, HI, 96818",203232028,"L"
25509,"1128 AQUARIUS DR","PORTALES","NM",88130,34.1828871440001,-103.324868909,9,"1128 AQUARIUS DR, PORTALES, NM, 88130","Match","Exact","1128 AQUARIUS DR, PORTALES, NM, 88130",163928402,"R"
25510,"1128 BELMEADE DR","VIRGINIA BEACH","VA",23455,36.874494972,-76.156232301,10,"1128 BELMEADE DR, VIRGINIA BEACH, VA, 23455","Match","Exact","1128 BELMEADE DR, VIRGINIA BCH, VA, 23455",641468403,"R"
25511,"1128 BENT TREE LANE","SEARCY","AR",72143,35.2408920250001,-91.791480237,11,"1128 BENT TREE LANE, SEARCY, AR, 72143","Match","Exact","1128 BENT TREE LN, SEARCY, AR, 72143",627649754,"R"
25512,"1128 BREAKER COVE","FORT WAYNE","IN",46845,41.207538227,-85.127381815,12,"1128 BREAKER COVE, FORT WAYNE, IN, 46845","Match","Exact","1128 BREAKER COVE, FORT WAYNE, IN, 46845",606526879,"R"
25513,"1128 BUGLE LN","NEWTON","NC",28658,35.666005549,-81.286410597,13,"1128 BUGLE LN, NEWTON, NC, 28658","Match","Exact","1128 BUGLE LN, NEWTON, NC, 28658",648862516,"R"
25514,"1128 CLUB TERRACE","MT PLEASANT","SC",29464,32.8411874290001,-79.82110217,14,"1128 CLUB TERRACE, MT PLEASANT, SC, 29464","Match","Exact","1128 CLUB TER, MOUNT PLEASANT, SC, 29464",108809071,"R"
25515,"1128 COMMONWEALTH AVENUE SUITE B","BOSTON","MA",2134,42.3509329440001,-71.125958719,15,"1128 COMMONWEALTH AVENUE SUITE B, BOSTON, MA, 2134","Match","Exact","1128 COMMONWEALTH AVE, BOSTON, MA, 02134",85695854,"L"
25516,"1128 COTTMAN AVE","PHILADELPHIA","PA",19111,40.0599564190001,-75.0812734259999,16,"1128 COTTMAN AVE, PHILADELPHIA, PA, 19111","Match","Exact","1128 COTTMAN AVE, PHILADELPHIA, PA, 19111",131415769,"R"
25517,"1128 DEER TRAIL ROAD","WEIMAR","TX",78962,29.598671918,-96.677920061,17,"1128 DEER TRAIL ROAD, WEIMAR, TX, 78962","Match","Exact","1128 DEER TRAIL RD, WEIMAR, TX, 78962",41217065,"R"
25518,"1128 E 15TH ST","BROOKLYN","NY",11230,40.6220142070001,-73.960796651,18,"1128 E 15TH ST, BROOKLYN, NY, 11230","Match","Exact","1128 E 15TH ST, BROOKLYN, NY, 11230",59089668,"R"
25519,"1128 E WEISGARBER ROAD SUITE 100","KNOXVILLE","TN",37909,NA,NA,19,"1128 E WEISGARBER ROAD SUITE 100, KNOXVILLE, TN, 37909","Tie",NA,NA,NA,NA
25520,"1128 EAST BOWEN AVE  APT 3B","CHICAGO","IL",60653,41.818679333,-87.599422454,20,"1128 EAST BOWEN AVE  APT 3B, CHICAGO, IL, 60653","Match","Exact","1128 E BOWEN AVE, CHICAGO, IL, 60653",618345803,"L"
25521,"1128 ELM CT","BRAWLEY","CA",92227,32.9929790580001,-115.535896033,21,"1128 ELM CT, BRAWLEY, CA, 92227","Match","Exact","1128 ELM CT, BRAWLEY, CA, 92227",194543332,"R"
25522,"1128 GARDNER RD","WESTCHESTER","IL",60154,41.865076673,-87.867832958,22,"1128 GARDNER RD, WESTCHESTER, IL, 60154","Match","Exact","1128 GARDNER RD, WESTCHESTER, IL, 60154",605139673,"R"
25523,"1128 GATE DANCER AVE","HENDERSON","NV",89015,36.026738675,-114.944936718,23,"1128 GATE DANCER AVE, HENDERSON, NV, 89015","Match","Exact","1128 GATE DANCER AVE, HENDERSON, NV, 89015",201928469,"L"
25524,"1128 GRANDVIEW AVE","WESTFIELD","NJ",7090,40.6450210790001,-74.326957717,24,"1128 GRANDVIEW AVE, WESTFIELD, NJ, 7090","Match","Exact","1128 GRANDVIEW AVE, WESTFIELD, NJ, 07090",642134302,"R"
25525,"1128 HARLEM ROAD","MACHESNEY PARK","IL",61115,42.339817426,-89.041162964,25,"1128 HARLEM ROAD, MACHESNEY PARK, IL, 61115","Match","Exact","1128 HARLEM RD, MACHESNEY PARK, IL, 61115",605021906,"L"
25526,"1128 HISTORIC FOURTH STREET","SIOUX CITY","IA",51101,42.4942300010001,-96.395932092,26,"1128 HISTORIC FOURTH STREET, SIOUX CITY, IA, 51101","Match","Non_Exact","1128 4TH ST, SIOUX CITY, IA, 51101",93423436,"R"
25527,"1128 JONESTOWN ROAD","HARRISBURG","PA",17103,40.265836882,-76.874050975,27,"1128 JONESTOWN ROAD, HARRISBURG, PA, 17103","Match","Exact","1128 JONESTOWN RD, HARRISBURG, PA, 17103",639138260,"L"
25528,"1128 LAGONDA AVE","SPRINGFIELD","OH",45503,39.9290667940001,-83.7917318619999,28,"1128 LAGONDA AVE, SPRINGFIELD, OH, 45503","Match","Exact","1128 LAGONDA AVE, SPRINGFIELD, OH, 45503",135023265,"L"
25529,"1128 LAKEVIEW DRIVE","CEDAR FALLS","IA",50613,42.5476298200001,-92.4809434649999,29,"1128 LAKEVIEW DRIVE, CEDAR FALLS, IA, 50613","Match","Exact","1128 LAKEVIEW DR, CEDAR FALLS, IA, 50613",212735892,"L"
25530,"1128 LANGLEY LANE","MCLEAN","VA",22101,38.945730241,-77.164497188,30,"1128 LANGLEY LANE, MCLEAN, VA, 22101","Match","Exact","1128 LANGLEY LN, MCLEAN, VA, 22101",75963324,"L"
25531,"1128 LENOX RD SUITE 2R","BROOKLYN","NY",11212,40.659164177,-73.9187746009999,31,"1128 LENOX RD SUITE 2R, BROOKLYN, NY, 11212","Match","Exact","1128 LENOX RD, BROOKLYN, NY, 11212",59083967,"R"
25532,"1128 LINCOLN MALL  SUITE 300","LINCOLN","NE",68508,40.8080932190001,-96.7050788349999,32,"1128 LINCOLN MALL  SUITE 300, LINCOLN, NE, 68508","Match","Exact","1128 LINCOLN MALL, LINCOLN, NE, 68508",28253284,"L"
25533,"1128 LINCOLN MALL STE 300","LINCOLN","NE",68508,40.8080932190001,-96.7050788349999,33,"1128 LINCOLN MALL STE 300, LINCOLN, NE, 68508","Match","Exact","1128 LINCOLN MALL, LINCOLN, NE, 68508",28253284,"L"
25534,"1128 LINCOLN MALL SUITE 300","LINCOLN","NE",68508,40.8080932190001,-96.7050788349999,34,"1128 LINCOLN MALL SUITE 300, LINCOLN, NE, 68508","Match","Exact","1128 LINCOLN MALL, LINCOLN, NE, 68508",28253284,"L"
25535,"1128 MAIN ST","WINDERMERE","FL",34786,28.488097704,-81.532128386,35,"1128 MAIN ST, WINDERMERE, FL, 34786","Match","Exact","1128 MAIN ST, WINDERMERE, FL, 34786",94266311,"R"
25536,"1128 MEYER ROAD","OJAI","CA",93023,NA,NA,36,"1128 MEYER ROAD, OJAI, CA, 93023","No_Match",NA,NA,NA,NA
25537,"1128 MILL ROAD","PEN ARGYL","PA",18072,40.8385016010001,-75.23966559,37,"1128 MILL ROAD, PEN ARGYL, PA, 18072","Match","Exact","1128 MILL RD, PEN ARGYL, PA, 18072",136871974,"L"
25538,"1128 N LOUISE DR","ANAHEIM","CA",92805,33.849920104,-117.898954677,38,"1128 N LOUISE DR, ANAHEIM, CA, 92805","Match","Exact","1128 N LOUISE DR, ANAHEIM, CA, 92805",144026088,"R"
25539,"1128 NEPTUNE ROAD","ASHLAND CITY","TN",37015,36.3468179120001,-87.181310821,39,"1128 NEPTUNE ROAD, ASHLAND CITY, TN, 37015","Match","Exact","1128 NEPTUNE RD, ASHLAND CITY, TN, 37015",608453538,"R"
25540,"1128 OAKHURST DRIVE","LOS ANGELES","CA",90035,34.0567988760001,-118.390755551,40,"1128 OAKHURST DRIVE, LOS ANGELES, CA, 90035","Match","Non_Exact","1128 S OAKHURST DR, LOS ANGELES, CA, 90035",141572722,"L"
25541,"1128 PINE STREET","BOULDER","CO",80302,40.019723997,-105.28157308,41,"1128 PINE STREET, BOULDER, CO, 80302","Match","Exact","1128 PINE ST, BOULDER, CO, 80302",188159681,"R"
25542,"1128 PLANTATION DR","CONYERS","GA",30094,33.569788068,-84.03785693,42,"1128 PLANTATION DR, CONYERS, GA, 30094","Match","Non_Exact","1128 PLANTATION DR SE, CONYERS, GA, 30094",23747078,"R"
25543,"1128 RIVERSIDE DR","AUBURN","ME",4210,44.0543278650001,-70.2031113739999,43,"1128 RIVERSIDE DR, AUBURN, ME, 4210","Match","Exact","1128 RIVERSIDE DR, AUBURN, ME, 04210",77979064,"L"
25544,"1128 ROYAL PALM BEACH BLVD  375","ROYAL PALM BEACH","FL",33411,26.706979661,-80.229179917,44,"1128 ROYAL PALM BEACH BLVD  375, ROYAL PALM BEACH, FL, 33411","Match","Exact","1128 ROYAL PALM BEACH BLVD, ROYAL PALM BEACH, FL, 33411",115507990,"R"
25545,"1128 ROYAL PALM BEACH BLVD NUM 141","ROYAL PALM BEACH","FL",33411,26.706979661,-80.229179917,45,"1128 ROYAL PALM BEACH BLVD NUM 141, ROYAL PALM BEACH, FL, 33411","Match","Exact","1128 ROYAL PALM BEACH BLVD, ROYAL PALM BEACH, FL, 33411",115507990,"R"
25546,"1128 ROYAL PALM BEACH BLVD STE 145","ROYAL PALM BEACH","FL",33411,26.706979661,-80.229179917,46,"1128 ROYAL PALM BEACH BLVD STE 145, ROYAL PALM BEACH, FL, 33411","Match","Exact","1128 ROYAL PALM BEACH BLVD, ROYAL PALM BEACH, FL, 33411",115507990,"R"
25547,"1128 ROYAL PALM BEACH BLVD UNIT 114","ROYAL PALM BEACH","FL",33411,26.706979661,-80.229179917,47,"1128 ROYAL PALM BEACH BLVD UNIT 114, ROYAL PALM BEACH, FL, 33411","Match","Exact","1128 ROYAL PALM BEACH BLVD, ROYAL PALM BEACH, FL, 33411",115507990,"R"
25548,"1128 ROYAL PALM BEACH BLVD","ROYAL PALM BEACH","FL",33411,26.706979661,-80.229179917,48,"1128 ROYAL PALM BEACH BLVD, ROYAL PALM BEACH, FL, 33411","Match","Exact","1128 ROYAL PALM BEACH BLVD, ROYAL PALM BEACH, FL, 33411",115507990,"R"
25549,"1128 ROYAL PALM BEACH BLVD/344","ROYAL PALM BEACH","FL",33411,26.706979661,-80.229179917,49,"1128 ROYAL PALM BEACH BLVD/344, ROYAL PALM BEACH, FL, 33411","Match","Non_Exact","1128 ROYAL PALM BEACH BLVD, ROYAL PALM BEACH, FL, 33411",115507990,"R"
25550,"1128 S CHAPEL AVENUE","ALHAMBRA","CA",91801,34.0821380630001,-118.119773548,50,"1128 S CHAPEL AVENUE, ALHAMBRA, CA, 91801","Match","Exact","1128 S CHAPEL AVE, ALHAMBRA, CA, 91801",141636693,"L"
25551,"1128 SANTA HELENA","HENDERSON","NV",89002,35.989070387,-114.945097302,51,"1128 SANTA HELENA, HENDERSON, NV, 89002","Match","Non_Exact","1128 SANTA HELENA AVE, HENDERSON, NV, 89002",638573896,"L"
25552,"1128 SCARLETT DR","HIGH POINT","NC",27265,36.027781711,-80.027643321,52,"1128 SCARLETT DR, HIGH POINT, NC, 27265","Match","Exact","1128 SCARLETT DR, HIGH POINT, NC, 27265",131098101,"R"
25553,"1128 SIERRA LANE","GROVETOWN","GA",30813,33.4475348280001,-82.205563049,53,"1128 SIERRA LANE, GROVETOWN, GA, 30813","Match","Exact","1128 SIERRA LN, GROVETOWN, GA, 30813",640782139,"R"
25554,"1128 SYCAMORE LANE","MAHWAH","NJ",7430,41.0760655710001,-74.163409164,54,"1128 SYCAMORE LANE, MAHWAH, NJ, 7430","Match","Exact","1128 SYCAMORE LN, MAHWAH, NJ, 07430",64412143,"L"
25555,"1128 W MICHIGAN AVE SUITE 1","KALAMAZOO","MI",49006,42.28749708,-85.6012394109999,55,"1128 W MICHIGAN AVE SUITE 1, KALAMAZOO, MI, 49006","Match","Non_Exact","1128 W MICHIGAN AVE, KALAMAZOO, MI, 49006",12246520,"L"
25556,"1128 W RIDGEWAY DR","FAYETTEVILLE","AR",72701,36.07751976,-94.1349913189999,56,"1128 W RIDGEWAY DR, FAYETTEVILLE, AR, 72701","Match","Exact","1128 W RIDGEWAY DR, FAYETTEVILLE, AR, 72701",49046700,"R"
25557,"1128 W TUDOR ST","SAN DIMAS","CA",91773,34.1017216120001,-117.830277848,57,"1128 W TUDOR ST, SAN DIMAS, CA, 91773","Match","Exact","1128 W TUDOR ST, SAN DIMAS, CA, 91773",141725823,"L"
25558,"1128 WATERLOO RD","MOGADORE","OH",44260,41.0228503500001,-81.351551055,58,"1128 WATERLOO RD, MOGADORE, OH, 44260","Match","Exact","1128 WATERLOO RD, MOGADORE, OH, 44260",208682413,"R"
25559,"11280 CIRCLE DRIVE","BLUE GRASS","IA",52726,41.469245243,-90.715226396,59,"11280 CIRCLE DRIVE, BLUE GRASS, IA, 52726","Match","Exact","11280 CIRCLE DR, BLUE GRASS, IA, 52726",122723314,"L"
25560,"11280 CORBIN AVENUE","PORTER RANCH","CA",91326,34.27759912,-118.563873656,60,"11280 CORBIN AVENUE, PORTER RANCH, CA, 91326","Match","Exact","11280 CORBIN AVE, PORTER RANCH, CA, 91326",638619844,"R"
25561,"11280 SPICA DRIVE","SAN DIEGO","CA",92126,32.930602293,-117.138886301,61,"11280 SPICA DRIVE, SAN DIEGO, CA, 92126","Match","Exact","11280 SPICA DR, SAN DIEGO, CA, 92126",195318224,"L"
25562,"11280 THREE RIVERS ROAD","GULFPORT","MS",39503,30.4488686240001,-89.075574896,62,"11280 THREE RIVERS ROAD, GULFPORT, MS, 39503","Match","Exact","11280 THREE RIVERS RD, GULFPORT, MS, 39503",641216959,"R"
25563,"11281 BASSEMIER RD","HAMMOND","LA",70403,30.4718748120001,-90.533605262,63,"11281 BASSEMIER RD, HAMMOND, LA, 70403","Match","Exact","11281 BASSEMIER RD, HAMMOND, LA, 70403",75766784,"L"
25564,"11281 NW 59 TERRACE","DORAL","FL",33178,25.828030541,-80.379919724,64,"11281 NW 59 TERRACE, DORAL, FL, 33178","Match","Exact","11281 NW 59TH TER, DORAL, FL, 33178",116087714,"L"
25565,"11281 W YELLOW OAK LANE","CRYSTAL RIVER","FL",34428,28.9327552780001,-82.62313884,65,"11281 W YELLOW OAK LANE, CRYSTAL RIVER, FL, 34428","Match","Exact","11281 W YELLOW OAK LN, CRYSTAL RIVER, FL, 34428",86189453,"R"
25566,"11284 IRISH ROAD","OTISVILLE","MI",48463,43.173004914,-83.559296279,66,"11284 IRISH ROAD, OTISVILLE, MI, 48463","Match","Exact","11284 IRISH RD, OTISVILLE, MI, 48463",69569624,"R"
25567,"11285 LAMAR LN","FRISCO","TX",75033,33.172327513,-96.851863162,67,"11285 LAMAR LN, FRISCO, TX, 75033","Match","Exact","11285 LAMAR LN, FRISCO, TX, 75033",630298583,"R"
25568,"11285 SW 211TH ST SUITE 208","CUTLER BAY","FL",33189,25.571154886,-80.374095466,68,"11285 SW 211TH ST SUITE 208, CUTLER BAY, FL, 33189","Match","Non_Exact","11285 SW 211TH ST, CUTLER BAY, FL, 33189",115994835,"L"
25569,"11285 SW SUMMER LAKE DR","TIGARD","OR",97223,45.4414608720001,-122.805948659,69,"11285 SW SUMMER LAKE DR, TIGARD, OR, 97223","Match","Exact","11285 SW SUMMER LAKE DR, TIGARD, OR, 97223",158195779,"L"
25570,"11287 NW 7TH ST","CORAL SPRINGS","FL",33071,26.239684713,-80.2762023499999,70,"11287 NW 7TH ST, CORAL SPRINGS, FL, 33071","Match","Exact","11287 NW 7TH ST, CORAL SPRINGS, FL, 33071",114690800,"L"
25571,"11288 NE 80TH STREET","BONDURANT","IA",50035,41.765787693,-93.444947639,71,"11288 NE 80TH STREET, BONDURANT, IA, 50035","Match","Exact","11288 NE 80TH ST, BONDURANT, IA, 50035",640739800,"L"
25572,"1129 20TH STREET NW 4TH FLOOR","WASHINGTON","DC",20036,38.9043560690001,-77.0448898989999,72,"1129 20TH STREET NW 4TH FLOOR, WASHINGTON, DC, 20036","Match","Exact","1129 20TH ST NW, WASHINGTON, DC, 20036",76225373,"R"
25573,"1129 3RD AVE S","PAYETTE","ID",83661,44.0714966210001,-116.92998694,73,"1129 3RD AVE S, PAYETTE, ID, 83661","Match","Exact","1129 3RD AVE S, PAYETTE, ID, 83661",141408246,"L"
25574,"1129 8TH PL","PLEASANT GROVE","AL",35127,33.4880691450001,-86.993596281,74,"1129 8TH PL, PLEASANT GROVE, AL, 35127","Match","Exact","1129 8TH PL, PLEASANT GROVE, AL, 35127",639038534,"L"
25575,"1129 ALICIA LN","LANCASTER","TX",75134,32.609096392,-96.782294822,75,"1129 ALICIA LN, LANCASTER, TX, 75134","Match","Exact","1129 ALICIA LN, LANCASTER, TX, 75134",103187442,"R"
25576,"1129 ARMSTRONG AVE","CHARLESTON","SC",29407,32.792539968,-79.994030789,76,"1129 ARMSTRONG AVE, CHARLESTON, SC, 29407","Match","Exact","1129 ARMSTRONG AVE, CHARLESTON, SC, 29407",108803864,"R"
25577,"1129 BANDERA BLVD","BANDERA","TX",78003,29.739618039,-99.0711640059999,77,"1129 BANDERA BLVD, BANDERA, TX, 78003","Match","Exact","1129 BANDERA BLVD, BANDERA, TX, 78003",102706623,"L"
25578,"1129 BEECHWOOD LANE","CEDAR HILL","TX",75104,32.5850840140001,-96.917507673,78,"1129 BEECHWOOD LANE, CEDAR HILL, TX, 75104","Match","Exact","1129 BEECHWOOD LN, CEDAR HILL, TX, 75104",103002388,"L"
25579,"1129 BIRKDALE CT","NAPERVILLE","IL",60563,41.788832508,-88.1640057609999,79,"1129 BIRKDALE CT, NAPERVILLE, IL, 60563","Match","Exact","1129 BIRKDALE CT, NAPERVILLE, IL, 60563",112528343,"L"
25580,"1129 BLOOMFIED AVE SUITE 203","BLOOMFIELD","NJ",7006,NA,NA,80,"1129 BLOOMFIED AVE SUITE 203, BLOOMFIELD, NJ, 7006","No_Match",NA,NA,NA,NA
25581,"1129 BOHAC LANE","ACCOKEEK","MD",20607,38.6420544530001,-77.027852547,81,"1129 BOHAC LANE, ACCOKEEK, MD, 20607","Match","Exact","1129 BOHAC LN, ACCOKEEK, MD, 20607",639467867,"L"
25582,"1129 BROAD STREET","BLOOMFIELD","NJ",7003,40.829213264,-74.186008911,82,"1129 BROAD STREET, BLOOMFIELD, NJ, 7003","Match","Exact","1129 BROAD ST, BLOOMFIELD, NJ, 07003",617271431,"R"
25583,"1129 BURR POND RD","SUDBURY","VT",5733,43.769404717,-73.181852221,83,"1129 BURR POND RD, SUDBURY, VT, 5733","Match","Exact","1129 BURR POND RD, SUDBURY, VT, 05733",138977296,"L"
25584,"1129 CACTUS APPLE ST","LEANDER","TX",78641,30.5894949940001,-97.868560234,84,"1129 CACTUS APPLE ST, LEANDER, TX, 78641","Match","Exact","1129 CACTUS APPLE ST, LEANDER, TX, 78641",648535672,"L"
25585,"1129 CUSHING LANE","SCHENECTADY","NY",12303,42.7816445990001,-73.9445373839999,85,"1129 CUSHING LANE, SCHENECTADY, NY, 12303","Match","Exact","1129 CUSHING LN, SCHENECTADY, NY, 12303",18028096,"L"
25586,"1129 D STREET","MARYSVILLE","CA",95901,39.147422282,-121.589994435,86,"1129 D STREET, MARYSVILLE, CA, 95901","Match","Exact","1129 D ST, MARYSVILLE, CA, 95901",106940527,"R"
25587,"1129 DENT COUNTY ROAD 2130","ROLLA","MO",65401,NA,NA,87,"1129 DENT COUNTY ROAD 2130, ROLLA, MO, 65401","No_Match",NA,NA,NA,NA
25588,"1129 EAST 10TH STREET","BROOKLYN","NY",11230,40.621501107,-73.9655642709999,88,"1129 EAST 10TH STREET, BROOKLYN, NY, 11230","Match","Exact","1129 E 10TH ST, BROOKLYN, NY, 11230",59089609,"L"
25589,"1129 EAST DOMINGUEZ UNIT H","CARSON","CA",90746,33.840464443,-118.254483854,89,"1129 EAST DOMINGUEZ UNIT H, CARSON, CA, 90746","Match","Non_Exact","1129 E DOMINGUEZ ST, CARSON, CA, 90746",142766829,"L"
25590,"1129 ELGIN AVE","FOREST PARK","IL",60130,41.865772441,-87.805451555,90,"1129 ELGIN AVE, FOREST PARK, IL, 60130","Match","Exact","1129 ELGIN AVE, FOREST PARK, IL, 60130",605119541,"R"
25591,"1129 ELIZABETH STREET","ANNA","TX",75409,33.3321682120001,-96.540207871,91,"1129 ELIZABETH STREET, ANNA, TX, 75409","Match","Exact","1129 ELIZABETH ST, ANNA, TX, 75409",649011824,"L"
25592,"1129 FRAYNE DRIVE","NEW CARLISLE","OH",45344,39.885822676,-84.034187775,92,"1129 FRAYNE DRIVE, NEW CARLISLE, OH, 45344","Match","Exact","1129 FRAYNE DR, NEW CARLISLE, OH, 45344",135013363,"R"
25593,"1129 LENOIR RD","MAGNOLIA","GA",39652,NA,NA,93,"1129 LENOIR RD, MAGNOLIA, GA, 39652","No_Match",NA,NA,NA,NA
25594,"1129 LOOKING GLASS WAY","CENTRAL POINT","OR",97502,42.3668435880001,-122.895771637,94,"1129 LOOKING GLASS WAY, CENTRAL POINT, OR, 97502","Match","Exact","1129 LOOKING GLASS WAY, CENTRAL POINT, OR, 97502",155546118,"R"
25595,"1129 MADISON ST","BROOKLYN","NY",11221,40.692040477,-73.9160602429999,95,"1129 MADISON ST, BROOKLYN, NY, 11221","Match","Exact","1129 MADISON ST, BROOKLYN, NY, 11221",59083014,"L"
25596,"1129 MAIN ROAD NUM 6","RUIDOSO","NM",88345,33.3363725630001,-105.725068929,96,"1129 MAIN ROAD NUM 6, RUIDOSO, NM, 88345","Match","Exact","1129 MAIN RD, RUIDOSO, NM, 88345",169126123,"L"
25597,"1129 MARICOPA HWY 181","OJAI","CA",93023,34.441552899,-119.261210939,97,"1129 MARICOPA HWY 181, OJAI, CA, 93023","Match","Exact","1129 MARICOPA HWY, OJAI, CA, 93023",110121289,"L"
25598,"1129 MCALPIN RD","MIDLOTHIAN","TX",76065,32.425434453,-96.980693114,98,"1129 MCALPIN RD, MIDLOTHIAN, TX, 76065","Match","Exact","1129 MCALPIN RD, MIDLOTHIAN, TX, 76065",648674154,"L"
25599,"1129 MEADOW PARK LANE","GRAND PRAIRIE","TX",75052,32.696792698,-97.019684546,99,"1129 MEADOW PARK LANE, GRAND PRAIRIE, TX, 75052","Match","Exact","1129 MEADOW PARK LN, GRAND PRAIRIE, TX, 75052",102996542,"L"
25600,"1129 MIAMISBURG CENTERVILLE ROAD","WEST CARROLLTON","OH",45449,39.6407110270001,-84.236002911,100,"1129 MIAMISBURG CENTERVILLE ROAD, WEST CARROLLTON, OH, 45449","Match","Exact","1129 MIAMISBURG CENTERVILLE RD, WEST CARROLLTON, OH, 45449",143617405,"R"
25601,"1129 MONA ST","HONOLULU","HI",96821,21.2966001550001,-157.75448239,101,"1129 MONA ST, HONOLULU, HI, 96821","Match","Exact","1129 MONA ST, HONOLULU, HI, 96821",203240085,"R"
25602,"1129 N WASHINGTON","LANSING","MI",48906,42.746534727,-84.552133558,102,"1129 N WASHINGTON, LANSING, MI, 48906","Match","Non_Exact","1129 N WASHINGTON AVE, LANSING, MI, 48906",17499056,"L"
25603,"1129 NW TURNBERRY TERRACE","BEAVERTON","OR",97006,45.5276425430001,-122.841578294,103,"1129 NW TURNBERRY TERRACE, BEAVERTON, OR, 97006","Match","Exact","1129 NW TURNBERRY TER, BEAVERTON, OR, 97006",158200991,"L"
25604,"1129 OAK MEADOWS DRIVE","DALLAS","TX",75232,32.6841686880001,-96.8412840249999,104,"1129 OAK MEADOWS DRIVE, DALLAS, TX, 75232","Match","Exact","1129 OAK MEADOWS DR, DALLAS, TX, 75232",102948192,"R"
25605,"1129 OAKDALE ROAD","ROCK HILL","SC",29730,34.880565893,-81.0451834849999,105,"1129 OAKDALE ROAD, ROCK HILL, SC, 29730","Match","Exact","1129 OAKDALE RD, ROCK HILL, SC, 29730",19792822,"L"
25606,"1129 PASSMORE ST","PHILADELPHIA","PA",19111,40.043897938,-75.083669835,106,"1129 PASSMORE ST, PHILADELPHIA, PA, 19111","Match","Exact","1129 PASSMORE ST, PHILADELPHIA, PA, 19111",131415978,"L"
25607,"1129 PEND ORIELLE DR","FOX ISLAND","WA",98333,47.2247674390001,-122.608522696,107,"1129 PEND ORIELLE DR, FOX ISLAND, WA, 98333","Match","Non_Exact","1129 PEND OREILLE DR, FOX ISLAND, WA, 98333",184684491,"L"
25608,"1129 ROBIN HOOD CT APT 305","ROCKINGHAM","VA",22801,38.4124400700001,-78.8617792749999,108,"1129 ROBIN HOOD CT APT 305, ROCKINGHAM, VA, 22801","Match","Exact","1129 ROBIN HOOD CT, ROCKINGHAM, VA, 22801",642628065,"R"
25609,"1129 ROCKLEDGE BLVD STE 102","ROCKLEDGE","FL",32955,28.333379818,-80.716000799,109,"1129 ROCKLEDGE BLVD STE 102, ROCKLEDGE, FL, 32955","Match","Non_Exact","1129 ROCKLEDGE DR, ROCKLEDGE, FL, 32955",93895087,"R"
25610,"1129 S E VIOLET PL","LAKE CITY","FL",32025,NA,NA,110,"1129 S E VIOLET PL, LAKE CITY, FL, 32025","No_Match",NA,NA,NA,NA
25611,"1129 S LARK ELLEN AVE","WEST COVINA","CA",91791,34.0551916100001,-117.916782348,111,"1129 S LARK ELLEN AVE, WEST COVINA, CA, 91791","Match","Exact","1129 S LARK ELLEN AVE, WEST COVINA, CA, 91791",141713038,"R"
25612,"1129 SCRUB JAY","COURT","CA",92011,NA,NA,112,"1129 SCRUB JAY, COURT, CA, 92011","No_Match",NA,NA,NA,NA
25613,"1129 SECURITY ROAD","HAGERSTOWN","MD",21742,39.649970701,-77.6900944239999,113,"1129 SECURITY ROAD, HAGERSTOWN, MD, 21742","Match","Exact","1129 SECURITY RD, HAGERSTOWN, MD, 21742",60788293,"L"
25614,"1129 SHERWOOD AVENUE","BALTIMORE","MD",21239,39.365715514,-76.5959051299999,114,"1129 SHERWOOD AVENUE, BALTIMORE, MD, 21239","Match","Exact","1129 SHERWOOD AVE, BALTIMORE, MD, 21239",206437178,"R"
25615,"1129 SUMMIT HILLS LN","NAPERVILLE","IL",60563,41.784779255,-88.173044996,115,"1129 SUMMIT HILLS LN, NAPERVILLE, IL, 60563","Match","Exact","1129 SUMMIT HILLS LN, NAPERVILLE, IL, 60563",112671642,"R"
25616,"1129 THE HIDEOUT","LAKE ARIEL","PA",18436,NA,NA,116,"1129 THE HIDEOUT, LAKE ARIEL, PA, 18436","No_Match",NA,NA,NA,NA
25617,"1129 W 51 ST STREET","LOS ANGELES","CA",90037,33.996877797,-118.294419724,117,"1129 W 51 ST STREET, LOS ANGELES, CA, 90037","Match","Non_Exact","1129 W 51ST ST, LOS ANGELES, CA, 90037",141607808,"R"
25618,"1129 WEST CAPITOL DRIVE UNIT 36","SAN PEDRO","CA",90732,33.7563283580001,-118.303741472,118,"1129 WEST CAPITOL DRIVE UNIT 36, SAN PEDRO, CA, 90732","Match","Exact","1129 W CAPITOL DR, SAN PEDRO, CA, 90732",641505438,"L"
25619,"1129 WESTON DRIVE","GARLAND","TX",75043,32.879722803,-96.617467914,119,"1129 WESTON DRIVE, GARLAND, TX, 75043","Match","Exact","1129 WESTON DR, GARLAND, TX, 75043",102979290,"L"
25620,"1129 WEYAND WAY","SHAFTER","CA",93263,35.5025740630001,-119.25923774,120,"1129 WEYAND WAY, SHAFTER, CA, 93263","Match","Exact","1129 WEYAND WAY, SHAFTER, CA, 93263",109573939,"L"
25621,"1129 WILLOWBROOK DR","SPRINGFIELD","IL",62711,39.790462367,-89.7312780939999,121,"1129 WILLOWBROOK DR, SPRINGFIELD, IL, 62711","Match","Exact","1129 WILLOWBROOK DR, SPRINGFIELD, IL, 62711",97365619,"L"
25622,"1129 YORK MEADOWS ROAD","CLARKSVILLE","TN",37042,36.536931881,-87.4454573529999,122,"1129 YORK MEADOWS ROAD, CLARKSVILLE, TN, 37042","Match","Non_Exact","1129 YORK RD, CLARKSVILLE, TN, 37042",31813955,"R"
25623,"11290 156TH AVE","WEST OLILVE","MI",49460,42.974511239,-86.1738438039999,123,"11290 156TH AVE, WEST OLILVE, MI, 49460","Match","Non_Exact","11290 156TH AVE, WEST OLIVE, MI, 49460",71072969,"R"
25624,"11290 E 124TH AVE","BRIGHTON","CO",80601,39.9214559010001,-104.856167431,124,"11290 E 124TH AVE, BRIGHTON, CO, 80601","Match","Exact","11290 E 124TH AVE, BRIGHTON, CO, 80601",635201695,"R"
25625,"11290 NORTHWESTERN TURNPIKE","NEW CREEK","WV",26743,NA,NA,125,"11290 NORTHWESTERN TURNPIKE, NEW CREEK, WV, 26743","No_Match",NA,NA,NA,NA
25626,"11290 OHIO AVE UNIT 8","LOS ANGELES","CA",90025,34.0484464100001,-118.449888165,126,"11290 OHIO AVE UNIT 8, LOS ANGELES, CA, 90025","Match","Exact","11290 OHIO AVE, LOS ANGELES, CA, 90025",141706136,"L"
25627,"11290 POINT EAST DRIVE 200","RANCHO CORDOVA","CA",95742,38.608550108,-121.267164293,127,"11290 POINT EAST DRIVE 200, RANCHO CORDOVA, CA, 95742","Match","Exact","11290 POINT EAST DR, RANCHO CORDOVA, CA, 95742",133347139,"R"
25628,"11290 RIDGE HILL DR","ALPHARETTA","GA",30022,34.0559906410001,-84.2234049589999,128,"11290 RIDGE HILL DR, ALPHARETTA, GA, 30022","Match","Exact","11290 RIDGE HILL DR, ALPHARETTA, GA, 30022",17401937,"R"
25629,"11290 TERRACE LANE","FULTON","MD",20759,39.151575387,-76.907717738,129,"11290 TERRACE LANE, FULTON, MD, 20759","Match","Exact","11290 TERRACE LN, FULTON, MD, 20759",642680447,"R"
25630,"11290 WAVERLY DR","NEW ORLEANS","LA",70128,30.0336716470001,-89.952682115,130,"11290 WAVERLY DR, NEW ORLEANS, LA, 70128","Match","Exact","11290 WAVERLY DR, NEW ORLEANS, LA, 70128",191726876,"L"
25631,"11291 SPYGLASS COVE LANE","RESTON","VA",20191,38.927333364,-77.338549117,131,"11291 SPYGLASS COVE LANE, RESTON, VA, 20191","Match","Exact","11291 SPYGLASS COVE LN, RESTON, VA, 20191",215921682,"R"
25632,"11293 N CENTER RD","CLIO","MI",48420,43.169324841,-83.639889652,132,"11293 N CENTER RD, CLIO, MI, 48420","Match","Exact","11293 N CENTER RD, CLIO, MI, 48420",69569426,"R"
25633,"11293 S VIA ENCANTADA WAY","SOUTH JORDAN","UT",84095,40.547117219,-111.972468222,133,"11293 S VIA ENCANTADA WAY, SOUTH JORDAN, UT, 84095","Match","Exact","11293 S VIA ENCANTADA WAY, SOUTH JORDAN, UT, 84095",604585930,"L"
25634,"11293 TURKEY ROOST RD","TALLAHASSEE","FL",32317,30.4820360150001,-84.0795295569999,134,"11293 TURKEY ROOST RD, TALLAHASSEE, FL, 32317","Match","Exact","11293 TURKEY ROOST RD, TALLAHASSEE, FL, 32317",647725423,"R"
25635,"11293","MEADVILLE","PA",16335,NA,NA,135,"11293, MEADVILLE, PA, 16335","No_Match",NA,NA,NA,NA
25636,"11294 TUCKERMUCK BAY CT","LAS VEGAS","NV",89179,35.9917169890001,-115.254464321,136,"11294 TUCKERMUCK BAY CT, LAS VEGAS, NV, 89179","Match","Exact","11294 TUCKERMUCK BAY CT, LAS VEGAS, NV, 89179",641501853,"L"
25637,"11294 WORTHINGTON AVE","BATON ROUGE","LA",70815,30.4424312100001,-91.058651988,137,"11294 WORTHINGTON AVE, BATON ROUGE, LA, 70815","Match","Exact","11294 WORTHINGTON AVE, BATON ROUGE, LA, 70815",624670102,"L"
25638,"11296 CARMEL CREEK ROAD","SAN DIEGO","CA",92130,32.9228544600001,-117.227759093,138,"11296 CARMEL CREEK ROAD, SAN DIEGO, CA, 92130","Match","Exact","11296 CARMEL CREEK RD, SAN DIEGO, CA, 92130",195756694,"R"
25639,"11296 S 950 E","CONVERSE","IN",46919,40.603911644,-85.892704743,139,"11296 S 950 E, CONVERSE, IN, 46919","Match","Exact","11296 S 950 E, CONVERSE, IN, 46919",106387928,"L"
25640,"11296 SW 104TH TERRACE","AUGUSTA","KS",67010,37.674463314,-97.0479377509999,140,"11296 SW 104TH TERRACE, AUGUSTA, KS, 67010","Match","Exact","11296 SW 104TH TER, AUGUSTA, KS, 67010",32284483,"R"
25641,"11296 VIDALIA ROAD","PASS CHRISTIAN","MS",39571,30.4518187310001,-89.295391151,141,"11296 VIDALIA ROAD, PASS CHRISTIAN, MS, 39571","Match","Exact","11296 VIDALIA RD, PASS CHRISTIAN, MS, 39571",636558721,"R"
25642,"11297 HWY 1078","FOLSOM","LA",70437,30.5789046260001,-90.226200794,142,"11297 HWY 1078, FOLSOM, LA, 70437","Match","Non_Exact","11297 STATE RTE 1078, FOLSOM, LA, 70437",650019055,"R"
25643,"11297 NW 70 COURT","PARKLAND","FL",33076,26.3184092660001,-80.277065229,143,"11297 NW 70 COURT, PARKLAND, FL, 33076","Match","Exact","11297 NW 70TH CT, PARKLAND, FL, 33076",114793974,"R"
25644,"11298 TWIN SPIRES DR","FLINT","TX",75762,32.1951308220001,-95.3579294099999,144,"11298 TWIN SPIRES DR, FLINT, TX, 75762","Match","Exact","11298 TWIN SPIRES DR, FLINT, TX, 75762",624903246,"R"
25645,"112A ARGUS LANE NUM146","MOORESVILLE","NC",28117,35.6017754860001,-80.8946640349999,145,"112A ARGUS LANE NUM146, MOORESVILLE, NC, 28117","Match","Exact","112 ARGUS LN, MOORESVILLE, NC, 28117",635124952,"L"
25646,"112A DURHAM STREET","MENLO PARK","CA",94025,37.463902423,-122.151697796,146,"112A DURHAM STREET, MENLO PARK, CA, 94025","Match","Exact","112 DURHAM ST, MENLO PARK, CA, 94025",192366280,"R"
25647,"112A KIMBLE STREET","BELLE CHASSE","LA",70037,NA,NA,147,"112A KIMBLE STREET, BELLE CHASSE, LA, 70037","Tie",NA,NA,NA,NA
25648,"112B EAST HARRISBURG AVENUE","ELIZABETHTOWN","PA",17022,40.130898503,-76.5713804059999,148,"112B EAST HARRISBURG AVENUE, ELIZABETHTOWN, PA, 17022","Match","Non_Exact","112 W HARRISBURG AVE, ELIZABETHTOWN, PA, 17022",179657429,"R"
25649,"112B GOVERNORS SQ STE B","PEACHTREE CITY","GA",30269,33.4278023750001,-84.5560100169999,149,"112B GOVERNORS SQ STE B, PEACHTREE CITY, GA, 30269","Match","Exact","112 GOVERNORS SQ, PEACHTREE CITY, GA, 30269",650187281,"L"
25650,"112B NORTH MADISON STREET","QUINCY","FL",32351,30.5893976780001,-84.57578568,150,"112B NORTH MADISON STREET, QUINCY, FL, 32351","Match","Exact","112 N MADISON ST, QUINCY, FL, 32351",87816285,"L"
25651,"113  N 6TH ST","ESTHERVILLE","IA",51360,43.403111558,-94.836691942,151,"113  N 6TH ST, ESTHERVILLE, IA, 51360","Match","Non_Exact","113 N 6TH ST, ESTHERVILLE, IA, 51334",9585153,"L"
25652,"113 1/2 EAST COOK STREET","PORTAGE","WI",53901,43.539661865,-89.4604993469999,152,"113 1/2 EAST COOK STREET, PORTAGE, WI, 53901","Match","Exact","113 E COOK ST, PORTAGE, WI, 53901",73332897,"L"
25653,"113 1/2 N MANHATTAN PL","LOS ANGELES","CA",90004,34.073337538,-118.310250885,153,"113 1/2 N MANHATTAN PL, LOS ANGELES, CA, 90004","Match","Exact","113 N MANHATTAN PL, LOS ANGELES, CA, 90004",141603345,"L"
25654,"113 13TH AVENUE","NEWARK","NJ",7103,40.738277259,-74.183532186,154,"113 13TH AVENUE, NEWARK, NJ, 7103","Match","Exact","113 13TH AVE, NEWARK, NJ, 07103",63467076,"R"
25655,"113 2ND AVE SE","ROLLA","ND",58367,48.857954422,-99.6123528369999,155,"113 2ND AVE SE, ROLLA, ND, 58367","Match","Exact","113 2ND AVE SE, ROLLA, ND, 58367",199356201,"L"
25656,"113 30TH AVENUE S","JACKSONVILLE BEACH","FL",32250,30.265145599,-81.385107249,156,"113 30TH AVENUE S, JACKSONVILLE BEACH, FL, 32250","Match","Exact","113 30TH AVE S, JACKSONVILLE BEACH, FL, 32250",83924158,"R"
25657,"113 3RD STREET APT 4","PITTSBURGH","PA",15215,40.4926990110001,-79.906160407,157,"113 3RD STREET APT 4, PITTSBURGH, PA, 15215","Match","Exact","113 3RD ST, PITTSBURGH, PA, 15215",51646149,"L"
25658,"113 4TH AVENUE SE","INDEPENDENCE","IA",50644,42.468501749,-91.890279103,158,"113 4TH AVENUE SE, INDEPENDENCE, IA, 50644","Match","Exact","113 4TH AVE SE, INDEPENDENCE, IA, 50644",101136679,"L"
25659,"113 4TH ST - LAMAR","ROCKPORT","TX",78382,NA,NA,159,"113 4TH ST - LAMAR, ROCKPORT, TX, 78382","Tie",NA,NA,NA,NA
25660,"113 4TH STREET","ASHLAND","OR",97520,42.195981466,-122.708022205,160,"113 4TH STREET, ASHLAND, OR, 97520","Match","Exact","113 4TH ST, ASHLAND, OR, 97520",155521718,"L"
25661,"113 8TH STREET","PACIFIC GROVE","CA",93950,36.6209550250001,-121.910731326,161,"113 8TH STREET, PACIFIC GROVE, CA, 93950","Match","Exact","113 8TH ST, PACIFIC GROVE, CA, 93950",196812690,"L"
25662,"113 A BREEZES DR","LEXINGTON","SC",29072,34.011119863,-81.366802047,162,"113 A BREEZES DR, LEXINGTON, SC, 29072","Match","Exact","113 BREEZES DR, LEXINGTON, SC, 29072",645305345,"L"
25663,"113 ACADEMY RD","CLIFTON HEIGHTS","PA",19018,39.925285957,-75.295266176,163,"113 ACADEMY RD, CLIFTON HEIGHTS, PA, 19018","Match","Exact","113 ACADEMY RD, CLIFTON HEIGHTS, PA, 19018",134883287,"R"
25664,"113 ANGUS CT","PARADISE","TX",76073,33.1096548130001,-97.704351708,164,"113 ANGUS CT, PARADISE, TX, 76073","Match","Exact","113 ANGUS CT, PARADISE, TX, 76073",103688232,"L"
25665,"113 ANNA DRIVE","HOUMA","LA",70360,29.5785886530001,-90.759499281,165,"113 ANNA DRIVE, HOUMA, LA, 70360","Match","Exact","113 ANNA DR, HOUMA, LA, 70360",92065614,"R"
25666,"113 ANNIE LANE","ZELIENOPLE","PA",16063,40.7745239270001,-80.1131694329999,166,"113 ANNIE LANE, ZELIENOPLE, PA, 16063","Match","Exact","113 ANNIE LN, ZELIENOPLE, PA, 16063",52692954,"R"
25667,"113 ARMSTRONG STREET","KEYSER","WV",26726,39.440562388,-78.973448789,167,"113 ARMSTRONG STREET, KEYSER, WV, 26726","Match","Exact","113 ARMSTRONG ST, KEYSER, WV, 26726",639206077,"R"
25668,"113 ASBELL STREET SUITE 388","IRWINTON","GA",31042,32.8123529170001,-83.174229122,168,"113 ASBELL STREET SUITE 388, IRWINTON, GA, 31042","Match","Exact","113 ASBELL ST, IRWINTON, GA, 31042",65558944,"L"
25669,"113 ASCOT COURT","BEAR","DE",19701,39.5753269210001,-75.747052248,169,"113 ASCOT COURT, BEAR, DE, 19701","Match","Exact","113 ASCOT CT, BEAR, DE, 19701",187284087,"R"
25670,"113 AVENUE A","HOLBROOK","NY",11741,40.8215776800001,-73.076154829,170,"113 AVENUE A, HOLBROOK, NY, 11741","Match","Exact","113 AVE A, HOLBROOK, NY, 11741",114005936,"R"
25671,"113 B WEST VICTORIA","GREENVILLE","NC",27834,35.5667139670001,-77.383842951,171,"113 B WEST VICTORIA, GREENVILLE, NC, 27834","Match","Non_Exact","113 W VICTORIA CT, GREENVILLE, NC, 27834",80017209,"L"
25672,"113 BARKSDALE PROFESSIONAL CENTER","NEWARK","DE",19711,39.6788909640001,-75.766215605,172,"113 BARKSDALE PROFESSIONAL CENTER, NEWARK, DE, 19711","Match","Exact","113 BARKSDALE PROFESSIONAL CENTER, NEWARK, DE, 19711",187285530,"L"
25673,"113 BARTLETT STREET","SF","CA",94110,37.7550777970001,-122.419820214,173,"113 BARTLETT STREET, SF, CA, 94110","Match","Exact","113 BARTLETT ST, SAN FRANCISCO, CA, 94110",192288304,"L"
25674,"113 BEAU GON DR","BELLEVILLE","IL",62226,38.569478987,-89.988735133,174,"113 BEAU GON DR, BELLEVILLE, IL, 62226","Match","Exact","113 BEAU GON DR, BELLEVILLE, IL, 62226",107840456,"R"
25675,"113 BELINDA DRIVE","MARION","IL",62959,37.7320086030001,-88.9706819089999,175,"113 BELINDA DRIVE, MARION, IL, 62959","Match","Exact","113 BELINDA DR, MARION, IL, 62959",6011871,"R"
25676,"113 BEN TITUS RD","TAMAQUA","PA",18252,40.861163349,-75.9906238729999,176,"113 BEN TITUS RD, TAMAQUA, PA, 18252","Match","Exact","113 BEN TITUS RD, TAMAQUA, PA, 18252",70973315,"L"
25677,"113 BLACKBIRD LANE","HUMMELSTOWN","PA",17036,40.3110796760001,-76.6930088349999,177,"113 BLACKBIRD LANE, HUMMELSTOWN, PA, 17036","Match","Exact","113 BLACKBIRD LN, HUMMELSTOWN, PA, 17036",647502947,"L"
25678,"113 BLAIR STREET","MARTINSBURG","PA",16662,40.3132207420001,-78.3195515629999,178,"113 BLAIR STREET, MARTINSBURG, PA, 16662","Match","Exact","113 BLAIR ST, MARTINSBURG, PA, 16662",49719438,"R"
25679,"113 BLANCHARD CT","GRAY","LA",70359,29.6752689940001,-90.780216175,179,"113 BLANCHARD CT, GRAY, LA, 70359","Match","Exact","113 BLANCHARD CT, GRAY, LA, 70359",627302980,"R"
25680,"113 BLYTHEDALE CIRCLE","BLYTHEWOOD","SC",29016,34.205618277,-80.921162711,180,"113 BLYTHEDALE CIRCLE, BLYTHEWOOD, SC, 29016","Match","Exact","113 BLYTHEDALE CIR, BLYTHEWOOD, SC, 29016",71868337,"L"
25681,"113 BONN DR","BOERNE","TX",78006,29.786580917,-98.745147004,181,"113 BONN DR, BOERNE, TX, 78006","Match","Exact","113 BONN DR, BOERNE, TX, 78006",637355169,"L"
25682,"113 BRAEMAR DR","ELK GROVE VILLAGE","IL",60007,41.9957466480001,-87.9979100479999,182,"113 BRAEMAR DR, ELK GROVE VILLAGE, IL, 60007","Match","Non_Exact","113 BRAEMER DR, ELK GROVE VILLAGE, IL, 60007",111717085,"R"
25683,"113 BRANFORD ROAD","DARBY","PA",19023,39.9262556670001,-75.265686983,183,"113 BRANFORD ROAD, DARBY, PA, 19023","Match","Exact","113 BRANFORD RD, DARBY, PA, 19023",134884755,"L"
25684,"113 BRENTWOOD DRIVE","SOUTHBRIDGE","MA",1550,42.0572197590001,-72.031013975,184,"113 BRENTWOOD DRIVE, SOUTHBRIDGE, MA, 1550","Match","Exact","113 BRENTWOOD DR, SOUTHBRIDGE, MA, 01550",40053108,"R"
25685,"113 BRIDGEWATER DR","PEACHTREE CITY","GA",30269,33.421465567,-84.596414281,185,"113 BRIDGEWATER DR, PEACHTREE CITY, GA, 30269","Match","Exact","113 BRIDGEWATER DR, PEACHTREE CITY, GA, 30269",75942043,"L"
25686,"113 BROOK GLADE","CLINTON","MS",39056,32.365667537,-90.31852722,186,"113 BROOK GLADE, CLINTON, MS, 39056","Match","Exact","113 BROOK GLADE, CLINTON, MS, 39056",635801921,"L"
25687,"113 BROOK RUN","HOCKESSIN","DE",19707,39.7798044670001,-75.712168334,187,"113 BROOK RUN, HOCKESSIN, DE, 19707","Match","Exact","113 BROOK RUN, HOCKESSIN, DE, 19707",187273420,"L"
25688,"113 CALELLA ROAD","HOT SPRINGS VILLAGE","AR",71909,34.680732359,-93.042327766,188,"113 CALELLA ROAD, HOT SPRINGS VILLAGE, AR, 71909","Match","Exact","113 CALELLA RD, HOT SPRINGS VILLAGE, AR, 71909",610984414,"L"
25689,"113 CALLE ALHAMBRA","MAYAGUEZ","PR",680,18.1644050640001,-67.144967821,189,"113 CALLE ALHAMBRA, MAYAGUEZ, PR, 680","Match","Non_Exact","113 CLL ALHAMBRA, MAYAGUEZ, PR, 00680",205816232,"L"
25690,"113 CALLE OLASO","EL PASO","TX",79932,31.855727132,-106.586387803,190,"113 CALLE OLASO, EL PASO, TX, 79932","Match","Non_Exact","113 CALLE OLASO DR, EL PASO, TX, 79932",189373793,"L"
25691,"113 CAMERON GLEN DR","CHAPEL HILL","NC",27516,35.9082219000001,-79.060598629,191,"113 CAMERON GLEN DR, CHAPEL HILL, NC, 27516","Match","Exact","113 CAMERON GLEN DR, CHAPEL HILL, NC, 27516",72406218,"L"
25692,"113 CAMINO TERESA","SANTA FE","NM",87505,NA,NA,192,"113 CAMINO TERESA, SANTA FE, NM, 87505","No_Match",NA,NA,NA,NA
25693,"113 CARR AVE","KNOXVILLE","PA",16928,41.959086574,-77.437370331,193,"113 CARR AVE, KNOXVILLE, PA, 16928","Match","Exact","113 CARR AVE, KNOXVILLE, PA, 16928",605910705,"L"
25694,"113 CASCADE DRIVE","MCKEESPORT","PA",15135,NA,NA,194,"113 CASCADE DRIVE, MCKEESPORT, PA, 15135","No_Match",NA,NA,NA,NA
25695,"113 CEDAR COURT","HAWLEY","PA",18428,41.5177893100001,-75.040977094,195,"113 CEDAR COURT, HAWLEY, PA, 18428","Match","Exact","113 CEDAR CT, HAWLEY, PA, 18428",191408738,"R"
25696,"113 CHERRY ST 14472","SEATTLE","WA",98104,47.6026334630001,-122.334072546,196,"113 CHERRY ST 14472, SEATTLE, WA, 98104","Match","Exact","113 CHERRY ST, SEATTLE, WA, 98104",186589598,"R"
25697,"113 CHERRY ST 37960","SEATTLE","WA",98104,47.6026334630001,-122.334072546,197,"113 CHERRY ST 37960, SEATTLE, WA, 98104","Match","Exact","113 CHERRY ST, SEATTLE, WA, 98104",186589598,"R"
25698,"113 CHERRY ST SUITE 86515","SEATTLE","WA",98104,47.6026334630001,-122.334072546,198,"113 CHERRY ST SUITE 86515, SEATTLE, WA, 98104","Match","Exact","113 CHERRY ST, SEATTLE, WA, 98104",186589598,"R"
25699,"113 CHERRY ST UNIT 84639","SEATTLE","WA",98104,47.6026334630001,-122.334072546,199,"113 CHERRY ST UNIT 84639, SEATTLE, WA, 98104","Match","Exact","113 CHERRY ST, SEATTLE, WA, 98104",186589598,"R"
25700,"113 CHERRY STREET SUITE 10","JOHNSON CITY","TN",37604,36.315791631,-82.349924001,200,"113 CHERRY STREET SUITE 10, JOHNSON CITY, TN, 37604","Match","Exact","113 CHERRY ST, JOHNSON CITY, TN, 37604",127924475,"L"
25701,"113 CHESTNUT STREET","GARDEN CITY","NY",11530,40.7255431730001,-73.6184605,201,"113 CHESTNUT STREET, GARDEN CITY, NY, 11530","Match","Exact","113 CHESTNUT ST, GARDEN CITY, NY, 11530",147627154,"L"
25702,"113 CLAIREMONT RD","EL PASO","TX",79912,31.82642387,-106.527644532,202,"113 CLAIREMONT RD, EL PASO, TX, 79912","Match","Exact","113 CLAIREMONT RD, EL PASO, TX, 79912",189336133,"R"
25703,"113 CLARK CT","CROWLEY","LA",70526,30.233271298,-92.3686262909999,203,"113 CLARK CT, CROWLEY, LA, 70526","Match","Exact","113 CLARK CT, CROWLEY, LA, 70526",88311095,"L"
25704,"113 COLLINS ROAD","ELLWOOD CITY","PA",16117,40.8164215520001,-80.288570695,204,"113 COLLINS ROAD, ELLWOOD CITY, PA, 16117","Match","Exact","113 COLLINS RD, ELLWOOD CITY, PA, 16117",52580152,"R"
25705,"113 COTTON DRIVE","STOCKBRIDGE","GA",30281,33.575159634,-84.2434605019999,205,"113 COTTON DRIVE, STOCKBRIDGE, GA, 30281","Match","Exact","113 COTTON DR, STOCKBRIDGE, GA, 30281",23195562,"R"
25706,"113 CR 4223","DECATUR","TX",76234,33.195268072,-97.542503311,206,"113 CR 4223, DECATUR, TX, 76234","Match","Exact","113 CO RD 4223, DECATUR, TX, 76234",103665696,"R"
25707,"113 CREED CIR","CAMPBELL","OH",44405,41.0885775950001,-80.58428723,207,"113 CREED CIR, CAMPBELL, OH, 44405","Match","Exact","113 CREED CIR, CAMPBELL, OH, 44405",64610828,"L"
25708,"113 CREEL WAY","ATLANTA","GA",30349,33.566031948,-84.482932492,208,"113 CREEL WAY, ATLANTA, GA, 30349","Match","Exact","113 CREEL WAY, ATLANTA, GA, 30349",610227837,"R"
25709,"113 CRESCENT HILL","SELMA","AL",36701,32.41086276,-87.052648855,209,"113 CRESCENT HILL, SELMA, AL, 36701","Match","Non_Exact","113 CRESCENT HILL DR, SELMA, AL, 36701",1302100,"L"
25710,"113 CRESTMONT DRIVE","HENDERSONVILLE","TN",37075,36.3114321690001,-86.632436804,210,"113 CRESTMONT DRIVE, HENDERSONVILLE, TN, 37075","Match","Exact","113 CRESTMONT DR, HENDERSONVILLE, TN, 37075",29775106,"R"
25711,"113 CRUSE STREET","JASPER","TX",75951,30.9417835130001,-93.9866785519999,211,"113 CRUSE STREET, JASPER, TX, 75951","Match","Exact","113 CRUSE ST, JASPER, TX, 75951",32386592,"L"
25712,"113 DANBURY ROAD SUITE 7","RIDGEFIELD","CT",6877,41.292988919,-73.4931244639999,212,"113 DANBURY ROAD SUITE 7, RIDGEFIELD, CT, 6877","Match","Exact","113 DANBURY RD, RIDGEFIELD, CT, 06877",635728036,"R"
25713,"113 DAWN DR","ELK RUN HEIGHTS","IA",50707,42.466530983,-92.253209679,213,"113 DAWN DR, ELK RUN HEIGHTS, IA, 50707","Match","Exact","113 DAWN DR, ELK RUN HEIGHTS, IA, 50707",77256710,"L"
25714,"113 DEERFIELD BLVD","HAMPTON","VA",23666,37.0638449260001,-76.3798540339999,214,"113 DEERFIELD BLVD, HAMPTON, VA, 23666","Match","Exact","113 DEERFIELD BLVD, HAMPTON, VA, 23666",103810083,"L"
25715,"113 DELMAR AVENUE","LINWOOD","NJ",8221,39.3472671210001,-74.5665617659999,215,"113 DELMAR AVENUE, LINWOOD, NJ, 8221","Match","Exact","113 DELMAR AVE, LINWOOD, NJ, 08221",202483953,"R"
25716,"113 DENVER DR","BOLINGBROOK","IL",60440,41.6988253160001,-88.095907357,216,"113 DENVER DR, BOLINGBROOK, IL, 60440","Match","Exact","113 DENVER DR, BOLINGBROOK, IL, 60440",111534785,"L"
25717,"113 E  2ND ST","KEWANEE","IL",61443,41.244529464,-89.92457422,217,"113 E  2ND ST, KEWANEE, IL, 61443","Match","Exact","113 E 2ND ST, KEWANEE, IL, 61443",8914774,"L"
25718,"113 E 2ND ST","ATOKA","OK",74525,34.383913095,-96.128559664,218,"113 E 2ND ST, ATOKA, OK, 74525","Match","Exact","113 E 2ND ST, ATOKA, OK, 74525",63067159,"R"
25719,"113 E 2ND STREET  PO BOX 521","TILDEN","NE",68781,42.0469793770001,-97.833426553,219,"113 E 2ND STREET  PO BOX 521, TILDEN, NE, 68781","Match","Exact","113 2ND ST, TILDEN, NE, 68781",161578712,"L"
25720,"113 E 62ND PLACE N","TULSA","OK",74126,36.2440658780001,-95.994361586,220,"113 E 62ND PLACE N, TULSA, OK, 74126","Match","Exact","113 E 62ND PL N, TULSA, OK, 74126",166435329,"L"
25721,"113 E BEVERLEY ST","STAUNTON","VA",24401,38.1496041720001,-79.071355152,221,"113 E BEVERLEY ST, STAUNTON, VA, 24401","Match","Exact","113 E BEVERLEY ST, STAUNTON, VA, 24401",98814210,"L"
25722,"113 E CHESTNUT UNIT 848-5","MONROVIA","CA",91016,NA,NA,222,"113 E CHESTNUT UNIT 848-5, MONROVIA, CA, 91016","No_Match",NA,NA,NA,NA
25723,"113 E CURLY COURT","RINEYVILLE","KY",40162,37.7369321910001,-85.9748528059999,223,"113 E CURLY COURT, RINEYVILLE, KY, 40162","Match","Exact","113 E CURLY CT, RINEYVILLE, KY, 40162",34652477,"L"
25724,"113 E FIRST ST P O BOX 457","LA CENTER","KY",42056,37.073461149,-88.971815229,224,"113 E FIRST ST P O BOX 457, LA CENTER, KY, 42056","Match","Non_Exact","113 W 1ST ST, LA CENTER, KY, 42056",27849670,"R"
25725,"113 E MAIN ST","JAMESTOWN","NC",27282,35.994317106,-79.935562799,225,"113 E MAIN ST, JAMESTOWN, NC, 27282","Match","Exact","113 E MAIN ST, JAMESTOWN, NC, 27282",131042625,"L"
25726,"113 E SAGINAW ST","SAINT LOUIS","MI",48880,43.409225647,-84.6068408199999,226,"113 E SAGINAW ST, SAINT LOUIS, MI, 48880","Match","Exact","113 E SAGINAW ST, SAINT LOUIS, MI, 48880",80161344,"R"
25727,"113 E THIRD ST","DAYTON","OH",45402,39.759874025,-84.189701986,227,"113 E THIRD ST, DAYTON, OH, 45402","Match","Exact","113 E 3RD ST, DAYTON, OH, 45402",143571441,"L"
25728,"113 E THIRD STREET","MADISON","IN",47250,38.7374809720001,-85.379963986,228,"113 E THIRD STREET, MADISON, IN, 47250","Match","Exact","113 E 3RD ST, MADISON, IN, 47250",31385748,"R"
25729,"113 E WASHINGTON ST","WINCHESTER","IN",47394,NA,NA,229,"113 E WASHINGTON ST, WINCHESTER, IN, 47394","Tie",NA,NA,NA,NA
25730,"113 EAST 4TH ST","WASHINGTON","MO",63090,38.556654345,-91.0113499569999,230,"113 EAST 4TH ST, WASHINGTON, MO, 63090","Match","Exact","113 E 4TH ST, WASHINGTON, MO, 63090",99717521,"R"
25731,"113 EAST 7TH STREET","MUENSTER","TX",76252,NA,NA,231,"113 EAST 7TH STREET, MUENSTER, TX, 76252","No_Match",NA,NA,NA,NA
25732,"113 EAST BROADWAY STREET","MORRILTON","AR",72110,35.1527926310001,-92.744822649,232,"113 EAST BROADWAY STREET, MORRILTON, AR, 72110","Match","Exact","113 E BROADWAY ST, MORRILTON, AR, 72110",118894123,"R"
25733,"113 EAST FOURTH STREET  PO BOX 146","WASHINGTON","MO",63090,38.556654345,-91.0113499569999,233,"113 EAST FOURTH STREET  PO BOX 146, WASHINGTON, MO, 63090","Match","Exact","113 E 4TH ST, WASHINGTON, MO, 63090",99717521,"R"
25734,"113 EAST GRAND BLANC ROAD","GRAND BLANC","MI",48439,42.9273803780001,-83.630285246,234,"113 EAST GRAND BLANC ROAD, GRAND BLANC, MI, 48439","Match","Exact","113 E GRAND BLANC RD, GRAND BLANC, MI, 48439",624774395,"L"
25735,"113 EAST MAIN STREET","MONCKS CORNER","SC",29461,33.195784766,-80.012558795,235,"113 EAST MAIN STREET, MONCKS CORNER, SC, 29461","Match","Exact","113 E MAIN ST, MONCKS CORNER, SC, 29461",100769147,"L"
25736,"113 EAST MARKET STREET","WASHINGTON CH","OH",43160,39.536891315,-83.4405570019999,236,"113 EAST MARKET STREET, WASHINGTON CH, OH, 43160","Match","Non_Exact","113 E MARKET ST, WASHINGTON COURT HOUSE, OH, 43160",638735142,"R"
25737,"113 EAST PIKE STREET","CYNTHIANA","KY",41031,NA,NA,237,"113 EAST PIKE STREET, CYNTHIANA, KY, 41031","No_Match",NA,NA,NA,NA
25738,"113 ECONOME CT","FOLSOM","CA",95630,38.6822942310001,-121.144007489,238,"113 ECONOME CT, FOLSOM, CA, 95630","Match","Exact","113 ECONOME CT, FOLSOM, CA, 95630",133408692,"R"
25739,"113 EDDY ROAD","BARKHAMSTED","CT",6063,41.9006998950001,-73.0124734839999,239,"113 EDDY ROAD, BARKHAMSTED, CT, 6063","Match","Exact","113 EDDY RD, BARKHAMSTED, CT, 06063",637500686,"R"
25740,"113 ELAINE DRIVE","PITTSFIELD","MA",1201,NA,NA,240,"113 ELAINE DRIVE, PITTSFIELD, MA, 1201","No_Match",NA,NA,NA,NA
25741,"113 ELLEN AVE","BECKLEY","WV",25801,37.809072832,-81.230275053,241,"113 ELLEN AVE, BECKLEY, WV, 25801","Match","Exact","113 ELLEN AVE, BECKLEY, WV, 25801",78813816,"R"
25742,"113 ELLIS ST","STATEN ISLAND","NY",10307,40.515480439,-74.2458292589999,242,"113 ELLIS ST, STATEN ISLAND, NY, 10307","Match","Exact","113 ELLIS ST, STATEN ISLAND, NY, 10307",59887777,"R"
25743,"113 ELMWOOD AVE","NEWARK","NY",14513,43.044016324,-77.10359835,243,"113 ELMWOOD AVE, NEWARK, NY, 14513","Match","Exact","113 ELMWOOD AVE, NEWARK, NY, 14513",14914541,"L"
25744,"113 ENCINAL PL","PITTSBURG","CA",94565,37.9945423390001,-121.898801533,244,"113 ENCINAL PL, PITTSBURG, CA, 94565","Match","Exact","113 ENCINAL PL, PITTSBURG, CA, 94565",192061017,"L"
25745,"113 EVANGELINE LN","DESTREHAN","LA",70047,29.972774999,-90.3783261249999,245,"113 EVANGELINE LN, DESTREHAN, LA, 70047","Match","Exact","113 EVANGELINE LN, DESTREHAN, LA, 70047",647727789,"L"
25746,"113 EVERGOLD LANE","WAGGAMAN","LA",70094,29.947830638,-90.2370686689999,246,"113 EVERGOLD LANE, WAGGAMAN, LA, 70094","Match","Non_Exact","113 EVERGOLD LN, WESTWEGO, LA, 70094",93496523,"R"
25747,"113 EVERGREEN CT","ROCKINGHAM","NC",28379,34.9638598350001,-79.744098381,247,"113 EVERGREEN CT, ROCKINGHAM, NC, 28379","Match","Exact","113 EVERGREEN CT, ROCKINGHAM, NC, 28379",13935004,"L"
25748,"113 FAIRGATE DR","PEACHTREE CITY","GA",30269,33.415010952,-84.609192378,248,"113 FAIRGATE DR, PEACHTREE CITY, GA, 30269","Match","Exact","113 FAIRGATE DR, PEACHTREE CITY, GA, 30269",650508110,"L"
25749,"113 FAIRWAY OVERLOOK","WOODSTOCK","GA",30188,34.1462768490001,-84.4556555,249,"113 FAIRWAY OVERLOOK, WOODSTOCK, GA, 30188","Match","Exact","113 FAIRWAY OVERLOOK, WOODSTOCK, GA, 30188",68854268,"L"
25750,"113 FIVE MILE ROAD","KINGSTON","TN",37763,35.854522144,-84.478965504,250,"113 FIVE MILE ROAD, KINGSTON, TN, 37763","Match","Exact","113 FIVE MILE RD, KINGSTON, TN, 37763",88596783,"R"
25751,"113 FLINTON DRIVE","HAMPTON","VA",23666,37.088142776,-76.427092885,251,"113 FLINTON DRIVE, HAMPTON, VA, 23666","Match","Exact","113 FLINTON DR, HAMPTON, VA, 23666",103803880,"L"
25752,"113 FLORA SPRINGS CIRCLE","COLUMBIA","SC",29223,34.115910861,-80.926435509,252,"113 FLORA SPRINGS CIRCLE, COLUMBIA, SC, 29223","Match","Exact","113 FLORA SPRINGS CIR, COLUMBIA, SC, 29223",637767751,"R"
25753,"113 FOREMAN HILL ROAD","BLUFFTON","SC",29910,32.2268322420001,-80.8442772719999,253,"113 FOREMAN HILL ROAD, BLUFFTON, SC, 29910","Match","Exact","113 FOREMAN HILL RD, BLUFFTON, SC, 29910",87654523,"L"
25754,"113 FOREST AVENUE","DACONO","CO",80514,40.080772842,-104.933534739,254,"113 FOREST AVENUE, DACONO, CO, 80514","Match","Non_Exact","113 FOREST ST, DACONO, CO, 80514",653867144,"L"
25755,"113 FOXBORO DR","ROCHESTER HILLS","MI",48309,42.6824891580001,-83.190311964,255,"113 FOXBORO DR, ROCHESTER HILLS, MI, 48309","Match","Exact","113 FOXBORO DR, ROCHESTER HILLS, MI, 48309",641241012,"R"
25756,"113 FREEMAN STREET","NORTON","MA",2766,41.9752620190001,-71.2032016539999,256,"113 FREEMAN STREET, NORTON, MA, 2766","Match","Exact","113 FREEMAN ST, NORTON, MA, 02766",46758820,"L"
25757,"113 FRONT STREET","FRANKLIN","TN",37064,35.9286314450001,-86.922301892,257,"113 FRONT STREET, FRANKLIN, TN, 37064","Match","Exact","113 FRONT ST, FRANKLIN, TN, 37064",642259056,"L"
25758,"113 GARRETT DR","CLOVIS","NM",88101,34.4315867340001,-103.181030593,258,"113 GARRETT DR, CLOVIS, NM, 88101","Match","Non_Exact","113 GARRET DR, CLOVIS, NM, 88101",641120513,"L"
25759,"113 GATEWATER CT","MORRISVILLE","NC",27560,35.853719975,-78.849615676,259,"113 GATEWATER CT, MORRISVILLE, NC, 27560","Match","Exact","113 GATEWATER CT, MORRISVILLE, NC, 27560",641578070,"L"
25760,"113 GOODMAN DRIVE","MIDDLETOWN","CT",6457,41.5787253770001,-72.6955738839999,260,"113 GOODMAN DRIVE, MIDDLETOWN, CT, 6457","Match","Exact","113 GOODMAN DR, MIDDLETOWN, CT, 06457",113904702,"L"
25761,"113 GRANBY COURT","CARY","NC",27511,35.7769571640001,-78.799280277,261,"113 GRANBY COURT, CARY, NC, 27511","Match","Exact","113 GRANBY CT, CARY, NC, 27511",72569652,"L"
25762,"113 GRAND COVE PLACE","MADISON","AL",35758,34.7311483390001,-86.735404756,262,"113 GRAND COVE PLACE, MADISON, AL, 35758","Match","Exact","113 GRAND COVE PL, MADISON, AL, 35758",627349305,"R"
25763,"113 GREEN TURTLE LANE","CAROLINA BEACH","NC",28428,34.054746789,-77.8919854219999,263,"113 GREEN TURTLE LANE, CAROLINA BEACH, NC, 28428","Match","Exact","113 GREEN TURTLE LN, CAROLINA BCH, NC, 28428",649750576,"R"
25764,"113 GREEN VALLEY RD NW","LOS RANCHOS","NM",87107,35.157046135,-106.627210896,264,"113 GREEN VALLEY RD NW, LOS RANCHOS, NM, 87107","Match","Exact","113 GREEN VALLEY RD NW, LOS RANCHOS, NM, 87107",206703497,"R"
25765,"113 GREENFIELD ROAD","SCOTT TOWNSHIP","PA",18433,NA,NA,265,"113 GREENFIELD ROAD, SCOTT TOWNSHIP, PA, 18433","No_Match",NA,NA,NA,NA
25766,"113 HALE HAVEN DR","HILTON","NY",14468,43.2929414450001,-77.799070388,266,"113 HALE HAVEN DR, HILTON, NY, 14468","Match","Exact","113 HALE HAVEN DR, HILTON, NY, 14468",14554386,"L"
25767,"113 HAMPSHIRE DRIVE","CRANBERRY TWP","PA",16066,40.676937858,-80.1383123529999,267,"113 HAMPSHIRE DRIVE, CRANBERRY TWP, PA, 16066","Match","Exact","113 HAMPSHIRE DR, CRANBERRY TOWNSHIP, PA, 16066",616369882,"R"
25768,"113 HARDWOOD CT","LOVELAND","OH",45140,39.262526678,-84.298473047,268,"113 HARDWOOD CT, LOVELAND, OH, 45140","Match","Non_Exact","113 HEARTWOOD CT, LOVELAND, OH, 45140",103957443,"R"
25769,"113 HARPER DRIVE","PARKERSBURG","WV",26101,39.2557303620001,-81.600690325,269,"113 HARPER DRIVE, PARKERSBURG, WV, 26101","Match","Exact","113 HARPER DR, PARKERSBURG, WV, 26101",637503832,"L"
25770,"113 HAZEL STREET","SAN ANTONIO","TX",78207,29.4067682310001,-98.516917576,270,"113 HAZEL STREET, SAN ANTONIO, TX, 78207","Match","Exact","113 HAZEL ST, SAN ANTONIO, TX, 78207",101694848,"R"
25771,"113 HERITAGE PLACE DR","JONESBOROUGH","TN",37659,36.2917152210001,-82.457486133,271,"113 HERITAGE PLACE DR, JONESBOROUGH, TN, 37659","Match","Exact","113 HERITAGE PL, JONESBOROUGH, TN, 37659",127939913,"L"
25772,"113 HICKORY LANE","BRIARCLIFFE ACRES","SC",29572,33.7950016070001,-78.747761928,272,"113 HICKORY LANE, BRIARCLIFFE ACRES, SC, 29572","Match","Non_Exact","113 HICKORY LN, MYRTLE BEACH, SC, 29572",29105009,"L"
25773,"113 HICKORY ST","PEOTONE","IL",60468,41.333422758,-87.779163618,273,"113 HICKORY ST, PEOTONE, IL, 60468","Match","Exact","113 HICKORY ST, PEOTONE, IL, 60468",635515491,"L"
25774,"113 HILLCREST DR","BELMONT","NC",28012,35.26074034,-81.0666467569999,274,"113 HILLCREST DR, BELMONT, NC, 28012","Match","Exact","113 HILLCREST DR, BELMONT, NC, 28012",70453645,"L"
25775,"113 HILLSIDE DRIVE","EVANSTON","WY",82930,41.282379758,-110.9509315,275,"113 HILLSIDE DRIVE, EVANSTON, WY, 82930","Match","Exact","113 HILLSIDE DR, EVANSTON, WY, 82930",160274835,"R"
25776,"113 HIVUE LANE","PITTSBURGH","PA",15237,40.5199568560001,-80.101044169,276,"113 HIVUE LANE, PITTSBURGH, PA, 15237","Match","Exact","113 HIVUE LN, PITTSBURGH, PA, 15237",51614069,"L"
25777,"113 HOLIDAY ROAD","WINCHESTER","KY",40391,37.994692565,-84.199158682,277,"113 HOLIDAY ROAD, WINCHESTER, KY, 40391","Match","Exact","113 HOLIDAY RD, WINCHESTER, KY, 40391",31791349,"R"
25778,"113 HOLLIE DRIVE","TRIADELPHIA","WV",26059,40.0637719040001,-80.633783718,278,"113 HOLLIE DRIVE, TRIADELPHIA, WV, 26059","Match","Exact","113 HOLLIE DR, TRIADELPHIA, WV, 26059",38108649,"L"
25779,"113 HUNNEWELL  LN","WOOLWICH","ME",4579,43.9611611510001,-69.73432038,279,"113 HUNNEWELL  LN, WOOLWICH, ME, 4579","Match","Exact","113 HUNNEWELL LN, WOOLWICH, ME, 04579",632898899,"R"
25780,"113 HWY 127","SHOSHONE","CA",92384,NA,NA,280,"113 HWY 127, SHOSHONE, CA, 92384","No_Match",NA,NA,NA,NA
25781,"113 INDEPENDENCE TRAIL","EGG HARBOR TOWNSHIP","NJ",8234,39.4209521380001,-74.613481679,281,"113 INDEPENDENCE TRAIL, EGG HARBOR TOWNSHIP, NJ, 8234","Match","Exact","113 INDEPENDENCE TRL, EGG HARBOR TOWNSHIP, NJ, 08234",202509260,"R"
25782,"113 JEFFREY PL","SMYRNA","GA",30082,33.8577697380001,-84.550607573,282,"113 JEFFREY PL, SMYRNA, GA, 30082","Match","Exact","113 JEFFREY PL, SMYRNA, GA, 30082",623993387,"L"
25783,"113 JOLLY STREET","LOUISBURG","NC",27549,36.111019216,-78.2938402739999,283,"113 JOLLY STREET, LOUISBURG, NC, 27549","Match","Exact","113 JOLLY ST, LOUISBURG, NC, 27549",90227912,"R"
25784,"113 JONESBORO CT","NASHVILLE","TN",37214,36.1505406630001,-86.651579937,284,"113 JONESBORO CT, NASHVILLE, TN, 37214","Match","Exact","113 JONESBORO CT, NASHVILLE, TN, 37214",97196239,"R"
25785,"113 JOY DR SW","CAVE SPRING","GA",30124,34.169387213,-85.38115967,285,"113 JOY DR SW, CAVE SPRING, GA, 30124","Match","Exact","113 JOY DR SW, CAVE SPRING, GA, 30124",30671367,"L"
25786,"113 KAY STREET","NASH","TX",75569,33.437285601,-94.1266814429999,286,"113 KAY STREET, NASH, TX, 75569","Match","Exact","113 KAY ST, NASH, TX, 75569",648031195,"L"
25787,"113 KELTNER CIRCLE","SPARTANBURG","SC",29302,34.91628953,-81.86751169,287,"113 KELTNER CIRCLE, SPARTANBURG, SC, 29302","Match","Exact","113 KELTNER CIR, SPARTANBURG, SC, 29302",19490960,"L"
25788,"113 KIMBERLY COURT","COLUMBIA","TN",38401,35.610015746,-87.117006282,288,"113 KIMBERLY COURT, COLUMBIA, TN, 38401","Match","Exact","113 KIMBERLY CT, COLUMBIA, TN, 38401",627295173,"L"
25789,"113 KINDERSTON DRIVE","DAVIDSON","NC",28036,35.5039432080001,-80.8538506899999,289,"113 KINDERSTON DRIVE, DAVIDSON, NC, 28036","Match","Exact","113 KINDERSTON DR, DAVIDSON, NC, 28036",70551793,"R"
25790,"113 KINSEY CT","CORDOVA","SC",29039,33.424859837,-80.885855395,290,"113 KINSEY CT, CORDOVA, SC, 29039","Match","Exact","113 KINSEY CT, CORDOVA, SC, 29039",19243353,"L"
25791,"113 KIWI STREET","LOS BANOS","CA",93635,37.068105444,-120.847140938,291,"113 KIWI STREET, LOS BANOS, CA, 93635","Match","Exact","113 KIWI ST, LOS BANOS, CA, 93635",125315124,"R"
25792,"113 KNIGHT LANE","CLINTON","TN",37716,36.030374796,-84.1389514969999,292,"113 KNIGHT LANE, CLINTON, TN, 37716","Match","Exact","113 KNIGHT LN, CLINTON, TN, 37716",90141583,"L"
25793,"113 KRAKOW ST","BUFFALO","NY",14206,42.874116744,-78.8096267609999,293,"113 KRAKOW ST, BUFFALO, NY, 14206","Match","Exact","113 KRAKOW ST, BUFFALO, NY, 14206",48322945,"R"
25794,"113 KRAKOW STREET","BUFFALO","NY",14206,42.874116744,-78.8096267609999,294,"113 KRAKOW STREET, BUFFALO, NY, 14206","Match","Exact","113 KRAKOW ST, BUFFALO, NY, 14206",48322945,"R"
25795,"113 LAKE VAUSE TRL","HAWTHORNE","FL",32640,29.5580385380001,-81.979072322,295,"113 LAKE VAUSE TRL, HAWTHORNE, FL, 32640","Match","Exact","113 LAKE VAUSE TRL, HAWTHORNE, FL, 32640",86077243,"L"
25796,"113 LAKESHORE DR","PATEROS","WA",98846,NA,NA,296,"113 LAKESHORE DR, PATEROS, WA, 98846","No_Match",NA,NA,NA,NA
25797,"113 LAKEVIEW RD","GLENBURN","ME",4401,44.914064974,-68.8227478429999,297,"113 LAKEVIEW RD, GLENBURN, ME, 4401","Match","Exact","113 LAKEVIEW RD, GLENBURN, ME, 04401",635862670,"L"
25798,"113 LARGE OAKS DRIVE","CARY","NC",27518,35.7364103830001,-78.752165726,298,"113 LARGE OAKS DRIVE, CARY, NC, 27518","Match","Exact","113 LARGE OAKS DR, CARY, NC, 27518",72590973,"L"
25799,"113 LATHAM DRIVE","GRISWOLD","CT",6351,41.581016988,-71.9199625379999,299,"113 LATHAM DRIVE, GRISWOLD, CT, 6351","Match","Exact","113 LATHAM DR, GRISWOLD, CT, 06351",56872760,"L"
25800,"113 LAUREL DR","GREENVILLE","SC",29607,34.792565052,-82.33387356,300,"113 LAUREL DR, GREENVILLE, SC, 29607","Match","Exact","113 LAUREL DR, GREENVILLE, SC, 29607",38340086,"L"
25801,"113 LAUREL MEADOWS CT","LAMARQUE","TX",77568,NA,NA,301,"113 LAUREL MEADOWS CT, LAMARQUE, TX, 77568","No_Match",NA,NA,NA,NA
25802,"113 LESSIE DR","STONEWALL","LA",71078,NA,NA,302,"113 LESSIE DR, STONEWALL, LA, 71078","No_Match",NA,NA,NA,NA
25803,"113 LIMESTONE TERRACE SUITE 500","JARRELL","TX",76537,30.8146806620001,-97.608988988,303,"113 LIMESTONE TERRACE SUITE 500, JARRELL, TX, 76537","Match","Exact","113 LIMESTONE TER, JARRELL, TX, 76537",634452600,"R"
25804,"113 LINER DRIVE","GREENWOOD","SC",29646,34.173246885,-82.165237132,304,"113 LINER DRIVE, GREENWOOD, SC, 29646","Match","Exact","113 LINER DR, GREENWOOD, SC, 29646",50813753,"L"
25805,"113 LOCHAVEN DR APT 204","CHARLESTON","SC",29414,32.81597444,-80.066975779,305,"113 LOCHAVEN DR APT 204, CHARLESTON, SC, 29414","Match","Exact","113 LOCHAVEN DR, CHARLESTON, SC, 29414",650137170,"L"
25806,"113 LOCKHART STREET","DAYTONA BEACH","FL",32114,29.2060861140001,-81.032447159,306,"113 LOCKHART STREET, DAYTONA BEACH, FL, 32114","Match","Exact","113 LOCKHART ST, DAYTONA BEACH, FL, 32114",94524771,"L"
25807,"113 LOCUST GROVE RD","PITTSTOWN","NJ",8867,40.557274487,-74.954075288,307,"113 LOCUST GROVE RD, PITTSTOWN, NJ, 8867","Match","Exact","113 LOCUST GROVE RD, PITTSTOWN, NJ, 08867",60025744,"R"
25808,"113 LONE HICKORY RD","BREVARD","NC",28712,NA,NA,308,"113 LONE HICKORY RD, BREVARD, NC, 28712","No_Match",NA,NA,NA,NA
25809,"113 LONGWOOD DR SUITE C","HUNTSVILLE","AL",35801,NA,NA,309,"113 LONGWOOD DR SUITE C, HUNTSVILLE, AL, 35801","Tie",NA,NA,NA,NA
25810,"113 MAIN ROAD","SHICKSHINNY","PA",18655,41.208475692,-76.198542394,310,"113 MAIN ROAD, SHICKSHINNY, PA, 18655","Match","Exact","113 MAIN RD, SHICKSHINNY, PA, 18655",80901063,"R"
25811,"113 MAIN ST NW","LILBURN","GA",30047,33.8869137300001,-84.1366599579999,311,"113 MAIN ST NW, LILBURN, GA, 30047","Match","Exact","113 MAIN ST NW, LILBURN, GA, 30047",88886757,"L"
25812,"113 MAIN STREET","GLENMONT","OH",44628,40.520081793,-82.098433069,312,"113 MAIN STREET, GLENMONT, OH, 44628","Match","Exact","113 MAIN ST, GLENMONT, OH, 44628",58659635,"R"
25813,"113 MAIN STREET","WINTERS","CA",95694,38.521244568,-121.970606617,313,"113 MAIN STREET, WINTERS, CA, 95694","Match","Exact","113 MAIN ST, WINTERS, CA, 95694",67695082,"L"
25814,"113 MAINTRL","ROCKINGHAM","NC",28379,NA,NA,314,"113 MAINTRL, ROCKINGHAM, NC, 28379","No_Match",NA,NA,NA,NA
25815,"113 MAPLE AVE","WASHINGTON","PA",15301,40.185416741,-80.264613905,315,"113 MAPLE AVE, WASHINGTON, PA, 15301","Match","Exact","113 MAPLE AVE, WASHINGTON, PA, 15301",52801905,"L"
25816,"113 MARIAH DRIVE","WEATHERFORD","TX",76087,32.649917369,-97.788548557,316,"113 MARIAH DRIVE, WEATHERFORD, TX, 76087","Match","Exact","113 MARIAH DR, WEATHERFORD, TX, 76087",103590340,"L"
25817,"113 MARKET ST","AUDUBON","IA",50025,41.7230046650001,-94.93623336,317,"113 MARKET ST, AUDUBON, IA, 50025","Match","Exact","113 MARKET ST, AUDUBON, IA, 50025",61732628,"L"
25818,"113 MARTIN STREET","EVERGREEN","AL",36401,31.435347505,-86.956581752,318,"113 MARTIN STREET, EVERGREEN, AL, 36401","Match","Exact","113 MARTIN ST, EVERGREEN, AL, 36401",2865005,"R"
25819,"113 MATHEWSON AVE","PELHAM","GA",31779,NA,NA,319,"113 MATHEWSON AVE, PELHAM, GA, 31779","Tie",NA,NA,NA,NA
25820,"113 MATTHEW DR","RITTMAN","OH",44270,40.9863362630001,-81.7975814979999,320,"113 MATTHEW DR, RITTMAN, OH, 44270","Match","Exact","113 MATTHEW DR, RITTMAN, OH, 44270",58765743,"R"
25821,"113 MCHENRY RD SUITE 295","BUFFALO GROVE","IL",60089,42.155413454,-87.95951582,321,"113 MCHENRY RD SUITE 295, BUFFALO GROVE, IL, 60089","Match","Exact","113 MCHENRY RD, BUFFALO GROVE, IL, 60089",647241136,"L"
25822,"113 MCMAHAN AVENUE","NEWPORT","TN",37821,35.9671756430001,-83.1874334619999,322,"113 MCMAHAN AVENUE, NEWPORT, TN, 37821","Match","Exact","113 MCMAHAN AVE, NEWPORT, TN, 37821",132771421,"L"
25823,"113 MEADOW GLEN DR","EARLY","TX",76802,31.742285006,-98.938516815,323,"113 MEADOW GLEN DR, EARLY, TX, 76802","Match","Exact","113 MEADOW GLEN DR, EARLY, TX, 76802",129462050,"R"
25824,"113 MECHANIC AVENUE","ENDICOTT","NY",13760,42.09875872,-76.060212583,324,"113 MECHANIC AVENUE, ENDICOTT, NY, 13760","Match","Exact","113 MECHANIC AVE, ENDICOTT, NY, 13760",46337251,"L"
25825,"113 MELROSE DRIVE","DESTREHAN","LA",70047,29.975935141,-90.3634316,325,"113 MELROSE DRIVE, DESTREHAN, LA, 70047","Match","Exact","113 MELROSE DR, DESTREHAN, LA, 70047",93617967,"L"
25826,"113 MISTY RIVER LANE","HUNTSVILLE","AL",35824,34.657147566,-86.722008323,326,"113 MISTY RIVER LANE, HUNTSVILLE, AL, 35824","Match","Exact","113 MISTY RIVER LN, HUNTSVILLE, AL, 35824",624484767,"R"
25827,"113 MITCHELL DR","PITTSBURGH","PA",15241,40.3536388750001,-80.054369972,327,"113 MITCHELL DR, PITTSBURGH, PA, 15241","Match","Exact","113 MITCHELL DR, PITTSBURGH, PA, 15241",51632028,"L"
25828,"113 MOCKINGBIRD LN","ELK CITY","OK",73644,35.4087658810001,-99.432695726,328,"113 MOCKINGBIRD LN, ELK CITY, OK, 73644","Match","Exact","113 MOCKINGBIRD LN, ELK CITY, OK, 73644",151545998,"R"
25829,"113 MORNINGWALK LANE SW","HUNTSVILLE","AL",35824,34.66082198,-86.722298263,329,"113 MORNINGWALK LANE SW, HUNTSVILLE, AL, 35824","Match","Exact","113 MORNINGWALK LN SW, HUNTSVILLE, AL, 35824",633493661,"R"
25830,"113 MYSTIC VINEYARD LANE","ANDERSON","SC",29621,34.543140033,-82.6468573929999,330,"113 MYSTIC VINEYARD LANE, ANDERSON, SC, 29621","Match","Exact","113 MYSTIC VINEYARD LN, ANDERSON, SC, 29621",624413413,"L"
25831,"113 N 1ST STREET","OWENSVILLE","MO",65066,38.3472448750001,-91.50048445,331,"113 N 1ST STREET, OWENSVILLE, MO, 65066","Match","Exact","113 N 1ST ST, OWENSVILLE, MO, 65066",45233686,"L"
25832,"113 N 6TH ST","ESTHERVILLE","IA",51334,43.403111558,-94.836691942,332,"113 N 6TH ST, ESTHERVILLE, IA, 51334","Match","Exact","113 N 6TH ST, ESTHERVILLE, IA, 51334",9585153,"L"
25833,"113 N COLEMAN","PICKERING","IA",64476,NA,NA,333,"113 N COLEMAN, PICKERING, IA, 64476","No_Match",NA,NA,NA,NA
25834,"113 N COLLINS STREET","ARCOLA","IL",61910,NA,NA,334,"113 N COLLINS STREET, ARCOLA, IL, 61910","No_Match",NA,NA,NA,NA
25835,"113 N FRONT STREET","COPLAY","PA",18037,40.675679685,-75.492856374,335,"113 N FRONT STREET, COPLAY, PA, 18037","Match","Exact","113 N FRONT ST, COPLAY, PA, 18037",80757630,"R"
25836,"113 N HARDIN ST","HARDINBURG","KY",40143,NA,NA,336,"113 N HARDIN ST, HARDINBURG, KY, 40143","Tie",NA,NA,NA,NA
25837,"113 N LIVE OAK","HOUSTON","TX",77003,29.7566864980001,-95.344271131,337,"113 N LIVE OAK, HOUSTON, TX, 77003","Match","Non_Exact","113 N LIVE OAK ST, HOUSTON, TX, 77003",96070390,"L"
25838,"113 N MAIN ST SUITE E","SALSIBURY","NC",28144,NA,NA,338,"113 N MAIN ST SUITE E, SALSIBURY, NC, 28144","Tie",NA,NA,NA,NA
25839,"113 N STATE ST","KNOB NOSTER","MO",65336,38.7655584250001,-93.556506941,339,"113 N STATE ST, KNOB NOSTER, MO, 65336","Match","Exact","113 N STATE ST, KNOB NOSTER, MO, 65336",95361232,"L"
25840,"113 N TALLAHASSEE AVE","ATLANTIC CITY","NJ",8401,39.34822475,-74.4654829739999,340,"113 N TALLAHASSEE AVE, ATLANTIC CITY, NJ, 8401","Match","Exact","113 N TALLAHASSEE AVE, ATLANTIC CITY, NJ, 08401",202527528,"R"
25841,"113 N VILLAGE LANE","CHADDS FORD","PA",19317,39.870513471,-75.623130375,341,"113 N VILLAGE LANE, CHADDS FORD, PA, 19317","Match","Exact","113 N VILLAGE LN, CHADDS FORD, PA, 19317",179527997,"R"
25842,"113 NASSAU ST UNIT 18B","NEW YORK","NY",10038,40.710819756,-74.007055701,342,"113 NASSAU ST UNIT 18B, NEW YORK, NY, 10038","Match","Exact","113 NASSAU ST, NEW YORK, NY, 10038",59660381,"L"
25843,"113 NASSAU STREET APT 29D","NEW YORK","NY",10038,40.710819756,-74.007055701,343,"113 NASSAU STREET APT 29D, NEW YORK, NY, 10038","Match","Exact","113 NASSAU ST, NEW YORK, NY, 10038",59660381,"L"
25844,"113 NAT TURNER BLVD","NEWPORT NEWS","VA",23606,37.0822805190001,-76.487399556,344,"113 NAT TURNER BLVD, NEWPORT NEWS, VA, 23606","Match","Exact","113 NAT TURNER BLVD, NEWPORT NEWS, VA, 23606",638663341,"L"
25845,"113 NEW HAVEN STREET","WEST ROXBURY","MA",2132,42.2651594180001,-71.166430432,345,"113 NEW HAVEN STREET, WEST ROXBURY, MA, 2132","Match","Exact","113 NEW HAVEN ST, WEST ROXBURY, MA, 02132",85702669,"R"
25846,"113 NORTH MAIN STREET","BOONSBORO","MD",21713,39.5082344400001,-77.6530550859999,346,"113 NORTH MAIN STREET, BOONSBORO, MD, 21713","Match","Exact","113 N MAIN ST, BOONSBORO, MD, 21713",60794476,"R"
25847,"113 NORTH MAIN STREET","CANANDAIGUA","NY",14424,NA,NA,347,"113 NORTH MAIN STREET, CANANDAIGUA, NY, 14424","Tie",NA,NA,NA,NA
25848,"113 NORTH MALONE STREET","SAN ANGELO","TX",76903,31.4669460810001,-100.428600875,348,"113 NORTH MALONE STREET, SAN ANGELO, TX, 76903","Match","Exact","113 N MALONE ST, SAN ANGELO, TX, 76903",607993239,"L"
25849,"113 NORTH ST","CATSKILL","NY",12414,42.223860356,-73.866504382,349,"113 NORTH ST, CATSKILL, NY, 12414","Match","Exact","113 NORTH ST, CATSKILL, NY, 12414",35672868,"L"
25850,"113 OLD CARRIAGE ROAD","PONCE INLET","FL",32127,29.1181722970001,-80.953331218,350,"113 OLD CARRIAGE ROAD, PONCE INLET, FL, 32127","Match","Exact","113 OLD CARRIAGE RD, PONCE INLET, FL, 32127",94530194,"L"
25851,"113 OLD HIGHWAY 71","ELM GROVE","LA",71051,32.375839693,-93.581773735,351,"113 OLD HIGHWAY 71, ELM GROVE, LA, 71051","Match","Exact","113 OLD HWY 71, ELM GROVE, LA, 71051",108505669,"R"
25852,"113 OXFORD RANCH RD","WAXAHACHIE","TX",75167,NA,NA,352,"113 OXFORD RANCH RD, WAXAHACHIE, TX, 75167","No_Match",NA,NA,NA,NA
25853,"113 PALISADE AVE APT 2F","JERSEY CITY","NJ",7306,40.7331434110001,-74.0513167,353,"113 PALISADE AVE APT 2F, JERSEY CITY, NJ, 7306","Match","Exact","113 PALISADE AVE, JERSEY CITY, NJ, 07306",59605218,"L"
25854,"113 PALISADES RD","CAMERON","MT",59720,45.0097616030001,-111.654356977,354,"113 PALISADES RD, CAMERON, MT, 59720","Match","Non_Exact","113 PALISADES, CAMERON, MT, 59720",633162916,"L"
25855,"113 PARK CT EAST","MEDFORD","NJ",8055,39.8597093130001,-74.847898287,355,"113 PARK CT EAST, MEDFORD, NJ, 8055","Match","Exact","113 PARK CT E, MEDFORD, NJ, 08055",134063875,"L"
25856,"113 PARK PLACE CIRCLE","WOMELSDORF","PA",19567,40.3601630800001,-76.1812714929999,356,"113 PARK PLACE CIRCLE, WOMELSDORF, PA, 19567","Match","Exact","113 PARK PLACE CIR, WOMELSDORF, PA, 19567",646768001,"R"
25857,"113 PARKRIDGE AVE","CHAPEL HILL","NC",27517,35.9103083480001,-79.010880936,357,"113 PARKRIDGE AVE, CHAPEL HILL, NC, 27517","Match","Exact","113 PARKRIDGE AVE, CHAPEL HILL, NC, 27517",72420011,"L"
25858,"113 PARKVIEW CIRCLE","SOUTHMAYD","TX",76268,33.624280598,-96.767671523,358,"113 PARKVIEW CIRCLE, SOUTHMAYD, TX, 76268","Match","Exact","113 PARKVIEW CIR, SOUTHMAYD, TX, 76268",634110990,"R"
25859,"113 PARKVIEW DR","LYNCHBURG","VA",24502,37.3537421820001,-79.23304852,359,"113 PARKVIEW DR, LYNCHBURG, VA, 24502","Match","Exact","113 PARKVIEW DR, LYNCHBURG, VA, 24502",639082560,"R"
25860,"113 PARKWEST DRIVE","WEST MONROE","LA",71291,32.511746611,-92.149546675,360,"113 PARKWEST DRIVE, WEST MONROE, LA, 71291","Match","Exact","113 PARKWEST DR, WEST MONROE, LA, 71291",612370048,"L"
25861,"113 PARSONS RD APT D","SALISBURY","MD",21801,38.3698432210001,-75.598917031,361,"113 PARSONS RD APT D, SALISBURY, MD, 21801","Match","Non_Exact","113 PARSONS, SALISBURY, MD, 21801",114458775,"R"
25862,"113 PATRICK ST","PEMBROKE","GA",31321,32.1387227650001,-81.619933988,362,"113 PATRICK ST, PEMBROKE, GA, 31321","Match","Exact","113 PATRICK ST, PEMBROKE, GA, 31321",6083940,"R"
25863,"113 PHILLIPS STREET","JACKSON","TN",38301,35.612609438,-88.795989613,363,"113 PHILLIPS STREET, JACKSON, TN, 38301","Match","Exact","113 PHILLIPS ST, JACKSON, TN, 38301",21322707,"L"
25864,"113 PICTOR AVE","LAS VEGAS","NV",89183,35.982821738,-115.167605035,364,"113 PICTOR AVE, LAS VEGAS, NV, 89183","Match","Exact","113 PICTOR AVE, LAS VEGAS, NV, 89183",650770212,"R"
25865,"113 PIETY DR","LAKE ST LOUIS","MO",63367,38.76593869,-90.822817514,365,"113 PIETY DR, LAKE ST LOUIS, MO, 63367","Match","Exact","113 PIETY DR, LAKE SAINT LOUIS, MO, 63367",645503563,"L"
25866,"113 PINE ST","COLUMBIA","CT",6237,41.6717983730001,-72.300000672,366,"113 PINE ST, COLUMBIA, CT, 6237","Match","Exact","113 PINE ST, COLUMBIA, CT, 06237",57002557,"R"
25867,"113 PINEHURST LANE","MOORESTOWN","NJ",8057,39.959712806,-74.956070235,367,"113 PINEHURST LANE, MOORESTOWN, NJ, 8057","Match","Exact","113 PINEHURST LN, MOORESTOWN, NJ, 08057",134030876,"L"
25868,"113 PLYMOUTH PL","MIDDLETOWN","DE",19709,39.4462510500001,-75.676777854,368,"113 PLYMOUTH PL, MIDDLETOWN, DE, 19709","Match","Exact","113 PLYMOUTH PL, MIDDLETOWN, DE, 19709",648960903,"L"
25869,"113 POCOTALIGO DRIVE","SUMTER","SC",29150,33.87339037,-80.354902243,369,"113 POCOTALIGO DRIVE, SUMTER, SC, 29150","Match","Exact","113 POCOTALIGO DR, SUMTER, SC, 29150",646469896,"R"
25870,"113 PORT ROYAL","WILLIAMSBURG","VA",23188,37.2851630960001,-76.768122971,370,"113 PORT ROYAL, WILLIAMSBURG, VA, 23188","Match","Exact","113 PORT ROYAL, WILLIAMSBURG, VA, 23188",103773419,"L"
25871,"113 PROSPECT HILL","NASHVILLE","TN",37205,36.1131881200001,-86.8422056969999,371,"113 PROSPECT HILL, NASHVILLE, TN, 37205","Match","Exact","113 PROSPECT HILL, NASHVILLE, TN, 37205",606821552,"R"
25872,"113 QUAPAW DRIVE","HARKER HEIGHTS","TX",76548,31.067721539,-97.675632268,372,"113 QUAPAW DRIVE, HARKER HEIGHTS, TX, 76548","Match","Exact","113 QUAPAW DR, HARKER HEIGHTS, TX, 76548",146175588,"L"
25873,"113 REATTA DR","JUSTIN","TX",76247,33.070837951,-97.3013699379999,373,"113 REATTA DR, JUSTIN, TX, 76247","Match","Exact","113 REATTA DR, JUSTIN, TX, 76247",618810469,"R"
25874,"113 RICHARD WAY","STOCKBRIDGE","GA",30281,33.5582251760001,-84.2567873089999,374,"113 RICHARD WAY, STOCKBRIDGE, GA, 30281","Match","Exact","113 RICHARD WAY, STOCKBRIDGE, GA, 30281",23207721,"R"
25875,"113 RIDGECREST ROAD","GADSDEN","AL",35901,33.9530637390001,-86.031223618,375,"113 RIDGECREST ROAD, GADSDEN, AL, 35901","Match","Exact","113 RIDGECREST RD, GADSDEN, AL, 35901",635630740,"R"
25876,"113 ROBIN DRIVE","SOUTH MILLS","NC",27976,36.402364612,-76.2878685859999,376,"113 ROBIN DRIVE, SOUTH MILLS, NC, 27976","Match","Exact","113 ROBIN DR, SOUTH MILLS, NC, 27976",120630701,"L"
25877,"113 ROGERS AVENUE","BROOKLYN","NY",11216,40.673707113,-73.952913064,377,"113 ROGERS AVENUE, BROOKLYN, NY, 11216","Match","Exact","113 ROGERS AVE, BROOKLYN, NY, 11216",59079366,"L"
25878,"113 RUSSELL STREET","CHARLESTOWN","MA",2129,42.3809816770001,-71.068771864,378,"113 RUSSELL STREET, CHARLESTOWN, MA, 2129","Match","Exact","113 RUSSELL ST, CHARLESTOWN, MA, 02129",85697231,"R"
25879,"113 RUSSELL STREET","SUNDERLAND","MA",1375,42.451932351,-72.575986166,379,"113 RUSSELL STREET, SUNDERLAND, MA, 1375","Match","Exact","113 RUSSELL ST, SUNDERLAND, MA, 01375",39939298,"L"
25880,"113 S 43RD STREET","PHILADELPHIA","PA",19104,39.9558591090001,-75.20854508,380,"113 S 43RD STREET, PHILADELPHIA, PA, 19104","Match","Exact","113 S 43RD ST, PHILADELPHIA, PA, 19104",131403807,"L"
25881,"113 S BECKHAM","TYLER","TX",75702,32.350582452,-95.2943430829999,381,"113 S BECKHAM, TYLER, TX, 75702","Match","Non_Exact","113 S BECKHAM AVE, TYLER, TX, 75702",141271327,"R"
25882,"113 S BENT ST","POWELL","WY",82435,44.752645418,-108.757560721,382,"113 S BENT ST, POWELL, WY, 82435","Match","Exact","113 S BENT ST, POWELL, WY, 82435",149192488,"R"
25883,"113 S CARLISLE ST","GREENCASTLE","PA",17225,39.788545227,-77.728376356,383,"113 S CARLISLE ST, GREENCASTLE, PA, 17225","Match","Exact","113 S CARLISLE ST, GREENCASTLE, PA, 17225",60096037,"L"
25884,"113 S COLUMBUS STREET STE 100","ALEXANDRIA","VA",22314,NA,NA,384,"113 S COLUMBUS STREET STE 100, ALEXANDRIA, VA, 22314","Tie",NA,NA,NA,NA
25885,"113 S ECONLOCKHATCHEE TRAIL","ORLANDO","FL",32825,28.542291774,-81.252645638,385,"113 S ECONLOCKHATCHEE TRAIL, ORLANDO, FL, 32825","Match","Exact","113 S ECONLOCKHATCHEE TRL, ORLANDO, FL, 32825",606055517,"L"
25886,"113 S GEX","LA PLATA","MO",63549,40.0231767510001,-92.491562604,386,"113 S GEX, LA PLATA, MO, 63549","Match","Non_Exact","113 S GEX ST, LA PLATA, MO, 63549",24960227,"L"
25887,"113 S GRACE ST","CROCKETT","TX",75835,31.319559573,-95.443733052,387,"113 S GRACE ST, CROCKETT, TX, 75835","Match","Exact","113 S GRACE ST, CROCKETT, TX, 75835",21990940,"R"
25888,"113 S LEVEL ST","DODGEVILLE","WI",53533,42.9597869030001,-90.133378592,388,"113 S LEVEL ST, DODGEVILLE, WI, 53533","Match","Exact","113 S LEVEL ST, DODGEVILLE, WI, 53533",49795324,"R"
25889,"113 S MAIN STREET SUITE 301","LODI","WI",53555,NA,NA,389,"113 S MAIN STREET SUITE 301, LODI, WI, 53555","Tie",NA,NA,NA,NA
25890,"113 S MCKEAN STREET","BUTLER","PA",16001,40.8605723210001,-79.893622993,390,"113 S MCKEAN STREET, BUTLER, PA, 16001","Match","Exact","113 S MCKEAN ST, BUTLER, PA, 16001",52656923,"R"
25891,"113 S MILL STREET","GLEN ELDER","KS",67446,39.4988782300001,-98.308328607,391,"113 S MILL STREET, GLEN ELDER, KS, 67446","Match","Exact","113 MILL ST, GLEN ELDER, KS, 67446",148302315,"L"
25892,"113 S ST LOUIS AVE","CHICAGO","IL",60624,41.8794439390001,-87.713547593,392,"113 S ST LOUIS AVE, CHICAGO, IL, 60624","Match","Exact","113 S ST LOUIS AVE, CHICAGO, IL, 60624",605084211,"L"
25893,"113 S STATE ST","BEARDSTOWN","IL",62618,40.0179715240001,-90.4347448999999,393,"113 S STATE ST, BEARDSTOWN, IL, 62618","Match","Exact","113 S STATE ST, BEARDSTOWN, IL, 62618",53141094,"R"
25894,"113 S TODD ST","MCCOMB","OH",45858,41.1088203030001,-83.791741981,394,"113 S TODD ST, MCCOMB, OH, 45858","Match","Non_Exact","113 N TODD ST, MC COMB, OH, 45858",36466330,"R"
25895,"113 S WALNUT ST","MISHAWAKA","IN",46544,41.6631117900001,-86.112184452,395,"113 S WALNUT ST, MISHAWAKA, IN, 46544","Match","Exact","113 S WALNUT ST, MISHAWAKA, IN, 46544",624687411,"R"
25896,"113 S WASHINGTON AVE","HENDERSON","TN",38340,35.4388616950001,-88.641294253,396,"113 S WASHINGTON AVE, HENDERSON, TN, 38340","Match","Exact","113 S WASHINGTON AVE, HENDERSON, TN, 38340",21084517,"R"
25897,"113 SADDLEBROOK CIRCLE","BEREA","KY",40403,37.6447189130001,-84.239643805,397,"113 SADDLEBROOK CIRCLE, BEREA, KY, 40403","Match","Non_Exact","113 SADDLE BROOK CIR, BEREA, KY, 40403",31999224,"L"
25898,"113 SALSMAN ST","LAFAYETTE","LA",70506,30.232063425,-92.055751914,398,"113 SALSMAN ST, LAFAYETTE, LA, 70506","Match","Exact","113 SALSMAN ST, LAFAYETTE, LA, 70506",85614249,"L"
25899,"113 SANRO DRIVE","LAFAYETTE","LA",70507,30.2864126650001,-92.090964607,399,"113 SANRO DRIVE, LAFAYETTE, LA, 70507","Match","Exact","113 SANRO DR, LAFAYETTE, LA, 70507",85641390,"L"
25900,"113 SANTIN CIRCLE","BEDFORD","OH",44146,41.38556334,-81.559970651,400,"113 SANTIN CIRCLE, BEDFORD, OH, 44146","Match","Exact","113 SANTIN CIR, BEDFORD, OH, 44146",61130099,"R"
25901,"113 SEABREEZE COURT","INLET BEACH","FL",32461,30.2937006220001,-86.0545400459999,401,"113 SEABREEZE COURT, INLET BEACH, FL, 32461","Match","Exact","113 SEABREEZE CT, INLET BEACH, FL, 32461",32997345,"L"
25902,"113 SEEDING COURT","MOUNT HOLLY","NC",28120,NA,NA,402,"113 SEEDING COURT, MOUNT HOLLY, NC, 28120","No_Match",NA,NA,NA,NA
25903,"113 SETTERLAND FARM ROAD","HANOVER","MA",2339,42.141232303,-70.869668527,403,"113 SETTERLAND FARM ROAD, HANOVER, MA, 2339","Match","Exact","113 SETTERLAND FARM RD, HANOVER, MA, 02339",87456989,"R"
25904,"113 SHAIRPIN LANE","GREENVILLE","SC",29607,34.7932164050001,-82.266381827,404,"113 SHAIRPIN LANE, GREENVILLE, SC, 29607","Match","Exact","113 SHAIRPIN LN, GREENVILLE, SC, 29607",38351534,"L"
25905,"113 SLIPPERY ROCK LANE","BEREA","OH",44017,41.3764101620001,-81.885720503,405,"113 SLIPPERY ROCK LANE, BEREA, OH, 44017","Match","Exact","113 SLIPPERY ROCK LN, BEREA, OH, 44017",651489879,"L"
25906,"113 SNOWDRIFT TRAIL","ROUND ROCK","TX",78664,30.4993117340001,-97.607661152,406,"113 SNOWDRIFT TRAIL, ROUND ROCK, TX, 78664","Match","Exact","113 SNOWDRIFT TRL, ROUND ROCK, TX, 78664",619972291,"R"
25907,"113 SNOWDRIFT TRL","ROUND ROCK","TX",78664,30.4993117340001,-97.607661152,407,"113 SNOWDRIFT TRL, ROUND ROCK, TX, 78664","Match","Exact","113 SNOWDRIFT TRL, ROUND ROCK, TX, 78664",619972291,"R"
25908,"113 SOUTH 22ND STREET","PHILADELPHIA","PA",19103,39.9520480140001,-75.177085787,408,"113 SOUTH 22ND STREET, PHILADELPHIA, PA, 19103","Match","Exact","113 S 22ND ST, PHILADELPHIA, PA, 19103",131406732,"L"
25909,"113 SOUTH APPLE STREET","SHOSHONE","ID",83352,42.935506585,-114.408292392,409,"113 SOUTH APPLE STREET, SHOSHONE, ID, 83352","Match","Exact","113 S APPLE ST, SHOSHONE, ID, 83352",105702683,"R"
25910,"113 SOUTH BATES AVENUE SUITE A","CHARLESTON AFB","SC",29404,32.8980101430001,-80.0512476599999,410,"113 SOUTH BATES AVENUE SUITE A, CHARLESTON AFB, SC, 29404","Match","Non_Exact","113 S BATES ST, CHARLESTON AFB, SC, 29404",641133265,"R"
25911,"113 SOUTH BRUNER ST","HINSDALE","IL",60521,41.8013005130001,-87.942870104,411,"113 SOUTH BRUNER ST, HINSDALE, IL, 60521","Match","Exact","113 S BRUNER ST, HINSDALE, IL, 60521",112549636,"L"
25912,"113 SOUTH COLUMBUS ST 100","ALEXANDRIA","VA",22307,38.805000598,-77.048164453,412,"113 SOUTH COLUMBUS ST 100, ALEXANDRIA, VA, 22307","Match","Non_Exact","113 S COLUMBUS ST, ALEXANDRIA, VA, 22314",75991546,"R"
25913,"113 SOUTH COLUMBUS STREET SUITE 100","ALEXANDRIA","VA",22314,38.805000598,-77.048164453,413,"113 SOUTH COLUMBUS STREET SUITE 100, ALEXANDRIA, VA, 22314","Match","Exact","113 S COLUMBUS ST, ALEXANDRIA, VA, 22314",75991546,"R"
25914,"113 SOUTH ELM","HOPE","AR",71801,33.668628251,-93.5934240139999,414,"113 SOUTH ELM, HOPE, AR, 71801","Match","Non_Exact","113 S ELM ST, HOPE, AR, 71801",10860402,"R"
25915,"113 SOUTH JOHNSON","ADA","OK",74820,NA,NA,415,"113 SOUTH JOHNSON, ADA, OK, 74820","No_Match",NA,NA,NA,NA
25916,"113 SOUTH MAIN STREET","ST JOHN","KS",67576,37.9992765580001,-98.761568903,416,"113 SOUTH MAIN STREET, ST JOHN, KS, 67576","Match","Exact","113 S MAIN ST, ST JOHN, KS, 67576",133287886,"R"
25917,"113 SOUTH MONROE STREET-FIRST FLOOR","TALLAHASSEE","FL",32301,30.4416439240001,-84.280657288,417,"113 SOUTH MONROE STREET-FIRST FLOOR, TALLAHASSEE, FL, 32301","Match","Non_Exact","113 S MONROE ST, TALLAHASSEE, FL, 32301",82850767,"L"
25918,"113 SOUTH MONROE STREET","TALLAHASSEE","FL",32301,30.4416439240001,-84.280657288,418,"113 SOUTH MONROE STREET, TALLAHASSEE, FL, 32301","Match","Exact","113 S MONROE ST, TALLAHASSEE, FL, 32301",82850767,"L"
25919,"113 SOUTH SERVICE ROAD","JERICHO","NY",11753,NA,NA,419,"113 SOUTH SERVICE ROAD, JERICHO, NY, 11753","No_Match",NA,NA,NA,NA
25920,"113 SOUTH ST","HENRICO","VA",23075,37.5355320250001,-77.341997017,420,"113 SOUTH ST, HENRICO, VA, 23075","Match","Exact","113 SOUTH ST, HENRICO, VA, 23075",636821667,"R"
25921,"113 ST KM 5 HM 7 BO SAN ANTONIO","QUEBRADILLAS","PR",678,18.4557125110001,-66.9524835399999,421,"113 ST KM 5 HM 7 BO SAN ANTONIO, QUEBRADILLAS, PR, 678","Match","Non_Exact","5 CLL 7, QUEBRADILLAS, PR, 00678",205222551,"R"
25922,"113 STAPLETON WAY","HIGH POINT","NC",27265,36.026421167,-80.039673809,422,"113 STAPLETON WAY, HIGH POINT, NC, 27265","Match","Exact","113 STAPLETON WAY, HIGH POINT, NC, 27265",131077501,"L"
25923,"113 STEPHENSON LANE","COLUMBIA","SC",29212,34.0652163600001,-81.190104385,423,"113 STEPHENSON LANE, COLUMBIA, SC, 29212","Match","Exact","113 STEPHENSON LN, COLUMBIA, SC, 29212",70059357,"L"
25924,"113 STONEWALL RD","VICKSBURG","MS",39180,32.307157042,-90.8772728169999,424,"113 STONEWALL RD, VICKSBURG, MS, 39180","Match","Exact","113 STONEWALL RD, VICKSBURG, MS, 39180",71292361,"L"
25925,"113 SUMMIT RIDGE CIRCLE","COLUMBIA","SC",29229,34.1589812620001,-80.880422285,425,"113 SUMMIT RIDGE CIRCLE, COLUMBIA, SC, 29229","Match","Exact","113 SUMMIT RIDGE CIR, COLUMBIA, SC, 29229",604786615,"L"
25926,"113 SUNDANCE CT","SANTA TERESA","NM",88008,31.8451566730001,-106.651514942,426,"113 SUNDANCE CT, SANTA TERESA, NM, 88008","Match","Exact","113 SUNDANCE CT, SANTA TERESA, NM, 88008",189547995,"L"
25927,"113 SWARTHMORE DRIVE","TOWSON","MD",21204,39.412053975,-76.604635532,427,"113 SWARTHMORE DRIVE, TOWSON, MD, 21204","Match","Exact","113 SWARTHMORE DR, TOWSON, MD, 21204",191473410,"L"
25928,"113 TAFT PL","GARY","IN",46404,41.607888383,-87.36664309,428,"113 TAFT PL, GARY, IN, 46404","Match","Exact","113 TAFT PL, GARY, IN, 46404",98425438,"L"
25929,"113 TEAL STREET","ST ROSE","LA",70087,29.9831737210001,-90.28439223,429,"113 TEAL STREET, ST ROSE, LA, 70087","Match","Exact","113 TEAL ST, SAINT ROSE, LA, 70087",647731574,"R"
25930,"113 TERRA VISTA RANCH ROAD","VICTORIA","TX",77904,28.8817104,-97.023864002,430,"113 TERRA VISTA RANCH ROAD, VICTORIA, TX, 77904","Match","Exact","113 TERRA VISTA RANCH RD, VICTORIA, TX, 77904",652142729,"R"
25931,"113 TERRY DR","LAFAYETTE","LA",70501,30.2411223570001,-91.980275811,431,"113 TERRY DR, LAFAYETTE, LA, 70501","Match","Exact","113 TERRY DR, LAFAYETTE, LA, 70501",85617748,"L"
25932,"113 THOROUGHBRED DRIVE","FATE","TX",75087,32.9304986860001,-96.416920203,432,"113 THOROUGHBRED DRIVE, FATE, TX, 75087","Match","Exact","113 THOROUGHBRED DR, FATE, TX, 75087",627408881,"L"
25933,"113 TIMBERWIND DR","NEW MARKET","AL",35761,34.8930571010001,-86.504236608,433,"113 TIMBERWIND DR, NEW MARKET, AL, 35761","Match","Exact","113 TIMBERWIND DR, NEW MARKET, AL, 35761",648870417,"L"
25934,"113 TODD ROAD","PERRY","GA",31069,32.510642928,-83.7318494369999,434,"113 TODD ROAD, PERRY, GA, 31069","Match","Exact","113 TODD RD, PERRY, GA, 31069",629904699,"R"
25935,"113 TOWNVIEW STREET","PITTSBURGH","PA",15209,40.518624113,-79.974455749,435,"113 TOWNVIEW STREET, PITTSBURGH, PA, 15209","Match","Non_Exact","113 TOWN VIEW ST, PITTSBURGH, PA, 15209",51624956,"R"
25936,"113 TRADITIONS LANE","HAMPTON","GA",30228,33.4673671960001,-84.26923977,436,"113 TRADITIONS LANE, HAMPTON, GA, 30228","Match","Exact","113 TRADITIONS LN, HAMPTON, GA, 30228",619918957,"L"
25937,"113 TRAILSIDE CONDOS UNIT 12","LONDONDERRY","VT",5148,43.1997894960001,-72.77347423,437,"113 TRAILSIDE CONDOS UNIT 12, LONDONDERRY, VT, 5148","Match","Exact","113 TRAILSIDE CONDOS, LONDONDERRY, VT, 05148",171096482,"R"
25938,"113 UNIVERSITY VILLAGE APT F","AMES","IA",50010,NA,NA,438,"113 UNIVERSITY VILLAGE APT F, AMES, IA, 50010","No_Match",NA,NA,NA,NA
25939,"113 VANDER ROAD","WEXFORD","PA",15090,40.648829811,-80.0861014559999,439,"113 VANDER ROAD, WEXFORD, PA, 15090","Match","Exact","113 VANDER RD, WEXFORD, PA, 15090",607731073,"L"
25940,"113 VERDE TRAILS DRIVE","HOUSTON","TX",77073,NA,NA,440,"113 VERDE TRAILS DRIVE, HOUSTON, TX, 77073","No_Match",NA,NA,NA,NA
25941,"113 VERMONT AVE","VILLAS","NJ",8251,39.0116603760001,-74.936908852,441,"113 VERMONT AVE, VILLAS, NJ, 8251","Match","Exact","113 VERMONT AVE, VILLAS, NJ, 08251",174336819,"R"
25942,"113 VIEW HAVEN ROAD","EASTSOUND","WA",98245,48.6977010690001,-122.918028516,442,"113 VIEW HAVEN ROAD, EASTSOUND, WA, 98245","Match","Exact","113 VIEW HAVEN RD, EASTSOUND, WA, 98245",152171687,"R"
25943,"113 VISTA VIEW DR","CAYCE","SC",29172,33.9256958170001,-81.0856283859999,443,"113 VISTA VIEW DR, CAYCE, SC, 29172","Match","Exact","113 VISTA VIEW DR, CAYCE, SC, 29172",640836843,"L"
25944,"113 W 700 S","NEPHI","UT",84648,39.698442078,-111.838394167,444,"113 W 700 S, NEPHI, UT, 84648","Match","Exact","113 W 700 S, NEPHI, UT, 84648",188081555,"L"
25945,"113 W CHAPMAN RD","OVIEDO","FL",32765,28.6410482540001,-81.210106099,445,"113 W CHAPMAN RD, OVIEDO, FL, 32765","Match","Exact","113 W CHAPMAN RD, OVIEDO, FL, 32765",641640779,"R"
25946,"113 W EMMA AVENUE","SPRINGDALE","AR",72764,36.1850815230001,-94.131398641,446,"113 W EMMA AVENUE, SPRINGDALE, AR, 72764","Match","Exact","113 W EMMA AVE, SPRINGDALE, AR, 72764",49043432,"L"
25947,"113 W MAIN ST","SIDNEY","MT",59270,47.715479788,-104.157869692,447,"113 W MAIN ST, SIDNEY, MT, 59270","Match","Exact","113 W MAIN ST, SIDNEY, MT, 59270",637907955,"R"
25948,"113 W MARKET STREET","MOUNT CARROLL","IL",61053,42.1013392180001,-89.9787693499999,448,"113 W MARKET STREET, MOUNT CARROLL, IL, 61053","Match","Non_Exact","113 E MARKET ST, MOUNT CARROLL, IL, 61053",27679444,"R"
25949,"113 W MASON STREET","POLO","IL",61064,41.9861260100001,-89.577826462,449,"113 W MASON STREET, POLO, IL, 61064","Match","Exact","113 W MASON ST, POLO, IL, 61064",52312718,"L"
25950,"113 W MICHIGAN AVE NO 353","JACKSON","MI",49204,NA,NA,450,"113 W MICHIGAN AVE NO 353, JACKSON, MI, 49204","No_Match",NA,NA,NA,NA
25951,"113 W STRONG ST","PENSACOLA","FL",32501,30.4219864040001,-87.219241905,451,"113 W STRONG ST, PENSACOLA, FL, 32501","Match","Exact","113 W STRONG ST, PENSACOLA, FL, 32501",93221380,"L"
25952,"113 WALNUT STREET APT 97","NEPTUNE","NJ",7753,40.2080212130001,-74.048768466,452,"113 WALNUT STREET APT 97, NEPTUNE, NJ, 7753","Match","Exact","113 WALNUT ST, NEPTUNE, NJ, 07753",90524050,"L"
25953,"113 WAYNE STREET UNIT 2","JERSEY CITY","NJ",7302,40.720149216,-74.047605204,453,"113 WAYNE STREET UNIT 2, JERSEY CITY, NJ, 7302","Match","Exact","113 WAYNE ST, JERSEY CITY, NJ, 07302",59605972,"L"
25954,"113 WAYNE STREET","MANCHESTER","KY",40962,37.148575909,-83.7598800169999,454,"113 WAYNE STREET, MANCHESTER, KY, 40962","Match","Exact","113 WAYNE ST, MANCHESTER, KY, 40962",90841233,"R"
25955,"113 WEATHERFORD WAY","VILLA RICA","GA",30180,33.7117783520001,-84.887768019,455,"113 WEATHERFORD WAY, VILLA RICA, GA, 30180","Match","Exact","113 WEATHERFORD WAY, VILLA RICA, GA, 30180",16661321,"R"
25956,"113 WEST 112TH PLACE","CHICAGO","IL",60628,41.6898244450001,-87.626121541,456,"113 WEST 112TH PLACE, CHICAGO, IL, 60628","Match","Exact","113 W 112TH PL, CHICAGO, IL, 60628",111833993,"L"
25957,"113 WEST ELM STREET - PO BOX 281","HARDIN","MO",64035,39.269890005,-93.834237559,457,"113 WEST ELM STREET - PO BOX 281, HARDIN, MO, 64035","Match","Exact","113 W ELM ST, HARDIN, MO, 64035",20987146,"L"
25958,"113 WEST MAIN STREET","KASON","MN",55944,44.0294865450001,-92.749738198,458,"113 WEST MAIN STREET, KASON, MN, 55944","Match","Non_Exact","113 W MAIN ST, KASSON, MN, 55944",31424149,"R"
25959,"113 WEST MAIN STREET","OWATONNA","MN",55060,NA,NA,459,"113 WEST MAIN STREET, OWATONNA, MN, 55060","No_Match",NA,NA,NA,NA
25960,"113 WEST MAUMEE STREET","ANGOLA","IN",46403,41.634844446,-84.999653297,460,"113 WEST MAUMEE STREET, ANGOLA, IN, 46403","Match","Non_Exact","113 W MAUMEE ST, ANGOLA, IN, 46703",7718414,"L"
25961,"113 WEST PROSPECT STREET","HOPEWELL","NJ",8525,40.3845318030001,-74.768259899,461,"113 WEST PROSPECT STREET, HOPEWELL, NJ, 8525","Match","Exact","113 W PROSPECT ST, HOPEWELL, NJ, 08525",60174576,"L"
25962,"113 WEST PUBLIC SQUARE","GLASGOW","KY",42141,36.996206844,-85.9129402089999,462,"113 WEST PUBLIC SQUARE, GLASGOW, KY, 42141","Match","Exact","113 W PUBLIC SQ, GLASGOW, KY, 42141",29508627,"L"
25963,"113 WEST RIVER STREET","ORANGE","MA",1364,42.5886759570001,-72.314799776,463,"113 WEST RIVER STREET, ORANGE, MA, 1364","Match","Exact","113 W RIVER ST, ORANGE, MA, 01364",39920438,"L"
25964,"113 WHITNEY WAY","MADILL","OK",73446,34.091395569,-96.7901904409999,464,"113 WHITNEY WAY, MADILL, OK, 73446","Match","Exact","113 WHITNEY WAY, MADILL, OK, 73446",601291591,"L"
25965,"113 WICKHAM CT","PAWLEYS ISLAND","SC",29585,33.421752188,-79.176483441,465,"113 WICKHAM CT, PAWLEYS ISLAND, SC, 29585","Match","Exact","113 WICKHAM CT, PAWLEYS ISLAND, SC, 29585",632348950,"L"
25966,"113 WILDWOOD DRIVE","BATESBURG","SC",29006,33.919521418,-81.5761559649999,466,"113 WILDWOOD DRIVE, BATESBURG, SC, 29006","Match","Non_Exact","113 WILDWOOD RD, BATESBURG, SC, 29006",65520303,"R"
25967,"113 WILLIAMSBURG STREET","LAKE CHARLES","LA",70605,NA,NA,467,"113 WILLIAMSBURG STREET, LAKE CHARLES, LA, 70605","No_Match",NA,NA,NA,NA
25968,"113 WILLOW CLIFF","CIBOLO","TX",78108,29.6030187580001,-98.254433784,468,"113 WILLOW CLIFF, CIBOLO, TX, 78108","Match","Exact","113 WILLOW CLIFF, CIBOLO, TX, 78108",234719189,"L"
25969,"113 WINDSOR RIDGE DRIVE","PELHAM","AL",35124,33.330925973,-86.8118429529999,469,"113 WINDSOR RIDGE DRIVE, PELHAM, AL, 35124","Match","Exact","113 WINDSOR RIDGE DR, PELHAM, AL, 35124",82097467,"L"
25970,"113 WOODLAND CREEK DRIVE","SALISBURY","NC",28147,35.700298376,-80.53539619,470,"113 WOODLAND CREEK DRIVE, SALISBURY, NC, 28147","Match","Exact","113 WOODLAND CREEK DR, SALISBURY, NC, 28147",636873228,"R"
25971,"113 WOODMERE STREET","RARITAN","NJ",8869,40.564782624,-74.6477489059999,471,"113 WOODMERE STREET, RARITAN, NJ, 8869","Match","Exact","113 WOODMERE ST, RARITAN, NJ, 08869",59946804,"L"
25972,"113 WYNN WAY A","COLUMBIA","SC",29073,34.0688404530001,-81.124610585,472,"113 WYNN WAY A, COLUMBIA, SC, 29073","Match","Non_Exact","113 WYNN WAY, COLUMBIA, SC, 29210",645497263,"L"
25973,"113-01 101 AVENUE","RICHMOND HILL","NY",11419,40.6885640990001,-73.8309265239999,473,"113-01 101 AVENUE, RICHMOND HILL, NY, 11419","Match","Non_Exact","113 101ST AVE, SOUTH RICHMOND HILL, NY, 11419",59708144,"L"
25974,"113-07 203 STREET","ST. ALBANS","NY",11412,40.701879428,-73.752515305,474,"113-07 203 STREET, ST. ALBANS, NY, 11412","Match","Exact","113-7 203RD ST, SAINT ALBANS, NY, 11412",59720256,"L"
25975,"113-123 WESSON ST","PONTIAC","MI",48341,42.6315345840001,-83.295493194,475,"113-123 WESSON ST, PONTIAC, MI, 48341","Match","Exact","113 WESSON ST, PONTIAC, MI, 48341",69705587,"L"
25976,"113-39 FRANCIS LEWIS BLVD","QUEENS VILLAGE","NY",11429,40.7021076790001,-73.748868537,476,"113-39 FRANCIS LEWIS BLVD, QUEENS VILLAGE, NY, 11429","Match","Exact","113-39 FRANCIS LEWIS BLVD, QUEENS VILLAGE, NY, 11429",59720287,"L"
25977,"113-B EAST COUNTY ROAD","THOMASTON","GA",30286,32.9266293480001,-84.3338925319999,477,"113-B EAST COUNTY ROAD, THOMASTON, GA, 30286","Match","Exact","113 E COUNTY RD, THOMASTON, GA, 30286",83682927,"L"
25978,"1130  CANDLEWICK DRIVE","POPLAR GROVE","IL",61065,42.35769974,-88.8661931189999,478,"1130  CANDLEWICK DRIVE, POPLAR GROVE, IL, 61065","Match","Exact","1130 CANDLEWICK DR, POPLAR GROVE, IL, 61065",614354669,"L"
25979,"1130 1/2 E FRONT ST","PORT ANGELES","WA",98362,48.112150984,-123.413804873,479,"1130 1/2 E FRONT ST, PORT ANGELES, WA, 98362","Match","Exact","1130 E FRONT ST, PORT ANGELES, WA, 98362",150848845,"L"
25980,"1130 22ND ST SO SUITE 3500","BIRMINGHAM","AL",35205,33.502216628,-86.791079914,480,"1130 22ND ST SO SUITE 3500, BIRMINGHAM, AL, 35205","Match","Exact","1130 22ND ST S, BIRMINGHAM, AL, 35205",81720847,"R"
25981,"1130 22ND STREET SOUTH SUITE 3000","BIRMINGHAM","AL",35205,33.502216628,-86.791079914,481,"1130 22ND STREET SOUTH SUITE 3000, BIRMINGHAM, AL, 35205","Match","Exact","1130 22ND ST S, BIRMINGHAM, AL, 35205",81720847,"R"
25982,"1130 9TH AVE","HAVRE","MT",59501,48.5416119270001,-109.671117513,482,"1130 9TH AVE, HAVRE, MT, 59501","Match","Exact","1130 9TH AVE, HAVRE, MT, 59501",607775980,"L"
25983,"1130 ASHCROFT DR NE","LELAND","NC",28451,NA,NA,483,"1130 ASHCROFT DR NE, LELAND, NC, 28451","Tie",NA,NA,NA,NA
25984,"1130 BART MANOUS RD","CANTON","GA",30115,34.199088325,-84.429220005,484,"1130 BART MANOUS RD, CANTON, GA, 30115","Match","Exact","1130 BART MANOUS RD, CANTON, GA, 30115",629675188,"L"
25985,"1130 BEACH AVE APT 2F","BRONX","NY",10472,40.828524529,-73.8655761329999,485,"1130 BEACH AVE APT 2F, BRONX, NY, 10472","Match","Exact","1130 BEACH AVE, BRONX, NY, 10472",80304931,"R"
25986,"1130 BEAR CREAK PKWY APT 2509","EULESS","TX",76039,32.8527933250001,-97.070055554,486,"1130 BEAR CREAK PKWY APT 2509, EULESS, TX, 76039","Match","Non_Exact","1130 BEAR CREEK PKWY, EULESS, TX, 76039",102143827,"R"
25987,"1130 BEAR CREEK PKWY STE 405","EULESS","TX",76039,32.8527933250001,-97.070055554,487,"1130 BEAR CREEK PKWY STE 405, EULESS, TX, 76039","Match","Exact","1130 BEAR CREEK PKWY, EULESS, TX, 76039",102143827,"R"
25988,"1130 BEDFORD AVE STE 51","BROOKLYN","NY",11216,40.6859172010001,-73.9544266789999,488,"1130 BEDFORD AVE STE 51, BROOKLYN, NY, 11216","Match","Exact","1130 BEDFORD AVE, BROOKLYN, NY, 11216",59078807,"R"
25989,"1130 BEDFORD AVE","BROOKLYN","NY",11216,40.6859172010001,-73.9544266789999,489,"1130 BEDFORD AVE, BROOKLYN, NY, 11216","Match","Exact","1130 BEDFORD AVE, BROOKLYN, NY, 11216",59078807,"R"
25990,"1130 BEDFORD AVENUE NUMBER 36","BROOKLYN","NY",11216,40.6859172010001,-73.9544266789999,490,"1130 BEDFORD AVENUE NUMBER 36, BROOKLYN, NY, 11216","Match","Exact","1130 BEDFORD AVE, BROOKLYN, NY, 11216",59078807,"R"
25991,"1130 BELLEAIRE CIRCLE","ORLANDO","FL",32804,28.5614421560001,-81.393898386,491,"1130 BELLEAIRE CIRCLE, ORLANDO, FL, 32804","Match","Exact","1130 BELLEAIRE CIR, ORLANDO, FL, 32804",94280504,"L"
25992,"1130 BLUFFS PARKWAY","CANTON","GA",30114,34.2669204100001,-84.473187524,492,"1130 BLUFFS PARKWAY, CANTON, GA, 30114","Match","Exact","1130 BLUFFS PKWY, CANTON, GA, 30114",601662784,"L"
25993,"1130 BRIDLE PATH DRIVE","QUAKERTOWN","PA",18951,40.433608199,-75.3621778519999,493,"1130 BRIDLE PATH DRIVE, QUAKERTOWN, PA, 18951","Match","Exact","1130 BRIDLE PATH DR, QUAKERTOWN, PA, 18951",614102813,"L"
25994,"1130 BROOKLINE","CANTON","MI",48187,42.313115392,-83.4769258589999,494,"1130 BROOKLINE, CANTON, MI, 48187","Match","Non_Exact","1130 BROOKLINE ST, CANTON, MI, 48187",95409352,"R"
25995,"1130 CAPITAL DRIVE","LANTANA","TX",76226,33.0877987440001,-97.117127645,495,"1130 CAPITAL DRIVE, LANTANA, TX, 76226","Match","Exact","1130 CAPITAL DR, LANTANA, TX, 76226",614169243,"R"
25996,"1130 CERO CT APT 2","REDLANDS","CA",92374,34.0564603560001,-117.163451498,496,"1130 CERO CT APT 2, REDLANDS, CA, 92374","Match","Exact","1130 CERO CT, REDLANDS, CA, 92374",144664806,"R"
25997,"1130 CHAMPIONS DRIVE","CONWAY","AR",72034,35.095093601,-92.511815911,497,"1130 CHAMPIONS DRIVE, CONWAY, AR, 72034","Match","Exact","1130 CHAMPIONS DR, CONWAY, AR, 72034",141071739,"L"
25998,"1130 CHESTNUT COURT","EVERETT","WA",98201,48.002448181,-122.188071183,498,"1130 CHESTNUT COURT, EVERETT, WA, 98201","Match","Exact","1130 CHESTNUT CT, EVERETT, WA, 98201",650496255,"L"
25999,"1130 CHRISTIAN STREET","PHILADELPHIA","PA",19147,39.93943233,-75.1614758649999,499,"1130 CHRISTIAN STREET, PHILADELPHIA, PA, 19147","Match","Exact","1130 CHRISTIAN ST, PHILADELPHIA, PA, 19147",131408301,"L"
26000,"1130 COLLEGE STREET","MEMPHIS","TN",38106,35.116124068,-90.0307848799999,500,"1130 COLLEGE STREET, MEMPHIS, TN, 38106","Match","Exact","1130 COLLEGE ST, MEMPHIS, TN, 38106",72908339,"L"
