"ID","Address","City","State","Zip","lat","long","id","input_address","match_indicator","match_type","matched_address","tiger_line_id","tiger_side"
273001,"6907 SW 115TH PLACE UNIT G","MIAMI","FL",33173,25.7029512460001,-80.3803540929999,1,"6907 SW 115TH PLACE UNIT G, MIAMI, FL, 33173","Match","Non_Exact","6907 SW 115TH PL, MIAMI, FL, 33173",116075258,"L"
273002,"690731","MINT HILL","NC",28227,NA,NA,2,"690731, MINT HILL, NC, 28227","No_Match",NA,NA,NA,NA
273003,"6908 ANTRIM ROAD","EDINA","MN",55439,44.877352022,-93.373704811,3,"6908 ANTRIM ROAD, EDINA, MN, 55439","Match","Exact","6908 ANTRIM RD, EDINA, MN, 55439",43626845,"R"
273004,"6908 AYR LANE","BETHESDA","MD",20817,38.9802758960001,-77.139871663,4,"6908 AYR LANE, BETHESDA, MD, 20817","Match","Exact","6908 AYR LN, BETHESDA, MD, 20817",642964171,"L"
273005,"6908 ECHO LAKE DR","NEW PORT RICHEY","FL",34653,28.241142607,-82.700247222,5,"6908 ECHO LAKE DR, NEW PORT RICHEY, FL, 34653","Match","Exact","6908 ECHO LAKE DR, NEW PORT RICHEY, FL, 34653",86348496,"L"
273006,"6908 FORBES BLVD","LANHAM","MD",20706,38.984646549,-76.828547341,6,"6908 FORBES BLVD, LANHAM, MD, 20706","Match","Exact","6908 FORBES BLVD, LANHAM, MD, 20706",76338116,"R"
273007,"6908 GREAT FALLS DR","PLAINFIELD","IL",60586,41.555261124,-88.250810225,7,"6908 GREAT FALLS DR, PLAINFIELD, IL, 60586","Match","Exact","6908 GREAT FALLS DR, PLAINFIELD, IL, 60586",641432366,"L"
273008,"6908 PALM AVENUE","FAIR OAKS","CA",95628,38.661090329,-121.303568482,8,"6908 PALM AVENUE, FAIR OAKS, CA, 95628","Match","Exact","6908 PALM AVE, FAIR OAKS, CA, 95628",133342547,"R"
273009,"6908 STONESTHROW CIRCLE N 10208","ST PETERSBURG","FL",33710,27.789359603,-82.736713105,9,"6908 STONESTHROW CIRCLE N 10208, ST PETERSBURG, FL, 33710","Match","Exact","6908 STONESTHROW CIR N, SAINT PETERSBURG, FL, 33710",653186133,"R"
273010,"6908 VESPER AVE 117","VAN NUYS","CA",91405,34.1962133160001,-118.450897075,10,"6908 VESPER AVE 117, VAN NUYS, CA, 91405","Match","Exact","6908 VESPER AVE, VAN NUYS, CA, 91405",141560945,"R"
273011,"6908 WAGNER ROAD","CEDAR FALLS","IA",50613,42.5983206930001,-92.376946577,11,"6908 WAGNER ROAD, CEDAR FALLS, IA, 50613","Match","Exact","6908 WAGNER RD, CEDAR FALLS, IA, 50613",641381018,"R"
273012,"6908 WEST 65TH STREET","CHICAGO","IL",60638,41.7738209820001,-87.793715661,12,"6908 WEST 65TH STREET, CHICAGO, IL, 60638","Match","Exact","6908 W 65TH ST, CHICAGO, IL, 60638",112226340,"L"
273013,"6908 WESTGLEN DR","FORT WORTH","TX",76133,32.642770752,-97.366417839,13,"6908 WESTGLEN DR, FORT WORTH, TX, 76133","Match","Exact","6908 WESTGLEN DR, FORT WORTH, TX, 76133",101893875,"R"
273014,"6908 WILDERNESS RD","RALEIGH","NC",27613,35.8744630790001,-78.683446816,14,"6908 WILDERNESS RD, RALEIGH, NC, 27613","Match","Exact","6908 WILDERNESS RD, RALEIGH, NC, 27613",72604427,"L"
273015,"6908 WYTHE HILL CIRCLE","PROSPECT","KY",40059,38.3498710100001,-85.612875629,15,"6908 WYTHE HILL CIRCLE, PROSPECT, KY, 40059","Match","Exact","6908 WYTHE HILL CIR, PROSPECT, KY, 40059",96840327,"L"
273016,"69084 HIGHWAY 30","CLATSKANIE","OR",97016,NA,NA,16,"69084 HIGHWAY 30, CLATSKANIE, OR, 97016","No_Match",NA,NA,NA,NA
273017,"69084 HIGHWAY 47","MIST","OR",97016,45.9983575150001,-123.254197013,17,"69084 HIGHWAY 47, MIST, OR, 97016","Match","Non_Exact","69084 HWY 47, WESTPORT, OR, 97016",158075008,"R"
273018,"6909 CHIMNEY HILL RD","CRESTWOOD","KY",40014,38.326636857,-85.4285616289999,18,"6909 CHIMNEY HILL RD, CRESTWOOD, KY, 40014","Match","Exact","6909 CHIMNEY HILL RD, CRESTWOOD, KY, 40014",130932834,"L"
273019,"6909 COUNTRY LANE","MADISON","WI",53719,43.0026714150001,-89.5038409969999,19,"6909 COUNTRY LANE, MADISON, WI, 53719","Match","Exact","6909 COUNTRY LN, MADISON, WI, 53719",639589398,"L"
273020,"6909 CREEKSIDE LN","PLANO","TX",75023,33.0701597610001,-96.7482605659999,20,"6909 CREEKSIDE LN, PLANO, TX, 75023","Match","Exact","6909 CREEKSIDE LN, PLANO, TX, 75023",123530395,"L"
273021,"6909 GUITNER ROAD","GREENCASTLE","PA",17225,39.834070597,-77.762957547,21,"6909 GUITNER ROAD, GREENCASTLE, PA, 17225","Match","Exact","6909 GUITNER RD, GREENCASTLE, PA, 17225",605518258,"L"
273022,"6909 HIGHWAY 1 SOUTH","FORREST CITY","AR",72335,NA,NA,22,"6909 HIGHWAY 1 SOUTH, FORREST CITY, AR, 72335","No_Match",NA,NA,NA,NA
273023,"6909 ISLETA BLVD SW","ALBUQUERQUE","NM",87105,34.9663278310001,-106.695519461,23,"6909 ISLETA BLVD SW, ALBUQUERQUE, NM, 87105","Match","Exact","6909 ISLETA BLVD SW, ALBUQUERQUE, NM, 87105",648097225,"R"
273024,"6909 NORTH TROOST AVENUE","GLADSTONE","MO",64118,39.2199754380001,-94.566887498,24,"6909 NORTH TROOST AVENUE, GLADSTONE, MO, 64118","Match","Exact","6909 N TROOST AVE, GLADSTONE, MO, 64118",89754695,"R"
273025,"6909 O DONIEL LOOP W","LAKELAND","FL",33809,28.1315199740001,-81.9337362649999,25,"6909 O DONIEL LOOP W, LAKELAND, FL, 33809","Match","Non_Exact","6909 ODONIEL LOOP W, LAKELAND, FL, 33809",627408225,"L"
273026,"6909 PENNSYLVANIA AVE","KANSAS CITY","MO",64113,39.0037076690001,-94.59629789,26,"6909 PENNSYLVANIA AVE, KANSAS CITY, MO, 64113","Match","Exact","6909 PENNSYLVANIA AVE, KANSAS CITY, MO, 64113",91453778,"L"
273027,"6909 PRINGLE RD","CASS CITY","MI",48726,43.5737748010001,-83.1072231649999,27,"6909 PRINGLE RD, CASS CITY, MI, 48726","Match","Exact","6909 PRINGLE RD, CASS CITY, MI, 48726",111063476,"R"
273028,"6909 ROCKWOOD ROAD","LITTLE ROCK","AR",72207,34.7819494180001,-92.350483644,28,"6909 ROCKWOOD ROAD, LITTLE ROCK, AR, 72207","Match","Exact","6909 ROCKWOOD RD, LITTLE ROCK, AR, 72207",83503642,"L"
273029,"6909 SCHUBERT CT","HUGHSON","CA",95326,37.604991297,-120.867049948,29,"6909 SCHUBERT CT, HUGHSON, CA, 95326","Match","Exact","6909 SCHUBERT CT, HUGHSON, CA, 95326",102635097,"L"
273030,"6909 SILVERLAKE DRIVE","ROWLETT","TX",75089,32.921746956,-96.513447163,30,"6909 SILVERLAKE DRIVE, ROWLETT, TX, 75089","Match","Non_Exact","6909 SILVER LAKE DR, ROWLETT, TX, 75089",123784464,"L"
273031,"6909 SOUTH 157TH STREET SUITE 6-H","OMAHA","NE",68136,41.1906796910001,-96.160428957,31,"6909 SOUTH 157TH STREET SUITE 6-H, OMAHA, NE, 68136","Match","Exact","6909 S 157TH ST, OMAHA, NE, 68136",28501635,"R"
273032,"6909 SOUTH WOODLAWN AVE","CHICAGO","IL",60637,41.7696485750001,-87.595239226,32,"6909 SOUTH WOODLAWN AVE, CHICAGO, IL, 60637","Match","Exact","6909 S WOODLAWN AVE, CHICAGO, IL, 60637",605502927,"L"
273033,"6909 SUMRALL DR","BATON ROUGE","LA",70812,30.513857156,-91.1218187709999,33,"6909 SUMRALL DR, BATON ROUGE, LA, 70812","Match","Exact","6909 SUMRALL DR, BATON ROUGE, LA, 70812",92188368,"L"
273034,"6909 VISTA RIDGE CT","FORT WORTH","TX",76132,32.650191125,-97.43137446,34,"6909 VISTA RIDGE CT, FORT WORTH, TX, 76132","Match","Exact","6909 VISTA RIDGE CT, FORT WORTH, TX, 76132",101950329,"R"
273035,"69090 HWY 190 E SERVICE RD","COVINGTON","LA",70433,NA,NA,35,"69090 HWY 190 E SERVICE RD, COVINGTON, LA, 70433","No_Match",NA,NA,NA,NA
273036,"691 CLIFFSIDE DR","AKRON","OH",44313,41.1267471780001,-81.565750861,36,"691 CLIFFSIDE DR, AKRON, OH, 44313","Match","Exact","691 CLIFFSIDE DR, AKRON, OH, 44313",61337622,"R"
273037,"691 COOPER STREET SW","ATLANTA","GA",30315,33.735996625,-84.397085864,37,"691 COOPER STREET SW, ATLANTA, GA, 30315","Match","Exact","691 COOPER ST SW, ATLANTA, GA, 30315",17345991,"R"
273038,"691 COOPER STREET","ATLANTA","GA",30315,33.735996625,-84.397085864,38,"691 COOPER STREET, ATLANTA, GA, 30315","Match","Non_Exact","691 COOPER ST SW, ATLANTA, GA, 30315",17345991,"R"
273039,"691 COUNTY ROAD 613","CAPE GIRARDEAU","MO",63701,37.4476018620001,-89.517464764,39,"691 COUNTY ROAD 613, CAPE GIRARDEAU, MO, 63701","Match","Exact","691 CO RD 613, CAPE GIRARDEAU, MO, 63701",35188399,"L"
273040,"691 CRAZY DOE ROAD","LEXINGTON","TN",38351,35.697537364,-88.3983602449999,40,"691 CRAZY DOE ROAD, LEXINGTON, TN, 38351","Match","Exact","691 CRAZY DOE RD, LEXINGTON, TN, 38351",639785370,"R"
273041,"691 DUNBAR ST","WINTER PARK","FL",32789,28.6026310890001,-81.3582102359999,41,"691 DUNBAR ST, WINTER PARK, FL, 32789","Match","Exact","691 DUNBAR ST, WINTER PARK, FL, 32789",94277016,"R"
273042,"691 E 35 ST","HIALEAH","FL",33013,25.854413283,-80.268833797,42,"691 E 35 ST, HIALEAH, FL, 33013","Match","Exact","691 E 35TH ST, HIALEAH, FL, 33013",115999063,"L"
273043,"691 E 35TH STREET","HIALEAH","FL",33013,25.854413283,-80.268833797,43,"691 E 35TH STREET, HIALEAH, FL, 33013","Match","Exact","691 E 35TH ST, HIALEAH, FL, 33013",115999063,"L"
273044,"691 EAST VILAS ROAD SUITE 103","CENTRAL POINT","OR",97504,42.389347452,-122.885120654,44,"691 EAST VILAS ROAD SUITE 103, CENTRAL POINT, OR, 97504","Match","Non_Exact","691 E VILAS RD, CENTRAL POINT, OR, 97502",155608156,"L"
273045,"691 ENGLISH DRIVE","CASPER","WY",82601,42.8568086340001,-106.335056715,45,"691 ENGLISH DRIVE, CASPER, WY, 82601","Match","Exact","691 ENGLISH DR, CASPER, WY, 82601",149035648,"L"
273046,"691 FRANKTON ROAD","HOOD RIVER","OR",97031,45.7003987310001,-121.554643712,46,"691 FRANKTON ROAD, HOOD RIVER, OR, 97031","Match","Exact","691 FRANKTON RD, HOOD RIVER, OR, 97031",649432645,"R"
273047,"691 JAMES WAY","MARION","OH",43302,40.5727245750001,-83.077815245,47,"691 JAMES WAY, MARION, OH, 43302","Match","Exact","691 JAMES WAY, MARION, OH, 43302",618916390,"R"
273048,"691 JOHN WESLEY DOBBS AVE SUITE A","ATLANTA","GA",30312,33.759443327,-84.36521147,48,"691 JOHN WESLEY DOBBS AVE SUITE A, ATLANTA, GA, 30312","Match","Non_Exact","691 JOHN WESLEY DOBBS AVE NE, ATLANTA, GA, 30312",17408256,"R"
273049,"691 JOHNSON DRIVE","CROWLEY","TX",76036,32.5862180730001,-97.3484455779999,49,"691 JOHNSON DRIVE, CROWLEY, TX, 76036","Match","Non_Exact","691 JOHNSON LN, CROWLEY, TX, 76036",635000908,"L"
273050,"691 LILLY AVENUE","COLUMBUS","OH",43205,39.952229763,-82.957908882,50,"691 LILLY AVENUE, COLUMBUS, OH, 43205","Match","Non_Exact","691 LILLEY AVE, COLUMBUS, OH, 43205",135581771,"R"
273051,"691 MAIL ROUTE ROAD","FLAXVILLE","MT",59222,48.696257863,-105.213272665,51,"691 MAIL ROUTE ROAD, FLAXVILLE, MT, 59222","Match","Exact","691 MAIL RTE RD, FLAXVILLE, MT, 59222",205461306,"R"
273052,"691 MARYLAND AVE W","ST PAUL","MN",55117,44.9773772830001,-93.129385514,52,"691 MARYLAND AVE W, ST PAUL, MN, 55117","Match","Exact","691 MARYLAND AVE W, SAINT PAUL, MN, 55117",97643722,"R"
273053,"691 MOON MULLEN LN","FAIRBANKS","AK",99712,64.8909169340001,-147.40585781,53,"691 MOON MULLEN LN, FAIRBANKS, AK, 99712","Match","Exact","691 MOON MULLEN LN, FAIRBANKS, AK, 99712",190914032,"R"
273054,"691 N BAYWOOD AVE","SAN JOSE","CA",95128,37.328518381,-121.945189297,54,"691 N BAYWOOD AVE, SAN JOSE, CA, 95128","Match","Exact","691 N BAYWOOD AVE, SAN JOSE, CA, 95128",122902870,"L"
273055,"691 QUINCY STREET    SUITE 1","BROOKLYN","NY",11221,40.6892217430001,-73.9310485249999,55,"691 QUINCY STREET    SUITE 1, BROOKLYN, NY, 11221","Match","Exact","691 QUINCY ST, BROOKLYN, NY, 11221",59082736,"L"
273056,"691 RIVERLAND DRIVE","CHARLESTON","SC",29412,32.7434403390001,-79.984731268,56,"691 RIVERLAND DRIVE, CHARLESTON, SC, 29412","Match","Exact","691 RIVERLAND DR, CHARLESTON, SC, 29412",108822029,"R"
273057,"691 ROSEMERE CIRCLE","ORLANDO","FL",32835,28.530572024,-81.507891179,57,"691 ROSEMERE CIRCLE, ORLANDO, FL, 32835","Match","Exact","691 ROSEMERE CIR, ORLANDO, FL, 32835",94271123,"L"
273058,"691 S BOW MAR DR","PUEBLO","CO",81007,38.309022956,-104.726121451,58,"691 S BOW MAR DR, PUEBLO, CO, 81007","Match","Exact","691 S BOW MAR DR, PUEBLO, CO, 81007",105021213,"L"
273059,"691 S IROLO ST UNIT 1305","LOS ANGELES","CA",90005,34.059829517,-118.300904737,59,"691 S IROLO ST UNIT 1305, LOS ANGELES, CA, 90005","Match","Exact","691 IROLO ST, LOS ANGELES, CA, 90005",141603910,"R"
273060,"691 SEALE AVE","PALO ALTO","CA",94301,37.4396204280001,-122.139542848,60,"691 SEALE AVE, PALO ALTO, CA, 94301","Match","Exact","691 SEALE AVE, PALO ALTO, CA, 94301",122950905,"L"
273061,"691 SOUTH 600 EAST","PAYSON","UT",84651,40.0333492290001,-111.723441196,61,"691 SOUTH 600 EAST, PAYSON, UT, 84651","Match","Exact","691 S 600 E, PAYSON, UT, 84651",134200127,"R"
273062,"691 SPRING LAKE DR","PEARL","MS",39208,32.2779571570001,-90.0818740619999,62,"691 SPRING LAKE DR, PEARL, MS, 39208","Match","Exact","691 SPRING LAKE DR, PEARL, MS, 39208",617153667,"L"
273063,"691 STATE STREET","LEMOYNE","PA",17043,40.243838849,-76.899028847,63,"691 STATE STREET, LEMOYNE, PA, 17043","Match","Exact","691 STATE ST, LEMOYNE, PA, 17043",60950704,"R"
273064,"691 SW SISTERS WELCOME RD","LAKE CITY","FL",32025,30.1584605950001,-82.667898779,64,"691 SW SISTERS WELCOME RD, LAKE CITY, FL, 32025","Match","Exact","691 SISTERS WELCOME RD, LAKE CITY, FL, 32025",5136723,"R"
273065,"691 W POWELL WAY","CHANDLER","AZ",85248,33.235395501,-111.85169644,65,"691 W POWELL WAY, CHANDLER, AZ, 85248","Match","Exact","691 W POWELL WAY, CHANDLER, AZ, 85248",630198118,"L"
273066,"691 WINNER LANE","TROUT RUN","PA",17771,41.402601041,-76.959646032,66,"691 WINNER LANE, TROUT RUN, PA, 17771","Match","Exact","691 WINNER LN, TROUT RUN, PA, 17771",635653424,"L"
273067,"6910 ALDERTON ST","REGO PARK","NY",11374,NA,NA,67,"6910 ALDERTON ST, REGO PARK, NY, 11374","No_Match",NA,NA,NA,NA
273068,"6910 BRITTANY OAK DR","LOUISVILLE","KY",40229,38.0852565480001,-85.6349111809999,68,"6910 BRITTANY OAK DR, LOUISVILLE, KY, 40229","Match","Exact","6910 BRITTANY OAK DR, LOUISVILLE, KY, 40229",650906119,"R"
273069,"6910 CARLTON DRIVE","USAFA","CO",80840,38.9673471150001,-104.848174457,69,"6910 CARLTON DRIVE, USAFA, CO, 80840","Match","Non_Exact","6910 CARLTON DR, USAF ACADEMY, CO, 80840",105544132,"L"
273070,"6910 DELMAR BLVD","SAINT LOUIS","MO",63130,38.6565672240001,-90.311267677,70,"6910 DELMAR BLVD, SAINT LOUIS, MO, 63130","Match","Exact","6910 DELMAR BLVD, SAINT LOUIS, MO, 63130",100152093,"L"
273071,"6910 DILLON","HOUSTON","TX",77061,29.651862115,-95.307362449,71,"6910 DILLON, HOUSTON, TX, 77061","Match","Non_Exact","6910 DILLON ST, HOUSTON, TX, 77061",96092243,"R"
273072,"6910 GOLDEN RAINTREE CT","CLINTON","MD",20735,38.7417438410001,-76.888095694,72,"6910 GOLDEN RAINTREE CT, CLINTON, MD, 20735","Match","Exact","6910 GOLDEN RAINTREE CT, CLINTON, MD, 20735",639598117,"L"
273073,"6910 HAAS","LOS ANGELES","CA",90047,33.9769857860001,-118.316809793,73,"6910 HAAS, LOS ANGELES, CA, 90047","Match","Non_Exact","6910 HAAS AVE, LOS ANGELES, CA, 90047",141658095,"L"
273074,"6910 HOCKLEY GARDEN LN","HOUSTON","TX",77049,29.823467485,-95.180201132,74,"6910 HOCKLEY GARDEN LN, HOUSTON, TX, 77049","Match","Exact","6910 HOCKLEY GARDEN LN, HOUSTON, TX, 77049",645138862,"R"
273075,"6910 HOLMAN MILL RD","SNOW CAMP","NC",27349,35.8936452250001,-79.403211105,75,"6910 HOLMAN MILL RD, SNOW CAMP, NC, 27349","Match","Exact","6910 HOLMAN MILL RD, SNOW CAMP, NC, 27349",71658833,"R"
273076,"6910 LAKEWOOD DRIVE","MASON","OH",45040,39.338611359,-84.305698471,76,"6910 LAKEWOOD DRIVE, MASON, OH, 45040","Match","Exact","6910 LAKEWOOD DR, MASON, OH, 45040",159030971,"L"
273077,"6910 LEONARDO ST","CORAL GABLES","FL",33146,25.705770608,-80.2722225219999,77,"6910 LEONARDO ST, CORAL GABLES, FL, 33146","Match","Exact","6910 LEONARDO ST, CORAL GABLES, FL, 33146",116013734,"R"
273078,"6910 MCGINNIS FERRY RD","ALPHARETTA","GA",30005,NA,NA,78,"6910 MCGINNIS FERRY RD, ALPHARETTA, GA, 30005","No_Match",NA,NA,NA,NA
273079,"6910 NE 185TH PL 105","KENMORE","WA",98028,47.7628089790001,-122.246253731,79,"6910 NE 185TH PL 105, KENMORE, WA, 98028","Match","Non_Exact","6910 NE 185TH PL, KENMORE, WA, 98028",624506498,"L"
273080,"6910 PACIFIC STREET STE 315","OMAHA","NE",68106,41.24877739,-96.020507181,80,"6910 PACIFIC STREET STE 315, OMAHA, NE, 68106","Match","Exact","6910 PACIFIC ST, OMAHA, NE, 68106",117023521,"R"
273081,"6910 RIVER BIRCH CT","BRADENTON","FL",34202,27.4173555130001,-82.442266274,81,"6910 RIVER BIRCH CT, BRADENTON, FL, 34202","Match","Exact","6910 RIVER BIRCH CT, BRADENTON, FL, 34202",16265223,"L"
273082,"6910 SAN MARCOS HWY","PRAIRIE LEA","TX",78661,29.7310703260001,-97.752731963,82,"6910 SAN MARCOS HWY, PRAIRIE LEA, TX, 78661","Match","Exact","6910 SAN MARCOS HWY, PRAIRIE LEA, TX, 78661",45536828,"R"
273083,"6910 SUNNYSIDE STREET","HORACE","ND",58047,46.7832134130001,-96.9057672979999,83,"6910 SUNNYSIDE STREET, HORACE, ND, 58047","Match","Exact","6910 SUNNYSIDE ST, HORACE, ND, 58047",151442888,"R"
273084,"6910 SUZETTE LANE","FLAGSTAFF","AZ",86001,35.255802397,-111.724560692,84,"6910 SUZETTE LANE, FLAGSTAFF, AZ, 86001","Match","Non_Exact","6910 W SUZETTE LN, FLAGSTAFF, AZ, 86001",636562329,"R"
273085,"6910 VINE ST","CINCINNATI","OH",45216,NA,NA,85,"6910 VINE ST, CINCINNATI, OH, 45216","No_Match",NA,NA,NA,NA
273086,"6910 WADE AVENUE STE B","CLINTON","MD",20735,38.7603648850001,-76.885576027,86,"6910 WADE AVENUE STE B, CLINTON, MD, 20735","Match","Exact","6910 WADE AVE, CLINTON, MD, 20735",638302198,"R"
273087,"6910 WOODCREST PARKWAY","ROCKFORD","IL",61109,NA,NA,87,"6910 WOODCREST PARKWAY, ROCKFORD, IL, 61109","No_Match",NA,NA,NA,NA
273088,"6911 APT B BALTIMORE AVE","COLLEGE PARK","MD",20740,NA,NA,88,"6911 APT B BALTIMORE AVE, COLLEGE PARK, MD, 20740","No_Match",NA,NA,NA,NA
273089,"6911 BROOKSIDE ROAD","INDEPENDENCE","OH",44131,41.358271831,-81.6382373289999,89,"6911 BROOKSIDE ROAD, INDEPENDENCE, OH, 44131","Match","Exact","6911 BROOKSIDE RD, INDEPENDENCE, OH, 44131",61169348,"L"
273090,"6911 COLUMBIA PIKE","ANNANDALE","VA",22003,38.835157549,-77.18412942,90,"6911 COLUMBIA PIKE, ANNANDALE, VA, 22003","Match","Exact","6911 COLUMBIA PIKE, ANNANDALE, VA, 22003",638227157,"L"
273091,"6911 COUNTY ROAD 73","NEWVILLE","AL",36353,31.406716368,-85.407177453,91,"6911 COUNTY ROAD 73, NEWVILLE, AL, 36353","Match","Exact","6911 CO RD 73, NEWVILLE, AL, 36353",101182511,"R"
273092,"6911 EXPLORER TRL","AMARILLO","TX",79118,35.138721188,-101.860468648,92,"6911 EXPLORER TRL, AMARILLO, TX, 79118","Match","Exact","6911 EXPLORER TRL, AMARILLO, TX, 79118",641838332,"R"
273093,"6911 GEYER SPRINGS RD","LITTLE ROCK","AR",72058,34.6874649860001,-92.343397954,93,"6911 GEYER SPRINGS RD, LITTLE ROCK, AR, 72058","Match","Non_Exact","6911 GEYER SPRINGS RD, LITTLE ROCK, AR, 72209",83540127,"L"
273094,"6911 KISSENA BLVD APT 3B","FLUSHING","NY",11367,NA,NA,94,"6911 KISSENA BLVD APT 3B, FLUSHING, NY, 11367","No_Match",NA,NA,NA,NA
273095,"6911 LAKE COVE POINT LN","SPRING","TX",77379,NA,NA,95,"6911 LAKE COVE POINT LN, SPRING, TX, 77379","No_Match",NA,NA,NA,NA
273096,"6911 LAUREL BOWIE ROAD SUITE 206","BOWIE","MD",20715,38.9851546370001,-76.7572909849999,96,"6911 LAUREL BOWIE ROAD SUITE 206, BOWIE, MD, 20715","Match","Exact","6911 LAUREL BOWIE RD, BOWIE, MD, 20715",76363175,"L"
273097,"6911 MASTERS ROAD","MANVEL","TX",77578,29.4758784960001,-95.353754227,97,"6911 MASTERS ROAD, MANVEL, TX, 77578","Match","Exact","6911 MASTERS RD, MANVEL, TX, 77578",116602636,"R"
273098,"6911 MCCULLUM RD","MISSOURI CITY","TX",77489,29.5954321310001,-95.48823373,98,"6911 MCCULLUM RD, MISSOURI CITY, TX, 77489","Match","Non_Exact","6911 MCCULLUM ST, MISSOURI CITY, TX, 77489",78270663,"R"
273099,"6911 RICHMOND HIGHWAY SUITE 210","ALEXANDRIA","VA",22306,38.7674639790001,-77.082999806,99,"6911 RICHMOND HIGHWAY SUITE 210, ALEXANDRIA, VA, 22306","Match","Exact","6911 RICHMOND HWY, ALEXANDRIA, VA, 22306",75989169,"L"
273100,"6911 RICHMOND HIGHWAY SUITE 299B","ALEXANDRIA","VA",22306,38.7674639790001,-77.082999806,100,"6911 RICHMOND HIGHWAY SUITE 299B, ALEXANDRIA, VA, 22306","Match","Exact","6911 RICHMOND HWY, ALEXANDRIA, VA, 22306",75989169,"L"
273101,"6911 SAN FERNANDO MISSION BLVD  147","GRANDA HILLS","CA",91344,NA,NA,101,"6911 SAN FERNANDO MISSION BLVD  147, GRANDA HILLS, CA, 91344","No_Match",NA,NA,NA,NA
273102,"6911 SEVIERVILLE PIKE","KNOXVILLE","TN",37920,35.9212733690001,-83.845158355,102,"6911 SEVIERVILLE PIKE, KNOXVILLE, TN, 37920","Match","Exact","6911 SEVIERVILLE PIKE, KNOXVILLE, TN, 37920",42627137,"R"
273103,"6911 SOUTH EAST END AVENUE","CHICAGO","IL",60649,41.7694348960001,-87.582858127,103,"6911 SOUTH EAST END AVENUE, CHICAGO, IL, 60649","Match","Exact","6911 S EAST END AVE, CHICAGO, IL, 60649",111774614,"L"
273104,"6911 VIVIAN","DALLAS","TX",75223,32.803686686,-96.73816282,104,"6911 VIVIAN, DALLAS, TX, 75223","Match","Non_Exact","6911 VIVIAN AVE, DALLAS, TX, 75223",102921393,"L"
273105,"6912 189TH STEET","CHIPPEWA FALLS","WI",54729,44.943300956,-91.294097473,105,"6912 189TH STEET, CHIPPEWA FALLS, WI, 54729","Match","Exact","6912 189TH ST, CHIPPEWA FALLS, WI, 54729",78932822,"R"
273106,"6912 189TH STREET","CHIPPEWA FALLS","WI",54729,44.943300956,-91.294097473,106,"6912 189TH STREET, CHIPPEWA FALLS, WI, 54729","Match","Exact","6912 189TH ST, CHIPPEWA FALLS, WI, 54729",78932822,"R"
273107,"6912 ALDER GROVE DRIVE","HENRICO","VA",23228,37.6163992850001,-77.5015883189999,107,"6912 ALDER GROVE DRIVE, HENRICO, VA, 23228","Match","Non_Exact","6912 ALDER GROVE LN, HENRICO, VA, 23228",624359638,"R"
273108,"6912 BISCAYNE BLVD","REX","GA",30273,NA,NA,108,"6912 BISCAYNE BLVD, REX, GA, 30273","No_Match",NA,NA,NA,NA
273109,"6912 CANDLEWICK WAY","FLORISSANT","MO",63033,38.808241729,-90.230504545,109,"6912 CANDLEWICK WAY, FLORISSANT, MO, 63033","Match","Exact","6912 CANDLEWICK WAY, FLORISSANT, MO, 63033",618223651,"R"
273110,"6912 CRICKET CANYON","OKLAHOMA CITY","OK",73162,NA,NA,110,"6912 CRICKET CANYON, OKLAHOMA CITY, OK, 73162","No_Match",NA,NA,NA,NA
273111,"6912 FLORENCE BLVD","OMAHA","NE",68112,41.321532324,-95.945565121,111,"6912 FLORENCE BLVD, OMAHA, NE, 68112","Match","Exact","6912 FLORENCE BLVD, OMAHA, NE, 68112",116986767,"L"
273112,"6912 FLORIAN AVENUE","ST LOUIS","MO",63121,38.706091008,-90.282866685,112,"6912 FLORIAN AVENUE, ST LOUIS, MO, 63121","Match","Exact","6912 FLORIAN AVE, SAINT LOUIS, MO, 63121",100152558,"L"
273113,"6912 GALEMEADOW CIRCLE","DALLAS","TX",75214,32.8496736220001,-96.735316701,113,"6912 GALEMEADOW CIRCLE, DALLAS, TX, 75214","Match","Exact","6912 GALEMEADOW CIR, DALLAS, TX, 75214",102919097,"L"
273114,"6912 LITTLE BROOKE CT","ELKRIDGE","MD",21075,39.1820701350001,-76.7567839819999,114,"6912 LITTLE BROOKE CT, ELKRIDGE, MD, 21075","Match","Non_Exact","6912 LITTLE BROOK CT, ELKRIDGE, MD, 21075",618948830,"R"
273115,"6912 LONE STAR CT","MONTGOMERY","TX",77316,30.279616032,-95.729324902,115,"6912 LONE STAR CT, MONTGOMERY, TX, 77316","Match","Exact","6912 LONE STAR CT, MONTGOMERY, TX, 77316",650782293,"L"
273116,"6912 N 65TH STREET","OMAHA","NE",68152,41.3212024050001,-96.012319163,116,"6912 N 65TH STREET, OMAHA, NE, 68152","Match","Exact","6912 N 65TH ST, OMAHA, NE, 68152",116974752,"L"
273117,"6912 PEPPERWOOD ROAD","SHREVEPORT","LA",71129,32.41151798,-93.897840252,117,"6912 PEPPERWOOD ROAD, SHREVEPORT, LA, 71129","Match","Non_Exact","6912 PEPPERWOOD, SHREVEPORT, LA, 71129",623846065,"L"
273118,"6912 S HOOVER ST","LOS ANGELES","CA",90044,33.9769151020001,-118.287062563,118,"6912 S HOOVER ST, LOS ANGELES, CA, 90044","Match","Exact","6912 S HOOVER ST, LOS ANGELES, CA, 90044",141659476,"L"
273119,"6913 ALDEA AVE","LAKE BALBOA","CA",91406,34.19589684,-118.508376852,119,"6913 ALDEA AVE, LAKE BALBOA, CA, 91406","Match","Exact","6913 ALDEA AVE, LAKE BALBOA, CA, 91406",141555701,"L"
273120,"6913 BETSY ROSS COURT","WATAUGA","TX",76148,32.870582358,-97.2583284729999,120,"6913 BETSY ROSS COURT, WATAUGA, TX, 76148","Match","Exact","6913 BETSY ROSS CT, WATAUGA, TX, 76148",101860204,"L"
273121,"6913 BISHOP STREET","PITTSBURGH","PA",15206,40.485632433,-79.924733262,121,"6913 BISHOP STREET, PITTSBURGH, PA, 15206","Match","Exact","6913 BISHOP ST, PITTSBURGH, PA, 15206",51683567,"L"
273122,"6913 CAMP BOWIE BLVD SUITE 107","FORT WORTH","TX",76116,32.7192349150001,-97.437965782,122,"6913 CAMP BOWIE BLVD SUITE 107, FORT WORTH, TX, 76116","Match","Exact","6913 CAMP BOWIE BLVD, FORT WORTH, TX, 76116",102135044,"L"
273123,"6913 CLOUDCROFT LN","FORT WORTH","TX",76131,32.8669809950001,-97.339555277,123,"6913 CLOUDCROFT LN, FORT WORTH, TX, 76131","Match","Exact","6913 CLOUDCROFT LN, FORT WORTH, TX, 76131",643342657,"L"
273124,"6913 DA VINCI","COLLEYVILLE","TX",76034,32.9087016660001,-97.1801979049999,124,"6913 DA VINCI, COLLEYVILLE, TX, 76034","Match","Exact","6913 DA VINCI, COLLEYVILLE, TX, 76034",627662791,"R"
273125,"6913 DAY BREAK COURT","LOUISVILLE","KY",40272,38.111885498,-85.8845282839999,125,"6913 DAY BREAK COURT, LOUISVILLE, KY, 40272","Match","Exact","6913 DAY BREAK CT, LOUISVILLE, KY, 40272",96887264,"L"
273126,"6913 GLENN DALE RD","GLENN DALE","MD",20769,38.9846768130001,-76.818496166,126,"6913 GLENN DALE RD, GLENN DALE, MD, 20769","Match","Exact","6913 GLENN DALE RD, GLENN DALE, MD, 20769",76310577,"R"
273127,"6913 LARIAT LN","CASTRO VALLEY","CA",94552,37.7157769240001,-122.027419147,127,"6913 LARIAT LN, CASTRO VALLEY, CA, 94552","Match","Exact","6913 LARIAT LN, CASTRO VALLEY, CA, 94552",125016290,"L"
273128,"6913 NW 43RD STREET","MIAMI","FL",33166,25.8134658230001,-80.3116159739999,128,"6913 NW 43RD STREET, MIAMI, FL, 33166","Match","Exact","6913 NW 43RD ST, MIAMI, FL, 33166",115957818,"R"
273129,"6913 SENTINEL LANE","HARRISON","TN",37341,35.1123877430001,-85.1281668189999,129,"6913 SENTINEL LANE, HARRISON, TN, 37341","Match","Exact","6913 SENTINEL LN, HARRISON, TN, 37341",59317597,"L"
273130,"6913 STARFIRE DR","REYNOLDSBURG","OH",43068,39.960587156,-82.813705359,130,"6913 STARFIRE DR, REYNOLDSBURG, OH, 43068","Match","Exact","6913 STARFIRE DR, REYNOLDSBURG, OH, 43068",218650035,"R"
273131,"6913 SVL BOX","VICTORVILLE","CA",92395,NA,NA,131,"6913 SVL BOX, VICTORVILLE, CA, 92395","No_Match",NA,NA,NA,NA
273132,"6913 THURSBY AVE 2","ARVERNE","NY",11692,NA,NA,132,"6913 THURSBY AVE 2, ARVERNE, NY, 11692","No_Match",NA,NA,NA,NA
273133,"6913 TOMMYE ST","HOUSTON","TX",77028,29.825968361,-95.278502547,133,"6913 TOMMYE ST, HOUSTON, TX, 77028","Match","Exact","6913 TOMMYE ST, HOUSTON, TX, 77028",96427570,"L"
273134,"6913 WINTERBERRY WAY","CORONA","CA",92880,33.962704887,-117.576350878,134,"6913 WINTERBERRY WAY, CORONA, CA, 92880","Match","Exact","6913 WINTERBERRY WAY, CORONA, CA, 92880",636751303,"L"
273135,"6914 BARTON ROAD","HYATTSVILLE","MD",20784,38.938380975,-76.8907560069999,135,"6914 BARTON ROAD, HYATTSVILLE, MD, 20784","Match","Exact","6914 BARTON RD, HYATTSVILLE, MD, 20784",76308873,"L"
273136,"6914 DONNA DRIVE","MIDDLETON","WI",53562,43.1057627390001,-89.5006483499999,136,"6914 DONNA DRIVE, MIDDLETON, WI, 53562","Match","Exact","6914 DONNA DR, MIDDLETON, WI, 53562",49493552,"R"
273137,"6914 EAST FOWLER AVENUE SUITE G","TAMPA","FL",33617,28.0543815390001,-82.374764921,137,"6914 EAST FOWLER AVENUE SUITE G, TAMPA, FL, 33617","Match","Exact","6914 E FOWLER AVE, TAMPA, FL, 33617",647013243,"L"
273138,"6914 EVERVIEW RD","RICHMOND","VA",23226,37.588798594,-77.532057933,138,"6914 EVERVIEW RD, RICHMOND, VA, 23226","Match","Exact","6914 EVERVIEW RD, RICHMOND, VA, 23226",201530311,"R"
273139,"6914 GREENLAWN RD","SEVILLE","OH",44273,NA,NA,139,"6914 GREENLAWN RD, SEVILLE, OH, 44273","No_Match",NA,NA,NA,NA
273140,"6914 HARLAN SQ","NEW ALBANY","OH",43054,40.098950352,-82.801342022,140,"6914 HARLAN SQ, NEW ALBANY, OH, 43054","Match","Exact","6914 HARLAN SQ, NEW ALBANY, OH, 43054",218687235,"L"
273141,"6914 N WAYNE AVE SUITE 2F","CHICAGO","IL",60626,42.0069593280001,-87.665009971,141,"6914 N WAYNE AVE SUITE 2F, CHICAGO, IL, 60626","Match","Non_Exact","6914 N WAYNE AVE, CHICAGO, IL, 60626",111745657,"L"
273142,"6914 NW 53RD STREET","BETHANY","OK",73008,35.5256110230001,-97.6340532419999,142,"6914 NW 53RD STREET, BETHANY, OK, 73008","Match","Exact","6914 NW 53RD ST, BETHANY, OK, 73008",100389897,"L"
273143,"6914 ORCHARD AVE","BELL","CA",90201,33.9742957460001,-118.200123149,143,"6914 ORCHARD AVE, BELL, CA, 90201","Match","Exact","6914 ORCHARD AVE, BELL, CA, 90201",640422388,"L"
273144,"6914 PHEASANT OAK DR","HOUSTON","TX",77083,29.7036663110001,-95.680324715,144,"6914 PHEASANT OAK DR, HOUSTON, TX, 77083","Match","Exact","6914 PHEASANT OAK DR, HOUSTON, TX, 77083",633670145,"L"
273145,"6914 PHEASANT OAK DRIVE","HOUSTON","TX",77083,29.7036663110001,-95.680324715,145,"6914 PHEASANT OAK DRIVE, HOUSTON, TX, 77083","Match","Exact","6914 PHEASANT OAK DR, HOUSTON, TX, 77083",633670145,"L"
273146,"6914 PUGET BEACH ROAD NE","OLYMPIA","WA",98516,47.1306288430001,-122.791208826,146,"6914 PUGET BEACH ROAD NE, OLYMPIA, WA, 98516","Match","Exact","6914 PUGET BEACH RD NE, OLYMPIA, WA, 98516",624921140,"R"
273147,"6914 SOUTH CREEK ROAD","CHARLOTTE","NC",28277,35.0477645220001,-80.787921754,147,"6914 SOUTH CREEK ROAD, CHARLOTTE, NC, 28277","Match","Exact","6914 S CREEK RD, CHARLOTTE, NC, 28277",635657356,"L"
273148,"6914 SPRING ST 301","OMAHA","NE",68106,41.230656809,-96.020170878,148,"6914 SPRING ST 301, OMAHA, NE, 68106","Match","Exact","6914 SPRING ST, OMAHA, NE, 68106",117008786,"R"
273149,"6914 TRIMSTONE DR","PASADENA","TX",77505,29.6486444760001,-95.134298561,149,"6914 TRIMSTONE DR, PASADENA, TX, 77505","Match","Exact","6914 TRIMSTONE DR, PASADENA, TX, 77505",96543649,"R"
273150,"6914 VANTAGE DRIVE","ALEXANDRIA","VA",22306,38.7663196720001,-77.109469743,150,"6914 VANTAGE DRIVE, ALEXANDRIA, VA, 22306","Match","Exact","6914 VANTAGE DR, ALEXANDRIA, VA, 22306",75985882,"R"
273151,"6915 ARBOR OAKS CIR","BRADENTON","FL",34209,27.4775822280001,-82.6321500189999,151,"6915 ARBOR OAKS CIR, BRADENTON, FL, 34209","Match","Exact","6915 ARBOR OAKS CIR, BRADENTON, FL, 34209",16278464,"L"
273152,"6915 AUTUMN RIDGE DR UNIT 103","FORT COLLINS","CO",80525,40.4899889020001,-105.066211691,152,"6915 AUTUMN RIDGE DR UNIT 103, FORT COLLINS, CO, 80525","Match","Exact","6915 AUTUMN RIDGE DR, FORT COLLINS, CO, 80525",617917046,"R"
273153,"6915 CLAIRE AVE","RESEDA","CA",91335,34.1962908100001,-118.55006139,153,"6915 CLAIRE AVE, RESEDA, CA, 91335","Match","Exact","6915 CLAIRE AVE, RESEDA, CA, 91335",141554211,"L"
273154,"6915 CLINTON RD","UPPER DARBY","PA",19082,39.9491235730001,-75.255208663,154,"6915 CLINTON RD, UPPER DARBY, PA, 19082","Match","Exact","6915 CLINTON RD, UPPER DARBY, PA, 19082",134904725,"R"
273155,"6915 COBIA CIR","BOYNTON BEACH","FL",33437,26.536723652,-80.150433715,155,"6915 COBIA CIR, BOYNTON BEACH, FL, 33437","Match","Exact","6915 COBIA CIR, BOYNTON BEACH, FL, 33437",115512138,"R"
273156,"6915 E GUADALUPE RD","MESA","AZ",85212,33.3650011120001,-111.685729475,156,"6915 E GUADALUPE RD, MESA, AZ, 85212","Match","Exact","6915 E GUADALUPE RD, MESA, AZ, 85212",243920309,"R"
273157,"6915 GRAND AVE","HAMMOND","IN",46323,41.58782532,-87.442182244,157,"6915 GRAND AVE, HAMMOND, IN, 46323","Match","Exact","6915 GRAND AVE, HAMMOND, IN, 46323",606308622,"L"
273158,"6915 GREENGAGE CT","INDIANAPOLIS","IN",46237,39.6988402170001,-86.046073115,158,"6915 GREENGAGE CT, INDIANAPOLIS, IN, 46237","Match","Exact","6915 GREENGAGE CT, INDIANAPOLIS, IN, 46237",108046386,"R"
273159,"6915 KIOWA PARKWAY","EAGLE MOUNTAIN","UT",84005,40.3463152620001,-111.966500027,159,"6915 KIOWA PARKWAY, EAGLE MOUNTAIN, UT, 84005","Match","Exact","6915 KIOWA PKWY, EAGLE MOUNTAIN, UT, 84005",639878096,"L"
273160,"6915 LIMERICK DRIVE","BEAUMONT","TX",77706,30.0902161220001,-94.182805489,160,"6915 LIMERICK DRIVE, BEAUMONT, TX, 77706","Match","Exact","6915 LIMERICK DR, BEAUMONT, TX, 77706",73875459,"R"
273161,"6915 MAKERS WAY","APOLLO BEACH","FL",33572,27.7742186780001,-82.381781097,161,"6915 MAKERS WAY, APOLLO BEACH, FL, 33572","Match","Exact","6915 MAKERS WAY, APOLLO BEACH, FL, 33572",646591004,"R"
273162,"6915 MUNN LAKE DR SE","TUMWATER","WA",98501,46.986016546,-122.87586589,162,"6915 MUNN LAKE DR SE, TUMWATER, WA, 98501","Match","Exact","6915 MUNN LAKE DR SE, TUMWATER, WA, 98501",624796967,"R"
273163,"6915 OAK VALLEY LANE","COLORADO SPRINGS","CO",80919,38.9310322740001,-104.850514489,163,"6915 OAK VALLEY LANE, COLORADO SPRINGS, CO, 80919","Match","Exact","6915 OAK VALLEY LN, COLORADO SPRINGS, CO, 80919",635771618,"R"
273164,"6915 PAUL MAR DR","LANTANA","FL",33462,26.574156309,-80.079264957,164,"6915 PAUL MAR DR, LANTANA, FL, 33462","Match","Exact","6915 PAUL MAR DR, LANTANA, FL, 33462",642538625,"R"
273165,"6915 RUNIK PLACE APT C","REYNOLDSBURG","OH",43068,39.947278108,-82.811164718,165,"6915 RUNIK PLACE APT C, REYNOLDSBURG, OH, 43068","Match","Non_Exact","6915 RUNIK PL N, REYNOLDSBURG, OH, 43068",135595216,"R"
273166,"6915 S CALIFORNIA AVE","CHICAGO","IL",60629,41.767447417,-87.693091475,166,"6915 S CALIFORNIA AVE, CHICAGO, IL, 60629","Match","Exact","6915 S CALIFORNIA AVE, CHICAGO, IL, 60629",605310427,"L"
273167,"6915 STATE HWY 95","PRINCETON","MN",55371,45.577138861,-93.55110594,167,"6915 STATE HWY 95, PRINCETON, MN, 55371","Match","Exact","6915 STATE HWY 95, PRINCETON, MN, 55371",163076655,"R"
273168,"6915 STORCH CIRCLE","LANHAM","MD",20706,38.985438634,-76.827524012,168,"6915 STORCH CIRCLE, LANHAM, MD, 20706","Match","Exact","6915 STORCH CIR, LANHAM, MD, 20706",76384514,"R"
273169,"6915 SW MACADAM AVE - SUITE 300","PORTLAND","OR",97219,45.474249641,-122.67162841,169,"6915 SW MACADAM AVE - SUITE 300, PORTLAND, OR, 97219","Match","Non_Exact","6915 SW MACADAM AVE, PORTLAND, OR, 97219",157508863,"R"
273170,"6915 SW MACADAM AVE SUITE 300","PORTLAND","OR",97219,45.474249641,-122.67162841,170,"6915 SW MACADAM AVE SUITE 300, PORTLAND, OR, 97219","Match","Non_Exact","6915 SW MACADAM AVE, PORTLAND, OR, 97219",157508863,"R"
273171,"6915 THRASHER DRIVE","TAMPA","FL",33610,27.9941387550001,-82.375678394,171,"6915 THRASHER DRIVE, TAMPA, FL, 33610","Match","Exact","6915 THRASHER DR, TAMPA, FL, 33610",104536646,"R"
273172,"6915 WOODVALE LANE","TRUSSVILLE","AL",35173,33.709432103,-86.588679054,172,"6915 WOODVALE LANE, TRUSSVILLE, AL, 35173","Match","Exact","6915 WOODVALE LN, TRUSSVILLE, AL, 35173",81665199,"R"
273173,"6916 5TH ST E  UNIT 302","FIFE","WA",98424,47.252630724,-122.33740557,173,"6916 5TH ST E  UNIT 302, FIFE, WA, 98424","Match","Exact","6916 5TH ST E, FIFE, WA, 98424",184699214,"R"
273174,"6916 AQUEDUCT TERRACE","ODESSA","FL",33556,28.1199576330001,-82.557539863,174,"6916 AQUEDUCT TERRACE, ODESSA, FL, 33556","Match","Exact","6916 AQUEDUCT TER, ODESSA, FL, 33556",104572716,"R"
273175,"6916 BONNOT DR","NORFOLK","VA",23513,36.905711411,-76.2331226969999,175,"6916 BONNOT DR, NORFOLK, VA, 23513","Match","Exact","6916 BONNOT DR, NORFOLK, VA, 23513",122141678,"R"
273176,"6916 CORBITT AVENUE","UNIVERSITY CITY","MO",63130,38.668631357,-90.313573307,176,"6916 CORBITT AVENUE, UNIVERSITY CITY, MO, 63130","Match","Exact","6916 CORBITT AVE, UNIVERSITY CITY, MO, 63130",100152038,"L"
273177,"6916 KING RANCH ROAD","ODESSA","TX",79765,31.931803169,-102.305192005,177,"6916 KING RANCH ROAD, ODESSA, TX, 79765","Match","Exact","6916 KING RANCH RD, ODESSA, TX, 79765",651911853,"L"
273178,"6916 LEXINGTON AVE","SAINT LOUIS","MO",63121,38.693354706,-90.291315616,178,"6916 LEXINGTON AVE, SAINT LOUIS, MO, 63121","Match","Exact","6916 LEXINGTON AVE, SAINT LOUIS, MO, 63121",100169478,"L"
273179,"6916 MINNOW DRIVE","INDIANAPOLIS","IN",46237,39.691605687,-86.046153964,179,"6916 MINNOW DRIVE, INDIANAPOLIS, IN, 46237","Match","Exact","6916 MINNOW DR, INDIANAPOLIS, IN, 46237",627520823,"L"
273180,"6916 NW 20TH PLACE","GAINESVILLE","FL",32605,29.671594763,-82.416062529,180,"6916 NW 20TH PLACE, GAINESVILLE, FL, 32605","Match","Exact","6916 NW 20TH PL, GAINESVILLE, FL, 32605",6803361,"R"
273181,"6916 PIEDMONT CENTER PLAZA","GAINESVILLE","VA",20155,38.8083450300001,-77.62557875,181,"6916 PIEDMONT CENTER PLAZA, GAINESVILLE, VA, 20155","Match","Exact","6916 PIEDMONT CENTER PLZ, GAINESVILLE, VA, 20155",634522948,"R"
273182,"6916 SETON LANE","TAMPA","FL",33634,28.015716162,-82.550589136,182,"6916 SETON LANE, TAMPA, FL, 33634","Match","Exact","6916 SETON LN, TAMPA, FL, 33634",104569666,"L"
273183,"6916 SEWELL AVENUE","MIZPAH","NJ",8342,NA,NA,183,"6916 SEWELL AVENUE, MIZPAH, NJ, 8342","No_Match",NA,NA,NA,NA
273184,"6916 SOUTH OGDEN COURT","CENTENNIAL","CO",80122,39.5906935580001,-104.974048772,184,"6916 SOUTH OGDEN COURT, CENTENNIAL, CO, 80122","Match","Exact","6916 S OGDEN CT, CENTENNIAL, CO, 80122",177337553,"L"
273185,"6916 WAUNAKEE CIRCLE","MEQUON","WI",53092,43.2168502150001,-87.995634192,185,"6916 WAUNAKEE CIRCLE, MEQUON, WI, 53092","Match","Exact","6916 WAUNAKEE CIR, MEQUON, WI, 53092",95907715,"L"
273186,"6916 WHEATLAND LANE N","KEIZER","OR",97303,NA,NA,186,"6916 WHEATLAND LANE N, KEIZER, OR, 97303","Tie",NA,NA,NA,NA
273187,"6916 WINDING RIDGE ROAD","ZEBULON","NC",27597,35.912029069,-78.399709582,187,"6916 WINDING RIDGE ROAD, ZEBULON, NC, 27597","Match","Exact","6916 WINDING RIDGE RD, ZEBULON, NC, 27597",208359604,"L"
273188,"6916 WINSDALE ST N","GOLDEN VALLEY","MN",55427,44.9949293220001,-93.368126903,188,"6916 WINSDALE ST N, GOLDEN VALLEY, MN, 55427","Match","Exact","6916 WINSDALE ST N, GOLDEN VALLEY, MN, 55427",43619127,"R"
273189,"6917 15TH ST N","OAKDALE","MN",55128,44.9704467280001,-92.9662733439999,189,"6917 15TH ST N, OAKDALE, MN, 55128","Match","Exact","6917 15TH ST N, OAKDALE, MN, 55128",97792328,"R"
273190,"6917 E VALWOOD CIR","MESA","AZ",85212,33.2999589880001,-111.683767883,190,"6917 E VALWOOD CIR, MESA, AZ, 85212","Match","Exact","6917 E VALWOOD CIR, MESA, AZ, 85212",128256494,"L"
273191,"6917 MEADOW ROAD","DALLAS","TX",75230,32.886248046,-96.786146668,191,"6917 MEADOW ROAD, DALLAS, TX, 75230","Match","Exact","6917 MEADOW RD, DALLAS, TX, 75230",102902223,"L"
273192,"6917 N 71ST AVE APT 1028","GLENDALE","AZ",85303,33.536477414,-112.211686248,192,"6917 N 71ST AVE APT 1028, GLENDALE, AZ, 85303","Match","Non_Exact","6917 N 71ST AVE, GLENDALE, AZ, 85303",613181358,"L"
273193,"6917 ODANA ROAD UNIT 10","MADISON","WI",53719,43.056575298,-89.5017371069999,193,"6917 ODANA ROAD UNIT 10, MADISON, WI, 53719","Match","Exact","6917 ODANA RD, MADISON, WI, 53719",49464993,"L"
273194,"6917 PIN OAKS DR","DENVER","NC",28037,35.5286082710001,-81.016566709,194,"6917 PIN OAKS DR, DENVER, NC, 28037","Match","Non_Exact","6917 PIN OAKS, DENVER, NC, 28037",649730771,"L"
273195,"6917 POLVADERA DR","EL PASO","TX",79912,31.8458529210001,-106.546952089,195,"6917 POLVADERA DR, EL PASO, TX, 79912","Match","Exact","6917 POLVADERA DR, EL PASO, TX, 79912",189412398,"R"
273196,"6917 QUAILWOOD DR","BAKERSFIELD","CA",93309,35.357045504,-119.080692075,196,"6917 QUAILWOOD DR, BAKERSFIELD, CA, 93309","Match","Exact","6917 QUAILWOOD DR, BAKERSFIELD, CA, 93309",640634331,"L"
273197,"6917 SAN BRUNO DRIVE","BUENA PARK","CA",90620,33.836648762,-118.012746379,197,"6917 SAN BRUNO DRIVE, BUENA PARK, CA, 90620","Match","Exact","6917 SAN BRUNO DR, BUENA PARK, CA, 90620",144001677,"L"
273198,"6917 TRACTOR DR","DALLAS","TX",75241,32.664989731,-96.796103854,198,"6917 TRACTOR DR, DALLAS, TX, 75241","Match","Exact","6917 TRACTOR DR, DALLAS, TX, 75241",619131559,"R"
273199,"6917 W BERGEN ROAD","BERGEN","NY",14416,43.078308882,-78.005082547,199,"6917 W BERGEN ROAD, BERGEN, NY, 14416","Match","Exact","6917 W BERGEN RD, BERGEN, NY, 14416",48145111,"R"
273200,"6917 W FLAGLER ST","MIAMI","FL",33144,25.770353497,-80.307759929,200,"6917 W FLAGLER ST, MIAMI, FL, 33144","Match","Exact","6917 W FLAGLER ST, MIAMI, FL, 33144",115974853,"R"
273201,"6918 ALLIANCE LOOP","COLORADO SPRINGS","CO",80925,38.7373866290001,-104.637408954,201,"6918 ALLIANCE LOOP, COLORADO SPRINGS, CO, 80925","Match","Exact","6918 ALLIANCE LOOP, COLORADO SPRINGS, CO, 80925",642719084,"R"
273202,"6918 APPLE VALLEY LN","HOUSTON","TX",77069,29.9739121850001,-95.535807854,202,"6918 APPLE VALLEY LN, HOUSTON, TX, 77069","Match","Exact","6918 APPLE VALLEY LN, HOUSTON, TX, 77069",642109757,"L"
273203,"6918 BERKRIDGE","SAINT LOUIS","MO",63042,NA,NA,203,"6918 BERKRIDGE, SAINT LOUIS, MO, 63042","No_Match",NA,NA,NA,NA
273204,"6918 CARIBOU CRK","SAN ANTONIO","TX",78244,29.4881391490001,-98.353765051,204,"6918 CARIBOU CRK, SAN ANTONIO, TX, 78244","Match","Non_Exact","6918 CARIBU CREEK, SAN ANTONIO, TX, 78244",620047837,"R"
273205,"6918 CATTLEMAN DR","MIDLAND","TX",79705,32.080246694,-102.088389858,205,"6918 CATTLEMAN DR, MIDLAND, TX, 79705","Match","Exact","6918 CATTLEMAN DR, MIDLAND, TX, 79705",643477565,"L"
273206,"6918 CHURCHILL ROAD","MCLEAN","VA",22101,38.9445643500001,-77.182614206,206,"6918 CHURCHILL ROAD, MCLEAN, VA, 22101","Match","Exact","6918 CHURCHILL RD, MCLEAN, VA, 22101",76029075,"R"
273207,"6918 E 14TH ST N","WICHITA","KS",67206,37.7105197870001,-97.256168427,207,"6918 E 14TH ST N, WICHITA, KS, 67206","Match","Exact","6918 E 14TH ST N, WICHITA, KS, 67206",115639439,"L"
273208,"6918 OXFORD AVE 2NDFL","PHILADELPHIA","PA",19111,40.054619125,-75.0858419419999,208,"6918 OXFORD AVE 2NDFL, PHILADELPHIA, PA, 19111","Match","Exact","6918 OXFORD AVE, PHILADELPHIA, PA, 19111",131415140,"L"
273209,"6918 PARK PLACE DRIVE","CHARLOTTE","NC",28262,35.3058571330001,-80.792494319,209,"6918 PARK PLACE DRIVE, CHARLOTTE, NC, 28262","Match","Exact","6918 PARK PLACE DR, CHARLOTTE, NC, 28262",611460101,"R"
273210,"6918 RAYMOND AVE","ST LOUIS","MO",63130,38.6719829200001,-90.3127685539999,210,"6918 RAYMOND AVE, ST LOUIS, MO, 63130","Match","Exact","6918 RAYMOND AVE, SAINT LOUIS, MO, 63130",645520137,"L"
273211,"6918 REMINGTON RD","BROOKSVILLE","FL",34602,28.5343771880001,-82.250968332,211,"6918 REMINGTON RD, BROOKSVILLE, FL, 34602","Match","Exact","6918 REMINGTON RD, BROOKSVILLE, FL, 34602",640302832,"R"
273212,"6918 S DORCHESTER AVE","CHICAGO","IL",60637,41.7692449630001,-87.5910792349999,212,"6918 S DORCHESTER AVE, CHICAGO, IL, 60637","Match","Exact","6918 S DORCHESTER AVE, CHICAGO, IL, 60637",111774269,"R"
273213,"6918 SAIL VIEW LN","APOLLO BEACH","FL",33572,27.7879470660001,-82.377025653,213,"6918 SAIL VIEW LN, APOLLO BEACH, FL, 33572","Match","Exact","6918 SAIL VIEW LN, APOLLO BEACH, FL, 33572",647455377,"R"
273214,"6918 SHALLOWFORD ROAD SUITE 100","CHATTANOOGA","TN",37421,35.044497816,-85.161347102,214,"6918 SHALLOWFORD ROAD SUITE 100, CHATTANOOGA, TN, 37421","Match","Exact","6918 SHALLOWFORD RD, CHATTANOOGA, TN, 37421",59323919,"R"
273215,"6918 SILVER STAR RD","ORLANDO","FL",32818,NA,NA,215,"6918 SILVER STAR RD, ORLANDO, FL, 32818","No_Match",NA,NA,NA,NA
273216,"6919 CORAL RIDGE ROAD","HOUSTON","TX",77069,29.9713787960001,-95.533754986,216,"6919 CORAL RIDGE ROAD, HOUSTON, TX, 77069","Match","Exact","6919 CORAL RIDGE RD, HOUSTON, TX, 77069",642109772,"R"
273217,"6919 ELBROOK RD","LANHAM","MD",20706,38.978061375,-76.884241077,217,"6919 ELBROOK RD, LANHAM, MD, 20706","Match","Exact","6919 ELBROOK RD, LANHAM, MD, 20706",76308083,"R"
273218,"6919 FRANKLIN FARMER WAY","LOUISVILLE","KY",40229,38.097063033,-85.64614268,218,"6919 FRANKLIN FARMER WAY, LOUISVILLE, KY, 40229","Match","Exact","6919 FRANKLIN FARMER WAY, LOUISVILLE, KY, 40229",648043139,"R"
273219,"6919 GOLF GREEN DR","ARLINGTON","TX",76001,32.6326470550001,-97.1885469329999,219,"6919 GOLF GREEN DR, ARLINGTON, TX, 76001","Match","Exact","6919 GOLF GREEN DR, ARLINGTON, TX, 76001",618453243,"L"
273220,"6919 GREEN ROAD","HARVARD","IL",60033,NA,NA,220,"6919 GREEN ROAD, HARVARD, IL, 60033","No_Match",NA,NA,NA,NA
273221,"6919 NE 11TH CT","ANKENY","IA",50023,41.6870549280001,-93.6045162779999,221,"6919 NE 11TH CT, ANKENY, IA, 50023","Match","Exact","6919 NE 11TH CT, ANKENY, IA, 50023",65857181,"L"
273222,"6919 OAK PLAZA APT 711","OMAHA","NE",68106,NA,NA,222,"6919 OAK PLAZA APT 711, OMAHA, NE, 68106","No_Match",NA,NA,NA,NA
273223,"6919 PAXTON RD","LOVELAND","OH",45140,39.2476883960001,-84.2328356799999,223,"6919 PAXTON RD, LOVELAND, OH, 45140","Match","Exact","6919 PAXTON RD, LOVELAND, OH, 45140",118458690,"R"
273224,"6919 RANCH HAND DRIVE","MIDLAND","TX",79705,32.079871923,-102.089283136,224,"6919 RANCH HAND DRIVE, MIDLAND, TX, 79705","Match","Exact","6919 RANCH HAND DR, MIDLAND, TX, 79705",643477990,"R"
273225,"6919 ROTTERDAM ROAD","SODUS","NY",14551,43.250167478,-77.072067024,225,"6919 ROTTERDAM ROAD, SODUS, NY, 14551","Match","Exact","6919 ROTTERDAM RD, SODUS, NY, 14551",14911168,"L"
273226,"6919 SAUVIGNON CV","MEMPHIS","TN",38141,35.0251693910001,-89.832323251,226,"6919 SAUVIGNON CV, MEMPHIS, TN, 38141","Match","Exact","6919 SAUVIGNON COVE, MEMPHIS, TN, 38141",607503741,"R"
273227,"6919 VISTA DRIVE","WEST DES MOINES","IA",50266,41.590205908,-93.803793545,227,"6919 VISTA DRIVE, WEST DES MOINES, IA, 50266","Match","Exact","6919 VISTA DR, WEST DES MOINES, IA, 50266",640609159,"R"
273228,"6919 W BROWARD BLVD 108","PLANTATION","FL",33317,26.120918246,-80.238845842,228,"6919 W BROWARD BLVD 108, PLANTATION, FL, 33317","Match","Non_Exact","6919 W BROWARD BLVD, PLANTATION, FL, 33317",637293428,"L"
273229,"6919 W BROWARD BLVD UNIT135","PLANTATION","FL",33317,26.120918246,-80.238845842,229,"6919 W BROWARD BLVD UNIT135, PLANTATION, FL, 33317","Match","Non_Exact","6919 W BROWARD BLVD, PLANTATION, FL, 33317",637293428,"L"
273230,"69195 HIGHWAY 41","PEARL RIVER","LA",70452,30.435459736,-89.786898326,230,"69195 HIGHWAY 41, PEARL RIVER, LA, 70452","Match","Non_Exact","69195 STATE RTE 41, PEARL RIVER, LA, 70452",638665051,"L"
273231,"691986","HOUSTON","TX",77070,NA,NA,231,"691986, HOUSTON, TX, 77070","No_Match",NA,NA,NA,NA
273232,"692 125TH LANE NE","BLAINE","MN",55434,45.1979653610001,-93.253837708,232,"692 125TH LANE NE, BLAINE, MN, 55434","Match","Exact","692 125TH LN NE, BLAINE, MN, 55434",639763433,"L"
273233,"692 ALEXANDRA COURT","SAN JOSE","CA",95125,37.287929638,-121.872505821,233,"692 ALEXANDRA COURT, SAN JOSE, CA, 95125","Match","Exact","692 ALEXANDRA CT, SAN JOSE, CA, 95125",618194959,"L"
273234,"692 CASSANDRA LN","UNIVERSITY PARK","IL",60484,41.446680428,-87.67595073,234,"692 CASSANDRA LN, UNIVERSITY PARK, IL, 60484","Match","Non_Exact","692 CASSENDRA LN, UNIVERSITY PARK, IL, 60484",607944214,"R"
273235,"692 DOMINION VALLEY LANE","STUART","VA",24171,36.55915214,-80.1500391389999,235,"692 DOMINION VALLEY LANE, STUART, VA, 24171","Match","Exact","692 DOMINION VALLEY LN, STUART, VA, 24171",56566035,"R"
273236,"692 INFANTRY DRIVE","GALLOWAY","OH",43119,39.9620436800001,-83.2266698349999,236,"692 INFANTRY DRIVE, GALLOWAY, OH, 43119","Match","Exact","692 INFANTRY DR, GALLOWAY, OH, 43119",218648082,"R"
273237,"692 KALANIPUU ST","HONOLULU","HI",96825,21.2920914220001,-157.694532897,237,"692 KALANIPUU ST, HONOLULU, HI, 96825","Match","Exact","692 KALANIPUU ST, HONOLULU, HI, 96825",203244208,"L"
273238,"692 LEGACY PARK DR","CASSELBERRY","FL",32707,28.6793895170001,-81.3029624279999,238,"692 LEGACY PARK DR, CASSELBERRY, FL, 32707","Match","Exact","692 LEGACY PARK DR, CASSELBERRY, FL, 32707",633978053,"R"
273239,"692 LEMON DROP RD","EBENSBURG","PA",15931,NA,NA,239,"692 LEMON DROP RD, EBENSBURG, PA, 15931","No_Match",NA,NA,NA,NA
273240,"692 LINDSAY ST","ATLANTA","GA",30318,NA,NA,240,"692 LINDSAY ST, ATLANTA, GA, 30318","No_Match",NA,NA,NA,NA
273241,"692 NORTH 350 WEST","TOOELE","UT",84074,40.5449681760001,-112.307953124,241,"692 NORTH 350 WEST, TOOELE, UT, 84074","Match","Exact","692 N 350 W, TOOELE, UT, 84074",155398374,"L"
273242,"692 NW 30TH AVE","OCALA","FL",34475,29.1931518120001,-82.1721223879999,242,"692 NW 30TH AVE, OCALA, FL, 34475","Match","Exact","692 NW 30TH AVE, OCALA, FL, 34475",638492196,"L"
273243,"692 SOUTH ST APT A","WALTHAM","MA",2453,42.3565406110001,-71.262194345,243,"692 SOUTH ST APT A, WALTHAM, MA, 2453","Match","Exact","692 SOUTH ST, WALTHAM, MA, 02453",87123526,"L"
273244,"692 SOUTH ST NO B","WALTHAM","MA",2453,42.3565406110001,-71.262194345,244,"692 SOUTH ST NO B, WALTHAM, MA, 2453","Match","Non_Exact","692 SOUTH ST, WALTHAM, MA, 02453",87123526,"L"
273245,"692 WAKEFIELD MOUND ROAD","PIKETON","OH",45661,38.9759537640001,-83.0205766999999,245,"692 WAKEFIELD MOUND ROAD, PIKETON, OH, 45661","Match","Exact","692 WAKEFIELD MOUND RD, PIKETON, OH, 45661",55059080,"R"
273246,"692","CORAM","NY",11727,NA,NA,246,"692, CORAM, NY, 11727","No_Match",NA,NA,NA,NA
273247,"692","LA CROSSE","WI",54602,NA,NA,247,"692, LA CROSSE, WI, 54602","No_Match",NA,NA,NA,NA
273248,"6920 BARCLAY DRIVE","FREDERICKSBURG","VA",22407,38.3205639020001,-77.5854657909999,248,"6920 BARCLAY DRIVE, FREDERICKSBURG, VA, 22407","Match","Exact","6920 BARCLAY DR, FREDERICKSBURG, VA, 22407",651970355,"R"
273249,"6920 BOYT RD","BEAUMONT","TX",77713,30.000927963,-94.2453445849999,249,"6920 BOYT RD, BEAUMONT, TX, 77713","Match","Exact","6920 BOYT RD, BEAUMONT, TX, 77713",73895372,"R"
273250,"6920 CHADWICK DR","FORT WAYNE","IN",46816,41.0230347200001,-85.0822850069999,250,"6920 CHADWICK DR, FORT WAYNE, IN, 46816","Match","Exact","6920 CHADWICK DR, FORT WAYNE, IN, 46816",6386965,"R"
273251,"6920 CIMARRON ROAD SUITE 100","LAS VEGAS","NV",89113,36.062294009,-115.270068598,251,"6920 CIMARRON ROAD SUITE 100, LAS VEGAS, NV, 89113","Match","Non_Exact","6920 S CIMARRON RD, LAS VEGAS, NV, 89113",631752791,"L"
273252,"6920 DONACHIE ROAD APT 1004","BALTIMORE","MD",21239,39.385285104,-76.583474678,252,"6920 DONACHIE ROAD APT 1004, BALTIMORE, MD, 21239","Match","Exact","6920 DONACHIE RD, BALTIMORE, MD, 21239",191540694,"L"
273253,"6920 ELEPHANT ROAD","LUBBOCK","TX",79404,NA,NA,253,"6920 ELEPHANT ROAD, LUBBOCK, TX, 79404","No_Match",NA,NA,NA,NA
273254,"6920 HIDDEN VALLEY RD","FLOWER MOUND","TX",75022,33.0297554900001,-97.1380330869999,254,"6920 HIDDEN VALLEY RD, FLOWER MOUND, TX, 75022","Match","Non_Exact","6920 HIDDEN VALLEY DR, FLOWER MOUND, TX, 75022",103385589,"R"
273255,"6920 LAREDO ST","HOUSTON","TX",77020,29.7806930420001,-95.300786444,255,"6920 LAREDO ST, HOUSTON, TX, 77020","Match","Exact","6920 LAREDO ST, HOUSTON, TX, 77020",96080597,"R"
273256,"6920 LILLIAN WAY","SAN JOSE","CA",95120,NA,NA,256,"6920 LILLIAN WAY, SAN JOSE, CA, 95120","No_Match",NA,NA,NA,NA
273257,"6920 MCPHERSON BLVD","PITTSBURGH","PA",15208,40.453886728,-79.905627022,257,"6920 MCPHERSON BLVD, PITTSBURGH, PA, 15208","Match","Exact","6920 MCPHERSON BLVD, PITTSBURGH, PA, 15208",51647146,"R"
273258,"6920 MEADOWBROOK LN","HANOVER PARK","IL",60133,41.997799989,-88.1331720909999,258,"6920 MEADOWBROOK LN, HANOVER PARK, IL, 60133","Match","Exact","6920 MEADOWBROOK LN, HANOVER PARK, IL, 60133",111872860,"L"
273259,"6920 NE 42ND AVE","PORTLAND","OR",97218,45.5732566020001,-122.620376763,259,"6920 NE 42ND AVE, PORTLAND, OR, 97218","Match","Exact","6920 NE 42ND AVE, PORTLAND, OR, 97218",157535614,"R"
273260,"6920 SCARLET OAK DRIVE","ELKRIDGE","MD",21075,39.1827303110001,-76.755362583,260,"6920 SCARLET OAK DRIVE, ELKRIDGE, MD, 21075","Match","Exact","6920 SCARLET OAK DR, ELKRIDGE, MD, 21075",618948826,"R"
273261,"6920 SOUTH CIMARRON","LAS VEGAS","NV",89113,36.062294009,-115.270068598,261,"6920 SOUTH CIMARRON, LAS VEGAS, NV, 89113","Match","Non_Exact","6920 S CIMARRON RD, LAS VEGAS, NV, 89113",631752791,"L"
273262,"6920 W BRITTON RD","OKLAHOMA CITY","OK",73132,35.565606465,-97.636584211,262,"6920 W BRITTON RD, OKLAHOMA CITY, OK, 73132","Match","Exact","6920 W BRITTON RD, OKLAHOMA CITY, OK, 73132",636577920,"L"
273263,"6920B BRADDOCK ROAD","ANNANDALE","VA",22033,38.811888159,-77.1845317309999,263,"6920B BRADDOCK ROAD, ANNANDALE, VA, 22033","Match","Non_Exact","6920 BRADDOCK RD, ANNANDALE, VA, 22003",76033759,"R"
273264,"6921 ENVIRON  BOULEVARD SUITE 60","LAUDERHILL","FL",33319,26.174284029,-80.24382743,264,"6921 ENVIRON  BOULEVARD SUITE 60, LAUDERHILL, FL, 33319","Match","Exact","6921 ENVIRON BLVD, LAUDERHILL, FL, 33319",608969750,"L"
273265,"6921 FINNEY ROAD","GLASGOW","KY",42141,36.9375356370001,-86.077850551,265,"6921 FINNEY ROAD, GLASGOW, KY, 42141","Match","Exact","6921 FINNEY RD, GLASGOW, KY, 42141",29516201,"R"
273266,"6921 FOREST HILL DRIVE","NORTHWOODS","MO",63121,38.7080603040001,-90.281731629,266,"6921 FOREST HILL DRIVE, NORTHWOODS, MO, 63121","Match","Non_Exact","6921 FOREST HILL DR, NORWOOD COURT, MO, 63121",647326314,"R"
273267,"6921 NINE MILE PT","CHARLEVOIX","MI",49720,45.367269279,-85.116233096,267,"6921 NINE MILE PT, CHARLEVOIX, MI, 49720","Match","Non_Exact","6921 NINE MILE POINT DR, CHARLEVOIX, MI, 49720",134485064,"R"
273268,"6921 NW 45TH CT","LAUDERHILL","FL",33319,26.1811569120001,-80.24135269,268,"6921 NW 45TH CT, LAUDERHILL, FL, 33319","Match","Exact","6921 NW 45TH CT, LAUDERHILL, FL, 33319",114689561,"L"
273269,"6921 RACINE DR","DALLAS","TX",75232,32.663766051,-96.834492578,269,"6921 RACINE DR, DALLAS, TX, 75232","Match","Exact","6921 RACINE DR, DALLAS, TX, 75232",102952941,"R"
273270,"6921 VIA ANGELINA DRIVE","HUNTINGTON BEACH","CA",92647,33.7071559400001,-118.007946114,270,"6921 VIA ANGELINA DRIVE, HUNTINGTON BEACH, CA, 92647","Match","Exact","6921 VIA ANGELINA DR, HUNTINGTON BEACH, CA, 92647",144017546,"L"
273271,"69219 LARIAT","SISTERS","OR",97759,44.3092876960001,-121.590658263,271,"69219 LARIAT, SISTERS, OR, 97759","Match","Exact","69219 LARIAT, SISTERS, OR, 97759",152544979,"R"
273272,"6922 BERKRIDGE COURT","HAZELWOOD","MO",63042,38.765928081,-90.333006484,272,"6922 BERKRIDGE COURT, HAZELWOOD, MO, 63042","Match","Exact","6922 BERKRIDGE CT, HAZELWOOD, MO, 63042",648248384,"R"
273273,"6922 CANARY IVY WAY","LAS VEGAS","NV",89156,NA,NA,273,"6922 CANARY IVY WAY, LAS VEGAS, NV, 89156","No_Match",NA,NA,NA,NA
273274,"6922 DALE AVENUE","SAINT LOUIS","MO",63139,38.6266489590001,-90.3058518459999,274,"6922 DALE AVENUE, SAINT LOUIS, MO, 63139","Match","Exact","6922 DALE AVE, SAINT LOUIS, MO, 63139",652556955,"L"
273275,"6922 SADDLEBACK AVE","FIRESTONE","CO",80504,40.1465282300001,-104.925313861,275,"6922 SADDLEBACK AVE, FIRESTONE, CO, 80504","Match","Exact","6922 SADDLEBACK AVE, FIRESTONE, CO, 80504",188744647,"R"
273276,"6922 THREE PINES CANYON RD","INYOKERN","CA",93527,35.673955074,-117.818145563,276,"6922 THREE PINES CANYON RD, INYOKERN, CA, 93527","Match","Exact","6922 THREE PINES CANYON RD, INYOKERN, CA, 93527",109433878,"L"
273277,"6922 VIALINDA DRIVE","HOUSTON","TX",77083,29.7047780990001,-95.663732475,277,"6922 VIALINDA DRIVE, HOUSTON, TX, 77083","Match","Exact","6922 VIALINDA DR, HOUSTON, TX, 77083",96017475,"L"
273278,"6922S MULLIEN DRIVE","WEST JORDAN","UT",84081,40.6255438630001,-112.021317884,278,"6922S MULLIEN DRIVE, WEST JORDAN, UT, 84081","Match","Exact","6922 MULLIEN DR, WEST JORDAN, UT, 84081",176150337,"R"
273279,"6923 COTTONWOOD CIR","SACHSE","TX",75048,32.9840485920001,-96.60356774,279,"6923 COTTONWOOD CIR, SACHSE, TX, 75048","Match","Exact","6923 COTTONWOOD CIR, SACHSE, TX, 75048",651529243,"L"
273280,"6923 DUTCHLAND PKWY","LIBERTY TWP","OH",45044,39.380663616,-84.3943974759999,280,"6923 DUTCHLAND PKWY, LIBERTY TWP, OH, 45044","Match","Non_Exact","6923 DUTCHLAND BLVD, LIBERTY TOWNSHIP, OH, 45044",113811057,"L"
273281,"6923 FRANKLIN FARMER WAY","LOUISVILLE","KY",40229,38.097071063,-85.646031594,281,"6923 FRANKLIN FARMER WAY, LOUISVILLE, KY, 40229","Match","Exact","6923 FRANKLIN FARMER WAY, LOUISVILLE, KY, 40229",648043139,"R"
273282,"6923 GIBSON ROAD","CANFIELD","OH",44406,41.0565595310001,-80.780263054,282,"6923 GIBSON ROAD, CANFIELD, OH, 44406","Match","Exact","6923 GIBSON RD, CANFIELD, OH, 44406",64617116,"L"
273283,"6923 HOLIDAY RD N","JACKSONVILLE","FL",32216,NA,NA,283,"6923 HOLIDAY RD N, JACKSONVILLE, FL, 32216","No_Match",NA,NA,NA,NA
273284,"6923 LINCOLN HIGHWAY","THOMASVILLE","PA",17364,39.914794918,-76.9218679259999,284,"6923 LINCOLN HIGHWAY, THOMASVILLE, PA, 17364","Match","Exact","6923 LINCOLN HWY, THOMASVILLE, PA, 17364",88761788,"L"
273285,"6923 MAYNARDVILLE PIKE STE 423","KNOXVILLE","TN",37918,36.0729014300001,-83.927776777,285,"6923 MAYNARDVILLE PIKE STE 423, KNOXVILLE, TN, 37918","Match","Exact","6923 MAYNARDVILLE PIKE, KNOXVILLE, TN, 37918",639438976,"R"
273286,"6923 MOONRISE LN","HOUSTON","TX",77049,29.823682509,-95.1810456869999,286,"6923 MOONRISE LN, HOUSTON, TX, 77049","Match","Exact","6923 MOONRISE LN, HOUSTON, TX, 77049",645138866,"L"
273287,"6923 PASCHALL AVE","PHILADELPHIA","PA",19142,39.9202784760001,-75.23922028,287,"6923 PASCHALL AVE, PHILADELPHIA, PA, 19142","Match","Exact","6923 PASCHALL AVE, PHILADELPHIA, PA, 19142",131408539,"R"
273288,"6923 SOUTH CRANDON AVE APT 3","CHICAGO","IL",60649,41.769383987,-87.569845587,288,"6923 SOUTH CRANDON AVE APT 3, CHICAGO, IL, 60649","Match","Exact","6923 S CRANDON AVE, CHICAGO, IL, 60649",653207614,"L"
273289,"6923 WEST LOOP 1604 N STE 211","SAN ANTONIO","TX",78254,NA,NA,289,"6923 WEST LOOP 1604 N STE 211, SAN ANTONIO, TX, 78254","No_Match",NA,NA,NA,NA
273290,"6923 WOODSIDE DR","SUGAR LAND","TX",77479,29.5495183400001,-95.689464253,290,"6923 WOODSIDE DR, SUGAR LAND, TX, 77479","Match","Exact","6923 WOODSIDE DR, SUGAR LAND, TX, 77479",78289658,"L"
273291,"6924 CANYON CLIFF RD NW","ALBUQUERQUE","NM",87114,35.1848356570001,-106.732280228,291,"6924 CANYON CLIFF RD NW, ALBUQUERQUE, NM, 87114","Match","Non_Exact","6924 CANYON CLIFF RD, ALBUQUERQUE, NM, 87114",632646309,"R"
273292,"6924 CLARK VISTA DR","DALLAS","TX",75236,32.6680449770001,-96.9425396509999,292,"6924 CLARK VISTA DR, DALLAS, TX, 75236","Match","Exact","6924 CLARK VISTA DR, DALLAS, TX, 75236",619123786,"L"
273293,"6924 CLEAR SPRING COURT","HIGHLAND","CA",92346,34.127936946,-117.166266679,293,"6924 CLEAR SPRING COURT, HIGHLAND, CA, 92346","Match","Exact","6924 CLEAR SPRING CT, HIGHLAND, CA, 92346",624881846,"L"
273294,"6924 HARBOR TOWN WAY","STONE MOUNTAIN","GA",30087,33.7997452760001,-84.103417876,294,"6924 HARBOR TOWN WAY, STONE MOUNTAIN, GA, 30087","Match","Exact","6924 HARBOR TOWN WAY, STONE MOUNTAIN, GA, 30087",23399058,"R"
273295,"6924 IOLA BOAT LANE","CANAL WINCHESTER","OH",43110,39.8642506680001,-82.814214785,295,"6924 IOLA BOAT LANE, CANAL WINCHESTER, OH, 43110","Match","Exact","6924 IOLA BOAT LN, CANAL WINCHESTER, OH, 43110",218640944,"L"
273296,"6924 STETSON ST CIR","SARASOTA","FL",34243,NA,NA,296,"6924 STETSON ST CIR, SARASOTA, FL, 34243","No_Match",NA,NA,NA,NA
273297,"6924 W HAMPTON AVE APT 206","MILWAUKEE","WI",53218,43.1048938650001,-87.9982591359999,297,"6924 W HAMPTON AVE APT 206, MILWAUKEE, WI, 53218","Match","Non_Exact","6924 W HAMPTON AVE, MILWAUKEE, WI, 53218",77730412,"R"
273298,"6924 WAXWING PLACE","PHILADELPHIA","PA",19142,39.913650036,-75.230925713,298,"6924 WAXWING PLACE, PHILADELPHIA, PA, 19142","Match","Exact","6924 WAXWING PL, PHILADELPHIA, PA, 19142",642045320,"L"
273299,"6924 WELLER AVE NE","ROCKFORD","MI",49341,43.08874323,-85.496713384,299,"6924 WELLER AVE NE, ROCKFORD, MI, 49341","Match","Exact","6924 WELLER AVE NE, ROCKFORD, MI, 49341",12448876,"R"
273300,"6924 WINDWARD WAY","FOREST HILL","TX",76140,32.6553416530001,-97.281199774,300,"6924 WINDWARD WAY, FOREST HILL, TX, 76140","Match","Exact","6924 WINDWARD WAY, FOREST HILL, TX, 76140",101895577,"R"
273301,"69241 PELLEW CR LN","ARLEE","MT",59821,47.207569791,-114.088936074,301,"69241 PELLEW CR LN, ARLEE, MT, 59821","Match","Exact","69241 PELLEW CREEK LN, ARLEE, MT, 59821",635451630,"L"
273302,"6925 52ND AVENUE SOUTH","SEATTLE","WA",98118,47.5404314200001,-122.267176949,302,"6925 52ND AVENUE SOUTH, SEATTLE, WA, 98118","Match","Exact","6925 52ND AVE S, SEATTLE, WA, 98118",186596624,"R"
273303,"6925 ALANBROOK RD","CHARLOTTE","NC",28215,35.2364444180001,-80.711185563,303,"6925 ALANBROOK RD, CHARLOTTE, NC, 28215","Match","Exact","6925 ALANBROOK RD, CHARLOTTE, NC, 28215",70545577,"L"
273304,"6925 BENTLEY DRIVE","KALAMAZOO","MI",49009,42.2166961300001,-85.6621929739999,304,"6925 BENTLEY DRIVE, KALAMAZOO, MI, 49009","Match","Exact","6925 BENTLEY DR, KALAMAZOO, MI, 49009",12241658,"L"
273305,"6925 DEERFIELD LANE","GLOUCESTER","VA",23061,37.401073567,-76.574113857,305,"6925 DEERFIELD LANE, GLOUCESTER, VA, 23061","Match","Exact","6925 DEERFIELD LN, GLOUCESTER, VA, 23061",168209355,"R"
273306,"6925 E CREEKHAVEN DR  APT 917","FORT WORTH","TX",76137,NA,NA,306,"6925 E CREEKHAVEN DR  APT 917, FORT WORTH, TX, 76137","Tie",NA,NA,NA,NA
273307,"6925 GLADIOLA ST","ARVADA","CO",80004,39.8226495530001,-105.162518001,307,"6925 GLADIOLA ST, ARVADA, CO, 80004","Match","Exact","6925 GLADIOLA ST, ARVADA, CO, 80004",177370099,"R"
273308,"6925 JACK LONDON DR","JOHNSTON","IA",50131,41.686607832,-93.7063394629999,308,"6925 JACK LONDON DR, JOHNSTON, IA, 50131","Match","Exact","6925 JACK LONDON DR, JOHNSTON, IA, 50131",627105429,"L"
273309,"6925 MCPHERSON BLVD","PITTSBURGH","PA",15208,40.4538503910001,-79.905482943,309,"6925 MCPHERSON BLVD, PITTSBURGH, PA, 15208","Match","Exact","6925 MCPHERSON BLVD, PITTSBURGH, PA, 15208",51647146,"L"
273310,"6925 NAVA","GRAND PRAIRIE","TX",75054,32.60073851,-97.052839396,310,"6925 NAVA, GRAND PRAIRIE, TX, 75054","Match","Exact","6925 NAVA, GRAND PRAIRIE, TX, 75054",637606581,"R"
273311,"6925 RIVA RIDGE DR SE","TURNER","OR",97392,44.8546174090001,-122.94820238,311,"6925 RIVA RIDGE DR SE, TURNER, OR, 97392","Match","Exact","6925 RIVA RIDGE DR SE, TURNER, OR, 97392",156253916,"R"
273312,"6925 SE 117TH PL","PORTLAND","OR",97266,45.472552045,-122.542121189,312,"6925 SE 117TH PL, PORTLAND, OR, 97266","Match","Exact","6925 SE 117TH PL, PORTLAND, OR, 97266",157521856,"R"
273313,"6925 SOUTH BROADWAY","ST LOUIS","MO",63111,38.552277819,-90.2524010499999,313,"6925 SOUTH BROADWAY, ST LOUIS, MO, 63111","Match","Exact","6925 S BROADWAY, SAINT LOUIS, MO, 63111",107603244,"R"
273314,"6925 STATE ROUTE 17","WEST PLAINS","MO",65775,36.8001729420001,-91.779493795,314,"6925 STATE ROUTE 17, WEST PLAINS, MO, 65775","Match","Exact","6925 STATE RTE 17, WEST PLAINS, MO, 65775",33330553,"L"
273315,"6925 TERRACE PL","ANNANDALE","VA",22003,38.8435328730001,-77.1844838599999,315,"6925 TERRACE PL, ANNANDALE, VA, 22003","Match","Exact","6925 TERRACE PL, ANNANDALE, VA, 22003",75980277,"L"
273316,"6925 VERSAILLE DRIVE","FREDERICKSBURG","VA",22407,38.267689827,-77.56495382,316,"6925 VERSAILLE DRIVE, FREDERICKSBURG, VA, 22407","Match","Exact","6925 VERSAILLE DR, FREDERICKSBURG, VA, 22407",647703985,"L"
273317,"6925 WALNUT COURT","CUMMING","GA",30040,34.2830051280001,-84.127323619,317,"6925 WALNUT COURT, CUMMING, GA, 30040","Match","Exact","6925 WALNUT CT, CUMMING, GA, 30040",70187408,"L"
273318,"6925 WEST 725 NORTH","BRYANT","IN",47326,40.541781902,-85.1137910849999,318,"6925 WEST 725 NORTH, BRYANT, IN, 47326","Match","Exact","6925 W 725 N, BRYANT, IN, 47326",45041933,"R"
273319,"6925 WILLOPETE DR","FLAGSTAFF","AZ",86004,35.265511928,-111.525644908,319,"6925 WILLOPETE DR, FLAGSTAFF, AZ, 86004","Match","Exact","6925 WILLOPETE DR, FLAGSTAFF, AZ, 86004",188942998,"R"
273320,"6925 WILLOW ST NW SUITE 230","WASHINGTON","DC",20012,38.9729973820001,-77.014985203,320,"6925 WILLOW ST NW SUITE 230, WASHINGTON, DC, 20012","Match","Exact","6925 WILLOW ST NW, WASHINGTON, DC, 20012",76222036,"R"
273321,"6925 WILLOW ST","FALLS CHURCH","VA",22046,38.896026824,-77.1825428349999,321,"6925 WILLOW ST, FALLS CHURCH, VA, 22046","Match","Exact","6925 WILLOW ST, FALLS CHURCH, VA, 22046",75979076,"L"
273322,"6925 WISTER STREET","PHILADELPHIA","PA",19138,40.057038961,-75.1574417269999,322,"6925 WISTER STREET, PHILADELPHIA, PA, 19138","Match","Exact","6925 WISTER ST, PHILADELPHIA, PA, 19138",131413146,"R"
273323,"69250 DINAH SHORE DRIVE","CATHEDRAL CITY","CA",92234,33.8014797590001,-116.453110792,323,"69250 DINAH SHORE DRIVE, CATHEDRAL CITY, CA, 92234","Match","Exact","69250 DINAH SHORE DR, CATHEDRAL CITY, CA, 92234",194766013,"L"
273324,"6926 15TH STREET EAST","SARASOTA","FL",34243,27.417873677,-82.546736505,324,"6926 15TH STREET EAST, SARASOTA, FL, 34243","Match","Exact","6926 15TH ST E, SARASOTA, FL, 34243",16240524,"R"
273325,"6926 ANDERSONS WAY STE 303","LAUREL","MD",20707,39.081825757,-76.8879513909999,325,"6926 ANDERSONS WAY STE 303, LAUREL, MD, 20707","Match","Exact","6926 ANDERSONS WAY, LAUREL, MD, 20707",648240396,"L"
273326,"6926 S PAXTON AVE","CHICAGO","IL",60649,41.769296556,-87.571497466,326,"6926 S PAXTON AVE, CHICAGO, IL, 60649","Match","Exact","6926 S PAXTON AVE, CHICAGO, IL, 60649",111775530,"R"
273327,"6926 SPRING RIVER RD","MEMPHIS","TN",38141,34.9981354970001,-89.832363115,327,"6926 SPRING RIVER RD, MEMPHIS, TN, 38141","Match","Exact","6926 SPRING RIVER RD, MEMPHIS, TN, 38141",72953675,"L"
273328,"6926 WALMORE RD","NIAGARA FALLS","NY",14304,43.087796257,-78.926812774,328,"6926 WALMORE RD, NIAGARA FALLS, NY, 14304","Match","Exact","6926 WALMORE RD, NIAGARA FALLS, NY, 14304",48696764,"R"
273329,"6926 WASHINGTON PIKE","KNOXVILLE","TN",37918,36.0756907310001,-83.832278054,329,"6926 WASHINGTON PIKE, KNOXVILLE, TN, 37918","Match","Exact","6926 WASHINGTON PIKE, KNOXVILLE, TN, 37918",42670423,"R"
273330,"6926 YOLANDA AVE","TARZANA","CA",91335,34.1962703630001,-118.540397064,330,"6926 YOLANDA AVE, TARZANA, CA, 91335","Match","Exact","6926 YOLANDA AVE, TARZANA, CA, 91335",141554444,"R"
273331,"6927 45TH PL N","CRYSTAL","MN",55428,45.037298729,-93.3682154909999,331,"6927 45TH PL N, CRYSTAL, MN, 55428","Match","Exact","6927 45TH PL N, CRYSTAL, MN, 55428",43617337,"L"
273332,"6927 CHESHIRE PARK","HOUSTON","TX",77088,29.894113249,-95.4925906139999,332,"6927 CHESHIRE PARK, HOUSTON, TX, 77088","Match","Non_Exact","6927 CHESHIRE PARK RD, HOUSTON, TX, 77088",96228819,"R"
273333,"6927 E COUNTY ROAD 1200N","MATTOON","IL",61938,NA,NA,333,"6927 E COUNTY ROAD 1200N, MATTOON, IL, 61938","No_Match",NA,NA,NA,NA
273334,"6927 E REDFIELD ROAD","SCOTTSDALE","AZ",85254,33.614187406,-111.931621564,334,"6927 E REDFIELD ROAD, SCOTTSDALE, AZ, 85254","Match","Exact","6927 E REDFIELD RD, SCOTTSDALE, AZ, 85254",128188330,"R"
273335,"6927 FOX MESA LANE","HUMBLE","TX",77338,30.020384177,-95.3202026549999,335,"6927 FOX MESA LANE, HUMBLE, TX, 77338","Match","Exact","6927 FOX MESA LN, HUMBLE, TX, 77338",96045281,"L"
273336,"6927 GLEN COVE LANE","STONE MOUNTAIN","GA",30087,33.786782357,-84.095681548,336,"6927 GLEN COVE LANE, STONE MOUNTAIN, GA, 30087","Match","Exact","6927 GLEN COVE LN, STONE MOUNTAIN, GA, 30087",23393777,"R"
273337,"6927 LINCOLN PARKWAY","FORT WAYNE","IN",46804,41.086179099,-85.233057248,337,"6927 LINCOLN PARKWAY, FORT WAYNE, IN, 46804","Match","Exact","6927 LINCOLN PKWY, FORT WAYNE, IN, 46804",6373060,"R"
273338,"6927 STADIUM LANE","FRISCO","TX",75033,33.1573925000001,-96.824206476,338,"6927 STADIUM LANE, FRISCO, TX, 75033","Match","Exact","6927 STADIUM LN, FRISCO, TX, 75033",210474933,"R"
273339,"6927 STADIUM LANESUSAN ABBOTT","FRISCO","TX",75034,NA,NA,339,"6927 STADIUM LANESUSAN ABBOTT, FRISCO, TX, 75034","No_Match",NA,NA,NA,NA
273340,"6927 VERSAILLE DR","FREDERICKSBURG","VA",22407,38.2676726620001,-77.565016913,340,"6927 VERSAILLE DR, FREDERICKSBURG, VA, 22407","Match","Exact","6927 VERSAILLE DR, FREDERICKSBURG, VA, 22407",647703985,"L"
273341,"6928 BERESFORD AVE","PARMA HEIGHTS","OH",44130,41.375484043,-81.778768245,341,"6928 BERESFORD AVE, PARMA HEIGHTS, OH, 44130","Match","Exact","6928 BERESFORD AVE, PARMA HEIGHTS, OH, 44130",61104338,"R"
273342,"6928 COMMERCIAL DR","MORROW","GA",30260,33.5620615610001,-84.341389388,342,"6928 COMMERCIAL DR, MORROW, GA, 30260","Match","Exact","6928 COMMERCIAL DR, MORROW, GA, 30260",23334219,"L"
273343,"6928 DORMANY LOOP","PLANT CITY","FL",33565,28.1023941550001,-82.2091909659999,343,"6928 DORMANY LOOP, PLANT CITY, FL, 33565","Match","Exact","6928 DORMANY LOOP, PLANT CITY, FL, 33565",104672548,"R"
273344,"6928 GYPSUM CREEK DRIVE","CORONA","CA",92880,33.9624768840001,-117.600617999,344,"6928 GYPSUM CREEK DRIVE, CORONA, CA, 92880","Match","Exact","6928 GYPSUM CREEK DR, CORONA, CA, 92880",629797132,"L"
273345,"6928 RED BLUFF DR","MCKINNEY","TX",75070,33.1677604110001,-96.70673865,345,"6928 RED BLUFF DR, MCKINNEY, TX, 75070","Match","Exact","6928 RED BLUFF DR, MCKINNEY, TX, 75070",614169763,"R"
273346,"6928 S ELK COURT","AURORA","CO",80016,39.5911751420001,-104.706119865,346,"6928 S ELK COURT, AURORA, CO, 80016","Match","Exact","6928 S ELK CT, AURORA, CO, 80016",177563554,"R"
273347,"6928 WEST SAMPLE RD","CORAL SPRINGS","FL",33067,26.272820461,-80.2172399139999,347,"6928 WEST SAMPLE RD, CORAL SPRINGS, FL, 33067","Match","Exact","6928 W SAMPLE RD, CORAL SPRINGS, FL, 33067",648261578,"R"
273348,"6929 MAID MARIAN DRIVE","CINCINNATI","OH",45230,39.084038707,-84.367415405,348,"6929 MAID MARIAN DRIVE, CINCINNATI, OH, 45230","Match","Exact","6929 MAID MARIAN DR, CINCINNATI, OH, 45230",103940425,"R"
273349,"6929 N HAYDEN RD SUITE C-4 -189","SCOTTSDALE","AZ",85250,33.537755792,-111.908618901,349,"6929 N HAYDEN RD SUITE C-4 -189, SCOTTSDALE, AZ, 85250","Match","Non_Exact","6929 N HAYDEN RD, SCOTTSDALE, AZ, 85250",128840516,"R"
273350,"6929 N HAYDEN ROAD SUITE C4","SCOTTSDALE","AZ",85250,33.537755792,-111.908618901,350,"6929 N HAYDEN ROAD SUITE C4, SCOTTSDALE, AZ, 85250","Match","Non_Exact","6929 N HAYDEN RD, SCOTTSDALE, AZ, 85250",128840516,"R"
273351,"6929 N ROXBURY MILL RD","SPOTSYLVANIA","VA",22551,38.151301463,-77.514889446,351,"6929 N ROXBURY MILL RD, SPOTSYLVANIA, VA, 22551","Match","Exact","6929 N ROXBURY MILL RD, SPOTSYLVANIA, VA, 22551",228786932,"R"
273352,"6929 SAHARA DRIVE","PLAINFIELD","IL",60586,41.577833409,-88.253065045,352,"6929 SAHARA DRIVE, PLAINFIELD, IL, 60586","Match","Exact","6929 SAHARA DR, PLAINFIELD, IL, 60586",111627026,"L"
273353,"6929 WEBSTER ROAD","IMLAY CITY","MI",48444,42.97798643,-83.071189692,353,"6929 WEBSTER ROAD, IMLAY CITY, MI, 48444","Match","Exact","6929 WEBSTER RD, IMLAY CITY, MI, 48444",110463604,"L"
273354,"6929 WEST CONGRESS ST","DUSON","LA",70529,NA,NA,354,"6929 WEST CONGRESS ST, DUSON, LA, 70529","No_Match",NA,NA,NA,NA
273355,"693 ALPINE VIEW WAY","ALPINE","CA",91901,32.8404458150001,-116.800168093,355,"693 ALPINE VIEW WAY, ALPINE, CA, 91901","Match","Exact","693 ALPINE VIEW WAY, ALPINE, CA, 91901",195423039,"R"
273356,"693 CHEESE FACTORY ROAD","HONEOYE FALLS","NY",14472,42.9754228410001,-77.530416537,356,"693 CHEESE FACTORY ROAD, HONEOYE FALLS, NY, 14472","Match","Exact","693 CHEESE FACTORY RD, HONEOYE FALLS, NY, 14472",624666007,"L"
273357,"693 CONNESTEE ROAD","WEST PALM BEACH","FL",33413,26.685547279,-80.134439559,357,"693 CONNESTEE ROAD, WEST PALM BEACH, FL, 33413","Match","Exact","693 CONNESTEE RD, WEST PALM BEACH, FL, 33413",115562392,"L"
273358,"693 COUNTY RD X","MOSINEE","WI",54455,NA,NA,358,"693 COUNTY RD X, MOSINEE, WI, 54455","No_Match",NA,NA,NA,NA
273359,"693 E WYTHE CREEK COURT","KUNA","ID",83634,43.4877033970001,-116.404636239,359,"693 E WYTHE CREEK COURT, KUNA, ID, 83634","Match","Exact","693 E WYTHE CREEK CT, KUNA, ID, 83634",617936541,"R"
273360,"693 EAST KERN AVENUE","TULARE","CA",93274,36.207407679,-119.338288242,360,"693 EAST KERN AVENUE, TULARE, CA, 93274","Match","Exact","693 E KERN AVE, TULARE, CA, 93274",607516869,"R"
273361,"693 GRAYSON HWY","LAWRENCEVILLE","GA",30046,33.9333133320001,-83.9778337659999,361,"693 GRAYSON HWY, LAWRENCEVILLE, GA, 30046","Match","Exact","693 GRAYSON HWY, LAWRENCEVILLE, GA, 30046",622656063,"L"
273362,"693 HOWELL ROAD","BYROMVILLE","GA",31007,32.161076075,-83.938709338,362,"693 HOWELL ROAD, BYROMVILLE, GA, 31007","Match","Exact","693 HOWELL RD, BYROMVILLE, GA, 31007",15682975,"L"
273363,"693 KENMORE BLVD","AKRON","OH",44314,41.044929132,-81.548994905,363,"693 KENMORE BLVD, AKRON, OH, 44314","Match","Exact","693 KENMORE BLVD, AKRON, OH, 44314",61344238,"R"
273364,"693 PLAINVIEW ROAD","MAYSVILLE","GA",30558,34.198728067,-83.583510009,364,"693 PLAINVIEW ROAD, MAYSVILLE, GA, 30558","Match","Exact","693 PLAINVIEW RD, MAYSVILLE, GA, 30558",618980970,"L"
273365,"693 PUTNAM AVENUE","BROOKLYN","NY",11221,40.6859069990001,-73.933829019,365,"693 PUTNAM AVENUE, BROOKLYN, NY, 11221","Match","Exact","693 PUTNAM AVE, BROOKLYN, NY, 11221",59079273,"L"
273366,"693 RALPH AVENUE","BROOKLYN","NY",11212,40.6657308430001,-73.92240538,366,"693 RALPH AVENUE, BROOKLYN, NY, 11212","Match","Exact","693 RALPH AVE, BROOKLYN, NY, 11212",59083465,"L"
273367,"693 RED OAKS DRIVE","HOWELL","MI",48843,42.5877123340001,-83.841291327,367,"693 RED OAKS DRIVE, HOWELL, MI, 48843","Match","Exact","693 RED OAKS DR, HOWELL, MI, 48843",23574022,"R"
273368,"693 ROGER SHERMAN STREET","ORANGE PARK","FL",32073,30.1558919230001,-81.757820916,368,"693 ROGER SHERMAN STREET, ORANGE PARK, FL, 32073","Match","Exact","693 ROGER SHERMAN ST, ORANGE PARK, FL, 32073",83813874,"L"
273369,"693 SHANNON WAY","LAWRENCEVILLE","GA",30044,33.9401594460001,-84.066278498,369,"693 SHANNON WAY, LAWRENCEVILLE, GA, 30044","Match","Exact","693 SHANNON WAY, LAWRENCEVILLE, GA, 30044",88888485,"L"
273370,"693 TINA LYNN CT","BAKERSFIELD","CA",93306,35.369278605,-118.924717082,370,"693 TINA LYNN CT, BAKERSFIELD, CA, 93306","Match","Exact","693 TINA LYNN CT, BAKERSFIELD, CA, 93306",109427101,"R"
273371,"693 W 1000 S","RICHFIELD","UT",84701,38.754754527,-112.096919058,371,"693 W 1000 S, RICHFIELD, UT, 84701","Match","Exact","693 W 1000 S, RICHFIELD, UT, 84701",175337911,"L"
273372,"6930 HWY 90","PARKERS LAKE","KY",42634,36.8564375890001,-84.391567589,372,"6930 HWY 90, PARKERS LAKE, KY, 42634","Match","Non_Exact","6930 STATE HWY 90, PARKERS LAKE, KY, 42634",98783951,"L"
273373,"6930 HYDE PARK DR  UNIT 229","SAN DIEGO","CA",92119,32.8016526690001,-117.046167438,373,"6930 HYDE PARK DR  UNIT 229, SAN DIEGO, CA, 92119","Match","Exact","6930 HYDE PARK DR, SAN DIEGO, CA, 92119",645485470,"L"
273374,"6930 KAISER DRIVE","LAWRENCEBURG","IN",47025,39.142693443,-84.947182159,374,"6930 KAISER DRIVE, LAWRENCEBURG, IN, 47025","Match","Exact","6930 KAISER DR, LAWRENCEBURG, IN, 47025",76875733,"L"
273375,"6930 LADY ABIGAIL DR","MASON","OH",45040,NA,NA,375,"6930 LADY ABIGAIL DR, MASON, OH, 45040","No_Match",NA,NA,NA,NA
273376,"6930 MEADOWLARK LN","SHAWNEE","KS",66226,39.0027688640001,-94.863489295,376,"6930 MEADOWLARK LN, SHAWNEE, KS, 66226","Match","Exact","6930 MEADOWLARK LN, SHAWNEE, KS, 66226",627513080,"L"
273377,"6930 MIDBURY DR","DALLAS","TX",75230,32.90091061,-96.786829133,377,"6930 MIDBURY DR, DALLAS, TX, 75230","Match","Exact","6930 MIDBURY DR, DALLAS, TX, 75230",102901932,"R"
273378,"6930 NW 179TH ST APT 204","HIALEAH","FL",33015,25.93477001,-80.3150740739999,378,"6930 NW 179TH ST APT 204, HIALEAH, FL, 33015","Match","Non_Exact","6930 NW 179TH ST, HIALEAH, FL, 33015",610870843,"R"
273379,"6930 PARADISE RD APT 1001","LAS VEGAS","NV",89119,36.063871985,-115.141132303,379,"6930 PARADISE RD APT 1001, LAS VEGAS, NV, 89119","Match","Exact","6930 PARADISE RD, LAS VEGAS, NV, 89119",201922630,"L"
273380,"6930 S SOUTH SHORE DRIVE STE 519","CHICAGO","IL",60649,NA,NA,380,"6930 S SOUTH SHORE DRIVE STE 519, CHICAGO, IL, 60649","No_Match",NA,NA,NA,NA
273381,"6930 WALLACE ROAD","CHARLOTTE","NC",28212,35.176086416,-80.755555237,381,"6930 WALLACE ROAD, CHARLOTTE, NC, 28212","Match","Exact","6930 WALLACE RD, CHARLOTTE, NC, 28212",70558086,"R"
273382,"6930 WEST SCHOOL STREET","THREE LAKES","WI",54562,45.7954288560001,-89.168226342,382,"6930 WEST SCHOOL STREET, THREE LAKES, WI, 54562","Match","Exact","6930 W SCHOOL ST, THREE LAKES, WI, 54562",196584212,"R"
273383,"6931 ANDERSON STREET","PHILADELPHIA","PA",19119,40.0636204670001,-75.179643308,383,"6931 ANDERSON STREET, PHILADELPHIA, PA, 19119","Match","Exact","6931 ANDERSON ST, PHILADELPHIA, PA, 19119",131395180,"R"
273384,"6931 JACKSON ROAD","SARANAC","MI",48881,42.8877323150001,-85.193550791,384,"6931 JACKSON ROAD, SARANAC, MI, 48881","Match","Exact","6931 JACKSON RD, SARANAC, MI, 48881",12155766,"R"
273385,"6931 MAY COURT","SAN DIEGO","CA",92139,32.685040627,-117.043015473,385,"6931 MAY COURT, SAN DIEGO, CA, 92139","Match","Exact","6931 MAY CT, SAN DIEGO, CA, 92139",195361363,"R"
273386,"6931 NORTHAMPTION DRIVE","BATON ROUGE","LA",70811,30.5479928140001,-91.120449825,386,"6931 NORTHAMPTION DRIVE, BATON ROUGE, LA, 70811","Match","Non_Exact","6931 NORTHAMPTON DR, BATON ROUGE, LA, 70811",92186389,"L"
273387,"6932 32ND ST NW","WASHINGTON","DC",20015,38.9821250790001,-77.055936644,387,"6932 32ND ST NW, WASHINGTON, DC, 20015","Match","Exact","6932 32ND ST NW, WASHINGTON, DC, 20015",76219242,"L"
273388,"6932 BENSON STREET","HUNTINGTON PARK","CA",90255,33.975507029,-118.211332699,388,"6932 BENSON STREET, HUNTINGTON PARK, CA, 90255","Match","Exact","6932 BENSON ST, HUNTINGTON PARK, CA, 90255",641502375,"L"
273389,"6932 EUROPEAN ROBIN ST","NORTH LAS VEGAS","NV",89084,36.2865046260001,-115.206139124,389,"6932 EUROPEAN ROBIN ST, NORTH LAS VEGAS, NV, 89084","Match","Exact","6932 EUROPEAN ROBIN ST, N LAS VEGAS, NV, 89084",612690717,"R"
273390,"6932 HEATHERBROOK DRIVE","LAKELAND","FL",33809,28.1308006410001,-81.9428598109999,390,"6932 HEATHERBROOK DRIVE, LAKELAND, FL, 33809","Match","Exact","6932 HEATHERBROOK DR, LAKELAND, FL, 33809",629918105,"R"
273391,"6932 LOIS DRIVE","CINCINNATI","OH",45239,39.219775801,-84.5609690919999,391,"6932 LOIS DRIVE, CINCINNATI, OH, 45239","Match","Exact","6932 LOIS DR, CINCINNATI, OH, 45239",103968299,"R"
273392,"6932 NORTH TRYON SUITE A","CHARLOTTE","NC",28213,35.282368822,-80.7646325429999,392,"6932 NORTH TRYON SUITE A, CHARLOTTE, NC, 28213","Match","Non_Exact","6932 N TRYON ST, CHARLOTTE, NC, 28213",70480698,"R"
273393,"6932 PRAIRIE VIEW RD","HARRISON","AR",72601,36.1393995660001,-93.1057267149999,393,"6932 PRAIRIE VIEW RD, HARRISON, AR, 72601","Match","Exact","6932 PRAIRIE VIEW RD, HARRISON, AR, 72601",19985405,"L"
273394,"6932 RAVENSCROFT DRIVE","SAINT LOUIS","MO",63123,38.5764173520001,-90.3146768029999,394,"6932 RAVENSCROFT DRIVE, SAINT LOUIS, MO, 63123","Match","Exact","6932 RAVENSCROFT DR, SAINT LOUIS, MO, 63123",100153713,"L"
273395,"6932 SANDLEFORD WAY","SAN DIEGO","CA",92139,32.682699674,-117.042254081,395,"6932 SANDLEFORD WAY, SAN DIEGO, CA, 92139","Match","Exact","6932 SANDLEFORD WAY, SAN DIEGO, CA, 92139",195361379,"L"
273396,"6932 STATE ROAD T","AUXVASSE","MO",65231,39.003181582,-91.877784376,396,"6932 STATE ROAD T, AUXVASSE, MO, 65231","Match","Exact","6932 STATE RD T, AUXVASSE, MO, 65231",34383265,"L"
273397,"6932 TRELLIS VINE LOOP","WINDERMERE","FL",34786,28.4622028320001,-81.5643186029999,397,"6932 TRELLIS VINE LOOP, WINDERMERE, FL, 34786","Match","Exact","6932 TRELLIS VINE LOOP, WINDERMERE, FL, 34786",645179852,"L"
273398,"6933 64TH STREET 2ND FLOOR","RIDGEWOOD","NY",11385,NA,NA,398,"6933 64TH STREET 2ND FLOOR, RIDGEWOOD, NY, 11385","No_Match",NA,NA,NA,NA
273399,"6933 CAMELOT ROAD","JACKSONVILLE","FL",32211,30.3399259020001,-81.5850204129999,399,"6933 CAMELOT ROAD, JACKSONVILLE, FL, 32211","Match","Exact","6933 CAMELOT RD, JACKSONVILLE, FL, 32211",83903815,"L"
273400,"6933 CAMERON CREST CIRCLE APT 305","RALEIGH","NC",27613,35.8740265370001,-78.7229851769999,400,"6933 CAMERON CREST CIRCLE APT 305, RALEIGH, NC, 27613","Match","Exact","6933 CAMERON CREST CIR, RALEIGH, NC, 27613",208349196,"L"
273401,"6933 CASS CITY RD","CASS CITY","MI",48726,43.6025578540001,-83.112342419,401,"6933 CASS CITY RD, CASS CITY, MI, 48726","Match","Exact","6933 CASS CITY RD, CASS CITY, MI, 48726",111063346,"R"
273402,"6933 LEMINGTON AVENUE","PITTSBURGH","PA",15206,40.473105537,-79.9015815339999,402,"6933 LEMINGTON AVENUE, PITTSBURGH, PA, 15206","Match","Exact","6933 LEMINGTON AVE, PITTSBURGH, PA, 15206",51646345,"L"
273403,"6933 MUNN LAKE DR","TUMWATER","WA",98501,46.985545605,-122.876026393,403,"6933 MUNN LAKE DR, TUMWATER, WA, 98501","Match","Non_Exact","6933 MUNN LAKE DR SE, TUMWATER, WA, 98501",624796967,"R"
273404,"6933 OPORTO MADRID BLVD SUITE A","BIRMINGHAM","AL",35206,33.5471195710001,-86.720643169,404,"6933 OPORTO MADRID BLVD SUITE A, BIRMINGHAM, AL, 35206","Match","Non_Exact","6933 OPORTO MADRID BLVD S, BIRMINGHAM, AL, 35206",651800628,"R"
273405,"6933 RADIANCE CIRCLE","CITRUS HEIGHTS","CA",95621,38.691965639,-121.321344119,405,"6933 RADIANCE CIRCLE, CITRUS HEIGHTS, CA, 95621","Match","Exact","6933 RADIANCE CIR, CITRUS HEIGHTS, CA, 95621",644398381,"L"
273406,"6933 S ULSTER CIR","ENGLEWOOD","CO",80112,NA,NA,406,"6933 S ULSTER CIR, ENGLEWOOD, CO, 80112","No_Match",NA,NA,NA,NA
273407,"6933 TANNERS CREEK DR","NORFOLK","VA",23513,NA,NA,407,"6933 TANNERS CREEK DR, NORFOLK, VA, 23513","Tie",NA,NA,NA,NA
273408,"6933 W BROWN DEER ROAD","MILWAUKEE","WI",53223,43.1776823280001,-87.995918328,408,"6933 W BROWN DEER ROAD, MILWAUKEE, WI, 53223","Match","Exact","6933 W BROWN DEER RD, MILWAUKEE, WI, 53223",77725282,"L"
273409,"6933 WATERS EDGE DRIVE","STONE MOUNTAIN","GA",30087,33.796285266,-84.101831854,409,"6933 WATERS EDGE DRIVE, STONE MOUNTAIN, GA, 30087","Match","Exact","6933 WATERS EDGE DR, STONE MOUNTAIN, GA, 30087",23389081,"L"
273410,"6934 BROADWAY AVENUE","WHITTIER","CA",90606,NA,NA,410,"6934 BROADWAY AVENUE, WHITTIER, CA, 90606","No_Match",NA,NA,NA,NA
273411,"6934 BUIST AVENUE","PHILADELPHIA","PA",19142,39.916759379,-75.234993185,411,"6934 BUIST AVENUE, PHILADELPHIA, PA, 19142","Match","Exact","6934 BUIST AVE, PHILADELPHIA, PA, 19142",131409307,"L"
273412,"6934 CANBY AVE SUITE 109","RESEDA","CA",91335,34.1962429180001,-118.534721145,412,"6934 CANBY AVE SUITE 109, RESEDA, CA, 91335","Match","Exact","6934 CANBY AVE, RESEDA, CA, 91335",141789751,"L"
273413,"6934 HWY 145","MERIDIAN","MS",39301,32.228234335,-88.7002578189999,413,"6934 HWY 145, MERIDIAN, MS, 39301","Match","Non_Exact","6934 STATE HWY 145, MERIDIAN, MS, 39301",607967231,"L"
273414,"6934 N SHERIDAN RD-1","CHICAGO","IL",60626,NA,NA,414,"6934 N SHERIDAN RD-1, CHICAGO, IL, 60626","No_Match",NA,NA,NA,NA
273415,"6934 PROVIDENCE CHURCH ROAD","GRAND RIDGE","FL",32442,30.7304115490001,-85.016540804,415,"6934 PROVIDENCE CHURCH ROAD, GRAND RIDGE, FL, 32442","Match","Exact","6934 PROVIDENCE CHURCH RD, GRAND RIDGE, FL, 32442",7186580,"R"
273416,"6934 SOUTH CRYSTAL DOWNS LANE 25E","WEST JORDAN","UT",84084,40.6251766730001,-111.983222771,416,"6934 SOUTH CRYSTAL DOWNS LANE 25E, WEST JORDAN, UT, 84084","Match","Exact","6934 S CRYSTAL DOWNS LN, WEST JORDAN, UT, 84084",176147069,"L"
273417,"6935 ALIANTE PARKWAY S 104 - 274","NORTH LAS VEGAS","NV",89084,36.2865517750001,-115.177334041,417,"6935 ALIANTE PARKWAY S 104 - 274, NORTH LAS VEGAS, NV, 89084","Match","Non_Exact","6935 ALIANTE PKWY, N LAS VEGAS, NV, 89084",632844421,"L"
273418,"6935 ALIANTE PARKWAY SUITE 104  243","NORTH LAS VEGAS","NV",89084,36.2865517750001,-115.177334041,418,"6935 ALIANTE PARKWAY SUITE 104  243, NORTH LAS VEGAS, NV, 89084","Match","Exact","6935 ALIANTE PKWY, N LAS VEGAS, NV, 89084",632844421,"L"
273419,"6935 ALIANTE PKWY 104-138","N LAS VEGAS","NV",89084,36.2865517750001,-115.177334041,419,"6935 ALIANTE PKWY 104-138, N LAS VEGAS, NV, 89084","Match","Exact","6935 ALIANTE PKWY, N LAS VEGAS, NV, 89084",632844421,"L"
273420,"6935 ALIANTE PKWY STE104-298","NORTH LAS VEGAS","NV",89084,36.2865517750001,-115.177334041,420,"6935 ALIANTE PKWY STE104-298, NORTH LAS VEGAS, NV, 89084","Match","Exact","6935 ALIANTE PKWY, N LAS VEGAS, NV, 89084",632844421,"L"
273421,"6935 COLUMBIA PIKE","ANNANDALE","VA",22003,38.8349362710001,-77.1847778809999,421,"6935 COLUMBIA PIKE, ANNANDALE, VA, 22003","Match","Exact","6935 COLUMBIA PIKE, ANNANDALE, VA, 22003",638227157,"L"
273422,"6935 E GOLD DUST AVE","SCOTTSDALE","AZ",85253,33.57850108,-111.931498055,422,"6935 E GOLD DUST AVE, SCOTTSDALE, AZ, 85253","Match","Exact","6935 E GOLD DUST AVE, SCOTTSDALE, AZ, 85253",128929109,"R"
273423,"6935 E HUBBELL ST","SCOTTSDALE","AZ",85257,33.4700339830001,-111.931468483,423,"6935 E HUBBELL ST, SCOTTSDALE, AZ, 85257","Match","Exact","6935 E HUBBELL ST, SCOTTSDALE, AZ, 85257",128225824,"R"
273424,"6935 LARKVALE DR","RANCHO PALOS VERDES","CA",90275,33.7771511130001,-118.401220277,424,"6935 LARKVALE DR, RANCHO PALOS VERDES, CA, 90275","Match","Exact","6935 LARKVALE DR, RANCHO PALOS VERDES, CA, 90275",141585229,"R"
273425,"6935 MERRYHILL DRIVE","INDIANAPOLIS","IN",46237,39.7006048480001,-86.0456451919999,425,"6935 MERRYHILL DRIVE, INDIANAPOLIS, IN, 46237","Match","Exact","6935 MERRYHILL DR, INDIANAPOLIS, IN, 46237",609603372,"R"
273426,"6935 OAKLAND MILLS ROAD SUITE J","COLUMBIA","MD",21045,39.180866006,-76.82801583,426,"6935 OAKLAND MILLS ROAD SUITE J, COLUMBIA, MD, 21045","Match","Exact","6935 OAKLAND MILLS RD, COLUMBIA, MD, 21045",158970210,"L"
273427,"6935 OVERLOOK RD APT 3B","MOBILE","AL",36618,30.7196105030001,-88.203226914,427,"6935 OVERLOOK RD APT 3B, MOBILE, AL, 36618","Match","Exact","6935 OVERLOOK RD, MOBILE, AL, 36618",652582319,"L"
273428,"6935 S EAST END AVE","CHICAGO","IL",60649,41.7690484010001,-87.582848418,428,"6935 S EAST END AVE, CHICAGO, IL, 60649","Match","Exact","6935 S EAST END AVE, CHICAGO, IL, 60649",111774614,"L"
273429,"6935 TIEDMANN PARK WAY","SUGAR LAND","TX",77479,29.5947280950001,-95.656793265,429,"6935 TIEDMANN PARK WAY, SUGAR LAND, TX, 77479","Match","Exact","6935 TIEDMANN PARK WAY, SUGAR LAND, TX, 77479",647984300,"L"
273430,"6936 BRIGGS DR","SACRAMENTO","CA",95828,38.5018838570001,-121.419044364,430,"6936 BRIGGS DR, SACRAMENTO, CA, 95828","Match","Exact","6936 BRIGGS DR, SACRAMENTO, CA, 95828",133337830,"R"
273431,"6936 COVE CIRCLE","COLUMBUS","GA",31907,32.4754346130001,-84.8735196219999,431,"6936 COVE CIRCLE, COLUMBUS, GA, 31907","Match","Exact","6936 COVE CIR, COLUMBUS, GA, 31907",98944699,"R"
273432,"6936 DOUBLEBRAND COURT","FREDERICK","MD",21703,39.389913307,-77.434055405,432,"6936 DOUBLEBRAND COURT, FREDERICK, MD, 21703","Match","Exact","6936 DOUBLEBRAND CT, FREDERICK, MD, 21703",60698137,"R"
273433,"6936 GASTON AVENUE","DALLAS","TX",75214,32.815399826,-96.739056724,433,"6936 GASTON AVENUE, DALLAS, TX, 75214","Match","Exact","6936 GASTON AVE, DALLAS, TX, 75214",102921238,"R"
273434,"6936 PINOAK DRIVE","CINCINNATI","OH",45239,39.2203052630001,-84.568359016,434,"6936 PINOAK DRIVE, CINCINNATI, OH, 45239","Match","Non_Exact","6936 PIN OAK DR, CINCINNATI, OH, 45239",103919555,"R"
273435,"6936 PRAIRIETOWN ROAD","EDWARDSVILLE","IL",62025,38.9083965560001,-89.930390212,435,"6936 PRAIRIETOWN ROAD, EDWARDSVILLE, IL, 62025","Match","Exact","6936 PRAIRIETOWN RD, EDWARDSVILLE, IL, 62025",651042902,"R"
273436,"6936 SUNGOLD DR","COLORADO SPRINGS","CO",80923,NA,NA,436,"6936 SUNGOLD DR, COLORADO SPRINGS, CO, 80923","No_Match",NA,NA,NA,NA
273437,"6936 ZELZAH AVE","RESEDA","CA",91335,34.1965392220001,-118.522467149,437,"6936 ZELZAH AVE, RESEDA, CA, 91335","Match","Exact","6936 ZELZAH AVE, RESEDA, CA, 91335",141555437,"R"
273438,"6937 BAY DRIVE SUITE 306","MIAMI BEACH","FL",33141,NA,NA,438,"6937 BAY DRIVE SUITE 306, MIAMI BEACH, FL, 33141","No_Match",NA,NA,NA,NA
273439,"6937 EDEN MILL RD","WOODBINE","MD",21797,39.383871416,-77.0267806859999,439,"6937 EDEN MILL RD, WOODBINE, MD, 21797","Match","Exact","6937 EDEN MILL RD, WOODBINE, MD, 21797",209395995,"L"
273440,"6937 INDIANA AVENUE","FORT WORTH","TX",76137,32.865393699,-97.278212551,440,"6937 INDIANA AVENUE, FORT WORTH, TX, 76137","Match","Exact","6937 INDIANA AVE, FORT WORTH, TX, 76137",102086540,"L"
273441,"6937 LAMONT DR","LANHAM","MD",20706,38.9808825970001,-76.8812542009999,441,"6937 LAMONT DR, LANHAM, MD, 20706","Match","Exact","6937 LAMONT DR, LANHAM, MD, 20706",76308097,"R"
273442,"6937 SILVER LAKES DR","CELINA","OH",45822,40.546992518,-84.620249686,442,"6937 SILVER LAKES DR, CELINA, OH, 45822","Match","Exact","6937 SILVER LAKES DR, CELINA, OH, 45822",43092987,"L"
273443,"6937 VILLAGE PARKWAY NO 2042","DUBLIN","CA",94568,37.7087406860001,-121.925814501,443,"6937 VILLAGE PARKWAY NO 2042, DUBLIN, CA, 94568","Match","Non_Exact","6937 VILLAGE PKWY, DUBLIN, CA, 94568",606314594,"R"
273444,"6937 VILLAGE PKWY  STE 2906","DUBLIN","CA",94568,37.7087406860001,-121.925814501,444,"6937 VILLAGE PKWY  STE 2906, DUBLIN, CA, 94568","Match","Exact","6937 VILLAGE PKWY, DUBLIN, CA, 94568",606314594,"R"
273445,"6937 VILLAGE PKWY 2253","DUBLIN","CA",94568,37.7087406860001,-121.925814501,445,"6937 VILLAGE PKWY 2253, DUBLIN, CA, 94568","Match","Exact","6937 VILLAGE PKWY, DUBLIN, CA, 94568",606314594,"R"
273446,"6937 VILLAGE PKWY UNIT 2121","DUBLIN","CA",94568,37.7087406860001,-121.925814501,446,"6937 VILLAGE PKWY UNIT 2121, DUBLIN, CA, 94568","Match","Exact","6937 VILLAGE PKWY, DUBLIN, CA, 94568",606314594,"R"
273447,"6937 W MILL RD","MILWAUKEE","WI",53218,43.1340638140001,-87.9980179089999,447,"6937 W MILL RD, MILWAUKEE, WI, 53218","Match","Exact","6937 W MILL RD, MILWAUKEE, WI, 53218",653016423,"L"
273448,"6937 WEST 29TH AVENUE SUITE 103","HIALEAH","FL",33018,25.885802207,-80.3418115699999,448,"6937 WEST 29TH AVENUE SUITE 103, HIALEAH, FL, 33018","Match","Exact","6937 W 29TH AVE, HIALEAH, FL, 33018",116318243,"L"
273449,"6937 WYOMING AVENUE","LA MESA","CA",91942,32.7793266400001,-117.046653122,449,"6937 WYOMING AVENUE, LA MESA, CA, 91942","Match","Exact","6937 WYOMING AVE, LA MESA, CA, 91942",195323803,"R"
273450,"6938 FOUNTAIN LILLY DR","HUMBLE","TX",77346,29.98313763,-95.174112252,450,"6938 FOUNTAIN LILLY DR, HUMBLE, TX, 77346","Match","Exact","6938 FOUNTAIN LILLY DR, HUMBLE, TX, 77346",627954206,"L"
273451,"6938 MCPHERSON BLVD","PITTSBURGH","PA",15208,40.453767837,-79.905272511,451,"6938 MCPHERSON BLVD, PITTSBURGH, PA, 15208","Match","Exact","6938 MCPHERSON BLVD, PITTSBURGH, PA, 15208",51647146,"R"
273452,"6938 RED OAK DR","KATY","TX",77493,NA,NA,452,"6938 RED OAK DR, KATY, TX, 77493","No_Match",NA,NA,NA,NA
273453,"6938 WILDLIFE RD","MALIBU","CA",90265,34.0131356410001,-118.793719269,453,"6938 WILDLIFE RD, MALIBU, CA, 90265","Match","Exact","6938 WILDLIFE RD, MALIBU, CA, 90265",142785531,"L"
273454,"6938","BERKELEY","CA",94705,NA,NA,454,"6938, BERKELEY, CA, 94705","No_Match",NA,NA,NA,NA
273455,"6939 E IRONWOOD DR","SCOTTSDALE","AZ",85266,33.7348788840001,-111.931675906,455,"6939 E IRONWOOD DR, SCOTTSDALE, AZ, 85266","Match","Exact","6939 E IRONWOOD DR, SCOTTSDALE, AZ, 85266",243980689,"R"
273456,"6939 SCHAEFER AVE SUITE D","CHINO","CA",91710,34.004793502,-117.653274996,456,"6939 SCHAEFER AVE SUITE D, CHINO, CA, 91710","Match","Exact","6939 SCHAEFER AVE, CHINO, CA, 91710",638615516,"R"
273457,"6939 SEPERONE ST","ORLANDO","FL",32819,28.461811299,-81.4794114859999,457,"6939 SEPERONE ST, ORLANDO, FL, 32819","Match","Non_Exact","6939 SPERONE ST, ORLANDO, FL, 32819",626958717,"L"
273458,"694 CASTLE WAY","WINNEMUCCA","NV",89445,40.9812516800001,-117.749971684,458,"694 CASTLE WAY, WINNEMUCCA, NV, 89445","Match","Exact","694 CASTLE WAY, WINNEMUCCA, NV, 89445",170922089,"R"
273459,"694 CLOVE RD","STATEN ISLAND","NY",10310,40.6248603000001,-74.117926054,459,"694 CLOVE RD, STATEN ISLAND, NY, 10310","Match","Exact","694 CLOVE RD, STATEN ISLAND, NY, 10310",59883044,"R"
273460,"694 CROSS CREEK DRIVE","CREVE COEUR","MO",63141,38.669535081,-90.456515721,460,"694 CROSS CREEK DRIVE, CREVE COEUR, MO, 63141","Match","Exact","694 CROSS CREEK DR, CREVE COEUR, MO, 63141",100124487,"R"
273461,"694 EAGLE DRIVE","LOVELAND","CO",80537,40.3860506500001,-105.100693661,461,"694 EAGLE DRIVE, LOVELAND, CO, 80537","Match","Exact","694 EAGLE DR, LOVELAND, CO, 80537",640626312,"R"
273462,"694 FOREST AVE","STATEN ISLAND","NY",10310,40.6294788210001,-74.112288169,462,"694 FOREST AVE, STATEN ISLAND, NY, 10310","Match","Exact","694 FOREST AVE, STATEN ISLAND, NY, 10310",59878324,"L"
273463,"694 LANCE VIEW LN","LAWRENCEVILLE","GA",30045,33.964055015,-83.938733417,463,"694 LANCE VIEW LN, LAWRENCEVILLE, GA, 30045","Match","Exact","694 LANCE VIEW LN, LAWRENCEVILLE, GA, 30045",647919722,"R"
273464,"694 MAIN STREET  PO BOX 305","ANITA","IA",50020,NA,NA,464,"694 MAIN STREET  PO BOX 305, ANITA, IA, 50020","No_Match",NA,NA,NA,NA
273465,"694 MAIN STREET PO BOX 305","ANITA","IA",50020,NA,NA,465,"694 MAIN STREET PO BOX 305, ANITA, IA, 50020","No_Match",NA,NA,NA,NA
273466,"694 MAIN STREET","ANITA","IA",50020,NA,NA,466,"694 MAIN STREET, ANITA, IA, 50020","No_Match",NA,NA,NA,NA
273467,"694 N BAYWOOD AVE","SAN JOSE","CA",95128,37.3285469420001,-121.945176072,467,"694 N BAYWOOD AVE, SAN JOSE, CA, 95128","Match","Exact","694 N BAYWOOD AVE, SAN JOSE, CA, 95128",122902870,"R"
273468,"694 PEAR DR","FRUITA","CO",81521,39.1694731220001,-108.731445372,468,"694 PEAR DR, FRUITA, CO, 81521","Match","Exact","694 PEAR DR, FRUITA, CO, 81521",122460745,"L"
273469,"694 POINTE DRIVE","CRYSTAL LAKE","IL",60014,42.224210681,-88.294335199,469,"694 POINTE DRIVE, CRYSTAL LAKE, IL, 60014","Match","Exact","694 POINTE DR, CRYSTAL LAKE, IL, 60014",631788721,"R"
273470,"694 RANCHEROS DR","SAN MARCOS","CA",92069,33.1400161110001,-117.143747576,470,"694 RANCHEROS DR, SAN MARCOS, CA, 92069","Match","Exact","694 RANCHEROS DR, SAN MARCOS, CA, 92069",195731569,"L"
273471,"694 ROAD SS","SUBLETTE","KS",67877,NA,NA,471,"694 ROAD SS, SUBLETTE, KS, 67877","No_Match",NA,NA,NA,NA
273472,"694 SOCS LANE","CAPE MAY","NJ",8204,38.953078938,-74.934598561,472,"694 SOCS LANE, CAPE MAY, NJ, 8204","Match","Exact","694 SOCS LN, CAPE MAY, NJ, 08204",624756487,"L"
273473,"694 STERLING PLACE","BROOKLYN","NY",11213,40.6730038220001,-73.955590969,473,"694 STERLING PLACE, BROOKLYN, NY, 11213","Match","Non_Exact","694 STERLING PL, BROOKLYN, NY, 11216",652211192,"R"
273474,"694 SUGARTOWN RD","MALVERN","PA",19355,39.999432696,-75.5077114489999,474,"694 SUGARTOWN RD, MALVERN, PA, 19355","Match","Exact","694 SUGARTOWN RD, MALVERN, PA, 19355",179497799,"R"
273475,"694 TALMADGE AVENUE","LANCASTER","OH",43130,39.7058338570001,-82.613039665,475,"694 TALMADGE AVENUE, LANCASTER, OH, 43130","Match","Exact","694 TALMADGE AVE, LANCASTER, OH, 43130",37223359,"R"
273476,"694 VOLUNTEER DRIVE","TUSCUMBIA","AL",35674,34.7295872620001,-87.7172565989999,476,"694 VOLUNTEER DRIVE, TUSCUMBIA, AL, 35674","Match","Exact","694 VOLUNTEER DR, TUSCUMBIA, AL, 35674",40776723,"R"
273477,"694 W CHERRY RIDGE CT","GRANTSVILLE","UT",84029,40.5967750130001,-112.484747538,477,"694 W CHERRY RIDGE CT, GRANTSVILLE, UT, 84029","Match","Exact","694 CHERRY RIDGE CT, GRANTSVILLE, UT, 84029",625137025,"R"
273478,"694 WEST 28 STREET","HIALEAH","FL",33010,25.8470694530001,-80.296032342,478,"694 WEST 28 STREET, HIALEAH, FL, 33010","Match","Exact","694 W 28TH ST, HIALEAH, FL, 33010",652511730,"L"
273479,"694","UKIAH","CA",95482,NA,NA,479,"694, UKIAH, CA, 95482","No_Match",NA,NA,NA,NA
273480,"6940 BEACH BLVD UNIT D601","BUENA PARK","CA",90621,33.859860122,-117.998020612,480,"6940 BEACH BLVD UNIT D601, BUENA PARK, CA, 90621","Match","Exact","6940 BEACH BLVD, BUENA PARK, CA, 90621",609052673,"L"
273481,"6940 BISMARCK ROAD","COCOA","FL",32927,NA,NA,481,"6940 BISMARCK ROAD, COCOA, FL, 32927","No_Match",NA,NA,NA,NA
273482,"6940 DESTINY DR","ROCKLIN","CA",95677,38.7775750920001,-121.260784991,482,"6940 DESTINY DR, ROCKLIN, CA, 95677","Match","Exact","6940 DESTINY DR, ROCKLIN, CA, 95677",106812883,"L"
273483,"6940 E FLORENCE LN","MESA","AZ",85208,33.39546592,-111.681462942,483,"6940 E FLORENCE LN, MESA, AZ, 85208","Match","Exact","6940 E FLORENCE LN, MESA, AZ, 85208",128252730,"L"
273484,"6940 E GIRARD AVE UNIT 308","DENVER","CO",80224,39.6545157510001,-104.906929339,484,"6940 E GIRARD AVE UNIT 308, DENVER, CO, 80224","Match","Non_Exact","6940 E GIRARD AVE, DENVER, CO, 80224",647269171,"R"
273485,"6940 N 63RD STREET","LONGMONT","CO",80503,40.100376608,-105.206872603,485,"6940 N 63RD STREET, LONGMONT, CO, 80503","Match","Exact","6940 N 63RD ST, LONGMONT, CO, 80503",188161157,"R"
273486,"6940 NW 82ND STREET","TAMARAC","FL",33321,26.2256211930001,-80.2451605209999,486,"6940 NW 82ND STREET, TAMARAC, FL, 33321","Match","Exact","6940 NW 82ND ST, TAMARAC, FL, 33321",114691664,"L"
273487,"6940 OXFORD GETTYSBURG RD","NEW PARIS","OH",45347,39.8393457120001,-84.723249475,487,"6940 OXFORD GETTYSBURG RD, NEW PARIS, OH, 45347","Match","Exact","6940 OXFORD GETTYSBURG RD, NEW PARIS, OH, 45347",54599046,"L"
273488,"6940 W DIVERSEY AVE","CHICAGO","IL",60707,41.930840302,-87.799481309,488,"6940 W DIVERSEY AVE, CHICAGO, IL, 60707","Match","Exact","6940 W DIVERSEY AVE, CHICAGO, IL, 60707",111752131,"R"
273489,"6941 E 121ST ST S","BIXBY","OK",74008,35.9882862810001,-95.903417941,489,"6941 E 121ST ST S, BIXBY, OK, 74008","Match","Exact","6941 E 121ST ST S, BIXBY, OK, 74008",650437169,"L"
273490,"6941 E FOREST HILL DRIVE","ELLSWORTH","MI",49720,45.169193842,-85.2512709809999,490,"6941 E FOREST HILL DRIVE, ELLSWORTH, MI, 49720","Match","Non_Exact","6941 FOREST HILL DR, ELLSWORTH, MI, 49729",145807546,"L"
273491,"6941 N MONTANA AVE","HELENA","MT",59602,46.68280932,-112.021192385,491,"6941 N MONTANA AVE, HELENA, MT, 59602","Match","Exact","6941 N MONTANA AVE, HELENA, MT, 59602",649876467,"R"
273492,"6941 NORTH CENTRAL STREET","PORTLAND","OR",97203,45.588326765,-122.738198935,492,"6941 NORTH CENTRAL STREET, PORTLAND, OR, 97203","Match","Exact","6941 N CENTRAL ST, PORTLAND, OR, 97203",157493902,"R"
273493,"6941 NORTH TRENHOLM RD SUITE B2","COLUMBIA","SC",29206,34.058780024,-80.956970158,493,"6941 NORTH TRENHOLM RD SUITE B2, COLUMBIA, SC, 29206","Match","Exact","6941 N TRENHOLM RD, COLUMBIA, SC, 29206",645314353,"L"
273494,"6941 NORTH TRENHOLM ROAD SUITE Q2","COLUMBIA","SC",29206,34.058780024,-80.956970158,494,"6941 NORTH TRENHOLM ROAD SUITE Q2, COLUMBIA, SC, 29206","Match","Exact","6941 N TRENHOLM RD, COLUMBIA, SC, 29206",645314353,"L"
273495,"6941 ROSEMARY LN","CINCINNATI","OH",45236,39.193861209,-84.386759673,495,"6941 ROSEMARY LN, CINCINNATI, OH, 45236","Match","Exact","6941 ROSEMARY LN, CINCINNATI, OH, 45236",103932563,"L"
273496,"6941 STATE ROUTE 753","HILLSBORO","OH",45133,39.202711999,-83.43491202,496,"6941 STATE ROUTE 753, HILLSBORO, OH, 45133","Match","Exact","6941 STATE RTE 753, HILLSBORO, OH, 45133",613698588,"L"
273497,"6941 SW 196TH AVENUE SUITE 22","FT. LAUDERDALE","FL",33332,26.0312576760001,-80.409430357,497,"6941 SW 196TH AVENUE SUITE 22, FT. LAUDERDALE, FL, 33332","Match","Non_Exact","6941 SW 196TH AVE, FORT LAUDERDALE, FL, 33332",608971119,"L"
273498,"6941 WOODSTREAM LANE","LANHAM","MD",20706,38.9856750710001,-76.837542393,498,"6941 WOODSTREAM LANE, LANHAM, MD, 20706","Match","Exact","6941 WOODSTREAM LN, LANHAM, MD, 20706",647287789,"R"
273499,"6942 BERYL STREET","RANCHO CUCAMONGA","CA",91701,34.1278207230001,-117.60717461,499,"6942 BERYL STREET, RANCHO CUCAMONGA, CA, 91701","Match","Exact","6942 BERYL ST, RANCHO CUCAMONGA, CA, 91701",614811627,"R"
273500,"6942 CHESWICK DRIVE","RIVERDALE","GA",30296,33.5638178880001,-84.422162003,500,"6942 CHESWICK DRIVE, RIVERDALE, GA, 30296","Match","Exact","6942 CHESWICK DR, RIVERDALE, GA, 30296",23327778,"R"
