"ID","Address","City","State","Zip","lat","long","id","input_address","match_indicator","match_type","matched_address","tiger_line_id","tiger_side"
339501,"PO BOX 215","TROY","PA",16947,NA,NA,1,"PO BOX 215, TROY, PA, 16947","No_Match",NA,NA,NA,NA
339502,"PO BOX 215","VERMONTVILLE","MI",49096,NA,NA,2,"PO BOX 215, VERMONTVILLE, MI, 49096","No_Match",NA,NA,NA,NA
339503,"PO BOX 215","VIENNA","VA",22183,NA,NA,3,"PO BOX 215, VIENNA, VA, 22183","No_Match",NA,NA,NA,NA
339504,"PO BOX 215","WARRINGTON","PA",18976,NA,NA,4,"PO BOX 215, WARRINGTON, PA, 18976","No_Match",NA,NA,NA,NA
339505,"PO BOX 215","WEBSTER","FL",33597,NA,NA,5,"PO BOX 215, WEBSTER, FL, 33597","No_Match",NA,NA,NA,NA
339506,"PO BOX 2150","HYATTSVILLE","MD",20785,NA,NA,6,"PO BOX 2150, HYATTSVILLE, MD, 20785","No_Match",NA,NA,NA,NA
339507,"PO BOX 2150","TEANECK","NJ",7666,NA,NA,7,"PO BOX 2150, TEANECK, NJ, 7666","No_Match",NA,NA,NA,NA
339508,"PO BOX 21509","MESA","AZ",85277,NA,NA,8,"PO BOX 21509, MESA, AZ, 85277","No_Match",NA,NA,NA,NA
339509,"PO BOX 2151","KYLE","TX",78640,NA,NA,9,"PO BOX 2151, KYLE, TX, 78640","No_Match",NA,NA,NA,NA
339510,"PO BOX 2151","MASHPEE","MA",2649,NA,NA,10,"PO BOX 2151, MASHPEE, MA, 2649","No_Match",NA,NA,NA,NA
339511,"PO BOX 2151","POQUSON","VA",23662,NA,NA,11,"PO BOX 2151, POQUSON, VA, 23662","No_Match",NA,NA,NA,NA
339512,"PO BOX 2151","TUALATIN","OR",97062,NA,NA,12,"PO BOX 2151, TUALATIN, OR, 97062","No_Match",NA,NA,NA,NA
339513,"PO BOX 21514","DETROIT","MI",48221,NA,NA,13,"PO BOX 21514, DETROIT, MI, 48221","No_Match",NA,NA,NA,NA
339514,"PO BOX 2152","BIRMINGHAM","MI",48012,NA,NA,14,"PO BOX 2152, BIRMINGHAM, MI, 48012","No_Match",NA,NA,NA,NA
339515,"PO BOX 2152","LEXINGTON","KY",40588,NA,NA,15,"PO BOX 2152, LEXINGTON, KY, 40588","No_Match",NA,NA,NA,NA
339516,"PO BOX 2152","MOSES LAKE","WA",98837,NA,NA,16,"PO BOX 2152, MOSES LAKE, WA, 98837","No_Match",NA,NA,NA,NA
339517,"PO BOX 2152","WINDHAM","ME",4062,NA,NA,17,"PO BOX 2152, WINDHAM, ME, 4062","No_Match",NA,NA,NA,NA
339518,"PO BOX 2153","BOWIE","MD",20718,NA,NA,18,"PO BOX 2153, BOWIE, MD, 20718","No_Match",NA,NA,NA,NA
339519,"PO BOX 2153","CAMPTON","NH",3223,NA,NA,19,"PO BOX 2153, CAMPTON, NH, 3223","No_Match",NA,NA,NA,NA
339520,"PO BOX 2153","DAYTON","OH",45401,NA,NA,20,"PO BOX 2153, DAYTON, OH, 45401","No_Match",NA,NA,NA,NA
339521,"PO BOX 2153","EDINBURG","TX",78540,NA,NA,21,"PO BOX 2153, EDINBURG, TX, 78540","No_Match",NA,NA,NA,NA
339522,"PO BOX 2153","GALVESTON","TX",77553,NA,NA,22,"PO BOX 2153, GALVESTON, TX, 77553","No_Match",NA,NA,NA,NA
339523,"PO BOX 2153","GREENFIELD","CA",93927,NA,NA,23,"PO BOX 2153, GREENFIELD, CA, 93927","No_Match",NA,NA,NA,NA
339524,"PO BOX 21531","CHARLESTON","SC",29413,NA,NA,24,"PO BOX 21531, CHARLESTON, SC, 29413","No_Match",NA,NA,NA,NA
339525,"PO BOX 2154","ANDERSON","IN",46018,NA,NA,25,"PO BOX 2154, ANDERSON, IN, 46018","No_Match",NA,NA,NA,NA
339526,"PO BOX 2154","ARDMORE","OK",73402,NA,NA,26,"PO BOX 2154, ARDMORE, OK, 73402","No_Match",NA,NA,NA,NA
339527,"PO BOX 2154","BEND","OR",97709,NA,NA,27,"PO BOX 2154, BEND, OR, 97709","No_Match",NA,NA,NA,NA
339528,"PO BOX 2154","FERNDALE","WA",98248,NA,NA,28,"PO BOX 2154, FERNDALE, WA, 98248","No_Match",NA,NA,NA,NA
339529,"PO BOX 2154","HEALDSBURG","CA",95448,NA,NA,29,"PO BOX 2154, HEALDSBURG, CA, 95448","No_Match",NA,NA,NA,NA
339530,"PO BOX 2154","LANDOVER HLS","MD",20784,NA,NA,30,"PO BOX 2154, LANDOVER HLS, MD, 20784","No_Match",NA,NA,NA,NA
339531,"PO BOX 2154","SOUTH PORTLAND","ME",4116,NA,NA,31,"PO BOX 2154, SOUTH PORTLAND, ME, 4116","No_Match",NA,NA,NA,NA
339532,"PO BOX 21543","PHILADELPHIA","PA",19131,NA,NA,32,"PO BOX 21543, PHILADELPHIA, PA, 19131","No_Match",NA,NA,NA,NA
339533,"PO BOX 21549","LONG BEACH","CA",90801,NA,NA,33,"PO BOX 21549, LONG BEACH, CA, 90801","No_Match",NA,NA,NA,NA
339534,"PO BOX 2155","GLEN BURNIE","MD",21060,NA,NA,34,"PO BOX 2155, GLEN BURNIE, MD, 21060","No_Match",NA,NA,NA,NA
339535,"PO BOX 2155","HAGERSTOWN","MD",21742,NA,NA,35,"PO BOX 2155, HAGERSTOWN, MD, 21742","No_Match",NA,NA,NA,NA
339536,"PO BOX 2155","SOUTH PADRE ISLAND","TX",78597,NA,NA,36,"PO BOX 2155, SOUTH PADRE ISLAND, TX, 78597","No_Match",NA,NA,NA,NA
339537,"PO BOX 2155","STILLWATER","MN",55082,NA,NA,37,"PO BOX 2155, STILLWATER, MN, 55082","No_Match",NA,NA,NA,NA
339538,"PO BOX 2155","WINDSOR","CA",95492,NA,NA,38,"PO BOX 2155, WINDSOR, CA, 95492","No_Match",NA,NA,NA,NA
339539,"PO BOX 21550","HOUSTON","TX",77226,NA,NA,39,"PO BOX 21550, HOUSTON, TX, 77226","No_Match",NA,NA,NA,NA
339540,"PO BOX 21553","DETROIT","MI",48221,NA,NA,40,"PO BOX 21553, DETROIT, MI, 48221","No_Match",NA,NA,NA,NA
339541,"PO BOX 21558","HILTON HEAD ISLAND","SC",29925,NA,NA,41,"PO BOX 21558, HILTON HEAD ISLAND, SC, 29925","No_Match",NA,NA,NA,NA
339542,"PO BOX 2156","NEWBURGH","NY",12550,NA,NA,42,"PO BOX 2156, NEWBURGH, NY, 12550","No_Match",NA,NA,NA,NA
339543,"PO BOX 2156","SCOTIA","NY",12302,NA,NA,43,"PO BOX 2156, SCOTIA, NY, 12302","No_Match",NA,NA,NA,NA
339544,"PO BOX 21569","CHATTANOOGA","TN",37424,NA,NA,44,"PO BOX 21569, CHATTANOOGA, TN, 37424","No_Match",NA,NA,NA,NA
339545,"PO BOX 2157","LEWISTON","ID",83501,NA,NA,45,"PO BOX 2157, LEWISTON, ID, 83501","No_Match",NA,NA,NA,NA
339546,"PO BOX 2157","MISSOURI CITY","TX",77489,NA,NA,46,"PO BOX 2157, MISSOURI CITY, TX, 77489","No_Match",NA,NA,NA,NA
339547,"PO BOX 215713","SACRAMENTO","CA",95821,NA,NA,47,"PO BOX 215713, SACRAMENTO, CA, 95821","No_Match",NA,NA,NA,NA
339548,"PO BOX 21584","COLUMBIA","SC",29221,NA,NA,48,"PO BOX 21584, COLUMBIA, SC, 29221","No_Match",NA,NA,NA,NA
339549,"PO BOX 2159","EDMESTON","NY",13335,NA,NA,49,"PO BOX 2159, EDMESTON, NY, 13335","No_Match",NA,NA,NA,NA
339550,"PO BOX 21592","OAKLAND","CA",94620,NA,NA,50,"PO BOX 21592, OAKLAND, CA, 94620","No_Match",NA,NA,NA,NA
339551,"PO BOX 21594","BAKERSFIELD","CA",93390,NA,NA,51,"PO BOX 21594, BAKERSFIELD, CA, 93390","No_Match",NA,NA,NA,NA
339552,"PO BOX 216","ALMO","ID",83312,NA,NA,52,"PO BOX 216, ALMO, ID, 83312","No_Match",NA,NA,NA,NA
339553,"PO BOX 216","BELCHERTOWN","MA",1007,NA,NA,53,"PO BOX 216, BELCHERTOWN, MA, 1007","No_Match",NA,NA,NA,NA
339554,"PO BOX 216","COLE CAMP","MO",65325,NA,NA,54,"PO BOX 216, COLE CAMP, MO, 65325","No_Match",NA,NA,NA,NA
339555,"PO BOX 216","DAVIS","CA",95617,NA,NA,55,"PO BOX 216, DAVIS, CA, 95617","No_Match",NA,NA,NA,NA
339556,"PO BOX 216","ESTACADA","OR",97023,NA,NA,56,"PO BOX 216, ESTACADA, OR, 97023","No_Match",NA,NA,NA,NA
339557,"PO BOX 216","GRAND TOWER","IL",62942,NA,NA,57,"PO BOX 216, GRAND TOWER, IL, 62942","No_Match",NA,NA,NA,NA
339558,"PO BOX 216","LAKE DELTON","WI",53940,NA,NA,58,"PO BOX 216, LAKE DELTON, WI, 53940","No_Match",NA,NA,NA,NA
339559,"PO BOX 216","LANSING","IL",60438,NA,NA,59,"PO BOX 216, LANSING, IL, 60438","No_Match",NA,NA,NA,NA
339560,"PO BOX 216","LEDYARD","CT",6339,NA,NA,60,"PO BOX 216, LEDYARD, CT, 6339","No_Match",NA,NA,NA,NA
339561,"PO BOX 216","MILAN","IN",47031,NA,NA,61,"PO BOX 216, MILAN, IN, 47031","No_Match",NA,NA,NA,NA
339562,"PO BOX 216","OAKDALE","CT",6370,NA,NA,62,"PO BOX 216, OAKDALE, CT, 6370","No_Match",NA,NA,NA,NA
339563,"PO BOX 216","PARRISH","FL",34219,NA,NA,63,"PO BOX 216, PARRISH, FL, 34219","No_Match",NA,NA,NA,NA
339564,"PO BOX 216","RICHMOND","UT",84333,NA,NA,64,"PO BOX 216, RICHMOND, UT, 84333","No_Match",NA,NA,NA,NA
339565,"PO BOX 216","RIVERVIEW","FL",33568,NA,NA,65,"PO BOX 216, RIVERVIEW, FL, 33568","No_Match",NA,NA,NA,NA
339566,"PO BOX 216","SENECA FALLS","NY",13148,NA,NA,66,"PO BOX 216, SENECA FALLS, NY, 13148","No_Match",NA,NA,NA,NA
339567,"PO BOX 216","SPENCER","NY",14883,NA,NA,67,"PO BOX 216, SPENCER, NY, 14883","No_Match",NA,NA,NA,NA
339568,"PO BOX 216","TAYLORSVILLE","GA",30178,NA,NA,68,"PO BOX 216, TAYLORSVILLE, GA, 30178","No_Match",NA,NA,NA,NA
339569,"PO BOX 216","WADSWORTH","OH",44282,NA,NA,69,"PO BOX 216, WADSWORTH, OH, 44282","No_Match",NA,NA,NA,NA
339570,"PO BOX 2160","CHEYENNE","WY",82003,NA,NA,70,"PO BOX 2160, CHEYENNE, WY, 82003","No_Match",NA,NA,NA,NA
339571,"PO BOX 21603","BILLINGS","MT",59102,NA,NA,71,"PO BOX 21603, BILLINGS, MT, 59102","No_Match",NA,NA,NA,NA
339572,"PO BOX 2161","CHIEFLAND","FL",32644,NA,NA,72,"PO BOX 2161, CHIEFLAND, FL, 32644","No_Match",NA,NA,NA,NA
339573,"PO BOX 2161","GREENSBORO","NC",27402,NA,NA,73,"PO BOX 2161, GREENSBORO, NC, 27402","No_Match",NA,NA,NA,NA
339574,"PO BOX 2161","TELLURIDE","CO",81435,NA,NA,74,"PO BOX 2161, TELLURIDE, CO, 81435","No_Match",NA,NA,NA,NA
339575,"PO BOX 2161","UPPER MARLBORO","MD",20773,NA,NA,75,"PO BOX 2161, UPPER MARLBORO, MD, 20773","No_Match",NA,NA,NA,NA
339576,"PO BOX 2162","BUCKLEY","WA",98321,NA,NA,76,"PO BOX 2162, BUCKLEY, WA, 98321","No_Match",NA,NA,NA,NA
339577,"PO BOX 2162","COLUMBIA","SC",29202,NA,NA,77,"PO BOX 2162, COLUMBIA, SC, 29202","No_Match",NA,NA,NA,NA
339578,"PO BOX 2162","HARTFORD","CT",6145,NA,NA,78,"PO BOX 2162, HARTFORD, CT, 6145","No_Match",NA,NA,NA,NA
339579,"PO BOX 2162","ST FRANCISVILLE","LA",70775,NA,NA,79,"PO BOX 2162, ST FRANCISVILLE, LA, 70775","No_Match",NA,NA,NA,NA
339580,"PO BOX 2163","COLTON","CA",92324,NA,NA,80,"PO BOX 2163, COLTON, CA, 92324","No_Match",NA,NA,NA,NA
339581,"PO BOX 2163","EVANSVILLE","IN",47728,NA,NA,81,"PO BOX 2163, EVANSVILLE, IN, 47728","No_Match",NA,NA,NA,NA
339582,"PO BOX 2163","LAS CRUCES","NM",88001,NA,NA,82,"PO BOX 2163, LAS CRUCES, NM, 88001","No_Match",NA,NA,NA,NA
339583,"PO BOX 21632","WASHINGTON","DC",20009,NA,NA,83,"PO BOX 21632, WASHINGTON, DC, 20009","No_Match",NA,NA,NA,NA
339584,"PO BOX 2164","ANACORTES","WA",98221,NA,NA,84,"PO BOX 2164, ANACORTES, WA, 98221","No_Match",NA,NA,NA,NA
339585,"PO BOX 2164","VASHON","WA",98070,NA,NA,85,"PO BOX 2164, VASHON, WA, 98070","No_Match",NA,NA,NA,NA
339586,"PO BOX 2165","ROGERS","AR",72757,NA,NA,86,"PO BOX 2165, ROGERS, AR, 72757","No_Match",NA,NA,NA,NA
339587,"PO BOX 2165","ROUND ROCK","TX",78680,NA,NA,87,"PO BOX 2165, ROUND ROCK, TX, 78680","No_Match",NA,NA,NA,NA
339588,"PO BOX 21650","ST. SIMONS ISLAND","GA",31522,NA,NA,88,"PO BOX 21650, ST. SIMONS ISLAND, GA, 31522","No_Match",NA,NA,NA,NA
339589,"PO BOX 2166","DESOTO","TX",75123,NA,NA,89,"PO BOX 2166, DESOTO, TX, 75123","No_Match",NA,NA,NA,NA
339590,"PO BOX 2166","WINDERMERE","FL",34786,NA,NA,90,"PO BOX 2166, WINDERMERE, FL, 34786","No_Match",NA,NA,NA,NA
339591,"PO BOX 2168","EAU CLAIRE","WI",54702,NA,NA,91,"PO BOX 2168, EAU CLAIRE, WI, 54702","No_Match",NA,NA,NA,NA
339592,"PO BOX 2168","FAIRPLAY","CO",80440,NA,NA,92,"PO BOX 2168, FAIRPLAY, CO, 80440","No_Match",NA,NA,NA,NA
339593,"PO BOX 2168","ROYAL OAK","MI",48068,NA,NA,93,"PO BOX 2168, ROYAL OAK, MI, 48068","No_Match",NA,NA,NA,NA
339594,"PO BOX 2168","SUN CITY","CA",92586,NA,NA,94,"PO BOX 2168, SUN CITY, CA, 92586","No_Match",NA,NA,NA,NA
339595,"PO BOX 21683","EAGAN","MN",55121,NA,NA,95,"PO BOX 21683, EAGAN, MN, 55121","No_Match",NA,NA,NA,NA
339596,"PO BOX 2169","NAPLES","FL",34106,NA,NA,96,"PO BOX 2169, NAPLES, FL, 34106","No_Match",NA,NA,NA,NA
339597,"PO BOX 217","ALVARADO","TX",76009,NA,NA,97,"PO BOX 217, ALVARADO, TX, 76009","No_Match",NA,NA,NA,NA
339598,"PO BOX 217","ANNAPOLIS JUNCTION","MD",20701,NA,NA,98,"PO BOX 217, ANNAPOLIS JUNCTION, MD, 20701","No_Match",NA,NA,NA,NA
339599,"PO BOX 217","ATHENA","OR",97813,NA,NA,99,"PO BOX 217, ATHENA, OR, 97813","No_Match",NA,NA,NA,NA
339600,"PO BOX 217","BATON ROUGE","LA",70821,NA,NA,100,"PO BOX 217, BATON ROUGE, LA, 70821","No_Match",NA,NA,NA,NA
339601,"PO BOX 217","BLOOMINGDALE","MI",49026,NA,NA,101,"PO BOX 217, BLOOMINGDALE, MI, 49026","No_Match",NA,NA,NA,NA
339602,"PO BOX 217","CHILHOWIE","VA",24319,NA,NA,102,"PO BOX 217, CHILHOWIE, VA, 24319","No_Match",NA,NA,NA,NA
339603,"PO BOX 217","CRUMPTON","MD",21628,NA,NA,103,"PO BOX 217, CRUMPTON, MD, 21628","No_Match",NA,NA,NA,NA
339604,"PO BOX 217","DODGE CENTER","MN",55927,NA,NA,104,"PO BOX 217, DODGE CENTER, MN, 55927","No_Match",NA,NA,NA,NA
339605,"PO BOX 217","FERRYSBURG","MI",49409,NA,NA,105,"PO BOX 217, FERRYSBURG, MI, 49409","No_Match",NA,NA,NA,NA
339606,"PO BOX 217","HINGHAM","WI",53031,NA,NA,106,"PO BOX 217, HINGHAM, WI, 53031","No_Match",NA,NA,NA,NA
339607,"PO BOX 217","JOURDANTON","TX",78026,NA,NA,107,"PO BOX 217, JOURDANTON, TX, 78026","No_Match",NA,NA,NA,NA
339608,"PO BOX 217","MELBOURNE","FL",32902,NA,NA,108,"PO BOX 217, MELBOURNE, FL, 32902","No_Match",NA,NA,NA,NA
339609,"PO BOX 217","NORTHVALE","NJ",7647,NA,NA,109,"PO BOX 217, NORTHVALE, NJ, 7647","No_Match",NA,NA,NA,NA
339610,"PO BOX 217","PORTLAND","TN",37148,NA,NA,110,"PO BOX 217, PORTLAND, TN, 37148","No_Match",NA,NA,NA,NA
339611,"PO BOX 217","ROSCOMMON","MI",48653,NA,NA,111,"PO BOX 217, ROSCOMMON, MI, 48653","No_Match",NA,NA,NA,NA
339612,"PO BOX 217","SENECA ROCKS","WV",26884,NA,NA,112,"PO BOX 217, SENECA ROCKS, WV, 26884","No_Match",NA,NA,NA,NA
339613,"PO BOX 217","SEWICKLEY","PA",15143,NA,NA,113,"PO BOX 217, SEWICKLEY, PA, 15143","No_Match",NA,NA,NA,NA
339614,"PO BOX 217","SOUND BEACH","NY",11789,NA,NA,114,"PO BOX 217, SOUND BEACH, NY, 11789","No_Match",NA,NA,NA,NA
339615,"PO BOX 217","SPRING VALLEY","WI",54767,NA,NA,115,"PO BOX 217, SPRING VALLEY, WI, 54767","No_Match",NA,NA,NA,NA
339616,"PO BOX 217","SPRINGFIELD","VA",22150,NA,NA,116,"PO BOX 217, SPRINGFIELD, VA, 22150","No_Match",NA,NA,NA,NA
339617,"PO BOX 217","SPRINGFIELD","WI",53176,NA,NA,117,"PO BOX 217, SPRINGFIELD, WI, 53176","No_Match",NA,NA,NA,NA
339618,"PO BOX 217","THOMPSON FALLS","MT",59873,NA,NA,118,"PO BOX 217, THOMPSON FALLS, MT, 59873","No_Match",NA,NA,NA,NA
339619,"PO BOX 217","TROPIC","UT",84776,NA,NA,119,"PO BOX 217, TROPIC, UT, 84776","No_Match",NA,NA,NA,NA
339620,"PO BOX 217","VIEQUES","PR",765,NA,NA,120,"PO BOX 217, VIEQUES, PR, 765","No_Match",NA,NA,NA,NA
339621,"PO BOX 217","WHITESVILLE","KY",42378,NA,NA,121,"PO BOX 217, WHITESVILLE, KY, 42378","No_Match",NA,NA,NA,NA
339622,"PO BOX 217","WILDWOOD","GA",30757,NA,NA,122,"PO BOX 217, WILDWOOD, GA, 30757","No_Match",NA,NA,NA,NA
339623,"PO BOX 2170","ELKTON","MD",21922,NA,NA,123,"PO BOX 2170, ELKTON, MD, 21922","No_Match",NA,NA,NA,NA
339624,"PO BOX 217061","CHARLOTTE","NC",28221,NA,NA,124,"PO BOX 217061, CHARLOTTE, NC, 28221","No_Match",NA,NA,NA,NA
339625,"PO BOX 2171","ANTIOCH","TN",37011,NA,NA,125,"PO BOX 2171, ANTIOCH, TN, 37011","No_Match",NA,NA,NA,NA
339626,"PO BOX 2171","BRANDON","FL",33509,NA,NA,126,"PO BOX 2171, BRANDON, FL, 33509","No_Match",NA,NA,NA,NA
339627,"PO BOX 21714","ST. LOUIS","MO",63109,NA,NA,127,"PO BOX 21714, ST. LOUIS, MO, 63109","No_Match",NA,NA,NA,NA
339628,"PO BOX 2172","DURANGO","CO",81302,NA,NA,128,"PO BOX 2172, DURANGO, CO, 81302","No_Match",NA,NA,NA,NA
339629,"PO BOX 2172","MALIBU","CA",90265,NA,NA,129,"PO BOX 2172, MALIBU, CA, 90265","No_Match",NA,NA,NA,NA
339630,"PO BOX 2172","SALT LAKE CITY","UT",84110,NA,NA,130,"PO BOX 2172, SALT LAKE CITY, UT, 84110","No_Match",NA,NA,NA,NA
339631,"PO BOX 21724","EUGENE","OR",97402,NA,NA,131,"PO BOX 21724, EUGENE, OR, 97402","No_Match",NA,NA,NA,NA
339632,"PO BOX 217290","CHARLOTTE","NC",28221,NA,NA,132,"PO BOX 217290, CHARLOTTE, NC, 28221","No_Match",NA,NA,NA,NA
339633,"PO BOX 2173","RAWLINS","WY",82301,NA,NA,133,"PO BOX 2173, RAWLINS, WY, 82301","No_Match",NA,NA,NA,NA
339634,"PO BOX 2173","SARASOTA","FL",34230,NA,NA,134,"PO BOX 2173, SARASOTA, FL, 34230","No_Match",NA,NA,NA,NA
339635,"PO BOX 2173","SNOHOMISH","WA",98291,NA,NA,135,"PO BOX 2173, SNOHOMISH, WA, 98291","No_Match",NA,NA,NA,NA
339636,"PO BOX 21738","EL CAJON","CA",92021,NA,NA,136,"PO BOX 21738, EL CAJON, CA, 92021","No_Match",NA,NA,NA,NA
339637,"PO BOX 2174","CHESTER","VA",23831,NA,NA,137,"PO BOX 2174, CHESTER, VA, 23831","No_Match",NA,NA,NA,NA
339638,"PO BOX 2174","FLORISSANT","MO",63032,NA,NA,138,"PO BOX 2174, FLORISSANT, MO, 63032","No_Match",NA,NA,NA,NA
339639,"PO BOX 2174","NEVADA CITY","CA",95959,NA,NA,139,"PO BOX 2174, NEVADA CITY, CA, 95959","No_Match",NA,NA,NA,NA
339640,"PO BOX 2175 EMPIRE ST PLAZA STA","ALBANY","NY",12220,NA,NA,140,"PO BOX 2175 EMPIRE ST PLAZA STA, ALBANY, NY, 12220","No_Match",NA,NA,NA,NA
339641,"PO BOX 2175","BEAUFORT","NC",28516,NA,NA,141,"PO BOX 2175, BEAUFORT, NC, 28516","No_Match",NA,NA,NA,NA
339642,"PO BOX 2175","BELTON","TX",76513,NA,NA,142,"PO BOX 2175, BELTON, TX, 76513","No_Match",NA,NA,NA,NA
339643,"PO BOX 2175","KIRKLAND","WA",98083,NA,NA,143,"PO BOX 2175, KIRKLAND, WA, 98083","No_Match",NA,NA,NA,NA
339644,"PO BOX 2175","MCKINNEY","TX",75070,NA,NA,144,"PO BOX 2175, MCKINNEY, TX, 75070","No_Match",NA,NA,NA,NA
339645,"PO BOX 2175","SPOKANE","WA",99210,NA,NA,145,"PO BOX 2175, SPOKANE, WA, 99210","No_Match",NA,NA,NA,NA
339646,"PO BOX 21756","ALBUQUERQUE","NM",87154,NA,NA,146,"PO BOX 21756, ALBUQUERQUE, NM, 87154","No_Match",NA,NA,NA,NA
339647,"PO BOX 2176","BANDON","OR",97411,NA,NA,147,"PO BOX 2176, BANDON, OR, 97411","No_Match",NA,NA,NA,NA
339648,"PO BOX 2176","LAUREL","MS",39442,NA,NA,148,"PO BOX 2176, LAUREL, MS, 39442","No_Match",NA,NA,NA,NA
339649,"PO BOX 2177","DUMAS","TX",79029,NA,NA,149,"PO BOX 2177, DUMAS, TX, 79029","No_Match",NA,NA,NA,NA
339650,"PO BOX 2179","LA JOLLA","CA",92038,NA,NA,150,"PO BOX 2179, LA JOLLA, CA, 92038","No_Match",NA,NA,NA,NA
339651,"PO BOX 21790","DETROIT","MI",48221,NA,NA,151,"PO BOX 21790, DETROIT, MI, 48221","No_Match",NA,NA,NA,NA
339652,"PO BOX 218","CUBA","MO",65453,NA,NA,152,"PO BOX 218, CUBA, MO, 65453","No_Match",NA,NA,NA,NA
339653,"PO BOX 218","DRYDEN","NY",13053,NA,NA,153,"PO BOX 218, DRYDEN, NY, 13053","No_Match",NA,NA,NA,NA
339654,"PO BOX 218","GARY","TX",75643,NA,NA,154,"PO BOX 218, GARY, TX, 75643","No_Match",NA,NA,NA,NA
339655,"PO BOX 218","GRAND RAPIDS","OH",43522,NA,NA,155,"PO BOX 218, GRAND RAPIDS, OH, 43522","No_Match",NA,NA,NA,NA
339656,"PO BOX 218","HUGHES SPRINGS","TX",75656,NA,NA,156,"PO BOX 218, HUGHES SPRINGS, TX, 75656","No_Match",NA,NA,NA,NA
339657,"PO BOX 218","LAUREL","MD",20707,NA,NA,157,"PO BOX 218, LAUREL, MD, 20707","No_Match",NA,NA,NA,NA
339658,"PO BOX 218","LAUREL","MT",59044,NA,NA,158,"PO BOX 218, LAUREL, MT, 59044","No_Match",NA,NA,NA,NA
339659,"PO BOX 218","LENOXDALE","MA",1242,NA,NA,159,"PO BOX 218, LENOXDALE, MA, 1242","No_Match",NA,NA,NA,NA
339660,"PO BOX 218","MCLAUGHLIN","SD",57642,NA,NA,160,"PO BOX 218, MCLAUGHLIN, SD, 57642","No_Match",NA,NA,NA,NA
339661,"PO BOX 218","NORTH HAMPTON","NH",3862,NA,NA,161,"PO BOX 218, NORTH HAMPTON, NH, 3862","No_Match",NA,NA,NA,NA
339662,"PO BOX 218","OWENSVILLE","MO",65066,NA,NA,162,"PO BOX 218, OWENSVILLE, MO, 65066","No_Match",NA,NA,NA,NA
339663,"PO BOX 218","PINE","AZ",85544,NA,NA,163,"PO BOX 218, PINE, AZ, 85544","No_Match",NA,NA,NA,NA
339664,"PO BOX 218","PUT IN BAY","OH",43456,NA,NA,164,"PO BOX 218, PUT IN BAY, OH, 43456","No_Match",NA,NA,NA,NA
339665,"PO BOX 218","SOUTHINGTON","OH",44470,NA,NA,165,"PO BOX 218, SOUTHINGTON, OH, 44470","No_Match",NA,NA,NA,NA
339666,"PO BOX 218","STAYTON","OR",97383,NA,NA,166,"PO BOX 218, STAYTON, OR, 97383","No_Match",NA,NA,NA,NA
339667,"PO BOX 218","TIVOLI","TX",77990,NA,NA,167,"PO BOX 218, TIVOLI, TX, 77990","No_Match",NA,NA,NA,NA
339668,"PO BOX 218","TROUTMAN","NC",28166,NA,NA,168,"PO BOX 218, TROUTMAN, NC, 28166","No_Match",NA,NA,NA,NA
339669,"PO BOX 218","TUSCOLA","TX",79562,NA,NA,169,"PO BOX 218, TUSCOLA, TX, 79562","No_Match",NA,NA,NA,NA
339670,"PO BOX 218","VINCENT","AL",35178,NA,NA,170,"PO BOX 218, VINCENT, AL, 35178","No_Match",NA,NA,NA,NA
339671,"PO BOX 218","WINTON","NC",27986,NA,NA,171,"PO BOX 218, WINTON, NC, 27986","No_Match",NA,NA,NA,NA
339672,"PO BOX 2180","DECATUR","GA",30031,NA,NA,172,"PO BOX 2180, DECATUR, GA, 30031","No_Match",NA,NA,NA,NA
339673,"PO BOX 21801","LITTLE ROCK","AR",72221,NA,NA,173,"PO BOX 21801, LITTLE ROCK, AR, 72221","No_Match",NA,NA,NA,NA
339674,"PO BOX 218037","NASHVILLE","TN",37221,NA,NA,174,"PO BOX 218037, NASHVILLE, TN, 37221","No_Match",NA,NA,NA,NA
339675,"PO BOX 21804","BEAUMONT","TX",77720,NA,NA,175,"PO BOX 21804, BEAUMONT, TX, 77720","No_Match",NA,NA,NA,NA
339676,"PO BOX 2181","BRYAN","TX",77806,NA,NA,176,"PO BOX 2181, BRYAN, TX, 77806","No_Match",NA,NA,NA,NA
339677,"PO BOX 2181","HARTFORD","CT",6145,NA,NA,177,"PO BOX 2181, HARTFORD, CT, 6145","No_Match",NA,NA,NA,NA
339678,"PO BOX 2181","WALNUT CREEK","CA",94595,NA,NA,178,"PO BOX 2181, WALNUT CREEK, CA, 94595","No_Match",NA,NA,NA,NA
339679,"PO BOX 21816","JUNEAU","AK",99802,NA,NA,179,"PO BOX 21816, JUNEAU, AK, 99802","No_Match",NA,NA,NA,NA
339680,"PO BOX 2182","BASALT","CO",81621,NA,NA,180,"PO BOX 2182, BASALT, CO, 81621","No_Match",NA,NA,NA,NA
339681,"PO BOX 2182","CUBA","NM",87013,NA,NA,181,"PO BOX 2182, CUBA, NM, 87013","No_Match",NA,NA,NA,NA
339682,"PO BOX 2182","GRANBURY","TX",76048,NA,NA,182,"PO BOX 2182, GRANBURY, TX, 76048","No_Match",NA,NA,NA,NA
339683,"PO BOX 2182","TUALATIN","OR",97062,NA,NA,183,"PO BOX 2182, TUALATIN, OR, 97062","No_Match",NA,NA,NA,NA
339684,"PO BOX 2183","HIGLEY","AZ",85236,NA,NA,184,"PO BOX 2183, HIGLEY, AZ, 85236","No_Match",NA,NA,NA,NA
339685,"PO BOX 2183","LAFAYETTE","LA",70502,NA,NA,185,"PO BOX 2183, LAFAYETTE, LA, 70502","No_Match",NA,NA,NA,NA
339686,"PO BOX 218395","HOUSTON","TX",77218,NA,NA,186,"PO BOX 218395, HOUSTON, TX, 77218","No_Match",NA,NA,NA,NA
339687,"PO BOX 2184","COLUMBIA","SC",29202,NA,NA,187,"PO BOX 2184, COLUMBIA, SC, 29202","No_Match",NA,NA,NA,NA
339688,"PO BOX 2184","LAFAYETTE","LA",70502,NA,NA,188,"PO BOX 2184, LAFAYETTE, LA, 70502","No_Match",NA,NA,NA,NA
339689,"PO BOX 2184","LENOX","MA",1240,NA,NA,189,"PO BOX 2184, LENOX, MA, 1240","No_Match",NA,NA,NA,NA
339690,"PO BOX 2184","SEDONA","CA",86339,NA,NA,190,"PO BOX 2184, SEDONA, CA, 86339","No_Match",NA,NA,NA,NA
339691,"PO BOX 2185","SACATON","AZ",85147,NA,NA,191,"PO BOX 2185, SACATON, AZ, 85147","No_Match",NA,NA,NA,NA
339692,"PO BOX 2185","SPRINGFIELD","OH",45501,NA,NA,192,"PO BOX 2185, SPRINGFIELD, OH, 45501","No_Match",NA,NA,NA,NA
339693,"PO BOX 2185","WHEELING","WV",26003,NA,NA,193,"PO BOX 2185, WHEELING, WV, 26003","No_Match",NA,NA,NA,NA
339694,"PO BOX 2186","DOYLESTOWN","PA",18901,NA,NA,194,"PO BOX 2186, DOYLESTOWN, PA, 18901","No_Match",NA,NA,NA,NA
339695,"PO BOX 2186","KOKOMO","IN",46904,NA,NA,195,"PO BOX 2186, KOKOMO, IN, 46904","No_Match",NA,NA,NA,NA
339696,"PO BOX 21861","BEAUMONT","TX",77720,NA,NA,196,"PO BOX 21861, BEAUMONT, TX, 77720","No_Match",NA,NA,NA,NA
339697,"PO BOX 21867","DETROIT","MI",48221,NA,NA,197,"PO BOX 21867, DETROIT, MI, 48221","No_Match",NA,NA,NA,NA
339698,"PO BOX 2187","TOMBALL","TX",77375,NA,NA,198,"PO BOX 2187, TOMBALL, TX, 77375","No_Match",NA,NA,NA,NA
339699,"PO BOX 2187","TULSA","OK",74102,NA,NA,199,"PO BOX 2187, TULSA, OK, 74102","No_Match",NA,NA,NA,NA
339700,"PO BOX 21871","LINCOLN","NE",68542,NA,NA,200,"PO BOX 21871, LINCOLN, NE, 68542","No_Match",NA,NA,NA,NA
339701,"PO BOX 218763","HOUSTON","TX",77218,NA,NA,201,"PO BOX 218763, HOUSTON, TX, 77218","No_Match",NA,NA,NA,NA
339702,"PO BOX 2188","KAMUELA","HI",96743,NA,NA,202,"PO BOX 2188, KAMUELA, HI, 96743","No_Match",NA,NA,NA,NA
339703,"PO BOX 2188","PULASKI","VA",24301,NA,NA,203,"PO BOX 2188, PULASKI, VA, 24301","No_Match",NA,NA,NA,NA
339704,"PO BOX 2189","HOWELL","MI",48843,NA,NA,204,"PO BOX 2189, HOWELL, MI, 48843","No_Match",NA,NA,NA,NA
339705,"PO BOX 21893","CHARLESTON","SC",29413,NA,NA,205,"PO BOX 21893, CHARLESTON, SC, 29413","No_Match",NA,NA,NA,NA
339706,"PO BOX 219","ALLEN","NE",68710,NA,NA,206,"PO BOX 219, ALLEN, NE, 68710","No_Match",NA,NA,NA,NA
339707,"PO BOX 219","CALIMESA","CA",92320,NA,NA,207,"PO BOX 219, CALIMESA, CA, 92320","No_Match",NA,NA,NA,NA
339708,"PO BOX 219","DUVALL","WA",98019,NA,NA,208,"PO BOX 219, DUVALL, WA, 98019","No_Match",NA,NA,NA,NA
339709,"PO BOX 219","GETZVILLE","NY",14068,NA,NA,209,"PO BOX 219, GETZVILLE, NY, 14068","No_Match",NA,NA,NA,NA
339710,"PO BOX 219","HOLT","MI",48842,NA,NA,210,"PO BOX 219, HOLT, MI, 48842","No_Match",NA,NA,NA,NA
339711,"PO BOX 219","LEWISTON","CA",96052,NA,NA,211,"PO BOX 219, LEWISTON, CA, 96052","No_Match",NA,NA,NA,NA
339712,"PO BOX 219","LIGONIER","PA",15658,NA,NA,212,"PO BOX 219, LIGONIER, PA, 15658","No_Match",NA,NA,NA,NA
339713,"PO BOX 219","MAYVILLE","MI",48744,NA,NA,213,"PO BOX 219, MAYVILLE, MI, 48744","No_Match",NA,NA,NA,NA
339714,"PO BOX 219","MORGANTON","NC",28680,NA,NA,214,"PO BOX 219, MORGANTON, NC, 28680","No_Match",NA,NA,NA,NA
339715,"PO BOX 219","NETARTS","OR",97143,NA,NA,215,"PO BOX 219, NETARTS, OR, 97143","No_Match",NA,NA,NA,NA
339716,"PO BOX 219","ONTARIO","NY",14589,NA,NA,216,"PO BOX 219, ONTARIO, NY, 14589","No_Match",NA,NA,NA,NA
339717,"PO BOX 219","OWINGS MILLS","MD",21117,NA,NA,217,"PO BOX 219, OWINGS MILLS, MD, 21117","No_Match",NA,NA,NA,NA
339718,"PO BOX 219","PADEN CITY","WV",26159,NA,NA,218,"PO BOX 219, PADEN CITY, WV, 26159","No_Match",NA,NA,NA,NA
339719,"PO BOX 219","PHOENIX","OR",97535,NA,NA,219,"PO BOX 219, PHOENIX, OR, 97535","No_Match",NA,NA,NA,NA
339720,"PO BOX 2190","EUGENE","OR",97402,NA,NA,220,"PO BOX 2190, EUGENE, OR, 97402","No_Match",NA,NA,NA,NA
339721,"PO BOX 219014","HOUSTON","TX",77218,NA,NA,221,"PO BOX 219014, HOUSTON, TX, 77218","No_Match",NA,NA,NA,NA
339722,"PO BOX 219098","PORTLAND","OR",97225,NA,NA,222,"PO BOX 219098, PORTLAND, OR, 97225","No_Match",NA,NA,NA,NA
339723,"PO BOX 2191","COUNTRY CLUB HILLS","IL",60478,NA,NA,223,"PO BOX 2191, COUNTRY CLUB HILLS, IL, 60478","No_Match",NA,NA,NA,NA
339724,"PO BOX 2191","HARKER HEIGHTS","TX",76548,NA,NA,224,"PO BOX 2191, HARKER HEIGHTS, TX, 76548","No_Match",NA,NA,NA,NA
339725,"PO BOX 2193","BLOOMINGTON","IN",47401,NA,NA,225,"PO BOX 2193, BLOOMINGTON, IN, 47401","No_Match",NA,NA,NA,NA
339726,"PO BOX 2193","ELK GROVE","CA",95759,NA,NA,226,"PO BOX 2193, ELK GROVE, CA, 95759","No_Match",NA,NA,NA,NA
339727,"PO BOX 2193","KERNERSVILLE","NC",27285,NA,NA,227,"PO BOX 2193, KERNERSVILLE, NC, 27285","No_Match",NA,NA,NA,NA
339728,"PO BOX 2193","LYNCHBURG","VA",24505,NA,NA,228,"PO BOX 2193, LYNCHBURG, VA, 24505","No_Match",NA,NA,NA,NA
339729,"PO BOX 2193","SISTERS","OR",97759,NA,NA,229,"PO BOX 2193, SISTERS, OR, 97759","No_Match",NA,NA,NA,NA
339730,"PO BOX 2194 --4415 BEAR WALLOW HILL","NASHVILLE","IN",47448,NA,NA,230,"PO BOX 2194 --4415 BEAR WALLOW HILL, NASHVILLE, IN, 47448","No_Match",NA,NA,NA,NA
339731,"PO BOX 2195","CHANDLER","AZ",85244,NA,NA,231,"PO BOX 2195, CHANDLER, AZ, 85244","No_Match",NA,NA,NA,NA
339732,"PO BOX 2195","COLUMBIA","MD",21045,NA,NA,232,"PO BOX 2195, COLUMBIA, MD, 21045","No_Match",NA,NA,NA,NA
339733,"PO BOX 2195","GAINESVILLE","GA",30501,NA,NA,233,"PO BOX 2195, GAINESVILLE, GA, 30501","No_Match",NA,NA,NA,NA
339734,"PO BOX 2195","KAMUELA","HI",96743,NA,NA,234,"PO BOX 2195, KAMUELA, HI, 96743","No_Match",NA,NA,NA,NA
339735,"PO BOX 2196","CLACKAMAS","OR",97015,NA,NA,235,"PO BOX 2196, CLACKAMAS, OR, 97015","No_Match",NA,NA,NA,NA
339736,"PO BOX 2196","KAPAA","HI",96746,NA,NA,236,"PO BOX 2196, KAPAA, HI, 96746","No_Match",NA,NA,NA,NA
339737,"PO BOX 2196","LEAVENWORTH","WA",98826,NA,NA,237,"PO BOX 2196, LEAVENWORTH, WA, 98826","No_Match",NA,NA,NA,NA
339738,"PO BOX 2196","NEW MILFORD","CT",6776,NA,NA,238,"PO BOX 2196, NEW MILFORD, CT, 6776","No_Match",NA,NA,NA,NA
339739,"PO BOX 2196","OXNARD","CA",93033,NA,NA,239,"PO BOX 2196, OXNARD, CA, 93033","No_Match",NA,NA,NA,NA
339740,"PO BOX 2196","WILMINGTON","NC",28401,NA,NA,240,"PO BOX 2196, WILMINGTON, NC, 28401","No_Match",NA,NA,NA,NA
339741,"PO BOX 2198","BRYAN","TX",77806,NA,NA,241,"PO BOX 2198, BRYAN, TX, 77806","No_Match",NA,NA,NA,NA
339742,"PO BOX 2198","MARION","NC",28752,NA,NA,242,"PO BOX 2198, MARION, NC, 28752","No_Match",NA,NA,NA,NA
339743,"PO BOX 21994","LOUISVILLE","KY",40221,NA,NA,243,"PO BOX 21994, LOUISVILLE, KY, 40221","No_Match",NA,NA,NA,NA
339744,"PO BOX 22-7463","MIAMI","FL",33222,NA,NA,244,"PO BOX 22-7463, MIAMI, FL, 33222","No_Match",NA,NA,NA,NA
339745,"PO BOX 22","BRITTANY","LA",70718,NA,NA,245,"PO BOX 22, BRITTANY, LA, 70718","No_Match",NA,NA,NA,NA
339746,"PO BOX 22","BROADWAY","VA",22850,NA,NA,246,"PO BOX 22, BROADWAY, VA, 22850","No_Match",NA,NA,NA,NA
339747,"PO BOX 22","BROOKFIELD","IL",60513,NA,NA,247,"PO BOX 22, BROOKFIELD, IL, 60513","No_Match",NA,NA,NA,NA
339748,"PO BOX 22","CUSICK","WA",99119,NA,NA,248,"PO BOX 22, CUSICK, WA, 99119","No_Match",NA,NA,NA,NA
339749,"PO BOX 22","EMERSON","AR",71740,NA,NA,249,"PO BOX 22, EMERSON, AR, 71740","No_Match",NA,NA,NA,NA
339750,"PO BOX 22","FAIRFAX","MN",55332,NA,NA,250,"PO BOX 22, FAIRFAX, MN, 55332","No_Match",NA,NA,NA,NA
339751,"PO BOX 22","FLAG POND","TN",37657,NA,NA,251,"PO BOX 22, FLAG POND, TN, 37657","No_Match",NA,NA,NA,NA
339752,"PO BOX 22","FORT LEONARD WOOD","MO",65473,NA,NA,252,"PO BOX 22, FORT LEONARD WOOD, MO, 65473","No_Match",NA,NA,NA,NA
339753,"PO BOX 22","GARY","SD",57237,NA,NA,253,"PO BOX 22, GARY, SD, 57237","No_Match",NA,NA,NA,NA
339754,"PO BOX 22","GIBSONTON","FL",33534,NA,NA,254,"PO BOX 22, GIBSONTON, FL, 33534","No_Match",NA,NA,NA,NA
339755,"PO BOX 22","HARLAN","IN",46743,NA,NA,255,"PO BOX 22, HARLAN, IN, 46743","No_Match",NA,NA,NA,NA
339756,"PO BOX 22","IRWIN","PA",15642,NA,NA,256,"PO BOX 22, IRWIN, PA, 15642","No_Match",NA,NA,NA,NA
339757,"PO BOX 22","JASPER","GA",30143,NA,NA,257,"PO BOX 22, JASPER, GA, 30143","No_Match",NA,NA,NA,NA
339758,"PO BOX 22","JOANNA","SC",29351,NA,NA,258,"PO BOX 22, JOANNA, SC, 29351","No_Match",NA,NA,NA,NA
339759,"PO BOX 22","KELLEYS ISLAND","OH",43438,NA,NA,259,"PO BOX 22, KELLEYS ISLAND, OH, 43438","No_Match",NA,NA,NA,NA
339760,"PO BOX 22","LOST CITY","WV",26810,NA,NA,260,"PO BOX 22, LOST CITY, WV, 26810","No_Match",NA,NA,NA,NA
339761,"PO BOX 22","MIDVALE","OH",44683,NA,NA,261,"PO BOX 22, MIDVALE, OH, 44683","No_Match",NA,NA,NA,NA
339762,"PO BOX 22","MINONG","WI",54859,NA,NA,262,"PO BOX 22, MINONG, WI, 54859","No_Match",NA,NA,NA,NA
339763,"PO BOX 22","NAALEHU","HI",96772,NA,NA,263,"PO BOX 22, NAALEHU, HI, 96772","No_Match",NA,NA,NA,NA
339764,"PO BOX 22","NEW HAVEN","VT",5472,NA,NA,264,"PO BOX 22, NEW HAVEN, VT, 5472","No_Match",NA,NA,NA,NA
339765,"PO BOX 22","NOBLESVILLE","IN",46061,NA,NA,265,"PO BOX 22, NOBLESVILLE, IN, 46061","No_Match",NA,NA,NA,NA
339766,"PO BOX 22","NUTLEY","NJ",7110,NA,NA,266,"PO BOX 22, NUTLEY, NJ, 7110","No_Match",NA,NA,NA,NA
339767,"PO BOX 22","REMUS","MI",49340,NA,NA,267,"PO BOX 22, REMUS, MI, 49340","No_Match",NA,NA,NA,NA
339768,"PO BOX 22","ROYALSTON","MA",1368,NA,NA,268,"PO BOX 22, ROYALSTON, MA, 1368","No_Match",NA,NA,NA,NA
339769,"PO BOX 22","RURAL RETREAT","VA",24368,NA,NA,269,"PO BOX 22, RURAL RETREAT, VA, 24368","No_Match",NA,NA,NA,NA
339770,"PO BOX 22","SMITHBURG","WV",26436,NA,NA,270,"PO BOX 22, SMITHBURG, WV, 26436","No_Match",NA,NA,NA,NA
339771,"PO BOX 22","SOUTH HAVEN","MI",49090,NA,NA,271,"PO BOX 22, SOUTH HAVEN, MI, 49090","No_Match",NA,NA,NA,NA
339772,"PO BOX 22","SPRINGBORO","OH",45066,NA,NA,272,"PO BOX 22, SPRINGBORO, OH, 45066","No_Match",NA,NA,NA,NA
339773,"PO BOX 22","STEUBENVILLE","OH",43952,NA,NA,273,"PO BOX 22, STEUBENVILLE, OH, 43952","No_Match",NA,NA,NA,NA
339774,"PO BOX 22","SUMAS","WA",98295,NA,NA,274,"PO BOX 22, SUMAS, WA, 98295","No_Match",NA,NA,NA,NA
339775,"PO BOX 22","TAYLORSVILLE","KY",40071,NA,NA,275,"PO BOX 22, TAYLORSVILLE, KY, 40071","No_Match",NA,NA,NA,NA
339776,"PO BOX 22","TYE","TX",79563,NA,NA,276,"PO BOX 22, TYE, TX, 79563","No_Match",NA,NA,NA,NA
339777,"PO BOX 22","VENUS","PA",16364,NA,NA,277,"PO BOX 22, VENUS, PA, 16364","No_Match",NA,NA,NA,NA
339778,"PO BOX 22","VERNAL","UT",84078,NA,NA,278,"PO BOX 22, VERNAL, UT, 84078","No_Match",NA,NA,NA,NA
339779,"PO BOX 22","WAKPALA","SD",57658,NA,NA,279,"PO BOX 22, WAKPALA, SD, 57658","No_Match",NA,NA,NA,NA
339780,"PO BOX 22","WALTON","IN",46994,NA,NA,280,"PO BOX 22, WALTON, IN, 46994","No_Match",NA,NA,NA,NA
339781,"PO BOX 22","WANAQUE","NJ",7465,NA,NA,281,"PO BOX 22, WANAQUE, NJ, 7465","No_Match",NA,NA,NA,NA
339782,"PO BOX 22","WEST ONEONTA","NY",13861,NA,NA,282,"PO BOX 22, WEST ONEONTA, NY, 13861","No_Match",NA,NA,NA,NA
339783,"PO BOX 220 25 TRACYS LANE","TRACYS LANDING","MD",20779,38.775093241,-76.593264765,283,"PO BOX 220 25 TRACYS LANE, TRACYS LANDING, MD, 20779","Match","Non_Exact","25 TRACY'S LN, TRACYS LANDING, MD, 20779",68183319,"R"
339784,"PO BOX 220 38 MAIN STREET","SALISBURY","CT",6068,41.980487736,-73.423459341,284,"PO BOX 220 38 MAIN STREET, SALISBURY, CT, 6068","Match","Exact","38 MAIN ST, SALISBURY, CT, 06068",3121650,"L"
339785,"PO BOX 220","BOWBELLS","ND",58721,NA,NA,285,"PO BOX 220, BOWBELLS, ND, 58721","No_Match",NA,NA,NA,NA
339786,"PO BOX 220","BREWTON","AL",36427,NA,NA,286,"PO BOX 220, BREWTON, AL, 36427","No_Match",NA,NA,NA,NA
339787,"PO BOX 220","CALICO ROCK","AR",72519,NA,NA,287,"PO BOX 220, CALICO ROCK, AR, 72519","No_Match",NA,NA,NA,NA
339788,"PO BOX 220","CAREY","ID",83320,NA,NA,288,"PO BOX 220, CAREY, ID, 83320","No_Match",NA,NA,NA,NA
339789,"PO BOX 220","CARLSBORG","WA",98324,NA,NA,289,"PO BOX 220, CARLSBORG, WA, 98324","No_Match",NA,NA,NA,NA
339790,"PO BOX 220","COTTAGE GROVE","MN",55016,NA,NA,290,"PO BOX 220, COTTAGE GROVE, MN, 55016","No_Match",NA,NA,NA,NA
339791,"PO BOX 220","LAUREL","MD",20725,NA,NA,291,"PO BOX 220, LAUREL, MD, 20725","No_Match",NA,NA,NA,NA
339792,"PO BOX 220","LILBURN","GA",30048,NA,NA,292,"PO BOX 220, LILBURN, GA, 30048","No_Match",NA,NA,NA,NA
339793,"PO BOX 220","MAUPIN","OR",97037,NA,NA,293,"PO BOX 220, MAUPIN, OR, 97037","No_Match",NA,NA,NA,NA
339794,"PO BOX 220","MCALLEN","TX",78505,NA,NA,294,"PO BOX 220, MCALLEN, TX, 78505","No_Match",NA,NA,NA,NA
339795,"PO BOX 220","NORTON","MA",2766,NA,NA,295,"PO BOX 220, NORTON, MA, 2766","No_Match",NA,NA,NA,NA
339796,"PO BOX 220","SAEGERTOWN","PA",16433,NA,NA,296,"PO BOX 220, SAEGERTOWN, PA, 16433","No_Match",NA,NA,NA,NA
339797,"PO BOX 220","WASHINGTONVILLE","NY",10992,NA,NA,297,"PO BOX 220, WASHINGTONVILLE, NY, 10992","No_Match",NA,NA,NA,NA
339798,"PO BOX 220","WEST CALDWELL","NJ",7006,NA,NA,298,"PO BOX 220, WEST CALDWELL, NJ, 7006","No_Match",NA,NA,NA,NA
339799,"PO BOX 220","WOODLAND","GA",31836,NA,NA,299,"PO BOX 220, WOODLAND, GA, 31836","No_Match",NA,NA,NA,NA
339800,"PO BOX 2200","GONZALES","CA",93926,NA,NA,300,"PO BOX 2200, GONZALES, CA, 93926","No_Match",NA,NA,NA,NA
339801,"PO BOX 2200","LAWRENCEVILLE","GA",30046,NA,NA,301,"PO BOX 2200, LAWRENCEVILLE, GA, 30046","No_Match",NA,NA,NA,NA
339802,"PO BOX 220023","SANTA CLARITA","CA",91322,NA,NA,302,"PO BOX 220023, SANTA CLARITA, CA, 91322","No_Match",NA,NA,NA,NA
339803,"PO BOX 22005","SAINT LOUIS","MO",63126,NA,NA,303,"PO BOX 22005, SAINT LOUIS, MO, 63126","No_Match",NA,NA,NA,NA
339804,"PO BOX 22006","TUCSON","AZ",85734,NA,NA,304,"PO BOX 22006, TUCSON, AZ, 85734","No_Match",NA,NA,NA,NA
339805,"PO BOX 2201","BEND","OR",97709,NA,NA,305,"PO BOX 2201, BEND, OR, 97709","No_Match",NA,NA,NA,NA
339806,"PO BOX 2201","KING CITY","CA",93930,NA,NA,306,"PO BOX 2201, KING CITY, CA, 93930","No_Match",NA,NA,NA,NA
339807,"PO BOX 2201","LOS ANGELES","CA",90078,NA,NA,307,"PO BOX 2201, LOS ANGELES, CA, 90078","No_Match",NA,NA,NA,NA
339808,"PO BOX 2201","ROWLETT","TX",75030,NA,NA,308,"PO BOX 2201, ROWLETT, TX, 75030","No_Match",NA,NA,NA,NA
339809,"PO BOX 2201","SANTA ROSA BEACH","FL",32459,NA,NA,309,"PO BOX 2201, SANTA ROSA BEACH, FL, 32459","No_Match",NA,NA,NA,NA
339810,"PO BOX 220109","DEATSVILLE","AL",36022,NA,NA,310,"PO BOX 220109, DEATSVILLE, AL, 36022","No_Match",NA,NA,NA,NA
339811,"PO BOX 220118","CHARLOTTE","NC",28222,NA,NA,311,"PO BOX 220118, CHARLOTTE, NC, 28222","No_Match",NA,NA,NA,NA
339812,"PO BOX 22015","OAKLAND","CA",94623,NA,NA,312,"PO BOX 22015, OAKLAND, CA, 94623","No_Match",NA,NA,NA,NA
339813,"PO BOX 220155","ANCHORAGE","AK",99522,NA,NA,313,"PO BOX 220155, ANCHORAGE, AK, 99522","No_Match",NA,NA,NA,NA
339814,"PO BOX 2202","CLEARWATER","FL",33757,NA,NA,314,"PO BOX 2202, CLEARWATER, FL, 33757","No_Match",NA,NA,NA,NA
339815,"PO BOX 2202","PALATKA","FL",32178,NA,NA,315,"PO BOX 2202, PALATKA, FL, 32178","No_Match",NA,NA,NA,NA
339816,"PO BOX 2202","WYLIE","TX",75098,NA,NA,316,"PO BOX 2202, WYLIE, TX, 75098","No_Match",NA,NA,NA,NA
339817,"PO BOX 22021","LITTLE ROCK","AR",72221,NA,NA,317,"PO BOX 22021, LITTLE ROCK, AR, 72221","No_Match",NA,NA,NA,NA
339818,"PO BOX 220226","NEWHALL","CA",91321,NA,NA,318,"PO BOX 220226, NEWHALL, CA, 91321","No_Match",NA,NA,NA,NA
339819,"PO BOX 220249","DORCHESTER","MA",2122,NA,NA,319,"PO BOX 220249, DORCHESTER, MA, 2122","No_Match",NA,NA,NA,NA
339820,"PO BOX 220271","CHANTILLY","VA",20153,NA,NA,320,"PO BOX 220271, CHANTILLY, VA, 20153","No_Match",NA,NA,NA,NA
339821,"PO BOX 2203","AMHERST","MA",1004,NA,NA,321,"PO BOX 2203, AMHERST, MA, 1004","No_Match",NA,NA,NA,NA
339822,"PO BOX 2203","LOUISA","VA",23093,NA,NA,322,"PO BOX 2203, LOUISA, VA, 23093","No_Match",NA,NA,NA,NA
339823,"PO BOX 2203","MOSES LAKE","WA",98837,NA,NA,323,"PO BOX 2203, MOSES LAKE, WA, 98837","No_Match",NA,NA,NA,NA
339824,"PO BOX 2203","REDMOND","OR",97756,NA,NA,324,"PO BOX 2203, REDMOND, OR, 97756","No_Match",NA,NA,NA,NA
339825,"PO BOX 220324","PORTLAND","OR",97269,NA,NA,325,"PO BOX 220324, PORTLAND, OR, 97269","No_Match",NA,NA,NA,NA
339826,"PO BOX 220332","BROOKLYN","NY",11222,NA,NA,326,"PO BOX 220332, BROOKLYN, NY, 11222","No_Match",NA,NA,NA,NA
339827,"PO BOX 220353","BROOKLYN","NY",11222,NA,NA,327,"PO BOX 220353, BROOKLYN, NY, 11222","No_Match",NA,NA,NA,NA
339828,"PO BOX 22039","PHOENIX","AZ",85028,NA,NA,328,"PO BOX 22039, PHOENIX, AZ, 85028","No_Match",NA,NA,NA,NA
339829,"PO BOX 2204","WOODBRIDGE","VA",22195,NA,NA,329,"PO BOX 2204, WOODBRIDGE, VA, 22195","No_Match",NA,NA,NA,NA
339830,"PO BOX 22041","HUNTSVILLE","AL",35814,NA,NA,330,"PO BOX 22041, HUNTSVILLE, AL, 35814","No_Match",NA,NA,NA,NA
339831,"PO BOX 220421","BOSTON","MA",2122,NA,NA,331,"PO BOX 220421, BOSTON, MA, 2122","No_Match",NA,NA,NA,NA
339832,"PO BOX 22047","MESA","AZ",85277,NA,NA,332,"PO BOX 22047, MESA, AZ, 85277","No_Match",NA,NA,NA,NA
339833,"PO BOX 220471","EL PASO","TX",79913,NA,NA,333,"PO BOX 220471, EL PASO, TX, 79913","No_Match",NA,NA,NA,NA
339834,"PO BOX 2205","BLOWING ROCK","NC",28605,NA,NA,334,"PO BOX 2205, BLOWING ROCK, NC, 28605","No_Match",NA,NA,NA,NA
339835,"PO BOX 2205","INDIAN TRAIL","NC",28079,NA,NA,335,"PO BOX 2205, INDIAN TRAIL, NC, 28079","No_Match",NA,NA,NA,NA
339836,"PO BOX 2205","THE DALLES","OR",97058,NA,NA,336,"PO BOX 2205, THE DALLES, OR, 97058","No_Match",NA,NA,NA,NA
339837,"PO BOX 220553","ANCHORAGE","AK",99522,NA,NA,337,"PO BOX 220553, ANCHORAGE, AK, 99522","No_Match",NA,NA,NA,NA
339838,"PO BOX 220572","CHARLOTTE","NC",28222,NA,NA,338,"PO BOX 220572, CHARLOTTE, NC, 28222","No_Match",NA,NA,NA,NA
339839,"PO BOX 22058","WEST PALM BEACH","FL",33415,NA,NA,339,"PO BOX 22058, WEST PALM BEACH, FL, 33415","No_Match",NA,NA,NA,NA
339840,"PO BOX 2206","KALISPELL","MT",59903,NA,NA,340,"PO BOX 2206, KALISPELL, MT, 59903","No_Match",NA,NA,NA,NA
339841,"PO BOX 2206","LAKE OZARK","MO",65049,NA,NA,341,"PO BOX 2206, LAKE OZARK, MO, 65049","No_Match",NA,NA,NA,NA
339842,"PO BOX 2206","WEIRTON","WV",26062,NA,NA,342,"PO BOX 2206, WEIRTON, WV, 26062","No_Match",NA,NA,NA,NA
339843,"PO BOX 22060","LINCOLN","NE",68542,NA,NA,343,"PO BOX 22060, LINCOLN, NE, 68542","No_Match",NA,NA,NA,NA
339844,"PO BOX 22062","FORT LAUDERDALE","FL",33335,NA,NA,344,"PO BOX 22062, FORT LAUDERDALE, FL, 33335","No_Match",NA,NA,NA,NA
339845,"PO BOX 22062","TAMPA","FL",33622,NA,NA,345,"PO BOX 22062, TAMPA, FL, 33622","No_Match",NA,NA,NA,NA
339846,"PO BOX 22065","BAKERSFIELD","CA",93390,NA,NA,346,"PO BOX 22065, BAKERSFIELD, CA, 93390","No_Match",NA,NA,NA,NA
339847,"PO BOX 220681","NEWHALL","CA",91322,NA,NA,347,"PO BOX 220681, NEWHALL, CA, 91322","No_Match",NA,NA,NA,NA
339848,"PO BOX 220745","ANCHORAGE","AK",99522,NA,NA,348,"PO BOX 220745, ANCHORAGE, AK, 99522","No_Match",NA,NA,NA,NA
339849,"PO BOX 22077","BAKERSFIELD","CA",93390,NA,NA,349,"PO BOX 22077, BAKERSFIELD, CA, 93390","No_Match",NA,NA,NA,NA
339850,"PO BOX 2208","ANNISTON","AL",36202,NA,NA,350,"PO BOX 2208, ANNISTON, AL, 36202","No_Match",NA,NA,NA,NA
339851,"PO BOX 220805","HOLLYWOOD","FL",33020,NA,NA,351,"PO BOX 220805, HOLLYWOOD, FL, 33020","No_Match",NA,NA,NA,NA
339852,"PO BOX 22083","SEATTLE","WA",98102,NA,NA,352,"PO BOX 22083, SEATTLE, WA, 98102","No_Match",NA,NA,NA,NA
339853,"PO BOX 2209","BOULDER","CO",80306,NA,NA,353,"PO BOX 2209, BOULDER, CO, 80306","No_Match",NA,NA,NA,NA
339854,"PO BOX 2209","ISABELA","PR",662,NA,NA,354,"PO BOX 2209, ISABELA, PR, 662","No_Match",NA,NA,NA,NA
339855,"PO BOX 220931","CHANTILLY","VA",20153,NA,NA,355,"PO BOX 220931, CHANTILLY, VA, 20153","No_Match",NA,NA,NA,NA
339856,"PO BOX 22095","KNOXVILLE","TN",37933,NA,NA,356,"PO BOX 22095, KNOXVILLE, TN, 37933","No_Match",NA,NA,NA,NA
339857,"PO BOX 220952","CHANTILLY","VA",20153,NA,NA,357,"PO BOX 220952, CHANTILLY, VA, 20153","No_Match",NA,NA,NA,NA
339858,"PO BOX 220984","EL PASO","TX",79913,NA,NA,358,"PO BOX 220984, EL PASO, TX, 79913","No_Match",NA,NA,NA,NA
339859,"PO BOX 221","AMBLER","PA",19002,NA,NA,359,"PO BOX 221, AMBLER, PA, 19002","No_Match",NA,NA,NA,NA
339860,"PO BOX 221","BEACON","NY",12508,NA,NA,360,"PO BOX 221, BEACON, NY, 12508","No_Match",NA,NA,NA,NA
339861,"PO BOX 221","BUFFALO","MN",55313,NA,NA,361,"PO BOX 221, BUFFALO, MN, 55313","No_Match",NA,NA,NA,NA
339862,"PO BOX 221","CAMPBELL HALL","NY",10916,NA,NA,362,"PO BOX 221, CAMPBELL HALL, NY, 10916","No_Match",NA,NA,NA,NA
339863,"PO BOX 221","CLEVELAND","UT",84518,NA,NA,363,"PO BOX 221, CLEVELAND, UT, 84518","No_Match",NA,NA,NA,NA
339864,"PO BOX 221","DELMONT","SD",57330,NA,NA,364,"PO BOX 221, DELMONT, SD, 57330","No_Match",NA,NA,NA,NA
339865,"PO BOX 221","DUNCANNON","PA",17020,NA,NA,365,"PO BOX 221, DUNCANNON, PA, 17020","No_Match",NA,NA,NA,NA
339866,"PO BOX 221","HINSDALE","NH",3451,NA,NA,366,"PO BOX 221, HINSDALE, NH, 3451","No_Match",NA,NA,NA,NA
339867,"PO BOX 221","IRONTON","MO",63650,NA,NA,367,"PO BOX 221, IRONTON, MO, 63650","No_Match",NA,NA,NA,NA
339868,"PO BOX 221","JOHNSTON","IA",50231,NA,NA,368,"PO BOX 221, JOHNSTON, IA, 50231","No_Match",NA,NA,NA,NA
339869,"PO BOX 221","LEMONT","CT",16851,NA,NA,369,"PO BOX 221, LEMONT, CT, 16851","No_Match",NA,NA,NA,NA
339870,"PO BOX 221","LEMONT","PA",16851,NA,NA,370,"PO BOX 221, LEMONT, PA, 16851","No_Match",NA,NA,NA,NA
339871,"PO BOX 221","LOMA LINDA","CA",92354,NA,NA,371,"PO BOX 221, LOMA LINDA, CA, 92354","No_Match",NA,NA,NA,NA
339872,"PO BOX 221","LUDLOW","MA",1056,NA,NA,372,"PO BOX 221, LUDLOW, MA, 1056","No_Match",NA,NA,NA,NA
339873,"PO BOX 221","MARTENSDALE","IA",50160,NA,NA,373,"PO BOX 221, MARTENSDALE, IA, 50160","No_Match",NA,NA,NA,NA
339874,"PO BOX 221","MAYVILLE","WI",53050,NA,NA,374,"PO BOX 221, MAYVILLE, WI, 53050","No_Match",NA,NA,NA,NA
339875,"PO BOX 221","NAZARETH","TX",79063,NA,NA,375,"PO BOX 221, NAZARETH, TX, 79063","No_Match",NA,NA,NA,NA
339876,"PO BOX 221","NEW RICHMOND","WI",54017,NA,NA,376,"PO BOX 221, NEW RICHMOND, WI, 54017","No_Match",NA,NA,NA,NA
339877,"PO BOX 221","PANOLA","TX",75685,NA,NA,377,"PO BOX 221, PANOLA, TX, 75685","No_Match",NA,NA,NA,NA
339878,"PO BOX 221","PLUM BRANCH","SC",29845,NA,NA,378,"PO BOX 221, PLUM BRANCH, SC, 29845","No_Match",NA,NA,NA,NA
339879,"PO BOX 221","PRINCETON","NC",27569,NA,NA,379,"PO BOX 221, PRINCETON, NC, 27569","No_Match",NA,NA,NA,NA
339880,"PO BOX 221","PURDY","MO",65734,NA,NA,380,"PO BOX 221, PURDY, MO, 65734","No_Match",NA,NA,NA,NA
339881,"PO BOX 221","SHIRLEY","NY",11967,NA,NA,381,"PO BOX 221, SHIRLEY, NY, 11967","No_Match",NA,NA,NA,NA
339882,"PO BOX 221","SOMERVILLE","MA",2143,NA,NA,382,"PO BOX 221, SOMERVILLE, MA, 2143","No_Match",NA,NA,NA,NA
339883,"PO BOX 221","SPARKILL","NY",10976,NA,NA,383,"PO BOX 221, SPARKILL, NY, 10976","No_Match",NA,NA,NA,NA
339884,"PO BOX 221","ST LEONARD","MD",20685,NA,NA,384,"PO BOX 221, ST LEONARD, MD, 20685","No_Match",NA,NA,NA,NA
339885,"PO BOX 221","STURGIS","SD",57785,NA,NA,385,"PO BOX 221, STURGIS, SD, 57785","No_Match",NA,NA,NA,NA
339886,"PO BOX 221","TALLULAH FALLS","GA",30573,NA,NA,386,"PO BOX 221, TALLULAH FALLS, GA, 30573","No_Match",NA,NA,NA,NA
339887,"PO BOX 221","VAN BUREN","IN",46991,NA,NA,387,"PO BOX 221, VAN BUREN, IN, 46991","No_Match",NA,NA,NA,NA
339888,"PO BOX 221","WASHINGTON","MI",48094,NA,NA,388,"PO BOX 221, WASHINGTON, MI, 48094","No_Match",NA,NA,NA,NA
339889,"PO BOX 221","WETUMPKA","AL",36092,NA,NA,389,"PO BOX 221, WETUMPKA, AL, 36092","No_Match",NA,NA,NA,NA
339890,"PO BOX 221","WOODSTOCK","VT",5091,NA,NA,390,"PO BOX 221, WOODSTOCK, VT, 5091","No_Match",NA,NA,NA,NA
339891,"PO BOX 2210","LAGRANGE","GA",30241,NA,NA,391,"PO BOX 2210, LAGRANGE, GA, 30241","No_Match",NA,NA,NA,NA
339892,"PO BOX 2210","SPRINGFIELD","OH",45501,NA,NA,392,"PO BOX 2210, SPRINGFIELD, OH, 45501","No_Match",NA,NA,NA,NA
339893,"PO BOX 2210","WILKES BARRE","PA",18703,NA,NA,393,"PO BOX 2210, WILKES BARRE, PA, 18703","No_Match",NA,NA,NA,NA
339894,"PO BOX 22103","LEHIGH VALLEY","PA",18002,NA,NA,394,"PO BOX 22103, LEHIGH VALLEY, PA, 18002","No_Match",NA,NA,NA,NA
339895,"PO BOX 221033","EL PASO","TX",79913,NA,NA,395,"PO BOX 221033, EL PASO, TX, 79913","No_Match",NA,NA,NA,NA
339896,"PO BOX 221083","BEACHWOOD","OH",44122,NA,NA,396,"PO BOX 221083, BEACHWOOD, OH, 44122","No_Match",NA,NA,NA,NA
339897,"PO BOX 2211","CASTLE ROCK","CO",80104,NA,NA,397,"PO BOX 2211, CASTLE ROCK, CO, 80104","No_Match",NA,NA,NA,NA
339898,"PO BOX 2211","CLUTE","TX",77531,NA,NA,398,"PO BOX 2211, CLUTE, TX, 77531","No_Match",NA,NA,NA,NA
339899,"PO BOX 2211","HOWELL","MI",48844,NA,NA,399,"PO BOX 2211, HOWELL, MI, 48844","No_Match",NA,NA,NA,NA
339900,"PO BOX 2211","JOSHUA TREE","CA",92252,NA,NA,400,"PO BOX 2211, JOSHUA TREE, CA, 92252","No_Match",NA,NA,NA,NA
339901,"PO BOX 2211","NEPTUNE CITY","NJ",7754,NA,NA,401,"PO BOX 2211, NEPTUNE CITY, NJ, 7754","No_Match",NA,NA,NA,NA
339902,"PO BOX 2211","NEW YORK","NY",10163,NA,NA,402,"PO BOX 2211, NEW YORK, NY, 10163","No_Match",NA,NA,NA,NA
339903,"PO BOX 2211","PASADENA","CA",91102,NA,NA,403,"PO BOX 2211, PASADENA, CA, 91102","No_Match",NA,NA,NA,NA
339904,"PO BOX 2211","WAYCROSS","GA",31502,NA,NA,404,"PO BOX 2211, WAYCROSS, GA, 31502","No_Match",NA,NA,NA,NA
339905,"PO BOX 221151","BEACHWOOD","OH",44122,NA,NA,405,"PO BOX 221151, BEACHWOOD, OH, 44122","No_Match",NA,NA,NA,NA
339906,"PO BOX 2212","CULLOWHEE","NC",28723,NA,NA,406,"PO BOX 2212, CULLOWHEE, NC, 28723","No_Match",NA,NA,NA,NA
339907,"PO BOX 2212","PASCAGOULA","MS",39569,NA,NA,407,"PO BOX 2212, PASCAGOULA, MS, 39569","No_Match",NA,NA,NA,NA
339908,"PO BOX 2212","SITKA","AK",99835,NA,NA,408,"PO BOX 2212, SITKA, AK, 99835","No_Match",NA,NA,NA,NA
339909,"PO BOX 221222","SACRAMENTO","CA",95822,NA,NA,409,"PO BOX 221222, SACRAMENTO, CA, 95822","No_Match",NA,NA,NA,NA
339910,"PO BOX 22123","MEMPHIS","TN",38122,NA,NA,410,"PO BOX 22123, MEMPHIS, TN, 38122","No_Match",NA,NA,NA,NA
339911,"PO BOX 221238","SACRAMENTO","CA",95822,NA,NA,411,"PO BOX 221238, SACRAMENTO, CA, 95822","No_Match",NA,NA,NA,NA
339912,"PO BOX 22126","BEACHWOOD","OH",44122,NA,NA,412,"PO BOX 22126, BEACHWOOD, OH, 44122","No_Match",NA,NA,NA,NA
339913,"PO BOX 221264","BEACHWOOD","OH",44122,NA,NA,413,"PO BOX 221264, BEACHWOOD, OH, 44122","No_Match",NA,NA,NA,NA
339914,"PO BOX 22127","WEST PALM BEACH","FL",33416,NA,NA,414,"PO BOX 22127, WEST PALM BEACH, FL, 33416","No_Match",NA,NA,NA,NA
339915,"PO BOX 221282","CHICAGO","IL",60622,NA,NA,415,"PO BOX 221282, CHICAGO, IL, 60622","No_Match",NA,NA,NA,NA
339916,"PO BOX 221284","SACRAMENTO","CA",95822,NA,NA,416,"PO BOX 221284, SACRAMENTO, CA, 95822","No_Match",NA,NA,NA,NA
339917,"PO BOX 2213","ALLEN","TX",75013,NA,NA,417,"PO BOX 2213, ALLEN, TX, 75013","No_Match",NA,NA,NA,NA
339918,"PO BOX 2213","KANSAS CITY","KS",66110,NA,NA,418,"PO BOX 2213, KANSAS CITY, KS, 66110","No_Match",NA,NA,NA,NA
339919,"PO BOX 2213","LYTLE","TX",78052,NA,NA,419,"PO BOX 2213, LYTLE, TX, 78052","No_Match",NA,NA,NA,NA
339920,"PO BOX 2213","ORTING","WA",98360,NA,NA,420,"PO BOX 2213, ORTING, WA, 98360","No_Match",NA,NA,NA,NA
339921,"PO BOX 2213","WHEAT RIDGE","CO",80034,NA,NA,421,"PO BOX 2213, WHEAT RIDGE, CO, 80034","No_Match",NA,NA,NA,NA
339922,"PO BOX 2213","WHEATRIDGE","CO",80034,NA,NA,422,"PO BOX 2213, WHEATRIDGE, CO, 80034","No_Match",NA,NA,NA,NA
339923,"PO BOX 221303","SACRAMENTO","CA",95822,NA,NA,423,"PO BOX 221303, SACRAMENTO, CA, 95822","No_Match",NA,NA,NA,NA
339924,"PO BOX 22131","MESA","AZ",85277,NA,NA,424,"PO BOX 22131, MESA, AZ, 85277","No_Match",NA,NA,NA,NA
339925,"PO BOX 221361","LOUISVILLE","KY",40252,NA,NA,425,"PO BOX 221361, LOUISVILLE, KY, 40252","No_Match",NA,NA,NA,NA
339926,"PO BOX 221392","CHICAGO","IL",60622,NA,NA,426,"PO BOX 221392, CHICAGO, IL, 60622","No_Match",NA,NA,NA,NA
339927,"PO BOX 2214","ASHLAND","VA",23005,NA,NA,427,"PO BOX 2214, ASHLAND, VA, 23005","No_Match",NA,NA,NA,NA
339928,"PO BOX 2214","ATLANTA","GA",30301,NA,NA,428,"PO BOX 2214, ATLANTA, GA, 30301","No_Match",NA,NA,NA,NA
339929,"PO BOX 2214","HANOVER","MA",2339,NA,NA,429,"PO BOX 2214, HANOVER, MA, 2339","No_Match",NA,NA,NA,NA
339930,"PO BOX 221427","BEACHWOOD","OH",44122,NA,NA,430,"PO BOX 221427, BEACHWOOD, OH, 44122","No_Match",NA,NA,NA,NA
339931,"PO BOX 221456","LOUISVILLE","KY",40252,NA,NA,431,"PO BOX 221456, LOUISVILLE, KY, 40252","No_Match",NA,NA,NA,NA
339932,"PO BOX 22147","NASHVILLE","TN",37202,NA,NA,432,"PO BOX 22147, NASHVILLE, TN, 37202","No_Match",NA,NA,NA,NA
339933,"PO BOX 2215","EL GRANADA","CA",94018,NA,NA,433,"PO BOX 2215, EL GRANADA, CA, 94018","No_Match",NA,NA,NA,NA
339934,"PO BOX 2215","MONTEREY","CA",93942,NA,NA,434,"PO BOX 2215, MONTEREY, CA, 93942","No_Match",NA,NA,NA,NA
339935,"PO BOX 2215","RICHLAND","WA",99352,NA,NA,435,"PO BOX 2215, RICHLAND, WA, 99352","No_Match",NA,NA,NA,NA
339936,"PO BOX 22155","AKRON","OH",44302,NA,NA,436,"PO BOX 22155, AKRON, OH, 44302","No_Match",NA,NA,NA,NA
339937,"PO BOX 221581","CHANTILLY","VA",20153,NA,NA,437,"PO BOX 221581, CHANTILLY, VA, 20153","No_Match",NA,NA,NA,NA
339938,"PO BOX 221584","DENVER","CO",80222,NA,NA,438,"PO BOX 221584, DENVER, CO, 80222","No_Match",NA,NA,NA,NA
339939,"PO BOX 2216","CEDAR HILL","TX",75106,NA,NA,439,"PO BOX 2216, CEDAR HILL, TX, 75106","No_Match",NA,NA,NA,NA
339940,"PO BOX 2216","CHANNELVIEW","TX",77530,NA,NA,440,"PO BOX 2216, CHANNELVIEW, TX, 77530","No_Match",NA,NA,NA,NA
339941,"PO BOX 2216","PINEDALE","WY",82941,NA,NA,441,"PO BOX 2216, PINEDALE, WY, 82941","No_Match",NA,NA,NA,NA
339942,"PO BOX 221601","CARMEL","CA",93922,NA,NA,442,"PO BOX 221601, CARMEL, CA, 93922","No_Match",NA,NA,NA,NA
339943,"PO BOX 22168","CLEVELAND","OH",44122,NA,NA,443,"PO BOX 22168, CLEVELAND, OH, 44122","No_Match",NA,NA,NA,NA
339944,"PO BOX 22169","HOUSTON","TX",77227,NA,NA,444,"PO BOX 22169, HOUSTON, TX, 77227","No_Match",NA,NA,NA,NA
339945,"PO BOX 2217","CLEVELAND","TX",77328,NA,NA,445,"PO BOX 2217, CLEVELAND, TX, 77328","No_Match",NA,NA,NA,NA
339946,"PO BOX 2217","DOVER","OH",44622,NA,NA,446,"PO BOX 2217, DOVER, OH, 44622","No_Match",NA,NA,NA,NA
339947,"PO BOX 2217","GUERNEVILLE","CA",95446,NA,NA,447,"PO BOX 2217, GUERNEVILLE, CA, 95446","No_Match",NA,NA,NA,NA
339948,"PO BOX 2217","WEAVERVILLE","CA",96093,NA,NA,448,"PO BOX 2217, WEAVERVILLE, CA, 96093","No_Match",NA,NA,NA,NA
339949,"PO BOX 22181","CARSON CITY","NV",89721,NA,NA,449,"PO BOX 22181, CARSON CITY, NV, 89721","No_Match",NA,NA,NA,NA
339950,"PO BOX 221812","CHARLOTTE","NC",28222,NA,NA,450,"PO BOX 221812, CHARLOTTE, NC, 28222","No_Match",NA,NA,NA,NA
339951,"PO BOX 22182","LANSING","MI",48909,NA,NA,451,"PO BOX 22182, LANSING, MI, 48909","No_Match",NA,NA,NA,NA
339952,"PO BOX 22183","SEATTLE","WA",98122,NA,NA,452,"PO BOX 22183, SEATTLE, WA, 98122","No_Match",NA,NA,NA,NA
339953,"PO BOX 221836","SACRAMENTO","CA",95831,NA,NA,453,"PO BOX 221836, SACRAMENTO, CA, 95831","No_Match",NA,NA,NA,NA
339954,"PO BOX 221891","CHARLOTTE","NC",28211,NA,NA,454,"PO BOX 221891, CHARLOTTE, NC, 28211","No_Match",NA,NA,NA,NA
339955,"PO BOX 22192","NEWARK","NJ",7101,NA,NA,455,"PO BOX 22192, NEWARK, NJ, 7101","No_Match",NA,NA,NA,NA
339956,"PO BOX 22194","HOUSTON","TX",77227,NA,NA,456,"PO BOX 22194, HOUSTON, TX, 77227","No_Match",NA,NA,NA,NA
339957,"PO BOX 222","BENNET","NE",68317,NA,NA,457,"PO BOX 222, BENNET, NE, 68317","No_Match",NA,NA,NA,NA
339958,"PO BOX 222","BLUE MOUNDS","WI",53517,NA,NA,458,"PO BOX 222, BLUE MOUNDS, WI, 53517","No_Match",NA,NA,NA,NA
339959,"PO BOX 222","BUFFALO","MO",65622,NA,NA,459,"PO BOX 222, BUFFALO, MO, 65622","No_Match",NA,NA,NA,NA
339960,"PO BOX 222","CAMERON","TX",76520,NA,NA,460,"PO BOX 222, CAMERON, TX, 76520","No_Match",NA,NA,NA,NA
339961,"PO BOX 222","CEDARVILLE","NJ",8311,NA,NA,461,"PO BOX 222, CEDARVILLE, NJ, 8311","No_Match",NA,NA,NA,NA
339962,"PO BOX 222","CHARLOTTE","MI",48813,NA,NA,462,"PO BOX 222, CHARLOTTE, MI, 48813","No_Match",NA,NA,NA,NA
339963,"PO BOX 222","CHICAGO RIDGE","IL",60415,NA,NA,463,"PO BOX 222, CHICAGO RIDGE, IL, 60415","No_Match",NA,NA,NA,NA
339964,"PO BOX 222","COOPERSVILLE","MI",49404,NA,NA,464,"PO BOX 222, COOPERSVILLE, MI, 49404","No_Match",NA,NA,NA,NA
339965,"PO BOX 222","ELKINS","NH",3233,NA,NA,465,"PO BOX 222, ELKINS, NH, 3233","No_Match",NA,NA,NA,NA
339966,"PO BOX 222","FAUNSDALE","AL",36738,NA,NA,466,"PO BOX 222, FAUNSDALE, AL, 36738","No_Match",NA,NA,NA,NA
339967,"PO BOX 222","FRIDAY HARBOR","WA",98250,NA,NA,467,"PO BOX 222, FRIDAY HARBOR, WA, 98250","No_Match",NA,NA,NA,NA
339968,"PO BOX 222","HARRISON","NY",10528,NA,NA,468,"PO BOX 222, HARRISON, NY, 10528","No_Match",NA,NA,NA,NA
339969,"PO BOX 222","HIAWATHA","IA",52233,NA,NA,469,"PO BOX 222, HIAWATHA, IA, 52233","No_Match",NA,NA,NA,NA
339970,"PO BOX 222","KELLY","NC",28448,NA,NA,470,"PO BOX 222, KELLY, NC, 28448","No_Match",NA,NA,NA,NA
339971,"PO BOX 222","LEEDS","AL",35094,NA,NA,471,"PO BOX 222, LEEDS, AL, 35094","No_Match",NA,NA,NA,NA
339972,"PO BOX 222","MANNING","SC",29102,NA,NA,472,"PO BOX 222, MANNING, SC, 29102","No_Match",NA,NA,NA,NA
339973,"PO BOX 222","MILTON","WI",53563,NA,NA,473,"PO BOX 222, MILTON, WI, 53563","No_Match",NA,NA,NA,NA
339974,"PO BOX 222","MONUMENT","CO",80132,NA,NA,474,"PO BOX 222, MONUMENT, CO, 80132","No_Match",NA,NA,NA,NA
339975,"PO BOX 222","NEW YORK","NY",10002,NA,NA,475,"PO BOX 222, NEW YORK, NY, 10002","No_Match",NA,NA,NA,NA
339976,"PO BOX 222","PIEDMONT","MO",63957,NA,NA,476,"PO BOX 222, PIEDMONT, MO, 63957","No_Match",NA,NA,NA,NA
339977,"PO BOX 222","RICHLAND","MI",49083,NA,NA,477,"PO BOX 222, RICHLAND, MI, 49083","No_Match",NA,NA,NA,NA
339978,"PO BOX 222","ROCKVILLE","IN",47872,NA,NA,478,"PO BOX 222, ROCKVILLE, IN, 47872","No_Match",NA,NA,NA,NA
339979,"PO BOX 222","ROGERS CITY","MI",49779,NA,NA,479,"PO BOX 222, ROGERS CITY, MI, 49779","No_Match",NA,NA,NA,NA
339980,"PO BOX 222","ROSLINDALE","MA",2131,NA,NA,480,"PO BOX 222, ROSLINDALE, MA, 2131","No_Match",NA,NA,NA,NA
339981,"PO BOX 222","SALTERS","SC",29590,NA,NA,481,"PO BOX 222, SALTERS, SC, 29590","No_Match",NA,NA,NA,NA
339982,"PO BOX 222","SIXES","OR",97476,NA,NA,482,"PO BOX 222, SIXES, OR, 97476","No_Match",NA,NA,NA,NA
339983,"PO BOX 222","SPRINGFIELD","WV",26763,NA,NA,483,"PO BOX 222, SPRINGFIELD, WV, 26763","No_Match",NA,NA,NA,NA
339984,"PO BOX 222","STRASBURG","OH",44680,NA,NA,484,"PO BOX 222, STRASBURG, OH, 44680","No_Match",NA,NA,NA,NA
339985,"PO BOX 222","WILMINGTON","NC",28402,NA,NA,485,"PO BOX 222, WILMINGTON, NC, 28402","No_Match",NA,NA,NA,NA
339986,"PO BOX 222","WOOD RIVER","IL",62095,NA,NA,486,"PO BOX 222, WOOD RIVER, IL, 62095","No_Match",NA,NA,NA,NA
339987,"PO BOX 222010","GREAT NECK","NY",11022,NA,NA,487,"PO BOX 222010, GREAT NECK, NY, 11022","No_Match",NA,NA,NA,NA
339988,"PO BOX 222052","DALLAS","TX",74208,NA,NA,488,"PO BOX 222052, DALLAS, TX, 74208","No_Match",NA,NA,NA,NA
339989,"PO BOX 222052","DALLAS","TX",75222,NA,NA,489,"PO BOX 222052, DALLAS, TX, 75222","No_Match",NA,NA,NA,NA
339990,"PO BOX 22207","HONOLULU","HI",96823,NA,NA,490,"PO BOX 22207, HONOLULU, HI, 96823","No_Match",NA,NA,NA,NA
339991,"PO BOX 222072","EL PASO","TX",79913,NA,NA,491,"PO BOX 222072, EL PASO, TX, 79913","No_Match",NA,NA,NA,NA
339992,"PO BOX 222083","DALLAS","TX",75222,NA,NA,492,"PO BOX 222083, DALLAS, TX, 75222","No_Match",NA,NA,NA,NA
339993,"PO BOX 2221","CARTERSVILLE","GA",30120,NA,NA,493,"PO BOX 2221, CARTERSVILLE, GA, 30120","No_Match",NA,NA,NA,NA
339994,"PO BOX 2221","DAVIDSON","NC",28036,NA,NA,494,"PO BOX 2221, DAVIDSON, NC, 28036","No_Match",NA,NA,NA,NA
339995,"PO BOX 222100","DALLAS","TX",75222,NA,NA,495,"PO BOX 222100, DALLAS, TX, 75222","No_Match",NA,NA,NA,NA
339996,"PO BOX 22211","BILLINGS","MT",59104,NA,NA,496,"PO BOX 22211, BILLINGS, MT, 59104","No_Match",NA,NA,NA,NA
339997,"PO BOX 22214","LANSING","MI",48909,NA,NA,497,"PO BOX 22214, LANSING, MI, 48909","No_Match",NA,NA,NA,NA
339998,"PO BOX 2222","HIGH POINT","NC",27261,NA,NA,498,"PO BOX 2222, HIGH POINT, NC, 27261","No_Match",NA,NA,NA,NA
339999,"PO BOX 2222","MISSOULA","MT",59806,NA,NA,499,"PO BOX 2222, MISSOULA, MT, 59806","No_Match",NA,NA,NA,NA
340000,"PO BOX 2222","MOUNT JULIET","TN",37121,NA,NA,500,"PO BOX 2222, MOUNT JULIET, TN, 37121","No_Match",NA,NA,NA,NA
