"ID","Address","City","State","Zip","lat","long","id","input_address","match_indicator","match_type","matched_address","tiger_line_id","tiger_side"
175001,"330 E MAPLE ROAD SUITE B","TROY","MI",48083,42.5484494730001,-83.1401905279999,1,"330 E MAPLE ROAD SUITE B, TROY, MI, 48083","Match","Non_Exact","330 E MAPLE RD, TROY, MI, 48083",69742881,"R"
175002,"330 E MEADVIEW BLVD SUITE B","MEADVIEW",NA,86444,NA,NA,2,"330 E MEADVIEW BLVD SUITE B, MEADVIEW, , 86444","No_Match",NA,NA,NA,NA
175003,"330 E SHANNON STREET","ELLBURN","IL",60119,41.8934162850001,-88.468797969,3,"330 E SHANNON STREET, ELLBURN, IL, 60119","Match","Non_Exact","330 E SHANNON ST, ELBURN, IL, 60119",119504837,"L"
175004,"330 E SPRUCE STREET","TITUSVILLE","PA",16354,41.6307279310001,-79.6683949229999,4,"330 E SPRUCE STREET, TITUSVILLE, PA, 16354","Match","Exact","330 E SPRUCE ST, TITUSVILLE, PA, 16354",98562875,"R"
175005,"330 E STARK RD","MILTON","WI",53563,42.752029517,-89.02786753,5,"330 E STARK RD, MILTON, WI, 53563","Match","Exact","330 E STARK RD, MILTON, WI, 53563",617449921,"L"
175006,"330 EAST 18TH STREET","NEW YORK","NY",10003,40.734496333,-73.982310626,6,"330 EAST 18TH STREET, NEW YORK, NY, 10003","Match","Exact","330 E 18TH ST, NEW YORK, NY, 10003",59654580,"R"
175007,"330 EAST 257TH","EUCLID","OH",44132,41.6168726330001,-81.504468076,7,"330 EAST 257TH, EUCLID, OH, 44132","Match","Non_Exact","330 E 257TH ST, EUCLID, OH, 44132",61132845,"R"
175008,"330 EAST HENDRICKS BLVD","SOUTH PLAINFIELD","NJ",7080,40.5963987370001,-74.398375728,8,"330 EAST HENDRICKS BLVD, SOUTH PLAINFIELD, NJ, 7080","Match","Exact","330 E HENDRICKS BLVD, S PLAINFIELD, NJ, 07080",60261411,"R"
175009,"330 EAST JOHN ST","BEDFORD","PA",15522,40.0160755570001,-78.4989881229999,9,"330 EAST JOHN ST, BEDFORD, PA, 15522","Match","Exact","330 E JOHN ST, BEDFORD, PA, 15522",50154427,"R"
175010,"330 EAST KELSO STREET","INGLEWOOD","CA",90301,33.9587249950001,-118.350968833,10,"330 EAST KELSO STREET, INGLEWOOD, CA, 90301","Match","Exact","330 E KELSO ST, INGLEWOOD, CA, 90301",142750152,"R"
175011,"330 EAST KILBOURN AVENUE SUITE 1017","MILWAUKEE","WI",53202,43.0424085220001,-87.907779005,11,"330 EAST KILBOURN AVENUE SUITE 1017, MILWAUKEE, WI, 53202","Match","Exact","330 E KILBOURN AVE, MILWAUKEE, WI, 53202",77744598,"L"
175012,"330 EAST MAIN ST","EATON","OH",45320,39.7439731590001,-84.631687367,12,"330 EAST MAIN ST, EATON, OH, 45320","Match","Exact","330 E MAIN ST, EATON, OH, 45320",54587600,"L"
175013,"330 ELM STREET","WEST HEMPSTEAD","NY",11552,40.692345774,-73.652669504,13,"330 ELM STREET, WEST HEMPSTEAD, NY, 11552","Match","Exact","330 ELM ST, W HEMPSTEAD, NY, 11552",147674540,"R"
175014,"330 ELMWOOD RD","MIDWAY","TN",37809,36.158293912,-82.99990709,14,"330 ELMWOOD RD, MIDWAY, TN, 37809","Match","Exact","330 ELMWOOD RD, MIDWAY, TN, 37809",127751836,"L"
175015,"330 EMIG ROAD","YORK","PA",17406,40.0176071980001,-76.721281668,15,"330 EMIG ROAD, YORK, PA, 17406","Match","Exact","330 EMIG RD, YORK, PA, 17406",88721224,"R"
175016,"330 FARM LANE","DOYLESTOWN","PA",18901,40.3106667270001,-75.113800026,16,"330 FARM LANE, DOYLESTOWN, PA, 18901","Match","Exact","330 FARM LN, DOYLESTOWN, PA, 18901",134703928,"L"
175017,"330 FELTER AVE","HEWLETT","NY",11557,40.6380381010001,-73.7086217999999,17,"330 FELTER AVE, HEWLETT, NY, 11557","Match","Exact","330 FELTER AVE, HEWLETT, NY, 11557",147677718,"R"
175018,"330 FERRY STREET","MARTINEZ","CA",94553,38.020496946,-122.137850558,18,"330 FERRY STREET, MARTINEZ, CA, 94553","Match","Exact","330 FERRY ST, MARTINEZ, CA, 94553",637726860,"L"
175019,"330 FOOTHILL DR S","SEDONA","AZ",86336,NA,NA,19,"330 FOOTHILL DR S, SEDONA, AZ, 86336","No_Match",NA,NA,NA,NA
175020,"330 FORD STREET","OGDENSBURG","NY",13669,44.6979168490001,-75.4919846829999,20,"330 FORD STREET, OGDENSBURG, NY, 13669","Match","Exact","330 FORD ST, OGDENSBURG, NY, 13669",155177256,"L"
175021,"330 FRANK LUTRELL RD","LEWISPORT","KY",42352,NA,NA,21,"330 FRANK LUTRELL RD, LEWISPORT, KY, 42352","No_Match",NA,NA,NA,NA
175022,"330 FRANKLIN AVENUE","CHELTENHAM","PA",19012,40.0632858450001,-75.093190378,22,"330 FRANKLIN AVENUE, CHELTENHAM, PA, 19012","Match","Exact","330 FRANKLIN AVE, CHELTENHAM, PA, 19012",135096465,"L"
175023,"330 GANNETT ROAD","SCITUATE","MA",2066,42.219613447,-70.7834354989999,23,"330 GANNETT ROAD, SCITUATE, MA, 2066","Match","Exact","330 GANNETT RD, SCITUATE, MA, 02066",87490329,"L"
175024,"330 GARNSEY AVE","BAKERSFIELD","CA",93309,35.359669195,-119.045862373,24,"330 GARNSEY AVE, BAKERSFIELD, CA, 93309","Match","Exact","330 GARNSEY AVE, BAKERSFIELD, CA, 93309",109500035,"R"
175025,"330 GAY STREET","WILLIAMSBURG","OH",45176,39.0560523660001,-84.0526189449999,25,"330 GAY STREET, WILLIAMSBURG, OH, 45176","Match","Exact","330 GAY ST, WILLIAMSBURG, OH, 45176",118451337,"L"
175026,"330 GRANT ST -3300 GRANT BLDG","PITTSBURGH","PA",15219,NA,NA,26,"330 GRANT ST -3300 GRANT BLDG, PITTSBURGH, PA, 15219","No_Match",NA,NA,NA,NA
175027,"330 GREENE ST NUM 22","JACKSONVILLE","IL",62312,39.6974023700001,-91.034559453,27,"330 GREENE ST NUM 22, JACKSONVILLE, IL, 62312","Match","Non_Exact","330 GREENE ST, BARRY, IL, 62312",610589342,"L"
175028,"330 HAMMOND STREET","PITTSBURGH","PA",15204,NA,NA,28,"330 HAMMOND STREET, PITTSBURGH, PA, 15204","No_Match",NA,NA,NA,NA
175029,"330 HARTFORD ROAD","SOUTH ORANGE","NJ",7079,40.7506411090001,-74.242173843,29,"330 HARTFORD ROAD, SOUTH ORANGE, NJ, 7079","Match","Exact","330 HARTFORD RD, SOUTH ORANGE, NJ, 07079",650754369,"R"
175030,"330 HIGHWAY 335","SHERIDAN","WY",82801,44.6826753130001,-106.995438104,30,"330 HIGHWAY 335, SHERIDAN, WY, 82801","Match","Non_Exact","330 STATE HWY 335, SHERIDAN, WY, 82801",147407921,"R"
175031,"330 HILLS STREET","EAST HARTFORD","CT",6118,41.742148973,-72.589855786,31,"330 HILLS STREET, EAST HARTFORD, CT, 6118","Match","Exact","330 HILLS ST, EAST HARTFORD, CT, 06118",604942889,"L"
175032,"330 HIMMARSHEE STREET - UNIT 110","FORT LAUDERDALE","FL",33312,26.12043893,-80.147644911,32,"330 HIMMARSHEE STREET - UNIT 110, FORT LAUDERDALE, FL, 33312","Match","Exact","330 HIMMARSHEE ST, FORT LAUDERDALE, FL, 33312",114722679,"L"
175033,"330 HUNTER LANE","RICHMOND","KY",40475,37.7730833740001,-84.2561129279999,33,"330 HUNTER LANE, RICHMOND, KY, 40475","Match","Exact","330 HUNTER LN, RICHMOND, KY, 40475",31998213,"L"
175034,"330 INDEPENDENCE AVENUE","WASHINGTON","DC",20237,NA,NA,34,"330 INDEPENDENCE AVENUE, WASHINGTON, DC, 20237","No_Match",NA,NA,NA,NA
175035,"330 INNOVATION BLVD STE 302","STATE COLLEGE","PA",16803,40.8293604670001,-77.846286468,35,"330 INNOVATION BLVD STE 302, STATE COLLEGE, PA, 16803","Match","Exact","330 INNOVATION BLVD, STATE COLLEGE, PA, 16803",50401262,"L"
175036,"330 INTERTECH PARKWAY SUITE 160","ANGOLA","IN",46703,NA,NA,36,"330 INTERTECH PARKWAY SUITE 160, ANGOLA, IN, 46703","No_Match",NA,NA,NA,NA
175037,"330 JACQUE STREET","FLINT","MI",48532,NA,NA,37,"330 JACQUE STREET, FLINT, MI, 48532","No_Match",NA,NA,NA,NA
175038,"330 JERRY CIRCLE","GADSDEN","AL",35901,34.044132507,-85.948172079,38,"330 JERRY CIRCLE, GADSDEN, AL, 35901","Match","Exact","330 JERRY CIR, GADSDEN, AL, 35901",66797304,"R"
175039,"330 JEWEL ST C","NEW ORLEANS","LA",70124,30.0227007870001,-90.11143693,39,"330 JEWEL ST C, NEW ORLEANS, LA, 70124","Match","Exact","330 JEWEL ST, NEW ORLEANS, LA, 70124",191702719,"R"
175040,"330 JOE CAMPBELL ROAD","FREEPORT","FL",32439,30.487150984,-86.117496175,40,"330 JOE CAMPBELL ROAD, FREEPORT, FL, 32439","Match","Exact","330 JOE CAMPBELL RD, FREEPORT, FL, 32439",647403572,"L"
175041,"330 KAYAK DRIVE","ANCHORAGE","AK",99515,61.105477975,-149.87518427,41,"330 KAYAK DRIVE, ANCHORAGE, AK, 99515","Match","Exact","330 KAYAK DR, ANCHORAGE, AK, 99515",190800777,"R"
175042,"330 KELLAM RD UNIT 203","VIRGINIA BEACH","VA",23462,36.846341022,-76.1427812759999,42,"330 KELLAM RD UNIT 203, VIRGINIA BEACH, VA, 23462","Match","Exact","330 KELLAM RD, VA BCH, VA, 23462",122312357,"R"
175043,"330 KNAUSS RD","NAZARETH","PA",18064,40.7483959040001,-75.345974043,43,"330 KNAUSS RD, NAZARETH, PA, 18064","Match","Exact","330 KNAUSS RD, NAZARETH, PA, 18064",136913917,"R"
175044,"330 LABARRE STREET","HANCOCK","NY",13873,NA,NA,44,"330 LABARRE STREET, HANCOCK, NY, 13873","No_Match",NA,NA,NA,NA
175045,"330 LEFFERTS AVE 2","BROOKLYN","NY",11225,40.6623849710001,-73.9502356369999,45,"330 LEFFERTS AVE 2, BROOKLYN, NY, 11225","Match","Exact","330 LEFFERTS AVE, BROOKLYN, NY, 11225",59079581,"R"
175046,"330 LINDA LANE NW","FORT WALTON BEACH","FL",32548,30.415414508,-86.636164144,46,"330 LINDA LANE NW, FORT WALTON BEACH, FL, 32548","Match","Exact","330 LINDA LN NW, FORT WALTON BEACH, FL, 32548",74389467,"L"
175047,"330 LOUISE DRIVE","UVALDE","TX",78801,29.218731534,-99.771523116,47,"330 LOUISE DRIVE, UVALDE, TX, 78801","Match","Exact","330 LOUISE DR, UVALDE, TX, 78801",183446408,"R"
175048,"330 MAIN STREET","MC GREGOR","IA",52157,43.022757991,-91.177542678,48,"330 MAIN STREET, MC GREGOR, IA, 52157","Match","Exact","330 MAIN ST, MC GREGOR, IA, 52157",48473197,"L"
175049,"330 MAPLE AVE APT 13","WESTBURY","NY",11590,40.7559226230001,-73.5868622689999,49,"330 MAPLE AVE APT 13, WESTBURY, NY, 11590","Match","Exact","330 MAPLE AVE, WESTBURY, NY, 11590",147624152,"R"
175050,"330 MARKHAM WOODS RD","LONGWOOD","FL",32779,28.699700254,-81.387192796,50,"330 MARKHAM WOODS RD, LONGWOOD, FL, 32779","Match","Exact","330 MARKHAM WOODS RD, LONGWOOD, FL, 32779",93767250,"R"
175051,"330 MARSHALL ST STE 600","SHREVEPORT","LA",71101,32.5142240390001,-93.751080191,51,"330 MARSHALL ST STE 600, SHREVEPORT, LA, 71101","Match","Exact","330 MARSHALL ST, SHREVEPORT, LA, 71101",57434582,"R"
175052,"330 MARSHALL ST STE 711","SHREVEPORT","LA",71101,32.5142240390001,-93.751080191,52,"330 MARSHALL ST STE 711, SHREVEPORT, LA, 71101","Match","Exact","330 MARSHALL ST, SHREVEPORT, LA, 71101",57434582,"R"
175053,"330 MCKAYLA CT","MYRTLE BEACH","SC",29579,NA,NA,53,"330 MCKAYLA CT, MYRTLE BEACH, SC, 29579","No_Match",NA,NA,NA,NA
175054,"330 MEADOW CREST DRIVE","LABADIE","MO",63055,38.5012909480001,-90.794289497,54,"330 MEADOW CREST DRIVE, LABADIE, MO, 63055","Match","Exact","330 MEADOW CREST DR, LABADIE, MO, 63055",99749853,"L"
175055,"330 MIRADA RD","HALF MOON BAY","CA",94019,37.4939552880001,-122.454925289,55,"330 MIRADA RD, HALF MOON BAY, CA, 94019","Match","Exact","330 MIRADA RD, HALF MOON BAY, CA, 94019",604987899,"R"
175056,"330 MORGANZA ROAD","CANONSBURG","PA",15317,40.278216252,-80.156973087,56,"330 MORGANZA ROAD, CANONSBURG, PA, 15317","Match","Exact","330 MORGANZA RD, CANONSBURG, PA, 15317",52805276,"L"
175057,"330 MOSELEY CROSSING CT","STOCKBRIDGE","GA",30281,33.543488702,-84.158960067,57,"330 MOSELEY CROSSING CT, STOCKBRIDGE, GA, 30281","Match","Exact","330 MOSELEY CROSSING CT, STOCKBRIDGE, GA, 30281",23195871,"R"
175058,"330 MOUNTAIN ROAD","WILLIAMSPORT","PA",17702,41.1744786,-77.100374113,58,"330 MOUNTAIN ROAD, WILLIAMSPORT, PA, 17702","Match","Exact","330 MOUNTAIN RD, WILLIAMSPORT, PA, 17702",59472053,"R"
175059,"330 MOUNTS CORNER DRIVE SUITE 120","FREEHOLD","NJ",7728,NA,NA,59,"330 MOUNTS CORNER DRIVE SUITE 120, FREEHOLD, NJ, 7728","No_Match",NA,NA,NA,NA
175060,"330 N BRAND BLVD SUITE 1280","GLENDALE","CA",91203,NA,NA,60,"330 N BRAND BLVD SUITE 1280, GLENDALE, CA, 91203","No_Match",NA,NA,NA,NA
175061,"330 N BRAND BLVD SUITE 155","GLENDALE","CA",91203,NA,NA,61,"330 N BRAND BLVD SUITE 155, GLENDALE, CA, 91203","No_Match",NA,NA,NA,NA
175062,"330 N BROAD STREET","FAIRBORN","OH",45324,39.827393902,-84.026718553,62,"330 N BROAD STREET, FAIRBORN, OH, 45324","Match","Exact","330 N BROAD ST, FAIRBORN, OH, 45324",143418656,"R"
175063,"330 N COLUMBUS ST","ALEXANDRIA","VA",22314,38.80787016,-77.047550687,63,"330 N COLUMBUS ST, ALEXANDRIA, VA, 22314","Match","Exact","330 N COLUMBUS ST, ALEXANDRIA, VA, 22314",75991536,"L"
175064,"330 N EAST RIVER RD","DES PLAINES","IL",60016,42.058656054,-87.870382466,64,"330 N EAST RIVER RD, DES PLAINES, IL, 60016","Match","Exact","330 E RIVER RD, DES PLAINES, IL, 60016",651811090,"L"
175065,"330 N EISENHOWER DR","BECKLEY","WV",25801,37.7843277740001,-81.169947483,65,"330 N EISENHOWER DR, BECKLEY, WV, 25801","Match","Exact","330 N EISENHOWER DR, BECKLEY, WV, 25801",631784276,"R"
175066,"330 N HIGH ST","LAKE HELEN","FL",32744,28.989035619,-81.236084966,66,"330 N HIGH ST, LAKE HELEN, FL, 32744","Match","Exact","330 N HIGH ST, LAKE HELEN, FL, 32744",94500616,"L"
175067,"330 N JEFFERSON AVE","SPRINGFIELD","MO",65806,37.210887644,-93.289738079,67,"330 N JEFFERSON AVE, SPRINGFIELD, MO, 65806","Match","Exact","330 N JEFFERSON AVE, SPRINGFIELD, MO, 65806",76675102,"R"
175068,"330 N JUNIPER ST APT 36","ESCONDIDO","CA",92025,NA,NA,68,"330 N JUNIPER ST APT 36, ESCONDIDO, CA, 92025","Tie",NA,NA,NA,NA
175069,"330 N MARTEL AVE","LOS ANGELES","CA",90036,34.0768645430001,-118.351082015,69,"330 N MARTEL AVE, LOS ANGELES, CA, 90036","Match","Exact","330 N MARTEL AVE, LOS ANGELES, CA, 90036",141598646,"R"
175070,"330 N WABASH AVE SUITE 3300","CHICAGO","IL",60611,41.8884606720001,-87.6272190939999,70,"330 N WABASH AVE SUITE 3300, CHICAGO, IL, 60611","Match","Non_Exact","330 N WABASH AVE, CHICAGO, IL, 60611",643187417,"L"
175071,"330 NE 180 DRIVE","N MIAMI BCH","FL",33162,25.937400516,-80.193882821,71,"330 NE 180 DRIVE, N MIAMI BCH, FL, 33162","Match","Exact","330 NE 180TH DR, N MIAMI BEACH, FL, 33162",116030647,"R"
175072,"330 NEWELL ROAD NE","PALM BAY","FL",32907,28.004093992,-80.602577103,72,"330 NEWELL ROAD NE, PALM BAY, FL, 32907","Match","Exact","330 NEWELL RD NE, PALM BAY, FL, 32907",93953650,"R"
175073,"330 NINE PARTNERS RD","CLINTON CORNERS","NY",12514,41.8869589,-73.7759975719999,73,"330 NINE PARTNERS RD, CLINTON CORNERS, NY, 12514","Match","Exact","330 NINE PARTNERS RD, CLINTON CORNERS, NY, 12514",619932763,"L"
175074,"330 NORTH DRIVE","FAYETTEVILLE","GA",30214,NA,NA,74,"330 NORTH DRIVE, FAYETTEVILLE, GA, 30214","No_Match",NA,NA,NA,NA
175075,"330 NORTH LAFAYETTE AVE","BROWNSVILLE","TN",38012,35.5972982970001,-89.262884453,75,"330 NORTH LAFAYETTE AVE, BROWNSVILLE, TN, 38012","Match","Exact","330 N LAFAYETTE AVE, BROWNSVILLE, TN, 38012",63735325,"R"
175076,"330 NORTH MAIN STREET","RUSHVILLE","IN",46173,39.609701849,-85.4447972949999,76,"330 NORTH MAIN STREET, RUSHVILLE, IN, 46173","Match","Exact","330 N MAIN ST, RUSHVILLE, IN, 46173",31295867,"R"
175077,"330 NORTH TANGLEWYLDE DR","SPARTANBURG","SC",29301,34.940991689,-81.958868491,77,"330 NORTH TANGLEWYLDE DR, SPARTANBURG, SC, 29301","Match","Exact","330 N TANGLEWYLDE DR, SPARTANBURG, SC, 29301",19467613,"R"
175078,"330 NORTH WABASH AVENUE - STE 2000","CHICAGO","IL",60611,41.888455865,-87.627218574,78,"330 NORTH WABASH AVENUE - STE 2000, CHICAGO, IL, 60611","Match","Exact","330 N WABASH AVE, CHICAGO, IL, 60611",643187417,"L"
175079,"330 NORTH WABASH STE 2100","CHICAGO","IL",60611,41.888455865,-87.627218574,79,"330 NORTH WABASH STE 2100, CHICAGO, IL, 60611","Match","Non_Exact","330 N WABASH AVE, CHICAGO, IL, 60611",643187417,"L"
175080,"330 NW 97 AVE B3","MIAMI","FL",33172,NA,NA,80,"330 NW 97 AVE B3, MIAMI, FL, 33172","No_Match",NA,NA,NA,NA
175081,"330 OCEAN STREET","SANTA CRUZ","CA",95060,36.9717443930001,-122.017555101,81,"330 OCEAN STREET, SANTA CRUZ, CA, 95060","Match","Exact","330 OCEAN ST, SANTA CRUZ, CA, 95060",125506473,"R"
175082,"330 OLD OAK ST UNIT R","PEMBROKE","MA",2359,42.102485906,-70.7644507539999,82,"330 OLD OAK ST UNIT R, PEMBROKE, MA, 2359","Match","Exact","330 OAK ST, PEMBROKE, MA, 02359",87485461,"L"
175083,"330 PARK AVE","BLOOMFIELD","CT",6002,41.8226385720001,-72.712351971,83,"330 PARK AVE, BLOOMFIELD, CT, 6002","Match","Exact","330 PARK AVE, BLOOMFIELD, CT, 06002",604937087,"R"
175084,"330 PARK AVENUE  P O BOX 7362","BLOOMFIELD","CT",6002,41.8226385720001,-72.712351971,84,"330 PARK AVENUE  P O BOX 7362, BLOOMFIELD, CT, 6002","Match","Exact","330 PARK AVE, BLOOMFIELD, CT, 06002",604937087,"R"
175085,"330 PARK AVENUE 2ND FLOOR","BLOOMFIELD","CT",6002,41.8226385720001,-72.712351971,85,"330 PARK AVENUE 2ND FLOOR, BLOOMFIELD, CT, 6002","Match","Exact","330 PARK AVE, BLOOMFIELD, CT, 06002",604937087,"R"
175086,"330 PARK AVENUE","BLOOMFIELD","CT",6002,41.8226385720001,-72.712351971,86,"330 PARK AVENUE, BLOOMFIELD, CT, 6002","Match","Exact","330 PARK AVE, BLOOMFIELD, CT, 06002",604937087,"R"
175087,"330 PARK ST","MONTCLAIR","NJ",7043,40.8358407060001,-74.2034026869999,87,"330 PARK ST, MONTCLAIR, NJ, 7043","Match","Exact","330 PARK ST, MONTCLAIR, NJ, 07043",63448531,"L"
175088,"330 PECK ST","SAULT STE. MARIE","MI",49783,46.496848723,-84.352093133,88,"330 PECK ST, SAULT STE. MARIE, MI, 49783","Match","Non_Exact","330 PECK ST, SAULT SAINTE MARIE, MI, 49783",130548803,"R"
175089,"330 PENNSYLVANIA AVENUE SE","COLUMBIA","MD",20003,NA,NA,89,"330 PENNSYLVANIA AVENUE SE, COLUMBIA, MD, 20003","No_Match",NA,NA,NA,NA
175090,"330 PONCE DE LEON PLACE","DECATUR","GA",30030,33.777608759,-84.3000131649999,90,"330 PONCE DE LEON PLACE, DECATUR, GA, 30030","Match","Exact","330 PONCE DE LEON PL, DECATUR, GA, 30030",23367066,"L"
175091,"330 POWELL AVE","NEWBURGH","NY",12550,41.5142530680001,-74.014706437,91,"330 POWELL AVE, NEWBURGH, NY, 12550","Match","Exact","330 POWELL AVE, NEWBURGH, NY, 12550",124413521,"R"
175092,"330 PRIVATE ROAD 3567","PAWHUSKA","OK",74056,NA,NA,92,"330 PRIVATE ROAD 3567, PAWHUSKA, OK, 74056","No_Match",NA,NA,NA,NA
175093,"330 PRUSSIAN LANE","WAYNE","PA",19087,40.080010616,-75.43052648,93,"330 PRUSSIAN LANE, WAYNE, PA, 19087","Match","Exact","330 PRUSSIAN LN, WAYNE, PA, 19087",179498853,"L"
175094,"330 QUINNHILL ROAD","LOS ALTOS","CA",94024,37.3650413060001,-122.10721221,94,"330 QUINNHILL ROAD, LOS ALTOS, CA, 94024","Match","Exact","330 QUINNHILL RD, LOS ALTOS, CA, 94024",614036137,"L"
175095,"330 RAYFORD RD 361","SPRING","TX",77386,30.126963227,-95.439723382,95,"330 RAYFORD RD 361, SPRING, TX, 77386","Match","Exact","330 RAYFORD RD, SPRING, TX, 77386",79302956,"R"
175096,"330 RAYFORD RD PNB 313","SPRING","TX",77386,30.126963227,-95.439723382,96,"330 RAYFORD RD PNB 313, SPRING, TX, 77386","Match","Exact","330 RAYFORD RD, SPRING, TX, 77386",79302956,"R"
175097,"330 RAYFORD RD STE 108","SPRING","TX",77386,30.126963227,-95.439723382,97,"330 RAYFORD RD STE 108, SPRING, TX, 77386","Match","Exact","330 RAYFORD RD, SPRING, TX, 77386",79302956,"R"
175098,"330 RAYFORD RD STE 778","SPRING","TX",77386,30.126963227,-95.439723382,98,"330 RAYFORD RD STE 778, SPRING, TX, 77386","Match","Exact","330 RAYFORD RD, SPRING, TX, 77386",79302956,"R"
175099,"330 RIDGEMONT DRIVE","FAYETTEVILLE","GA",30215,33.419255052,-84.3961442949999,99,"330 RIDGEMONT DRIVE, FAYETTEVILLE, GA, 30215","Match","Exact","330 RIDGEMONT DR, FAYETTEVILLE, GA, 30215",75937963,"L"
175100,"330 RIDGEWAY ROAD","WOODSIDE","CA",94062,37.4438420490001,-122.251323823,100,"330 RIDGEWAY ROAD, WOODSIDE, CA, 94062","Match","Exact","330 RIDGEWAY RD, WOODSIDE, CA, 94062",192396954,"R"
175101,"330 ROCHESTER STREET UNIT A","COSTA MESA","CA",92627,33.634139373,-117.912635387,101,"330 ROCHESTER STREET UNIT A, COSTA MESA, CA, 92627","Match","Exact","330 ROCHESTER ST, COSTA MESA, CA, 92627",144049379,"L"
175102,"330 RUGBY ROAD PS 139","BROOKLYN","NY",11226,40.6416963070001,-73.965470883,102,"330 RUGBY ROAD PS 139, BROOKLYN, NY, 11226","Match","Exact","330 RUGBY RD, BROOKLYN, NY, 11226",59080927,"R"
175103,"330 S CASINO CENTER","LAS VEGAS","NV",89101,36.167990709,-115.145865881,103,"330 S CASINO CENTER, LAS VEGAS, NV, 89101","Match","Non_Exact","330 S CASINO CENTER BLVD, LAS VEGAS, NV, 89101",201867450,"R"
175104,"330 S GREENE ST   STE B12","GREENSBORO","NC",27401,NA,NA,104,"330 S GREENE ST   STE B12, GREENSBORO, NC, 27401","Tie",NA,NA,NA,NA
175105,"330 S HUBBARDS LN","LOUISVILLE","KY",40207,38.246516716,-85.637416549,105,"330 S HUBBARDS LN, LOUISVILLE, KY, 40207","Match","Exact","330 S HUBBARDS LN, LOUISVILLE, KY, 40207",96990662,"R"
175106,"330 S MERELET LN","ORANGE","CA",92869,33.7829943300001,-117.818954924,106,"330 S MERELET LN, ORANGE, CA, 92869","Match","Exact","330 S MERELET LN, ORANGE, CA, 92869",144052819,"R"
175107,"330 S TOOLE AVE STE 400","TUCSON","AZ",85701,32.2185555660001,-110.961426983,107,"330 S TOOLE AVE STE 400, TUCSON, AZ, 85701","Match","Non_Exact","330 S TOOLE AVE, TUCSON, AZ, 85701",637405830,"L"
175108,"330 SARATOGA RD 88808","HONOLULU","HI",96830,21.2793756310001,-157.832470948,108,"330 SARATOGA RD 88808, HONOLULU, HI, 96830","Match","Non_Exact","330 SARATOGA RD, HONOLULU, HI, 96815",203262212,"L"
175109,"330 SCARLETT BLVD","SPRINGDALE","AR",72762,36.207502902,-94.204565588,109,"330 SCARLETT BLVD, SPRINGDALE, AR, 72762","Match","Exact","330 SCARLETT BLVD, SPRINGDALE, AR, 72762",49109501,"R"
175110,"330 SHADY BROOK LANE UNIT D","LAS VEGAS","NV",89107,36.1766937840001,-115.237814536,110,"330 SHADY BROOK LANE UNIT D, LAS VEGAS, NV, 89107","Match","Non_Exact","330 SHADYBROOK LN, LAS VEGAS, NV, 89107",201859878,"L"
175111,"330 SHORE DRIVE","HOP BOTTOM","PA",18824,NA,NA,111,"330 SHORE DRIVE, HOP BOTTOM, PA, 18824","No_Match",NA,NA,NA,NA
175112,"330 SIMONS AVENUE","HACKENSACK","NJ",7601,40.881426102,-74.059715984,112,"330 SIMONS AVENUE, HACKENSACK, NJ, 7601","Match","Exact","330 SIMONS AVE, HACKENSACK, NJ, 07601",64385558,"R"
175113,"330 SIXTH ST STE 201","REDLANDS","CA",92373,34.0583864230001,-117.180357184,113,"330 SIXTH ST STE 201, REDLANDS, CA, 92373","Match","Non_Exact","330 6TH ST, REDLANDS, CA, 92374",145227548,"R"
175114,"330 SOUTH 32ND STREET","SAN DIEGO","CA",92113,32.703109695,-117.125213034,114,"330 SOUTH 32ND STREET, SAN DIEGO, CA, 92113","Match","Exact","330 S 32ND ST, SAN DIEGO, CA, 92113",612868181,"R"
175115,"330 SOUTH 800 EAST","SLC","UT",84102,40.7620566900001,-111.868200689,115,"330 SOUTH 800 EAST, SLC, UT, 84102","Match","Exact","330 S 800 E, SLC, UT, 84102",176068051,"R"
175116,"330 SOUTH C STREET","MADEA","CA",93638,36.960857751,-120.054864398,116,"330 SOUTH C STREET, MADEA, CA, 93638","Match","Non_Exact","330 S C ST, MADERA, CA, 93638",102338223,"L"
175117,"330 SOUTH CASINO CENTER BLVD","LAS VEGAS","NV",89101,36.1679969320001,-115.145861746,117,"330 SOUTH CASINO CENTER BLVD, LAS VEGAS, NV, 89101","Match","Exact","330 S CASINO CENTER BLVD, LAS VEGAS, NV, 89101",201867450,"R"
175118,"330 SOUTH MICHIGAN AVENUE APT 1804","CHICAGO","IL",60604,41.8778537800001,-87.624382866,118,"330 SOUTH MICHIGAN AVENUE APT 1804, CHICAGO, IL, 60604","Match","Exact","330 S MICHIGAN AVE, CHICAGO, IL, 60604",605274657,"R"
175119,"330 SOUTH THOMPSON STREET","DELAND","FL",32720,29.0238801780001,-81.31055639,119,"330 SOUTH THOMPSON STREET, DELAND, FL, 32720","Match","Exact","330 S THOMPSON ST, DELAND, FL, 32720",94511070,"L"
175120,"330 SOUTH WEST ST UNIT 301","ALEXANDRIA","VA",22314,38.802819282,-77.055292836,120,"330 SOUTH WEST ST UNIT 301, ALEXANDRIA, VA, 22314","Match","Exact","330 S WEST ST, ALEXANDRIA, VA, 22314",638934244,"L"
175121,"330 SOUTHAMPTON RD","WESTFIELD","MA",1085,42.1498959560001,-72.727592592,121,"330 SOUTHAMPTON RD, WESTFIELD, MA, 1085","Match","Exact","330 SOUTHAMPTON RD, WESTFIELD, MA, 01085",4057810,"L"
175122,"330 SUMNER STREET","CARLINVILLE","IL",62626,39.282562526,-89.876287745,122,"330 SUMNER STREET, CARLINVILLE, IL, 62626","Match","Exact","330 SUMNER ST, CARLINVILLE, IL, 62626",97915033,"L"
175123,"330 SUNDERLAND RD S","DELPHOS","OH",45833,NA,NA,123,"330 SUNDERLAND RD S, DELPHOS, OH, 45833","No_Match",NA,NA,NA,NA
175124,"330 SW 25TH STREET","OKLAHOMA CITY","OK",73109,35.439411057,-97.518682934,124,"330 SW 25TH STREET, OKLAHOMA CITY, OK, 73109","Match","Exact","330 SW 25TH ST, OKLAHOMA CITY, OK, 73109",100402949,"L"
175125,"330 TALL MEADOW LANE","YARDLEY","PA",19067,40.20845817,-74.8537261559999,125,"330 TALL MEADOW LANE, YARDLEY, PA, 19067","Match","Exact","330 TALL MEADOW LN, YARDLEY, PA, 19067",134732248,"L"
175126,"330 TALL TIMBERS DRIVE","ROSWELL","GA",30076,34.05737903,-84.343999947,126,"330 TALL TIMBERS DRIVE, ROSWELL, GA, 30076","Match","Exact","330 TALL TIMBERS DR, ROSWELL, GA, 30076",17384447,"R"
175127,"330 TAZEWELL STREET","WYTHEVILLE","VA",24382,36.9513548410001,-81.085180286,127,"330 TAZEWELL STREET, WYTHEVILLE, VA, 24382","Match","Exact","330 TAZEWELL ST, WYTHEVILLE, VA, 24382",47634248,"R"
175128,"330 TURTLE CREEK DRIVE","LOVELAND","OH",45140,39.2556865500001,-84.2377056029999,128,"330 TURTLE CREEK DRIVE, LOVELAND, OH, 45140","Match","Exact","330 TURTLE CREEK DR, LOVELAND, OH, 45140",647141232,"L"
175129,"330 VERNON STREET BOX 1203","ROSEVILLE","CA",95678,38.7486537770001,-121.284463477,129,"330 VERNON STREET BOX 1203, ROSEVILLE, CA, 95678","Match","Exact","330 VERNON ST, ROSEVILLE, CA, 95678",636419863,"R"
175130,"330 VIA HIDALGO","MARIN","CA",94904,37.948160946,-122.530780636,130,"330 VIA HIDALGO, MARIN, CA, 94904","Match","Non_Exact","330 VIA HIDALGO, GREENBRAE, CA, 94904",629148138,"R"
175131,"330 VILLA STREET","MOUNTAIN VIEW","CA",94041,37.391494069,-122.073429451,131,"330 VILLA STREET, MOUNTAIN VIEW, CA, 94041","Match","Exact","330 VILLA ST, MOUNTAIN VIEW, CA, 94041",646608663,"R"
175132,"330 W I STREET 6","ENCINITAS","CA",92024,33.0391891370001,-117.295443784,132,"330 W I STREET 6, ENCINITAS, CA, 92024","Match","Non_Exact","330 W I ST, ENCINITAS, CA, 92024",195691477,"R"
175133,"330 W KING RD","ITHACA","NY",14850,42.4082041670001,-76.517678707,133,"330 W KING RD, ITHACA, NY, 14850","Match","Exact","330 W KING RD, ITHACA, NY, 14850",18863075,"L"
175134,"330 W OKLAHOMA AVE","GUTHRIE","OK",73044,35.878024033,-97.429221119,134,"330 W OKLAHOMA AVE, GUTHRIE, OK, 73044","Match","Exact","330 W OKLAHOMA AVE, GUTHRIE, OK, 73044",121956605,"R"
175135,"330 WALKER DR","SOLEDAD","CA",93960,NA,NA,135,"330 WALKER DR, SOLEDAD, CA, 93960","No_Match",NA,NA,NA,NA
175136,"330 WALTON VIEW","FAIRBURN","GA",30213,33.5585612190001,-84.491214252,136,"330 WALTON VIEW, FAIRBURN, GA, 30213","Match","Exact","330 WALTON VW, FAIRBURN, GA, 30213",608671460,"R"
175137,"330 WASHINGTON ST","WINCHESTER","MA",1890,42.459983037,-71.1285636109999,137,"330 WASHINGTON ST, WINCHESTER, MA, 1890","Match","Exact","330 WASHINGTON ST, WINCHESTER, MA, 01890",86887584,"L"
175138,"330 WATERS ST","BIG SANDY","TN",38221,36.171984615,-88.060173273,138,"330 WATERS ST, BIG SANDY, TN, 38221","Match","Non_Exact","330 WATERS RD, BIG SANDY, TN, 38221",19123953,"R"
175139,"330 WAWONA AVE","CORCORAN","CA",93212,36.110658464,-119.573942352,139,"330 WAWONA AVE, CORCORAN, CA, 93212","Match","Non_Exact","330 WAWONA ST, CORCORAN, CA, 93212",648684753,"L"
175140,"330 WEST 38TH STREET SUITE 1701","NEW YORK","NY",10018,40.7551080970001,-73.992591998,140,"330 WEST 38TH STREET SUITE 1701, NEW YORK, NY, 10018","Match","Exact","330 W 38TH ST, NEW YORK, NY, 10018",59655210,"L"
175141,"330 WEST 39TH STREET 19G","NEW YORK","NY",10018,40.755729817,-73.992136425,141,"330 WEST 39TH STREET 19G, NEW YORK, NY, 10018","Match","Exact","330 W 39TH ST, NEW YORK, NY, 10018",59655212,"L"
175142,"330 WEST 56TH STREET - UNIT 14P","NEW YORK","NY",10019,40.7665227460001,-73.9845092199999,142,"330 WEST 56TH STREET - UNIT 14P, NEW YORK, NY, 10019","Match","Exact","330 W 56TH ST, NEW YORK, NY, 10019",650078189,"L"
175143,"330 WEST BERWICKE COMMON","ATLANTA","GA",30342,33.88082461,-84.357584129,143,"330 WEST BERWICKE COMMON, ATLANTA, GA, 30342","Match","Non_Exact","330 W BERWICKE CMN NE, ATLANTA, GA, 30342",17368149,"L"
175144,"330 WHEELERS FARMS ROAD","MILFORD","CT",6461,41.243223605,-73.0738075689999,144,"330 WHEELERS FARMS ROAD, MILFORD, CT, 6461","Match","Non_Exact","330 WHEELERS FARM RD, MILFORD, CT, 06461",648630048,"L"
175145,"330 WILLOW ST","STANLEY","NC",28164,35.3674270550001,-81.091721042,145,"330 WILLOW ST, STANLEY, NC, 28164","Match","Exact","330 WILLOW ST, STANLEY, NC, 28164",70374828,"R"
175146,"330 WILSON RD","GRASONVILLE","MD",21638,38.9635850940001,-76.18747687,146,"330 WILSON RD, GRASONVILLE, MD, 21638","Match","Exact","330 WILSON RD, GRASONVILLE, MD, 21638",68055006,"R"
175147,"330 WISE LANE","KEOKUK","IA",52632,40.4005809980001,-91.420840427,147,"330 WISE LANE, KEOKUK, IA, 52632","Match","Exact","330 WISE LN, KEOKUK, IA, 52632",5599280,"R"
175148,"330 WOOD HOLLOW COVE SUITE B","BRANDON","MS",39047,32.345293011,-89.997813322,148,"330 WOOD HOLLOW COVE SUITE B, BRANDON, MS, 39047","Match","Non_Exact","330 WOODHOLLOW COVE, BRANDON, MS, 39047",116915549,"R"
175149,"330 WYTHE AVE 4C","BROOKLYN","NY",11249,40.7149182270001,-73.964866313,149,"330 WYTHE AVE 4C, BROOKLYN, NY, 11249","Match","Exact","330 WYTHE AVE, BROOKLYN, NY, 11249",59075989,"R"
175150,"330-1 SLEEPY HOLLOW DR","INTERLACHEN","FM",32148,NA,NA,150,"330-1 SLEEPY HOLLOW DR, INTERLACHEN, FM, 32148","No_Match",NA,NA,NA,NA
175151,"330","LEXINGTON","NC",27295,NA,NA,151,"330, LEXINGTON, NC, 27295","No_Match",NA,NA,NA,NA
175152,"3300 18TH AVE","ROCK ISLAND","IL",61201,41.49329857,-90.553073287,152,"3300 18TH AVE, ROCK ISLAND, IL, 61201","Match","Exact","3300 18TH AVE, ROCK ISLAND, IL, 61201",9208928,"R"
175153,"3300 43RD AVE S","GRAND FORKS","ND",58201,NA,NA,153,"3300 43RD AVE S, GRAND FORKS, ND, 58201","No_Match",NA,NA,NA,NA
175154,"3300 6TH STREET SE SUTIE 304","WASHINGTON","DC",20032,38.8420895520001,-76.9984373739999,154,"3300 6TH STREET SE SUTIE 304, WASHINGTON, DC, 20032","Match","Exact","3300 6TH ST SE, WASHINGTON, DC, 20032",76232276,"L"
175155,"3300 ARBOR RUN PL","ATLANTA","GA",30349,33.665304221,-84.58726121,155,"3300 ARBOR RUN PL, ATLANTA, GA, 30349","Match","Exact","3300 ARBOR RUN PL, ATLANTA, GA, 30349",627745314,"L"
175156,"3300 ARYDALE AVE","BALTIMORE","MD",21216,NA,NA,156,"3300 ARYDALE AVE, BALTIMORE, MD, 21216","No_Match",NA,NA,NA,NA
175157,"3300 BASS LAKE RD STE 300C","BROOKLYN CENTER","MN",55429,NA,NA,157,"3300 BASS LAKE RD STE 300C, BROOKLYN CENTER, MN, 55429","No_Match",NA,NA,NA,NA
175158,"3300 BASS LAKE ROAD SUITE 400 I","BROOKLYN CENTER","MN",55429,NA,NA,158,"3300 BASS LAKE ROAD SUITE 400 I, BROOKLYN CENTER, MN, 55429","No_Match",NA,NA,NA,NA
175159,"3300 BEE CAVE RD SUITE 650 BOX 222","AUSTIN","TX",78746,NA,NA,159,"3300 BEE CAVE RD SUITE 650 BOX 222, AUSTIN, TX, 78746","No_Match",NA,NA,NA,NA
175160,"3300 BROAD ROCK BOULEVARD","Richmond","VA",23224,37.471905254,-77.482764914,160,"3300 BROAD ROCK BOULEVARD, Richmond, VA, 23224","Match","Exact","3300 BROAD ROCK BLVD, RICHMOND, VA, 23224",201545399,"R"
175161,"3300 BRUNDLE CT","SHERWOOD","AR",72120,34.839961073,-92.216881598,161,"3300 BRUNDLE CT, SHERWOOD, AR, 72120","Match","Exact","3300 BRUNDLE CT, SHERWOOD, AR, 72120",618980856,"L"
175162,"3300 CARMEL ST","DENTON","TX",76205,33.1696606950001,-97.122094956,162,"3300 CARMEL ST, DENTON, TX, 76205","Match","Exact","3300 CARMEL ST, DENTON, TX, 76205",103415011,"R"
175163,"3300 CARPENTER RD SE UNIT 25","LACEY","WA",98503,47.0172823280001,-122.780819558,163,"3300 CARPENTER RD SE UNIT 25, LACEY, WA, 98503","Match","Exact","3300 CARPENTER RD SE, LACEY, WA, 98503",180973995,"L"
175164,"3300 CASCADE RD SW","ATLANTA","GA",30311,33.721633766,-84.496543485,164,"3300 CASCADE RD SW, ATLANTA, GA, 30311","Match","Non_Exact","3300 CASCADE RD, ATLANTA, GA, 30311",17337442,"L"
175165,"3300 CHIMNEY ROCK RD     STE 100","HOUSTON","TX",77056,29.7301630810001,-95.476412045,165,"3300 CHIMNEY ROCK RD     STE 100, HOUSTON, TX, 77056","Match","Exact","3300 CHIMNEY ROCK RD, HOUSTON, TX, 77056",96033092,"R"
175166,"3300 CLIFTON AVENUE","BALTIMORE","MD",21216,39.31107961,-76.672642746,166,"3300 CLIFTON AVENUE, BALTIMORE, MD, 21216","Match","Exact","3300 CLIFTON AVE, BALTIMORE, MD, 21216",206413250,"R"
175167,"3300 COOK STREET","DENVER","CO",80205,39.7632171910001,-104.947481901,167,"3300 COOK STREET, DENVER, CO, 80205","Match","Exact","3300 COOK ST, DENVER, CO, 80205",177310712,"R"
175168,"3300 CORINTH PARKWAY","CORINTH","TX",76208,NA,NA,168,"3300 CORINTH PARKWAY, CORINTH, TX, 76208","No_Match",NA,NA,NA,NA
175169,"3300 CORPORATE AVE SIUTE 100","WESTON","FL",33331,26.0771601000001,-80.3681566179999,169,"3300 CORPORATE AVE SIUTE 100, WESTON, FL, 33331","Match","Exact","3300 CORPORATE AVE, WESTON, FL, 33331",114814800,"L"
175170,"3300 COUNTY 10 SUITE 200F","BROOKLYN CENTER","MN",55429,NA,NA,170,"3300 COUNTY 10 SUITE 200F, BROOKLYN CENTER, MN, 55429","No_Match",NA,NA,NA,NA
175171,"3300 COUNTY RD 10 STE 320M","MINNEAPOLIS","MN",55429,45.060264853,-93.323026856,171,"3300 COUNTY RD 10 STE 320M, MINNEAPOLIS, MN, 55429","Match","Exact","3300 CO RD 10, MINNEAPOLIS, MN, 55429",640682272,"R"
175172,"3300 COUNTY RD 10 STE 530A","MINNEAPOLIS","MN",55429,45.060264853,-93.323026856,172,"3300 COUNTY RD 10 STE 530A, MINNEAPOLIS, MN, 55429","Match","Exact","3300 CO RD 10, MINNEAPOLIS, MN, 55429",640682272,"R"
175173,"3300 COUNTY ROAD 10 SUITE 200F","BROOKLYN CENTER","MN",55429,45.060264853,-93.323026856,173,"3300 COUNTY ROAD 10 SUITE 200F, BROOKLYN CENTER, MN, 55429","Match","Exact","3300 CO RD 10, BROOKLYN CENTER, MN, 55429",640682272,"R"
175174,"3300 COUNTY ROAD 10 SUITE 214","MINNEAPOLIS","MN",55429,45.060264853,-93.323026856,174,"3300 COUNTY ROAD 10 SUITE 214, MINNEAPOLIS, MN, 55429","Match","Exact","3300 CO RD 10, MINNEAPOLIS, MN, 55429",640682272,"R"
175175,"3300 COVE CAY DRIVE UNIT 1D","CLEARWATER","FL",33760,27.932264821,-82.729654728,175,"3300 COVE CAY DRIVE UNIT 1D, CLEARWATER, FL, 33760","Match","Exact","3300 COVE CAY DR, CLEARWATER, FL, 33760",650556153,"L"
175176,"3300 COVE CAY DRIVE UNIT 4F","CLEARWATER","FL",33760,27.932264821,-82.729654728,176,"3300 COVE CAY DRIVE UNIT 4F, CLEARWATER, FL, 33760","Match","Exact","3300 COVE CAY DR, CLEARWATER, FL, 33760",650556153,"L"
175177,"3300 CUMMINS ST APT 2268","HOUSTON","TX",77027,29.73717651,-95.438585422,177,"3300 CUMMINS ST APT 2268, HOUSTON, TX, 77027","Match","Exact","3300 CUMMINS ST, HOUSTON, TX, 77027",650106103,"R"
175178,"3300 DALLAS ACWORTH HIGHWAY","ACWORTH","GA",30101,34.037911142,-84.736176669,178,"3300 DALLAS ACWORTH HIGHWAY, ACWORTH, GA, 30101","Match","Non_Exact","3300 DALLAS ACWORTH HWY NW, ACWORTH, GA, 30101",17193876,"R"
175179,"3300 DEER FOOT LANE","RENO","NV",89506,39.6111227270001,-119.819216617,179,"3300 DEER FOOT LANE, RENO, NV, 89506","Match","Exact","3300 DEER FOOT LN, RENO, NV, 89506",107041469,"R"
175180,"3300 E PALMDALE BLVD","PALMDALE","CA",93550,NA,NA,180,"3300 E PALMDALE BLVD, PALMDALE, CA, 93550","No_Match",NA,NA,NA,NA
175181,"3300 E SKY CROSSING","PHOENIX","AZ",85050,NA,NA,181,"3300 E SKY CROSSING, PHOENIX, AZ, 85050","No_Match",NA,NA,NA,NA
175182,"3300 E SOUTH ST STE 206","LAKEWOOD","CA",90805,33.860197396,-118.153737766,182,"3300 E SOUTH ST STE 206, LAKEWOOD, CA, 90805","Match","Non_Exact","3300 E SOUTH ST, LAKEWOOD, CA, 90805",642861500,"R"
175183,"3300 EDINBOROUGH WAY STE 150","EDINA","MN",55435,NA,NA,183,"3300 EDINBOROUGH WAY STE 150, EDINA, MN, 55435","No_Match",NA,NA,NA,NA
175184,"3300 EDINBOROUGH WAY SUITE 650","EDINA","MN",55435,NA,NA,184,"3300 EDINBOROUGH WAY SUITE 650, EDINA, MN, 55435","No_Match",NA,NA,NA,NA
175185,"3300 FAIRFAX DRIVE SUITE 308","ARLINGTON","VI",22201,NA,NA,185,"3300 FAIRFAX DRIVE SUITE 308, ARLINGTON, VI, 22201","No_Match",NA,NA,NA,NA
175186,"3300 FOX CHASE CIRCLE N  APT 234","PALM HARBOR","FL",34683,NA,NA,186,"3300 FOX CHASE CIRCLE N  APT 234, PALM HARBOR, FL, 34683","No_Match",NA,NA,NA,NA
175187,"3300 HAMILTON MILL RD STE 102 - 492","BUFORD","GA",30519,34.094405411,-83.9356103009999,187,"3300 HAMILTON MILL RD STE 102 - 492, BUFORD, GA, 30519","Match","Exact","3300 HAMILTON MILL RD, BUFORD, GA, 30519",88879138,"L"
175188,"3300 HAMILTON RD  SUITE 102 181","BUFORD","GA",30519,NA,NA,188,"3300 HAMILTON RD  SUITE 102 181, BUFORD, GA, 30519","No_Match",NA,NA,NA,NA
175189,"3300 HARVESTER WOODS RD","DECATUR","GA",30034,33.689122298,-84.2341277959999,189,"3300 HARVESTER WOODS RD, DECATUR, GA, 30034","Match","Exact","3300 HARVESTER WOODS RD, DECATUR, GA, 30034",23389758,"L"
175190,"3300 HENRY AVENUE","PHILADELPHIA","PA",19129,40.0106015550001,-75.18124369,190,"3300 HENRY AVENUE, PHILADELPHIA, PA, 19129","Match","Exact","3300 HENRY AVE, PHILADELPHIA, PA, 19129",131401654,"L"
175191,"3300 HIDDEN BROOK CIRCLE","TRUSSVILLE","AL",35173,33.5995503990001,-86.619562679,191,"3300 HIDDEN BROOK CIRCLE, TRUSSVILLE, AL, 35173","Match","Exact","3300 HIDDEN BROOK CIR, TRUSSVILLE, AL, 35173",81651276,"R"
175192,"3300 HIGHLANDS PKWY STE 110","SMYRNA","GA",30082,33.827281097,-84.49899357,192,"3300 HIGHLANDS PKWY STE 110, SMYRNA, GA, 30082","Match","Non_Exact","3300 HIGHLANDS PKWY SE, SMYRNA, GA, 30082",17197776,"R"
175193,"3300 HOLLAND CLIFFS ROAD","HUNTINGTOWN","MD",20639,38.6055351050001,-76.667053261,193,"3300 HOLLAND CLIFFS ROAD, HUNTINGTOWN, MD, 20639","Match","Exact","3300 HOLLAND CLIFFS RD, HUNTINGTOWN, MD, 20639",78178952,"R"
175194,"3300 HOLMES CENTER RD","BUCYRUS","OH",44820,40.8230886700001,-83.01649036,194,"3300 HOLMES CENTER RD, BUCYRUS, OH, 44820","Match","Exact","3300 HOLMES CENTER RD, BUCYRUS, OH, 44820",12092955,"L"
175195,"3300 HUDSON AVE","YOUNGSTOWN","OH",44511,41.066786301,-80.666490354,195,"3300 HUDSON AVE, YOUNGSTOWN, OH, 44511","Match","Exact","3300 HUDSON AVE, YOUNGSTOWN, OH, 44511",64595124,"R"
175196,"3300 INGLE AVE","LOUISVILLE","KY",40206,38.2518160340001,-85.67039054,196,"3300 INGLE AVE, LOUISVILLE, KY, 40206","Match","Exact","3300 INGLE AVE, LOUISVILLE, KY, 40206",96852387,"R"
175197,"3300 IRVINE AVE   STE 225","NEWPORT BEACH","CA",92660,33.6592246370001,-117.878087627,197,"3300 IRVINE AVE   STE 225, NEWPORT BEACH, CA, 92660","Match","Exact","3300 IRVINE AVE, NEWPORT BEACH, CA, 92660",144049139,"L"
175198,"3300 ISLAMORADA WAY SUITE 208","PALM BEACH GARDENS","FL",33410,26.830164822,-80.0893218859999,198,"3300 ISLAMORADA WAY SUITE 208, PALM BEACH GARDENS, FL, 33410","Match","Exact","3300 ISLAMORADA WAY, PALM BEACH GARDENS, FL, 33410",115352058,"R"
175199,"3300 ISLAMORADA WAY","PALM BEACH GARDENS","FL",33410,26.830164822,-80.0893218859999,199,"3300 ISLAMORADA WAY, PALM BEACH GARDENS, FL, 33410","Match","Exact","3300 ISLAMORADA WAY, PALM BEACH GARDENS, FL, 33410",115352058,"R"
175200,"3300 JACQUE STREET","FLINT","MI",48532,43.0098471790001,-83.744495108,200,"3300 JACQUE STREET, FLINT, MI, 48532","Match","Exact","3300 JACQUE ST, FLINT, MI, 48532",69564275,"R"
175201,"3300 KAHKWA CLUB ROAD","ERIE","PA",16506,42.0576964970001,-80.210076938,201,"3300 KAHKWA CLUB ROAD, ERIE, PA, 16506","Match","Exact","3300 KAHKWA CLUB RD, ERIE, PA, 16506",649333402,"R"
175202,"3300 KAUFFMAN AVE APT 1","VANCOUVER","WA",98660,45.64560844,-122.680862128,202,"3300 KAUFFMAN AVE APT 1, VANCOUVER, WA, 98660","Match","Exact","3300 KAUFFMAN AVE, VANCOUVER, WA, 98660",158321716,"L"
175203,"3300 KINGSLAND AVENUE","OAKLAND","CA",94619,37.782404661,-122.192451845,203,"3300 KINGSLAND AVENUE, OAKLAND, CA, 94619","Match","Exact","3300 KINGSLAND AVE, OAKLAND, CA, 94619",125007806,"R"
175204,"3300 LAKE VALLEY ROAD","PRESCOTT VALLEY","AZ",86314,34.592482042,-112.333915886,204,"3300 LAKE VALLEY ROAD, PRESCOTT VALLEY, AZ, 86314","Match","Non_Exact","3300 N LAKE VALLEY RD, PRESCOTT VALLEY, AZ, 86314",159539893,"L"
175205,"3300 LEOPARD DRIVE","TEXARKANA","TX",75501,33.3882557740001,-94.0920851979999,205,"3300 LEOPARD DRIVE, TEXARKANA, TX, 75501","Match","Exact","3300 LEOPARD DR, TEXARKANA, TX, 75501",57678406,"R"
175206,"3300 LITTLE DREEK RD NE","CEDAR RAPIDS","IA",52402,NA,NA,206,"3300 LITTLE DREEK RD NE, CEDAR RAPIDS, IA, 52402","No_Match",NA,NA,NA,NA
175207,"3300 N 975 W","PLEASANT VIEW","UT",84414,NA,NA,207,"3300 N 975 W, PLEASANT VIEW, UT, 84414","No_Match",NA,NA,NA,NA
175208,"3300 N ALEXANDER LANE","BETHANY","OK",73008,35.5044934040001,-97.6432227939999,208,"3300 N ALEXANDER LANE, BETHANY, OK, 73008","Match","Exact","3300 N ALEXANDER LN, BETHANY, OK, 73008",100389212,"R"
175209,"3300 N INTERSTATE 35 7TH FLOOR","AUSTIN","TX",78705,NA,NA,209,"3300 N INTERSTATE 35 7TH FLOOR, AUSTIN, TX, 78705","No_Match",NA,NA,NA,NA
175210,"3300 N LOOP 336 W APT 421","CONROE","TX",77304,30.3217274090001,-95.502101223,210,"3300 N LOOP 336 W APT 421, CONROE, TX, 77304","Match","Non_Exact","3300 S LOOP 336 W, CONROE, TX, 77304",638053062,"R"
175211,"3300 N LOOP 336 W APT 812","CONROE","TX",77304,30.3217274090001,-95.502101223,211,"3300 N LOOP 336 W APT 812, CONROE, TX, 77304","Match","Non_Exact","3300 S LOOP 336 W, CONROE, TX, 77304",638053062,"R"
175212,"3300 N RIDGE ROAD","ELLICOTT CITY","MD",21046,39.2806302110001,-76.817306571,212,"3300 N RIDGE ROAD, ELLICOTT CITY, MD, 21046","Match","Non_Exact","3300 N RIDGE RD, ELLICOTT CITY, MD, 21043",158950602,"L"
175213,"3300 NE 188TH STREET APT 309","AVENTURA","FL",33180,25.9495218010001,-80.135725871,213,"3300 NE 188TH STREET APT 309, AVENTURA, FL, 33180","Match","Non_Exact","3300 NE 188TH ST, AVENTURA, FL, 33180",633328909,"R"
175214,"3300 NORMANDY ROAD","GREENSBORO","NC",27408,36.116231875,-79.8175121689999,214,"3300 NORMANDY ROAD, GREENSBORO, NC, 27408","Match","Exact","3300 NORMANDY RD, GREENSBORO, NC, 27408",131104935,"R"
175215,"3300 NORTH RIDGE RD SUITE 140","ELLICOTT CITY","MD",20143,39.2806493000001,-76.817318891,215,"3300 NORTH RIDGE RD SUITE 140, ELLICOTT CITY, MD, 20143","Match","Non_Exact","3300 N RIDGE RD, ELLICOTT CITY, MD, 21043",158950602,"L"
175216,"3300 NORTH SAGINAW STREET","FLINT","MI",48505,43.045488409,-83.693763186,216,"3300 NORTH SAGINAW STREET, FLINT, MI, 48505","Match","Exact","3300 N SAGINAW ST, FLINT, MI, 48505",69567176,"R"
175217,"3300 NW 178TH AVENUE","PORTLAND","OR",97229,45.543418951,-122.859865684,217,"3300 NW 178TH AVENUE, PORTLAND, OR, 97229","Match","Exact","3300 NW 178TH AVE, PORTLAND, OR, 97229",158182203,"R"
175218,"3300 NW 185 AVE PMB1045","PORTLAND","OR",97229,45.5441142240001,-122.867500606,218,"3300 NW 185 AVE PMB1045, PORTLAND, OR, 97229","Match","Non_Exact","3300 NW 185TH AVE, PORTLAND, OR, 97229",651774854,"R"
175219,"3300 NW 185TH AVE 1076 ATTN MOLLY H","PORTLAND","OR",97229,45.5441142240001,-122.867500606,219,"3300 NW 185TH AVE 1076 ATTN MOLLY H, PORTLAND, OR, 97229","Match","Non_Exact","3300 NW 185TH AVE, PORTLAND, OR, 97229",651774854,"R"
175220,"3300 NW 185TH AVE 220","PORTLAND","OR",97229,45.5441142240001,-122.867500606,220,"3300 NW 185TH AVE 220, PORTLAND, OR, 97229","Match","Non_Exact","3300 NW 185TH AVE, PORTLAND, OR, 97229",651774854,"R"
175221,"3300 NW 185TH AVE BOX 350","PORTLAND","OR",97229,45.5441142240001,-122.867500606,221,"3300 NW 185TH AVE BOX 350, PORTLAND, OR, 97229","Match","Non_Exact","3300 NW 185TH AVE, PORTLAND, OR, 97229",651774854,"R"
175222,"3300 NW 185TH AVE BOX 88","PORTLAND","OR",97229,45.5441142240001,-122.867500606,222,"3300 NW 185TH AVE BOX 88, PORTLAND, OR, 97229","Match","Non_Exact","3300 NW 185TH AVE, PORTLAND, OR, 97229",651774854,"R"
175223,"3300 NW 63RD ST","FORT LAUDERDALE","FL",33309,26.202928087,-80.192295465,223,"3300 NW 63RD ST, FORT LAUDERDALE, FL, 33309","Match","Exact","3300 NW 63RD ST, FORT LAUDERDALE, FL, 33309",114706627,"L"
175224,"3300 OAK HAMPTON WAY","DULUTH","GA",30096,33.9729783450001,-84.12975453,224,"3300 OAK HAMPTON WAY, DULUTH, GA, 30096","Match","Exact","3300 OAK HAMPTON WAY, DULUTH, GA, 30096",636103194,"L"
175225,"3300 PALMER AVENUE STE 325","BRONX","NY",10475,40.878191572,-73.834884481,225,"3300 PALMER AVENUE STE 325, BRONX, NY, 10475","Match","Exact","3300 PALMER AVE, BRONX, NY, 10475",80298126,"R"
175226,"3300 PGA BLVD SUITE 600","PALM BEACH GARDENS","FL",33410,26.8450350740001,-80.087171105,226,"3300 PGA BLVD SUITE 600, PALM BEACH GARDENS, FL, 33410","Match","Exact","3300 PGA BLVD, PALM BEACH GARDENS, FL, 33410",641072899,"L"
175227,"3300 PLYMOUTH BLVD BOX 46048","PLYMOUTH","MN",55447,45.0178175870001,-93.473176584,227,"3300 PLYMOUTH BLVD BOX 46048, PLYMOUTH, MN, 55447","Match","Exact","3300 PLYMOUTH BLVD, PLYMOUTH, MN, 55447",43821894,"R"
175228,"3300 PROSPECT AVE","SILVER SPRINGS","NV",89429,39.395417971,-119.273093135,228,"3300 PROSPECT AVE, SILVER SPRINGS, NV, 89429","Match","Exact","3300 PROSPECT AVE, SILVER SPRINGS, NV, 89429",140335897,"R"
175229,"3300 QUICK WATER LANDING","KENNESAW","GA",30144,34.0376647840001,-84.6534313239999,229,"3300 QUICK WATER LANDING, KENNESAW, GA, 30144","Match","Exact","3300 QUICK WATER LNDG, KENNESAW, GA, 30144",640223645,"L"
175230,"3300 RANDLEMAN RD","GREENSBORO","NC",27406,36.005455811,-79.806074918,230,"3300 RANDLEMAN RD, GREENSBORO, NC, 27406","Match","Exact","3300 RANDLEMAN RD, GREENSBORO, NC, 27406",640600691,"L"
175231,"3300 S DIXIE HWY STE 1-280","WEST PALM BEACH","FL",33405,26.6822187560001,-80.0545663189999,231,"3300 S DIXIE HWY STE 1-280, WEST PALM BEACH, FL, 33405","Match","Non_Exact","3300 S DIXIE HWY, WEST PALM BEACH, FL, 33405",115349043,"L"
175232,"3300 S GILA","FLAGSTAFF","AZ",86005,35.165491774,-111.656977877,232,"3300 S GILA, FLAGSTAFF, AZ, 86005","Match","Non_Exact","3300 S GILA DR, FLAGSTAFF, AZ, 86005",189061181,"R"
175233,"3300 S ROANOKE AVE","SPRINGFIELD","MO",65807,37.1545210250001,-93.2894256929999,233,"3300 S ROANOKE AVE, SPRINGFIELD, MO, 65807","Match","Exact","3300 S ROANOKE AVE, SPRINGFIELD, MO, 65807",76676755,"L"
175234,"3300 S TAMARAC DR","DENVER","CO",80231,39.6560066970001,-104.89892193,234,"3300 S TAMARAC DR, DENVER, CO, 80231","Match","Exact","3300 S TAMARAC DR, DENVER, CO, 80231",606044637,"L"
175235,"3300 S WAYNE RD","WAYNE","MI",48184,42.2853014450001,-83.383673964,235,"3300 S WAYNE RD, WAYNE, MI, 48184","Match","Exact","3300 WAYNE RD, WAYNE, MI, 48184",95699869,"R"
175236,"3300 S WOODLAND DRIVE","RADCLIFF","KY",40160,37.8044531410001,-85.933765534,236,"3300 S WOODLAND DRIVE, RADCLIFF, KY, 40160","Match","Exact","3300 S WOODLAND DR, RADCLIFF, KY, 40160",34639684,"L"
175237,"3300 SAN JUAN AVE APT 208","PORT TOWSEND","WA",98368,48.124293568,-122.777772234,237,"3300 SAN JUAN AVE APT 208, PORT TOWSEND, WA, 98368","Match","Non_Exact","3300 SAN JUAN AVE, PORT TOWNSEND, WA, 98368",152000118,"R"
175238,"3300 SAN PABLO ST","MISSION","TX",78573,NA,NA,238,"3300 SAN PABLO ST, MISSION, TX, 78573","No_Match",NA,NA,NA,NA
175239,"3300 SE WOODWARD STREET","PORTLAND","OR",97202,45.501935556,-122.631454257,239,"3300 SE WOODWARD STREET, PORTLAND, OR, 97202","Match","Exact","3300 SE WOODWARD ST, PORTLAND, OR, 97202",157510068,"R"
175240,"3300 SEPULVEDA BLVD","TORRANCE","CA",90505,33.8249550840001,-118.343986274,240,"3300 SEPULVEDA BLVD, TORRANCE, CA, 90505","Match","Exact","3300 SEPULVEDA BLVD, TORRANCE, CA, 90505",142756720,"L"
175241,"3300 SHADY SPRINGS","SAN ANTONIO","TX",78230,29.5126557670001,-98.546762292,241,"3300 SHADY SPRINGS, SAN ANTONIO, TX, 78230","Match","Exact","3300 SHADY SPRINGS, SAN ANTONIO, TX, 78230",101714637,"L"
175242,"3300 SHERRI LANE","IMPERIAL","MO",63052,NA,NA,242,"3300 SHERRI LANE, IMPERIAL, MO, 63052","No_Match",NA,NA,NA,NA
175243,"3300 SOUTH DECATUR BLVD","LAS VEGAS","NV",89102,36.1298496630001,-115.20806987,243,"3300 SOUTH DECATUR BLVD, LAS VEGAS, NV, 89102","Match","Exact","3300 S DECATUR BLVD, LAS VEGAS, NV, 89102",201863109,"L"
175244,"3300 SOUTH DIXIE HWY STE I 266","WEST PALM BEACH","FM",33405,NA,NA,244,"3300 SOUTH DIXIE HWY STE I 266, WEST PALM BEACH, FM, 33405","No_Match",NA,NA,NA,NA
175245,"3300 SOUTH GESSNER ROAD SUTE 207","HOUSTON","TX",77063,29.7285181240001,-95.539181942,245,"3300 SOUTH GESSNER ROAD SUTE 207, HOUSTON, TX, 77063","Match","Exact","3300 S GESSNER RD, HOUSTON, TX, 77063",96024062,"R"
175246,"3300 SOUTH INDIANA AVE SUITE C","CHICAGO","IL",60616,41.834573602,-87.621841025,246,"3300 SOUTH INDIANA AVE SUITE C, CHICAGO, IL, 60616","Match","Exact","3300 S INDIANA AVE, CHICAGO, IL, 60616",111770161,"R"
175247,"3300 SOUTH UPPER TRUCKEE RD","SOUTH LAKE TAHOE","CA",96150,38.8176170350001,-120.020324284,247,"3300 SOUTH UPPER TRUCKEE RD, SOUTH LAKE TAHOE, CA, 96150","Match","Exact","3300 S UPPER TRUCKEE RD, SOUTH LAKE TAHOE, CA, 96150",133022940,"L"
175248,"3300 SUNNER AVE UNIT F6","SPIRIT LAKE","IA",51360,43.4108671910001,-95.117302271,248,"3300 SUNNER AVE UNIT F6, SPIRIT LAKE, IA, 51360","Match","Exact","3300 SUNNER AVE, SPIRIT LAKE, IA, 51360",653231844,"L"
175249,"3300 SW 129TH LOOP","OCALA","FL",34473,29.0335366150001,-82.17980468,249,"3300 SW 129TH LOOP, OCALA, FL, 34473","Match","Exact","3300 SW 129TH LOOP, OCALA, FL, 34473",635625716,"R"
175250,"3300 SW 33RD STREET","DES MOINES","IA",50321,41.5545151630001,-93.661894928,250,"3300 SW 33RD STREET, DES MOINES, IA, 50321","Match","Exact","3300 SW 33RD ST, DES MOINES, IA, 50321",645330142,"R"
175251,"3300 SW 34TH AVE SUITE 148","OCALA","FL",34474,NA,NA,251,"3300 SW 34TH AVE SUITE 148, OCALA, FL, 34474","No_Match",NA,NA,NA,NA
175252,"3300 THOMASSON DR","NAPLES","FL",34112,26.109259642,-81.7518568959999,252,"3300 THOMASSON DR, NAPLES, FL, 34112","Match","Exact","3300 THOMASSON DR, NAPLES, FL, 34112",619119618,"R"
175253,"3300 THOMASSON DRIVE","NAPLES","FL",34112,26.109259642,-81.7518568959999,253,"3300 THOMASSON DRIVE, NAPLES, FL, 34112","Match","Exact","3300 THOMASSON DR, NAPLES, FL, 34112",619119618,"R"
175254,"3300 W 157TH ST","GARDENA","CA",90259,33.888022092,-118.330637096,254,"3300 W 157TH ST, GARDENA, CA, 90259","Match","Non_Exact","3300 W 157TH ST, GARDENA, CA, 90249",141664123,"L"
175255,"3300 W CAMELBACK ROAD PAPAGO 204","PHOENIX","AZ",85017,NA,NA,255,"3300 W CAMELBACK ROAD PAPAGO 204, PHOENIX, AZ, 85017","No_Match",NA,NA,NA,NA
175256,"3300 W CLAY ST STE 9","RICHMOND","VA",23230,37.5683131920001,-77.473894037,256,"3300 W CLAY ST STE 9, RICHMOND, VA, 23230","Match","Non_Exact","3300 W CLAY ST, RICHMOND, VA, 23230",201535439,"R"
175257,"3300 W MAYPOLE SUITE415","CHICAGO","IL",60624,NA,NA,257,"3300 W MAYPOLE SUITE415, CHICAGO, IL, 60624","No_Match",NA,NA,NA,NA
175258,"3300 W PENN ST","PHILADELPHIA","PA",19129,40.01629919,-75.187842373,258,"3300 W PENN ST, PHILADELPHIA, PA, 19129","Match","Exact","3300 W PENN ST, PHILADELPHIA, PA, 19129",131400589,"L"
175259,"3300 WAVERLY COURT","COLUMBUS","OH",43227,39.952745758,-82.910129524,259,"3300 WAVERLY COURT, COLUMBUS, OH, 43227","Match","Exact","3300 WAVERLY CT, COLUMBUS, OH, 43227",646835484,"L"
175260,"3300 WELLS BRANCH PKWAY","AUSTIN","TX",78728,30.4400803950001,-97.696103066,260,"3300 WELLS BRANCH PKWAY, AUSTIN, TX, 78728","Match","Exact","3300 WELLS BRANCH PKWY, AUSTIN, TX, 78728",63926845,"L"
175261,"3300 WEST LINCOLN AVENUE 231","ANAHEIM","CA",92801,33.8318286590001,-118.005472494,261,"3300 WEST LINCOLN AVENUE 231, ANAHEIM, CA, 92801","Match","Exact","3300 W LINCOLN AVE, ANAHEIM, CA, 92801",651239474,"L"
175262,"3300 WESTSIDE ROAD","HEALDSBURG","CA",95448,38.574177123,-122.875854037,262,"3300 WESTSIDE ROAD, HEALDSBURG, CA, 95448","Match","Exact","3300 WESTSIDE RD, HEALDSBURG, CA, 95448",605080009,"R"
175263,"3300 WHEELER ROAD","SOUTHEAST WASHINGTON","DC",20032,38.8421006940001,-76.993931472,263,"3300 WHEELER ROAD, SOUTHEAST WASHINGTON, DC, 20032","Match","Non_Exact","3300 WHEELER RD SE, WASHINGTON, DC, 20032",76232355,"L"
175264,"3300 WHITE CASTLE WAY","DECATUR","GA",30034,33.687081726,-84.2139603099999,264,"3300 WHITE CASTLE WAY, DECATUR, GA, 30034","Match","Exact","3300 WHITE CASTLE WAY, DECATUR, GA, 30034",23373547,"L"
175265,"3300 WILDWOOD ELEMENTARY","MIDDLETOWN","OH",45042,39.5253070300001,-84.370218987,265,"3300 WILDWOOD ELEMENTARY, MIDDLETOWN, OH, 45042","Match","Non_Exact","3300 WILDWOOD RD, MIDDLETOWN, OH, 45042",113807062,"R"
175266,"3300 WILSHIRE BLVD STE 301","LOS ANGELES","CA",90010,34.061774004,-118.294229669,266,"3300 WILSHIRE BLVD STE 301, LOS ANGELES, CA, 90010","Match","Exact","3300 WILSHIRE BLVD, LOS ANGELES, CA, 90010",141604941,"L"
175267,"3300 WOLCOTT COMMON APT 104","FREMONT","CA",94538,37.5381882140001,-121.957641713,267,"3300 WOLCOTT COMMON APT 104, FREMONT, CA, 94538","Match","Exact","3300 WOLCOTT CMN, FREMONT, CA, 94538",606293117,"L"
175268,"3300 WOODCREEK DRIVE","DOWNERS GROVE","IL",60515,NA,NA,268,"3300 WOODCREEK DRIVE, DOWNERS GROVE, IL, 60515","No_Match",NA,NA,NA,NA
175269,"3300 WOODSFIELD DRIVE SE","MARIETTA","GA",30062,NA,NA,269,"3300 WOODSFIELD DRIVE SE, MARIETTA, GA, 30062","Tie",NA,NA,NA,NA
175270,"3300 WOODSVIEW DRIVE","SAINT CHARLES","MS",63303,NA,NA,270,"3300 WOODSVIEW DRIVE, SAINT CHARLES, MS, 63303","No_Match",NA,NA,NA,NA
175271,"3300 WOOSTER RD","ROCKY RIVER","OH",44116,41.4626723650001,-81.84026993,271,"3300 WOOSTER RD, ROCKY RIVER, OH, 44116","Match","Exact","3300 WOOSTER RD, ROCKY RIVER, OH, 44116",649550434,"R"
175272,"33002 WILLOW","NEW HAVEN","MI",48048,42.722978165,-82.7791392139999,272,"33002 WILLOW, NEW HAVEN, MI, 48048","Match","Exact","33002 WILLOW, NEW HAVEN, MI, 48048",110710393,"L"
175273,"33004 E US HWY 24","CAHAN","CO",80808,NA,NA,273,"33004 E US HWY 24, CAHAN, CO, 80808","No_Match",NA,NA,NA,NA
175274,"33005 CANYON HILLS ROAD","LAKE ELSINORE","CA",92532,NA,NA,274,"33005 CANYON HILLS ROAD, LAKE ELSINORE, CA, 92532","No_Match",NA,NA,NA,NA
175275,"33006 SEVEN MILE ROAD SUITE 196","LIVONIA","MI",48152,42.4262584630001,-83.3702186679999,275,"33006 SEVEN MILE ROAD SUITE 196, LIVONIA, MI, 48152","Match","Exact","33006 7 MILE RD, LIVONIA, MI, 48152",95406893,"R"
175276,"33006 W 7 RD  STE 254","LIVONIA","MI",48152,NA,NA,276,"33006 W 7 RD  STE 254, LIVONIA, MI, 48152","No_Match",NA,NA,NA,NA
175277,"33009 N 61ST PL","SCOTTSDALE","AZ",85266,33.78557949,-111.948271619,277,"33009 N 61ST PL, SCOTTSDALE, AZ, 85266","Match","Exact","33009 N 61ST PL, SCOTTSDALE, AZ, 85266",128827831,"L"
175278,"3301  OLD WAGON RD","MARIETTA","GA",30062,33.9880943920001,-84.453213029,278,"3301  OLD WAGON RD, MARIETTA, GA, 30062","Match","Exact","3301 OLD WAGON RD, MARIETTA, GA, 30062",17182897,"L"
175279,"3301 109TH STREET","PLEASANT PRAIRIE","WI",53158,42.515510369,-87.8469944409999,279,"3301 109TH STREET, PLEASANT PRAIRIE, WI, 53158","Match","Exact","3301 109TH ST, PLEASANT PRAIRIE, WI, 53158",79812396,"R"
175280,"3301 6TH AVENUE","BEAVER FALLS","PA",15010,40.77407599,-80.326471369,280,"3301 6TH AVENUE, BEAVER FALLS, PA, 15010","Match","Exact","3301 6TH AVE, BEAVER FALLS, PA, 15010",52556585,"L"
175281,"3301 7TH ST SE","WASHINGTON","DC",20032,38.8416929640001,-76.996061552,281,"3301 7TH ST SE, WASHINGTON, DC, 20032","Match","Exact","3301 7TH ST SE, WASHINGTON, DC, 20032",648344219,"L"
175282,"3301 BLAKE HILLS COURT","DACULA","GA",30019,NA,NA,282,"3301 BLAKE HILLS COURT, DACULA, GA, 30019","No_Match",NA,NA,NA,NA
175283,"3301 BLOOMINGDALE ROAD","KINGSPORT","TN",37660,36.5845342220001,-82.4867495139999,283,"3301 BLOOMINGDALE ROAD, KINGSPORT, TN, 37660","Match","Non_Exact","3301 BLOOMINGDALE PIKE, KINGSPORT, TN, 37660",127835944,"L"
175284,"3301 BLOOMINGTON AVE APT 3","MINNEAPOLIS","MN",55407,44.9427977120001,-93.252460263,284,"3301 BLOOMINGTON AVE APT 3, MINNEAPOLIS, MN, 55407","Match","Non_Exact","3301 BLOOMINGTON AVE S, MINNEAPOLIS, MN, 55407",43634746,"L"
175285,"3301 BONITA BEACH ROAD SUITE 200","BONITA SPRINGS","FL",34134,26.330581137,-81.806082762,285,"3301 BONITA BEACH ROAD SUITE 200, BONITA SPRINGS, FL, 34134","Match","Non_Exact","3301 BONITA BEACH RD SW, BONITA SPGS, FL, 34134",118003347,"R"
175286,"3301 BOYETTE DRIVE SW APT 2C","WILSON","NC",27893,35.7191855350001,-77.962640698,286,"3301 BOYETTE DRIVE SW APT 2C, WILSON, NC, 27893","Match","Exact","3301 BOYETTE DR SW, WILSON, NC, 27893",26721469,"L"
175287,"3301 C STREET  STE 1000","SACRAMENTO","CA",95816,38.579472036,-121.45823671,287,"3301 C STREET  STE 1000, SACRAMENTO, CA, 95816","Match","Non_Exact","3301 C ST, SACRAMENTO, CA, 95819",133324840,"L"
175288,"3301 CHAPPELL PL","VIRGINIA BEACH","VA",23452,36.8705907180001,-76.088402452,288,"3301 CHAPPELL PL, VIRGINIA BEACH, VA, 23452","Match","Exact","3301 CHAPPELL PL, VA BCH, VA, 23452",636731937,"R"
175289,"3301 CHRISTIE DR","KILLEEN","TX",76452,31.0846668070001,-97.7313425739999,289,"3301 CHRISTIE DR, KILLEEN, TX, 76452","Match","Non_Exact","3301 CHRISTIE DR, KILLEEN, TX, 76542",146228103,"L"
175290,"3301 COLLEY AVE","NORFOLK","VA",23508,36.876426076,-76.29481758,290,"3301 COLLEY AVE, NORFOLK, VA, 23508","Match","Exact","3301 COLLEY AVE, NORFOLK, VA, 23508",122132090,"L"
175291,"3301 COMMONWEALTH AVENUE  APT A","ALEXANDRIA","VA",22305,38.834661452,-77.058076553,291,"3301 COMMONWEALTH AVENUE  APT A, ALEXANDRIA, VA, 22305","Match","Exact","3301 COMMONWEALTH AVE, ALEXANDRIA, VA, 22305",75987800,"R"
175292,"3301 CONFLANS RD STE 103","IRVING","TX",75061,32.8218044870001,-96.9912299709999,292,"3301 CONFLANS RD STE 103, IRVING, TX, 75061","Match","Exact","3301 CONFLANS RD, IRVING, TX, 75061",102886670,"R"
175293,"3301 DETROIT AVENUE","RICHMOND","VA",23222,37.568876921,-77.410512016,293,"3301 DETROIT AVENUE, RICHMOND, VA, 23222","Match","Exact","3301 DETROIT AVE, RICHMOND, VA, 23222",645918511,"R"
175294,"3301 DOGWOOD DR","HAPEVILLE","GA",30354,33.6640888850001,-84.408578684,294,"3301 DOGWOOD DR, HAPEVILLE, GA, 30354","Match","Exact","3301 DOGWOOD DR, HAPEVILLE, GA, 30354",17388368,"R"
175295,"3301 DREXEL HILL CT","APEX","NC",27539,35.6956708050001,-78.8167733459999,295,"3301 DREXEL HILL CT, APEX, NC, 27539","Match","Exact","3301 DREXEL HILL CT, APEX, NC, 27539",72664624,"L"
175296,"3301 E 26ST STE 123","SIOUX FALLS","SD",57103,NA,NA,296,"3301 E 26ST STE 123, SIOUX FALLS, SD, 57103","No_Match",NA,NA,NA,NA
175297,"3301 E 26TH ST STE 123","SIOUX FALLS","SD",57103,43.5292927680001,-96.685955565,297,"3301 E 26TH ST STE 123, SIOUX FALLS, SD, 57103","Match","Non_Exact","3301 E 26TH ST, SIOUX FALLS, SD, 57103",34992278,"R"
175298,"3301 E 44TH ST","EDMOND","OK",73013,35.6127731190001,-97.438056247,298,"3301 E 44TH ST, EDMOND, OK, 73013","Match","Exact","3301 44TH ST, EDMOND, OK, 73013",646682488,"L"
175299,"3301 E 68TH ST","KANSAS CITY","MO",64132,39.0031121640001,-94.5483888099999,299,"3301 E 68TH ST, KANSAS CITY, MO, 64132","Match","Exact","3301 E 68TH ST, KANSAS CITY, MO, 64132",91456821,"R"
175300,"3301 E COLISEUM BLVD","FORT WAYNE","IN",46805,NA,NA,300,"3301 E COLISEUM BLVD, FORT WAYNE, IN, 46805","No_Match",NA,NA,NA,NA
175301,"3301 E HILL ST SUITE 408","SIGNAL HILL","CA",90755,33.7971323080001,-118.153048822,301,"3301 E HILL ST SUITE 408, SIGNAL HILL, CA, 90755","Match","Non_Exact","3301 E HILL ST, SIGNAL HILL, CA, 90755",241245207,"L"
175302,"3301 EMBASSY DRIVE","SPRINGFIELD","IL",62711,39.7226625500001,-89.721571157,302,"3301 EMBASSY DRIVE, SPRINGFIELD, IL, 62711","Match","Exact","3301 EMBASSY DR, SPRINGFIELD, IL, 62711",97365008,"L"
175303,"3301 EVERGREEN DRIVE","ALEXANDRIA","LA",71302,31.268118585,-92.4497800349999,303,"3301 EVERGREEN DRIVE, ALEXANDRIA, LA, 71302","Match","Exact","3301 EVERGREEN DR, ALEXANDRIA, LA, 71302",11784381,"R"
175304,"3301 FONG RANCH ROAD","SACRAMENTO","CA",95834,38.6276913560001,-121.493748371,304,"3301 FONG RANCH ROAD, SACRAMENTO, CA, 95834","Match","Exact","3301 FONG RANCH RD, SACRAMENTO, CA, 95834",133423758,"L"
175305,"3301 GREEN ST","CLAYMONT","DE",19703,39.8014898000001,-75.465577944,305,"3301 GREEN ST, CLAYMONT, DE, 19703","Match","Exact","3301 GREEN ST, CLAYMONT, DE, 19703",624685026,"L"
175306,"3301 GREENLAWN PARKWAY","AUSTIN","TX",78757,30.3530805770001,-97.7454362729999,306,"3301 GREENLAWN PARKWAY, AUSTIN, TX, 78757","Match","Exact","3301 GREENLAWN PKWY, AUSTIN, TX, 78757",63929092,"L"
175307,"3301 GREENSPOINT DR","CLARKSVILLE","TN",37042,36.6288438380001,-87.3557170459999,307,"3301 GREENSPOINT DR, CLARKSVILLE, TN, 37042","Match","Exact","3301 GREENSPOINT DR, CLARKSVILLE, TN, 37042",31828721,"L"
175308,"3301 HAPPY MEADOWS DRIVE","ALVARADO","TX",76009,32.461398176,-97.2063139099999,308,"3301 HAPPY MEADOWS DRIVE, ALVARADO, TX, 76009","Match","Exact","3301 HAPPY MEADOWS DR, ALVARADO, TX, 76009",103526718,"L"
175309,"3301 HENDERSON MILL RD A4","CHAMBLEE","GA",30341,33.8803884320001,-84.24687106,309,"3301 HENDERSON MILL RD A4, CHAMBLEE, GA, 30341","Match","Exact","3301 HENDERSON MILL RD, CHAMBLEE, GA, 30341",642350561,"R"
175310,"3301 HOLLY LANE","ROWLETT","TX",75089,32.9114275630001,-96.571850809,310,"3301 HOLLY LANE, ROWLETT, TX, 75089","Match","Exact","3301 HOLLY LN, ROWLETT, TX, 75089",102929514,"R"
175311,"3301 HUDNALL ST APT 3109","DALLAS","TX",75235,32.825164806,-96.824808446,311,"3301 HUDNALL ST APT 3109, DALLAS, TX, 75235","Match","Exact","3301 HUDNALL ST, DALLAS, TX, 75235",103200682,"L"
175312,"3301 HUDNALL STREET APT 1208","DALLAS","TX",75235,32.825164806,-96.824808446,312,"3301 HUDNALL STREET APT 1208, DALLAS, TX, 75235","Match","Exact","3301 HUDNALL ST, DALLAS, TX, 75235",103200682,"L"
175313,"3301 HYNSON SPRINGS ROAD","MARSHALL","TX",75671,32.551383964,-94.400748433,313,"3301 HYNSON SPRINGS ROAD, MARSHALL, TX, 75671","Match","Non_Exact","3301 HYNSON SPRINGS RD, MARSHALL, TX, 75670",141184945,"R"
175314,"3301 JACQUELYN DRIVE","PEARLAND","TX",77581,29.5634109650001,-95.273920074,314,"3301 JACQUELYN DRIVE, PEARLAND, TX, 77581","Match","Exact","3301 JACQUELYN DR, PEARLAND, TX, 77581",116569330,"R"
175315,"3301 JETTY DRIVE","RICHMOND","CA",94804,37.9178247990001,-122.345290379,315,"3301 JETTY DRIVE, RICHMOND, CA, 94804","Match","Exact","3301 JETTY DR, RICHMOND, CA, 94804",629350814,"R"
175316,"3301 KOLLAS RD","HOOD RIVER","OR",97031,45.629067772,-121.570897709,316,"3301 KOLLAS RD, HOOD RIVER, OR, 97031","Match","Exact","3301 KOLLAS RD, HOOD RIVER, OR, 97031",158139911,"R"
175317,"3301 LAUREL LANE","HAZEL CREST","IL",60429,41.5808372390001,-87.696540511,317,"3301 LAUREL LANE, HAZEL CREST, IL, 60429","Match","Exact","3301 LAUREL LN, HAZEL CREST, IL, 60429",111704975,"L"
175318,"3301 LEGION DRIVE","KERRVILLE","TX",78028,30.0206696400001,-99.113771619,318,"3301 LEGION DRIVE, KERRVILLE, TX, 78028","Match","Exact","3301 LEGION DR, KERRVILLE, TX, 78028",176890061,"L"
175319,"3301 MAGNOLIA AVENUE","KNOXVILLE","TN",37914,35.9960333590001,-83.8840264039999,319,"3301 MAGNOLIA AVENUE, KNOXVILLE, TN, 37914","Match","Non_Exact","3301 E MAGNOLIA AVE, KNOXVILLE, TN, 37914",42621704,"L"
175320,"3301 MARATHON DR","AUGUSTA","GA",30906,33.3778422,-82.032798327,320,"3301 MARATHON DR, AUGUSTA, GA, 30906","Match","Exact","3301 MARATHON DR, AUGUSTA, GA, 30906",55649913,"R"
175321,"3301 MARNA AVENUE","LONG BEACH","CA",90808,33.8155468190001,-118.075459757,321,"3301 MARNA AVENUE, LONG BEACH, CA, 90808","Match","Exact","3301 MARNA AVE, LONG BEACH, CA, 90808",142664243,"L"
175322,"3301 MERAMEC STREET","ST LOUIS","MO",63118,38.580540113,-90.241025411,322,"3301 MERAMEC STREET, ST LOUIS, MO, 63118","Match","Exact","3301 MERAMEC ST, SAINT LOUIS, MO, 63118",107601441,"R"
175323,"3301 MERAMEC","SAINT LOUIS","MO",63118,38.580540113,-90.241025411,323,"3301 MERAMEC, SAINT LOUIS, MO, 63118","Match","Non_Exact","3301 MERAMEC ST, SAINT LOUIS, MO, 63118",107601441,"R"
175324,"3301 MORNING SIDE DR","EL SOBRANTE","CA",94803,37.970646996,-122.28686187,324,"3301 MORNING SIDE DR, EL SOBRANTE, CA, 94803","Match","Non_Exact","3301 MORNINGSIDE DR, EL SOBRANTE, CA, 94803",192042607,"L"
175325,"3301 N SHELTON SPRINGS RD","SHELTON","WA",98584,47.2300858680001,-123.11206751,325,"3301 N SHELTON SPRINGS RD, SHELTON, WA, 98584","Match","Exact","3301 N SHELTON SPRINGS RD, SHELTON, WA, 98584",180853051,"L"
175326,"3301 N UNIVERSITY AVE","PROVO","UT",84604,40.2778477700001,-111.657833704,326,"3301 N UNIVERSITY AVE, PROVO, UT, 84604","Match","Exact","3301 N UNIVERSITY AVE, PROVO, UT, 84604",134263821,"L"
175327,"3301 N UNIVERSITY DRIVE SUITE 100","CORAL SPRINGS","FL",33065,26.2714294570001,-80.2500702359999,327,"3301 N UNIVERSITY DRIVE SUITE 100, CORAL SPRINGS, FL, 33065","Match","Non_Exact","3301 N UNIVERSITY DR, CORAL SPRINGS, FL, 33065",637060678,"L"
175328,"3301 NE 5TH AVENUE APARTMENT 710","MIAMI","FL",33137,NA,NA,328,"3301 NE 5TH AVENUE APARTMENT 710, MIAMI, FL, 33137","No_Match",NA,NA,NA,NA
175329,"3301 NEW MEXICO AVENUE NW SUITE 202","WASHINGTON","DC",20016,38.935242798,-77.0869177019999,329,"3301 NEW MEXICO AVENUE NW SUITE 202, WASHINGTON, DC, 20016","Match","Non_Exact","3301 NEW MEXICO AVE NW, WASHINGTON, DC, 20016",637058241,"R"
175330,"3301 NORTH SHILOH ROAD","GARLAND","TX",75044,32.9474539940001,-96.665379168,330,"3301 NORTH SHILOH ROAD, GARLAND, TX, 75044","Match","Exact","3301 N SHILOH RD, GARLAND, TX, 75044",103252511,"L"
175331,"3301 NORTH THIRD","ABILENE","TX",79603,NA,NA,331,"3301 NORTH THIRD, ABILENE, TX, 79603","No_Match",NA,NA,NA,NA
175332,"3301 NW 17TH ST","LAUDERHILL","FL",33311,26.14749491,-80.191541591,332,"3301 NW 17TH ST, LAUDERHILL, FL, 33311","Match","Exact","3301 NW 17TH ST, LAUDERHILL, FL, 33311",114709113,"R"
175333,"3301 NW 47TH TERRACE SUITE 112","LAUDERDALE LAKES","FL",33319,26.1672594990001,-80.212356012,333,"3301 NW 47TH TERRACE SUITE 112, LAUDERDALE LAKES, FL, 33319","Match","Non_Exact","3301 NW 47TH TER, LAUDERDALE LAKES, FL, 33319",114706386,"L"
175334,"3301 PATTON DRIVE","INDIANAPOLIS","IN",46224,39.814080356,-86.261804239,334,"3301 PATTON DRIVE, INDIANAPOLIS, IN, 46224","Match","Exact","3301 PATTON DR, INDIANAPOLIS, IN, 46224",107978091,"R"
175335,"3301 PEACE VALLEY LANE","FALLS CHURCH","VA",22044,38.856041304,-77.150541617,335,"3301 PEACE VALLEY LANE, FALLS CHURCH, VA, 22044","Match","Exact","3301 PEACE VALLEY LN, FALLS CHURCH, VA, 22044",652323224,"L"
175336,"3301 ROBIN TRAIL","MELISSA","TX",75454,33.303330632,-96.547857897,336,"3301 ROBIN TRAIL, MELISSA, TX, 75454","Match","Exact","3301 ROBIN TRL, MELISSA, TX, 75454",646845315,"R"
175337,"3301 RUTHERGLEN DR","SAN RAMON","CA",94582,37.7625181560001,-121.897940459,337,"3301 RUTHERGLEN DR, SAN RAMON, CA, 94582","Match","Exact","3301 RUTHERGLEN DR, SAN RAMON, CA, 94582",192115747,"L"
175338,"3301 S 14TH ST STE 16 PMB 103","ABILENE","TX",79605,32.432287262,-99.764288429,338,"3301 S 14TH ST STE 16 PMB 103, ABILENE, TX, 79605","Match","Non_Exact","3301 S 14TH ST, ABILENE, TX, 79605",129959103,"L"
175339,"3301 S BAGDAD RD IB ADMIN","LEANDER","TX",78641,30.5379877550001,-97.848342584,339,"3301 S BAGDAD RD IB ADMIN, LEANDER, TX, 78641","Match","Non_Exact","3301 S BAGDAD RD, LEANDER, TX, 78641",126439379,"L"
175340,"3301 S BEAR ST APT 34H","SANTA ANA","CA",92704,33.7035169960001,-117.892160132,340,"3301 S BEAR ST APT 34H, SANTA ANA, CA, 92704","Match","Non_Exact","3301 S BEAR ST, SANTA ANA, CA, 92704",609059639,"R"
175341,"3301 SEMINOLE ROAD","SILVERTON","OR",97381,44.974150411,-122.721406617,341,"3301 SEMINOLE ROAD, SILVERTON, OR, 97381","Match","Non_Exact","3301 SEMINOLE RD NE, SILVERTON, OR, 97381",613691434,"L"
175342,"3301 SILVER LAKE RD NE","ST ANTHONY","MN",55418,45.027899286,-93.218094406,342,"3301 SILVER LAKE RD NE, ST ANTHONY, MN, 55418","Match","Exact","3301 SILVER LAKE RD NE, SAINT ANTHONY, MN, 55418",43650586,"R"
175343,"3301 SILVER LAKE RD","ST ANTHONY","MN",55418,45.027899286,-93.218094406,343,"3301 SILVER LAKE RD, ST ANTHONY, MN, 55418","Match","Non_Exact","3301 SILVER LAKE RD NE, SAINT ANTHONY, MN, 55418",43650586,"R"
175344,"3301 SILVER LAKE ROAD","ST ANTHONY","MN",55418,45.027899286,-93.218094406,344,"3301 SILVER LAKE ROAD, ST ANTHONY, MN, 55418","Match","Non_Exact","3301 SILVER LAKE RD NE, SAINT ANTHONY, MN, 55418",43650586,"R"
175345,"3301 SWISS AVENUE","DALLAS","TX",75204,32.7910856450001,-96.782970371,345,"3301 SWISS AVENUE, DALLAS, TX, 75204","Match","Exact","3301 SWISS AVE, DALLAS, TX, 75204",102911496,"L"
175346,"3301 TECHNOLOGY DR","DULUTH","MN",55811,NA,NA,346,"3301 TECHNOLOGY DR, DULUTH, MN, 55811","No_Match",NA,NA,NA,NA
175347,"3301 THOMPSON ST","AUSTIN","TX",78702,30.267018507,-97.700540775,347,"3301 THOMPSON ST, AUSTIN, TX, 78702","Match","Exact","3301 THOMPSON ST, AUSTIN, TX, 78702",63948075,"R"
175348,"3301 TICE CREEK DR APT7","WALNUT CREEK","CA",94595,37.8570391040001,-122.065100005,348,"3301 TICE CREEK DR APT7, WALNUT CREEK, CA, 94595","Match","Exact","3301 TICE CREEK DR, WALNUT CREEK, CA, 94595",192089199,"R"
175349,"3301 UPTON AVE","TOLEDO","OH",43613,41.683286792,-83.58927478,349,"3301 UPTON AVE, TOLEDO, OH, 43613","Match","Exact","3301 UPTON AVE, TOLEDO, OH, 43613",33933636,"L"
175350,"3301 VIRGINIA AVENUE","BAKERSFIELD","CA",93307,35.361426915,-118.949053431,350,"3301 VIRGINIA AVENUE, BAKERSFIELD, CA, 93307","Match","Exact","3301 VIRGINIA AVE, BAKERSFIELD, CA, 93307",109096942,"R"
175351,"3301 W 10TH STREET","LITTLE ROCK","AR",72204,34.7420250280001,-92.311124805,351,"3301 W 10TH STREET, LITTLE ROCK, AR, 72204","Match","Exact","3301 W 10TH ST, LITTLE ROCK, AR, 72204",83508815,"L"
175352,"3301 W 20TH AVE","GARY","IN",46404,41.5824371750001,-87.378152609,352,"3301 W 20TH AVE, GARY, IN, 46404","Match","Exact","3301 W 20TH AVE, GARY, IN, 46404",98425360,"L"
175353,"3301 W ARTHINGTON ST APT 323","CHICAGO","IL",60624,41.8700263530001,-87.70840767,353,"3301 W ARTHINGTON ST APT 323, CHICAGO, IL, 60624","Match","Non_Exact","3301 W ARTHINGTON ST, CHICAGO, IL, 60624",111798882,"L"
175354,"3301 W ARTHINGTON STREET","CHICAGO","IL",60624,41.8700263530001,-87.70840767,354,"3301 W ARTHINGTON STREET, CHICAGO, IL, 60624","Match","Exact","3301 W ARTHINGTON ST, CHICAGO, IL, 60624",111798882,"L"
175355,"3301 W LEWIS RD","HAMPTON","VA",23666,37.0268911800001,-76.415134539,355,"3301 W LEWIS RD, HAMPTON, VA, 23666","Match","Exact","3301 W LEWIS RD, HAMPTON, VA, 23666",103804644,"L"
175356,"3301 WEST 70TH STREET","SHREVEPORT","LA",71108,32.4419935220001,-93.790221846,356,"3301 WEST 70TH STREET, SHREVEPORT, LA, 71108","Match","Exact","3301 W 70TH ST, SHREVEPORT, LA, 71108",57439134,"L"
175357,"3301 WRIGHTSBORO RD UNIT 16591","AUGUSTA","GA",30919,33.469350578,-82.0670115729999,357,"3301 WRIGHTSBORO RD UNIT 16591, AUGUSTA, GA, 30919","Match","Non_Exact","3301 WRIGHTSBORO RD, AUGUSTA, GA, 30909",617770331,"R"
175358,"33010 39TH PL SW","FEDERAL WAY","WA",98023,47.3058961040001,-122.38266844,358,"33010 39TH PL SW, FEDERAL WAY, WA, 98023","Match","Exact","33010 39TH PL SW, FEDERAL WAY, WA, 98023",186679447,"R"
175359,"33010 GREENFIELD FOREST DR","MAGNOLIA","TX",77354,30.21840166,-95.550637823,359,"33010 GREENFIELD FOREST DR, MAGNOLIA, TX, 77354","Match","Exact","33010 GREENFIELD FOREST DR, MAGNOLIA, TX, 77354",79338382,"L"
175360,"3302 3RD ST","DES MOINES","IA",50313,41.6249114140001,-93.621131153,360,"3302 3RD ST, DES MOINES, IA, 50313","Match","Exact","3302 3RD ST, DES MOINES, IA, 50313",65781422,"L"
175361,"3302 ADAMS LANDING AVENUE","HARLINGEN","TX",78550,26.2254357350001,-97.681782555,361,"3302 ADAMS LANDING AVENUE, HARLINGEN, TX, 78550","Match","Exact","3302 ADAMS LANDING AVE, HARLINGEN, TX, 78550",647918883,"R"
175362,"3302 ANGEL DR","STOCKTON","CA",95209,38.038344082,-121.358009131,362,"3302 ANGEL DR, STOCKTON, CA, 95209","Match","Exact","3302 ANGEL DR, STOCKTON, CA, 95209",133842274,"R"
175363,"3302 BROOKWOOD DRIVE","HATTIESBURG","MS",39401,31.3179618290001,-89.338357098,363,"3302 BROOKWOOD DRIVE, HATTIESBURG, MS, 39401","Match","Exact","3302 BROOKWOOD DR, HATTIESBURG, MS, 39401",324013,"L"
175364,"3302 CHIMERA LANE","MISSOURI CITY","TX",77459,29.548515148,-95.507021841,364,"3302 CHIMERA LANE, MISSOURI CITY, TX, 77459","Match","Non_Exact","3302 CHIMERA RUN, MISSOURI CITY, TX, 77459",643752395,"L"
175365,"3302 CONNORVALE RD","HOUSTON","TX",77039,NA,NA,365,"3302 CONNORVALE RD, HOUSTON, TX, 77039","No_Match",NA,NA,NA,NA
175366,"3302 EDGECLIFF DR","GARLAND","TX",75043,32.842793096,-96.5808388579999,366,"3302 EDGECLIFF DR, GARLAND, TX, 75043","Match","Exact","3302 EDGECLIFF DR, GARLAND, TX, 75043",102933403,"R"
175367,"3302 GASTON AVE","DALLAS","TX",75246,32.7897416320001,-96.781873508,367,"3302 GASTON AVE, DALLAS, TX, 75246","Match","Exact","3302 GASTON AVE, DALLAS, TX, 75246",103176773,"R"
175368,"3302 HEATHERSTONE DRIVE","TROY","OH",45373,40.0360786040001,-84.263487445,368,"3302 HEATHERSTONE DRIVE, TROY, OH, 45373","Match","Exact","3302 HEATHERSTONE DR, TROY, OH, 45373",649047195,"R"
175369,"3302 HICKORY HOLLOW RD","SPRING","TX",77380,30.1404221060001,-95.4904906249999,369,"3302 HICKORY HOLLOW RD, SPRING, TX, 77380","Match","Exact","3302 HICKORY HOLLOW RD, SPRING, TX, 77380",79282633,"L"
175370,"3302 KILMER DRIVE","PLANT CITY","FL",33566,27.9720847080001,-82.154515251,370,"3302 KILMER DRIVE, PLANT CITY, FL, 33566","Match","Exact","3302 KILMER DR, PLANT CITY, FL, 33566",104582406,"L"
175371,"3302 LAKE TRAVIS AVE","KILLEEN","TX",76543,31.11933105,-97.695349428,371,"3302 LAKE TRAVIS AVE, KILLEEN, TX, 76543","Match","Exact","3302 LAKE TRAVIS AVE, KILLEEN, TX, 76543",146141177,"R"
175372,"3302 LIBERTY HEIGHTS AVE","BALTIMORE CITY","MD",21215,39.3243026800001,-76.671811192,372,"3302 LIBERTY HEIGHTS AVE, BALTIMORE CITY, MD, 21215","Match","Non_Exact","3302 LIBERTY HEIGHTS AVE, BALTIMORE, MD, 21215",206405716,"R"
175373,"3302 N CLAREMONT AVE   APT 1","CHICAGO","IL",60618,41.9414472660001,-87.6869015569999,373,"3302 N CLAREMONT AVE   APT 1, CHICAGO, IL, 60618","Match","Non_Exact","3302 N CLAREMONT AVE, CHICAGO, IL, 60618",605229491,"L"
175374,"3302 NASHVILLE AVENUE","GREENVILE","TX",75402,33.1170718860001,-96.116290234,374,"3302 NASHVILLE AVENUE, GREENVILE, TX, 75402","Match","Non_Exact","3302 NASHVILLE AVE, GREENVILLE, TX, 75402",42835831,"L"
175375,"3302 PARKS LANE","CARMICHAEL","CA",95608,38.6249306940001,-121.325061101,375,"3302 PARKS LANE, CARMICHAEL, CA, 95608","Match","Exact","3302 PARKS LN, CARMICHAEL, CA, 95608",133343293,"R"
175376,"3302 RIDGEHAVEN STREET","IRVING","TX",75062,32.848772641,-96.989966257,376,"3302 RIDGEHAVEN STREET, IRVING, TX, 75062","Match","Exact","3302 RIDGEHAVEN ST, IRVING, TX, 75062",102886234,"L"
175377,"3302 S CLEAR CREEK","KILLEEN","TX",78634,NA,NA,377,"3302 S CLEAR CREEK, KILLEEN, TX, 78634","No_Match",NA,NA,NA,NA
175378,"3302 TIGNOR LANE","FREDERICKSBURG","VA",22408,38.2687170300001,-77.490311436,378,"3302 TIGNOR LANE, FREDERICKSBURG, VA, 22408","Match","Exact","3302 TIGNOR LN, FREDERICKSBURG, VA, 22408",85013564,"L"
175379,"3302 VIRGINIA AVE APT 2S","KANSAS CITY","MO",64109,39.0665839110001,-94.56820258,379,"3302 VIRGINIA AVE APT 2S, KANSAS CITY, MO, 64109","Match","Exact","3302 VIRGINIA AVE, KANSAS CITY, MO, 64109",91446472,"R"
175380,"3302 VISTA LANE","MARBLE FALLS","TX",78654,30.5992335130001,-98.259133451,380,"3302 VISTA LANE, MARBLE FALLS, TX, 78654","Match","Exact","3302 VISTA LN, MARBLE FALLS, TX, 78654",617298921,"R"
175381,"3302 W ALPINE AVE","STOCKTON","CA",95204,37.967392396,-121.348023374,381,"3302 W ALPINE AVE, STOCKTON, CA, 95204","Match","Exact","3302 ALPINE AVE, STOCKTON, CA, 95204",133843288,"L"
175382,"3302 W BROOKWAY DRIVE","WEST VALLEY CITY","UT",84119,40.707206107,-111.969988641,382,"3302 W BROOKWAY DRIVE, WEST VALLEY CITY, UT, 84119","Match","Exact","3302 BROOKWAY DR, WEST VALLEY CITY, UT, 84119",639874392,"L"
175383,"3302 W CHIPMUNK RD","PRESCOTT","AZ",86305,34.673391834,-112.523119166,383,"3302 W CHIPMUNK RD, PRESCOTT, AZ, 86305","Match","Exact","3302 W CHIPMUNK RD, PRESCOTT, AZ, 86305",653538132,"L"
175384,"3302 W DICKENS AVE APT 2","CHICAGO","IL",60647,41.919194201,-87.7104614789999,384,"3302 W DICKENS AVE APT 2, CHICAGO, IL, 60647","Match","Non_Exact","3302 W DICKENS AVE, CHICAGO, IL, 60647",111759109,"R"
175385,"3302 W THOMAS RD SUITE 10","PHOENIX","AZ",85017,33.480511961,-112.13023631,385,"3302 W THOMAS RD SUITE 10, PHOENIX, AZ, 85017","Match","Non_Exact","3302 W THOMAS RD, PHOENIX, AZ, 85017",652595364,"R"
175386,"3302 W THOMAS RD SUITE 11","PHOENIX","AZ",85017,33.480511961,-112.13023631,386,"3302 W THOMAS RD SUITE 11, PHOENIX, AZ, 85017","Match","Non_Exact","3302 W THOMAS RD, PHOENIX, AZ, 85017",652595364,"R"
175387,"3302 WOODSPRING DR","ABINGDON","MD",21009,39.4729550710001,-76.306627496,387,"3302 WOODSPRING DR, ABINGDON, MD, 21009","Match","Exact","3302 WOODSPRING DR, ABINGDON, MD, 21009",191643772,"R"
175388,"3302-11 WICKSLOW ROAD","WILMINGTON","NC",28412,34.1859579330001,-77.89227128,388,"3302-11 WICKSLOW ROAD, WILMINGTON, NC, 28412","Match","Exact","3302 WICKSLOW RD, WILMINGTON, NC, 28412",152735692,"L"
175389,"33020 10TH AVE SW UNTI J201","FEDERAL WAY","WA",98023,47.3061916340001,-122.343271765,389,"33020 10TH AVE SW UNTI J201, FEDERAL WAY, WA, 98023","Match","Exact","33020 10TH AVE SW, FEDERAL WAY, WA, 98023",187061729,"R"
175390,"33023 ROAD 222","NORTH FORK","CA",93643,37.2265277220001,-119.509753769,390,"33023 ROAD 222, NORTH FORK, CA, 93643","Match","Exact","33023 RD 222, NORTH FORK, CA, 93643",102368637,"R"
175391,"330236","KAHULUI","HI",96733,NA,NA,391,"330236, KAHULUI, HI, 96733","No_Match",NA,NA,NA,NA
175392,"3303 28TH STREET","SAN DIEGO","CA",92104,32.739419121,-117.1336203,392,"3303 28TH STREET, SAN DIEGO, CA, 92104","Match","Exact","3303 28TH ST, SAN DIEGO, CA, 92104",195345884,"R"
175393,"3303 33RD AVENUE NE","ST ANTHONY","MN",55418,45.027772466,-93.214465375,393,"3303 33RD AVENUE NE, ST ANTHONY, MN, 55418","Match","Exact","3303 33RD AVE NE, SAINT ANTHONY, MN, 55418",43637689,"L"
175394,"3303 ALVOCA STREET","CHULA VISTA","CA",91911,32.5926148830001,-117.062229885,394,"3303 ALVOCA STREET, CHULA VISTA, CA, 91911","Match","Exact","3303 ALVOCA ST, CHULA VISTA, CA, 91911",195358298,"R"
175395,"3303 AVENUE N","BROOKLYN","NY",11234,40.617544573,-73.942119331,395,"3303 AVENUE N, BROOKLYN, NY, 11234","Match","Exact","3303 AVENUE N, BROOKLYN, NY, 11234",59090300,"L"
175396,"3303 BARREL PASS","SAN ANTONIO","TX",78245,29.397901914,-98.688927108,396,"3303 BARREL PASS, SAN ANTONIO, TX, 78245","Match","Exact","3303 BARREL PASS, SAN ANTONIO, TX, 78245",101739790,"R"
175397,"3303 BERKSHIRE RD","CLEVELAND HTS","OH",44118,41.5051543590001,-81.562964074,397,"3303 BERKSHIRE RD, CLEVELAND HTS, OH, 44118","Match","Exact","3303 BERKSHIRE RD, CLEVELAND HEIGHTS, OH, 44118",61124944,"L"
175398,"3303 CANDLEOAK DR","SPRING","TX",77014,30.045426794,-95.457751924,398,"3303 CANDLEOAK DR, SPRING, TX, 77014","Match","Non_Exact","3303 CANDLEOAK DR, SPRING, TX, 77388",96008916,"R"
175399,"3303 CHISHOLM TRL","BRYAN","TX",77803,30.7033722210001,-96.383934712,399,"3303 CHISHOLM TRL, BRYAN, TX, 77803","Match","Exact","3303 CHISHOLM TRL, BRYAN, TX, 77803",21811873,"L"
175400,"3303 CUMBERLAND DRIVE","MISSOURI CITY","TX",77459,29.540898068,-95.5102861839999,400,"3303 CUMBERLAND DRIVE, MISSOURI CITY, TX, 77459","Match","Exact","3303 CUMBERLAND DR, MISSOURI CITY, TX, 77459",78287174,"L"
175401,"3303 E 149TH ST APT 4","CLEVELAND","OH",44120,41.4688969470001,-81.577412389,401,"3303 E 149TH ST APT 4, CLEVELAND, OH, 44120","Match","Non_Exact","3303 E 149TH ST, CLEVELAND, OH, 44120",61127144,"L"
175402,"3303 E HEIDEMANN DR","APPLETON","WI",54915,44.24514463,-88.359952017,402,"3303 E HEIDEMANN DR, APPLETON, WI, 54915","Match","Non_Exact","3303 HEIDEMAN DR, APPLETON, WI, 54915",74897266,"R"
175403,"3303 E STATE STREET UNIT 713","ROCKFORD","IL",61108,42.26641813,-89.0451290829999,403,"3303 E STATE STREET UNIT 713, ROCKFORD, IL, 61108","Match","Non_Exact","3303 E STATE ST, ROCKFORD, IL, 61108",605051994,"R"
175404,"3303 ELIZABETH AVE","NEW BERN","NC",28562,35.12078652,-77.1004094359999,404,"3303 ELIZABETH AVE, NEW BERN, NC, 28562","Match","Exact","3303 ELIZABETH AVE, NEW BERN, NC, 28562",34121158,"L"
175405,"3303 FERRY CIRCLE","FOLSOM","CA",95630,38.649942991,-121.167186714,405,"3303 FERRY CIRCLE, FOLSOM, CA, 95630","Match","Exact","3303 FERRY CIR, FOLSOM, CA, 95630",618048865,"L"
175406,"3303 GOLDSPIER","DALLAS","TX",75215,32.759421161,-96.746064597,406,"3303 GOLDSPIER, DALLAS, TX, 75215","Match","Non_Exact","3303 GOLDSPIER DR, DALLAS, TX, 75215",102955922,"L"
175407,"3303 GOODFELLOW","SAINT LOUIS","MO",63120,38.682380057,-90.272525747,407,"3303 GOODFELLOW, SAINT LOUIS, MO, 63120","Match","Non_Exact","3303 GOODFELLOW BLVD, SAINT LOUIS, MO, 63120",609029619,"L"
175408,"3303 HARBOR BLVD UNIT E-7","COSTA MESA","CA",92626,33.69391211,-117.919573642,408,"3303 HARBOR BLVD UNIT E-7, COSTA MESA, CA, 92626","Match","Exact","3303 HARBOR BLVD, COSTA MESA, CA, 92626",144263580,"L"
175409,"3303 HIGHLAND FARM ROAD","HILLSBOROUGH","NC",27278,36.128797306,-79.145151429,409,"3303 HIGHLAND FARM ROAD, HILLSBOROUGH, NC, 27278","Match","Exact","3303 HIGHLAND FARM RD, HILLSBOROUGH, NC, 27278",72423979,"R"
175410,"3303 HIGHWAY 9 EAST","LITTLE RIVER","SC",29566,NA,NA,410,"3303 HIGHWAY 9 EAST, LITTLE RIVER, SC, 29566","No_Match",NA,NA,NA,NA
175411,"3303 INVERNESS PARKWAY","COLUMBUS","GA",31909,32.5528453420001,-84.93602529,411,"3303 INVERNESS PARKWAY, COLUMBUS, GA, 31909","Match","Exact","3303 INVERNESS PKWY, COLUMBUS, GA, 31909",624273276,"R"
175412,"3303 M STREET","MERCED","CA",95348,37.3229580300001,-120.478372855,412,"3303 M STREET, MERCED, CA, 95348","Match","Exact","3303 M ST, MERCED, CA, 95348",649775737,"L"
175413,"3303 MOCKINGBIRD LN","MIDWEST CITY","OK",73110,35.472562866,-97.395152217,413,"3303 MOCKINGBIRD LN, MIDWEST CITY, OK, 73110","Match","Exact","3303 MOCKINGBIRD LN, MIDWEST CITY, OK, 73110",100414481,"L"
175414,"3303 MORRIS STREET PO BOX 326","FRANKSVILLE","WI",53126,42.761162389,-87.912392256,414,"3303 MORRIS STREET PO BOX 326, FRANKSVILLE, WI, 53126","Match","Exact","3303 MORRIS ST, FRANKSVILLE, WI, 53126",77904907,"L"
175415,"3303 N M-30","SANFORD","MI",48657,NA,NA,415,"3303 N M-30, SANFORD, MI, 48657","No_Match",NA,NA,NA,NA
175416,"3303 NORTHLAND DRTIVE SUITE 205","AUSTIN","TX",78731,30.336871425,-97.756116111,416,"3303 NORTHLAND DRTIVE SUITE 205, AUSTIN, TX, 78731","Match","Non_Exact","3303 NORTHLAND DR, AUSTIN, TX, 78731",63929005,"L"
175417,"3303 PORT ROYALE DRIVE S NUM F602","FORT LAUDERDALE","FL",33308,NA,NA,417,"3303 PORT ROYALE DRIVE S NUM F602, FORT LAUDERDALE, FL, 33308","No_Match",NA,NA,NA,NA
175418,"3303 RODGERS AVENUE","FORT WAYNE","IN",46803,41.06603956,-85.095747729,418,"3303 RODGERS AVENUE, FORT WAYNE, IN, 46803","Match","Exact","3303 RODGERS AVE, FORT WAYNE, IN, 46803",6380881,"L"
175419,"3303 S ARCHIBALD AVE 250","ONTARIO","CA",91761,34.013577017,-117.593146983,419,"3303 S ARCHIBALD AVE 250, ONTARIO, CA, 91761","Match","Non_Exact","3303 S ARCHIBALD AVE, ONTARIO, CA, 91761",648195098,"L"
175420,"3303 S ARCHIBALD AVENUE - 83","ONTARIO","CA",91761,34.013577017,-117.593146983,420,"3303 S ARCHIBALD AVENUE - 83, ONTARIO, CA, 91761","Match","Non_Exact","3303 S ARCHIBALD AVE, ONTARIO, CA, 91761",648195098,"L"
175421,"3303 SABINE SPRING LN","KATY","TX",77449,29.8206983430001,-95.760295723,421,"3303 SABINE SPRING LN, KATY, TX, 77449","Match","Exact","3303 SABINE SPRING LN, KATY, TX, 77449",641966442,"L"
175422,"3303 SOUTH POLK ST","DALLAS","TX",75224,32.7037002480001,-96.840180349,422,"3303 SOUTH POLK ST, DALLAS, TX, 75224","Match","Exact","3303 S POLK ST, DALLAS, TX, 75224",103192074,"R"
175423,"3303 SOUTH POLK STREET","DALLAS","TX",75224,32.7037002480001,-96.840180349,423,"3303 SOUTH POLK STREET, DALLAS, TX, 75224","Match","Exact","3303 S POLK ST, DALLAS, TX, 75224",103192074,"R"
175424,"3303 SOUTHERN OAKS BLVD 9102","DALLAS","TX",75216,NA,NA,424,"3303 SOUTHERN OAKS BLVD 9102, DALLAS, TX, 75216","No_Match",NA,NA,NA,NA
175425,"3303 TAPERED BILL DRIVE","JACKSONVILLE","FL",32224,30.285856961,-81.454404656,425,"3303 TAPERED BILL DRIVE, JACKSONVILLE, FL, 32224","Match","Exact","3303 TAPERED BILL DR, JACKSONVILLE, FL, 32224",641026630,"R"
175426,"3303 TAUSSIG STREET","SAN DIEGO","CA",92124,32.8056782850001,-117.107791976,426,"3303 TAUSSIG STREET, SAN DIEGO, CA, 92124","Match","Exact","3303 TAUSSIG ST, SAN DIEGO, CA, 92124",195321868,"R"
175427,"3303 VALLEYWOOD DRIVE","MANHATTAN","KS",66502,39.2284336590001,-96.578626048,427,"3303 VALLEYWOOD DRIVE, MANHATTAN, KS, 66502","Match","Exact","3303 VALLEYWOOD DR, MANHATTAN, KS, 66502",27793533,"L"
175428,"3303 W 7TH AVE","KENNEWICK","WA",99336,46.2024648020001,-119.166046892,428,"3303 W 7TH AVE, KENNEWICK, WA, 99336","Match","Exact","3303 W 7TH AVE, KENNEWICK, WA, 99336",647466214,"L"
175429,"3303 W GRACE STREET","CHICAGO","IL",60618,41.9502422830001,-87.7105142079999,429,"3303 W GRACE STREET, CHICAGO, IL, 60618","Match","Exact","3303 W GRACE ST, CHICAGO, IL, 60618",605227488,"L"
175430,"3303 WEST 7675 SOUTH","WEST JORDAN","UT",84084,40.611893185,-111.969770217,430,"3303 WEST 7675 SOUTH, WEST JORDAN, UT, 84084","Match","Exact","3303 W 7675 S, WEST JORDAN, UT, 84084",176110752,"R"
175431,"3303 YELTON LN","AMELIA","OH",45102,39.0108845930001,-84.161564219,431,"3303 YELTON LN, AMELIA, OH, 45102","Match","Exact","3303 YELTON LN, AMELIA, OH, 45102",635570969,"L"
175432,"3303 ZOE AVE","EDINBURG","TX",78539,26.293239606,-98.201724558,432,"3303 ZOE AVE, EDINBURG, TX, 78539","Match","Exact","3303 ZOE AVE, EDINBURG, TX, 78539",641426466,"R"
175433,"33031 GAROLI PASS","TEMECULA","CA",92592,33.4735775250001,-117.083555132,433,"33031 GAROLI PASS, TEMECULA, CA, 92592","Match","Exact","33031 GAROLI PASS, TEMECULA, CA, 92592",194857789,"L"
175434,"330322","HOUSTON","TX",77233,NA,NA,434,"330322, HOUSTON, TX, 77233","No_Match",NA,NA,NA,NA
175435,"33033 ROAD 222","NORTH FORK","CA",93643,37.2265985560001,-119.509720379,435,"33033 ROAD 222, NORTH FORK, CA, 93643","Match","Exact","33033 RD 222, NORTH FORK, CA, 93643",102368637,"R"
175436,"33036 TRAFALGAR SQUARE APT 10","WESTLAND","MI",48186,42.3078654,-83.365763047,436,"33036 TRAFALGAR SQUARE APT 10, WESTLAND, MI, 48186","Match","Exact","33036 TRAFALGAR SQ, WESTLAND, MI, 48186",95712325,"L"
175437,"33039 23RD AVE","GOBLES","MI",49055,42.335681664,-85.870697589,437,"33039 23RD AVE, GOBLES, MI, 49055","Match","Exact","33039 23RD AVE, GOBLES, MI, 49055",34754833,"R"
175438,"3304 228TH ST SE","BOTHELL","WA",98021,47.791161226,-122.188734959,438,"3304 228TH ST SE, BOTHELL, WA, 98021","Match","Exact","3304 228TH ST SE, BOTHELL, WA, 98021",187763044,"R"
175439,"3304 ALBERTA DRIVE","GILLETTE","WY",82718,44.2637702370001,-105.513331329,439,"3304 ALBERTA DRIVE, GILLETTE, WY, 82718","Match","Exact","3304 ALBERTA DR, GILLETTE, WY, 82718",146324220,"L"
175440,"3304 ARCHBURY COURT","SAN JOSE","CA",95148,37.3269901200001,-121.777663321,440,"3304 ARCHBURY COURT, SAN JOSE, CA, 95148","Match","Exact","3304 ARCHBURY CT, SAN JOSE, CA, 95148",122917510,"R"
175441,"3304 CR 2274","CLEVELAND","TX",77327,30.291269001,-94.974749317,441,"3304 CR 2274, CLEVELAND, TX, 77327","Match","Exact","3304 CO RD 2274, CLEVELAND, TX, 77327",24105420,"R"
175442,"3304 DUNWICK DRIVE","JOHNS ISLAND","SC",29455,32.736517636,-80.07466455,442,"3304 DUNWICK DRIVE, JOHNS ISLAND, SC, 29455","Match","Exact","3304 DUNWICK DR, JOHNS ISLAND, SC, 29455",108824634,"L"
175443,"3304 E HILLSBOROUGH AVENUE","TAMPA","FL",33610,27.9960734860001,-82.4233295609999,443,"3304 E HILLSBOROUGH AVENUE, TAMPA, FL, 33610","Match","Exact","3304 E HILLSBOROUGH AVE, TAMPA, FL, 33610",104533284,"L"
175444,"3304 EDDINGTON COURT","OPELIKA","AL",36801,32.692082951,-85.38554049,444,"3304 EDDINGTON COURT, OPELIKA, AL, 36801","Match","Exact","3304 EDDINGTON CT, OPELIKA, AL, 36801",618684455,"R"
175445,"3304 ESSEX DR","RICHARDSON","TX",75082,NA,NA,445,"3304 ESSEX DR, RICHARDSON, TX, 75082","No_Match",NA,NA,NA,NA
175446,"3304 FERDILAH LANE","RALEIGH","NC",27610,35.7365137850001,-78.61276658,446,"3304 FERDILAH LANE, RALEIGH, NC, 27610","Match","Exact","3304 FERDILAH LN, RALEIGH, NC, 27610",72638158,"R"
175447,"3304 GLASTONBURY DR","PEARLAND","TX",77581,29.591583536,-95.272836351,447,"3304 GLASTONBURY DR, PEARLAND, TX, 77581","Match","Exact","3304 GLASTONBURY DR, PEARLAND, TX, 77581",116612039,"R"
175448,"3304 IANTHA ST","SAVANNAH","GA",31404,32.0322179710001,-81.062957576,448,"3304 IANTHA ST, SAVANNAH, GA, 31404","Match","Exact","3304 IANTHA ST, SAVANNAH, GA, 31404",6179464,"L"
175449,"3304 LESTER ROAD","PHILADELPHIA","PA",19154,40.100549427,-74.967534246,449,"3304 LESTER ROAD, PHILADELPHIA, PA, 19154","Match","Exact","3304 LESTER RD, PHILADELPHIA, PA, 19154",131433782,"R"
175450,"3304 LINWOOD BLVD","KANSAS CITY","MO",64128,39.0677788880001,-94.544738637,450,"3304 LINWOOD BLVD, KANSAS CITY, MO, 64128","Match","Non_Exact","3304 E LINWOOD BLVD, KANSAS CITY, MO, 64128",91450292,"L"
175451,"3304 LOTTSFORD VISTA RD","BOWIE","MD",20721,38.9353948670001,-76.822525517,451,"3304 LOTTSFORD VISTA RD, BOWIE, MD, 20721","Match","Exact","3304 LOTTSFORD VISTA RD, BOWIE, MD, 20721",76332234,"L"
175452,"3304 MAYFAIR ROAD","BALTIMORE","MD",21207,39.343005088,-76.74190996,452,"3304 MAYFAIR ROAD, BALTIMORE, MD, 21207","Match","Exact","3304 MAYFAIR RD, BALTIMORE, MD, 21207",191468667,"L"
175453,"3304 MISSION ARCH DRIVE","ROSWELL","NM",88201,33.43958925,-104.508393286,453,"3304 MISSION ARCH DRIVE, ROSWELL, NM, 88201","Match","Exact","3304 MISSION ARCH DR, ROSWELL, NM, 88201",131765945,"L"
175454,"3304 N HIGHWAY 67","ST LOUIS","MO",63033,NA,NA,454,"3304 N HIGHWAY 67, ST LOUIS, MO, 63033","No_Match",NA,NA,NA,NA
175455,"3304 OWENS BLVD","RICHARDSON","TX",75082,32.996492409,-96.692843508,455,"3304 OWENS BLVD, RICHARDSON, TX, 75082","Match","Exact","3304 OWENS BLVD, RICHARDSON, TX, 75082",123490172,"R"
175456,"3304 PENNSYLVANIA AVE SE SUITE 108","WASHINGTON","DC",20020,38.868477596,-76.9583479949999,456,"3304 PENNSYLVANIA AVE SE SUITE 108, WASHINGTON, DC, 20020","Match","Exact","3304 PENNSYLVANIA AVE SE, WASHINGTON, DC, 20020",76232105,"L"
175457,"3304 REMINGTON RISE LANE","KATY","TX",77494,NA,NA,457,"3304 REMINGTON RISE LANE, KATY, TX, 77494","No_Match",NA,NA,NA,NA
175458,"3304 ROYCE CT","LAS VEGAS","NV",89121,36.1234049390001,-115.102880374,458,"3304 ROYCE CT, LAS VEGAS, NV, 89121","Match","Exact","3304 ROYCE CT, LAS VEGAS, NV, 89121",201871895,"L"
175459,"3304 SAWTOOTH CT","WESTLAKE VILLAGE","CA",91362,34.168273777,-118.831976399,459,"3304 SAWTOOTH CT, WESTLAKE VILLAGE, CA, 91362","Match","Exact","3304 SAWTOOTH CT, WESTLAKE VILLAGE, CA, 91362",109977595,"L"
175460,"3304 SE LAKE WEIR AVE SUITE 3","OCALA","FL",34471,29.1554495820001,-82.11935959,460,"3304 SE LAKE WEIR AVE SUITE 3, OCALA, FL, 34471","Match","Non_Exact","3304 SE LAKE WEIR AVE, OCALA, FL, 34471",116729715,"R"
175461,"3304 SELLERS RD","DAWSON","GA",39842,31.7529117280001,-84.370060431,461,"3304 SELLERS RD, DAWSON, GA, 39842","Match","Exact","3304 SELLERS RD, DAWSON, GA, 39842",89118533,"L"
175462,"3304 SHERIDAN STREET","CHEYENNE","WY",82009,41.160973142,-104.76923322,462,"3304 SHERIDAN STREET, CHEYENNE, WY, 82009","Match","Exact","3304 SHERIDAN ST, CHEYENNE, WY, 82009",160178500,"L"
175463,"3304 SHERWOOD BLVD","DELRAY BEACH","FL",33445,26.4447595,-80.111399298,463,"3304 SHERWOOD BLVD, DELRAY BEACH, FL, 33445","Match","Exact","3304 SHERWOOD BLVD, DELRAY BEACH, FL, 33445",115537033,"R"
175464,"3304 W ALLINE AVE","TAMPA","FL",33611,27.8984441970001,-82.4981176809999,464,"3304 W ALLINE AVE, TAMPA, FL, 33611","Match","Exact","3304 W ALLINE AVE, TAMPA, FL, 33611",104528678,"L"
175465,"3304 WABASH AVE","KANSAS CITY","MO",64109,39.0660770170001,-94.554182866,465,"3304 WABASH AVE, KANSAS CITY, MO, 64109","Match","Exact","3304 WABASH AVE, KANSAS CITY, MO, 64109",91449909,"R"
175466,"3304 WOODLAND RD","LONGVIEW","TX",75602,32.4509637800001,-94.6753573249999,466,"3304 WOODLAND RD, LONGVIEW, TX, 75602","Match","Exact","3304 WOODLAND RD, LONGVIEW, TX, 75602",141183290,"R"
175467,"33041 TALL TIMBER TRCE","TRINIDAD","CO",81082,37.028963495,-104.570677316,467,"33041 TALL TIMBER TRCE, TRINIDAD, CO, 81082","Match","Exact","33041 TALL TIMBER TRCE, TRINIDAD, CO, 81082",112771564,"R"
175468,"3305 2ND AVE SOUTH","MINNEAPOLIS","MN",55408,44.942954403,-93.274073393,468,"3305 2ND AVE SOUTH, MINNEAPOLIS, MN, 55408","Match","Exact","3305 2ND AVE S, MINNEAPOLIS, MN, 55408",43633597,"L"
175469,"3305 4TH AVE","RICHMOND","VA",23222,37.570523725,-77.411258128,469,"3305 4TH AVE, RICHMOND, VA, 23222","Match","Exact","3305 4TH AVE, RICHMOND, VA, 23222",645918531,"R"
175470,"3305 8TH ST NE APT204","WASHINGTON","DC",20017,38.9305148770001,-76.994952123,470,"3305 8TH ST NE APT204, WASHINGTON, DC, 20017","Match","Exact","3305 8TH ST NE, WASHINGTON, DC, 20017",76228474,"R"
175471,"3305 8TH STREET NE SUITE 202","WASHINGTON","DC",20017,38.9305148770001,-76.994952123,471,"3305 8TH STREET NE SUITE 202, WASHINGTON, DC, 20017","Match","Exact","3305 8TH ST NE, WASHINGTON, DC, 20017",76228474,"R"
175472,"3305 ASHER STREET","UPPER MARLBORO","MD",20772,38.841568513,-76.761624044,472,"3305 ASHER STREET, UPPER MARLBORO, MD, 20772","Match","Exact","3305 ASHER ST, UPPER MARLBORO, MD, 20772",76344156,"L"
175473,"3305 BLACK LICK ROAD","RURAL RETREAT","VA",24368,36.9365643620001,-81.26956107,473,"3305 BLACK LICK ROAD, RURAL RETREAT, VA, 24368","Match","Exact","3305 BLACK LICK RD, RURAL RETREAT, VA, 24368",47656684,"R"
175474,"3305 BUCKMAN SPRINGS ROAD","PINE VALLEY","CA",91962,32.734873796,-116.493745826,474,"3305 BUCKMAN SPRINGS ROAD, PINE VALLEY, CA, 91962","Match","Exact","3305 BUCKMAN SPRINGS RD, PINE VALLEY, CA, 91962",629809669,"R"
175475,"3305 CALLE CUERVO NW APT 415","ALBUQUERQUE","NM",87114,NA,NA,475,"3305 CALLE CUERVO NW APT 415, ALBUQUERQUE, NM, 87114","No_Match",NA,NA,NA,NA
175476,"3305 E ROME BLVD SUITE 3024","NORTH LAS VEGAS","NV",89086,36.280010358,-115.116596641,476,"3305 E ROME BLVD SUITE 3024, NORTH LAS VEGAS, NV, 89086","Match","Non_Exact","3305 E ROME BLVD, N LAS VEGAS, NV, 89086",639407381,"L"
175477,"3305 EADS AVE","SAINT LOUIS","MO",63104,38.618094817,-90.232906113,477,"3305 EADS AVE, SAINT LOUIS, MO, 63104","Match","Exact","3305 EADS AVE, SAINT LOUIS, MO, 63104",107598232,"R"
175478,"3305 EASTMAN LN","PETALUMA","CA",94952,38.2388479700001,-122.698476413,478,"3305 EASTMAN LN, PETALUMA, CA, 94952","Match","Exact","3305 EASTMAN LN, PETALUMA, CA, 94952",67500012,"R"
175479,"3305 FERNWOOD LANE","SHREVEPORT","LA",71108,32.4352833390001,-93.791130948,479,"3305 FERNWOOD LANE, SHREVEPORT, LA, 71108","Match","Exact","3305 FERNWOOD LN, SHREVEPORT, LA, 71108",57439163,"L"
175480,"3305 GARRETSON AVENUE","SIOUX CITY","IA",51106,42.4724261600001,-96.3651839249999,480,"3305 GARRETSON AVENUE, SIOUX CITY, IA, 51106","Match","Exact","3305 GARRETSON AVE, SIOUX CITY, IA, 51106",93424402,"L"
175481,"3305 GREENWICH-ANGLING ROAD","GREENWICH","OH",44837,41.048069793,-82.5179025479999,481,"3305 GREENWICH-ANGLING ROAD, GREENWICH, OH, 44837","Match","Non_Exact","3305 GREENWICH ANGLING RD, GREENWICH, OH, 44837",12629112,"L"
175482,"3305 INDIAN LANE","RENO","NV",89506,39.6146333880001,-119.81925735,482,"3305 INDIAN LANE, RENO, NV, 89506","Match","Exact","3305 INDIAN LN, RENO, NV, 89506",107041462,"L"
175483,"3305 KENJAC ROAD","BALTIMORE","MD",21244,39.3553801670001,-76.780820781,483,"3305 KENJAC ROAD, BALTIMORE, MD, 21244","Match","Exact","3305 KENJAC RD, BALTIMORE, MD, 21244",191466821,"L"
175484,"3305 KENNEDY DR N APT 2204","FRASER","MI",48026,NA,NA,484,"3305 KENNEDY DR N APT 2204, FRASER, MI, 48026","No_Match",NA,NA,NA,NA
175485,"3305 KINGS LANE","BURTON","MI",48529,NA,NA,485,"3305 KINGS LANE, BURTON, MI, 48529","No_Match",NA,NA,NA,NA
175486,"3305 LAGUNA CANYON ROAD","LAGUNA BEACH","CA",92651,33.5499787210001,-117.780268961,486,"3305 LAGUNA CANYON ROAD, LAGUNA BEACH, CA, 92651","Match","Exact","3305 LAGUNA CANYON RD, LAGUNA BEACH, CA, 92651",609045762,"L"
175487,"3305 LAKE VALLEY WAY","DOUGLASVILLE","GA",30135,33.7132363920001,-84.6533942579999,487,"3305 LAKE VALLEY WAY, DOUGLASVILLE, GA, 30135","Match","Exact","3305 LAKE VALLEY WAY, DOUGLASVILLE, GA, 30135",619840223,"R"
175488,"3305 LANDS END LANE","KNOXVILLE","TN",37931,35.9784335740001,-84.067085371,488,"3305 LANDS END LANE, KNOXVILLE, TN, 37931","Match","Exact","3305 LANDS END LN, KNOXVILLE, TN, 37931",604666853,"L"
175489,"3305 LANHAM ST","MIDLAND","TX",79705,32.022783271,-102.112566013,489,"3305 LANHAM ST, MIDLAND, TX, 79705","Match","Exact","3305 LANHAM ST, MIDLAND, TX, 79705",640821921,"L"
175490,"3305 LENOX RD NE","ATLANTA","GA",30326,33.8457205240001,-84.358675573,490,"3305 LENOX RD NE, ATLANTA, GA, 30326","Match","Non_Exact","3305 LENOX RD, ATLANTA, GA, 30326",17355651,"R"
175491,"3305 LILLY RD","BROOKFIELD","WI",53005,43.078837831,-88.0864880459999,491,"3305 LILLY RD, BROOKFIELD, WI, 53005","Match","Non_Exact","3305 N LILLY RD, BROOKFIELD, WI, 53005",53816616,"L"
175492,"3305 N S STREET","PENSACOLA","FL",32505,30.446443518,-87.244729138,492,"3305 N S STREET, PENSACOLA, FL, 32505","Match","Exact","3305 N S ST, PENSACOLA, FL, 32505",93214545,"L"
175493,"3305 NAVAJO DRIVE","NEW LENOX","IL",60451,41.536135077,-88.001640271,493,"3305 NAVAJO DRIVE, NEW LENOX, IL, 60451","Match","Exact","3305 NAVAJO DR, NEW LENOX, IL, 60451",111609786,"R"
175494,"3305 NORTH 1100 WEST","PLEASANT VIEW","UT",84414,41.320650711,-112.009397303,494,"3305 NORTH 1100 WEST, PLEASANT VIEW, UT, 84414","Match","Exact","3305 N 1100 W, PLEASANT VIEW, UT, 84414",653303045,"R"
175495,"3305 NORTH 3RD ST SUITE 320","ABILENE","TX",79603,32.453014286,-99.76263901,495,"3305 NORTH 3RD ST SUITE 320, ABILENE, TX, 79603","Match","Exact","3305 N 3RD ST, ABILENE, TX, 79603",129959303,"L"
175496,"3305 NORTH MANOR DRIVE","TUCSON","AZ",85750,32.2675785270001,-110.827662984,496,"3305 NORTH MANOR DRIVE, TUCSON, AZ, 85750","Match","Exact","3305 N MANOR DR, TUCSON, AZ, 85750",606809146,"L"
175497,"3305 NORTH S STREET","PENSACOLA","FL",32505,30.4464428000001,-87.244728864,497,"3305 NORTH S STREET, PENSACOLA, FL, 32505","Match","Exact","3305 N S ST, PENSACOLA, FL, 32505",93214545,"L"
175498,"3305 OHIO AVENUE","MIDDLETOWN","OH",45042,39.531533962,-84.369305111,498,"3305 OHIO AVENUE, MIDDLETOWN, OH, 45042","Match","Exact","3305 OHIO AVE, MIDDLETOWN, OH, 45042",113793022,"L"
175499,"3305 OOSTY CT","MCKINNEY","TX",75070,33.169654877,-96.725458031,499,"3305 OOSTY CT, MCKINNEY, TX, 75070","Match","Exact","3305 OOSTY CT, MCKINNEY, TX, 75070",614170707,"R"
175500,"3305 PARK AVENUE APT C","SAINT LOUIS","MO",63104,38.6199719740001,-90.2330316009999,500,"3305 PARK AVENUE APT C, SAINT LOUIS, MO, 63104","Match","Exact","3305 PARK AVE, SAINT LOUIS, MO, 63104",107598229,"R"
