"ID","Address","City","State","Zip","lat","long","id","input_address","match_indicator","match_type","matched_address","tiger_line_id","tiger_side"
140001,"2530 FIREWHEEL AVE SW","LOS LUNAS","NM",87031,34.812835423,-106.767914675,1,"2530 FIREWHEEL AVE SW, LOS LUNAS, NM, 87031","Match","Exact","2530 FIREWHEEL AVE SW, LOS LUNAS, NM, 87031",179345417,"R"
140002,"2530 GREGORY STREET","MADISON","WI",53711,43.0594735660001,-89.429467894,2,"2530 GREGORY STREET, MADISON, WI, 53711","Match","Exact","2530 GREGORY ST, MADISON, WI, 53711",49468960,"R"
140003,"2530 J ST SW","CEDAR RAPIDS","IA",52404,41.9532237560001,-91.667288793,3,"2530 J ST SW, CEDAR RAPIDS, IA, 52404","Match","Exact","2530 J ST SW, CEDAR RAPIDS, IA, 52404",17026478,"R"
140004,"2530 KEARNS BLVD","PARK CITY","UT",84060,40.668042041,-111.490967945,4,"2530 KEARNS BLVD, PARK CITY, UT, 84060","Match","Exact","2530 KEARNS BLVD, PARK CITY, UT, 84060",160630368,"L"
140005,"2530 LAKEFIELD TRAIL","MARIETTA","GA",30064,33.9310519310001,-84.628748388,5,"2530 LAKEFIELD TRAIL, MARIETTA, GA, 30064","Match","Exact","2530 LAKEFIELD TRL, MARIETTA, GA, 30064",643023767,"L"
140006,"2530 LAKESIDE DR","GARLAND","TX",75042,32.918383868,-96.665940666,6,"2530 LAKESIDE DR, GARLAND, TX, 75042","Match","Exact","2530 LAKESIDE DR, GARLAND, TX, 75042",102917863,"L"
140007,"2530 LISBURN CIR NW","NORTH CANTON","OH",44720,40.915136348,-81.3917480489999,7,"2530 LISBURN CIR NW, NORTH CANTON, OH, 44720","Match","Exact","2530 LISBURN CIR NW, NORTH CANTON, OH, 44720",64709091,"R"
140008,"2530 MARIA LOUISE LN","CAPE GIRARDEAU","MO",63701,NA,NA,8,"2530 MARIA LOUISE LN, CAPE GIRARDEAU, MO, 63701","No_Match",NA,NA,NA,NA
140009,"2530 MERIDIAN PKWY STE 300 PBN 3033","DURHAM","NC",27713,35.9108744580001,-78.899011273,9,"2530 MERIDIAN PKWY STE 300 PBN 3033, DURHAM, NC, 27713","Match","Exact","2530 MERIDIAN PKWY, DURHAM, NC, 27713",71772581,"R"
140010,"2530 N SPURGEON ST","SANTA ANA","CA",92706,33.770001952,-117.86509949,10,"2530 N SPURGEON ST, SANTA ANA, CA, 92706","Match","Exact","2530 N SPURGEON ST, SANTA ANA, CA, 92706",144041465,"L"
140011,"2530 NEW LAKE RD SW","STOCKBRIDGE","GA",30281,33.623726332,-84.154544808,11,"2530 NEW LAKE RD SW, STOCKBRIDGE, GA, 30281","Match","Exact","2530 NEW LAKE RD SW, STOCKBRIDGE, GA, 30281",23739485,"L"
140012,"2530 NORTH BROAD STREET - 3RD FLOOR","PHILADELPHIA","PA",19132,39.9913631050001,-75.155168423,12,"2530 NORTH BROAD STREET - 3RD FLOOR, PHILADELPHIA, PA, 19132","Match","Exact","2530 N BROAD ST, PHILADELPHIA, PA, 19132",131418403,"L"
140013,"2530 OSWEGO AVE","BALTIMORE","MD",21215,39.3370319680001,-76.659348794,13,"2530 OSWEGO AVE, BALTIMORE, MD, 21215","Match","Exact","2530 OSWEGO AVE, BALTIMORE, MD, 21215",206406418,"R"
140014,"2530 RED RIVER DR","SIDNEY","MT",59270,47.728402745,-104.19269934,14,"2530 RED RIVER DR, SIDNEY, MT, 59270","Match","Exact","2530 RED RIVER DR, SIDNEY, MT, 59270",639617122,"L"
140015,"2530 RIVA RD STE 200","ANNAPOLIS","MD",21401,38.9798975310001,-76.547817233,15,"2530 RIVA RD STE 200, ANNAPOLIS, MD, 21401","Match","Exact","2530 RIVA RD, ANNAPOLIS, MD, 21401",606932275,"R"
140016,"2530 SE 190TH AVE","GRESHAM","OR",97030,45.504168398,-122.467809758,16,"2530 SE 190TH AVE, GRESHAM, OR, 97030","Match","Exact","2530 SE 190TH AVE, GRESHAM, OR, 97030",157559763,"L"
140017,"2530 ULYSSES RD","TALLAHASSEE","FL",32312,30.5457203980001,-84.241539299,17,"2530 ULYSSES RD, TALLAHASSEE, FL, 32312","Match","Exact","2530 ULYSSES RD, TALLAHASSEE, FL, 32312",618827615,"L"
140018,"2530 UNION CROSS ROAD","WINSTON SALEM","NC",27107,36.043423127,-80.186804459,18,"2530 UNION CROSS ROAD, WINSTON SALEM, NC, 27107","Match","Exact","2530 UNION CROSS RD, WINSTON SALEM, NC, 27107",649731963,"R"
140019,"2530 W APOLLO RD","PHOENIX","AZ",85041,33.3863561000001,-112.113481688,19,"2530 W APOLLO RD, PHOENIX, AZ, 85041","Match","Exact","2530 W APOLLO RD, PHOENIX, AZ, 85041",244001112,"L"
140020,"2530 W HAPPY VALLEY RD","PHOENIX","AZ",85085,33.712903458,-112.11317554,20,"2530 W HAPPY VALLEY RD, PHOENIX, AZ, 85085","Match","Exact","2530 W HAPPY VALLEY RD, PHOENIX, AZ, 85085",128397406,"L"
140021,"2530 WORKMAN ST","LOS ANGELES","CA",90031,34.075460349,-118.214386375,21,"2530 WORKMAN ST, LOS ANGELES, CA, 90031","Match","Exact","2530 WORKMAN ST, LOS ANGELES, CA, 90031",141621953,"R"
140022,"25300 BERNWOOD DR STE 7","BONITA SPRINGS","FL",34134,26.365759516,-81.7957618309999,22,"25300 BERNWOOD DR STE 7, BONITA SPRINGS, FL, 34134","Match","Non_Exact","25300 BERNWOOD DR, BONITA SPGS, FL, 34135",650803668,"R"
140023,"25300 BERNWOOD DR SUITE 1","BONITA SPRINGS","FL",34135,26.365759516,-81.7957618309999,23,"25300 BERNWOOD DR SUITE 1, BONITA SPRINGS, FL, 34135","Match","Exact","25300 BERNWOOD DR, BONITA SPGS, FL, 34135",650803668,"R"
140024,"25301 LAMBS MEADOW ROAD","WORTON","MD",21678,39.2900671020001,-76.090128329,24,"25301 LAMBS MEADOW ROAD, WORTON, MD, 21678","Match","Exact","25301 LAMBS MEADOW RD, WORTON, MD, 21678",68336394,"R"
140025,"25306 W EAMES ST","CHANNAHON","IL",60410,41.4311012100001,-88.226034812,25,"25306 W EAMES ST, CHANNAHON, IL, 60410","Match","Exact","25306 W EAMES ST, CHANNAHON, IL, 60410",111537895,"L"
140026,"25309 LOGANSHIRE TER APT 104","CHANTILLY","VA",20152,38.916112889,-77.5146016639999,26,"25309 LOGANSHIRE TER APT 104, CHANTILLY, VA, 20152","Match","Exact","25309 LOGANSHIRE TER, CHANTILLY, VA, 20152",62357244,"L"
140027,"25309 NORTH COUNTRY HIGHWAY 15","AVON","IL",61415,NA,NA,27,"25309 NORTH COUNTRY HIGHWAY 15, AVON, IL, 61415","No_Match",NA,NA,NA,NA
140028,"2531 192ND PL SE","BOTHELL","WA",98012,47.823460767,-122.198597542,28,"2531 192ND PL SE, BOTHELL, WA, 98012","Match","Exact","2531 192ND PL SE, BOTHELL, WA, 98012",606934127,"R"
140029,"2531 33RD STREET APARTMENT 2","ASTORIA","NY",11102,40.7690975150001,-73.9173764989999,29,"2531 33RD STREET APARTMENT 2, ASTORIA, NY, 11102","Match","Exact","2531 33RD ST, ASTORIA, NY, 11102",59696977,"L"
140030,"2531 9TH AVE WEST","BRADENTON","FL",34205,27.4919524760001,-82.586907447,30,"2531 9TH AVE WEST, BRADENTON, FL, 34205","Match","Exact","2531 9TH AVE W, BRADENTON, FL, 34205",16233752,"L"
140031,"2531 BARKHILL RD","CANTON","MI",48188,42.286928232,-83.5326497039999,31,"2531 BARKHILL RD, CANTON, MI, 48188","Match","Exact","2531 BARKHILL RD, CANTON, MI, 48188",617693951,"R"
140032,"2531 BISHOP ALLEN LANE","DALLAS","TX",75237,32.6505902320001,-96.8604371169999,32,"2531 BISHOP ALLEN LANE, DALLAS, TX, 75237","Match","Exact","2531 BISHOP ALLEN LN, DALLAS, TX, 75237",636111888,"R"
140033,"2531 BLUE WATER BLVD","ODENTON","MD",21113,39.1053542760001,-76.7019720659999,33,"2531 BLUE WATER BLVD, ODENTON, MD, 21113","Match","Exact","2531 BLUE WATER BLVD, ODENTON, MD, 21113",639944636,"R"
140034,"2531 CAMINO DEL PLATA","CORONA","CA",92882,NA,NA,34,"2531 CAMINO DEL PLATA, CORONA, CA, 92882","No_Match",NA,NA,NA,NA
140035,"2531 CARNEY AVE","MARINETTE","WI",54143,45.0925391440001,-87.643353346,35,"2531 CARNEY AVE, MARINETTE, WI, 54143","Match","Exact","2531 CARNEY AVE, MARINETTE, WI, 54143",170009131,"L"
140036,"2531 CLUB TERRACE DRIVE","DALLAS","TX",75237,32.6690675,-96.860330966,36,"2531 CLUB TERRACE DRIVE, DALLAS, TX, 75237","Match","Exact","2531 CLUB TERRACE DR, DALLAS, TX, 75237",103190471,"R"
140037,"2531 CRANBROOK DRIVE","CINCINNATI","OH",45231,39.2945410310001,-84.568439268,37,"2531 CRANBROOK DRIVE, CINCINNATI, OH, 45231","Match","Exact","2531 CRANBROOK DR, CINCINNATI, OH, 45231",103942511,"L"
140038,"2531 CROSS MORE STREET","VALRICO","FL",33594,27.9439798870001,-82.242940641,38,"2531 CROSS MORE STREET, VALRICO, FL, 33594","Match","Exact","2531 CROSS MORE ST, VALRICO, FL, 33594",630013261,"R"
140039,"2531 DONLENIK","YORK","PA",17402,NA,NA,39,"2531 DONLENIK, YORK, PA, 17402","No_Match",NA,NA,NA,NA
140040,"2531 E BUENA VISTA PL","CHANDLER","AZ",85249,33.211213457,-111.797184471,40,"2531 E BUENA VISTA PL, CHANDLER, AZ, 85249","Match","Exact","2531 E BUENA VISTA PL, CHANDLER, AZ, 85249",128855316,"R"
140041,"2531 HONEY SPRINGS RD","GAMUL","CA",91935,32.6900962020001,-116.748439501,41,"2531 HONEY SPRINGS RD, GAMUL, CA, 91935","Match","Non_Exact","2531 HONEY SPRINGS RD, JAMUL, CA, 91935",195729613,"R"
140042,"2531 INVERNESS DRIVE","HEPHZIBAH","GA",30815,33.36599706,-82.081217236,42,"2531 INVERNESS DRIVE, HEPHZIBAH, GA, 30815","Match","Exact","2531 INVERNESS DR, HEPHZIBAH, GA, 30815",645416267,"R"
140043,"2531 JACKSON AVENUE","ANN ARBOR","MI",48103,42.2809652780001,-83.7821280319999,43,"2531 JACKSON AVENUE, ANN ARBOR, MI, 48103","Match","Exact","2531 JACKSON AVE, ANN ARBOR, MI, 48103",26012166,"L"
140044,"2531 MELODY WAY NW","MILLEDGEVILLE","GA",31061,33.1115546870001,-83.262458233,44,"2531 MELODY WAY NW, MILLEDGEVILLE, GA, 31061","Match","Non_Exact","2531 MELODY WAY, MILLEDGEVILLE, GA, 31061",16582200,"L"
140045,"2531 MICHAEL DRIVE","NEWBURY PARK","CA",91320,34.183162091,-118.930870213,45,"2531 MICHAEL DRIVE, NEWBURY PARK, CA, 91320","Match","Exact","2531 MICHAEL DR, NEWBURY PARK, CA, 91320",110032229,"R"
140046,"2531 MILL GRAIN WAY","FUQUAY VARINA","NC",27526,35.626018107,-78.7981451059999,46,"2531 MILL GRAIN WAY, FUQUAY VARINA, NC, 27526","Match","Exact","2531 MILL GRAIN WAY, FUQUAY VARINA, NC, 27526",624347475,"R"
140047,"2531 N 47TH ST","MILWAUKEE","WI",53210,43.0648973880001,-87.972459138,47,"2531 N 47TH ST, MILWAUKEE, WI, 53210","Match","Exact","2531 N 47TH ST, MILWAUKEE, WI, 53210",77732295,"L"
140048,"2531 NW 114TH AVE","CORAL SPRINGS","FL",33065,26.2622244820001,-80.2783680919999,48,"2531 NW 114TH AVE, CORAL SPRINGS, FL, 33065","Match","Exact","2531 NW 114TH AVE, CORAL SPRINGS, FL, 33065",114761943,"R"
140049,"2531 RIO HONDO ROAD - NUMBER 113","TARPLEY","TX",78883,NA,NA,49,"2531 RIO HONDO ROAD - NUMBER 113, TARPLEY, TX, 78883","No_Match",NA,NA,NA,NA
140050,"2531 SALTBUSH COURT","PALMDALE","CA",93550,34.5473451400001,-118.083299822,50,"2531 SALTBUSH COURT, PALMDALE, CA, 93550","Match","Exact","2531 SALTBUSH CT, PALMDALE, CA, 93550",141530187,"L"
140051,"2531 SHARP AVENUE","COLUMBUS","GA",31903,32.406346419,-84.965098701,51,"2531 SHARP AVENUE, COLUMBUS, GA, 31903","Match","Exact","2531 SHARP AVE, COLUMBUS, GA, 31903",98942564,"R"
140052,"2531 TRANQUIL OAK PL","CHARLOTTE","NC",28206,35.25428292,-80.837532529,52,"2531 TRANQUIL OAK PL, CHARLOTTE, NC, 28206","Match","Exact","2531 TRANQUIL OAK PL, CHARLOTTE, NC, 28206",70499486,"L"
140053,"2531 W THOMPSON STREET","PHILADELPHIA","PA",19121,39.9756443950001,-75.177938011,53,"2531 W THOMPSON STREET, PHILADELPHIA, PA, 19121","Match","Exact","2531 W THOMPSON ST, PHILADELPHIA, PA, 19121",131405151,"R"
140054,"2531 WARM SPRINGS ROAD","GLEN ELLEN","CA",95442,38.383474187,-122.551574823,54,"2531 WARM SPRINGS ROAD, GLEN ELLEN, CA, 95442","Match","Exact","2531 WARM SPRINGS RD, GLEN ELLEN, CA, 95442",67523268,"L"
140055,"2531 WEST COLLEGE DRIVE","SAN BERNARDINO","CA",92410,34.089555777,-117.345400506,55,"2531 WEST COLLEGE DRIVE, SAN BERNARDINO, CA, 92410","Match","Exact","2531 W COLLEGE DR, SAN BERNARDINO, CA, 92410",144975020,"L"
140056,"2531 WHITE TAIL LANE","WHITE OAK","PA",15131,40.3367777290001,-79.788184084,56,"2531 WHITE TAIL LANE, WHITE OAK, PA, 15131","Match","Exact","2531 WHITE TAIL LN, WHITE OAK, PA, 15131",51815617,"L"
140057,"25311 CALLE BECERRA","LAGUNA NIGUEL","CA",92677,33.544027225,-117.688364628,57,"25311 CALLE BECERRA, LAGUNA NIGUEL, CA, 92677","Match","Non_Exact","25311 CLL BECERRA, LAGUNA NIGUEL, CA, 92677",144070865,"L"
140058,"25311 INTREPID LANE","GALVESTON","TX",77554,29.111913192,-95.088108031,58,"25311 INTREPID LANE, GALVESTON, TX, 77554","Match","Exact","25311 INTREPID LN, GALVESTON, TX, 77554",96705101,"L"
140059,"25311 VIA PIEDRA ROJA","LAGUNA NIGUEL","CA",92677,33.533729125,-117.68917884,59,"25311 VIA PIEDRA ROJA, LAGUNA NIGUEL, CA, 92677","Match","Exact","25311 VIA PIEDRA ROJA, LAGUNA NIGUEL, CA, 92677",144071587,"L"
140060,"25312 N 16TH AVE","PHOENIX","AZ",85085,NA,NA,60,"25312 N 16TH AVE, PHOENIX, AZ, 85085","Tie",NA,NA,NA,NA
140061,"25315 KEAN ST","DEARBORN","MI",48124,42.296724168,-83.284681295,61,"25315 KEAN ST, DEARBORN, MI, 48124","Match","Exact","25315 KEAN ST, DEARBORN, MI, 48124",95432817,"L"
140062,"25315 NE OLSON RD","BATTLE GROUND","WA",98604,45.76945139,-122.410848161,62,"25315 NE OLSON RD, BATTLE GROUND, WA, 98604","Match","Exact","25315 NE OLSON RD, BATTLE GROUND, WA, 98604",158316930,"L"
140063,"25316 SHERWOOD","HUNTINGTON WOODS","MI",48070,NA,NA,63,"25316 SHERWOOD, HUNTINGTON WOODS, MI, 48070","No_Match",NA,NA,NA,NA
140064,"25317 INTERSTATE 45","THE WOODLANDS","TX",77380,NA,NA,64,"25317 INTERSTATE 45, THE WOODLANDS, TX, 77380","No_Match",NA,NA,NA,NA
140065,"2532 83RD AVENUE","OAKLAND","CA",94605,37.761670963,-122.165285415,65,"2532 83RD AVENUE, OAKLAND, CA, 94605","Match","Exact","2532 83RD AVE, OAKLAND, CA, 94605",125009073,"R"
140066,"2532 9TH ST S","FARGO","ND",58103,46.841505253,-96.7934269789999,66,"2532 9TH ST S, FARGO, ND, 58103","Match","Exact","2532 9TH ST S, FARGO, ND, 58103",151448757,"L"
140067,"2532 ASHBROOK DRIVE","ELLICOTT CITY","MD",21042,39.303077112,-76.842572746,67,"2532 ASHBROOK DRIVE, ELLICOTT CITY, MD, 21042","Match","Exact","2532 ASHBROOK DR, ELLICOTT CITY, MD, 21042",158935369,"R"
140068,"2532 BERWICK WALK","SNELLVILLE","GA",30078,33.878996011,-84.035167687,68,"2532 BERWICK WALK, SNELLVILLE, GA, 30078","Match","Exact","2532 BERWICK WALK, SNELLVILLE, GA, 30078",88901108,"R"
140069,"2532 BRENNA WAY","GRAND JUNCTION","CO",81505,39.1006032340001,-108.582035843,69,"2532 BRENNA WAY, GRAND JUNCTION, CO, 81505","Match","Exact","2532 BRENNA WAY, GRAND JCT, CO, 81505",122456546,"R"
140070,"2532 CENTER ST","ATLANTA","GA",30318,33.7900810740001,-84.470880375,70,"2532 CENTER ST, ATLANTA, GA, 30318","Match","Non_Exact","2532 CENTER ST NW, ATLANTA, GA, 30318",17403050,"L"
140071,"2532 CONCORD CIRCLE","LAFAYETTE","CO",80026,40.006930332,-105.127976149,71,"2532 CONCORD CIRCLE, LAFAYETTE, CO, 80026","Match","Exact","2532 CONCORD CIR, LAFAYETTE, CO, 80026",188193010,"R"
140072,"2532 EAST 86TH STREET","CLEVELAND","OH",44104,41.4898792810001,-81.6273059709999,72,"2532 EAST 86TH STREET, CLEVELAND, OH, 44104","Match","Exact","2532 E 86TH ST, CLEVELAND, OH, 44104",61114597,"R"
140073,"2532 F STREET","SAN DIEGO","CA",92102,32.713736489,-117.139335379,73,"2532 F STREET, SAN DIEGO, CA, 92102","Match","Exact","2532 F ST, SAN DIEGO, CA, 92102",612866459,"L"
140074,"2532 INNISFREE DRIVE","BAKERSFIELD","CA",93309,35.3320824530001,-119.078930093,74,"2532 INNISFREE DRIVE, BAKERSFIELD, CA, 93309","Match","Exact","2532 INNISFREE DR, BAKERSFIELD, CA, 93309",109132629,"L"
140075,"2532 LAKE CHARNWOOD","TROY","MI",48098,42.6173870640001,-83.200139823,75,"2532 LAKE CHARNWOOD, TROY, MI, 48098","Match","Non_Exact","2532 LAKE CHARNWOOD DR, TROY, MI, 48098",69711565,"R"
140076,"2532 N DIXIE HWY","MONROE","MI",48162,41.9346075010001,-83.333374197,76,"2532 N DIXIE HWY, MONROE, MI, 48162","Match","Exact","2532 N DIXIE HWY, MONROE, MI, 48162",40480032,"R"
140077,"2532 N FOURTH ST SUITE 606","FLAGSTAFF","AZ",86004,35.213198795,-111.613475351,77,"2532 N FOURTH ST SUITE 606, FLAGSTAFF, AZ, 86004","Match","Non_Exact","2532 N 4TH ST, FLAGSTAFF, AZ, 86004",649979883,"R"
140078,"2532 NORTH 4TH STREET SUITE 153","FLAGSTAFF","AZ",86004,35.2131789170001,-111.613475103,78,"2532 NORTH 4TH STREET SUITE 153, FLAGSTAFF, AZ, 86004","Match","Exact","2532 N 4TH ST, FLAGSTAFF, AZ, 86004",649979883,"R"
140079,"2532 PINE ROAD","HUNTINGDON VALLEY","PA",19006,40.1159665980001,-75.0498932679999,79,"2532 PINE ROAD, HUNTINGDON VALLEY, PA, 19006","Match","Exact","2532 PINE RD, HUNTINGDON VALLEY, PA, 19006",135096618,"L"
140080,"2532 PORTSMOUTH CIRCLE","SPRINGFIELD","IL",62703,39.7681087450001,-89.619437192,80,"2532 PORTSMOUTH CIRCLE, SPRINGFIELD, IL, 62703","Match","Exact","2532 PORTSMOUTH CIR, SPRINGFIELD, IL, 62703",97350427,"R"
140081,"2532 S HAIRSTON ROAD STE H","DECATUR","GA",30035,33.718658743,-84.212207948,81,"2532 S HAIRSTON ROAD STE H, DECATUR, GA, 30035","Match","Non_Exact","2532 S HAIRSTON RD, DECATUR, GA, 30035",650098117,"L"
140082,"2532 SADDLEWOOD CIRCLE SW","CONCORD","NC",28027,35.376715269,-80.6195946999999,82,"2532 SADDLEWOOD CIRCLE SW, CONCORD, NC, 28027","Match","Exact","2532 SADDLEWOOD CIR SW, CONCORD, NC, 28027",24904562,"R"
140083,"2532 SOUTH CENTINELA AVE UNIT 6","LOS ANGELES","CA",90064,34.025135865,-118.450477034,83,"2532 SOUTH CENTINELA AVE UNIT 6, LOS ANGELES, CA, 90064","Match","Exact","2532 S CENTINELA AVE, LOS ANGELES, CA, 90064",141569691,"L"
140084,"2532 W MEGAN DR","FAYETTEVILLE","AR",72703,36.0823075430001,-94.1947867539999,84,"2532 W MEGAN DR, FAYETTEVILLE, AR, 72703","Match","Exact","2532 W MEGAN DR, FAYETTEVILLE, AR, 72703",49053739,"R"
140085,"2532 W WARREN BLVD","CHICAGO","IL",60612,41.882064159,-87.6897236789999,85,"2532 W WARREN BLVD, CHICAGO, IL, 60612","Match","Exact","2532 W WARREN BLVD, CHICAGO, IL, 60612",605090638,"R"
140086,"2532 W WARREN","CHICAGO","IL",60612,41.882064159,-87.6897236789999,86,"2532 W WARREN, CHICAGO, IL, 60612","Match","Non_Exact","2532 W WARREN BLVD, CHICAGO, IL, 60612",605090638,"R"
140087,"2532 WEST DENNIS DRIVE","GAINESVILLE","GA",30507,34.279778804,-83.773304717,87,"2532 WEST DENNIS DRIVE, GAINESVILLE, GA, 30507","Match","Exact","2532 W DENNIS DR, GAINESVILLE, GA, 30507",98279534,"R"
140088,"25322 RYE CANYON RD  204","VALENCIA","CA",91355,34.437229411,-118.578174956,88,"25322 RYE CANYON RD  204, VALENCIA, CA, 91355","Match","Exact","25322 RYE CANYON RD, VALENCIA, CA, 91355",639059522,"R"
140089,"25324  FRAMPTON AVE","HARBOR CITY","CA",90710,33.7944604730001,-118.299903246,89,"25324  FRAMPTON AVE, HARBOR CITY, CA, 90710","Match","Exact","25324 FRAMPTON AVE, HARBOR CITY, CA, 90710",141669299,"L"
140090,"25324 WILLOW DRIVE WEST","PLAINFIELD","IL",60544,NA,NA,90,"25324 WILLOW DRIVE WEST, PLAINFIELD, IL, 60544","No_Match",NA,NA,NA,NA
140091,"25325 LAKESIDE TERRACE","LOXLEY","AL",36551,30.593698052,-87.747839711,91,"25325 LAKESIDE TERRACE, LOXLEY, AL, 36551","Match","Exact","25325 LAKESIDE TER, LOXLEY, AL, 36551",131710995,"R"
140092,"25325 MENOMINEE CT","MORENO VALLEY","CA",92553,33.907172487,-117.22071261,92,"25325 MENOMINEE CT, MORENO VALLEY, CA, 92553","Match","Exact","25325 MENOMINEE CT, MORENO VALLEY, CA, 92553",194819423,"L"
140093,"25327 BRISCOE VILLAGE DRIVE","RICHMOND","TX",77406,29.678313073,-95.8158124879999,93,"25327 BRISCOE VILLAGE DRIVE, RICHMOND, TX, 77406","Match","Exact","25327 BRISCOE VILLAGE DR, RICHMOND, TX, 77406",648704790,"L"
140094,"2533 28TH STREET","MOLINE","IL",61265,41.4865804470001,-90.4979003399999,94,"2533 28TH STREET, MOLINE, IL, 61265","Match","Exact","2533 28TH ST, MOLINE, IL, 61265",9213274,"R"
140095,"2533 ALDER STREET","EUGENE","OR",97405,44.031525984,-123.080368609,95,"2533 ALDER STREET, EUGENE, OR, 97405","Match","Exact","2533 ALDER ST, EUGENE, OR, 97405",178170951,"L"
140096,"2533 BRYANT STREET","DENVER","CO",80211,39.7540387660001,-105.019167733,96,"2533 BRYANT STREET, DENVER, CO, 80211","Match","Exact","2533 BRYANT ST, DENVER, CO, 80211",177301774,"L"
140097,"2533 CLOVERLEAF LN","ABILENE","TX",79601,32.4774595590001,-99.708518424,97,"2533 CLOVERLEAF LN, ABILENE, TX, 79601","Match","Exact","2533 CLOVERLEAF LN, ABILENE, TX, 79601",129974498,"L"
140098,"2533 CORBYTON COURT","ORLANDO","FL",32828,28.5168240200001,-81.165407671,98,"2533 CORBYTON COURT, ORLANDO, FL, 32828","Match","Exact","2533 CORBYTON CT, ORLANDO, FL, 32828",94407194,"L"
140099,"2533 DANNY LN","FARMERS BRANCH","TX",75231,32.9187553150001,-96.893227928,99,"2533 DANNY LN, FARMERS BRANCH, TX, 75231","Match","Non_Exact","2533 DANNY LN, FARMERS BRANCH, TX, 75234",102890100,"R"
140100,"2533 DANNY LN","FARMERS BRANCH","TX",75234,32.9187553150001,-96.893227928,100,"2533 DANNY LN, FARMERS BRANCH, TX, 75234","Match","Exact","2533 DANNY LN, FARMERS BRANCH, TX, 75234",102890100,"R"
140101,"2533 EUCLID HEIGHTS BOULEVARD","CLEVELAND HEIGHTS","OH",44106,41.5052289270001,-81.589591242,101,"2533 EUCLID HEIGHTS BOULEVARD, CLEVELAND HEIGHTS, OH, 44106","Match","Exact","2533 EUCLID HEIGHTS BLVD, CLEVELAND HEIGHTS, OH, 44106",61122466,"L"
140102,"2533 G AVE","REDFIELD","IA",50233,NA,NA,102,"2533 G AVE, REDFIELD, IA, 50233","No_Match",NA,NA,NA,NA
140103,"2533 HANNING AVENUE","ALTADENA","CA",91001,34.1891372090001,-118.16599792,103,"2533 HANNING AVENUE, ALTADENA, CA, 91001","Match","Non_Exact","2533 N HANNING AVE, ALTADENA, CA, 91001",141626970,"L"
140104,"2533 HINKLEY AVENUE","RICHMOND","CA",94804,37.922547282,-122.344732187,104,"2533 HINKLEY AVENUE, RICHMOND, CA, 94804","Match","Exact","2533 HINKLEY AVE, RICHMOND, CA, 94804",192041006,"L"
140105,"2533 LASHBROOK ROAD","BOONVILLE","IN",47601,37.996568853,-87.222957892,105,"2533 LASHBROOK ROAD, BOONVILLE, IN, 47601","Match","Exact","2533 LASHBROOK RD, BOONVILLE, IN, 47601",32202840,"L"
140106,"2533 OAKMONT CT","MOBILE","AL",36605,30.6422574650001,-88.104707191,106,"2533 OAKMONT CT, MOBILE, AL, 36605","Match","Exact","2533 OAKMONT CT, MOBILE, AL, 36605",61947030,"L"
140107,"2533 PENN AVENUE","PITTSBURGH","PA",15222,40.45428338,-79.979355331,107,"2533 PENN AVENUE, PITTSBURGH, PA, 15222","Match","Exact","2533 PENN AVE, PITTSBURGH, PA, 15222",51628530,"L"
140108,"2533 PINE SUMMIT DR E","JACKSONVILLE","FL",32211,NA,NA,108,"2533 PINE SUMMIT DR E, JACKSONVILLE, FL, 32211","No_Match",NA,NA,NA,NA
140109,"2533 R STREET","SACRAMENTO","CA",95816,38.565961272,-121.476561295,109,"2533 R STREET, SACRAMENTO, CA, 95816","Match","Exact","2533 R ST, SACRAMENTO, CA, 95816",133324526,"L"
140110,"2533 ROBERTSVILLE ROAD","VILLA  RIDGE","MO",63089,38.4588270610001,-90.832055549,110,"2533 ROBERTSVILLE ROAD, VILLA  RIDGE, MO, 63089","Match","Exact","2533 ROBERTSVILLE RD, VILLA RIDGE, MO, 63089",605166073,"R"
140111,"2533 S 2ND AVENUE EXT","SILER CITY","NC",27344,NA,NA,111,"2533 S 2ND AVENUE EXT, SILER CITY, NC, 27344","No_Match",NA,NA,NA,NA
140112,"2533 S 9TH STREET","LAFAYETTE","IN",47909,40.390345725,-86.885827927,112,"2533 S 9TH STREET, LAFAYETTE, IN, 47909","Match","Exact","2533 S 9TH ST, LAFAYETTE, IN, 47909",639702732,"L"
140113,"2533 S TROY ST","CHICAGO","IL",60623,41.845416421,-87.70382484,113,"2533 S TROY ST, CHICAGO, IL, 60623","Match","Exact","2533 S TROY ST, CHICAGO, IL, 60623",605092521,"L"
140114,"2533 SANDERFORD ROAD","RALEIGH","NC",27610,35.745126946,-78.6139178239999,114,"2533 SANDERFORD ROAD, RALEIGH, NC, 27610","Match","Exact","2533 SANDERFORD RD, RALEIGH, NC, 27610",72649847,"L"
140115,"2533 SE 36TH AVE","PORTLAND","OR",97202,45.5044795410001,-122.626239879,115,"2533 SE 36TH AVE, PORTLAND, OR, 97202","Match","Exact","2533 SE 36TH AVE, PORTLAND, OR, 97202",157509944,"R"
140116,"2533 STANTON ROAD SE","CONYERS","GA",30094,33.6249451520001,-84.036211232,116,"2533 STANTON ROAD SE, CONYERS, GA, 30094","Match","Exact","2533 STANTON RD SE, CONYERS, GA, 30094",632674052,"R"
140117,"2533 SUITE A","PLANTERSVILLE","MS",38862,NA,NA,117,"2533 SUITE A, PLANTERSVILLE, MS, 38862","No_Match",NA,NA,NA,NA
140118,"2533 SUMMIT ST","COLUMBUS","OH",43202,40.0153254310001,-83.000050406,118,"2533 SUMMIT ST, COLUMBUS, OH, 43202","Match","Exact","2533 SUMMIT ST, COLUMBUS, OH, 43202",218691832,"L"
140119,"2533 TEQUESTRA","TUSTIN","CA",92782,33.742826596,-117.782342171,119,"2533 TEQUESTRA, TUSTIN, CA, 92782","Match","Exact","2533 TEQUESTRA, TUSTIN, CA, 92782",144123079,"L"
140120,"2533 W VICTOR CT","VISALIA","CA",93277,36.3016507840001,-119.318979664,120,"2533 W VICTOR CT, VISALIA, CA, 93277","Match","Non_Exact","2533 W VICTOR AVE, VISALIA, CA, 93277",202780450,"L"
140121,"2533 WINDSOR CASTLE WAY","LEWISVILLE","TX",75056,33.0456772840001,-96.90905668,121,"2533 WINDSOR CASTLE WAY, LEWISVILLE, TX, 75056","Match","Exact","2533 WINDSOR CASTLE WAY, LEWISVILLE, TX, 75056",647537650,"L"
140122,"2534 AZALEA WAY","ERIE","CO",80516,40.0072810020001,-105.013896918,122,"2534 AZALEA WAY, ERIE, CO, 80516","Match","Exact","2534 AZALEA WAY, ERIE, CO, 80516",614124094,"R"
140123,"2534 COTA AVE","LONG BEACH","CA",90810,33.8032426290001,-118.216516051,123,"2534 COTA AVE, LONG BEACH, CA, 90810","Match","Exact","2534 COTA AVE, LONG BEACH, CA, 90810",141685522,"R"
140124,"2534 KENNEDY CIRCLE","AUGUSTA","GA",30909,33.450842724,-82.051393452,124,"2534 KENNEDY CIRCLE, AUGUSTA, GA, 30909","Match","Exact","2534 KENNEDY CIR, AUGUSTA, GA, 30909",648114882,"R"
140125,"2534 M STREET","MERCED","CA",95340,37.3103296690001,-120.480015516,125,"2534 M STREET, MERCED, CA, 95340","Match","Exact","2534 M ST, MERCED, CA, 95340",125281934,"R"
140126,"2534 N SAN MIGUEL DRIVE","ORANGE","CA",92867,33.830941782,-117.796666276,126,"2534 N SAN MIGUEL DRIVE, ORANGE, CA, 92867","Match","Exact","2534 N SAN MIGUEL DR, ORANGE, CA, 92867",144415552,"R"
140127,"2534 NORTH HILLTOP DR","ALBANY","GA",31707,31.6141587920001,-84.189769059,127,"2534 NORTH HILLTOP DR, ALBANY, GA, 31707","Match","Non_Exact","2534 HILLTOP DR, ALBANY, GA, 31707",84324256,"L"
140128,"2534 NORTH MT JULIET ROAD","MT. JULIET","TN",37122,36.2052348390001,-86.51796841,128,"2534 NORTH MT JULIET ROAD, MT. JULIET, TN, 37122","Match","Exact","2534 N MOUNT JULIET RD, MOUNT JULIET, TN, 37122",89695498,"L"
140129,"2534 S 9TH AVE","FRESNO","CA",93725,36.7091654700001,-119.758527638,129,"2534 S 9TH AVE, FRESNO, CA, 93725","Match","Non_Exact","2534 S 9TH ST, FRESNO, CA, 93725",197581410,"R"
140130,"2534 ST ANDREWS ROAD","URBANA","IL",61802,40.087493787,-88.17917311,130,"2534 ST ANDREWS ROAD, URBANA, IL, 61802","Match","Exact","2534 ST ANDREWS RD, URBANA, IL, 61802",8830284,"R"
140131,"2534 SW OAK RIDGE ROAD","PALM CITY","FL",34990,27.1937040380001,-80.286442102,131,"2534 SW OAK RIDGE ROAD, PALM CITY, FL, 34990","Match","Exact","2534 SW OAK RIDGE RD, PALM CITY, FL, 34990",120437306,"R"
140132,"2534 TRANSOM PLACE","WOODBRIDGE","VA",22191,38.5987514970001,-77.2900382129999,132,"2534 TRANSOM PLACE, WOODBRIDGE, VA, 22191","Match","Exact","2534 TRANSOM PL, WOODBRIDGE, VA, 22191",619942851,"R"
140133,"2534 WALNUT BEND SUITE C","HOUSTON","TX",77042,29.737826297,-95.56699109,133,"2534 WALNUT BEND SUITE C, HOUSTON, TX, 77042","Match","Non_Exact","2534 WALNUT BEND LN, HOUSTON, TX, 77042",96619440,"R"
140134,"2534 WECCO STREET","NORTH CHARLESTON","SC",29405,32.8565341780001,-80.0144879869999,134,"2534 WECCO STREET, NORTH CHARLESTON, SC, 29405","Match","Exact","2534 WECCO ST, N CHARLESTON, SC, 29405",108801393,"L"
140135,"2534 WOODMONT DR E","CANTON","MI",48188,42.2893009750001,-83.4778101209999,135,"2534 WOODMONT DR E, CANTON, MI, 48188","Match","Exact","2534 WOODMONT DR E, CANTON, MI, 48188",95684463,"R"
140136,"25340 SHERWOOD DRIVE","PIONEER","CA",95666,38.480062768,-120.554937878,136,"25340 SHERWOOD DRIVE, PIONEER, CA, 95666","Match","Exact","25340 SHERWOOD DR, PIONEER, CA, 95666",132723870,"R"
140137,"25342 JOYCE PLACE","STEVENSON RANCH","CA",91381,34.3821502320001,-118.587312343,137,"25342 JOYCE PLACE, STEVENSON RANCH, CA, 91381","Match","Exact","25342 JOYCE PL, STEVENSON RANCH, CA, 91381",241248062,"L"
140138,"25343 BIA 4 PO BOX 7","PARMELEE","SD",57566,NA,NA,138,"25343 BIA 4 PO BOX 7, PARMELEE, SD, 57566","No_Match",NA,NA,NA,NA
140139,"25344 WESLEY CHAPEL BLVD STE 103","LUTZ","FL",33559,28.1945346850001,-82.399175342,139,"25344 WESLEY CHAPEL BLVD STE 103, LUTZ, FL, 33559","Match","Exact","25344 WESLEY CHAPEL BLVD, LUTZ, FL, 33559",650059538,"R"
140140,"25345 WOODCREEK CT","MORENO VALLEY","CA",92553,33.9113930440001,-117.219827607,140,"25345 WOODCREEK CT, MORENO VALLEY, CA, 92553","Match","Exact","25345 WOODCREEK CT, MORENO VALLEY, CA, 92553",194819333,"L"
140141,"25349 DAMASCUS PARK TERRACE","DAMASCUS","MD",20872,39.272922883,-77.2144217479999,141,"25349 DAMASCUS PARK TERRACE, DAMASCUS, MD, 20872","Match","Non_Exact","25349 DAMASCUS PARK LN, DAMASCUS, MD, 20872",618606188,"R"
140142,"2535 11TH AVE S","MINNEAPOLIS","MN",55404,44.956666092,-93.258730653,142,"2535 11TH AVE S, MINNEAPOLIS, MN, 55404","Match","Exact","2535 11TH AVE S, MINNEAPOLIS, MN, 55404",43633324,"L"
140143,"2535 74TH AVE","OAKLAND","CA",94605,37.765866278,-122.175620639,143,"2535 74TH AVE, OAKLAND, CA, 94605","Match","Exact","2535 74TH AVE, OAKLAND, CA, 94605",125008943,"L"
140144,"2535 BEL-AIR DRIVE","GLENVIEW","IL",60025,NA,NA,144,"2535 BEL-AIR DRIVE, GLENVIEW, IL, 60025","No_Match",NA,NA,NA,NA
140145,"2535 BROOKFIELD STREET","LAKE CHARLES","LA",70605,30.140162172,-93.258243227,145,"2535 BROOKFIELD STREET, LAKE CHARLES, LA, 70605","Match","Exact","2535 BROOKFIELD ST, LAKE CHARLES, LA, 70605",88452717,"L"
140146,"2535 CAMINO DEL RIO SOUTH SUITE 230","SAN DIEGO","CA",92108,NA,NA,146,"2535 CAMINO DEL RIO SOUTH SUITE 230, SAN DIEGO, CA, 92108","No_Match",NA,NA,NA,NA
140147,"2535 CARROLL   APT 2","N.LAS VEGAS","NV",89030,36.205478547,-115.11590145,147,"2535 CARROLL   APT 2, N.LAS VEGAS, NV, 89030","Match","Non_Exact","2535 CARROLL ST, N LAS VEGAS, NV, 89030",201866506,"L"
140148,"2535 CHATEAU WAY","LIVERMORE","CA",94550,37.671933622,-121.761760622,148,"2535 CHATEAU WAY, LIVERMORE, CA, 94550","Match","Exact","2535 CHATEAU WAY, LIVERMORE, CA, 94550",606406619,"R"
140149,"2535 CHAUNCEY DRIVE 251","PITTSBURGH","PA",15219,40.4512307750001,-79.973277073,149,"2535 CHAUNCEY DRIVE 251, PITTSBURGH, PA, 15219","Match","Exact","2535 CHAUNCEY DR, PITTSBURGH, PA, 15219",51628622,"L"
140150,"2535 CRESCENT DR","MOUNT DORA","FL",32757,28.8067566500001,-81.669696205,150,"2535 CRESCENT DR, MOUNT DORA, FL, 32757","Match","Exact","2535 CRESCENT DR, MOUNT DORA, FL, 32757",94112389,"R"
140151,"2535 DAWSON DR UNIT 403","ROCKINGHAM","VA",22801,NA,NA,151,"2535 DAWSON DR UNIT 403, ROCKINGHAM, VA, 22801","No_Match",NA,NA,NA,NA
140152,"2535 FLYCATCHER COVE DR","LEAGUE CITY","TX",77573,29.4715978200001,-95.128762651,152,"2535 FLYCATCHER COVE DR, LEAGUE CITY, TX, 77573","Match","Exact","2535 FLYCATCHER COVE DR, LEAGUE CITY, TX, 77573",96742511,"R"
140153,"2535 FOX HILL RD","STATE COLLEGE","PA",16803,40.856635334,-77.8436956,153,"2535 FOX HILL RD, STATE COLLEGE, PA, 16803","Match","Exact","2535 FOX HILL RD, STATE COLLEGE, PA, 16803",635653820,"R"
140154,"2535 JEFFERSON ST","KANSAS CITY","MO",64108,39.081541756,-94.592835078,154,"2535 JEFFERSON ST, KANSAS CITY, MO, 64108","Match","Exact","2535 JEFFERSON ST, KANSAS CITY, MO, 64108",640230845,"L"
140155,"2535 KETTNER BLVD SUITE 3A5","SAN DIEGO","CA",92101,32.7304108060001,-117.172128087,155,"2535 KETTNER BLVD SUITE 3A5, SAN DIEGO, CA, 92101","Match","Exact","2535 KETTNER BLVD, SAN DIEGO, CA, 92101",195342299,"R"
140156,"2535 LOTAFUN AVE","WINTER PARK","FL",32789,28.6000300910001,-81.38350365,156,"2535 LOTAFUN AVE, WINTER PARK, FL, 32789","Match","Non_Exact","2535 LOT A FUN AVE, WINTER PARK, FL, 32789",94376631,"R"
140157,"2535 MAIN STREET","CAMBRIA","CA",93428,35.56587584,-121.07952142,157,"2535 MAIN STREET, CAMBRIA, CA, 93428","Match","Exact","2535 MAIN ST, CAMBRIA, CA, 93428",645322345,"L"
140158,"2535 MARTIN LUTHER KING JR BLVD","DALLAS","TX",75215,32.7664791880001,-96.771499246,158,"2535 MARTIN LUTHER KING JR BLVD, DALLAS, TX, 75215","Match","Exact","2535 MARTIN LUTHER KING JR BLVD, DALLAS, TX, 75215",102950555,"L"
140159,"2535 MONTGOMERY WAY","SACRAMENTO","CA",95818,38.5466985250001,-121.481090278,159,"2535 MONTGOMERY WAY, SACRAMENTO, CA, 95818","Match","Exact","2535 MONTGOMERY WAY, SACRAMENTO, CA, 95818",133326061,"L"
140160,"2535 NE 164TH AVE","PORTLAND","OR",97230,45.541304483,-122.49386716,160,"2535 NE 164TH AVE, PORTLAND, OR, 97230","Match","Exact","2535 NE 164TH AVE, PORTLAND, OR, 97230",157522744,"R"
140161,"2535 NORTH STATE ROAD 3","GREENSBURG","IN",47240,39.3743694070001,-85.479550009,161,"2535 NORTH STATE ROAD 3, GREENSBURG, IN, 47240","Match","Exact","2535 N STATE RD 3, GREENSBURG, IN, 47240",31183373,"L"
140162,"2535 OAK VALLEY DRIVE","YREKA","CA",96097,NA,NA,162,"2535 OAK VALLEY DRIVE, YREKA, CA, 96097","No_Match",NA,NA,NA,NA
140163,"2535 PENN AVE","PITTSBURGH","PA",15222,40.454300045,-79.979331197,163,"2535 PENN AVE, PITTSBURGH, PA, 15222","Match","Exact","2535 PENN AVE, PITTSBURGH, PA, 15222",51628530,"L"
140164,"2535 ROMIG ROAD","AKRON","OH",44320,41.0448065910001,-81.581181144,164,"2535 ROMIG ROAD, AKRON, OH, 44320","Match","Exact","2535 ROMIG RD, AKRON, OH, 44320",61379083,"L"
140165,"2535 SILVER MAPLE RD","BIG SANDY","TX",75755,32.6808500000001,-95.113914947,165,"2535 SILVER MAPLE RD, BIG SANDY, TX, 75755","Match","Exact","2535 SILVER MAPLE RD, BIG SANDY, TX, 75755",147601399,"R"
140166,"2535 SOUTH COLORADO STREET","PHILADELPHIA","PA",19145,39.9196469170001,-75.176458111,166,"2535 SOUTH COLORADO STREET, PHILADELPHIA, PA, 19145","Match","Exact","2535 S COLORADO ST, PHILADELPHIA, PA, 19145",131411474,"L"
140167,"2535 SUNSET DR APT 226","LONGMONT","CO",80501,40.2026344080001,-105.128512808,167,"2535 SUNSET DR APT 226, LONGMONT, CO, 80501","Match","Exact","2535 SUNSET DR, LONGMONT, CO, 80501",188154468,"R"
140168,"2535 TANGLEWOOD CIRCLE","MOBILE","AL",36618,NA,NA,168,"2535 TANGLEWOOD CIRCLE, MOBILE, AL, 36618","No_Match",NA,NA,NA,NA
140169,"2535 VIKING AVENUE","FAIRBANK","IA",50629,42.6769746210001,-92.140682735,169,"2535 VIKING AVENUE, FAIRBANK, IA, 50629","Match","Exact","2535 VIKING AVE, FAIRBANK, IA, 50629",77365470,"R"
140170,"2535 W FARWELL AVENUE","CHICAGO","IL",60645,42.005864882,-87.693438907,170,"2535 W FARWELL AVENUE, CHICAGO, IL, 60645","Match","Exact","2535 W FARWELL AVE, CHICAGO, IL, 60645",111744569,"L"
140171,"2535 W HIGHLAND AVE","MILWAUKEE","WI",53233,43.044333528,-87.9454382659999,171,"2535 W HIGHLAND AVE, MILWAUKEE, WI, 53233","Match","Exact","2535 W HIGHLAND AVE, MILWAUKEE, WI, 53233",77740288,"L"
140172,"2535 W KESWICK RD","FLORENCE","SC",29501,34.2018117480001,-79.821020522,172,"2535 W KESWICK RD, FLORENCE, SC, 29501","Match","Exact","2535 W KESWICK RD, FLORENCE, SC, 29501",647398165,"R"
140173,"2535 WHISPER TRL","DOUGLASVILLE","GA",30135,33.7319606830001,-84.6836106119999,173,"2535 WHISPER TRL, DOUGLASVILLE, GA, 30135","Match","Exact","2535 WHISPER TRL, DOUGLASVILLE, GA, 30135",645831341,"R"
140174,"25350 STATE ROAD 19","ARCADIA","IN",46030,40.1591062690001,-86.013203011,174,"25350 STATE ROAD 19, ARCADIA, IN, 46030","Match","Exact","25350 STATE RD 19, ARCADIA, IN, 46030",29289490,"L"
140175,"25351 SW 95TH STREET","INDIANTOWN","FL",34956,27.09082297,-80.599727263,175,"25351 SW 95TH STREET, INDIANTOWN, FL, 34956","Match","Exact","25351 SW 95TH ST, INDIANTOWN, FL, 34956",120431473,"R"
140176,"25352 MCINTYRE SQ","CHANTILLY","VA",20152,38.9157027800001,-77.524590523,176,"25352 MCINTYRE SQ, CHANTILLY, VA, 20152","Match","Exact","25352 MCINTYRE SQ, CHANTILLY, VA, 20152",62354396,"R"
140177,"25359 CEDAR RD NUM K125","LYNDHURST","OH",44124,41.501281986,-81.499011001,177,"25359 CEDAR RD NUM K125, LYNDHURST, OH, 44124","Match","Exact","25359 CEDAR RD, LYNDHURST, OH, 44124",61157465,"L"
140178,"2536 ADONIS COURT","CHARLOTTE","NC",28213,35.3022233390001,-80.701134736,178,"2536 ADONIS COURT, CHARLOTTE, NC, 28213","Match","Exact","2536 ADONIS CT, CHARLOTTE, NC, 28213",70533154,"R"
140179,"2536 CHARLESTOWN ROAD","NEW ALBANY","IN",47150,38.310815398,-85.8070412599999,179,"2536 CHARLESTOWN ROAD, NEW ALBANY, IN, 47150","Match","Exact","2536 CHARLESTOWN RD, NEW ALBANY, IN, 47150",624494740,"R"
140180,"2536 CLEMENT AVENUE","ALAMEDA","CA",94501,37.768148819,-122.235154619,180,"2536 CLEMENT AVENUE, ALAMEDA, CA, 94501","Match","Exact","2536 CLEMENT AVE, ALAMEDA, CA, 94501",606279748,"R"
140181,"2536 DURANGO DR","CARROLLTON","TX",75010,NA,NA,181,"2536 DURANGO DR, CARROLLTON, TX, 75010","No_Match",NA,NA,NA,NA
140182,"2536 EASTERN BLVD      SUITE 401","YORK","PA",17402,39.9730764510001,-76.676317148,182,"2536 EASTERN BLVD      SUITE 401, YORK, PA, 17402","Match","Exact","2536 EASTERN BLVD, YORK, PA, 17402",88733423,"R"
140183,"2536 EASTERN BLVD PMB 210","YORK","PA",17402,39.9730764510001,-76.676317148,183,"2536 EASTERN BLVD PMB 210, YORK, PA, 17402","Match","Exact","2536 EASTERN BLVD, YORK, PA, 17402",88733423,"R"
140184,"2536 EASTERN BLVD SUITE 401","YORK","PA",17403,39.9730764510001,-76.676317148,184,"2536 EASTERN BLVD SUITE 401, YORK, PA, 17403","Match","Non_Exact","2536 EASTERN BLVD, YORK, PA, 17402",88733423,"R"
140185,"2536 EASTERN BOULEVARD SUITE 444","YORK","PA",17402,39.9730764510001,-76.676317148,185,"2536 EASTERN BOULEVARD SUITE 444, YORK, PA, 17402","Match","Exact","2536 EASTERN BLVD, YORK, PA, 17402",88733423,"R"
140186,"2536 FALKIRK DRIVE","N. CHESTERFIELD","VA",23236,37.4543385850001,-77.573597955,186,"2536 FALKIRK DRIVE, N. CHESTERFIELD, VA, 23236","Match","Exact","2536 FALKIRK DR, NORTH CHESTERFIELD, VA, 23236",201543615,"R"
140187,"2536 HAUSER BLVD UNIT 3","LOS ANGELES","CA",90016,34.033274378,-118.362400526,187,"2536 HAUSER BLVD UNIT 3, LOS ANGELES, CA, 90016","Match","Exact","2536 HAUSER BLVD, LOS ANGELES, CA, 90016",141601111,"L"
140188,"2536 KENDALL STREET","EDGEWATER","CO",80214,39.7537012510001,-105.066165763,188,"2536 KENDALL STREET, EDGEWATER, CO, 80214","Match","Exact","2536 KENDALL ST, EDGEWATER, CO, 80214",177290899,"R"
140189,"2536 LANCASTER CT","HAYWARD","CA",94542,37.6652844610001,-122.052076839,189,"2536 LANCASTER CT, HAYWARD, CA, 94542","Match","Exact","2536 LANCASTER CT, HAYWARD, CA, 94542",125050532,"L"
140190,"2536 N 53","MILWAUKEE","WI",53210,43.065029065,-87.979868771,190,"2536 N 53, MILWAUKEE, WI, 53210","Match","Non_Exact","2536 N 53RD ST, MILWAUKEE, WI, 53210",77732008,"R"
140191,"2536 N 84TH STREET","WAUWATOSA","WI",53226,43.0649639370001,-88.017453334,191,"2536 N 84TH STREET, WAUWATOSA, WI, 53226","Match","Exact","2536 N 84TH ST, WAUWATOSA, WI, 53226",77728636,"R"
140192,"2536 NW ZINFANDEL LOOP","MCMINNVILLE","OR",97128,45.227597293,-123.211580313,192,"2536 NW ZINFANDEL LOOP, MCMINNVILLE, OR, 97128","Match","Exact","2536 NW ZINFANDEL LOOP, MCMINNVILLE, OR, 97128",625251118,"R"
140193,"2536 PARK AVE","KANSAS CITY","MD",64127,NA,NA,193,"2536 PARK AVE, KANSAS CITY, MD, 64127","No_Match",NA,NA,NA,NA
140194,"2536 RIMROCK AVE STE 400-102","GRAND JUNCTION","CO",81505,39.078357344,-108.582876106,194,"2536 RIMROCK AVE STE 400-102, GRAND JUNCTION, CO, 81505","Match","Exact","2536 RIMROCK AVE, GRAND JCT, CO, 81505",122469028,"R"
140195,"2536 RIMROCK AVE STE 400-333","GRAND JUNCTION","CO",81505,39.078357344,-108.582876106,195,"2536 RIMROCK AVE STE 400-333, GRAND JUNCTION, CO, 81505","Match","Exact","2536 RIMROCK AVE, GRAND JCT, CO, 81505",122469028,"R"
140196,"2536 SABLE BLV","AURORA","CO",80011,39.7533232330001,-104.819418369,196,"2536 SABLE BLV, AURORA, CO, 80011","Match","Exact","2536 SABLE BLVD, AURORA, CO, 80011",177351459,"R"
140197,"2536 THREE WILLOWS CT","HENRICO","VA",23294,37.6248234400001,-77.5332675,197,"2536 THREE WILLOWS CT, HENRICO, VA, 23294","Match","Exact","2536 THREE WILLOWS CT, HENRICO, VA, 23294",106683652,"L"
140198,"25362 FALLEN ACORN COURT","PORTER","TX",77365,30.073045893,-95.235061715,198,"25362 FALLEN ACORN COURT, PORTER, TX, 77365","Match","Exact","25362 FALLEN ACORN CT, PORTER, TX, 77365",652003086,"R"
140199,"25363 WALTZ ROAD","NEW BOSTON","MI",48164,42.122815824,-83.401841705,199,"25363 WALTZ ROAD, NEW BOSTON, MI, 48164","Match","Exact","25363 WALTZ RD, NEW BOSTON, MI, 48164",95693070,"L"
140200,"25366 DIAGONAL ROAD","GRUNDY CENTER","IA",50638,42.35652672,-92.722580657,200,"25366 DIAGONAL ROAD, GRUNDY CENTER, IA, 50638","Match","Exact","25366 DIAGONAL RD, GRUNDY CENTER, IA, 50638",77411917,"L"
140201,"2537 25TH AVE S","MINNEAPOLIS","MN",55406,44.956655993,-93.2362423229999,201,"2537 25TH AVE S, MINNEAPOLIS, MN, 55406","Match","Exact","2537 25TH AVE S, MINNEAPOLIS, MN, 55406",43637248,"L"
140202,"2537 ADONIS COURT","CHARLOTTE","NC",28213,35.302231831,-80.7011262359999,202,"2537 ADONIS COURT, CHARLOTTE, NC, 28213","Match","Exact","2537 ADONIS CT, CHARLOTTE, NC, 28213",70533154,"L"
140203,"2537 BEEKMAN STREET","CINCINNATI","OH",45225,39.1305511670001,-84.5447317909999,203,"2537 BEEKMAN STREET, CINCINNATI, OH, 45225","Match","Exact","2537 BEEKMAN ST, CINCINNATI, OH, 45225",647379501,"L"
140204,"2537 CHARLACK AVE","SPRINGFIELD","IL",62704,39.7717785510001,-89.703098052,204,"2537 CHARLACK AVE, SPRINGFIELD, IL, 62704","Match","Exact","2537 CHARLACK AVE, SPRINGFIELD, IL, 62704",97343151,"R"
140205,"2537 CORAL RD NE","EDMORE","MI",48829,NA,NA,205,"2537 CORAL RD NE, EDMORE, MI, 48829","No_Match",NA,NA,NA,NA
140206,"2537 E NICHOLS CIR","CENTENNIAL","CO",80122,39.571343959,-104.959231768,206,"2537 E NICHOLS CIR, CENTENNIAL, CO, 80122","Match","Exact","2537 E NICHOLS CIR, CENTENNIAL, CO, 80122",635544817,"L"
140207,"2537 FOX RIVER PARKWAY","WAUKESHA","WI",53187,42.967258014,-88.2602010849999,207,"2537 FOX RIVER PARKWAY, WAUKESHA, WI, 53187","Match","Non_Exact","2537 FOX RIVER PKWY, WAUKESHA, WI, 53189",53841382,"R"
140208,"2537 FRISBY AVENUE","BRONX","NY",10461,40.8404470930001,-73.845742222,208,"2537 FRISBY AVENUE, BRONX, NY, 10461","Match","Exact","2537 FRISBY AVE, BRONX, NY, 10461",80305589,"L"
140209,"2537 GLOVER ROAD","TALLAHASSEE","FL",32305,30.331933957,-84.3133665989999,209,"2537 GLOVER ROAD, TALLAHASSEE, FL, 32305","Match","Exact","2537 GLOVER RD, TALLAHASSEE, FL, 32305",633566581,"L"
140210,"2537 HARRIS CREEK CT","VIRGINIA BEACH","VA",23456,36.769128788,-76.1381307189999,210,"2537 HARRIS CREEK CT, VIRGINIA BEACH, VA, 23456","Match","Exact","2537 HARRIS CREEK CT, VA BCH, VA, 23456",122287551,"R"
140211,"2537 INDIAN TRL SE","GRAND RAPIDS","MI",49506,42.946520354,-85.606017507,211,"2537 INDIAN TRL SE, GRAND RAPIDS, MI, 49506","Match","Exact","2537 INDIAN TRL SE, GRAND RAPIDS, MI, 49506",12462683,"L"
140212,"2537 LAFOREST AVENUE","ALPENA","MI",49707,NA,NA,212,"2537 LAFOREST AVENUE, ALPENA, MI, 49707","No_Match",NA,NA,NA,NA
140213,"2537 N JERUSALEM RD","EAST MEADOW","NY",11554,40.7060128270001,-73.54096075,213,"2537 N JERUSALEM RD, EAST MEADOW, NY, 11554","Match","Exact","2537 N JERUSALEM RD, EAST MEADOW, NY, 11554",147633929,"L"
140214,"2537 N LAWNDALE","CHICAGO","IL",60647,NA,NA,214,"2537 N LAWNDALE, CHICAGO, IL, 60647","No_Match",NA,NA,NA,NA
140215,"2537 NORTH 5TH STREET","PHILADELPHIA","PA",19133,39.9895837190001,-75.140728026,215,"2537 NORTH 5TH STREET, PHILADELPHIA, PA, 19133","Match","Exact","2537 N 5TH ST, PHILADELPHIA, PA, 19133",131419261,"R"
140216,"2537 WHITE MEMORIAL CHURCH ROAD","WILLOW SPRING","NC",27592,35.556386898,-78.630573257,216,"2537 WHITE MEMORIAL CHURCH ROAD, WILLOW SPRING, NC, 27592","Match","Exact","2537 WHITE MEMORIAL CHURCH RD, WILLOW SPRING, NC, 27592",26549500,"L"
140217,"2537 WOODVALE DR","MEMPHIS","TN",38127,35.2070502880001,-89.9797943889999,217,"2537 WOODVALE DR, MEMPHIS, TN, 38127","Match","Exact","2537 WOODVALE DR, MEMPHIS, TN, 38127",72911301,"R"
140218,"25370 GLENBROOK BLVD","EUCLID","OH",44117,41.5774001020001,-81.5065923889999,218,"25370 GLENBROOK BLVD, EUCLID, OH, 44117","Match","Exact","25370 GLENBROOK BLVD, EUCLID, OH, 44117",61133296,"R"
140219,"2537D PACIFIC COAST HIGHWAY STE 208","LOMITA","CA",90505,33.790049019,-118.330262342,219,"2537D PACIFIC COAST HIGHWAY STE 208, LOMITA, CA, 90505","Match","Non_Exact","2537 PACIFIC COAST HWY, TORRANCE, CA, 90505",142845337,"R"
140220,"2538 12TH AVE","OAKLAND","CA",94606,37.7979783170001,-122.237745769,220,"2538 12TH AVE, OAKLAND, CA, 94606","Match","Exact","2538 12TH AVE, OAKLAND, CA, 94606",125002352,"R"
140221,"2538 4TH AVE APT 301","LOS ANGELES","CA",90018,34.033659201,-118.321228339,221,"2538 4TH AVE APT 301, LOS ANGELES, CA, 90018","Match","Exact","2538 4TH AVE, LOS ANGELES, CA, 90018",141605690,"L"
140222,"2538 ASSOCIATED RD SUITE 5","FULLERTON","CA",92835,33.894648079,-117.88535721,222,"2538 ASSOCIATED RD SUITE 5, FULLERTON, CA, 92835","Match","Exact","2538 ASSOCIATED RD, FULLERTON, CA, 92835",651668433,"R"
140223,"2538 BISHOP ALLEN LANE","DALLAS","TX",75237,32.6506343900001,-96.860559641,223,"2538 BISHOP ALLEN LANE, DALLAS, TX, 75237","Match","Exact","2538 BISHOP ALLEN LN, DALLAS, TX, 75237",636111888,"L"
140224,"2538 CENTRE ST","WEST ROXBURY","MA",2132,42.26354658,-71.163207137,224,"2538 CENTRE ST, WEST ROXBURY, MA, 2132","Match","Exact","2538 CENTRE ST, WEST ROXBURY, MA, 02132",85703107,"L"
140225,"2538 DIXIE RD","DIXIE","GA",31629,30.7666498510001,-83.702125874,225,"2538 DIXIE RD, DIXIE, GA, 31629","Match","Exact","2538 DIXIE RD, DIXIE, GA, 31629",642517663,"L"
140226,"2538 EAGLE RUN DRIVE","WESTON","FL",33327,26.097769896,-80.399103574,226,"2538 EAGLE RUN DRIVE, WESTON, FL, 33327","Match","Exact","2538 EAGLE RUN DR, WESTON, FL, 33327",114782539,"L"
140227,"2538 EAST 27TH STREET 2ND FLOOR","BROOKLYN","NY",11235,40.590509673,-73.942927234,227,"2538 EAST 27TH STREET 2ND FLOOR, BROOKLYN, NY, 11235","Match","Exact","2538 E 27TH ST, BROOKLYN, NY, 11235",59091995,"R"
140228,"2538 FOREST BROOK DR","PITTSBURGH","PA",15241,40.311993945,-80.084533343,228,"2538 FOREST BROOK DR, PITTSBURGH, PA, 15241","Match","Exact","2538 FOREST BROOK DR, PITTSBURGH, PA, 15241",649987457,"L"
140229,"2538 GRIER CIRCLE","EVANS","GA",30809,33.5138720410001,-82.1957683259999,229,"2538 GRIER CIRCLE, EVANS, GA, 30809","Match","Exact","2538 GRIER CIR, EVANS, GA, 30809",629563174,"R"
140230,"2538 JACKSON AVENUE","NEW ORLEANS","LA",70113,29.9423837950001,-90.08762202,230,"2538 JACKSON AVENUE, NEW ORLEANS, LA, 70113","Match","Exact","2538 JACKSON AVE, NEW ORLEANS, LA, 70113",191712317,"L"
140231,"2538 MELROSE CANYON DR","SAN ANTONIO","TX",78232,29.6004910660001,-98.447630444,231,"2538 MELROSE CANYON DR, SAN ANTONIO, TX, 78232","Match","Exact","2538 MELROSE CANYON DR, SAN ANTONIO, TX, 78232",101566738,"L"
140232,"2538 MOUNDVIEW DRIVE","CINCINNATI","OH",45212,39.1685520730001,-84.443024843,232,"2538 MOUNDVIEW DRIVE, CINCINNATI, OH, 45212","Match","Exact","2538 MOUNDVIEW DR, CINCINNATI, OH, 45212",103929286,"L"
140233,"2538 PANOLA ROAD","LITHONIA","GA",30058,33.7143125060001,-84.165569149,233,"2538 PANOLA ROAD, LITHONIA, GA, 30058","Match","Exact","2538 PANOLA RD, LITHONIA, GA, 30058",23395636,"L"
140234,"2538 PERIWINKLE DRIVE","SAN BERNARDINO","CA",92407,34.193022897,-117.345972085,234,"2538 PERIWINKLE DRIVE, SAN BERNARDINO, CA, 92407","Match","Exact","2538 PERIWINKLE DR, SAN BERNARDINO, CA, 92407",144733537,"R"
140235,"2538 SIEGRIST RD","RONKS","PA",17572,40.032557899,-76.194161616,235,"2538 SIEGRIST RD, RONKS, PA, 17572","Match","Exact","2538 SIEGRIST RD, RONKS, PA, 17572",179713668,"R"
140236,"2538 SIEGRIST ROAD","RONKS","PA",17572,40.032557899,-76.194161616,236,"2538 SIEGRIST ROAD, RONKS, PA, 17572","Match","Exact","2538 SIEGRIST RD, RONKS, PA, 17572",179713668,"R"
140237,"2538 SOUTH 68TH ST","PHILADELPHIA","PA",19142,39.918853384,-75.233837309,237,"2538 SOUTH 68TH ST, PHILADELPHIA, PA, 19142","Match","Exact","2538 S 68TH ST, PHILADELPHIA, PA, 19142",131409254,"R"
140238,"2538 SOUTH CONGRESS AVENUE","AUSTIN","TX",78704,NA,NA,238,"2538 SOUTH CONGRESS AVENUE, AUSTIN, TX, 78704","No_Match",NA,NA,NA,NA
140239,"2538 WOODLAND VILLAGE PLACE","SCHERTZ","TX",78154,29.5789740000001,-98.264610252,239,"2538 WOODLAND VILLAGE PLACE, SCHERTZ, TX, 78154","Match","Exact","2538 WOODLAND VILLAGE PL, SCHERTZ, TX, 78154",234718624,"R"
140240,"25386 LA LOMA DRIVE","LOS ALTOS HILLS","CA",94022,37.3509261770001,-122.129187871,240,"25386 LA LOMA DRIVE, LOS ALTOS HILLS, CA, 94022","Match","Exact","25386 LA LOMA DR, LOS ALTOS HILLS, CA, 94022",614038447,"L"
140241,"2539 DAVID DRIVE","NIAGARA FALLS","NY",14304,43.0853141710001,-78.907159266,241,"2539 DAVID DRIVE, NIAGARA FALLS, NY, 14304","Match","Exact","2539 DAVID DR, NIAGARA FALLS, NY, 14304",48694697,"R"
140242,"2539 E 4430 S","HOLLADAY","UT",84124,40.6753718080001,-111.817742023,242,"2539 E 4430 S, HOLLADAY, UT, 84124","Match","Exact","2539 E 4430 S, HOLLADAY, UT, 84124",176094649,"L"
140243,"2539 FLORA","KANSAS CITY","MO",64108,39.080394799,-94.5648382699999,243,"2539 FLORA, KANSAS CITY, MO, 64108","Match","Non_Exact","2539 FLORA AVE, KANSAS CITY, MO, 64108",91449624,"L"
140244,"2539 LINDSAY ST","CHESTER","PA",19013,39.866928747,-75.370078502,244,"2539 LINDSAY ST, CHESTER, PA, 19013","Match","Exact","2539 LINDSAY ST, CHESTER, PA, 19013",134871671,"R"
140245,"2539 LISENBY AVE","PANAMA CITY","FL",32405,30.1943793130001,-85.6834151419999,245,"2539 LISENBY AVE, PANAMA CITY, FL, 32405","Match","Exact","2539 LISENBY AVE, PANAMA CITY, FL, 32405",647876159,"L"
140246,"2539 MCCUMBER LANE","LEWIS CENTER","OH",43035,40.2006305040001,-82.99436901,246,"2539 MCCUMBER LANE, LEWIS CENTER, OH, 43035","Match","Exact","2539 MCCUMBER LN, LEWIS CENTER, OH, 43035",648192262,"L"
140247,"2539 NORBERT STREET","FLINT","MI",48504,43.018413851,-83.7275173959999,247,"2539 NORBERT STREET, FLINT, MI, 48504","Match","Exact","2539 NORBERT ST, FLINT, MI, 48504",69565131,"L"
140248,"2539 OAKWOOD AVE","GREEN BAY","WI",54301,44.47472358,-88.023208058,248,"2539 OAKWOOD AVE, GREEN BAY, WI, 54301","Match","Exact","2539 OAKWOOD AVE, GREEN BAY, WI, 54301",148101802,"L"
140249,"2539 PINE BROOK DR","STOCKTON","CA",95212,37.999156676,-121.274058475,249,"2539 PINE BROOK DR, STOCKTON, CA, 95212","Match","Exact","2539 PINE BROOK DR, STOCKTON, CA, 95212",639352871,"L"
140250,"2539 PINECREST ROAD","OROVILLE","CA",95966,39.4570407520001,-121.527298298,250,"2539 PINECREST ROAD, OROVILLE, CA, 95966","Match","Exact","2539 PINECREST RD, OROVILLE, CA, 95966",68432880,"R"
140251,"2539 S 31ST DRIVE","YUMA","AZ",85364,32.681659645,-114.657430324,251,"2539 S 31ST DRIVE, YUMA, AZ, 85364","Match","Exact","2539 S 31ST DR, YUMA, AZ, 85364",636106478,"L"
140252,"2539 SEVEN PINES ROAD","GREENVILLE","NC",27834,35.6494941550001,-77.553315168,252,"2539 SEVEN PINES ROAD, GREENVILLE, NC, 27834","Match","Exact","2539 SEVEN PINES RD, GREENVILLE, NC, 27834",80005300,"R"
140253,"2539 SHELBURNE PLACE","CHARLOTTE","NC",28227,35.1613611230001,-80.651860207,253,"2539 SHELBURNE PLACE, CHARLOTTE, NC, 28227","Match","Exact","2539 SHELBURNE PL, CHARLOTTE, NC, 28227",70496776,"R"
140254,"2539 STANDISH AVENUE","UNION","NJ",7083,40.7069942790001,-74.287360953,254,"2539 STANDISH AVENUE, UNION, NJ, 7083","Match","Exact","2539 STANDISH AVE, UNION, NJ, 07083",60604257,"R"
140255,"2539 WALSH COURT","YUMA","AZ",85365,32.6466337200001,-114.584366179,255,"2539 WALSH COURT, YUMA, AZ, 85365","Match","Exact","2539 WALSH CT, YUMA, AZ, 85365",129680822,"R"
140256,"25390 KRAMERIA ST","MORENO VALLEY","CA",92551,NA,NA,256,"25390 KRAMERIA ST, MORENO VALLEY, CA, 92551","No_Match",NA,NA,NA,NA
140257,"25390 SUNSET LANE","PAOLA","KS",66071,38.6659166210001,-94.8019972389999,257,"25390 SUNSET LANE, PAOLA, KS, 66071","Match","Exact","25390 SUNSET LN, PAOLA, KS, 66071",651160153,"L"
140258,"25399 THE OLD RD APT 17103","STEVENSON RANCH","CA",91381,34.379691382,-118.570738315,258,"25399 THE OLD RD APT 17103, STEVENSON RANCH, CA, 91381","Match","Non_Exact","25399 THE OLD RD, STEVENSON RANCH, CA, 91381",241249499,"R"
140259,"254 3RD AVENUE SW","BIRMINGHAM","AL",35211,33.493551907,-86.83781878,259,"254 3RD AVENUE SW, BIRMINGHAM, AL, 35211","Match","Exact","254 3RD AVE SW, BIRMINGHAM, AL, 35211",611581334,"R"
140260,"254 6TH STREET NW","LARGO","FL",33770,27.9189164920001,-82.7942644359999,260,"254 6TH STREET NW, LARGO, FL, 33770","Match","Exact","254 6TH ST NW, LARGO, FL, 33770",124671821,"R"
140261,"254 ADAMS ST","NEWTON","MA",2458,42.356928118,-71.1983116649999,261,"254 ADAMS ST, NEWTON, MA, 2458","Match","Exact","254 ADAMS ST, NEWTON, MA, 02458",86864361,"L"
140262,"254 ASHEBROOK PARK ROAD","DALLAS","NC",28034,35.3371948000001,-81.227944773,262,"254 ASHEBROOK PARK ROAD, DALLAS, NC, 28034","Match","Exact","254 ASHEBROOK PARK RD, DALLAS, NC, 28034",70457600,"R"
140263,"254 BRADLEY STREET","SACO","ME",4072,43.509562348,-70.461553559,263,"254 BRADLEY STREET, SACO, ME, 4072","Match","Exact","254 BRADLEY ST, SACO, ME, 04072",647544038,"L"
140264,"254 BROOKSIDE AVENUE","ROOSEVELT","NY",11575,40.6768978270001,-73.599539728,264,"254 BROOKSIDE AVENUE, ROOSEVELT, NY, 11575","Match","Exact","254 BROOKSIDE AVE, ROOSEVELT, NY, 11575",147630987,"R"
140265,"254 BUCKNER DRIVE","EUCLID","OH",44123,41.6129933660001,-81.5191969589999,265,"254 BUCKNER DRIVE, EUCLID, OH, 44123","Match","Exact","254 BUCKNER DR, EUCLID, OH, 44123",61108378,"R"
140266,"254 CANAL ST STE 3005","NEW YORK","NY",10013,40.7185201730001,-74.000662866,266,"254 CANAL ST STE 3005, NEW YORK, NY, 10013","Match","Exact","254 CANAL ST, NEW YORK, NY, 10013",59660321,"L"
140267,"254 CARLOS RD","ODUM","GA",31555,31.6871151190001,-82.007030882,267,"254 CARLOS RD, ODUM, GA, 31555","Match","Exact","254 CARLOS RD, ODUM, GA, 31555",4853693,"R"
140268,"254 CASTLE SHANNON BLVD","PITTSBURGH","PA",15228,40.37650803,-80.038117321,268,"254 CASTLE SHANNON BLVD, PITTSBURGH, PA, 15228","Match","Exact","254 CASTLE SHANNON BLVD, PITTSBURGH, PA, 15228",51632426,"R"
140269,"254 CEDAR ROAD","POQUOSON","VA",23662,37.1204032000001,-76.369216098,269,"254 CEDAR ROAD, POQUOSON, VA, 23662","Match","Exact","254 CEDAR RD, POQUOSON, VA, 23662",639917055,"R"
140270,"254 CHURCH STREET","SARATOGA SPRINGS","NY",12866,43.0847353940001,-73.7976167159999,270,"254 CHURCH STREET, SARATOGA SPRINGS, NY, 12866","Match","Exact","254 CHURCH ST, SARATOGA SPGS, NY, 12866",18765238,"R"
140271,"254 CLEMENT DR","SOMERDALE","NJ",8083,39.8337546110001,-75.033560767,271,"254 CLEMENT DR, SOMERDALE, NJ, 8083","Match","Exact","254 CLEMENT DR, SOMERDALE, NJ, 08083",134419354,"R"
140272,"254 COACHLIGHT SQUARE","MONTROSE","NY",10548,41.2515183450001,-73.948998715,272,"254 COACHLIGHT SQUARE, MONTROSE, NY, 10548","Match","Exact","254 COACHLIGHT SQ, MONTROSE, NY, 10548",139839128,"L"
140273,"254 CONANT ROAD","WESTON","MA",2493,42.386714979,-71.296523199,273,"254 CONANT ROAD, WESTON, MA, 2493","Match","Exact","254 CONANT RD, WESTON, MA, 02493",86852847,"L"
140274,"254 CR 407","BAY CITY",NA,77414,28.9831550210001,-96.020344116,274,"254 CR 407, BAY CITY, , 77414","Match","Exact","254 CO RD 407, BAY CITY, TX, 77414",83312348,"R"
140275,"254 DEERFIELD GLEN DR","ST AUGUSTINE","FL",32086,29.798178702,-81.337405125,275,"254 DEERFIELD GLEN DR, ST AUGUSTINE, FL, 32086","Match","Exact","254 DEERFIELD GLEN DR, SAINT AUGUSTINE, FL, 32086",629932475,"R"
140276,"254 DELAWARE AVENUE","KINGSTON","NY",12401,41.9280423490001,-73.97325976,276,"254 DELAWARE AVENUE, KINGSTON, NY, 12401","Match","Exact","254 DELAWARE AVE, KINGSTON, NY, 12401",41880114,"L"
140277,"254 DEVOE STREET APT 2L","BROOKLYN","NY",11211,40.7139336860001,-73.940396279,277,"254 DEVOE STREET APT 2L, BROOKLYN, NY, 11211","Match","Exact","254 DEVOE ST, BROOKLYN, NY, 11211",59077305,"R"
140278,"254 DWELLY RD","SOMERSET","MA",2726,41.7424852290001,-71.17775901,278,"254 DWELLY RD, SOMERSET, MA, 2726","Match","Exact","254 DWELLY RD, SOMERSET, MA, 02726",46847222,"R"
140279,"254 E LUBECK HILLS DRIVE","WASHINGTON","WV",26181,NA,NA,279,"254 E LUBECK HILLS DRIVE, WASHINGTON, WV, 26181","No_Match",NA,NA,NA,NA
140280,"254 EAST 174TH STREET","BRONX","NY",10457,40.8446744990001,-73.906425025,280,"254 EAST 174TH STREET, BRONX, NY, 10457","Match","Exact","254 E 174TH ST, BRONX, NY, 10457",80301188,"R"
140281,"254 EAST KING STREET","CHAMBERSBURG","PA",17201,39.938673463,-77.6576791049999,281,"254 EAST KING STREET, CHAMBERSBURG, PA, 17201","Match","Exact","254 E KING ST, CHAMBERSBURG, PA, 17201",60095134,"L"
140282,"254 EAST LANZIT AVE APT 3","LOS ANGELES","CA",90061,33.9303488200001,-118.270721813,282,"254 EAST LANZIT AVE APT 3, LOS ANGELES, CA, 90061","Match","Exact","254 E LANZIT AVE, LOS ANGELES, CA, 90061",141673117,"R"
140283,"254 ELKHOUND COURT","UNION CITY","GA",30291,33.547259539,-84.536881517,283,"254 ELKHOUND COURT, UNION CITY, GA, 30291","Match","Exact","254 ELKHOUND CT, UNION CITY, GA, 30291",627315304,"R"
140284,"254 ELM AVENUE","BUENA VISTA","VA",24416,37.716754773,-79.3689530299999,284,"254 ELM AVENUE, BUENA VISTA, VA, 24416","Match","Exact","254 ELM AVE, BUENA VISTA, VA, 24416",63114508,"R"
140285,"254 ELM STREET - 3RD FLOOR","NEW HAVEN","CT",6511,41.3107327170001,-72.930179411,285,"254 ELM STREET - 3RD FLOOR, NEW HAVEN, CT, 6511","Match","Exact","254 ELM ST, NEW HAVEN, CT, 06511",638548534,"L"
140286,"254 ELM STREET UPST","NEW HAVEN","CT",6511,41.3107327170001,-72.930179411,286,"254 ELM STREET UPST, NEW HAVEN, CT, 6511","Match","Exact","254 ELM ST, NEW HAVEN, CT, 06511",638548534,"L"
140287,"254 ELMWYND DR","ORANGE","NJ",7050,40.7579375600001,-74.238833519,287,"254 ELMWYND DR, ORANGE, NJ, 7050","Match","Exact","254 ELMWYND DR, ORANGE, NJ, 07050",63479631,"L"
140288,"254 FIELDCREST","HEWITT","TX",76643,31.4506971220001,-97.185283119,288,"254 FIELDCREST, HEWITT, TX, 76643","Match","Non_Exact","254 FIELDCREST DR, HEWITT, TX, 76643",639926109,"R"
140289,"254 FREEPORT ROAD","NEW KENSINGTON","PA",15068,40.565969807,-79.760459238,289,"254 FREEPORT ROAD, NEW KENSINGTON, PA, 15068","Match","Exact","254 FREEPORT RD, NEW KENSINGTON, PA, 15068",52960134,"R"
140290,"254 FURNACE DOCK RD","CORTLANDT MANOR","NY",10567,41.245732042,-73.890499548,290,"254 FURNACE DOCK RD, CORTLANDT MANOR, NY, 10567","Match","Exact","254 FURNACE DOCK RD, CORTLANDT MANOR, NY, 10567",139725775,"L"
140291,"254 GLADSTAN","ELK RIDGE","UT",84651,40.0103224550001,-111.686251652,291,"254 GLADSTAN, ELK RIDGE, UT, 84651","Match","Non_Exact","254 GLADSTAN DR, ELK RIDGE, UT, 84651",615002705,"R"
140292,"254 GLASSBORO RD","MONROEVILLE","NJ",8343,39.640739362,-75.225178386,292,"254 GLASSBORO RD, MONROEVILLE, NJ, 8343","Match","Exact","254 GLASSBORO RD, MONROEVILLE, NJ, 08343",174413397,"L"
140293,"254 GLORY LANE","POWDER SPRINGS","GA",30127,33.803971796,-84.746603953,293,"254 GLORY LANE, POWDER SPRINGS, GA, 30127","Match","Exact","254 GLORY LN, POWDER SPGS, GA, 30127",17748306,"L"
140294,"254 HOUSTON STREET","LAVON","TX",75166,33.024765997,-96.44532696,294,"254 HOUSTON STREET, LAVON, TX, 75166","Match","Exact","254 HOUSTON ST, LAVON, TX, 75166",614145808,"L"
140295,"254 JERSEY STREET","CALEDONIA","NY",14423,42.9749264880001,-77.849289826,295,"254 JERSEY STREET, CALEDONIA, NY, 14423","Match","Exact","254 JERSEY ST, CALEDONIA, NY, 14423",14470798,"L"
140296,"254 KING STREET","BOSCAWEN","NH",3303,43.3194373440001,-71.625671374,296,"254 KING STREET, BOSCAWEN, NH, 3303","Match","Exact","254 KING ST, BOSCAWEN, NH, 03303",117711220,"R"
140297,"254 LITTLE ALUM RD","BRIMFIELD","MA",1010,42.1476922850001,-72.143226612,297,"254 LITTLE ALUM RD, BRIMFIELD, MA, 1010","Match","Exact","254 LITTLE ALUM RD, BRIMFIELD, MA, 01010",4065149,"R"
140298,"254 MANHATTAN AVE APT 4D","NEW YORK","NY",10026,40.80151548,-73.9593767549999,298,"254 MANHATTAN AVE APT 4D, NEW YORK, NY, 10026","Match","Exact","254 MANHATTAN AVE, NEW YORK, NY, 10026",59656887,"R"
140299,"254 MANITOBA LANE","LEXINGTON","KY",40515,37.9684788070001,-84.5268591299999,299,"254 MANITOBA LANE, LEXINGTON, KY, 40515","Match","Exact","254 MANITOBA LN, LEXINGTON, KY, 40515",649473749,"L"
140300,"254 MCCONNELL STREET","YORK","AL",36925,32.484493442,-88.301590577,300,"254 MCCONNELL STREET, YORK, AL, 36925","Match","Exact","254 MCCONNELL ST, YORK, AL, 36925",656476,"R"
140301,"254 MONTEREY ROAD UNIT 6","SOUTH PASADENA","CA",91030,34.110549126,-118.173056117,301,"254 MONTEREY ROAD UNIT 6, SOUTH PASADENA, CA, 91030","Match","Exact","254 MONTEREY RD, SOUTH PASADENA, CA, 91030",142735649,"L"
140302,"254 N 6TH STREET APT 1A","BROOKLYN","NY",11211,40.6723321420001,-73.987571139,302,"254 N 6TH STREET APT 1A, BROOKLYN, NY, 11211","Match","Non_Exact","254 6TH ST, BROOKLYN, NY, 11215",59075657,"R"
140303,"254 NORTH MAIN ST APT E3","SPRING VALLEY","NY",10977,41.124688302,-74.041316862,303,"254 NORTH MAIN ST APT E3, SPRING VALLEY, NY, 10977","Match","Exact","254 N MAIN ST, SPRING VALLEY, NY, 10977",653717276,"R"
140304,"254 OLD COLONY LINE RD","DALE","TX",78616,29.923958638,-97.568054466,304,"254 OLD COLONY LINE RD, DALE, TX, 78616","Match","Exact","254 OLD COLONY LINE RD, DALE, TX, 78616",45541311,"L"
140305,"254 OTTER CIR","FAYETTEVILLE","GA",30215,33.4445450370001,-84.504800303,305,"254 OTTER CIR, FAYETTEVILLE, GA, 30215","Match","Exact","254 OTTER CIR, FAYETTEVILLE, GA, 30215",75946956,"L"
140306,"254 OUTLOOK AVENUE","YOUNGSTOWN","OH",44504,41.1325793550001,-80.649286875,306,"254 OUTLOOK AVENUE, YOUNGSTOWN, OH, 44504","Match","Exact","254 OUTLOOK AVE, YOUNGSTOWN, OH, 44504",64594112,"R"
140307,"254 PAQUITA CIR SW","PALM BAY","FL",32908,27.994413222,-80.686654542,307,"254 PAQUITA CIR SW, PALM BAY, FL, 32908","Match","Exact","254 PAQUITA CIR SW, PALM BAY, FL, 32908",633848636,"L"
140308,"254 PARK STREET","BOSTON","MA",2132,42.2815162900001,-71.149606326,308,"254 PARK STREET, BOSTON, MA, 2132","Match","Exact","254 PARK ST, BOSTON, MA, 02132",85702826,"L"
140309,"254 PARKRIDGE CIRCLE","SEGUIN","TX",78155,29.5493815400001,-97.978170445,309,"254 PARKRIDGE CIRCLE, SEGUIN, TX, 78155","Match","Exact","254 PARKRIDGE CIR, SEGUIN, TX, 78155",54840986,"L"
140310,"254 PARKSIDE DRIVE","WHITEWATER","WI",53190,42.8213302990001,-88.7259564569999,310,"254 PARKSIDE DRIVE, WHITEWATER, WI, 53190","Match","Exact","254 PARKSIDE DR, WHITEWATER, WI, 53190",53690599,"R"
140311,"254 PINK ROSE ST","BROWNSVILLE","TX",78520,25.9616455120001,-97.513496661,311,"254 PINK ROSE ST, BROWNSVILLE, TX, 78520","Match","Exact","254 PINK ROSE ST, BROWNSVILLE, TX, 78520",90004660,"L"
140312,"254 PLAZA DR","OVIEDO","FL",32765,28.6708198210001,-81.213707841,312,"254 PLAZA DR, OVIEDO, FL, 32765","Match","Exact","254 PLAZA DR, OVIEDO, FL, 32765",637359195,"L"
140313,"254 POWDER MILL RD","ALTON","NH",3809,43.4853654780001,-71.1976629769999,313,"254 POWDER MILL RD, ALTON, NH, 3809","Match","Exact","254 POWDER MILL RD, ALTON, NH, 03809",145500437,"L"
140314,"254 RICHMOND AVENUE","BUFFALO","NY",14222,42.90948452,-78.8820059559999,314,"254 RICHMOND AVENUE, BUFFALO, NY, 14222","Match","Exact","254 RICHMOND AVE, BUFFALO, NY, 14222",48289245,"L"
140315,"254 RIVER HOLLOW","SPOKANE","MO",65754,36.8692777030001,-93.295975818,315,"254 RIVER HOLLOW, SPOKANE, MO, 65754","Match","Exact","254 RIVER HOLLOW, SPOKANE, MO, 65754",627192293,"R"
140316,"254 ROUTE 17K  STE 204","NEWBURGH","NY",12550,41.5236161780001,-74.1155150879999,316,"254 ROUTE 17K  STE 204, NEWBURGH, NY, 12550","Match","Non_Exact","254 STATE RTE 17K, NEWBURGH, NY, 12550",124479633,"R"
140317,"254 SEAMAN AVE APT E6","NEW YORK","NY",10034,40.871815983,-73.9181180849999,317,"254 SEAMAN AVE APT E6, NEW YORK, NY, 10034","Match","Exact","254 SEAMAN AVE, NEW YORK, NY, 10034",59658919,"L"
140318,"254 SEYMOUR ROAD","WOODBRIDGE","CT",6525,41.3925923900001,-73.040738087,318,"254 SEYMOUR ROAD, WOODBRIDGE, CT, 6525","Match","Exact","254 SEYMOUR RD, WOODBRIDGE, CT, 06525",618697221,"L"
140319,"254 SOUTH PETERSON AVENUE","DOUGLAS","GA",31533,31.5072711230001,-82.850470259,319,"254 SOUTH PETERSON AVENUE, DOUGLAS, GA, 31533","Match","Exact","254 S PETERSON AVE, DOUGLAS, GA, 31533",6927641,"R"
140320,"254 SOUTH ROBINSON ST","BALTIMORE","MD",21224,39.2892109970001,-76.5724244039999,320,"254 SOUTH ROBINSON ST, BALTIMORE, MD, 21224","Match","Exact","254 S ROBINSON ST, BALTIMORE, MD, 21224",206425256,"R"
140321,"254 STUYVESANT AVENUE","BROOKLYN","NY",11221,40.6862813640001,-73.932721395,321,"254 STUYVESANT AVENUE, BROOKLYN, NY, 11221","Match","Exact","254 STUYVESANT AVE, BROOKLYN, NY, 11221",59079272,"R"
140322,"254 SWEENEY STREET","NORTH TONAWANDA","NY",14120,43.023527593,-78.870554619,322,"254 SWEENEY STREET, NORTH TONAWANDA, NY, 14120","Match","Exact","254 SWEENEY ST, N TONAWANDA, NY, 14120",48689548,"L"
140323,"254 THE PROMENADE","EDGEWATER","NJ",7020,40.8065139070001,-73.9871129759999,323,"254 THE PROMENADE, EDGEWATER, NJ, 7020","Match","Exact","254 THE PROMENADE, EDGEWATER, NJ, 07020",64427773,"R"
140324,"254 TONAWANDA DR SE","ATLANTA","GA",30315,33.6842691580001,-84.386231784,324,"254 TONAWANDA DR SE, ATLANTA, GA, 30315","Match","Exact","254 TONAWANDA DR SE, ATLANTA, GA, 30315",17349953,"L"
140325,"254 TOWNSHIP BLUFF CIRCLE","SAINT SIMONS ISLAND","GA",31522,31.2131957870001,-81.371641126,325,"254 TOWNSHIP BLUFF CIRCLE, SAINT SIMONS ISLAND, GA, 31522","Match","Exact","254 TOWNSHIP BLUFF CIR, ST SIMONS ISLAND, GA, 31522",624813659,"R"
140326,"254 UP THE BRANCH RD","DELCO","NC",28451,34.2884148900001,-78.220159525,326,"254 UP THE BRANCH RD, DELCO, NC, 28451","Match","Non_Exact","254 UP THE BRANCH RD, DELCO, NC, 28436",64131541,"L"
140327,"254 WEST 51ST ST APT 17M","NEW YORK","NY",10019,40.762523722,-73.984724366,327,"254 WEST 51ST ST APT 17M, NEW YORK, NY, 10019","Match","Exact","254 W 51ST ST, NEW YORK, NY, 10019",59655260,"L"
140328,"254 WEST IRVING","ASTORIA","OR",97103,46.1842150840001,-123.850085076,328,"254 WEST IRVING, ASTORIA, OR, 97103","Match","Non_Exact","254 W IRVING AVE, ASTORIA, OR, 97103",159221693,"R"
140329,"254 WILLIAM STREET","EAST ORANGE","NJ",7017,40.762631474,-74.205408193,329,"254 WILLIAM STREET, EAST ORANGE, NJ, 7017","Match","Exact","254 WILLIAM ST, EAST ORANGE, NJ, 07017",63494574,"R"
140330,"254 WILSON ST","BRANSON","MO",65616,36.6785058190001,-93.2130791119999,330,"254 WILSON ST, BRANSON, MO, 65616","Match","Exact","254 WILSON ST, BRANSON, MO, 65616",20184401,"L"
140331,"254 WOODLAND ROAD","MILTON","MA",2186,42.235113922,-71.0987985259999,331,"254 WOODLAND ROAD, MILTON, MA, 2186","Match","Exact","254 WOODLAND RD, MILTON, MA, 02186",631955381,"L"
140332,"254 WYTHE AVE APT 1","BROOKLYN","NY",11249,40.717184199,-73.9629558839999,332,"254 WYTHE AVE APT 1, BROOKLYN, NY, 11249","Match","Exact","254 WYTHE AVE, BROOKLYN, NY, 11249",59076062,"R"
140333,"254-C MARKET STREET 143","INGLEWOOD","CA",90301,NA,NA,333,"254-C MARKET STREET 143, INGLEWOOD, CA, 90301","Tie",NA,NA,NA,NA
140334,"254-C NORTH MARKET ST","IINGLEWOOD","CA",90301,33.965359026,-118.351915407,334,"254-C NORTH MARKET ST, IINGLEWOOD, CA, 90301","Match","Non_Exact","254 N MARKET ST, INGLEWOOD, CA, 90301",141654431,"R"
140335,"254","NASHVILLE","NC",27856,NA,NA,335,"254, NASHVILLE, NC, 27856","No_Match",NA,NA,NA,NA
140336,"2540 106TH STREET  STE 202","URBANDALE","IA",50322,41.6197170200001,-93.763414626,336,"2540 106TH STREET  STE 202, URBANDALE, IA, 50322","Match","Exact","2540 106TH ST, URBANDALE, IA, 50322",65774772,"R"
140337,"2540 ANNECY DRIVE","MATTHEWS","NC",28105,35.1334566240001,-80.704672011,337,"2540 ANNECY DRIVE, MATTHEWS, NC, 28105","Match","Exact","2540 ANNECY DR, MATTHEWS, NC, 28105",70536505,"R"
140338,"2540 BROMLEY DR SE","CLEVELAND","TN",37323,35.124499395,-84.8460676349999,338,"2540 BROMLEY DR SE, CLEVELAND, TN, 37323","Match","Non_Exact","2540 BROMLEY DR, CLEVELAND, TN, 37323",57579144,"L"
140339,"2540 CARRICK RD","GEORGETOWN","KY",40324,38.19853427,-84.412627717,339,"2540 CARRICK RD, GEORGETOWN, KY, 40324","Match","Exact","2540 CARRICK RD, GEORGETOWN, KY, 40324",651440635,"R"
140340,"2540 CARRICK ROAD","GEORGETOWN","KY",40324,38.19853427,-84.412627717,340,"2540 CARRICK ROAD, GEORGETOWN, KY, 40324","Match","Exact","2540 CARRICK RD, GEORGETOWN, KY, 40324",651440635,"R"
140341,"2540 CENTER STREET","BETHLEHEM","PA",18017,40.6481972230001,-75.376801379,341,"2540 CENTER STREET, BETHLEHEM, PA, 18017","Match","Exact","2540 CENTER ST, BETHLEHEM, PA, 18017",136876195,"R"
140342,"2540 CHAPELWOOD DRIVE","PITTSBURGH","PA",15241,40.3230773390001,-80.089941644,342,"2540 CHAPELWOOD DRIVE, PITTSBURGH, PA, 15241","Match","Exact","2540 CHAPELWOOD DR, PITTSBURGH, PA, 15241",51701156,"R"
140343,"2540 DOLE STREET HOLMES 240 G","HONOLULU","HI",96822,21.2967162030001,-157.818227124,343,"2540 DOLE STREET HOLMES 240 G, HONOLULU, HI, 96822","Match","Exact","2540 DOLE ST, HONOLULU, HI, 96822",607811523,"L"
140344,"2540 DOLE STREET HOLMES 383","HONOLULU","HI",96822,21.2967162030001,-157.818227124,344,"2540 DOLE STREET HOLMES 383, HONOLULU, HI, 96822","Match","Exact","2540 DOLE ST, HONOLULU, HI, 96822",607811523,"L"
140345,"2540 E CARAWAY CT","FRESNO","CA",93720,36.8582785140001,-119.737153234,345,"2540 E CARAWAY CT, FRESNO, CA, 93720","Match","Exact","2540 E CARAWAY CT, FRESNO, CA, 93720",617777071,"L"
140346,"2540 E CARAWAY","FRESNO","CA",93720,36.8582785140001,-119.737153234,346,"2540 E CARAWAY, FRESNO, CA, 93720","Match","Non_Exact","2540 E CARAWAY CT, FRESNO, CA, 93720",617777071,"L"
140347,"2540 F STREET","BAKERSFIELD","CA",93301,35.382304145,-119.023477586,347,"2540 F STREET, BAKERSFIELD, CA, 93301","Match","Exact","2540 F ST, BAKERSFIELD, CA, 93301",109087376,"R"
140348,"2540 FOREST CREEK DRIVE","FT WORTH","TX",76123,32.6299460720001,-97.358180664,348,"2540 FOREST CREEK DRIVE, FT WORTH, TX, 76123","Match","Exact","2540 FOREST CREEK DR, FORT WORTH, TX, 76123",101931321,"L"
140349,"2540 GREEN PINE COURT","WALDORF","MD",20601,38.643665035,-76.8461045459999,349,"2540 GREEN PINE COURT, WALDORF, MD, 20601","Match","Exact","2540 GREEN PINE CT, WALDORF, MD, 20601",25427191,"L"
140350,"2540 HATCHER ROAD","CAMPBELLSVILLE","KY",42718,37.2916458460001,-85.4145165159999,350,"2540 HATCHER ROAD, CAMPBELLSVILLE, KY, 42718","Match","Exact","2540 HATCHER RD, CAMPBELLSVILLE, KY, 42718",642546938,"R"
140351,"2540 MANIKI DR","RIVERIA BEACH","FL",33407,26.77041273,-80.112656433,351,"2540 MANIKI DR, RIVERIA BEACH, FL, 33407","Match","Non_Exact","2540 MANIKI DR, RIVIERA BEACH, FL, 33407",115581696,"R"
140352,"2540 MANTON STREET","PHILADELPHIA","PA",19146,39.9381362930001,-75.1860945769999,352,"2540 MANTON STREET, PHILADELPHIA, PA, 19146","Match","Exact","2540 MANTON ST, PHILADELPHIA, PA, 19146",131449137,"L"
140353,"2540 MAYFAIR AVENUE","WESTCHESTER","IL",60154,41.8419678710001,-87.8912781989999,353,"2540 MAYFAIR AVENUE, WESTCHESTER, IL, 60154","Match","Exact","2540 MAYFAIR AVE, WESTCHESTER, IL, 60154",653211354,"R"
140354,"2540 MESA VERDE TERRACE","HENDERSON","NV",89074,36.0469799860001,-115.099261506,354,"2540 MESA VERDE TERRACE, HENDERSON, NV, 89074","Match","Exact","2540 MESA VERDE TER, HENDERSON, NV, 89074",201910786,"R"
140355,"2540 N FONTANA AVE","TUCSON","AZ",85705,32.2529872870001,-110.967637454,355,"2540 N FONTANA AVE, TUCSON, AZ, 85705","Match","Exact","2540 N FONTANA AVE, TUCSON, AZ, 85705",618214554,"R"
140356,"2540 NORTH RIDGEVIEW ROAD","ARLINGTON","VA",22207,38.904341356,-77.107401766,356,"2540 NORTH RIDGEVIEW ROAD, ARLINGTON, VA, 22207","Match","Exact","2540 N RIDGEVIEW RD, ARLINGTON, VA, 22207",76468096,"L"
140357,"2540 NW 131ST STREET","MIAMI","FL",33167,25.893679638,-80.2416696669999,357,"2540 NW 131ST STREET, MIAMI, FL, 33167","Match","Exact","2540 NW 131ST ST, MIAMI, FL, 33167",116032592,"L"
140358,"2540 OCEAN AVENUE SUITE 10C","BROOKLYN","NY",11229,40.599645222,-73.951462778,358,"2540 OCEAN AVENUE SUITE 10C, BROOKLYN, NY, 11229","Match","Exact","2540 OCEAN AVE, BROOKLYN, NY, 11229",59090140,"R"
140359,"2540 OTTER LANE","SEABROOK ISLAND","SC",29455,32.575011934,-80.168874655,359,"2540 OTTER LANE, SEABROOK ISLAND, SC, 29455","Match","Exact","2540 OTTER LN, SEABROOK ISLAND, SC, 29455",108792374,"L"
140360,"2540 PATSY ANNE DRIVE","JACKSONVILLE","FL",32207,30.264931747,-81.634452241,360,"2540 PATSY ANNE DRIVE, JACKSONVILLE, FL, 32207","Match","Exact","2540 PATSY ANNE DR, JACKSONVILLE, FL, 32207",83916451,"R"
140361,"2540 S BURLESON BLVD","BURLESON","TX",76028,NA,NA,361,"2540 S BURLESON BLVD, BURLESON, TX, 76028","No_Match",NA,NA,NA,NA
140362,"2540 SHORE BLVD SUITE 3D","ASTORIA","NY",11102,40.775675156,-73.929365552,362,"2540 SHORE BLVD SUITE 3D, ASTORIA, NY, 11102","Match","Exact","2540 SHORE BLVD, ASTORIA, NY, 11102",59731540,"R"
140363,"2540 SHORE BOULEVARD APT 9K","Astoria","NY",11102,40.775675156,-73.929365552,363,"2540 SHORE BOULEVARD APT 9K, Astoria, NY, 11102","Match","Exact","2540 SHORE BLVD, ASTORIA, NY, 11102",59731540,"R"
140364,"2540 SW 31ST LN","CAPE CORAL","FL",33914,26.5936528030001,-82.0246920979999,364,"2540 SW 31ST LN, CAPE CORAL, FL, 33914","Match","Exact","2540 SW 31ST LN, CAPE CORAL, FL, 33914",118002057,"R"
140365,"2540 SW 78TH AVE","MIAMI","FL",33155,25.7468033640001,-80.3215930539999,365,"2540 SW 78TH AVE, MIAMI, FL, 33155","Match","Exact","2540 SW 78TH AVE, MIAMI, FL, 33155",115976334,"R"
140366,"2540 SW HAMILTON COURT","PORTLAND","OR",97239,45.489572708,-122.703360007,366,"2540 SW HAMILTON COURT, PORTLAND, OR, 97239","Match","Exact","2540 SW HAMILTON CT, PORTLAND, OR, 97239",157499996,"L"
140367,"2540 VALLEY VIEW DRIVE","BELPRE","OH",45714,39.286817678,-81.6132056449999,367,"2540 VALLEY VIEW DRIVE, BELPRE, OH, 45714","Match","Exact","2540 VALLEY VIEW DR, BELPRE, OH, 45714",45694567,"R"
140368,"2540 VIRGINIA PARK","DETROIT","MI",48206,42.366697147,-83.103064106,368,"2540 VIRGINIA PARK, DETROIT, MI, 48206","Match","Non_Exact","2540 VIRGINIA PARK ST, DETROIT, MI, 48206",95472334,"R"
140369,"2540 W 59TH ST","CHICAGO","IL",60629,41.786505537,-87.687750283,369,"2540 W 59TH ST, CHICAGO, IL, 60629","Match","Exact","2540 W 59TH ST, CHICAGO, IL, 60629",111804792,"R"
140370,"2540 WAKEFIELD CIRCLE","WALDORF","MD",20602,38.5951589110001,-76.890931692,370,"2540 WAKEFIELD CIRCLE, WALDORF, MD, 20602","Match","Exact","2540 WAKEFIELD CIR, WALDORF, MD, 20602",25369567,"L"
140371,"25400 BLACK LAKE AVE","LIVINGSTON","LA",70754,30.4573506950001,-90.748287792,371,"25400 BLACK LAKE AVE, LIVINGSTON, LA, 70754","Match","Exact","25400 BLACK LAKE AVE, LIVINGSTON, LA, 70754",627786396,"R"
140372,"25400 PINE RIDGE RD","HOCKLEY","TX",77447,30.1258415500001,-95.814835513,372,"25400 PINE RIDGE RD, HOCKLEY, TX, 77447","Match","Exact","25400 PINE RIDGE RD, HOCKLEY, TX, 77447",78357540,"R"
140373,"25401 ALICIA PKWY  STE 443","LAGUNA HILLS","CA",92653,33.594150841,-117.69750675,373,"25401 ALICIA PKWY  STE 443, LAGUNA HILLS, CA, 92653","Match","Exact","25401 ALICIA PKWY, LAGUNA HILLS, CA, 92653",609044552,"L"
140374,"25402 CHAMPLAIN ROAD","LAGUNA HILLS","CA",92653,33.593533875,-117.681592585,374,"25402 CHAMPLAIN ROAD, LAGUNA HILLS, CA, 92653","Match","Exact","25402 CHAMPLAIN RD, LAGUNA HILLS, CA, 92653",616891742,"L"
140375,"25402 DAMASCUS PARK TER","DAMASCUS","MD",20872,39.273305798,-77.214741671,375,"25402 DAMASCUS PARK TER, DAMASCUS, MD, 20872","Match","Non_Exact","25402 DAMASCUS PARK LN, DAMASCUS, MD, 20872",618606188,"L"
140376,"25402 OAK LEAF ROAD","LAGUNA HILLS","CA",92653,33.593740983,-117.676774466,376,"25402 OAK LEAF ROAD, LAGUNA HILLS, CA, 92653","Match","Exact","25402 OAK LEAF RD, LAGUNA HILLS, CA, 92653",144065411,"L"
140377,"25402 ROSALES CIRCLE","MISSION VIEJO","CA",92691,NA,NA,377,"25402 ROSALES CIRCLE, MISSION VIEJO, CA, 92691","No_Match",NA,NA,NA,NA
140378,"25402 SOUTH 156 STREET","GILBERT","AZ",85298,33.218496966,-111.746870974,378,"25402 SOUTH 156 STREET, GILBERT, AZ, 85298","Match","Exact","25402 S 156TH ST, GILBERT, AZ, 85298",605214834,"R"
140379,"25402 VIA LABRADA","VALENCIA","CA",91355,34.3963207150001,-118.545241426,379,"25402 VIA LABRADA, VALENCIA, CA, 91355","Match","Exact","25402 VIA LABRADA, VALENCIA, CA, 91355",141537409,"L"
140380,"25403 TALL PINE GROVE ST","KATY","TX",77493,29.8485135060001,-95.814488476,380,"25403 TALL PINE GROVE ST, KATY, TX, 77493","Match","Exact","25403 TALL PINE GROVE ST, KATY, TX, 77493",652753425,"R"
140381,"25404 HWY 59 STE 110","PORTER","TX",77365,NA,NA,381,"25404 HWY 59 STE 110, PORTER, TX, 77365","No_Match",NA,NA,NA,NA
140382,"25406 SOUTH KINGSTON ROAD","KINGSTON","WA",98346,47.79214233,-122.505754382,382,"25406 SOUTH KINGSTON ROAD, KINGSTON, WA, 98346","Match","Non_Exact","25406 S KINGSTON RD NE, KINGSTON, WA, 98346",642477174,"R"
140383,"25408 W MAIN ST","BARSTOW","CA",92311,NA,NA,383,"25408 W MAIN ST, BARSTOW, CA, 92311","No_Match",NA,NA,NA,NA
140384,"25409 BRADSHAW DRIVE","SOUTH RIDING","VA",20152,38.9146003860001,-77.5294065849999,384,"25409 BRADSHAW DRIVE, SOUTH RIDING, VA, 20152","Match","Exact","25409 BRADSHAW DR, SOUTH RIDING, VA, 20152",62354348,"L"
140385,"2541 ADAM CLAYTON POWELL JR BLVD","NEW YORK","NY",10039,40.8235827,-73.9376511529999,385,"2541 ADAM CLAYTON POWELL JR BLVD, NEW YORK, NY, 10039","Match","Exact","2541 ADAM CLAYTON POWELL JR BLVD, NEW YORK, NY, 10039",650070540,"R"
140386,"2541 CARTEGENA DR","SIERRA VISTA","AZ",85650,31.49949494,-110.272731534,386,"2541 CARTEGENA DR, SIERRA VISTA, AZ, 85650","Match","Exact","2541 CARTEGENA DR, SIERRA VISTA, AZ, 85650",121089597,"R"
140387,"2541 DAHLIA DR","FORT WORTH","TX",76123,32.626196227,-97.358366522,387,"2541 DAHLIA DR, FORT WORTH, TX, 76123","Match","Exact","2541 DAHLIA DR, FORT WORTH, TX, 76123",101931331,"R"
140388,"2541 DALE AVENUE","SACRAMENTO","CA",95815,38.6125836730001,-121.462775137,388,"2541 DALE AVENUE, SACRAMENTO, CA, 95815","Match","Exact","2541 DALE AVE, SACRAMENTO, CA, 95815",133321060,"L"
140389,"2541 E GALA STREET SUITE 310","MERIDIAN","ID",83642,NA,NA,389,"2541 E GALA STREET SUITE 310, MERIDIAN, ID, 83642","No_Match",NA,NA,NA,NA
140390,"2541 EAST 30TH STREET","TULSA","OK",74114,36.1202085080001,-95.953338805,390,"2541 EAST 30TH STREET, TULSA, OK, 74114","Match","Exact","2541 E 30TH ST, TULSA, OK, 74114",166443564,"L"
140391,"2541 HALLER ST","SAN DIEGO","CA",92104,32.7326306470001,-117.113927337,391,"2541 HALLER ST, SAN DIEGO, CA, 92104","Match","Exact","2541 HALLER ST, SAN DIEGO, CA, 92104",649832058,"L"
140392,"2541 HARTWOOD RD","CHILLICOTHE","OH",45601,39.233322324,-83.073556245,392,"2541 HARTWOOD RD, CHILLICOTHE, OH, 45601","Match","Exact","2541 HARTWOOD RD, CHILLICOTHE, OH, 45601",37493468,"L"
140393,"2541 LANE ROAD","UPPER ARLIGNTON","OH",43220,40.0475900970001,-83.0866154999999,393,"2541 LANE ROAD, UPPER ARLIGNTON, OH, 43220","Match","Non_Exact","2541 LANE RD, UPPER ARLINGTON, OH, 43220",218683832,"L"
140394,"2541 MARBLEHEAD DR","SARASOTA","FL",34231,27.278572572,-82.5183162439999,394,"2541 MARBLEHEAD DR, SARASOTA, FL, 34231","Match","Exact","2541 MARBLEHEAD DR, SARASOTA, FL, 34231",16432244,"L"
140395,"2541 MODOC ROAD APARTMENT 21","SANTA BARBARA","CA",93105,34.425514902,-119.733019065,395,"2541 MODOC ROAD APARTMENT 21, SANTA BARBARA, CA, 93105","Match","Exact","2541 MODOC RD, SANTA BARBARA, CA, 93105",108611500,"L"
140396,"2541 N 46TH ST","MILWAUKEE","WI",53210,43.0650526850001,-87.971238769,396,"2541 N 46TH ST, MILWAUKEE, WI, 53210","Match","Exact","2541 N 46TH ST, MILWAUKEE, WI, 53210",77732297,"L"
140397,"2541 N CLARKSON ST","DENVER","CO",80205,39.7545133670001,-104.977207504,397,"2541 N CLARKSON ST, DENVER, CO, 80205","Match","Exact","2541 CLARKSON ST, DENVER, CO, 80205",177305603,"L"
140398,"2541 N PLEASANTBURG DR SUITE S-239","GREENVILLE","SC",29609,34.8882284600001,-82.386382329,398,"2541 N PLEASANTBURG DR SUITE S-239, GREENVILLE, SC, 29609","Match","Non_Exact","2541 N PLEASANTBURG DR, GREENVILLE, SC, 29609",638958736,"L"
140399,"2541 POST RD","MELBOURNE","FL",32935,28.1720263770001,-80.664374723,399,"2541 POST RD, MELBOURNE, FL, 32935","Match","Exact","2541 POST RD, MELBOURNE, FL, 32935",93940786,"L"
140400,"2541 RIDGE ST","YORKTOWN HTS","NY",10598,41.295104999,-73.7907959469999,400,"2541 RIDGE ST, YORKTOWN HTS, NY, 10598","Match","Exact","2541 RIDGE ST, YORKTOWN HEIGHTS, NY, 10598",139727802,"L"
140401,"2541 ROCKY RIDGE ROAD","BIRMINGHAM","AL",35203,33.427421844,-86.772730236,401,"2541 ROCKY RIDGE ROAD, BIRMINGHAM, AL, 35203","Match","Non_Exact","2541 ROCKY RIDGE RD, BIRMINGHAM, AL, 35243",645591070,"R"
140402,"2541 S COMMERCE RD","WOLVERINE LAKE","MI",48390,42.5594632250001,-83.4740527499999,402,"2541 S COMMERCE RD, WOLVERINE LAKE, MI, 48390","Match","Exact","2541 S COMMERCE RD, WOLVERINE LAKE, MI, 48390",69814449,"L"
140403,"2541 S IH 35 STE 200-140","ROUND ROCK","TX",78664,NA,NA,403,"2541 S IH 35 STE 200-140, ROUND ROCK, TX, 78664","No_Match",NA,NA,NA,NA
140404,"2541 SANDBURG STREET","DUNN LORING","VA",22027,38.886953052,-77.2243377469999,404,"2541 SANDBURG STREET, DUNN LORING, VA, 22027","Match","Exact","2541 SANDBURG ST, DUNN LORING, VA, 22027",636767273,"L"
140405,"2541 SOUTH IH35 SUITE 200-297","ROUND ROCK","TX",78664,NA,NA,405,"2541 SOUTH IH35 SUITE 200-297, ROUND ROCK, TX, 78664","No_Match",NA,NA,NA,NA
140406,"2541 W JEROME ST UNIT A","CHICAGO","IL",60645,42.018539117,-87.693994016,406,"2541 W JEROME ST UNIT A, CHICAGO, IL, 60645","Match","Non_Exact","2541 W JEROME ST, CHICAGO, IL, 60645",111744119,"L"
140407,"2541 W SOUTHCROSS BLVD","SAN ANTONIO","TX",78211,29.368711492,-98.55352449,407,"2541 W SOUTHCROSS BLVD, SAN ANTONIO, TX, 78211","Match","Exact","2541 W SOUTHCROSS BLVD, SAN ANTONIO, TX, 78211",101519815,"R"
140408,"25410 CHISOM LANE","STEVENSON RANCH","CA",91381,34.3837185080001,-118.582096769,408,"25410 CHISOM LANE, STEVENSON RANCH, CA, 91381","Match","Exact","25410 CHISOM LN, STEVENSON RANCH, CA, 91381",142822167,"R"
140409,"25410 E STATE HWY 110","CALHAN","CO",80808,NA,NA,409,"25410 E STATE HWY 110, CALHAN, CO, 80808","No_Match",NA,NA,NA,NA
140410,"25410 NORTHERN BLVD STE 201A","LITTLE NECK","NY",11362,NA,NA,410,"25410 NORTHERN BLVD STE 201A, LITTLE NECK, NY, 11362","No_Match",NA,NA,NA,NA
140411,"25411 CLOVER RANCH DR","KATY","TX",77494,29.747191533,-95.798478147,411,"25411 CLOVER RANCH DR, KATY, TX, 77494","Match","Exact","25411 CLOVER RANCH DR, KATY, TX, 77494",643746706,"L"
140412,"25411 TRYON RD","BEDFORD","OH",44146,41.365345205,-81.501592406,412,"25411 TRYON RD, BEDFORD, OH, 44146","Match","Exact","25411 TRYON RD, BEDFORD, OH, 44146",627831044,"R"
140413,"25413 NE 3RD PL","SAMMAMISH","WA",98074,47.6117702780001,-121.999915083,413,"25413 NE 3RD PL, SAMMAMISH, WA, 98074","Match","Non_Exact","25413 NE 3 PL, SAMMAMISH, WA, 98074",624447699,"L"
140414,"25415 SPRINGVIEW COURT","PLAINFIELD","IL",60586,41.592733717,-88.2375595939999,414,"25415 SPRINGVIEW COURT, PLAINFIELD, IL, 60586","Match","Exact","25415 SPRINGVIEW CT, PLAINFIELD, IL, 60586",607944545,"L"
140415,"25416 FAIRWAY DRIVE","QUANTICO","MD",21856,38.337334357,-75.733223043,415,"25416 FAIRWAY DRIVE, QUANTICO, MD, 21856","Match","Exact","25416 FAIRWAY DR, QUANTICO, MD, 21856",114466605,"L"
140416,"25417 CONSTITUTION AVE","WARREN","MI",48089,42.4826106,-82.9948288159999,416,"25417 CONSTITUTION AVE, WARREN, MI, 48089","Match","Non_Exact","25417 CONSTITUTION BLVD, WARREN, MI, 48089",624887785,"R"
140417,"25417 NYS RT 12","WATERTOWN","NY",13601,43.9328142270001,-75.86360397,417,"25417 NYS RT 12, WATERTOWN, NY, 13601","Match","Non_Exact","25417 STATE RTE 12, WATERTOWN, NY, 13601",154279589,"L"
140418,"25418 GLEN LOCH DR","SPRING","TX",77380,30.134279281,-95.488886752,418,"25418 GLEN LOCH DR, SPRING, TX, 77380","Match","Exact","25418 GLEN LOCH DR, SPRING, TX, 77380",79282659,"R"
140419,"25418 NORTHERN BLVD","LITTLE NECK","NY",11362,NA,NA,419,"25418 NORTHERN BLVD, LITTLE NECK, NY, 11362","No_Match",NA,NA,NA,NA
140420,"25418 PARSONS DR","SOUTHFIELD","MI",48075,42.476298523,-83.2280370079999,420,"25418 PARSONS DR, SOUTHFIELD, MI, 48075","Match","Exact","25418 PARSONS DR, SOUTHFIELD, MI, 48075",69815651,"R"
140421,"25418 W 96TH TERRACE","LENEXA","KS",66227,38.95329407,-94.8810379879999,421,"25418 W 96TH TERRACE, LENEXA, KS, 66227","Match","Exact","25418 W 96TH TER, LENEXA, KS, 66227",646749195,"R"
140422,"25419 DOGWOOD LANE","SPLENDORA","TX",77372,30.202208291,-95.1725136859999,422,"25419 DOGWOOD LANE, SPLENDORA, TX, 77372","Match","Exact","25419 DOGWOOD LN, SPLENDORA, TX, 77372",79326574,"L"
140423,"2542 BRENNA WAY","GRAND JUNCTION","CO",81505,39.1005188610001,-108.581538173,423,"2542 BRENNA WAY, GRAND JUNCTION, CO, 81505","Match","Exact","2542 BRENNA WAY, GRAND JCT, CO, 81505",122456546,"R"
140424,"2542 BROOKWAY ST","INDIANAPOLIS","IN",46218,39.790367083,-86.1186627879999,424,"2542 BROOKWAY ST, INDIANAPOLIS, IN, 46218","Match","Exact","2542 BROOKWAY ST, INDIANAPOLIS, IN, 46218",107998874,"L"
140425,"2542 BUFFALO ROAD","RUMNEY","NH",3266,43.833849193,-71.8727547679999,425,"2542 BUFFALO ROAD, RUMNEY, NH, 3266","Match","Exact","2542 BUFFALO RD, RUMNEY, NH, 03266",145710731,"R"
140426,"2542 DATE STREET - SUITE 506","HONOLULU","HI",96826,21.286405324,-157.822323429,426,"2542 DATE STREET - SUITE 506, HONOLULU, HI, 96826","Match","Exact","2542 DATE ST, HONOLULU, HI, 96826",203241836,"L"
140427,"2542 E MENDOTA DR","BOISE","ID",83716,43.5556801860001,-116.15144789,427,"2542 E MENDOTA DR, BOISE, ID, 83716","Match","Exact","2542 E MENDOTA DR, BOISE, ID, 83716",117884304,"L"
140428,"2542 E PINE ST","TULSA","OK",74110,36.177135848,-95.954086073,428,"2542 E PINE ST, TULSA, OK, 74110","Match","Exact","2542 E PINE ST, TULSA, OK, 74110",166438942,"R"
140429,"2542 GARDENS PKWY","PALM BEACH GARDENS","FL",33410,26.8486215890001,-80.073750151,429,"2542 GARDENS PKWY, PALM BEACH GARDENS, FL, 33410","Match","Exact","2542 GARDENS PKWY, PALM BEACH GARDENS, FL, 33410",645507771,"L"
140430,"2542 LA VENEZIA CT","ALTADENA","CA",91001,34.1888775140001,-118.148427241,430,"2542 LA VENEZIA CT, ALTADENA, CA, 91001","Match","Exact","2542 LA VENEZIA CT, ALTADENA, CA, 91001",141627317,"R"
140431,"2542 LESLIE DRIVE NE","ATLANTA","GA",30345,33.860696605,-84.2561711069999,431,"2542 LESLIE DRIVE NE, ATLANTA, GA, 30345","Match","Exact","2542 LESLIE DR NE, ATLANTA, GA, 30345",23406555,"L"
140432,"2542 NW WILLAMINA AV","FOREST GROVE","OR",97116,45.5305775750001,-123.103340519,432,"2542 NW WILLAMINA AV, FOREST GROVE, OR, 97116","Match","Exact","2542 WILLAMINA AVE, FOREST GROVE, OR, 97116",649913427,"R"
140433,"2542 PECK ST","MUSKEGON HEIGHTS","MI",49444,43.2060725060001,-86.244603744,433,"2542 PECK ST, MUSKEGON HEIGHTS, MI, 49444","Match","Exact","2542 PECK ST, MUSKEGON HEIGHTS, MI, 49444",77653632,"L"
140434,"2542 QUARRY LAKE DRIVE 136","BALTIMORE","MD",21209,39.3854327240001,-76.686491147,434,"2542 QUARRY LAKE DRIVE 136, BALTIMORE, MD, 21209","Match","Exact","2542 QUARRY LAKE DR, BALTIMORE, MD, 21209",648409805,"R"
140435,"2542 RIVEROAKS DRIVE","BILLINGS","MT",59105,45.844596612,-108.488919813,435,"2542 RIVEROAKS DRIVE, BILLINGS, MT, 59105","Match","Exact","2542 RIVEROAKS DR, BILLINGS, MT, 59105",181488747,"L"
140436,"2542 S MOCCASIN TRAIL","GILBERT","AZ",85295,33.3042332530001,-111.71443601,436,"2542 S MOCCASIN TRAIL, GILBERT, AZ, 85295","Match","Exact","2542 S MOCCASIN TRL, GILBERT, AZ, 85295",128851888,"R"
140437,"2542 SALINA DRIVE","KINSTON","NC",28504,35.3395867570001,-77.637085026,437,"2542 SALINA DRIVE, KINSTON, NC, 28504","Match","Exact","2542 SALINA DR, KINSTON, NC, 28504",13884358,"R"
140438,"25421 HWY 181 STE 100","DAPHNE","AL",36526,NA,NA,438,"25421 HWY 181 STE 100, DAPHNE, AL, 36526","No_Match",NA,NA,NA,NA
140439,"25421 MISTY GLEN","DAPHNE","AL",36526,30.5953986810001,-87.8417654679999,439,"25421 MISTY GLEN, DAPHNE, AL, 36526","Match","Exact","25421 MISTY GLEN, DAPHNE, AL, 36526",614088270,"L"
140440,"25422 BRENTMOOR DRIVE","PORTER","TX",77365,30.074062358,-95.264140386,440,"25422 BRENTMOOR DRIVE, PORTER, TX, 77365","Match","Exact","25422 BRENTMOOR DR, PORTER, TX, 77365",651653995,"R"
140441,"25422 LAKE PROVIDENCE DRIVE","DENHAM SPRINGS","LA",70726,30.4362835310001,-90.9526083549999,441,"25422 LAKE PROVIDENCE DRIVE, DENHAM SPRINGS, LA, 70726","Match","Exact","25422 LAKE PROVIDENCE DR, DENHAM SPRINGS, LA, 70726",624779944,"L"
140442,"25424 RAMROCK DR","PORTER","TX",77365,30.0798349310001,-95.251285834,442,"25424 RAMROCK DR, PORTER, TX, 77365","Match","Exact","25424 RAMROCK DR, PORTER, TX, 77365",614121956,"L"
140443,"25425 ARUNDEL WAY","SORRENTO","FL",32776,28.8353977990001,-81.534996553,443,"25425 ARUNDEL WAY, SORRENTO, FL, 32776","Match","Exact","25425 ARUNDEL WAY, SORRENTO, FL, 32776",94149954,"R"
140444,"25425 JUBILANT DR","ALDIE","VA",20105,38.9144164260001,-77.5684721919999,444,"25425 JUBILANT DR, ALDIE, VA, 20105","Match","Exact","25425 JUBILANT DR, ALDIE, VA, 20105",641118481,"L"
140445,"25427 LINDENWOOD","SOUTHFIELD","MI",48033,42.475687399,-83.308039835,445,"25427 LINDENWOOD, SOUTHFIELD, MI, 48033","Match","Non_Exact","25427 LINDENWOOD LN, SOUTHFIELD, MI, 48033",69837745,"L"
140446,"2543 305TH ST PO BOX 155","ORIENT","IA",50858,41.208445731,-94.410736618,446,"2543 305TH ST PO BOX 155, ORIENT, IA, 50858","Match","Exact","2543 305TH ST, ORIENT, IA, 50858",61672954,"R"
140447,"2543 32ND ST S","FARGO","ND",58103,NA,NA,447,"2543 32ND ST S, FARGO, ND, 58103","Tie",NA,NA,NA,NA
140448,"2543 BEACON FOREST DRIVE","CHARLOTTE","NC",28270,35.0747352550001,-80.731813884,448,"2543 BEACON FOREST DRIVE, CHARLOTTE, NC, 28270","Match","Exact","2543 BEACON FOREST DR, CHARLOTTE, NC, 28270",70546203,"L"
140449,"2543 BILL BONE DR","OSKALOOSA","IA",52577,41.287041806,-92.6701491869999,449,"2543 BILL BONE DR, OSKALOOSA, IA, 52577","Match","Exact","2543 BILL BONE DR, OSKALOOSA, IA, 52577",89386669,"L"
140450,"2543 CONGRESS STREET APT 102","SAN DIEGO","CA",92110,32.7522179630001,-117.196005601,450,"2543 CONGRESS STREET APT 102, SAN DIEGO, CA, 92110","Match","Exact","2543 CONGRESS ST, SAN DIEGO, CA, 92110",195341495,"L"
140451,"2543 COUNTY ROAD 2028","ARANSAS PASS","TX",78336,27.9027138010001,-97.191266163,451,"2543 COUNTY ROAD 2028, ARANSAS PASS, TX, 78336","Match","Exact","2543 CO RD 2028, ARANSAS PASS, TX, 78336",36332844,"R"
140452,"2543 E 400 RD","OOLOGAH","OK",74053,36.438029462,-95.7848833749999,452,"2543 E 400 RD, OOLOGAH, OK, 74053","Match","Exact","2543 E 400 RD, OOLOGAH, OK, 74053",653429163,"R"
140453,"2543 ERIE DR","CONCORD","CA",94519,37.9847195630001,-122.03059189,453,"2543 ERIE DR, CONCORD, CA, 94519","Match","Exact","2543 ERIE DR, CONCORD, CA, 94519",192054563,"L"
140454,"2543 LINCOLN AVENUE","MIAMI","FL",33133,25.734580491,-80.2349290559999,454,"2543 LINCOLN AVENUE, MIAMI, FL, 33133","Match","Exact","2543 LINCOLN AVE, MIAMI, FL, 33133",116015000,"R"
140455,"2543 N MILWAUKEE AVE 2ND FL","CHICAGO","IL",60647,41.927439151,-87.704723644,455,"2543 N MILWAUKEE AVE 2ND FL, CHICAGO, IL, 60647","Match","Non_Exact","2543 N MILWAUKEE AVE, CHICAGO, IL, 60647",605194680,"R"
140456,"2543 NORTH OLD STONE WAY","MERIDIAN","ID",83646,43.627959134,-116.427042359,456,"2543 NORTH OLD STONE WAY, MERIDIAN, ID, 83646","Match","Exact","2543 N OLD STONE WAY, MERIDIAN, ID, 83646",117881551,"L"
140457,"2543 OAKRIDGE RD","SEDALIA","CO",80135,39.3248422350001,-104.962114725,457,"2543 OAKRIDGE RD, SEDALIA, CO, 80135","Match","Non_Exact","2543 OAK RIDGE RD, SEDALIA, CO, 80135",130795905,"L"
140458,"2543 OLD HWY 24","HATTIESBURG","MS",39402,NA,NA,458,"2543 OLD HWY 24, HATTIESBURG, MS, 39402","No_Match",NA,NA,NA,NA
140459,"2543 PINE MOUNTAIN ROAD","STROUDSBURG","PA",18360,40.9655922420001,-75.332593194,459,"2543 PINE MOUNTAIN ROAD, STROUDSBURG, PA, 18360","Match","Exact","2543 PINE MOUNTAIN RD, STROUDSBURG, PA, 18360",136782618,"L"
140460,"2543 S BRUCE ST STE E","LAS VEGAS","NV",89169,36.143335397,-115.125464709,460,"2543 S BRUCE ST STE E, LAS VEGAS, NV, 89169","Match","Non_Exact","2543 S BRUCE ST, LAS VEGAS, NV, 89169",635959312,"R"
140461,"2543 S LIMA WAY","AURORA","CO",80014,39.670891979,-104.856073976,461,"2543 S LIMA WAY, AURORA, CO, 80014","Match","Exact","2543 S LIMA WAY, AURORA, CO, 80014",177354959,"R"
140462,"2543 SHASTA WAY","KLAMATH FALLS","OR",97603,42.2138709320001,-121.758037512,462,"2543 SHASTA WAY, KLAMATH FALLS, OR, 97603","Match","Non_Exact","2543 SHASTA WAY, KLAMATH FALLS, OR, 97601",156658167,"L"
140463,"2543 WEST CREEK ROAD","NEWFANE","NY",14108,43.2910440690001,-78.715353501,463,"2543 WEST CREEK ROAD, NEWFANE, NY, 14108","Match","Exact","2543 W CREEK RD, NEWFANE, NY, 14108",48690136,"L"
140464,"2543-B TELLURIDE TRL","GREEN BAY","WI",54313,44.5797277130001,-88.082342656,464,"2543-B TELLURIDE TRL, GREEN BAY, WI, 54313","Match","Exact","2543 TELLURIDE TRL, GREEN BAY, WI, 54313",148130696,"R"
140465,"25430 NE 3RD PL","SAMMAMISH","WA",98074,47.6118160400001,-121.999596249,465,"25430 NE 3RD PL, SAMMAMISH, WA, 98074","Match","Non_Exact","25430 NE 3 PL, SAMMAMISH, WA, 98074",624447699,"R"
140466,"25432 CARRINGTON DR","CHANTILLY","VA",20152,38.9157870400001,-77.527718609,466,"25432 CARRINGTON DR, CHANTILLY, VA, 20152","Match","Exact","25432 CARRINGTON DR, CHANTILLY, VA, 20152",62354368,"R"
140467,"25432 QUAIL SUMMIT","MONTEREY","CA",93940,36.5589305020001,-121.775883618,467,"25432 QUAIL SUMMIT, MONTEREY, CA, 93940","Match","Non_Exact","25432 QUAIL SUMMIT LN, MONTEREY, CA, 93940",196821710,"R"
140468,"25432 SW 122 CT","HOMESTEAD","FL",33032,25.530956728,-80.388940056,468,"25432 SW 122 CT, HOMESTEAD, FL, 33032","Match","Exact","25432 SW 122 CT, HOMESTEAD, FL, 33032",623820973,"R"
140469,"25434 BLACKWOOD RD","MURRIETA","CA",92563,33.564089446,-117.169821528,469,"25434 BLACKWOOD RD, MURRIETA, CA, 92563","Match","Exact","25434 BLACKWOOD RD, MURRIETA, CA, 92563",651716141,"L"
140470,"25435 WIMBLEDON RD","BEACHWOOD","OH",44122,41.477110914,-81.498766598,470,"25435 WIMBLEDON RD, BEACHWOOD, OH, 44122","Match","Exact","25435 WIMBLEDON RD, BEACHWOOD, OH, 44122",61134250,"L"
140471,"2544 CAROLYN DRIVE","SMYRNA","GA",30080,33.8906073100001,-84.486266138,471,"2544 CAROLYN DRIVE, SMYRNA, GA, 30080","Match","Exact","2544 CAROLYN DR, SMYRNA, GA, 30080",17181842,"R"
140472,"2544 CARRIAGE DR","MILLIKEN","CO",80543,40.326775893,-104.836444161,472,"2544 CARRIAGE DR, MILLIKEN, CO, 80543","Match","Exact","2544 CARRIAGE DR, MILLIKEN, CO, 80543",188753463,"R"
140473,"2544 CONCORD CHURCH ROAD","ALLENDALE","SC",29810,33.037239798,-81.3340080519999,473,"2544 CONCORD CHURCH ROAD, ALLENDALE, SC, 29810","Match","Exact","2544 CONCORD CHURCH RD, ALLENDALE, SC, 29810",19041195,"L"
140474,"2544 DOUGLAS HWY","JUNEAU","AK",99801,58.2869854030001,-134.415472514,474,"2544 DOUGLAS HWY, JUNEAU, AK, 99801","Match","Exact","2544 DOUGLAS HWY, JUNEAU, AK, 99801",190969128,"L"
140475,"2544 E 91ST STREET","CHICAGO","IL",60617,41.729945313,-87.5616002689999,475,"2544 E 91ST STREET, CHICAGO, IL, 60617","Match","Exact","2544 E 91ST ST, CHICAGO, IL, 60617",616793098,"L"
140476,"2544 FAIR OAKS DRIVE","JONESBORO","GA",30236,33.5026960180001,-84.3090215839999,476,"2544 FAIR OAKS DRIVE, JONESBORO, GA, 30236","Match","Exact","2544 FAIR OAKS DR, JONESBORO, GA, 30236",23329072,"R"
140477,"2544 FREDERICK DOUGLAS BLVD","NEW YORK","NY",10030,40.8168786520001,-73.9462627189999,477,"2544 FREDERICK DOUGLAS BLVD, NEW YORK, NY, 10030","Match","Non_Exact","2544 FREDERICK DOUGLASS BLVD, NEW YORK, NY, 10030",59656151,"R"
140478,"2544 FREDERICK DOUGLAS BOULEVARD","NEW YORK","NY",10030,40.8168786520001,-73.9462627189999,478,"2544 FREDERICK DOUGLAS BOULEVARD, NEW YORK, NY, 10030","Match","Non_Exact","2544 FREDERICK DOUGLASS BLVD, NEW YORK, NY, 10030",59656151,"R"
140479,"2544 HERNANDO ROAD","MEMPHIS","TN",38106,35.0760937160001,-90.023864046,479,"2544 HERNANDO ROAD, MEMPHIS, TN, 38106","Match","Exact","2544 HERNANDO RD, MEMPHIS, TN, 38106",72909066,"L"
140480,"2544 HIGHWAY 100 S","ST LOUIS PARK","MN",55416,NA,NA,480,"2544 HIGHWAY 100 S, ST LOUIS PARK, MN, 55416","No_Match",NA,NA,NA,NA
140481,"2544 KENSINGTON WAY","ELIZABETHTOWN","KY",42701,37.758015599,-85.887626736,481,"2544 KENSINGTON WAY, ELIZABETHTOWN, KY, 42701","Match","Exact","2544 KENSINGTON WAY, ELIZABETHTOWN, KY, 42701",649122315,"L"
140482,"2544 LANCEWOOD LN","LITHONIA","GA",30058,33.7121063430001,-84.1590233749999,482,"2544 LANCEWOOD LN, LITHONIA, GA, 30058","Match","Exact","2544 LANCEWOOD LN, LITHONIA, GA, 30058",23395645,"R"
140483,"2544 MCCLAVE DR  SUITE 208","DORAVILLE","GA",30340,33.8913871170001,-84.28385843,483,"2544 MCCLAVE DR  SUITE 208, DORAVILLE, GA, 30340","Match","Exact","2544 MCCLAVE DR, DORAVILLE, GA, 30340",23359274,"L"
140484,"2544 N 61 STREET","MILWAUKEE","WI",53213,43.065194783,-87.988628513,484,"2544 N 61 STREET, MILWAUKEE, WI, 53213","Match","Exact","2544 N 61ST ST, MILWAUKEE, WI, 53213",77731123,"R"
140485,"2544 PLYMOUTH ROAD","STOCKTON","CA",95204,37.964862313,-121.335035638,485,"2544 PLYMOUTH ROAD, STOCKTON, CA, 95204","Match","Exact","2544 PLYMOUTH RD, STOCKTON, CA, 95204",133893828,"R"
140486,"2544 RAMBLEWOOD ROAD","AIKEN","SC",29803,33.4936908110001,-81.6919321789999,486,"2544 RAMBLEWOOD ROAD, AIKEN, SC, 29803","Match","Exact","2544 RAMBLEWOOD RD, AIKEN, SC, 29803",64968406,"R"
140487,"2544 REGAL RIVER RD","VALRICO","FL",33596,27.883376737,-82.2338732279999,487,"2544 REGAL RIVER RD, VALRICO, FL, 33596","Match","Exact","2544 REGAL RIVER RD, VALRICO, FL, 33596",642586666,"R"
140488,"2544 ROBIN LN","VILLA HILLS","KY",41017,39.053845386,-84.591355641,488,"2544 ROBIN LN, VILLA HILLS, KY, 41017","Match","Exact","2544 ROBIN LN, VILLA HILLS, KY, 41017",103884098,"L"
140489,"2544 S ZANG BLVD","DALLAS","TX",75224,NA,NA,489,"2544 S ZANG BLVD, DALLAS, TX, 75224","No_Match",NA,NA,NA,NA
140490,"2544 SOUTH EAST 153RD AVE","PORTLAND","OR",97236,NA,NA,490,"2544 SOUTH EAST 153RD AVE, PORTLAND, OR, 97236","No_Match",NA,NA,NA,NA
140491,"2544 SW 14TH AVE  103","FORT LAUDERDALE","FL",33315,26.091561889,-80.15884339,491,"2544 SW 14TH AVE  103, FORT LAUDERDALE, FL, 33315","Match","Non_Exact","2544 SW 14TH AVE, FORT LAUDERDALE, FL, 33315",608972435,"L"
140492,"2544 WILDWOOD RD","COLUMBUS","OH",43231,40.0785441850001,-82.949844693,492,"2544 WILDWOOD RD, COLUMBUS, OH, 43231","Match","Exact","2544 WILDWOOD RD, COLUMBUS, OH, 43231",135571762,"L"
140493,"25441 HERITAGE AVE","LEWISTOWN","MO",63452,40.027486276,-91.724994259,493,"25441 HERITAGE AVE, LEWISTOWN, MO, 63452","Match","Exact","25441 HERITAGE AVE, LEWISTOWN, MO, 63452",607756603,"R"
140494,"25441 KAREN STREET","OAK PARK","MI",48237,42.4784473170001,-83.190954244,494,"25441 KAREN STREET, OAK PARK, MI, 48237","Match","Exact","25441 KAREN ST, OAK PARK, MI, 48237",69740828,"L"
140495,"25443 LARKSPUR COURT","SALINAS","CA",93908,36.6054131280001,-121.652167932,495,"25443 LARKSPUR COURT, SALINAS, CA, 93908","Match","Exact","25443 LARKSPUR CT, SALINAS, CA, 93908",196844428,"R"
140496,"25447 476TH AVE","BALTIC","SD",57003,43.6997199300001,-96.6912892,496,"25447 476TH AVE, BALTIC, SD, 57003","Match","Exact","25447 476TH AVE, BALTIC, SD, 57003",34986496,"R"
140497,"25448 FRITZ CT","ALDIE","VA",20105,38.914206425,-77.563226018,497,"25448 FRITZ CT, ALDIE, VA, 20105","Match","Exact","25448 FRITZ CT, ALDIE, VA, 20105",636867423,"L"
140498,"25449 GUNSTON AVE","WARREN","MI",48089,42.481868396,-83.009335167,498,"25449 GUNSTON AVE, WARREN, MI, 48089","Match","Exact","25449 GUNSTON AVE, WARREN, MI, 48089",110677263,"L"
140499,"2545 106TH ST","URBANDALE","IA",50322,41.6176844670001,-93.763372639,499,"2545 106TH ST, URBANDALE, IA, 50322","Match","Exact","2545 106TH ST, URBANDALE, IA, 50322",65774779,"L"
140500,"2545 ALDER ST","EUGENE","OR",97405,44.031350671,-123.080369023,500,"2545 ALDER ST, EUGENE, OR, 97405","Match","Exact","2545 ALDER ST, EUGENE, OR, 97405",178170951,"L"
