"ID","Address","City","State","Zip","lat","long","id","input_address","match_indicator","match_type","matched_address","tiger_line_id","tiger_side"
360501,"PO BOX 903","SKIPPACK","PA",19474,NA,NA,1,"PO BOX 903, SKIPPACK, PA, 19474","No_Match",NA,NA,NA,NA
360502,"PO BOX 903","VERMILION","OH",44089,NA,NA,2,"PO BOX 903, VERMILION, OH, 44089","No_Match",NA,NA,NA,NA
360503,"PO BOX 903","VINEYARD HAVEN","MA",2568,NA,NA,3,"PO BOX 903, VINEYARD HAVEN, MA, 2568","No_Match",NA,NA,NA,NA
360504,"PO BOX 903","WOODBURN","OR",97071,NA,NA,4,"PO BOX 903, WOODBURN, OR, 97071","No_Match",NA,NA,NA,NA
360505,"PO BOX 90308","HENDERSON","NV",89009,NA,NA,5,"PO BOX 90308, HENDERSON, NV, 89009","No_Match",NA,NA,NA,NA
360506,"PO BOX 9031","CHAPEL HILL","NC",27515,NA,NA,6,"PO BOX 9031, CHAPEL HILL, NC, 27515","No_Match",NA,NA,NA,NA
360507,"PO BOX 90317","SAN DIEGO","CA",92169,NA,NA,7,"PO BOX 90317, SAN DIEGO, CA, 92169","No_Match",NA,NA,NA,NA
360508,"PO BOX 9032","KANSAS CITY","KS",66112,NA,NA,8,"PO BOX 9032, KANSAS CITY, KS, 66112","No_Match",NA,NA,NA,NA
360509,"PO BOX 9032","KEY WEST","FL",33040,NA,NA,9,"PO BOX 9032, KEY WEST, FL, 33040","No_Match",NA,NA,NA,NA
360510,"PO BOX 9032","MANDEVILLE","LA",70470,NA,NA,10,"PO BOX 9032, MANDEVILLE, LA, 70470","No_Match",NA,NA,NA,NA
360511,"PO BOX 9032","NEW HAVEN","CT",6532,NA,NA,11,"PO BOX 9032, NEW HAVEN, CT, 6532","No_Match",NA,NA,NA,NA
360512,"PO BOX 90331","PHOENIX","AZ",85066,NA,NA,12,"PO BOX 90331, PHOENIX, AZ, 85066","No_Match",NA,NA,NA,NA
360513,"PO BOX 90352","INDIANAPOLIS","IN",46290,NA,NA,13,"PO BOX 90352, INDIANAPOLIS, IN, 46290","No_Match",NA,NA,NA,NA
360514,"PO BOX 9037","MORRISTOWN","NJ",7963,NA,NA,14,"PO BOX 9037, MORRISTOWN, NJ, 7963","No_Match",NA,NA,NA,NA
360515,"PO BOX 9038","SANTA FE","NM",87504,NA,NA,15,"PO BOX 9038, SANTA FE, NM, 87504","No_Match",NA,NA,NA,NA
360516,"PO BOX 9038","WILMINGTON","DE",19809,NA,NA,16,"PO BOX 9038, WILMINGTON, DE, 19809","No_Match",NA,NA,NA,NA
360517,"PO BOX 90392","LAKELAND","FL",33804,NA,NA,17,"PO BOX 90392, LAKELAND, FL, 33804","No_Match",NA,NA,NA,NA
360518,"PO BOX 904","ATASCADERO","CA",93423,NA,NA,18,"PO BOX 904, ATASCADERO, CA, 93423","No_Match",NA,NA,NA,NA
360519,"PO BOX 904","BUFFALO","MO",65622,NA,NA,19,"PO BOX 904, BUFFALO, MO, 65622","No_Match",NA,NA,NA,NA
360520,"PO BOX 904","CAMPBELLSPORT","WI",53010,NA,NA,20,"PO BOX 904, CAMPBELLSPORT, WI, 53010","No_Match",NA,NA,NA,NA
360521,"PO BOX 904","CHAPPELL","NE",69129,NA,NA,21,"PO BOX 904, CHAPPELL, NE, 69129","No_Match",NA,NA,NA,NA
360522,"PO BOX 904","CHESTER","SC",29706,NA,NA,22,"PO BOX 904, CHESTER, SC, 29706","No_Match",NA,NA,NA,NA
360523,"PO BOX 904","CLOUDCROFT","NM",88317,NA,NA,23,"PO BOX 904, CLOUDCROFT, NM, 88317","No_Match",NA,NA,NA,NA
360524,"PO BOX 904","DOVER","NH",3820,NA,NA,24,"PO BOX 904, DOVER, NH, 3820","No_Match",NA,NA,NA,NA
360525,"PO BOX 904","HEPHZIBAH","GA",30815,NA,NA,25,"PO BOX 904, HEPHZIBAH, GA, 30815","No_Match",NA,NA,NA,NA
360526,"PO BOX 904","LITHIA","FL",33547,NA,NA,26,"PO BOX 904, LITHIA, FL, 33547","No_Match",NA,NA,NA,NA
360527,"PO BOX 904","MARCO ISLAND","FL",34146,NA,NA,27,"PO BOX 904, MARCO ISLAND, FL, 34146","No_Match",NA,NA,NA,NA
360528,"PO BOX 904","MENDENHALL","PA",19357,NA,NA,28,"PO BOX 904, MENDENHALL, PA, 19357","No_Match",NA,NA,NA,NA
360529,"PO BOX 904","MONTE RIO","CA",95462,NA,NA,29,"PO BOX 904, MONTE RIO, CA, 95462","No_Match",NA,NA,NA,NA
360530,"PO BOX 904","OSCEOLA","WI",54020,NA,NA,30,"PO BOX 904, OSCEOLA, WI, 54020","No_Match",NA,NA,NA,NA
360531,"PO BOX 904","PLAINFIELD","IN",46168,NA,NA,31,"PO BOX 904, PLAINFIELD, IN, 46168","No_Match",NA,NA,NA,NA
360532,"PO BOX 904","RUSSELLVILLE","KY",42276,NA,NA,32,"PO BOX 904, RUSSELLVILLE, KY, 42276","No_Match",NA,NA,NA,NA
360533,"PO BOX 904","SEARCY","AR",72145,NA,NA,33,"PO BOX 904, SEARCY, AR, 72145","No_Match",NA,NA,NA,NA
360534,"PO BOX 904","SILER CITY","NC",27344,NA,NA,34,"PO BOX 904, SILER CITY, NC, 27344","No_Match",NA,NA,NA,NA
360535,"PO BOX 904","WEBSTER","NY",14580,NA,NA,35,"PO BOX 904, WEBSTER, NY, 14580","No_Match",NA,NA,NA,NA
360536,"PO BOX 904","YAZOO CITY","MS",39194,NA,NA,36,"PO BOX 904, YAZOO CITY, MS, 39194","No_Match",NA,NA,NA,NA
360537,"PO BOX 904","YELM","WA",98597,NA,NA,37,"PO BOX 904, YELM, WA, 98597","No_Match",NA,NA,NA,NA
360538,"PO BOX 9041 NAVAL AIR STATION","KEY WEST","FL",33431,NA,NA,38,"PO BOX 9041 NAVAL AIR STATION, KEY WEST, FL, 33431","No_Match",NA,NA,NA,NA
360539,"PO BOX 9042","GREENVILLE","SC",29604,NA,NA,39,"PO BOX 9042, GREENVILLE, SC, 29604","No_Match",NA,NA,NA,NA
360540,"PO BOX 90421","SAN BERNARDINO","CA",92427,NA,NA,40,"PO BOX 90421, SAN BERNARDINO, CA, 92427","No_Match",NA,NA,NA,NA
360541,"PO BOX 90427","AUSTIN","TX",78709,NA,NA,41,"PO BOX 90427, AUSTIN, TX, 78709","No_Match",NA,NA,NA,NA
360542,"PO BOX 9045","BACLIFF","TX",77518,NA,NA,42,"PO BOX 9045, BACLIFF, TX, 77518","No_Match",NA,NA,NA,NA
360543,"PO BOX 90454","PORTLAND","OR",97290,NA,NA,43,"PO BOX 90454, PORTLAND, OR, 97290","No_Match",NA,NA,NA,NA
360544,"PO BOX 90455","STATEN ISLAND","NY",10309,NA,NA,44,"PO BOX 90455, STATEN ISLAND, NY, 10309","No_Match",NA,NA,NA,NA
360545,"PO BOX 90456","DURHAM","NC",27705,NA,NA,45,"PO BOX 90456, DURHAM, NC, 27705","No_Match",NA,NA,NA,NA
360546,"PO BOX 9047","KALISPELL","MT",59904,NA,NA,46,"PO BOX 9047, KALISPELL, MT, 59904","No_Match",NA,NA,NA,NA
360547,"PO BOX 9047","NISKAYUNA","NY",12309,NA,NA,47,"PO BOX 9047, NISKAYUNA, NY, 12309","No_Match",NA,NA,NA,NA
360548,"PO BOX 90481","MILWAUKEE","WI",53209,NA,NA,48,"PO BOX 90481, MILWAUKEE, WI, 53209","No_Match",NA,NA,NA,NA
360549,"PO BOX 905","AURORA","OH",44202,NA,NA,49,"PO BOX 905, AURORA, OH, 44202","No_Match",NA,NA,NA,NA
360550,"PO BOX 905","AVA","MO",65608,NA,NA,50,"PO BOX 905, AVA, MO, 65608","No_Match",NA,NA,NA,NA
360551,"PO BOX 905","BELFAIR","WA",98528,NA,NA,51,"PO BOX 905, BELFAIR, WA, 98528","No_Match",NA,NA,NA,NA
360552,"PO BOX 905","BURKBURNETT","TX",76354,NA,NA,52,"PO BOX 905, BURKBURNETT, TX, 76354","No_Match",NA,NA,NA,NA
360553,"PO BOX 905","DYERSBURG","TN",38025,NA,NA,53,"PO BOX 905, DYERSBURG, TN, 38025","No_Match",NA,NA,NA,NA
360554,"PO BOX 905","ESCANABA","MI",49829,NA,NA,54,"PO BOX 905, ESCANABA, MI, 49829","No_Match",NA,NA,NA,NA
360555,"PO BOX 905","HUTTO","TX",78634,NA,NA,55,"PO BOX 905, HUTTO, TX, 78634","No_Match",NA,NA,NA,NA
360556,"PO BOX 905","LEBANON","NH",3766,NA,NA,56,"PO BOX 905, LEBANON, NH, 3766","No_Match",NA,NA,NA,NA
360557,"PO BOX 905","LEBANON","VA",24266,NA,NA,57,"PO BOX 905, LEBANON, VA, 24266","No_Match",NA,NA,NA,NA
360558,"PO BOX 905","NEW YORK","NY",10024,NA,NA,58,"PO BOX 905, NEW YORK, NY, 10024","No_Match",NA,NA,NA,NA
360559,"PO BOX 905","SAVANNAH","GA",31402,NA,NA,59,"PO BOX 905, SAVANNAH, GA, 31402","No_Match",NA,NA,NA,NA
360560,"PO BOX 905","SUN PRAIRIE","WI",53590,NA,NA,60,"PO BOX 905, SUN PRAIRIE, WI, 53590","No_Match",NA,NA,NA,NA
360561,"PO BOX 905","YREKA","CA",96097,NA,NA,61,"PO BOX 905, YREKA, CA, 96097","No_Match",NA,NA,NA,NA
360562,"PO BOX 90503","PORTLAND","OR",97266,NA,NA,62,"PO BOX 90503, PORTLAND, OR, 97266","No_Match",NA,NA,NA,NA
360563,"PO BOX 9051","CEDAR RAPIDS","IA",52409,NA,NA,63,"PO BOX 9051, CEDAR RAPIDS, IA, 52409","No_Match",NA,NA,NA,NA
360564,"PO BOX 90512","SIOUX FALLS","SD",57109,NA,NA,64,"PO BOX 90512, SIOUX FALLS, SD, 57109","No_Match",NA,NA,NA,NA
360565,"PO BOX 90514","WASHINGTON","DC",20018,NA,NA,65,"PO BOX 90514, WASHINGTON, DC, 20018","No_Match",NA,NA,NA,NA
360566,"PO BOX 90533","COLUMBIA","SC",29290,NA,NA,66,"PO BOX 90533, COLUMBIA, SC, 29290","No_Match",NA,NA,NA,NA
360567,"PO BOX 9055","BENTON HARBOR","MI",49023,NA,NA,67,"PO BOX 9055, BENTON HARBOR, MI, 49023","No_Match",NA,NA,NA,NA
360568,"PO BOX 90567","ANCHORAGE","AK",99509,NA,NA,68,"PO BOX 90567, ANCHORAGE, AK, 99509","No_Match",NA,NA,NA,NA
360569,"PO BOX 906","GLOBE","AZ",85502,NA,NA,69,"PO BOX 906, GLOBE, AZ, 85502","No_Match",NA,NA,NA,NA
360570,"PO BOX 906","GREENVILLE","RI",2828,NA,NA,70,"PO BOX 906, GREENVILLE, RI, 2828","No_Match",NA,NA,NA,NA
360571,"PO BOX 906","GUERNEVILLE","CA",95446,NA,NA,71,"PO BOX 906, GUERNEVILLE, CA, 95446","No_Match",NA,NA,NA,NA
360572,"PO BOX 906","HUNTINGTOWN","MD",20639,NA,NA,72,"PO BOX 906, HUNTINGTOWN, MD, 20639","No_Match",NA,NA,NA,NA
360573,"PO BOX 906","KEKAHA","HI",96752,NA,NA,73,"PO BOX 906, KEKAHA, HI, 96752","No_Match",NA,NA,NA,NA
360574,"PO BOX 906","SOUTHFIELD","MI",48037,NA,NA,74,"PO BOX 906, SOUTHFIELD, MI, 48037","No_Match",NA,NA,NA,NA
360575,"PO BOX 906","SUN PRAIRIE","WI",53590,NA,NA,75,"PO BOX 906, SUN PRAIRIE, WI, 53590","No_Match",NA,NA,NA,NA
360576,"PO BOX 906","VERNON","NJ",7462,NA,NA,76,"PO BOX 906, VERNON, NJ, 7462","No_Match",NA,NA,NA,NA
360577,"PO BOX 906","VOLCANO","HI",96785,NA,NA,77,"PO BOX 906, VOLCANO, HI, 96785","No_Match",NA,NA,NA,NA
360578,"PO BOX 9061","PAGO PAGO","AS",96799,NA,NA,78,"PO BOX 9061, PAGO PAGO, AS, 96799","No_Match",NA,NA,NA,NA
360579,"PO BOX 9062","ERIE","PA",16505,NA,NA,79,"PO BOX 9062, ERIE, PA, 16505","No_Match",NA,NA,NA,NA
360580,"PO BOX 90625","SIOUX FALLS","SD",57109,NA,NA,80,"PO BOX 90625, SIOUX FALLS, SD, 57109","No_Match",NA,NA,NA,NA
360581,"PO BOX 90628","WASHINGTON","DC",20090,NA,NA,81,"PO BOX 90628, WASHINGTON, DC, 20090","No_Match",NA,NA,NA,NA
360582,"PO BOX 9063","MASARYKTOWN","FL",34604,NA,NA,82,"PO BOX 9063, MASARYKTOWN, FL, 34604","No_Match",NA,NA,NA,NA
360583,"PO BOX 90633","LAKELAND","FL",33804,NA,NA,83,"PO BOX 90633, LAKELAND, FL, 33804","No_Match",NA,NA,NA,NA
360584,"PO BOX 90638","AUSTIN","TX",78709,NA,NA,84,"PO BOX 90638, AUSTIN, TX, 78709","No_Match",NA,NA,NA,NA
360585,"PO BOX 9064","BEAUFORT","SC",29904,NA,NA,85,"PO BOX 9064, BEAUFORT, SC, 29904","No_Match",NA,NA,NA,NA
360586,"PO BOX 90641","ALEXANDRIA","VA",22309,NA,NA,86,"PO BOX 90641, ALEXANDRIA, VA, 22309","No_Match",NA,NA,NA,NA
360587,"PO BOX 90645","MILWAUKEE","WI",53209,NA,NA,87,"PO BOX 90645, MILWAUKEE, WI, 53209","No_Match",NA,NA,NA,NA
360588,"PO BOX 90672","ATLANTA","GA",30364,NA,NA,88,"PO BOX 90672, ATLANTA, GA, 30364","No_Match",NA,NA,NA,NA
360589,"PO BOX 907","FORTSON","GA",31808,NA,NA,89,"PO BOX 907, FORTSON, GA, 31808","No_Match",NA,NA,NA,NA
360590,"PO BOX 907","GARDINER","ME",4345,NA,NA,90,"PO BOX 907, GARDINER, ME, 4345","No_Match",NA,NA,NA,NA
360591,"PO BOX 907","GLENDALE","OR",97442,NA,NA,91,"PO BOX 907, GLENDALE, OR, 97442","No_Match",NA,NA,NA,NA
360592,"PO BOX 907","HIGHLAND CITY","FL",33846,NA,NA,92,"PO BOX 907, HIGHLAND CITY, FL, 33846","No_Match",NA,NA,NA,NA
360593,"PO BOX 907","KENBRIDGE","VA",23944,NA,NA,93,"PO BOX 907, KENBRIDGE, VA, 23944","No_Match",NA,NA,NA,NA
360594,"PO BOX 907","RIPLEY","WV",25271,NA,NA,94,"PO BOX 907, RIPLEY, WV, 25271","No_Match",NA,NA,NA,NA
360595,"PO BOX 907","WINDOW ROCK","AZ",86515,NA,NA,95,"PO BOX 907, WINDOW ROCK, AZ, 86515","No_Match",NA,NA,NA,NA
360596,"PO BOX 90715","HENDERSON","NV",89009,NA,NA,96,"PO BOX 90715, HENDERSON, NV, 89009","No_Match",NA,NA,NA,NA
360597,"PO BOX 90721","SANTA BARBARA","CA",93190,NA,NA,97,"PO BOX 90721, SANTA BARBARA, CA, 93190","No_Match",NA,NA,NA,NA
360598,"PO BOX 9073","WATERBURY","CT",6724,NA,NA,98,"PO BOX 9073, WATERBURY, CT, 6724","No_Match",NA,NA,NA,NA
360599,"PO BOX 90734","PHOENIX","AZ",85066,NA,NA,99,"PO BOX 90734, PHOENIX, AZ, 85066","No_Match",NA,NA,NA,NA
360600,"PO BOX 9074","REDLANDS","CA",92375,NA,NA,100,"PO BOX 9074, REDLANDS, CA, 92375","No_Match",NA,NA,NA,NA
360601,"PO BOX 9074","SPRINGFIELD","IL",62704,NA,NA,101,"PO BOX 9074, SPRINGFIELD, IL, 62704","No_Match",NA,NA,NA,NA
360602,"PO BOX 9075","SEATTLE","WA",98109,NA,NA,102,"PO BOX 9075, SEATTLE, WA, 98109","No_Match",NA,NA,NA,NA
360603,"PO BOX 90787","ANCHORAGE","AK",99509,NA,NA,103,"PO BOX 90787, ANCHORAGE, AK, 99509","No_Match",NA,NA,NA,NA
360604,"PO BOX 90794","EAST POINT","GA",30296,NA,NA,104,"PO BOX 90794, EAST POINT, GA, 30296","No_Match",NA,NA,NA,NA
360605,"PO BOX 908","BODEGA BAY","CA",94923,NA,NA,105,"PO BOX 908, BODEGA BAY, CA, 94923","No_Match",NA,NA,NA,NA
360606,"PO BOX 908","HOLLAND","OH",43528,NA,NA,106,"PO BOX 908, HOLLAND, OH, 43528","No_Match",NA,NA,NA,NA
360607,"PO BOX 908","LANSDOWNE","PA",19050,NA,NA,107,"PO BOX 908, LANSDOWNE, PA, 19050","No_Match",NA,NA,NA,NA
360608,"PO BOX 908","METROPOLIS","IL",62960,NA,NA,108,"PO BOX 908, METROPOLIS, IL, 62960","No_Match",NA,NA,NA,NA
360609,"PO BOX 908","PASO ROBLES","CA",93446,NA,NA,109,"PO BOX 908, PASO ROBLES, CA, 93446","No_Match",NA,NA,NA,NA
360610,"PO BOX 908","PULLMAN","WA",99163,NA,NA,110,"PO BOX 908, PULLMAN, WA, 99163","No_Match",NA,NA,NA,NA
360611,"PO BOX 908","SISTERS","OR",97759,NA,NA,111,"PO BOX 908, SISTERS, OR, 97759","No_Match",NA,NA,NA,NA
360612,"PO BOX 90816","LAFAYETTE","LA",70509,NA,NA,112,"PO BOX 90816, LAFAYETTE, LA, 70509","No_Match",NA,NA,NA,NA
360613,"PO BOX 90816","LONG BEACH","CA",90809,NA,NA,113,"PO BOX 90816, LONG BEACH, CA, 90809","No_Match",NA,NA,NA,NA
360614,"PO BOX 90835","HOUSTON","TX",77290,NA,NA,114,"PO BOX 90835, HOUSTON, TX, 77290","No_Match",NA,NA,NA,NA
360615,"PO BOX 90847","ANCHORAGE","AK",99509,NA,NA,115,"PO BOX 90847, ANCHORAGE, AK, 99509","No_Match",NA,NA,NA,NA
360616,"PO BOX 9085","SALT LAKE CITY","UT",84109,NA,NA,116,"PO BOX 9085, SALT LAKE CITY, UT, 84109","No_Match",NA,NA,NA,NA
360617,"PO BOX 909","ALPINE","CA",91903,NA,NA,117,"PO BOX 909, ALPINE, CA, 91903","No_Match",NA,NA,NA,NA
360618,"PO BOX 909","HOT SPRINGS","AR",71902,NA,NA,118,"PO BOX 909, HOT SPRINGS, AR, 71902","No_Match",NA,NA,NA,NA
360619,"PO BOX 909","JOHN DAY","OR",97845,NA,NA,119,"PO BOX 909, JOHN DAY, OR, 97845","No_Match",NA,NA,NA,NA
360620,"PO BOX 909","MOUNTAINAIR","NM",87036,NA,NA,120,"PO BOX 909, MOUNTAINAIR, NM, 87036","No_Match",NA,NA,NA,NA
360621,"PO BOX 909","NESKOWIN","OR",97149,NA,NA,121,"PO BOX 909, NESKOWIN, OR, 97149","No_Match",NA,NA,NA,NA
360622,"PO BOX 909","TENINO","WA",98589,NA,NA,122,"PO BOX 909, TENINO, WA, 98589","No_Match",NA,NA,NA,NA
360623,"PO BOX 909","TRAVERSE CITY","MI",49685,NA,NA,123,"PO BOX 909, TRAVERSE CITY, MI, 49685","No_Match",NA,NA,NA,NA
360624,"PO BOX 909","WAVERLY","NY",14892,NA,NA,124,"PO BOX 909, WAVERLY, NY, 14892","No_Match",NA,NA,NA,NA
360625,"PO BOX 90901","SPRINGFIELD","MA",1139,NA,NA,125,"PO BOX 90901, SPRINGFIELD, MA, 1139","No_Match",NA,NA,NA,NA
360626,"PO BOX 9091","TACOMA","WA",98490,NA,NA,126,"PO BOX 9091, TACOMA, WA, 98490","No_Match",NA,NA,NA,NA
360627,"PO BOX 9096","RED BLUFF","CA",96080,NA,NA,127,"PO BOX 9096, RED BLUFF, CA, 96080","No_Match",NA,NA,NA,NA
360628,"PO BOX 9098","COLLEGE STATION","TX",77842,NA,NA,128,"PO BOX 9098, COLLEGE STATION, TX, 77842","No_Match",NA,NA,NA,NA
360629,"PO BOX 9098","NEW IBERIA","LA",70562,NA,NA,129,"PO BOX 9098, NEW IBERIA, LA, 70562","No_Match",NA,NA,NA,NA
360630,"PO BOX 90990","PHOENIX","AZ",85006,NA,NA,130,"PO BOX 90990, PHOENIX, AZ, 85006","No_Match",NA,NA,NA,NA
360631,"PO BOX 90994","HOUSTON","TX",77290,NA,NA,131,"PO BOX 90994, HOUSTON, TX, 77290","No_Match",NA,NA,NA,NA
360632,"PO BOX 91 WYKAGYL STATION","NEW ROCHELLE","NY",10804,NA,NA,132,"PO BOX 91 WYKAGYL STATION, NEW ROCHELLE, NY, 10804","Tie",NA,NA,NA,NA
360633,"PO BOX 91","ANNAPOLIS","MD",21404,NA,NA,133,"PO BOX 91, ANNAPOLIS, MD, 21404","No_Match",NA,NA,NA,NA
360634,"PO BOX 91","CARMEL","TX",10512,NA,NA,134,"PO BOX 91, CARMEL, TX, 10512","No_Match",NA,NA,NA,NA
360635,"PO BOX 91","CUBA","MO",65453,NA,NA,135,"PO BOX 91, CUBA, MO, 65453","No_Match",NA,NA,NA,NA
360636,"PO BOX 91","DE LEON","TX",76444,NA,NA,136,"PO BOX 91, DE LEON, TX, 76444","No_Match",NA,NA,NA,NA
360637,"PO BOX 91","DUNN LORING","VA",22027,NA,NA,137,"PO BOX 91, DUNN LORING, VA, 22027","No_Match",NA,NA,NA,NA
360638,"PO BOX 91","EAST CHICAGO","IN",46312,NA,NA,138,"PO BOX 91, EAST CHICAGO, IN, 46312","No_Match",NA,NA,NA,NA
360639,"PO BOX 91","EDGEMONT","SD",57735,NA,NA,139,"PO BOX 91, EDGEMONT, SD, 57735","No_Match",NA,NA,NA,NA
360640,"PO BOX 91","GRAND LEDGE","MI",48837,NA,NA,140,"PO BOX 91, GRAND LEDGE, MI, 48837","No_Match",NA,NA,NA,NA
360641,"PO BOX 91","GRAPEVINE","TX",76099,NA,NA,141,"PO BOX 91, GRAPEVINE, TX, 76099","No_Match",NA,NA,NA,NA
360642,"PO BOX 91","GREENWOOD","ME",4255,NA,NA,142,"PO BOX 91, GREENWOOD, ME, 4255","No_Match",NA,NA,NA,NA
360643,"PO BOX 91","HAMLER","OH",43524,NA,NA,143,"PO BOX 91, HAMLER, OH, 43524","No_Match",NA,NA,NA,NA
360644,"PO BOX 91","HANALEI","HI",96714,NA,NA,144,"PO BOX 91, HANALEI, HI, 96714","No_Match",NA,NA,NA,NA
360645,"PO BOX 91","HENRIETTA","TX",76365,NA,NA,145,"PO BOX 91, HENRIETTA, TX, 76365","No_Match",NA,NA,NA,NA
360646,"PO BOX 91","INDIANOLA","MS",38751,NA,NA,146,"PO BOX 91, INDIANOLA, MS, 38751","No_Match",NA,NA,NA,NA
360647,"PO BOX 91","KINDRED","ND",58051,NA,NA,147,"PO BOX 91, KINDRED, ND, 58051","No_Match",NA,NA,NA,NA
360648,"PO BOX 91","LOTT","TX",76656,NA,NA,148,"PO BOX 91, LOTT, TX, 76656","No_Match",NA,NA,NA,NA
360649,"PO BOX 91","MELBOURNE","FL",32902,NA,NA,149,"PO BOX 91, MELBOURNE, FL, 32902","No_Match",NA,NA,NA,NA
360650,"PO BOX 91","MILTON","VT",5468,NA,NA,150,"PO BOX 91, MILTON, VT, 5468","No_Match",NA,NA,NA,NA
360651,"PO BOX 91","NEW HAVEN","MO",63068,NA,NA,151,"PO BOX 91, NEW HAVEN, MO, 63068","No_Match",NA,NA,NA,NA
360652,"PO BOX 91","NEWBERRY","FL",32669,NA,NA,152,"PO BOX 91, NEWBERRY, FL, 32669","No_Match",NA,NA,NA,NA
360653,"PO BOX 91","OKLAHOMA CITY","OK",73101,NA,NA,153,"PO BOX 91, OKLAHOMA CITY, OK, 73101","No_Match",NA,NA,NA,NA
360654,"PO BOX 91","OWINGS MILLS","MD",21117,NA,NA,154,"PO BOX 91, OWINGS MILLS, MD, 21117","No_Match",NA,NA,NA,NA
360655,"PO BOX 91","PAXTON","MA",1612,NA,NA,155,"PO BOX 91, PAXTON, MA, 1612","No_Match",NA,NA,NA,NA
360656,"PO BOX 91","ROCKWELL CITY","IA",50579,NA,NA,156,"PO BOX 91, ROCKWELL CITY, IA, 50579","No_Match",NA,NA,NA,NA
360657,"PO BOX 91","RONAN","MT",59864,NA,NA,157,"PO BOX 91, RONAN, MT, 59864","No_Match",NA,NA,NA,NA
360658,"PO BOX 91","SEWARD","NE",68434,NA,NA,158,"PO BOX 91, SEWARD, NE, 68434","No_Match",NA,NA,NA,NA
360659,"PO BOX 91","SHEPARDSVILLE","IN",47880,NA,NA,159,"PO BOX 91, SHEPARDSVILLE, IN, 47880","No_Match",NA,NA,NA,NA
360660,"PO BOX 91","SNOW HILL","NC",28580,NA,NA,160,"PO BOX 91, SNOW HILL, NC, 28580","No_Match",NA,NA,NA,NA
360661,"PO BOX 91","SOLGOHACHIA","AR",72156,NA,NA,161,"PO BOX 91, SOLGOHACHIA, AR, 72156","No_Match",NA,NA,NA,NA
360662,"PO BOX 91","ST JOHN","WA",99171,NA,NA,162,"PO BOX 91, ST JOHN, WA, 99171","No_Match",NA,NA,NA,NA
360663,"PO BOX 91","STAUNTON","IL",62088,NA,NA,163,"PO BOX 91, STAUNTON, IL, 62088","No_Match",NA,NA,NA,NA
360664,"PO BOX 91","VICKSBURG","MI",49097,NA,NA,164,"PO BOX 91, VICKSBURG, MI, 49097","No_Match",NA,NA,NA,NA
360665,"PO BOX 91","WALTERS","OK",73572,NA,NA,165,"PO BOX 91, WALTERS, OK, 73572","No_Match",NA,NA,NA,NA
360666,"PO BOX 91","WESTBROOK","ME",4098,NA,NA,166,"PO BOX 91, WESTBROOK, ME, 4098","No_Match",NA,NA,NA,NA
360667,"PO BOX 91","WINNABOW","NC",28479,NA,NA,167,"PO BOX 91, WINNABOW, NC, 28479","No_Match",NA,NA,NA,NA
360668,"PO BOX 91","WOODSTOCK","VT",5091,NA,NA,168,"PO BOX 91, WOODSTOCK, VT, 5091","No_Match",NA,NA,NA,NA
360669,"PO BOX 910","GOOSE CREEK","SC",29445,NA,NA,169,"PO BOX 910, GOOSE CREEK, SC, 29445","No_Match",NA,NA,NA,NA
360670,"PO BOX 910","MONTPELIER","VT",5601,NA,NA,170,"PO BOX 910, MONTPELIER, VT, 5601","No_Match",NA,NA,NA,NA
360671,"PO BOX 910","NAVASOTA","TX",77868,NA,NA,171,"PO BOX 910, NAVASOTA, TX, 77868","No_Match",NA,NA,NA,NA
360672,"PO BOX 910","REFORM","AL",35481,NA,NA,172,"PO BOX 910, REFORM, AL, 35481","No_Match",NA,NA,NA,NA
360673,"PO BOX 910","RIVERVIEW","FL",33568,NA,NA,173,"PO BOX 910, RIVERVIEW, FL, 33568","No_Match",NA,NA,NA,NA
360674,"PO BOX 91007","COLUMBIA","SC",29290,NA,NA,174,"PO BOX 91007, COLUMBIA, SC, 29290","No_Match",NA,NA,NA,NA
360675,"PO BOX 9101","CORPUS CHRISTI","TX",78469,NA,NA,175,"PO BOX 9101, CORPUS CHRISTI, TX, 78469","No_Match",NA,NA,NA,NA
360676,"PO BOX 91010","COLUMBIA","SC",29290,NA,NA,176,"PO BOX 91010, COLUMBIA, SC, 29290","No_Match",NA,NA,NA,NA
360677,"PO BOX 910283","LEXINGTON","KY",40591,NA,NA,177,"PO BOX 910283, LEXINGTON, KY, 40591","No_Match",NA,NA,NA,NA
360678,"PO BOX 910321","LEXINGTON","KY",40591,NA,NA,178,"PO BOX 910321, LEXINGTON, KY, 40591","No_Match",NA,NA,NA,NA
360679,"PO BOX 91036 BOX 373","HOUSTON","TX",77291,NA,NA,179,"PO BOX 91036 BOX 373, HOUSTON, TX, 77291","No_Match",NA,NA,NA,NA
360680,"PO BOX 91036-373","HOUSTON","TX",77291,NA,NA,180,"PO BOX 91036-373, HOUSTON, TX, 77291","No_Match",NA,NA,NA,NA
360681,"PO BOX 91046","LAFAYETTE","LA",70509,NA,NA,181,"PO BOX 91046, LAFAYETTE, LA, 70509","No_Match",NA,NA,NA,NA
360682,"PO BOX 910552","LEXINGTON","KY",40591,NA,NA,182,"PO BOX 910552, LEXINGTON, KY, 40591","No_Match",NA,NA,NA,NA
360683,"PO BOX 91061","PORTLAND","OR",97291,NA,NA,183,"PO BOX 91061, PORTLAND, OR, 97291","No_Match",NA,NA,NA,NA
360684,"PO BOX 910733","SHERMAN","TX",75091,NA,NA,184,"PO BOX 910733, SHERMAN, TX, 75091","No_Match",NA,NA,NA,NA
360685,"PO BOX 910761","LEXINGTON","KY",40591,NA,NA,185,"PO BOX 910761, LEXINGTON, KY, 40591","No_Match",NA,NA,NA,NA
360686,"PO BOX 91082","ANCHORAGE","AK",99509,NA,NA,186,"PO BOX 91082, ANCHORAGE, AK, 99509","No_Match",NA,NA,NA,NA
360687,"PO BOX 911","BROOKLYN","CT",6234,NA,NA,187,"PO BOX 911, BROOKLYN, CT, 6234","No_Match",NA,NA,NA,NA
360688,"PO BOX 911","BUFFALO","WY",82834,NA,NA,188,"PO BOX 911, BUFFALO, WY, 82834","No_Match",NA,NA,NA,NA
360689,"PO BOX 911","COMMERCE","TX",75428,NA,NA,189,"PO BOX 911, COMMERCE, TX, 75428","No_Match",NA,NA,NA,NA
360690,"PO BOX 911","DARDANELLE","AR",72834,NA,NA,190,"PO BOX 911, DARDANELLE, AR, 72834","No_Match",NA,NA,NA,NA
360691,"PO BOX 911","FAYETTE","AL",35555,NA,NA,191,"PO BOX 911, FAYETTE, AL, 35555","No_Match",NA,NA,NA,NA
360692,"PO BOX 911","HEREFORD","AZ",85615,NA,NA,192,"PO BOX 911, HEREFORD, AZ, 85615","No_Match",NA,NA,NA,NA
360693,"PO BOX 911","JUDSONIA","AR",72081,NA,NA,193,"PO BOX 911, JUDSONIA, AR, 72081","No_Match",NA,NA,NA,NA
360694,"PO BOX 911","MERTON","WI",53056,NA,NA,194,"PO BOX 911, MERTON, WI, 53056","No_Match",NA,NA,NA,NA
360695,"PO BOX 911","MILLVILLE","MA",1529,NA,NA,195,"PO BOX 911, MILLVILLE, MA, 1529","No_Match",NA,NA,NA,NA
360696,"PO BOX 911","NEDERLAND","CO",80466,NA,NA,196,"PO BOX 911, NEDERLAND, CO, 80466","No_Match",NA,NA,NA,NA
360697,"PO BOX 911","NEW ROADS","LA",70760,NA,NA,197,"PO BOX 911, NEW ROADS, LA, 70760","No_Match",NA,NA,NA,NA
360698,"PO BOX 911","OHKAY OWINGEH","NM",87566,NA,NA,198,"PO BOX 911, OHKAY OWINGEH, NM, 87566","No_Match",NA,NA,NA,NA
360699,"PO BOX 911","REDAN","GA",30074,NA,NA,199,"PO BOX 911, REDAN, GA, 30074","No_Match",NA,NA,NA,NA
360700,"PO BOX 911","SAN BRUNO","CA",94066,NA,NA,200,"PO BOX 911, SAN BRUNO, CA, 94066","No_Match",NA,NA,NA,NA
360701,"PO BOX 911","TOLLESON","AZ",85043,NA,NA,201,"PO BOX 911, TOLLESON, AZ, 85043","No_Match",NA,NA,NA,NA
360702,"PO BOX 911","VALRICO","FL",33595,NA,NA,202,"PO BOX 911, VALRICO, FL, 33595","No_Match",NA,NA,NA,NA
360703,"PO BOX 911052","SAINT GEORGE","UT",84791,NA,NA,203,"PO BOX 911052, SAINT GEORGE, UT, 84791","No_Match",NA,NA,NA,NA
360704,"PO BOX 91122","RALEIGH","NC",27675,NA,NA,204,"PO BOX 91122, RALEIGH, NC, 27675","No_Match",NA,NA,NA,NA
360705,"PO BOX 9113","JUPITER","FL",33468,NA,NA,205,"PO BOX 9113, JUPITER, FL, 33468","No_Match",NA,NA,NA,NA
360706,"PO BOX 911350","WAIALUA","HI",96791,NA,NA,206,"PO BOX 911350, WAIALUA, HI, 96791","No_Match",NA,NA,NA,NA
360707,"PO BOX 9114","COLUMBIA","SC",29290,NA,NA,207,"PO BOX 9114, COLUMBIA, SC, 29290","No_Match",NA,NA,NA,NA
360708,"PO BOX 9115","NEW HAVEN","CT",6532,NA,NA,208,"PO BOX 9115, NEW HAVEN, CT, 6532","No_Match",NA,NA,NA,NA
360709,"PO BOX 91176","PASADENA","CA",91109,NA,NA,209,"PO BOX 91176, PASADENA, CA, 91109","No_Match",NA,NA,NA,NA
360710,"PO BOX 91179","PASADENA","CA",91109,NA,NA,210,"PO BOX 91179, PASADENA, CA, 91109","No_Match",NA,NA,NA,NA
360711,"PO BOX 9118","HOT SPRINGS VILLAGE","AR",71910,NA,NA,211,"PO BOX 9118, HOT SPRINGS VILLAGE, AR, 71910","No_Match",NA,NA,NA,NA
360712,"PO BOX 91186","LAKELAND","FL",33804,NA,NA,212,"PO BOX 91186, LAKELAND, FL, 33804","No_Match",NA,NA,NA,NA
360713,"PO BOX 912","CAMAS","WA",98607,NA,NA,213,"PO BOX 912, CAMAS, WA, 98607","No_Match",NA,NA,NA,NA
360714,"PO BOX 912","COLTON","CA",92324,NA,NA,214,"PO BOX 912, COLTON, CA, 92324","No_Match",NA,NA,NA,NA
360715,"PO BOX 912","DAWSONVILLE","GA",30534,NA,NA,215,"PO BOX 912, DAWSONVILLE, GA, 30534","No_Match",NA,NA,NA,NA
360716,"PO BOX 912","GREENBELT","MD",20768,NA,NA,216,"PO BOX 912, GREENBELT, MD, 20768","No_Match",NA,NA,NA,NA
360717,"PO BOX 912","JACKSONVILLE","OR",97530,NA,NA,217,"PO BOX 912, JACKSONVILLE, OR, 97530","No_Match",NA,NA,NA,NA
360718,"PO BOX 912","JENISON","MI",49429,NA,NA,218,"PO BOX 912, JENISON, MI, 49429","No_Match",NA,NA,NA,NA
360719,"PO BOX 912","JENKS","OK",74037,NA,NA,219,"PO BOX 912, JENKS, OK, 74037","No_Match",NA,NA,NA,NA
360720,"PO BOX 912","JOHN DAY","OR",97845,NA,NA,220,"PO BOX 912, JOHN DAY, OR, 97845","No_Match",NA,NA,NA,NA
360721,"PO BOX 912","NEW PORT RICHEY","FL",34656,NA,NA,221,"PO BOX 912, NEW PORT RICHEY, FL, 34656","No_Match",NA,NA,NA,NA
360722,"PO BOX 912","ZANESVILLE","OH",43701,NA,NA,222,"PO BOX 912, ZANESVILLE, OH, 43701","No_Match",NA,NA,NA,NA
360723,"PO BOX 912","ZANESVILLE","OH",43702,NA,NA,223,"PO BOX 912, ZANESVILLE, OH, 43702","No_Match",NA,NA,NA,NA
360724,"PO BOX 91203","EAST POINT","GA",30364,NA,NA,224,"PO BOX 91203, EAST POINT, GA, 30364","No_Match",NA,NA,NA,NA
360725,"PO BOX 91223","MILWAUKEE","WI",53209,NA,NA,225,"PO BOX 91223, MILWAUKEE, WI, 53209","No_Match",NA,NA,NA,NA
360726,"PO BOX 9124","ST THOMAS","VI",801,NA,NA,226,"PO BOX 9124, ST THOMAS, VI, 801","No_Match",NA,NA,NA,NA
360727,"PO BOX 91252","SIOUX FALLS","SD",57109,NA,NA,227,"PO BOX 91252, SIOUX FALLS, SD, 57109","No_Match",NA,NA,NA,NA
360728,"PO BOX 91255","MILWAUKEE","WI",53209,NA,NA,228,"PO BOX 91255, MILWAUKEE, WI, 53209","No_Match",NA,NA,NA,NA
360729,"PO BOX 9126","COLLEGE STATION","TX",77842,NA,NA,229,"PO BOX 9126, COLLEGE STATION, TX, 77842","No_Match",NA,NA,NA,NA
360730,"PO BOX 91278","BEXLEY","OH",43209,NA,NA,230,"PO BOX 91278, BEXLEY, OH, 43209","No_Match",NA,NA,NA,NA
360731,"PO BOX 91284","WASHINGTON","DC",20090,NA,NA,231,"PO BOX 91284, WASHINGTON, DC, 20090","No_Match",NA,NA,NA,NA
360732,"PO BOX 9129","SALT LAKE CITY","UT",84109,NA,NA,232,"PO BOX 9129, SALT LAKE CITY, UT, 84109","No_Match",NA,NA,NA,NA
360733,"PO BOX 913","ARCADE","NY",14049,NA,NA,233,"PO BOX 913, ARCADE, NY, 14049","No_Match",NA,NA,NA,NA
360734,"PO BOX 913","BURKESVILLE","KY",42717,NA,NA,234,"PO BOX 913, BURKESVILLE, KY, 42717","No_Match",NA,NA,NA,NA
360735,"PO BOX 913","HILLSBORO","OR",97123,NA,NA,235,"PO BOX 913, HILLSBORO, OR, 97123","No_Match",NA,NA,NA,NA
360736,"PO BOX 913","MADISON","AL",35758,NA,NA,236,"PO BOX 913, MADISON, AL, 35758","No_Match",NA,NA,NA,NA
360737,"PO BOX 913","NEW YORK","NY",10027,NA,NA,237,"PO BOX 913, NEW YORK, NY, 10027","No_Match",NA,NA,NA,NA
360738,"PO BOX 913","NORMAN","OK",73070,NA,NA,238,"PO BOX 913, NORMAN, OK, 73070","No_Match",NA,NA,NA,NA
360739,"PO BOX 913","OXFORD","NC",27565,NA,NA,239,"PO BOX 913, OXFORD, NC, 27565","No_Match",NA,NA,NA,NA
360740,"PO BOX 913","ST CHARLES","IL",60174,NA,NA,240,"PO BOX 913, ST CHARLES, IL, 60174","No_Match",NA,NA,NA,NA
360741,"PO BOX 9131","JUPITER","FL",33468,NA,NA,241,"PO BOX 9131, JUPITER, FL, 33468","No_Match",NA,NA,NA,NA
360742,"PO BOX 91314","ATLANTA","GA",30364,NA,NA,242,"PO BOX 91314, ATLANTA, GA, 30364","No_Match",NA,NA,NA,NA
360743,"PO BOX 91321","RALEIGH","NC",27675,NA,NA,243,"PO BOX 91321, RALEIGH, NC, 27675","No_Match",NA,NA,NA,NA
360744,"PO BOX 9134","SURPRISE","AZ",85374,NA,NA,244,"PO BOX 9134, SURPRISE, AZ, 85374","No_Match",NA,NA,NA,NA
360745,"PO BOX 9135","RED BLUFF","CA",96080,NA,NA,245,"PO BOX 9135, RED BLUFF, CA, 96080","No_Match",NA,NA,NA,NA
360746,"PO BOX 91352","MILWAUKEE","WI",53209,NA,NA,246,"PO BOX 91352, MILWAUKEE, WI, 53209","No_Match",NA,NA,NA,NA
360747,"PO BOX 91365","COLUMBUS","OH",43209,NA,NA,247,"PO BOX 91365, COLUMBUS, OH, 43209","No_Match",NA,NA,NA,NA
360748,"PO BOX 91386","HENDERSON","NV",89009,NA,NA,248,"PO BOX 91386, HENDERSON, NV, 89009","No_Match",NA,NA,NA,NA
360749,"PO BOX 91393","EAST POINT","GA",30364,NA,NA,249,"PO BOX 91393, EAST POINT, GA, 30364","No_Match",NA,NA,NA,NA
360750,"PO BOX 914","KITTITAS","WA",98934,NA,NA,250,"PO BOX 914, KITTITAS, WA, 98934","No_Match",NA,NA,NA,NA
360751,"PO BOX 914","LIGONIER","PA",15658,NA,NA,251,"PO BOX 914, LIGONIER, PA, 15658","No_Match",NA,NA,NA,NA
360752,"PO BOX 914","MADISON","MS",39130,NA,NA,252,"PO BOX 914, MADISON, MS, 39130","No_Match",NA,NA,NA,NA
360753,"PO BOX 914","PENDLETON","OR",97801,NA,NA,253,"PO BOX 914, PENDLETON, OR, 97801","No_Match",NA,NA,NA,NA
360754,"PO BOX 914","PORT ST JOE","FL",32457,NA,NA,254,"PO BOX 914, PORT ST JOE, FL, 32457","No_Match",NA,NA,NA,NA
360755,"PO BOX 914","TROY","OH",45373,NA,NA,255,"PO BOX 914, TROY, OH, 45373","No_Match",NA,NA,NA,NA
360756,"PO BOX 91406","SANTA BARBARA","CA",93190,NA,NA,256,"PO BOX 91406, SANTA BARBARA, CA, 93190","No_Match",NA,NA,NA,NA
360757,"PO BOX 91408","EAST RIDGE","TN",37412,NA,NA,257,"PO BOX 91408, EAST RIDGE, TN, 37412","No_Match",NA,NA,NA,NA
360758,"PO BOX 9141","PENSACOLA","FL",32513,NA,NA,258,"PO BOX 9141, PENSACOLA, FL, 32513","No_Match",NA,NA,NA,NA
360759,"PO BOX 91411","HENDERSON","NV",89009,NA,NA,259,"PO BOX 91411, HENDERSON, NV, 89009","No_Match",NA,NA,NA,NA
360760,"PO BOX 91411","LOS ANGELES","CA",90009,NA,NA,260,"PO BOX 91411, LOS ANGELES, CA, 90009","No_Match",NA,NA,NA,NA
360761,"PO BOX 91413","ALBUQUERQUE","NM",87199,NA,NA,261,"PO BOX 91413, ALBUQUERQUE, NM, 87199","No_Match",NA,NA,NA,NA
360762,"PO BOX 91432","WASHINGTON","DC",20090,NA,NA,262,"PO BOX 91432, WASHINGTON, DC, 20090","No_Match",NA,NA,NA,NA
360763,"PO BOX 9144","SURPRISE","AZ",85374,NA,NA,263,"PO BOX 9144, SURPRISE, AZ, 85374","No_Match",NA,NA,NA,NA
360764,"PO BOX 91446","PASADENA","CA",91109,NA,NA,264,"PO BOX 91446, PASADENA, CA, 91109","No_Match",NA,NA,NA,NA
360765,"PO BOX 91462","HENDERSON","NV",89009,NA,NA,265,"PO BOX 91462, HENDERSON, NV, 89009","No_Match",NA,NA,NA,NA
360766,"PO BOX 9149","FORT WAYNE","IN",46899,NA,NA,266,"PO BOX 9149, FORT WAYNE, IN, 46899","No_Match",NA,NA,NA,NA
360767,"PO BOX 9149","JACKSON","SD",83002,NA,NA,267,"PO BOX 9149, JACKSON, SD, 83002","No_Match",NA,NA,NA,NA
360768,"PO BOX 91494","WASHINGTON","DC",20090,NA,NA,268,"PO BOX 91494, WASHINGTON, DC, 20090","No_Match",NA,NA,NA,NA
360769,"PO BOX 915","ALABASTER","AL",35007,NA,NA,269,"PO BOX 915, ALABASTER, AL, 35007","No_Match",NA,NA,NA,NA
360770,"PO BOX 915","MONTGOMERY","TX",77356,NA,NA,270,"PO BOX 915, MONTGOMERY, TX, 77356","No_Match",NA,NA,NA,NA
360771,"PO BOX 915","NAMPA","ID",83653,NA,NA,271,"PO BOX 915, NAMPA, ID, 83653","No_Match",NA,NA,NA,NA
360772,"PO BOX 915","SHELBY","MT",59474,NA,NA,272,"PO BOX 915, SHELBY, MT, 59474","No_Match",NA,NA,NA,NA
360773,"PO BOX 915","SPRING VALLEY","CA",91976,NA,NA,273,"PO BOX 915, SPRING VALLEY, CA, 91976","No_Match",NA,NA,NA,NA
360774,"PO BOX 915","TUSTIN","CA",92781,NA,NA,274,"PO BOX 915, TUSTIN, CA, 92781","No_Match",NA,NA,NA,NA
360775,"PO BOX 91501","SANTA BARBARA","CA",93190,NA,NA,275,"PO BOX 91501, SANTA BARBARA, CA, 93190","No_Match",NA,NA,NA,NA
360776,"PO BOX 9151","NORTH LITTLE ROCK","AR",72119,NA,NA,276,"PO BOX 9151, NORTH LITTLE ROCK, AR, 72119","No_Match",NA,NA,NA,NA
360777,"PO BOX 91515","WASHINGTON","DC",20090,NA,NA,277,"PO BOX 91515, WASHINGTON, DC, 20090","No_Match",NA,NA,NA,NA
360778,"PO BOX 9153","PHOENIX","AZ",85068,NA,NA,278,"PO BOX 9153, PHOENIX, AZ, 85068","No_Match",NA,NA,NA,NA
360779,"PO BOX 91566","ALBUQUERQUE","NM",87199,NA,NA,279,"PO BOX 91566, ALBUQUERQUE, NM, 87199","No_Match",NA,NA,NA,NA
360780,"PO BOX 91578","WASHINGTON","DC",20090,NA,NA,280,"PO BOX 91578, WASHINGTON, DC, 20090","No_Match",NA,NA,NA,NA
360781,"PO BOX 916","ALDERSON","WV",24910,NA,NA,281,"PO BOX 916, ALDERSON, WV, 24910","No_Match",NA,NA,NA,NA
360782,"PO BOX 916","BERWICK","ME",3901,NA,NA,282,"PO BOX 916, BERWICK, ME, 3901","No_Match",NA,NA,NA,NA
360783,"PO BOX 916","CLE ELUM","WA",98922,NA,NA,283,"PO BOX 916, CLE ELUM, WA, 98922","No_Match",NA,NA,NA,NA
360784,"PO BOX 916","KAMUELA","HI",96743,NA,NA,284,"PO BOX 916, KAMUELA, HI, 96743","No_Match",NA,NA,NA,NA
360785,"PO BOX 916","LAUREL","MD",20725,NA,NA,285,"PO BOX 916, LAUREL, MD, 20725","No_Match",NA,NA,NA,NA
360786,"PO BOX 916","OLIVE BRANCH","MS",38654,NA,NA,286,"PO BOX 916, OLIVE BRANCH, MS, 38654","No_Match",NA,NA,NA,NA
360787,"PO BOX 916","PEA RIDGE","AR",72751,NA,NA,287,"PO BOX 916, PEA RIDGE, AR, 72751","No_Match",NA,NA,NA,NA
360788,"PO BOX 9161","ALLENTOWN","PA",18103,NA,NA,288,"PO BOX 9161, ALLENTOWN, PA, 18103","No_Match",NA,NA,NA,NA
360789,"PO BOX 91614","SIOUX FALLS","SD",57106,NA,NA,289,"PO BOX 91614, SIOUX FALLS, SD, 57106","No_Match",NA,NA,NA,NA
360790,"PO BOX 9162","SPRINGFIELD","IL",62791,NA,NA,290,"PO BOX 9162, SPRINGFIELD, IL, 62791","No_Match",NA,NA,NA,NA
360791,"PO BOX 91636","EAST POINT","GA",30344,NA,NA,291,"PO BOX 91636, EAST POINT, GA, 30344","No_Match",NA,NA,NA,NA
360792,"PO BOX 9164","WICHITA FALLS","TX",76308,NA,NA,292,"PO BOX 9164, WICHITA FALLS, TX, 76308","No_Match",NA,NA,NA,NA
360793,"PO BOX 91648","TUCSON","AZ",85752,NA,NA,293,"PO BOX 91648, TUCSON, AZ, 85752","No_Match",NA,NA,NA,NA
360794,"PO BOX 91653","PORTLAND","OR",97291,NA,NA,294,"PO BOX 91653, PORTLAND, OR, 97291","No_Match",NA,NA,NA,NA
360795,"PO BOX 9166","FLEMING ISLAND","FL",32006,NA,NA,295,"PO BOX 9166, FLEMING ISLAND, FL, 32006","No_Match",NA,NA,NA,NA
360796,"PO BOX 9167","PINE BLUFF","AR",71611,NA,NA,296,"PO BOX 9167, PINE BLUFF, AR, 71611","No_Match",NA,NA,NA,NA
360797,"PO BOX 917","MARYSVILLE","WA",98270,NA,NA,297,"PO BOX 917, MARYSVILLE, WA, 98270","No_Match",NA,NA,NA,NA
360798,"PO BOX 917","TOMBSTONE","AZ",85638,NA,NA,298,"PO BOX 917, TOMBSTONE, AZ, 85638","No_Match",NA,NA,NA,NA
360799,"PO BOX 917","WHITE PLAINS","MD",20695,NA,NA,299,"PO BOX 917, WHITE PLAINS, MD, 20695","No_Match",NA,NA,NA,NA
360800,"PO BOX 9173","PAHRUMP","NV",89060,NA,NA,300,"PO BOX 9173, PAHRUMP, NV, 89060","No_Match",NA,NA,NA,NA
360801,"PO BOX 91738","CITY OF INDUSTRY","CA",91715,NA,NA,301,"PO BOX 91738, CITY OF INDUSTRY, CA, 91715","No_Match",NA,NA,NA,NA
360802,"PO BOX 91738","LOUISVILLE","KY",40291,NA,NA,302,"PO BOX 91738, LOUISVILLE, KY, 40291","No_Match",NA,NA,NA,NA
360803,"PO BOX 91758","WASHINGTON","DC",20090,NA,NA,303,"PO BOX 91758, WASHINGTON, DC, 20090","No_Match",NA,NA,NA,NA
360804,"PO BOX 91772","LOUISVILLE","KY",40291,NA,NA,304,"PO BOX 91772, LOUISVILLE, KY, 40291","No_Match",NA,NA,NA,NA
360805,"PO BOX 917750","LONGWOOD","FL",32791,NA,NA,305,"PO BOX 917750, LONGWOOD, FL, 32791","No_Match",NA,NA,NA,NA
360806,"PO BOX 9178","NEW HAVEN","CT",6532,NA,NA,306,"PO BOX 9178, NEW HAVEN, CT, 6532","No_Match",NA,NA,NA,NA
360807,"PO BOX 91785","LOS ANGELES","CA",90045,NA,NA,307,"PO BOX 91785, LOS ANGELES, CA, 90045","No_Match",NA,NA,NA,NA
360808,"PO BOX 918","GOLIAD","TX",77963,NA,NA,308,"PO BOX 918, GOLIAD, TX, 77963","No_Match",NA,NA,NA,NA
360809,"PO BOX 918","GRIMES","IA",50111,NA,NA,309,"PO BOX 918, GRIMES, IA, 50111","No_Match",NA,NA,NA,NA
360810,"PO BOX 918","LEVITTOWN","PA",19058,NA,NA,310,"PO BOX 918, LEVITTOWN, PA, 19058","No_Match",NA,NA,NA,NA
360811,"PO BOX 918","OAK GROVE","MO",64075,NA,NA,311,"PO BOX 918, OAK GROVE, MO, 64075","No_Match",NA,NA,NA,NA
360812,"PO BOX 918","OCOEE","FL",34761,NA,NA,312,"PO BOX 918, OCOEE, FL, 34761","No_Match",NA,NA,NA,NA
360813,"PO BOX 918","WATERFORD","CA",95386,NA,NA,313,"PO BOX 918, WATERFORD, CA, 95386","No_Match",NA,NA,NA,NA
360814,"PO BOX 918","WEST FORK","AR",72774,NA,NA,314,"PO BOX 918, WEST FORK, AR, 72774","No_Match",NA,NA,NA,NA
360815,"PO BOX 9181","SAN RAFAEL","CA",90901,NA,NA,315,"PO BOX 9181, SAN RAFAEL, CA, 90901","No_Match",NA,NA,NA,NA
360816,"PO BOX 91817","LOUISVILLE","KY",40291,NA,NA,316,"PO BOX 91817, LOUISVILLE, KY, 40291","No_Match",NA,NA,NA,NA
360817,"PO BOX 91818","PASADENA","CA",91109,NA,NA,317,"PO BOX 91818, PASADENA, CA, 91109","No_Match",NA,NA,NA,NA
360818,"PO BOX 91827","HENDERSON","NV",89009,NA,NA,318,"PO BOX 91827, HENDERSON, NV, 89009","No_Match",NA,NA,NA,NA
360819,"PO BOX 91827","WASHINGTON","DC",20090,NA,NA,319,"PO BOX 91827, WASHINGTON, DC, 20090","No_Match",NA,NA,NA,NA
360820,"PO BOX 9184","COLUMBUS","OH",43209,NA,NA,320,"PO BOX 9184, COLUMBUS, OH, 43209","No_Match",NA,NA,NA,NA
360821,"PO BOX 91841","ATLANTA","GA",30364,NA,NA,321,"PO BOX 91841, ATLANTA, GA, 30364","No_Match",NA,NA,NA,NA
360822,"PO BOX 9187","RAPID CITY","SD",57709,NA,NA,322,"PO BOX 9187, RAPID CITY, SD, 57709","No_Match",NA,NA,NA,NA
360823,"PO BOX 9188","CANTON","OH",44711,NA,NA,323,"PO BOX 9188, CANTON, OH, 44711","No_Match",NA,NA,NA,NA
360824,"PO BOX 9188","COLUMBUS","OH",43209,NA,NA,324,"PO BOX 9188, COLUMBUS, OH, 43209","No_Match",NA,NA,NA,NA
360825,"PO BOX 91892","AUSTIN","TX",78709,NA,NA,325,"PO BOX 91892, AUSTIN, TX, 78709","No_Match",NA,NA,NA,NA
360826,"PO BOX 919","JOHNSON CITY","TX",78636,NA,NA,326,"PO BOX 919, JOHNSON CITY, TX, 78636","No_Match",NA,NA,NA,NA
360827,"PO BOX 9192","CAGUAS","PR",726,NA,NA,327,"PO BOX 9192, CAGUAS, PR, 726","No_Match",NA,NA,NA,NA
360828,"PO BOX 9193","WYOMING","MI",49509,NA,NA,328,"PO BOX 9193, WYOMING, MI, 49509","No_Match",NA,NA,NA,NA
360829,"PO BOX 9195","BROOKS","OR",97305,NA,NA,329,"PO BOX 9195, BROOKS, OR, 97305","No_Match",NA,NA,NA,NA
360830,"PO BOX 9196","ST THOMAS","VI",801,NA,NA,330,"PO BOX 9196, ST THOMAS, VI, 801","No_Match",NA,NA,NA,NA
360831,"PO BOX 92","CLARENCE","NY",14031,NA,NA,331,"PO BOX 92, CLARENCE, NY, 14031","No_Match",NA,NA,NA,NA
360832,"PO BOX 92","DEER CREEK","MN",56527,NA,NA,332,"PO BOX 92, DEER CREEK, MN, 56527","No_Match",NA,NA,NA,NA
360833,"PO BOX 92","DELAVAN","WI",53115,NA,NA,333,"PO BOX 92, DELAVAN, WI, 53115","No_Match",NA,NA,NA,NA
360834,"PO BOX 92","EASTWOOD","KY",40018,NA,NA,334,"PO BOX 92, EASTWOOD, KY, 40018","No_Match",NA,NA,NA,NA
360835,"PO BOX 92","EDISON","OH",43320,NA,NA,335,"PO BOX 92, EDISON, OH, 43320","No_Match",NA,NA,NA,NA
360836,"PO BOX 92","ELLENWOOD","GA",30294,NA,NA,336,"PO BOX 92, ELLENWOOD, GA, 30294","No_Match",NA,NA,NA,NA
360837,"PO BOX 92","ENGLEWOOD","FL",34295,NA,NA,337,"PO BOX 92, ENGLEWOOD, FL, 34295","No_Match",NA,NA,NA,NA
360838,"PO BOX 92","ERIE","CO",80516,NA,NA,338,"PO BOX 92, ERIE, CO, 80516","No_Match",NA,NA,NA,NA
360839,"PO BOX 92","EVERGREEN","CO",80437,NA,NA,339,"PO BOX 92, EVERGREEN, CO, 80437","No_Match",NA,NA,NA,NA
360840,"PO BOX 92","GORHAM","NH",3581,NA,NA,340,"PO BOX 92, GORHAM, NH, 3581","No_Match",NA,NA,NA,NA
360841,"PO BOX 92","HAILEY","ID",83333,NA,NA,341,"PO BOX 92, HAILEY, ID, 83333","No_Match",NA,NA,NA,NA
360842,"PO BOX 92","HITCHCOCK","SD",57348,NA,NA,342,"PO BOX 92, HITCHCOCK, SD, 57348","No_Match",NA,NA,NA,NA
360843,"PO BOX 92","KINGFISHER","OK",73750,NA,NA,343,"PO BOX 92, KINGFISHER, OK, 73750","No_Match",NA,NA,NA,NA
360844,"PO BOX 92","LAVALLETTE","NJ",8735,NA,NA,344,"PO BOX 92, LAVALLETTE, NJ, 8735","No_Match",NA,NA,NA,NA
360845,"PO BOX 92","LIMINGTON","ME",4049,NA,NA,345,"PO BOX 92, LIMINGTON, ME, 4049","No_Match",NA,NA,NA,NA
360846,"PO BOX 92","LOGANVILLE","WI",53943,NA,NA,346,"PO BOX 92, LOGANVILLE, WI, 53943","No_Match",NA,NA,NA,NA
360847,"PO BOX 92","MEAD","OK",73449,NA,NA,347,"PO BOX 92, MEAD, OK, 73449","No_Match",NA,NA,NA,NA
360848,"PO BOX 92","MEDINA","TN",38355,NA,NA,348,"PO BOX 92, MEDINA, TN, 38355","No_Match",NA,NA,NA,NA
360849,"PO BOX 92","MOUNT PLEASANT","TN",38474,NA,NA,349,"PO BOX 92, MOUNT PLEASANT, TN, 38474","No_Match",NA,NA,NA,NA
360850,"PO BOX 92","NEW LONDON","WI",54901,NA,NA,350,"PO BOX 92, NEW LONDON, WI, 54901","No_Match",NA,NA,NA,NA
360851,"PO BOX 92","OAK ISLAND","NC",28465,NA,NA,351,"PO BOX 92, OAK ISLAND, NC, 28465","No_Match",NA,NA,NA,NA
360852,"PO BOX 92","OTEGO","NY",13825,NA,NA,352,"PO BOX 92, OTEGO, NY, 13825","No_Match",NA,NA,NA,NA
360853,"PO BOX 92","PAW PAW","MI",49079,NA,NA,353,"PO BOX 92, PAW PAW, MI, 49079","No_Match",NA,NA,NA,NA
360854,"PO BOX 92","PESHTIGO","WI",54157,NA,NA,354,"PO BOX 92, PESHTIGO, WI, 54157","No_Match",NA,NA,NA,NA
360855,"PO BOX 92","PITTSBURG","NH",3592,NA,NA,355,"PO BOX 92, PITTSBURG, NH, 3592","No_Match",NA,NA,NA,NA
360856,"PO BOX 92","POINT ROBERTS","WA",98281,NA,NA,356,"PO BOX 92, POINT ROBERTS, WA, 98281","No_Match",NA,NA,NA,NA
360857,"PO BOX 92","POWHATAN","AR",72458,NA,NA,357,"PO BOX 92, POWHATAN, AR, 72458","No_Match",NA,NA,NA,NA
360858,"PO BOX 92","PUTNAM","CT",6260,NA,NA,358,"PO BOX 92, PUTNAM, CT, 6260","No_Match",NA,NA,NA,NA
360859,"PO BOX 92","RENTON","WA",98057,NA,NA,359,"PO BOX 92, RENTON, WA, 98057","No_Match",NA,NA,NA,NA
360860,"PO BOX 92","ROCKVILLE","IN",47872,NA,NA,360,"PO BOX 92, ROCKVILLE, IN, 47872","No_Match",NA,NA,NA,NA
360861,"PO BOX 92","SCHERTZ","TX",78154,NA,NA,361,"PO BOX 92, SCHERTZ, TX, 78154","No_Match",NA,NA,NA,NA
360862,"PO BOX 92","SEABROOK","NH",3874,NA,NA,362,"PO BOX 92, SEABROOK, NH, 3874","No_Match",NA,NA,NA,NA
360863,"PO BOX 92","SELBYVILLE","DE",19975,NA,NA,363,"PO BOX 92, SELBYVILLE, DE, 19975","No_Match",NA,NA,NA,NA
360864,"PO BOX 92","SHORTSVILLE","NY",14548,NA,NA,364,"PO BOX 92, SHORTSVILLE, NY, 14548","No_Match",NA,NA,NA,NA
360865,"PO BOX 92","SOUTH CHINA","ME",4358,NA,NA,365,"PO BOX 92, SOUTH CHINA, ME, 4358","No_Match",NA,NA,NA,NA
360866,"PO BOX 92","SOUTH ORANGE","NJ",7079,NA,NA,366,"PO BOX 92, SOUTH ORANGE, NJ, 7079","No_Match",NA,NA,NA,NA
360867,"PO BOX 92","STAR","ID",83669,NA,NA,367,"PO BOX 92, STAR, ID, 83669","No_Match",NA,NA,NA,NA
360868,"PO BOX 92","SWANS ISLAND","ME",4685,NA,NA,368,"PO BOX 92, SWANS ISLAND, ME, 4685","No_Match",NA,NA,NA,NA
360869,"PO BOX 92","TIBURON","CA",94920,NA,NA,369,"PO BOX 92, TIBURON, CA, 94920","No_Match",NA,NA,NA,NA
360870,"PO BOX 92","TOPSHAM","ME",4086,NA,NA,370,"PO BOX 92, TOPSHAM, ME, 4086","No_Match",NA,NA,NA,NA
360871,"PO BOX 92","ULYSSES","KS",67880,NA,NA,371,"PO BOX 92, ULYSSES, KS, 67880","No_Match",NA,NA,NA,NA
360872,"PO BOX 92","UNION","MS",39365,NA,NA,372,"PO BOX 92, UNION, MS, 39365","No_Match",NA,NA,NA,NA
360873,"PO BOX 92","VALLEY","NE",68064,NA,NA,373,"PO BOX 92, VALLEY, NE, 68064","No_Match",NA,NA,NA,NA
360874,"PO BOX 92","WESTPORT","CT",6881,NA,NA,374,"PO BOX 92, WESTPORT, CT, 6881","No_Match",NA,NA,NA,NA
360875,"PO BOX 92","WINTERSET","IA",50273,NA,NA,375,"PO BOX 92, WINTERSET, IA, 50273","No_Match",NA,NA,NA,NA
360876,"PO BOX 92","WOODBURY","NJ",8096,NA,NA,376,"PO BOX 92, WOODBURY, NJ, 8096","No_Match",NA,NA,NA,NA
360877,"PO BOX 920   /   105 E MARKET ST","WARSAW","KY",41095,38.7830943640001,-84.90134531,377,"PO BOX 920   /   105 E MARKET ST, WARSAW, KY, 41095","Match","Exact","105 E MARKET ST, WARSAW, KY, 41095",95284312,"R"
360878,"PO BOX 920","KURTISTOWN","HI",96760,NA,NA,378,"PO BOX 920, KURTISTOWN, HI, 96760","No_Match",NA,NA,NA,NA
360879,"PO BOX 920","PITTSBURG","TX",75686,NA,NA,379,"PO BOX 920, PITTSBURG, TX, 75686","No_Match",NA,NA,NA,NA
360880,"PO BOX 920","PLEASANT VALLEY","NY",12569,NA,NA,380,"PO BOX 920, PLEASANT VALLEY, NY, 12569","No_Match",NA,NA,NA,NA
360881,"PO BOX 920","SNYDER","TX",79550,NA,NA,381,"PO BOX 920, SNYDER, TX, 79550","No_Match",NA,NA,NA,NA
360882,"PO BOX 920","TRENTON","GA",30752,NA,NA,382,"PO BOX 920, TRENTON, GA, 30752","No_Match",NA,NA,NA,NA
360883,"PO BOX 920031","SNOWBIRD","UT",84092,NA,NA,383,"PO BOX 920031, SNOWBIRD, UT, 84092","No_Match",NA,NA,NA,NA
360884,"PO BOX 9201","BRIDGEPORT","CT",6602,NA,NA,384,"PO BOX 9201, BRIDGEPORT, CT, 6602","No_Match",NA,NA,NA,NA
360885,"PO BOX 920115","NEEDHAM","MA",2492,NA,NA,385,"PO BOX 920115, NEEDHAM, MA, 2492","No_Match",NA,NA,NA,NA
360886,"PO BOX 9202","BEALE AFB","CA",95903,NA,NA,386,"PO BOX 9202, BEALE AFB, CA, 95903","No_Match",NA,NA,NA,NA
360887,"PO BOX 92033","WASHINGTON DC","DC",20090,NA,NA,387,"PO BOX 92033, WASHINGTON DC, DC, 20090","No_Match",NA,NA,NA,NA
360888,"PO BOX 92034","HENDERSON","NV",89009,NA,NA,388,"PO BOX 92034, HENDERSON, NV, 89009","No_Match",NA,NA,NA,NA
360889,"PO BOX 920425","ARVERNE","NY",11692,NA,NA,389,"PO BOX 920425, ARVERNE, NY, 11692","No_Match",NA,NA,NA,NA
360890,"PO BOX 920526","DUTCH HARBOR","AK",99692,NA,NA,390,"PO BOX 920526, DUTCH HARBOR, AK, 99692","No_Match",NA,NA,NA,NA
360891,"PO BOX 920552","HOUSTON","TX",77292,NA,NA,391,"PO BOX 920552, HOUSTON, TX, 77292","No_Match",NA,NA,NA,NA
360892,"PO BOX 92067","ATLANTA","GA",30314,NA,NA,392,"PO BOX 92067, ATLANTA, GA, 30314","No_Match",NA,NA,NA,NA
360893,"PO BOX 9207","SOUTH BURLINGTON","VT",5407,NA,NA,393,"PO BOX 9207, SOUTH BURLINGTON, VT, 5407","No_Match",NA,NA,NA,NA
360894,"PO BOX 92071","ATLANTA","GA",30314,NA,NA,394,"PO BOX 92071, ATLANTA, GA, 30314","No_Match",NA,NA,NA,NA
360895,"PO BOX 920743","NORCROSS","GA",30010,NA,NA,395,"PO BOX 920743, NORCROSS, GA, 30010","No_Match",NA,NA,NA,NA
360896,"PO BOX 92082","ALBUQUERQUE","NM",87199,NA,NA,396,"PO BOX 92082, ALBUQUERQUE, NM, 87199","No_Match",NA,NA,NA,NA
360897,"PO BOX 920824","HOUSTON","TX",77292,NA,NA,397,"PO BOX 920824, HOUSTON, TX, 77292","No_Match",NA,NA,NA,NA
360898,"PO BOX 921","CLAREMORE","OK",74018,NA,NA,398,"PO BOX 921, CLAREMORE, OK, 74018","No_Match",NA,NA,NA,NA
360899,"PO BOX 921","COMFORT","TX",78013,NA,NA,399,"PO BOX 921, COMFORT, TX, 78013","No_Match",NA,NA,NA,NA
360900,"PO BOX 921","DENVER","CO",80202,NA,NA,400,"PO BOX 921, DENVER, CO, 80202","No_Match",NA,NA,NA,NA
360901,"PO BOX 921","GREENUP","KY",41144,NA,NA,401,"PO BOX 921, GREENUP, KY, 41144","No_Match",NA,NA,NA,NA
360902,"PO BOX 921","NEENAH","WI",54957,NA,NA,402,"PO BOX 921, NEENAH, WI, 54957","No_Match",NA,NA,NA,NA
360903,"PO BOX 921","SOCORRO","NM",87801,NA,NA,403,"PO BOX 921, SOCORRO, NM, 87801","No_Match",NA,NA,NA,NA
360904,"PO BOX 921","ZACHARY","LA",70791,NA,NA,404,"PO BOX 921, ZACHARY, LA, 70791","No_Match",NA,NA,NA,NA
360905,"PO BOX 92112","ALBUQUERQUE","NM",87199,NA,NA,405,"PO BOX 92112, ALBUQUERQUE, NM, 87199","No_Match",NA,NA,NA,NA
360906,"PO BOX 92136","WASHINGTON","DC",20018,NA,NA,406,"PO BOX 92136, WASHINGTON, DC, 20018","No_Match",NA,NA,NA,NA
360907,"PO BOX 92158","WASHINGTON","DC",20090,NA,NA,407,"PO BOX 92158, WASHINGTON, DC, 20090","No_Match",NA,NA,NA,NA
360908,"PO BOX 9216","CHESAPEAKE","VA",23321,NA,NA,408,"PO BOX 9216, CHESAPEAKE, VA, 23321","No_Match",NA,NA,NA,NA
360909,"PO BOX 92166","NASHVILLE","TN",37209,NA,NA,409,"PO BOX 92166, NASHVILLE, TN, 37209","No_Match",NA,NA,NA,NA
360910,"PO BOX 9217","NORTH ST PAUL","MN",55109,NA,NA,410,"PO BOX 9217, NORTH ST PAUL, MN, 55109","No_Match",NA,NA,NA,NA
360911,"PO BOX 92172","AUSTIN","TX",78709,NA,NA,411,"PO BOX 92172, AUSTIN, TX, 78709","No_Match",NA,NA,NA,NA
360912,"PO BOX 92178","WASHINGTON","DC",20090,NA,NA,412,"PO BOX 92178, WASHINGTON, DC, 20090","No_Match",NA,NA,NA,NA
360913,"PO BOX 922    42 KENDALL FARM TRAIL","RANGELEY","ME",4970,44.947613678,-70.6342200889999,413,"PO BOX 922    42 KENDALL FARM TRAIL, RANGELEY, ME, 4970","Match","Non_Exact","42 KENDALL FARM RD, RANGELEY, ME, 04970",165310646,"L"
360914,"PO BOX 922","AKRON","OH",44309,NA,NA,414,"PO BOX 922, AKRON, OH, 44309","No_Match",NA,NA,NA,NA
360915,"PO BOX 922","BROWNSBURG","IN",46112,NA,NA,415,"PO BOX 922, BROWNSBURG, IN, 46112","No_Match",NA,NA,NA,NA
360916,"PO BOX 922","BUTTE","MT",59703,NA,NA,416,"PO BOX 922, BUTTE, MT, 59703","No_Match",NA,NA,NA,NA
360917,"PO BOX 922","CAMAS","WA",98607,NA,NA,417,"PO BOX 922, CAMAS, WA, 98607","No_Match",NA,NA,NA,NA
360918,"PO BOX 922","DENVER","NC",28037,NA,NA,418,"PO BOX 922, DENVER, NC, 28037","No_Match",NA,NA,NA,NA
360919,"PO BOX 922","EPHRATA","WA",98823,NA,NA,419,"PO BOX 922, EPHRATA, WA, 98823","No_Match",NA,NA,NA,NA
360920,"PO BOX 922","FRUITLAND","ID",83619,NA,NA,420,"PO BOX 922, FRUITLAND, ID, 83619","No_Match",NA,NA,NA,NA
360921,"PO BOX 922","GREENWOOD","DE",19950,NA,NA,421,"PO BOX 922, GREENWOOD, DE, 19950","No_Match",NA,NA,NA,NA
360922,"PO BOX 922","HARTSELLE","AL",35640,NA,NA,422,"PO BOX 922, HARTSELLE, AL, 35640","No_Match",NA,NA,NA,NA
360923,"PO BOX 922","JUNCTION CITY","KS",66441,NA,NA,423,"PO BOX 922, JUNCTION CITY, KS, 66441","No_Match",NA,NA,NA,NA
360924,"PO BOX 922","LIBERTY HILL","TX",78642,NA,NA,424,"PO BOX 922, LIBERTY HILL, TX, 78642","No_Match",NA,NA,NA,NA
360925,"PO BOX 922","LITTLE ELM","TX",75068,NA,NA,425,"PO BOX 922, LITTLE ELM, TX, 75068","No_Match",NA,NA,NA,NA
360926,"PO BOX 922","LOCUST GROVE","GA",30248,NA,NA,426,"PO BOX 922, LOCUST GROVE, GA, 30248","No_Match",NA,NA,NA,NA
360927,"PO BOX 922","MOUNTAIN VIEW","HI",96771,NA,NA,427,"PO BOX 922, MOUNTAIN VIEW, HI, 96771","No_Match",NA,NA,NA,NA
360928,"PO BOX 922","SEDONA","AZ",86339,NA,NA,428,"PO BOX 922, SEDONA, AZ, 86339","No_Match",NA,NA,NA,NA
360929,"PO BOX 922","STANFIELD","OR",97875,NA,NA,429,"PO BOX 922, STANFIELD, OR, 97875","No_Match",NA,NA,NA,NA
360930,"PO BOX 92212","ATLANTA","GA",30314,NA,NA,430,"PO BOX 92212, ATLANTA, GA, 30314","No_Match",NA,NA,NA,NA
360931,"PO BOX 92213","ANCHORAGE","AK",99509,NA,NA,431,"PO BOX 92213, ANCHORAGE, AK, 99509","No_Match",NA,NA,NA,NA
360932,"PO BOX 9222","SPOKANE","WA",99209,NA,NA,432,"PO BOX 9222, SPOKANE, WA, 99209","No_Match",NA,NA,NA,NA
360933,"PO BOX 9224","JACKSON","WY",83002,NA,NA,433,"PO BOX 9224, JACKSON, WY, 83002","No_Match",NA,NA,NA,NA
360934,"PO BOX 9226","CEDARPINES PARK","CA",92322,NA,NA,434,"PO BOX 9226, CEDARPINES PARK, CA, 92322","No_Match",NA,NA,NA,NA
360935,"PO BOX 9226","SPOKANE","WA",99209,NA,NA,435,"PO BOX 9226, SPOKANE, WA, 99209","No_Match",NA,NA,NA,NA
360936,"PO BOX 922773","NORCROSS","GA",30010,NA,NA,436,"PO BOX 922773, NORCROSS, GA, 30010","No_Match",NA,NA,NA,NA
360937,"PO BOX 923 MINE KILL RD","NORTH BLENHEIM","NY",12131,NA,NA,437,"PO BOX 923 MINE KILL RD, NORTH BLENHEIM, NY, 12131","No_Match",NA,NA,NA,NA
360938,"PO BOX 923","CHARLES TOWN","WV",25414,NA,NA,438,"PO BOX 923, CHARLES TOWN, WV, 25414","No_Match",NA,NA,NA,NA
360939,"PO BOX 923","FRANKLIN","TX",77856,NA,NA,439,"PO BOX 923, FRANKLIN, TX, 77856","No_Match",NA,NA,NA,NA
360940,"PO BOX 923","HAYMARKET","VA",20168,NA,NA,440,"PO BOX 923, HAYMARKET, VA, 20168","No_Match",NA,NA,NA,NA
360941,"PO BOX 923","HEPPNER","OR",97836,NA,NA,441,"PO BOX 923, HEPPNER, OR, 97836","No_Match",NA,NA,NA,NA
360942,"PO BOX 923","KEMAH","TX",77565,NA,NA,442,"PO BOX 923, KEMAH, TX, 77565","No_Match",NA,NA,NA,NA
360943,"PO BOX 923","MATTHEWS","NC",28106,NA,NA,443,"PO BOX 923, MATTHEWS, NC, 28106","No_Match",NA,NA,NA,NA
360944,"PO BOX 923","MINERVA","NY",12851,NA,NA,444,"PO BOX 923, MINERVA, NY, 12851","No_Match",NA,NA,NA,NA
360945,"PO BOX 923","NEW PORT RICHEY","FL",34656,NA,NA,445,"PO BOX 923, NEW PORT RICHEY, FL, 34656","No_Match",NA,NA,NA,NA
360946,"PO BOX 923","PARKER","CO",80134,NA,NA,446,"PO BOX 923, PARKER, CO, 80134","No_Match",NA,NA,NA,NA
360947,"PO BOX 92305","ROCHESTER","NY",14692,NA,NA,447,"PO BOX 92305, ROCHESTER, NY, 14692","No_Match",NA,NA,NA,NA
360948,"PO BOX 923112","PEACHTREE CORNERS","GA",30010,NA,NA,448,"PO BOX 923112, PEACHTREE CORNERS, GA, 30010","No_Match",NA,NA,NA,NA
360949,"PO BOX 9232","WICHITA FALLS","TX",76308,NA,NA,449,"PO BOX 9232, WICHITA FALLS, TX, 76308","No_Match",NA,NA,NA,NA
360950,"PO BOX 923221","NORCROSS","GA",30010,NA,NA,450,"PO BOX 923221, NORCROSS, GA, 30010","No_Match",NA,NA,NA,NA
360951,"PO BOX 9233","LOUISVILLE","KY",40209,NA,NA,451,"PO BOX 9233, LOUISVILLE, KY, 40209","No_Match",NA,NA,NA,NA
360952,"PO BOX 92333","ROCHESTER","NY",14692,NA,NA,452,"PO BOX 92333, ROCHESTER, NY, 14692","No_Match",NA,NA,NA,NA
360953,"PO BOX 9234","FAYETTEVILLE","NC",28311,NA,NA,453,"PO BOX 9234, FAYETTEVILLE, NC, 28311","No_Match",NA,NA,NA,NA
360954,"PO BOX 92345","LONG BEACH","CA",90809,NA,NA,454,"PO BOX 92345, LONG BEACH, CA, 90809","No_Match",NA,NA,NA,NA
360955,"PO BOX 9236","NAPLES","FL",34101,NA,NA,455,"PO BOX 9236, NAPLES, FL, 34101","No_Match",NA,NA,NA,NA
360956,"PO BOX 923602","PEACHTREE CORNERS","GA",30010,NA,NA,456,"PO BOX 923602, PEACHTREE CORNERS, GA, 30010","No_Match",NA,NA,NA,NA
360957,"PO BOX 92361","NASHVILLE","TN",37209,NA,NA,457,"PO BOX 92361, NASHVILLE, TN, 37209","No_Match",NA,NA,NA,NA
360958,"PO BOX 92364","ATLANTA","GA",30314,NA,NA,458,"PO BOX 92364, ATLANTA, GA, 30314","No_Match",NA,NA,NA,NA
360959,"PO BOX 9237","SAN DIEGO","CA",92169,NA,NA,459,"PO BOX 9237, SAN DIEGO, CA, 92169","No_Match",NA,NA,NA,NA
360960,"PO BOX 92374","ALBUQUERQUE","NM",87199,NA,NA,460,"PO BOX 92374, ALBUQUERQUE, NM, 87199","No_Match",NA,NA,NA,NA
360961,"PO BOX 923812","NORCROSS","GA",30092,NA,NA,461,"PO BOX 923812, NORCROSS, GA, 30092","No_Match",NA,NA,NA,NA
360962,"PO BOX 92385","LAFAYETTE","LA",70509,NA,NA,462,"PO BOX 92385, LAFAYETTE, LA, 70509","No_Match",NA,NA,NA,NA
360963,"PO BOX 924","ELIZABETH","NJ",7201,NA,NA,463,"PO BOX 924, ELIZABETH, NJ, 7201","No_Match",NA,NA,NA,NA
360964,"PO BOX 924","HURLEY","MS",39555,NA,NA,464,"PO BOX 924, HURLEY, MS, 39555","No_Match",NA,NA,NA,NA
360965,"PO BOX 924","INVERNESS","FL",34451,NA,NA,465,"PO BOX 924, INVERNESS, FL, 34451","No_Match",NA,NA,NA,NA
360966,"PO BOX 924","NORTH MYRTLE BEACH","SC",29597,NA,NA,466,"PO BOX 924, NORTH MYRTLE BEACH, SC, 29597","No_Match",NA,NA,NA,NA
360967,"PO BOX 924","PORT ST JOE","FL",32457,NA,NA,467,"PO BOX 924, PORT ST JOE, FL, 32457","No_Match",NA,NA,NA,NA
360968,"PO BOX 924","POWHATAN","VA",23139,NA,NA,468,"PO BOX 924, POWHATAN, VA, 23139","No_Match",NA,NA,NA,NA
360969,"PO BOX 924","SHERWOOD","OR",97140,NA,NA,469,"PO BOX 924, SHERWOOD, OR, 97140","No_Match",NA,NA,NA,NA
360970,"PO BOX 924","YAKIMA","WA",98907,NA,NA,470,"PO BOX 924, YAKIMA, WA, 98907","No_Match",NA,NA,NA,NA
360971,"PO BOX 9241","YOUNGSTOWN","OH",44513,NA,NA,471,"PO BOX 9241, YOUNGSTOWN, OH, 44513","No_Match",NA,NA,NA,NA
360972,"PO BOX 924111","HOMESTEAD","FL",33032,NA,NA,472,"PO BOX 924111, HOMESTEAD, FL, 33032","No_Match",NA,NA,NA,NA
360973,"PO BOX 9242","KALISPELL","MT",59904,NA,NA,473,"PO BOX 9242, KALISPELL, MT, 59904","No_Match",NA,NA,NA,NA
360974,"PO BOX 924343","HOUSTON","TX",77292,NA,NA,474,"PO BOX 924343, HOUSTON, TX, 77292","No_Match",NA,NA,NA,NA
360975,"PO BOX 9244","CINCINNATI","OH",45209,NA,NA,475,"PO BOX 9244, CINCINNATI, OH, 45209","No_Match",NA,NA,NA,NA
360976,"PO BOX 9244","COLLEGE","TX",77842,NA,NA,476,"PO BOX 9244, COLLEGE, TX, 77842","No_Match",NA,NA,NA,NA
360977,"PO BOX 9244","WICHITA FALLS","TX",76308,NA,NA,477,"PO BOX 9244, WICHITA FALLS, TX, 76308","No_Match",NA,NA,NA,NA
360978,"PO BOX 924476","HOUSTON","TX",77018,NA,NA,478,"PO BOX 924476, HOUSTON, TX, 77018","No_Match",NA,NA,NA,NA
360979,"PO BOX 92453","LONG BEACH","CA",90809,NA,NA,479,"PO BOX 92453, LONG BEACH, CA, 90809","No_Match",NA,NA,NA,NA
360980,"PO BOX 92462","ATLANTA","GA",30314,NA,NA,480,"PO BOX 92462, ATLANTA, GA, 30314","No_Match",NA,NA,NA,NA
360981,"PO BOX 924633","HOUSTON","TX",77292,NA,NA,481,"PO BOX 924633, HOUSTON, TX, 77292","No_Match",NA,NA,NA,NA
360982,"PO BOX 924707","HOUSTON","TX",77292,NA,NA,482,"PO BOX 924707, HOUSTON, TX, 77292","No_Match",NA,NA,NA,NA
360983,"PO BOX 92473","LAFAYETTE","LA",70509,NA,NA,483,"PO BOX 92473, LAFAYETTE, LA, 70509","No_Match",NA,NA,NA,NA
360984,"PO BOX 9249","PHOENIX","AZ",85068,NA,NA,484,"PO BOX 9249, PHOENIX, AZ, 85068","No_Match",NA,NA,NA,NA
360985,"PO BOX 925","EUFAULA","OK",74432,NA,NA,485,"PO BOX 925, EUFAULA, OK, 74432","No_Match",NA,NA,NA,NA
360986,"PO BOX 925","LOCUST","NC",28097,NA,NA,486,"PO BOX 925, LOCUST, NC, 28097","No_Match",NA,NA,NA,NA
360987,"PO BOX 925","MCALESTER","OK",74502,NA,NA,487,"PO BOX 925, MCALESTER, OK, 74502","No_Match",NA,NA,NA,NA
360988,"PO BOX 925","NEW YORK","NY",10014,NA,NA,488,"PO BOX 925, NEW YORK, NY, 10014","No_Match",NA,NA,NA,NA
360989,"PO BOX 925","OAK HARBOR","WA",98277,NA,NA,489,"PO BOX 925, OAK HARBOR, WA, 98277","No_Match",NA,NA,NA,NA
360990,"PO BOX 925","WHEATLEY HEIGHTS","NY",11798,NA,NA,490,"PO BOX 925, WHEATLEY HEIGHTS, NY, 11798","No_Match",NA,NA,NA,NA
360991,"PO BOX 925061","HOUSTON","TX",77292,NA,NA,491,"PO BOX 925061, HOUSTON, TX, 77292","No_Match",NA,NA,NA,NA
360992,"PO BOX 9253","NAMPA","ID",83652,NA,NA,492,"PO BOX 9253, NAMPA, ID, 83652","No_Match",NA,NA,NA,NA
360993,"PO BOX 926","BELFRY","KY",41514,NA,NA,493,"PO BOX 926, BELFRY, KY, 41514","No_Match",NA,NA,NA,NA
360994,"PO BOX 926","COLUMBIA STATION","OH",44028,NA,NA,494,"PO BOX 926, COLUMBIA STATION, OH, 44028","No_Match",NA,NA,NA,NA
360995,"PO BOX 926","CONCORD","NC",28026,NA,NA,495,"PO BOX 926, CONCORD, NC, 28026","No_Match",NA,NA,NA,NA
360996,"PO BOX 926","INMAN","SC",29349,NA,NA,496,"PO BOX 926, INMAN, SC, 29349","No_Match",NA,NA,NA,NA
360997,"PO BOX 926","LIVINGSTON MANOR","NY",12758,NA,NA,497,"PO BOX 926, LIVINGSTON MANOR, NY, 12758","No_Match",NA,NA,NA,NA
360998,"PO BOX 926","NEW MILFORD","PA",18834,NA,NA,498,"PO BOX 926, NEW MILFORD, PA, 18834","No_Match",NA,NA,NA,NA
360999,"PO BOX 926","STEVENS POINT","WI",54481,NA,NA,499,"PO BOX 926, STEVENS POINT, WI, 54481","No_Match",NA,NA,NA,NA
361000,"PO BOX 926","TUPELO","MS",38802,NA,NA,500,"PO BOX 926, TUPELO, MS, 38802","No_Match",NA,NA,NA,NA
