"ID","Address","City","State","Zip","lat","long","id","input_address","match_indicator","match_type","matched_address","tiger_line_id","tiger_side"
174501,"329 WICKLIFFE AVE","CAMPBELLSVILLE","KY",42718,37.350847249,-85.340781708,1,"329 WICKLIFFE AVE, CAMPBELLSVILLE, KY, 42718","Match","Exact","329 WICKLIFFE AVE, CAMPBELLSVILLE, KY, 42718",35250125,"L"
174502,"329 WILSON STREET","CARLISLE","PA",17013,40.196715361,-77.203121779,2,"329 WILSON STREET, CARLISLE, PA, 17013","Match","Exact","329 WILSON ST, CARLISLE, PA, 17013",635734684,"R"
174503,"3290 BRIDGEHAMPTON WAY","CAMARILLO","CA",93012,34.2085231940001,-119.025992003,3,"3290 BRIDGEHAMPTON WAY, CAMARILLO, CA, 93012","Match","Exact","3290 BRIDGEHAMPTON WAY, CAMARILLO, CA, 93012",110054863,"R"
174504,"3290 CASEYS CROSSING","BIRMINGHAM","AL",35215,33.681162102,-86.7207239419999,4,"3290 CASEYS CROSSING, BIRMINGHAM, AL, 35215","Match","Exact","3290 CASEYS CROSSING, BIRMINGHAM, AL, 35215",81655744,"R"
174505,"3290 CHEYENNE DR","MERCED","CA",95348,37.3222022100001,-120.500986957,5,"3290 CHEYENNE DR, MERCED, CA, 95348","Match","Exact","3290 CHEYENNE DR, MERCED, CA, 95348",125347209,"L"
174506,"3290 COBB GALLERIA PARKWAY 15130","ATLANTA","GA",30339,33.8790191740001,-84.4549644639999,6,"3290 COBB GALLERIA PARKWAY 15130, ATLANTA, GA, 30339","Match","Exact","3290 COBB GALLERIA PKWY, ATLANTA, GA, 30339",641395512,"L"
174507,"3290 COBB GALLERIA PARKWAY","ATLANTA","GA",30339,33.8790191740001,-84.4549644639999,7,"3290 COBB GALLERIA PARKWAY, ATLANTA, GA, 30339","Match","Exact","3290 COBB GALLERIA PKWY, ATLANTA, GA, 30339",641395512,"L"
174508,"3290 COBB GALLERIA PKWY STE 11127","ATLANTA","GA",30339,33.8790191740001,-84.4549644639999,8,"3290 COBB GALLERIA PKWY STE 11127, ATLANTA, GA, 30339","Match","Exact","3290 COBB GALLERIA PKWY, ATLANTA, GA, 30339",641395512,"L"
174509,"3290 HEIGHTS DR","RENO","NV",89503,39.5280080840001,-119.859998625,9,"3290 HEIGHTS DR, RENO, NV, 89503","Match","Exact","3290 HEIGHTS DR, RENO, NV, 89503",640025326,"R"
174510,"3290 HWY 569","FERRIDAY","LA",71334,31.691668554,-91.440223105,10,"3290 HWY 569, FERRIDAY, LA, 71334","Match","Exact","3290 HWY 569, FERRIDAY, LA, 71334",84874381,"L"
174511,"3290 LARK HAVEN DRIVE NW","KENNESAW","GA",30152,34.0073720460001,-84.644836298,11,"3290 LARK HAVEN DRIVE NW, KENNESAW, GA, 30152","Match","Exact","3290 LARK HAVEN DR NW, KENNESAW, GA, 30152",17226001,"L"
174512,"3290 LEYDEN ST","DENVER","CO",80207,39.763561269,-104.915213344,12,"3290 LEYDEN ST, DENVER, CO, 80207","Match","Exact","3290 LEYDEN ST, DENVER, CO, 80207",177311821,"R"
174513,"3290 N BUFFALO DRIVE","LAS VEGAS","NV",89129,36.219858867,-115.260434531,13,"3290 N BUFFALO DRIVE, LAS VEGAS, NV, 89129","Match","Exact","3290 N BUFFALO DR, LAS VEGAS, NV, 89129",640233231,"R"
174514,"3290 NOAH ST","DELTONA","FL",32738,28.894678691,-81.171473104,14,"3290 NOAH ST, DELTONA, FL, 32738","Match","Exact","3290 NOAH ST, DELTONA, FL, 32738",94503143,"R"
174515,"3290 STATE RT 87","MONTOURSVILLE","PA",17754,NA,NA,15,"3290 STATE RT 87, MONTOURSVILLE, PA, 17754","No_Match",NA,NA,NA,NA
174516,"3290 UNIONTOWN RD","JAMESVILLE","NC",27846,35.792591041,-76.803707102,16,"3290 UNIONTOWN RD, JAMESVILLE, NC, 27846","Match","Exact","3290 UNIONTOWN RD, JAMESVILLE, NC, 27846",612389463,"L"
174517,"3290 W RADIO DR","FLORENCE","SC",29501,34.186124426,-79.8389378479999,17,"3290 W RADIO DR, FLORENCE, SC, 29501","Match","Exact","3290 W RADIO DR, FLORENCE, SC, 29501",619605483,"L"
174518,"32901 WOLFS TRAIL","SORRENTO","FL",32776,28.8282441960001,-81.5804364589999,18,"32901 WOLFS TRAIL, SORRENTO, FL, 32776","Match","Exact","32901 WOLFS TRL, SORRENTO, FL, 32776",94151282,"L"
174519,"32905 N 140TH ST","SCOTTSDALE","AZ",85262,33.7816352840001,-111.778331718,19,"32905 N 140TH ST, SCOTTSDALE, AZ, 85262","Match","Exact","32905 N 140TH ST, SCOTTSDALE, AZ, 85262",128859286,"R"
174520,"32906 N PEBBLE CREEK DR","SAN TAN VALLEY","AZ",85143,33.178028146,-111.574629698,20,"32906 N PEBBLE CREEK DR, SAN TAN VALLEY, AZ, 85143","Match","Exact","32906 PEBBLE CREEK DR, SAN TAN VALLEY, AZ, 85143",627877139,"R"
174521,"32908 JOHNSON ROAD","SALISBRUY","MD",21801,38.308195503,-75.472403243,21,"32908 JOHNSON ROAD, SALISBRUY, MD, 21801","Match","Non_Exact","32908 JOHNSON RD, SALISBURY, MD, 21804",114487489,"R"
174522,"3291 HIDDEN COVE CIR","NORCROSS","GA",30092,33.94707629,-84.2432664469999,22,"3291 HIDDEN COVE CIR, NORCROSS, GA, 30092","Match","Exact","3291 HIDDEN COVE CIR, NORCROSS, GA, 30092",647929889,"L"
174523,"3291 SANCTUARY POINT","FORT MYERS","FL",33905,NA,NA,23,"3291 SANCTUARY POINT, FORT MYERS, FL, 33905","No_Match",NA,NA,NA,NA
174524,"3291 SCENIC TERRACE HWY","MEMPHIS","TN",38128,35.2055473,-89.953329302,24,"3291 SCENIC TERRACE HWY, MEMPHIS, TN, 38128","Match","Exact","3291 SCENIC TER, MEMPHIS, TN, 38128",72914002,"R"
174525,"3291 SOUTH BROADWAY","SARATOGA SPRINGS","NY",12866,43.0432668810001,-73.7907108489999,25,"3291 SOUTH BROADWAY, SARATOGA SPRINGS, NY, 12866","Match","Non_Exact","3291 S BROADWAY AVE, SARATOGA SPGS, NY, 12866",18766641,"L"
174526,"3291 SW 16 TERRACE","MIAMI","FL",33145,25.7569377890001,-80.249135171,26,"3291 SW 16 TERRACE, MIAMI, FL, 33145","Match","Non_Exact","3291 SW 16TH TER, MIAMI, FL, 33145",116012069,"R"
174527,"3291 SW 174TH AVENUE","BEAVERTON","OR",97003,45.4960228850001,-122.856582067,27,"3291 SW 174TH AVENUE, BEAVERTON, OR, 97003","Match","Exact","3291 SW 174TH AVE, BEAVERTON, OR, 97003",623980664,"R"
174528,"3291 W SUNRISE BLVD","FORT LAUDERDALE","FL",33311,26.1361549010001,-80.1946157679999,28,"3291 W SUNRISE BLVD, FORT LAUDERDALE, FL, 33311","Match","Exact","3291 W SUNRISE BLVD, FORT LAUDERDALE, FL, 33311",640112639,"L"
174529,"32912 174TH PL SE","AUBURN","WA",98092,47.3065300440001,-122.109486053,29,"32912 174TH PL SE, AUBURN, WA, 98092","Match","Exact","32912 174TH PL SE, AUBURN, WA, 98092",186643728,"R"
174530,"32919 CENTER ST","WITTMANN","AZ",85361,33.7812003940001,-112.526145241,30,"32919 CENTER ST, WITTMANN, AZ, 85361","Match","Non_Exact","32919 N CENTER ST, WITTMANN, AZ, 85361",128136555,"R"
174531,"3292 BRUNO DR","SAN JOSE","CA",95136,37.27771269,-121.857980476,31,"3292 BRUNO DR, SAN JOSE, CA, 95136","Match","Exact","3292 BRUNO DR, SAN JOSE, CA, 95136",123017741,"L"
174532,"3292 EAGLE VIEW LANE  SUITE 340","LEXINGTON","KY",40509,37.9997773050001,-84.442106456,32,"3292 EAGLE VIEW LANE  SUITE 340, LEXINGTON, KY, 40509","Match","Exact","3292 EAGLE VIEW LN, LEXINGTON, KY, 40509",643108432,"R"
174533,"3292 LAHITTE COURT","SAN DIEGO","CA",92122,32.8553388030001,-117.216118362,33,"3292 LAHITTE COURT, SAN DIEGO, CA, 92122","Match","Exact","3292 LAHITTE CT, SAN DIEGO, CA, 92122",195302032,"L"
174534,"3292 PERENNIAL LANE","SNELLVILLE","GA",30039,33.810220213,-84.049609004,34,"3292 PERENNIAL LANE, SNELLVILLE, GA, 30039","Match","Exact","3292 PERENNIAL LN, SNELLVILLE, GA, 30039",646799516,"R"
174535,"3292 RIVA RIDGE WAY","BOISE","ID",83709,43.573726234,-116.327533098,35,"3292 RIVA RIDGE WAY, BOISE, ID, 83709","Match","Non_Exact","3292 S RIVA RIDGE WAY, BOISE, ID, 83709",219464506,"L"
174536,"3292 WINBROOK DR","MEMPHIS","TN",38116,35.058255536,-89.99730082,36,"3292 WINBROOK DR, MEMPHIS, TN, 38116","Match","Exact","3292 WINBROOK DR, MEMPHIS, TN, 38116",72970431,"L"
174537,"32921 SUNKEN LANE","UPPERVILLE","VA",20184,39.0007515080001,-77.868378219,37,"32921 SUNKEN LANE, UPPERVILLE, VA, 20184","Match","Exact","32921 SUNKEN LN, UPPERVILLE, VA, 20184",640630782,"L"
174538,"32925 85TH STREET E","DUETTE","FL",34219,27.587417397,-82.199706689,38,"32925 85TH STREET E, DUETTE, FL, 34219","Match","Exact","32925 85TH ST E, DUETTE, FL, 34219",648069809,"L"
174539,"32926 JEFFERSON AVENUE","ST CLAIR SHORES","MI",48082,42.530725327,-82.871111229,39,"32926 JEFFERSON AVENUE, ST CLAIR SHORES, MI, 48082","Match","Exact","32926 JEFFERSON AVE, SAINT CLAIR SHORES, MI, 48082",110684186,"R"
174540,"3293 DALE ROAD","BENSALEM","PA",19020,40.095630348,-74.936293824,40,"3293 DALE ROAD, BENSALEM, PA, 19020","Match","Exact","3293 DALE RD, BENSALEM, PA, 19020",134714872,"R"
174541,"3293 RIVERSIDE CT","CANTON","MI",48188,42.2809319080001,-83.4957205009999,41,"3293 RIVERSIDE CT, CANTON, MI, 48188","Match","Exact","3293 RIVERSIDE CT, CANTON, MI, 48188",95696138,"R"
174542,"3293 STONE MOUNTAIN HIGHWAY  D","SNELLVILLE","GA",30078,33.8493603650001,-84.046535486,42,"3293 STONE MOUNTAIN HIGHWAY  D, SNELLVILLE, GA, 30078","Match","Exact","3293 STONE MOUNTAIN HWY, SNELLVILLE, GA, 30078",648914525,"L"
174543,"3293 TULLAMORE RD","CLEVELAND HTS","OH",44118,41.4987911790001,-81.5616412859999,43,"3293 TULLAMORE RD, CLEVELAND HTS, OH, 44118","Match","Exact","3293 TULLAMORE RD, CLEVELAND HEIGHTS, OH, 44118",61179081,"L"
174544,"32931 WRIGHT ROAD","MAGNOLIA","TX",77355,30.1396097050001,-95.665576442,44,"32931 WRIGHT ROAD, MAGNOLIA, TX, 77355","Match","Exact","32931 WRIGHT RD, MAGNOLIA, TX, 77355",648463618,"L"
174545,"32932 PCH STE-14-294","DANA POINT","CA",92629,NA,NA,45,"32932 PCH STE-14-294, DANA POINT, CA, 92629","No_Match",NA,NA,NA,NA
174546,"32933 SE 43RD STREET","FALL CITY","WA",98024,47.5670671060001,-121.901303647,46,"32933 SE 43RD STREET, FALL CITY, WA, 98024","Match","Exact","32933 SE 43RD ST, FALL CITY, WA, 98024",239765181,"R"
174547,"3294 ARUNDEL ON THE BAY ROAD","ANNAPOLIS","MD",21403,38.9283481940001,-76.4731752499999,47,"3294 ARUNDEL ON THE BAY ROAD, ANNAPOLIS, MD, 21403","Match","Exact","3294 ARUNDEL ON THE BAY RD, ANNAPOLIS, MD, 21403",624742289,"R"
174548,"3294 BOBBIE LANE","DECATUR","GA",30032,33.7588929290001,-84.256776959,48,"3294 BOBBIE LANE, DECATUR, GA, 30032","Match","Exact","3294 BOBBIE LN, DECATUR, GA, 30032",23369820,"L"
174549,"3294 CAMPFIRE STREET","LOS LUNAS","NM",87031,34.8127563200001,-106.778299197,49,"3294 CAMPFIRE STREET, LOS LUNAS, NM, 87031","Match","Non_Exact","3294 CAMPFIRE ST SW, LOS LUNAS, NM, 87031",636058104,"R"
174550,"3294 COLEEN DRIVE","CINCINNATI","OH",34251,39.249098088,-84.588801089,50,"3294 COLEEN DRIVE, CINCINNATI, OH, 34251","Match","Non_Exact","3294 COLEEN DR, CINCINNATI, OH, 45251",103915218,"R"
174551,"3294 EAST 104TH","CLEVLAND","OH",44104,41.4690695100001,-81.612936433,51,"3294 EAST 104TH, CLEVLAND, OH, 44104","Match","Non_Exact","3294 E 104TH ST, CLEVELAND, OH, 44104",61126158,"R"
174552,"3294 N 1450 E","NORTH LOGAN","UT",84341,NA,NA,52,"3294 N 1450 E, NORTH LOGAN, UT, 84341","Tie",NA,NA,NA,NA
174553,"3294 SPANISH TRL APT 7","ATLANTA","GA",30344,33.6340611950001,-84.495634786,53,"3294 SPANISH TRL APT 7, ATLANTA, GA, 30344","Match","Non_Exact","3294 SPANISH TRL SW, ATLANTA, GA, 30344",17339052,"L"
174554,"329415 TONYA DRIVE","LUTHER","OK",73054,35.6025982680001,-97.1361731,54,"329415 TONYA DRIVE, LUTHER, OK, 73054","Match","Exact","329415 TONYA DR, LUTHER, OK, 73054",648108595,"L"
174555,"32945 SIBLEY RD","ROMULUS","MI",48174,42.1659980790001,-83.359040345,55,"32945 SIBLEY RD, ROMULUS, MI, 48174","Match","Exact","32945 SIBLEY RD, ROMULUS, MI, 48174",652801436,"R"
174556,"3295 BLAKE STREET APT 205","DENVER","CO",80205,39.7663268580001,-104.978769739,56,"3295 BLAKE STREET APT 205, DENVER, CO, 80205","Match","Exact","3295 BLAKE ST, DENVER, CO, 80205",177305017,"L"
174557,"3295 GRANGER AVE E UNIT 1","BILLINGS","MT",59102,NA,NA,57,"3295 GRANGER AVE E UNIT 1, BILLINGS, MT, 59102","No_Match",NA,NA,NA,NA
174558,"3295 KAISER DRIVE - APT 404","ELLICOTT CITY","MD",21043,39.2835882570001,-76.812705146,58,"3295 KAISER DRIVE - APT 404, ELLICOTT CITY, MD, 21043","Match","Exact","3295 KAISER DR, ELLICOTT CITY, MD, 21043",614149940,"L"
174559,"3295 N SAVANNAH PLACE","VERO BEACH","FL",32963,27.792499853,-80.414383862,59,"3295 N SAVANNAH PLACE, VERO BEACH, FL, 32963","Match","Exact","3295 N SAVANNAH PL, VERO BEACH, FL, 32963",120337502,"L"
174560,"3295 PARK BRANCH AVE","CLERMONT","FL",34711,28.515964727,-81.7003355909999,60,"3295 PARK BRANCH AVE, CLERMONT, FL, 34711","Match","Exact","3295 PARK BRANCH AVE, CLERMONT, FL, 34711",617505312,"L"
174561,"3295 RIVER EXCHANGE DR STE 302","PEACHTREE CORNERS","GA",30022,33.969040476,-84.263545697,61,"3295 RIVER EXCHANGE DR STE 302, PEACHTREE CORNERS, GA, 30022","Match","Non_Exact","3295 RIVER EXCHANGE DR, PEACHTREE CORNERS, GA, 30092",17402018,"R"
174562,"3295 SEVEN BRIDGES RD","MEDINA","OH",44256,41.1856685490001,-81.887738634,62,"3295 SEVEN BRIDGES RD, MEDINA, OH, 44256","Match","Exact","3295 SEVEN BRIDGES RD, MEDINA, OH, 44256",641107118,"R"
174563,"3295 VALLEY BEND RD","ATLANTA","GA",30349,33.57788226,-84.490864927,63,"3295 VALLEY BEND RD, ATLANTA, GA, 30349","Match","Exact","3295 VALLEY BEND RD, ATLANTA, GA, 30349",17351379,"R"
174564,"3295 W EXPOSITION AVE","DENVER","CO",80219,39.7040231190001,-105.029596996,64,"3295 W EXPOSITION AVE, DENVER, CO, 80219","Match","Exact","3295 W EXPOSITION AVE, DENVER, CO, 80219",177327982,"R"
174565,"32950 OLD HEMPSTEAD RD","MAGNOLIA","TX",77041,30.214233302,-95.774402217,65,"32950 OLD HEMPSTEAD RD, MAGNOLIA, TX, 77041","Match","Non_Exact","32950 OLD HEMPSTEAD RD, MAGNOLIA, TX, 77355",79276897,"R"
174566,"32951 KIWI CT W","LEWES","DE",19958,38.758775029,-75.176128874,66,"32951 KIWI CT W, LEWES, DE, 19958","Match","Exact","32951 KIWI CT W, LEWES, DE, 19958",106133594,"R"
174567,"32953 RIVERSIDE DR","LAKE ELSINORE","CA",92530,33.6654338270001,-117.383691318,67,"32953 RIVERSIDE DR, LAKE ELSINORE, CA, 92530","Match","Exact","32953 RIVERSIDE DR, LAKE ELSINORE, CA, 92530",194780285,"L"
174568,"32956 LAKE ERIE STREET","FREMONT","CA",94555,37.587072703,-122.055094309,68,"32956 LAKE ERIE STREET, FREMONT, CA, 94555","Match","Exact","32956 LAKE ERIE ST, FREMONT, CA, 94555",125068039,"L"
174569,"3296 BELLEFONTE DR","LEXINGTON","KY",40502,38.0007196510001,-84.509248209,69,"3296 BELLEFONTE DR, LEXINGTON, KY, 40502","Match","Exact","3296 BELLEFONTE DR, LEXINGTON, KY, 40502",31923217,"L"
174570,"3296 BEND COVE CT","LEAGUE CITY","TX",77573,29.5153872020001,-95.035727068,70,"3296 BEND COVE CT, LEAGUE CITY, TX, 77573","Match","Exact","3296 BEND COVE CT, LEAGUE CITY, TX, 77573",96742341,"R"
174571,"3296 DEER RUN CIRCLE","ALPHARETTA","GA",30004,34.1050055470001,-84.266473898,71,"3296 DEER RUN CIRCLE, ALPHARETTA, GA, 30004","Match","Exact","3296 DEER RUN CIR, ALPHARETTA, GA, 30004",624984903,"L"
174572,"3296 FARTHING WAY","SAN JOSE","CA",95132,37.4110962460001,-121.855774931,72,"3296 FARTHING WAY, SAN JOSE, CA, 95132","Match","Exact","3296 FARTHING WAY, SAN JOSE, CA, 95132",122963789,"R"
174573,"3296 HOLLOW COURT","ELLICOTT CITY","MD",21043,39.283084828,-76.817863772,73,"3296 HOLLOW COURT, ELLICOTT CITY, MD, 21043","Match","Exact","3296 HOLLOW CT, ELLICOTT CITY, MD, 21043",633340320,"L"
174574,"3296 N FEDERAL HIGHWAY  UNIT 11151","FORT LAUDERDALE","FL",33339,NA,NA,74,"3296 N FEDERAL HIGHWAY  UNIT 11151, FORT LAUDERDALE, FL, 33339","No_Match",NA,NA,NA,NA
174575,"3296 N US HWY 281","BURNET","TX",78611,30.794715561,-98.2380937189999,75,"3296 N US HWY 281, BURNET, TX, 78611","Match","Exact","3296 N US HWY 281, BURNET, TX, 78611",146520000,"L"
174576,"3296 NORTH 850 WEST","PLEASANT VIEW","UT",84414,41.3178012280001,-111.997822144,76,"3296 NORTH 850 WEST, PLEASANT VIEW, UT, 84414","Match","Exact","3296 N 850 W, PLEASANT VIEW, UT, 84414",647953800,"R"
174577,"3296 SHEPARD RD","PERRY","OH",44081,41.7496901380001,-81.166552592,77,"3296 SHEPARD RD, PERRY, OH, 44081","Match","Exact","3296 SHEPARD RD, PERRY, OH, 44081",647710591,"R"
174578,"3296 SUMMIT RIDGE PKWY STE 1510","DULUTH","GA",30096,33.987883665,-84.166044663,78,"3296 SUMMIT RIDGE PKWY STE 1510, DULUTH, GA, 30096","Match","Exact","3296 SUMMIT RIDGE PKWY, DULUTH, GA, 30096",641632092,"R"
174579,"3296 SUMMIT RIDGE PKWY STE 1620","DULUTH","GA",30096,33.987883665,-84.166044663,79,"3296 SUMMIT RIDGE PKWY STE 1620, DULUTH, GA, 30096","Match","Exact","3296 SUMMIT RIDGE PKWY, DULUTH, GA, 30096",641632092,"R"
174580,"3296 ULSTER STREET","DENVER","CO",80238,39.762923147,-104.894487307,80,"3296 ULSTER STREET, DENVER, CO, 80238","Match","Non_Exact","3296 N ULSTER ST, DENVER, CO, 80238",640736780,"R"
174581,"3296 WELCOME ROAD","ROOPVILLE","GA",30270,33.390017205,-85.1727836589999,81,"3296 WELCOME ROAD, ROOPVILLE, GA, 30270","Match","Non_Exact","3296 WELCOME RD, ROOPVILLE, GA, 30170",642923982,"L"
174582,"3296 WESTERVILLE ROAD","COLUMBUS","OH",43224,40.035986768,-82.953727073,82,"3296 WESTERVILLE ROAD, COLUMBUS, OH, 43224","Match","Exact","3296 WESTERVILLE RD, COLUMBUS, OH, 43224",633196742,"R"
174583,"32965 HUNTER AVE","WESTLAND","MI",48185,42.3321016260001,-83.366159721,83,"32965 HUNTER AVE, WESTLAND, MI, 48185","Match","Non_Exact","32965 HUNTER ST, WESTLAND, MI, 48185",95492899,"L"
174584,"3297 IRISH VALLEY RD","PAXINOS","PA",17860,40.8149763380001,-76.611933533,84,"3297 IRISH VALLEY RD, PAXINOS, PA, 17860","Match","Exact","3297 IRISH VALLEY RD, PAXINOS, PA, 17860",48062040,"L"
174585,"3297 MARLIES CIRCLE","MACON","GA",31206,32.8030857750001,-83.661415129,85,"3297 MARLIES CIRCLE, MACON, GA, 31206","Match","Exact","3297 MARLIES CIR, MACON, GA, 31206",81060505,"R"
174586,"3297 OSGOOD COVE NORTH","STILLWATER","MN",55082,44.9966560440001,-92.806569166,86,"3297 OSGOOD COVE NORTH, STILLWATER, MN, 55082","Match","Exact","3297 OSGOOD COVE N, STILLWATER, MN, 55082",628067067,"R"
174587,"3297 TEA ROSE DR","EL DORADO HILLS","CA",95762,38.6838856520001,-121.009425505,87,"3297 TEA ROSE DR, EL DORADO HILLS, CA, 95762","Match","Exact","3297 TEA ROSE DR, EL DORADO HILLS, CA, 95762",635859414,"L"
174588,"3297 TEA ROSE DRIVE","EL DORADO HILLS","CA",95762,38.6838856520001,-121.009425505,88,"3297 TEA ROSE DRIVE, EL DORADO HILLS, CA, 95762","Match","Exact","3297 TEA ROSE DR, EL DORADO HILLS, CA, 95762",635859414,"L"
174589,"32974 220TH ST","CANTON","MO",63435,40.0772642330001,-91.52208809,89,"32974 220TH ST, CANTON, MO, 63435","Match","Exact","32974 220TH ST, CANTON, MO, 63435",13083014,"R"
174590,"3298 BERKSHIRE ROAD","CLEVELAND HEIGHTS","OH",44118,41.505142576,-81.563047242,90,"3298 BERKSHIRE ROAD, CLEVELAND HEIGHTS, OH, 44118","Match","Exact","3298 BERKSHIRE RD, CLEVELAND HEIGHTS, OH, 44118",61124944,"R"
174591,"3298 LITTLE HILL LANE","SIERRA VISTA","AZ",85635,31.533977024,-110.263132051,91,"3298 LITTLE HILL LANE, SIERRA VISTA, AZ, 85635","Match","Exact","3298 LITTLE HILL LN, SIERRA VISTA, AZ, 85635",625175057,"L"
174592,"3298 N GLASSFORD HILL RD 104","PRESCOTT VALLEY","AZ",86314,NA,NA,92,"3298 N GLASSFORD HILL RD 104, PRESCOTT VALLEY, AZ, 86314","Tie",NA,NA,NA,NA
174593,"3298 OAK LEAF PLACE","HIGHLANDS RANCH","CO",80129,39.5308060770001,-105.027590974,93,"3298 OAK LEAF PLACE, HIGHLANDS RANCH, CO, 80129","Match","Non_Exact","3298 W OAK LEAF PL, HIGHLANDS RANCH, CO, 80129",130816542,"R"
174594,"3298 ROXBURG DRIVE","LEXINGTON","KY",40503,37.9954074880001,-84.55887326,94,"3298 ROXBURG DRIVE, LEXINGTON, KY, 40503","Match","Exact","3298 ROXBURG DR, LEXINGTON, KY, 40503",649432959,"L"
174595,"3299 BUS MCGALL RD","UKIAH","CA",95482,39.0115817130001,-123.204306349,95,"3299 BUS MCGALL RD, UKIAH, CA, 95482","Match","Non_Exact","3299 BUS MC GALL RD, UKIAH, CA, 95482",625198144,"R"
174596,"3299 DON VALLEY DR","BARTLETT","TN",38133,35.215770795,-89.814983339,96,"3299 DON VALLEY DR, BARTLETT, TN, 38133","Match","Exact","3299 DON VALLEY DR, BARTLETT, TN, 38133",72973605,"L"
174597,"3299 GONDOLA DRIVE","LEXINGTON","KY",40513,38.013233336,-84.567377426,97,"3299 GONDOLA DRIVE, LEXINGTON, KY, 40513","Match","Non_Exact","3299 GONDOLA CT, LEXINGTON, KY, 40513",31919576,"L"
174598,"3299 GRAND POINT ROAD","CHAMBERSBURG","PA",17202,39.963355124,-77.6048335259999,98,"3299 GRAND POINT ROAD, CHAMBERSBURG, PA, 17202","Match","Exact","3299 GRAND POINT RD, CHAMBERSBURG, PA, 17202",605484618,"L"
174599,"3299 LIME KILN ROAD","GREEN BAY","WI",54311,44.441226842,-87.968046553,99,"3299 LIME KILN ROAD, GREEN BAY, WI, 54311","Match","Exact","3299 LIME KILN RD, GREEN BAY, WI, 54311",148126878,"R"
174600,"3299 ROUNDABOUT DR","MIDDLEBURG","FL",32068,30.1534146060001,-81.825237977,100,"3299 ROUNDABOUT DR, MIDDLEBURG, FL, 32068","Match","Exact","3299 ROUNDABOUT DR, MIDDLEBURG, FL, 32068",649155371,"L"
174601,"3299 RUPPERT ROAD","YORK","PA",17408,NA,NA,101,"3299 RUPPERT ROAD, YORK, PA, 17408","No_Match",NA,NA,NA,NA
174602,"3299 WHITE CASTLE WAY","DECATUR","GA",30034,33.687100656,-84.2139930069999,102,"3299 WHITE CASTLE WAY, DECATUR, GA, 30034","Match","Exact","3299 WHITE CASTLE WAY, DECATUR, GA, 30034",23373547,"R"
174603,"32996 COUNTY ROAD 135","PARK RAPIDS","MN",56470,47.0473425800001,-95.233760852,103,"32996 COUNTY ROAD 135, PARK RAPIDS, MN, 56470","Match","Exact","32996 CO RD 135, PARK RAPIDS, MN, 56470",639593421,"L"
174604,"329A INGALLS ST","SANTA CRUZ","CA",95060,36.9588107490001,-122.04645248,104,"329A INGALLS ST, SANTA CRUZ, CA, 95060","Match","Exact","329 INGALLS ST, SANTA CRUZ, CA, 95060",125508334,"L"
174605,"32A WILLIAMS AVENUE","JERSEY CITY","NJ",7304,40.718547637,-74.0854646029999,105,"32A WILLIAMS AVENUE, JERSEY CITY, NJ, 7304","Match","Exact","32 WILLIAMS AVE, JERSEY CITY, NJ, 07304",59602051,"R"
174606,"32B PUNAHELE STREET","HILO","HI",96720,19.718385491,-155.097647411,106,"32B PUNAHELE STREET, HILO, HI, 96720","Match","Exact","32 PUNAHELE ST, HILO, HI, 96720",636352607,"L"
174607,"32L9 LA PLATA AVENUE","HACIENDA","CA",91741,NA,NA,107,"32L9 LA PLATA AVENUE, HACIENDA, CA, 91741","No_Match",NA,NA,NA,NA
174608,"32W045 WILL WAY","WAYNE","IL",60184,41.9496935490001,-88.243676814,108,"32W045 WILL WAY, WAYNE, IL, 60184","Match","Exact","32 WILL WAY, WAYNE, IL, 60184",112515063,"R"
174609,"33  CARNIAN  FORD  ROAD","RIPLEY","WV",25271,NA,NA,109,"33  CARNIAN  FORD  ROAD, RIPLEY, WV, 25271","No_Match",NA,NA,NA,NA
174610,"33 10TH STREET","MCMECHEN","WV",26040,39.9877072570001,-80.730258314,110,"33 10TH STREET, MCMECHEN, WV, 26040","Match","Exact","33 10TH ST, MCMECHEN, WV, 26040",38061578,"L"
174611,"33 3RD AVENUE APT 5","BROOKLYN","NY",11217,40.6856013550001,-73.980503212,111,"33 3RD AVENUE APT 5, BROOKLYN, NY, 11217","Match","Exact","33 3RD AVE, BROOKLYN, NY, 11217",59077563,"L"
174612,"33 43RD ST","IRVINGTON","NJ",7111,NA,NA,112,"33 43RD ST, IRVINGTON, NJ, 7111","No_Match",NA,NA,NA,NA
174613,"33 43RD STREET","IRVINGTON","NJ",7111,NA,NA,113,"33 43RD STREET, IRVINGTON, NJ, 7111","No_Match",NA,NA,NA,NA
174614,"33 5TH STREET","BARNEGAT","NJ",8005,39.7649053000001,-74.2576172129999,114,"33 5TH STREET, BARNEGAT, NJ, 8005","Match","Exact","33 5TH ST, BARNEGAT, NJ, 08005",647041885,"L"
174615,"33 ABERDEEN AVE","CAMBRIDGE","MA",2138,42.3764383650001,-71.1462080429999,115,"33 ABERDEEN AVE, CAMBRIDGE, MA, 2138","Match","Exact","33 ABERDEEN AVE, CAMBRIDGE, MA, 02138",650195538,"R"
174616,"33 ABIGAIL LANE","NORTH EAST","MD",21901,39.539660816,-75.9638841889999,116,"33 ABIGAIL LANE, NORTH EAST, MD, 21901","Match","Exact","33 ABIGAIL LN, NORTH EAST, MD, 21901",187423430,"R"
174617,"33 ADELAIDE ST","HUDSON","NH",3051,42.765251773,-71.428949754,117,"33 ADELAIDE ST, HUDSON, NH, 3051","Match","Exact","33 ADELAIDE ST, HUDSON, NH, 03051",113537801,"R"
174618,"33 ALDHAM ROAD","PHOENIXVILLE","PA",19460,40.0930048010001,-75.540293472,118,"33 ALDHAM ROAD, PHOENIXVILLE, PA, 19460","Match","Exact","33 ALDHAM RD, PHOENIXVILLE, PA, 19460",179494143,"L"
174619,"33 ANITA DRIVE","CHARLESTON","SC",29407,32.7926466120001,-79.991669416,119,"33 ANITA DRIVE, CHARLESTON, SC, 29407","Match","Exact","33 ANITA DR, CHARLESTON, SC, 29407",108803870,"L"
174620,"33 ANITA STREET","STATEN ISLAND","NY",10314,40.620428727,-74.1521275269999,120,"33 ANITA STREET, STATEN ISLAND, NY, 10314","Match","Exact","33 ANITA ST, STATEN ISLAND, NY, 10314",59888667,"L"
174621,"33 ANN ST","RICE LAKE","WI",54868,45.49776616,-91.733798314,121,"33 ANN ST, RICE LAKE, WI, 54868","Match","Exact","33 ANN ST, RICE LAKE, WI, 54868",126284024,"R"
174622,"33 ANN STREET","RICE LAKE","WI",54868,45.49776616,-91.733798314,122,"33 ANN STREET, RICE LAKE, WI, 54868","Match","Exact","33 ANN ST, RICE LAKE, WI, 54868",126284024,"R"
174623,"33 APPLEWAY RD","OKANOGAN","WA",98840,48.3518256770001,-119.588542708,123,"33 APPLEWAY RD, OKANOGAN, WA, 98840","Match","Non_Exact","33 APPLE WAY RD, OKANOGAN, WA, 98840",157381111,"R"
174624,"33 ARDEN STREET APT 2","NEW YORK","NY",10040,40.861971252,-73.9271425269999,124,"33 ARDEN STREET APT 2, NEW YORK, NY, 10040","Match","Exact","33 ARDEN ST, NEW YORK, NY, 10040",59658819,"R"
174625,"33 ARMM AVE","WALLINGTON","NJ",7057,40.8486571880001,-74.112164858,125,"33 ARMM AVE, WALLINGTON, NJ, 7057","Match","Exact","33 ARMM AVE, WALLINGTON, NJ, 07057",64394656,"L"
174626,"33 ARPEGE WAY","ATLANTA","GA",30327,33.8201401700001,-84.423435959,126,"33 ARPEGE WAY, ATLANTA, GA, 30327","Match","Non_Exact","33 ARPEGE WAY NW, ATLANTA, GA, 30327",17334869,"R"
174627,"33 ARROWHEAD LN","LAWRENCE","NY",11559,40.6151618210001,-73.7308797049999,127,"33 ARROWHEAD LN, LAWRENCE, NY, 11559","Match","Exact","33 ARROWHEAD LN, LAWRENCE, NY, 11559",147657452,"L"
174628,"33 ARTHUR STREET","NEW HAVEN","CT",6519,41.291704361,-72.935154631,128,"33 ARTHUR STREET, NEW HAVEN, CT, 6519","Match","Exact","33 ARTHUR ST, NEW HAVEN, CT, 06519",3700603,"R"
174629,"33 ASHFORD RD","JACKSON","NJ",8527,40.132551725,-74.2520652059999,129,"33 ASHFORD RD, JACKSON, NJ, 8527","Match","Exact","33 ASHFORD RD, JACKSON, NJ, 08527",203840292,"R"
174630,"33 AYLESBURY CT","KISSIMMEE","FL",34758,NA,NA,130,"33 AYLESBURY CT, KISSIMMEE, FL, 34758","No_Match",NA,NA,NA,NA
174631,"33 B HARDING ST","BEAUFORT","SC",29902,NA,NA,131,"33 B HARDING ST, BEAUFORT, SC, 29902","Tie",NA,NA,NA,NA
174632,"33 B MYERS STREET","BUFFALO","NY",14211,42.9024982930001,-78.840453025,132,"33 B MYERS STREET, BUFFALO, NY, 14211","Match","Exact","33 MYERS ST, BUFFALO, NY, 14211",48300305,"R"
174633,"33 BALI HAI ROAD","MECHANICSBURG","PA",17050,40.2701503070001,-77.017959925,133,"33 BALI HAI ROAD, MECHANICSBURG, PA, 17050","Match","Exact","33 BALI HAI RD, MECHANICSBURG, PA, 17050",221254833,"R"
174634,"33 BAY SHORE ROAD","DEER PARK","NY",11729,40.749823941,-73.323715721,134,"33 BAY SHORE ROAD, DEER PARK, NY, 11729","Match","Exact","33 BAY SHORE RD, DEER PARK, NY, 11729",638210813,"L"
174635,"33 BELLOWS FALLS RD","PUTNEY","VT",5346,42.980997705,-72.5133857659999,135,"33 BELLOWS FALLS RD, PUTNEY, VT, 5346","Match","Exact","33 BELLOWS FALLS RD, PUTNEY, VT, 05346",641173695,"L"
174636,"33 BENTON STREET","TONAWANDA","NY",14150,43.0170719170001,-78.8725846729999,136,"33 BENTON STREET, TONAWANDA, NY, 14150","Match","Exact","33 BENTON ST, TONAWANDA, NY, 14150",48284353,"L"
174637,"33 BERKSHIRE ROAD","WILLIAMSBURG","VA",23188,37.307648011,-76.757162216,137,"33 BERKSHIRE ROAD, WILLIAMSBURG, VA, 23188","Match","Exact","33 BERKSHIRE RD, WILLIAMSBURG, VA, 23188",103769817,"L"
174638,"33 BLAIR STREET","GREENVILLE","SC",29607,34.847208994,-82.371975675,138,"33 BLAIR STREET, GREENVILLE, SC, 29607","Match","Exact","33 BLAIR ST, GREENVILLE, SC, 29607",38303184,"L"
174639,"33 BLOOMFIELD STREET","DORCHESTER","MA",2124,42.299573444,-71.066710121,139,"33 BLOOMFIELD STREET, DORCHESTER, MA, 2124","Match","Exact","33 BLOOMFIELD ST, DORCHESTER, MA, 02124",85702296,"R"
174640,"33 BLUE LEDGE DRIVE","ROSLINDALE","MA",2131,42.2763021740001,-71.138019721,140,"33 BLUE LEDGE DRIVE, ROSLINDALE, MA, 2131","Match","Exact","33 BLUE LEDGE DR, ROSLINDALE, MA, 02131",85703615,"R"
174641,"33 BLUEFIELD DR UNIT 201","SPRING VALLEY","NY",10977,41.1276226260001,-74.05599446,141,"33 BLUEFIELD DR UNIT 201, SPRING VALLEY, NY, 10977","Match","Exact","33 BLUEFIELD DR, SPRING VALLEY, NY, 10977",627334928,"R"
174642,"33 BORTONS ROAD","MEDFORD","NJ",8055,39.8235515440001,-74.8543074039999,142,"33 BORTONS ROAD, MEDFORD, NJ, 8055","Match","Exact","33 BORTONS RD, MEDFORD, NJ, 08055",134038033,"L"
174643,"33 BRADFORD STREET","CONCORD","MA",1742,42.456871042,-71.396537864,143,"33 BRADFORD STREET, CONCORD, MA, 1742","Match","Exact","33 BRADFORD ST, CONCORD, MA, 01742",86923520,"R"
174644,"33 BRAEMER RD","SETAUKET","NY",11733,40.9480188810001,-73.0964750529999,144,"33 BRAEMER RD, SETAUKET, NY, 11733","Match","Exact","33 BRAEMER RD, SETAUKET, NY, 11733",114000468,"R"
174645,"33 BRAYTON RD","BRIGHTON","MA",2135,42.3473795260001,-71.168694237,145,"33 BRAYTON RD, BRIGHTON, MA, 2135","Match","Exact","33 BRAYTON RD, BRIGHTON, MA, 02135",85694416,"R"
174646,"33 BREMEN STREET","BOSTON","MA",2128,42.3690606270001,-71.038467995,146,"33 BREMEN STREET, BOSTON, MA, 2128","Match","Exact","33 BREMEN ST, BOSTON, MA, 02128",85711483,"R"
174647,"33 BRIDGE POINT","DOUGLASVILLE","GA",30134,NA,NA,147,"33 BRIDGE POINT, DOUGLASVILLE, GA, 30134","Tie",NA,NA,NA,NA
174648,"33 BRIGHTON DRIVE","GARNER","NC",27529,35.5799196340001,-78.598013757,148,"33 BRIGHTON DRIVE, GARNER, NC, 27529","Match","Exact","33 BRIGHTON DR, GARNER, NC, 27529",26559120,"L"
174649,"33 BUCKSKIN","RAYNE","LA",70578,30.243879662,-92.2127368659999,149,"33 BUCKSKIN, RAYNE, LA, 70578","Match","Non_Exact","33 BUCKSKIN LN, RAYNE, LA, 70578",88308390,"L"
174650,"33 BURLINGTON AVE","DEER PARK","NY",11747,40.7924971350001,-73.408086746,150,"33 BURLINGTON AVE, DEER PARK, NY, 11747","Match","Non_Exact","33 BURLINGTON AVE, MELVILLE, NY, 11747",113967446,"R"
174651,"33 BURNHAM ROAD","BOLTON","MA",1740,42.434046949,-71.584264962,151,"33 BURNHAM ROAD, BOLTON, MA, 1740","Match","Exact","33 BURNHAM RD, BOLTON, MA, 01740",40101360,"L"
174652,"33 BURRILL AVE","LYNN","MA",1902,42.4673203250001,-70.927644287,152,"33 BURRILL AVE, LYNN, MA, 1902","Match","Exact","33 BURRILL AVE, LYNN, MA, 01902",86646792,"R"
174653,"33 CALIFORNIA DR","MIDDLETOWN","NY",10940,41.47140748,-74.455480797,153,"33 CALIFORNIA DR, MIDDLETOWN, NY, 10940","Match","Exact","33 CALIFORNIA DR, MIDDLETOWN, NY, 10940",124435247,"L"
174654,"33 CAMBRIDGE DRIVE","BERKELEY HEIGHTS","NJ",7922,40.674012154,-74.4194595499999,154,"33 CAMBRIDGE DRIVE, BERKELEY HEIGHTS, NJ, 7922","Match","Exact","33 CAMBRIDGE DR, BERKELEY HEIGHTS, NJ, 07922",639002187,"R"
174655,"33 CANAL STREET APT 308","PENACOOK","NH",3303,NA,NA,155,"33 CANAL STREET APT 308, PENACOOK, NH, 3303","No_Match",NA,NA,NA,NA
174656,"33 CANDLELIGHT LANE","PORTSMOUTH","VA",23703,36.8635909980001,-76.360553126,156,"33 CANDLELIGHT LANE, PORTSMOUTH, VA, 23703","Match","Exact","33 CANDLELIGHT LN, PORTSMOUTH, VA, 23703",122197135,"L"
174657,"33 CANFIELD AVENUE","YONKERS","NY",10710,40.9722538010001,-73.833281009,157,"33 CANFIELD AVENUE, YONKERS, NY, 10710","Match","Exact","33 CANFIELD AVE, YONKERS, NY, 10710",139734350,"L"
174658,"33 CAROLINE DR","PRINCETON","NJ",8540,40.3632643500001,-74.7488295269999,158,"33 CAROLINE DR, PRINCETON, NJ, 8540","Match","Exact","33 CAROLINE DR, PRINCETON, NJ, 08540",60195804,"L"
174659,"33 CARSTON STREET","SELDEN","NY",11784,40.8690263830001,-73.048101307,159,"33 CARSTON STREET, SELDEN, NY, 11784","Match","Exact","33 CARSTON ST, SELDEN, NY, 11784",114003997,"L"
174660,"33 CARTER ST","CONCORD","NH",3301,43.1888327820001,-71.5392438929999,160,"33 CARTER ST, CONCORD, NH, 3301","Match","Exact","33 CARTER ST, CONCORD, NH, 03301",117717020,"R"
174661,"33 CASCADE DRIVE","NEW HARTFORD","NY",13413,43.07001827,-75.2345958289999,161,"33 CASCADE DRIVE, NEW HARTFORD, NY, 13413","Match","Exact","33 CASCADE DR, NEW HARTFORD, NY, 13413",171531721,"L"
174662,"33 CASTLE MEADOW ROAD","NEWTOWN","CT",6470,41.345340234,-73.297113946,162,"33 CASTLE MEADOW ROAD, NEWTOWN, CT, 6470","Match","Exact","33 CASTLE MEADOW RD, NEWTOWN, CT, 06470",624617462,"R"
174663,"33 CHACE AVE","PEPPERELL","MA",1463,42.6702182920001,-71.586390286,163,"33 CHACE AVE, PEPPERELL, MA, 1463","Match","Exact","33 CHACE AVE, PEPPERELL, MA, 01463",651763846,"R"
174664,"33 CHACE AVENUE","PEPPERELL","MA",1463,42.6702182920001,-71.586390286,164,"33 CHACE AVENUE, PEPPERELL, MA, 1463","Match","Exact","33 CHACE AVE, PEPPERELL, MA, 01463",651763846,"R"
174665,"33 CHARLES STREET","PORT WASHINGTON","NY",11050,40.8281319660001,-73.696590122,165,"33 CHARLES STREET, PORT WASHINGTON, NY, 11050","Match","Exact","33 CHARLES ST, PORT WASHINGTON, NY, 11050",639086091,"R"
174666,"33 CHEYENNE ST","TINTON FALLS","NJ",7712,40.2507000570001,-74.092958697,166,"33 CHEYENNE ST, TINTON FALLS, NJ, 7712","Match","Exact","33 CHEYENNE ST, TINTON FALLS, NJ, 07712",633397274,"L"
174667,"33 CLINTON STREET","GOUVERNEUR","NY",13642,44.3361689990001,-75.4696583899999,167,"33 CLINTON STREET, GOUVERNEUR, NY, 13642","Match","Exact","33 CLINTON ST, GOUVERNEUR, NY, 13642",155170464,"L"
174668,"33 CLINTON STREET","WESTFIELD","NY",14787,42.324217407,-79.5769444489999,168,"33 CLINTON STREET, WESTFIELD, NY, 14787","Match","Exact","33 CLINTON ST, WESTFIELD, NY, 14787",120760905,"L"
174669,"33 COLLEGE STREET","NORCROSS","GA",30071,33.9415071810001,-84.212034422,169,"33 COLLEGE STREET, NORCROSS, GA, 30071","Match","Non_Exact","33 COLLEGE ST NW, NORCROSS, GA, 30071",88884214,"L"
174670,"33 COMMERCE DR","STANTON","KY",40380,NA,NA,170,"33 COMMERCE DR, STANTON, KY, 40380","No_Match",NA,NA,NA,NA
174671,"33 COMMONWEALTH AVE","GREAT BARRINGTON","MA",1230,42.207493049,-73.342114479,171,"33 COMMONWEALTH AVE, GREAT BARRINGTON, MA, 1230","Match","Exact","33 COMMONWEALTH AVE, GREAT BARRINGTON, MA, 01230",3940692,"L"
174672,"33 CONSERVATION WAY","STOUGHTON","MA",2072,42.0886203320001,-71.1155616739999,172,"33 CONSERVATION WAY, STOUGHTON, MA, 2072","Match","Exact","33 CONSERVATION WAY, STOUGHTON, MA, 02072",642666328,"L"
174673,"33 COOK ST","JOHNSON CITY","NY",13970,42.1096473870001,-75.963788087,173,"33 COOK ST, JOHNSON CITY, NY, 13970","Match","Non_Exact","33 COOK ST, JOHNSON CITY, NY, 13790",46340338,"L"
174674,"33 COVELL STREET","WILKES-BARRE","PA",18702,41.2316270680001,-75.903923069,174,"33 COVELL STREET, WILKES-BARRE, PA, 18702","Match","Exact","33 COVELL ST, WILKES BARRE, PA, 18702",80914310,"R"
174675,"33 COWBARN LANE","NOVATO","CA",94947,38.078823594,-122.554324053,175,"33 COWBARN LANE, NOVATO, CA, 94947","Match","Exact","33 COWBARN LN, NOVATO, CA, 94947",192761173,"L"
174676,"33 CRESCENT PLACE","SHORT HILLS","NJ",7078,40.725957796,-74.319607646,176,"33 CRESCENT PLACE, SHORT HILLS, NJ, 7078","Match","Exact","33 CRESCENT PL, SHORT HILLS, NJ, 07078",63461582,"R"
174677,"33 CUPRESSUS LN","FORT WALTON BEACH","FL",32548,30.4177728060001,-86.638926967,177,"33 CUPRESSUS LN, FORT WALTON BEACH, FL, 32548","Match","Non_Exact","33 CYPRESSUS LN NW, FORT WALTON BEACH, FL, 32548",74406064,"L"
174678,"33 DEER MDW","TOLLAND","CT",6084,41.844444233,-72.4164699149999,178,"33 DEER MDW, TOLLAND, CT, 6084","Match","Exact","33 DEER MEADOW, TOLLAND, CT, 06084",626691154,"L"
174679,"33 DEERWOOD DRIVE","CLARK","NJ",7066,40.607216179,-74.33516987,179,"33 DEERWOOD DRIVE, CLARK, NJ, 7066","Match","Exact","33 DEERWOOD DR, CLARK, NJ, 07066",60602452,"L"
174680,"33 DENMARK JACKSON RD","DENMARK","TN",38391,35.5789397,-88.903851647,180,"33 DENMARK JACKSON RD, DENMARK, TN, 38391","Match","Exact","33 DENMARK JACKSON RD, DENMARK, TN, 38391",619568737,"L"
174681,"33 DF HAVILAND LANE","WEYMOUTH","MA",2188,42.2145190210001,-70.958154142,181,"33 DF HAVILAND LANE, WEYMOUTH, MA, 2188","Match","Exact","33 DF HAVILAND LN, WEYMOUTH, MA, 02188",617775520,"R"
174682,"33 DIXWELL AVE  SUITE 195","NEW HAVEN","CT",6511,41.3139391440001,-72.932470283,182,"33 DIXWELL AVE  SUITE 195, NEW HAVEN, CT, 6511","Match","Exact","33 DIXWELL AVE, NEW HAVEN, CT, 06511",3701067,"R"
174683,"33 DONALD DRIVE","FAIRFIELD","OH",45014,39.3439367980001,-84.5368614449999,183,"33 DONALD DRIVE, FAIRFIELD, OH, 45014","Match","Exact","33 DONALD DR, FAIRFIELD, OH, 45014",113798289,"R"
174684,"33 DOWNING ST","CHERRY HILL","NJ",8003,39.884555607,-74.931085915,184,"33 DOWNING ST, CHERRY HILL, NJ, 8003","Match","Exact","33 DOWNING ST, CHERRY HILL, NJ, 08003",134363478,"R"
174685,"33 DUNNE PLACE","LYNBROOK","NY",11563,40.6454903790001,-73.678801167,185,"33 DUNNE PLACE, LYNBROOK, NY, 11563","Match","Exact","33 DUNNE PL, LYNBROOK, NY, 11563",147678858,"L"
174686,"33 E CANON PERDIDO STREET","SANTA BARBARA","CA",93101,34.420911721,-119.700168989,186,"33 E CANON PERDIDO STREET, SANTA BARBARA, CA, 93101","Match","Exact","33 E CANON PERDIDO ST, SANTA BARBARA, CA, 93101",108605342,"L"
174687,"33 E ELM ST","NORWALK","OH",44857,41.2389961870001,-82.608719611,187,"33 E ELM ST, NORWALK, OH, 44857","Match","Exact","33 E ELM ST, NORWALK, OH, 44857",12606827,"L"
174688,"33 E LEMON ST","LITITZ","PA",17543,40.1532206000001,-76.3058512649999,188,"33 E LEMON ST, LITITZ, PA, 17543","Match","Exact","33 E LEMON ST, LITITZ, PA, 17543",179679314,"L"
174689,"33 E VALLEY BLVD SUITE 213","ALHAMBRA","CA",91801,NA,NA,189,"33 E VALLEY BLVD SUITE 213, ALHAMBRA, CA, 91801","Tie",NA,NA,NA,NA
174690,"33 E WASHINGTON STREET","NANTICOKE","PA",18634,41.1968845800001,-75.999260792,190,"33 E WASHINGTON STREET, NANTICOKE, PA, 18634","Match","Exact","33 E WASHINGTON ST, NANTICOKE, PA, 18634",80937995,"R"
174691,"33 EAST AVE","SARATOGA SPRINGS","NY",12866,43.0928358950001,-73.778635196,191,"33 EAST AVE, SARATOGA SPRINGS, NY, 12866","Match","Exact","33 EAST AVE, SARATOGA SPGS, NY, 12866",18767150,"L"
174692,"33 EAST HILL RD","PLAINFIELD","VT",5667,44.277190203,-72.416541131,192,"33 EAST HILL RD, PLAINFIELD, VT, 5667","Match","Exact","33 E HILL RD, PLAINFIELD, VT, 05667",630023446,"R"
174693,"33 EAST MAIN ST","NEW LONDON","OH",44851,41.0851520100001,-82.3978917109999,193,"33 EAST MAIN ST, NEW LONDON, OH, 44851","Match","Exact","33 E MAIN ST, NEW LONDON, OH, 44851",12604705,"R"
174694,"33 EAST MEADOW LANE","MIDDLETON","MA",1949,42.6137246800001,-70.9958079159999,194,"33 EAST MEADOW LANE, MIDDLETON, MA, 1949","Match","Exact","33 E MEADOW LN, MIDDLETON, MA, 01949",645345756,"R"
174695,"33 EAST MERRIMACK STREET","LOWELL","MA",1852,42.644655749,-71.304454837,195,"33 EAST MERRIMACK STREET, LOWELL, MA, 1852","Match","Exact","33 E MERRIMACK ST, LOWELL, MA, 01852",86878726,"R"
174696,"33 EAST SCHROCK RD","WESTERVILLE","OH",43081,40.109642191,-82.924503326,196,"33 EAST SCHROCK RD, WESTERVILLE, OH, 43081","Match","Exact","33 E SCHROCK RD, WESTERVILLE, OH, 43081",135587533,"R"
174697,"33 EDDY ST","MILFORD","CT",6460,41.210905251,-73.0605724009999,197,"33 EDDY ST, MILFORD, CT, 6460","Match","Exact","33 EDDY ST, MILFORD, CT, 06460",3715347,"R"
174698,"33 ELSIN LANE","WILLINGBORO","NJ",8046,40.02443286,-74.873066744,198,"33 ELSIN LANE, WILLINGBORO, NJ, 8046","Match","Exact","33 ELSIN LN, WILLINGBORO, NJ, 08046",134032100,"R"
174699,"33 ERIE ST W","BLAUVELT","NY",10913,41.063358286,-73.9597346479999,199,"33 ERIE ST W, BLAUVELT, NY, 10913","Match","Exact","33 ERIE ST W, BLAUVELT, NY, 10913",124612302,"L"
174700,"33 ERNSTON ROAD","COLONIA","NJ",7067,40.606220492,-74.316364331,200,"33 ERNSTON ROAD, COLONIA, NJ, 7067","Match","Exact","33 ERNSTON RD, COLONIA, NJ, 07067",60272425,"R"
174701,"33 EXETER RD","HAMPTON","NH",3842,42.9434808090001,-70.840155769,201,"33 EXETER RD, HAMPTON, NH, 3842","Match","Exact","33 EXETER RD, HAMPTON, NH, 03842",113675860,"L"
174702,"33 FAIRFAX VG","HARRISBURG","PA",17112,40.3409125360001,-76.821941938,202,"33 FAIRFAX VG, HARRISBURG, PA, 17112","Match","Non_Exact","33 FAIRFAX VILLAGE, HARRISBURG, PA, 17112",70840773,"R"
174703,"33 FAIRFIELD DR","TINTON FALLS","NJ",7724,40.3130146500001,-74.088157065,203,"33 FAIRFIELD DR, TINTON FALLS, NJ, 7724","Match","Exact","33 FAIRFIELD DR, TINTON FALLS, NJ, 07724",90453900,"L"
174704,"33 FALLS CREEK RD","RAYMOND","WA",98577,46.534268496,-123.515811066,204,"33 FALLS CREEK RD, RAYMOND, WA, 98577","Match","Exact","33 FALLS CREEK RD, RAYMOND, WA, 98577",176000484,"L"
174705,"33 FLATBUSH AVE FL 4TH","BROOKLYN","NY",11217,40.6878515020001,-73.9801920689999,205,"33 FLATBUSH AVE FL 4TH, BROOKLYN, NY, 11217","Match","Exact","33 FLATBUSH AVE, BROOKLYN, NY, 11217",641438818,"L"
174706,"33 FOREST AVENUE","VALLEY STREAM","CA",11581,NA,NA,206,"33 FOREST AVENUE, VALLEY STREAM, CA, 11581","No_Match",NA,NA,NA,NA
174707,"33 FORSHAY ROAD","MONSEY","NY",10952,41.1413613450001,-74.082870487,207,"33 FORSHAY ROAD, MONSEY, NY, 10952","Match","Exact","33 FORSHAY RD, MONSEY, NY, 10952",653884959,"L"
174708,"33 FRANDEL DRIVE","AVON","CT",6001,41.8008388760001,-72.853641061,208,"33 FRANDEL DRIVE, AVON, CT, 6001","Match","Exact","33 FRANDEL DR, AVON, CT, 06001",3484058,"L"
174709,"33 FRANKLIN DR","VOORHEES","NJ",8043,39.854244523,-74.987929305,209,"33 FRANKLIN DR, VOORHEES, NJ, 8043","Match","Exact","33 FRANKLIN DR, VOORHEES, NJ, 08043",134420062,"R"
174710,"33 FRANKLIN DRIVE","VOORHEES TOWNSHIP","NJ",8043,39.854244523,-74.987929305,210,"33 FRANKLIN DRIVE, VOORHEES TOWNSHIP, NJ, 8043","Match","Non_Exact","33 FRANKLIN DR, VOORHEES, NJ, 08043",134420062,"R"
174711,"33 GARDEN OAKS DRIVE","SMITHFIELD","NC",27577,35.5203085910001,-78.48371473,211,"33 GARDEN OAKS DRIVE, SMITHFIELD, NC, 27577","Match","Exact","33 GARDEN OAKS DR, SMITHFIELD, NC, 27577",637651317,"L"
174712,"33 GARDEN STREET","STATEN ISLAND","NY",10314,40.6115833910001,-74.123237407,212,"33 GARDEN STREET, STATEN ISLAND, NY, 10314","Match","Exact","33 GARDEN ST, STATEN ISLAND, NY, 10314",59866681,"R"
174713,"33 GATES CIRCLE NO 5E","BUFFALO","NY",14209,NA,NA,213,"33 GATES CIRCLE NO 5E, BUFFALO, NY, 14209","No_Match",NA,NA,NA,NA
174714,"33 GENA COURT","TRENTON","NJ",8690,40.2071110640001,-74.681401251,214,"33 GENA COURT, TRENTON, NJ, 8690","Match","Exact","33 GENA CT, TRENTON, NJ, 08690",60204184,"R"
174715,"33 GILMER ST STE 304","ATLANTA","GA",30303,33.7540649110001,-84.386098631,215,"33 GILMER ST STE 304, ATLANTA, GA, 30303","Match","Non_Exact","33 GILMER ST SE, ATLANTA, GA, 30303",17344579,"R"
174716,"33 GOLF COURSE DRIVE","SILVER BAY","MN",55614,47.2792823300001,-91.285470774,216,"33 GOLF COURSE DRIVE, SILVER BAY, MN, 55614","Match","Non_Exact","33 GOLF COURSE RD, SILVER BAY, MN, 55614",194223474,"R"
174717,"33 GORMLEY AVE","PORTSMOUTH","RI",2871,41.6228928030001,-71.233547608,217,"33 GORMLEY AVE, PORTSMOUTH, RI, 2871","Match","Exact","33 GORMLEY AVE, PORTSMOUTH, RI, 02871",47345091,"R"
174718,"33 GOVERNORS AVE","MEDFORD","MA",2155,42.4203293320001,-71.111144662,218,"33 GOVERNORS AVE, MEDFORD, MA, 2155","Match","Exact","33 GOVERNORS AVE, MEDFORD, MA, 02155",86857993,"R"
174719,"33 GRANITE ST","FOXBORO","MA",2035,42.0642767000001,-71.255749897,219,"33 GRANITE ST, FOXBORO, MA, 2035","Match","Exact","33 GRANITE ST, FOXBORO, MA, 02035",87261734,"L"
174720,"33 GRAVES LANE","TRENTON","TN",38382,35.9504709400001,-88.864222996,220,"33 GRAVES LANE, TRENTON, TN, 38382","Match","Exact","33 GRAVES LN, TRENTON, TN, 38382",605544908,"L"
174721,"33 GREENWOOD AVE","NEW HAVEN","CT",6519,41.3047863890001,-72.944526485,221,"33 GREENWOOD AVE, NEW HAVEN, CT, 6519","Match","Non_Exact","33 GREENWOOD ST, NEW HAVEN, CT, 06519",3700352,"R"
174722,"33 GREYLAWN AVENUE","WARWICK","RI",2889,41.7181944640001,-71.403164256,222,"33 GREYLAWN AVENUE, WARWICK, RI, 2889","Match","Exact","33 GREYLAWN AVE, WARWICK, RI, 02889",159149348,"R"
174723,"33 GROVE AVE","WOLCOTT","CT",6716,41.56089375,-72.9490226739999,223,"33 GROVE AVE, WOLCOTT, CT, 6716","Match","Exact","33 GROVE AVE, WOLCOTT, CT, 06716",3736857,"R"
174724,"33 H BOUSCAY AVE","NORWALK","OH",44857,41.251215223,-82.6243193239999,224,"33 H BOUSCAY AVE, NORWALK, OH, 44857","Match","Exact","33 BOUSCAY AVE, NORWALK, OH, 44857",12607373,"L"
174725,"33 HALIFAX PLACE","IRVINE","CA",92602,33.734511879,-117.774250397,225,"33 HALIFAX PLACE, IRVINE, CA, 92602","Match","Exact","33 HALIFAX PL, IRVINE, CA, 92602",144132399,"R"
174726,"33 HAMILTON TERRACE","NEW YORK","NY",10031,40.8220037250001,-73.947052175,226,"33 HAMILTON TERRACE, NEW YORK, NY, 10031","Match","Exact","33 HAMILTON TER, NEW YORK, NY, 10031",59655981,"R"
174727,"33 HARRIET ST APT 1","SAN FRANCISCO","CA",94103,37.7788863210001,-122.40713906,227,"33 HARRIET ST APT 1, SAN FRANCISCO, CA, 94103","Match","Exact","33 HARRIET ST, SAN FRANCISCO, CA, 94103",192287366,"L"
174728,"33 HARRISON AVENUE - 8TH FLOOR","BOSTON","MA",2111,42.351884985,-71.061204706,228,"33 HARRISON AVENUE - 8TH FLOOR, BOSTON, MA, 2111","Match","Exact","33 HARRISON AVE, BOSTON, MA, 02111",85710477,"R"
174729,"33 HASKIN STREET","SPRINGFIELD","MA",1109,42.13173321,-72.539985537,229,"33 HASKIN STREET, SPRINGFIELD, MA, 1109","Match","Exact","33 HASKIN ST, SPRINGFIELD, MA, 01109",4024947,"L"
174730,"33 HAYESTOWN ROAD","DANBURY","CT",6811,41.424148646,-73.451042606,230,"33 HAYESTOWN ROAD, DANBURY, CT, 6811","Match","Exact","33 HAYESTOWN RD, DANBURY, CT, 06811",637139918,"R"
174731,"33 HAZEN DRIVE","CONCORD","NH",3301,43.2136166650001,-71.5175649,231,"33 HAZEN DRIVE, CONCORD, NH, 3301","Match","Exact","33 HAZEN DR, CONCORD, NH, 03301",642894210,"R"
174732,"33 HERITAGE HILL ROAD","TARRYTOWN","NY",10591,41.0685321930001,-73.858452627,232,"33 HERITAGE HILL ROAD, TARRYTOWN, NY, 10591","Match","Exact","33 HERITAGE HILL RD, TARRYTOWN, NY, 10591",139731074,"R"
174733,"33 HERRICK AVENUE","DELMAR","NY",12054,42.6284627090001,-73.822583572,233,"33 HERRICK AVENUE, DELMAR, NY, 12054","Match","Exact","33 HERRICK AVE, DELMAR, NY, 12054",18308978,"L"
174734,"33 HIGHVIEW LANE","RIDGE","NY",11961,40.907973171,-72.885695363,234,"33 HIGHVIEW LANE, RIDGE, NY, 11961","Match","Exact","33 HIGHVIEW LN, RIDGE, NY, 11961",114271817,"L"
174735,"33 HILLCREST AVE","BROCKTON","MA",2301,42.112209116,-71.034829401,235,"33 HILLCREST AVE, BROCKTON, MA, 2301","Match","Exact","33 HILLCREST AVE, BROCKTON, MA, 02301",87441674,"R"
174736,"33 HOLLY DRIVE","UPPER SADDLE RIVER","NJ",7458,41.0604750530001,-74.0995182999999,236,"33 HOLLY DRIVE, UPPER SADDLE RIVER, NJ, 7458","Match","Exact","33 HOLLY DR, UPPER SADDLE RIVER, NJ, 07458",64366107,"R"
174737,"33 HOMELAND","IRVINE","CA",92618,33.6970934120001,-117.72034512,237,"33 HOMELAND, IRVINE, CA, 92618","Match","Exact","33 HOMELAND, IRVINE, CA, 92618",627860897,"L"
174738,"33 HORSESHOE LANE","NORTH FALMOUTH","MA",2556,41.6324214890001,-70.6227326009999,238,"33 HORSESHOE LANE, NORTH FALMOUTH, MA, 2556","Match","Exact","33 HORSESHOE LN, N FALMOUTH, MA, 02556",121669836,"R"
174739,"33 HORTON PLACE LOWER","BUFFALO","NY",14209,42.921225711,-78.863082355,239,"33 HORTON PLACE LOWER, BUFFALO, NY, 14209","Match","Exact","33 HORTON PL, BUFFALO, NY, 14209",48289724,"R"
174740,"33 HOWARD ST","POMPTON LAKES","NJ",7442,41.010611054,-74.284904086,240,"33 HOWARD ST, POMPTON LAKES, NJ, 7442","Match","Exact","33 HOWARD ST, POMPTON LAKES, NJ, 07442",65256326,"L"
174741,"33 HUFF DRIVE","LAWRENCEVILLE","GA",30044,33.922659912,-84.062647983,241,"33 HUFF DRIVE, LAWRENCEVILLE, GA, 30044","Match","Exact","33 HUFF DR, LAWRENCEVILLE, GA, 30044",88943120,"L"
174742,"33 HUMMINGBIRD CT","CHILLICOTHE","OH",45601,39.4053986320001,-83.039632365,242,"33 HUMMINGBIRD CT, CHILLICOTHE, OH, 45601","Match","Exact","33 HUMMINGBIRD CT, CHILLICOTHE, OH, 45601",37500185,"L"
174743,"33 INDEPENDENCE CIRCLE","MIDDLEBURY","CT",6768,NA,NA,243,"33 INDEPENDENCE CIRCLE, MIDDLEBURY, CT, 6768","No_Match",NA,NA,NA,NA
174744,"33 INTREPID CIRCLE APT 402","MARBLEHEAD","MA",1945,42.5096852770001,-70.8544415919999,244,"33 INTREPID CIRCLE APT 402, MARBLEHEAD, MA, 1945","Match","Exact","33 INTREPID CIR, MARBLEHEAD, MA, 01945",646587508,"L"
174745,"33 IRVING STREET","NEWTON","MA",2459,42.3373632120001,-71.189187811,245,"33 IRVING STREET, NEWTON, MA, 2459","Match","Exact","33 IRVING ST, NEWTON, MA, 02459",86866589,"R"
174746,"33 JAMES STREET","KEYSER","WV",26726,39.441244662,-78.980574357,246,"33 JAMES STREET, KEYSER, WV, 26726","Match","Exact","33 JAMES ST, KEYSER, WV, 26726",74306778,"R"
174747,"33 JOHNATHAN RD","LAKE ZURICH","IL",60047,42.209248523,-88.1059325639999,247,"33 JOHNATHAN RD, LAKE ZURICH, IL, 60047","Match","Exact","33 JOHNATHAN RD, LAKE ZURICH, IL, 60047",119634136,"R"
174748,"33 JOHNSON STREET","CHATSWORTH","GA",30705,34.7587007180001,-84.821272434,248,"33 JOHNSON STREET, CHATSWORTH, GA, 30705","Match","Exact","33 JOHNSON ST, CHATSWORTH, GA, 30705",57108724,"R"
174749,"33 JOYCE DRIVE","HAUPPAUGE","NY",11788,40.808152873,-73.205061547,249,"33 JOYCE DRIVE, HAUPPAUGE, NY, 11788","Match","Exact","33 JOYCE DR, HAUPPAUGE, NY, 11788",113988785,"R"
174750,"33 JUNCTION LN","SOUTH HAMILTON","MA",1982,42.6210406930001,-70.821564912,250,"33 JUNCTION LN, SOUTH HAMILTON, MA, 1982","Match","Exact","33 JUNCTION LN, SOUTH HAMILTON, MA, 01982",616746327,"R"
174751,"33 KANE PLACE","BROOKLYN","NY",11233,40.6778332320001,-73.9237025959999,251,"33 KANE PLACE, BROOKLYN, NY, 11233","Match","Exact","33 KANE PL, BROOKLYN, NY, 11233",59083367,"L"
174752,"33 KELLOGG AVENUE 2","AMHERST","MA",1004,NA,NA,252,"33 KELLOGG AVENUE 2, AMHERST, MA, 1004","No_Match",NA,NA,NA,NA
174753,"33 KELLOGG AVENUE","AMHERST","MA",1002,42.3775755360001,-72.517996132,253,"33 KELLOGG AVENUE, AMHERST, MA, 1002","Match","Exact","33 KELLOGG AVE, AMHERST, MA, 01002",39855817,"R"
174754,"33 KINGMAN LANE","GARNERVILLE","NY",10923,41.1995841310001,-73.993296862,254,"33 KINGMAN LANE, GARNERVILLE, NY, 10923","Match","Non_Exact","33 KINSMAN LN, GARNERVILLE, NY, 10923",124591188,"R"
174755,"33 KINGSLAND COURT","FAIR LAWN","NJ",7410,40.9411145180001,-74.126217302,255,"33 KINGSLAND COURT, FAIR LAWN, NJ, 7410","Match","Exact","33 KINGSLAND CT, FAIR LAWN, NJ, 07410",64425212,"L"
174756,"33 KINGSTON DRIVE","BELLEVILLE","IL",62223,38.580277439,-90.0670150879999,256,"33 KINGSTON DRIVE, BELLEVILLE, IL, 62223","Match","Exact","33 KINGSTON DR, BELLEVILLE, IL, 62223",107837181,"L"
174757,"33 KINROSS DRIVE","STAFFORD","VA",22554,38.452912397,-77.4590632759999,257,"33 KINROSS DRIVE, STAFFORD, VA, 22554","Match","Exact","33 KINROSS DR, STAFFORD, VA, 22554",614124284,"L"
174758,"33 LAKE AVE","STATEN ISLAND","NY",10303,40.636315037,-74.150481176,258,"33 LAKE AVE, STATEN ISLAND, NY, 10303","Match","Exact","33 LAKE AVE, STATEN ISLAND, NY, 10303",59877400,"L"
174759,"33 LAMBERTS LANE","COATESVILLE","PA",19320,39.996338892,-75.8522531959999,259,"33 LAMBERTS LANE, COATESVILLE, PA, 19320","Match","Exact","33 LAMBERTS LN, COATESVILLE, PA, 19320",179517051,"L"
174760,"33 LEDGEWOOD DRIVE","COHASSET","MA",2025,42.2232148630001,-70.795148199,260,"33 LEDGEWOOD DRIVE, COHASSET, MA, 2025","Match","Exact","33 LEDGEWOOD DR, COHASSET, MA, 02025",87298875,"R"
174761,"33 LESLIE WAY","HAMLIN","WV",25523,38.309255342,-82.04975394,261,"33 LESLIE WAY, HAMLIN, WV, 25523","Match","Exact","33 LESLIE WAY, HAMLIN, WV, 25523",652130267,"L"
174762,"33 LEXINGTON ST","HAMDEN","CT",6514,41.3508364050001,-72.9329261619999,262,"33 LEXINGTON ST, HAMDEN, CT, 6514","Match","Exact","33 LEXINGTON ST, HAMDEN, CT, 06514",3698703,"R"
174763,"33 LEYDEN STREET","PLYMOUTH","MA",2360,41.9562561210001,-70.6629305279999,263,"33 LEYDEN STREET, PLYMOUTH, MA, 2360","Match","Exact","33 LEYDEN ST, PLYMOUTH, MA, 02360",87472573,"L"
174764,"33 LIGHTHOUSE DRIVE","GOOSE CREEK","SC",29445,32.969382103,-80.016957909,264,"33 LIGHTHOUSE DRIVE, GOOSE CREEK, SC, 29445","Match","Exact","33 LIGHTHOUSE DR, GOOSE CREEK, SC, 29445",100747259,"R"
174765,"33 LINCOLN DRIVE","NORTH SMITHFIELD","RI",2896,42.006998299,-71.544747221,265,"33 LINCOLN DRIVE, NORTH SMITHFIELD, RI, 2896","Match","Exact","33 LINCOLN DR, NORTH SMITHFIELD, RI, 02896",47486300,"L"
174766,"33 LOCUST LN","FLORENCE","KY",41042,38.992784586,-84.622600894,266,"33 LOCUST LN, FLORENCE, KY, 41042","Match","Exact","33 LOCUST LN, FLORENCE, KY, 41042",81952608,"R"
174767,"33 LONO SUITE 450","KAHULUI","HI",96732,20.889621967,-156.469863855,267,"33 LONO SUITE 450, KAHULUI, HI, 96732","Match","Non_Exact","33 LONO AVE, KAHULUI, HI, 96732",647461644,"R"
174768,"33 LOUDOUN ST 1G","YONKERS","NY",10705,40.914548559,-73.8910569779999,268,"33 LOUDOUN ST 1G, YONKERS, NY, 10705","Match","Exact","33 LOUDOUN ST, YONKERS, NY, 10705",139744021,"L"
174769,"33 LUPTON AVE","WOODBURY","NJ",8096,39.8386971560001,-75.1559329849999,269,"33 LUPTON AVE, WOODBURY, NJ, 8096","Match","Exact","33 LUPTON AVE, WOODBURY, NJ, 08096",134583215,"R"
174770,"33 MACON DRIVE","CATAULA","GA",31804,32.6369972100001,-84.888420084,270,"33 MACON DRIVE, CATAULA, GA, 31804","Match","Exact","33 MACON DR, CATAULA, GA, 31804",1739648,"L"
174771,"33 MADISON AVE","PISCATAWAY","NJ",8854,40.5458784830001,-74.4320740539999,271,"33 MADISON AVE, PISCATAWAY, NJ, 8854","Match","Exact","33 MADISON AVE, PISCATAWAY, NJ, 08854",60265227,"L"
174772,"33 MADOC STREET","NEWTON","MA",2459,42.325135629,-71.1859480419999,272,"33 MADOC STREET, NEWTON, MA, 2459","Match","Exact","33 MADOC ST, NEWTON, MA, 02459",87093035,"R"
174773,"33 MAGUE AVE","NEWTON","MA",2465,42.3548144260001,-71.23274073,273,"33 MAGUE AVE, NEWTON, MA, 2465","Match","Exact","33 MAGUE AVE, NEWTON, MA, 02465",624190488,"L"
174774,"33 MAIN STREET","LITTLETON","NH",3561,44.306189583,-71.770779983,274,"33 MAIN STREET, LITTLETON, NH, 3561","Match","Exact","33 MAIN ST, LITTLETON, NH, 03561",145700006,"L"
174775,"33 MALLARD LANE","WESTFIELD","MA",1085,42.0989287520001,-72.728392734,275,"33 MALLARD LANE, WESTFIELD, MA, 1085","Match","Exact","33 MALLARD LN, WESTFIELD, MA, 01085",4046571,"R"
174776,"33 MALLARD PLACE","SEACAUCUS","NJ",7094,40.800724012,-74.064220467,276,"33 MALLARD PLACE, SEACAUCUS, NJ, 7094","Match","Non_Exact","33 MALLARD PL, SECAUCUS, NJ, 07094",633370504,"L"
174777,"33 MAPLE AVENUE   PO BOX 38","BOVINA CENTER","NY",13740,42.262481753,-74.781128011,277,"33 MAPLE AVENUE   PO BOX 38, BOVINA CENTER, NY, 13740","Match","Exact","33 MAPLE AVE, BOVINA CENTER, NY, 13740",41565003,"L"
174778,"33 MAPLE ROAD","MAHWAH","NJ",7430,41.119581356,-74.184333512,278,"33 MAPLE ROAD, MAHWAH, NJ, 7430","Match","Exact","33 MAPLE RD, MAHWAH, NJ, 07430",64399906,"R"
174779,"33 MARGATE AVE","BEESLEYS POINT","NJ",8223,39.272828125,-74.638105729,279,"33 MARGATE AVE, BEESLEYS POINT, NJ, 8223","Match","Non_Exact","33 MARGATE AVE, MARMORA, NJ, 08223",174342044,"L"
174780,"33 MARKET POINT DRIVE","GREENVILLE","SC",29607,34.822930838,-82.3006792909999,280,"33 MARKET POINT DRIVE, GREENVILLE, SC, 29607","Match","Exact","33 MARKET POINT DR, GREENVILLE, SC, 29607",38375785,"R"
174781,"33 MARSELLE","LAGUNA NIGUEL","CA",92677,33.5102509610001,-117.733185776,281,"33 MARSELLE, LAGUNA NIGUEL, CA, 92677","Match","Non_Exact","33 MARSEILLE, LAGUNA NIGUEL, CA, 92677",640214511,"R"
174782,"33 MASSACHUSETTS AVE","MIDDLETOWN","RI",2842,41.5140895330001,-71.3035542699999,282,"33 MASSACHUSETTS AVE, MIDDLETOWN, RI, 2842","Match","Exact","33 MASSACHUSETTS AVE, MIDDLETOWN, RI, 02842",47357604,"R"
174783,"33 MCGREGOR DRIVE","SHERBORN","MA",1770,42.2482983890001,-71.397039073,283,"33 MCGREGOR DRIVE, SHERBORN, MA, 1770","Match","Exact","33 MCGREGOR DR, SHERBORN, MA, 01770",86851019,"L"
174784,"33 MCINTOSH STREET","LIVERPOOL","NY",13090,43.1369363410001,-76.210983309,284,"33 MCINTOSH STREET, LIVERPOOL, NY, 13090","Match","Exact","33 MCINTOSH ST, LIVERPOOL, NY, 13090",46563076,"L"
174785,"33 MCKEAN ST","GOUVERNEUR","NY",13642,44.3310696,-75.477009998,285,"33 MCKEAN ST, GOUVERNEUR, NY, 13642","Match","Exact","33 MCKEAN ST, GOUVERNEUR, NY, 13642",155170520,"L"
174786,"33 MCKINLEY CT","PHILLIPSBURG","MT",59858,46.386993438,-113.424728075,286,"33 MCKINLEY CT, PHILLIPSBURG, MT, 59858","Match","Non_Exact","33 MC KINLEY CT, PHILIPSBURG, MT, 59858",640941450,"L"
174787,"33 MEADOW BROOK DRIVE","PITTSBURG","CA",94565,NA,NA,287,"33 MEADOW BROOK DRIVE, PITTSBURG, CA, 94565","Tie",NA,NA,NA,NA
174788,"33 MESERO WAY","HOT SPRINGS VILLAGE","AR",71909,34.684575323,-92.945604392,288,"33 MESERO WAY, HOT SPRINGS VILLAGE, AR, 71909","Match","Exact","33 MESERO WAY, HOT SPRINGS VILLAGE, AR, 71909",639931851,"L"
174789,"33 MONROE STEET APT D","MILFORD","CT",6460,41.1967870300001,-73.084013403,289,"33 MONROE STEET APT D, MILFORD, CT, 6460","Match","Exact","33 MONROE ST, MILFORD, CT, 06460",3714205,"R"
174790,"33 MORNINGSIDE RD","VERONA","NJ",7044,40.826294573,-74.252299196,290,"33 MORNINGSIDE RD, VERONA, NJ, 7044","Match","Exact","33 MORNINGSIDE RD, VERONA, NJ, 07044",63483272,"L"
174791,"33 MOWBRAY STREET","PATCHOGUE","NY",11772,40.774366453,-73.029716938,291,"33 MOWBRAY STREET, PATCHOGUE, NY, 11772","Match","Exact","33 MOWBRAY ST, PATCHOGUE, NY, 11772",114009185,"R"
174792,"33 MUSIC SQ W STE 102B","NASHVILLE","TN",37203,36.1495185430001,-86.7933151669999,292,"33 MUSIC SQ W STE 102B, NASHVILLE, TN, 37203","Match","Exact","33 MUSIC SQ W, NASHVILLE, TN, 37203",97186342,"R"
174793,"33 N 25TH ST","LAS VEGAS","NV",89101,36.1608005530001,-115.116027928,293,"33 N 25TH ST, LAS VEGAS, NV, 89101","Match","Exact","33 N 25TH ST, LAS VEGAS, NV, 89101",639333125,"L"
174794,"33 N CENTRAL 404","MEDF","OR",97501,NA,NA,294,"33 N CENTRAL 404, MEDF, OR, 97501","No_Match",NA,NA,NA,NA
174795,"33 N CHESTNUT STREET","CORTEZ","CO",81321,37.348994073,-108.586536359,295,"33 N CHESTNUT STREET, CORTEZ, CO, 81321","Match","Exact","33 N CHESTNUT ST, CORTEZ, CO, 81321",91765915,"L"
174796,"33 N DEARBORN ST STE 300","CHICAGO","IL",60602,41.882736472,-87.6294159239999,296,"33 N DEARBORN ST STE 300, CHICAGO, IL, 60602","Match","Non_Exact","33 N DEARBORN ST, CHICAGO, IL, 60602",111768772,"R"
174797,"33 N FIRST STREET  STE 1","ASHLAND","OR",97520,NA,NA,297,"33 N FIRST STREET  STE 1, ASHLAND, OR, 97520","Tie",NA,NA,NA,NA
174798,"33 N MAIN","ELKTON","MI",48731,NA,NA,298,"33 N MAIN, ELKTON, MI, 48731","Tie",NA,NA,NA,NA
174799,"33 N PUBLIC SQUARE","KNOXVILLE","IL",61448,40.9085136090001,-90.2846325359999,299,"33 N PUBLIC SQUARE, KNOXVILLE, IL, 61448","Match","Exact","33 N PUBLIC SQ, KNOXVILLE, IL, 61448",9040513,"R"
174800,"33 N STREET","HULL","MA",2045,42.29895086,-70.8830927939999,300,"33 N STREET, HULL, MA, 2045","Match","Exact","33 N ST, HULL, MA, 02045",87429166,"L"
174801,"33 N WEST ST","ALLENTOWN","PA",18102,40.5978425710001,-75.4916291549999,301,"33 N WEST ST, ALLENTOWN, PA, 18102","Match","Exact","33 N WEST ST, ALLENTOWN, PA, 18102",80769482,"R"
174802,"33 NATHAN HALE COURT","CHESHIRE","CT",6410,41.5501937860001,-72.954525259,302,"33 NATHAN HALE COURT, CHESHIRE, CT, 6410","Match","Exact","33 NATHAN HALE CT, CHESHIRE, CT, 06410",3751842,"R"
174803,"33 NATHAN HALE CT","CHESHIRE","CT",6410,41.5501937860001,-72.954525259,303,"33 NATHAN HALE CT, CHESHIRE, CT, 6410","Match","Exact","33 NATHAN HALE CT, CHESHIRE, CT, 06410",3751842,"R"
174804,"33 NEW SCOTLAND AVE- APT 504","ALBANY","NY",12208,NA,NA,304,"33 NEW SCOTLAND AVE- APT 504, ALBANY, NY, 12208","No_Match",NA,NA,NA,NA
174805,"33 NINA COURT","JONESBORO","GA",30238,33.5062221960001,-84.390285422,305,"33 NINA COURT, JONESBORO, GA, 30238","Match","Exact","33 NINA CT, JONESBORO, GA, 30238",624286590,"R"
174806,"33 NORTH CENTRAL AVENUE","RAMSEY","NJ",7446,41.0580842950001,-74.143976992,306,"33 NORTH CENTRAL AVENUE, RAMSEY, NJ, 7446","Match","Exact","33 N CENTRAL AVE, RAMSEY, NJ, 07446",64402197,"L"
174807,"33 NORTH DEARBORN STREET 1500","CHICAGO","IL",60602,41.8827341090001,-87.6294158219999,307,"33 NORTH DEARBORN STREET 1500, CHICAGO, IL, 60602","Match","Exact","33 N DEARBORN ST, CHICAGO, IL, 60602",111768772,"R"
174808,"33 NORTH DEARBORN STREET SUITE 153","CHICAGO","IL",60602,41.8827341090001,-87.6294158219999,308,"33 NORTH DEARBORN STREET SUITE 153, CHICAGO, IL, 60602","Match","Exact","33 N DEARBORN ST, CHICAGO, IL, 60602",111768772,"R"
174809,"33 NORTH PALMER DRIVE","PORT TOWNSEND","VA",98368,NA,NA,309,"33 NORTH PALMER DRIVE, PORT TOWNSEND, VA, 98368","No_Match",NA,NA,NA,NA
174810,"33 NORTH THOMPSON STREET","NEW BUFALO","MI",49117,41.7949272340001,-86.74282347,310,"33 NORTH THOMPSON STREET, NEW BUFALO, MI, 49117","Match","Non_Exact","33 N THOMPSON ST, NEW BUFFALO, MI, 49117",119969727,"L"
174811,"33 NORTHERN AVENUE","NORTHAMPTON","MA",1060,42.329472036,-72.628409798,311,"33 NORTHERN AVENUE, NORTHAMPTON, MA, 1060","Match","Exact","33 NORTHERN AVE, NORTHAMPTON, MA, 01060",39849571,"R"
174812,"33 NORWALK LANE","BARNEGAT","NJ",8005,39.7689822360001,-74.288107334,312,"33 NORWALK LANE, BARNEGAT, NJ, 8005","Match","Exact","33 NORWALK LN, BARNEGAT, NJ, 08005",648531893,"R"
174813,"33 NOTTA LANE","GORHAM","ME",4038,NA,NA,313,"33 NOTTA LANE, GORHAM, ME, 4038","No_Match",NA,NA,NA,NA
174814,"33 NW 168 STREET","NORTH MIAMI BEACH","FL",33169,25.928987519,-80.201089285,314,"33 NW 168 STREET, NORTH MIAMI BEACH, FL, 33169","Match","Exact","33 NW 168TH ST, N MIAMI BEACH, FL, 33169",116030987,"R"
174815,"33 OAK LANE","SPRINGFIELD","IL",62712,39.69125812,-89.634759512,315,"33 OAK LANE, SPRINGFIELD, IL, 62712","Match","Non_Exact","33 OAK LN, SPRINGFIELD, IL, 62707",618603004,"L"
174816,"33 OAK PLACE","NEW IBERIA","LA",70563,29.9927458120001,-91.786667885,316,"33 OAK PLACE, NEW IBERIA, LA, 70563","Match","Exact","33 OAK PL, NEW IBERIA, LA, 70563",85374676,"L"
174817,"33 OAK STREET","SPRINGFIELD","MA",1109,42.1081207340001,-72.573956449,317,"33 OAK STREET, SPRINGFIELD, MA, 1109","Match","Exact","33 OAK ST, SPRINGFIELD, MA, 01109",4068148,"L"
174818,"33 OFFICE PARK ROAD A-122","HILTON HEAD ISLAND","SC",29928,32.1540077000001,-80.7662886799999,318,"33 OFFICE PARK ROAD A-122, HILTON HEAD ISLAND, SC, 29928","Match","Exact","33 OFFICE PARK RD, HILTON HEAD ISLAND, SC, 29928",645295125,"R"
174819,"33 OFFICE PARK ROAD A159","HILTON HEAD ISLAND","GA",29928,NA,NA,319,"33 OFFICE PARK ROAD A159, HILTON HEAD ISLAND, GA, 29928","No_Match",NA,NA,NA,NA
174820,"33 OGDEN STREET","GLENS FALLS","NY",12801,43.3196562040001,-73.652851191,320,"33 OGDEN STREET, GLENS FALLS, NY, 12801","Match","Exact","33 OGDEN ST, GLENS FALLS, NY, 12801",173897274,"R"
174821,"33 OLD NEW ENGLAND PATH","RUSSELL","MA",1071,42.1446499530001,-72.8391747869999,321,"33 OLD NEW ENGLAND PATH, RUSSELL, MA, 1071","Match","Exact","33 OLD NEW ENGLAND PATH, RUSSELL, MA, 01071",4046676,"L"
174822,"33 OLD WAGON ROAD","WOODSTOCK","NY",12498,42.0333053800001,-74.118446061,322,"33 OLD WAGON ROAD, WOODSTOCK, NY, 12498","Match","Exact","33 OLD WAGON RD, WOODSTOCK, NY, 12498",41883732,"R"
174823,"33 OLD WINDYBUSH ROAD","NEW HOPE","PA",18938,40.3359086630001,-74.964581586,323,"33 OLD WINDYBUSH ROAD, NEW HOPE, PA, 18938","Match","Non_Exact","33 OLD WINDY BUSH RD, NEW HOPE, PA, 18938",134775830,"R"
174824,"33 ORCHARD HILL RD","KATONAH","NY",10536,41.2898617980001,-73.745179212,324,"33 ORCHARD HILL RD, KATONAH, NY, 10536","Match","Exact","33 ORCHARD HILL RD, KATONAH, NY, 10536",139728685,"L"
174825,"33 OSAGE ROAD","CLAYMONT","DE",19703,39.802809546,-75.4750176859999,325,"33 OSAGE ROAD, CLAYMONT, DE, 19703","Match","Exact","33 OSAGE RD, CLAYMONT, DE, 19703",187260977,"R"
174826,"33 OSGOOD ROAD","MILFORD","NH",3055,42.8253767360001,-71.657365628,326,"33 OSGOOD ROAD, MILFORD, NH, 3055","Match","Exact","33 OSGOOD RD, MILFORD, NH, 03055",113577853,"R"
174827,"33 PADDY HILL RD","MEDFORD","ME",4463,45.234104718,-68.9110599639999,327,"33 PADDY HILL RD, MEDFORD, ME, 4463","Match","Exact","33 PADDY HILL RD, MEDFORD, ME, 04463",123997245,"R"
174828,"33 PANNEL STREET - UNIT 1","BUFFALO","NY",14214,42.939181063,-78.837666364,328,"33 PANNEL STREET - UNIT 1, BUFFALO, NY, 14214","Match","Non_Exact","33 PANNELL ST, BUFFALO, NY, 14214",48296058,"R"
174829,"33 PATRIOT DRIVE","BRUNSWICK","ME",4011,43.908702292,-70.0388357529999,329,"33 PATRIOT DRIVE, BRUNSWICK, ME, 4011","Match","Exact","33 PATRIOT DR, BRUNSWICK, ME, 04011",78045542,"L"
174830,"33 PCR 540","PERRYVILLE","MO",63755,37.605051213,-89.840644942,330,"33 PCR 540, PERRYVILLE, MO, 63755","Match","Non_Exact","33 PCR 540, PERRYVILLE, MO, 63775",647743352,"L"
174831,"33 PENELOPE CT","MAHOPAC","NY",10541,41.35157602,-73.753766884,331,"33 PENELOPE CT, MAHOPAC, NY, 10541","Match","Exact","33 PENELOPE CT, MAHOPAC, NY, 10541",139686348,"L"
174832,"33 PERCITA AVE B","SAN FRANCISCO","CA",94110,37.746754235,-122.418822312,332,"33 PERCITA AVE B, SAN FRANCISCO, CA, 94110","Match","Non_Exact","33 PRECITA AVE, SAN FRANCISCO, CA, 94110",192288549,"L"
174833,"33 PERRY STREET","AUBURN","MA",1501,42.2112577940001,-71.838144719,333,"33 PERRY STREET, AUBURN, MA, 1501","Match","Exact","33 PERRY ST, AUBURN, MA, 01501",40008650,"L"
174834,"33 PETTINE ST","COVENTRY","RI",2816,41.686297569,-71.543050796,334,"33 PETTINE ST, COVENTRY, RI, 2816","Match","Exact","33 PETTINE ST, COVENTRY, RI, 02816",159142584,"R"
174835,"33 PINCKNEY DRIVE","COATESVILLE","PA",19320,39.99868087,-75.8511401489999,335,"33 PINCKNEY DRIVE, COATESVILLE, PA, 19320","Match","Exact","33 PINCKNEY DR, COATESVILLE, PA, 19320",179525278,"L"
174836,"33 POLICE DRIVE","CHAPMANVILLE","WV",25508,NA,NA,336,"33 POLICE DRIVE, CHAPMANVILLE, WV, 25508","No_Match",NA,NA,NA,NA
174837,"33 POPLAR ROAD","PISCATAWAY","NJ",8554,NA,NA,337,"33 POPLAR ROAD, PISCATAWAY, NJ, 8554","No_Match",NA,NA,NA,NA
174838,"33 PRENZLER DR","BLOOMINGTON","IL",61704,40.4669360870001,-88.927466062,338,"33 PRENZLER DR, BLOOMINGTON, IL, 61704","Match","Exact","33 PRENZLER DR, BLOOMINGTON, IL, 61704",628705024,"L"
174839,"33 PRESIDENT STREET","NEW ROCHELLE","NY",10801,40.925872086,-73.785232278,339,"33 PRESIDENT STREET, NEW ROCHELLE, NY, 10801","Match","Exact","33 PRESIDENT ST, NEW ROCHELLE, NY, 10801",139750148,"R"
174840,"33 PROSPECT AVENUE 1R","WAKEFIELD","RI",2879,41.4398442200001,-71.492783993,340,"33 PROSPECT AVENUE 1R, WAKEFIELD, RI, 2879","Match","Exact","33 PROSPECT AVE, WAKEFIELD, RI, 02879",58903094,"L"
174841,"33 PROSPECT HEIGHTS","ASHLAND","MA",1721,42.240294539,-71.451948773,341,"33 PROSPECT HEIGHTS, ASHLAND, MA, 1721","Match","Exact","33 PROSPECT HTS, ASHLAND, MA, 01721",86849216,"L"
174842,"33 QUAY COURT NO 30","SACRAMENTO","CA",95831,38.512668526,-121.531684596,342,"33 QUAY COURT NO 30, SACRAMENTO, CA, 95831","Match","Non_Exact","33 QUAY CT, SACRAMENTO, CA, 95831",648232608,"L"
174843,"33 RALPH STUBBS ROAD","RANDOLPH","MA",2368,42.1831119020001,-71.0492306309999,343,"33 RALPH STUBBS ROAD, RANDOLPH, MA, 2368","Match","Exact","33 RALPH STUBBS RD, RANDOLPH, MA, 02368",87280042,"R"
174844,"33 RASTRO STREET","RANCHO MISSION VIEJO","CA",92694,33.527368677,-117.621776385,344,"33 RASTRO STREET, RANCHO MISSION VIEJO, CA, 92694","Match","Exact","33 RASTRO ST, RANCHO MISSION VIEJO, CA, 92694",646771037,"L"
174845,"33 RAVENWOOD BLVD","BARNEGAT","NJ",8005,39.768293826,-74.237265491,345,"33 RAVENWOOD BLVD, BARNEGAT, NJ, 8005","Match","Exact","33 RAVENWOOD BLVD, BARNEGAT, NJ, 08005",203701159,"L"
174846,"33 RICHARD CT","PLAINVIEW","NY",11803,40.773709351,-73.490727745,346,"33 RICHARD CT, PLAINVIEW, NY, 11803","Match","Exact","33 RICHARD CT, PLAINVIEW, NY, 11803",147642535,"L"
174847,"33 RICHMOND ROAD APT 305","SAN ANSELMO","CA",94960,37.9699219250001,-122.563552972,347,"33 RICHMOND ROAD APT 305, SAN ANSELMO, CA, 94960","Match","Exact","33 RICHMOND RD, SAN ANSELMO, CA, 94960",192763519,"L"
174848,"33 RIDGEWOOD DRIVE","MECHANICVILLE","NY",12118,42.899120198,-73.753340698,348,"33 RIDGEWOOD DRIVE, MECHANICVILLE, NY, 12118","Match","Exact","33 RIDGEWOOD DR, MECHANICVILLE, NY, 12118",641140186,"R"
174849,"33 RIGGS RD NE","WASHINGTON","DC",20011,38.955028106,-77.0079002969999,349,"33 RIGGS RD NE, WASHINGTON, DC, 20011","Match","Exact","33 RIGGS RD NE, WASHINGTON, DC, 20011",76223895,"R"
174850,"33 RIVERVIEW DRIVE","ASHLAND","MA",1721,42.2679752930001,-71.452130638,350,"33 RIVERVIEW DRIVE, ASHLAND, MA, 1721","Match","Exact","33 RIVERVIEW DR, ASHLAND, MA, 01721",86918320,"L"
174851,"33 ROGERS ST APT T70","CAMBRIDGE","MA",2142,42.365991217,-71.0786595549999,351,"33 ROGERS ST APT T70, CAMBRIDGE, MA, 2142","Match","Exact","33 ROGERS ST, CAMBRIDGE, MA, 02142",86871179,"R"
174852,"33 ROOSEVELT DRIVE","EAST DUBUQUE","IL",61025,42.4748358860001,-90.598978118,352,"33 ROOSEVELT DRIVE, EAST DUBUQUE, IL, 61025","Match","Exact","33 ROOSEVELT DR, EAST DUBUQUE, IL, 61025",27736216,"R"
174853,"33 RYAN DRIVE","PALM COAST","FL",32164,29.5013870990001,-81.223433728,353,"33 RYAN DRIVE, PALM COAST, FL, 32164","Match","Exact","33 RYAN DR, PALM COAST, FL, 32164",94951288,"R"
174854,"33 RYLAND DR","PALM COAST","FL",32164,29.4984914410001,-81.228790804,354,"33 RYLAND DR, PALM COAST, FL, 32164","Match","Exact","33 RYLAND DR, PALM COAST, FL, 32164",94943283,"L"
174855,"33 S 22ND ST","POTTSVILLE","PA",17901,40.673564662,-76.224718895,355,"33 S 22ND ST, POTTSVILLE, PA, 17901","Match","Exact","33 S 22ND ST, POTTSVILLE, PA, 17901",70947375,"L"
174856,"33 S DELAWARE AVE - STE 105","YARDLEY","PA",19067,40.2028215870001,-74.772353084,356,"33 S DELAWARE AVE - STE 105, YARDLEY, PA, 19067","Match","Exact","33 DELAWARE AVE, YARDLEY, PA, 19067",134724159,"R"
174857,"33 S MAIN ST","WATKINSVILLE","GA",30677,33.8579691850001,-83.407198906,357,"33 S MAIN ST, WATKINSVILLE, GA, 30677","Match","Exact","33 S MAIN ST, WATKINSVILLE, GA, 30677",5045602,"L"
174858,"33 S SYCAMORE ST SUITE 1","MESA","AZ",85202,NA,NA,358,"33 S SYCAMORE ST SUITE 1, MESA, AZ, 85202","No_Match",NA,NA,NA,NA
174859,"33 SADLER ST","WINDSOR LOCKS","CT",6096,41.933650642,-72.642831507,359,"33 SADLER ST, WINDSOR LOCKS, CT, 6096","Match","Exact","33 SADLER ST, WINDSOR LOCKS, CT, 06096",3487354,"R"
174860,"33 SAINT MARKS AVE","ROCKVILLE CENTRE","NY",11570,40.659562742,-73.644014833,360,"33 SAINT MARKS AVE, ROCKVILLE CENTRE, NY, 11570","Match","Exact","33 SAINT MARKS AVE, ROCKVILLE CENTRE, NY, 11570",147676538,"R"
174861,"33 SANDPIPER DRIVE","HACKETTSTOWN","NJ",7840,40.901924207,-74.8448084999999,361,"33 SANDPIPER DRIVE, HACKETTSTOWN, NJ, 7840","Match","Exact","33 SANDPIPER DR, HACKETTSTOWN, NJ, 07840",98098861,"L"
174862,"33 SANTA BARBARA DR","HOUSTON","TX",77072,NA,NA,362,"33 SANTA BARBARA DR, HOUSTON, TX, 77072","No_Match",NA,NA,NA,NA
174863,"33 SHARRER MILL ROAD","NEW OXFORD","PA",17350,39.905749503,-77.096338735,363,"33 SHARRER MILL ROAD, NEW OXFORD, PA, 17350","Match","Exact","33 SHARRER MILL RD, NEW OXFORD, PA, 17350",60883444,"R"
174864,"33 SHERMAN OAKS DRIVE","NEW HARTFORD","NY",13413,43.0746325430001,-75.302593625,364,"33 SHERMAN OAKS DRIVE, NEW HARTFORD, NY, 13413","Match","Exact","33 SHERMAN OAKS DR, NEW HARTFORD, NY, 13413",171557482,"R"
174865,"33 SILVER CRESCENT","IRVINE","CA",92603,33.6335450980001,-117.807904328,365,"33 SILVER CRESCENT, IRVINE, CA, 92603","Match","Exact","33 SILVER CRES, IRVINE, CA, 92603",144402044,"L"
174866,"33 SILVER LANDING","POTSDAM","NY",13676,44.6557128480001,-74.974369523,366,"33 SILVER LANDING, POTSDAM, NY, 13676","Match","Non_Exact","33 SILVER RD, POTSDAM, NY, 13676",642822826,"L"
174867,"33 SILVER STREET SUITE 200","PORTLAND","ME",4101,43.6571220480001,-70.2524512429999,367,"33 SILVER STREET SUITE 200, PORTLAND, ME, 4101","Match","Exact","33 SILVER ST, PORTLAND, ME, 04101",78028618,"R"
174868,"33 SLOANE DRIVE","FRAMINGHAM","MA",1701,42.3368316880001,-71.4232757619999,368,"33 SLOANE DRIVE, FRAMINGHAM, MA, 1701","Match","Exact","33 SLOANE DR, FRAMINGHAM, MA, 01701",86847776,"R"
174869,"33 SMITH AVE","WESTFIELD","MA",1085,42.125088282,-72.760729521,369,"33 SMITH AVE, WESTFIELD, MA, 1085","Match","Exact","33 SMITH AVE, WESTFIELD, MA, 01085",4019557,"R"
174870,"33 SMITH AVENUE","WESTFIELD","MA",1085,42.125088282,-72.760729521,370,"33 SMITH AVENUE, WESTFIELD, MA, 1085","Match","Exact","33 SMITH AVE, WESTFIELD, MA, 01085",4019557,"R"
174871,"33 SNYDER AVENUE","DENVILLE","NJ",7834,40.895378243,-74.476118196,371,"33 SNYDER AVENUE, DENVILLE, NJ, 7834","Match","Exact","33 SNYDER AVE, DENVILLE, NJ, 07834",60440200,"L"
174872,"33 SOUTH 21ST","KENILWORTH","NJ",7033,40.6748125620001,-74.291200864,372,"33 SOUTH 21ST, KENILWORTH, NJ, 7033","Match","Non_Exact","33 S 21ST ST, KENILWORTH, NJ, 07033",642933111,"R"
174873,"33 SOUTH 38TH STREET","CAMDEN","NJ",8105,39.947683748,-75.070880621,373,"33 SOUTH 38TH STREET, CAMDEN, NJ, 8105","Match","Exact","33 S 38TH ST, CAMDEN, NJ, 08105",134343409,"R"
174874,"33 SOUTH 3RD STREET SUITE D","GRAND FORKS","ND",58203,47.92498041,-97.030025433,374,"33 SOUTH 3RD STREET SUITE D, GRAND FORKS, ND, 58203","Match","Non_Exact","33 S 3RD ST, GRAND FORKS, ND, 58201",171276005,"L"
174875,"33 SOUTH BROADWAY","YONKERS","NY",10701,40.9325642650001,-73.898929385,375,"33 SOUTH BROADWAY, YONKERS, NY, 10701","Match","Exact","33 S BROADWAY, YONKERS, NY, 10701",139841895,"R"
174876,"33 STANWYCK COURT","ROBBINSVILLE","NJ",8691,40.2312059550001,-74.6281226799999,376,"33 STANWYCK COURT, ROBBINSVILLE, NJ, 8691","Match","Exact","33 STANWYCK CT, ROBBINSVILLE, NJ, 08691",60208678,"L"
174877,"33 STATE ST STE 311","NEW ALBANY","IN",47150,38.2831356940001,-85.8227978799999,377,"33 STATE ST STE 311, NEW ALBANY, IN, 47150","Match","Exact","33 STATE ST, NEW ALBANY, IN, 47150",89547136,"L"
174878,"33 STONEY BROOK CT","FLETCHER","NC",28732,35.437239124,-82.4544947159999,378,"33 STONEY BROOK CT, FLETCHER, NC, 28732","Match","Exact","33 STONEY BROOK CT, FLETCHER, NC, 28732",641217971,"L"
174879,"33 STONY BROOK DRIVE","SOUTH PARIS","ME",4281,44.226279032,-70.49435905,379,"33 STONY BROOK DRIVE, SOUTH PARIS, ME, 4281","Match","Non_Exact","33 STONYBROOK DR, SOUTH PARIS, ME, 04281",92666710,"R"
174880,"33 SUMMIT ST","FRAMINGHAM","MA",1702,42.272785567,-71.4124971429999,380,"33 SUMMIT ST, FRAMINGHAM, MA, 1702","Match","Exact","33 SUMMIT ST, FRAMINGHAM, MA, 01702",87103040,"R"
174881,"33 SUSAN DRIVE","CUMBERLAND","RI",2864,41.930597617,-71.3906073169999,381,"33 SUSAN DRIVE, CUMBERLAND, RI, 2864","Match","Exact","33 SUSAN DR, CUMBERLAND, RI, 02864",47530482,"L"
174882,"33 SUTTON ST","LYNN","MA",1901,42.4643299140001,-70.949425893,382,"33 SUTTON ST, LYNN, MA, 1901","Match","Exact","33 SUTTON ST, LYNN, MA, 01901",86645691,"R"
174883,"33 TACK FACTORY POND DRIVE","SCITUATE","MA",2066,42.185031273,-70.7688372329999,383,"33 TACK FACTORY POND DRIVE, SCITUATE, MA, 2066","Match","Exact","33 TACK FACTORY POND DR, SCITUATE, MA, 02066",87462778,"L"
174884,"33 TENNYSON","HIGHLAND PARK","MI",48203,42.3939614270001,-83.0877919599999,384,"33 TENNYSON, HIGHLAND PARK, MI, 48203","Match","Non_Exact","33 TENNYSON AVE, HIGHLAND PARK, MI, 48203",95463750,"L"
174885,"33 TERMINAL WAY STE 325B","PITTSBURGH","PA",15219,40.4302171890001,-79.996658372,385,"33 TERMINAL WAY STE 325B, PITTSBURGH, PA, 15219","Match","Exact","33 TERMINAL WAY, PITTSBURGH, PA, 15219",51923911,"L"
174886,"33 TICKNOR PLACE","LAGUNA HILLS","CA",92677,33.504605338,-117.704538528,386,"33 TICKNOR PLACE, LAGUNA HILLS, CA, 92677","Match","Non_Exact","33 TICKNOR PL, LAGUNA NIGUEL, CA, 92677",144071658,"R"
174887,"33 TORRINGTON LANE","BLUFFTON","SC",29910,32.241171637,-80.916950226,387,"33 TORRINGTON LANE, BLUFFTON, SC, 29910","Match","Exact","33 TORRINGTON LN, BLUFFTON, SC, 29910",633381698,"R"
174888,"33 TOWER HILL LANE","KINNELON","NJ",7405,41.006305415,-74.421142088,388,"33 TOWER HILL LANE, KINNELON, NJ, 7405","Match","Exact","33 TOWER HILL LN, KINNELON, NJ, 07405",60457645,"L"
174889,"33 U ST NW","WASHINGTON","DC",20001,38.917013593,-77.0102443919999,389,"33 U ST NW, WASHINGTON, DC, 20001","Match","Exact","33 U ST NW, WASHINGTON, DC, 20001",632575765,"R"
174890,"33 UPLAND STREET","HOLBROOK","MA",2343,42.1263784400001,-71.013699263,390,"33 UPLAND STREET, HOLBROOK, MA, 2343","Match","Exact","33 UPLAND ST, HOLBROOK, MA, 02343",87332734,"L"
174891,"33 VELA","SANTA FE","NM",87507,NA,NA,391,"33 VELA, SANTA FE, NM, 87507","No_Match",NA,NA,NA,NA
174892,"33 VILLAGE ROAD","FLORHAM PARK","NJ",7936,NA,NA,392,"33 VILLAGE ROAD, FLORHAM PARK, NJ, 7936","No_Match",NA,NA,NA,NA
174893,"33 VOM EIGEN DRIVE","MORRISTOWN","NJ",7960,40.803894551,-74.4377207589999,393,"33 VOM EIGEN DRIVE, MORRISTOWN, NJ, 7960","Match","Exact","33 VOM EIGEN DR, MORRISTOWN, NJ, 07960",640031740,"R"
174894,"33 W 155TH PLACE","SOUTH HOLLAND","IL",60473,41.6132536310001,-87.617720381,394,"33 W 155TH PLACE, SOUTH HOLLAND, IL, 60473","Match","Exact","33 W 155TH PL, SOUTH HOLLAND, IL, 60473",111778532,"L"
174895,"33 W DELAWARE PL","CHICAGO","IL",60610,41.899124683,-87.6292226419999,395,"33 W DELAWARE PL, CHICAGO, IL, 60610","Match","Exact","33 W DELAWARE PL, CHICAGO, IL, 60610",605072713,"L"
174896,"33 W ONTARIO ST APT 23I","CHICAGO","IL",60654,41.8932476190001,-87.629632938,396,"33 W ONTARIO ST APT 23I, CHICAGO, IL, 60654","Match","Non_Exact","33 W ONTARIO ST, CHICAGO, IL, 60654",605050521,"L"
174897,"33 WAKEFIELD ROAD","ATCO","NJ",8004,39.759102726,-74.896280726,397,"33 WAKEFIELD ROAD, ATCO, NJ, 8004","Match","Exact","33 WAKEFIELD RD, ATCO, NJ, 08004",625530308,"L"
174898,"33 WALPOLE STREET","NORWOOD","MA",2062,42.1911320070001,-71.203470135,398,"33 WALPOLE STREET, NORWOOD, MA, 2062","Match","Exact","33 WALPOLE ST, NORWOOD, MA, 02062",87243648,"R"
174899,"33 WALT WHITMAN ROAD SUITE 300B","HUNTINGTON STATION","NY",11746,40.828619087,-73.4114728389999,399,"33 WALT WHITMAN ROAD SUITE 300B, HUNTINGTON STATION, NY, 11746","Match","Exact","33 WALT WHITMAN RD, HUNTINGTON STATION, NY, 11746",113966194,"R"
174900,"33 WENTWORTH AVE EAST SUITE 350","WEST SAINT PAUL","MN",55118,44.8980388730001,-93.083359802,400,"33 WENTWORTH AVE EAST SUITE 350, WEST SAINT PAUL, MN, 55118","Match","Exact","33 WENTWORTH AVE E, W SAINT PAUL, MN, 55118",37925499,"R"
174901,"33 WENTWORTH AVENUE","WEST ST. PAUL","MN",55118,NA,NA,401,"33 WENTWORTH AVENUE, WEST ST. PAUL, MN, 55118","Tie",NA,NA,NA,NA
174902,"33 WEST  MONROE STREET SUITE 1600","CHICAGO","IL",60603,41.8807193380001,-87.629170894,402,"33 WEST  MONROE STREET SUITE 1600, CHICAGO, IL, 60603","Match","Exact","33 W MONROE ST, CHICAGO, IL, 60603",605109892,"L"
174903,"33 WEST END AVE 13K","NEW YORK","NY",10023,40.7730009850001,-73.989449431,403,"33 WEST END AVE 13K, NEW YORK, NY, 10023","Match","Exact","33 W END AVE, NEW YORK, NY, 10023",59655112,"L"
174904,"33 WEST HAZEL DELL LANE","SPRINGFIELD","IL",62703,NA,NA,404,"33 WEST HAZEL DELL LANE, SPRINGFIELD, IL, 62703","No_Match",NA,NA,NA,NA
174905,"33 WEST HUBBARD APT 901","CHICAGO","IL",60654,41.890040266,-87.629207315,405,"33 WEST HUBBARD APT 901, CHICAGO, IL, 60654","Match","Non_Exact","33 W HUBBARD ST, CHICAGO, IL, 60654",111769023,"L"
174906,"33 WEST MAIN STREET","GRANVILLE","NY",12832,NA,NA,406,"33 WEST MAIN STREET, GRANVILLE, NY, 12832","Tie",NA,NA,NA,NA
174907,"33 WEST ROYAL OAKS DRIVE","BRISTOL","IL",60512,41.6834771580001,-88.417686369,407,"33 WEST ROYAL OAKS DRIVE, BRISTOL, IL, 60512","Match","Exact","33 W ROYAL OAKS DR, BRISTOL, IL, 60512",54492342,"R"
174908,"33 WHISPERING WOODS DR","HOLLAND","MI",49424,42.7981972310001,-86.133452392,408,"33 WHISPERING WOODS DR, HOLLAND, MI, 49424","Match","Exact","33 WHISPERING WOODS DR, HOLLAND, MI, 49424",637306410,"R"
174909,"33 WHITE OAK CIR","ST CHARLES","IL",60174,41.9008113310001,-88.307770595,409,"33 WHITE OAK CIR, ST CHARLES, IL, 60174","Match","Exact","33 WHITE OAK CIR, SAINT CHARLES, IL, 60174",119532658,"R"
174910,"33 WHITEHALL STREET 16TH FLOOR","NEW YORK","NY",10004,40.7033053280001,-74.013036053,410,"33 WHITEHALL STREET 16TH FLOOR, NEW YORK, NY, 10004","Match","Exact","33 WHITEHALL ST, NEW YORK, NY, 10004",59660662,"L"
174911,"33 WHITTIER ROAD","MERRIMACK","NH",3054,42.8304725040001,-71.497801457,411,"33 WHITTIER ROAD, MERRIMACK, NH, 3054","Match","Exact","33 WHITTIER RD, MERRIMACK, NH, 03054",113570035,"L"
174912,"33 WHITTINGHAM CIRCLE","STERLING","VA",20165,39.0548024600001,-77.401789059,412,"33 WHITTINGHAM CIRCLE, STERLING, VA, 20165","Match","Exact","33 WHITTINGHAM CIR, STERLING, VA, 20165",62332879,"L"
174913,"33 WILKINSON DRIVE","ESSEX JUNCTION","VT",5403,NA,NA,413,"33 WILKINSON DRIVE, ESSEX JUNCTION, VT, 5403","No_Match",NA,NA,NA,NA
174914,"33 WILLOW BEND COURT","PORTSMOUTH","VA",23703,36.867375549,-76.406044132,414,"33 WILLOW BEND COURT, PORTSMOUTH, VA, 23703","Match","Exact","33 WILLOW BEND CT, PORTSMOUTH, VA, 23703",122203329,"R"
174915,"33 WILSHIRE AVENUE","DALY CITY","CA",94015,37.7057449490001,-122.473789506,415,"33 WILSHIRE AVENUE, DALY CITY, CA, 94015","Match","Exact","33 WILSHIRE AVE, DALY CITY, CA, 94015",192367254,"L"
174916,"33 WINDERMERE LANE","STAMFORD","CT",6902,41.088839912,-73.582430057,416,"33 WINDERMERE LANE, STAMFORD, CT, 6902","Match","Exact","33 WINDERMERE LN, STAMFORD, CT, 06902",3241850,"R"
174917,"33 WINDSOR LANE","PALM BEACH GARDENS","FL",33418,26.81882813,-80.1336304559999,417,"33 WINDSOR LANE, PALM BEACH GARDENS, FL, 33418","Match","Exact","33 WINDSOR LN, PALM BEACH GARDENS, FL, 33418",115581055,"L"
174918,"33 WOOD AVENUE S SUITE 600","ISELIN","NJ",8830,NA,NA,418,"33 WOOD AVENUE S SUITE 600, ISELIN, NJ, 8830","No_Match",NA,NA,NA,NA
174919,"33 WOOD AVENUE SOUTH SUITE 600","ISELIN","NJ",8830,NA,NA,419,"33 WOOD AVENUE SOUTH SUITE 600, ISELIN, NJ, 8830","No_Match",NA,NA,NA,NA
174920,"33 WOODS LANE","SOUTHAMPTON","NY",11968,40.936511427,-72.3998099569999,420,"33 WOODS LANE, SOUTHAMPTON, NY, 11968","Match","Exact","33 WOODS LN, SOUTHAMPTON, NY, 11968",114028942,"L"
174921,"33 WOODSIDE AVE EXT","DANBURY","CT",6810,41.399648965,-73.4211282479999,421,"33 WOODSIDE AVE EXT, DANBURY, CT, 6810","Match","Non_Exact","33 WOODSIDE AVE EXD, DANBURY, CT, 06810",3232385,"R"
174922,"33 WOODSIDE DRIVE","WOODBRIDGE","CT",6525,41.347129812,-73.00332976,422,"33 WOODSIDE DRIVE, WOODBRIDGE, CT, 6525","Match","Exact","33 WOODSIDE DR, WOODBRIDGE, CT, 06525",635591628,"L"
174923,"33 WOODSTOCK ROAD","ROCHESTER","NY",14609,43.157667485,-77.5521203339999,423,"33 WOODSTOCK ROAD, ROCHESTER, NY, 14609","Match","Exact","33 WOODSTOCK RD, ROCHESTER, NY, 14609",14542802,"L"
174924,"33 WOODY DR","ROUNDUP","MT",59072,46.4394026520001,-108.477744061,424,"33 WOODY DR, ROUNDUP, MT, 59072","Match","Exact","33 WOODY DR, ROUNDUP, MT, 59072",170778295,"R"
174925,"33 WYLLYS ST","GLASTONBURY","CT",6033,41.7276612090001,-72.60499552,425,"33 WYLLYS ST, GLASTONBURY, CT, 6033","Match","Exact","33 WYLLYS ST, GLASTONBURY, CT, 06033",3496551,"L"
174926,"33 WYOMING STREET SUITE 5","DORCHESTER","MA",2121,42.3149876160001,-71.084631454,426,"33 WYOMING STREET SUITE 5, DORCHESTER, MA, 2121","Match","Exact","33 WYOMING ST, DORCHESTER, MA, 02121",85701381,"R"
174927,"33 YACHT HARBOR CT","ISLE OF PALMS","SC",29451,32.803608248,-79.756152227,427,"33 YACHT HARBOR CT, ISLE OF PALMS, SC, 29451","Match","Exact","33 YACHT HARBOR CT, ISLE OF PALMS, SC, 29451",108851251,"L"
174928,"33-11 162ND STREET","FLUSHING","NY",11358,40.767542312,-73.80299761,428,"33-11 162ND STREET, FLUSHING, NY, 11358","Match","Exact","33-11 162ND ST, FLUSHING, NY, 11358",59702239,"L"
174929,"33-11 BROADWAY SUITE 2","FAIR LAWN","NJ",7410,40.9246428600001,-74.1041781119999,429,"33-11 BROADWAY SUITE 2, FAIR LAWN, NJ, 7410","Match","Exact","33-11 BROADWAY, FAIR LAWN, NJ, 07410",64428462,"L"
174930,"33-14 145 PLACE","FLUSHING","NY",11354,40.768175033,-73.822227619,430,"33-14 145 PLACE, FLUSHING, NY, 11354","Match","Exact","33-14 145TH PL, FLUSHING, NY, 11354",59700987,"R"
174931,"33-21 MURRAY LANE","FLUSHING","NY",11354,40.768425162,-73.813472066,431,"33-21 MURRAY LANE, FLUSHING, NY, 11354","Match","Exact","33-21 MURRAY LN, FLUSHING, NY, 11354",59701308,"L"
174932,"33-41 WEST STREET","BOSTON","MA",2111,42.3549198380001,-71.062707221,432,"33-41 WEST STREET, BOSTON, MA, 2111","Match","Exact","33 WEST ST, BOSTON, MA, 02111",85710362,"R"
174933,"33-45 90TH STREET APT 1D","JACKSON HEIGHTS","NY",11372,40.755506171,-73.8777686,433,"33-45 90TH STREET APT 1D, JACKSON HEIGHTS, NY, 11372","Match","Exact","33-45 90TH ST, JACKSON HEIGHTS, NY, 11372",59698018,"L"
174934,"33-47 61 STREET","WOODSIDE","NY",11377,40.7530312270001,-73.9010404209999,434,"33-47 61 STREET, WOODSIDE, NY, 11377","Match","Exact","33-47 61ST ST, WOODSIDE, NY, 11377",59698207,"L"
174935,"33-48 59 STREET","WOODSIDE","NY",11377,40.7522611320001,-73.902429946,435,"33-48 59 STREET, WOODSIDE, NY, 11377","Match","Exact","33-48 59TH ST, WOODSIDE, NY, 11377",59698203,"R"
174936,"33-48 97TH STREET SUITE 1","CORONA","NY",11368,40.7561395990001,-73.871166965,436,"33-48 97TH STREET SUITE 1, CORONA, NY, 11368","Match","Exact","33-48 97TH ST, CORONA, NY, 11368",59699336,"R"
174937,"33-51 80TH STREET APARTMENT 32","QUEENS","NY",11372,40.754437454,-73.887049647,437,"33-51 80TH STREET APARTMENT 32, QUEENS, NY, 11372","Match","Non_Exact","33-51 80TH ST, FLUSHING, NY, 11372",59698312,"L"
174938,"33-55 14 ST","ASTORIA","NY",11106,40.764234419,-73.9349489859999,438,"33-55 14 ST, ASTORIA, NY, 11106","Match","Exact","33-55 14TH ST, ASTORIA, NY, 11106",59737704,"R"
174939,"33","WEST DES MOINES","IA",50265,NA,NA,439,"33, WEST DES MOINES, IA, 50265","No_Match",NA,NA,NA,NA
174940,"330  10TH STREET NORTH","SAUK RAPIDS","MN",56379,45.601221894,-94.1767686649999,440,"330  10TH STREET NORTH, SAUK RAPIDS, MN, 56379","Match","Exact","330 10TH ST N, SAUK RAPIDS, MN, 56379",167368376,"L"
174941,"330 15TH STREET","BOULDER","CO",80302,39.996605457,-105.27371114,441,"330 15TH STREET, BOULDER, CO, 80302","Match","Exact","330 15TH ST, BOULDER, CO, 80302",188160324,"R"
174942,"330 17TH ST  APT 810","OAKLAND","CA",94612,37.8055282810001,-122.266882976,442,"330 17TH ST  APT 810, OAKLAND, CA, 94612","Match","Exact","330 17TH ST, OAKLAND, CA, 94612",124997174,"R"
174943,"330 21ST AVE S STE 510C","MINNEAPOLIS","MN",55455,NA,NA,443,"330 21ST AVE S STE 510C, MINNEAPOLIS, MN, 55455","No_Match",NA,NA,NA,NA
174944,"330 3RD ST S UNIT 1817","SAINT PETERSBURG","FL",33701,27.7676625880001,-82.637084875,444,"330 3RD ST S UNIT 1817, SAINT PETERSBURG, FL, 33701","Match","Exact","330 3RD ST S, SAINT PETERSBURG, FL, 33701",124708285,"L"
174945,"330 4TH ST","BAKERSFIELD","CA",93304,35.360759117,-119.005606556,445,"330 4TH ST, BAKERSFIELD, CA, 93304","Match","Exact","330 4TH ST, BAKERSFIELD, CA, 93304",109500396,"R"
174946,"330 9TH STREET","EASTON","PA",18042,40.681229021,-75.237746285,446,"330 9TH STREET, EASTON, PA, 18042","Match","Exact","330 9TH ST, EASTON, PA, 18042",136882544,"L"
174947,"330 ADAMS ST","SEGUIN","TX",78155,29.5632116030001,-97.967920062,447,"330 ADAMS ST, SEGUIN, TX, 78155","Match","Non_Exact","330 ADAMS, SEGUIN, TX, 78155",54828312,"L"
174948,"330 AIRLENE LANE","ROCKWALL","TX",75087,NA,NA,448,"330 AIRLENE LANE, ROCKWALL, TX, 75087","No_Match",NA,NA,NA,NA
174949,"330 ALLEN STREET","HUDSON","NY",12534,42.251145158,-73.792054891,449,"330 ALLEN STREET, HUDSON, NY, 12534","Match","Exact","330 ALLEN ST, HUDSON, NY, 12534",41485160,"R"
174950,"330 ANGELO CIFELLI DR APT 268","HARRISON","NJ",7029,40.740860873,-74.157095026,450,"330 ANGELO CIFELLI DR APT 268, HARRISON, NJ, 7029","Match","Exact","330 ANGELO CIFELLI DR, HARRISON, NJ, 07029",59601484,"L"
174951,"330 ANGELO CIFELLI DR SUITE 275","HARRISON","NJ",7029,40.740860873,-74.157095026,451,"330 ANGELO CIFELLI DR SUITE 275, HARRISON, NJ, 7029","Match","Exact","330 ANGELO CIFELLI DR, HARRISON, NJ, 07029",59601484,"L"
174952,"330 ARROWHEAD BLVD SUITE 63D","JONESBORO","GA",30281,33.5757894550001,-84.381521897,452,"330 ARROWHEAD BLVD SUITE 63D, JONESBORO, GA, 30281","Match","Non_Exact","330 ARROWHEAD BLVD, JONESBORO, GA, 30236",650124223,"L"
174953,"330 ARROWHEAD BLVD","JONESBORO","GA",30236,33.5757894550001,-84.381521897,453,"330 ARROWHEAD BLVD, JONESBORO, GA, 30236","Match","Exact","330 ARROWHEAD BLVD, JONESBORO, GA, 30236",650124223,"L"
174954,"330 ASHLEY 470 W","HAMBURG","AR",71646,NA,NA,454,"330 ASHLEY 470 W, HAMBURG, AR, 71646","No_Match",NA,NA,NA,NA
174955,"330 AUBURN AV","ATLANTA","GA",30303,33.7555202030001,-84.3768954189999,455,"330 AUBURN AV, ATLANTA, GA, 30303","Match","Non_Exact","330 AUBURN AVE NE, ATLANTA, GA, 30303",17357188,"L"
174956,"330 AUBURN ST","CHERRY VALLEY","MA",1611,42.2250654420001,-71.879045283,456,"330 AUBURN ST, CHERRY VALLEY, MA, 1611","Match","Exact","330 AUBURN ST, CHERRY VALLEY, MA, 01611",645350438,"R"
174957,"330 AVE C SE","WINTER HAVEN","FL",33880,28.0185892530001,-81.723447955,457,"330 AVE C SE, WINTER HAVEN, FL, 33880","Match","Exact","330 AVE C SE, WINTER HAVEN, FL, 33880",104824236,"R"
174958,"330 BARCLAY AVE","MORRISVILLE","PA",19067,40.207071328,-74.781241785,458,"330 BARCLAY AVE, MORRISVILLE, PA, 19067","Match","Exact","330 BARCLAY AVE, MORRISVILLE, PA, 19067",134723883,"R"
174959,"330 BARNETTS BRIDGE ROAD","JACKSON","GA",30233,33.3735169330001,-83.889974165,459,"330 BARNETTS BRIDGE ROAD, JACKSON, GA, 30233","Match","Exact","330 BARNETTS BRIDGE RD, JACKSON, GA, 30233",23298225,"L"
174960,"330 BARTON AVE","PATCHOGUE","NY",11772,40.7881627730001,-72.991120453,460,"330 BARTON AVE, PATCHOGUE, NY, 11772","Match","Exact","330 BARTON AVE, PATCHOGUE, NY, 11772",114013006,"R"
174961,"330 BAYOU DR","THOMASVILLE","AL",36784,32.014178241,-88.026318928,461,"330 BAYOU DR, THOMASVILLE, AL, 36784","Match","Exact","330 BAYOU DR, THOMASVILLE, AL, 36784",9694768,"R"
174962,"330 BAYTREE DR","MELBOURNE","FL",32940,28.2247425850001,-80.7059747719999,462,"330 BAYTREE DR, MELBOURNE, FL, 32940","Match","Exact","330 BAYTREE DR, MELBOURNE, FL, 32940",93937748,"L"
174963,"330 BERGESON","BLACKFOOT","ID",83221,43.216390587,-112.340602245,463,"330 BERGESON, BLACKFOOT, ID, 83221","Match","Non_Exact","330 BERGESON DR, BLACKFOOT, ID, 83221",130066805,"L"
174964,"330 BETHLEHEM DR","HILLSBOROUGH","NC",27278,36.1431980340001,-79.128534486,464,"330 BETHLEHEM DR, HILLSBOROUGH, NC, 27278","Match","Exact","330 BETHLEHEM DR, HILLSBOROUGH, NC, 27278",72390687,"L"
174965,"330 BOWDOIN STREET APT 411","BOSTON","MA",2122,42.308285518,-71.06482823,465,"330 BOWDOIN STREET APT 411, BOSTON, MA, 2122","Match","Exact","330 BOWDOIN ST, BOSTON, MA, 02122",85713160,"L"
174966,"330 BREEZE MEADOW","FAIRBURN","GA",30213,33.5337071340001,-84.566896964,466,"330 BREEZE MEADOW, FAIRBURN, GA, 30213","Match","Exact","330 BREEZE MEADOW, FAIRBURN, GA, 30213",625653515,"L"
174967,"330 BROADWAY    PO BOX 343","FULLERTON","NE",68638,41.3629457170001,-97.968792949,467,"330 BROADWAY    PO BOX 343, FULLERTON, NE, 68638","Match","Non_Exact","330 BROADWAY ST, FULLERTON, NE, 68638",167864546,"L"
174968,"330 BROTHERS RD","SCOTT","LA",70583,30.2603029680001,-92.057481625,468,"330 BROTHERS RD, SCOTT, LA, 70583","Match","Exact","330 BROTHERS RD, SCOTT, LA, 70583",643003492,"L"
174969,"330 BULLUNO DRIVE","RENO","NV",89521,39.4048516450001,-119.738833615,469,"330 BULLUNO DRIVE, RENO, NV, 89521","Match","Exact","330 BULLUNO DR, RENO, NV, 89521",648836044,"R"
174970,"330 CAPE DRIVE SOUTHEAST","WASHINGTON","DC",20019,38.886661636,-76.947672212,470,"330 CAPE DRIVE SOUTHEAST, WASHINGTON, DC, 20019","Match","Exact","330 CAPE DR SE, WASHINGTON, DC, 20019",629769984,"L"
174971,"330 CEDAR RIDGE RD","LONGVIEW","TX",75602,32.4614665300001,-94.613453819,471,"330 CEDAR RIDGE RD, LONGVIEW, TX, 75602","Match","Exact","330 CEDAR RIDGE RD, LONGVIEW, TX, 75602",624549548,"L"
174972,"330 CHANGEBRIDGE RD SUITE 101","MONTVILLE","NJ",7058,40.8656141710001,-74.3486285289999,472,"330 CHANGEBRIDGE RD SUITE 101, MONTVILLE, NJ, 7058","Match","Non_Exact","330 CHANGEBRIDGE RD, PINE BROOK, NJ, 07058",649302212,"R"
174973,"330 CHANGEBRIDGE ROAD     SUITE101","PINEBROOK","NJ",7058,40.8656141710001,-74.3486285289999,473,"330 CHANGEBRIDGE ROAD     SUITE101, PINEBROOK, NJ, 7058","Match","Non_Exact","330 CHANGEBRIDGE RD, PINE BROOK, NJ, 07058",649302212,"R"
174974,"330 CHESTNUT HILL ROAD","MILLVILLE","MA",1529,42.046441816,-71.5770961119999,474,"330 CHESTNUT HILL ROAD, MILLVILLE, MA, 1529","Match","Exact","330 CHESTNUT HILL RD, MILLVILLE, MA, 01529",40100207,"R"
174975,"330 CIGAR LOOP","HAVRE DE GRACE","MD",21078,39.545960323,-76.1274736359999,475,"330 CIGAR LOOP, HAVRE DE GRACE, MD, 21078","Match","Exact","330 CIGAR LOOP, HAVRE DE GRACE, MD, 21078",637186571,"R"
174976,"330 COCHITUATE ROAD - PO BOX 721","FRAMINGHAM","MA",1701,42.3033057220001,-71.400978594,476,"330 COCHITUATE ROAD - PO BOX 721, FRAMINGHAM, MA, 1701","Match","Exact","330 COCHITUATE RD, FRAMINGHAM, MA, 01701",87102321,"L"
174977,"330 COCHITUATE ROAD NO 5123","FRAMINGHAM","MA",1701,42.3033057220001,-71.400978594,477,"330 COCHITUATE ROAD NO 5123, FRAMINGHAM, MA, 1701","Match","Non_Exact","330 COCHITUATE RD, FRAMINGHAM, MA, 01701",87102321,"L"
174978,"330 COLLINS STREET","ORMOND BEACH","FL",32174,29.2660951620001,-81.076807479,478,"330 COLLINS STREET, ORMOND BEACH, FL, 32174","Match","Exact","330 COLLINS ST, ORMOND BEACH, FL, 32174",94521235,"R"
174979,"330 COUNTY RD K","FOND DU LAC","WI",54937,NA,NA,479,"330 COUNTY RD K, FOND DU LAC, WI, 54937","No_Match",NA,NA,NA,NA
174980,"330 CREEKSIDE DRIVE","PALO ALTO","CA",94306,37.4151328950001,-122.113040465,480,"330 CREEKSIDE DRIVE, PALO ALTO, CA, 94306","Match","Exact","330 CREEKSIDE DR, PALO ALTO, CA, 94306",122952742,"R"
174981,"330 CRESTONE AVE  1","SALIDA","CO",81201,38.539951993,-106.001959461,481,"330 CRESTONE AVE  1, SALIDA, CO, 81201","Match","Exact","330 CRESTONE AVE, SALIDA, CO, 81201",108250218,"R"
174982,"330 CROSS BAY BLVD","BROAD CHANNEL","NY",11693,40.6133863420001,-73.820383653,482,"330 CROSS BAY BLVD, BROAD CHANNEL, NY, 11693","Match","Non_Exact","330 CROSSBAY BLVD, BROAD CHANNEL, NY, 11693",642135432,"L"
174983,"330 CROSS PARK DRIVE SUITE 4","PEARL","MS",39208,32.2857004320001,-90.0424125709999,483,"330 CROSS PARK DRIVE SUITE 4, PEARL, MS, 39208","Match","Exact","330 CROSS PARK DR, PEARL, MS, 39208",116922118,"L"
174984,"330 DACIAN ROAD APT A","RALEIGH","NC",27610,35.7698084130001,-78.605401085,484,"330 DACIAN ROAD APT A, RALEIGH, NC, 27610","Match","Exact","330 DACIAN RD, RALEIGH, NC, 27610",72509672,"R"
174985,"330 DAYTON ST SUITE 2","EDMONDS","WA",98020,47.8097077620001,-122.379843585,485,"330 DAYTON ST SUITE 2, EDMONDS, WA, 98020","Match","Exact","330 DAYTON ST, EDMONDS, WA, 98020",187750919,"R"
174986,"330 DOUBLE D LN","MANHATTAN","MT",59741,45.911258855,-111.323942437,486,"330 DOUBLE D LN, MANHATTAN, MT, 59741","Match","Exact","330 DOUBLE D LN, MANHATTAN, MT, 59741",163538330,"R"
174987,"330 DOUG FIR LN","MOLALLA","OR",97038,45.151765498,-122.59481857,487,"330 DOUG FIR LN, MOLALLA, OR, 97038","Match","Exact","330 DOUG FIR LN, MOLALLA, OR, 97038",651154031,"R"
174988,"330 DUMONT AVE","BROOKLYN","NY",11212,40.664386822,-73.907378615,488,"330 DUMONT AVE, BROOKLYN, NY, 11212","Match","Exact","330 DUMONT AVE, BROOKLYN, NY, 11212",59098863,"R"
174989,"330 DUNNSVIEW DRIVE","SALISBURY","NC",28146,35.6378217380001,-80.4197693799999,489,"330 DUNNSVIEW DRIVE, SALISBURY, NC, 28146","Match","Exact","330 DUNNSVIEW DR, SALISBURY, NC, 28146",25284355,"L"
174990,"330 E 26TH STREET UNIT 12C","NEW YORK","NY",10010,40.7391952560001,-73.978110379,490,"330 E 26TH STREET UNIT 12C, NEW YORK, NY, 10010","Match","Non_Exact","330 E 26TH ST, NEW YORK, NY, 10010",59661147,"R"
174991,"330 E CAMP WISDOM RD    APT4104","DALLAS","TX",75241,32.6621839960001,-96.819095217,491,"330 E CAMP WISDOM RD    APT4104, DALLAS, TX, 75241","Match","Non_Exact","330 E CAMP WISDOM RD, DALLAS, TX, 75241",102954507,"R"
174992,"330 E CAMP WISDOM ROAD APT 6103","DALLAS","TX",75241,32.6621839960001,-96.819095217,492,"330 E CAMP WISDOM ROAD APT 6103, DALLAS, TX, 75241","Match","Non_Exact","330 E CAMP WISDOM RD, DALLAS, TX, 75241",102954507,"R"
174993,"330 E COFFEE ST","GREENVILLE","SC",29601,34.850711371,-82.3957953519999,493,"330 E COFFEE ST, GREENVILLE, SC, 29601","Match","Exact","330 E COFFEE ST, GREENVILLE, SC, 29601",38301022,"R"
174994,"330 E CORTLAND ST","GROTON","NY",13073,42.5914940800001,-76.3714455369999,494,"330 E CORTLAND ST, GROTON, NY, 13073","Match","Non_Exact","330 W CORTLAND ST, GROTON, NY, 13073",18853569,"R"
174995,"330 E COURT STREET","IOWA CITY","IA",52240,41.6566001520001,-91.531435452,495,"330 E COURT STREET, IOWA CITY, IA, 52240","Match","Exact","330 E COURT ST, IOWA CITY, IA, 52240",638303502,"L"
174996,"330 E DOMINION BLVD","COLUMBUS","OH",43214,40.0530796300001,-83.01046144,496,"330 E DOMINION BLVD, COLUMBUS, OH, 43214","Match","Exact","330 E DOMINION BLVD, COLUMBUS, OH, 43214",218695327,"L"
174997,"330 E GRAYSON ST UNIT 100","SAN ANTONIO","TX",78215,29.4437086680001,-98.4774713199999,497,"330 E GRAYSON ST UNIT 100, SAN ANTONIO, TX, 78215","Match","Non_Exact","330 E GRAYSON ST, SAN ANTONIO, TX, 78215",101718761,"R"
174998,"330 E JOHN ST","BEDFORD","PA",15522,40.016076061,-78.498977785,498,"330 E JOHN ST, BEDFORD, PA, 15522","Match","Exact","330 E JOHN ST, BEDFORD, PA, 15522",50154427,"R"
174999,"330 E KALEY STREET","ORLANDO","FL",32806,28.520260082,-81.373032243,499,"330 E KALEY STREET, ORLANDO, FL, 32806","Match","Exact","330 E KALEY ST, ORLANDO, FL, 32806",94282814,"R"
175000,"330 E LAS COLINAS BLVD 1112","IRVING","TX",75039,32.873192542,-96.9435464329999,500,"330 E LAS COLINAS BLVD 1112, IRVING, TX, 75039","Match","Non_Exact","330 LAS COLINAS BLVD W, IRVING, TX, 75039",102888189,"L"
