"ID","Address","City","State","Zip","lat","long","id","input_address","match_indicator","match_type","matched_address","tiger_line_id","tiger_side"
319501,"970 PUTNAM AVE","MARSTONS MILLS","MA",2648,41.6454271530001,-70.4249980879999,1,"970 PUTNAM AVE, MARSTONS MILLS, MA, 2648","Match","Exact","970 PUTNAM AVE, MARSTONS MILLS, MA, 02648",121584122,"L"
319502,"970 RESERVE DR UNIT 205","ROSEVILLE","CA",95678,38.7654574750001,-121.271104386,2,"970 RESERVE DR UNIT 205, ROSEVILLE, CA, 95678","Match","Exact","970 RESERVE DR, ROSEVILLE, CA, 95678",608088345,"R"
319503,"970 RESERVE DRIVE SUITE 111","ROSEVILLE","CA",95678,38.7654574750001,-121.271104386,3,"970 RESERVE DRIVE SUITE 111, ROSEVILLE, CA, 95678","Match","Exact","970 RESERVE DR, ROSEVILLE, CA, 95678",608088345,"R"
319504,"970 RICHARDSON ROAD","ASHBY","MA",1431,42.6464343970001,-71.815926077,4,"970 RICHARDSON ROAD, ASHBY, MA, 1431","Match","Exact","970 RICHARDSON RD, ASHBY, MA, 01431",86838328,"R"
319505,"970 RICHMOND AVE","STATEN ISLAND","NY",10314,40.6238369500001,-74.149071726,5,"970 RICHMOND AVE, STATEN ISLAND, NY, 10314","Match","Exact","970 RICHMOND AVE, STATEN ISLAND, NY, 10314",59871283,"R"
319506,"970 S LEWIS AVE  SUITE A","WAUKEGAN","IL",60085,NA,NA,6,"970 S LEWIS AVE  SUITE A, WAUKEGAN, IL, 60085","Tie",NA,NA,NA,NA
319507,"970 SE FAIRWAY DRIVE","MYRTLE CREEK","OR",97457,43.019518577,-123.274570338,7,"970 SE FAIRWAY DRIVE, MYRTLE CREEK, OR, 97457","Match","Exact","970 FAIRWAY DR, MYRTLE CREEK, OR, 97457",613729498,"R"
319508,"970 SULLIVAN TRAIL","SCOTRUN","PA",18355,41.0816820970001,-75.3775487,8,"970 SULLIVAN TRAIL, SCOTRUN, PA, 18355","Match","Exact","970 SULLIVAN TRL, SCOTRUN, PA, 18355",634692989,"L"
319509,"970 SUMMIT CIRCLE S","YORK","PA",17403,39.9316705140001,-76.732766752,9,"970 SUMMIT CIRCLE S, YORK, PA, 17403","Match","Exact","970 SUMMIT CIR S, YORK, PA, 17403",88742546,"L"
319510,"970 SUMMITVILLE DRIVE","WEBSTER","NY",14580,43.2015512830001,-77.454798072,10,"970 SUMMITVILLE DRIVE, WEBSTER, NY, 14580","Match","Exact","970 SUMMITVILLE DR, WEBSTER, NY, 14580",14566148,"L"
319511,"970 W ALLUVIAL","FRESNO","CA",93711,NA,NA,11,"970 W ALLUVIAL, FRESNO, CA, 93711","No_Match",NA,NA,NA,NA
319512,"970 W BERRY ST APT 3","FAYETTEVILLE","AR",72701,36.0758747410001,-94.173677847,12,"970 W BERRY ST APT 3, FAYETTEVILLE, AR, 72701","Match","Non_Exact","970 W BERRY ST, FAYETTEVILLE, AR, 72701",640550359,"R"
319513,"970 WEST BROADWAY STE E PMB 169","JACKSON","WY",83001,43.4739945250001,-110.785213301,13,"970 WEST BROADWAY STE E PMB 169, JACKSON, WY, 83001","Match","Non_Exact","970 W BROADWAY AVE, JACKSON, WY, 83001",632199136,"R"
319514,"970 WEST VILLAGE ST","VIDOR","TX",77662,30.163840986,-93.970286304,14,"970 WEST VILLAGE ST, VIDOR, TX, 77662","Match","Non_Exact","970 W VILLAGE RD, VIDOR, TX, 77662",74024221,"L"
319515,"970 WILLIAMS AVENUE SUITE 3D","BROOKLYN","NY",11207,40.651889978,-73.893167535,15,"970 WILLIAMS AVENUE SUITE 3D, BROOKLYN, NY, 11207","Match","Exact","970 WILLIAMS AVE, BROOKLYN, NY, 11207",59084970,"R"
319516,"970 WINDY HILL RD SE APT 6B","SMYRNA","GA",30080,33.8943171700001,-84.525045774,16,"970 WINDY HILL RD SE APT 6B, SMYRNA, GA, 30080","Match","Exact","970 WINDY HILL RD SE, SMYRNA, GA, 30080",17252627,"R"
319517,"970 WINGED FOOT TRAIL","FAYETTEVILLE","GA",30215,33.3779773910001,-84.511540082,17,"970 WINGED FOOT TRAIL, FAYETTEVILLE, GA, 30215","Match","Exact","970 WINGED FOOT TRL, FAYETTEVILLE, GA, 30215",623820418,"L"
319518,"970","KRUM","TX",76249,NA,NA,18,"970, KRUM, TX, 76249","No_Match",NA,NA,NA,NA
319519,"9700 AVENUE OF NATIONS","SAN DIEGO","CA",92131,NA,NA,19,"9700 AVENUE OF NATIONS, SAN DIEGO, CA, 92131","No_Match",NA,NA,NA,NA
319520,"9700 BELLE MARCHE DR","CHARLOTTE","NC",28227,35.2004086330001,-80.686797785,20,"9700 BELLE MARCHE DR, CHARLOTTE, NC, 28227","Match","Non_Exact","9700 BELLA MARCHE DR, CHARLOTTE, NC, 28227",70512391,"R"
319521,"9700 COLLINS AVENUE 3RD LEVEL","BAL HARBOUR","FL",33154,25.887619192,-80.1229540689999,21,"9700 COLLINS AVENUE 3RD LEVEL, BAL HARBOUR, FL, 33154","Match","Exact","9700 COLLINS AVE, BAL HARBOUR, FL, 33154",116038347,"L"
319522,"9700 DEE RD   APRT 301","DES PLAINES","IL",60016,42.05589309,-87.8550138209999,22,"9700 DEE RD   APRT 301, DES PLAINES, IL, 60016","Match","Exact","9700 DEE RD, DES PLAINES, IL, 60016",646569684,"R"
319523,"9700 FRANKIRST AVE","NORTH HILLS","CA",91343,34.246656251,-118.48879767,23,"9700 FRANKIRST AVE, NORTH HILLS, CA, 91343","Match","Exact","9700 FRANKIRST AVE, NORTH HILLS, CA, 91343",141544659,"R"
319524,"9700 G AVE SE","KIRTLAND AFB","NM",87117,NA,NA,24,"9700 G AVE SE, KIRTLAND AFB, NM, 87117","No_Match",NA,NA,NA,NA
319525,"9700 GLADE RD","WALKERSVILLE","MD",21793,39.502703631,-77.3507883779999,25,"9700 GLADE RD, WALKERSVILLE, MD, 21793","Match","Exact","9700 GLADE RD, WALKERSVILLE, MD, 21793",60751888,"L"
319526,"9700 HALIFAX DRIVE","AUSTIN","TX",78753,30.355144409,-97.67493961,26,"9700 HALIFAX DRIVE, AUSTIN, TX, 78753","Match","Exact","9700 HALIFAX DR, AUSTIN, TX, 78753",63934754,"L"
319527,"9700 LA TUNA CANYON ROAD","SUN VALLEY","CA",91352,34.2353798890001,-118.341802148,27,"9700 LA TUNA CANYON ROAD, SUN VALLEY, CA, 91352","Match","Exact","9700 LA TUNA CANYON RD, SUN VALLEY, CA, 91352",637073360,"L"
319528,"9700 LOCKBERRY RIDGE LOOP","RICHMOND","VA",23237,37.3868040070001,-77.478609019,28,"9700 LOCKBERRY RIDGE LOOP, RICHMOND, VA, 23237","Match","Exact","9700 LOCKBERRY RIDGE LOOP, RICHMOND, VA, 23237",201580597,"L"
319529,"9700 N RODNEY PARHAM RD  SUITE B","LITTLE ROCK","AR",72227,NA,NA,29,"9700 N RODNEY PARHAM RD  SUITE B, LITTLE ROCK, AR, 72227","No_Match",NA,NA,NA,NA
319530,"9700 PACIFIC AVENUE STE 102","WILDWOOD CREST","NJ",8260,38.961050599,-74.8526600869999,30,"9700 PACIFIC AVENUE STE 102, WILDWOOD CREST, NJ, 8260","Match","Exact","9700 PACIFIC AVE, WILDWOOD CREST, NJ, 08260",174333871,"L"
319531,"9700 PALMBROOK DRIVE","AUSTIN","TX",78717,30.507717325,-97.7529606799999,31,"9700 PALMBROOK DRIVE, AUSTIN, TX, 78717","Match","Exact","9700 PALMBROOK DR, AUSTIN, TX, 78717",624513094,"R"
319532,"9700 PARK PLAZA AVENUE SUITE 208","LOUISVILLE","KY",40241,38.3090791270001,-85.5797916339999,32,"9700 PARK PLAZA AVENUE SUITE 208, LOUISVILLE, KY, 40241","Match","Exact","9700 PARK PLAZA AVE, LOUISVILLE, KY, 40241",96939228,"L"
319533,"9700 PENN AVE N","BROOKLYN PARK","MN",55444,45.130420214,-93.311188235,33,"9700 PENN AVE N, BROOKLYN PARK, MN, 55444","Match","Exact","9700 PENN AVE N, BROOKLYN PARK, MN, 55444",43838342,"L"
319534,"9700 PEPPERTREE ROAD","SPOTSYLVANIA","VA",22553,NA,NA,34,"9700 PEPPERTREE ROAD, SPOTSYLVANIA, VA, 22553","No_Match",NA,NA,NA,NA
319535,"9700 PERKINS LN","OLA","ID",83657,44.169470097,-116.317783226,35,"9700 PERKINS LN, OLA, ID, 83657","Match","Exact","9700 PERKINS LN, OLA, ID, 83657",122886746,"R"
319536,"9700 PICKERING ST","LENEXA","KS",66227,38.9525811140001,-94.880209789,36,"9700 PICKERING ST, LENEXA, KS, 66227","Match","Non_Exact","9700 PICKERING, LENEXA, KS, 66227",627721886,"R"
319537,"9700 RENFIELD CT","SPOTSYLVANIA COURTHO","VA",22553,38.2288248450001,-77.602378519,37,"9700 RENFIELD CT, SPOTSYLVANIA COURTHO, VA, 22553","Match","Non_Exact","9700 RENFIELD CT, SPOTSYLVANIA, VA, 22553",618668838,"L"
319538,"9700 RESEARCH DR STE 143","CHARLOTTE","NC",28262,35.319277341,-80.766594832,38,"9700 RESEARCH DR STE 143, CHARLOTTE, NC, 28262","Match","Exact","9700 RESEARCH DR, CHARLOTTE, NC, 28262",653482436,"R"
319539,"9700 RESEARCH DR","CHARLOTTE","NC",28262,35.319277341,-80.766594832,39,"9700 RESEARCH DR, CHARLOTTE, NC, 28262","Match","Exact","9700 RESEARCH DR, CHARLOTTE, NC, 28262",653482436,"R"
319540,"9700 RESEDA BLVD STE 203B","NORTHRIDGE","CA",91324,34.24642449,-118.536082504,40,"9700 RESEDA BLVD STE 203B, NORTHRIDGE, CA, 91324","Match","Exact","9700 RESEDA BLVD, NORTHRIDGE, CA, 91324",141541069,"R"
319541,"9700 RESEDA BLVD SUITE 209","NORTHRIDGE","CA",91324,34.24642449,-118.536082504,41,"9700 RESEDA BLVD SUITE 209, NORTHRIDGE, CA, 91324","Match","Exact","9700 RESEDA BLVD, NORTHRIDGE, CA, 91324",141541069,"R"
319542,"9700 SOUTH MAIN STREET","LOS ANGELES","CA",90003,33.948220242,-118.273865275,42,"9700 SOUTH MAIN STREET, LOS ANGELES, CA, 90003","Match","Exact","9700 S MAIN ST, LOS ANGELES, CA, 90003",142753677,"L"
319543,"9700 TALMAN CT","RALEIGH","NC",27615,35.8979872210001,-78.577298124,43,"9700 TALMAN CT, RALEIGH, NC, 27615","Match","Exact","9700 TALMAN CT, RALEIGH, NC, 27615",72601760,"R"
319544,"9700 TULSEMERE RD","RANDALLSTOWN","MD",21133,39.3806131260001,-76.815993576,44,"9700 TULSEMERE RD, RANDALLSTOWN, MD, 21133","Match","Exact","9700 TULSEMERE RD, RANDALLSTOWN, MD, 21133",191463173,"R"
319545,"9700 VILLASUR CT","PARKER","CO",80134,39.4522150220001,-104.705326184,45,"9700 VILLASUR CT, PARKER, CO, 80134","Match","Non_Exact","9700 E VILLASUR CT, PARKER, CO, 80134",130795441,"L"
319546,"9701 APOLLO DR  281","LARGO","MD",20774,38.9056410790001,-76.8402652779999,46,"9701 APOLLO DR  281, LARGO, MD, 20774","Match","Exact","9701 APOLLO DR, LARGO, MD, 20774",76367368,"L"
319547,"9701 APOLLO DR STE 100","LARGO","MD",20774,38.9056410790001,-76.8402652779999,47,"9701 APOLLO DR STE 100, LARGO, MD, 20774","Match","Exact","9701 APOLLO DR, LARGO, MD, 20774",76367368,"L"
319548,"9701 APOLLO DR STE 301","LARGO","MD",20695,38.9056410790001,-76.8402652779999,48,"9701 APOLLO DR STE 301, LARGO, MD, 20695","Match","Non_Exact","9701 APOLLO DR, LARGO, MD, 20774",76367368,"L"
319549,"9701 APOLLO DR STE 301","LARGO","MD",20774,38.9056410790001,-76.8402652779999,49,"9701 APOLLO DR STE 301, LARGO, MD, 20774","Match","Exact","9701 APOLLO DR, LARGO, MD, 20774",76367368,"L"
319550,"9701 APOLLO DR SUITE 100","UPPER MARLBORO","MD",20774,38.9056410790001,-76.8402652779999,50,"9701 APOLLO DR SUITE 100, UPPER MARLBORO, MD, 20774","Match","Exact","9701 APOLLO DR, UPPER MARLBORO, MD, 20774",76367368,"L"
319551,"9701 APOLLO DR SUITE 301","UPPER MARLBORO","MD",20774,38.9056410790001,-76.8402652779999,51,"9701 APOLLO DR SUITE 301, UPPER MARLBORO, MD, 20774","Match","Exact","9701 APOLLO DR, UPPER MARLBORO, MD, 20774",76367368,"L"
319552,"9701 APOLLO DR SUITE 330","LARGO","MD",20774,38.9056410790001,-76.8402652779999,52,"9701 APOLLO DR SUITE 330, LARGO, MD, 20774","Match","Exact","9701 APOLLO DR, LARGO, MD, 20774",76367368,"L"
319553,"9701 APOLLO DRIVE   STE 100","LARGO","MD",20774,38.9056410790001,-76.8402652779999,53,"9701 APOLLO DRIVE   STE 100, LARGO, MD, 20774","Match","Exact","9701 APOLLO DR, LARGO, MD, 20774",76367368,"L"
319554,"9701 APOLLO DRIVE  SUITE 100","LARGO","MD",20774,38.9056410790001,-76.8402652779999,54,"9701 APOLLO DRIVE  SUITE 100, LARGO, MD, 20774","Match","Exact","9701 APOLLO DR, LARGO, MD, 20774",76367368,"L"
319555,"9701 APOLLO DRIVE SUITE 100","LARGO","MD",20721,38.9056410790001,-76.8402652779999,55,"9701 APOLLO DRIVE SUITE 100, LARGO, MD, 20721","Match","Non_Exact","9701 APOLLO DR, LARGO, MD, 20774",76367368,"L"
319556,"9701 APOLLO DRIVE SUITE 100","LARGO","MD",20774,38.9056410790001,-76.8402652779999,56,"9701 APOLLO DRIVE SUITE 100, LARGO, MD, 20774","Match","Exact","9701 APOLLO DR, LARGO, MD, 20774",76367368,"L"
319557,"9701 APOLLO DRIVE SUITE 297","LARGO","MD",20774,38.9056410790001,-76.8402652779999,57,"9701 APOLLO DRIVE SUITE 297, LARGO, MD, 20774","Match","Exact","9701 APOLLO DR, LARGO, MD, 20774",76367368,"L"
319558,"9701 APOLLO DRIVE SUITE 301","LARGO","MD",20774,38.9056410790001,-76.8402652779999,58,"9701 APOLLO DRIVE SUITE 301, LARGO, MD, 20774","Match","Exact","9701 APOLLO DR, LARGO, MD, 20774",76367368,"L"
319559,"9701 APOLLO DRIVE","LARGO","MD",20774,38.9056410790001,-76.8402652779999,59,"9701 APOLLO DRIVE, LARGO, MD, 20774","Match","Exact","9701 APOLLO DR, LARGO, MD, 20774",76367368,"L"
319560,"9701 BARK RIDGE RD","MINT HILL","NC",28227,35.2007277380001,-80.681683397,60,"9701 BARK RIDGE RD, MINT HILL, NC, 28227","Match","Non_Exact","9701 BARKRIDGE RD, MINT HILL, NC, 28227",70496096,"R"
319561,"9701 BLACKBIRD HILL LANE","MINT HILL","NC",28227,35.2033869050001,-80.654347652,61,"9701 BLACKBIRD HILL LANE, MINT HILL, NC, 28227","Match","Exact","9701 BLACKBIRD HILL LN, MINT HILL, NC, 28227",70578069,"L"
319562,"9701 CARMEL VALLEY DR","FRISCO","TX",75035,33.1341426550001,-96.795973896,62,"9701 CARMEL VALLEY DR, FRISCO, TX, 75035","Match","Exact","9701 CARMEL VALLEY DR, FRISCO, TX, 75035",123557521,"R"
319563,"9701 CEDAR LANE","BETHESDA","MD",20814,39.014716509,-77.089307081,63,"9701 CEDAR LANE, BETHESDA, MD, 20814","Match","Exact","9701 CEDAR LN, BETHESDA, MD, 20814",62061586,"R"
319564,"9701 CRENSHAW BLVD 2","INGLEWOOD","CA",90305,33.948141078,-118.326469646,64,"9701 CRENSHAW BLVD 2, INGLEWOOD, CA, 90305","Match","Exact","9701 CRENSHAW BLVD, INGLEWOOD, CA, 90305",640417903,"R"
319565,"9701 FIELDS ROAD  APT 1108","GAITHERSBURG","MD",20878,39.112409487,-77.19592298,65,"9701 FIELDS ROAD  APT 1108, GAITHERSBURG, MD, 20878","Match","Exact","9701 FIELDS RD, GAITHERSBURG, MD, 20878",62097325,"L"
319566,"9701 FIELDS ROAD  APT-604","GAITHERSBURG","MD",20878,39.112409487,-77.19592298,66,"9701 FIELDS ROAD  APT-604, GAITHERSBURG, MD, 20878","Match","Exact","9701 FIELDS RD, GAITHERSBURG, MD, 20878",62097325,"L"
319567,"9701 LITTLE ROAD","NEW PORT RICHEY","FL",34654,28.2985361670001,-82.6719009299999,67,"9701 LITTLE ROAD, NEW PORT RICHEY, FL, 34654","Match","Exact","9701 LITTLE RD, NEW PORT RICHEY, FL, 34654",640197262,"L"
319568,"9701 MARTINIQUE DR","CUTLER BAY","FL",33189,25.5766111610001,-80.347989964,68,"9701 MARTINIQUE DR, CUTLER BAY, FL, 33189","Match","Exact","9701 MARTINIQUE DR, CUTLER BAY, FL, 33189",115995791,"R"
319569,"9701 NICOLLET AVE S","BLOOMINGTON","MN",55420,44.8280264320001,-93.278466007,69,"9701 NICOLLET AVE S, BLOOMINGTON, MN, 55420","Match","Exact","9701 NICOLLET AVE S, BLOOMINGTON, MN, 55420",43596250,"L"
319570,"9701 NICOLLET AVE SOUTH","BLOOMINGTON","MN",55420,44.8280264320001,-93.278466007,70,"9701 NICOLLET AVE SOUTH, BLOOMINGTON, MN, 55420","Match","Exact","9701 NICOLLET AVE S, BLOOMINGTON, MN, 55420",43596250,"L"
319571,"9701 NICOLLET AVENUE SOUTH","BLOOMINGTON","MN",55420,44.8280264320001,-93.278466007,71,"9701 NICOLLET AVENUE SOUTH, BLOOMINGTON, MN, 55420","Match","Exact","9701 NICOLLET AVE S, BLOOMINGTON, MN, 55420",43596250,"L"
319572,"9701 PHILADELPHIA COURT STE R","LANHAM","MD",20706,38.9605179760001,-76.838449969,72,"9701 PHILADELPHIA COURT STE R, LANHAM, MD, 20706","Match","Exact","9701 PHILADELPHIA CT, LANHAM, MD, 20706",76334026,"R"
319573,"9701 RESOTA BEACH RD","SOUTHPORT","FL",32409,30.324641209,-85.598730575,73,"9701 RESOTA BEACH RD, SOUTHPORT, FL, 32409","Match","Exact","9701 RESOTA BEACH RD, SOUTHPORT, FL, 32409",614887442,"L"
319574,"9701 S JACKSON RD","PHARR","TX",78577,NA,NA,74,"9701 S JACKSON RD, PHARR, TX, 78577","No_Match",NA,NA,NA,NA
319575,"9701 S SHEPARD HILLS DR","OAK CREEK","WI",53154,42.8683994630001,-87.9064835569999,75,"9701 S SHEPARD HILLS DR, OAK CREEK, WI, 53154","Match","Exact","9701 S SHEPARD HILLS DR, OAK CREEK, WI, 53154",77760825,"R"
319576,"9701 SE JOHNSON CREEK BLVD - K205","HAPPY VALLEY","OR",97086,45.456705281,-122.562619843,76,"9701 SE JOHNSON CREEK BLVD - K205, HAPPY VALLEY, OR, 97086","Match","Non_Exact","9701 SE JOHNSON CREEK BLVD, HAPPY VALLEY, OR, 97086",641447654,"R"
319577,"9701 SPECTRUM DRIVE UNIT 13210","AUSTIN","TX",78717,30.4814486180001,-97.767630079,77,"9701 SPECTRUM DRIVE UNIT 13210, AUSTIN, TX, 78717","Match","Exact","9701 SPECTRUM DR, AUSTIN, TX, 78717",650111469,"L"
319578,"9701 W 37TH ST N","WICHITA","KS",67205,37.7518452320001,-97.453591014,78,"9701 W 37TH ST N, WICHITA, KS, 67205","Match","Exact","9701 W 37TH ST N, WICHITA, KS, 67205",647565890,"L"
319579,"9701 WILSHIRE BLVD SUITE 1000","BEVERLY HILLS","CA",90212,34.0670761050001,-118.405641777,79,"9701 WILSHIRE BLVD SUITE 1000, BEVERLY HILLS, CA, 90212","Match","Exact","9701 WILSHIRE BLVD, BEVERLY HILLS, CA, 90212",141571592,"R"
319580,"9701 WILSHIRE BOULEVARD SUITE 930","BEVERLY HILLS","CA",90212,34.0670761050001,-118.405641777,80,"9701 WILSHIRE BOULEVARD SUITE 930, BEVERLY HILLS, CA, 90212","Match","Exact","9701 WILSHIRE BLVD, BEVERLY HILLS, CA, 90212",141571592,"R"
319581,"9702 AMBERTON PKWY","DALLAS","TX",75243,32.920200177,-96.7390229599999,81,"9702 AMBERTON PKWY, DALLAS, TX, 75243","Match","Exact","9702 AMBERTON PKWY, DALLAS, TX, 75243",103272273,"L"
319582,"9702 CORKRAN LANE","BETHESDA","MD",20817,39.0141798020001,-77.137322417,82,"9702 CORKRAN LANE, BETHESDA, MD, 20817","Match","Exact","9702 CORKRAN LN, BETHESDA, MD, 20817",62056148,"L"
319583,"9702 E WASHINGTON ST STE 400 BOX236","INDIANAPOLIS","IN",46229,39.7746575800001,-85.995052415,83,"9702 E WASHINGTON ST STE 400 BOX236, INDIANAPOLIS, IN, 46229","Match","Non_Exact","9702 E WASHINGTON ST, INDIANAPOLIS, IN, 46229",108013306,"L"
319584,"9702 E WASHINGTON ST-STE 400-190","INDIANAPOLIS","IN",46229,NA,NA,84,"9702 E WASHINGTON ST-STE 400-190, INDIANAPOLIS, IN, 46229","No_Match",NA,NA,NA,NA
319585,"9702 GAYTON RD STE 296","HENRICO","VA",23238,37.6049874880001,-77.5933955209999,85,"9702 GAYTON RD STE 296, HENRICO, VA, 23238","Match","Exact","9702 GAYTON RD, HENRICO, VA, 23238",106675308,"R"
319586,"9702 GAYTON RD SUITE 332","RICHMOND","VA",23238,37.6049874880001,-77.5933955209999,86,"9702 GAYTON RD SUITE 332, RICHMOND, VA, 23238","Match","Exact","9702 GAYTON RD, RICHMOND, VA, 23238",106675308,"R"
319587,"9702 HELMSLEY WAY","CINCINNATI","OH",45231,39.244926918,-84.539409053,87,"9702 HELMSLEY WAY, CINCINNATI, OH, 45231","Match","Exact","9702 HELMSLEY WAY, CINCINNATI, OH, 45231",103919835,"R"
319588,"9702 HOLMES AVENUE","LOS ANGELES","CA",90002,33.947952527,-118.24076449,88,"9702 HOLMES AVENUE, LOS ANGELES, CA, 90002","Match","Exact","9702 HOLMES AVE, LOS ANGELES, CA, 90002",141672595,"L"
319589,"9702 N SAM HOUSTON PKWY E APT 1223","HUMBLE","TX",77396,29.934339333,-95.244078996,89,"9702 N SAM HOUSTON PKWY E APT 1223, HUMBLE, TX, 77396","Match","Non_Exact","9702 N SAM HOUSTON PKWY E, HUMBLE, TX, 77396",642107778,"R"
319590,"9702 N SAM HOUSTON PKWY SUITE 736","HUMBLE","TX",77346,NA,NA,90,"9702 N SAM HOUSTON PKWY SUITE 736, HUMBLE, TX, 77346","No_Match",NA,NA,NA,NA
319591,"9702 TIETON DRIVE","YAKIMA","WA",98908,46.5929855630001,-120.637160324,91,"9702 TIETON DRIVE, YAKIMA, WA, 98908","Match","Exact","9702 TIETON DR, YAKIMA, WA, 98908",652244580,"L"
319592,"9703 CARNOT WAY","VIENNA","VA",22182,NA,NA,92,"9703 CARNOT WAY, VIENNA, VA, 22182","No_Match",NA,NA,NA,NA
319593,"9703 COUNSELLOR DRIVE","VIENNA","VA",22181,38.907301294,-77.280025587,93,"9703 COUNSELLOR DRIVE, VIENNA, VA, 22181","Match","Exact","9703 COUNSELLOR DR, VIENNA, VA, 22181",75968538,"L"
319594,"9703 EAGLES FEATHER DR","CHARLOTTE","NC",28214,NA,NA,94,"9703 EAGLES FEATHER DR, CHARLOTTE, NC, 28214","No_Match",NA,NA,NA,NA
319595,"9703 FITZGERALD DRIVE","BAKERSFIELD","CA",93311,35.3156101540001,-119.110625166,95,"9703 FITZGERALD DRIVE, BAKERSFIELD, CA, 93311","Match","Exact","9703 FITZGERALD DR, BAKERSFIELD, CA, 93311",109531250,"L"
319596,"9703 GLENHOPE ROAD","PHILADELPHIA","PA",19115,40.0936326720001,-75.040847556,96,"9703 GLENHOPE ROAD, PHILADELPHIA, PA, 19115","Match","Exact","9703 GLENHOPE RD, PHILADELPHIA, PA, 19115",131430457,"R"
319597,"9703 HAMMOCKS BLVD APT 205","MIAMI","FL",33196,25.6760648100001,-80.4380117429999,97,"9703 HAMMOCKS BLVD APT 205, MIAMI, FL, 33196","Match","Exact","9703 HAMMOCKS BLVD, MIAMI, FL, 33196",116281613,"L"
319598,"9703 LOCH DANE DRIVE","SPRING","TX",77379,30.0218949630001,-95.567836721,98,"9703 LOCH DANE DRIVE, SPRING, TX, 77379","Match","Exact","9703 LOCH DANE DR, SPRING, TX, 77379",96130512,"R"
319599,"9703 RICHMOND AVENUE SUITE 106","HOUSTON","TX",77042,29.727710448,-95.5397990019999,99,"9703 RICHMOND AVENUE SUITE 106, HOUSTON, TX, 77042","Match","Exact","9703 RICHMOND AVE, HOUSTON, TX, 77042",96613630,"L"
319600,"9703 S DIXIE HWY","MIAMI","FL",33156,25.6805284330001,-80.3163047209999,100,"9703 S DIXIE HWY, MIAMI, FL, 33156","Match","Non_Exact","9703 S DIXIE HWY, MIAMI, FL, 33156",614007537,"L"
319601,"9703 STREAM VIEW TRAIL","LOUISVILLE","KY",40258,38.1372810770001,-85.881715054,101,"9703 STREAM VIEW TRAIL, LOUISVILLE, KY, 40258","Match","Exact","9703 STREAM VIEW TRL, LOUISVILLE, KY, 40258",96919206,"R"
319602,"9703 WAHINGTON AVENUE","MARMET","WV",25315,38.2442390670001,-81.565634855,102,"9703 WAHINGTON AVENUE, MARMET, WV, 25315","Match","Non_Exact","9703 WASHINGTON AVE, MARMET, WV, 25315",78597255,"R"
319603,"9703 WINDING WAY LANE","JONESBORO","GA",30238,33.4902277480001,-84.3482418299999,103,"9703 WINDING WAY LANE, JONESBORO, GA, 30238","Match","Exact","9703 WINDING WAY LN, JONESBORO, GA, 30238",23333596,"R"
319604,"9703 X RD","MERIDEN","KS",66512,39.2212500540001,-95.6081560379999,104,"9703 X RD, MERIDEN, KS, 66512","Match","Exact","9703 X RD, MERIDEN, KS, 66512",635538887,"R"
319605,"9704 ASPEN HOLLOW WAY","FAIRFAX","VA",22032,38.8199223820001,-77.286284312,105,"9704 ASPEN HOLLOW WAY, FAIRFAX, VA, 22032","Match","Exact","9704 ASPEN HOLLOW WAY, FAIRFAX, VA, 22032",75970332,"R"
319606,"9704 EMILY LANE","CHARLOTTE","NC",28216,35.3269991270001,-80.863361034,106,"9704 EMILY LANE, CHARLOTTE, NC, 28216","Match","Exact","9704 EMILY LN, CHARLOTTE, NC, 28216",70532106,"L"
319607,"9704 FORESTWOOD DR","LOUISVILLE","KY",40299,38.1847664860001,-85.579951745,107,"9704 FORESTWOOD DR, LOUISVILLE, KY, 40299","Match","Exact","9704 FORESTWOOD DR, LOUISVILLE, KY, 40299",96928590,"L"
319608,"9704 HIGHGATE ROAD","COLUMBIA","SC",29223,34.0880512360001,-80.9179347309999,108,"9704 HIGHGATE ROAD, COLUMBIA, SC, 29223","Match","Exact","9704 HIGHGATE RD, COLUMBIA, SC, 29223",71825980,"R"
319609,"9704 MANASSAS ROAD","FORT WORTH","TX",76177,32.916539266,-97.330831124,109,"9704 MANASSAS ROAD, FORT WORTH, TX, 76177","Match","Exact","9704 MANASSAS RD, FORT WORTH, TX, 76177",638655539,"R"
319610,"9704 S BEVERLY AVE","CHICAGO","IL",60643,41.717632279,-87.661457524,110,"9704 S BEVERLY AVE, CHICAGO, IL, 60643","Match","Exact","9704 S BEVERLY AVE, CHICAGO, IL, 60643",605582807,"R"
319611,"9704 SOUTH LOWE AVENUE","CHICAGO","IL",60628,41.7176735150001,-87.639470307,111,"9704 SOUTH LOWE AVENUE, CHICAGO, IL, 60628","Match","Exact","9704 S LOWE AVE, CHICAGO, IL, 60628",111832854,"R"
319612,"9704 TABLE MOUNTAIN LANE","LADSON","SC",29456,32.947671325,-80.111365588,112,"9704 TABLE MOUNTAIN LANE, LADSON, SC, 29456","Match","Exact","9704 TABLE MOUNTAIN LN, LADSON, SC, 29456",651583739,"R"
319613,"9705 45TH AVENUE NORTH-NUMBER 41982","PLYMOUTH","MN",55442,45.036645605,-93.403933046,113,"9705 45TH AVENUE NORTH-NUMBER 41982, PLYMOUTH, MN, 55442","Match","Exact","9705 45TH AVE N, PLYMOUTH, MN, 55442",640750380,"R"
319614,"9705 COLLINS AVENUE 2501 PH","BAL HARBOUR","FL",33154,25.8884579960001,-80.1238243339999,114,"9705 COLLINS AVENUE 2501 PH, BAL HARBOUR, FL, 33154","Match","Exact","9705 COLLINS AVE, BAL HARBOUR, FL, 33154",610918027,"R"
319615,"9705 CR 2813","EUSTACE","TX",75124,32.2869745880001,-96.0177215639999,115,"9705 CR 2813, EUSTACE, TX, 75124","Match","Exact","9705 CO RD 2813, EUSTACE, TX, 75124",125796941,"L"
319616,"9705 GRANARY PL","BRISTOW","VA",20136,38.7468085690001,-77.557524036,116,"9705 GRANARY PL, BRISTOW, VA, 20136","Match","Exact","9705 GRANARY PL, BRISTOW, VA, 20136",76521919,"R"
319617,"9705 LINKMEADOW LANE","HOUSTON","TX",77025,29.677888701,-95.4354619869999,117,"9705 LINKMEADOW LANE, HOUSTON, TX, 77025","Match","Exact","9705 LINKMEADOW LN, HOUSTON, TX, 77025",96087018,"L"
319618,"9705 MESA DR","CLAREMORE","OK",74017,36.4152545100001,-95.6553586429999,118,"9705 MESA DR, CLAREMORE, OK, 74017","Match","Non_Exact","9705 NW MESA DR, CLAREMORE, OK, 74017",20691006,"L"
319619,"9705 MILL CENTRE DRIVE APT 606","OWINGS MILLS","MD",21117,39.4166132130001,-76.811450567,119,"9705 MILL CENTRE DRIVE APT 606, OWINGS MILLS, MD, 21117","Match","Exact","9705 MILL CENTRE DR, OWINGS MILLS, MD, 21117",641697166,"R"
319620,"9705 MILL CENTRE DRIVE APT 708","OWINGS MILLS","MD",21117,39.4166132130001,-76.811450567,120,"9705 MILL CENTRE DRIVE APT 708, OWINGS MILLS, MD, 21117","Match","Exact","9705 MILL CENTRE DR, OWINGS MILLS, MD, 21117",641697166,"R"
319621,"9705 N BROADWAY EXT   SUITE 200","OKLAHOMA CITY","OK",73114,NA,NA,121,"9705 N BROADWAY EXT   SUITE 200, OKLAHOMA CITY, OK, 73114","No_Match",NA,NA,NA,NA
319622,"9705 N MAY AVENUE STE 200","THE VILLAGE","OK",73012,NA,NA,122,"9705 N MAY AVENUE STE 200, THE VILLAGE, OK, 73012","No_Match",NA,NA,NA,NA
319623,"9705 SUMMIT CIRCLE","LARGO","MD",20774,38.90569651,-76.840331405,123,"9705 SUMMIT CIRCLE, LARGO, MD, 20774","Match","Exact","9705 SUMMIT CIR, LARGO, MD, 20774",76352525,"L"
319624,"9705 SUNSET HILL DRIVE","LONE TREE","CO",80124,39.5399291000001,-104.876139193,124,"9705 SUNSET HILL DRIVE, LONE TREE, CO, 80124","Match","Exact","9705 SUNSET HILL DR, LONE TREE, CO, 80124",647984592,"L"
319625,"9705 SW 114 CT","MIAMI","FL",33176,25.677683061,-80.379471958,125,"9705 SW 114 CT, MIAMI, FL, 33176","Match","Exact","9705 SW 114TH CT, MIAMI, FL, 33176",115979248,"L"
319626,"9705 THORN BUSH DRIVE","FAIRFAX STATION","VA",22039,38.732957437,-77.283060317,126,"9705 THORN BUSH DRIVE, FAIRFAX STATION, VA, 22039","Match","Exact","9705 THORN BUSH DR, FAIRFAX STATION, VA, 22039",641048958,"R"
319627,"9706 BERTWOOD ST","HOUSTON","TX",77016,29.8502670730001,-95.3099192829999,127,"9706 BERTWOOD ST, HOUSTON, TX, 77016","Match","Exact","9706 BERTWOOD ST, HOUSTON, TX, 77016",96644255,"R"
319628,"9706 BEXLEY FARMS DRIVE","N CHESTERFIELD","VA",23236,37.462836924,-77.5726803479999,128,"9706 BEXLEY FARMS DRIVE, N CHESTERFIELD, VA, 23236","Match","Exact","9706 BEXLEY FARMS DR, NORTH CHESTERFIELD, VA, 23236",201561224,"R"
319629,"9706 CALDWELL WAY","MISSOURI CITY","TX",77459,29.4831304470001,-95.521117111,129,"9706 CALDWELL WAY, MISSOURI CITY, TX, 77459","Match","Exact","9706 CALDWELL WAY, MISSOURI CITY, TX, 77459",648706042,"R"
319630,"9706 CASTLEROY LANE","ROWLETT","TX",75089,32.9449908070001,-96.5327070009999,130,"9706 CASTLEROY LANE, ROWLETT, TX, 75089","Match","Exact","9706 CASTLEROY LN, ROWLETT, TX, 75089",103277485,"L"
319631,"9706 CRESTWOOD DR","MONT BELVIEU","TX",77523,29.8353057190001,-94.8552316,131,"9706 CRESTWOOD DR, MONT BELVIEU, TX, 77523","Match","Exact","9706 CRESTWOOD DR, MONT BELVIEU, TX, 77523",629555227,"R"
319632,"9706 E 79TH PL","RAYTOWN","MO",64138,38.9782159390001,-94.467746333,132,"9706 E 79TH PL, RAYTOWN, MO, 64138","Match","Exact","9706 E 79TH PL, RAYTOWN, MO, 64138",91465544,"L"
319633,"9706 ECLIPSE PLACE","MONTGOMERY VILLAGE","MD",20886,39.1673833850001,-77.2007530939999,133,"9706 ECLIPSE PLACE, MONTGOMERY VILLAGE, MD, 20886","Match","Exact","9706 ECLIPSE PL, MONTGOMERY VILLAGE, MD, 20886",62050622,"L"
319634,"9706 EVERGREEN","BROOKLYN PARK","MN",55443,NA,NA,134,"9706 EVERGREEN, BROOKLYN PARK, MN, 55443","No_Match",NA,NA,NA,NA
319635,"9706 JUNIPER COURT N","FOREST LAKE","MN",55025,45.2601908170001,-92.9088948419999,135,"9706 JUNIPER COURT N, FOREST LAKE, MN, 55025","Match","Exact","9706 JUNIPER CT N, FOREST LAKE, MN, 55025",624345832,"L"
319636,"9706 LYDIA AVENUE","KANSAS CITY","MO",64131,38.9504770830001,-94.5721961529999,136,"9706 LYDIA AVENUE, KANSAS CITY, MO, 64131","Match","Exact","9706 LYDIA AVE, KANSAS CITY, MO, 64131",91456123,"R"
319637,"9706 MOORBERRY LANE","HOUSTON","TX",77080,29.8132060520001,-95.535612864,137,"9706 MOORBERRY LANE, HOUSTON, TX, 77080","Match","Exact","9706 MOORBERRY LN, HOUSTON, TX, 77080",96128011,"L"
319638,"9706 RED RUGOSSA DRIVE","CYPRESS","TX",77095,29.9162542030001,-95.679218071,138,"9706 RED RUGOSSA DRIVE, CYPRESS, TX, 77095","Match","Non_Exact","9706 RED RUGOSSA DR, HOUSTON, TX, 77095",637601002,"L"
319639,"9706 RENFIELD DRIVE","RALEIGH","NC",27617,35.9176554960001,-78.735490232,139,"9706 RENFIELD DRIVE, RALEIGH, NC, 27617","Match","Exact","9706 RENFIELD DR, RALEIGH, NC, 27617",618919688,"R"
319640,"9706 ROUND TUIT LN","PRINCETON","TX",75407,33.1249181090001,-96.4926874879999,140,"9706 ROUND TUIT LN, PRINCETON, TX, 75407","Match","Non_Exact","9706 ROUND-TUIT LN, PRINCETON, TX, 75407",210515689,"R"
319641,"9707 1/2 MARILLA DRIVE","LAKESIDE","CA",92040,32.854132275,-116.940709917,141,"9707 1/2 MARILLA DRIVE, LAKESIDE, CA, 92040","Match","Exact","9707 MARILLA DR, LAKESIDE, CA, 92040",651652978,"R"
319642,"9707 LOCUST AVENUE","LANHAM","MD",20706,38.9721746370001,-76.838609124,142,"9707 LOCUST AVENUE, LANHAM, MD, 20706","Match","Exact","9707 LOCUST AVE, LANHAM, MD, 20706",76310430,"R"
319643,"9707 N KINGS HWY 17","MYRTLE BEACH","SC",29572,NA,NA,143,"9707 N KINGS HWY 17, MYRTLE BEACH, SC, 29572","Tie",NA,NA,NA,NA
319644,"9707 S GREENVILLE RD","GREENVILLE","MI",48838,43.1527039310001,-85.261755717,144,"9707 S GREENVILLE RD, GREENVILLE, MI, 48838","Match","Non_Exact","9707 SW GREENVILLE RD, GREENVILLE, MI, 48838",110562260,"R"
319645,"9707 STONECROSS  BEND DR","HOUSTON","TX",77070,29.9998082550001,-95.571742544,145,"9707 STONECROSS  BEND DR, HOUSTON, TX, 77070","Match","Exact","9707 STONECROSS BEND DR, HOUSTON, TX, 77070",630548085,"R"
319646,"9707 SUMMIT CIRCLE APT 2D","LARGO","MD",20774,38.9057011960001,-76.840329958,146,"9707 SUMMIT CIRCLE APT 2D, LARGO, MD, 20774","Match","Exact","9707 SUMMIT CIR, LARGO, MD, 20774",76352525,"L"
319647,"97071 CUTLASS WAY","YULEE","FL",32097,30.6758469930001,-81.528406213,147,"97071 CUTLASS WAY, YULEE, FL, 32097","Match","Exact","97071 CUTLASS WAY, YULEE, FL, 32097",84104264,"R"
319648,"9708 70TH AVE","FOREST HILLS","NY",11375,NA,NA,148,"9708 70TH AVE, FOREST HILLS, NY, 11375","No_Match",NA,NA,NA,NA
319649,"9708 DALPHON JONES DRIVE","CHARLOTTE","NC",28213,35.295863744,-80.717031559,149,"9708 DALPHON JONES DRIVE, CHARLOTTE, NC, 28213","Match","Exact","9708 DALPHON JONES DR, CHARLOTTE, NC, 28213",70557107,"R"
319650,"9708 DUNN COURT","CLINTON","MD",20735,38.7577536250001,-76.852592273,150,"9708 DUNN COURT, CLINTON, MD, 20735","Match","Exact","9708 DUNN CT, CLINTON, MD, 20735",639469786,"L"
319651,"9708 E 84TH","KANSAS CITY","MO",64138,38.9710449070001,-94.4687929359999,151,"9708 E 84TH, KANSAS CITY, MO, 64138","Match","Non_Exact","9708 E 84TH ST, KANSAS CITY, MO, 64138",91465640,"R"
319652,"9708 GILESPIE ST SUITE 104","LAS VEGAS","NV",89183,36.0130959700001,-115.163422056,152,"9708 GILESPIE ST SUITE 104, LAS VEGAS, NV, 89183","Match","Exact","9708 GILESPIE ST, LAS VEGAS, NV, 89183",653231264,"L"
319653,"9708 GILESPIE ST","LAS VEGAS","NV",89183,36.0130959700001,-115.163422056,153,"9708 GILESPIE ST, LAS VEGAS, NV, 89183","Match","Exact","9708 GILESPIE ST, LAS VEGAS, NV, 89183",653231264,"L"
319654,"9708 GILESPIE STREET SUITE 104","LAS VEGAS","NV",89183,36.0130959700001,-115.163422056,154,"9708 GILESPIE STREET SUITE 104, LAS VEGAS, NV, 89183","Match","Exact","9708 GILESPIE ST, LAS VEGAS, NV, 89183",653231264,"L"
319655,"9708 GILLESPIE SUITE 114","LAS VEGAS","NV",89183,36.0130959700001,-115.163422056,155,"9708 GILLESPIE SUITE 114, LAS VEGAS, NV, 89183","Match","Non_Exact","9708 GILESPIE ST, LAS VEGAS, NV, 89183",653231264,"L"
319656,"9708 GILSEPSIE ST STE 104","LAS VEGAS","NV",89183,NA,NA,156,"9708 GILSEPSIE ST STE 104, LAS VEGAS, NV, 89183","No_Match",NA,NA,NA,NA
319657,"9708 GILVESPIE ST STE 107","LAS VEGAS","NV",89183,NA,NA,157,"9708 GILVESPIE ST STE 107, LAS VEGAS, NV, 89183","No_Match",NA,NA,NA,NA
319658,"9708 GREEN APPLE TURN","UPPER MARLBORO","MD",20772,38.773525007,-76.839971751,158,"9708 GREEN APPLE TURN, UPPER MARLBORO, MD, 20772","Match","Exact","9708 GREEN APPLE TURN, UPPER MARLBORO, MD, 20772",76330766,"L"
319659,"9708 MARGO ANN LN","ST LOUIS","MO",63134,38.7306340390001,-90.368056006,159,"9708 MARGO ANN LN, ST LOUIS, MO, 63134","Match","Exact","9708 MARGO ANN LN, SAINT LOUIS, MO, 63134",100193465,"L"
319660,"9708 RAYMOND DRIVE","BELLEVILLE","IL",62223,38.5784302960001,-90.051530472,160,"9708 RAYMOND DRIVE, BELLEVILLE, IL, 62223","Match","Exact","9708 RAYMOND DR, BELLEVILLE, IL, 62223",107837817,"R"
319661,"9708 SHUTTLE COURT SOUTH","UPPER MARLBORO","MD",20772,38.755637183,-76.7819751219999,161,"9708 SHUTTLE COURT SOUTH, UPPER MARLBORO, MD, 20772","Match","Exact","9708 SHUTTLE CT S, UPPER MARLBORO, MD, 20772",76323064,"L"
319662,"9708 SOUTH PADRE ISLAND DR  B101","CORPUS CHRISTI","TX",78418,27.674354787,-97.2941106219999,162,"9708 SOUTH PADRE ISLAND DR  B101, CORPUS CHRISTI, TX, 78418","Match","Exact","9708 S PADRE ISLAND DR, CORPUS CHRISTI, TX, 78418",178547824,"L"
319663,"9708 W BELOIT ROAD","MILWAUKEE","WI",53227,42.9829422450001,-88.033881746,163,"9708 W BELOIT ROAD, MILWAUKEE, WI, 53227","Match","Exact","9708 W BELOIT RD, MILWAUKEE, WI, 53227",77745783,"R"
319664,"970800 S 3340 RD","WELLSTON","OK",74881,NA,NA,164,"970800 S 3340 RD, WELLSTON, OK, 74881","No_Match",NA,NA,NA,NA
319665,"9709 60TH AV SOUTH","SEATTLE","WA",98118,47.5149142560001,-122.258202374,165,"9709 60TH AV SOUTH, SEATTLE, WA, 98118","Match","Exact","9709 60TH AVE S, SEATTLE, WA, 98118",239764095,"R"
319666,"9709 CALLITA ST","ARCADIA","CA",91007,34.1200838400001,-118.060697603,166,"9709 CALLITA ST, ARCADIA, CA, 91007","Match","Exact","9709 CALLITA ST, ARCADIA, CA, 91007",241241376,"L"
319667,"9709 EDMOND COURT","ELLICOTT CITY","MD",21042,NA,NA,167,"9709 EDMOND COURT, ELLICOTT CITY, MD, 21042","No_Match",NA,NA,NA,NA
319668,"9709 EVENING PRIMROSE DR APT 3C","LAUREL","MD",20723,39.119445758,-76.82957255,168,"9709 EVENING PRIMROSE DR APT 3C, LAUREL, MD, 20723","Match","Exact","9709 EVENING PRIMROSE DR, LAUREL, MD, 20723",158945726,"L"
319669,"9709 S 203RD ST","KENT","WA",98031,47.4206328120001,-122.21100059,169,"9709 S 203RD ST, KENT, WA, 98031","Match","Exact","9709 S 203RD ST, KENT, WA, 98031",650170597,"R"
319670,"9709 STATE LINE RD","KANSAS CITY","MO",64114,38.9516645260001,-94.6081286519999,170,"9709 STATE LINE RD, KANSAS CITY, MO, 64114","Match","Exact","9709 STATE LINE RD, KANSAS CITY, MO, 64114",91286866,"L"
319671,"9709 WATERVIEW PARKWAY","ROWLETT","TX",75089,32.947731237,-96.536897905,171,"9709 WATERVIEW PARKWAY, ROWLETT, TX, 75089","Match","Exact","9709 WATERVIEW PKWY, ROWLETT, TX, 75089",103262746,"R"
319672,"971 10TH AVE SOUTH","ST PETERSBURG","FL",33705,27.760610935,-82.648046624,172,"971 10TH AVE SOUTH, ST PETERSBURG, FL, 33705","Match","Exact","971 10TH AVE S, SAINT PETERSBURG, FL, 33705",124708323,"R"
319673,"971 AVONDALE AVENUE","CINCINNATI","OH",45229,39.1550105270001,-84.477496091,173,"971 AVONDALE AVENUE, CINCINNATI, OH, 45229","Match","Exact","971 AVONDALE AVE, CINCINNATI, OH, 45229",103929616,"R"
319674,"971 CLINTON AVE","IRVINGTON","NJ",7111,40.730593737,-74.243994856,174,"971 CLINTON AVE, IRVINGTON, NJ, 7111","Match","Exact","971 CLINTON AVE, IRVINGTON, NJ, 07111",642912063,"R"
319675,"971 CLOYDS LANE","GREENBACK","TN",37742,35.714573386,-84.150881369,175,"971 CLOYDS LANE, GREENBACK, TN, 37742","Match","Exact","971 CLOYDS LN, GREENBACK, TN, 37742",89857714,"L"
319676,"971 DUTTON RD","ROCHESTER HILLS","MI",48306,42.7111331460001,-83.155565788,176,"971 DUTTON RD, ROCHESTER HILLS, MI, 48306","Match","Exact","971 DUTTON RD, ROCHESTER HILLS, MI, 48306",69802573,"L"
319677,"971 E MONROE STREET","MORTON","IL",61550,40.60936285,-89.446262154,177,"971 E MONROE STREET, MORTON, IL, 61550","Match","Exact","971 E MONROE ST, MORTON, IL, 61550",22511537,"L"
319678,"971 E TODD COURT","FRESNO","CA",93720,36.851566216,-119.766763807,178,"971 E TODD COURT, FRESNO, CA, 93720","Match","Exact","971 TODD CT, FRESNO, CA, 93720",197635939,"R"
319679,"971 EAST 78TH ST","BROOKLYN","NY",11236,40.633261073,-73.913309141,179,"971 EAST 78TH ST, BROOKLYN, NY, 11236","Match","Exact","971 E 78TH ST, BROOKLYN, NY, 11236",59086413,"L"
319680,"971 FAIRWAY DRIVE","DUNCANVILLE","TX",75137,32.6226581510001,-96.8881205,180,"971 FAIRWAY DRIVE, DUNCANVILLE, TX, 75137","Match","Exact","971 FAIRWAY DR, DUNCANVILLE, TX, 75137",640539719,"R"
319681,"971 GILCHRIST STREET SUITE 3","WHEATLAND","WY",82201,42.0543558700001,-104.954424091,181,"971 GILCHRIST STREET SUITE 3, WHEATLAND, WY, 82201","Match","Exact","971 GILCHRIST ST, WHEATLAND, WY, 82201",634738529,"L"
319682,"971 GLAD TIDINGS WAY APT 2","HAYWARD","CA",94544,NA,NA,182,"971 GLAD TIDINGS WAY APT 2, HAYWARD, CA, 94544","No_Match",NA,NA,NA,NA
319683,"971 MADISON AVE","PLAINFIELD","NJ",7060,40.6076501970001,-74.4152183309999,183,"971 MADISON AVE, PLAINFIELD, NJ, 7060","Match","Exact","971 MADISON AVE, PLAINFIELD, NJ, 07060",60560628,"L"
319684,"971 MARCH STREET","LAKE ZURICH","IL",60047,42.213871311,-88.070814549,184,"971 MARCH STREET, LAKE ZURICH, IL, 60047","Match","Exact","971 MARCH ST, LAKE ZURICH, IL, 60047",635518047,"L"
319685,"971 N CITRUS AVENUE","COVINA","CA",91722,34.0971553000001,-117.890212416,185,"971 N CITRUS AVENUE, COVINA, CA, 91722","Match","Exact","971 N CITRUS AVE, COVINA, CA, 91722",648657266,"L"
319686,"971 NE 134TH CT","WILLISTON","FL",32696,29.3475346970001,-82.549244904,186,"971 NE 134TH CT, WILLISTON, FL, 32696","Match","Exact","971 NE 134TH CT, WILLISTON, FL, 32696",43304444,"R"
319687,"971 SALISBURY RIDGE ROAD","WINSTON SALEM","NC",27127,36.068242492,-80.2549263929999,187,"971 SALISBURY RIDGE ROAD, WINSTON SALEM, NC, 27127","Match","Exact","971 SALISBURY RIDGE RD, WINSTON SALEM, NC, 27127",84685783,"R"
319688,"971 SCOTTS FERRY TRAIL","APPLING","GA",30802,33.5655099030001,-82.309364193,188,"971 SCOTTS FERRY TRAIL, APPLING, GA, 30802","Match","Exact","971 SCOTTS FERRY TRL, APPLING, GA, 30802",641055643,"L"
319689,"971 SHADDOCK PARK LN","ALLEN","TX",75013,33.136357291,-96.678174871,189,"971 SHADDOCK PARK LN, ALLEN, TX, 75013","Match","Exact","971 SHADDOCK PARK LN, ALLEN, TX, 75013",638611338,"L"
319690,"971 SOUTH HWY 27","SOMERSET","KY",42503,NA,NA,190,"971 SOUTH HWY 27, SOMERSET, KY, 42503","No_Match",NA,NA,NA,NA
319691,"971 STATE STREET","HARBOR SPRINGS","MI",49740,45.437407605,-84.990578074,191,"971 STATE STREET, HARBOR SPRINGS, MI, 49740","Match","Non_Exact","971 S STATE ST, HARBOR SPRINGS, MI, 49740",133982353,"L"
319692,"971 SW WILDWOOD RD","PORT ORCHARD","WA",98367,47.4469075380001,-122.66423945,192,"971 SW WILDWOOD RD, PORT ORCHARD, WA, 98367","Match","Exact","971 SW WILDWOOD RD, PORT ORCHARD, WA, 98367",643056512,"R"
319693,"971 WEST KING ST","BOONE","NC",28607,36.220786538,-81.688305537,193,"971 WEST KING ST, BOONE, NC, 28607","Match","Exact","971 W KING ST, BOONE, NC, 28607",52031091,"L"
319694,"971 WINTHER WAY","SANTA BARBARA","CA",93110,34.4538808230001,-119.753717055,194,"971 WINTHER WAY, SANTA BARBARA, CA, 93110","Match","Exact","971 WINTHER WAY, SANTA BARBARA, CA, 93110",108603154,"L"
319695,"971 WITHAM DR","WOODLAND","CA",95776,38.6657570040001,-121.729279631,195,"971 WITHAM DR, WOODLAND, CA, 95776","Match","Exact","971 WITHAM DR, WOODLAND, CA, 95776",67700747,"L"
319696,"971 WV ROUTE 31 STE 11","HURRICANE","WV",25526,NA,NA,196,"971 WV ROUTE 31 STE 11, HURRICANE, WV, 25526","No_Match",NA,NA,NA,NA
319697,"9710 29TH AVENUE N","PLYMOUTH","MN",55441,45.0123084840001,-93.403545021,197,"9710 29TH AVENUE N, PLYMOUTH, MN, 55441","Match","Exact","9710 29TH AVE N, PLYMOUTH, MN, 55441",641220191,"L"
319698,"9710 62ND DR APT 8B","REGO PARK","NY",11374,NA,NA,198,"9710 62ND DR APT 8B, REGO PARK, NY, 11374","No_Match",NA,NA,NA,NA
319699,"9710 ARTHUR ROAD","ALGONQUIN","IL",60102,42.1889788720001,-88.261719114,199,"9710 ARTHUR ROAD, ALGONQUIN, IL, 60102","Match","Exact","9710 ARTHUR RD, ALGONQUIN, IL, 60102",119823831,"R"
319700,"9710 BREVARD STREET","LAUREL","MD",20723,39.114311538,-76.8449741649999,200,"9710 BREVARD STREET, LAUREL, MD, 20723","Match","Exact","9710 BREVARD ST, LAUREL, MD, 20723",633342064,"R"
319701,"9710 HOME AVE","HANFORD","CA",93230,36.304085849,-119.631511008,201,"9710 HOME AVE, HANFORD, CA, 93230","Match","Exact","9710 HOME AVE, HANFORD, CA, 93230",197984031,"L"
319702,"9710 JADEE CT","FORT WASHINGTON","MD",20744,38.7586131850001,-76.982291828,202,"9710 JADEE CT, FORT WASHINGTON, MD, 20744","Match","Exact","9710 JADEE CT, FT WASHINGTON, MD, 20744",76348839,"L"
319703,"9710 KING GRAVES RD","WARREN","OH",44484,41.2653632240001,-80.7200702979999,203,"9710 KING GRAVES RD, WARREN, OH, 44484","Match","Non_Exact","9710 KING GRAVES RD NE, WARREN, OH, 44484",117419526,"R"
319704,"9710 LAUREN BRIAR LANE","HUMBLE","TX",77396,NA,NA,204,"9710 LAUREN BRIAR LANE, HUMBLE, TX, 77396","No_Match",NA,NA,NA,NA
319705,"9710 LIMESTONE DR","DALLAS","TX",75217,32.744632262,-96.653524923,205,"9710 LIMESTONE DR, DALLAS, TX, 75217","Match","Exact","9710 LIMESTONE DR, DALLAS, TX, 75217",102961449,"R"
319706,"9710 NE 103RD","VANCOUVER","WA",98662,45.696269306,-122.573016349,206,"9710 NE 103RD, VANCOUVER, WA, 98662","Match","Non_Exact","9710 NE 103RD ST, VANCOUVER, WA, 98662",158371493,"R"
319707,"9710 NE 82ND AVE","VANCOUVER","WA",98662,45.692179427,-122.58941664,207,"9710 NE 82ND AVE, VANCOUVER, WA, 98662","Match","Exact","9710 NE 82ND AVE, VANCOUVER, WA, 98662",639690438,"L"
319708,"9710 PARK PLAZA AVENUE - SUITE 207","LOUISVILLE","KY",40241,38.309089708,-85.579574929,208,"9710 PARK PLAZA AVENUE - SUITE 207, LOUISVILLE, KY, 40241","Match","Exact","9710 PARK PLAZA AVE, LOUISVILLE, KY, 40241",96939228,"L"
319709,"9710 S 700 E SUITE 301","SANDY","UM",84070,NA,NA,209,"9710 S 700 E SUITE 301, SANDY, UM, 84070","No_Match",NA,NA,NA,NA
319710,"9710 STIRLING RD 101","COOPER CITY","FL",33024,26.044588559,-80.275439687,210,"9710 STIRLING RD 101, COOPER CITY, FL, 33024","Match","Non_Exact","9710 STIRLING RD, HOLLYWOOD, FL, 33024",637549877,"R"
319711,"9710 STIRLING ROAD - SUITE 101","COOPER CITY","FL",33024,26.044588559,-80.275439687,211,"9710 STIRLING ROAD - SUITE 101, COOPER CITY, FL, 33024","Match","Non_Exact","9710 STIRLING RD, HOLLYWOOD, FL, 33024",637549877,"R"
319712,"9710 STIRLING ROAD 101","COOPER CITY","FL",33024,26.044588559,-80.275439687,212,"9710 STIRLING ROAD 101, COOPER CITY, FL, 33024","Match","Non_Exact","9710 STIRLING RD, HOLLYWOOD, FL, 33024",637549877,"R"
319713,"9710 STIRLING ROAD SUITE 101","COOPER CITY","FL",33024,26.044588559,-80.275439687,213,"9710 STIRLING ROAD SUITE 101, COOPER CITY, FL, 33024","Match","Non_Exact","9710 STIRLING RD, HOLLYWOOD, FL, 33024",637549877,"R"
319714,"9710 STIRLING ROAD SUITE 107","COOPER CITY","FL",33024,26.044588559,-80.275439687,214,"9710 STIRLING ROAD SUITE 107, COOPER CITY, FL, 33024","Match","Non_Exact","9710 STIRLING RD, HOLLYWOOD, FL, 33024",637549877,"R"
319715,"9710 STIRLING ROAD","COOPER CITY","FL",33024,26.044588559,-80.275439687,215,"9710 STIRLING ROAD, COOPER CITY, FL, 33024","Match","Non_Exact","9710 STIRLING RD, HOLLYWOOD, FL, 33024",637549877,"R"
319716,"9710 TRAVILLE GATEWAY DR - STE 156","ROCKVILLE","MD",20850,39.0913332040001,-77.2042674209999,216,"9710 TRAVILLE GATEWAY DR - STE 156, ROCKVILLE, MD, 20850","Match","Exact","9710 TRAVILLE GATEWAY DR, ROCKVILLE, MD, 20850",642984954,"R"
319717,"9710 TRAVILLE GATEWAY DR STE 160","ROCKVILLE","MD",20850,39.0913332040001,-77.2042674209999,217,"9710 TRAVILLE GATEWAY DR STE 160, ROCKVILLE, MD, 20850","Match","Exact","9710 TRAVILLE GATEWAY DR, ROCKVILLE, MD, 20850",642984954,"R"
319718,"9710 TRAVILLE GATEWAY DR SUITE 102","ROCKVILLE","MD",20850,39.0913332040001,-77.2042674209999,218,"9710 TRAVILLE GATEWAY DR SUITE 102, ROCKVILLE, MD, 20850","Match","Exact","9710 TRAVILLE GATEWAY DR, ROCKVILLE, MD, 20850",642984954,"R"
319719,"9710 TRAVILLE GATEWAY DR SUITE 285","ROCKVILLE","MD",20850,39.0913332040001,-77.2042674209999,219,"9710 TRAVILLE GATEWAY DR SUITE 285, ROCKVILLE, MD, 20850","Match","Exact","9710 TRAVILLE GATEWAY DR, ROCKVILLE, MD, 20850",642984954,"R"
319720,"9710 TRAVILLE GATEWAY DR UNIT 234","ROCKVILLE","MD",20850,39.0913332040001,-77.2042674209999,220,"9710 TRAVILLE GATEWAY DR UNIT 234, ROCKVILLE, MD, 20850","Match","Exact","9710 TRAVILLE GATEWAY DR, ROCKVILLE, MD, 20850",642984954,"R"
319721,"9710 TRAVILLE GATEWAY DRIVE 102","ROCKVILLE","MD",20850,39.0913332040001,-77.2042674209999,221,"9710 TRAVILLE GATEWAY DRIVE 102, ROCKVILLE, MD, 20850","Match","Exact","9710 TRAVILLE GATEWAY DR, ROCKVILLE, MD, 20850",642984954,"R"
319722,"9711 AVENTIDE LANE","CHARLOTTE","NC",28215,35.2360163600001,-80.656866141,222,"9711 AVENTIDE LANE, CHARLOTTE, NC, 28215","Match","Exact","9711 AVENTIDE LN, CHARLOTTE, NC, 28215",70555672,"R"
319723,"9711 DAVID TAYLOR DR    229","CHARLOTTE","NC",28262,35.326289092,-80.756402817,223,"9711 DAVID TAYLOR DR    229, CHARLOTTE, NC, 28262","Match","Exact","9711 DAVID TAYLOR DR, CHARLOTTE, NC, 28262",647229212,"R"
319724,"9711 DAVID TAYLOR DR STE 111 470","CHARLOTTE","NC",28262,35.326289092,-80.756402817,224,"9711 DAVID TAYLOR DR STE 111 470, CHARLOTTE, NC, 28262","Match","Exact","9711 DAVID TAYLOR DR, CHARLOTTE, NC, 28262",647229212,"R"
319725,"9711 DAVID TAYLOR DR SUITE 103","CHARLOTTE","NC",28269,35.326289092,-80.756402817,225,"9711 DAVID TAYLOR DR SUITE 103, CHARLOTTE, NC, 28269","Match","Non_Exact","9711 DAVID TAYLOR DR, CHARLOTTE, NC, 28262",647229212,"R"
319726,"9711 DAVID TAYLOR DR","CHARLOTTE","NC",28262,35.326289092,-80.756402817,226,"9711 DAVID TAYLOR DR, CHARLOTTE, NC, 28262","Match","Exact","9711 DAVID TAYLOR DR, CHARLOTTE, NC, 28262",647229212,"R"
319727,"9711 GOLF CLUB DRIVE","GRANITE BAY","CA",95746,38.727580216,-121.196655215,227,"9711 GOLF CLUB DRIVE, GRANITE BAY, CA, 95746","Match","Exact","9711 GOLF CLUB DR, GRANITE BAY, CA, 95746",635490347,"L"
319728,"9711 KERRIGAN COURT","RANDALLSTOWN","MD",21133,39.3709170000001,-76.8244834119999,228,"9711 KERRIGAN COURT, RANDALLSTOWN, MD, 21133","Match","Exact","9711 KERRIGAN CT, RANDALLSTOWN, MD, 21133",644939004,"L"
319729,"9711 S MASON ROAD SUITE 125-208","RICHMOND","TX",77407,NA,NA,229,"9711 S MASON ROAD SUITE 125-208, RICHMOND, TX, 77407","No_Match",NA,NA,NA,NA
319730,"9711 SOMERSET","DETROIT","MI",48224,42.41023648,-82.953363892,230,"9711 SOMERSET, DETROIT, MI, 48224","Match","Non_Exact","9711 SOMERSET AVE, DETROIT, MI, 48224",95469841,"L"
319731,"9711 SOUTH MASON ROAD SUITE 125 241","RICHMOND","TX",77407,NA,NA,231,"9711 SOUTH MASON ROAD SUITE 125 241, RICHMOND, TX, 77407","No_Match",NA,NA,NA,NA
319732,"9711 SW 138 AVE","MIAMI","FL",33186,25.675967245,-80.4174811569999,232,"9711 SW 138 AVE, MIAMI, FL, 33186","Match","Exact","9711 SW 138TH AVE, MIAMI, FL, 33186",647870615,"L"
319733,"9711 WASHINGTONIAN BLVD 550","GAITHERSBURG","MD",20878,39.1123662690001,-77.192522388,233,"9711 WASHINGTONIAN BLVD 550, GAITHERSBURG, MD, 20878","Match","Exact","9711 WASHINGTONIAN BLVD, GAITHERSBURG, MD, 20878",62099626,"L"
319734,"9711 WASHINGTONIAN BLVD SUITE 550","GAITHERSBURG","MD",20878,39.1123662690001,-77.192522388,234,"9711 WASHINGTONIAN BLVD SUITE 550, GAITHERSBURG, MD, 20878","Match","Exact","9711 WASHINGTONIAN BLVD, GAITHERSBURG, MD, 20878",62099626,"L"
319735,"9711 WAVELAND AVE","FRANKLIN PARK","IL",60131,41.945780643,-87.8685967389999,235,"9711 WAVELAND AVE, FRANKLIN PARK, IL, 60131","Match","Exact","9711 WAVELAND AVE, FRANKLIN PARK, IL, 60131",111725691,"L"
319736,"9712 ARVILLA AVE NE","ALBUQUERQUE","NM",87111,35.120212273,-106.532248967,236,"9712 ARVILLA AVE NE, ALBUQUERQUE, NM, 87111","Match","Exact","9712 ARVILLA AVE NE, ALBUQUERQUE, NM, 87111",206719343,"R"
319737,"9712 CLIFTON MEADOW DRIVE","MATTHEWS","NC",28105,35.1609310580001,-80.7248225119999,237,"9712 CLIFTON MEADOW DRIVE, MATTHEWS, NC, 28105","Match","Exact","9712 CLIFTON MEADOW DR, MATTHEWS, NC, 28105",70522805,"R"
319738,"9712 CLYDESDALE ST","ROCKVILLE","MD",20854,39.0175497760001,-77.199017774,238,"9712 CLYDESDALE ST, ROCKVILLE, MD, 20854","Match","Exact","9712 CLYDESDALE ST, ROCKVILLE, MD, 20854",62053831,"L"
319739,"9712 KOPACHUCK DR NW","GIG HARBOR","WA",98335,47.321682793,-122.668680259,239,"9712 KOPACHUCK DR NW, GIG HARBOR, WA, 98335","Match","Exact","9712 KOPACHUCK DR NW, GIG HARBOR, WA, 98335",184616788,"L"
319740,"9712 MOODY CT","HARRISBURG","NC",28075,35.280778922,-80.653842174,240,"9712 MOODY CT, HARRISBURG, NC, 28075","Match","Exact","9712 MOODY CT, HARRISBURG, NC, 28075",24913452,"R"
319741,"9712 NW SAWYER COURT","PORTLAND","OR",97229,45.5398143,-122.77654931,241,"9712 NW SAWYER COURT, PORTLAND, OR, 97229","Match","Exact","9712 NW SAWYER CT, PORTLAND, OR, 97229",157552016,"R"
319742,"9712 S KEELER AVE","OAK LAWN","IL",60453,41.7161705450001,-87.726085126,242,"9712 S KEELER AVE, OAK LAWN, IL, 60453","Match","Exact","9712 KEELER AVE, OAK LAWN, IL, 60453",637498352,"R"
319743,"9712 SNOW VIEW DRIVE","EL CAJON","CA",92021,32.858166285,-116.846058013,243,"9712 SNOW VIEW DRIVE, EL CAJON, CA, 92021","Match","Exact","9712 SNOW VIEW DR, EL CAJON, CA, 92021",629814339,"L"
319744,"9712 WEST PLAINFIELD AVENUE","GREENFIELD","WI",53228,42.968626795,-88.034198123,244,"9712 WEST PLAINFIELD AVENUE, GREENFIELD, WI, 53228","Match","Exact","9712 W PLAINFIELD AVE, GREENFIELD, WI, 53228",77767853,"R"
319745,"9713 CHANSON PL","MATTHEWS","NC",28105,35.1507859910001,-80.7096982589999,245,"9713 CHANSON PL, MATTHEWS, NC, 28105","Match","Exact","9713 CHANSON PL, MATTHEWS, NC, 28105",618156881,"L"
319746,"9713 ESTATE THOMAS","ST THOMAS","VI",802,NA,NA,246,"9713 ESTATE THOMAS, ST THOMAS, VI, 802","No_Match",NA,NA,NA,NA
319747,"9713 HEDGER RD","LIVE OAK","CA",95953,39.2720379670001,-121.715458816,247,"9713 HEDGER RD, LIVE OAK, CA, 95953","Match","Exact","9713 HEDGER RD, LIVE OAK, CA, 95953",68570206,"R"
319748,"9713 MILANO DRIVE","TRINITY","FL",34655,28.1770655830001,-82.6521259039999,248,"9713 MILANO DRIVE, TRINITY, FL, 34655","Match","Exact","9713 MILANO DR, TRINITY, FL, 34655",640783442,"L"
319749,"9713 RD M","OTTAWA","OH",45875,40.992416615,-84.048373525,249,"9713 RD M, OTTAWA, OH, 45875","Match","Exact","9713 RD M, OTTAWA, OH, 45875",208941444,"R"
319750,"9713 S SANTA MONICA BLVD SUITE 202","BEVERLY HILLS","CA",90210,34.068386666,-118.407572106,250,"9713 S SANTA MONICA BLVD SUITE 202, BEVERLY HILLS, CA, 90210","Match","Exact","9713 SANTA MONICA BLVD, BEVERLY HILLS, CA, 90210",141571500,"R"
319751,"9713 SANTA MONICA BLVD SUITE 207","BEVERLY HILLS","CA",90210,34.068388874,-118.407568964,251,"9713 SANTA MONICA BLVD SUITE 207, BEVERLY HILLS, CA, 90210","Match","Exact","9713 SANTA MONICA BLVD, BEVERLY HILLS, CA, 90210",141571500,"R"
319752,"9713 STOWAWAY COVE","FORT WAYNE","IN",46835,41.1414014040001,-85.018721204,252,"9713 STOWAWAY COVE, FORT WAYNE, IN, 46835","Match","Exact","9713 STOWAWAY COVE, FORT WAYNE, IN, 46835",637979874,"L"
319753,"9713 TRAVER STREET","BOWIE","MD",20721,38.919901173,-76.8382278299999,253,"9713 TRAVER STREET, BOWIE, MD, 20721","Match","Exact","9713 TRAVER ST, BOWIE, MD, 20721",641559328,"L"
319754,"9713 TULSEMERE RD","RANDALLSTOWN","MD",21133,39.380731553,-76.817283429,254,"9713 TULSEMERE RD, RANDALLSTOWN, MD, 21133","Match","Exact","9713 TULSEMERE RD, RANDALLSTOWN, MD, 21133",191463158,"L"
319755,"9713 WOOD AVE","BIRMINGHAM","AL",35217,33.5958841030001,-86.737334496,255,"9713 WOOD AVE, BIRMINGHAM, AL, 35217","Match","Exact","9713 WOOD AVE, BIRMINGHAM, AL, 35217",81565668,"R"
319756,"9714 BASKET RING ROAD","COLUMBIA","MD",21045,39.2136077810001,-76.845785204,256,"9714 BASKET RING ROAD, COLUMBIA, MD, 21045","Match","Exact","9714 BASKET RING RD, COLUMBIA, MD, 21045",158928768,"L"
319757,"9714 DAISY MIST LANE","HOUSTON","TX",77038,29.9050186760001,-95.4254801069999,257,"9714 DAISY MIST LANE, HOUSTON, TX, 77038","Match","Exact","9714 DAISY MIST LN, HOUSTON, TX, 77038",96572726,"L"
319758,"9714 DE PAUL DRIVE","BETHESDA","MD",20817,39.015014437,-77.128898335,258,"9714 DE PAUL DRIVE, BETHESDA, MD, 20817","Match","Exact","9714 DE PAUL DR, BETHESDA, MD, 20817",62056616,"L"
319759,"9714 NW 127TH STREET","HIALEAH GARDENS","FL",33018,25.888786022,-80.3564548149999,259,"9714 NW 127TH STREET, HIALEAH GARDENS, FL, 33018","Match","Exact","9714 NW 127TH ST, HIALEAH GARDENS, FL, 33018",649967767,"L"
319760,"9714 S CHAPPEL","CHICAGO","IL",60617,41.7181498420001,-87.574032006,260,"9714 S CHAPPEL, CHICAGO, IL, 60617","Match","Non_Exact","9714 S CHAPPEL AVE, CHICAGO, IL, 60617",111777026,"R"
319761,"9714 SUNNYBROOK DR","MORENO VALLEY","CA",92557,33.979496082,-117.272028855,261,"9714 SUNNYBROOK DR, MORENO VALLEY, CA, 92557","Match","Exact","9714 SUNNYBROOK DR, MORENO VALLEY, CA, 92557",194820129,"R"
319762,"9714 TRENTMAN RD","FORT WAYNE","IN",46816,40.9962986570001,-85.075916138,262,"9714 TRENTMAN RD, FORT WAYNE, IN, 46816","Match","Exact","9714 TRENTMAN RD, FORT WAYNE, IN, 46816",6387188,"R"
319763,"9714 WALTER AVE","OAKLAND","CA",94603,37.737501453,-122.183228372,263,"9714 WALTER AVE, OAKLAND, CA, 94603","Match","Exact","9714 WALTER AVE, OAKLAND, CA, 94603",125009359,"L"
319764,"9714 WALTER AVENUE","OAKLAND","CA",94603,37.737501453,-122.183228372,264,"9714 WALTER AVENUE, OAKLAND, CA, 94603","Match","Exact","9714 WALTER AVE, OAKLAND, CA, 94603",125009359,"L"
319765,"9714 WEST 131ST TERRACE","OVERLAND PARK","KS",66213,38.8905679260001,-94.697910372,265,"9714 WEST 131ST TERRACE, OVERLAND PARK, KS, 66213","Match","Exact","9714 W 131ST TER, OVERLAND PARK, KS, 66213",91306874,"R"
319766,"9715 BROAD RUN ROAD","LOUISVILLE","KY",40299,38.1071019010001,-85.529609522,266,"9715 BROAD RUN ROAD, LOUISVILLE, KY, 40299","Match","Non_Exact","9715 BROAD RUN RD, LOUISVILLE, KY, 40291",642503427,"L"
319767,"9715 CHAPMANS BLVD","FORT WAYNE","IN",46835,41.159074063,-85.0204428169999,267,"9715 CHAPMANS BLVD, FORT WAYNE, IN, 46835","Match","Exact","9715 CHAPMANS BLVD, FORT WAYNE, IN, 46835",641168419,"L"
319768,"9715 CHERRY STREET","EDMONDS","WA",98020,47.825984573,-122.363419701,268,"9715 CHERRY STREET, EDMONDS, WA, 98020","Match","Exact","9715 CHERRY ST, EDMONDS, WA, 98020",187751560,"R"
319769,"9715 COTTAGE ST","PEARLAND","TX",77584,29.5692005110001,-95.3698169359999,269,"9715 COTTAGE ST, PEARLAND, TX, 77584","Match","Exact","9715 COTTAGE ST, PEARLAND, TX, 77584",116644589,"R"
319770,"9715 D  SAM FURR ROAD","HUNTERSVILLE","NC",28078,35.44209927,-80.863544942,270,"9715 D  SAM FURR ROAD, HUNTERSVILLE, NC, 28078","Match","Exact","9715 SAM FURR RD, HUNTERSVILLE, NC, 28078",70523362,"R"
319771,"9715 DEER SPRING LANE","CHARLOTTE","NC",28210,35.1009461140001,-80.854752817,271,"9715 DEER SPRING LANE, CHARLOTTE, NC, 28210","Match","Exact","9715 DEER SPRING LN, CHARLOTTE, NC, 28210",70512560,"L"
319772,"9715 ESTATE THOMAS 36","ST","VI",802,NA,NA,272,"9715 ESTATE THOMAS 36, ST, VI, 802","No_Match",NA,NA,NA,NA
319773,"9715 ESTATE THOMAS PMB 165","ST THOMAS","VI",802,NA,NA,273,"9715 ESTATE THOMAS PMB 165, ST THOMAS, VI, 802","No_Match",NA,NA,NA,NA
319774,"9715 MULBERRY RD","CALHAN","CO",80808,38.9721498700001,-104.20203611,274,"9715 MULBERRY RD, CALHAN, CO, 80808","Match","Exact","9715 MULBERRY RD, CALHAN, CO, 80808",610689542,"R"
319775,"9715 NE TENNY CREEK DR","VANCOUVER","WA",98665,45.6918660000001,-122.651682402,275,"9715 NE TENNY CREEK DR, VANCOUVER, WA, 98665","Match","Exact","9715 NE TENNY CREEK DR, VANCOUVER, WA, 98665",158369734,"R"
319776,"9715 NORTH BENTSEN ROAD","MCALENL","TX",78504,26.295973395,-98.254638848,276,"9715 NORTH BENTSEN ROAD, MCALENL, TX, 78504","Match","Non_Exact","9715 N BENTSEN RD, MCALLEN, TX, 78504",71535805,"L"
319777,"9715 OLIVE STREET","OAKLAND","CA",94603,37.7480366200001,-122.164489917,277,"9715 OLIVE STREET, OAKLAND, CA, 94603","Match","Exact","9715 OLIVE ST, OAKLAND, CA, 94603",125009634,"R"
319778,"9715 S 54TH AVENUE","CHICAGO","IL",60453,41.7155223560001,-87.7553390689999,278,"9715 S 54TH AVENUE, CHICAGO, IL, 60453","Match","Non_Exact","9715 54TH AVE, OAK LAWN, IL, 60453",605444366,"L"
319779,"9715 VILLAGE LANE UNIT 5","OCEAN CITY","MD",21842,38.3338363930001,-75.1196870429999,279,"9715 VILLAGE LANE UNIT 5, OCEAN CITY, MD, 21842","Match","Exact","9715 VILLAGE LN, OCEAN CITY, MD, 21842",646659301,"L"
319780,"9715 W SAMPLE ROAD","CORAL SPRINGS","FL",33065,26.2725363380001,-80.255990187,280,"9715 W SAMPLE ROAD, CORAL SPRINGS, FL, 33065","Match","Non_Exact","9715 W SAMPLE RD, CORAL SPRINGS, FL, 33065",638638087,"R"
319781,"9716 25TH AVENUE","EAST ELMHURST","NY",11369,NA,NA,281,"9716 25TH AVENUE, EAST ELMHURST, NY, 11369","No_Match",NA,NA,NA,NA
319782,"9716 B REA ROAD NUMBER 144","CHARLOTTE","NC",28277,35.035983716,-80.80485276,282,"9716 B REA ROAD NUMBER 144, CHARLOTTE, NC, 28277","Match","Exact","9716 REA RD, CHARLOTTE, NC, 28277",70568285,"R"
319783,"9716 BLUFFCREEK","DALLAS","TX",75227,32.753394852,-96.6548236689999,283,"9716 BLUFFCREEK, DALLAS, TX, 75227","Match","Non_Exact","9716 BLUFFCREEK DR, DALLAS, TX, 75227",103197339,"R"
319784,"9716 COMMONS EAST DR APT G","CHARLOTTE","NC",28277,35.0534904200001,-80.8409495449999,284,"9716 COMMONS EAST DR APT G, CHARLOTTE, NC, 28277","Match","Exact","9716 COMMONS EAST DR, CHARLOTTE, NC, 28277",70539966,"L"
319785,"9716 DEVONSHIRE BLVD","JACKSONVILLE","FL",32208,30.412785075,-81.7309940649999,285,"9716 DEVONSHIRE BLVD, JACKSONVILLE, FL, 32208","Match","Exact","9716 DEVONSHIRE BLVD, JACKSONVILLE, FL, 32208",83886493,"L"
319786,"9716 E COUNTY LINE ROAD 1600 NORTH","SUNMAN","IN",47041,39.3100081000001,-85.0828928509999,286,"9716 E COUNTY LINE ROAD 1600 NORTH, SUNMAN, IN, 47041","Match","Exact","9716 COUNTY LINE RD, SUNMAN, IN, 47041",31519741,"L"
319787,"9716 JOAN CENTER","ORANGE","TX",77630,30.0659475950001,-93.913125688,287,"9716 JOAN CENTER, ORANGE, TX, 77630","Match","Non_Exact","9716 JOAN CIR, ORANGE, TX, 77630",627638122,"R"
319788,"9716 LIMESTONE COURT","JOSHUA","TX",76058,32.522924603,-97.496214325,288,"9716 LIMESTONE COURT, JOSHUA, TX, 76058","Match","Exact","9716 LIMESTONE CT, JOSHUA, TX, 76058",103556807,"L"
319789,"9716 REA RD SUITE B-517","CHARLOTTE","NC",28277,35.0359881520001,-80.8048527399999,289,"9716 REA RD SUITE B-517, CHARLOTTE, NC, 28277","Match","Exact","9716 REA RD, CHARLOTTE, NC, 28277",70568285,"R"
319790,"9716 REA ROAD STE B 1196","CHARLOTTE","NC",28277,35.0359881520001,-80.8048527399999,290,"9716 REA ROAD STE B 1196, CHARLOTTE, NC, 28277","Match","Exact","9716 REA RD, CHARLOTTE, NC, 28277",70568285,"R"
319791,"9716 READ RD-B UNIT 213","CHARLOTTE","NC",28277,NA,NA,291,"9716 READ RD-B UNIT 213, CHARLOTTE, NC, 28277","No_Match",NA,NA,NA,NA
319792,"9716 RED PONY LANE","EL CAJON","CA",92021,32.856058347,-116.867687734,292,"9716 RED PONY LANE, EL CAJON, CA, 92021","Match","Exact","9716 RED PONY LN, EL CAJON, CA, 92021",195334448,"L"
319793,"9716 REDD RAMBLER DRIVE","PHILADELPHIA","PA",19115,40.0952721560001,-75.0428510849999,293,"9716 REDD RAMBLER DRIVE, PHILADELPHIA, PA, 19115","Match","Exact","9716 REDD RAMBLER DR, PHILADELPHIA, PA, 19115",131430441,"L"
319794,"9716 S VIRGINIA STREET","RENO","NV",89511,39.441983887,-119.771579307,294,"9716 S VIRGINIA STREET, RENO, NV, 89511","Match","Non_Exact","9716 SOUTH VIRGINIA ST, RENO, NV, 89511",107103563,"L"
319795,"9716 SOUTH 500 WEST","SANDY","UT",84070,40.5768123180001,-111.90548434,295,"9716 SOUTH 500 WEST, SANDY, UT, 84070","Match","Exact","9716 S 500 W, SANDY, UT, 84070",649181262,"R"
319796,"9716 STACY LN","UNION","IL",60180,42.1875343560001,-88.502582791,296,"9716 STACY LN, UNION, IL, 60180","Match","Exact","9716 STACY LN, UNION, IL, 60180",119813415,"R"
319797,"9716 WYLAND COURT","WINDERMERE","FL",34786,28.4590481270001,-81.5342245159999,297,"9716 WYLAND COURT, WINDERMERE, FL, 34786","Match","Exact","9716 WYLAND CT, WINDERMERE, FL, 34786",94378640,"R"
319798,"9716-B REA ROAD NUM 133","CHARLOTTE","NC",28277,35.0359881520001,-80.8048527399999,298,"9716-B REA ROAD NUM 133, CHARLOTTE, NC, 28277","Match","Exact","9716 REA RD, CHARLOTTE, NC, 28277",70568285,"R"
319799,"9716B REA ROAD NUM133","CHARLOTTE","NC",28277,35.035983716,-80.80485276,299,"9716B REA ROAD NUM133, CHARLOTTE, NC, 28277","Match","Exact","9716 REA RD, CHARLOTTE, NC, 28277",70568285,"R"
319800,"9717 CINCH RING LN","RANCHO CUCAMONGA","CA",91737,34.15684915,-117.592669366,300,"9717 CINCH RING LN, RANCHO CUCAMONGA, CA, 91737","Match","Exact","9717 CINCH RING LN, RANCHO CUCAMONGA, CA, 91737",144634689,"R"
319801,"9717 CYPRESSWOOD DR APT 1522","HOUSTON","TX",77070,NA,NA,301,"9717 CYPRESSWOOD DR APT 1522, HOUSTON, TX, 77070","No_Match",NA,NA,NA,NA
319802,"9717 QUEEN ROAD","BLOOMINGTON","MN",55431,44.8280438300001,-93.310402661,302,"9717 QUEEN ROAD, BLOOMINGTON, MN, 55431","Match","Exact","9717 QUEEN RD, BLOOMINGTON, MN, 55431",43812970,"L"
319803,"9717 TUJUNGA CYN BLVD","TUJUNGA","CA",91042,34.2446764600001,-118.275808474,303,"9717 TUJUNGA CYN BLVD, TUJUNGA, CA, 91042","Match","Exact","9717 TUJUNGA CANYON BLVD, TUJUNGA, CA, 91042",640414202,"L"
319804,"9717 W 34TH LN","HIALEAH","FL",33018,25.911040185,-80.354339915,304,"9717 W 34TH LN, HIALEAH, FL, 33018","Match","Non_Exact","9717 W 34TH LN, HIALEAH, FL, 33018",648360223,"R"
319805,"9718 CANE CREEK DRIVE","HOUSTON","TX",77070,30.0009986110001,-95.572786459,305,"9718 CANE CREEK DRIVE, HOUSTON, TX, 77070","Match","Exact","9718 CANE CREEK DR, HOUSTON, TX, 77070",96117639,"L"
319806,"9718 S 92ND E AVE","TULSA","OK",74133,36.022454522,-95.873571093,306,"9718 S 92ND E AVE, TULSA, OK, 74133","Match","Exact","9718 S 92ND EAST AVE, TULSA, OK, 74133",166510256,"R"
319807,"9718 SOUTH 79TH","LINCOLN","NE",68516,40.714791484,-96.612650349,307,"9718 SOUTH 79TH, LINCOLN, NE, 68516","Match","Non_Exact","9718 S 79TH ST, LINCOLN, NE, 68516",646639344,"L"
319808,"9718 YEAKEL AVENUE","CLEVELAND","OH",44104,41.4856988390001,-81.617990713,308,"9718 YEAKEL AVENUE, CLEVELAND, OH, 44104","Match","Exact","9718 YEAKEL AVE, CLEVELAND, OH, 44104",61114922,"R"
319809,"9719 AMBERWOOD CT","LOVELAND","OH",45140,39.2927381810001,-84.2726522299999,309,"9719 AMBERWOOD CT, LOVELAND, OH, 45140","Match","Exact","9719 AMBERWOOD CT, LOVELAND, OH, 45140",159035295,"L"
319810,"9719 BRACKET COURT","HOUSTON","TX",77065,29.916331327,-95.608413823,310,"9719 BRACKET COURT, HOUSTON, TX, 77065","Match","Exact","9719 BRACKET CT, HOUSTON, TX, 77065",96227742,"R"
319811,"9719 E 75TH STREET APT 624","TULSA","OK",74133,36.05679651,-95.8661461619999,311,"9719 E 75TH STREET APT 624, TULSA, OK, 74133","Match","Non_Exact","9719 E 75TH ST, TULSA, OK, 74133",642917321,"R"
319812,"9719 HARROWGATE DR","HOUSTON","TX",77031,29.6439073390001,-95.551023731,312,"9719 HARROWGATE DR, HOUSTON, TX, 77031","Match","Exact","9719 HARROWGATE DR, HOUSTON, TX, 77031",96036795,"L"
319813,"9719 HIGHWAY 62","WOLFFORTH","TX",79382,NA,NA,313,"9719 HIGHWAY 62, WOLFFORTH, TX, 79382","No_Match",NA,NA,NA,NA
319814,"9719 INKWOOD DR","FREDERICKSBURG","VA",22407,38.2200720550001,-77.52080912,314,"9719 INKWOOD DR, FREDERICKSBURG, VA, 22407","Match","Exact","9719 INKWOOD DR, FREDERICKSBURG, VA, 22407",635816410,"L"
319815,"9719 LUGUNA RD","MIDDLE RIVER","MD",21220,39.3445547740001,-76.4488209359999,315,"9719 LUGUNA RD, MIDDLE RIVER, MD, 21220","Match","Exact","9719 LUGUNA RD, MIDDLE RIVER, MD, 21220",627051195,"R"
319816,"9719 S LAWNDALE AVE","EVERGREEN PARK","IL",60805,41.7164956570001,-87.713894823,316,"9719 S LAWNDALE AVE, EVERGREEN PARK, IL, 60805","Match","Exact","9719 LAWNDALE AVE, EVERGREEN PARK, IL, 60805",111818752,"L"
319817,"9719 STREAMBROOK DRIVE","CINCINNATI","OH",45231,39.2439715580001,-84.5097640559999,317,"9719 STREAMBROOK DRIVE, CINCINNATI, OH, 45231","Match","Exact","9719 STREAMBROOK DR, CINCINNATI, OH, 45231",103920170,"L"
319818,"972 60TH STREET","OAKLAND","CA",94608,37.84378687,-122.278372333,318,"972 60TH STREET, OAKLAND, CA, 94608","Match","Exact","972 60TH ST, OAKLAND, CA, 94608",635727077,"R"
319819,"972 AUTUMN CIRCLE","EAGAN","MN",55123,NA,NA,319,"972 AUTUMN CIRCLE, EAGAN, MN, 55123","No_Match",NA,NA,NA,NA
319820,"972 BRIDGE RD","SAN LEANDRO","CA",94577,37.7300171570001,-122.140412189,320,"972 BRIDGE RD, SAN LEANDRO, CA, 94577","Match","Exact","972 BRIDGE RD, SAN LEANDRO, CA, 94577",125012394,"L"
319821,"972 DARBY ROAD","CHESTER","SC",29706,34.7683051130001,-81.1864018429999,321,"972 DARBY ROAD, CHESTER, SC, 29706","Match","Exact","972 DARBY RD, CHESTER, SC, 29706",40569872,"R"
319822,"972 EAGLESNEST DR","CORONA","CA",92879,33.897157174,-117.543757926,322,"972 EAGLESNEST DR, CORONA, CA, 92879","Match","Exact","972 EAGLESNEST DR, CORONA, CA, 92879",194871639,"R"
319823,"972 EUCLID AVENUE","BERKELEY","CA",94708,37.892850765,-122.264989989,323,"972 EUCLID AVENUE, BERKELEY, CA, 94708","Match","Exact","972 EUCLID AVE, BERKELEY, CA, 94708",124997960,"R"
319824,"972 FM 1365","MEXIA","TX",76667,31.6633516140001,-96.44316749,324,"972 FM 1365, MEXIA, TX, 76667","Match","Exact","972 FM 1365, MEXIA, TX, 76667",25049996,"L"
319825,"972 FRESNO STREET","LINDSAY","CA",93247,36.208684056,-119.102804169,325,"972 FRESNO STREET, LINDSAY, CA, 93247","Match","Exact","972 FRESNO ST, LINDSAY, CA, 93247",651106597,"L"
319826,"972 GAYLON WAY","GALT","CA",95632,38.243856717,-121.304157169,326,"972 GAYLON WAY, GALT, CA, 95632","Match","Exact","972 GAYLON WAY, GALT, CA, 95632",133387679,"R"
319827,"972 MOUNT STIRLING AVE","APOPKA","FL",32712,NA,NA,327,"972 MOUNT STIRLING AVE, APOPKA, FL, 32712","No_Match",NA,NA,NA,NA
319828,"972 NORFOLK SQUARE","NORFOLK","VA",23502,36.853394644,-76.2351412099999,328,"972 NORFOLK SQUARE, NORFOLK, VA, 23502","Match","Exact","972 NORFOLK SQ, NORFOLK, VA, 23502",122143105,"R"
319829,"972 OAKMONT LANE","PROVO","UT",84604,40.246875775,-111.632833924,329,"972 OAKMONT LANE, PROVO, UT, 84604","Match","Exact","972 OAKMONT LN, PROVO, UT, 84604",134292290,"R"
319830,"972 PATRIOT SQUARE","CENTERVILLE","OH",45459,39.6319114550001,-84.1852115999999,330,"972 PATRIOT SQUARE, CENTERVILLE, OH, 45459","Match","Exact","972 PATRIOT SQ, CENTERVILLE, OH, 45459",642837058,"L"
319831,"972 POPPY HILLS DRIVE","BLACKLICK","OH",43004,40.0054872970001,-82.8209177589999,331,"972 POPPY HILLS DRIVE, BLACKLICK, OH, 43004","Match","Exact","972 POPPY HILLS DR, BLACKLICK, OH, 43004",218682275,"L"
319832,"972 STONY POINT RD","EAGAN","MN",55123,44.818390316,-93.1387659549999,332,"972 STONY POINT RD, EAGAN, MN, 55123","Match","Exact","972 STONY POINT RD, EAGAN, MN, 55123",37922347,"R"
319833,"972 W ATHERTON AVE","SALT LAKE CITY","UT",84123,40.6706435610001,-111.919852261,333,"972 W ATHERTON AVE, SALT LAKE CITY, UT, 84123","Match","Non_Exact","972 ATHERTON DR, SALT LAKE CITY, UT, 84123",176110278,"R"
319834,"972 W BROADWAY AVE","MERIDIAN","ID",83642,43.6097114740001,-116.405913688,334,"972 W BROADWAY AVE, MERIDIAN, ID, 83642","Match","Exact","972 W BROADWAY AVE, MERIDIAN, ID, 83642",117930039,"R"
319835,"972 WEST POINT RD","LAWRENCEBURG","TN",38464,35.219068027,-87.4056307229999,335,"972 WEST POINT RD, LAWRENCEBURG, TN, 38464","Match","Exact","972 W POINT RD, LAWRENCEBURG, TN, 38464",636661504,"R"
319836,"972 WESTERN AVENUE","BRATTLEBORO","VT",5301,42.854413046,-72.6010153349999,336,"972 WESTERN AVENUE, BRATTLEBORO, VT, 5301","Match","Exact","972 WESTERN AVE, BRATTLEBORO, VT, 05301",171080261,"L"
319837,"972 WOODRUFF PLACE MIDDLE DRIVE","INDIANAPOLIS","IN",46201,NA,NA,337,"972 WOODRUFF PLACE MIDDLE DRIVE, INDIANAPOLIS, IN, 46201","No_Match",NA,NA,NA,NA
319838,"9720 BRILLIANT LANE","ALTA LOMA","CA",91737,34.149865364,-117.592302212,338,"9720 BRILLIANT LANE, ALTA LOMA, CA, 91737","Match","Exact","9720 BRILLIANT LN, RANCHO CUCAMONGA, CA, 91737",144708607,"L"
319839,"9720 CAPITAL COURT","MANASSAS","VA",20110,38.739477917,-77.520650883,339,"9720 CAPITAL COURT, MANASSAS, VA, 20110","Match","Non_Exact","9720 CAPITOL CT, MANASSAS, VA, 20110",76535734,"L"
319840,"9720 COIT RD STE 220-345","PLANO","TX",75025,33.109464082,-96.768061927,340,"9720 COIT RD STE 220-345, PLANO, TX, 75025","Match","Exact","9720 COIT RD, PLANO, TX, 75025",210496761,"L"
319841,"9720 COIT RD SUITE 220","PLANO","TX",75025,33.109464082,-96.768061927,341,"9720 COIT RD SUITE 220, PLANO, TX, 75025","Match","Exact","9720 COIT RD, PLANO, TX, 75025",210496761,"L"
319842,"9720 COIT ROAD 220 211","PLANO","TX",75025,33.109464082,-96.768061927,342,"9720 COIT ROAD 220 211, PLANO, TX, 75025","Match","Exact","9720 COIT RD, PLANO, TX, 75025",210496761,"L"
319843,"9720 CYPRESSWOOD DR SUITE 238","HOUSTON","TX",77070,29.9892005840001,-95.553606749,343,"9720 CYPRESSWOOD DR SUITE 238, HOUSTON, TX, 77070","Match","Exact","9720 CYPRESSWOOD DR, HOUSTON, TX, 77070",637600508,"L"
319844,"9720 CYPRESSWOOD DRIVE SUITE 130","HOUSTON","TX",77070,29.9892005840001,-95.553606749,344,"9720 CYPRESSWOOD DRIVE SUITE 130, HOUSTON, TX, 77070","Match","Exact","9720 CYPRESSWOOD DR, HOUSTON, TX, 77070",637600508,"L"
319845,"9720 FOSTER AVE","BROOKLYN","NY",11236,40.6485949510001,-73.905278798,345,"9720 FOSTER AVE, BROOKLYN, NY, 11236","Match","Exact","9720 FOSTER AVE, BROOKLYN, NY, 11236",59086596,"R"
319846,"9720 FOSTER AVENUE","BROOKLYN","NY",11236,40.6485949510001,-73.905278798,346,"9720 FOSTER AVENUE, BROOKLYN, NY, 11236","Match","Exact","9720 FOSTER AVE, BROOKLYN, NY, 11236",59086596,"R"
319847,"9720 KINSMAN PYMATUNING ROAD","KINSMAN","OH",44428,41.488847741,-80.549742017,347,"9720 KINSMAN PYMATUNING ROAD, KINSMAN, OH, 44428","Match","Exact","9720 KINSMAN PYMATUNING RD, KINSMAN, OH, 44428",117411832,"R"
319848,"9720 WHITEFORD ROAD","OTTAWA LAKE","MI",49267,41.789027574,-83.667740678,348,"9720 WHITEFORD ROAD, OTTAWA LAKE, MI, 49267","Match","Exact","9720 WHITEFORD RD, OTTAWA LAKE, MI, 49267",40482772,"L"
319849,"9720 WINDBURN DRIVE","PLANO","TX",75025,33.109608232,-96.755939423,349,"9720 WINDBURN DRIVE, PLANO, TX, 75025","Match","Exact","9720 WINDBURN DR, PLANO, TX, 75025",123567338,"R"
319850,"9721 FOX HURST CT","BLAINE","WA",98230,48.994547191,-122.611719689,350,"9721 FOX HURST CT, BLAINE, WA, 98230","Match","Non_Exact","9721 FOXHURST CT, BLAINE, WA, 98230",624057963,"L"
319851,"9721 SOUTH 212 STREET","KENT","WA",98031,47.4125676350001,-122.211213795,351,"9721 SOUTH 212 STREET, KENT, WA, 98031","Match","Exact","9721 S 212TH ST, KENT, WA, 98031",186633336,"R"
319852,"9721 SW 12TH STREET","PEMBROKE PINES","FL",33025,25.9982391630001,-80.27418445,352,"9721 SW 12TH STREET, PEMBROKE PINES, FL, 33025","Match","Exact","9721 SW 12TH ST, PEMBROKE PINES, FL, 33025",114770200,"R"
319853,"9722 E 400 N","IDAVILLE","IN",47950,40.810403567,-86.683003334,353,"9722 E 400 N, IDAVILLE, IN, 47950","Match","Exact","9722 E 400 N, IDAVILLE, IN, 47950",27364568,"L"
319854,"9722 GASTON RD SUITE 150-101","KATY","TX",77494,NA,NA,354,"9722 GASTON RD SUITE 150-101, KATY, TX, 77494","No_Match",NA,NA,NA,NA
319855,"9722 GROFFS MILL DRIVE SUITE 760","OWINGS MILLS","MD",21117,NA,NA,355,"9722 GROFFS MILL DRIVE SUITE 760, OWINGS MILLS, MD, 21117","No_Match",NA,NA,NA,NA
319856,"9722 GROFFS MILLS DRIVE SUITE 542","OWINGS MILLS","MD",21117,NA,NA,356,"9722 GROFFS MILLS DRIVE SUITE 542, OWINGS MILLS, MD, 21117","No_Match",NA,NA,NA,NA
319857,"9722 HIDDEN SWAN","SAN ANTONIO","TX",78250,29.49681529,-98.692752899,357,"9722 HIDDEN SWAN, SAN ANTONIO, TX, 78250","Match","Exact","9722 HIDDEN SWAN, SAN ANTONIO, TX, 78250",101488517,"R"
319858,"9722 HILLSPRING DRIVE","HUNTERSVILLE","NC",28078,35.405847458,-80.7702805929999,358,"9722 HILLSPRING DRIVE, HUNTERSVILLE, NC, 28078","Match","Exact","9722 HILLSPRING DR, HUNTERSVILLE, NC, 28078",70551714,"L"
319859,"9723 CHARTER RIDGE DR","HOUSTON","TX",77070,30.006207003,-95.5722403999999,359,"9723 CHARTER RIDGE DR, HOUSTON, TX, 77070","Match","Exact","9723 CHARTER RIDGE DR, HOUSTON, TX, 77070",96003214,"R"
319860,"9723 DAKOTA BAY","CONVERSE","TX",78109,29.5243688200001,-98.301775243,360,"9723 DAKOTA BAY, CONVERSE, TX, 78109","Match","Exact","9723 DAKOTA BAY, CONVERSE, TX, 78109",613779822,"L"
319861,"9723 HOMESTEAD","HOUSTON","TX",77016,29.851693831,-95.300551981,361,"9723 HOMESTEAD, HOUSTON, TX, 77016","Match","Non_Exact","9723 HOMESTEAD RD, HOUSTON, TX, 77016",96644265,"L"
319862,"9723 LUGUNA RD","MIDDLE RIVER","MD",21220,39.344557255,-76.448801641,362,"9723 LUGUNA RD, MIDDLE RIVER, MD, 21220","Match","Exact","9723 LUGUNA RD, MIDDLE RIVER, MD, 21220",627051195,"R"
319863,"9723 SHIVE DR","HOUSTON","TX",77078,29.8539418990001,-95.248145323,363,"9723 SHIVE DR, HOUSTON, TX, 77078","Match","Exact","9723 SHIVE DR, HOUSTON, TX, 77078",233478249,"R"
319864,"9724 BRENDEN DRIVE","FORT WORTH","TX",76108,32.7598289250001,-97.484729054,364,"9724 BRENDEN DRIVE, FORT WORTH, TX, 76108","Match","Exact","9724 BRENDEN DR, FORT WORTH, TX, 76108",637603334,"R"
319865,"9724 IRIS ST","WESTMINSTER","CO",80021,39.873364456,-105.104498241,365,"9724 IRIS ST, WESTMINSTER, CO, 80021","Match","Exact","9724 IRIS ST, WESTMINSTER, CO, 80021",177282070,"R"
319866,"9724 PINECREST DRIVE","SUN CITY","AZ",85351,33.632896509,-112.269424426,366,"9724 PINECREST DRIVE, SUN CITY, AZ, 85351","Match","Non_Exact","9724 W PINECREST DR, SUN CITY, AZ, 85351",128164571,"R"
319867,"9724 W WASHINGTON BLVD","CULVER CITY","CA",90232,34.0225137940001,-118.39584558,367,"9724 W WASHINGTON BLVD, CULVER CITY, CA, 90232","Match","Exact","9724 WASHINGTON BLVD, CULVER CITY, CA, 90232",241110331,"R"
319868,"9725  E LIBERTY RD","VILLA  RICA","GA",30180,33.7026839960001,-84.893226241,368,"9725  E LIBERTY RD, VILLA  RICA, GA, 30180","Match","Exact","9725 E LIBERTY RD, VILLA RICA, GA, 30180",16661844,"R"
319869,"9725 CADMAN COURT","CORNELIUS","NC",28031,35.4622005430001,-80.863337528,369,"9725 CADMAN COURT, CORNELIUS, NC, 28031","Match","Exact","9725 CADMAN CT, CORNELIUS, NC, 28031",70552026,"L"
319870,"9725 CHESHIRE RD","SUNBURY","OH",43074,40.2510031410001,-82.886653947,370,"9725 CHESHIRE RD, SUNBURY, OH, 43074","Match","Exact","9725 CHESHIRE RD, SUNBURY, OH, 43074",24609253,"L"
319871,"9725 E NARANJA AVE","MESA","AZ",85209,33.3651594040001,-111.62462629,371,"9725 E NARANJA AVE, MESA, AZ, 85209","Match","Exact","9725 E NARANJA AVE, MESA, AZ, 85209",128816460,"R"
319872,"9725 FRANKSTOWN ROAD","PITTSBURGH","PA",15235,40.4623734300001,-79.857894533,372,"9725 FRANKSTOWN ROAD, PITTSBURGH, PA, 15235","Match","Exact","9725 FRANKSTOWN RD, PITTSBURGH, PA, 15235",51666730,"L"
319873,"9725 NW 52ND ST APT 202","DORAL","FL",33178,25.8208371110001,-80.3543535059999,373,"9725 NW 52ND ST APT 202, DORAL, FL, 33178","Match","Non_Exact","9725 NW 52ND ST, DORAL, FL, 33178",115955467,"L"
319874,"9725 S 8TH AVE","INGLEWOOD","CA",90305,33.947527934,-118.325380698,374,"9725 S 8TH AVE, INGLEWOOD, CA, 90305","Match","Exact","9725 S 8TH AVE, INGLEWOOD, CA, 90305",141655656,"R"
319875,"9725 S PULASKI RD 1C","EVERGREEN PARK","IL",60805,41.716291514,-87.721215794,375,"9725 S PULASKI RD 1C, EVERGREEN PARK, IL, 60805","Match","Non_Exact","9725 S PULASKI RD, EVERGREEN PARK, IL, 60805",111818572,"L"
319876,"9725 S RIDGEWAY AVE","EVERGREEN PARK","IL",60805,41.7163799310001,-87.7151136849999,376,"9725 S RIDGEWAY AVE, EVERGREEN PARK, IL, 60805","Match","Exact","9725 RIDGEWAY AVE, EVERGREEN PARK, IL, 60805",111818750,"L"
319877,"9725 SOUTH TACOMA WAY","LAKEWOOD","WA",98499,47.1690337570001,-122.483649814,377,"9725 SOUTH TACOMA WAY, LAKEWOOD, WA, 98499","Match","Exact","9725 S TACOMA WAY, LAKEWOOD, WA, 98499",184700141,"L"
319878,"9725 TAYLORS CROSSING COURT","GLEN ALLEN","VA",23059,37.6633832910001,-77.454820141,378,"9725 TAYLORS CROSSING COURT, GLEN ALLEN, VA, 23059","Match","Exact","9725 TAYLORS CROSSING CT, GLEN ALLEN, VA, 23059",106667997,"R"
319879,"9725 WEATHERING COURT","ZEBULON","NC",27597,35.8760384560001,-78.307301912,379,"9725 WEATHERING COURT, ZEBULON, NC, 27597","Match","Exact","9725 WEATHERING CT, ZEBULON, NC, 27597",72609769,"L"
319880,"9725 WILLOW ROAD","CLINTON","MI",49236,42.1092493840001,-83.9178956009999,380,"9725 WILLOW ROAD, CLINTON, MI, 49236","Match","Exact","9725 WILLOW RD, CLINTON, MI, 49236",26018588,"L"
319881,"972592","MIAMI","FL",33197,NA,NA,381,"972592, MIAMI, FL, 33197","No_Match",NA,NA,NA,NA
319882,"9726 80TH STREET","OZONE PARK","NY",11416,NA,NA,382,"9726 80TH STREET, OZONE PARK, NY, 11416","No_Match",NA,NA,NA,NA
319883,"9726 CRESTWATER CIR","MAGNOLIA","TX",77354,30.214298195,-95.625527312,383,"9726 CRESTWATER CIR, MAGNOLIA, TX, 77354","Match","Exact","9726 CRESTWATER CIR, MAGNOLIA, TX, 77354",79329407,"L"
319884,"9726 E MOUNTAIN SPRING ROAD","SCOTTSDALE","AZ",85255,33.6700279570001,-111.878620633,384,"9726 E MOUNTAIN SPRING ROAD, SCOTTSDALE, AZ, 85255","Match","Exact","9726 E MOUNTAIN SPRINGS RD, SCOTTSDALE, AZ, 85255",128599764,"R"
319885,"9726 KINGSTON TRAIL","OLMSTED TOWNSHIP","OH",44138,41.3529382780001,-81.9434606359999,385,"9726 KINGSTON TRAIL, OLMSTED TOWNSHIP, OH, 44138","Match","Exact","9726 KINGSTON TRL, OLMSTED TWP, OH, 44138",617273542,"R"
319886,"9726 LAKEVIEW RD","EDMOND","OK",73025,35.756096772,-97.488443133,386,"9726 LAKEVIEW RD, EDMOND, OK, 73025","Match","Non_Exact","9726 LAKEVIEW, EDMOND, OK, 73025",121975272,"R"
319887,"9726 LONDOLYN BLUFF","TRAVERSE CITY","MI",49686,44.8280314880001,-85.55080365,387,"9726 LONDOLYN BLUFF, TRAVERSE CITY, MI, 49686","Match","Exact","9726 LONDOLYN BLUFF, TRAVERSE CITY, MI, 49686",145526281,"R"
319888,"9726 N MEGAN CT","PEORIA","IL",61615,40.8065396060001,-89.6368325029999,388,"9726 N MEGAN CT, PEORIA, IL, 61615","Match","Exact","9726 N MEGAN CT, PEORIA, IL, 61615",617272686,"R"
319889,"9726 ORCHID BREEZE LANE","SUGARLAND","TX",77498,29.6730254780001,-95.627323588,389,"9726 ORCHID BREEZE LANE, SUGARLAND, TX, 77498","Match","Non_Exact","9726 ORCHID BREEZE LN, SUGAR LAND, TX, 77498",641088459,"R"
319890,"9726 PLOWLINE ROAD","RANDALLSTOWN","MD",21133,39.3699045860001,-76.8251149339999,390,"9726 PLOWLINE ROAD, RANDALLSTOWN, MD, 21133","Match","Exact","9726 PLOWLINE RD, RANDALLSTOWN, MD, 21133",191463342,"R"
319891,"9726 W CORONADO DR","BATON ROUGE","LA",70815,30.4675185410001,-91.078937136,391,"9726 W CORONADO DR, BATON ROUGE, LA, 70815","Match","Exact","9726 W CORONADO DR, BATON ROUGE, LA, 70815",92190301,"R"
319892,"9726 ZAMORA AVE",NA,"CA",90002,33.9484757000001,-118.251144414,392,"9726 ZAMORA AVE, , CA, 90002","Match","Exact","9726 ZAMORA AVE, LOS ANGELES, CA, 90002",141671475,"L"
319893,"9727 BUSINESS PARK DRIVE SUITE E","SACRAMENTO","CA",95827,38.5695608720001,-121.332101955,393,"9727 BUSINESS PARK DRIVE SUITE E, SACRAMENTO, CA, 95827","Match","Non_Exact","9727 BUS PARK DR, SACRAMENTO, CA, 95827",133347587,"L"
319894,"9727 CAYENNE DRIVE","CHARLOTTE","NC",28214,35.3138668770001,-80.9591371879999,394,"9727 CAYENNE DRIVE, CHARLOTTE, NC, 28214","Match","Exact","9727 CAYENNE DR, CHARLOTTE, NC, 28214",635657168,"R"
319895,"9727 STANLEY AVE","SAINT LOUIS","MO",63119,38.6093241240001,-90.3695536289999,395,"9727 STANLEY AVE, SAINT LOUIS, MO, 63119","Match","Exact","9727 STANLEY AVE, SAINT LOUIS, MO, 63119",100165858,"R"
319896,"9727 W TANGLEWOOD DR","BOISE","ID",83709,43.5326296330001,-116.303050685,396,"9727 W TANGLEWOOD DR, BOISE, ID, 83709","Match","Exact","9727 W TANGLEWOOD DR, BOISE, ID, 83709",617932642,"L"
319897,"9727 ZIMBRO AVE","MANASSAS","VA",20110,38.7557047010001,-77.488137201,397,"9727 ZIMBRO AVE, MANASSAS, VA, 20110","Match","Exact","9727 ZIMBRO AVE, MANASSAS, VA, 20110",76505195,"L"
319898,"9728 E MCNELLY RD","BENTONVILLE","AR",72712,36.4549669200001,-94.164410736,398,"9728 E MCNELLY RD, BENTONVILLE, AR, 72712","Match","Exact","9728 E MCNELLY RD, BENTONVILLE, AR, 72712",47823386,"L"
319899,"9728 FAIRES FARM ROAD","CHARLOTTE","NC",28213,35.2977549550001,-80.720602969,399,"9728 FAIRES FARM ROAD, CHARLOTTE, NC, 28213","Match","Exact","9728 FAIRES FARM RD, CHARLOTTE, NC, 28213",647269910,"R"
319900,"9728 PINTAIL CT","DAPHNE","AL",36526,30.6014008170001,-87.857285275,400,"9728 PINTAIL CT, DAPHNE, AL, 36526","Match","Exact","9728 PINTAIL CT, DAPHNE, AL, 36526",131723775,"R"
319901,"9728 ROSEHILL ROAD","LENEXA","KS",66215,38.952024222,-94.7329057059999,401,"9728 ROSEHILL ROAD, LENEXA, KS, 66215","Match","Exact","9728 ROSEHILL RD, LENEXA, KS, 66215",91322770,"R"
319902,"9728 THIRD AVE  STE 138","BROOKLYN","NY",11209,40.6155322330001,-74.0343063399999,402,"9728 THIRD AVE  STE 138, BROOKLYN, NY, 11209","Match","Exact","9728 3RD AVE, BROOKLYN, NY, 11209",59087486,"R"
319903,"9728 THIRD AVE","BROOKLYN","NY",11209,40.6155322330001,-74.0343063399999,403,"9728 THIRD AVE, BROOKLYN, NY, 11209","Match","Exact","9728 3RD AVE, BROOKLYN, NY, 11209",59087486,"R"
319904,"9729 HAMMOCKS BLVD E107","MIAMI","FL",33196,25.67593298,-80.438605487,404,"9729 HAMMOCKS BLVD E107, MIAMI, FL, 33196","Match","Exact","9729 HAMMOCKS BLVD, MIAMI, FL, 33196",115965810,"L"
319905,"9729 JEFFERSON PKWY APT A2","ENGLEWOOD","CO",80112,39.539677693,-104.845746848,405,"9729 JEFFERSON PKWY APT A2, ENGLEWOOD, CO, 80112","Match","Exact","9729 JEFFERSON PKWY, ENGLEWOOD, CO, 80112",130833576,"L"
319906,"9729 PARKWAY EAST STE 101","BIRMINGHAM","AL",35215,33.5989027090001,-86.692693317,406,"9729 PARKWAY EAST STE 101, BIRMINGHAM, AL, 35215","Match","Exact","9729 PARKWAY E, BIRMINGHAM, AL, 35215",81568228,"R"
319907,"9729 PARKWAY EAST SUITE 10","CENTER POINT","AL",35215,33.5989027090001,-86.692693317,407,"9729 PARKWAY EAST SUITE 10, CENTER POINT, AL, 35215","Match","Exact","9729 PARKWAY E, CENTER POINT, AL, 35215",81568228,"R"
319908,"9729 PLOWLINE RD","RANDALLSTOWN","MD",21133,39.3699104730001,-76.8251607669999,408,"9729 PLOWLINE RD, RANDALLSTOWN, MD, 21133","Match","Exact","9729 PLOWLINE RD, RANDALLSTOWN, MD, 21133",191463342,"L"
319909,"973 CALEDONIA AVE","CLEVELAND","OH",44112,41.533657792,-81.562104527,409,"973 CALEDONIA AVE, CLEVELAND, OH, 44112","Match","Exact","973 CALEDONIA AVE, CLEVELAND, OH, 44112",61124089,"L"
319910,"973 CALLE DURA","RIO RICO","AZ",85648,31.4398441700001,-110.981450965,410,"973 CALLE DURA, RIO RICO, AZ, 85648","Match","Non_Exact","973 CLL DURA, RIO RICO, AZ, 85648",120892432,"R"
319911,"973 CARLISLE ROAD","STONE MOUNTAIN","GA",30083,33.769887784,-84.221515842,411,"973 CARLISLE ROAD, STONE MOUNTAIN, GA, 30083","Match","Exact","973 CARLISLE RD, STONE MOUNTAIN, GA, 30083",23371564,"R"
319912,"973 CROSSING WAY","DELANO","MN",55328,45.0377550440001,-93.775054629,412,"973 CROSSING WAY, DELANO, MN, 55328","Match","Exact","973 CROSSING WAY, DELANO, MN, 55328",629094513,"L"
319913,"973 FM 407 E","ARGYLE","TX",76226,33.1012451070001,-97.167380757,413,"973 FM 407 E, ARGYLE, TX, 76226","Match","Non_Exact","973 FM 407 E, ARGYLE, TX, 76226",625663337,"R"
319914,"973 FONT ROAD","GLENMOORE","PA",19343,40.116992081,-75.7189256619999,414,"973 FONT ROAD, GLENMOORE, PA, 19343","Match","Exact","973 FONT RD, GLENMOORE, PA, 19343",179484281,"R"
319915,"973 GOOCHLAND STREET","NORFOLK","VA",23504,36.8603151830001,-76.272332804,415,"973 GOOCHLAND STREET, NORFOLK, VA, 23504","Match","Exact","973 GOOCHLAND ST, NORFOLK, VA, 23504",122128005,"R"
319916,"973 HILLDALE ROAD","HOLTWOOD","PA",17532,39.8499667580001,-76.304842465,416,"973 HILLDALE ROAD, HOLTWOOD, PA, 17532","Match","Exact","973 HILLDALE RD, HOLTWOOD, PA, 17532",179643488,"R"
319917,"973 INTERVALE RD","NEW GLOUCESTER","ME",4260,43.9337886210001,-70.248374433,417,"973 INTERVALE RD, NEW GLOUCESTER, ME, 4260","Match","Exact","973 INTERVALE RD, NEW GLOUCESTER, ME, 04260",638992751,"L"
319918,"973 KING ORANGE DR","FORT PIERCE","FL",34982,27.404075275,-80.333462921,418,"973 KING ORANGE DR, FORT PIERCE, FL, 34982","Match","Exact","973 KING ORANGE DR, FORT PIERCE, FL, 34982",638391040,"L"
319919,"973 LOCH FOREST WAY","RIVERDALE","GA",30296,33.5443405390001,-84.424715696,419,"973 LOCH FOREST WAY, RIVERDALE, GA, 30296","Match","Exact","973 LOCH FOREST WAY, RIVERDALE, GA, 30296",632647094,"R"
319920,"973 MARGRET ST","DES PLAINES","IL",60016,42.035280809,-87.897586183,420,"973 MARGRET ST, DES PLAINES, IL, 60016","Match","Exact","973 MARGRET ST, DES PLAINES, IL, 60016",111722632,"L"
319921,"973 MISSION LANE","LAKE CHARLES","LA",70611,30.3168430310001,-93.177840996,421,"973 MISSION LANE, LAKE CHARLES, LA, 70611","Match","Exact","973 MISSION LN, LAKE CHARLES, LA, 70611",88452922,"R"
319922,"973 N MILLARD WAY","STONE MOUNTAIN","GA",30088,33.7656701990001,-84.179697658,422,"973 N MILLARD WAY, STONE MOUNTAIN, GA, 30088","Match","Exact","973 N MILLARD WAY, STONE MOUNTAIN, GA, 30088",23383552,"R"
319923,"973 N SHADELAND AVE 314","INDIANAPOLIS","IN",46219,39.7813778180001,-86.045396393,423,"973 N SHADELAND AVE 314, INDIANAPOLIS, IN, 46219","Match","Non_Exact","973 N SHADELAND AVE, INDIANAPOLIS, IN, 46219",108003527,"R"
319924,"973 N SHADELAND AVE NUMBER 143","INDIANAPOLIS","IN",46219,39.7813778180001,-86.045396393,424,"973 N SHADELAND AVE NUMBER 143, INDIANAPOLIS, IN, 46219","Match","Non_Exact","973 N SHADELAND AVE, INDIANAPOLIS, IN, 46219",108003527,"R"
319925,"973 N SHADELAND","INDIANAPOLIS","IN",46219,NA,NA,425,"973 N SHADELAND, INDIANAPOLIS, IN, 46219","No_Match",NA,NA,NA,NA
319926,"973 NW 129TH AVENUE","MIAMI","FL",33182,25.779162838,-80.4050922339999,426,"973 NW 129TH AVENUE, MIAMI, FL, 33182","Match","Non_Exact","973 NW 129TH AVE, MIAMI, FL, 33182",116256039,"L"
319927,"973 OLD LANCASTER ROAD","BERWYN","PA",19312,40.0458584520001,-75.450893972,427,"973 OLD LANCASTER ROAD, BERWYN, PA, 19312","Match","Exact","973 OLD LANCASTER RD, BERWYN, PA, 19312",179498784,"L"
319928,"973 PINE STREET","PROVIDENCE","RI",2905,NA,NA,428,"973 PINE STREET, PROVIDENCE, RI, 2905","No_Match",NA,NA,NA,NA
319929,"973 POWDER HORN DR","HUMMELSTOWN","PA",17036,40.2413393,-76.7231381779999,429,"973 POWDER HORN DR, HUMMELSTOWN, PA, 17036","Match","Exact","973 POWDER HORN DR, HUMMELSTOWN, PA, 17036",646574150,"L"
319930,"973 S WASHINGTON AVE","FAYETTEVILLE","AR",72701,36.0530097010001,-94.157099669,430,"973 S WASHINGTON AVE, FAYETTEVILLE, AR, 72701","Match","Exact","973 S WASHINGTON AVE, FAYETTEVILLE, AR, 72701",49045797,"R"
319931,"973 SYKESVILLE RD","WILLIAMSTOWN","NJ",8094,39.668313912,-74.995305464,431,"973 SYKESVILLE RD, WILLIAMSTOWN, NJ, 8094","Match","Exact","973 SYKESVILLE RD, WILLIAMSTOWN, NJ, 08094",134608773,"R"
319932,"973 TERRY COURT","PITTSBURG","CA",94565,38.002382771,-121.878795589,432,"973 TERRY COURT, PITTSBURG, CA, 94565","Match","Exact","973 TERRY CT, PITTSBURG, CA, 94565",192061542,"L"
319933,"973 VISTA DE SOLEDAD","SOLEDAD","CA",93960,36.43861056,-121.330056809,433,"973 VISTA DE SOLEDAD, SOLEDAD, CA, 93960","Match","Exact","973 VIS DE SOLEDAD, SOLEDAD, CA, 93960",196869406,"L"
319934,"973 W 400 S","KOKOMO","IN",46902,40.4190657250001,-86.1089038699999,434,"973 W 400 S, KOKOMO, IN, 46902","Match","Non_Exact","973 E 400 S, KOKOMO, IN, 46902",638265846,"R"
319935,"973 W THORNBUSH PLACE","ORO VALLEY","AZ",85755,32.43982885,-110.985939861,435,"973 W THORNBUSH PLACE, ORO VALLEY, AZ, 85755","Match","Exact","973 W THORNBUSH PL, ORO VALLEY, AZ, 85755",121412666,"L"
319936,"973 WINCHESTER AVE","LINCOLN PARK","MI",48146,42.233009155,-83.1764127439999,436,"973 WINCHESTER AVE, LINCOLN PARK, MI, 48146","Match","Exact","973 WINCHESTER AVE, LINCOLN PARK, MI, 48146",95452164,"L"
319937,"973 WIND FLOWER RD","BEAUMONT","CA",92223,33.9526294240001,-117.004601593,437,"973 WIND FLOWER RD, BEAUMONT, CA, 92223","Match","Exact","973 WIND FLOWER RD, BEAUMONT, CA, 92223",608991452,"L"
319938,"9730 CIRA COURT","HOUSTON","TX",77044,29.861303524,-95.2135741,438,"9730 CIRA COURT, HOUSTON, TX, 77044","Match","Exact","9730 CIRA CT, HOUSTON, TX, 77044",645140481,"R"
319939,"9730 GLACIER DRIVE","MIRAMAR","FL",33025,25.9842277750001,-80.2742224519999,439,"9730 GLACIER DRIVE, MIRAMAR, FL, 33025","Match","Exact","9730 GLACIER DR, MIRAMAR, FL, 33025",114770483,"L"
319940,"9730 KILARNEY DRIVE","DALLAS","TX",75218,32.8380135300001,-96.702162121,440,"9730 KILARNEY DRIVE, DALLAS, TX, 75218","Match","Exact","9730 KILARNEY DR, DALLAS, TX, 75218",102922623,"R"
319941,"9730 MILLBURN DRIVE","SAINT LOUIS","MO",63136,38.7445923160001,-90.2712380629999,441,"9730 MILLBURN DRIVE, SAINT LOUIS, MO, 63136","Match","Exact","9730 MILLBURN DR, SAINT LOUIS, MO, 63136",100147100,"R"
319942,"9730 N 100TH E AVE","OWASSO","OK",74055,36.2957896710001,-95.863066311,442,"9730 N 100TH E AVE, OWASSO, OK, 74055","Match","Exact","9730 N 100TH E AVE, OWASSO, OK, 74055",166516064,"L"
319943,"9730 SOUTHWEST FREEWAY SUITE UC100","HOUSTON","TX",77074,NA,NA,443,"9730 SOUTHWEST FREEWAY SUITE UC100, HOUSTON, TX, 77074","No_Match",NA,NA,NA,NA
319944,"9730 WILSHIRE BLVD STE115","BEVERLY HILLS","CA",90212,34.0670710370001,-118.407289617,444,"9730 WILSHIRE BLVD STE115, BEVERLY HILLS, CA, 90212","Match","Exact","9730 WILSHIRE BLVD, BEVERLY HILLS, CA, 90212",141571530,"L"
319945,"9730","TUJUNGA","CA",91042,NA,NA,445,"9730, TUJUNGA, CA, 91042","No_Match",NA,NA,NA,NA
319946,"9731 MORNINGFIELD","SAN ANTONIO","TX",78250,29.5142897800001,-98.6774640789999,446,"9731 MORNINGFIELD, SAN ANTONIO, TX, 78250","Match","Exact","9731 MORNINGFIELD, SAN ANTONIO, TX, 78250",101558570,"L"
319947,"9731 WASHOUGAL RVR RD","WASHOUGAL","WA",98671,45.608635104,-122.233792813,447,"9731 WASHOUGAL RVR RD, WASHOUGAL, WA, 98671","Match","Exact","9731 WASHOUGAL RIVER RD, WASHOUGAL, WA, 98671",158453952,"R"
319948,"9732 AMBERGATE COURT","GAITHERSBURG","MD",20882,39.2509162330001,-77.2016186829999,448,"9732 AMBERGATE COURT, GAITHERSBURG, MD, 20882","Match","Exact","9732 AMBERGATE CT, GAITHERSBURG, MD, 20882",62070383,"R"
319949,"9732 HIGHWAY 26","BRIDGEPORT","NE",69336,NA,NA,449,"9732 HIGHWAY 26, BRIDGEPORT, NE, 69336","No_Match",NA,NA,NA,NA
319950,"9732 HONEYSUCKLE DR","MICCO","FL",32976,27.8489853020001,-80.502655166,450,"9732 HONEYSUCKLE DR, MICCO, FL, 32976","Match","Exact","9732 HONEYSUCKLE DR, MICCO, FL, 32976",93884265,"L"
319951,"9732 KIPLING ST","WESTMINSTER","CO",80021,39.871163423,-105.106757922,451,"9732 KIPLING ST, WESTMINSTER, CO, 80021","Match","Exact","9732 KIPLING ST, WESTMINSTER, CO, 80021",177759058,"R"
319952,"9732 QUARTZ AVE","CHATSWORTH","CA",91311,34.2468738260001,-118.564068219,452,"9732 QUARTZ AVE, CHATSWORTH, CA, 91311","Match","Exact","9732 QUARTZ AVE, CHATSWORTH, CA, 91311",640425475,"R"
319953,"9732 S URBANA AVE","TULSA","OK",74137,36.0225263890001,-95.925011689,453,"9732 S URBANA AVE, TULSA, OK, 74137","Match","Exact","9732 S URBANA AVE, TULSA, OK, 74137",166461256,"L"
319954,"9732 SE US HIGHWAY 441","BELLEVIEW","FL",34420,29.0819806850001,-82.0776427279999,454,"9732 SE US HIGHWAY 441, BELLEVIEW, FL, 34420","Match","Exact","9732 US HWY 441, BELLEVIEW, FL, 34420",650466385,"R"
319955,"9732 SKYLARK BLVD","GARDEN GROVE","CA",92841,33.7916250480001,-117.963277888,455,"9732 SKYLARK BLVD, GARDEN GROVE, CA, 92841","Match","Exact","9732 SKYLARK BLVD, GARDEN GROVE, CA, 92841",609070659,"R"
319956,"9732 STATE ROUTE 445 SUITE 103","SPARKS","NV",89441,39.6468344260001,-119.707508596,456,"9732 STATE ROUTE 445 SUITE 103, SPARKS, NV, 89441","Match","Exact","9732 STATE RTE 445, SPARKS, NV, 89441",107103218,"R"
319957,"9732 WATER FERN CIRCLE","CLERMONT","FL",34711,28.57960796,-81.797977469,457,"9732 WATER FERN CIRCLE, CLERMONT, FL, 34711","Match","Exact","9732 WATER FERN CIR, CLERMONT, FL, 34711",94232800,"L"
319958,"9733 ARBOR OAKS LN  301","BOCA RATON","FL",33428,26.3600260970001,-80.201261566,458,"9733 ARBOR OAKS LN  301, BOCA RATON, FL, 33428","Match","Exact","9733 ARBOR OAKS LN, BOCA RATON, FL, 33428",644147056,"R"
319959,"9733 COLLEGE WAY N","SEATTLE","WA",98103,47.700224114,-122.335215457,459,"9733 COLLEGE WAY N, SEATTLE, WA, 98103","Match","Exact","9733 COLLEGE WAY N, SEATTLE, WA, 98103",187072553,"L"
319960,"9733 DESCHUTES ROAD","PALO CEDRO","CA",96073,40.5739354180001,-122.238754387,460,"9733 DESCHUTES ROAD, PALO CEDRO, CA, 96073","Match","Exact","9733 DESCHUTES RD, PALO CEDRO, CA, 96073",126672223,"R"
319961,"9733 IMPERIAL DRIVE","OOLTEWAH","TN",37363,35.020916185,-85.079189769,461,"9733 IMPERIAL DRIVE, OOLTEWAH, TN, 37363","Match","Exact","9733 IMPERIAL DR, OOLTEWAH, TN, 37363",59342573,"L"
319962,"9733 OLD PATINA WAY","ORLANDO","FL",32832,28.4260578020001,-81.237110794,462,"9733 OLD PATINA WAY, ORLANDO, FL, 32832","Match","Exact","9733 OLD PATINA WAY, ORLANDO, FL, 32832",94419038,"L"
319963,"9733 TAYLOR RD SW","ETNA","OH",43068,39.9507321840001,-82.771943968,463,"9733 TAYLOR RD SW, ETNA, OH, 43068","Match","Exact","9733 TAYLOR RD SW, ETNA, OH, 43068",640654231,"R"
319964,"9734 DUSTY RIDGE","HOUSTON","TX",77044,29.861778056,-95.206582161,464,"9734 DUSTY RIDGE, HOUSTON, TX, 77044","Match","Exact","9734 DUSTY RIDGE, HOUSTON, TX, 77044",624581113,"R"
319965,"9734 MISTY VINE CT","HOUSTON","TX",77088,29.8835732590001,-95.488490542,465,"9734 MISTY VINE CT, HOUSTON, TX, 77088","Match","Exact","9734 MISTY VINE CT, HOUSTON, TX, 77088",637063928,"L"
319966,"9735 SOUTHERN OAKS COURT","PORTAGE","MI",49002,42.176431575,-85.5815894,466,"9735 SOUTHERN OAKS COURT, PORTAGE, MI, 49002","Match","Exact","9735 SOUTHERN OAKS CT, PORTAGE, MI, 49002",12254293,"L"
319967,"9735 WILSHIRE BLVD","BEVERLY HILLS","CA",90212,34.0670835020001,-118.407688758,467,"9735 WILSHIRE BLVD, BEVERLY HILLS, CA, 90212","Match","Exact","9735 WILSHIRE BLVD, BEVERLY HILLS, CA, 90212",141571530,"R"
319968,"9736 E BALSAM AVE","MESA","AZ",85208,33.4114774550001,-111.621261606,468,"9736 E BALSAM AVE, MESA, AZ, 85208","Match","Exact","9736 E BALSAM AVE, MESA, AZ, 85208",128926287,"L"
319969,"9736 LEATHERWOOD CIRCLE","SOUTH JORDAN","UT",84095,40.5745720030001,-111.969195022,469,"9736 LEATHERWOOD CIRCLE, SOUTH JORDAN, UT, 84095","Match","Exact","9736 LEATHERWOOD CIR, SOUTH JORDAN, UT, 84095",176133000,"R"
319970,"97361 PIRATES POINT ROAD","YULEE","FL",32097,30.675635857,-81.523898273,470,"97361 PIRATES POINT ROAD, YULEE, FL, 32097","Match","Exact","97361 PIRATES POINT RD, YULEE, FL, 32097",611170923,"L"
319971,"9737 DOMINION CREST DRIVE","CHARLOTTE","NC",28269,35.3785489570001,-80.7432304989999,471,"9737 DOMINION CREST DRIVE, CHARLOTTE, NC, 28269","Match","Exact","9737 DOMINION CREST DR, CHARLOTTE, NC, 28269",635862117,"R"
319972,"9737 GARDEN WALK","CLARENCE CENTER","NY",14032,42.9986635870001,-78.627734999,472,"9737 GARDEN WALK, CLARENCE CENTER, NY, 14032","Match","Exact","9737 GARDEN WALK, CLARENCE CENTER, NY, 14032",648674556,"R"
319973,"9737 MOUNT PISGAH ROAD 704","SILVER SPRING","MD",20903,39.015759385,-76.9766698559999,473,"9737 MOUNT PISGAH ROAD 704, SILVER SPRING, MD, 20903","Match","Exact","9737 MOUNT PISGAH RD, SILVER SPRING, MD, 20903",640648673,"R"
319974,"9737 NW 41ST ST 113","DORAL","FL",33178,25.811662465,-80.354838437,474,"9737 NW 41ST ST 113, DORAL, FL, 33178","Match","Non_Exact","9737 NW 41ST ST, DORAL, FL, 33178",640558509,"R"
319975,"9737 NW 41ST ST STE 557","DORAL","FL",33178,25.811662465,-80.354838437,475,"9737 NW 41ST ST STE 557, DORAL, FL, 33178","Match","Non_Exact","9737 NW 41ST ST, DORAL, FL, 33178",640558509,"R"
319976,"9737 NW 41ST STREET SUITE 993","MIAMI","FL",33178,25.811662465,-80.354838437,476,"9737 NW 41ST STREET SUITE 993, MIAMI, FL, 33178","Match","Non_Exact","9737 NW 41ST ST, MIAMI, FL, 33178",640558509,"R"
319977,"9737 SALOMA AVE","NORTH HILLS","CA",91343,34.246659939,-118.457636295,477,"9737 SALOMA AVE, NORTH HILLS, CA, 91343","Match","Exact","9737 SALOMA AVE, NORTH HILLS, CA, 91343",141549015,"L"
319978,"9737 SOUTH 1600 WEST","SOUTH JORDAN","UT",84095,40.574605364,-111.936179198,478,"9737 SOUTH 1600 WEST, SOUTH JORDAN, UT, 84095","Match","Exact","9737 S 1600 W, SOUTH JORDAN, UT, 84095",176150031,"L"
319979,"9738 PURGATORY RD","EDEN PRAIRIE","MN",55347,44.8263685320001,-93.420351502,479,"9738 PURGATORY RD, EDEN PRAIRIE, MN, 55347","Match","Exact","9738 PURGATORY RD, EDEN PRAIRIE, MN, 55347",43854006,"R"
319980,"9738 WATER OAK DRIVE","FAIRFAX","VA",22031,38.8713975470001,-77.2837435819999,480,"9738 WATER OAK DRIVE, FAIRFAX, VA, 22031","Match","Exact","9738 WATER OAK DR, FAIRFAX, VA, 22031",75969005,"R"
319981,"9738","NEWARK","DE",19714,NA,NA,481,"9738, NEWARK, DE, 19714","No_Match",NA,NA,NA,NA
319982,"9739 KINGS PARADE BLVD 214","CHARLOTTE","NC",28273,35.1331149650001,-80.9351813709999,482,"9739 KINGS PARADE BLVD 214, CHARLOTTE, NC, 28273","Match","Exact","9739 KINGS PARADE BLVD, CHARLOTTE, NC, 28273",647256001,"L"
319983,"9739 KIRKFALLS DR","HOUSTON","TX",77089,29.6035490790001,-95.2336087739999,483,"9739 KIRKFALLS DR, HOUSTON, TX, 77089","Match","Exact","9739 KIRKFALLS DR, HOUSTON, TX, 77089",96112884,"L"
319984,"9739 S CHARLES APARTMENT 3A","CHICAGO","IL",60643,NA,NA,484,"9739 S CHARLES APARTMENT 3A, CHICAGO, IL, 60643","No_Match",NA,NA,NA,NA
319985,"9739 S CHARLES ST","CHIAGO","IL",60643,41.7173018280001,-87.66278434,485,"9739 S CHARLES ST, CHIAGO, IL, 60643","Match","Non_Exact","9739 S CHARLES ST, CHICAGO, IL, 60643",112383808,"L"
319986,"9739-9741  66TH ST N","PINELLAS PARK","FL",33782,27.8599838540001,-82.72882803,486,"9739-9741  66TH ST N, PINELLAS PARK, FL, 33782","Match","Exact","9739 66TH ST N, PINELLAS PARK, FL, 33782",124723880,"R"
319987,"974 AMELIA AVE","AKRON","OH",44302,41.0955209460001,-81.553528474,487,"974 AMELIA AVE, AKRON, OH, 44302","Match","Exact","974 AMELIA AVE, AKRON, OH, 44302",61339517,"L"
319988,"974 BRECKENRIDGE LANE","LOUISVILLE","KY",40207,38.233036532,-85.639319277,488,"974 BRECKENRIDGE LANE, LOUISVILLE, KY, 40207","Match","Exact","974 BRECKENRIDGE LN, LOUISVILLE, KY, 40207",653262591,"R"
319989,"974 CHESTERTON WAY","CINCINNATI","OH",45230,39.067527694,-84.374406399,489,"974 CHESTERTON WAY, CINCINNATI, OH, 45230","Match","Exact","974 CHESTERTON WAY, CINCINNATI, OH, 45230",103940475,"R"
319990,"974 CHURCH ROAD","FALL BRANCH","TN",37656,36.434126604,-82.614152089,490,"974 CHURCH ROAD, FALL BRANCH, TN, 37656","Match","Exact","974 CHURCH RD, FALL BRANCH, TN, 37656",127844490,"L"
319991,"974 COACH HOUSE DR","TUCKER","GA",30084,33.8831922310001,-84.2055109779999,491,"974 COACH HOUSE DR, TUCKER, GA, 30084","Match","Exact","974 COACH HOUSE DR, TUCKER, GA, 30084",88884872,"L"
319992,"974 COLUMBUS","BENTON HARBOR","MI",49022,42.100317252,-86.448924995,492,"974 COLUMBUS, BENTON HARBOR, MI, 49022","Match","Non_Exact","974 COLUMBUS AVE, BENTON HARBOR, MI, 49022",119973254,"R"
319993,"974 HAWK VIEW","CORDOVA","TN",38018,NA,NA,493,"974 HAWK VIEW, CORDOVA, TN, 38018","No_Match",NA,NA,NA,NA
319994,"974 HOLLOW RD","COLLEGEVILLE","PA",19426,40.173027377,-75.3852983199999,494,"974 HOLLOW RD, COLLEGEVILLE, PA, 19426","Match","Exact","974 HOLLOW RD, COLLEGEVILLE, PA, 19426",652467411,"R"
319995,"974 MAIN STREET","HICKORY CREEK","TX",75065,33.1070879370001,-97.004819133,495,"974 MAIN STREET, HICKORY CREEK, TX, 75065","Match","Exact","974 MAIN ST, HICKORY CREEK, TX, 75065",103366575,"L"
319996,"974 NORTH STREET","MEADVILLE","PA",16335,41.6360386600001,-80.129483135,496,"974 NORTH STREET, MEADVILLE, PA, 16335","Match","Exact","974 NORTH ST, MEADVILLE, PA, 16335",98571381,"L"
319997,"974 OSCAR LANE","CARMEL","IN",46032,39.994270729,-86.13704004,497,"974 OSCAR LANE, CARMEL, IN, 46032","Match","Exact","974 OSCAR LN, CARMEL, IN, 46032",618465861,"R"
319998,"974 PALM STREET","SAN JOSE","CA",95110,37.3178284790001,-121.885449506,498,"974 PALM STREET, SAN JOSE, CA, 95110","Match","Exact","974 PALM ST, SAN JOSE, CA, 95110",122909688,"L"
319999,"974 PARADROME ST APT C","CINCINNATI","OH",45202,39.109855032,-84.4957197369999,499,"974 PARADROME ST APT C, CINCINNATI, OH, 45202","Match","Exact","974 PARADROME ST, CINCINNATI, OH, 45202",103937030,"L"
320000,"974 PEEKSKILL HOLLOW RD","PUTNAM VALLEY","NY",10579,41.4236585020001,-73.7706679569999,500,"974 PEEKSKILL HOLLOW RD, PUTNAM VALLEY, NY, 10579","Match","Exact","974 PEEKSKILL HOLLOW RD, PUTNAM VALLEY, NY, 10579",139704226,"R"
