"ID","Address","City","State","Zip","lat","long","id","input_address","match_indicator","match_type","matched_address","tiger_line_id","tiger_side"
321001,"9850 E MAGUIRE ROAD","NOBLE","OK",73068,35.1313458180001,-97.2966450499999,1,"9850 E MAGUIRE ROAD, NOBLE, OK, 73068","Match","Exact","9850 MAGUIRE RD, NOBLE, OK, 73068",99955059,"R"
321002,"9850 E RANKIN LOOP","TUCSON","AZ",85747,32.1075917270001,-110.781982034,2,"9850 E RANKIN LOOP, TUCSON, AZ, 85747","Match","Exact","9850 E RANKIN LOOP, TUCSON, AZ, 85747",121411362,"R"
321003,"9850 EDNA WAY","HANFORD","CA",93230,36.328515812,-119.589894528,3,"9850 EDNA WAY, HANFORD, CA, 93230","Match","Exact","9850 EDNA WAY, HANFORD, CA, 93230",197984652,"L"
321004,"9850 MOSS ROSE WAY","ORLANDO","FL",32832,28.424155442,-81.239599808,4,"9850 MOSS ROSE WAY, ORLANDO, FL, 32832","Match","Exact","9850 MOSS ROSE WAY, ORLANDO, FL, 32832",94419012,"L"
321005,"9850 NORTH WASAUKEE ROAD","MEQUON","WI",53097,43.196716022,-88.063400348,5,"9850 NORTH WASAUKEE ROAD, MEQUON, WI, 53097","Match","Non_Exact","9850 WASAUKEE RD, MEQUON, WI, 53097",635637229,"R"
321006,"9850 PAGEWOOD LANE UNIT 1301","HOUSTON","TX",77042,29.725403779,-95.542671819,6,"9850 PAGEWOOD LANE UNIT 1301, HOUSTON, TX, 77042","Match","Exact","9850 PAGEWOOD LN, HOUSTON, TX, 77042",96613912,"R"
321007,"9850 VON ALLMEN COURT SUITE 201","LOUISVILLE","KY",40241,38.3118513150001,-85.571481825,7,"9850 VON ALLMEN COURT SUITE 201, LOUISVILLE, KY, 40241","Match","Exact","9850 VON ALLMEN CT, LOUISVILLE, KY, 40241",641793664,"L"
321008,"9850 WHITEHURST DR 1019","DALLAS","TX",75243,32.8999202260001,-96.724524437,8,"9850 WHITEHURST DR 1019, DALLAS, TX, 75243","Match","Exact","9850 WHITEHURST DR, DALLAS, TX, 75243",103278873,"R"
321009,"9851 63RD AVE S","SEATTLE","WA",98118,47.5128482490001,-122.254691877,9,"9851 63RD AVE S, SEATTLE, WA, 98118","Match","Exact","9851 63RD AVE S, SEATTLE, WA, 98118",186606768,"R"
321010,"9851 DONALD NELSON AVE","LAS VEGAS","NV",89149,NA,NA,10,"9851 DONALD NELSON AVE, LAS VEGAS, NV, 89149","No_Match",NA,NA,NA,NA
321011,"9851 NINEMILE CREEK ROAD","JUNEAU","AK",99801,58.3397882850001,-134.573435104,11,"9851 NINEMILE CREEK ROAD, JUNEAU, AK, 99801","Match","Exact","9851 NINEMILE CREEK RD, JUNEAU, AK, 99801",625836192,"L"
321012,"9851 SWALLOW LANE","GARDEN GROVE","CA",92841,33.7936826580001,-117.961368832,12,"9851 SWALLOW LANE, GARDEN GROVE, CA, 92841","Match","Exact","9851 SWALLOW LN, GARDEN GROVE, CA, 92841",144023987,"L"
321013,"9852 GOBY ST","EL PASO","TX",79924,31.894423337,-106.400603582,13,"9852 GOBY ST, EL PASO, TX, 79924","Match","Exact","9852 GOBY ST, EL PASO, TX, 79924",189339827,"R"
321014,"9852 SMOKIES WAY","FINDLAY","OH",45840,41.0801269180001,-83.6908197079999,14,"9852 SMOKIES WAY, FINDLAY, OH, 45840","Match","Exact","9852 SMOKIES WAY, FINDLAY, OH, 45840",641749205,"R"
321015,"9852 TEHAMA RIDGE PKWY","FORT WORTH","TX",76177,32.918348403,-97.3243894349999,15,"9852 TEHAMA RIDGE PKWY, FORT WORTH, TX, 76177","Match","Exact","9852 TEHAMA RIDGE PKWY, FORT WORTH, TX, 76177",619875253,"R"
321016,"9853 HUNTINGDON LANE","ST LOUIS","MO",63123,38.537938136,-90.314023279,16,"9853 HUNTINGDON LANE, ST LOUIS, MO, 63123","Match","Exact","9853 HUNTINGDON LN, SAINT LOUIS, MO, 63123",100154216,"R"
321017,"9853 SOUTH 47TH STREET","PHOENIX","AZ",85044,33.356405393,-111.980524212,17,"9853 SOUTH 47TH STREET, PHOENIX, AZ, 85044","Match","Exact","9853 S 47TH ST, PHOENIX, AZ, 85044",128235900,"L"
321018,"9854 BIRCH DRIVE","PROVIDENCE VILLAGE","TX",76227,33.2304446040001,-96.962641945,18,"9854 BIRCH DRIVE, PROVIDENCE VILLAGE, TX, 76227","Match","Exact","9854 BIRCH DR, PROVIDENCE VILLAGE, TX, 76227",218073273,"R"
321019,"9854 NATIONAL BLVD 541","LOS ANGELES","CA",90034,34.031384476,-118.400168251,19,"9854 NATIONAL BLVD 541, LOS ANGELES, CA, 90034","Match","Exact","9854 NATIONAL BLVD, LOS ANGELES, CA, 90034",141574706,"L"
321020,"9854 NATIONAL BLVD NO 411","LOS ANGELES","CA",90034,34.031384476,-118.400168251,20,"9854 NATIONAL BLVD NO 411, LOS ANGELES, CA, 90034","Match","Non_Exact","9854 NATIONAL BLVD, LOS ANGELES, CA, 90034",141574706,"L"
321021,"9854 NATIONAL BOULEVARD  STE 166","LOS ANGELES","CA",90034,34.031384476,-118.400168251,21,"9854 NATIONAL BOULEVARD  STE 166, LOS ANGELES, CA, 90034","Match","Exact","9854 NATIONAL BLVD, LOS ANGELES, CA, 90034",141574706,"L"
321022,"9855 COUNTRY SCENE LANE","MENTOR","OH",44060,41.676004601,-81.2859243079999,22,"9855 COUNTRY SCENE LANE, MENTOR, OH, 44060","Match","Exact","9855 COUNTRY SCENE LN, MENTOR, OH, 44060",649047264,"R"
321023,"9855 E AVENUE R","SUN VILLAGE","CA",93543,34.572454726,-117.953302176,23,"9855 E AVENUE R, SUN VILLAGE, CA, 93543","Match","Exact","9855 E AVE R, SUN VILLAGE, CA, 93543",141815895,"R"
321024,"9855 E SOUTHERN AVE   P O BOX 51629","MESA","AZ",85208,NA,NA,24,"9855 E SOUTHERN AVE   P O BOX 51629, MESA, AZ, 85208","No_Match",NA,NA,NA,NA
321025,"9855 FAIRWAY COVE LANE","PLANTATION","FL",33324,26.1138043930001,-80.280521499,25,"9855 FAIRWAY COVE LANE, PLANTATION, FL, 33324","Match","Exact","9855 FAIRWAY COVE LN, PLANTATION, FL, 33324",114816110,"L"
321026,"9855 MILL CENTRE DRIVE SUITE 568","OWINGS MILLS","MD",21117,39.416145971,-76.814987598,26,"9855 MILL CENTRE DRIVE SUITE 568, OWINGS MILLS, MD, 21117","Match","Exact","9855 MILL CENTRE DR, OWINGS MILLS, MD, 21117",641697035,"L"
321027,"9855 S 140TH STREET","OMAHA","NE",68138,NA,NA,27,"9855 S 140TH STREET, OMAHA, NE, 68138","No_Match",NA,NA,NA,NA
321028,"9855 SHADOW WAY APT 2208","DALLAS","TX",75243,NA,NA,28,"9855 SHADOW WAY APT 2208, DALLAS, TX, 75243","No_Match",NA,NA,NA,NA
321029,"9855 SHADOW WAYS/1303","DALLAS","TX",75243,NA,NA,29,"9855 SHADOW WAYS/1303, DALLAS, TX, 75243","No_Match",NA,NA,NA,NA
321030,"9855 WAUCHULA RD","MYAKKA CITY","FL",34251,27.3706686960001,-82.141189076,30,"9855 WAUCHULA RD, MYAKKA CITY, FL, 34251","Match","Exact","9855 WAUCHULA RD, MYAKKA CITY, FL, 34251",16257548,"R"
321031,"9857 DELLCASTLE ROAD","MONTGOMERY VILLAGE","MD",20886,39.18253186,-77.2049927159999,31,"9857 DELLCASTLE ROAD, MONTGOMERY VILLAGE, MD, 20886","Match","Exact","9857 DELLCASTLE RD, MONTGOMERY VILLAGE, MD, 20886",62140732,"L"
321032,"9857 SOUTH HEYTEBURY LANE","SANDY","UT",84092,NA,NA,32,"9857 SOUTH HEYTEBURY LANE, SANDY, UT, 84092","No_Match",NA,NA,NA,NA
321033,"985850 NEBRASKA MEDICAL CTR","OMAHA","NE",68198,NA,NA,33,"985850 NEBRASKA MEDICAL CTR, OMAHA, NE, 68198","No_Match",NA,NA,NA,NA
321034,"9859 CORONA AVENUE","QUEENS","NY",11368,NA,NA,34,"9859 CORONA AVENUE, QUEENS, NY, 11368","No_Match",NA,NA,NA,NA
321035,"9859 CYRESS HOLLOW DR","OLIVE BRANCH","MS",38654,34.9097309520001,-89.8151851389999,35,"9859 CYRESS HOLLOW DR, OLIVE BRANCH, MS, 38654","Match","Non_Exact","9859 CYPRESS HOLLOW DR, OLIVE BRANCH, MS, 38654",617658701,"R"
321036,"9859 S 168TH AVENUE","OMAHA","NE",68136,41.1637139950001,-96.177355544,36,"9859 S 168TH AVENUE, OMAHA, NE, 68136","Match","Non_Exact","9859 S 168TH ST, OMAHA, NE, 68136",28498612,"L"
321037,"986 ALBERTA AVENUE","AKRON","OH",44303,41.122262778,-81.545903282,37,"986 ALBERTA AVENUE, AKRON, OH, 44303","Match","Exact","986 ALBERTA AVE, AKRON, OH, 44303",61380476,"L"
321038,"986 ARCADIA BLVD","WESTERVILLE","OH",43082,40.135414122,-82.964532284,38,"986 ARCADIA BLVD, WESTERVILLE, OH, 43082","Match","Exact","986 ARCADIA BLVD, WESTERVILLE, OH, 43082",619936314,"R"
321039,"986 COOLIDGE CT","NEWARK","OH",43055,40.0759712350001,-82.4319041529999,39,"986 COOLIDGE CT, NEWARK, OH, 43055","Match","Exact","986 COOLIDGE CT, NEWARK, OH, 43055",61505556,"R"
321040,"986 CR 154","CORNING","AR",72422,36.4810422,-90.5406657889999,40,"986 CR 154, CORNING, AR, 72422","Match","Exact","986 CO RD 154, CORNING, AR, 72422",41046412,"L"
321041,"986 DODGER BALL PARK ROAD","QUINCY","FL",32352,30.688606973,-84.521084528,41,"986 DODGER BALL PARK ROAD, QUINCY, FL, 32352","Match","Exact","986 DODGER BALL PARK RD, QUINCY, FL, 32352",610799905,"L"
321042,"986 E MOWRY WASH LANE","SAHUARITA","AZ",85629,31.87364439,-110.964863588,42,"986 E MOWRY WASH LANE, SAHUARITA, AZ, 85629","Match","Exact","986 MOWRY WASH LN, SAHUARITA, AZ, 85629",633506081,"L"
321043,"986 GLENMORE TRL","BROWNSBURG","IN",46112,39.8057040480001,-86.383134597,43,"986 GLENMORE TRL, BROWNSBURG, IN, 46112","Match","Exact","986 GLENMORE TRL, BROWNSBURG, IN, 46112",635486866,"L"
321044,"986 GRENIER TERRACE","LAWRENCEVILLE","GA",30045,33.9741436210001,-83.95336558,44,"986 GRENIER TERRACE, LAWRENCEVILLE, GA, 30045","Match","Non_Exact","986 GRENIER TER NE, LAWRENCEVILLE, GA, 30045",645843447,"L"
321045,"986 INGERSOLL TERRACE","UNION","NJ",7083,40.6945772450001,-74.264219719,45,"986 INGERSOLL TERRACE, UNION, NJ, 7083","Match","Exact","986 INGERSOLL TER, UNION, NJ, 07083",641644532,"L"
321046,"986 MAIN STREET    SUITE 9","FISHKILL","NY",12524,41.5313745970001,-73.907448158,46,"986 MAIN STREET    SUITE 9, FISHKILL, NY, 12524","Match","Exact","986 MAIN ST, FISHKILL, NY, 12524",4201651,"L"
321047,"986 RIDGE RD","ROBBINSTON","ME",4671,45.014410308,-67.183249168,47,"986 RIDGE RD, ROBBINSTON, ME, 4671","Match","Exact","986 RIDGE RD, ROBBINSTON, ME, 04671",124241851,"L"
321048,"986 RIOMAR DR","VERO BEACH","FL",32963,27.6449772060001,-80.3542458439999,48,"986 RIOMAR DR, VERO BEACH, FL, 32963","Match","Exact","986 RIOMAR DR, VERO BEACH, FL, 32963",120307981,"R"
321049,"986 S PASTURE DR","NIXA","MO",65714,37.0223748340001,-93.321190582,49,"986 S PASTURE DR, NIXA, MO, 65714","Match","Exact","986 PASTURE DR, NIXA, MO, 65714",617924949,"R"
321050,"986 SE GLEANN CRAIG DRIVE","DALLAS","OR",97338,44.9199532390001,-123.290122998,50,"986 SE GLEANN CRAIG DRIVE, DALLAS, OR, 97338","Match","Exact","986 SE GLEANN CRAIG DR, DALLAS, OR, 97338",649873515,"L"
321051,"986 SMYRNA STREET","THE VILLAGES","FL",32162,28.8923018790001,-81.9753696229999,51,"986 SMYRNA STREET, THE VILLAGES, FL, 32162","Match","Exact","986 SMYRNA ST, THE VILLAGES, FL, 32162",612345082,"R"
321052,"986 SOUTH MAIN STREET SUITE A","COLVILLE","WA",99114,48.5358501690001,-117.905536221,52,"986 SOUTH MAIN STREET SUITE A, COLVILLE, WA, 99114","Match","Exact","986 S MAIN ST, COLVILLE, WA, 99114",174860627,"L"
321053,"9860 BRIMHALL RD","BAKERSFIELD","CA",93312,35.368877927,-119.112436356,53,"9860 BRIMHALL RD, BAKERSFIELD, CA, 93312","Match","Exact","9860 BRIMHALL RD, BAKERSFIELD, CA, 93312",647371789,"R"
321054,"9860 IZILDA CT","SACRAMENTO","CA",95829,38.4532443050001,-121.326019593,54,"9860 IZILDA CT, SACRAMENTO, CA, 95829","Match","Exact","9860 IZILDA CT, SACRAMENTO, CA, 95829",133434521,"R"
321055,"9860 MADISON ST","CROWN POINT","IN",46307,41.43934025,-87.3404958839999,55,"9860 MADISON ST, CROWN POINT, IN, 46307","Match","Exact","9860 MADISON ST, CROWN POINT, IN, 46307",98447534,"R"
321056,"9860 TRAVIS ROAD","BREWTON","AL",36426,31.001538979,-87.033139853,56,"9860 TRAVIS ROAD, BREWTON, AL, 36426","Match","Exact","9860 TRAVIS RD, BREWTON, AL, 36426",1932866,"L"
321057,"9860 WEST RD","HARRISON","OH",45030,39.254662588,-84.7707636819999,57,"9860 WEST RD, HARRISON, OH, 45030","Match","Exact","9860 WEST RD, HARRISON, OH, 45030",624369474,"R"
321058,"9860 WEST ROAD","HARRISON","OH",45030,39.254662588,-84.7707636819999,58,"9860 WEST ROAD, HARRISON, OH, 45030","Match","Exact","9860 WEST RD, HARRISON, OH, 45030",624369474,"R"
321059,"9861 DOMINICAN DRIVE","MIAMI","FL",33189,25.5775088340001,-80.351141567,59,"9861 DOMINICAN DRIVE, MIAMI, FL, 33189","Match","Exact","9861 DOMINICAN DR, MIAMI, FL, 33189",115995523,"R"
321060,"9861 OLD NATIONAL PIKE","IJAMSVILLE","MD",21754,NA,NA,60,"9861 OLD NATIONAL PIKE, IJAMSVILLE, MD, 21754","No_Match",NA,NA,NA,NA
321061,"9862 LORENE LANE SUITE 205","SAN ANTONIO","TX",78216,29.529974612,-98.500632995,61,"9862 LORENE LANE SUITE 205, SAN ANTONIO, TX, 78216","Match","Non_Exact","9862 LORENE, SAN ANTONIO, TX, 78216",101496743,"R"
321062,"9862 PLANO ROAD 100","DALLAS","TX",75238,NA,NA,62,"9862 PLANO ROAD 100, DALLAS, TX, 75238","No_Match",NA,NA,NA,NA
321063,"98626 MOANALUA LOOP 107","AIEA","HI",96701,NA,NA,63,"98626 MOANALUA LOOP 107, AIEA, HI, 96701","No_Match",NA,NA,NA,NA
321064,"9863 ARN DRIVE","CENTERVILLE","OH",45458,39.6008044880001,-84.164198195,64,"9863 ARN DRIVE, CENTERVILLE, OH, 45458","Match","Exact","9863 ARN DR, CENTERVILLE, OH, 45458",624925964,"L"
321065,"9863 OAKMONT TER","EL CAJON","CA",92021,32.8613583810001,-116.847023114,65,"9863 OAKMONT TER, EL CAJON, CA, 92021","Match","Exact","9863 OAKMONT TER, EL CAJON, CA, 92021",645093943,"L"
321066,"9863 OLD PLANK RD","JACKSONVILLE","FL",32220,30.331502406,-81.822853749,66,"9863 OLD PLANK RD, JACKSONVILLE, FL, 32220","Match","Exact","9863 OLD PLANK RD, JACKSONVILLE, FL, 32220",83933190,"R"
321067,"9863 PORTOLA DR","BEVERLY HILLS","CA",90210,34.1101782480001,-118.434021831,67,"9863 PORTOLA DR, BEVERLY HILLS, CA, 90210","Match","Exact","9863 PORTOLA DR, BEVERLY HILLS, CA, 90210",141562849,"R"
321068,"9864 E BAHIA DRIVE","SCOTTSDALE","AZ",85260,33.6356566010001,-111.867911369,68,"9864 E BAHIA DRIVE, SCOTTSDALE, AZ, 85260","Match","Exact","9864 E BAHIA DR, SCOTTSDALE, AZ, 85260",243980667,"L"
321069,"9864 GRAND VERDE WAY","BOCA RATON","FL",33428,26.3616879960001,-80.2023158379999,69,"9864 GRAND VERDE WAY, BOCA RATON, FL, 33428","Match","Exact","9864 GRAND VERDE WAY, BOCA RATON, FL, 33428",640834751,"R"
321070,"9864 SHALLOW CREEK LOOP APT 102","MANASSAS","VA",20109,38.7420017420001,-77.5355444269999,70,"9864 SHALLOW CREEK LOOP APT 102, MANASSAS, VA, 20109","Match","Exact","9864 SHALLOW CREEK LOOP, MANASSAS, VA, 20109",619920022,"L"
321071,"9865 DAISY AVENUE","PALM BEACH GARDENS","FL",33410,26.8214299090001,-80.093908241,71,"9865 DAISY AVENUE, PALM BEACH GARDENS, FL, 33410","Match","Exact","9865 DAISY AVE, PALM BEACH GARDENS, FL, 33410",115267135,"L"
321072,"9865 DECATUR ROAD","MIDDLE RIVER","MD",21220,NA,NA,72,"9865 DECATUR ROAD, MIDDLE RIVER, MD, 21220","No_Match",NA,NA,NA,NA
321073,"9865 SW 30TH ST","MIAMI","FL",33165,25.7417073770001,-80.354837735,73,"9865 SW 30TH ST, MIAMI, FL, 33165","Match","Exact","9865 SW 30TH ST, MIAMI, FL, 33165",116258825,"R"
321074,"9866 CAMINITO CUADRO","SAN DIEGO","CA",92129,NA,NA,74,"9866 CAMINITO CUADRO, SAN DIEGO, CA, 92129","No_Match",NA,NA,NA,NA
321075,"9866 SAGEASPEN LN","HOUSTON","TX",77089,29.582089635,-95.235592976,75,"9866 SAGEASPEN LN, HOUSTON, TX, 77089","Match","Exact","9866 SAGEASPEN LN, HOUSTON, TX, 77089",96113024,"R"
321076,"9867 GOLDEN DRIVE","ORANGEVALE","CA",95662,38.659132845,-121.199818138,76,"9867 GOLDEN DRIVE, ORANGEVALE, CA, 95662","Match","Exact","9867 GOLDEN DR, ORANGEVALE, CA, 95662",133357253,"L"
321077,"9867 MARMORA","CLARKSTON","MI",48348,42.784267512,-83.357197618,77,"9867 MARMORA, CLARKSTON, MI, 48348","Match","Exact","9867 MARMORA, CLARKSTON, MI, 48348",640605009,"R"
321078,"9867 WHITWELL DRIVE","BEVERLY HILLS","CA",90210,34.1288994400001,-118.431589878,78,"9867 WHITWELL DRIVE, BEVERLY HILLS, CA, 90210","Match","Exact","9867 WHITWELL DR, BEVERLY HILLS, CA, 90210",142716626,"R"
321079,"9868 LAKE HAVEN CIRCLE","FORT WORTH","TX",76108,32.7989950100001,-97.490840953,79,"9868 LAKE HAVEN CIRCLE, FORT WORTH, TX, 76108","Match","Exact","9868 LAKE HAVEN CIR, FORT WORTH, TX, 76108",619863303,"R"
321080,"9868 S PRESIDENTIAL DRIVE","SOUTH JORDAN","UT",84095,40.571800598,-111.959811516,80,"9868 S PRESIDENTIAL DRIVE, SOUTH JORDAN, UT, 84095","Match","Exact","9868 PRESIDENTIAL DR, SOUTH JORDAN, UT, 84095",176126233,"R"
321081,"9869 MEADOW RUE DR","MCKINNEY","TX",75070,33.1909651620001,-96.745740159,81,"9869 MEADOW RUE DR, MCKINNEY, TX, 75070","Match","Non_Exact","9869 MEADOW RUE DR, MCKINNEY, TX, 75072",639633919,"L"
321082,"9869 PARADISE ROAD","ALAMOSA","CO",81101,37.4311075900001,-105.905820229,82,"9869 PARADISE ROAD, ALAMOSA, CO, 81101","Match","Exact","9869 PARADISE RD, ALAMOSA, CO, 81101",651760304,"L"
321083,"987 16TH STREET","OGDEN","UT",84404,41.2382881120001,-111.953759583,83,"987 16TH STREET, OGDEN, UT, 84404","Match","Exact","987 16TH ST, OGDEN, UT, 84404",625091585,"R"
321084,"987 BLUE RD","PARKTON","NC",28371,34.8904100350001,-79.001933015,84,"987 BLUE RD, PARKTON, NC, 28371","Match","Exact","987 BLUE RD, PARKTON, NC, 28371",608080998,"L"
321085,"987 BROADWAY SOUTH DRIVE","PLAINFIELD","IN",46168,39.6880659870001,-86.3906808679999,85,"987 BROADWAY SOUTH DRIVE, PLAINFIELD, IN, 46168","Match","Exact","987 BROADWAY S DR, PLAINFIELD, IN, 46168",89208748,"L"
321086,"987 CEDAR SWAMP RD","COVENTRY","CT",6238,41.8232746680001,-72.414173179,86,"987 CEDAR SWAMP RD, COVENTRY, CT, 6238","Match","Exact","987 CEDAR SWAMP RD, COVENTRY, CT, 06238",56998236,"L"
321087,"987 DECATUR COVE","MEMPHIS","TN",38107,35.1596414140001,-90.0252102279999,87,"987 DECATUR COVE, MEMPHIS, TN, 38107","Match","Exact","987 DECATUR COVE, MEMPHIS, TN, 38107",72952062,"R"
321088,"987 E 32ND STREET","HOLLAND","MI",49423,42.7687998870001,-86.064960822,88,"987 E 32ND STREET, HOLLAND, MI, 49423","Match","Exact","987 E 32ND ST, HOLLAND, MI, 49423",11435222,"L"
321089,"987 EAST 1380 SOUTH","SPANISH FORK","UT",84660,40.092050699,-111.6374936,89,"987 EAST 1380 SOUTH, SPANISH FORK, UT, 84660","Match","Exact","987 E 1380 S, SPANISH FORK, UT, 84660",134258637,"L"
321090,"987 EASTMAN ROAD","FAYETTEVILLE","NC",28314,35.0637906170001,-79.061560953,90,"987 EASTMAN ROAD, FAYETTEVILLE, NC, 28314","Match","Non_Exact","987 EASTMAN DR, FAYETTEVILLE, NC, 28314",64227296,"R"
321091,"987 N SUNCOAST BLVD PMB 401","CRYSTAL RIVER","FL",34429,NA,NA,91,"987 N SUNCOAST BLVD PMB 401, CRYSTAL RIVER, FL, 34429","No_Match",NA,NA,NA,NA
321092,"987 NE 42ND AVE","HOMESTEAD","FL",33033,25.4791700110001,-80.414832061,92,"987 NE 42ND AVE, HOMESTEAD, FL, 33033","Match","Exact","987 NE 42ND AVE, HOMESTEAD, FL, 33033",641705293,"L"
321093,"987 SCHUMACHER DR","LOS ANGELES","CA",90048,34.0597394550001,-118.375371472,93,"987 SCHUMACHER DR, LOS ANGELES, CA, 90048","Match","Exact","987 SCHUMACHER DR, LOS ANGELES, CA, 90048",141598833,"R"
321094,"987 SILVERBERRY LANE","HUDSON","OH",44236,41.274926383,-81.480305882,94,"987 SILVERBERRY LANE, HUDSON, OH, 44236","Match","Exact","987 SILVERBERRY LN, HUDSON, OH, 44236",61376955,"R"
321095,"987 STATE STREET","CHESTER","IL",62233,37.9117729180001,-89.823859252,95,"987 STATE STREET, CHESTER, IL, 62233","Match","Exact","987 STATE ST, CHESTER, IL, 62233",95187742,"L"
321096,"987 STEWART RD","MONROE","MI",48162,41.939816755,-83.3998198419999,96,"987 STEWART RD, MONROE, MI, 48162","Match","Exact","987 STEWART RD, MONROE, MI, 48162",40495258,"L"
321097,"987 SUNNYSIDE ROAD","EMINENCE","KY",40019,38.411620134,-85.193203863,97,"987 SUNNYSIDE ROAD, EMINENCE, KY, 40019","Match","Exact","987 SUNNYSIDE RD, EMINENCE, KY, 40019",95295935,"L"
321098,"987 SW 37TH AVE APT 1103","MIAMI","FL",33135,25.762339212,-80.255043458,98,"987 SW 37TH AVE APT 1103, MIAMI, FL, 33135","Match","Non_Exact","987 SW 37TH AVE, MIAMI, FL, 33135",116011862,"L"
321099,"987 WEST 2200 NORTH","PLEASANT GRVOE","UT",84062,40.3874332020001,-111.75450138,99,"987 WEST 2200 NORTH, PLEASANT GRVOE, UT, 84062","Match","Non_Exact","987 W 2200 N, PLEASANT GROVE, UT, 84062",134238878,"L"
321100,"9870 GAYLORD DR APT 812","HOUSTON","TX",77024,29.7813606770001,-95.534882189,100,"9870 GAYLORD DR APT 812, HOUSTON, TX, 77024","Match","Exact","9870 GAYLORD DR, HOUSTON, TX, 77024",641668346,"L"
321101,"9870 GREENERY LN APT B","SAINT LOUIS","MO",63132,38.679561596,-90.393831194,101,"9870 GREENERY LN APT B, SAINT LOUIS, MO, 63132","Match","Exact","9870 GREENERY LN, SAINT LOUIS, MO, 63132",100130392,"L"
321102,"9870 POST ROAD","SHADY DALE","GA",31085,33.4430425050001,-83.659490926,102,"9870 POST ROAD, SHADY DALE, GA, 31085","Match","Exact","9870 POST RD, SHADY DALE, GA, 31085",632657539,"R"
321103,"9870 ROGER HILL ROAD","CONNELLY SPRINGS","NC",28612,35.5861649140001,-81.5182028679999,103,"9870 ROGER HILL ROAD, CONNELLY SPRINGS, NC, 28612","Match","Exact","9870 ROGER HILL RD, CONNELLY SPRINGS, NC, 28612",45947859,"R"
321104,"9870 WILDGINGER DR","FORT MYERS","FL",33919,26.5467568760001,-81.91027782,104,"9870 WILDGINGER DR, FORT MYERS, FL, 33919","Match","Exact","9870 WILDGINGER DR, FORT MYERS, FL, 33919",118025696,"R"
321105,"9871 CARMEL MOUNTAIN ROAD","SAN DIEGO","CA",92129,32.9607937550001,-117.113284768,105,"9871 CARMEL MOUNTAIN ROAD, SAN DIEGO, CA, 92129","Match","Exact","9871 CARMEL MOUNTAIN RD, SAN DIEGO, CA, 92129",195318505,"R"
321106,"9871 SOUTH LA ROSA DRIVE","TEMPE","AZ",85284,33.3211784060001,-111.932177346,106,"9871 SOUTH LA ROSA DRIVE, TEMPE, AZ, 85284","Match","Exact","9871 S LA ROSA DR, TEMPE, AZ, 85284",128780095,"R"
321107,"9871 STATE HWY 155 NORTH","ORE CITY","TX",75683,32.8244524690001,-94.824992923,107,"9871 STATE HWY 155 NORTH, ORE CITY, TX, 75683","Match","Exact","9871 STATE HWY 155 N, ORE CITY, TX, 75683",147586387,"L"
321108,"9871 WINDSOR AVE","WESTMINSTER","CA",92683,33.7517558370001,-117.956901725,108,"9871 WINDSOR AVE, WESTMINSTER, CA, 92683","Match","Exact","9871 WINDSOR AVE, WESTMINSTER, CA, 92683",144035747,"L"
321109,"9872 EDISTO WAY","BALTIMORE","MD",21220,39.351533682,-76.4373501919999,109,"9872 EDISTO WAY, BALTIMORE, MD, 21220","Match","Exact","9872 EDISTO WAY, BALTIMORE, MD, 21220",191481549,"L"
321110,"9872 NW 52ND TER","DORAL","FL",33178,25.8219833220001,-80.35738831,110,"9872 NW 52ND TER, DORAL, FL, 33178","Match","Exact","9872 NW 52ND TER, DORAL, FL, 33178",642623551,"L"
321111,"9872 S BARIUM LANE","SANDY","UT",84094,40.5712578600001,-111.862886438,111,"9872 S BARIUM LANE, SANDY, UT, 84094","Match","Exact","9872 BARIUM LN, SANDY, UT, 84094",176089464,"R"
321112,"9873 CR 738B","WEBSTER","FL",33597,28.6118914640001,-82.13618989,112,"9873 CR 738B, WEBSTER, FL, 33597","Match","Exact","9873 CO RD 738B, WEBSTER, FL, 33597",86497344,"L"
321113,"9873 LAWRENCE RD APT B204","BOYNTON BCH","FL",33436,26.529064217,-80.106584007,113,"9873 LAWRENCE RD APT B204, BOYNTON BCH, FL, 33436","Match","Exact","9873 LAWRENCE RD, BOYNTON BEACH, FL, 33436",115533489,"R"
321114,"9873 NW 5 COURT","PLANTATION","FL",33324,26.1273354780001,-80.2814649439999,114,"9873 NW 5 COURT, PLANTATION, FL, 33324","Match","Exact","9873 NW 5TH CT, PLANTATION, FL, 33324",114811095,"L"
321115,"9873 ORANGE AVENUE","FORT PIERCE","FL",34945,27.4475364190001,-80.425400629,115,"9873 ORANGE AVENUE, FORT PIERCE, FL, 34945","Match","Exact","9873 ORANGE AVE, FORT PIERCE, FL, 34945",120178730,"R"
321116,"9873 S CONGRESS STREET","NEW MARKET","VA",22844,38.636485572,-78.680166189,116,"9873 S CONGRESS STREET, NEW MARKET, VA, 22844","Match","Exact","9873 S CONGRESS ST, NEW MARKET, VA, 22844",55935477,"L"
321117,"9873 S WARD BRANCH RD","HAWKS","MI",49743,45.275388294,-83.905829992,117,"9873 S WARD BRANCH RD, HAWKS, MI, 49743","Match","Exact","9873 S WARD BRANCH RD, HAWKS, MI, 49743",130756434,"R"
321118,"9874 BEDFORD DRIVE","HUNTLEY","IL",60142,42.186209111,-88.389269978,118,"9874 BEDFORD DRIVE, HUNTLEY, IL, 60142","Match","Exact","9874 BEDFORD DR, HUNTLEY, IL, 60142",119867901,"R"
321119,"9874 HARPER ROAD","FREDONIA","KS",66736,37.5142197380001,-95.833488813,119,"9874 HARPER ROAD, FREDONIA, KS, 66736","Match","Exact","9874 HARPER RD, FREDONIA, KS, 66736",18498311,"L"
321120,"9874 N NIOBRARA WAY","MARANA","AZ",85742,32.385958943,-111.091920067,120,"9874 N NIOBRARA WAY, MARANA, AZ, 85742","Match","Non_Exact","9874 N NIOBRARA WAY, ORO VALLEY, AZ, 85742",637213804,"L"
321121,"9874 SAGEASPEN","HOUSTON","TX",77089,29.5821572030001,-95.235335913,121,"9874 SAGEASPEN, HOUSTON, TX, 77089","Match","Non_Exact","9874 SAGEASPEN LN, HOUSTON, TX, 77089",96113024,"R"
321122,"9874 WIER LOOP CIR","AUSTIN","TX",78736,30.237607095,-97.923006656,122,"9874 WIER LOOP CIR, AUSTIN, TX, 78736","Match","Exact","9874 WIER LOOP CIR, AUSTIN, TX, 78736",64015434,"R"
321123,"9875 MARGARET CT","DELHI","CA",95315,37.4322265320001,-120.787183646,123,"9875 MARGARET CT, DELHI, CA, 95315","Match","Exact","9875 MARGARET CT, DELHI, CA, 95315",125297164,"L"
321124,"9875 W MEADOWLARK CT","BOISE","ID",83704,43.644151847,-116.30541216,124,"9875 W MEADOWLARK CT, BOISE, ID, 83704","Match","Exact","9875 W MEADOWLARK CT, BOISE, ID, 83704",117879937,"R"
321125,"9876 CONTINENTAL DR","HUNTINTON BEACH","CA",92646,33.674889024,-117.955698817,125,"9876 CONTINENTAL DR, HUNTINTON BEACH, CA, 92646","Match","Non_Exact","9876 CONTINENTAL DR, HUNTINGTON BEACH, CA, 92646",144044711,"R"
321126,"9876 LAS PLAYAS CT","FORT MYERS","FL",33919,NA,NA,126,"9876 LAS PLAYAS CT, FORT MYERS, FL, 33919","No_Match",NA,NA,NA,NA
321127,"9877 CHAPMAN AVE STE D NUMBER 136","GARDEN GROVE","CA",92841,NA,NA,127,"9877 CHAPMAN AVE STE D NUMBER 136, GARDEN GROVE, CA, 92841","No_Match",NA,NA,NA,NA
321128,"9877 OLD DEER TRL N","STILLWATER","MN",55082,45.0915406180001,-92.8191378,128,"9877 OLD DEER TRL N, STILLWATER, MN, 55082","Match","Exact","9877 OLD DEER TRL N, STILLWATER, MN, 55082",97820355,"L"
321129,"9877 WEST COUNTY ROAD 750 SOUTH","KNIGHTSTOWN","IN",46148,39.82823963,-85.5746971409999,129,"9877 WEST COUNTY ROAD 750 SOUTH, KNIGHTSTOWN, IN, 46148","Match","Exact","9877 W CO RD 750 S, KNIGHTSTOWN, IN, 46148",29993861,"R"
321130,"9878 COUNTY ROAD 305 PO BOX 1643","BUNNELL","FL",32110,29.345007912,-81.3528518429999,130,"9878 COUNTY ROAD 305 PO BOX 1643, BUNNELL, FL, 32110","Match","Exact","9878 CO RD 305, BUNNELL, FL, 32110",649901829,"L"
321131,"9878 HWY 311 S STE 5","HIGH POINT","NC",27263,NA,NA,131,"9878 HWY 311 S STE 5, HIGH POINT, NC, 27263","No_Match",NA,NA,NA,NA
321132,"9878 NOVEMBER RAIN STREET","LAS VEGAS","NV",89178,36.0093048840001,-115.294985876,132,"9878 NOVEMBER RAIN STREET, LAS VEGAS, NV, 89178","Match","Non_Exact","9878 S NOVEMBER RAIN ST, LAS VEGAS, NV, 89178",625229225,"L"
321133,"9878 S FOREST AVE","TEMPE","AZ",85284,33.3212886520001,-111.933782061,133,"9878 S FOREST AVE, TEMPE, AZ, 85284","Match","Exact","9878 S FOREST AVE, TEMPE, AZ, 85284",128327588,"R"
321134,"9878 WILSON RANCH RD","PHELAN","CA",92371,NA,NA,134,"9878 WILSON RANCH RD, PHELAN, CA, 92371","No_Match",NA,NA,NA,NA
321135,"9879 CHAPEL TRAIL","FRISCO","TX",75033,33.16004651,-96.875015267,135,"9879 CHAPEL TRAIL, FRISCO, TX, 75033","Match","Exact","9879 CHAPEL TRL, FRISCO, TX, 75033",647539856,"L"
321136,"9879 LAWLOR ST","OAKLAND","CA",94605,37.7485353500001,-122.155515502,136,"9879 LAWLOR ST, OAKLAND, CA, 94605","Match","Exact","9879 LAWLOR ST, OAKLAND, CA, 94605",125011174,"R"
321137,"9879 OAKPLACE E","FOLSOM","CA",95630,38.6966263030001,-121.176238196,137,"9879 OAKPLACE E, FOLSOM, CA, 95630","Match","Exact","9879 OAKPLACE E, FOLSOM, CA, 95630",133377721,"R"
321138,"9879 ROCKFISH RD","RAEFORD","NC",28376,34.961246692,-79.0530525149999,138,"9879 ROCKFISH RD, RAEFORD, NC, 28376","Match","Exact","9879 ROCKFISH RD, RAEFORD, NC, 28376",637551962,"R"
321139,"987E 370 S","SANTAQUIN","UT",84655,39.969744265,-111.765284377,139,"987E 370 S, SANTAQUIN, UT, 84655","Match","Non_Exact","987 E 370 S, SANTAQUIN, UT, 84655",227061054,"L"
321140,"988 AVENUE OF PINES ST","GRENADA","MS",38901,33.76616784,-89.8110875799999,140,"988 AVENUE OF PINES ST, GRENADA, MS, 38901","Match","Exact","988 AVE OF PINES ST, GRENADA, MS, 38901",7555704,"R"
321141,"988 BLVD OF THE ARTS APT 1217","SARASOTA","FL",34236,27.3412983650001,-82.5500139759999,141,"988 BLVD OF THE ARTS APT 1217, SARASOTA, FL, 34236","Match","Exact","988 BLVD OF THE ARTS, SARASOTA, FL, 34236",16346950,"R"
321142,"988 CANNON DR","LITTLE ROCK AFB","AR",72099,34.895653662,-92.1443662569999,142,"988 CANNON DR, LITTLE ROCK AFB, AR, 72099","Match","Non_Exact","988 CANNON CIR, LITTLE ROCK AFB, AR, 72099",83589219,"L"
321143,"988 DEBORAH CIRCLE","BOUNTIFUL","UT",84010,NA,NA,143,"988 DEBORAH CIRCLE, BOUNTIFUL, UT, 84010","Tie",NA,NA,NA,NA
321144,"988 E SADDLEBACK PL","SAN TAN VALLEY","AZ",85143,33.136540757,-111.556068161,144,"988 E SADDLEBACK PL, SAN TAN VALLEY, AZ, 85143","Match","Exact","988 SADDLEBACK PL, SAN TAN VALLEY, AZ, 85143",633480700,"L"
321145,"988 EDGEMERE DRIVE","ROCHESTER","NY",14612,43.278410373,-77.650617219,145,"988 EDGEMERE DRIVE, ROCHESTER, NY, 14612","Match","Exact","988 EDGEMERE DR, ROCHESTER, NY, 14612",14526501,"R"
321146,"988 HEATHER LN","CHINO VALLEY","AZ",86323,34.779340619,-112.463798406,146,"988 HEATHER LN, CHINO VALLEY, AZ, 86323","Match","Exact","988 HEATHER LN, CHINO VALLEY, AZ, 86323",636476991,"L"
321147,"988 LEVEL GREEN BLVD","VIRGINIA BEACH","VA",23464,36.8093177920001,-76.205619427,147,"988 LEVEL GREEN BLVD, VIRGINIA BEACH, VA, 23464","Match","Exact","988 LEVEL GREEN BLVD, VA BCH, VA, 23464",122257919,"L"
321148,"988 N ELMWOOD AVE","RIALTO","CA",92376,34.1173978310001,-117.392788845,148,"988 N ELMWOOD AVE, RIALTO, CA, 92376","Match","Exact","988 N ELMWOOD AVE, RIALTO, CA, 92376",144643764,"R"
321149,"988 N FINDLEY ST","OLATHE","KS",66061,38.8960884960001,-94.853812204,149,"988 N FINDLEY ST, OLATHE, KS, 66061","Match","Exact","988 N FINDLEY ST, OLATHE, KS, 66061",91356131,"L"
321150,"988 NORTH CHESTNUTS STREET","DERRY","PA",15627,NA,NA,150,"988 NORTH CHESTNUTS STREET, DERRY, PA, 15627","No_Match",NA,NA,NA,NA
321151,"988 OLYMPIA ROAD","BELLMORE","NY",11710,40.6964771570001,-73.5358391039999,151,"988 OLYMPIA ROAD, BELLMORE, NY, 11710","Match","Exact","988 OLYMPIA RD, BELLMORE, NY, 11710",147636244,"R"
321152,"988 PETERSON RD","CLEAR LAKE","WI",54005,NA,NA,152,"988 PETERSON RD, CLEAR LAKE, WI, 54005","No_Match",NA,NA,NA,NA
321153,"988 SOUTH HIGHWAY 16","STANLEY","NC",28164,NA,NA,153,"988 SOUTH HIGHWAY 16, STANLEY, NC, 28164","No_Match",NA,NA,NA,NA
321154,"988 TRENT ROAD","CAMDEN","NJ",8104,39.90571621,-75.1092975019999,154,"988 TRENT ROAD, CAMDEN, NJ, 8104","Match","Exact","988 TRENT RD, CAMDEN, NJ, 08104",134348427,"R"
321155,"988 URANA AVE","COLUMBUS","OH",43224,40.0353428380001,-82.987632973,155,"988 URANA AVE, COLUMBUS, OH, 43224","Match","Exact","988 URANA AVE, COLUMBUS, OH, 43224",218693948,"L"
321156,"988 WESTWOOD SQUARE SUITE 1004","OVIEDO","FL",32765,28.6556356630001,-81.2242965029999,156,"988 WESTWOOD SQUARE SUITE 1004, OVIEDO, FL, 32765","Match","Exact","988 WESTWOOD SQ, OVIEDO, FL, 32765",93746625,"R"
321157,"9880 ABBINGTON DR","CANFIELD","OH",44406,40.974036278,-80.713929572,157,"9880 ABBINGTON DR, CANFIELD, OH, 44406","Match","Exact","9880 ABBINGTON DR, CANFIELD, OH, 44406",637588357,"L"
321158,"9880 FONTANA COURT","CONCORD","NC",28027,35.4154552890001,-80.744372705,158,"9880 FONTANA COURT, CONCORD, NC, 28027","Match","Exact","9880 FONTANA CT, CONCORD, NC, 28027",24911942,"L"
321159,"9880 LAKESHORE DR","WEST OLIVE","MI",49460,42.947989793,-86.214014202,159,"9880 LAKESHORE DR, WEST OLIVE, MI, 49460","Match","Non_Exact","9880 LAKESHORE DR N, WEST OLIVE, MI, 49460",641564212,"R"
321160,"9880 OLDHAM CV","CORDOVA","TN",38016,35.172080265,-89.7331330659999,160,"9880 OLDHAM CV, CORDOVA, TN, 38016","Match","Exact","9880 OLDHAM COVE, CORDOVA, TN, 38016",607412592,"L"
321161,"9880 PATRIOT RIDGE DR","JACKSONVILLE","FL",32221,30.280793386,-81.8213928389999,161,"9880 PATRIOT RIDGE DR, JACKSONVILLE, FL, 32221","Match","Exact","9880 PATRIOT RIDGE DR, JACKSONVILLE, FL, 32221",650502205,"L"
321162,"9880 RAINLEAF CT","BRISTOW","VA",20136,38.7392331720001,-77.552830086,162,"9880 RAINLEAF CT, BRISTOW, VA, 20136","Match","Exact","9880 RAINLEAF CT, BRISTOW, VA, 20136",207159935,"R"
321163,"9880 SE 176TH STREET","SUMMERFIELD","FL",34491,28.9639677490001,-81.989075316,163,"9880 SE 176TH STREET, SUMMERFIELD, FL, 34491","Match","Exact","9880 SE 176TH ST, SUMMERFIELD, FL, 34491",116763558,"L"
321164,"9880 STAGE RUN DR","OLIVE BRANCH","MS",38654,34.9856803420001,-89.815032389,164,"9880 STAGE RUN DR, OLIVE BRANCH, MS, 38654","Match","Exact","9880 STAGE RUN DR, OLIVE BRANCH, MS, 38654",613284250,"L"
321165,"9880 TIVOLI CHASE DR","ORLANDO","FL",32829,28.49291757,-81.251501285,165,"9880 TIVOLI CHASE DR, ORLANDO, FL, 32829","Match","Exact","9880 TIVOLI CHASE DR, ORLANDO, FL, 32829",94416183,"R"
321166,"9881 COMMERCE STREET STE B","SUMMERVILLE","GA",30747,34.4790484280001,-85.3489577399999,166,"9881 COMMERCE STREET STE B, SUMMERVILLE, GA, 30747","Match","Exact","9881 COMMERCE ST, SUMMERVILLE, GA, 30747",637110670,"L"
321167,"9881 FOX MEADOW ROAD","SAN DIEGO","CA",92127,33.010647546,-117.117872316,167,"9881 FOX MEADOW ROAD, SAN DIEGO, CA, 92127","Match","Exact","9881 FOX MEADOW RD, SAN DIEGO, CA, 92127",612883596,"R"
321168,"9881 N MERIDIAN ROAD","PLEASANT LAKE","MI",49272,42.3779274400001,-84.349139497,168,"9881 N MERIDIAN ROAD, PLEASANT LAKE, MI, 49272","Match","Exact","9881 N MERIDIAN RD, PLEASANT LAKE, MI, 49272",17629739,"L"
321169,"9881 NEW HOPE ROAD","GALT","CA",95632,38.2473593300001,-121.329327869,169,"9881 NEW HOPE ROAD, GALT, CA, 95632","Match","Exact","9881 NEW HOPE RD, GALT, CA, 95632",133409565,"L"
321170,"9883 NORTH TONGASS HWY","KETCHIKAN","AK",99901,55.4222515960001,-131.773341806,170,"9883 NORTH TONGASS HWY, KETCHIKAN, AK, 99901","Match","Exact","9883 N TONGASS HWY, KETCHIKAN, AK, 99901",207094579,"R"
321171,"9883 NOVORA WAY","ELK GROVE","CA",95757,38.3981756790001,-121.428582651,171,"9883 NOVORA WAY, ELK GROVE, CA, 95757","Match","Non_Exact","9883 NOVARA WAY, ELK GROVE, CA, 95757",133434285,"L"
321172,"9884 ILEX STREET NW","COON RAPIDS","MN",55433,45.149206979,-93.277970274,172,"9884 ILEX STREET NW, COON RAPIDS, MN, 55433","Match","Exact","9884 ILEX ST NW, COON RAPIDS, MN, 55433",97494563,"L"
321173,"9885 E PROSPECT RD","HILLSBORO","OH",45133,39.1443143330001,-83.527839415,173,"9885 E PROSPECT RD, HILLSBORO, OH, 45133","Match","Exact","9885 E PROSPECT RD, HILLSBORO, OH, 45133",101074778,"R"
321174,"9886 PINE CIRCLE DRIVE NW","RAPID CITY","MI",49676,NA,NA,174,"9886 PINE CIRCLE DRIVE NW, RAPID CITY, MI, 49676","No_Match",NA,NA,NA,NA
321175,"9888 BELLAIRE BLVD STE 122","HOUSTON","TX",77036,29.7046242210001,-95.555114278,175,"9888 BELLAIRE BLVD STE 122, HOUSTON, TX, 77036","Match","Exact","9888 BELLAIRE BLVD, HOUSTON, TX, 77036",638594571,"R"
321176,"9888 BISSONET STE 130","HOUSTON","TX",77036,29.675110697,-95.553390639,176,"9888 BISSONET STE 130, HOUSTON, TX, 77036","Match","Non_Exact","9888 BISSONNET ST, HOUSTON, TX, 77036",96603425,"R"
321177,"9888 BISSONNET ST   SUITE 620","HOUSTON","TX",77036,29.675110697,-95.553390639,177,"9888 BISSONNET ST   SUITE 620, HOUSTON, TX, 77036","Match","Exact","9888 BISSONNET ST, HOUSTON, TX, 77036",96603425,"R"
321178,"9888 DEVONCOVE DR","PEYTON","CO",80831,NA,NA,178,"9888 DEVONCOVE DR, PEYTON, CO, 80831","No_Match",NA,NA,NA,NA
321179,"9888 E BELLEVIEW SUITE 2092","DENVER","CO",80123,NA,NA,179,"9888 E BELLEVIEW SUITE 2092, DENVER, CO, 80123","No_Match",NA,NA,NA,NA
321180,"9888 PLUM GROVE RD","CLEVELAND","TX",77327,30.187214467,-95.097081034,180,"9888 PLUM GROVE RD, CLEVELAND, TX, 77327","Match","Exact","9888 PLUM GROVE RD, CLEVELAND, TX, 77327",24119271,"L"
321181,"9888 UNITED DR APT 603","HOUSTON","TX",77036,29.7077568980001,-95.554269757,181,"9888 UNITED DR APT 603, HOUSTON, TX, 77036","Match","Exact","9888 UNITED DR, HOUSTON, TX, 77036",638593896,"L"
321182,"9888 UNITED DR STE 2105","HOUSTON","TX",77036,29.7077568980001,-95.554269757,182,"9888 UNITED DR STE 2105, HOUSTON, TX, 77036","Match","Exact","9888 UNITED DR, HOUSTON, TX, 77036",638593896,"L"
321183,"9888 W BELLEVIEW AVE 3033","DENVER","CO",80123,39.624036903,-105.108331757,183,"9888 W BELLEVIEW AVE 3033, DENVER, CO, 80123","Match","Non_Exact","9888 W BELLEVIEW AVE, DENVER, CO, 80123",649715508,"L"
321184,"9889 CYPRESSWOOD DRIVE APT 8210","HOUSTON","TX",77070,29.983484021,-95.5620441309999,184,"9889 CYPRESSWOOD DRIVE APT 8210, HOUSTON, TX, 77070","Match","Exact","9889 CYPRESSWOOD DR, HOUSTON, TX, 77070",642110400,"L"
321185,"9889 LEGOLAS LN","CHARLOTTE","NC",28269,35.3890555520001,-80.7441226879999,185,"9889 LEGOLAS LN, CHARLOTTE, NC, 28269","Match","Exact","9889 LEGOLAS LN, CHARLOTTE, NC, 28269",635645558,"R"
321186,"989 20TH STREET NUMBER 468","SAN FRANCISCO","CA",94107,37.760304128,-122.391250023,186,"989 20TH STREET NUMBER 468, SAN FRANCISCO, CA, 94107","Match","Exact","989 20TH ST, SAN FRANCISCO, CA, 94107",192289635,"L"
321187,"989 ARGYLE","PONTIAC","MI",48341,42.6221421380001,-83.3135551989999,187,"989 ARGYLE, PONTIAC, MI, 48341","Match","Non_Exact","989 ARGYLE AVE, PONTIAC, MI, 48341",69771475,"L"
321188,"989 ARUNDEL DRIVE","ARNOLD","MD",21012,39.0526388690001,-76.4600683369999,188,"989 ARUNDEL DRIVE, ARNOLD, MD, 21012","Match","Exact","989 ARUNDEL DR, ARNOLD, MD, 21012",68199292,"R"
321189,"989 CYPRESS COVE WAY","TARPON SPRINGS","FL",34688,28.131639024,-82.698718774,189,"989 CYPRESS COVE WAY, TARPON SPRINGS, FL, 34688","Match","Exact","989 CYPRESS COVE WAY, TARPON SPNGS, FL, 34688",124825361,"L"
321190,"989 DECKER ROAD","THOMASVILLE","NC",27360,35.7891113900001,-80.1214725089999,190,"989 DECKER ROAD, THOMASVILLE, NC, 27360","Match","Exact","989 DECKER RD, THOMASVILLE, NC, 27360",604813401,"R"
321191,"989 EAST ST  APT 103","DEDHAM","MA",2026,42.228826923,-71.161716508,191,"989 EAST ST  APT 103, DEDHAM, MA, 2026","Match","Exact","989 EAST ST, DEDHAM, MA, 02026",87246236,"R"
321192,"989 KNOX ABBOT DRIVE SUITE 105","CAYCE","SC",29033,33.98116007,-81.064961666,192,"989 KNOX ABBOT DRIVE SUITE 105, CAYCE, SC, 29033","Match","Non_Exact","989 KNOX ABBOTT DR, CAYCE, SC, 29033",70056088,"L"
321193,"989 MONTICELLO HIGHWAY","GRAY","GA",31032,33.0625781570001,-83.5725688749999,193,"989 MONTICELLO HIGHWAY, GRAY, GA, 31032","Match","Exact","989 MONTICELLO HWY, GRAY, GA, 31032",611650400,"R"
321194,"989 N 3525 EAST RD","NEOGA","IL",62447,NA,NA,194,"989 N 3525 EAST RD, NEOGA, IL, 62447","No_Match",NA,NA,NA,NA
321195,"989 N OLD TROY ROAD","UNION CITY","TN",38261,36.3667032870001,-89.151229455,195,"989 N OLD TROY ROAD, UNION CITY, TN, 38261","Match","Exact","989 N OLD TROY RD, UNION CITY, TN, 38261",652877354,"L"
321196,"989 OLD EAGLE SCHOOL ROAD SUITE 815","WAYNE","PA",19087,40.0768896010001,-75.410979089,196,"989 OLD EAGLE SCHOOL ROAD SUITE 815, WAYNE, PA, 19087","Match","Non_Exact","989 OLD EAGLE SCHOOL RD, WAYNE, PA, 19087",642566054,"R"
321197,"989 PEACH AVE 36","EL CAJON","CA",92021,32.8065809020001,-116.948551113,197,"989 PEACH AVE 36, EL CAJON, CA, 92021","Match","Exact","989 PEACH AVE, EL CAJON, CA, 92021",195329180,"R"
321198,"989 PHEASANT RIDGE","KELLER","TX",76248,32.916299193,-97.237548423,198,"989 PHEASANT RIDGE, KELLER, TX, 76248","Match","Exact","989 PHEASANT RIDGE, KELLER, TX, 76248",102093568,"R"
321199,"989 S MAIN STREET STE A 419","COTTONWOOD","AZ",86326,34.747707394,-112.027257742,199,"989 S MAIN STREET STE A 419, COTTONWOOD, AZ, 86326","Match","Non_Exact","989 N MAIN ST, COTTONWOOD, AZ, 86326",159452670,"R"
321200,"989 SKYLARK DR","TROY","OH",45373,40.048652368,-84.183120848,200,"989 SKYLARK DR, TROY, OH, 45373","Match","Exact","989 SKYLARK DR, TROY, OH, 45373",135297958,"L"
321201,"989 SOUTHERN BLVD NW","WARREN","OH",44485,41.2436742850001,-80.854883466,201,"989 SOUTHERN BLVD NW, WARREN, OH, 44485","Match","Exact","989 SOUTHERN BLVD NW, WARREN, OH, 44485",117403982,"L"
321202,"9890 ALLEN ROAD","MARIETTA","OK",73448,33.9270293230001,-97.160731149,202,"9890 ALLEN ROAD, MARIETTA, OK, 73448","Match","Exact","9890 ALLEN RD, MARIETTA, OK, 73448",68934099,"L"
321203,"9890 LILAC ROAD","OAK HILLS","CA",92344,34.4299726680001,-117.42103136,203,"9890 LILAC ROAD, OAK HILLS, CA, 92344","Match","Exact","9890 LILAC RD, OAK HILLS, CA, 92344",144755216,"L"
321204,"9890 OGLE RD NW SLIP 16","BREMERTON","WA",98311,47.652891507,-122.616978448,204,"9890 OGLE RD NW SLIP 16, BREMERTON, WA, 98311","Match","Non_Exact","9890 OGLE RD NE, BREMERTON, WA, 98311",187651097,"R"
321205,"9890 S MARYLAND PARKWAY SUITE 221","LAS VEGAS","NV",89183,NA,NA,205,"9890 S MARYLAND PARKWAY SUITE 221, LAS VEGAS, NV, 89183","No_Match",NA,NA,NA,NA
321206,"9890 STATE ROUTE 152","RICHMOND","OH",43944,NA,NA,206,"9890 STATE ROUTE 152, RICHMOND, OH, 43944","No_Match",NA,NA,NA,NA
321207,"9890 WASHINGTONIAN BLVD","GAITHERSBURG","MD",20878,39.1167035880001,-77.2010452059999,207,"9890 WASHINGTONIAN BLVD, GAITHERSBURG, MD, 20878","Match","Exact","9890 WASHINGTONIAN BLVD, GAITHERSBURG, MD, 20878",640672146,"R"
321208,"9891 GOWANDA STATE RD","EDEN","NY",14057,42.6127264340001,-78.9348953959999,208,"9891 GOWANDA STATE RD, EDEN, NY, 14057","Match","Exact","9891 GOWANDA STATE RD, EDEN, NY, 14057",48321481,"L"
321209,"9891 IRVINE CENTER DRIVE 200","IRVINE","CA",92618,NA,NA,209,"9891 IRVINE CENTER DRIVE 200, IRVINE, CA, 92618","No_Match",NA,NA,NA,NA
321210,"9891 MONTGOMERY RD 175","CINCINNATI","OH",45242,39.236470205,-84.350254218,210,"9891 MONTGOMERY RD 175, CINCINNATI, OH, 45242","Match","Exact","9891 MONTGOMERY RD, CINCINNATI, OH, 45242",103938612,"L"
321211,"9892 OLD HAWN RD","HUNTINGDON","PA",16652,40.576012168,-77.948201207,211,"9892 OLD HAWN RD, HUNTINGDON, PA, 16652","Match","Exact","9892 OLD HAWN RD, HUNTINGDON, PA, 16652",636621892,"L"
321212,"9893 COVE HAVEN CT","LAS VEGAS","NV",89178,36.0090005000001,-115.265523605,212,"9893 COVE HAVEN CT, LAS VEGAS, NV, 89178","Match","Non_Exact","9893 S COVE HAVEN CT, LAS VEGAS, NV, 89178",627342777,"R"
321213,"9894 54TH AVENUE NORTH","ST. PETERSBURG","FL",33708,27.8211998960001,-82.776161985,213,"9894 54TH AVENUE NORTH, ST. PETERSBURG, FL, 33708","Match","Exact","9894 54TH AVE N, SAINT PETERSBURG, FL, 33708",124691999,"L"
321214,"9894 BISSONNET  SUITE 310","HOUSTON","TX",77036,29.6751024960001,-95.553503518,214,"9894 BISSONNET  SUITE 310, HOUSTON, TX, 77036","Match","Non_Exact","9894 BISSONNET ST, HOUSTON, TX, 77036",96603425,"R"
321215,"9894 BISSONNET - SUITE 445","HOUSTON","TX",77036,29.6751024960001,-95.553503518,215,"9894 BISSONNET - SUITE 445, HOUSTON, TX, 77036","Match","Non_Exact","9894 BISSONNET ST, HOUSTON, TX, 77036",96603425,"R"
321216,"9894 BISSONNET ST SUITE 786","HOUSTON","TX",77036,29.6751024960001,-95.553503518,216,"9894 BISSONNET ST SUITE 786, HOUSTON, TX, 77036","Match","Exact","9894 BISSONNET ST, HOUSTON, TX, 77036",96603425,"R"
321217,"9894 BISSONNET STREET SUITE 100M","HOUSTON","TX",77036,29.6751024960001,-95.553503518,217,"9894 BISSONNET STREET SUITE 100M, HOUSTON, TX, 77036","Match","Exact","9894 BISSONNET ST, HOUSTON, TX, 77036",96603425,"R"
321218,"9894 BISSONNET SUITE 100 F","HOUSTON","TX",77036,29.6751024960001,-95.553503518,218,"9894 BISSONNET SUITE 100 F, HOUSTON, TX, 77036","Match","Non_Exact","9894 BISSONNET ST, HOUSTON, TX, 77036",96603425,"R"
321219,"9894 CLIFTY DRIVE","MCCORDVILLE","IN",46055,39.932457029,-85.916328487,219,"9894 CLIFTY DRIVE, MCCORDVILLE, IN, 46055","Match","Non_Exact","9894 CLIFTY DR, MCCORDSVILLE, IN, 46055",640739183,"L"
321220,"9895 FLORIDA BLVD APT 317","BATON ROUGE","LA",70815,30.4563865540001,-91.075065684,220,"9895 FLORIDA BLVD APT 317, BATON ROUGE, LA, 70815","Match","Exact","9895 FLORIDA BLVD, BATON ROUGE, LA, 70815",606166862,"L"
321221,"9895 HORSESHOE RD","LYNCHBURG","OH",45142,39.276951103,-83.733067148,221,"9895 HORSESHOE RD, LYNCHBURG, OH, 45142","Match","Exact","9895 HORSESHOE RD, LYNCHBURG, OH, 45142",638126395,"L"
321222,"9895 VALLEY VIEW DR","COLLEGE STATION","TX",77845,30.5705092790001,-96.382641153,222,"9895 VALLEY VIEW DR, COLLEGE STATION, TX, 77845","Match","Exact","9895 VALLEY VIEW DR, COLLEGE STATION, TX, 77845",651664683,"L"
321223,"9896 BISSONNET ST SUITE 335","HOUSTON","TX",77036,29.675099763,-95.553541144,223,"9896 BISSONNET ST SUITE 335, HOUSTON, TX, 77036","Match","Exact","9896 BISSONNET ST, HOUSTON, TX, 77036",96603425,"R"
321224,"9896 BISSONNET STE 230","HOUSTON","TX",77036,29.675099763,-95.553541144,224,"9896 BISSONNET STE 230, HOUSTON, TX, 77036","Match","Non_Exact","9896 BISSONNET ST, HOUSTON, TX, 77036",96603425,"R"
321225,"9896 BISSONNET STREET SUITE 425","HOUSTON","TX",77036,29.675099763,-95.553541144,225,"9896 BISSONNET STREET SUITE 425, HOUSTON, TX, 77036","Match","Exact","9896 BISSONNET ST, HOUSTON, TX, 77036",96603425,"R"
321226,"9896 WOODGLEN VISTA DR","SANTEE","CA",92071,32.8662204680001,-116.982907516,226,"9896 WOODGLEN VISTA DR, SANTEE, CA, 92071","Match","Exact","9896 WOODGLEN VISTA DR, SANTEE, CA, 92071",195672391,"R"
321227,"9898 BISSONET ST STE 430-O","HOUSTON","TX",77036,29.675097029,-95.5535787699999,227,"9898 BISSONET ST STE 430-O, HOUSTON, TX, 77036","Match","Non_Exact","9898 BISSONNET ST, HOUSTON, TX, 77036",96603425,"R"
321228,"9898 BISSONNET ST STE 388","HOUSTON","TX",77036,29.675097029,-95.5535787699999,228,"9898 BISSONNET ST STE 388, HOUSTON, TX, 77036","Match","Exact","9898 BISSONNET ST, HOUSTON, TX, 77036",96603425,"R"
321229,"9898 BISSONNET STREET STE 589","HOUSTON","TX",77035,29.675097029,-95.5535787699999,229,"9898 BISSONNET STREET STE 589, HOUSTON, TX, 77035","Match","Non_Exact","9898 BISSONNET ST, HOUSTON, TX, 77036",96603425,"R"
321230,"9898 BISSONNET STREET STE 589","HOUSTON","TX",77036,29.675097029,-95.5535787699999,230,"9898 BISSONNET STREET STE 589, HOUSTON, TX, 77036","Match","Exact","9898 BISSONNET ST, HOUSTON, TX, 77036",96603425,"R"
321231,"9898 BISSONNETT ST","HOUSTON","TX",77036,29.675097029,-95.5535787699999,231,"9898 BISSONNETT ST, HOUSTON, TX, 77036","Match","Non_Exact","9898 BISSONNET ST, HOUSTON, TX, 77036",96603425,"R"
321232,"9898 BROADVIEW TERRACE","BAY HARBOR ISLANDS","FL",33154,25.888937175,-80.136800186,232,"9898 BROADVIEW TERRACE, BAY HARBOR ISLANDS, FL, 33154","Match","Exact","9898 BROADVIEW TER, BAY HARBOR ISLANDS, FL, 33154",116038105,"L"
321233,"9898 FALCON CREEK DR","HIGHLANDS RANCH","CO",80130,39.5365632620001,-104.909907655,233,"9898 FALCON CREEK DR, HIGHLANDS RANCH, CO, 80130","Match","Exact","9898 FALCON CREEK DR, HIGHLANDS RANCH, CO, 80130",130819446,"L"
321234,"9898 SALCHA DRIVE","SALCHA","AK",99714,64.4212741690001,-146.895691886,234,"9898 SALCHA DRIVE, SALCHA, AK, 99714","Match","Exact","9898 SALCHA DR, SALCHA, AK, 99714",190925681,"R"
321235,"9898 SW 114 ST","MIAMI","FL",33176,25.6636178310001,-80.354133216,235,"9898 SW 114 ST, MIAMI, FL, 33176","Match","Exact","9898 SW 114TH ST, MIAMI, FL, 33176",115981148,"L"
321236,"9898 WINDMILL LAKES BLVD","HOUSTON","TX",77075,29.626822326,-95.240597093,236,"9898 WINDMILL LAKES BLVD, HOUSTON, TX, 77075","Match","Exact","9898 WINDMILL LAKES BLVD, HOUSTON, TX, 77075",96594164,"L"
321237,"98A VAN DYKE STREET","BROOKLYN","NY",11231,NA,NA,237,"98A VAN DYKE STREET, BROOKLYN, NY, 11231","No_Match",NA,NA,NA,NA
321238,"99 15TH ST 3L","BROOKLYN","NY",11215,40.667547239,-73.993394349,238,"99 15TH ST 3L, BROOKLYN, NY, 11215","Match","Exact","99 15TH ST, BROOKLYN, NY, 11215",59075617,"L"
321239,"99 30 59TH AVENUE APT 4D","CORONA","NY",11368,NA,NA,239,"99 30 59TH AVENUE APT 4D, CORONA, NY, 11368","No_Match",NA,NA,NA,NA
321240,"99 611 IWAIWA STREET","AIEA","HI",96701,NA,NA,240,"99 611 IWAIWA STREET, AIEA, HI, 96701","No_Match",NA,NA,NA,NA
321241,"99 6TH STREET","SANTA ROSA","CA",95401,38.438752498,-122.721713258,241,"99 6TH STREET, SANTA ROSA, CA, 95401","Match","Exact","99 6TH ST, SANTA ROSA, CA, 95401",67469537,"L"
321242,"99 ACADEMY ST","PISCATAWAY","NJ",8854,40.574380385,-74.451282803,242,"99 ACADEMY ST, PISCATAWAY, NJ, 8854","Match","Exact","99 ACADEMY ST, PISCATAWAY, NJ, 08854",60260157,"R"
321243,"99 ACADEMY STREET","PISCATAWAY","NJ",8854,40.574380385,-74.451282803,243,"99 ACADEMY STREET, PISCATAWAY, NJ, 8854","Match","Exact","99 ACADEMY ST, PISCATAWAY, NJ, 08854",60260157,"R"
321244,"99 ANDERER LANE APT 7","BOSTON","MA",2132,42.2933769310001,-71.169022497,244,"99 ANDERER LANE APT 7, BOSTON, MA, 2132","Match","Exact","99 ANDERER LN, BOSTON, MA, 02132",85742245,"L"
321245,"99 ANN LEE ROAD","HARVARD","MA",1451,42.5415363050001,-71.5647999989999,245,"99 ANN LEE ROAD, HARVARD, MA, 1451","Match","Exact","99 ANN LEE RD, HARVARD, MA, 01451",39987837,"L"
321246,"99 ARBOGAST LANE","MORGANTOWN","WV",26508,39.5438694160001,-79.942027556,246,"99 ARBOGAST LANE, MORGANTOWN, WV, 26508","Match","Exact","99 ARBOGAST LN, MORGANTOWN, WV, 26508",50775438,"L"
321247,"99 ARNOLD STREET","METHUEN","MA",1844,42.7217227990001,-71.19361343,247,"99 ARNOLD STREET, METHUEN, MA, 1844","Match","Exact","99 ARNOLD ST, METHUEN, MA, 01844",86624195,"L"
321248,"99 AUPUNI STREET SUITE 206","HILO","HI",96720,19.7178401310001,-155.077381613,248,"99 AUPUNI STREET SUITE 206, HILO, HI, 96720","Match","Exact","99 AUPUNI ST, HILO, HI, 96720",614312831,"L"
321249,"99 AVENUE B 4CD","NEW YORK","NY",10009,40.7248889950001,-73.981336621,249,"99 AVENUE B 4CD, NEW YORK, NY, 10009","Match","Exact","99 AVE B, NEW YORK, NY, 10009",59654711,"R"
321250,"99 BARCLAY STREET","NEWTOWN","PA",18940,40.2222556470001,-74.941426754,250,"99 BARCLAY STREET, NEWTOWN, PA, 18940","Match","Exact","99 BARCLAY ST, NEWTOWN, PA, 18940",635086803,"L"
321251,"99 BATTERY PLACE APT 8D","NEW YORK","NY",10280,40.7080808790001,-74.016657874,251,"99 BATTERY PLACE APT 8D, NEW YORK, NY, 10280","Match","Exact","99 BATTERY PL, NEW YORK, NY, 10280",59663818,"R"
321252,"99 BISHOP ALLEN DRIVE SUITE 100","CAMBRIDGE","MA",2139,42.3658255560001,-71.102264948,252,"99 BISHOP ALLEN DRIVE SUITE 100, CAMBRIDGE, MA, 2139","Match","Exact","99 BISHOP ALLEN DR, CAMBRIDGE, MA, 02139",87108452,"R"
321253,"99 BOSCOBEL RD","FREDERICKSBURG","VA",22405,38.331376978,-77.4049947029999,253,"99 BOSCOBEL RD, FREDERICKSBURG, VA, 22405","Match","Exact","99 BOSCOBEL RD, FREDERICKSBURG, VA, 22405",653483869,"R"
321254,"99 BROOKESMILL LANE","STAFFORD","VA",22554,38.390449167,-77.363362899,254,"99 BROOKESMILL LANE, STAFFORD, VA, 22554","Match","Exact","99 BROOKESMILL LN, STAFFORD, VA, 22554",627025014,"L"
321255,"99 BRYSON ROAD","BREVARD","NC",28712,35.2050141720001,-82.77313928,255,"99 BRYSON ROAD, BREVARD, NC, 28712","Match","Exact","99 BRYSON RD, BREVARD, NC, 28712",650537044,"L"
321256,"99 BUCKINGHAM DRIVE","HACKENSACK","NJ",7601,40.889374731,-74.0585628869999,256,"99 BUCKINGHAM DRIVE, HACKENSACK, NJ, 7601","Match","Exact","99 BUCKINGHAM DR, HACKENSACK, NJ, 07601",64385801,"L"
321257,"99 C STREET SUITE 111","UPLAND","CA",91786,34.0972943960001,-117.649773789,257,"99 C STREET SUITE 111, UPLAND, CA, 91786","Match","Non_Exact","99 E C ST, UPLAND, CA, 91786",144675172,"L"
321258,"99 CALLAN AVE","SAN LEANDRO","CA",94577,37.725926031,-122.156165729,258,"99 CALLAN AVE, SAN LEANDRO, CA, 94577","Match","Exact","99 CALLAN AVE, SAN LEANDRO, CA, 94577",125012070,"R"
321259,"99 CATSKILL AVENUE","YONKERS","NY",10704,40.9276606110001,-73.863487559,259,"99 CATSKILL AVENUE, YONKERS, NY, 10704","Match","Exact","99 CATSKILL AVE, YONKERS, NY, 10704",139745162,"L"
321260,"99 CENTRAL STREET","ASHBURNHAM","MA",1430,42.6298090230001,-71.9125124889999,260,"99 CENTRAL STREET, ASHBURNHAM, MA, 1430","Match","Exact","99 CENTRAL ST, ASHBURNHAM, MA, 01430",637082355,"R"
321261,"99 CHURCH STREET","MALVERNE","NY",11565,40.6764121730001,-73.666378467,261,"99 CHURCH STREET, MALVERNE, NY, 11565","Match","Exact","99 CHURCH ST, MALVERNE, NY, 11565",147674960,"L"
321262,"99 CLARKSVILLE ROAD","WEST WINDSOR","NJ",8550,40.2951434570001,-74.655919846,262,"99 CLARKSVILLE ROAD, WEST WINDSOR, NJ, 8550","Match","Exact","99 CLARKSVILLE RD, WEST WINDSOR, NJ, 08550",645262628,"L"
321263,"99 CLAY STREET","ANNAPOLIS","MD",21401,38.9796962460001,-76.498295695,263,"99 CLAY STREET, ANNAPOLIS, MD, 21401","Match","Exact","99 CLAY ST, ANNAPOLIS, MD, 21401",68172917,"L"
321264,"99 COLLIER STREET SUITE 400","BINGHAMTON","NY",13901,42.0985531800001,-75.911601709,264,"99 COLLIER STREET SUITE 400, BINGHAMTON, NY, 13901","Match","Exact","99 COLLIER ST, BINGHAMTON, NY, 13901",46372845,"L"
321265,"99 COMMERCE PLACE 325 A/B","LARGO","MD",20774,38.8918373920001,-76.836143534,265,"99 COMMERCE PLACE 325 A/B, LARGO, MD, 20774","Match","Exact","99 COMMERCE PL, LARGO, MD, 20774",76381597,"R"
321266,"99 COMMERCIAL STREET BOX 7","BROOKLYN","NY",11222,40.7374624730001,-73.9563904349999,266,"99 COMMERCIAL STREET BOX 7, BROOKLYN, NY, 11222","Match","Exact","99 COMMERCIAL ST, BROOKLYN, NY, 11222",59076225,"L"
321267,"99 CONCORD ST","NORTH READING","MA",1864,NA,NA,267,"99 CONCORD ST, NORTH READING, MA, 1864","No_Match",NA,NA,NA,NA
321268,"99 CORLISS STREET","PROVIDENCE","RI",2904,41.8423321770001,-71.412074619,268,"99 CORLISS STREET, PROVIDENCE, RI, 2904","Match","Exact","99 CORLISS ST, PROVIDENCE, RI, 02904",47463478,"L"
321269,"99 CRANBERRY TERRACE","CRANSTON","RI",2921,41.778105386,-71.526548745,269,"99 CRANBERRY TERRACE, CRANSTON, RI, 2921","Match","Exact","99 CRANBERRY TER, CRANSTON, RI, 02921",47482470,"L"
321270,"99 CRESTVIEW DRIVE","GREENWOOD","IN",46143,NA,NA,270,"99 CRESTVIEW DRIVE, GREENWOOD, IN, 46143","No_Match",NA,NA,NA,NA
321271,"99 DARREN DRIVE","BROCKTON","MA",2301,42.091755908,-71.07262407,271,"99 DARREN DRIVE, BROCKTON, MA, 2301","Match","Exact","99 DARREN DR, BROCKTON, MA, 02301",87441226,"L"
321272,"99 DEGRAFF ST","SCHENECTADY","NY",12308,NA,NA,272,"99 DEGRAFF ST, SCHENECTADY, NY, 12308","No_Match",NA,NA,NA,NA
321273,"99 DROVER DRIVE","FORT WORTH","TX",76244,32.918887727,-97.2641520019999,273,"99 DROVER DRIVE, FORT WORTH, TX, 76244","Match","Exact","99 DROVER DR, FORT WORTH, TX, 76244",101860084,"L"
321274,"99 E ARIZONA AVE  1559","DENVER","CO",80210,NA,NA,274,"99 E ARIZONA AVE  1559, DENVER, CO, 80210","No_Match",NA,NA,NA,NA
321275,"99 E ORANGETHORPE AVENUE","AHAHEIM","CA",92801,NA,NA,275,"99 E ORANGETHORPE AVENUE, AHAHEIM, CA, 92801","No_Match",NA,NA,NA,NA
321276,"99 E ORANGETHORPE AVENUE","ANAHEIM","CA",92801,NA,NA,276,"99 E ORANGETHORPE AVENUE, ANAHEIM, CA, 92801","No_Match",NA,NA,NA,NA
321277,"99 E PINE DR","BAILEY","CO",80421,NA,NA,277,"99 E PINE DR, BAILEY, CO, 80421","Tie",NA,NA,NA,NA
321278,"99 EAGLE RIDGE RD","FLOYDS KNOBS","IN",47119,NA,NA,278,"99 EAGLE RIDGE RD, FLOYDS KNOBS, IN, 47119","No_Match",NA,NA,NA,NA
321279,"99 EAGLE RIDGE RD","FLOYDS KNOBS","KY",47119,NA,NA,279,"99 EAGLE RIDGE RD, FLOYDS KNOBS, KY, 47119","No_Match",NA,NA,NA,NA
321280,"99 EAST 86 AVENUE","MERRILLVILLE","IN",46410,41.46199331,-87.334379051,280,"99 EAST 86 AVENUE, MERRILLVILLE, IN, 46410","Match","Exact","99 E 86TH AVE, MERRILLVILLE, IN, 46410",606269357,"R"
321281,"99 EAST MAIN STREET","UNIONTOWN","PA",15401,39.900852098,-79.721984452,281,"99 EAST MAIN STREET, UNIONTOWN, PA, 15401","Match","Exact","99 E MAIN ST, UNIONTOWN, PA, 15401",51138060,"R"
321282,"99 EDEN DR","YEAGERTOWN","PA",17099,40.654366194,-77.5627744129999,282,"99 EDEN DR, YEAGERTOWN, PA, 17099","Match","Exact","99 EDEN DR, YEAGERTOWN, PA, 17099",48020892,"L"
321283,"99 ENGLISH DRIVE","CANDLER","NC",28715,35.5676026140001,-82.6480748019999,283,"99 ENGLISH DRIVE, CANDLER, NC, 28715","Match","Exact","99 ENGLISH DR, CANDLER, NC, 28715",36867152,"L"
321284,"99 EUTAW AVE","LYNN","MA",1902,42.4783842310001,-70.942148162,284,"99 EUTAW AVE, LYNN, MA, 1902","Match","Exact","99 EUTAW AVE, LYNN, MA, 01902",86645259,"R"
321285,"99 FAWN HILL COURT","GARNER","NC",27529,35.5793124730001,-78.584753368,285,"99 FAWN HILL COURT, GARNER, NC, 27529","Match","Exact","99 FAWN HILL CT, GARNER, NC, 27529",632353998,"R"
321286,"99 FLEETWOOD DR","PALM COAST","FL",32137,29.56581005,-81.221597574,286,"99 FLEETWOOD DR, PALM COAST, FL, 32137","Match","Exact","99 FLEETWOOD DR, PALM COAST, FL, 32137",94948559,"L"
321287,"99 FRIENDSHIP WAY","PARKESBURG","PA",19365,NA,NA,287,"99 FRIENDSHIP WAY, PARKESBURG, PA, 19365","No_Match",NA,NA,NA,NA
321288,"99 GALLEY HILL RD","CUDDEBACKVILLE","NY",12729,41.453643362,-74.591773431,288,"99 GALLEY HILL RD, CUDDEBACKVILLE, NY, 12729","Match","Exact","99 GALLEY HILL RD, CUDDEBACKVILLE, NY, 12729",124440027,"R"
321289,"99 GARDNER ROAD","BROOKLINE","MA",2445,42.3361849930001,-71.129013333,289,"99 GARDNER ROAD, BROOKLINE, MA, 2445","Match","Exact","99 GARDNER RD, BROOKLINE, MA, 02445",87245155,"R"
321290,"99 GARNSEY ROAD","PITTSFORD","NY",14534,43.053108487,-77.465234467,290,"99 GARNSEY ROAD, PITTSFORD, NY, 14534","Match","Exact","99 GARNSEY RD, PITTSFORD, NY, 14534",14572653,"R"
321291,"99 GONZALES RD","EDGEWOOD","NM",87015,34.9823007110001,-106.241947236,291,"99 GONZALES RD, EDGEWOOD, NM, 87015","Match","Exact","99 GONZALES RD, EDGEWOOD, NM, 87015",169588087,"R"
321292,"99 GRAYMOOR LANE","OLYMPIA FIELDS","IL",60461,41.5276700090001,-87.6679165479999,292,"99 GRAYMOOR LANE, OLYMPIA FIELDS, IL, 60461","Match","Exact","99 GRAYMOOR LN, OLYMPIA FIELDS, IL, 60461",111709944,"R"
321293,"99 GULF STREET","MILFORD","CT",6460,41.224258144,-73.049708225,293,"99 GULF STREET, MILFORD, CT, 6460","Match","Exact","99 GULF ST, MILFORD, CT, 06460",3714745,"R"
321294,"99 HALLSPUR RD","HAZLEHURST","GA",31539,31.9019171460001,-82.579869805,294,"99 HALLSPUR RD, HAZLEHURST, GA, 31539","Match","Exact","99 HALLSPUR RD, HAZLEHURST, GA, 31539",624484336,"L"
321295,"99 HALLSPUR ROAD","HAZLEHURST","GA",31549,31.9019171460001,-82.579869805,295,"99 HALLSPUR ROAD, HAZLEHURST, GA, 31549","Match","Non_Exact","99 HALLSPUR RD, HAZLEHURST, GA, 31539",624484336,"L"
321296,"99 HAMPTON HALL BLVD","BLUFFTON","SC",29910,32.2490592570001,-80.912993731,296,"99 HAMPTON HALL BLVD, BLUFFTON, SC, 29910","Match","Exact","99 HAMPTON HALL BLVD, BLUFFTON, SC, 29910",635578024,"R"
321297,"99 HANCOCK ST","LEXINGTON","MA",2420,42.4607277320001,-71.230246334,297,"99 HANCOCK ST, LEXINGTON, MA, 2420","Match","Exact","99 HANCOCK ST, LEXINGTON, MA, 02420",646925463,"L"
321298,"99 HANCOCK STREET","LEXINGTON","MA",2420,42.4607277320001,-71.230246334,298,"99 HANCOCK STREET, LEXINGTON, MA, 2420","Match","Exact","99 HANCOCK ST, LEXINGTON, MA, 02420",646925463,"L"
321299,"99 HIGHLAND AVE","EPHRATA","PA",17522,40.1827530140001,-76.178705603,299,"99 HIGHLAND AVE, EPHRATA, PA, 17522","Match","Exact","99 HIGHLAND AVE, EPHRATA, PA, 17522",179669453,"R"
321300,"99 HILLSIDE AVE","CONCORD","NC",28025,35.393133979,-80.570037112,300,"99 HILLSIDE AVE, CONCORD, NC, 28025","Match","Non_Exact","99 HILLSIDE AVE SW, CONCORD, NC, 28025",24900492,"L"
321301,"99 HONOLII PL","HILO","HI",96720,19.7578190020001,-155.09096019,301,"99 HONOLII PL, HILO, HI, 96720","Match","Exact","99 HONOLII PL, HILO, HI, 96720",614311271,"L"
321302,"99 HOOMALU STREET","HILO","HI",96720,19.6757603140001,-155.093261375,302,"99 HOOMALU STREET, HILO, HI, 96720","Match","Exact","99 HOOMALU ST, HILO, HI, 96720",203000221,"L"
321303,"99 HUDSON STREET 5TH FL","NEW YORK","NY",10013,40.719248131,-74.008713504,303,"99 HUDSON STREET 5TH FL, NEW YORK, NY, 10013","Match","Exact","99 HUDSON ST, NEW YORK, NY, 10013",59660174,"L"
321304,"99 HUNTERS LANE","ANDERSON","SC",29625,34.520095575,-82.700999301,304,"99 HUNTERS LANE, ANDERSON, SC, 29625","Match","Exact","99 HUNTERS LN, ANDERSON, SC, 29625",25492873,"L"
321305,"99 HUSTED LANE","GREENWICH","CT",6830,41.0597533800001,-73.6302928119999,305,"99 HUSTED LANE, GREENWICH, CT, 6830","Match","Exact","99 HUSTED LN, GREENWICH, CT, 06830",3256340,"R"
321306,"99 INDIAN MILL LANE","CLEARFIELD","PA",16830,41.0102253470001,-78.3882313239999,306,"99 INDIAN MILL LANE, CLEARFIELD, PA, 16830","Match","Exact","99 INDIAN MILL LN, CLEARFIELD, PA, 16830",50514176,"L"
321307,"99 JANE STREET 11AB","NEW YORK","NY",10014,40.7381515870001,-74.008294946,307,"99 JANE STREET 11AB, NEW YORK, NY, 10014","Match","Exact","99 JANE ST, NEW YORK, NY, 10014",640900702,"R"
321308,"99 JERICHO TPKE  SUITE 300F","JERICHO","NY",11753,40.786732198,-73.5481847039999,308,"99 JERICHO TPKE  SUITE 300F, JERICHO, NY, 11753","Match","Non_Exact","99 JERICHO PLZ, JERICHO, NY, 11753",147826725,"L"
321309,"99 JERICHO TPKE SUITE F","JERICHO","NY",11753,40.786732198,-73.5481847039999,309,"99 JERICHO TPKE SUITE F, JERICHO, NY, 11753","Match","Non_Exact","99 JERICHO PLZ, JERICHO, NY, 11753",147826725,"L"
321310,"99 KING STREET  STE 10","ST AUGUSTINE","FL",32085,29.8917281560001,-81.316542536,310,"99 KING STREET  STE 10, ST AUGUSTINE, FL, 32085","Match","Non_Exact","99 KING ST, SAINT AUGUSTINE, FL, 32084",92582252,"R"
321311,"99 KING STREET SUITE 237","SAINT AUGUSTINE","FL",32084,29.8917281560001,-81.316542536,311,"99 KING STREET SUITE 237, SAINT AUGUSTINE, FL, 32084","Match","Exact","99 KING ST, SAINT AUGUSTINE, FL, 32084",92582252,"R"
321312,"99 KINGBROOK RD APT 7","LINTHICUM","MD",21090,39.2099232350001,-76.66150949,312,"99 KINGBROOK RD APT 7, LINTHICUM, MD, 21090","Match","Exact","99 KINGBROOK RD, LINTHICUM, MD, 21090",68155113,"L"
321313,"99 KNEELAND STREET","BOSTON","MA",2111,42.3499403500001,-71.05899916,313,"99 KNEELAND STREET, BOSTON, MA, 2111","Match","Exact","99 KNEELAND ST, BOSTON, MA, 02111",85730394,"R"
321314,"99 LAKESHORE DR","LAGRANGE","GA",30240,33.0637984150001,-85.062604245,314,"99 LAKESHORE DR, LAGRANGE, GA, 30240","Match","Exact","99 LAKESHORE DR, LAGRANGE, GA, 30240",1761368,"L"
321315,"99 LIBERTY ST","TUSTIN","CA",92782,33.704817561,-117.80257115,315,"99 LIBERTY ST, TUSTIN, CA, 92782","Match","Exact","99 LIBERTY ST, TUSTIN, CA, 92782",624618228,"L"
321316,"99 LINDEN AVENUE","JERSEY CITY","NJ",7305,40.6949257320001,-74.091285085,316,"99 LINDEN AVENUE, JERSEY CITY, NJ, 7305","Match","Exact","99 LINDEN AVE, JERSEY CITY, NJ, 07305",59603329,"L"
321317,"99 LORING AVENUE","FRAMINGHAM","MA",1701,NA,NA,317,"99 LORING AVENUE, FRAMINGHAM, MA, 1701","No_Match",NA,NA,NA,NA
321318,"99 MADISON AVE FL 601","NEW YORK","NY",10016,40.744728003,-73.985161207,318,"99 MADISON AVE FL 601, NEW YORK, NY, 10016","Match","Exact","99 MADISON AVE, NEW YORK, NY, 10016",59653489,"R"
321319,"99 MADISON AVENUE 8TH FLOOR","NEW YORK","NY",10016,40.744728003,-73.985161207,319,"99 MADISON AVENUE 8TH FLOOR, NEW YORK, NY, 10016","Match","Exact","99 MADISON AVE, NEW YORK, NY, 10016",59653489,"R"
321320,"99 MADISON AVENUE FL 5","NEW YORK","NY",10016,40.744728003,-73.985161207,320,"99 MADISON AVENUE FL 5, NEW YORK, NY, 10016","Match","Exact","99 MADISON AVE, NEW YORK, NY, 10016",59653489,"R"
321321,"99 MAGNOLIA DRIVE","BAXLEY","GA",31513,31.7677273890001,-82.303971862,321,"99 MAGNOLIA DRIVE, BAXLEY, GA, 31513","Match","Exact","99 MAGNOLIA DR, BAXLEY, GA, 31513",636376432,"L"
321322,"99 MAIN ST - STE 2","HILTON HEAD ISLAND","SC",29926,32.2168198690001,-80.721129676,322,"99 MAIN ST - STE 2, HILTON HEAD ISLAND, SC, 29926","Match","Exact","99 MAIN ST, HILTON HEAD ISLAND, SC, 29926",629716241,"R"
321323,"99 MAPLE DR W","NEW HYDE PARK","NY",11040,40.7418911780001,-73.687582649,323,"99 MAPLE DR W, NEW HYDE PARK, NY, 11040","Match","Exact","99 MAPLE DR W, NEW HYDE PARK, NY, 11040",147665927,"L"
321324,"99 MAPLE ST","JACKSON","MN",56143,43.622365501,-94.977891514,324,"99 MAPLE ST, JACKSON, MN, 56143","Match","Exact","99 MAPLE ST, JACKSON, MN, 56143",9935506,"L"
321325,"99 MAPLEWOOD DR","BRICK","NJ",8723,40.06511612,-74.157420906,325,"99 MAPLEWOOD DR, BRICK, NJ, 8723","Match","Exact","99 MAPLEWOOD DR, BRICK, NJ, 08723",203725041,"L"
321326,"99 MARION STREET NO 1","BROOKLINE","MA",2446,42.340242571,-71.1258293129999,326,"99 MARION STREET NO 1, BROOKLINE, MA, 2446","Match","Non_Exact","99 MARION ST, BROOKLINE, MA, 02446",87245150,"R"
321327,"99 MARY BETH AVE","HOUMA","LA",70364,29.668054566,-90.7099016069999,327,"99 MARY BETH AVE, HOUMA, LA, 70364","Match","Exact","99 MARY BETH AVE, HOUMA, LA, 70364",647360111,"R"
321328,"99 MELBA LN","EASTSOUND","WA",98245,48.6348885470001,-122.963940194,328,"99 MELBA LN, EASTSOUND, WA, 98245","Match","Exact","99 MELBA LN, EASTSOUND, WA, 98245",152187423,"L"
321329,"99 METROPOLITAN AVENUE","CRANSTON","RI",2920,41.771364007,-71.4768005619999,329,"99 METROPOLITAN AVENUE, CRANSTON, RI, 2920","Match","Exact","99 METROPOLITAN AVE, CRANSTON, RI, 02920",47499597,"R"
321330,"99 METROPOLITAN OVAL","BRONX","NY",10462,40.8384786780001,-73.860683547,330,"99 METROPOLITAN OVAL, BRONX, NY, 10462","Match","Exact","99 METROPOLITAN OVAL, BRONX, NY, 10462",80311796,"L"
321331,"99 MOLINE ST","AURORA","CO",80010,39.7153705430001,-104.856198235,331,"99 MOLINE ST, AURORA, CO, 80010","Match","Non_Exact","99 N MOLINE ST, AURORA, CO, 80010",177556179,"R"
321332,"99 MONTGOMERY ST","HIGHLAND PARK","NJ",8904,40.4996890840001,-74.432891538,332,"99 MONTGOMERY ST, HIGHLAND PARK, NJ, 8904","Match","Exact","99 MONTGOMERY ST, HIGHLAND PARK, NJ, 08904",60287676,"L"
321333,"99 MONUMENT ST APT 2","PORTLAND","ME",4101,43.6640704810001,-70.248598489,333,"99 MONUMENT ST APT 2, PORTLAND, ME, 4101","Match","Exact","99 MONUMENT ST, PORTLAND, ME, 04101",78028501,"R"
321334,"99 MORRIS AVE  STE 102","SPRINGFIELD","NJ",7081,40.708673295,-74.3038448629999,334,"99 MORRIS AVE  STE 102, SPRINGFIELD, NJ, 7081","Match","Exact","99 MORRIS AVE, SPRINGFIELD, NJ, 07081",60568928,"L"
321335,"99 MYERS CORNERS ROAD","WAPPINGERS FALLS","NY",12590,41.593876084,-73.8913706229999,335,"99 MYERS CORNERS ROAD, WAPPINGERS FALLS, NY, 12590","Match","Exact","99 MYERS CORNERS RD, WAPPINGERS FALLS, NY, 12590",4162977,"L"
321336,"99 N LA CIENEGA BLVD SUITE 109","BEVERLY HILLS","CA",90211,34.067256887,-118.376253662,336,"99 N LA CIENEGA BLVD SUITE 109, BEVERLY HILLS, CA, 90211","Match","Non_Exact","99 N LA CIENEGA BLVD, BEVERLY HILLS, CA, 90211",141572932,"L"
321337,"99 N WASHINGTON STREET","SONORA","CA",95370,37.98644964,-120.384177333,337,"99 N WASHINGTON STREET, SONORA, CA, 95370","Match","Exact","99 N WASHINGTON ST, SONORA, CA, 95370",101372999,"R"
321338,"99 NEEDHAM STREET 1104","NEWTON","MA",2461,42.313962356,-71.211529164,338,"99 NEEDHAM STREET 1104, NEWTON, MA, 2461","Match","Exact","99 NEEDHAM ST, NEWTON, MA, 02461",86866299,"R"
321339,"99 NESBIT STREET","PUNTA GORDA","FL",33950,26.9376399880001,-82.0487463859999,339,"99 NESBIT STREET, PUNTA GORDA, FL, 33950","Match","Exact","99 NESBIT ST, PUNTA GORDA, FL, 33950",647555968,"L"
321340,"99 NORTH RD","TIVOLI","NY",12583,42.065414038,-73.907720657,340,"99 NORTH RD, TIVOLI, NY, 12583","Match","Exact","99 NORTH RD, TIVOLI, NY, 12583",640455887,"R"
321341,"99 NORTHRIDGE RD","WESTFIELD","MA",1085,42.0889012800001,-72.7054949129999,341,"99 NORTHRIDGE RD, WESTFIELD, MA, 1085","Match","Exact","99 NORTHRIDGE RD, WESTFIELD, MA, 01085",4031821,"R"
321342,"99 NW 183RD STREET  SUITE 130B","MIAMI GARDENS","FL",33169,25.9426226310001,-80.203045403,342,"99 NW 183RD STREET  SUITE 130B, MIAMI GARDENS, FL, 33169","Match","Non_Exact","99 NW 183RD ST, MIAMI GARDENS, FL, 33169",116030555,"R"
321343,"99 NW 183RD STREET SUITE 106","NORTH MIAMI BEACH","FL",33169,25.9426226310001,-80.203045403,343,"99 NW 183RD STREET SUITE 106, NORTH MIAMI BEACH, FL, 33169","Match","Non_Exact","99 NW 183RD ST, N MIAMI BEACH, FL, 33169",116030555,"R"
321344,"99 NW 183RD STREET SUITE 204B","MIAMI","FL",33169,25.9426226310001,-80.203045403,344,"99 NW 183RD STREET SUITE 204B, MIAMI, FL, 33169","Match","Non_Exact","99 NW 183RD ST, MIAMI, FL, 33169",116030555,"R"
321345,"99 NW 183RD STREET SUITE 242C","MIAMI","FL",33169,25.9426226310001,-80.203045403,345,"99 NW 183RD STREET SUITE 242C, MIAMI, FL, 33169","Match","Non_Exact","99 NW 183RD ST, MIAMI, FL, 33169",116030555,"R"
321346,"99 OAK GROVE DRIVE","DALLAS","GA",30157,33.9438415230001,-84.749154559,346,"99 OAK GROVE DRIVE, DALLAS, GA, 30157","Match","Exact","99 OAK GROVE DR, DALLAS, GA, 30157",17742331,"L"
321347,"99 PACIFIC AVENUE","SHARPSBURG","GA",30277,33.358178853,-84.70113378,347,"99 PACIFIC AVENUE, SHARPSBURG, GA, 30277","Match","Exact","99 PACIFIC AVE, SHARPSBURG, GA, 30277",625215843,"L"
321348,"99 PARK AVENUE 26TH FLOOR","NEW YORK","NY",10016,40.7507920620001,-73.978634208,348,"99 PARK AVENUE 26TH FLOOR, NEW YORK, NY, 10016","Match","Exact","99 PARK AVE, NEW YORK, NY, 10016",59661970,"R"
321349,"99 PEACHTREE STREET SW SUITE 106","ATLANTA","GA",30303,33.7519346220001,-84.392258684,349,"99 PEACHTREE STREET SW SUITE 106, ATLANTA, GA, 30303","Match","Exact","99 PEACHTREE ST SW, ATLANTA, GA, 30303",17344306,"R"
321350,"99 PEAPACK RD","FAR HILLS","NJ",7931,40.6891625540001,-74.643858724,350,"99 PEAPACK RD, FAR HILLS, NJ, 7931","Match","Exact","99 PEAPACK RD, FAR HILLS, NJ, 07931",647408729,"L"
321351,"99 PINE STREET","WEST SPRINGFIELD","MA",1089,42.106666762,-72.6399502479999,351,"99 PINE STREET, WEST SPRINGFIELD, MA, 1089","Match","Exact","99 PINE ST, W SPRINGFIELD, MA, 01089",4032432,"L"
321352,"99 PITTS SCHOOL ROAD NW","CONCORD","NC",28027,35.372866512,-80.6694701659999,352,"99 PITTS SCHOOL ROAD NW, CONCORD, NC, 28027","Match","Exact","99 PITTS SCHOOL RD NW, CONCORD, NC, 28027",24893861,"L"
321353,"99 POND AVENUE STE 309","BROOKLINE","MA",2445,42.3291681750001,-71.115466181,353,"99 POND AVENUE STE 309, BROOKLINE, MA, 2445","Match","Exact","99 POND AVE, BROOKLINE, MA, 02445",650046271,"R"
321354,"99 PRINCETON AVENUE","STEUBENVILLE","OH",43952,40.3726717260001,-80.679706137,354,"99 PRINCETON AVENUE, STEUBENVILLE, OH, 43952","Match","Exact","99 PRINCETON AVE, STEUBENVILLE, OH, 43952",37800232,"R"
321355,"99 RICE DRIVE","MORRISVILLE","PA",19067,40.196938689,-74.820985335,355,"99 RICE DRIVE, MORRISVILLE, PA, 19067","Match","Exact","99 RICE DR, MORRISVILLE, PA, 19067",134807791,"R"
321356,"99 RIVER ROAD","RANCHESTER","WY",82839,44.900665426,-107.142037287,356,"99 RIVER ROAD, RANCHESTER, WY, 82839","Match","Exact","99 RIVER RD, RANCHESTER, WY, 82839",605386043,"R"
321357,"99 RODMAN STREET","FALL RIVER","MA",2721,41.6977658870001,-71.15721783,357,"99 RODMAN STREET, FALL RIVER, MA, 2721","Match","Exact","99 RODMAN ST, FALL RIVER, MA, 02721",46770243,"R"
321358,"99 S ALMADEN BLVD SUITE 600","SAN JOSE","CA",95113,NA,NA,358,"99 S ALMADEN BLVD SUITE 600, SAN JOSE, CA, 95113","No_Match",NA,NA,NA,NA
321359,"99 S CENTRAL AVE","SOMERSET","KY",42501,37.091976957,-84.602078385,359,"99 S CENTRAL AVE, SOMERSET, KY, 42501","Match","Exact","99 S CENTRAL AVE, SOMERSET, KY, 42501",39079256,"R"
321360,"99 S CHURCH AVE","TUCSON","AZ",85705,32.221104725,-110.972376644,360,"99 S CHURCH AVE, TUCSON, AZ, 85705","Match","Non_Exact","99 S CHURCH AVE, TUCSON, AZ, 85701",121170741,"L"
321361,"99 S MAPLE AVENUE","RIDGEWOOD","NJ",7450,40.9764305790001,-74.114551435,361,"99 S MAPLE AVENUE, RIDGEWOOD, NJ, 7450","Match","Exact","99 S MAPLE AVE, RIDGEWOOD, NJ, 07450",64376551,"L"
321362,"99 S NEW YORK AVENUE","WINTER PARK","FL",32789,NA,NA,362,"99 S NEW YORK AVENUE, WINTER PARK, FL, 32789","No_Match",NA,NA,NA,NA
321363,"99 S WALNUT ST UNIT 646","YOUNGSTOWN","OH",44501,NA,NA,363,"99 S WALNUT ST UNIT 646, YOUNGSTOWN, OH, 44501","No_Match",NA,NA,NA,NA
321364,"99 SAINT ANDREWS BLVD","CLIFTON","NJ",7012,40.8556947610001,-74.166525426,364,"99 SAINT ANDREWS BLVD, CLIFTON, NJ, 7012","Match","Exact","99 SAINT ANDREWS BLVD, CLIFTON, NJ, 07012",65270812,"L"
321365,"99 SHAFTSBURY ROAD","CLEMSON","SC",29631,34.69149817,-82.7981038999999,365,"99 SHAFTSBURY ROAD, CLEMSON, SC, 29631","Match","Exact","99 SHAFTSBURY RD, CLEMSON, SC, 29631",26214660,"L"
321366,"99 SIKES AVENUE","LOUISVILLE","MS",39339,33.119215603,-89.0464111159999,366,"99 SIKES AVENUE, LOUISVILLE, MS, 39339","Match","Exact","99 SIKES AVE, LOUISVILLE, MS, 39339",909708,"L"
321367,"99 SMALLWOOD AVE","BELLEVILLE","NJ",7109,40.7939241870001,-74.17460563,367,"99 SMALLWOOD AVE, BELLEVILLE, NJ, 7109","Match","Exact","99 SMALLWOOD AVE, BELLEVILLE, NJ, 07109",63454330,"L"
321368,"99 SMITHTOWN BLVD","SMITHTOWN","NY",11787,40.83900908,-73.164788603,368,"99 SMITHTOWN BLVD, SMITHTOWN, NY, 11787","Match","Exact","99 SMITHTOWN BLVD, SMITHTOWN, NY, 11787",113989209,"L"
321369,"99 SPRUCE TREE RD","NOXEN","PA",18636,41.3704573680001,-76.086184529,369,"99 SPRUCE TREE RD, NOXEN, PA, 18636","Match","Exact","99 SPRUCE TREE RD, NOXEN, PA, 18636",648998967,"L"
321370,"99 SUNBRIGHT DRIVE","BRIDGEWATER","VA",22812,38.3887651650001,-78.955586656,370,"99 SUNBRIGHT DRIVE, BRIDGEWATER, VA, 22812","Match","Exact","99 SUNBRIGHT DR, BRIDGEWATER, VA, 22812",55729624,"L"
321371,"99 SUNSET PINES DRIVE","HOWELL","MI",48843,42.530865277,-83.935981426,371,"99 SUNSET PINES DRIVE, HOWELL, MI, 48843","Match","Exact","99 SUNSET PINES DR, HOWELL, MI, 48843",635844197,"L"
321372,"99 TIFFANY BLVD","NEWARK","NJ",7104,40.785283292,-74.1654623269999,372,"99 TIFFANY BLVD, NEWARK, NJ, 7104","Match","Exact","99 TIFFANY BLVD, NEWARK, NJ, 07104",63454537,"R"
321373,"99 VILLAGE DRIVE SUITE 5","JACKSONVILLE","NC",28546,34.7475543640001,-77.3769548619999,373,"99 VILLAGE DRIVE SUITE 5, JACKSONVILLE, NC, 28546","Match","Exact","99 VILLAGE DR, JACKSONVILLE, NC, 28546",14012889,"L"
321374,"99 VISTA MONTANA UNIT 4521","SAN JOSE","CA",95134,37.4121488050001,-121.956424597,374,"99 VISTA MONTANA UNIT 4521, SAN JOSE, CA, 95134","Match","Exact","99 VIS MONTANA, SAN JOSE, CA, 95134",648198597,"L"
321375,"99 W CALIFORNIA BLVD 50024","PASADENA","CA",91105,34.135775659,-118.15225824,375,"99 W CALIFORNIA BLVD 50024, PASADENA, CA, 91105","Match","Non_Exact","99 W CALIFORNIA BLVD, PASADENA, CA, 91105",241111176,"R"
321376,"99 W CALIFORNIA BLVD 50204","PASADENA","CA",91105,34.135775659,-118.15225824,376,"99 W CALIFORNIA BLVD 50204, PASADENA, CA, 91105","Match","Non_Exact","99 W CALIFORNIA BLVD, PASADENA, CA, 91105",241111176,"R"
321377,"99 W CALIFORNIA BLVD STE 50204","PASADENA","CA",91105,34.135775659,-118.15225824,377,"99 W CALIFORNIA BLVD STE 50204, PASADENA, CA, 91105","Match","Non_Exact","99 W CALIFORNIA BLVD, PASADENA, CA, 91105",241111176,"R"
321378,"99 W FRONT ST","POTTS CAMP","MS",38659,34.6475548820001,-89.308718932,378,"99 W FRONT ST, POTTS CAMP, MS, 38659","Match","Non_Exact","99 W FRONT AVE, POTTS CAMP, MS, 38659",72833659,"L"
321379,"99 W OVERLOOK","PORT WASHINGTON","NY",11050,40.827706081,-73.668015058,379,"99 W OVERLOOK, PORT WASHINGTON, NY, 11050","Match","Exact","99 W OVERLOOK, PORT WASHINGTON, NY, 11050",648303915,"R"
321380,"99 WALL ST STE 4800","NEW YORK","NY",10005,40.7049511700001,-74.007079528,380,"99 WALL ST STE 4800, NEW YORK, NY, 10005","Match","Exact","99 WALL ST, NEW YORK, NY, 10005",59660509,"R"
321381,"99 WALL ST SUITE 120","NEW YORK","NY",10005,40.7049511700001,-74.007079528,381,"99 WALL ST SUITE 120, NEW YORK, NY, 10005","Match","Exact","99 WALL ST, NEW YORK, NY, 10005",59660509,"R"
321382,"99 WALL ST SUITE 812","NEW YORK","NY",10005,40.7049511700001,-74.007079528,382,"99 WALL ST SUITE 812, NEW YORK, NY, 10005","Match","Exact","99 WALL ST, NEW YORK, NY, 10005",59660509,"R"
321383,"99 WALL ST UNIT 854","NEW YORK","NY",10005,40.7049511700001,-74.007079528,383,"99 WALL ST UNIT 854, NEW YORK, NY, 10005","Match","Exact","99 WALL ST, NEW YORK, NY, 10005",59660509,"R"
321384,"99 WALL STREET 3327","NEW YORK","NY",10005,40.7049511700001,-74.007079528,384,"99 WALL STREET 3327, NEW YORK, NY, 10005","Match","Exact","99 WALL ST, NEW YORK, NY, 10005",59660509,"R"
321385,"99 WALL STREET 5330","NEW YORK","NY",10005,40.7049511700001,-74.007079528,385,"99 WALL STREET 5330, NEW YORK, NY, 10005","Match","Exact","99 WALL ST, NEW YORK, NY, 10005",59660509,"R"
321386,"99 WALL STREET APT 216","NEW YORK","NY",10005,40.7049511700001,-74.007079528,386,"99 WALL STREET APT 216, NEW YORK, NY, 10005","Match","Exact","99 WALL ST, NEW YORK, NY, 10005",59660509,"R"
321387,"99 WALL STREET APT 418","NEW YORK","NY",10005,40.7049511700001,-74.007079528,387,"99 WALL STREET APT 418, NEW YORK, NY, 10005","Match","Exact","99 WALL ST, NEW YORK, NY, 10005",59660509,"R"
321388,"99 WALL STREET NO 201","NEW YORK","NY",10005,40.7049511700001,-74.007079528,388,"99 WALL STREET NO 201, NEW YORK, NY, 10005","Match","Non_Exact","99 WALL ST, NEW YORK, NY, 10005",59660509,"R"
321389,"99 WALL STREET NUM 3908","NEW YORK","NY",10005,40.7049511700001,-74.007079528,389,"99 WALL STREET NUM 3908, NEW YORK, NY, 10005","Match","Exact","99 WALL ST, NEW YORK, NY, 10005",59660509,"R"
321390,"99 WALL STREET STE 2328","NEW YORK","NY",10005,40.7049511700001,-74.007079528,390,"99 WALL STREET STE 2328, NEW YORK, NY, 10005","Match","Exact","99 WALL ST, NEW YORK, NY, 10005",59660509,"R"
321391,"99 WALL STREET STE 2965","NEW YORK","NY",10005,40.7049511700001,-74.007079528,391,"99 WALL STREET STE 2965, NEW YORK, NY, 10005","Match","Exact","99 WALL ST, NEW YORK, NY, 10005",59660509,"R"
321392,"99 WALL STREET SUITE 1077","NEW YORK","NY",10005,40.7049511700001,-74.007079528,392,"99 WALL STREET SUITE 1077, NEW YORK, NY, 10005","Match","Exact","99 WALL ST, NEW YORK, NY, 10005",59660509,"R"
321393,"99 WALL STREET SUITE 1150","NEW YORK","NY",10005,40.7049511700001,-74.007079528,393,"99 WALL STREET SUITE 1150, NEW YORK, NY, 10005","Match","Exact","99 WALL ST, NEW YORK, NY, 10005",59660509,"R"
321394,"99 WALL STREET SUITE 1969","NEW YORK","NY",10005,40.7049511700001,-74.007079528,394,"99 WALL STREET SUITE 1969, NEW YORK, NY, 10005","Match","Exact","99 WALL ST, NEW YORK, NY, 10005",59660509,"R"
321395,"99 WALL STREET SUITE 230","NEW YORK","NY",10005,40.7049511700001,-74.007079528,395,"99 WALL STREET SUITE 230, NEW YORK, NY, 10005","Match","Exact","99 WALL ST, NEW YORK, NY, 10005",59660509,"R"
321396,"99 WALL STREET SUITE 3125","NEW YORK","NY",10005,40.7049511700001,-74.007079528,396,"99 WALL STREET SUITE 3125, NEW YORK, NY, 10005","Match","Exact","99 WALL ST, NEW YORK, NY, 10005",59660509,"R"
321397,"99 WALL STREET SUITE 5860","NEW YORK","NY",10005,40.7049511700001,-74.007079528,397,"99 WALL STREET SUITE 5860, NEW YORK, NY, 10005","Match","Exact","99 WALL ST, NEW YORK, NY, 10005",59660509,"R"
321398,"99 WALL STREET SUITE 959","NEW YORK","NY",10005,40.7049511700001,-74.007079528,398,"99 WALL STREET SUITE 959, NEW YORK, NY, 10005","Match","Exact","99 WALL ST, NEW YORK, NY, 10005",59660509,"R"
321399,"99 WASHINGTON AVE STE 805-A","ALBANY","NY",12210,42.7001117130001,-73.8189810869999,399,"99 WASHINGTON AVE STE 805-A, ALBANY, NY, 12210","Match","Non_Exact","99 WASHINGTON AVE, ALBANY, NY, 12205",18305575,"R"
321400,"99 WASHINGTON AVENUE","ALBANY","NY",12231,42.7001117130001,-73.8189810869999,400,"99 WASHINGTON AVENUE, ALBANY, NY, 12231","Match","Non_Exact","99 WASHINGTON AVE, ALBANY, NY, 12205",18305575,"R"
321401,"99 WEATHERSTONE DRIVE SUITE 930","WOODSTOCK","GA",30188,NA,NA,401,"99 WEATHERSTONE DRIVE SUITE 930, WOODSTOCK, GA, 30188","No_Match",NA,NA,NA,NA
321402,"99 WEST BAYAUD AVENUE","DENVER","CO",80223,39.7147988230001,-104.989765905,402,"99 WEST BAYAUD AVENUE, DENVER, CO, 80223","Match","Exact","99 W BAYAUD AVE, DENVER, CO, 80223",177330857,"R"
321403,"99 WESTERVELT AVENUE","NORTH PLAINFIELD","NJ",7060,40.624735092,-74.4244169529999,403,"99 WESTERVELT AVENUE, NORTH PLAINFIELD, NJ, 7060","Match","Exact","99 WESTERVELT AVE, N PLAINFIELD, NJ, 07060",60001906,"L"
321404,"99 YALE PLACE","ROCKVILLE CENTRE","NY",11570,40.6666476930001,-73.646924638,404,"99 YALE PLACE, ROCKVILLE CENTRE, NY, 11570","Match","Exact","99 YALE PL, ROCKVILLE CENTRE, NY, 11570",147676315,"R"
321405,"99 YEAGER AVENUE","FORT BENNING","GA",31905,NA,NA,405,"99 YEAGER AVENUE, FORT BENNING, GA, 31905","No_Match",NA,NA,NA,NA
321406,"99-040 KAUHALE ST 2006","AIEA","HI",96701,21.378439374,-157.932975182,406,"99-040 KAUHALE ST 2006, AIEA, HI, 96701","Match","Exact","99-40 KAUHALE ST, AIEA, HI, 96701",607840528,"L"
321407,"99-040 KAUHALE STREET NUMBER 283","AIEA","HI",96701,21.378439374,-157.932975182,407,"99-040 KAUHALE STREET NUMBER 283, AIEA, HI, 96701","Match","Exact","99-40 KAUHALE ST, AIEA, HI, 96701",607840528,"L"
321408,"99-115 AIEA HEIGHTS DR STE 303","AIEA","HI",96701,21.3790504840001,-157.930518841,408,"99-115 AIEA HEIGHTS DR STE 303, AIEA, HI, 96701","Match","Exact","99-115 AIEA HEIGHTS DR, AIEA, HI, 96701",203230709,"R"
321409,"99-12 65TH ROAD APT 6G","REGO PARK","NY",11374,40.7291109600001,-73.8547273409999,409,"99-12 65TH ROAD APT 6G, REGO PARK, NY, 11374","Match","Exact","99-12 65TH RD, REGO PARK, NY, 11374",59725123,"L"
321410,"99-128 AIEA HEIGHTS DRIVE SUITE 202","AIEA","HI",96701,21.3792473870001,-157.930224219,410,"99-128 AIEA HEIGHTS DRIVE SUITE 202, AIEA, HI, 96701","Match","Exact","99-128 AIEA HEIGHTS DR, AIEA, HI, 96701",203230709,"L"
321411,"99-1325 AIEA HEIGHTS DRIVE","AIEA","HI",96701,NA,NA,411,"99-1325 AIEA HEIGHTS DRIVE, AIEA, HI, 96701","Tie",NA,NA,NA,NA
321412,"99-1549 AIEA HEIGHTS DRIVE","AIEA","HI",96701,21.3955773060001,-157.907591401,412,"99-1549 AIEA HEIGHTS DRIVE, AIEA, HI, 96701","Match","Exact","99-1549 AIEA HEIGHTS DR, AIEA, HI, 96701",203332739,"L"
321413,"99-17 FARMERS BLVD","HOLLIS","NY",11432,40.7090210330001,-73.7680852399999,413,"99-17 FARMERS BLVD, HOLLIS, NY, 11432","Match","Non_Exact","99 FARMERS BLVD, HOLLIS, NY, 11423",59716610,"L"
321414,"99-4 CALLE 92  URBVILLA CAROLINA","CAROLINA","PR",985,NA,NA,414,"99-4 CALLE 92  URBVILLA CAROLINA, CAROLINA, PR, 985","Tie",NA,NA,NA,NA
321415,"99-528 ALIIPOE DRIVE","AIEA","HI",96701,21.3782278580001,-157.923982278,415,"99-528 ALIIPOE DRIVE, AIEA, HI, 96701","Match","Exact","99-528 ALIIPOE DR, AIEA, HI, 96701",203230791,"L"
321416,"99-665 KAULAINAHEE PLACE","AIEA","HI",96701,21.3830250070001,-157.920862951,416,"99-665 KAULAINAHEE PLACE, AIEA, HI, 96701","Match","Exact","99-665 KAULAINAHEE PL, AIEA, HI, 96701",203231327,"R"
321417,"99-850 IWAENA STREET","AIEA","HI",96701,21.3720895490001,-157.914426262,417,"99-850 IWAENA STREET, AIEA, HI, 96701","Match","Exact","99-850 IWAENA ST, AIEA, HI, 96701",203255311,"L"
321418,"99","NEW YORK","NY",10005,NA,NA,418,"99, NEW YORK, NY, 10005","No_Match",NA,NA,NA,NA
321419,"990 ADRIAN WAY","SAN RAFAEL","CA",94903,38.013532947,-122.512656741,419,"990 ADRIAN WAY, SAN RAFAEL, CA, 94903","Match","Exact","990 ADRIAN WAY, SAN RAFAEL, CA, 94903",192763115,"R"
321420,"990 AVE OF THE AMERICAS 17A","NEW YORK","NY",10018,40.7514422420001,-73.986577731,420,"990 AVE OF THE AMERICAS 17A, NEW YORK, NY, 10018","Match","Exact","990 AVE OF THE AMERICAS, NEW YORK, NY, 10018",59658627,"R"
321421,"990 AZALEA DR","SUNNYVALE","CA",94086,37.369555271,-122.007605973,421,"990 AZALEA DR, SUNNYVALE, CA, 94086","Match","Exact","990 AZALEA DR, SUNNYVALE, CA, 94086",122941514,"R"
321422,"990 BISCAYNE BLVD STE 801","MIAMI","FL",33132,NA,NA,422,"990 BISCAYNE BLVD STE 801, MIAMI, FL, 33132","No_Match",NA,NA,NA,NA
321423,"990 BISCAYNE BLVD SUITE 901","MIAMI","FL",33132,NA,NA,423,"990 BISCAYNE BLVD SUITE 901, MIAMI, FL, 33132","No_Match",NA,NA,NA,NA
321424,"990 BISCAYNE BLVD","MIAMI","FL",33132,25.7837645160001,-80.189534908,424,"990 BISCAYNE BLVD, MIAMI, FL, 33132","Match","Exact","990 BISCAYNE BLVD, MIAMI, FL, 33132",641722343,"R"
321425,"990 CEDARBRIDGE AVE B7-249","BRICK","NJ",8723,40.053792033,-74.138137475,425,"990 CEDARBRIDGE AVE B7-249, BRICK, NJ, 8723","Match","Non_Exact","990 CEDAR BRIDGE AVE, BRICK, NJ, 08723",203794315,"L"
321426,"990 E 241TH STREET","BRONX","NY",10466,NA,NA,426,"990 E 241TH STREET, BRONX, NY, 10466","No_Match",NA,NA,NA,NA
321427,"990 E CEDAR ST","ONTARIO","CA",91761,34.037492576,-117.637666009,427,"990 E CEDAR ST, ONTARIO, CA, 91761","Match","Exact","990 E CEDAR ST, ONTARIO, CA, 91761",144676807,"R"
321428,"990 EAST 331 ST","EASTLAKE","OH",44095,41.647833243,-81.455251946,428,"990 EAST 331 ST, EASTLAKE, OH, 44095","Match","Exact","990 E 331ST ST, EASTLAKE, OH, 44095",137460035,"R"
321429,"990 EAST STRAWBERRY LANE","BOISE","ID",83712,43.6041143690001,-116.186884286,429,"990 EAST STRAWBERRY LANE, BOISE, ID, 83712","Match","Exact","990 E STRAWBERRY LN, BOISE, ID, 83712",117930796,"L"
321430,"990 HARRISON AVE","NEW ORLEANS","LA",70124,30.0040350130001,-90.1005266989999,430,"990 HARRISON AVE, NEW ORLEANS, LA, 70124","Match","Exact","990 HARRISON AVE, NEW ORLEANS, LA, 70124",647531710,"R"
321431,"990 HARRISON ST","FLORISSANT","MO",63031,38.788742842,-90.324615485,431,"990 HARRISON ST, FLORISSANT, MO, 63031","Match","Exact","990 HARRISON ST, FLORISSANT, MO, 63031",100119728,"R"
321432,"990 HIGHLAND DR STE 203","SOLANA BEACH","CA",92075,32.9802728230001,-117.256994081,432,"990 HIGHLAND DR STE 203, SOLANA BEACH, CA, 92075","Match","Exact","990 HIGHLAND DR, SOLANA BEACH, CA, 92075",195689858,"R"
321433,"990 HIGHLAND DRIVE STE 106-D","SOLANA BEACH","CA",92075,32.9802728230001,-117.256994081,433,"990 HIGHLAND DRIVE STE 106-D, SOLANA BEACH, CA, 92075","Match","Exact","990 HIGHLAND DR, SOLANA BEACH, CA, 92075",195689858,"R"
321434,"990 HIGHLAND DRIVE SUITE 206","SOLANA BEACH","CA",92075,32.9802728230001,-117.256994081,434,"990 HIGHLAND DRIVE SUITE 206, SOLANA BEACH, CA, 92075","Match","Exact","990 HIGHLAND DR, SOLANA BEACH, CA, 92075",195689858,"R"
321435,"990 HIGHWAY 15 SOUTH","LAUREL","MS",39443,NA,NA,435,"990 HIGHWAY 15 SOUTH, LAUREL, MS, 39443","No_Match",NA,NA,NA,NA
321436,"990 HWY 15 S","LAUREL","MS",39443,NA,NA,436,"990 HWY 15 S, LAUREL, MS, 39443","No_Match",NA,NA,NA,NA
321437,"990 HWY 51 1361","MADISON","MS",39130,NA,NA,437,"990 HWY 51 1361, MADISON, MS, 39130","No_Match",NA,NA,NA,NA
321438,"990 JUDSON STREET SE","SALEM","OR",97302,44.9182408130001,-123.035737866,438,"990 JUDSON STREET SE, SALEM, OR, 97302","Match","Exact","990 JUDSON ST SE, SALEM, OR, 97302",156248561,"R"
321439,"990 KENNEDY STORE ROAD","RIEGELWOOD","NC",28456,34.398999718,-78.338009058,439,"990 KENNEDY STORE ROAD, RIEGELWOOD, NC, 28456","Match","Exact","990 KENNEDY STORE RD, RIEGELWOOD, NC, 28456",635642570,"L"
321440,"990 KEY CIRCLE","CARTER LAKE","IA",51510,41.2935830540001,-95.919482191,440,"990 KEY CIRCLE, CARTER LAKE, IA, 51510","Match","Exact","990 KEY CIR, CARTER LAKE, IA, 51510",43915895,"R"
321441,"990 LINCOLN ROAD","HELENA","MT",59602,46.7044104920001,-112.027910915,441,"990 LINCOLN ROAD, HELENA, MT, 59602","Match","Non_Exact","990 W LINCOLN RD, HELENA, MT, 59602",647456510,"L"
321442,"990 MAIN ST","WOBURN","MA",1801,42.515333248,-71.161152317,442,"990 MAIN ST, WOBURN, MA, 1801","Match","Exact","990 MAIN ST, WOBURN, MA, 01801",86906553,"L"
321443,"990 MAPLE STREET","FALL RIVER","MA",2720,41.706035953,-71.1408714359999,443,"990 MAPLE STREET, FALL RIVER, MA, 2720","Match","Exact","990 MAPLE ST, FALL RIVER, MA, 02720",46771288,"L"
321444,"990 MAPLE STREET","LITITZ","PA",17543,40.2341472580001,-76.2655548019999,444,"990 MAPLE STREET, LITITZ, PA, 17543","Match","Exact","990 MAPLE ST, LITITZ, PA, 17543",179656017,"L"
321445,"990 MARINA VILLAGE PKWY UNIT 116","ALAMEDA","CA",94501,37.783124623,-122.271180904,445,"990 MARINA VILLAGE PKWY UNIT 116, ALAMEDA, CA, 94501","Match","Exact","990 MARINA VILLAGE PKWY, ALAMEDA, CA, 94501",125080499,"L"
321446,"990 MENDON ROAD","WOONSOCKET","RI",2895,42.0058735970001,-71.477878468,446,"990 MENDON ROAD, WOONSOCKET, RI, 2895","Match","Exact","990 MENDON RD, WOONSOCKET, RI, 02895",47510980,"R"
321447,"990 N 200 W","PLEASANT GROVE","UT",84062,40.3742600240001,-111.744064193,447,"990 N 200 W, PLEASANT GROVE, UT, 84062","Match","Exact","990 N 200 W, PLEASANT GROVE, UT, 84062",134203190,"R"
321448,"990 N LAKESHORE DRIVE UNIT 18C","CHICAGO","IL",60611,NA,NA,448,"990 N LAKESHORE DRIVE UNIT 18C, CHICAGO, IL, 60611","No_Match",NA,NA,NA,NA
321449,"990 NORTH 8000 WEST","PETERSBORO","UT",84325,41.7558089890001,-112.027936426,449,"990 NORTH 8000 WEST, PETERSBORO, UT, 84325","Match","Non_Exact","990 N 8000 W, MENDON, UT, 84325",653277382,"L"
321450,"990 NORTH ADAMS AVE","BUFFALO","WY",82834,44.3596894020001,-106.700242763,450,"990 NORTH ADAMS AVE, BUFFALO, WY, 82834","Match","Exact","990 N ADAMS AVE, BUFFALO, WY, 82834",624035500,"L"
321451,"990 NW CONIFER BLVD","CORVALLIS","OR",97330,44.596709505,-123.262181318,451,"990 NW CONIFER BLVD, CORVALLIS, OR, 97330","Match","Exact","990 NW CONIFER BLVD, CORVALLIS, OR, 97330",155848018,"L"
321452,"990 OEACHTREE INDUSTRIAL BLVD 3514","SUWANEE","GA",30024,NA,NA,452,"990 OEACHTREE INDUSTRIAL BLVD 3514, SUWANEE, GA, 30024","No_Match",NA,NA,NA,NA
321453,"990 PAGE RD","WINCHESTER","OR",97495,43.284889036,-123.338042547,453,"990 PAGE RD, WINCHESTER, OR, 97495","Match","Exact","990 PAGE RD, WINCHESTER, OR, 97495",630375385,"L"
321454,"990 PARADISE ROAD SUITE 1G","SWAMPSCOTT","MA",1907,42.482896026,-70.9011288259999,454,"990 PARADISE ROAD SUITE 1G, SWAMPSCOTT, MA, 1907","Match","Exact","990 PARADISE RD, SWAMPSCOTT, MA, 01907",86707454,"L"
321455,"990 PEACHTREE IND BLVD STE4227","SUWANEE","GA",30024,NA,NA,455,"990 PEACHTREE IND BLVD STE4227, SUWANEE, GA, 30024","No_Match",NA,NA,NA,NA
321456,"990 PEACHTREE INDUSTRIAL BLVD  3524","SUWANEE","GA",30024,NA,NA,456,"990 PEACHTREE INDUSTRIAL BLVD  3524, SUWANEE, GA, 30024","No_Match",NA,NA,NA,NA
321457,"990 PEACHTREE INDUSTRIAL BLVD","SUWANEE","GA",30024,NA,NA,457,"990 PEACHTREE INDUSTRIAL BLVD, SUWANEE, GA, 30024","No_Match",NA,NA,NA,NA
321458,"990 PINCKNEY STREET","MCCLELLANVILLE","SC",29458,33.0927126650001,-79.464854148,458,"990 PINCKNEY STREET, MCCLELLANVILLE, SC, 29458","Match","Non_Exact","990 PINCKNEY ST, MC CLELLANVILLE, SC, 29458",617157110,"R"
321459,"990 QUAIL CREEK","SHREVEPORT","LA",71104,NA,NA,459,"990 QUAIL CREEK, SHREVEPORT, LA, 71104","No_Match",NA,NA,NA,NA
321460,"990 RODGERS RD","BOCA RATON","FL",33487,NA,NA,460,"990 RODGERS RD, BOCA RATON, FL, 33487","No_Match",NA,NA,NA,NA
321461,"990 ROSEWOOD ST","JENISON","MI",49428,42.896256957,-85.806669713,461,"990 ROSEWOOD ST, JENISON, MI, 49428","Match","Exact","990 ROSEWOOD ST, JENISON, MI, 49428",640445228,"R"
321462,"990 SINGLETON BLVD","DALLAS","TX",75212,32.778528787,-96.838991414,462,"990 SINGLETON BLVD, DALLAS, TX, 75212","Match","Exact","990 SINGLETON BLVD, DALLAS, TX, 75212",102905358,"L"
321463,"990 SOUTH ROGERS CIRCLE SUITE 7","BOCA RATON","FL",33487,26.4031335070001,-80.108179639,463,"990 SOUTH ROGERS CIRCLE SUITE 7, BOCA RATON, FL, 33487","Match","Exact","990 S ROGERS CIR, BOCA RATON, FL, 33487",115292946,"R"
321464,"990 TATES CHAPEL ROAD","GALATIA","IL",62935,37.8656279590001,-88.6193597399999,464,"990 TATES CHAPEL ROAD, GALATIA, IL, 62935","Match","Exact","990 TATES CHAPEL RD, GALATIA, IL, 62935",104095931,"R"
321465,"990 WAREHOUSE RD UNIT 10109","ORLANDO","FL",32803,28.5577493870001,-81.34487244,465,"990 WAREHOUSE RD UNIT 10109, ORLANDO, FL, 32803","Match","Exact","990 WAREHOUSE RD, ORLANDO, FL, 32803",606126463,"L"
321466,"990 WEST MAIN STREET APT 526","WATERBURY","CT",6708,41.5568177500001,-73.057792756,466,"990 WEST MAIN STREET APT 526, WATERBURY, CT, 6708","Match","Exact","990 W MAIN ST, WATERBURY, CT, 06708",636503174,"R"
321467,"990","RIDDLE","OR",97469,NA,NA,467,"990, RIDDLE, OR, 97469","No_Match",NA,NA,NA,NA
321468,"990","RIVERVIEW","FL",33578,NA,NA,468,"990, RIVERVIEW, FL, 33578","No_Match",NA,NA,NA,NA
321469,"9900 13TH AVE N STE 210A","PLYMOUTH","MN",55441,44.993042329,-93.402595036,469,"9900 13TH AVE N STE 210A, PLYMOUTH, MN, 55441","Match","Exact","9900 13TH AVE N, PLYMOUTH, MN, 55441",43824637,"R"
321470,"9900 BARRINSON NE","ALBUQUERQUE","NM",87111,35.1557768430001,-106.530816826,470,"9900 BARRINSON NE, ALBUQUERQUE, NM, 87111","Match","Exact","9900 BARRINSON NE, ALBUQUERQUE, NM, 87111",636708911,"R"
321471,"9900 DENISON AVE","CLEVELAND","OH",44102,41.466213576,-81.75238998,471,"9900 DENISON AVE, CLEVELAND, OH, 44102","Match","Exact","9900 DENISON AVE, CLEVELAND, OH, 44102",61104761,"R"
321472,"9900 DURANT ROAD","RALEIGH","NC",27614,35.900161729,-78.576993756,472,"9900 DURANT ROAD, RALEIGH, NC, 27614","Match","Exact","9900 DURANT RD, RALEIGH, NC, 27614",72615324,"R"
321473,"9900 GREENBELT RD E343","LANHAM","MD",20706,38.990933001,-76.83570909,473,"9900 GREENBELT RD E343, LANHAM, MD, 20706","Match","Exact","9900 GREENBELT RD, LANHAM, MD, 20706",647278903,"L"
321474,"9900 GREENBELT ROAD","LANHAM","MD",20706,38.990933001,-76.83570909,474,"9900 GREENBELT ROAD, LANHAM, MD, 20706","Match","Exact","9900 GREENBELT RD, LANHAM, MD, 20706",647278903,"L"
321475,"9900 HILLPOINT BLVD","SUFFOLK","VA",23434,NA,NA,475,"9900 HILLPOINT BLVD, SUFFOLK, VA, 23434","No_Match",NA,NA,NA,NA
321476,"9900 LIGHTNER WAY","BAKERSFIELD","CA",93311,35.314777615,-119.112343676,476,"9900 LIGHTNER WAY, BAKERSFIELD, CA, 93311","Match","Exact","9900 LIGHTNER WAY, BAKERSFIELD, CA, 93311",109531249,"R"
321477,"9900 MCNEIL DR APT 1901","AUSTIN","TX",78750,30.395364059,-97.8289133659999,477,"9900 MCNEIL DR APT 1901, AUSTIN, TX, 78750","Match","Exact","9900 MCNEIL DR, AUSTIN, TX, 78750",650119360,"L"
321478,"9900 MCNEIL DRIVE APT 8210","AUSTIN","TX",78750,30.395364059,-97.8289133659999,478,"9900 MCNEIL DRIVE APT 8210, AUSTIN, TX, 78750","Match","Exact","9900 MCNEIL DR, AUSTIN, TX, 78750",650119360,"L"
321479,"9900 MEMORIAL DR APT 1701","HOUSTON","TX",77024,29.7787345560001,-95.477924989,479,"9900 MEMORIAL DR APT 1701, HOUSTON, TX, 77024","Match","Exact","9900 MEMORIAL DR, HOUSTON, TX, 77024",637939132,"R"
321480,"9900 N SYCAMORE PASS ROAD","SEDONA","AZ",86336,34.883297446,-111.967095163,480,"9900 N SYCAMORE PASS ROAD, SEDONA, AZ, 86336","Match","Exact","9900 N SYCAMORE PASS RD, SEDONA, AZ, 86336",650921021,"R"
321481,"9900 POPLAR TENT ROAD SUITE 115","CONCORD","NC",28027,NA,NA,481,"9900 POPLAR TENT ROAD SUITE 115, CONCORD, NC, 28027","No_Match",NA,NA,NA,NA
321482,"9900 RADDINGTON LANE","CHARLOTTE","NC",28269,35.3488368860001,-80.7796971719999,482,"9900 RADDINGTON LANE, CHARLOTTE, NC, 28269","Match","Exact","9900 RADDINGTON LN, CHARLOTTE, NC, 28269",70521187,"R"
321483,"9900 REDWOOD ST NW UNIT 321","COON RAPIDS","MN",55433,45.15001633,-93.291038879,483,"9900 REDWOOD ST NW UNIT 321, COON RAPIDS, MN, 55433","Match","Exact","9900 REDWOOD ST NW, COON RAPIDS, MN, 55433",642889144,"R"
321484,"9900 SPECTRUM DR","AUSTIN","TX",78717,30.4807607550001,-97.7750394459999,484,"9900 SPECTRUM DR, AUSTIN, TX, 78717","Match","Exact","9900 SPECTRUM DR, AUSTIN, TX, 78717",650111470,"R"
321485,"9900 SPECTRUM DRIVE","AUSTIN","TX",78717,30.4807607550001,-97.7750394459999,485,"9900 SPECTRUM DRIVE, AUSTIN, TX, 78717","Match","Exact","9900 SPECTRUM DR, AUSTIN, TX, 78717",650111470,"R"
321486,"9900 SPETRUM DRIVE","AUSTIN","TX",78717,NA,NA,486,"9900 SPETRUM DRIVE, AUSTIN, TX, 78717","No_Match",NA,NA,NA,NA
321487,"9900 SW NORTH DAKOTA STREET APT 6","TIGARD","OR",97223,45.4390039300001,-122.778611775,487,"9900 SW NORTH DAKOTA STREET APT 6, TIGARD, OR, 97223","Match","Non_Exact","9900 SW NORTH DAKOTA ST, TIGARD, OR, 97223",605221654,"L"
321488,"9900 W SAMPLE RD SUITE 300","CORAL SPRINGS","FL",33065,26.2724171030001,-80.257375393,488,"9900 W SAMPLE RD SUITE 300, CORAL SPRINGS, FL, 33065","Match","Non_Exact","9900 W SAMPLE RD, CORAL SPRINGS, FL, 33065",637060539,"R"
321489,"9900 WESTPARK 132","HOUSTON","TX",77063,29.720340062,-95.53527235,489,"9900 WESTPARK 132, HOUSTON, TX, 77063","Match","Non_Exact","9900 WESTPARK DR, HOUSTON, TX, 77063",96613943,"L"
321490,"9900 WESTPARK DR STE 328","HOUSTON","TX",77063,29.720340062,-95.53527235,490,"9900 WESTPARK DR STE 328, HOUSTON, TX, 77063","Match","Exact","9900 WESTPARK DR, HOUSTON, TX, 77063",96613943,"L"
321491,"9900 WESTPARK DRIVE  STE 340","HOUSTON","TX",77063,29.720340062,-95.53527235,491,"9900 WESTPARK DRIVE  STE 340, HOUSTON, TX, 77063","Match","Exact","9900 WESTPARK DR, HOUSTON, TX, 77063",96613943,"L"
321492,"9900 WESTPARK STE 328","HOUSTON","TX",77063,29.720340062,-95.53527235,492,"9900 WESTPARK STE 328, HOUSTON, TX, 77063","Match","Non_Exact","9900 WESTPARK DR, HOUSTON, TX, 77063",96613943,"L"
321493,"9900-E GREENBELT ROAD - SUITE 278","LANHAM","MD",20706,38.990933001,-76.83570909,493,"9900-E GREENBELT ROAD - SUITE 278, LANHAM, MD, 20706","Match","Exact","9900 GREENBELT RD, LANHAM, MD, 20706",647278903,"L"
321494,"9901 BANBURY COURT","UPPER MARLBORO","MD",20772,38.756355915,-76.836287114,494,"9901 BANBURY COURT, UPPER MARLBORO, MD, 20772","Match","Exact","9901 BANBURY CT, UPPER MARLBORO, MD, 20772",76351065,"R"
321495,"9901 BRODIE LANE SUITE 160 620","AUSTIN","TX",78748,30.184795465,-97.848929068,495,"9901 BRODIE LANE SUITE 160 620, AUSTIN, TX, 78748","Match","Exact","9901 BRODIE LN, AUSTIN, TX, 78748",64032096,"L"
321496,"9901 BRODIE LANE SUITE 160-818","AUSTIN","TX",78748,30.184795465,-97.848929068,496,"9901 BRODIE LANE SUITE 160-818, AUSTIN, TX, 78748","Match","Exact","9901 BRODIE LN, AUSTIN, TX, 78748",64032096,"L"
321497,"9901 BRODIE LN STE 160","AUSTIN","TX",78748,30.184795465,-97.848929068,497,"9901 BRODIE LN STE 160, AUSTIN, TX, 78748","Match","Exact","9901 BRODIE LN, AUSTIN, TX, 78748",64032096,"L"
321498,"9901 CANOPY LANE","FORT WAYNE","IN",46835,41.128541699,-85.0182062059999,498,"9901 CANOPY LANE, FORT WAYNE, IN, 46835","Match","Exact","9901 CANOPY LN, FORT WAYNE, IN, 46835",6407237,"L"
321499,"9901 COASTAL HWY","OCEAN CITY","MD",21842,38.412074024,-75.058286772,499,"9901 COASTAL HWY, OCEAN CITY, MD, 21842","Match","Exact","9901 COASTAL HWY, OCEAN CITY, MD, 21842",114532919,"L"
321500,"9901 E VALLEY RANCH PKWY  STE 3045","IRVING","TX",75063,NA,NA,500,"9901 E VALLEY RANCH PKWY  STE 3045, IRVING, TX, 75063","Tie",NA,NA,NA,NA
