"ID","Address","City","State","Zip","lat","long","id","input_address","match_indicator","match_type","matched_address","tiger_line_id","tiger_side"
155001,"2907 OAK STREET","VICKSBURG","MS",39180,32.3322962890001,-90.890053931,1,"2907 OAK STREET, VICKSBURG, MS, 39180","Match","Exact","2907 OAK ST, VICKSBURG, MS, 39180",71292133,"R"
155002,"2907 POST OAK COURT","BEDFORD","TX",76021,32.8526889410001,-97.1428490709999,2,"2907 POST OAK COURT, BEDFORD, TX, 76021","Match","Exact","2907 POST OAK CT, BEDFORD, TX, 76021",101870571,"L"
155003,"2907 PROVIDENCE ROAD","CHARLOTTE","NC",28211,35.1710219190001,-80.807942951,3,"2907 PROVIDENCE ROAD, CHARLOTTE, NC, 28211","Match","Exact","2907 PROVIDENCE RD, CHARLOTTE, NC, 28211",70489659,"L"
155004,"2907 RT 134 S  LOT 66","WILMINGTON","OH",45177,NA,NA,4,"2907 RT 134 S  LOT 66, WILMINGTON, OH, 45177","No_Match",NA,NA,NA,NA
155005,"2907 RT 9D","WAPPINGERSFALLS","NY",12590,41.6164087980001,-73.9159156709999,5,"2907 RT 9D, WAPPINGERSFALLS, NY, 12590","Match","Non_Exact","2907 STATE RTE 9D, WAPPINGERS FALLS, NY, 12590",638007082,"R"
155006,"2907 S DULUTH AVENUE","SIOUX FALLS","SD",57105,43.5183086770001,-96.7337491219999,6,"2907 S DULUTH AVENUE, SIOUX FALLS, SD, 57105","Match","Exact","2907 S DULUTH AVE, SIOUX FALLS, SD, 57105",34975388,"R"
155007,"2907 SADDLETOP WAY","LAWRENCEVILLE","GA",30044,33.926563806,-84.083480462,7,"2907 SADDLETOP WAY, LAWRENCEVILLE, GA, 30044","Match","Non_Exact","2907 SADDLE TOP WAY, LAWRENCEVILLE, GA, 30044",623786686,"L"
155008,"2907 SENECA COURT SUITE A","EXPORT","PA",15632,40.4212264350001,-79.652437358,8,"2907 SENECA COURT SUITE A, EXPORT, PA, 15632","Match","Exact","2907 SENECA CT, EXPORT, PA, 15632",52970024,"L"
155009,"2907 SHAWNEE LANE","WATERFORD","MI",48329,42.68536471,-83.3451004,9,"2907 SHAWNEE LANE, WATERFORD, MI, 48329","Match","Exact","2907 SHAWNEE LN, WATERFORD, MI, 48329",69701573,"L"
155010,"2907 TRACY LYNN LANE","SACHSE","TX",75048,32.9911606200001,-96.597685073,10,"2907 TRACY LYNN LANE, SACHSE, TX, 75048","Match","Exact","2907 TRACY LYNN LN, SACHSE, TX, 75048",210528738,"L"
155011,"2907 UPPERLINE STREET","NEW ORLEANS","LA",70115,29.938906703,-90.107076424,11,"2907 UPPERLINE STREET, NEW ORLEANS, LA, 70115","Match","Exact","2907 UPPERLINE ST, NEW ORLEANS, LA, 70115",191711284,"R"
155012,"2907 W FLORENCE AVE","LOS ANGELES","CA",90043,33.9745655830001,-118.324699634,12,"2907 W FLORENCE AVE, LOS ANGELES, CA, 90043","Match","Exact","2907 W FLORENCE AVE, LOS ANGELES, CA, 90043",141655251,"R"
155013,"2907 W JORDAN STREET","BOISE","ID",83702,43.630963326,-116.225544818,13,"2907 W JORDAN STREET, BOISE, ID, 83702","Match","Exact","2907 JORDAN ST, BOISE, ID, 83702",117858989,"L"
155014,"2907 W KENNEDY BLVD","TAMPA","FL",33609,27.944795389,-82.490320907,14,"2907 W KENNEDY BLVD, TAMPA, FL, 33609","Match","Exact","2907 W KENNEDY BLVD, TAMPA, FL, 33609",104526492,"R"
155015,"2907 W LOGAN BLVD UNIT 3","CHICAGO","IL",60647,41.92816277,-87.700276974,15,"2907 W LOGAN BLVD UNIT 3, CHICAGO, IL, 60647","Match","Non_Exact","2907 W LOGAN BLVD, CHICAGO, IL, 60647",111762492,"L"
155016,"2907 WESLEY DR","KILLEEN","TX",76549,31.0914882800001,-97.778088704,16,"2907 WESLEY DR, KILLEEN, TX, 76549","Match","Exact","2907 WESLEY DR, KILLEEN, TX, 76549",146234030,"R"
155017,"29070 CLESI STREET","LACOMBE","LA",70445,30.301111742,-89.918597597,17,"29070 CLESI STREET, LACOMBE, LA, 70445","Match","Exact","29070 CLESI ST, LACOMBE, LA, 70445",111273856,"L"
155018,"29077 MARILYN DRIVE","CANYON CNTRY","CA",91387,34.430643429,-118.410077189,18,"29077 MARILYN DRIVE, CANYON CNTRY, CA, 91387","Match","Exact","29077 MARILYN DR, CANYON COUNTRY, CA, 91387",141520946,"L"
155019,"29078 TANGERINE WAY","LAKE ELSINORE","CA",92530,33.6960209150001,-117.393871755,19,"29078 TANGERINE WAY, LAKE ELSINORE, CA, 92530","Match","Exact","29078 TANGERINE WAY, LAKE ELSINORE, CA, 92530",194831178,"L"
155020,"2908 113TH AVE NE","LAKE STEVENS","WA",98258,48.023746461,-122.078914854,20,"2908 113TH AVE NE, LAKE STEVENS, WA, 98258","Match","Exact","2908 113TH AVE NE, LAKE STEVENS, WA, 98258",608938785,"L"
155021,"2908 13TH STREET NW","WASHINGTON","DC",20009,38.926877463,-77.0297101039999,21,"2908 13TH STREET NW, WASHINGTON, DC, 20009","Match","Exact","2908 13TH ST NW, WASHINGTON, DC, 20009",76224100,"L"
155022,"2908 17TH ST","ANACORTES","WA",98221,48.5069717850001,-122.639577239,22,"2908 17TH ST, ANACORTES, WA, 98221","Match","Exact","2908 17TH ST, ANACORTES, WA, 98221",627139420,"L"
155023,"2908 180TH AVE KP N","LAKEBAY","WA",98349,NA,NA,23,"2908 180TH AVE KP N, LAKEBAY, WA, 98349","No_Match",NA,NA,NA,NA
155024,"2908 187TH ST","WINTERSET","IA",50273,41.37798847,-93.882225116,24,"2908 187TH ST, WINTERSET, IA, 50273","Match","Exact","2908 187TH ST, WINTERSET, IA, 50273",75208154,"R"
155025,"2908 BAY SETTLEMENT ROAD","GREEN BAY","WI",54311,44.5498718320001,-87.8934327979999,25,"2908 BAY SETTLEMENT ROAD, GREEN BAY, WI, 54311","Match","Exact","2908 BAY SETTLEMENT RD, GREEN BAY, WI, 54311",148126712,"R"
155026,"2908 CARAMBOLA CIR S B301","COCONUT CREEK","FL",33066,26.267600126,-80.1775834059999,26,"2908 CARAMBOLA CIR S B301, COCONUT CREEK, FL, 33066","Match","Exact","2908 CARAMBOLA CIR S, COCONUT CREEK, FL, 33066",648307428,"R"
155027,"2908 CARNABY ST","INDIANAPOLIS","IN",46229,39.809754013,-86.004871043,27,"2908 CARNABY ST, INDIANAPOLIS, IN, 46229","Match","Exact","2908 CARNABY ST, INDIANAPOLIS, IN, 46229",108012427,"L"
155028,"2908 CLEAR WAY","ORLANDO","FL",32805,28.5130696460001,-81.4175336769999,28,"2908 CLEAR WAY, ORLANDO, FL, 32805","Match","Exact","2908 CLEAR WAY, ORLANDO, FL, 32805",94274549,"L"
155029,"2908 COFFE ROAD","MODESTO","CA",95355,37.680685892,-120.975896164,29,"2908 COFFE ROAD, MODESTO, CA, 95355","Match","Non_Exact","2908 COFFEE RD, MODESTO, CA, 95355",102601076,"R"
155030,"2908 CREST RIDGE CT SW","MARIETTA","GA",30060,NA,NA,30,"2908 CREST RIDGE CT SW, MARIETTA, GA, 30060","Tie",NA,NA,NA,NA
155031,"2908 CREST RIDGE CT","MARIETTA","GA",30060,NA,NA,31,"2908 CREST RIDGE CT, MARIETTA, GA, 30060","No_Match",NA,NA,NA,NA
155032,"2908 DUBLIN DRIVE N","HELENA","AL",35080,33.26804258,-86.844466314,32,"2908 DUBLIN DRIVE N, HELENA, AL, 35080","Match","Exact","2908 DUBLIN DR N, HELENA, AL, 35080",82132577,"R"
155033,"2908 ELBYRNE CT","CHESAPEAKE","VA",23325,36.8175921910001,-76.250436677,33,"2908 ELBYRNE CT, CHESAPEAKE, VA, 23325","Match","Exact","2908 ELBYRNE CT, CHESAPEAKE, VA, 23325",121770680,"L"
155034,"2908 HALLOWAY ROAD","LEBANON","TN",37090,36.129681862,-86.3664620549999,34,"2908 HALLOWAY ROAD, LEBANON, TN, 37090","Match","Non_Exact","2908 HOLLOWAY RD, LEBANON, TN, 37090",89688441,"R"
155035,"2908 HUNTERS POINT LANE","CARROLLTON","TX",75007,32.9950338790001,-96.909182202,35,"2908 HUNTERS POINT LANE, CARROLLTON, TX, 75007","Match","Exact","2908 HUNTERS POINT LN, CARROLLTON, TX, 75007",103383044,"L"
155036,"2908 LINKWOOD DRIVE","HOUSTON","TX",77025,29.686873274,-95.4238789999999,36,"2908 LINKWOOD DRIVE, HOUSTON, TX, 77025","Match","Exact","2908 LINKWOOD DR, HOUSTON, TX, 77025",96086996,"R"
155037,"2908 LUXFFORD CT","CHESAPEAKE","VA",23321,36.8387902320001,-76.393461998,37,"2908 LUXFFORD CT, CHESAPEAKE, VA, 23321","Match","Non_Exact","2908 LUXFORD CT, CHESAPEAKE, VA, 23321",121768183,"R"
155038,"2908 MERIDIAN AVENUE EAST SUITE107","EDGEWOOD","WA",98371,47.2309118100001,-122.293978539,38,"2908 MERIDIAN AVENUE EAST SUITE107, EDGEWOOD, WA, 98371","Match","Exact","2908 MERIDIAN AVE E, EDGEWOOD, WA, 98371",184677817,"L"
155039,"2908 MONTALBO STREET","GRAND PRAIRIE","TX",75054,32.584395697,-97.047793102,39,"2908 MONTALBO STREET, GRAND PRAIRIE, TX, 75054","Match","Non_Exact","2908 MONTALBO, GRAND PRAIRIE, TX, 75054",617671722,"R"
155040,"2908 MORGAN STREET","KALAMAZOO","MI",49001,42.262235532,-85.559162479,40,"2908 MORGAN STREET, KALAMAZOO, MI, 49001","Match","Exact","2908 MORGAN ST, KALAMAZOO, MI, 49001",12230561,"R"
155041,"2908 N 21ST DR","PHOENIX","AZ",85015,33.4811226190001,-112.105765282,41,"2908 N 21ST DR, PHOENIX, AZ, 85015","Match","Exact","2908 N 21ST DR, PHOENIX, AZ, 85015",128210371,"L"
155042,"2908 N JANSSEN 1ST FLOOR","CHICAGO","IL",60613,NA,NA,42,"2908 N JANSSEN 1ST FLOOR, CHICAGO, IL, 60613","No_Match",NA,NA,NA,NA
155043,"2908 N WISNER AVE","CHICAGO","IL",60618,41.9335925090001,-87.7142041229999,43,"2908 N WISNER AVE, CHICAGO, IL, 60618","Match","Exact","2908 N WISNER AVE, CHICAGO, IL, 60618",605225265,"L"
155044,"2908 OPTIMIST FARM ROAD","APEX","NC",27539,35.65906363,-78.733947356,44,"2908 OPTIMIST FARM ROAD, APEX, NC, 27539","Match","Exact","2908 OPTIMIST FARM RD, APEX, NC, 27539",72597735,"L"
155045,"2908 PARKSIDE LANE","HARRISBURG","PA",17110,40.292039663,-76.901668125,45,"2908 PARKSIDE LANE, HARRISBURG, PA, 17110","Match","Exact","2908 PARKSIDE LN, HARRISBURG, PA, 17110",620577482,"L"
155046,"2908 ROGERDALE ROAD","HOUSTON","TX",77042,29.731115226,-95.559754878,46,"2908 ROGERDALE ROAD, HOUSTON, TX, 77042","Match","Exact","2908 ROGERDALE RD, HOUSTON, TX, 77042",96613451,"L"
155047,"2908 ROSS ROAD","DACULA","GA",30019,NA,NA,47,"2908 ROSS ROAD, DACULA, GA, 30019","No_Match",NA,NA,NA,NA
155048,"2908 S 99TH AVE","OMAHA","NE",68124,41.2324203590001,-96.06784928,48,"2908 S 99TH AVE, OMAHA, NE, 68124","Match","Exact","2908 S 99TH AVE, OMAHA, NE, 68124",116973370,"R"
155049,"2908 S NC 581","SPRING HOPE","NC",27882,35.9096268280001,-78.0888131679999,49,"2908 S NC 581, SPRING HOPE, NC, 27882","Match","Non_Exact","2908 S NC 581, SPRING HOPE, NC, 27882",90401020,"L"
155050,"2908 S STREET","VANCOUVER","WA",98663,45.6422120720001,-122.651555159,50,"2908 S STREET, VANCOUVER, WA, 98663","Match","Exact","2908 S ST, VANCOUVER, WA, 98663",158326027,"L"
155051,"2908 SAMPLES ROAD","LOUISVILLE","TN",37777,35.820539194,-84.018591241,51,"2908 SAMPLES ROAD, LOUISVILLE, TN, 37777","Match","Exact","2908 SAMPLES RD, LOUISVILLE, TN, 37777",89825974,"R"
155052,"2908 SE 17 AVE UNIT 101","HOMESTEAD","FL",33035,25.4429389050001,-80.452711544,52,"2908 SE 17 AVE UNIT 101, HOMESTEAD, FL, 33035","Match","Non_Exact","2908 SE 17TH AVE, HOMESTEAD, FL, 33035",632009753,"R"
155053,"2908 SEIDENBERG AVE",NA,"FL",33040,24.56170081,-81.769065859,53,"2908 SEIDENBERG AVE, , FL, 33040","Match","Exact","2908 SEIDENBERG AVE, E ROCKLAND KEY, FL, 33040",116475564,"R"
155054,"2908 STONE PLACE","NEWARK","DE",19702,39.640397315,-75.664658672,54,"2908 STONE PLACE, NEWARK, DE, 19702","Match","Exact","2908 STONE PL, NEWARK, DE, 19702",606354467,"R"
155055,"2908 TALLGRASS BLUFF","ROCK HILL","SC",29732,34.9396007070001,-81.1074843439999,55,"2908 TALLGRASS BLUFF, ROCK HILL, SC, 29732","Match","Exact","2908 TALLGRASS BLUFF, ROCK HILL, SC, 29732",632890220,"R"
155056,"2908 VICTORIA AVE","CINCINNATI","OH",45208,39.142212285,-84.4346934879999,56,"2908 VICTORIA AVE, CINCINNATI, OH, 45208","Match","Exact","2908 VICTORIA AVE, CINCINNATI, OH, 45208",103931296,"L"
155057,"2908 W 83RD STREET","CHICAGO","IL",60652,41.742616851,-87.695373161,57,"2908 W 83RD STREET, CHICAGO, IL, 60652","Match","Exact","2908 W 83RD ST, CHICAGO, IL, 60652",111820020,"R"
155058,"2908 WINDEMERE CT","NASHVILLE","TN",37214,36.1830294660001,-86.691042104,58,"2908 WINDEMERE CT, NASHVILLE, TN, 37214","Match","Exact","2908 WINDEMERE CT, NASHVILLE, TN, 37214",97195169,"R"
155059,"2908 WOODROW STREET","PORTSMOUTH","VA",23707,36.844612,-76.337793841,59,"2908 WOODROW STREET, PORTSMOUTH, VA, 23707","Match","Exact","2908 WOODROW ST, PORTSMOUTH, VA, 23707",122193490,"R"
155060,"29085 GREYSTONE DRIVE","MILLBURY","OH",43447,41.5761995070001,-83.433287234,60,"29085 GREYSTONE DRIVE, MILLBURY, OH, 43447","Match","Exact","29085 GREYSTONE DR, MILLBURY, OH, 43447",623847227,"R"
155061,"2909 100TH ST SW UNIT A","EVERETT","WA",98204,47.9076527440001,-122.272956752,61,"2909 100TH ST SW UNIT A, EVERETT, WA, 98204","Match","Exact","2909 100TH ST SW, EVERETT, WA, 98204",187753004,"R"
155062,"2909 10TH ST","BOULDER","CO",80304,40.0281769100001,-105.284419438,62,"2909 10TH ST, BOULDER, CO, 80304","Match","Exact","2909 10TH ST, BOULDER, CO, 80304",188159287,"L"
155063,"2909 137TH STREET SUITE 6H","FLUSHING","NY",11354,NA,NA,63,"2909 137TH STREET SUITE 6H, FLUSHING, NY, 11354","No_Match",NA,NA,NA,NA
155064,"2909 230TH STREET","LAKE CITY","FL",32024,30.0335891550001,-82.802912452,64,"2909 230TH STREET, LAKE CITY, FL, 32024","Match","Exact","2909 230TH ST, LAKE CITY, FL, 32024",635623595,"L"
155065,"2909 40TH AVE SO","MINNEAPOLIS","MN",55406,44.949894725,-93.21527607,65,"2909 40TH AVE SO, MINNEAPOLIS, MN, 55406","Match","Exact","2909 40TH AVE S, MINNEAPOLIS, MN, 55406",43640053,"L"
155066,"2909 4TH ST N","ST PETERSBURG","FL",33704,27.7986286660001,-82.6385566439999,66,"2909 4TH ST N, ST PETERSBURG, FL, 33704","Match","Exact","2909 4TH ST N, SAINT PETERSBURG, FL, 33704",124706971,"R"
155067,"2909 ALEXANDER CRESENT","FLOSSMOOR","IL",60422,41.533314143,-87.687562252,67,"2909 ALEXANDER CRESENT, FLOSSMOOR, IL, 60422","Match","Exact","2909 ALEXANDER CRES, FLOSSMOOR, IL, 60422",605674849,"R"
155068,"2909 BANKBARN PLACE","FORT WAYNE","IN",46815,41.1038505240001,-85.06115192,68,"2909 BANKBARN PLACE, FORT WAYNE, IN, 46815","Match","Exact","2909 BANKBARN PL, FORT WAYNE, IN, 46815",6385547,"L"
155069,"2909 BAY CITY RD","MIDLAND","MI",48642,43.6049512880001,-84.1929477909999,69,"2909 BAY CITY RD, MIDLAND, MI, 48642","Match","Exact","2909 BAY CITY RD, MIDLAND, MI, 48642",81196875,"R"
155070,"2909 BLOOMINGTON AVE S NO 206","MINNEAPOLIS","MN",55407,44.949800139,-93.252476283,70,"2909 BLOOMINGTON AVE S NO 206, MINNEAPOLIS, MN, 55407","Match","Exact","2909 BLOOMINGTON AVE S, MINNEAPOLIS, MN, 55407",43634716,"L"
155071,"2909 CANARY COURT","CHARLOTTE","NC",28269,35.3617779510001,-80.755742292,71,"2909 CANARY COURT, CHARLOTTE, NC, 28269","Match","Exact","2909 CANARY CT, CHARLOTTE, NC, 28269",70531756,"L"
155072,"2909 CHURCH ROAD","SEGUIN","TX",78155,29.442328033,-98.073626368,72,"2909 CHURCH ROAD, SEGUIN, TX, 78155","Match","Exact","2909 CHURCH RD, SEGUIN, TX, 78155",54829179,"L"
155073,"2909 COTTAGE PLACE APT H","GREENSBORO","NC",27455,36.139604359,-79.829668899,73,"2909 COTTAGE PLACE APT H, GREENSBORO, NC, 27455","Match","Exact","2909 COTTAGE PL, GREENSBORO, NC, 27455",131111655,"L"
155074,"2909 DOIDGE AVENUE","PINOLE","CA",94564,37.987327818,-122.25036967,74,"2909 DOIDGE AVENUE, PINOLE, CA, 94564","Match","Exact","2909 DOIDGE AVE, PINOLE, CA, 94564",192044605,"L"
155075,"2909 DOUGLAS STREET","ALEXANDRIA","VA",22306,38.739322659,-77.081497591,75,"2909 DOUGLAS STREET, ALEXANDRIA, VA, 22306","Match","Exact","2909 DOUGLAS ST, ALEXANDRIA, VA, 22306",75990443,"L"
155076,"2909 E RAINTREE AVE","STILLWATER","OK",74074,36.1131251410001,-97.02140745,76,"2909 E RAINTREE AVE, STILLWATER, OK, 74074","Match","Non_Exact","2909 E RAINTREE DR, STILLWATER, OK, 74074",617259079,"L"
155077,"2909 FRUITVALE AVE","OAKLAND","CA",94602,37.7932803890001,-122.219026854,77,"2909 FRUITVALE AVE, OAKLAND, CA, 94602","Match","Non_Exact","2909 FRUITVALE, OAKLAND, CA, 94602",606127235,"L"
155078,"2909 GROOMS RD","REIDSVILLE","NC",27320,36.350037726,-79.570190108,78,"2909 GROOMS RD, REIDSVILLE, NC, 27320","Match","Exact","2909 GROOMS RD, REIDSVILLE, NC, 27320",56219521,"L"
155079,"2909 HARSON WAY","FORT PIERCE","FL",34946,27.485414104,-80.352135413,79,"2909 HARSON WAY, FORT PIERCE, FL, 34946","Match","Exact","2909 HARSON WAY, FORT PIERCE, FL, 34946",120146666,"L"
155080,"2909 HAYES RD 109","HOUSTON","TX",77082,29.732605371,-95.575664546,80,"2909 HAYES RD 109, HOUSTON, TX, 77082","Match","Exact","2909 HAYES RD, HOUSTON, TX, 77082",96613131,"R"
155081,"2909 HIGHWAY 54","OWENSBORO","KY",42303,37.7565757730001,-87.0681329029999,81,"2909 HIGHWAY 54, OWENSBORO, KY, 42303","Match","Non_Exact","2909 STATE HWY 54, OWENSBORO, KY, 42303",642612347,"L"
155082,"2909 HILLCROFT ST SUITE 100","HOUSTON","TX",77057,29.7354889970001,-95.500926321,82,"2909 HILLCROFT ST SUITE 100, HOUSTON, TX, 77057","Match","Exact","2909 HILLCROFT ST, HOUSTON, TX, 77057",96620067,"L"
155083,"2909 HILLCROFT ST SUITE 560","HOUSTON","TX",77057,29.7354889970001,-95.500926321,83,"2909 HILLCROFT ST SUITE 560, HOUSTON, TX, 77057","Match","Exact","2909 HILLCROFT ST, HOUSTON, TX, 77057",96620067,"L"
155084,"2909 HILLCROFT STREET SUITE 230","HOUSTON","TX",77057,29.7354889970001,-95.500926321,84,"2909 HILLCROFT STREET SUITE 230, HOUSTON, TX, 77057","Match","Exact","2909 HILLCROFT ST, HOUSTON, TX, 77057",96620067,"L"
155085,"2909 HORTON RD","FOREST HILL","TX",76119,32.6883196220001,-97.29138223,85,"2909 HORTON RD, FOREST HILL, TX, 76119","Match","Exact","2909 HORTON RD, FOREST HILL, TX, 76119",102132881,"L"
155086,"2909 LONGLEAF DR","MOBILE","AL",36693,30.6304869850001,-88.165491866,86,"2909 LONGLEAF DR, MOBILE, AL, 36693","Match","Exact","2909 LONGLEAF DR, MOBILE, AL, 36693",637680171,"L"
155087,"2909 MANSFIELD BLVD","WELSEY CHAPEL","FL",33543,28.192580429,-82.3257668219999,87,"2909 MANSFIELD BLVD, WELSEY CHAPEL, FL, 33543","Match","Non_Exact","2909 MANSFIELD BLVD, WESLEY CHAPEL, FL, 33543",640811031,"L"
155088,"2909 MANSFIELD BLVD","WESLEY CHAPEL","FL",33543,28.192580429,-82.3257668219999,88,"2909 MANSFIELD BLVD, WESLEY CHAPEL, FL, 33543","Match","Exact","2909 MANSFIELD BLVD, WESLEY CHAPEL, FL, 33543",640811031,"L"
155089,"2909 MARGEAUX DRIVE","LANCASTER","TX",75134,32.6240646530001,-96.799367414,89,"2909 MARGEAUX DRIVE, LANCASTER, TX, 75134","Match","Exact","2909 MARGEAUX DR, LANCASTER, TX, 75134",619520145,"R"
155090,"2909 MARK TWAIN DR","CHASKA","MN",55318,44.817808434,-93.635603525,90,"2909 MARK TWAIN DR, CHASKA, MN, 55318","Match","Exact","2909 MARK TWAIN DR, CHASKA, MN, 55318",43509120,"L"
155091,"2909 MELROSE COURT","SUFFOLK","VA",23434,36.782456258,-76.574173157,91,"2909 MELROSE COURT, SUFFOLK, VA, 23434","Match","Exact","2909 MELROSE CT, SUFFOLK, VA, 23434",122245040,"L"
155092,"2909 MOUNTAIN CREEK DRIVE","Mckinney","TX",75069,33.1938922780001,-96.6609996339999,92,"2909 MOUNTAIN CREEK DRIVE, Mckinney, TX, 75069","Match","Non_Exact","2909 MOUNTAIN CREEK DR, MCKINNEY, TX, 75072",616580900,"R"
155093,"2909 NIEMAN BLVD 325","SAN JOSE","CA",95148,37.3157403280001,-121.80609761,93,"2909 NIEMAN BLVD 325, SAN JOSE, CA, 95148","Match","Exact","2909 NIEMAN BLVD, SAN JOSE, CA, 95148",123010468,"R"
155094,"2909 NORTH NEBRASKA AVENUE","TAMPA","FL",33602,27.970120493,-82.4511983209999,94,"2909 NORTH NEBRASKA AVENUE, TAMPA, FL, 33602","Match","Exact","2909 N NEBRASKA AVE, TAMPA, FL, 33602",104523114,"R"
155095,"2909 NW 51ST DRIVE","GAINESVILLE","FL",32606,29.680482178,-82.397795956,95,"2909 NW 51ST DRIVE, GAINESVILLE, FL, 32606","Match","Exact","2909 NW 51 DR, GAINESVILLE, FL, 32606",6826657,"R"
155096,"2909 OAK AVE","MANHATTAN BEACH","CA",90266,33.8967806320001,-118.396955579,96,"2909 OAK AVE, MANHATTAN BEACH, CA, 90266","Match","Exact","2909 OAK AVE, MANHATTAN BEACH, CA, 90266",642862116,"L"
155097,"2909 PARK DRIVE SE","WASHINGTON","DC",20020,38.865632711,-76.9671321709999,97,"2909 PARK DRIVE SE, WASHINGTON, DC, 20020","Match","Exact","2909 PARK DR SE, WASHINGTON, DC, 20020",76231870,"R"
155098,"2909 PENRIDGE DRIVE","PALM HARBOR","FL",34684,28.0557781410001,-82.7304369939999,98,"2909 PENRIDGE DRIVE, PALM HARBOR, FL, 34684","Match","Exact","2909 PENRIDGE DR, PALM HARBOR, FL, 34684",124749907,"L"
155099,"2909 PINE CLUB DR","PLANT CITY","FL",33566,27.9822330000001,-82.158783043,99,"2909 PINE CLUB DR, PLANT CITY, FL, 33566","Match","Exact","2909 PINE CLUB DR, PLANT CITY, FL, 33566",104562861,"L"
155100,"2909 PINE STREET   APT 200","PASO ROBLES","CA",93446,35.6450263300001,-120.690710174,100,"2909 PINE STREET   APT 200, PASO ROBLES, CA, 93446","Match","Exact","2909 PINE ST, PASO ROBLES, CA, 93446",645317730,"L"
155101,"2909 PIPERS COURT","CHESAPEAKE BEACH","MD",20732,38.705839102,-76.548406589,101,"2909 PIPERS COURT, CHESAPEAKE BEACH, MD, 20732","Match","Exact","2909 PIPERS CT, CHESAPEAKE BEACH, MD, 20732",78166717,"R"
155102,"2909 S STONE PL","SIOUX FALLS","SD",57105,43.519027706,-96.760107676,102,"2909 S STONE PL, SIOUX FALLS, SD, 57105","Match","Exact","2909 S STONE PL, SIOUX FALLS, SD, 57105",34975166,"R"
155103,"2909 SAGEBRUSH DR","FLOWER MOUND","TX",75022,33.030049767,-97.074354865,103,"2909 SAGEBRUSH DR, FLOWER MOUND, TX, 75022","Match","Exact","2909 SAGEBRUSH DR, FLOWER MOUND, TX, 75022",103379160,"L"
155104,"2909 SAND SPUR CT","FLORISSANT","MO",63031,38.829653309,-90.330101788,104,"2909 SAND SPUR CT, FLORISSANT, MO, 63031","Match","Exact","2909 SAND SPUR CT, FLORISSANT, MO, 63031",100182914,"R"
155105,"2909 SIR WALTER CRES","CHESAPEAKE","VA",23321,36.84133439,-76.397067778,105,"2909 SIR WALTER CRES, CHESAPEAKE, VA, 23321","Match","Exact","2909 SIR WALTER CRES, CHESAPEAKE, VA, 23321",121775482,"R"
155106,"2909 SOUTH TORRENCE","MARION","IN",46953,40.536171526,-85.667155276,106,"2909 SOUTH TORRENCE, MARION, IN, 46953","Match","Non_Exact","2909 S TORRENCE ST, MARION, IN, 46953",95009468,"L"
155107,"2909 TESIE TRAIL","NEW BERN","NC",28562,35.0351180850001,-77.026171075,107,"2909 TESIE TRAIL, NEW BERN, NC, 28562","Match","Exact","2909 TESIE TRL, NEW BERN, NC, 28562",642481115,"R"
155108,"2909 W BAY TO BAY BLVD STE 208","TAMPA","FL",33629,27.919358118,-82.490609056,108,"2909 W BAY TO BAY BLVD STE 208, TAMPA, FL, 33629","Match","Non_Exact","2909 W BAY TO BAY BLVD, TAMPA, FL, 33629",104527462,"R"
155109,"2909 W MARKHAM STREER","LITTLE ROCK","AR",72205,NA,NA,109,"2909 W MARKHAM STREER, LITTLE ROCK, AR, 72205","No_Match",NA,NA,NA,NA
155110,"2909 W PERKINS AVE","SANDUSKY","OH",44870,41.433664069,-82.7387915149999,110,"2909 W PERKINS AVE, SANDUSKY, OH, 44870","Match","Exact","2909 W PERKINS AVE, SANDUSKY, OH, 44870",55326584,"R"
155111,"2909 W WOODRIDGE DR","MUNCIE","IN",47304,40.232519751,-85.4199842739999,111,"2909 W WOODRIDGE DR, MUNCIE, IN, 47304","Match","Non_Exact","2909 W WOODBRIDGE DR, MUNCIE, IN, 47304",30833757,"L"
155112,"2909 WEST 95TH STREET","INGLEWOOD","CA",90305,33.9498330910001,-118.324619486,112,"2909 WEST 95TH STREET, INGLEWOOD, CA, 90305","Match","Non_Exact","2909 W 95TH AVE, INGLEWOOD, CA, 90305",141655654,"R"
155113,"2909 WESTWOOD ESTATES DRIVE","ERIE","PA",16506,42.0689732660001,-80.1818964669999,113,"2909 WESTWOOD ESTATES DRIVE, ERIE, PA, 16506","Match","Exact","2909 WESTWOOD ESTATES DR, ERIE, PA, 16506",117510062,"L"
155114,"291 7TH STREET - APT 1","BROOKLYN","NY",11215,40.670990659,-73.986525784,114,"291 7TH STREET - APT 1, BROOKLYN, NY, 11215","Match","Exact","291 7TH ST, BROOKLYN, NY, 11215",59075697,"L"
155115,"291 ALEXANDER AVE","SPARTANBURG","SC",29306,34.9422205930001,-81.9201740829999,115,"291 ALEXANDER AVE, SPARTANBURG, SC, 29306","Match","Exact","291 ALEXANDER AVE, SPARTANBURG, SC, 29306",19471310,"R"
155116,"291 BAYNES ST","BUFFALO","NY",14213,42.923406431,-78.885029053,116,"291 BAYNES ST, BUFFALO, NY, 14213","Match","Exact","291 BAYNES ST, BUFFALO, NY, 14213",48289052,"R"
155117,"291 BEACHVIEW DRIVE NE","FORT WALTON BEACH","FL",32547,30.4335453300001,-86.600088281,117,"291 BEACHVIEW DRIVE NE, FORT WALTON BEACH, FL, 32547","Match","Exact","291 BEACHVIEW DR NE, FORT WALTON BEACH, FL, 32547",74429355,"R"
155118,"291 BELLA SERA LANE","SLIDELL","LA",70460,NA,NA,118,"291 BELLA SERA LANE, SLIDELL, LA, 70460","No_Match",NA,NA,NA,NA
155119,"291 BROADWAY STREET","LYNN","MA",1904,42.486448319,-70.9603488929999,119,"291 BROADWAY STREET, LYNN, MA, 1904","Match","Non_Exact","291 BROADWAY, LYNN, MA, 01904",86644712,"R"
155120,"291 CHURCH STREET","SAN FRANCISCO","CA",94114,37.766320964,-122.428826931,120,"291 CHURCH STREET, SAN FRANCISCO, CA, 94114","Match","Exact","291 CHURCH ST, SAN FRANCISCO, CA, 94114",640932993,"L"
155121,"291 COOPER RD","SUMMERVILLE","GA",30747,34.535574882,-85.4246945959999,121,"291 COOPER RD, SUMMERVILLE, GA, 30747","Match","Exact","291 COOPER RD, SUMMERVILLE, GA, 30747",82034545,"L"
155122,"291 COUNTY RD 152","CARPENTER","WY",82054,41.038068256,-104.294821723,122,"291 COUNTY RD 152, CARPENTER, WY, 82054","Match","Exact","291 CO RD 152, CARPENTER, WY, 82054",160160871,"R"
155123,"291 COVE CIRCLE","RAYMORE","MO",64083,38.8013433890001,-94.483401613,123,"291 COVE CIRCLE, RAYMORE, MO, 64083","Match","Exact","291 COVE CIR, RAYMORE, MO, 64083",100938924,"R"
155124,"291 DICK SMITH LN","FORTUNA","CA",95540,40.579593903,-124.11661255,124,"291 DICK SMITH LN, FORTUNA, CA, 95540","Match","Non_Exact","291 DICK SMITH RD, FORTUNA, CA, 95540",112997192,"L"
155125,"291 E DELAVAN AVENUE","BUFFALO","NY",14208,42.9219788570001,-78.8463650149999,125,"291 E DELAVAN AVENUE, BUFFALO, NY, 14208","Match","Exact","291 E DELAVAN AVE, BUFFALO, NY, 14208",48296356,"R"
155126,"291 E MIDWAY LANE","SHELTON","WA",98584,47.2133562920001,-123.068589558,126,"291 E MIDWAY LANE, SHELTON, WA, 98584","Match","Exact","291 E MIDWAY LN, SHELTON, WA, 98584",180853461,"L"
155127,"291 ENGLISH OAKS DR NE","CLEVELAND","TN",37323,35.15916164,-84.794201377,127,"291 ENGLISH OAKS DR NE, CLEVELAND, TN, 37323","Match","Non_Exact","291 ENGLISH OAKS DR, CLEVELAND, TN, 37323",607856815,"L"
155128,"291 GEARY ST STE 600","SAN FRANCISCO","CA",94102,37.787385112,-122.407981342,128,"291 GEARY ST STE 600, SAN FRANCISCO, CA, 94102","Match","Exact","291 GEARY ST, SAN FRANCISCO, CA, 94102",192281357,"L"
155129,"291 GLEN RAPE ROAD","CRANBERRY TOWNSHIP","PA",16066,40.738864173,-80.148226598,129,"291 GLEN RAPE ROAD, CRANBERRY TOWNSHIP, PA, 16066","Match","Exact","291 GLEN RAPE RD, CRANBERRY TOWNSHIP, PA, 16066",617260801,"R"
155130,"291 HAMILTON E HOLMES DRIVE NW","ATLANTA","GA",30318,33.761404139,-84.469702265,130,"291 HAMILTON E HOLMES DRIVE NW, ATLANTA, GA, 30318","Match","Exact","291 HAMILTON E HOLMES DR NW, ATLANTA, GA, 30318",17339738,"R"
155131,"291 HAMPTON ROAD","SOUTHAMPTON","NY",11968,40.8911441120001,-72.3811217589999,131,"291 HAMPTON ROAD, SOUTHAMPTON, NY, 11968","Match","Exact","291 HAMPTON RD, SOUTHAMPTON, NY, 11968",114030167,"R"
155132,"291 HILLSBOROUGH LN","ROCK HILL","SC",29732,34.9428650720001,-81.1131846389999,132,"291 HILLSBOROUGH LN, ROCK HILL, SC, 29732","Match","Exact","291 HILLSBOROUGH LN, ROCK HILL, SC, 29732",647221418,"R"
155133,"291 JEFFERY AVE","HOLLY HILL","FL",32117,29.226427675,-81.045216204,133,"291 JEFFERY AVE, HOLLY HILL, FL, 32117","Match","Exact","291 JEFFERY AVE, HOLLY HILL, FL, 32117",94523884,"L"
155134,"291 JONES ST","MOUNT CLEMENS","MI",48043,42.604405408,-82.883139595,134,"291 JONES ST, MOUNT CLEMENS, MI, 48043","Match","Exact","291 JONES ST, MOUNT CLEMENS, MI, 48043",110664117,"L"
155135,"291 LAKEVIEW TRAIL","HIRAM","GA",30141,33.8522058230001,-84.825687637,135,"291 LAKEVIEW TRAIL, HIRAM, GA, 30141","Match","Exact","291 LAKEVIEW TRL, HIRAM, GA, 30141",17745753,"L"
155136,"291 LOOMIS STREET","WESTFIELD","MA",1085,42.1094358350001,-72.8053901,136,"291 LOOMIS STREET, WESTFIELD, MA, 1085","Match","Exact","291 LOOMIS ST, WESTFIELD, MA, 01085",4060942,"R"
155137,"291 LOWER FLYING POINT ROAD","FREEPORT","ME",4032,43.8192924350001,-70.061294943,137,"291 LOWER FLYING POINT ROAD, FREEPORT, ME, 4032","Match","Exact","291 LOWER FLYING POINT RD, FREEPORT, ME, 04032",612743641,"R"
155138,"291 MAIN STREET","MIDDLEBURGH","NY",12122,42.596866333,-74.332159087,138,"291 MAIN STREET, MIDDLEBURGH, NY, 12122","Match","Exact","291 MAIN ST, MIDDLEBURGH, NY, 12122",18912759,"L"
155139,"291 MIDLAND AVE","EAST ORANGE","NJ",7017,NA,NA,139,"291 MIDLAND AVE, EAST ORANGE, NJ, 7017","No_Match",NA,NA,NA,NA
155140,"291 MOORLAND PLACE","SUN PRAIRIE","WI",53590,43.182721547,-89.255499532,140,"291 MOORLAND PLACE, SUN PRAIRIE, WI, 53590","Match","Exact","291 MOORLAND PL, SUN PRAIRIE, WI, 53590",624399422,"R"
155141,"291 MORTON AVENUE","MILLVILLE","NJ",8332,39.451428967,-75.1202716609999,141,"291 MORTON AVENUE, MILLVILLE, NJ, 8332","Match","Exact","291 MORTON AVE, MILLVILLE, NJ, 08332",174127041,"L"
155142,"291 N MADISON AVE APT 160","PASADENA","CA",91101,NA,NA,142,"291 N MADISON AVE APT 160, PASADENA, CA, 91101","Tie",NA,NA,NA,NA
155143,"291 PALMER ST","NEW BEDFORD","MA",2740,41.634593292,-70.9463290479999,143,"291 PALMER ST, NEW BEDFORD, MA, 2740","Match","Exact","291 PALMER ST, NEW BEDFORD, MA, 02740",46751863,"L"
155144,"291 PARK AVWNUE","NEWARK","NJ",7104,NA,NA,144,"291 PARK AVWNUE, NEWARK, NJ, 7104","No_Match",NA,NA,NA,NA
155145,"291 PEARL STREET","SALEM","NJ",8079,39.5737321450001,-75.4597853939999,145,"291 PEARL STREET, SALEM, NJ, 8079","Match","Exact","291 PEARL ST, SALEM, NJ, 08079",174412819,"R"
155146,"291 PETERS ST UNIT 2","ATLANTA","GA",30313,33.746790752,-84.4024281549999,146,"291 PETERS ST UNIT 2, ATLANTA, GA, 30313","Match","Non_Exact","291 PETERS ST SW, ATLANTA, GA, 30313",618355332,"R"
155147,"291 PLAINVIEW ROAD","HICKSVILLE","NY",11801,40.7689495440001,-73.509495893,147,"291 PLAINVIEW ROAD, HICKSVILLE, NY, 11801","Match","Exact","291 PLAINVIEW RD, HICKSVILLE, NY, 11801",147641546,"R"
155148,"291 PROFESSIONAL PARK ROAD","CLINTON","SC",29325,34.4809131660001,-81.935068733,148,"291 PROFESSIONAL PARK ROAD, CLINTON, SC, 29325","Match","Exact","291 PROFESSIONAL PARK RD, CLINTON, SC, 29325",44460416,"R"
155149,"291 RACE STREET","GRANTSVILLE","UT",84029,40.6068088640001,-112.442501879,149,"291 RACE STREET, GRANTSVILLE, UT, 84029","Match","Exact","291 RACE ST, GRANTSVILLE, UT, 84029",155388132,"L"
155150,"291 RED OAK ROAD","FLINTON","PA",16640,40.6941011750001,-78.5702430809999,150,"291 RED OAK ROAD, FLINTON, PA, 16640","Match","Exact","291 RED OAK RD, FLINTON, PA, 16640",50246368,"R"
155151,"291 S PUERTO","IVINS","UT",84738,37.1631244810001,-113.666344446,151,"291 S PUERTO, IVINS, UT, 84738","Match","Non_Exact","291 S PUERTO DR, IVINS, UT, 84738",628103458,"L"
155152,"291 SADDLEBROOK LN","NAPLES","FL",34110,NA,NA,152,"291 SADDLEBROOK LN, NAPLES, FL, 34110","No_Match",NA,NA,NA,NA
155153,"291 SAINT ANDREWS DRIVE","HUDSON","WI",54016,44.9035341330001,-92.735598872,153,"291 SAINT ANDREWS DRIVE, HUDSON, WI, 54016","Match","Exact","291 ST ANDREWS DR, HUDSON, WI, 54016",110918575,"L"
155154,"291 SAM RIDLEY PKWY E STE 200","SMYRNA","TN",37167,NA,NA,154,"291 SAM RIDLEY PKWY E STE 200, SMYRNA, TN, 37167","No_Match",NA,NA,NA,NA
155155,"291 SANDRIDGE ROAD","GLENWOOD","GA",30428,NA,NA,155,"291 SANDRIDGE ROAD, GLENWOOD, GA, 30428","No_Match",NA,NA,NA,NA
155156,"291 SCHOOL ST","WILLITS","CA",95490,39.4095907290001,-123.356070808,156,"291 SCHOOL ST, WILLITS, CA, 95490","Match","Exact","291 SCHOOL ST, WILLITS, CA, 95490",67259548,"R"
155157,"291 SEVEN OAKS ROAD","NEWPORT","VA",24128,37.298395262,-80.4807902209999,157,"291 SEVEN OAKS ROAD, NEWPORT, VA, 24128","Match","Exact","291 SEVEN OAKS RD, NEWPORT, VA, 24128",46998706,"R"
155158,"291 STANFORD AVE","PALO ALO","CA",94306,37.4302123040001,-122.147154424,158,"291 STANFORD AVE, PALO ALO, CA, 94306","Match","Non_Exact","291 STANFORD AVE, PALO ALTO, CA, 94306",122950869,"L"
155159,"291 STEAMBOAT RUN ROAD","SHEPHERDSTOWN","WV",25443,39.4621132190001,-77.804094974,159,"291 STEAMBOAT RUN ROAD, SHEPHERDSTOWN, WV, 25443","Match","Exact","291 STEAMBOAT RUN RD, SHEPHERDSTOWN, WV, 25443",123420251,"L"
155160,"291 STRATFORD PLACE","LOS ALTOS","CA",94022,37.3845652210001,-122.120543534,160,"291 STRATFORD PLACE, LOS ALTOS, CA, 94022","Match","Exact","291 STRATFORD PL, LOS ALTOS, CA, 94022",122953125,"R"
155161,"291 SWEET GRASS DR","SUN PRAIRIE","WI",53590,43.1779519730001,-89.198087189,161,"291 SWEET GRASS DR, SUN PRAIRIE, WI, 53590","Match","Exact","291 SWEET GRASS DR, SUN PRAIRIE, WI, 53590",647080542,"L"
155162,"291 TOWNCREST DR","BEAVERCREEK","OH",45434,39.6980823230001,-84.0515002019999,162,"291 TOWNCREST DR, BEAVERCREEK, OH, 45434","Match","Exact","291 TOWNCREST DR, BEAVERCREEK, OH, 45434",143419549,"R"
155163,"291 TRADEWINDS DR 10","SAN JOSE","CA",95123,37.2547429640001,-121.828047914,163,"291 TRADEWINDS DR 10, SAN JOSE, CA, 95123","Match","Exact","291 TRADEWINDS DR, SAN JOSE, CA, 95123",618192377,"R"
155164,"291 UNIVERSITY ST","BEREA","OH",44017,41.369227606,-81.841943137,164,"291 UNIVERSITY ST, BEREA, OH, 44017","Match","Exact","291 UNIVERSITY ST, BEREA, OH, 44017",647780553,"L"
155165,"291 W LAKEWOOD BLVD 8","HOLLAND","MI",49424,NA,NA,165,"291 W LAKEWOOD BLVD 8, HOLLAND, MI, 49424","Tie",NA,NA,NA,NA
155166,"291 W YALE AVE","PONTIAC","MI",48340,42.6727082780001,-83.3110452829999,166,"291 W YALE AVE, PONTIAC, MI, 48340","Match","Exact","291 W YALE AVE, PONTIAC, MI, 48340",69702370,"L"
155167,"291 WARREN AVE","LATHROP","CA",95330,37.832548483,-121.282989879,167,"291 WARREN AVE, LATHROP, CA, 95330","Match","Exact","291 WARREN AVE, LATHROP, CA, 95330",133855228,"L"
155168,"291 WARREN AVENUE","LATHROP","CA",95330,37.832548483,-121.282989879,168,"291 WARREN AVENUE, LATHROP, CA, 95330","Match","Exact","291 WARREN AVE, LATHROP, CA, 95330",133855228,"L"
155169,"291 WASHINGTON ROAD","RYE","NH",3870,43.016110241,-70.757981956,169,"291 WASHINGTON ROAD, RYE, NH, 3870","Match","Exact","291 WASHINGTON RD, RYE, NH, 03870",113714305,"L"
155170,"291 WEST CHESTNUT HILL RD","NEWARK","DE",19713,39.651693155,-75.760605455,170,"291 WEST CHESTNUT HILL RD, NEWARK, DE, 19713","Match","Exact","291 W CHESTNUT HILL RD, NEWARK, DE, 19713",187301778,"L"
155171,"291 WESTYN BAY BLVD","OCOEE","FL",34761,28.612329695,-81.548587815,171,"291 WESTYN BAY BLVD, OCOEE, FL, 34761","Match","Exact","291 WESTYN BAY BLVD, OCOEE, FL, 34761",625332054,"L"
155172,"291 WINDCROFT LANE  NW","ACWORTH","GA",30101,34.0706641800001,-84.652707156,172,"291 WINDCROFT LANE  NW, ACWORTH, GA, 30101","Match","Non_Exact","291 WINDCROFT LN, ACWORTH, GA, 30101",613959080,"R"
155173,"291","MASSILLON","OH",44648,NA,NA,173,"291, MASSILLON, OH, 44648","No_Match",NA,NA,NA,NA
155174,"2910 7TH STREET","TUSCALOOSA","AL",35401,33.2059749970001,-87.574446113,174,"2910 7TH STREET, TUSCALOOSA, AL, 35401","Match","Exact","2910 7TH ST, TUSCALOOSA, AL, 35401",82147635,"R"
155175,"2910 A BONNET MEM DR STE 106 / 317","HUEYTOWN","AL",35023,NA,NA,175,"2910 A BONNET MEM DR STE 106 / 317, HUEYTOWN, AL, 35023","No_Match",NA,NA,NA,NA
155176,"2910 ADMORE LANE","EVANS","GA",30809,33.5840317170001,-82.20341001,176,"2910 ADMORE LANE, EVANS, GA, 30809","Match","Exact","2910 ADMORE LN, EVANS, GA, 30809",641038465,"L"
155177,"2910 ALEXANDER STREET","FORT WAYNE","IN",46806,41.0589781480001,-85.10909573,177,"2910 ALEXANDER STREET, FORT WAYNE, IN, 46806","Match","Exact","2910 ALEXANDER ST, FORT WAYNE, IN, 46806",6383339,"R"
155178,"2910 ALLISN BONNET M DR STE 106","HUEYTOWN","AL",35023,NA,NA,178,"2910 ALLISN BONNET M DR STE 106, HUEYTOWN, AL, 35023","No_Match",NA,NA,NA,NA
155179,"2910 CLARKSVILLE STREET","PARIS","TX",75460,33.6513213420001,-95.525656211,179,"2910 CLARKSVILLE STREET, PARIS, TX, 75460","Match","Exact","2910 CLARKSVILLE ST, PARIS, TX, 75460",63575313,"L"
155180,"2910 COMMERCIAL CENTER BLVD STE 101","KATY","TX",77494,29.7363834060001,-95.777935815,180,"2910 COMMERCIAL CENTER BLVD STE 101, KATY, TX, 77494","Match","Exact","2910 COMMERCIAL CENTER BLVD, KATY, TX, 77494",630494232,"R"
155181,"2910 COMMERCIAL CENTER STE 103-231","KATY","TX",77494,29.7363834060001,-95.777935815,181,"2910 COMMERCIAL CENTER STE 103-231, KATY, TX, 77494","Match","Non_Exact","2910 COMMERCIAL CENTER BLVD, KATY, TX, 77494",630494232,"R"
155182,"2910 DOUGLASS AVE","CRESTVIEW","FL",32539,30.771113976,-86.5507683179999,182,"2910 DOUGLASS AVE, CRESTVIEW, FL, 32539","Match","Exact","2910 DOUGLASS AVE, CRESTVIEW, FL, 32539",74397619,"L"
155183,"2910 DUPONT AVENUE NORTH 2","MINNEAPOLIS","MN",55411,45.009833739,-93.293056739,183,"2910 DUPONT AVENUE NORTH 2, MINNEAPOLIS, MN, 55411","Match","Exact","2910 DUPONT AVE N, MINNEAPOLIS, MN, 55411",43622439,"R"
155184,"2910 DUSTY ROAD","FORNEY","TX",75126,32.704004625,-96.455174463,184,"2910 DUSTY ROAD, FORNEY, TX, 75126","Match","Exact","2910 DUSTY RD, FORNEY, TX, 75126",651951516,"R"
155185,"2910 E 57TH SUITE 5 205","SPOKANE","WA",99223,NA,NA,185,"2910 E 57TH SUITE 5 205, SPOKANE, WA, 99223","No_Match",NA,NA,NA,NA
155186,"2910 E COURT STREET","IOWA CITY","IA",52245,41.6569058580001,-91.491269016,186,"2910 E COURT STREET, IOWA CITY, IA, 52245","Match","Exact","2910 E COURT ST, IOWA CITY, IA, 52245",84496727,"L"
155187,"2910 E CROYDEN ST","TUCSON","AZ",85716,32.217420088,-110.929590188,187,"2910 E CROYDEN ST, TUCSON, AZ, 85716","Match","Exact","2910 E CROYDEN ST, TUCSON, AZ, 85716",121174619,"R"
155188,"2910 E FRANKLIN AVE NO 1111","MINNEAPOLIS","MN",55406,NA,NA,188,"2910 E FRANKLIN AVE NO 1111, MINNEAPOLIS, MN, 55406","No_Match",NA,NA,NA,NA
155189,"2910 E GLENN ST","TUCSON","AZ",85716,32.2576606860001,-110.929384211,189,"2910 E GLENN ST, TUCSON, AZ, 85716","Match","Exact","2910 E GLENN ST, TUCSON, AZ, 85716",121168584,"R"
155190,"2910 E HEATON AVE","FRESNO","CA",93721,36.7268721570001,-119.776634808,190,"2910 E HEATON AVE, FRESNO, CA, 93721","Match","Exact","2910 E HEATON AVE, FRESNO, CA, 93721",197580944,"R"
155191,"2910 E INLAND EMPIRE BLVD 106","ONTARIO","CA",91764,NA,NA,191,"2910 E INLAND EMPIRE BLVD 106, ONTARIO, CA, 91764","No_Match",NA,NA,NA,NA
155192,"2910 E ORANGE GROVE BLVD","PASADENA","CA",91107,34.1584757320001,-118.090220944,192,"2910 E ORANGE GROVE BLVD, PASADENA, CA, 91107","Match","Exact","2910 E ORANGE GROVE BLVD, PASADENA, CA, 91107",141632636,"R"
155193,"2910 EAST FRANKLIN AVE APT-2002","MINNEAPOLIS","MN",55406,44.9627720780001,-93.22954713,193,"2910 EAST FRANKLIN AVE APT-2002, MINNEAPOLIS, MN, 55406","Match","Exact","2910 E FRANKLIN AVE, MINNEAPOLIS, MN, 55406",43638490,"L"
155194,"2910 EVANS MILL RD B118","LITHONIA","GA",30038,33.6996788120001,-84.1183720239999,194,"2910 EVANS MILL RD B118, LITHONIA, GA, 30038","Match","Exact","2910 EVANS MILL RD, LITHONIA, GA, 30038",619388550,"L"
155195,"2910 EVANS MILL RD STE  B339","LITHONIA","GA",30038,33.6996788120001,-84.1183720239999,195,"2910 EVANS MILL RD STE  B339, LITHONIA, GA, 30038","Match","Exact","2910 EVANS MILL RD, LITHONIA, GA, 30038",619388550,"L"
155196,"2910 FIRST AVE S","SEATTLE","WA",98134,47.577490077,-122.334195194,196,"2910 FIRST AVE S, SEATTLE, WA, 98134","Match","Exact","2910 1ST AVE S, SEATTLE, WA, 98134",186590426,"L"
155197,"2910 HERON DRIVE","GALVESTON","TX",77551,29.2734026110001,-94.823003984,197,"2910 HERON DRIVE, GALVESTON, TX, 77551","Match","Exact","2910 HERON DR, GALVESTON, TX, 77551",96678845,"L"
155198,"2910 HIGHLAND AVE","MERIDIAN","MS",39307,32.3882750500001,-88.716650832,198,"2910 HIGHLAND AVE, MERIDIAN, MS, 39307","Match","Exact","2910 HIGHLAND AVE, MERIDIAN, MS, 39307",607985636,"R"
155199,"2910 HOYT ST","CHATTANOOGA","TN",37404,35.0461196590001,-85.248779366,199,"2910 HOYT ST, CHATTANOOGA, TN, 37404","Match","Non_Exact","2910 W HOYT ST, CHATTANOOGA, TN, 37404",59309668,"R"
155200,"2910 KERRY FOREST PKWY D4 302","TALLAHASSEE","FL",32309,30.541667633,-84.2266529299999,200,"2910 KERRY FOREST PKWY D4 302, TALLAHASSEE, FL, 32309","Match","Exact","2910 KERRY FOREST PKWY, TALLAHASSEE, FL, 32309",82880310,"R"
155201,"2910 LLOYD COURT","TEMPLE HILLS","MD",20748,38.8453141250001,-76.956528562,201,"2910 LLOYD COURT, TEMPLE HILLS, MD, 20748","Match","Exact","2910 LLOYD CT, TEMPLE HILLS, MD, 20748",76348410,"R"
155202,"2910 MACKEY LANE","SHREVEPORT","LA",71118,32.412594712,-93.80767969,202,"2910 MACKEY LANE, SHREVEPORT, LA, 71118","Match","Exact","2910 MACKEY LN, SHREVEPORT, LA, 71118",57432573,"R"
155203,"2910 MAGNOLIA PLACE","HATTIESBURG","MS",39402,31.3069780060001,-89.335440719,203,"2910 MAGNOLIA PLACE, HATTIESBURG, MS, 39402","Match","Exact","2910 MAGNOLIA PL, HATTIESBURG, MS, 39402",334512,"L"
155204,"2910 MAHAN","SOUTHAVEN","MS",38672,34.967736401,-89.939345383,204,"2910 MAHAN, SOUTHAVEN, MS, 38672","Match","Exact","2910 MAHAN, SOUTHAVEN, MS, 38672",625095342,"R"
155205,"2910 MEADOW FARMS PL","LOUISVILLE","KY",40245,38.277946521,-85.480668737,205,"2910 MEADOW FARMS PL, LOUISVILLE, KY, 40245","Match","Exact","2910 MEADOW FARMS PL, LOUISVILLE, KY, 40245",96937501,"L"
155206,"2910 MONTBELLE DRIVE","KNOXVILLE","TN",37918,36.0418255500001,-83.935365605,206,"2910 MONTBELLE DRIVE, KNOXVILLE, TN, 37918","Match","Exact","2910 MONTBELLE DR, KNOXVILLE, TN, 37918",604667348,"R"
155207,"2910 MUD HOUSE RD","LANCASTER","OH",43130,39.7555973230001,-82.541652315,207,"2910 MUD HOUSE RD, LANCASTER, OH, 43130","Match","Non_Exact","2910 MUD HOUSE RD NE, LANCASTER, OH, 43130",624493786,"L"
155208,"2910 N 28TH STREET","TACOMA","WA",98407,47.2728632880001,-122.47445258,208,"2910 N 28TH STREET, TACOMA, WA, 98407","Match","Exact","2910 N 28TH ST, TACOMA, WA, 98407",184645077,"L"
155209,"2910 N PARHAM RD","HENRICO","VA",23294,37.628459772,-77.546053983,209,"2910 N PARHAM RD, HENRICO, VA, 23294","Match","Exact","2910 N PARHAM RD, HENRICO, VA, 23294",106675794,"L"
155210,"2910 N PARHAM ROAD","HENRICO","VA",23294,37.628459772,-77.546053983,210,"2910 N PARHAM ROAD, HENRICO, VA, 23294","Match","Exact","2910 N PARHAM RD, HENRICO, VA, 23294",106675794,"L"
155211,"2910 N POWERS BLVD  APT 220","COLORADO SPRINGS","CO",80922,NA,NA,211,"2910 N POWERS BLVD  APT 220, COLORADO SPRINGS, CO, 80922","No_Match",NA,NA,NA,NA
155212,"2910 NE 8TH TER APT 203","WILTON MANORS","FL",33334,26.166239864,-80.136699057,212,"2910 NE 8TH TER APT 203, WILTON MANORS, FL, 33334","Match","Non_Exact","2910 NE 8TH TER, WILTON MANORS, FL, 33334",637132321,"L"
155213,"2910 NEW HAVEN DRIVE APT 101","DURHAM","NC",27703,35.93824355,-78.845945676,213,"2910 NEW HAVEN DRIVE APT 101, DURHAM, NC, 27703","Match","Non_Exact","2910 NEW HAVEN DR, DURHAM, NC, 27703",71766806,"L"
155214,"2910 ONEILL DRIVE","BETHEL PARK","PA",15102,40.3201775850001,-80.03858573,214,"2910 ONEILL DRIVE, BETHEL PARK, PA, 15102","Match","Non_Exact","2910 O NEILL DR, BETHEL PARK, PA, 15102",51688885,"R"
155215,"2910 PARHAM ROAD","HENRICO","VA",23294,37.628424882,-77.546124967,215,"2910 PARHAM ROAD, HENRICO, VA, 23294","Match","Non_Exact","2910 N PARHAM RD, HENRICO, VA, 23294",106675794,"L"
155216,"2910 PARKWAY AVE","CHARLOTTE","NC",28208,35.2425276230001,-80.8778071629999,216,"2910 PARKWAY AVE, CHARLOTTE, NC, 28208","Match","Exact","2910 PARKWAY AVE, CHARLOTTE, NC, 28208",70476812,"R"
155217,"2910 PARKWOOD AVE","RICHMOND","VA",23221,37.551234762,-77.478025144,217,"2910 PARKWOOD AVE, RICHMOND, VA, 23221","Match","Exact","2910 PARKWOOD AVE, RICHMOND, VA, 23221",610882980,"R"
155218,"2910 PILLSBURY AVE S SUITE 432","MINNEAPOLIS","MN",55408,44.9502555970001,-93.281346123,218,"2910 PILLSBURY AVE S SUITE 432, MINNEAPOLIS, MN, 55408","Match","Exact","2910 PILLSBURY AVE S, MINNEAPOLIS, MN, 55408",636264540,"R"
155219,"2910 PILLSBURY AVE STE 215","MINNEAPOLIS","MN",55408,44.9502555970001,-93.281346123,219,"2910 PILLSBURY AVE STE 215, MINNEAPOLIS, MN, 55408","Match","Non_Exact","2910 PILLSBURY AVE S, MINNEAPOLIS, MN, 55408",636264540,"R"
155220,"2910 PILLSBURY AVE STE 344","MINNEAPOLIS","MN",55408,44.9502555970001,-93.281346123,220,"2910 PILLSBURY AVE STE 344, MINNEAPOLIS, MN, 55408","Match","Non_Exact","2910 PILLSBURY AVE S, MINNEAPOLIS, MN, 55408",636264540,"R"
155221,"2910 PILLSBURY AVE SUITE 13","MINNEAPOIS","MN",55408,44.9502555970001,-93.281346123,221,"2910 PILLSBURY AVE SUITE 13, MINNEAPOIS, MN, 55408","Match","Non_Exact","2910 PILLSBURY AVE S, MINNEAPOLIS, MN, 55408",636264540,"R"
155222,"2910 PILLSBURY AVENUE SOUTH 204A","MINNEAPOLIS","MN",55408,44.9502555970001,-93.281346123,222,"2910 PILLSBURY AVENUE SOUTH 204A, MINNEAPOLIS, MN, 55408","Match","Exact","2910 PILLSBURY AVE S, MINNEAPOLIS, MN, 55408",636264540,"R"
155223,"2910 PLEASANT AVE STE 450","MINNEAPOLIS","MN",55408,44.9499525630001,-93.283005467,223,"2910 PLEASANT AVE STE 450, MINNEAPOLIS, MN, 55408","Match","Non_Exact","2910 PLEASANT AVE S, MINNEAPOLIS, MN, 55408",636265357,"R"
155224,"2910 REED ROAD APT 518","HOUSTON","TX",77051,29.657862476,-95.382366314,224,"2910 REED ROAD APT 518, HOUSTON, TX, 77051","Match","Exact","2910 REED RD, HOUSTON, TX, 77051",638161399,"R"
155225,"2910 REYNOLDS ROAD","BARTOW","FL",33830,27.86843287,-81.7439349379999,225,"2910 REYNOLDS ROAD, BARTOW, FL, 33830","Match","Exact","2910 REYNOLDS RD, BARTOW, FL, 33830",104888297,"L"
155226,"2910 S 18TH ST","LAFAYETTE","IN",47909,40.38763737,-86.8762932879999,226,"2910 S 18TH ST, LAFAYETTE, IN, 47909","Match","Exact","2910 S 18TH ST, LAFAYETTE, IN, 47909",27308848,"R"
155227,"2910 S ARCHIBALD AVE - A145","ONTARIO","CA",91761,34.0204595820001,-117.593179138,227,"2910 S ARCHIBALD AVE - A145, ONTARIO, CA, 91761","Match","Non_Exact","2910 S ARCHIBALD AVE, ONTARIO, CA, 91761",144637984,"R"
155228,"2910 S ARCHIBALD AVENUE SUITE A 480","ONTARIO","CA",91761,34.0204595820001,-117.593179138,228,"2910 S ARCHIBALD AVENUE SUITE A 480, ONTARIO, CA, 91761","Match","Non_Exact","2910 S ARCHIBALD AVE, ONTARIO, CA, 91761",144637984,"R"
155229,"2910 SE 13TH ROAD UNIT 106","HOMESTEAD","FL",33035,25.4424635010001,-80.4572127929999,229,"2910 SE 13TH ROAD UNIT 106, HOMESTEAD, FL, 33035","Match","Non_Exact","2910 SE 13TH RD, HOMESTEAD, FL, 33035",634011046,"L"
155230,"2910 SOUTH ARCHIBALD AVE SUITE A170","ONTARIO","CA",91761,34.0204692080001,-117.593179228,230,"2910 SOUTH ARCHIBALD AVE SUITE A170, ONTARIO, CA, 91761","Match","Exact","2910 S ARCHIBALD AVE, ONTARIO, CA, 91761",144637984,"R"
155231,"2910 STERRETTANIA ROAD","ERIE","PA",16506,42.0843369900001,-80.1396109679999,231,"2910 STERRETTANIA ROAD, ERIE, PA, 16506","Match","Exact","2910 STERRETTANIA RD, ERIE, PA, 16506",117495529,"R"
155232,"2910 SW PARK TERR","ALBANY","OR",97321,44.6150682780001,-123.121994318,232,"2910 SW PARK TERR, ALBANY, OR, 97321","Match","Non_Exact","2910 PARK TER SW, ALBANY, OR, 97321",156081707,"L"
155233,"2910 THREECHOPT ROAD","HAMPTON","VA",23666,37.03485463,-76.4221246279999,233,"2910 THREECHOPT ROAD, HAMPTON, VA, 23666","Match","Exact","2910 THREECHOPT RD, HAMPTON, VA, 23666",103804428,"R"
155234,"2910 W  HWY 70 SUITE C","THATCHER","AZ",85552,32.8484917480001,-109.749047101,234,"2910 W  HWY 70 SUITE C, THATCHER, AZ, 85552","Match","Non_Exact","2910 US HWY 70, THATCHER, AZ, 85552",128066580,"L"
155235,"2910 W LAKE MARY BOULEVARD","LAKE MARY","FL",32746,NA,NA,235,"2910 W LAKE MARY BOULEVARD, LAKE MARY, FL, 32746","No_Match",NA,NA,NA,NA
155236,"2910 W LATHAM ST","PHOENIX","AZ",85009,33.460737898,-112.122059933,236,"2910 W LATHAM ST, PHOENIX, AZ, 85009","Match","Exact","2910 W LATHAM ST, PHOENIX, AZ, 85009",128210206,"R"
155237,"2910 WELLINGTON PLACE","MURFREESBORO","TN",37128,35.831319611,-86.446630534,237,"2910 WELLINGTON PLACE, MURFREESBORO, TN, 37128","Match","Exact","2910 WELLINGTON PL, MURFREESBORO, TN, 37128",59039936,"R"
155238,"2910 YOUNGS ROAD","LEESBURG","FL",34748,28.795805541,-81.9104230999999,238,"2910 YOUNGS ROAD, LEESBURG, FL, 34748","Match","Exact","2910 YOUNGS RD, LEESBURG, FL, 34748",617018229,"R"
155239,"2910 YOUPON GLEN WAY","FRESNO","TX",77545,29.543273862,-95.491785224,239,"2910 YOUPON GLEN WAY, FRESNO, TX, 77545","Match","Exact","2910 YOUPON GLEN WAY, FRESNO, TX, 77545",635208407,"R"
155240,"2910-B EVANS MILL RD SUITE B107","LITHONIA","GA",30038,33.6996788120001,-84.1183720239999,240,"2910-B EVANS MILL RD SUITE B107, LITHONIA, GA, 30038","Match","Exact","2910 EVANS MILL RD, LITHONIA, GA, 30038",619388550,"L"
155241,"29101 EUCLID AVENUE","WICKLIFFE","OH",44092,41.604304841,-81.476474164,241,"29101 EUCLID AVENUE, WICKLIFFE, OH, 44092","Match","Exact","29101 EUCLID AVE, WICKLIFFE, OH, 44092",137459486,"L"
155242,"29101 SE 371ST ST","ENUMCLAW","WA",98022,47.2681108900001,-121.954677845,242,"29101 SE 371ST ST, ENUMCLAW, WA, 98022","Match","Exact","29101 SE 371ST ST, ENUMCLAW, WA, 98022",187052717,"L"
155243,"29106 SUPERIOR CIRCLE","EASTON","MD",21601,38.740323925,-76.0675883229999,243,"29106 SUPERIOR CIRCLE, EASTON, MD, 21601","Match","Exact","29106 SUPERIOR CR, EASTON, MD, 21601",637313295,"L"
155244,"2911 31ST AVENUE APT 2R","ASTORIA","NY",11106,NA,NA,244,"2911 31ST AVENUE APT 2R, ASTORIA, NY, 11106","No_Match",NA,NA,NA,NA
155245,"2911 47TH STREET","DES MOINES","IA",50310,41.6212113,-93.681582802,245,"2911 47TH STREET, DES MOINES, IA, 50310","Match","Exact","2911 47TH ST, DES MOINES, IA, 50310",65828733,"R"
155246,"2911 AVON ROAD","BETHLEHEM","PA",18017,40.6543255350001,-75.344437533,246,"2911 AVON ROAD, BETHLEHEM, PA, 18017","Match","Exact","2911 AVON RD, BETHLEHEM, PA, 18017",136877360,"L"
155247,"2911 BALVENIE PL NW","ACWORTH","GA",30101,34.0210975360001,-84.6815035019999,247,"2911 BALVENIE PL NW, ACWORTH, GA, 30101","Match","Exact","2911 BALVENIE PL NW, ACWORTH, GA, 30101",648401340,"L"
155248,"2911 BLUE HOLLY LN","OAK HILL","VA",20171,38.9271837800001,-77.410996063,248,"2911 BLUE HOLLY LN, OAK HILL, VA, 20171","Match","Exact","2911 BLUE HOLLY LN, OAK HILL, VA, 20171",215979023,"R"
155249,"2911 BRUNSWICK AVE","NEW BERN","NC",28562,35.123400916,-77.09021339,249,"2911 BRUNSWICK AVE, NEW BERN, NC, 28562","Match","Exact","2911 BRUNSWICK AVE, NEW BERN, NC, 28562",624749038,"L"
155250,"2911 CENTENARY BLVD","SHREVEPOR","LA",71104,32.4850423070001,-93.7336160409999,250,"2911 CENTENARY BLVD, SHREVEPOR, LA, 71104","Match","Non_Exact","2911 CENTENARY BLVD, SHREVEPORT, LA, 71104",57438335,"L"
155251,"2911 CLARIE BLVD","ROBBINS","IL",60472,NA,NA,251,"2911 CLARIE BLVD, ROBBINS, IL, 60472","No_Match",NA,NA,NA,NA
155252,"2911 CONROY COURT APT D","PARKVILLE","MD",21234,39.388223822,-76.542236383,252,"2911 CONROY COURT APT D, PARKVILLE, MD, 21234","Match","Exact","2911 CONROY CT, PARKVILLE, MD, 21234",191476812,"R"
155253,"2911 CONROY CT APARTMENT D","PARKVILLE","MD",21234,39.388223822,-76.542236383,253,"2911 CONROY CT APARTMENT D, PARKVILLE, MD, 21234","Match","Exact","2911 CONROY CT, PARKVILLE, MD, 21234",191476812,"R"
155254,"2911 COYOTE TRAIL CT","MISSOURI CITY","TX",77459,29.5436024040001,-95.5058861699999,254,"2911 COYOTE TRAIL CT, MISSOURI CITY, TX, 77459","Match","Exact","2911 COYOTE TRAIL CT, MISSOURI CITY, TX, 77459",635387763,"L"
155255,"2911 E COLLEGE WAY STE B","MOUNT VERNON","WA",98273,48.4355842530001,-122.303776081,255,"2911 E COLLEGE WAY STE B, MOUNT VERNON, WA, 98273","Match","Non_Exact","2911 E COLLEGE WAY, MOUNT VERNON, WA, 98273",637864694,"L"
155256,"2911 E GATE CITY BOULEVARD","GREENSBORO","NC",27401,36.057745572,-79.7498261539999,256,"2911 E GATE CITY BOULEVARD, GREENSBORO, NC, 27401","Match","Exact","2911 E GATE CITY BLVD, GREENSBORO, NC, 27401",131114572,"R"
155257,"2911 E LAKE HILL DR","ORANGE","CA",92867,33.8331228420001,-117.823410029,257,"2911 E LAKE HILL DR, ORANGE, CA, 92867","Match","Exact","2911 E LAKE HILL DR, ORANGE, CA, 92867",144031498,"L"
155258,"2911 EAST TULARE ST","FRESNO","CA",93721,36.7405593870001,-119.780740624,258,"2911 EAST TULARE ST, FRESNO, CA, 93721","Match","Non_Exact","2911 TULARE ST, FRESNO, CA, 93721",197580315,"L"
155259,"2911 ENNIS AVE","FORT FORTH","TX",76111,32.759278459,-97.305074016,259,"2911 ENNIS AVE, FORT FORTH, TX, 76111","Match","Non_Exact","2911 ENNIS AVE, FORT WORTH, TX, 76111",101890840,"L"
155260,"2911 GABLE LANDING LN","KATY","TX",77494,29.7419186130001,-95.849328816,260,"2911 GABLE LANDING LN, KATY, TX, 77494","Match","Exact","2911 GABLE LANDING LN, KATY, TX, 77494",642953673,"L"
155261,"2911 GARDEN CREEK ROAD","CASPER","WY",82601,42.7705284780001,-106.344222919,261,"2911 GARDEN CREEK ROAD, CASPER, WY, 82601","Match","Exact","2911 GARDEN CREEK RD, CASPER, WY, 82601",636535419,"R"
155262,"2911 GILLMAR STREET","DELTONA","FL",32738,28.9579386350001,-81.184661193,262,"2911 GILLMAR STREET, DELTONA, FL, 32738","Match","Exact","2911 GILLMAR ST, DELTONA, FL, 32738",94500938,"R"
155263,"2911 GRAHAM DR","KINSTON","NC",28504,35.301764232,-77.603514226,263,"2911 GRAHAM DR, KINSTON, NC, 28504","Match","Exact","2911 GRAHAM DR, KINSTON, NC, 28504",13875067,"R"
155264,"2911 GREENWAY","ROCKWALL","TX",75087,NA,NA,264,"2911 GREENWAY, ROCKWALL, TX, 75087","No_Match",NA,NA,NA,NA
155265,"2911 HARVARD BLVD","DAYTON","OH",45406,39.779258729,-84.2361733339999,265,"2911 HARVARD BLVD, DAYTON, OH, 45406","Match","Exact","2911 HARVARD BLVD, DAYTON, OH, 45406",143566791,"R"
155266,"2911 HAZLETT LANE","SPRINGFIELD","IL",62707,39.8431871130001,-89.71620603,266,"2911 HAZLETT LANE, SPRINGFIELD, IL, 62707","Match","Exact","2911 HAZLETT LN, SPRINGFIELD, IL, 62707",624371332,"L"
155267,"2911 JEFFERSON DAVIS HIGHWAY","RICHMOND","VA",23234,37.4846479510001,-77.444763531,267,"2911 JEFFERSON DAVIS HIGHWAY, RICHMOND, VA, 23234","Match","Exact","2911 JEFFERSON DAVIS HWY, RICHMOND, VA, 23234",610885715,"L"
155268,"2911 LA COMBADURA","SANTA BARBARA","CA",93105,34.445921567,-119.720319319,268,"2911 LA COMBADURA, SANTA BARBARA, CA, 93105","Match","Non_Exact","2911 LA COMBADURA RD, SANTA BARBARA, CA, 93105",108603954,"L"
155269,"2911 LITTLE COTTONWOOD RD","SANDY","UT",84092,40.5769787890001,-111.810209297,269,"2911 LITTLE COTTONWOOD RD, SANDY, UT, 84092","Match","Non_Exact","2911 E LITTLE COTTONWOOD RD, SANDY, UT, 84092",650451338,"L"
155270,"2911 MCNAIR AVE","SAINT LOUIS","MO",63118,38.59990521,-90.2205606429999,270,"2911 MCNAIR AVE, SAINT LOUIS, MO, 63118","Match","Exact","2911 MCNAIR AVE, SAINT LOUIS, MO, 63118",107602614,"R"
155271,"2911 MONROE AVENUE","KANSAS CITY","MO",64128,39.072540787,-94.5400458349999,271,"2911 MONROE AVENUE, KANSAS CITY, MO, 64128","Match","Exact","2911 MONROE AVE, KANSAS CITY, MO, 64128",91451178,"L"
155272,"2911 N DOUSMAN SUITE 3","OCONOMOWOC","WI",53066,NA,NA,272,"2911 N DOUSMAN SUITE 3, OCONOMOWOC, WI, 53066","No_Match",NA,NA,NA,NA
155273,"2911 N MANOR DR E","PHOENIX","AZ",85014,33.484029789,-112.054206764,273,"2911 N MANOR DR E, PHOENIX, AZ, 85014","Match","Exact","2911 N MANOR DR E, PHOENIX, AZ, 85014",128213185,"R"
155274,"2911 NE 42ND ST","VANCOUVER","WA",98663,45.652098188,-122.640805575,274,"2911 NE 42ND ST, VANCOUVER, WA, 98663","Match","Exact","2911 NE 42ND ST, VANCOUVER, WA, 98663",158326421,"R"
155275,"2911 NICHOLAS COVE","NEW BRAUNFELS","TX",78130,29.6681682080001,-98.140277375,275,"2911 NICHOLAS COVE, NEW BRAUNFELS, TX, 78130","Match","Exact","2911 NICHOLAS CV, NEW BRAUNFELS, TX, 78130",651547110,"R"
155276,"2911 PALOMA ST","PASADENA","CA",91107,34.159431328,-118.090263219,276,"2911 PALOMA ST, PASADENA, CA, 91107","Match","Exact","2911 PALOMA ST, PASADENA, CA, 91107",141632634,"L"
155277,"2911 PIEDMONT RD NE","ATLANTA","GA",30305,33.8344477700001,-84.368000814,277,"2911 PIEDMONT RD NE, ATLANTA, GA, 30305","Match","Exact","2911 PIEDMONT RD NE, ATLANTA, GA, 30305",17355857,"R"
155278,"2911 S 381ST WAY","AUBURN","WA",98001,47.2613771520001,-122.296443305,278,"2911 S 381ST WAY, AUBURN, WA, 98001","Match","Exact","2911 S 381ST WAY, AUBURN, WA, 98001",186959057,"R"
155279,"2911 S HARBOR CITY BLVD","MELBOURNE","FL",32910,28.064684282,-80.597772908,279,"2911 S HARBOR CITY BLVD, MELBOURNE, FL, 32910","Match","Non_Exact","2911 S HARBOR CITY BLVD, MELBOURNE, FL, 32901",93905553,"L"
155280,"2911 SAINT MARYS VIEW RD","ACCOKEEK","MD",20607,38.6989952640001,-76.95713109,280,"2911 SAINT MARYS VIEW RD, ACCOKEEK, MD, 20607","Match","Exact","2911 ST MARYS VIEW RD, ACCOKEEK, MD, 20607",638291748,"R"
155281,"2911 SHADOWLANE DR","DICKINSON","TX",77539,29.4606573510001,-95.073068801,281,"2911 SHADOWLANE DR, DICKINSON, TX, 77539","Match","Exact","2911 SHADOWLANE DR, DICKINSON, TX, 77539",96735289,"L"
155282,"2911 SONATA CT","SAINT CLOUD","FL",34772,28.2016643040001,-81.300583124,282,"2911 SONATA CT, SAINT CLOUD, FL, 34772","Match","Exact","2911 SONATA CT, SAINT CLOUD, FL, 34772",624570036,"L"
155283,"2911 SUNSET RIDGE","MCKINNEY","TX",75070,33.1768039470001,-96.657655884,283,"2911 SUNSET RIDGE, MCKINNEY, TX, 75070","Match","Non_Exact","2911 SUNSET RIDGE, MCKINNEY, TX, 75072",123526644,"L"
155284,"2911 SURREY LANE","ATLANTA","GA",30341,33.873345134,-84.318012363,284,"2911 SURREY LANE, ATLANTA, GA, 30341","Match","Exact","2911 SURREY LN, ATLANTA, GA, 30341",640459051,"R"
155285,"2911 TURTLE CREEK BLVD STE 450","DALLAS","TX",75219,32.8036908080001,-96.8058584359999,285,"2911 TURTLE CREEK BLVD STE 450, DALLAS, TX, 75219","Match","Exact","2911 TURTLE CREEK BLVD, DALLAS, TX, 75219",103263095,"L"
155286,"2911 TURTLE CREEK BLVD SUITE 1100","DALLAS","TX",75219,32.8036908080001,-96.8058584359999,286,"2911 TURTLE CREEK BLVD SUITE 1100, DALLAS, TX, 75219","Match","Exact","2911 TURTLE CREEK BLVD, DALLAS, TX, 75219",103263095,"L"
155287,"2911 TURTLE CREEK BLVD SUITE 300","DALLAS","TX",75219,32.8036908080001,-96.8058584359999,287,"2911 TURTLE CREEK BLVD SUITE 300, DALLAS, TX, 75219","Match","Exact","2911 TURTLE CREEK BLVD, DALLAS, TX, 75219",103263095,"L"
155288,"2911 UNIVERSITY DR","DURHAM","NC",27707,35.969462918,-78.93504047,288,"2911 UNIVERSITY DR, DURHAM, NC, 27707","Match","Exact","2911 UNIVERSITY DR, DURHAM, NC, 27707",71739893,"L"
155289,"2911 VIA CARMEN","SAN JOSE","CA",95124,37.2683523760001,-121.935196899,289,"2911 VIA CARMEN, SAN JOSE, CA, 95124","Match","Exact","2911 VIA CARMEN, SAN JOSE, CA, 95124",122920622,"R"
155290,"2911 VISTAS DRIVE APT 326","FORT WORTH","TX",76135,NA,NA,290,"2911 VISTAS DRIVE APT 326, FORT WORTH, TX, 76135","No_Match",NA,NA,NA,NA
155291,"2911 WINDSOR RIDGE DRIVE","WESTBOROUGH","MA",1581,42.290408949,-71.58817476,291,"2911 WINDSOR RIDGE DRIVE, WESTBOROUGH, MA, 1581","Match","Exact","2911 WINDSOR RIDGE DR, WESTBOROUGH, MA, 01581",40110039,"L"
155292,"2911","CHICAGO","IL",60645,NA,NA,292,"2911, CHICAGO, IL, 60645","No_Match",NA,NA,NA,NA
155293,"2911","FAYETTEVILLE","AR",72702,NA,NA,293,"2911, FAYETTEVILLE, AR, 72702","No_Match",NA,NA,NA,NA
155294,"29112 LANCASTER DRIVE 102","SOUTHFIELD","MI",48034,42.5023164290001,-83.281442967,294,"29112 LANCASTER DRIVE 102, SOUTHFIELD, MI, 48034","Match","Exact","29112 LANCASTER DR, SOUTHFIELD, MI, 48034",69823403,"R"
155295,"29112 VISTA VALLEY DRIVE","VISTA","CA",92084,33.244152919,-117.189667328,295,"29112 VISTA VALLEY DRIVE, VISTA, CA, 92084","Match","Exact","29112 VISTA VALLEY DR, VISTA, CA, 92084",195441206,"R"
155296,"29114 MEADOW TERRACE DRIVE","FULSHEAR","TX",77441,NA,NA,296,"29114 MEADOW TERRACE DRIVE, FULSHEAR, TX, 77441","No_Match",NA,NA,NA,NA
155297,"29115 S HULT RD","COLTON","OR",97017,45.1853171290001,-122.445206251,297,"29115 S HULT RD, COLTON, OR, 97017","Match","Exact","29115 S HULT RD, COLTON, OR, 97017",157938033,"L"
155298,"29115 VALLEY CENTER ROAD / SUITE K","VALLEY CENTER","CA",92082,33.23112523,-117.027658278,298,"29115 VALLEY CENTER ROAD / SUITE K, VALLEY CENTER, CA, 92082","Match","Exact","29115 VALLEY CENTER RD, VALLEY CENTER, CA, 92082",195385884,"R"
155299,"29115 VALLEY CENTER ROAD","VALLEY CENTER","CA",92061,33.23112523,-117.027658278,299,"29115 VALLEY CENTER ROAD, VALLEY CENTER, CA, 92061","Match","Non_Exact","29115 VALLEY CENTER RD, VALLEY CENTER, CA, 92082",195385884,"R"
155300,"2912 224TH STREET","SAUK VILLAGE","IL",60411,41.4830325,-87.550466596,300,"2912 224TH STREET, SAUK VILLAGE, IL, 60411","Match","Exact","2912 224TH ST, SAUK VILLAGE, IL, 60411",111787186,"R"
155301,"2912 AARON DRIVE","CHESAPEAKE","VI",23323,NA,NA,301,"2912 AARON DRIVE, CHESAPEAKE, VI, 23323","No_Match",NA,NA,NA,NA
155302,"2912 ALLIGATOR ROAD","EFFINGHAM","SC",29541,34.1504538630001,-79.827681308,302,"2912 ALLIGATOR ROAD, EFFINGHAM, SC, 29541","Match","Exact","2912 ALLIGATOR RD, EFFINGHAM, SC, 29541",647400492,"R"
155303,"2912 BENVENUE AVENUE","BERKELEY","CA",94705,37.8578392490001,-122.25439906,303,"2912 BENVENUE AVENUE, BERKELEY, CA, 94705","Match","Exact","2912 BENVENUE AVE, BERKELEY, CA, 94705",124998767,"R"
155304,"2912 BRIGHTON BLUFF DRIVE","APEX","NC",27539,35.6449407900001,-78.7292810929999,304,"2912 BRIGHTON BLUFF DRIVE, APEX, NC, 27539","Match","Exact","2912 BRIGHTON BLUFF DR, APEX, NC, 27539",612828409,"R"
155305,"2912 CHIPPEWA","ST LOUIS","MO",63118,38.5869868950001,-90.233977651,305,"2912 CHIPPEWA, ST LOUIS, MO, 63118","Match","Non_Exact","2912 CHIPPEWA ST, SAINT LOUIS, MO, 63118",107602378,"L"
155306,"2912 CRYSTAL WAY","GRAND PRAIRIE","TX",75052,32.6272803850001,-97.0545869269999,306,"2912 CRYSTAL WAY, GRAND PRAIRIE, TX, 75052","Match","Exact","2912 CRYSTAL WAY, GRAND PRAIRIE, TX, 75052",617671320,"R"
155307,"2912 DEBRA DRIVE","RALEIGH","NC",27607,35.8215925160001,-78.684511712,307,"2912 DEBRA DRIVE, RALEIGH, NC, 27607","Match","Exact","2912 DEBRA DR, RALEIGH, NC, 27607",72501425,"R"
155308,"2912 EDGINGTON DT","FRANKLIN PARK","IL",60131,41.9316445860001,-87.862868613,308,"2912 EDGINGTON DT, FRANKLIN PARK, IL, 60131","Match","Non_Exact","2912 EDGINGTON ST, FRANKLIN PARK, IL, 60131",605259833,"L"
155309,"2912 EDMONIA AVE","LOUISVILLE","KY",40220,38.223657829,-85.6238713449999,309,"2912 EDMONIA AVE, LOUISVILLE, KY, 40220","Match","Exact","2912 EDMONIA AVE, LOUISVILLE, KY, 40220",96893743,"R"
155310,"2912 FAIRLAND  RD","SILVER SPRING","MD",20904,39.0686673610001,-76.95119885,310,"2912 FAIRLAND  RD, SILVER SPRING, MD, 20904","Match","Exact","2912 FAIRLAND RD, SILVER SPRING, MD, 20904",62074371,"L"
155311,"2912 FAIRWAY DR","ORANGE","TX",77630,30.117402376,-93.755142027,311,"2912 FAIRWAY DR, ORANGE, TX, 77630","Match","Exact","2912 FAIRWAY DR, ORANGE, TX, 77630",74008221,"L"
155312,"2912 FALLEN TREE DR","CANTONMENT","FL",32533,30.5719093180001,-87.2560902879999,312,"2912 FALLEN TREE DR, CANTONMENT, FL, 32533","Match","Exact","2912 FALLEN TREE DR, CANTONMENT, FL, 32533",93235336,"L"
155313,"2912 GREENWAY DRIVE","BURLESON","TX",76028,32.4846339480001,-97.363286714,313,"2912 GREENWAY DRIVE, BURLESON, TX, 76028","Match","Exact","2912 GREENWAY DR, BURLESON, TX, 76028",634281976,"R"
155314,"2912 GRIFFITH ROAD","MONROE","NC",28112,34.9334806680001,-80.560032871,314,"2912 GRIFFITH ROAD, MONROE, NC, 28112","Match","Exact","2912 GRIFFITH RD, MONROE, NC, 28112",642589961,"L"
155315,"2912 HIGHWOODS BLVD SUITE 204","RALEIGH","NC",27604,35.8192214250001,-78.601813202,315,"2912 HIGHWOODS BLVD SUITE 204, RALEIGH, NC, 27604","Match","Exact","2912 HIGHWOODS BLVD, RALEIGH, NC, 27604",72508104,"L"
155316,"2912 HUNT VALLEY DRIVE","GLENWOOD","MD",21738,39.283832207,-77.0400961619999,316,"2912 HUNT VALLEY DRIVE, GLENWOOD, MD, 21738","Match","Exact","2912 HUNT VALLEY DR, GLENWOOD, MD, 21738",158937750,"R"
155317,"2912 HWY 1146","DERIDDER","LA",70634,30.9122416910001,-93.23666242,317,"2912 HWY 1146, DERIDDER, LA, 70634","Match","Non_Exact","2912 STATE RTE 1146, DERIDDER, LA, 70634",650870555,"R"
155318,"2912 INVERNESS DRIVE","LOS ALAMITOS","CA",90720,33.789370827,-118.082870208,318,"2912 INVERNESS DRIVE, LOS ALAMITOS, CA, 90720","Match","Exact","2912 INVERNESS DR, LOS ALAMITOS, CA, 90720",144002585,"R"
155319,"2912 JEFF MYERS CIRCLE","SARASOTA","FL",34240,27.3053043250001,-82.42041857,319,"2912 JEFF MYERS CIRCLE, SARASOTA, FL, 34240","Match","Exact","2912 JEFF MYERS CIR, SARASOTA, FL, 34240",16379568,"R"
155320,"2912 LAGUNA CT","PLANO","TX",75023,33.044138478,-96.7501842459999,320,"2912 LAGUNA CT, PLANO, TX, 75023","Match","Exact","2912 LAGUNA CT, PLANO, TX, 75023",123486633,"R"
155321,"2912 LEATHERWOOD RD","STEWART","TN",37175,NA,NA,321,"2912 LEATHERWOOD RD, STEWART, TN, 37175","No_Match",NA,NA,NA,NA
155322,"2912 MASTERS VIEW RD","LEXINGTON","KY",40511,38.0929883250001,-84.550279417,322,"2912 MASTERS VIEW RD, LEXINGTON, KY, 40511","Match","Exact","2912 MASTERS VIEW RD, LEXINGTON, KY, 40511",31941640,"L"
155323,"2912 N 48TH ST","MILWAUKEE","WI",53210,43.071934357,-87.973618405,323,"2912 N 48TH ST, MILWAUKEE, WI, 53210","Match","Exact","2912 N 48TH ST, MILWAUKEE, WI, 53210",77732163,"R"
155324,"2912 NE 8TH TERRACE","OAKLAND PARK","FL",33334,26.1662432750001,-80.136698989,324,"2912 NE 8TH TERRACE, OAKLAND PARK, FL, 33334","Match","Exact","2912 NE 8TH TER, OAKLAND PARK, FL, 33334",637132321,"L"
155325,"2912 NELSON PL SE APT 2","WASHINGTON","DC",20019,38.8766337060001,-76.967328637,325,"2912 NELSON PL SE APT 2, WASHINGTON, DC, 20019","Match","Exact","2912 NELSON PL SE, WASHINGTON, DC, 20019",76231689,"L"
155326,"2912 NICHOLAS COVE","NEW BRAUNFELS","TX",78130,29.6681325800001,-98.140378653,326,"2912 NICHOLAS COVE, NEW BRAUNFELS, TX, 78130","Match","Exact","2912 NICHOLAS CV, NEW BRAUNFELS, TX, 78130",651547110,"L"
155327,"2912 PARSIFAL LANE","CHARLOTTE","NC",28213,35.299285829,-80.711279647,327,"2912 PARSIFAL LANE, CHARLOTTE, NC, 28213","Match","Exact","2912 PARSIFAL LN, CHARLOTTE, NC, 28213",630163509,"R"
155328,"2912 PLEASANT GLEN DRIVE","HERNDON","VA",20171,38.921190241,-77.4031147219999,328,"2912 PLEASANT GLEN DRIVE, HERNDON, VA, 20171","Match","Exact","2912 PLEASANT GLEN DR, HERNDON, VA, 20171",76003266,"L"
155329,"2912 REBECCA DR","FAIRFIELD","CA",94533,38.283379317,-122.00651183,329,"2912 REBECCA DR, FAIRFIELD, CA, 94533","Match","Exact","2912 REBECCA DR, FAIRFIELD, CA, 94533",192604880,"L"
155330,"2912 S JACKSON","MCALLEN","TX",78503,26.1724841020001,-98.208547003,330,"2912 S JACKSON, MCALLEN, TX, 78503","Match","Non_Exact","2912 S JACKSON RD, MCALLEN, TX, 78503",628029953,"R"
155331,"2912 SE BINGHAM CT","LEES SUMMIT","MO",64063,38.9119755830001,-94.313201331,331,"2912 SE BINGHAM CT, LEES SUMMIT, MO, 64063","Match","Exact","2912 SE BINGHAM CT, LEES SUMMIT, MO, 64063",91512221,"R"
155332,"2912 SW ARNOLD STREET","PORTLAND","OR",97219,45.4451739360001,-122.70690585,332,"2912 SW ARNOLD STREET, PORTLAND, OR, 97219","Match","Exact","2912 SW ARNOLD ST, PORTLAND, OR, 97219",157564714,"L"
155333,"2912 WEST LARKSPUR ROAD","FLORENCE","SC",29501,34.1795736170001,-79.835571325,333,"2912 WEST LARKSPUR ROAD, FLORENCE, SC, 29501","Match","Non_Exact","2912 LARKSPUR RD, FLORENCE, SC, 29501",28877196,"L"
155334,"2912 WESTRIDGE DRIVE","WOODRIDGE","IL",60517,41.7477774910001,-88.053352436,334,"2912 WESTRIDGE DRIVE, WOODRIDGE, IL, 60517","Match","Exact","2912 WESTRIDGE DR, WOODRIDGE, IL, 60517",112539045,"R"
155335,"29120 ENNISCRONE DR","SAN ANTONIO","FL",33576,28.301525601,-82.335062498,335,"29120 ENNISCRONE DR, SAN ANTONIO, FL, 33576","Match","Non_Exact","29120 ENNISCRONE CT, SAN ANTONIO, FL, 33576",625728385,"L"
155336,"29120 N 66TH ST","CAVE CREEK","AZ",85331,33.7497939090001,-111.938970162,336,"29120 N 66TH ST, CAVE CREEK, AZ, 85331","Match","Exact","29120 N 66TH ST, CAVE CREEK, AZ, 85331",128932060,"R"
155337,"29123 416TH AVE","TRIPP","SD",57376,43.166253614,-97.8731993229999,337,"29123 416TH AVE, TRIPP, SD, 57376","Match","Exact","29123 416TH AVE, TRIPP, SD, 57376",172930807,"L"
155338,"29123 RACHID LANE","CHESTERFIELD","MI",48047,42.6539058010001,-82.8096116139999,338,"29123 RACHID LANE, CHESTERFIELD, MI, 48047","Match","Exact","29123 RACHID LN, CHESTERFIELD, MI, 48047",110732199,"L"
155339,"29124 GLENCASTLE DR","FARMINGTON HILLS","MI",48336,42.480491697,-83.3353900449999,339,"29124 GLENCASTLE DR, FARMINGTON HILLS, MI, 48336","Match","Exact","29124 GLENCASTLE DR, FARMINGTON HILLS, MI, 48336",69815120,"R"
155340,"29129 BAY HOLLOW DR APT3211","WESLEY CHAPEL","FL",33543,28.2287923660001,-82.335009584,340,"29129 BAY HOLLOW DR APT3211, WESLEY CHAPEL, FL, 33543","Match","Exact","29129 BAY HOLLOW DR, WESLEY CHAPEL, FL, 33543",86387958,"L"
155341,"29129 JOHNSTON RD  LOT 2708","DADE CITY","FL",33523,28.4053168570001,-82.334054749,341,"29129 JOHNSTON RD  LOT 2708, DADE CITY, FL, 33523","Match","Exact","29129 JOHNSTON RD, DADE CITY, FL, 33523",86372888,"R"
155342,"2913 141ST STREET","BLUE ISLAND","IL",60406,41.6370068160001,-87.6920453879999,342,"2913 141ST STREET, BLUE ISLAND, IL, 60406","Match","Exact","2913 141ST ST, BLUE ISLAND, IL, 60406",111826154,"L"
155343,"2913 63 STREET","KENOSHA","WI",53143,42.577592447,-87.8444566589999,343,"2913 63 STREET, KENOSHA, WI, 53143","Match","Exact","2913 63RD ST, KENOSHA, WI, 53143",79799615,"L"
155344,"2913 ALDER PL","FULLERTON","CA",92835,33.9047036050001,-117.886419072,344,"2913 ALDER PL, FULLERTON, CA, 92835","Match","Exact","2913 ALDER PL, FULLERTON, CA, 92835",144008087,"L"
155345,"2913 ALTA VISTA","SAN ANGELO","TX",76904,31.4134075200001,-100.484526585,345,"2913 ALTA VISTA, SAN ANGELO, TX, 76904","Match","Non_Exact","2913 ALTA VISTA LN, SAN ANGELO, TX, 76904",190680586,"L"
155346,"2913 BETSY COURT","EVANSVILLE","IN",47720,37.9875441,-87.609630465,346,"2913 BETSY COURT, EVANSVILLE, IN, 47720","Match","Exact","2913 BETSY CT, EVANSVILLE, IN, 47720",39798513,"L"
155347,"2913 BEVERLY DRIVE","PLANO","TX",75093,33.040298567,-96.8395654349999,347,"2913 BEVERLY DRIVE, PLANO, TX, 75093","Match","Exact","2913 BEVERLY DR, PLANO, TX, 75093",123531294,"L"
155348,"2913 CUTLER AVE NE","ALBUQUERQUE","NM",87106,35.105027512,-106.613659681,348,"2913 CUTLER AVE NE, ALBUQUERQUE, NM, 87106","Match","Exact","2913 CUTLER AVE NE, ALBUQUERQUE, NM, 87106",206709553,"L"
155349,"2913 E 22ND STREET","TUCSON","AZ",85713,32.206892813,-110.928980484,349,"2913 E 22ND STREET, TUCSON, AZ, 85713","Match","Exact","2913 E 22ND ST, TUCSON, AZ, 85713",121174796,"L"
155350,"2913 EDITH ST","PORTAGE","IN",46368,41.5673441870001,-87.158701892,350,"2913 EDITH ST, PORTAGE, IN, 46368","Match","Exact","2913 EDITH ST, PORTAGE, IN, 46368",119930501,"L"
155351,"2913 KERMIT ST","PLAINVIEW","TX",79072,34.207940158,-101.750348318,351,"2913 KERMIT ST, PLAINVIEW, TX, 79072","Match","Exact","2913 KERMIT ST, PLAINVIEW, TX, 79072",636447236,"L"
155352,"2913 MABEL ST","BERKELEY","CA",94702,37.853575623,-122.283970745,352,"2913 MABEL ST, BERKELEY, CA, 94702","Match","Exact","2913 MABEL ST, BERKELEY, CA, 94702",606070430,"L"
155353,"2913 SE CATES CIRCLE","PORT SAINT LUCIE","FL",34952,27.2557670210001,-80.291948518,353,"2913 SE CATES CIRCLE, PORT SAINT LUCIE, FL, 34952","Match","Exact","2913 SE CATES CIR, PORT ST LUCIE, FL, 34952",120154882,"L"
155354,"2913 SHATTUCK AVE","BERKELEY","CA",94705,37.8564965900001,-122.266633247,354,"2913 SHATTUCK AVE, BERKELEY, CA, 94705","Match","Exact","2913 SHATTUCK AVE, BERKELEY, CA, 94705",605994569,"L"
155355,"2913 SHORE ROAD","FORT COLLINS","CO",80524,40.6298429610001,-105.071535911,355,"2913 SHORE ROAD, FORT COLLINS, CO, 80524","Match","Exact","2913 SHORE RD, FORT COLLINS, CO, 80524",188511129,"L"
155356,"2913 SW 3RD TERRACE","CAPE CORAL","FL",33991,26.6463299530001,-82.035704234,356,"2913 SW 3RD TERRACE, CAPE CORAL, FL, 33991","Match","Exact","2913 SW 3RD TER, CAPE CORAL, FL, 33991",117997789,"L"
155357,"2913 VICTORIA LANE","ALLENTOWN","PA",18104,40.648923208,-75.533509453,357,"2913 VICTORIA LANE, ALLENTOWN, PA, 18104","Match","Exact","2913 VICTORIA LN, ALLENTOWN, PA, 18104",80796531,"L"
155358,"2913 W ROSECRANS","GARDENA","CA",90249,33.9021215180001,-118.324218024,358,"2913 W ROSECRANS, GARDENA, CA, 90249","Match","Non_Exact","2913 W ROSECRANS AVE, GARDENA, CA, 90249",241198342,"L"
155359,"2913 WOODMONT CIRCLE","MODESTO","CA",95355,37.670098626,-120.941719561,359,"2913 WOODMONT CIRCLE, MODESTO, CA, 95355","Match","Exact","2913 WOODMONT CIR, MODESTO, CA, 95355",102612239,"R"
155360,"2913-C ARLINGTON DRIVE","ALEXANDRIA","VA",22306,38.754659766,-77.081412922,360,"2913-C ARLINGTON DRIVE, ALEXANDRIA, VA, 22306","Match","Exact","2913 ARLINGTON DR, ALEXANDRIA, VA, 22306",650734434,"L"
155361,"29131 SLEEPY HOLLOW","SILVERADO","CA",92676,33.7465574280001,-117.62191064,361,"29131 SLEEPY HOLLOW, SILVERADO, CA, 92676","Match","Exact","29131 SLEEPY HOLLOW, SILVERADO, CA, 92676",144419397,"R"
155362,"29138 PACIFIC COAST HWY STE 784","MALIBU","CA",90265,34.0222636660001,-118.805622989,362,"29138 PACIFIC COAST HWY STE 784, MALIBU, CA, 90265","Match","Exact","29138 PACIFIC COAST HWY, MALIBU, CA, 90265",142809981,"R"
155363,"2914 21ST AVE CT SE","PUYALLUP","WA",98372,47.170305705,-122.254950193,363,"2914 21ST AVE CT SE, PUYALLUP, WA, 98372","Match","Exact","2914 21ST AVE CT SE, PUYALLUP, WA, 98372",623909647,"L"
155364,"2914 8TH ST SW","LOVELAND","CO",80537,40.384144808,-105.117971439,364,"2914 8TH ST SW, LOVELAND, CO, 80537","Match","Exact","2914 8TH ST SW, LOVELAND, CO, 80537",188487494,"L"
155365,"2914 ACORN OAKS DRIVE","KATY","TX",77493,29.8149897770001,-95.791630159,365,"2914 ACORN OAKS DRIVE, KATY, TX, 77493","Match","Exact","2914 ACORN OAKS DR, KATY, TX, 77493",641967205,"R"
155366,"2914 COUNTRY CIRCLE","MESQUITE","TX",75181,32.7340652020001,-96.597182881,366,"2914 COUNTRY CIRCLE, MESQUITE, TX, 75181","Match","Exact","2914 COUNTRY CIR, MESQUITE, TX, 75181",103169881,"R"
155367,"2914 CROSS VALLEY RD","KNOXVILLE","TN",37917,36.0164410410001,-83.892178797,367,"2914 CROSS VALLEY RD, KNOXVILLE, TN, 37917","Match","Non_Exact","2914 CROSS VALLEY RD NE, KNOXVILLE, TN, 37917",42620994,"R"
155368,"2914 ELINOR ST","FORT WORTH","TX",76111,32.7971746850001,-97.292283766,368,"2914 ELINOR ST, FORT WORTH, TX, 76111","Match","Exact","2914 ELINOR ST, FORT WORTH, TX, 76111",101858672,"R"
155369,"2914 FRANCISCAN ST NE","ALBUQUERQUE","NM",87107,35.1150353,-106.636144127,369,"2914 FRANCISCAN ST NE, ALBUQUERQUE, NM, 87107","Match","Exact","2914 FRANCISCAN ST NE, ALBUQUERQUE, NM, 87107",642656690,"R"
155370,"2914 MACKEY DRIVE","FALLBROOK","CA",92028,33.3401256340001,-117.244343632,370,"2914 MACKEY DRIVE, FALLBROOK, CA, 92028","Match","Exact","2914 MACKEY DR, FALLBROOK, CA, 92028",195287052,"L"
155371,"2914 MCFADDEN DRIVE","TUSKEGEE INSTITUTE","AL",36088,32.3956151400001,-85.720154873,371,"2914 MCFADDEN DRIVE, TUSKEGEE INSTITUTE, AL, 36088","Match","Exact","2914 MCFADDEN DR, TUSKEGEE INSTITUTE, AL, 36088",69128843,"R"
155372,"2914 MCROBERTS RD","WALLINGFORD","KY",41093,38.383966292,-83.51406551,372,"2914 MCROBERTS RD, WALLINGFORD, KY, 41093","Match","Exact","2914 MCROBERTS RD, WALLINGFORD, KY, 41093",651182819,"R"
155373,"2914 MILITARY ROAD NW","WASHINGTON","DC",20015,38.9610135470001,-77.058946985,373,"2914 MILITARY ROAD NW, WASHINGTON, DC, 20015","Match","Exact","2914 MILITARY RD NW, WASHINGTON, DC, 20015",76220669,"L"
155374,"2914 NE 4TH ST","RENTON","WA",98056,47.4885727590001,-122.180057585,374,"2914 NE 4TH ST, RENTON, WA, 98056","Match","Exact","2914 NE 4TH ST, RENTON, WA, 98056",186632495,"L"
155375,"2914 PANHANDLE DRIVE","ROCKWALL","TX",75087,32.9611404190001,-96.437737542,375,"2914 PANHANDLE DRIVE, ROCKWALL, TX, 75087","Match","Exact","2914 PANHANDLE DR, ROCKWALL, TX, 75087",617952761,"R"
155376,"2914 PANORAMA DRIVE","CARROLLTON","TX",75007,32.9951625300001,-96.90466358,376,"2914 PANORAMA DRIVE, CARROLLTON, TX, 75007","Match","Exact","2914 PANORAMA DR, CARROLLTON, TX, 75007",642840602,"L"
155377,"2914 PEACHSTONE PLACE","SPRING","TX",77389,30.085950107,-95.462080365,377,"2914 PEACHSTONE PLACE, SPRING, TX, 77389","Match","Exact","2914 PEACHSTONE PL, SPRING, TX, 77389",644997670,"L"
155378,"2914 REMY CT","GRAND RAPIDS","MI",49505,43.0150216160001,-85.64760814,378,"2914 REMY CT, GRAND RAPIDS, MI, 49505","Match","Non_Exact","2914 REMY CT NE, GRAND RAPIDS, MI, 49505",619149727,"R"
155379,"2914 S MEADOWBROOK PL","ONTARIO","CA",91761,34.0207509960001,-117.61704089,379,"2914 S MEADOWBROOK PL, ONTARIO, CA, 91761","Match","Exact","2914 S MEADOWBROOK PL, ONTARIO, CA, 91761",144637123,"R"
155380,"2914 SE BELMONT","PORTLAND","OR",97214,45.516422667,-122.635823903,380,"2914 SE BELMONT, PORTLAND, OR, 97214","Match","Non_Exact","2914 SE BELMONT ST, PORTLAND, OR, 97214",157509689,"R"
155381,"2914 TAYLOR STREET SUITE 201","DALLAS","TX",75226,32.781684151,-96.780738728,381,"2914 TAYLOR STREET SUITE 201, DALLAS, TX, 75226","Match","Exact","2914 TAYLOR ST, DALLAS, TX, 75226",102912163,"R"
155382,"2914 VIVA DRIVE","MESQUITE","TX",75150,32.804023945,-96.6505356119999,382,"2914 VIVA DRIVE, MESQUITE, TX, 75150","Match","Exact","2914 VIVA DR, MESQUITE, TX, 75150",102931638,"R"
155383,"2914 WEATHERFIELD DRIVE","LINCOLNTON","NC",28092,35.5002947180001,-81.172210134,383,"2914 WEATHERFIELD DRIVE, LINCOLNTON, NC, 28092","Match","Exact","2914 WEATHERFIELD DR, LINCOLNTON, NC, 28092",69541088,"L"
155384,"2914 WEST JEFFERSON BLVD","LOS ANGELES","CA",90018,34.0256037010001,-118.327364525,384,"2914 WEST JEFFERSON BLVD, LOS ANGELES, CA, 90018","Match","Exact","2914 W JEFFERSON BLVD, LOS ANGELES, CA, 90018",141602229,"L"
155385,"2914-B NORTH CALVERT STREET","BALTIMORE","MD",21218,39.323585773,-76.614639083,385,"2914-B NORTH CALVERT STREET, BALTIMORE, MD, 21218","Match","Exact","2914 N CALVERT ST, BALTIMORE, MD, 21218",206408867,"L"
155386,"29141 VALLEJO AVE","TEMECULA","CA",92592,33.4818926570001,-117.138402492,386,"29141 VALLEJO AVE, TEMECULA, CA, 92592","Match","Exact","29141 VALLEJO AVE, TEMECULA, CA, 92592",638579001,"L"
155387,"29141 VALLEJO AVENUE","TEMECULA","CA",92592,33.4818926570001,-117.138402492,387,"29141 VALLEJO AVENUE, TEMECULA, CA, 92592","Match","Exact","29141 VALLEJO AVE, TEMECULA, CA, 92592",638579001,"L"
155388,"29143 SW SAN REMO CT","WILSONVILLE","OR",97070,45.3092280320001,-122.802268142,388,"29143 SW SAN REMO CT, WILSONVILLE, OR, 97070","Match","Exact","29143 SAN REMO CT, WILSONVILLE, OR, 97070",616776150,"R"
155389,"29144 SW 134 PATH","HOMESTEAD","FL",33033,25.496759098,-80.409916075,389,"29144 SW 134 PATH, HOMESTEAD, FL, 33033","Match","Exact","29144 SW 134TH PATH, HOMESTEAD, FL, 33033",624335675,"R"
155390,"29147 AUBERRY RD","PRATHER","CA",93651,NA,NA,390,"29147 AUBERRY RD, PRATHER, CA, 93651","No_Match",NA,NA,NA,NA
155391,"2915 26TH STREET","GREAT BEND","KS",67530,38.377923675,-98.778584236,391,"2915 26TH STREET, GREAT BEND, KS, 67530","Match","Exact","2915 26TH ST, GREAT BEND, KS, 67530",132555603,"L"
155392,"2915 7TH ST NORTH","ST PETERSBURG","FL",33704,27.798667827,-82.6426462699999,392,"2915 7TH ST NORTH, ST PETERSBURG, FL, 33704","Match","Exact","2915 7TH ST N, SAINT PETERSBURG, FL, 33704",124706940,"R"
155393,"2915 ASTOR AVENUE","COLUMBUS","OH",43209,39.9518960090001,-82.91947149,393,"2915 ASTOR AVENUE, COLUMBUS, OH, 43209","Match","Exact","2915 ASTOR AVE, COLUMBUS, OH, 43209",218649664,"R"
155394,"2915 BROWNS LANE","JONESBORO","AR",72401,35.8105578380001,-90.6870992459999,394,"2915 BROWNS LANE, JONESBORO, AR, 72401","Match","Exact","2915 BROWNS LN, JONESBORO, AR, 72401",639311553,"L"
155395,"2915 CANARY COURT","CHARLOTTE","NC",28269,35.361775122,-80.7558125469999,395,"2915 CANARY COURT, CHARLOTTE, NC, 28269","Match","Exact","2915 CANARY CT, CHARLOTTE, NC, 28269",70531756,"L"
155396,"2915 CEDAR AVE D4","LAS VEGAS","NV",89101,36.170027589,-115.109034421,396,"2915 CEDAR AVE D4, LAS VEGAS, NV, 89101","Match","Non_Exact","2915 E CEDAR AVE, LAS VEGAS, NV, 89101",201869093,"L"
155397,"2915 DARTMOUTH LN","OLYMPIA FIELDS","IL",60461,41.5124096420001,-87.686160646,397,"2915 DARTMOUTH LN, OLYMPIA FIELDS, IL, 60461","Match","Exact","2915 DARTMOUTH LN, OLYMPIA FIELDS, IL, 60461",112217663,"L"
155398,"2915 DISSTON ST","PHILADELPHIA","PA",19149,40.038216215,-75.056517855,398,"2915 DISSTON ST, PHILADELPHIA, PA, 19149","Match","Exact","2915 DISSTON ST, PHILADELPHIA, PA, 19149",131434806,"L"
155399,"2915 E STATE ROAD 61","VINCENNES","IN",47591,38.6627756410001,-87.485303319,399,"2915 E STATE ROAD 61, VINCENNES, IN, 47591","Match","Exact","2915 STATE RD 61, VINCENNES, IN, 47591",606636416,"L"
155400,"2915 EUCLID AVE","DUBOISTOWN","PA",17702,41.219926167,-77.044102873,400,"2915 EUCLID AVE, DUBOISTOWN, PA, 17702","Match","Exact","2915 EUCLID AVE, DUBOISTOWN, PA, 17702",59445375,"L"
155401,"2915 FIRELINE ROAD","PALMERTON","PA",18071,40.8116632360001,-75.618369441,401,"2915 FIRELINE ROAD, PALMERTON, PA, 18071","Match","Exact","2915 FIRELINE RD, PALMERTON, PA, 18071",80634303,"R"
155402,"2915 HIGHWAY 414","TAYLORS","SC",29687,35.083557216,-82.3449957029999,402,"2915 HIGHWAY 414, TAYLORS, SC, 29687","Match","Non_Exact","2915 STATE HWY 414, TAYLORS, SC, 29687",38350181,"R"
155403,"2915 HOLLOW CREEK DRIVE","HOUSTON","TX",77082,29.7288141970001,-95.6190486259999,403,"2915 HOLLOW CREEK DRIVE, HOUSTON, TX, 77082","Match","Exact","2915 HOLLOW CREEK DR, HOUSTON, TX, 77082",96021213,"L"
155404,"2915 ISLAND HOME AVENUE","KNOXVILLE","TN",37920,35.956271713,-83.871375671,404,"2915 ISLAND HOME AVENUE, KNOXVILLE, TN, 37920","Match","Exact","2915 ISLAND HOME AVE, KNOXVILLE, TN, 37920",42657603,"L"
155405,"2915 LAKE EAST DR","LAS VEGAS","NV",89117,36.1389977110001,-115.283513,405,"2915 LAKE EAST DR, LAS VEGAS, NV, 89117","Match","Exact","2915 LAKE EAST DR, LAS VEGAS, NV, 89117",201897333,"L"
155406,"2915 LARKSPUR DRIVE ANTIOCH CA 9453","ANTIOCH","CA",94531,37.9890501420001,-121.772667737,406,"2915 LARKSPUR DRIVE ANTIOCH CA 9453, ANTIOCH, CA, 94531","Match","Exact","2915 LARKSPUR DR, ANTIOCH, CA, 94531",192086294,"L"
155407,"2915 LYNDHURST PLACE","CHESTER","VA",23831,37.3297015150001,-77.422033418,407,"2915 LYNDHURST PLACE, CHESTER, VA, 23831","Match","Non_Exact","2915 LYNDHURST CT, CHESTER, VA, 23831",201563557,"L"
155408,"2915 NE JARRETT ST","PORTLAND","OR",97211,45.5644480510001,-122.635893454,408,"2915 NE JARRETT ST, PORTLAND, OR, 97211","Match","Exact","2915 NE JARRETT ST, PORTLAND, OR, 97211",157580544,"L"
155409,"2915 NOTTINGHAM STREET","HOUSTON","TX",77005,29.72239089,-95.4235844839999,409,"2915 NOTTINGHAM STREET, HOUSTON, TX, 77005","Match","Exact","2915 NOTTINGHAM ST, HOUSTON, TX, 77005",96063242,"L"
155410,"2915 PEACH ORCHARD RD","MARYVILLE","TN",37803,35.70593647,-83.9440080209999,410,"2915 PEACH ORCHARD RD, MARYVILLE, TN, 37803","Match","Exact","2915 PEACH ORCHARD RD, MARYVILLE, TN, 37803",89836624,"L"
155411,"2915 RAEFORD RD STE 201","FAYETTEVILLE","NC",28303,35.04508142,-78.928309139,411,"2915 RAEFORD RD STE 201, FAYETTEVILLE, NC, 28303","Match","Exact","2915 RAEFORD RD, FAYETTEVILLE, NC, 28303",64199603,"L"
155412,"2915 ROOSEVELT DR","CHAMBERSBURG","PA",17201,39.9757395950001,-77.634112922,412,"2915 ROOSEVELT DR, CHAMBERSBURG, PA, 17201","Match","Exact","2915 ROOSEVELT DR, CHAMBERSBURG, PA, 17201",60081324,"L"
155413,"2915 S FILMORE ST","SALT LAKE CITY","UT",84106,40.7075389660001,-111.847030472,413,"2915 S FILMORE ST, SALT LAKE CITY, UT, 84106","Match","Exact","2915 FILMORE ST, SALT LAKE CITY, UT, 84106",176081415,"L"
155414,"2915 S HWY 89","WELLSVILLE","UT",84339,NA,NA,414,"2915 S HWY 89, WELLSVILLE, UT, 84339","Tie",NA,NA,NA,NA
155415,"2915 S POLK ST","DALLAS","TX",75224,32.715939878,-96.840131795,415,"2915 S POLK ST, DALLAS, TX, 75224","Match","Exact","2915 S POLK ST, DALLAS, TX, 75224",640537115,"R"
155416,"2915 SAM HICKS ROAD","PLANY CITY","FL",33567,27.930752027,-82.0708370039999,416,"2915 SAM HICKS ROAD, PLANY CITY, FL, 33567","Match","Non_Exact","2915 SAM HICKS RD, PLANT CITY, FL, 33567",647134239,"L"
155417,"2915 SHAMROCK DRIVE","CHARLOTTE","NC",28205,35.2372321610001,-80.777186217,417,"2915 SHAMROCK DRIVE, CHARLOTTE, NC, 28205","Match","Exact","2915 SHAMROCK DR, CHARLOTTE, NC, 28205",70481447,"L"
155418,"2915 SUNSET LANE","ARLINGTON","TX",76016,32.6957032110001,-97.155111948,418,"2915 SUNSET LANE, ARLINGTON, TX, 76016","Match","Exact","2915 SUNSET LN, ARLINGTON, TX, 76016",101906148,"R"
155419,"2915 TULARE STREET","FRESNO","CA",93721,36.7405840330001,-119.780704341,419,"2915 TULARE STREET, FRESNO, CA, 93721","Match","Exact","2915 TULARE ST, FRESNO, CA, 93721",197580315,"L"
155420,"2915 WATERS ROAD SUITE 112","EAGAN","MN",55121,44.852039011,-93.126338564,420,"2915 WATERS ROAD SUITE 112, EAGAN, MN, 55121","Match","Exact","2915 WATERS RD, EAGAN, MN, 55121",642403795,"L"
155421,"2915","OAKLAND","CA",94601,NA,NA,421,"2915, OAKLAND, CA, 94601","No_Match",NA,NA,NA,NA
155422,"2915","WEST FARGO","ND",58078,NA,NA,422,"2915, WEST FARGO, ND, 58078","No_Match",NA,NA,NA,NA
155423,"29150 BRADNER ROAD","MILLBURY","OH",43447,41.5750049120001,-83.4347297579999,423,"29150 BRADNER ROAD, MILLBURY, OH, 43447","Match","Exact","29150 BRADNER RD, MILLBURY, OH, 43447",623847229,"L"
155424,"29150 GLOEDE","WARREN","MI",48088,42.509779967,-82.973165603,424,"29150 GLOEDE, WARREN, MI, 48088","Match","Non_Exact","29150 GLOEDE DR, WARREN, MI, 48088",110728861,"R"
155425,"29151 AUGUSTA","FARMINGTON HILLS","MI",48331,42.508602038,-83.419660639,425,"29151 AUGUSTA, FARMINGTON HILLS, MI, 48331","Match","Exact","29151 AUGUSTA, FARMINGTON HILLS, MI, 48331",69782837,"R"
155426,"29152 BOBOLINK DRIVE","LAGUNA NIGUEL","CA",92677,33.5394189800001,-117.711423221,426,"29152 BOBOLINK DRIVE, LAGUNA NIGUEL, CA, 92677","Match","Exact","29152 BOBOLINK DR, LAGUNA NIGUEL, CA, 92677",144069397,"L"
155427,"29154 OLD FREDERICKSBURG ROAD","BOERNE","TX",78015,29.7303542610001,-98.672424109,427,"29154 OLD FREDERICKSBURG ROAD, BOERNE, TX, 78015","Match","Exact","29154 OLD FREDERICKSBURG RD, BOERNE, TX, 78015",101481015,"R"
155428,"29155 HURLBURT RD","CORVALLIS","OR",97333,44.4443613980001,-123.242466597,428,"29155 HURLBURT RD, CORVALLIS, OR, 97333","Match","Exact","29155 HURLBURT RD, CORVALLIS, OR, 97333",648550638,"R"
155429,"29155 NORTHWESTERN HIGHWAY STE 693","SOUTHFIELD","ME",48034,NA,NA,429,"29155 NORTHWESTERN HIGHWAY STE 693, SOUTHFIELD, ME, 48034","No_Match",NA,NA,NA,NA
155430,"29155 NORTHWESTERN HWY    SUITE 620","SOUTHFIELD","MI",48034,NA,NA,430,"29155 NORTHWESTERN HWY    SUITE 620, SOUTHFIELD, MI, 48034","No_Match",NA,NA,NA,NA
155431,"29155 NORTHWESTERN HWY 681","SOUTHFIELD","MI",48034,NA,NA,431,"29155 NORTHWESTERN HWY 681, SOUTHFIELD, MI, 48034","No_Match",NA,NA,NA,NA
155432,"29155 NORTHWESTERN HWY SUITE 398","SOUTHFIELD","MI",48034,NA,NA,432,"29155 NORTHWESTERN HWY SUITE 398, SOUTHFIELD, MI, 48034","No_Match",NA,NA,NA,NA
155433,"29159 DENTARIA WAY","MURRIETA","CA",92563,33.6300605760001,-117.150885325,433,"29159 DENTARIA WAY, MURRIETA, CA, 92563","Match","Exact","29159 DENTARIA WAY, MURRIETA, CA, 92563",608999887,"R"
155434,"2916 15TH AVE S","SEATTLE","WA",98144,47.577558837,-122.313352951,434,"2916 15TH AVE S, SEATTLE, WA, 98144","Match","Exact","2916 15TH AVE S, SEATTLE, WA, 98144",186593583,"L"
155435,"2916 ABBOTT ROAD","MIDLAND","MI",48642,43.6249503400001,-84.197230511,435,"2916 ABBOTT ROAD, MIDLAND, MI, 48642","Match","Exact","2916 ABBOTT RD, MIDLAND, MI, 48642",81199565,"R"
155436,"2916 BANDERA","GRAND PRAIRIE","TX",75054,32.5944396360001,-97.052886998,436,"2916 BANDERA, GRAND PRAIRIE, TX, 75054","Match","Exact","2916 BANDERA, GRAND PRAIRIE, TX, 75054",637603308,"R"
155437,"2916 BEAVER PIKE","WAVERLY","OH",45690,39.0406162080001,-82.875189575,437,"2916 BEAVER PIKE, WAVERLY, OH, 45690","Match","Exact","2916 BEAVER PIKE, WAVERLY, OH, 45690",55061931,"L"
155438,"2916 BLACKHAWK ROAD","KETTERING","OH",45420,39.700199588,-84.110929775,438,"2916 BLACKHAWK ROAD, KETTERING, OH, 45420","Match","Exact","2916 BLACKHAWK RD, KETTERING, OH, 45420",143584708,"L"
155439,"2916 BLACKSMITH CT","GRAND PRAIRIE","TX",75052,32.6535708050001,-97.056614122,439,"2916 BLACKSMITH CT, GRAND PRAIRIE, TX, 75052","Match","Exact","2916 BLACKSMITH CT, GRAND PRAIRIE, TX, 75052",102175265,"L"
155440,"2916 CLAIRMONT RD APT 2209","BROOKHAVEN","GA",30329,33.841867182,-84.3138396579999,440,"2916 CLAIRMONT RD APT 2209, BROOKHAVEN, GA, 30329","Match","Non_Exact","2916 CLAIRMONT RD NE, BROOKHAVEN, GA, 30329",23406159,"L"
155441,"2916 CORN SILK CT","SAINT LOUIS","MO",63031,38.829482942,-90.3314176599999,441,"2916 CORN SILK CT, SAINT LOUIS, MO, 63031","Match","Non_Exact","2916 CORN SILK CT, FLORISSANT, MO, 63031",100182920,"R"
155442,"2916 CR 604","BRAZORIA","TX",77422,28.9829169110001,-95.569908217,442,"2916 CR 604, BRAZORIA, TX, 77422","Match","Exact","2916 CO RD 604, BRAZORIA, TX, 77422",116594019,"L"
155443,"2916 DUSTIN","ODESSA","TX",79762,31.888800922,-102.298027031,443,"2916 DUSTIN, ODESSA, TX, 79762","Match","Exact","2916 DUSTIN, ODESSA, TX, 79762",627758151,"R"
155444,"2916 E MORGAN AVENUE","EVANSVILEE","IN",47711,37.991487954,-87.514069529,444,"2916 E MORGAN AVENUE, EVANSVILEE, IN, 47711","Match","Non_Exact","2916 E MORGAN AVE, EVANSVILLE, IN, 47711",39784522,"L"
155445,"2916 E MORGAN AVENUE","EVANSVILLE","IN",47711,37.991487863,-87.5140663829999,445,"2916 E MORGAN AVENUE, EVANSVILLE, IN, 47711","Match","Exact","2916 E MORGAN AVE, EVANSVILLE, IN, 47711",39784522,"L"
155446,"2916 FALCON AVENUE","FAR ROCKAWAY","NY",11691,40.600802018,-73.765393511,446,"2916 FALCON AVENUE, FAR ROCKAWAY, NY, 11691","Match","Exact","2916 FALCON AVE, FAR ROCKAWAY, NY, 11691",59732314,"L"
155447,"2916 FRANCIS AVE","LOS ANGELES","CA",90005,34.056803448,-118.289628472,447,"2916 FRANCIS AVE, LOS ANGELES, CA, 90005","Match","Exact","2916 FRANCIS AVE, LOS ANGELES, CA, 90005",141605125,"L"
155448,"2916 GALESHEAD DRIVE","UPPER MARLBORO","MD",20774,38.8533268750001,-76.7371790129999,448,"2916 GALESHEAD DRIVE, UPPER MARLBORO, MD, 20774","Match","Exact","2916 GALESHEAD DR, UPPER MARLBORO, MD, 20774",76417275,"L"
155449,"2916 HEALEY DR","DALLAS","TX",75228,32.825082971,-96.6649737179999,449,"2916 HEALEY DR, DALLAS, TX, 75228","Match","Exact","2916 HEALEY DR, DALLAS, TX, 75228",102930262,"R"
155450,"2916 HORSEBACK COURT","COLLEGE STATION","TX",77845,30.626568021,-96.292981479,450,"2916 HORSEBACK COURT, COLLEGE STATION, TX, 77845","Match","Exact","2916 HORSEBACK CT, COLLEGE STATION, TX, 77845",21846405,"L"
155451,"2916 JERSEY AVE N","CRYSTAL","MN",55427,45.0095484610001,-93.367700741,451,"2916 JERSEY AVE N, CRYSTAL, MN, 55427","Match","Exact","2916 JERSEY AVE N, CRYSTAL, MN, 55427",43617792,"R"
155452,"2916 LAWRENCE STREET","IRVING","TX",75061,32.824932152,-96.985091527,452,"2916 LAWRENCE STREET, IRVING, TX, 75061","Match","Exact","2916 LAWRENCE ST, IRVING, TX, 75061",639259040,"L"
155453,"2916 MYRTLE AVE","GRANITE CITY","IL",62040,38.713671306,-90.1212925199999,453,"2916 MYRTLE AVE, GRANITE CITY, IL, 62040","Match","Exact","2916 MYRTLE AVE, GRANITE CITY, IL, 62040",107682340,"R"
155454,"2916 N LIONS DRIVE","BROKEN ARROW","OK",74012,36.0817093420001,-95.804693304,454,"2916 N LIONS DRIVE, BROKEN ARROW, OK, 74012","Match","Exact","2916 N LIONS DR, BROKEN ARROW, OK, 74012",617314173,"R"
155455,"2916 OAK HILL ROAD","EVANSVILLE","IN",47711,38.004317148,-87.517928534,455,"2916 OAK HILL ROAD, EVANSVILLE, IN, 47711","Match","Exact","2916 OAK HILL RD, EVANSVILLE, IN, 47711",39784412,"L"
155456,"2916 PARKWAY AVENUE","CHARLOTTE","NC",28208,35.242722916,-80.87773093,456,"2916 PARKWAY AVENUE, CHARLOTTE, NC, 28208","Match","Exact","2916 PARKWAY AVE, CHARLOTTE, NC, 28208",70476812,"R"
155457,"2916 RIVER RUN CIRCLE W","MIRAMAR","FL",33025,25.9832582340001,-80.278271468,457,"2916 RIVER RUN CIRCLE W, MIRAMAR, FL, 33025","Match","Exact","2916 RIVER RUN CIR W, MIRAMAR, FL, 33025",114770723,"R"
155458,"2916 RUCKER RD","JUNCTION CITY","KS",66441,39.044614842,-96.8799637669999,458,"2916 RUCKER RD, JUNCTION CITY, KS, 66441","Match","Exact","2916 RUCKER RD, JUNCTION CITY, KS, 66441",624297397,"R"
155459,"2916 S DINWIDDIE STREET","ARLINGTON","VA",22206,38.8391230010001,-77.103612776,459,"2916 S DINWIDDIE STREET, ARLINGTON, VA, 22206","Match","Exact","2916 S DINWIDDIE ST, ARLINGTON, VA, 22206",75986729,"R"
155460,"2916 S STREET SE","WASHINGTON","DC",20020,38.8685498310001,-76.9655731729999,460,"2916 S STREET SE, WASHINGTON, DC, 20020","Match","Exact","2916 S ST SE, WASHINGTON, DC, 20020",76232038,"L"
155461,"2916 TIMBERLAND PL NE","IOWA CITY","IA",52240,41.720821474,-91.474443322,461,"2916 TIMBERLAND PL NE, IOWA CITY, IA, 52240","Match","Exact","2916 TIMBERLAND PL NE, IOWA CITY, IA, 52240",84515889,"L"
155462,"2916 TREMA AVE","WINTER HAVEN","FL",33881,28.066627211,-81.714370112,462,"2916 TREMA AVE, WINTER HAVEN, FL, 33881","Match","Non_Exact","2916 TREMA DR, WINTER HAVEN, FL, 33881",104984399,"R"
155463,"2916 W 134TH PLACE","GARDENA","CA",90249,33.909881435,-118.324063023,463,"2916 W 134TH PLACE, GARDENA, CA, 90249","Match","Exact","2916 W 134TH PL, GARDENA, CA, 90249",141657705,"L"
155464,"2916 W OWASSO BLVD","ROSEVILLE","MN",55113,45.029506477,-93.133283996,464,"2916 W OWASSO BLVD, ROSEVILLE, MN, 55113","Match","Exact","2916 W OWASSO BLVD, ROSEVILLE, MN, 55113",97662229,"R"
155465,"2916 WEST MAIN ST APT G","ALHAMBRA","CA",91801,34.095169384,-118.155483817,465,"2916 WEST MAIN ST APT G, ALHAMBRA, CA, 91801","Match","Exact","2916 W MAIN ST, ALHAMBRA, CA, 91801",640132654,"L"
155466,"2916 WYOLA AVE","NORTH PORT","FL",34286,27.072919072,-82.182709884,466,"2916 WYOLA AVE, NORTH PORT, FL, 34286","Match","Exact","2916 WYOLA AVE, NORTH PORT, FL, 34286",16390646,"R"
155467,"29163","PROVIDENCE","RI",2909,NA,NA,467,"29163, PROVIDENCE, RI, 2909","No_Match",NA,NA,NA,NA
155468,"29168 POLE RUNNING ROAD","MOUNT PLEASANT","NC",28124,35.360929248,-80.371405024,468,"29168 POLE RUNNING ROAD, MOUNT PLEASANT, NC, 28124","Match","Exact","29168 POLE RUNNING RD, MOUNT PLEASANT, NC, 28124",14079006,"R"
155469,"2916A AINAOLA DRIVE","HILO","HI",96720,19.637231978,-155.134708633,469,"2916A AINAOLA DRIVE, HILO, HI, 96720","Match","Exact","2916 AINAOLA DR, HILO, HI, 96720",614317209,"R"
155470,"2917 24TH STREET NORTH","ARLINGTON","VA",22207,38.901185383,-77.097419168,470,"2917 24TH STREET NORTH, ARLINGTON, VA, 22207","Match","Exact","2917 24TH ST N, ARLINGTON, VA, 22207",76469373,"R"
155471,"2917 BALD EAGEL BEND","VIRGINIA BEACH","VA",23453,NA,NA,471,"2917 BALD EAGEL BEND, VIRGINIA BEACH, VA, 23453","No_Match",NA,NA,NA,NA
155472,"2917 BARBER HILL LN","KNOXVILLE","TN",37920,35.9219807910001,-83.952944848,472,"2917 BARBER HILL LN, KNOXVILLE, TN, 37920","Match","Exact","2917 BARBER HILL LN, KNOXVILLE, TN, 37920",604624840,"L"
155473,"2917 BROCKTON LOOP","JEFFERSON","GA",30549,34.0920004290001,-83.494798881,473,"2917 BROCKTON LOOP, JEFFERSON, GA, 30549","Match","Exact","2917 BROCKTON LOOP, JEFFERSON, GA, 30549",653472432,"L"
155474,"2917 COASTAL HWY","CRAWFORDVILLE","FL",32327,30.095238045,-84.385617143,474,"2917 COASTAL HWY, CRAWFORDVILLE, FL, 32327","Match","Exact","2917 COASTAL HWY, CRAWFORDVILLE, FL, 32327",610429201,"R"
155475,"2917 DICKINSON DR","LAREDO","TX",78041,27.5709341680001,-99.450105128,475,"2917 DICKINSON DR, LAREDO, TX, 78041","Match","Exact","2917 DICKINSON DR, LAREDO, TX, 78041",617298943,"R"
155476,"2917 DOROTHY LN","GLENN HEIGHTS","TX",75154,32.5298305150001,-96.854609829,476,"2917 DOROTHY LN, GLENN HEIGHTS, TX, 75154","Match","Exact","2917 DOROTHY LN, GLENN HEIGHTS, TX, 75154",214501184,"R"
155477,"2917 DUCHESS TRAIL","PLANO","TX",75074,33.0372856990001,-96.677373056,477,"2917 DUCHESS TRAIL, PLANO, TX, 75074","Match","Exact","2917 DUCHESS TRL, PLANO, TX, 75074",123489526,"L"
155478,"2917 E 47TH ST APT B","INDIANAPOLIS","IN",46205,39.841625418,-86.115236829,478,"2917 E 47TH ST APT B, INDIANAPOLIS, IN, 46205","Match","Non_Exact","2917 E 47TH ST, INDIANAPOLIS, IN, 46205",108052308,"R"
155479,"2917 E DUNBAR DR","PHOENIX","AZ",85042,33.3791849740001,-112.019249559,479,"2917 E DUNBAR DR, PHOENIX, AZ, 85042","Match","Exact","2917 E DUNBAR DR, PHOENIX, AZ, 85042",619901583,"R"
155480,"2917 FARRELL LN","FORT WORTH","TX",76119,32.7168590410001,-97.2343560749999,480,"2917 FARRELL LN, FORT WORTH, TX, 76119","Match","Exact","2917 FARRELL LN, FORT WORTH, TX, 76119",101898212,"L"
155481,"2917 GABLE ROAD","BILLINGS","MT",59102,45.7443092180001,-108.588418002,481,"2917 GABLE ROAD, BILLINGS, MT, 59102","Match","Non_Exact","2917 GABEL RD, BILLINGS, MT, 59102",647261129,"L"
155482,"2917 GENTILLY LN","FORT WORTH","TX",76123,32.61969515,-97.362377191,482,"2917 GENTILLY LN, FORT WORTH, TX, 76123","Match","Exact","2917 GENTILLY LN, FORT WORTH, TX, 76123",102119958,"L"
155483,"2917 HARGOVE ROAD EAST","TUSCALOOSA","AL",35405,NA,NA,483,"2917 HARGOVE ROAD EAST, TUSCALOOSA, AL, 35405","No_Match",NA,NA,NA,NA
155484,"2917 HERMINA STREET","MADISON","WI",53704,43.1013856920001,-89.341014644,484,"2917 HERMINA STREET, MADISON, WI, 53704","Match","Exact","2917 HERMINA ST, MADISON, WI, 53704",49474117,"R"
155485,"2917 HOLDEN DRIVE","VANCLEAVE","MS",39565,30.562838669,-88.655532891,485,"2917 HOLDEN DRIVE, VANCLEAVE, MS, 39565","Match","Exact","2917 HOLDEN DR, VANCLEAVE, MS, 39565",89276695,"L"
155486,"2917 HOSTA DRIVE","CHARLOTTE","NC",28269,35.2992214650001,-80.806492318,486,"2917 HOSTA DRIVE, CHARLOTTE, NC, 28269","Match","Exact","2917 HOSTA DR, CHARLOTTE, NC, 28269",70535183,"L"
155487,"2917 LANTERN DR","SOUTH DAYTONA","FL",32119,29.156063863,-81.006085578,487,"2917 LANTERN DR, SOUTH DAYTONA, FL, 32119","Match","Exact","2917 LANTERN DR, S DAYTONA, FL, 32119",94527606,"L"
155488,"2917 LOMBARDY LN SUITE A","DALLAS","TX",75243,32.8664368020001,-96.876559669,488,"2917 LOMBARDY LN SUITE A, DALLAS, TX, 75243","Match","Non_Exact","2917 LOMBARDY LN, DALLAS, TX, 75220",102894063,"L"
155489,"2917 MISSOURI AVENUE APT 1","ST. LOUIS","MO",63118,38.6001565110001,-90.221636938,489,"2917 MISSOURI AVENUE APT 1, ST. LOUIS, MO, 63118","Match","Exact","2917 MISSOURI AVE, SAINT LOUIS, MO, 63118",107602552,"R"
155490,"2917 N 22ND STREET","TACOMA","WA",98406,47.2683393710001,-122.473630795,490,"2917 N 22ND STREET, TACOMA, WA, 98406","Match","Exact","2917 N 22ND ST, TACOMA, WA, 98406",184645206,"R"
155491,"2917 NE 14TH DRIVE","GAINESVILLE","FL",32609,29.67911666,-82.3076501099999,491,"2917 NE 14TH DRIVE, GAINESVILLE, FL, 32609","Match","Exact","2917 NE 14TH DR, GAINESVILLE, FL, 32609",6845463,"R"
155492,"2917 NW 3RD TERRACE","OCALA","FL",34475,29.216665882,-82.1389477009999,492,"2917 NW 3RD TERRACE, OCALA, FL, 34475","Match","Exact","2917 NW 3RD TER, OCALA, FL, 34475",116724665,"R"
155493,"2917 OSHEA COURT","FENTON","MI",48430,42.805013908,-83.739710788,493,"2917 OSHEA COURT, FENTON, MI, 48430","Match","Non_Exact","2917 O'SHEA CT, FENTON, MI, 48430",637236155,"L"
155494,"2917 PINE LAKE RD STE E","LINCOLN","NE",68516,40.7404013730001,-96.678651558,494,"2917 PINE LAKE RD STE E, LINCOLN, NE, 68516","Match","Exact","2917 PINE LAKE RD, LINCOLN, NE, 68516",28281323,"L"
155495,"2917 S 27TH STREET","LA CROSSE","WI",54601,43.7811517900001,-91.215560217,495,"2917 S 27TH STREET, LA CROSSE, WI, 54601","Match","Non_Exact","2917 27TH ST S, LA CROSSE, WI, 54601",51013765,"L"
155496,"2917 S IRVINGTON AVE","TULSA","OK",74114,36.1212847840001,-95.910015199,496,"2917 S IRVINGTON AVE, TULSA, OK, 74114","Match","Exact","2917 S IRVINGTON AVE, TULSA, OK, 74114",166450855,"L"
155497,"2917 SANTA FE TRAIL","FORT WORTH","TX",76116,32.7328280240001,-97.465417767,497,"2917 SANTA FE TRAIL, FORT WORTH, TX, 76116","Match","Exact","2917 SANTA FE TRL, FORT WORTH, TX, 76116",101877370,"L"
155498,"2917 SEA VIEW PKWY","ALAMEDA","CA",94502,37.747499727,-122.246227115,498,"2917 SEA VIEW PKWY, ALAMEDA, CA, 94502","Match","Exact","2917 SEA VIEW PKWY, ALAMEDA, CA, 94502",125005596,"L"
155499,"2917 SHORT VINE STREET PO BOX 19487","CINCINNATI","OH",45219,39.133167751,-84.509179444,499,"2917 SHORT VINE STREET PO BOX 19487, CINCINNATI, OH, 45219","Match","Exact","2917 SHORT VINE ST, CINCINNATI, OH, 45219",103924983,"L"
155500,"2917 SOUTH AUSTIN STREET","SEATTLE","WA",98108,47.534446621,-122.294051137,500,"2917 SOUTH AUSTIN STREET, SEATTLE, WA, 98108","Match","Exact","2917 S AUSTIN ST, SEATTLE, WA, 98108",239772311,"R"
