"ID","Address","City","State","Zip","lat","long","id","input_address","match_indicator","match_type","matched_address","tiger_line_id","tiger_side"
3501,"10007 RIVER ROAD","RICHMOND","VA",23238,37.5874124650001,-77.614556073,1,"10007 RIVER ROAD, RICHMOND, VA, 23238","Match","Exact","10007 RIVER RD, RICHMOND, VA, 23238",106687519,"L"
3502,"10008 GOLD COAST CT","UPPER MARLBORO","MD",20774,38.868094651,-76.833733778,2,"10008 GOLD COAST CT, UPPER MARLBORO, MD, 20774","Match","Exact","10008 GOLD COAST CT, UPPER MARLBORO, MD, 20774",76417367,"L"
3503,"10008 HUXLEY DRIVE","LANHAM","MD",20706,38.975699929,-76.831888551,3,"10008 HUXLEY DRIVE, LANHAM, MD, 20706","Match","Exact","10008 HUXLEY DR, LANHAM, MD, 20706",76418647,"R"
3504,"10008 NATIONAL BLVD  NO 320","LOS ANGELES","CA",90034,34.0290518630001,-118.403492662,4,"10008 NATIONAL BLVD  NO 320, LOS ANGELES, CA, 90034","Match","Non_Exact","10008 NATIONAL BLVD, LOS ANGELES, CA, 90034",141573689,"L"
3505,"10008 OLD OCEAN CITY BLVD","BERLIN","MD",21811,38.333924322,-75.2170213219999,5,"10008 OLD OCEAN CITY BLVD, BERLIN, MD, 21811","Match","Exact","10008 OLD OCEAN CITY BLVD, BERLIN, MD, 21811",638241193,"R"
3506,"10008 SOUTH MANHATTAN PLACE","LOS ANGELES","CA",90047,33.9452281580001,-118.310149191,6,"10008 SOUTH MANHATTAN PLACE, LOS ANGELES, CA, 90047","Match","Exact","10008 S MANHATTAN PL, LOS ANGELES, CA, 90047",141660720,"L"
3507,"10008","EUGENE","OR",97440,NA,NA,7,"10008, EUGENE, OR, 97440","No_Match",NA,NA,NA,NA
3508,"10009 E GLENDON CIR","SANTEE","CA",92071,32.8594697940001,-116.969420552,8,"10009 E GLENDON CIR, SANTEE, CA, 92071","Match","Exact","10009 E GLENDON CIR, SANTEE, CA, 92071",195327196,"R"
3509,"10009 HARMONY HILL LN APT 9212","ROWLETT","TX",75089,NA,NA,9,"10009 HARMONY HILL LN APT 9212, ROWLETT, TX, 75089","No_Match",NA,NA,NA,NA
3510,"10009 MOSBY RD","FAIRFAX","VA",22032,38.8372360380001,-77.291167805,10,"10009 MOSBY RD, FAIRFAX, VA, 22032","Match","Exact","10009 MOSBY RD, FAIRFAX, VA, 22032",76098449,"L"
3511,"10009 SANCTUARY BLVD","OCEAN SPRINGS","MS",39564,30.426783969,-88.7742981499999,11,"10009 SANCTUARY BLVD, OCEAN SPRINGS, MS, 39564","Match","Exact","10009 SANCTUARY BLVD, OCEAN SPRINGS, MS, 39564",649485078,"L"
3512,"10009 SCHUESSLER ROAD","SAINT LOUIS","MO",63128,38.503817412,-90.3830411449999,12,"10009 SCHUESSLER ROAD, SAINT LOUIS, MO, 63128","Match","Exact","10009 SCHUESSLER RD, SAINT LOUIS, MO, 63128",651315713,"R"
3513,"1000A NEWHALL STREET","SAN FRANCISCO","CA",94124,37.738121446,-122.390005802,13,"1000A NEWHALL STREET, SAN FRANCISCO, CA, 94124","Match","Exact","1000 NEWHALL ST, SAN FRANCISCO, CA, 94124",192289897,"R"
3514,"1001 12TH ST","SANTA MONICA","CA",90403,34.0278797,-118.493772135,14,"1001 12TH ST, SANTA MONICA, CA, 90403","Match","Exact","1001 12TH ST, SANTA MONICA, CA, 90403",141559120,"L"
3515,"1001 16TH STREET  SUITE 146","DENVER","CO",80265,39.747264731,-104.994867481,15,"1001 16TH STREET  SUITE 146, DENVER, CO, 80265","Match","Exact","1001 16TH ST, DENVER, CO, 80265",177304410,"R"
3516,"1001 19TH ST N SUITE 1200","ARLINGTON","VA",22209,38.8969851680001,-77.068684151,16,"1001 19TH ST N SUITE 1200, ARLINGTON, VA, 22209","Match","Exact","1001 19TH ST N, ARLINGTON, VA, 22209",76470872,"R"
3517,"1001 1ST AVE S","FARGO","ND",58103,46.8737091040001,-96.794302666,17,"1001 1ST AVE S, FARGO, ND, 58103","Match","Exact","1001 1ST AVE S, FARGO, ND, 58103",151472161,"R"
3518,"1001 3RD STREET SW 716","WASHINGTON","DC",20024,38.878346439,-77.015214385,18,"1001 3RD STREET SW 716, WASHINGTON, DC, 20024","Match","Exact","1001 3RD ST SW, WASHINGTON, DC, 20024",76227083,"R"
3519,"1001 46TH ST UNIT 519","EMERYVILLE","CA",94608,37.8356670960001,-122.275953627,19,"1001 46TH ST UNIT 519, EMERYVILLE, CA, 94608","Match","Exact","1001 46TH ST, EMERYVILLE, CA, 94608",648356333,"L"
3520,"1001 4TH AVE STE 3200","SEATTLE","WA",98154,47.606137431,-122.332967945,20,"1001 4TH AVE STE 3200, SEATTLE, WA, 98154","Match","Exact","1001 4TH AVE, SEATTLE, WA, 98154",186589575,"L"
3521,"1001 4TH AVE STE 3322","SEATTLE","WA",98154,47.606137431,-122.332967945,21,"1001 4TH AVE STE 3322, SEATTLE, WA, 98154","Match","Exact","1001 4TH AVE, SEATTLE, WA, 98154",186589575,"L"
3522,"1001 4TH AVE STE 4322","SEATTLE","WA",98154,47.606137431,-122.332967945,22,"1001 4TH AVE STE 4322, SEATTLE, WA, 98154","Match","Exact","1001 4TH AVE, SEATTLE, WA, 98154",186589575,"L"
3523,"1001 4TH AVE SUITE 3200","SEATTLE","WA",98154,47.606137431,-122.332967945,23,"1001 4TH AVE SUITE 3200, SEATTLE, WA, 98154","Match","Exact","1001 4TH AVE, SEATTLE, WA, 98154",186589575,"L"
3524,"1001 4TH STREET SW SUITE 704","WASHINGTON","DC",20024,38.8782488950001,-77.017587425,24,"1001 4TH STREET SW SUITE 704, WASHINGTON, DC, 20024","Match","Exact","1001 4TH ST SW, WASHINGTON, DC, 20024",621115814,"R"
3525,"1001 5TH STREET","PROSSER","WA",99350,46.201992277,-119.767510661,25,"1001 5TH STREET, PROSSER, WA, 99350","Match","Exact","1001 5TH ST, PROSSER, WA, 99350",174980327,"L"
3526,"1001 A EAST HARMONY RD 212","FORT COLLINS","CO",80525,40.523578247,-105.060115542,26,"1001 A EAST HARMONY RD 212, FORT COLLINS, CO, 80525","Match","Exact","1001 E HARMONY RD, FORT COLLINS, CO, 80525",188494692,"R"
3527,"1001 AIRPORT BLVD STE 294","MORRISVILLE","NC",27560,35.859350341,-78.81933042,27,"1001 AIRPORT BLVD STE 294, MORRISVILLE, NC, 27560","Match","Exact","1001 AIRPORT BLVD, MORRISVILLE, NC, 27560",72564424,"L"
3528,"1001 ALICE STREET","DAVIS","CA",95616,38.5546172740001,-121.739837161,28,"1001 ALICE STREET, DAVIS, CA, 95616","Match","Exact","1001 ALICE ST, DAVIS, CA, 95616",67691187,"L"
3529,"1001 ALTA CIRCLE","LOUISVILLE","KY",40205,38.2406612670001,-85.688615974,29,"1001 ALTA CIRCLE, LOUISVILLE, KY, 40205","Match","Exact","1001 ALTA CIR, LOUISVILLE, KY, 40205",96852845,"L"
3530,"1001 ARROYO AVE ATTN ATHLETIC DEPT","SAN FERNANDO","CA",91340,34.2881706110001,-118.420738648,30,"1001 ARROYO AVE ATTN ATHLETIC DEPT, SAN FERNANDO, CA, 91340","Match","Non_Exact","1001 ARROYO ST, SAN FERNANDO, CA, 91340",241239237,"L"
3531,"1001 ASH CIRCLE","LAVERGNE","TN",37086,35.9830421390001,-86.59275688,31,"1001 ASH CIRCLE, LAVERGNE, TN, 37086","Match","Non_Exact","1001 ASH CIR, LA VERGNE, TN, 37086",59028405,"L"
3532,"1001 ASHBY COURT","LEXINGTON","KY",40509,37.9977642710001,-84.404632608,32,"1001 ASHBY COURT, LEXINGTON, KY, 40509","Match","Exact","1001 ASHBY CT, LEXINGTON, KY, 40509",31940011,"R"
3533,"1001 AVE B SUITE 200","CLOQUET","MN",55720,46.722853398,-92.453578807,33,"1001 AVE B SUITE 200, CLOQUET, MN, 55720","Match","Exact","1001 AVE B, CLOQUET, MN, 55720",162672596,"R"
3534,"1001 AVENUE J NW","CHILDRESS","TX",79201,34.434033716,-100.212504432,34,"1001 AVENUE J NW, CHILDRESS, TX, 79201","Match","Exact","1001 AVE J NW, CHILDRESS, TX, 79201",164409372,"L"
3535,"1001 B LINCOLN BLVD EXTENSION","MIDDLESEX","NJ",8846,NA,NA,35,"1001 B LINCOLN BLVD EXTENSION, MIDDLESEX, NJ, 8846","No_Match",NA,NA,NA,NA
3536,"1001 BAINBRIDGE STREET APT 8","RICHMOND","VA",23224,37.5227897030001,-77.443389241,36,"1001 BAINBRIDGE STREET APT 8, RICHMOND, VA, 23224","Match","Exact","1001 BAINBRIDGE ST, RICHMOND, VA, 23224",201541924,"R"
3537,"1001 BEDFORD AVE","ALTAVISTA","VA",24517,37.111087297,-79.295230793,37,"1001 BEDFORD AVE, ALTAVISTA, VA, 24517","Match","Exact","1001 BEDFORD AVE, ALTAVISTA, VA, 24517",646388070,"R"
3538,"1001 BEEBLOSSOM DR","DESOTO","TX",75115,32.5728561,-96.846149619,38,"1001 BEEBLOSSOM DR, DESOTO, TX, 75115","Match","Exact","1001 BEEBLOSSOM DR, DESOTO, TX, 75115",624291668,"R"
3539,"1001 BEULAH AVE","PUEBLO","CO",81004,38.2493888990001,-104.634621537,39,"1001 BEULAH AVE, PUEBLO, CO, 81004","Match","Exact","1001 BEULAH AVE, PUEBLO, CO, 81004",105024909,"R"
3540,"1001 BIG HORN AVENUE","WORLAND","WY",82401,44.0168316200001,-107.955054322,40,"1001 BIG HORN AVENUE, WORLAND, WY, 82401","Match","Exact","1001 BIG HORN AVE, WORLAND, WY, 82401",149717999,"R"
3541,"1001 BISHOP ST STE 2685A","HONOLULU","HI",96813,21.308548515,-157.861449811,41,"1001 BISHOP ST STE 2685A, HONOLULU, HI, 96813","Match","Exact","1001 BISHOP ST, HONOLULU, HI, 96813",203236014,"R"
3542,"1001 BISHOP STREET STE 2685A","HONOLULU","HI",96813,21.308548515,-157.861449811,42,"1001 BISHOP STREET STE 2685A, HONOLULU, HI, 96813","Match","Exact","1001 BISHOP ST, HONOLULU, HI, 96813",203236014,"R"
3543,"1001 BISHOP STREET SUITE 2200","HONOLULU","HI",96813,21.308548515,-157.861449811,43,"1001 BISHOP STREET SUITE 2200, HONOLULU, HI, 96813","Match","Exact","1001 BISHOP ST, HONOLULU, HI, 96813",203236014,"R"
3544,"1001 BISHOP STREET SUITE 2685 A","HONOLULU","HI",96813,21.308548515,-157.861449811,44,"1001 BISHOP STREET SUITE 2685 A, HONOLULU, HI, 96813","Match","Exact","1001 BISHOP ST, HONOLULU, HI, 96813",203236014,"R"
3545,"1001 BLACKSHEAR ROAD","CORDELE","GA",31015,NA,NA,45,"1001 BLACKSHEAR ROAD, CORDELE, GA, 31015","No_Match",NA,NA,NA,NA
3546,"1001 BLUEBIRD LANE","ROLLA","MO",65401,37.9532364990001,-91.7897494919999,46,"1001 BLUEBIRD LANE, ROLLA, MO, 65401","Match","Exact","1001 BLUEBIRD LN, ROLLA, MO, 65401",45075088,"L"
3547,"1001 BLUEROCK DRIVE","ANTIOCH","CA",94509,37.9810800930001,-121.78858875,47,"1001 BLUEROCK DRIVE, ANTIOCH, CA, 94509","Match","Exact","1001 BLUEROCK DR, ANTIOCH, CA, 94509",192080295,"L"
3548,"1001 BOSWELL LANE","MACKVILLE","KY",40040,37.738446384,-85.040802664,48,"1001 BOSWELL LANE, MACKVILLE, KY, 40040","Match","Exact","1001 BOSWELL LN, MACKVILLE, KY, 40040",32636297,"L"
3549,"1001 BRICKELL BAY DRIVE SUITE 2700","MIAMI","FL",33131,25.764004072,-80.189978003,49,"1001 BRICKELL BAY DRIVE SUITE 2700, MIAMI, FL, 33131","Match","Exact","1001 BRICKELL BAY DR, MIAMI, FL, 33131",650067865,"L"
3550,"1001 BRICKELL BAY DRIVE","MIAMI","FL",33310,25.764004072,-80.189978003,50,"1001 BRICKELL BAY DRIVE, MIAMI, FL, 33310","Match","Non_Exact","1001 BRICKELL BAY DR, MIAMI, FL, 33131",650067865,"L"
3551,"1001 BRIDGE STREET","VERNONIA","OR",97064,45.858682012,-123.196716414,51,"1001 BRIDGE STREET, VERNONIA, OR, 97064","Match","Exact","1001 BRIDGE ST, VERNONIA, OR, 97064",158076567,"L"
3552,"1001 BRIDGEWAY 536","SAUSALITO","CA",94965,37.858469513,-122.483085176,52,"1001 BRIDGEWAY 536, SAUSALITO, CA, 94965","Match","Exact","1001 BRIDGEWAY, SAUSALITO, CA, 94965",192770288,"L"
3553,"1001 BRIDGEWAY STE 927","SAUSALITO","CA",94965,37.858469513,-122.483085176,53,"1001 BRIDGEWAY STE 927, SAUSALITO, CA, 94965","Match","Exact","1001 BRIDGEWAY, SAUSALITO, CA, 94965",192770288,"L"
3554,"1001 BRUSH STREET SUITE E","DETROIT","MI",48226,42.333632406,-83.04319298,54,"1001 BRUSH STREET SUITE E, DETROIT, MI, 48226","Match","Exact","1001 BRUSH ST, DETROIT, MI, 48226",95484310,"L"
3555,"1001 BUCKWALTER RD","LITITZ","PA",17543,40.122608331,-76.324320664,55,"1001 BUCKWALTER RD, LITITZ, PA, 17543","Match","Exact","1001 BUCKWALTER RD, LITITZ, PA, 17543",179702884,"R"
3556,"1001 BUENA VISTA","HEMET","CA",92544,NA,NA,56,"1001 BUENA VISTA, HEMET, CA, 92544","No_Match",NA,NA,NA,NA
3557,"1001 BURKEMONT AVENUE","MORGANTON","NC",28655,35.722630682,-81.693511593,57,"1001 BURKEMONT AVENUE, MORGANTON, NC, 28655","Match","Exact","1001 BURKEMONT AVE, MORGANTON, NC, 28655",37162320,"R"
3558,"1001 BURNT HICKORY RD NW APT 922","MARIETTA","GA",30064,33.955784318,-84.581472339,58,"1001 BURNT HICKORY RD NW APT 922, MARIETTA, GA, 30064","Match","Exact","1001 BURNT HICKORY RD NW, MARIETTA, GA, 30064",17217909,"L"
3559,"1001 CADENCE","IRVINE","CA",92618,NA,NA,59,"1001 CADENCE, IRVINE, CA, 92618","No_Match",NA,NA,NA,NA
3560,"1001 CALICO RIDGE","LAS VEGAS","NV",89011,NA,NA,60,"1001 CALICO RIDGE, LAS VEGAS, NV, 89011","No_Match",NA,NA,NA,NA
3561,"1001 CALLAHAN DRIVE","FORNEY","TX",75126,32.8029087850001,-96.4821572339999,61,"1001 CALLAHAN DRIVE, FORNEY, TX, 75126","Match","Exact","1001 CALLAHAN DR, FORNEY, TX, 75126",619900844,"R"
3562,"1001 CAPITAL ACCESS ROAD","BATON ROUGE","LA",70802,30.458178252,-91.180415519,62,"1001 CAPITAL ACCESS ROAD, BATON ROUGE, LA, 70802","Match","Non_Exact","1001 CAPITOL ACCESS RD, BATON ROUGE, LA, 70802",615487584,"L"
3563,"1001 CENTER STREET  SUITE 206","BOWLING GREEN","KY",42101,36.9939862100001,-86.444008875,63,"1001 CENTER STREET  SUITE 206, BOWLING GREEN, KY, 42101","Match","Exact","1001 CENTER ST, BOWLING GREEN, KY, 42101",28005338,"L"
3564,"1001 CHELTENHAM AVE STE 100","ELKINS PARK","PA",19027,40.0586083210001,-75.1312866869999,64,"1001 CHELTENHAM AVE STE 100, ELKINS PARK, PA, 19027","Match","Non_Exact","1001 W CHELTENHAM AVE, ELKINS PARK, PA, 19027",641952681,"R"
3565,"1001 CHERRY HEIGHTS RD","THE DALLES","OR",97058,45.6041393310001,-121.201697364,65,"1001 CHERRY HEIGHTS RD, THE DALLES, OR, 97058","Match","Non_Exact","1001 CHERRY HEIGHTS RD W, THE DALLES, OR, 97058",175532521,"L"
3566,"1001 CHESTNUT ST NUM 303E","PHILADELPHIA","PA",19107,39.950023591,-75.157150101,66,"1001 CHESTNUT ST NUM 303E, PHILADELPHIA, PA, 19107","Match","Exact","1001 CHESTNUT ST, PHILADELPHIA, PA, 19107",638967246,"R"
3567,"1001 CHILLUM RD 301","HYATTSVILLE","MD",20782,38.9615266980001,-76.9929478339999,67,"1001 CHILLUM RD 301, HYATTSVILLE, MD, 20782","Match","Exact","1001 CHILLUM RD, HYATTSVILLE, MD, 20782",76366796,"R"
3568,"1001 CHIRICAHUA CT SE","ALBUQUERQUE","NM",87123,35.0608033410001,-106.526686048,68,"1001 CHIRICAHUA CT SE, ALBUQUERQUE, NM, 87123","Match","Exact","1001 CHIRICAHUA CT SE, ALBUQUERQUE, NM, 87123",206742802,"L"
3569,"1001 CLARENCE ST","DANVILLE","IL",61832,40.1324602920001,-87.6093226899999,69,"1001 CLARENCE ST, DANVILLE, IL, 61832","Match","Exact","1001 CLARENCE ST, DANVILLE, IL, 61832",65999982,"L"
3570,"1001 CLAYCUT CIRCLE","NORTH LITTLE ROCK","AR",72117,34.8170946710001,-92.255332649,70,"1001 CLAYCUT CIRCLE, NORTH LITTLE ROCK, AR, 72117","Match","Non_Exact","1001 CLAYCUT CIR, N LITTLE ROCK, AR, 72116",648692843,"R"
3571,"1001 CLAYTON AVE","NASHVILLE","TN",37204,36.117827398,-86.787513036,71,"1001 CLAYTON AVE, NASHVILLE, TN, 37204","Match","Exact","1001 CLAYTON AVE, NASHVILLE, TN, 37204",97191027,"L"
3572,"1001 CLINT MOORE ROAD","BOCA RATON","FL",33487,26.408230111,-80.107310524,72,"1001 CLINT MOORE ROAD, BOCA RATON, FL, 33487","Match","Exact","1001 CLINT MOORE RD, BOCA RATON, FL, 33487",115292921,"L"
3573,"1001 COLD BEAR COVE","AUSTIN","TX",78748,30.1708534960001,-97.8098045789999,73,"1001 COLD BEAR COVE, AUSTIN, TX, 78748","Match","Exact","1001 COLD BEAR COVE, AUSTIN, TX, 78748",649000249,"L"
3574,"1001 COOPER POINT ROAD SW 140-721","OLYMPIA","WA",98502,47.0388913240001,-122.939179948,74,"1001 COOPER POINT ROAD SW 140-721, OLYMPIA, WA, 98502","Match","Exact","1001 COOPER POINT RD SW, OLYMPIA, WA, 98502",180942677,"R"
3575,"1001 COOPER PT RD SW STE 140227","OLYMPIA","WA",98502,47.0388913240001,-122.939179948,75,"1001 COOPER PT RD SW STE 140227, OLYMPIA, WA, 98502","Match","Exact","1001 COOPER POINT RD SW, OLYMPIA, WA, 98502",180942677,"R"
3576,"1001 CORPUS CHRISTI","LAREDO","TX",78043,NA,NA,76,"1001 CORPUS CHRISTI, LAREDO, TX, 78043","No_Match",NA,NA,NA,NA
3577,"1001 COUNTRY CLUB DR STE F","MORAGA","CA",94556,37.832908892,-122.128266307,77,"1001 COUNTRY CLUB DR STE F, MORAGA, CA, 94556","Match","Exact","1001 COUNTRY CLUB DR, MORAGA, CA, 94556",607855871,"L"
3578,"1001 COUNTRY CLUB ROAD","ARDMORE","OK",73401,34.2166589810001,-97.141948357,78,"1001 COUNTRY CLUB ROAD, ARDMORE, OK, 73401","Match","Exact","1001 COUNTRY CLUB RD, ARDMORE, OK, 73401",624719620,"R"
3579,"1001 COUNTRY GROVE AENUE","NORTH LAS VEGAS","NV",89030,36.205347343,-115.155202968,79,"1001 COUNTRY GROVE AENUE, NORTH LAS VEGAS, NV, 89030","Match","Non_Exact","1001 COUNTRY GROVE AVE, N LAS VEGAS, NV, 89030",202003807,"L"
3580,"1001 CRAVEN STREET","BEAUFORT","SC",29902,32.4326675770001,-80.673022815,80,"1001 CRAVEN STREET, BEAUFORT, SC, 29902","Match","Exact","1001 CRAVEN ST, BEAUFORT, SC, 29902",87606168,"R"
3581,"1001 CREEL DRIVE","MOODY","AL",35004,NA,NA,81,"1001 CREEL DRIVE, MOODY, AL, 35004","No_Match",NA,NA,NA,NA
3582,"1001 CURTIS STREET","SEDRO WOOLLEY","WA",98284,48.5020670590001,-122.246245209,82,"1001 CURTIS STREET, SEDRO WOOLLEY, WA, 98284","Match","Exact","1001 CURTIS ST, SEDRO WOOLLEY, WA, 98284",183676301,"R"
3583,"1001 DAIRY HOUSE CT","WAKE FOREST","NC",27587,35.9726646030001,-78.548019975,83,"1001 DAIRY HOUSE CT, WAKE FOREST, NC, 27587","Match","Exact","1001 DAIRY HOUSE CT, WAKE FOREST, NC, 27587",612820858,"L"
3584,"1001 DAVID ROSS RD","WEST LAFAYETTE","IN",47906,40.434319702,-86.92575844,84,"1001 DAVID ROSS RD, WEST LAFAYETTE, IN, 47906","Match","Exact","1001 DAVID ROSS RD, W LAFAYETTE, IN, 47906",27318016,"L"
3585,"1001 DENMARK DRIVE","GRAND PRAIRIE","TX",75050,32.75290291,-97.026823469,85,"1001 DENMARK DRIVE, GRAND PRAIRIE, TX, 75050","Match","Exact","1001 DENMARK DR, GRAND PRAIRIE, TX, 75050",102935280,"L"
3586,"1001 DORCHESTER ROAD","BROOKLYN","NY",11218,40.6373288990001,-73.9681695959999,86,"1001 DORCHESTER ROAD, BROOKLYN, NY, 11218","Match","Exact","1001 DORCHESTER RD, BROOKLYN, NY, 11218",59081064,"L"
3587,"1001 DUAL PARKS ROAD","APEX","NC",27502,35.7164051780001,-78.854368113,87,"1001 DUAL PARKS ROAD, APEX, NC, 27502","Match","Exact","1001 DUAL PARKS RD, APEX, NC, 27502",208354245,"R"
3588,"1001 DYER BLVD","KISSIMMEE","FL",34741,28.3012468800001,-81.43674455,88,"1001 DYER BLVD, KISSIMMEE, FL, 34741","Match","Exact","1001 DYER BLVD, KISSIMMEE, FL, 34741",176683307,"R"
3589,"1001 E 62ND AVENUE UNIT 825","DENVER","CO",80216,39.8091573890001,-104.975301895,89,"1001 E 62ND AVENUE UNIT 825, DENVER, CO, 80216","Match","Non_Exact","1001 E 62ND AVE, DENVER, CO, 80216",177302917,"L"
3590,"1001 E 8TH ST  UNIT 3004","TEMPE","AZ",85281,33.4206011090001,-111.924375918,90,"1001 E 8TH ST  UNIT 3004, TEMPE, AZ, 85281","Match","Non_Exact","1001 E 8TH ST, TEMPE, AZ, 85281",638286156,"R"
3591,"1001 E 9TH STREET B171","RENO","NV",89521,NA,NA,91,"1001 E 9TH STREET B171, RENO, NV, 89521","No_Match",NA,NA,NA,NA
3592,"1001 E CAREY AVE APT 606","NORTH LAS VEGAS","NV",89030,NA,NA,92,"1001 E CAREY AVE APT 606, NORTH LAS VEGAS, NV, 89030","Tie",NA,NA,NA,NA
3593,"1001 E CHICAGO AVE SUITE 119","NAPERVILLE","IL",60540,41.7737334010001,-88.133316338,93,"1001 E CHICAGO AVE SUITE 119, NAPERVILLE, IL, 60540","Match","Exact","1001 CHICAGO AVE, NAPERVILLE, IL, 60540",649655269,"L"
3594,"1001 E CROSBY RD STE 200","CARROLLTON","TX",75006,NA,NA,94,"1001 E CROSBY RD STE 200, CARROLLTON, TX, 75006","Tie",NA,NA,NA,NA
3595,"1001 E GRUBB DR","MESQUITE","TX",75149,32.77489007,-96.582720492,95,"1001 E GRUBB DR, MESQUITE, TX, 75149","Match","Exact","1001 E GRUBB DR, MESQUITE, TX, 75149",103165896,"L"
3596,"1001 E HEBRON PKWY 118-128","CARROLLTON","TX",75010,NA,NA,96,"1001 E HEBRON PKWY 118-128, CARROLLTON, TX, 75010","Tie",NA,NA,NA,NA
3597,"1001 E HEBRON PKWY SUITE 118-180","CARROLLTON","TX",75010,NA,NA,97,"1001 E HEBRON PKWY SUITE 118-180, CARROLLTON, TX, 75010","Tie",NA,NA,NA,NA
3598,"1001 E HEMPSTEAD AVE","FAIRFIELD","IA",52556,41.0092527890001,-91.950369632,98,"1001 E HEMPSTEAD AVE, FAIRFIELD, IA, 52556","Match","Exact","1001 E HEMPSTEAD AVE, FAIRFIELD, IA, 52556",84424903,"R"
3599,"1001 E IRENE ST","PEARCE","AZ",85625,31.939448439,-109.842808532,99,"1001 E IRENE ST, PEARCE, AZ, 85625","Match","Exact","1001 IRENE ST, PEARCE, AZ, 85625",120954078,"L"
3600,"1001 E KNOX RD","TEMPE","AZ",85284,33.327345542,-111.926441083,100,"1001 E KNOX RD, TEMPE, AZ, 85284","Match","Exact","1001 E KNOX RD, TEMPE, AZ, 85284",128923899,"R"
3601,"1001 E KNOX ROAD","TEMPE","AZ",85284,33.327345542,-111.926441083,101,"1001 E KNOX ROAD, TEMPE, AZ, 85284","Match","Exact","1001 E KNOX RD, TEMPE, AZ, 85284",128923899,"R"
3602,"1001 E LINDEN DRIVE","MT PLEASANT","IA",52641,40.94810819,-91.539081353,102,"1001 E LINDEN DRIVE, MT PLEASANT, IA, 52641","Match","Exact","1001 E LINDEN DR, MOUNT PLEASANT, IA, 52641",16084720,"R"
3603,"1001 E MAIN STREET APT 3F","RICHMOND","VI",23219,NA,NA,103,"1001 E MAIN STREET APT 3F, RICHMOND, VI, 23219","No_Match",NA,NA,NA,NA
3604,"1001 E MONTGOMERY","SPOKANE","WA",99207,47.678358072,-117.394206367,104,"1001 E MONTGOMERY, SPOKANE, WA, 99207","Match","Non_Exact","1001 E MONTGOMERY AVE, SPOKANE, WA, 99207",189878691,"L"
3605,"1001 E PLANZ ROAD","BAKERSFIELD","CA",93307,35.3249438490001,-118.993050474,105,"1001 E PLANZ ROAD, BAKERSFIELD, CA, 93307","Match","Exact","1001 E PLANZ RD, BAKERSFIELD, CA, 93307",109093080,"R"
3606,"1001 E PLAYA DEL NORTE SUITE 3515","TEMPE","AZ",85282,NA,NA,106,"1001 E PLAYA DEL NORTE SUITE 3515, TEMPE, AZ, 85282","No_Match",NA,NA,NA,NA
3607,"1001 E ROBINSON ST","NORMAN","OK",73071,35.232877823,-97.4261414329999,107,"1001 E ROBINSON ST, NORMAN, OK, 73071","Match","Exact","1001 E ROBINSON ST, NORMAN, OK, 73071",99954852,"L"
3608,"1001 E WATER ST","MT. VERNON","IN",47620,37.932088424,-87.883525812,108,"1001 E WATER ST, MT. VERNON, IN, 47620","Match","Exact","1001 E WATER ST, MOUNT VERNON, IN, 47620",39735899,"L"
3609,"1001 E WOOSTER ST","BOWLING GREEN","OH",43403,41.374615943,-83.6369265609999,109,"1001 E WOOSTER ST, BOWLING GREEN, OH, 43403","Match","Exact","1001 E WOOSTER ST, BOWLING GREEN, OH, 43403",38720156,"R"
3610,"1001 E WT HARRIS BLVD SUITE P190","CHARLOTTE","NC",28213,35.2940181880001,-80.740821737,110,"1001 E WT HARRIS BLVD SUITE P190, CHARLOTTE, NC, 28213","Match","Non_Exact","1001 E WT HARRIS BLVD, CHARLOTTE, NC, 28213",642246921,"R"
3611,"1001 EAGLE ROAD","WAYNE","PA",19087,NA,NA,111,"1001 EAGLE ROAD, WAYNE, PA, 19087","No_Match",NA,NA,NA,NA
3612,"1001 EAST 52ND STREET","KANSAS CITY","MO",64110,39.032676565,-94.57455591,112,"1001 EAST 52ND STREET, KANSAS CITY, MO, 64110","Match","Exact","1001 E 52ND ST, KANSAS CITY, MO, 64110",651040235,"R"
3613,"1001 EAST 62 AVENUE APARTMENT 436","DENVER","CO",80216,39.809157423,-104.975311458,113,"1001 EAST 62 AVENUE APARTMENT 436, DENVER, CO, 80216","Match","Exact","1001 E 62ND AVE, DENVER, CO, 80216",177302917,"L"
3614,"1001 EAST 6TH STREET","WEST POINT","GA",31833,32.870908215,-85.170637551,114,"1001 EAST 6TH STREET, WEST POINT, GA, 31833","Match","Exact","1001 E 6TH ST, WEST POINT, GA, 31833",1770073,"R"
3615,"1001 EAST 8TH STREET","JEFFERSONVILLE","IN",47130,38.2829264530001,-85.7321258709999,115,"1001 EAST 8TH STREET, JEFFERSONVILLE, IN, 47130","Match","Exact","1001 E 8TH ST, JEFFERSONVILLE, IN, 47130",64882214,"L"
3616,"1001 EAST JEFFERSON STREET SUITE 6","PHOENIX","AZ",85034,33.4471740710001,-112.06030033,116,"1001 EAST JEFFERSON STREET SUITE 6, PHOENIX, AZ, 85034","Match","Exact","1001 E JEFFERSON ST, PHOENIX, AZ, 85034",637414739,"R"
3617,"1001 EAST KNOX ROAD","TEMPE","AZ",85284,33.327345612,-111.926455687,117,"1001 EAST KNOX ROAD, TEMPE, AZ, 85284","Match","Exact","1001 E KNOX RD, TEMPE, AZ, 85284",128923899,"R"
3618,"1001 EAST MAGEE","TUCSON","AZ",85718,32.353516875,-110.957017473,118,"1001 EAST MAGEE, TUCSON, AZ, 85718","Match","Non_Exact","1001 E MAGEE RD, TUCSON, AZ, 85718",121165529,"L"
3619,"1001 EAST NINTH ST  SUITE B171","RENO","NV",89512,39.5385323960001,-119.801393556,119,"1001 EAST NINTH ST  SUITE B171, RENO, NV, 89512","Match","Exact","1001 E 9TH ST, RENO, NV, 89512",107047764,"L"
3620,"1001 EAST PALMER STREET","INDIANAPOLIS","IN",46203,39.746250719,-86.142327984,120,"1001 EAST PALMER STREET, INDIANAPOLIS, IN, 46203","Match","Non_Exact","1001 PALMER ST, INDIANAPOLIS, IN, 46203",107993835,"R"
3621,"1001 EAST PARK AVENUE","MILBANK","SD",57252,NA,NA,121,"1001 EAST PARK AVENUE, MILBANK, SD, 57252","No_Match",NA,NA,NA,NA
3622,"1001 EASTHILLS DR","WEST COVINA","CA",91791,34.0552215710001,-117.875340275,122,"1001 EASTHILLS DR, WEST COVINA, CA, 91791","Match","Non_Exact","1001 S EASTHILLS DR, WEST COVINA, CA, 91791",141724756,"R"
3623,"1001 ELBEL RD","SCHERTZ","TX",78154,29.562252109,-98.2652662259999,123,"1001 ELBEL RD, SCHERTZ, TX, 78154","Match","Exact","1001 ELBEL RD, SCHERTZ, TX, 78154",625731401,"L"
3624,"1001 ELBEL ROAD","SCHERTZ","TX",78154,29.562252109,-98.2652662259999,124,"1001 ELBEL ROAD, SCHERTZ, TX, 78154","Match","Exact","1001 ELBEL RD, SCHERTZ, TX, 78154",625731401,"L"
3625,"1001 ELM AVENUE","TAKOMA PARK","MD",20912,38.9785512290001,-76.994262654,125,"1001 ELM AVENUE, TAKOMA PARK, MD, 20912","Match","Exact","1001 ELM AVE, TAKOMA PARK, MD, 20912",76303034,"R"
3626,"1001 ELM RD","FRANKFORT","MI",49635,44.6389894860001,-86.227964441,126,"1001 ELM RD, FRANKFORT, MI, 49635","Match","Non_Exact","1001 ELM ST, FRANKFORT, MI, 49635",145902001,"L"
3627,"1001 EMERSON STREET","PALO ALTO","CA",94301,37.4406929950001,-122.156434436,127,"1001 EMERSON STREET, PALO ALTO, CA, 94301","Match","Exact","1001 EMERSON ST, PALO ALTO, CA, 94301",122950474,"L"
3628,"1001 F STREET","LAS VEGAS","NV",89106,36.1819341500001,-115.149484732,128,"1001 F STREET, LAS VEGAS, NV, 89106","Match","Exact","1001 F ST, LAS VEGAS, NV, 89106",201865401,"L"
3629,"1001 FAIR PARK BLVD","LITTLE ROCK","AR",72204,34.742919697,-92.334378497,129,"1001 FAIR PARK BLVD, LITTLE ROCK, AR, 72204","Match","Exact","1001 FAIR PARK BLVD, LITTLE ROCK, AR, 72204",83505467,"L"
3630,"1001 FAIRDALE ROAD","LOUISVILLE","KY",40118,38.1120849750001,-85.748846403,130,"1001 FAIRDALE ROAD, LOUISVILLE, KY, 40118","Match","Non_Exact","1001 FAIRDALE RD, FAIRDALE, KY, 40118",620583768,"L"
3631,"1001 FALCON RD","METAIRIE","LA",70005,29.9821082190001,-90.133116318,131,"1001 FALCON RD, METAIRIE, LA, 70005","Match","Exact","1001 FALCON RD, METAIRIE, LA, 70005",93504089,"R"
3632,"1001 FALLS BRIDGE DRIVE","RALEIGH","NC",27614,35.958396168,-78.63870815,132,"1001 FALLS BRIDGE DRIVE, RALEIGH, NC, 27614","Match","Exact","1001 FALLS BRIDGE DR, RALEIGH, NC, 27614",72620126,"R"
3633,"1001 FANNIN ST SUITE 2700","HOUSTON","TX",77002,29.7563702420001,-95.364089555,133,"1001 FANNIN ST SUITE 2700, HOUSTON, TX, 77002","Match","Exact","1001 FANNIN ST, HOUSTON, TX, 77002",96067720,"L"
3634,"1001 FOREST LAKE CIRCLE","MCKINNEY","TX",75072,33.187765138,-96.705014125,134,"1001 FOREST LAKE CIRCLE, MCKINNEY, TX, 75072","Match","Exact","1001 FOREST LAKE CIR, MCKINNEY, TX, 75072",614133897,"R"
3635,"1001 FOURTH AVE STE 3200","SEATTLE","WA",98154,47.606137431,-122.332967945,135,"1001 FOURTH AVE STE 3200, SEATTLE, WA, 98154","Match","Exact","1001 4TH AVE, SEATTLE, WA, 98154",186589575,"L"
3636,"1001 FOURTH AVENUE SUITE 4200","SEATTLE","WA",98154,47.606137431,-122.332967945,136,"1001 FOURTH AVENUE SUITE 4200, SEATTLE, WA, 98154","Match","Exact","1001 4TH AVE, SEATTLE, WA, 98154",186589575,"L"
3637,"1001 FOURTH STREET","LONG BEACH","CA",90802,33.7717145610001,-118.179525771,137,"1001 FOURTH STREET, LONG BEACH, CA, 90802","Match","Non_Exact","1001 E 4TH ST, LONG BEACH, CA, 90802",141694945,"L"
3638,"1001 FOXCROFT LN","BAKERSFIELD","CA",93312,35.367228798,-119.104451652,138,"1001 FOXCROFT LN, BAKERSFIELD, CA, 93312","Match","Exact","1001 FOXCROFT LN, BAKERSFIELD, CA, 93312",109137313,"R"
3639,"1001 FRANKLIN ST","MUNDELEIN","IL",60060,42.279830513,-88.027748534,139,"1001 FRANKLIN ST, MUNDELEIN, IL, 60060","Match","Exact","1001 FRANKLIN ST, MUNDELEIN, IL, 60060",119692440,"L"
3640,"1001 FREDERICK ROAD SUITE 3226","BALTIMORE","MD",21228,39.2705894060001,-76.738156492,140,"1001 FREDERICK ROAD SUITE 3226, BALTIMORE, MD, 21228","Match","Exact","1001 FREDERICK RD, BALTIMORE, MD, 21228",191549613,"L"
3641,"1001 GARBERS CHURCH ROAD","HARRISONBURG","VA",22801,38.4419876640001,-78.908721037,141,"1001 GARBERS CHURCH ROAD, HARRISONBURG, VA, 22801","Match","Exact","1001 GARBERS CHURCH RD, HARRISONBURG, VA, 22801",647393461,"L"
3642,"1001 GARDEN CLUB DRIVE","DELAND","FL",32724,NA,NA,142,"1001 GARDEN CLUB DRIVE, DELAND, FL, 32724","No_Match",NA,NA,NA,NA
3643,"1001 GELSTON CIRCLE","MCLEAN","VA",22102,38.9496571120001,-77.204537661,143,"1001 GELSTON CIRCLE, MCLEAN, VA, 22102","Match","Exact","1001 GELSTON CIR, MCLEAN, VA, 22102",75962462,"L"
3644,"1001 GEORGE WALLACE DRIVE","GADSDEN","AL",35903,33.997604736,-85.991573984,144,"1001 GEORGE WALLACE DRIVE, GADSDEN, AL, 35903","Match","Non_Exact","1001 GEORGE WALLACE DR, GADSDEN, AL, 35902",66805874,"R"
3645,"1001 GINGER LANE","SAN JOSE","CA",95128,37.3082887420001,-121.936410201,145,"1001 GINGER LANE, SAN JOSE, CA, 95128","Match","Exact","1001 GINGER LN, SAN JOSE, CA, 95128",122904473,"R"
3646,"1001 GREAT OAKS DRIVE","DAYTONA BEACH","FL",32117,29.2373854790001,-81.0527392,146,"1001 GREAT OAKS DRIVE, DAYTONA BEACH, FL, 32117","Match","Exact","1001 GREAT OAKS DR, DAYTONA BEACH, FL, 32117",94558020,"R"
3647,"1001 GREEN BAY RD","WINNETKA","IL",60093,42.1188110410001,-87.745385211,147,"1001 GREEN BAY RD, WINNETKA, IL, 60093","Match","Exact","1001 GREEN BAY RD, WINNETKA, IL, 60093",111737507,"R"
3648,"1001 GREENS DAIRY RD","KELLY","NC",28448,34.430042384,-78.244884844,148,"1001 GREENS DAIRY RD, KELLY, NC, 28448","Match","Exact","1001 GREENS DAIRY RD, KELLY, NC, 28448",63869331,"L"
3649,"1001 GREENWOOD WAY","COCOA","FL",32922,28.3702956120001,-80.749163048,149,"1001 GREENWOOD WAY, COCOA, FL, 32922","Match","Exact","1001 GREENWOOD WAY, COCOA, FL, 32922",93892803,"L"
3650,"1001 HARVARD AVE","BILLINGS","MT",59102,45.7959597970001,-108.541090028,150,"1001 HARVARD AVE, BILLINGS, MT, 59102","Match","Exact","1001 HARVARD AVE, BILLINGS, MT, 59102",181476421,"R"
3651,"1001 HARVARD BOULEVARD","DAYTON","OH",45406,39.7722148780001,-84.214359786,151,"1001 HARVARD BOULEVARD, DAYTON, OH, 45406","Match","Exact","1001 HARVARD BLVD, DAYTON, OH, 45406",143569674,"R"
3652,"1001 HAWKINS AVE UNIT 139","LAKE GROVE","NY",11755,40.852065183,-73.1148425759999,152,"1001 HAWKINS AVE UNIT 139, LAKE GROVE, NY, 11755","Match","Exact","1001 HAWKINS AVE, LAKE GROVE, NY, 11755",643062663,"R"
3653,"1001 HAWKINS AVENUE UNIT 1482","LAKE GROVE","NY",11755,40.852065183,-73.1148425759999,153,"1001 HAWKINS AVENUE UNIT 1482, LAKE GROVE, NY, 11755","Match","Exact","1001 HAWKINS AVE, LAKE GROVE, NY, 11755",643062663,"R"
3654,"1001 HAYSLAND ROAD","HUNTSVILLE","AL",35802,NA,NA,154,"1001 HAYSLAND ROAD, HUNTSVILLE, AL, 35802","No_Match",NA,NA,NA,NA
3655,"1001 HAYSLAND ROAD","HUNTSVILLE","AL",35803,NA,NA,155,"1001 HAYSLAND ROAD, HUNTSVILLE, AL, 35803","No_Match",NA,NA,NA,NA
3656,"1001 HEALTH CENTER ROAD","HENDERSON","NC",27536,NA,NA,156,"1001 HEALTH CENTER ROAD, HENDERSON, NC, 27536","No_Match",NA,NA,NA,NA
3657,"1001 HERON DRIVE","MANKATO","MN",56001,44.1363318030001,-93.984090161,157,"1001 HERON DRIVE, MANKATO, MN, 56001","Match","Exact","1001 HERON DR, MANKATO, MN, 56001",650206852,"L"
3658,"1001 HIGH STREET","FARMVILLE","VA",23901,37.2994636490001,-78.404145677,158,"1001 HIGH STREET, FARMVILLE, VA, 23901","Match","Exact","1001 HIGH ST, FARMVILLE, VA, 23901",73975357,"R"
3659,"1001 HILBURN DR","ATLANTA","GA",30316,33.727016904,-84.326824667,159,"1001 HILBURN DR, ATLANTA, GA, 30316","Match","Exact","1001 HILBURN DR, ATLANTA, GA, 30316",23403933,"R"
3660,"1001 HISTORIC 66 WEST","WAYNESVILLE","MO",65583,NA,NA,160,"1001 HISTORIC 66 WEST, WAYNESVILLE, MO, 65583","No_Match",NA,NA,NA,NA
3661,"1001 HULL TERRACE 4-1","EVANSTON","IL",60202,42.0245436810001,-87.685279336,161,"1001 HULL TERRACE 4-1, EVANSTON, IL, 60202","Match","Exact","1001 HULL TER, EVANSTON, IL, 60202",605252975,"R"
3662,"1001 HWY 2297","CALLAWAY","FL",32404,30.12938382,-85.502548949,162,"1001 HWY 2297, CALLAWAY, FL, 32404","Match","Exact","1001 HWY 2297, CALLAWAY, FL, 32404",7091967,"R"
3663,"1001 INDUSTRIAL PARKWAY","MCDONOUGH","GA",30253,33.4168925990001,-84.187860471,163,"1001 INDUSTRIAL PARKWAY, MCDONOUGH, GA, 30253","Match","Exact","1001 INDUSTRIAL PKWY, MCDONOUGH, GA, 30253",635612933,"R"
3664,"1001 JOHNSON PARKWAY SUITE A9","SAINT PAUL","MN",55106,44.971123171,-93.044329773,164,"1001 JOHNSON PARKWAY SUITE A9, SAINT PAUL, MN, 55106","Match","Exact","1001 JOHNSON PKWY, SAINT PAUL, MN, 55106",97651543,"L"
3665,"1001 JOHNSON PKWY STE 33","ST PAUL","MN",55106,44.971123171,-93.044329773,165,"1001 JOHNSON PKWY STE 33, ST PAUL, MN, 55106","Match","Exact","1001 JOHNSON PKWY, SAINT PAUL, MN, 55106",97651543,"L"
3666,"1001 LADY  BUG CIRCLE","BELLMEAD","TX",76705,31.61127263,-97.097922196,166,"1001 LADY  BUG CIRCLE, BELLMEAD, TX, 76705","Match","Exact","1001 LADY BUG CIR, BELLMEAD, TX, 76705",652133535,"L"
3667,"1001 LAKE AVENUE","SPRING LAKE HEIGHTS","NJ",7762,40.146440548,-74.048253675,167,"1001 LAKE AVENUE, SPRING LAKE HEIGHTS, NJ, 7762","Match","Non_Exact","1001 LAKE AVE, SPRING LAKE, NJ, 07762",90459149,"L"
3668,"1001 LAKE CAROLYN PARKWAY APT 212","IRVING","TX",75039,32.8707063040001,-96.934887182,168,"1001 LAKE CAROLYN PARKWAY APT 212, IRVING, TX, 75039","Match","Exact","1001 LAKE CAROLYN PKWY, IRVING, TX, 75039",617054587,"R"
3669,"1001 LAKE CAROLYN PARKWAY APT 417","IRVING","TX",75039,32.8707063040001,-96.934887182,169,"1001 LAKE CAROLYN PARKWAY APT 417, IRVING, TX, 75039","Match","Exact","1001 LAKE CAROLYN PKWY, IRVING, TX, 75039",617054587,"R"
3670,"1001 LAKE CAROLYN PKWY APT 448","IRVING","TX",75039,32.8707063040001,-96.934887182,170,"1001 LAKE CAROLYN PKWY APT 448, IRVING, TX, 75039","Match","Exact","1001 LAKE CAROLYN PKWY, IRVING, TX, 75039",617054587,"R"
3671,"1001 LAKE CLINCH","FROSTPROOF","FL",33843,NA,NA,171,"1001 LAKE CLINCH, FROSTPROOF, FL, 33843","No_Match",NA,NA,NA,NA
3672,"1001 LAUREL STREET SUITE C","SAN CARLOS","CA",94070,37.501186691,-122.254695646,172,"1001 LAUREL STREET SUITE C, SAN CARLOS, CA, 94070","Match","Exact","1001 LAUREL ST, SAN CARLOS, CA, 94070",192385598,"L"
3673,"1001 LINCOLN BLVD SUITE B","MIDDLESEX","NJ",8846,NA,NA,173,"1001 LINCOLN BLVD SUITE B, MIDDLESEX, NJ, 8846","No_Match",NA,NA,NA,NA
3674,"1001 LOGAN ST","LOUISVILLE","KY",40204,38.2365093220001,-85.739382995,174,"1001 LOGAN ST, LOUISVILLE, KY, 40204","Match","Exact","1001 LOGAN ST, LOUISVILLE, KY, 40204",96988014,"L"
3675,"1001 LOVE AVE","TIFTON","GA",31794,31.4622491530001,-83.505832858,175,"1001 LOVE AVE, TIFTON, GA, 31794","Match","Exact","1001 LOVE AVE, TIFTON, GA, 31794",87773506,"R"
3676,"1001 LYNCH ST","ST LOUIS","MO",63118,38.59948931,-90.210706212,176,"1001 LYNCH ST, ST LOUIS, MO, 63118","Match","Exact","1001 LYNCH ST, SAINT LOUIS, MO, 63118",639790012,"R"
3677,"1001 LYNCH STREET","SAINT LOUIS","MO",63118,38.59948931,-90.210706212,177,"1001 LYNCH STREET, SAINT LOUIS, MO, 63118","Match","Exact","1001 LYNCH ST, SAINT LOUIS, MO, 63118",639790012,"R"
3678,"1001 MAIN STREET R109","RACINE","WI",53403,42.7213785700001,-87.7825351989999,178,"1001 MAIN STREET R109, RACINE, WI, 53403","Match","Exact","1001 MAIN ST, RACINE, WI, 53403",77911029,"L"
3679,"1001 MAIN STREET SUITE 14","BRIDGEPORT","CT",6604,41.178174454,-73.1891460479999,179,"1001 MAIN STREET SUITE 14, BRIDGEPORT, CT, 6604","Match","Exact","1001 MAIN ST, BRIDGEPORT, CT, 06604",3225142,"L"
3680,"1001 MAIN STREET","BOYLSTON","MA",1505,42.3685528870001,-71.7252555439999,180,"1001 MAIN STREET, BOYLSTON, MA, 1505","Match","Exact","1001 MAIN ST, BOYLSTON, MA, 01505",40013460,"L"
3681,"1001 MANSFIELD STREET","BRUNSWICK","GA",31520,31.147541785,-81.490265505,181,"1001 MANSFIELD STREET, BRUNSWICK, GA, 31520","Match","Exact","1001 MANSFIELD ST, BRUNSWICK, GA, 31520",9134840,"L"
3682,"1001 MARIPOSA STREET UNIT 307","SAN FRANCISCO","CA",94107,37.7640140510001,-122.393807455,182,"1001 MARIPOSA STREET UNIT 307, SAN FRANCISCO, CA, 94107","Match","Exact","1001 MARIPOSA ST, SAN FRANCISCO, CA, 94107",192289581,"L"
3683,"1001 MAYPORT ROAD SUITE 331156","ATLANTIC BEACH","FL",32233,30.3311698370001,-81.416710315,183,"1001 MAYPORT ROAD SUITE 331156, ATLANTIC BEACH, FL, 32233","Match","Exact","1001 MAYPORT RD, ATLANTIC BCH, FL, 32233",83907083,"R"
3684,"1001 MAZANT ST","NEW ORLEANS","LA",70117,29.964271722,-90.0347713629999,184,"1001 MAZANT ST, NEW ORLEANS, LA, 70117","Match","Exact","1001 MAZANT ST, NEW ORLEANS, LA, 70117",191717774,"R"
3685,"1001 MCCALL COURT","OVIEDO","FL",32765,28.6489296140001,-81.2025720569999,185,"1001 MCCALL COURT, OVIEDO, FL, 32765","Match","Exact","1001 MCCALL CT, OVIEDO, FL, 32765",93765418,"L"
3686,"1001 MCEWEN WOODS CT","CENTERVILLE","OH",45458,39.6198802750001,-84.188837077,186,"1001 MCEWEN WOODS CT, CENTERVILLE, OH, 45458","Match","Exact","1001 MCEWEN WOODS CT, CENTERVILLE, OH, 45458",143604964,"L"
3687,"1001 MEDICAL PLAZA DR  STE 200","THE WOODLANDS","TX",77380,30.1728940250001,-95.4561963519999,187,"1001 MEDICAL PLAZA DR  STE 200, THE WOODLANDS, TX, 77380","Match","Exact","1001 MEDICAL PLAZA DR, THE WOODLANDS, TX, 77380",79320887,"R"
3688,"1001 MERGANSER COURT","UPPER MARLBORO","MD",20774,38.873679457,-76.775856334,188,"1001 MERGANSER COURT, UPPER MARLBORO, MD, 20774","Match","Exact","1001 MERGANSER CT, UPPER MARLBORO, MD, 20774",76345183,"L"
3689,"1001 MILTON STREET","MONROE","LA",71201,32.526582768,-92.125392953,189,"1001 MILTON STREET, MONROE, LA, 71201","Match","Exact","1001 MILTON ST, MONROE, LA, 71201",161083422,"L"
3690,"1001 MILWAUKEE AVENUE","SOUTH MILWAUKEE","WI",53172,42.9106811300001,-87.8608688099999,190,"1001 MILWAUKEE AVENUE, SOUTH MILWAUKEE, WI, 53172","Match","Exact","1001 MILWAUKEE AVE, S MILWAUKEE, WI, 53172",77755679,"L"
3691,"1001 MOLALLA AVE  STE 118","OREGON CITY","OR",97045,45.341175471,-122.59412768,191,"1001 MOLALLA AVE  STE 118, OREGON CITY, OR, 97045","Match","Exact","1001 MOLALLA AVE, OREGON CITY, OR, 97045",157993385,"L"
3692,"1001 N BOND STREET APT 301","BALTIMORE","MD",21205,39.301932821,-76.596436986,192,"1001 N BOND STREET APT 301, BALTIMORE, MD, 21205","Match","Non_Exact","1001 N BOND ST, BALTIMORE, MD, 21205",647410978,"R"
3693,"1001 N BROADWAY","POTEAU","OK",74953,35.05850378,-94.620281512,193,"1001 N BROADWAY, POTEAU, OK, 74953","Match","Non_Exact","1001 N BROADWAY ST, POTEAU, OK, 74953",79900131,"L"
3694,"1001 N CHESTNUT","STRATFORD","TX",79084,36.3414595260001,-102.07866554,194,"1001 N CHESTNUT, STRATFORD, TX, 79084","Match","Non_Exact","1001 N CHESTNUT ST, STRATFORD, TX, 79084",164734450,"L"
3695,"1001 N COLLEGE AVE","TULSA","OK",74110,36.1682148470001,-95.9458857669999,195,"1001 N COLLEGE AVE, TULSA, OK, 74110","Match","Exact","1001 N COLLEGE AVE, TULSA, OK, 74110",166445600,"R"
3696,"1001 N DOUGLAS AVE","ARLINGTON HEIGHTS","IL",60004,42.0946281120001,-87.975581542,196,"1001 N DOUGLAS AVE, ARLINGTON HEIGHTS, IL, 60004","Match","Exact","1001 N DOUGLAS AVE, ARLINGTON HEIGHTS, IL, 60004",111715360,"R"
3697,"1001 N ELM STREET","DENTON","TX",76201,33.2231382680001,-97.133582707,197,"1001 N ELM STREET, DENTON, TX, 76201","Match","Exact","1001 N ELM ST, DENTON, TX, 76201",103338883,"L"
3698,"1001 N GRAND AVE","TAHLEQUAH","OK",74464,35.9250738920001,-94.9668217989999,198,"1001 N GRAND AVE, TAHLEQUAH, OK, 74464","Match","Exact","1001 N GRAND AVE, TAHLEQUAH, OK, 74464",53641862,"L"
3699,"1001 N JOHNSON ST","BAY CITY","MI",48708,43.5988746410001,-83.871480748,199,"1001 N JOHNSON ST, BAY CITY, MI, 48708","Match","Exact","1001 N JOHNSON ST, BAY CITY, MI, 48708",81141240,"L"
3700,"1001 N LEAVITT ROAD","LEAVITTSBURG","OH",44430,41.254284238,-80.8714743689999,200,"1001 N LEAVITT ROAD, LEAVITTSBURG, OH, 44430","Match","Exact","1001 N LEAVITT RD, LEAVITTSBURG, OH, 44430",117403775,"R"
3701,"1001 N MAIN ST","CANTON","IL",61520,40.569760661,-90.036103097,201,"1001 N MAIN ST, CANTON, IL, 61520","Match","Exact","1001 N MAIN ST, CANTON, IL, 61520",15553950,"R"
3702,"1001 N MAIN ST","LOS ANGELES","CA",90012,34.0627309590001,-118.234068076,202,"1001 N MAIN ST, LOS ANGELES, CA, 90012","Match","Exact","1001 N MAIN ST, LOS ANGELES, CA, 90012",141618292,"L"
3703,"1001 N MAIN ST","PRINCETON","IL",61356,41.3652750890001,-89.465012255,203,"1001 N MAIN ST, PRINCETON, IL, 61356","Match","Non_Exact","1001 S MAIN ST, PRINCETON, IL, 61356",8482470,"R"
3704,"1001 N MAIN STREET","BLOOMINGTON","IL",61701,40.488344021,-88.9940001419999,204,"1001 N MAIN STREET, BLOOMINGTON, IL, 61701","Match","Exact","1001 N MAIN ST, BLOOMINGTON, IL, 61701",637881148,"R"
3705,"1001 N MAIN STREET","MULLINS","SC",29574,34.2199254290001,-79.258023759,205,"1001 N MAIN STREET, MULLINS, SC, 29574","Match","Exact","1001 N MAIN ST, MULLINS, SC, 29574",28775907,"L"
3706,"1001 N MAIN STREET","PRINCETON","IL",61356,41.3652750890001,-89.465012255,206,"1001 N MAIN STREET, PRINCETON, IL, 61356","Match","Non_Exact","1001 S MAIN ST, PRINCETON, IL, 61356",8482470,"R"
3707,"1001 N POWER ROAD","MESA","AZ",85205,33.4338519610001,-111.684354768,207,"1001 N POWER ROAD, MESA, AZ, 85205","Match","Exact","1001 N POWER RD, MESA, AZ, 85205",243919817,"R"
3708,"1001 N VALLEY RD","PAOLI","PA",19301,40.061398126,-75.488867704,208,"1001 N VALLEY RD, PAOLI, PA, 19301","Match","Exact","1001 N VALLEY RD, PAOLI, PA, 19301",179495830,"R"
3709,"1001 NAVAJO AVENUE","PARKER","AZ",85344,34.1476290700001,-114.295205142,209,"1001 NAVAJO AVENUE, PARKER, AZ, 85344","Match","Non_Exact","1001 S NAVAJO AVE, PARKER, AZ, 85344",129602943,"R"
3710,"1001 NC HIGHWAY 61 -UNIT 37","WHITSETT","NC",27377,36.066105792,-79.564330463,210,"1001 NC HIGHWAY 61 -UNIT 37, WHITSETT, NC, 27377","Match","Non_Exact","1001 STATE HWY 61, WHITSETT, NC, 27377",131060831,"L"
3711,"1001 NC HWY 61","WHITSETT","NC",27377,36.066105792,-79.564330463,211,"1001 NC HWY 61, WHITSETT, NC, 27377","Match","Non_Exact","1001 STATE HWY 61, WHITSETT, NC, 27377",131060831,"L"
3712,"1001 NE 125TH STREET","NORTH MIAMI","FL",33161,25.890620889,-80.17820677,212,"1001 NE 125TH STREET, NORTH MIAMI, FL, 33161","Match","Exact","1001 NE 125TH ST, NORTH MIAMI, FL, 33161",116037298,"L"
3713,"1001 NE 15 ST","HOMESTEAD","FL",33030,25.4845817190001,-80.465055024,213,"1001 NE 15 ST, HOMESTEAD, FL, 33030","Match","Exact","1001 NE 15TH ST, HOMESTEAD, FL, 33030",115991899,"R"
3714,"1001 NEW JERSEY AVENUE","ABSECON","NJ",8201,39.437097158,-74.5153677059999,214,"1001 NEW JERSEY AVENUE, ABSECON, NJ, 8201","Match","Exact","1001 NEW JERSEY AVE, ABSECON, NJ, 08201",202530394,"L"
3715,"1001 NEWKIRK AVENUE SUITE LL","BROOKLYN","NY",11230,40.633754745,-73.96708903,215,"1001 NEWKIRK AVENUE SUITE LL, BROOKLYN, NY, 11230","Match","Exact","1001 NEWKIRK AVE, BROOKLYN, NY, 11230",59081085,"L"
3716,"1001 NEWKIRK AVENUE","BROOKLYN","NY",11230,40.633754745,-73.96708903,216,"1001 NEWKIRK AVENUE, BROOKLYN, NY, 11230","Match","Exact","1001 NEWKIRK AVE, BROOKLYN, NY, 11230",59081085,"L"
3717,"1001 NEWT YORK","SAINT CLOUD","FL",34769,NA,NA,217,"1001 NEWT YORK, SAINT CLOUD, FL, 34769","No_Match",NA,NA,NA,NA
3718,"1001 NORLIN DR","IMLAY CITY","MI",48444,43.02134777,-83.083786302,218,"1001 NORLIN DR, IMLAY CITY, MI, 48444","Match","Non_Exact","1001 NORLIN, IMLAY CITY, MI, 48444",110470037,"R"
3719,"1001 NORTH HORNBEAM DRIVE","ROCKY MOUNT","NC",27804,35.993346821,-77.8084590719999,219,"1001 NORTH HORNBEAM DRIVE, ROCKY MOUNT, NC, 27804","Match","Exact","1001 N HORNBEAM DR, ROCKY MOUNT, NC, 27804",90384808,"R"
3720,"1001 NORTH STATE ROAD APARTMENT 219","DAVISON","MI",48423,43.042841858,-83.518075016,220,"1001 NORTH STATE ROAD APARTMENT 219, DAVISON, MI, 48423","Match","Exact","1001 N STATE RD, DAVISON, MI, 48423",69578448,"L"
3721,"1001 NW 147TH STREET","MIAMI","FL",33168,25.909112524,-80.215892717,221,"1001 NW 147TH STREET, MIAMI, FL, 33168","Match","Exact","1001 NW 147TH ST, MIAMI, FL, 33168",116030311,"R"
3722,"1001 OAK AVE","WASCO","CA",93280,35.590506496,-119.341537551,222,"1001 OAK AVE, WASCO, CA, 93280","Match","Exact","1001 OAK AVE, WASCO, CA, 93280",109008472,"L"
3723,"1001 OAK KNOLL DRIVE","BLYTHEWOOD","SC",26016,34.178713191,-81.082019864,223,"1001 OAK KNOLL DRIVE, BLYTHEWOOD, SC, 26016","Match","Non_Exact","1001 OAK KNOLL DR, BLYTHEWOOD, SC, 29016",71811213,"R"
3724,"1001 OAK ROAD SW SUITE 1","LILBURN","GA",30047,33.8857521300001,-84.059386515,224,"1001 OAK ROAD SW SUITE 1, LILBURN, GA, 30047","Match","Exact","1001 OAK RD SW, LILBURN, GA, 30047",632654616,"R"
3725,"1001 OAK SHADOWS DR","SHERWOOD","AR",72120,34.907903737,-92.212154528,225,"1001 OAK SHADOWS DR, SHERWOOD, AR, 72120","Match","Exact","1001 OAK SHADOWS DR, SHERWOOD, AR, 72120",83530722,"R"
3726,"1001 OCEANVIEW AVENUE APT 4 KAPLAN","BROOKLYN","NY",11235,40.5800949960001,-73.9597126589999,226,"1001 OCEANVIEW AVENUE APT 4 KAPLAN, BROOKLYN, NY, 11235","Match","Non_Exact","1001 OCEAN VIEW AVE, BROOKLYN, NY, 11235",59091388,"L"
3727,"1001 OGDEN AVENUE","BRONX","NY",10452,40.833041,-73.9293201519999,227,"1001 OGDEN AVENUE, BRONX, NY, 10452","Match","Exact","1001 OGDEN AVE, BRONX, NY, 10452",80299366,"L"
3728,"1001 OLD BLUFF ROAD","H","SC",29061,NA,NA,228,"1001 OLD BLUFF ROAD, H, SC, 29061","No_Match",NA,NA,NA,NA
3729,"1001 OLD MITCHELLVILLE RD","BOWIE","MD",20716,38.9064707200001,-76.714101248,229,"1001 OLD MITCHELLVILLE RD, BOWIE, MD, 20716","Match","Exact","1001 OLD MITCHELLVILLE RD, BOWIE, MD, 20716",76394586,"R"
3730,"1001 OLD RED RANCH ROAD","DRIPPING SPRINGS","TX",78620,30.208157692,-98.213165281,230,"1001 OLD RED RANCH ROAD, DRIPPING SPRINGS, TX, 78620","Match","Exact","1001 OLD RED RANCH RD, DRIPPING SPRINGS, TX, 78620",640036370,"L"
3731,"1001 OLIVE ST","CHELSEA","OK",74016,NA,NA,231,"1001 OLIVE ST, CHELSEA, OK, 74016","No_Match",NA,NA,NA,NA
3732,"1001 PAGE MILL ROAD BLDG 1","PALO ALTO","CA",94304,NA,NA,232,"1001 PAGE MILL ROAD BLDG 1, PALO ALTO, CA, 94304","No_Match",NA,NA,NA,NA
3733,"1001 PENNINGTON ROAD","EWING","NJ",8618,40.2449664970001,-74.7756991639999,233,"1001 PENNINGTON ROAD, EWING, NJ, 8618","Match","Exact","1001 PENNINGTON RD, EWING, NJ, 08618",60177280,"L"
3734,"1001 PENNSYLVANIA AVE NW","WASHINGTON","DC",20004,38.894473121,-77.026082623,234,"1001 PENNSYLVANIA AVE NW, WASHINGTON, DC, 20004","Match","Exact","1001 PENNSYLVANIA AVE NW, WASHINGTON, DC, 20004",76226321,"R"
3735,"1001 PHEASANT LANE","HORICON","WI",53032,43.4419783720001,-88.6418001069999,235,"1001 PHEASANT LANE, HORICON, WI, 53032","Match","Exact","1001 PHEASANT LN, HORICON, WI, 53032",53552874,"L"
3736,"1001 PONTIAC STREET","DENVER","CO",80220,39.731782679,-104.905807948,236,"1001 PONTIAC STREET, DENVER, CO, 80220","Match","Exact","1001 PONTIAC ST, DENVER, CO, 80220",177313460,"L"
3737,"1001 PRESIDENT STREET D3","BROOKLYN","NY",11225,40.668865042,-73.958387639,237,"1001 PRESIDENT STREET D3, BROOKLYN, NY, 11225","Match","Exact","1001 PRESIDENT ST, BROOKLYN, NY, 11225",59078504,"L"
3738,"1001 PRESIDIO SQUARE","COSTA MESA","CA",92626,33.6715871270001,-117.90146015,238,"1001 PRESIDIO SQUARE, COSTA MESA, CA, 92626","Match","Exact","1001 PRESIDIO SQ, COSTA MESA, CA, 92626",630273934,"L"
3739,"1001 PRIMROSE LN","LAWRENCEBURG","KY",40342,38.009405631,-84.9305465849999,239,"1001 PRIMROSE LN, LAWRENCEBURG, KY, 40342","Match","Exact","1001 PRIMROSE LN, LAWRENCEBURG, KY, 40342",43454921,"R"
3740,"1001 ROCKVILLE PIKE APT 1508","ROCKVILLE","MD",20852,39.0718617850001,-77.1330173599999,240,"1001 ROCKVILLE PIKE APT 1508, ROCKVILLE, MD, 20852","Match","Exact","1001 ROCKVILLE PIKE, ROCKVILLE, MD, 20852",62055165,"R"
3741,"1001 ROYAL PALM BLVD APT A2","VERO BEACH","FL",32960,27.6420634670001,-80.3932792699999,241,"1001 ROYAL PALM BLVD APT A2, VERO BEACH, FL, 32960","Match","Exact","1001 ROYAL PALM BLVD, VERO BEACH, FL, 32960",120332109,"R"
3742,"1001 S 37TH STREET","LINCOLN","NE",68510,40.8034653810001,-96.6680519349999,242,"1001 S 37TH STREET, LINCOLN, NE, 68510","Match","Exact","1001 S 37TH ST, LINCOLN, NE, 68510",28255859,"R"
3743,"1001 S 71ST ST","BROKEN ARROW","OK",74014,36.0424948610001,-95.702519423,243,"1001 S 71ST ST, BROKEN ARROW, OK, 74014","Match","Non_Exact","1001 71ST, BROKEN ARROW, OK, 74014",606208271,"L"
3744,"1001 S CARAWAY ROAD","JONESBORO","AR",72401,35.8325916040001,-90.677558946,244,"1001 S CARAWAY ROAD, JONESBORO, AR, 72401","Match","Exact","1001 S CARAWAY RD, JONESBORO, AR, 72401",46930309,"L"
3745,"1001 S DAIRY ASHFORD RD STE 350","HOUSTON","TX",77077,29.7609303780001,-95.6061997899999,245,"1001 S DAIRY ASHFORD RD STE 350, HOUSTON, TX, 77077","Match","Non_Exact","1001 S DAIRY ASHFORD RD, HOUSTON, TX, 77077",96623876,"R"
3746,"1001 S GLOUCESTER ST","IRVING","TX",75062,32.8564564710001,-96.957194836,246,"1001 S GLOUCESTER ST, IRVING, TX, 75062","Match","Exact","1001 S GLOUCESTER ST, IRVING, TX, 75062",102891071,"R"
3747,"1001 S MAIN ST B204","MILPITAS","CA",95035,37.415954535,-121.902370124,247,"1001 S MAIN ST B204, MILPITAS, CA, 95035","Match","Non_Exact","1001 S MAIN ST, MILPITAS, CA, 95035",123176055,"R"
3748,"1001 S MAIN ST STE 49","KALISPELL","MT",59901,NA,NA,248,"1001 S MAIN ST STE 49, KALISPELL, MT, 59901","Tie",NA,NA,NA,NA
3749,"1001 S MAIN ST STE 600","KALISPELL","MT",59901,NA,NA,249,"1001 S MAIN ST STE 600, KALISPELL, MT, 59901","Tie",NA,NA,NA,NA
3750,"1001 S MAIN ST SUITE 5450","KALISPELL","MT",59901,NA,NA,250,"1001 S MAIN ST SUITE 5450, KALISPELL, MT, 59901","Tie",NA,NA,NA,NA
3751,"1001 S MAIN ST SUITE 600","KALISPELL","MT",59901,NA,NA,251,"1001 S MAIN ST SUITE 600, KALISPELL, MT, 59901","Tie",NA,NA,NA,NA
3752,"1001 S MAIN ST","MIDLAND","TX",79701,31.9880142590001,-102.074087301,252,"1001 S MAIN ST, MIDLAND, TX, 79701","Match","Exact","1001 S MAIN ST, MIDLAND, TX, 79701",139583585,"L"
3753,"1001 S MAIN STREET STE 49","KALISPEL","MT",59901,NA,NA,253,"1001 S MAIN STREET STE 49, KALISPEL, MT, 59901","Tie",NA,NA,NA,NA
3754,"1001 S MAIN STREET","LAS VEGAS","NV",89101,36.1609036780001,-115.152765018,254,"1001 S MAIN STREET, LAS VEGAS, NV, 89101","Match","Exact","1001 S MAIN ST, LAS VEGAS, NV, 89101",201865723,"L"
3755,"1001 S RIVIERA CR","CEDAR PARK","TX",78613,30.4783135970001,-97.8143959499999,255,"1001 S RIVIERA CR, CEDAR PARK, TX, 78613","Match","Exact","1001 S RIVIERA CIR, CEDAR PARK, TX, 78613",126431046,"L"
3756,"1001 S STADIUM DRIVE","INGLEWOOD","CA",90301,NA,NA,256,"1001 S STADIUM DRIVE, INGLEWOOD, CA, 90301","No_Match",NA,NA,NA,NA
3757,"1001 S US OLD HWY 75","SABETHA","KS",66534,39.8956721760001,-95.7882907489999,257,"1001 S US OLD HWY 75, SABETHA, KS, 66534","Match","Non_Exact","1001 OLD US HWY 75, SABETHA, KS, 66534",635551817,"L"
3758,"1001 S WALNUT ST","FAIRMONT","NC",28340,NA,NA,258,"1001 S WALNUT ST, FAIRMONT, NC, 28340","No_Match",NA,NA,NA,NA
3759,"1001 S WINMERE","SELMA","IN",47383,40.1850539500001,-85.2796877169999,259,"1001 S WINMERE, SELMA, IN, 47383","Match","Non_Exact","1001 S WINMERE AVE, SELMA, IN, 47383",30839819,"L"
3760,"1001 SE 135TH AVE","PORTLAND","OR",97233,45.515897065,-122.524850723,260,"1001 SE 135TH AVE, PORTLAND, OR, 97233","Match","Exact","1001 SE 135TH AVE, PORTLAND, OR, 97233",157520001,"R"
3761,"1001 SEDGEFIELD ROAD","CHARLOTTE","NC",28209,35.1933799540001,-80.859715802,261,"1001 SEDGEFIELD ROAD, CHARLOTTE, NC, 28209","Match","Exact","1001 SEDGEFIELD RD, CHARLOTTE, NC, 28209",70485895,"L"
3762,"1001 SIEVERT ST","PORTER","IN",46304,41.6296632450001,-87.0697556119999,262,"1001 SIEVERT ST, PORTER, IN, 46304","Match","Exact","1001 SIEVERT ST, PORTER, IN, 46304",119909494,"L"
3763,"1001 SNOW PEAK CT","RALEIGH","NC",27603,35.6116945730001,-78.6254440559999,263,"1001 SNOW PEAK CT, RALEIGH, NC, 27603","Match","Exact","1001 SNOW PEAK CT, RALEIGH, NC, 27603",632181523,"L"
3764,"1001 SOUTH 27TH STREET","SOUTH BEND","IN",46615,41.664026522,-86.208872782,264,"1001 SOUTH 27TH STREET, SOUTH BEND, IN, 46615","Match","Exact","1001 S 27TH ST, SOUTH BEND, IN, 46615",8085046,"R"
3765,"1001 SOUTH COUNTY LINE ROAD","ALBANY","GA",31705,31.5158366100001,-83.9969803179999,265,"1001 SOUTH COUNTY LINE ROAD, ALBANY, GA, 31705","Match","Exact","1001 S COUNTY LINE RD, ALBANY, GA, 31705",635483872,"L"
3766,"1001 SOUTH FLAGLER DRIVE SUITE 804","WEST PALM BEACH","FL",33401,26.704461258,-80.049856088,266,"1001 SOUTH FLAGLER DRIVE SUITE 804, WEST PALM BEACH, FL, 33401","Match","Exact","1001 S FLAGLER DR, WEST PALM BEACH, FL, 33401",639260452,"R"
3767,"1001 SOUTH MAIN STREET","MIDLAND","TX",79705,31.9880142590001,-102.074087301,267,"1001 SOUTH MAIN STREET, MIDLAND, TX, 79705","Match","Non_Exact","1001 S MAIN ST, MIDLAND, TX, 79701",139583585,"L"
3768,"1001 SOUTH WRIGHT STREET","CHAMPAIGN","IL",61820,40.1067718460001,-88.228833702,268,"1001 SOUTH WRIGHT STREET, CHAMPAIGN, IL, 61820","Match","Exact","1001 S WRIGHT ST, CHAMPAIGN, IL, 61820",8831245,"R"
3769,"1001 SPARKLEBERRY LANE EXT SUITE D","COLUMBIA","SC",29223,NA,NA,269,"1001 SPARKLEBERRY LANE EXT SUITE D, COLUMBIA, SC, 29223","No_Match",NA,NA,NA,NA
3770,"1001 SPRING ST STE 1011","SILVER SPRING","MD",20910,38.999035108,-77.026329102,270,"1001 SPRING ST STE 1011, SILVER SPRING, MD, 20910","Match","Exact","1001 SPRING ST, SILVER SPRING, MD, 20910",62068078,"R"
3771,"1001 SPRING ST","SILVER SPRING","MD",20910,38.999035108,-77.026329102,271,"1001 SPRING ST, SILVER SPRING, MD, 20910","Match","Exact","1001 SPRING ST, SILVER SPRING, MD, 20910",62068078,"R"
3772,"1001 SPRING STREET STE 1110","SILVER SPRING","MD",20910,38.999035108,-77.026329102,272,"1001 SPRING STREET STE 1110, SILVER SPRING, MD, 20910","Match","Exact","1001 SPRING ST, SILVER SPRING, MD, 20910",62068078,"R"
3773,"1001 STEGER RD","MERIDIANVILLE","AL",35759,34.88846865,-86.5358295299999,273,"1001 STEGER RD, MERIDIANVILLE, AL, 35759","Match","Exact","1001 STEGER RD, MERIDIANVILLE, AL, 35759",58207661,"L"
3774,"1001 STERLING GLEN CC CT","NORMAL","IL",61761,40.5424232760001,-88.965022071,274,"1001 STERLING GLEN CC CT, NORMAL, IL, 61761","Match","Exact","1001 STERLING GLEN CC CT, NORMAL, IL, 61761",20563317,"R"
3775,"1001 SUSSEX BOULEVARD","BROOMALL","PA",19008,39.958268694,-75.340087064,275,"1001 SUSSEX BOULEVARD, BROOMALL, PA, 19008","Match","Exact","1001 SUSSEX BLVD, BROOMALL, PA, 19008",134873668,"L"
3776,"1001 SW 126TH ST","OKLAHOMA CITY","OK",73170,35.3411205100001,-97.5316799079999,276,"1001 SW 126TH ST, OKLAHOMA CITY, OK, 73170","Match","Exact","1001 SW 126TH ST, OKLAHOMA CITY, OK, 73170",636144613,"R"
3777,"1001 SW 128 TERRACE","PEMBROKE PINES","FL",33027,25.9999914380001,-80.320541076,277,"1001 SW 128 TERRACE, PEMBROKE PINES, FL, 33027","Match","Exact","1001 SW 128TH TER, PEMBROKE PINES, FL, 33027",651794055,"R"
3778,"1001 SW 31ST AVE","FORT LAUDERDALE","FL",33312,26.109842411,-80.185934072,278,"1001 SW 31ST AVE, FORT LAUDERDALE, FL, 33312","Match","Exact","1001 SW 31ST AVE, FORT LAUDERDALE, FL, 33312",114714663,"R"
3779,"1001 SW 31ST ST","PENDLETON","OR",97801,45.655964447,-118.815654825,279,"1001 SW 31ST ST, PENDLETON, OR, 97801","Match","Exact","1001 SW 31ST ST, PENDLETON, OR, 97801",170405066,"L"
3780,"1001 SW 5TH AVE","PORTLAND","OR",97204,45.5167480710001,-122.678699382,280,"1001 SW 5TH AVE, PORTLAND, OR, 97204","Match","Exact","1001 SW 5TH AVE, PORTLAND, OR, 97204",157499257,"R"
3781,"1001 SW B AVE SUITE 140","LAWTON","OK",73501,34.606335954,-98.403288909,281,"1001 SW B AVE SUITE 140, LAWTON, OK, 73501","Match","Non_Exact","1001 SW B AVE, LAWTON, OK, 73501",14995357,"R"
3782,"1001 SW DISK DR 250","BEND","OR",97702,44.043133563,-121.326356807,282,"1001 SW DISK DR 250, BEND, OR, 97702","Match","Non_Exact","1001 SW DISK DR, BEND, OR, 97702",152588763,"R"
3783,"1001 SW EMKAY DRIVE SUITE 100","BEND","OR",97702,44.044904085,-121.326186253,283,"1001 SW EMKAY DRIVE SUITE 100, BEND, OR, 97702","Match","Non_Exact","1001 SW EMKAY DR, BEND, OR, 97702",152584886,"R"
3784,"1001 SW EMKAY DRIVE","BEND","OR",97702,44.044904085,-121.326186253,284,"1001 SW EMKAY DRIVE, BEND, OR, 97702","Match","Exact","1001 SW EMKAY DR, BEND, OR, 97702",152584886,"R"
3785,"1001 SYCAMORE STREET","WILMINGTON","DE",19805,39.7383333650001,-75.564948438,285,"1001 SYCAMORE STREET, WILMINGTON, DE, 19805","Match","Exact","1001 SYCAMORE ST, WILMINGTON, DE, 19805",187294978,"R"
3786,"1001 TELLURIDE DRIVE","WACO","TX",76712,31.4867106720001,-97.21747027,286,"1001 TELLURIDE DRIVE, WACO, TX, 76712","Match","Exact","1001 TELLURIDE DR, WACO, TX, 76712",146771052,"R"
3787,"1001 TERRACE LANE","MORRISON","IL",61270,41.814434319,-89.950816286,287,"1001 TERRACE LANE, MORRISON, IL, 61270","Match","Exact","1001 TERRACE LN, MORRISON, IL, 61270",48964716,"L"
3788,"1001 TEXAS AVENUE STE 940","HOUSTON","TX",77002,29.7599394470001,-95.362458837,288,"1001 TEXAS AVENUE STE 940, HOUSTON, TX, 77002","Match","Non_Exact","1001 TEXAS ST, HOUSTON, TX, 77002",96067731,"L"
3789,"1001 TOM CUMMINGS ROAD","LIVINGSTON","TX",77351,30.696169459,-94.865042403,289,"1001 TOM CUMMINGS ROAD, LIVINGSTON, TX, 77351","Match","Exact","1001 TOM CUMMINGS RD, LIVINGSTON, TX, 77351",643453851,"R"
3790,"1001 TOWNE AVE  STE 101","LOS ANGELES","CA",90021,34.0340922980001,-118.249696209,290,"1001 TOWNE AVE  STE 101, LOS ANGELES, CA, 90021","Match","Exact","1001 TOWNE AVE, LOS ANGELES, CA, 90021",142733183,"R"
3791,"1001 TOWSON AVENUE","FORT SMITH","AR",72901,35.3749785630001,-94.4213059099999,291,"1001 TOWSON AVENUE, FORT SMITH, AR, 72901","Match","Exact","1001 TOWSON AVE, FORT SMITH, AR, 72901",647911826,"L"
3792,"1001 TWELVE OAKS CENTERDR SUITE1007","WAYZATA","MN",55391,NA,NA,292,"1001 TWELVE OAKS CENTERDR SUITE1007, WAYZATA, MN, 55391","No_Match",NA,NA,NA,NA
3793,"1001 TWINBROOK PKWY","ROCKVILLE","MD",20802,39.084411297,-77.117786748,293,"1001 TWINBROOK PKWY, ROCKVILLE, MD, 20802","Match","Non_Exact","1001 TWINBROOK PKWY, ROCKVILLE, MD, 20851",62055492,"R"
3794,"1001 VISTA VIEW DR","BURLESON","TX",76028,32.545167238,-97.3628717719999,294,"1001 VISTA VIEW DR, BURLESON, TX, 76028","Match","Exact","1001 VISTA VIEW DR, BURLESON, TX, 76028",601250347,"L"
3795,"1001 W 12TH ST","SIOUX FALLS","SD",57104,43.54347088,-96.739952805,295,"1001 W 12TH ST, SIOUX FALLS, SD, 57104","Match","Exact","1001 W 12TH ST, SIOUX FALLS, SD, 57104",34972394,"L"
3796,"1001 W 21ST ST VILLA 3","HOUSTON","TX",77008,29.804735991,-95.41602273,296,"1001 W 21ST ST VILLA 3, HOUSTON, TX, 77008","Match","Non_Exact","1001 W 21ST ST, HOUSTON, TX, 77008",96054653,"R"
3797,"1001 W 253RD STREET","HARBOR CITY","CA",90710,33.794716678,-118.292826745,297,"1001 W 253RD STREET, HARBOR CITY, CA, 90710","Match","Exact","1001 W 253RD ST, HARBOR CITY, CA, 90710",141670032,"R"
3798,"1001 W 46TH ST 105","MIAMI BEACH","FL",33140,25.8215734620001,-80.133821742,298,"1001 W 46TH ST 105, MIAMI BEACH, FL, 33140","Match","Non_Exact","1001 W 46TH ST, MIAMI BEACH, FL, 33140",116008785,"R"
3799,"1001 W BROWN ST","SAN SABA","TX",76877,31.1966168760001,-98.7136774799999,299,"1001 W BROWN ST, SAN SABA, TX, 76877","Match","Non_Exact","1001 E BROWN ST, SAN SABA, TX, 76877",183600534,"R"
3800,"1001 W CHELTENHAM AVE SUITE 100","MELROSE PARK","PA",19027,40.0586146730001,-75.131296972,300,"1001 W CHELTENHAM AVE SUITE 100, MELROSE PARK, PA, 19027","Match","Non_Exact","1001 W CHELTENHAM AVE, MELROSE PARK, PA, 19027",641952681,"R"
3801,"1001 W KENNEDY AVENUE SUITE A","KIMBERLY","WI",54136,44.26138467,-88.349741874,301,"1001 W KENNEDY AVENUE SUITE A, KIMBERLY, WI, 54136","Match","Non_Exact","1001 W KENNEDY AVE, KIMBERLY, WI, 54136",74895992,"R"
3802,"1001 W LAMBERT RD SUITE 294","LA HABRA","CA",90631,NA,NA,302,"1001 W LAMBERT RD SUITE 294, LA HABRA, CA, 90631","Tie",NA,NA,NA,NA
3803,"1001 W MAGNOLIA  BLVD","BURBANK","CA",91506,34.1770445450001,-118.319556377,303,"1001 W MAGNOLIA  BLVD, BURBANK, CA, 91506","Match","Exact","1001 W MAGNOLIA BLVD, BURBANK, CA, 91506",141595177,"R"
3804,"1001 W MCKINLEY AVE","MISHAWAKA","IN",46545,NA,NA,304,"1001 W MCKINLEY AVE, MISHAWAKA, IN, 46545","Tie",NA,NA,NA,NA
3805,"1001 W PLEASANT RUN RD","DESOTO","TX",75115,32.604264265,-96.88201943,305,"1001 W PLEASANT RUN RD, DESOTO, TX, 75115","Match","Exact","1001 W PLEASANT RUN RD, DESOTO, TX, 75115",102994556,"R"
3806,"1001 W SECOND ST","MOMENCE","IL",60954,41.1641799560001,-87.6770027749999,306,"1001 W SECOND ST, MOMENCE, IL, 60954","Match","Exact","1001 W 2ND ST, MOMENCE, IL, 60954",98366488,"L"
3807,"1001 W STATE ROAD 45","MORGANTOWN","IN",46160,39.268782592,-86.2696418849999,307,"1001 W STATE ROAD 45, MORGANTOWN, IN, 46160","Match","Exact","1001 STATE RD 45, MORGANTOWN, IN, 46160",43523219,"R"
3808,"1001 W SUNNYSIDE AVE FIRST FLOOR","CHICAGO","IL",60640,41.963602049,-87.6548268349999,308,"1001 W SUNNYSIDE AVE FIRST FLOOR, CHICAGO, IL, 60640","Match","Non_Exact","1001 W SUNNYSIDE AVE, CHICAGO, IL, 60640",605200666,"L"
3809,"1001 WEST 36 STREET","CHATTANOOGA","TN",37410,35.011292638,-85.319384951,309,"1001 WEST 36 STREET, CHATTANOOGA, TN, 37410","Match","Exact","1001 W 36TH ST, CHATTANOOGA, TN, 37410",59312495,"R"
3810,"1001 WEST AVE NW - C/O JOSEPH DELK","LENOIR","NC",28645,35.914168885,-81.54140331,310,"1001 WEST AVE NW - C/O JOSEPH DELK, LENOIR, NC, 28645","Match","Exact","1001 WEST AVE NW, LENOIR, NC, 28645",45856665,"R"
3811,"1001 WEST BEECH","DUNCAN","OK",73533,34.506427226,-97.959300813,311,"1001 WEST BEECH, DUNCAN, OK, 73533","Match","Non_Exact","1001 W BEECH AVE, DUNCAN, OK, 73533",13648477,"R"
3812,"1001 WEST EHRINGHAUS ST  UNIT 1643","ELIZABETH CITY","NC",27906,36.295465257,-76.2340475829999,312,"1001 WEST EHRINGHAUS ST  UNIT 1643, ELIZABETH CITY, NC, 27906","Match","Non_Exact","1001 W EHRINGHAUS ST, ELIZABETH CITY, NC, 27909",18592703,"R"
3813,"1001 WEST GRASSLAND LANE","LINCOLN","NE",68522,40.7978074220001,-96.7360443489999,313,"1001 WEST GRASSLAND LANE, LINCOLN, NE, 68522","Match","Exact","1001 W GRASSLAND LN, LINCOLN, NE, 68522",28299113,"L"
3814,"1001 WEST IMPERIAL HIGHWAY 3474","LA HABRA","CA",90632,33.9174957750001,-117.957359585,314,"1001 WEST IMPERIAL HIGHWAY 3474, LA HABRA, CA, 90632","Match","Non_Exact","1001 W IMPERIAL HWY, LA HABRA, CA, 90631",630360751,"R"
3815,"1001 WEST MAIN ST","LOUISVILLE","KY",40202,38.2577192090001,-85.766514131,315,"1001 WEST MAIN ST, LOUISVILLE, KY, 40202","Match","Exact","1001 W MAIN ST, LOUISVILLE, KY, 40202",96842399,"R"
3816,"1001 WEST UNITY","PARAGOULD","AR",72450,NA,NA,316,"1001 WEST UNITY, PARAGOULD, AR, 72450","No_Match",NA,NA,NA,NA
3817,"1001 WESTERN MEADOWS CT NW","ALBUQUERQUE","NM",87114,35.1963338690001,-106.630648608,317,"1001 WESTERN MEADOWS CT NW, ALBUQUERQUE, NM, 87114","Match","Exact","1001 WESTERN MEADOWS CT NW, ALBUQUERQUE, NM, 87114",206702808,"R"
3818,"1001 WHISPERING WAY 186","ABERDEEN","NJ",7747,NA,NA,318,"1001 WHISPERING WAY 186, ABERDEEN, NJ, 7747","No_Match",NA,NA,NA,NA
3819,"1001 WHISPERING WAY UNIT 136","ABERDEEN","NJ",7747,NA,NA,319,"1001 WHISPERING WAY UNIT 136, ABERDEEN, NJ, 7747","No_Match",NA,NA,NA,NA
3820,"1001 WHITE HORSE PIKE","HADDON TOWNSHIP","NJ",8107,39.899594145,-75.074643698,320,"1001 WHITE HORSE PIKE, HADDON TOWNSHIP, NJ, 8107","Match","Exact","1001 WHITE HORSE PIKE, HADDON TOWNSHIP, NJ, 08107",134350171,"L"
3821,"1001 WILSHIRE BLVD 1010","LOS ANGELES","CA",90017,34.05151332,-118.261517839,321,"1001 WILSHIRE BLVD 1010, LOS ANGELES, CA, 90017","Match","Exact","1001 WILSHIRE BLVD, LOS ANGELES, CA, 90017",141616811,"R"
3822,"1001 WILSHIRE BLVD STE 100 PMB 3001","LOS ANGELES","CA",90017,34.05151332,-118.261517839,322,"1001 WILSHIRE BLVD STE 100 PMB 3001, LOS ANGELES, CA, 90017","Match","Exact","1001 WILSHIRE BLVD, LOS ANGELES, CA, 90017",141616811,"R"
3823,"1001 WILSHIRE BLVD STE 2082","LOS ANGELES","CA",90017,34.05151332,-118.261517839,323,"1001 WILSHIRE BLVD STE 2082, LOS ANGELES, CA, 90017","Match","Exact","1001 WILSHIRE BLVD, LOS ANGELES, CA, 90017",141616811,"R"
3824,"1001 WILSHIRE BLVD STE 2177","LOS ANGELES","CA",90017,34.05151332,-118.261517839,324,"1001 WILSHIRE BLVD STE 2177, LOS ANGELES, CA, 90017","Match","Exact","1001 WILSHIRE BLVD, LOS ANGELES, CA, 90017",141616811,"R"
3825,"1001 WILSHIRE BLVD SUITE 100 3200","LOS ANGELES","CA",90017,34.05151332,-118.261517839,325,"1001 WILSHIRE BLVD SUITE 100 3200, LOS ANGELES, CA, 90017","Match","Exact","1001 WILSHIRE BLVD, LOS ANGELES, CA, 90017",141616811,"R"
3826,"1001 WILSHIRE BLVD","LOS ANGELES","CA",90017,34.05151332,-118.261517839,326,"1001 WILSHIRE BLVD, LOS ANGELES, CA, 90017","Match","Exact","1001 WILSHIRE BLVD, LOS ANGELES, CA, 90017",141616811,"R"
3827,"1001 WILSHIRE BOULEVARD STE 2022","LOS ANGELES","CA",90017,34.05151332,-118.261517839,327,"1001 WILSHIRE BOULEVARD STE 2022, LOS ANGELES, CA, 90017","Match","Exact","1001 WILSHIRE BLVD, LOS ANGELES, CA, 90017",141616811,"R"
3828,"1001 WINDSOR DRIVE","KINGSBURG","CA",93631,36.5225645570001,-119.556644846,328,"1001 WINDSOR DRIVE, KINGSBURG, CA, 93631","Match","Exact","1001 WINDSOR DR, KINGSBURG, CA, 93631",197630467,"L"
3829,"1001 WOOD ST","WILKINSBURG","PA",15221,40.4437116350001,-79.884720279,329,"1001 WOOD ST, WILKINSBURG, PA, 15221","Match","Exact","1001 WOOD ST, WILKINSBURG, PA, 15221",51653720,"L"
3830,"1001 WOOD STREET","VALPARAISO","IN",46383,41.4708827380001,-87.0490135219999,330,"1001 WOOD STREET, VALPARAISO, IN, 46383","Match","Exact","1001 WOOD ST, VALPARAISO, IN, 46383",119914536,"L"
3831,"1001 WOODRIDGE DR","DESOTO","TX",75115,32.583809052,-96.833853437,331,"1001 WOODRIDGE DR, DESOTO, TX, 75115","Match","Exact","1001 WOODRIDGE DR, DESOTO, TX, 75115",632415182,"L"
3832,"1001 WOODWARD AVE  SUITE 500","DETROIT","MI",48226,42.3321769680001,-83.047143632,332,"1001 WOODWARD AVE  SUITE 500, DETROIT, MI, 48226","Match","Exact","1001 WOODWARD AVE, DETROIT, MI, 48226",642523545,"L"
3833,"1001 WOODWARD AVE SUITE 1400","DETROIT","MI",48226,42.3321769680001,-83.047143632,333,"1001 WOODWARD AVE SUITE 1400, DETROIT, MI, 48226","Match","Exact","1001 WOODWARD AVE, DETROIT, MI, 48226",642523545,"L"
3834,"1001 WOODWARD AVE SUITE 500","DETROIT","MI",48226,42.3321769680001,-83.047143632,334,"1001 WOODWARD AVE SUITE 500, DETROIT, MI, 48226","Match","Exact","1001 WOODWARD AVE, DETROIT, MI, 48226",642523545,"L"
3835,"1001 WOODWARD AVE","DETROIT","MI",48226,42.3321769680001,-83.047143632,335,"1001 WOODWARD AVE, DETROIT, MI, 48226","Match","Exact","1001 WOODWARD AVE, DETROIT, MI, 48226",642523545,"L"
3836,"1001 WOODWARD AVENUE STE 500","DETROIT","MI",48226,42.3321769680001,-83.047143632,336,"1001 WOODWARD AVENUE STE 500, DETROIT, MI, 48226","Match","Exact","1001 WOODWARD AVE, DETROIT, MI, 48226",642523545,"L"
3837,"1001 WRIGHT AVENUE","LITTLE ROCK","AR",72206,34.731954536,-92.2851928859999,337,"1001 WRIGHT AVENUE, LITTLE ROCK, AR, 72206","Match","Exact","1001 WRIGHT AVE, LITTLE ROCK, AR, 72206",83511048,"L"
3838,"1001 YAKIMA AVE STE 4A","TACOMA","WA",98405,47.25340119,-122.44758913,338,"1001 YAKIMA AVE STE 4A, TACOMA, WA, 98405","Match","Non_Exact","1001 S YAKIMA AVE, TACOMA, WA, 98405",184646871,"L"
3839,"1001 YAMATO RD STE 301","BOCA RATON","FL",33431,NA,NA,339,"1001 YAMATO RD STE 301, BOCA RATON, FL, 33431","No_Match",NA,NA,NA,NA
3840,"1001-A E HARMONY RD 2002","FORT COLLINS","CO",80525,40.523578468,-105.060138964,340,"1001-A E HARMONY RD 2002, FORT COLLINS, CO, 80525","Match","Exact","1001 E HARMONY RD, FORT COLLINS, CO, 80525",188494692,"R"
3841,"1001-A EAST HARMONY RD  GVI 209","FORT COLLINS","CO",80525,40.523578468,-105.060138964,341,"1001-A EAST HARMONY RD  GVI 209, FORT COLLINS, CO, 80525","Match","Exact","1001 E HARMONY RD, FORT COLLINS, CO, 80525",188494692,"R"
3842,"1001-A EAST HARMONY ROAD","FORT COLLINS","CO",80525,40.523578468,-105.060138964,342,"1001-A EAST HARMONY ROAD, FORT COLLINS, CO, 80525","Match","Exact","1001 E HARMONY RD, FORT COLLINS, CO, 80525",188494692,"R"
3843,"1001","ARLINGTON","TX",76005,NA,NA,343,"1001, ARLINGTON, TX, 76005","No_Match",NA,NA,NA,NA
3844,"10010 BOYNTON PL CIR APT 123","BOYNTON BEACH","FL",33437,NA,NA,344,"10010 BOYNTON PL CIR APT 123, BOYNTON BEACH, FL, 33437","No_Match",NA,NA,NA,NA
3845,"10010 CALLA CT","LAUREL","MD",20723,39.149111964,-76.849946269,345,"10010 CALLA CT, LAUREL, MD, 20723","Match","Exact","10010 CALLA CT, LAUREL, MD, 20723",648276209,"R"
3846,"10010 COUNTRY LANE","YUCAIPA","CA",92399,34.0725612000001,-117.039657212,346,"10010 COUNTRY LANE, YUCAIPA, CA, 92399","Match","Exact","10010 COUNTRY LN, YUCAIPA, CA, 92399",144667809,"R"
3847,"10010 DEER CREEK STREET","HIGHLANDS RANCH","CO",80129,39.5352008150001,-105.025517654,347,"10010 DEER CREEK STREET, HIGHLANDS RANCH, CO, 80129","Match","Non_Exact","10010 S DEER CREEK ST, HIGHLANDS RANCH, CO, 80129",130816478,"R"
3848,"10010 ERION COURT","BOWIE","MD",20721,38.921325144,-76.832433221,348,"10010 ERION COURT, BOWIE, MD, 20721","Match","Exact","10010 ERION CT, BOWIE, MD, 20721",76416776,"R"
3849,"10010 FERNLAND ROAD","GRAND BAY","AL",36541,30.482366031,-88.293335325,349,"10010 FERNLAND ROAD, GRAND BAY, AL, 36541","Match","Exact","10010 FERNLAND RD, GRAND BAY, AL, 36541",61837081,"L"
3850,"10010 JAYDEE BLVD","FAIRFAX STATION","VA",22039,38.741070311,-77.291153989,350,"10010 JAYDEE BLVD, FAIRFAX STATION, VA, 22039","Match","Exact","10010 JAYDEE BLVD, FAIRFAX STATION, VA, 22039",76053566,"L"
3851,"10010 KAELEM CT","SUMMERSET","SD",57718,44.179161015,-103.333075481,351,"10010 KAELEM CT, SUMMERSET, SD, 57718","Match","Exact","10010 KAELEM CT, SUMMERSET, SD, 57718",651609549,"L"
3852,"10010 NORTH VIA FERNANDEZ","EDINBURG","TX",78541,26.4019104380001,-98.150477883,352,"10010 NORTH VIA FERNANDEZ, EDINBURG, TX, 78541","Match","Non_Exact","10010 VIA FERNANDEZ, EDINBURG, TX, 78541",648750627,"R"
3853,"10010 SAN PEDRO AVE STE 115","SAN ANTONIO","TX",78216,29.532087416,-98.496258801,353,"10010 SAN PEDRO AVE STE 115, SAN ANTONIO, TX, 78216","Match","Exact","10010 SAN PEDRO AVE, SAN ANTONIO, TX, 78216",101496683,"R"
3854,"10010 SHALLOW BANK","CONVERSE","TX",78109,29.483634846,-98.2895134189999,354,"10010 SHALLOW BANK, CONVERSE, TX, 78109","Match","Exact","10010 SHALLOW BANK, CONVERSE, TX, 78109",645343802,"R"
3855,"10010 STATE HIGHWAY 67","FLORENCE","CO",81226,NA,NA,355,"10010 STATE HIGHWAY 67, FLORENCE, CO, 81226","No_Match",NA,NA,NA,NA
3856,"10010 STATE ROUTE 304","MIFFLINBURG","PA",17844,40.881069935,-77.02749407,356,"10010 STATE ROUTE 304, MIFFLINBURG, PA, 17844","Match","Exact","10010 STATE RTE 304, MIFFLINBURG, PA, 17844",48186770,"R"
3857,"10010 STEEP BANK TRACE","MISSOURI CITY","TX",77459,29.5038806100001,-95.514761474,357,"10010 STEEP BANK TRACE, MISSOURI CITY, TX, 77459","Match","Exact","10010 STEEP BANK TRCE, MISSOURI CITY, TX, 77459",78299789,"R"
3858,"10010 VIA FERNANDEZ","EDINBURG","TX",78539,26.4019104380001,-98.150477883,358,"10010 VIA FERNANDEZ, EDINBURG, TX, 78539","Match","Non_Exact","10010 VIA FERNANDEZ, EDINBURG, TX, 78541",648750627,"R"
3859,"10011  DAWNBROOK","PEARLAND","TX",77584,29.570209995,-95.374314549,359,"10011  DAWNBROOK, PEARLAND, TX, 77584","Match","Non_Exact","10011 DAWN BROOK DR, PEARLAND, TX, 77584",116648215,"R"
3860,"10011 ARMSTRONG PLZ","OMAHA","NE",68134,41.3040389810001,-96.0682360819999,360,"10011 ARMSTRONG PLZ, OMAHA, NE, 68134","Match","Exact","10011 ARMSTRONG PLZ, OMAHA, NE, 68134",116969029,"R"
3861,"10011 BRIGHTLING LN","AUSTIN","TX",78750,30.428091012,-97.812374059,361,"10011 BRIGHTLING LN, AUSTIN, TX, 78750","Match","Exact","10011 BRIGHTLING LN, AUSTIN, TX, 78750",63974775,"R"
3862,"10011 CHESNEY DRIVE","SPOTSYLVANIA","VA",22553,38.2350445370001,-77.540467195,362,"10011 CHESNEY DRIVE, SPOTSYLVANIA, VA, 22553","Match","Exact","10011 CHESNEY DR, SPOTSYLVANIA, VA, 22553",85025620,"L"
3863,"10011 COSSEY ROAD  TRLR 114A","HOUSTON","TX",77070,30.011527573,-95.574982176,363,"10011 COSSEY ROAD  TRLR 114A, HOUSTON, TX, 77070","Match","Exact","10011 COSSEY RD, HOUSTON, TX, 77070",645008321,"R"
3864,"10011 COVE POINTE RD","BRAINERD","MN",56401,46.385384259,-94.1903954159999,364,"10011 COVE POINTE RD, BRAINERD, MN, 56401","Match","Exact","10011 COVE POINTE RD, BRAINERD, MN, 56401",162847134,"R"
3865,"10011 NE 28TH PLACE","BELLEVUE","WA",98004,47.636078706,-122.206511982,365,"10011 NE 28TH PLACE, BELLEVUE, WA, 98004","Match","Exact","10011 NE 28TH PL, BELLEVUE, WA, 98004",186604858,"R"
3866,"10011 PENTLAND HILLS WAY","BRISTOW","VA",20136,38.744080066,-77.577661335,366,"10011 PENTLAND HILLS WAY, BRISTOW, VA, 20136","Match","Exact","10011 PENTLAND HILLS WAY, BRISTOW, VA, 20136",624648001,"R"
3867,"10011 S 106TH EAST AVE","TULSA","OK",74133,36.01868632,-95.858866018,367,"10011 S 106TH EAST AVE, TULSA, OK, 74133","Match","Exact","10011 S 106TH EAST AVE, TULSA, OK, 74133",166462558,"L"
3868,"10012 BACK ACRE DR","CHARLOTTE","NC",28213,35.295309676,-80.688984342,368,"10012 BACK ACRE DR, CHARLOTTE, NC, 28213","Match","Exact","10012 BACK ACRE DR, CHARLOTTE, NC, 28213",70562588,"L"
3869,"10012 FRUITLAND AVE E","PUYALLUP","WA",98373,NA,NA,369,"10012 FRUITLAND AVE E, PUYALLUP, WA, 98373","No_Match",NA,NA,NA,NA
3870,"10012 GARVEY AVE NO 5","EL MONTE","CA",91733,34.0627032410001,-118.050971312,370,"10012 GARVEY AVE NO 5, EL MONTE, CA, 91733","Match","Non_Exact","10012 GARVEY AVE, EL MONTE, CA, 91733",241241992,"R"
3871,"10012 N 38TH ST","PHOENIX","AZ",85028,33.577777328,-112.000016539,371,"10012 N 38TH ST, PHOENIX, AZ, 85028","Match","Exact","10012 N 38TH ST, PHOENIX, AZ, 85028",128218587,"L"
3872,"10012 PERTHSHIRE CIRCLE","LAND O LAKES","FL",34638,28.302827472,-82.505100004,372,"10012 PERTHSHIRE CIRCLE, LAND O LAKES, FL, 34638","Match","Exact","10012 PERTHSHIRE CIR, LAND O LAKES, FL, 34638",627009208,"R"
3873,"10012 TARRINGTON WAY","SPOTSYLVANIA","VA",22551,38.1877443290001,-77.678076832,373,"10012 TARRINGTON WAY, SPOTSYLVANIA, VA, 22551","Match","Exact","10012 TARRINGTON WAY, SPOTSYLVANIA, VA, 22551",645573774,"R"
3874,"10012 W CAPITAL DRIVE SUITE 101","MILWAUKEE","WI",53222,43.08975716,-88.038025939,374,"10012 W CAPITAL DRIVE SUITE 101, MILWAUKEE, WI, 53222","Match","Non_Exact","10012 W CAPITOL DR, MILWAUKEE, WI, 53222",77727342,"R"
3875,"10013 2ND AVE S","BLOOMINGTON","MN",55420,44.8223249860001,-93.274694389,375,"10013 2ND AVE S, BLOOMINGTON, MN, 55420","Match","Exact","10013 2ND AVE S, BLOOMINGTON, MN, 55420",43596470,"L"
3876,"10013 IRON HORSE TRAIL","WACO","TX",76708,31.623156582,-97.238177588,376,"10013 IRON HORSE TRAIL, WACO, TX, 76708","Match","Non_Exact","10013 IRONHORSE TRL, WACO, TX, 76708",653216011,"R"
3877,"10013 JAVELIN WAY","SPRING VALLEY","CA",91977,32.7161176480001,-116.980650102,377,"10013 JAVELIN WAY, SPRING VALLEY, CA, 91977","Match","Exact","10013 JAVELIN WAY, SPRING VALLEY, CA, 91977",195362764,"R"
3878,"10013 MEMPHIS AVENUE","WHITTIER","CA",90603,33.9449597610001,-118.008296104,378,"10013 MEMPHIS AVENUE, WHITTIER, CA, 90603","Match","Exact","10013 MEMPHIS AVE, WHITTIER, CA, 90603",141751491,"R"
3879,"10013 NE HAZEL DELL AVE 147","VANCOUVER","WA",98685,45.693892389,-122.669052384,379,"10013 NE HAZEL DELL AVE 147, VANCOUVER, WA, 98685","Match","Non_Exact","10013 NE HAZEL DELL AVE, VANCOUVER, WA, 98685",158322810,"R"
3880,"10013 NE HAZEL DELL AVE STE 278","VANCOUVER","WA",98685,45.693892389,-122.669052384,380,"10013 NE HAZEL DELL AVE STE 278, VANCOUVER, WA, 98685","Match","Non_Exact","10013 NE HAZEL DELL AVE, VANCOUVER, WA, 98685",158322810,"R"
3881,"10013 NORTH FULTON COURT","ORLANDO","FL",32836,28.425876019,-81.488446873,381,"10013 NORTH FULTON COURT, ORLANDO, FL, 32836","Match","Exact","10013 N FULTON CT, ORLANDO, FL, 32836",94316819,"R"
3882,"10013 S 2ND AVE","INGLEWOOD","CA",90303,33.945365146,-118.318815985,382,"10013 S 2ND AVE, INGLEWOOD, CA, 90303","Match","Exact","10013 S 2ND AVE, INGLEWOOD, CA, 90303",142753683,"R"
3883,"10013 WATER WORKS LN","RIVERVIEW","FL",33578,27.854488363,-82.338039512,383,"10013 WATER WORKS LN, RIVERVIEW, FL, 33578","Match","Exact","10013 WATER WORKS LN, RIVERVIEW, FL, 33578",646585117,"L"
3884,"10014 BLISSFULL VALLEY LANE","TOMBALL","TX",77375,30.0336816120001,-95.579439092,384,"10014 BLISSFULL VALLEY LANE, TOMBALL, TX, 77375","Match","Exact","10014 BLISSFULL VALLEY LN, TOMBALL, TX, 77375",624995786,"L"
3885,"10014 CHAPEL HILL ROAD","MORRISVILLE","NC",27560,35.8221774940001,-78.824647646,385,"10014 CHAPEL HILL ROAD, MORRISVILLE, NC, 27560","Match","Exact","10014 CHAPEL HILL RD, MORRISVILLE, NC, 27560",638225967,"R"
3886,"10014 CHICOT ROAD","LITTLE ROCK","AR",72209,34.659259939,-92.362984876,386,"10014 CHICOT ROAD, LITTLE ROCK, AR, 72209","Match","Exact","10014 CHICOT RD, LITTLE ROCK, AR, 72209",83513040,"R"
3887,"10014 CRAZY HORSE DRIVE","JUNEAU","AK",99801,58.3660429240001,-134.606037044,387,"10014 CRAZY HORSE DRIVE, JUNEAU, AK, 99801","Match","Exact","10014 CRAZY HORSE DR, JUNEAU, AK, 99801",646841951,"L"
3888,"10014 MOUNTAINGATE LANE","BAKERSFIELD","CA",93313,35.3240308000001,-119.114044454,388,"10014 MOUNTAINGATE LANE, BAKERSFIELD, CA, 93313","Match","Non_Exact","10014 MOUNTAINGATE LN, BAKERSFIELD, CA, 93311",109151149,"L"
3889,"10014 PIERPONT AVENUE","CLEVELAND","OH",44108,41.529274006,-81.619646663,389,"10014 PIERPONT AVENUE, CLEVELAND, OH, 44108","Match","Exact","10014 PIERPONT AVE, CLEVELAND, OH, 44108",61112492,"R"
3890,"10014COUNTY ROAD F","MILLADORE","WI",54454,NA,NA,390,"10014COUNTY ROAD F, MILLADORE, WI, 54454","No_Match",NA,NA,NA,NA
3891,"10015 6TH AVE SW","SEATTLE","WA",98146,47.513228622,-122.342393077,391,"10015 6TH AVE SW, SEATTLE, WA, 98146","Match","Exact","10015 6TH AVE SW, SEATTLE, WA, 98146",640606841,"R"
3892,"10015 ALTAMONT CIRCLE","FREDERICKSBURG","VA",22408,38.2336574610001,-77.4756165639999,392,"10015 ALTAMONT CIRCLE, FREDERICKSBURG, VA, 22408","Match","Exact","10015 ALTAMONT CIR, FREDERICKSBURG, VA, 22408",85022821,"L"
3893,"10015 BRADWELL PLACE","WESTCHASE","FL",33626,28.0417024000001,-82.592069409,393,"10015 BRADWELL PLACE, WESTCHASE, FL, 33626","Match","Exact","10015 BRADWELL PL, WESTCHASE, FL, 33626",104670729,"R"
3894,"10015 FARINOSA AVE SW","ALBUQUERQUE","NM",87121,35.0306363500001,-106.74315229,394,"10015 FARINOSA AVE SW, ALBUQUERQUE, NM, 87121","Match","Exact","10015 FARINOSA AVE SW, ALBUQUERQUE, NM, 87121",650189400,"R"
3895,"10015 GARDEN GROVE BLVD","GARDEN GROVE","CA",92844,NA,NA,395,"10015 GARDEN GROVE BLVD, GARDEN GROVE, CA, 92844","No_Match",NA,NA,NA,NA
3896,"10015 LAKE CITY WAY NE  UNIT 312","SEATTLE","WA",98025,47.7012908620001,-122.302461185,396,"10015 LAKE CITY WAY NE  UNIT 312, SEATTLE, WA, 98025","Match","Non_Exact","10015 LAKE CITY WAY NE, SEATTLE, WA, 98125",186584865,"L"
3897,"10015 LAKE CITY WAY NE SUITE 431","SEATTLE","WA",98125,47.7012908620001,-122.302461185,397,"10015 LAKE CITY WAY NE SUITE 431, SEATTLE, WA, 98125","Match","Exact","10015 LAKE CITY WAY NE, SEATTLE, WA, 98125",186584865,"L"
3898,"10015 LAKE CREEK PARKWAY APT 825","AUSTIN","TX",78729,30.467786968,-97.787933948,398,"10015 LAKE CREEK PARKWAY APT 825, AUSTIN, TX, 78729","Match","Exact","10015 LAKE CREEK PKWY, AUSTIN, TX, 78729",126457415,"R"
3899,"10015 LASALLE BOULEVARD","HUNTINGTON WOODS","MI",48070,NA,NA,399,"10015 LASALLE BOULEVARD, HUNTINGTON WOODS, MI, 48070","No_Match",NA,NA,NA,NA
3900,"10015 NW 51ST TER","DORAL","FL",33178,25.819901701,-80.358114015,400,"10015 NW 51ST TER, DORAL, FL, 33178","Match","Exact","10015 NW 51ST TER, DORAL, FL, 33178",116287218,"R"
3901,"10015 OLD COLUMBIA RD STE 215","COLUMBIA","MD",21046,39.174047392,-76.858151769,401,"10015 OLD COLUMBIA RD STE 215, COLUMBIA, MD, 21046","Match","Non_Exact","10015 OLD COLUMBIA RD, COLUMBIA, MD, 21046",158949507,"R"
3902,"10015 OLD COLUMBIA RD STE H 125","COLUMBIA","MD",21046,39.174047392,-76.858151769,402,"10015 OLD COLUMBIA RD STE H 125, COLUMBIA, MD, 21046","Match","Non_Exact","10015 OLD COLUMBIA RD, COLUMBIA, MD, 21046",158949507,"R"
3903,"10015 OLD COLUMBIA ROAD STE B215","COLUMBIA","MD",21046,39.174047392,-76.858151769,403,"10015 OLD COLUMBIA ROAD STE B215, COLUMBIA, MD, 21046","Match","Non_Exact","10015 OLD COLUMBIA RD, COLUMBIA, MD, 21046",158949507,"R"
3904,"10015 OLD HWY 46","BON AQUA","TN",37025,35.951150451,-87.303674246,404,"10015 OLD HWY 46, BON AQUA, TN, 37025","Match","Exact","10015 HWY 46, BON AQUA, TN, 37025",26771850,"L"
3905,"10015 RUFFNER AVE","NORTH HILLS","CA",91343,34.252221648,-118.49661253,405,"10015 RUFFNER AVE, NORTH HILLS, CA, 91343","Match","Exact","10015 RUFFNER AVE, NORTH HILLS, CA, 91343",141544354,"L"
3906,"10015 SEDALIA ST","COMMERCE CITY","CO",80022,39.8786550630001,-104.783156302,406,"10015 SEDALIA ST, COMMERCE CITY, CO, 80022","Match","Exact","10015 SEDALIA ST, COMMERCE CITY, CO, 80022",177466079,"R"
3907,"10015 SW 40TH AVE","PORTLAND","OR",97219,45.452802252,-122.717969682,407,"10015 SW 40TH AVE, PORTLAND, OR, 97219","Match","Exact","10015 SW 40TH AVE, PORTLAND, OR, 97219",638568670,"R"
3908,"10015 VALLEY VIEW RD","MACEDONIA","OH",44056,41.318800993,-81.515399037,408,"10015 VALLEY VIEW RD, MACEDONIA, OH, 44056","Match","Exact","10015 VALLEY VIEW RD, MACEDONIA, OH, 44056",61361118,"R"
3909,"10015 WONDERFUL DAY DRIVE","LAS VEGAS","NV",89148,36.0797693820001,-115.311656516,409,"10015 WONDERFUL DAY DRIVE, LAS VEGAS, NV, 89148","Match","Exact","10015 WONDERFUL DAY DR, LAS VEGAS, NV, 89148",201993221,"L"
3910,"10016 BRIDLEWOOD AVE","ORLANDO","FL",32825,28.554559243,-81.241528364,410,"10016 BRIDLEWOOD AVE, ORLANDO, FL, 32825","Match","Exact","10016 BRIDLEWOOD AVE, ORLANDO, FL, 32825",94295858,"R"
3911,"10016 CASA NUESTRA DRIVE","CHARLOTTE","NC",28214,35.2294710890001,-80.9989256109999,411,"10016 CASA NUESTRA DRIVE, CHARLOTTE, NC, 28214","Match","Exact","10016 CASA NUESTRA DR, CHARLOTTE, NC, 28214",618148171,"R"
3912,"10016 EDMONDS WAY SUITE C122","EDMONDS","WA",98020,NA,NA,412,"10016 EDMONDS WAY SUITE C122, EDMONDS, WA, 98020","No_Match",NA,NA,NA,NA
3913,"10016 HALF BASELINE ROAD","RANCHO","CA",91701,NA,NA,413,"10016 HALF BASELINE ROAD, RANCHO, CA, 91701","No_Match",NA,NA,NA,NA
3914,"10016 IDLEWOOD PLACE","RIVER RIDGE","LA",70123,29.967723951,-90.213792999,414,"10016 IDLEWOOD PLACE, RIVER RIDGE, LA, 70123","Match","Exact","10016 IDLEWOOD PL, RIVER RIDGE, LA, 70123",93496351,"L"
3915,"10016 LA SALLE AVE","LOS ANGELES","CA",90047,33.945185071,-118.305719366,415,"10016 LA SALLE AVE, LOS ANGELES, CA, 90047","Match","Exact","10016 LA SALLE AVE, LOS ANGELES, CA, 90047",141660758,"L"
3916,"10016 N ANDREW ST","SPOKANE","WA",99218,47.7489176280001,-117.404519647,416,"10016 N ANDREW ST, SPOKANE, WA, 99218","Match","Exact","10016 N ANDREW ST, SPOKANE, WA, 99218",189868501,"R"
3917,"10016 RIO CANON AVE SW","ALBUQUERQUE","NM",87121,35.025349685,-106.744556306,417,"10016 RIO CANON AVE SW, ALBUQUERQUE, NM, 87121","Match","Exact","10016 RIO CANON AVE SW, ALBUQUERQUE, NM, 87121",635786855,"R"
3918,"10016 SHELBURNE RD","FT WORTH","TX",76244,32.921503455,-97.301204553,418,"10016 SHELBURNE RD, FT WORTH, TX, 76244","Match","Exact","10016 SHELBURNE RD, FORT WORTH, TX, 76244",647903021,"L"
3919,"10017 AGORA PL","FORT WAYNE","IN",46804,41.023906676,-85.272941621,419,"10017 AGORA PL, FORT WAYNE, IN, 46804","Match","Non_Exact","10017 AGORA DR, FORT WAYNE, IN, 46804",6407346,"L"
3920,"10017 BALTIMORE NATIONAL PIKE","MYERSVILLE","MD",21773,39.507784589,-77.556382125,420,"10017 BALTIMORE NATIONAL PIKE, MYERSVILLE, MD, 21773","Match","Exact","10017 BALTIMORE NATIONAL PIKE, MYERSVILLE, MD, 21773",638668697,"R"
3921,"10017 COUNTY ROAD 604","ALVARADO","TX",76009,32.478645887,-97.228965665,421,"10017 COUNTY ROAD 604, ALVARADO, TX, 76009","Match","Exact","10017 CO RD 604, ALVARADO, TX, 76009",642145135,"L"
3922,"10017 E MOUNTAIN VIEW ROAD 2057","SCOTTSDALE","AZ",85258,33.575062519,-111.865581415,422,"10017 E MOUNTAIN VIEW ROAD 2057, SCOTTSDALE, AZ, 85258","Match","Non_Exact","10017 E MOUNTAIN VIEW RD, SCOTTSDALE, AZ, 85258",128230325,"R"
3923,"10017 LAKE DISTRICT LANE","ORLANDO","FL",32832,28.4224481540001,-81.235671708,423,"10017 LAKE DISTRICT LANE, ORLANDO, FL, 32832","Match","Exact","10017 LAKE DISTRICT LN, ORLANDO, FL, 32832",640867285,"R"
3924,"10017 LONE TREE LN","ORLANDO","FL",32836,28.438084131,-81.525266057,424,"10017 LONE TREE LN, ORLANDO, FL, 32836","Match","Exact","10017 LONE TREE LN, ORLANDO, FL, 32836",94267155,"L"
3925,"100172","IRONDALE","AL",35210,NA,NA,425,"100172, IRONDALE, AL, 35210","No_Match",NA,NA,NA,NA
3926,"10018 CHEEVES DRIVE","HOUSTON","TX",77016,29.857274003,-95.292838268,426,"10018 CHEEVES DRIVE, HOUSTON, TX, 77016","Match","Exact","10018 CHEEVES DR, HOUSTON, TX, 77016",96075704,"R"
3927,"10018 EAST 92ND STREET NORTH","OWASSO","OK",74055,36.2876346310001,-95.8632514889999,427,"10018 EAST 92ND STREET NORTH, OWASSO, OK, 74055","Match","Exact","10018 E 92ND ST N, OWASSO, OK, 74055",166500379,"L"
3928,"10018 FOX DEN RD","ELLICOTT CITY","MD",21042,39.2924527490001,-76.858610536,428,"10018 FOX DEN RD, ELLICOTT CITY, MD, 21042","Match","Exact","10018 FOX DEN RD, ELLICOTT CITY, MD, 21042",158922342,"R"
3929,"10018 OLD WHITE HORSE RD","GREENVILLE","SC",29617,34.9412242650001,-82.478078135,429,"10018 OLD WHITE HORSE RD, GREENVILLE, SC, 29617","Match","Exact","10018 OLD WHITE HORSE RD, GREENVILLE, SC, 29617",38294656,"R"
3930,"10018 ORANGE AVE","SOUTH GATE","CA",90280,33.9407979650001,-118.18584854,430,"10018 ORANGE AVE, SOUTH GATE, CA, 90280","Match","Exact","10018 ORANGE AVE, SOUTH GATE, CA, 90280",142765070,"L"
3931,"10018 PARK PLACE AVE","RIVERVIEW","FL",33578,27.855834536,-82.336617041,431,"10018 PARK PLACE AVE, RIVERVIEW, FL, 33578","Match","Exact","10018 PARK PLACE AVE, RIVERVIEW, FL, 33578",650614655,"L"
3932,"10018 PIAVE DR","HOUSTON","TX",77044,29.8641380440001,-95.216031974,432,"10018 PIAVE DR, HOUSTON, TX, 77044","Match","Exact","10018 PIAVE DR, HOUSTON, TX, 77044",645140164,"R"
3933,"10018 S VAN NESS AVE NO 6","LOS ANGELES","CA",90047,NA,NA,433,"10018 S VAN NESS AVE NO 6, LOS ANGELES, CA, 90047","No_Match",NA,NA,NA,NA
3934,"10018 WESTCHESTER AVE","CLEVELAND","OH",44108,41.5248787690001,-81.6196738,434,"10018 WESTCHESTER AVE, CLEVELAND, OH, 44108","Match","Exact","10018 WESTCHESTER AVE, CLEVELAND, OH, 44108",61112478,"R"
3935,"10019 EDGEWATER TERRACE","FORT WASHINGTON","MD",20744,38.7524217690001,-77.009630755,435,"10019 EDGEWATER TERRACE, FORT WASHINGTON, MD, 20744","Match","Exact","10019 EDGEWATER TER, FT WASHINGTON, MD, 20744",76347399,"R"
3936,"10019 GREENBELT ROAD 101","LANHAM","MD",20706,38.9909299600001,-76.831773739,436,"10019 GREENBELT ROAD 101, LANHAM, MD, 20706","Match","Exact","10019 GREENBELT RD, LANHAM, MD, 20706",76414577,"L"
3937,"10019 JEFFERSON HIGHWAY","RIVER RIDGE","LA",70123,29.9608480200001,-90.220808,437,"10019 JEFFERSON HIGHWAY, RIVER RIDGE, LA, 70123","Match","Exact","10019 JEFFERSON HWY, RIVER RIDGE, LA, 70123",93556015,"R"
3938,"10019 OAK GROVE RD","HOWELL","MI",48855,42.745713004,-83.9500623659999,438,"10019 OAK GROVE RD, HOWELL, MI, 48855","Match","Exact","10019 OAK GROVE RD, HOWELL, MI, 48855",23568850,"L"
3939,"10019 S 400 W","PENDLETON","IN",46064,39.9589277800001,-85.749091084,439,"10019 S 400 W, PENDLETON, IN, 46064","Match","Exact","10019 S 400 W, PENDLETON, IN, 46064",31120794,"L"
3940,"1002 14TH AVE B","ORION","IL",61273,NA,NA,440,"1002 14TH AVE B, ORION, IL, 61273","Tie",NA,NA,NA,NA
3941,"1002 17TH STREET NW","ALICEVILLE","AL",38442,33.1374636150001,-88.165684445,441,"1002 17TH STREET NW, ALICEVILLE, AL, 38442","Match","Non_Exact","1002 17TH ST NW, ALICEVILLE, AL, 35442",639731802,"R"
3942,"1002 39TH AVE SW","PUYALLUP","WA",98373,NA,NA,442,"1002 39TH AVE SW, PUYALLUP, WA, 98373","No_Match",NA,NA,NA,NA
3943,"1002 3RD AVE","HUNTINGTON","WV",25701,38.4222392190001,-82.442370013,443,"1002 3RD AVE, HUNTINGTON, WV, 25701","Match","Exact","1002 3RD AVE, HUNTINGTON, WV, 25701",101317631,"L"
3944,"1002 A PROSPECT STREET UNIT 9","HONOLULU","HI",96822,NA,NA,444,"1002 A PROSPECT STREET UNIT 9, HONOLULU, HI, 96822","No_Match",NA,NA,NA,NA
3945,"1002 ADAMS AVE UNIT D","HOMESTEAD","FL",33034,25.461116614,-80.4628469529999,445,"1002 ADAMS AVE UNIT D, HOMESTEAD, FL, 33034","Match","Exact","1002 ADAMS AVE, HOMESTEAD, FL, 33034",116096489,"R"
3946,"1002 ALMOND CIRCLE","SAN ANGELO","TX",76903,31.449333095,-100.414834245,446,"1002 ALMOND CIRCLE, SAN ANGELO, TX, 76903","Match","Exact","1002 ALMOND CIR, SAN ANGELO, TX, 76903",190686400,"R"
3947,"1002 ANNA KNAPP BLVD STE 101","MOUNT PLEASANT","SC",29464,32.8159767660001,-79.8649222239999,447,"1002 ANNA KNAPP BLVD STE 101, MOUNT PLEASANT, SC, 29464","Match","Exact","1002 ANNA KNAPP BLVD, MOUNT PLEASANT, SC, 29464",635601963,"R"
3948,"1002 AULOA ROAD","KAILUA","HI",96734,21.3745241010001,-157.778073692,448,"1002 AULOA ROAD, KAILUA, HI, 96734","Match","Exact","1002 AULOA RD, KAILUA, HI, 96734",203239531,"L"
3949,"1002 AVALON CT","ALLEN","TX",75013,33.1308259040001,-96.681516108,449,"1002 AVALON CT, ALLEN, TX, 75013","Match","Exact","1002 AVALON CT, ALLEN, TX, 75013",627912276,"R"
3950,"1002 BALD EAGLE","NOLANVILLE","TX",76559,31.0690737690001,-97.6136535589999,450,"1002 BALD EAGLE, NOLANVILLE, TX, 76559","Match","Non_Exact","1002 BALD EAGLE DR, NOLANVILLE, TX, 76559",633140886,"R"
3951,"1002 BECKRIDGE DR","SUMTER","SC",29154,33.893840949,-80.388729106,451,"1002 BECKRIDGE DR, SUMTER, SC, 29154","Match","Exact","1002 BECKRIDGE DR, SUMTER, SC, 29154",202666514,"L"
3952,"1002 BELMONT DRIVE","PINE BLUFF","AR",71601,34.2200709630001,-91.9785576099999,452,"1002 BELMONT DRIVE, PINE BLUFF, AR, 71601","Match","Exact","1002 BELMONT DR, PINE BLUFF, AR, 71601",2552753,"R"
3953,"1002 BISHOP AVE","LA PORTE CITY","IA",50651,42.3118196230001,-92.185323879,453,"1002 BISHOP AVE, LA PORTE CITY, IA, 50651","Match","Exact","1002 BISHOP AVE, LA PORTE CITY, IA, 50651",77246081,"R"
3954,"1002 BRAD CIRCLE","LINDALE","TX",75771,32.506634649,-95.401122748,454,"1002 BRAD CIRCLE, LINDALE, TX, 75771","Match","Exact","1002 BRAD CIR, LINDALE, TX, 75771",642872060,"R"
3955,"1002 BROAD STREET","NEWARK","NJ",7102,40.729065554,-74.175852826,455,"1002 BROAD STREET, NEWARK, NJ, 7102","Match","Exact","1002 BROAD ST, NEWARK, NJ, 07102",63486074,"L"
3956,"1002 CAMPFIRE DRIVE","FORT COLLINS","CO",80524,40.600896806,-105.010419465,456,"1002 CAMPFIRE DRIVE, FORT COLLINS, CO, 80524","Match","Exact","1002 CAMPFIRE DR, FORT COLLINS, CO, 80524",617918789,"R"
3957,"1002 CAPLIS SLIGO RD","BOSSIER CITY","LA",71112,32.4054359100001,-93.588318642,457,"1002 CAPLIS SLIGO RD, BOSSIER CITY, LA, 71112","Match","Exact","1002 CAPLIS SLIGO RD, BOSSIER CITY, LA, 71112",618235427,"R"
3958,"1002 CHESTER SPRINGS RD","PHOENIXVILLE","PA",19460,40.117127258,-75.5881724339999,458,"1002 CHESTER SPRINGS RD, PHOENIXVILLE, PA, 19460","Match","Exact","1002 CHESTER SPRINGS RD, PHOENIXVILLE, PA, 19460",179538734,"L"
3959,"1002 CIRCLE GREEN DR","CLARKS SUMMIT","PA",18411,41.505535481,-75.663702186,459,"1002 CIRCLE GREEN DR, CLARKS SUMMIT, PA, 18411","Match","Exact","1002 CIRCLE GREEN DR, CLARKS SUMMIT, PA, 18411",649369051,"R"
3960,"1002 CLAIBORNE AVE","VINTON","VA",24179,37.264311714,-79.883842315,460,"1002 CLAIBORNE AVE, VINTON, VA, 24179","Match","Exact","1002 CLAIBORNE AVE, VINTON, VA, 24179",62911874,"L"
3961,"1002 COLEMAN STREET APT 206","RALEIGH","NC",27610,35.7675298930001,-78.6228032289999,461,"1002 COLEMAN STREET APT 206, RALEIGH, NC, 27610","Match","Exact","1002 COLEMAN ST, RALEIGH, NC, 27610",72509205,"R"
3962,"1002 CONNECTICUT STREET","SAN FRANCISCO","CA",94107,37.753546301,-122.397131205,462,"1002 CONNECTICUT STREET, SAN FRANCISCO, CA, 94107","Match","Exact","1002 CONNECTICUT ST, SAN FRANCISCO, CA, 94107",192289099,"R"
3963,"1002 COUNTRYSIDE DRIVE","BROOKFIELD","MO",64628,39.794923786,-93.071680825,463,"1002 COUNTRYSIDE DRIVE, BROOKFIELD, MO, 64628","Match","Exact","1002 COUNTRYSIDE DR, BROOKFIELD, MO, 64628",25595552,"R"
3964,"1002 DARBY ROAD","HAVERTOWN","PA",19083,39.976086799,-75.303071243,464,"1002 DARBY ROAD, HAVERTOWN, PA, 19083","Match","Exact","1002 DARBY RD, HAVERTOWN, PA, 19083",605248382,"L"
3965,"1002 DUNDEE CT","HUTCHINSON","KS",67502,38.0858400130001,-97.9507881119999,465,"1002 DUNDEE CT, HUTCHINSON, KS, 67502","Match","Exact","1002 DUNDEE CT, HUTCHINSON, KS, 67502",644239090,"R"
3966,"1002 E CLEVELAND ST PO BOX 693","WEST FRANKFORT","IL",62896,37.892019335,-88.916521627,466,"1002 E CLEVELAND ST PO BOX 693, WEST FRANKFORT, IL, 62896","Match","Non_Exact","1002 E CLEVELAND ST, W FRANKFORT, IL, 62896",92940621,"L"
3967,"1002 E LIVINGSTON AVENUE STE A","COLUMBUS","OH",43205,39.9497283960001,-82.970869018,467,"1002 E LIVINGSTON AVENUE STE A, COLUMBUS, OH, 43205","Match","Non_Exact","1002 E LIVINGSTON AVE, COLUMBUS, OH, 43205",135580723,"L"
3968,"1002 E SOLAR DRIVE","MISSION","TX",78574,26.2367480400001,-98.332198546,468,"1002 E SOLAR DRIVE, MISSION, TX, 78574","Match","Exact","1002 SOLAR DR, MISSION, TX, 78574",634005182,"L"
3969,"1002 E TURMONT ST","CARSON","CA",90746,33.8532537040001,-118.255195571,469,"1002 E TURMONT ST, CARSON, CA, 90746","Match","Exact","1002 E TURMONT ST, CARSON, CA, 90746",141680604,"R"
3970,"1002 EAST 9TH AVENUE","DENVER","CO",80218,39.7304469330001,-104.975146817,470,"1002 EAST 9TH AVENUE, DENVER, CO, 80218","Match","Exact","1002 E 9TH AVE, DENVER, CO, 80218",177331530,"R"
3971,"1002 EAST HIGHLAND AVENUE","KINSTON","NC",28501,35.2766185830001,-77.566319661,471,"1002 EAST HIGHLAND AVENUE, KINSTON, NC, 28501","Match","Exact","1002 E HIGHLAND AVE, KINSTON, NC, 28501",640149919,"R"
3972,"1002 ELM AVE S","HALLOCK","MN",56728,48.7674510240001,-96.9389207139999,472,"1002 ELM AVE S, HALLOCK, MN, 56728","Match","Non_Exact","1002 ELM AVE, HALLOCK, MN, 56728",196033637,"R"
3973,"1002 ELMCROFT BLVD","ROCKVILLE","MD",20850,39.117262253,-77.17150836,473,"1002 ELMCROFT BLVD, ROCKVILLE, MD, 20850","Match","Exact","1002 ELMCROFT BLVD, ROCKVILLE, MD, 20850",617450156,"L"
3974,"1002 ELMWOOD DR","ABILENE","TX",79605,32.4384073890001,-99.768311204,474,"1002 ELMWOOD DR, ABILENE, TX, 79605","Match","Exact","1002 ELMWOOD DR, ABILENE, TX, 79605",129958823,"R"
3975,"1002 FARWOOD AVE","FORT WANYE","IN",46816,41.0290658480001,-85.121544262,475,"1002 FARWOOD AVE, FORT WANYE, IN, 46816","Match","Non_Exact","1002 FARWOOD AVE, FORT WAYNE, IN, 46816",635654282,"R"
3976,"1002 FOXWOOD CIRCLE","PEABODY","MA",1960,42.5333526490001,-70.998503939,476,"1002 FOXWOOD CIRCLE, PEABODY, MA, 1960","Match","Exact","1002 FOXWOOD CIR, PEABODY, MA, 01960",86662276,"L"
3977,"1002 FREDERICK RD","CATONSVILLE","MD",21228,39.2707255330001,-76.737588097,477,"1002 FREDERICK RD, CATONSVILLE, MD, 21228","Match","Exact","1002 FREDERICK RD, CATONSVILLE, MD, 21228",191556555,"R"
3978,"1002 GRASSY VIEW DRIVE","HOUSTON","TX",77073,29.9772166810001,-95.407339505,478,"1002 GRASSY VIEW DRIVE, HOUSTON, TX, 77073","Match","Exact","1002 GRASSY VIEW DR, HOUSTON, TX, 77073",627678771,"L"
3979,"1002 INDIAN DRIVE","ENID","OK",73703,36.3867712310001,-97.890398494,479,"1002 INDIAN DRIVE, ENID, OK, 73703","Match","Exact","1002 INDIAN DR, ENID, OK, 73703",154083417,"R"
3980,"1002 INGERSOLL DRIVE SUITE 4","PHENIX CITY","AL",36867,32.4709025650001,-85.022451565,480,"1002 INGERSOLL DRIVE SUITE 4, PHENIX CITY, AL, 36867","Match","Non_Exact","1002 INGERSOL DR, PHENIX CITY, AL, 36867",639965913,"R"
3981,"1002 IVY RIDGE RD APT 22","SYRACUSE","NY",13210,NA,NA,481,"1002 IVY RIDGE RD APT 22, SYRACUSE, NY, 13210","No_Match",NA,NA,NA,NA
3982,"1002 JAKE LUCUS ROAD NE","LUDOWICI","GA",31316,NA,NA,482,"1002 JAKE LUCUS ROAD NE, LUDOWICI, GA, 31316","No_Match",NA,NA,NA,NA
3983,"1002 KEY ST APT 2","HOUSTON","TX",77009,NA,NA,483,"1002 KEY ST APT 2, HOUSTON, TX, 77009","No_Match",NA,NA,NA,NA
3984,"1002 KINGSTON TERRACE CT","ST CHARLES","MO",63301,38.7869553950001,-90.523424543,484,"1002 KINGSTON TERRACE CT, ST CHARLES, MO, 63301","Match","Exact","1002 KINGSTON TERRACE CT, SAINT CHARLES, MO, 63301",605560732,"L"
3985,"1002 KISER BLVD","GREENEVILLE","TN",37814,36.193690003,-82.79462223,485,"1002 KISER BLVD, GREENEVILLE, TN, 37814","Match","Non_Exact","1002 KISER BLVD, GREENEVILLE, TN, 37745",635863671,"L"
3986,"1002 KLEBERG ST","ALICE","TX",78332,27.7607600790001,-98.066977661,486,"1002 KLEBERG ST, ALICE, TX, 78332","Match","Exact","1002 KLEBERG ST, ALICE, TX, 78332",21513673,"L"
3987,"1002 LINDEN AVE 101","CHARLOTTESVILLE","VA",22902,38.0152080510001,-78.469657787,487,"1002 LINDEN AVE 101, CHARLOTTESVILLE, VA, 22902","Match","Exact","1002 LINDEN AVE, CHARLOTTESVILLE, VA, 22902",83373817,"R"
3988,"1002 MAIN STREET","WOOD RIVER","NE",68883,40.821908331,-98.6016404699999,488,"1002 MAIN STREET, WOOD RIVER, NE, 68883","Match","Exact","1002 MAIN ST, WOOD RIVER, NE, 68883",196271431,"L"
3989,"1002 MAPLE STREET","WILMINGTON","DE",19805,39.7390568210001,-75.564692212,489,"1002 MAPLE STREET, WILMINGTON, DE, 19805","Match","Exact","1002 MAPLE ST, WILMINGTON, DE, 19805",187257300,"L"
3990,"1002 MARTIN LUTHER KING BOULEVARD","CLEARWATER","FL",33755,NA,NA,490,"1002 MARTIN LUTHER KING BOULEVARD, CLEARWATER, FL, 33755","No_Match",NA,NA,NA,NA
3991,"1002 MAY STREET","VEAZIE","ME",4401,44.8253830570001,-68.718376002,491,"1002 MAY STREET, VEAZIE, ME, 4401","Match","Exact","1002 MAY ST, VEAZIE, ME, 04401",123629686,"R"
3992,"1002 MEADOWOOD STREET","GREENSBORO","NC",27409,36.060571613,-79.8865086869999,492,"1002 MEADOWOOD STREET, GREENSBORO, NC, 27409","Match","Exact","1002 MEADOWOOD ST, GREENSBORO, NC, 27409",131095752,"R"
3993,"1002 MEMORIAL VILLAGE DR","HOUSTON","TX",77024,29.780372288,-95.5331920039999,493,"1002 MEMORIAL VILLAGE DR, HOUSTON, TX, 77024","Match","Exact","1002 MEMORIAL VILLAGE DR, HOUSTON, TX, 77024",96630841,"L"
3994,"1002 MOLLY COURT","CEDAR HILL","TX",75104,32.618328553,-96.921609197,494,"1002 MOLLY COURT, CEDAR HILL, TX, 75104","Match","Exact","1002 MOLLY CT, CEDAR HILL, TX, 75104",627209769,"R"
3995,"1002 N BRIDGE STREET","BELDING","MI",48809,43.1093132890001,-85.2279438959999,495,"1002 N BRIDGE STREET, BELDING, MI, 48809","Match","Exact","1002 N BRIDGE ST, BELDING, MI, 48809",12155028,"R"
3996,"1002 N FLORES","SAN ANTONIO","TX",78212,29.435072425,-98.499843524,496,"1002 N FLORES, SAN ANTONIO, TX, 78212","Match","Non_Exact","1002 N FLORES ST, SAN ANTONIO, TX, 78212",101525546,"R"
3997,"1002 N PARKWOOD RD","DECATUR","GA",30030,33.7808305630001,-84.313005187,497,"1002 N PARKWOOD RD, DECATUR, GA, 30030","Match","Exact","1002 N PARKWOOD RD, DECATUR, GA, 30030",23366273,"L"
3998,"1002 NORTH  ELM STREET","SEYMOUR","IN",47274,38.969104185,-85.897331107,498,"1002 NORTH  ELM STREET, SEYMOUR, IN, 47274","Match","Exact","1002 N ELM ST, SEYMOUR, IN, 47274",31245683,"R"
3999,"1002 NORTH 4TH ST","TACOMA","WA",98403,47.262221659,-122.455211344,499,"1002 NORTH 4TH ST, TACOMA, WA, 98403","Match","Exact","1002 N 4TH ST, TACOMA, WA, 98403",184646300,"L"
4000,"1002 NORTH AINSWORTH AVE","TACOMA","WA",98403,47.2596911520001,-122.467291257,500,"1002 NORTH AINSWORTH AVE, TACOMA, WA, 98403","Match","Exact","1002 N AINSWORTH AVE, TACOMA, WA, 98403",184646065,"L"
