"ID","Address","City","State","Zip","lat","long","id","input_address","match_indicator","match_type","matched_address","tiger_line_id","tiger_side"
235001,"515 N STATE STREET STE 2800","CHICAGO","IL",60654,41.8913511040001,-87.628048298,1,"515 N STATE STREET STE 2800, CHICAGO, IL, 60654","Match","Non_Exact","515 N STATE ST, CHICAGO, IL, 60654",605050555,"R"
235002,"515 N SUMMIT ST","SPOONER","WI",54801,45.8272905700001,-91.8894214439999,2,"515 N SUMMIT ST, SPOONER, WI, 54801","Match","Exact","515 N SUMMIT ST, SPOONER, WI, 54801",196342220,"L"
235003,"515 NE HOLLADAY ST APT 422","PORTLAND","OR",97232,45.5300571110001,-122.660455726,3,"515 NE HOLLADAY ST APT 422, PORTLAND, OR, 97232","Match","Non_Exact","515 NE HOLLADAY ST, PORTLAND, OR, 97232",157505030,"L"
235004,"515 NE ROYAL COURT","PORTLAND","OR",97232,45.5266723020001,-122.626067332,4,"515 NE ROYAL COURT, PORTLAND, OR, 97232","Match","Exact","515 NE ROYAL CT, PORTLAND, OR, 97232",157507591,"L"
235005,"515 NORTH 5TH STREET","HAMILTON","MT",59840,46.2511232950001,-114.162207151,5,"515 NORTH 5TH STREET, HAMILTON, MT, 59840","Match","Exact","515 N 5TH ST, HAMILTON, MT, 59840",153516869,"L"
235006,"515 NORTH 6TH STREET","ST JOSEPH","MO",64501,39.769978381,-94.853033061,6,"515 NORTH 6TH STREET, ST JOSEPH, MO, 64501","Match","Exact","515 N 6TH ST, SAINT JOSEPH, MO, 64501",15952111,"R"
235007,"515 NORTH AVENUE","NEW ROCHELLE","NY",10801,40.9202156790001,-73.7869562509999,7,"515 NORTH AVENUE, NEW ROCHELLE, NY, 10801","Match","Exact","515 NORTH AVE, NEW ROCHELLE, NY, 10801",139750226,"R"
235008,"515 NORTH PINE AVENUE","CHICAGO","IL",60644,41.8895788310001,-87.7633471629999,8,"515 NORTH PINE AVENUE, CHICAGO, IL, 60644","Match","Exact","515 N PINE AVE, CHICAGO, IL, 60644",111754178,"R"
235009,"515 NORTH RIVERFRONT DRIVE STE 120","MANKATO","MN",56001,44.171694142,-93.998664302,9,"515 NORTH RIVERFRONT DRIVE STE 120, MANKATO, MN, 56001","Match","Exact","515 N RIVERFRONT DR, MANKATO, MN, 56001",28100050,"R"
235010,"515 NW N MACEDO BLVD","PORT ST LUCIE","FL",34983,27.3300553940001,-80.3736457909999,10,"515 NW N MACEDO BLVD, PORT ST LUCIE, FL, 34983","Match","Exact","515 NW NORTH MACEDO BLVD, PORT ST LUCIE, FL, 34983",120150554,"R"
235011,"515 NW SALTZMAN RD 771","PORTLAND","OR",97229,NA,NA,11,"515 NW SALTZMAN RD 771, PORTLAND, OR, 97229","No_Match",NA,NA,NA,NA
235012,"515 NW SALTZMAN RD 851","PORTLAND","OR",97229,NA,NA,12,"515 NW SALTZMAN RD 851, PORTLAND, OR, 97229","No_Match",NA,NA,NA,NA
235013,"515 NW SALTZMAN ROAD SUITE 883","PORTLAND","OR",97229,NA,NA,13,"515 NW SALTZMAN ROAD SUITE 883, PORTLAND, OR, 97229","No_Match",NA,NA,NA,NA
235014,"515 OAKDALE DR","STAFFORD","TX",77477,29.60889773,-95.5567537919999,14,"515 OAKDALE DR, STAFFORD, TX, 77477","Match","Exact","515 OAKDALE DR, STAFFORD, TX, 77477",650486201,"L"
235015,"515 OCEAN AVENUE NO 306N","SANTA MONICA","CA",90402,34.02459658,-118.510806209,15,"515 OCEAN AVENUE NO 306N, SANTA MONICA, CA, 90402","Match","Non_Exact","515 OCEAN AVE, SANTA MONICA, CA, 90402",141558823,"L"
235016,"515 ONATE PLACE","SANTA FE","NM",87501,35.683432721,-105.955945661,16,"515 ONATE PLACE, SANTA FE, NM, 87501","Match","Exact","515 ONATE PL, SANTA FE, NM, 87501",169378468,"L"
235017,"515 OVINGTON AVENUE SUITE 5K","BROOKLYN","NY",11209,40.6323574300001,-74.0208723379999,17,"515 OVINGTON AVENUE SUITE 5K, BROOKLYN, NY, 11209","Match","Exact","515 OVINGTON AVE, BROOKLYN, NY, 11209",59094529,"L"
235018,"515 PARHAM PARK PLACE","DILLON","SC",29536,34.3437435980001,-79.3964283019999,18,"515 PARHAM PARK PLACE, DILLON, SC, 29536","Match","Exact","515 PARHAM PARK PL, DILLON, SC, 29536",28828777,"R"
235019,"515 PEMBROKE AVENUE S","AHOSKIE","NC",27910,NA,NA,19,"515 PEMBROKE AVENUE S, AHOSKIE, NC, 27910","No_Match",NA,NA,NA,NA
235020,"515 PERSHING AVE","BUNKIE","LA",71322,30.946570437,-92.186476085,20,"515 PERSHING AVE, BUNKIE, LA, 71322","Match","Exact","515 PERSHING AVE, BUNKIE, LA, 71322",607522596,"R"
235021,"515 PICCADILLY SQUARE APT A","CINCINNATI","OH",45255,39.06859332,-84.311579728,21,"515 PICCADILLY SQUARE APT A, CINCINNATI, OH, 45255","Match","Exact","515 PICCADILLY SQ, CINCINNATI, OH, 45255",635570843,"R"
235022,"515 PINE ISLAND CIRCLE","MANSFIELD","TX",76063,32.572242417,-97.149003954,22,"515 PINE ISLAND CIRCLE, MANSFIELD, TX, 76063","Match","Exact","515 PINE ISLAND CIR, MANSFIELD, TX, 76063",643046505,"L"
235023,"515 PINE STREET","GREEN BAY","WI",54301,44.514638624,-88.0102583089999,23,"515 PINE STREET, GREEN BAY, WI, 54301","Match","Exact","515 PINE ST, GREEN BAY, WI, 54301",148102388,"L"
235024,"515 POCAHONTAS PLACE","HAMPTON","VA",23661,37.0070184210001,-76.3807478959999,24,"515 POCAHONTAS PLACE, HAMPTON, VA, 23661","Match","Exact","515 POCAHONTAS PL, HAMPTON, VA, 23661",103758865,"L"
235025,"515 POPLAR ST","CAMBRIDGE","MD",21613,38.5703892780001,-76.077366287,25,"515 POPLAR ST, CAMBRIDGE, MD, 21613","Match","Exact","515 POPLAR ST, CAMBRIDGE, MD, 21613",99674177,"R"
235026,"515 POPLAR STREET","LAKEHURST","NJ",8733,40.0160974070001,-74.3223014709999,26,"515 POPLAR STREET, LAKEHURST, NJ, 8733","Match","Exact","515 POPLAR ST, LAKEHURST, NJ, 08733",203720433,"R"
235027,"515 POST ROAD EAST","WESTPORT","CT",6880,41.1397127130001,-73.3476399589999,27,"515 POST ROAD EAST, WESTPORT, CT, 6880","Match","Exact","515 POST RD E, WESTPORT, CT, 06880",618671132,"L"
235028,"515 QUARTER MASTER DRIVE","SOUTHPORT","NC",28461,NA,NA,28,"515 QUARTER MASTER DRIVE, SOUTHPORT, NC, 28461","No_Match",NA,NA,NA,NA
235029,"515 RAILWAY PLACE","CONCORD","NC",28025,35.3746237830001,-80.588825215,29,"515 RAILWAY PLACE, CONCORD, NC, 28025","Match","Non_Exact","515 RAILWAY PL SW, CONCORD, NC, 28025",631872509,"R"
235030,"515 RENEE DRIVE","BAYPORT","NY",11705,40.7576972470001,-73.0547990479999,30,"515 RENEE DRIVE, BAYPORT, NY, 11705","Match","Exact","515 RENEE DR, BAYPORT, NY, 11705",114008523,"L"
235031,"515 RIVERBLUFF DR","SUMMERVILLE","GA",30747,34.4939003150001,-85.322618585,31,"515 RIVERBLUFF DR, SUMMERVILLE, GA, 30747","Match","Exact","515 RIVERBLUFF DR, SUMMERVILLE, GA, 30747",651301639,"L"
235032,"515 ROBERT DANIEL DR UNIT 1330","DANIEL ISLAND","SC",29492,32.868855222,-79.904280784,32,"515 ROBERT DANIEL DR UNIT 1330, DANIEL ISLAND, SC, 29492","Match","Exact","515 ROBERT DANIEL DR, DANIEL ISLAND, SC, 29492",652499528,"L"
235033,"515 ROCKLAND AVENUE","CHARLOTTESVILLE","VA",22902,38.0195938840001,-78.485844027,33,"515 ROCKLAND AVENUE, CHARLOTTESVILLE, VA, 22902","Match","Exact","515 ROCKLAND AVE, CHARLOTTESVILLE, VA, 22902",83370836,"L"
235034,"515 ROSALIND ROAD","FREEHOLD","NJ",7728,40.210601888,-74.272825317,34,"515 ROSALIND ROAD, FREEHOLD, NJ, 7728","Match","Exact","515 ROSALIND RD, FREEHOLD, NJ, 07728",90495390,"R"
235035,"515 ROUNDTABLE DRIVE","FORT","WA",20744,NA,NA,35,"515 ROUNDTABLE DRIVE, FORT, WA, 20744","No_Match",NA,NA,NA,NA
235036,"515 RUSSELL AVENUE - SUSAN HARDING","WAKEENEY","KS",67672,39.0254881320001,-99.883632521,36,"515 RUSSELL AVENUE - SUSAN HARDING, WAKEENEY, KS, 67672","Match","Exact","515 RUSSELL AVE, WAKEENEY, KS, 67672",150102275,"L"
235037,"515 RUSSELL AVENUE","WAKEENEY","KS",67672,39.0254881320001,-99.883632521,37,"515 RUSSELL AVENUE, WAKEENEY, KS, 67672","Match","Exact","515 RUSSELL AVE, WAKEENEY, KS, 67672",150102275,"L"
235038,"515 S 312TH ST","FEDERAL WAY","WA",98003,47.322390103,-122.327811388,38,"515 S 312TH ST, FEDERAL WAY, WA, 98003","Match","Exact","515 S 312TH ST, FEDERAL WAY, WA, 98003",186648931,"R"
235039,"515 S CAPITAL OF TEXAS HWY STW 250","AUSTIN","TX",78746,NA,NA,39,"515 S CAPITAL OF TEXAS HWY STW 250, AUSTIN, TX, 78746","Tie",NA,NA,NA,NA
235040,"515 S CURRY PIKE","BLOOMINGTON","IN",47403,39.1629460500001,-86.582714266,40,"515 S CURRY PIKE, BLOOMINGTON, IN, 47403","Match","Exact","515 S CURRY PIKE, BLOOMINGTON, IN, 47403",42320747,"L"
235041,"515 S FIGUEROA ST STE 1110","LOS ANGELES","CA",90071,NA,NA,41,"515 S FIGUEROA ST STE 1110, LOS ANGELES, CA, 90071","No_Match",NA,NA,NA,NA
235042,"515 S FIGUEROA ST SUITE 1110","LOS ANGELES","CA",90071,NA,NA,42,"515 S FIGUEROA ST SUITE 1110, LOS ANGELES, CA, 90071","No_Match",NA,NA,NA,NA
235043,"515 S FRY RD STE A 1020","KATY","TX",77450,29.778515988,-95.718863164,43,"515 S FRY RD STE A 1020, KATY, TX, 77450","Match","Non_Exact","515 S FRY RD, KATY, TX, 77450",96016395,"L"
235044,"515 S JAMES ST","JACKSONVILLLE","AR",72076,34.862395775,-92.11887967,44,"515 S JAMES ST, JACKSONVILLLE, AR, 72076","Match","Non_Exact","515 S JAMES ST, JACKSONVILLE, AR, 72076",83519264,"L"
235045,"515 S KENT ST","WINCHESTER","VA",22601,39.1789199080001,-78.164415812,45,"515 S KENT ST, WINCHESTER, VA, 22601","Match","Exact","515 S KENT ST, WINCHESTER, VA, 22601",55578614,"L"
235046,"515 S PLEASANT HILL ROAD","EAST PEORIA","IL",61611,40.6498149870001,-89.5078410799999,46,"515 S PLEASANT HILL ROAD, EAST PEORIA, IL, 61611","Match","Non_Exact","515 N PLEASANT HILL RD, EAST PEORIA, IL, 61611",608207471,"L"
235047,"515 SELVA LAKES CIRCLE","ATLANTIC BEACH","FL",32233,30.3348793870001,-81.4067012899999,47,"515 SELVA LAKES CIRCLE, ATLANTIC BEACH, FL, 32233","Match","Exact","515 SELVA LAKES CIR, ATLANTIC BCH, FL, 32233",83947812,"R"
235048,"515 SHERIDAN RD APT 206","EVANSTON","IL",60202,42.0272003740001,-87.670230908,48,"515 SHERIDAN RD APT 206, EVANSTON, IL, 60202","Match","Exact","515 SHERIDAN RD, EVANSTON, IL, 60202",605252852,"R"
235049,"515 SHERINGHAM CT","ROSWELL","GA",30076,34.0316851220001,-84.292564719,49,"515 SHERINGHAM CT, ROSWELL, GA, 30076","Match","Exact","515 SHERINGHAM CT, ROSWELL, GA, 30076",17418819,"R"
235050,"515 SIMERELL ROAD","S ABINGTON TWP","PA",18411,41.51239223,-75.683665762,50,"515 SIMERELL ROAD, S ABINGTON TWP, PA, 18411","Match","Exact","515 SIMERELL RD, SOUTH ABINGTON TOWNSHIP, PA, 18411",618243086,"L"
235051,"515 SOUTH 700 EAST SUITE 3D","SALT LAKE CITY","UT",84102,40.7581372280001,-111.871048374,51,"515 SOUTH 700 EAST SUITE 3D, SALT LAKE CITY, UT, 84102","Match","Exact","515 S 700 E, SALT LAKE CITY, UT, 84102",616353203,"L"
235052,"515 SOUTH FIGUEROA ST SUITE 1300","LOS ANGELES","CA",90071,NA,NA,52,"515 SOUTH FIGUEROA ST SUITE 1300, LOS ANGELES, CA, 90071","No_Match",NA,NA,NA,NA
235053,"515 SOUTH KINGSHIGHWAY ST","SIKESTON","MO",63801,36.8717284750001,-89.586037341,53,"515 SOUTH KINGSHIGHWAY ST, SIKESTON, MO, 63801","Match","Non_Exact","515 S KINGSHIGHWAY, SIKESTON, MO, 63801",38948859,"L"
235054,"515 SOUTH MAIN STREET","EATON RAPIDS","MI",48827,42.508611613,-84.656013656,54,"515 SOUTH MAIN STREET, EATON RAPIDS, MI, 48827","Match","Exact","515 S MAIN ST, EATON RAPIDS, MI, 48827",12036454,"R"
235055,"515 SOUTH MAIN STREET","RUSSELLVILLE","KY",42276,36.8416749780001,-86.886040415,55,"515 SOUTH MAIN STREET, RUSSELLVILLE, KY, 42276","Match","Exact","515 S MAIN ST, RUSSELLVILLE, KY, 42276",15831564,"R"
235056,"515 SOUTH OLDS BOULEVARD","FAIRLESS HILLS","PA",19030,40.175288403,-74.847360822,56,"515 SOUTH OLDS BOULEVARD, FAIRLESS HILLS, PA, 19030","Match","Exact","515 S OLDS BLVD, FAIRLESS HILLS, PA, 19030",134737316,"L"
235057,"515 SOUTH PERRY STREET","MONTGOMERY","AL",36104,32.3714771300001,-86.307168051,57,"515 SOUTH PERRY STREET, MONTGOMERY, AL, 36104","Match","Exact","515 S PERRY ST, MONTGOMERY, AL, 36104",1469400,"L"
235058,"515 SOUTH ROSE ST","BALTIMORE","MD",21224,39.28589348,-76.580755778,58,"515 SOUTH ROSE ST, BALTIMORE, MD, 21224","Match","Exact","515 S ROSE ST, BALTIMORE, MD, 21224",206425116,"L"
235059,"515 SOUTHWEST 63RD COURT","MIAMI","FL",33144,25.765738378,-80.298953583,59,"515 SOUTHWEST 63RD COURT, MIAMI, FL, 33144","Match","Exact","515 SW 63RD CT, MIAMI, FL, 33144",115975407,"L"
235060,"515 STATE ROUTE 590","ROARING BROOK TWP.","PA",18444,NA,NA,60,"515 STATE ROUTE 590, ROARING BROOK TWP., PA, 18444","No_Match",NA,NA,NA,NA
235061,"515 STATE STREET","OSAGE","IA",50461,43.283078963,-92.814016247,61,"515 STATE STREET, OSAGE, IA, 50461","Match","Exact","515 STATE ST, OSAGE, IA, 50461",638307217,"R"
235062,"515 STEPNEY ST UNIT 3","INGLEWOOD","CA",90302,33.9740637530001,-118.348994896,62,"515 STEPNEY ST UNIT 3, INGLEWOOD, CA, 90302","Match","Exact","515 STEPNEY ST, INGLEWOOD, CA, 90302",142750332,"L"
235063,"515 STONE RIDGE DRIVE","DOVER","DE",19901,39.1154145420001,-75.520146769,63,"515 STONE RIDGE DRIVE, DOVER, DE, 19901","Match","Exact","515 STONE RIDGE DR, DOVER, DE, 19901",635150775,"L"
235064,"515 SUNRISE TERRACE","CEDAR PARK","TX",78613,30.5214823200001,-97.800974971,64,"515 SUNRISE TERRACE, CEDAR PARK, TX, 78613","Match","Exact","515 SUNRISE TER, CEDAR PARK, TX, 78613",126422474,"L"
235065,"515 SUWANNEE RD","TYNDALL AFB","FL",32403,30.0742391910001,-85.601240721,65,"515 SUWANNEE RD, TYNDALL AFB, FL, 32403","Match","Non_Exact","515 SUWANNEE AVE, TYNDALL AFB, FL, 32403",7023309,"L"
235066,"515 SW CAMPUS DR","PORTLAND","OR",97239,NA,NA,66,"515 SW CAMPUS DR, PORTLAND, OR, 97239","No_Match",NA,NA,NA,NA
235067,"515 TAMARACK DRIVE SUITE 17","UNION CITY","CA",94587,37.6089489410001,-122.022395528,67,"515 TAMARACK DRIVE SUITE 17, UNION CITY, CA, 94587","Match","Exact","515 TAMARACK DR, UNION CITY, CA, 94587",125025590,"L"
235068,"515 TARLETON DRIVE","SUMMERVILLE","SC",29483,33.025236991,-80.263652309,68,"515 TARLETON DRIVE, SUMMERVILLE, SC, 29483","Match","Exact","515 TARLETON DR, SUMMERVILLE, SC, 29483",645292069,"L"
235069,"515 THOMPSON BLVD","CHICKASAW","AL",36611,30.7633531070001,-88.096861926,69,"515 THOMPSON BLVD, CHICKASAW, AL, 36611","Match","Exact","515 THOMPSON BLVD, CHICKASAW, AL, 36611",61849668,"L"
235070,"515 TURTLE HATCH ROAD","NAPLES","FL",34103,26.1990492080001,-81.807023024,70,"515 TURTLE HATCH ROAD, NAPLES, FL, 34103","Match","Exact","515 TURTLE HATCH RD, NAPLES, FL, 34103",115137476,"L"
235071,"515 TWIN OAKS ROAD","UNION","NJ",7083,40.687622364,-74.2538413729999,71,"515 TWIN OAKS ROAD, UNION, NJ, 7083","Match","Exact","515 TWIN OAKS RD, UNION, NJ, 07083",60573129,"R"
235072,"515 UPTON ROAD","MONTGOMERY","AL",36108,32.310309762,-86.341557901,72,"515 UPTON ROAD, MONTGOMERY, AL, 36108","Match","Exact","515 UPTON RD, MONTGOMERY, AL, 36108",1474433,"L"
235073,"515 VALLEY ST SUITE 6","MAPLEWOOD","NJ",7040,40.7340261040001,-74.269392603,73,"515 VALLEY ST SUITE 6, MAPLEWOOD, NJ, 7040","Match","Exact","515 VALLEY ST, MAPLEWOOD, NJ, 07040",63462436,"R"
235074,"515 VANDERHORST DRIVE","NASHVILLE","NE",37201,NA,NA,74,"515 VANDERHORST DRIVE, NASHVILLE, NE, 37201","No_Match",NA,NA,NA,NA
235075,"515 VEROT SCHOOL RD NUM A","LAFAYETTE","LA",70508,30.1735214490001,-92.0106510319999,75,"515 VEROT SCHOOL RD NUM A, LAFAYETTE, LA, 70508","Match","Exact","515 VEROT SCHOOL RD, LAFAYETTE, LA, 70508",85645088,"L"
235076,"515 VICTORIA STREET","JACKSONVILLE","FL",32202,30.326494901,-81.634794039,76,"515 VICTORIA STREET, JACKSONVILLE, FL, 32202","Match","Exact","515 VICTORIA ST, JACKSONVILLE, FL, 32202",83985549,"R"
235077,"515 W 14TH STREET","TRAVERSE CITY","MI",49684,44.7516568070001,-85.630456198,77,"515 W 14TH STREET, TRAVERSE CITY, MI, 49684","Match","Exact","515 W 14TH ST, TRAVERSE CITY, MI, 49684",145514399,"L"
235078,"515 W 160TH STREET APT 5","NEW YORK","NY",10032,40.834980543,-73.94123443,78,"515 W 160TH STREET APT 5, NEW YORK, NY, 10032","Match","Non_Exact","515 W 160TH ST, NEW YORK, NY, 10032",59655739,"R"
235079,"515 W 30TH ST","HAYS","KS",67601,38.8899633710001,-99.3355664279999,79,"515 W 30TH ST, HAYS, KS, 67601","Match","Exact","515 W 30TH ST, HAYS, KS, 67601",149824274,"L"
235080,"515 W 34TH STREET","WILMINGTON","DE",19802,39.7623543730001,-75.5325362579999,80,"515 W 34TH STREET, WILMINGTON, DE, 19802","Match","Exact","515 W 34TH ST, WILMINGTON, DE, 19802",187258442,"R"
235081,"515 W 52ND STREET PH3A","NEW YORK","NY",10019,40.7663146460001,-73.991761496,81,"515 W 52ND STREET PH3A, NEW YORK, NY, 10019","Match","Non_Exact","515 W 52ND ST, NEW YORK, NY, 10019",650153742,"R"
235082,"515 W 5TH STREET","DULUTH","MN",55806,46.7853325890001,-92.1100612819999,82,"515 W 5TH STREET, DULUTH, MN, 55806","Match","Exact","515 W 5TH ST, DULUTH, MN, 55806",163213593,"R"
235083,"515 W COLLEGE AVE","LOMPOC","CA",93436,34.6470950820001,-120.46223963,83,"515 W COLLEGE AVE, LOMPOC, CA, 93436","Match","Exact","515 W COLLEGE AVE, LOMPOC, CA, 93436",647316627,"L"
235084,"515 W CRAWFORD ST","NOGALES","AZ",85621,31.3352149670001,-110.946035307,84,"515 W CRAWFORD ST, NOGALES, AZ, 85621","Match","Exact","515 W CRAWFORD ST, NOGALES, AZ, 85621",120875520,"L"
235085,"515 W FIR AVE","FLAGSTAFF","AZ",86001,35.2178019850001,-111.646874736,85,"515 W FIR AVE, FLAGSTAFF, AZ, 86001","Match","Exact","515 W FIR AVE, FLAGSTAFF, AZ, 86001",648160166,"L"
235086,"515 W GARDENA BLVD UNIT 35","GARDENA","CA",90248,NA,NA,86,"515 W GARDENA BLVD UNIT 35, GARDENA, CA, 90248","Tie",NA,NA,NA,NA
235087,"515 W GIRARD AVE","PHILADELPHIA","PA",19123,39.9702997380001,-75.14579051,87,"515 W GIRARD AVE, PHILADELPHIA, PA, 19123","Match","Exact","515 W GIRARD AVE, PHILADELPHIA, PA, 19123",131422767,"R"
235088,"515 W HARRIS AVE STE 200","SAN ANGELO","TX",76903,NA,NA,88,"515 W HARRIS AVE STE 200, SAN ANGELO, TX, 76903","Tie",NA,NA,NA,NA
235089,"515 W HARRISON ST SUITE 215","KENT","WA",98032,47.382192559,-122.237773079,89,"515 W HARRISON ST SUITE 215, KENT, WA, 98032","Match","Non_Exact","515 W HARRISON ST, KENT, WA, 98032",186634599,"R"
235090,"515 W KIMBERLY AVE","KIMBERLY","WI",54136,44.272023393,-88.340241002,90,"515 W KIMBERLY AVE, KIMBERLY, WI, 54136","Match","Exact","515 W KIMBERLY AVE, KIMBERLY, WI, 54136",74888257,"L"
235091,"515 W LAWNDALE AVE","PEORIA","IL",61604,40.727103416,-89.600332946,91,"515 W LAWNDALE AVE, PEORIA, IL, 61604","Match","Exact","515 W LAWNDALE AVE, PEORIA, IL, 61604",8725841,"R"
235092,"515 W MAPLE AVENUE","FAYETTEVILLE","WV",25840,38.047482566,-81.111792798,92,"515 W MAPLE AVENUE, FAYETTEVILLE, WV, 25840","Match","Non_Exact","515 MAPLE AVE W, FAYETTEVILLE, WV, 25840",75071315,"R"
235093,"515 W MATTHEWS ST","EL RENO","OK",73036,35.5145865580001,-97.959886507,93,"515 W MATTHEWS ST, EL RENO, OK, 73036","Match","Exact","515 W MATTHEWS ST, EL RENO, OK, 73036",92521597,"L"
235094,"515 W MCCURRY STREET","PLEASANT HOPE","MO",65725,NA,NA,94,"515 W MCCURRY STREET, PLEASANT HOPE, MO, 65725","No_Match",NA,NA,NA,NA
235095,"515 W MORELAND BLVD","WAUKESHA","WI",53188,43.0234374570001,-88.228351328,95,"515 W MORELAND BLVD, WAUKESHA, WI, 53188","Match","Exact","515 W MORELAND BLVD, WAUKESHA, WI, 53188",53904509,"L"
235096,"515 W MOUNTAIN AVE","LAS CRUCES","NM",88005,32.3127407040001,-106.785240347,96,"515 W MOUNTAIN AVE, LAS CRUCES, NM, 88005","Match","Exact","515 W MOUNTAIN AVE, LAS CRUCES, NM, 88005",189543748,"L"
235097,"515 W WOODWARD AVE","HOLLY SPRINGS","MS",38635,34.7800883740001,-89.461726819,97,"515 W WOODWARD AVE, HOLLY SPRINGS, MS, 38635","Match","Exact","515 W WOODWARD AVE, HOLLY SPRINGS, MS, 38635",72830143,"L"
235098,"515 WALDEN PARK DR","FORT MILL","SC",29715,35.0075241550001,-80.959997901,98,"515 WALDEN PARK DR, FORT MILL, SC, 29715","Match","Exact","515 WALDEN PARK DR, FORT MILL, SC, 29715",640147717,"L"
235099,"515 WATERSTONE PARK CIR","HILLSBOROUGH","NC",27278,36.046776365,-79.094359998,99,"515 WATERSTONE PARK CIR, HILLSBOROUGH, NC, 27278","Match","Exact","515 WATERSTONE PARK CIR, HILLSBOROUGH, NC, 27278",649028790,"R"
235100,"515 WEST 143RD ST APT 23","NEW YORK","NY",10031,40.824299108,-73.949381264,100,"515 WEST 143RD ST APT 23, NEW YORK, NY, 10031","Match","Exact","515 W 143RD ST, NEW YORK, NY, 10031",59655946,"R"
235101,"515 WEST AVE 324","NORWALK","CT",6850,41.1118915330001,-73.4164838519999,101,"515 WEST AVE 324, NORWALK, CT, 6850","Match","Exact","515 WEST AVE, NORWALK, CT, 06850",3251117,"R"
235102,"515 WEST BURTON STREET","MURFREESBORO","TN",37130,35.849458914,-86.3947961699999,102,"515 WEST BURTON STREET, MURFREESBORO, TN, 37130","Match","Exact","515 W BURTON ST, MURFREESBORO, TN, 37130",59013886,"L"
235103,"515 WEST CENTRAL AVENUE","SOUTH WILLIAMSPORT","PA",17702,41.2296242890001,-76.999075521,103,"515 WEST CENTRAL AVENUE, SOUTH WILLIAMSPORT, PA, 17702","Match","Exact","515 W CENTRAL AVE, S WILLIAMSPORT, PA, 17702",59447910,"L"
235104,"515 WEST CHELTEN AVE APT 903","PHILADELPHIA","PA",19144,40.0279026330001,-75.182871846,104,"515 WEST CHELTEN AVE APT 903, PHILADELPHIA, PA, 19144","Match","Exact","515 W CHELTEN AVE, PHILADELPHIA, PA, 19144",131401048,"R"
235105,"515 WEST CHESTNUT ST","SHAMOKIN","PA",17872,40.7875797130001,-76.5623155339999,105,"515 WEST CHESTNUT ST, SHAMOKIN, PA, 17872","Match","Exact","515 W CHESTNUT ST, SHAMOKIN, PA, 17872",48063104,"R"
235106,"515 WEST CRAWFORD STREET","NOGALES","AZ",85621,31.3352147790001,-110.946033366,106,"515 WEST CRAWFORD STREET, NOGALES, AZ, 85621","Match","Exact","515 W CRAWFORD ST, NOGALES, AZ, 85621",120875520,"L"
235107,"515 WEST KIMBERLY AVENE","KIMBERLY","WI",54136,44.2720241010001,-88.3402384679999,107,"515 WEST KIMBERLY AVENE, KIMBERLY, WI, 54136","Match","Non_Exact","515 W KIMBERLY AVE, KIMBERLY, WI, 54136",74888257,"L"
235108,"515 WEST MAIN STREET","WATERTOWN","TN",37184,36.0988312740001,-86.140389061,108,"515 WEST MAIN STREET, WATERTOWN, TN, 37184","Match","Exact","515 W MAIN ST, WATERTOWN, TN, 37184",89692018,"L"
235109,"515 WEST MAPLE AVE","FAYETTEVILLE","WV",25840,NA,NA,109,"515 WEST MAPLE AVE, FAYETTEVILLE, WV, 25840","No_Match",NA,NA,NA,NA
235110,"515 WEST WASHINGTON AVENUE","GREENVILLE","IL",62246,38.8877997210001,-89.416431545,110,"515 WEST WASHINGTON AVENUE, GREENVILLE, IL, 62246","Match","Exact","515 W WASHINGTON AVE, GREENVILLE, IL, 62246",101037573,"L"
235111,"515 WEST WHITTIER BLVD","MONTEBELLO","CA",90640,34.009427843,-118.105199844,111,"515 WEST WHITTIER BLVD, MONTEBELLO, CA, 90640","Match","Non_Exact","515 WHITTIER BLVD, MONTEBELLO, CA, 90640",141642350,"L"
235112,"515 WESTBURY AVE","CARLE PLACE","NY",11514,40.7511564850001,-73.605017488,112,"515 WESTBURY AVE, CARLE PLACE, NY, 11514","Match","Exact","515 WESTBURY AVE, CARLE PLACE, NY, 11514",147626900,"L"
235113,"515 WHITE STREET","CANTON","MO",63435,40.134043623,-91.520662922,113,"515 WHITE STREET, CANTON, MO, 63435","Match","Exact","515 WHITE ST, CANTON, MO, 63435",13076884,"L"
235114,"515 WILLIAMS STREET","SOUTH HAVEN","MI",49090,42.404884349,-86.273475687,114,"515 WILLIAMS STREET, SOUTH HAVEN, MI, 49090","Match","Exact","515 WILLIAMS ST, SOUTH HAVEN, MI, 49090",34747425,"L"
235115,"515 WILSON ST","MANCHESTER","NH",3103,42.9901227400001,-71.44820333,115,"515 WILSON ST, MANCHESTER, NH, 3103","Match","Exact","515 WILSON ST, MANCHESTER, NH, 03103",647334219,"R"
235116,"515 WOODLAND DRIVE","SANDPOINT","ID",83864,48.311970794,-116.567812318,116,"515 WOODLAND DRIVE, SANDPOINT, ID, 83864","Match","Exact","515 WOODLAND DR, SANDPOINT, ID, 83864",169505346,"R"
235117,"515 WOODLAWN DRIVE","PELLA","IA",50219,41.4162807910001,-92.91237689,117,"515 WOODLAWN DRIVE, PELLA, IA, 50219","Match","Exact","515 WOODLAWN DR, PELLA, IA, 50219",89488345,"L"
235118,"515-A  H STREET NE","WASHINGTON","DC",20002,38.9002003950001,-76.9992925459999,118,"515-A  H STREET NE, WASHINGTON, DC, 20002","Match","Exact","515 H ST NE, WASHINGTON, DC, 20002",76229740,"R"
235119,"515","JANESVILLE","WI",53545,NA,NA,119,"515, JANESVILLE, WI, 53545","No_Match",NA,NA,NA,NA
235120,"5150 69TH STREET","SAN DIEGO","CA",92115,32.7718031470001,-117.049212027,120,"5150 69TH STREET, SAN DIEGO, CA, 92115","Match","Exact","5150 69TH ST, SAN DIEGO, CA, 92115",195698458,"L"
235121,"5150 BIGNER RD","BEAUMONT","TX",77708,30.128050998,-94.13435371,121,"5150 BIGNER RD, BEAUMONT, TX, 77708","Match","Exact","5150 BIGNER RD, BEAUMONT, TX, 77708",73850175,"R"
235122,"5150 BOGGY CREEK LOT L11","SAINT CLOUD","FL",34771,28.3481233110001,-81.236728851,122,"5150 BOGGY CREEK LOT L11, SAINT CLOUD, FL, 34771","Match","Non_Exact","5150 BOGGY CREEK RD, SAINT CLOUD, FL, 34771",640871513,"L"
235123,"5150 BOGGY CREEK RD LOT P19","SAINT CLOUD","FL",34771,28.3481233110001,-81.236728851,123,"5150 BOGGY CREEK RD LOT P19, SAINT CLOUD, FL, 34771","Match","Exact","5150 BOGGY CREEK RD, SAINT CLOUD, FL, 34771",640871513,"L"
235124,"5150 BROADWAY 212","SAN ANTONIO","TX",78209,29.474280359,-98.462764969,124,"5150 BROADWAY 212, SAN ANTONIO, TX, 78209","Match","Exact","5150 BROADWAY, SAN ANTONIO, TX, 78209",101540581,"L"
235125,"5150 BROADWAY ST STE 251","SAN ANTONIO","TX",78209,29.474280359,-98.462764969,125,"5150 BROADWAY ST STE 251, SAN ANTONIO, TX, 78209","Match","Non_Exact","5150 BROADWAY, SAN ANTONIO, TX, 78209",101540581,"L"
235126,"5150 BROADWAY ST STE 490","SAN ANTONIO","TX",78209,29.474280359,-98.462764969,126,"5150 BROADWAY ST STE 490, SAN ANTONIO, TX, 78209","Match","Non_Exact","5150 BROADWAY, SAN ANTONIO, TX, 78209",101540581,"L"
235127,"5150 BUFORD HIGHWAY SUITE A 190B","ATLANTA","GA",30340,33.891138024,-84.2852148389999,127,"5150 BUFORD HIGHWAY SUITE A 190B, ATLANTA, GA, 30340","Match","Non_Exact","5150 BUFORD HWY NE, ATLANTA, GA, 30340",23359273,"L"
235128,"5150 CANDLEWOOD STREET","LAKEWOOD","CA",90712,33.8536509750001,-118.133055598,128,"5150 CANDLEWOOD STREET, LAKEWOOD, CA, 90712","Match","Exact","5150 CANDLEWOOD ST, LAKEWOOD, CA, 90712",141699735,"R"
235129,"5150 CYPRESS ST","PITTSBURGH","PA",15224,40.456663157,-79.943227784,129,"5150 CYPRESS ST, PITTSBURGH, PA, 15224","Match","Exact","5150 CYPRESS ST, PITTSBURGH, PA, 15224",51644482,"R"
235130,"5150 DE ZAVALA RD","SAN ANTONIO","TX",78249,29.565143017,-98.585373195,130,"5150 DE ZAVALA RD, SAN ANTONIO, TX, 78249","Match","Exact","5150 DE ZAVALA RD, SAN ANTONIO, TX, 78249",650069532,"R"
235131,"5150 E CANDLEWOOD ST 9C","LAKEWOOD","CA",90712,33.853650939,-118.133043395,131,"5150 E CANDLEWOOD ST 9C, LAKEWOOD, CA, 90712","Match","Exact","5150 CANDLEWOOD ST, LAKEWOOD, CA, 90712",141699735,"R"
235132,"5150 E LA PALMA AVE","ANAHEIM","CA",92807,33.8598289130001,-117.79657489,132,"5150 E LA PALMA AVE, ANAHEIM, CA, 92807","Match","Exact","5150 E LA PALMA AVE, ANAHEIM, CA, 92807",631759502,"R"
235133,"5150 E PACIFIC COAST HWY STE 200","LONG BEACH","CA",90804,33.783210608,-118.13334114,133,"5150 E PACIFIC COAST HWY STE 200, LONG BEACH, CA, 90804","Match","Non_Exact","5150 E PACIFIC COAST HWY, LONG BEACH, CA, 90804",141702198,"R"
235134,"5150 E PACIFIC COAST HWY SUITE 605","LONG BEACH","CA",90804,33.783210608,-118.13334114,134,"5150 E PACIFIC COAST HWY SUITE 605, LONG BEACH, CA, 90804","Match","Non_Exact","5150 E PACIFIC COAST HWY, LONG BEACH, CA, 90804",141702198,"R"
235135,"5150 EAST 5TH STREET","TUCSON","AZ",85711,32.228937108,-110.882908919,135,"5150 EAST 5TH STREET, TUCSON, AZ, 85711","Match","Exact","5150 E 5TH ST, TUCSON, AZ, 85711",121180174,"R"
235136,"5150 EPACIFICCOASTHWYSUITE200PMB872","LONG BEACH","CA",90804,NA,NA,136,"5150 EPACIFICCOASTHWYSUITE200PMB872, LONG BEACH, CA, 90804","No_Match",NA,NA,NA,NA
235137,"5150 FAIR OAKS BLVD 101-312","CARMICHAEL","CA",95608,38.596678851,-121.344669794,137,"5150 FAIR OAKS BLVD 101-312, CARMICHAEL, CA, 95608","Match","Exact","5150 FAIR OAKS BLVD, CARMICHAEL, CA, 95608",133347257,"R"
235138,"5150 FRUITLAND ROAD","MARYSVILLE","CA",95901,39.31130087,-121.415816741,138,"5150 FRUITLAND ROAD, MARYSVILLE, CA, 95901","Match","Exact","5150 FRUITLAND RD, MARYSVILLE, CA, 95901",611586188,"L"
235139,"5150 GOOD MEMORY LN","ELLICOTT CITY","MD",21043,39.2336581600001,-76.7844824009999,139,"5150 GOOD MEMORY LN, ELLICOTT CITY, MD, 21043","Match","Exact","5150 GOOD MEMORY LN, ELLICOTT CITY, MD, 21043",646637090,"R"
235140,"5150 JEFFERSON DAVIS HWY","FREDERICKSBURG","VA",22408,38.2562432930001,-77.4973714829999,140,"5150 JEFFERSON DAVIS HWY, FREDERICKSBURG, VA, 22408","Match","Exact","5150 JEFFERSON DAVIS HWY, FREDERICKSBURG, VA, 22408",228794843,"R"
235141,"5150 KEARNY MESA ROAD","SAN DIEGO","CA",92111,32.829546796,-117.142981932,141,"5150 KEARNY MESA ROAD, SAN DIEGO, CA, 92111","Match","Exact","5150 KEARNY MESA RD, SAN DIEGO, CA, 92111",195698427,"L"
235142,"5150 KIDDVILLE LANE","LEXINGTON","KY",40515,37.9026172960001,-84.415864733,142,"5150 KIDDVILLE LANE, LEXINGTON, KY, 40515","Match","Exact","5150 KIDDVILLE LN, LEXINGTON, KY, 40515",31940859,"R"
235143,"5150 LILBURN STONE MTN RD","LILBURN","GA",30047,33.8638006900001,-84.1348364309999,143,"5150 LILBURN STONE MTN RD, LILBURN, GA, 30047","Match","Non_Exact","5150 LILBURN STONE MTN RD SW, LILBURN, GA, 30047",88887001,"L"
235144,"5150 LONGBROOK ROAD","LORAIN","OH",44053,41.4256168420001,-82.2331628599999,144,"5150 LONGBROOK ROAD, LORAIN, OH, 44053","Match","Exact","5150 LONGBROOK RD, LORAIN, OH, 44053",55428514,"R"
235145,"5150 MAE ANNE AVE STE 405 PMB 1045","RENO","NV",89523,NA,NA,145,"5150 MAE ANNE AVE STE 405 PMB 1045, RENO, NV, 89523","No_Match",NA,NA,NA,NA
235146,"5150 MAE ANNE AVE STE 405 PMB 1055","RENO","NV",89523,NA,NA,146,"5150 MAE ANNE AVE STE 405 PMB 1055, RENO, NV, 89523","No_Match",NA,NA,NA,NA
235147,"5150 MAE ANNE AVE STE 405 PMB 1099","RENO","NV",89523,NA,NA,147,"5150 MAE ANNE AVE STE 405 PMB 1099, RENO, NV, 89523","No_Match",NA,NA,NA,NA
235148,"5150 MAE ANNE AVENUE STE 405","RENO","NV",89523,NA,NA,148,"5150 MAE ANNE AVENUE STE 405, RENO, NV, 89523","No_Match",NA,NA,NA,NA
235149,"5150 MAGNOLIA PRESERVE BLVD","WINTER HAVEN","FL",33880,NA,NA,149,"5150 MAGNOLIA PRESERVE BLVD, WINTER HAVEN, FL, 33880","Tie",NA,NA,NA,NA
235150,"5150 N 16TH STREET SUITE A 126","PHOENIX","AZ",85016,33.511981986,-112.047525262,150,"5150 N 16TH STREET SUITE A 126, PHOENIX, AZ, 85016","Match","Non_Exact","5150 N 16TH ST, PHOENIX, AZ, 85016",128209304,"L"
235151,"5150 N 6TH STREET  SUITE 149","FRESNO","CA",93710,36.8112462280001,-119.763230933,151,"5150 N 6TH STREET  SUITE 149, FRESNO, CA, 93710","Match","Non_Exact","5150 N 6TH ST, FRESNO, CA, 93710",197575403,"R"
235152,"5150 N 90TH ST","OMAHA","NE",68134,41.3048719920001,-96.052625292,152,"5150 N 90TH ST, OMAHA, NE, 68134","Match","Exact","5150 N 90TH ST, OMAHA, NE, 68134",116969167,"L"
235153,"5150 N POST ROAD","LAWRENCE","IN",46226,39.8496551550001,-86.010286308,153,"5150 N POST ROAD, LAWRENCE, IN, 46226","Match","Exact","5150 N POST RD, LAWRENCE, IN, 46226",108053549,"L"
235154,"5150 N VALLEY VIEW ROAD","TUCSON","AZ",85718,32.2999837570001,-110.898655922,154,"5150 N VALLEY VIEW ROAD, TUCSON, AZ, 85718","Match","Exact","5150 N VALLEY VIEW RD, TUCSON, AZ, 85718",121195232,"R"
235155,"5150 NEW ROAD EXT","HOLLYWOOD","SC",29449,32.7261973760001,-80.2844942839999,155,"5150 NEW ROAD EXT, HOLLYWOOD, SC, 29449","Match","Non_Exact","5150 NEW RD EXD, HOLLYWOOD, SC, 29449",108879379,"R"
235156,"5150 NORTH MAPLE JA 57","FRESNO","CA",93740,NA,NA,156,"5150 NORTH MAPLE JA 57, FRESNO, CA, 93740","No_Match",NA,NA,NA,NA
235157,"5150 NW MILNER DRIVE","PORT ST LUCIE","FL",34983,27.3728022490001,-80.3789145549999,157,"5150 NW MILNER DRIVE, PORT ST LUCIE, FL, 34983","Match","Exact","5150 NW MILNER DR, PORT ST LUCIE, FL, 34983",610728606,"R"
235158,"5150 ORCHARD AVE","BETHEL PARK","PA",15102,40.3329852890001,-80.0353767289999,158,"5150 ORCHARD AVE, BETHEL PARK, PA, 15102","Match","Exact","5150 ORCHARD AVE, BETHEL PARK, PA, 15102",51657260,"R"
235159,"5150 PARK LAKE DRIVE","MIDLAND","VA",22728,38.624721134,-77.716002702,159,"5150 PARK LAKE DRIVE, MIDLAND, VA, 22728","Match","Exact","5150 PARK LAKE DR, MIDLAND, VA, 22728",146298466,"R"
235160,"5150 S ELK STREET","AURORA","CO",80016,39.623234558,-104.705619392,160,"5150 S ELK STREET, AURORA, CO, 80016","Match","Exact","5150 S ELK ST, AURORA, CO, 80016",633260796,"R"
235161,"5150 SCHOOL RD","NEW MILFORD","PA",18834,NA,NA,161,"5150 SCHOOL RD, NEW MILFORD, PA, 18834","No_Match",NA,NA,NA,NA
235162,"5150 SHADOW CREEK ROAD","OAK FOREST","IL",60452,41.5998175240001,-87.7445498179999,162,"5150 SHADOW CREEK ROAD, OAK FOREST, IL, 60452","Match","Non_Exact","5150 SHADOW CREEK DR, OAK FOREST, IL, 60452",641664684,"R"
235163,"5150 SILESBORO  ROAD  SUITE 530","KENNESAW","GA",30152,NA,NA,163,"5150 SILESBORO  ROAD  SUITE 530, KENNESAW, GA, 30152","No_Match",NA,NA,NA,NA
235164,"5150 STILESBORO ROAD NW SUITE 340","KENNESAW","GA",30152,33.9964582380001,-84.702741625,164,"5150 STILESBORO ROAD NW SUITE 340, KENNESAW, GA, 30152","Match","Exact","5150 STILESBORO RD NW, KENNESAW, GA, 30152",652442989,"R"
235165,"5150 SUNRISE BLVD  SUITE E4","FAIR OAKS","CA",95628,38.6597403850001,-121.272264336,165,"5150 SUNRISE BLVD  SUITE E4, FAIR OAKS, CA, 95628","Match","Exact","5150 SUNRISE BLVD, FAIR OAKS, CA, 95628",133410644,"R"
235166,"5150 TAMIAMI TRAIL N SUITE 302","NAPLES","FM",34103,NA,NA,166,"5150 TAMIAMI TRAIL N SUITE 302, NAPLES, FM, 34103","No_Match",NA,NA,NA,NA
235167,"5150 THREE VILLAGE DR APT PHB-L","LYNDHURST","OH",44124,41.504974024,-81.4952508379999,167,"5150 THREE VILLAGE DR APT PHB-L, LYNDHURST, OH, 44124","Match","Exact","5150 THREE VILLAGE DR, LYNDHURST, OH, 44124",61181322,"R"
235168,"5150 WESTERN AVE","MORGANTON","NC",28655,NA,NA,168,"5150 WESTERN AVE, MORGANTON, NC, 28655","No_Match",NA,NA,NA,NA
235169,"5150 WHISPERING SANDS DR","LAS VEGAS","NV",89131,36.3020294930001,-115.213348737,169,"5150 WHISPERING SANDS DR, LAS VEGAS, NV, 89131","Match","Exact","5150 WHISPERING SANDS DR, LAS VEGAS, NV, 89131",201999236,"R"
235170,"5150 WINDERMERE AVENUE","LOS ANGELES","CA",90041,34.1407089570001,-118.217204891,170,"5150 WINDERMERE AVENUE, LOS ANGELES, CA, 90041","Match","Exact","5150 WINDERMERE AVE, LOS ANGELES, CA, 90041",141613204,"R"
235171,"5150 WINLANE DRIVE","BLOOMFIELD HILLS","MI",48302,42.563232821,-83.272107057,171,"5150 WINLANE DRIVE, BLOOMFIELD HILLS, MI, 48302","Match","Exact","5150 WINLANE DR, BLOOMFIELD HILLS, MI, 48302",69776968,"R"
235172,"5150 YORK CT","CAPE CORAL","FL",33904,26.555027802,-81.956694956,172,"5150 YORK CT, CAPE CORAL, FL, 33904","Match","Exact","5150 YORK CT, CAPE CORAL, FL, 33904",118015849,"R"
235173,"51501 W TONTO","TONOPAH","AZ",85354,33.4374499630001,-113.162147784,173,"51501 W TONTO, TONOPAH, AZ, 85354","Match","Non_Exact","51501 W TONTO ST, TONOPAH, AZ, 85354",243935227,"R"
235174,"51505 TIMBERLINE TRACE W","GRANGER","IN",46530,41.7457811350001,-86.110089046,174,"51505 TIMBERLINE TRACE W, GRANGER, IN, 46530","Match","Exact","51505 TIMBERLINE TRCE W, GRANGER, IN, 46530",8064252,"R"
235175,"5151 5TH AVE","LOS ANGELES","CA",90043,33.9959347560001,-118.32251476,175,"5151 5TH AVE, LOS ANGELES, CA, 90043","Match","Exact","5151 5TH AVE, LOS ANGELES, CA, 90043",141606388,"R"
235176,"5151 ALGERINE PLACE","WESLEY CHAPEL","FL",33544,28.233103237,-82.3971884549999,176,"5151 ALGERINE PLACE, WESLEY CHAPEL, FL, 33544","Match","Exact","5151 ALGERINE PL, WESLEY CHAPEL, FL, 33544",635360791,"L"
235177,"5151 AMBER VALLEY PKWY S -10","FARGO","ND",58104,46.842058013,-96.874924073,177,"5151 AMBER VALLEY PKWY S -10, FARGO, ND, 58104","Match","Exact","5151 AMBER VALLEY PKWY S, FARGO, ND, 58104",151467339,"R"
235178,"5151 ARDEN WAY APT 28","CARMICHAEL","CA",95608,38.595363811,-121.344452892,178,"5151 ARDEN WAY APT 28, CARMICHAEL, CA, 95608","Match","Exact","5151 ARDEN WAY, CARMICHAEL, CA, 95608",133383310,"L"
235179,"5151 BECKTON RD","AVE MARIA","FL",34142,26.323853597,-81.436980798,179,"5151 BECKTON RD, AVE MARIA, FL, 34142","Match","Exact","5151 BECKTON RD, AVE MARIA, FL, 34142",649937243,"L"
235180,"5151 BENT TREE FOREST DR UNIT 162","DALLAS","TX",75248,32.9650839650001,-96.8200284979999,180,"5151 BENT TREE FOREST DR UNIT 162, DALLAS, TX, 75248","Match","Exact","5151 BENT TREE FOREST DR, DALLAS, TX, 75248",103184008,"L"
235181,"5151 BONASA DR NE","ROCKFORD","MI",49341,43.1719847950001,-85.5425514249999,181,"5151 BONASA DR NE, ROCKFORD, MI, 49341","Match","Non_Exact","5151 BONASA DR, ROCKFORD, MI, 49341",12492799,"L"
235182,"5151 CALIFORNIA AVE - STE 100","IRVINE","CA",62617,NA,NA,182,"5151 CALIFORNIA AVE - STE 100, IRVINE, CA, 62617","No_Match",NA,NA,NA,NA
235183,"5151 CALIFORNIA AVE SUITE 100","IRVINE","CA",92617,NA,NA,183,"5151 CALIFORNIA AVE SUITE 100, IRVINE, CA, 92617","No_Match",NA,NA,NA,NA
235184,"5151 EAST BROADWAY AVE","Tucson","AZ",85711,32.221682178,-110.882652256,184,"5151 EAST BROADWAY AVE, Tucson, AZ, 85711","Match","Non_Exact","5151 E BROADWAY BLVD, TUCSON, AZ, 85711",121180242,"L"
235185,"5151 EDLOE STREET APT 10407","HOUSTON","TX",77005,29.7274260560001,-95.433436805,185,"5151 EDLOE STREET APT 10407, HOUSTON, TX, 77005","Match","Exact","5151 EDLOE ST, HOUSTON, TX, 77005",638592869,"L"
235186,"5151 EDLOE STREET APT 5303","HOUSTON","TX",77005,29.7274260560001,-95.433436805,186,"5151 EDLOE STREET APT 5303, HOUSTON, TX, 77005","Match","Exact","5151 EDLOE ST, HOUSTON, TX, 77005",638592869,"L"
235187,"5151 EMERSON AVE","PALATINE","IL",60067,42.084987412,-88.0505527189999,187,"5151 EMERSON AVE, PALATINE, IL, 60067","Match","Exact","5151 EMERSON AVE, PALATINE, IL, 60067",111885490,"R"
235188,"5151 MATTIS RD","ST LOUIS","MO",63128,38.5079165830001,-90.37103221,188,"5151 MATTIS RD, ST LOUIS, MO, 63128","Match","Exact","5151 MATTIS RD, SAINT LOUIS, MO, 63128",100139902,"R"
235189,"5151 MATTIS ROAD","ST. LOUIS","MO",63128,38.5079165830001,-90.37103221,189,"5151 MATTIS ROAD, ST. LOUIS, MO, 63128","Match","Exact","5151 MATTIS RD, SAINT LOUIS, MO, 63128",100139902,"R"
235190,"5151 MILLER WOODS DRIVE","DECATUR","GA",30035,33.718041617,-84.180346352,190,"5151 MILLER WOODS DRIVE, DECATUR, GA, 30035","Match","Exact","5151 MILLER WOODS DR, DECATUR, GA, 30035",619386988,"R"
235191,"5151 MURPHY CANYON RD STE 200","SAN DIEGO","CA",92123,32.8313099970001,-117.120434326,191,"5151 MURPHY CANYON RD STE 200, SAN DIEGO, CA, 92123","Match","Exact","5151 MURPHY CANYON RD, SAN DIEGO, CA, 92123",637240719,"R"
235192,"5151 N 93RD STREET","OMAHA","NE",68134,41.3062243160001,-96.057407235,192,"5151 N 93RD STREET, OMAHA, NE, 68134","Match","Exact","5151 N 93RD ST, OMAHA, NE, 68134",116969152,"R"
235193,"5151 N COLONY BLVD","THE COLONY","TX",75056,33.099595741,-96.8779547359999,193,"5151 N COLONY BLVD, THE COLONY, TX, 75056","Match","Exact","5151 N COLONY BLVD, THE COLONY, TX, 75056",103429819,"L"
235194,"5151 OHIO DR","FRISCO","TX",75035,NA,NA,194,"5151 OHIO DR, FRISCO, TX, 75035","No_Match",NA,NA,NA,NA
235195,"5151 OHIO DRIVE","FRISCO","TX",75035,NA,NA,195,"5151 OHIO DRIVE, FRISCO, TX, 75035","No_Match",NA,NA,NA,NA
235196,"5151 REED RD SUITE 126-C","COLUMBUS","OH",43220,40.063579116,-83.0665597839999,196,"5151 REED RD SUITE 126-C, COLUMBUS, OH, 43220","Match","Exact","5151 REED RD, COLUMBUS, OH, 43220",135600520,"L"
235197,"5151 S HOWELL AVE SUITE H","MILWAUKEE","WI",53207,42.951042654,-87.909706554,197,"5151 S HOWELL AVE SUITE H, MILWAUKEE, WI, 53207","Match","Non_Exact","5151 S HOWELL AVE, MILWAUKEE, WI, 53207",77754910,"R"
235198,"5151 SHOREHAM PLACE STE 265","SAN DIEGO","CA",92122,32.8535275830001,-117.185371776,198,"5151 SHOREHAM PLACE STE 265, SAN DIEGO, CA, 92122","Match","Exact","5151 SHOREHAM PL, SAN DIEGO, CA, 92122",195304562,"R"
235199,"5151 STATE UNIVERSITY DRIVE","LOS ANGELES","CA",90032,NA,NA,199,"5151 STATE UNIVERSITY DRIVE, LOS ANGELES, CA, 90032","No_Match",NA,NA,NA,NA
235200,"5151 THOMPSON RD UNIT 1122","FAIRBURN","GA",30213,33.615255754,-84.606173241,200,"5151 THOMPSON RD UNIT 1122, FAIRBURN, GA, 30213","Match","Exact","5151 THOMPSON RD, FAIRBURN, GA, 30213",643359907,"R"
235201,"5151 THOMPSON ROAD UNIT 1122","FAIRBURN","GA",30213,33.615255754,-84.606173241,201,"5151 THOMPSON ROAD UNIT 1122, FAIRBURN, GA, 30213","Match","Exact","5151 THOMPSON RD, FAIRBURN, GA, 30213",643359907,"R"
235202,"5151 W CHICAGO BLVD","DETROIT","MI",48204,42.36794696,-83.131690324,202,"5151 W CHICAGO BLVD, DETROIT, MI, 48204","Match","Non_Exact","5151 W CHICAGO ST, DETROIT, MI, 48204",95470644,"L"
235203,"5151 W LAMBERT LANE","TUCSON","AZ",85742,32.3954566510001,-111.074731794,203,"5151 W LAMBERT LANE, TUCSON, AZ, 85742","Match","Exact","5151 W LAMBERT LN, TUCSON, AZ, 85742",121402429,"L"
235204,"5151 W MADISON STREET","CHICAGO","IL",60644,41.880379206,-87.7541537119999,204,"5151 W MADISON STREET, CHICAGO, IL, 60644","Match","Exact","5151 W MADISON ST, CHICAGO, IL, 60644",111765658,"L"
235205,"5151 WEST CONCORD PLACE","CHICAGO","IL",60639,41.910433573,-87.7543132709999,205,"5151 WEST CONCORD PLACE, CHICAGO, IL, 60639","Match","Exact","5151 W CONCORD PL, CHICAGO, IL, 60639",605047180,"L"
235206,"5151 WHETSTONE ROAD","N CHESTERFIELD","VA",23234,37.4510403510001,-77.460197057,206,"5151 WHETSTONE ROAD, N CHESTERFIELD, VA, 23234","Match","Exact","5151 WHETSTONE RD, NORTH CHESTERFIELD, VA, 23234",639277162,"L"
235207,"5151 WILDAIR DR","NEW ORLEANS","LA",70122,30.0104573690001,-90.066923802,207,"5151 WILDAIR DR, NEW ORLEANS, LA, 70122","Match","Exact","5151 WILDAIR DR, NEW ORLEANS, LA, 70122",191735117,"R"
235208,"5151 WINCHESTER RD","MEMPHIS","TN",38118,35.05069065,-89.892401729,208,"5151 WINCHESTER RD, MEMPHIS, TN, 38118","Match","Exact","5151 WINCHESTER RD, MEMPHIS, TN, 38118",72928013,"R"
235209,"5152 ARQUILLA DRIVE","RICHTON PARK","IL",60471,41.4787430850001,-87.743856253,209,"5152 ARQUILLA DRIVE, RICHTON PARK, IL, 60471","Match","Exact","5152 ARQUILLA DR, RICHTON PARK, IL, 60471",112382593,"L"
235210,"5152 COMMERCE RD","FLINT","MI",48507,42.9712459460001,-83.778023931,210,"5152 COMMERCE RD, FLINT, MI, 48507","Match","Exact","5152 COMMERCE RD, FLINT, MI, 48507",69572780,"R"
235211,"5152 CR 1297","TYLER","TX",75704,32.38697553,-95.388965366,211,"5152 CR 1297, TYLER, TX, 75704","Match","Exact","5152 CO RD 1297, TYLER, TX, 75704",141285881,"R"
235212,"5152 EAST CHERYL PARKWAY - UNIT 101","FITCHBURG","WI",53711,43.0071916470001,-89.39526806,212,"5152 EAST CHERYL PARKWAY - UNIT 101, FITCHBURG, WI, 53711","Match","Exact","5152 E CHERYL PKWY, FITCHBURG, WI, 53711",648092503,"L"
235213,"5152 GRAYSON RIDGE DR","FORT WORTH","TX",76179,32.837747544,-97.3839453319999,213,"5152 GRAYSON RIDGE DR, FORT WORTH, TX, 76179","Match","Exact","5152 GRAYSON RIDGE DR, FORT WORTH, TX, 76179",652030942,"R"
235214,"5152 N EDGEWOOD DR SUITE 375","PROVO","UT",84604,40.301804539,-111.657622092,214,"5152 N EDGEWOOD DR SUITE 375, PROVO, UT, 84604","Match","Exact","5152 EDGEWOOD DR, PROVO, UT, 84604",618477342,"R"
235215,"5152 TYLER HENRY DRIVE","CANAL WINCHESTER","OH",43110,39.876093854,-82.8081196379999,215,"5152 TYLER HENRY DRIVE, CANAL WINCHESTER, OH, 43110","Match","Exact","5152 TYLER HENRY DR, CANAL WINCHESTER, OH, 43110",653481754,"L"
235216,"5152 WHITSELL WAY","PONTOON BEACH","IL",62040,38.7500528940001,-90.07774151,216,"5152 WHITSELL WAY, PONTOON BEACH, IL, 62040","Match","Exact","5152 WHITSELL WAY, PONTOON BEACH, IL, 62040",635635737,"L"
235217,"5153 ELLSWORTH AVE","NELLIS AFB","NV",89191,36.2414912880001,-115.043000427,217,"5153 ELLSWORTH AVE, NELLIS AFB, NV, 89191","Match","Exact","5153 ELLSWORTH AVE, NELLIS AFB, NV, 89191",201960433,"L"
235218,"5153 GRISWOLD STREET","MIDDLEPORT","NY",14105,43.16580442,-78.494451581,218,"5153 GRISWOLD STREET, MIDDLEPORT, NY, 14105","Match","Exact","5153 GRISWOLD ST, MIDDLEPORT, NY, 14105",48683189,"R"
235219,"5153 MADISON AVENUE","SACRAMENTO","CA",95841,38.6608381250001,-121.346241697,219,"5153 MADISON AVENUE, SACRAMENTO, CA, 95841","Match","Exact","5153 MADISON AVE, SACRAMENTO, CA, 95841",133332819,"L"
235220,"5153 N 9TH AVENUE SUITE 205","PENSACOLA","FL",32503,NA,NA,220,"5153 N 9TH AVENUE SUITE 205, PENSACOLA, FL, 32503","No_Match",NA,NA,NA,NA
235221,"5153 OLD ASHWOOD DRIVE","SARASOTA","FL",34233,27.275105877,-82.466244444,221,"5153 OLD ASHWOOD DRIVE, SARASOTA, FL, 34233","Match","Exact","5153 OLD ASHWOOD DR, SARASOTA, FL, 34233",16383443,"L"
235222,"51539 VAN DYKE AVENUE","SHELBY TOWNSHIP","MI",48316,42.6731381320001,-83.034013161,222,"51539 VAN DYKE AVENUE, SHELBY TOWNSHIP, MI, 48316","Match","Exact","51539 VAN DYKE AVE, SHELBY TOWNSHIP, MI, 48316",110723673,"L"
235223,"5154 CLARK ST UNIT 226","CHICAGO","IL",60640,41.975775055,-87.66837904,223,"5154 CLARK ST UNIT 226, CHICAGO, IL, 60640","Match","Non_Exact","5154 N CLARK ST, CHICAGO, IL, 60640",111761249,"L"
235224,"5154 FLAXTON DR APT G3","SAGINAW","MI",48603,43.4586196380001,-84.017306794,224,"5154 FLAXTON DR APT G3, SAGINAW, MI, 48603","Match","Exact","5154 FLAXTON DR, SAGINAW, MI, 48603",80208456,"R"
235225,"5154 KYLOCK ROAD","MECHANICSBURG","PA",17055,40.198500218,-76.960382276,225,"5154 KYLOCK ROAD, MECHANICSBURG, PA, 17055","Match","Exact","5154 KYLOCK RD, MECHANICSBURG, PA, 17055",221286811,"L"
235226,"5154 OVERLOOK LN","CANANDAIGUA","NY",14424,42.889399381,-77.3100095299999,226,"5154 OVERLOOK LN, CANANDAIGUA, NY, 14424","Match","Exact","5154 OVERLOOK LN, CANANDAIGUA, NY, 14424",627027832,"L"
235227,"5154 STAGE RD SUITE 101","BARTLETT","TN",38134,35.206837509,-89.8921857509999,227,"5154 STAGE RD SUITE 101, BARTLETT, TN, 38134","Match","Exact","5154 STAGE RD, BARTLETT, TN, 38134",607402234,"L"
235228,"5154 US HWY 220 BUS S","ASHEBORO","NC",27205,35.6299292300001,-79.8259025359999,228,"5154 US HWY 220 BUS S, ASHEBORO, NC, 27205","Match","Exact","5154 US HWY 220 BUS S, ASHEBORO, NC, 27205",20407377,"L"
235229,"5154 W PATRICK LN STE 110","LAS VEGAS","NV",89118,36.0788597260001,-115.211565194,229,"5154 W PATRICK LN STE 110, LAS VEGAS, NV, 89118","Match","Non_Exact","5154 W PATRICK LN, LAS VEGAS, NV, 89118",202004229,"R"
235230,"51545 SHENANDOAH ROAD","PLEASANT CITY","OH",43772,39.847131738,-81.529795813,230,"51545 SHENANDOAH ROAD, PLEASANT CITY, OH, 43772","Match","Exact","51545 SHENANDOAH RD, PLEASANT CITY, OH, 43772",38031272,"L"
235231,"5155 37TH STREET N","ARLINGTON","VA",22207,38.9116416900001,-77.1467277199999,231,"5155 37TH STREET N, ARLINGTON, VA, 22207","Match","Exact","5155 37TH ST N, ARLINGTON, VA, 22207",76466622,"R"
235232,"5155 BORDEAUX AVE","IRVINE","CA",92604,33.6866273300001,-117.779401971,232,"5155 BORDEAUX AVE, IRVINE, CA, 92604","Match","Exact","5155 BORDEAUX AVE, IRVINE, CA, 92604",651238598,"L"
235233,"5155 CRYSTAL CREEK DR","ROANOKE","VA",24018,37.208724348,-80.020595247,233,"5155 CRYSTAL CREEK DR, ROANOKE, VA, 24018","Match","Exact","5155 CRYSTAL CREEK DR, ROANOKE, VA, 24018",62923292,"L"
235234,"5155 DONALD DR","LOGANVILLE","GA",30052,33.8233139370001,-83.930986988,234,"5155 DONALD DR, LOGANVILLE, GA, 30052","Match","Exact","5155 DONALD DR, LOGANVILLE, GA, 30052",649919477,"L"
235235,"5155 EAST EAGLE DRIVE - 21045","MESA","AZ",85277,33.458558216,-111.720669813,235,"5155 EAST EAGLE DRIVE - 21045, MESA, AZ, 85277","Match","Non_Exact","5155 E EAGLE DR, MESA, AZ, 85215",640589556,"R"
235236,"5155 FOXHALL DR N","WEST PALM BEACH","FL",33147,26.744247806,-80.120974164,236,"5155 FOXHALL DR N, WEST PALM BEACH, FL, 33147","Match","Non_Exact","5155 FOXHALL DR N, WEST PALM BEACH, FL, 33417",115351074,"L"
235237,"5155 HARVEST RD","COLORADO SPRINGS","CO",80917,38.905723934,-104.731725699,237,"5155 HARVEST RD, COLORADO SPRINGS, CO, 80917","Match","Exact","5155 HARVEST RD, COLORADO SPRINGS, CO, 80917",105521480,"L"
235238,"5155 HIGHLAND LAKE DR","ATLANTA","GA",30349,33.6414270920001,-84.557597067,238,"5155 HIGHLAND LAKE DR, ATLANTA, GA, 30349","Match","Exact","5155 HIGHLAND LAKE DR, ATLANTA, GA, 30349",627635584,"R"
235239,"5155 JACKSON AVENUE","BATON ROUGE","LA",70806,30.4669962830001,-91.137683604,239,"5155 JACKSON AVENUE, BATON ROUGE, LA, 70806","Match","Exact","5155 JACKSON AVE, BATON ROUGE, LA, 70806",92181776,"L"
235240,"5155 KEELE ST APT 14B","JACKSON","MS",39206,32.367982667,-90.152843054,240,"5155 KEELE ST APT 14B, JACKSON, MS, 39206","Match","Exact","5155 KEELE ST, JACKSON, MS, 39206",611216467,"R"
235241,"5155 KEELE ST APT 26F","JACKSON","MS",39206,32.367982667,-90.152843054,241,"5155 KEELE ST APT 26F, JACKSON, MS, 39206","Match","Exact","5155 KEELE ST, JACKSON, MS, 39206",611216467,"R"
235242,"5155 LONG ISLAND DRIVE","ATLANTA","GA",30327,33.8963666440001,-84.393989451,242,"5155 LONG ISLAND DRIVE, ATLANTA, GA, 30327","Match","Non_Exact","5155 LONG ISLAND DR NW, ATLANTA, GA, 30327",636180503,"R"
235243,"5155 MARTINIQUE DR","LAKELAND","FL",33812,27.971984804,-81.902600475,243,"5155 MARTINIQUE DR, LAKELAND, FL, 33812","Match","Exact","5155 MARTINIQUE DR, LAKELAND, FL, 33812",104862445,"L"
235244,"5155 N COUNTY ROAD 500 W","ORLEANS","IN",47452,38.6368379940001,-86.553089191,244,"5155 N COUNTY ROAD 500 W, ORLEANS, IN, 47452","Match","Exact","5155 N CO RD 500 W, ORLEANS, IN, 47452",32145867,"L"
235245,"5155 SADDLEBRED LANE","CUMMING","GA",30028,34.2793732710001,-84.208427037,245,"5155 SADDLEBRED LANE, CUMMING, GA, 30028","Match","Exact","5155 SADDLEBRED LN, CUMMING, GA, 30028",70196495,"R"
235246,"5155 VOLUSIA AVE","TITUSVILLE","FL",32780,28.5475631690001,-80.8295666929999,246,"5155 VOLUSIA AVE, TITUSVILLE, FL, 32780","Match","Exact","5155 VOLUSIA AVE, TITUSVILLE, FL, 32780",647529255,"L"
235247,"5155 VOLUSIA AVENUE","TITUSVILLE","FL",32780,28.5475631690001,-80.8295666929999,247,"5155 VOLUSIA AVENUE, TITUSVILLE, FL, 32780","Match","Exact","5155 VOLUSIA AVE, TITUSVILLE, FL, 32780",647529255,"L"
235248,"5155 W 1125 N","WHEATFIELD","IN",46392,41.174857655,-87.148693527,248,"5155 W 1125 N, WHEATFIELD, IN, 46392","Match","Non_Exact","5155 1125N, WHEATFIELD, IN, 46392",15374700,"R"
235249,"5156 BLACKSMITH DRIVE","MEMPHIS","TN",38127,35.2661696690001,-90.038891639,249,"5156 BLACKSMITH DRIVE, MEMPHIS, TN, 38127","Match","Exact","5156 BLACKSMITH DR, MEMPHIS, TN, 38127",72897145,"R"
235250,"5156 LIMERICK AVE NW","NORTH CANTON","OH",44720,40.855818448,-81.445432781,250,"5156 LIMERICK AVE NW, NORTH CANTON, OH, 44720","Match","Exact","5156 LIMERICK AVE NW, NORTH CANTON, OH, 44720",64673955,"R"
235251,"5156 PARRISH ST","PHILADELPHIA","PA",19139,39.966740826,-75.223945537,251,"5156 PARRISH ST, PHILADELPHIA, PA, 19139","Match","Exact","5156 PARRISH ST, PHILADELPHIA, PA, 19139",628807327,"L"
235252,"5156 PLUM AVENUE","SEDALIA","CO",80135,39.437435109,-104.964485736,252,"5156 PLUM AVENUE, SEDALIA, CO, 80135","Match","Non_Exact","5156 N PLUM AVE, SEDALIA, CO, 80135",130793147,"R"
235253,"5156 TOWNPOINT RD","SUFFOLK","VA",23435,36.8523315840001,-76.444482297,253,"5156 TOWNPOINT RD, SUFFOLK, VA, 23435","Match","Exact","5156 TOWNPOINT RD, SUFFOLK, VA, 23435",122227984,"L"
235254,"5156 W ROMEO LANE","DUNNELLON","FL",34433,28.987036505,-82.522432183,254,"5156 W ROMEO LANE, DUNNELLON, FL, 34433","Match","Exact","5156 W ROMEO LN, DUNNELLON, FL, 34433",649166548,"R"
235255,"5156 WARD BASIN RD","MILTON","FL",32583,30.621178802,-87.021297784,255,"5156 WARD BASIN RD, MILTON, FL, 32583","Match","Exact","5156 WARD BASIN RD, MILTON, FL, 32583",74557575,"R"
235256,"51561 TEASDALE CT","SOUTH BEND","IN",46637,41.743610125,-86.268694129,256,"51561 TEASDALE CT, SOUTH BEND, IN, 46637","Match","Exact","51561 TEASDALE CT, SOUTH BEND, IN, 46637",8052909,"R"
235257,"51563 FOX POINTE LANE","GRANGER","IN",46530,41.744940178,-86.175990631,257,"51563 FOX POINTE LANE, GRANGER, IN, 46530","Match","Exact","51563 FOX POINTE LN, GRANGER, IN, 46530",8070844,"R"
235258,"5157 ARBOR STREET","PHILADELPHIA","PA",19120,40.028294224,-75.116718125,258,"5157 ARBOR STREET, PHILADELPHIA, PA, 19120","Match","Exact","5157 ARBOR ST, PHILADELPHIA, PA, 19120",131419978,"R"
235259,"5157 BLUEBONNET BLVD","BATON ROUGE","LA",70809,30.401887575,-91.083723146,259,"5157 BLUEBONNET BLVD, BATON ROUGE, LA, 70809","Match","Non_Exact","5157 BLUEBONNET RD, BATON ROUGE, LA, 70809",92211930,"L"
235260,"5157 CROFTON AVE","SOLON","OH",44139,41.4198467520001,-81.457793787,260,"5157 CROFTON AVE, SOLON, OH, 44139","Match","Exact","5157 CROFTON AVE, SOLON, OH, 44139",647794962,"L"
235261,"5157 ESCAMBIA TERRACE","FORT WORTH","TX",76244,32.9236038780001,-97.274268369,261,"5157 ESCAMBIA TERRACE, FORT WORTH, TX, 76244","Match","Exact","5157 ESCAMBIA TER, FORT WORTH, TX, 76244",617675074,"R"
235262,"5157 N HILL POINT RD","CROSS PLAINS","WI",53528,43.1368008760001,-89.630232645,262,"5157 N HILL POINT RD, CROSS PLAINS, WI, 53528","Match","Exact","5157 N HILL POINT RD, CROSS PLAINS, WI, 53528",49459016,"L"
235263,"5157 OVERLOOK CIR NW","CANTON","OH",44718,40.858676071,-81.447542928,263,"5157 OVERLOOK CIR NW, CANTON, OH, 44718","Match","Exact","5157 OVERLOOK CIR NW, CANTON, OH, 44718",633565410,"L"
235264,"5157 ROYAL INDIGO STREET","LAS VEGAS","NV",89130,36.253105971,-115.228678113,264,"5157 ROYAL INDIGO STREET, LAS VEGAS, NV, 89130","Match","Exact","5157 ROYAL INDIGO ST, LAS VEGAS, NV, 89130",650853756,"L"
235265,"5157 S SAYRE AVENUE","CHICAGO","IL",60638,41.7982485410001,-87.7966111329999,265,"5157 S SAYRE AVENUE, CHICAGO, IL, 60638","Match","Non_Exact","5157 S SAYRE AVE, CHICAGO, IL, 60638",111796273,"L"
235266,"5157 TIMBER SPRINGS","CIBOLO","TX",78108,29.6235329290001,-98.237721081,266,"5157 TIMBER SPRINGS, CIBOLO, TX, 78108","Match","Exact","5157 TIMBER SPRINGS, CIBOLO, TX, 78108",617377461,"R"
235267,"5158 BRAESVALLEY DR","HOUSTON","TX",77096,29.680056097,-95.471129129,267,"5158 BRAESVALLEY DR, HOUSTON, TX, 77096","Match","Exact","5158 BRAESVALLEY DR, HOUSTON, TX, 77096",96039199,"R"
235268,"5158 CLARETON DR SUITE 2744","AGOURA","CA",91376,34.1470614460001,-118.753870253,268,"5158 CLARETON DR SUITE 2744, AGOURA, CA, 91376","Match","Non_Exact","5158 CLARETON DR, AGOURA, CA, 91301",141721810,"R"
235269,"5158 COURTLYN ST  NE","KEIZER","OR",97303,44.9989339690001,-123.011485444,269,"5158 COURTLYN ST  NE, KEIZER, OR, 97303","Match","Exact","5158 COURTLYN ST NE, KEIZER, OR, 97303",637754270,"L"
235270,"5158 MOUNT ALBAN RD","VICKSBURG","MS",39183,32.363701839,-90.810710762,270,"5158 MOUNT ALBAN RD, VICKSBURG, MS, 39183","Match","Exact","5158 MOUNT ALBAN RD, VICKSBURG, MS, 39183",611043645,"R"
235271,"5158 SETTLERS PARK DRIVE","VIRGINIA BEACH","VA",23464,36.788685059,-76.161022558,271,"5158 SETTLERS PARK DRIVE, VIRGINIA BEACH, VA, 23464","Match","Exact","5158 SETTLERS PARK DR, VA BCH, VA, 23464",122288499,"L"
235272,"5158 TYLER OAKS DRIVE","MOUNT OLIVE","AL",35117,33.6554012710001,-86.855304459,272,"5158 TYLER OAKS DRIVE, MOUNT OLIVE, AL, 35117","Match","Exact","5158 TYLER OAKS DR, MOUNT OLIVE, AL, 35117",81690848,"R"
235273,"5158 WEST OUTER DRIVE","DETROIT","MI",48235,42.4284145500001,-83.1756316249999,273,"5158 WEST OUTER DRIVE, DETROIT, MI, 48235","Match","Exact","5158 W OUTER DR, DETROIT, MI, 48235",95734994,"L"
235274,"5159 BOWERS BROOK DRIVE SW","LILBURN","GA",30047,33.8751337420001,-84.14572459,274,"5159 BOWERS BROOK DRIVE SW, LILBURN, GA, 30047","Match","Exact","5159 BOWERS BROOK DR SW, LILBURN, GA, 30047",88894282,"R"
235275,"5159 BUCHANAN HIGHWAY","BUCHANAN","GA",30113,33.902066871,-85.2343026409999,275,"5159 BUCHANAN HIGHWAY, BUCHANAN, GA, 30113","Match","Exact","5159 BUCHANAN HWY, BUCHANAN, GA, 30113",29640405,"R"
235276,"5159 SELINSKY RD","HOUSTON","TX",77048,29.6364348770001,-95.3461127149999,276,"5159 SELINSKY RD, HOUSTON, TX, 77048","Match","Exact","5159 SELINSKY RD, HOUSTON, TX, 77048",96596003,"L"
235277,"5159 US-5 PO BOX 27","ASCUTNEY","VT",5030,NA,NA,277,"5159 US-5 PO BOX 27, ASCUTNEY, VT, 5030","No_Match",NA,NA,NA,NA
235278,"516  BALL STREET","SLOCOMB","AL",36375,31.102225807,-85.6160994799999,278,"516  BALL STREET, SLOCOMB, AL, 36375","Match","Non_Exact","516 S BALL ST, SLOCOMB, AL, 36375",639015636,"L"
235279,"516 1ST ST","STEILACOOM","WA",98388,47.167623468,-122.611991724,279,"516 1ST ST, STEILACOOM, WA, 98388","Match","Exact","516 1ST ST, STEILACOOM, WA, 98388",184617628,"R"
235280,"516 3RD AVE SUITE W621","SEATTLE","WA",98104,47.602231384,-122.330911642,280,"516 3RD AVE SUITE W621, SEATTLE, WA, 98104","Match","Exact","516 3RD AVE, SEATTLE, WA, 98104",186589684,"R"
235281,"516 3RD STREET","AUGUSTA","GA",30901,33.4679310660001,-81.955691913,281,"516 3RD STREET, AUGUSTA, GA, 30901","Match","Exact","516 3RD ST, AUGUSTA, GA, 30901",55641671,"L"
235282,"516 4TH STREET","FOND DU LAC","WI",54935,NA,NA,282,"516 4TH STREET, FOND DU LAC, WI, 54935","No_Match",NA,NA,NA,NA
235283,"516 58TH STREET NORTHEAST","WASHINGTON","DC",20019,38.896105064,-76.917784377,283,"516 58TH STREET NORTHEAST, WASHINGTON, DC, 20019","Match","Exact","516 58TH ST NE, WASHINGTON, DC, 20019",76234130,"L"
235284,"516 8TH AVE SW","DYERSVILLE","IA",52040,42.478345786,-91.131114617,284,"516 8TH AVE SW, DYERSVILLE, IA, 52040","Match","Exact","516 8TH AVE SW, DYERSVILLE, IA, 52040",16915358,"L"
235285,"516 ACORN COURT","TARRANT","WA",76179,NA,NA,285,"516 ACORN COURT, TARRANT, WA, 76179","No_Match",NA,NA,NA,NA
235286,"516 ACORN CT","SAGINAW","TX",76179,32.868088103,-97.3808713769999,286,"516 ACORN CT, SAGINAW, TX, 76179","Match","Exact","516 ACORN CT, SAGINAW, TX, 76179",102115908,"R"
235287,"516 ALTA MESA DR","RIVERSIDE","CA",92507,33.9850592610001,-117.32254806,287,"516 ALTA MESA DR, RIVERSIDE, CA, 92507","Match","Exact","516 ALTA MESA DR, RIVERSIDE, CA, 92507",194746518,"L"
235288,"516 ARNOLD ROAD","EAST PEORIA","IL",61611,40.683181113,-89.543623622,288,"516 ARNOLD ROAD, EAST PEORIA, IL, 61611","Match","Exact","516 ARNOLD RD, EAST PEORIA, IL, 61611",22500057,"R"
235289,"516 ASHBOURNE ROAD","CHELTENHAM","PA",19012,NA,NA,289,"516 ASHBOURNE ROAD, CHELTENHAM, PA, 19012","No_Match",NA,NA,NA,NA
235290,"516 BEARD ST","TALLAHASSEE","FL",32303,30.455407994,-84.274681985,290,"516 BEARD ST, TALLAHASSEE, FL, 32303","Match","Exact","516 BEARD ST, TALLAHASSEE, FL, 32303",82853692,"L"
235291,"516 BELTRAMI AVE NW","BEMIDJI","MN",56601,47.4728569050001,-94.881196189,291,"516 BELTRAMI AVE NW, BEMIDJI, MN, 56601","Match","Exact","516 BELTRAMI AVE NW, BEMIDJI, MN, 56601",176405495,"R"
235292,"516 BLUEHILL DRIVE","NEW CASTLE","DE",19720,NA,NA,292,"516 BLUEHILL DRIVE, NEW CASTLE, DE, 19720","No_Match",NA,NA,NA,NA
235293,"516 CAMP RIDGE RD","MARBLE FALLS","TX",78654,30.550046304,-98.16464351,293,"516 CAMP RIDGE RD, MARBLE FALLS, TX, 78654","Match","Exact","516 CAMP RIDGE RD, MARBLE FALLS, TX, 78654",146512542,"R"
235294,"516 CHAPPELL ROAD NW","ATLANTA","GA",30318,33.7690134650001,-84.433656866,294,"516 CHAPPELL ROAD NW, ATLANTA, GA, 30318","Match","Exact","516 CHAPPELL RD NW, ATLANTA, GA, 30318",17340210,"L"
235295,"516 CHARLES AVE  APT 3","SYRACUSE","NY",13209,43.0516090240001,-76.199193166,295,"516 CHARLES AVE  APT 3, SYRACUSE, NY, 13209","Match","Exact","516 CHARLES AVE, SYRACUSE, NY, 13209",634215737,"R"
235296,"516 CHATMOSS COURT","MARTINSVILLE","VA",24112,36.6876537700001,-79.8002884919999,296,"516 CHATMOSS COURT, MARTINSVILLE, VA, 24112","Match","Exact","516 CHATMOSS CT, MARTINSVILLE, VA, 24112",55536289,"R"
235297,"516 COLLIER AVE","JACKSON","MS",39213,32.350240184,-90.18785146,297,"516 COLLIER AVE, JACKSON, MS, 39213","Match","Exact","516 COLLIER AVE, JACKSON, MS, 39213",65370370,"R"
235298,"516 COMMERCIO ST","CLEWISTON","FL",33440,26.750143941,-80.9351052489999,298,"516 COMMERCIO ST, CLEWISTON, FL, 33440","Match","Exact","516 COMMERCIO ST, CLEWISTON, FL, 33440",4508987,"L"
235299,"516 COUNTY ROAD 243","WHARTON","TX",77488,29.331859287,-96.162839495,299,"516 COUNTY ROAD 243, WHARTON, TX, 77488","Match","Exact","516 CO RD 243, WHARTON, TX, 77488",42501706,"L"
235300,"516 COURT STREET","BROOKLYN","NY",11231,40.6761709940001,-73.998887635,300,"516 COURT STREET, BROOKLYN, NY, 11231","Match","Exact","516 COURT ST, BROOKLYN, NY, 11231",59075448,"R"
235301,"516 CR 4010","DECATUR","TX",76234,33.2152226100001,-97.5602068809999,301,"516 CR 4010, DECATUR, TX, 76234","Match","Exact","516 CO RD 4010, DECATUR, TX, 76234",650509098,"L"
235302,"516 CR 67","ANGLETON","TX",77515,NA,NA,302,"516 CR 67, ANGLETON, TX, 77515","No_Match",NA,NA,NA,NA
235303,"516 CRESTOVER DR","TAMPA","FL",33617,28.0451846660001,-82.384052867,303,"516 CRESTOVER DR, TAMPA, FL, 33617","Match","Exact","516 CRESTOVER DR, TAMPA, FL, 33617",104532616,"L"
235304,"516 CROFTON PARK LANE","FRANKLIN","TN",37069,35.960855931,-86.87358733,304,"516 CROFTON PARK LANE, FRANKLIN, TN, 37069","Match","Exact","516 CROFTON PARK LN, FRANKLIN, TN, 37069",73123634,"R"
235305,"516 DE SOTO DRIVE","MIAMI SPRINGS","FL",33166,25.8112930180001,-80.2776886509999,305,"516 DE SOTO DRIVE, MIAMI SPRINGS, FL, 33166","Match","Exact","516 DE SOTO DR, MIAMI SPRINGS, FL, 33166",115999982,"R"
235306,"516 DEACON DRIVE WEST","COLLEGE STATION","TX",77845,30.578174432,-96.3139337439999,306,"516 DEACON DRIVE WEST, COLLEGE STATION, TX, 77845","Match","Non_Exact","516 DEACON DR, COLLEGE STATION, TX, 77845",21825292,"R"
235307,"516 E 18TH STREET","COVINGTON","KY",41014,39.0700721700001,-84.498354739,307,"516 E 18TH STREET, COVINGTON, KY, 41014","Match","Exact","516 E 18TH ST, COVINGTON, KY, 41014",103876749,"L"
235308,"516 E 32ND STREET UNIT D","CHICAGO","IL",60616,NA,NA,308,"516 E 32ND STREET UNIT D, CHICAGO, IL, 60616","Tie",NA,NA,NA,NA
235309,"516 E 81ST ST APT 3","NEW YORK","NY",10028,40.772329998,-73.9485895729999,309,"516 E 81ST ST APT 3, NEW YORK, NY, 10028","Match","Non_Exact","516 E 81ST ST, NEW YORK, NY, 10028",650086912,"R"
235310,"516 E BRYANT ST  SUITE A","BOZEMAN","MT",59715,45.6960568580001,-111.029864793,310,"516 E BRYANT ST  SUITE A, BOZEMAN, MT, 59715","Match","Non_Exact","516 E BRYANT ST, BOZEMAN, MT, 59715",163499670,"R"
235311,"516 E BYRON NELSON BLVD PO BOX 2046","ROANOKE","TX",76262,33.0079501710001,-97.233297205,311,"516 E BYRON NELSON BLVD PO BOX 2046, ROANOKE, TX, 76262","Match","Exact","516 BYRON NELSON BLVD, ROANOKE, TX, 76262",103423227,"L"
235312,"516 E BYRON NELSON BLVD SUITE 1473","ROANOKE","TX",76262,33.0079501710001,-97.233297205,312,"516 E BYRON NELSON BLVD SUITE 1473, ROANOKE, TX, 76262","Match","Exact","516 BYRON NELSON BLVD, ROANOKE, TX, 76262",103423227,"L"
235313,"516 E DALLAS AVE","MCALLEN","TX",78501,26.1973158710001,-98.215842955,313,"516 E DALLAS AVE, MCALLEN, TX, 78501","Match","Exact","516 E DALLAS AVE, MCALLEN, TX, 78501",71502438,"R"
235314,"516 E FILMORE","WINTERSET","IA",50273,41.338292407,-94.008548081,314,"516 E FILMORE, WINTERSET, IA, 50273","Match","Non_Exact","516 E FILMORE ST, WINTERSET, IA, 50273",75196664,"L"
235315,"516 E JACKSON STREET","ORLANDO","FL",32801,28.5391619270001,-81.3710202629999,315,"516 E JACKSON STREET, ORLANDO, FL, 32801","Match","Exact","516 E JACKSON ST, ORLANDO, FL, 32801",94282589,"R"
235316,"516 E PALMER","DETROIT","MI",48202,42.3645246730001,-83.0617669009999,316,"516 E PALMER, DETROIT, MI, 48202","Match","Non_Exact","516 E PALMER AVE, DETROIT, MI, 48202",95477426,"R"
235317,"516 E SEMINARY AVENUE","TOWSON","MD",21286,39.4253453630001,-76.589978109,317,"516 E SEMINARY AVENUE, TOWSON, MD, 21286","Match","Exact","516 E SEMINARY AVE, TOWSON, MD, 21286",191474620,"L"
235318,"516 E11TH STREET","NEW YORK","NY",10009,NA,NA,318,"516 E11TH STREET, NEW YORK, NY, 10009","No_Match",NA,NA,NA,NA
235319,"516 EAST AIRLINE HWY","LAPLACE","LA",70068,30.060993637,-90.472092623,319,"516 EAST AIRLINE HWY, LAPLACE, LA, 70068","Match","Non_Exact","516 E AIRLINE HWY, LA PLACE, LA, 70068",93709500,"R"
235320,"516 EAST PROSPECT AVE","CHESAPEAKE","NC",28376,34.9843180720001,-79.215428367,320,"516 EAST PROSPECT AVE, CHESAPEAKE, NC, 28376","Match","Non_Exact","516 E PROSPECT AVE, RAEFORD, NC, 28376",76170952,"R"
235321,"516 EAST SCHOOL STREET APT 2","NAPERVILLE","IL",60540,41.7774134300001,-88.1405999679999,321,"516 EAST SCHOOL STREET APT 2, NAPERVILLE, IL, 60540","Match","Exact","516 E SCHOOL ST, NAPERVILLE, IL, 60540",649654771,"R"
235322,"516 EAST SECOND STREET UNIT 43","BOSTON","MA",2127,42.337205915,-71.0418094089999,322,"516 EAST SECOND STREET UNIT 43, BOSTON, MA, 2127","Match","Exact","516 E 2ND ST, BOSTON, MA, 02127",85712890,"L"
235323,"516 EAST VALERIO STREET APARTMENT B","SANTA BARBARA","CA",93103,34.433819171,-119.704670278,323,"516 EAST VALERIO STREET APARTMENT B, SANTA BARBARA, CA, 93103","Match","Exact","516 E VALERIO ST, SANTA BARBARA, CA, 93103",108605023,"R"
235324,"516 EDMONDS WAY","DESOTO","TX",75115,32.581869721,-96.860581659,324,"516 EDMONDS WAY, DESOTO, TX, 75115","Match","Exact","516 EDMONDS WAY, DESOTO, TX, 75115",103186187,"L"
235325,"516 EZZAED CHARLES DR","CINCINNATI","OH",45214,39.1090395520001,-84.523530504,325,"516 EZZAED CHARLES DR, CINCINNATI, OH, 45214","Match","Non_Exact","516 EZZARD CHARLES DR, CINCINNATI, OH, 45214",103969486,"R"
235326,"516 FENTON PLACE STE A","CHARLOTTE","NC",28207,35.200849867,-80.8236023329999,326,"516 FENTON PLACE STE A, CHARLOTTE, NC, 28207","Match","Exact","516 FENTON PL, CHARLOTTE, NC, 28207",70566012,"R"
235327,"516 FERRY RD","GALVESTON","TX",77550,29.3208381760001,-94.770415785,327,"516 FERRY RD, GALVESTON, TX, 77550","Match","Exact","516 FERRY RD, GALVESTON, TX, 77550",96680778,"R"
235328,"516 FOUNTAIN MESA RD","FOUNTAIN","CO",80817,38.687070389,-104.694029087,328,"516 FOUNTAIN MESA RD, FOUNTAIN, CO, 80817","Match","Exact","516 FOUNTAIN MESA RD, FOUNTAIN, CO, 80817",105535565,"L"
235329,"516 FRUITVALE ROAD SUITE B","GRAND JUNCTION","CO",81504,39.0790474230001,-108.490302675,329,"516 FRUITVALE ROAD SUITE B, GRAND JUNCTION, CO, 81504","Match","Non_Exact","516 FRUITVALE CT, GRAND JCT, CO, 81504",122449024,"R"
235330,"516 HARMONY LANE","ST STEPHEN","SC",29479,33.363447675,-79.895240621,330,"516 HARMONY LANE, ST STEPHEN, SC, 29479","Match","Exact","516 HARMONY LN, SAINT STEPHEN, SC, 29479",100779587,"L"
235331,"516 HARMONY N","ST STEPHEN","SC",29479,NA,NA,331,"516 HARMONY N, ST STEPHEN, SC, 29479","No_Match",NA,NA,NA,NA
235332,"516 HARRISON DR","MECHANICSBURG","IL",62545,39.80835481,-89.391140384,332,"516 HARRISON DR, MECHANICSBURG, IL, 62545","Match","Exact","516 HARRISON DR, MECHANICSBURG, IL, 62545",649231398,"L"
235333,"516 HIGHLAND AVENUE","NEWARK","NJ",7104,40.7740137760001,-74.171009162,333,"516 HIGHLAND AVENUE, NEWARK, NJ, 7104","Match","Exact","516 HIGHLAND AVE, NEWARK, NJ, 07104",63454940,"L"
235334,"516 HUDSON LANE","MONROE","LA",71201,32.511394856,-92.1195291669999,334,"516 HUDSON LANE, MONROE, LA, 71201","Match","Exact","516 HUDSON LN, MONROE, LA, 71201",161084806,"R"
235335,"516 HWY M","PARK HILLS","MO",63601,NA,NA,335,"516 HWY M, PARK HILLS, MO, 63601","No_Match",NA,NA,NA,NA
235336,"516 JONAGOLD CIRCLE","MECHANICSBURG","PA",17055,40.1833409430001,-76.967698847,336,"516 JONAGOLD CIRCLE, MECHANICSBURG, PA, 17055","Match","Exact","516 JONAGOLD CIR, MECHANICSBURG, PA, 17055",640735936,"R"
235337,"516 JONES STREET","HOLLIDAYSBURG","PA",16648,40.4327970160001,-78.3884810819999,337,"516 JONES STREET, HOLLIDAYSBURG, PA, 16648","Match","Exact","516 JONES ST, HOLLIDAYSBURG, PA, 16648",617684447,"R"
235338,"516 KIOWA CT APT 8","STONE MTN","GA",30083,33.7917616240001,-84.2151090419999,338,"516 KIOWA CT APT 8, STONE MTN, GA, 30083","Match","Exact","516 KIOWA CT, STONE MOUNTAIN, GA, 30083",23371514,"R"
235339,"516 KUNKLETOWN ROAD","KUNKLETOWN","PA",18058,40.8481262080001,-75.45263591,339,"516 KUNKLETOWN ROAD, KUNKLETOWN, PA, 18058","Match","Exact","516 KUNKLETOWN RD, KUNKLETOWN, PA, 18058",647451111,"R"
235340,"516 LACROIX WAY","COLUMBIA","IL",62236,38.4722148610001,-90.207572113,340,"516 LACROIX WAY, COLUMBIA, IL, 62236","Match","Exact","516 LACROIX WAY, COLUMBIA, IL, 62236",627545764,"R"
235341,"516 LEECH AVENUE","SALTSBURG","PA",15681,40.4930375230001,-79.45007688,341,"516 LEECH AVENUE, SALTSBURG, PA, 15681","Match","Exact","516 LEECH AVE, SALTSBURG, PA, 15681",66294229,"L"
235342,"516 LINCOLN CREST CIRCLE","AUSTELL","GA",30106,NA,NA,342,"516 LINCOLN CREST CIRCLE, AUSTELL, GA, 30106","No_Match",NA,NA,NA,NA
235343,"516 MADISON AVE","COVINGTON","KY",41011,39.085223098,-84.510561034,343,"516 MADISON AVE, COVINGTON, KY, 41011","Match","Exact","516 MADISON AVE, COVINGTON, KY, 41011",103876110,"L"
235344,"516 MAIN STREET PMB 320","SALMON","ID",83467,45.175781928,-113.894303477,344,"516 MAIN STREET PMB 320, SALMON, ID, 83467","Match","Exact","516 MAIN ST, SALMON, ID, 83467",135496923,"R"
235345,"516 MAIN STREET","MOUND CITY","KS",66056,38.1425952280001,-94.813507339,345,"516 MAIN STREET, MOUND CITY, KS, 66056","Match","Non_Exact","516 W MAIN ST, MOUND CITY, KS, 66056",85175148,"R"
235346,"516 MARTIN STREET","WEST MONROE","LA",71292,32.4644190550001,-92.169682874,346,"516 MARTIN STREET, WEST MONROE, LA, 71292","Match","Exact","516 MARTIN ST, WEST MONROE, LA, 71292",612378756,"R"
235347,"516 MICCOSUKEE ROAD","TALLAHASSEE","FL",32308,30.447039132,-84.275809403,347,"516 MICCOSUKEE ROAD, TALLAHASSEE, FL, 32308","Match","Exact","516 MICCOSUKEE RD, TALLAHASSEE, FL, 32308",623938457,"L"
235348,"516 MISTY LANE","COPLEY","OH",44321,41.1223268250001,-81.676656542,348,"516 MISTY LANE, COPLEY, OH, 44321","Match","Exact","516 MISTY LN, COPLEY, OH, 44321",640190356,"R"
235349,"516 MONONGAHELA AVENUE  1ST FLOOR","GLASSPORT","PA",15045,40.3272849460001,-79.892504822,349,"516 MONONGAHELA AVENUE  1ST FLOOR, GLASSPORT, PA, 15045","Match","Exact","516 MONONGAHELA AVE, GLASSPORT, PA, 15045",51660067,"R"
235350,"516 MOONEY ROAD","FORT WALTON BEACH","FL",32547,30.4510485210001,-86.614305128,350,"516 MOONEY ROAD, FORT WALTON BEACH, FL, 32547","Match","Exact","516 MOONEY RD, FORT WALTON BEACH, FL, 32547",74390749,"R"
235351,"516 N 39TH STREET","PHILADELPHIA","PA",19104,39.9621669360001,-75.199463222,351,"516 N 39TH STREET, PHILADELPHIA, PA, 19104","Match","Exact","516 N 39TH ST, PHILADELPHIA, PA, 19104",131403595,"L"
235352,"516 N 7TH STREET","PUDUCAH","KY",42001,37.089428323,-88.604442034,352,"516 N 7TH STREET, PUDUCAH, KY, 42001","Match","Non_Exact","516 N 7TH ST, PADUCAH, KY, 42001",8396746,"R"
235353,"516 N 7TH","DUNCAN","OK",73533,34.508058588,-97.9545416619999,353,"516 N 7TH, DUNCAN, OK, 73533","Match","Non_Exact","516 N 7TH ST, DUNCAN, OK, 73533",13677820,"R"
235354,"516 N CHARLES STREET 412","BALTIMORE","MD",21201,NA,NA,354,"516 N CHARLES STREET 412, BALTIMORE, MD, 21201","No_Match",NA,NA,NA,NA
235355,"516 N E 68TH ST APT 96","GLADSTONE","MO",64118,NA,NA,355,"516 N E 68TH ST APT 96, GLADSTONE, MO, 64118","Tie",NA,NA,NA,NA
235356,"516 N GAINSBOROUGH AVE","ROYAL OAK","MI",48067,42.493633635,-83.13184943,356,"516 N GAINSBOROUGH AVE, ROYAL OAK, MI, 48067","Match","Exact","516 N GAINSBOROUGH AVE, ROYAL OAK, MI, 48067",69746019,"R"
235357,"516 N GRAHAM ST STE 5","CHARLOTTE","NC",28202,NA,NA,357,"516 N GRAHAM ST STE 5, CHARLOTTE, NC, 28202","Tie",NA,NA,NA,NA
235358,"516 N GRANGER ST","SAGINAW","MI",48602,43.4227134130001,-83.9634591289999,358,"516 N GRANGER ST, SAGINAW, MI, 48602","Match","Exact","516 N GRANGER ST, SAGINAW, MI, 48602",80210940,"R"
235359,"516 N GRIFFITH PARK DR","BURBANK","CA",91506,34.17656442,-118.323921446,359,"516 N GRIFFITH PARK DR, BURBANK, CA, 91506","Match","Exact","516 N GRIFFITH PARK DR, BURBANK, CA, 91506",142725930,"R"
235360,"516 N HIDDENBROOKE DR","ADVANCE","NC",27006,35.9869041600001,-80.4512205899999,360,"516 N HIDDENBROOKE DR, ADVANCE, NC, 27006","Match","Exact","516 N HIDDENBROOKE DR, ADVANCE, NC, 27006",640646358,"R"
235361,"516 N LAKE LANE","CANTON","GA",30115,34.2140738910001,-84.369766759,361,"516 N LAKE LANE, CANTON, GA, 30115","Match","Exact","516 N LAKE LN, CANTON, GA, 30115",68841228,"R"
235362,"516 N MAIN ST","ELIZABETHTOWN","KY",42701,37.6978000060001,-85.852510433,362,"516 N MAIN ST, ELIZABETHTOWN, KY, 42701","Match","Exact","516 N MAIN ST, ELIZABETHTOWN, KY, 42701",34622362,"L"
235363,"516 N MANGUM STREET","DURHAM","NC",27701,35.998522101,-78.897679699,363,"516 N MANGUM STREET, DURHAM, NC, 27701","Match","Exact","516 N MANGUM ST, DURHAM, NC, 27701",71741658,"R"
235364,"516 N ROLLING ROAD SUITE 303","CATONSVILLE","MD",21228,39.279941712,-76.7546787649999,364,"516 N ROLLING ROAD SUITE 303, CATONSVILLE, MD, 21228","Match","Non_Exact","516 N ROLLING RD, CATONSVILLE, MD, 21228",191557182,"L"
235365,"516 N SLOAN AVE","COMPTON","CA",90221,33.89935272,-118.210650747,365,"516 N SLOAN AVE, COMPTON, CA, 90221","Match","Exact","516 N SLOAN AVE, COMPTON, CA, 90221",141678429,"R"
235366,"516 N STATE","BELLINGHAM","WA",98225,48.740481996,-122.488839192,366,"516 N STATE, BELLINGHAM, WA, 98225","Match","Non_Exact","516 N STATE ST, BELLINGHAM, WA, 98225",183774093,"R"
235367,"516 N TEJON STREET","COLORADO SPRINGS","CO",80903,38.8412063420001,-104.82312552,367,"516 N TEJON STREET, COLORADO SPRINGS, CO, 80903","Match","Exact","516 N TEJON ST, COLORADO SPRINGS, CO, 80903",105514165,"L"
235368,"516 NE 15 STREET APT 1","FORT LAUDERDALE","FL",33304,26.1458210700001,-80.1389553719999,368,"516 NE 15 STREET APT 1, FORT LAUDERDALE, FL, 33304","Match","Non_Exact","516 NE 15TH ST, FORT LAUDERDALE, FL, 33304",114722189,"R"
235369,"516 NORTH GRAHAM STREET SUITE A6","CHARLOTTE","NC",28202,35.2338734150001,-80.842443561,369,"516 NORTH GRAHAM STREET SUITE A6, CHARLOTTE, NC, 28202","Match","Exact","516 N GRAHAM ST, CHARLOTTE, NC, 28202",70479116,"R"
235370,"516 NORTH ROAD 45","PASCO","WA",99301,46.2329828210001,-119.150348233,370,"516 NORTH ROAD 45, PASCO, WA, 99301","Match","Exact","516 N RD 45, PASCO, WA, 99301",175248630,"L"
235371,"516 OCAMPO DRIVE","PACIFIC PALISADES","CA",90272,34.037445296,-118.520449179,371,"516 OCAMPO DRIVE, PACIFIC PALISADES, CA, 90272","Match","Exact","516 OCAMPO DR, PACIFIC PALISADES, CA, 90272",142715221,"R"
235372,"516 OCEAN PARKWAY","BERLIN","MD",21811,38.387172655,-75.1393255959999,372,"516 OCEAN PARKWAY, BERLIN, MD, 21811","Match","Exact","516 OCEAN PKWY, BERLIN, MD, 21811",641634511,"L"
235373,"516 OVERLOOK DR","CLEBURNE","TX",76033,32.2844631090001,-97.552327546,373,"516 OVERLOOK DR, CLEBURNE, TX, 76033","Match","Exact","516 OVERLOOK DR, CLEBURNE, TX, 76033",640941212,"R"
235374,"516 PHOENIX CIRCLE","VALLEJO","CA",94589,38.1378152010001,-122.246042208,374,"516 PHOENIX CIRCLE, VALLEJO, CA, 94589","Match","Exact","516 PHOENIX CIR, VALLEJO, CA, 94589",192532114,"R"
235375,"516 PRICE AVENUE","BRADDOCK","PA",15104,40.40892876,-79.863609244,375,"516 PRICE AVENUE, BRADDOCK, PA, 15104","Match","Exact","516 PRICE AVE, BRADDOCK, PA, 15104",51812883,"R"
235376,"516 RACE STREET","CAMBRIDGE","MD",21613,38.568047332,-76.077603333,376,"516 RACE STREET, CAMBRIDGE, MD, 21613","Match","Exact","516 RACE ST, CAMBRIDGE, MD, 21613",99660986,"R"
235377,"516 RAINTREE AVE","AUBURN","AL",36832,32.6235714650001,-85.4913657129999,377,"516 RAINTREE AVE, AUBURN, AL, 36832","Match","Exact","516 RAINTREE AVE, AUBURN, AL, 36832",1569313,"R"
235378,"516 ROBERTS ROOST DRIVE","LAKE CHARLES","LA",70615,30.249824049,-93.149127537,378,"516 ROBERTS ROOST DRIVE, LAKE CHARLES, LA, 70615","Match","Non_Exact","516 ROBERT'S ROOST DR, LAKE CHARLES, LA, 70615",624120199,"R"
235379,"516 S 12TH ST","MURRAY","KY",42071,36.601445158,-88.3152162379999,379,"516 S 12TH ST, MURRAY, KY, 42071","Match","Exact","516 S 12TH ST, MURRAY, KY, 42071",31709247,"L"
235380,"516 S DILLARD STREET","WINTER GARDEN","FL",34787,28.559102867,-81.583556014,380,"516 S DILLARD STREET, WINTER GARDEN, FL, 34787","Match","Exact","516 S DILLARD ST, WINTER GARDEN, FL, 34787",94417496,"R"
235381,"516 S DIXIE HWY STE 192","WEST PALM BEACH","FL",33401,NA,NA,381,"516 S DIXIE HWY STE 192, WEST PALM BEACH, FL, 33401","Tie",NA,NA,NA,NA
235382,"516 S JAMES STREET","LUDINGTON","MI",49431,43.95124772,-86.447755783,382,"516 S JAMES STREET, LUDINGTON, MI, 49431","Match","Exact","516 S JAMES ST, LUDINGTON, MI, 49431",148053249,"L"
235383,"516 S LOWELL AVE","SIOUX FALLS","SD",57103,43.5437540280001,-96.696412836,383,"516 S LOWELL AVE, SIOUX FALLS, SD, 57103","Match","Exact","516 S LOWELL AVE, SIOUX FALLS, SD, 57103",34974373,"L"
235384,"516 S LOWELL AVENUE","SIOUX FALLS","SD",57103,43.5437540280001,-96.696412836,384,"516 S LOWELL AVENUE, SIOUX FALLS, SD, 57103","Match","Exact","516 S LOWELL AVE, SIOUX FALLS, SD, 57103",34974373,"L"
235385,"516 S WABASH CT","OLATHE","KS",66061,38.875813544,-94.8375327109999,385,"516 S WABASH CT, OLATHE, KS, 66061","Match","Exact","516 S WABASH CT, OLATHE, KS, 66061",91287618,"L"
235386,"516 SANTA FE TRAIL","IRVING","TX",75063,32.935863856,-96.95345571,386,"516 SANTA FE TRAIL, IRVING, TX, 75063","Match","Exact","516 SANTA FE TRL, IRVING, TX, 75063",103209123,"R"
235387,"516 SE MORRISON STREET SUITE 700","PORTLAND","OR",97214,45.5172192380001,-122.660532388,387,"516 SE MORRISON STREET SUITE 700, PORTLAND, OR, 97214","Match","Non_Exact","516 SE MORRISON ST, PORTLAND, OR, 97214",157505386,"R"
235388,"516 SE MORRISON SUITE 1200","PORTLAND","OR",97214,NA,NA,388,"516 SE MORRISON SUITE 1200, PORTLAND, OR, 97214","No_Match",NA,NA,NA,NA
235389,"516 SOCIAL CIRCLE","CHARLOTTE","NC",28216,35.2944987980001,-80.8764644089999,389,"516 SOCIAL CIRCLE, CHARLOTTE, NC, 28216","Match","Exact","516 SOCIAL CIR, CHARLOTTE, NC, 28216",70542814,"R"
235390,"516 SOSEBEE FARM RD 1426","GRAYSON","GA",30017,NA,NA,390,"516 SOSEBEE FARM RD 1426, GRAYSON, GA, 30017","No_Match",NA,NA,NA,NA
235391,"516 SOSEBEE FARM ROAD  SUITE 332","GRAYSON","GA",30017,NA,NA,391,"516 SOSEBEE FARM ROAD  SUITE 332, GRAYSON, GA, 30017","No_Match",NA,NA,NA,NA
235392,"516 SOSEBEE FARM ROAD NO 1273","GRAYSON","GA",30017,NA,NA,392,"516 SOSEBEE FARM ROAD NO 1273, GRAYSON, GA, 30017","No_Match",NA,NA,NA,NA
235393,"516 SOSEBEE FARM ROAD STE 1373","GRAYSON","GA",30017,NA,NA,393,"516 SOSEBEE FARM ROAD STE 1373, GRAYSON, GA, 30017","No_Match",NA,NA,NA,NA
235394,"516 SOSEBEE FARM ROAD","GRAYSON","GA",30017,33.8996576980001,-83.9646807569999,394,"516 SOSEBEE FARM ROAD, GRAYSON, GA, 30017","Match","Non_Exact","516 SOSEBEE FARM RD SW, GRAYSON, GA, 30017",628090979,"L"
235395,"516 SOUTH 9TH STREET","BOISE","ID",83702,43.612666147,-116.208062507,395,"516 SOUTH 9TH STREET, BOISE, ID, 83702","Match","Exact","516 S 9TH ST, BOISE, ID, 83702",117864675,"L"
235396,"516 SOUTH BENNETTS BRIDGE ROAD","SIMPSONVILLE","SC",29681,34.8161337020001,-82.206508851,396,"516 SOUTH BENNETTS BRIDGE ROAD, SIMPSONVILLE, SC, 29681","Match","Exact","516 S BENNETTS BRIDGE RD, SIMPSONVILLE, SC, 29681",636738990,"L"
235397,"516 SOUTH CENTER STREET","LONE TREE","IA",52755,41.4828709870001,-91.424336447,397,"516 SOUTH CENTER STREET, LONE TREE, IA, 52755","Match","Non_Exact","516 CENTER ST, LONE TREE, IA, 52755",84488270,"R"
235398,"516 SOUTH EMERSON STREET","MOUNT PROSPECT","IL",60056,42.057021535,-87.935314577,398,"516 SOUTH EMERSON STREET, MOUNT PROSPECT, IL, 60056","Match","Exact","516 S EMERSON ST, MOUNT PROSPECT, IL, 60056",111720759,"R"
235399,"516 SOUTH MAIN ST","SOMERSET","KY",42501,37.085297677,-84.60758058,399,"516 SOUTH MAIN ST, SOMERSET, KY, 42501","Match","Exact","516 S MAIN ST, SOMERSET, KY, 42501",39080525,"R"
235400,"516 SOUTH NEW HOPE RD","GASTONIA","NC",28054,35.257390893,-81.149592304,400,"516 SOUTH NEW HOPE RD, GASTONIA, NC, 28054","Match","Exact","516 S NEW HOPE RD, GASTONIA, NC, 28054",70381316,"L"
235401,"516 SOUTH STEWART STREET","WINCHESTER","VA",22601,39.1806444000001,-78.171805104,401,"516 SOUTH STEWART STREET, WINCHESTER, VA, 22601","Match","Exact","516 S STEWART ST, WINCHESTER, VA, 22601",55578567,"R"
235402,"516 SOUTH WATER STREET","SAPULPA","OK",74066,35.9928679380001,-96.112557629,402,"516 SOUTH WATER STREET, SAPULPA, OK, 74066","Match","Exact","516 S WATER ST, SAPULPA, OK, 74066",165864958,"R"
235403,"516 SW HORNE ST","TOPEKA","KS",66606,39.058400562,-95.6939980719999,403,"516 SW HORNE ST, TOPEKA, KS, 66606","Match","Exact","516 SW HORNE ST, TOPEKA, KS, 66606",17887195,"L"
235404,"516 TENNESSEE ST     SUITE 131","MEMPHIS","TN",38103,35.1334966200001,-90.062574973,404,"516 TENNESSEE ST     SUITE 131, MEMPHIS, TN, 38103","Match","Exact","516 TENNESSEE ST, MEMPHIS, TN, 38103",634264034,"R"
235405,"516 TUMBLEWEED DRIVE","FORNEY","TX",75126,32.763147517,-96.457467368,405,"516 TUMBLEWEED DRIVE, FORNEY, TX, 75126","Match","Exact","516 TUMBLEWEED DR, FORNEY, TX, 75126",614178152,"L"
235406,"516 TUNNEL ST","CEDAR HILL","TX",75104,32.564402237,-96.950877916,406,"516 TUNNEL ST, CEDAR HILL, TX, 75104","Match","Exact","516 TUNNEL ST, CEDAR HILL, TX, 75104",646789189,"L"
235407,"516 VALLEY HILL RD","BENTON","AR",72019,34.6359549790001,-92.595339963,407,"516 VALLEY HILL RD, BENTON, AR, 72019","Match","Exact","516 VALLEY HILL RD, BENTON, AR, 72019",624260091,"R"
235408,"516 VEROT SCHOOL ROAD","LAFAYETTE","LA",70508,30.1735272060001,-92.0105531149999,408,"516 VEROT SCHOOL ROAD, LAFAYETTE, LA, 70508","Match","Exact","516 VEROT SCHOOL RD, LAFAYETTE, LA, 70508",85645088,"R"
235409,"516 W 128TH ST","CHICAGO","IL",60628,41.6614922420001,-87.633822577,409,"516 W 128TH ST, CHICAGO, IL, 60628","Match","Exact","516 W 128TH ST, CHICAGO, IL, 60628",605514060,"R"
235410,"516 W 4TH ST","BIRDSBORO","PA",17508,40.2624579160001,-75.816757493,410,"516 W 4TH ST, BIRDSBORO, PA, 17508","Match","Non_Exact","516 W 4TH ST, BIRDSBORO, PA, 19508",80386647,"R"
235411,"516 W OAKRIDGE ST","FERNDALE","MI",48220,42.4674219510001,-83.145323302,411,"516 W OAKRIDGE ST, FERNDALE, MI, 48220","Match","Exact","516 W OAKRIDGE ST, FERNDALE, MI, 48220",630386208,"R"
235412,"516 W PEELER ST","SALISBURY","NC",28146,35.6101645430001,-80.453735517,412,"516 W PEELER ST, SALISBURY, NC, 28146","Match","Exact","516 W PEELER ST, SALISBURY, NC, 28146",652849327,"L"
235413,"516 W SHAW AVENUE SUITE 200","FRESNO","CA",93704,36.80842898,-119.801934657,413,"516 W SHAW AVENUE SUITE 200, FRESNO, CA, 93704","Match","Non_Exact","516 W SHAW AVE, FRESNO, CA, 93704",197573839,"R"
235414,"516 WALNUT STREET","HOLLIDAYSBURG","PA",16648,40.43125171,-78.392250369,414,"516 WALNUT STREET, HOLLIDAYSBURG, PA, 16648","Match","Exact","516 WALNUT ST, HOLLIDAYSBURG, PA, 16648",49714846,"R"
235415,"516 WALNUT STREET","PETALUMA","CA",94952,38.238715175,-122.648202599,415,"516 WALNUT STREET, PETALUMA, CA, 94952","Match","Exact","516 WALNUT ST, PETALUMA, CA, 94952",67477527,"L"
235416,"516 WARREN AVENUE","SPRING LAKE","NJ",7762,40.1513392730001,-74.034038256,416,"516 WARREN AVENUE, SPRING LAKE, NJ, 7762","Match","Exact","516 WARREN AVE, SPRING LAKE, NJ, 07762",90459368,"R"
235417,"516 WEST BEECH ST","LONG BEACH","NY",11561,40.5860827590001,-73.6790788129999,417,"516 WEST BEECH ST, LONG BEACH, NY, 11561","Match","Exact","516 W BEECH ST, LONG BEACH, NY, 11561",645738719,"L"
235418,"516 WEST FULTON STREET","CANTON","MS",39046,32.6113539780001,-90.041326598,418,"516 WEST FULTON STREET, CANTON, MS, 39046","Match","Exact","516 W FULTON ST, CANTON, MS, 39046",152476338,"L"
235419,"516 WEST GAINES","MONTICELLO","AR",71655,33.629295401,-91.796707305,419,"516 WEST GAINES, MONTICELLO, AR, 71655","Match","Non_Exact","516 W GAINES AVE, MONTICELLO, AR, 71655",635383916,"R"
235420,"516 WEST SHAW AVE SUITE 200","FRESNO","CA",93704,36.808429039,-119.80191387,420,"516 WEST SHAW AVE SUITE 200, FRESNO, CA, 93704","Match","Exact","516 W SHAW AVE, FRESNO, CA, 93704",197573839,"R"
235421,"516 WOOD ROAD","ROCKFORD","IL",61107,42.272465487,-89.033907299,421,"516 WOOD ROAD, ROCKFORD, IL, 61107","Match","Exact","516 WOOD RD, ROCKFORD, IL, 61107",49262161,"L"
235422,"516 WREN DR","CLARKSVILLE","TN",37040,36.582238325,-87.318574128,422,"516 WREN DR, CLARKSVILLE, TN, 37040","Match","Exact","516 WREN DR, CLARKSVILLE, TN, 37040",31815752,"L"
235423,"516-A JEFFERIC BLVD","DOVER","DE",19901,39.1781627500001,-75.52580826,423,"516-A JEFFERIC BLVD, DOVER, DE, 19901","Match","Exact","516 JEFFERIC BLVD, DOVER, DE, 19901",635420482,"L"
235424,"516-D RIVER HWY BOX 222","MOORESVILLE","NC",28117,35.595117176,-80.869076344,424,"516-D RIVER HWY BOX 222, MOORESVILLE, NC, 28117","Match","Exact","516 RIVER HWY, MOORESVILLE, NC, 28117",46018976,"R"
235425,"516","SAVANNAH","GA",31401,NA,NA,425,"516, SAVANNAH, GA, 31401","No_Match",NA,NA,NA,NA
235426,"5160 CHASE STREET","DENVER","CO",80212,39.7900033880001,-105.0566263,426,"5160 CHASE STREET, DENVER, CO, 80212","Match","Exact","5160 CHASE ST, DENVER, CO, 80212",177298155,"R"
235427,"5160 E 65TH STREET STREET","INDIANAPOLIS","IN",46220,39.8759713640001,-86.082850972,427,"5160 E 65TH STREET STREET, INDIANAPOLIS, IN, 46220","Match","Non_Exact","5160 E 65TH ST, INDIANAPOLIS, IN, 46220",107995877,"L"
235428,"5160 E BELGRAVIA AVE","FRESNO","CA",93725,36.716674594,-119.722274619,428,"5160 E BELGRAVIA AVE, FRESNO, CA, 93725","Match","Exact","5160 E BELGRAVIA AVE, FRESNO, CA, 93725",197614730,"R"
235429,"5160 GOLDEN HILLS COURT","COLORADO SPRINGS","CO",80919,38.906509328,-104.842713432,429,"5160 GOLDEN HILLS COURT, COLORADO SPRINGS, CO, 80919","Match","Exact","5160 GOLDEN HILLS CT, COLORADO SPRINGS, CO, 80919",105512036,"R"
235430,"5160 INDEPENDENCE DR","PLEASANTON","CA",94566,37.647117456,-121.869322639,430,"5160 INDEPENDENCE DR, PLEASANTON, CA, 94566","Match","Exact","5160 INDEPENDENCE DR, PLEASANTON, CA, 94566",125077087,"L"
235431,"5160 MELROSE BLVD","BATON ROUGE","LA",70806,30.453310523,-91.1365032319999,431,"5160 MELROSE BLVD, BATON ROUGE, LA, 70806","Match","Exact","5160 MELROSE BLVD, BATON ROUGE, LA, 70806",606173759,"R"
235432,"5160 NW MILNER DRIVE","PORT ST LUCIE","FL",34983,27.3727429850001,-80.3789145549999,432,"5160 NW MILNER DRIVE, PORT ST LUCIE, FL, 34983","Match","Exact","5160 NW MILNER DR, PORT ST LUCIE, FL, 34983",610728606,"R"
235433,"5160 OAK BAYOU AVENUE","MARRERO","LA",70072,29.8701202450001,-90.104382443,433,"5160 OAK BAYOU AVENUE, MARRERO, LA, 70072","Match","Exact","5160 OAK BAYOU AVE, MARRERO, LA, 70072",93532882,"L"
235434,"5160 OVERLAND RD","VIRGINIA BEACH","VA",23462,36.8343299060001,-76.16159809,434,"5160 OVERLAND RD, VIRGINIA BEACH, VA, 23462","Match","Exact","5160 OVERLAND RD, VA BCH, VA, 23462",122263014,"R"
235435,"5160 S CARPENTER RD","MODESTO","CA",95358,37.5628257540001,-121.030163657,435,"5160 S CARPENTER RD, MODESTO, CA, 95358","Match","Exact","5160 S CARPENTER RD, MODESTO, CA, 95358",102592883,"L"
235436,"5160 SAN NICHOLAS STREET","VENTURA","CA",93001,NA,NA,436,"5160 SAN NICHOLAS STREET, VENTURA, CA, 93001","No_Match",NA,NA,NA,NA
235437,"5160 SOUTH WEST 8TH STREET","MARGATE","FL",33068,NA,NA,437,"5160 SOUTH WEST 8TH STREET, MARGATE, FL, 33068","No_Match",NA,NA,NA,NA
235438,"5160 SQUAWROOT COURT","INDIAN HEAD","MD",20640,38.569759205,-77.112361687,438,"5160 SQUAWROOT COURT, INDIAN HEAD, MD, 20640","Match","Non_Exact","5160 SQAWROOT CT, INDIAN HEAD, MD, 20640",642675538,"L"
235439,"5160 SW 40TH AVE  APT 7D","FT LAUDERDALE","FL",33314,26.0578375800001,-80.200641562,439,"5160 SW 40TH AVE  APT 7D, FT LAUDERDALE, FL, 33314","Match","Non_Exact","5160 SW 40TH AVE, FORT LAUDERDALE, FL, 33314",652507177,"L"
235440,"5160 SW 89TH TERRACE","COOPER CITY","FL",33328,26.055850875,-80.266604894,440,"5160 SW 89TH TERRACE, COOPER CITY, FL, 33328","Match","Exact","5160 SW 89TH TER, COOPER CITY, FL, 33328",608971989,"L"
235441,"5160 TALLOWOOD WAY","NAPLES","FL",34116,26.2066043570001,-81.7109970399999,441,"5160 TALLOWOOD WAY, NAPLES, FL, 34116","Match","Exact","5160 TALLOWOOD WAY, NAPLES, FL, 34116",115134676,"R"
235442,"5160 VAN NUYS BLVD  592","SHERMAN OAKS","CA",91403,34.164489492,-118.448690159,442,"5160 VAN NUYS BLVD  592, SHERMAN OAKS, CA, 91403","Match","Exact","5160 VAN NUYS BLVD, SHERMAN OAKS, CA, 91403",141561506,"R"
235443,"5161 ADAMS RD","DELRAY BEACH","FL",33484,26.4533397120001,-80.1254790579999,443,"5161 ADAMS RD, DELRAY BEACH, FL, 33484","Match","Exact","5161 ADAMS RD, DELRAY BEACH, FL, 33484",115523270,"L"
235444,"5161 E 171ST STREET SOUTH","BIXBY","OK",74008,35.91565604,-95.920886941,444,"5161 E 171ST STREET SOUTH, BIXBY, OK, 74008","Match","Exact","5161 E 171ST ST S, BIXBY, OK, 74008",166518235,"L"
235445,"5161 KOHI STREET  UNIT D","LAHAINA","HI",95651,20.9855186400001,-156.665185696,445,"5161 KOHI STREET  UNIT D, LAHAINA, HI, 95651","Match","Non_Exact","5161 KOHI ST, LAHAINA, HI, 96761",634618661,"L"
235446,"5161 LANKERSHIM BLVD STE 250","NORTH HOLLYWOOD","CA",91601,34.164325951,-118.374291186,446,"5161 LANKERSHIM BLVD STE 250, NORTH HOLLYWOOD, CA, 91601","Match","Exact","5161 LANKERSHIM BLVD, N HOLLYWOOD, CA, 91601",141591633,"L"
235447,"5161 LANKERSHIM BLVD SUITE 250","NORTH HOLLYWOOD","CA",91601,34.164325951,-118.374291186,447,"5161 LANKERSHIM BLVD SUITE 250, NORTH HOLLYWOOD, CA, 91601","Match","Exact","5161 LANKERSHIM BLVD, N HOLLYWOOD, CA, 91601",141591633,"L"
235448,"5161 PICKWICK STREET","LOS ANGELES","CA",90019,NA,NA,448,"5161 PICKWICK STREET, LOS ANGELES, CA, 90019","No_Match",NA,NA,NA,NA
235449,"5161 POMONA BLVD STE 108","LOS ANGELES","CA",90022,34.033390604,-118.153900444,449,"5161 POMONA BLVD STE 108, LOS ANGELES, CA, 90022","Match","Exact","5161 POMONA BLVD, LOS ANGELES, CA, 90022",142737755,"L"
235450,"5161 POMONA BLVD STE 213","LOS ANGELES","CA",90022,34.033390604,-118.153900444,450,"5161 POMONA BLVD STE 213, LOS ANGELES, CA, 90022","Match","Exact","5161 POMONA BLVD, LOS ANGELES, CA, 90022",142737755,"L"
235451,"5161 RUMMELS ROAD","CONOVER","WI",54519,46.09316139,-89.2763824,451,"5161 RUMMELS ROAD, CONOVER, WI, 54519","Match","Exact","5161 RUMMELS RD, CONOVER, WI, 54519",165543922,"L"
235452,"5161 WASHINGTON PLACE","SAINT LOUIS","MO",63108,38.6509620360001,-90.268349217,452,"5161 WASHINGTON PLACE, SAINT LOUIS, MO, 63108","Match","Exact","5161 WASHINGTON PL, SAINT LOUIS, MO, 63108",107594211,"R"
235453,"5162 BRIGHTLEAF CT","ROSEDALE","MD",21237,39.3637444280001,-76.467354921,453,"5162 BRIGHTLEAF CT, ROSEDALE, MD, 21237","Match","Exact","5162 BRIGHTLEAF CT, ROSEDALE, MD, 21237",637436484,"L"
235454,"5162 E TASSELL LANE","JOPLIN","MO",64801,37.0663855970001,-94.423906915,454,"5162 E TASSELL LANE, JOPLIN, MO, 64801","Match","Exact","5162 E TASSELL LN, JOPLIN, MO, 64801",66162548,"L"
235455,"5162 LEWIS AVE","IDA","MI",48140,41.8759590340001,-83.572023343,455,"5162 LEWIS AVE, IDA, MI, 48140","Match","Exact","5162 LEWIS AVE, IDA, MI, 48140",40476970,"L"
235456,"5162 LEXINGTON","ST LOUIS","MO",63115,38.6762813140001,-90.256402523,456,"5162 LEXINGTON, ST LOUIS, MO, 63115","Match","Non_Exact","5162 LEXINGTON AVE, SAINT LOUIS, MO, 63115",107595307,"L"
235457,"5162 PALM WAY","LAKE WORTH","FL",33463,26.561819929,-80.127698126,457,"5162 PALM WAY, LAKE WORTH, FL, 33463","Match","Exact","5162 PALM WAY, LAKE WORTH, FL, 33463",115285596,"R"
235458,"5162 PATONIA AVENUE","DALLAS","TX",75241,32.6840587780001,-96.7916138909999,458,"5162 PATONIA AVENUE, DALLAS, TX, 75241","Match","Exact","5162 PATONIA AVE, DALLAS, TX, 75241",102952350,"L"
235459,"5162 PRIVATE ROAD 2504","CADDO MILLS","TX",75135,NA,NA,459,"5162 PRIVATE ROAD 2504, CADDO MILLS, TX, 75135","No_Match",NA,NA,NA,NA
235460,"5163 LUPINE LANE","ACWORTH","GA",30102,34.069850855,-84.572736659,460,"5163 LUPINE LANE, ACWORTH, GA, 30102","Match","Exact","5163 LUPINE LN, ACWORTH, GA, 30102",17195482,"L"
235461,"5163 MCPERSON COVE","MEMPHIS","TN",38116,NA,NA,461,"5163 MCPERSON COVE, MEMPHIS, TN, 38116","No_Match",NA,NA,NA,NA
235462,"5163 RUTLEDGE DR  N","COLUMBUS","OH",43232,39.913908383,-82.8592148669999,462,"5163 RUTLEDGE DR  N, COLUMBUS, OH, 43232","Match","Exact","5163 RUTLEDGE DR N, COLUMBUS, OH, 43232",218677007,"R"
235463,"5163 US ROUTE 11 N","PULASKI","NY",13142,NA,NA,463,"5163 US ROUTE 11 N, PULASKI, NY, 13142","No_Match",NA,NA,NA,NA
235464,"5163 VILLAGE GREEN","LOS ANGELES","CA",90016,NA,NA,464,"5163 VILLAGE GREEN, LOS ANGELES, CA, 90016","No_Match",NA,NA,NA,NA
235465,"5164 BALSAM ST","COLORADO SPRINGS","CO",80923,38.923980058,-104.730142743,465,"5164 BALSAM ST, COLORADO SPRINGS, CO, 80923","Match","Exact","5164 BALSAM ST, COLORADO SPRINGS, CO, 80923",647966132,"L"
235466,"5164 E PONCE DE LEON AVE APT X","STONE MOUNTAIN","GA",30083,NA,NA,466,"5164 E PONCE DE LEON AVE APT X, STONE MOUNTAIN, GA, 30083","No_Match",NA,NA,NA,NA
235467,"5164 IMPERIAL DRIVE","RICHTON PARK","IL",60471,41.4774845520001,-87.741230124,467,"5164 IMPERIAL DRIVE, RICHTON PARK, IL, 60471","Match","Exact","5164 IMPERIAL DR, RICHTON PARK, IL, 60471",111708079,"R"
235468,"5164 RAPAHOE TRAIL","ATLANTA","GA",30349,33.621198947,-84.553032377,468,"5164 RAPAHOE TRAIL, ATLANTA, GA, 30349","Match","Exact","5164 RAPAHOE TRL, ATLANTA, GA, 30349",643352276,"R"
235469,"5164 SIMMONS BRANCH TRAIL","RALEIGH","NC",27606,35.779045834,-78.719661354,469,"5164 SIMMONS BRANCH TRAIL, RALEIGH, NC, 27606","Match","Exact","5164 SIMMONS BRANCH TRL, RALEIGH, NC, 27606",612816947,"R"
235470,"5164 VILLAGE CREEK DRIVE SUITE 300","PLANO","TX",75093,33.01441111,-96.8037857049999,470,"5164 VILLAGE CREEK DRIVE SUITE 300, PLANO, TX, 75093","Match","Exact","5164 VILLAGE CREEK DR, PLANO, TX, 75093",210473760,"L"
235471,"5165 ASHLAND AVE","SAINT LOUIS","MO",63115,38.675599549,-90.257032055,471,"5165 ASHLAND AVE, SAINT LOUIS, MO, 63115","Match","Exact","5165 ASHLAND AVE, SAINT LOUIS, MO, 63115",605100234,"R"
235472,"5165 CLEVELAND RD","DELRAY BEACH","FL",33484,26.447139083,-80.12494577,472,"5165 CLEVELAND RD, DELRAY BEACH, FL, 33484","Match","Exact","5165 CLEVELAND RD, DELRAY BEACH, FL, 33484",115290181,"R"
235473,"5165 E 74TH PLACE","INDIANAPOLIS","IN",46250,39.888524252,-86.0827198869999,473,"5165 E 74TH PLACE, INDIANAPOLIS, IN, 46250","Match","Exact","5165 E 74TH PL, INDIANAPOLIS, IN, 46250",107994984,"R"
235474,"5165 E KACHINA ST","DAVIS MONTHAN AFB","AZ",85707,32.1789992660001,-110.874317635,474,"5165 E KACHINA ST, DAVIS MONTHAN AFB, AZ, 85707","Match","Exact","5165 KACHINA ST, DAVIS MONTHAN AFB, AZ, 85707",121181490,"R"
235475,"5165 MAYBURY PLACE","COLUMBUS","OH",43232,39.9238666420001,-82.853175506,475,"5165 MAYBURY PLACE, COLUMBUS, OH, 43232","Match","Exact","5165 MAYBURY PL, COLUMBUS, OH, 43232",135596843,"R"
235476,"5165 MILLWOOD RD","SAN DIEGO","CA",92117,32.839700857,-117.194891328,476,"5165 MILLWOOD RD, SAN DIEGO, CA, 92117","Match","Exact","5165 MILLWOOD RD, SAN DIEGO, CA, 92117",195304606,"R"
235477,"5165 MT ZOAR LATHAM RD","HOPKINSVILLE","KY",42240,NA,NA,477,"5165 MT ZOAR LATHAM RD, HOPKINSVILLE, KY, 42240","No_Match",NA,NA,NA,NA
235478,"5165 N SHERMAN APT 5","MILWAUKEE","WI",53209,NA,NA,478,"5165 N SHERMAN APT 5, MILWAUKEE, WI, 53209","No_Match",NA,NA,NA,NA
235479,"5165 ROSEWOOD PL","FAIRBURN","GA",30213,33.6113973880001,-84.594376907,479,"5165 ROSEWOOD PL, FAIRBURN, GA, 30213","Match","Exact","5165 ROSEWOOD PL, FAIRBURN, GA, 30213",629830590,"L"
235480,"5165 STEUBEN DR","MEMPHIS","TN",38134,35.219240986,-89.891243941,480,"5165 STEUBEN DR, MEMPHIS, TN, 38134","Match","Exact","5165 STEUBEN DR, MEMPHIS, TN, 38134",72923587,"R"
235481,"5165 TURNBERRY LANE","LAS VEGAS","NV",89113,36.0949904350001,-115.260437718,481,"5165 TURNBERRY LANE, LAS VEGAS, NV, 89113","Match","Exact","5165 TURNBERRY LN, LAS VEGAS, NV, 89113",201861749,"R"
235482,"5165 W ROSS DR","CHANDLER","AZ",85226,33.318878264,-111.931149104,482,"5165 W ROSS DR, CHANDLER, AZ, 85226","Match","Exact","5165 W ROSS DR, CHANDLER, AZ, 85226",128777550,"R"
235483,"5165 WATERMAN BLVD APT B","SAINT LOUIS","MO",63108,38.6486817630001,-90.26892183,483,"5165 WATERMAN BLVD APT B, SAINT LOUIS, MO, 63108","Match","Exact","5165 WATERMAN BLVD, SAINT LOUIS, MO, 63108",618275780,"R"
235484,"5165 WESTERN ROW ROAD","MASON","OH",45040,NA,NA,484,"5165 WESTERN ROW ROAD, MASON, OH, 45040","No_Match",NA,NA,NA,NA
235485,"5165 WOODGATE WAY","MARIANNA","FL",32446,30.767032521,-85.162850866,485,"5165 WOODGATE WAY, MARIANNA, FL, 32446","Match","Exact","5165 WOODGATE WAY, MARIANNA, FL, 32446",637642236,"L"
235486,"51657 U S HIGHWAY 93","POLSON","MT",59860,NA,NA,486,"51657 U S HIGHWAY 93, POLSON, MT, 59860","No_Match",NA,NA,NA,NA
235487,"5166 A MINUTEMAN DR","CHEYENNE","WY",82001,41.1347442860001,-104.861707745,487,"5166 A MINUTEMAN DR, CHEYENNE, WY, 82001","Match","Exact","5166 MINUTEMAN DR, CHEYENNE, WY, 82001",652030666,"R"
235488,"5166 NE WISTARIA DRIVE","PORTLAND","OR",97213,45.54129765,-122.609659409,488,"5166 NE WISTARIA DRIVE, PORTLAND, OR, 97213","Match","Exact","5166 NE WISTARIA DR, PORTLAND, OR, 97213",157533904,"R"
235489,"5166 NW 125TH AVE","CORAL SPRINGS","FL",33076,26.2947510770001,-80.294646082,489,"5166 NW 125TH AVE, CORAL SPRINGS, FL, 33076","Match","Exact","5166 NW 125TH AVE, CORAL SPRINGS, FL, 33076",114799425,"R"
235490,"5166 TALLOW LANE","BOSSIER CITY","LA",71111,32.6033308300001,-93.7060143049999,490,"5166 TALLOW LANE, BOSSIER CITY, LA, 71111","Match","Exact","5166 TALLOW LN, BOSSIER CITY, LA, 71111",108530375,"R"
235491,"5167 TRISTAN WAY","CATLETTSBURG","KY",41129,38.407420551,-82.647817875,491,"5167 TRISTAN WAY, CATLETTSBURG, KY, 41129","Match","Exact","5167 TRISTAN WAY, CATLETTSBURG, KY, 41129",635230870,"L"
235492,"5167 TRISTIN WAY","CATLETTSBURG","KY",41129,38.407420551,-82.647817875,492,"5167 TRISTIN WAY, CATLETTSBURG, KY, 41129","Match","Non_Exact","5167 TRISTAN WAY, CATLETTSBURG, KY, 41129",635230870,"L"
235493,"5168 ASHLEY DR SE","COVINGTON","GA",30014,33.590337962,-83.847272059,493,"5168 ASHLEY DR SE, COVINGTON, GA, 30014","Match","Exact","5168 ASHLEY DR SE, COVINGTON, GA, 30014",23620310,"L"
235494,"5168 CHEVY CHASE DR","HOUSTON","TX",77056,29.746070848,-95.466413931,494,"5168 CHEVY CHASE DR, HOUSTON, TX, 77056","Match","Exact","5168 CHEVY CHASE DR, HOUSTON, TX, 77056",650079865,"R"
235495,"5168 CIVIC CENTER DRIVE","WATERFORD","MI",48329,42.66995632,-83.3885937749999,495,"5168 CIVIC CENTER DRIVE, WATERFORD, MI, 48329","Match","Exact","5168 CIVIC CENTER DR, WATERFORD, MI, 48329",69695967,"L"
235496,"5168 CONROY RD UNIT 1636","ORLANDO","FL",32811,28.4960105760001,-81.44863464,496,"5168 CONROY RD UNIT 1636, ORLANDO, FL, 32811","Match","Exact","5168 CONROY RD, ORLANDO, FL, 32811",611224782,"L"
235497,"5168 OSCEOLA DRIVE","DAYTON","OH",45417,39.765423721,-84.276691344,497,"5168 OSCEOLA DRIVE, DAYTON, OH, 45417","Match","Exact","5168 OSCEOLA DR, DAYTON, OH, 45417",143562932,"L"
235498,"5168 ROSEWOOD PL","FAIRBURN","GA",30213,33.6113636480001,-84.594301081,498,"5168 ROSEWOOD PL, FAIRBURN, GA, 30213","Match","Exact","5168 ROSEWOOD PL, FAIRBURN, GA, 30213",629830590,"R"
235499,"5168 ROUTE 430","DEWITTVILLE","NY",14728,NA,NA,499,"5168 ROUTE 430, DEWITTVILLE, NY, 14728","No_Match",NA,NA,NA,NA
235500,"5168 SAVANNAH ST","RAPID CITY","SD",57703,44.0581598200001,-103.134894739,500,"5168 SAVANNAH ST, RAPID CITY, SD, 57703","Match","Exact","5168 SAVANNAH ST, RAPID CITY, SD, 57703",625749800,"R"
