"ID","Address","City","State","Zip","lat","long","id","input_address","match_indicator","match_type","matched_address","tiger_line_id","tiger_side"
183001,"3504 W CATON AVENUE","BALTIMORE","MD",21229,39.2873058870001,-76.675010704,1,"3504 W CATON AVENUE, BALTIMORE, MD, 21229","Match","Exact","3504 W CATON AVE, BALTIMORE, MD, 21229",206433221,"R"
183002,"3504 WESTRIDGE DR","LAWRENCE","KS",66049,38.972137618,-95.2814070429999,2,"3504 WESTRIDGE DR, LAWRENCE, KS, 66049","Match","Exact","3504 WESTRIDGE DR, LAWRENCE, KS, 66049",17715338,"L"
183003,"3504 WEXFORD DR","LOUISVILLE","KY",40218,38.2009445800001,-85.674683411,3,"3504 WEXFORD DR, LOUISVILLE, KY, 40218","Match","Exact","3504 WEXFORD DR, LOUISVILLE, KY, 40218",640115596,"R"
183004,"3504 WEYMEYER DRIVE","COLUMBIA","MO",65202,39.002927721,-92.284612372,4,"3504 WEYMEYER DRIVE, COLUMBIA, MO, 65202","Match","Exact","3504 WEYMEYER DR, COLUMBIA, MO, 65202",23481983,"R"
183005,"3504 WINDY J FARMS","LOUISVILLE","TN",37777,35.811524934,-84.1071926229999,5,"3504 WINDY J FARMS, LOUISVILLE, TN, 37777","Match","Exact","3504 WINDY J FARMS, LOUISVILLE, TN, 37777",635849956,"L"
183006,"3505 28TH ST S","LA CROSSE","WI",54601,43.772727333,-91.21449323,6,"3505 28TH ST S, LA CROSSE, WI, 54601","Match","Exact","3505 28TH ST S, LA CROSSE, WI, 54601",51014128,"L"
183007,"3505 30TH AVENUE","KENOSHA","WI",53144,42.6077005400001,-87.8457819119999,7,"3505 30TH AVENUE, KENOSHA, WI, 53144","Match","Exact","3505 30TH AVE, KENOSHA, WI, 53144",79819672,"L"
183008,"3505 5TH AVE SUITE B","LAKE CHARLES","LA",70607,30.1948935400001,-93.189301433,8,"3505 5TH AVE SUITE B, LAKE CHARLES, LA, 70607","Match","Exact","3505 5TH AVE, LAKE CHARLES, LA, 70607",653310744,"L"
183009,"3505 5TH STREET EAST","BRADENTON","FL",34208,27.4688667830001,-82.558911553,9,"3505 5TH STREET EAST, BRADENTON, FL, 34208","Match","Exact","3505 5TH ST E, BRADENTON, FL, 34208",629656892,"L"
183010,"3505 80TH ST","URBANDALE","IA",50322,41.6268462370001,-93.727496251,10,"3505 80TH ST, URBANDALE, IA, 50322","Match","Exact","3505 80TH ST, URBANDALE, IA, 50322",65855073,"L"
183011,"3505 ADKISSON DRIVE NW STE 156","CLEVELAND","NE",37312,NA,NA,11,"3505 ADKISSON DRIVE NW STE 156, CLEVELAND, NE, 37312","No_Match",NA,NA,NA,NA
183012,"3505 BRAINERD RD STE 4","CHATTANOOGA","TN",37411,35.025641599,-85.2485330329999,12,"3505 BRAINERD RD STE 4, CHATTANOOGA, TN, 37411","Match","Exact","3505 BRAINERD RD, CHATTANOOGA, TN, 37411",59309858,"L"
183013,"3505 BROOK ROAD","RICHMOND","VA",23227,37.5803907330001,-77.450338932,13,"3505 BROOK ROAD, RICHMOND, VA, 23227","Match","Exact","3505 BROOK RD, RICHMOND, VA, 23227",632942029,"R"
183014,"3505 CARLTON DR","CEDAR FALLS","IA",50613,42.506702509,-92.430051097,14,"3505 CARLTON DR, CEDAR FALLS, IA, 50613","Match","Exact","3505 CARLTON DR, CEDAR FALLS, IA, 50613",77249342,"R"
183015,"3505 CERRO VISTA ST SW","HUNTSVILLE","AL",35805,34.7012669160001,-86.6239125819999,15,"3505 CERRO VISTA ST SW, HUNTSVILLE, AL, 35805","Match","Non_Exact","3505 CERRO VISTA DR SW, HUNTSVILLE, AL, 35805",58144784,"L"
183016,"3505 CLOUDY RIDGE RD","AUSTIN","TX",78734,30.3896087300001,-97.9192892739999,16,"3505 CLOUDY RIDGE RD, AUSTIN, TX, 78734","Match","Exact","3505 CLOUDY RIDGE RD, AUSTIN, TX, 78734",63923842,"R"
183017,"3505 COYLE STREET","HOUSTON","TX",77003,29.7376524270001,-95.347282541,17,"3505 COYLE STREET, HOUSTON, TX, 77003","Match","Exact","3505 COYLE ST, HOUSTON, TX, 77003",96073566,"L"
183018,"3505 DANIEL BOONE PKWY - SUITE B","FOSTER","WV",25081,NA,NA,18,"3505 DANIEL BOONE PKWY - SUITE B, FOSTER, WV, 25081","No_Match",NA,NA,NA,NA
183019,"3505 DEPEW AVE","PORT CHARLOTTE","FL",33952,26.975432116,-82.086850709,19,"3505 DEPEW AVE, PORT CHARLOTTE, FL, 33952","Match","Exact","3505 DEPEW AVE, PORT CHARLOTTE, FL, 33952",4305653,"R"
183020,"3505 DEPEW AVENUE","PORT CHARLOTTE","FL",33952,26.975432116,-82.086850709,20,"3505 DEPEW AVENUE, PORT CHARLOTTE, FL, 33952","Match","Exact","3505 DEPEW AVE, PORT CHARLOTTE, FL, 33952",4305653,"R"
183021,"3505 DOUBLEWOOD DRIVE","LONGVIEW","TX",75604,32.546164467,-94.801111636,21,"3505 DOUBLEWOOD DRIVE, LONGVIEW, TX, 75604","Match","Exact","3505 DOUBLEWOOD DR, LONGVIEW, TX, 75604",630318498,"R"
183022,"3505 E MADISON STREET","SIOUX FALLS","SD",57103,43.558470205,-96.683025232,22,"3505 E MADISON STREET, SIOUX FALLS, SD, 57103","Match","Exact","3505 E MADISON ST, SIOUX FALLS, SD, 57103",618469470,"R"
183023,"3505 EL CAMINO REAL","PALO ALTO","CA",94306,37.4192123440001,-122.134423649,23,"3505 EL CAMINO REAL, PALO ALTO, CA, 94306","Match","Exact","3505 EL CAMINO REAL, PALO ALTO, CA, 94306",618161033,"R"
183024,"3505 ELM AVENUE","BALTIMORE","MD",21211,39.3305932210001,-76.631177078,24,"3505 ELM AVENUE, BALTIMORE, MD, 21211","Match","Exact","3505 ELM AVE, BALTIMORE, MD, 21211",636217092,"R"
183025,"3505 FIVE IRON CT","HAMPTON","GA",30228,33.464385108,-84.264143636,25,"3505 FIVE IRON CT, HAMPTON, GA, 30228","Match","Exact","3505 FIVE IRON CT, HAMPTON, GA, 30228",619919145,"L"
183026,"3505 GOLF VIEW DRIVE","NORFOLK","NE",68701,42.0539134460001,-97.462570784,26,"3505 GOLF VIEW DRIVE, NORFOLK, NE, 68701","Match","Exact","3505 GOLF VIEW DR, NORFOLK, NE, 68701",161580082,"R"
183027,"3505 HAYMAN DR","GARLAND","TX",75043,32.8569313470001,-96.579125623,27,"3505 HAYMAN DR, GARLAND, TX, 75043","Match","Exact","3505 HAYMAN DR, GARLAND, TX, 75043",103239862,"L"
183028,"3505 IOWA AVE FL 1","SAINT LOUIS","MO",63118,38.5916975310001,-90.2292890749999,28,"3505 IOWA AVE FL 1, SAINT LOUIS, MO, 63118","Match","Exact","3505 IOWA AVE, SAINT LOUIS, MO, 63118",107602330,"R"
183029,"3505 KOGER BLVD SUITE 275","DULUTH","GA",30096,33.9492623420001,-84.122157896,29,"3505 KOGER BLVD SUITE 275, DULUTH, GA, 30096","Match","Exact","3505 KOGER BLVD, DULUTH, GA, 30096",648404774,"R"
183030,"3505 LAKE LYNDA DR","ORLANDO","FL",32817,28.6004382450001,-81.222307982,30,"3505 LAKE LYNDA DR, ORLANDO, FL, 32817","Match","Exact","3505 LAKE LYNDA DR, ORLANDO, FL, 32817",94394074,"R"
183031,"3505 LAKE LYNDA DRIVE SUITE 200","ORLANDO","FL",32817,28.6004382450001,-81.222307982,31,"3505 LAKE LYNDA DRIVE SUITE 200, ORLANDO, FL, 32817","Match","Exact","3505 LAKE LYNDA DR, ORLANDO, FL, 32817",94394074,"R"
183032,"3505 LAND OAKS D APT 204","TAMPA","FL",33624,28.111263163,-82.5052319,32,"3505 LAND OAKS D APT 204, TAMPA, FL, 33624","Match","Non_Exact","3505 LAND OAKS DR, TAMPA, FL, 33624",104579458,"R"
183033,"3505 LARUE PROSPECT RD SOUTH","PROSPECT","OH",43342,40.520025515,-83.189868912,33,"3505 LARUE PROSPECT RD SOUTH, PROSPECT, OH, 43342","Match","Exact","3505 LARUE PROSPECT RD S, PROSPECT, OH, 43342",12714569,"L"
183034,"3505 LAZY CREEK ROAD","LANESVILLE","IN",47136,38.251897978,-85.98756308,34,"3505 LAZY CREEK ROAD, LANESVILLE, IN, 47136","Match","Non_Exact","3505 LAZY CREEK RD NE, LANESVILLE, IN, 47136",639972599,"L"
183035,"3505 MAIN LODGE DRIVE","MIAMI","FL",33133,25.724432881,-80.2430457789999,35,"3505 MAIN LODGE DRIVE, MIAMI, FL, 33133","Match","Exact","3505 MAIN LODGE DR, MIAMI, FL, 33133",116085421,"R"
183036,"3505 MERRY OAKS LANE","DALLAS","NC",28034,35.341680867,-81.227080417,36,"3505 MERRY OAKS LANE, DALLAS, NC, 28034","Match","Exact","3505 MERRY OAKS LN, DALLAS, NC, 28034",70457602,"L"
183037,"3505 MYERS CT","JACKSON","MI",49203,42.224557228,-84.35046197,37,"3505 MYERS CT, JACKSON, MI, 49203","Match","Exact","3505 MYERS CT, JACKSON, MI, 49203",17620182,"R"
183038,"3505 N HIGH POINT ST","WICHITA","KS",67205,37.7477163980001,-97.44281051,38,"3505 N HIGH POINT ST, WICHITA, KS, 67205","Match","Exact","3505 HIGH POINT ST, WICHITA, KS, 67205",627650028,"L"
183039,"3505 N MUSTANG ST","LAS VEGAS","NV",89108,NA,NA,39,"3505 N MUSTANG ST, LAS VEGAS, NV, 89108","Tie",NA,NA,NA,NA
183040,"3505 NE 59TH ST","VANCOUVER","WA",98661,45.6648036550001,-122.63605274,40,"3505 NE 59TH ST, VANCOUVER, WA, 98661","Match","Exact","3505 NE 59TH ST, VANCOUVER, WA, 98661",158326351,"R"
183041,"3505 NEUMA DRIVE","ZEBULON","NC",27597,35.879409164,-78.330732153,41,"3505 NEUMA DRIVE, ZEBULON, NC, 27597","Match","Exact","3505 NEUMA DR, ZEBULON, NC, 27597",612822655,"R"
183042,"3505 NW 29TH COURT","LAUDERDALE LAKES","FL",33311,26.162549174,-80.193033452,42,"3505 NW 29TH COURT, LAUDERDALE LAKES, FL, 33311","Match","Exact","3505 NW 29TH CT, LAUDERDALE LAKES, FL, 33311",615376304,"R"
183043,"3505 NW 82ND AVE UNIT A","DORAL","FL",33122,25.805796754,-80.3292366639999,43,"3505 NW 82ND AVE UNIT A, DORAL, FL, 33122","Match","Non_Exact","3505 NW 82ND AVE, DORAL, FL, 33122",647810878,"L"
183044,"3505 NW 84TH AVE","SUNRISE","FL",33351,26.1705790030001,-80.26264231,44,"3505 NW 84TH AVE, SUNRISE, FL, 33351","Match","Exact","3505 NW 84TH AVE, SUNRISE, FL, 33351",638980619,"L"
183045,"3505 OLD RENWICK TRAIL","JOLIET","IL",60435,41.586385512,-88.151229007,45,"3505 OLD RENWICK TRAIL, JOLIET, IL, 60435","Match","Exact","3505 OLD RENWICK TRL, JOLIET, IL, 60435",607935619,"R"
183046,"3505 ORCHID CT","ARLINGTON","TX",76016,32.6834127380001,-97.159677016,46,"3505 ORCHID CT, ARLINGTON, TX, 76016","Match","Exact","3505 ORCHID CT, ARLINGTON, TX, 76016",102120704,"L"
183047,"3505 PLEASANT VIEW DRIVE","JONESBORO","AK",72401,NA,NA,47,"3505 PLEASANT VIEW DRIVE, JONESBORO, AK, 72401","No_Match",NA,NA,NA,NA
183048,"3505 REMINGTON CT","VIRGINIA BEACH","VA",23453,36.7914380460001,-76.10767849,48,"3505 REMINGTON CT, VIRGINIA BEACH, VA, 23453","Match","Exact","3505 REMINGTON CT, VIRGINIA BCH, VA, 23453",122294247,"R"
183049,"3505 SAGE BRUSH PL","YUKON","OK",73099,35.505714676,-97.715254156,49,"3505 SAGE BRUSH PL, YUKON, OK, 73099","Match","Non_Exact","3505 SAGEBRUSH PL, YUKON, OK, 73099",648363774,"R"
183050,"3505 SCOTTWOOD RD","COLUMBUS","OH",43227,39.9398800120001,-82.901673143,50,"3505 SCOTTWOOD RD, COLUMBUS, OH, 43227","Match","Exact","3505 SCOTTWOOD RD, COLUMBUS, OH, 43227",218678781,"R"
183051,"3505 SE 182ND AVENUE","GRESHAM","OR",97030,45.497091723,-122.475568387,51,"3505 SE 182ND AVENUE, GRESHAM, OR, 97030","Match","Exact","3505 SE 182ND AVE, GRESHAM, OR, 97030",625047766,"R"
183052,"3505 SE 18ND AVE","GRESHAM","OR",97030,NA,NA,52,"3505 SE 18ND AVE, GRESHAM, OR, 97030","No_Match",NA,NA,NA,NA
183053,"3505 SHELBY GANGES RD","SHELBY","OH",44875,40.8972632360001,-82.6420224129999,53,"3505 SHELBY GANGES RD, SHELBY, OH, 44875","Match","Exact","3505 SHELBY GANGES RD, SHELBY, OH, 44875",207225973,"R"
183054,"3505 SONOMA BLVD SUITE 20-133","VALLEJO","CA",94590,38.122488606,-122.255337434,54,"3505 SONOMA BLVD SUITE 20-133, VALLEJO, CA, 94590","Match","Exact","3505 SONOMA BLVD, VALLEJO, CA, 94590",192570790,"L"
183055,"3505 SPRING ROSE WAY","SACRAMENTO CA","CA",95827,38.5561853680001,-121.340106626,55,"3505 SPRING ROSE WAY, SACRAMENTO CA, CA, 95827","Match","Non_Exact","3505 SPRING ROSE WAY, SACRAMENTO, CA, 95827",133435421,"L"
183056,"3505 TAYLOR ST","CHEVY CHASE","MD",20815,38.9812095440001,-77.069366293,56,"3505 TAYLOR ST, CHEVY CHASE, MD, 20815","Match","Exact","3505 TAYLOR ST, CHEVY CHASE, MD, 20815",62066869,"R"
183057,"3505 TUPELO DRIVE","WALNUT CREEK","CA",94598,37.9315265480001,-122.006713317,57,"3505 TUPELO DRIVE, WALNUT CREEK, CA, 94598","Match","Exact","3505 TUPELO DR, WALNUT CREEK, CA, 94598",192059340,"L"
183058,"3505 UNION STREET","DES MOINES","IA",50315,41.552794684,-93.616125407,58,"3505 UNION STREET, DES MOINES, IA, 50315","Match","Non_Exact","3505 S UNION ST, DES MOINES, IA, 50315",65786598,"L"
183059,"3505 W LOCUST STREET","DAVENPORT","IA",52804,41.5381480300001,-90.626854414,59,"3505 W LOCUST STREET, DAVENPORT, IA, 52804","Match","Exact","3505 W LOCUST ST, DAVENPORT, IA, 52804",122704820,"L"
183060,"3505 WASHINGTON AVE","DES MOINES","IA",50310,41.609485389,-93.664573022,60,"3505 WASHINGTON AVE, DES MOINES, IA, 50310","Match","Exact","3505 WASHINGTON AVE, DES MOINES, IA, 50310",65780367,"R"
183061,"3505 WEST HAMILTON AVENUE","NASHVILLE","TN",37218,36.207498608,-86.8367926349999,61,"3505 WEST HAMILTON AVENUE, NASHVILLE, TN, 37218","Match","Non_Exact","3505 W HAMILTON RD, NASHVILLE, TN, 37218",97178455,"L"
183062,"3505 WEST STONE DRIVE","WAKE FOREST","NC",27587,36.0345314840001,-78.561287614,62,"3505 WEST STONE DRIVE, WAKE FOREST, NC, 27587","Match","Exact","3505 W STONE DR, WAKE FOREST, NC, 27587",611855235,"L"
183063,"35058 YUCAIPA BLVD","YUCAIPA","CA",92399,34.0338835740001,-117.040289857,63,"35058 YUCAIPA BLVD, YUCAIPA, CA, 92399","Match","Exact","35058 YUCAIPA BLVD, YUCAIPA, CA, 92399",144668140,"L"
183064,"3506 16TH AVE S","MINNEAPOLIS","MN",55407,44.9393098240001,-93.2511893069999,64,"3506 16TH AVE S, MINNEAPOLIS, MN, 55407","Match","Exact","3506 16TH AVE S, MINNEAPOLIS, MN, 55407",43634847,"R"
183065,"3506 BARNSTAPLE DRIVE","TALLAHASSEE","FL",32317,30.458328033,-84.214633867,65,"3506 BARNSTAPLE DRIVE, TALLAHASSEE, FL, 32317","Match","Exact","3506 BARNSTAPLE DR, TALLAHASSEE, FL, 32317",82893706,"L"
183066,"3506 BRANDON YATES","SAN ANTONIO","TX",78217,29.537176935,-98.4364629579999,66,"3506 BRANDON YATES, SAN ANTONIO, TX, 78217","Match","Non_Exact","3506 BRANDON YATES CIR, SAN ANTONIO, TX, 78217",101546325,"L"
183067,"3506 BROAD OAK DRIVE","CHARLOTTE","NC",28273,35.144577009,-80.9630949369999,67,"3506 BROAD OAK DRIVE, CHARLOTTE, NC, 28273","Match","Exact","3506 BROAD OAK DR, CHARLOTTE, NC, 28273",70517326,"R"
183068,"3506 BROCKTON CT","JEFFERSON","MD",21755,39.3608305810001,-77.551528978,68,"3506 BROCKTON CT, JEFFERSON, MD, 21755","Match","Exact","3506 BROCKTON CT, JEFFERSON, MD, 21755",60732542,"L"
183069,"3506 CALEDONIA CIR","WOODBRIDGE","VA",22192,38.6894993120001,-77.315659801,69,"3506 CALEDONIA CIR, WOODBRIDGE, VA, 22192","Match","Exact","3506 CALEDONIA CIR, WOODBRIDGE, VA, 22192",207154602,"L"
183070,"3506 CANFIELD ST","HOUSTON","TX",77004,29.725373717,-95.352845863,70,"3506 CANFIELD ST, HOUSTON, TX, 77004","Match","Exact","3506 CANFIELD ST, HOUSTON, TX, 77004",96073412,"R"
183071,"3506 CHEROKEE AVENUE","SAN DIEGO","CA",92104,32.7428185370001,-117.114431697,71,"3506 CHEROKEE AVENUE, SAN DIEGO, CA, 92104","Match","Exact","3506 CHEROKEE AVE, SAN DIEGO, CA, 92104",195346733,"L"
183072,"3506 DUNNINGTON RD","BELTSVILLE","MD",20705,39.058301188,-76.9325256719999,72,"3506 DUNNINGTON RD, BELTSVILLE, MD, 20705","Match","Exact","3506 DUNNINGTON RD, BELTSVILLE, MD, 20705",76323663,"L"
183073,"3506 E DESERT BROOM WAY","PHOENIX","AZ",85044,33.3171132320001,-112.007556741,73,"3506 E DESERT BROOM WAY, PHOENIX, AZ, 85044","Match","Exact","3506 E DESERT BROOM WAY, PHOENIX, AZ, 85044",243998119,"L"
183074,"3506 E FAIRMONT ST","BROKEN ARROW","OK",74014,36.1065842300001,-95.747660452,74,"3506 E FAIRMONT ST, BROKEN ARROW, OK, 74014","Match","Exact","3506 E FAIRMONT ST, BROKEN ARROW, OK, 74014",617313533,"L"
183075,"3506 EAST 185TH PLACE","BELTON","MO",64012,38.7917388280001,-94.5551674069999,75,"3506 EAST 185TH PLACE, BELTON, MO, 64012","Match","Exact","3506 E 185TH PL, BELTON, MO, 64012",100928060,"R"
183076,"3506 EVERGLADE LANE","WYLIE","TX",75098,33.0259692180001,-96.592158088,76,"3506 EVERGLADE LANE, WYLIE, TX, 75098","Match","Non_Exact","3506 EVERGLADE CT, WYLIE, TX, 75098",641696528,"L"
183077,"3506 FARM ROAD 1402","MT PLEASANT","TX",75455,33.2114951390001,-94.951199472,77,"3506 FARM ROAD 1402, MT PLEASANT, TX, 75455","Match","Non_Exact","3506 FARM RD 1402, MOUNT PLEASANT, TX, 75455",83235676,"L"
183078,"3506 FOLA DRIVE","MONROE","NC",28110,35.034250345,-80.492333614,78,"3506 FOLA DRIVE, MONROE, NC, 28110","Match","Exact","3506 FOLA DR, MONROE, NC, 28110",14209196,"R"
183079,"3506 ISLAND WALK CIRCLE","NAPLES","FL",34119,NA,NA,79,"3506 ISLAND WALK CIRCLE, NAPLES, FL, 34119","No_Match",NA,NA,NA,NA
183080,"3506 LA COSTE LANE","COLUMBUS","OH",43228,39.985993782,-83.096940155,80,"3506 LA COSTE LANE, COLUMBUS, OH, 43228","Match","Exact","3506 LA COSTE LN, COLUMBUS, OH, 43228",135621668,"R"
183081,"3506 LINFIELD","DALLAS","TX",75216,32.712911708,-96.761052779,81,"3506 LINFIELD, DALLAS, TX, 75216","Match","Non_Exact","3506 LINFIELD RD, DALLAS, TX, 75216",102956645,"R"
183082,"3506 NEW MOODY LANE","LAGRANGE","KY",40031,38.37566093,-85.395937542,82,"3506 NEW MOODY LANE, LAGRANGE, KY, 40031","Match","Exact","3506 NEW MOODY LN, LAGRANGE, KY, 40031",601042627,"L"
183083,"3506 NW 53RD TERRACE","GAINESVILLE","FL",32606,29.6858069030001,-82.3997394899999,83,"3506 NW 53RD TERRACE, GAINESVILLE, FL, 32606","Match","Exact","3506 NW 53RD TER, GAINESVILLE, FL, 32606",6803575,"R"
183084,"3506 OLD OAK TRAIL","RHINELANDER","WI",54501,45.6355971990001,-89.358638777,84,"3506 OLD OAK TRAIL, RHINELANDER, WI, 54501","Match","Non_Exact","3506 OLD OAKTRL, RHINELANDER, WI, 54501",196623170,"L"
183085,"3506 PEAR TREE CT SUITE 42","SILVER SPRING","MD",20906,39.090309076,-77.0708347249999,85,"3506 PEAR TREE CT SUITE 42, SILVER SPRING, MD, 20906","Match","Exact","3506 PEAR TREE CT, SILVER SPRING, MD, 20906",640176866,"R"
183086,"3506 RAYE ANN DR","PLANT CITY","FL",33566,27.9687663880001,-82.074223761,86,"3506 RAYE ANN DR, PLANT CITY, FL, 33566","Match","Exact","3506 RAYE ANN DR, PLANT CITY, FL, 33566",104603678,"R"
183087,"3506 S CULPEPPER CIRCLE STE D","SPRINGFIELD","MO",65804,37.1504409350001,-93.2766321559999,87,"3506 S CULPEPPER CIRCLE STE D, SPRINGFIELD, MO, 65804","Match","Non_Exact","3506 S CULPEPPER CIR, SPRINGFIELD, MO, 65804",605898677,"L"
183088,"3506 S STATE ST SUITE 309","CHICAGO","IL",60609,41.8306678550001,-87.6266472309999,88,"3506 S STATE ST SUITE 309, CHICAGO, IL, 60609","Match","Non_Exact","3506 S STATE ST, CHICAGO, IL, 60609",618345268,"R"
183089,"3506 SOLANA ROAD","MIAMI","FL",33133,25.7232898990001,-80.2579591099999,89,"3506 SOLANA ROAD, MIAMI, FL, 33133","Match","Exact","3506 SOLANA RD, MIAMI, FL, 33133",116013913,"R"
183090,"3506 SOUTH HOLLY STREET","DENVER","CO",80237,39.6526900110001,-104.922817965,90,"3506 SOUTH HOLLY STREET, DENVER, CO, 80237","Match","Exact","3506 S HOLLY ST, DENVER, CO, 80237",177341920,"L"
183091,"3506 STONEWALL PL SE","ATLANTA","GA",30339,33.877061097,-84.467289509,91,"3506 STONEWALL PL SE, ATLANTA, GA, 30339","Match","Exact","3506 STONEWALL PL SE, ATLANTA, GA, 30339",616606870,"R"
183092,"3506 TRIPP DR","RENO","NV",89502,39.5528022010001,-119.791022365,92,"3506 TRIPP DR, RENO, NV, 89502","Match","Non_Exact","3506 TRIPP DR, RENO, NV, 89512",107047480,"R"
183093,"3506 W 85TH STREET","INGLEWOOD","CA",90305,33.9608743740001,-118.333509733,93,"3506 W 85TH STREET, INGLEWOOD, CA, 90305","Match","Exact","3506 W 85TH ST, INGLEWOOD, CA, 90305",141655457,"L"
183094,"3506 WASHINGTON AVE","BATON ROUGE","LA",70802,30.4651791790001,-91.153880928,94,"3506 WASHINGTON AVE, BATON ROUGE, LA, 70802","Match","Exact","3506 WASHINGTON AVE, BATON ROUGE, LA, 70802",92209017,"R"
183095,"3506 WASHINGTON AVENUE","WINDSOR MILL","MD",21244,39.34962562,-76.751240109,95,"3506 WASHINGTON AVENUE, WINDSOR MILL, MD, 21244","Match","Exact","3506 WASHINGTON AVE, WINDSOR MILL, MD, 21244",191467291,"L"
183096,"3506 WEATHERBY DRIVE","DURHAM","NC",27703,35.988358453,-78.829981104,96,"3506 WEATHERBY DRIVE, DURHAM, NC, 27703","Match","Exact","3506 WEATHERBY DR, DURHAM, NC, 27703",71754991,"R"
183097,"35062 CALIFORNIA PLACE","YUCAIPA","CA",92399,34.011633497,-117.039335616,97,"35062 CALIFORNIA PLACE, YUCAIPA, CA, 92399","Match","Exact","35062 CALIFORNIA PL, YUCAIPA, CA, 92399",614814845,"L"
183098,"35063 HIGHWAY BB","LADDONIA","MO",63352,NA,NA,98,"35063 HIGHWAY BB, LADDONIA, MO, 63352","No_Match",NA,NA,NA,NA
183099,"35063 HOGAN DR","BEAUMONT","CA",92223,33.960339607,-117.047926764,99,"35063 HOGAN DR, BEAUMONT, CA, 92223","Match","Exact","35063 HOGAN DR, BEAUMONT, CA, 92223",629829611,"L"
183100,"3507 146TH ST SE","MILL CREEK","WA",98012,47.8659059170001,-122.184883319,100,"3507 146TH ST SE, MILL CREEK, WA, 98012","Match","Exact","3507 146TH ST SE, MILL CREEK, WA, 98012",608934864,"L"
183101,"3507 B HILLCREST DR","LUMBERTON","NC",28358,34.6392446890001,-78.993089101,101,"3507 B HILLCREST DR, LUMBERTON, NC, 28358","Match","Exact","3507 HILLCREST DR, LUMBERTON, NC, 28358",49151217,"L"
183102,"3507 BELMAR AVE","INDIANAPOLIS","IN",46622,39.8204190960001,-86.025156986,102,"3507 BELMAR AVE, INDIANAPOLIS, IN, 46622","Match","Non_Exact","3507 BELMAR AVE, INDIANAPOLIS, IN, 46226",108002746,"R"
183103,"3507 CASTLEMAIN DRIVE","BLOOMINGTON","IL",61704,40.475578139,-88.9297544469999,103,"3507 CASTLEMAIN DRIVE, BLOOMINGTON, IL, 61704","Match","Exact","3507 CASTLEMAIN DR, BLOOMINGTON, IL, 61704",20570780,"L"
183104,"3507 CLIFTON AVENUE","CINCINNATI","OH",45220,39.1454989600001,-84.518979238,104,"3507 CLIFTON AVENUE, CINCINNATI, OH, 45220","Match","Exact","3507 CLIFTON AVE, CINCINNATI, OH, 45220",103924330,"L"
183105,"3507 E 7TH STREET","LOS ANGELES","CA",90023,34.024500071,-118.199487636,105,"3507 E 7TH STREET, LOS ANGELES, CA, 90023","Match","Exact","3507 E 7TH ST, LOS ANGELES, CA, 90023",141624945,"L"
183106,"3507 E SHANNON ST","GILBERT","AZ",85295,33.320058761,-111.714724808,106,"3507 E SHANNON ST, GILBERT, AZ, 85295","Match","Exact","3507 E SHANNON ST, GILBERT, AZ, 85295",601667213,"L"
183107,"3507 EAGLES RIDGE DR","WOODBRIDGE","VA",22191,38.6041325400001,-77.308878388,107,"3507 EAGLES RIDGE DR, WOODBRIDGE, VA, 22191","Match","Non_Exact","3507 EAGLE RIDGE DR, WOODBRIDGE, VA, 22191",640850135,"L"
183108,"3507 HARVARD AVE","DALLAS","TX",75205,32.829126542,-96.789274147,108,"3507 HARVARD AVE, DALLAS, TX, 75205","Match","Exact","3507 HARVARD AVE, DALLAS, TX, 75205",102907815,"L"
183109,"3507 HORNE STREET","FORT WORTH","TX",76107,32.7262965580001,-97.407969284,109,"3507 HORNE STREET, FORT WORTH, TX, 76107","Match","Exact","3507 HORNE ST, FORT WORTH, TX, 76107",101880901,"L"
183110,"3507 LANGREHR ROAD STE 2D","WINDSOR MILL","MD",21244,39.354144025,-76.763294704,110,"3507 LANGREHR ROAD STE 2D, WINDSOR MILL, MD, 21244","Match","Exact","3507 LANGREHR RD, WINDSOR MILL, MD, 21244",191463368,"R"
183111,"3507 LEE BLVD SUITE 254","LEHIGH ACRES","FL",33971,26.6170558320001,-81.689633004,111,"3507 LEE BLVD SUITE 254, LEHIGH ACRES, FL, 33971","Match","Exact","3507 LEE BLVD, LEHIGH ACRES, FL, 33971",117987029,"L"
183112,"3507 LEE BLVD SUITE 271","LEHIGH ACRES","FL",33971,26.6170558320001,-81.689633004,112,"3507 LEE BLVD SUITE 271, LEHIGH ACRES, FL, 33971","Match","Exact","3507 LEE BLVD, LEHIGH ACRES, FL, 33971",117987029,"L"
183113,"3507 MARKET STREET SUITE 101","CAMP HILL","PA",17011,40.2392225460001,-76.941773977,113,"3507 MARKET STREET SUITE 101, CAMP HILL, PA, 17011","Match","Exact","3507 MARKET ST, CAMP HILL, PA, 17011",60943815,"L"
183114,"3507 MIDWAY SCHOOL ROAD","WINSTON-SALEM","NC",27107,35.941702868,-80.164735669,114,"3507 MIDWAY SCHOOL ROAD, WINSTON-SALEM, NC, 27107","Match","Exact","3507 MIDWAY SCHOOL RD, WINSTON SALEM, NC, 27107",20215420,"R"
183115,"3507 MULLIN LANE","BOWIE","MD",20715,38.9828850810001,-76.738370112,115,"3507 MULLIN LANE, BOWIE, MD, 20715","Match","Exact","3507 MULLIN LN, BOWIE, MD, 20715",76327489,"R"
183116,"3507 N CENTRAL AVE      SUITE 402","PHOENIX","AZ",85012,33.4888593630001,-112.073775977,116,"3507 N CENTRAL AVE      SUITE 402, PHOENIX, AZ, 85012","Match","Non_Exact","3507 N CENTRAL AVE, PHOENIX, AZ, 85012",128208784,"R"
183117,"3507 NC HWY 125","HOBGOOD","NC",27843,36.0110311450001,-77.3427172,117,"3507 NC HWY 125, HOBGOOD, NC, 27843","Match","Non_Exact","3507 STATE HWY 125, HOBGOOD, NC, 27843",56812135,"R"
183118,"3507 NORTH ROLLING ROAD","WINDSOR MILLS","MD",21244,39.3538855050001,-76.767462538,118,"3507 NORTH ROLLING ROAD, WINDSOR MILLS, MD, 21244","Match","Non_Exact","3507 N ROLLING RD, WINDSOR MILL, MD, 21244",191513396,"R"
183119,"3507 OAKS WAY SUITE 1003","POMPANO BEACH","FL",33069,26.2267015950001,-80.174624804,119,"3507 OAKS WAY SUITE 1003, POMPANO BEACH, FL, 33069","Match","Exact","3507 OAKS WAY, POMPANO BEACH, FL, 33069",114693918,"L"
183120,"3507 ROSEWOOD CIRCLE","LYNN HAVEN","FL",32444,30.2069154540001,-85.636722472,120,"3507 ROSEWOOD CIRCLE, LYNN HAVEN, FL, 32444","Match","Exact","3507 ROSEWOOD CIR, LYNN HAVEN, FL, 32444",7090883,"L"
183121,"3507 S SIESTA LANE","TEMPE","AZ",85282,33.3898793130001,-111.892618483,121,"3507 S SIESTA LANE, TEMPE, AZ, 85282","Match","Exact","3507 S SIESTA LN, TEMPE, AZ, 85282",128233095,"L"
183122,"3507 SHADOW BLUFF COURT","HOUSTON","TX",77082,29.723558778,-95.595710809,122,"3507 SHADOW BLUFF COURT, HOUSTON, TX, 77082","Match","Exact","3507 SHADOW BLUFF CT, HOUSTON, TX, 77082",96293776,"L"
183123,"3507 SHADOWCHASE DR","HOUSTON","TX",77082,29.723971228,-95.597236073,123,"3507 SHADOWCHASE DR, HOUSTON, TX, 77082","Match","Exact","3507 SHADOWCHASE DR, HOUSTON, TX, 77082",96296457,"R"
183124,"3507 SHARER RD","TALLAHASSEE","FL",32312,30.504674628,-84.2950246029999,124,"3507 SHARER RD, TALLAHASSEE, FL, 32312","Match","Exact","3507 SHARER RD, TALLAHASSEE, FL, 32312",82848852,"R"
183125,"3507 SPEAR AVE","ARCATA","CA",95521,40.891470505,-124.090256526,125,"3507 SPEAR AVE, ARCATA, CA, 95521","Match","Exact","3507 SPEAR AVE, ARCATA, CA, 95521",113008902,"L"
183126,"3507 SW 112 COURT","MIAMI","FL",33165,25.7368959180001,-80.3771820969999,126,"3507 SW 112 COURT, MIAMI, FL, 33165","Match","Exact","3507 SW 112TH CT, MIAMI, FL, 33165",116045660,"L"
183127,"3507 W STETSON AVE STE 308","HEMET","CA",92545,33.729368268,-117.003728748,127,"3507 W STETSON AVE STE 308, HEMET, CA, 92545","Match","Non_Exact","3507 W STETSON AVE, HEMET, CA, 92545",650033769,"R"
183128,"35072 PERRY RD","UNION CITY","CA",94587,37.582004109,-122.016260111,128,"35072 PERRY RD, UNION CITY, CA, 94587","Match","Exact","35072 PERRY RD, UNION CITY, CA, 94587",125026192,"L"
183129,"3508 86TH STREET","LUBBOCK","TX",79423,33.51614841,-101.893104492,129,"3508 86TH STREET, LUBBOCK, TX, 79423","Match","Exact","3508 86TH ST, LUBBOCK, TX, 79423",185252966,"R"
183130,"3508 BASFORD ROAD","FREDERICK","MD",21703,39.327996985,-77.5130390529999,130,"3508 BASFORD ROAD, FREDERICK, MD, 21703","Match","Exact","3508 BASFORD RD, FREDERICK, MD, 21703",60735314,"L"
183131,"3508 BOLT BLVD","JONESBORO","AR",72405,35.891291031,-90.645033451,131,"3508 BOLT BLVD, JONESBORO, AR, 72405","Match","Exact","3508 BOLT BLVD, JONESBORO, AR, 72405",46937136,"R"
183132,"3508 CASCADE HWY NE","SILVERTON","OR",97381,44.9773229350001,-122.809396544,132,"3508 CASCADE HWY NE, SILVERTON, OR, 97381","Match","Exact","3508 CASCADE HWY NE, SILVERTON, OR, 97381",613701035,"R"
183133,"3508 CENTRAL BLVD","NEDERLAND","TX",77627,29.9929283650001,-94.019320925,133,"3508 CENTRAL BLVD, NEDERLAND, TX, 77627","Match","Exact","3508 CENTRAL BLVD, NEDERLAND, TX, 77627",73895689,"R"
183134,"3508 CHAUNCEY RD","TALLAHASSEE","FL",32305,30.397730305,-84.269548546,134,"3508 CHAUNCEY RD, TALLAHASSEE, FL, 32305","Match","Exact","3508 CHAUNCEY RD, TALLAHASSEE, FL, 32305",82855575,"R"
183135,"3508 DEBORAH DRIVE","CHARLOTTE","NC",28270,35.0736475200001,-80.744032331,135,"3508 DEBORAH DRIVE, CHARLOTTE, NC, 28270","Match","Exact","3508 DEBORAH DR, CHARLOTTE, NC, 28270",618152826,"R"
183136,"3508 FUSCHIA DRIVE","MARIETTA","GA",30062,34.0533660140001,-84.447152466,136,"3508 FUSCHIA DRIVE, MARIETTA, GA, 30062","Match","Exact","3508 FUSCHIA DR, MARIETTA, GA, 30062",17221094,"R"
183137,"3508 GREENWAY STREET","AUSTIN","TX",78705,30.295650091,-97.726783159,137,"3508 GREENWAY STREET, AUSTIN, TX, 78705","Match","Exact","3508 GREENWAY ST, AUSTIN, TX, 78705",63946050,"L"
183138,"3508 GREYSTONE COURT","MCKINNEY","TX",75070,33.184672903,-96.6657051079999,138,"3508 GREYSTONE COURT, MCKINNEY, TX, 75070","Match","Non_Exact","3508 GREYSTONE CT, MCKINNEY, TX, 75072",210482314,"R"
183139,"3508 LAKE PONTCHARTRAIN DRIVE","ARLINGTON","TX",76001,32.687783295,-97.219197841,139,"3508 LAKE PONTCHARTRAIN DRIVE, ARLINGTON, TX, 76001","Match","Non_Exact","3508 LAKE PONTCHARTRAIN DR, ARLINGTON, TX, 76016",101901505,"R"
183140,"3508 MARIPOSA STREET","DENVER","CO",80211,39.76581758,-105.002959419,140,"3508 MARIPOSA STREET, DENVER, CO, 80211","Match","Exact","3508 MARIPOSA ST, DENVER, CO, 80211",177303609,"R"
183141,"3508 METZGER RE","FORT PIERCE","FL",34947,27.45481936,-80.360311447,141,"3508 METZGER RE, FORT PIERCE, FL, 34947","Match","Non_Exact","3508 METZGER RD, FORT PIERCE, FL, 34947",120146592,"R"
183142,"3508 N MARIAH LANE","APPLETON","WI",54911,44.29570161,-88.400405,142,"3508 N MARIAH LANE, APPLETON, WI, 54911","Match","Exact","3508 N MARIAH LN, APPLETON, WI, 54911",74885210,"L"
183143,"3508 NORTH 3000 WEST","FARR WEST","UT",84404,41.3255028070001,-112.052815834,143,"3508 NORTH 3000 WEST, FARR WEST, UT, 84404","Match","Exact","3508 N 3000 W, FARR WEST, UT, 84404",606502802,"R"
183144,"3508 RIDGE RIM CT","ANTELOPE","CA",95843,38.7196239960001,-121.382179976,144,"3508 RIDGE RIM CT, ANTELOPE, CA, 95843","Match","Exact","3508 RIDGE RIM CT, ANTELOPE, CA, 95843",133389078,"L"
183145,"3508 ROYAL ASHDOWN MANOR","LITTLE ROCK","AR",72117,NA,NA,145,"3508 ROYAL ASHDOWN MANOR, LITTLE ROCK, AR, 72117","No_Match",NA,NA,NA,NA
183146,"3508 SOMERSET PARK DRIVE","ORLANDO","FL",32824,28.3650019310001,-81.328064414,146,"3508 SOMERSET PARK DRIVE, ORLANDO, FL, 32824","Match","Exact","3508 SOMERSET PARK DR, ORLANDO, FL, 32824",645277832,"R"
183147,"3508 SPRING VALLEY DRIVE","DECATUR","GA",30032,33.7213892510001,-84.247352824,147,"3508 SPRING VALLEY DRIVE, DECATUR, GA, 30032","Match","Non_Exact","3508 SPRING VALLEY RD, DECATUR, GA, 30032",23370955,"L"
183148,"3508 TRINITY MEADOWS DRIVE","MIDLAND","TX",79707,32.0248743270001,-102.129253312,148,"3508 TRINITY MEADOWS DRIVE, MIDLAND, TX, 79707","Match","Exact","3508 TRINITY MEADOWS DR, MIDLAND, TX, 79707",139588015,"L"
183149,"3508 W FULTON BLVD","CHICAGO","IL",60624,41.886323084,-87.713872572,149,"3508 W FULTON BLVD, CHICAGO, IL, 60624","Match","Exact","3508 W FULTON BLVD, CHICAGO, IL, 60624",605043610,"R"
183150,"3508 W WASHINGTON BLVD","LOS ANGELES","CA",90012,34.039893798,-118.322626659,150,"3508 W WASHINGTON BLVD, LOS ANGELES, CA, 90012","Match","Non_Exact","3508 W WASHINGTON BLVD, LOS ANGELES, CA, 90018",141605559,"L"
183151,"3508 WHITE CHAPEL ROAD","BALTIMORE","MD",21215,39.3266137200001,-76.6717106789999,151,"3508 WHITE CHAPEL ROAD, BALTIMORE, MD, 21215","Match","Exact","3508 WHITE CHAPEL RD, BALTIMORE, MD, 21215",206406449,"L"
183152,"3508 WYOMING ST","KANSAS CITY","KS",64111,NA,NA,152,"3508 WYOMING ST, KANSAS CITY, KS, 64111","No_Match",NA,NA,NA,NA
183153,"3509 BONNEILLE WAY","SUWANEE","GA",30024,34.045522131,-84.0522391499999,153,"3509 BONNEILLE WAY, SUWANEE, GA, 30024","Match","Non_Exact","3509 BONNEVILLE WAY, SUWANEE, GA, 30024",88920784,"L"
183154,"3509 CAMERON DRIVE","SANFORD","NC",27332,35.4454594100001,-79.139550221,154,"3509 CAMERON DRIVE, SANFORD, NC, 27332","Match","Exact","3509 CAMERON DR, SANFORD, NC, 27332",72079601,"L"
183155,"3509 CARLA DRIVE","ROWLETT","TX",75088,32.892838721,-96.5746344519999,155,"3509 CARLA DRIVE, ROWLETT, TX, 75088","Match","Exact","3509 CARLA DR, ROWLETT, TX, 75088",102929668,"L"
183156,"3509 CENTER ST NW APT 2","WASHINGTON","DC",20010,38.934438728,-77.0354295779999,156,"3509 CENTER ST NW APT 2, WASHINGTON, DC, 20010","Match","Exact","3509 CENTER ST NW, WASHINGTON, DC, 20010",76222943,"R"
183157,"3509 CHESTNUT AVE","NEWPORT NEWS","VA",23607,36.993782708,-76.410384687,157,"3509 CHESTNUT AVE, NEWPORT NEWS, VA, 23607","Match","Exact","3509 CHESTNUT AVE, NEWPORT NEWS, VA, 23607",103746393,"L"
183158,"3509 CONNECTICUT AVENUE NUM 10004","WASHINGTON","DC",20008,38.9357571630001,-77.0586083489999,158,"3509 CONNECTICUT AVENUE NUM 10004, WASHINGTON, DC, 20008","Match","Non_Exact","3509 CONNECTICUT AVE NW, WASHINGTON, DC, 20008",76221152,"R"
183159,"3509 CONNETICUT AVE NW SUITE 1403","WASHINGTON","DC",20008,38.9357571630001,-77.0586083489999,159,"3509 CONNETICUT AVE NW SUITE 1403, WASHINGTON, DC, 20008","Match","Non_Exact","3509 CONNECTICUT AVE NW, WASHINGTON, DC, 20008",76221152,"R"
183160,"3509 CROSSINGS WAY","MIDLOTHAN","VA",23113,37.54467742,-77.672115232,160,"3509 CROSSINGS WAY, MIDLOTHAN, VA, 23113","Match","Non_Exact","3509 CROSSINGS WAY, MIDLOTHIAN, VA, 23113",201557956,"R"
183161,"3509 GEORGE ST","HOUSTON","TX",77026,29.8059209620001,-95.3335150939999,161,"3509 GEORGE ST, HOUSTON, TX, 77026","Match","Exact","3509 GEORGE ST, HOUSTON, TX, 77026",96076348,"L"
183162,"3509 GLASS MOUNTAIN TRAIL","KELLER","TX",76244,32.934375715,-97.2840778789999,162,"3509 GLASS MOUNTAIN TRAIL, KELLER, TX, 76244","Match","Exact","3509 GLASS MOUNTAIN TRL, KELLER, TX, 76244",643330742,"L"
183163,"3509 GLENMOOR DR","CHEVY CHASE","MD",20815,39.00540813,-77.069740063,163,"3509 GLENMOOR DR, CHEVY CHASE, MD, 20815","Match","Exact","3509 GLENMOOR DR, CHEVY CHASE, MD, 20815",62066431,"R"
183164,"3509 GRAVES RD","MEMPHIS","TN",38116,35.0527104610001,-90.040852662,164,"3509 GRAVES RD, MEMPHIS, TN, 38116","Match","Exact","3509 GRAVES RD, MEMPHIS, TN, 38116",647248642,"R"
183165,"3509 GREEN MEADOW LANE","JOLIET","IL",60431,41.5357161590001,-88.1681105599999,165,"3509 GREEN MEADOW LANE, JOLIET, IL, 60431","Match","Non_Exact","3509 GREENMEADOW LN, JOLIET, IL, 60431",604914494,"R"
183166,"3509 HAWORTH DRIVE - SUITE 404","RALEIGH","NC",27609,35.8283459730001,-78.633367133,166,"3509 HAWORTH DRIVE - SUITE 404, RALEIGH, NC, 27609","Match","Exact","3509 HAWORTH DR, RALEIGH, NC, 27609",72507160,"L"
183167,"3509 HIGHLAND AVENUE","BERWYN","IL",60402,41.8285669850001,-87.780436907,167,"3509 HIGHLAND AVENUE, BERWYN, IL, 60402","Match","Exact","3509 HIGHLAND AVE, BERWYN, IL, 60402",111796724,"L"
183168,"3509 HOT MILL COURT","CHESAPEAKE","VA",23323,36.746670167,-76.360231902,168,"3509 HOT MILL COURT, CHESAPEAKE, VA, 23323","Match","Exact","3509 HOT MILL CT, CHESAPEAKE, VA, 23323",121799039,"R"
183169,"3509 LOCH HAVEN DR","EDGEWATER","MD",21037,38.922359924,-76.5183881359999,169,"3509 LOCH HAVEN DR, EDGEWATER, MD, 21037","Match","Exact","3509 LOCH HAVEN DR, EDGEWATER, MD, 21037",68173459,"L"
183170,"3509 MAPLE AVE","LOS ANGELES","CA",90011,34.016266376,-118.270005296,170,"3509 MAPLE AVE, LOS ANGELES, CA, 90011","Match","Exact","3509 MAPLE AVE, LOS ANGELES, CA, 90011",141619644,"R"
183171,"3509 MAYFAIR ST","MCKEESPORT","PA",15132,40.339433652,-79.8363290029999,171,"3509 MAYFAIR ST, MCKEESPORT, PA, 15132","Match","Exact","3509 MAYFAIR ST, MCKEESPORT, PA, 15132",51678444,"L"
183172,"3509 N 2000 E","FILER","ID",83328,42.5065655760001,-114.653016704,172,"3509 N 2000 E, FILER, ID, 83328","Match","Non_Exact","3509 N 2000 E RD, FILER, ID, 83328",649897623,"L"
183173,"3509 N MASON STREET","APPLETON","WI",54914,44.2961382190001,-88.424983916,173,"3509 N MASON STREET, APPLETON, WI, 54914","Match","Exact","3509 N MASON ST, APPLETON, WI, 54914",74892980,"R"
183174,"3509 NE 45TH ST APT B","VANCOUVER","WA",98661,45.6545504590001,-122.634673389,174,"3509 NE 45TH ST APT B, VANCOUVER, WA, 98661","Match","Non_Exact","3509 NE 45TH ST, VANCOUVER, WA, 98661",643289383,"R"
183175,"3509 PEBBLE CREEK DRIVE","HEPHZIBAH","GA",30815,33.396707174,-82.099117178,175,"3509 PEBBLE CREEK DRIVE, HEPHZIBAH, GA, 30815","Match","Exact","3509 PEBBLE CREEK DR, HEPHZIBAH, GA, 30815",617769235,"R"
183176,"3509 PONCE DE LEON BLVD","CORAL GABLES","FL",33134,25.739612365,-80.2585204709999,176,"3509 PONCE DE LEON BLVD, CORAL GABLES, FL, 33134","Match","Exact","3509 PONCE DE LEON BLVD, CORAL GABLES, FL, 33134",116013273,"L"
183177,"3509 RICHMOND AVE","BALTIMORE","MD",21213,39.326946369,-76.575511653,177,"3509 RICHMOND AVE, BALTIMORE, MD, 21213","Match","Exact","3509 RICHMOND AVE, BALTIMORE, MD, 21213",206410416,"R"
183178,"3509 S GENEVIEVE AVENUE","SIOUX FALLS","SD",57103,43.513116369,-96.680172055,178,"3509 S GENEVIEVE AVENUE, SIOUX FALLS, SD, 57103","Match","Exact","3509 S GENEVIEVE AVE, SIOUX FALLS, SD, 57103",34981441,"R"
183179,"3509 S KING DR SUITE 2B","CHICAGO","IL",60653,NA,NA,179,"3509 S KING DR SUITE 2B, CHICAGO, IL, 60653","No_Match",NA,NA,NA,NA
183180,"3509 S KING DRIVE","CHICAGO","IL",60653,NA,NA,180,"3509 S KING DRIVE, CHICAGO, IL, 60653","No_Match",NA,NA,NA,NA
183181,"3509 S WOODLAND PL","SANTA ANA","CA",92707,33.701333322,-117.87614166,181,"3509 S WOODLAND PL, SANTA ANA, CA, 92707","Match","Exact","3509 WOODLAND PL, SANTA ANA, CA, 92707",144044093,"L"
183182,"3509 SAUNDERS BRIDGE","WILLIAMSBURG","VA",23188,37.261261473,-76.777965202,182,"3509 SAUNDERS BRIDGE, WILLIAMSBURG, VA, 23188","Match","Non_Exact","3509 SAUNDER'S BRIDGE, WILLIAMSBURG, VA, 23188",618666241,"L"
183183,"3509 SOUTH 157TH STREET","GILBERT","AZ",85297,33.287019544,-111.74298072,183,"3509 SOUTH 157TH STREET, GILBERT, AZ, 85297","Match","Exact","3509 S 157TH ST, GILBERT, AZ, 85297",243918427,"R"
183184,"3509 SOUTH BROAD STREET","SCOTTSBORO","AL",35769,34.627403701,-86.051462022,184,"3509 SOUTH BROAD STREET, SCOTTSBORO, AL, 35769","Match","Non_Exact","3509 N BROAD ST, SCOTTSBORO, AL, 35769",58037607,"R"
183185,"3509 SYCAMORE LN","GULF BREEZE","FL",32563,30.3848332520001,-87.0749381049999,185,"3509 SYCAMORE LN, GULF BREEZE, FL, 32563","Match","Exact","3509 SYCAMORE LN, GULF BREEZE, FL, 32563",74581638,"R"
183186,"3509 VAN ZANDT RD","MELISSA","TX",75454,33.2957626300001,-96.578053975,186,"3509 VAN ZANDT RD, MELISSA, TX, 75454","Match","Exact","3509 VAN ZANDT RD, MELISSA, TX, 75454",646846666,"L"
183187,"3509 VIRGINIA BEACH BLVD","VA BEACH","VA",23452,36.8408735080001,-76.0940059919999,187,"3509 VIRGINIA BEACH BLVD, VA BEACH, VA, 23452","Match","Exact","3509 VIRGINIA BEACH BLVD, VA BCH, VA, 23452",122310422,"R"
183188,"3509 W 27TH ST","YUMA","AZ",85364,32.678595902,-114.661121938,188,"3509 W 27TH ST, YUMA, AZ, 85364","Match","Exact","3509 W 27TH ST, YUMA, AZ, 85364",129683582,"R"
183189,"3509 W MONACAN DR","CHARLOTTESVILLE","VA",22901,38.096634894,-78.462944393,189,"3509 W MONACAN DR, CHARLOTTESVILLE, VA, 22901","Match","Exact","3509 W MONACAN DR, CHARLOTTESVILLE, VA, 22901",83387467,"L"
183190,"3509 WHEATMEADOW LANE","PEARLAND","TX",77581,29.5432859250001,-95.2709254929999,190,"3509 WHEATMEADOW LANE, PEARLAND, TX, 77581","Match","Exact","3509 WHEATMEADOW LN, PEARLAND, TX, 77581",116648318,"L"
183191,"3509 WOODLAND CIRCLE SOUTH","ISLAND LAKE","IL",60042,42.2788986630001,-88.1924409709999,191,"3509 WOODLAND CIRCLE SOUTH, ISLAND LAKE, IL, 60042","Match","Exact","3509 WOODLAND CIR S, ISLAND LAKE, IL, 60042",119630410,"R"
183192,"3509 YORK LANE","SAN RAMON","CA",94582,37.752025255,-121.902903,192,"3509 YORK LANE, SAN RAMON, CA, 94582","Match","Exact","3509 YORK LN, SAN RAMON, CA, 94582",192117634,"R"
183193,"3509 YORK LN","SAN RAMON","CA",94582,37.752025255,-121.902903,193,"3509 YORK LN, SAN RAMON, CA, 94582","Match","Exact","3509 YORK LN, SAN RAMON, CA, 94582",192117634,"R"
183194,"3509","HOUSTON","TX",77018,NA,NA,194,"3509, HOUSTON, TX, 77018","No_Match",NA,NA,NA,NA
183195,"35090 BONADELLE","MADERA","CA",93636,36.9641764420001,-119.909847322,195,"35090 BONADELLE, MADERA, CA, 93636","Match","Non_Exact","35090 BONADELLE AVE, MADERA, CA, 93636",102334785,"L"
183196,"35095 POTTER","MEMPHIS","MI",48041,42.8956219450001,-82.769636094,196,"35095 POTTER, MEMPHIS, MI, 48041","Match","Non_Exact","35095 POTTER ST, MEMPHIS, MI, 48041",636269246,"L"
183197,"35095 US HWY 19 N  SUITE 100","PALM HARBOR","FL",34684,28.08945506,-82.739483733,197,"35095 US HWY 19 N  SUITE 100, PALM HARBOR, FL, 34684","Match","Non_Exact","35095 US HWY 19 N, PALM HARBOR, FL, 34684",124662586,"R"
183198,"3509W 27TH ST","YUMA","AZ",85364,32.678595902,-114.661121938,198,"3509W 27TH ST, YUMA, AZ, 85364","Match","Non_Exact","3509 W 27TH ST, YUMA, AZ, 85364",129683582,"R"
183199,"351 15TH AVE S SUITE A","JACKSONVILLE BEACH","FL",32250,30.2741295770001,-81.3895333139999,199,"351 15TH AVE S SUITE A, JACKSONVILLE BEACH, FL, 32250","Match","Exact","351 15TH AVE S, JACKSONVILLE BEACH, FL, 32250",83923962,"R"
183200,"351 24TH STREET NORTH","BIRMINGHAM","AL",35203,33.5194859200001,-86.801786253,200,"351 24TH STREET NORTH, BIRMINGHAM, AL, 35203","Match","Exact","351 24TH ST N, BIRMINGHAM, AL, 35203",81643019,"R"
183201,"351 2ND ST NW 101","ALTOONA","IA",50009,41.6531168930001,-93.4674632639999,201,"351 2ND ST NW 101, ALTOONA, IA, 50009","Match","Exact","351 2ND ST NW, ALTOONA, IA, 50009",65796490,"R"
183202,"351 2ND ST NW SUITE 101","ALTOONA","IA",50009,41.6531168930001,-93.4674632639999,202,"351 2ND ST NW SUITE 101, ALTOONA, IA, 50009","Match","Exact","351 2ND ST NW, ALTOONA, IA, 50009",65796490,"R"
183203,"351 9TH STREET SUITE 202","SAN FRANCISCO","CA",94103,37.7732576830001,-122.410963395,203,"351 9TH STREET SUITE 202, SAN FRANCISCO, CA, 94103","Match","Exact","351 9TH ST, SAN FRANCISCO, CA, 94103",192287396,"L"
183204,"351 ASHAROKEN AVENUE","NORTHPORT","NY",11768,40.934194512,-73.371382647,204,"351 ASHAROKEN AVENUE, NORTHPORT, NY, 11768","Match","Exact","351 ASHAROKEN AVE, NORTHPORT, NY, 11768",114056347,"L"
183205,"351 ASHLEY LN","CINCINNATI","OH",45215,39.240954984,-84.488218783,205,"351 ASHLEY LN, CINCINNATI, OH, 45215","Match","Exact","351 ASHLEY LN, CINCINNATI, OH, 45215",628916796,"R"
183206,"351 ATLANTA ST SE","MARIETTA","GA",30060,33.9462839280001,-84.5477058929999,206,"351 ATLANTA ST SE, MARIETTA, GA, 30060","Match","Exact","351 ATLANTA ST SE, MARIETTA, GA, 30060",17176080,"L"
183207,"351 BRISTOL STREET B","BROOKLYN","NY",11212,40.662652898,-73.910860451,207,"351 BRISTOL STREET B, BROOKLYN, NY, 11212","Match","Exact","351 BRISTOL ST, BROOKLYN, NY, 11212",59084071,"L"
183208,"351 BROAD ROCK ROAD","WAKEFIELD","RI",2879,41.4543821950001,-71.48594917,208,"351 BROAD ROCK ROAD, WAKEFIELD, RI, 2879","Match","Exact","351 BROAD ROCK RD, WAKEFIELD, RI, 02879",58903003,"L"
183209,"351 BROAD STREET","KEYPORT","NJ",7735,40.4292810850001,-74.19783188,209,"351 BROAD STREET, KEYPORT, NJ, 7735","Match","Exact","351 BROAD ST, KEYPORT, NJ, 07735",90474093,"L"
183210,"351 CALLE TETUAN GRAVEL FLOOR","SAN JUAN","PR",901,NA,NA,210,"351 CALLE TETUAN GRAVEL FLOOR, SAN JUAN, PR, 901","No_Match",NA,NA,NA,NA
183211,"351 CAMDEN CIRCLE","OWENSBORO","KY",42301,37.772741061,-87.180220761,211,"351 CAMDEN CIRCLE, OWENSBORO, KY, 42301","Match","Exact","351 CAMDEN CIR, OWENSBORO, KY, 42301",637542556,"R"
183212,"351 CENTER STREET","HUBBARD","OH",44425,41.1607030980001,-80.5760778169999,212,"351 CENTER STREET, HUBBARD, OH, 44425","Match","Exact","351 CENTER ST, HUBBARD, OH, 44425",117399893,"R"
183213,"351 CHANNELSIDE WALK WAY APT 4303","TAMPA","FL",33602,27.93965365,-82.4529866189999,213,"351 CHANNELSIDE WALK WAY APT 4303, TAMPA, FL, 33602","Match","Exact","351 CHANNELSIDE WALK WAY, TAMPA, FL, 33602",611808203,"L"
183214,"351 CHAPARRAL ST","RIALTO","CA",92376,NA,NA,214,"351 CHAPARRAL ST, RIALTO, CA, 92376","Tie",NA,NA,NA,NA
183215,"351 COG HILL DR","FAIRBURN","GA",30213,33.6079626760001,-84.600252962,215,"351 COG HILL DR, FAIRBURN, GA, 30213","Match","Exact","351 COG HILL DR, FAIRBURN, GA, 30213",627596526,"R"
183216,"351 COUNTY HIGHWAY 21","WALTON","NY",13856,42.1866964930001,-75.124118478,216,"351 COUNTY HIGHWAY 21, WALTON, NY, 13856","Match","Non_Exact","351 CO RD 21, WALTON, NY, 13856",41588614,"L"
183217,"351 COUNTY ROAD  342","GONZALES","TX",78629,29.507528203,-97.413076663,217,"351 COUNTY ROAD  342, GONZALES, TX, 78629","Match","Exact","351 CO RD 342, GONZALES, TX, 78629",44497087,"L"
183218,"351 DERBY CIRCLE","CHATTANOOGA","TN",37404,35.0375698350001,-85.2654090889999,218,"351 DERBY CIRCLE, CHATTANOOGA, TN, 37404","Match","Exact","351 DERBY CIR, CHATTANOOGA, TN, 37404",59309309,"L"
183219,"351 DEVEREUX AVE","PHILADELPHIA","PA",19111,40.0486409060001,-75.10031835,219,"351 DEVEREUX AVE, PHILADELPHIA, PA, 19111","Match","Non_Exact","351 DEVEREAUX AVE, PHILADELPHIA, PA, 19111",131414914,"L"
183220,"351 E 88TH ST","BLOOMINGTON","MN",55420,44.8443184860001,-93.2714268619999,220,"351 E 88TH ST, BLOOMINGTON, MN, 55420","Match","Exact","351 E 88TH ST, BLOOMINGTON, MN, 55420",43596282,"R"
183221,"351 E 88TH STREET","BLOOMINGTON","MN",55420,44.8443184860001,-93.2714268619999,221,"351 E 88TH STREET, BLOOMINGTON, MN, 55420","Match","Exact","351 E 88TH ST, BLOOMINGTON, MN, 55420",43596282,"R"
183222,"351 E ALONDRA BLVD","GARDENA","CA",90248,33.885571778,-118.27946565,222,"351 E ALONDRA BLVD, GARDENA, CA, 90248","Match","Non_Exact","351 W ALONDRA BLVD, GARDENA, CA, 90248",241243495,"R"
183223,"351 E BRIDLEWALK LANE","MURRAY","UT",84107,40.645391956,-111.880574004,223,"351 E BRIDLEWALK LANE, MURRAY, UT, 84107","Match","Exact","351 BRIDLEWALK LN, MURRAY, UT, 84107",176102945,"L"
183224,"351 E HIGHLAND STREET","BLUE RIDGE","GA",30513,34.9060489660001,-84.369410879,224,"351 E HIGHLAND STREET, BLUE RIDGE, GA, 30513","Match","Non_Exact","351 HIGHLAND CIR, BLUE RIDGE, GA, 30513",618714176,"R"
183225,"351 E RACINE ST","JEFFERSON","WI",53549,43.005164092,-88.801600094,225,"351 E RACINE ST, JEFFERSON, WI, 53549","Match","Exact","351 E RACINE ST, JEFFERSON, WI, 53549",53213396,"R"
183226,"351 EAST 152 ST   APT 5B","BRONX","NY",10451,40.818782518,-73.9188926049999,226,"351 EAST 152 ST   APT 5B, BRONX, NY, 10451","Match","Exact","351 E 152ND ST, BRONX, NY, 10451",80308866,"L"
183227,"351 EAST CAROLINE STREET","TRINITY","TX",75862,30.9485932970001,-95.363479507,227,"351 EAST CAROLINE STREET, TRINITY, TX, 75862","Match","Exact","351 E CAROLINE ST, TRINITY, TX, 75862",24379272,"R"
183228,"351 EAST CURLING DRIVE","BOISE","ID",83702,43.6472767970001,-116.18518686,228,"351 EAST CURLING DRIVE, BOISE, ID, 83702","Match","Exact","351 E CURLING DR, BOISE, ID, 83702",117860314,"R"
183229,"351 EDGEWOOD TERRACE DRIVE","JACKSON","MS",39206,32.363491432,-90.1565306589999,229,"351 EDGEWOOD TERRACE DRIVE, JACKSON, MS, 39206","Match","Exact","351 EDGEWOOD TERRACE DR, JACKSON, MS, 39206",616304407,"R"
183230,"351 ELIZABETH AVENUE","LAFAYETTE","LA",70501,30.2338567350001,-92.011374324,230,"351 ELIZABETH AVENUE, LAFAYETTE, LA, 70501","Match","Exact","351 ELIZABETH AVE, LAFAYETTE, LA, 70501",85615355,"L"
183231,"351 ELM ST","S DARTMOUTH","MA",2748,41.5879654620001,-70.94496244,231,"351 ELM ST, S DARTMOUTH, MA, 2748","Match","Exact","351 ELM ST, SOUTH DARTMOUTH, MA, 02748",46754341,"L"
183232,"351 ELM STREET","KEARNY","NJ",7032,40.7657670090001,-74.144242487,232,"351 ELM STREET, KEARNY, NJ, 7032","Match","Exact","351 ELM ST, KEARNY, NJ, 07032",59600846,"L"
183233,"351 FLORA DRIVE","NEWPORT NEWS","VA",23608,37.1267474650001,-76.544501714,233,"351 FLORA DRIVE, NEWPORT NEWS, VA, 23608","Match","Exact","351 FLORA DR, NEWPORT NEWS, VA, 23608",103750564,"L"
183234,"351 HARVEY AVENUE","GREENSBURG","PA",15601,40.309343208,-79.5388459599999,234,"351 HARVEY AVENUE, GREENSBURG, PA, 15601","Match","Exact","351 HARVEY AVE, GREENSBURG, PA, 15601",53025041,"L"
183235,"351 HIGHWAY 431","MARTIN","TN",38237,36.356662595,-88.8943055,235,"351 HIGHWAY 431, MARTIN, TN, 38237","Match","Non_Exact","351 STATE RTE 431, MARTIN, TN, 38237",40887995,"L"
183236,"351 HILLSIDE ROAD","FAIRFIELD","CT",6824,41.1651282070001,-73.284683489,236,"351 HILLSIDE ROAD, FAIRFIELD, CT, 6824","Match","Exact","351 HILLSIDE RD, FAIRFIELD, CT, 06824",626221358,"L"
183237,"351 KELLER STREET","BAY SAINT LOUIS","MS",39520,30.30871519,-89.3396988699999,237,"351 KELLER STREET, BAY SAINT LOUIS, MS, 39520","Match","Exact","351 KELLER ST, BAY SAINT LOUIS, MS, 39520",111132286,"R"
183238,"351 LA CASA VIA","WALNUT CREEK","CA",94598,37.907005295,-122.033425673,238,"351 LA CASA VIA, WALNUT CREEK, CA, 94598","Match","Exact","351 LA CASA VIA, WALNUT CREEK, CA, 94598",192105981,"L"
183239,"351 LISBON AVE","BUFFALO","NY",14215,42.9470774010001,-78.815631394,239,"351 LISBON AVE, BUFFALO, NY, 14215","Match","Exact","351 LISBON AVE, BUFFALO, NY, 14215",48296865,"R"
183240,"351 LITTLE STREET","BELLEVILLE","NJ",7109,40.7991018550001,-74.1559221589999,240,"351 LITTLE STREET, BELLEVILLE, NJ, 7109","Match","Exact","351 LITTLE ST, BELLEVILLE, NJ, 07109",63455288,"L"
183241,"351 LOS PINOS PLACE","CORAL GABLES","FL",33143,25.698103405,-80.260877987,241,"351 LOS PINOS PLACE, CORAL GABLES, FL, 33143","Match","Exact","351 LOS PINOS PL, CORAL GABLES, FL, 33143",116019584,"L"
183242,"351 MARLIN COVE ROAD","HENDERSON","NV",89012,36.0137502900001,-115.055878346,242,"351 MARLIN COVE ROAD, HENDERSON, NV, 89012","Match","Exact","351 MARLIN COVE RD, HENDERSON, NV, 89012",201956130,"R"
183243,"351 MISTYWOOD DR","HOUSTON","TX",77090,30.004183169,-95.4299809519999,243,"351 MISTYWOOD DR, HOUSTON, TX, 77090","Match","Exact","351 MISTYWOOD DR, HOUSTON, TX, 77090",96042077,"R"
183244,"351 MONMOUTH ROAD","TITUSVILLE","NJ",8562,40.0730029490001,-74.577709129,244,"351 MONMOUTH ROAD, TITUSVILLE, NJ, 8562","Match","Non_Exact","351 MONMOUTH RD, WRIGHTSTOWN, NJ, 08562",134080911,"R"
183245,"351 NOAH COURT","BELLE GLADE","FL",33430,26.688580293,-80.67638565,245,"351 NOAH COURT, BELLE GLADE, FL, 33430","Match","Exact","351 NOAH CT, BELLE GLADE, FL, 33430",115579501,"L"
183246,"351 NORTH BROAD STREET","MOBILE","AL",36603,30.6802441990001,-88.0536394109999,246,"351 NORTH BROAD STREET, MOBILE, AL, 36603","Match","Non_Exact","351 S BROAD ST, MOBILE, AL, 36603",61867769,"L"
183247,"351 NORTH ROYAL ST","JACKSON","TN",38301,35.617618172,-88.8132530029999,247,"351 NORTH ROYAL ST, JACKSON, TN, 38301","Match","Exact","351 N ROYAL ST, JACKSON, TN, 38301",608876351,"L"
183248,"351 OGLE PL NE","NORTH BEND","WA",98045,47.4948804970001,-121.777043053,248,"351 OGLE PL NE, NORTH BEND, WA, 98045","Match","Exact","351 OGLE PL NE, NORTH BEND, WA, 98045",186922362,"R"
183249,"351 PASEO SONRISA","WALNUT","CA",91789,34.0118941060001,-117.85780458,249,"351 PASEO SONRISA, WALNUT, CA, 91789","Match","Non_Exact","351 PSO SONRISA, WALNUT, CA, 91789",241250094,"L"
183250,"351 PETTIPAUG RD","WESTBROOK","CT",6498,41.31213734,-72.433690214,250,"351 PETTIPAUG RD, WESTBROOK, CT, 6498","Match","Exact","351 PETTIPAUG RD, WESTBROOK, CT, 06498",113877587,"R"
183251,"351 PINEHAVEN DR","BETHEL PARK","PA",15102,40.3160267160001,-80.066802776,251,"351 PINEHAVEN DR, BETHEL PARK, PA, 15102","Match","Exact","351 PINEHAVEN DR, BETHEL PARK, PA, 15102",621865823,"L"
183252,"351 PLEASANT LAKE AVENUE","HARWICH","MA",2645,41.7110941600001,-70.080526139,252,"351 PLEASANT LAKE AVENUE, HARWICH, MA, 2645","Match","Exact","351 PLEASANT LAKE AVE, HARWICH, MA, 02645",121630688,"R"
183253,"351 PLEASANT STREET UNIT 2","NORTHAMPTON","MA",1060,42.3160175560001,-72.625660233,253,"351 PLEASANT STREET UNIT 2, NORTHAMPTON, MA, 1060","Match","Exact","351 PLEASANT ST, NORTHAMPTON, MA, 01060",39859007,"R"
183254,"351 ROBINSON RD","HUNTSVILLE","AL",35811,34.814302572,-86.526067086,254,"351 ROBINSON RD, HUNTSVILLE, AL, 35811","Match","Exact","351 ROBINSON RD, HUNTSVILLE, AL, 35811",58205448,"L"
183255,"351 ROBY HARRIS DRIVE","CANTON","MS",39046,NA,NA,255,"351 ROBY HARRIS DRIVE, CANTON, MS, 39046","No_Match",NA,NA,NA,NA
183256,"351 RUESS ROAD","RIPON","CA",95366,37.737748932,-121.144774954,256,"351 RUESS ROAD, RIPON, CA, 95366","Match","Exact","351 RUESS RD, RIPON, CA, 95366",133876817,"R"
183257,"351 RUTLAND ROAD APT 1R","BROOKLYN","NY",11225,40.659505645,-73.949020117,257,"351 RUTLAND ROAD APT 1R, BROOKLYN, NY, 11225","Match","Exact","351 RUTLAND RD, BROOKLYN, NY, 11225",59079592,"L"
183258,"351 S BURNSIDE AVE","LOS ANGELES","CA",90036,34.069119379,-118.354199152,258,"351 S BURNSIDE AVE, LOS ANGELES, CA, 90036","Match","Exact","351 S BURNSIDE AVE, LOS ANGELES, CA, 90036",141599109,"R"
183259,"351 S FULLER AVENUE APT 4J","LOS ANGELES","CA",90036,NA,NA,259,"351 S FULLER AVENUE APT 4J, LOS ANGELES, CA, 90036","Tie",NA,NA,NA,NA
183260,"351 S SCHOOL ROAD","THREE RIVERS","TX",78071,NA,NA,260,"351 S SCHOOL ROAD, THREE RIVERS, TX, 78071","No_Match",NA,NA,NA,NA
183261,"351 S WARREN ST 200J","SYRACUSE","NY",13202,43.047817491,-76.150772009,261,"351 S WARREN ST 200J, SYRACUSE, NY, 13202","Match","Non_Exact","351 S WARREN ST, SYRACUSE, NY, 13202",46570870,"L"
183262,"351 SAINT CLAIR AVE","COLUMBUS","OH",43203,39.9720603850001,-82.980829253,262,"351 SAINT CLAIR AVE, COLUMBUS, OH, 43203","Match","Exact","351 SAINT CLAIR AVE, COLUMBUS, OH, 43203",135579478,"L"
183263,"351 SANDEFUR DR","SHREVEPORT","LA",71105,32.4573164110001,-93.727351829,263,"351 SANDEFUR DR, SHREVEPORT, LA, 71105","Match","Exact","351 SANDEFUR DR, SHREVEPORT, LA, 71105",57441260,"L"
183264,"351 SANTA FE AVENUE","CORCORAN","CA",93212,36.110764375,-119.565644039,264,"351 SANTA FE AVENUE, CORCORAN, CA, 93212","Match","Exact","351 SANTA FE AVE, CORCORAN, CA, 93212",197994627,"L"
183265,"351 SCHOOLFIELD RD","RUFFIN","NC",27326,36.500846645,-79.636035114,265,"351 SCHOOLFIELD RD, RUFFIN, NC, 27326","Match","Exact","351 SCHOOLFIELD RD, RUFFIN, NC, 27326",56238909,"R"
183266,"351 SHANKS ROAD","BLOUNTVILLE","TN",37617,36.499881413,-82.3682970679999,266,"351 SHANKS ROAD, BLOUNTVILLE, TN, 37617","Match","Exact","351 SHANKS RD, BLOUNTVILLE, TN, 37617",127863134,"R"
183267,"351 SOUTH CAMP ROAD","GRAND JUNCTION","CO",81507,39.0515011150001,-108.636411284,267,"351 SOUTH CAMP ROAD, GRAND JUNCTION, CO, 81507","Match","Exact","351 S CAMP RD, GRAND JCT, CO, 81507",621886847,"L"
183268,"351 SOUTH CRAFT HIGHWAY","CHICKASAW","AL",36611,30.759987946,-88.0745933709999,268,"351 SOUTH CRAFT HIGHWAY, CHICKASAW, AL, 36611","Match","Exact","351 S CRAFT HWY, CHICKASAW, AL, 36611",61927261,"L"
183269,"351 SOUTH ESTES STR UNIT 23","LAKEWOOD","CO",80226,39.710161241,-105.095608244,269,"351 SOUTH ESTES STR UNIT 23, LAKEWOOD, CO, 80226","Match","Exact","351 S ESTES ST, LAKEWOOD, CO, 80226",177319236,"R"
183270,"351 SOUTH WELLS SUITE 100","RENO","NV",89512,NA,NA,270,"351 SOUTH WELLS SUITE 100, RENO, NV, 89512","No_Match",NA,NA,NA,NA
183271,"351 ST FERDINAND STREET","BATON ROUGE","LA",70802,30.444373371,-91.18654372,271,"351 ST FERDINAND STREET, BATON ROUGE, LA, 70802","Match","Exact","351 ST FERDINAND ST, BATON ROUGE, LA, 70802",92182039,"L"
183272,"351 STADIUM BOULEVARD","LEWISBURG","PA",17837,40.9476469910001,-76.882902891,272,"351 STADIUM BOULEVARD, LEWISBURG, PA, 17837","Match","Exact","351 STADIUM BLVD, LEWISBURG, PA, 17837",48190535,"R"
183273,"351 STATE HWY 121 BYPASS APT 2913","LEWISVILLE","TX",75067,NA,NA,273,"351 STATE HWY 121 BYPASS APT 2913, LEWISVILLE, TX, 75067","No_Match",NA,NA,NA,NA
183274,"351 STATE HWY 121 BYPASS APT 712","LEWISVILLE","TX",75067,NA,NA,274,"351 STATE HWY 121 BYPASS APT 712, LEWISVILLE, TX, 75067","No_Match",NA,NA,NA,NA
183275,"351 STONEWALL CT APT 2302","MOUNT PLEASANT","SC",29464,32.8453783740001,-79.881007885,275,"351 STONEWALL CT APT 2302, MOUNT PLEASANT, SC, 29464","Match","Exact","351 STONEWALL CT, MOUNT PLEASANT, SC, 29464",645443136,"R"
183276,"351 THREE RIVERS DR STE 1263","KELSO","WA",98626,46.1374368900001,-122.901385131,276,"351 THREE RIVERS DR STE 1263, KELSO, WA, 98626","Match","Exact","351 THREE RIVERS DR, KELSO, WA, 98626",607051440,"L"
183277,"351 THREE RIVERS DRIVE","KELSO","WA",98626,46.1374368900001,-122.901385131,277,"351 THREE RIVERS DRIVE, KELSO, WA, 98626","Match","Exact","351 THREE RIVERS DR, KELSO, WA, 98626",607051440,"L"
183278,"351 TSCHIFFELY SQUARE ROAD","GAITHERSBURG","MD",20878,39.1204935710001,-77.244172914,278,"351 TSCHIFFELY SQUARE ROAD, GAITHERSBURG, MD, 20878","Match","Exact","351 TSCHIFFELY SQUARE RD, GAITHERSBURG, MD, 20878",62104785,"R"
183279,"351 TURNPIKE ST","CANTON","MA",2021,42.1753677660001,-71.1122585909999,279,"351 TURNPIKE ST, CANTON, MA, 2021","Match","Exact","351 TURNPIKE ST, CANTON, MA, 02021",87266686,"R"
183280,"351 UPPERLANDING ROAD","BALTIMORE","MD",21221,39.316695365,-76.478869602,280,"351 UPPERLANDING ROAD, BALTIMORE, MD, 21221","Match","Exact","351 UPPERLANDING RD, BALTIMORE, MD, 21221",191489212,"R"
183281,"351 US ALTERNATE","BETHEL","NC",27812,NA,NA,281,"351 US ALTERNATE, BETHEL, NC, 27812","No_Match",NA,NA,NA,NA
183282,"351 VUEMONT PLACE NE  APT 301","RENTON","WA",98056,47.487363428,-122.19207435,282,"351 VUEMONT PLACE NE  APT 301, RENTON, WA, 98056","Match","Exact","351 VUEMONT PL NE, RENTON, WA, 98056",239773678,"L"
183283,"351 W 24TH STREET","JACKSONVILLE","FL",32206,30.359189628,-81.658686986,283,"351 W 24TH STREET, JACKSONVILLE, FL, 32206","Match","Exact","351 W 24TH ST, JACKSONVILLE, FL, 32206",83898565,"R"
183284,"351 W CROMWELL  SUITE 105","FRESNO","CA",93711,NA,NA,284,"351 W CROMWELL  SUITE 105, FRESNO, CA, 93711","No_Match",NA,NA,NA,NA
183285,"351 W HATCHER RD","PHOENIX","AZ",85021,33.571282787,-112.079837649,285,"351 W HATCHER RD, PHOENIX, AZ, 85021","Match","Exact","351 W HATCHER RD, PHOENIX, AZ, 85021",128203657,"L"
183286,"351 WAGONER DRIVE SUITE 150","FAYETTEVILLE","NC",28303,35.0777222180001,-78.946542759,286,"351 WAGONER DRIVE SUITE 150, FAYETTEVILLE, NC, 28303","Match","Exact","351 WAGONER DR, FAYETTEVILLE, NC, 28303",64227329,"R"
183287,"351 WEST CENTER AVENUE","SEBRING","FL",33870,27.49487442,-81.443937276,287,"351 WEST CENTER AVENUE, SEBRING, FL, 33870","Match","Exact","351 W CENTER AVE, SEBRING, FL, 33870",4632926,"R"
183288,"351 WEST KIRMAR AVENUE","NANTICOKE","PA",18634,NA,NA,288,"351 WEST KIRMAR AVENUE, NANTICOKE, PA, 18634","No_Match",NA,NA,NA,NA
183289,"351 WEST MAPLE AVE","EUNICE","LA",70535,30.487553556,-92.418412906,289,"351 WEST MAPLE AVE, EUNICE, LA, 70535","Match","Exact","351 W MAPLE AVE, EUNICE, LA, 70535",106446933,"L"
183290,"351-C SOUTH MIDWAY HWY","JOHNSONVILLE","SC",29555,33.806014286,-79.473710387,290,"351-C SOUTH MIDWAY HWY, JOHNSONVILLE, SC, 29555","Match","Exact","351 S MIDWAY HWY, JOHNSONVILLE, SC, 29555",638641546,"L"
183291,"3510 4TH AVENUE WEST","BRADENTON","FL",34205,27.4965779500001,-82.5965457789999,291,"3510 4TH AVENUE WEST, BRADENTON, FL, 34205","Match","Exact","3510 4TH AVE W, BRADENTON, FL, 34205",16269750,"R"
183292,"3510 ACORN STREET","TAMPA","FL",33619,27.976442816,-82.364192492,292,"3510 ACORN STREET, TAMPA, FL, 33619","Match","Exact","3510 ACORN ST, TAMPA, FL, 33619",104537175,"L"
183293,"3510 ALEXANDER AVE","ANCHORAGE","AK",99508,61.2032117000001,-149.815322784,293,"3510 ALEXANDER AVE, ANCHORAGE, AK, 99508","Match","Exact","3510 ALEXANDER AVE, ANCHORAGE, AK, 99508",190801779,"R"
183294,"3510 ASH ST","BALTIMORE","MD",21211,39.3295400260001,-76.639954732,294,"3510 ASH ST, BALTIMORE, MD, 21211","Match","Exact","3510 ASH ST, BALTIMORE, MD, 21211",206407441,"L"
183295,"3510 CATALPA WAY","BOULDER","CO",80304,40.0387134110001,-105.273634693,295,"3510 CATALPA WAY, BOULDER, CO, 80304","Match","Exact","3510 CATALPA WAY, BOULDER, CO, 80304",188158896,"R"
183296,"3510 CLOVERDALE ST","HOUSTON","TX",77025,29.6831853300001,-95.432118588,296,"3510 CLOVERDALE ST, HOUSTON, TX, 77025","Match","Exact","3510 CLOVERDALE ST, HOUSTON, TX, 77025",96087023,"R"
183297,"3510 COUNTY LINE RD NE","RUSHVILLE","OH",43150,39.7658073870001,-82.4020496319999,297,"3510 COUNTY LINE RD NE, RUSHVILLE, OH, 43150","Match","Exact","3510 COUNTY LINE RD NE, RUSHVILLE, OH, 43150",640586575,"R"
183298,"3510 DECATUR AVENUE APARTMENT 3C","BRONX","NY",10467,40.8789947980001,-73.8724329999999,298,"3510 DECATUR AVENUE APARTMENT 3C, BRONX, NY, 10467","Match","Exact","3510 DECATUR AVE, BRONX, NY, 10467",80297180,"R"
183299,"3510 DIXON RD","DURHAM","NC",27707,35.955307545,-78.9412720239999,299,"3510 DIXON RD, DURHAM, NC, 27707","Match","Exact","3510 DIXON RD, DURHAM, NC, 27707",71740037,"R"
183300,"3510 E CARPENTER ROAD","FLINT","MI",48506,43.076389869,-83.639278524,300,"3510 E CARPENTER ROAD, FLINT, MI, 48506","Match","Exact","3510 E CARPENTER RD, FLINT, MI, 48506",69569904,"R"
183301,"3510 ELM AVE UNIT 1","LONG BEACH","CA",90807,33.820683998,-118.187935798,301,"3510 ELM AVE UNIT 1, LONG BEACH, CA, 90807","Match","Exact","3510 ELM AVE, LONG BEACH, CA, 90807",141686211,"R"
183302,"3510 EVANSTON AVE","CINCINNATI","OH",45207,39.142495121,-84.46291165,302,"3510 EVANSTON AVE, CINCINNATI, OH, 45207","Match","Exact","3510 EVANSTON AVE, CINCINNATI, OH, 45207",103975505,"R"
183303,"3510 GOSWAMI WAY","HOUSTON","TX",77018,NA,NA,303,"3510 GOSWAMI WAY, HOUSTON, TX, 77018","No_Match",NA,NA,NA,NA
183304,"3510 GRAND OAK DR","NEWBERG","OR",97132,45.299553631,-122.943566907,304,"3510 GRAND OAK DR, NEWBERG, OR, 97132","Match","Exact","3510 GRAND OAK DR, NEWBERG, OR, 97132",633729142,"L"
183305,"3510 HOOPER WAY","ANCHORAGE","AK",99515,61.128667885,-149.946245059,305,"3510 HOOPER WAY, ANCHORAGE, AK, 99515","Match","Exact","3510 HOOPER WAY, ANCHORAGE, AK, 99515",190795971,"R"
183306,"3510 JEFFERSON COMMONS DR APT 101A","TAMPA","FL",33613,28.0731618830001,-82.420246741,306,"3510 JEFFERSON COMMONS DR APT 101A, TAMPA, FL, 33613","Match","Exact","3510 JEFFERSON COMMONS DR, TAMPA, FL, 33613",633395513,"L"
183307,"3510 KNOLLWOOD DRIVE","CARLSBAD","CA",92010,33.174794101,-117.2853446,307,"3510 KNOLLWOOD DRIVE, CARLSBAD, CA, 92010","Match","Exact","3510 KNOLLWOOD DR, CARLSBAD, CA, 92010",195452086,"L"
183308,"3510 KRAFT RD SUITE 200","NAPLES","FL",34105,26.20962903,-81.746432978,308,"3510 KRAFT RD SUITE 200, NAPLES, FL, 34105","Match","Exact","3510 KRAFT RD, NAPLES, FL, 34105",619116532,"L"
183309,"3510 KRAFT ROAD STE 200","NAPLES","FL",34105,26.20962903,-81.746432978,309,"3510 KRAFT ROAD STE 200, NAPLES, FL, 34105","Match","Exact","3510 KRAFT RD, NAPLES, FL, 34105",619116532,"L"
183310,"3510 LAJITAS","LEANDER","TX",78641,30.533623262,-97.890963308,310,"3510 LAJITAS, LEANDER, TX, 78641","Match","Exact","3510 LAJITAS, LEANDER, TX, 78641",639639619,"R"
183311,"3510 LANGREHR ROAD SUITE 2D","WINDSOR MILL","MD",21244,39.3536257230001,-76.7636075779999,311,"3510 LANGREHR ROAD SUITE 2D, WINDSOR MILL, MD, 21244","Match","Exact","3510 LANGREHR RD, WINDSOR MILL, MD, 21244",191467062,"L"
183312,"3510 LINWOOD AVE","SHREVEPORT","LA",71103,NA,NA,312,"3510 LINWOOD AVE, SHREVEPORT, LA, 71103","No_Match",NA,NA,NA,NA
183313,"3510 LOCKNER BLVD","JOLIET","IL",60431,41.5665706790001,-88.176484542,313,"3510 LOCKNER BLVD, JOLIET, IL, 60431","Match","Exact","3510 LOCKNER BLVD, JOLIET, IL, 60431",111616334,"L"
183314,"3510 MACCORKLE AVE SE","CHARLESTON","WV",25304,NA,NA,314,"3510 MACCORKLE AVE SE, CHARLESTON, WV, 25304","No_Match",NA,NA,NA,NA
183315,"3510 MAPLE AVE","OAKLAND","CA",94602,37.7965393110001,-122.205818354,315,"3510 MAPLE AVE, OAKLAND, CA, 94602","Match","Exact","3510 MAPLE AVE, OAKLAND, CA, 94602",125004150,"R"
183316,"3510 MAYFAIR RD","BALTIMORE","MD",21207,39.345651747,-76.740190006,316,"3510 MAYFAIR RD, BALTIMORE, MD, 21207","Match","Exact","3510 MAYFAIR RD, BALTIMORE, MD, 21207",191548784,"L"
183317,"3510 MEADOWVIEW DR","CORINTH","TX",76210,33.13640997,-97.0508614569999,317,"3510 MEADOWVIEW DR, CORINTH, TX, 76210","Match","Exact","3510 MEADOWVIEW DR, CORINTH, TX, 76210",103346176,"R"
183318,"3510 MINNESOTA AVE SE APT 3","WASHINGTON","DC",20019,38.8863234990001,-76.955576782,318,"3510 MINNESOTA AVE SE APT 3, WASHINGTON, DC, 20019","Match","Exact","3510 MINNESOTA AVE SE, WASHINGTON, DC, 20019",76231582,"L"
183319,"3510 MOUNTAINEER ROAD","PHILIPPI","WV",26416,NA,NA,319,"3510 MOUNTAINEER ROAD, PHILIPPI, WV, 26416","No_Match",NA,NA,NA,NA
183320,"3510 N DAVIDSON ST","CHARLOTTE","NC",28205,35.2499281670001,-80.799379587,320,"3510 N DAVIDSON ST, CHARLOTTE, NC, 28205","Match","Exact","3510 N DAVIDSON ST, CHARLOTTE, NC, 28205",70580641,"R"
183321,"3510 N KNOLL DRIVE","LOS ANGELES","CA",90068,34.13234377,-118.339203614,321,"3510 N KNOLL DRIVE, LOS ANGELES, CA, 90068","Match","Exact","3510 N KNOLL DR, LOS ANGELES, CA, 90068",141594219,"R"
183322,"3510 N ST MARYS ST STE 300","SAN ANTONIO","TX",78212,29.4576555200001,-98.478417118,322,"3510 N ST MARYS ST STE 300, SAN ANTONIO, TX, 78212","Match","Non_Exact","3510 N SAINT MARYS ST, SAN ANTONIO, TX, 78212",101524860,"R"
183323,"3510 NE 14TH ST","OCALA","FL",34470,29.2008495270001,-82.088004945,323,"3510 NE 14TH ST, OCALA, FL, 34470","Match","Exact","3510 NE 14TH ST, OCALA, FL, 34470",116728576,"R"
183324,"3510 NORTH HAMILTON AVENUE","CHICAGO","IL",60618,41.9453712650001,-87.6821589639999,324,"3510 NORTH HAMILTON AVENUE, CHICAGO, IL, 60618","Match","Exact","3510 N HAMILTON AVE, CHICAGO, IL, 60618",605158680,"L"
183325,"3510 NW 210TH TERRACE","MIAMI GARDENS","FL",33056,25.9670444230001,-80.260641439,325,"3510 NW 210TH TERRACE, MIAMI GARDENS, FL, 33056","Match","Exact","3510 NW 210TH TER, MIAMI GARDENS, FL, 33056",116292314,"L"
183326,"3510 PARK BLVD","GULFPORT","MS",39501,30.371192497,-89.10437468,326,"3510 PARK BLVD, GULFPORT, MS, 39501","Match","Exact","3510 PARK BLVD, GULFPORT, MS, 39501",111418254,"R"
183327,"3510 PINOAK PLACE","ST. LOUIS","MO",63125,38.5168140650001,-90.330327338,327,"3510 PINOAK PLACE, ST. LOUIS, MO, 63125","Match","Exact","3510 PINOAK PL, SAINT LOUIS, MO, 63125",100143206,"L"
183328,"3510 QUANTUM LAKES DRIVE","BOYNTON BEACH","FL",33426,26.5485694270001,-80.074329827,328,"3510 QUANTUM LAKES DRIVE, BOYNTON BEACH, FL, 33426","Match","Exact","3510 QUANTUM LAKES DR, BOYNTON BEACH, FL, 33426",640965038,"R"
183329,"3510 RED BUD LANE","SHREVEPORT","LA",71108,32.4376638430001,-93.794840132,329,"3510 RED BUD LANE, SHREVEPORT, LA, 71108","Match","Exact","3510 RED BUD LN, SHREVEPORT, LA, 71108",57484710,"R"
183330,"3510 S GARFIELD PL","KENNEWICK","WA",99337,46.176466911,-119.127644411,330,"3510 S GARFIELD PL, KENNEWICK, WA, 99337","Match","Exact","3510 S GARFIELD PL, KENNEWICK, WA, 99337",174993541,"R"
183331,"3510 S MICHIGAN AVENUE","CHICAGO","IL",60653,41.830804739,-87.623256515,331,"3510 S MICHIGAN AVENUE, CHICAGO, IL, 60653","Match","Exact","3510 S MICHIGAN AVE, CHICAGO, IL, 60653",111770125,"R"
183332,"3510 S RHODES AVE SUITE 408","CHICAGO","IL",60653,41.830875217,-87.614483955,332,"3510 S RHODES AVE SUITE 408, CHICAGO, IL, 60653","Match","Non_Exact","3510 S RHODES AVE, CHICAGO, IL, 60653",605538306,"R"
183333,"3510 SCOTTS LANE SUITE 106","PHILADELPHIA","PA",19129,40.008173857,-75.185837271,333,"3510 SCOTTS LANE SUITE 106, PHILADELPHIA, PA, 19129","Match","Exact","3510 SCOTTS LN, PHILADELPHIA, PA, 19129",131401647,"R"
183334,"3510 SOUTH RHODES - 1702","CHICAGO","IL",60653,41.8308989020001,-87.614484331,334,"3510 SOUTH RHODES - 1702, CHICAGO, IL, 60653","Match","Non_Exact","3510 S RHODES AVE, CHICAGO, IL, 60653",605538306,"R"
183335,"3510 SPENARD ROAD SUITE 100","ANCHORAGE","AK",99503,61.188482342,-149.908726814,335,"3510 SPENARD ROAD SUITE 100, ANCHORAGE, AK, 99503","Match","Exact","3510 SPENARD RD, ANCHORAGE, AK, 99503",190796951,"R"
183336,"3510 SUNBEAM ST","HOUSTON","TX",77051,29.6498960220001,-95.371624797,336,"3510 SUNBEAM ST, HOUSTON, TX, 77051","Match","Exact","3510 SUNBEAM ST, HOUSTON, TX, 77051",96088907,"R"
183337,"3510 TIDE WATER DRIVE","EVANS","CO",80620,40.3795246610001,-104.729001828,337,"3510 TIDE WATER DRIVE, EVANS, CO, 80620","Match","Exact","3510 TIDE WATER DR, EVANS, CO, 80620",188734792,"L"
183338,"3510 VILLAGE ENCLAVE LANE","CUMMING","GA",30040,34.19794619,-84.1562538059999,338,"3510 VILLAGE ENCLAVE LANE, CUMMING, GA, 30040","Match","Exact","3510 VILLAGE ENCLAVE LN, CUMMING, GA, 30040",637547285,"L"
183339,"3510 W 15TH AVE","GARY","IN",46404,41.58789576,-87.3806412759999,339,"3510 W 15TH AVE, GARY, IN, 46404","Match","Exact","3510 W 15TH AVE, GARY, IN, 46404",98425203,"R"
183340,"3510 W 7TH CT","LAWRENCE","KS",66049,38.9699541620001,-95.281456965,340,"3510 W 7TH CT, LAWRENCE, KS, 66049","Match","Exact","3510 W 7TH CT, LAWRENCE, KS, 66049",17683210,"R"
183341,"3510 W BARCELONA ST","TAMPA","FL",33629,27.921815462,-82.500655696,341,"3510 W BARCELONA ST, TAMPA, FL, 33629","Match","Exact","3510 W BARCELONA ST, TAMPA, FL, 33629",104605917,"L"
183342,"3510 W RIVER COURT","MEQUON","WI",53092,43.1948912990001,-87.9556350669999,342,"3510 W RIVER COURT, MEQUON, WI, 53092","Match","Exact","3510 W RIVER CT, MEQUON, WI, 53092",95907618,"L"
183343,"3510 W WISCONSIN AVE","TAMPA","FL",33611,27.882022577,-82.50049668,343,"3510 W WISCONSIN AVE, TAMPA, FL, 33611","Match","Exact","3510 W WISCONSIN AVE, TAMPA, FL, 33611",104528842,"L"
183344,"3510 WEEMS ROAD","TALLAHASSEE","FL",32317,30.4578774070001,-84.222429534,344,"3510 WEEMS ROAD, TALLAHASSEE, FL, 32317","Match","Exact","3510 WEEMS RD, TALLAHASSEE, FL, 32317",82878900,"L"
183345,"3510 WEST HAMILTON","NASHVILLE","TN",37218,36.2075043840001,-86.83697031,345,"3510 WEST HAMILTON, NASHVILLE, TN, 37218","Match","Non_Exact","3510 W HAMILTON RD, NASHVILLE, TN, 37218",97178455,"R"
183346,"3510 WILLIAMS","INKSTER","MI",48141,42.2849336740001,-83.312989153,346,"3510 WILLIAMS, INKSTER, MI, 48141","Match","Non_Exact","3510 WILLIAMS ST, INKSTER, MI, 48141",95434732,"R"
183347,"3510 WOOLMAN DR","HAYMARKET","VA",20169,38.8819306240001,-77.6694899249999,347,"3510 WOOLMAN DR, HAYMARKET, VA, 20169","Match","Exact","3510 WOOLMAN DR, HAYMARKET, VA, 20169",76502344,"L"
183348,"35100 BOHNA RANCH ROAD","COARSEGOLD","CA",93614,37.256727981,-119.71864782,348,"35100 BOHNA RANCH ROAD, COARSEGOLD, CA, 93614","Match","Exact","35100 BOHNA RANCH RD, COARSEGOLD, CA, 93614",102351216,"R"
183349,"35100 HIGHWAY 18/ PO BOX 2337","RUNNING SPRINGS","CA",92382,NA,NA,349,"35100 HIGHWAY 18/ PO BOX 2337, RUNNING SPRINGS, CA, 92382","No_Match",NA,NA,NA,NA
183350,"35100 LITTLE MACK AVENUE","CLINTON","MI",48035,42.5556279150001,-82.910345949,350,"35100 LITTLE MACK AVENUE, CLINTON, MI, 48035","Match","Non_Exact","35100 LITTLE MACK AVE, CLINTON TOWNSHIP, MI, 48035",110680583,"R"
183351,"35100 LITTLE MACK","CLINTON TOWNSHIP","MI",48035,42.5556279150001,-82.910345949,351,"35100 LITTLE MACK, CLINTON TOWNSHIP, MI, 48035","Match","Non_Exact","35100 LITTLE MACK AVE, CLINTON TOWNSHIP, MI, 48035",110680583,"R"
183352,"35104 BOMAN LANE","ASTORIA","OR",97103,46.1313541540001,-123.8585744,352,"35104 BOMAN LANE, ASTORIA, OR, 97103","Match","Exact","35104 BOMAN LN, ASTORIA, OR, 97103",159245877,"L"
183353,"35104 EUCLID AVENUE SUITE 316","WILLOUGHBY","OH",44094,41.6254407550001,-81.4375411,353,"35104 EUCLID AVENUE SUITE 316, WILLOUGHBY, OH, 44094","Match","Exact","35104 EUCLID AVE, WILLOUGHBY, OH, 44094",641742092,"R"
183354,"3511 133RD LN NW","ANDOVER","MN",55304,45.213294811,-93.355121352,354,"3511 133RD LN NW, ANDOVER, MN, 55304","Match","Exact","3511 133RD LN NW, ANDOVER, MN, 55304",647498210,"R"
183355,"3511 BARNES AVE APT 3A","BRONX","NY",10467,40.8771773990001,-73.861651003,355,"3511 BARNES AVE APT 3A, BRONX, NY, 10467","Match","Exact","3511 BARNES AVE, BRONX, NY, 10467",80297321,"L"
183356,"3511 CHURCH AVE APT 1F","BROOKLYN","NY",11203,40.651079053,-73.9446083299999,356,"3511 CHURCH AVE APT 1F, BROOKLYN, NY, 11203","Match","Exact","3511 CHURCH AVE, BROOKLYN, NY, 11203",59081806,"L"
183357,"3511 COLLEGE AVE APT 3","SAN DIEGO","CA",92115,32.744718768,-117.054874907,357,"3511 COLLEGE AVE APT 3, SAN DIEGO, CA, 92115","Match","Exact","3511 COLLEGE AVE, SAN DIEGO, CA, 92115",195351254,"R"
183358,"3511 DAVENPORT STREET NW APT 311","WASHINGTON","DC",20008,38.9521017710001,-77.0684062779999,358,"3511 DAVENPORT STREET NW APT 311, WASHINGTON, DC, 20008","Match","Exact","3511 DAVENPORT ST NW, WASHINGTON, DC, 20008",76220410,"R"
183359,"3511 DEL PASO RD  SUITE 160 PMB 119","SACRAMENTO","CA",95835,38.655709427,-121.54146112,359,"3511 DEL PASO RD  SUITE 160 PMB 119, SACRAMENTO, CA, 95835","Match","Non_Exact","3511 DEL PASO RD, SACRAMENTO, CA, 95835",645234065,"R"
183360,"3511 DEL PASO RD 160-228","SACREMENTO","CA",95835,38.655709427,-121.54146112,360,"3511 DEL PASO RD 160-228, SACREMENTO, CA, 95835","Match","Non_Exact","3511 DEL PASO RD, SACRAMENTO, CA, 95835",645234065,"R"
183361,"3511 DEL PASO RD STE 160 314","SACRAMENTO","CA",95835,38.655709427,-121.54146112,361,"3511 DEL PASO RD STE 160 314, SACRAMENTO, CA, 95835","Match","Non_Exact","3511 DEL PASO RD, SACRAMENTO, CA, 95835",645234065,"R"
183362,"3511 DEL PASO RD STE 160 POB 134","SACRAMENTO","CA",95835,38.655709427,-121.54146112,362,"3511 DEL PASO RD STE 160 POB 134, SACRAMENTO, CA, 95835","Match","Non_Exact","3511 DEL PASO RD, SACRAMENTO, CA, 95835",645234065,"R"
183363,"3511 E BASELINE RD UNIT 1265","PHOENIX","AZ",85042,33.3780266860001,-112.007384568,363,"3511 E BASELINE RD UNIT 1265, PHOENIX, AZ, 85042","Match","Non_Exact","3511 E BASELINE RD, PHOENIX, AZ, 85042",128923438,"R"
183364,"3511 E COOLIDGE ST","PHOENIX","AZ",85018,33.5057765400001,-112.005881986,364,"3511 E COOLIDGE ST, PHOENIX, AZ, 85018","Match","Exact","3511 E COOLIDGE ST, PHOENIX, AZ, 85018",128219542,"R"
183365,"3511 EAST BASELINE RD 1025","PHOENIX","AZ",85042,33.3780266690001,-112.007390405,365,"3511 EAST BASELINE RD 1025, PHOENIX, AZ, 85042","Match","Exact","3511 E BASELINE RD, PHOENIX, AZ, 85042",128923438,"R"
183366,"3511 EDGEWOOD DRIVE","VANCOUVER","WA",98661,45.6270659670001,-122.634249792,366,"3511 EDGEWOOD DRIVE, VANCOUVER, WA, 98661","Match","Exact","3511 EDGEWOOD DR, VANCOUVER, WA, 98661",158326964,"R"
183367,"3511 GRANT AVE","SANDUSKY","OH",44870,41.4220960490001,-82.68641827,367,"3511 GRANT AVE, SANDUSKY, OH, 44870","Match","Exact","3511 GRANT AVE, SANDUSKY, OH, 44870",55325887,"L"
183368,"3511 HOOPER","ANCHORAGE","AK",99502,NA,NA,368,"3511 HOOPER, ANCHORAGE, AK, 99502","No_Match",NA,NA,NA,NA
183369,"3511 HOPI DRIVE","ORLANDO","FL",32839,28.5065471510001,-81.412111366,369,"3511 HOPI DRIVE, ORLANDO, FL, 32839","Match","Exact","3511 HOPI DR, ORLANDO, FL, 32839",94274642,"L"
183370,"3511 LINKWOOD","HOUSTON","TX",77025,29.6867977860001,-95.4289441769999,370,"3511 LINKWOOD, HOUSTON, TX, 77025","Match","Non_Exact","3511 LINKWOOD DR, HOUSTON, TX, 77025",96086980,"L"
183371,"3511 MARLBORO COURT","CHARLOTTESVILLE","VA",22901,38.093517025,-78.458019567,371,"3511 MARLBORO COURT, CHARLOTTESVILLE, VA, 22901","Match","Exact","3511 MARLBORO CT, CHARLOTTESVILLE, VA, 22901",83367540,"L"
183372,"3511 MERIDIAN AVE","CELINA","TX",75009,33.2772112000001,-96.799449006,372,"3511 MERIDIAN AVE, CELINA, TX, 75009","Match","Exact","3511 MERIDIAN AVE, CELINA, TX, 75009",642934292,"L"
183373,"3511 MILWAUKEE ST","MADISON","WI",53714,43.098191978,-89.325745092,373,"3511 MILWAUKEE ST, MADISON, WI, 53714","Match","Exact","3511 MILWAUKEE ST, MADISON, WI, 53714",49474441,"R"
183374,"3511 N 39TH STREET","MILWAUKEE","WI",53216,43.082734676,-87.9622274279999,374,"3511 N 39TH STREET, MILWAUKEE, WI, 53216","Match","Exact","3511 N 39TH ST, MILWAUKEE, WI, 53216",77732222,"L"
183375,"3511 N OSCEOLA AVE","CHICAGO","IL",60634,41.9435564620001,-87.813047094,375,"3511 N OSCEOLA AVE, CHICAGO, IL, 60634","Match","Exact","3511 N OSCEOLA AVE, CHICAGO, IL, 60634",605166242,"R"
183376,"3511 NE 22ND AVENUE - SUITE 350","FORT LAUDERDALE","FL",33308,26.171876469,-80.1182714609999,376,"3511 NE 22ND AVENUE - SUITE 350, FORT LAUDERDALE, FL, 33308","Match","Non_Exact","3511 NE 22ND AVE, FORT LAUDERDALE, FL, 33308",114724517,"L"
183377,"3511 NE 2ND ST","RENTON","WA",98056,NA,NA,377,"3511 NE 2ND ST, RENTON, WA, 98056","No_Match",NA,NA,NA,NA
183378,"3511 NE MLK JR BLVD","PORTLAND","OR",97212,45.5484236520001,-122.661593318,378,"3511 NE MLK JR BLVD, PORTLAND, OR, 97212","Match","Exact","3511 NE M L KING BLVD, PORTLAND, OR, 97212",157504098,"L"
183379,"3511 NW 91ST AVE","MIAMI","FL",33172,25.8058657830001,-80.343997633,379,"3511 NW 91ST AVE, MIAMI, FL, 33172","Match","Exact","3511 NW 91ST AVE, MIAMI, FL, 33172",116266679,"L"
183380,"3511 ORCHID LANE","ROWLETT","TX",75089,32.916381949,-96.5692615139999,380,"3511 ORCHID LANE, ROWLETT, TX, 75089","Match","Exact","3511 ORCHID LN, ROWLETT, TX, 75089",102972855,"R"
183381,"3511 SCHURMIER RD","HOUSTON","TX",77047,29.608255301,-95.3674612899999,381,"3511 SCHURMIER RD, HOUSTON, TX, 77047","Match","Exact","3511 SCHURMIER RD, HOUSTON, TX, 77047",96090385,"L"
183382,"3511 SE J ST SUITE 9 202","BENTONVILLE","AR",72712,36.336161614,-94.197496811,382,"3511 SE J ST SUITE 9 202, BENTONVILLE, AR, 72712","Match","Non_Exact","3511 SE J ST, BENTONVILLE, AR, 72712",649866234,"L"
183383,"3511 SILIVERSIDE RD SUITE 105","WILMINGTON","DE",19810,39.8091177000001,-75.547611148,383,"3511 SILIVERSIDE RD SUITE 105, WILMINGTON, DE, 19810","Match","Non_Exact","3511 SILVERSIDE RD, WILMINGTON, DE, 19810",606252070,"R"
183384,"3511 SILVERSIDE RD SUITE 105","WILMINGTON","DE",19810,39.8091177000001,-75.547611148,384,"3511 SILVERSIDE RD SUITE 105, WILMINGTON, DE, 19810","Match","Exact","3511 SILVERSIDE RD, WILMINGTON, DE, 19810",606252070,"R"
183385,"3511 STOCKER STREET UNIT 2","LOS ANGELES","CA",90008,34.0085033820001,-118.333538844,385,"3511 STOCKER STREET UNIT 2, LOS ANGELES, CA, 90008","Match","Non_Exact","3511 W STOCKER ST, LOS ANGELES, CA, 90008",241169875,"R"
183386,"3511 W 161ST ST APT A","MARKHAM","IL",60428,41.5971298630001,-87.7020431989999,386,"3511 W 161ST ST APT A, MARKHAM, IL, 60428","Match","Exact","3511 161ST ST, MARKHAM, IL, 60428",111704795,"L"
183387,"3511 W NORTHERN PARKWAY","BALTIMORE","MD",21215,39.353032027,-76.683128742,387,"3511 W NORTHERN PARKWAY, BALTIMORE, MD, 21215","Match","Exact","3511 NORTHERN PKWY, BALTIMORE, MD, 21215",206439861,"R"
183388,"3511 WEST 16TH STREET","LITTLE ROCK","AR",72204,34.7366516060001,-92.313528041,388,"3511 WEST 16TH STREET, LITTLE ROCK, AR, 72204","Match","Exact","3511 W 16TH ST, LITTLE ROCK, AR, 72204",83527535,"L"
183389,"3511 WEST 45TH AVENUE","DENVER","CO",80211,39.7779521690001,-105.033300658,389,"3511 WEST 45TH AVENUE, DENVER, CO, 80211","Match","Exact","3511 W 45TH AVE, DENVER, CO, 80211",177300603,"R"
183390,"3511 WEST 83RD TERRACE","PRAIRIE VILLAGE","KS",66206,38.977590363,-94.626666249,390,"3511 WEST 83RD TERRACE, PRAIRIE VILLAGE, KS, 66206","Match","Exact","3511 W 83RD TER, PRAIRIE VLG, KS, 66206",91279362,"L"
183391,"3511 WESTFIELD DRIVE","BRANDON","FL",33511,27.8916095500001,-82.298309225,391,"3511 WESTFIELD DRIVE, BRANDON, FL, 33511","Match","Exact","3511 WESTFIELD DR, BRANDON, FL, 33511",104700620,"R"
183392,"3511","BROWNSVILLE","TX",78520,NA,NA,392,"3511, BROWNSVILLE, TX, 78520","No_Match",NA,NA,NA,NA
183393,"35111 NEWARK BLVD NUM F24","NEWARK","CA",94560,37.5496898750001,-122.047911191,393,"35111 NEWARK BLVD NUM F24, NEWARK, CA, 94560","Match","Exact","35111 NEWARK BLVD, NEWARK, CA, 94560",606337201,"R"
183394,"35111 NEWARK BLVD UNIT 82","NEWARK","CA",94560,37.5496898750001,-122.047911191,394,"35111 NEWARK BLVD UNIT 82, NEWARK, CA, 94560","Match","Exact","35111 NEWARK BLVD, NEWARK, CA, 94560",606337201,"R"
183395,"35111F NEWARK BLVD NUMBER 526","NEWARK","CA",94560,37.5496873280001,-122.047906057,395,"35111F NEWARK BLVD NUMBER 526, NEWARK, CA, 94560","Match","Exact","35111 NEWARK BLVD, NEWARK, CA, 94560",606337201,"R"
183396,"35114 HATHERLY CT","STERLING HTS","MI",48310,42.55081605,-83.0620495269999,396,"35114 HATHERLY CT, STERLING HTS, MI, 48310","Match","Exact","35114 HATHERLY CT, STERLING HEIGHTS, MI, 48310",110690114,"L"
183397,"35114 PERSANO PLACE","FALLBROOK","CA",92028,33.349107164,-117.153083168,397,"35114 PERSANO PLACE, FALLBROOK, CA, 92028","Match","Exact","35114 PERSANO PL, FALLBROOK, CA, 92028",650622846,"R"
183398,"35116 54TH AVE S","AUBURN","WA",98001,47.286653519,-122.267453191,398,"35116 54TH AVE S, AUBURN, WA, 98001","Match","Exact","35116 54TH AVE S, AUBURN, WA, 98001",186683540,"R"
183399,"3512 B 6TH AVE SE","DECATUR","AL",35603,34.541864063,-86.973698487,399,"3512 B 6TH AVE SE, DECATUR, AL, 35603","Match","Exact","3512 6TH AVE SE, DECATUR, AL, 35603",97114920,"L"
183400,"3512 BRIEL STREET","RICHMOND","VA",23223,37.5333984160001,-77.39713648,400,"3512 BRIEL STREET, RICHMOND, VA, 23223","Match","Exact","3512 BRIEL ST, RICHMOND, VA, 23223",201548791,"R"
183401,"3512 BROOKFIELD ROAD","HOOVER","AL",35226,33.37166842,-86.846644467,401,"3512 BROOKFIELD ROAD, HOOVER, AL, 35226","Match","Exact","3512 BROOKFIELD RD, HOOVER, AL, 35226",81632191,"R"
183402,"3512 EMERSON AVE S APT 4","MINNEAPOLIS","MN",55408,44.939184148,-93.294559114,402,"3512 EMERSON AVE S APT 4, MINNEAPOLIS, MN, 55408","Match","Exact","3512 EMERSON AVE S, MINNEAPOLIS, MN, 55408",43628720,"R"
183403,"3512 FAIRMONT PKWY","PASADENA","TX",77504,29.6514773220001,-95.190191982,403,"3512 FAIRMONT PKWY, PASADENA, TX, 77504","Match","Exact","3512 FAIRMONT PKWY, PASADENA, TX, 77504",96600720,"R"
183404,"3512 GOLDEN PEDAL STREET","LAS VEGAS","NV",89129,36.224770688,-115.297945171,404,"3512 GOLDEN PEDAL STREET, LAS VEGAS, NV, 89129","Match","Exact","3512 GOLDEN PEDAL ST, LAS VEGAS, NV, 89129",201905745,"R"
183405,"3512 GREENWOOD AVE","LOS ANGELES","CA",90066,34.0055016320001,-118.446765672,405,"3512 GREENWOOD AVE, LOS ANGELES, CA, 90066","Match","Exact","3512 GREENWOOD AVE, LOS ANGELES, CA, 90066",141570377,"L"
183406,"3512 INGERSOLL AVENUE","DES MOINES","IA",50265,41.5863057770001,-93.664390307,406,"3512 INGERSOLL AVENUE, DES MOINES, IA, 50265","Match","Non_Exact","3512 INGERSOLL AVE, DES MOINES, IA, 50312",65780800,"L"
183407,"3512 JUMILLA WAY","SACRAMETNO","CA",95834,38.6304355280001,-121.538080654,407,"3512 JUMILLA WAY, SACRAMETNO, CA, 95834","Match","Non_Exact","3512 JUMILLA WAY, SACRAMENTO, CA, 95834",133409177,"R"
183408,"3512 KENTUCKY TRAIL","CHESAPEAKE","VA",23323,36.748880538,-76.3754999189999,408,"3512 KENTUCKY TRAIL, CHESAPEAKE, VA, 23323","Match","Exact","3512 KENTUCKY TRL, CHESAPEAKE, VA, 23323",121794385,"R"
183409,"3512 LOCHNORA PARKWAY","DURHAM","NC",27705,35.9859501560001,-78.981018236,409,"3512 LOCHNORA PARKWAY, DURHAM, NC, 27705","Match","Exact","3512 LOCHNORA PKWY, DURHAM, NC, 27705",71766931,"L"
183410,"3512 MONTE RIO ST","NEWPORT RICHEY","FL",34655,28.210137726,-82.6875164309999,410,"3512 MONTE RIO ST, NEWPORT RICHEY, FL, 34655","Match","Non_Exact","3512 MONTE RIO ST, NEW PORT RICHEY, FL, 34655",86351458,"R"
183411,"3512 MOUNTCASTLE DRIVE","FORT WORTH","TX",76119,32.710124679,-97.252436388,411,"3512 MOUNTCASTLE DRIVE, FORT WORTH, TX, 76119","Match","Exact","3512 MOUNTCASTLE DR, FORT WORTH, TX, 76119",101899334,"R"
183412,"3512 MYRTIE COURT PO BOX 30732","GREENVILLE","NC",27834,35.581867263,-77.416688581,412,"3512 MYRTIE COURT PO BOX 30732, GREENVILLE, NC, 27834","Match","Exact","3512 MYRTIE CT, GREENVILLE, NC, 27834",80048636,"L"
183413,"3512 NORTH OXNARD BLVD","OXNARD","CA",93036,34.251987371,-119.170388807,413,"3512 NORTH OXNARD BLVD, OXNARD, CA, 93036","Match","Exact","3512 N OXNARD BL, OXNARD, CA, 93036",617496951,"R"
183414,"3512 NORWICH STREET","BRUNSWICK","GA",31520,31.1770846910001,-81.5012511209999,414,"3512 NORWICH STREET, BRUNSWICK, GA, 31520","Match","Exact","3512 NORWICH ST, BRUNSWICK, GA, 31520",643176786,"R"
183415,"3512 POINCIANA STREET","NAPLES","FL",34105,NA,NA,415,"3512 POINCIANA STREET, NAPLES, FL, 34105","No_Match",NA,NA,NA,NA
183416,"3512 RONALD RD","CRETE","IL",60417,41.4660766910001,-87.585903827,416,"3512 RONALD RD, CRETE, IL, 60417","Match","Exact","3512 RONALD RD, CRETE, IL, 60417",111553796,"L"
183417,"3512 SWAN LANE","FORT COLLINS","CO",80524,40.6375945510001,-105.083718769,417,"3512 SWAN LANE, FORT COLLINS, CO, 80524","Match","Exact","3512 SWAN LN, FORT COLLINS, CO, 80524",188479565,"R"
183418,"3512 W CONGRESS PKWY 1ST FL","CHICAGO","IL",60624,41.8745129910001,-87.713484847,418,"3512 W CONGRESS PKWY 1ST FL, CHICAGO, IL, 60624","Match","Non_Exact","3512 W CONGRESS PKWY, CHICAGO, IL, 60624",605084815,"R"
183419,"3512 WALDROP RIDGE LANE","DECATUR","GA",30034,33.6780471660001,-84.245529351,419,"3512 WALDROP RIDGE LANE, DECATUR, GA, 30034","Match","Exact","3512 WALDROP RIDGE LN, DECATUR, GA, 30034",23398211,"L"
183420,"3512 WEST 159TH STREET","MARKHAM","IL",60428,41.6007701120001,-87.7020728799999,420,"3512 WEST 159TH STREET, MARKHAM, IL, 60428","Match","Exact","3512 W 159TH ST, MARKHAM, IL, 60428",111704560,"R"
183421,"3512 WEST MCLEAN AVENUE","CHICAGO","IL",60647,41.9182384370001,-87.7141023199999,421,"3512 WEST MCLEAN AVENUE, CHICAGO, IL, 60647","Match","Exact","3512 W MCLEAN AVE, CHICAGO, IL, 60647",111759095,"R"
183422,"3512 WYOGA LAKE ROAD  APT 204","STOW","OH",44224,41.1649691640001,-81.49225612,422,"3512 WYOGA LAKE ROAD  APT 204, STOW, OH, 44224","Match","Exact","3512 WYOGA LAKE RD, STOW, OH, 44224",61385451,"L"
183423,"3513 12TH ST","SALEM","OR",97302,44.9035511760001,-123.030802025,423,"3513 12TH ST, SALEM, OR, 97302","Match","Non_Exact","3513 12TH ST SE, SALEM, OR, 97302",156250796,"R"
183424,"3513 BLACK BUCK TRAIL","SAN ANGELO","TX",76901,31.4990062520001,-100.571466381,424,"3513 BLACK BUCK TRAIL, SAN ANGELO, TX, 76901","Match","Exact","3513 BLACK BUCK TRL, SAN ANGELO, TX, 76901",651890705,"L"
183425,"3513 BROOKDALE CT","ANTIOCH","CA",94509,37.9880209020001,-121.799707427,425,"3513 BROOKDALE CT, ANTIOCH, CA, 94509","Match","Exact","3513 BROOKDALE CT, ANTIOCH, CA, 94509",192068521,"L"
183426,"3513 CROSS BEND RD","PLANO","TX",75023,33.0492036840001,-96.7604551489999,426,"3513 CROSS BEND RD, PLANO, TX, 75023","Match","Exact","3513 CROSS BEND RD, PLANO, TX, 75023",123486357,"R"
183427,"3513 DUPONT AVENUE SOUTH NUMBER 411","MINNEAPOLIS","MN",55408,44.939184814,-93.29327079,427,"3513 DUPONT AVENUE SOUTH NUMBER 411, MINNEAPOLIS, MN, 55408","Match","Exact","3513 DUPONT AVE S, MINNEAPOLIS, MN, 55408",43628721,"L"
183428,"3513 E SQUIRE AVE","CUDAHY","WI",53110,42.958191362,-87.8621110779999,428,"3513 E SQUIRE AVE, CUDAHY, WI, 53110","Match","Exact","3513 E SQUIRE AVE, CUDAHY, WI, 53110",77754906,"R"
183429,"3513 FOX CHASE DRIVE","IMPERIAL","PA",15126,40.4482900950001,-80.221190537,429,"3513 FOX CHASE DRIVE, IMPERIAL, PA, 15126","Match","Exact","3513 FOX CHASE DR, IMPERIAL, PA, 15126",51921236,"L"
183430,"3513 HAWTHORNE DRIVE","OWENSBORO","KY",42303,37.7377981560001,-87.1144745079999,430,"3513 HAWTHORNE DRIVE, OWENSBORO, KY, 42303","Match","Exact","3513 HAWTHORNE DR, OWENSBORO, KY, 42303",37559866,"L"
183431,"3513 LINDENWOOD WAY","SACRAMENTO","CA",95826,38.5467006050001,-121.368153757,431,"3513 LINDENWOOD WAY, SACRAMENTO, CA, 95826","Match","Exact","3513 LINDENWOOD WAY, SACRAMENTO, CA, 95826",133340089,"L"
183432,"3513 MERCURY LANE","RACINE","WI",53404,42.7648525920001,-87.8219556669999,432,"3513 MERCURY LANE, RACINE, WI, 53404","Match","Exact","3513 MERCURY LN, RACINE, WI, 53404",77905622,"L"
183433,"3513 MONROE DR","YUBA CITY","CA",95993,39.1451900480001,-121.682220531,433,"3513 MONROE DR, YUBA CITY, CA, 95993","Match","Exact","3513 MONROE DR, YUBA CITY, CA, 95993",619515724,"R"
183434,"3513 MORRELL AVENUE","PHILADELPHIA","PA",19114,40.071319503,-74.98767258,434,"3513 MORRELL AVENUE, PHILADELPHIA, PA, 19114","Match","Exact","3513 MORRELL AVE, PHILADELPHIA, PA, 19114",131434138,"L"
183435,"3513 N 62ND PL","SCOTTSDALE","AZ",85251,33.4890046840001,-111.947233943,435,"3513 N 62ND PL, SCOTTSDALE, AZ, 85251","Match","Exact","3513 N 62ND PL, SCOTTSDALE, AZ, 85251",128222416,"R"
183436,"3513 N FRAZIER","CONROE","TX",77303,30.357136424,-95.473680716,436,"3513 N FRAZIER, CONROE, TX, 77303","Match","Non_Exact","3513 N FRAZIER ST, CONROE, TX, 77303",79297040,"L"
183437,"3513 NETTIE FENWICK ROAD","FENWICK","WV",26202,38.217522402,-80.62403038,437,"3513 NETTIE FENWICK ROAD, FENWICK, WV, 26202","Match","Exact","3513 NETTIE FENWICK RD, FENWICK, WV, 26202",50059768,"L"
183438,"3513 NEWPORT DR","LEXINGTON","KY",40517,37.9874043900001,-84.48988456,438,"3513 NEWPORT DR, LEXINGTON, KY, 40517","Match","Exact","3513 NEWPORT DR, LEXINGTON, KY, 40517",31925043,"R"
183439,"3513 NORFOLK CT","MOUNT JULIET","TN",37122,36.2101307400001,-86.560436124,439,"3513 NORFOLK CT, MOUNT JULIET, TN, 37122","Match","Exact","3513 NORFOLK CT, MOUNT JULIET, TN, 37122",89705113,"L"
183440,"3513 REECE ROAD","BOONVILLE","NC",27011,36.224863907,-80.68844395,440,"3513 REECE ROAD, BOONVILLE, NC, 27011","Match","Exact","3513 REECE RD, BOONVILLE, NC, 27011",84771322,"L"
183441,"3513 REGATTA WAY","LOUISVILLE","KY",40211,38.2370602550001,-85.8129238989999,441,"3513 REGATTA WAY, LOUISVILLE, KY, 40211","Match","Exact","3513 REGATTA WAY, LOUISVILLE, KY, 40211",96836663,"R"
183442,"3513 SAINT MARYS VIEW RD","ACCOKEEK","MD",20607,38.6970136950001,-76.9469812,442,"3513 SAINT MARYS VIEW RD, ACCOKEEK, MD, 20607","Match","Exact","3513 ST MARYS VIEW RD, ACCOKEEK, MD, 20607",648008051,"L"
183443,"3513 SE 43RD AVENUE","PORTLAND","OR",97206,45.4966480530001,-122.618028824,443,"3513 SE 43RD AVENUE, PORTLAND, OR, 97206","Match","Exact","3513 SE 43RD AVE, PORTLAND, OR, 97206",157539304,"R"
183444,"3513 SHELBY ST","INDPLS","IN",46227,39.7151853760001,-86.139461516,444,"3513 SHELBY ST, INDPLS, IN, 46227","Match","Exact","3513 SHELBY ST, INDIANAPOLIS, IN, 46227",108006967,"L"
183445,"3513 WASHINGTON DRIVE","FRISCO","TX",75034,33.114438911,-96.8588894809999,445,"3513 WASHINGTON DRIVE, FRISCO, TX, 75034","Match","Exact","3513 WASHINGTON DR, FRISCO, TX, 75034",636997036,"R"
183446,"3513 WENDELKIN STREET","DALLAS","TX",75215,32.7590260440001,-96.7717718229999,446,"3513 WENDELKIN STREET, DALLAS, TX, 75215","Match","Exact","3513 WENDELKIN ST, DALLAS, TX, 75215",102950613,"R"
183447,"3513 WEST STATION ST","PRICHARD","AL",36612,NA,NA,447,"3513 WEST STATION ST, PRICHARD, AL, 36612","No_Match",NA,NA,NA,NA
183448,"3514 6TH STREET SE","WASHINGTON","DC",20032,38.839117398,-76.9984439309999,448,"3514 6TH STREET SE, WASHINGTON, DC, 20032","Match","Exact","3514 6TH ST SE, WASHINGTON, DC, 20032",76234935,"L"
183449,"3514 AVENUE P","BROOKLYN","NY",11234,40.6158911270001,-73.939205785,449,"3514 AVENUE P, BROOKLYN, NY, 11234","Match","Exact","3514 AVE P, BROOKLYN, NY, 11234",59090391,"R"
183450,"3514 BELRIDGE LANE SE","SMYRNA","GA",30080,33.86906141,-84.496339924,450,"3514 BELRIDGE LANE SE, SMYRNA, GA, 30080","Match","Exact","3514 BELRIDGE LN SE, SMYRNA, GA, 30080",640220700,"R"
183451,"3514 DARBY COURT","PEARLAND","TX",77584,29.531656802,-95.363955316,451,"3514 DARBY COURT, PEARLAND, TX, 77584","Match","Exact","3514 DARBY CT, PEARLAND, TX, 77584",627210721,"L"
183452,"3514 E RIVER RD","SOUTH CHESTERFIELD","VA",23803,37.2412700130001,-77.425881724,452,"3514 E RIVER RD, SOUTH CHESTERFIELD, VA, 23803","Match","Exact","3514 E RIVER RD, SOUTH CHESTERFIELD, VA, 23803",201551788,"R"
183453,"3514 EAST NOCONA LANE","PHOENIX","AZ",85050,33.695330089,-111.995714493,453,"3514 EAST NOCONA LANE, PHOENIX, AZ, 85050","Match","Exact","3514 E NOCONA LN, PHOENIX, AZ, 85050",243982855,"L"
183454,"3514 FIR STREET","EAST CHICAGO","IN",46312,41.648929127,-87.448639341,454,"3514 FIR STREET, EAST CHICAGO, IN, 46312","Match","Exact","3514 FIR ST, EAST CHICAGO, IN, 46312",98423646,"R"
183455,"3514 HYDE PARK AVENUE","MIDLAND","TX",79707,32.0178180780001,-102.129644508,455,"3514 HYDE PARK AVENUE, MIDLAND, TX, 79707","Match","Exact","3514 HYDE PARK AVE, MIDLAND, TX, 79707",139578765,"R"
183456,"3514 MACCUMBER CT","FAYETTEVILLE","NC",28311,35.1558298300001,-78.8996905389999,456,"3514 MACCUMBER CT, FAYETTEVILLE, NC, 28311","Match","Exact","3514 MACCUMBER CT, FAYETTEVILLE, NC, 28311",637555336,"L"
183457,"3514 MOUNTAIN VIEW AVE","LONGMONT","CO",80503,40.1821054850001,-105.148916342,457,"3514 MOUNTAIN VIEW AVE, LONGMONT, CO, 80503","Match","Exact","3514 MOUNTAIN VIEW AVE, LONGMONT, CO, 80503",188154693,"R"
183458,"3514 RACCOON LANE","PUEBLO","CO",81005,38.2115609840001,-104.65281483,458,"3514 RACCOON LANE, PUEBLO, CO, 81005","Match","Exact","3514 RACCOON LN, PUEBLO, CO, 81005",645921032,"L"
183459,"3514 ROCHAMBEAU AVENUE APT 5H","BRONX","NY",10467,40.881967074,-73.8791865059999,459,"3514 ROCHAMBEAU AVENUE APT 5H, BRONX, NY, 10467","Match","Exact","3514 ROCHAMBEAU AVE, BRONX, NY, 10467",80296828,"R"
183460,"3514 ROCKY STREAM DRIVE","FORT COLLINS","CO",80528,40.5018088630001,-105.011105733,460,"3514 ROCKY STREAM DRIVE, FORT COLLINS, CO, 80528","Match","Exact","3514 ROCKY STREAM DR, FORT COLLINS, CO, 80528",647330097,"R"
183461,"3514 S 292ND ST","AUBURN","WA",98001,47.339808442,-122.287872881,461,"3514 S 292ND ST, AUBURN, WA, 98001","Match","Exact","3514 S 292ND ST, AUBURN, WA, 98001",239774350,"L"
183462,"3514 S ELM EUGENE ST APT Q","GREENSBORO","NC",27406,36.014448063,-79.793613389,462,"3514 S ELM EUGENE ST APT Q, GREENSBORO, NC, 27406","Match","Non_Exact","3514 S ELM EUGENE ST, GREENSBORO, NC, 27406",131046584,"R"
183463,"3514 SUTTON PLACE","BLOOMFIELD HILLS","MI",48301,NA,NA,463,"3514 SUTTON PLACE, BLOOMFIELD HILLS, MI, 48301","No_Match",NA,NA,NA,NA
183464,"3514 TELFAIR WAY NE","BROOKHAVEN","GA",30319,33.8947179670001,-84.3411358449999,464,"3514 TELFAIR WAY NE, BROOKHAVEN, GA, 30319","Match","Exact","3514 TELFAIR WAY NE, BROOKHAVEN, GA, 30319",23386205,"R"
183465,"3514 TERRY COAL RD","CROFTON","KY",42217,37.110010177,-87.598722604,465,"3514 TERRY COAL RD, CROFTON, KY, 42217","Match","Exact","3514 TERRY COAL RD, CROFTON, KY, 42217",11295963,"R"
183466,"3514 TIMBER BLUFF LN","NEW ORLEANS","LA",70131,29.898985297,-89.997030508,466,"3514 TIMBER BLUFF LN, NEW ORLEANS, LA, 70131","Match","Exact","3514 TIMBER BLUFF LN, NEW ORLEANS, LA, 70131",191723716,"L"
183467,"3514 W FIGURE SKATE CIRCLE","WEST JORDAN","UT",84084,40.630271023,-111.974981067,467,"3514 W FIGURE SKATE CIRCLE, WEST JORDAN, UT, 84084","Match","Exact","3514 W FIGURE SKATE CIR, WEST JORDAN, UT, 84084",176142942,"R"
183468,"35144 N SHERIDAN DRIVE","INGLESIDE","IL",60041,42.3746092050001,-88.174623958,468,"35144 N SHERIDAN DRIVE, INGLESIDE, IL, 60041","Match","Exact","35144 N SHERIDAN DR, INGLESIDE, IL, 60041",119623227,"R"
183469,"3515 11TH AVE NORTH","GRAND FORKS","ND",58203,47.93000492,-97.078610563,469,"3515 11TH AVE NORTH, GRAND FORKS, ND, 58203","Match","Exact","3515 11TH AVE N, GRAND FORKS, ND, 58203",171275118,"L"
183470,"3515 173RD COURT NE","REDMOND","WA",98052,47.641752362,-122.109562465,470,"3515 173RD COURT NE, REDMOND, WA, 98052","Match","Exact","3515 173RD CT NE, REDMOND, WA, 98052",186612551,"R"
183471,"3515 91ST STREET","LUBBOCK","TX",79423,33.511770444,-101.890778335,471,"3515 91ST STREET, LUBBOCK, TX, 79423","Match","Exact","3515 91ST ST, LUBBOCK, TX, 79423",185252983,"R"
183472,"3515 ARSENAL CT UNIT 103","CHARLOTTR","NC",28273,35.1329843500001,-80.9383960709999,472,"3515 ARSENAL CT UNIT 103, CHARLOTTR, NC, 28273","Match","Non_Exact","3515 ARSENAL CT, CHARLOTTE, NC, 28273",618152097,"L"
183473,"3515 BANKVIEW DRIVE","JOLIET","IL",60431,41.5315275150001,-88.169850276,473,"3515 BANKVIEW DRIVE, JOLIET, IL, 60431","Match","Exact","3515 BANKVIEW DR, JOLIET, IL, 60431",645549040,"R"
183474,"3515 BOXWOOD GATE TRL","PEARLAND","TX",77581,29.5405083000001,-95.263055574,474,"3515 BOXWOOD GATE TRL, PEARLAND, TX, 77581","Match","Exact","3515 BOXWOOD GATE TRL, PEARLAND, TX, 77581",632015967,"R"
183475,"3515 BROWN ST APT 116","DALALS","TX",75219,32.8043489720001,-96.809593465,475,"3515 BROWN ST APT 116, DALALS, TX, 75219","Match","Non_Exact","3515 BROWN ST, DALLAS, TX, 75219",102908719,"L"
183476,"3515 BROWN STREET 123","DALLAS","TX",75219,32.8043489720001,-96.809593465,476,"3515 BROWN STREET 123, DALLAS, TX, 75219","Match","Exact","3515 BROWN ST, DALLAS, TX, 75219",102908719,"L"
183477,"3515 CAMPUS DRIVE","COLLEGE PARK","MD",20784,38.9853165170001,-76.954924846,477,"3515 CAMPUS DRIVE, COLLEGE PARK, MD, 20784","Match","Non_Exact","3515 CAMPUS DR, COLLEGE PARK, MD, 20740",76388862,"R"
183478,"3515 DAVID COX RD PMB 480691","CHARLOTTE","NC",28269,35.3352124290001,-80.791466578,478,"3515 DAVID COX RD PMB 480691, CHARLOTTE, NC, 28269","Match","Exact","3515 DAVID COX RD, CHARLOTTE, NC, 28269",70471330,"L"
183479,"3515 DAVID COX ROAD  UNIT 481748","CHARLOTTE","NC",28269,35.3352124290001,-80.791466578,479,"3515 DAVID COX ROAD  UNIT 481748, CHARLOTTE, NC, 28269","Match","Exact","3515 DAVID COX RD, CHARLOTTE, NC, 28269",70471330,"L"
183480,"3515 DAVID COX ROAD 480924","CHARLOTTE","NC",28269,35.3352124290001,-80.791466578,480,"3515 DAVID COX ROAD 480924, CHARLOTTE, NC, 28269","Match","Exact","3515 DAVID COX RD, CHARLOTTE, NC, 28269",70471330,"L"
183481,"3515 DREW ST","HOUSTON","TX",77004,29.731191215,-95.3488550389999,481,"3515 DREW ST, HOUSTON, TX, 77004","Match","Exact","3515 DREW ST, HOUSTON, TX, 77004",96073382,"L"
183482,"3515 E BART ST","GILBERT","AZ",85295,33.3155342470001,-111.714753773,482,"3515 E BART ST, GILBERT, AZ, 85295","Match","Exact","3515 E BART ST, GILBERT, AZ, 85295",601668096,"L"
183483,"3515 FOREST BROOK LANE","MONTGOMERY","AL",36116,32.331254518,-86.222212728,483,"3515 FOREST BROOK LANE, MONTGOMERY, AL, 36116","Match","Exact","3515 FOREST BROOK LN, MONTGOMERY, AL, 36116",1547945,"L"
183484,"3515 FORT HILL DRIVE","ALEXANDRIA","VA",22310,38.7890679180001,-77.091969067,484,"3515 FORT HILL DRIVE, ALEXANDRIA, VA, 22310","Match","Exact","3515 FORT HILL DR, ALEXANDRIA, VA, 22310",75988873,"L"
183485,"3515 HIGHWAY 52","COWARD","SC",29530,NA,NA,485,"3515 HIGHWAY 52, COWARD, SC, 29530","No_Match",NA,NA,NA,NA
183486,"3515 HYDE PARK BLVD NO 301","LOS ANGELES","CA",90043,33.980597555,-118.334062529,486,"3515 HYDE PARK BLVD NO 301, LOS ANGELES, CA, 90043","Match","Non_Exact","3515 HYDE PARK BLVD, LOS ANGELES, CA, 90043",141655093,"R"
183487,"3515 KIPLING DRIVE","ORLANDO","FL",32808,28.5567278030001,-81.4212166359999,487,"3515 KIPLING DRIVE, ORLANDO, FL, 32808","Match","Exact","3515 KIPLING DR, ORLANDO, FL, 32808",94273360,"R"
183488,"3515 LINDEN AVE","LONG BEACH","CA",90807,33.820494459,-118.186458847,488,"3515 LINDEN AVE, LONG BEACH, CA, 90807","Match","Exact","3515 LINDEN AVE, LONG BEACH, CA, 90807",141686213,"L"
183489,"3515 LIONS LAIR","GREENVILLE","TX",75402,33.1061654870001,-96.122739334,489,"3515 LIONS LAIR, GREENVILLE, TX, 75402","Match","Non_Exact","3515 LIONS LAIR RD, GREENVILLE, TX, 75402",648564275,"R"
183490,"3515 LONGMIRE DRIVE SUITE B","COLLEGE STATION","TX",77845,30.5831671330001,-96.286903922,490,"3515 LONGMIRE DRIVE SUITE B, COLLEGE STATION, TX, 77845","Match","Exact","3515 LONGMIRE DR, COLLEGE STATION, TX, 77845",21832521,"L"
183491,"3515 MACKENZIE DRIVE","POWDER SPRINGS","GA",30127,33.881630038,-84.656569401,491,"3515 MACKENZIE DRIVE, POWDER SPRINGS, GA, 30127","Match","Exact","3515 MACKENZIE DR, POWDER SPGS, GA, 30127",618320396,"R"
183492,"3515 MOORE ST","LOS ANGELES","CA",90066,34.006294671,-118.445015116,492,"3515 MOORE ST, LOS ANGELES, CA, 90066","Match","Exact","3515 MOORE ST, LOS ANGELES, CA, 90066",141570437,"R"
183493,"3515 N CLASSEN BLVD","OKLAHOMA CITY","OK",73118,NA,NA,493,"3515 N CLASSEN BLVD, OKLAHOMA CITY, OK, 73118","No_Match",NA,NA,NA,NA
183494,"3515 N WASHINGTON BLVD","INDIANAPOLIS","IN",46205,39.819498842,-86.15206607,494,"3515 N WASHINGTON BLVD, INDIANAPOLIS, IN, 46205","Match","Exact","3515 N WASHINGTON BLVD, INDIANAPOLIS, IN, 46205",107989084,"R"
183495,"3515 NE 158TH PL","LAKE FOREST PARK","WA",98155,47.743481896,-122.290548234,495,"3515 NE 158TH PL, LAKE FOREST PARK, WA, 98155","Match","Exact","3515 NE 158TH PL, LAKE FOREST PARK, WA, 98155",187080247,"R"
183496,"3515 OCEAN VIEW DRIVE 102","SEATTLE","WA",98146,47.502590624,-122.376441663,496,"3515 OCEAN VIEW DRIVE 102, SEATTLE, WA, 98146","Match","Non_Exact","3515 SW OCEAN VIEW DR, SEATTLE, WA, 98146",239773290,"L"
183497,"3515 PAINTBRUSH DAWN CT","KATY","TX",77493,29.822600143,-95.777741344,497,"3515 PAINTBRUSH DAWN CT, KATY, TX, 77493","Match","Exact","3515 PAINTBRUSH DAWN CT, KATY, TX, 77493",641967170,"L"
183498,"3515 S 13TH ST","MILWAUKEE","WI",53221,42.9805429960001,-87.928962949,498,"3515 S 13TH ST, MILWAUKEE, WI, 53221","Match","Exact","3515 S 13TH ST, MILWAUKEE, WI, 53221",77768980,"R"
183499,"3515 S ALASKA ST","SEATTLE","WA",98118,47.560713144,-122.288059673,499,"3515 S ALASKA ST, SEATTLE, WA, 98118","Match","Exact","3515 S ALASKA ST, SEATTLE, WA, 98118",239763176,"R"
183500,"3515 S GENERAL MCMULLEN DRIVE BLDG4","SAN ANTONIO","TX",78226,NA,NA,500,"3515 S GENERAL MCMULLEN DRIVE BLDG4, SAN ANTONIO, TX, 78226","No_Match",NA,NA,NA,NA
