"ID","Address","City","State","Zip","lat","long","id","input_address","match_indicator","match_type","matched_address","tiger_line_id","tiger_side"
335501,"PO BOX 160","NORTH CHILI","NY",14514,NA,NA,1,"PO BOX 160, NORTH CHILI, NY, 14514","No_Match",NA,NA,NA,NA
335502,"PO BOX 160","WEARE","NH",3281,NA,NA,2,"PO BOX 160, WEARE, NH, 3281","No_Match",NA,NA,NA,NA
335503,"PO BOX 160","WOOLWICH","ME",4579,NA,NA,3,"PO BOX 160, WOOLWICH, ME, 4579","No_Match",NA,NA,NA,NA
335504,"PO BOX 1600","BROOKINGS","OR",97415,NA,NA,4,"PO BOX 1600, BROOKINGS, OR, 97415","No_Match",NA,NA,NA,NA
335505,"PO BOX 1600","HIGH SPRINGS","FL",32655,NA,NA,5,"PO BOX 1600, HIGH SPRINGS, FL, 32655","No_Match",NA,NA,NA,NA
335506,"PO BOX 1600","INDIANOLA","MS",38751,NA,NA,6,"PO BOX 1600, INDIANOLA, MS, 38751","No_Match",NA,NA,NA,NA
335507,"PO BOX 1600","MOCKSVILLE","NC",27028,NA,NA,7,"PO BOX 1600, MOCKSVILLE, NC, 27028","No_Match",NA,NA,NA,NA
335508,"PO BOX 16004","ATLANTA","GA",30321,NA,NA,8,"PO BOX 16004, ATLANTA, GA, 30321","No_Match",NA,NA,NA,NA
335509,"PO BOX 160070","BIG SKY","MT",59716,NA,NA,9,"PO BOX 160070, BIG SKY, MT, 59716","No_Match",NA,NA,NA,NA
335510,"PO BOX 160089","NASHVILLE","TN",37216,NA,NA,10,"PO BOX 160089, NASHVILLE, TN, 37216","No_Match",NA,NA,NA,NA
335511,"PO BOX 1601","DALLAS","GA",30132,NA,NA,11,"PO BOX 1601, DALLAS, GA, 30132","No_Match",NA,NA,NA,NA
335512,"PO BOX 1601","EL CAJON","CA",92020,NA,NA,12,"PO BOX 1601, EL CAJON, CA, 92020","No_Match",NA,NA,NA,NA
335513,"PO BOX 1601","JONESBORO","GA",30237,NA,NA,13,"PO BOX 1601, JONESBORO, GA, 30237","No_Match",NA,NA,NA,NA
335514,"PO BOX 1601","LAKE OSWEGO","OR",97035,NA,NA,14,"PO BOX 1601, LAKE OSWEGO, OR, 97035","No_Match",NA,NA,NA,NA
335515,"PO BOX 1601","MIDDLETOWN","OH",45042,NA,NA,15,"PO BOX 1601, MIDDLETOWN, OH, 45042","No_Match",NA,NA,NA,NA
335516,"PO BOX 1601","UMATILLA","FL",32784,NA,NA,16,"PO BOX 1601, UMATILLA, FL, 32784","No_Match",NA,NA,NA,NA
335517,"PO BOX 16011","GOLDEN","CO",80401,NA,NA,17,"PO BOX 16011, GOLDEN, CO, 80401","No_Match",NA,NA,NA,NA
335518,"PO BOX 16011","SEATTLE","WA",98116,NA,NA,18,"PO BOX 16011, SEATTLE, WA, 98116","No_Match",NA,NA,NA,NA
335519,"PO BOX 16013","CHARLOTTE","NC",28297,NA,NA,19,"PO BOX 16013, CHARLOTTE, NC, 28297","No_Match",NA,NA,NA,NA
335520,"PO BOX 16018","ALEXANDRIA","VA",22302,NA,NA,20,"PO BOX 16018, ALEXANDRIA, VA, 22302","No_Match",NA,NA,NA,NA
335521,"PO BOX 1602","ELIZABETHTOWN","NC",28337,NA,NA,21,"PO BOX 1602, ELIZABETHTOWN, NC, 28337","No_Match",NA,NA,NA,NA
335522,"PO BOX 1602","ELK GROVE","CA",95759,NA,NA,22,"PO BOX 1602, ELK GROVE, CA, 95759","No_Match",NA,NA,NA,NA
335523,"PO BOX 1602","FREDERICKSTED","VI",841,NA,NA,23,"PO BOX 1602, FREDERICKSTED, VI, 841","No_Match",NA,NA,NA,NA
335524,"PO BOX 1602","MOUNTAIN HOME","AR",72654,NA,NA,24,"PO BOX 1602, MOUNTAIN HOME, AR, 72654","No_Match",NA,NA,NA,NA
335525,"PO BOX 1602","WARNER ROBINS","GA",31099,NA,NA,25,"PO BOX 1602, WARNER ROBINS, GA, 31099","No_Match",NA,NA,NA,NA
335526,"PO BOX 1602","YUBA CITY","CA",95992,NA,NA,26,"PO BOX 1602, YUBA CITY, CA, 95992","No_Match",NA,NA,NA,NA
335527,"PO BOX 160291","AUSTIN","TX",78716,NA,NA,27,"PO BOX 160291, AUSTIN, TX, 78716","No_Match",NA,NA,NA,NA
335528,"PO BOX 1603","GLOBE","AZ",85502,NA,NA,28,"PO BOX 1603, GLOBE, AZ, 85502","No_Match",NA,NA,NA,NA
335529,"PO BOX 1603","HELENA","MT",59624,NA,NA,29,"PO BOX 1603, HELENA, MT, 59624","No_Match",NA,NA,NA,NA
335530,"PO BOX 1603","NEW YORK","NY",10113,NA,NA,30,"PO BOX 1603, NEW YORK, NY, 10113","No_Match",NA,NA,NA,NA
335531,"PO BOX 1603","PLACENTIA","CA",92871,NA,NA,31,"PO BOX 1603, PLACENTIA, CA, 92871","No_Match",NA,NA,NA,NA
335532,"PO BOX 1603","SHREVEPORT","LA",71165,NA,NA,32,"PO BOX 1603, SHREVEPORT, LA, 71165","No_Match",NA,NA,NA,NA
335533,"PO BOX 160332","SAN ANTONIO","TX",78280,NA,NA,33,"PO BOX 160332, SAN ANTONIO, TX, 78280","No_Match",NA,NA,NA,NA
335534,"PO BOX 16034","IRVINE","CA",92623,NA,NA,34,"PO BOX 16034, IRVINE, CA, 92623","No_Match",NA,NA,NA,NA
335535,"PO BOX 160342","AUSTIN","TX",78716,NA,NA,35,"PO BOX 160342, AUSTIN, TX, 78716","No_Match",NA,NA,NA,NA
335536,"PO BOX 1604","BUFORD","GA",30515,NA,NA,36,"PO BOX 1604, BUFORD, GA, 30515","No_Match",NA,NA,NA,NA
335537,"PO BOX 1604","CYPRESS","TX",77410,NA,NA,37,"PO BOX 1604, CYPRESS, TX, 77410","No_Match",NA,NA,NA,NA
335538,"PO BOX 1604","KAYENTA","AZ",86033,NA,NA,38,"PO BOX 1604, KAYENTA, AZ, 86033","No_Match",NA,NA,NA,NA
335539,"PO BOX 1604","LEMOORE","CA",93245,NA,NA,39,"PO BOX 1604, LEMOORE, CA, 93245","No_Match",NA,NA,NA,NA
335540,"PO BOX 1604","MATTESON","IL",60443,NA,NA,40,"PO BOX 1604, MATTESON, IL, 60443","No_Match",NA,NA,NA,NA
335541,"PO BOX 1604","MERRIMACK","NH",3054,NA,NA,41,"PO BOX 1604, MERRIMACK, NH, 3054","No_Match",NA,NA,NA,NA
335542,"PO BOX 1604","MUNCIE","IN",47308,NA,NA,42,"PO BOX 1604, MUNCIE, IN, 47308","No_Match",NA,NA,NA,NA
335543,"PO BOX 1604","PINELLAS PARK","FL",33780,NA,NA,43,"PO BOX 1604, PINELLAS PARK, FL, 33780","No_Match",NA,NA,NA,NA
335544,"PO BOX 16041","BRISTOL","VA",24209,NA,NA,44,"PO BOX 16041, BRISTOL, VA, 24209","No_Match",NA,NA,NA,NA
335545,"PO BOX 16044","TRENTON","NJ",8641,NA,NA,45,"PO BOX 16044, TRENTON, NJ, 8641","No_Match",NA,NA,NA,NA
335546,"PO BOX 16045","JBMDL","NJ",8641,NA,NA,46,"PO BOX 16045, JBMDL, NJ, 8641","No_Match",NA,NA,NA,NA
335547,"PO BOX 1605","LIBERTY","NC",27298,NA,NA,47,"PO BOX 1605, LIBERTY, NC, 27298","No_Match",NA,NA,NA,NA
335548,"PO BOX 160508","ALTAMONTE SPRINGS","FL",32714,NA,NA,48,"PO BOX 160508, ALTAMONTE SPRINGS, FL, 32714","No_Match",NA,NA,NA,NA
335549,"PO BOX 16051","MOBILE","AL",36616,NA,NA,49,"PO BOX 16051, MOBILE, AL, 36616","No_Match",NA,NA,NA,NA
335550,"PO BOX 16056","TEMPLE TERRACE","FL",33687,NA,NA,50,"PO BOX 16056, TEMPLE TERRACE, FL, 33687","No_Match",NA,NA,NA,NA
335551,"PO BOX 160576","SAN ANTONIO","TX",78280,NA,NA,51,"PO BOX 160576, SAN ANTONIO, TX, 78280","No_Match",NA,NA,NA,NA
335552,"PO BOX 1606","BRADENTON","FL",34206,NA,NA,52,"PO BOX 1606, BRADENTON, FL, 34206","No_Match",NA,NA,NA,NA
335553,"PO BOX 1606","DENVER","CO",80201,NA,NA,53,"PO BOX 1606, DENVER, CO, 80201","No_Match",NA,NA,NA,NA
335554,"PO BOX 1606","FORT GEORGE G MEADE","MD",20755,NA,NA,54,"PO BOX 1606, FORT GEORGE G MEADE, MD, 20755","No_Match",NA,NA,NA,NA
335555,"PO BOX 1606","RINCON","PR",677,NA,NA,55,"PO BOX 1606, RINCON, PR, 677","No_Match",NA,NA,NA,NA
335556,"PO BOX 16061","OKLAHOMA CITY","OK",73113,NA,NA,56,"PO BOX 16061, OKLAHOMA CITY, OK, 73113","No_Match",NA,NA,NA,NA
335557,"PO BOX 16067","IRVINE","CA",92623,NA,NA,57,"PO BOX 16067, IRVINE, CA, 92623","No_Match",NA,NA,NA,NA
335558,"PO BOX 1607","CLAREMONT","NH",3743,NA,NA,58,"PO BOX 1607, CLAREMONT, NH, 3743","No_Match",NA,NA,NA,NA
335559,"PO BOX 1607","CONWAY","SC",29528,NA,NA,59,"PO BOX 1607, CONWAY, SC, 29528","No_Match",NA,NA,NA,NA
335560,"PO BOX 1607","HOLLYWOOD","FL",33022,NA,NA,60,"PO BOX 1607, HOLLYWOOD, FL, 33022","No_Match",NA,NA,NA,NA
335561,"PO BOX 1607","KENNER","LA",70063,NA,NA,61,"PO BOX 1607, KENNER, LA, 70063","No_Match",NA,NA,NA,NA
335562,"PO BOX 1607","MENDOCINO","CA",95460,NA,NA,62,"PO BOX 1607, MENDOCINO, CA, 95460","No_Match",NA,NA,NA,NA
335563,"PO BOX 16071","CINCINNATI","OH",45217,NA,NA,63,"PO BOX 16071, CINCINNATI, OH, 45217","No_Match",NA,NA,NA,NA
335564,"PO BOX 1608","BIG BEAR LAKE","CA",92315,NA,NA,64,"PO BOX 1608, BIG BEAR LAKE, CA, 92315","No_Match",NA,NA,NA,NA
335565,"PO BOX 1608","DELTA JUNCTION","AK",99737,NA,NA,65,"PO BOX 1608, DELTA JUNCTION, AK, 99737","No_Match",NA,NA,NA,NA
335566,"PO BOX 1608","EAST GREENWICH","RI",2818,NA,NA,66,"PO BOX 1608, EAST GREENWICH, RI, 2818","No_Match",NA,NA,NA,NA
335567,"PO BOX 16093","PHOENIX","AZ",85011,NA,NA,67,"PO BOX 16093, PHOENIX, AZ, 85011","No_Match",NA,NA,NA,NA
335568,"PO BOX 160963","SACRAMENTO","CA",95816,NA,NA,68,"PO BOX 160963, SACRAMENTO, CA, 95816","No_Match",NA,NA,NA,NA
335569,"PO BOX 161","ARLINGTON","SD",57212,NA,NA,69,"PO BOX 161, ARLINGTON, SD, 57212","No_Match",NA,NA,NA,NA
335570,"PO BOX 161","BELCHERTOWN","MA",1007,NA,NA,70,"PO BOX 161, BELCHERTOWN, MA, 1007","No_Match",NA,NA,NA,NA
335571,"PO BOX 161","BOWDOINHAM","ME",4008,NA,NA,71,"PO BOX 161, BOWDOINHAM, ME, 4008","No_Match",NA,NA,NA,NA
335572,"PO BOX 161","CASTINE","ME",4421,NA,NA,72,"PO BOX 161, CASTINE, ME, 4421","No_Match",NA,NA,NA,NA
335573,"PO BOX 161","CAVE CITY","KY",42127,NA,NA,73,"PO BOX 161, CAVE CITY, KY, 42127","No_Match",NA,NA,NA,NA
335574,"PO BOX 161","CLEVERDALE","NY",12820,NA,NA,74,"PO BOX 161, CLEVERDALE, NY, 12820","No_Match",NA,NA,NA,NA
335575,"PO BOX 161","COLLETTSVILLE","NC",28611,NA,NA,75,"PO BOX 161, COLLETTSVILLE, NC, 28611","No_Match",NA,NA,NA,NA
335576,"PO BOX 161","DAYTON","VA",22821,NA,NA,76,"PO BOX 161, DAYTON, VA, 22821","No_Match",NA,NA,NA,NA
335577,"PO BOX 161","DES MOINES","IA",50301,NA,NA,77,"PO BOX 161, DES MOINES, IA, 50301","No_Match",NA,NA,NA,NA
335578,"PO BOX 161","EARLEVILLE","MD",21919,NA,NA,78,"PO BOX 161, EARLEVILLE, MD, 21919","No_Match",NA,NA,NA,NA
335579,"PO BOX 161","ELON","NC",27244,NA,NA,79,"PO BOX 161, ELON, NC, 27244","No_Match",NA,NA,NA,NA
335580,"PO BOX 161","EMMAUS","PA",18049,NA,NA,80,"PO BOX 161, EMMAUS, PA, 18049","No_Match",NA,NA,NA,NA
335581,"PO BOX 161","GERMANTOWN","OH",45327,NA,NA,81,"PO BOX 161, GERMANTOWN, OH, 45327","No_Match",NA,NA,NA,NA
335582,"PO BOX 161","GLENDALE","OR",97442,NA,NA,82,"PO BOX 161, GLENDALE, OR, 97442","No_Match",NA,NA,NA,NA
335583,"PO BOX 161","GRANBY","CO",80446,NA,NA,83,"PO BOX 161, GRANBY, CO, 80446","No_Match",NA,NA,NA,NA
335584,"PO BOX 161","HUMBLE","TX",77347,NA,NA,84,"PO BOX 161, HUMBLE, TX, 77347","No_Match",NA,NA,NA,NA
335585,"PO BOX 161","INDUSTRY","TX",78944,NA,NA,85,"PO BOX 161, INDUSTRY, TX, 78944","No_Match",NA,NA,NA,NA
335586,"PO BOX 161","KEENE","NH",3431,NA,NA,86,"PO BOX 161, KEENE, NH, 3431","No_Match",NA,NA,NA,NA
335587,"PO BOX 161","KENNESAW","GA",30156,NA,NA,87,"PO BOX 161, KENNESAW, GA, 30156","No_Match",NA,NA,NA,NA
335588,"PO BOX 161","MILAN","MI",48160,NA,NA,88,"PO BOX 161, MILAN, MI, 48160","No_Match",NA,NA,NA,NA
335589,"PO BOX 161","NORWICH","NY",13815,NA,NA,89,"PO BOX 161, NORWICH, NY, 13815","No_Match",NA,NA,NA,NA
335590,"PO BOX 161","OSTRANDER","OH",43061,NA,NA,90,"PO BOX 161, OSTRANDER, OH, 43061","No_Match",NA,NA,NA,NA
335591,"PO BOX 161","PLEASANT PLAIN","OH",45162,NA,NA,91,"PO BOX 161, PLEASANT PLAIN, OH, 45162","No_Match",NA,NA,NA,NA
335592,"PO BOX 161","RADIUM SPRINGS","NM",88054,NA,NA,92,"PO BOX 161, RADIUM SPRINGS, NM, 88054","No_Match",NA,NA,NA,NA
335593,"PO BOX 161","REXBURG","ID",83440,NA,NA,93,"PO BOX 161, REXBURG, ID, 83440","No_Match",NA,NA,NA,NA
335594,"PO BOX 161","SCOTTSBURG","IN",47170,NA,NA,94,"PO BOX 161, SCOTTSBURG, IN, 47170","No_Match",NA,NA,NA,NA
335595,"PO BOX 161","SPRINGFIELD","KY",40069,NA,NA,95,"PO BOX 161, SPRINGFIELD, KY, 40069","No_Match",NA,NA,NA,NA
335596,"PO BOX 161","STRONG","AR",71765,NA,NA,96,"PO BOX 161, STRONG, AR, 71765","No_Match",NA,NA,NA,NA
335597,"PO BOX 161","STUDLEY","VA",23162,NA,NA,97,"PO BOX 161, STUDLEY, VA, 23162","No_Match",NA,NA,NA,NA
335598,"PO BOX 161","UNION","NH",3887,NA,NA,98,"PO BOX 161, UNION, NH, 3887","No_Match",NA,NA,NA,NA
335599,"PO BOX 161","WOODBURN","KY",42170,NA,NA,99,"PO BOX 161, WOODBURN, KY, 42170","No_Match",NA,NA,NA,NA
335600,"PO BOX 161","WORCESTER","MA",1613,NA,NA,100,"PO BOX 161, WORCESTER, MA, 1613","No_Match",NA,NA,NA,NA
335601,"PO BOX 1610","LA CONNER","WA",98257,NA,NA,101,"PO BOX 1610, LA CONNER, WA, 98257","No_Match",NA,NA,NA,NA
335602,"PO BOX 1610","LARAMIE","WY",82073,NA,NA,102,"PO BOX 1610, LARAMIE, WY, 82073","No_Match",NA,NA,NA,NA
335603,"PO BOX 16101","HIGH POINT","NC",27261,NA,NA,103,"PO BOX 16101, HIGH POINT, NC, 27261","No_Match",NA,NA,NA,NA
335604,"PO BOX 16103","HIGH POINT","NC",27261,NA,NA,104,"PO BOX 16103, HIGH POINT, NC, 27261","No_Match",NA,NA,NA,NA
335605,"PO BOX 16104","SHAWNEE","KS",66203,NA,NA,105,"PO BOX 16104, SHAWNEE, KS, 66203","No_Match",NA,NA,NA,NA
335606,"PO BOX 16106","JONESBORO","AR",72403,NA,NA,106,"PO BOX 16106, JONESBORO, AR, 72403","No_Match",NA,NA,NA,NA
335607,"PO BOX 161061","ALTAMONTE SPRINGS","FL",32716,NA,NA,107,"PO BOX 161061, ALTAMONTE SPRINGS, FL, 32716","No_Match",NA,NA,NA,NA
335608,"PO BOX 1611","CHANDLER","AZ",85244,NA,NA,108,"PO BOX 1611, CHANDLER, AZ, 85244","No_Match",NA,NA,NA,NA
335609,"PO BOX 1611","LIBERTY HILL","TX",78642,NA,NA,109,"PO BOX 1611, LIBERTY HILL, TX, 78642","No_Match",NA,NA,NA,NA
335610,"PO BOX 1611","LUCERNE VALLEY","CA",92356,NA,NA,110,"PO BOX 1611, LUCERNE VALLEY, CA, 92356","No_Match",NA,NA,NA,NA
335611,"PO BOX 1611","SANDY","OR",97055,NA,NA,111,"PO BOX 1611, SANDY, OR, 97055","No_Match",NA,NA,NA,NA
335612,"PO BOX 1611","WAKEFIELD","MA",1880,NA,NA,112,"PO BOX 1611, WAKEFIELD, MA, 1880","No_Match",NA,NA,NA,NA
335613,"PO BOX 16110","JACKSON","MS",39236,NA,NA,113,"PO BOX 16110, JACKSON, MS, 39236","No_Match",NA,NA,NA,NA
335614,"PO BOX 16112","CHICAGO","IL",60616,NA,NA,114,"PO BOX 16112, CHICAGO, IL, 60616","No_Match",NA,NA,NA,NA
335615,"PO BOX 16116","ROCHESTER","NY",14616,NA,NA,115,"PO BOX 16116, ROCHESTER, NY, 14616","No_Match",NA,NA,NA,NA
335616,"PO BOX 1612","ABILENE","TX",79604,NA,NA,116,"PO BOX 1612, ABILENE, TX, 79604","No_Match",NA,NA,NA,NA
335617,"PO BOX 1612","EUREKA","MT",59917,NA,NA,117,"PO BOX 1612, EUREKA, MT, 59917","No_Match",NA,NA,NA,NA
335618,"PO BOX 1612","EUSTIS","FL",32727,NA,NA,118,"PO BOX 1612, EUSTIS, FL, 32727","No_Match",NA,NA,NA,NA
335619,"PO BOX 1612","LUMBERTON","NC",28359,NA,NA,119,"PO BOX 1612, LUMBERTON, NC, 28359","No_Match",NA,NA,NA,NA
335620,"PO BOX 1612","MIDLOTHIAN","TX",76065,NA,NA,120,"PO BOX 1612, MIDLOTHIAN, TX, 76065","No_Match",NA,NA,NA,NA
335621,"PO BOX 1612","WOOSTER","OH",44691,NA,NA,121,"PO BOX 1612, WOOSTER, OH, 44691","No_Match",NA,NA,NA,NA
335622,"PO BOX 16126","BRISTOL","VA",24209,NA,NA,122,"PO BOX 16126, BRISTOL, VA, 24209","No_Match",NA,NA,NA,NA
335623,"PO BOX 161285","MOBILE","AL",36616,NA,NA,123,"PO BOX 161285, MOBILE, AL, 36616","No_Match",NA,NA,NA,NA
335624,"PO BOX 1613","BONNERS FERRY","ID",83805,NA,NA,124,"PO BOX 1613, BONNERS FERRY, ID, 83805","No_Match",NA,NA,NA,NA
335625,"PO BOX 1613","FALLING WATERS","WV",25419,NA,NA,125,"PO BOX 1613, FALLING WATERS, WV, 25419","No_Match",NA,NA,NA,NA
335626,"PO BOX 1613","PINE LAKE","GA",30072,NA,NA,126,"PO BOX 1613, PINE LAKE, GA, 30072","No_Match",NA,NA,NA,NA
335627,"PO BOX 16132","DES MOINES","IA",50333,NA,NA,127,"PO BOX 16132, DES MOINES, IA, 50333","No_Match",NA,NA,NA,NA
335628,"PO BOX 16132","JACKSON","MS",39236,NA,NA,128,"PO BOX 16132, JACKSON, MS, 39236","No_Match",NA,NA,NA,NA
335629,"PO BOX 161348","ORLANDO","FL",32816,NA,NA,129,"PO BOX 161348, ORLANDO, FL, 32816","No_Match",NA,NA,NA,NA
335630,"PO BOX 1614","ELIZABETH CITY","NC",27906,NA,NA,130,"PO BOX 1614, ELIZABETH CITY, NC, 27906","No_Match",NA,NA,NA,NA
335631,"PO BOX 1614","HOLLISTER","MO",65673,NA,NA,131,"PO BOX 1614, HOLLISTER, MO, 65673","No_Match",NA,NA,NA,NA
335632,"PO BOX 16141","MINNEAPOLIS","MN",55416,NA,NA,132,"PO BOX 16141, MINNEAPOLIS, MN, 55416","No_Match",NA,NA,NA,NA
335633,"PO BOX 161424","ATLANTA","GA",30321,NA,NA,133,"PO BOX 161424, ATLANTA, GA, 30321","No_Match",NA,NA,NA,NA
335634,"PO BOX 16143","SAN JUAN","PR",908,NA,NA,134,"PO BOX 16143, SAN JUAN, PR, 908","No_Match",NA,NA,NA,NA
335635,"PO BOX 161431","FORT WORTH","TX",76161,NA,NA,135,"PO BOX 161431, FORT WORTH, TX, 76161","No_Match",NA,NA,NA,NA
335636,"PO BOX 161494","ATLANTA","GA",30321,NA,NA,136,"PO BOX 161494, ATLANTA, GA, 30321","No_Match",NA,NA,NA,NA
335637,"PO BOX 1615","GENTRY","AR",72734,NA,NA,137,"PO BOX 1615, GENTRY, AR, 72734","No_Match",NA,NA,NA,NA
335638,"PO BOX 1615","MIDDLEBURG","VA",20118,NA,NA,138,"PO BOX 1615, MIDDLEBURG, VA, 20118","No_Match",NA,NA,NA,NA
335639,"PO BOX 1615","MIDLOTHIAN","VA",23113,NA,NA,139,"PO BOX 1615, MIDLOTHIAN, VA, 23113","No_Match",NA,NA,NA,NA
335640,"PO BOX 1615","WAYNESVILLE","NC",28785,NA,NA,140,"PO BOX 1615, WAYNESVILLE, NC, 28785","No_Match",NA,NA,NA,NA
335641,"PO BOX 1616","BOWIE","MD",20717,NA,NA,141,"PO BOX 1616, BOWIE, MD, 20717","No_Match",NA,NA,NA,NA
335642,"PO BOX 1616","CALLAHAN","CA",96014,NA,NA,142,"PO BOX 1616, CALLAHAN, CA, 96014","No_Match",NA,NA,NA,NA
335643,"PO BOX 1616","GREEN VALLEY","AZ",85622,NA,NA,143,"PO BOX 1616, GREEN VALLEY, AZ, 85622","No_Match",NA,NA,NA,NA
335644,"PO BOX 1616","SANDPOINT","ID",83864,NA,NA,144,"PO BOX 1616, SANDPOINT, ID, 83864","No_Match",NA,NA,NA,NA
335645,"PO BOX 161607","BIG SKY","MT",59716,NA,NA,145,"PO BOX 161607, BIG SKY, MT, 59716","No_Match",NA,NA,NA,NA
335646,"PO BOX 161677","BIG SKY","MT",59716,NA,NA,146,"PO BOX 161677, BIG SKY, MT, 59716","No_Match",NA,NA,NA,NA
335647,"PO BOX 161697","BIG SKY","MT",59716,NA,NA,147,"PO BOX 161697, BIG SKY, MT, 59716","No_Match",NA,NA,NA,NA
335648,"PO BOX 1617","GONZALES","LA",70737,NA,NA,148,"PO BOX 1617, GONZALES, LA, 70737","No_Match",NA,NA,NA,NA
335649,"PO BOX 1617","LIVINGSTON","TX",77351,NA,NA,149,"PO BOX 1617, LIVINGSTON, TX, 77351","No_Match",NA,NA,NA,NA
335650,"PO BOX 16171","DUBLIN","GA",31021,NA,NA,150,"PO BOX 16171, DUBLIN, GA, 31021","No_Match",NA,NA,NA,NA
335651,"PO BOX 161716","ATLANTA","GA",30321,NA,NA,151,"PO BOX 161716, ATLANTA, GA, 30321","No_Match",NA,NA,NA,NA
335652,"PO BOX 1618","BETTENDORF","IA",52722,NA,NA,152,"PO BOX 1618, BETTENDORF, IA, 52722","No_Match",NA,NA,NA,NA
335653,"PO BOX 1618","EL CERRITO","CA",94530,NA,NA,153,"PO BOX 1618, EL CERRITO, CA, 94530","No_Match",NA,NA,NA,NA
335654,"PO BOX 1618","WYTHEVILLE","VA",24382,NA,NA,154,"PO BOX 1618, WYTHEVILLE, VA, 24382","No_Match",NA,NA,NA,NA
335655,"PO BOX 161807","ATLANTA","GA",30321,NA,NA,155,"PO BOX 161807, ATLANTA, GA, 30321","No_Match",NA,NA,NA,NA
335656,"PO BOX 161843","ATLANTA","GA",30304,NA,NA,156,"PO BOX 161843, ATLANTA, GA, 30304","No_Match",NA,NA,NA,NA
335657,"PO BOX 16188","CHAPEL HILL","TX",27516,NA,NA,157,"PO BOX 16188, CHAPEL HILL, TX, 27516","No_Match",NA,NA,NA,NA
335658,"PO BOX 1619","HARLAN","KY",40831,NA,NA,158,"PO BOX 1619, HARLAN, KY, 40831","No_Match",NA,NA,NA,NA
335659,"PO BOX 1619","MOAB","UT",84532,NA,NA,159,"PO BOX 1619, MOAB, UT, 84532","No_Match",NA,NA,NA,NA
335660,"PO BOX 161983","ALTAMONTE SPRINGS","FL",32716,NA,NA,160,"PO BOX 161983, ALTAMONTE SPRINGS, FL, 32716","No_Match",NA,NA,NA,NA
335661,"PO BOX 162","ALTAMONT","IL",62411,NA,NA,161,"PO BOX 162, ALTAMONT, IL, 62411","No_Match",NA,NA,NA,NA
335662,"PO BOX 162","AMHERST","VA",24521,NA,NA,162,"PO BOX 162, AMHERST, VA, 24521","No_Match",NA,NA,NA,NA
335663,"PO BOX 162","ASHLAND","OH",44805,NA,NA,163,"PO BOX 162, ASHLAND, OH, 44805","No_Match",NA,NA,NA,NA
335664,"PO BOX 162","AVERY","TX",75554,NA,NA,164,"PO BOX 162, AVERY, TX, 75554","No_Match",NA,NA,NA,NA
335665,"PO BOX 162","BAYSIDE","TX",78340,NA,NA,165,"PO BOX 162, BAYSIDE, TX, 78340","No_Match",NA,NA,NA,NA
335666,"PO BOX 162","BENNETT","CO",80102,NA,NA,166,"PO BOX 162, BENNETT, CO, 80102","No_Match",NA,NA,NA,NA
335667,"PO BOX 162","BLUE LAKE","CA",95525,NA,NA,167,"PO BOX 162, BLUE LAKE, CA, 95525","No_Match",NA,NA,NA,NA
335668,"PO BOX 162","CAPON BRIDGE","WV",26711,NA,NA,168,"PO BOX 162, CAPON BRIDGE, WV, 26711","No_Match",NA,NA,NA,NA
335669,"PO BOX 162","CHANDLER","OK",74834,NA,NA,169,"PO BOX 162, CHANDLER, OK, 74834","No_Match",NA,NA,NA,NA
335670,"PO BOX 162","CHATHAM","NY",12037,NA,NA,170,"PO BOX 162, CHATHAM, NY, 12037","No_Match",NA,NA,NA,NA
335671,"PO BOX 162","CHESWICK","PA",15024,NA,NA,171,"PO BOX 162, CHESWICK, PA, 15024","No_Match",NA,NA,NA,NA
335672,"PO BOX 162","CHRISTOVAL","TX",76935,NA,NA,172,"PO BOX 162, CHRISTOVAL, TX, 76935","No_Match",NA,NA,NA,NA
335673,"PO BOX 162","DENVER","IA",50622,NA,NA,173,"PO BOX 162, DENVER, IA, 50622","No_Match",NA,NA,NA,NA
335674,"PO BOX 162","DOVER","DE",19903,NA,NA,174,"PO BOX 162, DOVER, DE, 19903","No_Match",NA,NA,NA,NA
335675,"PO BOX 162","DYERSBURG","TN",38025,NA,NA,175,"PO BOX 162, DYERSBURG, TN, 38025","No_Match",NA,NA,NA,NA
335676,"PO BOX 162","ESPARTO","CA",95627,NA,NA,176,"PO BOX 162, ESPARTO, CA, 95627","No_Match",NA,NA,NA,NA
335677,"PO BOX 162","EVANT","TX",76525,NA,NA,177,"PO BOX 162, EVANT, TX, 76525","No_Match",NA,NA,NA,NA
335678,"PO BOX 162","LOWELL","AR",72718,NA,NA,178,"PO BOX 162, LOWELL, AR, 72718","No_Match",NA,NA,NA,NA
335679,"PO BOX 162","LYONS","IL",60534,NA,NA,179,"PO BOX 162, LYONS, IL, 60534","No_Match",NA,NA,NA,NA
335680,"PO BOX 162","MADISON","NH",3849,NA,NA,180,"PO BOX 162, MADISON, NH, 3849","No_Match",NA,NA,NA,NA
335681,"PO BOX 162","MIMS","FL",32754,NA,NA,181,"PO BOX 162, MIMS, FL, 32754","No_Match",NA,NA,NA,NA
335682,"PO BOX 162","MONTEVALLO","AL",35115,NA,NA,182,"PO BOX 162, MONTEVALLO, AL, 35115","No_Match",NA,NA,NA,NA
335683,"PO BOX 162","OCEAN SPRINGS","MS",39564,NA,NA,183,"PO BOX 162, OCEAN SPRINGS, MS, 39564","No_Match",NA,NA,NA,NA
335684,"PO BOX 162","ORIENT","NY",11957,NA,NA,184,"PO BOX 162, ORIENT, NY, 11957","No_Match",NA,NA,NA,NA
335685,"PO BOX 162","OWINGS MILLS","MD",21117,NA,NA,185,"PO BOX 162, OWINGS MILLS, MD, 21117","No_Match",NA,NA,NA,NA
335686,"PO BOX 162","PETERSBURG","IL",62675,NA,NA,186,"PO BOX 162, PETERSBURG, IL, 62675","No_Match",NA,NA,NA,NA
335687,"PO BOX 162","PORTLAND","ND",58274,NA,NA,187,"PO BOX 162, PORTLAND, ND, 58274","No_Match",NA,NA,NA,NA
335688,"PO BOX 162","PRINEVILLE","OR",97754,NA,NA,188,"PO BOX 162, PRINEVILLE, OR, 97754","No_Match",NA,NA,NA,NA
335689,"PO BOX 162","QUENEMO","KS",66528,NA,NA,189,"PO BOX 162, QUENEMO, KS, 66528","No_Match",NA,NA,NA,NA
335690,"PO BOX 162","SAINTE MARIE","IL",62459,NA,NA,190,"PO BOX 162, SAINTE MARIE, IL, 62459","No_Match",NA,NA,NA,NA
335691,"PO BOX 162","SOUTHBURY","CT",6488,NA,NA,191,"PO BOX 162, SOUTHBURY, CT, 6488","No_Match",NA,NA,NA,NA
335692,"PO BOX 162","STANLEY","WI",54768,NA,NA,192,"PO BOX 162, STANLEY, WI, 54768","No_Match",NA,NA,NA,NA
335693,"PO BOX 162","STROUDSBURG","PA",18360,NA,NA,193,"PO BOX 162, STROUDSBURG, PA, 18360","No_Match",NA,NA,NA,NA
335694,"PO BOX 162","SYCAMORE","GA",31790,NA,NA,194,"PO BOX 162, SYCAMORE, GA, 31790","No_Match",NA,NA,NA,NA
335695,"PO BOX 162","TYRONE","PA",16686,NA,NA,195,"PO BOX 162, TYRONE, PA, 16686","No_Match",NA,NA,NA,NA
335696,"PO BOX 162","VENUS","TX",76084,NA,NA,196,"PO BOX 162, VENUS, TX, 76084","No_Match",NA,NA,NA,NA
335697,"PO BOX 162","WAYNE","MI",48184,NA,NA,197,"PO BOX 162, WAYNE, MI, 48184","No_Match",NA,NA,NA,NA
335698,"PO BOX 162","WINTHROP","ME",4364,NA,NA,198,"PO BOX 162, WINTHROP, ME, 4364","No_Match",NA,NA,NA,NA
335699,"PO BOX 162/ 590 COUNTY ROAD 83","NOTASULGA","AL",36866,32.541950446,-85.7636406679999,199,"PO BOX 162/ 590 COUNTY ROAD 83, NOTASULGA, AL, 36866","Match","Exact","590 CO RD 83, NOTASULGA, AL, 36866",69135303,"R"
335700,"PO BOX 1620","BISBEE","AZ",85603,NA,NA,200,"PO BOX 1620, BISBEE, AZ, 85603","No_Match",NA,NA,NA,NA
335701,"PO BOX 1620","HELENDALE","CA",92342,NA,NA,201,"PO BOX 1620, HELENDALE, CA, 92342","No_Match",NA,NA,NA,NA
335702,"PO BOX 1620","LAS CRUCES","NM",88001,NA,NA,202,"PO BOX 1620, LAS CRUCES, NM, 88001","No_Match",NA,NA,NA,NA
335703,"PO BOX 16201","TWO RIVERS","AK",99716,NA,NA,203,"PO BOX 16201, TWO RIVERS, AK, 99716","No_Match",NA,NA,NA,NA
335704,"PO BOX 1621  245 WESTCHESTER AVE","BRONX","NY",10502,NA,NA,204,"PO BOX 1621  245 WESTCHESTER AVE, BRONX, NY, 10502","No_Match",NA,NA,NA,NA
335705,"PO BOX 1621","BRENHAM","TX",77834,NA,NA,205,"PO BOX 1621, BRENHAM, TX, 77834","No_Match",NA,NA,NA,NA
335706,"PO BOX 1621","CONVERSE","TX",78109,NA,NA,206,"PO BOX 1621, CONVERSE, TX, 78109","No_Match",NA,NA,NA,NA
335707,"PO BOX 1621","GREENBELT","MD",20768,NA,NA,207,"PO BOX 1621, GREENBELT, MD, 20768","No_Match",NA,NA,NA,NA
335708,"PO BOX 1621","LONG BEACH","WA",98631,NA,NA,208,"PO BOX 1621, LONG BEACH, WA, 98631","No_Match",NA,NA,NA,NA
335709,"PO BOX 1621","PLACERVILLE","CA",95667,NA,NA,209,"PO BOX 1621, PLACERVILLE, CA, 95667","No_Match",NA,NA,NA,NA
335710,"PO BOX 1621","RUSKIN","FL",33575,NA,NA,210,"PO BOX 1621, RUSKIN, FL, 33575","No_Match",NA,NA,NA,NA
335711,"PO BOX 1621","TIFTON","GA",31793,NA,NA,211,"PO BOX 1621, TIFTON, GA, 31793","No_Match",NA,NA,NA,NA
335712,"PO BOX 1621","TONASKET","WA",98855,NA,NA,212,"PO BOX 1621, TONASKET, WA, 98855","No_Match",NA,NA,NA,NA
335713,"PO BOX 1621","WATERVILLE","ME",4901,NA,NA,213,"PO BOX 1621, WATERVILLE, ME, 4901","No_Match",NA,NA,NA,NA
335714,"PO BOX 162163","SACRAMENTO","CA",95816,NA,NA,214,"PO BOX 162163, SACRAMENTO, CA, 95816","No_Match",NA,NA,NA,NA
335715,"PO BOX 162170","ATLANTA","GA",30321,NA,NA,215,"PO BOX 162170, ATLANTA, GA, 30321","No_Match",NA,NA,NA,NA
335716,"PO BOX 162172","FORT WORTH","TX",76161,NA,NA,216,"PO BOX 162172, FORT WORTH, TX, 76161","No_Match",NA,NA,NA,NA
335717,"PO BOX 1622","BERTHOUD","CO",80513,NA,NA,217,"PO BOX 1622, BERTHOUD, CO, 80513","No_Match",NA,NA,NA,NA
335718,"PO BOX 1622","EDMONDS","WA",98020,NA,NA,218,"PO BOX 1622, EDMONDS, WA, 98020","No_Match",NA,NA,NA,NA
335719,"PO BOX 1622","ELLICOTTVILLE","NY",14731,NA,NA,219,"PO BOX 1622, ELLICOTTVILLE, NY, 14731","No_Match",NA,NA,NA,NA
335720,"PO BOX 1622","MERIDIAN","ID",83642,NA,NA,220,"PO BOX 1622, MERIDIAN, ID, 83642","No_Match",NA,NA,NA,NA
335721,"PO BOX 1622","RINCON","GA",31326,NA,NA,221,"PO BOX 1622, RINCON, GA, 31326","No_Match",NA,NA,NA,NA
335722,"PO BOX 1622","SAN JUAN CAPISTRANO","CA",92693,NA,NA,222,"PO BOX 1622, SAN JUAN CAPISTRANO, CA, 92693","No_Match",NA,NA,NA,NA
335723,"PO BOX 1622","SAN LUIS OBISPO","CA",93406,NA,NA,223,"PO BOX 1622, SAN LUIS OBISPO, CA, 93406","No_Match",NA,NA,NA,NA
335724,"PO BOX 1622","SIOUX FALLS","SD",57101,NA,NA,224,"PO BOX 1622, SIOUX FALLS, SD, 57101","No_Match",NA,NA,NA,NA
335725,"PO BOX 1622","ST GEORGE","UT",84771,NA,NA,225,"PO BOX 1622, ST GEORGE, UT, 84771","No_Match",NA,NA,NA,NA
335726,"PO BOX 1622","VALPARAISO","IN",46384,NA,NA,226,"PO BOX 1622, VALPARAISO, IN, 46384","No_Match",NA,NA,NA,NA
335727,"PO BOX 1622","WINCHESTER","VA",22604,NA,NA,227,"PO BOX 1622, WINCHESTER, VA, 22604","No_Match",NA,NA,NA,NA
335728,"PO BOX 162211","ATLANTA","GA",30321,NA,NA,228,"PO BOX 162211, ATLANTA, GA, 30321","No_Match",NA,NA,NA,NA
335729,"PO BOX 162253","FORT WORTH","TX",76161,NA,NA,229,"PO BOX 162253, FORT WORTH, TX, 76161","No_Match",NA,NA,NA,NA
335730,"PO BOX 1623","DENVER","NC",28037,NA,NA,230,"PO BOX 1623, DENVER, NC, 28037","No_Match",NA,NA,NA,NA
335731,"PO BOX 1623","FRISCO","TX",75034,NA,NA,231,"PO BOX 1623, FRISCO, TX, 75034","No_Match",NA,NA,NA,NA
335732,"PO BOX 1623","GREENVILLE","MS",38702,NA,NA,232,"PO BOX 1623, GREENVILLE, MS, 38702","No_Match",NA,NA,NA,NA
335733,"PO BOX 1623","NEW SMYRNA BEACH","FL",32170,NA,NA,233,"PO BOX 1623, NEW SMYRNA BEACH, FL, 32170","No_Match",NA,NA,NA,NA
335734,"PO BOX 162315","FORT WORTH","TX",76161,NA,NA,234,"PO BOX 162315, FORT WORTH, TX, 76161","No_Match",NA,NA,NA,NA
335735,"PO BOX 16232","HOUSTON","TX",77022,NA,NA,235,"PO BOX 16232, HOUSTON, TX, 77022","No_Match",NA,NA,NA,NA
335736,"PO BOX 16233","GEORGIA","GA",30321,NA,NA,236,"PO BOX 16233, GEORGIA, GA, 30321","No_Match",NA,NA,NA,NA
335737,"PO BOX 16236","CINCINNATI","OH",45216,NA,NA,237,"PO BOX 16236, CINCINNATI, OH, 45216","No_Match",NA,NA,NA,NA
335738,"PO BOX 162372","ATLANTA","GA",30321,NA,NA,238,"PO BOX 162372, ATLANTA, GA, 30321","No_Match",NA,NA,NA,NA
335739,"PO BOX 1624","CORDOVA","TN",38018,NA,NA,239,"PO BOX 1624, CORDOVA, TN, 38018","No_Match",NA,NA,NA,NA
335740,"PO BOX 1624","GONZALES","CA",93926,NA,NA,240,"PO BOX 1624, GONZALES, CA, 93926","No_Match",NA,NA,NA,NA
335741,"PO BOX 1624","PROSSER","WA",99350,NA,NA,241,"PO BOX 1624, PROSSER, WA, 99350","No_Match",NA,NA,NA,NA
335742,"PO BOX 16246","BELLEMONT","AZ",86015,NA,NA,242,"PO BOX 16246, BELLEMONT, AZ, 86015","No_Match",NA,NA,NA,NA
335743,"PO BOX 16247","BALTIMORE","MD",21210,NA,NA,243,"PO BOX 16247, BALTIMORE, MD, 21210","No_Match",NA,NA,NA,NA
335744,"PO BOX 162487","SACRAMENTO","CA",95816,NA,NA,244,"PO BOX 162487, SACRAMENTO, CA, 95816","No_Match",NA,NA,NA,NA
335745,"PO BOX 1625","BATTLE MOUNTAIN","NV",89820,NA,NA,245,"PO BOX 1625, BATTLE MOUNTAIN, NV, 89820","No_Match",NA,NA,NA,NA
335746,"PO BOX 1625","KALAMA","WA",98625,NA,NA,246,"PO BOX 1625, KALAMA, WA, 98625","No_Match",NA,NA,NA,NA
335747,"PO BOX 1625","NORTH PLATTE","NE",69103,NA,NA,247,"PO BOX 1625, NORTH PLATTE, NE, 69103","No_Match",NA,NA,NA,NA
335748,"PO BOX 1625","WOODBRIDGE","VA",22195,NA,NA,248,"PO BOX 1625, WOODBRIDGE, VA, 22195","No_Match",NA,NA,NA,NA
335749,"PO BOX 16253","ENCINO","CA",91416,NA,NA,249,"PO BOX 16253, ENCINO, CA, 91416","No_Match",NA,NA,NA,NA
335750,"PO BOX 1626","ODEM","TX",78370,NA,NA,250,"PO BOX 1626, ODEM, TX, 78370","No_Match",NA,NA,NA,NA
335751,"PO BOX 1626","PULLMAN","WA",99163,NA,NA,251,"PO BOX 1626, PULLMAN, WA, 99163","No_Match",NA,NA,NA,NA
335752,"PO BOX 1627","LOLO","MT",59847,NA,NA,252,"PO BOX 1627, LOLO, MT, 59847","No_Match",NA,NA,NA,NA
335753,"PO BOX 1627","POULSBO","WA",98370,NA,NA,253,"PO BOX 1627, POULSBO, WA, 98370","No_Match",NA,NA,NA,NA
335754,"PO BOX 16272","CHAPEL HILL","NC",27516,NA,NA,254,"PO BOX 16272, CHAPEL HILL, NC, 27516","No_Match",NA,NA,NA,NA
335755,"PO BOX 16272","DULUTH","MN",55816,NA,NA,255,"PO BOX 16272, DULUTH, MN, 55816","No_Match",NA,NA,NA,NA
335756,"PO BOX 16272","TALLAHASSEE","FL",32317,NA,NA,256,"PO BOX 16272, TALLAHASSEE, FL, 32317","No_Match",NA,NA,NA,NA
335757,"PO BOX 16275","BOISE","ID",83715,NA,NA,257,"PO BOX 16275, BOISE, ID, 83715","No_Match",NA,NA,NA,NA
335758,"PO BOX 16275","JACKSONVILLE","FL",32245,NA,NA,258,"PO BOX 16275, JACKSONVILLE, FL, 32245","No_Match",NA,NA,NA,NA
335759,"PO BOX 162799","ALTAMONTE SPRINGS","FL",32716,NA,NA,259,"PO BOX 162799, ALTAMONTE SPRINGS, FL, 32716","No_Match",NA,NA,NA,NA
335760,"PO BOX 1628","CODY","WY",82414,NA,NA,260,"PO BOX 1628, CODY, WY, 82414","No_Match",NA,NA,NA,NA
335761,"PO BOX 1628","FAYETTEVILLE","GA",30214,NA,NA,261,"PO BOX 1628, FAYETTEVILLE, GA, 30214","No_Match",NA,NA,NA,NA
335762,"PO BOX 1628","GREENSBORO","NC",27402,NA,NA,262,"PO BOX 1628, GREENSBORO, NC, 27402","No_Match",NA,NA,NA,NA
335763,"PO BOX 1629","BEAVER","UT",84713,NA,NA,263,"PO BOX 1629, BEAVER, UT, 84713","No_Match",NA,NA,NA,NA
335764,"PO BOX 162924","AUSTIN","TX",78716,NA,NA,264,"PO BOX 162924, AUSTIN, TX, 78716","No_Match",NA,NA,NA,NA
335765,"PO BOX 16294","SANTA FE","NM",87592,NA,NA,265,"PO BOX 16294, SANTA FE, NM, 87592","No_Match",NA,NA,NA,NA
335766,"PO BOX 162981","AUSTIN","TX",78716,NA,NA,266,"PO BOX 162981, AUSTIN, TX, 78716","No_Match",NA,NA,NA,NA
335767,"PO BOX 163","BENSALEM","PA",19020,NA,NA,267,"PO BOX 163, BENSALEM, PA, 19020","No_Match",NA,NA,NA,NA
335768,"PO BOX 163","BRIDPORT","VT",5734,NA,NA,268,"PO BOX 163, BRIDPORT, VT, 5734","No_Match",NA,NA,NA,NA
335769,"PO BOX 163","BUSH","LA",70431,NA,NA,269,"PO BOX 163, BUSH, LA, 70431","No_Match",NA,NA,NA,NA
335770,"PO BOX 163","CLAYTON","NC",27528,NA,NA,270,"PO BOX 163, CLAYTON, NC, 27528","No_Match",NA,NA,NA,NA
335771,"PO BOX 163","DAVIDSVILLE","PA",15928,NA,NA,271,"PO BOX 163, DAVIDSVILLE, PA, 15928","No_Match",NA,NA,NA,NA
335772,"PO BOX 163","FAIR OAKS","CA",95628,NA,NA,272,"PO BOX 163, FAIR OAKS, CA, 95628","No_Match",NA,NA,NA,NA
335773,"PO BOX 163","FARMINGTON","MN",55024,NA,NA,273,"PO BOX 163, FARMINGTON, MN, 55024","No_Match",NA,NA,NA,NA
335774,"PO BOX 163","FOREST LAKE","MN",55025,NA,NA,274,"PO BOX 163, FOREST LAKE, MN, 55025","No_Match",NA,NA,NA,NA
335775,"PO BOX 163","GLEN DALE","WV",26038,NA,NA,275,"PO BOX 163, GLEN DALE, WV, 26038","No_Match",NA,NA,NA,NA
335776,"PO BOX 163","GREENCASTLE","IN",46135,NA,NA,276,"PO BOX 163, GREENCASTLE, IN, 46135","No_Match",NA,NA,NA,NA
335777,"PO BOX 163","GREENFIELD","CA",93927,NA,NA,277,"PO BOX 163, GREENFIELD, CA, 93927","No_Match",NA,NA,NA,NA
335778,"PO BOX 163","GREENLAWN","NY",11740,NA,NA,278,"PO BOX 163, GREENLAWN, NY, 11740","No_Match",NA,NA,NA,NA
335779,"PO BOX 163","HASKELL","TX",79521,NA,NA,279,"PO BOX 163, HASKELL, TX, 79521","No_Match",NA,NA,NA,NA
335780,"PO BOX 163","HEBRON","CT",6248,NA,NA,280,"PO BOX 163, HEBRON, CT, 6248","No_Match",NA,NA,NA,NA
335781,"PO BOX 163","LAKE TOXAWAY","NC",28747,NA,NA,281,"PO BOX 163, LAKE TOXAWAY, NC, 28747","No_Match",NA,NA,NA,NA
335782,"PO BOX 163","LINCROFT","NJ",7738,NA,NA,282,"PO BOX 163, LINCROFT, NJ, 7738","No_Match",NA,NA,NA,NA
335783,"PO BOX 163","LINGLE","WY",82223,NA,NA,283,"PO BOX 163, LINGLE, WY, 82223","No_Match",NA,NA,NA,NA
335784,"PO BOX 163","MADILL","OK",73446,NA,NA,284,"PO BOX 163, MADILL, OK, 73446","No_Match",NA,NA,NA,NA
335785,"PO BOX 163","MARSHALLS CREEK","PA",18335,NA,NA,285,"PO BOX 163, MARSHALLS CREEK, PA, 18335","No_Match",NA,NA,NA,NA
335786,"PO BOX 163","MEADOWVIEW","VA",24361,NA,NA,286,"PO BOX 163, MEADOWVIEW, VA, 24361","No_Match",NA,NA,NA,NA
335787,"PO BOX 163","MONTROSE","NY",10548,NA,NA,287,"PO BOX 163, MONTROSE, NY, 10548","No_Match",NA,NA,NA,NA
335788,"PO BOX 163","PALMYRA","VA",22963,NA,NA,288,"PO BOX 163, PALMYRA, VA, 22963","No_Match",NA,NA,NA,NA
335789,"PO BOX 163","PLATTEVILLE","WI",53818,NA,NA,289,"PO BOX 163, PLATTEVILLE, WI, 53818","No_Match",NA,NA,NA,NA
335790,"PO BOX 163","PLEDGER","TX",77468,NA,NA,290,"PO BOX 163, PLEDGER, TX, 77468","No_Match",NA,NA,NA,NA
335791,"PO BOX 163","PORT GIBSON","NY",14537,NA,NA,291,"PO BOX 163, PORT GIBSON, NY, 14537","No_Match",NA,NA,NA,NA
335792,"PO BOX 163","QUEEN CITY","MO",63561,NA,NA,292,"PO BOX 163, QUEEN CITY, MO, 63561","No_Match",NA,NA,NA,NA
335793,"PO BOX 163","RIFLE","CO",81650,NA,NA,293,"PO BOX 163, RIFLE, CO, 81650","No_Match",NA,NA,NA,NA
335794,"PO BOX 163","SOUTH WALES","NY",14139,NA,NA,294,"PO BOX 163, SOUTH WALES, NY, 14139","No_Match",NA,NA,NA,NA
335795,"PO BOX 163","SPERRY","OK",74073,NA,NA,295,"PO BOX 163, SPERRY, OK, 74073","No_Match",NA,NA,NA,NA
335796,"PO BOX 163","SURING","WI",54174,NA,NA,296,"PO BOX 163, SURING, WI, 54174","No_Match",NA,NA,NA,NA
335797,"PO BOX 163","TALIHINA","OK",74571,NA,NA,297,"PO BOX 163, TALIHINA, OK, 74571","No_Match",NA,NA,NA,NA
335798,"PO BOX 163","TAYLORS","SC",29687,NA,NA,298,"PO BOX 163, TAYLORS, SC, 29687","No_Match",NA,NA,NA,NA
335799,"PO BOX 163","UNION","OR",97883,NA,NA,299,"PO BOX 163, UNION, OR, 97883","No_Match",NA,NA,NA,NA
335800,"PO BOX 163","WALFORD","IA",52351,NA,NA,300,"PO BOX 163, WALFORD, IA, 52351","No_Match",NA,NA,NA,NA
335801,"PO BOX 163","WAMPSVILLE","NY",13163,NA,NA,301,"PO BOX 163, WAMPSVILLE, NY, 13163","No_Match",NA,NA,NA,NA
335802,"PO BOX 163","WEST WARDSBORO","VT",5360,NA,NA,302,"PO BOX 163, WEST WARDSBORO, VT, 5360","No_Match",NA,NA,NA,NA
335803,"PO BOX 163","WILLIAMSTOWN","NJ",8094,NA,NA,303,"PO BOX 163, WILLIAMSTOWN, NJ, 8094","No_Match",NA,NA,NA,NA
335804,"PO BOX 163","WINSTON","GA",30187,NA,NA,304,"PO BOX 163, WINSTON, GA, 30187","No_Match",NA,NA,NA,NA
335805,"PO BOX 163/  390 OLD MILL RD","RHOME","TX",76078,33.0505295080001,-97.470190515,305,"PO BOX 163/  390 OLD MILL RD, RHOME, TX, 76078","Match","Exact","390 OLD MILL RD, RHOME, TX, 76078",103670418,"L"
335806,"PO BOX 1630","HOMER","AK",99603,NA,NA,306,"PO BOX 1630, HOMER, AK, 99603","No_Match",NA,NA,NA,NA
335807,"PO BOX 1630","PONCHATOULA","LA",70454,NA,NA,307,"PO BOX 1630, PONCHATOULA, LA, 70454","No_Match",NA,NA,NA,NA
335808,"PO BOX 1630","ROCKDALE","TX",76567,NA,NA,308,"PO BOX 1630, ROCKDALE, TX, 76567","No_Match",NA,NA,NA,NA
335809,"PO BOX 163004","FORT WORTH","TX",76161,NA,NA,309,"PO BOX 163004, FORT WORTH, TX, 76161","No_Match",NA,NA,NA,NA
335810,"PO BOX 16301","AUGUSTA","GA",30919,NA,NA,310,"PO BOX 16301, AUGUSTA, GA, 30919","No_Match",NA,NA,NA,NA
335811,"PO BOX 16301","FORT WORTH","TX",76162,NA,NA,311,"PO BOX 16301, FORT WORTH, TX, 76162","No_Match",NA,NA,NA,NA
335812,"PO BOX 16307","SAN DIEGO","CA",92176,NA,NA,312,"PO BOX 16307, SAN DIEGO, CA, 92176","No_Match",NA,NA,NA,NA
335813,"PO BOX 1631","E. ST. LOUIS","IL",62206,NA,NA,313,"PO BOX 1631, E. ST. LOUIS, IL, 62206","No_Match",NA,NA,NA,NA
335814,"PO BOX 1631","LAKE FOREST","CA",92609,NA,NA,314,"PO BOX 1631, LAKE FOREST, CA, 92609","No_Match",NA,NA,NA,NA
335815,"PO BOX 1631","LYNCHBURG","VA",24505,NA,NA,315,"PO BOX 1631, LYNCHBURG, VA, 24505","No_Match",NA,NA,NA,NA
335816,"PO BOX 1631","MIDLOTHIAN","TX",76065,NA,NA,316,"PO BOX 1631, MIDLOTHIAN, TX, 76065","No_Match",NA,NA,NA,NA
335817,"PO BOX 1631","NEWPORT NEWS","VA",23601,NA,NA,317,"PO BOX 1631, NEWPORT NEWS, VA, 23601","No_Match",NA,NA,NA,NA
335818,"PO BOX 1631","RAPID CITY","SD",57709,NA,NA,318,"PO BOX 1631, RAPID CITY, SD, 57709","No_Match",NA,NA,NA,NA
335819,"PO BOX 1631","TRUCKEE","CA",96160,NA,NA,319,"PO BOX 1631, TRUCKEE, CA, 96160","No_Match",NA,NA,NA,NA
335820,"PO BOX 16318","PENSACOLA","FL",32507,NA,NA,320,"PO BOX 16318, PENSACOLA, FL, 32507","No_Match",NA,NA,NA,NA
335821,"PO BOX 1632","DOVER","NH",3821,NA,NA,321,"PO BOX 1632, DOVER, NH, 3821","No_Match",NA,NA,NA,NA
335822,"PO BOX 1632","GRAND RAPIDS","MI",49501,NA,NA,322,"PO BOX 1632, GRAND RAPIDS, MI, 49501","No_Match",NA,NA,NA,NA
335823,"PO BOX 1632","LAPORTE","IN",46350,NA,NA,323,"PO BOX 1632, LAPORTE, IN, 46350","No_Match",NA,NA,NA,NA
335824,"PO BOX 1632","SALLISAW","OK",74955,NA,NA,324,"PO BOX 1632, SALLISAW, OK, 74955","No_Match",NA,NA,NA,NA
335825,"PO BOX 16322","CLEARWATER","FL",33763,NA,NA,325,"PO BOX 16322, CLEARWATER, FL, 33763","No_Match",NA,NA,NA,NA
335826,"PO BOX 16322","LOUISVILLE","KY",40256,NA,NA,326,"PO BOX 16322, LOUISVILLE, KY, 40256","No_Match",NA,NA,NA,NA
335827,"PO BOX 16324","ASHEVILLE","NC",28816,NA,NA,327,"PO BOX 16324, ASHEVILLE, NC, 28816","No_Match",NA,NA,NA,NA
335828,"PO BOX 16327","CHICAGO","IL",60616,NA,NA,328,"PO BOX 16327, CHICAGO, IL, 60616","No_Match",NA,NA,NA,NA
335829,"PO BOX 1633","CARRBORO","NC",27510,NA,NA,329,"PO BOX 1633, CARRBORO, NC, 27510","No_Match",NA,NA,NA,NA
335830,"PO BOX 1633","FORNEY","TX",75126,NA,NA,330,"PO BOX 1633, FORNEY, TX, 75126","No_Match",NA,NA,NA,NA
335831,"PO BOX 1633","LEWISTON","ID",83501,NA,NA,331,"PO BOX 1633, LEWISTON, ID, 83501","No_Match",NA,NA,NA,NA
335832,"PO BOX 1633","MARIPOSA","CA",95338,NA,NA,332,"PO BOX 1633, MARIPOSA, CA, 95338","No_Match",NA,NA,NA,NA
335833,"PO BOX 1633","STATESVILLE","NC",28625,NA,NA,333,"PO BOX 1633, STATESVILLE, NC, 28625","No_Match",NA,NA,NA,NA
335834,"PO BOX 1633","TRAVERSE CITY","MI",49685,NA,NA,334,"PO BOX 1633, TRAVERSE CITY, MI, 49685","No_Match",NA,NA,NA,NA
335835,"PO BOX 16332","LUBBOCK","TX",79430,NA,NA,335,"PO BOX 16332, LUBBOCK, TX, 79430","No_Match",NA,NA,NA,NA
335836,"PO BOX 16334","SEATTLE","WA",98116,NA,NA,336,"PO BOX 16334, SEATTLE, WA, 98116","No_Match",NA,NA,NA,NA
335837,"PO BOX 1634","ARTESIA","NM",88211,NA,NA,337,"PO BOX 1634, ARTESIA, NM, 88211","No_Match",NA,NA,NA,NA
335838,"PO BOX 1634","COLORADO CITY","AZ",86021,NA,NA,338,"PO BOX 1634, COLORADO CITY, AZ, 86021","No_Match",NA,NA,NA,NA
335839,"PO BOX 1634","INDIAN TRAIL","NC",28079,NA,NA,339,"PO BOX 1634, INDIAN TRAIL, NC, 28079","No_Match",NA,NA,NA,NA
335840,"PO BOX 1634","PROSSER","WA",99350,NA,NA,340,"PO BOX 1634, PROSSER, WA, 99350","No_Match",NA,NA,NA,NA
335841,"PO BOX 1634","RED OAK","TX",75154,NA,NA,341,"PO BOX 1634, RED OAK, TX, 75154","No_Match",NA,NA,NA,NA
335842,"PO BOX 16346","TAMPA","FL",33687,NA,NA,342,"PO BOX 16346, TAMPA, FL, 33687","No_Match",NA,NA,NA,NA
335843,"PO BOX 1635","ROYAL OAK","MI",48068,NA,NA,343,"PO BOX 1635, ROYAL OAK, MI, 48068","No_Match",NA,NA,NA,NA
335844,"PO BOX 163512","COLUMBUS","OH",43216,NA,NA,344,"PO BOX 163512, COLUMBUS, OH, 43216","No_Match",NA,NA,NA,NA
335845,"PO BOX 16354","CHESAPEAKE","VA",23328,NA,NA,345,"PO BOX 16354, CHESAPEAKE, VA, 23328","No_Match",NA,NA,NA,NA
335846,"PO BOX 1636","BOUNTIFUL","UT",84011,NA,NA,346,"PO BOX 1636, BOUNTIFUL, UT, 84011","No_Match",NA,NA,NA,NA
335847,"PO BOX 16361","PHOENIX","AZ",85013,NA,NA,347,"PO BOX 16361, PHOENIX, AZ, 85013","No_Match",NA,NA,NA,NA
335848,"PO BOX 16363","CHAPEL HILL","NC",27516,NA,NA,348,"PO BOX 16363, CHAPEL HILL, NC, 27516","No_Match",NA,NA,NA,NA
335849,"PO BOX 163642","COLUMBUS","OH",43216,NA,NA,349,"PO BOX 163642, COLUMBUS, OH, 43216","No_Match",NA,NA,NA,NA
335850,"PO BOX 1637","OLYMPIA","WA",98507,NA,NA,350,"PO BOX 1637, OLYMPIA, WA, 98507","No_Match",NA,NA,NA,NA
335851,"PO BOX 163761","AUSTIN","TX",78716,NA,NA,351,"PO BOX 163761, AUSTIN, TX, 78716","No_Match",NA,NA,NA,NA
335852,"PO BOX 1638","ELLICOTT CITY","MD",21041,NA,NA,352,"PO BOX 1638, ELLICOTT CITY, MD, 21041","No_Match",NA,NA,NA,NA
335853,"PO BOX 1638","MONTGOMERY","TX",77356,NA,NA,353,"PO BOX 1638, MONTGOMERY, TX, 77356","No_Match",NA,NA,NA,NA
335854,"PO BOX 163803","AUSTIN","TX",78716,NA,NA,354,"PO BOX 163803, AUSTIN, TX, 78716","No_Match",NA,NA,NA,NA
335855,"PO BOX 163833","AUSTIN","TX",78716,NA,NA,355,"PO BOX 163833, AUSTIN, TX, 78716","No_Match",NA,NA,NA,NA
335856,"PO BOX 1639","LEWISTON","ID",83501,NA,NA,356,"PO BOX 1639, LEWISTON, ID, 83501","No_Match",NA,NA,NA,NA
335857,"PO BOX 16394","WICHITA","KS",67216,NA,NA,357,"PO BOX 16394, WICHITA, KS, 67216","No_Match",NA,NA,NA,NA
335858,"PO BOX 163941","FORT WORTH","TX",76161,NA,NA,358,"PO BOX 163941, FORT WORTH, TX, 76161","No_Match",NA,NA,NA,NA
335859,"PO BOX 164 802 3RD AVENUE","HERON LAKE","MN",56137,43.7956677610001,-95.316982835,359,"PO BOX 164 802 3RD AVENUE, HERON LAKE, MN, 56137","Match","Exact","802 3RD AVE, HERON LAKE, MN, 56137",9943851,"R"
335860,"PO BOX 164","ADDISON","NY",14801,NA,NA,360,"PO BOX 164, ADDISON, NY, 14801","No_Match",NA,NA,NA,NA
335861,"PO BOX 164","BEDMINSTER","NJ",7921,NA,NA,361,"PO BOX 164, BEDMINSTER, NJ, 7921","No_Match",NA,NA,NA,NA
335862,"PO BOX 164","BELLE","MO",65013,NA,NA,362,"PO BOX 164, BELLE, MO, 65013","No_Match",NA,NA,NA,NA
335863,"PO BOX 164","BILLERICA","MA",1821,NA,NA,363,"PO BOX 164, BILLERICA, MA, 1821","No_Match",NA,NA,NA,NA
335864,"PO BOX 164","BYRON","NY",14422,NA,NA,364,"PO BOX 164, BYRON, NY, 14422","No_Match",NA,NA,NA,NA
335865,"PO BOX 164","CLEVELAND","OK",74020,NA,NA,365,"PO BOX 164, CLEVELAND, OK, 74020","No_Match",NA,NA,NA,NA
335866,"PO BOX 164","CLINTON","WA",98236,NA,NA,366,"PO BOX 164, CLINTON, WA, 98236","No_Match",NA,NA,NA,NA
335867,"PO BOX 164","CRESSONA","PA",17929,NA,NA,367,"PO BOX 164, CRESSONA, PA, 17929","No_Match",NA,NA,NA,NA
335868,"PO BOX 164","DUNN","NC",28335,NA,NA,368,"PO BOX 164, DUNN, NC, 28335","No_Match",NA,NA,NA,NA
335869,"PO BOX 164","DUTTON","MT",59433,NA,NA,369,"PO BOX 164, DUTTON, MT, 59433","No_Match",NA,NA,NA,NA
335870,"PO BOX 164","FLY CREEK","NY",13337,NA,NA,370,"PO BOX 164, FLY CREEK, NY, 13337","No_Match",NA,NA,NA,NA
335871,"PO BOX 164","FORT ATKINSON","WI",53528,NA,NA,371,"PO BOX 164, FORT ATKINSON, WI, 53528","No_Match",NA,NA,NA,NA
335872,"PO BOX 164","FORT MEADE","MD",20755,NA,NA,372,"PO BOX 164, FORT MEADE, MD, 20755","No_Match",NA,NA,NA,NA
335873,"PO BOX 164","FORT PECK","MT",59223,NA,NA,373,"PO BOX 164, FORT PECK, MT, 59223","No_Match",NA,NA,NA,NA
335874,"PO BOX 164","GLOUCESTER","VA",23061,NA,NA,374,"PO BOX 164, GLOUCESTER, VA, 23061","No_Match",NA,NA,NA,NA
335875,"PO BOX 164","GRANT PARK","IL",60940,NA,NA,375,"PO BOX 164, GRANT PARK, IL, 60940","No_Match",NA,NA,NA,NA
335876,"PO BOX 164","GRESHAM","WI",54128,NA,NA,376,"PO BOX 164, GRESHAM, WI, 54128","No_Match",NA,NA,NA,NA
335877,"PO BOX 164","GUILFORD","IN",47022,NA,NA,377,"PO BOX 164, GUILFORD, IN, 47022","No_Match",NA,NA,NA,NA
335878,"PO BOX 164","HOMEWORTH","OH",44634,NA,NA,378,"PO BOX 164, HOMEWORTH, OH, 44634","No_Match",NA,NA,NA,NA
335879,"PO BOX 164","MERCER","PA",16137,NA,NA,379,"PO BOX 164, MERCER, PA, 16137","No_Match",NA,NA,NA,NA
335880,"PO BOX 164","MOUNT LAUREL","NJ",8054,NA,NA,380,"PO BOX 164, MOUNT LAUREL, NJ, 8054","No_Match",NA,NA,NA,NA
335881,"PO BOX 164","NEPHI","UT",84648,NA,NA,381,"PO BOX 164, NEPHI, UT, 84648","No_Match",NA,NA,NA,NA
335882,"PO BOX 164","PORT ALLEN","LA",70710,NA,NA,382,"PO BOX 164, PORT ALLEN, LA, 70710","No_Match",NA,NA,NA,NA
335883,"PO BOX 164","RAYMOND","IA",50667,NA,NA,383,"PO BOX 164, RAYMOND, IA, 50667","No_Match",NA,NA,NA,NA
335884,"PO BOX 164","SAUGERTIES","NY",12477,NA,NA,384,"PO BOX 164, SAUGERTIES, NY, 12477","No_Match",NA,NA,NA,NA
335885,"PO BOX 164","SPINDALE","NC",28160,NA,NA,385,"PO BOX 164, SPINDALE, NC, 28160","No_Match",NA,NA,NA,NA
335886,"PO BOX 164","VARNVILLE","SC",29944,NA,NA,386,"PO BOX 164, VARNVILLE, SC, 29944","No_Match",NA,NA,NA,NA
335887,"PO BOX 164","VIENNA","IL",62995,NA,NA,387,"PO BOX 164, VIENNA, IL, 62995","No_Match",NA,NA,NA,NA
335888,"PO BOX 164","WHEATLAND","CA",95692,NA,NA,388,"PO BOX 164, WHEATLAND, CA, 95692","No_Match",NA,NA,NA,NA
335889,"PO BOX 164","YATESBORO","PA",16263,NA,NA,389,"PO BOX 164, YATESBORO, PA, 16263","No_Match",NA,NA,NA,NA
335890,"PO BOX 16402","PLANTATION","FL",33318,NA,NA,390,"PO BOX 16402, PLANTATION, FL, 33318","No_Match",NA,NA,NA,NA
335891,"PO BOX 164032","COLUMBUS","OH",43216,NA,NA,391,"PO BOX 164032, COLUMBUS, OH, 43216","No_Match",NA,NA,NA,NA
335892,"PO BOX 16404","ENCINO","CA",91416,NA,NA,392,"PO BOX 16404, ENCINO, CA, 91416","No_Match",NA,NA,NA,NA
335893,"PO BOX 16404","SUGAR LAND","TX",77479,NA,NA,393,"PO BOX 16404, SUGAR LAND, TX, 77479","No_Match",NA,NA,NA,NA
335894,"PO BOX 16409","ALEXANDRIA","VA",22302,NA,NA,394,"PO BOX 16409, ALEXANDRIA, VA, 22302","No_Match",NA,NA,NA,NA
335895,"PO BOX 1641","GAYLORD","MI",49734,NA,NA,395,"PO BOX 1641, GAYLORD, MI, 49734","No_Match",NA,NA,NA,NA
335896,"PO BOX 1641","PINEDALE","WY",82941,NA,NA,396,"PO BOX 1641, PINEDALE, WY, 82941","No_Match",NA,NA,NA,NA
335897,"PO BOX 1641","SPRING VALLEY","NY",10977,NA,NA,397,"PO BOX 1641, SPRING VALLEY, NY, 10977","No_Match",NA,NA,NA,NA
335898,"PO BOX 16411","KANSAS CITY","MO",64112,NA,NA,398,"PO BOX 16411, KANSAS CITY, MO, 64112","No_Match",NA,NA,NA,NA
335899,"PO BOX 16412","COLUMBUS","OH",43216,NA,NA,399,"PO BOX 16412, COLUMBUS, OH, 43216","No_Match",NA,NA,NA,NA
335900,"PO BOX 16413","MINNEAPOLIS","MN",55416,NA,NA,400,"PO BOX 16413, MINNEAPOLIS, MN, 55416","No_Match",NA,NA,NA,NA
335901,"PO BOX 164184","FORT WORTH","TX",76161,NA,NA,401,"PO BOX 164184, FORT WORTH, TX, 76161","No_Match",NA,NA,NA,NA
335902,"PO BOX 164192","AUSTIN","TX",78716,NA,NA,402,"PO BOX 164192, AUSTIN, TX, 78716","No_Match",NA,NA,NA,NA
335903,"PO BOX 1642","ALBANY","GA",31702,NA,NA,403,"PO BOX 1642, ALBANY, GA, 31702","No_Match",NA,NA,NA,NA
335904,"PO BOX 1642","MADISON","TN",37116,NA,NA,404,"PO BOX 1642, MADISON, TN, 37116","No_Match",NA,NA,NA,NA
335905,"PO BOX 1642","MARRERO","LA",70073,NA,NA,405,"PO BOX 1642, MARRERO, LA, 70073","No_Match",NA,NA,NA,NA
335906,"PO BOX 1642","NASHUA","NH",3061,NA,NA,406,"PO BOX 1642, NASHUA, NH, 3061","No_Match",NA,NA,NA,NA
335907,"PO BOX 1642","NEW CANAAN","CT",6840,NA,NA,407,"PO BOX 1642, NEW CANAAN, CT, 6840","No_Match",NA,NA,NA,NA
335908,"PO BOX 1642","SPARTANBURG","SC",29304,NA,NA,408,"PO BOX 1642, SPARTANBURG, SC, 29304","No_Match",NA,NA,NA,NA
335909,"PO BOX 16423","LOUISVILLE","KY",40256,NA,NA,409,"PO BOX 16423, LOUISVILLE, KY, 40256","No_Match",NA,NA,NA,NA
335910,"PO BOX 16423","PHOENIX","AZ",85335,NA,NA,410,"PO BOX 16423, PHOENIX, AZ, 85335","No_Match",NA,NA,NA,NA
335911,"PO BOX 16423","TAMPA","FL",33687,NA,NA,411,"PO BOX 16423, TAMPA, FL, 33687","No_Match",NA,NA,NA,NA
335912,"PO BOX 164232","COLUMBUS","OH",43213,NA,NA,412,"PO BOX 164232, COLUMBUS, OH, 43213","No_Match",NA,NA,NA,NA
335913,"PO BOX 164232","FORT WORTH","TX",76161,NA,NA,413,"PO BOX 164232, FORT WORTH, TX, 76161","No_Match",NA,NA,NA,NA
335914,"PO BOX 16424","CHESAPEAKE","VA",23328,NA,NA,414,"PO BOX 16424, CHESAPEAKE, VA, 23328","No_Match",NA,NA,NA,NA
335915,"PO BOX 16425","COLUMBUS","OH",43216,NA,NA,415,"PO BOX 16425, COLUMBUS, OH, 43216","No_Match",NA,NA,NA,NA
335916,"PO BOX 164271","LITTLE ROCK","AR",72216,NA,NA,416,"PO BOX 164271, LITTLE ROCK, AR, 72216","No_Match",NA,NA,NA,NA
335917,"PO BOX 1643","BLUFFTON","SC",29910,NA,NA,417,"PO BOX 1643, BLUFFTON, SC, 29910","No_Match",NA,NA,NA,NA
335918,"PO BOX 1643","INDIANAPOLIS","IN",46206,NA,NA,418,"PO BOX 1643, INDIANAPOLIS, IN, 46206","No_Match",NA,NA,NA,NA
335919,"PO BOX 1643","MARSHALL","TX",75671,NA,NA,419,"PO BOX 1643, MARSHALL, TX, 75671","No_Match",NA,NA,NA,NA
335920,"PO BOX 1643","OWINGS MILLS","MD",21117,NA,NA,420,"PO BOX 1643, OWINGS MILLS, MD, 21117","No_Match",NA,NA,NA,NA
335921,"PO BOX 16432","SEATTLE","WA",98116,NA,NA,421,"PO BOX 16432, SEATTLE, WA, 98116","No_Match",NA,NA,NA,NA
335922,"PO BOX 16438","GALVESTON","TX",77552,NA,NA,422,"PO BOX 16438, GALVESTON, TX, 77552","No_Match",NA,NA,NA,NA
335923,"PO BOX 1644","FORT WORTH","TX",76101,NA,NA,423,"PO BOX 1644, FORT WORTH, TX, 76101","No_Match",NA,NA,NA,NA
335924,"PO BOX 16443","PITTSBURGH","PA",15242,NA,NA,424,"PO BOX 16443, PITTSBURGH, PA, 15242","No_Match",NA,NA,NA,NA
335925,"PO BOX 16447","SUGAR LAND","TX",77496,NA,NA,425,"PO BOX 16447, SUGAR LAND, TX, 77496","No_Match",NA,NA,NA,NA
335926,"PO BOX 1645","OAK PARK","IL",60304,NA,NA,426,"PO BOX 1645, OAK PARK, IL, 60304","No_Match",NA,NA,NA,NA
335927,"PO BOX 1645","RANCHOS DE TAOS","NM",87557,NA,NA,427,"PO BOX 1645, RANCHOS DE TAOS, NM, 87557","No_Match",NA,NA,NA,NA
335928,"PO BOX 1645","VOORHEES","NJ",8043,NA,NA,428,"PO BOX 1645, VOORHEES, NJ, 8043","No_Match",NA,NA,NA,NA
335929,"PO BOX 1645","WOODLAND","CA",95695,NA,NA,429,"PO BOX 1645, WOODLAND, CA, 95695","No_Match",NA,NA,NA,NA
335930,"PO BOX 164503","LITTLE ROCK","AR",72216,NA,NA,430,"PO BOX 164503, LITTLE ROCK, AR, 72216","No_Match",NA,NA,NA,NA
335931,"PO BOX 16454","FERNANDINA BEACH","FL",32035,NA,NA,431,"PO BOX 16454, FERNANDINA BEACH, FL, 32035","No_Match",NA,NA,NA,NA
335932,"PO BOX 164545","SACRAMENTO","CA",95816,NA,NA,432,"PO BOX 164545, SACRAMENTO, CA, 95816","No_Match",NA,NA,NA,NA
335933,"PO BOX 1646","CASTLE ROCK","CO",80104,NA,NA,433,"PO BOX 1646, CASTLE ROCK, CO, 80104","No_Match",NA,NA,NA,NA
335934,"PO BOX 1646","PORT ANGELES","WA",98362,NA,NA,434,"PO BOX 1646, PORT ANGELES, WA, 98362","No_Match",NA,NA,NA,NA
335935,"PO BOX 1646","WEST CALDWELL","NJ",7007,NA,NA,435,"PO BOX 1646, WEST CALDWELL, NJ, 7007","No_Match",NA,NA,NA,NA
335936,"PO BOX 16462","GREENVILLE","SC",29606,NA,NA,436,"PO BOX 16462, GREENVILLE, SC, 29606","No_Match",NA,NA,NA,NA
335937,"PO BOX 16462","MILWAUKEE","WI",53216,NA,NA,437,"PO BOX 16462, MILWAUKEE, WI, 53216","No_Match",NA,NA,NA,NA
335938,"PO BOX 16462","WEST PALM BEACH","FL",33416,NA,NA,438,"PO BOX 16462, WEST PALM BEACH, FL, 33416","No_Match",NA,NA,NA,NA
335939,"PO BOX 164684","FORT WORTH","TX",76161,NA,NA,439,"PO BOX 164684, FORT WORTH, TX, 76161","No_Match",NA,NA,NA,NA
335940,"PO BOX 1647","BOZEMAN","MT",59771,NA,NA,440,"PO BOX 1647, BOZEMAN, MT, 59771","No_Match",NA,NA,NA,NA
335941,"PO BOX 1647","BROWNS MILLS","NJ",8015,NA,NA,441,"PO BOX 1647, BROWNS MILLS, NJ, 8015","No_Match",NA,NA,NA,NA
335942,"PO BOX 1647","ELKO","NV",89803,NA,NA,442,"PO BOX 1647, ELKO, NV, 89803","No_Match",NA,NA,NA,NA
335943,"PO BOX 1647","EUSTIS","FL",32727,NA,NA,443,"PO BOX 1647, EUSTIS, FL, 32727","No_Match",NA,NA,NA,NA
335944,"PO BOX 1647","GARNER","NC",27529,NA,NA,444,"PO BOX 1647, GARNER, NC, 27529","No_Match",NA,NA,NA,NA
335945,"PO BOX 1647","OROFINO","ID",83544,NA,NA,445,"PO BOX 1647, OROFINO, ID, 83544","No_Match",NA,NA,NA,NA
335946,"PO BOX 1647","TROY","NY",12181,NA,NA,446,"PO BOX 1647, TROY, NY, 12181","No_Match",NA,NA,NA,NA
335947,"PO BOX 16472","WORCESTER","MA",1601,NA,NA,447,"PO BOX 16472, WORCESTER, MA, 1601","No_Match",NA,NA,NA,NA
335948,"PO BOX 1648","CONVERSE","TX",78109,NA,NA,448,"PO BOX 1648, CONVERSE, TX, 78109","No_Match",NA,NA,NA,NA
335949,"PO BOX 1648","HIRAM","GA",30141,NA,NA,449,"PO BOX 1648, HIRAM, GA, 30141","No_Match",NA,NA,NA,NA
335950,"PO BOX 1649","LOGANVILLE","GA",30052,NA,NA,450,"PO BOX 1649, LOGANVILLE, GA, 30052","No_Match",NA,NA,NA,NA
335951,"PO BOX 16491","CHARLOTTE","NC",28297,NA,NA,451,"PO BOX 16491, CHARLOTTE, NC, 28297","No_Match",NA,NA,NA,NA
335952,"PO BOX 165","APPLETON CITY","MO",64724,NA,NA,452,"PO BOX 165, APPLETON CITY, MO, 64724","No_Match",NA,NA,NA,NA
335953,"PO BOX 165","BRADY","TX",76825,NA,NA,453,"PO BOX 165, BRADY, TX, 76825","No_Match",NA,NA,NA,NA
335954,"PO BOX 165","BURLINGTON","WA",98233,NA,NA,454,"PO BOX 165, BURLINGTON, WA, 98233","No_Match",NA,NA,NA,NA
335955,"PO BOX 165","CLAYTON","NC",27528,NA,NA,455,"PO BOX 165, CLAYTON, NC, 27528","No_Match",NA,NA,NA,NA
335956,"PO BOX 165","CLUNE","PA",15727,NA,NA,456,"PO BOX 165, CLUNE, PA, 15727","No_Match",NA,NA,NA,NA
335957,"PO BOX 165","CRANFILLS GAP","TX",76637,NA,NA,457,"PO BOX 165, CRANFILLS GAP, TX, 76637","No_Match",NA,NA,NA,NA
335958,"PO BOX 165","CUERO","TX",77954,NA,NA,458,"PO BOX 165, CUERO, TX, 77954","No_Match",NA,NA,NA,NA
335959,"PO BOX 165","DOWNINGTOWN","PA",19335,NA,NA,459,"PO BOX 165, DOWNINGTOWN, PA, 19335","No_Match",NA,NA,NA,NA
335960,"PO BOX 165","ETNA","OH",43018,NA,NA,460,"PO BOX 165, ETNA, OH, 43018","No_Match",NA,NA,NA,NA
335961,"PO BOX 165","EXCELSIOR SPRINGS","MO",64024,NA,NA,461,"PO BOX 165, EXCELSIOR SPRINGS, MO, 64024","No_Match",NA,NA,NA,NA
335962,"PO BOX 165","FARMINGDALE","NJ",7727,NA,NA,462,"PO BOX 165, FARMINGDALE, NJ, 7727","No_Match",NA,NA,NA,NA
335963,"PO BOX 165","FISHERTOWN","PA",15539,NA,NA,463,"PO BOX 165, FISHERTOWN, PA, 15539","No_Match",NA,NA,NA,NA
335964,"PO BOX 165","GLENN","CA",95943,NA,NA,464,"PO BOX 165, GLENN, CA, 95943","No_Match",NA,NA,NA,NA
335965,"PO BOX 165","GRAFORD","TX",76449,NA,NA,465,"PO BOX 165, GRAFORD, TX, 76449","No_Match",NA,NA,NA,NA
335966,"PO BOX 165","HALES CORNERS","WI",53130,NA,NA,466,"PO BOX 165, HALES CORNERS, WI, 53130","No_Match",NA,NA,NA,NA
335967,"PO BOX 165","HOMER","NY",13077,NA,NA,467,"PO BOX 165, HOMER, NY, 13077","No_Match",NA,NA,NA,NA
335968,"PO BOX 165","NEW RICHMOND","IN",47967,NA,NA,468,"PO BOX 165, NEW RICHMOND, IN, 47967","No_Match",NA,NA,NA,NA
335969,"PO BOX 165","OIL CITY","PA",16301,NA,NA,469,"PO BOX 165, OIL CITY, PA, 16301","No_Match",NA,NA,NA,NA
335970,"PO BOX 165","PANA","IL",62557,NA,NA,470,"PO BOX 165, PANA, IL, 62557","No_Match",NA,NA,NA,NA
335971,"PO BOX 165","PERRYVILLE","AR",72126,NA,NA,471,"PO BOX 165, PERRYVILLE, AR, 72126","No_Match",NA,NA,NA,NA
335972,"PO BOX 165","PLAINSBORO","NJ",8536,NA,NA,472,"PO BOX 165, PLAINSBORO, NJ, 8536","No_Match",NA,NA,NA,NA
335973,"PO BOX 165","PORT EWEN","NY",12466,NA,NA,473,"PO BOX 165, PORT EWEN, NY, 12466","No_Match",NA,NA,NA,NA
335974,"PO BOX 165","SAINT FRANCIS","SD",57572,NA,NA,474,"PO BOX 165, SAINT FRANCIS, SD, 57572","No_Match",NA,NA,NA,NA
335975,"PO BOX 165","SAN JUAN BAUTISTA","CA",95045,NA,NA,475,"PO BOX 165, SAN JUAN BAUTISTA, CA, 95045","No_Match",NA,NA,NA,NA
335976,"PO BOX 165","STUART","VA",24171,NA,NA,476,"PO BOX 165, STUART, VA, 24171","No_Match",NA,NA,NA,NA
335977,"PO BOX 165","TAMAQUA","PA",18252,NA,NA,477,"PO BOX 165, TAMAQUA, PA, 18252","No_Match",NA,NA,NA,NA
335978,"PO BOX 165","TULIA","TX",79088,NA,NA,478,"PO BOX 165, TULIA, TX, 79088","No_Match",NA,NA,NA,NA
335979,"PO BOX 1650","HEMET","CA",92546,NA,NA,479,"PO BOX 1650, HEMET, CA, 92546","No_Match",NA,NA,NA,NA
335980,"PO BOX 1650","MARICOPA","AZ",85139,NA,NA,480,"PO BOX 1650, MARICOPA, AZ, 85139","No_Match",NA,NA,NA,NA
335981,"PO BOX 165078","IRVING","TX",75016,NA,NA,481,"PO BOX 165078, IRVING, TX, 75016","No_Match",NA,NA,NA,NA
335982,"PO BOX 1651","LIHUE","HI",96766,NA,NA,482,"PO BOX 1651, LIHUE, HI, 96766","No_Match",NA,NA,NA,NA
335983,"PO BOX 1651","SANDPOINT","ID",83864,NA,NA,483,"PO BOX 1651, SANDPOINT, ID, 83864","No_Match",NA,NA,NA,NA
335984,"PO BOX 16517","BRISTOL","VA",24209,NA,NA,484,"PO BOX 16517, BRISTOL, VA, 24209","No_Match",NA,NA,NA,NA
335985,"PO BOX 16517","CHESAPEAKE","VA",23328,NA,NA,485,"PO BOX 16517, CHESAPEAKE, VA, 23328","No_Match",NA,NA,NA,NA
335986,"PO BOX 1652","ABILENE","TX",79604,NA,NA,486,"PO BOX 1652, ABILENE, TX, 79604","No_Match",NA,NA,NA,NA
335987,"PO BOX 1652","ESTES PARK","CO",80517,NA,NA,487,"PO BOX 1652, ESTES PARK, CO, 80517","No_Match",NA,NA,NA,NA
335988,"PO BOX 1652","MINOT","ND",58702,NA,NA,488,"PO BOX 1652, MINOT, ND, 58702","No_Match",NA,NA,NA,NA
335989,"PO BOX 1652","PAINESVILLE","OH",44077,NA,NA,489,"PO BOX 1652, PAINESVILLE, OH, 44077","No_Match",NA,NA,NA,NA
335990,"PO BOX 1652","SNELLVILLE","GA",30078,NA,NA,490,"PO BOX 1652, SNELLVILLE, GA, 30078","No_Match",NA,NA,NA,NA
335991,"PO BOX 1652","WEST TISBURY","MA",2575,NA,NA,491,"PO BOX 1652, WEST TISBURY, MA, 2575","No_Match",NA,NA,NA,NA
335992,"PO BOX 1653","BAYFIELD","CO",81122,NA,NA,492,"PO BOX 1653, BAYFIELD, CO, 81122","No_Match",NA,NA,NA,NA
335993,"PO BOX 1653","EAST HELENA","MT",59635,NA,NA,493,"PO BOX 1653, EAST HELENA, MT, 59635","No_Match",NA,NA,NA,NA
335994,"PO BOX 1653","SACO","ME",4072,NA,NA,494,"PO BOX 1653, SACO, ME, 4072","No_Match",NA,NA,NA,NA
335995,"PO BOX 1653","SAINT HELENS","OR",97051,NA,NA,495,"PO BOX 1653, SAINT HELENS, OR, 97051","No_Match",NA,NA,NA,NA
335996,"PO BOX 16535","SUGAR LAND","TX",77496,NA,NA,496,"PO BOX 16535, SUGAR LAND, TX, 77496","No_Match",NA,NA,NA,NA
335997,"PO BOX 1654","EAGLE","CO",81631,NA,NA,497,"PO BOX 1654, EAGLE, CO, 81631","No_Match",NA,NA,NA,NA
335998,"PO BOX 1654","KAPAAU","HI",96755,NA,NA,498,"PO BOX 1654, KAPAAU, HI, 96755","No_Match",NA,NA,NA,NA
335999,"PO BOX 1654","LAKE DALLAS","TX",75065,NA,NA,499,"PO BOX 1654, LAKE DALLAS, TX, 75065","No_Match",NA,NA,NA,NA
336000,"PO BOX 1654","ONSET","MA",2558,NA,NA,500,"PO BOX 1654, ONSET, MA, 2558","No_Match",NA,NA,NA,NA
