"ID","Address","City","State","Zip","lat","long","id","input_address","match_indicator","match_type","matched_address","tiger_line_id","tiger_side"
10501,"10335 CROSS CREEK BLVD STE 23","TAMPA","FL",33647,28.1444222380001,-82.3135898629999,1,"10335 CROSS CREEK BLVD STE 23, TAMPA, FL, 33647","Match","Exact","10335 CROSS CREEK BLVD, TAMPA, FL, 33647",646981240,"R"
10502,"10335 CYPRESS LAKES PRESERVE DR","LAKE WORTH","FL",33449,NA,NA,2,"10335 CYPRESS LAKES PRESERVE DR, LAKE WORTH, FL, 33449","No_Match",NA,NA,NA,NA
10503,"10335 E RAINTREE DR","SCOTTSDALE","AZ",85255,33.6220190710001,-111.858067443,3,"10335 E RAINTREE DR, SCOTTSDALE, AZ, 85255","Match","Exact","10335 E RAINTREE DR, SCOTTSDALE, AZ, 85255",128959414,"L"
10504,"10335 PINENEEDLES DRIVE","NEW PORT RICHEY","FL",34654,28.2636783070001,-82.6443762599999,4,"10335 PINENEEDLES DRIVE, NEW PORT RICHEY, FL, 34654","Match","Exact","10335 PINENEEDLES DR, NEW PORT RICHEY, FL, 34654",86402013,"L"
10505,"10335 SABLEBROOK LN","HOUSTON","TX",77095,29.925434355,-95.677415162,5,"10335 SABLEBROOK LN, HOUSTON, TX, 77095","Match","Exact","10335 SABLEBROOK LN, HOUSTON, TX, 77095",635275979,"R"
10506,"10335 VISCOUNT DRIVE","SAINT LOUIS","MO",63136,38.758735184,-90.252621924,6,"10335 VISCOUNT DRIVE, SAINT LOUIS, MO, 63136","Match","Exact","10335 VISCOUNT DR, SAINT LOUIS, MO, 63136",100148350,"L"
10507,"10336 ELDER CREEK RD","SACRAMENTO","CA",95829,38.5108211510001,-121.302691865,7,"10336 ELDER CREEK RD, SACRAMENTO, CA, 95829","Match","Exact","10336 ELDER CREEK RD, SACRAMENTO, CA, 95829",133348879,"R"
10508,"10336 METCALF AVE","OVERLAND PARK","TX",66212,NA,NA,8,"10336 METCALF AVE, OVERLAND PARK, TX, 66212","No_Match",NA,NA,NA,NA
10509,"10336 SHADYBROOK DRIVE","BOISE","ID",83704,43.637897465,-116.310866051,9,"10336 SHADYBROOK DRIVE, BOISE, ID, 83704","Match","Exact","10336 SHADYBROOK DR, BOISE, ID, 83704",117891244,"R"
10510,"10336 SOUTH WESTERN AVENUE SUITE 8","CHICAGO","IL",60643,41.705670534,-87.68160182,10,"10336 SOUTH WESTERN AVENUE SUITE 8, CHICAGO, IL, 60643","Match","Exact","10336 S WESTERN AVE, CHICAGO, IL, 60643",111822185,"R"
10511,"10337 S BRADEN AVENUE","TULSA","OK",74137,36.013468081,-95.91938026,11,"10337 S BRADEN AVENUE, TULSA, OK, 74137","Match","Exact","10337 S BRADEN AVE, TULSA, OK, 74137",640451154,"R"
10512,"10337 TUTHILL RD","SOUTH LYON","MI",48178,42.454079861,-83.7408284859999,12,"10337 TUTHILL RD, SOUTH LYON, MI, 48178","Match","Exact","10337 TUTHILL RD, SOUTH LYON, MI, 48178",619590686,"L"
10513,"10337 TUTHILL ROAD","SOUTH LYON","MI",48178,42.454079861,-83.7408284859999,13,"10337 TUTHILL ROAD, SOUTH LYON, MI, 48178","Match","Exact","10337 TUTHILL RD, SOUTH LYON, MI, 48178",619590686,"L"
10514,"10338 138TH AVE SE","RAINIER","WA",98576,46.8871156060001,-122.721178249,14,"10338 138TH AVE SE, RAINIER, WA, 98576","Match","Exact","10338 138TH AVE SE, RAINIER, WA, 98576",649810372,"R"
10515,"10338 KARSTON AVE NE","ALBERTVILLE","MN",55301,45.23779567,-93.679413607,15,"10338 KARSTON AVE NE, ALBERTVILLE, MN, 55301","Match","Exact","10338 KARSTON AVE NE, ALBERTVILLE, MN, 55301",605184054,"L"
10516,"10338 SW 187 STREET","MIAMI","FL",33157,25.5937162130001,-80.359334654,16,"10338 SW 187 STREET, MIAMI, FL, 33157","Match","Exact","10338 SW 187TH ST, MIAMI, FL, 33157",116093867,"L"
10517,"10339 QUAIL CROWN DRIVE","NAPLES","FL",34119,26.279557842,-81.73182984,17,"10339 QUAIL CROWN DRIVE, NAPLES, FL, 34119","Match","Exact","10339 QUAIL CROWN DR, NAPLES, FL, 34119",115158499,"L"
10518,"10339 S 2420 E","SANDY","UT",84092,40.5630541470001,-111.821800755,18,"10339 S 2420 E, SANDY, UT, 84092","Match","Exact","10339 S 2420 E, SANDY, UT, 84092",176118649,"L"
10519,"10339 S CORLISS AVENUE","CHICAGO","IL",60628,41.7067645880001,-87.60398221,19,"10339 S CORLISS AVENUE, CHICAGO, IL, 60628","Match","Exact","10339 S CORLISS AVE, CHICAGO, IL, 60628",111773675,"L"
10520,"10339 TRACERY CT","PARKER","CO",80134,39.529382814,-104.810839669,20,"10339 TRACERY CT, PARKER, CO, 80134","Match","Exact","10339 TRACERY CT, PARKER, CO, 80134",130805214,"R"
10521,"1034  E BROOKS ROAD","MEMPHIS","TN",38116,35.0616908430001,-90.030245726,21,"1034  E BROOKS ROAD, MEMPHIS, TN, 38116","Match","Exact","1034 E BROOKS RD, MEMPHIS, TN, 38116",72970334,"L"
10522,"1034 66TH AVENUE","OAKLAND","CA",94621,37.7595148840001,-122.197297511,22,"1034 66TH AVENUE, OAKLAND, CA, 94621","Match","Exact","1034 66TH AVE, OAKLAND, CA, 94621",125008224,"R"
10523,"1034 ALICE SPRINGS CIRCLE","SPRING HILL","TN",37174,35.7748098370001,-86.886783307,23,"1034 ALICE SPRINGS CIRCLE, SPRING HILL, TN, 37174","Match","Exact","1034 ALICE SPRINGS CIR, SPRING HILL, TN, 37174",634037545,"L"
10524,"1034 AMBER DRIVE","COLUMBUS","GA",31907,32.470137445,-84.8923190639999,24,"1034 AMBER DRIVE, COLUMBUS, GA, 31907","Match","Exact","1034 AMBER DR, COLUMBUS, GA, 31907",98941559,"R"
10525,"1034 ASTOUNDING HILLS DRIVE","HENDERSON","NV",89052,35.9899138500001,-115.085899242,25,"1034 ASTOUNDING HILLS DRIVE, HENDERSON, NV, 89052","Match","Exact","1034 ASTOUNDING HILLS DR, HENDERSON, NV, 89052",612692462,"L"
10526,"1034 COOK DR SE","WASHINGTON","DC",20032,38.843812804,-76.982689606,26,"1034 COOK DR SE, WASHINGTON, DC, 20032","Match","Exact","1034 COOK DR SE, WASHINGTON, DC, 20032",639542548,"R"
10527,"1034 COURT ST","MARTINEZ","CA",94553,38.0164296770001,-122.132386644,27,"1034 COURT ST, MARTINEZ, CA, 94553","Match","Exact","1034 COURT ST, MARTINEZ, CA, 94553",607003200,"L"
10528,"1034 CR 445","ENTERPRISE","AL",36330,31.3060465620001,-85.7873586279999,28,"1034 CR 445, ENTERPRISE, AL, 36330","Match","Exact","1034 CO RD 445, ENTERPRISE, AL, 36330",651562620,"L"
10529,"1034 E 47TH STREET","CHICAGO","IL",60653,41.8096046740001,-87.600777749,29,"1034 E 47TH STREET, CHICAGO, IL, 60653","Match","Exact","1034 E 47TH ST, CHICAGO, IL, 60653",111771524,"L"
10530,"1034 E GRAND BLANC RD","GRAND BLANC","MI",48439,42.9149708210001,-83.689383705,30,"1034 E GRAND BLANC RD, GRAND BLANC, MI, 48439","Match","Exact","1034 E GRAND BLANC RD, GRAND BLANC, MI, 48439",627876522,"R"
10531,"1034 E VALENCIA AVE","BURBANK","CA",91501,34.1855041800001,-118.290738813,31,"1034 E VALENCIA AVE, BURBANK, CA, 91501","Match","Exact","1034 E VALENCIA AVE, BURBANK, CA, 91501",141596079,"R"
10532,"1034 E WASHINGTON LANE","PHILADELPHIA","PA",19138,40.0541602480001,-75.1696550349999,32,"1034 E WASHINGTON LANE, PHILADELPHIA, PA, 19138","Match","Exact","1034 E WASHINGTON LN, PHILADELPHIA, PA, 19138",613243600,"R"
10533,"1034 GATEWAY BLVD STE 107","BOYNTON BEACH","FL",33426,NA,NA,33,"1034 GATEWAY BLVD STE 107, BOYNTON BEACH, FL, 33426","No_Match",NA,NA,NA,NA
10534,"1034 GERMAN SCHOOL RD","RICHMOND","VA",23225,37.5156270090001,-77.5113418879999,34,"1034 GERMAN SCHOOL RD, RICHMOND, VA, 23225","Match","Exact","1034 GERMAN SCHOOL RD, RICHMOND, VA, 23225",201536492,"L"
10535,"1034 HOLLISTER AVE","SAN FRANCISCO","CA",94124,37.7190859090001,-122.391246427,35,"1034 HOLLISTER AVE, SAN FRANCISCO, CA, 94124","Match","Exact","1034 HOLLISTER AVE, SAN FRANCISCO, CA, 94124",192291151,"R"
10536,"1034 INDIANA AVENUE","TOLEDO","OH",43607,41.650376196,-83.5682561089999,36,"1034 INDIANA AVENUE, TOLEDO, OH, 43607","Match","Exact","1034 INDIANA AVE, TOLEDO, OH, 43607",33938956,"R"
10537,"1034 IOWA ST","CEDAR FALLS","IA",50613,42.5292524490001,-92.452067287,37,"1034 IOWA ST, CEDAR FALLS, IA, 50613","Match","Exact","1034 IOWA ST, CEDAR FALLS, IA, 50613",77248405,"L"
10538,"1034 MADISON 9230","FREDERICKTOWN","MO",63645,NA,NA,38,"1034 MADISON 9230, FREDERICKTOWN, MO, 63645","No_Match",NA,NA,NA,NA
10539,"1034 MIRAMAR STREET","LAGUNA BEACH","CA",92651,33.5298895390001,-117.760232241,39,"1034 MIRAMAR STREET, LAGUNA BEACH, CA, 92651","Match","Exact","1034 MIRAMAR ST, LAGUNA BEACH, CA, 92651",144069421,"R"
10540,"1034 MORGAN DRIVE","NEW ALBANY","MS",38652,34.485368694,-88.97962083,40,"1034 MORGAN DRIVE, NEW ALBANY, MS, 38652","Match","Exact","1034 MORGAN DR, NEW ALBANY, MS, 38652",76603889,"R"
10541,"1034 MOSSY KNOLL DR","CORDOVA","TN",38018,35.1537614800001,-89.7194685169999,41,"1034 MOSSY KNOLL DR, CORDOVA, TN, 38018","Match","Exact","1034 MOSSY KNOLL DR, CORDOVA, TN, 38018",72975993,"L"
10542,"1034 N WELLS STREET","CHICAGO","IL",60610,41.901620984,-87.634399133,42,"1034 N WELLS STREET, CHICAGO, IL, 60610","Match","Exact","1034 N WELLS ST, CHICAGO, IL, 60610",111768380,"L"
10543,"1034 NICHOLS CIRCLE EAST","GALLATIN","TN",37066,36.3571811410001,-86.454916081,43,"1034 NICHOLS CIRCLE EAST, GALLATIN, TN, 37066","Match","Non_Exact","1034 NICHOLS CIR, GALLATIN, TN, 37066",29777078,"R"
10544,"1034 PIONEER TRL","BAYPORT","MN",55003,45.0128829160001,-92.790034855,44,"1034 PIONEER TRL, BAYPORT, MN, 55003","Match","Exact","1034 PIONEER TRL, BAYPORT, MN, 55003",624845138,"L"
10545,"1034 PUTNAM ST","SANDUSKY","OH",44870,41.446025541,-82.726103677,45,"1034 PUTNAM ST, SANDUSKY, OH, 44870","Match","Exact","1034 PUTNAM ST, SANDUSKY, OH, 44870",55324743,"R"
10546,"1034 QUAIL HAVEN LN","ROCKWELL","NC",28138,35.558749376,-80.424659306,46,"1034 QUAIL HAVEN LN, ROCKWELL, NC, 28138","Match","Non_Exact","1034 QUAIL HAVEN DR, ROCKWELL, NC, 28138",625201200,"L"
10547,"1034 QUARTER HORESE ROAD","DUNCAN","AZ",85534,32.7958675900001,-109.167908208,47,"1034 QUARTER HORESE ROAD, DUNCAN, AZ, 85534","Match","Non_Exact","1034 QUARTER HORSE RD, DUNCAN, AZ, 85534",137408719,"R"
10548,"1034 S BRENTWOOD BLVD  SUITE PH-1B","SAINT LOUIS","MO",63117,38.6362180770001,-90.345728735,48,"1034 S BRENTWOOD BLVD  SUITE PH-1B, SAINT LOUIS, MO, 63117","Match","Non_Exact","1034 S BRENTWOOD BLVD, SAINT LOUIS, MO, 63117",100134800,"L"
10549,"1034 S BRENTWOOD BLVD STE 1201","SAINT LOUIS","MO",63117,38.6362180770001,-90.345728735,49,"1034 S BRENTWOOD BLVD STE 1201, SAINT LOUIS, MO, 63117","Match","Non_Exact","1034 S BRENTWOOD BLVD, SAINT LOUIS, MO, 63117",100134800,"L"
10550,"1034 S GRAND TRAVERSE","FLINT","MI",48502,43.0084902030001,-83.689685228,50,"1034 S GRAND TRAVERSE, FLINT, MI, 48502","Match","Non_Exact","1034 S GRAND TRAVERSE ST, FLINT, MI, 48502",69568113,"R"
10551,"1034 SABLE","RANCHO SANTA MARGARI","CA",92688,33.5844829970001,-117.631735945,51,"1034 SABLE, RANCHO SANTA MARGARI, CA, 92688","Match","Non_Exact","1034 SABLE, RANCHO SANTA MARGARITA, CA, 92688",144410628,"L"
10552,"1034 SW LIGHTHOUSE DR","PALM CITY","FL",34990,27.191537999,-80.274547212,52,"1034 SW LIGHTHOUSE DR, PALM CITY, FL, 34990","Match","Exact","1034 SW LIGHTHOUSE DR, PALM CITY, FL, 34990",120430221,"L"
10553,"1034 W 252ND ST","HARBOR CITY","CA",90710,33.7957294780001,-118.294551208,53,"1034 W 252ND ST, HARBOR CITY, CA, 90710","Match","Exact","1034 W 252ND ST, HARBOR CITY, CA, 90710",141670013,"L"
10554,"1034 W ANN ARBOR TRAIL","PLYMOUTH","MI",48170,42.370264547,-83.472393803,54,"1034 W ANN ARBOR TRAIL, PLYMOUTH, MI, 48170","Match","Exact","1034 W ANN ARBOR TRL, PLYMOUTH, MI, 48170",95407954,"R"
10555,"1034 WEALTHY ST","GRAND RAPIDS","MI",49506,42.955539824,-85.6431057459999,55,"1034 WEALTHY ST, GRAND RAPIDS, MI, 49506","Match","Non_Exact","1034 WEALTHY ST SE, GRAND RAPIDS, MI, 49506",12461547,"R"
10556,"1034 WEST BIRCHWOOD DRIVE","WASHINGTON","UT",84780,37.147680956,-113.527456901,56,"1034 WEST BIRCHWOOD DRIVE, WASHINGTON, UT, 84780","Match","Exact","1034 W BIRCHWOOD DR, WASHINGTON, UT, 84780",619160283,"R"
10557,"1034 WESTVIEW DR","BOULDER","CO",80303,40.0059782160001,-105.199616759,57,"1034 WESTVIEW DR, BOULDER, CO, 80303","Match","Exact","1034 WESTVIEW DR, BOULDER, CO, 80303",188164433,"R"
10558,"1034 WILLOW WEST DRIVE","HOUSTON","TX",77073,30.00865363,-95.413290767,58,"1034 WILLOW WEST DRIVE, HOUSTON, TX, 77073","Match","Exact","1034 WILLOW WEST DR, HOUSTON, TX, 77073",96226784,"R"
10559,"10340 CHARWOOD CT","RCH CUCAMONGA","CA",91737,34.146108842,-117.579589303,59,"10340 CHARWOOD CT, RCH CUCAMONGA, CA, 91737","Match","Exact","10340 CHARWOOD CT, RANCHO CUCAMONGA, CA, 91737",144693506,"L"
10560,"10340 SCHAEFFER RD","EVANSVILLE","IN",47720,38.074012344,-87.602693674,60,"10340 SCHAEFFER RD, EVANSVILLE, IN, 47720","Match","Exact","10340 SCHAEFFER RD, EVANSVILLE, IN, 47720",39802078,"L"
10561,"10340 TOWNSHIP HIGHWAY 132","NEVADA","OH",44849,40.843857647,-83.1663401169999,61,"10340 TOWNSHIP HIGHWAY 132, NEVADA, OH, 44849","Match","Exact","10340 TWP HWY 132, NEVADA, OH, 44849",13047867,"L"
10562,"103400 OVERSEAS HWY SUITE 211","KEY LARGO","FL",33037,25.135664879,-80.4041600639999,62,"103400 OVERSEAS HWY SUITE 211, KEY LARGO, FL, 33037","Match","Exact","103400 OVERSEAS HWY, KEY LARGO, FL, 33037",647859577,"L"
10563,"103400 OVERSEAS HWY SUITE 237","KEY LARGO","FL",33037,25.135664879,-80.4041600639999,63,"103400 OVERSEAS HWY SUITE 237, KEY LARGO, FL, 33037","Match","Exact","103400 OVERSEAS HWY, KEY LARGO, FL, 33037",647859577,"L"
10564,"10341 BENNETT ROAD","ERIE","PA",16510,42.0688467350001,-79.9125820039999,64,"10341 BENNETT ROAD, ERIE, PA, 16510","Match","Exact","10341 BENNETT RD, ERIE, PA, 16510",623858760,"L"
10565,"10341 CIRCULO DE JUAREZ","FOUNTAIN VALLEY","CA",92708,33.711785407,-117.948124691,65,"10341 CIRCULO DE JUAREZ, FOUNTAIN VALLEY, CA, 92708","Match","Exact","10341 CIR DE JUAREZ, FOUNTAIN VALLEY, CA, 92708",144259092,"L"
10566,"10341 LINN STATION RD","LOUISVILLE","KY",40223,38.224600824,-85.564711449,66,"10341 LINN STATION RD, LOUISVILLE, KY, 40223","Match","Exact","10341 LINN STATION RD, LOUISVILLE, KY, 40223",96864727,"L"
10567,"10342 EAST LAKEVIEW ROAD","POPLAR","WI",54864,46.575460885,-91.7680621549999,67,"10342 EAST LAKEVIEW ROAD, POPLAR, WI, 54864","Match","Exact","10342 E LAKEVIEW RD, POPLAR, WI, 54864",164850253,"L"
10568,"10342 ENCINO AVE","GRANADA HILLS","CA",91344,34.258805484,-118.515422158,68,"10342 ENCINO AVE, GRANADA HILLS, CA, 91344","Match","Exact","10342 ENCINO AVE, GRANADA HILLS, CA, 91344",141542500,"R"
10569,"10342 TULLIS AVENUE","KANSAS CITY","MO",64134,38.935892848,-94.4953269219999,69,"10342 TULLIS AVENUE, KANSAS CITY, MO, 64134","Match","Exact","10342 TULLIS AVE, KANSAS CITY, MO, 64134",91466198,"R"
10570,"10343 BEALLSVILLE STREET","LAS VEGAS","NV",89141,36.0011506640001,-115.219552173,70,"10343 BEALLSVILLE STREET, LAS VEGAS, NV, 89141","Match","Non_Exact","10343 S BEALLSVILLE ST, LAS VEGAS, NV, 89141",641507353,"L"
10571,"10343 LADY GRACE LN","CHARLOTTE","NC",28270,35.069700272,-80.7694923719999,71,"10343 LADY GRACE LN, CHARLOTTE, NC, 28270","Match","Exact","10343 LADY GRACE LN, CHARLOTTE, NC, 28270",70568873,"L"
10572,"10344 BURNED OAK LANE","ESCONDIDO","CA",92026,33.220743483,-117.106983812,72,"10344 BURNED OAK LANE, ESCONDIDO, CA, 92026","Match","Exact","10344 BURNED OAK LN, ESCONDIDO, CA, 92026",195308336,"L"
10573,"10344 EAST VENADO TRAIL","SCOTTSDALE","AZ",85262,33.851124772,-111.860527793,73,"10344 EAST VENADO TRAIL, SCOTTSDALE, AZ, 85262","Match","Exact","10344 E VENADO TRL, SCOTTSDALE, AZ, 85262",128859099,"L"
10574,"10344 ESCONDIDO CANYON ROAD","AGUA DULCE","CA",91390,34.491117838,-118.314687559,74,"10344 ESCONDIDO CANYON ROAD, AGUA DULCE, CA, 91390","Match","Exact","10344 ESCONDIDO CANYON RD, AGUA DULCE, CA, 91390",638620983,"R"
10575,"10344 WHITTIER COURT","WHITE PLAINS","MD",20695,38.611971279,-76.961182208,75,"10344 WHITTIER COURT, WHITE PLAINS, MD, 20695","Match","Exact","10344 WHITTIER CT, WHITE PLAINS, MD, 20695",614118006,"L"
10576,"10345 CREEK RD","OAK VIEW","CA",93022,34.395399577,-119.291989965,76,"10345 CREEK RD, OAK VIEW, CA, 93022","Match","Exact","10345 CREEK RD, OAK VIEW, CA, 93022",635810929,"L"
10577,"10345 DAYLILY STREET","APPLE VALLEY","CA",92308,34.4393995070001,-117.230067855,77,"10345 DAYLILY STREET, APPLE VALLEY, CA, 92308","Match","Exact","10345 DAYLILY ST, APPLE VALLEY, CA, 92308",614825025,"R"
10578,"10345 MICANOPY ST","TRINITY","FL",34655,28.2054446280001,-82.643862151,78,"10345 MICANOPY ST, TRINITY, FL, 34655","Match","Exact","10345 MICANOPY ST, TRINITY, FL, 34655",86400172,"L"
10579,"10345 NATIONS FORD ROAD SUITE C","CHARLOTTE","NC",28217,35.120041589,-80.90354801,79,"10345 NATIONS FORD ROAD SUITE C, CHARLOTTE, NC, 28217","Match","Non_Exact","10345 NATIONS FORD RD, CHARLOTTE, NC, 28273",70571634,"R"
10580,"10345 NATIONS FORD ROAD SUITE C","CHARLOTTE","NC",28273,35.120041589,-80.90354801,80,"10345 NATIONS FORD ROAD SUITE C, CHARLOTTE, NC, 28273","Match","Exact","10345 NATIONS FORD RD, CHARLOTTE, NC, 28273",70571634,"R"
10581,"10345 PIONEER TRAIL","GREENFIELD","MN",55357,45.138668276,-93.66627267,81,"10345 PIONEER TRAIL, GREENFIELD, MN, 55357","Match","Non_Exact","10345 PIONEER TRL, LORETTO, MN, 55357",43851358,"R"
10582,"10346 PLUMERIA CT UNIT 1","RANCHO CUCAMONGA","CA",91730,34.0970206920001,-117.578568713,82,"10346 PLUMERIA CT UNIT 1, RANCHO CUCAMONGA, CA, 91730","Match","Exact","10346 PLUMERIA CT, RANCHO CUCAMONGA, CA, 91730",623995172,"L"
10583,"10346 ZELZAH AVE UNIT 8","NORTHRIDGE","CA",91326,34.2582901650001,-118.523321024,83,"10346 ZELZAH AVE UNIT 8, NORTHRIDGE, CA, 91326","Match","Exact","10346 ZELZAH AVE, NORTHRIDGE, CA, 91326",648147406,"R"
10584,"10347 BATTLE COURT","CHARLOTTE","NC",28215,35.2538122390001,-80.670389948,84,"10347 BATTLE COURT, CHARLOTTE, NC, 28215","Match","Exact","10347 BATTLE CT, CHARLOTTE, NC, 28215",70535590,"R"
10585,"10347 CROSS CREEK BLVD / STE A","TAMPA","FL",33647,28.1445833990001,-82.313364484,85,"10347 CROSS CREEK BLVD / STE A, TAMPA, FL, 33647","Match","Exact","10347 CROSS CREEK BLVD, TAMPA, FL, 33647",646981240,"R"
10586,"10347 S EWING AVENUE","CHICAGO","IL",60617,41.7073093750001,-87.53527403,86,"10347 S EWING AVENUE, CHICAGO, IL, 60617","Match","Exact","10347 S EWING AVE, CHICAGO, IL, 60617",605588047,"L"
10587,"10347 SILVERBERRY STREET","APPLE VALLEY","CA",92308,34.439515484,-117.232164873,87,"10347 SILVERBERRY STREET, APPLE VALLEY, CA, 92308","Match","Exact","10347 SILVERBERRY ST, APPLE VALLEY, CA, 92308",614824774,"L"
10588,"10348 CALIFORNIA AVE","SOUTH GATE","CA",90280,33.939886399,-118.208009428,88,"10348 CALIFORNIA AVE, SOUTH GATE, CA, 90280","Match","Exact","10348 CALIFORNIA AVE, SOUTH GATE, CA, 90280",141677862,"L"
10589,"10348 CHADBOURNE DR","TAMPA","FL",33624,28.0408336290001,-82.528481141,89,"10348 CHADBOURNE DR, TAMPA, FL, 33624","Match","Exact","10348 CHADBOURNE DR, TAMPA, FL, 33624",635544870,"L"
10590,"10348 KIDRON AVENUE UNIT B","ENGLEWOOD","FL",34224,26.9340803870001,-82.278380081,90,"10348 KIDRON AVENUE UNIT B, ENGLEWOOD, FL, 34224","Match","Exact","10348 KIDRON AVE, ENGLEWOOD, FL, 34224",4296923,"L"
10591,"10348 RIVERSIDE DRIVE","TOLUCA LAKE","CA",91602,34.1521266780001,-118.35638572,91,"10348 RIVERSIDE DRIVE, TOLUCA LAKE, CA, 91602","Match","Exact","10348 RIVERSIDE DR, TOLUCA LAKE, CA, 91602",141592198,"L"
10592,"10349 4TH AVE S","BLOOMINGTON","MN",55420,44.81869813,-93.270921384,92,"10349 4TH AVE S, BLOOMINGTON, MN, 55420","Match","Exact","10349 4TH AVE S, BLOOMINGTON, MN, 55420",43596540,"L"
10593,"10349 BLACKMAN RD","KINGSLEY","MI",49649,44.5356812090001,-85.556763674,93,"10349 BLACKMAN RD, KINGSLEY, MI, 49649","Match","Exact","10349 BLACKMAN RD, KINGSLEY, MI, 49649",145523506,"R"
10594,"10349 BUGLENOTE WAY","COLUMBIA","MD",21044,39.196858827,-76.8760522329999,94,"10349 BUGLENOTE WAY, COLUMBIA, MD, 21044","Match","Exact","10349 BUGLENOTE WAY, COLUMBIA, MD, 21044",158924664,"L"
10595,"10349 LETTUCE LEAF ST","LAS VEGAS","NV",89183,36.001915039,-115.15326021,95,"10349 LETTUCE LEAF ST, LAS VEGAS, NV, 89183","Match","Exact","10349 LETTUCE LEAF ST, LAS VEGAS, NV, 89183",201996800,"R"
10596,"10349 S WOOD STREET","CHICAGO","IL",60643,41.705214428,-87.667055042,96,"10349 S WOOD STREET, CHICAGO, IL, 60643","Match","Exact","10349 S WOOD ST, CHICAGO, IL, 60643",111823097,"L"
10597,"1035 11TH RD","LINN","KS",66953,39.7261357850001,-97.18873887,97,"1035 11TH RD, LINN, KS, 66953","Match","Exact","1035 11TH RD, LINN, KS, 66953",11577377,"L"
10598,"1035 16TH AVE NORTH","NASHVILLE","TN",37208,36.1695065700001,-86.802939237,98,"1035 16TH AVE NORTH, NASHVILLE, TN, 37208","Match","Exact","1035 16TH AVE N, NASHVILLE, TN, 37208",606378539,"L"
10599,"1035 1ST AVE WEST","KALISPELL","MT",59901,48.1884064660001,-114.311610578,99,"1035 1ST AVE WEST, KALISPELL, MT, 59901","Match","Exact","1035 1ST AVE W, KALISPELL, MT, 59901",204087636,"R"
10600,"1035 240TH AVE","HAYS","KS",67601,38.8345602160001,-99.337077156,100,"1035 240TH AVE, HAYS, KS, 67601","Match","Exact","1035 240TH AVE, HAYS, KS, 67601",149808433,"L"
10601,"1035 4TH ST NW","ALTOONA","IA",50009,41.6542058380001,-93.4753325349999,101,"1035 4TH ST NW, ALTOONA, IA, 50009","Match","Exact","1035 4TH ST NW, ALTOONA, IA, 50009",65790912,"L"
10602,"1035 53RD STREET","BROOKLYN","NY",11219,40.6360881730001,-73.999897871,102,"1035 53RD STREET, BROOKLYN, NY, 11219","Match","Exact","1035 53RD ST, BROOKLYN, NY, 11219",59097960,"L"
10603,"1035 7TH ST","OAKLAND","CA",94607,NA,NA,103,"1035 7TH ST, OAKLAND, CA, 94607","No_Match",NA,NA,NA,NA
10604,"1035 ARLINGTON AVE N APT 404","ST PETERSBURG","FL",33705,27.7725289410001,-82.648673177,104,"1035 ARLINGTON AVE N APT 404, ST PETERSBURG, FL, 33705","Match","Exact","1035 ARLINGTON AVE N, SAINT PETERSBURG, FL, 33705",124707582,"R"
10605,"1035 BELL AVENUE","YEADON","PA",19050,39.9261774240001,-75.250262586,105,"1035 BELL AVENUE, YEADON, PA, 19050","Match","Exact","1035 BELL AVE, YEADON, PA, 19050",134886779,"L"
10606,"1035 BENFIELD BLVD  SUITE 3","MILLERSVILLE","MD",21108,39.0945333990001,-76.630224298,106,"1035 BENFIELD BLVD  SUITE 3, MILLERSVILLE, MD, 21108","Match","Exact","1035 BENFIELD BLVD, MILLERSVILLE, MD, 21108",606927886,"R"
10607,"1035 BIG TORCH ST","RIVIERA BEACH","FL",33407,26.774369404,-80.10987519,107,"1035 BIG TORCH ST, RIVIERA BEACH, FL, 33407","Match","Exact","1035 BIG TORCH ST, RIVIERA BEACH, FL, 33407",624760959,"L"
10608,"1035 BRENTWOOD WAY APT B","ATLANTA","GA",30350,33.970383155,-84.3498486949999,108,"1035 BRENTWOOD WAY APT B, ATLANTA, GA, 30350","Match","Exact","1035 BRENTWOOD WAY, ATLANTA, GA, 30350",17417648,"R"
10609,"1035 CAMBRIDGE ST","CAMBRIDGE","MA",2141,42.3728615370001,-71.094069097,109,"1035 CAMBRIDGE ST, CAMBRIDGE, MA, 2141","Match","Exact","1035 CAMBRIDGE ST, CAMBRIDGE, MA, 02141",86869561,"R"
10610,"1035 CHAPEL HILL DRIVE","LAWRENCEVILLE","GA",30045,33.9501510380001,-83.928354756,110,"1035 CHAPEL HILL DRIVE, LAWRENCEVILLE, GA, 30045","Match","Exact","1035 CHAPEL HILL, LAWRENCEVILLE, GA, 30045",623984388,"R"
10611,"1035 CR 600 N","TOLONO","IL",61880,39.9667515090001,-88.2661131839999,111,"1035 CR 600 N, TOLONO, IL, 61880","Match","Exact","1035 CO RD 600 N, TOLONO, IL, 61880",8822642,"L"
10612,"1035 E 153RD STREET","SOUTH HOLLAND","IL",60473,41.617583532,-87.592582812,112,"1035 E 153RD STREET, SOUTH HOLLAND, IL, 60473","Match","Exact","1035 E 153RD ST, SOUTH HOLLAND, IL, 60473",111780052,"R"
10613,"1035 E JAMES STREET","WHITE CLOUD","MI",49349,43.5478192320001,-85.775927328,113,"1035 E JAMES STREET, WHITE CLOUD, MI, 49349","Match","Exact","1035 E JAMES ST, WHITE CLOUD, MI, 49349",642599767,"R"
10614,"1035 EAST ANNIE","FORT WORTH","TX",76104,32.7387095220001,-97.315118419,114,"1035 EAST ANNIE, FORT WORTH, TX, 76104","Match","Non_Exact","1035 E ANNIE ST, FORT WORTH, TX, 76104",101890349,"L"
10615,"1035 ESTATES VILLAGE LANE","RICHMOND","VA",23226,37.595714753,-77.5188059819999,115,"1035 ESTATES VILLAGE LANE, RICHMOND, VA, 23226","Match","Exact","1035 ESTATES VILLAGE LN, RICHMOND, VA, 23226",106662589,"L"
10616,"1035 EXECUTIVE PARK AVE","BATON ROUGE","LA",70806,30.4592081070001,-91.1251909709999,116,"1035 EXECUTIVE PARK AVE, BATON ROUGE, LA, 70806","Match","Exact","1035 EXECUTIVE PARK AVE, BATON ROUGE, LA, 70806",92189101,"L"
10617,"1035 FAIRLAWN AVE","VIRGINIA BEACH","VA",23455,36.8755916210001,-76.186249811,117,"1035 FAIRLAWN AVE, VIRGINIA BEACH, VA, 23455","Match","Exact","1035 FAIRLAWN AVE, VIRGINIA BCH, VA, 23455",636652647,"L"
10618,"1035 FRANKLIN GATEWAY","MARIETTA","GA",30067,NA,NA,118,"1035 FRANKLIN GATEWAY, MARIETTA, GA, 30067","No_Match",NA,NA,NA,NA
10619,"1035 HARBOR AVE 13062","MEMPHIS","TN",38113,35.108288728,-90.089654963,119,"1035 HARBOR AVE 13062, MEMPHIS, TN, 38113","Match","Exact","1035 HARBOR AVE, MEMPHIS, TN, 38113",607438961,"L"
10620,"1035 HEATHER GLEN DRIVE","MATTHEWS","NC",28104,35.011389691,-80.681439202,120,"1035 HEATHER GLEN DRIVE, MATTHEWS, NC, 28104","Match","Exact","1035 HEATHER GLEN DR, MATTHEWS, NC, 28104",14192054,"L"
10621,"1035 HUNTERS CREEK DRIVE","DESOTO","TX",75115,32.601960994,-96.833107962,121,"1035 HUNTERS CREEK DRIVE, DESOTO, TX, 75115","Match","Exact","1035 HUNTERS CREEK DR, DESOTO, TX, 75115",102954255,"L"
10622,"1035 HUTTON ST","WINSTON SALEM","NC",27103,36.0770205540001,-80.255455597,122,"1035 HUTTON ST, WINSTON SALEM, NC, 27103","Match","Exact","1035 HUTTON ST, WINSTON SALEM, NC, 27103",652164686,"L"
10623,"1035 IRWIN AVE","FRESNO","CA",93612,36.7220910630001,-119.807614863,123,"1035 IRWIN AVE, FRESNO, CA, 93612","Match","Non_Exact","1035 IRWIN AVE, FRESNO, CA, 93706",197579501,"L"
10624,"1035 LARKENS WAY","MEDINA","OH",44256,41.1546610300001,-81.854750779,124,"1035 LARKENS WAY, MEDINA, OH, 44256","Match","Exact","1035 LARKENS WAY, MEDINA, OH, 44256",642867349,"L"
10625,"1035 MCCLARDY RD","CLARKSVILLE","TN",37042,36.5859104570001,-87.3838022739999,125,"1035 MCCLARDY RD, CLARKSVILLE, TN, 37042","Match","Exact","1035 MCCLARDY RD, CLARKSVILLE, TN, 37042",31830740,"L"
10626,"1035 MUMMA ROAD SUITE 103","WORMLEYSBURG","PA",17403,40.254917612,-76.913611873,126,"1035 MUMMA ROAD SUITE 103, WORMLEYSBURG, PA, 17403","Match","Non_Exact","1035 MUMMA RD, WORMLEYSBURG, PA, 17043",221255985,"R"
10627,"1035 N BROADWAY AVE","SPRINGFIELD","MO",65802,37.21932014,-93.302940332,127,"1035 N BROADWAY AVE, SPRINGFIELD, MO, 65802","Match","Exact","1035 N BROADWAY AVE, SPRINGFIELD, MO, 65802",76674590,"L"
10628,"1035 N GARDNER STREET","WEST HOLLYWOOD","CA",90046,34.089309675,-118.353235734,128,"1035 N GARDNER STREET, WEST HOLLYWOOD, CA, 90046","Match","Exact","1035 N GARDNER ST, W HOLLYWOOD, CA, 90046",142728499,"L"
10629,"1035 N MARION ST UNIT 4","DENVER","CO",80218,39.732680546,-104.971812855,129,"1035 N MARION ST UNIT 4, DENVER, CO, 80218","Match","Exact","1035 MARION ST, DENVER, CO, 80218",177306130,"L"
10630,"1035 N UNION ROAD","MANTECA","CA",95336,37.8080405950001,-121.235183875,130,"1035 N UNION ROAD, MANTECA, CA, 95336","Match","Exact","1035 UNION RD, MANTECA, CA, 95336",133931400,"R"
10631,"1035 NEW CUT RD","LEXINGTON","NC",27292,35.7676700480001,-80.125865887,131,"1035 NEW CUT RD, LEXINGTON, NC, 27292","Match","Exact","1035 NEW CUT RD, LEXINGTON, NC, 27292",604798999,"R"
10632,"1035 OAKRIDGE DRIVE","LANESVILLE","IN",47136,38.2635719530001,-85.948125935,132,"1035 OAKRIDGE DRIVE, LANESVILLE, IN, 47136","Match","Exact","1035 OAKRIDGE DR, LANESVILLE, IN, 47136",89545773,"L"
10633,"1035 PEARL ST SUITE 206","BOULDER","CO",80302,40.0174596360001,-105.282117993,133,"1035 PEARL ST SUITE 206, BOULDER, CO, 80302","Match","Exact","1035 PEARL ST, BOULDER, CO, 80302",188159508,"L"
10634,"1035 PEARL STREET 422","BOULDER","CO",80302,40.0174596360001,-105.282117993,134,"1035 PEARL STREET 422, BOULDER, CO, 80302","Match","Exact","1035 PEARL ST, BOULDER, CO, 80302",188159508,"L"
10635,"1035 PEARL STREET SUITE 406A","BOULDER","CO",80302,40.0174596360001,-105.282117993,135,"1035 PEARL STREET SUITE 406A, BOULDER, CO, 80302","Match","Exact","1035 PEARL ST, BOULDER, CO, 80302",188159508,"L"
10636,"1035 PEMBROKE STREET","BRIDGEPORT","CT",6608,41.188494705,-73.1777021779999,136,"1035 PEMBROKE STREET, BRIDGEPORT, CT, 6608","Match","Exact","1035 PEMBROKE ST, BRIDGEPORT, CT, 06608",3225239,"L"
10637,"1035 PROUTY WAY","SAN JOSE","CA",95129,37.308186537,-122.002760063,137,"1035 PROUTY WAY, SAN JOSE, CA, 95129","Match","Exact","1035 PROUTY WAY, SAN JOSE, CA, 95129",122942124,"R"
10638,"1035 RILEY RIDGE","EDMOND","OK",73025,35.732884943,-97.497628392,138,"1035 RILEY RIDGE, EDMOND, OK, 73025","Match","Exact","1035 RILEY RIDGE, EDMOND, OK, 73025",646751717,"R"
10639,"1035 ROCHOW ST APT 1454","HOUSTON","TX",77019,29.756881998,-95.4002668259999,139,"1035 ROCHOW ST APT 1454, HOUSTON, TX, 77019","Match","Exact","1035 ROCHOW ST, HOUSTON, TX, 77019",644891557,"L"
10640,"1035 ROSEHILL DRIVE","BOULDER","CO",80302,40.006458842,-105.285531091,140,"1035 ROSEHILL DRIVE, BOULDER, CO, 80302","Match","Exact","1035 ROSEHILL DR, BOULDER, CO, 80302",220749640,"L"
10641,"1035 S  PRAIRIE AVE STE  4","INGLEWOOD","CA",90301,33.950333664,-118.343915521,141,"1035 S  PRAIRIE AVE STE  4, INGLEWOOD, CA, 90301","Match","Non_Exact","1035 S PRAIRIE AVE, INGLEWOOD, CA, 90301",241242550,"R"
10642,"1035 S 4TH STREET","LOUIVILLE","KY",40203,38.2383658470001,-85.759723746,142,"1035 S 4TH STREET, LOUIVILLE, KY, 40203","Match","Non_Exact","1035 S 4TH ST, LOUISVILLE, KY, 40203",96845750,"L"
10643,"1035 S SEMORAN BLVD  2-1047","WINTER PARK","FL",32792,28.58177699,-81.307325103,143,"1035 S SEMORAN BLVD  2-1047, WINTER PARK, FL, 32792","Match","Non_Exact","1035 S SEMORAN BLVD, WINTER PARK, FL, 32792",650066360,"L"
10644,"1035 S SEMORAN BLVD 1047","WINTER PARK","FL",32792,28.58177699,-81.307325103,144,"1035 S SEMORAN BLVD 1047, WINTER PARK, FL, 32792","Match","Non_Exact","1035 S SEMORAN BLVD, WINTER PARK, FL, 32792",650066360,"L"
10645,"1035 SCALES ROAD 7403","SUWANEE","GA",30024,34.0429120800001,-84.084398387,145,"1035 SCALES ROAD 7403, SUWANEE, GA, 30024","Match","Exact","1035 SCALES RD, SUWANEE, GA, 30024",642535969,"R"
10646,"1035 SEMINOLE SKY DR","RUSKIN","FL",33570,27.730551883,-82.450885886,146,"1035 SEMINOLE SKY DR, RUSKIN, FL, 33570","Match","Exact","1035 SEMINOLE SKY DR, RUSKIN, FL, 33570",633886827,"R"
10647,"1035 SOUTH ALKIRE STREET","LAKEWOOD","CO",80228,39.69704642,-105.147688701,147,"1035 SOUTH ALKIRE STREET, LAKEWOOD, CO, 80228","Match","Exact","1035 S ALKIRE ST, LAKEWOOD, CO, 80228",177316872,"R"
10648,"1035 SOUTH CRESCENT HEIGHTS BLVD","LOS ANGELES","CA",90035,34.0577330580001,-118.369688741,148,"1035 SOUTH CRESCENT HEIGHTS BLVD, LOS ANGELES, CA, 90035","Match","Exact","1035 S CRESCENT HEIGHTS BLVD, LOS ANGELES, CA, 90035",652036144,"R"
10649,"1035 SW 12TH ST","MIAMI","FL",33135,NA,NA,149,"1035 SW 12TH ST, MIAMI, FL, 33135","No_Match",NA,NA,NA,NA
10650,"1035 TIMBERLINE PL","ALPHARETTA","GA",30005,34.063806023,-84.228778506,150,"1035 TIMBERLINE PL, ALPHARETTA, GA, 30005","Match","Exact","1035 TIMBERLINE PL, ALPHARETTA, GA, 30005",17377811,"R"
10651,"1035 TUSCALOOSA AVENUE","GADSDEN","AL",35901,34.0245998500001,-86.014812752,151,"1035 TUSCALOOSA AVENUE, GADSDEN, AL, 35901","Match","Exact","1035 TUSCALOOSA AVE, GADSDEN, AL, 35901",66771144,"R"
10652,"1035 U STREET","FRESNO","CA",93721,36.742252895,-119.779245005,152,"1035 U STREET, FRESNO, CA, 93721","Match","Exact","1035 U ST, FRESNO, CA, 93721",197580279,"L"
10653,"1035 UNIVERSITY DRIVE ROOM SMED145","DULUTH","MN",55812,46.8183008660001,-92.081562008,153,"1035 UNIVERSITY DRIVE ROOM SMED145, DULUTH, MN, 55812","Match","Exact","1035 UNIVERSITY DR, DULUTH, MN, 55812",163257708,"L"
10654,"1035 UNIVERSITY STREET","MEMPHIS","TN",38107,35.16536898,-89.990862638,154,"1035 UNIVERSITY STREET, MEMPHIS, TN, 38107","Match","Exact","1035 UNIVERSITY ST, MEMPHIS, TN, 38107",607414861,"L"
10655,"1035 W ROUNDBUNCH","BRIDGE CITY","TX",77611,30.035119423,-93.85277962,155,"1035 W ROUNDBUNCH, BRIDGE CITY, TX, 77611","Match","Non_Exact","1035 W ROUND BUNCH RD, BRIDGE CITY, TX, 77611",642978445,"R"
10656,"1035 WASHINGTON AVENUE APT GR4","BROOKLYN","NY",11225,40.6642644200001,-73.961139117,156,"1035 WASHINGTON AVENUE APT GR4, BROOKLYN, NY, 11225","Match","Exact","1035 WASHINGTON AVE, BROOKLYN, NY, 11225",59078514,"R"
10657,"1035 WASHINGTON AVENUE GR4","BROOKLYN","NY",11225,40.6642644200001,-73.961139117,157,"1035 WASHINGTON AVENUE GR4, BROOKLYN, NY, 11225","Match","Exact","1035 WASHINGTON AVE, BROOKLYN, NY, 11225",59078514,"R"
10658,"1035 WEST 61ST STREET","CHICAGO","IL",60636,41.7832922490001,-87.6511058569999,158,"1035 WEST 61ST STREET, CHICAGO, IL, 60636","Match","Non_Exact","1035 W 61ST ST, CHICAGO, IL, 60621",111829970,"L"
10659,"1035 WEST AVENUE I","LANCASTER","CA",93534,34.703970656,-118.148586926,159,"1035 WEST AVENUE I, LANCASTER, CA, 93534","Match","Exact","1035 W AVE I, LANCASTER, CA, 93534",141525942,"L"
10660,"1035 WILLIAM ST","BUFFALO","NY",14206,42.884930723,-78.8336917359999,160,"1035 WILLIAM ST, BUFFALO, NY, 14206","Match","Exact","1035 WILLIAM ST, BUFFALO, NY, 14206",48300758,"R"
10661,"1035 WILLOW GLEN WAY","SAN JOSE","CA",95125,37.301150003,-121.892897098,161,"1035 WILLOW GLEN WAY, SAN JOSE, CA, 95125","Match","Exact","1035 WILLOW GLEN WAY, SAN JOSE, CA, 95125",122909811,"R"
10662,"1035","MANTENO","IL",60950,NA,NA,162,"1035, MANTENO, IL, 60950","No_Match",NA,NA,NA,NA
10663,"1035","TUCSON","AZ",85719,NA,NA,163,"1035, TUCSON, AZ, 85719","No_Match",NA,NA,NA,NA
10664,"10350 DEARLOVE ROAD STE E","GLENVIEW","IL",60025,42.066126948,-87.8620057319999,164,"10350 DEARLOVE ROAD STE E, GLENVIEW, IL, 60025","Match","Exact","10350 DEARLOVE RD, GLENVIEW, IL, 60025",645570657,"L"
10665,"10350 EAGLE LAKE DRIVE","ESCONDIDO","CA",92029,33.089093178,-117.104192518,165,"10350 EAGLE LAKE DRIVE, ESCONDIDO, CA, 92029","Match","Exact","10350 EAGLE LAKE DR, ESCONDIDO, CA, 92029",195312079,"L"
10666,"10350 LANDS END DR 1703","HOUSTON","TX",77099,29.6635478860001,-95.576104333,166,"10350 LANDS END DR 1703, HOUSTON, TX, 77099","Match","Exact","10350 LANDS END DR, HOUSTON, TX, 77099",96597876,"L"
10667,"10350 N VANCOUVER WAY 345","PORTLAND","OR",97217,45.5967780130001,-122.669755695,167,"10350 N VANCOUVER WAY 345, PORTLAND, OR, 97217","Match","Non_Exact","10350 N VANCOUVER WAY, PORTLAND, OR, 97217",157597759,"R"
10668,"10350 ORMSBY PARK PLACE SUITE 200","LOUISVILLE","KY",40223,38.2639773940001,-85.567300052,168,"10350 ORMSBY PARK PLACE SUITE 200, LOUISVILLE, KY, 40223","Match","Exact","10350 ORMSBY PARK PL, LOUISVILLE, KY, 40223",96937204,"R"
10669,"10350 SIERRA VISTA AVE","LA MESA","CA",91941,32.7762156430001,-116.976644515,169,"10350 SIERRA VISTA AVE, LA MESA, CA, 91941","Match","Exact","10350 SIERRA VISTA AVE, LA MESA, CA, 91941",195718351,"L"
10670,"10350 UNION GROVE ROAD","GLADEWATER","TX",75647,32.5810025270001,-94.920475456,170,"10350 UNION GROVE ROAD, GLADEWATER, TX, 75647","Match","Exact","10350 UNION GROVE RD, GLADEWATER, TX, 75647",147606631,"R"
10671,"10350 WHIP O WILL WAY","HELOTES","TX",78023,29.5912048980001,-98.6962604079999,171,"10350 WHIP O WILL WAY, HELOTES, TX, 78023","Match","Exact","10350 WHIP O WILL WAY, HELOTES, TX, 78023",651708103,"R"
10672,"10351 E 12 3/4 ROAD","MANTON","MI",49663,44.4287253570001,-85.3716947839999,172,"10351 E 12 3/4 ROAD, MANTON, MI, 49663","Match","Exact","10351 E 12 3/4 RD, MANTON, MI, 49663",146093098,"R"
10673,"10351 S SASABE","TUCSON","AZ",85736,32.059584855,-111.322092244,173,"10351 S SASABE, TUCSON, AZ, 85736","Match","Non_Exact","10351 S SASABE RD, TUCSON, AZ, 85736",121151432,"L"
10674,"10351 SW WHOOPING CRANE WAY","PALM CITY","FL",34990,27.187427213,-80.394318598,174,"10351 SW WHOOPING CRANE WAY, PALM CITY, FL, 34990","Match","Exact","10351 SW WHOOPING CRANE WAY, PALM CITY, FL, 34990",120424680,"R"
10675,"10351 SYCAMORE ST NW","COON RAPIDS","MN",55433,45.1576058900001,-93.2914873079999,175,"10351 SYCAMORE ST NW, COON RAPIDS, MN, 55433","Match","Exact","10351 SYCAMORE ST NW, COON RAPIDS, MN, 55433",97494567,"L"
10676,"10352 CORBEIL DRIVE","SAINT LOUIS","MO",63146,38.6783989460001,-90.405623844,176,"10352 CORBEIL DRIVE, SAINT LOUIS, MO, 63146","Match","Exact","10352 CORBEIL DR, SAINT LOUIS, MO, 63146",100130292,"L"
10677,"10353 CROSS CREEK BLVD SUITE F","TAMPA","FL",33647,28.1446639800001,-82.313251795,177,"10353 CROSS CREEK BLVD SUITE F, TAMPA, FL, 33647","Match","Exact","10353 CROSS CREEK BLVD, TAMPA, FL, 33647",646981240,"R"
10678,"10353 E STAR OF THE DESERT DR","SCOTTSDALE","AZ",85255,33.6315894360001,-111.858202618,178,"10353 E STAR OF THE DESERT DR, SCOTTSDALE, AZ, 85255","Match","Exact","10353 E STAR OF THE DESERT DR, SCOTTSDALE, AZ, 85255",128603110,"R"
10679,"10353 ORCHARD TRAIL N","BROOKLYN PARK","MN",55443,45.142157614,-93.342446378,179,"10353 ORCHARD TRAIL N, BROOKLYN PARK, MN, 55443","Match","Non_Exact","10353 ORCHARD TRL, BROOKLYN PARK, MN, 55443",641220521,"L"
10680,"10354 LEDBETTER ROAD","ASHLAND","VA",23005,37.692038467,-77.440776297,180,"10354 LEDBETTER ROAD, ASHLAND, VA, 23005","Match","Non_Exact","10354 LEADBETTER RD, ASHLAND, VA, 23005",640851846,"L"
10681,"10354 S RHODES","CHICAGO","IL",60628,41.7061043250001,-87.610081038,181,"10354 S RHODES, CHICAGO, IL, 60628","Match","Non_Exact","10354 S RHODES AVE, CHICAGO, IL, 60628",111773593,"R"
10682,"10354 SHASTA BLVD","LOS MOLINOS","CA",96055,40.094580846,-122.091090304,182,"10354 SHASTA BLVD, LOS MOLINOS, CA, 96055","Match","Exact","10354 SHASTA BLVD, LOS MOLINOS, CA, 96055",119402354,"R"
10683,"10355 BURGUNDY WAY","SEBASTOPOL","CA",95472,38.400431907,-122.883297966,183,"10355 BURGUNDY WAY, SEBASTOPOL, CA, 95472","Match","Exact","10355 BURGUNDY WAY, SEBASTOPOL, CA, 95472",67520859,"L"
10684,"10355 DAWSON CREEK BLVD SUITE F","FT WAYNE","IN",46825,41.17684977,-85.144007324,184,"10355 DAWSON CREEK BLVD SUITE F, FT WAYNE, IN, 46825","Match","Non_Exact","10355 DAWSONS CREEK BLVD, FORT WAYNE, IN, 46825",6410494,"R"
10685,"10355 S MILLS AVE UNIT 218","MONTCLAIR","CA",91763,34.0662630910001,-117.716941068,185,"10355 S MILLS AVE UNIT 218, MONTCLAIR, CA, 91763","Match","Exact","10355 MILLS AVE, MONTCLAIR, CA, 91763",647989521,"R"
10686,"10355 TONITA WAY","CUPERTINO","CA",95014,37.317862588,-122.036638784,186,"10355 TONITA WAY, CUPERTINO, CA, 95014","Match","Exact","10355 TONITA WAY, CUPERTINO, CA, 95014",122939886,"R"
10687,"10355 VALLEY RD NE PO BOX 4488","ROLLINGBAY","WA",98061,NA,NA,187,"10355 VALLEY RD NE PO BOX 4488, ROLLINGBAY, WA, 98061","No_Match",NA,NA,NA,NA
10688,"10355 WHITECROWN CIRCLE","CORONA","CA",92883,33.766307677,-117.479326437,188,"10355 WHITECROWN CIRCLE, CORONA, CA, 92883","Match","Exact","10355 WHITECROWN CIR, CORONA, CA, 92883",608996028,"R"
10689,"10356 KETTERING LANE","PARKER","CO",80134,39.5291182300001,-104.800891539,189,"10356 KETTERING LANE, PARKER, CO, 80134","Match","Exact","10356 KETTERING LN, PARKER, CO, 80134",130822582,"L"
10690,"10357 MENLO OAKS COURT","ELK GROVE","CA",95624,38.4239862480001,-121.304653813,190,"10357 MENLO OAKS COURT, ELK GROVE, CA, 95624","Match","Exact","10357 MENLO OAKS CT, ELK GROVE, CA, 95624",133355604,"L"
10691,"10357 OLD HAMMOND HWY","BATON ROUGE","LA",70816,30.433206442,-91.071424689,191,"10357 OLD HAMMOND HWY, BATON ROUGE, LA, 70816","Match","Exact","10357 OLD HAMMOND HWY, BATON ROUGE, LA, 70816",92195792,"L"
10692,"10358 ORCHARD TRAIL N","BROOKLYN PARK MN 554","MN",55443,45.1423707050001,-93.342372847,192,"10358 ORCHARD TRAIL N, BROOKLYN PARK MN 554, MN, 55443","Match","Non_Exact","10358 ORCHARD TRL, BROOKLYN CENTER, MN, 55443",641220521,"R"
10693,"10358 W HASKELL CT","WICHITA","KS",67209,37.653477046,-97.461255388,193,"10358 W HASKELL CT, WICHITA, KS, 67209","Match","Exact","10358 HASKELL CT, WICHITA, KS, 67209",115673690,"R"
10694,"10359 S THICKET PLACE","HEREFORD","AZ",85615,31.380622499,-110.228305428,194,"10359 S THICKET PLACE, HEREFORD, AZ, 85615","Match","Exact","10359 S THICKET PL, HEREFORD, AZ, 85615",120953771,"L"
10695,"10359 W ORCHIDS","PEORIA","AZ",85382,NA,NA,195,"10359 W ORCHIDS, PEORIA, AZ, 85382","No_Match",NA,NA,NA,NA
10696,"1035D SOUTH POST OAK SUITE 111","HOUSTON","TX",77035,NA,NA,196,"1035D SOUTH POST OAK SUITE 111, HOUSTON, TX, 77035","No_Match",NA,NA,NA,NA
10697,"1036 ARBOLADO RD","SANTA BARBARA","CA",93103,34.437961853,-119.689515328,197,"1036 ARBOLADO RD, SANTA BARBARA, CA, 93103","Match","Exact","1036 ARBOLADO RD, SANTA BARBARA, CA, 93103",108616211,"R"
10698,"1036 ARCARO DRIVE","GAHANNA","OH",43235,40.045126226,-82.855903301,198,"1036 ARCARO DRIVE, GAHANNA, OH, 43235","Match","Non_Exact","1036 ARCARO DR, GAHANNA, OH, 43230",218657611,"L"
10699,"1036 BOWEN LN","QUINCY","MI",49082,41.9682391860001,-84.876581543,199,"1036 BOWEN LN, QUINCY, MI, 49082","Match","Exact","1036 BOWEN LN, QUINCY, MI, 49082",648119284,"L"
10700,"1036 BRADFORD PARK RD","MT JULIET","TN",37122,36.160020359,-86.504411577,200,"1036 BRADFORD PARK RD, MT JULIET, TN, 37122","Match","Non_Exact","1036 BRADFORD PARK DR, MOUNT JULIET, TN, 37122",627659038,"L"
10701,"1036 CAMPBELL MEADOW ROAD","OWINGS MILLS","MD",21117,39.4089036730001,-76.808246772,201,"1036 CAMPBELL MEADOW ROAD, OWINGS MILLS, MD, 21117","Match","Exact","1036 CAMPBELL MEADOW RD, OWINGS MILLS, MD, 21117",635887155,"L"
10702,"1036 CEDAR FOREST DR","CONROE","TX",77384,30.2429265160001,-95.488878327,202,"1036 CEDAR FOREST DR, CONROE, TX, 77384","Match","Exact","1036 CEDAR FOREST DR, CONROE, TX, 77384",641129971,"L"
10703,"1036 COUNTY STREET 2945","TUTTLE","OK",73089,35.2425274460001,-97.750408049,203,"1036 COUNTY STREET 2945, TUTTLE, OK, 73089","Match","Exact","1036 COUNTY STREET 2945, TUTTLE, OK, 73089",15249222,"L"
10704,"1036 DUNN AVE SUITE 4 PMB 244","JACKSONVILLE","FL",32218,NA,NA,204,"1036 DUNN AVE SUITE 4 PMB 244, JACKSONVILLE, FL, 32218","No_Match",NA,NA,NA,NA
10705,"1036 E ADELAIDE DR","TUCSON","AZ",85719,32.2594389970001,-110.955957231,205,"1036 E ADELAIDE DR, TUCSON, AZ, 85719","Match","Exact","1036 E ADELAIDE DR, TUCSON, AZ, 85719",121167404,"R"
10706,"1036 E IRON EAGLE  STE 130","EAGLE","ID",83616,NA,NA,206,"1036 E IRON EAGLE  STE 130, EAGLE, ID, 83616","No_Match",NA,NA,NA,NA
10707,"1036 EAST MAPLE STREET","SPOONER","WI",54801,45.8218434840001,-91.879411175,207,"1036 EAST MAPLE STREET, SPOONER, WI, 54801","Match","Exact","1036 E MAPLE ST, SPOONER, WI, 54801",196360280,"R"
10708,"1036 EAST SEDGWICK STREET","PHILADELPHIA","PA",19150,40.069149968,-75.175543349,208,"1036 EAST SEDGWICK STREET, PHILADELPHIA, PA, 19150","Match","Exact","1036 E SEDGWICK ST, PHILADELPHIA, PA, 19150",131394862,"R"
10709,"1036 ECKENRODE WAY","PLACENTIA","CA",92870,33.8801474160001,-117.849234283,209,"1036 ECKENRODE WAY, PLACENTIA, CA, 92870","Match","Exact","1036 ECKENRODE WAY, PLACENTIA, CA, 92870",144091044,"R"
10710,"1036 FISH CREEK RD","WHEATLAND","WY",82201,42.2618305,-105.241418677,210,"1036 FISH CREEK RD, WHEATLAND, WY, 82201","Match","Exact","1036 FISH CREEK RD, WHEATLAND, WY, 82201",624032521,"L"
10711,"1036 HEARTH LN SW","CONCORD","NC",28025,35.344529509,-80.594061493,211,"1036 HEARTH LN SW, CONCORD, NC, 28025","Match","Exact","1036 HEARTH LN SW, CONCORD, NC, 28025",635646524,"R"
10712,"1036 HEATHER HEATH","HOWELL","MI",48843,42.606590833,-83.944267676,212,"1036 HEATHER HEATH, HOWELL, MI, 48843","Match","Non_Exact","1036 HEATHER HEATH DR, HOWELL, MI, 48843",23562510,"R"
10713,"1036 HEZEKIAH ROAD","EASTOVER","SC",29044,33.9454975520001,-80.6658571419999,213,"1036 HEZEKIAH ROAD, EASTOVER, SC, 29044","Match","Exact","1036 HEZEKIAH RD, EASTOVER, SC, 29044",604776775,"R"
10714,"1036 HIGH AVE","SHEBOYGAN","WI",53081,43.734725757,-87.716929358,214,"1036 HIGH AVE, SHEBOYGAN, WI, 53081","Match","Exact","1036 HIGH AVE, SHEBOYGAN, WI, 53081",79497648,"R"
10715,"1036 KADEL DRIVE","GENESEO","IL",61254,41.467459326,-90.140386834,215,"1036 KADEL DRIVE, GENESEO, IL, 61254","Match","Non_Exact","1036 KADEL CT, GENESEO, IL, 61254",8925083,"L"
10716,"1036 KERN ST","WATERLOO","IA",50703,42.5149936660001,-92.358311428,216,"1036 KERN ST, WATERLOO, IA, 50703","Match","Exact","1036 KERN ST, WATERLOO, IA, 50703",77251912,"R"
10717,"1036 KIPLING ROAD","CHARLESTON","SC",29407,32.7884841910001,-79.99498253,217,"1036 KIPLING ROAD, CHARLESTON, SC, 29407","Match","Exact","1036 KIPLING RD, CHARLESTON, SC, 29407",108803835,"R"
10718,"1036 LAFFERTY LANE","DOVER","DE",19901,39.14049593,-75.4957715739999,218,"1036 LAFFERTY LANE, DOVER, DE, 19901","Match","Exact","1036 LAFFERTY LN, DOVER, DE, 19901",68107804,"R"
10719,"1036 LIBERTY PARK DR UNIT 4B","AUSTIN","TX",78746,30.2659789150001,-97.7888083079999,219,"1036 LIBERTY PARK DR UNIT 4B, AUSTIN, TX, 78746","Match","Exact","1036 LIBERTY PARK DR, AUSTIN, TX, 78746",63977621,"L"
10720,"1036 LONESTONE CT SE","CHATFIELD","MN",55923,NA,NA,220,"1036 LONESTONE CT SE, CHATFIELD, MN, 55923","No_Match",NA,NA,NA,NA
10721,"1036 MAYSON TURNER RD NW","ATLANTA","GA",30314,33.7615463270001,-84.420395991,221,"1036 MAYSON TURNER RD NW, ATLANTA, GA, 30314","Match","Exact","1036 MAYSON TURNER RD NW, ATLANTA, GA, 30314",17342428,"L"
10722,"1036 MITSY HOLLOW DR NE","MARIETTA","GA",30068,33.9761751120001,-84.459448854,222,"1036 MITSY HOLLOW DR NE, MARIETTA, GA, 30068","Match","Exact","1036 MITSY HOLLOW DR NE, MARIETTA, GA, 30068",17182664,"R"
10723,"1036 MLK DR","WINNSBORO","LA",71295,32.147631801,-91.719084004,223,"1036 MLK DR, WINNSBORO, LA, 71295","Match","Exact","1036 MARTIN LUTHER KING DR, WINNSBORO, LA, 71295",636868121,"R"
10724,"1036 N MONTEZUMA CASTLE HWY","CAMP VERDE","AZ",86322,NA,NA,224,"1036 N MONTEZUMA CASTLE HWY, CAMP VERDE, AZ, 86322","Tie",NA,NA,NA,NA
10725,"1036 N PINE HILLS RD","ORLANDO","FL",32808,28.559565005,-81.449528624,225,"1036 N PINE HILLS RD, ORLANDO, FL, 32808","Match","Exact","1036 N PINE HILLS RD, ORLANDO, FL, 32808",94330941,"L"
10726,"1036 N RD 1 WEST","CHINO VALLEY","AZ",86323,34.7613775660001,-112.465172338,226,"1036 N RD 1 WEST, CHINO VALLEY, AZ, 86323","Match","Exact","1036 N RD 1 W, CHINO VALLEY, AZ, 86323",635507769,"L"
10727,"1036 NW FIRST CT","HALLANDALE BEACH","FL",33009,25.986677577,-80.1621736989999,227,"1036 NW FIRST CT, HALLANDALE BEACH, FL, 33009","Match","Exact","1036 NW 1ST CT, HALLANDALE BEACH, FL, 33009",114735939,"R"
10728,"1036 NW PROSPECT","GRANTS PASS","OR",97526,42.44888759,-123.330093623,228,"1036 NW PROSPECT, GRANTS PASS, OR, 97526","Match","Non_Exact","1036 NW PROSPECT AVE, GRANTS PASS, OR, 97526",156584091,"L"
10729,"1036 PACIFIC BEACH DRIVE","SAN DIEGO","CA",92109,32.7919384190001,-117.249260416,229,"1036 PACIFIC BEACH DRIVE, SAN DIEGO, CA, 92109","Match","Exact","1036 PACIFIC BEACH DR, SAN DIEGO, CA, 92109",195303336,"L"
10730,"1036 PENINSULA STREET","VENTURA","CA",93001,34.2607983280001,-119.267144516,230,"1036 PENINSULA STREET, VENTURA, CA, 93001","Match","Exact","1036 PENINSULA ST, VENTURA, CA, 93001",109951912,"L"
10731,"1036 PURDUE DR","LONGMONT","CO",80503,40.1771373930001,-105.137302358,231,"1036 PURDUE DR, LONGMONT, CO, 80503","Match","Exact","1036 PURDUE DR, LONGMONT, CO, 80503",188154943,"R"
10732,"1036 RANDOLPH STREET","HOUSTON","TX",77088,29.878192691,-95.427092024,232,"1036 RANDOLPH STREET, HOUSTON, TX, 77088","Match","Exact","1036 RANDOLPH ST, HOUSTON, TX, 77088",96052504,"R"
10733,"1036 RIDGETOP DR","JUSTIN","TX",76247,33.0978085130001,-97.306067962,233,"1036 RIDGETOP DR, JUSTIN, TX, 76247","Match","Exact","1036 RIDGETOP DR, JUSTIN, TX, 76247",103388787,"R"
10734,"1036 S 4TH AVENUE","TUCSON","AZ",85701,32.208935905,-110.965427377,234,"1036 S 4TH AVENUE, TUCSON, AZ, 85701","Match","Exact","1036 S 4TH AVE, TUCSON, AZ, 85701",121171210,"R"
10735,"1036 S CLARK BLVD","CLARKSVILLE","IN",47129,38.277145143,-85.757200326,235,"1036 S CLARK BLVD, CLARKSVILLE, IN, 47129","Match","Exact","1036 S CLARK BLVD, CLARKSVILLE, IN, 47129",64919103,"L"
10736,"1036 STRAWBERRY","ELLENWOOD","GA",30294,NA,NA,236,"1036 STRAWBERRY, ELLENWOOD, GA, 30294","Tie",NA,NA,NA,NA
10737,"1036 THICKET WYND","VIRGINIA BEACH","VA",23155,36.878298188,-76.180133712,237,"1036 THICKET WYND, VIRGINIA BEACH, VA, 23155","Match","Non_Exact","1036 THICKET WYND, VIRGINIA BCH, VA, 23455",122258656,"L"
10738,"1036 TICONDEROGA TRAIL","EAGAN","MN",55123,44.813778562,-93.1438157159999,238,"1036 TICONDEROGA TRAIL, EAGAN, MN, 55123","Match","Exact","1036 TICONDEROGA TRL, EAGAN, MN, 55123",37909166,"R"
10739,"1036 TIMBERVALLEY WAY","SPRING HILL","TN",37174,35.7273061340001,-86.886482996,239,"1036 TIMBERVALLEY WAY, SPRING HILL, TN, 37174","Match","Non_Exact","1036 TIMBER VALLEY WAY, SPRING HILL, TN, 37174",645114571,"R"
10740,"1036 UPNOR RD","BALTIMORE","MD",21212,39.3573413400001,-76.598683771,240,"1036 UPNOR RD, BALTIMORE, MD, 21212","Match","Exact","1036 UPNOR RD, BALTIMORE, MD, 21212",206447281,"L"
10741,"1036 US-301 N","SARASOTA","FL",34236,NA,NA,241,"1036 US-301 N, SARASOTA, FL, 34236","No_Match",NA,NA,NA,NA
10742,"1036 W FRONT STREET","PLAINFIELD","NJ",7063,40.60581139,-74.441373281,242,"1036 W FRONT STREET, PLAINFIELD, NJ, 7063","Match","Exact","1036 W FRONT ST, PLAINFIELD, NJ, 07063",60560148,"R"
10743,"1036 WEBSTER STREET","NEW ORLEANS","LA",70118,29.924852979,-90.1224199549999,243,"1036 WEBSTER STREET, NEW ORLEANS, LA, 70118","Match","Exact","1036 WEBSTER ST, NEW ORLEANS, LA, 70118",191702446,"L"
10744,"1036 WEST KIRKLAND AVE STE 101","NASHVILLE","TN",37216,36.209528521,-86.7381015829999,244,"1036 WEST KIRKLAND AVE STE 101, NASHVILLE, TN, 37216","Match","Exact","1036 W KIRKLAND AVE, NASHVILLE, TN, 37216",97187330,"R"
10745,"1036","LAPEL","IN",46051,NA,NA,245,"1036, LAPEL, IN, 46051","No_Match",NA,NA,NA,NA
10746,"10360 72ND ST","LARGO","FL",33777,27.867035451,-82.73843998,246,"10360 72ND ST, LARGO, FL, 33777","Match","Non_Exact","10360 72ND ST N, LARGO, FL, 33777",124687242,"R"
10747,"10360 BUTLER DR","BROWNSBURG","IN",46112,39.8598553640001,-86.344614862,247,"10360 BUTLER DR, BROWNSBURG, IN, 46112","Match","Exact","10360 BUTLER DR, BROWNSBURG, IN, 46112",635349455,"R"
10748,"10360 E JENAN DR","SCOTTSDALE","AZ",85004,33.5933802980001,-111.857623309,248,"10360 E JENAN DR, SCOTTSDALE, AZ, 85004","Match","Non_Exact","10360 E JENAN DR, SCOTTSDALE, AZ, 85260",128189971,"R"
10749,"10360 E JENAN DR","SCOTTSDALE","AZ",85260,33.5933802980001,-111.857623309,249,"10360 E JENAN DR, SCOTTSDALE, AZ, 85260","Match","Exact","10360 E JENAN DR, SCOTTSDALE, AZ, 85260",128189971,"R"
10750,"10360 EAST OUTER DR","DETROIT","MI",48224,NA,NA,250,"10360 EAST OUTER DR, DETROIT, MI, 48224","No_Match",NA,NA,NA,NA
10751,"10360 LORETO RIDGE DRIVE","KIRTLAND","OH",44094,41.5904744810001,-81.32980888,251,"10360 LORETO RIDGE DRIVE, KIRTLAND, OH, 44094","Match","Exact","10360 LORETO RIDGE DR, KIRTLAND, OH, 44094",645536912,"R"
10752,"10360 NW 30TH COURT 402","SUNRISE","FL",33322,26.164174782,-80.2875765909999,252,"10360 NW 30TH COURT 402, SUNRISE, FL, 33322","Match","Non_Exact","10360 NW 30TH CT, SUNRISE, FL, 33322",650150606,"R"
10753,"10360 RILLRIDGE COURT","ALPHARETTA","GA",30022,34.031323071,-84.266313063,253,"10360 RILLRIDGE COURT, ALPHARETTA, GA, 30022","Match","Exact","10360 RILLRIDGE CT, ALPHARETTA, GA, 30022",17353835,"L"
10754,"10360 SW 186TH STREET 971884","MIAMI","FL",33197,NA,NA,254,"10360 SW 186TH STREET 971884, MIAMI, FL, 33197","No_Match",NA,NA,NA,NA
10755,"10360 WATERSIDE COURT","PARKLAND","FL",33076,26.3373310870001,-80.2656605299999,255,"10360 WATERSIDE COURT, PARKLAND, FL, 33076","Match","Exact","10360 WATERSIDE CT, PARKLAND, FL, 33076",648596478,"L"
10756,"10361 ESTATES DRIVE","TRUCKEE","CA",96161,39.3266311610001,-120.163419095,256,"10361 ESTATES DRIVE, TRUCKEE, CA, 96161","Match","Exact","10361 ESTATES DR, TRUCKEE, CA, 96161",106548154,"L"
10757,"10361 SW 146 ST","MIAMI","FL",33176,25.6341349370001,-80.361527807,257,"10361 SW 146 ST, MIAMI, FL, 33176","Match","Exact","10361 SW 146TH ST, MIAMI, FL, 33176",115982117,"R"
10758,"10362 COLE ROAD","WHITTIER","CA",90603,33.939876914,-118.005423711,258,"10362 COLE ROAD, WHITTIER, CA, 90603","Match","Exact","10362 COLE RD, WHITTIER, CA, 90603",141751526,"L"
10759,"10362 HART BRANCH CIRCLE","ORLANDO","FL",32832,28.39250337,-81.219604719,259,"10362 HART BRANCH CIRCLE, ORLANDO, FL, 32832","Match","Exact","10362 HART BRANCH CIR, ORLANDO, FL, 32832",94418675,"R"
10760,"10362 OLD OLIVE STREET RD STE 217","CREVE COEUR","MO",63141,38.675496084,-90.4087150939999,260,"10362 OLD OLIVE STREET RD STE 217, CREVE COEUR, MO, 63141","Match","Non_Exact","10362 OLD OLIVE STREET RD, CREVE COEUR, MO, 63141",100130271,"L"
10761,"10362 PLEASANTS CIRCLE","DOSWELL","VA",23047,37.8493104610001,-77.461070283,261,"10362 PLEASANTS CIRCLE, DOSWELL, VA, 23047","Match","Exact","10362 PLEASANTS CIR, DOSWELL, VA, 23047",84991614,"L"
10762,"10362 SHOWBOAT LANE","ROYAL PALM BEACH","FL",33411,26.696376005,-80.207388215,262,"10362 SHOWBOAT LANE, ROYAL PALM BEACH, FL, 33411","Match","Exact","10362 SHOWBOAT LN, ROYAL PALM BEACH, FL, 33411",115265851,"R"
10763,"10362 W SYLVIA STREET","MILWAUKEE","WI",53224,43.16780371,-88.040278136,263,"10362 W SYLVIA STREET, MILWAUKEE, WI, 53224","Match","Exact","10362 W SYLVIA ST, MILWAUKEE, WI, 53224",77723983,"R"
10764,"10363 ATLEE STATION RD","MECHANICSVLLE","VA",23116,37.685240783,-77.433986521,264,"10363 ATLEE STATION RD, MECHANICSVLLE, VA, 23116","Match","Exact","10363 ATLEE STATION RD, MECHANICSVLLE, VA, 23116",84982696,"R"
10765,"10363 BRAEMAR DRIVE","POWELL","OH",43065,40.1476888820001,-83.0962405189999,265,"10363 BRAEMAR DRIVE, POWELL, OH, 43065","Match","Exact","10363 BRAEMAR DR, POWELL, OH, 43065",24604749,"L"
10766,"10363 BRIDLE COURT","HAGERSTOWN","MD",21740,39.5983754690001,-77.7221620029999,266,"10363 BRIDLE COURT, HAGERSTOWN, MD, 21740","Match","Exact","10363 BRIDLE CT, HAGERSTOWN, MD, 21740",612167013,"R"
10767,"10363 CAMINITO COVEWOOD","SAN DIEGO","CA",92131,NA,NA,267,"10363 CAMINITO COVEWOOD, SAN DIEGO, CA, 92131","No_Match",NA,NA,NA,NA
10768,"10363 E HUDSON RD","MAZOMANIE","WI",53560,43.176716458,-89.783639206,268,"10363 E HUDSON RD, MAZOMANIE, WI, 53560","Match","Non_Exact","10363 HUDSON RD, MAZOMANIE, WI, 53560",631972151,"L"
10769,"10363 HUFFORD RANCH RD","WHITMORE","CA",96096,40.5908993300001,-121.961938555,269,"10363 HUFFORD RANCH RD, WHITMORE, CA, 96096","Match","Exact","10363 HUFFORD RANCH RD, WHITMORE, CA, 96096",126666415,"L"
10770,"10363 HUFFORD RANCH RD","WHITMORE","CO",96096,NA,NA,270,"10363 HUFFORD RANCH RD, WHITMORE, CO, 96096","No_Match",NA,NA,NA,NA
10771,"10363 LEIGHTON PLACE","MANASSAS","VA",20110,38.7305423070001,-77.472405293,271,"10363 LEIGHTON PLACE, MANASSAS, VA, 20110","Match","Exact","10363 LEIGHTON PL, MANASSAS, VA, 20110",640940579,"L"
10772,"10363 RIFLE FALLS WAY","COLORADO SPRINGS","CO",80924,NA,NA,272,"10363 RIFLE FALLS WAY, COLORADO SPRINGS, CO, 80924","No_Match",NA,NA,NA,NA
10773,"10363 SW 24TH STREET","MIRAMAR","FL",33025,25.988080107,-80.284610632,273,"10363 SW 24TH STREET, MIRAMAR, FL, 33025","Match","Exact","10363 SW 24TH ST, MIRAMAR, FL, 33025",114813510,"L"
10774,"10363 W SAMPLE ROAD","CORAL SPRINGS","FL",33065,26.2726402750001,-80.26412342,274,"10363 W SAMPLE ROAD, CORAL SPRINGS, FL, 33065","Match","Exact","10363 W SAMPLE RD, CORAL SPRINGS, FL, 33065",114690116,"R"
10775,"10363","SAN ANTONIO","TX",78245,NA,NA,275,"10363, SAN ANTONIO, TX, 78245","No_Match",NA,NA,NA,NA
10776,"10364 FOREST BROOK LANE UNIT G","CREVE COEUR","MO",63146,38.679377511,-90.405905933,276,"10364 FOREST BROOK LANE UNIT G, CREVE COEUR, MO, 63146","Match","Non_Exact","10364 FOREST BROOK LN, SAINT LOUIS, MO, 63146",100174450,"L"
10777,"10364 S 950 E","STENDAL","IN",47585,38.26953007,-87.104679902,277,"10364 S 950 E, STENDAL, IN, 47585","Match","Non_Exact","10364 S CO RD 950 E, STENDAL, IN, 47585",652685726,"L"
10778,"10365 DAVENPORT STREET NE","BLAINE","MN",55449,NA,NA,278,"10365 DAVENPORT STREET NE, BLAINE, MN, 55449","No_Match",NA,NA,NA,NA
10779,"10365 SW 111ST","MIAMI","FL",33176,NA,NA,279,"10365 SW 111ST, MIAMI, FL, 33176","No_Match",NA,NA,NA,NA
10780,"10366 FRANK GREG WAY","ELK GROVE","CA",95757,38.380561922,-121.427274212,280,"10366 FRANK GREG WAY, ELK GROVE, CA, 95757","Match","Exact","10366 FRANK GREG WAY, ELK GROVE, CA, 95757",625032427,"R"
10781,"10366 ROCKINGHAM","SACRAMENTO","CA",95827,38.5743789040001,-121.30472859,281,"10366 ROCKINGHAM, SACRAMENTO, CA, 95827","Match","Non_Exact","10366 ROCKINGHAM DR, SACRAMENTO, CA, 95827",636424356,"R"
10782,"10366 STAGECOACH PARK COURT","COLORADO SPRINGS","CO",80924,NA,NA,282,"10366 STAGECOACH PARK COURT, COLORADO SPRINGS, CO, 80924","No_Match",NA,NA,NA,NA
10783,"10366 WINDROSE CURVE","ELKO","MN",55020,44.5655223520001,-93.309794993,283,"10366 WINDROSE CURVE, ELKO, MN, 55020","Match","Exact","10366 WINDROSE CURV, ELKO, MN, 55020",38156277,"L"
10784,"10367 HALLORAN ROAD","BOW","WA",98232,48.5729099970001,-122.522741348,284,"10367 HALLORAN ROAD, BOW, WA, 98232","Match","Exact","10367 HALLORAN RD, BOW, WA, 98232",625050870,"L"
10785,"10368 CRAFTSMAN WAY APT 309","SAN DIEGO","CA",92127,33.020032959,-117.11599847,285,"10368 CRAFTSMAN WAY APT 309, SAN DIEGO, CA, 92127","Match","Exact","10368 CRAFTSMAN WAY, SAN DIEGO, CA, 92127",619821786,"L"
10786,"10368 EDGEWATER DRIVE","KELSEYVILLE","CA",95451,38.9646280040001,-122.715057447,286,"10368 EDGEWATER DRIVE, KELSEYVILLE, CA, 95451","Match","Exact","10368 EDGEWATER DR, KELSEYVILLE, CA, 95451",67036569,"L"
10787,"10368 SPRING GARDEN RD","MANITO","IL",61546,40.4778445630001,-89.796754709,287,"10368 SPRING GARDEN RD, MANITO, IL, 61546","Match","Exact","10368 SPRING GARDEN RD, MANITO, IL, 61546",608228586,"R"
10788,"1037 26TH ROAD S","ARLINGTON","VA",22202,38.850112299,-77.062367921,288,"1037 26TH ROAD S, ARLINGTON, VA, 22202","Match","Exact","1037 26TH RD S, ARLINGTON, VA, 22202",76472160,"R"
10789,"1037 2ND COURT WEST","BIRMINGHAM","AL",35204,33.5042234630001,-86.854203432,289,"1037 2ND COURT WEST, BIRMINGHAM, AL, 35204","Match","Exact","1037 2ND CT W, BIRMINGHAM, AL, 35204",81555434,"L"
10790,"1037 ANTHEM LANE UNIT 5306","FAYETTEVILLE","NC",28311,35.1525663090001,-78.89914795,290,"1037 ANTHEM LANE UNIT 5306, FAYETTEVILLE, NC, 28311","Match","Exact","1037 ANTHEM LN, FAYETTEVILLE, NC, 28311",649729617,"L"
10791,"1037 AQUARIUS WAY","OAKLAND","CA",94611,37.8408681540001,-122.218882195,291,"1037 AQUARIUS WAY, OAKLAND, CA, 94611","Match","Exact","1037 AQUARIUS WAY, OAKLAND, CA, 94611",606340305,"R"
10792,"1037 AUTUMN CREST DR","STONE MOUNTAIN","GA",30083,33.764126983,-84.1996116179999,292,"1037 AUTUMN CREST DR, STONE MOUNTAIN, GA, 30083","Match","Exact","1037 AUTUMN CREST DR, STONE MOUNTAIN, GA, 30083",23378166,"L"
10793,"1037 BENTOAK LN","SAN JOSE","CA",95129,37.308360995,-121.997356698,293,"1037 BENTOAK LN, SAN JOSE, CA, 95129","Match","Exact","1037 BENTOAK LN, SAN JOSE, CA, 95129",122899724,"R"
10794,"1037 BLANKENSHIP","LAS VEGAS","NV",89106,36.2011889400001,-115.155504461,294,"1037 BLANKENSHIP, LAS VEGAS, NV, 89106","Match","Non_Exact","1037 BLANKENSHIP AVE, LAS VEGAS, NV, 89106",201863984,"L"
10795,"1037 BOXWOOD DR","CRYSTAL LAKE","IL",60014,42.2125626170001,-88.3564293329999,295,"1037 BOXWOOD DR, CRYSTAL LAKE, IL, 60014","Match","Exact","1037 BOXWOOD DR, CRYSTAL LAKE, IL, 60014",119842416,"R"
10796,"1037 BROOKSHIRE COURT APT 1","BELLEVILLE","IL",62221,38.5158319600001,-89.946004823,296,"1037 BROOKSHIRE COURT APT 1, BELLEVILLE, IL, 62221","Match","Exact","1037 BROOKSHIRE CT, BELLEVILLE, IL, 62221",107857241,"L"
10797,"1037 BULLARD COURT SUITE 208","RALEIGH","NC",27615,35.869342553,-78.6208669119999,297,"1037 BULLARD COURT SUITE 208, RALEIGH, NC, 27615","Match","Exact","1037 BULLARD CT, RALEIGH, NC, 27615",72522112,"R"
10798,"1037 CALYPSO DR","LAKE ARIEL","PA",18436,41.396702261,-75.271773673,298,"1037 CALYPSO DR, LAKE ARIEL, PA, 18436","Match","Exact","1037 CALYPSO DR, LAKE ARIEL, PA, 18436",140140253,"R"
10799,"1037 COBLE AVENUE","ALBEMARLE","NC",28001,35.336533435,-80.214784642,299,"1037 COBLE AVENUE, ALBEMARLE, NC, 28001","Match","Exact","1037 COBLE AVE, ALBEMARLE, NC, 28001",14100317,"R"
10800,"1037 DELFIELD DRIVE","BETHEL PARK","PA",15102,40.3102259980001,-80.044710778,300,"1037 DELFIELD DRIVE, BETHEL PARK, PA, 15102","Match","Exact","1037 DELFIELD DR, BETHEL PARK, PA, 15102",51657501,"L"
10801,"1037 E OHIO","INDIANAPOLIS","IN",46202,39.7695181500001,-86.140118812,301,"1037 E OHIO, INDIANAPOLIS, IN, 46202","Match","Non_Exact","1037 E OHIO ST, INDIANAPOLIS, IN, 46202",107993345,"R"
10802,"1037 EAST AVENUE K SIUTE 1","LANCASTER","CA",93535,34.6749983920001,-118.110814934,302,"1037 EAST AVENUE K SIUTE 1, LANCASTER, CA, 93535","Match","Exact","1037 E AVE K, LANCASTER, CA, 93535",142821505,"L"
10803,"1037 FRANK ST","ROSELLE","NJ",7203,40.64957379,-74.251951909,303,"1037 FRANK ST, ROSELLE, NJ, 7203","Match","Exact","1037 FRANK ST, ROSELLE, NJ, 07203",60575810,"L"
10804,"1037 HUNTING RIDGE ROAD SUITE D","RALEIGH","NC",27615,35.8756154650001,-78.622315169,304,"1037 HUNTING RIDGE ROAD SUITE D, RALEIGH, NC, 27615","Match","Exact","1037 HUNTING RIDGE RD, RALEIGH, NC, 27615",72534626,"L"
10805,"1037 MAIN STREET","DARBY","PA",19023,39.9204762000001,-75.263529031,305,"1037 MAIN STREET, DARBY, PA, 19023","Match","Exact","1037 MAIN ST, DARBY, PA, 19023",134884865,"R"
10806,"1037 MANNING ST","GREAT FALLS","VA",22066,38.9798409950001,-77.28472276,306,"1037 MANNING ST, GREAT FALLS, VA, 22066","Match","Exact","1037 MANNING ST, GREAT FALLS, VA, 22066",75960217,"L"
10807,"1037 MOELLER ROAD","NEW HAVEN","IN",46774,41.055866333,-85.015174336,307,"1037 MOELLER ROAD, NEW HAVEN, IN, 46774","Match","Exact","1037 MOELLER RD, NEW HAVEN, IN, 46774",6390215,"L"
10808,"1037 N FERRY ST","LUDINGTON","MI",49431,43.9677676040001,-86.456591416,308,"1037 N FERRY ST, LUDINGTON, MI, 49431","Match","Exact","1037 N FERRY ST, LUDINGTON, MI, 49431",148052783,"L"
10809,"1037 NARANJO DR","GEORGETOWN","TX",78628,30.691150255,-97.701818374,309,"1037 NARANJO DR, GEORGETOWN, TX, 78628","Match","Exact","1037 NARANJO DR, GEORGETOWN, TX, 78628",648536159,"L"
10810,"1037 NE 65TH ST 113","SEATTLE","WA",98115,47.675815792,-122.31696743,310,"1037 NE 65TH ST 113, SEATTLE, WA, 98115","Match","Non_Exact","1037 NE 65TH ST, SEATTLE, WA, 98115",186585230,"R"
10811,"1037 NE 65TH ST 80804","SEATTLE","WA",98115,47.675815792,-122.31696743,311,"1037 NE 65TH ST 80804, SEATTLE, WA, 98115","Match","Non_Exact","1037 NE 65TH ST, SEATTLE, WA, 98115",186585230,"R"
10812,"1037 NE 65TH ST NUMBER 81384","SEATTLE","WA",98115,47.675815792,-122.31696743,312,"1037 NE 65TH ST NUMBER 81384, SEATTLE, WA, 98115","Match","Non_Exact","1037 NE 65TH ST, SEATTLE, WA, 98115",186585230,"R"
10813,"1037 NE HIDDEN VALLEY DRIVE","BEND","OR",97701,44.077963142,-121.289668465,313,"1037 NE HIDDEN VALLEY DRIVE, BEND, OR, 97701","Match","Exact","1037 NE HIDDEN VALLEY DR, BEND, OR, 97701",152575970,"R"
10814,"1037 NORTH DAMEN AVENUE APT 3","CHICAGO","IL",60622,41.900564629,-87.6771734609999,314,"1037 NORTH DAMEN AVENUE APT 3, CHICAGO, IL, 60622","Match","Exact","1037 N DAMEN AVE, CHICAGO, IL, 60622",111764729,"R"
10815,"1037 PINECREST TERRACE","ASHLAND","OR",97520,42.176994268,-122.691893129,315,"1037 PINECREST TERRACE, ASHLAND, OR, 97520","Match","Exact","1037 PINECREST TER, ASHLAND, OR, 97520",647538126,"R"
10816,"1037 RAMAH CHURCH ROAD","LETOHATCHEE","AL",36047,NA,NA,316,"1037 RAMAH CHURCH ROAD, LETOHATCHEE, AL, 36047","No_Match",NA,NA,NA,NA
10817,"1037 RAMONA ST","SAN GABRIEL","CA",91776,34.0883379270001,-118.107743795,317,"1037 RAMONA ST, SAN GABRIEL, CA, 91776","Match","Non_Exact","1037 S RAMONA ST, SAN GABRIEL, CA, 91776",141639657,"R"
10818,"1037 RIVER VIEW DRIVE","CODY","WY",82414,44.5319219730001,-109.068300398,318,"1037 RIVER VIEW DRIVE, CODY, WY, 82414","Match","Exact","1037 RIVER VIEW DR, CODY, WY, 82414",149205137,"R"
10819,"1037 S BURNSIDE AVENUE","LOS ANGELES","CA",90019,34.0566710430001,-118.351648071,319,"1037 S BURNSIDE AVENUE, LOS ANGELES, CA, 90019","Match","Exact","1037 S BURNSIDE AVE, LOS ANGELES, CA, 90019",141599307,"R"
10820,"1037 S POSEYVILLE RD","MIDLAND","MI",48640,43.5824976710001,-84.247715812,320,"1037 S POSEYVILLE RD, MIDLAND, MI, 48640","Match","Exact","1037 S POSEYVILLE RD, MIDLAND, MI, 48640",81197170,"R"
10821,"1037 SANDPIPER LN","SANTA BARBARA","CA",93110,34.426536949,-119.791959948,321,"1037 SANDPIPER LN, SANTA BARBARA, CA, 93110","Match","Exact","1037 SANDPIPER LN, SANTA BARBARA, CA, 93110",108623125,"L"
10822,"1037 SEVILLA AVENUE","CORAL GABLES","FL",33134,25.7451008080001,-80.275675919,322,"1037 SEVILLA AVENUE, CORAL GABLES, FL, 33134","Match","Exact","1037 SEVILLA AVE, CORAL GABLES, FL, 33134",116012708,"R"
10823,"1037 SHACKAMAXON STREET","PHILADELPHIA","PA",19125,39.9675839080001,-75.132823065,323,"1037 SHACKAMAXON STREET, PHILADELPHIA, PA, 19125","Match","Exact","1037 SHACKAMAXON ST, PHILADELPHIA, PA, 19125",131453392,"R"
10824,"1037 SHASTA DAISY DR","WAKE FOREST","NC",27587,35.9377424510001,-78.4851497189999,324,"1037 SHASTA DAISY DR, WAKE FOREST, NC, 27587","Match","Exact","1037 SHASTA DAISY DR, WAKE FOREST, NC, 27587",638755254,"R"
10825,"1037 STONES THROW DR","HUNTSVILLE","AL",35806,34.7441276500001,-86.668087298,325,"1037 STONES THROW DR, HUNTSVILLE, AL, 35806","Match","Non_Exact","1037 STONES THROW DR NW, HUNTSVILLE, AL, 35806",58199266,"R"
10826,"1037 SUFFOLK WAY","FAIRFIELD","CA",94533,38.287488345,-122.016084717,326,"1037 SUFFOLK WAY, FAIRFIELD, CA, 94533","Match","Exact","1037 SUFFOLK WAY, FAIRFIELD, CA, 94533",192620819,"R"
10827,"1037 W 112TH PLACE","CHICAGO","IL",60643,41.6894412560001,-87.648447343,327,"1037 W 112TH PLACE, CHICAGO, IL, 60643","Match","Exact","1037 W 112TH PL, CHICAGO, IL, 60643",605463370,"L"
10828,"1037 W 63RD ST N","TULSA","OK",74126,36.245902222,-95.978515462,328,"1037 W 63RD ST N, TULSA, OK, 74126","Match","Non_Exact","1037 E 63RD ST N, TULSA, OK, 74126",166435566,"L"
10829,"1037 W MCKINLEY AVE MB 301","MILWAUKEE","WI",53205,43.047110665,-87.92486554,329,"1037 W MCKINLEY AVE MB 301, MILWAUKEE, WI, 53205","Match","Non_Exact","1037 W MCKINLEY AVE, MILWAUKEE, WI, 53205",618718844,"L"
10830,"1037 W MCKINLEY AVE NUM 301","MILWAUKEE","WI",53205,43.047110665,-87.92486554,330,"1037 W MCKINLEY AVE NUM 301, MILWAUKEE, WI, 53205","Match","Non_Exact","1037 W MCKINLEY AVE, MILWAUKEE, WI, 53205",618718844,"L"
10831,"1037 W MCKINLEY AVE STE 301","MILWAUKEE","WI",53205,43.047110665,-87.92486554,331,"1037 W MCKINLEY AVE STE 301, MILWAUKEE, WI, 53205","Match","Non_Exact","1037 W MCKINLEY AVE, MILWAUKEE, WI, 53205",618718844,"L"
10832,"1037 W MCKINLEY AVE STE 400","MILWAUKEE","WI",53205,43.047110665,-87.92486554,332,"1037 W MCKINLEY AVE STE 400, MILWAUKEE, WI, 53205","Match","Non_Exact","1037 W MCKINLEY AVE, MILWAUKEE, WI, 53205",618718844,"L"
10833,"1037 WARPERS LANE","FORT MILL","SC",29715,35.0177948200001,-80.932268479,333,"1037 WARPERS LANE, FORT MILL, SC, 29715","Match","Exact","1037 WARPERS LN, FORT MILL, SC, 29715",625255296,"L"
10834,"1037 WELLINGTON RD","LAWRENCE","KS",66049,38.9654142160001,-95.272376642,334,"1037 WELLINGTON RD, LAWRENCE, KS, 66049","Match","Exact","1037 WELLINGTON RD, LAWRENCE, KS, 66049",17683320,"R"
10835,"1037 WEST 63RD STREET NORTH","TULSA","OK",74126,36.2459023000001,-95.9785249459999,335,"1037 WEST 63RD STREET NORTH, TULSA, OK, 74126","Match","Non_Exact","1037 E 63RD ST N, TULSA, OK, 74126",166435566,"L"
10836,"1037 WHITECLIFF DRIVE","KIRKWOOD","MO",63122,38.5952421980001,-90.425777189,336,"1037 WHITECLIFF DRIVE, KIRKWOOD, MO, 63122","Match","Exact","1037 WHITECLIFF DR, KIRKWOOD, MO, 63122",100128891,"R"
10837,"1037 WILLOW ST","OAKLAND","CA",94607,37.8100100990001,-122.298690793,337,"1037 WILLOW ST, OAKLAND, CA, 94607","Match","Exact","1037 WILLOW ST, OAKLAND, CA, 94607",124995370,"L"
10838,"1037 WOODWARD","AKRON","OH",44310,41.113804933,-81.508075537,338,"1037 WOODWARD, AKRON, OH, 44310","Match","Non_Exact","1037 WOODWARD AVE, AKRON, OH, 44310",61348041,"R"
10839,"1037","ELLENWOOD","GA",30294,NA,NA,339,"1037, ELLENWOOD, GA, 30294","No_Match",NA,NA,NA,NA
10840,"10370 BOYNE CITY ROAD","CHARLEVOIX","MI",49720,45.3205227380001,-85.18676045,340,"10370 BOYNE CITY ROAD, CHARLEVOIX, MI, 49720","Match","Exact","10370 BOYNE CITY RD, CHARLEVOIX, MI, 49720",134484338,"L"
10841,"10370 CITATION DRIVE","BRIGHTON","MI",48116,42.521059232,-83.748941969,341,"10370 CITATION DRIVE, BRIGHTON, MI, 48116","Match","Exact","10370 CITATION DR, BRIGHTON, MI, 48116",619588842,"R"
10842,"10370 E 250 NORTH","CHARLOTTESVILLE","IN",46117,39.82279471,-85.608922193,342,"10370 E 250 NORTH, CHARLOTTESVILLE, IN, 46117","Match","Exact","10370 E 250 N, CHARLOTTESVILLE, IN, 46117",31084071,"R"
10843,"10370 MARSHALL RD","SOUTH LYON","MI",48178,42.453409558,-83.727016046,343,"10370 MARSHALL RD, SOUTH LYON, MI, 48178","Match","Exact","10370 MARSHALL RD, SOUTH LYON, MI, 48178",23551079,"L"
10844,"10370 OLD 3 C","CLARKSVILLE","OH",45113,39.3995506370001,-84.006994629,344,"10370 OLD 3 C, CLARKSVILLE, OH, 45113","Match","Exact","10370 OLD 3 C, CLARKSVILLE, OH, 45113",639737931,"R"
10845,"10370 SW 200TH STREET","CULTER BAY","FL",33157,25.581131774,-80.360289764,345,"10370 SW 200TH STREET, CULTER BAY, FL, 33157","Match","Non_Exact","10370 SW 200TH ST, CUTLER BAY, FL, 33157",115994695,"L"
10846,"10370 SW 51ST TERRACE","OCALA","FL",34476,29.072268969,-82.206577984,346,"10370 SW 51ST TERRACE, OCALA, FL, 34476","Match","Exact","10370 SW 51ST TER, OCALA, FL, 34476",116843227,"R"
10847,"10370 SWIFTSTREAM PL APT 307","COLUMBIA","MD",21044,39.2108236810001,-76.856268503,347,"10370 SWIFTSTREAM PL APT 307, COLUMBIA, MD, 21044","Match","Non_Exact","10370 SWIFT STREAM PL, COLUMBIA, MD, 21044",639577389,"R"
10848,"10370 VERNON AVE 9","MONTCLAIR","CA",91763,34.0655816240001,-117.685196336,348,"10370 VERNON AVE 9, MONTCLAIR, CA, 91763","Match","Exact","10370 VERNON AVE, MONTCLAIR, CA, 91763",627217504,"R"
10849,"10370 WOODLAND DRIVE","DEMOTTE","IN",46310,41.1642997930001,-87.168537557,349,"10370 WOODLAND DRIVE, DEMOTTE, IN, 46310","Match","Exact","10370 WOODLAND DR, DEMOTTE, IN, 46310",624484067,"L"
10850,"10371 EAST SUNNYWOOD DRIVE","TUCSON","AZ",85749,32.281824955,-110.770699928,350,"10371 EAST SUNNYWOOD DRIVE, TUCSON, AZ, 85749","Match","Exact","10371 E SUNNYWOOD DR, TUCSON, AZ, 85749",121187525,"L"
10851,"10371 SW 152ND STREET","MIAMI","FL",33157,25.628279342,-80.361455892,351,"10371 SW 152ND STREET, MIAMI, FL, 33157","Match","Exact","10371 SW 152ND ST, MIAMI, FL, 33157",115982165,"R"
10852,"10371B JAY STREET","LEWIS MCCHORD","WA",98433,47.130481182,-122.583506216,352,"10371B JAY STREET, LEWIS MCCHORD, WA, 98433","Match","Exact","10371 JAY ST, LEWIS MCCHORD, WA, 98433",641608093,"R"
10853,"10372 SPLENDOR RIDGE AVE","LAS VEGAS","NV",89135,36.1399258910001,-115.318863675,353,"10372 SPLENDOR RIDGE AVE, LAS VEGAS, NV, 89135","Match","Exact","10372 SPLENDOR RIDGE AVE, LAS VEGAS, NV, 89135",201947241,"L"
10854,"10372 W MCFADDEN AVE","WESTMINSTER","CA",92683,NA,NA,354,"10372 W MCFADDEN AVE, WESTMINSTER, CA, 92683","No_Match",NA,NA,NA,NA
10855,"10373 GIBSON LAKE RD","DARDANELLE","AR",72834,NA,NA,355,"10373 GIBSON LAKE RD, DARDANELLE, AR, 72834","No_Match",NA,NA,NA,NA
10856,"10373 HIGHWAY 90 - UNIT D","LITTLE RIVER","SC",29566,NA,NA,356,"10373 HIGHWAY 90 - UNIT D, LITTLE RIVER, SC, 29566","No_Match",NA,NA,NA,NA
10857,"10373 WAGER ROAD","BENTONVILLE","AR",72712,36.2318174230001,-94.263917452,357,"10373 WAGER ROAD, BENTONVILLE, AR, 72712","Match","Non_Exact","10373 WAGER RD, BENTONVILLE, AR, 72713",47895513,"R"
10858,"10374 HEDGEAPPLE BND","NEW MARKET","MD",21774,39.4216890800001,-77.304368432,358,"10374 HEDGEAPPLE BND, NEW MARKET, MD, 21774","Match","Exact","10374 HEDGEAPPLE BEND, NEW MARKET, MD, 21774",60693073,"L"
10859,"10374 HWY 165 N STE B","STERLINGTON","LA",71280,NA,NA,359,"10374 HWY 165 N STE B, STERLINGTON, LA, 71280","No_Match",NA,NA,NA,NA
10860,"10374 STANSFIELD ROAD","LAUREL","MD",20723,39.123612316,-76.8727119389999,360,"10374 STANSFIELD ROAD, LAUREL, MD, 20723","Match","Exact","10374 STANSFIELD RD, LAUREL, MD, 20723",158937406,"R"
10861,"10375 CHURCH STREET UNIT 83","RANCHO CUCAMONGA","CA",91730,34.114079157,-117.579032382,361,"10375 CHURCH STREET UNIT 83, RANCHO CUCAMONGA, CA, 91730","Match","Exact","10375 CHURCH ST, RANCHO CUCAMONGA, CA, 91730",144636198,"R"
10862,"10375 CHURCH STREET","RANCHO CUCAMONGA","CA",91730,34.114079157,-117.579032382,362,"10375 CHURCH STREET, RANCHO CUCAMONGA, CA, 91730","Match","Exact","10375 CHURCH ST, RANCHO CUCAMONGA, CA, 91730",144636198,"R"
10863,"10375 HUNTSMAN RD","COLORADO SPRINGS","CO",80908,38.9899595640001,-104.677677219,363,"10375 HUNTSMAN RD, COLORADO SPRINGS, CO, 80908","Match","Exact","10375 HUNTSMAN RD, COLORADO SPRINGS, CO, 80908",647965897,"R"
10864,"10375 LITTLE PATUXENT PARKWAY","COLUMBIA","MD",21044,39.2114731240001,-76.8589544979999,364,"10375 LITTLE PATUXENT PARKWAY, COLUMBIA, MD, 21044","Match","Exact","10375 LITTLE PATUXENT PKWY, COLUMBIA, MD, 21044",619760145,"L"
10865,"10375 PARK MEADOWS DR STE 350","LONE TREE","CO",80124,39.5402828900001,-104.872350901,365,"10375 PARK MEADOWS DR STE 350, LONE TREE, CO, 80124","Match","Exact","10375 PARK MEADOWS DR, LONE TREE, CO, 80124",651084438,"L"
10866,"10375 PERRY HWY","WEXFORD","PA",15090,40.6106579670001,-80.053696417,366,"10375 PERRY HWY, WEXFORD, PA, 15090","Match","Exact","10375 PERRY HWY, WEXFORD, PA, 15090",639086804,"L"
10867,"10375 WORTHINGTON HILLS MANOR","ROSWELL","GA",30076,34.0335240840001,-84.3299673829999,367,"10375 WORTHINGTON HILLS MANOR, ROSWELL, GA, 30076","Match","Exact","10375 WORTHINGTON HILLS MANOR, ROSWELL, GA, 30076",17352468,"R"
10868,"10376 PALMWOOD PLACE","WEEKI WACHEE","FL",34613,28.5598764700001,-82.548554936,368,"10376 PALMWOOD PLACE, WEEKI WACHEE, FL, 34613","Match","Exact","10376 PALMWOOD PL, WEEKI WACHEE, FL, 34613",85422594,"R"
10869,"10378 LOFTIN DRIVE","OLIVE BRANCH","MS",38654,34.9373284660001,-89.8046731809999,369,"10378 LOFTIN DRIVE, OLIVE BRANCH, MS, 38654","Match","Exact","10378 LOFTIN DR, OLIVE BRANCH, MS, 38654",639571445,"L"
10870,"10379 JANJA COURT","MANASSAS","VA",20110,38.7328654120001,-77.465110086,370,"10379 JANJA COURT, MANASSAS, VA, 20110","Match","Exact","10379 JANJA CT, MANASSAS, VA, 20110",76536616,"L"
10871,"1038 1ST AVE E","SHAKOPEE","MN",55379,44.8002696520001,-93.513444329,371,"1038 1ST AVE E, SHAKOPEE, MN, 55379","Match","Exact","1038 1ST AVE E, SHAKOPEE, MN, 55379",38140239,"R"
10872,"1038 31ST ST NW","WASHINGTON","DC",20007,38.9039365100001,-77.061164591,372,"1038 31ST ST NW, WASHINGTON, DC, 20007","Match","Exact","1038 31ST ST NW, WASHINGTON, DC, 20007",76234774,"L"
10873,"1038 5TH ST","GRETNA","LA",70053,29.913688522,-90.065995801,373,"1038 5TH ST, GRETNA, LA, 70053","Match","Exact","1038 5TH ST, GRETNA, LA, 70053",93506787,"L"
10874,"1038 BOSTON ROAD APT 3D","BRONX","NY",10456,40.826484678,-73.905975391,374,"1038 BOSTON ROAD APT 3D, BRONX, NY, 10456","Match","Exact","1038 BOSTON RD, BRONX, NY, 10456",80301947,"R"
10875,"1038 BRENT ST UNIT 100","LOUISVILLE","KY",40204,38.234942333,-85.7281750769999,375,"1038 BRENT ST UNIT 100, LOUISVILLE, KY, 40204","Match","Exact","1038 BRENT ST, LOUISVILLE, KY, 40204",96847080,"R"
10876,"1038 BROADWAY ST NE","SALEM","OR",97301,44.9496742790001,-123.032122165,376,"1038 BROADWAY ST NE, SALEM, OR, 97301","Match","Exact","1038 BROADWAY ST NE, SALEM, OR, 97301",156249680,"R"
10877,"1038 BUCKEYE RD","MINDEN","NV",89423,38.9557672660001,-119.76457449,377,"1038 BUCKEYE RD, MINDEN, NV, 89423","Match","Exact","1038 BUCKEYE RD, MINDEN, NV, 89423",637784607,"L"
10878,"1038 BUDDLEIA CT","FLORENCE","KY",41042,38.9591620640001,-84.646814332,378,"1038 BUDDLEIA CT, FLORENCE, KY, 41042","Match","Exact","1038 BUDDLEIA CT, FLORENCE, KY, 41042",81964788,"L"
10879,"1038 CLEARLAKE RD","COCOA","FL",32922,28.372000325,-80.754964004,379,"1038 CLEARLAKE RD, COCOA, FL, 32922","Match","Exact","1038 CLEARLAKE RD, COCOA, FL, 32922",93915536,"R"
10880,"1038 COLD RIVER RUN RD","WESTFIELD","NC",27053,36.489142176,-80.3979872469999,380,"1038 COLD RIVER RUN RD, WESTFIELD, NC, 27053","Match","Exact","1038 COLD RIVER RUN RD, WESTFIELD, NC, 27053",56351030,"R"
10881,"1038 CRESSMONT ST","BOSSIER CITY","LA",71111,32.5810767450001,-93.6375634089999,381,"1038 CRESSMONT ST, BOSSIER CITY, LA, 71111","Match","Exact","1038 CRESSMONT ST, BOSSIER CITY, LA, 71111",604719072,"L"
10882,"1038 DEER RUN CT","STAUNTON","IL",62088,39.0180254300001,-89.801642106,382,"1038 DEER RUN CT, STAUNTON, IL, 62088","Match","Exact","1038 DEER RUN CT, STAUNTON, IL, 62088",97933242,"L"
10883,"1038 E LAKESHORE DR","GREENSBURG","IN",47240,39.3285378420001,-85.46822592,383,"1038 E LAKESHORE DR, GREENSBURG, IN, 47240","Match","Exact","1038 E LAKESHORE DR, GREENSBURG, IN, 47240",31183006,"L"
10884,"1038 GRACEWOOD DRIVE","LIBERTYVILLE","IL",60048,42.2804642720001,-87.969952518,384,"1038 GRACEWOOD DRIVE, LIBERTYVILLE, IL, 60048","Match","Exact","1038 GRACEWOOD DR, LIBERTYVILLE, IL, 60048",119638769,"L"
10885,"1038 HAMPTON ROAD","HAMPTON","GA",30228,33.400021274,-84.358933032,385,"1038 HAMPTON ROAD, HAMPTON, GA, 30228","Match","Exact","1038 HAMPTON RD, HAMPTON, GA, 30228",628092192,"R"
10886,"1038 HAWKINS AVENUE","LAKE GROVE","NY",11755,40.8584682810001,-73.113232234,386,"1038 HAWKINS AVENUE, LAKE GROVE, NY, 11755","Match","Exact","1038 HAWKINS AVE, LAKE GROVE, NY, 11755",114075262,"L"
10887,"1038 JENKS AVE","PANAMA CITY","FL",32401,30.1667864940001,-85.662554179,387,"1038 JENKS AVE, PANAMA CITY, FL, 32401","Match","Exact","1038 JENKS AVE, PANAMA CITY, FL, 32401",7029279,"R"
10888,"1038 LANGSTON LN","HAVANA","FL",32333,30.652327014,-84.3787480729999,388,"1038 LANGSTON LN, HAVANA, FL, 32333","Match","Exact","1038 LANGSTON LN, HAVANA, FL, 32333",87821676,"R"
10889,"1038 MANSFIELD LANE","DUNCANVILLE","TX",75137,32.6412830310001,-96.884928735,389,"1038 MANSFIELD LANE, DUNCANVILLE, TX, 75137","Match","Non_Exact","1038 MANSFIELD, DUNCANVILLE, TX, 75137",102972492,"R"
10890,"1038 MASTELL DRIVE","REYNOLDSBURG","OH",43068,39.968639384,-82.75804859,390,"1038 MASTELL DRIVE, REYNOLDSBURG, OH, 43068","Match","Exact","1038 MASTELL DR, REYNOLDSBURG, OH, 43068",61520649,"L"
10891,"1038 N ALVARO","MESA","AZ",85205,33.4345194110001,-111.713263786,391,"1038 N ALVARO, MESA, AZ, 85205","Match","Exact","1038 N ALVARO, MESA, AZ, 85205",128251053,"L"
10892,"1038 N EISENHOWER DR PMB 315","BECKLEY","WV",25801,37.7686356830001,-81.159808561,392,"1038 N EISENHOWER DR PMB 315, BECKLEY, WV, 25801","Match","Non_Exact","1038 S EISENHOWER DR, BECKLEY, WV, 25801",78834395,"L"
10893,"1038 N HOLLAND SYLVANIA RD","TOLEDO","OH",43615,41.6508143080001,-83.682596742,393,"1038 N HOLLAND SYLVANIA RD, TOLEDO, OH, 43615","Match","Non_Exact","1038 N HOLLAND SYLVANIA AVE, TOLEDO, OH, 43615",33960920,"R"
10894,"1038 NORTH MAIN STREET","EMPORIA","VA",23847,36.707784444,-77.5336652949999,394,"1038 NORTH MAIN STREET, EMPORIA, VA, 23847","Match","Exact","1038 N MAIN ST, EMPORIA, VA, 23847",54247952,"R"
10895,"1038 PRIVATE ROAD 3062","LEXINGTON","TX",78947,30.4159144540001,-97.213275871,395,"1038 PRIVATE ROAD 3062, LEXINGTON, TX, 78947","Match","Non_Exact","1038 PVT RD 3062, LEXINGTON, TX, 78947",39139071,"R"
10896,"1038 REGIS RD","JACKSONVILLE","FL",32218,30.453660015,-81.615896563,396,"1038 REGIS RD, JACKSONVILLE, FL, 32218","Match","Exact","1038 REGIS RD, JACKSONVILLE, FL, 32218",83891356,"R"
10897,"1038 RICHARD AVE","BERKELEY","IL",60163,41.8949476880001,-87.9167360599999,397,"1038 RICHARD AVE, BERKELEY, IL, 60163","Match","Exact","1038 RICHARD AVE, BERKELEY, IL, 60163",111724701,"R"
10898,"1038 RICHARD AVENUE","BERKELEY","IL",60163,41.8949476880001,-87.9167360599999,398,"1038 RICHARD AVENUE, BERKELEY, IL, 60163","Match","Exact","1038 RICHARD AVE, BERKELEY, IL, 60163",111724701,"R"
10899,"1038 S ROBERTSON BLVD  STE 4","LOS ANGELES","CA",90035,34.0584328740001,-118.383628091,399,"1038 S ROBERTSON BLVD  STE 4, LOS ANGELES, CA, 90035","Match","Non_Exact","1038 S ROBERTSON BLVD, LOS ANGELES, CA, 90035",141573004,"L"
10900,"1038 S WHITCOMB AVE","INDIANAPOLIS","IN",46241,39.7527820020001,-86.2574241469999,400,"1038 S WHITCOMB AVE, INDIANAPOLIS, IN, 46241","Match","Exact","1038 S WHITCOMB AVE, INDIANAPOLIS, IN, 46241",107979905,"R"
10901,"1038 SANTA QUETA","SOLANA BEACH","CA",92075,33.0069645630001,-117.253212884,401,"1038 SANTA QUETA, SOLANA BEACH, CA, 92075","Match","Exact","1038 SANTA QUETA, SOLANA BEACH, CA, 92075",195294107,"L"
10902,"1038 SLEEPY HOLLOW LANE","PLAINFIELD","NJ",7060,40.620609044,-74.3954906289999,402,"1038 SLEEPY HOLLOW LANE, PLAINFIELD, NJ, 7060","Match","Exact","1038 SLEEPY HOLLOW LN, PLAINFIELD, NJ, 07060",60560786,"R"
10903,"1038 SW BARBAROSA AVE","PORT ST LUCIE","FL",34953,27.248117848,-80.380568177,403,"1038 SW BARBAROSA AVE, PORT ST LUCIE, FL, 34953","Match","Exact","1038 SW BARBAROSA AVE, PORT ST LUCIE, FL, 34953",120143481,"R"
10904,"1038 TUDOR DRIVE","CROWNSVILLE","MD",21032,39.069332516,-76.592684349,404,"1038 TUDOR DRIVE, CROWNSVILLE, MD, 21032","Match","Exact","1038 TUDOR DR, CROWNSVILLE, MD, 21032",68191008,"L"
10905,"1038 VIA BOLZANO","GOLETA","CA",93117,34.457209676,-119.822148024,405,"1038 VIA BOLZANO, GOLETA, CA, 93117","Match","Exact","1038 VIA BOLZANO, GOLETA, CA, 93117",108601562,"R"
10906,"1038 WELLINGTON DRIVE","CHARLESTON","SC",29412,32.7424766410001,-79.939501676,406,"1038 WELLINGTON DRIVE, CHARLESTON, SC, 29412","Match","Exact","1038 WELLINGTON DR, CHARLESTON, SC, 29412",108827713,"L"
10907,"1038 WEST MAIN STREET","OLNEY","IL",62450,38.7299323290001,-88.0994774169999,407,"1038 WEST MAIN STREET, OLNEY, IL, 62450","Match","Exact","1038 W MAIN ST, OLNEY, IL, 62450",29956192,"L"
10908,"1038 WILLIS DRIVE","JACKSONVILLE","FL",32205,30.311907616,-81.7090062669999,408,"1038 WILLIS DRIVE, JACKSONVILLE, FL, 32205","Match","Exact","1038 WILLIS DR, JACKSONVILLE, FL, 32205",83894384,"R"
10909,"1038 WINDSOR DRIVE","GALLATIN","TN",37066,36.327774193,-86.4933283729999,409,"1038 WINDSOR DRIVE, GALLATIN, TN, 37066","Match","Exact","1038 WINDSOR DR, GALLATIN, TN, 37066",29785753,"R"
10910,"10380 EAST HIGHWAY 210","ALTA","UT",84092,NA,NA,410,"10380 EAST HIGHWAY 210, ALTA, UT, 84092","No_Match",NA,NA,NA,NA
10911,"10380 SW 248TH STREET UNIT 7","PRINCETON","FL",33032,NA,NA,411,"10380 SW 248TH STREET UNIT 7, PRINCETON, FL, 33032","No_Match",NA,NA,NA,NA
10912,"10380 SW VILLAGE CENTER DR BOX 362","PORT ST LUCIE","FL",34987,27.2679904500001,-80.4309469149999,412,"10380 SW VILLAGE CENTER DR BOX 362, PORT ST LUCIE, FL, 34987","Match","Non_Exact","10380 SW VILLAGE CENTER DR, PORT ST LUCIE, FL, 34987",640803575,"R"
10913,"10380 SW VILLAGE CENTER DR STE 173","PORT SAINT LUCIE","FL",34987,27.2679904500001,-80.4309469149999,413,"10380 SW VILLAGE CENTER DR STE 173, PORT SAINT LUCIE, FL, 34987","Match","Non_Exact","10380 SW VILLAGE CENTER DR, PORT ST LUCIE, FL, 34987",640803575,"R"
10914,"10380 SW VILLAGE CENTER DR","PORT ST LUCIE","FL",34987,27.2679904500001,-80.4309469149999,414,"10380 SW VILLAGE CENTER DR, PORT ST LUCIE, FL, 34987","Match","Exact","10380 SW VILLAGE CENTER DR, PORT ST LUCIE, FL, 34987",640803575,"R"
10915,"10381 COVE AVENUE","PENSACOLA","FL",32534,30.547596734,-87.287412113,415,"10381 COVE AVENUE, PENSACOLA, FL, 32534","Match","Exact","10381 COVE AVE, PENSACOLA, FL, 32534",617456125,"R"
10916,"10381 HARRY MCDONALD RD","EAGLE RIVER","AK",99577,NA,NA,416,"10381 HARRY MCDONALD RD, EAGLE RIVER, AK, 99577","No_Match",NA,NA,NA,NA
10917,"10381 NORTHWEST FREEWAY SUITE 238","HOUSTON","TX",77040,NA,NA,417,"10381 NORTHWEST FREEWAY SUITE 238, HOUSTON, TX, 77040","No_Match",NA,NA,NA,NA
10918,"10381 NOTTINGHAM AVE","WESTMINSTER","CA",92683,33.7385884880001,-117.948049997,418,"10381 NOTTINGHAM AVE, WESTMINSTER, CA, 92683","Match","Exact","10381 NOTTINGHAM AVE, WESTMINSTER, CA, 92683",144037708,"L"
10919,"10381 S MULINO RD CANBY","CANBY","OR",97013,45.247848177,-122.661343377,419,"10381 S MULINO RD CANBY, CANBY, OR, 97013","Match","Non_Exact","10381 S MULINO RD, CANBY, OR, 97013",157961177,"R"
10920,"10381 US HWY 301 SOUTH","FOUR OAKS","NC",27524,35.412335678,-78.502238023,420,"10381 US HWY 301 SOUTH, FOUR OAKS, NC, 27524","Match","Non_Exact","10381 US HWY 301, FOUR OAKS, NC, 27524",26527711,"R"
10921,"10383 FRANK LANE","SANTEE","CA",92071,32.8509547990001,-116.971554323,421,"10383 FRANK LANE, SANTEE, CA, 92071","Match","Exact","10383 FRANK LN, SANTEE, CA, 92071",195661522,"R"
10922,"10383 NEW BRUNSWICK ST","PORT CHARLOTTE","FL",33981,26.8737015360001,-82.2227937119999,422,"10383 NEW BRUNSWICK ST, PORT CHARLOTTE, FL, 33981","Match","Exact","10383 NEW BRUNSWICK ST, PORT CHARLOTTE, FL, 33981",4324570,"R"
10923,"10383 SOUTH MORROW CIRCLE","DEARBORN","MI",48126,42.346487197,-83.162176184,423,"10383 SOUTH MORROW CIRCLE, DEARBORN, MI, 48126","Match","Exact","10383 S MORROW CIR, DEARBORN, MI, 48126",95443317,"L"
10924,"10383 SW 186TH STREET","MIAMI","FL",33157,NA,NA,424,"10383 SW 186TH STREET, MIAMI, FL, 33157","No_Match",NA,NA,NA,NA
10925,"10383 WHITE PALM WAY","FORT MYERS","FL",33966,26.5931248950001,-81.8164750019999,425,"10383 WHITE PALM WAY, FORT MYERS, FL, 33966","Match","Exact","10383 WHITE PALM WAY, FORT MYERS, FL, 33966",118114553,"L"
10926,"10384 N TAMARACK WAY","CEDAR HILLS","UT",84602,40.420982757,-111.749924191,426,"10384 N TAMARACK WAY, CEDAR HILLS, UT, 84602","Match","Non_Exact","10384 TAMARACK WAY, CEDAR HILLS, UT, 84062",647658670,"L"
10927,"10384 SO 2950 WEST","SOUTH JORDAN","UT",84095,40.56267711,-111.962400351,427,"10384 SO 2950 WEST, SOUTH JORDAN, UT, 84095","Match","Exact","10384 S 2950 W, SOUTH JORDAN, UT, 84095",645873388,"R"
10928,"10385 IRONWOOD RD SUITE 134","PALM BEACH GARDENS","FL",33410,26.828989376,-80.0919024039999,428,"10385 IRONWOOD RD SUITE 134, PALM BEACH GARDENS, FL, 33410","Match","Exact","10385 IRONWOOD RD, PALM BEACH GARDENS, FL, 33410",115263996,"L"
10929,"10385 ROCKFISH ROAD","RAEFORD","NC",28376,34.9535339030001,-79.053495391,429,"10385 ROCKFISH ROAD, RAEFORD, NC, 28376","Match","Exact","10385 ROCKFISH RD, RAEFORD, NC, 28376",76172945,"R"
10930,"10385 W ROCKWOOD ST","BOISE","ID",83704,43.6509347210001,-116.310906065,430,"10385 W ROCKWOOD ST, BOISE, ID, 83704","Match","Exact","10385 W ROCKWOOD ST, BOISE, ID, 83704",117879839,"R"
10931,"10386 CYPRESS LAKES DRIVE","JACKSONVILLE","FL",32256,30.174466103,-81.52965363,431,"10386 CYPRESS LAKES DRIVE, JACKSONVILLE, FL, 32256","Match","Exact","10386 CYPRESS LAKES DR, JACKSONVILLE, FL, 32256",83951672,"R"
10932,"10386 LOCHCREST DR","CINCINNAT","OH",45231,39.257126225,-84.489381383,432,"10386 LOCHCREST DR, CINCINNAT, OH, 45231","Match","Non_Exact","10386 LOCHCREST DR, CINCINNATI, OH, 45231",103944154,"R"
10933,"10387 S  DUPONT HWY","FELTON","DE",19943,39.021316298,-75.5646462889999,433,"10387 S  DUPONT HWY, FELTON, DE, 19943","Match","Exact","10387 S DUPONT HWY, FELTON, DE, 19943",636745374,"R"
10934,"10387 WATER CHEST DRIVE","FISHERS","IN",46038,NA,NA,434,"10387 WATER CHEST DRIVE, FISHERS, IN, 46038","No_Match",NA,NA,NA,NA
10935,"10388 KALAMAZOO AVE","CALEDONIA","MI",49316,42.77561274,-85.618846646,435,"10388 KALAMAZOO AVE, CALEDONIA, MI, 49316","Match","Non_Exact","10388 KALAMAZOO AVE SE, CALEDONIA, MI, 49316",652807385,"L"
10936,"10388 LONGLEAF DR","CONROE","TX",77385,30.166824048,-95.413890184,436,"10388 LONGLEAF DR, CONROE, TX, 77385","Match","Exact","10388 LONGLEAF DR, CONROE, TX, 77385",79284919,"R"
10937,"10388 OLD ATLANTA HWY","COVINGTON","GA",30014,33.6139600330001,-83.889694,437,"10388 OLD ATLANTA HWY, COVINGTON, GA, 30014","Match","Exact","10388 OLD ATLANTA HWY, COVINGTON, GA, 30014",23624197,"R"
10938,"10388 SE 187TH PL","RENTON","WA",98055,47.4342880250001,-122.202155133,438,"10388 SE 187TH PL, RENTON, WA, 98055","Match","Exact","10388 SE 187TH PL, RENTON, WA, 98055",186706918,"R"
10939,"10388 SOUTH RANDALL STREET","ORANGE","CA",92869,33.8116156780001,-117.780538791,439,"10388 SOUTH RANDALL STREET, ORANGE, CA, 92869","Match","Exact","10388 S RANDALL ST, ORANGE, CA, 92869",144418539,"L"
10940,"10389 KUMQUAT LN","SEMINOLE","FL",33772,27.824955006,-82.7826221399999,440,"10389 KUMQUAT LN, SEMINOLE, FL, 33772","Match","Exact","10389 KUMQUAT LN, SEMINOLE, FL, 33772",124691967,"R"
10941,"1039 240TH AVENUE","SHANNON CITY","IA",50861,NA,NA,441,"1039 240TH AVENUE, SHANNON CITY, IA, 50861","No_Match",NA,NA,NA,NA
10942,"1039 44TH AVENUE NORTH SUITE 203","MYRTLE BEACH","SC",29577,NA,NA,442,"1039 44TH AVENUE NORTH SUITE 203, MYRTLE BEACH, SC, 29577","No_Match",NA,NA,NA,NA
10943,"1039 BAINS LAKE DRIVE","JACKSONVILLE","FL",32218,30.5201737020001,-81.646782603,443,"1039 BAINS LAKE DRIVE, JACKSONVILLE, FL, 32218","Match","Exact","1039 BAINS LAKE DR, JACKSONVILLE, FL, 32218",624612484,"R"
10944,"1039 BANDELIER DR","ALLEN","TX",75013,33.126398264,-96.690202975,444,"1039 BANDELIER DR, ALLEN, TX, 75013","Match","Exact","1039 BANDELIER DR, ALLEN, TX, 75013",210527921,"L"
10945,"1039 BASIN ROAD","COLVILLE","WA",99114,48.426165541,-117.98085211,445,"1039 BASIN ROAD, COLVILLE, WA, 99114","Match","Exact","1039 BASIN RD, COLVILLE, WA, 99114",627573912,"R"
10946,"1039 CR 2450","SHELBYVILLE","TX",75973,NA,NA,446,"1039 CR 2450, SHELBYVILLE, TX, 75973","No_Match",NA,NA,NA,NA
10947,"1039 E BRENNER PL","LONG BEACH","CA",90813,33.776482147,-118.179273282,447,"1039 E BRENNER PL, LONG BEACH, CA, 90813","Match","Exact","1039 BRENNER PL, LONG BEACH, CA, 90813",640413359,"L"
10948,"1039 E OVERCREST ST","FAYETTEVILLE","AR",72703,NA,NA,448,"1039 E OVERCREST ST, FAYETTEVILLE, AR, 72703","Tie",NA,NA,NA,NA
10949,"1039 E W REEVES","PORT GIBSON","MS",39150,31.931011735,-90.983069944,449,"1039 E W REEVES, PORT GIBSON, MS, 39150","Match","Non_Exact","1039 E W REEVES DR, PORT GIBSON, MS, 39150",65137078,"L"
10950,"1039 EAST HEARNE WAY","GILBERT","AZ",85234,33.3565929660001,-111.766969556,450,"1039 EAST HEARNE WAY, GILBERT, AZ, 85234","Match","Exact","1039 E HEARNE WAY, GILBERT, AZ, 85234",128342372,"L"
10951,"1039 EMERY ST","EAU CLAIRE","WI",54701,44.810753806,-91.487304098,451,"1039 EMERY ST, EAU CLAIRE, WI, 54701","Match","Exact","1039 EMERY ST, EAU CLAIRE, WI, 54701",46067919,"R"
10952,"1039 FALLS AVENUE","CUYAHOGA FALLS","OH",44221,41.132854697,-81.4960133019999,452,"1039 FALLS AVENUE, CUYAHOGA FALLS, OH, 44221","Match","Exact","1039 FALLS AVE, CUYAHOGA FALLS, OH, 44221",61348112,"R"
10953,"1039 FOLGER AVENUE","BERKELEY","CA",94710,37.850453169,-122.288990078,453,"1039 FOLGER AVENUE, BERKELEY, CA, 94710","Match","Exact","1039 FOLGER AVE, BERKELEY, CA, 94710",636427592,"L"
10954,"1039 FOSTER CITY BLVD APT D","FOSTER CITY","CA",94404,37.554644631,-122.257198397,454,"1039 FOSTER CITY BLVD APT D, FOSTER CITY, CA, 94404","Match","Exact","1039 FOSTER CITY BLVD, FOSTER CITY, CA, 94404",648177640,"L"
10955,"1039 GOLDENROD STREET","ESCONDIDO","CA",92027,33.1476354960001,-117.060111931,455,"1039 GOLDENROD STREET, ESCONDIDO, CA, 92027","Match","Exact","1039 GOLDENROD ST, ESCONDIDO, CA, 92027",195312903,"L"
10956,"1039 HEATHER COURT","CRYSTAL LAKE","IL",60021,42.1959574640001,-88.2026805369999,456,"1039 HEATHER COURT, CRYSTAL LAKE, IL, 60021","Match","Non_Exact","1039 HEATHER CT, FOX RIVER GROVE, IL, 60021",119839281,"R"
10957,"1039 LAGUNA SECA LOOP","CHULA VISTA","CA",91915,32.644079311,-116.965114042,457,"1039 LAGUNA SECA LOOP, CHULA VISTA, CA, 91915","Match","Exact","1039 LAGUNA SECA LOOP, CHULA VISTA, CA, 91915",195691118,"L"
10958,"1039 LAWRENCE ROAD","LAWRENCEVILLE","NJ",8648,40.2618021000001,-74.741173795,458,"1039 LAWRENCE ROAD, LAWRENCEVILLE, NJ, 8648","Match","Exact","1039 LAWRENCE RD, LAWRENCEVILLE, NJ, 08648",60171681,"L"
10959,"1039 MAIN ROAD","LOCKE","NY",13092,42.672458529,-76.4494630889999,459,"1039 MAIN ROAD, LOCKE, NY, 13092","Match","Exact","1039 MAIN RD, LOCKE, NY, 13092",33526946,"L"
10960,"1039 MARBANK ST","WAKE FOREST","NC",27587,NA,NA,460,"1039 MARBANK ST, WAKE FOREST, NC, 27587","No_Match",NA,NA,NA,NA
10961,"1039 MIRAFLORES DR","CORONA","CA",92882,33.8437383460001,-117.586334328,461,"1039 MIRAFLORES DR, CORONA, CA, 92882","Match","Exact","1039 MIRAFLORES DR, CORONA, CA, 92882",194872230,"R"
10962,"1039 NIAGARA STREET STE 3","BUFFALO","NY",14213,42.9119838280001,-78.8998230179999,462,"1039 NIAGARA STREET STE 3, BUFFALO, NY, 14213","Match","Exact","1039 NIAGARA ST, BUFFALO, NY, 14213",48339608,"R"
10963,"1039 NIAGARA STREET SUITE 3","BUFFALO","NY",14213,42.9119838280001,-78.8998230179999,463,"1039 NIAGARA STREET SUITE 3, BUFFALO, NY, 14213","Match","Exact","1039 NIAGARA ST, BUFFALO, NY, 14213",48339608,"R"
10964,"1039 NW 7TH TER   UNIT 1","FORT LAUDERDALE","FL",33311,26.1373906090001,-80.151942057,464,"1039 NW 7TH TER   UNIT 1, FORT LAUDERDALE, FL, 33311","Match","Non_Exact","1039 NW 7TH TER, FORT LAUDERDALE, FL, 33311",637279294,"L"
10965,"1039 PARK COURT DR","MEMPHIS","TN",38119,35.103270208,-89.880344796,465,"1039 PARK COURT DR, MEMPHIS, TN, 38119","Match","Exact","1039 PARK COURT DR, MEMPHIS, TN, 38119",72971677,"R"
10966,"1039 PINE LOG RD NE APT 4","CONYERS","GA",30012,NA,NA,466,"1039 PINE LOG RD NE APT 4, CONYERS, GA, 30012","No_Match",NA,NA,NA,NA
10967,"1039 PINE TREE DRIVE","ANN ARBOR","MI",48103,42.2911915720001,-83.767007829,467,"1039 PINE TREE DRIVE, ANN ARBOR, MI, 48103","Match","Exact","1039 PINE TREE DR, ANN ARBOR, MI, 48103",26011730,"L"
10968,"1039 ROLLING RIDGE","NEW WINDSOR","NY",12553,41.458363707,-74.072383805,468,"1039 ROLLING RIDGE, NEW WINDSOR, NY, 12553","Match","Exact","1039 ROLLING RIDGE, NEW WINDSOR, NY, 12553",124500037,"L"
10969,"1039 RUE MALINE","SAINT MARTINVILLE","LA",70582,NA,NA,469,"1039 RUE MALINE, SAINT MARTINVILLE, LA, 70582","No_Match",NA,NA,NA,NA
10970,"1039 S PARKER RD APT E3","DENVER","CO",80231,39.6979726160001,-104.90204207,470,"1039 S PARKER RD APT E3, DENVER, CO, 80231","Match","Non_Exact","1039 S PARKER RD, DENVER, CO, 80231",652264951,"R"
10971,"1039 S PARKER RD B11","DENVER","CO",80231,39.6979726160001,-104.90204207,471,"1039 S PARKER RD B11, DENVER, CO, 80231","Match","Non_Exact","1039 S PARKER RD, DENVER, CO, 80231",652264951,"R"
10972,"1039 SHAWNEE TRAIL","ELKVIEW","WV",25071,38.402470039,-81.512431294,472,"1039 SHAWNEE TRAIL, ELKVIEW, WV, 25071","Match","Exact","1039 SHAWNEE TRL, ELKVIEW, WV, 25071",78622603,"R"
10973,"1039 SOUTH 1200 EAST","SALT LAKE CITY","UT",84105,40.7465046400001,-111.856572761,473,"1039 SOUTH 1200 EAST, SALT LAKE CITY, UT, 84105","Match","Exact","1039 S 1200 E, SALT LAKE CITY, UT, 84105",176080617,"L"
10974,"1039 ST JOHN DR","PEARLAND","TX",77584,29.57213884,-95.367693699,474,"1039 ST JOHN DR, PEARLAND, TX, 77584","Match","Exact","1039 ST JOHN DR, PEARLAND, TX, 77584",116593500,"R"
10975,"1039 STERLING ST S","MAPLEWOOD","MN",55119,44.9100488810001,-92.994479366,475,"1039 STERLING ST S, MAPLEWOOD, MN, 55119","Match","Exact","1039 STERLING ST S, MAPLEWOOD, MN, 55119",97663160,"R"
10976,"1039 W GENEVA WOODS COURT","PRESCOTT","AZ",86305,34.585692555,-112.484877302,476,"1039 W GENEVA WOODS COURT, PRESCOTT, AZ, 86305","Match","Exact","1039 GENEVA WOODS CT, PRESCOTT, AZ, 86305",159458566,"L"
10977,"1039 WEST 24TH","ERIE","PA",16508,NA,NA,477,"1039 WEST 24TH, ERIE, PA, 16508","No_Match",NA,NA,NA,NA
10978,"1039 WEST 30TH STREET","LOS ANGELES","CA",90007,34.027431655,-118.285090385,478,"1039 WEST 30TH STREET, LOS ANGELES, CA, 90007","Match","Exact","1039 W 30TH ST, LOS ANGELES, CA, 90007",141607132,"R"
10979,"1039 WEST GRACE STREET - UNIT 1","CHICAGO","IL",60613,41.9510950110001,-87.656030254,479,"1039 WEST GRACE STREET - UNIT 1, CHICAGO, IL, 60613","Match","Exact","1039 W GRACE ST, CHICAGO, IL, 60613",605237781,"L"
10980,"1039 WHITE CAP AVE","MANAHAWKIN","NJ",8050,39.725479211,-74.2763105449999,480,"1039 WHITE CAP AVE, MANAHAWKIN, NJ, 8050","Match","Exact","1039 WHITE CAP AVE, MANAHAWKIN, NJ, 08050",203704373,"R"
10981,"1039 WILMINGTON PIKE","WEST CHESTER","PA",19382,39.9327403500001,-75.587500161,481,"1039 WILMINGTON PIKE, WEST CHESTER, PA, 19382","Match","Exact","1039 WILMINGTON PIKE, WEST CHESTER, PA, 19382",645859269,"L"
10982,"1039 WOODLAND AVE SE","ATLANTA","GA",30316,33.726113964,-84.352474806,482,"1039 WOODLAND AVE SE, ATLANTA, GA, 30316","Match","Exact","1039 WOODLAND AVE SE, ATLANTA, GA, 30316",17358476,"R"
10983,"10390 KAHLER AVE NE","MONTICELLO","MN",55362,45.2961987510001,-93.676828189,483,"10390 KAHLER AVE NE, MONTICELLO, MN, 55362","Match","Exact","10390 KAHLER AVE NE, MONTICELLO, MN, 55362",43988562,"R"
10984,"10390 MORETTI DR","CUPERTINO","CA",95014,37.3171912010001,-122.002433384,484,"10390 MORETTI DR, CUPERTINO, CA, 95014","Match","Exact","10390 MORETTI DR, CUPERTINO, CA, 95014",122942013,"L"
10985,"10390 NW 20TH CT","SUNRISE","FL",33322,26.15038309,-80.287369015,485,"10390 NW 20TH CT, SUNRISE, FL, 33322","Match","Exact","10390 NW 20TH CT, SUNRISE, FL, 33322",114698219,"L"
10986,"10390 USA TODAY WAY","MIRAMAR","FL",33025,25.976778648,-80.283124828,486,"10390 USA TODAY WAY, MIRAMAR, FL, 33025","Match","Exact","10390 USA TODAY WAY, MIRAMAR, FL, 33025",114770690,"L"
10987,"10390 WEST WINDCHIME DR","TUCSON","AZ",85743,32.347228708,-111.186253229,487,"10390 WEST WINDCHIME DR, TUCSON, AZ, 85743","Match","Exact","10390 W WINDCHIME DR, TUCSON, AZ, 85743",121226687,"R"
10988,"10391 NORTHERN HILLS AVE","LAS VEGAS","NV",89166,36.28877011,-115.322217119,488,"10391 NORTHERN HILLS AVE, LAS VEGAS, NV, 89166","Match","Exact","10391 NORTHERN HILLS AVE, LAS VEGAS, NV, 89166",629930282,"L"
10989,"10391 PISGAH FOREST LN","CORDOVA","TN",38016,35.167025274,-89.7160906679999,489,"10391 PISGAH FOREST LN, CORDOVA, TN, 38016","Match","Exact","10391 PISGAH FOREST LN, CORDOVA, TN, 38016",612564170,"R"
10990,"10391 WATERSIDE CT","PARKLAND","FL",33076,26.3374370830001,-80.265839346,490,"10391 WATERSIDE CT, PARKLAND, FL, 33076","Match","Exact","10391 WATERSIDE CT, PARKLAND, FL, 33076",648596478,"R"
10991,"10392 ISLANDER DR","BOCA RATON","FL",33498,26.395075574,-80.2108927529999,491,"10392 ISLANDER DR, BOCA RATON, FL, 33498","Match","Exact","10392 ISLANDER DR, BOCA RATON, FL, 33498",115575490,"R"
10992,"10392 VILLAGE DRIVE EAST","FORISTELL","MO",63348,38.8622662010001,-90.962019433,492,"10392 VILLAGE DRIVE EAST, FORISTELL, MO, 63348","Match","Exact","10392 VILLAGE DR E, FORISTELL, MO, 63348",90094312,"R"
10993,"10393 SAN DIEGO MISSION RD STE 209","SAN DIEGO","CA",92108,NA,NA,493,"10393 SAN DIEGO MISSION RD STE 209, SAN DIEGO, CA, 92108","No_Match",NA,NA,NA,NA
10994,"10393 SEIDEL RD","WINTER GARDEN","FL",34787,28.4198776650001,-81.62781361,494,"10393 SEIDEL RD, WINTER GARDEN, FL, 34787","Match","Exact","10393 SEIDEL RD, WINTER GARDEN, FL, 34787",650659839,"L"
10995,"10394 W SAMPLE ROAD SUITE 200","CORAL SPRINGS","FL",33065,26.272494647,-80.264504798,495,"10394 W SAMPLE ROAD SUITE 200, CORAL SPRINGS, FL, 33065","Match","Non_Exact","10394 W SAMPLE RD, CORAL SPRINGS, FL, 33065",637059256,"R"
10996,"10395 HEIMBERGER RD","BALTIMORE","OH",43105,39.8796213850001,-82.661072113,496,"10395 HEIMBERGER RD, BALTIMORE, OH, 43105","Match","Non_Exact","10395 HEIMBERGER RD NW, BALTIMORE, OH, 43105",37215631,"L"
10997,"10395 NOONTIDE AVE","LAS VEGAS","NV",89135,36.1525780850001,-115.320344761,497,"10395 NOONTIDE AVE, LAS VEGAS, NV, 89135","Match","Exact","10395 NOONTIDE AVE, LAS VEGAS, NV, 89135",201997443,"L"
10998,"10395 SOQUEL DRIVE","APTOS","CA",95003,36.9695929010001,-121.870955064,498,"10395 SOQUEL DRIVE, APTOS, CA, 95003","Match","Exact","10395 SOQUEL DR, APTOS, CA, 95003",652198602,"L"
10999,"10396 SNOWBIRD AVE","WEEKI WACHEE","FL",34614,28.6472779260001,-82.548379411,499,"10396 SNOWBIRD AVE, WEEKI WACHEE, FL, 34614","Match","Exact","10396 SNOWBIRD AVE, WEEKI WACHEE, FL, 34614",85442213,"L"
11000,"10396 TUSCANY RD","ELLICOTT CITY","MD",21042,39.2752915560001,-76.8728171939999,500,"10396 TUSCANY RD, ELLICOTT CITY, MD, 21042","Match","Exact","10396 TUSCANY RD, ELLICOTT CITY, MD, 21042",158922307,"R"
