"ID","Address","City","State","Zip","lat","long","id","input_address","match_indicator","match_type","matched_address","tiger_line_id","tiger_side"
329501,"PO BOX 1007","UMATILLA","FL",32784,NA,NA,1,"PO BOX 1007, UMATILLA, FL, 32784","No_Match",NA,NA,NA,NA
329502,"PO BOX 1008","BUFFALO","MO",65622,NA,NA,2,"PO BOX 1008, BUFFALO, MO, 65622","No_Match",NA,NA,NA,NA
329503,"PO BOX 1008","COLUMBUS","OH",43216,NA,NA,3,"PO BOX 1008, COLUMBUS, OH, 43216","No_Match",NA,NA,NA,NA
329504,"PO BOX 1008","DOBSON","NC",27030,NA,NA,4,"PO BOX 1008, DOBSON, NC, 27030","No_Match",NA,NA,NA,NA
329505,"PO BOX 1008","DRIPPING SPRINGS","TX",78620,NA,NA,5,"PO BOX 1008, DRIPPING SPRINGS, TX, 78620","No_Match",NA,NA,NA,NA
329506,"PO BOX 1008","LAKEWOOD","CA",90714,NA,NA,6,"PO BOX 1008, LAKEWOOD, CA, 90714","No_Match",NA,NA,NA,NA
329507,"PO BOX 1008","SPARKS","MD",21153,NA,NA,7,"PO BOX 1008, SPARKS, MD, 21153","No_Match",NA,NA,NA,NA
329508,"PO BOX 10084","OAKLAND","CA",94610,NA,NA,8,"PO BOX 10084, OAKLAND, CA, 94610","No_Match",NA,NA,NA,NA
329509,"PO BOX 10086","BAINBRIDGE ISLAND","WA",98110,NA,NA,9,"PO BOX 10086, BAINBRIDGE ISLAND, WA, 98110","No_Match",NA,NA,NA,NA
329510,"PO BOX 1009","EAST JORDAN","MI",49727,NA,NA,10,"PO BOX 1009, EAST JORDAN, MI, 49727","No_Match",NA,NA,NA,NA
329511,"PO BOX 1009","FAIRCHILD AFB","WA",99011,NA,NA,11,"PO BOX 1009, FAIRCHILD AFB, WA, 99011","No_Match",NA,NA,NA,NA
329512,"PO BOX 1009","GYPSUM","CO",81637,NA,NA,12,"PO BOX 1009, GYPSUM, CO, 81637","No_Match",NA,NA,NA,NA
329513,"PO BOX 1009","INDIANOLA","MS",38751,NA,NA,13,"PO BOX 1009, INDIANOLA, MS, 38751","No_Match",NA,NA,NA,NA
329514,"PO BOX 1009","LA GRANGE","TX",78945,NA,NA,14,"PO BOX 1009, LA GRANGE, TX, 78945","No_Match",NA,NA,NA,NA
329515,"PO BOX 1009","LAKE PARK","GA",31636,NA,NA,15,"PO BOX 1009, LAKE PARK, GA, 31636","No_Match",NA,NA,NA,NA
329516,"PO BOX 1009","STRASBURG","CO",80136,NA,NA,16,"PO BOX 1009, STRASBURG, CO, 80136","No_Match",NA,NA,NA,NA
329517,"PO BOX 10096","GREEN BAY","WI",54307,NA,NA,17,"PO BOX 10096, GREEN BAY, WI, 54307","No_Match",NA,NA,NA,NA
329518,"PO BOX 100963","BROOKLYN","NY",11210,NA,NA,18,"PO BOX 100963, BROOKLYN, NY, 11210","No_Match",NA,NA,NA,NA
329519,"PO BOX 10098","RUSSELLVILLE","AR",72802,NA,NA,19,"PO BOX 10098, RUSSELLVILLE, AR, 72802","No_Match",NA,NA,NA,NA
329520,"PO BOX 10099","PHOENIX","AZ",85064,NA,NA,20,"PO BOX 10099, PHOENIX, AZ, 85064","No_Match",NA,NA,NA,NA
329521,"PO BOX 101","BASYE","VA",22810,NA,NA,21,"PO BOX 101, BASYE, VA, 22810","No_Match",NA,NA,NA,NA
329522,"PO BOX 101","BOOTHBAY HARBOR","ME",4538,NA,NA,22,"PO BOX 101, BOOTHBAY HARBOR, ME, 4538","No_Match",NA,NA,NA,NA
329523,"PO BOX 101","BRADFORD","VT",5033,NA,NA,23,"PO BOX 101, BRADFORD, VT, 5033","No_Match",NA,NA,NA,NA
329524,"PO BOX 101","CARDIFF","CA",92007,NA,NA,24,"PO BOX 101, CARDIFF, CA, 92007","No_Match",NA,NA,NA,NA
329525,"PO BOX 101","CLITHERALL","MN",56524,NA,NA,25,"PO BOX 101, CLITHERALL, MN, 56524","No_Match",NA,NA,NA,NA
329526,"PO BOX 101","EVANSVILLE","WI",53536,NA,NA,26,"PO BOX 101, EVANSVILLE, WI, 53536","No_Match",NA,NA,NA,NA
329527,"PO BOX 101","FITZGERALD","GA",31750,NA,NA,27,"PO BOX 101, FITZGERALD, GA, 31750","No_Match",NA,NA,NA,NA
329528,"PO BOX 101","FORMAN","ND",58032,NA,NA,28,"PO BOX 101, FORMAN, ND, 58032","No_Match",NA,NA,NA,NA
329529,"PO BOX 101","GADSDEN","AL",35902,NA,NA,29,"PO BOX 101, GADSDEN, AL, 35902","No_Match",NA,NA,NA,NA
329530,"PO BOX 101","GRAND JUNCTION","CO",81502,NA,NA,30,"PO BOX 101, GRAND JUNCTION, CO, 81502","No_Match",NA,NA,NA,NA
329531,"PO BOX 101","GRAYSLAKE","IL",60030,NA,NA,31,"PO BOX 101, GRAYSLAKE, IL, 60030","No_Match",NA,NA,NA,NA
329532,"PO BOX 101","HAZEL GREEN","AL",35750,NA,NA,32,"PO BOX 101, HAZEL GREEN, AL, 35750","No_Match",NA,NA,NA,NA
329533,"PO BOX 101","HIGHLAND FALLS","NY",10996,NA,NA,33,"PO BOX 101, HIGHLAND FALLS, NY, 10996","No_Match",NA,NA,NA,NA
329534,"PO BOX 101","HILLSBORO","MO",63050,NA,NA,34,"PO BOX 101, HILLSBORO, MO, 63050","No_Match",NA,NA,NA,NA
329535,"PO BOX 101","HOLLIDAYSBURG","PA",16648,NA,NA,35,"PO BOX 101, HOLLIDAYSBURG, PA, 16648","No_Match",NA,NA,NA,NA
329536,"PO BOX 101","HOMER","IL",61849,NA,NA,36,"PO BOX 101, HOMER, IL, 61849","No_Match",NA,NA,NA,NA
329537,"PO BOX 101","JASONVILLE","IN",47438,NA,NA,37,"PO BOX 101, JASONVILLE, IN, 47438","No_Match",NA,NA,NA,NA
329538,"PO BOX 101","KENSINGTON","MN",56343,NA,NA,38,"PO BOX 101, KENSINGTON, MN, 56343","No_Match",NA,NA,NA,NA
329539,"PO BOX 101","LINDSAY","OK",73052,NA,NA,39,"PO BOX 101, LINDSAY, OK, 73052","No_Match",NA,NA,NA,NA
329540,"PO BOX 101","MARTINS FERRY","OH",43935,NA,NA,40,"PO BOX 101, MARTINS FERRY, OH, 43935","No_Match",NA,NA,NA,NA
329541,"PO BOX 101","MIDWAY","UT",84049,NA,NA,41,"PO BOX 101, MIDWAY, UT, 84049","No_Match",NA,NA,NA,NA
329542,"PO BOX 101","MILES CITY","MT",59301,NA,NA,42,"PO BOX 101, MILES CITY, MT, 59301","No_Match",NA,NA,NA,NA
329543,"PO BOX 101","NEW CHURCH","VA",23415,NA,NA,43,"PO BOX 101, NEW CHURCH, VA, 23415","No_Match",NA,NA,NA,NA
329544,"PO BOX 101","NEW IPSWICH","NH",3071,NA,NA,44,"PO BOX 101, NEW IPSWICH, NH, 3071","No_Match",NA,NA,NA,NA
329545,"PO BOX 101","OSWEGO","NY",13126,NA,NA,45,"PO BOX 101, OSWEGO, NY, 13126","No_Match",NA,NA,NA,NA
329546,"PO BOX 101","OURAY","CO",81427,NA,NA,46,"PO BOX 101, OURAY, CO, 81427","No_Match",NA,NA,NA,NA
329547,"PO BOX 101","PAGO PGAO","AS",96799,NA,NA,47,"PO BOX 101, PAGO PGAO, AS, 96799","No_Match",NA,NA,NA,NA
329548,"PO BOX 101","PIEDMONT","SD",57769,NA,NA,48,"PO BOX 101, PIEDMONT, SD, 57769","No_Match",NA,NA,NA,NA
329549,"PO BOX 101","PORT MURRAY","NJ",7865,NA,NA,49,"PO BOX 101, PORT MURRAY, NJ, 7865","No_Match",NA,NA,NA,NA
329550,"PO BOX 101","RADIUM SPRINGS","NM",88054,NA,NA,50,"PO BOX 101, RADIUM SPRINGS, NM, 88054","No_Match",NA,NA,NA,NA
329551,"PO BOX 101","READING","MI",49274,NA,NA,51,"PO BOX 101, READING, MI, 49274","No_Match",NA,NA,NA,NA
329552,"PO BOX 101","REYNOLDS","GA",30176,NA,NA,52,"PO BOX 101, REYNOLDS, GA, 30176","No_Match",NA,NA,NA,NA
329553,"PO BOX 101","ROCHESTER","TX",79544,NA,NA,53,"PO BOX 101, ROCHESTER, TX, 79544","No_Match",NA,NA,NA,NA
329554,"PO BOX 101","ROGGEN","CO",80652,NA,NA,54,"PO BOX 101, ROGGEN, CO, 80652","No_Match",NA,NA,NA,NA
329555,"PO BOX 101","RUPERT","VT",5768,NA,NA,55,"PO BOX 101, RUPERT, VT, 5768","No_Match",NA,NA,NA,NA
329556,"PO BOX 101","SAINT JAMES","NY",11780,NA,NA,56,"PO BOX 101, SAINT JAMES, NY, 11780","No_Match",NA,NA,NA,NA
329557,"PO BOX 101","SAN MATEO","CA",94401,NA,NA,57,"PO BOX 101, SAN MATEO, CA, 94401","No_Match",NA,NA,NA,NA
329558,"PO BOX 101","SEDRO-WOOLLEY","WA",98284,NA,NA,58,"PO BOX 101, SEDRO-WOOLLEY, WA, 98284","No_Match",NA,NA,NA,NA
329559,"PO BOX 101","SHELBURNE","VT",5482,NA,NA,59,"PO BOX 101, SHELBURNE, VT, 5482","No_Match",NA,NA,NA,NA
329560,"PO BOX 101","ST CLAIR","MN",56080,NA,NA,60,"PO BOX 101, ST CLAIR, MN, 56080","No_Match",NA,NA,NA,NA
329561,"PO BOX 101","WATER","MI",49797,NA,NA,61,"PO BOX 101, WATER, MI, 49797","No_Match",NA,NA,NA,NA
329562,"PO BOX 101","WOODSTOCK","VT",5091,NA,NA,62,"PO BOX 101, WOODSTOCK, VT, 5091","No_Match",NA,NA,NA,NA
329563,"PO BOX 1010","CRYSTAL BEACH","FL",34681,NA,NA,63,"PO BOX 1010, CRYSTAL BEACH, FL, 34681","No_Match",NA,NA,NA,NA
329564,"PO BOX 1010","MARION","IL",62959,NA,NA,64,"PO BOX 1010, MARION, IL, 62959","No_Match",NA,NA,NA,NA
329565,"PO BOX 1010","NEVADA CITY","CA",95959,NA,NA,65,"PO BOX 1010, NEVADA CITY, CA, 95959","No_Match",NA,NA,NA,NA
329566,"PO BOX 1010","STUARTS DRAFT","VA",24477,NA,NA,66,"PO BOX 1010, STUARTS DRAFT, VA, 24477","No_Match",NA,NA,NA,NA
329567,"PO BOX 1010","STUTTGART","AR",72160,NA,NA,67,"PO BOX 1010, STUTTGART, AR, 72160","No_Match",NA,NA,NA,NA
329568,"PO BOX 10100","SOUTH  BEND","IN",46680,NA,NA,68,"PO BOX 10100, SOUTH  BEND, IN, 46680","No_Match",NA,NA,NA,NA
329569,"PO BOX 10101","GOLDSBORO","NC",27532,NA,NA,69,"PO BOX 10101, GOLDSBORO, NC, 27532","No_Match",NA,NA,NA,NA
329570,"PO BOX 10101","GREENSBORO","NC",27404,NA,NA,70,"PO BOX 10101, GREENSBORO, NC, 27404","No_Match",NA,NA,NA,NA
329571,"PO BOX 10102","SANTA FE","NM",87504,NA,NA,71,"PO BOX 10102, SANTA FE, NM, 87504","No_Match",NA,NA,NA,NA
329572,"PO BOX 10103","EUGENE","OR",97440,NA,NA,72,"PO BOX 10103, EUGENE, OR, 97440","No_Match",NA,NA,NA,NA
329573,"PO BOX 10103","WILMINGTON","DE",19850,NA,NA,73,"PO BOX 10103, WILMINGTON, DE, 19850","No_Match",NA,NA,NA,NA
329574,"PO BOX 10109","LIBERTY","TX",77575,NA,NA,74,"PO BOX 10109, LIBERTY, TX, 77575","No_Match",NA,NA,NA,NA
329575,"PO BOX 1011","ALEXANDRIA","VA",22313,NA,NA,75,"PO BOX 1011, ALEXANDRIA, VA, 22313","No_Match",NA,NA,NA,NA
329576,"PO BOX 1011","BONITA","CA",91908,NA,NA,76,"PO BOX 1011, BONITA, CA, 91908","No_Match",NA,NA,NA,NA
329577,"PO BOX 1011","CALDWELL","NJ",7007,NA,NA,77,"PO BOX 1011, CALDWELL, NJ, 7007","No_Match",NA,NA,NA,NA
329578,"PO BOX 1011","CONNELLSVILLE","PA",15425,NA,NA,78,"PO BOX 1011, CONNELLSVILLE, PA, 15425","No_Match",NA,NA,NA,NA
329579,"PO BOX 1011","FAIRPORT HARBOR","OH",44077,NA,NA,79,"PO BOX 1011, FAIRPORT HARBOR, OH, 44077","No_Match",NA,NA,NA,NA
329580,"PO BOX 1011","KLAMATH FALLS","OR",97601,NA,NA,80,"PO BOX 1011, KLAMATH FALLS, OR, 97601","No_Match",NA,NA,NA,NA
329581,"PO BOX 1011","MONTGOMERY","IL",60538,NA,NA,81,"PO BOX 1011, MONTGOMERY, IL, 60538","No_Match",NA,NA,NA,NA
329582,"PO BOX 1011","ROCKWALL","TX",75087,NA,NA,82,"PO BOX 1011, ROCKWALL, TX, 75087","No_Match",NA,NA,NA,NA
329583,"PO BOX 1011","SEQUIM","WA",98382,NA,NA,83,"PO BOX 1011, SEQUIM, WA, 98382","No_Match",NA,NA,NA,NA
329584,"PO BOX 1011","SPRINGBORO","OH",45066,NA,NA,84,"PO BOX 1011, SPRINGBORO, OH, 45066","No_Match",NA,NA,NA,NA
329585,"PO BOX 1011","SUPERIOR","MT",59872,NA,NA,85,"PO BOX 1011, SUPERIOR, MT, 59872","No_Match",NA,NA,NA,NA
329586,"PO BOX 10111","AMERICAN CANYON","CA",94503,NA,NA,86,"PO BOX 10111, AMERICAN CANYON, CA, 94503","No_Match",NA,NA,NA,NA
329587,"PO BOX 10112","KNOXVILLE","TN",37939,NA,NA,87,"PO BOX 10112, KNOXVILLE, TN, 37939","No_Match",NA,NA,NA,NA
329588,"PO BOX 10112","LANSING","MI",48901,NA,NA,88,"PO BOX 10112, LANSING, MI, 48901","No_Match",NA,NA,NA,NA
329589,"PO BOX 10112","WILLISTON","ND",58803,NA,NA,89,"PO BOX 10112, WILLISTON, ND, 58803","No_Match",NA,NA,NA,NA
329590,"PO BOX 10113","KILLEEN","TX",76549,NA,NA,90,"PO BOX 10113, KILLEEN, TX, 76549","No_Match",NA,NA,NA,NA
329591,"PO BOX 1012","ALVA","FL",33920,NA,NA,91,"PO BOX 1012, ALVA, FL, 33920","No_Match",NA,NA,NA,NA
329592,"PO BOX 1012","CARTHAGE","TX",75633,NA,NA,92,"PO BOX 1012, CARTHAGE, TX, 75633","No_Match",NA,NA,NA,NA
329593,"PO BOX 1012","CYPRESS","CA",90630,NA,NA,93,"PO BOX 1012, CYPRESS, CA, 90630","No_Match",NA,NA,NA,NA
329594,"PO BOX 1012","EASTON","MA",2334,NA,NA,94,"PO BOX 1012, EASTON, MA, 2334","No_Match",NA,NA,NA,NA
329595,"PO BOX 1012","YOUNGSVILLE","LA",70592,NA,NA,95,"PO BOX 1012, YOUNGSVILLE, LA, 70592","No_Match",NA,NA,NA,NA
329596,"PO BOX 10120","TYLER","TX",75711,NA,NA,96,"PO BOX 10120, TYLER, TX, 75711","No_Match",NA,NA,NA,NA
329597,"PO BOX 101206","IRONDALE","AL",35210,NA,NA,97,"PO BOX 101206, IRONDALE, AL, 35210","No_Match",NA,NA,NA,NA
329598,"PO BOX 10121","SAVANNAH","GA",31412,NA,NA,98,"PO BOX 10121, SAVANNAH, GA, 31412","No_Match",NA,NA,NA,NA
329599,"PO BOX 10122","RENO","NV",89510,NA,NA,99,"PO BOX 10122, RENO, NV, 89510","No_Match",NA,NA,NA,NA
329600,"PO BOX 10123","PORTLAND","ME",4104,NA,NA,100,"PO BOX 10123, PORTLAND, ME, 4104","No_Match",NA,NA,NA,NA
329601,"PO BOX 101272","FORT WORTH","TX",76185,NA,NA,101,"PO BOX 101272, FORT WORTH, TX, 76185","No_Match",NA,NA,NA,NA
329602,"PO BOX 10129","EL DORADO","LA",71730,NA,NA,102,"PO BOX 10129, EL DORADO, LA, 71730","No_Match",NA,NA,NA,NA
329603,"PO BOX 10129","SPOKANE","WA",99209,NA,NA,103,"PO BOX 10129, SPOKANE, WA, 99209","No_Match",NA,NA,NA,NA
329604,"PO BOX 1013","BRUSH PRAIRIE","WA",98606,NA,NA,104,"PO BOX 1013, BRUSH PRAIRIE, WA, 98606","No_Match",NA,NA,NA,NA
329605,"PO BOX 1013","BURBANK","CA",91507,NA,NA,105,"PO BOX 1013, BURBANK, CA, 91507","No_Match",NA,NA,NA,NA
329606,"PO BOX 1013","HUTTO","TX",78634,NA,NA,106,"PO BOX 1013, HUTTO, TX, 78634","No_Match",NA,NA,NA,NA
329607,"PO BOX 1013","LANDER","WY",82520,NA,NA,107,"PO BOX 1013, LANDER, WY, 82520","No_Match",NA,NA,NA,NA
329608,"PO BOX 1013","NICHOLASVILLE","KY",40340,NA,NA,108,"PO BOX 1013, NICHOLASVILLE, KY, 40340","No_Match",NA,NA,NA,NA
329609,"PO BOX 1013","PATERSON","NJ",7503,NA,NA,109,"PO BOX 1013, PATERSON, NJ, 7503","No_Match",NA,NA,NA,NA
329610,"PO BOX 1013","RICHFIELD","NC",28137,NA,NA,110,"PO BOX 1013, RICHFIELD, NC, 28137","No_Match",NA,NA,NA,NA
329611,"PO BOX 1013","WILLIS","TX",77378,NA,NA,111,"PO BOX 1013, WILLIS, TX, 77378","No_Match",NA,NA,NA,NA
329612,"PO BOX 10133","MERRILLVILLE","IN",46411,NA,NA,112,"PO BOX 10133, MERRILLVILLE, IN, 46411","No_Match",NA,NA,NA,NA
329613,"PO BOX 10133","STATEN ISLAND","NY",10301,NA,NA,113,"PO BOX 10133, STATEN ISLAND, NY, 10301","No_Match",NA,NA,NA,NA
329614,"PO BOX 10133","STATEN ISLAND","NY",10310,NA,NA,114,"PO BOX 10133, STATEN ISLAND, NY, 10310","No_Match",NA,NA,NA,NA
329615,"PO BOX 101343","PITTSBURGH","PA",15237,NA,NA,115,"PO BOX 101343, PITTSBURGH, PA, 15237","No_Match",NA,NA,NA,NA
329616,"PO BOX 10138","RUSTON","LA",71272,NA,NA,116,"PO BOX 10138, RUSTON, LA, 71272","No_Match",NA,NA,NA,NA
329617,"PO BOX 1014","BENTON","KY",42025,NA,NA,117,"PO BOX 1014, BENTON, KY, 42025","No_Match",NA,NA,NA,NA
329618,"PO BOX 1014","BUFFALO","NY",14220,NA,NA,118,"PO BOX 1014, BUFFALO, NY, 14220","No_Match",NA,NA,NA,NA
329619,"PO BOX 1014","CHARLTON CITY","MA",1508,NA,NA,119,"PO BOX 1014, CHARLTON CITY, MA, 1508","No_Match",NA,NA,NA,NA
329620,"PO BOX 1014","EDGEWOOD","TX",75117,NA,NA,120,"PO BOX 1014, EDGEWOOD, TX, 75117","No_Match",NA,NA,NA,NA
329621,"PO BOX 1014","HOMEWOOD","IL",60430,NA,NA,121,"PO BOX 1014, HOMEWOOD, IL, 60430","No_Match",NA,NA,NA,NA
329622,"PO BOX 1014","NEW YORK","NY",10002,NA,NA,122,"PO BOX 1014, NEW YORK, NY, 10002","No_Match",NA,NA,NA,NA
329623,"PO BOX 1014","SMITHTOWN","NJ",11787,NA,NA,123,"PO BOX 1014, SMITHTOWN, NJ, 11787","No_Match",NA,NA,NA,NA
329624,"PO BOX 10144","FORT WAYNE","IN",46850,NA,NA,124,"PO BOX 10144, FORT WAYNE, IN, 46850","No_Match",NA,NA,NA,NA
329625,"PO BOX 10145","BAINBRIDGE ISLAND","WA",98110,NA,NA,125,"PO BOX 10145, BAINBRIDGE ISLAND, WA, 98110","No_Match",NA,NA,NA,NA
329626,"PO BOX 10146","POMPANO BEACH","FL",33061,NA,NA,126,"PO BOX 10146, POMPANO BEACH, FL, 33061","No_Match",NA,NA,NA,NA
329627,"PO BOX 10148","STATEN ISLAND","NY",10301,NA,NA,127,"PO BOX 10148, STATEN ISLAND, NY, 10301","No_Match",NA,NA,NA,NA
329628,"PO BOX 1015","AUBURN","AL",36831,NA,NA,128,"PO BOX 1015, AUBURN, AL, 36831","No_Match",NA,NA,NA,NA
329629,"PO BOX 1015","BALLSTON LAKE","NY",12019,NA,NA,129,"PO BOX 1015, BALLSTON LAKE, NY, 12019","No_Match",NA,NA,NA,NA
329630,"PO BOX 1015","BODEGA BAY","CA",94923,NA,NA,130,"PO BOX 1015, BODEGA BAY, CA, 94923","No_Match",NA,NA,NA,NA
329631,"PO BOX 1015","CENTRALIA","WA",98531,NA,NA,131,"PO BOX 1015, CENTRALIA, WA, 98531","No_Match",NA,NA,NA,NA
329632,"PO BOX 1015","GREENVILLE","NC",27835,NA,NA,132,"PO BOX 1015, GREENVILLE, NC, 27835","No_Match",NA,NA,NA,NA
329633,"PO BOX 1015","HUNTINGTOWN","MD",20639,NA,NA,133,"PO BOX 1015, HUNTINGTOWN, MD, 20639","No_Match",NA,NA,NA,NA
329634,"PO BOX 1015","TALLAHASSEE","FL",32302,NA,NA,134,"PO BOX 1015, TALLAHASSEE, FL, 32302","No_Match",NA,NA,NA,NA
329635,"PO BOX 10150","ROCHESTER","NY",14610,NA,NA,135,"PO BOX 10150, ROCHESTER, NY, 14610","No_Match",NA,NA,NA,NA
329636,"PO BOX 101552","IRONDALE","AL",35210,NA,NA,136,"PO BOX 101552, IRONDALE, AL, 35210","No_Match",NA,NA,NA,NA
329637,"PO BOX 10156","COLUMBIA","MO",65205,NA,NA,137,"PO BOX 10156, COLUMBIA, MO, 65205","No_Match",NA,NA,NA,NA
329638,"PO BOX 10157","ST. PETERSBURG","FL",33733,NA,NA,138,"PO BOX 10157, ST. PETERSBURG, FL, 33733","No_Match",NA,NA,NA,NA
329639,"PO BOX 1016","ALTURAS","CA",96101,NA,NA,139,"PO BOX 1016, ALTURAS, CA, 96101","No_Match",NA,NA,NA,NA
329640,"PO BOX 1016","CODY","WY",82414,NA,NA,140,"PO BOX 1016, CODY, WY, 82414","No_Match",NA,NA,NA,NA
329641,"PO BOX 1016","ELLICOTTVILLE","NY",14731,NA,NA,141,"PO BOX 1016, ELLICOTTVILLE, NY, 14731","No_Match",NA,NA,NA,NA
329642,"PO BOX 1016","FRANKFORT","KY",40602,NA,NA,142,"PO BOX 1016, FRANKFORT, KY, 40602","No_Match",NA,NA,NA,NA
329643,"PO BOX 1016","KINGSLAND","GA",31548,NA,NA,143,"PO BOX 1016, KINGSLAND, GA, 31548","No_Match",NA,NA,NA,NA
329644,"PO BOX 1016","MIDDLEBURY","VT",5753,NA,NA,144,"PO BOX 1016, MIDDLEBURY, VT, 5753","No_Match",NA,NA,NA,NA
329645,"PO BOX 1016","TRACY","CA",95376,NA,NA,145,"PO BOX 1016, TRACY, CA, 95376","No_Match",NA,NA,NA,NA
329646,"PO BOX 101643","ARLINGTON","VA",22210,NA,NA,146,"PO BOX 101643, ARLINGTON, VA, 22210","No_Match",NA,NA,NA,NA
329647,"PO BOX 1017","CLOVIS","CA",93613,NA,NA,147,"PO BOX 1017, CLOVIS, CA, 93613","No_Match",NA,NA,NA,NA
329648,"PO BOX 1017","CORDOVA","SC",29039,NA,NA,148,"PO BOX 1017, CORDOVA, SC, 29039","No_Match",NA,NA,NA,NA
329649,"PO BOX 1017","EAST ELLIJAY","GA",30539,NA,NA,149,"PO BOX 1017, EAST ELLIJAY, GA, 30539","No_Match",NA,NA,NA,NA
329650,"PO BOX 1017","HAIKU","HI",96708,NA,NA,150,"PO BOX 1017, HAIKU, HI, 96708","No_Match",NA,NA,NA,NA
329651,"PO BOX 1017","MERRILL","OR",97633,NA,NA,151,"PO BOX 1017, MERRILL, OR, 97633","No_Match",NA,NA,NA,NA
329652,"PO BOX 10173","COSTA MESA","CA",92807,NA,NA,152,"PO BOX 10173, COSTA MESA, CA, 92807","No_Match",NA,NA,NA,NA
329653,"PO BOX 10174","ROCK HILL","SC",29731,NA,NA,153,"PO BOX 10174, ROCK HILL, SC, 29731","No_Match",NA,NA,NA,NA
329654,"PO BOX 10179","TRENTON","NJ",8650,NA,NA,154,"PO BOX 10179, TRENTON, NJ, 8650","No_Match",NA,NA,NA,NA
329655,"PO BOX 1018","DYERSBURG","TN",38025,NA,NA,155,"PO BOX 1018, DYERSBURG, TN, 38025","No_Match",NA,NA,NA,NA
329656,"PO BOX 1018","HOCKESSIN","DE",19707,NA,NA,156,"PO BOX 1018, HOCKESSIN, DE, 19707","No_Match",NA,NA,NA,NA
329657,"PO BOX 1018","MOUNT VERNON","TX",75457,NA,NA,157,"PO BOX 1018, MOUNT VERNON, TX, 75457","No_Match",NA,NA,NA,NA
329658,"PO BOX 10180","SOUTHPORT","NC",28461,NA,NA,158,"PO BOX 10180, SOUTHPORT, NC, 28461","No_Match",NA,NA,NA,NA
329659,"PO BOX 10183","VALDOSTA","GA",31605,NA,NA,159,"PO BOX 10183, VALDOSTA, GA, 31605","No_Match",NA,NA,NA,NA
329660,"PO BOX 101862","IRONDALE","AL",35210,NA,NA,160,"PO BOX 101862, IRONDALE, AL, 35210","No_Match",NA,NA,NA,NA
329661,"PO BOX 10189","BROOKSVILLE","FL",34603,NA,NA,161,"PO BOX 10189, BROOKSVILLE, FL, 34603","No_Match",NA,NA,NA,NA
329662,"PO BOX 1019","HOPE MILLS","NC",28348,NA,NA,162,"PO BOX 1019, HOPE MILLS, NC, 28348","No_Match",NA,NA,NA,NA
329663,"PO BOX 1019","MUKILTEO","WA",98275,NA,NA,163,"PO BOX 1019, MUKILTEO, WA, 98275","No_Match",NA,NA,NA,NA
329664,"PO BOX 1019","RIPON","CA",95366,NA,NA,164,"PO BOX 1019, RIPON, CA, 95366","No_Match",NA,NA,NA,NA
329665,"PO BOX 10191","WILLISTON","ND",58803,NA,NA,165,"PO BOX 10191, WILLISTON, ND, 58803","No_Match",NA,NA,NA,NA
329666,"PO BOX 10192","PORTLAND","OR",97296,NA,NA,166,"PO BOX 10192, PORTLAND, OR, 97296","No_Match",NA,NA,NA,NA
329667,"PO BOX 101928","FT WORTH","TX",76185,NA,NA,167,"PO BOX 101928, FT WORTH, TX, 76185","No_Match",NA,NA,NA,NA
329668,"PO BOX 10193","PORTLAND","ME",4104,NA,NA,168,"PO BOX 10193, PORTLAND, ME, 4104","No_Match",NA,NA,NA,NA
329669,"PO BOX 102","AUDUBON","IA",50025,NA,NA,169,"PO BOX 102, AUDUBON, IA, 50025","No_Match",NA,NA,NA,NA
329670,"PO BOX 102","AVONDALE","AZ",85323,NA,NA,170,"PO BOX 102, AVONDALE, AZ, 85323","No_Match",NA,NA,NA,NA
329671,"PO BOX 102","BARRETT","MN",56311,NA,NA,171,"PO BOX 102, BARRETT, MN, 56311","No_Match",NA,NA,NA,NA
329672,"PO BOX 102","BELLMAWR","NJ",8031,NA,NA,172,"PO BOX 102, BELLMAWR, NJ, 8031","No_Match",NA,NA,NA,NA
329673,"PO BOX 102","BROOKLYN","MS",39425,NA,NA,173,"PO BOX 102, BROOKLYN, MS, 39425","No_Match",NA,NA,NA,NA
329674,"PO BOX 102","CADDO GAP","AR",71935,NA,NA,174,"PO BOX 102, CADDO GAP, AR, 71935","No_Match",NA,NA,NA,NA
329675,"PO BOX 102","CANAAN","NY",12029,NA,NA,175,"PO BOX 102, CANAAN, NY, 12029","No_Match",NA,NA,NA,NA
329676,"PO BOX 102","CLIFTON PARK","NY",12065,NA,NA,176,"PO BOX 102, CLIFTON PARK, NY, 12065","No_Match",NA,NA,NA,NA
329677,"PO BOX 102","DILLSBORO","IN",47018,NA,NA,177,"PO BOX 102, DILLSBORO, IN, 47018","No_Match",NA,NA,NA,NA
329678,"PO BOX 102","EL CAMPO","TX",77437,NA,NA,178,"PO BOX 102, EL CAMPO, TX, 77437","No_Match",NA,NA,NA,NA
329679,"PO BOX 102","GLEN ARBOR","MI",49636,NA,NA,179,"PO BOX 102, GLEN ARBOR, MI, 49636","No_Match",NA,NA,NA,NA
329680,"PO BOX 102","GRIFFIN","IN",47616,NA,NA,180,"PO BOX 102, GRIFFIN, IN, 47616","No_Match",NA,NA,NA,NA
329681,"PO BOX 102","HERMANVILLE","MS",39086,NA,NA,181,"PO BOX 102, HERMANVILLE, MS, 39086","No_Match",NA,NA,NA,NA
329682,"PO BOX 102","HUNTSVILLE","OH",43324,NA,NA,182,"PO BOX 102, HUNTSVILLE, OH, 43324","No_Match",NA,NA,NA,NA
329683,"PO BOX 102","JEROMESVILLE","OH",44840,NA,NA,183,"PO BOX 102, JEROMESVILLE, OH, 44840","No_Match",NA,NA,NA,NA
329684,"PO BOX 102","LONDON","OH",43140,NA,NA,184,"PO BOX 102, LONDON, OH, 43140","No_Match",NA,NA,NA,NA
329685,"PO BOX 102","MACKEY","IN",47654,NA,NA,185,"PO BOX 102, MACKEY, IN, 47654","No_Match",NA,NA,NA,NA
329686,"PO BOX 102","MONROE","IN",46772,NA,NA,186,"PO BOX 102, MONROE, IN, 46772","No_Match",NA,NA,NA,NA
329687,"PO BOX 102","MOREHEAD","KY",40351,NA,NA,187,"PO BOX 102, MOREHEAD, KY, 40351","No_Match",NA,NA,NA,NA
329688,"PO BOX 102","MORGANZA","MD",20660,NA,NA,188,"PO BOX 102, MORGANZA, MD, 20660","No_Match",NA,NA,NA,NA
329689,"PO BOX 102","OSCEOLA","MO",64776,NA,NA,189,"PO BOX 102, OSCEOLA, MO, 64776","No_Match",NA,NA,NA,NA
329690,"PO BOX 102","OSSIAN","IN",46777,NA,NA,190,"PO BOX 102, OSSIAN, IN, 46777","No_Match",NA,NA,NA,NA
329691,"PO BOX 102","SALISBURY","PA",15558,NA,NA,191,"PO BOX 102, SALISBURY, PA, 15558","No_Match",NA,NA,NA,NA
329692,"PO BOX 102","SEAVIEW","WA",98644,NA,NA,192,"PO BOX 102, SEAVIEW, WA, 98644","No_Match",NA,NA,NA,NA
329693,"PO BOX 102","SHELBURN FALLS","MA",1370,NA,NA,193,"PO BOX 102, SHELBURN FALLS, MA, 1370","No_Match",NA,NA,NA,NA
329694,"PO BOX 102","SOUTH BOSTON","VA",24592,NA,NA,194,"PO BOX 102, SOUTH BOSTON, VA, 24592","No_Match",NA,NA,NA,NA
329695,"PO BOX 102","STATESVILLE","NC",28687,NA,NA,195,"PO BOX 102, STATESVILLE, NC, 28687","No_Match",NA,NA,NA,NA
329696,"PO BOX 102","THREE RIVERS","MA",1080,NA,NA,196,"PO BOX 102, THREE RIVERS, MA, 1080","No_Match",NA,NA,NA,NA
329697,"PO BOX 102","TORONTO","OH",43964,NA,NA,197,"PO BOX 102, TORONTO, OH, 43964","No_Match",NA,NA,NA,NA
329698,"PO BOX 102","VERNON","NJ",7462,NA,NA,198,"PO BOX 102, VERNON, NJ, 7462","No_Match",NA,NA,NA,NA
329699,"PO BOX 102","WHEATLAND","MO",65779,NA,NA,199,"PO BOX 102, WHEATLAND, MO, 65779","No_Match",NA,NA,NA,NA
329700,"PO BOX 102","WHITEHALL","MI",49461,NA,NA,200,"PO BOX 102, WHITEHALL, MI, 49461","No_Match",NA,NA,NA,NA
329701,"PO BOX 102","WISTER","OK",74966,NA,NA,201,"PO BOX 102, WISTER, OK, 74966","No_Match",NA,NA,NA,NA
329702,"PO BOX 1020","HARRISONBURG","VA",22803,NA,NA,202,"PO BOX 1020, HARRISONBURG, VA, 22803","No_Match",NA,NA,NA,NA
329703,"PO BOX 1020","TOLEDO","WA",98591,NA,NA,203,"PO BOX 1020, TOLEDO, WA, 98591","No_Match",NA,NA,NA,NA
329704,"PO BOX 1020","WESTBOROUGH","MA",1581,NA,NA,204,"PO BOX 1020, WESTBOROUGH, MA, 1581","No_Match",NA,NA,NA,NA
329705,"PO BOX 1020","WOODLAND PARK","CO",80866,NA,NA,205,"PO BOX 1020, WOODLAND PARK, CO, 80866","No_Match",NA,NA,NA,NA
329706,"PO BOX 10200","COLUMBUS","OH",43201,NA,NA,206,"PO BOX 10200, COLUMBUS, OH, 43201","No_Match",NA,NA,NA,NA
329707,"PO BOX 1021","ALFRED","ME",4002,NA,NA,207,"PO BOX 1021, ALFRED, ME, 4002","No_Match",NA,NA,NA,NA
329708,"PO BOX 1021","ASHLAND","OH",44805,NA,NA,208,"PO BOX 1021, ASHLAND, OH, 44805","No_Match",NA,NA,NA,NA
329709,"PO BOX 1021","AUBURN","AL",36831,NA,NA,209,"PO BOX 1021, AUBURN, AL, 36831","No_Match",NA,NA,NA,NA
329710,"PO BOX 1021","FLORENCE","AL",35631,NA,NA,210,"PO BOX 1021, FLORENCE, AL, 35631","No_Match",NA,NA,NA,NA
329711,"PO BOX 1021","MEDICAL LAKE","WA",99022,NA,NA,211,"PO BOX 1021, MEDICAL LAKE, WA, 99022","No_Match",NA,NA,NA,NA
329712,"PO BOX 1021","MEDINA","OH",44256,NA,NA,212,"PO BOX 1021, MEDINA, OH, 44256","No_Match",NA,NA,NA,NA
329713,"PO BOX 1021","MEDINA","OH",44258,NA,NA,213,"PO BOX 1021, MEDINA, OH, 44258","No_Match",NA,NA,NA,NA
329714,"PO BOX 1021","MUKILTEO","WA",98275,NA,NA,214,"PO BOX 1021, MUKILTEO, WA, 98275","No_Match",NA,NA,NA,NA
329715,"PO BOX 1021","SALEM","NH",3079,NA,NA,215,"PO BOX 1021, SALEM, NH, 3079","No_Match",NA,NA,NA,NA
329716,"PO BOX 10211","CRANSTON","RI",2910,NA,NA,216,"PO BOX 10211, CRANSTON, RI, 2910","No_Match",NA,NA,NA,NA
329717,"PO BOX 10214","HOUSTON","TX",77206,NA,NA,217,"PO BOX 10214, HOUSTON, TX, 77206","No_Match",NA,NA,NA,NA
329718,"PO BOX 10215","ROCK HILL","SC",29731,NA,NA,218,"PO BOX 10215, ROCK HILL, SC, 29731","No_Match",NA,NA,NA,NA
329719,"PO BOX 1022","ACWORTH","GA",30101,NA,NA,219,"PO BOX 1022, ACWORTH, GA, 30101","No_Match",NA,NA,NA,NA
329720,"PO BOX 1022","CHARLESTON","SC",29402,NA,NA,220,"PO BOX 1022, CHARLESTON, SC, 29402","No_Match",NA,NA,NA,NA
329721,"PO BOX 1022","DURANT","IA",52747,NA,NA,221,"PO BOX 1022, DURANT, IA, 52747","No_Match",NA,NA,NA,NA
329722,"PO BOX 1022","ENNIS","TX",75120,NA,NA,222,"PO BOX 1022, ENNIS, TX, 75120","No_Match",NA,NA,NA,NA
329723,"PO BOX 1022","HAVANA","FL",32333,NA,NA,223,"PO BOX 1022, HAVANA, FL, 32333","No_Match",NA,NA,NA,NA
329724,"PO BOX 1022","MEDICAL LAKE","WA",99022,NA,NA,224,"PO BOX 1022, MEDICAL LAKE, WA, 99022","No_Match",NA,NA,NA,NA
329725,"PO BOX 1022","NEW YORK","NY",10002,NA,NA,225,"PO BOX 1022, NEW YORK, NY, 10002","No_Match",NA,NA,NA,NA
329726,"PO BOX 1022","SAN LUIS OBISPO","CA",93406,NA,NA,226,"PO BOX 1022, SAN LUIS OBISPO, CA, 93406","No_Match",NA,NA,NA,NA
329727,"PO BOX 1022","SKANEATELES","NY",13152,NA,NA,227,"PO BOX 1022, SKANEATELES, NY, 13152","No_Match",NA,NA,NA,NA
329728,"PO BOX 102223","DENVER","CO",80250,NA,NA,228,"PO BOX 102223, DENVER, CO, 80250","No_Match",NA,NA,NA,NA
329729,"PO BOX 102241","DENVER","CO",80250,NA,NA,229,"PO BOX 102241, DENVER, CO, 80250","No_Match",NA,NA,NA,NA
329730,"PO BOX 1023","COLONIA","FM",96943,NA,NA,230,"PO BOX 1023, COLONIA, FM, 96943","No_Match",NA,NA,NA,NA
329731,"PO BOX 1023","EASTLAKE","CO",80614,NA,NA,231,"PO BOX 1023, EASTLAKE, CO, 80614","No_Match",NA,NA,NA,NA
329732,"PO BOX 1023","GALLATIN","TN",37066,NA,NA,232,"PO BOX 1023, GALLATIN, TN, 37066","No_Match",NA,NA,NA,NA
329733,"PO BOX 1023","LAKE CITY","SC",29560,NA,NA,233,"PO BOX 1023, LAKE CITY, SC, 29560","No_Match",NA,NA,NA,NA
329734,"PO BOX 1023","MARLTON","NJ",8053,NA,NA,234,"PO BOX 1023, MARLTON, NJ, 8053","No_Match",NA,NA,NA,NA
329735,"PO BOX 1023","RICHMOND","TX",77407,NA,NA,235,"PO BOX 1023, RICHMOND, TX, 77407","No_Match",NA,NA,NA,NA
329736,"PO BOX 1023","SAN BENITO","TX",78586,NA,NA,236,"PO BOX 1023, SAN BENITO, TX, 78586","No_Match",NA,NA,NA,NA
329737,"PO BOX 1023","SEBASTOPOL","CA",95473,NA,NA,237,"PO BOX 1023, SEBASTOPOL, CA, 95473","No_Match",NA,NA,NA,NA
329738,"PO BOX 1023","SOUTH SIOUX CITY","NE",68776,NA,NA,238,"PO BOX 1023, SOUTH SIOUX CITY, NE, 68776","No_Match",NA,NA,NA,NA
329739,"PO BOX 1023","WINDERMERE","FL",34786,NA,NA,239,"PO BOX 1023, WINDERMERE, FL, 34786","No_Match",NA,NA,NA,NA
329740,"PO BOX 10231","RUSSELLVILLE","AR",72812,NA,NA,240,"PO BOX 10231, RUSSELLVILLE, AR, 72812","No_Match",NA,NA,NA,NA
329741,"PO BOX 102361","DENVER","CO",80210,NA,NA,241,"PO BOX 102361, DENVER, CO, 80210","No_Match",NA,NA,NA,NA
329742,"PO BOX 1024","ADDISON","IL",60101,NA,NA,242,"PO BOX 1024, ADDISON, IL, 60101","No_Match",NA,NA,NA,NA
329743,"PO BOX 1024","BELLINGHAM","WA",98227,NA,NA,243,"PO BOX 1024, BELLINGHAM, WA, 98227","No_Match",NA,NA,NA,NA
329744,"PO BOX 1024","CAPE GIRARDEAU","MO",63702,NA,NA,244,"PO BOX 1024, CAPE GIRARDEAU, MO, 63702","No_Match",NA,NA,NA,NA
329745,"PO BOX 1024","COTTAGE GROVE","OR",97424,NA,NA,245,"PO BOX 1024, COTTAGE GROVE, OR, 97424","No_Match",NA,NA,NA,NA
329746,"PO BOX 1024","KALISPELL","MT",59903,NA,NA,246,"PO BOX 1024, KALISPELL, MT, 59903","No_Match",NA,NA,NA,NA
329747,"PO BOX 1024","LEBANON","KY",40033,NA,NA,247,"PO BOX 1024, LEBANON, KY, 40033","No_Match",NA,NA,NA,NA
329748,"PO BOX 1024","MARSING","ID",83639,NA,NA,248,"PO BOX 1024, MARSING, ID, 83639","No_Match",NA,NA,NA,NA
329749,"PO BOX 1024","MOSCOW","PA",18444,NA,NA,249,"PO BOX 1024, MOSCOW, PA, 18444","No_Match",NA,NA,NA,NA
329750,"PO BOX 1024","TOWNSEND","MT",59644,NA,NA,250,"PO BOX 1024, TOWNSEND, MT, 59644","No_Match",NA,NA,NA,NA
329751,"PO BOX 1024","WAILUKU","HI",96793,NA,NA,251,"PO BOX 1024, WAILUKU, HI, 96793","No_Match",NA,NA,NA,NA
329752,"PO BOX 10241","FULLERTON","CA",92838,NA,NA,252,"PO BOX 10241, FULLERTON, CA, 92838","No_Match",NA,NA,NA,NA
329753,"PO BOX 10243","SAN BERNARDINO","CA",92423,NA,NA,253,"PO BOX 10243, SAN BERNARDINO, CA, 92423","No_Match",NA,NA,NA,NA
329754,"PO BOX 1025","BLUFFTON","SC",29910,NA,NA,254,"PO BOX 1025, BLUFFTON, SC, 29910","No_Match",NA,NA,NA,NA
329755,"PO BOX 1025","DILLON","SC",29536,NA,NA,255,"PO BOX 1025, DILLON, SC, 29536","No_Match",NA,NA,NA,NA
329756,"PO BOX 1025","LAWRENCE","KS",66044,NA,NA,256,"PO BOX 1025, LAWRENCE, KS, 66044","No_Match",NA,NA,NA,NA
329757,"PO BOX 1025","LENOIR CITY","TN",37771,NA,NA,257,"PO BOX 1025, LENOIR CITY, TN, 37771","No_Match",NA,NA,NA,NA
329758,"PO BOX 1025","MAPLEWOOD","NJ",7040,NA,NA,258,"PO BOX 1025, MAPLEWOOD, NJ, 7040","No_Match",NA,NA,NA,NA
329759,"PO BOX 1025","NACHES","WA",98937,NA,NA,259,"PO BOX 1025, NACHES, WA, 98937","No_Match",NA,NA,NA,NA
329760,"PO BOX 1025","POINT PLEASANT BEACH","NJ",8742,NA,NA,260,"PO BOX 1025, POINT PLEASANT BEACH, NJ, 8742","No_Match",NA,NA,NA,NA
329761,"PO BOX 1025","QUESTA","NM",87556,NA,NA,261,"PO BOX 1025, QUESTA, NM, 87556","No_Match",NA,NA,NA,NA
329762,"PO BOX 1025","ROCKY MOUNT","NC",27802,NA,NA,262,"PO BOX 1025, ROCKY MOUNT, NC, 27802","No_Match",NA,NA,NA,NA
329763,"PO BOX 1026","BUFORD","GA",30515,NA,NA,263,"PO BOX 1026, BUFORD, GA, 30515","No_Match",NA,NA,NA,NA
329764,"PO BOX 1026","CLARKSVILLE","AR",72830,NA,NA,264,"PO BOX 1026, CLARKSVILLE, AR, 72830","No_Match",NA,NA,NA,NA
329765,"PO BOX 1026","COTTAGE GROVE","OR",97424,NA,NA,265,"PO BOX 1026, COTTAGE GROVE, OR, 97424","No_Match",NA,NA,NA,NA
329766,"PO BOX 1026","CYPRESS","TX",77410,NA,NA,266,"PO BOX 1026, CYPRESS, TX, 77410","No_Match",NA,NA,NA,NA
329767,"PO BOX 1026","KAILUA KONA","HI",96745,NA,NA,267,"PO BOX 1026, KAILUA KONA, HI, 96745","No_Match",NA,NA,NA,NA
329768,"PO BOX 1026","MABLETON","GA",30126,NA,NA,268,"PO BOX 1026, MABLETON, GA, 30126","No_Match",NA,NA,NA,NA
329769,"PO BOX 1026","OFALLON","MO",63366,NA,NA,269,"PO BOX 1026, OFALLON, MO, 63366","No_Match",NA,NA,NA,NA
329770,"PO BOX 1026","RIDGEFIELD","WA",98642,NA,NA,270,"PO BOX 1026, RIDGEFIELD, WA, 98642","No_Match",NA,NA,NA,NA
329771,"PO BOX 1026","TEXAS CITY","TX",77592,NA,NA,271,"PO BOX 1026, TEXAS CITY, TX, 77592","No_Match",NA,NA,NA,NA
329772,"PO BOX 1026","WESTWOOD","MA",2090,NA,NA,272,"PO BOX 1026, WESTWOOD, MA, 2090","No_Match",NA,NA,NA,NA
329773,"PO BOX 10262","SANTA ANA","CA",92711,NA,NA,273,"PO BOX 10262, SANTA ANA, CA, 92711","No_Match",NA,NA,NA,NA
329774,"PO BOX 10264","SOUTH LAKE TAHOE","CA",96158,NA,NA,274,"PO BOX 10264, SOUTH LAKE TAHOE, CA, 96158","No_Match",NA,NA,NA,NA
329775,"PO BOX 10266","PARKVILLE","MD",21234,NA,NA,275,"PO BOX 10266, PARKVILLE, MD, 21234","No_Match",NA,NA,NA,NA
329776,"PO BOX 1027","ELLENBORO","NC",28040,NA,NA,276,"PO BOX 1027, ELLENBORO, NC, 28040","No_Match",NA,NA,NA,NA
329777,"PO BOX 1027","PANHANDLE","TX",79068,NA,NA,277,"PO BOX 1027, PANHANDLE, TX, 79068","No_Match",NA,NA,NA,NA
329778,"PO BOX 1027","POPLAR","MT",59255,NA,NA,278,"PO BOX 1027, POPLAR, MT, 59255","No_Match",NA,NA,NA,NA
329779,"PO BOX 1027","PUUNENE","HI",96784,NA,NA,279,"PO BOX 1027, PUUNENE, HI, 96784","No_Match",NA,NA,NA,NA
329780,"PO BOX 1027","RED BLUFF","CA",96013,NA,NA,280,"PO BOX 1027, RED BLUFF, CA, 96013","No_Match",NA,NA,NA,NA
329781,"PO BOX 1027","TROY","OH",45373,NA,NA,281,"PO BOX 1027, TROY, OH, 45373","No_Match",NA,NA,NA,NA
329782,"PO BOX 1027","VALDESE","NC",28690,NA,NA,282,"PO BOX 1027, VALDESE, NC, 28690","No_Match",NA,NA,NA,NA
329783,"PO BOX 10275","RUSSELLVILLE","AR",72812,NA,NA,283,"PO BOX 10275, RUSSELLVILLE, AR, 72812","No_Match",NA,NA,NA,NA
329784,"PO BOX 102781","SWANZEY","NH",3446,NA,NA,284,"PO BOX 102781, SWANZEY, NH, 3446","No_Match",NA,NA,NA,NA
329785,"PO BOX 1028","BEAUFORT","NC",28516,NA,NA,285,"PO BOX 1028, BEAUFORT, NC, 28516","No_Match",NA,NA,NA,NA
329786,"PO BOX 1028","HANSON","MA",2341,NA,NA,286,"PO BOX 1028, HANSON, MA, 2341","No_Match",NA,NA,NA,NA
329787,"PO BOX 1028","MEMPHIS","TN",38101,NA,NA,287,"PO BOX 1028, MEMPHIS, TN, 38101","No_Match",NA,NA,NA,NA
329788,"PO BOX 1028","NEWFIELDS","NH",3856,NA,NA,288,"PO BOX 1028, NEWFIELDS, NH, 3856","No_Match",NA,NA,NA,NA
329789,"PO BOX 1028","SIOUX FALLS","SD",57101,NA,NA,289,"PO BOX 1028, SIOUX FALLS, SD, 57101","No_Match",NA,NA,NA,NA
329790,"PO BOX 1028","VALLEY CENTER","CA",92082,NA,NA,290,"PO BOX 1028, VALLEY CENTER, CA, 92082","No_Match",NA,NA,NA,NA
329791,"PO BOX 10282","FARGO","ND",58106,NA,NA,291,"PO BOX 10282, FARGO, ND, 58106","No_Match",NA,NA,NA,NA
329792,"PO BOX 10285","ROCKVILLE","MD",20849,NA,NA,292,"PO BOX 10285, ROCKVILLE, MD, 20849","No_Match",NA,NA,NA,NA
329793,"PO BOX 1029","AFTON","WY",83110,NA,NA,293,"PO BOX 1029, AFTON, WY, 83110","No_Match",NA,NA,NA,NA
329794,"PO BOX 1029","FLORENCE","OR",97439,NA,NA,294,"PO BOX 1029, FLORENCE, OR, 97439","No_Match",NA,NA,NA,NA
329795,"PO BOX 1029","INTERCESSION CITY","FL",33848,NA,NA,295,"PO BOX 1029, INTERCESSION CITY, FL, 33848","No_Match",NA,NA,NA,NA
329796,"PO BOX 1029","MORRO BAY","CA",93442,NA,NA,296,"PO BOX 1029, MORRO BAY, CA, 93442","No_Match",NA,NA,NA,NA
329797,"PO BOX 1029","PAGO PAGO","AS",96799,NA,NA,297,"PO BOX 1029, PAGO PAGO, AS, 96799","No_Match",NA,NA,NA,NA
329798,"PO BOX 1029","UNION","SC",29379,NA,NA,298,"PO BOX 1029, UNION, SC, 29379","No_Match",NA,NA,NA,NA
329799,"PO BOX 1029","WARSAW","KY",41095,NA,NA,299,"PO BOX 1029, WARSAW, KY, 41095","No_Match",NA,NA,NA,NA
329800,"PO BOX 102901","DENVER","CO",80250,NA,NA,300,"PO BOX 102901, DENVER, CO, 80250","No_Match",NA,NA,NA,NA
329801,"PO BOX 10294","GREENWOOD","MS",38930,NA,NA,301,"PO BOX 10294, GREENWOOD, MS, 38930","No_Match",NA,NA,NA,NA
329802,"PO BOX 10298","SPOKANE","WA",99209,NA,NA,302,"PO BOX 10298, SPOKANE, WA, 99209","No_Match",NA,NA,NA,NA
329803,"PO BOX 103","BARRINGTON","NH",3825,NA,NA,303,"PO BOX 103, BARRINGTON, NH, 3825","No_Match",NA,NA,NA,NA
329804,"PO BOX 103","BEAVER ISLAND","MI",49782,NA,NA,304,"PO BOX 103, BEAVER ISLAND, MI, 49782","No_Match",NA,NA,NA,NA
329805,"PO BOX 103","BOWLING GREEN","VA",22427,NA,NA,305,"PO BOX 103, BOWLING GREEN, VA, 22427","No_Match",NA,NA,NA,NA
329806,"PO BOX 103","BRYANT","AR",72089,NA,NA,306,"PO BOX 103, BRYANT, AR, 72089","No_Match",NA,NA,NA,NA
329807,"PO BOX 103","CALEDONIA","MN",55921,NA,NA,307,"PO BOX 103, CALEDONIA, MN, 55921","No_Match",NA,NA,NA,NA
329808,"PO BOX 103","CLEAR LAKE","MN",55319,NA,NA,308,"PO BOX 103, CLEAR LAKE, MN, 55319","No_Match",NA,NA,NA,NA
329809,"PO BOX 103","COFFEYVILLE","KS",67337,NA,NA,309,"PO BOX 103, COFFEYVILLE, KS, 67337","No_Match",NA,NA,NA,NA
329810,"PO BOX 103","COWETA","OK",74429,NA,NA,310,"PO BOX 103, COWETA, OK, 74429","No_Match",NA,NA,NA,NA
329811,"PO BOX 103","DENVER","PA",17517,NA,NA,311,"PO BOX 103, DENVER, PA, 17517","No_Match",NA,NA,NA,NA
329812,"PO BOX 103","FARMER CITY","IL",61842,NA,NA,312,"PO BOX 103, FARMER CITY, IL, 61842","No_Match",NA,NA,NA,NA
329813,"PO BOX 103","HARRISON CITY","PA",15636,NA,NA,313,"PO BOX 103, HARRISON CITY, PA, 15636","No_Match",NA,NA,NA,NA
329814,"PO BOX 103","HOLLY","MI",48442,NA,NA,314,"PO BOX 103, HOLLY, MI, 48442","No_Match",NA,NA,NA,NA
329815,"PO BOX 103","HYAMPOM","CA",96046,NA,NA,315,"PO BOX 103, HYAMPOM, CA, 96046","No_Match",NA,NA,NA,NA
329816,"PO BOX 103","JERICHO","NY",11753,NA,NA,316,"PO BOX 103, JERICHO, NY, 11753","No_Match",NA,NA,NA,NA
329817,"PO BOX 103","JIM THORPE","PA",18229,NA,NA,317,"PO BOX 103, JIM THORPE, PA, 18229","No_Match",NA,NA,NA,NA
329818,"PO BOX 103","KANAB","UT",84741,NA,NA,318,"PO BOX 103, KANAB, UT, 84741","No_Match",NA,NA,NA,NA
329819,"PO BOX 103","LANSING","IL",60438,NA,NA,319,"PO BOX 103, LANSING, IL, 60438","No_Match",NA,NA,NA,NA
329820,"PO BOX 103","LARWILL","IN",46764,NA,NA,320,"PO BOX 103, LARWILL, IN, 46764","No_Match",NA,NA,NA,NA
329821,"PO BOX 103","MARION","KS",66861,NA,NA,321,"PO BOX 103, MARION, KS, 66861","No_Match",NA,NA,NA,NA
329822,"PO BOX 103","MERRILL","WI",54452,NA,NA,322,"PO BOX 103, MERRILL, WI, 54452","No_Match",NA,NA,NA,NA
329823,"PO BOX 103","MILLBORO","VA",24460,NA,NA,323,"PO BOX 103, MILLBORO, VA, 24460","No_Match",NA,NA,NA,NA
329824,"PO BOX 103","MOUNT CROGHAN","SC",29727,NA,NA,324,"PO BOX 103, MOUNT CROGHAN, SC, 29727","No_Match",NA,NA,NA,NA
329825,"PO BOX 103","NEENAH","WI",54957,NA,NA,325,"PO BOX 103, NEENAH, WI, 54957","No_Match",NA,NA,NA,NA
329826,"PO BOX 103","NORFORK","AR",72658,NA,NA,326,"PO BOX 103, NORFORK, AR, 72658","No_Match",NA,NA,NA,NA
329827,"PO BOX 103","NORTH HAVEN","CT",6473,NA,NA,327,"PO BOX 103, NORTH HAVEN, CT, 6473","No_Match",NA,NA,NA,NA
329828,"PO BOX 103","OHIO","IL",61349,NA,NA,328,"PO BOX 103, OHIO, IL, 61349","No_Match",NA,NA,NA,NA
329829,"PO BOX 103","PULASKI","NY",13142,NA,NA,329,"PO BOX 103, PULASKI, NY, 13142","No_Match",NA,NA,NA,NA
329830,"PO BOX 103","RIDGELAND","MS",39158,NA,NA,330,"PO BOX 103, RIDGELAND, MS, 39158","No_Match",NA,NA,NA,NA
329831,"PO BOX 103","RIPON","WI",54971,NA,NA,331,"PO BOX 103, RIPON, WI, 54971","No_Match",NA,NA,NA,NA
329832,"PO BOX 103","SAINT FRANCISVILLE","LA",70775,NA,NA,332,"PO BOX 103, SAINT FRANCISVILLE, LA, 70775","No_Match",NA,NA,NA,NA
329833,"PO BOX 103","SALEM","OR",97308,NA,NA,333,"PO BOX 103, SALEM, OR, 97308","No_Match",NA,NA,NA,NA
329834,"PO BOX 103","SAXTONS RIVER","VT",5154,NA,NA,334,"PO BOX 103, SAXTONS RIVER, VT, 5154","No_Match",NA,NA,NA,NA
329835,"PO BOX 103","SEDWICK","KS",67135,NA,NA,335,"PO BOX 103, SEDWICK, KS, 67135","No_Match",NA,NA,NA,NA
329836,"PO BOX 103","STOTTVILLE","NY",12172,NA,NA,336,"PO BOX 103, STOTTVILLE, NY, 12172","No_Match",NA,NA,NA,NA
329837,"PO BOX 103","WASHINGTON","WV",26181,NA,NA,337,"PO BOX 103, WASHINGTON, WV, 26181","No_Match",NA,NA,NA,NA
329838,"PO BOX 103","WEST DEPTFORD","NJ",8086,NA,NA,338,"PO BOX 103, WEST DEPTFORD, NJ, 8086","No_Match",NA,NA,NA,NA
329839,"PO BOX 103","WILDWOOD","PA",15091,NA,NA,339,"PO BOX 103, WILDWOOD, PA, 15091","No_Match",NA,NA,NA,NA
329840,"PO BOX 103","WOODWARD","OK",73802,NA,NA,340,"PO BOX 103, WOODWARD, OK, 73802","No_Match",NA,NA,NA,NA
329841,"PO BOX 103","YANKTON","SD",57078,NA,NA,341,"PO BOX 103, YANKTON, SD, 57078","No_Match",NA,NA,NA,NA
329842,"PO BOX 103","ZANESVILLE","OH",43702,NA,NA,342,"PO BOX 103, ZANESVILLE, OH, 43702","No_Match",NA,NA,NA,NA
329843,"PO BOX 1030","BRICK","NJ",8723,NA,NA,343,"PO BOX 1030, BRICK, NJ, 8723","No_Match",NA,NA,NA,NA
329844,"PO BOX 1030","EDWARDSVILLE","IL",62025,NA,NA,344,"PO BOX 1030, EDWARDSVILLE, IL, 62025","No_Match",NA,NA,NA,NA
329845,"PO BOX 1030","HURRICANE","WV",25526,NA,NA,345,"PO BOX 1030, HURRICANE, WV, 25526","No_Match",NA,NA,NA,NA
329846,"PO BOX 1030","VAN BUREN","MD",63965,NA,NA,346,"PO BOX 1030, VAN BUREN, MD, 63965","No_Match",NA,NA,NA,NA
329847,"PO BOX 1030","YELLVILLE","AR",72687,NA,NA,347,"PO BOX 1030, YELLVILLE, AR, 72687","No_Match",NA,NA,NA,NA
329848,"PO BOX 10306","TEMPE","AZ",85284,NA,NA,348,"PO BOX 10306, TEMPE, AZ, 85284","No_Match",NA,NA,NA,NA
329849,"PO BOX 1031","BELTON","MO",64012,NA,NA,349,"PO BOX 1031, BELTON, MO, 64012","No_Match",NA,NA,NA,NA
329850,"PO BOX 1031","BRACKETTVILLE","TX",78832,NA,NA,350,"PO BOX 1031, BRACKETTVILLE, TX, 78832","No_Match",NA,NA,NA,NA
329851,"PO BOX 1031","CONWAY","AR",72033,NA,NA,351,"PO BOX 1031, CONWAY, AR, 72033","No_Match",NA,NA,NA,NA
329852,"PO BOX 1031","GROVE CITY","OH",43123,NA,NA,352,"PO BOX 1031, GROVE CITY, OH, 43123","No_Match",NA,NA,NA,NA
329853,"PO BOX 1031","LAKE OSWEGO","OR",97034,NA,NA,353,"PO BOX 1031, LAKE OSWEGO, OR, 97034","No_Match",NA,NA,NA,NA
329854,"PO BOX 1031","MENLO PARK","CA",94026,NA,NA,354,"PO BOX 1031, MENLO PARK, CA, 94026","No_Match",NA,NA,NA,NA
329855,"PO BOX 1031","MIDDLETOWN","DE",19709,NA,NA,355,"PO BOX 1031, MIDDLETOWN, DE, 19709","No_Match",NA,NA,NA,NA
329856,"PO BOX 1031","SALMON","ID",83467,NA,NA,356,"PO BOX 1031, SALMON, ID, 83467","No_Match",NA,NA,NA,NA
329857,"PO BOX 1031","WINTER PARK","FL",32790,NA,NA,357,"PO BOX 1031, WINTER PARK, FL, 32790","No_Match",NA,NA,NA,NA
329858,"PO BOX 10312","LONGVIEW","TX",75608,NA,NA,358,"PO BOX 10312, LONGVIEW, TX, 75608","No_Match",NA,NA,NA,NA
329859,"PO BOX 1032","BRISTOW","OK",74010,NA,NA,359,"PO BOX 1032, BRISTOW, OK, 74010","No_Match",NA,NA,NA,NA
329860,"PO BOX 1032","BUCHANAN","VA",24066,NA,NA,360,"PO BOX 1032, BUCHANAN, VA, 24066","No_Match",NA,NA,NA,NA
329861,"PO BOX 1032","CENTRALIA","IL",62801,NA,NA,361,"PO BOX 1032, CENTRALIA, IL, 62801","No_Match",NA,NA,NA,NA
329862,"PO BOX 1032","GENOA","NV",89411,NA,NA,362,"PO BOX 1032, GENOA, NV, 89411","No_Match",NA,NA,NA,NA
329863,"PO BOX 1032","GRAND JUNCTION","CO",81502,NA,NA,363,"PO BOX 1032, GRAND JUNCTION, CO, 81502","No_Match",NA,NA,NA,NA
329864,"PO BOX 1032","LAWRENCEBURG","TN",38464,NA,NA,364,"PO BOX 1032, LAWRENCEBURG, TN, 38464","No_Match",NA,NA,NA,NA
329865,"PO BOX 1032","NORTONVILLE","KY",42442,NA,NA,365,"PO BOX 1032, NORTONVILLE, KY, 42442","No_Match",NA,NA,NA,NA
329866,"PO BOX 1032","PORTLAND","TX",78374,NA,NA,366,"PO BOX 1032, PORTLAND, TX, 78374","No_Match",NA,NA,NA,NA
329867,"PO BOX 1032","PROVO","UT",84604,NA,NA,367,"PO BOX 1032, PROVO, UT, 84604","No_Match",NA,NA,NA,NA
329868,"PO BOX 1032","SUTHERLIN","OR",97479,NA,NA,368,"PO BOX 1032, SUTHERLIN, OR, 97479","No_Match",NA,NA,NA,NA
329869,"PO BOX 1032","WEAVERVILLE","NC",28787,NA,NA,369,"PO BOX 1032, WEAVERVILLE, NC, 28787","No_Match",NA,NA,NA,NA
329870,"PO BOX 1033","AZUSA","CA",91702,NA,NA,370,"PO BOX 1033, AZUSA, CA, 91702","No_Match",NA,NA,NA,NA
329871,"PO BOX 1033","BUTTE","MT",59703,NA,NA,371,"PO BOX 1033, BUTTE, MT, 59703","No_Match",NA,NA,NA,NA
329872,"PO BOX 1033","CAVE JUNCTION","OR",97523,NA,NA,372,"PO BOX 1033, CAVE JUNCTION, OR, 97523","No_Match",NA,NA,NA,NA
329873,"PO BOX 1033","COVINGTON","LA",70434,NA,NA,373,"PO BOX 1033, COVINGTON, LA, 70434","No_Match",NA,NA,NA,NA
329874,"PO BOX 1033","DUBLIN","OH",43017,NA,NA,374,"PO BOX 1033, DUBLIN, OH, 43017","No_Match",NA,NA,NA,NA
329875,"PO BOX 1033","ELLICOTTVILLE","NY",14731,NA,NA,375,"PO BOX 1033, ELLICOTTVILLE, NY, 14731","No_Match",NA,NA,NA,NA
329876,"PO BOX 1033","FORT KNOX","KY",40121,NA,NA,376,"PO BOX 1033, FORT KNOX, KY, 40121","No_Match",NA,NA,NA,NA
329877,"PO BOX 1033","FRONT ROYAL","VA",22630,NA,NA,377,"PO BOX 1033, FRONT ROYAL, VA, 22630","No_Match",NA,NA,NA,NA
329878,"PO BOX 1033","GEORGETOWN","TX",78627,NA,NA,378,"PO BOX 1033, GEORGETOWN, TX, 78627","No_Match",NA,NA,NA,NA
329879,"PO BOX 1033","HIGHLAND","CA",92346,NA,NA,379,"PO BOX 1033, HIGHLAND, CA, 92346","No_Match",NA,NA,NA,NA
329880,"PO BOX 1033","HUGHSON","CA",95326,NA,NA,380,"PO BOX 1033, HUGHSON, CA, 95326","No_Match",NA,NA,NA,NA
329881,"PO BOX 1033","LACOMBE","LA",70445,NA,NA,381,"PO BOX 1033, LACOMBE, LA, 70445","No_Match",NA,NA,NA,NA
329882,"PO BOX 1033","PEORIA","AZ",85380,NA,NA,382,"PO BOX 1033, PEORIA, AZ, 85380","No_Match",NA,NA,NA,NA
329883,"PO BOX 1033","PLATTE","SD",57369,NA,NA,383,"PO BOX 1033, PLATTE, SD, 57369","No_Match",NA,NA,NA,NA
329884,"PO BOX 1033","SPRINGFIELD","MA",1101,NA,NA,384,"PO BOX 1033, SPRINGFIELD, MA, 1101","No_Match",NA,NA,NA,NA
329885,"PO BOX 1033","ST ALBANS","VT",5478,NA,NA,385,"PO BOX 1033, ST ALBANS, VT, 5478","No_Match",NA,NA,NA,NA
329886,"PO BOX 1033","TRACY","CA",95378,NA,NA,386,"PO BOX 1033, TRACY, CA, 95378","No_Match",NA,NA,NA,NA
329887,"PO BOX 1033","TRACY","MN",56175,NA,NA,387,"PO BOX 1033, TRACY, MN, 56175","No_Match",NA,NA,NA,NA
329888,"PO BOX 10333","FAYETTEVILLE","AR",72703,NA,NA,388,"PO BOX 10333, FAYETTEVILLE, AR, 72703","No_Match",NA,NA,NA,NA
329889,"PO BOX 10335","ROCHESTER","NY",14610,NA,NA,389,"PO BOX 10335, ROCHESTER, NY, 14610","No_Match",NA,NA,NA,NA
329890,"PO BOX 1034","ARCADIA","CA",91077,NA,NA,390,"PO BOX 1034, ARCADIA, CA, 91077","No_Match",NA,NA,NA,NA
329891,"PO BOX 1034","ARCATA","CA",95518,NA,NA,391,"PO BOX 1034, ARCATA, CA, 95518","No_Match",NA,NA,NA,NA
329892,"PO BOX 1034","ARLINGTON HEIGHTS","IL",60006,NA,NA,392,"PO BOX 1034, ARLINGTON HEIGHTS, IL, 60006","No_Match",NA,NA,NA,NA
329893,"PO BOX 1034","COKATO","MN",55321,NA,NA,393,"PO BOX 1034, COKATO, MN, 55321","No_Match",NA,NA,NA,NA
329894,"PO BOX 1034","COOKEVILLE","TN",38503,NA,NA,394,"PO BOX 1034, COOKEVILLE, TN, 38503","No_Match",NA,NA,NA,NA
329895,"PO BOX 1034","GLENNS FERRY","ID",83623,NA,NA,395,"PO BOX 1034, GLENNS FERRY, ID, 83623","No_Match",NA,NA,NA,NA
329896,"PO BOX 1034","HAZLEHURST","GA",31539,NA,NA,396,"PO BOX 1034, HAZLEHURST, GA, 31539","No_Match",NA,NA,NA,NA
329897,"PO BOX 1034","MINDEN","LA",71058,NA,NA,397,"PO BOX 1034, MINDEN, LA, 71058","No_Match",NA,NA,NA,NA
329898,"PO BOX 1034","NEVADA CITY","CA",95959,NA,NA,398,"PO BOX 1034, NEVADA CITY, CA, 95959","No_Match",NA,NA,NA,NA
329899,"PO BOX 10340","KILLEEN","TX",76547,NA,NA,399,"PO BOX 10340, KILLEEN, TX, 76547","No_Match",NA,NA,NA,NA
329900,"PO BOX 10341","MURFREESBORO","TN",37129,NA,NA,400,"PO BOX 10341, MURFREESBORO, TN, 37129","No_Match",NA,NA,NA,NA
329901,"PO BOX 10344","AUSTIN","TX",78766,NA,NA,401,"PO BOX 10344, AUSTIN, TX, 78766","No_Match",NA,NA,NA,NA
329902,"PO BOX 1035 60 SCHOOL STREET","ORCHARD PARK","NY",14127,42.7649679990001,-78.74648697,402,"PO BOX 1035 60 SCHOOL STREET, ORCHARD PARK, NY, 14127","Match","Exact","60 SCHOOL ST, ORCHARD PARK, NY, 14127",48310659,"R"
329903,"PO BOX 1035","DESOTO","TX",75123,NA,NA,403,"PO BOX 1035, DESOTO, TX, 75123","No_Match",NA,NA,NA,NA
329904,"PO BOX 1035","HAMPTON BAYS","NY",11946,NA,NA,404,"PO BOX 1035, HAMPTON BAYS, NY, 11946","No_Match",NA,NA,NA,NA
329905,"PO BOX 1035","OWATONNA","MN",55060,NA,NA,405,"PO BOX 1035, OWATONNA, MN, 55060","No_Match",NA,NA,NA,NA
329906,"PO BOX 10355","BROOKSVILLE","FL",34603,NA,NA,406,"PO BOX 10355, BROOKSVILLE, FL, 34603","No_Match",NA,NA,NA,NA
329907,"PO BOX 10356","COLUMBIA","SC",29207,NA,NA,407,"PO BOX 10356, COLUMBIA, SC, 29207","No_Match",NA,NA,NA,NA
329908,"PO BOX 1036","BROADALBIN","NY",12025,NA,NA,408,"PO BOX 1036, BROADALBIN, NY, 12025","No_Match",NA,NA,NA,NA
329909,"PO BOX 1036","HAIKU","HI",96708,NA,NA,409,"PO BOX 1036, HAIKU, HI, 96708","No_Match",NA,NA,NA,NA
329910,"PO BOX 1036","KEARNEY","MO",64060,NA,NA,410,"PO BOX 1036, KEARNEY, MO, 64060","No_Match",NA,NA,NA,NA
329911,"PO BOX 1036","LACOOCHEE","FL",33537,NA,NA,411,"PO BOX 1036, LACOOCHEE, FL, 33537","No_Match",NA,NA,NA,NA
329912,"PO BOX 1036","SAN MARTIN","CA",95046,NA,NA,412,"PO BOX 1036, SAN MARTIN, CA, 95046","No_Match",NA,NA,NA,NA
329913,"PO BOX 1036","SPRING CITY","TN",37381,NA,NA,413,"PO BOX 1036, SPRING CITY, TN, 37381","No_Match",NA,NA,NA,NA
329914,"PO BOX 1036","SUPPLY","NC",28462,NA,NA,414,"PO BOX 1036, SUPPLY, NC, 28462","No_Match",NA,NA,NA,NA
329915,"PO BOX 1036","TAYLORS","SC",29687,NA,NA,415,"PO BOX 1036, TAYLORS, SC, 29687","No_Match",NA,NA,NA,NA
329916,"PO BOX 1036","WHITE HOUSE","TN",37188,NA,NA,416,"PO BOX 1036, WHITE HOUSE, TN, 37188","No_Match",NA,NA,NA,NA
329917,"PO BOX 1036","WILLOW","AK",99688,NA,NA,417,"PO BOX 1036, WILLOW, AK, 99688","No_Match",NA,NA,NA,NA
329918,"PO BOX 1036","WINDERMERE","FL",34786,NA,NA,418,"PO BOX 1036, WINDERMERE, FL, 34786","No_Match",NA,NA,NA,NA
329919,"PO BOX 10362","COLUMBUS","OH",43201,NA,NA,419,"PO BOX 10362, COLUMBUS, OH, 43201","No_Match",NA,NA,NA,NA
329920,"PO BOX 10365","PRICHARD","AL",36610,NA,NA,420,"PO BOX 10365, PRICHARD, AL, 36610","No_Match",NA,NA,NA,NA
329921,"PO BOX 1037","BOCA GRANDE","FL",33921,NA,NA,421,"PO BOX 1037, BOCA GRANDE, FL, 33921","No_Match",NA,NA,NA,NA
329922,"PO BOX 1037","DECATUR","TX",76234,NA,NA,422,"PO BOX 1037, DECATUR, TX, 76234","No_Match",NA,NA,NA,NA
329923,"PO BOX 1037","ELLENSBURG","WA",98926,NA,NA,423,"PO BOX 1037, ELLENSBURG, WA, 98926","No_Match",NA,NA,NA,NA
329924,"PO BOX 1037","RAINIER","WA",98576,NA,NA,424,"PO BOX 1037, RAINIER, WA, 98576","No_Match",NA,NA,NA,NA
329925,"PO BOX 10372","STATEN ISLAND","NY",10301,NA,NA,425,"PO BOX 10372, STATEN ISLAND, NY, 10301","No_Match",NA,NA,NA,NA
329926,"PO BOX 10374","BOWLING GREEN","KY",42102,NA,NA,426,"PO BOX 10374, BOWLING GREEN, KY, 42102","No_Match",NA,NA,NA,NA
329927,"PO BOX 10378","LARGO","FL",33773,NA,NA,427,"PO BOX 10378, LARGO, FL, 33773","No_Match",NA,NA,NA,NA
329928,"PO BOX 10379","PORTLAND","ME",4104,NA,NA,428,"PO BOX 10379, PORTLAND, ME, 4104","No_Match",NA,NA,NA,NA
329929,"PO BOX 1038 15733 W COUNTY HWY B","HAYWARD","WI",54843,NA,NA,429,"PO BOX 1038 15733 W COUNTY HWY B, HAYWARD, WI, 54843","No_Match",NA,NA,NA,NA
329930,"PO BOX 1038","APOPKA","FL",32703,NA,NA,430,"PO BOX 1038, APOPKA, FL, 32703","No_Match",NA,NA,NA,NA
329931,"PO BOX 1038","BEAVERTON","OR",97075,NA,NA,431,"PO BOX 1038, BEAVERTON, OR, 97075","No_Match",NA,NA,NA,NA
329932,"PO BOX 1038","NORTH TAZEWELL","VA",24630,NA,NA,432,"PO BOX 1038, NORTH TAZEWELL, VA, 24630","No_Match",NA,NA,NA,NA
329933,"PO BOX 1038","PHOENIX","OR",97535,NA,NA,433,"PO BOX 1038, PHOENIX, OR, 97535","No_Match",NA,NA,NA,NA
329934,"PO BOX 10386","GOLDSBORO","NC",27532,NA,NA,434,"PO BOX 10386, GOLDSBORO, NC, 27532","No_Match",NA,NA,NA,NA
329935,"PO BOX 1039 COOPER STATION","NEW YORK","NY",10003,NA,NA,435,"PO BOX 1039 COOPER STATION, NEW YORK, NY, 10003","No_Match",NA,NA,NA,NA
329936,"PO BOX 1039","JACKSON","MS",39215,NA,NA,436,"PO BOX 1039, JACKSON, MS, 39215","No_Match",NA,NA,NA,NA
329937,"PO BOX 1039","JOSEPH","OR",97846,NA,NA,437,"PO BOX 1039, JOSEPH, OR, 97846","No_Match",NA,NA,NA,NA
329938,"PO BOX 1039","SAINT PAULS","NC",28384,NA,NA,438,"PO BOX 1039, SAINT PAULS, NC, 28384","No_Match",NA,NA,NA,NA
329939,"PO BOX 1039","YONKERS","NY",10704,NA,NA,439,"PO BOX 1039, YONKERS, NY, 10704","No_Match",NA,NA,NA,NA
329940,"PO BOX 10392","PRICHARD","AL",36610,NA,NA,440,"PO BOX 10392, PRICHARD, AL, 36610","No_Match",NA,NA,NA,NA
329941,"PO BOX 10393","MIDWEST CITY","OK",73140,NA,NA,441,"PO BOX 10393, MIDWEST CITY, OK, 73140","No_Match",NA,NA,NA,NA
329942,"PO BOX 10397","LIBERTY","TX",77575,NA,NA,442,"PO BOX 10397, LIBERTY, TX, 77575","No_Match",NA,NA,NA,NA
329943,"PO BOX 104","AMERY","WI",54001,NA,NA,443,"PO BOX 104, AMERY, WI, 54001","No_Match",NA,NA,NA,NA
329944,"PO BOX 104","BLADENSBURG","OH",43005,NA,NA,444,"PO BOX 104, BLADENSBURG, OH, 43005","No_Match",NA,NA,NA,NA
329945,"PO BOX 104","CENTER","MO",63436,NA,NA,445,"PO BOX 104, CENTER, MO, 63436","No_Match",NA,NA,NA,NA
329946,"PO BOX 104","COTTAGE GROVE","OR",97424,NA,NA,446,"PO BOX 104, COTTAGE GROVE, OR, 97424","No_Match",NA,NA,NA,NA
329947,"PO BOX 104","DAWSON SPRINGS","KY",42408,NA,NA,447,"PO BOX 104, DAWSON SPRINGS, KY, 42408","No_Match",NA,NA,NA,NA
329948,"PO BOX 104","DAYTON","NV",89403,NA,NA,448,"PO BOX 104, DAYTON, NV, 89403","No_Match",NA,NA,NA,NA
329949,"PO BOX 104","ELLINGTON","CT",6029,NA,NA,449,"PO BOX 104, ELLINGTON, CT, 6029","No_Match",NA,NA,NA,NA
329950,"PO BOX 104","ERROL","NH",3579,NA,NA,450,"PO BOX 104, ERROL, NH, 3579","No_Match",NA,NA,NA,NA
329951,"PO BOX 104","FAIRMONT","MN",56031,NA,NA,451,"PO BOX 104, FAIRMONT, MN, 56031","No_Match",NA,NA,NA,NA
329952,"PO BOX 104","GORMAN","CA",93243,NA,NA,452,"PO BOX 104, GORMAN, CA, 93243","No_Match",NA,NA,NA,NA
329953,"PO BOX 104","HARTWOOD","VA",22471,NA,NA,453,"PO BOX 104, HARTWOOD, VA, 22471","No_Match",NA,NA,NA,NA
329954,"PO BOX 104","HOUMA","LA",70361,NA,NA,454,"PO BOX 104, HOUMA, LA, 70361","No_Match",NA,NA,NA,NA
329955,"PO BOX 104","HUBERT","NC",28539,NA,NA,455,"PO BOX 104, HUBERT, NC, 28539","No_Match",NA,NA,NA,NA
329956,"PO BOX 104","JENNINGS","FL",32053,NA,NA,456,"PO BOX 104, JENNINGS, FL, 32053","No_Match",NA,NA,NA,NA
329957,"PO BOX 104","KEYPORT","NJ",7735,NA,NA,457,"PO BOX 104, KEYPORT, NJ, 7735","No_Match",NA,NA,NA,NA
329958,"PO BOX 104","LEWIS CENTER","OH",43035,NA,NA,458,"PO BOX 104, LEWIS CENTER, OH, 43035","No_Match",NA,NA,NA,NA
329959,"PO BOX 104","MASON","OH",45040,NA,NA,459,"PO BOX 104, MASON, OH, 45040","No_Match",NA,NA,NA,NA
329960,"PO BOX 104","NORDHEIM","TX",78141,NA,NA,460,"PO BOX 104, NORDHEIM, TX, 78141","No_Match",NA,NA,NA,NA
329961,"PO BOX 104","NORWOOD","MA",2062,NA,NA,461,"PO BOX 104, NORWOOD, MA, 2062","No_Match",NA,NA,NA,NA
329962,"PO BOX 104","OLD SAYBROOK","CT",6475,NA,NA,462,"PO BOX 104, OLD SAYBROOK, CT, 6475","No_Match",NA,NA,NA,NA
329963,"PO BOX 104","PERRY HALL","MD",21128,NA,NA,463,"PO BOX 104, PERRY HALL, MD, 21128","No_Match",NA,NA,NA,NA
329964,"PO BOX 104","RAYNE","LA",70578,NA,NA,464,"PO BOX 104, RAYNE, LA, 70578","No_Match",NA,NA,NA,NA
329965,"PO BOX 104","RICHFIELD","OH",44286,NA,NA,465,"PO BOX 104, RICHFIELD, OH, 44286","No_Match",NA,NA,NA,NA
329966,"PO BOX 104","RICHMOND HILL","GA",31324,NA,NA,466,"PO BOX 104, RICHMOND HILL, GA, 31324","No_Match",NA,NA,NA,NA
329967,"PO BOX 104","ROYERSFORD","PA",19468,NA,NA,467,"PO BOX 104, ROYERSFORD, PA, 19468","No_Match",NA,NA,NA,NA
329968,"PO BOX 104","SCOTLAND","PA",17254,NA,NA,468,"PO BOX 104, SCOTLAND, PA, 17254","No_Match",NA,NA,NA,NA
329969,"PO BOX 104","SHELBYVILLE","IN",46176,NA,NA,469,"PO BOX 104, SHELBYVILLE, IN, 46176","No_Match",NA,NA,NA,NA
329970,"PO BOX 104","SPRINGVILLE","NY",14141,NA,NA,470,"PO BOX 104, SPRINGVILLE, NY, 14141","No_Match",NA,NA,NA,NA
329971,"PO BOX 104","WAMEGO","KS",66547,NA,NA,471,"PO BOX 104, WAMEGO, KS, 66547","No_Match",NA,NA,NA,NA
329972,"PO BOX 104","WEST JEFFERSON","NC",28694,NA,NA,472,"PO BOX 104, WEST JEFFERSON, NC, 28694","No_Match",NA,NA,NA,NA
329973,"PO BOX 104","WILSON MILLS","NC",27593,NA,NA,473,"PO BOX 104, WILSON MILLS, NC, 27593","No_Match",NA,NA,NA,NA
329974,"PO BOX 1040","AVON","CO",81620,NA,NA,474,"PO BOX 1040, AVON, CO, 81620","No_Match",NA,NA,NA,NA
329975,"PO BOX 10404","OAKLAND","CA",94610,NA,NA,475,"PO BOX 10404, OAKLAND, CA, 94610","No_Match",NA,NA,NA,NA
329976,"PO BOX 1041 118 E HANCOCK ST","MILLEDGEVILLE","GA",31059,33.0825127740001,-83.220690946,476,"PO BOX 1041 118 E HANCOCK ST, MILLEDGEVILLE, GA, 31059","Match","Non_Exact","118 E HANCOCK ST, MILLEDGEVILLE, GA, 31061",16582830,"L"
329977,"PO BOX 1041","BATTLE MOUNTAIN","NV",89820,NA,NA,477,"PO BOX 1041, BATTLE MOUNTAIN, NV, 89820","No_Match",NA,NA,NA,NA
329978,"PO BOX 1041","BEAUFORT","NC",28516,NA,NA,478,"PO BOX 1041, BEAUFORT, NC, 28516","No_Match",NA,NA,NA,NA
329979,"PO BOX 1041","CODY","WY",82414,NA,NA,479,"PO BOX 1041, CODY, WY, 82414","No_Match",NA,NA,NA,NA
329980,"PO BOX 1041","LITTLETON","CO",80160,NA,NA,480,"PO BOX 1041, LITTLETON, CO, 80160","No_Match",NA,NA,NA,NA
329981,"PO BOX 1041","MANSFIELD","MA",2048,NA,NA,481,"PO BOX 1041, MANSFIELD, MA, 2048","No_Match",NA,NA,NA,NA
329982,"PO BOX 1041","MARQUETTE","MI",49855,NA,NA,482,"PO BOX 1041, MARQUETTE, MI, 49855","No_Match",NA,NA,NA,NA
329983,"PO BOX 1041","PRINCETON","TX",75407,NA,NA,483,"PO BOX 1041, PRINCETON, TX, 75407","No_Match",NA,NA,NA,NA
329984,"PO BOX 1041","ROCKSPRINGS","TX",78880,NA,NA,484,"PO BOX 1041, ROCKSPRINGS, TX, 78880","No_Match",NA,NA,NA,NA
329985,"PO BOX 1041","ST GEORGE","UT",84771,NA,NA,485,"PO BOX 1041, ST GEORGE, UT, 84771","No_Match",NA,NA,NA,NA
329986,"PO BOX 10411","NORFOLK","VA",23513,NA,NA,486,"PO BOX 10411, NORFOLK, VA, 23513","No_Match",NA,NA,NA,NA
329987,"PO BOX 10412","SPOKANE","WA",99209,NA,NA,487,"PO BOX 10412, SPOKANE, WA, 99209","No_Match",NA,NA,NA,NA
329988,"PO BOX 10414","MARINA DEL REY","CA",90295,NA,NA,488,"PO BOX 10414, MARINA DEL REY, CA, 90295","No_Match",NA,NA,NA,NA
329989,"PO BOX 10414","PENSACOLA","FL",32524,NA,NA,489,"PO BOX 10414, PENSACOLA, FL, 32524","No_Match",NA,NA,NA,NA
329990,"PO BOX 10416","KANSAS CITY","MO",64171,NA,NA,490,"PO BOX 10416, KANSAS CITY, MO, 64171","No_Match",NA,NA,NA,NA
329991,"PO BOX 10416","ST PETERSBURG","FL",33733,NA,NA,491,"PO BOX 10416, ST PETERSBURG, FL, 33733","No_Match",NA,NA,NA,NA
329992,"PO BOX 1042 1050 STREET RD","SOUTHAMPTON","PA",18966,40.169875167,-75.0355247219999,492,"PO BOX 1042 1050 STREET RD, SOUTHAMPTON, PA, 18966","Match","Non_Exact","1050 W STREET RD, SOUTHAMPTON, PA, 18966",134708158,"R"
329993,"PO BOX 1042","COEUR D ALENE","ID",83816,NA,NA,493,"PO BOX 1042, COEUR D ALENE, ID, 83816","No_Match",NA,NA,NA,NA
329994,"PO BOX 1042","HOT SPRINGS","SD",57747,NA,NA,494,"PO BOX 1042, HOT SPRINGS, SD, 57747","No_Match",NA,NA,NA,NA
329995,"PO BOX 1042","LAUREL","MD",20725,NA,NA,495,"PO BOX 1042, LAUREL, MD, 20725","No_Match",NA,NA,NA,NA
329996,"PO BOX 1042","LINDALE","TX",75771,NA,NA,496,"PO BOX 1042, LINDALE, TX, 75771","No_Match",NA,NA,NA,NA
329997,"PO BOX 1042","SIMSBURY","CT",6070,NA,NA,497,"PO BOX 1042, SIMSBURY, CT, 6070","No_Match",NA,NA,NA,NA
329998,"PO BOX 10420","BALTIMORE","MD",21209,NA,NA,498,"PO BOX 10420, BALTIMORE, MD, 21209","No_Match",NA,NA,NA,NA
329999,"PO BOX 10421","PHOENIX","AZ",85064,NA,NA,499,"PO BOX 10421, PHOENIX, AZ, 85064","No_Match",NA,NA,NA,NA
330000,"PO BOX 10424","CALLAWAY","FL",32404,NA,NA,500,"PO BOX 10424, CALLAWAY, FL, 32404","No_Match",NA,NA,NA,NA
