"ID","Address","City","State","Zip","lat","long","id","input_address","match_indicator","match_type","matched_address","tiger_line_id","tiger_side"
295001,"806 E AVE PICO SUITE I 272","SAN CLEMENTE","CA",92673,33.44282889,-117.615452359,1,"806 E AVE PICO SUITE I 272, SAN CLEMENTE, CA, 92673","Match","Exact","806 AVE PICO, SAN CLEMENTE, CA, 92673",609075394,"R"
295002,"806 E ELM STREET","LANDCASTER","WI",53813,42.8499292270001,-90.6995910219999,2,"806 E ELM STREET, LANDCASTER, WI, 53813","Match","Non_Exact","806 E ELM ST, LANCASTER, WI, 53813",32767869,"R"
295003,"806 E MAIN ST","MOLALLA","OR",97038,45.1450481950001,-122.566522432,3,"806 E MAIN ST, MOLALLA, OR, 97038","Match","Exact","806 E MAIN ST, MOLALLA, OR, 97038",157961189,"R"
295004,"806 E UNIVERSITY","FRESNO","CA",93704,36.7667549560001,-119.800853747,4,"806 E UNIVERSITY, FRESNO, CA, 93704","Match","Non_Exact","806 E UNIVERSITY AVE, FRESNO, CA, 93704",197574714,"R"
295005,"806 EAST 36TH STREET","SAVANNAH","GA",31401,32.05485579,-81.0869805249999,5,"806 EAST 36TH STREET, SAVANNAH, GA, 31401","Match","Exact","806 E 36TH ST, SAVANNAH, GA, 31401",6176886,"L"
295006,"806 EVERGREEN FOREST BLVD","AVENEL","NJ",7001,40.5787580950001,-74.263381298,6,"806 EVERGREEN FOREST BLVD, AVENEL, NJ, 7001","Match","Non_Exact","806 EVERGREEN FOREST DR, AVENEL, NJ, 07001",642133636,"L"
295007,"806 FORT STREET","PAPILLION","NE",68046,41.148551292,-96.0615092259999,7,"806 FORT STREET, PAPILLION, NE, 68046","Match","Exact","806 FORT ST, PAPILLION, NE, 68046",28466902,"R"
295008,"806 FOXWOOD AVENUE","LOUISVILLE","KY",40223,38.257414612,-85.569091559,8,"806 FOXWOOD AVENUE, LOUISVILLE, KY, 40223","Match","Exact","806 FOXWOOD AVE, LOUISVILLE, KY, 40223",96863771,"L"
295009,"806 GLENDALE DR","KELLER","TX",76248,32.918914596,-97.20666104,9,"806 GLENDALE DR, KELLER, TX, 76248","Match","Exact","806 GLENDALE DR, KELLER, TX, 76248",102108420,"R"
295010,"806 GOVERNMENT STREET STE D","MOBILE","AL",36602,NA,NA,10,"806 GOVERNMENT STREET STE D, MOBILE, AL, 36602","No_Match",NA,NA,NA,NA
295011,"806 GREEN VALLEY RD STE 200","GREENSBORO","NC",27408,36.091788912,-79.8172228619999,11,"806 GREEN VALLEY RD STE 200, GREENSBORO, NC, 27408","Match","Exact","806 GREEN VALLEY RD, GREENSBORO, NC, 27408",131095885,"R"
295012,"806 GREEN VALLEY ROAD SUITE 200","GREENSBORO","NC",27405,36.091788912,-79.8172228619999,12,"806 GREEN VALLEY ROAD SUITE 200, GREENSBORO, NC, 27405","Match","Non_Exact","806 GREEN VALLEY RD, GREENSBORO, NC, 27408",131095885,"R"
295013,"806 GREEN VALLEY ROAD SUITE 200","GREENSBORO","NC",27408,36.091788912,-79.8172228619999,13,"806 GREEN VALLEY ROAD SUITE 200, GREENSBORO, NC, 27408","Match","Exact","806 GREEN VALLEY RD, GREENSBORO, NC, 27408",131095885,"R"
295014,"806 GREENWOOD DRIVE","SPRING LAKE HEIGHTS","NJ",7762,40.1593004580001,-74.038221456,14,"806 GREENWOOD DRIVE, SPRING LAKE HEIGHTS, NJ, 7762","Match","Non_Exact","806 GREENWOOD DR, SPRING LAKE, NJ, 07762",90459277,"R"
295015,"806 HAMLIN STREET","EVANSTON","IL",60201,42.0550668550001,-87.6820264959999,15,"806 HAMLIN STREET, EVANSTON, IL, 60201","Match","Exact","806 HAMLIN ST, EVANSTON, IL, 60201",605245427,"L"
295016,"806 HAVENBROOK DR","ARLINGTON","TX",76001,32.635339629,-97.1229027799999,16,"806 HAVENBROOK DR, ARLINGTON, TX, 76001","Match","Exact","806 HAVENBROOK DR, ARLINGTON, TX, 76001",101948888,"R"
295017,"806 HEDGEROW COURT","OSWEGO","IL",60543,41.66620306,-88.344433105,17,"806 HEDGEROW COURT, OSWEGO, IL, 60543","Match","Exact","806 HEDGEROW CT, OSWEGO, IL, 60543",619208747,"R"
295018,"806 HIDDEN TRAIL","GREENSBURG","PA",15601,40.2888723500001,-79.493875545,18,"806 HIDDEN TRAIL, GREENSBURG, PA, 15601","Match","Exact","806 HIDDEN TRL, GREENSBURG, PA, 15601",636903352,"L"
295019,"806 HIGHLAND RIDGE AVENUE","GAITHERSBURG","MD",20878,39.123408204,-77.2256783509999,19,"806 HIGHLAND RIDGE AVENUE, GAITHERSBURG, MD, 20878","Match","Exact","806 HIGHLAND RIDGE AVE, GAITHERSBURG, MD, 20878",62144908,"R"
295020,"806 HILYARD ROBINSON WAY","YPSILANTI","MI",48197,NA,NA,20,"806 HILYARD ROBINSON WAY, YPSILANTI, MI, 48197","No_Match",NA,NA,NA,NA
295021,"806 HORSESHOE CIRCLE","WAUCONDA","IL",60084,42.250400875,-88.16149602,21,"806 HORSESHOE CIRCLE, WAUCONDA, IL, 60084","Match","Exact","806 HORSESHOE CIR, WAUCONDA, IL, 60084",119695583,"R"
295022,"806 HYACINTH PLACE","MISSOURI CITY","TX",77459,29.5467022030001,-95.542103393,22,"806 HYACINTH PLACE, MISSOURI CITY, TX, 77459","Match","Exact","806 HYACINTH PL, MISSOURI CITY, TX, 77459",78269749,"R"
295023,"806 ILLINOIS ST","PEKIN","IL",61554,40.577841822,-89.6408864919999,23,"806 ILLINOIS ST, PEKIN, IL, 61554","Match","Exact","806 ILLINOIS ST, PEKIN, IL, 61554",22497480,"R"
295024,"806 JACARANDA CIR","SARASOTA","FL",34285,27.101443449,-82.43130058,24,"806 JACARANDA CIR, SARASOTA, FL, 34285","Match","Non_Exact","806 JACARANDA CIR, VENICE, FL, 34285",16360629,"L"
295025,"806 JACON WAY","PACIFIC PALISADES","CA",90272,34.051357748,-118.546815063,25,"806 JACON WAY, PACIFIC PALISADES, CA, 90272","Match","Exact","806 JACON WAY, PACIFIC PALISADES, CA, 90272",141557373,"R"
295026,"806 JANET ST","TAHLEQUAH","OK",74464,35.924856483,-94.958748783,26,"806 JANET ST, TAHLEQUAH, OK, 74464","Match","Exact","806 JANET ST, TAHLEQUAH, OK, 74464",647483485,"L"
295027,"806 KINGS LANE","BENSALEM","PA",19020,40.067095916,-74.9672548569999,27,"806 KINGS LANE, BENSALEM, PA, 19020","Match","Exact","806 KINGS LN, BENSALEM, PA, 19020",134714308,"L"
295028,"806 LAPOINT DRIVE SE","STEWARTVILLE","MN",55976,43.84610373,-92.475470044,28,"806 LAPOINT DRIVE SE, STEWARTVILLE, MN, 55976","Match","Exact","806 LAPOINT DR SE, STEWARTVILLE, MN, 55976",30562510,"R"
295029,"806 LAWENCE AVE","ELLWOOD CITY","PA",16117,NA,NA,29,"806 LAWENCE AVE, ELLWOOD CITY, PA, 16117","No_Match",NA,NA,NA,NA
295030,"806 LEESBURG PLACE","JONESBORO","GA",30236,33.500097139,-84.2809107269999,30,"806 LEESBURG PLACE, JONESBORO, GA, 30236","Match","Exact","806 LEESBURG PL, JONESBORO, GA, 30236",23203703,"L"
295031,"806 LINDSEY LANE","RUSSELLVILLE","AR",72801,35.27104193,-93.1593362419999,31,"806 LINDSEY LANE, RUSSELLVILLE, AR, 72801","Match","Exact","806 LINDSEY LN, RUSSELLVILLE, AR, 72801",649599669,"R"
295032,"806 LITERARY ROAD SUITE 202","CLEVELAND","OH",44113,41.482009057,-81.686126497,32,"806 LITERARY ROAD SUITE 202, CLEVELAND, OH, 44113","Match","Exact","806 LITERARY RD, CLEVELAND, OH, 44113",61111429,"R"
295033,"806 LOGAN CIRCLE","YANKTON","SD",57078,42.8940349540001,-97.377881918,33,"806 LOGAN CIRCLE, YANKTON, SD, 57078","Match","Exact","806 LOGAN CIR, YANKTON, SD, 57078",645409165,"L"
295034,"806 LOOP AVE STE A129","BAINBRIDGE","GA",39819,NA,NA,34,"806 LOOP AVE STE A129, BAINBRIDGE, GA, 39819","No_Match",NA,NA,NA,NA
295035,"806 MAIN STREET","ROCHESTER","IN",46975,41.065915917,-86.215962895,35,"806 MAIN STREET, ROCHESTER, IN, 46975","Match","Exact","806 MAIN ST, ROCHESTER, IN, 46975",7842384,"L"
295036,"806 MARGARET SQUARE","WINTER PARK","FL",32789,28.6110347800001,-81.3725262789999,36,"806 MARGARET SQUARE, WINTER PARK, FL, 32789","Match","Exact","806 MARGARET SQ, WINTER PARK, FL, 32789",639250232,"R"
295037,"806 MEDFORD PLACE","VENTURA","CA",93004,34.2729080010001,-119.179864971,37,"806 MEDFORD PLACE, VENTURA, CA, 93004","Match","Exact","806 MEDFORD PL, VENTURA, CA, 93004",109956980,"L"
295038,"806 MONTANA AVENUE","EL PASO","TX",79902,31.767251163,-106.486426284,38,"806 MONTANA AVENUE, EL PASO, TX, 79902","Match","Exact","806 MONTANA AVE, EL PASO, TX, 79902",189341668,"R"
295039,"806 MOUNTAIN VIEW CHURCH ROAD","ZIRCONIA","NC",28790,35.2329110100001,-82.428233222,39,"806 MOUNTAIN VIEW CHURCH ROAD, ZIRCONIA, NC, 28790","Match","Exact","806 MOUNTAIN VIEW CHURCH RD, ZIRCONIA, NC, 28790",152308595,"R"
295040,"806 MURPHY AVE SW  APT 1223","ATLANTA","GA",30310,33.7327138590001,-84.412868325,40,"806 MURPHY AVE SW  APT 1223, ATLANTA, GA, 30310","Match","Exact","806 MURPHY AVE SW, ATLANTA, GA, 30310",17413670,"L"
295041,"806 N 4TH ST","COEUR D ALENE","ID",83814,47.6805314150001,-116.78088067,41,"806 N 4TH ST, COEUR D ALENE, ID, 83814","Match","Exact","806 N 4TH ST, COEUR D ALENE, ID, 83814",192902547,"R"
295042,"806 N CROCKETT","FREDERICKSBURG","TX",78624,30.2823441890001,-98.8671014339999,42,"806 N CROCKETT, FREDERICKSBURG, TX, 78624","Match","Non_Exact","806 N CROCKETT ST, FREDERICKSBURG, TX, 78624",176836399,"L"
295043,"806 N CUMMINGS DRIVE APT 11","ALVARADO","TX",76009,32.4148820030001,-97.214428346,43,"806 N CUMMINGS DRIVE APT 11, ALVARADO, TX, 76009","Match","Non_Exact","806 N CUMMINGS DR, ALVARADO, TX, 76009",103555584,"L"
295044,"806 N EDINBURGH AVENUE APT 3","LOS ANGELES","CA",90046,34.0857236260001,-118.363751544,44,"806 N EDINBURGH AVENUE APT 3, LOS ANGELES, CA, 90046","Match","Non_Exact","806 N EDINBURGH AVE, LOS ANGELES, CA, 90046",141598144,"R"
295045,"806 N MONTEMORELOS DRIVE","ALTON","TX",78573,26.2903990410001,-98.292243994,45,"806 N MONTEMORELOS DRIVE, ALTON, TX, 78573","Match","Non_Exact","806 MONTEMORELOS ST, ALTON, TX, 78573",71523560,"R"
295046,"806 N WASHINGTON ST C/O ACTIVITIES","BISMARCK","ND",58501,46.8131125670001,-100.794251969,46,"806 N WASHINGTON ST C/O ACTIVITIES, BISMARCK, ND, 58501","Match","Non_Exact","806 N WASHINGTON ST, BISMARCK, ND, 58501",198847955,"L"
295047,"806 N WOOD AVENUE","FLORENCE","AL",35630,34.811531469,-87.678861392,47,"806 N WOOD AVENUE, FLORENCE, AL, 35630","Match","Exact","806 N WOOD AVE, FLORENCE, AL, 35630",41321283,"R"
295048,"806 NORTH 33RD STREET","EAST SAINT  LOUIS","IL",62205,38.6168982090001,-90.1171032949999,48,"806 NORTH 33RD STREET, EAST SAINT  LOUIS, IL, 62205","Match","Exact","806 N 33RD ST, E SAINT LOUIS, IL, 62205",107831119,"R"
295049,"806 NORTH SECTION STREET","FAIRHOPE","AL",36532,30.5399860700001,-87.898973841,49,"806 NORTH SECTION STREET, FAIRHOPE, AL, 36532","Match","Exact","806 N SECTION ST, FAIRHOPE, AL, 36532",131649436,"L"
295050,"806 NORTH SIXTH STREET","SPRINGFIELD","IL",62702,39.8099426900001,-89.647648846,50,"806 NORTH SIXTH STREET, SPRINGFIELD, IL, 62702","Match","Exact","806 N 6TH ST, SPRINGFIELD, IL, 62702",97324712,"R"
295051,"806 OAKMONT AVENUE","SUN CITY CENTER","FL",33573,27.723581731,-82.3479210789999,51,"806 OAKMONT AVENUE, SUN CITY CENTER, FL, 33573","Match","Exact","806 OAKMONT AVE, SUN CITY CENTER, FL, 33573",104498854,"R"
295052,"806 OHIO STREET","MICHIGAN CITY","IN",46360,41.711825269,-86.907207598,52,"806 OHIO STREET, MICHIGAN CITY, IN, 46360","Match","Exact","806 OHIO ST, MICHIGAN CITY, IN, 46360",15410633,"L"
295053,"806 ONYX PLACE","FLOWOOD","MS",39232,32.34800999,-90.022748849,53,"806 ONYX PLACE, FLOWOOD, MS, 39232","Match","Exact","806 ONYX PL, FLOWOOD, MS, 39232",649675851,"R"
295054,"806 PARADE STREET","ERIE","PA",16503,42.1304988630001,-80.075283424,54,"806 PARADE STREET, ERIE, PA, 16503","Match","Exact","806 PARADE ST, ERIE, PA, 16503",117497131,"R"
295055,"806 RACE STREET","WAYNESBURG","PA",15370,39.902499737,-80.177138536,55,"806 RACE STREET, WAYNESBURG, PA, 15370","Match","Exact","806 RACE ST, WAYNESBURG, PA, 15370",51373396,"R"
295056,"806 RED DR STE 105","TRAVERSE CITY","MI",49684,NA,NA,56,"806 RED DR STE 105, TRAVERSE CITY, MI, 49684","No_Match",NA,NA,NA,NA
295057,"806 RITCHIE BOULEVARD","STAUNTON","VA",24401,38.1338059830001,-79.0743854199999,57,"806 RITCHIE BOULEVARD, STAUNTON, VA, 24401","Match","Exact","806 RITCHIE BLVD, STAUNTON, VA, 24401",614697402,"R"
295058,"806 ROBIN AVE","PALM HARBOR","FL",34683,28.0984606980001,-82.770601352,58,"806 ROBIN AVE, PALM HARBOR, FL, 34683","Match","Exact","806 ROBIN AVE, PALM HARBOR, FL, 34683",124661698,"R"
295059,"806 RUBY AVENUE","COLUMBUS","OH",43227,39.955338365,-82.906407268,59,"806 RUBY AVENUE, COLUMBUS, OH, 43227","Match","Exact","806 RUBY AVE, COLUMBUS, OH, 43227",218649753,"L"
295060,"806 S 15TH ST","CHESTERTON","IN",46304,41.6034972780001,-87.071369768,60,"806 S 15TH ST, CHESTERTON, IN, 46304","Match","Exact","806 S 15TH ST, CHESTERTON, IN, 46304",119932007,"L"
295061,"806 S 34TH AVENUE","HATTIESBURG","MS",39402,31.309755023,-89.340027478,61,"806 S 34TH AVENUE, HATTIESBURG, MS, 39402","Match","Exact","806 S 34TH AVE, HATTIESBURG, MS, 39402",324051,"L"
295062,"806 S BRACKNEY ST","LAFAYETTE","IN",47923,40.597803142,-86.861248371,62,"806 S BRACKNEY ST, LAFAYETTE, IN, 47923","Match","Non_Exact","806 BRACKNEY ST, BROOKSTON, IN, 47923",27370783,"R"
295063,"806 S GILLETTE AVE","GILLETTE","WY",82716,44.2873391520001,-105.504590053,63,"806 S GILLETTE AVE, GILLETTE, WY, 82716","Match","Exact","806 S GILLETTE AVE, GILLETTE, WY, 82716",636233662,"L"
295064,"806 S OAKLEY BLVD","CHICAGO","IL",60612,41.871118886,-87.683717884,64,"806 S OAKLEY BLVD, CHICAGO, IL, 60612","Match","Exact","806 S OAKLEY BLVD, CHICAGO, IL, 60612",111801716,"R"
295065,"806 S VANCE STREET","SANFORD","NC",27330,35.473942203,-79.1812148719999,65,"806 S VANCE STREET, SANFORD, NC, 27330","Match","Exact","806 S VANCE ST, SANFORD, NC, 27330",72059377,"L"
295066,"806 SAMPSON ST SUITE 403","HOUSTON","TX",77003,29.7459245430001,-95.343271099,66,"806 SAMPSON ST SUITE 403, HOUSTON, TX, 77003","Match","Exact","806 SAMPSON ST, HOUSTON, TX, 77003",96073506,"R"
295067,"806 SANDALWOOD DR","ALTOONA","WI",54720,44.8139058880001,-91.450609476,67,"806 SANDALWOOD DR, ALTOONA, WI, 54720","Match","Exact","806 SANDALWOOD DR, ALTOONA, WI, 54720",46081187,"R"
295068,"806 SILVER LAKE DRIVE","PORTAGE","WI",53901,43.555294519,-89.477318871,68,"806 SILVER LAKE DRIVE, PORTAGE, WI, 53901","Match","Exact","806 SILVER LAKE DR, PORTAGE, WI, 53901",73329345,"L"
295069,"806 SITKA AVE","NEWBERG","OR",97132,45.3055353880001,-122.959018676,69,"806 SITKA AVE, NEWBERG, OR, 97132","Match","Exact","806 SITKA AVE, NEWBERG, OR, 97132",156510859,"L"
295070,"806 SOUTH BOULEVARD","GREENWOOD","MS",38930,NA,NA,70,"806 SOUTH BOULEVARD, GREENWOOD, MS, 38930","No_Match",NA,NA,NA,NA
295071,"806 STOCKDALE RD","MUNFORD","AL",36268,33.462114077,-86.026981296,71,"806 STOCKDALE RD, MUNFORD, AL, 36268","Match","Exact","806 STOCKDALE RD, MUNFORD, AL, 36268",66918501,"L"
295072,"806 SW 132ND ST","BURIEN","WA",98146,47.4848498600001,-122.344779293,72,"806 SW 132ND ST, BURIEN, WA, 98146","Match","Exact","806 SW 132ND ST, BURIEN, WA, 98146",239770693,"R"
295073,"806 TARBORO ST","WILSON","NC",27893,35.721125628,-77.92593177,73,"806 TARBORO ST, WILSON, NC, 27893","Match","Non_Exact","806 TARBORO ST W, WILSON, NC, 27893",26705404,"R"
295074,"806 TEAL DRIVE","CONWAY","AR",72034,35.090569341,-92.499352054,74,"806 TEAL DRIVE, CONWAY, AR, 72034","Match","Exact","806 TEAL DR, CONWAY, AR, 72034",141053332,"L"
295075,"806 W  CENTRAL AVE P O BOX 287","MT HOLLY","NC",28120,35.3041799650001,-81.032717696,75,"806 W  CENTRAL AVE P O BOX 287, MT HOLLY, NC, 28120","Match","Non_Exact","806 W CENTRAL AVE, MOUNT HOLLY, NC, 28120",70456424,"L"
295076,"806 W CENTRAL AVENUE 1111","MOUNT HOLLY","NC",28120,35.3041799650001,-81.032717696,76,"806 W CENTRAL AVENUE 1111, MOUNT HOLLY, NC, 28120","Match","Non_Exact","806 W CENTRAL AVE, MOUNT HOLLY, NC, 28120",70456424,"L"
295077,"806 W CHERRY ST","PAYSON","AZ",85541,34.2334980750001,-111.338538898,77,"806 W CHERRY ST, PAYSON, AZ, 85541","Match","Exact","806 W CHERRY ST, PAYSON, AZ, 85541",159323234,"L"
295078,"806 W MCLENDON STREET","PLANT CITY","FL",33563,28.0176518280001,-82.129801433,78,"806 W MCLENDON STREET, PLANT CITY, FL, 33563","Match","Exact","806 W MCLENDON ST, PLANT CITY, FL, 33563",104606319,"R"
295079,"806 W VETERANS PKWY","ADDISON","IL",60101,NA,NA,79,"806 W VETERANS PKWY, ADDISON, IL, 60101","Tie",NA,NA,NA,NA
295080,"806 WASENA AVE SW","ROANOKE","VA",24015,37.2638004070001,-79.957371322,80,"806 WASENA AVE SW, ROANOKE, VA, 24015","Match","Exact","806 WASENA AVE SW, ROANOKE, VA, 24015",62916322,"L"
295081,"806 WATERVIEW RD","YOUNGSVILLE","LA",70592,30.1069881450001,-92.0117424159999,81,"806 WATERVIEW RD, YOUNGSVILLE, LA, 70592","Match","Exact","806 WATERVIEW RD, YOUNGSVILLE, LA, 70592",648195499,"R"
295082,"806 WEST MILLER STREET","DE SOTO","MO",63020,38.1357618500001,-90.562555179,82,"806 WEST MILLER STREET, DE SOTO, MO, 63020","Match","Exact","806 W MILLER ST, DE SOTO, MO, 63020",62769749,"R"
295083,"806 WEST WOODBINE AVENUE","ST.LOUIS","MO",63122,38.5742630130001,-90.423144316,83,"806 WEST WOODBINE AVENUE, ST.LOUIS, MO, 63122","Match","Exact","806 W WOODBINE AVE, SAINT LOUIS, MO, 63122",100129245,"L"
295084,"806 WESTMINSTER LANE","CRANBERRY TOWNSHIP","PA",16066,40.7024394150001,-80.1297905719999,84,"806 WESTMINSTER LANE, CRANBERRY TOWNSHIP, PA, 16066","Match","Exact","806 WESTMINSTER LN, CRANBERRY TOWNSHIP, PA, 16066",649977279,"R"
295085,"806 WILDWOOD AVE","SHERWOOD","AR",72120,34.8145626260001,-92.2221711459999,85,"806 WILDWOOD AVE, SHERWOOD, AR, 72120","Match","Exact","806 WILDWOOD AVE, SHERWOOD, AR, 72120",83514759,"L"
295086,"806 WMA ROAD","ROCKWOOD","TN",37854,35.9870354220001,-84.677119717,86,"806 WMA ROAD, ROCKWOOD, TN, 37854","Match","Exact","806 WMA RD, ROCKWOOD, TN, 37854",26302395,"R"
295087,"806 WYNGATE DR EAST","VALLEY STREAM","NY",11580,NA,NA,87,"806 WYNGATE DR EAST, VALLEY STREAM, NY, 11580","No_Match",NA,NA,NA,NA
295088,"806","MILLEN","GA",30442,NA,NA,88,"806, MILLEN, GA, 30442","No_Match",NA,NA,NA,NA
295089,"8060 13TH ST APT 1106","SILVER SPRING","MD",20910,38.987296585,-77.027472362,89,"8060 13TH ST APT 1106, SILVER SPRING, MD, 20910","Match","Exact","8060 13TH ST, SILVER SPRING, MD, 20910",62068631,"L"
295090,"8060 13TH STREET NUMBER 1502","SILVER SPRING","MD",20910,38.987296585,-77.027472362,90,"8060 13TH STREET NUMBER 1502, SILVER SPRING, MD, 20910","Match","Exact","8060 13TH ST, SILVER SPRING, MD, 20910",62068631,"L"
295091,"8060 FLORENCE AVE SUITE 209","DOWNEY","CA",90240,33.9529327060001,-118.128783292,91,"8060 FLORENCE AVE SUITE 209, DOWNEY, CA, 90240","Match","Exact","8060 FLORENCE AVE, DOWNEY, CA, 90240",241244883,"R"
295092,"8060 HOLLOW CREEK  CT","INDIANAPOLIS","IN",46268,39.901472267,-86.229885677,92,"8060 HOLLOW CREEK  CT, INDIANAPOLIS, IN, 46268","Match","Exact","8060 HOLLOW CREEK CT, INDIANAPOLIS, IN, 46268",107975759,"R"
295093,"8060 MAPAVI DRIVE","BONNE TERRE","MO",63628,37.942320807,-90.527329347,93,"8060 MAPAVI DRIVE, BONNE TERRE, MO, 63628","Match","Non_Exact","8060 W MAPAVI DR, BONNE TERRE, MO, 63628",62389576,"R"
295094,"8060 MELROSE AVENUE THIRD FLOOR","LA","CA",90046,34.0837553120001,-118.365081381,94,"8060 MELROSE AVENUE THIRD FLOOR, LA, CA, 90046","Match","Exact","8060 MELROSE AVE, LOS ANGELES, CA, 90046",141598274,"L"
295095,"8060 NORTH LAKE DRIVE","TRUSSVILLE","AL",35173,33.6289155310001,-86.5478749169999,95,"8060 NORTH LAKE DRIVE, TRUSSVILLE, AL, 35173","Match","Non_Exact","8060 S LAKE DR, TRUSSVILLE, AL, 35173",621024825,"R"
295096,"8060 NW 126TH TERR","PARKLAND","FL",33076,26.3303991560001,-80.293909442,96,"8060 NW 126TH TERR, PARKLAND, FL, 33076","Match","Exact","8060 NW 126 TER, PARKLAND, FL, 33076",653214505,"R"
295097,"8060 PRICHARDS CT","DUNN LORING","VA",22027,38.8877444280001,-77.2231645639999,97,"8060 PRICHARDS CT, DUNN LORING, VA, 22027","Match","Exact","8060 PRICHARDS CT, DUNN LORING, VA, 22027",76039511,"L"
295098,"8060 SIERRA STREET","FAIR OAKS","CA",95628,38.641312441,-121.266083446,98,"8060 SIERRA STREET, FAIR OAKS, CA, 95628","Match","Exact","8060 SIERRA ST, FAIR OAKS, CA, 95628",624959274,"R"
295099,"8060 W BLUE DIAMOND UNIT 110","LAS VEGAS","NV",89178,36.020191514,-115.267185715,99,"8060 W BLUE DIAMOND UNIT 110, LAS VEGAS, NV, 89178","Match","Non_Exact","8060 BLUE DIAMOND RD, LAS VEGAS, NV, 89178",627486528,"R"
295100,"8060 WATERFOWL AVE","NAMPA","ID",83687,43.614018549,-116.554190297,100,"8060 WATERFOWL AVE, NAMPA, ID, 83687","Match","Exact","8060 WATERFOWL AVE, NAMPA, ID, 83687",122802577,"R"
295101,"8060 WEBB ROAD SUITE 741202","RIVERDALE","GA",30274,33.5336183530001,-84.414472791,101,"8060 WEBB ROAD SUITE 741202, RIVERDALE, GA, 30274","Match","Exact","8060 WEBB RD, RIVERDALE, GA, 30274",650130635,"L"
295102,"80602 S EDWARDS RD","HERMISTON","OR",97838,45.8683019580001,-119.203000436,102,"80602 S EDWARDS RD, HERMISTON, OR, 97838","Match","Exact","80602 S EDWARDS RD, HERMISTON, OR, 97838",170392650,"L"
295103,"8061 SOUTHGATE BLVD UNIT 15","NORTH LAUDERDALE","FL",33068,26.2282989550001,-80.236390429,103,"8061 SOUTHGATE BLVD UNIT 15, NORTH LAUDERDALE, FL, 33068","Match","Exact","8061 SOUTHGATE BLVD, N LAUDERDALE, FL, 33068",114691881,"L"
295104,"8062 BLACKMAN RD","KINGSLEY","MI",49649,44.5688315510001,-85.556668288,104,"8062 BLACKMAN RD, KINGSLEY, MI, 49649","Match","Exact","8062 BLACKMAN RD, KINGSLEY, MI, 49649",145534178,"L"
295105,"8062 GRANDVIEW CT","SPRINGFIELD","VA",22153,38.730925654,-77.225321214,105,"8062 GRANDVIEW CT, SPRINGFIELD, VA, 22153","Match","Exact","8062 GRANDVIEW CT, SPRINGFIELD, VA, 22153",75977179,"R"
295106,"8062 QUAILWOOD CT","WEST CHESTER","OH",45069,39.3465968400001,-84.357585586,106,"8062 QUAILWOOD CT, WEST CHESTER, OH, 45069","Match","Exact","8062 QUAILWOOD CT, WEST CHESTER, OH, 45069",113800748,"R"
295107,"8063 HENDERSON ROAD","GOODRICH","MI",48438,42.917186486,-83.47465475,107,"8063 HENDERSON ROAD, GOODRICH, MI, 48438","Match","Exact","8063 HENDERSON RD, GOODRICH, MI, 48438",69598259,"L"
295108,"8063 LADYSMITH RD","RUTHER GLEN","VA",22546,38.0181001290001,-77.509371796,108,"8063 LADYSMITH RD, RUTHER GLEN, VA, 22546","Match","Exact","8063 LADYSMITH RD, RUTHER GLEN, VA, 22546",21962614,"L"
295109,"8063 MADISON AVENUE PMB 210","INDIANAPOLIS","IN",46227,39.648132177,-86.121316495,109,"8063 MADISON AVENUE PMB 210, INDIANAPOLIS, IN, 46227","Match","Exact","8063 MADISON AVE, INDIANAPOLIS, IN, 46227",108008567,"L"
295110,"8063 MADISON AVENUE STE 218","INDIANAPOLIS","IN",46227,39.648132177,-86.121316495,110,"8063 MADISON AVENUE STE 218, INDIANAPOLIS, IN, 46227","Match","Exact","8063 MADISON AVE, INDIANAPOLIS, IN, 46227",108008567,"L"
295111,"8063 PALM HARBOR WAY","ORLANDO","FL",32822,28.4834643140001,-81.276419893,111,"8063 PALM HARBOR WAY, ORLANDO, FL, 32822","Match","Exact","8063 PALM HARBOR WAY, ORLANDO, FL, 32822",94325223,"L"
295112,"8063 RIVER RD","FORT MILL","SC",29707,34.9510876050001,-80.852938017,112,"8063 RIVER RD, FORT MILL, SC, 29707","Match","Exact","8063 RIVER RD, FORT MILL, SC, 29707",40690296,"L"
295113,"8063 W WELDON AVE","PHOENIX","AZ",85033,33.490141024,-112.231936207,113,"8063 W WELDON AVE, PHOENIX, AZ, 85033","Match","Exact","8063 W WELDON AVE, PHOENIX, AZ, 85033",128170963,"L"
295114,"8064 67TH AVENUE APT 2F","RIDGEWOOD","NY",11385,NA,NA,114,"8064 67TH AVENUE APT 2F, RIDGEWOOD, NY, 11385","No_Match",NA,NA,NA,NA
295115,"8064 ALLISON AVE - 524","LA MESA","CA",91942,32.766051303,-117.023956859,115,"8064 ALLISON AVE - 524, LA MESA, CA, 91942","Match","Exact","8064 ALLISON AVE, LA MESA, CA, 91942",195359373,"L"
295116,"8064 BYRON CENTER AVE SW","BYRON CENTER","MI",49315,42.8182258750001,-85.7230205229999,116,"8064 BYRON CENTER AVE SW, BYRON CENTER, MI, 49315","Match","Exact","8064 BYRON CENTER AVE SW, BYRON CENTER, MI, 49315",630042701,"L"
295117,"8064 ENDICOTT CT","INDIANAPOLIS","IN",46259,39.6508581900001,-86.043399299,117,"8064 ENDICOTT CT, INDIANAPOLIS, IN, 46259","Match","Exact","8064 ENDICOTT CT, INDIANAPOLIS, IN, 46259",108029822,"R"
295118,"8064 MALONE STREET","DOUGLASVILLE","GA",30134,33.759784063,-84.747638506,118,"8064 MALONE STREET, DOUGLASVILLE, GA, 30134","Match","Exact","8064 MALONE ST, DOUGLASVILLE, GA, 30134",650279313,"L"
295119,"8064 PRICHARDS COURT","DUNN LORING","VA",22027,38.8877887410001,-77.223204848,119,"8064 PRICHARDS COURT, DUNN LORING, VA, 22027","Match","Exact","8064 PRICHARDS CT, DUNN LORING, VA, 22027",76039511,"L"
295120,"8064 SOUTH FULTON PARKWAY 122","FAIRBURN","GA",30213,NA,NA,120,"8064 SOUTH FULTON PARKWAY 122, FAIRBURN, GA, 30213","No_Match",NA,NA,NA,NA
295121,"8064 SOUTH FULTON PARKWAY APT 3601","FAIRBURN","GA",30213,NA,NA,121,"8064 SOUTH FULTON PARKWAY APT 3601, FAIRBURN, GA, 30213","No_Match",NA,NA,NA,NA
295122,"8064 SOUTH FULTON PARKWAY","FAIRBURN","GA",30213,NA,NA,122,"8064 SOUTH FULTON PARKWAY, FAIRBURN, GA, 30213","No_Match",NA,NA,NA,NA
295123,"8064 W SAHARA AV SUITE 103","LAS VEGAS","NV",89117,36.143830214,-115.267027087,123,"8064 W SAHARA AV SUITE 103, LAS VEGAS, NV, 89117","Match","Non_Exact","8064 W SAHARA AVE, LAS VEGAS, NV, 89117",636577674,"R"
295124,"8065 PARKCROFT DRIVE","MENTOR","OH",44060,41.6521492900001,-81.3507033989999,124,"8065 PARKCROFT DRIVE, MENTOR, OH, 44060","Match","Exact","8065 PARKCROFT DR, MENTOR, OH, 44060",649044670,"L"
295125,"8065 STARTING GATE LANE","CINCINNATI","OH",45249,39.2857510370001,-84.341543612,125,"8065 STARTING GATE LANE, CINCINNATI, OH, 45249","Match","Non_Exact","8065 STARTINGGATE LN, CINCINNATI, OH, 45249",103957948,"R"
295126,"8066 COUNTRY BROOK CT","SPRINGBORO","OH",45066,39.5582552050001,-84.18322397,126,"8066 COUNTRY BROOK CT, SPRINGBORO, OH, 45066","Match","Exact","8066 COUNTRY BROOK CT, SPRINGBORO, OH, 45066",617732241,"R"
295127,"8066 LAMOR RD","MERCER","PA",16137,41.2397738170001,-80.275850352,127,"8066 LAMOR RD, MERCER, PA, 16137","Match","Exact","8066 LAMOR RD, MERCER, PA, 16137",605370351,"L"
295128,"8066 PARK LN","DALLAS","TX",75231,32.871904466,-96.7679001769999,128,"8066 PARK LN, DALLAS, TX, 75231","Match","Exact","8066 PARK LN, DALLAS, TX, 75231",638516802,"R"
295129,"8066 STILLBROOKE ROAD","MANASSAS","VA",20112,38.667522616,-77.4467520159999,129,"8066 STILLBROOKE ROAD, MANASSAS, VA, 20112","Match","Exact","8066 STILLBROOKE RD, MANASSAS, VA, 20112",207151474,"R"
295130,"8067 BIG PINE DRIVE","SANDY","UT",84094,40.604796521,-111.858679197,130,"8067 BIG PINE DRIVE, SANDY, UT, 84094","Match","Exact","8067 BIG PINE DR, SANDY, UT, 84094",176124370,"L"
295131,"8067 MESQUITE RANCH STREET","LAS VEGAS","NV",89113,36.041912047,-115.256331802,131,"8067 MESQUITE RANCH STREET, LAS VEGAS, NV, 89113","Match","Exact","8067 MESQUITE RANCH ST, LAS VEGAS, NV, 89113",612678169,"R"
295132,"8067 TWIN ROCKS ROAD","GRANITE BAY","CA",95746,38.7670114970001,-121.152689974,132,"8067 TWIN ROCKS ROAD, GRANITE BAY, CA, 95746","Match","Exact","8067 TWIN ROCKS RD, GRANITE BAY, CA, 95746",106770540,"L"
295133,"8067 W LOUISE DR","PEORIA","AZ",85383,33.6831411690001,-112.232996186,133,"8067 W LOUISE DR, PEORIA, AZ, 85383","Match","Exact","8067 W LOUISE DR, PEORIA, AZ, 85383",128416331,"R"
295134,"80688 UNION STREET","MEMPHIS","MI",48041,NA,NA,134,"80688 UNION STREET, MEMPHIS, MI, 48041","No_Match",NA,NA,NA,NA
295135,"8069 GARDEN CREEK CT","MECHANICSVILLE","VA",23111,37.6190158520001,-77.312122384,135,"8069 GARDEN CREEK CT, MECHANICSVILLE, VA, 23111","Match","Exact","8069 GARDEN CREEK CT, MECHANICSVILLE, VA, 23111",84974362,"L"
295136,"8069 HUMMINGBIRD DRIVE","FRISCO","TX",75034,33.146662092,-96.813691321,136,"8069 HUMMINGBIRD DRIVE, FRISCO, TX, 75034","Match","Exact","8069 HUMMINGBIRD DR, FRISCO, TX, 75034",123558141,"L"
295137,"8069 MARINERS DRIVE APT 4405","STOCKTON","CA",95219,38.02281358,-121.361188992,137,"8069 MARINERS DRIVE APT 4405, STOCKTON, CA, 95219","Match","Exact","8069 MARINERS DR, STOCKTON, CA, 95219",642877938,"L"
295138,"8069 WELLSMERE CIRCLE","ORLANDO","FL",32835,28.5348529030001,-81.492860607,138,"8069 WELLSMERE CIRCLE, ORLANDO, FL, 32835","Match","Exact","8069 WELLSMERE CIR, ORLANDO, FL, 32835",94333477,"L"
295139,"807 1ST N","FARGO","ND",58102,NA,NA,139,"807 1ST N, FARGO, ND, 58102","Tie",NA,NA,NA,NA
295140,"807 2/5 NORTH POINSETTIA PLACE","LOS ANGELES","CA",90046,NA,NA,140,"807 2/5 NORTH POINSETTIA PLACE, LOS ANGELES, CA, 90046","Tie",NA,NA,NA,NA
295141,"807 23RD ST","WEST DES MOINES","IA",50265,41.5816348550001,-93.736789213,141,"807 23RD ST, WEST DES MOINES, IA, 50265","Match","Exact","807 23RD ST, W DES MOINES, IA, 50265",65776647,"R"
295142,"807 23RD STREET","CODY","WY",82414,44.5294454290001,-109.04562852,142,"807 23RD STREET, CODY, WY, 82414","Match","Exact","807 23RD ST, CODY, WY, 82414",636257874,"L"
295143,"807 23RD STREET","WEST DES MOINES","IA",50265,41.5816348550001,-93.736789213,143,"807 23RD STREET, WEST DES MOINES, IA, 50265","Match","Exact","807 23RD ST, W DES MOINES, IA, 50265",65776647,"R"
295144,"807 31ST AVE N","NASHVILLE","TN",37209,36.1597657880001,-86.822678211,144,"807 31ST AVE N, NASHVILLE, TN, 37209","Match","Exact","807 31ST AVE N, NASHVILLE, TN, 37209",606820716,"L"
295145,"807 4TH ST NW","NEW PHILADELPHIA","OH",44663,40.500609523,-81.450398771,145,"807 4TH ST NW, NEW PHILADELPHIA, OH, 44663","Match","Exact","807 4TH ST NW, NEW PHILADELPHIA, OH, 44663",612289912,"R"
295146,"807 5TH STREET","SPRINGHILL","LA",71075,32.996332011,-93.46664765,146,"807 5TH STREET, SPRINGHILL, LA, 71075","Match","Non_Exact","807 5TH ST SW, SPRINGHILL, LA, 71075",73388690,"R"
295147,"807 AKERS STREET","ANGLETON","TX",77515,29.17261338,-95.424647756,147,"807 AKERS STREET, ANGLETON, TX, 77515","Match","Exact","807 AKERS ST, ANGLETON, TX, 77515",116578488,"L"
295148,"807 AMERICAN GENERAL DRIVE","EASTON","PA",18040,40.7346866070001,-75.2325576109999,148,"807 AMERICAN GENERAL DRIVE, EASTON, PA, 18040","Match","Exact","807 AMERICAN GENERAL DR, EASTON, PA, 18040",640618274,"L"
295149,"807 ARMSTRONG AVE","APOLLO","PA",15613,40.587842547,-79.5647735379999,149,"807 ARMSTRONG AVE, APOLLO, PA, 15613","Match","Exact","807 ARMSTRONG AVE, APOLLO, PA, 15613",52474570,"L"
295150,"807 BACON COURT","NEWPORT NEWS","VA",23602,37.1250010250001,-76.487563606,150,"807 BACON COURT, NEWPORT NEWS, VA, 23602","Match","Exact","807 BACON CT, NEWPORT NEWS, VA, 23602",103812496,"R"
295151,"807 BENNETT AVE APT 3","MEDFORD","OR",97504,42.332278783,-122.864408877,151,"807 BENNETT AVE APT 3, MEDFORD, OR, 97504","Match","Exact","807 BENNETT AVE, MEDFORD, OR, 97504",155514561,"L"
295152,"807 BENT CREEK","DEXTER","MO",63841,36.7845070760001,-89.961584478,152,"807 BENT CREEK, DEXTER, MO, 63841","Match","Non_Exact","807 BENT CREEK EST, DEXTER, MO, 63841",639654137,"L"
295153,"807 BLUE RIDGE DR","STREAMWOOD","IL",60107,42.016984587,-88.2131380869999,153,"807 BLUE RIDGE DR, STREAMWOOD, IL, 60107","Match","Exact","807 BLUE RIDGE DR, STREAMWOOD, IL, 60107",112387929,"R"
295154,"807 BRAESIDE ROAD","CATONSVILLE","MD",21229,39.2895850310001,-76.714255884,154,"807 BRAESIDE ROAD, CATONSVILLE, MD, 21229","Match","Non_Exact","807 BRAESIDE RD, CARROLL, MD, 21229",191569904,"R"
295155,"807 BRAZOS STREET","AUSTIN","TX",78701,30.2696563810001,-97.7407251989999,155,"807 BRAZOS STREET, AUSTIN, TX, 78701","Match","Exact","807 BRAZOS ST, AUSTIN, TX, 78701",63946472,"R"
295156,"807 BROAD STREET","PROVIDENCE","RI",2907,41.8018983740001,-71.41856146,156,"807 BROAD STREET, PROVIDENCE, RI, 2907","Match","Exact","807 BROAD ST, PROVIDENCE, RI, 02907",47466870,"R"
295157,"807 BUCHTA  APT 13","ANGLETON","TX",77515,29.182869344,-95.410659631,157,"807 BUCHTA  APT 13, ANGLETON, TX, 77515","Match","Non_Exact","807 BUCHTA RD, ANGLETON, TX, 77515",116577687,"L"
295158,"807 CLARK STREET","DE QUEEN","AR",71832,34.0518860880001,-94.346492407,158,"807 CLARK STREET, DE QUEEN, AR, 71832","Match","Exact","807 CLARK ST, DE QUEEN, AR, 71832",84824886,"R"
295159,"807 COMMUNITY AVE","ALBANY","GA",31705,31.4797831110001,-84.1335706409999,159,"807 COMMUNITY AVE, ALBANY, GA, 31705","Match","Exact","807 COMMUNITY AVE, ALBANY, GA, 31705",84318495,"L"
295160,"807 CYPRESS TREE DRIVE","CAPITOL HEIGHTS","MD",20743,38.9016536440001,-76.905370521,160,"807 CYPRESS TREE DRIVE, CAPITOL HEIGHTS, MD, 20743","Match","Non_Exact","807 CYPRESSTREE DR, CAPITOL HEIGHTS, MD, 20743",76313221,"R"
295161,"807 DANBURY PARK LN","HOUSTON","TX",77073,30.0110653670001,-95.416478191,161,"807 DANBURY PARK LN, HOUSTON, TX, 77073","Match","Exact","807 DANBURY PARK LN, HOUSTON, TX, 77073",624155922,"L"
295162,"807 DESMOND LANE 1006","FORT WORTH","TX",76120,32.7672761360001,-97.1734289949999,162,"807 DESMOND LANE 1006, FORT WORTH, TX, 76120","Match","Exact","807 DESMOND LN, FORT WORTH, TX, 76120",637604280,"L"
295163,"807 DEVONSHIRE  RD","FOWLERVILLE","MI",48836,42.662020205,-84.063328741,163,"807 DEVONSHIRE  RD, FOWLERVILLE, MI, 48836","Match","Exact","807 DEVONSHIRE RD, FOWLERVILLE, MI, 48836",650209178,"L"
295164,"807 DIX LANE","FLORENCE","SC",29505,34.1542099000001,-79.778023103,164,"807 DIX LANE, FLORENCE, SC, 29505","Match","Exact","807 DIX LN, FLORENCE, SC, 29505",28878659,"R"
295165,"807 DR M L KING JR BLVD","SEFFNER","FL",33584,27.9815612790001,-82.289903931,165,"807 DR M L KING JR BLVD, SEFFNER, FL, 33584","Match","Non_Exact","807 W DR MARTIN LUTHER KING JR BLVD, SEFFNER, FL, 33584",104541538,"L"
295166,"807 DUNCAN AVE","KILLEEN","TX",76541,31.128247666,-97.719567578,166,"807 DUNCAN AVE, KILLEEN, TX, 76541","Match","Exact","807 DUNCAN AVE, KILLEEN, TX, 76541",146140141,"L"
295167,"807 E AVENUE SOUTH","LA CROSSE","WI",54601,43.8040691400001,-91.229455322,167,"807 E AVENUE SOUTH, LA CROSSE, WI, 54601","Match","Exact","807 EAST AVE S, LA CROSSE, WI, 54601",51012895,"L"
295168,"807 E CREEK AVE","MCALESTER","OK",74501,34.918077075,-95.763594525,168,"807 E CREEK AVE, MCALESTER, OK, 74501","Match","Exact","807 E CREEK AVE, MCALESTER, OK, 74501",106305598,"R"
295169,"807 E MAIN ST APT 6-110","DURHAM","NC",27701,NA,NA,169,"807 E MAIN ST APT 6-110, DURHAM, NC, 27701","Tie",NA,NA,NA,NA
295170,"807 EAST PITTSBURGH MALL APT 5","EAT PITTSBURGH","PA",15112,40.4003099550001,-79.83515033,170,"807 EAST PITTSBURGH MALL APT 5, EAT PITTSBURGH, PA, 15112","Match","Non_Exact","807 E PITTSBURGH MALL, E PITTSBURGH, PA, 15112",51670938,"L"
295171,"807 EAST ST","NORTH MANCHESTER","IN",46962,41.007018019,-85.760615206,171,"807 EAST ST, NORTH MANCHESTER, IN, 46962","Match","Exact","807 EAST ST, N MANCHESTER, IN, 46962",639780927,"R"
295172,"807 EASTERN AIR DRIVE","JEFFERSON CITY","MO",65109,38.607722358,-92.2179852089999,172,"807 EASTERN AIR DRIVE, JEFFERSON CITY, MO, 65109","Match","Exact","807 EASTERN AIR DR, JEFFERSON CITY, MO, 65109",34418631,"L"
295173,"807 ELVIRA ROAD","DUNBAR","WV",25064,38.3779545560001,-81.754075115,173,"807 ELVIRA ROAD, DUNBAR, WV, 25064","Match","Exact","807 ELVIRA RD, DUNBAR, WV, 25064",635825954,"L"
295174,"807 GLEN ALLEN DRIVE","BALTIMORE","MD",21229,39.2978010800001,-76.69665112,174,"807 GLEN ALLEN DRIVE, BALTIMORE, MD, 21229","Match","Exact","807 GLEN ALLEN DR, BALTIMORE, MD, 21229",206412973,"R"
295175,"807 GUADALUPE ST","LAREDO","TX",78040,27.506573885,-99.488506043,175,"807 GUADALUPE ST, LAREDO, TX, 78040","Match","Exact","807 GUADALUPE ST, LAREDO, TX, 78040",21672489,"R"
295176,"807 HARVEY DRIVE","PINEHURST","TX",77362,30.1572372420001,-95.682832414,176,"807 HARVEY DRIVE, PINEHURST, TX, 77362","Match","Exact","807 HARVEY DR, PINEHURST, TX, 77362",79279104,"R"
295177,"807 HILLAIRE RD","LANCASTER","PA",17601,40.057548244,-76.38403597,177,"807 HILLAIRE RD, LANCASTER, PA, 17601","Match","Exact","807 HILLAIRE RD, LANCASTER, PA, 17601",179660606,"R"
295178,"807 HOPEWELL STREET","DANDRIDGE","TN",37725,36.017772404,-83.4139925919999,178,"807 HOPEWELL STREET, DANDRIDGE, TN, 37725","Match","Exact","807 HOPEWELL ST, DANDRIDGE, TN, 37725",42565954,"L"
295179,"807 HUNTINGTON CHASE CIRCLE","WARNER ROBINS","GA",31088,32.5897233160001,-83.6658760289999,179,"807 HUNTINGTON CHASE CIRCLE, WARNER ROBINS, GA, 31088","Match","Exact","807 HUNTINGTON CHASE CIR, WARNER ROBINS, GA, 31088",91259393,"R"
295180,"807 HYACINTH CIRCLE","GUYTON","GA",31312,32.1877079860001,-81.275191976,180,"807 HYACINTH CIRCLE, GUYTON, GA, 31312","Match","Exact","807 HYACINTH CIR, GUYTON, GA, 31312",619917155,"R"
295181,"807 IRENIC CT","EAGLEVILLE","PA",19403,40.1558250850001,-75.346499227,181,"807 IRENIC CT, EAGLEVILLE, PA, 19403","Match","Exact","807 IRENIC CT, EAGLEVILLE, PA, 19403",135102135,"R"
295182,"807 JACKSON DR","CLEVELAND","WI",53015,43.91121729,-87.758961926,182,"807 JACKSON DR, CLEVELAND, WI, 53015","Match","Exact","807 JACKSON DR, CLEVELAND, WI, 53015",147980090,"L"
295183,"807 KEBLE LANE","WHITEHOUSE","TX",75791,32.2142718150001,-95.223054667,183,"807 KEBLE LANE, WHITEHOUSE, TX, 75791","Match","Exact","807 KEBLE LN, WHITEHOUSE, TX, 75791",627663330,"L"
295184,"807 KODIAK CIR","EULESS","TX",76039,32.873491927,-97.09514759,184,"807 KODIAK CIR, EULESS, TX, 76039","Match","Exact","807 KODIAK CIR, EULESS, TX, 76039",102120627,"R"
295185,"807 LAKEVIEW DRIVE","WIMAUMA","FL",33598,27.711848264,-82.316116186,185,"807 LAKEVIEW DRIVE, WIMAUMA, FL, 33598","Match","Exact","807 LAKEVIEW DR, WIMAUMA, FL, 33598",104499153,"L"
295186,"807 LAS CRUSES COURT","LADY LAKE","FL",32159,28.934964172,-81.9466179839999,186,"807 LAS CRUSES COURT, LADY LAKE, FL, 32159","Match","Non_Exact","807 LAS CRUCES CT, LADY LAKE, FL, 32159",94190322,"L"
295187,"807 LASALLE STREET","OTTAWA","IL",61350,NA,NA,187,"807 LASALLE STREET, OTTAWA, IL, 61350","No_Match",NA,NA,NA,NA
295188,"807 LAUREL CIRCLE","BARTOW","FL",33830,27.879675257,-81.861355217,188,"807 LAUREL CIRCLE, BARTOW, FL, 33830","Match","Exact","807 LAUREL CIR, BARTOW, FL, 33830",627267206,"R"
295189,"807 LIVE OAK ST","DENTON","TX",76209,33.2394362970001,-97.1207843559999,189,"807 LIVE OAK ST, DENTON, TX, 76209","Match","Non_Exact","807 LIVEOAK ST, DENTON, TX, 76209",103339734,"R"
295190,"807 MAGNOLIA ST","GREENSBORO","NC",27401,36.0837961920001,-79.788172193,190,"807 MAGNOLIA ST, GREENSBORO, NC, 27401","Match","Exact","807 MAGNOLIA ST, GREENSBORO, NC, 27401",131032796,"L"
295191,"807 MAIN ST","GATESVILLE","NC",27938,36.412451989,-76.756677865,191,"807 MAIN ST, GATESVILLE, NC, 27938","Match","Exact","807 MAIN ST, GATESVILLE, NC, 27938",18580345,"R"
295192,"807 MAIN STREET","GATESVILLE","NC",27938,36.412451989,-76.756677865,192,"807 MAIN STREET, GATESVILLE, NC, 27938","Match","Exact","807 MAIN ST, GATESVILLE, NC, 27938",18580345,"R"
295193,"807 MEADOW CREEK DRIVE","ALLEN","TX",75002,33.1107382230001,-96.644624385,193,"807 MEADOW CREEK DRIVE, ALLEN, TX, 75002","Match","Exact","807 MEADOW CREEK DR, ALLEN, TX, 75002",123495133,"L"
295194,"807 MEADOW FIELD COURT","MOUNT AIRY","MD",21771,39.376049892,-77.16662876,194,"807 MEADOW FIELD COURT, MOUNT AIRY, MD, 21771","Match","Exact","807 MEADOW FIELD CT, MOUNT AIRY, MD, 21771",60699477,"L"
295195,"807 MIDDLEBROOKE BEND","CANTON","GA",30115,34.1807299710001,-84.442100405,195,"807 MIDDLEBROOKE BEND, CANTON, GA, 30115","Match","Exact","807 MIDDLEBROOKE BEND, CANTON, GA, 30115",630311916,"R"
295196,"807 MONTICELLO STREET","SOMERSET","KY",42501,37.0687565740001,-84.617123341,196,"807 MONTICELLO STREET, SOMERSET, KY, 42501","Match","Exact","807 MONTICELLO ST, SOMERSET, KY, 42501",39084011,"L"
295197,"807 N 148TH AVE","OMAHA","NE",68154,41.2673561620001,-96.145644766,197,"807 N 148TH AVE, OMAHA, NE, 68154","Match","Exact","807 N 148TH AVE, OMAHA, NE, 68154",116967273,"R"
295198,"807 N MONROE ST","BALTIMORE","MD",21217,39.2977550310001,-76.647457839,198,"807 N MONROE ST, BALTIMORE, MD, 21217","Match","Exact","807 N MONROE ST, BALTIMORE, MD, 21217",206414742,"R"
295199,"807 N THIRD STREET","DE SOTO","MO",63020,38.1465519830001,-90.553302948,199,"807 N THIRD STREET, DE SOTO, MO, 63020","Match","Exact","807 N 3RD ST, DE SOTO, MO, 63020",62769484,"R"
295200,"807 N THORNTON ST","RICHMOND","MO",64085,39.285918618,-93.976360003,200,"807 N THORNTON ST, RICHMOND, MO, 64085","Match","Exact","807 N THORNTON ST, RICHMOND, MO, 64085",20987564,"L"
295201,"807 NE SHERWOOD DRIVE","BELOIT","WI",53511,NA,NA,201,"807 NE SHERWOOD DRIVE, BELOIT, WI, 53511","Tie",NA,NA,NA,NA
295202,"807 NORTH 200 EAST","AMERICAN FORK","UT",84003,40.392955687,-111.793100824,202,"807 NORTH 200 EAST, AMERICAN FORK, UT, 84003","Match","Exact","807 N 200 E, AMERICAN FORK, UT, 84003",134245053,"L"
295203,"807 NORTH MISSOURI","ROSWELL","NM",88201,33.4011762150001,-104.530368933,203,"807 NORTH MISSOURI, ROSWELL, NM, 88201","Match","Non_Exact","807 N MISSOURI AVE, ROSWELL, NM, 88201",131766782,"R"
295204,"807 NORTH ROYAL STREET","ALEXANDRIA","VA",22314,38.812739643,-77.041881379,204,"807 NORTH ROYAL STREET, ALEXANDRIA, VA, 22314","Match","Exact","807 N ROYAL ST, ALEXANDRIA, VA, 22314",75988561,"R"
295205,"807 OVERHILL DRIVE","NORTH VERSAILLES","PA",15137,40.377019773,-79.829105472,205,"807 OVERHILL DRIVE, NORTH VERSAILLES, PA, 15137","Match","Exact","807 OVERHILL DR, N VERSAILLES, PA, 15137",51672943,"L"
295206,"807 PARAMOUNT STREET","HIGH POINT","NC",27260,35.955104901,-79.961056422,206,"807 PARAMOUNT STREET, HIGH POINT, NC, 27260","Match","Exact","807 PARAMOUNT ST, HIGH POINT, NC, 27260",131078515,"L"
295207,"807 PATRIOT PKWY SUITE 202","ROCKHILL","SC",29731,34.9665286040001,-80.9885930679999,207,"807 PATRIOT PKWY SUITE 202, ROCKHILL, SC, 29731","Match","Non_Exact","807 PATRIOT PKWY, ROCK HILL, SC, 29730",649736737,"L"
295208,"807 PIERMONT STREET","PHILADELPHIA","PA",19116,40.1129765680001,-75.021571291,208,"807 PIERMONT STREET, PHILADELPHIA, PA, 19116","Match","Exact","807 PIERMONT ST, PHILADELPHIA, PA, 19116",131441281,"L"
295209,"807 PINE HILL STREET","COUSHATTA","LA",71019,31.997032056,-93.227481758,209,"807 PINE HILL STREET, COUSHATTA, LA, 71019","Match","Exact","807 PINE HILL ST, COUSHATTA, LA, 71019",67745435,"R"
295210,"807 PINEHURST CT","NORTH AURORA","IL",60542,41.819143941,-88.304284901,210,"807 PINEHURST CT, NORTH AURORA, IL, 60542","Match","Exact","807 PINEHURST CT, NORTH AURORA, IL, 60542",119529767,"L"
295211,"807 PITTSBURGH ROAD","BUTLER","PA",16002,40.7433331560001,-79.925274724,211,"807 PITTSBURGH ROAD, BUTLER, PA, 16002","Match","Exact","807 PITTSBURGH RD, BUTLER, PA, 16002",607351358,"L"
295212,"807 POND VIEW HEIGHTS","ROCHESTER","NY",14612,43.286087536,-77.692394855,212,"807 POND VIEW HEIGHTS, ROCHESTER, NY, 14612","Match","Exact","807 POND VIEW HTS, ROCHESTER, NY, 14612",649018539,"R"
295213,"807 RIVERSIDE DRIVE","NEWPORT NEWS","VA",23606,37.049333157,-76.500725476,213,"807 RIVERSIDE DRIVE, NEWPORT NEWS, VA, 23606","Match","Exact","807 RIVERSIDE DR, NEWPORT NEWS, VA, 23606",103820376,"L"
295214,"807 S 20TH STREET","PHILADELPHIA","PA",19146,39.941941,-75.175678874,214,"807 S 20TH STREET, PHILADELPHIA, PA, 19146","Match","Exact","807 S 20TH ST, PHILADELPHIA, PA, 19146",131407275,"L"
295215,"807 S BRIDGE ST","VICTORIA","TX",77901,28.793326333,-97.00961177,215,"807 S BRIDGE ST, VICTORIA, TX, 77901","Match","Exact","807 S BRIDGE ST, VICTORIA, TX, 77901",44559503,"R"
295216,"807 S DECATUR BLVD","LAS VEGAS","NV",89107,36.1624146500001,-115.205915207,216,"807 S DECATUR BLVD, LAS VEGAS, NV, 89107","Match","Exact","807 S DECATUR BLVD, LAS VEGAS, NV, 89107",201965170,"L"
295217,"807 S JAY STREET","WEST MILTON","OH",45383,39.9515040570001,-84.331243058,217,"807 S JAY STREET, WEST MILTON, OH, 45383","Match","Exact","807 S JAY ST, WEST MILTON, OH, 45383",135304359,"R"
295218,"807 S MEADOWS","DIBOLL","TX",75941,31.168999038,-94.785848426,218,"807 S MEADOWS, DIBOLL, TX, 75941","Match","Non_Exact","807 S MEADOWS DR, DIBOLL, TX, 75941",627208772,"R"
295219,"807 S POST OAK LANE 2529","HOUSTON","TX",77056,NA,NA,219,"807 S POST OAK LANE 2529, HOUSTON, TX, 77056","Tie",NA,NA,NA,NA
295220,"807 S POST OAK LANE APT 1214","HOUSTON","TX",77056,NA,NA,220,"807 S POST OAK LANE APT 1214, HOUSTON, TX, 77056","Tie",NA,NA,NA,NA
295221,"807 S SPRING STREET","GREENSBORO","GA",30642,33.567253339,-83.186099365,221,"807 S SPRING STREET, GREENSBORO, GA, 30642","Match","Exact","807 S SPRING ST, GREENSBORO, GA, 30642",16624136,"L"
295222,"807 S WILSON AVE","COCOA","FL",32922,28.3501640700001,-80.736240225,222,"807 S WILSON AVE, COCOA, FL, 32922","Match","Exact","807 S WILSON AVE, COCOA, FL, 32922",93954547,"L"
295223,"807 SERO ESTATES DRIVE","FORT WASHINGTON","MD",20744,38.7301417030001,-77.018229479,223,"807 SERO ESTATES DRIVE, FORT WASHINGTON, MD, 20744","Match","Exact","807 SERO ESTATES DR, FT WASHINGTON, MD, 20744",76302360,"R"
295224,"807 SHANNON STREET","TALLAHASSEE","FL",32305,30.376460867,-84.2673892,224,"807 SHANNON STREET, TALLAHASSEE, FL, 32305","Match","Exact","807 SHANNON ST, TALLAHASSEE, FL, 32305",82855659,"R"
295225,"807 SMITH RIDGE RD","NEW CANAAN","CT",6840,41.1822822560001,-73.500412205,225,"807 SMITH RIDGE RD, NEW CANAAN, CT, 6840","Match","Exact","807 SMITH RIDGE RD, NEW CANAAN, CT, 06840",3258064,"R"
295226,"807 SW 3RD AVENUE A1","OCALA","FL",34471,NA,NA,226,"807 SW 3RD AVENUE A1, OCALA, FL, 34471","Tie",NA,NA,NA,NA
295227,"807 TRANQUIL KNOLL LANE","YORK","SC",29745,35.0763655870001,-81.143674571,227,"807 TRANQUIL KNOLL LANE, YORK, SC, 29745","Match","Exact","807 TRANQUIL KNOLL LN, YORK, SC, 29745",19804376,"L"
295228,"807 TUSCARORA AVENUE","SAINT PAUL","MN",55102,44.923263293,-93.133844088,228,"807 TUSCARORA AVENUE, SAINT PAUL, MN, 55102","Match","Non_Exact","807 W TUSCARORA AVE, SAINT PAUL, MN, 55102",97647229,"R"
295229,"807 TYLER CIR APT F","HOOVER","AL",35226,33.4169724170001,-86.8401935479999,229,"807 TYLER CIR APT F, HOOVER, AL, 35226","Match","Exact","807 TYLER CIR, HOOVER, AL, 35226",81560012,"R"
295230,"807 UNION DR","UNIVERSITY PARK","IL",60484,41.440481365,-87.676245992,230,"807 UNION DR, UNIVERSITY PARK, IL, 60484","Match","Exact","807 UNION DR, UNIVERSITY PARK, IL, 60484",111556936,"L"
295231,"807 UNION STREET    PO BOX 0672","SCHENECTADY","NY",12308,42.814380941,-73.930891721,231,"807 UNION STREET    PO BOX 0672, SCHENECTADY, NY, 12308","Match","Exact","807 UNION ST, SCHENECTADY, NY, 12308",18029051,"L"
295232,"807 VANBUREN ST UNIT 2","MADISON","WI",53711,43.0638312450001,-89.4186205679999,232,"807 VANBUREN ST UNIT 2, MADISON, WI, 53711","Match","Non_Exact","807 VAN BUREN ST, MADISON, WI, 53711",49530285,"L"
295233,"807 W 187TH ST","GLENWOOD","IL",60425,NA,NA,233,"807 W 187TH ST, GLENWOOD, IL, 60425","No_Match",NA,NA,NA,NA
295234,"807 W 25TH ST APT 306","AUSTIN","TX",78705,30.2893828100001,-97.745657976,234,"807 W 25TH ST APT 306, AUSTIN, TX, 78705","Match","Non_Exact","807 W 25TH ST, AUSTIN, TX, 78705",63942671,"L"
295235,"807 W 3RD ST","RED WING","MN",55066,44.562993313,-92.538844147,235,"807 W 3RD ST, RED WING, MN, 55066","Match","Exact","807 W 3RD ST, RED WING, MN, 55066",31539059,"R"
295236,"807 W JOHN ST","YORKVILLE","IL",60560,41.658316922,-88.461142309,236,"807 W JOHN ST, YORKVILLE, IL, 60560","Match","Exact","807 JOHN ST, YORKVILLE, IL, 60560",611668071,"R"
295237,"807 W MAIN ST","DUNCAN","OK",73533,34.501815277,-97.95693557,237,"807 W MAIN ST, DUNCAN, OK, 73533","Match","Exact","807 W MAIN ST, DUNCAN, OK, 73533",13648726,"R"
295238,"807 W VALENTINO ST","MERIDIAN","ID",83646,43.657461137,-116.403718155,238,"807 W VALENTINO ST, MERIDIAN, ID, 83646","Match","Exact","807 W VALENTINO ST, MERIDIAN, ID, 83646",647603936,"R"
295239,"807 W WALNUT AVENUE","MONROVIA","CA",91016,34.14316454,-118.016534258,239,"807 W WALNUT AVENUE, MONROVIA, CA, 91016","Match","Exact","807 W WALNUT AVE, MONROVIA, CA, 91016",142245883,"R"
295240,"807 WALFIELD CT","SAINT LOUIS","MO",63141,38.671776901,-90.496881808,240,"807 WALFIELD CT, SAINT LOUIS, MO, 63141","Match","Exact","807 WALFIELD CT, SAINT LOUIS, MO, 63141",100189834,"L"
295241,"807 WALKER AVENUE BOX 69","MEMPHIS","TN",38126,35.119400388,-90.035690545,241,"807 WALKER AVENUE BOX 69, MEMPHIS, TN, 38126","Match","Exact","807 WALKER AVE, MEMPHIS, TN, 38126",72908309,"R"
295242,"807 WALLACE AVE SE","MASSILLON","OH",44646,40.798341787,-81.512980929,242,"807 WALLACE AVE SE, MASSILLON, OH, 44646","Match","Exact","807 WALLACE AVE SE, MASSILLON, OH, 44646",640600914,"R"
295243,"807 WAYNE AVE","NEW SMYRNA BEACH","FL",32168,29.0318321820001,-80.936794089,243,"807 WAYNE AVE, NEW SMYRNA BEACH, FL, 32168","Match","Exact","807 WAYNE AVE, NEW SMYRNA BEACH, FL, 32168",94531453,"R"
295244,"807 WEST 29TH STREET","LOVELAND","CO",80538,40.421674351,-105.086939038,244,"807 WEST 29TH STREET, LOVELAND, CO, 80538","Match","Exact","807 W 29TH ST, LOVELAND, CO, 80538",188485176,"R"
295245,"807 WEST 6TH STREET","PORT ARTHUR","TX",77640,29.863918599,-93.945123186,245,"807 WEST 6TH STREET, PORT ARTHUR, TX, 77640","Match","Exact","807 W 6TH ST, PORT ARTHUR, TX, 77640",73867758,"R"
295246,"807 WEST WHITE HORSE PIKE UNIT 3","COLOGNE","NJ",8213,NA,NA,246,"807 WEST WHITE HORSE PIKE UNIT 3, COLOGNE, NJ, 8213","No_Match",NA,NA,NA,NA
295247,"807 WILLARD CT","GILROY","CA",95020,37.018396678,-121.586863459,247,"807 WILLARD CT, GILROY, CA, 95020","Match","Exact","807 WILLARD CT, GILROY, CA, 95020",122931398,"R"
295248,"807 WILLIAM NORTHERN BLVD","TULLAHOMA","TN",37388,35.379441193,-86.239319622,248,"807 WILLIAM NORTHERN BLVD, TULLAHOMA, TN, 37388","Match","Exact","807 WILLIAM NORTHERN BLVD, TULLAHOMA, TN, 37388",58226864,"L"
295249,"807 WINCHESTER TRAIL SE","ATLANTA","GA",30339,33.8473493990001,-84.484732502,249,"807 WINCHESTER TRAIL SE, ATLANTA, GA, 30339","Match","Non_Exact","807 WINCHESTER TRL, ATLANTA, GA, 30339",17250778,"L"
295250,"8070 47TH AVE N APT C","ST PETERSBURG","FL",33709,27.8146180620001,-82.750401992,250,"8070 47TH AVE N APT C, ST PETERSBURG, FL, 33709","Match","Exact","8070 47TH AVE N, SAINT PETERSBURG, FL, 33709",124692893,"L"
295251,"8070 ARCHIBALD AVE","RANCHO CUCAMONGA","CA",91730,34.10717264,-117.593479102,251,"8070 ARCHIBALD AVE, RANCHO CUCAMONGA, CA, 91730","Match","Exact","8070 ARCHIBALD AVE, RANCHO CUCAMONGA, CA, 91730",636195616,"R"
295252,"8070 E 189TH","QUENEMO","KS",66528,38.7242681920001,-95.503838446,252,"8070 E 189TH, QUENEMO, KS, 66528","Match","Non_Exact","8070 E 189TH ST, QUENEMO, KS, 66528",11225145,"R"
295253,"8070 GEORGETOWN ROAD","INDIANAPOLIS","IN",46268,39.900555121,-86.240883775,253,"8070 GEORGETOWN ROAD, INDIANAPOLIS, IN, 46268","Match","Exact","8070 GEORGETOWN RD, INDIANAPOLIS, IN, 46268",650776883,"L"
295254,"8070 INDIGO HILL ROAD","EDISTO ISLAND","SC",29438,32.5702054330001,-80.281401751,254,"8070 INDIGO HILL ROAD, EDISTO ISLAND, SC, 29438","Match","Exact","8070 INDIGO HILL RD, EDISTO ISLAND, SC, 29438",605754289,"L"
295255,"8070 LA JOLLA SHORES DR STE 513","LA JOLLA","CA",92037,32.8535041690001,-117.253757541,255,"8070 LA JOLLA SHORES DR STE 513, LA JOLLA, CA, 92037","Match","Non_Exact","8070 LA JOLLA SHORES DR, LA JOLLA, CA, 92037",195298694,"L"
295256,"8070 SOQUEL DRIVE","APTOS","CA",95003,36.976418433,-121.899677375,256,"8070 SOQUEL DRIVE, APTOS, CA, 95003","Match","Exact","8070 SOQUEL DR, APTOS, CA, 95003",125510370,"R"
295257,"8070 SOUTH SAGINAW ROAD","GRAND BLANC","MI",48439,NA,NA,257,"8070 SOUTH SAGINAW ROAD, GRAND BLANC, MI, 48439","No_Match",NA,NA,NA,NA
295258,"8071 ELSON ST SE","WAYNESBURG","OH",44688,40.6874443,-81.2559121799999,258,"8071 ELSON ST SE, WAYNESBURG, OH, 44688","Match","Exact","8071 ELSON ST SE, WAYNESBURG, OH, 44688",64689844,"L"
295259,"8071 RALEIGH PLACE","WESTMINSTER","CO",80031,39.8436061740001,-105.044703246,259,"8071 RALEIGH PLACE, WESTMINSTER, CO, 80031","Match","Exact","8071 RALEIGH PL, WESTMINSTER, CO, 80031",177293597,"L"
295260,"8071 SUN VA","JACKSONVILLE","FL",32210,NA,NA,260,"8071 SUN VA, JACKSONVILLE, FL, 32210","No_Match",NA,NA,NA,NA
295261,"8072 CHURCHILL RD","MANHATTAN","MT",59741,45.7506508720001,-111.301277036,261,"8072 CHURCHILL RD, MANHATTAN, MT, 59741","Match","Exact","8072 CHURCHILL RD, MANHATTAN, MT, 59741",163524066,"R"
295262,"8072 GRANNY SMITH LANE","SPARTA","IL",62286,38.1022823960001,-89.711719225,262,"8072 GRANNY SMITH LANE, SPARTA, IL, 62286","Match","Exact","8072 GRANNY SMITH LN, SPARTA, IL, 62286",624480591,"L"
295263,"8072 STONEWALL BRIGADE CT UNIT 102","MANASSAS","VA",20109,38.7812060970001,-77.528569475,263,"8072 STONEWALL BRIGADE CT UNIT 102, MANASSAS, VA, 20109","Match","Exact","8072 STONEWALL BRIGADE CT, MANASSAS, VA, 20109",207141468,"R"
295264,"8074 HIGH CASTLE ROAD","ELLICOTT CITY","MD",21043,39.25160384,-76.7842581519999,264,"8074 HIGH CASTLE ROAD, ELLICOTT CITY, MD, 21043","Match","Exact","8074 HIGH CASTLE RD, ELLICOTT CITY, MD, 21043",639578242,"L"
295265,"8074 N 109TH AVE","PEORIA","AZ",85345,33.5520525750001,-112.294046989,265,"8074 N 109TH AVE, PEORIA, AZ, 85345","Match","Exact","8074 N 109TH AVE, PEORIA, AZ, 85345",128842500,"L"
295266,"8074 N 109TH DRIVE","PEORIA","AZ",85345,33.5524150030001,-112.294588747,266,"8074 N 109TH DRIVE, PEORIA, AZ, 85345","Match","Exact","8074 N 109TH DR, PEORIA, AZ, 85345",128879587,"L"
295267,"8074 N 600TH ST","ROBINSON","IL",62454,38.9685574530001,-87.833027629,267,"8074 N 600TH ST, ROBINSON, IL, 62454","Match","Exact","8074 N 600TH ST, ROBINSON, IL, 62454",26962580,"L"
295268,"8076 HANFORD-ARMONA ROAD","HANFORD","CA",93230,36.313518109,-119.602292585,268,"8076 HANFORD-ARMONA ROAD, HANFORD, CA, 93230","Match","Non_Exact","8076 HANFORD ARMONA RD, HANFORD, CA, 93230",197988479,"L"
295269,"8076 N DELAWARE DRIVE","BANGOR","PA",18013,40.790889641,-75.168602165,269,"8076 N DELAWARE DRIVE, BANGOR, PA, 18013","Match","Exact","8076 N DELAWARE DR, BANGOR, PA, 18013",136872107,"L"
295270,"8077 AMADOR AVENUE","YUCCA VALLEY","CA",92284,34.10531769,-116.427818575,270,"8077 AMADOR AVENUE, YUCCA VALLEY, CA, 92284","Match","Exact","8077 AMADOR AVE, YUCCA VALLEY, CA, 92284",144629371,"R"
295271,"8077 GREEN ORCHARD RD APT 13","GLEN BURNIE","MD",21061,39.12916799,-76.6362017989999,271,"8077 GREEN ORCHARD RD APT 13, GLEN BURNIE, MD, 21061","Match","Exact","8077 GREEN ORCHARD RD, GLEN BURNIE, MD, 21061",68194337,"R"
295272,"80775 MCCULLOCH RD","WASHBURN","WI",54891,NA,NA,272,"80775 MCCULLOCH RD, WASHBURN, WI, 54891","No_Match",NA,NA,NA,NA
295273,"8078 KINGSTON PIKE  124","KNOXVILLE","TN",37919,NA,NA,273,"8078 KINGSTON PIKE  124, KNOXVILLE, TN, 37919","No_Match",NA,NA,NA,NA
295274,"8078 KINGSTON PIKE STE 117","KNOXVILLE","TN",37919,NA,NA,274,"8078 KINGSTON PIKE STE 117, KNOXVILLE, TN, 37919","No_Match",NA,NA,NA,NA
295275,"8078 LYON CIRCLE APT 304","MANASSAS","VA",20109,38.7819754180001,-77.523917398,275,"8078 LYON CIRCLE APT 304, MANASSAS, VA, 20109","Match","Exact","8078 LYON CIR, MANASSAS, VA, 20109",207154330,"R"
295276,"8078 PORTER COVERT RD","LODI","NY",14860,42.629981371,-76.865812891,276,"8078 PORTER COVERT RD, LODI, NY, 14860","Match","Exact","8078 PORTER COVERT RD, LODI, NY, 14860",14668832,"L"
295277,"8079 BIRNHAM WOOD COURT","GAINESVILLE","VA",20155,38.7825326760001,-77.638118521,277,"8079 BIRNHAM WOOD COURT, GAINESVILLE, VA, 20155","Match","Exact","8079 BIRNHAM WOOD CT, GAINESVILLE, VA, 20155",76522826,"L"
295278,"8079 TARA BLVD 105","JONESBORO","GA",30236,33.531410742,-84.363852645,278,"8079 TARA BLVD 105, JONESBORO, GA, 30236","Match","Exact","8079 TARA BLVD, JONESBORO, GA, 30236",23336055,"R"
295279,"8079 TARA BLVD SUITE 116","JONESBORO","GA",30236,33.531410742,-84.363852645,279,"8079 TARA BLVD SUITE 116, JONESBORO, GA, 30236","Match","Exact","8079 TARA BLVD, JONESBORO, GA, 30236",23336055,"R"
295280,"8079 TARA BOULEVARD - 116","JONESBORO","GA",30236,33.531410742,-84.363852645,280,"8079 TARA BOULEVARD - 116, JONESBORO, GA, 30236","Match","Exact","8079 TARA BLVD, JONESBORO, GA, 30236",23336055,"R"
295281,"808 11TH STREET SW","ROCHESTER","MN",55902,44.0100075170001,-92.4750718129999,281,"808 11TH STREET SW, ROCHESTER, MN, 55902","Match","Exact","808 11TH ST SW, ROCHESTER, MN, 55902",30571379,"L"
295282,"808 17TH AVE N","NASHVILLE","TN",37203,36.1637865930001,-86.801575585,282,"808 17TH AVE N, NASHVILLE, TN, 37203","Match","Exact","808 17TH AVE N, NASHVILLE, TN, 37203",97216913,"R"
295283,"808 22ND AVE","HONOLULU","HI",96816,21.2714403320001,-157.792249067,283,"808 22ND AVE, HONOLULU, HI, 96816","Match","Exact","808 22ND AVE, HONOLULU, HI, 96816",203243122,"L"
295284,"808 24TH AVE S","SEATTLE","WA",98144,47.595420109,-122.301159757,284,"808 24TH AVE S, SEATTLE, WA, 98144","Match","Exact","808 24TH AVE S, SEATTLE, WA, 98144",186593293,"L"
295285,"808 4TH AVE SE","JAMESTOWN","ND",58401,NA,NA,285,"808 4TH AVE SE, JAMESTOWN, ND, 58401","Tie",NA,NA,NA,NA
295286,"808 4TH AVE","MOLINE","IL",61265,41.505346762,-90.5261471699999,286,"808 4TH AVE, MOLINE, IL, 61265","Match","Exact","808 4TH AVE, MOLINE, IL, 61265",9209459,"R"
295287,"808 5TH ST","EARLE","AR",72331,35.2739564720001,-90.467670853,287,"808 5TH ST, EARLE, AR, 72331","Match","Exact","808 5TH ST, EARLE, AR, 72331",69364740,"L"
295288,"808 8TH AVE","BELLE PLAINE","IA",52208,41.8923204970001,-92.276548196,288,"808 8TH AVE, BELLE PLAINE, IA, 52208","Match","Exact","808 8TH AVE, BELLE PLAINE, IA, 52208",94707721,"L"
295289,"808 8TH AVENUE","BELLE PLAINE","IA",52208,41.8923204970001,-92.276548196,289,"808 8TH AVENUE, BELLE PLAINE, IA, 52208","Match","Exact","808 8TH AVE, BELLE PLAINE, IA, 52208",94707721,"L"
295290,"808 8TH AVENUE","HELENA","MT",59601,46.5876926650001,-112.027578439,290,"808 8TH AVENUE, HELENA, MT, 59601","Match","Exact","808 8TH AVE, HELENA, MT, 59601",202349787,"L"
295291,"808 ALABAMA AVE SE","WASHINGTON","DC",20032,38.8437069820001,-76.994154354,291,"808 ALABAMA AVE SE, WASHINGTON, DC, 20032","Match","Exact","808 ALABAMA AVE SE, WASHINGTON, DC, 20032",76232353,"L"
295292,"808 ALTA WAY","KANNAPOLIS","NC",28081,35.517008472,-80.630568887,292,"808 ALTA WAY, KANNAPOLIS, NC, 28081","Match","Exact","808 ALTA WAY, KANNAPOLIS, NC, 28081",650949655,"R"
295293,"808 AMAPOLA AVE","TORRANCE","CA",90501,33.839207491,-118.323748863,293,"808 AMAPOLA AVE, TORRANCE, CA, 90501","Match","Exact","808 AMAPOLA AVE, TORRANCE, CA, 90501",141668050,"L"
295294,"808 ASPEN DRIVE","CODY","WY",82414,44.5173709490001,-109.069576486,294,"808 ASPEN DRIVE, CODY, WY, 82414","Match","Exact","808 ASPEN DR, CODY, WY, 82414",649871417,"L"
295295,"808 AUTUMN BREEZE CT","HERNDON","VA",20170,38.972171557,-77.4102012719999,295,"808 AUTUMN BREEZE CT, HERNDON, VA, 20170","Match","Exact","808 AUTUMN BREEZE CT, HERNDON, VA, 20170",76008197,"L"
295296,"808 AVENUE I","ELY","NV",89301,39.2517354490001,-114.870959607,296,"808 AVENUE I, ELY, NV, 89301","Match","Exact","808 AVE I, ELY, NV, 89301",188262664,"L"
295297,"808 BAYBERRY DRIVE","BELLEVUE","NE",68005,41.165853531,-95.904178191,297,"808 BAYBERRY DRIVE, BELLEVUE, NE, 68005","Match","Exact","808 BAYBERRY DR, BELLEVUE, NE, 68005",28484486,"R"
295298,"808 BEECH COURT","MOUNTAIN BROOK","AL",35213,33.5127956600001,-86.742883407,298,"808 BEECH COURT, MOUNTAIN BROOK, AL, 35213","Match","Exact","808 BEECH CT, MOUNTAIN BRK, AL, 35213",81580406,"R"
295299,"808 BERRY STREET 459","SAINT PAUL","MN",55114,44.965029573,-93.206469864,299,"808 BERRY STREET 459, SAINT PAUL, MN, 55114","Match","Exact","808 BERRY ST, SAINT PAUL, MN, 55114",97638689,"R"
295300,"808 BOBBY JONES DRIVE","FAYETTEVILLE","NC",28312,35.0497263,-78.756461746,300,"808 BOBBY JONES DRIVE, FAYETTEVILLE, NC, 28312","Match","Exact","808 BOBBY JONES DR, FAYETTEVILLE, NC, 28312",608949325,"R"
295301,"808 BRACKEN TRAIL","NASHVILLE","TN",37214,NA,NA,301,"808 BRACKEN TRAIL, NASHVILLE, TN, 37214","No_Match",NA,NA,NA,NA
295302,"808 CALDWELL STREET","STATESVILLE","NC",28677,35.773964474,-80.8866287009999,302,"808 CALDWELL STREET, STATESVILLE, NC, 28677","Match","Exact","808 CALDWELL ST, STATESVILLE, NC, 28677",46006748,"L"
295303,"808 CALLE 37 SW LAS LOMAS","SAN JUAN","PR",921,NA,NA,303,"808 CALLE 37 SW LAS LOMAS, SAN JUAN, PR, 921","Tie",NA,NA,NA,NA
295304,"808 CARAWAY LANE","DESOTO","TX",75115,32.57694802,-96.884552081,304,"808 CARAWAY LANE, DESOTO, TX, 75115","Match","Exact","808 CARAWAY LN, DESOTO, TX, 75115",103277865,"L"
295305,"808 CARMICHAEL ROAD NO 112","HUDSON","WI",54016,44.9781388270001,-92.7211767319999,305,"808 CARMICHAEL ROAD NO 112, HUDSON, WI, 54016","Match","Non_Exact","808 CARMICHAEL RD, HUDSON, WI, 54016",110913539,"R"
295306,"808 CASTLEFINN LANE","BRYN MAWR","PA",19010,40.0193108980001,-75.3342074459999,306,"808 CASTLEFINN LANE, BRYN MAWR, PA, 19010","Match","Exact","808 CASTLEFINN LN, BRYN MAWR, PA, 19010",134898457,"R"
295307,"808 CHERLYNNE DRIVE","CEDAR HILL","TX",75104,32.6023965310001,-96.9569020019999,307,"808 CHERLYNNE DRIVE, CEDAR HILL, TX, 75104","Match","Non_Exact","808 CHERLYNE DR, CEDAR HILL, TX, 75104",102942234,"R"
295308,"808 CHRISTIANS TRAIL","FAIRBANK","IA",50629,42.646050949,-92.040876396,308,"808 CHRISTIANS TRAIL, FAIRBANK, IA, 50629","Match","Exact","808 CHRISTIANS TRL, FAIRBANK, IA, 50629",627104475,"R"
295309,"808 CHRYSOLITE DR","WESLACO","TX",78596,26.1522129860001,-98.004069809,309,"808 CHRYSOLITE DR, WESLACO, TX, 78596","Match","Exact","808 CHRYSOLITE DR, WESLACO, TX, 78596",631781062,"L"
295310,"808 CIMARRON PKWY","ATLANTA","GA",30350,33.964005173,-84.37498074,310,"808 CIMARRON PKWY, ATLANTA, GA, 30350","Match","Exact","808 CIMARRON PKWY, ATLANTA, GA, 30350",17392447,"R"
295311,"808 CLOUGH PIKE","CINCINNATI","OH",45245,39.0840266590001,-84.277085809,311,"808 CLOUGH PIKE, CINCINNATI, OH, 45245","Match","Exact","808 CLOUGH PIKE, CINCINNATI, OH, 45245",118446176,"R"
295312,"808 COLUMBUS AVE","MANHATTAN","NY",10025,40.794755443,-73.966146502,312,"808 COLUMBUS AVE, MANHATTAN, NY, 10025","Match","Non_Exact","808 COLUMBUS AVE, NEW YORK, NY, 10025",650087255,"L"
295313,"808 COLUMBUS AVENUE PH5G","NEW YORK","NY",10025,40.794755443,-73.966146502,313,"808 COLUMBUS AVENUE PH5G, NEW YORK, NY, 10025","Match","Exact","808 COLUMBUS AVE, NEW YORK, NY, 10025",650087255,"L"
295314,"808 DUCKETT DRIVE","EULESS","TX",76039,32.840645345,-97.070538958,314,"808 DUCKETT DRIVE, EULESS, TX, 76039","Match","Exact","808 DUCKETT DR, EULESS, TX, 76039",642827378,"R"
295315,"808 E 21ST","ODESSA","TX",79761,31.865232619,-102.370038457,315,"808 E 21ST, ODESSA, TX, 79761","Match","Non_Exact","808 E 21ST ST, ODESSA, TX, 79761",139430181,"R"
295316,"808 E 222ND APT 2","BRONX","NY",10467,NA,NA,316,"808 E 222ND APT 2, BRONX, NY, 10467","No_Match",NA,NA,NA,NA
295317,"808 E 26TH AVE","NEW SMYRNA BEACH","FL",32169,29.008945586,-80.881929237,317,"808 E 26TH AVE, NEW SMYRNA BEACH, FL, 32169","Match","Exact","808 E 26TH AVE, NEW SMYRNA BEACH, FL, 32169",647921575,"L"
295318,"808 E BROADWAY","WEST MEMPHIS","AR",72301,35.1464959350001,-90.174425361,318,"808 E BROADWAY, WEST MEMPHIS, AR, 72301","Match","Non_Exact","808 E BROADWAY AVE, WEST MEMPHIS, AR, 72301",69372842,"L"
295319,"808 E CARLISLE RD","WESTLAKE VILLAGE","CA",91303,NA,NA,319,"808 E CARLISLE RD, WESTLAKE VILLAGE, CA, 91303","Tie",NA,NA,NA,NA
295320,"808 E DEWEY AVENUE","YOUNGSTOWN","OH",44502,41.076219705,-80.6399377,320,"808 E DEWEY AVENUE, YOUNGSTOWN, OH, 44502","Match","Exact","808 E DEWEY AVE, YOUNGSTOWN, OH, 44502",64597311,"L"
295321,"808 E GREEN AVENUE","GALLUP","NM",87301,35.5266238890001,-108.730503151,321,"808 E GREEN AVENUE, GALLUP, NM, 87301","Match","Exact","808 E GREEN AVE, GALLUP, NM, 87301",178848858,"L"
295322,"808 E KELSO STREET NO 12","INGLEWOOD","CA",90301,NA,NA,322,"808 E KELSO STREET NO 12, INGLEWOOD, CA, 90301","No_Match",NA,NA,NA,NA
295323,"808 E MAIN CROSS ST APT A","EDINBURGH","IN",46124,39.354538738,-85.956271755,323,"808 E MAIN CROSS ST APT A, EDINBURGH, IN, 46124","Match","Non_Exact","808 E MAIN CROSS ST, EDINBURGH, IN, 46124",606946091,"L"
295324,"808 E ZACK ST","TAMPA","FL",33602,27.951491726,-82.454321394,324,"808 E ZACK ST, TAMPA, FL, 33602","Match","Exact","808 E ZACK ST, TAMPA, FL, 33602",104530558,"L"
295325,"808 EAST PONTIAC STREET","FORT WAYNE","IN",46825,41.060666832,-85.126668895,325,"808 EAST PONTIAC STREET, FORT WAYNE, IN, 46825","Match","Non_Exact","808 E PONTIAC ST, FORT WAYNE, IN, 46803",6382669,"R"
295326,"808 EDEN WAY N STE 100","CHESAPEAKE","VA",23320,36.773373169,-76.2355706869999,326,"808 EDEN WAY N STE 100, CHESAPEAKE, VA, 23320","Match","Exact","808 EDEN WAY N, CHESAPEAKE, VA, 23320",121784650,"L"
295327,"808 ELIZABETH","ELLSWORTH","KS",67439,38.732976029,-98.220314291,327,"808 ELIZABETH, ELLSWORTH, KS, 67439","Match","Non_Exact","808 ELIZABETH ST, ELLSWORTH, KS, 67439",132868215,"L"
295328,"808 ELLIOTT AVE","NEW CASTLE","IN",47362,NA,NA,328,"808 ELLIOTT AVE, NEW CASTLE, IN, 47362","No_Match",NA,NA,NA,NA
295329,"808 FINNEY TRAIL","CINCINNATI","OH",45224,39.210633133,-84.513666186,329,"808 FINNEY TRAIL, CINCINNATI, OH, 45224","Match","Exact","808 FINNEY TRL, CINCINNATI, OH, 45224",649546212,"R"
295330,"808 FOOTHILL DRIVE","SAN MATEO","CA",94402,37.544362166,-122.331928522,330,"808 FOOTHILL DRIVE, SAN MATEO, CA, 94402","Match","Exact","808 FOOTHILL DR, SAN MATEO, CA, 94402",192378159,"R"
295331,"808 FORREST AVE","BREWTON","AL",36426,31.0922802220001,-87.061308191,331,"808 FORREST AVE, BREWTON, AL, 36426","Match","Exact","808 FORREST AVE, BREWTON, AL, 36426",1932585,"L"
295332,"808 FRANKLIN PL","FRANKLIN SQUARE","NY",11010,40.7159649640001,-73.669797095,332,"808 FRANKLIN PL, FRANKLIN SQUARE, NY, 11010","Match","Exact","808 FRANKLIN PL, FRANKLIN SQUARE, NY, 11010",147672003,"R"
295333,"808 GLADSTELL ROAD APT 1004","CONROE","TX",77304,30.2916264740001,-95.4699700469999,333,"808 GLADSTELL ROAD APT 1004, CONROE, TX, 77304","Match","Non_Exact","808 GLADSTELL ST, CONROE, TX, 77304",79343760,"R"
295334,"808 GLEN EAGLES CT STE 1 BOX 42794","TOWSON","MD",21284,39.40204484,-76.573570262,334,"808 GLEN EAGLES CT STE 1 BOX 42794, TOWSON, MD, 21284","Match","Non_Exact","808 GLEN EAGLES CT, TOWSON, MD, 21286",191539688,"L"
295335,"808 GORDON AVE","NORWALK","IA",50211,41.485789842,-93.678817897,335,"808 GORDON AVE, NORWALK, IA, 50211","Match","Exact","808 GORDON AVE, NORWALK, IA, 50211",83759900,"L"
295336,"808 GRAND RIVER DRIVE NE","ADA","MI",49301,42.9783230100001,-85.534147283,336,"808 GRAND RIVER DRIVE NE, ADA, MI, 49301","Match","Exact","808 GRAND RIVER DR NE, ADA, MI, 49301",616675995,"L"
295337,"808 GRAYFOX DR","RICHMOND","VA",23223,37.534279682,-77.3723277779999,337,"808 GRAYFOX DR, RICHMOND, VA, 23223","Match","Exact","808 GRAYFOX DR, RICHMOND, VA, 23223",106650290,"R"
295338,"808 GREENHEDGE WAY","STONE MOUNTAIN","GA",30088,33.771164883,-84.167882831,338,"808 GREENHEDGE WAY, STONE MOUNTAIN, GA, 30088","Match","Exact","808 GREENHEDGE WAY, STONE MOUNTAIN, GA, 30088",23385076,"R"
295339,"808 GREY OAKS DRIVE","SENECA","SC",29678,34.6442532520001,-82.982390246,339,"808 GREY OAKS DRIVE, SENECA, SC, 29678","Match","Exact","808 GREY OAKS DR, SENECA, SC, 29678",25664331,"R"
295340,"808 HENSLEY LANE","WYLIE","TX",75098,33.0005194870001,-96.5698982759999,340,"808 HENSLEY LANE, WYLIE, TX, 75098","Match","Exact","808 HENSLEY LN, WYLIE, TX, 75098",642952165,"L"
295341,"808 HIDDEN CREEK DR","SOUTH LYON","MI",48178,42.4490810190001,-83.661018498,341,"808 HIDDEN CREEK DR, SOUTH LYON, MI, 48178","Match","Exact","808 HIDDEN CREEK DR, SOUTH LYON, MI, 48178",69791098,"R"
295342,"808 HILLCREST DRIVE","GREENWOOD","AR",72936,35.225041559,-94.298762016,342,"808 HILLCREST DRIVE, GREENWOOD, AR, 72936","Match","Exact","808 HILLCREST DR, GREENWOOD, AR, 72936",56161393,"R"
295343,"808 HOLYOKE COURT","SCHAUMBURG","IL",60193,42.0119378320001,-88.085167889,343,"808 HOLYOKE COURT, SCHAUMBURG, IL, 60193","Match","Exact","808 HOLYOKE CT, SCHAUMBURG, IL, 60193",111694977,"R"
295344,"808 JEFFRIES ST","SHAFTER","CA",93263,35.4920955530001,-119.277734586,344,"808 JEFFRIES ST, SHAFTER, CA, 93263","Match","Exact","808 JEFFRIES ST, SHAFTER, CA, 93263",618468147,"R"
295345,"808 JUSTICE AVE","CHARLOTTE","NC",28206,35.2604227090001,-80.829735909,345,"808 JUSTICE AVE, CHARLOTTE, NC, 28206","Match","Exact","808 JUSTICE AVE, CHARLOTTE, NC, 28206",70478875,"R"
295346,"808 KESWICK DRIVE","HUNTINGTON","IN",46750,40.9068771770001,-85.4998066919999,346,"808 KESWICK DRIVE, HUNTINGTON, IN, 46750","Match","Exact","808 KESWICK DR, HUNTINGTON, IN, 46750",6553551,"L"
295347,"808 LAURA HERBERT DRIVE","POINT PLEASANT","NJ",8742,40.0801841260001,-74.071426961,347,"808 LAURA HERBERT DRIVE, POINT PLEASANT, NJ, 8742","Match","Exact","808 LAURA HERBERT DR, PT PLEASANT, NJ, 08742",203735086,"L"
295348,"808 LAY DAM ROAD","Clanton","AL",35045,32.851148143,-86.623028522,348,"808 LAY DAM ROAD, Clanton, AL, 35045","Match","Exact","808 LAY DAM RD, CLANTON, AL, 35045",1235146,"R"
295349,"808 LOUDOUN AVE SUITE 2","PORTSMOUTH","VA",23707,36.8319455330001,-76.343189959,349,"808 LOUDOUN AVE SUITE 2, PORTSMOUTH, VA, 23707","Match","Exact","808 LOUDOUN AVE, PORTSMOUTH, VA, 23707",122192376,"R"
295350,"808 LUCKY RD","SEVERN","MD",21144,39.1338395930001,-76.665426646,350,"808 LUCKY RD, SEVERN, MD, 21144","Match","Exact","808 LUCKY RD, SEVERN, MD, 21144",68156026,"R"
295351,"808 MAIN STREET","LINCOLN","MT",59639,NA,NA,351,"808 MAIN STREET, LINCOLN, MT, 59639","No_Match",NA,NA,NA,NA
295352,"808 MAIN STREET","ROCHESTER","IN",46975,41.065897088,-86.2159642029999,352,"808 MAIN STREET, ROCHESTER, IN, 46975","Match","Exact","808 MAIN ST, ROCHESTER, IN, 46975",7842384,"L"
295353,"808 MANZANO ST NE","ALBUQUERQUE","NM",87110,35.0913278200001,-106.588577035,353,"808 MANZANO ST NE, ALBUQUERQUE, NM, 87110","Match","Exact","808 MANZANO ST NE, ALBUQUERQUE, NM, 87110",206716274,"R"
295354,"808 MCKINLEY PARKWAY","BUFFALO","NY",14220,42.853213354,-78.821732401,354,"808 MCKINLEY PARKWAY, BUFFALO, NY, 14220","Match","Exact","808 MCKINLEY PKWY, BUFFALO, NY, 14220",48301259,"L"
295355,"808 MEMORIAL DRIVE","CAMBRIDGE","MA",2139,42.3608797570001,-71.115888696,355,"808 MEMORIAL DRIVE, CAMBRIDGE, MA, 2139","Match","Exact","808 MEMORIAL DR, CAMBRIDGE, MA, 02139",613841965,"R"
295356,"808 MONORE ST","TALLULAH","LA",71282,32.3988007520001,-91.1905188279999,356,"808 MONORE ST, TALLULAH, LA, 71282","Match","Non_Exact","808 MONROE ST, TALLULAH, LA, 71282",71170626,"R"
295357,"808 MONTEREY","FARMINGTON","NM",87401,NA,NA,357,"808 MONTEREY, FARMINGTON, NM, 87401","No_Match",NA,NA,NA,NA
295358,"808 N 20TH ST","PHILADELPHIA","PA",19130,39.96939171,-75.169713626,358,"808 N 20TH ST, PHILADELPHIA, PA, 19130","Match","Exact","808 N 20TH ST, PHILADELPHIA, PA, 19130",131406050,"L"
295359,"808 N 20TH STREET","PHILADELPHIA","PA",19130,39.96939171,-75.169713626,359,"808 N 20TH STREET, PHILADELPHIA, PA, 19130","Match","Exact","808 N 20TH ST, PHILADELPHIA, PA, 19130",131406050,"L"
295360,"808 N 29TH ST","PHILADELPHIA","PA",19130,39.971745137,-75.184100717,360,"808 N 29TH ST, PHILADELPHIA, PA, 19130","Match","Exact","808 N 29TH ST, PHILADELPHIA, PA, 19130",131405276,"L"
295361,"808 N BROAD ST FLOOR 1","PHILADELPHIA","PA",19130,39.968361309,-75.160127331,361,"808 N BROAD ST FLOOR 1, PHILADELPHIA, PA, 19130","Match","Non_Exact","808 N BROAD ST, PHILADELPHIA, PA, 19130",642122526,"L"
295362,"808 N FAIRVIEW RD","MAMMOTH SPRING","AR",72554,36.4850085960001,-91.5445291939999,362,"808 N FAIRVIEW RD, MAMMOTH SPRING, AR, 72554","Match","Exact","808 FAIRVIEW RD, MAMMOTH SPRING, AR, 72554",2061830,"R"
295363,"808 N FRANKLIN ST APT 1807","TAMPA","FL",33602,NA,NA,363,"808 N FRANKLIN ST APT 1807, TAMPA, FL, 33602","No_Match",NA,NA,NA,NA
295364,"808 N LAKESHORE DR","LAKE CHARLES","LA",70601,NA,NA,364,"808 N LAKESHORE DR, LAKE CHARLES, LA, 70601","Tie",NA,NA,NA,NA
295365,"808 NE 70TH STREET","SEATTLE","WA",98115,47.679493908,-122.319786622,365,"808 NE 70TH STREET, SEATTLE, WA, 98115","Match","Exact","808 NE 70TH ST, SEATTLE, WA, 98115",186580707,"L"
295366,"808 NE MICHAEL COURT","ANKENY","IA",50021,41.7365483900001,-93.58594905,366,"808 NE MICHAEL COURT, ANKENY, IA, 50021","Match","Exact","808 NE MICHAEL CT, ANKENY, IA, 50021",65863718,"R"
295367,"808 NORTH CROFT","LOS ANGELES","CA",90069,34.0855943670001,-118.37421029,367,"808 NORTH CROFT, LOS ANGELES, CA, 90069","Match","Non_Exact","808 N CROFT AVE, LOS ANGELES, CA, 90069",141598012,"R"
295368,"808 NORTH OAK STREET","CALIFORNIA","MO",65018,38.6387603840001,-92.566202085,368,"808 NORTH OAK STREET, CALIFORNIA, MO, 65018","Match","Exact","808 N OAK ST, CALIFORNIA, MO, 65018",34470808,"R"
295369,"808 NORTH Q STREET","PENSACOLA","FL",32505,30.4212379090001,-87.24347235,369,"808 NORTH Q STREET, PENSACOLA, FL, 32505","Match","Exact","808 N Q ST, PENSACOLA, FL, 32505",600381446,"R"
295370,"808 NORTH RIVERSIDE DRIVE","SILVER LAKE","WI",53170,42.555607815,-88.174804146,370,"808 NORTH RIVERSIDE DRIVE, SILVER LAKE, WI, 53170","Match","Exact","808 N RIVERSIDE DR, SILVER LAKE, WI, 53170",79803018,"L"
295371,"808 NW 19TH AVE APT 309","PORTLAND","OR",97209,45.528618657,-122.690437478,371,"808 NW 19TH AVE APT 309, PORTLAND, OR, 97209","Match","Non_Exact","808 NW 19TH AVE, PORTLAND, OR, 97209",157498436,"R"
295372,"808 NW 88TH ST","OKLAHOMA CITY","OK",73114,NA,NA,372,"808 NW 88TH ST, OKLAHOMA CITY, OK, 73114","No_Match",NA,NA,NA,NA
295373,"808 OLD BARON DRIVE","FUQUAY-VARINA","NC",27526,35.579727952,-78.7832591649999,373,"808 OLD BARON DRIVE, FUQUAY-VARINA, NC, 27526","Match","Exact","808 OLD BARON DR, FUQUAY VARINA, NC, 27526",72584846,"R"
295374,"808 PAVILION COURT","MCDONOUGH","GA",30253,NA,NA,374,"808 PAVILION COURT, MCDONOUGH, GA, 30253","No_Match",NA,NA,NA,NA
295375,"808 PEQUAWKET TRAIL","WEST BALDWIN","ME",4091,43.8186291490001,-70.769627645,375,"808 PEQUAWKET TRAIL, WEST BALDWIN, ME, 4091","Match","Exact","808 PEQUAWKET TRL, WEST BALDWIN, ME, 04091",649884593,"L"
295376,"808 PINTAIL COURT","FRANKLIN","TN",37067,35.9341725630001,-86.836229316,376,"808 PINTAIL COURT, FRANKLIN, TN, 37067","Match","Exact","808 PINTAIL CT, FRANKLIN, TN, 37067",607910357,"L"
295377,"808 POWDERHORN DRIVE","ROUND ROCK","TX",78681,30.5159253040001,-97.737076745,377,"808 POWDERHORN DRIVE, ROUND ROCK, TX, 78681","Match","Exact","808 POWDERHORN DR, ROUND ROCK, TX, 78681",126423441,"L"
295378,"808 REGAL BLUFF LANE","DESOTO","TX",75115,32.5767880610001,-96.875142994,378,"808 REGAL BLUFF LANE, DESOTO, TX, 75115","Match","Exact","808 REGAL BLUFF LN, DESOTO, TX, 75115",627662490,"L"
295379,"808 RIDGE DR APT 111","DEKALB","IL",60115,41.9485179280001,-88.766327406,379,"808 RIDGE DR APT 111, DEKALB, IL, 60115","Match","Exact","808 RIDGE DR, DEKALB, IL, 60115",52257225,"L"
295380,"808 S BLANEY AVENUE","CUPERTINO","CA",95014,37.3149540490001,-122.023156655,380,"808 S BLANEY AVENUE, CUPERTINO, CA, 95014","Match","Exact","808 S BLANEY AVE, CUPERTINO, CA, 95014",122940568,"L"
295381,"808 S SHARY ROAD STE 5216","MISSION","TX",78572,NA,NA,381,"808 S SHARY ROAD STE 5216, MISSION, TX, 78572","Tie",NA,NA,NA,NA
295382,"808 S WESTERN AVE STE 208","LOS ANGEELS","CA",90010,NA,NA,382,"808 S WESTERN AVE STE 208, LOS ANGEELS, CA, 90010","No_Match",NA,NA,NA,NA
295383,"808 S WOOD ST 990 CME","CHICAGO","IL",60612,NA,NA,383,"808 S WOOD ST 990 CME, CHICAGO, IL, 60612","No_Match",NA,NA,NA,NA
295384,"808 SAHARA AVE","AUSTIN","TX",78745,30.2044700070001,-97.7858876779999,384,"808 SAHARA AVE, AUSTIN, TX, 78745","Match","Exact","808 SAHARA AVE, AUSTIN, TX, 78745",63949351,"R"
295385,"808 SEVIER AVE","KNOXVILLE","TN",37920,35.95799064,-83.90776202,385,"808 SEVIER AVE, KNOXVILLE, TN, 37920","Match","Non_Exact","808 SEVIER AVE SE, KNOXVILLE, TN, 37920",42622978,"R"
295386,"808 SKYLINE DRIVE","DUNCANVILLE","TX",75116,32.6575420290001,-96.893065157,386,"808 SKYLINE DRIVE, DUNCANVILLE, TX, 75116","Match","Exact","808 SKYLINE DR, DUNCANVILLE, TX, 75116",102943677,"R"
295387,"808 SOAPBERRY DR","ALLEN","TX",75002,33.0845242400001,-96.6239241069999,387,"808 SOAPBERRY DR, ALLEN, TX, 75002","Match","Exact","808 SOAPBERRY DR, ALLEN, TX, 75002",123560121,"L"
295388,"808 SOUTH LARENCE ST","MONTGOMERY","AL",36104,NA,NA,388,"808 SOUTH LARENCE ST, MONTGOMERY, AL, 36104","No_Match",NA,NA,NA,NA
295389,"808 SW 198TH PL","ALOHA","OR",97003,45.5137091780001,-122.881458941,389,"808 SW 198TH PL, ALOHA, OR, 97003","Match","Exact","808 SW 198TH PL, ALOHA, OR, 97003",605216437,"L"
295390,"808 SWIFTS HWY","JEFFERSON CITY","MO",65109,38.5674383200001,-92.185916939,390,"808 SWIFTS HWY, JEFFERSON CITY, MO, 65109","Match","Exact","808 SWIFTS HWY, JEFFERSON CITY, MO, 65109",636253617,"R"
295391,"808 TEMPLETON AVE","DALY CITY","CA",94014,37.7027998670001,-122.452238394,391,"808 TEMPLETON AVE, DALY CITY, CA, 94014","Match","Exact","808 TEMPLETON AVE, DALY CITY, CA, 94014",192368017,"R"
295392,"808 TERRACE AVE","APOLLO","PA",15613,40.587556213,-79.5638721719999,392,"808 TERRACE AVE, APOLLO, PA, 15613","Match","Exact","808 TERRACE AVE, APOLLO, PA, 15613",52475364,"R"
295393,"808 TWYCKENHAM DRIVE","SOUTH BEND","IN",46615,41.666667229,-86.2255647059999,393,"808 TWYCKENHAM DRIVE, SOUTH BEND, IN, 46615","Match","Non_Exact","808 S TWYCKENHAM DR, SOUTH BEND, IN, 46615",8084556,"L"
295394,"808 TYLER COURT","MONTICELLO","IL",61856,40.0201792190001,-88.56461934,394,"808 TYLER COURT, MONTICELLO, IL, 61856","Match","Exact","808 TYLER CT, MONTICELLO, IL, 61856",8553336,"R"
295395,"808 USHER STREET","MAYFIELD","KY",42066,36.732520659,-88.6268461069999,395,"808 USHER STREET, MAYFIELD, KY, 42066","Match","Exact","808 USHER ST, MAYFIELD, KY, 42066",27880002,"R"
295396,"808 VILLA RIDGE ROAD","FALLS CHURCH","VA",22046,38.877016892,-77.158163273,396,"808 VILLA RIDGE ROAD, FALLS CHURCH, VA, 22046","Match","Exact","808 VILLA RIDGE RD, FALLS CHURCH, VA, 22046",75979774,"R"
295397,"808 W MARVIN AVE","WAXAHACHIE","TX",75165,32.395818391,-96.851978993,397,"808 W MARVIN AVE, WAXAHACHIE, TX, 75165","Match","Exact","808 W MARVIN AVE, WAXAHACHIE, TX, 75165",103450512,"R"
295398,"808 WARFIELD PLACE","LEXINGTON","KY",40505,38.0508162520001,-84.4735066389999,398,"808 WARFIELD PLACE, LEXINGTON, KY, 40505","Match","Exact","808 WARFIELD PL, LEXINGTON, KY, 40505",31925960,"R"
295399,"808 WARTES EDGE DR","NEWARK","DE",19702,NA,NA,399,"808 WARTES EDGE DR, NEWARK, DE, 19702","No_Match",NA,NA,NA,NA
295400,"808 WASHINGTON ST","ABINGTON","MA",2351,42.1138459850001,-70.9428564249999,400,"808 WASHINGTON ST, ABINGTON, MA, 2351","Match","Exact","808 WASHINGTON ST, ABINGTON, MA, 02351",87448343,"L"
295401,"808 WEST NAVARRO STREET","LLANO","TX",78643,30.7616481270001,-98.684452296,401,"808 WEST NAVARRO STREET, LLANO, TX, 78643","Match","Exact","808 W NAVARRO ST, LLANO, TX, 78643",182241352,"L"
295402,"808 WEST NYE LANE SUITE 204","CARSON CITY","NV",89703,39.186365992,-119.774028862,402,"808 WEST NYE LANE SUITE 204, CARSON CITY, NV, 89703","Match","Exact","808 W NYE LN, CARSON CITY, NV, 89703",199516857,"R"
295403,"808 WILDWOOD CIRCLE DR","CRESTWOOD","MO",63126,38.570598611,-90.384923508,403,"808 WILDWOOD CIRCLE DR, CRESTWOOD, MO, 63126","Match","Non_Exact","808 WILDWOOD CIRCLE DR, SAINT LOUIS, MO, 63126",649641047,"L"
295404,"808 WILDWOOD LANE","GRAPEVINE","TX",76051,32.95102187,-97.138962797,404,"808 WILDWOOD LANE, GRAPEVINE, TX, 76051","Match","Non_Exact","808 WILDWOOD LN, GRAPEVINE, TX, 76092",101867019,"R"
295405,"808 WISCONSIN","SOUTH HOUSTON","TX",77587,29.6549875590001,-95.234058413,405,"808 WISCONSIN, SOUTH HOUSTON, TX, 77587","Match","Non_Exact","808 WISCONSIN ST, SOUTH HOUSTON, TX, 77587",96094262,"L"
295406,"808-G HIDEAWAY BAY LANE","MOUNT PLEASANT","SC",29466,32.807288091,-79.885825843,406,"808-G HIDEAWAY BAY LANE, MOUNT PLEASANT, SC, 29466","Match","Non_Exact","808 HIDEAWAY BAY LN, MT PLEASANT, SC, 29464",605843607,"L"
295407,"8080 BECKETT CENTER DRIVE SUITE 123","WEST CHESTER","OH",45069,39.355425161,-84.459585058,407,"8080 BECKETT CENTER DRIVE SUITE 123, WEST CHESTER, OH, 45069","Match","Exact","8080 BECKETT CENTER, WEST CHESTER, OH, 45069",653457689,"L"
295408,"8080 CINNABAR DR","LA MESA","CA",91941,32.7546029160001,-117.023706182,408,"8080 CINNABAR DR, LA MESA, CA, 91941","Match","Exact","8080 CINNABAR DR, LA MESA, CA, 91941",195359367,"L"
295409,"8080 HWY 68","BRITT","MN",55710,47.6402960950001,-92.5390225789999,409,"8080 HWY 68, BRITT, MN, 55710","Match","Non_Exact","8080 CO HWY 68, BRITT, MN, 55710",163231790,"L"
295410,"8080 N PALM AVE STE 300","FRESNO","CA",93711,36.8526450690001,-119.805657225,410,"8080 N PALM AVE STE 300, FRESNO, CA, 93711","Match","Non_Exact","8080 N PALM AVE, FRESNO, CA, 93711",619144148,"R"
295411,"8080 NORTH PALM AVENUE THIRD FLOOR","FRESNO","CA",93711,36.852637497,-119.805637361,411,"8080 NORTH PALM AVENUE THIRD FLOOR, FRESNO, CA, 93711","Match","Exact","8080 N PALM AVE, FRESNO, CA, 93711",619144148,"R"
295412,"8080 NW 96TH TER APT 202","TAMARAC","FL",33321,26.2242647890001,-80.281340069,412,"8080 NW 96TH TER APT 202, TAMARAC, FL, 33321","Match","Non_Exact","8080 NW 96TH TER, TAMARAC, FL, 33321",114814037,"L"
295413,"8080 NW 96TH TERRACE UNIT 202","TAMARAC","FL",33321,26.2242647890001,-80.281340069,413,"8080 NW 96TH TERRACE UNIT 202, TAMARAC, FL, 33321","Match","Non_Exact","8080 NW 96TH TER, TAMARAC, FL, 33321",114814037,"L"
295414,"8080 PRESIDENT GEORGE BUSH TPKE","DALLAS","TX",75252,NA,NA,414,"8080 PRESIDENT GEORGE BUSH TPKE, DALLAS, TX, 75252","No_Match",NA,NA,NA,NA
295415,"8080 ROUND LAKE RD","RAPID CITY","MI",49676,44.827680333,-85.2930639419999,415,"8080 ROUND LAKE RD, RAPID CITY, MI, 49676","Match","Non_Exact","8080 ROUND LAKE RD NW, RAPID CITY, MI, 49676",145939300,"R"
295416,"8080 SOUTH SALEM WARREN ROAD","CANFIELD","OH",44406,41.0006765250001,-80.857434145,416,"8080 SOUTH SALEM WARREN ROAD, CANFIELD, OH, 44406","Match","Exact","8080 S SALEM WARREN RD, CANFIELD, OH, 44406",652736619,"R"
295417,"8080 W  CAPITOL DRIVE","MILWAUKEE","WI",53222,43.089929931,-88.01356559,417,"8080 W  CAPITOL DRIVE, MILWAUKEE, WI, 53222","Match","Exact","8080 W CAPITOL DR, MILWAUKEE, WI, 53222",647210899,"R"
295418,"8081 9TH ST UNIT 201","BUENA PARK","CA",90621,33.8652488860001,-117.991983594,418,"8081 9TH ST UNIT 201, BUENA PARK, CA, 90621","Match","Exact","8081 9TH ST, BUENA PARK, CA, 90621",144010232,"L"
295419,"8081 OLD FRANKLIN TURNPIKE","GLADE HILL","VA",24092,36.9871279540001,-79.7508807469999,419,"8081 OLD FRANKLIN TURNPIKE, GLADE HILL, VA, 24092","Match","Exact","8081 OLD FRANKLIN TPKE, GLADE HILL, VA, 24092",56371654,"R"
295420,"8081 STANTON AVE 300","BUENA PARK","CA",90620,33.84514691,-117.993547268,420,"8081 STANTON AVE 300, BUENA PARK, CA, 90620","Match","Exact","8081 STANTON AVE, BUENA PARK, CA, 90620",144253772,"R"
295421,"8082 PRIMOAK WAY","ELK GROVE","CA",95758,38.4133214060001,-121.405999898,421,"8082 PRIMOAK WAY, ELK GROVE, CA, 95758","Match","Exact","8082 PRIMOAK WAY, ELK GROVE, CA, 95758",133382736,"R"
295422,"8082 VETERANS PARKWAY UNIT 1903","COLUMBUS","GA",31909,32.5648859130001,-84.936128955,422,"8082 VETERANS PARKWAY UNIT 1903, COLUMBUS, GA, 31909","Match","Exact","8082 VETERANS PKWY, COLUMBUS, GA, 31909",650038987,"L"
295423,"8083 S ZIKES RD","BLOOMINGTON","IN",47403,39.0475468930001,-86.535513929,423,"8083 S ZIKES RD, BLOOMINGTON, IN, 47403","Match","Non_Exact","8083 S ZIKES RD, BLOOMINGTON, IN, 47401",42335799,"L"
295424,"8083 SUNNYSIDE RD","BROOKSHIRE","TX",77423,29.8908895070001,-96.066487566,424,"8083 SUNNYSIDE RD, BROOKSHIRE, TX, 77423","Match","Non_Exact","8083 SUNNY SIDE RD, BROOKSHIRE, TX, 77423",652308220,"L"
295425,"80835 HIGHWAY 2","MERNA","NE",68856,41.546266852,-99.797194043,425,"80835 HIGHWAY 2, MERNA, NE, 68856","Match","Non_Exact","80835 STATE HWY 2, MERNA, NE, 68856",161991668,"L"
295426,"8084 CLIFTON COURT CIRCLE NW","MASSILLON","OH",44646,40.870021326,-81.500992832,426,"8084 CLIFTON COURT CIRCLE NW, MASSILLON, OH, 44646","Match","Exact","8084 CLIFTON COURT CIR NW, MASSILLON, OH, 44646",64712651,"L"
295427,"8084 ERICKSON RANCH ROAD","RAPID CITY","SD",57702,44.16793936,-103.277530319,427,"8084 ERICKSON RANCH ROAD, RAPID CITY, SD, 57702","Match","Exact","8084 ERICKSON RANCH RD, RAPID CITY, SD, 57702",200931552,"R"
295428,"8084 S 6120 W","WEST JORDAN","UT",84081,40.6038111670001,-112.036796714,428,"8084 S 6120 W, WEST JORDAN, UT, 84081","Match","Exact","8084 S 6120 W, WEST JORDAN, UT, 84081",647144045,"L"
295429,"8085 CLAUDE GILBERT TRAIL","DENVER","NC",28037,35.47705799,-80.977631125,429,"8085 CLAUDE GILBERT TRAIL, DENVER, NC, 28037","Match","Exact","8085 CLAUDE GILBERT TRL, DENVER, NC, 28037",69537695,"L"
295430,"8085 COMMUNITY DRIVE","MANASSAS","VA",20109,38.778469939,-77.4973307769999,430,"8085 COMMUNITY DRIVE, MANASSAS, VA, 20109","Match","Exact","8085 COMMUNITY DR, MANASSAS, VA, 20109",207159538,"L"
295431,"8085 MOUNTAIN VIEW ROAD","LAKE POINT","UT",84074,40.6761798530001,-112.262905379,431,"8085 MOUNTAIN VIEW ROAD, LAKE POINT, UT, 84074","Match","Exact","8085 MOUNTAIN VIEW RD, LAKE POINT, UT, 84074",155386616,"L"
295432,"8085 NORWICH COURT","PORT TOBAACO","MD",20677,38.537019248,-77.030430167,432,"8085 NORWICH COURT, PORT TOBAACO, MD, 20677","Match","Non_Exact","8085 NORWICH CT, PORT TOBACCO, MD, 20677",25428225,"R"
295433,"8085 PASEO ARRAYAN","CARLSBAD","CA",92009,33.0706952370001,-117.246486502,433,"8085 PASEO ARRAYAN, CARLSBAD, CA, 92009","Match","Non_Exact","8085 PSO ARRAYAN, CARLSBAD, CA, 92009",195455984,"R"
295434,"8086 FM 20","SEGUIN","TX",78155,NA,NA,434,"8086 FM 20, SEGUIN, TX, 78155","No_Match",NA,NA,NA,NA
295435,"8086 GOLDFINCH RD","NEOSHO","MO",64850,36.9521079680001,-94.48063874,435,"8086 GOLDFINCH RD, NEOSHO, MO, 64850","Match","Exact","8086 GOLDFINCH RD, NEOSHO, MO, 64850",56002945,"L"
295436,"8086 PIONEER TRAIL DRIVE","SAN ANTONIO","TX",78244,29.497811805,-98.3321509089999,436,"8086 PIONEER TRAIL DRIVE, SAN ANTONIO, TX, 78244","Match","Exact","8086 PIONEER TRAIL DR, SAN ANTONIO, TX, 78244",101570635,"R"
295437,"8086 S YALE AVE NO 223","TULSA","OK",74136,NA,NA,437,"8086 S YALE AVE NO 223, TULSA, OK, 74136","No_Match",NA,NA,NA,NA
295438,"8086 S YALE AVE NUMBER 236","TULSA","OK",74136,36.0468084190001,-95.922123714,438,"8086 S YALE AVE NUMBER 236, TULSA, OK, 74136","Match","Non_Exact","8086 S YALE AVE, TULSA, OK, 74136",166452519,"R"
295439,"8086 SOUTH YALE AVENUE BOX 191","TULSA","OK",74136,36.046820525,-95.922123487,439,"8086 SOUTH YALE AVENUE BOX 191, TULSA, OK, 74136","Match","Exact","8086 S YALE AVE, TULSA, OK, 74136",166452519,"R"
295440,"8087 N LAZY TRAIL","CRYSTAL RIVER","FL",34428,28.9798658230001,-82.591437312,440,"8087 N LAZY TRAIL, CRYSTAL RIVER, FL, 34428","Match","Exact","8087 N LAZY TRL, CRYSTAL RIVER, FL, 34428",610759918,"R"
295441,"8087 RECREATION ROAD","HENRICO","VA",23231,37.444819755,-77.35854614,441,"8087 RECREATION ROAD, HENRICO, VA, 23231","Match","Exact","8087 RECREATION RD, HENRICO, VA, 23231",106654486,"L"
295442,"8087 SNOW CAMP ROAD","SNOW CAMP","NC",27349,35.890877516,-79.4297350639999,442,"8087 SNOW CAMP ROAD, SNOW CAMP, NC, 27349","Match","Exact","8087 SNOW CAMP RD, SNOW CAMP, NC, 27349",635650996,"L"
295443,"8087 WORTHY DRIVE","WESTMINSTER","CA",92683,33.7339170220001,-117.987863203,443,"8087 WORTHY DRIVE, WESTMINSTER, CA, 92683","Match","Exact","8087 WORTHY DR, WESTMINSTER, CA, 92683",651161903,"R"
295444,"8088 E MATTHIAS RD PO BOX 125","WASCOTT","WI",54890,NA,NA,444,"8088 E MATTHIAS RD PO BOX 125, WASCOTT, WI, 54890","No_Match",NA,NA,NA,NA
295445,"8088 S MILLICENTVIEW LN","SALT LAKE CITY","UT",84121,NA,NA,445,"8088 S MILLICENTVIEW LN, SALT LAKE CITY, UT, 84121","No_Match",NA,NA,NA,NA
295446,"8089 100TH ST SE","ALTO","MI",49302,42.783331221,-85.463819448,446,"8089 100TH ST SE, ALTO, MI, 49302","Match","Exact","8089 100TH ST SE, ALTO, MI, 49302",12496204,"L"
295447,"8089 ABBEY ROAD","WHITE CITY","OR",97503,42.4345899740001,-122.820698967,447,"8089 ABBEY ROAD, WHITE CITY, OR, 97503","Match","Exact","8089 ABBEY RD, WHITE CITY, OR, 97503",155564253,"L"
295448,"8089 BARK CT","MURRELLS INLET","SC",29576,33.6118223340001,-79.045240038,448,"8089 BARK CT, MURRELLS INLET, SC, 29576","Match","Exact","8089 BARK CT, MURRELLS INLET, SC, 29576",29079600,"L"
295449,"8089 GLOBE DRIVE","WOODBURY","MN",55125,NA,NA,449,"8089 GLOBE DRIVE, WOODBURY, MN, 55125","No_Match",NA,NA,NA,NA
295450,"809 11TH STREET","HONDO","TX",78861,29.3547960920001,-99.137889872,450,"809 11TH STREET, HONDO, TX, 78861","Match","Exact","809 11TH ST, HONDO, TX, 78861",102799062,"R"
295451,"809 2ND STREET W","BIRMINGHAM","AL",35204,33.514429025,-86.839332873,451,"809 2ND STREET W, BIRMINGHAM, AL, 35204","Match","Exact","809 2ND ST W, BIRMINGHAM, AL, 35204",81722895,"R"
295452,"809 4TH AVE E APT B","POLSON","MT",59860,47.692304737,-114.151402975,452,"809 4TH AVE E APT B, POLSON, MT, 59860","Match","Exact","809 4TH AVE E, POLSON, MT, 59860",206934567,"L"
295453,"809 55TH PL SW","EVERETT","WA",98203,47.9474567680001,-122.243542995,453,"809 55TH PL SW, EVERETT, WA, 98203","Match","Exact","809 55TH PL SW, EVERETT, WA, 98203",187815695,"L"
295454,"809 6TH AVE NE","INDEPENDENCE","IA",50644,42.475988403,-91.8881249199999,454,"809 6TH AVE NE, INDEPENDENCE, IA, 50644","Match","Exact","809 6TH AVE NE, INDEPENDENCE, IA, 50644",101136388,"L"
295455,"809 7TH ST N","NORTHWOOD","IA",50459,43.4525301780001,-93.222209409,455,"809 7TH ST N, NORTHWOOD, IA, 50459","Match","Exact","809 7TH ST N, NORTHWOOD, IA, 50459",7500716,"R"
295456,"809 AMBROSE CT","GARLAND","TX",75040,32.951333414,-96.6386423439999,456,"809 AMBROSE CT, GARLAND, TX, 75040","Match","Exact","809 AMBROSE CT, GARLAND, TX, 75040",103280964,"L"
295457,"809 ARTHUR SPRINGS LANE","NEW CASTLE","DE",19720,39.634486849,-75.623525032,457,"809 ARTHUR SPRINGS LANE, NEW CASTLE, DE, 19720","Match","Exact","809 ARTHUR SPRINGS LN, NEW CASTLE, DE, 19720",605772436,"L"
295458,"809 AUZERAIS AVE UNIT 224","SAN JOSE","CA",95126,37.321214221,-121.903997864,458,"809 AUZERAIS AVE UNIT 224, SAN JOSE, CA, 95126","Match","Exact","809 AUZERAIS AVE, SAN JOSE, CA, 95126",618196183,"R"
295459,"809 BAY STREET","PONTIAC","MI",48342,42.6606458970001,-83.254180893,459,"809 BAY STREET, PONTIAC, MI, 48342","Match","Exact","809 BAY ST, PONTIAC, MI, 48342",69705229,"L"
295460,"809 BILL BECK BOULEVARD","KISSIMMEE","FL",34744,28.297629208,-81.361333859,460,"809 BILL BECK BOULEVARD, KISSIMMEE, FL, 34744","Match","Exact","809 BILL BECK BLVD, KISSIMMEE, FL, 34744",612449209,"R"
295461,"809 BINGHAM ST","PITTSBURGH","PA",15203,40.429406827,-79.990872152,461,"809 BINGHAM ST, PITTSBURGH, PA, 15203","Match","Exact","809 BINGHAM ST, PITTSBURGH, PA, 15203",51635468,"L"
295462,"809 BOAZ CIRCLE SUITE 160","WYLIE","TX",75098,33.030243849,-96.5491793749999,462,"809 BOAZ CIRCLE SUITE 160, WYLIE, TX, 75098","Match","Exact","809 BOAZ CIR, WYLIE, TX, 75098",633246479,"L"
295463,"809 BOYLSTON ST APT 1","BROOKLINE","MA",2467,42.3265394320001,-71.1470233009999,463,"809 BOYLSTON ST APT 1, BROOKLINE, MA, 2467","Match","Non_Exact","809 BOYLSTON ST, BOSTON COLLEGE, MA, 02467",635749067,"R"
295464,"809 CANTERBURY ARC","LAS CRUCES","NM",88005,32.2752511640001,-106.776758042,464,"809 CANTERBURY ARC, LAS CRUCES, NM, 88005","Match","Exact","809 CANTERBURY ARC, LAS CRUCES, NM, 88005",635475580,"R"
295465,"809 CASCADE AVE","HOOD RIVER","OR",97031,45.7094887700001,-121.518865799,465,"809 CASCADE AVE, HOOD RIVER, OR, 97031","Match","Exact","809 CASCADE AVE, HOOD RIVER, OR, 97031",158132577,"R"
295466,"809 CENTRAL AVENUE SUITE 600","FORT DODGE","IA",50501,42.50508095,-94.187260701,466,"809 CENTRAL AVENUE SUITE 600, FORT DODGE, IA, 50501","Match","Exact","809 CENTRAL AVE, FORT DODGE, IA, 50501",66072343,"R"
295467,"809 CHELSEA GLENN RD","CLARKSBORO","NJ",8020,39.7778146300001,-75.216651256,467,"809 CHELSEA GLENN RD, CLARKSBORO, NJ, 8020","Match","Exact","809 CHELSEA GLENN RD, CLARKSBORO, NJ, 08020",648314566,"R"
295468,"809 CHICKESAW LN","WYLIE","TX",75098,33.0208986580001,-96.554786909,468,"809 CHICKESAW LN, WYLIE, TX, 75098","Match","Exact","809 CHICKESAW LN, WYLIE, TX, 75098",619923032,"L"
295469,"809 CONDOR CT","NOBLE","OK",73068,35.149049731,-97.3872120359999,469,"809 CONDOR CT, NOBLE, OK, 73068","Match","Exact","809 CONDOR CT, NOBLE, OK, 73068",99916526,"R"
295470,"809 CREEK RIDGE ROAD","GREENSBORO","NC",27406,36.0274790510001,-79.8155130059999,470,"809 CREEK RIDGE ROAD, GREENSBORO, NC, 27406","Match","Exact","809 CREEK RIDGE RD, GREENSBORO, NC, 27406",131045905,"L"
295471,"809 CRESTVIEW CIR N","WILDWOOD","FL",34785,28.8687239340001,-82.0314260549999,471,"809 CRESTVIEW CIR N, WILDWOOD, FL, 34785","Match","Exact","809 CRESTVIEW CIR N, WILDWOOD, FL, 34785",86510415,"L"
295472,"809 DIXON DR","STEVENSVILLE","MD",21666,38.999070223,-76.306946943,472,"809 DIXON DR, STEVENSVILLE, MD, 21666","Match","Exact","809 DIXON DR, STEVENSVILLE, MD, 21666",68054978,"L"
295473,"809 DOVE RUN TRL","COLLEGE STATION","TX",77845,30.569800452,-96.288075765,473,"809 DOVE RUN TRL, COLLEGE STATION, TX, 77845","Match","Exact","809 DOVE RUN TRL, COLLEGE STATION, TX, 77845",640711446,"L"
295474,"809 DUNBAR DRIVE","INDIANAPOLIS","IN",46229,39.7815009290001,-85.9484749169999,474,"809 DUNBAR DRIVE, INDIANAPOLIS, IN, 46229","Match","Exact","809 DUNBAR DR, INDIANAPOLIS, IN, 46229",31076687,"L"
295475,"809 E 7TH ST","ST PAUL","MN",55106,44.9610338590001,-93.067703907,475,"809 E 7TH ST, ST PAUL, MN, 55106","Match","Exact","809 E 7TH ST, SAINT PAUL, MN, 55106",97650900,"L"
295476,"809 E HAPPY HOLLOW RD","COLUMBIA","MO",65203,38.886979447,-92.332399503,476,"809 E HAPPY HOLLOW RD, COLUMBIA, MO, 65203","Match","Exact","809 HAPPY HOLLOW, COLUMBIA, MO, 65203",23490357,"R"
295477,"809 E SOUTH ST","BOLIVAR","MO",65613,37.6043879210001,-93.404116143,477,"809 E SOUTH ST, BOLIVAR, MO, 65613","Match","Exact","809 E SOUTH ST, BOLIVAR, MO, 65613",23030523,"R"
295478,"809 E SOUTHERN AVE","TEMPE","AZ",85282,33.3929619370001,-111.927735322,478,"809 E SOUTHERN AVE, TEMPE, AZ, 85282","Match","Exact","809 E SOUTHERN AVE, TEMPE, AZ, 85282",128227711,"R"
295479,"809 EAST CHESTNUT STREET","BELLINGHAM","WA",98225,48.743934107,-122.473274586,479,"809 EAST CHESTNUT STREET, BELLINGHAM, WA, 98225","Match","Exact","809 E CHESTNUT ST, BELLINGHAM, WA, 98225",183772320,"L"
295480,"809 EAST JOHNSON STREET","DUNN","NC",28334,35.311973719,-78.599155294,480,"809 EAST JOHNSON STREET, DUNN, NC, 28334","Match","Exact","809 E JOHNSON ST, DUNN, NC, 28334",71963358,"L"
295481,"809 ELBRIDGE DRIVE","RALEIGH","NC",27303,35.6151516640001,-78.668884106,481,"809 ELBRIDGE DRIVE, RALEIGH, NC, 27303","Match","Non_Exact","809 ELBRIDGE DR, RALEIGH, NC, 27603",72598237,"L"
295482,"809 ELMROW DRIVE","FORT WAYNE","IN",46806,41.0373785620001,-85.1255491969999,482,"809 ELMROW DRIVE, FORT WAYNE, IN, 46806","Match","Exact","809 ELMROW DR, FORT WAYNE, IN, 46806",6397947,"R"
295483,"809 EVENINGSIDE CT","TAMPA","FL",33613,28.0946886680001,-82.4659089479999,483,"809 EVENINGSIDE CT, TAMPA, FL, 33613","Match","Exact","809 EVENINGSIDE CT, TAMPA, FL, 33613",104511330,"R"
295484,"809 EXCELSO CT","FREMONT","CA",94539,37.5258599310001,-121.928326226,484,"809 EXCELSO CT, FREMONT, CA, 94539","Match","Exact","809 EXCELSO CT, FREMONT, CA, 94539",125034296,"R"
295485,"809 FLINT RIVER RD SUITE 4","JONESBORO","GA",30238,33.517737943,-84.364544993,485,"809 FLINT RIVER RD SUITE 4, JONESBORO, GA, 30238","Match","Exact","809 FLINT RIVER RD, JONESBORO, GA, 30238",651790955,"L"
295486,"809 FOREST BLVD NORTH DR","INDIANAPOLIS","IN",46240,NA,NA,486,"809 FOREST BLVD NORTH DR, INDIANAPOLIS, IN, 46240","No_Match",NA,NA,NA,NA
295487,"809 FOREST PARK","MIDDLETOWN","RI",2842,41.5213449560001,-71.2855293389999,487,"809 FOREST PARK, MIDDLETOWN, RI, 2842","Match","Non_Exact","809 FOREST AVE, MIDDLETOWN, RI, 02842",47347274,"R"
295488,"809 FRANCE AVENUE","SAN FRANCISCO","CA",94112,37.7169272350001,-122.43182847,488,"809 FRANCE AVENUE, SAN FRANCISCO, CA, 94112","Match","Exact","809 FRANCE AVE, SAN FRANCISCO, CA, 94112",192286994,"L"
295489,"809 GLENEAGLES COURT SUITE 112","BALTIMORE","MD",21286,39.4020527930001,-76.5735604939999,489,"809 GLENEAGLES COURT SUITE 112, BALTIMORE, MD, 21286","Match","Non_Exact","809 GLEN EAGLES CT, BALTIMORE, MD, 21286",191539688,"R"
295490,"809 GOVERNMENT STREET","MOBILE","AL",36602,30.6865246680001,-88.052717511,490,"809 GOVERNMENT STREET, MOBILE, AL, 36602","Match","Exact","809 GOVERNMENT ST, MOBILE, AL, 36602",61867648,"L"
295491,"809 GUADALUPE CIRCLE NW","ALBUQUERQUE","NM",87114,35.1892891630001,-106.63199342,491,"809 GUADALUPE CIRCLE NW, ALBUQUERQUE, NM, 87114","Match","Exact","809 GUADALUPE CIR NW, ALBUQUERQUE, NM, 87114",625779859,"R"
295492,"809 HERCULES ST BLDG 6901","BILOXI","MS",39534,NA,NA,492,"809 HERCULES ST BLDG 6901, BILOXI, MS, 39534","No_Match",NA,NA,NA,NA
295493,"809 HOLLYWOOD RD","ATLANTA","GA",30318,33.777169272,-84.4503546999999,493,"809 HOLLYWOOD RD, ATLANTA, GA, 30318","Match","Non_Exact","809 HOLLYWOOD RD NW, ATLANTA, GA, 30318",17340012,"R"
295494,"809 HURON HILL","MADISON","WI",53711,43.0490172610001,-89.439208723,494,"809 HURON HILL, MADISON, WI, 53711","Match","Exact","809 HURON HILL, MADISON, WI, 53711",49469745,"L"
295495,"809 INDIAN RUN","PFLUGERVILLE","TX",78660,NA,NA,495,"809 INDIAN RUN, PFLUGERVILLE, TX, 78660","Tie",NA,NA,NA,NA
295496,"809 INDIANOLA CT","MYRTLE BEACH","SC",29579,33.7657398360001,-78.940194461,496,"809 INDIANOLA CT, MYRTLE BEACH, SC, 29579","Match","Exact","809 INDIANOLA CT, MYRTLE BEACH, SC, 29579",630412500,"L"
295497,"809 IRON MOUNTAIN ROAD","EL DORADO","AR",71730,33.1178631700001,-92.624190217,497,"809 IRON MOUNTAIN ROAD, EL DORADO, AR, 71730","Match","Exact","809 IRON MOUNTAIN RD, EL DORADO, AR, 71730",28168368,"R"
295498,"809 JEFFERSON STREET SOUTH","LEWISBURG","WV",24901,37.8010319530001,-80.4461053699999,498,"809 JEFFERSON STREET SOUTH, LEWISBURG, WV, 24901","Match","Exact","809 JEFFERSON ST S, LEWISBURG, WV, 24901",74750300,"L"
295499,"809 JONES CIR","RICE LAKE","WI",54868,45.506692108,-91.74753809,499,"809 JONES CIR, RICE LAKE, WI, 54868","Match","Exact","809 JONES CIR, RICE LAKE, WI, 54868",126304240,"L"
295500,"809 KERRY LN SE UNIT 72","CEDAR RAPIDS","IA",52403,42.0228694250001,-91.618611211,500,"809 KERRY LN SE UNIT 72, CEDAR RAPIDS, IA, 52403","Match","Exact","809 KERRY LN SE, CEDAR RAPIDS, IA, 52403",648098929,"L"
