"ID","Address","City","State","Zip","lat","long","id","input_address","match_indicator","match_type","matched_address","tiger_line_id","tiger_side"
91501,"1810 CORAL GARDENS DR","WILTON MANORS","FL",33306,26.1641005010001,-80.122350243,1,"1810 CORAL GARDENS DR, WILTON MANORS, FL, 33306","Match","Exact","1810 CORAL GARDENS DR, WILTON MANORS, FL, 33306",114724502,"R"
91502,"1810 CROWELL RD","EROS","LA",71238,32.380138733,-92.369143954,2,"1810 CROWELL RD, EROS, LA, 71238","Match","Exact","1810 CROWELL RD, EROS, LA, 71238",635288104,"L"
91503,"1810 DOUBLE BARREL DR","EULESS","TX",76040,32.825360721,-97.112204767,3,"1810 DOUBLE BARREL DR, EULESS, TX, 76040","Match","Exact","1810 DOUBLE BARREL DR, EULESS, TX, 76040",630354601,"R"
91504,"1810 E CARY ST 4244","RICHMOND","VA",23223,37.5319819800001,-77.428286409,4,"1810 E CARY ST 4244, RICHMOND, VA, 23223","Match","Non_Exact","1810 E CARY ST, RICHMOND, VA, 23223",201540860,"L"
91505,"1810 E GLENN AVE STE 120","AUBURN","AL",36830,32.608866338,-85.446657564,5,"1810 E GLENN AVE STE 120, AUBURN, AL, 36830","Match","Non_Exact","1810 E GLENN AVE, AUBURN, AL, 36830",1598860,"R"
91506,"1810 E SAHARA AVE STE 212 1336","LAS VEGAS","NV",89104,36.144426041,-115.125111646,6,"1810 E SAHARA AVE STE 212 1336, LAS VEGAS, NV, 89104","Match","Non_Exact","1810 E SAHARA AVE, LAS VEGAS, NV, 89104",201871442,"L"
91507,"1810 E SAHARA AVE STE 212 NUM 365","LAS VEGAS","NV",89104,36.144426041,-115.125111646,7,"1810 E SAHARA AVE STE 212 NUM 365, LAS VEGAS, NV, 89104","Match","Non_Exact","1810 E SAHARA AVE, LAS VEGAS, NV, 89104",201871442,"L"
91508,"1810 E SAHARA AVE STE 215","LAS VEGAS","NV",89104,36.144426041,-115.125111646,8,"1810 E SAHARA AVE STE 215, LAS VEGAS, NV, 89104","Match","Non_Exact","1810 E SAHARA AVE, LAS VEGAS, NV, 89104",201871442,"L"
91509,"1810 E SAHARA AVE SUITE 124","LAS VEGAS","NV",89104,36.144426041,-115.125111646,9,"1810 E SAHARA AVE SUITE 124, LAS VEGAS, NV, 89104","Match","Non_Exact","1810 E SAHARA AVE, LAS VEGAS, NV, 89104",201871442,"L"
91510,"1810 E SAHARA AVE SUITE 212-238","LAS VEGAS","NV",89104,36.144426041,-115.125111646,10,"1810 E SAHARA AVE SUITE 212-238, LAS VEGAS, NV, 89104","Match","Non_Exact","1810 E SAHARA AVE, LAS VEGAS, NV, 89104",201871442,"L"
91511,"1810 E SAHARA AVE SUITE 486","LAS VEGAS","NV",89104,36.144426041,-115.125111646,11,"1810 E SAHARA AVE SUITE 486, LAS VEGAS, NV, 89104","Match","Non_Exact","1810 E SAHARA AVE, LAS VEGAS, NV, 89104",201871442,"L"
91512,"1810 E SAHARA AVE","LAS VEGAS","NV",89104,36.144426041,-115.125111646,12,"1810 E SAHARA AVE, LAS VEGAS, NV, 89104","Match","Exact","1810 E SAHARA AVE, LAS VEGAS, NV, 89104",201871442,"L"
91513,"1810 E SAHARA","LAS VEGAS","NV",89104,36.144426041,-115.125111646,13,"1810 E SAHARA, LAS VEGAS, NV, 89104","Match","Non_Exact","1810 E SAHARA AVE, LAS VEGAS, NV, 89104",201871442,"L"
91514,"1810 E WALLISVILLE RD","HIGHLANDS","TX",77562,29.8194047430001,-95.031363477,14,"1810 E WALLISVILLE RD, HIGHLANDS, TX, 77562","Match","Exact","1810 E WALLISVILLE RD, HIGHLANDS, TX, 77562",649878362,"R"
91515,"1810 EAST POINSETTIA AVENUE","TAMPA","FL",33612,28.0419842060001,-82.4384159699999,15,"1810 EAST POINSETTIA AVENUE, TAMPA, FL, 33612","Match","Non_Exact","1810 POINSETTIA AVE, TAMPA, FL, 33612",104519183,"L"
91516,"1810 EAST PRATT STREET","BALTIMORE","MD",21231,39.289350934,-76.591283866,16,"1810 EAST PRATT STREET, BALTIMORE, MD, 21231","Match","Exact","1810 E PRATT ST, BALTIMORE, MD, 21231",206424598,"L"
91517,"1810 EAST SAHARA AVENUE SUITE 215","LAS VEGAS","NV",89104,36.144426072,-115.125115616,17,"1810 EAST SAHARA AVENUE SUITE 215, LAS VEGAS, NV, 89104","Match","Exact","1810 E SAHARA AVE, LAS VEGAS, NV, 89104",201871442,"L"
91518,"1810 EVANS STREET","MARSHALL","TX",75670,32.5604717960001,-94.379951306,18,"1810 EVANS STREET, MARSHALL, TX, 75670","Match","Exact","1810 EVANS ST, MARSHALL, TX, 75670",141191913,"R"
91519,"1810 FAIRFIELD BEACH ROAD","FAIRFIELD","CT",6824,41.122543722,-73.257744858,19,"1810 FAIRFIELD BEACH ROAD, FAIRFIELD, CT, 6824","Match","Exact","1810 FAIRFIELD BEACH RD, FAIRFIELD, CT, 06824",637213406,"R"
91520,"1810 FAWN BLUFF","SAN ANTONIO","TX",78248,29.601155003,-98.517430785,20,"1810 FAWN BLUFF, SAN ANTONIO, TX, 78248","Match","Exact","1810 FAWN BLUFF, SAN ANTONIO, TX, 78248",621907931,"R"
91521,"1810 FLAGSTAFF CT","LOUISVILLE","KY",40223,38.2744694240001,-85.5698197689999,21,"1810 FLAGSTAFF CT, LOUISVILLE, KY, 40223","Match","Exact","1810 FLAGSTAFF CT, LOUISVILLE, KY, 40223",96863674,"L"
91522,"1810 FLETCHER ST","PRINCETON","IL",61356,41.358373607,-89.4617716129999,22,"1810 FLETCHER ST, PRINCETON, IL, 61356","Match","Non_Exact","1810 S FLETCHER ST, PRINCETON, IL, 61356",8487440,"L"
91523,"1810 FLETCHER STREET","PRINCETON","IL",61356,41.358373607,-89.4617716129999,23,"1810 FLETCHER STREET, PRINCETON, IL, 61356","Match","Non_Exact","1810 S FLETCHER ST, PRINCETON, IL, 61356",8487440,"L"
91524,"1810 FRANKFORT AVE APT 103","LOUISVILLE","KY",40206,38.2566461590001,-85.716196387,24,"1810 FRANKFORT AVE APT 103, LOUISVILLE, KY, 40206","Match","Exact","1810 FRANKFORT AVE, LOUISVILLE, KY, 40206",96845609,"R"
91525,"1810 GARRISON DRIVE","CLARKSVILLE","IN",47129,38.323075427,-85.766735379,25,"1810 GARRISON DRIVE, CLARKSVILLE, IN, 47129","Match","Exact","1810 GARRISON DR, CLARKSVILLE, IN, 47129",64888940,"R"
91526,"1810 GLASGOW APT 1","SAN JUAN","PR",921,NA,NA,26,"1810 GLASGOW APT 1, SAN JUAN, PR, 921","No_Match",NA,NA,NA,NA
91527,"1810 GOLDEN ST","TULSA","OK",74127,36.162714115,-96.012861226,27,"1810 GOLDEN ST, TULSA, OK, 74127","Match","Non_Exact","1810 W GOLDEN ST, TULSA, OK, 74127",82333714,"L"
91528,"1810 HILL STREET","MONTROSE","CO",81401,38.466972861,-107.824848671,28,"1810 HILL STREET, MONTROSE, CO, 81401","Match","Exact","1810 HILL ST, MONTROSE, CO, 81401",647576644,"L"
91529,"1810 IVY AVE EAST","ST PAUL","MN",55119,NA,NA,29,"1810 IVY AVE EAST, ST PAUL, MN, 55119","No_Match",NA,NA,NA,NA
91530,"1810 KINGS COURT APT D","COLUMBUS","OH",43212,39.99421406,-83.04602426,30,"1810 KINGS COURT APT D, COLUMBUS, OH, 43212","Match","Exact","1810 KINGS CT, COLUMBUS, OH, 43212",218652523,"R"
91531,"1810 LA VILLA DR","N LAS VEGAS","NV",89031,36.250191713,-115.167135747,31,"1810 LA VILLA DR, N LAS VEGAS, NV, 89031","Match","Exact","1810 LA VILLA DR, N LAS VEGAS, NV, 89031",201909364,"R"
91532,"1810 LAKENOLL DRIVE","CINCINNATI","OH",45231,39.2274215900001,-84.552614149,32,"1810 LAKENOLL DRIVE, CINCINNATI, OH, 45231","Match","Exact","1810 LAKENOLL DR, CINCINNATI, OH, 45231",103919735,"R"
91533,"1810 LEOLA ST","LOMITA","CA",90717,33.7976952500001,-118.311255946,33,"1810 LEOLA ST, LOMITA, CA, 90717","Match","Exact","1810 LEOLA ST, LOMITA, CA, 90717",141668964,"L"
91534,"1810 LOWE DR","WOODLAND","CA",95776,38.670392486,-121.737510689,34,"1810 LOWE DR, WOODLAND, CA, 95776","Match","Exact","1810 LOWE DR, WOODLAND, CA, 95776",67707341,"R"
91535,"1810 MALCOLM AVENUE APT 306","LOS ANGELES","CA",90025,34.0494740560001,-118.433823329,35,"1810 MALCOLM AVENUE APT 306, LOS ANGELES, CA, 90025","Match","Exact","1810 MALCOLM AVE, LOS ANGELES, CA, 90025",141567937,"L"
91536,"1810 MALCOLM AVENUE APT 306","LOS ANGELES","CA",91789,34.0494740560001,-118.433823329,36,"1810 MALCOLM AVENUE APT 306, LOS ANGELES, CA, 91789","Match","Non_Exact","1810 MALCOLM AVE, LOS ANGELES, CA, 90025",141567937,"L"
91537,"1810 MAPLE AVE","HURON","OH",44839,NA,NA,37,"1810 MAPLE AVE, HURON, OH, 44839","No_Match",NA,NA,NA,NA
91538,"1810 MAPLE AVE","ZANESVILLE","OH",43701,39.960513905,-82.010241376,38,"1810 MAPLE AVE, ZANESVILLE, OH, 43701","Match","Exact","1810 MAPLE AVE, ZANESVILLE, OH, 43701",45594233,"R"
91539,"1810 MARLANDWOOD RD 9102","TEMPLE","TX",76502,31.0657891220001,-97.3740283389999,39,"1810 MARLANDWOOD RD 9102, TEMPLE, TX, 76502","Match","Exact","1810 MARLANDWOOD RD, TEMPLE, TX, 76502",146149623,"R"
91540,"1810 MATTHEWS-MINT HILL RD","MATTHEWS","NC",28105,35.1205173060001,-80.693522457,40,"1810 MATTHEWS-MINT HILL RD, MATTHEWS, NC, 28105","Match","Exact","1810 MATTHEWS-MINT HILL RD, MATTHEWS, NC, 28105",70572387,"R"
91541,"1810 MONARCH CIRCLE","LOVELAND","CO",80538,40.411654314,-105.01481624,41,"1810 MONARCH CIRCLE, LOVELAND, CO, 80538","Match","Exact","1810 MONARCH CIR, LOVELAND, CO, 80538",188592864,"R"
91542,"1810 MT ROYAL BLVD","GLENSHAW","PA",15116,40.5271243920001,-79.963880704,42,"1810 MT ROYAL BLVD, GLENSHAW, PA, 15116","Match","Exact","1810 MOUNT ROYAL BLVD, GLENSHAW, PA, 15116",51640279,"R"
91543,"1810 MUSCAT COURT APT D","KISSIMMEE","FL",34741,28.3087509550001,-81.430376823,43,"1810 MUSCAT COURT APT D, KISSIMMEE, FL, 34741","Match","Exact","1810 MUSCAT CT, KISSIMMEE, FL, 34741",645597062,"L"
91544,"1810 N 72ND AVENUE","PHILADELPHIA","PA",19126,40.063656618,-75.1461510029999,44,"1810 N 72ND AVENUE, PHILADELPHIA, PA, 19126","Match","Exact","1810 72ND AVE, PHILADELPHIA, PA, 19126",131413654,"L"
91545,"1810 N AQURITE DR","KU","ID",83634,NA,NA,45,"1810 N AQURITE DR, KU, ID, 83634","No_Match",NA,NA,NA,NA
91546,"1810 N AZURITE DR","KUNA","ID",83634,43.505689912,-116.424579843,46,"1810 N AZURITE DR, KUNA, ID, 83634","Match","Exact","1810 N AZURITE DR, KUNA, ID, 83634",648980932,"L"
91547,"1810 N EDGEMOOR","WICHITA","KS",67208,37.7173675500001,-97.270930382,47,"1810 N EDGEMOOR, WICHITA, KS, 67208","Match","Non_Exact","1810 N EDGEMOOR DR, WICHITA, KS, 67208",115639225,"R"
91548,"1810 NORTH 80 EAST","OREM","UT",84057,40.329939945,-111.694319165,48,"1810 NORTH 80 EAST, OREM, UT, 84057","Match","Exact","1810 N 80 E, OREM, UT, 84057",134217213,"R"
91549,"1810 NORTH RD","TWINING","MI",48766,44.132564894,-83.9372592249999,49,"1810 NORTH RD, TWINING, MI, 48766","Match","Exact","1810 NORTH RD, TWINING, MI, 48766",160914522,"R"
91550,"1810 NORTH SHATTUCK PLACE","ORANGE","CA",92865,33.818288012,-117.837097878,50,"1810 NORTH SHATTUCK PLACE, ORANGE, CA, 92865","Match","Exact","1810 N SHATTUCK PL, ORANGE, CA, 92865",144031331,"L"
91551,"1810 NW 6TH ST STE E","GAINESVILLE","FL",32609,29.6684973500001,-82.330896673,51,"1810 NW 6TH ST STE E, GAINESVILLE, FL, 32609","Match","Non_Exact","1810 NW 6TH ST, GAINESVILLE, FL, 32609",6806426,"L"
91552,"1810 PHILLIPS AVE","GREENSBORO","NC",27405,36.097828572,-79.7562481309999,52,"1810 PHILLIPS AVE, GREENSBORO, NC, 27405","Match","Exact","1810 PHILLIPS AVE, GREENSBORO, NC, 27405",131034804,"R"
91553,"1810 PORTGLEN","LEAGUE CITY","TX",77573,29.5058438,-95.019706883,53,"1810 PORTGLEN, LEAGUE CITY, TX, 77573","Match","Non_Exact","1810 PORTGLEN DR, LEAGUE CITY, TX, 77573",96742792,"R"
91554,"1810 REDDY DRIVE PO BOX 5146","WOODBRIDGE","VA",22191,38.631849802,-77.268088687,54,"1810 REDDY DRIVE PO BOX 5146, WOODBRIDGE, VA, 22191","Match","Exact","1810 REDDY DR, WOODBRIDGE, VA, 22191",76511442,"R"
91555,"1810 REYNOLDS ST","LANCASTER","TX",75134,32.6119396940001,-96.7955138149999,55,"1810 REYNOLDS ST, LANCASTER, TX, 75134","Match","Exact","1810 REYNOLDS ST, LANCASTER, TX, 75134",103216209,"R"
91556,"1810 RIDGE ROAD","CARROLLTON","TX",75006,32.9632150040001,-96.9067765569999,56,"1810 RIDGE ROAD, CARROLLTON, TX, 75006","Match","Exact","1810 RIDGE RD, CARROLLTON, TX, 75006",102888405,"R"
91557,"1810 ROUNDWIND TRL","CROSBY","TX",77532,29.9745249540001,-95.1148360239999,57,"1810 ROUNDWIND TRL, CROSBY, TX, 77532","Match","Non_Exact","1810 ROUND WIND TRL, CROSBY, TX, 77532",644878642,"R"
91558,"1810 S ALPORT STREET","CHICAGO","IL",60608,41.8576331130001,-87.657646717,58,"1810 S ALPORT STREET, CHICAGO, IL, 60608","Match","Non_Exact","1810 S ALLPORT ST, CHICAGO, IL, 60608",111803018,"R"
91559,"1810 S APPLE TREE WAY","SAN BERNADINO","CA",92408,34.068510265,-117.256462711,59,"1810 S APPLE TREE WAY, SAN BERNADINO, CA, 92408","Match","Non_Exact","1810 S APPLE TREE WAY, SAN BERNARDINO, CA, 92408",144971536,"R"
91560,"1810 SOMERFORD DR","GALENA","OH",43021,40.237274476,-82.921986723,60,"1810 SOMERFORD DR, GALENA, OH, 43021","Match","Exact","1810 SOMERFORD DR, GALENA, OH, 43021",612676532,"L"
91561,"1810 SOUTH STEVENS STREET","SEATTLE","WA",98144,47.5769925930001,-122.30903731,61,"1810 SOUTH STEVENS STREET, SEATTLE, WA, 98144","Match","Exact","1810 S STEVENS ST, SEATTLE, WA, 98144",186593893,"L"
91562,"1810 STADIUM DRIVE STE 210","PHENIX CITY","AL",36867,32.498039487,-85.017184798,62,"1810 STADIUM DRIVE STE 210, PHENIX CITY, AL, 36867","Match","Exact","1810 STADIUM DR, PHENIX CITY, AL, 36867",653331883,"R"
91563,"1810 STATE RD 56","PETERSBURG","IN",47567,NA,NA,63,"1810 STATE RD 56, PETERSBURG, IN, 47567","Tie",NA,NA,NA,NA
91564,"1810 TIMBER TRAIL","ANN ARBOR","MI",48103,42.301983856,-83.7718630109999,64,"1810 TIMBER TRAIL, ANN ARBOR, MI, 48103","Match","Exact","1810 TIMBER TRL, ANN ARBOR, MI, 48103",635631931,"R"
91565,"1810 TOBIAS DRIVE SE","WASHINGTON","DC",20020,38.849996667,-76.9796411569999,65,"1810 TOBIAS DRIVE SE, WASHINGTON, DC, 20020","Match","Exact","1810 TOBIAS DR SE, WASHINGTON, DC, 20020",624368084,"R"
91566,"1810 TWO ROD ROAD","MARILLA","NY",14102,42.8388677450001,-78.555229071,66,"1810 TWO ROD ROAD, MARILLA, NY, 14102","Match","Exact","1810 TWO ROD RD, MARILLA, NY, 14102",48313706,"R"
91567,"1810 UPPER CONCORD ROAD","TEN MILE","TN",37880,NA,NA,67,"1810 UPPER CONCORD ROAD, TEN MILE, TN, 37880","No_Match",NA,NA,NA,NA
91568,"1810 W BEAVER STREET STE R","JACKSONVILLE","FL",32209,30.334489908,-81.688697173,68,"1810 W BEAVER STREET STE R, JACKSONVILLE, FL, 32209","Match","Non_Exact","1810 W BEAVER ST, JACKSONVILLE, FL, 32209",83896345,"L"
91569,"1810 W COUNTRY CLUB LANE","ESCONDIDO","CA",92026,33.156545738,-117.124539984,69,"1810 W COUNTRY CLUB LANE, ESCONDIDO, CA, 92026","Match","Exact","1810 COUNTRY CLUB LN, ESCONDIDO, CA, 92026",195310836,"R"
91570,"1810 W PARKER ST","LAKELAND","FL",33815,28.0508893520001,-81.9838786349999,70,"1810 W PARKER ST, LAKELAND, FL, 33815","Match","Exact","1810 W PARKER ST, LAKELAND, FL, 33815",104808786,"L"
91571,"1810 WEST GRACE STREET","RICHMOND","VA",23220,37.554952767,-77.459598236,71,"1810 WEST GRACE STREET, RICHMOND, VA, 23220","Match","Exact","1810 W GRACE ST, RICHMOND, VA, 23220",201538306,"R"
91572,"1810 WESTBROOKE TERRACE","NORMAN","OK",73072,35.1970726280001,-97.468195808,72,"1810 WESTBROOKE TERRACE, NORMAN, OK, 73072","Match","Exact","1810 WESTBROOKE TER, NORMAN, OK, 73072",99910835,"L"
91573,"18100 107TH PL SE UNIT 143","RENTON","WA",98055,47.4375396510001,-122.197593854,73,"18100 107TH PL SE UNIT 143, RENTON, WA, 98055","Match","Exact","18100 107TH PL SE, RENTON, WA, 98055",186714194,"R"
91574,"18100 142ND AVE NE APT L2","WOODINVILLE","WA",98072,47.7580578710001,-122.149571067,74,"18100 142ND AVE NE APT L2, WOODINVILLE, WA, 98072","Match","Exact","18100 142ND AVE NE, WOODINVILLE, WA, 98072",187090038,"R"
91575,"18100 ATHERSTONE TR","LAND O LAKES","FL",34638,28.2081256210001,-82.516800173,75,"18100 ATHERSTONE TR, LAND O LAKES, FL, 34638","Match","Exact","18100 ATHERSTONE TRL, LAND O LAKES, FL, 34638",641298160,"L"
91576,"18100 DAIRY LANE","JORDAN","MN",55352,NA,NA,76,"18100 DAIRY LANE, JORDAN, MN, 55352","No_Match",NA,NA,NA,NA
91577,"18100 MEYERS RD","DETROIT","MI",48235,42.4223148350001,-83.170357043,77,"18100 MEYERS RD, DETROIT, MI, 48235","Match","Exact","18100 MEYERS RD, DETROIT, MI, 48235",95425267,"R"
91578,"18100 STATE ROUTE 4","MARYSVILLE","OH",43040,40.264656894,-83.3630993469999,78,"18100 STATE ROUTE 4, MARYSVILLE, OH, 43040","Match","Exact","18100 STATE RTE 4, MARYSVILLE, OH, 43040",638535335,"R"
91579,"18100 VON KARMAN AVE STE 850","IRVINE","CA",92612,NA,NA,79,"18100 VON KARMAN AVE STE 850, IRVINE, CA, 92612","No_Match",NA,NA,NA,NA
91580,"18100 VON KARMEN AVE SUITE 850","IRVINE","CA",92612,NA,NA,80,"18100 VON KARMEN AVE SUITE 850, IRVINE, CA, 92612","No_Match",NA,NA,NA,NA
91581,"18100 WEST ROAD  APT 307","HOUSTON","TX",77095,29.9084509890001,-95.684351807,81,"18100 WEST ROAD  APT 307, HOUSTON, TX, 77095","Match","Exact","18100 WEST RD, HOUSTON, TX, 77095",641765263,"R"
91582,"18101 BARRINGTON DRIVE","EDMOND","OK",73012,35.655456229,-97.541103343,82,"18101 BARRINGTON DRIVE, EDMOND, OK, 73012","Match","Exact","18101 BARRINGTON DR, EDMOND, OK, 73012",617859376,"L"
91583,"18101 BETHEL RD","SHAWNEE","OK",74801,35.30287149,-97.0185942269999,83,"18101 BETHEL RD, SHAWNEE, OK, 74801","Match","Exact","18101 BETHEL RD, SHAWNEE, OK, 74801",607357055,"L"
91584,"18101 GODDARD","DETROIT","MI",48234,42.4263591660001,-83.07800874,84,"18101 GODDARD, DETROIT, MI, 48234","Match","Non_Exact","18101 GODDARD ST, DETROIT, MI, 48234",95463470,"L"
91585,"18101 VON KARMAN STE 30","IRVINE","CA",92612,33.679340236,-117.851435153,85,"18101 VON KARMAN STE 30, IRVINE, CA, 92612","Match","Non_Exact","18101 VON KARMAN AVE, IRVINE, CA, 92612",653190518,"R"
91586,"18101 W OAK AVE","LOCKPORT","IL",60441,41.560627094,-88.058102866,86,"18101 W OAK AVE, LOCKPORT, IL, 60441","Match","Exact","18101 W OAK AVE, LOCKPORT, IL, 60441",649240507,"R"
91587,"18102 GLEN CYPRESS COURT","KATY","TX",77449,29.869271213,-95.686292694,87,"18102 GLEN CYPRESS COURT, KATY, TX, 77449","Match","Exact","18102 GLEN CYPRESS CT, KATY, TX, 77449",624621238,"R"
91588,"18102 KENNESAW CT","TAMPA","FL",33647,28.137291356,-82.365794799,88,"18102 KENNESAW CT, TAMPA, FL, 33647","Match","Exact","18102 KENNESAW CT, TAMPA, FL, 33647",104581822,"L"
91589,"18103 NORTH BLVD","MAPLE HTS","OH",44137,41.415902084,-81.5536758119999,89,"18103 NORTH BLVD, MAPLE HTS, OH, 44137","Match","Exact","18103 NORTH BLVD, MAPLE HEIGHTS, OH, 44137",61129825,"L"
91590,"18105 E OHIO AVE APT 202","AURORA","CO",80017,39.7035021820001,-104.778705549,90,"18105 E OHIO AVE APT 202, AURORA, CO, 80017","Match","Non_Exact","18105 E OHIO AVE, AURORA, CO, 80017",177356735,"R"
91591,"18106 BROOKWOOD FOREST","SAN ANTONIO","TX",78258,29.6119840580001,-98.512272594,91,"18106 BROOKWOOD FOREST, SAN ANTONIO, TX, 78258","Match","Exact","18106 BROOKWOOD FOREST, SAN ANTONIO, TX, 78258",101578510,"L"
91592,"18106 PURVIS DRIVE   APT A","TRIANGLE","VA",22172,38.559309168,-77.318179281,92,"18106 PURVIS DRIVE   APT A, TRIANGLE, VA, 22172","Match","Exact","18106 PURVIS DR, TRIANGLE, VA, 22172",207163204,"R"
91593,"18106 VERANDA LN","SAN ANTONIO","TX",78258,29.609224596,-98.54515223,93,"18106 VERANDA LN, SAN ANTONIO, TX, 78258","Match","Exact","18106 VERANDA LN, SAN ANTONIO, TX, 78258",101760444,"R"
91594,"18107 120TH AVE E","PUYALLUP","WA",98374,47.0937077840001,-122.269419524,94,"18107 120TH AVE E, PUYALLUP, WA, 98374","Match","Exact","18107 120TH AVE E, PUYALLUP, WA, 98374",184754906,"L"
91595,"18107 SHERMAN WAY NUMBER 211","RESEDA","CA",91335,34.201249236,-118.529867258,95,"18107 SHERMAN WAY NUMBER 211, RESEDA, CA, 91335","Match","Non_Exact","18107 W SHERMAN WAY, RESEDA, CA, 91335",241188724,"R"
91596,"18108 MUNCASTER RD","ROCKVILLE","MD",20855,39.152618068,-77.139030444,96,"18108 MUNCASTER RD, ROCKVILLE, MD, 20855","Match","Exact","18108 MUNCASTER RD, ROCKVILLE, MD, 20855",641074042,"R"
91597,"18108 SORRENTO ST","DETROIT","MI",48235,42.4230932340001,-83.173841409,97,"18108 SORRENTO ST, DETROIT, MI, 48235","Match","Exact","18108 SORRENTO ST, DETROIT, MI, 48235",95425249,"R"
91598,"18109 DIAMOND COVE COURT","TAMPA","FL",33647,28.148982183,-82.293079752,98,"18109 DIAMOND COVE COURT, TAMPA, FL, 33647","Match","Exact","18109 DIAMOND COVE CT, TAMPA, FL, 33647",104673087,"R"
91599,"18109 EAST PARK DRIVE","CLEVELAND","OH",44119,41.5862648360001,-81.5531702649999,99,"18109 EAST PARK DRIVE, CLEVELAND, OH, 44119","Match","Exact","18109 E PARK DR, CLEVELAND, OH, 44119",61107901,"L"
91600,"18109 GARNETTE AVE","HAGERSTOWN","MD",21740,39.694379897,-77.738808267,100,"18109 GARNETTE AVE, HAGERSTOWN, MD, 21740","Match","Exact","18109 GARNETTE AVE, HAGERSTOWN, MD, 21740",625636296,"L"
91601,"18109 JARL COURT","LAKEVILLE","MN",55044,44.686888035,-93.2789447,101,"18109 JARL COURT, LAKEVILLE, MN, 55044","Match","Exact","18109 JARL CT, LAKEVILLE, MN, 55044",37939339,"L"
91602,"18109 MOYER ROAD","WAYNESFIELD","OH",45896,40.6179778060001,-83.956425596,102,"18109 MOYER ROAD, WAYNESFIELD, OH, 45896","Match","Exact","18109 MOYER RD, WAYNESFIELD, OH, 45896",36460915,"L"
91603,"1811 ALGONQUIN DR","BARABOO","WI",53913,43.4820904960001,-89.7519885849999,103,"1811 ALGONQUIN DR, BARABOO, WI, 53913","Match","Exact","1811 ALGONQUIN DR, BARABOO, WI, 53913",86532897,"L"
91604,"1811 BALMORAL DR APT 204","FAYETTEVILLE","NC",28304,35.017209413,-78.9830141209999,104,"1811 BALMORAL DR APT 204, FAYETTEVILLE, NC, 28304","Match","Exact","1811 BALMORAL DR, FAYETTEVILLE, NC, 28304",64262075,"L"
91605,"1811 BERKLEY AVE","BESSEMER","AL",35020,33.39856897,-86.948815387,105,"1811 BERKLEY AVE, BESSEMER, AL, 35020","Match","Exact","1811 BERKLEY AVE, BESSEMER, AL, 35020",81549822,"R"
91606,"1811 BERRYMAN ST","BERKELEY","CA",94703,37.8830427720001,-122.275679632,106,"1811 BERRYMAN ST, BERKELEY, CA, 94703","Match","Exact","1811 BERRYMAN ST, BERKELEY, CA, 94703",124993764,"L"
91607,"1811 BLUE RIDGE TRAIL","WAUNAKEE","WI",53597,43.1732070960001,-89.4360167899999,107,"1811 BLUE RIDGE TRAIL, WAUNAKEE, WI, 53597","Match","Exact","1811 BLUE RIDGE TRL, WAUNAKEE, WI, 53597",635632320,"L"
91608,"1811 BOTHWELL STREET","GREENSBORO","NC",27401,36.0483104300001,-79.766541645,108,"1811 BOTHWELL STREET, GREENSBORO, NC, 27401","Match","Exact","1811 BOTHWELL ST, GREENSBORO, NC, 27401",131071258,"L"
91609,"1811 CARLY COVE CT","SPRING","TX",77386,30.0979292380001,-95.397227255,109,"1811 CARLY COVE CT, SPRING, TX, 77386","Match","Non_Exact","1811 CARLEY COVE CT, SPRING, TX, 77386",614124329,"R"
91610,"1811 CHESTNUT ST APT 801","PHILADELPHIA","PA",19103,39.9517008490001,-75.1705929519999,110,"1811 CHESTNUT ST APT 801, PHILADELPHIA, PA, 19103","Match","Exact","1811 CHESTNUT ST, PHILADELPHIA, PA, 19103",131407469,"R"
91611,"1811 COLLEGE AVE SE","GRAND RAPIDS","MI",49507,42.9306746730001,-85.655727371,111,"1811 COLLEGE AVE SE, GRAND RAPIDS, MI, 49507","Match","Exact","1811 COLLEGE AVE SE, GRAND RAPIDS, MI, 49507",12461926,"R"
91612,"1811 CONEY ISLAND AVENUE","BROOKLYN","NY",11230,40.613246084,-73.962981677,112,"1811 CONEY ISLAND AVENUE, BROOKLYN, NY, 11230","Match","Exact","1811 CONEY ISLAND AVE, BROOKLYN, NY, 11230",59089702,"L"
91613,"1811 COTTON MILL CT","RICHMOND","TX",77406,29.6132316750001,-95.734759907,113,"1811 COTTON MILL CT, RICHMOND, TX, 77406","Match","Exact","1811 COTTON MILL CT, RICHMOND, TX, 77406",78264725,"R"
91614,"1811 CREEGAN PARK COURT","HOUSTON","TX",77047,29.6241184530001,-95.399374231,114,"1811 CREEGAN PARK COURT, HOUSTON, TX, 77047","Match","Exact","1811 CREEGAN PARK CT, HOUSTON, TX, 77047",624584738,"R"
91615,"1811 DEEPWOOD DR","ALMA","AR",72921,35.5497242170001,-94.196754885,115,"1811 DEEPWOOD DR, ALMA, AR, 72921","Match","Exact","1811 DEEPWOOD DR, ALMA, AR, 72921",53483236,"L"
91616,"1811 E DOGWOOD PL","CHANDLER","AZ",85286,33.260289508,-111.81007693,116,"1811 E DOGWOOD PL, CHANDLER, AZ, 85286","Match","Exact","1811 E DOGWOOD PL, CHANDLER, AZ, 85286",640935150,"L"
91617,"1811 E ELM STREET APT 4","ALGONA","IA",50511,43.0735979390001,-94.2162490699999,117,"1811 E ELM STREET APT 4, ALGONA, IA, 50511","Match","Non_Exact","1811 E ELM ST, ALGONA, IA, 50511",9839464,"R"
91618,"1811 E HEDGES","FRESNO","CA",93703,36.7595467740001,-119.789062637,118,"1811 E HEDGES, FRESNO, CA, 93703","Match","Non_Exact","1811 E HEDGES AVE, FRESNO, CA, 93703",197578954,"L"
91619,"1811 E LOMBARD ST","BALTIMORE","MD",21231,39.2905075730001,-76.591345264,119,"1811 E LOMBARD ST, BALTIMORE, MD, 21231","Match","Exact","1811 E LOMBARD ST, BALTIMORE, MD, 21231",206424525,"R"
91620,"1811 E SLAUSON AVE","LOS ANGELES","CA",90058,33.9895663140001,-118.240248424,120,"1811 E SLAUSON AVE, LOS ANGELES, CA, 90058","Match","Exact","1811 SLAUSON AVE, LOS ANGELES, CA, 90058",141671697,"L"
91621,"1811 E THAYER AVENUE","BISMARCK","ND",58501,46.8072535800001,-100.764580803,121,"1811 E THAYER AVENUE, BISMARCK, ND, 58501","Match","Exact","1811 E THAYER AVE, BISMARCK, ND, 58501",198848929,"R"
91622,"1811 EAST 1ST PL","LUBBOCK","TX",79403,33.597231111,-101.815128073,122,"1811 EAST 1ST PL, LUBBOCK, TX, 79403","Match","Exact","1811 E 1ST PL, LUBBOCK, TX, 79403",185325867,"L"
91623,"1811 EAST THAYER AVENUE","BISMARCK","ND",58501,46.8072536230001,-100.764583509,123,"1811 EAST THAYER AVENUE, BISMARCK, ND, 58501","Match","Exact","1811 E THAYER AVE, BISMARCK, ND, 58501",198848929,"R"
91624,"1811 EDGECLIFFE DRIVE","LOS ANGELES","CA",90026,34.0942792380001,-118.275154794,124,"1811 EDGECLIFFE DRIVE, LOS ANGELES, CA, 90026","Match","Exact","1811 EDGECLIFFE DR, LOS ANGELES, CA, 90026",141604614,"L"
91625,"1811 FLORIDA STREET","VALLEJO","CA",94590,38.104810279,-122.238070758,125,"1811 FLORIDA STREET, VALLEJO, CA, 94590","Match","Exact","1811 FLORIDA ST, VALLEJO, CA, 94590",192528186,"R"
91626,"1811 FRANKFORD ROAD EAST APT1503","CARROLLTON","TX",75007,32.993435547,-96.940962043,126,"1811 FRANKFORD ROAD EAST APT1503, CARROLLTON, TX, 75007","Match","Non_Exact","1811 FRANKFORD RD W, CARROLLTON, TX, 75007",103423729,"R"
91627,"1811 GERVAIS STREET","COLUMBIA","SC",29201,34.0043676330001,-81.0236665319999,127,"1811 GERVAIS STREET, COLUMBIA, SC, 29201","Match","Exact","1811 GERVAIS ST, COLUMBIA, SC, 29201",71821631,"L"
91628,"1811 GLENDALE RD","SAPULPA","OK",74066,35.986364431,-96.085883253,128,"1811 GLENDALE RD, SAPULPA, OK, 74066","Match","Exact","1811 GLENDALE RD, SAPULPA, OK, 74066",165865973,"L"
91629,"1811 GLENMERE BLVD","GREELEY","CO",80631,40.4086408860001,-104.70896469,129,"1811 GLENMERE BLVD, GREELEY, CO, 80631","Match","Exact","1811 GLENMERE BLVD, GREELEY, CO, 80631",188676505,"R"
91630,"1811 HAMILTON PLACE","STEUBENVILLE","OH",43952,40.3723990060001,-80.6345454619999,130,"1811 HAMILTON PLACE, STEUBENVILLE, OH, 43952","Match","Exact","1811 HAMILTON PL, STEUBENVILLE, OH, 43952",37800949,"R"
91631,"1811 HULL AVE","WESTCHESTER","IL",60154,41.8539893490001,-87.8758537209999,131,"1811 HULL AVE, WESTCHESTER, IL, 60154","Match","Exact","1811 HULL AVE, WESTCHESTER, IL, 60154",111788649,"L"
91632,"1811 HYLAND DR","STORM LAKE","IA",50588,42.6477496970001,-95.227785478,132,"1811 HYLAND DR, STORM LAKE, IA, 50588","Match","Exact","1811 HYLAND DR, STORM LAKE, IA, 50588",77385318,"R"
91633,"1811 IDLEHURST DRIVE","EUCLID","OH",44117,41.5778850840001,-81.507442093,133,"1811 IDLEHURST DRIVE, EUCLID, OH, 44117","Match","Exact","1811 IDLEHURST DR, EUCLID, OH, 44117",61133288,"L"
91634,"1811 IRONDALE ROAD PO BOX 1421","PORT HADLOCK","WA",98339,48.0336473400001,-122.757724063,134,"1811 IRONDALE ROAD PO BOX 1421, PORT HADLOCK, WA, 98339","Match","Exact","1811 IRONDALE RD, PORT HADLOCK, WA, 98339",152018025,"R"
91635,"1811 KEARNY ST NE","WASHINGTON","DC",20018,38.931138785,-76.979065874,135,"1811 KEARNY ST NE, WASHINGTON, DC, 20018","Match","Non_Exact","1811 KEARNEY ST NE, WASHINGTON, DC, 20018",76229164,"R"
91636,"1811 KENWOOD PARKWAY","MINNEAPOLIS","MN",55405,44.966284106,-93.308110046,136,"1811 KENWOOD PARKWAY, MINNEAPOLIS, MN, 55405","Match","Exact","1811 KENWOOD PKWY, MINNEAPOLIS, MN, 55405",43833193,"L"
91637,"1811 LAKELAND DR","CHARLESTON","WV",25320,38.487279207,-81.646637017,137,"1811 LAKELAND DR, CHARLESTON, WV, 25320","Match","Exact","1811 LAKELAND DR, CHARLESTON, WV, 25320",78588852,"R"
91638,"1811 LANCASTER PK CT","FRESNO","TX",77545,29.537410687,-95.481899219,138,"1811 LANCASTER PK CT, FRESNO, TX, 77545","Match","Exact","1811 LANCASTER PARK CT, FRESNO, TX, 77545",624577232,"R"
91639,"1811 LANDMARK DRIVE","RICHMOND","TX",77406,29.6095344190001,-95.734852308,139,"1811 LANDMARK DRIVE, RICHMOND, TX, 77406","Match","Exact","1811 LANDMARK DR, RICHMOND, TX, 77406",78284970,"L"
91640,"1811 LEE STREET","BOSSIER CITY","LA",71112,32.510524678,-93.717923018,140,"1811 LEE STREET, BOSSIER CITY, LA, 71112","Match","Exact","1811 LEE ST, BOSSIER CITY, LA, 71112",108508706,"L"
91641,"1811 MAIN ST       STE 206","VANCOUVER","WA",98660,45.634970115,-122.671488148,141,"1811 MAIN ST       STE 206, VANCOUVER, WA, 98660","Match","Exact","1811 MAIN ST, VANCOUVER, WA, 98660",158325453,"R"
91642,"1811 MAJESTIC OAKS DRIVE","WENTZVILLE","MO",63385,38.8486984790001,-90.87503049,142,"1811 MAJESTIC OAKS DRIVE, WENTZVILLE, MO, 63385","Match","Exact","1811 MAJESTIC OAKS DR, WENTZVILLE, MO, 63385",100097503,"R"
91643,"1811 MAPLE SHADE LANE","RICHMOND","VA",23227,37.581929702,-77.4645600919999,143,"1811 MAPLE SHADE LANE, RICHMOND, VA, 23227","Match","Exact","1811 MAPLE SHADE LN, RICHMOND, VA, 23227",201533769,"L"
91644,"1811 MEADOWBROOK DRIVE","WINSTON-SALEM","NC",27104,36.1092563190001,-80.2709313079999,144,"1811 MEADOWBROOK DRIVE, WINSTON-SALEM, NC, 27104","Match","Non_Exact","1811 MEADOWBROOK DR NW, WINSTON SALEM, NC, 27104",84608035,"R"
91645,"1811 MEHMERT AVE","CINCINNATI","OH",45223,39.1763727520001,-84.5510585919999,145,"1811 MEHMERT AVE, CINCINNATI, OH, 45223","Match","Exact","1811 MEHMERT AVE, CINCINNATI, OH, 45223",647373551,"L"
91646,"1811 MYRICK ROAD","TALLAHASSEE","FL",32303,30.4702869440001,-84.316262679,146,"1811 MYRICK ROAD, TALLAHASSEE, FL, 32303","Match","Exact","1811 MYRICK RD, TALLAHASSEE, FL, 32303",82848599,"L"
91647,"1811 N AUSTIN AVE STE 204","GEORGETOWN","TX",78626,NA,NA,147,"1811 N AUSTIN AVE STE 204, GEORGETOWN, TX, 78626","Tie",NA,NA,NA,NA
91648,"1811 N HOWARD ST","PHILADELPHIA","PA",19122,39.9779639650001,-75.1347336979999,148,"1811 N HOWARD ST, PHILADELPHIA, PA, 19122","Match","Exact","1811 N HOWARD ST, PHILADELPHIA, PA, 19122",131425112,"R"
91649,"1811 N REYNOLDS RD SUITE 201","TOLEDO","OH",43615,41.6572143980001,-83.667503149,149,"1811 N REYNOLDS RD SUITE 201, TOLEDO, OH, 43615","Match","Non_Exact","1811 N REYNOLDS RD, TOLEDO, OH, 43615",33929694,"L"
91650,"1811 N ROCKWELL STREET UNIT A","CHICAGO","IL",60647,41.9140955680001,-87.692197,150,"1811 N ROCKWELL STREET UNIT A, CHICAGO, IL, 60647","Match","Non_Exact","1811 N ROCKWELL ST, CHICAGO, IL, 60647",111763130,"R"
91651,"1811 N WHITLEY AVE  201","HOLLYWOOD","CA",90026,34.1036728830001,-118.333342025,151,"1811 N WHITLEY AVE  201, HOLLYWOOD, CA, 90026","Match","Non_Exact","1811 WHITLEY AVE, HOLLYWOOD, CA, 90028",141594797,"L"
91652,"1811 NW 51ST STREET NUM 42D","FORT LAUDERDALE","FL",33309,NA,NA,152,"1811 NW 51ST STREET NUM 42D, FORT LAUDERDALE, FL, 33309","No_Match",NA,NA,NA,NA
91653,"1811 NW COUCH STREET APT 303","PORTLAND","OR",97209,45.523542364,-122.689408529,153,"1811 NW COUCH STREET APT 303, PORTLAND, OR, 97209","Match","Non_Exact","1811 NW COUCH ST, PORTLAND, OR, 97209",157498464,"R"
91654,"1811 NW MENLO DR","CORVALLIS","OR",97330,44.5865403970001,-123.270367798,154,"1811 NW MENLO DR, CORVALLIS, OR, 97330","Match","Exact","1811 NW MENLO DR, CORVALLIS, OR, 97330",155846452,"R"
91655,"1811 OSAGE ST","NASHVILLE","TN",37208,36.177113971,-86.809979486,155,"1811 OSAGE ST, NASHVILLE, TN, 37208","Match","Exact","1811 OSAGE ST, NASHVILLE, TN, 37208",97184704,"L"
91656,"1811 PALISADES DRIVE","CARLSBAD","CA",92008,33.1565901710001,-117.318380163,156,"1811 PALISADES DRIVE, CARLSBAD, CA, 92008","Match","Exact","1811 PALISADES DR, CARLSBAD, CA, 92008",195291106,"R"
91657,"1811 PASCO ST UNIT 1","TALLAHASSEE","FL",32310,30.4254520150001,-84.2940076799999,157,"1811 PASCO ST UNIT 1, TALLAHASSEE, FL, 32310","Match","Exact","1811 PASCO ST, TALLAHASSEE, FL, 32310",82851021,"L"
91658,"1811 PUEBLO VISTA DRIVE","LAS VEGAS","NV",89128,36.1920385220001,-115.271123405,158,"1811 PUEBLO VISTA DRIVE, LAS VEGAS, NV, 89128","Match","Exact","1811 PUEBLO VISTA DR, LAS VEGAS, NV, 89128",201917388,"L"
91659,"1811 QUAIL RUN DR","GARLAND","TX",75040,32.931333786,-96.599475285,159,"1811 QUAIL RUN DR, GARLAND, TX, 75040","Match","Exact","1811 QUAIL RUN DR, GARLAND, TX, 75040",102979429,"R"
91660,"1811 R STREET NW","WASHINGTON","DC",20009,38.912615836,-77.041916556,160,"1811 R STREET NW, WASHINGTON, DC, 20009","Match","Exact","1811 R ST NW, WASHINGTON, DC, 20009",636893400,"R"
91661,"1811 RAVENEL LANE","SUGAR LAND","TX",77479,29.589128454,-95.652942979,161,"1811 RAVENEL LANE, SUGAR LAND, TX, 77479","Match","Exact","1811 RAVENEL LN, SUGAR LAND, TX, 77479",647985171,"L"
91662,"1811 RIDGEBROOK TRAIL","DULUTH","GA",30096,NA,NA,162,"1811 RIDGEBROOK TRAIL, DULUTH, GA, 30096","No_Match",NA,NA,NA,NA
91663,"1811 RIPPLING WATER COURT","SUGAR LAND","TX",77479,29.5588124330001,-95.658453649,163,"1811 RIPPLING WATER COURT, SUGAR LAND, TX, 77479","Match","Exact","1811 RIPPLING WATER CT, SUGAR LAND, TX, 77479",635322363,"R"
91664,"1811 ROOSEVELT AVENUE","DUNMORE","PA",18512,41.4244353670001,-75.6327146199999,164,"1811 ROOSEVELT AVENUE, DUNMORE, PA, 18512","Match","Non_Exact","1811 ROOSEVELT ST, DUNMORE, PA, 18512",139346341,"L"
91665,"1811 ROSEWOOD DRIVE","GREENVILLE","NC",27858,35.5921986290001,-77.364760992,165,"1811 ROSEWOOD DRIVE, GREENVILLE, NC, 27858","Match","Exact","1811 ROSEWOOD DR, GREENVILLE, NC, 27858",80011958,"R"
91666,"1811 RUSSELL AVENUE NORTH","MINNEAPOLIS","MN",55411,44.9979618830001,-93.3107687469999,166,"1811 RUSSELL AVENUE NORTH, MINNEAPOLIS, MN, 55411","Match","Exact","1811 RUSSELL AVE N, MINNEAPOLIS, MN, 55411",43623399,"L"
91667,"1811 S BALTIMORE AVENUE SUITE 100","TULSA","OK",74119,36.135878604,-95.986468572,167,"1811 S BALTIMORE AVENUE SUITE 100, TULSA, OK, 74119","Match","Non_Exact","1811 S BALTIMORE AVE, TULSA, OK, 74119",166441961,"L"
91668,"1811 S IRBY ST SUITE 107","FLORENCE","SC",29501,34.2267661290001,-79.756921365,168,"1811 S IRBY ST SUITE 107, FLORENCE, SC, 29501","Match","Non_Exact","1811 N IRBY ST, FLORENCE, SC, 29501",642390424,"L"
91669,"1811 SANTA RITA ROAD SUITE 116","PLEASANTON","CA",94566,37.6780926860001,-121.874535338,169,"1811 SANTA RITA ROAD SUITE 116, PLEASANTON, CA, 94566","Match","Exact","1811 SANTA RITA RD, PLEASANTON, CA, 94566",125069920,"L"
91670,"1811 SANTA RITA ROAD SUITE 224","PLEASANTON","CA",94566,37.6780926860001,-121.874535338,170,"1811 SANTA RITA ROAD SUITE 224, PLEASANTON, CA, 94566","Match","Exact","1811 SANTA RITA RD, PLEASANTON, CA, 94566",125069920,"L"
91671,"1811 SHADOW WIND DRIVE","MISSOURI CITY","TX",77489,29.602260272,-95.523596529,171,"1811 SHADOW WIND DRIVE, MISSOURI CITY, TX, 77489","Match","Exact","1811 SHADOW WIND DR, MISSOURI CITY, TX, 77489",78270133,"R"
91672,"1811 SILVERSIDE ROAD","WILMINGTON","DE",19810,39.7978870250001,-75.4968317939999,172,"1811 SILVERSIDE ROAD, WILMINGTON, DE, 19810","Match","Exact","1811 SILVERSIDE RD, WILMINGTON, DE, 19810",187260205,"R"
91673,"1811 SONNET DR","GRAPEVINE","TX",76051,32.958995117,-97.094588044,173,"1811 SONNET DR, GRAPEVINE, TX, 76051","Match","Exact","1811 SONNET DR, GRAPEVINE, TX, 76051",101867989,"R"
91674,"1811 SOUTH 15TH STREET","PHILADELPHIA","PA",19145,39.9280623540001,-75.1706244809999,174,"1811 SOUTH 15TH STREET, PHILADELPHIA, PA, 19145","Match","Exact","1811 S 15TH ST, PHILADELPHIA, PA, 19145",131411803,"L"
91675,"1811 SOUTH RIDGE DR","BELMONT","VA",28012,NA,NA,175,"1811 SOUTH RIDGE DR, BELMONT, VA, 28012","No_Match",NA,NA,NA,NA
91676,"1811 SUTTON PLACE UNIT B","BETTENDORF","IA",52722,41.5503211110001,-90.5068345079999,176,"1811 SUTTON PLACE UNIT B, BETTENDORF, IA, 52722","Match","Exact","1811 SUTTON PL, BETTENDORF, IA, 52722",122711216,"R"
91677,"1811 TELFAIR CHASE WAY","LAWRENCEVILLE","GA",30043,33.980266676,-84.062507027,177,"1811 TELFAIR CHASE WAY, LAWRENCEVILLE, GA, 30043","Match","Exact","1811 TELFAIR CHASE WAY, LAWRENCEVILLE, GA, 30043",627009463,"R"
91678,"1811 VICTOR STREET","BRONX","NY",10462,40.845432225,-73.867021317,178,"1811 VICTOR STREET, BRONX, NY, 10462","Match","Exact","1811 VICTOR ST, BRONX, NY, 10462",80304428,"L"
91679,"1811 VILLAGE COURT","MULBERRY","FL",33860,27.9348905750001,-81.9904998219999,179,"1811 VILLAGE COURT, MULBERRY, FL, 33860","Match","Exact","1811 VILLAGE CT, MULBERRY, FL, 33860",104865358,"R"
91680,"1811 W 21ST PLACE SUITE 2","CHICAGO","IL",60608,41.8531537430001,-87.6713771619999,180,"1811 W 21ST PLACE SUITE 2, CHICAGO, IL, 60608","Match","Non_Exact","1811 W 21ST PL, CHICAGO, IL, 60608",111803112,"L"
91681,"1811 W 2ND ST STE 450","GRAND ISLAND","NE",68803,40.9172452550001,-98.358182877,181,"1811 W 2ND ST STE 450, GRAND ISLAND, NE, 68803","Match","Non_Exact","1811 W 2ND ST, GRAND ISLAND, NE, 68803",196251283,"R"
91682,"1811 W FINLAND DRIVE","DELTONA","FL",32725,28.91350786,-81.264998544,182,"1811 W FINLAND DRIVE, DELTONA, FL, 32725","Match","Exact","1811 W FINLAND DR, DELTONA, FL, 32725",94518895,"L"
91683,"1811 W KATELLA AVE STE 147","ANAHEIM","CA",92804,33.8031492110001,-117.946609273,183,"1811 W KATELLA AVE STE 147, ANAHEIM, CA, 92804","Match","Exact","1811 KATELLA AVE, ANAHEIM, CA, 92804",144024266,"R"
91684,"1811 W SILVER SPRING DR","GLENDALE","WI",53209,43.1188838590001,-87.9321742129999,184,"1811 W SILVER SPRING DR, GLENDALE, WI, 53209","Match","Exact","1811 W SILVER SPRING DR, GLENDALE, WI, 53209",77736142,"L"
91685,"1811 W WILLIAM SEARS DR APT 16","ELOY","AZ",85131,NA,NA,185,"1811 W WILLIAM SEARS DR APT 16, ELOY, AZ, 85131","No_Match",NA,NA,NA,NA
91686,"1811 WEST 2ND ST SUITE 365","GRAND ISLAND","NE",68803,40.9172521080001,-98.358166261,186,"1811 WEST 2ND ST SUITE 365, GRAND ISLAND, NE, 68803","Match","Exact","1811 W 2ND ST, GRAND ISLAND, NE, 68803",196251283,"R"
91687,"1811 WILDWOOD LANE","GLENN HEIGHTS","TX",75154,32.5564597810001,-96.829858783,187,"1811 WILDWOOD LANE, GLENN HEIGHTS, TX, 75154","Match","Exact","1811 WILDWOOD LN, GLENN HEIGHTS, TX, 75154",103278617,"R"
91688,"1811 WOODYARD RD","RIEGELWOOD","NC",28456,34.3777555560001,-78.290497533,188,"1811 WOODYARD RD, RIEGELWOOD, NC, 28456","Match","Exact","1811 WOODYARD RD, RIEGELWOOD, NC, 28456",64125641,"L"
91689,"1811","CORDOVA","TN",38008,NA,NA,189,"1811, CORDOVA, TN, 38008","No_Match",NA,NA,NA,NA
91690,"18110 CHIANTI COURT","SMITHVILLE","MO",64089,39.42078831,-94.6189104919999,190,"18110 CHIANTI COURT, SMITHVILLE, MO, 64089","Match","Exact","18110 CHIANTI CT, SMITHVILLE, MO, 64089",624667237,"R"
91691,"18110 CLEAR LAKE DR","LUTZ","FL",33548,28.1386692290001,-82.472215747,191,"18110 CLEAR LAKE DR, LUTZ, FL, 33548","Match","Exact","18110 CLEAR LAKE DR, LUTZ, FL, 33548",104618985,"R"
91692,"18110 FAIRFIELD","DETROIT","MI",48221,42.423658346,-83.135594719,192,"18110 FAIRFIELD, DETROIT, MI, 48221","Match","Non_Exact","18110 FAIRFIELD AVE, DETROIT, MI, 48221",95461162,"R"
91693,"18110 MARSH LN  APT 601","DALLAS","TX",75287,32.9994538610001,-96.855565637,193,"18110 MARSH LN  APT 601, DALLAS, TX, 75287","Match","Exact","18110 MARSH LN, DALLAS, TX, 75287",637043916,"R"
91694,"18110 PALM BEACH DRIVE","TAMPA","FL",33647,28.144089305,-82.29391629,194,"18110 PALM BEACH DRIVE, TAMPA, FL, 33647","Match","Exact","18110 PALM BEACH DR, TAMPA, FL, 33647",104673086,"L"
91695,"18111 BLUE RIDGE DR","SANTA ANA","CA",92705,33.7684165590001,-117.81642884,195,"18111 BLUE RIDGE DR, SANTA ANA, CA, 92705","Match","Exact","18111 BLUE RIDGE DR, SANTA ANA, CA, 92705",144053089,"L"
91696,"18111 GROTTO POINT DRIVE","CYPRESS","TX",77429,29.994680927,-95.697764188,196,"18111 GROTTO POINT DRIVE, CYPRESS, TX, 77429","Match","Exact","18111 GROTTO POINT DR, CYPRESS, TX, 77429",627766803,"R"
91697,"18112 EAST PARK DRIVE","CLEVELAND","OH",44119,41.586239694,-81.553108515,197,"18112 EAST PARK DRIVE, CLEVELAND, OH, 44119","Match","Exact","18112 E PARK DR, CLEVELAND, OH, 44119",61107901,"R"
91698,"18112 SIPPEL DR","TINLEY PARK","IL",60487,41.5617818440001,-87.8263819969999,198,"18112 SIPPEL DR, TINLEY PARK, IL, 60487","Match","Exact","18112 SIPPEL DR, TINLEY PARK, IL, 60487",647630440,"R"
91699,"18114 52ND RD","UNION GROVE","WI",53182,42.7168636310001,-88.034627229,199,"18114 52ND RD, UNION GROVE, WI, 53182","Match","Exact","18114 52ND RD, UNION GROVE, WI, 53182",77924402,"L"
91700,"18115 93RD AVE E","PUYALLUP","WA",98375,47.090477929,-122.306768341,200,"18115 93RD AVE E, PUYALLUP, WA, 98375","Match","Exact","18115 93RD AVE E, PUYALLUP, WA, 98375",184764801,"L"
91701,"18115 CAMPUS WAY NE","BOTHELL","WA",98011,47.7585850470001,-122.19027574,201,"18115 CAMPUS WAY NE, BOTHELL, WA, 98011","Match","Exact","18115 CAMPUS WAY NE, BOTHELL, WA, 98011",653502735,"R"
91702,"18115 HARVARD AVENUE","CLEVELAND","OH",44128,41.44984035,-81.552215083,202,"18115 HARVARD AVENUE, CLEVELAND, OH, 44128","Match","Non_Exact","18115 HARVARD AVE E, CLEVELAND, OH, 44128",61128920,"L"
91703,"18116 LIVINGSTON AVENUE","LUTZ","FL",33559,28.135985067,-82.43054749,203,"18116 LIVINGSTON AVENUE, LUTZ, FL, 33559","Match","Exact","18116 LIVINGSTON AVE, LUTZ, FL, 33559",631729556,"L"
91704,"18116 LOOMIS AVENUE","HOMEWOOD","IL",60430,41.560608556,-87.650838993,204,"18116 LOOMIS AVENUE, HOMEWOOD, IL, 60430","Match","Exact","18116 LOOMIS AVE, HOMEWOOD, IL, 60430",111712641,"R"
91705,"18116 US HWY 41","LUTZ","FL",33549,28.135889525,-82.463744957,205,"18116 US HWY 41, LUTZ, FL, 33549","Match","Non_Exact","18116 OLD US HWY 41, LUTZ, FL, 33549",104502259,"R"
91706,"18117 BISCAYNE BLVD STE 1062","MIAMI","FL",33160,NA,NA,206,"18117 BISCAYNE BLVD STE 1062, MIAMI, FL, 33160","No_Match",NA,NA,NA,NA
91707,"18117 BISCAYNE BLVD SUITE 2053","AVENTURA","FL",33160,25.9449958650001,-80.147645159,207,"18117 BISCAYNE BLVD SUITE 2053, AVENTURA, FL, 33160","Match","Exact","18117 BISCAYNE BLVD, AVENTURA, FL, 33160",651140633,"R"
91708,"18117 BISCAYNE BLVD","AVENTURA","FL",33160,25.9449958650001,-80.147645159,208,"18117 BISCAYNE BLVD, AVENTURA, FL, 33160","Match","Exact","18117 BISCAYNE BLVD, AVENTURA, FL, 33160",651140633,"R"
91709,"18117 SE 247TH STREET","COVINGTON","WA",98042,47.381143583,-122.100427105,209,"18117 SE 247TH STREET, COVINGTON, WA, 98042","Match","Exact","18117 SE 247TH ST, COVINGTON, WA, 98042",187067520,"R"
91710,"18118 E CHANDLER HEIGHTS RD","GILBERT","AZ",85298,33.2342138000001,-111.691985252,210,"18118 E CHANDLER HEIGHTS RD, GILBERT, AZ, 85298","Match","Exact","18118 E CHANDLER HEIGHTS RD, GILBERT, AZ, 85298",128150660,"L"
91711,"18118 WEST IVY LANE","SURPRISE","AZ",85388,33.626768069,-112.448921785,211,"18118 WEST IVY LANE, SURPRISE, AZ, 85388","Match","Exact","18118 W IVY LN, SURPRISE, AZ, 85388",617970369,"R"
91712,"18119 ADAMS CIRCLE","FORT MYERS","FL",33967,26.4757574610001,-81.8308167659999,212,"18119 ADAMS CIRCLE, FORT MYERS, FL, 33967","Match","Exact","18119 ADAMS CIR, FORT MYERS, FL, 33967",117978532,"L"
91713,"18119 KRUGER RD","JAMAICA","NY",11432,NA,NA,213,"18119 KRUGER RD, JAMAICA, NY, 11432","No_Match",NA,NA,NA,NA
91714,"18119 PRESTONSHIRE","SAN ANTONIO","TX",78258,29.6127804020001,-98.512686855,214,"18119 PRESTONSHIRE, SAN ANTONIO, TX, 78258","Match","Exact","18119 PRESTONSHIRE, SAN ANTONIO, TX, 78258",101578521,"R"
91715,"18119 ROSE HILL PARK LN","CYPRESS","TX",77429,29.9822804080001,-95.698014181,215,"18119 ROSE HILL PARK LN, CYPRESS, TX, 77429","Match","Exact","18119 ROSE HILL PARK LN, CYPRESS, TX, 77429",642255183,"R"
91716,"1811NW 4TH COURT","MIAMI","FL",33136,NA,NA,216,"1811NW 4TH COURT, MIAMI, FL, 33136","No_Match",NA,NA,NA,NA
91717,"1812  LIBERTY STREET","DURHAM","NC",27703,35.9906925560001,-78.8708264969999,217,"1812  LIBERTY STREET, DURHAM, NC, 27703","Match","Exact","1812 LIBERTY ST, DURHAM, NC, 27703",71743299,"R"
91718,"1812 9TH AVE W","SEATTLE","WA",98119,47.6349568050001,-122.368934231,218,"1812 9TH AVE W, SEATTLE, WA, 98119","Match","Exact","1812 9TH AVE W, SEATTLE, WA, 98119",239761797,"R"
91719,"1812 ASPEN LANE","WESTON","FL",33327,26.128270639,-80.423650472,219,"1812 ASPEN LANE, WESTON, FL, 33327","Match","Exact","1812 ASPEN LN, WESTON, FL, 33327",114809271,"R"
91720,"1812 AUGUST DRIVE","SILVER SPRING","MD",20902,39.021712124,-77.0416621699999,220,"1812 AUGUST DRIVE, SILVER SPRING, MD, 20902","Match","Exact","1812 AUGUST DR, SILVER SPRING, MD, 20902",62064382,"L"
91721,"1812 BURBANK BLVD - 1030","BURBANK","CA",91506,34.1811123200001,-118.330980737,221,"1812 BURBANK BLVD - 1030, BURBANK, CA, 91506","Match","Non_Exact","1812 W BURBANK BLVD, BURBANK, CA, 91506",141592726,"L"
91722,"1812 BURNTWOOD DRIVE WEST","MOBILE","AL",36609,30.651872059,-88.189896807,222,"1812 BURNTWOOD DRIVE WEST, MOBILE, AL, 36609","Match","Exact","1812 BURNTWOOD DR W, MOBILE, AL, 36609",61854445,"R"
91723,"1812 CAMDEN DRIVE","MODESTO","CA",95355,37.6541272150001,-120.965284155,223,"1812 CAMDEN DRIVE, MODESTO, CA, 95355","Match","Exact","1812 CAMDEN DR, MODESTO, CA, 95355",102634064,"R"
91724,"1812 CHELSEA DR","EDMOND","OK",73013,35.6350356500001,-97.481700411,224,"1812 CHELSEA DR, EDMOND, OK, 73013","Match","Exact","1812 CHELSEA DR, EDMOND, OK, 73013",100435547,"R"
91725,"1812 COLFAX STREET 1ST FLOOR","EVANSTON","IL",60201,42.0608278890001,-87.698308443,225,"1812 COLFAX STREET 1ST FLOOR, EVANSTON, IL, 60201","Match","Exact","1812 COLFAX ST, EVANSTON, IL, 60201",111742831,"L"
91726,"1812 COLLEGE AVE","FORT WORTH","TX",76110,32.7245138260001,-97.335126821,226,"1812 COLLEGE AVE, FORT WORTH, TX, 76110","Match","Exact","1812 COLLEGE AVE, FORT WORTH, TX, 76110",101885922,"R"
91727,"1812 DAFFODIL ST","PANAMA CITY","FL",32405,30.2079001590001,-85.685968852,227,"1812 DAFFODIL ST, PANAMA CITY, FL, 32405","Match","Exact","1812 DAFFODIL ST, PANAMA CITY, FL, 32405",653695566,"L"
91728,"1812 E 110TH STREET","LOS ANGELES","CA",90059,33.935220072,-118.239947281,228,"1812 E 110TH STREET, LOS ANGELES, CA, 90059","Match","Exact","1812 E 110TH ST, LOS ANGELES, CA, 90059",141674227,"R"
91729,"1812 E 17TH STREET","OAKLAND","CA",94606,37.7894767120001,-122.239548132,229,"1812 E 17TH STREET, OAKLAND, CA, 94606","Match","Exact","1812 E 17TH ST, OAKLAND, CA, 94606",125002545,"L"
91730,"1812 EASTSIDE AVE","NASHVILLE","TN",37206,36.168089739,-86.739031645,230,"1812 EASTSIDE AVE, NASHVILLE, TN, 37206","Match","Exact","1812 EASTSIDE AVE, NASHVILLE, TN, 37206",97189497,"R"
91731,"1812 ERIE ST SE","WASHINGTON","DC",20020,38.8573115020001,-76.978840423,231,"1812 ERIE ST SE, WASHINGTON, DC, 20020","Match","Exact","1812 ERIE ST SE, WASHINGTON, DC, 20020",76232706,"L"
91732,"1812 GLEN OAKS LANE","DYERSBURG","TN",38024,36.0511343320001,-89.391354393,232,"1812 GLEN OAKS LANE, DYERSBURG, TN, 38024","Match","Exact","1812 GLEN OAKS LN, DYERSBURG, TN, 38024",40651649,"R"
91733,"1812 GRAND CANAL","IRVINE","CA",92620,33.6914710350001,-117.760252578,233,"1812 GRAND CANAL, IRVINE, CA, 92620","Match","Exact","1812 GRAND CANAL, IRVINE, CA, 92620",647290086,"R"
91734,"1812 GRANDE AVE SE","CEDAR RAPIDS","ID",52403,NA,NA,234,"1812 GRANDE AVE SE, CEDAR RAPIDS, ID, 52403","No_Match",NA,NA,NA,NA
91735,"1812 JEFFERSON ST","CONCORD","CA",94521,37.9735189420001,-121.977256955,235,"1812 JEFFERSON ST, CONCORD, CA, 94521","Match","Exact","1812 JEFFERSON ST, CONCORD, CA, 94521",192058719,"R"
91736,"1812 KACHINA LODGE ROAD","FORT WORTH","TX",76131,32.866412515,-97.337342601,236,"1812 KACHINA LODGE ROAD, FORT WORTH, TX, 76131","Match","Exact","1812 KACHINA LODGE RD, FORT WORTH, TX, 76131",643342586,"L"
91737,"1812 LAS BRISAS DR","SANTA ANA","CA",92705,33.754510872,-117.787169812,237,"1812 LAS BRISAS DR, SANTA ANA, CA, 92705","Match","Exact","1812 LAS BRISAS DR, SANTA ANA, CA, 92705",144056233,"R"
91738,"1812 LEGEND DR","MODESTO","CA",95357,37.6968982400001,-120.964912296,238,"1812 LEGEND DR, MODESTO, CA, 95357","Match","Exact","1812 LEGEND DR, MODESTO, CA, 95357",634221044,"R"
91739,"1812 LEXINGTON AVENUE","ALLEN","TX",75013,33.1117133760001,-96.720129016,239,"1812 LEXINGTON AVENUE, ALLEN, TX, 75013","Match","Exact","1812 LEXINGTON AVE, ALLEN, TX, 75013",210528514,"R"
91740,"1812 LUNA VISTA PLACE","NORTH LAS VEGAS","NV",89084,36.282935933,-115.167445616,240,"1812 LUNA VISTA PLACE, NORTH LAS VEGAS, NV, 89084","Match","Exact","1812 LUNA VISTA PL, N LAS VEGAS, NV, 89084",636844796,"R"
91741,"1812 MAIN STREET","LAKE STEVENS","WA",98258,NA,NA,241,"1812 MAIN STREET, LAKE STEVENS, WA, 98258","No_Match",NA,NA,NA,NA
91742,"1812 MALDEN DRIVE","FLORENCE","SC",29532,NA,NA,242,"1812 MALDEN DRIVE, FLORENCE, SC, 29532","No_Match",NA,NA,NA,NA
91743,"1812 MANSFIELD RD","GRAND ISLAND","NE",68803,40.9388532740001,-98.404786874,243,"1812 MANSFIELD RD, GRAND ISLAND, NE, 68803","Match","Exact","1812 MANSFIELD RD, GRAND ISLAND, NE, 68803",196275668,"L"
91744,"1812 MARINER DRIVE UNIT 129","TARPON SPRINGS","FL",34689,28.1236503540001,-82.7804718359999,244,"1812 MARINER DRIVE UNIT 129, TARPON SPRINGS, FL, 34689","Match","Exact","1812 MARINER DR, TARPON SPNGS, FL, 34689",644224935,"L"
91745,"1812 MCBRIDE AVENUE","NEPTUNE","NJ",7753,40.2180031730001,-74.028703421,245,"1812 MCBRIDE AVENUE, NEPTUNE, NJ, 7753","Match","Exact","1812 MCBRIDE AVE, NEPTUNE, NJ, 07753",90462966,"L"
91746,"1812 N RAMPART STREET APT 2","NEW ORLEANS","LA",70116,29.967274472,-90.061226848,246,"1812 N RAMPART STREET APT 2, NEW ORLEANS, LA, 70116","Match","Non_Exact","1812 N RAMPART ST, NEW ORLEANS, LA, 70116",191716470,"R"
91747,"1812 NE SECOND ST","DUMAS","TX",79029,35.869329141,-101.950210798,247,"1812 NE SECOND ST, DUMAS, TX, 79029","Match","Exact","1812 NE 2ND ST, DUMAS, TX, 79029",164659560,"R"
91748,"1812 NE VOLOS COURT","GRAIN VALLEY","MO",64029,39.037517182,-94.237954423,248,"1812 NE VOLOS COURT, GRAIN VALLEY, MO, 64029","Match","Exact","1812 NE VOLOS CT, GRAIN VALLEY, MO, 64029",91538260,"L"
91749,"1812 NORTH CAPITOL ST 201","WASHINGTON","DC",20002,NA,NA,249,"1812 NORTH CAPITOL ST 201, WASHINGTON, DC, 20002","No_Match",NA,NA,NA,NA
91750,"1812 NW 146TH ST","EDMOND","OK",73013,35.619931223,-97.544708735,250,"1812 NW 146TH ST, EDMOND, OK, 73013","Match","Exact","1812 NW 146TH ST, EDMOND, OK, 73013",625274774,"L"
91751,"1812 OAK HILL AVENUE","YOUNGSTOWN","OH",44507,41.082189945,-80.659776821,251,"1812 OAK HILL AVENUE, YOUNGSTOWN, OH, 44507","Match","Non_Exact","1812 OAKHILL AVE NE, YOUNGSTOWN, OH, 44507",64595916,"R"
91752,"1812 OLIVE AVENUE APT A","SANTA BARBARA","CA",93101,34.434099018,-119.706963614,252,"1812 OLIVE AVENUE APT A, SANTA BARBARA, CA, 93101","Match","Exact","1812 OLIVE AVE, SANTA BARBARA, CA, 93101",652033006,"R"
91753,"1812 OLIVER STREET","WHITING","IN",46394,41.680463484,-87.494370701,253,"1812 OLIVER STREET, WHITING, IN, 46394","Match","Exact","1812 OLIVER ST, WHITING, IN, 46394",606284665,"R"
91754,"1812 PLACID ST","PHILADELPHIA","PA",19152,40.0739717490001,-75.0493763329999,254,"1812 PLACID ST, PHILADELPHIA, PA, 19152","Match","Exact","1812 PLACID ST, PHILADELPHIA, PA, 19152",131431475,"R"
91755,"1812 PORTER AVE","SUITLAND","MD",20746,38.8650301480001,-76.927939626,255,"1812 PORTER AVE, SUITLAND, MD, 20746","Match","Exact","1812 PORTER AVE, SUITLAND, MD, 20746",76312961,"L"
91756,"1812 PROVIDENCE CREEK TRAIL","NORTH CHESTERFIELD","VA",23236,37.4630826200001,-77.607149184,256,"1812 PROVIDENCE CREEK TRAIL, NORTH CHESTERFIELD, VA, 23236","Match","Exact","1812 PROVIDENCE CREEK TRL, NORTH CHESTERFIELD, VA, 23236",201561194,"R"
91757,"1812 S MUNN AVE","MARYVILLE","MO",64468,40.3260418840001,-94.88363501,257,"1812 S MUNN AVE, MARYVILLE, MO, 64468","Match","Exact","1812 S MUNN AVE, MARYVILLE, MO, 64468",653459883,"R"
91758,"1812 SAINT CLAIR COURT","BAKERSFIELD","CA",93304,35.302202252,-119.02268232,258,"1812 SAINT CLAIR COURT, BAKERSFIELD, CA, 93304","Match","Exact","1812 SAINT CLAIR CT, BAKERSFIELD, CA, 93304",109092739,"L"
91759,"1812 SCARLETT LANE","MIDDLETOWN","PA",17057,40.232305497,-76.76557581,259,"1812 SCARLETT LANE, MIDDLETOWN, PA, 17057","Match","Exact","1812 SCARLETT LN, MIDDLETOWN, PA, 17057",70836320,"L"
91760,"1812 SE MULBERRY AVE","PORTLAND","OR",97214,45.5099608,-122.652760896,260,"1812 SE MULBERRY AVE, PORTLAND, OR, 97214","Match","Exact","1812 SE MULBERRY AVE, PORTLAND, OR, 97214",157570973,"L"
91761,"1812 SEBASTIAN BLVD","FREDERICK","MD",21701,39.449199698,-77.376328725,261,"1812 SEBASTIAN BLVD, FREDERICK, MD, 21701","Match","Exact","1812 SEBASTIAN BLVD, FREDERICK, MD, 21701",60723407,"L"
91762,"1812 SHEARERS DR","LANCASTER","PA",17601,40.064325669,-76.363899564,262,"1812 SHEARERS DR, LANCASTER, PA, 17601","Match","Exact","1812 SHEARERS DR, LANCASTER, PA, 17601",648154222,"R"
91763,"1812 SOCORRO","IRVING","TX",75061,32.8329980460001,-96.9619738929999,263,"1812 SOCORRO, IRVING, TX, 75061","Match","Non_Exact","1812 SOCORRO LN, IRVING, TX, 75061",102891326,"R"
91764,"1812 SW 146TH STREET","NEWBERRY","FL",32669,29.6381705420001,-82.499101062,264,"1812 SW 146TH STREET, NEWBERRY, FL, 32669","Match","Exact","1812 SW 146TH ST, NEWBERRY, FL, 32669",6878919,"R"
91765,"1812 VALENTINE AVENUE","CLEVELAND","OH",44109,41.46325498,-81.696449935,265,"1812 VALENTINE AVENUE, CLEVELAND, OH, 44109","Match","Exact","1812 VALENTINE AVE, CLEVELAND, OH, 44109",61115749,"R"
91766,"1812 W 11TH STREET","ASHTABULA","OH",44004,41.889541819,-80.808498512,266,"1812 W 11TH STREET, ASHTABULA, OH, 44004","Match","Exact","1812 W 11TH ST, ASHTABULA, OH, 44004",117307727,"L"
91767,"1812 W BURBANK BLVD ST 497","BURBANK","CA",91506,34.181088908,-118.331050522,267,"1812 W BURBANK BLVD ST 497, BURBANK, CA, 91506","Match","Non_Exact","1812 W BURBANK BLVD, BURBANK, CA, 91506",141592726,"L"
91768,"1812 W BURBANK BLVD UNIT 18","BURBANK","CA",91506,34.181088908,-118.331050522,268,"1812 W BURBANK BLVD UNIT 18, BURBANK, CA, 91506","Match","Non_Exact","1812 W BURBANK BLVD, BURBANK, CA, 91506",141592726,"L"
91769,"1812 W BURBANK BLVD UNIT 7155","BURBANK","CA",91506,34.181088908,-118.331050522,269,"1812 W BURBANK BLVD UNIT 7155, BURBANK, CA, 91506","Match","Non_Exact","1812 W BURBANK BLVD, BURBANK, CA, 91506",141592726,"L"
91770,"1812 W BURBANK BLVD","BURBANK","CA",91506,34.181088908,-118.331050522,270,"1812 W BURBANK BLVD, BURBANK, CA, 91506","Match","Exact","1812 W BURBANK BLVD, BURBANK, CA, 91506",141592726,"L"
91771,"1812 W SUNSET BLVD SUITE 1-516","ST GEORGE","UT",84770,37.1228291840001,-113.621770678,271,"1812 W SUNSET BLVD SUITE 1-516, ST GEORGE, UT, 84770","Match","Non_Exact","1812 W SUNSET BLVD, SAINT GEORGE, UT, 84770",166166692,"L"
91772,"1812 WEATHERSTONE DR","SAFETY HARBOR","FL",34695,28.0061312330001,-82.707046824,272,"1812 WEATHERSTONE DR, SAFETY HARBOR, FL, 34695","Match","Exact","1812 WEATHERSTONE DR, SAFETY HARBOR, FL, 34695",124734908,"R"
91773,"1812 WELLINGTON AVENUE SUITE 12","INDIANAPOLIS","IN",46219,39.79263281,-86.031291364,273,"1812 WELLINGTON AVENUE SUITE 12, INDIANAPOLIS, IN, 46219","Match","Exact","1812 WELLINGTON AVE, INDIANAPOLIS, IN, 46219",108002993,"L"
91774,"1812 WEST BURBANK BLVD SUITE 890","BURBANK","CA",91505,34.1811123200001,-118.330980737,274,"1812 WEST BURBANK BLVD SUITE 890, BURBANK, CA, 91505","Match","Non_Exact","1812 W BURBANK BLVD, BURBANK, CA, 91506",141592726,"L"
91775,"1812 WEST CATALPA AVENUE","ANAHEIM","CA",92801,33.8437466020001,-117.945305835,275,"1812 WEST CATALPA AVENUE, ANAHEIM, CA, 92801","Match","Exact","1812 W CATALPA AVE, ANAHEIM, CA, 92801",144022310,"L"
91776,"1812 WEST CHEYENNE CT","POLK CITY","IA",50226,41.7794216070001,-93.731127583,276,"1812 WEST CHEYENNE CT, POLK CITY, IA, 50226","Match","Exact","1812 W CHEYENNE CT, POLK CITY, IA, 50226",65863830,"L"
91777,"1812 WEST PARNELL DRIVE","PHOENIX","AZ",85085,33.7732115090001,-112.097725221,277,"1812 WEST PARNELL DRIVE, PHOENIX, AZ, 85085","Match","Exact","1812 W PARNELL DR, PHOENIX, AZ, 85085",243983198,"L"
91778,"1812 WESTWIND CT","LEAGUE CITY","TX",77573,29.5035138860001,-95.023278846,278,"1812 WESTWIND CT, LEAGUE CITY, TX, 77573","Match","Exact","1812 WESTWIND CT, LEAGUE CITY, TX, 77573",96742801,"R"
91779,"18120 69TH PLACE N","MAPLE GROVE","MN",55311,45.080905327,-93.510693912,279,"18120 69TH PLACE N, MAPLE GROVE, MN, 55311","Match","Exact","18120 69TH PL N, MAPLE GROVE, MN, 55311",650842731,"R"
91780,"18120 HILLCREST AVE","OLNEY","MD",20832,39.1531420090001,-77.065380836,280,"18120 HILLCREST AVE, OLNEY, MD, 20832","Match","Exact","18120 HILLCREST AVE, OLNEY, MD, 20832",638115261,"L"
91781,"18121 E 8 MILE RD STE 209","EASTPOINTE","MI",48201,NA,NA,281,"18121 E 8 MILE RD STE 209, EASTPOINTE, MI, 48201","No_Match",NA,NA,NA,NA
91782,"18121 E HAMPDEN AVE STE C 183","AURORA","CO",80013,39.653135316,-104.778120378,282,"18121 E HAMPDEN AVE STE C 183, AURORA, CO, 80013","Match","Non_Exact","18121 E HAMPDEN AVE, AURORA, CO, 80013",641116819,"L"
91783,"18121 E HAMPDEN AVE SUITE 232","AUROA","CO",80013,39.653135316,-104.778120378,283,"18121 E HAMPDEN AVE SUITE 232, AUROA, CO, 80013","Match","Non_Exact","18121 E HAMPDEN AVE, AURORA, CO, 80013",641116819,"L"
91784,"18121 E HAMPDEN AVE UNIT C PMB 58","AURORA","CO",80013,39.653135316,-104.778120378,284,"18121 E HAMPDEN AVE UNIT C PMB 58, AURORA, CO, 80013","Match","Non_Exact","18121 E HAMPDEN AVE, AURORA, CO, 80013",641116819,"L"
91785,"18121 E HAMPDEN AVE UNIT C PMB 61","AURORA","CO",80013,39.653135316,-104.778120378,285,"18121 E HAMPDEN AVE UNIT C PMB 61, AURORA, CO, 80013","Match","Non_Exact","18121 E HAMPDEN AVE, AURORA, CO, 80013",641116819,"L"
91786,"18121 W CHICAGO","DETROIT","MI",48228,42.3651438210001,-83.217408169,286,"18121 W CHICAGO, DETROIT, MI, 48228","Match","Non_Exact","18121 W CHICAGO ST, DETROIT, MI, 48228",95439890,"L"
91787,"18122 CARMENITA RD UNIT 3534","CERRITOS","CA",90703,33.8671150920001,-118.046338768,287,"18122 CARMENITA RD UNIT 3534, CERRITOS, CA, 90703","Match","Exact","18122 CARMENITA RD, CERRITOS, CA, 90703",640413060,"L"
91788,"18122 CARMENITA ROAD UNIT 3774","CERRITOS","CA",90703,33.8671150920001,-118.046338768,288,"18122 CARMENITA ROAD UNIT 3774, CERRITOS, CA, 90703","Match","Exact","18122 CARMENITA RD, CERRITOS, CA, 90703",640413060,"L"
91789,"18123 MANCHAC PLACE DRIVE","PRAIRIEVILLE","LA",70769,30.319290219,-90.999864594,289,"18123 MANCHAC PLACE DRIVE, PRAIRIEVILLE, LA, 70769","Match","Exact","18123 MANCHAC PLACE DR, PRAIRIEVILLE, LA, 70769",115044655,"R"
91790,"18123 YELLOWSTONE TRAIL","HUMBLE","TX",77346,29.9823982080001,-95.183461167,290,"18123 YELLOWSTONE TRAIL, HUMBLE, TX, 77346","Match","Exact","18123 YELLOWSTONE TRL, HUMBLE, TX, 77346",625724111,"L"
91791,"18124 BREEZY DR","MONTGOMERY","TX",77316,30.3581352410001,-95.6419689579999,291,"18124 BREEZY DR, MONTGOMERY, TX, 77316","Match","Exact","18124 BREEZY DR, MONTGOMERY, TX, 77316",79269256,"R"
91792,"18124 RABBIT RUN LANE","GORDONSVILLE","VA",22942,38.1575089150001,-78.136515977,292,"18124 RABBIT RUN LANE, GORDONSVILLE, VA, 22942","Match","Exact","18124 RABBIT RUN LN, GORDONSVILLE, VA, 22942",625185835,"R"
91793,"18124 WEDGE PKWY STE  L143","RENO","NV",89511,39.3956914780001,-119.767284604,293,"18124 WEDGE PKWY STE  L143, RENO, NV, 89511","Match","Exact","18124 WEDGE PKWY, RENO, NV, 89511",107075616,"R"
91794,"18125 INGRAM WAY","EDEN PRAIRIE","MN",55347,NA,NA,294,"18125 INGRAM WAY, EDEN PRAIRIE, MN, 55347","No_Match",NA,NA,NA,NA
91795,"18126 BLUES POINT DRIVE","CYPRESS","TX",77429,29.9924972650001,-95.698124669,295,"18126 BLUES POINT DRIVE, CYPRESS, TX, 77429","Match","Exact","18126 BLUES POINT DR, CYPRESS, TX, 77429",627765483,"L"
91796,"18127 HORSESHOE BEND ROAD","SHARPSBURG","MD",21782,39.43802556,-77.7370122249999,296,"18127 HORSESHOE BEND ROAD, SHARPSBURG, MD, 21782","Match","Exact","18127 HORSESHOE BEND RD, SHARPSBURG, MD, 21782",60800924,"R"
91797,"18127 RACHAEL DR","SANDY","OR",97055,45.3912784780001,-122.280436985,297,"18127 RACHAEL DR, SANDY, OR, 97055","Match","Exact","18127 RACHAEL DR, SANDY, OR, 97055",639786427,"R"
91798,"18127 SOMERSET KNOLLS","HOUSTON","TX",77094,29.7805745200001,-95.69129008,298,"18127 SOMERSET KNOLLS, HOUSTON, TX, 77094","Match","Exact","18127 SOMERSET KNOLLS, HOUSTON, TX, 77094",233480030,"R"
91799,"18128 BEALL RD S W","VASHON","WA",98070,47.442126956,-122.449771076,299,"18128 BEALL RD S W, VASHON, WA, 98070","Match","Exact","18128 BEALL RD SW, VASHON, WA, 98070",186622456,"R"
91800,"18129 NE 11TH ST","REDMOND","WA",98052,NA,NA,300,"18129 NE 11TH ST, REDMOND, WA, 98052","No_Match",NA,NA,NA,NA
91801,"1813 8TH STREET NW APT B","WASHINGTON","DC",20001,38.9143609130001,-77.02293456,301,"1813 8TH STREET NW APT B, WASHINGTON, DC, 20001","Match","Exact","1813 8TH ST NW, WASHINGTON, DC, 20001",76224400,"R"
91802,"1813 9TH ST SE","PUYALLUP","WA",98372,47.179693091,-122.282904774,302,"1813 9TH ST SE, PUYALLUP, WA, 98372","Match","Exact","1813 9TH ST SE, PUYALLUP, WA, 98372",184635267,"R"
91803,"1813 APACHE GLEN","ESCONDIDO","CA",92027,33.152310534,-117.067715134,303,"1813 APACHE GLEN, ESCONDIDO, CA, 92027","Match","Exact","1813 APACHE GLEN, ESCONDIDO, CA, 92027",195376225,"L"
91804,"1813 BROADWAY STREET","DECATUR","GA",30035,33.7347374670001,-84.199021261,304,"1813 BROADWAY STREET, DECATUR, GA, 30035","Match","Exact","1813 BROADWAY ST, DECATUR, GA, 30035",634040798,"L"
91805,"1813 CHAMPION DR","MOREHEAD CITY","NC",28557,34.7416090510001,-76.729352417,305,"1813 CHAMPION DR, MOREHEAD CITY, NC, 28557","Match","Exact","1813 CHAMPION DR, MOREHEAD CITY, NC, 28557",642922969,"R"
91806,"1813 CHERRY GROVE RD","YANCEYVILLE","NC",27379,36.3050478690001,-79.390952108,306,"1813 CHERRY GROVE RD, YANCEYVILLE, NC, 27379","Match","Exact","1813 CHERRY GROVE RD, YANCEYVILLE, NC, 27379",636858900,"L"
91807,"1813 COLONIAL ARMS CIRCLE APT 2","VIRGINIA BEACH","VA",23454,36.8621817690001,-76.029305165,307,"1813 COLONIAL ARMS CIRCLE APT 2, VIRGINIA BEACH, VA, 23454","Match","Exact","1813 COLONIAL ARMS CIR, VIRGINIA BCH, VA, 23454",122297583,"R"
91808,"1813 E 3RD ST","COAL VALLEY","IL",61240,41.433132245,-90.457446865,308,"1813 E 3RD ST, COAL VALLEY, IL, 61240","Match","Exact","1813 E 3RD ST, COAL VALLEY, IL, 61240",9216848,"L"
91809,"1813 ELIZABETH DRIVE","THOMSON","GA",30824,33.525977471,-82.41821185,309,"1813 ELIZABETH DRIVE, THOMSON, GA, 30824","Match","Exact","1813 ELIZABETH DR, THOMSON, GA, 30824",43147869,"L"
91810,"1813 ELMS RD E","FORT WORTH","TX",76116,NA,NA,310,"1813 ELMS RD E, FORT WORTH, TX, 76116","No_Match",NA,NA,NA,NA
91811,"1813 GLEN EAGLES DRIVE","POTTSTOWN","PA",19464,40.2627030260001,-75.5992238869999,311,"1813 GLEN EAGLES DRIVE, POTTSTOWN, PA, 19464","Match","Exact","1813 GLEN EAGLES DR, POTTSTOWN, PA, 19464",635654291,"R"
91812,"1813 HUNT DRIVE","FRIENDSWOOD","TX",77546,29.5077434030001,-95.183361444,312,"1813 HUNT DRIVE, FRIENDSWOOD, TX, 77546","Match","Exact","1813 HUNT DR, FRIENDSWOOD, TX, 77546",635394979,"L"
91813,"1813 JACKSON ST","CHULA VISTA","CA",91913,32.615764664,-116.974079467,313,"1813 JACKSON ST, CHULA VISTA, CA, 91913","Match","Exact","1813 JACKSON ST, CHULA VISTA, CA, 91913",612880183,"L"
91814,"1813 JO JOHNSTON AVE - UNIT J","NASHVILLE","TN",37203,36.1601007960001,-86.802793432,314,"1813 JO JOHNSTON AVE - UNIT J, NASHVILLE, TN, 37203","Match","Exact","1813 JO JOHNSTON AVE, NASHVILLE, TN, 37203",97185923,"L"
91815,"1813 MACKINAW ST","SAGINAW","MI",48602,43.422337945,-83.978845494,315,"1813 MACKINAW ST, SAGINAW, MI, 48602","Match","Non_Exact","1813 MACKINAW RD, SAGINAW, MI, 48602",80209659,"L"
91816,"1813 MELBOURNE DRIVE","MCLEAN","VA",22101,38.917643529,-77.176660167,316,"1813 MELBOURNE DRIVE, MCLEAN, VA, 22101","Match","Exact","1813 MELBOURNE DR, MCLEAN, VA, 22101",75963582,"L"
91817,"1813 N MAIN STREET","FLAGSTAFF","AZ",86004,35.205691487,-111.617845554,317,"1813 N MAIN STREET, FLAGSTAFF, AZ, 86004","Match","Exact","1813 N MAIN ST, FLAGSTAFF, AZ, 86004",188999001,"L"
91818,"1813 NORTHWOOD TERRACE","WINTER PARK","FL",32789,28.568102223,-81.3429756419999,318,"1813 NORTHWOOD TERRACE, WINTER PARK, FL, 32789","Match","Non_Exact","1813 NORTHWOOD TERRACE DR, WINTER PARK, FL, 32789",647093666,"R"
91819,"1813 NW 195TH ST","EDMOND","OK",73012,35.6697325120001,-97.5437909619999,319,"1813 NW 195TH ST, EDMOND, OK, 73012","Match","Non_Exact","1813 NW 195TH CIR, EDMOND, OK, 73012",626354809,"R"
91820,"1813 NW MANOR DR","BLUE SPRINGS","MO",64014,NA,NA,320,"1813 NW MANOR DR, BLUE SPRINGS, MO, 64014","No_Match",NA,NA,NA,NA
91821,"1813 OLD BETHLEHEM PIKE","SELLERSVILLE","PA",18960,40.3850380870001,-75.314903247,321,"1813 OLD BETHLEHEM PIKE, SELLERSVILLE, PA, 18960","Match","Non_Exact","1813 S OLD BETHLEHEM PIKE, SELLERSVILLE, PA, 18960",134783634,"L"
91822,"1813 PEACH ST","SAINT PETERS","MO",63376,38.777748113,-90.5707520779999,322,"1813 PEACH ST, SAINT PETERS, MO, 63376","Match","Exact","1813 PEACH ST, SAINT PETERS, MO, 63376",647305441,"R"
91823,"1813 ROCK ROAD","DESOTO","MO",63020,38.1405868310001,-90.574345434,323,"1813 ROCK ROAD, DESOTO, MO, 63020","Match","Non_Exact","1813 ROCK RD, DE SOTO, MO, 63020",607884989,"L"
91824,"1813 ROCKMOOR AVENUE","AUSTIN","TX",78703,30.297874248,-97.7801216189999,324,"1813 ROCKMOOR AVENUE, AUSTIN, TX, 78703","Match","Exact","1813 ROCKMOOR AVE, AUSTIN, TX, 78703",63941154,"R"
91825,"1813 ROUNDROCK DRIVE","ALLEN","TX",75002,33.0950534940001,-96.6219364729999,325,"1813 ROUNDROCK DRIVE, ALLEN, TX, 75002","Match","Non_Exact","1813 ROUND ROCK DR, ALLEN, TX, 75002",123560769,"L"
91826,"1813 S 12TH ST","ST JOSEPH","MO",64503,39.7506040260001,-94.845425145,326,"1813 S 12TH ST, ST JOSEPH, MO, 64503","Match","Exact","1813 S 12TH ST, SAINT JOSEPH, MO, 64503",15953729,"L"
91827,"1813 S 14TH AVE GE","BROADVIEW","IL",60155,41.870306097,-87.849593441,327,"1813 S 14TH AVE GE, BROADVIEW, IL, 60155","Match","Exact","1813 14TH AVE, BROADVIEW, IL, 60155",605267635,"L"
91828,"1813 S 47TH COURT","CICERO","IL",60804,NA,NA,328,"1813 S 47TH COURT, CICERO, IL, 60804","Tie",NA,NA,NA,NA
91829,"1813 S 6TH ST SUITE 104","MINNEAPOLIS","MN",55454,44.967779056,-93.246943508,329,"1813 S 6TH ST SUITE 104, MINNEAPOLIS, MN, 55454","Match","Non_Exact","1813 6TH ST S, MINNEAPOLIS, MN, 55454",43636990,"R"
91830,"1813 SANFORD DR APT 4","LITTLE ROCK","AR",72227,34.7694522040001,-92.379771245,330,"1813 SANFORD DR APT 4, LITTLE ROCK, AR, 72227","Match","Exact","1813 SANFORD DR, LITTLE ROCK, AR, 72227",83597553,"R"
91831,"1813 SOUTH 6TH ST STE 101","MINNEAPOLIS","MN",55454,NA,NA,331,"1813 SOUTH 6TH ST STE 101, MINNEAPOLIS, MN, 55454","No_Match",NA,NA,NA,NA
91832,"1813 SOUTH CLARK","CHICAGO","IL",60616,41.857451009,-87.630207578,332,"1813 SOUTH CLARK, CHICAGO, IL, 60616","Match","Non_Exact","1813 S CLARK ST, CHICAGO, IL, 60616",111827919,"L"
91833,"1813 SOUTH HIGHWAY 287","BERTHOUD","CO",80513,NA,NA,333,"1813 SOUTH HIGHWAY 287, BERTHOUD, CO, 80513","No_Match",NA,NA,NA,NA
91834,"1813 SOUTHCLIFF DRIVE","MARYVILLE","TN",37803,35.730921317,-83.9858774369999,334,"1813 SOUTHCLIFF DRIVE, MARYVILLE, TN, 37803","Match","Exact","1813 SOUTHCLIFF DR, MARYVILLE, TN, 37803",89847625,"R"
91835,"1813 SUNNYSIDE AVENUE","HIGHLAND PARK","IL",60035,42.18554447,-87.833788043,335,"1813 SUNNYSIDE AVENUE, HIGHLAND PARK, IL, 60035","Match","Exact","1813 SUNNYSIDE AVE, HIGHLAND PARK, IL, 60035",119647746,"R"
91836,"1813 TOMPKINS DR","GRAND PRAIRIE","TX",75051,32.7199046380001,-97.002478568,336,"1813 TOMPKINS DR, GRAND PRAIRIE, TX, 75051","Match","Exact","1813 TOMPKINS DR, GRAND PRAIRIE, TX, 75051",102936369,"L"
91837,"1813 W BROADWAY AVE","MARYVILLE","TN",37801,35.7309452040001,-83.996432742,337,"1813 W BROADWAY AVE, MARYVILLE, TN, 37801","Match","Exact","1813 W BROADWAY AVE, MARYVILLE, TN, 37801",607463228,"L"
91838,"1813 W GULFPORT STREET","BROKEN ARROW","OK",74011,36.0023567550001,-95.8090663199999,338,"1813 W GULFPORT STREET, BROKEN ARROW, OK, 74011","Match","Exact","1813 W GULFPORT ST, BROKEN ARROW, OK, 74011",166464466,"R"
91839,"1813 WELLNESS LANE","TRINITY","FL",34655,NA,NA,339,"1813 WELLNESS LANE, TRINITY, FL, 34655","No_Match",NA,NA,NA,NA
91840,"1813 WINDSOR DR SO","SHAKOPEE","MN",55379,44.774186076,-93.432355237,340,"1813 WINDSOR DR SO, SHAKOPEE, MN, 55379","Match","Exact","1813 WINDSOR DR S, SHAKOPEE, MN, 55379",38152993,"L"
91841,"1813 WINONA AVENUE","MONTGOMERY","AL",36107,32.382821221,-86.282993426,341,"1813 WINONA AVENUE, MONTGOMERY, AL, 36107","Match","Exact","1813 WINONA AVE, MONTGOMERY, AL, 36107",1470443,"L"
91842,"18130 SMOKESIGNAL DRIVE","SAN DIEGO","CA",92127,33.040332898,-117.087158675,342,"18130 SMOKESIGNAL DRIVE, SAN DIEGO, CA, 92127","Match","Exact","18130 SMOKESIGNAL DR, SAN DIEGO, CA, 92127",195390528,"L"
91843,"18131 LANGOIS ROAD SPACE C5","LAS VEGAS","NV",92241,NA,NA,343,"18131 LANGOIS ROAD SPACE C5, LAS VEGAS, NV, 92241","No_Match",NA,NA,NA,NA
91844,"18132 ANDREA CIRCLE SOUTH","NORTHRIDGE","CA",91325,34.252835469,-118.528719721,344,"18132 ANDREA CIRCLE SOUTH, NORTHRIDGE, CA, 91325","Match","Exact","18132 ANDREA CIR S, NORTHRIDGE, CA, 91325",624268256,"R"
91845,"18132 CRYSTAL LN","LANSING","IL",60438,41.5659085200001,-87.5762998179999,345,"18132 CRYSTAL LN, LANSING, IL, 60438","Match","Exact","18132 CRYSTAL LN, LANSING, IL, 60438",112207687,"L"
91846,"18132 EDGEWOOD CIRCLE","WILDWOOD","MO",63038,38.6021789160001,-90.63977604,346,"18132 EDGEWOOD CIRCLE, WILDWOOD, MO, 63038","Match","Non_Exact","18132 EDGEWOOD CIRCLE DR, WILDWOOD, MO, 63038",100170309,"R"
91847,"18134 21ST AVE","MONMOUTH","IA",52309,42.190952157,-90.875264364,347,"18134 21ST AVE, MONMOUTH, IA, 52309","Match","Exact","18134 21ST AVE, MONMOUTH, IA, 52309",641174930,"L"
91848,"18134 RIDGELAND AVE","LANSING","IL",60438,41.5669545160001,-87.574552989,348,"18134 RIDGELAND AVE, LANSING, IL, 60438","Match","Exact","18134 RIDGELAND AVE, LANSING, IL, 60438",624464867,"R"
91849,"18135  NW 25TH COURT","MIAMI","FL",33056,25.939534817,-80.2438708289999,349,"18135  NW 25TH COURT, MIAMI, FL, 33056","Match","Non_Exact","18135 NW 25TH CT, MIAMI GARDENS, FL, 33056",116027792,"R"
91850,"18135 BROOKES BEND","HOUSTON","TX",77094,29.779151089,-95.691105699,350,"18135 BROOKES BEND, HOUSTON, TX, 77094","Match","Exact","18135 BROOKES BEND, HOUSTON, TX, 77094",96293481,"L"
91851,"18135 SE BROOKLYN ST","GRESHAM","OR",97030,NA,NA,351,"18135 SE BROOKLYN ST, GRESHAM, OR, 97030","No_Match",NA,NA,NA,NA
91852,"18136 CYPRESS BAYPARKWAY","LAND O'LAKES","FL",34638,NA,NA,352,"18136 CYPRESS BAYPARKWAY, LAND O'LAKES, FL, 34638","No_Match",NA,NA,NA,NA
91853,"18137 MURRAY ROAD","MOUNT VERNON","OH",43050,40.3399146410001,-82.428109298,353,"18137 MURRAY ROAD, MOUNT VERNON, OH, 43050","Match","Exact","18137 MURRAY RD, MOUNT VERNON, OH, 43050",649953745,"R"
91854,"18137 PIERRE DRIVE","CLINTON TOWNSHIP","MI",48036,NA,NA,354,"18137 PIERRE DRIVE, CLINTON TOWNSHIP, MI, 48036","No_Match",NA,NA,NA,NA
91855,"181374","CLEVELAND HEIGHTS","OH",44118,NA,NA,355,"181374, CLEVELAND HEIGHTS, OH, 44118","No_Match",NA,NA,NA,NA
91856,"18138","DUMFRIES","VA",22026,NA,NA,356,"18138, DUMFRIES, VA, 22026","No_Match",NA,NA,NA,NA
91857,"181393","CLEVELAND","OH",44118,NA,NA,357,"181393, CLEVELAND, OH, 44118","No_Match",NA,NA,NA,NA
91858,"1813NW 39TH STREET","OAKLAND PARK","FL",33309,26.174291575,-80.167319399,358,"1813NW 39TH STREET, OAKLAND PARK, FL, 33309","Match","Non_Exact","1813 NW 39TH ST, OAKLAND PARK, FL, 33309",114718089,"R"
91859,"1814 65TH CT SE","TUMWATER","WA",98501,46.9895688650001,-122.877765425,359,"1814 65TH CT SE, TUMWATER, WA, 98501","Match","Exact","1814 65TH CT SE, TUMWATER, WA, 98501",648496625,"L"
91860,"1814 B WEST EDINGER AVE","SANTA ANA","CA",92704,33.727111302,-117.893013436,360,"1814 B WEST EDINGER AVE, SANTA ANA, CA, 92704","Match","Exact","1814 W EDINGER AVE, SANTA ANA, CA, 92704",631801939,"L"
91861,"1814 BEAUDET LANE","APEX","NC",27523,35.759619184,-78.864541461,361,"1814 BEAUDET LANE, APEX, NC, 27523","Match","Exact","1814 BEAUDET LN, APEX, NC, 27523",208354395,"L"
91862,"1814 BILLIE DRIVE","DALLAS","TX",75232,32.687950433,-96.8508694449999,362,"1814 BILLIE DRIVE, DALLAS, TX, 75232","Match","Exact","1814 BILLIE DR, DALLAS, TX, 75232",102947544,"L"
91863,"1814 BIRCH HEIGHTS CT","CHARLOTTE","NC",28213,35.308313518,-80.714363003,363,"1814 BIRCH HEIGHTS CT, CHARLOTTE, NC, 28213","Match","Exact","1814 BIRCH HEIGHTS CT, CHARLOTTE, NC, 28213",70542926,"L"
91864,"1814 BUFFALO TRAIL","MORRISTOWN","TN",37814,36.234535715,-83.2850454169999,364,"1814 BUFFALO TRAIL, MORRISTOWN, TN, 37814","Match","Exact","1814 BUFFALO TRL, MORRISTOWN, TN, 37814",606967716,"R"
91865,"1814 BURNET AVENUE","UNION","NJ",7083,40.716009571,-74.268000421,365,"1814 BURNET AVENUE, UNION, NJ, 7083","Match","Exact","1814 BURNET AVE, UNION, NJ, 07083",60571256,"L"
91866,"1814 CHAPARRAL PLACE","SANTA ROSA","CA",95404,38.4576319450001,-122.691992321,366,"1814 CHAPARRAL PLACE, SANTA ROSA, CA, 95404","Match","Exact","1814 CHAPARRAL PL, SANTA ROSA, CA, 95404",638175849,"R"
91867,"1814 DEVONSHIRE DR","WIXOM","MI",48393,42.547915742,-83.555230598,367,"1814 DEVONSHIRE DR, WIXOM, MI, 48393","Match","Exact","1814 DEVONSHIRE DR, WIXOM, MI, 48393",69789992,"L"
91868,"1814 E 3RD ST","SALEM","OH",44460,40.903124463,-80.834634649,368,"1814 E 3RD ST, SALEM, OH, 44460","Match","Exact","1814 E 3RD ST, SALEM, OH, 44460",63644481,"R"
91869,"1814 E HOQUIAM ROAD","HOQUIAM","WA",98550,47.0447385080001,-123.861436275,369,"1814 E HOQUIAM ROAD, HOQUIAM, WA, 98550","Match","Exact","1814 E HOQUIAM RD, HOQUIAM, WA, 98550",180604521,"R"
91870,"1814 EAST HELMICK STREET","CARSON","CA",90746,33.852033298,-118.237439095,370,"1814 EAST HELMICK STREET, CARSON, CA, 90746","Match","Exact","1814 E HELMICK ST, CARSON, CA, 90746",141681213,"R"
91871,"1814 FIELDS ROAD","MEMPHIS","TN",38109,35.049574921,-90.122375776,371,"1814 FIELDS ROAD, MEMPHIS, TN, 38109","Match","Exact","1814 FIELDS RD, MEMPHIS, TN, 38109",72964408,"R"
91872,"1814 FIRESTONE COURT","AUBURN","AL",36830,32.648989902,-85.521829283,372,"1814 FIRESTONE COURT, AUBURN, AL, 36830","Match","Non_Exact","1814 FIRESTONE CT, AUBURN, AL, 36879",633443640,"L"
91873,"1814 FRANKLIN STREET SUITE 900","OAKLAND","CA",94612,37.8068063630001,-122.268129243,373,"1814 FRANKLIN STREET SUITE 900, OAKLAND, CA, 94612","Match","Exact","1814 FRANKLIN ST, OAKLAND, CA, 94612",124997165,"R"
91874,"1814 GLADYS AVENUE","GRAND HAVEN","MI",49417,43.0470718650001,-86.2340036959999,374,"1814 GLADYS AVENUE, GRAND HAVEN, MI, 49417","Match","Exact","1814 GLADYS AVE, GRAND HAVEN, MI, 49417",71084612,"R"
91875,"1814 KELLY GLEN DRIVE","APEX","NC",27502,35.727465323,-78.8914856059999,375,"1814 KELLY GLEN DRIVE, APEX, NC, 27502","Match","Exact","1814 KELLY GLEN DR, APEX, NC, 27502",72596605,"R"
91876,"1814 KEMAH OAKS DR","KEMAH","TX",77565,29.531107552,-95.022919967,376,"1814 KEMAH OAKS DR, KEMAH, TX, 77565","Match","Exact","1814 KEMAH OAKS DR, KEMAH, TX, 77565",96699244,"R"
91877,"1814 LINDA AVE","ORMOND BEACH","FL",32174,29.253486572,-81.07320119,377,"1814 LINDA AVE, ORMOND BEACH, FL, 32174","Match","Exact","1814 LINDA AVE, ORMOND BEACH, FL, 32174",94595863,"L"
91878,"1814 LOCHMORE DR","LONGMONT","CO",80504,40.1912003780001,-105.064032318,378,"1814 LOCHMORE DR, LONGMONT, CO, 80504","Match","Exact","1814 LOCHMORE DR, LONGMONT, CO, 80504",188202830,"L"
91879,"1814 LUCKIE AVENUE","MOBILE","AL",36617,30.718984236,-88.084798812,379,"1814 LUCKIE AVENUE, MOBILE, AL, 36617","Match","Exact","1814 LUCKIE AVE, MOBILE, AL, 36617",61860572,"R"
91880,"1814 MAGNOLIA","LA MARQUE","TX",77568,29.3647265290001,-94.9697239979999,380,"1814 MAGNOLIA, LA MARQUE, TX, 77568","Match","Non_Exact","1814 MAGNOLIA DR, LA MARQUE, TX, 77568",96675910,"R"
91881,"1814 MAYFIELD AVENUE","GARLAND","TX",75041,32.8666374200001,-96.654673114,381,"1814 MAYFIELD AVENUE, GARLAND, TX, 75041","Match","Exact","1814 MAYFIELD AVE, GARLAND, TX, 75041",102929856,"L"
91882,"1814 N 18TH ST","PHILADELPHIA","PA",19121,39.9813430310001,-75.1638745779999,382,"1814 N 18TH ST, PHILADELPHIA, PA, 19121","Match","Exact","1814 N 18TH ST, PHILADELPHIA, PA, 19121",131405897,"L"
91883,"1814 N BRYAN STREET","ARLINGTON","VA",22201,38.893889082,-77.090442615,383,"1814 N BRYAN STREET, ARLINGTON, VA, 22201","Match","Exact","1814 N BRYAN ST, ARLINGTON, VA, 22201",76469674,"L"
91884,"1814 NIXON ST","DURHAM","NC",27707,35.9661459910001,-78.888881437,384,"1814 NIXON ST, DURHAM, NC, 27707","Match","Exact","1814 NIXON ST, DURHAM, NC, 27707",71743129,"R"
91885,"1814 NOTTINGHAM ROAD","STATESBORO","GA",30461,32.409653108,-81.688117859,385,"1814 NOTTINGHAM ROAD, STATESBORO, GA, 30461","Match","Exact","1814 NOTTINGHAM RD, STATESBORO, GA, 30461",6159822,"R"
91886,"1814 PAPOOSE TRL","CROSBY","TX",77532,29.985342265,-95.113011168,386,"1814 PAPOOSE TRL, CROSBY, TX, 77532","Match","Exact","1814 PAPOOSE TRL, CROSBY, TX, 77532",96051243,"L"
91887,"1814 RAA AVENUE","TALLAHASSEE","FL",32303,30.4676315030001,-84.316875559,387,"1814 RAA AVENUE, TALLAHASSEE, FL, 32303","Match","Exact","1814 RAA AVE, TALLAHASSEE, FL, 32303",82848611,"R"
91888,"1814 RED CEDAR TRAIL","GARLAND","TX",75040,32.913197159,-96.6027260069999,388,"1814 RED CEDAR TRAIL, GARLAND, TX, 75040","Match","Exact","1814 RED CEDAR TRL, GARLAND, TX, 75040",103280897,"L"
91889,"1814 RED OAK LN","CARROLLTON","TX",75007,32.997718105,-96.8886404249999,389,"1814 RED OAK LN, CARROLLTON, TX, 75007","Match","Exact","1814 RED OAK LN, CARROLLTON, TX, 75007",103352359,"R"
91890,"1814 ROUND RIDGE RD","LOUISEVILLE","KY",40207,38.2801645390001,-85.6612474889999,390,"1814 ROUND RIDGE RD, LOUISEVILLE, KY, 40207","Match","Non_Exact","1814 ROUND RIDGE RD, LOUISVILLE, KY, 40207",96880306,"L"
91891,"1814 S 5TH ST","ALLENTOWN","PA",18103,40.581746351,-75.457106661,391,"1814 S 5TH ST, ALLENTOWN, PA, 18103","Match","Exact","1814 S 5TH ST, ALLENTOWN, PA, 18103",649585942,"R"
91892,"1814 SE 8TH STREET","RENTON","WA",98057,47.473038423,-122.194163812,392,"1814 SE 8TH STREET, RENTON, WA, 98057","Match","Exact","1814 SE 8TH ST, RENTON, WA, 98057",648561366,"R"
91893,"1814 SW 21ST ST","CAPE CORAL","FL",33991,26.613998119,-82.012161561,393,"1814 SW 21ST ST, CAPE CORAL, FL, 33991","Match","Exact","1814 SW 21ST ST, CAPE CORAL, FL, 33991",118002391,"R"
91894,"1814 THETFORD CIRCLE","ORLANDO","FL",32824,28.349012341,-81.331121899,394,"1814 THETFORD CIRCLE, ORLANDO, FL, 32824","Match","Exact","1814 THETFORD CIR, ORLANDO, FL, 32824",640873814,"L"
91895,"1814 TRINIDAD LN","ALLEN","TX",75013,33.116854812,-96.7181438389999,395,"1814 TRINIDAD LN, ALLEN, TX, 75013","Match","Non_Exact","1814 TRINIDAD DR, ALLEN, TX, 75013",630125529,"R"
91896,"1814 W 4TH STREET","ASHTABULA","OH",44004,41.8972679980001,-80.808130223,396,"1814 W 4TH STREET, ASHTABULA, OH, 44004","Match","Exact","1814 W 4TH ST, ASHTABULA, OH, 44004",117307551,"L"
91897,"1814 W 950 S","PENDLETON","IN",46140,39.9673019300001,-85.708311758,397,"1814 W 950 S, PENDLETON, IN, 46140","Match","Non_Exact","1814 W 950 S, PENDLETON, IN, 46064",31116933,"L"
91898,"1814 W NETTLETON AVE","JONESBORO","AR",72401,35.828661964,-90.7288554789999,398,"1814 W NETTLETON AVE, JONESBORO, AR, 72401","Match","Exact","1814 W NETTLETON AVE, JONESBORO, AR, 72401",46935347,"R"
91899,"1814 WELDON DR","HOUSTON","TX",77073,29.9793851580001,-95.369196905,399,"1814 WELDON DR, HOUSTON, TX, 77073","Match","Exact","1814 WELDON DR, HOUSTON, TX, 77073",96044398,"R"
91900,"1814 WEST 79TH STREET","CHICGO","IL",60620,41.7502904730001,-87.6688917609999,400,"1814 WEST 79TH STREET, CHICGO, IL, 60620","Match","Non_Exact","1814 W 79TH ST, CHICAGO, IL, 60620",111821101,"R"
91901,"1814 WEST VINE STREET","MILWAUKEE","WI",53205,43.0548243430001,-87.935461178,401,"1814 WEST VINE STREET, MILWAUKEE, WI, 53205","Match","Exact","1814 W VINE ST, MILWAUKEE, WI, 53205",77740234,"R"
91902,"1814 WHITE OAK ROAD","RALEIGH","NC",27608,35.805098259,-78.64571483,402,"1814 WHITE OAK ROAD, RALEIGH, NC, 27608","Match","Exact","1814 WHITE OAK RD, RALEIGH, NC, 27608",72502668,"R"
91903,"1814","FREDERICKSBURG","TX",78624,NA,NA,403,"1814, FREDERICKSBURG, TX, 78624","No_Match",NA,NA,NA,NA
91904,"18140 NE 10TH COURT","N MIAMI BEACH","FL",33162,25.9423253140001,-80.179923142,404,"18140 NE 10TH COURT, N MIAMI BEACH, FL, 33162","Match","Non_Exact","18140 NE 10TH CT, N MIAMI BEACH, FL, 33162",116030889,"L"
91905,"18142 FIRST STREET PO BOX 322","KELLER","VA",23401,NA,NA,405,"18142 FIRST STREET PO BOX 322, KELLER, VA, 23401","No_Match",NA,NA,NA,NA
91906,"18142 LONGWATER RUN DRIVE","TAMPA","FL",33647,28.137351128,-82.3459095219999,406,"18142 LONGWATER RUN DRIVE, TAMPA, FL, 33647","Match","Exact","18142 LONGWATER RUN DR, TAMPA, FL, 33647",104662327,"L"
91907,"18143 MIRANDA ST","TARZANA","CA",91356,34.1745047260001,-118.528109284,407,"18143 MIRANDA ST, TARZANA, CA, 91356","Match","Exact","18143 MIRANDA ST, TARZANA, CA, 91356",141554967,"R"
91908,"18143 N 113TH CIR","SURPRISE","AZ",85378,33.6483580180001,-112.304024846,408,"18143 N 113TH CIR, SURPRISE, AZ, 85378","Match","Exact","18143 N 113TH CIR, SURPRISE, AZ, 85378",243965594,"R"
91909,"18144 SANDS ROAD","PURCELLVILLE","VA",20132,39.115308794,-77.69073488,409,"18144 SANDS ROAD, PURCELLVILLE, VA, 20132","Match","Exact","18144 SANDS RD, PURCELLVILLE, VA, 20132",62370022,"R"
91910,"18145 ROLLING BROOK DR","CHAGRIN FALLS","OH",44023,41.3754319710001,-81.34520904,410,"18145 ROLLING BROOK DR, CHAGRIN FALLS, OH, 44023","Match","Exact","18145 ROLLING BROOK DR, CHAGRIN FALLS, OH, 44023",137438986,"L"
91911,"18146 CLAUDETTE DR","ZACHARY","LA",70791,30.6239178820001,-91.107984377,411,"18146 CLAUDETTE DR, ZACHARY, LA, 70791","Match","Exact","18146 CLAUDETTE DR, ZACHARY, LA, 70791",92200158,"L"
91912,"18147 MOORES GARDEN ROAD","MOUNT VERNON","WA",98273,48.426382511,-122.353803769,412,"18147 MOORES GARDEN ROAD, MOUNT VERNON, WA, 98273","Match","Exact","18147 MOORES GARDEN RD, MOUNT VERNON, WA, 98273",183667988,"L"
91913,"18148 CADENCE STREET","OR","FL",32820,28.562790582,-81.113895199,413,"18148 CADENCE STREET, OR, FL, 32820","Match","Non_Exact","18148 CADENCE ST, ORLANDO, FL, 32820",94420598,"R"
91914,"18148 HURON DR","MACOMB","MI",48042,42.694295567,-82.946487953,414,"18148 HURON DR, MACOMB, MI, 48042","Match","Exact","18148 HURON DR, MACOMB, MI, 48042",110719976,"R"
91915,"1815 52ND ST NE","TACOMA","WA",98422,47.3034673980001,-122.422280787,415,"1815 52ND ST NE, TACOMA, WA, 98422","Match","Exact","1815 52ND ST NE, TACOMA, WA, 98422",184714887,"L"
91916,"1815 98TH PLSW","EVERETT","WA",98204,NA,NA,416,"1815 98TH PLSW, EVERETT, WA, 98204","No_Match",NA,NA,NA,NA
91917,"1815 AUGUSTA DR","VERMILLION","SD",57069,42.775263157,-96.904907935,417,"1815 AUGUSTA DR, VERMILLION, SD, 57069","Match","Exact","1815 AUGUSTA DR, VERMILLION, SD, 57069",172953436,"R"
91918,"1815 BACONS BRIDGE RD APT B11","SUMMERVILLE","SC",29485,32.978672703,-80.196167297,418,"1815 BACONS BRIDGE RD APT B11, SUMMERVILLE, SC, 29485","Match","Exact","1815 BACONS BRIDGE RD, SUMMERVILLE, SC, 29485",178468165,"R"
91919,"1815 BIG COVE ROAD","HUNTSVILLE","AL",35801,34.7188557220001,-86.5548066489999,419,"1815 BIG COVE ROAD, HUNTSVILLE, AL, 35801","Match","Non_Exact","1815 BIG COVE RD SE, HUNTSVILLE, AL, 35801",647639866,"R"
91920,"1815 BLACKBERRY COURT","PALMDALE","CA",93551,34.599407758,-118.164209442,420,"1815 BLACKBERRY COURT, PALMDALE, CA, 93551","Match","Exact","1815 BLACKBERRY CT, PALMDALE, CA, 93551",141836672,"L"
91921,"1815 BOYNTON AVE","WESTFIELD","NJ",7090,40.6368392540001,-74.317599647,421,"1815 BOYNTON AVE, WESTFIELD, NJ, 7090","Match","Exact","1815 BOYNTON AVE, WESTFIELD, NJ, 07090",60574234,"L"
91922,"1815 BRAGAW STREET SUITE 209","ANCHORAGE","AK",99508,61.2042175350001,-149.808337146,422,"1815 BRAGAW STREET SUITE 209, ANCHORAGE, AK, 99508","Match","Exact","1815 BRAGAW ST, ANCHORAGE, AK, 99508",190801786,"L"
91923,"1815 BRYANT AVE NORTH","MINNEAPOLIS","MN",55411,44.997615721,-93.2910407479999,423,"1815 BRYANT AVE NORTH, MINNEAPOLIS, MN, 55411","Match","Exact","1815 BRYANT AVE N, MINNEAPOLIS, MN, 55411",43665133,"L"
91924,"1815 BRYANT AVENUE NORTH","MINNEAPOLIS","MN",55411,44.997615721,-93.2910407479999,424,"1815 BRYANT AVENUE NORTH, MINNEAPOLIS, MN, 55411","Match","Exact","1815 BRYANT AVE N, MINNEAPOLIS, MN, 55411",43665133,"L"
91925,"1815 CALADIUM DRIVE","CORINTH","TX",76210,33.144408093,-97.082878998,425,"1815 CALADIUM DRIVE, CORINTH, TX, 76210","Match","Exact","1815 CALADIUM DR, CORINTH, TX, 76210",103405286,"L"
91926,"1815 CENTRAL PARK DR STE 110 PMB217","STEAMBOAT SPRINGS","CO",80487,40.4621379010001,-106.820673614,426,"1815 CENTRAL PARK DR STE 110 PMB217, STEAMBOAT SPRINGS, CO, 80487","Match","Exact","1815 CENTRAL PARK DR, STEAMBOAT SPRINGS, CO, 80487",608260060,"R"
91927,"1815 CENTRAL PARK DRIVE","STEAMBOAT SPRINGS","CO",80487,40.4621379010001,-106.820673614,427,"1815 CENTRAL PARK DRIVE, STEAMBOAT SPRINGS, CO, 80487","Match","Exact","1815 CENTRAL PARK DR, STEAMBOAT SPRINGS, CO, 80487",608260060,"R"
91928,"1815 CENTRAL PK DR STE 110 PMB 156","STEAMBOAT SPRINGS","CO",80487,40.4621379010001,-106.820673614,428,"1815 CENTRAL PK DR STE 110 PMB 156, STEAMBOAT SPRINGS, CO, 80487","Match","Exact","1815 CENTRAL PARK DR, STEAMBOAT SPRINGS, CO, 80487",608260060,"R"
91929,"1815 CEPHAS ST","NASHVILLE","TN",37208,36.18077429,-86.805837195,429,"1815 CEPHAS ST, NASHVILLE, TN, 37208","Match","Exact","1815 CEPHAS ST, NASHVILLE, TN, 37208",97185359,"L"
91930,"1815 CHANDELLAY DRIVE","DURHAM","NC",27705,36.0490927910001,-78.925893751,430,"1815 CHANDELLAY DRIVE, DURHAM, NC, 27705","Match","Exact","1815 CHANDELLAY DR, DURHAM, NC, 27705",71776022,"L"
91931,"1815 COLEBROOK RD","LEBANON","PA",17042,40.3115088980001,-76.444924885,431,"1815 COLEBROOK RD, LEBANON, PA, 17042","Match","Exact","1815 COLEBROOK RD, LEBANON, PA, 17042",611345205,"L"
91932,"1815 COLEBROOK ROAD","LEBANON","PA",17042,40.3115088980001,-76.444924885,432,"1815 COLEBROOK ROAD, LEBANON, PA, 17042","Match","Exact","1815 COLEBROOK RD, LEBANON, PA, 17042",611345205,"L"
91933,"1815 DANCLIFF DR","DALLAS","TX",75224,32.6984961470001,-96.850280432,433,"1815 DANCLIFF DR, DALLAS, TX, 75224","Match","Exact","1815 DANCLIFF DR, DALLAS, TX, 75224",102947404,"R"
91934,"1815 DEBANN PLACE","ROWLAND HEIGHTS","CA",91748,33.983631851,-117.869408047,434,"1815 DEBANN PLACE, ROWLAND HEIGHTS, CA, 91748","Match","Exact","1815 DEBANN PL, ROWLAND HEIGHTS, CA, 91748",141736001,"R"
91935,"1815 DIANA LANE","HARKER HEIGHTS","TX",76548,31.074614732,-97.631367884,435,"1815 DIANA LANE, HARKER HEIGHTS, TX, 76548","Match","Exact","1815 DIANA LN, HARKER HEIGHTS, TX, 76548",146143192,"R"
91936,"1815 E CHAPMAN AVENUE","FULLERTON","CA",92831,33.8741772390001,-117.897454076,436,"1815 E CHAPMAN AVENUE, FULLERTON, CA, 92831","Match","Exact","1815 E CHAPMAN AVE, FULLERTON, CA, 92831",649765876,"L"
91937,"1815 E RIDER ST","PERRIS","CA",92571,33.830288335,-117.186414345,437,"1815 E RIDER ST, PERRIS, CA, 92571","Match","Exact","1815 RIDER ST, PERRIS, CA, 92571",195090203,"L"
91938,"1815 E SAHARA AVE SUITE 215","LAS VEGAS","NV",89104,36.1442400080001,-115.126580179,438,"1815 E SAHARA AVE SUITE 215, LAS VEGAS, NV, 89104","Match","Non_Exact","1815 E SAHARA AVE, LAS VEGAS, NV, 89104",635959313,"R"
91939,"1815 EAST 9800 SOUTH","SANDY","UT",84092,40.573187386,-111.840867765,439,"1815 EAST 9800 SOUTH, SANDY, UT, 84092","Match","Exact","1815 E 9800 S, SANDY, UT, 84092",638891901,"L"
91940,"1815 EBB COVE COURT","NEWPORT NEWS","VA",23602,37.1231103270001,-76.481178303,440,"1815 EBB COVE COURT, NEWPORT NEWS, VA, 23602","Match","Exact","1815 EBB COVE CT, NEWPORT NEWS, VA, 23602",103812438,"L"
91941,"1815 EGBERT AVE","SAN FRANCISCO","CA",94124,37.726742518,-122.399115508,441,"1815 EGBERT AVE, SAN FRANCISCO, CA, 94124","Match","Exact","1815 EGBERT AVE, SAN FRANCISCO, CA, 94124",635441268,"R"
91942,"1815 ELISON LANE","MISSOULA","MT",59802,46.8801395940001,-113.979107091,442,"1815 ELISON LANE, MISSOULA, MT, 59802","Match","Exact","1815 ELISON LN, MISSOULA, MT, 59802",205275084,"L"
91943,"1815 ENCINAL AVENUE","ALAMEDA","CA",94501,37.7677496260001,-122.256112847,443,"1815 ENCINAL AVENUE, ALAMEDA, CA, 94501","Match","Exact","1815 ENCINAL AVE, ALAMEDA, CA, 94501",606310314,"L"
91944,"1815 ESCALERA CIRCLE","BULLHEAD CITY","AZ",86442,35.1174117800001,-114.582842079,444,"1815 ESCALERA CIRCLE, BULLHEAD CITY, AZ, 86442","Match","Exact","1815 ESCALERA CIR, BULLHEAD CITY, AZ, 86442",190346281,"R"
91945,"1815 FOLKSTONE ROAD","TALLAHASSEE","FL",32312,30.5939914740001,-84.249475343,445,"1815 FOLKSTONE ROAD, TALLAHASSEE, FL, 32312","Match","Exact","1815 FOLKSTONE RD, TALLAHASSEE, FL, 32312",82845743,"R"
91946,"1815 FOREST HILL BOULEVARD","LAKE CLARKE SHORES","FL",33406,26.6523827820001,-80.0772447419999,446,"1815 FOREST HILL BOULEVARD, LAKE CLARKE SHORES, FL, 33406","Match","Exact","1815 FOREST HILL BLVD, LAKE CLARKE SHORES, FL, 33406",115273746,"R"
91947,"1815 GERVAIS STREET","COLUMBIA","SC",29204,34.0043856180001,-81.023611172,447,"1815 GERVAIS STREET, COLUMBIA, SC, 29204","Match","Non_Exact","1815 GERVAIS ST, COLUMBIA, SC, 29201",71821631,"L"
91948,"1815 GLEN AVE","SALINA","KS",67401,38.834342817,-97.5829747769999,448,"1815 GLEN AVE, SALINA, KS, 67401","Match","Exact","1815 GLEN AVE, SALINA, KS, 67401",607461016,"R"
91949,"1815 GRIFFIN RD STE 404","DANIA BEACH","FL",33004,26.0628063940001,-80.1658948739999,449,"1815 GRIFFIN RD STE 404, DANIA BEACH, FL, 33004","Match","Exact","1815 GRIFFIN RD, DANIA BEACH, FL, 33004",114764328,"R"
91950,"1815 HIGHMEADOW STREET","GLENN HEIGHTS","TX",75154,32.5570542500001,-96.830802331,450,"1815 HIGHMEADOW STREET, GLENN HEIGHTS, TX, 75154","Match","Exact","1815 HIGHMEADOW ST, GLENN HEIGHTS, TX, 75154",103278602,"R"
91951,"1815 ILLINOIS STREET","ORLANDO","FL",32803,28.5558302810001,-81.358226165,451,"1815 ILLINOIS STREET, ORLANDO, FL, 32803","Match","Exact","1815 ILLINOIS ST, ORLANDO, FL, 32803",94416938,"L"
91952,"1815 JOHN F KENNEDY BLVD APT 2803A","PHILADELPHIA","PA",19103,39.9542377280001,-75.170100481,452,"1815 JOHN F KENNEDY BLVD APT 2803A, PHILADELPHIA, PA, 19103","Match","Exact","1815 JOHN F KENNEDY BLVD, PHILADELPHIA, PA, 19103",131407442,"R"
91953,"1815 KIEST AVENUE","NORTHBROOK","IL",60062,42.133593492,-87.8240844859999,453,"1815 KIEST AVENUE, NORTHBROOK, IL, 60062","Match","Exact","1815 KIEST AVE, NORTHBROOK, IL, 60062",605836716,"L"
91954,"1815 LANCASTER","POCATELLO","ID",83201,42.906193043,-112.428238555,454,"1815 LANCASTER, POCATELLO, ID, 83201","Match","Non_Exact","1815 LANCASTER ST, POCATELLO, ID, 83201",204352345,"R"
91955,"1815 LAZIO LANE","APEX","NC",27502,35.715922022,-78.9061354249999,455,"1815 LAZIO LANE, APEX, NC, 27502","Match","Exact","1815 LAZIO LN, APEX, NC, 27502",638944975,"L"
91956,"1815 LOST CROSSING TRL","ARLINGTON","TX",76002,32.634351753,-97.081546954,456,"1815 LOST CROSSING TRL, ARLINGTON, TX, 76002","Match","Exact","1815 LOST CROSSING TRL, ARLINGTON, TX, 76002",102113179,"R"
91957,"1815 LOUISE AVENUE","ARCADIA","CA",91006,34.1192313560001,-118.029659311,457,"1815 LOUISE AVENUE, ARCADIA, CA, 91006","Match","Exact","1815 LOUISE AVE, ARCADIA, CA, 91006",642862552,"R"
91958,"1815 MIRA LAGO CIRCLE","RUSKIN","FL",33570,27.7287738100001,-82.454767346,458,"1815 MIRA LAGO CIRCLE, RUSKIN, FL, 33570","Match","Exact","1815 MIRA LAGO CIR, RUSKIN, FL, 33570",633886928,"L"
91959,"1815 N LOGAN ST","FREMONT","NE",68025,41.446653138,-96.48626577,459,"1815 N LOGAN ST, FREMONT, NE, 68025","Match","Exact","1815 N LOGAN ST, FREMONT, NE, 68025",136314382,"L"
91960,"1815 NORTH SHERIDAN","SOUTH BEND","IN",46628,41.69962364,-86.303218954,460,"1815 NORTH SHERIDAN, SOUTH BEND, IN, 46628","Match","Non_Exact","1815 N SHERIDAN ST, SOUTH BEND, IN, 46628",649689824,"L"
91961,"1815 OLD MORRILTON HWY STE 102","CONWAY","AR",72032,35.1139720400001,-92.447695043,461,"1815 OLD MORRILTON HWY STE 102, CONWAY, AR, 72032","Match","Non_Exact","1815 OLD MORRILTON HWY, CONWAY, AR, 72032",648428653,"L"
91962,"1815 OURAY ROAD","GLENWOOD SPRINGS","CO",81602,39.510749321,-107.310036157,462,"1815 OURAY ROAD, GLENWOOD SPRINGS, CO, 81602","Match","Non_Exact","1815 OURAY RD, GLENWOOD SPGS, CO, 81601",105814734,"R"
91963,"1815 P STREET UNIT B","SACRAMENTO","CA",95811,38.5707016110001,-121.485157428,463,"1815 P STREET UNIT B, SACRAMENTO, CA, 95811","Match","Exact","1815 P ST, SACRAMENTO, CA, 95811",133324246,"L"
91964,"1815 PURDY AVE","MIAMI BEACH","FL",33139,25.7938041250001,-80.144393443,464,"1815 PURDY AVE, MIAMI BEACH, FL, 33139","Match","Exact","1815 PURDY AVE, MIAMI BEACH, FL, 33139",116020113,"R"
91965,"1815 RAHLING ROAD","LITTLE ROCK","AR",72223,34.77258934,-92.4486301649999,465,"1815 RAHLING ROAD, LITTLE ROCK, AR, 72223","Match","Exact","1815 RAHLING RD, LITTLE ROCK, AR, 72223",620511231,"L"
91966,"1815 REINELT AVE","SANTA CRUZ","CA",95062,36.9769508250001,-121.979279645,466,"1815 REINELT AVE, SANTA CRUZ, CA, 95062","Match","Exact","1815 REINELT AVE, SANTA CRUZ, CA, 95062",125507683,"L"
91967,"1815 S AUSTIN BLVD","CICERO","IL",60804,41.8550997930001,-87.7738337439999,467,"1815 S AUSTIN BLVD, CICERO, IL, 60804","Match","Exact","1815 S AUSTIN BLVD, CICERO, IL, 60804",111795044,"L"
91968,"1815 S RENWICK BOULEVARD","BLOOMINGTON","IN",47401,39.147122908,-86.501312023,468,"1815 S RENWICK BOULEVARD, BLOOMINGTON, IN, 47401","Match","Exact","1815 S RENWICK BLVD, BLOOMINGTON, IN, 47401",617448912,"L"
91969,"1815 S SHOSHONE ST","BOISE","ID",83705,43.587097768,-116.218639687,469,"1815 S SHOSHONE ST, BOISE, ID, 83705","Match","Exact","1815 SHOSHONE ST, BOISE, ID, 83705",117865065,"R"
91970,"1815 SAWNEE MEADOW LANE","CUMMING","GA",30040,34.2319100990001,-84.1411185809999,470,"1815 SAWNEE MEADOW LANE, CUMMING, GA, 30040","Match","Exact","1815 SAWNEE MEADOW LN, CUMMING, GA, 30040",70184699,"L"
91971,"1815 SAXON STREET","ANN ARBOR","MI",48103,42.257615473,-83.776900371,471,"1815 SAXON STREET, ANN ARBOR, MI, 48103","Match","Non_Exact","1815 SAXON DR, ANN ARBOR, MI, 48103",26012633,"L"
91972,"1815 SCARBOROUGH DR","LODI","CA",95240,38.110641985,-121.280825491,472,"1815 SCARBOROUGH DR, LODI, CA, 95240","Match","Exact","1815 SCARBOROUGH DR, LODI, CA, 95240",639021379,"L"
91973,"1815 SE GIFFORD STREET","PORT SAINT LUCIE","FL",34952,27.2855776260001,-80.2658817129999,473,"1815 SE GIFFORD STREET, PORT SAINT LUCIE, FL, 34952","Match","Exact","1815 SE GIFFORD ST, PORT ST LUCIE, FL, 34952",120173692,"R"
91974,"1815 SHERRER ROAD","YORK","SC",29745,35.0435725410001,-81.1614539729999,474,"1815 SHERRER ROAD, YORK, SC, 29745","Match","Exact","1815 SHERRER RD, YORK, SC, 29745",19786973,"L"
91975,"1815 SOUTH BROCKWELL AVE","MONTEREY PARK","CA",91754,34.04261338,-118.133286736,475,"1815 SOUTH BROCKWELL AVE, MONTEREY PARK, CA, 91754","Match","Non_Exact","1815 BROCKWELL AVE, MONTEREY PARK, CA, 91754",141638679,"R"
91976,"1815 SOUTH FEDERAL HIGHWAY SUITE 2","BOYNTON BEACH","FL",33435,26.512968657,-80.0590893789999,476,"1815 SOUTH FEDERAL HIGHWAY SUITE 2, BOYNTON BEACH, FL, 33435","Match","Exact","1815 S FEDERAL HWY, BOYNTON BEACH, FL, 33435",115297021,"R"
91977,"1815 STADIUM ROAD","CHARLOTTESVILLE","VA",22903,38.0298472630001,-78.5125088189999,477,"1815 STADIUM ROAD, CHARLOTTESVILLE, VA, 22903","Match","Exact","1815 STADIUM RD, CHARLOTTESVILLE, VA, 22903",635294511,"R"
91978,"1815 SW 4TH PL","CAPE CORAL","FL",33994,26.6190367560001,-81.9829242979999,478,"1815 SW 4TH PL, CAPE CORAL, FL, 33994","Match","Non_Exact","1815 SW 4TH PL, CAPE CORAL, FL, 33991",118011806,"L"
91979,"1815 SW CAMPUS DR 27412","FEDERAL WAY","WA",98023,47.300677686,-122.358509609,479,"1815 SW CAMPUS DR 27412, FEDERAL WAY, WA, 98023","Match","Non_Exact","1815 SW CAMPUS DR, FEDERAL WAY, WA, 98023",648735512,"R"
91980,"1815 SW CAMPUS DRIVE BOX 24991","FEDERAL WAY","WA",98093,NA,NA,480,"1815 SW CAMPUS DRIVE BOX 24991, FEDERAL WAY, WA, 98093","No_Match",NA,NA,NA,NA
91981,"1815 THORNHILL RD  SUITE 309T","AUBURNDALE","FL",33823,NA,NA,481,"1815 THORNHILL RD  SUITE 309T, AUBURNDALE, FL, 33823","No_Match",NA,NA,NA,NA
91982,"1815 TORREY PINES DR","BROOKINGS","SD",57006,44.290557377,-96.774774914,482,"1815 TORREY PINES DR, BROOKINGS, SD, 57006","Match","Exact","1815 TORREY PINES DR, BROOKINGS, SD, 57006",625425811,"L"
91983,"1815 VIRGINIA ST","BATON ROUGE","LA",70802,30.431048103,-91.173123614,483,"1815 VIRGINIA ST, BATON ROUGE, LA, 70802","Match","Exact","1815 VIRGINIA ST, BATON ROUGE, LA, 70802",92183426,"L"
91984,"1815 W 15TH ST UNIT 10","PANAMA CITY","FL",32401,30.17535214,-85.68914334,484,"1815 W 15TH ST UNIT 10, PANAMA CITY, FL, 32401","Match","Non_Exact","1815 W 15TH ST, PANAMA CITY, FL, 32401",7028470,"L"
91985,"1815 W JETTON AVE","TAMPA","FL",33606,27.9328410480001,-82.479372599,485,"1815 W JETTON AVE, TAMPA, FL, 33606","Match","Exact","1815 JETTON AVE, TAMPA, FL, 33606",104529741,"R"
91986,"1815 WATERS AVENUE","SAVANNAH","GA",31404,32.0550885710001,-81.0828611479999,486,"1815 WATERS AVENUE, SAVANNAH, GA, 31404","Match","Exact","1815 WATERS AVE, SAVANNAH, GA, 31404",6176956,"R"
91987,"1815 WOODVIEW DR","GARRETT","IN",46738,41.345385978,-85.115105321,487,"1815 WOODVIEW DR, GARRETT, IN, 46738","Match","Exact","1815 WOODVIEW DR, GARRETT, IN, 46738",606651803,"R"
91988,"18150 DEVONWOOD CIRCLE","FOUNTAIN VALLEY","CA",92708,33.698829189,-117.971024388,488,"18150 DEVONWOOD CIRCLE, FOUNTAIN VALLEY, CA, 92708","Match","Exact","18150 DEVONWOOD CIR, FOUNTAIN VALLEY, CA, 92708",144019148,"L"
91989,"18150 PATHFINDER ROAD","ROWLAND HEIGHTS","CA",91748,33.967815737,-117.914963991,489,"18150 PATHFINDER ROAD, ROWLAND HEIGHTS, CA, 91748","Match","Exact","18150 PATHFINDER RD, ROWLAND HEIGHTS, CA, 91748",142839470,"L"
91990,"18151 SW 22ND STREET","MIRAMAR","FL",33029,25.989034309,-80.3892881849999,490,"18151 SW 22ND STREET, MIRAMAR, FL, 33029","Match","Exact","18151 SW 22ND ST, MIRAMAR, FL, 33029",114777590,"R"
91991,"18153 ROSITA STREET","TARZANA","CA",91356,34.157567323,-118.528697115,491,"18153 ROSITA STREET, TARZANA, CA, 91356","Match","Exact","18153 ROSITA ST, TARZANA, CA, 91356",141555927,"R"
91992,"18155 W SELLS DR","GOODYEAR","AZ",85395,33.499870967,-112.450135539,492,"18155 W SELLS DR, GOODYEAR, AZ, 85395","Match","Exact","18155 W SELLS DR, GOODYEAR, AZ, 85395",618471153,"L"
91993,"18158 AUTUMN RIDGE DRIVE","ORLAND PAKR","IL",60467,41.5605091400001,-87.8932467239999,493,"18158 AUTUMN RIDGE DRIVE, ORLAND PAKR, IL, 60467","Match","Non_Exact","18158 AUTUMN RIDGE DR, ORLAND PARK, IL, 60467",112388131,"R"
91994,"18159 WOODSIDE TR","JUPITER","FL",33458,26.9434840050001,-80.106222456,494,"18159 WOODSIDE TR, JUPITER, FL, 33458","Match","Exact","18159 WOODSIDE TRL, JUPITER, FL, 33458",115261121,"R"
91995,"1816 14TH ST","OAKLAND","CA",94607,37.8138177070001,-122.298831145,495,"1816 14TH ST, OAKLAND, CA, 94607","Match","Exact","1816 14TH ST, OAKLAND, CA, 94607",651864944,"L"
91996,"1816 19TH PL","VERO BEACH","FL",32960,27.6376799290001,-80.404119678,496,"1816 19TH PL, VERO BEACH, FL, 32960","Match","Exact","1816 19TH PL, VERO BEACH, FL, 32960",610940640,"R"
91997,"1816 83RD STREET","KENOSHA","WI",53143,42.554593117,-87.8305952539999,497,"1816 83RD STREET, KENOSHA, WI, 53143","Match","Exact","1816 83RD ST, KENOSHA, WI, 53143",79809002,"R"
91998,"1816 ABILENE CT","ELIZABETH","CO",80107,39.312239392,-104.628877395,498,"1816 ABILENE CT, ELIZABETH, CO, 80107","Match","Exact","1816 ABILENE CT, ELIZABETH, CO, 80107",130876100,"L"
91999,"1816 ASHBOROUGH RD SE UNIT A","MARIETTA","FL",30067,NA,NA,499,"1816 ASHBOROUGH RD SE UNIT A, MARIETTA, FL, 30067","No_Match",NA,NA,NA,NA
92000,"1816 BRYANT STREET NE","WASHINGTON","DC",20018,38.921299515,-76.977945604,500,"1816 BRYANT STREET NE, WASHINGTON, DC, 20018","Match","Exact","1816 BRYANT ST NE, WASHINGTON, DC, 20018",649878408,"L"
