"ID","Address","City","State","Zip","lat","long","id","input_address","match_indicator","match_type","matched_address","tiger_line_id","tiger_side"
215501,"4450 BEECHCRAFT ROAD","ROBSTOWN","TX",78380,27.7606575840001,-97.71948148,1,"4450 BEECHCRAFT ROAD, ROBSTOWN, TX, 78380","Match","Non_Exact","4450 BEECHCRAFT ST, ROBSTOWN, TX, 78380",640814347,"L"
215502,"4450 CALIBRE XING SUITE 1126","ACWORTH","GA",30101,NA,NA,2,"4450 CALIBRE XING SUITE 1126, ACWORTH, GA, 30101","No_Match",NA,NA,NA,NA
215503,"4450 DYESS BLVD BLDG 42","NELLIS AFB","NV",89191,NA,NA,3,"4450 DYESS BLVD BLDG 42, NELLIS AFB, NV, 89191","No_Match",NA,NA,NA,NA
215504,"4450 E FLETCHER AVE STE C","TAMPA","FL",33613,NA,NA,4,"4450 E FLETCHER AVE STE C, TAMPA, FL, 33613","No_Match",NA,NA,NA,NA
215505,"4450 EAST BLACKHORSE PIKE","MAYS LANDING","NJ",8330,39.4520439830001,-74.646176033,5,"4450 EAST BLACKHORSE PIKE, MAYS LANDING, NJ, 8330","Match","Non_Exact","4450 BLACK HORSE PIKE, MAYS LANDING, NJ, 08330",202531692,"L"
215506,"4450 GIN PLANTATION DRIVE","SNELLVILLE","GA",30039,33.7810461560001,-84.017797935,6,"4450 GIN PLANTATION DRIVE, SNELLVILLE, GA, 30039","Match","Exact","4450 GIN PLANTATION DR, SNELLVILLE, GA, 30039",88904400,"L"
215507,"4450 HARDEN BLVD","LAKELAND","FL",33813,27.9844200480001,-81.97325361,7,"4450 HARDEN BLVD, LAKELAND, FL, 33813","Match","Exact","4450 HARDEN BLVD, LAKELAND, FL, 33813",653202372,"L"
215508,"4450 JEBEL STREET","DENVER","CO",80249,39.7788150280001,-104.74956808,8,"4450 JEBEL STREET, DENVER, CO, 80249","Match","Exact","4450 JEBEL ST, DENVER, CO, 80249",177369119,"L"
215509,"4450 KELLOG RD","PHRUMP","NV",89176,NA,NA,9,"4450 KELLOG RD, PHRUMP, NV, 89176","No_Match",NA,NA,NA,NA
215510,"4450 MILL BRANCH DR","PROSPER","TX",75078,NA,NA,10,"4450 MILL BRANCH DR, PROSPER, TX, 75078","No_Match",NA,NA,NA,NA
215511,"4450 N 12TH STREET  256","PHOENIX","AZ",85014,33.500991008,-112.056300394,11,"4450 N 12TH STREET  256, PHOENIX, AZ, 85014","Match","Non_Exact","4450 N 12TH ST, PHOENIX, AZ, 85014",128919051,"L"
215512,"4450 N LAKE DR","SHOREWOOD","WI",53211,43.0971761860001,-87.877816807,12,"4450 N LAKE DR, SHOREWOOD, WI, 53211","Match","Exact","4450 N LAKE DR, SHOREWOOD, WI, 53211",77743992,"R"
215513,"4450 NE 501 RD","OSCEOLA","MO",64776,NA,NA,13,"4450 NE 501 RD, OSCEOLA, MO, 64776","No_Match",NA,NA,NA,NA
215514,"4450 NORTHAVEN RD","DALLAS","TX",75229,32.902222394,-96.832358884,14,"4450 NORTHAVEN RD, DALLAS, TX, 75229","Match","Exact","4450 NORTHAVEN RD, DALLAS, TX, 75229",102899386,"R"
215515,"4450 OAKWOOD LANE","MATTESON","IL",60443,41.510962482,-87.725450788,15,"4450 OAKWOOD LANE, MATTESON, IL, 60443","Match","Exact","4450 OAKWOOD LN, MATTESON, IL, 60443",111708157,"L"
215516,"4450 PELICANS NEST DRIVE","BONITA SPRINGS","FL",34134,26.3705246320001,-81.826648269,16,"4450 PELICANS NEST DRIVE, BONITA SPRINGS, FL, 34134","Match","Exact","4450 PELICANS NEST DR, BONITA SPGS, FL, 34134",118114489,"R"
215517,"4450 PORTAGE TRAIL","MELBOURNE","FL",32940,28.197030829,-80.7040506989999,17,"4450 PORTAGE TRAIL, MELBOURNE, FL, 32940","Match","Exact","4450 PORTAGE TRL, MELBOURNE, FL, 32940",93956394,"R"
215518,"4450 RIDGEVILLE STREET","LAS VEGAS","NV",89103,36.10804175,-115.229442779,18,"4450 RIDGEVILLE STREET, LAS VEGAS, NV, 89103","Match","Exact","4450 RIDGEVILLE ST, LAS VEGAS, NV, 89103",201862637,"L"
215519,"4450 RIHANNA RIVER WAY NO 3440","FAIRFAX","VA",22030,NA,NA,19,"4450 RIHANNA RIVER WAY NO 3440, FAIRFAX, VA, 22030","No_Match",NA,NA,NA,NA
215520,"4450 RIVANNA RIVER WAY NUM 3712","FAIRFAX","VA",22030,NA,NA,20,"4450 RIVANNA RIVER WAY NUM 3712, FAIRFAX, VA, 22030","No_Match",NA,NA,NA,NA
215521,"4450 S HIGHWAY 29","MORELAND","GA",30259,33.252381413,-84.7879608759999,21,"4450 S HIGHWAY 29, MORELAND, GA, 30259","Match","Non_Exact","4450 US HWY 29, MORELAND, GA, 30259",9323832,"R"
215522,"4450 STONEGATE CT","WEST BLOOMFIELD","MI",48323,42.5744365370001,-83.346423224,22,"4450 STONEGATE CT, WEST BLOOMFIELD, MI, 48323","Match","Exact","4450 STONEGATE CT, W BLOOMFIELD, MI, 48323",69725887,"R"
215523,"4450 SYRACUSE STREET","DEARBORN HEIGHTS","MI",48125,42.277679473,-83.2667287849999,23,"4450 SYRACUSE STREET, DEARBORN HEIGHTS, MI, 48125","Match","Exact","4450 SYRACUSE ST, DEARBORN HEIGHTS, MI, 48125",95436592,"R"
215524,"44501 AVENIDA DEL PLAYA","LANCASTER","CA",93535,34.6917004370001,-118.08742695,24,"44501 AVENIDA DEL PLAYA, LANCASTER, CA, 93535","Match","Exact","44501 AVE DEL PLAYA, LANCASTER, CA, 93535",141833170,"R"
215525,"44507 MANITOU DRIVE","CLINTON TOWNSHIP","MI",48038,42.6259161140001,-82.927019924,25,"44507 MANITOU DRIVE, CLINTON TOWNSHIP, MI, 48038","Match","Exact","44507 MANITOU DR, CLINTON TOWNSHIP, MI, 48038",110692093,"R"
215526,"44507 SEACROFT","LANCASTER","CA",93535,NA,NA,26,"44507 SEACROFT, LANCASTER, CA, 93535","No_Match",NA,NA,NA,NA
215527,"4451 BOSTON AVE","SAN DIEGO","CA",92114,32.6932175910001,-117.09900076,27,"4451 BOSTON AVE, SAN DIEGO, CA, 92114","Match","Non_Exact","4451 BOSTON AVE, SAN DIEGO, CA, 92113",612874760,"R"
215528,"4451 CHERRY VALLEY TURNPIKE","LAFAYETTE","NY",13084,42.908986074,-76.211460126,28,"4451 CHERRY VALLEY TURNPIKE, LAFAYETTE, NY, 13084","Match","Non_Exact","4451 CHERRY VALLEY TPKE, LA FAYETTE, NY, 13084",46566142,"L"
215529,"4451 DON RICARDO DR","LOS ANGELES","CA",90008,34.0102650790001,-118.350486104,29,"4451 DON RICARDO DR, LOS ANGELES, CA, 90008","Match","Exact","4451 DON RICARDO DR, LOS ANGELES, CA, 90008",640418214,"R"
215530,"4451 DON RICARDO DRIVE  SUITE 7","LOS ANGELES","CA",90008,NA,NA,30,"4451 DON RICARDO DRIVE  SUITE 7, LOS ANGELES, CA, 90008","No_Match",NA,NA,NA,NA
215531,"4451 S INDIANA AVENUE UNIT 1S","CHICAGO","IL",60653,NA,NA,31,"4451 S INDIANA AVENUE UNIT 1S, CHICAGO, IL, 60653","No_Match",NA,NA,NA,NA
215532,"44513 JAPALA PL","FREMONT","CA",94539,37.5137351830001,-121.921746969,32,"44513 JAPALA PL, FREMONT, CA, 94539","Match","Exact","44513 JAPALA PL, FREMONT, CA, 94539",649952256,"R"
215533,"4452 ENSENADA ST","DENVER","CO",80249,39.7760945960001,-104.76033151,33,"4452 ENSENADA ST, DENVER, CO, 80249","Match","Exact","4452 ENSENADA ST, DENVER, CO, 80249",177352238,"R"
215534,"4452 ENSIGN AVE APT 204","TOLUCA LAKE","CA",91602,34.151709952,-118.371151824,34,"4452 ENSIGN AVE APT 204, TOLUCA LAKE, CA, 91602","Match","Exact","4452 ENSIGN AVE, TOLUCA LAKE, CA, 91602",141591848,"R"
215535,"4452 FM 1446","WAXAHACHIE","TX",75167,32.3519605270001,-96.971821142,35,"4452 FM 1446, WAXAHACHIE, TX, 75167","Match","Exact","4452 FM 1446, WAXAHACHIE, TX, 75167",637067989,"L"
215536,"4452 JOCELYN STREET","SAN DIEGO","CA",92105,32.7265224870001,-117.099636895,36,"4452 JOCELYN STREET, SAN DIEGO, CA, 92105","Match","Exact","4452 JOCELYN ST, SAN DIEGO, CA, 92105",195347597,"L"
215537,"4452 LOCHURST DR","PFAFFTOWN","NC",27040,36.1599658170001,-80.3584498069999,37,"4452 LOCHURST DR, PFAFFTOWN, NC, 27040","Match","Exact","4452 LOCHURST DR, PFAFFTOWN, NC, 27040",84637126,"L"
215538,"4452 PARK BLVD SUITE 204","SAN DIEGO","CA",92116,32.7582451210001,-117.146263776,38,"4452 PARK BLVD SUITE 204, SAN DIEGO, CA, 92116","Match","Exact","4452 PARK BLVD, SAN DIEGO, CA, 92116",612889969,"L"
215539,"4452 S FORTUNA WAY","SALT LAKE CITY","UT",84124,40.6745931460001,-111.793109722,39,"4452 S FORTUNA WAY, SALT LAKE CITY, UT, 84124","Match","Exact","4452 S FORTUNA WAY, SALT LAKE CITY, UT, 84124",176095220,"R"
215540,"4452 WINDSOR CT APT 202","SWARTZ CREEK","MI",48473,42.9587832350001,-83.839612968,40,"4452 WINDSOR CT APT 202, SWARTZ CREEK, MI, 48473","Match","Exact","4452 WINDSOR CT, SWARTZ CREEK, MI, 48473",612232912,"L"
215541,"44525 OLD HWY 80 BOX347","JACUMBA","CA",91934,32.616966156,-116.190775631,41,"44525 OLD HWY 80 BOX347, JACUMBA, CA, 91934","Match","Non_Exact","44525 OLD HWY 80, JACUMBA, CA, 91934",195272698,"R"
215542,"4453 BELAIR RD","BALTIMORE","MD",21207,39.330148513,-76.5629001839999,42,"4453 BELAIR RD, BALTIMORE, MD, 21207","Match","Non_Exact","4453 BELAIR RD, BALTIMORE, MD, 21206",647415662,"R"
215543,"4453 MOCKINGBIRD LN","DALLAS","TX",75205,32.836608869,-96.812358187,43,"4453 MOCKINGBIRD LN, DALLAS, TX, 75205","Match","Exact","4453 MOCKINGBIRD LN, DALLAS, TX, 75205",102906580,"L"
215544,"4453 RUTLEDGE DRIVE","PALM HARBOR","FL",34685,28.115247744,-82.716812007,44,"4453 RUTLEDGE DRIVE, PALM HARBOR, FL, 34685","Match","Exact","4453 RUTLEDGE DR, PALM HARBOR, FL, 34685",124772142,"L"
215545,"4453 YATES ST","DENVER","CO",80212,39.7775299140001,-105.050921867,45,"4453 YATES ST, DENVER, CO, 80212","Match","Exact","4453 YATES ST, DENVER, CO, 80212",177299331,"L"
215546,"4454 ARENDO DR","SAN DIEGO","CA",92115,32.7588047190001,-117.061612298,46,"4454 ARENDO DR, SAN DIEGO, CA, 92115","Match","Exact","4454 ARENDO DR, SAN DIEGO, CA, 92115",195700670,"L"
215547,"4454 CARTER AVENUE","SAINT LOUIS","MO",63115,38.6783729900001,-90.232337472,47,"4454 CARTER AVENUE, SAINT LOUIS, MO, 63115","Match","Exact","4454 CARTER AVE, SAINT LOUIS, MO, 63115",605097516,"L"
215548,"4454 FELTON STREET","SAN DIEGO","CA",92116,32.7582077710001,-117.121104495,48,"4454 FELTON STREET, SAN DIEGO, CA, 92116","Match","Exact","4454 FELTON ST, SAN DIEGO, CA, 92116",195345627,"L"
215549,"4454 GLENSCAPE LN SE","SOUTHPORT","NC",28461,33.928144,-78.137938834,49,"4454 GLENSCAPE LN SE, SOUTHPORT, NC, 28461","Match","Exact","4454 GLENSCAPE LN SE, SOUTHPORT, NC, 28461",153177673,"R"
215550,"4454 JORDAN CREEK DR","HERNANDO","MS",38632,34.796132797,-89.85468145,50,"4454 JORDAN CREEK DR, HERNANDO, MS, 38632","Match","Exact","4454 JORDAN CREEK DR, HERNANDO, MS, 38632",91853202,"L"
215551,"4454 LEE ROAD 166","OPELIKA","AL",36804,32.528888206,-85.3385963269999,51,"4454 LEE ROAD 166, OPELIKA, AL, 36804","Match","Exact","4454 LEE ROAD 166, OPELIKA, AL, 36804",1600632,"L"
215552,"4454 LEISURE LANE DR","DIAMONDHEAD","MS",39525,NA,NA,52,"4454 LEISURE LANE DR, DIAMONDHEAD, MS, 39525","No_Match",NA,NA,NA,NA
215553,"4454 MAKI RD","BROOKSTON","MN",55711,46.8374270480001,-92.72248706,53,"4454 MAKI RD, BROOKSTON, MN, 55711","Match","Exact","4454 MAKI RD, BROOKSTON, MN, 55711",635562809,"R"
215554,"4454 PINE RIDGE DR","BUSHKILL","PA",18324,41.1561097270001,-74.987080296,54,"4454 PINE RIDGE DR, BUSHKILL, PA, 18324","Match","Non_Exact","4454 PINE RIDGE DR E, BUSHKILL, PA, 18324",191406207,"R"
215555,"4454 TAHOE CIRCLE DR","SPRINGDALE","AR",72762,36.1526981230001,-94.164287087,55,"4454 TAHOE CIRCLE DR, SPRINGDALE, AR, 72762","Match","Exact","4454 TAHOE CIRCLE DR, SPRINGDALE, AR, 72762",49088724,"L"
215556,"44544 BIRCH LEAF RD","GREY EAGLE","MN",56336,45.7672326810001,-94.807711577,56,"44544 BIRCH LEAF RD, GREY EAGLE, MN, 56336","Match","Exact","44544 BIRCH LEAF RD, GREY EAGLE, MN, 56336",107416256,"R"
215557,"44545 HARMONY LANE","BELLEVILLE","MI",48111,42.2160542830001,-83.4779387569999,57,"44545 HARMONY LANE, BELLEVILLE, MI, 48111","Match","Exact","44545 HARMONY LN, BELLEVILLE, MI, 48111",95410347,"L"
215558,"4455 50TH STREET APT  2","SAN DIEGO","CA",92115,32.7579754450001,-117.086805819,58,"4455 50TH STREET APT  2, SAN DIEGO, CA, 92115","Match","Exact","4455 50TH ST, SAN DIEGO, CA, 92115",195350014,"R"
215559,"4455 ADONIS DR","MILLCREEK","UT",84124,40.6754330860001,-111.785622852,59,"4455 ADONIS DR, MILLCREEK, UT, 84124","Match","Exact","4455 ADONIS DR, MILLCREEK, UT, 84124",176150298,"L"
215560,"4455 ANDERSON MILL RD","MOORE","SC",29369,34.9014530160001,-82.006871173,60,"4455 ANDERSON MILL RD, MOORE, SC, 29369","Match","Exact","4455 ANDERSON MILL RD, MOORE, SC, 29369",19479289,"R"
215561,"4455 ANDERSON MILL ROAD","MOORE","SC",29369,34.9014530160001,-82.006871173,61,"4455 ANDERSON MILL ROAD, MOORE, SC, 29369","Match","Exact","4455 ANDERSON MILL RD, MOORE, SC, 29369",19479289,"R"
215562,"4455 ARDEN WAY","SACRAMENTOA","CA",95864,38.595482018,-121.359907105,62,"4455 ARDEN WAY, SACRAMENTOA, CA, 95864","Match","Non_Exact","4455 ARDEN WAY, SACRAMENTO, CA, 95864",133339056,"L"
215563,"4455 ASHBERRY PINE LN","KATY","TX",77449,29.8372266050001,-95.740304707,63,"4455 ASHBERRY PINE LN, KATY, TX, 77449","Match","Exact","4455 ASHBERRY PINE LN, KATY, TX, 77449",650480810,"L"
215564,"4455 CAMP BOWIE BLVD 114-224","FT WORTH","TX",76107,32.741239009,-97.385293777,64,"4455 CAMP BOWIE BLVD 114-224, FT WORTH, TX, 76107","Match","Exact","4455 CAMP BOWIE BLVD, FORT WORTH, TX, 76107",101881194,"L"
215565,"4455 CAMP BOWIE BLVD PMB 109","FORT WORTH","TX",76107,32.741239009,-97.385293777,65,"4455 CAMP BOWIE BLVD PMB 109, FORT WORTH, TX, 76107","Match","Exact","4455 CAMP BOWIE BLVD, FORT WORTH, TX, 76107",101881194,"L"
215566,"4455 CAMP BOWIE BLVD STE 114 909","FORT WORTH","TX",76107,32.741239009,-97.385293777,66,"4455 CAMP BOWIE BLVD STE 114 909, FORT WORTH, TX, 76107","Match","Exact","4455 CAMP BOWIE BLVD, FORT WORTH, TX, 76107",101881194,"L"
215567,"4455 CAMP BOWIE BLVD SUITE 230","FORT WORTH","TX",76107,32.741239009,-97.385293777,67,"4455 CAMP BOWIE BLVD SUITE 230, FORT WORTH, TX, 76107","Match","Exact","4455 CAMP BOWIE BLVD, FORT WORTH, TX, 76107",101881194,"L"
215568,"4455 CAMP BOWIE BOULEVARD SUITE 114","FORT WORTH","TX",76107,32.741239009,-97.385293777,68,"4455 CAMP BOWIE BOULEVARD SUITE 114, FORT WORTH, TX, 76107","Match","Exact","4455 CAMP BOWIE BLVD, FORT WORTH, TX, 76107",101881194,"L"
215569,"4455 CHERRY CT ST D","COTTONDALE","FL",32431,30.890081089,-85.3997257629999,69,"4455 CHERRY CT ST D, COTTONDALE, FL, 32431","Match","Exact","4455 CHERRY CT, COTTONDALE, FL, 32431",7190350,"L"
215570,"4455 COUNTY ROAD 702","FARMERSVILLE","TX",75442,33.221245794,-96.314644825,70,"4455 COUNTY ROAD 702, FARMERSVILLE, TX, 75442","Match","Exact","4455 CO RD 702, FARMERSVILLE, TX, 75442",642473484,"L"
215571,"4455 E CAMELBACK SUITE C140","PHOENIX","AZ",85018,NA,NA,71,"4455 E CAMELBACK SUITE C140, PHOENIX, AZ, 85018","No_Match",NA,NA,NA,NA
215572,"4455 EL PASO","BEAUMONT","TX",77703,30.1204604540001,-94.133620749,72,"4455 EL PASO, BEAUMONT, TX, 77703","Match","Non_Exact","4455 EL PASO AVE, BEAUMONT, TX, 77703",73850205,"L"
215573,"4455 FARM VIEW COURT","BETHLEHEM","PA",18020,40.6519797810001,-75.305848095,73,"4455 FARM VIEW COURT, BETHLEHEM, PA, 18020","Match","Exact","4455 FARM VIEW CT, BETHLEHEM, PA, 18020",136895853,"L"
215574,"4455 GALWAY DR","WINTERVILLE","NC",28590,35.5428329010001,-77.377628774,74,"4455 GALWAY DR, WINTERVILLE, NC, 28590","Match","Exact","4455 GALWAY DR, WINTERVILLE, NC, 28590",637649056,"L"
215575,"4455 HUCKLEBERRY DRIVE BOX 987","CARNELIAN BAY","CA",96140,39.214633,-120.090864411,75,"4455 HUCKLEBERRY DRIVE BOX 987, CARNELIAN BAY, CA, 96140","Match","Exact","4455 HUCKLEBERRY DR, CARNELIAN BAY, CA, 96140",106789317,"L"
215576,"4455 HWY 10 WEST","MISSOULA","MT",59808,NA,NA,76,"4455 HWY 10 WEST, MISSOULA, MT, 59808","No_Match",NA,NA,NA,NA
215577,"4455 N PASEO DE LOS RAMCHEROS","TUCSON","AZ",85745,32.287911928,-111.07080558,77,"4455 N PASEO DE LOS RAMCHEROS, TUCSON, AZ, 85745","Match","Non_Exact","4455 N PSO DE LOS RANCHEROS, TUCSON, AZ, 85745",121158769,"L"
215578,"4455 NAUTILUS DRIVE","MIAMI BEACH","FL",33140,25.8186577910001,-80.135058258,78,"4455 NAUTILUS DRIVE, MIAMI BEACH, FL, 33140","Match","Exact","4455 NAUTILUS DR, MIAMI BEACH, FL, 33140",116008795,"R"
215579,"4455 NORTH 6TH STREET","PHILADELHIA","PA",19140,40.019249691,-75.136879893,79,"4455 NORTH 6TH STREET, PHILADELHIA, PA, 19140","Match","Non_Exact","4455 N 6TH ST, PHILADELPHIA, PA, 19140",131441062,"R"
215580,"4455 NORTHSIDE PARKWAY UNIT 359","ATLANTA","GA",30327,33.866796869,-84.453121363,80,"4455 NORTHSIDE PARKWAY UNIT 359, ATLANTA, GA, 30327","Match","Non_Exact","4455 NORTHSIDE PKWY NW, ATLANTA, GA, 30327",17416441,"R"
215581,"4455 RUBY RD","FAYETTEVILLE","NC",28311,35.125531305,-78.916506096,81,"4455 RUBY RD, FAYETTEVILLE, NC, 28311","Match","Exact","4455 RUBY RD, FAYETTEVILLE, NC, 28311",64258006,"L"
215582,"4455 SAUK TRAIL","RICHTON PARK","IL",60471,41.48430225,-87.7241815,82,"4455 SAUK TRAIL, RICHTON PARK, IL, 60471","Match","Exact","4455 SAUK TRL, RICHTON PARK, IL, 60471",635233869,"L"
215583,"4455 SOUTH OAKENWALD AVENUE SUITE 1","CHICAGO","IL",60653,41.8139430840001,-87.595250623,83,"4455 SOUTH OAKENWALD AVENUE SUITE 1, CHICAGO, IL, 60653","Match","Exact","4455 S OAKENWALD AVE, CHICAGO, IL, 60653",605500294,"L"
215584,"4455 SPLIT CREEK DRIVE","DOUGLASVILLE","GA",30135,33.684055658,-84.67210305,84,"4455 SPLIT CREEK DRIVE, DOUGLASVILLE, GA, 30135","Match","Exact","4455 SPLIT CREEK DR, DOUGLASVILLE, GA, 30135",619846249,"L"
215585,"4455 SW 34TH ST APT A7","GAINESVILLE","FL",32608,29.6131579410001,-82.371735682,85,"4455 SW 34TH ST APT A7, GAINESVILLE, FL, 32608","Match","Non_Exact","4455 SW 34TH ST, GAINESVILLE, FL, 32608",638636527,"R"
215586,"4455 UNIVERSITY DR ROOM 256","HOUSTON","TX",77204,NA,NA,86,"4455 UNIVERSITY DR ROOM 256, HOUSTON, TX, 77204","No_Match",NA,NA,NA,NA
215587,"4455 VANTAGE LANE","PALM SPRINGS","CA",92262,33.833017727,-116.497413403,87,"4455 VANTAGE LANE, PALM SPRINGS, CA, 92262","Match","Exact","4455 VANTAGE LN, PALM SPRINGS, CA, 92262",629671327,"L"
215588,"4455 VILLAGE LAKE DR SE - PO 174","PRIOR LAKE","MN",55372,NA,NA,88,"4455 VILLAGE LAKE DR SE - PO 174, PRIOR LAKE, MN, 55372","No_Match",NA,NA,NA,NA
215589,"44557 NITCHE LAKE ROAD","PERHAM","MN",56573,46.6034464460001,-95.479263755,89,"44557 NITCHE LAKE ROAD, PERHAM, MN, 56573","Match","Exact","44557 NITCHE LAKE RD, PERHAM, MN, 56573",168346271,"L"
215590,"4456 31ST AVE S","MINNEAPOLIS","MN",55406,44.922252601,-93.22705584,90,"4456 31ST AVE S, MINNEAPOLIS, MN, 55406","Match","Exact","4456 31ST AVE S, MINNEAPOLIS, MN, 55406",43640335,"R"
215591,"4456 HWY 29 NORTH","MOLINO","FL",32577,NA,NA,91,"4456 HWY 29 NORTH, MOLINO, FL, 32577","No_Match",NA,NA,NA,NA
215592,"4456 JENWOOD ST","LADSON","SC",29456,33.0011861080001,-80.129558991,92,"4456 JENWOOD ST, LADSON, SC, 29456","Match","Exact","4456 JENWOOD ST, LADSON, SC, 29456",108796035,"L"
215593,"4456 MARSALIS AVENUE","DALLAS","TX",75216,32.6902200430001,-96.8145911129999,93,"4456 MARSALIS AVENUE, DALLAS, TX, 75216","Match","Non_Exact","4456 S MARSALIS AVE, DALLAS, TX, 75216",102951555,"L"
215594,"4456 MASON DIXON HWY","CORE","WV",26541,39.712729215,-80.157562367,94,"4456 MASON DIXON HWY, CORE, WV, 26541","Match","Exact","4456 MASON DIXON HWY, CORE, WV, 26541",648339778,"R"
215595,"4456 SOTH ZINNIA STREET","MORRISON","CO",80465,NA,NA,95,"4456 SOTH ZINNIA STREET, MORRISON, CO, 80465","No_Match",NA,NA,NA,NA
215596,"4456 WALNUT RIDGE CIRCLE","MCDONALD","PA",15057,40.3690301410001,-80.182200032,96,"4456 WALNUT RIDGE CIRCLE, MCDONALD, PA, 15057","Match","Non_Exact","4456 WALNUT RIDGE CIR, MC DONALD, PA, 15057",649974886,"L"
215597,"4457 COVINGTON HIGHWAY","DECATUR","GA",30035,33.7474402010001,-84.222751397,97,"4457 COVINGTON HIGHWAY, DECATUR, GA, 30035","Match","Exact","4457 COVINGTON HWY, DECATUR, GA, 30035",23404352,"R"
215598,"4457 FAIRWAY DR","FORT GRATIOT","MI",48059,43.0384175130001,-82.446105979,98,"4457 FAIRWAY DR, FORT GRATIOT, MI, 48059","Match","Exact","4457 FAIRWAY DR, FORT GRATIOT, MI, 48059",110968235,"L"
215599,"4457 PECAN VALLEY RD","NASHVILLE","TN",37218,36.2203847270001,-86.9242102919999,99,"4457 PECAN VALLEY RD, NASHVILLE, TN, 37218","Match","Exact","4457 PECAN VALLEY RD, NASHVILLE, TN, 37218",97217845,"L"
215600,"4457 TRESCOTT DR","ORLANDO","FL",32817,28.6058639020001,-81.2523028049999,100,"4457 TRESCOTT DR, ORLANDO, FL, 32817","Match","Exact","4457 TRESCOTT DR, ORLANDO, FL, 32817",94392839,"R"
215601,"4458 CITY HWY Y","SAUKVILLE","WI",53080,NA,NA,101,"4458 CITY HWY Y, SAUKVILLE, WI, 53080","No_Match",NA,NA,NA,NA
215602,"4458 KANSAS STREET 2","SAN DIEGO","CA",92116,32.7583612550001,-117.131419412,102,"4458 KANSAS STREET 2, SAN DIEGO, CA, 92116","Match","Exact","4458 KANSAS ST, SAN DIEGO, CA, 92116",195345507,"L"
215603,"4458 LEGENDARY DRIVE SUITE 100","DESTIN","FL",32541,30.39280976,-86.4235060409999,103,"4458 LEGENDARY DRIVE SUITE 100, DESTIN, FL, 32541","Match","Exact","4458 LEGENDARY DR, DESTIN, FL, 32541",640812062,"R"
215604,"4458 MARSHWOOD DRIVE","MYRTLE BEACH","SC",29579,NA,NA,104,"4458 MARSHWOOD DRIVE, MYRTLE BEACH, SC, 29579","No_Match",NA,NA,NA,NA
215605,"4458 NORTH ROAD","LEWIS CENTER","OH",43035,NA,NA,105,"4458 NORTH ROAD, LEWIS CENTER, OH, 43035","No_Match",NA,NA,NA,NA
215606,"4458 POSTERITY CT BUILDING C","GASTONIA","NC",28056,35.223367624,-81.1136816429999,106,"4458 POSTERITY CT BUILDING C, GASTONIA, NC, 28056","Match","Exact","4458 POSTERITY CT, GASTONIA, NC, 28056",70411274,"R"
215607,"4458 STOWE HOLLOW RD","STOWE","VT",5672,44.412290913,-72.6818601109999,107,"4458 STOWE HOLLOW RD, STOWE, VT, 5672","Match","Exact","4458 STOWE HOLLOW RD, STOWE, VT, 05672",653621946,"L"
215608,"4458 WEST FUQUA SUITE 120","HOUSTON","TX",77045,29.6133610860001,-95.444589777,108,"4458 WEST FUQUA SUITE 120, HOUSTON, TX, 77045","Match","Non_Exact","4458 W FUQUA ST, HOUSTON, TX, 77045",644744427,"R"
215609,"4458 WESTLAKE COURT","BEL AIRE","KS",67220,37.7640335230001,-97.276190823,109,"4458 WESTLAKE COURT, BEL AIRE, KS, 67220","Match","Exact","4458 WESTLAKE CT, BEL AIRE, KS, 67220",115681322,"L"
215610,"4458 YOSEMITE PARK WAY","SNELLVILLE","GA",30039,33.7810465310001,-84.030476817,110,"4458 YOSEMITE PARK WAY, SNELLVILLE, GA, 30039","Match","Exact","4458 YOSEMITE PARK WAY, SNELLVILLE, GA, 30039",624242063,"L"
215611,"44580 VERBENA DRIVE","LA QUINTA","CA",92253,33.724703456,-116.275264567,111,"44580 VERBENA DRIVE, LA QUINTA, CA, 92253","Match","Exact","44580 VERBENA DR, LA QUINTA, CA, 92253",195090880,"R"
215612,"44589 LARIAT TRAIL","ELIZABETH","CO",80107,39.5141001910001,-104.506016953,112,"44589 LARIAT TRAIL, ELIZABETH, CO, 80107","Match","Exact","44589 LARIAT TRL, ELIZABETH, CO, 80107",130875673,"R"
215613,"4459 1/2 LOUISIANA ST","SAN DIEGO","CA",92116,32.7583404850001,-117.14006535,113,"4459 1/2 LOUISIANA ST, SAN DIEGO, CA, 92116","Match","Exact","4459 LOUISIANA ST, SAN DIEGO, CA, 92116",195345184,"R"
215614,"4459 HOME  STE 3","SAN DIEGO","CA",92105,NA,NA,114,"4459 HOME  STE 3, SAN DIEGO, CA, 92105","No_Match",NA,NA,NA,NA
215615,"4459 PALA RD","OCEANSIDE","CA",92057,33.2379751130001,-117.302200793,115,"4459 PALA RD, OCEANSIDE, CA, 92057","Match","Exact","4459 PALA RD, OCEANSIDE, CA, 92057",629553344,"R"
215616,"4459 RAINTREE ROAD","INDIANAPOLIS","IN",46234,39.8291906170001,-86.331337242,116,"4459 RAINTREE ROAD, INDIANAPOLIS, IN, 46234","Match","Exact","4459 RAINTREE RD, INDIANAPOLIS, IN, 46234",629556148,"L"
215617,"4459 SANTA ANITA AVE","EL MONTE","CA",91731,34.0874400270001,-118.028125922,117,"4459 SANTA ANITA AVE, EL MONTE, CA, 91731","Match","Exact","4459 SANTA ANITA AVE, EL MONTE, CA, 91731",241130175,"R"
215618,"4459 TERRY RD","TERRY","MS",39170,NA,NA,118,"4459 TERRY RD, TERRY, MS, 39170","No_Match",NA,NA,NA,NA
215619,"44596 BAYVIEW AVE APT 27101","CLINTON TWP","MI",48038,42.6235498680001,-82.907982052,119,"44596 BAYVIEW AVE APT 27101, CLINTON TWP, MI, 48038","Match","Exact","44596 BAYVIEW AVE, CLINTON TOWNSHIP, MI, 48038",650041498,"L"
215620,"446 15TH ST SE","HURON","SD",57350,44.3489232360001,-98.206733567,120,"446 15TH ST SE, HURON, SD, 57350","Match","Exact","446 15TH ST SE, HURON, SD, 57350",201040232,"L"
215621,"446 2ND STREET","HARVEY","LA",70058,29.9061728510001,-90.0860410669999,121,"446 2ND STREET, HARVEY, LA, 70058","Match","Non_Exact","446 2ND AVE, HARVEY, LA, 70058",93506603,"R"
215622,"446 ALMOND AVE","LONG BEACH","CA",90802,33.7723749370001,-118.174698688,122,"446 ALMOND AVE, LONG BEACH, CA, 90802","Match","Exact","446 ALMOND AVE, LONG BEACH, CA, 90802",141694991,"R"
215623,"446 ARNETT BOULEVARD","DANVILLE","VA",24540,36.608779887,-79.397411296,123,"446 ARNETT BOULEVARD, DANVILLE, VA, 24540","Match","Exact","446 ARNETT BLVD, DANVILLE, VA, 24540",56664295,"R"
215624,"446 BLUE MOUNTAIN ROAD","WILKESBORO","NC",28697,36.102265689,-81.27137648,124,"446 BLUE MOUNTAIN ROAD, WILKESBORO, NC, 28697","Match","Non_Exact","446 BLUE MOUNTAIN DR, WILKESBORO, NC, 28697",611366943,"R"
215625,"446 BONNIE VALLEY DR","LEBANON","TN",37087,36.197840306,-86.3880301469999,125,"446 BONNIE VALLEY DR, LEBANON, TN, 37087","Match","Exact","446 BONNIE VALLEY, LEBANON, TN, 37087",89699767,"L"
215626,"446 BROOKSTONE DRVIE","LAGRANGE","GA",30241,33.061875512,-85.001766908,126,"446 BROOKSTONE DRVIE, LAGRANGE, GA, 30241","Match","Non_Exact","446 BROOKSTONE DR, LAGRANGE, GA, 30241",639865302,"R"
215627,"446 CAMILLE DRIVE","OSPREY","FL",34229,27.167641507,-82.4848077089999,127,"446 CAMILLE DRIVE, OSPREY, FL, 34229","Match","Exact","446 CAMILLE DR, OSPREY, FL, 34229",16374967,"L"
215628,"446 CAMINO DE LA SIERRA NE","ALBUQUERQUE","NM",87123,NA,NA,128,"446 CAMINO DE LA SIERRA NE, ALBUQUERQUE, NM, 87123","No_Match",NA,NA,NA,NA
215629,"446 CHAMPAGNE CIRCLE","PORT ORANGE","FL",32127,29.088449321,-80.99052504,129,"446 CHAMPAGNE CIRCLE, PORT ORANGE, FL, 32127","Match","Exact","446 CHAMPAGNE CIR, PORT ORANGE, FL, 32127",94559137,"R"
215630,"446 COUNTRY CLUB RD","DUBLIN","GA",31021,32.574551209,-82.90749685,130,"446 COUNTRY CLUB RD, DUBLIN, GA, 31021","Match","Exact","446 COUNTRY CLUB RD, DUBLIN, GA, 31021",100653285,"L"
215631,"446 E 149TH STREET SUITE 3A","BRONX","NY",10455,40.815410958,-73.916094594,131,"446 E 149TH STREET SUITE 3A, BRONX, NY, 10455","Match","Non_Exact","446 E 149TH ST, BRONX, NY, 10455",80300750,"R"
215632,"446 E SONOMA AVENUE","STOCKTON","CA",95204,37.98058595,-121.294182665,132,"446 E SONOMA AVENUE, STOCKTON, CA, 95204","Match","Exact","446 E SONOMA AVE, STOCKTON, CA, 95204",133849779,"R"
215633,"446 E WILSON STREET","ELY","MN",55731,47.8957995540001,-91.86140534,133,"446 E WILSON STREET, ELY, MN, 55731","Match","Exact","446 E WILSON ST, ELY, MN, 55731",163157628,"L"
215634,"446 EAST 86TH STREET","NEW YORK","NY",10028,40.7762494510001,-73.947892528,134,"446 EAST 86TH STREET, NEW YORK, NY, 10028","Match","Exact","446 E 86TH ST, NEW YORK, NY, 10028",650084313,"R"
215635,"446 FIELDLARK WAY","HARRODSBURG","KY",40330,37.7986665490001,-84.8551198929999,135,"446 FIELDLARK WAY, HARRODSBURG, KY, 40330","Match","Exact","446 FIELDLARK WAY, HARRODSBURG, KY, 40330",32612526,"L"
215636,"446 FREEDOM TRAIL","BRUNSWICK","GA",31525,31.2769565,-81.486726006,136,"446 FREEDOM TRAIL, BRUNSWICK, GA, 31525","Match","Exact","446 FREEDOM TRL, BRUNSWICK, GA, 31525",637422767,"L"
215637,"446 GOULDMAN ROAD","MONTGOMERY CITY","MO",63361,39.0315577310001,-91.4621716779999,137,"446 GOULDMAN ROAD, MONTGOMERY CITY, MO, 63361","Match","Exact","446 GOULDMAN RD, MONTGOMERY CITY, MO, 63361",40301225,"L"
215638,"446 GREEN STREET NW","GAINESVILLE","GA",30501,34.3012975080001,-83.8264954109999,138,"446 GREEN STREET NW, GAINESVILLE, GA, 30501","Match","Exact","446 GREEN ST NW, GAINESVILLE, GA, 30501",98249196,"L"
215639,"446 HIGHWAY 165","FORT MITCHELL","AL",36856,NA,NA,139,"446 HIGHWAY 165, FORT MITCHELL, AL, 36856","No_Match",NA,NA,NA,NA
215640,"446 KAVANAUGH LN","SULPHUR","KY",40070,38.4836029570001,-85.247699091,140,"446 KAVANAUGH LN, SULPHUR, KY, 40070","Match","Exact","446 KAVANAUGH LN, SULPHUR, KY, 40070",649789846,"L"
215641,"446 KINGSTON AVE APT E6","BROOKLYN","NY",11225,40.6637207960001,-73.942738918,141,"446 KINGSTON AVE APT E6, BROOKLYN, NY, 11225","Match","Exact","446 KINGSTON AVE, BROOKLYN, NY, 11225",59079793,"R"
215642,"446 KINGSTON AVE SUITE B5","BROOKLYN","NY",11225,40.6637207960001,-73.942738918,142,"446 KINGSTON AVE SUITE B5, BROOKLYN, NY, 11225","Match","Exact","446 KINGSTON AVE, BROOKLYN, NY, 11225",59079793,"R"
215643,"446 KIRMAN AVE B206","RENO","NV",89502,39.521210255,-119.798442269,143,"446 KIRMAN AVE B206, RENO, NV, 89502","Match","Exact","446 KIRMAN AVE, RENO, NV, 89502",107051961,"L"
215644,"446 MAIN ST","HUDSON","MA",1749,42.3941889130001,-71.5426633069999,144,"446 MAIN ST, HUDSON, MA, 1749","Match","Exact","446 MAIN ST, HUDSON, MA, 01749",86898482,"L"
215645,"446 MAIN STREET 8TH FL","WORCESTER","MA",1608,42.2636739010001,-71.802089969,145,"446 MAIN STREET 8TH FL, WORCESTER, MA, 1608","Match","Exact","446 MAIN ST, WORCESTER, MA, 01608",40010949,"R"
215646,"446 MANVILLE WISACKY ROAD","BISHOPVILLE","SC",29708,34.155927449,-80.288717559,146,"446 MANVILLE WISACKY ROAD, BISHOPVILLE, SC, 29708","Match","Non_Exact","446 MANVILLE WISACKY RD, BISHOPVILLE, SC, 29010",79599857,"R"
215647,"446 MULBERRY DRIVE","WALNUTPORT","PA",18088,40.740233948,-75.5622930219999,147,"446 MULBERRY DRIVE, WALNUTPORT, PA, 18088","Match","Exact","446 MULBERRY DR, WALNUTPORT, PA, 18088",136872906,"L"
215648,"446 N CAMPBELL AVE UNIT 5104","TUCSON","AZ",85719,NA,NA,148,"446 N CAMPBELL AVE UNIT 5104, TUCSON, AZ, 85719","Tie",NA,NA,NA,NA
215649,"446 N EASTERN BLVD","MONTGOMERY","AL",36117,NA,NA,149,"446 N EASTERN BLVD, MONTGOMERY, AL, 36117","No_Match",NA,NA,NA,NA
215650,"446 N HAMSHIRE RD","WINNIE","TX",77665,29.8645442970001,-94.384270543,150,"446 N HAMSHIRE RD, WINNIE, TX, 77665","Match","Exact","446 N HAMSHIRE RD, WINNIE, TX, 77665",95955677,"R"
215651,"446 N MACLAY AVE B","SAN FERNANDO","CA",91340,34.2870432350001,-118.436107886,151,"446 N MACLAY AVE B, SAN FERNANDO, CA, 91340","Match","Non_Exact","446 N MACLAY AVE, SAN FERNANDO, CA, 91340",141548011,"R"
215652,"446 N MAGNOLIA STREET","GRAMERCY","LA",70052,30.0539548680001,-90.6952733269999,152,"446 N MAGNOLIA STREET, GRAMERCY, LA, 70052","Match","Exact","446 N MAGNOLIA ST, GRAMERCY, LA, 70052",93664868,"R"
215653,"446 NE 72ND ST","MIAMI","FL",33138,25.8411816010001,-80.187239158,153,"446 NE 72ND ST, MIAMI, FL, 33138","Match","Exact","446 NE 72ND ST, MIAMI, FL, 33138",116006937,"R"
215654,"446 NORTH LIVE OAK STREET","HOUSTON","TX",77003,29.759392948,-95.3421158419999,154,"446 NORTH LIVE OAK STREET, HOUSTON, TX, 77003","Match","Exact","446 N LIVE OAK ST, HOUSTON, TX, 77003",96625558,"R"
215655,"446 OGDEN AVENUE","TEANECK","NJ",7666,40.904954092,-74.0139827309999,155,"446 OGDEN AVENUE, TEANECK, NJ, 7666","Match","Exact","446 OGDEN AVE, TEANECK, NJ, 07666",64388850,"L"
215656,"446 OIL TANK HILL RD","NORTHERN CAMBRIA","PA",15714,NA,NA,156,"446 OIL TANK HILL RD, NORTHERN CAMBRIA, PA, 15714","No_Match",NA,NA,NA,NA
215657,"446 OLD MAYFIELD RD","DANVILLE","VA",24541,36.5471484010001,-79.470917566,157,"446 OLD MAYFIELD RD, DANVILLE, VA, 24541","Match","Exact","446 OLD MAYFIELD RD, DANVILLE, VA, 24541",56621017,"L"
215658,"446 PARK RIDGE DR","MUNROE FALLS","OH",44262,41.1380559880001,-81.4232420009999,158,"446 PARK RIDGE DR, MUNROE FALLS, OH, 44262","Match","Exact","446 PARK RIDGE DR, MUNROE FALLS, OH, 44262",61351967,"R"
215659,"446 PARK ST","ELGIN","IL",60120,42.0407755950001,-88.2734382799999,159,"446 PARK ST, ELGIN, IL, 60120","Match","Exact","446 PARK ST, ELGIN, IL, 60120",119503034,"L"
215660,"446 ROBINS EGG DR","COLUMBIA","SC",29229,34.1625677650001,-80.9450176409999,160,"446 ROBINS EGG DR, COLUMBIA, SC, 29229","Match","Exact","446 ROBINS EGG DR, COLUMBIA, SC, 29229",604755401,"L"
215661,"446 S FOXCROFT DRIVE","DE PERE","WI",54115,44.4342331710001,-88.065752744,161,"446 S FOXCROFT DRIVE, DE PERE, WI, 54115","Match","Non_Exact","446 S FOX CROFT DR, DE PERE, WI, 54115",148107708,"R"
215662,"446 S NEW ST","DOVER","DE",19904,39.154650497,-75.527145576,162,"446 S NEW ST, DOVER, DE, 19904","Match","Exact","446 S NEW ST, DOVER, DE, 19904",647350806,"L"
215663,"446 SACRAMENTO STREET","BERLIN","WI",54923,43.9790577680001,-88.934082089,163,"446 SACRAMENTO STREET, BERLIN, WI, 54923","Match","Exact","446 SACRAMENTO ST, BERLIN, WI, 54923",73447425,"R"
215664,"446 SAYERS LAKE ROAD","IONIA","MI",48846,43.0053962960001,-85.066796744,164,"446 SAYERS LAKE ROAD, IONIA, MI, 48846","Match","Exact","446 SAYERS LAKE RD, IONIA, MI, 48846",648149936,"R"
215665,"446 SOUTH 10TH AVENUE","MOUNT VERNON","NY",10550,40.8995657310001,-73.838594894,165,"446 SOUTH 10TH AVENUE, MOUNT VERNON, NY, 10550","Match","Exact","446 S 10TH AVE, MOUNT VERNON, NY, 10550",139747508,"R"
215666,"446 SOUTH BLVD W","MACCLENNY","FL",32063,NA,NA,166,"446 SOUTH BLVD W, MACCLENNY, FL, 32063","Tie",NA,NA,NA,NA
215667,"446 SYCAMORE AVENUE","EATON","CO",80615,40.5303180830001,-104.699470469,167,"446 SYCAMORE AVENUE, EATON, CO, 80615","Match","Exact","446 SYCAMORE AVE, EATON, CO, 80615",188726050,"R"
215668,"446 TULIP STREET","FAIRFIELD","CA",94533,38.2742795390001,-122.045407846,168,"446 TULIP STREET, FAIRFIELD, CA, 94533","Match","Exact","446 TULIP ST, FAIRFIELD, CA, 94533",192536350,"R"
215669,"446 UNIVERSITY VILLAGE","SALT LAKE CITY","UT",84108,NA,NA,169,"446 UNIVERSITY VILLAGE, SALT LAKE CITY, UT, 84108","No_Match",NA,NA,NA,NA
215670,"446 W 23RD ST - APT 1","NEW YORK","NY",10011,40.7470682320001,-74.0026997539999,170,"446 W 23RD ST - APT 1, NEW YORK, NY, 10011","Match","Non_Exact","446 W 23RD ST, NEW YORK, NY, 10011",59659724,"L"
215671,"446 WAVERLY ROAD","URBANNA","VA",23175,37.6302698760001,-76.5774133259999,171,"446 WAVERLY ROAD, URBANNA, VA, 23175","Match","Exact","446 WAVERLY RD, URBANNA, VA, 23175",650003150,"L"
215672,"446 WEST 126TH STREET","CHICAGO","IL",60628,41.665188008,-87.633982472,172,"446 WEST 126TH STREET, CHICAGO, IL, 60628","Match","Exact","446 W 126TH ST, CHICAGO, IL, 60628",111834414,"R"
215673,"446 WEST AVENUE","ALBION","NY",14411,43.2407494730001,-78.207492728,173,"446 WEST AVENUE, ALBION, NY, 14411","Match","Exact","446 WEST AVE, ALBION, NY, 14411",48807379,"R"
215674,"446 WEST MARKET STREET","YORK","PA",17401,39.9590995400001,-76.738558143,174,"446 WEST MARKET STREET, YORK, PA, 17401","Match","Exact","446 W MARKET ST, YORK, PA, 17401",88730983,"L"
215675,"446 WHEELER ROAD","NORTH BRUNSWICK","NJ",8902,40.452486267,-74.4632520759999,175,"446 WHEELER ROAD, NORTH BRUNSWICK, NJ, 8902","Match","Exact","446 WHEELER RD, N BRUNSWICK, NJ, 08902",60264346,"L"
215676,"4460 ALDERWOOD DRIVE","OKEMOS","MI",48864,42.7104792920001,-84.3960403409999,176,"4460 ALDERWOOD DRIVE, OKEMOS, MI, 48864","Match","Exact","4460 ALDERWOOD DR, OKEMOS, MI, 48864",17514662,"R"
215677,"4460 CORPORATION LANE STE 190","VIRGINIA BEACH","VA",23462,36.8479764680001,-76.129128011,177,"4460 CORPORATION LANE STE 190, VIRGINIA BEACH, VA, 23462","Match","Exact","4460 CORPORATION LN, VA BCH, VA, 23462",122296491,"R"
215678,"4460 CYNTHIA WAY","REDDING","CA",96002,40.5426189230001,-122.34744073,178,"4460 CYNTHIA WAY, REDDING, CA, 96002","Match","Exact","4460 CYNTHIA WAY, REDDING, CA, 96002",126665534,"R"
215679,"4460 E NAVAJO DR","COTTONWOOD","AZ",86326,34.7017953010001,-111.978037817,179,"4460 E NAVAJO DR, COTTONWOOD, AZ, 86326","Match","Exact","4460 E NAVAJO DR, COTTONWOOD, AZ, 86326",159476480,"R"
215680,"4460 FOXFIRE LANE","HUNTINGTOWN","MD",20639,38.6305831940001,-76.5703425849999,180,"4460 FOXFIRE LANE, HUNTINGTOWN, MD, 20639","Match","Exact","4460 FOXFIRE LN, HUNTINGTOWN, MD, 20639",78187491,"L"
215681,"4460 GEORGIA STREET  SUITE 1","SAN DIEGO","CA",92116,32.7585031400001,-117.145021677,181,"4460 GEORGIA STREET  SUITE 1, SAN DIEGO, CA, 92116","Match","Exact","4460 GEORGIA ST, SAN DIEGO, CA, 92116",195345148,"L"
215682,"4460 GREEN MEADOW LAKE CIRCLE","WINSTON SALEM","NC",27106,36.152299511,-80.3472955189999,182,"4460 GREEN MEADOW LAKE CIRCLE, WINSTON SALEM, NC, 27106","Match","Non_Exact","4460 GREENMEADOW LAKES CIR, WINSTON SALEM, NC, 27106",84701718,"R"
215683,"4460 HODGES BLVD 1722","JACKSONVILLE","FL",32224,30.262469154,-81.466266777,183,"4460 HODGES BLVD 1722, JACKSONVILLE, FL, 32224","Match","Exact","4460 HODGES BLVD, JACKSONVILLE, FL, 32224",650069636,"L"
215684,"4460 LAKEWOOD DRIVE","NORWALK","IA",50211,41.5032571690001,-93.67659173,184,"4460 LAKEWOOD DRIVE, NORWALK, IA, 50211","Match","Exact","4460 LAKEWOOD DR, NORWALK, IA, 50211",83759840,"L"
215685,"4460 LINGLESTOWN ROAD","HARRISBURG","PA",17112,40.3366964190001,-76.8185377089999,185,"4460 LINGLESTOWN ROAD, HARRISBURG, PA, 17112","Match","Exact","4460 LINGLESTOWN RD, HARRISBURG, PA, 17112",70831696,"L"
215686,"4460 NORTH RANCHO DRIVE","LAS VEGAS","NV",89130,36.2410716260001,-115.233804271,186,"4460 NORTH RANCHO DRIVE, LAS VEGAS, NV, 89130","Match","Exact","4460 N RANCHO DR, LAS VEGAS, NV, 89130",639333532,"R"
215687,"4460 NW 5TH PLACE","PLANTATION","FL",33317,26.129286721,-80.208510823,187,"4460 NW 5TH PLACE, PLANTATION, FL, 33317","Match","Exact","4460 NW 5TH PL, PLANTATION, FL, 33317",114708682,"L"
215688,"4460 OLD RIVER STREET","OCEANSIDE","CA",92057,33.2428004010001,-117.318738213,188,"4460 OLD RIVER STREET, OCEANSIDE, CA, 92057","Match","Exact","4460 OLD RIVER ST, OCEANSIDE, CA, 92057",636684462,"R"
215689,"4460 ROSEWOOD DR SUITE 6250","PLEASANTON","CA",94588,37.7008861510001,-121.881055301,189,"4460 ROSEWOOD DR SUITE 6250, PLEASANTON, CA, 94588","Match","Exact","4460 ROSEWOOD DR, PLEASANTON, CA, 94588",606847226,"R"
215690,"4460 S ROSEMARY PL","CHANDLER","AZ",85248,33.2402902000001,-111.866050785,190,"4460 S ROSEMARY PL, CHANDLER, AZ, 85248","Match","Exact","4460 S ROSEMARY PL, CHANDLER, AZ, 85248",625684250,"L"
215691,"4460 SKEELS STREET","RAVENNA","OH",44266,41.1398945820001,-81.233183824,191,"4460 SKEELS STREET, RAVENNA, OH, 44266","Match","Exact","4460 SKEELS ST, RAVENNA, OH, 44266",137519204,"R"
215692,"4460 W MARSHALL AVE","LONGVIEW","TX",75604,32.507919562,-94.8043821209999,192,"4460 W MARSHALL AVE, LONGVIEW, TX, 75604","Match","Exact","4460 W MARSHALL AVE, LONGVIEW, TX, 75604",141108220,"L"
215693,"4460 W SHAW AVE PO NUMBER 333","FRESNHO","CA",93722,36.8082396940001,-119.873216289,193,"4460 W SHAW AVE PO NUMBER 333, FRESNHO, CA, 93722","Match","Non_Exact","4460 W SHAW AVE, FRESNO, CA, 93722",197565792,"R"
215694,"4460 W SHAW AVE SUITE 104","FRESNO","CA",93722,36.8082396940001,-119.873216289,194,"4460 W SHAW AVE SUITE 104, FRESNO, CA, 93722","Match","Non_Exact","4460 W SHAW AVE, FRESNO, CA, 93722",197565792,"R"
215695,"4460 W SHAW AVENUE 333","FRESNO","CA",93722,36.8082396940001,-119.873216289,195,"4460 W SHAW AVENUE 333, FRESNO, CA, 93722","Match","Non_Exact","4460 W SHAW AVE, FRESNO, CA, 93722",197565792,"R"
215696,"4460 W SHAW AVENUE SUITE 145","FRESNO","CA",93722,36.8082396940001,-119.873216289,196,"4460 W SHAW AVENUE SUITE 145, FRESNO, CA, 93722","Match","Non_Exact","4460 W SHAW AVE, FRESNO, CA, 93722",197565792,"R"
215697,"4460 W SHAW NUMBER 163","FRESNO","CA",93722,NA,NA,197,"4460 W SHAW NUMBER 163, FRESNO, CA, 93722","No_Match",NA,NA,NA,NA
215698,"4460 WEST MITCHELL AVE","CINCINNATI","OH",45232,39.1680411740001,-84.5140769669999,198,"4460 WEST MITCHELL AVE, CINCINNATI, OH, 45232","Match","Exact","4460 W MITCHELL AVE, CINCINNATI, OH, 45232",103923537,"R"
215699,"4460 WEST SHAW AVE SUITE 365","FRESNO","CA",93722,36.8082398920001,-119.873193534,199,"4460 WEST SHAW AVE SUITE 365, FRESNO, CA, 93722","Match","Exact","4460 W SHAW AVE, FRESNO, CA, 93722",197565792,"R"
215700,"4460 WEST SHAW AVE UNIT 260","FRESNO","CA",93722,36.8082398920001,-119.873193534,200,"4460 WEST SHAW AVE UNIT 260, FRESNO, CA, 93722","Match","Exact","4460 W SHAW AVE, FRESNO, CA, 93722",197565792,"R"
215701,"44604 13TH STREET E","LANCASTER","CA",93535,34.693158641,-118.106271287,201,"44604 13TH STREET E, LANCASTER, CA, 93535","Match","Exact","44604 13TH ST E, LANCASTER, CA, 93535",141527525,"L"
215702,"44606 MATANZAS CREEK COURT","TEMECULA","CA",92592,33.4785553930001,-117.059327735,202,"44606 MATANZAS CREEK COURT, TEMECULA, CA, 92592","Match","Exact","44606 MATANZAS CREEK CT, TEMECULA, CA, 92592",609001369,"L"
215703,"4461 BLOWING WIND DRIVE","ACWORTH","GA",30101,34.032922808,-84.679102529,203,"4461 BLOWING WIND DRIVE, ACWORTH, GA, 30101","Match","Non_Exact","4461 BLOWING WIND DR NW, ACWORTH, GA, 30101",17229083,"L"
215704,"4461 CAMERON RD","HOPE MILLS","NC",28348,34.9665561030001,-78.923702088,204,"4461 CAMERON RD, HOPE MILLS, NC, 28348","Match","Exact","4461 CAMERON RD, HOPE MILLS, NC, 28348",647180516,"R"
215705,"4461 ELDORADO DRIVE","PLANO","TX",75093,33.0231825280001,-96.7818816609999,205,"4461 ELDORADO DRIVE, PLANO, TX, 75093","Match","Exact","4461 ELDORADO DR, PLANO, TX, 75093",123484617,"L"
215706,"4461 KOHLER DRIVE","ALLENTOWN","PA",18103,40.5620028330001,-75.540353137,206,"4461 KOHLER DRIVE, ALLENTOWN, PA, 18103","Match","Exact","4461 KOHLER DR, ALLENTOWN, PA, 18103",80759927,"R"
215707,"4461 NW 25 STREET","LAUDERHILL","FL",33313,26.1572051110001,-80.2097210909999,207,"4461 NW 25 STREET, LAUDERHILL, FL, 33313","Match","Exact","4461 NW 25TH ST, LAUDERHILL, FL, 33313",114708025,"R"
215708,"4461 PARMALEE PATH","CONLEY","GA",30288,33.6510815030001,-84.3132455429999,208,"4461 PARMALEE PATH, CONLEY, GA, 30288","Match","Exact","4461 PARMALEE PATH, CONLEY, GA, 30288",637664648,"R"
215709,"4461 RALEIGH AVE APT 202","ALEXANDRIA","VA",22304,38.813857114,-77.107782336,209,"4461 RALEIGH AVE APT 202, ALEXANDRIA, VA, 22304","Match","Exact","4461 RALEIGH AVE, ALEXANDRIA, VA, 22304",75986906,"R"
215710,"4461 TANBARK ST","BLOOMFIELD HILLS","MI",48302,42.5745359840001,-83.326951364,210,"4461 TANBARK ST, BLOOMFIELD HILLS, MI, 48302","Match","Exact","4461 TANBARK ST, BLOOMFIELD HILLS, MI, 48302",69726485,"L"
215711,"4461 WAYNE ROAD","MANTUA","OH",44255,41.328705283,-81.230544508,211,"4461 WAYNE ROAD, MANTUA, OH, 44255","Match","Exact","4461 WAYNE RD, MANTUA, OH, 44255",137533540,"L"
215712,"44616 MACOMB INDUSTRIAL DR","CLINTON TOWNSHIP","MI",48036,42.6266323580001,-82.8821471589999,212,"44616 MACOMB INDUSTRIAL DR, CLINTON TOWNSHIP, MI, 48036","Match","Exact","44616 MACOMB INDUSTRIAL DR, CLINTON TOWNSHIP, MI, 48036",648186332,"R"
215713,"44619 CEDAR AVE","LANCASTER","CA",93534,34.6930024800001,-118.138696745,213,"44619 CEDAR AVE, LANCASTER, CA, 93534","Match","Exact","44619 CEDAR AVE, LANCASTER, CA, 93534",141526450,"L"
215714,"4462 G STREET","SAN DIEGO","CA",92102,32.7121913720001,-117.098520682,214,"4462 G STREET, SAN DIEGO, CA, 92102","Match","Exact","4462 G ST, SAN DIEGO, CA, 92102",195349008,"L"
215715,"4462 HICKORY NUT CT","CINCINNATI","OH",45241,39.294313043,-84.387627876,215,"4462 HICKORY NUT CT, CINCINNATI, OH, 45241","Match","Exact","4462 HICKORY NUT CT, CINCINNATI, OH, 45241",103951028,"R"
215716,"4462 HIGHLANDS RD","FRANKLIN","NC",28734,35.159896937,-83.313625233,216,"4462 HIGHLANDS RD, FRANKLIN, NC, 28734","Match","Exact","4462 HIGHLANDS RD, FRANKLIN, NC, 28734",35515127,"R"
215717,"4462 MADISON RUN PLACE","SNELLVILLE","GA",30039,33.806438943,-84.066212068,217,"4462 MADISON RUN PLACE, SNELLVILLE, GA, 30039","Match","Exact","4462 MADISON RUN PL, SNELLVILLE, GA, 30039",624003163,"R"
215718,"4462 MALVERN HILL","GRAND PRAIRIE","TX",75052,32.6640257390001,-97.023481053,218,"4462 MALVERN HILL, GRAND PRAIRIE, TX, 75052","Match","Non_Exact","4462 MALBERN HILL, GRAND PRAIRIE, TX, 75052",103002002,"L"
215719,"4462 SAINT GEORGES AVENUE","BALTIMORE","MD",21212,39.3445822780001,-76.602748608,219,"4462 SAINT GEORGES AVENUE, BALTIMORE, MD, 21212","Match","Exact","4462 SAINT GEORGES AVE, BALTIMORE, MD, 21212",206445676,"L"
215720,"4462 TANBARK DRIVE","BLOOMFIELD HILLS","MI",48302,42.5745592330001,-83.326967397,220,"4462 TANBARK DRIVE, BLOOMFIELD HILLS, MI, 48302","Match","Non_Exact","4462 TANBARK ST, BLOOMFIELD HILLS, MI, 48302",69726485,"R"
215721,"44626 MATANZAS CREEK CT","TEMECULA","CA",92592,33.4784929520001,-117.059280712,221,"44626 MATANZAS CREEK CT, TEMECULA, CA, 92592","Match","Exact","44626 MATANZAS CREEK CT, TEMECULA, CA, 92592",609001369,"L"
215722,"4463 E COOPER CIRCLE","TUCSON","AZ",85711,32.2181102920001,-110.89825237,222,"4463 E COOPER CIRCLE, TUCSON, AZ, 85711","Match","Exact","4463 E COOPER CIR, TUCSON, AZ, 85711",121179984,"L"
215723,"4463 GREYSTONE PLACE COURT","WINSTON SALEM","NC",27106,36.152397556,-80.344718695,223,"4463 GREYSTONE PLACE COURT, WINSTON SALEM, NC, 27106","Match","Exact","4463 GREYSTONE PLACE CT, WINSTON SALEM, NC, 27106",634076833,"L"
215724,"4463 SE BEAVER LN","STUART","FL",34997,27.1510001680001,-80.239740205,224,"4463 SE BEAVER LN, STUART, FL, 34997","Match","Exact","4463 SE BEAVER LN, STUART, FL, 34997",120421543,"R"
215725,"4463 WINNSBORO ROAD","MONROE","LA",71202,32.4200044360001,-92.032604954,225,"4463 WINNSBORO ROAD, MONROE, LA, 71202","Match","Exact","4463 WINNSBORO RD, MONROE, LA, 71202",612384316,"L"
215726,"44630 HIGHLAND PLACE","FREMONT","CA",94539,37.5163532240001,-121.910932004,226,"44630 HIGHLAND PLACE, FREMONT, CA, 94539","Match","Exact","44630 HIGHLAND PL, FREMONT, CA, 94539",125070327,"L"
215727,"44633 KINGTREE AVE","LANCASTER","CA",93534,34.6943970230001,-118.150537772,227,"44633 KINGTREE AVE, LANCASTER, CA, 93534","Match","Exact","44633 KINGTREE AVE, LANCASTER, CA, 93534",141526035,"R"
215728,"4464 BROOKHAVEN RD","GURNEE","IL",60031,42.36256381,-87.912945357,228,"4464 BROOKHAVEN RD, GURNEE, IL, 60031","Match","Exact","4464 BROOKHAVEN RD, GURNEE, IL, 60031",119666503,"L"
215729,"4464 CLAUSEN AVE","WESTERN SPRINGS","IL",60558,41.80915802,-87.892620527,229,"4464 CLAUSEN AVE, WESTERN SPRINGS, IL, 60558","Match","Exact","4464 CLAUSEN AVE, WESTERN SPRINGS, IL, 60558",111789257,"R"
215730,"4464 GREER AVE","ST LOUIS","MO",63115,38.666852019,-90.2411733759999,230,"4464 GREER AVE, ST LOUIS, MO, 63115","Match","Exact","4464 GREER AVE, SAINT LOUIS, MO, 63115",605101293,"L"
215731,"4464 GREER AVENUE","ST. LOUIS","MO",63115,38.666852019,-90.2411733759999,231,"4464 GREER AVENUE, ST. LOUIS, MO, 63115","Match","Exact","4464 GREER AVE, SAINT LOUIS, MO, 63115",605101293,"L"
215732,"4464 JAY COURT","NAPA","CA",94558,38.347356818,-122.315970536,232,"4464 JAY COURT, NAPA, CA, 94558","Match","Exact","4464 JAY CT, NAPA, CA, 94558",67414759,"R"
215733,"4464 LONE TREE WAY UNIT 518","ANTIOCH","CA",94531,37.9650069050001,-121.77751286,233,"4464 LONE TREE WAY UNIT 518, ANTIOCH, CA, 94531","Match","Exact","4464 LONE TREE WAY, ANTIOCH, CA, 94531",636423576,"R"
215734,"4464 MEADOWBROOK DRIVE","RICHMOND","CA",94803,37.976756575,-122.289777987,234,"4464 MEADOWBROOK DRIVE, RICHMOND, CA, 94803","Match","Exact","4464 MEADOWBROOK DR, RICHMOND, CA, 94803",192042487,"R"
215735,"44648 MOUND / 133","STERLING HEIGHTS","MI",48314,42.622446526,-83.0517911269999,235,"44648 MOUND / 133, STERLING HEIGHTS, MI, 48314","Match","Non_Exact","44648 MOUND RD, STERLING HEIGHTS, MI, 48314",110723563,"R"
215736,"44648 MOUND RD BOX 133","STERLING HEIGHTS","MI",48314,42.622446526,-83.0517911269999,236,"44648 MOUND RD BOX 133, STERLING HEIGHTS, MI, 48314","Match","Exact","44648 MOUND RD, STERLING HEIGHTS, MI, 48314",110723563,"R"
215737,"44648 MOUND RD STE 181","STERLING HEIGHTS","MI",48314,42.622446526,-83.0517911269999,237,"44648 MOUND RD STE 181, STERLING HEIGHTS, MI, 48314","Match","Exact","44648 MOUND RD, STERLING HEIGHTS, MI, 48314",110723563,"R"
215738,"44649 BAYVIEW AVENUE -24215","CLINTON TOWNSHIP","MI",48038,42.6255771090001,-82.907886465,238,"44649 BAYVIEW AVENUE -24215, CLINTON TOWNSHIP, MI, 48038","Match","Exact","44649 BAYVIEW AVE, CLINTON TOWNSHIP, MI, 48038",650041507,"R"
215739,"44649 BENNETT RD","HAMMOND","LA",70403,30.509295912,-90.381230884,239,"44649 BENNETT RD, HAMMOND, LA, 70403","Match","Exact","44649 BENNETT RD, HAMMOND, LA, 70403",75768323,"L"
215740,"44649 CERISA ST","LANCASTER","CA",93535,34.6951789300001,-118.084248773,240,"44649 CERISA ST, LANCASTER, CA, 93535","Match","Exact","44649 CERISA ST, LANCASTER, CA, 93535",141833190,"R"
215741,"4465 158 STREET N","HUGO","MN",55038,45.177861867,-93.016085905,241,"4465 158 STREET N, HUGO, MN, 55038","Match","Exact","4465 158TH ST N, HUGO, MN, 55038",615273013,"R"
215742,"4465 159TH AVE SE","DAVENPORT","ND",58021,46.760472242,-97.137213688,242,"4465 159TH AVE SE, DAVENPORT, ND, 58021","Match","Exact","4465 159TH AVE SE, DAVENPORT, ND, 58021",151465559,"L"
215743,"4465 BRADFORD CIRCLE","MYRTLE BEACH","SC",29588,33.7408021840001,-79.0252693319999,243,"4465 BRADFORD CIRCLE, MYRTLE BEACH, SC, 29588","Match","Exact","4465 BRADFORD CIR, MYRTLE BEACH, SC, 29588",29073407,"R"
215744,"4465 BROOK BRIDGES DR","RIVERSIDE","CA",92505,33.9098013280001,-117.492282601,244,"4465 BROOK BRIDGES DR, RIVERSIDE, CA, 92505","Match","Non_Exact","4465 BROOKBRIDGES DR, RIVERSIDE, CA, 92505",608986012,"R"
215745,"4465 DOORNOCK COURT","KETTERING","OH",45429,39.6823238320001,-84.182831773,245,"4465 DOORNOCK COURT, KETTERING, OH, 45429","Match","Exact","4465 DOORNOCK CT, KETTERING, OH, 45429",143580369,"R"
215746,"4465 EAST GENESEE ST NO 206","DEWITT","NY",13214,43.0350481410001,-76.066848809,246,"4465 EAST GENESEE ST NO 206, DEWITT, NY, 13214","Match","Non_Exact","4465 E GENESEE ST, DE WITT, NY, 13214",46606462,"L"
215747,"4465 FREDERICKSBURG DR","BIRMINGHAM","AL",35213,33.515249645,-86.708462927,247,"4465 FREDERICKSBURG DR, BIRMINGHAM, AL, 35213","Match","Exact","4465 FREDERICKSBURG DR, BIRMINGHAM, AL, 35213",81587663,"R"
215748,"4465 HEMMINGWAY DRIVE","KALAMAZOO","MI",49009,42.287787327,-85.644670644,248,"4465 HEMMINGWAY DRIVE, KALAMAZOO, MI, 49009","Match","Exact","4465 HEMMINGWAY DR, KALAMAZOO, MI, 49009",633727894,"R"
215749,"4465 SHIMMERING SKIES ST UNIT 1176","NORTH LAS VEGAS","NV",89031,36.241234236,-115.178037323,249,"4465 SHIMMERING SKIES ST UNIT 1176, NORTH LAS VEGAS, NV, 89031","Match","Exact","4465 SHIMMERING SKIES ST, N LAS VEGAS, NV, 89031",641437168,"L"
215750,"4465 STONE CREEK COURT","SAGINAW","MI",48603,43.472446399,-84.0507194319999,250,"4465 STONE CREEK COURT, SAGINAW, MI, 48603","Match","Exact","4465 STONE CREEK, SAGINAW, MI, 48603",648172869,"R"
215751,"4465 SW 34 TERRACE","FORT LAUDERDALE","FL",33312,26.066113697,-80.191268279,251,"4465 SW 34 TERRACE, FORT LAUDERDALE, FL, 33312","Match","Exact","4465 SW 34TH TER, FORT LAUDERDALE, FL, 33312",114715192,"R"
215752,"4465 TERRELL LANE","COLORADO SPRINGS","CO",80908,39.01007557,-104.744467861,252,"4465 TERRELL LANE, COLORADO SPRINGS, CO, 80908","Match","Exact","4465 TERRELL LN, COLORADO SPRINGS, CO, 80908",647972288,"L"
215753,"4465 UNIVERSITY DRIVE - MAIL BOX 50","HOUSTON","TX",77204,NA,NA,253,"4465 UNIVERSITY DRIVE - MAIL BOX 50, HOUSTON, TX, 77204","No_Match",NA,NA,NA,NA
215754,"4465 UNIVERSITY DRIVE BOX 217","HOUSTON","TX",77204,NA,NA,254,"4465 UNIVERSITY DRIVE BOX 217, HOUSTON, TX, 77204","No_Match",NA,NA,NA,NA
215755,"4465 UNIVERSITY DRIVE","HOUSTON","TX",77024,NA,NA,255,"4465 UNIVERSITY DRIVE, HOUSTON, TX, 77024","No_Match",NA,NA,NA,NA
215756,"4465 WIRTH DRIVE","COEUR D ALENE","ID",83815,47.7441314690001,-116.844291115,256,"4465 WIRTH DRIVE, COEUR D ALENE, ID, 83815","Match","Non_Exact","4465 W WIRTH DR, COEUR D ALENE, ID, 83815",614143785,"R"
215757,"4466 DARRLOW RD STE 8","STOW","OH",44224,NA,NA,257,"4466 DARRLOW RD STE 8, STOW, OH, 44224","No_Match",NA,NA,NA,NA
215758,"4466 DARROW RD STE 3","STOW","OH",44224,41.1863794490001,-81.440438407,258,"4466 DARROW RD STE 3, STOW, OH, 44224","Match","Exact","4466 DARROW RD, STOW, OH, 44224",648245161,"L"
215759,"4466 ELVIS PRESLEY BLVD STE 119","MEMPHIS","TN",38116,35.026690414,-90.025193078,259,"4466 ELVIS PRESLEY BLVD STE 119, MEMPHIS, TN, 38116","Match","Exact","4466 ELVIS PRESLEY BLVD, MEMPHIS, TN, 38116",607503725,"R"
215760,"4466 ELVIS PRESLEY STE 139","MEMPHIS","TN",38115,NA,NA,260,"4466 ELVIS PRESLEY STE 139, MEMPHIS, TN, 38115","No_Match",NA,NA,NA,NA
215761,"4466 GA-80","KEYSVILLE","GA",30816,NA,NA,261,"4466 GA-80, KEYSVILLE, GA, 30816","No_Match",NA,NA,NA,NA
215762,"4466 LAKESHORE CT","BRIGHTON","MI",48116,42.534452206,-83.8605004039999,262,"4466 LAKESHORE CT, BRIGHTON, MI, 48116","Match","Non_Exact","4466 LAKE SHORE VIS, BRIGHTON, MI, 48116",23585987,"L"
215763,"4466 MOUNT VERNON AVENUE","RIVERSIDE","CA",92507,33.96849344,-117.313753072,263,"4466 MOUNT VERNON AVENUE, RIVERSIDE, CA, 92507","Match","Exact","4466 MOUNT VERNON AVE, RIVERSIDE, CA, 92507",194880628,"L"
215764,"4466 SAN JUAN AVENUE","FAIR OAKS","CA",95628,38.646304146,-121.291884695,264,"4466 SAN JUAN AVENUE, FAIR OAKS, CA, 95628","Match","Exact","4466 SAN JUAN AVE, FAIR OAKS, CA, 95628",133413519,"R"
215765,"4466 SOUTH GLENN HWY","PALMER","AK",99645,61.551893093,-149.23284198,265,"4466 SOUTH GLENN HWY, PALMER, AK, 99645","Match","Exact","4466 S GLENN HWY, PALMER, AK, 99645",650169544,"R"
215766,"4466 W PINE BLVD 7F","SAINT LOUIS","MO",63108,38.6407925030001,-90.257172036,266,"4466 W PINE BLVD 7F, SAINT LOUIS, MO, 63108","Match","Non_Exact","4466 W PINE BLVD, SAINT LOUIS, MO, 63108",645136932,"L"
215767,"44668 171ST STREET","WATERTOWN","SD",57201,44.905212464,-97.288053844,267,"44668 171ST STREET, WATERTOWN, SD, 57201","Match","Exact","44668 171ST ST, WATERTOWN, SD, 57201",200742322,"L"
215768,"4467 E SKOUSEN STREET","GILBERT","AZ",85295,33.3049148330001,-111.693785626,268,"4467 E SKOUSEN STREET, GILBERT, AZ, 85295","Match","Exact","4467 E SKOUSEN ST, GILBERT, AZ, 85295",648974499,"L"
215769,"4467 NEWFANGLE ROAD","STONE MOUNTAIN","GA",30083,NA,NA,269,"4467 NEWFANGLE ROAD, STONE MOUNTAIN, GA, 30083","No_Match",NA,NA,NA,NA
215770,"4467 NW93RD WAY","SUNRISE","FL",33351,NA,NA,270,"4467 NW93RD WAY, SUNRISE, FL, 33351","No_Match",NA,NA,NA,NA
215771,"4467 PARK DRIVE SUITE D","NORCROSS","GA",30093,33.9346698590001,-84.151596623,271,"4467 PARK DRIVE SUITE D, NORCROSS, GA, 30093","Match","Exact","4467 PARK DR, NORCROSS, GA, 30093",88904977,"R"
215772,"44670 ANN ARBOR ROAD - SUITE 170","PLYMOUTH","MI",48170,NA,NA,272,"44670 ANN ARBOR ROAD - SUITE 170, PLYMOUTH, MI, 48170","No_Match",NA,NA,NA,NA
215773,"44675 CAPE COURT SUITE 105","ASHBURN","VA",20147,39.0176835500001,-77.454187368,273,"44675 CAPE COURT SUITE 105, ASHBURN, VA, 20147","Match","Exact","44675 CAPE CT, ASHBURN, VA, 20147",62364161,"L"
215774,"44676 VAIL OAK RD","TEMECULA","CA",92592,NA,NA,274,"44676 VAIL OAK RD, TEMECULA, CA, 92592","No_Match",NA,NA,NA,NA
215775,"44679 ENDICOTT DR UNIT 404","ASHBURN","VA",20147,NA,NA,275,"44679 ENDICOTT DR UNIT 404, ASHBURN, VA, 20147","No_Match",NA,NA,NA,NA
215776,"4468 CHAHA ROAD 102","GARLAND","TX",75043,32.8621247020001,-96.540896945,276,"4468 CHAHA ROAD 102, GARLAND, TX, 75043","Match","Exact","4468 CHAHA RD, GARLAND, TX, 75043",103204846,"L"
215777,"4468 DALROCK DR","PLANO","TX",75024,33.1005712080001,-96.783278108,277,"4468 DALROCK DR, PLANO, TX, 75024","Match","Exact","4468 DALROCK DR, PLANO, TX, 75024",123567471,"L"
215778,"4468 N 21ST STREET","MILWAUKEE","WI",53209,43.0983900690001,-87.938246169,278,"4468 N 21ST STREET, MILWAUKEE, WI, 53209","Match","Exact","4468 N 21ST ST, MILWAUKEE, WI, 53209",77737708,"R"
215779,"4468 SW 64 AV","DAVIE","FL",33314,26.066078577,-80.232142476,279,"4468 SW 64 AV, DAVIE, FL, 33314","Match","Exact","4468 SW 64TH AVE, DAVIE, FL, 33314",114711582,"L"
215780,"4468","COLLEGE PARK","GA",30349,NA,NA,280,"4468, COLLEGE PARK, GA, 30349","No_Match",NA,NA,NA,NA
215781,"44680 SALTZ RD","CANTON","MI",48187,42.31485,-83.480176004,281,"44680 SALTZ RD, CANTON, MI, 48187","Match","Exact","44680 SALTZ RD, CANTON, MI, 48187",95409338,"R"
215782,"44686 VALLEY CENTER DRIVE","NEWBERRY SPRINGS","CA",92365,34.879773389,-116.6852916,282,"44686 VALLEY CENTER DRIVE, NEWBERRY SPRINGS, CA, 92365","Match","Non_Exact","44686 VALLEY CENTER RD, NEWBERRY SPGS, CA, 92365",638615461,"L"
215783,"4469 ALABAMA STREET 5","SAN DIEGO","CA",92116,32.7584759430001,-117.142544448,283,"4469 ALABAMA STREET 5, SAN DIEGO, CA, 92116","Match","Exact","4469 ALABAMA ST, SAN DIEGO, CA, 92116",195345174,"R"
215784,"4469 GLENWOOD ROAD STE 13","DECATUR","GA",30032,33.7373856630001,-84.235217925,284,"4469 GLENWOOD ROAD STE 13, DECATUR, GA, 30032","Match","Exact","4469 GLENWOOD RD, DECATUR, GA, 30032",23371013,"R"
215785,"4469 GOLF VISTA CIR","DECATUR","GA",30035,33.710363064,-84.2074797509999,285,"4469 GOLF VISTA CIR, DECATUR, GA, 30035","Match","Exact","4469 GOLF VISTA CIR, DECATUR, GA, 30035",23391549,"R"
215786,"4469 HWY 336 W","CLINTON","AR",72031,NA,NA,286,"4469 HWY 336 W, CLINTON, AR, 72031","No_Match",NA,NA,NA,NA
215787,"4469 LADY HAWK WAY","WEST MELBOURNE","FL",32904,28.069291128,-80.700811876,287,"4469 LADY HAWK WAY, WEST MELBOURNE, FL, 32904","Match","Exact","4469 LADY HAWK WAY, W MELBOURNE, FL, 32904",624647761,"L"
215788,"4469 SATURDAY AVE","MALAGA","WA",98828,47.362496519,-120.183712297,288,"4469 SATURDAY AVE, MALAGA, WA, 98828","Match","Exact","4469 SATURDAY AVE, MALAGA, WA, 98828",641532800,"L"
215789,"447 ARNAUDVILLE RD","CARENCRO","LA",70520,30.3638399120001,-91.9913561069999,289,"447 ARNAUDVILLE RD, CARENCRO, LA, 70520","Match","Exact","447 ARNAUDVILLE RD, CARENCRO, LA, 70520",85644057,"L"
215790,"447 AUTUMN TRAIL","WEST PALM BEACH","FL",33410,26.7966511810001,-80.106206044,290,"447 AUTUMN TRAIL, WEST PALM BEACH, FL, 33410","Match","Exact","447 AUTUMN TRL, WEST PALM BEACH, FL, 33410",115266910,"R"
215791,"447 AVERASBORO DRIVE","CLAYTON","NC",27520,35.6267408750001,-78.456732914,291,"447 AVERASBORO DRIVE, CLAYTON, NC, 27520","Match","Exact","447 AVERASBORO DR, CLAYTON, NC, 27520",647191464,"L"
215792,"447 BARR ST","LANCASTER","SC",29055,NA,NA,292,"447 BARR ST, LANCASTER, SC, 29055","No_Match",NA,NA,NA,NA
215793,"447 BLUE SKY CIRCLE","LAFAYETTE","NE",37083,NA,NA,293,"447 BLUE SKY CIRCLE, LAFAYETTE, NE, 37083","No_Match",NA,NA,NA,NA
215794,"447 BOULDER","MORGANVILLE","NJ",7751,40.3826295710001,-74.217746866,294,"447 BOULDER, MORGANVILLE, NJ, 7751","Match","Non_Exact","447 BOULDER DR, MORGANVILLE, NJ, 07751",647641391,"L"
215795,"447 BROADWAY 2ND FL 404","NEW YORK","NY",10013,40.7203928390001,-74.001045614,295,"447 BROADWAY 2ND FL 404, NEW YORK, NY, 10013","Match","Exact","447 BROADWAY, NEW YORK, NY, 10013",59660300,"L"
215796,"447 BROADWAY 2ND FLOOR 350","NEW YORK","NY",10013,40.7203928390001,-74.001045614,296,"447 BROADWAY 2ND FLOOR 350, NEW YORK, NY, 10013","Match","Exact","447 BROADWAY, NEW YORK, NY, 10013",59660300,"L"
215797,"447 CAMPBELL","RIVER ROUGE","MI",48218,42.268438454,-83.1490865219999,297,"447 CAMPBELL, RIVER ROUGE, MI, 48218","Match","Non_Exact","447 CAMPBELL ST, RIVER ROUGE, MI, 48218",95480275,"L"
215798,"447 CARLTON DRIVE","BENTLEYVILLE","PA",15314,40.159220335,-80.045245375,298,"447 CARLTON DRIVE, BENTLEYVILLE, PA, 15314","Match","Exact","447 CARLTON DR, BENTLEYVILLE, PA, 15314",52826424,"R"
215799,"447 CATHERINE STREET","ELIZABETH","NJ",7201,40.669412505,-74.205287211,299,"447 CATHERINE STREET, ELIZABETH, NJ, 7201","Match","Exact","447 CATHERINE ST, ELIZABETH, NJ, 07201",60578870,"R"
215800,"447 CLEARVIEW STREET","POTTSTOWN","PA",19464,40.258937861,-75.654268281,300,"447 CLEARVIEW STREET, POTTSTOWN, PA, 19464","Match","Exact","447 CLEARVIEW ST, POTTSTOWN, PA, 19464",135104461,"L"
215801,"447 COUNTY ROAD 29","NORWICH","NY",13815,42.603805015,-75.457159028,301,"447 COUNTY ROAD 29, NORWICH, NY, 13815","Match","Exact","447 CO RD 29, NORWICH, NY, 13815",640453094,"L"
215802,"447 CRESTOVER CIRCLE","RICHARDSON","TX",75080,32.9778958700001,-96.728668414,302,"447 CRESTOVER CIRCLE, RICHARDSON, TX, 75080","Match","Exact","447 CRESTOVER CIR, RICHARDSON, TX, 75080",102896680,"L"
215803,"447 CRESTVIEW POINT DRIVE","LEWISVILLE","TX",75067,32.996685029,-96.9831954799999,303,"447 CRESTVIEW POINT DRIVE, LEWISVILLE, TX, 75067","Match","Exact","447 CRESTVIEW POINT DR, LEWISVILLE, TX, 75067",103388443,"L"
215804,"447 DENNISON CHAPEL RD","LEBANON","VA",24266,NA,NA,304,"447 DENNISON CHAPEL RD, LEBANON, VA, 24266","No_Match",NA,NA,NA,NA
215805,"447 E 4TH ST","EL PASO","IL",61738,40.742771002,-89.00946491,305,"447 E 4TH ST, EL PASO, IL, 61738","Match","Exact","447 E 4TH ST, EL PASO, IL, 61738",8996097,"L"
215806,"447 E 53RD STREET LONG BEACH CA","LONG BEACH","CA",90805,33.8524297380001,-118.187183251,306,"447 E 53RD STREET LONG BEACH CA, LONG BEACH, CA, 90805","Match","Non_Exact","447 E 53RD ST, LONG BEACH, CA, 90805",141684408,"L"
215807,"447 E 81ST","CHICAGO","IL",60619,41.747490799,-87.612956426,307,"447 E 81ST, CHICAGO, IL, 60619","Match","Non_Exact","447 E 81ST ST, CHICAGO, IL, 60619",605545008,"R"
215808,"447 EADON ROAD BOX 220","TOLEDO","WA",98591,46.4502647300001,-122.793264898,308,"447 EADON ROAD BOX 220, TOLEDO, WA, 98591","Match","Exact","447 EADON RD, TOLEDO, WA, 98591",180721422,"L"
215809,"447 EAST 57TH STREET APT 11","NEW YORK","NY",10022,40.757707838,-73.961468041,309,"447 EAST 57TH STREET APT 11, NEW YORK, NY, 10022","Match","Exact","447 E 57TH ST, NEW YORK, NY, 10022",650073268,"L"
215810,"447 EAST MAIN STREET","COLUMBUS","OH",43215,39.95753713,-82.987282796,310,"447 EAST MAIN STREET, COLUMBUS, OH, 43215","Match","Exact","447 E MAIN ST, COLUMBUS, OH, 43215",135579954,"R"
215811,"447 EAST MOUNT AIRY AVENUE","PHILADELPHIA","PA",19119,40.0657529110001,-75.1851044209999,311,"447 EAST MOUNT AIRY AVENUE, PHILADELPHIA, PA, 19119","Match","Exact","447 E MOUNT AIRY AVE, PHILADELPHIA, PA, 19119",131394762,"L"
215812,"447 GARFIELD AVENUE","JERSEY CITY","NJ",7305,40.6975180260001,-74.0836451169999,312,"447 GARFIELD AVENUE, JERSEY CITY, NJ, 7305","Match","Exact","447 GARFIELD AVE, JERSEY CITY, NJ, 07305",648113655,"L"
215813,"447 GREESON ROAD","CHATSWORTH","GA",30705,34.786796415,-84.8520513719999,313,"447 GREESON ROAD, CHATSWORTH, GA, 30705","Match","Exact","447 GREESON RD, CHATSWORTH, GA, 30705",57108615,"L"
215814,"447 HILLTOP AVE","BRADLEY","IL",60915,41.1398334400001,-87.8835835629999,314,"447 HILLTOP AVE, BRADLEY, IL, 60915","Match","Exact","447 HILLTOP AVE, BRADLEY, IL, 60915",98355444,"R"
215815,"447 HUBERT J COX LN","SHEPHERDSVILLE","KY",40165,NA,NA,315,"447 HUBERT J COX LN, SHEPHERDSVILLE, KY, 40165","No_Match",NA,NA,NA,NA
215816,"447 HURRICANE ROAD","NEW MARKET","AL",35761,34.907673984,-86.420518712,316,"447 HURRICANE ROAD, NEW MARKET, AL, 35761","Match","Exact","447 HURRICANE RD, NEW MARKET, AL, 35761",58202793,"R"
215817,"447 KNOCH KNOCH RD","NAPERVILLE","IL",60565,NA,NA,317,"447 KNOCH KNOCH RD, NAPERVILLE, IL, 60565","No_Match",NA,NA,NA,NA
215818,"447 LOST BRANCH ROAD","LEXINGTON","SC",29072,33.961930255,-81.3368272719999,318,"447 LOST BRANCH ROAD, LEXINGTON, SC, 29072","Match","Exact","447 LOST BRANCH RD, LEXINGTON, SC, 29072",70065005,"R"
215819,"447 MAIN STREET","CHESTER","VT",5143,43.2660229740001,-72.6037270099999,319,"447 MAIN STREET, CHESTER, VT, 5143","Match","Exact","447 MAIN ST, CHESTER, VT, 05143",139252720,"L"
215820,"447 MARSHALL AVE","PITTSBURGH","PA",15214,40.4715976000001,-80.0157023,320,"447 MARSHALL AVE, PITTSBURGH, PA, 15214","Match","Exact","447 MARSHALL AVE, PITTSBURGH, PA, 15214",616520516,"L"
215821,"447 MILL CREEK DR","CHICO","CA",95973,39.763294133,-121.87897062,321,"447 MILL CREEK DR, CHICO, CA, 95973","Match","Exact","447 MILL CREEK DR, CHICO, CA, 95973",68469822,"R"
215822,"447 MORMON TRL","LINCOLN","NE",68521,40.844816366,-96.725687152,322,"447 MORMON TRL, LINCOLN, NE, 68521","Match","Exact","447 MORMON TRL, LINCOLN, NE, 68521",28251414,"L"
215823,"447 N ADDISON ST","ELMHURT","IL",60126,41.9118721450001,-87.941448282,323,"447 N ADDISON ST, ELMHURT, IL, 60126","Match","Non_Exact","447 N ADDISON AVE, ELMHURST, IL, 60126",112544685,"R"
215824,"447 N PRAIRIE AVE","INGLEWOOD","CA",90301,33.969871438,-118.343949151,324,"447 N PRAIRIE AVE, INGLEWOOD, CA, 90301","Match","Exact","447 N PRAIRIE AVE, INGLEWOOD, CA, 90301",142750354,"L"
215825,"447 NE 195 STREET","NORTH MIAMI BEACH","FL",33179,25.9567405940001,-80.192243274,325,"447 NE 195 STREET, NORTH MIAMI BEACH, FL, 33179","Match","Exact","447 NE 195TH ST, N MIAMI BEACH, FL, 33179",641705756,"L"
215826,"447 NICHOLS ST","POTTSVILLE","PA",17901,40.6940218570001,-76.192607043,326,"447 NICHOLS ST, POTTSVILLE, PA, 17901","Match","Exact","447 NICHOLS ST, POTTSVILLE, PA, 17901",70974147,"R"
215827,"447 NORTHTRAIL","SAN ANTONIO","TX",78216,29.5334152670001,-98.500111867,327,"447 NORTHTRAIL, SAN ANTONIO, TX, 78216","Match","Non_Exact","447 NORTHTRAIL DR, SAN ANTONIO, TX, 78216",635393930,"R"
215828,"447 POTOMAC AVE","BUFFALO","NY",14213,42.924103384,-78.883153272,328,"447 POTOMAC AVE, BUFFALO, NY, 14213","Match","Exact","447 POTOMAC AVE, BUFFALO, NY, 14213",48289073,"R"
215829,"447 PROSPECT STREET","SOUTH ORANGE","NJ",7079,40.736806947,-74.261208575,329,"447 PROSPECT STREET, SOUTH ORANGE, NJ, 7079","Match","Exact","447 PROSPECT ST, SOUTH ORANGE, NJ, 07079",63495837,"R"
215830,"447 RHODES AVE","AKRON","OH",44307,41.0817192710001,-81.5384163369999,330,"447 RHODES AVE, AKRON, OH, 44307","Match","Exact","447 RHODES AVE, AKRON, OH, 44307",61340300,"L"
215831,"447 RICHMOND ROAD","RICHMOND HTS","OH",44143,41.5541165820001,-81.49706072,331,"447 RICHMOND ROAD, RICHMOND HTS, OH, 44143","Match","Exact","447 RICHMOND RD, RICHMOND HEIGHTS, OH, 44143",61167659,"L"
215832,"447 ROBBINS STREET","PHILADELPHIA","PA",19111,40.0493767840001,-75.09866226,332,"447 ROBBINS STREET, PHILADELPHIA, PA, 19111","Match","Exact","447 ROBBINS ST, PHILADELPHIA, PA, 19111",131414912,"L"
215833,"447 S GRAND VIEW ST UNIT 409","LOS ANGELES","CA",90057,34.0622424580001,-118.275816011,333,"447 S GRAND VIEW ST UNIT 409, LOS ANGELES, CA, 90057","Match","Non_Exact","447 S GRAND VIEW ST, LOS ANGELES, CA, 90057",141605332,"R"
215834,"447 S IVY ST","DENVER","CO",80224,39.7084308290001,-104.921135776,334,"447 S IVY ST, DENVER, CO, 80224","Match","Exact","447 S IVY ST, DENVER, CO, 80224",177339927,"R"
215835,"447 SAND FLAT RD","JACKSBORO","TX",76458,33.1761445000001,-98.242602663,335,"447 SAND FLAT RD, JACKSBORO, TX, 76458","Match","Exact","447 SAND FLAT RD, JACKSBORO, TX, 76458",182938335,"R"
215836,"447 SEBASTIAN SQUARE","ST AUGUSTINE","FL",32095,30.0112804980001,-81.381721704,336,"447 SEBASTIAN SQUARE, ST AUGUSTINE, FL, 32095","Match","Exact","447 SEBASTIAN SQ, SAINT AUGUSTINE, FL, 32095",639468405,"R"
215837,"447 SOUTH PRINCE ST MB4","LANCASTER","PA",17603,40.030504148,-76.306340517,337,"447 SOUTH PRINCE ST MB4, LANCASTER, PA, 17603","Match","Exact","447 S PRINCE ST, LANCASTER, PA, 17603",179664659,"L"
215838,"447 TOWNSHIP RD 350","SULLIVAN","OH",44880,NA,NA,338,"447 TOWNSHIP RD 350, SULLIVAN, OH, 44880","No_Match",NA,NA,NA,NA
215839,"447 TURNER RD","WHITWELL","TN",37397,35.190560244,-85.4954012809999,339,"447 TURNER RD, WHITWELL, TN, 37397","Match","Exact","447 TURNER RD, WHITWELL, TN, 37397",58412826,"R"
215840,"447 TYLER STREET","LANCASTER","WI",53813,NA,NA,340,"447 TYLER STREET, LANCASTER, WI, 53813","Tie",NA,NA,NA,NA
215841,"447 VOSBURG ROAD","WEBSTER","NY",14580,43.2413562690001,-77.509349221,341,"447 VOSBURG ROAD, WEBSTER, NY, 14580","Match","Exact","447 VOSBURG RD, WEBSTER, NY, 14580",635594915,"R"
215842,"447 W BROADWAY","MANNSVILLE","OK",73447,34.186134027,-96.8760207019999,342,"447 W BROADWAY, MANNSVILLE, OK, 73447","Match","Exact","447 BROADWAY, MANNSVILLE, OK, 73447",63215227,"R"
215843,"447 W COVE CANAL RD","SEVIER","UT",84766,38.5875674600001,-112.261500749,343,"447 W COVE CANAL RD, SEVIER, UT, 84766","Match","Exact","447 W COVE CANAL RD, SEVIER, UT, 84766",611576742,"L"
215844,"447 WARD LINE ROAD","DERIDDER","LA",70634,30.7947090850001,-93.3738286179999,344,"447 WARD LINE ROAD, DERIDDER, LA, 70634","Match","Exact","447 WARD LINE RD, DERIDDER, LA, 70634",88364252,"R"
215845,"447 WEEPING CEDAR TRAIL","CHESAPEAKE","VA",23323,36.748094521,-76.3494849749999,345,"447 WEEPING CEDAR TRAIL, CHESAPEAKE, VA, 23323","Match","Exact","447 WEEPING CEDAR TRL, CHESAPEAKE, VA, 23323",121780677,"L"
215846,"447 WEST 47TH STREET UNIT 9","NEW YORK","NY",10036,40.762182748,-73.991656988,346,"447 WEST 47TH STREET UNIT 9, NEW YORK, NY, 10036","Match","Exact","447 W 47TH ST, NEW YORK, NY, 10036",59655181,"R"
215847,"447 WEST CHASE CT","MANDEVILLE","LA",70448,NA,NA,347,"447 WEST CHASE CT, MANDEVILLE, LA, 70448","No_Match",NA,NA,NA,NA
215848,"447 WEST DIAMOND AVE APT 102","GAITHERSBURG","MD",20877,39.140482438,-77.209871939,348,"447 WEST DIAMOND AVE APT 102, GAITHERSBURG, MD, 20877","Match","Exact","447 W DIAMOND AVE, GAITHERSBURG, MD, 20877",637462295,"L"
215849,"447 WEST LONGLEAF DRIVE 507","AUBURN","AL",36832,32.5727961640001,-85.506177873,349,"447 WEST LONGLEAF DRIVE 507, AUBURN, AL, 36832","Match","Exact","447 W LONGLEAF DR, AUBURN, AL, 36832",614105841,"L"
215850,"447 WEST VINE STREET 1W","KALAMAZOO","MI",49001,42.284094027,-85.589152655,350,"447 WEST VINE STREET 1W, KALAMAZOO, MI, 49001","Match","Exact","447 W VINE ST, KALAMAZOO, MI, 49001",652793606,"L"
215851,"4470 AIRLINE RD","MUSKEGON","MI",49444,43.1712618770001,-86.201951503,351,"4470 AIRLINE RD, MUSKEGON, MI, 49444","Match","Exact","4470 AIRLINE RD, MUSKEGON, MI, 49444",77657187,"L"
215852,"4470 ATLANTIC AVE UNIT 17771","LONG BEACH","CA",90807,33.839102854,-118.184976572,352,"4470 ATLANTIC AVE UNIT 17771, LONG BEACH, CA, 90807","Match","Exact","4470 ATLANTIC AVE, LONG BEACH, CA, 90807",141686063,"R"
215853,"4470 COX RD STE 250","GLEN ALLEN","VA",23060,37.658723212,-77.574972848,353,"4470 COX RD STE 250, GLEN ALLEN, VA, 23060","Match","Exact","4470 COX RD, GLEN ALLEN, VA, 23060",106687502,"R"
215854,"4470 HARDWOOD ST","FREMONT","CA",94538,37.5164009690001,-121.962662751,354,"4470 HARDWOOD ST, FREMONT, CA, 94538","Match","Exact","4470 HARDWOOD ST, FREMONT, CA, 94538",125031207,"L"
215855,"4470 HEATHCLIFF WAY","CUMMING","GA",30041,34.138105839,-84.134050611,355,"4470 HEATHCLIFF WAY, CUMMING, GA, 30041","Match","Exact","4470 HEATHCLIFF WAY, CUMMING, GA, 30041",640276876,"R"
215856,"4470 HICKS AVE","BENTON HARBOR","MI",49022,42.14448894,-86.350844142,356,"4470 HICKS AVE, BENTON HARBOR, MI, 49022","Match","Exact","4470 HICKS AVE, BENTON HARBOR, MI, 49022",119989157,"L"
215857,"4470 MAIN STREET","GAYLESVILLE","AL",35973,NA,NA,357,"4470 MAIN STREET, GAYLESVILLE, AL, 35973","No_Match",NA,NA,NA,NA
215858,"4470 MORAGA AVENUE","SAN DIEGO","CA",92117,32.8252509500001,-117.214893092,358,"4470 MORAGA AVENUE, SAN DIEGO, CA, 92117","Match","Exact","4470 MORAGA AVE, SAN DIEGO, CA, 92117",195302525,"L"
215859,"4470 MORAGA AVENUE","SAN DIGEO","CA",92117,32.8252509500001,-117.214893092,359,"4470 MORAGA AVENUE, SAN DIGEO, CA, 92117","Match","Non_Exact","4470 MORAGA AVE, SAN DIEGO, CA, 92117",195302525,"L"
215860,"4470 NORTON ROAD","GRAWN","MI",49637,44.628498054,-85.665595375,360,"4470 NORTON ROAD, GRAWN, MI, 49637","Match","Exact","4470 NORTON RD, GRAWN, MI, 49637",145543897,"R"
215861,"4470 SOUTH HILLS DRIVE","CLEVELAND","OH",44109,41.434349696,-81.691277014,361,"4470 SOUTH HILLS DRIVE, CLEVELAND, OH, 44109","Match","Exact","4470 S HILLS DR, CLEVELAND, OH, 44109",61116377,"R"
215862,"4470 STATE HIGHWAY 103 WEST","LUFKIN","TX",75904,31.3671374900001,-94.790248589,362,"4470 STATE HIGHWAY 103 WEST, LUFKIN, TX, 75904","Match","Exact","4470 STATE HWY 103 W, LUFKIN, TX, 75904",23839148,"R"
215863,"4470 STHISTLE DR","CHANDLER","AZ",85248,NA,NA,363,"4470 STHISTLE DR, CHANDLER, AZ, 85248","No_Match",NA,NA,NA,NA
215864,"4470 THOMAS RD","WELLSVILLE","KS",66092,38.7240842150001,-95.0954275019999,364,"4470 THOMAS RD, WELLSVILLE, KS, 66092","Match","Exact","4470 THOMAS RD, WELLSVILLE, KS, 66092",10621975,"R"
215865,"4470 VALLEY HI DRIVE","SACRAMNETO","CA",95823,38.4669542780001,-121.450563645,365,"4470 VALLEY HI DRIVE, SACRAMNETO, CA, 95823","Match","Non_Exact","4470 VALLEY HI DR, SACRAMENTO, CA, 95823",133351896,"L"
215866,"4470 VALLEYDALE WAY","COLUMBUS","OH",43231,40.063667831,-82.931089919,366,"4470 VALLEYDALE WAY, COLUMBUS, OH, 43231","Match","Exact","4470 VALLEYDALE WAY, COLUMBUS, OH, 43231",135588564,"R"
215867,"4470 W SUNSET BLVD SUITE 318","LOS ANGELES","CA",90027,34.09788587,-118.286681978,367,"4470 W SUNSET BLVD SUITE 318, LOS ANGELES, CA, 90027","Match","Exact","4470 SUNSET BLVD, LOS ANGELES, CA, 90027",142688701,"L"
215868,"4470 WEST SUNSET BLVD NUM 91630","LOS ANGELES","CA",90027,34.0978768260001,-118.286668131,368,"4470 WEST SUNSET BLVD NUM 91630, LOS ANGELES, CA, 90027","Match","Exact","4470 W SUNSET BLVD, LOS ANGELES, CA, 90027",142688701,"L"
215869,"4470 WINDING RIVER CIRCLE","STOCKTON","CA",95219,37.980356822,-121.348975566,369,"4470 WINDING RIVER CIRCLE, STOCKTON, CA, 95219","Match","Exact","4470 WINDING RIVER CIR, STOCKTON, CA, 95219",647351926,"R"
215870,"44705 ZELLWOOD RD","SAUK CENTRE","MN",56378,45.769488778,-95.042108057,370,"44705 ZELLWOOD RD, SAUK CENTRE, MN, 56378","Match","Exact","44705 ZELLWOOD RD, SAUK CENTRE, MN, 56378",107403942,"L"
215871,"44707 BAYVIEW AVE","CLINTON TOWNSHIP","MI",48038,42.6256838030001,-82.907813387,371,"44707 BAYVIEW AVE, CLINTON TOWNSHIP, MI, 48038","Match","Exact","44707 BAYVIEW AVE, CLINTON TOWNSHIP, MI, 48038",650041507,"R"
215872,"4471 141ST AVE SE","BELLEVUE","WA",98006,47.5660585900001,-122.153422079,372,"4471 141ST AVE SE, BELLEVUE, WA, 98006","Match","Exact","4471 141ST AVE SE, BELLEVUE, WA, 98006",239772922,"R"
215873,"4471 CARRINGTON DR","LANCASTER","SC",29720,34.9349388430001,-80.792313902,373,"4471 CARRINGTON DR, LANCASTER, SC, 29720","Match","Exact","4471 CARRINGTON DR, LANCASTER, SC, 29720",645295448,"L"
215874,"4471 CHEYENNE CT","WINSTON-SALEM","NC",27106,36.11921662,-80.3461604,374,"4471 CHEYENNE CT, WINSTON-SALEM, NC, 27106","Match","Exact","4471 CHEYENNE CT, WINSTON SALEM, NC, 27106",632185976,"R"
215875,"4471 CIRCLE DRIVE","HILLIARD","OH",43026,40.042441594,-83.160910165,375,"4471 CIRCLE DRIVE, HILLIARD, OH, 43026","Match","Exact","4471 CIRCLE DR, HILLIARD, OH, 43026",218683594,"L"
215876,"4471 DEAN MARTIN DR UNIT 1010","LAS VEGAS","NV",89103,36.11001292,-115.181222164,376,"4471 DEAN MARTIN DR UNIT 1010, LAS VEGAS, NV, 89103","Match","Exact","4471 DEAN MARTIN DR, LAS VEGAS, NV, 89103",201884365,"R"
215877,"4471 DEAN MARTIN DR UNIT 1101","LAS VEGAS","NV",89103,36.11001292,-115.181222164,377,"4471 DEAN MARTIN DR UNIT 1101, LAS VEGAS, NV, 89103","Match","Exact","4471 DEAN MARTIN DR, LAS VEGAS, NV, 89103",201884365,"R"
215878,"4471 E RAVENS RIDGE DR","COLUMBIA","MO",65201,38.9211465340001,-92.272273571,378,"4471 E RAVENS RIDGE DR, COLUMBIA, MO, 65201","Match","Exact","4471 E RAVENS RIDGE DR, COLUMBIA, MO, 65201",23493124,"R"
215879,"4471 FEIVEL RD 35","WEST PALM BEACH","FL",33417,26.742997712,-80.1098685589999,379,"4471 FEIVEL RD 35, WEST PALM BEACH, FL, 33417","Match","Exact","4471 FEIVEL RD, WEST PALM BEACH, FL, 33417",115343656,"R"
215880,"4471 GLIDER CIRCLE","DOUGLASVILLE","GA",30135,33.6834926990001,-84.698674755,380,"4471 GLIDER CIRCLE, DOUGLASVILLE, GA, 30135","Match","Exact","4471 GLIDER CIR, DOUGLASVILLE, GA, 30135",647295815,"R"
215881,"4471 HWY 174","HOLLYWOOD","SC",29449,32.6798866950001,-80.35026913,381,"4471 HWY 174, HOLLYWOOD, SC, 29449","Match","Non_Exact","4471 STATE HWY 174, HOLLYWOOD, SC, 29449",636590206,"L"
215882,"4471 NW LIVE OAK DR","CORVALLIS","OR",97330,44.5998183040001,-123.302367262,382,"4471 NW LIVE OAK DR, CORVALLIS, OR, 97330","Match","Exact","4471 NW LIVE OAK DR, CORVALLIS, OR, 97330",155865267,"L"
215883,"4471 PARMALEE GULCH ROAD B517","INDIAN HILLS","CO",80454,39.6353204980001,-105.27051035,383,"4471 PARMALEE GULCH ROAD B517, INDIAN HILLS, CO, 80454","Match","Exact","4471 PARMALEE GULCH RD, INDIAN HILLS, CO, 80454",636173380,"R"
215884,"4471 PARMALEE GULCH ROAD","INDIAN HILLS","CO",80439,39.6353204980001,-105.27051035,384,"4471 PARMALEE GULCH ROAD, INDIAN HILLS, CO, 80439","Match","Non_Exact","4471 PARMALEE GULCH RD, INDIAN HILLS, CO, 80454",636173380,"R"
215885,"4471 W ADAMS BLVD 301","LOS ANGELES","CA",90016,34.03257912,-118.336996218,385,"4471 W ADAMS BLVD 301, LOS ANGELES, CA, 90016","Match","Non_Exact","4471 W ADAMS BLVD, LOS ANGELES, CA, 90016",141601891,"R"
215886,"4471 W M-61","STANDISH","MI",48658,43.982949708,-83.9856012939999,386,"4471 W M-61, STANDISH, MI, 48658","Match","Exact","4471 W M-61, STANDISH, MI, 48658",644963153,"L"
215887,"4471 WESTERN GAILS CT","FORT MYERS","FL",33916,26.6167612560001,-81.8248392089999,387,"4471 WESTERN GAILS CT, FORT MYERS, FL, 33916","Match","Exact","4471 WESTERN GAILS CT, FORT MYERS, FL, 33916",640653677,"R"
215888,"4471 WILSON AVE SW","GRANDVILLE","MI",49418,42.8831655700001,-85.762468794,388,"4471 WILSON AVE SW, GRANDVILLE, MI, 49418","Match","Exact","4471 WILSON AVE SW, GRANDVILLE, MI, 49418",12505145,"R"
215889,"44715 PRENTICE DR UNIT 372","DULLES","VA",20101,39.0011566680001,-77.45439721,389,"44715 PRENTICE DR UNIT 372, DULLES, VA, 20101","Match","Non_Exact","44715 PRENTICE DR, DULLES, VA, 20166",62362878,"L"
215890,"44717 1/2 FERN AVE","LANCASTER","CA",93534,34.69433724,-118.144013327,390,"44717 1/2 FERN AVE, LANCASTER, CA, 93534","Match","Exact","44717 FERN AVE, LANCASTER, CA, 93534",141526428,"L"
215891,"44717 FERN AVE","LANCASTER","CA",93534,34.694332172,-118.14401258,391,"44717 FERN AVE, LANCASTER, CA, 93534","Match","Exact","44717 FERN AVE, LANCASTER, CA, 93534",141526428,"L"
215892,"44718 BROADMORE CIRCLE NORTH","NORTHVILLE","MI",48168,42.397222244,-83.490308861,392,"44718 BROADMORE CIRCLE NORTH, NORTHVILLE, MI, 48168","Match","Non_Exact","44718 BROADMOOR CIR N, NORTHVILLE, MI, 48168",635773230,"R"
215893,"4472 DEL VALLE PKWY","PLEASANTON","CA",94566,37.6667692440001,-121.878553584,393,"4472 DEL VALLE PKWY, PLEASANTON, CA, 94566","Match","Exact","4472 DEL VALLE PKWY, PLEASANTON, CA, 94566",636950958,"R"
215894,"4472 EAST HORSESHOE ROAD","PHOENIX","AZ",85028,33.5659971810001,-111.983389033,394,"4472 EAST HORSESHOE ROAD, PHOENIX, AZ, 85028","Match","Exact","4472 E HORSESHOE RD, PHOENIX, AZ, 85028",653305901,"R"
215895,"4472 FRANKLIN ROAD","YUBA CITY","CA",95993,39.1270532950001,-121.697090862,395,"4472 FRANKLIN ROAD, YUBA CITY, CA, 95993","Match","Exact","4472 FRANKLIN RD, YUBA CITY, CA, 95993",646205916,"R"
215896,"4472 MANNINGTON BLVD","STOW","OH",44224,41.189242801,-81.4328154259999,396,"4472 MANNINGTON BLVD, STOW, OH, 44224","Match","Exact","4472 MANNINGTON BLVD, STOW, OH, 44224",61377596,"L"
215897,"4472 MT CARMEL TOBASCO ROAD","CINCINNATI","OH",45244,39.1007914360001,-84.299729239,397,"4472 MT CARMEL TOBASCO ROAD, CINCINNATI, OH, 45244","Match","Exact","4472 MOUNT CARMEL TOBASCO RD, CINCINNATI, OH, 45244",118445956,"R"
215898,"4472 OREGON STREET","SAN DIEGO","CA",92116,32.7585695020001,-117.135136087,398,"4472 OREGON STREET, SAN DIEGO, CA, 92116","Match","Exact","4472 OREGON ST, SAN DIEGO, CA, 92116",195345255,"L"
215899,"4472 WELLINGTON DR","LONG GROVE","IL",60047,42.198548949,-87.996403839,399,"4472 WELLINGTON DR, LONG GROVE, IL, 60047","Match","Exact","4472 WELLINGTON DR, LONG GROVE, IL, 60047",119689351,"R"
215900,"44720 PALO VERDE ST APT 55","INDIO","CA",92201,33.7235462830001,-116.212009474,400,"44720 PALO VERDE ST APT 55, INDIO, CA, 92201","Match","Exact","44720 PALO VERDE ST, INDIO, CA, 92201",194775426,"L"
215901,"4473 DUFORD ROAD","NICHOLS","SC",29581,34.217119537,-79.0575864799999,401,"4473 DUFORD ROAD, NICHOLS, SC, 29581","Match","Exact","4473 DUFORD RD, NICHOLS, SC, 29581",29100016,"L"
215902,"4473 E 250TH RD","MENDOTA","IL",61342,41.5789846010001,-89.1185391819999,402,"4473 E 250TH RD, MENDOTA, IL, 61342","Match","Exact","4473 E 250TH RD, MENDOTA, IL, 61342",8582905,"L"
215903,"4473 LONGMEADOW DR","GURNEE","IL",60031,42.3498829370001,-87.91342523,403,"4473 LONGMEADOW DR, GURNEE, IL, 60031","Match","Exact","4473 LONGMEADOW DR, GURNEE, IL, 60031",119690397,"L"
215904,"4473 NORTH CAREFREE CIRCLE","COLORADO SPRINGS","CO",80917,38.8865474350001,-104.742381819,404,"4473 NORTH CAREFREE CIRCLE, COLORADO SPRINGS, CO, 80917","Match","Exact","4473 N CAREFREE CIR, COLORADO SPRINGS, CO, 80917",610811174,"R"
215905,"44730 DUNN ROAD","BELLEVILLE","MI",48111,42.1307646860001,-83.473963145,405,"44730 DUNN ROAD, BELLEVILLE, MI, 48111","Match","Exact","44730 DUNN RD, BELLEVILLE, MI, 48111",95707629,"L"
215906,"44733 HECK ROAD","COLUMBIANA","OH",44408,40.8928842920001,-80.654919981,406,"44733 HECK ROAD, COLUMBIANA, OH, 44408","Match","Exact","44733 HECK RD, COLUMBIANA, OH, 44408",63653482,"R"
215907,"44734 27TH ST EAST","LANCASTER","CA",93535,34.6963596890001,-118.081387927,407,"44734 27TH ST EAST, LANCASTER, CA, 93535","Match","Exact","44734 27TH ST E, LANCASTER, CA, 93535",141527823,"R"
215908,"44735 107TH ST","VEBLEN","SD",57270,45.833565105,-97.253949891,408,"44735 107TH ST, VEBLEN, SD, 57270","Match","Exact","44735 107TH ST, VEBLEN, SD, 57270",647576050,"L"
215909,"44735 MAGUIRE WAY UNIT G","CALIFORNIA","MD",20619,38.303818575,-76.5273355859999,409,"44735 MAGUIRE WAY UNIT G, CALIFORNIA, MD, 20619","Match","Exact","44735 MAGUIRE WAY, CALIFORNIA, MD, 20619",624828493,"R"
215910,"44735 N HILLS DR NUM 103","NORTHVILLE","MI",48167,42.4503202930001,-83.486485681,410,"44735 N HILLS DR NUM 103, NORTHVILLE, MI, 48167","Match","Non_Exact","44735 N HILLS DR, NORTHVILLE, MI, 48167",624523095,"R"
215911,"4474 CEDAR RIDGE TRAIL","STONE MOUNTAIN","GA",30083,33.747253727,-84.205016417,411,"4474 CEDAR RIDGE TRAIL, STONE MOUNTAIN, GA, 30083","Match","Exact","4474 CEDAR RIDGE TRL, STONE MOUNTAIN, GA, 30083",23371997,"L"
215912,"4474 EASTGATE MALL UNIT 1","SAN DIEGO","CA",92121,32.879012131,-117.208731236,412,"4474 EASTGATE MALL UNIT 1, SAN DIEGO, CA, 92121","Match","Exact","4474 EASTGATE MALL, SAN DIEGO, CA, 92121",647696970,"L"
215913,"4474 HIDDEN COVE ROAD","PARK CITY","UT",84098,40.7575332230001,-111.598147827,413,"4474 HIDDEN COVE ROAD, PARK CITY, UT, 84098","Match","Exact","4474 HIDDEN COVE RD, PARK CITY, UT, 84098",160639521,"R"
215914,"4474 JEFFERSON MARION RD SE","JEFFERSON","OR",97352,44.732633956,-122.968348047,414,"4474 JEFFERSON MARION RD SE, JEFFERSON, OR, 97352","Match","Exact","4474 JEFFERSON MARION RD SE, JEFFERSON, OR, 97352",613669022,"L"
215915,"4474 LINDSEY DRIVE","POWDER SPRINGS","GA",30127,33.822223325,-84.682881256,415,"4474 LINDSEY DRIVE, POWDER SPRINGS, GA, 30127","Match","Exact","4474 LINDSEY DR, POWDER SPGS, GA, 30127",17203199,"R"
215916,"4474 NORTH SMITH ROAD","DIMONDALE","MI",48821,42.632659496,-84.6419655779999,416,"4474 NORTH SMITH ROAD, DIMONDALE, MI, 48821","Match","Non_Exact","4474 SMITH RD, DIMONDALE, MI, 48821",12042761,"R"
215917,"4474 SIGMA ROAD","FARMERS BRANCH","TX",75234,32.9370870270001,-96.832819966,417,"4474 SIGMA ROAD, FARMERS BRANCH, TX, 75234","Match","Non_Exact","4474 SIGMA RD, FARMERS BRANCH, TX, 75244",102897979,"R"
215918,"4474 TUMBLEWEED TRAIL","PORT ORANGE","FL",32127,29.1308116330001,-80.997185632,418,"4474 TUMBLEWEED TRAIL, PORT ORANGE, FL, 32127","Match","Exact","4474 TUMBLEWEED TRL, PORT ORANGE, FL, 32127",94587089,"R"
215919,"4474 WESTON RD NUM 284","DAVIE","FL",33331,26.064176339,-80.3623767239999,419,"4474 WESTON RD NUM 284, DAVIE, FL, 33331","Match","Exact","4474 WESTON RD, DAVIE, FL, 33331",638294218,"L"
215920,"4474 WESTON ROAD 387","DAVIE","FL",33331,26.064176339,-80.3623767239999,420,"4474 WESTON ROAD 387, DAVIE, FL, 33331","Match","Exact","4474 WESTON RD, DAVIE, FL, 33331",638294218,"L"
215921,"4474 WESTON ROAD SUITE 216","DAVIE","FL",33331,26.064176339,-80.3623767239999,421,"4474 WESTON ROAD SUITE 216, DAVIE, FL, 33331","Match","Exact","4474 WESTON RD, DAVIE, FL, 33331",638294218,"L"
215922,"44741 TWP RD 504","COSHOCTON","OH",43812,NA,NA,422,"44741 TWP RD 504, COSHOCTON, OH, 43812","No_Match",NA,NA,NA,NA
215923,"44748 GLENGARRY RD","CANTON","MI",48188,42.304045204,-83.4793394769999,423,"44748 GLENGARRY RD, CANTON, MI, 48188","Match","Exact","44748 GLENGARRY RD, CANTON, MI, 48188",95712078,"L"
215924,"4475 248TH LN SE","SAMMAMISH","WA",98029,47.565656222,-122.00709197,424,"4475 248TH LN SE, SAMMAMISH, WA, 98029","Match","Exact","4475 248TH LN SE, SAMMAMISH, WA, 98029",186939971,"R"
215925,"4475 BRENTWOOD STREET","WHEAT RIDGE","CO",80033,39.7780224370001,-105.089017608,425,"4475 BRENTWOOD STREET, WHEAT RIDGE, CO, 80033","Match","Exact","4475 BRENTWOOD ST, WHEAT RIDGE, CO, 80033",177289480,"L"
215926,"4475 DUBLIN ROAD","HILLIARD","OH",43026,40.0523739830001,-83.106428888,426,"4475 DUBLIN ROAD, HILLIARD, OH, 43026","Match","Exact","4475 DUBLIN RD, HILLIARD, OH, 43026",135612165,"R"
215927,"4475 HIGHWAY 41","DILLON","MT",59725,45.263490544,-112.567124215,427,"4475 HIGHWAY 41, DILLON, MT, 59725","Match","Non_Exact","4475 STATE HWY 41, DILLON, MT, 59725",153004644,"L"
215928,"4475 LEGENDARY DRIVE","DESTIN","FL",32541,30.3931333510001,-86.42418384,428,"4475 LEGENDARY DRIVE, DESTIN, FL, 32541","Match","Exact","4475 LEGENDARY DR, DESTIN, FL, 32541",640812062,"L"
215929,"4475 MARKET STREET","VENTURA","CA",93003,34.257204217,-119.233171628,429,"4475 MARKET STREET, VENTURA, CA, 93003","Match","Exact","4475 MARKET ST, VENTURA, CA, 93003",109953031,"L"
215930,"4475 MCKEACHIE ROAD","WHITE LAKE","MI",48383,42.6815330430001,-83.5340694019999,430,"4475 MCKEACHIE ROAD, WHITE LAKE, MI, 48383","Match","Exact","4475 MCKEACHIE RD, WHITE LAKE, MI, 48383",617718973,"R"
215931,"4475 N HIGHWAY 53","SAINT STEPHEN","SC",29479,NA,NA,431,"4475 N HIGHWAY 53, SAINT STEPHEN, SC, 29479","No_Match",NA,NA,NA,NA
215932,"4475 OLDE CHARTED TRAIL","POLAND","OH",44514,41.01089675,-80.567374117,432,"4475 OLDE CHARTED TRAIL, POLAND, OH, 44514","Match","Exact","4475 OLDE CHARTED TRL, POLAND, OH, 44514",64610778,"L"
215933,"4475 PLATEAU ROAD","RENO","NV",89519,39.5048851920001,-119.884643911,433,"4475 PLATEAU ROAD, RENO, NV, 89519","Match","Exact","4475 PLATEAU RD, RENO, NV, 89519",640019817,"R"
215934,"4475 S DOWNING  ST","ENGLEWOOD","CO",80113,39.63549027,-104.973756466,434,"4475 S DOWNING  ST, ENGLEWOOD, CO, 80113","Match","Exact","4475 S DOWNING ST, ENGLEWOOD, CO, 80113",177334536,"R"
215935,"4475 S ROUTT ST","LITTLETON","CO",80127,39.635048457,-105.127793904,435,"4475 S ROUTT ST, LITTLETON, CO, 80127","Match","Exact","4475 S ROUTT ST, LITTLETON, CO, 80127",177801900,"R"
215936,"4475 SW SCHOLLS FERRY RD STE 258","PORTLAND","OR",97225,45.486218036,-122.748873522,436,"4475 SW SCHOLLS FERRY RD STE 258, PORTLAND, OR, 97225","Match","Non_Exact","4475 SW SCHOLLS FERRY RD, PORTLAND, OR, 97225",158188184,"R"
215937,"4475 SW SCHOLLS FERRY ROAD STE 258","PORTLAND","OR",97225,45.486218036,-122.748873522,437,"4475 SW SCHOLLS FERRY ROAD STE 258, PORTLAND, OR, 97225","Match","Non_Exact","4475 SW SCHOLLS FERRY RD, PORTLAND, OR, 97225",158188184,"R"
215938,"4475 TRINITY MILLS ROAD 701632","DALLAS","TX",75370,32.9899675840001,-96.832418172,438,"4475 TRINITY MILLS ROAD 701632, DALLAS, TX, 75370","Match","Non_Exact","4475 TRINITY MILLS RD, DALLAS, TX, 75287",210495614,"L"
215939,"4475 WEST 58TH AVENUE UNIT D","ARVADA","CO",80002,39.8019376140001,-105.045009796,439,"4475 WEST 58TH AVENUE UNIT D, ARVADA, CO, 80002","Match","Exact","4475 W 58TH AVE, ARVADA, CO, 80002",639756072,"R"
215940,"44750 SAN JACINTO AVE","PALM DESERT","CA",92260,33.7235934180001,-116.374390298,440,"44750 SAN JACINTO AVE, PALM DESERT, CA, 92260","Match","Exact","44750 SAN JACINTO AVE, PALM DESERT, CA, 92260",624437569,"L"
215941,"44751 WINDING LANE","FREMONT","CA",94539,37.508826309,-121.932568073,441,"44751 WINDING LANE, FREMONT, CA, 94539","Match","Exact","44751 WINDING LN, FREMONT, CA, 94539",125034358,"R"
215942,"44756 SHADOWCREST DR","LANCASTER","CA",93536,34.6962387130001,-118.179985588,442,"44756 SHADOWCREST DR, LANCASTER, CA, 93536","Match","Exact","44756 SHADOWCREST DR, LANCASTER, CA, 93536",141830043,"L"
215943,"4476 COUNTY ROAD 3400","LOVELADY","TX",75851,31.162597292,-95.544303643,443,"4476 COUNTY ROAD 3400, LOVELADY, TX, 75851","Match","Exact","4476 CO RD 3400, LOVELADY, TX, 75851",21992494,"L"
215944,"4476 DICKSON ROAD","GREENWOOD","FL",32443,30.890131167,-85.1192941469999,444,"4476 DICKSON ROAD, GREENWOOD, FL, 32443","Match","Exact","4476 DICKSON RD, GREENWOOD, FL, 32443",636359903,"R"
215945,"4476 HITCHCOCK ROAD","ORR","MN",55771,48.0486319680001,-92.8519115989999,445,"4476 HITCHCOCK ROAD, ORR, MN, 55771","Match","Exact","4476 HITCHCOCK RD, ORR, MN, 55771",634460456,"L"
215946,"4476 VILLAGE DRIVE SE","OLYMPIA","WA",98501,47.004880056,-122.874777015,446,"4476 VILLAGE DRIVE SE, OLYMPIA, WA, 98501","Match","Non_Exact","4476 VILLAGE CIR SE, OLYMPIA, WA, 98501",180946816,"L"
215947,"4476 VILLAGE SPRINGS RUN","ATLANTA","GA",30338,33.928448362,-84.32931852,447,"4476 VILLAGE SPRINGS RUN, ATLANTA, GA, 30338","Match","Exact","4476 VILLAGE SPRINGS RUN, ATLANTA, GA, 30338",23391812,"L"
215948,"44768 SANDHILL ROAD","MARICOPA","AZ",85139,33.0422767520001,-112.048996613,448,"44768 SANDHILL ROAD, MARICOPA, AZ, 85139","Match","Exact","44768 SANDHILL RD, MARICOPA, AZ, 85139",606299454,"R"
215949,"4477 BAYLOR ST","GREENSBORO","NC",27455,36.1345348680001,-79.806335808,449,"4477 BAYLOR ST, GREENSBORO, NC, 27455","Match","Exact","4477 BAYLOR ST, GREENSBORO, NC, 27455",131109452,"L"
215950,"4477 BIRCH RUN DR","TROY","MI",48098,42.582740587,-83.1872275329999,450,"4477 BIRCH RUN DR, TROY, MI, 48098","Match","Exact","4477 BIRCH RUN DR, TROY, MI, 48098",630325775,"L"
215951,"4477 E SARANAC DRIVE","TUCSON","AZ",85718,32.283172818,-110.897513316,451,"4477 E SARANAC DRIVE, TUCSON, AZ, 85718","Match","Exact","4477 E SARANAC DR, TUCSON, AZ, 85718",121177465,"L"
215952,"4477 FM 1448","SCROGGINS","TX",75480,33.0010922020001,-95.2008489089999,452,"4477 FM 1448, SCROGGINS, TX, 75480","Match","Exact","4477 FM 1448, SCROGGINS, TX, 75480",647373244,"R"
215953,"4477 HIGHWAY 173","JOURDANTON","TX",78026,28.966749398,-98.6326193089999,453,"4477 HIGHWAY 173, JOURDANTON, TX, 78026","Match","Non_Exact","4477 STATE HWY 173, JOURDANTON, TX, 78026",651637145,"L"
215954,"4477 HWY 10","ARDEN HILLS","MN",55112,45.077592,-93.1748525959999,454,"4477 HWY 10, ARDEN HILLS, MN, 55112","Match","Non_Exact","4477 OLD HWY 10, ARDEN HILLS, MN, 55112",97688375,"L"
215955,"4477 LILY BROOKE COURT","POWDER SPRINGS","GA",30127,33.845006013,-84.683082454,455,"4477 LILY BROOKE COURT, POWDER SPRINGS, GA, 30127","Match","Non_Exact","4477 LILLY BROOK CT, POWDER SPGS, GA, 30127",627725442,"R"
215956,"4477 LOCKWOOD COVE","MEMPHIS","TN",38128,35.2110891200001,-89.91383432,456,"4477 LOCKWOOD COVE, MEMPHIS, TN, 38128","Match","Exact","4477 LOCKWOOD COVE, MEMPHIS, TN, 38128",72914753,"R"
215957,"4477 SECRETARIAT CT","MEDINA","OH",44256,41.1103424950001,-81.847993529,457,"4477 SECRETARIAT CT, MEDINA, OH, 44256","Match","Exact","4477 SECRETARIAT CT, MEDINA, OH, 44256",58692678,"R"
215958,"4477 STONE RUN","ISLAND PARK","ID",83429,44.5294405540001,-111.355503919,458,"4477 STONE RUN, ISLAND PARK, ID, 83429","Match","Exact","4477 STONE RUN, ISLAND PARK, ID, 83429",119232676,"R"
215959,"4477 WEST 139TH STREET","CLEVELAND","OH",44135,41.432869597,-81.789177459,459,"4477 WEST 139TH STREET, CLEVELAND, OH, 44135","Match","Exact","4477 W 139TH ST, CLEVELAND, OH, 44135",61103361,"L"
215960,"4477 WEST GANDY BLVD","TAMPA","FL",33611,27.893338477,-82.521554894,460,"4477 WEST GANDY BLVD, TAMPA, FL, 33611","Match","Exact","4477 W GANDY BLVD, TAMPA, FL, 33611",104527833,"R"
215961,"4478 ALABAMA STREET","SAN DIEGO","CA",92116,32.7586365110001,-117.142557486,461,"4478 ALABAMA STREET, SAN DIEGO, CA, 92116","Match","Exact","4478 ALABAMA ST, SAN DIEGO, CA, 92116",195345174,"L"
215962,"4478 APULIA RD APT 2","JAMESVILLE","NY",13078,42.987876654,-76.07179604,462,"4478 APULIA RD APT 2, JAMESVILLE, NY, 13078","Match","Exact","4478 APULIA RD, JAMESVILLE, NY, 13078",46578295,"R"
215963,"4478 CERRITOS AVE","LOS ALAMITOS","CA",90720,33.810306919,-118.054895578,463,"4478 CERRITOS AVE, LOS ALAMITOS, CA, 90720","Match","Exact","4478 CERRITOS AVE, LOS ALAMITOS, CA, 90720",144114584,"R"
215964,"4478 CHERRYWOOD LANE","VIRGINIA BEACH","VA",23453,36.8024212060001,-76.110591062,464,"4478 CHERRYWOOD LANE, VIRGINIA BEACH, VA, 23453","Match","Exact","4478 CHERRYWOOD LN, VIRGINIA BCH, VA, 23453",122267855,"R"
215965,"4478 HWY 522","PUTNEY","KY",40865,NA,NA,465,"4478 HWY 522, PUTNEY, KY, 40865","No_Match",NA,NA,NA,NA
215966,"4478 PAPAL DRIVE","FLORISSANT","MO",63033,38.782135392,-90.2714673569999,466,"4478 PAPAL DRIVE, FLORISSANT, MO, 63033","Match","Exact","4478 PAPAL DR, FLORISSANT, MO, 63033",100145594,"R"
215967,"4478 PARADISE ROAD","SUGAR GROVE","OH",43155,39.6537831050001,-82.500547833,467,"4478 PARADISE ROAD, SUGAR GROVE, OH, 43155","Match","Exact","4478 PARADISE RD, SUGAR GROVE, OH, 43155",37223579,"R"
215968,"44780 SANTA ANITA AVENUE","PALM DESERT","CA",92260,33.723321539,-116.370009025,468,"44780 SANTA ANITA AVENUE, PALM DESERT, CA, 92260","Match","Exact","44780 SANTA ANITA AVE, PALM DESERT, CA, 92260",194770786,"L"
215969,"44786 THREE COVES RD","HOLLYWOOD","MD",20636,38.349494027,-76.526182692,469,"44786 THREE COVES RD, HOLLYWOOD, MD, 20636","Match","Exact","44786 THREE COVES RD, HOLLYWOOD, MD, 20636",36640769,"R"
215970,"4479 DON TOMASO APT 2","LOS ANGELES","CA",90008,34.0036040050001,-118.352827209,470,"4479 DON TOMASO APT 2, LOS ANGELES, CA, 90008","Match","Non_Exact","4479 DON TOMASO DR, LOS ANGELES, CA, 90008",141601526,"R"
215971,"448 37TH STREET","BROOKLYN","NY",11232,40.6530803540001,-74.003897377,471,"448 37TH STREET, BROOKLYN, NY, 11232","Match","Exact","448 37TH ST, BROOKLYN, NY, 11232",59093998,"R"
215972,"448 ADAMS MILL LN","APPOMATTOX","VA",24522,37.432958183,-78.912838472,472,"448 ADAMS MILL LN, APPOMATTOX, VA, 24522","Match","Exact","448 ADAMS MILL LN, APPOMATTOX, VA, 24522",651921974,"R"
215973,"448 ASHLEY LANE","CORRALES","NM",87048,35.217504395,-106.653405674,473,"448 ASHLEY LANE, CORRALES, NM, 87048","Match","Exact","448 ASHLEY LN, CORRALES, NM, 87048",632574022,"L"
215974,"448 AVENIDA DEL ROBLE","SAN JOSE","CA",95213,37.2543723590001,-121.835096896,474,"448 AVENIDA DEL ROBLE, SAN JOSE, CA, 95213","Match","Non_Exact","448 AVE DEL ROBLE, SAN JOSE, CA, 95123",122923881,"L"
215975,"448 BARTON DRIVE","ORANGE","CT",6477,41.271563293,-73.016994526,475,"448 BARTON DRIVE, ORANGE, CT, 6477","Match","Exact","448 BARTON DR, ORANGE, CT, 06477",3733073,"L"
215976,"448 CADENCE VIEW WAY","HENDERSON","NV",89011,36.0580911960001,-114.96926169,476,"448 CADENCE VIEW WAY, HENDERSON, NV, 89011","Match","Exact","448 CADENCE VIEW WAY, HENDERSON, NV, 89011",650623479,"L"
215977,"448 CANYON CREEK DRIVE","AMERICAN CANYON","CA",94503,38.1619527300001,-122.242994744,477,"448 CANYON CREEK DRIVE, AMERICAN CANYON, CA, 94503","Match","Exact","448 CANYON CREEK DR, AMERICAN CANYON, CA, 94503",67426213,"R"
215978,"448 CEDAR STREET","LYONS","OR",97358,44.777546064,-122.617208893,478,"448 CEDAR STREET, LYONS, OR, 97358","Match","Exact","448 CEDAR ST, LYONS, OR, 97358",156055706,"L"
215979,"448 CLEMENS AVENUE","KIRKWOOD","MO",63122,38.586812078,-90.419200815,479,"448 CLEMENS AVENUE, KIRKWOOD, MO, 63122","Match","Exact","448 CLEMENS AVE, KIRKWOOD, MO, 63122",100136846,"R"
215980,"448 COOK STREET","DENVER","CO",80224,39.723319696,-104.947367367,480,"448 COOK STREET, DENVER, CO, 80224","Match","Non_Exact","448 COOK ST, DENVER, CO, 80206",177338472,"R"
215981,"448 CRANFORD RD","DENTON","NC",27239,35.590215485,-80.081309183,481,"448 CRANFORD RD, DENTON, NC, 27239","Match","Exact","448 CRANFORD RD, DENTON, NC, 27239",606406736,"R"
215982,"448 DELANO RD","READING","VT",5062,43.4948800180001,-72.525047747,482,"448 DELANO RD, READING, VT, 5062","Match","Exact","448 DELANO RD, READING, VT, 05062",139243379,"L"
215983,"448 E CENTER STREET","GLENWOOD","IL",60425,41.5467204760001,-87.6000984889999,483,"448 E CENTER STREET, GLENWOOD, IL, 60425","Match","Exact","448 CENTER ST, GLENWOOD, IL, 60425",111784889,"R"
215984,"448 E PASADENA ST","POMONA","CA",91767,34.063856951,-117.742699873,484,"448 E PASADENA ST, POMONA, CA, 91767","Match","Exact","448 E PASADENA ST, POMONA, CA, 91767",141734079,"R"
215985,"448 EL CAMINO REAL","ATHERTON","CA",94027,NA,NA,485,"448 EL CAMINO REAL, ATHERTON, CA, 94027","No_Match",NA,NA,NA,NA
215986,"448 FALLER STREET","OCEANSIDE","NY",11572,40.6284504670001,-73.657913674,486,"448 FALLER STREET, OCEANSIDE, NY, 11572","Match","Exact","448 FALLER ST, OCEANSIDE, NY, 11572",147680454,"L"
215987,"448 GOLFERS WAY","DENVER","CO",80230,39.7235546060001,-104.881993181,487,"448 GOLFERS WAY, DENVER, CO, 80230","Match","Non_Exact","448 N GOLFERS WAY, DENVER, CO, 80230",647265496,"R"
215988,"448 GOODYEAR STREET","SAN JOSE","CA",95110,37.3150307330001,-121.885171189,488,"448 GOODYEAR STREET, SAN JOSE, CA, 95110","Match","Exact","448 GOODYEAR ST, SAN JOSE, CA, 95110",122909737,"L"
215989,"448 GRANBY ST","HARTFORD","CT",6112,41.800847096,-72.7066272389999,489,"448 GRANBY ST, HARTFORD, CT, 6112","Match","Exact","448 GRANBY ST, HARTFORD, CT, 06112",3486366,"R"
215990,"448 HACK BERRY PL","GAITHERSBURG","MD",20878,39.153927455,-77.2315576669999,490,"448 HACK BERRY PL, GAITHERSBURG, MD, 20878","Match","Non_Exact","448 HACKBERRY PL, GAITHERSBURG, MD, 20878",618607148,"L"
215991,"448 HENDERSON ROAD","JACKSON","TN",38305,35.6954785030001,-88.797121784,491,"448 HENDERSON ROAD, JACKSON, TN, 38305","Match","Exact","448 HENDERSON RD, JACKSON, TN, 38305",21329025,"R"
215992,"448 HWY 84","MANSFIELD","LA",71052,32.073036159,-93.5209417039999,492,"448 HWY 84, MANSFIELD, LA, 71052","Match","Non_Exact","448 US HWY 84, MANSFIELD, LA, 71052",67665427,"L"
215993,"448 IGNACIO BLVD 113","NOVATO","CA",94949,38.066594992,-122.543186508,493,"448 IGNACIO BLVD 113, NOVATO, CA, 94949","Match","Exact","448 IGNACIO BLVD, NOVATO, CA, 94949",192786780,"R"
215994,"448 IGNACIO BLVD SUITE 329","NOVATO","CA",94949,38.066594992,-122.543186508,494,"448 IGNACIO BLVD SUITE 329, NOVATO, CA, 94949","Match","Exact","448 IGNACIO BLVD, NOVATO, CA, 94949",192786780,"R"
215995,"448 JACKSON STREET 2ND FLOOR","CAMDEN","NJ",8103,NA,NA,495,"448 JACKSON STREET 2ND FLOOR, CAMDEN, NJ, 8103","No_Match",NA,NA,NA,NA
215996,"448 JULIA DRIVE","ROMEOVILLE","IL",60446,41.6406104120001,-88.121361613,496,"448 JULIA DRIVE, ROMEOVILLE, IL, 60446","Match","Exact","448 JULIA DR, ROMEOVILLE, IL, 60446",111617636,"R"
215997,"448 KINGSCOTE LANE","GLEN ALLEN","VI",23059,NA,NA,497,"448 KINGSCOTE LANE, GLEN ALLEN, VI, 23059","No_Match",NA,NA,NA,NA
215998,"448 LAKESHORE DRIVE","PIKEVILLE","TN",37367,35.571555828,-85.144315599,498,"448 LAKESHORE DRIVE, PIKEVILLE, TN, 37367","Match","Non_Exact","448 LAKE SHORE DR, PIKEVILLE, TN, 37367",59206569,"R"
215999,"448 LIPIZZAN LN","CELINA","TX",75009,33.2795023680001,-96.7787755699999,499,"448 LIPIZZAN LN, CELINA, TX, 75009","Match","Exact","448 LIPIZZAN LN, CELINA, TX, 75009",642934483,"R"
216000,"448 MARYS ROAD","RIDGWAY","CO",81432,38.080603507,-107.7107945,500,"448 MARYS ROAD, RIDGWAY, CO, 81432","Match","Exact","448 MARYS RD, RIDGWAY, CO, 81432",617338918,"R"
