"ID","Address","City","State","Zip","lat","long","id","input_address","match_indicator","match_type","matched_address","tiger_line_id","tiger_side"
272001,"6831 FERNWOOD DR   B","CHARLOTTE","NC",28211,35.1558138290001,-80.753424423,1,"6831 FERNWOOD DR   B, CHARLOTTE, NC, 28211","Match","Exact","6831 FERNWOOD DR, CHARLOTTE, NC, 28211",653469758,"L"
272002,"6831 FRESH POND RD","RIDGEWOOD","NY",11385,NA,NA,2,"6831 FRESH POND RD, RIDGEWOOD, NY, 11385","No_Match",NA,NA,NA,NA
272003,"6831 HOLLOW HEARTH","HOUSTON","TX",77084,29.874220268,-95.630859648,3,"6831 HOLLOW HEARTH, HOUSTON, TX, 77084","Match","Non_Exact","6831 HOLLOW HEARTH DR, HOUSTON, TX, 77084",96142756,"L"
272004,"6831 N TRIPP AVENUE","LINCOLNWOOD","IL",60712,42.005422837,-87.734768658,4,"6831 N TRIPP AVENUE, LINCOLNWOOD, IL, 60712","Match","Exact","6831 TRIPP AVE, LINCOLNWOOD, IL, 60712",605208123,"R"
272005,"6831 NICOLE COVE","BARTLETT","TN",38135,35.221270062,-89.834686222,5,"6831 NICOLE COVE, BARTLETT, TN, 38135","Match","Exact","6831 NICOLE COVE, BARTLETT, TN, 38135",72951492,"L"
272006,"6831 NW 29TH AVE","MIAMI","FL",33147,25.8368541130001,-80.2434391369999,6,"6831 NW 29TH AVE, MIAMI, FL, 33147","Match","Non_Exact","6831 NW 29TH AVE, MIAMI, FL, 33147",647815401,"R"
272007,"6831 PORTER ROAD","SARASOTA","FL",34240,27.3134869670001,-82.43437347,7,"6831 PORTER ROAD, SARASOTA, FL, 34240","Match","Exact","6831 PORTER RD, SARASOTA, FL, 34240",16448014,"L"
272008,"6831 SW BANCROFT WAY","PORTLAND","OR",97225,45.4921975020001,-122.747333538,8,"6831 SW BANCROFT WAY, PORTLAND, OR, 97225","Match","Exact","6831 SW BANCROFT WAY, PORTLAND, OR, 97225",158188141,"R"
272009,"6832 BRENNER AVE","BUENA PARK","CA",90621,33.8607766390001,-117.995395521,9,"6832 BRENNER AVE, BUENA PARK, CA, 90621","Match","Exact","6832 BRENNER AVE, BUENA PARK, CA, 90621",609052671,"L"
272010,"6832 CHILHAM","FLORISSANT","MO",63033,38.8078976360001,-90.233626551,10,"6832 CHILHAM, FLORISSANT, MO, 63033","Match","Non_Exact","6832 CHILHAM DR, FLORISSANT, MO, 63033",100148468,"L"
272011,"6832 CITRINE DR","CARLSBAD","CA",92009,33.108461006,-117.257178421,11,"6832 CITRINE DR, CARLSBAD, CA, 92009","Match","Exact","6832 CITRINE DR, CARLSBAD, CA, 92009",195769536,"L"
272012,"6832 HAYLEY RIDGE WAY UNIT L","BALTIMORE","MD",21209,39.3807745080001,-76.672849528,12,"6832 HAYLEY RIDGE WAY UNIT L, BALTIMORE, MD, 21209","Match","Exact","6832 HAYLEY RIDGE WAY, BALTIMORE, MD, 21209",191504031,"R"
272013,"6832 N DOWNING LANE","COEUR D ALENE","ID",83815,NA,NA,13,"6832 N DOWNING LANE, COEUR D ALENE, ID, 83815","No_Match",NA,NA,NA,NA
272014,"6832 REA AVENUE","CALIFORNIA CITY","CA",93505,35.1382271250001,-118.006157204,14,"6832 REA AVENUE, CALIFORNIA CITY, CA, 93505","Match","Exact","6832 REA AVE, CALIF CITY, CA, 93505",109423481,"L"
272015,"6832 STORY CIRCLE","NORCROSS","GA",30093,33.893696692,-84.197914489,15,"6832 STORY CIRCLE, NORCROSS, GA, 30093","Match","Exact","6832 STORY CIR, NORCROSS, GA, 30093",647019743,"L"
272016,"6832 VISTA GRANDE DR NE","ROCKFORD","MI",49341,43.0868252600001,-85.5255626489999,16,"6832 VISTA GRANDE DR NE, ROCKFORD, MI, 49341","Match","Exact","6832 VISTA GRANDE DR NE, ROCKFORD, MI, 49341",12467088,"R"
272017,"6832 W WAGNER DR","MONEE","IL",60449,41.4329217710001,-87.777745947,17,"6832 W WAGNER DR, MONEE, IL, 60449","Match","Exact","6832 W WAGNER DR, MONEE, IL, 60449",111594251,"R"
272018,"6832 WELLAND STREET","DUBLIN","OH",43017,40.0939425660001,-83.1055067619999,18,"6832 WELLAND STREET, DUBLIN, OH, 43017","Match","Exact","6832 WELLAND ST, DUBLIN, OH, 43017",218572584,"L"
272019,"6832 WYNMEADOWS DRIVE","STONE MOUNTAIN","GA",30087,33.7940529470001,-84.108997089,19,"6832 WYNMEADOWS DRIVE, STONE MOUNTAIN, GA, 30087","Match","Non_Exact","6832 WYNMEADOW DR, STONE MOUNTAIN, GA, 30087",627759961,"L"
272020,"68324 KLINGER LAKE ROAD","STURGIS","MI",49091,41.8052948600001,-85.531445366,20,"68324 KLINGER LAKE ROAD, STURGIS, MI, 49091","Match","Exact","68324 KLINGER LAKE RD, STURGIS, MI, 49091",15317916,"L"
272021,"68325 250TH AVE","KASSON","MN",55944,43.9593603980001,-92.738386727,21,"68325 250TH AVE, KASSON, MN, 55944","Match","Exact","68325 250TH AVE, KASSON, MN, 55944",31430757,"R"
272022,"6833 ARONOMINK DRIVE","CHARLOTTE","NC",28210,35.121116978,-80.833147927,22,"6833 ARONOMINK DRIVE, CHARLOTTE, NC, 28210","Match","Exact","6833 ARONOMINK DR, CHARLOTTE, NC, 28210",70565700,"R"
272023,"6833 BEATTY DR","AUSTIN","TX",78749,30.2138987610001,-97.885587157,23,"6833 BEATTY DR, AUSTIN, TX, 78749","Match","Exact","6833 BEATTY DR, AUSTIN, TX, 78749",64004160,"L"
272024,"6833 BLYTHEFIELD AVE NE","ROCKFORD","MI",49341,43.086810014,-85.5855385249999,24,"6833 BLYTHEFIELD AVE NE, ROCKFORD, MI, 49341","Match","Exact","6833 BLYTHEFIELD AVE NE, ROCKFORD, MI, 49341",12492648,"L"
272025,"6833 CATTAIL CT S","COTTAGE GROVE","MN",55016,44.8500411200001,-92.971010985,25,"6833 CATTAIL CT S, COTTAGE GROVE, MN, 55016","Match","Exact","6833 CATTAIL CT S, COTTAGE GROVE, MN, 55016",234994115,"L"
272026,"6833 COIT ROAD SUITE 100","PLANO","TX",75024,33.0693756580001,-96.7711634459999,26,"6833 COIT ROAD SUITE 100, PLANO, TX, 75024","Match","Exact","6833 COIT RD, PLANO, TX, 75024",210508181,"L"
272027,"6833 COLORADO AVENUE","LA MESA","CA",91942,32.777704435,-117.049059798,27,"6833 COLORADO AVENUE, LA MESA, CA, 91942","Match","Exact","6833 COLORADO AVE, LA MESA, CA, 91942",650371927,"R"
272028,"6833 E OAK LN","ORANGE","CA",92869,33.816100679,-117.780228402,28,"6833 E OAK LN, ORANGE, CA, 92869","Match","Exact","6833 E OAK LN, ORANGE, CA, 92869",144034559,"L"
272029,"6833 HANNEGAN ROAD UNIT A","EVERSON","WA",98247,48.8897380080001,-122.442491866,29,"6833 HANNEGAN ROAD UNIT A, EVERSON, WA, 98247","Match","Exact","6833 HANNEGAN RD, EVERSON, WA, 98247",652714351,"L"
272030,"6833 INDIANA AVE SUITE 108","RIVERSIDE","CA",92506,33.9426710600001,-117.392398627,30,"6833 INDIANA AVE SUITE 108, RIVERSIDE, CA, 92506","Match","Exact","6833 INDIANA AVE, RIVERSIDE, CA, 92506",194743219,"R"
272031,"6833 KYLERIDGE POINTE","CANFIELD","OH",44406,NA,NA,31,"6833 KYLERIDGE POINTE, CANFIELD, OH, 44406","No_Match",NA,NA,NA,NA
272032,"6833 MOUNTAIN LAKE PLACE","CAPITAL HEIGHTS","MD",20743,38.87622559,-76.889229669,32,"6833 MOUNTAIN LAKE PLACE, CAPITAL HEIGHTS, MD, 20743","Match","Non_Exact","6833 MOUNTAIN LAKE PL, CAPITOL HGTS, MD, 20743",76371919,"R"
272033,"6833 NW MONTICELLO CT","PARKVILLE","MO",64152,39.216963976,-94.6630403779999,33,"6833 NW MONTICELLO CT, PARKVILLE, MO, 64152","Match","Exact","6833 MONTICELLO CT, PARKVILLE, MO, 64152",39709964,"R"
272034,"6833 SANDROCK WAY","SACRAMENTO","CA",95828,38.490375301,-121.42100474,34,"6833 SANDROCK WAY, SACRAMENTO, CA, 95828","Match","Exact","6833 SANDROCK WAY, SACRAMENTO, CA, 95828",133449088,"L"
272035,"6833 SEPULVEDA BLVD STE 208","VAN NUYS","CA",91405,34.1945775450001,-118.466190437,35,"6833 SEPULVEDA BLVD STE 208, VAN NUYS, CA, 91405","Match","Exact","6833 SEPULVEDA BLVD, VAN NUYS, CA, 91405",652036977,"L"
272036,"6833 WHITE ROCK ROAD","SYKESVILLE","MD",21784,39.386611723,-77.0043398989999,36,"6833 WHITE ROCK ROAD, SYKESVILLE, MD, 21784","Match","Exact","6833 WHITE ROCK RD, SYKESVILLE, MD, 21784",635486399,"L"
272037,"6834 BLACKSTONE PLACE","MABLETON","GA",30126,33.7868175940001,-84.544446038,37,"6834 BLACKSTONE PLACE, MABLETON, GA, 30126","Match","Exact","6834 BLACKSTONE PL, MABLETON, GA, 30126",614183064,"L"
272038,"6834 CANTRELL RD STE 1368","LITTLE ROCK","AR",72207,34.7683356160001,-92.350155817,38,"6834 CANTRELL RD STE 1368, LITTLE ROCK, AR, 72207","Match","Exact","6834 CANTRELL RD, LITTLE ROCK, AR, 72207",83503764,"R"
272039,"6834 CANTRELL ROAD BOX 169","LITTLE ROCK","AR",72207,34.7683356160001,-92.350155817,39,"6834 CANTRELL ROAD BOX 169, LITTLE ROCK, AR, 72207","Match","Exact","6834 CANTRELL RD, LITTLE ROCK, AR, 72207",83503764,"R"
272040,"6834 N LOWELL AVE","LINCOLNWOOD","IL",60712,42.0053090970001,-87.737204483,40,"6834 N LOWELL AVE, LINCOLNWOOD, IL, 60712","Match","Exact","6834 LOWELL AVE, LINCOLNWOOD, IL, 60712",605208085,"L"
272041,"6834 S UNIVERSITY BLVD SUITE 136","CENTENNIAL","CO",80122,39.5928172550001,-104.960133019,41,"6834 S UNIVERSITY BLVD SUITE 136, CENTENNIAL, CO, 80122","Match","Non_Exact","6834 S UNIVERSITY BLVD, CENTENNIAL, CO, 80122",639026434,"L"
272042,"6834 SHEED ROAD","CINCINNATI","OH",45247,39.209911821,-84.639141909,42,"6834 SHEED ROAD, CINCINNATI, OH, 45247","Match","Exact","6834 SHEED RD, CINCINNATI, OH, 45247",103915684,"R"
272043,"6834 SONIA ST","TACOMA","WA",98404,47.195561313,-122.403911472,43,"6834 SONIA ST, TACOMA, WA, 98404","Match","Exact","6834 SONIA ST, TACOMA, WA, 98404",184701055,"R"
272044,"6834 SOUTH UNIVERSITY BLVD 242","CENTENNIAL","CO",80122,39.592827431,-104.960133227,44,"6834 SOUTH UNIVERSITY BLVD 242, CENTENNIAL, CO, 80122","Match","Exact","6834 S UNIVERSITY BLVD, CENTENNIAL, CO, 80122",639026434,"L"
272045,"6835 97TH TERR","OVERLAND PARK","KS",66212,38.951669614,-94.66409026,45,"6835 97TH TERR, OVERLAND PARK, KS, 66212","Match","Non_Exact","6835 W 97TH TER, OVERLAND PARK, KS, 66212",91279638,"L"
272046,"6835 BERKEY SOUTHERN ROAD","WHITEHOUSE","OH",43571,41.5154696650001,-83.827279117,46,"6835 BERKEY SOUTHERN ROAD, WHITEHOUSE, OH, 43571","Match","Non_Exact","6835 S BERKEY SOUTHERN RD, WHITEHOUSE, OH, 43571",33925950,"L"
272047,"6835 BRACE ST","HOUSTON","TX",77061,29.653900127,-95.310772401,47,"6835 BRACE ST, HOUSTON, TX, 77061","Match","Exact","6835 BRACE ST, HOUSTON, TX, 77061",96091611,"L"
272048,"6835 COMMERCE AVE","PORT RICHEY","FL",34668,28.279611807,-82.7032820169999,48,"6835 COMMERCE AVE, PORT RICHEY, FL, 34668","Match","Exact","6835 COMMERCE AVE, PORT RICHEY, FL, 34668",629656419,"R"
272049,"6835 CORKWOOD KNOLL","LIBERTY TOWNSHIP","OH",45011,39.3815360470001,-84.427335892,49,"6835 CORKWOOD KNOLL, LIBERTY TOWNSHIP, OH, 45011","Match","Exact","6835 CORKWOOD KNOLL, LIBERTY TWP, OH, 45011",624072929,"R"
272050,"6835 CREEK VILLAGE DR","KATY","TX",77449,29.877046696,-95.7105473839999,50,"6835 CREEK VILLAGE DR, KATY, TX, 77449","Match","Exact","6835 CREEK VILLAGE DR, KATY, TX, 77449",96014123,"L"
272051,"6835 LEE ST 6","WELLINGTON","CO",80549,40.6844437130001,-104.997138587,51,"6835 LEE ST 6, WELLINGTON, CO, 80549","Match","Exact","6835 LEE ST, WELLINGTON, CO, 80549",632891117,"R"
272052,"6835 LEYLAND PARK","SAN JOSE","CA",95120,37.207279521,-121.870355957,52,"6835 LEYLAND PARK, SAN JOSE, CA, 95120","Match","Non_Exact","6835 LEYLAND PARK DR, SAN JOSE, CA, 95120",122923278,"R"
272053,"6835 N 73RD ST","SCOTTSDALE","AZ",85250,33.5358367960001,-111.92406336,53,"6835 N 73RD ST, SCOTTSDALE, AZ, 85250","Match","Exact","6835 N 73RD ST, SCOTTSDALE, AZ, 85250",128221499,"R"
272054,"6835 NARCOSSEE RD STE 8","ORLANDO","FL",32822,28.467168277,-81.276704159,54,"6835 NARCOSSEE RD STE 8, ORLANDO, FL, 32822","Match","Non_Exact","6835 NARCOOSSEE RD, ORLANDO, FL, 32822",632432518,"L"
272055,"6835 NORTH 57TH DRIVE","GLENDALE","AZ",85301,33.5365583330001,-112.182511065,55,"6835 NORTH 57TH DRIVE, GLENDALE, AZ, 85301","Match","Exact","6835 N 57TH DR, GLENDALE, AZ, 85301",636812875,"R"
272056,"6835 OZELL RD","BOSTON","GA",31626,30.8549588330001,-83.794408892,56,"6835 OZELL RD, BOSTON, GA, 31626","Match","Exact","6835 OZELL RD, BOSTON, GA, 31626",83110667,"R"
272057,"6835 RAEFORD RD","FAYETTEVILLE","NC",28304,35.0373093270001,-79.008633596,57,"6835 RAEFORD RD, FAYETTEVILLE, NC, 28304","Match","Exact","6835 RAEFORD RD, FAYETTEVILLE, NC, 28304",640608428,"R"
272058,"6836  SAN MATEO ST","PARAMOUNT","CA",90732,33.8987929630001,-118.179165188,58,"6836  SAN MATEO ST, PARAMOUNT, CA, 90732","Match","Non_Exact","6836 SAN MATEO ST, PARAMOUNT, CA, 90723",141679914,"R"
272059,"6836 BEE CAVES RD  SUTIE 272","AUSTIN","TX",78746,30.2994617300001,-97.837895992,59,"6836 BEE CAVES RD  SUTIE 272, AUSTIN, TX, 78746","Match","Exact","6836 BEE CAVES RD, AUSTIN, TX, 78746",641810058,"R"
272060,"6836 E 42ND STREET APT 2","INDIANAPOLIS","IN",46226,39.833330935,-86.0497337309999,60,"6836 E 42ND STREET APT 2, INDIANAPOLIS, IN, 46226","Match","Non_Exact","6836 E 42ND ST, INDIANAPOLIS, IN, 46226",108031140,"L"
272061,"6836 E NEW MARKET ELLWOOD ROAD","HURLOCK","MD",21643,38.6783603220001,-75.898906978,61,"6836 E NEW MARKET ELLWOOD ROAD, HURLOCK, MD, 21643","Match","Exact","6836 E NEW MARKET ELLWOOD RD, HURLOCK, MD, 21643",99664765,"L"
272062,"6836 GREEN SWAMP RD","CLERMONT","FL",34714,28.44513828,-81.7897542429999,62,"6836 GREEN SWAMP RD, CLERMONT, FL, 34714","Match","Exact","6836 GREEN SWAMP RD, CLERMONT, FL, 34714",617506908,"R"
272063,"6836 WINCHESTER AVE","INWOOD","WV",25428,39.3706709080001,-78.027900395,63,"6836 WINCHESTER AVE, INWOOD, WV, 25428","Match","Non_Exact","6836 WINCHESTER PIKE, INWOOD, WV, 25428",123378551,"L"
272064,"68365 DURANGO ROAD","CATHEDRAL CITY","CA",92234,33.832612623,-116.46903807,64,"68365 DURANGO ROAD, CATHEDRAL CITY, CA, 92234","Match","Exact","68365 DURANGO RD, CATHEDRAL CITY, CA, 92234",194765231,"R"
272065,"6837 AVIANO DR","CAMARILLO","CA",93012,34.240333897,-118.973958061,65,"6837 AVIANO DR, CAMARILLO, CA, 93012","Match","Exact","6837 AVIANO DR, CAMARILLO, CA, 93012",625709853,"R"
272066,"6837 AVIANO DRIVE","CAMARILLO","CA",93012,34.240333897,-118.973958061,66,"6837 AVIANO DRIVE, CAMARILLO, CA, 93012","Match","Exact","6837 AVIANO DR, CAMARILLO, CA, 93012",625709853,"R"
272067,"6837 HOLLOW GLEN COURT","GAINESVILLE","VA",20155,38.80955206,-77.614651953,67,"6837 HOLLOW GLEN COURT, GAINESVILLE, VA, 20155","Match","Exact","6837 HOLLOW GLEN CT, GAINESVILLE, VA, 20155",76528118,"L"
272068,"6837 KING SAINT CLAIRE RD","ALUM BANK","PA",15521,40.181519386,-78.607068294,68,"6837 KING SAINT CLAIRE RD, ALUM BANK, PA, 15521","Match","Non_Exact","6837 KING SAINT CLAIR RD, ALUM BANK, PA, 15521",50169489,"L"
272069,"6837 LAMBERT STREET","SHREVEPORT","LA",71119,32.4575678240001,-93.8913017359999,69,"6837 LAMBERT STREET, SHREVEPORT, LA, 71119","Match","Exact","6837 LAMBERT ST, SHREVEPORT, LA, 71119",57431442,"R"
272070,"6837 S KOMENSKY AVENUE","CHICAGO","IL",60629,41.7688211030001,-87.723717821,70,"6837 S KOMENSKY AVENUE, CHICAGO, IL, 60629","Match","Exact","6837 S KOMENSKY AVE, CHICAGO, IL, 60629",111816614,"L"
272071,"6837 ST OLAF DRIVE","SAINT LOUIS","MO",63134,38.7624182170001,-90.331331846,71,"6837 ST OLAF DRIVE, SAINT LOUIS, MO, 63134","Match","Exact","6837 SAINT OLAF DR, SAINT LOUIS, MO, 63134",100195299,"L"
272072,"6837 TORCH KEY STREET","LAKE WORTH","FL",33467,26.570152808,-80.153055405,72,"6837 TORCH KEY STREET, LAKE WORTH, FL, 33467","Match","Exact","6837 TORCH KEY ST, LAKE WORTH, FL, 33467",115577565,"L"
272073,"6838 BROOKVALE","SAN ANTONIO","TX",78238,29.4792278100001,-98.624985795,73,"6838 BROOKVALE, SAN ANTONIO, TX, 78238","Match","Non_Exact","6838 BROOKVALE DR, SAN ANTONIO, TX, 78238",101506394,"L"
272074,"6838 DAVID CT APT 2","INDIANAPOLIS","IN",46226,39.834139705,-86.0500473819999,74,"6838 DAVID CT APT 2, INDIANAPOLIS, IN, 46226","Match","Exact","6838 DAVID CT, INDIANAPOLIS, IN, 46226",107997670,"L"
272075,"6838 DAVID CT","INDIANAPOLIS","IN",46226,39.834139705,-86.0500473819999,75,"6838 DAVID CT, INDIANAPOLIS, IN, 46226","Match","Exact","6838 DAVID CT, INDIANAPOLIS, IN, 46226",107997670,"L"
272076,"6838 DAWNHILL ROAD","BARTLETT","TN",38135,35.234583909,-89.835021096,76,"6838 DAWNHILL ROAD, BARTLETT, TN, 38135","Match","Exact","6838 DAWNHILL RD, BARTLETT, TN, 38135",72900417,"L"
272077,"6838 FENWICK AVE NE","CANTON","OH",44721,40.8812617930001,-81.3416900079999,77,"6838 FENWICK AVE NE, CANTON, OH, 44721","Match","Exact","6838 FENWICK AVE NE, CANTON, OH, 44721",64718217,"R"
272078,"6838 ROYAL OAK DRIVE","ORLANDO","FL",32809,NA,NA,78,"6838 ROYAL OAK DRIVE, ORLANDO, FL, 32809","No_Match",NA,NA,NA,NA
272079,"6838 S FILLMORE CT","CENTENNIAL","CO",80122,39.5917152660001,-104.953224671,79,"6838 S FILLMORE CT, CENTENNIAL, CO, 80122","Match","Exact","6838 S FILLMORE CT, CENTENNIAL, CO, 80122",177344854,"L"
272080,"6838 TOURAINE DR","FLINT","MI",48505,43.0733468490001,-83.663180056,80,"6838 TOURAINE DR, FLINT, MI, 48505","Match","Exact","6838 TOURAINE DR, FLINT, MI, 48505",69566671,"R"
272081,"6838 WALDEMAR AVE","SAINT LOUIS","MO",63139,38.6189611350001,-90.305914217,81,"6838 WALDEMAR AVE, SAINT LOUIS, MO, 63139","Match","Exact","6838 WALDEMAR AVE, SAINT LOUIS, MO, 63139",612192582,"L"
272082,"6838 WARD AVE APT A12","NORTH CHARLESTON","SC",29406,32.9182222790001,-80.0465193319999,82,"6838 WARD AVE APT A12, NORTH CHARLESTON, SC, 29406","Match","Exact","6838 WARD AVE, N CHARLESTON, SC, 29406",647987523,"R"
272083,"6838 WOODLAND BLUFF NE","COMSTOCK PARK","MI",49321,43.0876474730001,-85.6481672039999,83,"6838 WOODLAND BLUFF NE, COMSTOCK PARK, MI, 49321","Match","Exact","6838 WOODLAND BLUFF NE, COMSTOCK PARK, MI, 49321",12484280,"L"
272084,"6839 EVANS STREET","HOUSTON","TX",77061,29.648959635,-95.309297594,84,"6839 EVANS STREET, HOUSTON, TX, 77061","Match","Exact","6839 EVANS ST, HOUSTON, TX, 77061",96092246,"L"
272085,"6839 FARMALL WAY","EASTVALE","CA",92880,33.963596065,-117.565604622,85,"6839 FARMALL WAY, EASTVALE, CA, 92880","Match","Exact","6839 FARMALL WAY, EASTVALE, CA, 92880",629824809,"L"
272086,"6839 HARDING HIGHWAY","MAYS LANDING","NJ",8330,39.471875057,-74.820289482,86,"6839 HARDING HIGHWAY, MAYS LANDING, NJ, 8330","Match","Exact","6839 HARDING HWY, MAYS LANDING, NJ, 08330",202494551,"R"
272087,"6839 JACKSON CREEK RD","SEDALIA","CO",80135,39.2619408800001,-105.082054546,87,"6839 JACKSON CREEK RD, SEDALIA, CO, 80135","Match","Exact","6839 JACKSON CREEK RD, SEDALIA, CO, 80135",130792104,"L"
272088,"6839 TUSSILAGO WAY","ORLANDO","FL",32822,NA,NA,88,"6839 TUSSILAGO WAY, ORLANDO, FL, 32822","No_Match",NA,NA,NA,NA
272089,"6839 WAGON OAK ROAD","Charlotte","NC",28212,35.218393733,-80.7313936689999,89,"6839 WAGON OAK ROAD, Charlotte, NC, 28212","Match","Exact","6839 WAGON OAK RD, CHARLOTTE, NC, 28212",70493749,"R"
272090,"6839 YARMOUTH AVENUE","RESEDA","CA",91335,34.195422352,-118.519694624,90,"6839 YARMOUTH AVENUE, RESEDA, CA, 91335","Match","Exact","6839 YARMOUTH AVE, RESEDA, CA, 91335",141555424,"L"
272091,"68399 S FOREST","RICHMOND","MI",48062,NA,NA,91,"68399 S FOREST, RICHMOND, MI, 48062","Tie",NA,NA,NA,NA
272092,"684  DIELLEN LANE","ELMONT  LONG ISLAN","NY",11003,40.692476694,-73.696997819,92,"684  DIELLEN LANE, ELMONT  LONG ISLAN, NY, 11003","Match","Non_Exact","684 DIELLEN LN, ELMONT, NY, 11003",147669093,"R"
272093,"684  DIELLEN LANE","ELMONT  LONG ISLAND","NY",11003,40.692476694,-73.696997819,93,"684  DIELLEN LANE, ELMONT  LONG ISLAND, NY, 11003","Match","Non_Exact","684 DIELLEN LN, ELMONT, NY, 11003",147669093,"R"
272094,"684 16TH STREET APT K","OAKLAND","CA",94612,37.8078603800001,-122.275934409,94,"684 16TH STREET APT K, OAKLAND, CA, 94612","Match","Exact","684 16TH ST, OAKLAND, CA, 94612",124996949,"L"
272095,"684 CALLE MONTERA","ESCONDIDO","CA",92025,33.0685364890001,-117.055949378,95,"684 CALLE MONTERA, ESCONDIDO, CA, 92025","Match","Non_Exact","684 CLL MONTERA, ESCONDIDO, CA, 92025",629819415,"L"
272096,"684 CLEVELAND PIKE RD","WESTMINSTER","SC",29693,34.641526663,-83.2178465869999,96,"684 CLEVELAND PIKE RD, WESTMINSTER, SC, 29693","Match","Exact","684 CLEVELAND PIKE RD, WESTMINSTER, SC, 29693",25655277,"R"
272097,"684 CONCERTO LANE","SILVER SPRING","MD",20901,39.0419930750001,-76.999065072,97,"684 CONCERTO LANE, SILVER SPRING, MD, 20901","Match","Exact","684 CONCERTO LN, SILVER SPRING, MD, 20901",62100284,"L"
272098,"684 DEAN STREET FL 1","BROOKLYN","NY",11238,40.6800684080001,-73.9673922439999,98,"684 DEAN STREET FL 1, BROOKLYN, NY, 11238","Match","Exact","684 DEAN ST, BROOKLYN, NY, 11238",59077981,"R"
272099,"684 EAST 21ST STREET APT1","BROOKLYN","NY",11226,40.637489723,-73.957569587,99,"684 EAST 21ST STREET APT1, BROOKLYN, NY, 11226","Match","Exact","684 E 21ST ST, BROOKLYN, NY, 11226",652210298,"R"
272100,"684 EAST ESCALON AVENUE","FRESNO","CA",93710,36.8265232460001,-119.774739494,100,"684 EAST ESCALON AVENUE, FRESNO, CA, 93710","Match","Exact","684 E ESCALON AVE, FRESNO, CA, 93710",197573388,"L"
272101,"684 EPHESUS CHURCH ROAD","LORMAN","MS",39096,31.7395630230001,-90.969105509,101,"684 EPHESUS CHURCH ROAD, LORMAN, MS, 39096","Match","Exact","684 EPHESUS CHURCH RD, LORMAN, MS, 39096",65577271,"L"
272102,"684 FITZWATER BRANCH ROAD","RENICK","WV",24966,38.0969933430001,-80.359177568,102,"684 FITZWATER BRANCH ROAD, RENICK, WV, 24966","Match","Exact","684 FITZWATER BRANCH RD, RENICK, WV, 24966",74743520,"R"
272103,"684 HURL WAY","HOPKINSVILLE","KY",42240,36.8401416140001,-87.5178590209999,103,"684 HURL WAY, HOPKINSVILLE, KY, 42240","Match","Exact","684 HURL WAY, HOPKINSVILLE, KY, 42240",11299615,"L"
272104,"684 LANGDON STREET FIRST FLOOR","ORANGE","NJ",7050,40.7597771310001,-74.2506071609999,104,"684 LANGDON STREET FIRST FLOOR, ORANGE, NJ, 7050","Match","Exact","684 LANGDON ST, ORANGE, NJ, 07050",63461108,"L"
272105,"684 PANORAMA DR","SAN FRANCISCO","CA",94131,37.753653742,-122.452286246,105,"684 PANORAMA DR, SAN FRANCISCO, CA, 94131","Match","Exact","684 PANORAMA DR, SAN FRANCISCO, CA, 94131",192282923,"R"
272106,"684 PARADISE PARK","SANTA CRUZ","CA",95060,NA,NA,106,"684 PARADISE PARK, SANTA CRUZ, CA, 95060","No_Match",NA,NA,NA,NA
272107,"684 PEEPLES ST SW","ATLANTA","GA",30310,33.7362513100001,-84.420469195,107,"684 PEEPLES ST SW, ATLANTA, GA, 30310","Match","Exact","684 PEEPLES ST SW, ATLANTA, GA, 30310",17345042,"L"
272108,"684 RIVERSIDE DRIVE APT 6B","NEW YORK","NY",10031,40.8273474740001,-73.9516135269999,108,"684 RIVERSIDE DRIVE APT 6B, NEW YORK, NY, 10031","Match","Exact","684 RIVERSIDE DR, NEW YORK, NY, 10031",59655913,"R"
272109,"684 S BARRINGTON RD 277","STREAMWOOD","IL",60107,42.0193717700001,-88.1447069979999,109,"684 S BARRINGTON RD 277, STREAMWOOD, IL, 60107","Match","Exact","684 BARRINGTON RD, STREAMWOOD, IL, 60107",111691793,"R"
272110,"684 S BARRINGTON RD SUITE 258","STREAMWOOD","IL",60107,42.0193717700001,-88.1447069979999,110,"684 S BARRINGTON RD SUITE 258, STREAMWOOD, IL, 60107","Match","Exact","684 BARRINGTON RD, STREAMWOOD, IL, 60107",111691793,"R"
272111,"684 SE GLENEDEN PLACE","BEND","OR",97702,44.0402298290001,-121.294185413,111,"684 SE GLENEDEN PLACE, BEND, OR, 97702","Match","Exact","684 SE GLENEDEN PL, BEND, OR, 97702",611085336,"L"
272112,"684 SPRINGFIELD AVENUE","SUMMIT","NJ",7901,40.712441009,-74.3761336709999,112,"684 SPRINGFIELD AVENUE, SUMMIT, NJ, 7901","Match","Exact","684 SPRINGFIELD AVE, SUMMIT, NJ, 07901",647623617,"L"
272113,"684 STATE AVENUE","BEAVER","PA",15009,40.679600543,-80.338907668,113,"684 STATE AVENUE, BEAVER, PA, 15009","Match","Non_Exact","684 STATE ST, BEAVER, PA, 15009",636461335,"L"
272114,"684 SUDBURY RD","CONCORD","MA",1742,42.44353786,-71.36496987,114,"684 SUDBURY RD, CONCORD, MA, 1742","Match","Exact","684 SUDBURY RD, CONCORD, MA, 01742",87100305,"R"
272115,"684 TIMBERMILL LN","ORANGE PARK","FL",32065,30.1785552470001,-81.8143882909999,115,"684 TIMBERMILL LN, ORANGE PARK, FL, 32065","Match","Exact","684 TIMBERMILL LN, ORANGE PARK, FL, 32065",83836045,"R"
272116,"684 WALKER STREET","BILOXI","MS",39530,30.408615109,-88.884509221,116,"684 WALKER STREET, BILOXI, MS, 39530","Match","Exact","684 WALKER ST, BILOXI, MS, 39530",111384636,"L"
272117,"684 WEST 130TH","BRUNSWICK","OH",44212,41.258027027,-81.784983831,117,"684 WEST 130TH, BRUNSWICK, OH, 44212","Match","Non_Exact","684 W 130TH ST, BRUNSWICK, OH, 44212",58675314,"R"
272118,"684","MANCHESTER","MO",63011,NA,NA,118,"684, MANCHESTER, MO, 63011","No_Match",NA,NA,NA,NA
272119,"6840 32ND STREET","BERWYN","IL",60402,41.834082763,-87.794631938,119,"6840 32ND STREET, BERWYN, IL, 60402","Match","Exact","6840 32ND ST, BERWYN, IL, 60402",605127408,"L"
272120,"6840 ANTLER COURT","LAS VEGAS","NV",89149,36.2854732770001,-115.323500112,120,"6840 ANTLER COURT, LAS VEGAS, NV, 89149","Match","Exact","6840 ANTLER CT, LAS VEGAS, NV, 89149",201952492,"L"
272121,"6840 EAST TRAILWAY DRIVE","BLOOMINGTON","IN",47408,39.165540294,-86.425587306,121,"6840 EAST TRAILWAY DRIVE, BLOOMINGTON, IN, 47408","Match","Non_Exact","6840 N TRAILWAY DR, BLOOMINGTON, IN, 47408",652685753,"R"
272122,"6840 GREBE PL","PHILADELPHIA","PA",19142,39.9135820180001,-75.228554668,122,"6840 GREBE PL, PHILADELPHIA, PA, 19142","Match","Exact","6840 GREBE PL, PHILADELPHIA, PA, 19142",636466278,"R"
272123,"6840 GREEN HOLLOW WAY","CLARKSVILLE","MD",20777,39.1831749580001,-76.966101754,123,"6840 GREEN HOLLOW WAY, CLARKSVILLE, MD, 20777","Match","Non_Exact","6840 GREEN HOLLOW WAY, HIGHLAND, MD, 20777",647298580,"R"
272124,"6840 NW 45TH STREET","LAUDERHILL","FL",33319,26.180454691,-80.241576885,124,"6840 NW 45TH STREET, LAUDERHILL, FL, 33319","Match","Exact","6840 NW 45TH ST, LAUDERHILL, FL, 33319",114703127,"R"
272125,"6840 OAK LN","PLACERVILLE","CA",95667,38.704298861,-120.832520315,125,"6840 OAK LN, PLACERVILLE, CA, 95667","Match","Exact","6840 OAK LN, PLACERVILLE, CA, 95667",133047223,"L"
272126,"6840 PASCHALL AVENUE","PHILADELPHIA","PA",19142,39.9212009400001,-75.2378912139999,126,"6840 PASCHALL AVENUE, PHILADELPHIA, PA, 19142","Match","Exact","6840 PASCHALL AVE, PHILADELPHIA, PA, 19142",131409216,"L"
272127,"6840 ROYAL PLUME DR","DUBLIN","OH",43016,40.1175058110001,-83.174586924,127,"6840 ROYAL PLUME DR, DUBLIN, OH, 43016","Match","Exact","6840 ROYAL PLUME DR, DUBLIN, OH, 43016",634053738,"L"
272128,"6840 S 300 W","TRAFALGAR","IN",46181,39.376471522,-86.1585918549999,128,"6840 S 300 W, TRAFALGAR, IN, 46181","Match","Exact","6840 S 300 W, TRAFALGAR, IN, 46181",114637712,"L"
272129,"68401 RIVIERA STREET","CATHEDRAL CITY","CA",92234,33.847262185,-116.469216839,129,"68401 RIVIERA STREET, CATHEDRAL CITY, CA, 92234","Match","Non_Exact","68401 RIVIERA RD, CATHEDRAL CITY, CA, 92234",608983026,"L"
272130,"6841 CHERYL ST","ANCHORAGE","AK",99518,61.1583829260001,-149.902567343,130,"6841 CHERYL ST, ANCHORAGE, AK, 99518","Match","Exact","6841 CHERYL ST, ANCHORAGE, AK, 99518",190798037,"R"
272131,"6841 CLEMDALE AVE","INDIANAPOLIS","IN",46226,39.846139291,-86.0491687369999,131,"6841 CLEMDALE AVE, INDIANAPOLIS, IN, 46226","Match","Exact","6841 CLEMDALE AVE, INDIANAPOLIS, IN, 46226",107997619,"R"
272132,"6841 COLDWATER CANYON AVE  NUMBER 7","NORTH HOLLYWOOD","CA",91605,34.1949891580001,-118.413792968,132,"6841 COLDWATER CANYON AVE  NUMBER 7, NORTH HOLLYWOOD, CA, 91605","Match","Exact","6841 COLDWATER CANYON AVE, N HOLLYWOOD, CA, 91605",141562946,"L"
272133,"6841 COLLEGE CT APT 9-104","DAVIE","FL",33317,26.0881432950001,-80.237891003,133,"6841 COLLEGE CT APT 9-104, DAVIE, FL, 33317","Match","Exact","6841 COLLEGE CT, DAVIE, FL, 33317",114793151,"R"
272134,"6841 CUMBERLAND DRIVE","HUNTINGTON BEACH","CA",92647,33.740879088,-118.009385388,134,"6841 CUMBERLAND DRIVE, HUNTINGTON BEACH, CA, 92647","Match","Exact","6841 CUMBERLAND DR, HUNTINGTON BEACH, CA, 92647",144256473,"L"
272135,"6841 ELM STREET","MCLEAN","VA",22101,38.9361891350001,-77.1801646819999,135,"6841 ELM STREET, MCLEAN, VA, 22101","Match","Exact","6841 ELM ST, MCLEAN, VA, 22101",619926604,"L"
272136,"6841 FIR ROAD","EAST STROUDSBURG","PA",18302,41.112146652,-75.13662264,136,"6841 FIR ROAD, EAST STROUDSBURG, PA, 18302","Match","Exact","6841 FIR RD, E STROUDSBURG, PA, 18302",651148952,"L"
272137,"6841 FLICKER LN","PLANO","TX",75074,33.066770337,-96.662389433,137,"6841 FLICKER LN, PLANO, TX, 75074","Match","Exact","6841 FLICKER LN, PLANO, TX, 75074",627498047,"R"
272138,"6841 GATO RD","EL PASO","TX",79932,NA,NA,138,"6841 GATO RD, EL PASO, TX, 79932","No_Match",NA,NA,NA,NA
272139,"6841 GLENLAKE PARKWAY SUITE A","SANDY SPRINGS","GA",30328,33.943682962,-84.362922396,139,"6841 GLENLAKE PARKWAY SUITE A, SANDY SPRINGS, GA, 30328","Match","Non_Exact","6841 GLENLAKE PKWY NE, SANDY SPRINGS, GA, 30328",642711739,"R"
272140,"6841 LALEMANT DRIVE","PARMA","OH",44129,41.3793155930001,-81.730944928,140,"6841 LALEMANT DRIVE, PARMA, OH, 44129","Match","Exact","6841 LALEMANT DR, PARMA, OH, 44129",61107543,"L"
272141,"6841 N GLEN HARBOR BLVD","GLENDALE","AZ",85307,33.534442132,-112.295127114,141,"6841 N GLEN HARBOR BLVD, GLENDALE, AZ, 85307","Match","Exact","6841 N GLEN HARBOR BLVD, GLENDALE, AZ, 85307",649544561,"R"
272142,"6841 PARKWOOD DRIVE","NORTHRICHLAND HILLS","TX",76182,32.8845296220001,-97.232838074,142,"6841 PARKWOOD DRIVE, NORTHRICHLAND HILLS, TX, 76182","Match","Non_Exact","6841 PARKWOOD DR, NORTH RICHLAND HILLS, TX, 76182",101860565,"L"
272143,"6841 ROUND TREE CIR","ANCHORAGE","AK",99507,61.1269090920001,-149.754985195,143,"6841 ROUND TREE CIR, ANCHORAGE, AK, 99507","Match","Exact","6841 ROUND TREE CIR, ANCHORAGE, AK, 99507",190804459,"R"
272144,"6841 SE GLADSTONE STREET","PORTLAND","OR",97206,45.493137361,-122.592808623,144,"6841 SE GLADSTONE STREET, PORTLAND, OR, 97206","Match","Exact","6841 SE GLADSTONE ST, PORTLAND, OR, 97206",157516425,"L"
272145,"6841 SILVER CRESCENT STREET","LAS VEGAS","NV",89148,36.064302216,-115.311260278,145,"6841 SILVER CRESCENT STREET, LAS VEGAS, NV, 89148","Match","Exact","6841 SILVER CRESCENT ST, LAS VEGAS, NV, 89148",650774518,"L"
272146,"6841 SILVER MEADOW COURT NE","ROCKFORD","MI",49341,43.096212193,-85.497883733,146,"6841 SILVER MEADOW COURT NE, ROCKFORD, MI, 49341","Match","Non_Exact","6841 SILVER MEADOW CT, ROCKFORD, MI, 49341",625129143,"R"
272147,"6841 SO CLERMONT DR","CENTENNIAL","CO",80122,39.5916409330001,-104.934181542,147,"6841 SO CLERMONT DR, CENTENNIAL, CO, 80122","Match","Exact","6841 S CLERMONT DR, CENTENNIAL, CO, 80122",177345538,"R"
272148,"6841 SUNNY DELL DRIVE","BESSEMER","AL",35023,33.475344152,-87.069736332,148,"6841 SUNNY DELL DRIVE, BESSEMER, AL, 35023","Match","Exact","6841 SUNNY DELL DR, BESSEMER, AL, 35023",81543542,"R"
272149,"6841 VESTA BROOK DRIVE","MORROW","GA",30260,33.5676234920001,-84.304221443,149,"6841 VESTA BROOK DRIVE, MORROW, GA, 30260","Match","Exact","6841 VESTA BROOK DR, MORROW, GA, 30260",23317687,"R"
272150,"6841 VINERIDGE DRIVE","DALLAS","TX",75248,32.95325093,-96.790302546,150,"6841 VINERIDGE DRIVE, DALLAS, TX, 75248","Match","Exact","6841 VINERIDGE DR, DALLAS, TX, 75248",650492558,"L"
272151,"6841 VIRGINIA PARKWAY SUITE 103-183","MCKINNEY","TX",75071,33.1987892510001,-96.707449598,151,"6841 VIRGINIA PARKWAY SUITE 103-183, MCKINNEY, TX, 75071","Match","Exact","6841 VIRGINIA PKWY, MCKINNEY, TX, 75071",619979381,"L"
272152,"6841 VIRGINIA PKWY STE 103 - 333","MCKINNEY","TX",75071,33.1987892510001,-96.707449598,152,"6841 VIRGINIA PKWY STE 103 - 333, MCKINNEY, TX, 75071","Match","Exact","6841 VIRGINIA PKWY, MCKINNEY, TX, 75071",619979381,"L"
272153,"6841 VIRGINIA PRKWY STE103 / 218","MCKINNEY","TX",75071,33.1987892510001,-96.707449598,153,"6841 VIRGINIA PRKWY STE103 / 218, MCKINNEY, TX, 75071","Match","Exact","6841 VIRGINIA PKWY, MCKINNEY, TX, 75071",619979381,"L"
272154,"6841 WUERPEL STREET","NEW ORLEANS","LA",70124,30.0151898290001,-90.1122912069999,154,"6841 WUERPEL STREET, NEW ORLEANS, LA, 70124","Match","Exact","6841 WUERPEL ST, NEW ORLEANS, LA, 70124",191699801,"R"
272155,"6842 CATARINA CIRCLE","HOUSTON","TX",77084,29.876160026,-95.6660850379999,155,"6842 CATARINA CIRCLE, HOUSTON, TX, 77084","Match","Exact","6842 CATARINA CIR, HOUSTON, TX, 77084",96563738,"L"
272156,"6842 GULF OF MEXICO DR","LONGBOAT KEY","FL",34228,27.432577356,-82.6835830479999,156,"6842 GULF OF MEXICO DR, LONGBOAT KEY, FL, 34228","Match","Exact","6842 GULF OF MEXICO DR, LONGBOAT KEY, FL, 34228",16238699,"R"
272157,"6842 HARTSWORTH DR","LAKELAND","FL",33813,27.9406509030001,-81.907665335,157,"6842 HARTSWORTH DR, LAKELAND, FL, 33813","Match","Exact","6842 HARTSWORTH DR, LAKELAND, FL, 33813",616680762,"L"
272158,"6842 S LOOMIS BLVD","CHICAGO","IL",60636,41.769834851,-87.659102693,158,"6842 S LOOMIS BLVD, CHICAGO, IL, 60636","Match","Exact","6842 S LOOMIS BLVD, CHICAGO, IL, 60636",605488102,"R"
272159,"6842 STATE ROUTE 61","MOUNT GILEAD","OH",43338,40.6052848530001,-82.823358581,159,"6842 STATE ROUTE 61, MOUNT GILEAD, OH, 43338","Match","Exact","6842 STATE RTE 61, MOUNT GILEAD, OH, 43338",12748596,"L"
272160,"6842 WESTCOTT DR","RICHMOND","VA",23225,37.5210793750001,-77.523568408,160,"6842 WESTCOTT DR, RICHMOND, VA, 23225","Match","Exact","6842 WESTCOTT DR, RICHMOND, VA, 23225",610891654,"L"
272161,"6843 EDGEWOOD PL","HIGHLANDS RANCH","CO",80130,39.5513308120001,-104.91003449,161,"6843 EDGEWOOD PL, HIGHLANDS RANCH, CO, 80130","Match","Non_Exact","6843 E EDGEWOOD PL, HIGHLANDS RANCH, CO, 80130",130819409,"R"
272162,"6843 GREENWAY CHASE ST","HOUSTON","TX",77072,29.7027930420001,-95.6094663439999,162,"6843 GREENWAY CHASE ST, HOUSTON, TX, 77072","Match","Exact","6843 GREENWAY CHASE ST, HOUSTON, TX, 77072",96608156,"L"
272163,"6843 LAKEWOOD BOULEVARD","DALLAS","TX",75214,32.819874515,-96.7421181449999,163,"6843 LAKEWOOD BOULEVARD, DALLAS, TX, 75214","Match","Exact","6843 LAKEWOOD BLVD, DALLAS, TX, 75214",102919449,"L"
272164,"6843 N 18TH ST","PHOENIX","AZ",85016,33.536900707,-112.042506084,164,"6843 N 18TH ST, PHOENIX, AZ, 85016","Match","Non_Exact","6843 N 18TH ST, PHOENIX, AZ, 85016",128304481,"L"
272165,"6843 POINT HANCOCK DR","WINTER GARDEN","FL",34787,28.4708601990001,-81.615613018,165,"6843 POINT HANCOCK DR, WINTER GARDEN, FL, 34787","Match","Exact","6843 POINT HANCOCK DR, WINTER GARDEN, FL, 34787",640858291,"L"
272166,"6844 ALEXANDRIA PLACE","STOCKTON","CA",95207,38.010081202,-121.33934437,166,"6844 ALEXANDRIA PLACE, STOCKTON, CA, 95207","Match","Exact","6844 ALEXANDRIA PL, STOCKTON, CA, 95207",133844353,"R"
272167,"6844 CREST AVENUE","UNIVERSITY CITY","MO",63130,38.6664466450001,-90.311482182,167,"6844 CREST AVENUE, UNIVERSITY CITY, MO, 63130","Match","Exact","6844 CREST AVE, UNIVERSITY CITY, MO, 63130",100152060,"L"
272168,"6844 LYMAN ROAD","BYRON","NY",14422,43.0521366740001,-78.0274674139999,168,"6844 LYMAN ROAD, BYRON, NY, 14422","Match","Exact","6844 LYMAN RD, BYRON, NY, 14422",652644236,"R"
272169,"6844 SOUTH CONGRESS AVE","LAKE WORTH","FL",33462,26.57453401,-80.0897035149999,169,"6844 SOUTH CONGRESS AVE, LAKE WORTH, FL, 33462","Match","Exact","6844 S CONGRESS AVE, LAKE WORTH, FL, 33462",115285426,"L"
272170,"6844 STRIMBU DRIVE","BROOKFIELD","OH",44403,41.229595025,-80.569950867,170,"6844 STRIMBU DRIVE, BROOKFIELD, OH, 44403","Match","Exact","6844 STRIMBU DR, BROOKFIELD, OH, 44403",117416681,"L"
272171,"68446 N 2113 ROAD","CAMARGO","OK",73835,NA,NA,171,"68446 N 2113 ROAD, CAMARGO, OK, 73835","No_Match",NA,NA,NA,NA
272172,"6845 BRYNBROOKE DR","DAWSONVILLE","GA",30534,34.3335219740001,-84.098127829,172,"6845 BRYNBROOKE DR, DAWSONVILLE, GA, 30534","Match","Non_Exact","6845 BRYN BROOKE DR, DAWSONVILLE, GA, 30534",618445207,"L"
272173,"6845 CORNER DR","MURFREESBORO","TN",37129,35.938299828,-86.4921230799999,173,"6845 CORNER DR, MURFREESBORO, TN, 37129","Match","Exact","6845 CORNER DR, MURFREESBORO, TN, 37129",649758137,"L"
272174,"6845 COUNTY ROAD 2","SWANTON","OH",43558,41.57211026,-83.9019932209999,174,"6845 COUNTY ROAD 2, SWANTON, OH, 43558","Match","Exact","6845 CO RD 2, SWANTON, OH, 43558",32849528,"L"
272175,"6845 E OLD STATE ROAD 144","MOORESVILLE","IN",46158,39.575675737,-86.300647295,175,"6845 E OLD STATE ROAD 144, MOORESVILLE, IN, 46158","Match","Exact","6845 E OLD STATE RD 144, MOORESVILLE, IN, 46158",43568271,"R"
272176,"6845 GRIGGS STREET","FORT WORTH","TX",76140,32.655781157,-97.258625879,176,"6845 GRIGGS STREET, FORT WORTH, TX, 76140","Match","Exact","6845 GRIGGS ST, FORT WORTH, TX, 76140",101903024,"L"
272177,"6845 HIGHLAND RD  SUITE 1","WHITE LAKE","MI",48383,NA,NA,177,"6845 HIGHLAND RD  SUITE 1, WHITE LAKE, MI, 48383","No_Match",NA,NA,NA,NA
272178,"6845 HIGHWAY 135","MAYODAN","NC",27027,36.411185769,-79.950656006,178,"6845 HIGHWAY 135, MAYODAN, NC, 27027","Match","Non_Exact","6845 STATE HWY 135, MAYODAN, NC, 27027",56211673,"L"
272179,"6845 INDIANA AVENUE STE 101","RIVERSIDE","CA",92506,33.942544497,-117.39257505,179,"6845 INDIANA AVENUE STE 101, RIVERSIDE, CA, 92506","Match","Exact","6845 INDIANA AVE, RIVERSIDE, CA, 92506",194743219,"R"
272180,"6845 LOCKWOOD BLVD APT185","BOARDMAN","OH",44512,41.032785947,-80.7056562449999,180,"6845 LOCKWOOD BLVD APT185, BOARDMAN, OH, 44512","Match","Exact","6845 LOCKWOOD BLVD, BOARDMAN, OH, 44512",64593522,"L"
272181,"6845 NC HWY 135","MAYODAN","NC",27027,36.411185769,-79.950656006,181,"6845 NC HWY 135, MAYODAN, NC, 27027","Match","Non_Exact","6845 STATE HWY 135, MAYODAN, NC, 27027",56211673,"L"
272182,"6845 NW 169TH ST APT C","HIALEAH","FL",33015,25.925962869,-80.312617014,182,"6845 NW 169TH ST APT C, HIALEAH, FL, 33015","Match","Non_Exact","6845 NW 169TH ST, HIALEAH, FL, 33015",629016089,"R"
272183,"6845 S 68TH ST 205","FRANKLIN","WI",53132,42.9214765410001,-87.999111715,183,"6845 S 68TH ST 205, FRANKLIN, WI, 53132","Match","Non_Exact","6845 S 68TH ST, FRANKLIN, WI, 53132",648216166,"R"
272184,"6845 UNIVERSITY AVE","SAN DIEGO","CA",92115,32.755126417,-117.050359992,184,"6845 UNIVERSITY AVE, SAN DIEGO, CA, 92115","Match","Exact","6845 UNIVERSITY AVE, SAN DIEGO, CA, 92115",612892327,"R"
272185,"6845 US HWY 90 E SUITE 105 PMB 120","DAPHNE","AL",36526,NA,NA,185,"6845 US HWY 90 E SUITE 105 PMB 120, DAPHNE, AL, 36526","No_Match",NA,NA,NA,NA
272186,"6845 WATSON ST STE 207","DUBLIN","OH",43017,NA,NA,186,"6845 WATSON ST STE 207, DUBLIN, OH, 43017","No_Match",NA,NA,NA,NA
272187,"6846 BELLEVUE ROAD","ROYAL OAK","MD",21662,38.7377184320001,-76.1798779279999,187,"6846 BELLEVUE ROAD, ROYAL OAK, MD, 21662","Match","Exact","6846 BELLEVUE RD, ROYAL OAK, MD, 21662",209754700,"L"
272188,"6846 MORRISON BOULEVARRD","CHARLOTTE","NC",28211,35.151224368,-80.825116422,188,"6846 MORRISON BOULEVARRD, CHARLOTTE, NC, 28211","Match","Non_Exact","6846 MORRISON BLVD, CHARLOTTE, NC, 28211",70522120,"R"
272189,"6846 S CANTON AVE STE 200","TULSA","OK",74136,36.063795364,-95.91884413,189,"6846 S CANTON AVE STE 200, TULSA, OK, 74136","Match","Non_Exact","6846 S CANTON AVE, TULSA, OK, 74136",166452400,"L"
272190,"6847 BEAGLE LANE","ARLINGTON","TN",38002,35.267136737,-89.834855806,190,"6847 BEAGLE LANE, ARLINGTON, TN, 38002","Match","Exact","6847 BEAGLE LN, ARLINGTON, TN, 38002",639168837,"L"
272191,"6847 BEAR RIVER ROW UNIT 4","SAN DIEGO","CA",92139,32.6797758050001,-117.044036909,191,"6847 BEAR RIVER ROW UNIT 4, SAN DIEGO, CA, 92139","Match","Exact","6847 BEAR RIVER ROW, SAN DIEGO, CA, 92139",640046045,"R"
272192,"6847 FLINTWOOD STREET","NAVARRE","FL",32566,30.4197168690001,-86.936911449,192,"6847 FLINTWOOD STREET, NAVARRE, FL, 32566","Match","Exact","6847 FLINTWOOD ST, NAVARRE, FL, 32566",74576489,"R"
272193,"6847 JUNIATA PL","PITTSBURGH","PA",15208,40.450345564,-79.9106999649999,193,"6847 JUNIATA PL, PITTSBURGH, PA, 15208","Match","Exact","6847 JUNIATA PL, PITTSBURGH, PA, 15208",51646818,"L"
272194,"6847 N 9TH AVE PMB 154","PENSACOLA","FL",32514,NA,NA,194,"6847 N 9TH AVE PMB 154, PENSACOLA, FL, 32514","No_Match",NA,NA,NA,NA
272195,"6847 ROMINE DR","KETCHIKAN","AK",99901,55.309163041,-131.52575711,195,"6847 ROMINE DR, KETCHIKAN, AK, 99901","Match","Exact","6847 ROMINE DR, KETCHIKAN, AK, 99901",207047573,"R"
272196,"6847 S HALSTED","CHICAGO","IL",60621,41.7697812100001,-87.644520669,196,"6847 S HALSTED, CHICAGO, IL, 60621","Match","Non_Exact","6847 S HALSTED ST, CHICAGO, IL, 60621",111830880,"L"
272197,"6847 SERRANO AVE","HESPERIA","CA",92345,34.373630319,-117.297859805,197,"6847 SERRANO AVE, HESPERIA, CA, 92345","Match","Exact","6847 SERRANO AVE, HESPERIA, CA, 92345",614831180,"R"
272198,"6847 SHANGRILA WAY","RIVERDALE","GA",30296,33.56835303,-84.4298868829999,198,"6847 SHANGRILA WAY, RIVERDALE, GA, 30296","Match","Exact","6847 SHANGRILA WAY, RIVERDALE, GA, 30296",23312416,"R"
272199,"6847 TANGLEWOOD DRIVE","WARRENTON","VA",20187,38.746073235,-77.715911056,199,"6847 TANGLEWOOD DRIVE, WARRENTON, VA, 20187","Match","Exact","6847 TANGLEWOOD DR, WARRENTON, VA, 20187",632975193,"L"
272200,"68477 CALLE MORA","CATHEDRAL CITY","CA",92234,NA,NA,200,"68477 CALLE MORA, CATHEDRAL CITY, CA, 92234","No_Match",NA,NA,NA,NA
272201,"6848 FIVE STAR BLVD SUITE 1","ROCKLIN","CA",95677,38.7818286940001,-121.267593713,201,"6848 FIVE STAR BLVD SUITE 1, ROCKLIN, CA, 95677","Match","Exact","6848 FIVE STAR BLVD, ROCKLIN, CA, 95677",645565166,"R"
272202,"6848 HOMAN CT","CHINO","CA",91710,34.0053300480001,-117.65573893,202,"6848 HOMAN CT, CHINO, CA, 91710","Match","Exact","6848 HOMAN CT, CHINO, CA, 91710",144999686,"L"
272203,"6848 MAGNOLIA AVE STE 100","RIVERSIDE","CA",92506,33.9495472620001,-117.398933692,203,"6848 MAGNOLIA AVE STE 100, RIVERSIDE, CA, 92506","Match","Exact","6848 MAGNOLIA AVE, RIVERSIDE, CA, 92506",194741595,"L"
272204,"6848 MAGNOLIA AVE STE 200","RIVERSIDE","CA",92506,33.9495472620001,-117.398933692,204,"6848 MAGNOLIA AVE STE 200, RIVERSIDE, CA, 92506","Match","Exact","6848 MAGNOLIA AVE, RIVERSIDE, CA, 92506",194741595,"L"
272205,"6848 MAGNOLIA AVENUE STE 200","RIVERSIDE","CA",92506,33.9495472620001,-117.398933692,205,"6848 MAGNOLIA AVENUE STE 200, RIVERSIDE, CA, 92506","Match","Exact","6848 MAGNOLIA AVE, RIVERSIDE, CA, 92506",194741595,"L"
272206,"6849 BEECH AVE","ORANGEVALE","CA",95662,38.690621923,-121.230100251,206,"6849 BEECH AVE, ORANGEVALE, CA, 95662","Match","Exact","6849 BEECH AVE, ORANGEVALE, CA, 95662",133427311,"L"
272207,"6849 NORTH 19TH STREET","PHILADELPHIA","PA",19126,40.059250363,-75.148761119,207,"6849 NORTH 19TH STREET, PHILADELPHIA, PA, 19126","Match","Exact","6849 N 19TH ST, PHILADELPHIA, PA, 19126",652292829,"R"
272208,"6849 OLD DOMINION DR SUITE 220","MCLEAN","VA",22101,38.9350740350001,-77.180969047,208,"6849 OLD DOMINION DR SUITE 220, MCLEAN, VA, 22101","Match","Non_Exact","6849 OLD DOMINION DR, MCLEAN, VA, 22101",638331009,"L"
272209,"6849 OLD DOMINION DR","MCLEAN","VA",22101,38.9350740350001,-77.180969047,209,"6849 OLD DOMINION DR, MCLEAN, VA, 22101","Match","Exact","6849 OLD DOMINION DR, MCLEAN, VA, 22101",638331009,"L"
272210,"6849 PEACHTREE DUNWOODY RD B3-100","ATLANTA","GA",30328,33.9423292770001,-84.352500759,210,"6849 PEACHTREE DUNWOODY RD B3-100, ATLANTA, GA, 30328","Match","Non_Exact","6849 PEACHTREE DUNWOODY RD NE, ATLANTA, GA, 30328",642712700,"R"
272211,"6849 PEACHTREE DUNWOODY RD STE B100","ATLANTA","GA",30328,33.9423292770001,-84.352500759,211,"6849 PEACHTREE DUNWOODY RD STE B100, ATLANTA, GA, 30328","Match","Non_Exact","6849 PEACHTREE DUNWOODY RD NE, ATLANTA, GA, 30328",642712700,"R"
272212,"6849 S CLYDE","CHICAGO","IL",60649,NA,NA,212,"6849 S CLYDE, CHICAGO, IL, 60649","No_Match",NA,NA,NA,NA
272213,"6849 SHOUP AVE","WEST HILLS","CA",91307,34.194758773,-118.614655395,213,"6849 SHOUP AVE, WEST HILLS, CA, 91307","Match","Exact","6849 SHOUP AVE, WEST HILLS, CA, 91307",141534471,"L"
272214,"6849 WEST SECOND STREET","RIO LINDA","CA",95673,38.69270162,-121.46611133,214,"6849 WEST SECOND STREET, RIO LINDA, CA, 95673","Match","Exact","6849 W 2ND ST, RIO LINDA, CA, 95673",640854142,"L"
272215,"6849 WILD STALLION ROAD","FT. WORTH","TX",76126,32.5819283810001,-97.4927735699999,215,"6849 WILD STALLION ROAD, FT. WORTH, TX, 76126","Match","Non_Exact","6849 WILD STALLION, FORT WORTH, TX, 76126",617676326,"R"
272216,"685 5TH AVENUE SOUTH PO BOX 408","ISLE","MN",56342,46.1354394940001,-93.473526479,216,"685 5TH AVENUE SOUTH PO BOX 408, ISLE, MN, 56342","Match","Exact","685 5TH AVE S, ISLE, MN, 56342",163055295,"L"
272217,"685 BLOOMFIELD AVE SUITE 202","VERONA","NJ",7044,NA,NA,217,"685 BLOOMFIELD AVE SUITE 202, VERONA, NJ, 7044","No_Match",NA,NA,NA,NA
272218,"685 BURKE AVENUE","BRONX","NY",10466,40.8714621190001,-73.86778254,218,"685 BURKE AVENUE, BRONX, NY, 10466","Match","Non_Exact","685 BURKE AVE, BRONX, NY, 10467",80303290,"L"
272219,"685 CALLECITA JICARILLA","SANTA FE","NM",87505,35.6494440770001,-105.930955995,219,"685 CALLECITA JICARILLA, SANTA FE, NM, 87505","Match","Exact","685 CALLECITA JICARILLA, SANTA FE, NM, 87505",169379771,"L"
272220,"685 CAROLINA ROAD","SUFFOLK","VA",23434,36.709900727,-76.593646405,220,"685 CAROLINA ROAD, SUFFOLK, VA, 23434","Match","Exact","685 CAROLINA RD, SUFFOLK, VA, 23434",629423290,"L"
272221,"685 CARON CIRCLE NW","ATLANTA","GA",30318,33.774566728,-84.485446996,221,"685 CARON CIRCLE NW, ATLANTA, GA, 30318","Match","Exact","685 CARON CIR NW, ATLANTA, GA, 30318",17336838,"R"
272222,"685 CARRIAGE ROW","TRYON","NC",28782,35.2116514570001,-82.160698419,222,"685 CARRIAGE ROW, TRYON, NC, 28782","Match","Exact","685 CARRIAGE ROW, TRYON, NC, 28782",637093152,"R"
272223,"685 CHATTAHOOCHEE GLEN ROAD","CLARKESVILLE","GA",30523,34.644139178,-83.6505776129999,223,"685 CHATTAHOOCHEE GLEN ROAD, CLARKESVILLE, GA, 30523","Match","Exact","685 CHATTAHOOCHEE GLEN RD, CLARKESVILLE, GA, 30523",627859007,"L"
272224,"685 CHERRY ST","MILTON","PA",17847,41.0106023270001,-76.8561416919999,224,"685 CHERRY ST, MILTON, PA, 17847","Match","Exact","685 CHERRY ST, MILTON, PA, 17847",648218400,"R"
272225,"685 CHURCH ROAD","ROCK HILL","SC",29730,34.9241818620001,-80.92933429,225,"685 CHURCH ROAD, ROCK HILL, SC, 29730","Match","Exact","685 CHURCH RD, ROCK HILL, SC, 29730",19794314,"R"
272226,"685 CITADEL DRIVE EAST SUITE 125","COLORADO SPRINGS","CO",80909,38.8432408890001,-104.758814488,226,"685 CITADEL DRIVE EAST SUITE 125, COLORADO SPRINGS, CO, 80909","Match","Exact","685 CITADEL DR E, COLORADO SPRINGS, CO, 80909",105517762,"R"
272227,"685 CLAY STREET","SAN FRANCISCO","CA",94111,37.7944917680001,-122.404460189,227,"685 CLAY STREET, SAN FRANCISCO, CA, 94111","Match","Exact","685 CLAY ST, SAN FRANCISCO, CA, 94111",192281281,"L"
272228,"685 CR 1630 WEST","CROCKETT","TX",75835,31.4204517490001,-95.407954827,228,"685 CR 1630 WEST, CROCKETT, TX, 75835","Match","Non_Exact","685 CO RD 1630, CROCKETT, TX, 75835",625170990,"R"
272229,"685 EAST AVENUE","PAWTUCKET","RI",2860,41.8588971680001,-71.390166446,229,"685 EAST AVENUE, PAWTUCKET, RI, 2860","Match","Exact","685 EAST AVE, PAWTUCKET, RI, 02860",47464515,"R"
272230,"685 EAST RIDGE WATER DRIVE","CHESNEE","SC",29323,35.1016474520001,-81.90265606,230,"685 EAST RIDGE WATER DRIVE, CHESNEE, SC, 29323","Match","Non_Exact","685 E RIDGEWATER DR, CHESNEE, SC, 29323",640598145,"L"
272231,"685 ELBERT STREET SW","ATLANTA","GA",30310,33.7283830270001,-84.410272758,231,"685 ELBERT STREET SW, ATLANTA, GA, 30310","Match","Exact","685 ELBERT ST SW, ATLANTA, GA, 30310",17345301,"R"
272232,"685 EVERGREEN CIRCLE","POCA","WV",25159,38.46416838,-81.803101635,232,"685 EVERGREEN CIRCLE, POCA, WV, 25159","Match","Exact","685 EVERGREEN CIR, POCA, WV, 25159",635388557,"R"
272233,"685 GREENWOOD RD","Hartwell","GA",30643,34.4209193190001,-82.9620479819999,233,"685 GREENWOOD RD, Hartwell, GA, 30643","Match","Exact","685 GREENWOOD RD, HARTWELL, GA, 30643",618099312,"R"
272234,"685 LILLY CT","MACON","GA",31204,32.8232089430001,-83.6698268549999,234,"685 LILLY CT, MACON, GA, 31204","Match","Exact","685 LILLY CT, MACON, GA, 31204",81059689,"L"
272235,"685 MALENA DRIVE","ANN ARBOR","MI",48103,42.2728248990001,-83.8767440349999,235,"685 MALENA DRIVE, ANN ARBOR, MI, 48103","Match","Exact","685 MALENA DR, ANN ARBOR, MI, 48103",26010866,"R"
272236,"685 MAYES ROAD","POWDER SPRINGS","GA",30127,33.9381120240001,-84.6775015589999,236,"685 MAYES ROAD, POWDER SPRINGS, GA, 30127","Match","Exact","685 MAYES RD, POWDER SPGS, GA, 30127",17210520,"L"
272237,"685 MOODY STREET   SUITE 8","WALTHAM","MA",2453,42.364573319,-71.238536051,237,"685 MOODY STREET   SUITE 8, WALTHAM, MA, 2453","Match","Exact","685 MOODY ST, WALTHAM, MA, 02453",86862011,"R"
272238,"685 MOZINGO LANE","PENSACOLA","FL",32514,30.5288699720001,-87.247191016,238,"685 MOZINGO LANE, PENSACOLA, FL, 32514","Match","Exact","685 MOZINGO LN, PENSACOLA, FL, 32514",617456347,"R"
272239,"685 N CO RD 1240 E","SEYMOUR","IN",47274,38.8901571320001,-85.808582085,239,"685 N CO RD 1240 E, SEYMOUR, IN, 47274","Match","Exact","685 N CO RD 1240 E, SEYMOUR, IN, 47274",641440324,"R"
272240,"685 NE 126TH ST","NORTH MIAMI","FL",33161,25.891242365,-80.184774583,240,"685 NE 126TH ST, NORTH MIAMI, FL, 33161","Match","Exact","685 NE 126TH ST, NORTH MIAMI, FL, 33161",116034502,"L"
272241,"685 NORTH WYATT DR","CHANDLER","AZ",85226,33.314515686,-111.960886977,241,"685 NORTH WYATT DR, CHANDLER, AZ, 85226","Match","Exact","685 N WYATT DR, CHANDLER, AZ, 85226",128777450,"L"
272242,"685 OCEAN SHORES BLVD NW","OCEAN SHORES","WA",98569,47.005938803,-124.166100743,242,"685 OCEAN SHORES BLVD NW, OCEAN SHORES, WA, 98569","Match","Exact","685 OCEAN SHORES BLVD NW, OCEAN SHORES, WA, 98569",180592817,"L"
272243,"685 PLACERVILLE DR","PLACERVILLE","CA",95667,38.731743421,-120.821879344,243,"685 PLACERVILLE DR, PLACERVILLE, CA, 95667","Match","Exact","685 PLACERVILLE DR, PLACERVILLE, CA, 95667",133060004,"R"
272244,"685 PLACERVILLE DRIVE","PLACERVILLE","CA",95667,38.731743421,-120.821879344,244,"685 PLACERVILLE DRIVE, PLACERVILLE, CA, 95667","Match","Exact","685 PLACERVILLE DR, PLACERVILLE, CA, 95667",133060004,"R"
272245,"685 PLEASANT STREET","FALL RIVER","MA",2721,41.697477232,-71.143932994,245,"685 PLEASANT STREET, FALL RIVER, MA, 2721","Match","Exact","685 PLEASANT ST, FALL RIVER, MA, 02721",46770758,"R"
272246,"685 PROVIDENCE MAIN APT 210","HUNTSVILLE","AL",35806,34.7557821720001,-86.690629524,246,"685 PROVIDENCE MAIN APT 210, HUNTSVILLE, AL, 35806","Match","Exact","685 PROVIDENCE MAIN, HUNTSVILLE, AL, 35806",638787782,"R"
272247,"685 PURTIS CREEK LANE","GEORGETOWN","TX",78628,30.576677514,-97.777083971,247,"685 PURTIS CREEK LANE, GEORGETOWN, TX, 78628","Match","Exact","685 PURTIS CREEK LN, GEORGETOWN, TX, 78628",641087129,"L"
272248,"685 ROUTE 134","SOUTH DENNIS","MA",2660,41.7037715880001,-70.1543665679999,248,"685 ROUTE 134, SOUTH DENNIS, MA, 2660","Match","Non_Exact","685 STATE RTE 134, SOUTH DENNIS, MA, 02660",121643245,"L"
272249,"685 ROUTE 6A","EAST SANDWICH","MA",2537,41.7270896200001,-70.397525709,249,"685 ROUTE 6A, EAST SANDWICH, MA, 2537","Match","Non_Exact","685 STATE RTE 6A, EAST SANDWICH, MA, 02537",623698039,"R"
272250,"685 ROYAL PALM BEACH BLVD","ROYAL PALM BEACH","FL",33411,26.6836437860001,-80.2301091269999,250,"685 ROYAL PALM BEACH BLVD, ROYAL PALM BEACH, FL, 33411","Match","Exact","685 ROYAL PALM BEACH BLVD, ROYAL PALM BEACH, FL, 33411",115562329,"R"
272251,"685 S DOBSON ROAD","CHANDLER","AZ",85224,33.2948683920001,-111.876249209,251,"685 S DOBSON ROAD, CHANDLER, AZ, 85224","Match","Exact","685 S DOBSON RD, CHANDLER, AZ, 85224",128968820,"L"
272252,"685 SPRING HILL DRIVE","WOODBURY","MN",55125,44.9385672810001,-92.9251539269999,252,"685 SPRING HILL DRIVE, WOODBURY, MN, 55125","Match","Exact","685 SPRING HILL DR, WOODBURY, MN, 55125",639958047,"L"
272253,"685 SPRING ST BOX 314","FRIDAY HARBOR","WA",98250,48.531350172,-123.024010533,253,"685 SPRING ST BOX 314, FRIDAY HARBOR, WA, 98250","Match","Exact","685 SPRING ST, FRIDAY HARBOR, WA, 98250",152177677,"R"
272254,"685 SPRING STREET NUM 313","FRIDAY HABOR","WA",98250,48.531350172,-123.024010533,254,"685 SPRING STREET NUM 313, FRIDAY HABOR, WA, 98250","Match","Non_Exact","685 SPRING ST, FRIDAY HARBOR, WA, 98250",152177677,"R"
272255,"685 STEERE FARM ROAD","PASCOAG","RI",2859,41.944722029,-71.673604482,255,"685 STEERE FARM ROAD, PASCOAG, RI, 2859","Match","Exact","685 STEERE FARM RD, PASCOAG, RI, 02859",632968242,"L"
272256,"685 TAYLOR SCHOOL DRIVE","LAWRENCEVILLE","GA",30043,34.0108573270001,-83.991790516,256,"685 TAYLOR SCHOOL DRIVE, LAWRENCEVILLE, GA, 30043","Match","Non_Exact","685 TAYLOR SCHOOL DR NE, LAWRENCEVILLE, GA, 30043",88936757,"R"
272257,"685 TURNBERRY BLVD UNIT 14774","NEWPORT NEWS","VA",23608,37.1370201490001,-76.512887728,257,"685 TURNBERRY BLVD UNIT 14774, NEWPORT NEWS, VA, 23608","Match","Non_Exact","685 TURNBERRY BLVD, NEWPORT NEWS, VA, 23602",103822597,"L"
272258,"685 WEST TOLEDO STREET","CHANDLER","AZ",85225,33.3072308160001,-111.852174787,258,"685 WEST TOLEDO STREET, CHANDLER, AZ, 85225","Match","Exact","685 W TOLEDO ST, CHANDLER, AZ, 85225",128243007,"L"
272259,"685 WOODBINE DR E","CARMEL","IN",46033,39.9880589570001,-86.090308425,259,"685 WOODBINE DR E, CARMEL, IN, 46033","Match","Exact","685 WOODBINE DR E, CARMEL, IN, 46033",29308853,"L"
272260,"6850 BASELINE RD","BAY CITY","OR",97107,45.521877444,-123.876893219,260,"6850 BASELINE RD, BAY CITY, OR, 97107","Match","Exact","6850 BASELINE RD, BAY CITY, OR, 97107",647717341,"R"
272261,"6850 CHAMPLAIN RD","JACKSONVILLE","FL",32207,30.3945708410001,-81.704706898,261,"6850 CHAMPLAIN RD, JACKSONVILLE, FL, 32207","Match","Non_Exact","6850 CHAMPLAIN RD, JACKSONVILLE, FL, 32208",83937404,"L"
272262,"6850 CORAL WAY SUITE 310","MIAMI","FL",33155,NA,NA,262,"6850 CORAL WAY SUITE 310, MIAMI, FL, 33155","No_Match",NA,NA,NA,NA
272263,"6850 GEORGETOWN PIKE","MCLEAN","VA",22101,38.951447633,-77.180350677,263,"6850 GEORGETOWN PIKE, MCLEAN, VA, 22101","Match","Exact","6850 GEORGETOWN PIKE, MCLEAN, VA, 22101",647353055,"R"
272264,"6850 GLEN ROAD","WOODBURY","MN",55129,44.8691039190001,-92.967270245,264,"6850 GLEN ROAD, WOODBURY, MN, 55129","Match","Exact","6850 GLEN RD, WOODBURY, MN, 55129",97815239,"L"
272265,"6850 HOAG RD","ALBION","MI",49224,42.328299718,-84.639872858,265,"6850 HOAG RD, ALBION, MI, 49224","Match","Exact","6850 HOAG RD, ALBION, MI, 49224",648846116,"L"
272266,"6850 HUNT DRIVE","MACUNGIE","PA",18062,40.512073376,-75.568605109,266,"6850 HUNT DRIVE, MACUNGIE, PA, 18062","Match","Exact","6850 HUNT DR, MACUNGIE, PA, 18062",627071735,"R"
272267,"6850 NEWARK RD","NASHPORT","OH",43830,40.0384911520001,-82.116857863,267,"6850 NEWARK RD, NASHPORT, OH, 43830","Match","Exact","6850 NEWARK RD, NASHPORT, OH, 43830",639138701,"L"
272268,"6850 OLD MELBOURNE HIGHWAY","SAINT CLOUD","FL",34771,28.2270018250001,-81.161393177,268,"6850 OLD MELBOURNE HIGHWAY, SAINT CLOUD, FL, 34771","Match","Exact","6850 OLD MELBOURNE HWY, SAINT CLOUD, FL, 34771",634712667,"R"
272269,"6850 PEACHTREE DUNWOODY RD ATP 536","ATLANTA","GA",30328,33.94233165,-84.352513662,269,"6850 PEACHTREE DUNWOODY RD ATP 536, ATLANTA, GA, 30328","Match","Non_Exact","6850 PEACHTREE DUNWOODY RD NE, ATLANTA, GA, 30328",642712700,"L"
272270,"6850 REGIONAL STREET SUITE 210","DUBLIN","CA",94568,37.701887433,-121.933184133,270,"6850 REGIONAL STREET SUITE 210, DUBLIN, CA, 94568","Match","Exact","6850 REGIONAL ST, DUBLIN, CA, 94568",646835282,"L"
272271,"6850 RICHMOND HWY APT 702","ALEXANDRIA","VA",22306,38.7692204750001,-77.082188619,271,"6850 RICHMOND HWY APT 702, ALEXANDRIA, VA, 22306","Match","Exact","6850 RICHMOND HWY, ALEXANDRIA, VA, 22306",638209911,"L"
272272,"6850 S COCKRELL HILL RD APT 1213","DALLAS","TX",75236,NA,NA,272,"6850 S COCKRELL HILL RD APT 1213, DALLAS, TX, 75236","No_Match",NA,NA,NA,NA
272273,"6850 S COCKRELL HILL RD SUITE 1311","DALLAS","TX",75236,NA,NA,273,"6850 S COCKRELL HILL RD SUITE 1311, DALLAS, TX, 75236","No_Match",NA,NA,NA,NA
272274,"6850 SW 119 STREET","PINECREST","FL",33156,25.660723454,-80.3056399439999,274,"6850 SW 119 STREET, PINECREST, FL, 33156","Match","Exact","6850 SW 119TH ST, PINECREST, FL, 33156",115985901,"L"
272275,"6850 W SOUTH LAKE GAGE DR","ANGOLA","IN",46703,41.702962117,-85.1248410699999,275,"6850 W SOUTH LAKE GAGE DR, ANGOLA, IN, 46703","Match","Exact","6850 W SOUTH LAKE GAGE DR, ANGOLA, IN, 46703",604802932,"R"
272276,"68500 VICUNA DR","MONTROSE","CO",81403,38.353916731,-107.802316656,276,"68500 VICUNA DR, MONTROSE, CO, 81403","Match","Non_Exact","68500 VICUNA, MONTROSE, CO, 81403",612978855,"R"
272277,"68509 WINGATE DRIVE","WASHINGTON","MI",48095,42.799203386,-83.0467963839999,277,"68509 WINGATE DRIVE, WASHINGTON, MI, 48095","Match","Exact","68509 WINGATE DR, WASHINGTON, MI, 48095",110696374,"L"
272278,"6851  KING ARTHUR  DRIVE","MYRTLE  BEACH","SC",29588,33.6504146820001,-79.0580687299999,278,"6851  KING ARTHUR  DRIVE, MYRTLE  BEACH, SC, 29588","Match","Exact","6851 KING ARTHUR DR, MYRTLE BEACH, SC, 29588",630490532,"R"
272279,"6851 BETTY LEVY","SAN ANTONIO","TX",78227,29.430684635,-98.6242001529999,279,"6851 BETTY LEVY, SAN ANTONIO, TX, 78227","Match","Exact","6851 BETTY LEVY, SAN ANTONIO, TX, 78227",101697391,"R"
272280,"6851 COURTHOUSE ROAD","CHESTERFIELD","VA",23832,37.404527172,-77.5626725769999,280,"6851 COURTHOUSE ROAD, CHESTERFIELD, VA, 23832","Match","Exact","6851 COURTHOUSE RD, CHESTERFIELD, VA, 23832",201544768,"L"
272281,"6851 HERRON DR","CASS CITY","MI",48726,43.5977575060001,-83.163087677,281,"6851 HERRON DR, CASS CITY, MI, 48726","Match","Exact","6851 HERRON DR, CASS CITY, MI, 48726",81254044,"L"
272282,"6851 LEXINGTON PARK BLVD","MASON","OH",45040,39.3414465640001,-84.314344309,282,"6851 LEXINGTON PARK BLVD, MASON, OH, 45040","Match","Exact","6851 LEXINGTON PARK BLVD, MASON, OH, 45040",159030872,"R"
272283,"6851 OAK HALL LANE","COLUMBIA","MD",21045,NA,NA,283,"6851 OAK HALL LANE, COLUMBIA, MD, 21045","No_Match",NA,NA,NA,NA
272284,"6851 OLD AGNES ROAD","POOLVILLE","TX",76487,32.9311501230001,-97.788053732,284,"6851 OLD AGNES ROAD, POOLVILLE, TX, 76487","Match","Exact","6851 OLD AGNES RD, POOLVILLE, TX, 76487",611019783,"L"
272285,"6851 WEST COLFAX AVE","LAKEWOOD","CO",80214,39.7403714370001,-105.072635147,285,"6851 WEST COLFAX AVE, LAKEWOOD, CO, 80214","Match","Exact","6851 W COLFAX AVE, LAKEWOOD, CO, 80214",177290985,"R"
272286,"6852 4TH STREET","SYKESVILLE","MD",21784,39.383414186,-76.961594066,286,"6852 4TH STREET, SYKESVILLE, MD, 21784","Match","Exact","6852 4TH ST, SYKESVILLE, MD, 21784",61781493,"R"
272287,"6852 ATLANTA CIRCLE","STOKTON","CA",95219,38.0095290620001,-121.361070923,287,"6852 ATLANTA CIRCLE, STOKTON, CA, 95219","Match","Non_Exact","6852 ATLANTA CIR, STOCKTON, CA, 95219",133842640,"R"
272288,"6852 JULIAN AVE","UNIVERSITY CITY","MO",63130,38.67015682,-90.311622566,288,"6852 JULIAN AVE, UNIVERSITY CITY, MO, 63130","Match","Exact","6852 JULIAN AVE, UNIVERSITY CITY, MO, 63130",604466263,"L"
272289,"6852 PERKINS COURT","EASTVALE","CA",92880,33.9635653940001,-117.566401171,289,"6852 PERKINS COURT, EASTVALE, CA, 92880","Match","Exact","6852 PERKINS CT, EASTVALE, CA, 92880",629824954,"R"
272290,"6852 PERKINS CT","EASTVALE","CA",92880,33.9635653940001,-117.566401171,290,"6852 PERKINS CT, EASTVALE, CA, 92880","Match","Exact","6852 PERKINS CT, EASTVALE, CA, 92880",629824954,"R"
272291,"6853 GORDON BLVD","BURLINGTON","KY",41005,38.9873065560001,-84.713263862,291,"6853 GORDON BLVD, BURLINGTON, KY, 41005","Match","Exact","6853 GORDON BLVD, BURLINGTON, KY, 41005",81968578,"R"
272292,"6853 MAPLE ACRES DR","WHITTEMORE","MI",48770,44.258110152,-83.7988125109999,292,"6853 MAPLE ACRES DR, WHITTEMORE, MI, 48770","Match","Exact","6853 MAPLE ACRES DR, WHITTEMORE, MI, 48770",161302563,"L"
272293,"6853 PIERSHILL LANE","CARY","NC",27519,35.793058279,-78.9207733009999,293,"6853 PIERSHILL LANE, CARY, NC, 27519","Match","Exact","6853 PIERSHILL LN, CARY, NC, 27519",653480895,"L"
272294,"6854 132ND ST N","HUGO","MN",55038,NA,NA,294,"6854 132ND ST N, HUGO, MN, 55038","No_Match",NA,NA,NA,NA
272295,"6854 MORTON TAYLOR ROAD","VAN BUREN","MI",48111,42.2534401200001,-83.4665509009999,295,"6854 MORTON TAYLOR ROAD, VAN BUREN, MI, 48111","Match","Non_Exact","6854 MORTON TAYLOR RD, VAN BUREN TWP, MI, 48111",645087545,"R"
272296,"6854 N MISSISSIPPI AVE","PORTLAND","OR",97217,45.5722657580001,-122.675849999,296,"6854 N MISSISSIPPI AVE, PORTLAND, OR, 97217","Match","Exact","6854 N MISSISSIPPI AVE, PORTLAND, OR, 97217",157502106,"R"
272297,"6854 N PLACITA CHULA VISTA","TUCSON","AZ",85704,32.3307617880001,-110.98799106,297,"6854 N PLACITA CHULA VISTA, TUCSON, AZ, 85704","Match","Exact","6854 N PLACITA CHULA VIS, TUCSON, AZ, 85704",121396076,"L"
272298,"6854 READY RD","SOUTH ROCKWOOD","MI",48179,42.0522396200001,-83.248412354,298,"6854 READY RD, SOUTH ROCKWOOD, MI, 48179","Match","Exact","6854 READY RD, SOUTH ROCKWOOD, MI, 48179",40496639,"R"
272299,"6854 WEST OAK HIGHWAY","SENECA","SC",29678,NA,NA,299,"6854 WEST OAK HIGHWAY, SENECA, SC, 29678","No_Match",NA,NA,NA,NA
272300,"6855 BURNSLINE","LEXINGTOM","MI",48450,43.225562983,-82.543539314,300,"6855 BURNSLINE, LEXINGTOM, MI, 48450","Match","Non_Exact","6855 BURNS LINE RD, LEXINGTON, MI, 48450",630051239,"L"
272301,"6855 EAST CR 920 NORTH","BUTLERVILLE","IN",47223,39.119591042,-85.482393707,301,"6855 EAST CR 920 NORTH, BUTLERVILLE, IN, 47223","Match","Exact","6855 E CO RD 920 N, BUTLERVILLE, IN, 47223",635806707,"L"
272302,"6855 FRIARS RD APT 28","SAN DIEGO","CA",92108,NA,NA,302,"6855 FRIARS RD APT 28, SAN DIEGO, CA, 92108","No_Match",NA,NA,NA,NA
272303,"6855 OWENS STREET","ARVADA","CO",80004,39.8211988140001,-105.12141474,303,"6855 OWENS STREET, ARVADA, CO, 80004","Match","Exact","6855 OWENS ST, ARVADA, CO, 80004",647327999,"L"
272304,"6855 PLYMOUTH AVENUE","ST. LOUIS","MO",63130,38.6693845840001,-90.311778127,304,"6855 PLYMOUTH AVENUE, ST. LOUIS, MO, 63130","Match","Exact","6855 PLYMOUTH AVE, SAINT LOUIS, MO, 63130",604466261,"R"
272305,"6855 ROSEWOOD CIRCLE","INDEPENDENCE","OH",44131,41.3737373170001,-81.642932716,305,"6855 ROSEWOOD CIRCLE, INDEPENDENCE, OH, 44131","Match","Exact","6855 ROSEWOOD CIR, INDEPENDENCE, OH, 44131",627893805,"L"
272306,"6855 S DAYTON STREET SUITE 4236","GREENWOOD VILLAGE","CO",80155,NA,NA,306,"6855 S DAYTON STREET SUITE 4236, GREENWOOD VILLAGE, CO, 80155","No_Match",NA,NA,NA,NA
272307,"6855 S MASON ROAD","KATY","TX",77450,29.704180121,-95.742962886,307,"6855 S MASON ROAD, KATY, TX, 77450","Match","Exact","6855 MASON RD, KATY, TX, 77450",641271892,"R"
272308,"6855 W 152ND TER","OVERLAND PARK","KS",66223,38.8503528960001,-94.665541936,308,"6855 W 152ND TER, OVERLAND PARK, KS, 66223","Match","Exact","6855 W 152ND TER, OVERLAND PARK, KS, 66223",91296212,"R"
272309,"6855 W CLEARWATER AVE STE- 101","KENNEWICK","WA",99336,46.21033564,-119.213754326,309,"6855 W CLEARWATER AVE STE- 101, KENNEWICK, WA, 99336","Match","Non_Exact","6855 W CLEARWATER AVE, KENNEWICK, WA, 99336",174989894,"L"
272310,"6855 W CORTLAND ST","CHICAGO","IL",60707,41.9144557500001,-87.79710169,310,"6855 W CORTLAND ST, CHICAGO, IL, 60707","Match","Exact","6855 W CORTLAND ST, CHICAGO, IL, 60707",605026163,"L"
272311,"6855 W HICKORY RD","HICKORY CORNERS","MI",49060,42.4421283550001,-85.421673577,311,"6855 W HICKORY RD, HICKORY CORNERS, MI, 49060","Match","Exact","6855 W HICKORY RD, HICKORY CORNERS, MI, 49060",10510047,"R"
272312,"6856 ALDEA AVENUE","LAKE BALBOA","CA",91406,34.19503446,-118.508362641,312,"6856 ALDEA AVENUE, LAKE BALBOA, CA, 91406","Match","Exact","6856 ALDEA AVE, LAKE BALBOA, CA, 91406",141555701,"R"
272313,"6856 DAY DRIVE","PARMA","OH",44129,NA,NA,313,"6856 DAY DRIVE, PARMA, OH, 44129","No_Match",NA,NA,NA,NA
272314,"6856 FRANKLIN BLVD","SACRAMENTO","CA",95823,38.5024523880001,-121.462707471,314,"6856 FRANKLIN BLVD, SACRAMENTO, CA, 95823","Match","Exact","6856 FRANKLIN BLVD, SACRAMENTO, CA, 95823",651533563,"R"
272315,"6856 LEGACY LANE","WADSWORTH","OH",44281,41.09035456,-81.695787057,315,"6856 LEGACY LANE, WADSWORTH, OH, 44281","Match","Exact","6856 LEGACY LN, WADSWORTH, OH, 44281",58693609,"R"
272316,"6856 N DE CHELLY LOOP","TUCSON","AZ",85741,32.331651019,-111.034018412,316,"6856 N DE CHELLY LOOP, TUCSON, AZ, 85741","Match","Exact","6856 N DE CHELLY LOOP, TUCSON, AZ, 85741",121384478,"R"
272317,"6856 NW 16TH STREET   APT 281","OKLAHOMA CITY","OK",73127,35.4860831660001,-97.6335583859999,317,"6856 NW 16TH STREET   APT 281, OKLAHOMA CITY, OK, 73127","Match","Non_Exact","6856 NW 16TH ST, OKLAHOMA CITY, OK, 73127",606208687,"L"
272318,"6856 S 35TH STREET","FRANKLIN","WI",53132,42.921133066,-87.961842459,318,"6856 S 35TH STREET, FRANKLIN, WI, 53132","Match","Exact","6856 S 35TH ST, FRANKLIN, WI, 53132",612191296,"L"
272319,"6856 SIGNATURE CIRCLE","ALEXANDRIA","VA",22310,38.7684336190001,-77.146976031,319,"6856 SIGNATURE CIRCLE, ALEXANDRIA, VA, 22310","Match","Exact","6856 SIGNATURE CIR, ALEXANDRIA, VA, 22310",635445456,"L"
272320,"6856 SPRINGFIELD BLVD","BAYSIDE","NY",11364,NA,NA,320,"6856 SPRINGFIELD BLVD, BAYSIDE, NY, 11364","No_Match",NA,NA,NA,NA
272321,"6857 LONG BEACH BLVD","LONG BEACH","CA",90703,33.8786748260001,-118.204062187,321,"6857 LONG BEACH BLVD, LONG BEACH, CA, 90703","Match","Non_Exact","6857 LONG BEACH BLVD, LONG BEACH, CA, 90805",142767683,"L"
272322,"6857 LONGMONT AVE","SAN GABRIEL","CA",91775,34.1234020140001,-118.088751781,322,"6857 LONGMONT AVE, SAN GABRIEL, CA, 91775","Match","Non_Exact","6857 N LONGMONT AVE, SAN GABRIEL, CA, 91775",141634558,"L"
272323,"6857 RIDGE POINTE WAY","CHARLESTOWN","IN",47111,38.417756314,-85.684522334,323,"6857 RIDGE POINTE WAY, CHARLESTOWN, IN, 47111","Match","Exact","6857 RIDGE POINTE WAY, CHARLESTOWN, IN, 47111",64919886,"R"
272324,"6858 BURNSIDE DRIVE","SAN JOSE","CA",95120,37.212516475,-121.841038464,324,"6858 BURNSIDE DRIVE, SAN JOSE, CA, 95120","Match","Exact","6858 BURNSIDE DR, SAN JOSE, CA, 95120",122925916,"L"
272325,"6858 EDINGER AVE","HUNTINGTON BEACH","CA",92647,33.730049523,-118.009358059,325,"6858 EDINGER AVE, HUNTINGTON BEACH, CA, 92647","Match","Exact","6858 EDINGER AVE, HUNTINGTON BEACH, CA, 92647",144016986,"R"
272326,"6858 NESHOBA ROAD","MEMPHIS","TN",38120,35.106264944,-89.834984326,326,"6858 NESHOBA ROAD, MEMPHIS, TN, 38120","Match","Exact","6858 NESHOBA RD, MEMPHIS, TN, 38120",635381794,"L"
272327,"6858 OLD STILL TRAIL","KERNERSVILLE","NC",27284,36.180150369,-80.100523911,327,"6858 OLD STILL TRAIL, KERNERSVILLE, NC, 27284","Match","Exact","6858 OLD STILL TRL, KERNERSVILLE, NC, 27284",84615563,"R"
272328,"6858 REED RD","LOVINGTON","NM",88260,33.1192184540001,-103.352111434,328,"6858 REED RD, LOVINGTON, NM, 88260","Match","Exact","6858 REED RD, LOVINGTON, NM, 88260",645746778,"R"
272329,"6858 WEST 24 LANE","HIALEAH","FL",33016,25.884864237,-80.333041893,329,"6858 WEST 24 LANE, HIALEAH, FL, 33016","Match","Exact","6858 W 24TH LN, HIALEAH, FL, 33016",647863179,"R"
272330,"6859 ARAPAHO ROAD SUITE 600","DALLAS","TX",75248,32.962196347,-96.78997724,330,"6859 ARAPAHO ROAD SUITE 600, DALLAS, TX, 75248","Match","Exact","6859 ARAPAHO RD, DALLAS, TX, 75248",103256151,"R"
272331,"6859 LENOX AVE SUITE 41","JACKSONVILLE","FL",32205,30.298492395,-81.759844303,331,"6859 LENOX AVE SUITE 41, JACKSONVILLE, FL, 32205","Match","Exact","6859 LENOX AVE, JACKSONVILLE, FL, 32205",83910122,"R"
272332,"6859 N OLCOTT","CHICAGO","IL",60631,NA,NA,332,"6859 N OLCOTT, CHICAGO, IL, 60631","No_Match",NA,NA,NA,NA
272333,"6859 SLATE STONE WAY SE","MABLETON","GA",30126,33.788010679,-84.543528409,333,"6859 SLATE STONE WAY SE, MABLETON, GA, 30126","Match","Exact","6859 SLATE STONE WAY SE, MABLETON, GA, 30126",634051861,"R"
272334,"68591 RACINE RD","MONTROSE","CO",81401,38.4215383580001,-107.803481901,334,"68591 RACINE RD, MONTROSE, CO, 81401","Match","Exact","68591 RACINE RD, MONTROSE, CO, 81401",634663513,"R"
272335,"686 A PALISADE AVENUE","TEANECK","NJ",7666,40.88548073,-74.021051539,335,"686 A PALISADE AVENUE, TEANECK, NJ, 7666","Match","Exact","686 PALISADE AVE, TEANECK, NJ, 07666",64388986,"L"
272336,"686 ALBANY POST ROAD","NEW PALTZ","NY",12561,41.7168964300001,-74.153706444,336,"686 ALBANY POST ROAD, NEW PALTZ, NY, 12561","Match","Exact","686 ALBANY POST RD, NEW PALTZ, NY, 12561",41893031,"L"
272337,"686 BARBOUR AVE","TERRE HAUTE","IN",47804,39.494976917,-87.40811192,337,"686 BARBOUR AVE, TERRE HAUTE, IN, 47804","Match","Exact","686 BARBOUR AVE, TERRE HAUTE, IN, 47804",606510132,"L"
272338,"686 BERKSHIRE PLACE","MILPITAS","CA",95035,37.459975259,-121.898627786,338,"686 BERKSHIRE PLACE, MILPITAS, CA, 95035","Match","Exact","686 BERKSHIRE PL, MILPITAS, CA, 95035",123173608,"R"
272339,"686 DUNHILL LANE","FRISCO","TX",75034,33.1167606270001,-96.886755846,339,"686 DUNHILL LANE, FRISCO, TX, 75034","Match","Non_Exact","686 DUNHILL LN, FRISCO, TX, 75036",641485839,"R"
272340,"686 EDENDALE CT","COLUMBUS","OH",43207,39.883624953,-82.982276542,340,"686 EDENDALE CT, COLUMBUS, OH, 43207","Match","Exact","686 EDENDALE CT, COLUMBUS, OH, 43207",218642397,"L"
272341,"686 GRAND STREET -  APT 4","BROOKLYN","NY",11211,40.7115261380001,-73.945076722,341,"686 GRAND STREET -  APT 4, BROOKLYN, NY, 11211","Match","Exact","686 GRAND ST, BROOKLYN, NY, 11211",642654157,"R"
272342,"686 LAFAYETTE AVENUE  SUITE 4H","BROOKLYN","NY",11216,NA,NA,342,"686 LAFAYETTE AVENUE  SUITE 4H, BROOKLYN, NY, 11216","No_Match",NA,NA,NA,NA
272343,"686 MALLORY AVENUE","MEMPHIS","TN",38106,35.0862330150001,-90.0401512939999,343,"686 MALLORY AVENUE, MEMPHIS, TN, 38106","Match","Non_Exact","686 E MALLORY AVE, MEMPHIS, TN, 38106",72908213,"L"
272344,"686 MARLBORO ROAD","LOTHIAN","MD",20711,38.820677458,-76.6535520529999,344,"686 MARLBORO ROAD, LOTHIAN, MD, 20711","Match","Exact","686 MARLBORO RD, LOTHIAN, MD, 20711",68207472,"R"
272345,"686 MAYA SUSAN LOOP","APOPKA","FL",32712,28.695261214,-81.523954599,345,"686 MAYA SUSAN LOOP, APOPKA, FL, 32712","Match","Exact","686 MAYA SUSAN LOOP, APOPKA, FL, 32712",94411158,"R"
272346,"686 ONTARIO ST NW","PALM BAY","FL",32097,28.0068450690001,-80.690436253,346,"686 ONTARIO ST NW, PALM BAY, FL, 32097","Match","Non_Exact","686 ONTARIO ST NW, PALM BAY, FL, 32907",93906868,"R"
272347,"686 ROBIN DRIVE","EASTLAKE","OH",44095,41.6684016030001,-81.410885949,347,"686 ROBIN DRIVE, EASTLAKE, OH, 44095","Match","Exact","686 ROBIN DR, EASTLAKE, OH, 44095",137460425,"R"
272348,"686 ROOSEVELT STREET","OT1","WA",98368,48.1216715050001,-122.760543432,348,"686 ROOSEVELT STREET, OT1, WA, 98368","Match","Non_Exact","686 ROOSEVELT ST, PORT TOWNSEND, WA, 98368",151992950,"L"
272349,"686 SOUTH ARROYO PARKWAY PH 175","PASADENA","CA",91105,34.1337901730001,-118.147310349,349,"686 SOUTH ARROYO PARKWAY PH 175, PASADENA, CA, 91105","Match","Exact","686 S ARROYO PKWY, PASADENA, CA, 91105",141629713,"L"
272350,"686 SUNSET LAKES BLVD SW","SUNSET BEACH","NC",28468,33.8902976480001,-78.5259300669999,350,"686 SUNSET LAKES BLVD SW, SUNSET BEACH, NC, 28468","Match","Exact","686 SUNSET LAKES BLVD SW, SUNSET BEACH, NC, 28468",650883492,"R"
272351,"686 SUSQUEHANNA RD","MEADVILLE","PA",16335,41.628263889,-80.146944928,351,"686 SUSQUEHANNA RD, MEADVILLE, PA, 16335","Match","Exact","686 SUSQUEHANNA RD, MEADVILLE, PA, 16335",98571515,"L"
272352,"686 ULSTER HEIGHTS ROAD","ELLENVILLE","NY",12428,41.7496218320001,-74.438338345,352,"686 ULSTER HEIGHTS ROAD, ELLENVILLE, NY, 12428","Match","Exact","686 ULSTER HEIGHTS RD, ELLENVILLE, NY, 12428",41872571,"R"
272353,"686 WATSON HOLLOW ROAD","WEST SHOKAN","NY",12494,41.94575287,-74.322207159,353,"686 WATSON HOLLOW ROAD, WEST SHOKAN, NY, 12494","Match","Exact","686 WATSON HOLLOW RD, WEST SHOKAN, NY, 12494",648156351,"L"
272354,"686 WEST FIFTH ST","WINONA","MN",55987,44.054017366,-91.654482606,354,"686 WEST FIFTH ST, WINONA, MN, 55987","Match","Exact","686 W 5TH ST, WINONA, MN, 55987",31662444,"R"
272355,"686 WEST JEFFERSON-KIOUSVILLE RD  S","WEST JEFFERSON","OH",43162,39.9330569730001,-83.279582605,355,"686 WEST JEFFERSON-KIOUSVILLE RD  S, WEST JEFFERSON, OH, 43162","Match","Non_Exact","686 W JEFFERSON KIOUSVILLE RD SE, W JEFFERSON, OH, 43162",622179006,"R"
272356,"686-688 SE MONTEREY ROAD","STUART","FL",34994,27.175590442,-80.2424628099999,356,"686-688 SE MONTEREY ROAD, STUART, FL, 34994","Match","Exact","686 SE MONTEREY RD, STUART, FL, 34994",120431172,"L"
272357,"6860 ARLINGTON EXPRESSWAY","JACKSONVILLE","FL",32211,30.3272934820001,-81.586620609,357,"6860 ARLINGTON EXPRESSWAY, JACKSONVILLE, FL, 32211","Match","Exact","6860 ARLINGTON EXPY, JACKSONVILLE, FL, 32211",83969639,"R"
272358,"6860 BROCKTON AVE SUITE 9","RIVERSIDE","CA",92506,33.94919194,-117.396745955,358,"6860 BROCKTON AVE SUITE 9, RIVERSIDE, CA, 92506","Match","Exact","6860 BROCKTON AVE, RIVERSIDE, CA, 92506",194741601,"L"
272359,"6860 CANBY AVE STE 110","RESEDA","CA",91335,34.1946411280001,-118.534735846,359,"6860 CANBY AVE STE 110, RESEDA, CA, 91335","Match","Exact","6860 CANBY AVE, RESEDA, CA, 91335",141789747,"R"
272360,"6860 CASTLE DR","BLOOMFIELD HILLS","MI",48301,42.5389682570001,-83.308801634,360,"6860 CASTLE DR, BLOOMFIELD HILLS, MI, 48301","Match","Exact","6860 CASTLE DR, BLOOMFIELD HILLS, MI, 48301",69727863,"R"
272361,"6860 COSTELLO AVE","VAN NUYS","CA",91405,34.195752874,-118.437796262,361,"6860 COSTELLO AVE, VAN NUYS, CA, 91405","Match","Exact","6860 COSTELLO AVE, VAN NUYS, CA, 91405",141561200,"R"
272362,"6860 EDINBURGH RD","CORONA","CA",92880,33.963441151,-117.559022307,362,"6860 EDINBURGH RD, CORONA, CA, 92880","Match","Exact","6860 EDINBURGH RD, CORONA, CA, 92880",647501392,"R"
272363,"6860 GULFPORT BLVD  NO 1010","SOUTH PASADENA","FL",33707,27.758744489,-82.734642827,363,"6860 GULFPORT BLVD  NO 1010, SOUTH PASADENA, FL, 33707","Match","Non_Exact","6860 GULFPORT BLVD S, SOUTH PASADENA, FL, 33707",124698791,"L"
272364,"6860 LEFFINGWELL RD","CANFIELD","OH",44406,41.0037547360001,-80.779210663,364,"6860 LEFFINGWELL RD, CANFIELD, OH, 44406","Match","Exact","6860 LEFFINGWELL RD, CANFIELD, OH, 44406",64615263,"R"
272365,"6860 LITTLE PLATTE ROAD","EDGERTON","MO",64444,39.419460825,-94.6581423009999,365,"6860 LITTLE PLATTE ROAD, EDGERTON, MO, 64444","Match","Exact","6860 LITTLE PLATTE RD, EDGERTON, MO, 64444",39705527,"R"
272366,"6860 MADRONE AVE","SAN DIEGO","CA",92114,32.7087894000001,-117.049671483,366,"6860 MADRONE AVE, SAN DIEGO, CA, 92114","Match","Exact","6860 MADRONE AVE, SAN DIEGO, CA, 92114",195353339,"L"
272367,"6860 MARIPOSA STREET","DENVER","CO",80221,39.8211045640001,-105.001750024,367,"6860 MARIPOSA STREET, DENVER, CO, 80221","Match","Exact","6860 MARIPOSA ST, DENVER, CO, 80221",177302206,"R"
272368,"6860 PEONY LN NORTH","MAPLE GROVE","MN",55311,45.0790976980001,-93.5062474009999,368,"6860 PEONY LN NORTH, MAPLE GROVE, MN, 55311","Match","Exact","6860 PEONY LN N, MAPLE GROVE, MN, 55311",43858750,"R"
272369,"6860 STERRETTANIA ROAD","FAIRVIEW","PA",16415,42.0052974020001,-80.2000376729999,369,"6860 STERRETTANIA ROAD, FAIRVIEW, PA, 16415","Match","Exact","6860 STERRETTANIA RD, FAIRVIEW, PA, 16415",117521377,"R"
272370,"6860 STEWART ROAD","CINCINNATI","OH",45236,39.1926717100001,-84.3949669369999,370,"6860 STEWART ROAD, CINCINNATI, OH, 45236","Match","Exact","6860 STEWART RD, CINCINNATI, OH, 45236",651174964,"R"
272371,"6860 SUZETTE LANE","FLAGSTAFF","AZ",86001,35.255987476,-111.724161402,371,"6860 SUZETTE LANE, FLAGSTAFF, AZ, 86001","Match","Non_Exact","6860 W SUZETTE LN, FLAGSTAFF, AZ, 86001",636562329,"R"
272372,"6860 VERNON AVENUE","UNIVERSITY CITY","MO",63130,38.662629576,-90.3129720859999,372,"6860 VERNON AVENUE, UNIVERSITY CITY, MO, 63130","Match","Exact","6860 VERNON AVE, UNIVERSITY CITY, MO, 63130",100152050,"L"
272373,"6860 W 68TH PL","ARVADA","CO",80003,39.821121303,-105.073139942,373,"6860 W 68TH PL, ARVADA, CO, 80003","Match","Exact","6860 W 68TH PL, ARVADA, CO, 80003",177288429,"L"
272374,"6860 W JUDDVILLE ROAD","ELSIE","MI",48831,43.0568253000001,-84.3013138589999,374,"6860 W JUDDVILLE ROAD, ELSIE, MI, 48831","Match","Exact","6860 W JUDDVILLE RD, ELSIE, MI, 48831",23644787,"L"
272375,"6860 W PARK AVENUE SUITE A","HOUMA","LA",70364,29.6117232620001,-90.744256809,375,"6860 W PARK AVENUE SUITE A, HOUMA, LA, 70364","Match","Non_Exact","6860 W PARK AVE, HOUMA, LA, 70364",92049691,"L"
272376,"6861 19TH DR S","LAKE WORTH","FL",33462,26.574497868,-80.073713705,376,"6861 19TH DR S, LAKE WORTH, FL, 33462","Match","Exact","6861 19TH DR S, LAKE WORTH, FL, 33462",115294669,"R"
272377,"6861 E NEVADA SUITE 2R","DETROIT","MI",48234,NA,NA,377,"6861 E NEVADA SUITE 2R, DETROIT, MI, 48234","No_Match",NA,NA,NA,NA
272378,"6861 FILLMORE DRIVE","MERRILLVILLE","IN",46410,41.494392159,-87.351429304,378,"6861 FILLMORE DRIVE, MERRILLVILLE, IN, 46410","Match","Exact","6861 FILLMORE DR, MERRILLVILLE, IN, 46410",98442224,"L"
272379,"6861 MOUNTAIN VIEW RD","OOLTEWAH","TN",37363,35.1080416070001,-85.0510651609999,379,"6861 MOUNTAIN VIEW RD, OOLTEWAH, TN, 37363","Match","Exact","6861 MOUNTAIN VIEW RD, OOLTEWAH, TN, 37363",59346464,"L"
272380,"6861 NW 25TH COURT","SUNRISE","FL",33313,26.158815718,-80.2397669109999,380,"6861 NW 25TH COURT, SUNRISE, FL, 33313","Match","Non_Exact","6861 NW 25TH CT, SUNRISE, FL, 33313",114704386,"R"
272381,"6861 RD E NE","MOSES LAKE","WA",98837,47.1886077070001,-119.384204384,381,"6861 RD E NE, MOSES LAKE, WA, 98837","Match","Exact","6861 RD E NE, MOSES LAKE, WA, 98837",624098092,"R"
272382,"6861 RD E NE","MOSES","WA",98837,47.1886077070001,-119.384204384,382,"6861 RD E NE, MOSES, WA, 98837","Match","Non_Exact","6861 RD E NE, MOSES LAKE, WA, 98837",624098092,"R"
272383,"6861 S CALUMET AVE","CHICAGO","IL",60637,41.7700289840001,-87.616974673,383,"6861 S CALUMET AVE, CHICAGO, IL, 60637","Match","Exact","6861 S CALUMET AVE, CHICAGO, IL, 60637",111772252,"L"
272384,"6861 SHOREVIEW DRIVE","GRAND PRAIRIE","TX",75054,32.6075476240001,-97.0441692589999,384,"6861 SHOREVIEW DRIVE, GRAND PRAIRIE, TX, 75054","Match","Exact","6861 SHOREVIEW DR, GRAND PRAIRIE, TX, 75054",102187357,"L"
272385,"6861 SOUTH PEORIA AVE","TULSA","OK",74136,36.0639369620001,-95.9758192909999,385,"6861 SOUTH PEORIA AVE, TULSA, OK, 74136","Match","Exact","6861 S PEORIA AVE, TULSA, OK, 74136",166508456,"L"
272386,"6861 SW 196TH AVE","PEMBROKE PINES","FL",33332,26.0337170380001,-80.4095339639999,386,"6861 SW 196TH AVE, PEMBROKE PINES, FL, 33332","Match","Non_Exact","6861 SW 196TH AVE, FT LAUDERDALE, FL, 33332",616306263,"L"
272387,"6862 NW 173 DRIVE APT 411","MIAMI LAKES","FL",33015,NA,NA,387,"6862 NW 173 DRIVE APT 411, MIAMI LAKES, FL, 33015","No_Match",NA,NA,NA,NA
272388,"6863 SLEEPER","FREMONT","MI",49412,43.4305697180001,-85.9647624569999,388,"6863 SLEEPER, FREMONT, MI, 49412","Match","Non_Exact","6863 SLEEPER AVE, FREMONT, MI, 49412",632047028,"L"
272389,"6863 TUMBLEWEED LN","CANAL WINCHESTER","OH",43110,39.9007857610001,-82.8118222689999,389,"6863 TUMBLEWEED LN, CANAL WINCHESTER, OH, 43110","Match","Exact","6863 TUMBLEWEED LN, CANAL WINCHESTER, OH, 43110",218667311,"R"
272390,"6864 OLD PEAK LN","EASTVALE","CA",92880,33.963540343,-117.593772692,390,"6864 OLD PEAK LN, EASTVALE, CA, 92880","Match","Exact","6864 OLD PEAK LN, EASTVALE, CA, 92880",629797057,"L"
272391,"6864 S ULSTER CIRCLE","CENTENNIAL","CO",80112,39.5934099040001,-104.894308906,391,"6864 S ULSTER CIRCLE, CENTENNIAL, CO, 80112","Match","Exact","6864 S ULSTER CIR, CENTENNIAL, CO, 80112",177521388,"L"
272392,"6865 GOLDFIELD DR","SECURITY","CO",80911,38.732492284,-104.688901044,392,"6865 GOLDFIELD DR, SECURITY, CO, 80911","Match","Non_Exact","6865 GOLDFIELD DR, COLORADO SPRINGS, CO, 80911",105525406,"R"
272393,"6865 GREELEY AVE","DAYTON","OH",45424,39.8307901090001,-84.095056266,393,"6865 GREELEY AVE, DAYTON, OH, 45424","Match","Exact","6865 GREELEY AVE, DAYTON, OH, 45424",143607815,"R"
272394,"6865 PLUM LAKE LANE E","JACKSONVILLE","FL",32222,30.221293238,-81.815377273,394,"6865 PLUM LAKE LANE E, JACKSONVILLE, FL, 32222","Match","Exact","6865 PLUM LAKE LN E, JACKSONVILLE, FL, 32222",83936587,"R"
272395,"6865 RIVER RIDGE DR","NASHVILLE","TN",37221,36.060824457,-86.963388079,395,"6865 RIVER RIDGE DR, NASHVILLE, TN, 37221","Match","Exact","6865 RIVER RIDGE DR, NASHVILLE, TN, 37221",97221905,"L"
272396,"6865 W CALAHAN AVENUE","LAKEWOOD","CO",80232,39.6872106750001,-105.07302527,396,"6865 W CALAHAN AVENUE, LAKEWOOD, CO, 80232","Match","Exact","6865 W CALAHAN AVE, LAKEWOOD, CO, 80232",177320770,"R"
272397,"6865 WEST COLONIAL DRIVE","ORLANDO","FL",32818,28.5521708380001,-81.474615935,397,"6865 WEST COLONIAL DRIVE, ORLANDO, FL, 32818","Match","Exact","6865 W COLONIAL DR, ORLANDO, FL, 32818",614298715,"R"
272398,"6866 CORSICA DRIVE SUITE 1962","MEMPHIS","TN",38120,35.1119116730001,-89.834653598,398,"6866 CORSICA DRIVE SUITE 1962, MEMPHIS, TN, 38120","Match","Exact","6866 CORSICA DR, MEMPHIS, TN, 38120",72929202,"L"
272399,"6866 PIERCE RD","FREELAND","MI",48623,43.509888996,-84.0476211129999,399,"6866 PIERCE RD, FREELAND, MI, 48623","Match","Exact","6866 PIERCE RD, FREELAND, MI, 48623",80233718,"L"
272400,"6867 CONQUISTADOR COURT","DUBLIN","OH",43017,40.1092676480001,-83.145364849,400,"6867 CONQUISTADOR COURT, DUBLIN, OH, 43017","Match","Exact","6867 CONQUISTADOR CT, DUBLIN, OH, 43017",218697815,"R"
272401,"6867 FULTON DR","AMARILLO","TX",79109,35.168923982,-101.916196822,401,"6867 FULTON DR, AMARILLO, TX, 79109","Match","Exact","6867 FULTON DR, AMARILLO, TX, 79109",182652695,"L"
272402,"6867 MOON FLOWER COURT","EASTVALE","CA",92880,33.962356668,-117.589098629,402,"6867 MOON FLOWER COURT, EASTVALE, CA, 92880","Match","Non_Exact","6867 MOONFLOWER DR, EASTVALE, CA, 92880",646297559,"R"
272403,"6867 S WALKER MILL DR","SALT LAKE CITY","UT",84121,40.626533463,-111.801550201,403,"6867 S WALKER MILL DR, SALT LAKE CITY, UT, 84121","Match","Exact","6867 WALKER MILL DR, SALT LAKE CITY, UT, 84121",176129787,"L"
272404,"6867 YELLOWWOOD LANE","DEFOREST","WI",53532,43.221858024,-89.355695167,404,"6867 YELLOWWOOD LANE, DEFOREST, WI, 53532","Match","Exact","6867 YELLOWWOOD LN, DEFOREST, WI, 53532",613733477,"R"
272405,"6868 ARIZONA AVE","LOS ANGELES","CA",90045,33.976964514,-118.395961953,405,"6868 ARIZONA AVE, LOS ANGELES, CA, 90045","Match","Exact","6868 ARIZONA AVE, LOS ANGELES, CA, 90045",141579037,"L"
272406,"6868 FREEDMANOR LANE","SAN DIEGO","CA",92114,32.693182064,-117.051004439,406,"6868 FREEDMANOR LANE, SAN DIEGO, CA, 92114","Match","Non_Exact","6868 FREED MANOR LN, SAN DIEGO, CA, 92114",195749615,"L"
272407,"6868 MAIN STREET","LITHONIA","GA",30058,33.7097167580001,-84.1094385929999,407,"6868 MAIN STREET, LITHONIA, GA, 30058","Match","Exact","6868 MAIN ST, LITHONIA, GA, 30058",23375778,"L"
272408,"6868 PARKE DRIVE","AVON","IN",46123,39.7434617170001,-86.4022396889999,408,"6868 PARKE DRIVE, AVON, IN, 46123","Match","Exact","6868 PARKE DR, AVON, IN, 46123",89200244,"L"
272409,"6868 SPERONE STREET","ORLANDO","FL",32819,28.4623678740001,-81.478852273,409,"6868 SPERONE STREET, ORLANDO, FL, 32819","Match","Exact","6868 SPERONE ST, ORLANDO, FL, 32819",647465454,"R"
272410,"68680 F STREET UNIT A","CATHEDRAL CITY","CA",92234,33.7756580700001,-116.463762119,410,"68680 F STREET UNIT A, CATHEDRAL CITY, CA, 92234","Match","Exact","68680 F ST, CATHEDRAL CITY, CA, 92234",194767567,"L"
272411,"6869 CLIFFDALE ROAD","FAYETTEVILLE","SC",28314,NA,NA,411,"6869 CLIFFDALE ROAD, FAYETTEVILLE, SC, 28314","No_Match",NA,NA,NA,NA
272412,"6869 FOREST BROOK DR","FOUNTAINTOWN","IN",46130,39.650409337,-85.912436965,412,"6869 FOREST BROOK DR, FOUNTAINTOWN, IN, 46130","Match","Non_Exact","6869 W FOREST BROOK DR, FOUNTAINTOWN, IN, 46130",33220235,"R"
272413,"6869 KIMBERLY LANE","DERBY","NY",14047,42.6995105080001,-78.998231182,413,"6869 KIMBERLY LANE, DERBY, NY, 14047","Match","Exact","6869 KIMBERLY LN, DERBY, NY, 14047",645596914,"L"
272414,"6869 REVERE RD","PARMA HEIGHTS","OH",44130,41.3754414050001,-81.755825316,414,"6869 REVERE RD, PARMA HEIGHTS, OH, 44130","Match","Exact","6869 REVERE RD, PARMA HEIGHTS, OH, 44130",61106859,"R"
272415,"6869 S CRANDON APT 3","CHICAGO","IL",60649,NA,NA,415,"6869 S CRANDON APT 3, CHICAGO, IL, 60649","No_Match",NA,NA,NA,NA
272416,"6869 W FOREST BROOK DR","FOUNTAINTOWN","IN",46130,39.650408688,-85.9124383399999,416,"6869 W FOREST BROOK DR, FOUNTAINTOWN, IN, 46130","Match","Exact","6869 W FOREST BROOK DR, FOUNTAINTOWN, IN, 46130",33220235,"R"
272417,"68690 HERMOSILLO RD","CATHEDRAL CITY","CA",92234,33.8343024210001,-116.463830932,417,"68690 HERMOSILLO RD, CATHEDRAL CITY, CA, 92234","Match","Exact","68690 HERMOSILLO RD, CATHEDRAL CITY, CA, 92234",194765227,"L"
272418,"687 ARTHUR MOORE DR","GREEN COVE SPRINGS","FL",32043,30.0398418230001,-81.8170044559999,418,"687 ARTHUR MOORE DR, GREEN COVE SPRINGS, FL, 32043","Match","Exact","687 ARTHUR MOORE DR, GREEN COVE SPRINGS, FL, 32043",647533245,"L"
272419,"687 BARRATTS CHAPEL RD","FELTON","DE",19943,39.0388427190001,-75.538979684,419,"687 BARRATTS CHAPEL RD, FELTON, DE, 19943","Match","Exact","687 BARRATTS CHAPEL RD, FELTON, DE, 19943",68092383,"R"
272420,"687 BLAKELY RD","COLCHESTER","VT",5446,NA,NA,420,"687 BLAKELY RD, COLCHESTER, VT, 5446","No_Match",NA,NA,NA,NA
272421,"687 CARRIAGE SHOP ROAD","EAST FALMOUTH","MA",2536,41.601017531,-70.556347273,421,"687 CARRIAGE SHOP ROAD, EAST FALMOUTH, MA, 2536","Match","Exact","687 CARRIAGE SHOP RD, EAST FALMOUTH, MA, 02536",636834305,"R"
272422,"687 CONCORD RD","GLEN MILLS","PA",19342,39.879893221,-75.50956431,422,"687 CONCORD RD, GLEN MILLS, PA, 19342","Match","Exact","687 CONCORD RD, GLEN MILLS, PA, 19342",651217647,"R"
272423,"687 CULPEPPER DRIVE","REYNOLDSBURG","OH",43068,39.9714163130001,-82.797233728,423,"687 CULPEPPER DRIVE, REYNOLDSBURG, OH, 43068","Match","Exact","687 CULPEPPER DR, REYNOLDSBURG, OH, 43068",218681418,"R"
272424,"687 FALCONWOOD DRIVE","SAN MARCOS","TX",78666,29.9159338000001,-98.0655278629999,424,"687 FALCONWOOD DRIVE, SAN MARCOS, TX, 78666","Match","Exact","687 FALCONWOOD DR, SAN MARCOS, TX, 78666",63836596,"L"
272425,"687 HARVARD STREET","BROOKSVILLE","FL",34601,28.5548477150001,-82.396518522,425,"687 HARVARD STREET, BROOKSVILLE, FL, 34601","Match","Exact","687 HARVARD ST, BROOKSVILLE, FL, 34601",85460503,"R"
272426,"687 HURLINGAME AVE","REDWOOD CITY","CA",94063,37.480787524,-122.208710548,426,"687 HURLINGAME AVE, REDWOOD CITY, CA, 94063","Match","Exact","687 HURLINGAME AVE, REDWOOD CITY, CA, 94063",192361636,"L"
272427,"687 JARVIS DRIVE","ERIE","CO",80516,40.035698342,-105.049222654,427,"687 JARVIS DRIVE, ERIE, CO, 80516","Match","Exact","687 JARVIS DR, ERIE, CO, 80516",642964072,"L"
272428,"687 MCKINLEY STREET SUITE 2","EUGENE","OR",97401,44.0537225310001,-123.129824099,428,"687 MCKINLEY STREET SUITE 2, EUGENE, OR, 97401","Match","Non_Exact","687 MCKINLEY ST, EUGENE, OR, 97402",653413451,"L"
272429,"687 MEADOW DR","EMMETT","ID",83617,43.870443793,-116.486548716,429,"687 MEADOW DR, EMMETT, ID, 83617","Match","Exact","687 MEADOW DR, EMMETT, ID, 83617",122873639,"L"
272430,"687 MONTGOMERY STREET","BROOKLYN","NY",11213,40.664912669,-73.941878722,430,"687 MONTGOMERY STREET, BROOKLYN, NY, 11213","Match","Exact","687 MONTGOMERY ST, BROOKLYN, NY, 11213",59079792,"L"
272431,"687 MOORE ROUSE RD","SNOW HILL","NC",28580,35.4713415690001,-77.590204985,431,"687 MOORE ROUSE RD, SNOW HILL, NC, 28580","Match","Exact","687 MOORE ROUSE RD, SNOW HILL, NC, 28580",26505394,"R"
272432,"687 N GUINGARD DR","SUMTER","SC",29150,NA,NA,432,"687 N GUINGARD DR, SUMTER, SC, 29150","No_Match",NA,NA,NA,NA
272433,"687 NORTH HIGH STREET","COLUMBUS","OH",43215,39.9764431840001,-83.003397739,433,"687 NORTH HIGH STREET, COLUMBUS, OH, 43215","Match","Exact","687 N HIGH ST, COLUMBUS, OH, 43215",135575642,"L"
272434,"687 NORTH TILLAMOOK SUITE B","PORTLAND","OR",97227,45.537796095,-122.673032107,434,"687 NORTH TILLAMOOK SUITE B, PORTLAND, OR, 97227","Match","Non_Exact","687 N TILLAMOOK ST, PORTLAND, OR, 97227",157504324,"R"
272435,"687 PROSPECT STREET","LAKEWOOD","NJ",8701,40.073002645,-74.231604799,435,"687 PROSPECT STREET, LAKEWOOD, NJ, 8701","Match","Exact","687 PROSPECT ST, LAKEWOOD, NJ, 08701",624525553,"L"
272436,"687 ROBERT HENRY STREET","MACON","GA",31206,32.803775005,-83.6485195449999,436,"687 ROBERT HENRY STREET, MACON, GA, 31206","Match","Exact","687 ROBERT HENRY ST, MACON, GA, 31206",81063975,"R"
272437,"687 SOUTH 5TH AVENUE","ROYERSFORD","PA",19468,40.180244714,-75.528467146,437,"687 SOUTH 5TH AVENUE, ROYERSFORD, PA, 19468","Match","Exact","687 S 5TH AVE, ROYERSFORD, PA, 19468",135065802,"R"
272438,"687 SPRINGFIELD AVENUE","NEWARK","NJ",7103,40.7299564310001,-74.212837297,438,"687 SPRINGFIELD AVENUE, NEWARK, NJ, 7103","Match","Exact","687 SPRINGFIELD AVE, NEWARK, NJ, 07103",63465483,"L"
272439,"687 STONEMILL MANOR STE C","LITHONIA","GA",30058,33.772783851,-84.093336511,439,"687 STONEMILL MANOR STE C, LITHONIA, GA, 30058","Match","Exact","687 STONEMILL MANOR, LITHONIA, GA, 30058",640581132,"L"
272440,"687 TAYLOR RD","BRIGHTON","MI",48114,42.59370755,-83.7480829799999,440,"687 TAYLOR RD, BRIGHTON, MI, 48114","Match","Exact","687 TAYLOR RD, BRIGHTON, MI, 48114",647790428,"R"
272441,"687 WALL ST","RIDGEWOOD","NJ",7450,40.9786719640001,-74.0940406939999,441,"687 WALL ST, RIDGEWOOD, NJ, 7450","Match","Exact","687 WALL ST, RIDGEWOOD, NJ, 07450",64377276,"L"
272442,"687","NEW ALBANY","OH",43054,NA,NA,442,"687, NEW ALBANY, OH, 43054","No_Match",NA,NA,NA,NA
272443,"6870 ANN ARBOR DR","ATLANTA","GA",30349,33.658601748,-84.611326532,443,"6870 ANN ARBOR DR, ATLANTA, GA, 30349","Match","Exact","6870 ANN ARBOR DR, ATLANTA, GA, 30349",17401110,"L"
272444,"6870 GREENHAVEN DRIVE","SACRAMENTO","CA",95831,38.502116067,-121.522368212,444,"6870 GREENHAVEN DRIVE, SACRAMENTO, CA, 95831","Match","Exact","6870 GREENHAVEN DR, SACRAMENTO, CA, 95831",133350093,"R"
272445,"6870 LIBERTY FARMS COURT","LIBERTY TOWNSHIP","OH",45011,39.3815361750001,-84.4345179489999,445,"6870 LIBERTY FARMS COURT, LIBERTY TOWNSHIP, OH, 45011","Match","Non_Exact","6870 LIBERTY FARMS, LIBERTY TWP, OH, 45011",634033175,"L"
272446,"6870 MADISON AVE","MADISON","OH",44057,41.8327795860001,-81.0418664009999,446,"6870 MADISON AVE, MADISON, OH, 44057","Match","Exact","6870 MADISON AVE, MADISON, OH, 44057",137468524,"R"
272447,"6870 N SUMMER HILL RD","FORRESTON","IL",61030,42.11079749,-89.607875531,447,"6870 N SUMMER HILL RD, FORRESTON, IL, 61030","Match","Exact","6870 N SUMMER HILL RD, FORRESTON, IL, 61030",52318519,"L"
272448,"6870 RIDGEVUE DR","PITTSBURGH","PA",15236,40.3170486160001,-79.983988042,448,"6870 RIDGEVUE DR, PITTSBURGH, PA, 15236","Match","Exact","6870 RIDGEVUE DR, PITTSBURGH, PA, 15236",51658540,"R"
272449,"6870 S RAINBOW BLVD STE 114","LAS VEGAS","NV",89118,36.0642280170001,-115.242420094,449,"6870 S RAINBOW BLVD STE 114, LAS VEGAS, NV, 89118","Match","Non_Exact","6870 S RAINBOW BLVD, LAS VEGAS, NV, 89118",201900675,"L"
272450,"6870 S RIVERWOOD WAY","AURORA","CO",80016,39.5919644570001,-104.677502043,450,"6870 S RIVERWOOD WAY, AURORA, CO, 80016","Match","Exact","6870 S RIVERWOOD WAY, AURORA, CO, 80016",177563250,"R"
272451,"6870 WINCHESTER RD","MEMPHIS","TN",38115,35.049283191,-89.834494171,451,"6870 WINCHESTER RD, MEMPHIS, TN, 38115","Match","Exact","6870 WINCHESTER RD, MEMPHIS, TN, 38115",72943467,"L"
272452,"6871 BIG TEXAS VALLEY RD NW","ROME","GA",30165,34.401224396,-85.225433762,452,"6871 BIG TEXAS VALLEY RD NW, ROME, GA, 30165","Match","Exact","6871 BIG TEXAS VALLEY RD NW, ROME, GA, 30165",30708568,"L"
272453,"6871 FARWOOD DRIVE","NEW ORLEANS","LA",70126,30.025584764,-90.006190406,453,"6871 FARWOOD DRIVE, NEW ORLEANS, LA, 70126","Match","Exact","6871 FARWOOD DR, NEW ORLEANS, LA, 70126",191732214,"R"
272454,"6871 KINSTON DR","CANAL EINCHESTER","OH",43110,39.914239077,-82.815589659,454,"6871 KINSTON DR, CANAL EINCHESTER, OH, 43110","Match","Non_Exact","6871 KINSTON DR, CANAL WINCHESTER, OH, 43110",641099605,"R"
272455,"6871 SW 48TH TER","MIAMI","FL",33155,25.7250302260001,-80.3059724939999,455,"6871 SW 48TH TER, MIAMI, FL, 33155","Match","Non_Exact","6871 SW 48TH TER, MIAMI, FL, 33155",115978232,"R"
272456,"6871 SW 48TH TERRACE","MIAMI","FL",33155,25.7250302260001,-80.3059724939999,456,"6871 SW 48TH TERRACE, MIAMI, FL, 33155","Match","Non_Exact","6871 SW 48TH TER, MIAMI, FL, 33155",115978232,"R"
272457,"6871 WEST CHARLESTON BLVD","LAS VEGAS","NV",89117,36.15904484,-115.244770298,457,"6871 WEST CHARLESTON BLVD, LAS VEGAS, NV, 89117","Match","Exact","6871 W CHARLESTON BLVD, LAS VEGAS, NV, 89117",639385339,"R"
272458,"6872 AUBURN DR","HUNTINGTON BEACH","CA",92647,33.7253538250001,-118.008805699,458,"6872 AUBURN DR, HUNTINGTON BEACH, CA, 92647","Match","Exact","6872 AUBURN DR, HUNTINGTON BEACH, CA, 92647",144017085,"R"
272459,"6872 EAST BAY BOULEVARD","NAVARRE","FL",32566,30.446212314,-86.9405326419999,459,"6872 EAST BAY BOULEVARD, NAVARRE, FL, 32566","Match","Exact","6872 E BAY BLVD, NAVARRE, FL, 32566",74580937,"L"
272460,"6872 SNOW WHITE DR","JACKSONVILLE","FL",32210,30.261474467,-81.757435737,460,"6872 SNOW WHITE DR, JACKSONVILLE, FL, 32210","Match","Exact","6872 SNOW WHITE DR, JACKSONVILLE, FL, 32210",83910570,"L"
272461,"6872 WILLOW BLOOM DR","CANAL WINCHES","OH",43110,39.8983933740001,-82.81161231,461,"6872 WILLOW BLOOM DR, CANAL WINCHES, OH, 43110","Match","Non_Exact","6872 WILLOW BLOOM DR, CANAL WINCHESTER, OH, 43110",635055776,"L"
272462,"6873 MEADOW CREST DRIVE UNIT 913","N RICHLAND HILLS","TX",76180,32.845603313,-97.235014085,462,"6873 MEADOW CREST DRIVE UNIT 913, N RICHLAND HILLS, TX, 76180","Match","Exact","6873 MEADOW CREST DR, NORTH RICHLAND HILLS, TX, 76180",101862845,"L"
272463,"6874 COYOTE RD","LAS CRUCES","NM",88012,32.430155079,-106.653183077,463,"6874 COYOTE RD, LAS CRUCES, NM, 88012","Match","Exact","6874 COYOTE RD, LAS CRUCES, NM, 88012",189569755,"R"
272464,"6874 EAST SHAVANO ROAD","NEW MARKET","MD",21774,39.421988335,-77.319401977,464,"6874 EAST SHAVANO ROAD, NEW MARKET, MD, 21774","Match","Exact","6874 E SHAVANO RD, NEW MARKET, MD, 21774",644925786,"L"
272465,"6874 HWY 908","GRESHAM","SC",29546,33.922806156,-79.341738586,465,"6874 HWY 908, GRESHAM, SC, 29546","Match","Non_Exact","6874 STATE HWY 908, GRESHAM, SC, 29546",639079028,"R"
272466,"6874 OAKRIDGE ROAD","CLOVER","SC",29710,35.151605487,-81.1277424689999,466,"6874 OAKRIDGE ROAD, CLOVER, SC, 29710","Match","Exact","6874 OAKRIDGE RD, CLOVER, SC, 29710",19826567,"R"
272467,"68740 CONCEPCION RD","CATHEDRAL CITY","CA",92234,33.8360306930001,-116.463182428,467,"68740 CONCEPCION RD, CATHEDRAL CITY, CA, 92234","Match","Exact","68740 CONCEPCION RD, CATHEDRAL CITY, CA, 92234",194765201,"L"
272468,"6875 AMHERST STREET","SAN DIEGO","CA",92115,32.7675654280001,-117.049747237,468,"6875 AMHERST STREET, SAN DIEGO, CA, 92115","Match","Exact","6875 AMHERST ST, SAN DIEGO, CA, 92115",195351339,"R"
272469,"6875 APPLEWHITE RD","WENDELL","NC",27591,35.7303152960001,-78.333743284,469,"6875 APPLEWHITE RD, WENDELL, NC, 27591","Match","Exact","6875 APPLEWHITE RD, WENDELL, NC, 27591",639652612,"L"
272470,"6875 DEFIANCE TRAIL","DELPHOS","OH",45833,40.835436153,-84.289721675,470,"6875 DEFIANCE TRAIL, DELPHOS, OH, 45833","Match","Exact","6875 DEFIANCE TRL, DELPHOS, OH, 45833",636598620,"L"
272471,"6875 DOUGLAS ROAD","LAMBERTVILLE","MI",48144,41.73965299,-83.605989955,471,"6875 DOUGLAS ROAD, LAMBERTVILLE, MI, 48144","Match","Exact","6875 DOUGLAS RD, LAMBERTVILLE, MI, 48144",652808516,"R"
272472,"6875 PEACHTREE DUNWOODY RD 111","SANDY SPRINGS","GA",30328,33.9430478,-84.3522422839999,472,"6875 PEACHTREE DUNWOODY RD 111, SANDY SPRINGS, GA, 30328","Match","Non_Exact","6875 PEACHTREE DUNWOODY RD NE, SANDY SPRINGS, GA, 30328",642888815,"R"
272473,"6875 PENROD ST","DETROIT","MI",48228,42.3410631580001,-83.2194886,473,"6875 PENROD ST, DETROIT, MI, 48228","Match","Exact","6875 PENROD ST, DETROIT, MI, 48228",95440048,"L"
272474,"6875 RIO DRIVE","BATON ROUGE","LA",70812,30.50376873,-91.121761249,474,"6875 RIO DRIVE, BATON ROUGE, LA, 70812","Match","Exact","6875 RIO DR, BATON ROUGE, LA, 70812",92188397,"L"
272475,"6875 SANTA CLARA DR","NAVARRE","FL",32566,30.4615822580001,-86.933921598,475,"6875 SANTA CLARA DR, NAVARRE, FL, 32566","Match","Exact","6875 SANTA CLARA DR, NAVARRE, FL, 32566",638819806,"R"
272476,"68759 RT 48","GREENPORT","NY",11944,41.1130088190001,-72.370774881,476,"68759 RT 48, GREENPORT, NY, 11944","Match","Non_Exact","68759 CO RD 48, GREENPORT, NY, 11944",113957726,"R"
272477,"6876 S EISENMAN RD","BOISE","ID",83716,43.5369380180001,-116.161762523,477,"6876 S EISENMAN RD, BOISE, ID, 83716","Match","Exact","6876 S EISENMAN RD, BOISE, ID, 83716",647652123,"L"
272478,"6877 HANKS DRIVE","BATON ROUGE","LA",70812,30.4958376870001,-91.1215887279999,478,"6877 HANKS DRIVE, BATON ROUGE, LA, 70812","Match","Exact","6877 HANKS DR, BATON ROUGE, LA, 70812",92188506,"L"
272479,"6877 HICKORY CREEK ROAD","LENOIR CITY","TN",37771,35.8542464400001,-84.270298678,479,"6877 HICKORY CREEK ROAD, LENOIR CITY, TN, 37771","Match","Exact","6877 HICKORY CREEK RD, LENOIR CITY, TN, 37771",99965033,"L"
272480,"6877 PIN OAK LANE","FAYETTEVILLE","NC",28314,35.0705895580001,-79.0607563839999,480,"6877 PIN OAK LANE, FAYETTEVILLE, NC, 28314","Match","Exact","6877 PIN OAK LN, FAYETTEVILLE, NC, 28314",64226870,"R"
272481,"68770 WOLCOTT ROAD","RAY TWP","MI",48096,42.803133358,-82.94255479,481,"68770 WOLCOTT ROAD, RAY TWP, MI, 48096","Match","Exact","68770 WOLCOTT RD, RAY TWP, MI, 48096",110726117,"L"
272482,"6878 BELDING ROAD","ROCKFORD","MI",49341,43.0862677920001,-85.498084969,482,"6878 BELDING ROAD, ROCKFORD, MI, 49341","Match","Non_Exact","6878 BELDING RD NE, ROCKFORD, MI, 49341",12480786,"L"
272483,"6878 BLACK OAK EAST CT","AVON","IN",46123,39.7820563710001,-86.4024815449999,483,"6878 BLACK OAK EAST CT, AVON, IN, 46123","Match","Exact","6878 BLACK OAK EAST CT, AVON, IN, 46123",89207715,"L"
272484,"6878 SE OUR CT","MILWAUKIE","OR",97222,45.449865108,-122.592447869,484,"6878 SE OUR CT, MILWAUKIE, OR, 97222","Match","Exact","6878 SE OUR CT, MILWAUKIE, OR, 97222",157926647,"R"
272485,"6878 SW ASHDALE DR","PORTLAND","OR",97223,45.4592324290001,-122.748036941,485,"6878 SW ASHDALE DR, PORTLAND, OR, 97223","Match","Exact","6878 SW ASHDALE DR, PORTLAND, OR, 97223",158212398,"R"
272486,"6879 N 42ND STREET","MILWAUKEE","WI",53209,43.1429456280001,-87.964417493,486,"6879 N 42ND STREET, MILWAUKEE, WI, 53209","Match","Exact","6879 N 42ND ST, MILWAUKEE, WI, 53209",77726648,"L"
272487,"688 110TH AVE NE S2604","BELLEVUE","WA",98004,47.6158896530001,-122.193603973,487,"688 110TH AVE NE S2604, BELLEVUE, WA, 98004","Match","Exact","688 110TH AVE NE, BELLEVUE, WA, 98004",650107962,"R"
272488,"688 7 MILE CANYON RD","VIRGINIA CITY","NV",89440,NA,NA,488,"688 7 MILE CANYON RD, VIRGINIA CITY, NV, 89440","No_Match",NA,NA,NA,NA
272489,"688 A B MURPHY RD","PERRY","FL",32347,30.138424118,-83.572759929,489,"688 A B MURPHY RD, PERRY, FL, 32347","Match","Exact","688 A B MURPHY RD, PERRY, FL, 32347",53962953,"R"
272490,"688 ALPINE WAY","IDAHO SPRINGS","CO",80452,39.7981250880001,-105.562833888,490,"688 ALPINE WAY, IDAHO SPRINGS, CO, 80452","Match","Exact","688 ALPINE WAY, IDAHO SPRINGS, CO, 80452",179833081,"R"
272491,"688 ANGLERS RETREAT","STEAMBOAT SPRINGS","CO",80487,NA,NA,491,"688 ANGLERS RETREAT, STEAMBOAT SPRINGS, CO, 80487","Tie",NA,NA,NA,NA
272492,"688 CHARNELTON ST","EUGENE","OR",97401,44.0522702480001,-123.095790667,492,"688 CHARNELTON ST, EUGENE, OR, 97401","Match","Exact","688 CHARNELTON ST, EUGENE, OR, 97401",605383364,"R"
272493,"688 FREBIS AVE","COLUMBUS","OH",43206,39.935212699,-82.977405973,493,"688 FREBIS AVE, COLUMBUS, OH, 43206","Match","Exact","688 FREBIS AVE, COLUMBUS, OH, 43206",135585641,"L"
272494,"688 JEFFERSON STREET","NEW ORLEANS","LA",70121,29.964577933,-90.170480428,494,"688 JEFFERSON STREET, NEW ORLEANS, LA, 70121","Match","Exact","688 JEFFERSON ST, NEW ORLEANS, LA, 70121",93501277,"L"
272495,"688 MISSION DE ORO DRIVE","REDDING","CA",96003,40.597865918,-122.359140287,495,"688 MISSION DE ORO DRIVE, REDDING, CA, 96003","Match","Exact","688 MISSION DE ORO DR, REDDING, CA, 96003",648177843,"L"
272496,"688 N 7TH ST 231","SAN JOSE","CA",95112,NA,NA,496,"688 N 7TH ST 231, SAN JOSE, CA, 95112","Tie",NA,NA,NA,NA
272497,"688 N ARROWHEAD AVE","SAN BERNARDINO","CA",92401,34.111789189,-117.289672394,497,"688 N ARROWHEAD AVE, SAN BERNARDINO, CA, 92401","Match","Exact","688 N ARROWHEAD AVE, SAN BERNARDINO, CA, 92401",144655374,"L"
272498,"688 NW 19TH STREET","POMPANO BEACH","FL",33060,26.2544123550001,-80.134398904,498,"688 NW 19TH STREET, POMPANO BEACH, FL, 33060","Match","Exact","688 NW 19TH ST, POMPANO BEACH, FL, 33060",114741484,"L"
272499,"688 OLD BALTIMORE PIKE","NEWARK","DE",19702,39.646492111,-75.7143125429999,499,"688 OLD BALTIMORE PIKE, NEWARK, DE, 19702","Match","Exact","688 OLD BALTIMORE PIKE, NEWARK, DE, 19702",639864676,"L"
272500,"688 RIVERBIRCH CIRCLE","AMERICAN FORK","UT",84003,40.3916673270001,-111.7781546,500,"688 RIVERBIRCH CIRCLE, AMERICAN FORK, UT, 84003","Match","Exact","688 RIVERBIRCH CIR, AMERICAN FORK, UT, 84003",134229248,"L"
