"ID","Address","City","State","Zip","lat","long","id","input_address","match_indicator","match_type","matched_address","tiger_line_id","tiger_side"
18001,"109 OTISCO ST STE 404","SYRACUSE","NY",13204,43.0465768390001,-76.1591643689999,1,"109 OTISCO ST STE 404, SYRACUSE, NY, 13204","Match","Exact","109 OTISCO ST, SYRACUSE, NY, 13204",46597929,"L"
18002,"109 PACIFIC BLVD","LONG BEACH","NY",11561,40.5853210510001,-73.640935132,2,"109 PACIFIC BLVD, LONG BEACH, NY, 11561","Match","Exact","109 PACIFIC BLVD, LONG BEACH, NY, 11561",147682707,"L"
18003,"109 PAMELA PLACE","SEAFORD","VA",23696,37.18007142,-76.448321501,3,"109 PAMELA PLACE, SEAFORD, VA, 23696","Match","Exact","109 PAMELA PL, SEAFORD, VA, 23696",103752333,"R"
18004,"109 PATRIOT DRIVE","EAST PEORIA","IL",61611,40.696490666,-89.5136019779999,4,"109 PATRIOT DRIVE, EAST PEORIA, IL, 61611","Match","Exact","109 PATRIOT DR, EAST PEORIA, IL, 61611",22520338,"L"
18005,"109 PEACH ST","VIENNA","IL",62995,37.4056259660001,-88.885512976,5,"109 PEACH ST, VIENNA, IL, 62995","Match","Exact","109 PEACH ST, VIENNA, IL, 62995",5693202,"L"
18006,"109 PEACH TREE ST","HUNTSVILLE","TX",77320,30.7320659850001,-95.5756768319999,6,"109 PEACH TREE ST, HUNTSVILLE, TX, 77320","Match","Exact","109 PEACH TREE ST, HUNTSVILLE, TX, 77320",22198377,"R"
18007,"109 PEBBLESIDE LANE","LANCASTER","PA",17602,40.0194496440001,-76.255040862,7,"109 PEBBLESIDE LANE, LANCASTER, PA, 17602","Match","Exact","109 PEBBLESIDE LN, LANCASTER, PA, 17602",179696019,"L"
18008,"109 PECAN PLACE","BUENA VISTA","GA",31803,32.381566913,-84.43911446,8,"109 PECAN PLACE, BUENA VISTA, GA, 31803","Match","Exact","109 PECAN PL, BUENA VISTA, GA, 31803",30604258,"R"
18009,"109 PINE ARBOR DRIVE","LEESBURG","GA",31763,31.626724659,-84.101457454,9,"109 PINE ARBOR DRIVE, LEESBURG, GA, 31763","Match","Exact","109 PINE ARBOR DR, LEESBURG, GA, 31763",630311001,"R"
18010,"109 PINE ST","CHURCH HILL","TN",37642,36.5258215000001,-82.715024869,10,"109 PINE ST, CHURCH HILL, TN, 37642","Match","Exact","109 PINE ST, CHURCH HILL, TN, 37642",42398402,"L"
18011,"109 PINE ST","KINGSPORT","TN",37642,36.5258215000001,-82.715024869,11,"109 PINE ST, KINGSPORT, TN, 37642","Match","Non_Exact","109 PINE ST, CHURCH HILL, TN, 37642",42398402,"L"
18012,"109 PLANTATION SHORES DR","TAVERNIER","FL",33070,24.9930098350001,-80.538551442,12,"109 PLANTATION SHORES DR, TAVERNIER, FL, 33070","Match","Exact","109 PLANTATION SHORES DR, TAVERNIER, FL, 33070",116467050,"R"
18013,"109 PONTIAC STREET","OXFORD","MI",48371,42.8190552400001,-83.267612925,13,"109 PONTIAC STREET, OXFORD, MI, 48371","Match","Exact","109 PONTIAC ST, OXFORD, MI, 48371",69758589,"R"
18014,"109 POPLAR HILL COURT","AIKEN","SC",29803,33.4879325970001,-81.7157776619999,14,"109 POPLAR HILL COURT, AIKEN, SC, 29803","Match","Exact","109 POPLAR HILL CT, AIKEN, SC, 29803",65014665,"L"
18015,"109 POTTERY LANDING DR","CONWAY","SC",29527,33.7642882270001,-79.072694316,15,"109 POTTERY LANDING DR, CONWAY, SC, 29527","Match","Exact","109 POTTERY LANDING DR, CONWAY, SC, 29527",631741627,"L"
18016,"109 PRAIRIE VIEW LANE","RED OAK","TX",75154,NA,NA,16,"109 PRAIRIE VIEW LANE, RED OAK, TX, 75154","No_Match",NA,NA,NA,NA
18017,"109 PRINCE CHARLES COURT","KILL DEVIL HILLS","NC",27948,36.005108668,-75.726097639,17,"109 PRINCE CHARLES COURT, KILL DEVIL HILLS, NC, 27948","Match","Exact","109 PRINCE CHARLES CT, KILL DEVIL HILLS, NC, 27948",81315234,"L"
18018,"109 PRINCE ST","GREER","SC",29651,34.9405242080001,-82.213310538,18,"109 PRINCE ST, GREER, SC, 29651","Match","Exact","109 PRINCE ST, GREER, SC, 29651",635285969,"L"
18019,"109 PRINCETON AVENUE","PROVIDENCE","RI",2907,41.805381734,-71.424015429,19,"109 PRINCETON AVENUE, PROVIDENCE, RI, 2907","Match","Exact","109 PRINCETON AVE, PROVIDENCE, RI, 02907",47466028,"R"
18020,"109 PROMETHEAN WAY","MOUNTAIN VIEW","CA",94043,37.3934232080001,-122.070398373,20,"109 PROMETHEAN WAY, MOUNTAIN VIEW, CA, 94043","Match","Exact","109 PROMETHEAN WAY, MOUNTAIN VIEW, CA, 94043",627028756,"L"
18021,"109 PROVIDENCE PLACE","WILLOW STREET","PA",17584,39.9956081280001,-76.279614383,21,"109 PROVIDENCE PLACE, WILLOW STREET, PA, 17584","Match","Exact","109 PROVIDENCE PL, WILLOW STREET, PA, 17584",179693836,"L"
18022,"109 PURPLE PASSION AVE","NLV","NV",89032,36.229057192,-115.137393562,22,"109 PURPLE PASSION AVE, NLV, NV, 89032","Match","Non_Exact","109 PURPLE PASSION AVE, N LAS VEGAS, NV, 89032",636798038,"L"
18023,"109 RAGSDALE ROAD ROOM 116","TRAVIS AFB","CA",94535,NA,NA,23,"109 RAGSDALE ROAD ROOM 116, TRAVIS AFB, CA, 94535","No_Match",NA,NA,NA,NA
18024,"109 RAPPORT DRIVE","CARY","NC",27519,35.7778401420001,-78.878117671,24,"109 RAPPORT DRIVE, CARY, NC, 27519","Match","Exact","109 RAPPORT DR, CARY, NC, 27519",637572906,"R"
18025,"109 REDBIRD LANE","TERRACE PARK","OH",45174,39.1668486190001,-84.3114077069999,25,"109 REDBIRD LANE, TERRACE PARK, OH, 45174","Match","Non_Exact","109 RED BIRD LN, TERRACE PARK, OH, 45174",103940133,"L"
18026,"109 REDBUD DRIVE","BRANDON","MS",39047,32.362559564,-90.042565237,26,"109 REDBUD DRIVE, BRANDON, MS, 39047","Match","Exact","109 REDBUD DR, BRANDON, MS, 39047",116918117,"L"
18027,"109 REESE RD","SEVIERVILLE","TN",37862,35.8537447240001,-83.570216929,27,"109 REESE RD, SEVIERVILLE, TN, 37862","Match","Exact","109 REESE RD, SEVIERVILLE, TN, 37862",635466350,"R"
18028,"109 RIDGE LANE PARK","ROSE HILL","NC",28458,34.8295778080001,-78.019175939,28,"109 RIDGE LANE PARK, ROSE HILL, NC, 28458","Match","Exact","109 RIDGE LANE PARK, ROSE HILL, NC, 28458",13441611,"R"
18029,"109 RIDGE RD N","HEDGESVILLE","WV",25427,NA,NA,29,"109 RIDGE RD N, HEDGESVILLE, WV, 25427","No_Match",NA,NA,NA,NA
18030,"109 RIDGE ROAD NORTH","HEDGESVILLE","WV",25427,NA,NA,30,"109 RIDGE ROAD NORTH, HEDGESVILLE, WV, 25427","No_Match",NA,NA,NA,NA
18031,"109 RIDINGS WAY","AMBLER","PA",19002,40.1485346220001,-75.2416448829999,31,"109 RIDINGS WAY, AMBLER, PA, 19002","Match","Exact","109 RIDINGS WAY, AMBLER, PA, 19002",135111563,"L"
18032,"109 RIGGS ROAD BLDG B","MOREHEAD CITY","NC",28557,34.737369352,-76.7891295919999,32,"109 RIGGS ROAD BLDG B, MOREHEAD CITY, NC, 28557","Match","Exact","109 RIGGS RD, MOREHEAD CITY, NC, 28557",653643553,"L"
18033,"109 RING RD","KINGSTON","MA",2364,NA,NA,33,"109 RING RD, KINGSTON, MA, 2364","No_Match",NA,NA,NA,NA
18034,"109 RIVER BLUFF","CASTROVILLE","TX",78009,29.3515987550001,-98.896308088,34,"109 RIVER BLUFF, CASTROVILLE, TX, 78009","Match","Exact","109 RIVER BLUFF, CASTROVILLE, TX, 78009",636534349,"L"
18035,"109 RIVERWALK BLVD","BURLINGTON","NJ",8016,40.0633994130001,-74.893143004,35,"109 RIVERWALK BLVD, BURLINGTON, NJ, 8016","Match","Exact","109 RIVERWALK BLVD, BURLINGTON, NJ, 08016",645316098,"R"
18036,"109 ROADRUNNER CIRCLE","BOERNE","TX",78006,29.780439448,-98.8234497079999,36,"109 ROADRUNNER CIRCLE, BOERNE, TX, 78006","Match","Exact","109 ROADRUNNER CIR, BOERNE, TX, 78006",102761699,"L"
18037,"109 ROBIN AUBREY LANE APT 207","MOORESVILLE","NC",28117,35.5989843990001,-80.879072102,37,"109 ROBIN AUBREY LANE APT 207, MOORESVILLE, NC, 28117","Match","Exact","109 ROBIN AUBREY LN, MOORESVILLE, NC, 28117",640655687,"R"
18038,"109 ROCK CREEK DR","GREENWOOD","SC",29646,34.1790002290001,-82.218163197,38,"109 ROCK CREEK DR, GREENWOOD, SC, 29646","Match","Exact","109 ROCK CREEK DR, GREENWOOD, SC, 29646",50805294,"L"
18039,"109 ROCKY MOUNTAIN DR","WALBACK","WV",25285,38.5213824360001,-81.1196560819999,39,"109 ROCKY MOUNTAIN DR, WALBACK, WV, 25285","Match","Non_Exact","109 ROCKY MOUNTAIN DR, WALLBACK, WV, 25285",624741855,"R"
18040,"109 ROLLING HILLS DR","SOMERSET","KY",42503,37.1278273730001,-84.61648755,40,"109 ROLLING HILLS DR, SOMERSET, KY, 42503","Match","Exact","109 ROLLING HILLS DR, SOMERSET, KY, 42503",39075775,"L"
18041,"109 RYLER DR","DURANGO","CO",81301,37.290193629,-107.866193193,41,"109 RYLER DR, DURANGO, CO, 81301","Match","Exact","109 RYLER DR, DURANGO, CO, 81301",635508306,"R"
18042,"109 S 77TH STREET","HOUSTON","TX",77012,NA,NA,42,"109 S 77TH STREET, HOUSTON, TX, 77012","Tie",NA,NA,NA,NA
18043,"109 S BANKER ST","EFFINGHAM","IL",62401,39.1212153560001,-88.544237042,43,"109 S BANKER ST, EFFINGHAM, IL, 62401","Match","Exact","109 S BANKER ST, EFFINGHAM, IL, 62401",94761257,"L"
18044,"109 S MAIN ST APT C","HESSON","KS",67062,NA,NA,44,"109 S MAIN ST APT C, HESSON, KS, 67062","Tie",NA,NA,NA,NA
18045,"109 S MAIN ST STE B","MOORELAND","OK",73852,36.4407248320001,-99.204721698,45,"109 S MAIN ST STE B, MOORELAND, OK, 73852","Match","Non_Exact","109 N MAIN ST, MOORELAND, OK, 73852",606489015,"L"
18046,"109 S MAIN ST","SHERIDAN","WY",82801,44.7961939690001,-106.955828916,46,"109 S MAIN ST, SHERIDAN, WY, 82801","Match","Exact","109 S MAIN ST, SHERIDAN, WY, 82801",147404476,"R"
18047,"109 S MAIN STREET","SHERIDAN","WY",82801,44.7961939690001,-106.955828916,47,"109 S MAIN STREET, SHERIDAN, WY, 82801","Match","Exact","109 S MAIN ST, SHERIDAN, WY, 82801",147404476,"R"
18048,"109 S POE AVE","KANSAS CITY","MO",64119,39.19632835,-94.5040608739999,48,"109 S POE AVE, KANSAS CITY, MO, 64119","Match","Non_Exact","109 S POE ST, KANSAS CITY, MO, 64119",89761161,"L"
18049,"109 S SANDUSKY AVE ROOM 16","UPPER SANDUSKY","OH",43351,NA,NA,49,"109 S SANDUSKY AVE ROOM 16, UPPER SANDUSKY, OH, 43351","Tie",NA,NA,NA,NA
18050,"109 S SCOTT ST UNIT D1","SPOKANE","WA",99202,47.656085024,-117.39905988,50,"109 S SCOTT ST UNIT D1, SPOKANE, WA, 99202","Match","Non_Exact","109 S SCOTT ST, SPOKANE, WA, 99202",605662937,"L"
18051,"109 S TAYLOR ST","NEW BUFFALO","MI",49117,41.794048484,-86.7397448569999,51,"109 S TAYLOR ST, NEW BUFFALO, MI, 49117","Match","Exact","109 S TAYLOR ST, NEW BUFFALO, MI, 49117",119968901,"R"
18052,"109 S WEST END BLVD","QUAKERTOWN","PA",18951,40.440683789,-75.3565725459999,52,"109 S WEST END BLVD, QUAKERTOWN, PA, 18951","Match","Exact","109 S WEST END BLVD, QUAKERTOWN, PA, 18951",134788022,"R"
18053,"109 SANDTRAP CT","SUFFOLK","VA",23434,36.7793987100001,-76.565971588,53,"109 SANDTRAP CT, SUFFOLK, VA, 23434","Match","Exact","109 SANDTRAP CT, SUFFOLK, VA, 23434",122246898,"L"
18054,"109 SANFORD STREET","HAMDEN","CT",6514,41.3817526120001,-72.915558623,54,"109 SANFORD STREET, HAMDEN, CT, 6514","Match","Exact","109 SANFORD ST, HAMDEN, CT, 06514",647243656,"R"
18055,"109 SARGENT ROAD","CORDOVA","AL",35550,33.7404565000001,-87.1598843039999,55,"109 SARGENT ROAD, CORDOVA, AL, 35550","Match","Exact","109 SARGENT RD, CORDOVA, AL, 35550",120571739,"R"
18056,"109 SCATESWOOD DRIVE","MARTIN","TN",38237,36.3324873350001,-88.8639583739999,56,"109 SCATESWOOD DRIVE, MARTIN, TN, 38237","Match","Exact","109 SCATESWOOD DR, MARTIN, TN, 38237",40879912,"R"
18057,"109 SCHOOL ST","RIPLEY","MS",38663,34.722522697,-88.945941537,57,"109 SCHOOL ST, RIPLEY, MS, 38663","Match","Exact","109 SCHOOL ST, RIPLEY, MS, 38663",76566168,"R"
18058,"109 SE 1ST AVE","OCALA","FL",34471,29.185378642,-82.1360230019999,58,"109 SE 1ST AVE, OCALA, FL, 34471","Match","Exact","109 SE 1ST AVE, OCALA, FL, 34471",116725581,"L"
18059,"109 SE GATE DRIVE","CHERRY HILL","NJ",8003,39.894526177,-74.986849308,59,"109 SE GATE DRIVE, CHERRY HILL, NJ, 8003","Match","Exact","109 SE GATE DR, CHERRY HILL, NJ, 08003",134358025,"L"
18060,"109 SECOND STREET BOX 301","ROGERSVILLE","PA",15359,39.879519198,-80.274343808,60,"109 SECOND STREET BOX 301, ROGERSVILLE, PA, 15359","Match","Exact","109 2ND ST, ROGERSVILLE, PA, 15359",51383787,"L"
18061,"109 SHORE DRIVE","BEAUFORT","NC",28516,34.7456505850001,-76.625048036,61,"109 SHORE DRIVE, BEAUFORT, NC, 28516","Match","Exact","109 SHORE DR, BEAUFORT, NC, 28516",33863173,"R"
18062,"109 SMOKEY HILL AVENUE","RUSKIN","FL",33570,27.692767259,-82.434484002,62,"109 SMOKEY HILL AVENUE, RUSKIN, FL, 33570","Match","Exact","109 SMOKEY HILL AVE, RUSKIN, FL, 33570",629895852,"R"
18063,"109 SONEWALL DRIVE","CARROLLTON","GA",30117,NA,NA,63,"109 SONEWALL DRIVE, CARROLLTON, GA, 30117","No_Match",NA,NA,NA,NA
18064,"109 SOUTH 17TH STREET","WILMINGTON","NC",28401,34.235502651,-77.9274206329999,64,"109 SOUTH 17TH STREET, WILMINGTON, NC, 28401","Match","Exact","109 S 17TH ST, WILMINGTON, NC, 28401",652173077,"L"
18065,"109 SOUTH 2ND STREET","MILLVILLE","NJ",8332,39.394461769,-75.036809636,65,"109 SOUTH 2ND STREET, MILLVILLE, NJ, 8332","Match","Exact","109 S 2ND ST, MILLVILLE, NJ, 08332",174112278,"L"
18066,"109 SOUTH 5TH STREET","BROOKLYN","NY",11249,40.7114105410001,-73.9640202639999,66,"109 SOUTH 5TH STREET, BROOKLYN, NY, 11249","Match","Exact","109 S 5TH ST, BROOKLYN, NY, 11249",59076010,"L"
18067,"109 SOUTH ATLANTIC DRIVE","LANTANA","FL",33462,26.583282189,-80.0432861529999,67,"109 SOUTH ATLANTIC DRIVE, LANTANA, FL, 33462","Match","Exact","109 S ATLANTIC DR, LANTANA, FL, 33462",115295252,"R"
18068,"109 SOUTH CENTRAL AVENUE","LADD","IL",61329,41.381445512,-89.221589615,68,"109 SOUTH CENTRAL AVENUE, LADD, IL, 61329","Match","Exact","109 S CENTRAL AVE, LADD, IL, 61329",8478802,"R"
18069,"109 SOUTH DIVISION","GUTHRIE","OK",73044,35.877959273,-97.425358535,69,"109 SOUTH DIVISION, GUTHRIE, OK, 73044","Match","Non_Exact","109 S DIVISION ST, GUTHRIE, OK, 73044",606636605,"L"
18070,"109 SOUTH GRAYSON ST","NEWBERN","TN",38059,36.1118576550001,-89.267370864,70,"109 SOUTH GRAYSON ST, NEWBERN, TN, 38059","Match","Exact","109 S GRAYSON ST, NEWBERN, TN, 38059",40653587,"L"
18071,"109 SOUTH MAIN STREET USA","MARCELINE","MO",64658,NA,NA,71,"109 SOUTH MAIN STREET USA, MARCELINE, MO, 64658","No_Match",NA,NA,NA,NA
18072,"109 SOUTH MAIN","CHAFFEE","MO",63740,37.1798503160001,-89.655259406,72,"109 SOUTH MAIN, CHAFFEE, MO, 63740","Match","Non_Exact","109 S MAIN ST, CHAFFEE, MO, 63740",38942159,"L"
18073,"109 SOUTH NORMANDIE APT 302","LOS ANGELES","CA",90004,34.072231802,-118.300385578,73,"109 SOUTH NORMANDIE APT 302, LOS ANGELES, CA, 90004","Match","Non_Exact","109 S NORMANDIE AVE, LOS ANGELES, CA, 90004",141603863,"R"
18074,"109 SOUTH ST JOHN","LYONS","KS",67554,38.3475769340001,-98.208664023,74,"109 SOUTH ST JOHN, LYONS, KS, 67554","Match","Non_Exact","109 S ST JOHN AVE, LYONS, KS, 67554",132962350,"L"
18075,"109 SOUTH WASHINGTON ST","CLINTON","KY",42031,36.6669482550001,-88.99361182,75,"109 SOUTH WASHINGTON ST, CLINTON, KY, 42031","Match","Exact","109 S WASHINGTON ST, CLINTON, KY, 42031",27910668,"R"
18076,"109 SOUTH WHITE STREET","LANCASTER","SC",29720,34.720830376,-80.769815936,76,"109 SOUTH WHITE STREET, LANCASTER, SC, 29720","Match","Exact","109 S WHITE ST, LANCASTER, SC, 29720",40693081,"R"
18077,"109 SPRAIN RD","SCARSDALE","NY",10583,41.010070118,-73.828973213,77,"109 SPRAIN RD, SCARSDALE, NY, 10583","Match","Exact","109 SPRAIN RD, SCARSDALE, NY, 10583",139817465,"R"
18078,"109 STADIUM DRIVE ROOM 309","CHAPEL HILL","NC",27514,35.908597145,-79.047913224,78,"109 STADIUM DRIVE ROOM 309, CHAPEL HILL, NC, 27514","Match","Exact","109 STADIUM DR, CHAPEL HILL, NC, 27514",72403229,"R"
18079,"109 STATE ROAD","WEST GROVE","PA",19390,39.823844191,-75.802638847,79,"109 STATE ROAD, WEST GROVE, PA, 19390","Match","Exact","109 STATE RD, WEST GROVE, PA, 19390",636456823,"R"
18080,"109 STONE CREEK LANE","PERKASIE","PA",18944,40.3528043100001,-75.1883182239999,80,"109 STONE CREEK LANE, PERKASIE, PA, 18944","Match","Exact","109 STONE CREEK LN, PERKASIE, PA, 18944",134747839,"L"
18081,"109 STONEBRIDGE XING","NEWNAN","GA",30265,33.38316445,-84.748753479,81,"109 STONEBRIDGE XING, NEWNAN, GA, 30265","Match","Exact","109 STONEBRIDGE CROSSING, NEWNAN, GA, 30265",9352527,"L"
18082,"109 STONEHAM COURT","MEBANE","NC",27302,36.0805324360001,-79.2845614349999,82,"109 STONEHAM COURT, MEBANE, NC, 27302","Match","Exact","109 STONEHAM CT, MEBANE, NC, 27302",71670725,"L"
18083,"109 STONERIDGE DRIVE","MESQUITE","TX",75149,32.7676995350001,-96.644390914,83,"109 STONERIDGE DRIVE, MESQUITE, TX, 75149","Match","Exact","109 STONERIDGE DR, MESQUITE, TX, 75149",103177228,"R"
18084,"109 STRATHMORE ROAD APT 11","BOSTON","MA",2135,42.3391872890001,-71.151178272,84,"109 STRATHMORE ROAD APT 11, BOSTON, MA, 2135","Match","Exact","109 STRATHMORE RD, BOSTON, MA, 02135",85727309,"R"
18085,"109 STROBAN ROAD","SEABROOK","SC",29940,32.595714038,-80.7397566239999,85,"109 STROBAN ROAD, SEABROOK, SC, 29940","Match","Exact","109 STROBAN RD, SEABROOK, SC, 29940",87643422,"L"
18086,"109 SUMMER HILL LANE","SAINT DAVIDS","PA",19087,40.030275573,-75.3970571199999,86,"109 SUMMER HILL LANE, SAINT DAVIDS, PA, 19087","Match","Exact","109 SUMMER HILL LN, SAINT DAVIDS, PA, 19087",134901600,"L"
18087,"109 SUMMIT AVE","LAUREL SPRINGS","NJ",8021,39.821349727,-74.9970221839999,87,"109 SUMMIT AVE, LAUREL SPRINGS, NJ, 8021","Match","Exact","109 SUMMIT AVE, LAUREL SPGS, NJ, 08021",134361022,"L"
18088,"109 SUNNYSIDE AVE","WAYNESBORO","PA",17268,39.7514392,-77.566189418,88,"109 SUNNYSIDE AVE, WAYNESBORO, PA, 17268","Match","Exact","109 SUNNYSIDE AVE, WAYNESBORO, PA, 17268",60090213,"R"
18089,"109 SUNRISE FALLS","CIBOLO","TX",78108,29.599096714,-98.254996935,89,"109 SUNRISE FALLS, CIBOLO, TX, 78108","Match","Exact","109 SUNRISE FALLS, CIBOLO, TX, 78108",234718256,"R"
18090,"109 SW 14TH AVE","DELRAY BEACH","FL",33444,26.459531639,-80.087400872,90,"109 SW 14TH AVE, DELRAY BEACH, FL, 33444","Match","Exact","109 SW 14TH AVE, DELRAY BEACH, FL, 33444",640587301,"L"
18091,"109 SW BIRCH ST","DUNDEE","OR",97115,45.2840302610001,-123.011210943,91,"109 SW BIRCH ST, DUNDEE, OR, 97115","Match","Exact","109 SW BIRCH ST, DUNDEE, OR, 97115",156513489,"R"
18092,"109 SW MAIN STREET BOX 554","MELCHER DALLAS","IA",50163,41.2235336910001,-93.241834615,92,"109 SW MAIN STREET BOX 554, MELCHER DALLAS, IA, 50163","Match","Non_Exact","109 S MAIN ST, MELCHER DALLAS, IA, 50163",89480046,"R"
18093,"109 SWEETBRIAR AVE","HAMILTON","NJ",8619,40.250731402,-74.7113252189999,93,"109 SWEETBRIAR AVE, HAMILTON, NJ, 8619","Match","Exact","109 SWEETBRIAR AVE, HAMILTON, NJ, 08619",651733618,"R"
18094,"109 SYCAMORE CT","NISKAYUNA","NY",12309,42.7700974270001,-73.860933573,94,"109 SYCAMORE CT, NISKAYUNA, NY, 12309","Match","Exact","109 SYCAMORE CT, NISKAYUNA, NY, 12309",18035110,"L"
18095,"109 TALBOT ST","OCEAN CITY","MD",21842,38.330649083,-75.0873372679999,95,"109 TALBOT ST, OCEAN CITY, MD, 21842","Match","Exact","109 TALBOT ST, OCEAN CITY, MD, 21842",114515657,"L"
18096,"109 TALL GRASS CT","ROCKVILLE","MD",20850,39.082086157,-77.166627434,96,"109 TALL GRASS CT, ROCKVILLE, MD, 20850","Match","Exact","109 TALL GRASS CT, ROCKVILLE, MD, 20850",62119647,"R"
18097,"109 TALL PINE CIRCLE","SALISBURY","NC",28147,35.7052403920001,-80.531707172,97,"109 TALL PINE CIRCLE, SALISBURY, NC, 28147","Match","Exact","109 TALL PINE CIR, SALISBURY, NC, 28147",25267003,"L"
18098,"109 TARKINGTON CT","MORRISVILLE","NC",27560,35.819300281,-78.81308767,98,"109 TARKINGTON CT, MORRISVILLE, NC, 27560","Match","Exact","109 TARKINGTON CT, MORRISVILLE, NC, 27560",72641480,"L"
18099,"109 TERRENE ROAD PO BOX 49","ROSEDALE","MS",38769,33.8692764130001,-91.030210729,99,"109 TERRENE ROAD PO BOX 49, ROSEDALE, MS, 38769","Match","Exact","109 TERRENE RD, ROSEDALE, MS, 38769",851319,"R"
18100,"109 TERROZA COURT","ROSEVILLE","CA",95747,38.802775383,-121.345523082,100,"109 TERROZA COURT, ROSEVILLE, CA, 95747","Match","Non_Exact","109 TERRAZO CT, ROSEVILLE, CA, 95747",106818672,"L"
18101,"109 THEATER DR","CELINA","TN",38551,NA,NA,101,"109 THEATER DR, CELINA, TN, 38551","No_Match",NA,NA,NA,NA
18102,"109 THOMAS DR","CHARLOTTESVILLE","VA",22903,38.026157058,-78.506716486,102,"109 THOMAS DR, CHARLOTTESVILLE, VA, 22903","Match","Exact","109 THOMAS DR, CHARLOTTESVILLE, VA, 22903",83369271,"L"
18103,"109 THORN THICKET CT","ROCKMART","GA",30153,33.898671646,-85.016671021,103,"109 THORN THICKET CT, ROCKMART, GA, 30153","Match","Exact","109 THORN THICKET CT, ROCKMART, GA, 30153",618937475,"L"
18104,"109 TILTING ROCK DRIVE","HOPKINS","SC",29061,33.9862289380001,-80.8462897639999,104,"109 TILTING ROCK DRIVE, HOPKINS, SC, 29061","Match","Exact","109 TILTING ROCK DR, HOPKINS, SC, 29061",71853076,"L"
18105,"109 TIMBERBROOK LANE","GAITHERSBURG","MD",20878,39.1179960150001,-77.217656583,105,"109 TIMBERBROOK LANE, GAITHERSBURG, MD, 20878","Match","Exact","109 TIMBERBROOK LN, GAITHERSBURG, MD, 20878",601270253,"R"
18106,"109 TIMBERLAND DRIVE","RIPLEY","WV",25271,38.816734883,-81.6911392229999,106,"109 TIMBERLAND DRIVE, RIPLEY, WV, 25271","Match","Exact","109 TIMBERLAND DR, RIPLEY, WV, 25271",130477042,"R"
18107,"109 TORRINGOTN ROAD","GOSHEN","CT",6756,41.835820036,-73.216790007,107,"109 TORRINGOTN ROAD, GOSHEN, CT, 6756","Match","Non_Exact","109 TORRINGTON RD, GOSHEN, CT, 06756",3129150,"L"
18108,"109 TREEHAVEN STREET","GAITHERSBURG","MD",20878,39.1207594520001,-77.242994099,108,"109 TREEHAVEN STREET, GAITHERSBURG, MD, 20878","Match","Exact","109 TREEHAVEN ST, GAITHERSBURG, MD, 20878",62092787,"L"
18109,"109 TRINITY LANE","DUSON","LA",70529,30.1769117970001,-92.141687949,109,"109 TRINITY LANE, DUSON, LA, 70529","Match","Exact","109 TRINITY LN, DUSON, LA, 70529",650951657,"L"
18110,"109 TRIPLE CROWN ROAD","MONCKS CORNER","SC",29461,33.0799773100001,-80.016670375,110,"109 TRIPLE CROWN ROAD, MONCKS CORNER, SC, 29461","Match","Exact","109 TRIPLE CROWN RD, MONCKS CORNER, SC, 29461",645292173,"L"
18111,"109 TUDOR AVE APT A","NEW ORLEANS","LA",70123,29.96543387,-90.2261258199999,111,"109 TUDOR AVE APT A, NEW ORLEANS, LA, 70123","Match","Exact","109 TUDOR AVE, NEW ORLEANS, LA, 70123",93496277,"R"
18112,"109 TUDOR ST","BOSTON","MA",2127,42.3357739830001,-71.05231151,112,"109 TUDOR ST, BOSTON, MA, 2127","Match","Exact","109 TUDOR ST, BOSTON, MA, 02127",85712275,"R"
18113,"109 TULANE AVE","INDEPENDENCE","LA",70443,30.6336497930001,-90.504610091,113,"109 TULANE AVE, INDEPENDENCE, LA, 70443","Match","Exact","109 TULANE AVE, INDEPENDENCE, LA, 70443",75747401,"L"
18114,"109 TUPELO AVENUE","NAPERVILLE","IL",60540,41.7490275710001,-88.135758815,114,"109 TUPELO AVENUE, NAPERVILLE, IL, 60540","Match","Exact","109 TUPELO AVE, NAPERVILLE, IL, 60540",112537145,"R"
18115,"109 UNCAS STREET","WARWICK","RI",2889,41.6881186040001,-71.397364463,115,"109 UNCAS STREET, WARWICK, RI, 2889","Match","Exact","109 UNCAS ST, WARWICK, RI, 02889",159150671,"R"
18116,"109 VENTURA BLVD","SAVANNAH","GA",31419,31.986934283,-81.1416760289999,116,"109 VENTURA BLVD, SAVANNAH, GA, 31419","Match","Exact","109 VENTURA BLVD, SAVANNAH, GA, 31419",6173633,"L"
18117,"109 VIA EL CHICO","REDONDO BEACH","CA",90277,33.811621465,-118.378474367,117,"109 VIA EL CHICO, REDONDO BEACH, CA, 90277","Match","Exact","109 VIA EL CHICO, REDONDO BEACH, CA, 90277",141584574,"R"
18118,"109 VIA VALVERDE","CATHEDRAL CITY","CA",92234,33.786558895,-116.452471781,118,"109 VIA VALVERDE, CATHEDRAL CITY, CA, 92234","Match","Exact","109 VIA VALVERDE, CATHEDRAL CITY, CA, 92234",194767703,"L"
18119,"109 VIA VERDE WAY","PALM BEACH GARDENS","FL",33418,26.843190717,-80.1557391969999,119,"109 VIA VERDE WAY, PALM BEACH GARDENS, FL, 33418","Match","Exact","109 VIA VERDE WAY, PALM BEACH GARDENS, FL, 33418",624648748,"L"
18120,"109 VINCENNES ROAD","CHARLOTTESVILLE","VA",22911,38.0627677030001,-78.435579896,120,"109 VINCENNES ROAD, CHARLOTTESVILLE, VA, 22911","Match","Exact","109 VINCENNES RD, CHARLOTTESVILLE, VA, 22911",83377413,"R"
18121,"109 VINEYARD AVE E","HIGHLAND","NY",12528,41.7186509050001,-73.9658521009999,121,"109 VINEYARD AVE E, HIGHLAND, NY, 12528","Match","Non_Exact","109 VINEYARD AVE, HIGHLAND, NY, 12528",41880924,"L"
18122,"109 W 17TH ST","CHEYENNE","WY",82001,41.133968139,-104.814900685,122,"109 W 17TH ST, CHEYENNE, WY, 82001","Match","Exact","109 W 17TH ST, CHEYENNE, WY, 82001",160149845,"L"
18123,"109 W 7TH STREET","GEORGETOWN","IL",61846,39.981103626,-87.636759613,123,"109 W 7TH STREET, GEORGETOWN, IL, 61846","Match","Exact","109 W 7TH ST, GEORGETOWN, IL, 61846",65987395,"R"
18124,"109 W AUSTIN AVE","SEADRIFT","TX",77983,28.416191887,-96.710434312,124,"109 W AUSTIN AVE, SEADRIFT, TX, 77983","Match","Non_Exact","109 W AUSTIN ST, SEADRIFT, TX, 77983",79232931,"L"
18125,"109 W EDGEWATER ST","CAMBRIA","WI",53923,43.5432044730001,-89.108489962,125,"109 W EDGEWATER ST, CAMBRIA, WI, 53923","Match","Exact","109 W EDGEWATER ST, CAMBRIA, WI, 53923",73331525,"L"
18126,"109 W ELLS AVE","CHAMPAIGN","IL",61820,40.1041496810001,-88.24375924,126,"109 W ELLS AVE, CHAMPAIGN, IL, 61820","Match","Exact","109 W ELLS AVE, CHAMPAIGN, IL, 61820",8810892,"L"
18127,"109 W FORTUNE STREET","TAMPA","FL",33602,27.95242332,-82.46357706,127,"109 W FORTUNE STREET, TAMPA, FL, 33602","Match","Exact","109 W FORTUNE ST, TAMPA, FL, 33602",104529930,"R"
18128,"109 W HIGHAM ST","ST JOHNS","MI",48879,43.0034444400001,-84.558643395,128,"109 W HIGHAM ST, ST JOHNS, MI, 48879","Match","Exact","109 W HIGHAM ST, SAINT JOHNS, MI, 48879",17294672,"L"
18129,"109 W HONEYSUCKLE AVE 2811","HAYDEN","ID",83835,NA,NA,129,"109 W HONEYSUCKLE AVE 2811, HAYDEN, ID, 83835","Tie",NA,NA,NA,NA
18130,"109 W HONEYSUCKLE AVE UNIT 2784","HAYDEN","MI",83835,NA,NA,130,"109 W HONEYSUCKLE AVE UNIT 2784, HAYDEN, MI, 83835","No_Match",NA,NA,NA,NA
18131,"109 W LIBERTY STREET","WAUCONDA","IL",60084,42.2587134680001,-88.139613238,131,"109 W LIBERTY STREET, WAUCONDA, IL, 60084","Match","Exact","109 W LIBERTY ST, WAUCONDA, IL, 60084",119633056,"L"
18132,"109 W MAHONEY ST","WINSLOW","AZ",86047,35.032601562,-110.693261394,132,"109 W MAHONEY ST, WINSLOW, AZ, 86047","Match","Exact","109 W MAHONEY ST, WINSLOW, AZ, 86047",172491265,"L"
18133,"109 W MAIN AVE","RITZVILLE","WA",99169,47.127421192,-118.380103293,133,"109 W MAIN AVE, RITZVILLE, WA, 99169","Match","Exact","109 W MAIN AVE, RITZVILLE, WA, 99169",181840538,"R"
18134,"109 W MARKET ST","WARSAW","IN",46580,NA,NA,134,"109 W MARKET ST, WARSAW, IN, 46580","Tie",NA,NA,NA,NA
18135,"109 W NEWTOWN PLACE","NEWARK","DE",19702,39.644332322,-75.6819161449999,135,"109 W NEWTOWN PLACE, NEWARK, DE, 19702","Match","Non_Exact","109 NEWTOWN PL W, NEWARK, DE, 19702",187287459,"L"
18136,"109 W PINCKNEY ST","ABBEVILLE","SC",29620,34.1790328110001,-82.380674508,136,"109 W PINCKNEY ST, ABBEVILLE, SC, 29620","Match","Exact","109 W PINCKNEY ST, ABBEVILLE, SC, 29620",38258029,"R"
18137,"109 W SAN MATEO RD","SANTA FE","NM",87505,35.663341771,-105.943757827,137,"109 W SAN MATEO RD, SANTA FE, NM, 87505","Match","Exact","109 W SAN MATEO RD, SANTA FE, NM, 87505",169378989,"R"
18138,"109 W SOUTH PARK ST","THAWVILLE","IL",60968,40.6713834190001,-88.1144909389999,138,"109 W SOUTH PARK ST, THAWVILLE, IL, 60968","Match","Exact","109 W SOUTH PARK ST, THAWVILLE, IL, 60968",90766549,"R"
18139,"109 W SPENCER ST","PHILADELPHIA","PA",19120,40.0431224490001,-75.1213123369999,139,"109 W SPENCER ST, PHILADELPHIA, PA, 19120","Match","Exact","109 W SPENCER ST, PHILADELPHIA, PA, 19120",131414497,"R"
18140,"109 W TYLER ST","GILMER","TX",75644,32.7287508360001,-94.9449832129999,140,"109 W TYLER ST, GILMER, TX, 75644","Match","Exact","109 W TYLER ST, GILMER, TX, 75644",147587510,"L"
18141,"109 W WALNUT ST","LOCKHART","TX",78644,29.885577217,-97.67275685,141,"109 W WALNUT ST, LOCKHART, TX, 78644","Match","Exact","109 W WALNUT ST, LOCKHART, TX, 78644",45530958,"L"
18142,"109 W WASHINGTON ST PO BOX 30","WAYNETOWN","IN",47990,NA,NA,142,"109 W WASHINGTON ST PO BOX 30, WAYNETOWN, IN, 47990","Tie",NA,NA,NA,NA
18143,"109 WALKER ROAD","FARMINGTON","MO",63640,37.77713477,-90.447430863,143,"109 WALKER ROAD, FARMINGTON, MO, 63640","Match","Non_Exact","109 WALKER DR, FARMINGTON, MO, 63640",638200689,"R"
18144,"109 WALNUT AVE","ARDMORE","PA",19003,40.005503306,-75.293007844,144,"109 WALNUT AVE, ARDMORE, PA, 19003","Match","Exact","109 WALNUT AVE, ARDMORE, PA, 19003",135087145,"L"
18145,"109 WARBONNET TRAIL","DEL RIO","TX",78840,29.405763522,-100.922592255,145,"109 WARBONNET TRAIL, DEL RIO, TX, 78840","Match","Exact","109 WARBONNET TRL, DEL RIO, TX, 78840",173583390,"L"
18146,"109 WEST BROAD STREET","HAZLETON","PA",18201,40.95452987,-75.9758861559999,146,"109 WEST BROAD STREET, HAZLETON, PA, 18201","Match","Exact","109 W BROAD ST, HAZLETON, PA, 18201",638526490,"R"
18147,"109 WEST COURT STREET","WOODSTOCK","VA",22664,38.8820620590001,-78.505717967,147,"109 WEST COURT STREET, WOODSTOCK, VA, 22664","Match","Exact","109 W COURT ST, WOODSTOCK, VA, 22664",638873792,"L"
18148,"109 WEST EDGERTON STREET","HICKSVILLE","OH",43526,41.2918531820001,-84.761518354,148,"109 WEST EDGERTON STREET, HICKSVILLE, OH, 43526","Match","Exact","109 W EDGERTON ST, HICKSVILLE, OH, 43526",207558164,"R"
18149,"109 WEST END AVE","NEWARK","NJ",7106,40.7416315620001,-74.224204769,149,"109 WEST END AVE, NEWARK, NJ, 7106","Match","Exact","109 W END AVE, NEWARK, NJ, 07106",63464283,"R"
18150,"109 WEST FRONT STREET","BLOOMINGTON","IL",61701,40.4787092560001,-88.9937622209999,150,"109 WEST FRONT STREET, BLOOMINGTON, IL, 61701","Match","Exact","109 W FRONT ST, BLOOMINGTON, IL, 61701",20545787,"R"
18151,"109 WEST GREENBROOK ROAD","N. CALDWELL","NJ",7006,40.8691360550001,-74.2671565109999,151,"109 WEST GREENBROOK ROAD, N. CALDWELL, NJ, 7006","Match","Exact","109 W GREENBROOK RD, N CALDWELL, NJ, 07006",63456970,"R"
18152,"109 WEST HIGHLAND AVE","BARNESVILLE","OH",43713,39.9946814130001,-81.191262749,152,"109 WEST HIGHLAND AVE, BARNESVILLE, OH, 43713","Match","Exact","109 W HIGHLAND AVE, BARNESVILLE, OH, 43713",36265613,"L"
18153,"109 WEST MAIN AVE","RITZVILLE","WA",99169,47.127430856,-118.380090824,153,"109 WEST MAIN AVE, RITZVILLE, WA, 99169","Match","Exact","109 W MAIN AVE, RITZVILLE, WA, 99169",181840538,"R"
18154,"109 WEST MALL DRIVE","CORSICANA","TX",75110,32.100272395,-96.468302696,154,"109 WEST MALL DRIVE, CORSICANA, TX, 75110","Match","Exact","109 W MALL DR, CORSICANA, TX, 75110",183883033,"R"
18155,"109 WEST MELROSE AVE","BALTIMORE","MD",21210,39.3652820630001,-76.629689089,155,"109 WEST MELROSE AVE, BALTIMORE, MD, 21210","Match","Exact","109 W MELROSE AVE, BALTIMORE, MD, 21210",206447368,"L"
18156,"109 WEST WOODLAWN RANCH ROAD","HOUMA","LA",70363,29.5542259810001,-90.680661188,156,"109 WEST WOODLAWN RANCH ROAD, HOUMA, LA, 70363","Match","Exact","109 W WOODLAWN RANCH RD, HOUMA, LA, 70363",92052886,"R"
18157,"109 WESTFIELD DRIVE","CRANSTON","RI",2920,41.7898491500001,-71.496115792,157,"109 WESTFIELD DRIVE, CRANSTON, RI, 2920","Match","Exact","109 WESTFIELD DR, CRANSTON, RI, 02920",47451954,"R"
18158,"109 WESTMINSTER DR","GREENVILLE","OH",45331,40.12341689,-84.631914486,158,"109 WESTMINSTER DR, GREENVILLE, OH, 45331","Match","Exact","109 WESTMINSTER DR, GREENVILLE, OH, 45331",54545811,"R"
18159,"109 WHIMSICAL COURT","LOCUST GROVE","GA",30248,33.3417655850001,-84.116073683,159,"109 WHIMSICAL COURT, LOCUST GROVE, GA, 30248","Match","Exact","109 WHIMSICAL CT, LOCUST GROVE, GA, 30248",629251016,"L"
18160,"109 WHITE HALL AVE 14","WHITE HALL","AR",71602,34.2712911080001,-92.091318958,160,"109 WHITE HALL AVE 14, WHITE HALL, AR, 71602","Match","Exact","109 WHITE HALL AVE, WHITE HALL, AR, 71602",2547398,"L"
18161,"109 WHITE HALL AVENUE APARTMENT 14","WHITE HALL","AR",71602,34.2712911080001,-92.091318958,161,"109 WHITE HALL AVENUE APARTMENT 14, WHITE HALL, AR, 71602","Match","Exact","109 WHITE HALL AVE, WHITE HALL, AR, 71602",2547398,"L"
18162,"109 WHITE OAK DR","MICHIGAN CITY","IN",46360,41.70192544,-86.866321345,162,"109 WHITE OAK DR, MICHIGAN CITY, IN, 46360","Match","Exact","109 WHITE OAK DR, MICHIGAN CITY, IN, 46360",15412922,"R"
18163,"109 WHITE OAK DRIVE","YOUNGSVILLE","NC",27596,36.062134234,-78.511952099,163,"109 WHITE OAK DRIVE, YOUNGSVILLE, NC, 27596","Match","Exact","109 WHITE OAK DR, YOUNGSVILLE, NC, 27596",642889068,"L"
18164,"109 WILSHIRE DR","CRANFORD","NJ",7016,40.6430231590001,-74.30780105,164,"109 WILSHIRE DR, CRANFORD, NJ, 7016","Match","Exact","109 WILSHIRE DR, CRANFORD, NJ, 07016",60604554,"L"
18165,"109 WILSON AVE","MORGANTOWN","WV",26501,39.6237642470001,-79.95673649,165,"109 WILSON AVE, MORGANTOWN, WV, 26501","Match","Exact","109 WILSON AVE, MORGANTOWN, WV, 26501",50746380,"R"
18166,"109 WINDHAM RD","NORFOLK","VA",23505,36.896039004,-76.2789294519999,166,"109 WINDHAM RD, NORFOLK, VA, 23505","Match","Exact","109 WINDHAM RD, NORFOLK, VA, 23505",122133616,"R"
18167,"109 WINONA WAY","WALHALLA","SC",29691,34.736757121,-83.048197352,167,"109 WINONA WAY, WALHALLA, SC, 29691","Match","Exact","109 WINONA WAY, WALHALLA, SC, 29691",25665795,"L"
18168,"109 WINTERSAGE CT","HOLLY SPRINGS","NC",27540,35.6334554100001,-78.856873048,168,"109 WINTERSAGE CT, HOLLY SPRINGS, NC, 27540","Match","Exact","109 WINTERSAGE CT, HOLLY SPRINGS, NC, 27540",208377377,"R"
18169,"109 WISE ROAD","GREENSBORO","PA",15338,NA,NA,169,"109 WISE ROAD, GREENSBORO, PA, 15338","No_Match",NA,NA,NA,NA
18170,"109 WOODHALL DRIVE","HENRICO","VA",23229,37.578014512,-77.576408161,170,"109 WOODHALL DRIVE, HENRICO, VA, 23229","Match","Exact","109 WOODHALL DR, HENRICO, VA, 23229",106676448,"R"
18171,"109 WOODLAND PLACE CT","SAINT CHARLES","MO",63303,NA,NA,171,"109 WOODLAND PLACE CT, SAINT CHARLES, MO, 63303","No_Match",NA,NA,NA,NA
18172,"109 ZACHARY DR","WILLIAMSBURG","OH",45176,39.0456623530001,-84.027927926,172,"109 ZACHARY DR, WILLIAMSBURG, OH, 45176","Match","Exact","109 ZACHARY DR, WILLIAMSBURG, OH, 45176",618761804,"R"
18173,"109-03 200TH STREET","SAINT ALBANS","NY",11412,40.707197163,-73.75803818,173,"109-03 200TH STREET, SAINT ALBANS, NY, 11412","Match","Exact","109-3 200TH ST, SAINT ALBANS, NY, 11412",59717040,"L"
18174,"109-05 FARMERS BOULEVARD","SAINT ALBANS","NY",11412,40.7038472020001,-73.766747591,174,"109-05 FARMERS BOULEVARD, SAINT ALBANS, NY, 11412","Match","Exact","109-5 FARMERS BLVD, SAINT ALBANS, NY, 11412",59718739,"L"
18175,"109-17  72 RD  6R","FOREST HILLS","NY",11375,40.719151712,-73.8414334729999,175,"109-17  72 RD  6R, FOREST HILLS, NY, 11375","Match","Exact","109-17 72ND RD, FOREST HILLS, NY, 11375",59727358,"R"
18176,"109-19 CENTREVILLE ST APT 2F","OZONE PARK","NY",11417,40.678252193,-73.834513387,176,"109-19 CENTREVILLE ST APT 2F, OZONE PARK, NY, 11417","Match","Exact","109-19 CENTREVILLE ST, OZONE PARK, NY, 11417",59708771,"L"
18177,"109-20 112TH ST","OZONE PARK","NY",11420,40.6801473850001,-73.827841182,177,"109-20 112TH ST, OZONE PARK, NY, 11420","Match","Non_Exact","109 112TH ST, SOUTH OZONE PARK, NY, 11420",59712848,"R"
18178,"109-23 71ST ROAD SUITE5B","FOREST HILLS","NY",11375,40.7212513110001,-73.8425477229999,178,"109-23 71ST ROAD SUITE5B, FOREST HILLS, NY, 11375","Match","Exact","109-23 71ST RD, FOREST HILLS, NY, 11375",59706434,"L"
18179,"109-25 MERRICK BLVD","JAMAICA","NY",11433,40.696941221,-73.7839605889999,179,"109-25 MERRICK BLVD, JAMAICA, NY, 11433","Match","Exact","109-25 MERRICK BLVD, JAMAICA, NY, 11433",59714817,"L"
18180,"109-40 174TH STREET","JAMAICA","NY",11433,40.6981306860001,-73.7805719849999,180,"109-40 174TH STREET, JAMAICA, NY, 11433","Match","Exact","109-40 174TH ST, JAMAICA, NY, 11433",59714806,"R"
18181,"109-41 FRANCIS LEWIS BLVD 2ND FLOOR","QUEENS VILLAGE","NY",11429,40.7079677990001,-73.751476068,181,"109-41 FRANCIS LEWIS BLVD 2ND FLOOR, QUEENS VILLAGE, NY, 11429","Match","Exact","109-41 FRANCIS LEWIS BLVD, QUEENS VILLAGE, NY, 11429",652211840,"L"
18182,"109-5 MASONIC HOME ROAD  P O BOX 77","CHARLTON","MA",1507,42.138324529,-71.9734382939999,182,"109-5 MASONIC HOME ROAD  P O BOX 77, CHARLTON, MA, 1507","Match","Exact","109 MASONIC HOME RD, CHARLTON, MA, 01507",40088432,"R"
18183,"109-56 143RD ST","SOUTH OZONE PARK","NY",11435,40.687182981,-73.8023985629999,183,"109-56 143RD ST, SOUTH OZONE PARK, NY, 11435","Match","Non_Exact","109 143RD ST, JAMAICA, NY, 11435",59714392,"R"
18184,"109-71 195 STREET","QUEENS","VA",11412,NA,NA,184,"109-71 195 STREET, QUEENS, VA, 11412","No_Match",NA,NA,NA,NA
18185,"109-A BIRCH CIRCLE","EGLIN AFB","FL",32542,30.4533754510001,-86.548723485,185,"109-A BIRCH CIRCLE, EGLIN AFB, FL, 32542","Match","Exact","109 BIRCH CIR, EGLIN AFB, FL, 32542",74392520,"L"
18186,"109-A SOUTH CHURCH ST","HUNTERSVILLE","NC",28078,NA,NA,186,"109-A SOUTH CHURCH ST, HUNTERSVILLE, NC, 28078","Tie",NA,NA,NA,NA
18187,"109","GAINESVILLE","FL",32607,NA,NA,187,"109, GAINESVILLE, FL, 32607","No_Match",NA,NA,NA,NA
18188,"109","HUMMELSTOWN","PA",17036,NA,NA,188,"109, HUMMELSTOWN, PA, 17036","No_Match",NA,NA,NA,NA
18189,"109","SIERRA VISTA","AZ",85635,NA,NA,189,"109, SIERRA VISTA, AZ, 85635","No_Match",NA,NA,NA,NA
18190,"1090 AVON ROAD","SCHENECTADY","NY",12308,42.818699693,-73.920546132,190,"1090 AVON ROAD, SCHENECTADY, NY, 12308","Match","Exact","1090 AVON RD, SCHENECTADY, NY, 12308",18029038,"R"
18191,"1090 B STREET NUMBER 113","HAYWARD","CA",94541,37.673867951,-122.081252304,191,"1090 B STREET NUMBER 113, HAYWARD, CA, 94541","Match","Exact","1090 B ST, HAYWARD, CA, 94541",125021198,"L"
18192,"1090 BAYWOOD LANE","HERCULES","CA",94547,38.0189891740001,-122.283024844,192,"1090 BAYWOOD LANE, HERCULES, CA, 94547","Match","Exact","1090 BAYWOOD LN, HERCULES, CA, 94547",653155841,"L"
18193,"1090 BELLEVUE DRIVE","ATLANTA","GA",30306,33.78651347,-84.3522414829999,193,"1090 BELLEVUE DRIVE, ATLANTA, GA, 30306","Match","Non_Exact","1090 BELLEVUE DR NE, ATLANTA, GA, 30306",17357891,"L"
18194,"1090 CLOVER AVE","ODENVILLE","AL",35120,33.662673437,-86.493850024,194,"1090 CLOVER AVE, ODENVILLE, AL, 35120","Match","Exact","1090 CLOVER AVE, ODENVILLE, AL, 35120",650070455,"L"
18195,"1090 DAY ROAD","GILROY","CA",95020,37.0401397050001,-121.605880172,195,"1090 DAY ROAD, GILROY, CA, 95020","Match","Exact","1090 DAY RD, GILROY, CA, 95020",618186738,"L"
18196,"1090 DEAN STREET","SAINT CLOUD","FL",34771,28.2485846070001,-81.254117476,196,"1090 DEAN STREET, SAINT CLOUD, FL, 34771","Match","Exact","1090 DEAN ST, SAINT CLOUD, FL, 34771",176680457,"R"
18197,"1090 FISHERMAN STREET","MIAMI","FL",33054,25.9035119700001,-80.248716869,197,"1090 FISHERMAN STREET, MIAMI, FL, 33054","Match","Non_Exact","1090 FISHERMAN ST, MIAMI GARDENS, FL, 33054",116032245,"R"
18198,"1090 GRACE ST","MANSFIELD","OH",44905,40.770339854,-82.4753634859999,198,"1090 GRACE ST, MANSFIELD, OH, 44905","Match","Exact","1090 GRACE ST, MANSFIELD, OH, 44905",12862870,"R"
18199,"1090 GRANDVIEW DR","ELM GROVE","WI",53122,43.043508264,-88.090636945,199,"1090 GRANDVIEW DR, ELM GROVE, WI, 53122","Match","Exact","1090 GRANDVIEW DR, ELM GROVE, WI, 53122",53817045,"R"
18200,"1090 HWY 28","ANTHONY","NM",88021,31.9289302810001,-106.628901456,200,"1090 HWY 28, ANTHONY, NM, 88021","Match","Non_Exact","1090 S HWY 28, ANTHONY, NM, 88021",635727584,"L"
18201,"1090 ISAM LANE BOX 383","SHERIDAN","TX",77475,NA,NA,201,"1090 ISAM LANE BOX 383, SHERIDAN, TX, 77475","No_Match",NA,NA,NA,NA
18202,"1090 JUPITER PARK DR STE 101","JUPITER","FL",33458,26.9234640870001,-80.145982939,202,"1090 JUPITER PARK DR STE 101, JUPITER, FL, 33458","Match","Exact","1090 JUPITER PARK DR, JUPITER, FL, 33458",115581876,"L"
18203,"1090 LIBERTY ST SE","SALEM","OR",97302,44.930318415,-123.042493735,203,"1090 LIBERTY ST SE, SALEM, OR, 97302","Match","Exact","1090 LIBERTY ST SE, SALEM, OR, 97302",156248025,"L"
18204,"1090 LILAC ARBOR ROAD","DACULA","GA",30019,NA,NA,204,"1090 LILAC ARBOR ROAD, DACULA, GA, 30019","No_Match",NA,NA,NA,NA
18205,"1090 MALLETTE CIRCLE","MAGNOLIA","MS",39652,31.139566299,-90.428076544,205,"1090 MALLETTE CIRCLE, MAGNOLIA, MS, 39652","Match","Exact","1090 MALLETTE CIR, MAGNOLIA, MS, 39652",612513535,"R"
18206,"1090 MERRILL STREET","MENLO PARK","CA",94025,37.4547869310001,-122.182835635,206,"1090 MERRILL STREET, MENLO PARK, CA, 94025","Match","Exact","1090 MERRILL ST, MENLO PARK, CA, 94025",192365127,"R"
18207,"1090 N HEDGEROW DRIVE","ALLENTOWN","PA",18103,NA,NA,207,"1090 N HEDGEROW DRIVE, ALLENTOWN, PA, 18103","Tie",NA,NA,NA,NA
18208,"1090 NW 151 STREET","MIAMI","FL",33169,25.9127026900001,-80.217671475,208,"1090 NW 151 STREET, MIAMI, FL, 33169","Match","Exact","1090 NW 151ST ST, MIAMI, FL, 33169",652510054,"L"
18209,"1090 OCEAN HEIGHTS AVE","EGG HARBOR TWP","NJ",8234,NA,NA,209,"1090 OCEAN HEIGHTS AVE, EGG HARBOR TWP, NJ, 8234","No_Match",NA,NA,NA,NA
18210,"1090 OREGON AVE","BANDON","OR",97411,NA,NA,210,"1090 OREGON AVE, BANDON, OR, 97411","No_Match",NA,NA,NA,NA
18211,"1090 PORTION RD","FARMINGVILLE","NY",11738,NA,NA,211,"1090 PORTION RD, FARMINGVILLE, NY, 11738","No_Match",NA,NA,NA,NA
18212,"1090 RAVINE DR","YOUNGSTOWN","OH",44505,41.1467521380001,-80.6414745289999,212,"1090 RAVINE DR, YOUNGSTOWN, OH, 44505","Match","Exact","1090 RAVINE DR, YOUNGSTOWN, OH, 44505",117413122,"L"
18213,"1090 S CENTRAL PKWY","MOUNTAIN HOUSE","CA",95391,37.7646619390001,-121.547235653,213,"1090 S CENTRAL PKWY, MOUNTAIN HOUSE, CA, 95391","Match","Exact","1090 S CENTRAL PKWY, MOUNTAIN HOUSE, CA, 95391",645708497,"R"
18214,"1090 S DONAHUE DR","AUBURN","AL",36849,NA,NA,214,"1090 S DONAHUE DR, AUBURN, AL, 36849","No_Match",NA,NA,NA,NA
18215,"1090 SANDRA DRIVE","FENTON","MO",63026,38.4627352590001,-90.450185146,215,"1090 SANDRA DRIVE, FENTON, MO, 63026","Match","Exact","1090 SANDRA DR, FENTON, MO, 63026",62780800,"R"
18216,"1090 SURREY DRIVE","BONITA","CA",91902,32.6540900040001,-117.022036672,216,"1090 SURREY DRIVE, BONITA, CA, 91902","Match","Exact","1090 SURREY DR, BONITA, CA, 91902",195363650,"R"
18217,"1090 SW HARPER RD","PORT ORCHARD","WA",98367,47.5004514710001,-122.664857629,217,"1090 SW HARPER RD, PORT ORCHARD, WA, 98367","Match","Exact","1090 SW HARPER RD, PORT ORCHARD, WA, 98367",187665583,"R"
18218,"1090 TEXAN TRAIL STE 514","GRAPEVINE","TX",76051,NA,NA,218,"1090 TEXAN TRAIL STE 514, GRAPEVINE, TX, 76051","No_Match",NA,NA,NA,NA
18219,"1090 VERMONT AVE NW STE 910","WASHINGTON","DC",20005,38.9035633550001,-77.0331842419999,219,"1090 VERMONT AVE NW STE 910, WASHINGTON, DC, 20005","Match","Exact","1090 VERMONT AVE NW, WASHINGTON, DC, 20005",76225764,"L"
18220,"1090 VERMONT AVE NW","WASHINGTON","DC",20005,38.9035633550001,-77.0331842419999,220,"1090 VERMONT AVE NW, WASHINGTON, DC, 20005","Match","Exact","1090 VERMONT AVE NW, WASHINGTON, DC, 20005",76225764,"L"
18221,"1090 VERMONT AVENUE NW SUITE 910","WASHINGTON","DC",20005,38.9035633550001,-77.0331842419999,221,"1090 VERMONT AVENUE NW SUITE 910, WASHINGTON, DC, 20005","Match","Exact","1090 VERMONT AVE NW, WASHINGTON, DC, 20005",76225764,"L"
18222,"1090 VERMONT AVENUE NW","WASHINGTON","DC",20005,38.9035633550001,-77.0331842419999,222,"1090 VERMONT AVENUE NW, WASHINGTON, DC, 20005","Match","Exact","1090 VERMONT AVE NW, WASHINGTON, DC, 20005",76225764,"L"
18223,"1090 VILLITA LOOP","LAS CRUCES","NM",88005,32.3551771640001,-106.816636093,223,"1090 VILLITA LOOP, LAS CRUCES, NM, 88005","Match","Non_Exact","1090 VILLITA LOOP, LAS CRUCES, NM, 88007",189553728,"R"
18224,"1090 W MAIN ST","TROY","PA",16947,41.786148021,-76.789151496,224,"1090 W MAIN ST, TROY, PA, 16947","Match","Exact","1090 W MAIN ST, TROY, PA, 16947",176959176,"L"
18225,"1090 WALTONS PASS","EVANS","GA",30809,33.5797574810001,-82.159330869,225,"1090 WALTONS PASS, EVANS, GA, 30809","Match","Exact","1090 WALTONS PASS, EVANS, GA, 30809",55379379,"L"
18226,"1090 WEST MAIN STREET","MOUNT JOY","PA",17552,40.1166484010001,-76.53133745,226,"1090 WEST MAIN STREET, MOUNT JOY, PA, 17552","Match","Exact","1090 W MAIN ST, MOUNT JOY, PA, 17552",179652032,"R"
18227,"1090 WEST MICHIGAN AVENUE","PENSACOLA","FL",32505,30.4613115970001,-87.270071542,227,"1090 WEST MICHIGAN AVENUE, PENSACOLA, FL, 32505","Match","Exact","1090 W MICHIGAN AVE, PENSACOLA, FL, 32505",93214172,"R"
18228,"1090 WEST SUMNER STREET","HARTFORD","WI",53027,43.317835695,-88.388770426,228,"1090 WEST SUMNER STREET, HARTFORD, WI, 53027","Match","Exact","1090 W SUMNER ST, HARTFORD, WI, 53027",79556097,"L"
18229,"1090 WORTHINGTON HILLS DRIVE","ROSWELL","GA",30076,34.032396325,-84.328643503,229,"1090 WORTHINGTON HILLS DRIVE, ROSWELL, GA, 30076","Match","Exact","1090 WORTHINGTON HILLS DR, ROSWELL, GA, 30076",17352481,"L"
18230,"1090","BAREFOOT BAY","FL",32976,NA,NA,230,"1090, BAREFOOT BAY, FL, 32976","No_Match",NA,NA,NA,NA
18231,"10900 183RD ST SUITE 290","CERRITOS","CA",90703,33.86560511,-118.101783199,231,"10900 183RD ST SUITE 290, CERRITOS, CA, 90703","Match","Exact","10900 183RD ST, CERRITOS, CA, 90703",141743385,"R"
18232,"10900 50TH ST","JURUPA VALLEY","CA",91752,33.9963369970001,-117.521700777,232,"10900 50TH ST, JURUPA VALLEY, CA, 91752","Match","Exact","10900 50TH ST, JURUPA VALLEY, CA, 91752",194735015,"L"
18233,"10900 ADLER CT","LARGO","MD",20774,38.877435146,-76.816959219,233,"10900 ADLER CT, LARGO, MD, 20774","Match","Exact","10900 ADLER CT, LARGO, MD, 20774",76332434,"L"
18234,"10900 BASKERVILLE RD","REISTERTOWN","MD",21136,39.456689714,-76.8015510659999,234,"10900 BASKERVILLE RD, REISTERTOWN, MD, 21136","Match","Non_Exact","10900 BASKERVILLE RD, REISTERSTOWN, MD, 21136",191502131,"L"
18235,"10900 DAPPLE GREY LANE","CHARLOTTE","NC",28213,35.2890640110001,-80.704737354,235,"10900 DAPPLE GREY LANE, CHARLOTTE, NC, 28213","Match","Exact","10900 DAPPLE GREY LN, CHARLOTTE, NC, 28213",616481101,"R"
18236,"10900 E TAYLOR RD APT 263","GULFPORT","MS",39503,30.4136482710001,-89.021706303,236,"10900 E TAYLOR RD APT 263, GULFPORT, MS, 39503","Match","Non_Exact","10900 E TAYLOR RD, GULFPORT, MS, 39503",641221104,"R"
18237,"10900 ELECTRON DRIVE","LOUISVILLE","KY",40299,38.200947506,-85.556502214,237,"10900 ELECTRON DRIVE, LOUISVILLE, KY, 40299","Match","Exact","10900 ELECTRON DR, LOUISVILLE, KY, 40299",96879085,"R"
18238,"10900 EUCLID AVE ROOM 330","CLEVELAND","OH",44106,41.505266094,-81.609740274,238,"10900 EUCLID AVE ROOM 330, CLEVELAND, OH, 44106","Match","Exact","10900 EUCLID AVE, CLEVELAND, OH, 44106",638278074,"L"
18239,"10900 EUCLID AVENUE","CLEVELAND","OH",44106,41.505266094,-81.609740274,239,"10900 EUCLID AVENUE, CLEVELAND, OH, 44106","Match","Exact","10900 EUCLID AVE, CLEVELAND, OH, 44106",638278074,"L"
18240,"10900 HIGHWAY 9 N","BELDEN","MS",38826,34.332678592,-88.870213839,240,"10900 HIGHWAY 9 N, BELDEN, MS, 38826","Match","Exact","10900 HWY 9 N, BELDEN, MS, 38826",618850179,"R"
18241,"10900 MULHALL ST","EL MONTE","CA",91731,34.0893409540001,-118.029232023,241,"10900 MULHALL ST, EL MONTE, CA, 91731","Match","Exact","10900 MULHALL ST, EL MONTE, CA, 91731",142745408,"R"
18242,"10900 NE 4TH STREET SUITE 2260","BELLEVUE","WA",98004,NA,NA,242,"10900 NE 4TH STREET SUITE 2260, BELLEVUE, WA, 98004","Tie",NA,NA,NA,NA
18243,"10900 NORTH US HIGHWAY 27","OCALA","FL",34482,29.2479594060001,-82.292639741,243,"10900 NORTH US HIGHWAY 27, OCALA, FL, 34482","Match","Exact","10900 N US HWY 27, OCALA, FL, 34482",647925001,"L"
18244,"10900 NW 18 COURT","PLANTATION","FL",33322,NA,NA,244,"10900 NW 18 COURT, PLANTATION, FL, 33322","Tie",NA,NA,NA,NA
18245,"10900 NW 19 AVE","MIAMI","FL",33167,25.874034469,-80.2304219379999,245,"10900 NW 19 AVE, MIAMI, FL, 33167","Match","Exact","10900 NW 19TH AVE, MIAMI, FL, 33167",116056194,"L"
18246,"10900 RESEARCH BLDV STE 160C PMB","AUSTIN","TX",78759,NA,NA,246,"10900 RESEARCH BLDV STE 160C PMB, AUSTIN, TX, 78759","No_Match",NA,NA,NA,NA
18247,"10900 RICE FIELD PL","FAIRFAX STATION","VA",22039,38.785591314,-77.3218743639999,247,"10900 RICE FIELD PL, FAIRFAX STATION, VA, 22039","Match","Exact","10900 RICE FIELD PL, FAIRFAX STATION, VA, 22039",76026123,"R"
18248,"10900 STONELAKE BLVD STE A-320","AUSTIN","TX",78759,30.399721669,-97.734469599,248,"10900 STONELAKE BLVD STE A-320, AUSTIN, TX, 78759","Match","Exact","10900 STONELAKE BLVD, AUSTIN, TX, 78759",647948576,"R"
18249,"10900 SUNSET DRIVE","EVANSVILLE","IN",47712,37.960572696,-87.719581695,249,"10900 SUNSET DRIVE, EVANSVILLE, IN, 47712","Match","Exact","10900 SUNSET DR, EVANSVILLE, IN, 47712",39745334,"R"
18250,"10900 SW 124 STREET","MIAMI","FL",33176,25.6541976230001,-80.37263604,250,"10900 SW 124 STREET, MIAMI, FL, 33176","Match","Non_Exact","10900 SW 124TH ST, MIAMI, FL, 33176",115979988,"L"
18251,"10900 SW 127 AVE","MIAMI","FL",33186,25.667470967,-80.40009782,251,"10900 SW 127 AVE, MIAMI, FL, 33186","Match","Non_Exact","10900 SW 127TH AVE, MIAMI, FL, 33186",115967987,"L"
18252,"10900 WAYZATA BLVD SUITE 130","MINNETONKA","MN",55305,NA,NA,252,"10900 WAYZATA BLVD SUITE 130, MINNETONKA, MN, 55305","No_Match",NA,NA,NA,NA
18253,"10900 WEST 44TH AVENUE SUITE 200","WHEAT RIDGE","CO",80033,39.778191457,-105.119643255,253,"10900 WEST 44TH AVENUE SUITE 200, WHEAT RIDGE, CO, 80033","Match","Exact","10900 W 44TH AVE, WHEAT RIDGE, CO, 80033",177286192,"L"
18254,"10900 WESTMINSTER AVE STE 10","GARDEN GROVE","CA",92843,NA,NA,254,"10900 WESTMINSTER AVE STE 10, GARDEN GROVE, CA, 92843","No_Match",NA,NA,NA,NA
18255,"10901 BARN WOOD LANE","POTOMAC","MD",20854,39.033887318,-77.2193325649999,255,"10901 BARN WOOD LANE, POTOMAC, MD, 20854","Match","Exact","10901 BARN WOOD LN, POTOMAC, MD, 20854",638659565,"R"
18256,"10901 BRANTLEY AVE BLDG 1182","HOUSTON","TX",77034,NA,NA,256,"10901 BRANTLEY AVE BLDG 1182, HOUSTON, TX, 77034","No_Match",NA,NA,NA,NA
18257,"10901 BRIGHTON BAY BLVD APT 5309","ST PETERSBURG","FL",33716,27.8716077130001,-82.624805969,257,"10901 BRIGHTON BAY BLVD APT 5309, ST PETERSBURG, FL, 33716","Match","Non_Exact","10901 BRIGHTON BAY BLVD NE, SAINT PETERSBURG, FL, 33716",637317408,"R"
18258,"10901 BURNT MILL RD","JACKSONVILLE","FL",32256,30.2413265600001,-81.52618093,258,"10901 BURNT MILL RD, JACKSONVILLE, FL, 32256","Match","Exact","10901 BURNT MILL RD, JACKSONVILLE, FL, 32256",648228248,"L"
18259,"10901 COUNTY ROAD 5460","ROLLA","MO",65401,37.8022463790001,-91.765905416,259,"10901 COUNTY ROAD 5460, ROLLA, MO, 65401","Match","Exact","10901 CO RD 5460, ROLLA, MO, 65401",45100923,"R"
18260,"10901 DANIEL SIM CT","UPPER MARLBORO","MD",20772,38.815294685,-76.818079182,260,"10901 DANIEL SIM CT, UPPER MARLBORO, MD, 20772","Match","Exact","10901 DANIEL SIM CT, UPPER MARLBORO, MD, 20772",76346895,"R"
18261,"10901 EADES COURT","CHESTERFIELD","VA",23838,37.283277894,-77.572724297,261,"10901 EADES COURT, CHESTERFIELD, VA, 23838","Match","Exact","10901 EADES CT, CHESTERFIELD, VA, 23838",201573335,"L"
18262,"10901 ELINDA PLACE","SUN VALLEY","CA",91352,34.2460441220001,-118.369819388,262,"10901 ELINDA PLACE, SUN VALLEY, CA, 91352","Match","Exact","10901 ELINDA PL, SUN VALLEY, CA, 91352",141586401,"R"
18263,"10901 ENCHANTED ROCK COVE","AUSTIN","TX",78726,30.4401739150001,-97.819022516,263,"10901 ENCHANTED ROCK COVE, AUSTIN, TX, 78726","Match","Exact","10901 ENCHANTED ROCK COVE, AUSTIN, TX, 78726",620795107,"L"
18264,"10901 FAUST ROAD","TRENTON","IL",62293,NA,NA,264,"10901 FAUST ROAD, TRENTON, IL, 62293","No_Match",NA,NA,NA,NA
18265,"10901 GASSON DR","NORTH HUNTINGDON","PA",15642,40.3057756260001,-79.749213879,265,"10901 GASSON DR, NORTH HUNTINGDON, PA, 15642","Match","Exact","10901 GASSON DR, N HUNTINGDON, PA, 15642",648081746,"R"
18266,"10901 MAGNOLIA AVENUE UNIT 9","ANAHEIM","CA",92804,NA,NA,266,"10901 MAGNOLIA AVENUE UNIT 9, ANAHEIM, CA, 92804","No_Match",NA,NA,NA,NA
18267,"10901 MAYFIELD DRIVE","CORPUS CHRISTI","TX",78410,27.8404724870001,-97.585700625,267,"10901 MAYFIELD DRIVE, CORPUS CHRISTI, TX, 78410","Match","Exact","10901 MAYFIELD DR, CORPUS CHRISTI, TX, 78410",178511571,"L"
18268,"10901 MEADOWGLEN LN 250","HOUSTON","TX",77042,29.732862206,-95.5686696669999,268,"10901 MEADOWGLEN LN 250, HOUSTON, TX, 77042","Match","Exact","10901 MEADOWGLEN LN, HOUSTON, TX, 77042",96619260,"R"
18269,"10901 MIST LANE APT 5109","HOUSTON","TX",77070,29.959259611,-95.584030897,269,"10901 MIST LANE APT 5109, HOUSTON, TX, 77070","Match","Exact","10901 MIST LN, HOUSTON, TX, 77070",644953383,"L"
18270,"10901 MIST LANE APT 8105","HOUSTON","TX",77070,29.959259611,-95.584030897,270,"10901 MIST LANE APT 8105, HOUSTON, TX, 77070","Match","Exact","10901 MIST LN, HOUSTON, TX, 77070",644953383,"L"
18271,"10901 N TORREY PINES RD","LA JOLLA","CA",92037,NA,NA,271,"10901 N TORREY PINES RD, LA JOLLA, CA, 92037","No_Match",NA,NA,NA,NA
18272,"10901 RANCHSTONE DRIVE  SUITE 106","HOUSTON","TX",77064,29.91275288,-95.580747747,272,"10901 RANCHSTONE DRIVE  SUITE 106, HOUSTON, TX, 77064","Match","Exact","10901 RANCHSTONE DR, HOUSTON, TX, 77064",642107261,"L"
18273,"10901 RHODE ISLAND AVE PO BOX 281","BELTSVILLE","MD",20704,39.0332914730001,-76.913590029,273,"10901 RHODE ISLAND AVE PO BOX 281, BELTSVILLE, MD, 20704","Match","Non_Exact","10901 RHODE ISLAND AVE, BELTSVILLE, MD, 20705",76374217,"R"
18274,"10901 SW 24TH STREET","MIAMI","FL",33165,25.7466766630001,-80.369576223,274,"10901 SW 24TH STREET, MIAMI, FL, 33165","Match","Exact","10901 SW 24TH ST, MIAMI, FL, 33165",115971575,"R"
18275,"10901 WILSON BLVD","BLYTHEWOOD","SC",29016,34.208133467,-80.974545383,275,"10901 WILSON BLVD, BLYTHEWOOD, SC, 29016","Match","Exact","10901 WILSON BLVD, BLYTHEWOOD, SC, 29016",71873013,"L"
18276,"10902 AUTUMN OAK PLACE","TAMPA","FL",33618,28.047956062,-82.5146240729999,276,"10902 AUTUMN OAK PLACE, TAMPA, FL, 33618","Match","Exact","10902 AUTUMN OAK PL, TAMPA, FL, 33618",104513921,"L"
18277,"10902 KATY FWY UNIT 1311","HOUSTON","TX",77043,29.7851761960001,-95.570326143,277,"10902 KATY FWY UNIT 1311, HOUSTON, TX, 77043","Match","Exact","10902 KATY FWY, HOUSTON, TX, 77043",642474640,"L"
18278,"10902 LAZY MEADOWS","HOUSTON","TX",77064,29.927444151,-95.575364108,278,"10902 LAZY MEADOWS, HOUSTON, TX, 77064","Match","Non_Exact","10902 LAZY MEADOWS DR, HOUSTON, TX, 77064",96006117,"R"
18279,"10902 LEANING ASH LN","HOUSTON","TX",77079,29.779621793,-95.570150386,279,"10902 LEANING ASH LN, HOUSTON, TX, 77079","Match","Exact","10902 LEANING ASH LN, HOUSTON, TX, 77079",96630098,"R"
18280,"10902 MALDEN DRIVE","HOUSTON","TX",77075,29.607465156,-95.250976411,280,"10902 MALDEN DRIVE, HOUSTON, TX, 77075","Match","Exact","10902 MALDEN DR, HOUSTON, TX, 77075",96557933,"L"
18281,"10902 SUGARBUSH TERRACE","ROCKVILLE","MD",20852,39.0360910690001,-77.11370185,281,"10902 SUGARBUSH TERRACE, ROCKVILLE, MD, 20852","Match","Exact","10902 SUGARBUSH TER, ROCKVILLE, MD, 20852",62083832,"R"
18282,"10902 WADE PARK AVENUE","CLEVELAND","OH",44106,41.51587375,-81.610689726,282,"10902 WADE PARK AVENUE, CLEVELAND, OH, 44106","Match","Exact","10902 WADE PARK AVE, CLEVELAND, OH, 44106",61122004,"R"
18283,"10903 BIG SKY TRAIL","ELBERT","CO",80106,39.176252171,-104.69031676,283,"10903 BIG SKY TRAIL, ELBERT, CO, 80106","Match","Exact","10903 BIG SKY TRL, ELBERT, CO, 80106",630123563,"R"
18284,"10903 DRUMM AVENUE","KENSINGTON","MD",20895,39.0341294770001,-77.061473044,284,"10903 DRUMM AVENUE, KENSINGTON, MD, 20895","Match","Exact","10903 DRUMM AVE, KENSINGTON, MD, 20895",62062656,"R"
18285,"10903 E ADDY WAY","SCOTTSDALE","AZ",85262,33.8226185720001,-111.844401045,285,"10903 E ADDY WAY, SCOTTSDALE, AZ, 85262","Match","Exact","10903 E ADDY WAY, SCOTTSDALE, AZ, 85262",243976553,"R"
18286,"10903 FORESTGATE PLACE","GLENN DALE","MD",20769,39.0008212660001,-76.8174637499999,286,"10903 FORESTGATE PLACE, GLENN DALE, MD, 20769","Match","Exact","10903 FORESTGATE PL, GLENN DALE, MD, 20769",76348789,"R"
18287,"10903 GRAPEVINE LANE","AUSTIN","TX",78759,30.4148164750001,-97.7633356599999,287,"10903 GRAPEVINE LANE, AUSTIN, TX, 78759","Match","Exact","10903 GRAPEVINE LN, AUSTIN, TX, 78759",63926252,"R"
18288,"10903 MORISON","CLEVELAND","OH",44108,41.5295785810001,-81.6108636289999,288,"10903 MORISON, CLEVELAND, OH, 44108","Match","Non_Exact","10903 MORISON AVE, CLEVELAND, OH, 44108",61112473,"L"
18289,"10903 NORTH RD","ABBEVILLE","LA",70510,29.9943647760001,-92.0483178649999,289,"10903 NORTH RD, ABBEVILLE, LA, 70510","Match","Exact","10903 NORTH RD, ABBEVILLE, LA, 70510",647768427,"R"
18290,"10903 NORTHWEST 33RD STREET","DORAL","FL",33172,25.8042150320001,-80.374107965,290,"10903 NORTHWEST 33RD STREET, DORAL, FL, 33172","Match","Exact","10903 NW 33RD ST, DORAL, FL, 33172",647899584,"L"
18291,"10903 S HALE AVE","CHICAGO","IL",60643,41.695435221,-87.669905935,291,"10903 S HALE AVE, CHICAGO, IL, 60643","Match","Exact","10903 S HALE AVE, CHICAGO, IL, 60643",605579327,"L"
18292,"10904 27TH ST SE","LAKE STEVENS","WA",98258,47.97207517,-122.08491756,292,"10904 27TH ST SE, LAKE STEVENS, WA, 98258","Match","Exact","10904 27TH ST SE, LAKE STEVENS, WA, 98258",187799477,"L"
18293,"10904 AZOO STREET","JONES","OK",73049,NA,NA,293,"10904 AZOO STREET, JONES, OK, 73049","No_Match",NA,NA,NA,NA
18294,"10904 BRIDLESPUR DRIVE","LOVELAND","OH",45140,39.2577664090001,-84.283697079,294,"10904 BRIDLESPUR DRIVE, LOVELAND, OH, 45140","Match","Exact","10904 BRIDLESPUR DR, LOVELAND, OH, 45140",103957406,"L"
18295,"10904 LAMPLIGHTER LANE","POTOMAC","MD",20854,39.034745021,-77.1719577169999,295,"10904 LAMPLIGHTER LANE, POTOMAC, MD, 20854","Match","Exact","10904 LAMPLIGHTER LN, POTOMAC, MD, 20854",62096416,"R"
18296,"10904 N 50TH ST","TAMPA","FL",33617,28.047304081,-82.4016673359999,296,"10904 N 50TH ST, TAMPA, FL, 33617","Match","Exact","10904 N 50TH ST, TAMPA, FL, 33617",104532100,"L"
18297,"10904 WHITEPINE DRIVE","NORTH PRINCE GEORGE","VA",23860,37.2938205830001,-77.2117987829999,297,"10904 WHITEPINE DRIVE, NORTH PRINCE GEORGE, VA, 23860","Match","Exact","10904 WHITEPINE DR, NORTH PRINCE GEORGE, VA, 23860",54137218,"R"
18298,"10905 COMPTON AVE","LOS ANGELES","CA",90059,33.936718732,-118.246275303,298,"10905 COMPTON AVE, LOS ANGELES, CA, 90059","Match","Exact","10905 COMPTON AVE, LOS ANGELES, CA, 90059",141674119,"R"
18299,"10905 LYDIA ESTATES DRIVE","JACKSONVILLE","FL",32218,30.43448133,-81.708436363,299,"10905 LYDIA ESTATES DRIVE, JACKSONVILLE, FL, 32218","Match","Exact","10905 LYDIA ESTATES DR, JACKSONVILLE, FL, 32218",83951177,"L"
18300,"10905 SW 84TH CT","MIAMI","FL",33156,25.6688937060001,-80.3319086239999,300,"10905 SW 84TH CT, MIAMI, FL, 33156","Match","Exact","10905 SW 84TH CT, MIAMI, FL, 33156",115984765,"L"
18301,"10906 AMHERST GLEN DRIVE","CHARLOTTE","NC",28213,35.295751357,-80.7090236289999,301,"10906 AMHERST GLEN DRIVE, CHARLOTTE, NC, 28213","Match","Exact","10906 AMHERST GLEN DR, CHARLOTTE, NC, 28213",70547943,"R"
18302,"10906 BITTERNUT HICKORY LANE","BOYNTON BEACH","FL",33437,NA,NA,302,"10906 BITTERNUT HICKORY LANE, BOYNTON BEACH, FL, 33437","No_Match",NA,NA,NA,NA
18303,"10906 FEATHERBROOK RD 1B","CHARLOTTE","NC",28262,35.337593849,-80.7206885639999,303,"10906 FEATHERBROOK RD 1B, CHARLOTTE, NC, 28262","Match","Exact","10906 FEATHERBROOK RD, CHARLOTTE, NC, 28262",70558505,"L"
18304,"10906 FERNDALE ROAD","DALLAS","TX",75238,32.892260068,-96.7143717279999,304,"10906 FERNDALE ROAD, DALLAS, TX, 75238","Match","Exact","10906 FERNDALE RD, DALLAS, TX, 75238",102915209,"R"
18305,"10906 S PERDUE RD","GRAIN VALLEY","MO",64029,38.9196599960001,-94.2356222,305,"10906 S PERDUE RD, GRAIN VALLEY, MO, 64029","Match","Exact","10906 S PERDUE RD, GRAIN VALLEY, MO, 64029",648277193,"R"
18306,"10906 SUN RIDGE ROAD","GOSHEN","KY",40026,38.4167480090001,-85.561777013,306,"10906 SUN RIDGE ROAD, GOSHEN, KY, 40026","Match","Exact","10906 SUN RIDGE RD, GOSHEN, KY, 40026",130921830,"L"
18307,"10907 BEACH MILL ROAD","GREAT FALLS","VA",22066,39.0305652530001,-77.322783675,307,"10907 BEACH MILL ROAD, GREAT FALLS, VA, 22066","Match","Exact","10907 BEACH MILL RD, GREAT FALLS, VA, 22066",215925458,"L"
18308,"10907 FOUR BEARS DRIVE","BAKERSFIELD","CA",93312,35.3683069030001,-119.12315794,308,"10907 FOUR BEARS DRIVE, BAKERSFIELD, CA, 93312","Match","Exact","10907 FOUR BEARS DR, BAKERSFIELD, CA, 93312",109148509,"R"
18309,"10907 JORDAN RAE LANE","CHARLOTTE","NC",28277,35.057785734,-80.826174115,309,"10907 JORDAN RAE LANE, CHARLOTTE, NC, 28277","Match","Exact","10907 JORDAN RAE LN, CHARLOTTE, NC, 28277",70538813,"L"
18310,"10907 TOBAGO ROAD","SAN DIEGO","CA",92126,32.9164947260001,-117.153915933,310,"10907 TOBAGO ROAD, SAN DIEGO, CA, 92126","Match","Exact","10907 TOBAGO RD, SAN DIEGO, CA, 92126",195300909,"R"
18311,"10907 TRAFTON DR","UPPER MARLBORO","MD",20774,38.895873791,-76.814261307,311,"10907 TRAFTON DR, UPPER MARLBORO, MD, 20774","Match","Exact","10907 TRAFTON DR, UPPER MARLBORO, MD, 20774",76319763,"R"
18312,"10907 WATERVIEW CIRCLE","MONTGOMERTY","TX",77356,30.384648085,-95.646761962,312,"10907 WATERVIEW CIRCLE, MONTGOMERTY, TX, 77356","Match","Non_Exact","10907 WATERVIEW, MONTGOMERY, TX, 77356",79266949,"L"
18313,"10908 BACK RIDGE ROAD","CHARLOTTE","NC",28277,35.060218408,-80.8323161599999,313,"10908 BACK RIDGE ROAD, CHARLOTTE, NC, 28277","Match","Exact","10908 BACK RIDGE RD, CHARLOTTE, NC, 28277",70519052,"R"
18314,"10908 CHASTAIN PARC DRIVE","CHAROTTE","NC",28216,35.329835362,-80.934368719,314,"10908 CHASTAIN PARC DRIVE, CHAROTTE, NC, 28216","Match","Non_Exact","10908 CHASTAIN PARC DR, CHARLOTTE, NC, 28216",70546049,"L"
18315,"10908 COURTHOUSE RD SUITE 201 401","FREDERICKSBURG","VA",22407,38.2535812740001,-77.50105388,315,"10908 COURTHOUSE RD SUITE 201 401, FREDERICKSBURG, VA, 22407","Match","Non_Exact","10908 COURTHOUSE RD, FREDERICKSBURG, VA, 22408",85027765,"L"
18316,"10908 DAUPHINE ST","WILLIS","TX",77318,30.396193844,-95.553027333,316,"10908 DAUPHINE ST, WILLIS, TX, 77318","Match","Exact","10908 DAUPHINE ST, WILLIS, TX, 77318",79340239,"R"
18317,"10908 E 75 PL","TULSA","OK",74137,36.0547825370001,-95.8545027659999,317,"10908 E 75 PL, TULSA, OK, 74137","Match","Non_Exact","10908 E 75TH PL, TULSA, OK, 74133",166474917,"L"
18318,"10908 JOYCETON DRIVE","UPPER MARLBORO","MD",20774,38.892800466,-76.81503205,318,"10908 JOYCETON DRIVE, UPPER MARLBORO, MD, 20774","Match","Exact","10908 JOYCETON DR, UPPER MARLBORO, MD, 20774",76319766,"L"
18319,"10908 LAKESIDE DR","ORLAND PARK","IL",60467,41.605103877,-87.8845704509999,319,"10908 LAKESIDE DR, ORLAND PARK, IL, 60467","Match","Exact","10908 LAKESIDE DR, ORLAND PARK, IL, 60467",605782062,"R"
18320,"10908 OASIS CT UNIT 112","SHAWNEE MISSION","KS",66203,39.005653351,-94.713723021,320,"10908 OASIS CT UNIT 112, SHAWNEE MISSION, KS, 66203","Match","Exact","10908 OASIS CT, SHAWNEE, KS, 66203",91274431,"R"
18321,"10908 PRINCETON COMMONS DRIVE","CHARLOTTE","NC",28277,35.0247404310001,-80.836692832,321,"10908 PRINCETON COMMONS DRIVE, CHARLOTTE, NC, 28277","Match","Exact","10908 PRINCETON COMMONS DR, CHARLOTTE, NC, 28277",70549056,"L"
18322,"10909 E RAMONA AVE","MESA","AZ",85212,33.3386141410001,-111.598352709,322,"10909 E RAMONA AVE, MESA, AZ, 85212","Match","Exact","10909 E RAMONA AVE, MESA, AZ, 85212",616712477,"R"
18323,"10909 NW 4TH AVE","VANCOUVER","WA",98685,45.7006418760001,-122.674103518,323,"10909 NW 4TH AVE, VANCOUVER, WA, 98685","Match","Exact","10909 NW 4TH AVE, VANCOUVER, WA, 98685",158365056,"R"
18324,"10909 VANGUARD PKWY","HUNTERSVILLE","NC",28078,35.407348842,-80.823659243,324,"10909 VANGUARD PKWY, HUNTERSVILLE, NC, 28078","Match","Exact","10909 VANGUARD PKWY, HUNTERSVILLE, NC, 28078",648379493,"L"
18325,"1091 AVIATION BLVD","HERMOSA BEACH","CA",90254,33.8645984680001,-118.387785926,325,"1091 AVIATION BLVD, HERMOSA BEACH, CA, 90254","Match","Exact","1091 AVIATION BLVD, HERMOSA BEACH, CA, 90254",141583580,"L"
18326,"1091 BASALT RIDGE LOOP","CASTLE ROCK","CO",80108,39.378169907,-104.811836524,326,"1091 BASALT RIDGE LOOP, CASTLE ROCK, CO, 80108","Match","Exact","1091 BASALT RIDGE LOOP, CASTLE ROCK, CO, 80108",649062131,"R"
18327,"1091 BROOKS INDUSTRIAL ROAD","SHELBYVILLE","KY",40065,38.2095018270001,-85.261993896,327,"1091 BROOKS INDUSTRIAL ROAD, SHELBYVILLE, KY, 40065","Match","Exact","1091 BROOKS INDUSTRIAL RD, SHELBYVILLE, KY, 40065",97074819,"R"
18328,"1091 CALCOT PLACE UNIT 405","OAKLAND","CA",94606,37.780854456,-122.238184061,328,"1091 CALCOT PLACE UNIT 405, OAKLAND, CA, 94606","Match","Exact","1091 CALCOT PL, OAKLAND, CA, 94606",125005867,"L"
18329,"1091 ELAINE RD","COLUMBUS","OH",43227,39.9516315590001,-82.885747362,329,"1091 ELAINE RD, COLUMBUS, OH, 43227","Match","Exact","1091 ELAINE RD, COLUMBUS, OH, 43227",135593180,"R"
18330,"1091 GATES AVENUE","BROOKLYN","NY",11221,40.6904456770001,-73.921138556,330,"1091 GATES AVENUE, BROOKLYN, NY, 11221","Match","Exact","1091 GATES AVE, BROOKLYN, NY, 11221",59082845,"L"
18331,"1091 HILTON PARMA CORNERS RD","HILTON","NY",14468,43.2678062950001,-77.790893345,331,"1091 HILTON PARMA CORNERS RD, HILTON, NY, 14468","Match","Non_Exact","1091 HILTON PARMA RD, HILTON, NY, 14468",14525339,"R"
18332,"1091 ISAAC FRANKLIN DRIVE","GALLATIN","TN",37066,36.344170207,-86.4816949679999,332,"1091 ISAAC FRANKLIN DRIVE, GALLATIN, TN, 37066","Match","Exact","1091 ISAAC FRANKLIN DR, GALLATIN, TN, 37066",634026275,"R"
18333,"1091 MASSACHUSETTS AVENUE","LUNENBURG","MA",1462,42.5967424360001,-71.7178402119999,333,"1091 MASSACHUSETTS AVENUE, LUNENBURG, MA, 1462","Match","Exact","1091 MASSACHUSETTS AVE, LUNENBURG, MA, 01462",40095870,"L"
18334,"1091 MERCURY DRIVE","LAFAYETTE","CO",80026,39.9888668720001,-105.102546515,334,"1091 MERCURY DRIVE, LAFAYETTE, CO, 80026","Match","Exact","1091 MERCURY DR, LAFAYETTE, CO, 80026",220749383,"L"
18335,"1091 OLD HASSAYAMPA LN","PRESCOTT","AZ",86303,34.536448631,-112.491997093,335,"1091 OLD HASSAYAMPA LN, PRESCOTT, AZ, 86303","Match","Exact","1091 OLD HASSAYAMPA LN, PRESCOTT, AZ, 86303",633620597,"R"
18336,"1091 S 1ST STREET","HAMILTON","MT",59840,46.233792055,-114.155238792,336,"1091 S 1ST STREET, HAMILTON, MT, 59840","Match","Exact","1091 S 1ST ST, HAMILTON, MT, 59840",153541505,"L"
18337,"1091 S 9TH AVE","DURANT","OK",74701,NA,NA,337,"1091 S 9TH AVE, DURANT, OK, 74701","No_Match",NA,NA,NA,NA
18338,"1091 SHEDRON WAY","LOMBARD","IL",60148,41.8527150250001,-88.036396081,338,"1091 SHEDRON WAY, LOMBARD, IL, 60148","Match","Exact","1091 SHEDRON WAY, LOMBARD, IL, 60148",112532603,"R"
18339,"1091 SNEAD DRIVE","TROY","MI",48085,42.602668727,-83.1275055199999,339,"1091 SNEAD DRIVE, TROY, MI, 48085","Match","Exact","1091 SNEAD DR, TROY, MI, 48085",69773316,"L"
18340,"1091 STRIEBEL ROAD","COLUMBUS","OH",43227,39.95139299,-82.8878858859999,340,"1091 STRIEBEL ROAD, COLUMBUS, OH, 43227","Match","Exact","1091 STRIEBEL RD, COLUMBUS, OH, 43227",135713115,"R"
18341,"1091 W RIDGE ST/ P O BOX 106","HARPERS FERRY","WV",25425,NA,NA,341,"1091 W RIDGE ST/ P O BOX 106, HARPERS FERRY, WV, 25425","No_Match",NA,NA,NA,NA
18342,"1091 WEST BURDELL ROAD","ROSCOMMON","MI",48653,44.47890549,-84.6351769299999,342,"1091 WEST BURDELL ROAD, ROSCOMMON, MI, 48653","Match","Exact","1091 W BURDELL RD, ROSCOMMON, MI, 48653",624374315,"L"
18343,"1091 WEST WASHINGTON AVE","SUNNYVALE","CA",94086,37.3796262870001,-122.04915687,343,"1091 WEST WASHINGTON AVE, SUNNYVALE, CA, 94086","Match","Exact","1091 W WASHINGTON AVE, SUNNYVALE, CA, 94086",122956431,"R"
18344,"10910 CHANDLER RD","POTOMAC","MD",20854,38.99700083,-77.2257578059999,344,"10910 CHANDLER RD, POTOMAC, MD, 20854","Match","Exact","10910 CHANDLER RD, POTOMAC, MD, 20854",62049555,"L"
18345,"10910 DRY STACK RD","NEW BRAUNFELS","TX",78132,29.6900739280001,-98.2712046189999,345,"10910 DRY STACK RD, NEW BRAUNFELS, TX, 78132","Match","Exact","10910 DRY STACK RD, NEW BRAUNFELS, TX, 78132",641542154,"R"
18346,"10910 LONG BEACH BLVD SUITE 103/479","LYNWOOD","CA",90262,33.9340807560001,-118.212527061,346,"10910 LONG BEACH BLVD SUITE 103/479, LYNWOOD, CA, 90262","Match","Exact","10910 LONG BEACH BLVD, LYNWOOD, CA, 90262",640425668,"L"
18347,"10910 N 1000TH ST","NEWTON","IL",62448,39.008204882,-88.1893355559999,347,"10910 N 1000TH ST, NEWTON, IL, 62448","Match","Exact","10910 N 1000TH ST, NEWTON, IL, 62448",27007932,"R"
18348,"10910 N LUPINE LANE","FLAGSTAFF","AZ",86004,35.2976353970001,-111.559202279,348,"10910 N LUPINE LANE, FLAGSTAFF, AZ, 86004","Match","Exact","10910 N LUPINE LN, FLAGSTAFF, AZ, 86004",189051611,"R"
18349,"10910 S BROADWAY","LOS ANGELES","CA",90061,33.9371526740001,-118.278130377,349,"10910 S BROADWAY, LOS ANGELES, CA, 90061","Match","Exact","10910 S BROADWAY, LOS ANGELES, CA, 90061",141661933,"L"
18350,"10910 S GESSNER RD  711048","HOUSTON","TX",77271,NA,NA,350,"10910 S GESSNER RD  711048, HOUSTON, TX, 77271","No_Match",NA,NA,NA,NA
18351,"10910 SE 238TH ST APT 2G202","KENT","WA",98031,47.389137906,-122.195625522,351,"10910 SE 238TH ST APT 2G202, KENT, WA, 98031","Match","Non_Exact","10910 SE 238TH ST, KENT, WA, 98031",187041052,"L"
18352,"10910 SW  MOAPA AVENUE","PORTLAND","OR",97219,45.4471325100001,-122.666233113,352,"10910 SW  MOAPA AVENUE, PORTLAND, OR, 97219","Match","Exact","10910 SW MOAPA AVE, PORTLAND, OR, 97219",157526174,"L"
18353,"10910 WARDROP PL","RICHMOND","TX",77407,29.656761364,-95.7044551929999,353,"10910 WARDROP PL, RICHMOND, TX, 77407","Match","Exact","10910 WARDROP PL, RICHMOND, TX, 77407",648706883,"R"
18354,"10911 BROOKSHIRE AVENUE","DOWNEY","CA",90241,33.94073274,-118.127699225,354,"10911 BROOKSHIRE AVENUE, DOWNEY, CA, 90241","Match","Exact","10911 BROOKSHIRE AVE, DOWNEY, CA, 90241",636339102,"R"
18355,"10911 N RIDGE DR","SEMMES","AL",36575,30.7743290490001,-88.2999806189999,355,"10911 N RIDGE DR, SEMMES, AL, 36575","Match","Non_Exact","10911 N RIDGE RD, SEMMES, AL, 36575",645560778,"L"
18356,"10911 NE 104TH ST","VANCOUVER","WA",98662,45.696577668,-122.560331054,356,"10911 NE 104TH ST, VANCOUVER, WA, 98662","Match","Exact","10911 NE 104TH ST, VANCOUVER, WA, 98662",158368486,"R"
18357,"10911 NORTHGATE TRAIL DRIVE","CHARLOTTE","NC",28215,35.254161934,-80.6521477859999,357,"10911 NORTHGATE TRAIL DRIVE, CHARLOTTE, NC, 28215","Match","Exact","10911 NORTHGATE TRAIL DR, CHARLOTTE, NC, 28215",70547996,"R"
18358,"10911 RAVEN RIDGE RD STE 103-82","RALEIGH","NC",27614,35.9057662870001,-78.590725031,358,"10911 RAVEN RIDGE RD STE 103-82, RALEIGH, NC, 27614","Match","Exact","10911 RAVEN RIDGE RD, RALEIGH, NC, 27614",72648147,"L"
18359,"10911 TAVERNAY PARKWAY","CHARLOTTE","NC",28262,35.345033932,-80.755055077,359,"10911 TAVERNAY PARKWAY, CHARLOTTE, NC, 28262","Match","Exact","10911 TAVERNAY PKWY, CHARLOTTE, NC, 28262",70531879,"L"
18360,"10911 VERANDA LN","MONROVIA","MD",21770,39.352318086,-77.2832556119999,360,"10911 VERANDA LN, MONROVIA, MD, 21770","Match","Exact","10911 VERANDA LN, MONROVIA, MD, 21770",648716035,"L"
18361,"10912 FOREST TRACE LANE","GLEN ALLEN","VA",23059,37.671995145,-77.489049713,361,"10912 FOREST TRACE LANE, GLEN ALLEN, VA, 23059","Match","Exact","10912 FOREST TRACE LN, GLEN ALLEN, VA, 23059",106664006,"R"
18362,"10913 E STANTON AVE","MESA","AZ",85212,33.3265299500001,-111.598397363,362,"10913 E STANTON AVE, MESA, AZ, 85212","Match","Exact","10913 E STANTON AVE, MESA, AZ, 85212",616712804,"R"
18363,"10913 SUNRISE RIDGE CIR","AUBURN","CA",95603,38.8661983860001,-121.086899646,363,"10913 SUNRISE RIDGE CIR, AUBURN, CA, 95603","Match","Exact","10913 SUNRISE RIDGE CIR, AUBURN, CA, 95603",106816322,"R"
18364,"10913 SW 244 TERR","HOMESTEAD","FL",33032,25.540419236,-80.368349856,364,"10913 SW 244 TERR, HOMESTEAD, FL, 33032","Match","Exact","10913 SW 244TH TER, HOMESTEAD, FL, 33032",625020592,"L"
18365,"10914 1/2 SOUTH VERMONT AVENUE","LOS ANGELES","CA",90044,33.937030141,-118.291602326,365,"10914 1/2 SOUTH VERMONT AVENUE, LOS ANGELES, CA, 90044","Match","Exact","10914 S VERMONT AVE, LOS ANGELES, CA, 90044",142650519,"L"
18366,"10914 BRIDLEPARK CIRCLE","HOUSTON","TX",77016,29.8737964970001,-95.307270692,366,"10914 BRIDLEPARK CIRCLE, HOUSTON, TX, 77016","Match","Exact","10914 BRIDLEPARK CIR, HOUSTON, TX, 77016",96416622,"L"
18367,"10914 CLAY LICK ROAD","MERCERSBURG","PA",17236,39.771093082,-77.903876467,367,"10914 CLAY LICK ROAD, MERCERSBURG, PA, 17236","Match","Exact","10914 CLAY LICK RD, MERCERSBURG, PA, 17236",605522529,"L"
18368,"10914 GEORGIA AVE APT 419","SILVER SPRING","MD",20902,39.0348655610001,-77.049490054,368,"10914 GEORGIA AVE APT 419, SILVER SPRING, MD, 20902","Match","Exact","10914 GEORGIA AVE, SILVER SPRING, MD, 20902",637186312,"R"
18369,"10914 GLENGATE CIRCLE","HIGHLANDS RANCH","CO",80130,39.51472448,-104.931176458,369,"10914 GLENGATE CIRCLE, HIGHLANDS RANCH, CO, 80130","Match","Exact","10914 GLENGATE CIR, HIGHLANDS RANCH, CO, 80130",130853158,"L"
18370,"10914 LAKE PATH DR","SAN ANTONIO","TX",78217,29.5371130730001,-98.433596238,370,"10914 LAKE PATH DR, SAN ANTONIO, TX, 78217","Match","Exact","10914 LAKE PATH DR, SAN ANTONIO, TX, 78217",101725978,"R"
18371,"10914 LAKE WINDERMERE DR","GREAT FALLS","VA",22066,39.005555703,-77.3252438169999,371,"10914 LAKE WINDERMERE DR, GREAT FALLS, VA, 22066","Match","Exact","10914 LAKE WINDERMERE DR, GREAT FALLS, VA, 22066",215924969,"R"
18372,"10914 LARK BROOK LANE","HOUSTON","TX",77065,29.9290410880001,-95.616157581,372,"10914 LARK BROOK LANE, HOUSTON, TX, 77065","Match","Exact","10914 LARK BROOK LN, HOUSTON, TX, 77065",96162605,"L"
18373,"10914 LEMAY STREET","NORTH HOLLYWOOD","CA",91606,34.1910140260001,-118.368331173,373,"10914 LEMAY STREET, NORTH HOLLYWOOD, CA, 91606","Match","Exact","10914 LEMAY ST, N HOLLYWOOD, CA, 91606",141591264,"L"
18374,"10914 RIVER TERRACE CIRCLE","AUSTIN","TX",78733,30.340987582,-97.883981133,374,"10914 RIVER TERRACE CIRCLE, AUSTIN, TX, 78733","Match","Exact","10914 RIVER TER, AUSTIN, TX, 78733",63924763,"R"
18375,"10914 S FAIRFIELD","CHICAGO","IL",60655,NA,NA,375,"10914 S FAIRFIELD, CHICAGO, IL, 60655","No_Match",NA,NA,NA,NA
18376,"10915 CRAWFORD CIRCLE","MONTGOMERY","TX",77316,30.3083476620001,-95.748768218,376,"10915 CRAWFORD CIRCLE, MONTGOMERY, TX, 77316","Match","Exact","10915 CRAWFORD CIR, MONTGOMERY, TX, 77316",647686152,"R"
18377,"10915 HARDIN VALLEY ROAD","KOXVILLE","TN",37933,35.944480234,-84.164870746,377,"10915 HARDIN VALLEY ROAD, KOXVILLE, TN, 37933","Match","Non_Exact","10915 HARDIN VALLEY RD, KNOXVILLE, TN, 37932",645248064,"R"
18378,"10915 HUNTERS WAY","SAN ANTONIO","TX",78023,29.5503425630001,-98.708769713,378,"10915 HUNTERS WAY, SAN ANTONIO, TX, 78023","Match","Non_Exact","10915 HUNTERS WAY, HELOTES, TX, 78023",639261968,"R"
18379,"10915 LOCKGATE LANE","HOUSTON","TX",77048,29.640362312,-95.350265008,379,"10915 LOCKGATE LANE, HOUSTON, TX, 77048","Match","Exact","10915 LOCKGATE LN, HOUSTON, TX, 77048",96090476,"L"
18380,"10915 OLM DR","FAIRFAX STATION","VA",22039,38.7792250480001,-77.322876037,380,"10915 OLM DR, FAIRFAX STATION, VA, 22039","Match","Exact","10915 OLM DR, FAIRFAX STATION, VA, 22039",76042073,"L"
18381,"10915 ROBINSON ROCK CT","CHARLOTTE","NC",28277,35.0509549430001,-80.84462824,381,"10915 ROBINSON ROCK CT, CHARLOTTE, NC, 28277","Match","Exact","10915 ROBINSON ROCK CT, CHARLOTTE, NC, 28277",70528995,"L"
18382,"10915 S LONGWOOD DR","CHICAGO","IL",60643,41.6952703490001,-87.6715916539999,382,"10915 S LONGWOOD DR, CHICAGO, IL, 60643","Match","Exact","10915 S LONGWOOD DR, CHICAGO, IL, 60643",111823282,"L"
18383,"10915 S PEORIA STREET","CHICAGO","IL",60643,41.6956028930001,-87.644903595,383,"10915 S PEORIA STREET, CHICAGO, IL, 60643","Match","Exact","10915 S PEORIA ST, CHICAGO, IL, 60643",111833298,"L"
18384,"10915 SE 255TH PL M201","KENT","WA",98030,47.373199904,-122.195828351,384,"10915 SE 255TH PL M201, KENT, WA, 98030","Match","Non_Exact","10915 SE 255TH PL, KENT, WA, 98030",186653468,"R"
18385,"10915 SEVEN CREEKS HWY","NAKINA","NC",28455,34.0931644,-78.649763134,385,"10915 SEVEN CREEKS HWY, NAKINA, NC, 28455","Match","Exact","10915 SEVEN CREEKS HWY, NAKINA, NC, 28455",64144897,"R"
18386,"10916 133 ST","QUEENS","NY",11420,NA,NA,386,"10916 133 ST, QUEENS, NY, 11420","No_Match",NA,NA,NA,NA
18387,"10916 PHILADELPHIA RD","WHITE MARSH","MD",21162,39.3879783890001,-76.42888791,387,"10916 PHILADELPHIA RD, WHITE MARSH, MD, 21162","Match","Exact","10916 PHILADELPHIA RD, WHITE MARSH, MD, 21162",191481278,"L"
18388,"10916 WHISPERING VALLEY LANE","MIDDLEVILLE","MI",49333,42.7458929860001,-85.501758132,388,"10916 WHISPERING VALLEY LANE, MIDDLEVILLE, MI, 49333","Match","Exact","10916 WHISPERING VALLEY LN, MIDDLEVILLE, MI, 49333",10511854,"R"
18389,"10917 165TH PL NE","REDMOND","WA",98052,47.6978131830001,-122.119868867,389,"10917 165TH PL NE, REDMOND, WA, 98052","Match","Exact","10917 165TH PL NE, REDMOND, WA, 98052",186610227,"R"
18390,"10917 SANDSTONE ROAD","KNOXVILLE","TN",37931,35.9747202400001,-84.186406124,390,"10917 SANDSTONE ROAD, KNOXVILLE, TN, 37931","Match","Exact","10917 SANDSTONE RD, KNOXVILLE, TN, 37931",42665796,"R"
18391,"10917 SPYGLASS HILL DR","BOWIE","MD",20721,NA,NA,391,"10917 SPYGLASS HILL DR, BOWIE, MD, 20721","No_Match",NA,NA,NA,NA
18392,"10917 Y STREET","OMAHA","NE",68137,41.1976243140001,-96.08284894,392,"10917 Y STREET, OMAHA, NE, 68137","Match","Exact","10917 Y ST, OMAHA, NE, 68137",117006624,"R"
18393,"10918 BRITTANY DRIVE NORTH","CHAMPLIN","MN",55316,45.152463579,-93.364114942,393,"10918 BRITTANY DRIVE NORTH, CHAMPLIN, MN, 55316","Match","Exact","10918 BRITTANY DR N, CHAMPLIN, MN, 55316",43850075,"L"
18394,"10918 GREEN ROW ROAD NW","FROSTBURG","MD",21532,39.669713379,-78.91355641,394,"10918 GREEN ROW ROAD NW, FROSTBURG, MD, 21532","Match","Exact","10918 GREEN ROW RD NW, FROSTBURG, MD, 21532",123327681,"R"
18395,"10918 N CRESTPOINT","DUNLAP","IL",61525,40.8217016,-89.616325735,395,"10918 N CRESTPOINT, DUNLAP, IL, 61525","Match","Non_Exact","10918 CRESTPOINT LN, DUNLAP, IL, 61525",635313560,"R"
18396,"10918 PANORAMA DRIVE","OZAWIE","KS",66070,39.243226989,-95.432418937,396,"10918 PANORAMA DRIVE, OZAWIE, KS, 66070","Match","Non_Exact","10918 PANOROMA DR, OZAWKIE, KS, 66070",22248530,"R"
18397,"10918 RHODENDA AVE","UPPER MARLBORO","MD",20772,38.7511775030001,-76.8257584199999,397,"10918 RHODENDA AVE, UPPER MARLBORO, MD, 20772","Match","Exact","10918 RHODENDA AVE, UPPER MARLBORO, MD, 20772",637460952,"L"
18398,"10918 SUMMERTON DR","RIVERVIEW","FL",33579,27.7926700630001,-82.325703118,398,"10918 SUMMERTON DR, RIVERVIEW, FL, 33579","Match","Exact","10918 SUMMERTON DR, RIVERVIEW, FL, 33579",104593144,"L"
18399,"10919 CREEKSIDE MEADOWS DRIVE","INDIANAPOLIS","IN",46229,39.7680569990001,-85.972719393,399,"10919 CREEKSIDE MEADOWS DRIVE, INDIANAPOLIS, IN, 46229","Match","Non_Exact","10919 CREEKSIDE MEADOW DR, INDIANAPOLIS, IN, 46229",108061823,"R"
18400,"10919 FEATHERBROOK RD APT 1C","CHARLOTTE","NC",28262,35.337655877,-80.7208374579999,400,"10919 FEATHERBROOK RD APT 1C, CHARLOTTE, NC, 28262","Match","Exact","10919 FEATHERBROOK RD, CHARLOTTE, NC, 28262",70558505,"R"
18401,"10919 LAKEWOOD BLVD STE 203","DOWNEY","CA",90241,33.9380860320001,-118.122684146,401,"10919 LAKEWOOD BLVD STE 203, DOWNEY, CA, 90241","Match","Exact","10919 LAKEWOOD BLVD, DOWNEY, CA, 90241",241121029,"R"
18402,"10919 NE 164TH PL","BOTHELL","WA",98011,47.746215788,-122.195177143,402,"10919 NE 164TH PL, BOTHELL, WA, 98011","Match","Exact","10919 NE 164TH PL, BOTHELL, WA, 98011",239771041,"R"
18403,"1092 43 ST","EMERYVILLE","CA",94608,37.833089263,-122.280156067,403,"1092 43 ST, EMERYVILLE, CA, 94608","Match","Exact","1092 43RD ST, EMERYVILLE, CA, 94608",606063156,"R"
18404,"1092 ABE LINCOLN WAY","JEFFERSON","GA",30549,34.1645747790001,-83.604525114,404,"1092 ABE LINCOLN WAY, JEFFERSON, GA, 30549","Match","Exact","1092 ABE LINCOLN WAY, JEFFERSON, GA, 30549",635315193,"R"
18405,"1092 ALOHA DR","ENCINITAS","CA",92024,33.0381517050001,-117.269585323,405,"1092 ALOHA DR, ENCINITAS, CA, 92024","Match","Exact","1092 ALOHA DR, ENCINITAS, CA, 92024",195293504,"R"
18406,"1092 ALOHA DRIVE","ENCINITAS","CA",92024,33.0381517050001,-117.269585323,406,"1092 ALOHA DRIVE, ENCINITAS, CA, 92024","Match","Exact","1092 ALOHA DR, ENCINITAS, CA, 92024",195293504,"R"
18407,"1092 BEACH 12TH STREET","FAR ROCKAWAY","NY",11691,40.605940924,-73.74734026,407,"1092 BEACH 12TH STREET, FAR ROCKAWAY, NY, 11691","Match","Exact","1092 BEACH 12TH ST, FAR ROCKAWAY, NY, 11691",59723295,"R"
18408,"1092 BEAU AVENUE","BRENTWOOD","CA",94513,37.963476369,-121.71462586,408,"1092 BEAU AVENUE, BRENTWOOD, CA, 94513","Match","Exact","1092 BEAU AVE, BRENTWOOD, CA, 94513",627011884,"L"
18409,"1092 BELMONT AVE","BROOKLYN","NY",11208,40.6745520530001,-73.8686804609999,409,"1092 BELMONT AVE, BROOKLYN, NY, 11208","Match","Exact","1092 BELMONT AVE, BROOKLYN, NY, 11208",59095410,"R"
18410,"1092 HIGHWAY 62 EAST","YELLVILLE","AR",72687,36.2272986420001,-92.666175456,410,"1092 HIGHWAY 62 EAST, YELLVILLE, AR, 72687","Match","Non_Exact","1092 US HWY 62 E, YELLVILLE, AR, 72687",2180949,"L"
18411,"1092 MELROSE PLACE","DOUGLASVILLE","GA",30134,33.7750467490001,-84.699978242,411,"1092 MELROSE PLACE, DOUGLASVILLE, GA, 30134","Match","Exact","1092 MELROSE PL, DOUGLASVILLE, GA, 30134",16659792,"R"
18412,"1092 N STATE ROAD 267","AVON","IN",46123,39.7466937230001,-86.399543551,412,"1092 N STATE ROAD 267, AVON, IN, 46123","Match","Exact","1092 STATE RD 267, AVON, IN, 46123",89220358,"L"
18413,"1092 PATSY HILL RD","TYLERTOWN","MS",39667,31.270353619,-90.2747452139999,413,"1092 PATSY HILL RD, TYLERTOWN, MS, 39667","Match","Exact","1092 PATSY HILL RD, TYLERTOWN, MS, 39667",75857271,"R"
18414,"1092 PAYNE AVENUE","SAINT PAUL","MN",55130,44.9741708500001,-93.0735174759999,414,"1092 PAYNE AVENUE, SAINT PAUL, MN, 55130","Match","Exact","1092 PAYNE AVE, SAINT PAUL, MN, 55130",97650458,"R"
18415,"1092 RABUN DRIVE NW","LILBURN","GA",30047,33.9163211960001,-84.1346745009999,415,"1092 RABUN DRIVE NW, LILBURN, GA, 30047","Match","Non_Exact","1092 RABUN DR, LILBURN, GA, 30047",88885747,"R"
18416,"1092 RTE 989","FREEDOM","PA",15042,40.7169161030001,-80.189579548,416,"1092 RTE 989, FREEDOM, PA, 15042","Match","Non_Exact","1092 STATE RTE 989, FREEDOM, PA, 15042",652290551,"R"
18417,"1092 S 167TH LN","GOODYEAR","AZ",85338,33.4373013200001,-112.419465825,417,"1092 S 167TH LN, GOODYEAR, AZ, 85338","Match","Exact","1092 S 167TH LN, GOODYEAR, AZ, 85338",244021320,"L"
18418,"1092 SAINT GEORGES AVE - 152","RAHWAY","NJ",7065,40.6080774390001,-74.287169169,418,"1092 SAINT GEORGES AVE - 152, RAHWAY, NJ, 7065","Match","Exact","1092 SAINT GEORGES AVE, RAHWAY, NJ, 07065",60562355,"L"
18419,"1092 SAINT GEORGES AVE SUITE 321","AVENEL","NJ",7001,40.5744492700001,-74.294334654,419,"1092 SAINT GEORGES AVE SUITE 321, AVENEL, NJ, 7001","Match","Exact","1092 SAINT GEORGES AVE, AVENEL, NJ, 07001",635779286,"R"
18420,"1092 W NEW HAMPSHIRE AVE","SOUTHERN PINES","NC",28387,35.1852672210001,-79.4003772519999,420,"1092 W NEW HAMPSHIRE AVE, SOUTHERN PINES, NC, 28387","Match","Exact","1092 W NEW HAMPSHIRE AVE, SOUTHERN PINES, NC, 28387",20295943,"L"
18421,"1092 W PRIMAVERA WAY","WEST JORDAN","UT",84084,40.6204897470001,-111.924276603,421,"1092 W PRIMAVERA WAY, WEST JORDAN, UT, 84084","Match","Exact","1092 PRIMAVERA WAY, WEST JORDAN, UT, 84084",651118478,"L"
18422,"1092","VALLEY STREAM","NY",11582,NA,NA,422,"1092, VALLEY STREAM, NY, 11582","No_Match",NA,NA,NA,NA
18423,"10920 38TH AVENUE NORTH","PLYMOUTH","MN",55441,45.0250736240001,-93.4185232089999,423,"10920 38TH AVENUE NORTH, PLYMOUTH, MN, 55441","Match","Exact","10920 38TH AVE N, PLYMOUTH, MN, 55441",43712861,"R"
18424,"10920 AVANA WAY APT 304","TRINITY","FL",34655,28.189226326,-82.635111076,424,"10920 AVANA WAY APT 304, TRINITY, FL, 34655","Match","Exact","10920 AVANA WAY, TRINITY, FL, 34655",641399579,"R"
18425,"10920 BARN ROAD","LAKE WORTH","FL",33449,26.561340193,-80.220170302,425,"10920 BARN ROAD, LAKE WORTH, FL, 33449","Match","Exact","10920 BARN RD, LAKE WORTH, FL, 33449",115486938,"L"
18426,"10920 BECKMAN WAY","GREAT FALLS","VA",22066,39.014356987,-77.322173259,426,"10920 BECKMAN WAY, GREAT FALLS, VA, 22066","Match","Exact","10920 BECKMAN WAY, GREAT FALLS, VA, 22066",75956149,"R"
18427,"10920 JEFF HAMILTON ROAD","MOBILE","AL",36695,30.622357531,-88.29966425,427,"10920 JEFF HAMILTON ROAD, MOBILE, AL, 36695","Match","Exact","10920 JEFF HAMILTON RD, MOBILE, AL, 36695",61916267,"L"
18428,"10920 LA MIRADA BLVD","WHITTIER","CA",90604,33.9328711740001,-118.011680184,428,"10920 LA MIRADA BLVD, WHITTIER, CA, 90604","Match","Exact","10920 LA MIRADA BLVD, WHITTIER, CA, 90604",141751479,"L"
18429,"10920 NW 22 COURT","MIAMI","FL",33167,25.8738671450001,-80.23572121,429,"10920 NW 22 COURT, MIAMI, FL, 33167","Match","Exact","10920 NW 22ND CT, MIAMI, FL, 33167",115998654,"L"
18430,"10920 OAK BEND WAY","WELLINGTON","FL",33414,26.657501903,-80.216368922,430,"10920 OAK BEND WAY, WELLINGTON, FL, 33414","Match","Exact","10920 OAK BEND WAY, WELLINGTON, FL, 33414",115500994,"R"
18431,"10920 PINELLA WAY","RANCHO CORDOVA","CA",95670,38.5792282090001,-121.279058144,431,"10920 PINELLA WAY, RANCHO CORDOVA, CA, 95670","Match","Exact","10920 PINELLA WAY, RANCHO CORDOVA, CA, 95670",133409797,"R"
18432,"10920 QUEENS BLVD 5D","FOREST HILLS","NY",11375,NA,NA,432,"10920 QUEENS BLVD 5D, FOREST HILLS, NY, 11375","No_Match",NA,NA,NA,NA
18433,"10921 BELLFLOWER AVE","CHERRY VALLEY","CA",92223,33.962689116,-116.951090952,433,"10921 BELLFLOWER AVE, CHERRY VALLEY, CA, 92223","Match","Exact","10921 BELLFLOWER AVE, CHERRY VALLEY, CA, 92223",194753664,"R"
18434,"10921 E MONUMENT ESTATES CIRCLE","TUCSON","AZ",85748,32.2236921210001,-110.758421009,434,"10921 E MONUMENT ESTATES CIRCLE, TUCSON, AZ, 85748","Match","Exact","10921 E MONUMENT ESTATES CIR, TUCSON, AZ, 85748",121407764,"L"
18435,"10921 GEORGE ARCHER DR","EL PASO","TX",79936,31.77767512,-106.321790498,435,"10921 GEORGE ARCHER DR, EL PASO, TX, 79936","Match","Exact","10921 GEORGE ARCHER DR, EL PASO, TX, 79936",189400332,"L"
18436,"10921 LOMA ALTA LN","EL PASO","TX",79934,31.9300657690001,-106.436909216,436,"10921 LOMA ALTA LN, EL PASO, TX, 79934","Match","Non_Exact","10921 LOMA ALTA PL, EL PASO, TX, 79934",189381941,"L"
18437,"10921 REED HARTMAN HIGHWAY 103","CINCINNATI","OH",45242,39.2643314640001,-84.379889568,437,"10921 REED HARTMAN HIGHWAY 103, CINCINNATI, OH, 45242","Match","Exact","10921 REED HARTMAN HWY, CINCINNATI, OH, 45242",635345607,"L"
18438,"10921 REED HARTMAN HWY STE 228","Blue Ash","OH",45242,39.2643314640001,-84.379889568,438,"10921 REED HARTMAN HWY STE 228, Blue Ash, OH, 45242","Match","Exact","10921 REED HARTMAN HWY, BLUE ASH, OH, 45242",635345607,"L"
18439,"10921 REED HARTMAN HWY SUITE 228","CINCINNATI","OH",45242,39.2643314640001,-84.379889568,439,"10921 REED HARTMAN HWY SUITE 228, CINCINNATI, OH, 45242","Match","Exact","10921 REED HARTMAN HWY, CINCINNATI, OH, 45242",635345607,"L"
18440,"10921 ROARING BROOK LN","HOUSTON","TX",77024,29.768899462,-95.503906792,440,"10921 ROARING BROOK LN, HOUSTON, TX, 77024","Match","Exact","10921 ROARING BROOK LN, HOUSTON, TX, 77024",96030507,"L"
18441,"10921 ROWLAND AVE","KANSAS CITY","KS",66109,39.134232454,-94.8329541799999,441,"10921 ROWLAND AVE, KANSAS CITY, KS, 66109","Match","Exact","10921 ROWLAND AVE, KANSAS CITY, KS, 66109",647733321,"L"
18442,"10921 WARWICK LANE","ORLAND PARK","IL",60467,NA,NA,442,"10921 WARWICK LANE, ORLAND PARK, IL, 60467","No_Match",NA,NA,NA,NA
18443,"10922 COURSEY BLVD STE B","BATON ROUGE","LA",70816,30.417144079,-91.068811723,443,"10922 COURSEY BLVD STE B, BATON ROUGE, LA, 70816","Match","Exact","10922 COURSEY BLVD, BATON ROUGE, LA, 70816",619223903,"L"
18444,"10922 S HARDING AVENUE","CHICAGO","IL",60655,41.694385158,-87.7192538689999,444,"10922 S HARDING AVENUE, CHICAGO, IL, 60655","Match","Exact","10922 S HARDING AVE, CHICAGO, IL, 60655",111819051,"R"
18445,"10923 130TH ST CT E","PUYALLUP","WA",98374,47.1377408290001,-122.28345843,445,"10923 130TH ST CT E, PUYALLUP, WA, 98374","Match","Exact","10923 130TH STREET CT E, PUYALLUP, WA, 98374",184657613,"R"
18446,"10923 HORDE STREET","SILVER SPRING","MD",20902,39.0351543630001,-77.0431065339999,446,"10923 HORDE STREET, SILVER SPRING, MD, 20902","Match","Exact","10923 HORDE ST, SILVER SPRING, MD, 20902",62063988,"R"
18447,"10923 MEADOW LAKE LN","HOUSTON","TX",77042,29.7426125870001,-95.569868883,447,"10923 MEADOW LAKE LN, HOUSTON, TX, 77042","Match","Exact","10923 MEADOW LAKE LN, HOUSTON, TX, 77042",96023559,"L"
18448,"10923 PROGRESS COURT  1848","RANCHO CORDOVA","CA",95670,38.598515832,-121.28099361,448,"10923 PROGRESS COURT  1848, RANCHO CORDOVA, CA, 95670","Match","Exact","10923 PROGRESS CT, RANCHO CORDOVA, CA, 95670",133393340,"R"
18449,"10923 PROGRESS COURT 1848","RANCHO CORDOVA","CA",95670,38.598515832,-121.28099361,449,"10923 PROGRESS COURT 1848, RANCHO CORDOVA, CA, 95670","Match","Exact","10923 PROGRESS CT, RANCHO CORDOVA, CA, 95670",133393340,"R"
18450,"10923 RINCON STREET","LOMA LINDA","CA",92354,34.0554302260001,-117.269464779,450,"10923 RINCON STREET, LOMA LINDA, CA, 92354","Match","Exact","10923 RINCON ST, LOMA LINDA, CA, 92354",144659908,"L"
18451,"10923 TARA VILLAGE WAY","JONESBORO","GA",30238,33.4638131240001,-84.350332078,451,"10923 TARA VILLAGE WAY, JONESBORO, GA, 30238","Match","Exact","10923 TARA VILLAGE WAY, JONESBORO, GA, 30238",633906916,"L"
18452,"10923 WEST AVE","SAN ANTONIO","TX",78213,29.5391188400001,-98.516280937,452,"10923 WEST AVE, SAN ANTONIO, TX, 78213","Match","Exact","10923 WEST AVE, SAN ANTONIO, TX, 78213",101493896,"L"
18453,"10924 BRAEMOOR DRIVE","HASLET","TX",76052,32.929816073,-97.3741788469999,453,"10924 BRAEMOOR DRIVE, HASLET, TX, 76052","Match","Exact","10924 BRAEMOOR DR, HASLET, TX, 76052",637603692,"R"
18454,"10924 CATON CRES","CORNING","NY",14830,42.0680341230001,-77.0458997119999,454,"10924 CATON CRES, CORNING, NY, 14830","Match","Exact","10924 CATON CRES, CORNING, NY, 14830",14761228,"R"
18455,"10924 E 230TH ST","KENYON","MN",55946,44.2546441360001,-93.089507808,455,"10924 E 230TH ST, KENYON, MN, 55946","Match","Non_Exact","10924 230TH ST E, KENYON, MN, 55946",37335047,"L"
18456,"10924 GRANT RD  SUITE 214","HOUSTON","TX",77070,29.9669700540001,-95.583251576,456,"10924 GRANT RD  SUITE 214, HOUSTON, TX, 77070","Match","Exact","10924 GRANT RD, HOUSTON, TX, 77070",96658136,"L"
18457,"10924 GRANT RD UNIT 435","HOUSTON","TX",77070,29.9669700540001,-95.583251576,457,"10924 GRANT RD UNIT 435, HOUSTON, TX, 77070","Match","Exact","10924 GRANT RD, HOUSTON, TX, 77070",96658136,"L"
18458,"10924 SOUTHWEST 156TH TERRACE","MIAMI","FL",33157,25.62310884,-80.371838058,458,"10924 SOUTHWEST 156TH TERRACE, MIAMI, FL, 33157","Match","Exact","10924 SW 156TH TER, MIAMI, FL, 33157",116270370,"L"
18459,"10924 SW 156 TERRACE","MIAMI","FL",33157,25.62310884,-80.371838058,459,"10924 SW 156 TERRACE, MIAMI, FL, 33157","Match","Exact","10924 SW 156TH TER, MIAMI, FL, 33157",116270370,"L"
18460,"10924 SW 156TH TERRACE","MIAMI","FL",33157,25.62310884,-80.371838058,460,"10924 SW 156TH TERRACE, MIAMI, FL, 33157","Match","Exact","10924 SW 156TH TER, MIAMI, FL, 33157",116270370,"L"
18461,"10924 TOPEKA DR","PORTER RANCH","CA",91326,34.268382951,-118.545408641,461,"10924 TOPEKA DR, PORTER RANCH, CA, 91326","Match","Exact","10924 TOPEKA DR, PORTER RANCH, CA, 91326",141539434,"R"
18462,"10925 228TH ST NE","ARLINGTON","WA",98223,48.2022543240001,-122.082722408,462,"10925 228TH ST NE, ARLINGTON, WA, 98223","Match","Exact","10925 228TH ST NE, ARLINGTON, WA, 98223",635560237,"L"
18463,"10925 BRIAR FOREST DR UNIT 2052","HOUSTON","TX",77042,29.7474369180001,-95.568469369,463,"10925 BRIAR FOREST DR UNIT 2052, HOUSTON, TX, 77042","Match","Exact","10925 BRIAR FOREST DR, HOUSTON, TX, 77042",96619458,"L"
18464,"10925 BRIAR FOREST DT NO 2014","HOUSTON","TX",77042,29.7474369180001,-95.568469369,464,"10925 BRIAR FOREST DT NO 2014, HOUSTON, TX, 77042","Match","Non_Exact","10925 BRIAR FOREST DR, HOUSTON, TX, 77042",96619458,"L"
18465,"10925 COLERAIN RD","CINCINNATI","OH",45252,39.278407186,-84.6116070959999,465,"10925 COLERAIN RD, CINCINNATI, OH, 45252","Match","Non_Exact","10925 COLERAIN AVE, CINCINNATI, OH, 45252",103942142,"L"
18466,"10925 CORK PLACE","INDIANAPOLIS","IN",46236,39.897186693,-85.975469531,466,"10925 CORK PLACE, INDIANAPOLIS, IN, 46236","Match","Exact","10925 CORK PL, INDIANAPOLIS, IN, 46236",108058061,"R"
18467,"10925 CRABAPPLE RD","ROSWELL","GA",30075,34.046200974,-84.361155207,467,"10925 CRABAPPLE RD, ROSWELL, GA, 30075","Match","Exact","10925 CRABAPPLE RD, ROSWELL, GA, 30075",17419142,"R"
18468,"10925 HARPERS SQUARE COURT","RESTON","VA",22091,38.938757948,-77.323769061,468,"10925 HARPERS SQUARE COURT, RESTON, VA, 22091","Match","Non_Exact","10925 HARPERS SQUARE CT, RESTON, VA, 20191",76035643,"R"
18469,"10925 LYDIA RD","EL PASO","TX",79927,31.6465642310001,-106.262054477,469,"10925 LYDIA RD, EL PASO, TX, 79927","Match","Exact","10925 LYDIA RD, EL PASO, TX, 79927",189356698,"R"
18470,"10925 N LANE AVE","KANSAS CITY","MO",64157,39.2909430280001,-94.4690391789999,470,"10925 N LANE AVE, KANSAS CITY, MO, 64157","Match","Exact","10925 N LANE AVE, KANSAS CITY, MO, 64157",642920317,"R"
18471,"10925 S HIGHLANDS PARKWAY APT 1061","LAS VEGAS","NV",89102,NA,NA,471,"10925 S HIGHLANDS PARKWAY APT 1061, LAS VEGAS, NV, 89102","No_Match",NA,NA,NA,NA
18472,"10925 S KEATING","OAK LAWN","IL",60453,NA,NA,472,"10925 S KEATING, OAK LAWN, IL, 60453","Tie",NA,NA,NA,NA
18473,"10925 SONJA DR","KNOXVILLE","TN",37934,35.8967692310001,-84.151364775,473,"10925 SONJA DR, KNOXVILLE, TN, 37934","Match","Exact","10925 SONJA DR, KNOXVILLE, TN, 37934",42610399,"R"
18474,"10925 WRENWOOD MANOR","HOUSTON","TX",77043,NA,NA,474,"10925 WRENWOOD MANOR, HOUSTON, TX, 77043","Tie",NA,NA,NA,NA
18475,"10926 DEAN MARTIN DR","LAS VEGAS","NV",89141,35.9914657240001,-115.183506786,475,"10926 DEAN MARTIN DR, LAS VEGAS, NV, 89141","Match","Exact","10926 DEAN MARTIN DR, LAS VEGAS, NV, 89141",625091312,"L"
18476,"10926 QUALITY DR BOX 39065","CHARLOTTE","NC",28278,NA,NA,476,"10926 QUALITY DR BOX 39065, CHARLOTTE, NC, 28278","No_Match",NA,NA,NA,NA
18477,"10926 QUALITY DRIVE 38804","CHARLOTTE","NC",28278,NA,NA,477,"10926 QUALITY DRIVE 38804, CHARLOTTE, NC, 28278","No_Match",NA,NA,NA,NA
18478,"10926 QUALITY DRIVE UNIT 38951","CHARLOTTE","NC",28278,NA,NA,478,"10926 QUALITY DRIVE UNIT 38951, CHARLOTTE, NC, 28278","No_Match",NA,NA,NA,NA
18479,"10926 SILVERADO TRACE DR","HOUSTON","TX",77095,29.9364504070001,-95.675801558,479,"10926 SILVERADO TRACE DR, HOUSTON, TX, 77095","Match","Exact","10926 SILVERADO TRACE DR, HOUSTON, TX, 77095",96569243,"R"
18480,"10926 WEST CAVE BLVD","DRIPPING SPRINGS","TX",78620,30.2749350670001,-98.062382955,480,"10926 WEST CAVE BLVD, DRIPPING SPRINGS, TX, 78620","Match","Exact","10926 W CAVE BLVD, DRIPPING SPRINGS, TX, 78620",651653679,"R"
18481,"10927 CEDAR PINE DRIVE","INDIANAPOLIS","IN",46235,39.823523231,-85.973557391,481,"10927 CEDAR PINE DRIVE, INDIANAPOLIS, IN, 46235","Match","Exact","10927 CEDAR PINE DR, INDIANAPOLIS, IN, 46235",108055300,"L"
18482,"10927 GRANTWOOD AVE","CLEVELAND","OH",44108,41.5260605510001,-81.610650183,482,"10927 GRANTWOOD AVE, CLEVELAND, OH, 44108","Match","Exact","10927 GRANTWOOD AVE, CLEVELAND, OH, 44108",61120407,"L"
18483,"10927 GRANTWOOD AVENUE","CLEVELAND","OH",44108,41.5260605510001,-81.610650183,483,"10927 GRANTWOOD AVENUE, CLEVELAND, OH, 44108","Match","Exact","10927 GRANTWOOD AVE, CLEVELAND, OH, 44108",61120407,"L"
18484,"10928 AUDELIA RD 227","DALLAS","TX",75243,32.8965816690001,-96.717777584,484,"10928 AUDELIA RD 227, DALLAS, TX, 75243","Match","Exact","10928 AUDELIA RD, DALLAS, TX, 75243",103244834,"L"
18485,"10928 DAPPLE GREY LANE","CHARLOTTE","NC",28213,35.2888284910001,-80.7045086219999,485,"10928 DAPPLE GREY LANE, CHARLOTTE, NC, 28213","Match","Exact","10928 DAPPLE GREY LN, CHARLOTTE, NC, 28213",616481101,"R"
18486,"10928 PARK ST","LAKEVIEW","OH",43331,40.5172629730001,-83.866633484,486,"10928 PARK ST, LAKEVIEW, OH, 43331","Match","Exact","10928 PARK ST, LAKEVIEW, OH, 43331",52174669,"L"
18487,"10928 S WALLACE ST","CHICAGO","IL",60628,41.695467492,-87.637632138,487,"10928 S WALLACE ST, CHICAGO, IL, 60628","Match","Exact","10928 S WALLACE ST, CHICAGO, IL, 60628",111833540,"R"
18488,"10929 CRESCENT LAKE COURT","CLERMONT","FL",34711,28.5119747530001,-81.7736605329999,488,"10929 CRESCENT LAKE COURT, CLERMONT, FL, 34711","Match","Exact","10929 CRESCENT LAKE CT, CLERMONT, FL, 34711",648281743,"L"
18489,"10929 FIRESTONE BLVD SUITE 130","NORWALK","CA",90650,33.922980313,-118.10068432,489,"10929 FIRESTONE BLVD SUITE 130, NORWALK, CA, 90650","Match","Exact","10929 FIRESTONE BLVD, NORWALK, CA, 90650",241246599,"L"
18490,"10929 FIRESTONE BLVD SUITE 161","NORWALK","CA",90650,33.922980313,-118.10068432,490,"10929 FIRESTONE BLVD SUITE 161, NORWALK, CA, 90650","Match","Exact","10929 FIRESTONE BLVD, NORWALK, CA, 90650",241246599,"L"
18491,"1093  COUNTY RD M PO BOX 412","ADAMS","WI",53910,NA,NA,491,"1093  COUNTY RD M PO BOX 412, ADAMS, WI, 53910","No_Match",NA,NA,NA,NA
18492,"1093 55TH AVE SOUTH","ST PETERSBURG","FL",33705,27.7186478090001,-82.649379884,492,"1093 55TH AVE SOUTH, ST PETERSBURG, FL, 33705","Match","Exact","1093 55TH AVE S, SAINT PETERSBURG, FL, 33705",124711293,"R"
18493,"1093 A1A BEACH BLVD STE 175","ST AUGUSTINE","FL",32080,29.827542458,-81.2712105809999,493,"1093 A1A BEACH BLVD STE 175, ST AUGUSTINE, FL, 32080","Match","Exact","1093 A1A BEACH BLVD, SAINT AUGUSTINE, FL, 32080",639679400,"R"
18494,"1093 A1A BEACH BLVD UNIT 348","SAINT AUGUSTINE","FL",32080,29.827542458,-81.2712105809999,494,"1093 A1A BEACH BLVD UNIT 348, SAINT AUGUSTINE, FL, 32080","Match","Exact","1093 A1A BEACH BLVD, SAINT AUGUSTINE, FL, 32080",639679400,"R"
18495,"1093 BLEIM RD","POTTSTOWN","PA",19464,40.27357614,-75.5955479359999,495,"1093 BLEIM RD, POTTSTOWN, PA, 19464","Match","Exact","1093 BLEIM RD, POTTSTOWN, PA, 19464",135063134,"L"
18496,"1093 BRANDON LANE","DANBURY","NC",27016,36.4814699520001,-80.245056846,496,"1093 BRANDON LANE, DANBURY, NC, 27016","Match","Exact","1093 BRANDON LN, DANBURY, NC, 27016",56340054,"L"
18497,"1093 BROADWAY AVE UNIT 905","SEASIDE","CA",93955,36.6091347940001,-121.843153615,497,"1093 BROADWAY AVE UNIT 905, SEASIDE, CA, 93955","Match","Exact","1093 BROADWAY AVE, SEASIDE, CA, 93955",196820186,"L"
18498,"1093 E GRAND AVE UNIT 102","POMONA","CA",91766,34.001819551,-117.813323574,498,"1093 E GRAND AVE UNIT 102, POMONA, CA, 91766","Match","Non_Exact","1093 GRAND AVE, POMONA, CA, 91765",241154720,"L"
18499,"1093 EAST WRIGHT WAY","SANDY","UT",84094,40.5781608290001,-111.859721366,499,"1093 EAST WRIGHT WAY, SANDY, UT, 84094","Match","Exact","1093 E WRIGHT WAY, SANDY, UT, 84094",639158499,"L"
18500,"1093 EISEHOWER PARKWAY","MACON","GA",31206,32.8144044630001,-83.6595233689999,500,"1093 EISEHOWER PARKWAY, MACON, GA, 31206","Match","Non_Exact","1093 EISENHOWER PKWY, MACON, GA, 31206",81085510,"L"
