"ID","Address","City","State","Zip","lat","long","id","input_address","match_indicator","match_type","matched_address","tiger_line_id","tiger_side"
32501,"11865 EDGEWOOD RD","AUBURN","CA",95602,38.9203130670001,-121.08335139,1,"11865 EDGEWOOD RD, AUBURN, CA, 95602","Match","Non_Exact","11865 EDGEWOOD RD, AUBURN, CA, 95603",106814110,"R"
32502,"11865 JOUETT STREET","LAKEVIEW TERRACE","CA",91342,34.283840748,-118.391932443,2,"11865 JOUETT STREET, LAKEVIEW TERRACE, CA, 91342","Match","Non_Exact","11865 JOUETT ST, LAKE VIEW TERRACE, CA, 91342",141551387,"R"
32503,"11865 LARCH ROAD","TRACY","CA",95304,37.7650211930001,-121.450942074,3,"11865 LARCH ROAD, TRACY, CA, 95304","Match","Non_Exact","11865 W LARCH RD, TRACY, CA, 95304",653690397,"R"
32504,"11865 PROVIDENCE ROAD","SHREVEPORT","LA",71129,32.312953212,-93.984203927,4,"11865 PROVIDENCE ROAD, SHREVEPORT, LA, 71129","Match","Exact","11865 PROVIDENCE RD, SHREVEPORT, LA, 71129",652864179,"R"
32505,"11865 SW 26TH STREET","MIAMI","FL",33175,25.745001045,-80.390448137,5,"11865 SW 26TH STREET, MIAMI, FL, 33175","Match","Exact","11865 SW 26TH ST, MIAMI, FL, 33175",635560696,"R"
32506,"11866 ESTY WAY","CARMEL","IN",46033,39.960701806,-86.074672681,6,"11866 ESTY WAY, CARMEL, IN, 46033","Match","Exact","11866 ESTY WAY, CARMEL, IN, 46033",29338885,"L"
32507,"11866 RIDGE RUN WAY","SAN DIEGO","CA",92131,32.9328591130001,-117.104240531,7,"11866 RIDGE RUN WAY, SAN DIEGO, CA, 92131","Match","Exact","11866 RIDGE RUN WAY, SAN DIEGO, CA, 92131",612873310,"L"
32508,"11868 CECIL DRIVE","WHITEWATER","CA",92282,33.971509322,-116.651069717,8,"11868 CECIL DRIVE, WHITEWATER, CA, 92282","Match","Exact","11868 CECIL DR, WHITEWATER, CA, 92282",630366162,"R"
32509,"11868 S SCENIC COVE","HERRIMAN","UT",84096,40.5354725890001,-111.993194195,9,"11868 S SCENIC COVE, HERRIMAN, UT, 84096","Match","Exact","11868 S SCENIC COVE, HERRIMAN, UT, 84096",624604903,"R"
32510,"11869 PERLITA PLACE","FONTANA","CA",92337,34.0384821120001,-117.493607652,10,"11869 PERLITA PLACE, FONTANA, CA, 92337","Match","Exact","11869 PERLITA PL, FONTANA, CA, 92337",144690605,"L"
32511,"11869 STATE ROUTE 124","PIKETON","OH",45661,39.0946646830001,-83.1851542859999,11,"11869 STATE ROUTE 124, PIKETON, OH, 45661","Match","Exact","11869 STATE RTE 124, PIKETON, OH, 45661",55064548,"L"
32512,"1187 1/2 W 38TH STREET","LOS ANGELES","CA",90037,34.017318087,-118.296158211,12,"1187 1/2 W 38TH STREET, LOS ANGELES, CA, 90037","Match","Exact","1187 W 38TH ST, LOS ANGELES, CA, 90037",142450711,"R"
32513,"1187 AYALA DR UNIT C","SUNNYVALE","CA",94086,37.3838469940001,-122.051608895,13,"1187 AYALA DR UNIT C, SUNNYVALE, CA, 94086","Match","Exact","1187 AYALA DR, SUNNYVALE, CA, 94086",122956392,"R"
32514,"1187 COAST VILLAGE ROAD NO 758","MONTECITO","CA",93108,34.421097434,-119.645289834,14,"1187 COAST VILLAGE ROAD NO 758, MONTECITO, CA, 93108","Match","Non_Exact","1187 COAST VILLAGE RD, MONTECITO, CA, 93108",108606691,"R"
32515,"1187 COAST VILLAGE ROAD STE 1-777","SANTA BARBARA","CA",93108,34.421097434,-119.645289834,15,"1187 COAST VILLAGE ROAD STE 1-777, SANTA BARBARA, CA, 93108","Match","Exact","1187 COAST VILLAGE RD, SANTA BARBARA, CA, 93108",108606691,"R"
32516,"1187 CULVER RD","ROCHESTER","NY",14609,43.1670477850001,-77.5623085239999,16,"1187 CULVER RD, ROCHESTER, NY, 14609","Match","Exact","1187 CULVER RD, ROCHESTER, NY, 14609",14542069,"L"
32517,"1187 CULVER ROAD","ROCHESTER","NY",14609,43.1670477850001,-77.5623085239999,17,"1187 CULVER ROAD, ROCHESTER, NY, 14609","Match","Exact","1187 CULVER RD, ROCHESTER, NY, 14609",14542069,"L"
32518,"1187 E RUTH AVE","FLINT","MI",48505,43.0703509200001,-83.681582673,18,"1187 E RUTH AVE, FLINT, MI, 48505","Match","Exact","1187 E RUTH AVE, FLINT, MI, 48505",69604132,"L"
32519,"1187 HAVEN HEIGHTS DRIVE","BEDFORD","VA",24523,37.3468009960001,-79.578213573,19,"1187 HAVEN HEIGHTS DRIVE, BEDFORD, VA, 24523","Match","Exact","1187 HAVEN HEIGHTS DR, BEDFORD, VA, 24523",228467436,"L"
32520,"1187 HEMSLEY DR","FAYETTEVILLE","NC",28390,NA,NA,20,"1187 HEMSLEY DR, FAYETTEVILLE, NC, 28390","No_Match",NA,NA,NA,NA
32521,"1187 MAIN AVE SUITE 1G","CLIFTON","NJ",7011,40.8759155550001,-74.140177433,21,"1187 MAIN AVE SUITE 1G, CLIFTON, NJ, 7011","Match","Exact","1187 MAIN AVE, CLIFTON, NJ, 07011",65266792,"L"
32522,"1187 MCGREGOR DR","EAU CLAIRE","WI",54703,44.8268785010001,-91.4095162099999,22,"1187 MCGREGOR DR, EAU CLAIRE, WI, 54703","Match","Exact","1187 MCGREGOR DR, EAU CLAIRE, WI, 54703",46077814,"L"
32523,"1187 MILL BROOK CIRCLE","SHEPHERDSVILLE","KY",40165,38.0349857150001,-85.6225740519999,23,"1187 MILL BROOK CIRCLE, SHEPHERDSVILLE, KY, 40165","Match","Exact","1187 MILL BROOK CIR, SHEPHERDSVILLE, KY, 40165",47753085,"R"
32524,"1187 N 1200 W STE 300","OREM","UT",84057,NA,NA,24,"1187 N 1200 W STE 300, OREM, UT, 84057","No_Match",NA,NA,NA,NA
32525,"1187 N WILLOW AVE STE 103 UNIT 299","CLOVIS","CA",93611,NA,NA,25,"1187 N WILLOW AVE STE 103 UNIT 299, CLOVIS, CA, 93611","No_Match",NA,NA,NA,NA
32526,"1187 N WILLOW STE 103 PMB 10","CLOVIS","CA",93611,NA,NA,26,"1187 N WILLOW STE 103 PMB 10, CLOVIS, CA, 93611","No_Match",NA,NA,NA,NA
32527,"1187 NE 10TH STREET","CHOCTAW","OK",73020,NA,NA,27,"1187 NE 10TH STREET, CHOCTAW, OK, 73020","No_Match",NA,NA,NA,NA
32528,"1187 OAKLAND LN SW APT A","ATLANTA","GA",30310,33.719572602,-84.4264794709999,28,"1187 OAKLAND LN SW APT A, ATLANTA, GA, 30310","Match","Exact","1187 OAKLAND LN SW, ATLANTA, GA, 30310",17345130,"R"
32529,"1187 PINE HOLLOW ROAD","MCKEES ROCKS","PA",15136,40.4724768190001,-80.0809238479999,29,"1187 PINE HOLLOW ROAD, MCKEES ROCKS, PA, 15136","Match","Non_Exact","1187 PINE HOLLOW RD, MC KEES ROCKS, PA, 15136",51615018,"L"
32530,"1187 ROUTE 23A SUITE 2","CATSKILL","NY",12414,42.195272549,-73.975836355,30,"1187 ROUTE 23A SUITE 2, CATSKILL, NY, 12414","Match","Non_Exact","1187 STATE RTE 23A, CATSKILL, NY, 12414",35672292,"R"
32531,"1187 S ARTHUR RD","PARAGON","IN",46166,39.412863488,-86.606173498,31,"1187 S ARTHUR RD, PARAGON, IN, 46166","Match","Exact","1187 ARTHUR RD, PARAGON, IN, 46166",641435245,"R"
32532,"1187 SHINING WATER LANE","CREEDMOOR","NC",27522,36.113431721,-78.7310346949999,32,"1187 SHINING WATER LANE, CREEDMOOR, NC, 27522","Match","Non_Exact","1187 SHINNING WATER LN, CREEDMOOR, NC, 27522",651379622,"L"
32533,"1187 SOUTH BELLEVUE","MEMPHIS","TN",38106,35.11442527,-90.0217012259999,33,"1187 SOUTH BELLEVUE, MEMPHIS, TN, 38106","Match","Non_Exact","1187 S BELLEVUE BLVD, MEMPHIS, TN, 38106",72908678,"R"
32534,"1187 TROY SCHENECTADY RD","LATHAM","NY",12110,42.769729786,-73.8199097529999,34,"1187 TROY SCHENECTADY RD, LATHAM, NY, 12110","Match","Exact","1187 TROY SCHENECTADY RD, LATHAM, NY, 12110",18351269,"R"
32535,"1187 WESTVIEW DRIVE","ATLANTA","GA",30310,33.747299717,-84.426352018,35,"1187 WESTVIEW DRIVE, ATLANTA, GA, 30310","Match","Non_Exact","1187 WESTVIEW DR SW, ATLANTA, GA, 30310",17342551,"R"
32536,"1187 WOODLAKE ROAD","STAMPING GROUND","KY",40379,38.265502172,-84.692453402,36,"1187 WOODLAKE ROAD, STAMPING GROUND, KY, 40379","Match","Exact","1187 WOODLAKE RD, STAMPING GROUND, KY, 40379",633622739,"L"
32537,"1187","PITTSBURGH","PA",15243,NA,NA,37,"1187, PITTSBURGH, PA, 15243","No_Match",NA,NA,NA,NA
32538,"11870 GREENLOCH LN","HOUSTON","TX",77044,29.8950797580001,-95.223517696,38,"11870 GREENLOCH LN, HOUSTON, TX, 77044","Match","Exact","11870 GREENLOCH LN, HOUSTON, TX, 77044",96554145,"L"
32539,"11870 SANTA MONICA  SUITE 106688","SANTA MONICA","CA",90025,NA,NA,39,"11870 SANTA MONICA  SUITE 106688, SANTA MONICA, CA, 90025","No_Match",NA,NA,NA,NA
32540,"11870 WEST DIXIE HIGHWAY","NORTH MIAMI","FL",33161,25.884700137,-80.19272047,40,"11870 WEST DIXIE HIGHWAY, NORTH MIAMI, FL, 33161","Match","Exact","11870 W DIXIE HWY, NORTH MIAMI, FL, 33161",116056796,"L"
32541,"11871 IONA ROAD","FORT MYERS","FL",33908,26.519760891,-81.949736991,41,"11871 IONA ROAD, FORT MYERS, FL, 33908","Match","Exact","11871 IONA RD, FORT MYERS, FL, 33908",118016917,"L"
32542,"11871 RAINTREE DRIVE","TEMPLE TERRACE","FL",33617,28.058181103,-82.384625576,42,"11871 RAINTREE DRIVE, TEMPLE TERRACE, FL, 33617","Match","Exact","11871 RAINTREE DR, TEMPLE TER, FL, 33617",104567121,"L"
32543,"11872 VIA LUCERNA CIRCLE","WINDERMERE","FL",34786,28.52908575,-81.550080281,43,"11872 VIA LUCERNA CIRCLE, WINDERMERE, FL, 34786","Match","Exact","11872 VIA LUCERNA CIR, WINDERMERE, FL, 34786",94414857,"L"
32544,"11872 W ALVARADO","AVONDALE","AZ",85392,33.469613963,-112.314179635,44,"11872 W ALVARADO, AVONDALE, AZ, 85392","Match","Non_Exact","11872 W ALVARADO RD, AVONDALE, AZ, 85392",601620128,"L"
32545,"11872 WILSHIRE BLVD","LOS ANGELES","CA",90025,34.04683629,-118.464086377,45,"11872 WILSHIRE BLVD, LOS ANGELES, CA, 90025","Match","Exact","11872 WILSHIRE BLVD, LOS ANGELES, CA, 90025",141568346,"L"
32546,"11874 CYPRESS CANYON RD UNIT 2","SAN DIEGO","CA",92131,32.933180755,-117.084314782,46,"11874 CYPRESS CANYON RD UNIT 2, SAN DIEGO, CA, 92131","Match","Exact","11874 CYPRESS CANYON RD, SAN DIEGO, CA, 92131",645311662,"L"
32547,"11874 ONTARIO DRIVE","STERLING HEIGHTS","MI",48313,42.6164504930001,-83.009752068,47,"11874 ONTARIO DRIVE, STERLING HEIGHTS, MI, 48313","Match","Exact","11874 ONTARIO DR, STERLING HEIGHTS, MI, 48313",110660013,"R"
32548,"11874 SCRIPPS CREEK DRIVE","SAN DIEGO","CA",92131,32.934176746,-117.089395387,48,"11874 SCRIPPS CREEK DRIVE, SAN DIEGO, CA, 92131","Match","Exact","11874 SCRIPPS CREEK DR, SAN DIEGO, CA, 92131",195660756,"L"
32549,"11875 80TH AVE N APT 104","MAPLE GROVE","MN",55369,45.098921805,-93.4302460599999,49,"11875 80TH AVE N APT 104, MAPLE GROVE, MN, 55369","Match","Exact","11875 80TH AVE N, MAPLE GROVE, MN, 55369",646667084,"L"
32550,"11875 HEDGESTONE COURT","NAPLES","FL",34120,26.2928473010001,-81.635697491,50,"11875 HEDGESTONE COURT, NAPLES, FL, 34120","Match","Exact","11875 HEDGESTONE CT, NAPLES, FL, 34120",648620654,"L"
32551,"11875 PIGEON PASS RD  B13 410","MORENO VALLEY","CA",92557,33.948535986,-117.261480539,51,"11875 PIGEON PASS RD  B13 410, MORENO VALLEY, CA, 92557","Match","Exact","11875 PIGEON PASS RD, MORENO VALLEY, CA, 92557",639968894,"R"
32552,"11875 PIGEON PASS RD STE B13 NO 210","MORENO VALLEY","CA",92557,33.948535986,-117.261480539,52,"11875 PIGEON PASS RD STE B13 NO 210, MORENO VALLEY, CA, 92557","Match","Exact","11875 PIGEON PASS RD, MORENO VALLEY, CA, 92557",639968894,"R"
32553,"11875 PIGEON PASS RD SUITE B13","MORENO VALLEY","CA",92557,33.948535986,-117.261480539,53,"11875 PIGEON PASS RD SUITE B13, MORENO VALLEY, CA, 92557","Match","Exact","11875 PIGEON PASS RD, MORENO VALLEY, CA, 92557",639968894,"R"
32554,"11875 SE 1ST ST RD","SILVER SPRINGS","FL",34468,NA,NA,54,"11875 SE 1ST ST RD, SILVER SPRINGS, FL, 34468","No_Match",NA,NA,NA,NA
32555,"11875 SW 73RD AVE","MIAMI","FL",33156,25.6603383780001,-80.312753715,55,"11875 SW 73RD AVE, MIAMI, FL, 33156","Match","Exact","11875 SW 73RD AVE, MIAMI, FL, 33156",115985198,"L"
32556,"11877 DOUGLAD ROAD SUITE 102-139","JOHNS CREEK","GA",30005,NA,NA,56,"11877 DOUGLAD ROAD SUITE 102-139, JOHNS CREEK, GA, 30005","No_Match",NA,NA,NA,NA
32557,"11877 DOUGLAS RD SUITE 102-295","JOHNS CREEK","GA",30005,34.08084575,-84.205823095,57,"11877 DOUGLAS RD SUITE 102-295, JOHNS CREEK, GA, 30005","Match","Exact","11877 DOUGLAS RD, JOHNS CREEK, GA, 30005",640546510,"R"
32558,"11877 DOUGLAS ROAD STE 102 262","ALPHARETTA","GA",30005,34.08084575,-84.205823095,58,"11877 DOUGLAS ROAD STE 102 262, ALPHARETTA, GA, 30005","Match","Exact","11877 DOUGLAS RD, ALPHARETTA, GA, 30005",640546510,"R"
32559,"11877 DOUGLAS ROAD STE 102-291","JOHNS CREEK","GA",30005,34.08084575,-84.205823095,59,"11877 DOUGLAS ROAD STE 102-291, JOHNS CREEK, GA, 30005","Match","Exact","11877 DOUGLAS RD, JOHNS CREEK, GA, 30005",640546510,"R"
32560,"11877 DOUGLAS ROAD SUITE 102239","JOHNS CREEK","GA",30005,34.08084575,-84.205823095,60,"11877 DOUGLAS ROAD SUITE 102239, JOHNS CREEK, GA, 30005","Match","Exact","11877 DOUGLAS RD, JOHNS CREEK, GA, 30005",640546510,"R"
32561,"11877 HOLABIRD LANE","WALDORF","MD",20601,38.645923645,-76.897942281,61,"11877 HOLABIRD LANE, WALDORF, MD, 20601","Match","Exact","11877 HOLABIRD LN, WALDORF, MD, 20601",25391880,"R"
32562,"11878 175TH PL NE","REDMOND","WA",98052,47.706652192,-122.105826161,62,"11878 175TH PL NE, REDMOND, WA, 98052","Match","Exact","11878 175TH PL NE, REDMOND, WA, 98052",633784493,"L"
32563,"11879 S SKYVIEW LANE","OLATHE","KS",66061,38.9134863470001,-94.80752222,63,"11879 S SKYVIEW LANE, OLATHE, KS, 66061","Match","Exact","11879 S SKYVIEW LN, OLATHE, KS, 66061",91335203,"L"
32564,"1188 90TH STREET EAST","INVER GROVE HEIGHTS","MN",55077,44.818590671,-93.080131931,64,"1188 90TH STREET EAST, INVER GROVE HEIGHTS, MN, 55077","Match","Exact","1188 90TH ST E, INVER GROVE HEIGHTS, MN, 55077",37940894,"L"
32565,"1188 AGRICULTURAL ROAD","DELTA JUNCTION","AK",99737,NA,NA,65,"1188 AGRICULTURAL ROAD, DELTA JUNCTION, AK, 99737","No_Match",NA,NA,NA,NA
32566,"1188 AUDREY RD","MANNING","SC",29102,33.713271424,-80.282500149,66,"1188 AUDREY RD, MANNING, SC, 29102","Match","Exact","1188 AUDREY RD, MANNING, SC, 29102",632045259,"R"
32567,"1188 BISHOP STREET  SUITE 2308","HONOLULU","HI",96813,21.3099535370001,-157.859491025,67,"1188 BISHOP STREET  SUITE 2308, HONOLULU, HI, 96813","Match","Exact","1188 BISHOP ST, HONOLULU, HI, 96813",607836492,"L"
32568,"1188 BISHOP STREET STE 1406","HONOLULU","HI",96813,21.3099535370001,-157.859491025,68,"1188 BISHOP STREET STE 1406, HONOLULU, HI, 96813","Match","Exact","1188 BISHOP ST, HONOLULU, HI, 96813",607836492,"L"
32569,"1188 BISHOP STREET SUITE 702","HONOLULU","HI",96813,21.3099535370001,-157.859491025,69,"1188 BISHOP STREET SUITE 702, HONOLULU, HI, 96813","Match","Exact","1188 BISHOP ST, HONOLULU, HI, 96813",607836492,"L"
32570,"1188 BISHOP STREET SUITE 906","HONOLULU","HI",96813,21.3099535370001,-157.859491025,70,"1188 BISHOP STREET SUITE 906, HONOLULU, HI, 96813","Match","Exact","1188 BISHOP ST, HONOLULU, HI, 96813",607836492,"L"
32571,"1188 BISHOP STREET SUITE1009","HONOLULU","HI",96813,21.3099535370001,-157.859491025,71,"1188 BISHOP STREET SUITE1009, HONOLULU, HI, 96813","Match","Exact","1188 BISHOP ST, HONOLULU, HI, 96813",607836492,"L"
32572,"1188 CANTINA DRIVE","CHESTERFIELD","MO",63141,38.6813701290001,-90.490476034,72,"1188 CANTINA DRIVE, CHESTERFIELD, MO, 63141","Match","Non_Exact","1188 CANTINA DR, SAINT LOUIS, MO, 63141",100122991,"R"
32573,"1188 CATHCART CIRCLE","SANFORD","FL",32771,28.8267296880001,-81.3417568579999,73,"1188 CATHCART CIRCLE, SANFORD, FL, 32771","Match","Exact","1188 CATHCART CIR, SANFORD, FL, 32771",633976460,"L"
32574,"1188 CENTRE STREET","NEWTON","MA",2459,42.3316377140001,-71.194553511,74,"1188 CENTRE STREET, NEWTON, MA, 2459","Match","Exact","1188 CENTRE ST, NEWTON, MA, 02459",86866028,"L"
32575,"1188 COLE THOMAS RD","MCCOMB","MS",39648,31.2467444550001,-90.4257600719999,75,"1188 COLE THOMAS RD, MCCOMB, MS, 39648","Match","Exact","1188 COLE THOMAS RD, MCCOMB, MS, 39648",649829409,"R"
32576,"1188 E 9TH STREET","EDDYSTONE","PA",19022,39.8585834,-75.34491331,76,"1188 E 9TH STREET, EDDYSTONE, PA, 19022","Match","Exact","1188 E 9TH ST, EDDYSTONE, PA, 19022",134882107,"L"
32577,"1188 FLEMING FALLS","MANSFIELD","OH",44905,40.7907583420001,-82.471147937,77,"1188 FLEMING FALLS, MANSFIELD, OH, 44905","Match","Non_Exact","1188 FLEMING FALLS RD, MANSFIELD, OH, 44905",207220649,"R"
32578,"1188 HILLCREST LANE","WOODRIDGE","IL",60517,NA,NA,78,"1188 HILLCREST LANE, WOODRIDGE, IL, 60517","No_Match",NA,NA,NA,NA
32579,"1188 MISTY MEADOWS LANE","HAMPTON","GA",30228,33.462905967,-84.354595264,79,"1188 MISTY MEADOWS LANE, HAMPTON, GA, 30228","Match","Exact","1188 MISTY MEADOWS LN, HAMPTON, GA, 30228",644924245,"L"
32580,"1188 NORTH  TAMIAMI TRAIL  STE 101","SARASOTA","FL",34236,27.348415946,-82.5469192479999,80,"1188 NORTH  TAMIAMI TRAIL  STE 101, SARASOTA, FL, 34236","Match","Exact","1188 N TAMIAMI TRL, SARASOTA, FL, 34236",16347225,"R"
32581,"1188 NORTHPORT DRIVE","COLUMBUS","OH",43235,40.0707229540001,-83.05100501,81,"1188 NORTHPORT DRIVE, COLUMBUS, OH, 43235","Match","Exact","1188 NORTHPORT DR, COLUMBUS, OH, 43235",218686056,"R"
32582,"1188 PEREGRINE WAY","WESTON","FL",33327,26.1182864240001,-80.422142487,82,"1188 PEREGRINE WAY, WESTON, FL, 33327","Match","Exact","1188 PEREGRINE WAY, WESTON, FL, 33327",114814391,"L"
32583,"1188 SHIRLEY RD","LEON","WV",25123,38.8525888660001,-81.926263214,83,"1188 SHIRLEY RD, LEON, WV, 25123","Match","Exact","1188 SHIRLEY RD, LEON, WV, 25123",101834016,"R"
32584,"1188 SOUTH 2430 WEST","SYRACUSE","UT",84075,41.0964279620001,-112.072193554,84,"1188 SOUTH 2430 WEST, SYRACUSE, UT, 84075","Match","Non_Exact","1188 2430 W, SYRACUSE, UT, 84075",155338995,"R"
32585,"1188 TREEWAY","SPARTA","MI",49345,NA,NA,85,"1188 TREEWAY, SPARTA, MI, 49345","No_Match",NA,NA,NA,NA
32586,"1188 WINDSOR DR","RIVER HEIGHTS","UT",84321,41.7234157230001,-111.804798825,86,"1188 WINDSOR DR, RIVER HEIGHTS, UT, 84321","Match","Exact","1188 WINDSOR DR, RIVER HEIGHTS, UT, 84321",647347187,"R"
32587,"1188","IUKA","MS",38852,NA,NA,87,"1188, IUKA, MS, 38852","No_Match",NA,NA,NA,NA
32588,"11880 COPPOCK ROAD","LAURA","OH",45337,39.985090717,-84.425023147,88,"11880 COPPOCK ROAD, LAURA, OH, 45337","Match","Exact","11880 COPPOCK RD, LAURA, OH, 45337",207641536,"L"
32589,"11880 GROUSE COVEY LANE","ARBOR VITAE","WI",54568,NA,NA,89,"11880 GROUSE COVEY LANE, ARBOR VITAE, WI, 54568","No_Match",NA,NA,NA,NA
32590,"11880 IJUANA LN","GALT","CA",95632,38.332055752,-121.236257762,90,"11880 IJUANA LN, GALT, CA, 95632","Match","Exact","11880 IJUANA LN, GALT, CA, 95632",133368325,"R"
32591,"11880 S SUNSET DRIVE","OLATHE","KS",66061,38.9179281150001,-94.80079968,91,"11880 S SUNSET DRIVE, OLATHE, KS, 66061","Match","Exact","11880 S SUNSET DR, OLATHE, KS, 66061",653241185,"L"
32592,"11880 W 13TH AVE","GOLDEN","CO",80401,39.7365350760001,-105.131438078,92,"11880 W 13TH AVE, GOLDEN, CO, 80401","Match","Exact","11880 W 13TH AVE, GOLDEN, CO, 80401",177286622,"L"
32593,"11881 N 79 DR","PEORIA","AZ",85345,33.592761239,-112.230060072,93,"11881 N 79 DR, PEORIA, AZ, 85345","Match","Exact","11881 N 79TH DR, PEORIA, AZ, 85345",128173910,"R"
32594,"11881 W ARCH ST","BOISE","ID",83713,43.632883549,-116.330161106,94,"11881 W ARCH ST, BOISE, ID, 83713","Match","Exact","11881 ARCH ST, BOISE, ID, 83713",117854316,"L"
32595,"11882 IVERSON STREET","VICTORVILLE","CA",92392,34.4820487550001,-117.404491118,95,"11882 IVERSON STREET, VICTORVILLE, CA, 92392","Match","Exact","11882 IVERSON ST, VICTORVILLE, CA, 92392",614841311,"L"
32596,"11882 ROCIO ST APT 1705","FORT MYERS","FL",33912,26.5706565030001,-81.816600305,96,"11882 ROCIO ST APT 1705, FORT MYERS, FL, 33912","Match","Exact","11882 ROCIO ST, FORT MYERS, FL, 33912",618031080,"R"
32597,"11883 129TH TERRACE N","LARGO","FL",33778,27.8905496530001,-82.803285065,97,"11883 129TH TERRACE N, LARGO, FL, 33778","Match","Exact","11883 129TH TER N, LARGO, FL, 33778",124673381,"R"
32598,"11883 BECKENHAM ROAD","NORTH ROYALTON","OH",44133,41.2798401540001,-81.770995246,98,"11883 BECKENHAM ROAD, NORTH ROYALTON, OH, 44133","Match","Exact","11883 BECKENHAM RD, N ROYALTON, OH, 44133",61152882,"R"
32599,"11883 BLUE FEBRUARY WAY","COLUMBIA","MD",21044,39.2072022520001,-76.903444436,99,"11883 BLUE FEBRUARY WAY, COLUMBIA, MD, 21044","Match","Exact","11883 BLUE FEBRUARY WAY, COLUMBIA, MD, 21044",158921946,"L"
32600,"11885 NEW COUNTRY LANE","COLUMBIA","MD",21044,39.20621299,-76.9026639479999,100,"11885 NEW COUNTRY LANE, COLUMBIA, MD, 21044","Match","Exact","11885 NEW COUNTRY LN, COLUMBIA, MD, 21044",623718611,"L"
32601,"11886 ALEXANDRA DRIVE","JACKSONVILLE","FL",32218,NA,NA,101,"11886 ALEXANDRA DRIVE, JACKSONVILLE, FL, 32218","No_Match",NA,NA,NA,NA
32602,"11887 FALLING CREEK DRIVE","MANASSAS","VA",20112,38.7020002790001,-77.428029454,102,"11887 FALLING CREEK DRIVE, MANASSAS, VA, 20112","Match","Exact","11887 FALLING CREEK DR, MANASSAS, VA, 20112",207162147,"R"
32603,"11887 VILLA HERMOSA","MORENO VALLEY","CA",92557,33.9489782000001,-117.222766388,103,"11887 VILLA HERMOSA, MORENO VALLEY, CA, 92557","Match","Exact","11887 VILLA HERMOSA, MORENO VALLEY, CA, 92557",194790578,"L"
32604,"11888 DOUGLAS RD","TEMPERANCE","MI",48182,41.8307678720001,-83.609119031,104,"11888 DOUGLAS RD, TEMPERANCE, MI, 48182","Match","Exact","11888 DOUGLAS RD, TEMPERANCE, MI, 48182",40482885,"L"
32605,"11888 GADWALL DR","JURUPA VALLEY","CA",91752,33.979229124,-117.541583927,105,"11888 GADWALL DR, JURUPA VALLEY, CA, 91752","Match","Exact","11888 GADWALL DR, JURUPA VALLEY, CA, 91752",646289733,"R"
32606,"1189 34TH AVE NW","SALEM","OR",97304,44.9510531130001,-123.098720605,106,"1189 34TH AVE NW, SALEM, OR, 97304","Match","Exact","1189 34TH AVE NW, SALEM, OR, 97304",155778393,"L"
32607,"1189 BLACKBURN DRIVE","GRAYSLAKE","IL",60030,42.3520676320001,-88.021258787,107,"1189 BLACKBURN DRIVE, GRAYSLAKE, IL, 60030","Match","Exact","1189 BLACKBURN DR, GRAYSLAKE, IL, 60030",119674613,"R"
32608,"1189 BRIARWOOD DR","WILLIAMSTOWN","NJ",8094,39.6545001480001,-74.986336934,108,"1189 BRIARWOOD DR, WILLIAMSTOWN, NJ, 8094","Match","Exact","1189 BRIARWOOD DR, WILLIAMSTOWN, NJ, 08094",134608708,"L"
32609,"1189 COHEN DRIVE","HEMINGWAY","SC",29554,33.677922117,-79.232632869,109,"1189 COHEN DRIVE, HEMINGWAY, SC, 29554","Match","Exact","1189 COHEN DR, HEMINGWAY, SC, 29554",28977160,"L"
32610,"1189 E 35TH ST","LOS  ANGELES","CA",90011,34.01197197,-118.254466239,110,"1189 E 35TH ST, LOS  ANGELES, CA, 90011","Match","Exact","1189 E 35TH ST, LOS ANGELES, CA, 90011",141620041,"L"
32611,"1189 HONEY CREEK ROAD SE","CONYERS","GA",30013,33.5964184060001,-84.007731757,111,"1189 HONEY CREEK ROAD SE, CONYERS, GA, 30013","Match","Exact","1189 HONEY CREEK RD SE, CONYERS, GA, 30013",619876405,"L"
32612,"1189 LANCASTER AVENUE SUITE 202","BERWYN","PA",19312,40.042957474,-75.45375906,112,"1189 LANCASTER AVENUE SUITE 202, BERWYN, PA, 19312","Match","Exact","1189 LANCASTER AVE, BERWYN, PA, 19312",179541521,"R"
32613,"1189 MOUNT ZION ROAD","OXFORD","GA",30054,33.674983098,-83.910070376,113,"1189 MOUNT ZION ROAD, OXFORD, GA, 30054","Match","Exact","1189 MOUNT ZION RD, OXFORD, GA, 30054",23626221,"L"
32614,"1189 MT ZION ROAD","OXFORD","GA",30054,33.674983098,-83.910070376,114,"1189 MT ZION ROAD, OXFORD, GA, 30054","Match","Exact","1189 MOUNT ZION RD, OXFORD, GA, 30054",23626221,"L"
32615,"1189 N OLIVER RD","BELLE PLAINE","KS",67013,37.4336684840001,-97.2765005049999,115,"1189 N OLIVER RD, BELLE PLAINE, KS, 67013","Match","Exact","1189 N OLIVER RD, BELLE PLAINE, KS, 67013",115835067,"L"
32616,"1189 NE 75","KNOB NOSTER","MO",65336,38.7637685670001,-93.521270806,116,"1189 NE 75, KNOB NOSTER, MO, 65336","Match","Exact","1189 NE 75, KNOB NOSTER, MO, 65336",95374071,"R"
32617,"1189 RIVER ROCK DR","KENNEDALE","TX",76060,32.6445937600001,-97.209873348,117,"1189 RIVER ROCK DR, KENNEDALE, TX, 76060","Match","Exact","1189 RIVER ROCK DR, KENNEDALE, TX, 76060",612159860,"L"
32618,"1189 RUSTLING PINES BOULEVARD","MIDWAY","FL",32343,30.509936569,-84.4787567179999,118,"1189 RUSTLING PINES BOULEVARD, MIDWAY, FL, 32343","Match","Exact","1189 RUSTLING PINES BLVD, MIDWAY, FL, 32343",627388013,"R"
32619,"1189 SOUTH VAN NESS","SAN FRANCISCO","CA",94110,37.754235835,-122.416429084,119,"1189 SOUTH VAN NESS, SAN FRANCISCO, CA, 94110","Match","Non_Exact","1189 S VAN NESS AVE, SAN FRANCISCO, CA, 94110",192288328,"L"
32620,"1189 SPRING CREEK DRIVE","RIPON","CA",95366,37.744389568,-121.11092821,120,"1189 SPRING CREEK DRIVE, RIPON, CA, 95366","Match","Exact","1189 SPRING CREEK DR, RIPON, CA, 95366",133869413,"L"
32621,"1189 TENNESSEE STREET ROOM 102","SAN FRANCISCO","CA",94107,37.756611643,-122.389119989,121,"1189 TENNESSEE STREET ROOM 102, SAN FRANCISCO, CA, 94107","Match","Exact","1189 TENNESSEE ST, SAN FRANCISCO, CA, 94107",192289708,"L"
32622,"1189 WEST 700 SOUTH","SALT LAKE CITY","UT",84104,40.7540951670001,-111.92545538,122,"1189 WEST 700 SOUTH, SALT LAKE CITY, UT, 84104","Match","Exact","1189 W 700 S, SALT LAKE CITY, UT, 84104",176071476,"L"
32623,"1189 WORTHINGTON HEIGHTS BLVD","COLUMBUS","OH",43235,40.110229421,-83.0495230769999,123,"1189 WORTHINGTON HEIGHTS BLVD, COLUMBUS, OH, 43235","Match","Exact","1189 WORTHINGTON HEIGHTS BLVD, COLUMBUS, OH, 43235",218661925,"L"
32624,"11890 DRIFTWOOD ROAD","EDEN PRAIRIE","MN",55344,44.888294902,-93.428390893,124,"11890 DRIFTWOOD ROAD, EDEN PRAIRIE, MN, 55344","Match","Exact","11890 DRIFTWOOD RD, EDEN PRAIRIE, MN, 55344",43837906,"L"
32625,"11890 SUNRISE VALLEY DR STE 202","RESTON","VA",20191,38.9457498840001,-77.3581765069999,125,"11890 SUNRISE VALLEY DR STE 202, RESTON, VA, 20191","Match","Exact","11890 SUNRISE VALLEY DR, RESTON, VA, 20191",638252125,"R"
32626,"11890 SUNRISE VALLEY DR STE 569","RESTON","VA",20191,38.9457498840001,-77.3581765069999,126,"11890 SUNRISE VALLEY DR STE 569, RESTON, VA, 20191","Match","Exact","11890 SUNRISE VALLEY DR, RESTON, VA, 20191",638252125,"R"
32627,"11891 US HIGHWAY 1 STE 100","NORTH PALM BEACH","FL",33408,NA,NA,127,"11891 US HIGHWAY 1 STE 100, NORTH PALM BEACH, FL, 33408","No_Match",NA,NA,NA,NA
32628,"11892 GLENHOPE RD","SAN DIEGO","CA",92128,32.948925736,-117.076657408,128,"11892 GLENHOPE RD, SAN DIEGO, CA, 92128","Match","Exact","11892 GLENHOPE RD, SAN DIEGO, CA, 92128",195660269,"L"
32629,"11892 HAWLEY LANE","HUNTLEY","IL",60142,42.1922144430001,-88.4274590109999,129,"11892 HAWLEY LANE, HUNTLEY, IL, 60142","Match","Exact","11892 HAWLEY LN, HUNTLEY, IL, 60142",612920953,"L"
32630,"11893 S GRAYCLIFF RD","RIVERTON","UT",84096,40.5352110050001,-111.987018451,130,"11893 S GRAYCLIFF RD, RIVERTON, UT, 84096","Match","Exact","11893 S GRAYCLIFF RD, RIVERTON, UT, 84096",651968520,"L"
32631,"11894 CEDARWOOD AVENUE","NORTHPORT","AL",35475,33.3023860370001,-87.5884829939999,131,"11894 CEDARWOOD AVENUE, NORTHPORT, AL, 35475","Match","Exact","11894 CEDARWOOD AVE, NORTHPORT, AL, 35475",82159381,"R"
32632,"11894 CHARLTON RD","MADERA","CA",93636,36.921575884,-119.89117992,132,"11894 CHARLTON RD, MADERA, CA, 93636","Match","Exact","11894 CHARLTON RD, MADERA, CA, 93636",102335042,"L"
32633,"11894 FARLAND AVE NE","CEDAR SPRINGS","MI",49319,43.1801260170001,-85.470325029,133,"11894 FARLAND AVE NE, CEDAR SPRINGS, MI, 49319","Match","Exact","11894 FARLAND AVE NE, CEDAR SPRINGS, MI, 49319",12447848,"R"
32634,"11895 HWY 34","ATLANTA","LA",71404,31.814986812,-92.727354803,134,"11895 HWY 34, ATLANTA, LA, 71404","Match","Exact","11895 HWY 34, ATLANTA, LA, 71404",119017288,"R"
32635,"118951","CARROLLTON","TX",75001,NA,NA,135,"118951, CARROLLTON, TX, 75001","No_Match",NA,NA,NA,NA
32636,"11896 CAMPO SECO ROAD","SONORA","CA",95370,37.9627442830001,-120.385960465,136,"11896 CAMPO SECO ROAD, SONORA, CA, 95370","Match","Exact","11896 CAMPO SECO RD, SONORA, CA, 95370",101373342,"L"
32637,"11897 BENHAM ROAD","SAINT LOUIS","MO",63138,38.7899474280001,-90.232993822,137,"11897 BENHAM ROAD, SAINT LOUIS, MO, 63138","Match","Exact","11897 BENHAM RD, SAINT LOUIS, MO, 63138",100148579,"L"
32638,"11898 HALCYON LOOP","DAPHNE","AL",36526,30.579897918,-87.826260713,138,"11898 HALCYON LOOP, DAPHNE, AL, 36526","Match","Exact","11898 HALCYON LOOP, DAPHNE, AL, 36526",131735109,"L"
32639,"11898 HITCHING POST TRAIL","PARKER","CO",80134,NA,NA,139,"11898 HITCHING POST TRAIL, PARKER, CO, 80134","Tie",NA,NA,NA,NA
32640,"1189A VICTORY HIGHWAY","OAKLAND","RI",2858,41.957811577,-71.646833551,140,"1189A VICTORY HIGHWAY, OAKLAND, RI, 2858","Match","Exact","1189 VICTORY HWY, OAKLAND, RI, 02858",47487100,"R"
32641,"118B NORTH CONISTOR NO 142","LIBERTY","MO",64068,NA,NA,141,"118B NORTH CONISTOR NO 142, LIBERTY, MO, 64068","No_Match",NA,NA,NA,NA
32642,"118B TAMPA AVE","SAN ANTONIO","TX",78211,29.3727802510001,-98.555384561,142,"118B TAMPA AVE, SAN ANTONIO, TX, 78211","Match","Exact","118 TAMPA AVE, SAN ANTONIO, TX, 78211",101519765,"R"
32643,"119 1/2 EAST MONTFORD AVE","ADA","OH",45810,40.773417769,-83.822833499,143,"119 1/2 EAST MONTFORD AVE, ADA, OH, 45810","Match","Exact","119 E MONTFORD AVE, ADA, OH, 45810",36519778,"L"
32644,"119 1/2 W 9TH AVE","TARENTUM","PA",15084,40.6021738860001,-79.761036363,144,"119 1/2 W 9TH AVE, TARENTUM, PA, 15084","Match","Exact","119 W 9TH AVE, TARENTUM, PA, 15084",51663949,"L"
32645,"119 37TH AVE E","WEST FARGO","ND",58078,46.8249934570001,-96.902279836,145,"119 37TH AVE E, WEST FARGO, ND, 58078","Match","Exact","119 37TH AVE E, WEST FARGO, ND, 58078",617976539,"R"
32646,"119 4TH STREET","OAKMONT","PA",15139,40.512848225,-79.8412261299999,146,"119 4TH STREET, OAKMONT, PA, 15139","Match","Exact","119 4TH ST, OAKMONT, PA, 15139",51665818,"L"
32647,"119 5TH ST","CALUMET","MI",49913,47.244608944,-88.4526370149999,147,"119 5TH ST, CALUMET, MI, 49913","Match","Exact","119 5TH ST, CALUMET, MI, 49913",184115957,"L"
32648,"119 8TH AVENUE SE","ROCHESTER","MN",55904,44.0221644970001,-92.4525531359999,148,"119 8TH AVENUE SE, ROCHESTER, MN, 55904","Match","Exact","119 8TH AVE SE, ROCHESTER, MN, 55904",30553692,"R"
32649,"119 ACADEMY STREET","SALEM","VA",24153,37.2932300080001,-80.061000828,149,"119 ACADEMY STREET, SALEM, VA, 24153","Match","Exact","119 ACADEMY ST, SALEM, VA, 24153",62914767,"L"
32650,"119 ADCOCK BLUEBIRD LANE","BELMONT","NC",28012,35.1904105450001,-81.067430561,150,"119 ADCOCK BLUEBIRD LANE, BELMONT, NC, 28012","Match","Exact","119 ADCOCK BLUEBIRD LN, BELMONT, NC, 28012",70386691,"L"
32651,"119 ALBA ST","KNOXVILLE","PA",16928,41.9555137850001,-77.439281216,151,"119 ALBA ST, KNOXVILLE, PA, 16928","Match","Exact","119 ALBA ST, KNOXVILLE, PA, 16928",189655159,"R"
32652,"119 ALEXANDER DRIVE","BARNEGAT","NJ",8005,39.7633224950001,-74.231226035,152,"119 ALEXANDER DRIVE, BARNEGAT, NJ, 8005","Match","Exact","119 ALEXANDER DR, BARNEGAT, NJ, 08005",637811155,"R"
32653,"119 ALYSSA ST","TOMAH","WI",54660,43.989470817,-90.534238083,153,"119 ALYSSA ST, TOMAH, WI, 54660","Match","Exact","119 ALYSSA ST, TOMAH, WI, 54660",619538002,"L"
32654,"119 AMEN CORNER","SUMMERVILLE","SC",29483,33.0379382150001,-80.226075,154,"119 AMEN CORNER, SUMMERVILLE, SC, 29483","Match","Exact","119 AMEN COR, SUMMERVILLE, SC, 29483",623850750,"R"
32655,"119 ARROWOOD LANE","HARRIMAN","TN",37748,35.9094835510001,-84.596438689,155,"119 ARROWOOD LANE, HARRIMAN, TN, 37748","Match","Non_Exact","119 ARROWWOOD LN, HARRIMAN, TN, 37748",88589021,"R"
32656,"119 ATHENE DRIVE","SLIDELL","LA",70460,30.278497687,-89.84412386,156,"119 ATHENE DRIVE, SLIDELL, LA, 70460","Match","Exact","119 ATHENE DR, SLIDELL, LA, 70460",111315521,"L"
32657,"119 ATTWATER CT","LEESBURG","GA",31763,31.6254255360001,-84.159961794,157,"119 ATTWATER CT, LEESBURG, GA, 31763","Match","Exact","119 ATTWATER CT, LEESBURG, GA, 31763",633980030,"L"
32658,"119 BEACON STREET","GALLATIN","TN",37066,36.408704044,-86.478848068,158,"119 BEACON STREET, GALLATIN, TN, 37066","Match","Exact","119 BEACON ST, GALLATIN, TN, 37066",638734808,"R"
32659,"119 BERWICK ST","ELIZABETH","NJ",7202,40.6601922360001,-74.2349318669999,159,"119 BERWICK ST, ELIZABETH, NJ, 7202","Match","Exact","119 BERWICK ST, ELIZABETH, NJ, 07202",60578059,"R"
32660,"119 BIG SPRING TER","SANFORD","FL",32771,28.8151595620001,-81.315687345,160,"119 BIG SPRING TER, SANFORD, FL, 32771","Match","Exact","119 BIG SPRING TER, SANFORD, FL, 32771",649134287,"L"
32661,"119 BOGERTS MILL ROAD","HARRINGTON PARK","NJ",7640,40.9832400010001,-73.99384828,161,"119 BOGERTS MILL ROAD, HARRINGTON PARK, NJ, 7640","Match","Exact","119 BOGERTS MILL RD, HARRINGTON PARK, NJ, 07640",64369624,"R"
32662,"119 BRADLEY STREET","CARROLLTON","GA",30117,33.5792085530001,-85.075224417,162,"119 BRADLEY STREET, CARROLLTON, GA, 30117","Match","Exact","119 BRADLEY ST, CARROLLTON, GA, 30117",17126588,"L"
32663,"119 BRIDGE STREET","LOREAUVILLE","LA",70552,30.0565145410001,-91.73863986,163,"119 BRIDGE STREET, LOREAUVILLE, LA, 70552","Match","Exact","119 BRIDGE ST, LOREAUVILLE, LA, 70552",85375556,"L"
32664,"119 BUFFALO SQUARE COURT","KALISPELL","MT",59901,48.2271028060001,-114.309253006,164,"119 BUFFALO SQUARE COURT, KALISPELL, MT, 59901","Match","Exact","119 BUFFALO SQUARE CT, KALISPELL, MT, 59901",204106414,"L"
32665,"119 CABANISS AVE","BAYTOWN","TX",77520,29.752789138,-95.038632996,165,"119 CABANISS AVE, BAYTOWN, TX, 77520","Match","Exact","119 CABANISS AVE, BAYTOWN, TX, 77520",96554974,"R"
32666,"119 CALLE MARGUERITA SUITE 100","LOS GATOS","CA",95032,37.2621861580001,-121.980966209,166,"119 CALLE MARGUERITA SUITE 100, LOS GATOS, CA, 95032","Match","Non_Exact","119 CLL MARGUERITA, LOS GATOS, CA, 95032",122919729,"L"
32667,"119 CANDLER OAKS LANE","DECATUR","GA",30030,33.7619125090001,-84.28953169,167,"119 CANDLER OAKS LANE, DECATUR, GA, 30030","Match","Exact","119 CANDLER OAKS LN, DECATUR, GA, 30030",23379030,"R"
32668,"119 CAPRIATI AVE","LAS VEGAS","NV",89183,35.9806508510001,-115.167017223,168,"119 CAPRIATI AVE, LAS VEGAS, NV, 89183","Match","Exact","119 CAPRIATI AVE, LAS VEGAS, NV, 89183",612687525,"R"
32669,"119 CARTIER DRIVE","RICHMOND","KY",40475,37.769693336,-84.3425712649999,169,"119 CARTIER DRIVE, RICHMOND, KY, 40475","Match","Exact","119 CARTIER DR, RICHMOND, KY, 40475",31994577,"L"
32670,"119 CHADWICK AVE","UPPER CHICHESTER","PA",19061,39.827315895,-75.420895205,170,"119 CHADWICK AVE, UPPER CHICHESTER, PA, 19061","Match","Exact","119 CHADWICK AVE, UPPER CHICHESTER, PA, 19061",134890882,"R"
32671,"119 CHAMBERLAIN  STREET","ROCHESTER","NH",3867,43.303243906,-70.953423217,171,"119 CHAMBERLAIN  STREET, ROCHESTER, NH, 3867","Match","Exact","119 CHAMBERLAIN ST, ROCHESTER, NH, 03867",117804444,"R"
32672,"119 CHAPEL HILL DRIVE","DOUBLE OAK","TX",75077,33.0662032750001,-97.0915036489999,172,"119 CHAPEL HILL DRIVE, DOUBLE OAK, TX, 75077","Match","Exact","119 CHAPEL HILL DR, DOUBLE OAK, TX, 75077",103408189,"L"
32673,"119 CHESTNUT CIRCLE","ROYAL PALM BEACH","FL",33411,26.6933991170001,-80.242342251,173,"119 CHESTNUT CIRCLE, ROYAL PALM BEACH, FL, 33411","Match","Exact","119 CHESTNUT CIR, ROYAL PALM BEACH, FL, 33411",115352807,"R"
32674,"119 CHICORY LN","LAFAYETTE","LA",70506,30.136344901,-92.1180391949999,174,"119 CHICORY LN, LAFAYETTE, LA, 70506","Match","Exact","119 CHICORY LN, LAFAYETTE, LA, 70506",85611929,"L"
32675,"119 CHILDS STREET","CENTERVILLE","MA",2632,41.6542388450001,-70.3280991569999,175,"119 CHILDS STREET, CENTERVILLE, MA, 2632","Match","Exact","119 CHILDS ST, CENTERVILLE, MA, 02632",121556687,"L"
32676,"119 CHLOE DRIVE","DOTHAN","AL",36303,31.240660668,-85.4770331399999,176,"119 CHLOE DRIVE, DOTHAN, AL, 36303","Match","Non_Exact","119 CHLOE CT, DOTHAN, AL, 36303",627957395,"L"
32677,"119 CHOPTANK AVE","CAMBRIDGE","MD",21613,38.57692855,-76.0766757229999,177,"119 CHOPTANK AVE, CAMBRIDGE, MD, 21613","Match","Exact","119 CHOPTANK AVE, CAMBRIDGE, MD, 21613",99660789,"L"
32678,"119 CHOPTANK AVENUE","CAMBRIDGE","MD",21613,38.57692855,-76.0766757229999,178,"119 CHOPTANK AVENUE, CAMBRIDGE, MD, 21613","Match","Exact","119 CHOPTANK AVE, CAMBRIDGE, MD, 21613",99660789,"L"
32679,"119 CHURCH ST STE 118A","FERGUSON","MO",63135,38.745092952,-90.303309283,179,"119 CHURCH ST STE 118A, FERGUSON, MO, 63135","Match","Exact","119 CHURCH ST, FERGUSON, MO, 63135",100161056,"L"
32680,"119 CHURCH STREET  NUM 131","FERGUSON","MO",63135,38.745092952,-90.303309283,180,"119 CHURCH STREET  NUM 131, FERGUSON, MO, 63135","Match","Exact","119 CHURCH ST, FERGUSON, MO, 63135",100161056,"L"
32681,"119 CLEARVIEW DR","LAGRANGE","GA",30241,33.0169525950001,-84.997174951,181,"119 CLEARVIEW DR, LAGRANGE, GA, 30241","Match","Exact","119 CLEARVIEW DR, LAGRANGE, GA, 30241",1766686,"R"
32682,"119 CLOVERLY LN","WEST CHESTER","PA",19380,39.981571724,-75.625408227,182,"119 CLOVERLY LN, WEST CHESTER, PA, 19380","Match","Exact","119 CLOVERLY LN, WEST CHESTER, PA, 19380",179505693,"R"
32683,"119 COMPS RD","FAIRHOPE","PA",15538,39.8395293730001,-78.792309942,183,"119 COMPS RD, FAIRHOPE, PA, 15538","Match","Exact","119 COMPS RD, FAIRHOPE, PA, 15538",70258298,"L"
32684,"119 CONNOR DRIVE","GOODLETTSVILLE","TN",37072,36.3109837690001,-86.721613298,184,"119 CONNOR DRIVE, GOODLETTSVILLE, TN, 37072","Match","Exact","119 CONNOR DR, GOODLETTSVILLE, TN, 37072",97182354,"R"
32685,"119 COOPER LANDING DRIVE","AYDLETT","NC",27916,36.3395320810001,-75.9099214519999,185,"119 COOPER LANDING DRIVE, AYDLETT, NC, 27916","Match","Exact","119 COOPER LANDING DR, AYDLETT, NC, 27916",623992656,"L"
32686,"119 CORAL BELL COURT","SAN RAMON","CA",94582,37.774381234,-121.912094351,186,"119 CORAL BELL COURT, SAN RAMON, CA, 94582","Match","Exact","119 CORAL BELL CT, SAN RAMON, CA, 94582",192117859,"L"
32687,"119 COTTAGE ST","HUDSON","MA",1749,42.400843605,-71.5781947849999,187,"119 COTTAGE ST, HUDSON, MA, 1749","Match","Exact","119 COTTAGE ST, HUDSON, MA, 01749",87113891,"L"
32688,"119 COUNT FLEET COURT","MADISON","AL",35756,34.719560136,-86.797328366,188,"119 COUNT FLEET COURT, MADISON, AL, 35756","Match","Exact","119 COUNT FLEET CT, MADISON, AL, 35756",650163248,"L"
32689,"119 COUNTRY LAKE DR","LEXINGTON","SC",29072,34.02771398,-81.28811158,189,"119 COUNTRY LAKE DR, LEXINGTON, SC, 29072","Match","Exact","119 COUNTRY LAKE DR, LEXINGTON, SC, 29072",70047873,"L"
32690,"119 COUNTRYSIDE DRIVE","GREENWOOD","SC",29646,34.1765231270001,-82.2209922439999,190,"119 COUNTRYSIDE DRIVE, GREENWOOD, SC, 29646","Match","Exact","119 COUNTRYSIDE DR, GREENWOOD, SC, 29646",50812477,"L"
32691,"119 COUNTY HIGHWAY 45","GUIN","AL",35563,34.01257544,-87.927906456,191,"119 COUNTY HIGHWAY 45, GUIN, AL, 35563","Match","Non_Exact","119 CO RD 45, GUIN, AL, 35563",130617749,"L"
32692,"119 COUNTY ROAD 577","ENGLEWOOD","TN",37329,35.420636986,-84.551578083,192,"119 COUNTY ROAD 577, ENGLEWOOD, TN, 37329","Match","Exact","119 CO RD 577, ENGLEWOOD, TN, 37329",88548943,"R"
32693,"119 COURTHOUSE  DRIVE","HAYESVILLE","NC",28904,NA,NA,193,"119 COURTHOUSE  DRIVE, HAYESVILLE, NC, 28904","No_Match",NA,NA,NA,NA
32694,"119 COW TRAIL","ARENAS VALLEY","NM",88022,32.800099344,-108.201333752,194,"119 COW TRAIL, ARENAS VALLEY, NM, 88022","Match","Exact","119 COW TRL, ARENAS VALLEY, NM, 88022",635843372,"L"
32695,"119 CRYSTAL STREET","THOMASVILLE","GA",31792,30.8476996950001,-83.9915605899999,195,"119 CRYSTAL STREET, THOMASVILLE, GA, 31792","Match","Exact","119 CRYSTAL ST, THOMASVILLE, GA, 31792",83116405,"R"
32696,"119 DALE STREET 1","DEDHAM","MA",2026,42.2378005630001,-71.1493881439999,196,"119 DALE STREET 1, DEDHAM, MA, 2026","Match","Exact","119 DALE ST, DEDHAM, MA, 02026",87246478,"R"
32697,"119 DEERWOOD DRIVE","HENDERSONVILLE","TN",37075,36.3930911410001,-86.617150362,197,"119 DEERWOOD DRIVE, HENDERSONVILLE, TN, 37075","Match","Exact","119 DEERWOOD DR, HENDERSONVILLE, TN, 37075",29766929,"L"
32698,"119 DIEHL RD","CALLICOON","NY",12723,41.7547692110001,-74.964658941,198,"119 DIEHL RD, CALLICOON, NY, 12723","Match","Exact","119 DIEHL RD, CALLICOON, NY, 12723",128976907,"L"
32699,"119 DOGWOOD DR","GEORGETOWN","TX",78626,30.67334026,-97.656618558,199,"119 DOGWOOD DR, GEORGETOWN, TX, 78626","Match","Exact","119 DOGWOOD DR, GEORGETOWN, TX, 78626",126477004,"R"
32700,"119 DOUGLAS","TIFFIN","OH",44883,41.1277320510001,-83.172752287,200,"119 DOUGLAS, TIFFIN, OH, 44883","Match","Non_Exact","119 DOUGLAS ST, TIFFIN, OH, 44883",12963074,"R"
32701,"119 DOVE CIR","ROYAL PALM BEACH","FL",33411,26.704533885,-80.2139569669999,201,"119 DOVE CIR, ROYAL PALM BEACH, FL, 33411","Match","Exact","119 DOVE CIR, ROYAL PALM BEACH, FL, 33411",642910584,"L"
32702,"119 DWELLINGTON DRIVE","VALENCIA","PA",16059,40.6830892020001,-79.931327171,202,"119 DWELLINGTON DRIVE, VALENCIA, PA, 16059","Match","Exact","119 DWELLINGTON DR, VALENCIA, PA, 16059",52673238,"R"
32703,"119 E ANDY DEVINE AVENUE","KINGMAN","AZ",86401,35.1890957890001,-114.057437258,203,"119 E ANDY DEVINE AVENUE, KINGMAN, AZ, 86401","Match","Exact","119 E ANDY DEVINE AVE, KINGMAN, AZ, 86401",190314676,"R"
32704,"119 E HOPKINS ST","SAN MARCOS","TX",78666,29.883079432,-97.941084861,204,"119 E HOPKINS ST, SAN MARCOS, TX, 78666","Match","Exact","119 E HOPKINS ST, SAN MARCOS, TX, 78666",63811109,"L"
32705,"119 E JAMES ST","MOUNTAIN VIEW","MO",65548,NA,NA,205,"119 E JAMES ST, MOUNTAIN VIEW, MO, 65548","Tie",NA,NA,NA,NA
32706,"119 E MAIN ST","NEW PRAGUE","MN",56071,NA,NA,206,"119 E MAIN ST, NEW PRAGUE, MN, 56071","Tie",NA,NA,NA,NA
32707,"119 E MAIN STREET","CRAWFORDSVILLE","IN",47933,40.041719867,-86.901025881,207,"119 E MAIN STREET, CRAWFORDSVILLE, IN, 47933","Match","Exact","119 E MAIN ST, CRAWFORDSVILLE, IN, 47933",29351749,"L"
32708,"119 E RANDALL STREET","SHAWANO","WI",54166,44.776903148,-88.608742779,208,"119 E RANDALL STREET, SHAWANO, WI, 54166","Match","Exact","119 E RANDALL ST, SHAWANO, WI, 54166",126864329,"R"
32709,"119 E THEISSEN ST","BOERNE","TX",78006,29.790937652,-98.729886957,209,"119 E THEISSEN ST, BOERNE, TX, 78006","Match","Exact","119 E THEISSEN ST, BOERNE, TX, 78006",102757378,"R"
32710,"119 EAST  MAIN STREET","ODON","IN",47562,38.8426517570001,-86.990612379,210,"119 EAST  MAIN STREET, ODON, IN, 47562","Match","Exact","119 E MAIN ST, ODON, IN, 47562",32065562,"L"
32711,"119 EAST 7TH STREET","BLOOMSBURG","PA",17815,40.998823745,-76.4509336199999,211,"119 EAST 7TH STREET, BLOOMSBURG, PA, 17815","Match","Exact","119 E SEVENTH ST, BLOOMSBURG, PA, 17815",638948664,"L"
32712,"119 EAST CATAWBA RD","GREENVILLEGREENVILLE","NC",27834,35.6466934440001,-77.378192315,212,"119 EAST CATAWBA RD, GREENVILLEGREENVILLE, NC, 27834","Match","Non_Exact","119 E CATAWBA RD, GREENVILLE, NC, 27834",80039830,"L"
32713,"119 EAST GRANVILLE ST","SUNBURY","OH",43074,40.24146254,-82.856805134,213,"119 EAST GRANVILLE ST, SUNBURY, OH, 43074","Match","Exact","119 E GRANVILLE ST, SUNBURY, OH, 43074",636560500,"R"
32714,"119 EAST MOUNT LOOKOUT ROAD","MOUNT LOOKOUT","WV",26678,38.1574273470001,-80.903261621,214,"119 EAST MOUNT LOOKOUT ROAD, MOUNT LOOKOUT, WV, 26678","Match","Exact","119 E MOUNT LOOKOUT RD, MOUNT LOOKOUT, WV, 26678",50059580,"R"
32715,"119 ELDER STREET","FAIRBURN","GA",30213,33.5731419690001,-84.576166373,215,"119 ELDER STREET, FAIRBURN, GA, 30213","Match","Exact","119 ELDER ST, FAIRBURN, GA, 30213",17410614,"R"
32716,"119 ERIN DR","WAKEFIELD","RI",2879,41.4759237150001,-71.485152554,216,"119 ERIN DR, WAKEFIELD, RI, 2879","Match","Exact","119 ERIN DR, WAKEFIELD, RI, 02879",58912795,"R"
32717,"119 ETHANS TRL","LUCEDALE","MS",39452,30.8830042920001,-88.626793461,217,"119 ETHANS TRL, LUCEDALE, MS, 39452","Match","Exact","119 ETHANS TRL, LUCEDALE, MS, 39452",606155330,"R"
32718,"119 EXECUTIVE WAY BLDG 303","DESOTO","TX",75115,32.622385777,-96.85766611,218,"119 EXECUTIVE WAY BLDG 303, DESOTO, TX, 75115","Match","Exact","119 EXECUTIVE WAY, DESOTO, TX, 75115",103188369,"R"
32719,"119 FAIRGROUND STREET","MUNCY","PA",17756,41.206756844,-76.7750638969999,219,"119 FAIRGROUND STREET, MUNCY, PA, 17756","Match","Exact","119 FAIRGROUND ST, MUNCY, PA, 17756",59450849,"L"
32720,"119 FAMOUS STREET","O FALLON","IL",62269,38.5859192400001,-89.9483648,220,"119 FAMOUS STREET, O FALLON, IL, 62269","Match","Non_Exact","119 FAMOUS AVE, O FALLON, IL, 62269",107843284,"L"
32721,"119 FIDDLERS COVE DRIVE","KINGSLAND","GA",31548,30.8186855490001,-81.627289073,221,"119 FIDDLERS COVE DRIVE, KINGSLAND, GA, 31548","Match","Exact","119 FIDDLERS COVE DR, KINGSLAND, GA, 31548",627730727,"L"
32722,"119 FIELDSTONE PL","GREENWOOD","IN",46142,39.6116466350001,-86.202100574,222,"119 FIELDSTONE PL, GREENWOOD, IN, 46142","Match","Exact","119 FIELDSTONE PL, GREENWOOD, IN, 46142",114654643,"R"
32723,"119 FLINT COURT","BELLEFONTE","PA",16823,40.890725574,-77.7369887569999,223,"119 FLINT COURT, BELLEFONTE, PA, 16823","Match","Exact","119 FLINT CT, BELLEFONTE, PA, 16823",50383090,"L"
32724,"119 FRANK MARTIN ROAD","SHELBYVILLE","TN",37160,35.5671776880001,-86.4565908449999,224,"119 FRANK MARTIN ROAD, SHELBYVILLE, TN, 37160","Match","Exact","119 FRANK MARTIN RD, SHELBYVILLE, TN, 37160",615009757,"L"
32725,"119 FREDERICK STREET","NEW BEDFORD","MA",2744,41.609624083,-70.911057268,225,"119 FREDERICK STREET, NEW BEDFORD, MA, 2744","Match","Exact","119 FREDERICK ST, NEW BEDFORD, MA, 02744",46787749,"R"
32726,"119 GOLDENROD PLACE","LYNCHBURG","VA",24502,NA,NA,226,"119 GOLDENROD PLACE, LYNCHBURG, VA, 24502","No_Match",NA,NA,NA,NA
32727,"119 GREENSWAY","PEACHTREE CITY","GA",30269,33.412171029,-84.568648488,227,"119 GREENSWAY, PEACHTREE CITY, GA, 30269","Match","Exact","119 GREENSWAY, PEACHTREE CITY, GA, 30269",75946222,"R"
32728,"119 HAAS LOOP RD","FREDONIA","PA",16124,41.335064061,-80.3071765299999,228,"119 HAAS LOOP RD, FREDONIA, PA, 16124","Match","Non_Exact","119 HASS LOOP RD, FREDONIA, PA, 16124",605360058,"L"
32729,"119 HANSEN DRIVE","RUIDOSO","NM",88345,33.3526381900001,-105.673812203,229,"119 HANSEN DRIVE, RUIDOSO, NM, 88345","Match","Exact","119 HANSEN DR, RUIDOSO, NM, 88345",169113313,"L"
32730,"119 HAUSER CT","RUNAWAY BAY","TX",76426,33.180502247,-97.894643448,230,"119 HAUSER CT, RUNAWAY BAY, TX, 76426","Match","Non_Exact","119 HAUSER PL, RUNAWAY BAY, TX, 76426",103661463,"L"
32731,"119 HERBERT STREET","DURHAM","NC",27703,35.9908165420001,-78.86435593,231,"119 HERBERT STREET, DURHAM, NC, 27703","Match","Exact","119 HERBERT ST, DURHAM, NC, 27703",71774941,"R"
32732,"119 HERITAGE WAY","WEST PALM BEACH","FL",33407,26.756943381,-80.1005434749999,232,"119 HERITAGE WAY, WEST PALM BEACH, FL, 33407","Match","Exact","119 HERITAGE WAY, WEST PALM BEACH, FL, 33407",115311645,"L"
32733,"119 HICKORY MEADOW RD","LEXINGTON","SC",29072,34.0089427140001,-81.204225643,233,"119 HICKORY MEADOW RD, LEXINGTON, SC, 29072","Match","Exact","119 HICKORY MEADOW RD, LEXINGTON, SC, 29072",647262994,"L"
32734,"119 HIGH STREET","MYSTIC","CT",6355,41.354534072,-71.97312411,234,"119 HIGH STREET, MYSTIC, CT, 6355","Match","Exact","119 HIGH ST, MYSTIC, CT, 06355",56853407,"L"
32735,"119 HIGHLAND LAKE DRIVE","ASHVILLE","AL",35953,33.762992642,-86.318155987,235,"119 HIGHLAND LAKE DRIVE, ASHVILLE, AL, 35953","Match","Exact","119 HIGHLAND LAKE DR, ASHVILLE, AL, 35953",651795533,"L"
32736,"119 HOLLOW OAK DR","DURHAM","NC",27713,35.9245921670001,-78.941234419,236,"119 HOLLOW OAK DR, DURHAM, NC, 27713","Match","Exact","119 HOLLOW OAK DR, DURHAM, NC, 27713",71762950,"L"
32737,"119 HOLLYBERRY LANE   243","CHATTANOOGA","TN",37411,35.0193139530001,-85.2365524099999,237,"119 HOLLYBERRY LANE   243, CHATTANOOGA, TN, 37411","Match","Exact","119 HOLLYBERRY LN, CHATTANOOGA, TN, 37411",639705160,"L"
32738,"119 HONNESS LN APT A","ITHACA","NY",14850,42.4294835650001,-76.469448536,238,"119 HONNESS LN APT A, ITHACA, NY, 14850","Match","Exact","119 HONNESS LN, ITHACA, NY, 14850",18864492,"R"
32739,"119 HUNT CLUB DR","COLLEGEVILLE","PA",19426,40.1468078680001,-75.451722952,239,"119 HUNT CLUB DR, COLLEGEVILLE, PA, 19426","Match","Exact","119 HUNT CLUB DR, COLLEGEVILLE, PA, 19426",135120285,"L"
32740,"119 INDIAN CREEK RD","FRENCHBURG","KY",40322,37.951331802,-83.6470368829999,240,"119 INDIAN CREEK RD, FRENCHBURG, KY, 40322","Match","Exact","119 INDIAN CREEK RD, FRENCHBURG, KY, 40322",642570858,"R"
32741,"119 INDUSTRIAL DR UNIT 773","EAST LONGMEADOW","MA",1028,42.046926983,-72.5326653239999,241,"119 INDUSTRIAL DR UNIT 773, EAST LONGMEADOW, MA, 1028","Match","Exact","119 INDUSTRIAL DR, E LONGMEADOW, MA, 01028",623698367,"R"
32742,"119 INGRAHAM STREET SUITE 202","BROOKLYN","NY",11237,40.707550091,-73.92904709,242,"119 INGRAHAM STREET SUITE 202, BROOKLYN, NY, 11237","Match","Exact","119 INGRAHAM ST, BROOKLYN, NY, 11237",59082340,"L"
32743,"119 IRVING LANE","GEORGETOWN","KY",40324,38.1934718030001,-84.574162259,243,"119 IRVING LANE, GEORGETOWN, KY, 40324","Match","Exact","119 IRVING LN, GEORGETOWN, KY, 40324",631707836,"R"
32744,"119 JARI DRIVE SUITE 4","JOHNSTOWN","PA",15904,40.2875114450001,-78.827799279,244,"119 JARI DRIVE SUITE 4, JOHNSTOWN, PA, 15904","Match","Exact","119 JARI DR, JOHNSTOWN, PA, 15904",646973135,"L"
32745,"119 JOHN STREET","HACKENSACK","NJ",7601,40.8792106770001,-74.05047803,245,"119 JOHN STREET, HACKENSACK, NJ, 7601","Match","Exact","119 JOHN ST, HACKENSACK, NJ, 07601",64386336,"L"
32746,"119 JOHNSON BAYOU DRIVE","PANAMA CITY BEACH","FL",32407,30.2007044650001,-85.8022453739999,246,"119 JOHNSON BAYOU DRIVE, PANAMA CITY BEACH, FL, 32407","Match","Exact","119 JOHNSON BAYOU DR, PANAMA CITY BEACH, FL, 32407",648208629,"L"
32747,"119 KILKENNY COURT","GRANVILLE","OH",43023,40.0633446850001,-82.485946868,247,"119 KILKENNY COURT, GRANVILLE, OH, 43023","Match","Exact","119 KILKENNY CT, GRANVILLE, OH, 43023",61516118,"L"
32748,"119 KINGS HWAY","WARWICK","NY",10990,41.268528782,-74.340589785,248,"119 KINGS HWAY, WARWICK, NY, 10990","Match","Exact","119 KINGS HWY, WARWICK, NY, 10990",124433549,"L"
32749,"119 LA JOYA RD","SANTA FE","NM",87501,35.679626227,-105.97815592,249,"119 LA JOYA RD, SANTA FE, NM, 87501","Match","Exact","119 LA JOYA RD, SANTA FE, NM, 87501",169377607,"L"
32750,"119 LAKESIDE DRIVE","GRAY","TN",37615,36.434697305,-82.433527688,250,"119 LAKESIDE DRIVE, GRAY, TN, 37615","Match","Exact","119 LAKESIDE DR, GRAY, TN, 37615",127918413,"L"
32751,"119 LAKEWOOD AVE","KEANSBURG","NJ",7734,40.4461771320001,-74.122700403,251,"119 LAKEWOOD AVE, KEANSBURG, NJ, 7734","Match","Exact","119 LAKEWOOD AVE, KEANSBURG, NJ, 07734",90468893,"L"
32752,"119 LAURELWOOD COURT","LEESBURG","GA",31763,31.645991022,-84.1780896829999,252,"119 LAURELWOOD COURT, LEESBURG, GA, 31763","Match","Exact","119 LAURELWOOD CT, LEESBURG, GA, 31763",629958389,"L"
32753,"119 LAURELWOOD DRIVE","HOPEDALE","MA",1747,42.1150517570001,-71.5331396289999,253,"119 LAURELWOOD DRIVE, HOPEDALE, MA, 1747","Match","Exact","119 LAURELWOOD DR, HOPEDALE, MA, 01747",40100051,"L"
32754,"119 LIBERTY STREET","ATHOL","MA",1331,42.5919250380001,-72.219046331,254,"119 LIBERTY STREET, ATHOL, MA, 1331","Match","Exact","119 LIBERTY ST, ATHOL, MA, 01331",40070564,"L"
32755,"119 LIKEKE ST","HILO","HI",96720,19.670425934,-155.076103118,255,"119 LIKEKE ST, HILO, HI, 96720","Match","Exact","119 LIKEKE ST, HILO, HI, 96720",203012489,"L"
32756,"119 LISANN ST","TALLMADGE","OH",44278,41.0977347350001,-81.4127641109999,256,"119 LISANN ST, TALLMADGE, OH, 44278","Match","Exact","119 LISANN ST, TALLMADGE, OH, 44278",61352755,"R"
32757,"119 LIVIA LN","WRIGHTSVILLE","PA",17368,39.9722742980001,-76.515543005,257,"119 LIVIA LN, WRIGHTSVILLE, PA, 17368","Match","Exact","119 LIVIA LN, WRIGHTSVILLE, PA, 17368",641156202,"L"
32758,"119 LOGTOWN ROAD","FULTONVILLE","NY",12072,42.893655187,-74.346497615,258,"119 LOGTOWN ROAD, FULTONVILLE, NY, 12072","Match","Exact","119 LOGTOWN RD, FULTONVILLE, NY, 12072",637744115,"R"
32759,"119 LOMA VISTA DRIVE APT A","VALLEJO","CA",94590,38.1157002480001,-122.239717301,259,"119 LOMA VISTA DRIVE APT A, VALLEJO, CA, 94590","Match","Exact","119 LOMA VIS, VALLEJO, CA, 94590",192527917,"R"
32760,"119 MAIN ROAD","TYRINGHAM","MA",2164,NA,NA,260,"119 MAIN ROAD, TYRINGHAM, MA, 2164","No_Match",NA,NA,NA,NA
32761,"119 MAIN ST E","NEW PRAGUE","MN",56071,44.5435773290001,-93.576836774,261,"119 MAIN ST E, NEW PRAGUE, MN, 56071","Match","Exact","119 MAIN ST E, NEW PRAGUE, MN, 56071",28654432,"L"
32762,"119 MAIN STREET - PO BOX 185","EVANSVILLE","MN",56326,NA,NA,262,"119 MAIN STREET - PO BOX 185, EVANSVILLE, MN, 56326","No_Match",NA,NA,NA,NA
32763,"119 MALTESE LANE","OAK RIDGE","TN",37830,35.9938426250001,-84.318627068,263,"119 MALTESE LANE, OAK RIDGE, TN, 37830","Match","Exact","119 MALTESE LN, OAK RIDGE, TN, 37830",90133951,"L"
32764,"119 MANNON COURT","MURFREESBORO","TN",37127,35.7775159810001,-86.35755753,264,"119 MANNON COURT, MURFREESBORO, TN, 37127","Match","Exact","119 MANNON CT, MURFREESBORO, TN, 37127",606763491,"L"
32765,"119 MARINA DR","BULLARD","TX",75757,32.1550568120001,-95.440037187,265,"119 MARINA DR, BULLARD, TX, 75757","Match","Exact","119 MARINA DR, BULLARD, TX, 75757",141264374,"R"
32766,"119 MARLIN ROAD","NEW BRITAIN","CT",6053,41.6970796690001,-72.764215221,266,"119 MARLIN ROAD, NEW BRITAIN, CT, 6053","Match","Exact","119 MARLIN RD, NEW BRITAIN, CT, 06053",3510249,"R"
32767,"119 MAVRICK DRIVE","HARVEST","AL",35749,34.8480262320001,-86.7207586649999,267,"119 MAVRICK DRIVE, HARVEST, AL, 35749","Match","Non_Exact","119 MAVERICK DR, HARVEST, AL, 35749",58135073,"R"
32768,"119 MCDOWELL PARK CIRCLE","JACKSON","MS",39204,32.2697119210001,-90.249626488,268,"119 MCDOWELL PARK CIRCLE, JACKSON, MS, 39204","Match","Exact","119 MCDOWELL PARK CIR, JACKSON, MS, 39204",65379491,"L"
32769,"119 MCKEE ST","CENTER","TX",75935,31.791731236,-94.163791524,269,"119 MCKEE ST, CENTER, TX, 75935","Match","Exact","119 MCKEE ST, CENTER, TX, 75935",638649770,"R"
32770,"119 MCNEAL ROAD","WINDER","GA",30680,NA,NA,270,"119 MCNEAL ROAD, WINDER, GA, 30680","No_Match",NA,NA,NA,NA
32771,"119 MEADOW ROAD","MILLEDGEVILLE","GA",31061,33.090133225,-83.142205669,271,"119 MEADOW ROAD, MILLEDGEVILLE, GA, 31061","Match","Exact","119 MEADOW RD, MILLEDGEVILLE, GA, 31061",16584647,"R"
32772,"119 MERCHANT STREET SUITE 605","HONOLULU","HI",96813,21.308596677,-157.862691129,272,"119 MERCHANT STREET SUITE 605, HONOLULU, HI, 96813","Match","Exact","119 MERCHANT ST, HONOLULU, HI, 96813",203236038,"R"
32773,"119 MERCHANT STREET","HONOLULU","HI",96813,21.308596677,-157.862691129,273,"119 MERCHANT STREET, HONOLULU, HI, 96813","Match","Exact","119 MERCHANT ST, HONOLULU, HI, 96813",203236038,"R"
32774,"119 MINTER DRIVE","GRIFFITH","IN",46319,41.5449436850001,-87.426679049,274,"119 MINTER DRIVE, GRIFFITH, IN, 46319","Match","Exact","119 MINTER DR, GRIFFITH, IN, 46319",98428741,"R"
32775,"119 MISTY MEADOW DR","GREENVILLE","SC",29615,34.82395889,-82.26851282,275,"119 MISTY MEADOW DR, GREENVILLE, SC, 29615","Match","Exact","119 MISTY MEADOW DR, GREENVILLE, SC, 29615",38337310,"L"
32776,"119 MONROE STREET","LAWRENCE","NY",11559,40.6096108630001,-73.726148644,276,"119 MONROE STREET, LAWRENCE, NY, 11559","Match","Exact","119 MONROE ST, LAWRENCE, NY, 11559",147678089,"R"
32777,"119 MONTEREY LN","DURHAM","NC",27713,35.887453979,-78.9138315289999,277,"119 MONTEREY LN, DURHAM, NC, 27713","Match","Exact","119 MONTEREY LN, DURHAM, NC, 27713",71757879,"L"
32778,"119 N  VIRGINIA AVE","FAYETTEVILLE","NC",28305,35.060620418,-78.911195429,278,"119 N  VIRGINIA AVE, FAYETTEVILLE, NC, 28305","Match","Exact","119 NORTH VIRGINIA AVE, FAYETTEVILLE, NC, 28305",64199983,"L"
32779,"119 N COURT STREET","FAIRFIELD","IA",52556,41.007713885,-91.962459768,279,"119 N COURT STREET, FAIRFIELD, IA, 52556","Match","Exact","119 N COURT ST, FAIRFIELD, IA, 52556",84429789,"R"
32780,"119 N ELM STREET","AVOCA","IA",51521,41.4770517440001,-95.339401079,280,"119 N ELM STREET, AVOCA, IA, 51521","Match","Exact","119 N ELM ST, AVOCA, IA, 51521",43918088,"L"
32781,"119 N FAIRFAX AVE  SUITE 103","LOS ANGELES","CA",90036,NA,NA,281,"119 N FAIRFAX AVE  SUITE 103, LOS ANGELES, CA, 90036","Tie",NA,NA,NA,NA
32782,"119 N FAIRFAX AVE STE 457","LOS ANGELES","CA",90036,NA,NA,282,"119 N FAIRFAX AVE STE 457, LOS ANGELES, CA, 90036","Tie",NA,NA,NA,NA
32783,"119 N GLEN ARVEN AVE","TEMPLE TERRACE","FL",33617,28.0340996420001,-82.384483092,283,"119 N GLEN ARVEN AVE, TEMPLE TERRACE, FL, 33617","Match","Exact","119 N GLEN ARVEN AVE, TEMPLE TER, FL, 33617",104618284,"R"
32784,"119 N MAIN ST STUDIO 1","STOCKTON","IL",61085,NA,NA,284,"119 N MAIN ST STUDIO 1, STOCKTON, IL, 61085","Tie",NA,NA,NA,NA
32785,"119 N MAIN STREET","GALENA","MD",21635,39.341972406,-75.879117547,285,"119 N MAIN STREET, GALENA, MD, 21635","Match","Exact","119 N MAIN ST, GALENA, MD, 21635",635486005,"L"
32786,"119 N MCCLURE ROAD","LIMA","OH",45801,40.7415526440001,-83.984836023,286,"119 N MCCLURE ROAD, LIMA, OH, 45801","Match","Exact","119 N MCCLURE RD, LIMA, OH, 45801",35573277,"R"
32787,"119 N MERIDIAN ST","LEBANON","IN",46052,40.047790639,-86.4680317089999,287,"119 N MERIDIAN ST, LEBANON, IN, 46052","Match","Exact","119 N MERIDIAN ST, LEBANON, IN, 46052",29252068,"R"
32788,"119 N ROBINSON  SUITE 315","OKLAHOMA CITY","OK",73102,NA,NA,288,"119 N ROBINSON  SUITE 315, OKLAHOMA CITY, OK, 73102","No_Match",NA,NA,NA,NA
32789,"119 N ROBINSON AVE SUITE 500","OKLAHOMA CITY","OK",73102,35.4679978940001,-97.516449114,289,"119 N ROBINSON AVE SUITE 500, OKLAHOMA CITY, OK, 73102","Match","Non_Exact","119 N ROBINSON AVE, OKLAHOMA CITY, OK, 73102",100402423,"L"
32790,"119 NESH PLAZA I 3070 BRISTOL PIKE","BENSALEM","PA",19020,40.084733128,-74.9341356479999,290,"119 NESH PLAZA I 3070 BRISTOL PIKE, BENSALEM, PA, 19020","Match","Exact","3070 BRISTOL PIKE, BENSALEM, PA, 19020",134779463,"L"
32791,"119 NEWTON ST","NORWALK","OH",44857,41.246854935,-82.62613098,291,"119 NEWTON ST, NORWALK, OH, 44857","Match","Exact","119 NEWTON ST, NORWALK, OH, 44857",12600963,"L"
32792,"119 NORTH 19TH STREET","TEMPLE","TX",76504,31.1007648140001,-97.350469791,292,"119 NORTH 19TH STREET, TEMPLE, TX, 76504","Match","Exact","119 N 19TH ST, TEMPLE, TX, 76504",146186843,"R"
32793,"119 NORTH BROAD STREET","CAIRO","GA",39828,30.8781683990001,-84.208197226,293,"119 NORTH BROAD STREET, CAIRO, GA, 39828","Match","Exact","119 N BROAD ST, CAIRO, GA, 39828",84355431,"L"
32794,"119 NORTH PEMBROKE ROAD","EPSON","NH",3234,43.1838637380001,-71.4066690939999,294,"119 NORTH PEMBROKE ROAD, EPSON, NH, 3234","Match","Non_Exact","119 N PEMBROKE RD, EPSOM, NH, 03234",117729055,"L"
32795,"119 NORTH WASHINGTON STREET","WADESBORO","NC",28170,34.9668672180001,-80.0755048629999,295,"119 NORTH WASHINGTON STREET, WADESBORO, NC, 28170","Match","Exact","119 N WASHINGTON ST, WADESBORO, NC, 28170",638783681,"L"
32796,"119 OAKHURST DR","SEAGOVILLE","TX",75159,32.6618837240001,-96.591753603,296,"119 OAKHURST DR, SEAGOVILLE, TX, 75159","Match","Exact","119 OAKHURST DR, SEAGOVILLE, TX, 75159",615344618,"L"
32797,"119 OAKSIDE LANE","SAINT LOUIS","MO",63122,38.602382284,-90.407479924,297,"119 OAKSIDE LANE, SAINT LOUIS, MO, 63122","Match","Exact","119 OAKSIDE LN, SAINT LOUIS, MO, 63122",100136801,"R"
32798,"119 OLD AIRPORT ROAD APT 303","LAGRANGE","GA",30240,NA,NA,298,"119 OLD AIRPORT ROAD APT 303, LAGRANGE, GA, 30240","Tie",NA,NA,NA,NA
32799,"119 ORANGE AVE","LONG BEACH","CA",90802,33.767022852,-118.177102892,299,"119 ORANGE AVE, LONG BEACH, CA, 90802","Match","Exact","119 ORANGE AVE, LONG BEACH, CA, 90802",141694962,"L"
32800,"119 OSPREY POINT DR","OSPREY","FL",34229,27.2098688500001,-82.498602394,300,"119 OSPREY POINT DR, OSPREY, FL, 34229","Match","Exact","119 OSPREY POINT DR, OSPREY, FL, 34229",16376081,"L"
32801,"119 PALMETTO GREEN DR  UNIT 71","LONGS","SC",29568,33.8949581110001,-78.6856379669999,301,"119 PALMETTO GREEN DR  UNIT 71, LONGS, SC, 29568","Match","Exact","119 PALMETTO GREEN DR, LONGS, SC, 29568",630598004,"L"
32802,"119 PALMETTO GREEN DRIVE UNIT 71","LONGS","SC",29568,33.8949581110001,-78.6856379669999,302,"119 PALMETTO GREEN DRIVE UNIT 71, LONGS, SC, 29568","Match","Exact","119 PALMETTO GREEN DR, LONGS, SC, 29568",630598004,"L"
32803,"119 PARAS HILL","HARTFORD","MI",49057,42.2146379100001,-86.16449375,303,"119 PARAS HILL, HARTFORD, MI, 49057","Match","Non_Exact","119 PARAS HILL DR, HARTFORD, MI, 49057",34761427,"R"
32804,"119 PARK STREET","WEST ROXBURY","MA",2132,42.2846642370001,-71.155643857,304,"119 PARK STREET, WEST ROXBURY, MA, 2132","Match","Exact","119 PARK ST, WEST ROXBURY, MA, 02132",85702518,"R"
32805,"119 PATRICIA AVENUE","PRICHARD","AL",36610,30.7473893710001,-88.09645201,305,"119 PATRICIA AVENUE, PRICHARD, AL, 36610","Match","Exact","119 PATRICIA AVE, PRICHARD, AL, 36610",61963675,"L"
32806,"119 PEACEFUL LANE","COLUMBIA","SC",29223,34.123734228,-80.917391153,306,"119 PEACEFUL LANE, COLUMBIA, SC, 29223","Match","Exact","119 PEACEFUL LN, COLUMBIA, SC, 29223",636789813,"L"
32807,"119 PHEASANT DRIVE","PENN HILLS","PA",15235,40.4555174000001,-79.832402717,307,"119 PHEASANT DRIVE, PENN HILLS, PA, 15235","Match","Exact","119 PHEASANT DR, PENN HILLS, PA, 15235",51667377,"L"
32808,"119 PINE STREET","MANSFIELD","GA",30055,33.5158239260001,-83.734038529,308,"119 PINE STREET, MANSFIELD, GA, 30055","Match","Exact","119 PINE ST, MANSFIELD, GA, 30055",23623337,"R"
32809,"119 PINTAIL DRIVE","DUCK","NC",27949,36.192637297,-75.758354055,309,"119 PINTAIL DRIVE, DUCK, NC, 27949","Match","Exact","119 PINTAIL DR, DUCK, NC, 27949",81298580,"R"
32810,"119 PLEASANT VIEW DR","LAFAYETTE","LA",70503,30.1535330880001,-92.076856581,310,"119 PLEASANT VIEW DR, LAFAYETTE, LA, 70503","Match","Exact","119 PLEASANT VIEW DR, LAFAYETTE, LA, 70503",85613192,"L"
32811,"119 PONDFIELD ROAD BOX 933","BRONXVILLE","NY",10708,40.9389032220001,-73.832626348,311,"119 PONDFIELD ROAD BOX 933, BRONXVILLE, NY, 10708","Match","Exact","119 PONDFIELD RD, BRONXVILLE, NY, 10708",139746265,"L"
32812,"119 PRAIRIE ROAD","WISNER","LA",71378,31.9761372730001,-91.666818201,312,"119 PRAIRIE ROAD, WISNER, LA, 71378","Match","Exact","119 PRAIRIE RD, WISNER, LA, 71378",160867921,"L"
32813,"119 PRESERVE VALLEY ROAD","CRANBERRY TWP","PA",16066,40.7152258470001,-80.095490613,313,"119 PRESERVE VALLEY ROAD, CRANBERRY TWP, PA, 16066","Match","Non_Exact","119 PRESERVE VALLEY DR, CRANBERRY TOWNSHIP, PA, 16066",52697540,"L"
32814,"119 PRICE ROAD","BROOKS","GA",30205,33.291349457,-84.461255721,314,"119 PRICE ROAD, BROOKS, GA, 30205","Match","Exact","119 PRICE RD, BROOKS, GA, 30205",75926455,"L"
32815,"119 PRIMROSE DRIVE","BLACKSBURG","VA",24060,37.2580214820001,-80.411973009,315,"119 PRIMROSE DRIVE, BLACKSBURG, VA, 24060","Match","Exact","119 PRIMROSE DR, BLACKSBURG, VA, 24060",73628264,"R"
32816,"119 QUARRY ST","SOUTH ELGIN","IL",60177,41.9995477000001,-88.295764865,316,"119 QUARRY ST, SOUTH ELGIN, IL, 60177","Match","Exact","119 QUARRY ST, SOUTH ELGIN, IL, 60177",119503604,"L"
32817,"119 QUINCY ST APT4","BROOKLYN","NY",11216,40.686315532,-73.956306951,317,"119 QUINCY ST APT4, BROOKLYN, NY, 11216","Match","Exact","119 QUINCY ST, BROOKLYN, NY, 11216",59078806,"L"
32818,"119 RAC MER CT","PADUCAH","KY",42003,37.015597305,-88.529665242,318,"119 RAC MER CT, PADUCAH, KY, 42003","Match","Exact","119 RAC MER CT, PADUCAH, KY, 42003",8403027,"L"
32819,"119 RAINTREE DRIVE","HURRICANE","WV",25526,38.4605444220001,-81.94948823,319,"119 RAINTREE DRIVE, HURRICANE, WV, 25526","Match","Exact","119 RAINTREE DR, HURRICANE, WV, 25526",130522062,"L"
32820,"119 RETHERFORD DRIVE","BAINBRIDGE","PA",17502,40.12050442,-76.6729057009999,320,"119 RETHERFORD DRIVE, BAINBRIDGE, PA, 17502","Match","Exact","119 RETHERFORD DR, BAINBRIDGE, PA, 17502",179695552,"L"
32821,"119 RICE TERRACE DRIVE","COLUMBIA","SC",29229,34.155135898,-80.914042975,321,"119 RICE TERRACE DRIVE, COLUMBIA, SC, 29229","Match","Exact","119 RICE TERRACE DR, COLUMBIA, SC, 29229",628054421,"L"
32822,"119 RIVER AVENUE","GARDINER","ME",4345,44.221536046,-69.7645350569999,322,"119 RIVER AVENUE, GARDINER, ME, 4345","Match","Exact","119 RIVER AVE, GARDINER, ME, 04345",75472313,"L"
32823,"119 RIVER WALK","DOUGLASVILLE","GA",30134,33.7938394080001,-84.8218793299999,323,"119 RIVER WALK, DOUGLASVILLE, GA, 30134","Match","Exact","119 RIVER WALK, DOUGLASVILLE, GA, 30134",17746749,"L"
32824,"119 RIVERWOOD AVENUE","BOWLING GREEN","KY",42103,36.9912214060001,-86.4255874789999,324,"119 RIVERWOOD AVENUE, BOWLING GREEN, KY, 42103","Match","Exact","119 RIVERWOOD AVE, BOWLING GREEN, KY, 42103",28005445,"R"
32825,"119 ROCKWALD RD","COLD SPRING","NY",10516,41.4338752370001,-73.909422061,325,"119 ROCKWALD RD, COLD SPRING, NY, 10516","Match","Exact","119 ROCKWALD RD, COLD SPRING, NY, 10516",139707684,"R"
32826,"119 ROCKY HILL CIRCLE","NORLINA","NC",27563,NA,NA,326,"119 ROCKY HILL CIRCLE, NORLINA, NC, 27563","No_Match",NA,NA,NA,NA
32827,"119 ROUND LAKE ROAD","RIDGEFIELD","CT",6877,41.307494337,-73.534063703,327,"119 ROUND LAKE ROAD, RIDGEFIELD, CT, 6877","Match","Exact","119 ROUND LAKE RD, RIDGEFIELD, CT, 06877",3254169,"L"
32828,"119 ROYALTY DR","ETNA","OH",43062,39.96720607,-82.735266536,328,"119 ROYALTY DR, ETNA, OH, 43062","Match","Exact","119 ROYALTY DR, ETNA, OH, 43062",612025221,"L"
32829,"119 S 10TH ST APT 502","BOISE","ID",83702,NA,NA,329,"119 S 10TH ST APT 502, BOISE, ID, 83702","Tie",NA,NA,NA,NA
32830,"119 S 44TH ST APT 2","PHILADELPHIA","PA",19104,39.956080292,-75.2098311459999,330,"119 S 44TH ST APT 2, PHILADELPHIA, PA, 19104","Match","Non_Exact","119 S 44TH ST, PHILADELPHIA, PA, 19104",131403788,"L"
32831,"119 S ATLANTIC BLVD STE 300","MONTEREY PARK","CA",91754,NA,NA,331,"119 S ATLANTIC BLVD STE 300, MONTEREY PARK, CA, 91754","Tie",NA,NA,NA,NA
32832,"119 S BRADY AVE","NEWTON","NC",28658,35.6614098370001,-81.220940809,332,"119 S BRADY AVE, NEWTON, NC, 28658","Match","Exact","119 S BRADY AVE, NEWTON, NC, 28658",45909637,"L"
32833,"119 S BROAD","GUTHRIE","OK",73044,35.8777741930001,-97.422765768,333,"119 S BROAD, GUTHRIE, OK, 73044","Match","Non_Exact","119 S BROAD ST, GUTHRIE, OK, 73044",121956164,"L"
32834,"119 S CHURCH ST","AZTEC","NM",87410,36.8218173700001,-107.993936932,334,"119 S CHURCH ST, AZTEC, NM, 87410","Match","Non_Exact","119 S CHURCH AVE, AZTEC, NM, 87410",127359488,"L"
32835,"119 S EAST STREET","LEESBURG","FL",34748,28.8106089340001,-81.862723954,335,"119 S EAST STREET, LEESBURG, FL, 34748","Match","Exact","119 S EAST ST, LEESBURG, FL, 34748",94137476,"L"
32836,"119 S FUQUAY AVENUE","FUQUAY VARINA","NC",27526,35.5839375530001,-78.7982772569999,336,"119 S FUQUAY AVENUE, FUQUAY VARINA, NC, 27526","Match","Exact","119 S FUQUAY AVE, FUQUAY VARINA, NC, 27526",72490871,"R"
32837,"119 S HILLSIDE DR","ELK RIDGE","UT",84651,NA,NA,337,"119 S HILLSIDE DR, ELK RIDGE, UT, 84651","Tie",NA,NA,NA,NA
32838,"119 S LEE STREET","AMERICUS","GA",31709,32.0717462630001,-84.232447721,338,"119 S LEE STREET, AMERICUS, GA, 31709","Match","Exact","119 S LEE ST, AMERICUS, GA, 31709",635635388,"L"
32839,"119 S MAIN STREET    PO BOX 500","HOLSTEIN","IA",51025,NA,NA,339,"119 S MAIN STREET    PO BOX 500, HOLSTEIN, IA, 51025","Tie",NA,NA,NA,NA
32840,"119 S MAIN STREET","MAYVILLE","WI",53050,43.4945816060001,-88.544104611,340,"119 S MAIN STREET, MAYVILLE, WI, 53050","Match","Exact","119 S MAIN ST, MAYVILLE, WI, 53050",53530436,"L"
32841,"119 S MILL STREET","BELOIT","KS",67420,39.4588604,-98.110367109,341,"119 S MILL STREET, BELOIT, KS, 67420","Match","Exact","119 S MILL ST, BELOIT, KS, 67420",148303880,"R"
32842,"119 S PAULINA","CHICAGO","IL",60612,41.879552108,-87.669240331,342,"119 S PAULINA, CHICAGO, IL, 60612","Match","Non_Exact","119 S PAULINA ST, CHICAGO, IL, 60612",642122945,"L"
32843,"119 S W 7TH AVENUE","DELRAY BEACH","FL",33444,26.459382045,-80.0801427229999,343,"119 S W 7TH AVENUE, DELRAY BEACH, FL, 33444","Match","Exact","119 SW 7TH AVE, DELRAY BEACH, FL, 33444",115512099,"L"
32844,"119 S WILLOW ROAD","EVANSVILLE","IN",47714,37.9760952020001,-87.539349854,344,"119 S WILLOW ROAD, EVANSVILLE, IN, 47714","Match","Exact","119 S WILLOW RD, EVANSVILLE, IN, 47714",635870941,"R"
32845,"119 SAN JOSE ST","SALINAS","CA",93901,36.6589004240001,-121.649078932,345,"119 SAN JOSE ST, SALINAS, CA, 93901","Match","Exact","119 SAN JOSE ST, SALINAS, CA, 93901",196824892,"L"
32846,"119 SANTA FE WALK","HELOTES","TX",78023,29.5826739010001,-98.653103217,346,"119 SANTA FE WALK, HELOTES, TX, 78023","Match","Exact","119 SANTA FE WALK, HELOTES, TX, 78023",101741103,"L"
32847,"119 SCHUSS ROAD","WAITSFIELD","VT",5673,44.1711494780001,-72.794189032,347,"119 SCHUSS ROAD, WAITSFIELD, VT, 5673","Match","Exact","119 SCHUSS RD, WAITSFIELD, VT, 05673",136667666,"R"
32848,"119 SEDGWICK AVE 2B","YONKERS","NY",10705,40.9117686490001,-73.88222032,348,"119 SEDGWICK AVE 2B, YONKERS, NY, 10705","Match","Exact","119 SEDGWICK AVE, YONKERS, NY, 10705",139744128,"L"
32849,"119 SEWICKLEY FARM CIR","MARS","PA",16046,40.6668389160001,-80.125649364,349,"119 SEWICKLEY FARM CIR, MARS, PA, 16046","Match","Exact","119 SEWICKLEY FARM CIR, MARS, PA, 16046",51707677,"L"
32850,"119 SHADOW LN","LEESVILLE","SC",29070,34.0664150470001,-81.4915876919999,350,"119 SHADOW LN, LEESVILLE, SC, 29070","Match","Exact","119 SHADOW LN, LEESVILLE, SC, 29070",65527864,"R"
32851,"119 SHADY LANE","ALEXANDER CITY","AL",35051,32.9468490740001,-85.9624809219999,351,"119 SHADY LANE, ALEXANDER CITY, AL, 35051","Match","Non_Exact","119 SHADY LN, ALEX CITY, AL, 35010",1662799,"L"
32852,"119 SHANE DRIVE","RIPLEY","MS",38663,34.737699531,-88.9238622679999,352,"119 SHANE DRIVE, RIPLEY, MS, 38663","Match","Exact","119 SHANE DR, RIPLEY, MS, 38663",604541197,"R"
32853,"119 SHENANDOAH ROAD","LAKE LURE","NC",28746,35.4401033120001,-82.171924974,353,"119 SHENANDOAH ROAD, LAKE LURE, NC, 28746","Match","Exact","119 SHENANDOAH RD, LAKE LURE, NC, 28746",19400101,"L"
32854,"119 SHEPHERDIA CT","WATERTOWN","MN",55388,NA,NA,354,"119 SHEPHERDIA CT, WATERTOWN, MN, 55388","No_Match",NA,NA,NA,NA
32855,"119 SHIPPEN ST","WEEHAWKEN","NJ",7086,40.7654517340001,-74.0267714189999,355,"119 SHIPPEN ST, WEEHAWKEN, NJ, 7086","Match","Exact","119 SHIPPEN ST, WEEHAWKEN, NJ, 07086",59599353,"L"
32856,"119 SOUTH ANN ST UNIT A","MOBILE","AL",36604,30.683125568,-88.066237182,356,"119 SOUTH ANN ST UNIT A, MOBILE, AL, 36604","Match","Exact","119 S ANN ST, MOBILE, AL, 36604",61861644,"L"
32857,"119 SOUTH EDGEMONT STREET APT A","LOS ANGELES","CA",90004,34.072394871,-118.297480455,357,"119 SOUTH EDGEMONT STREET APT A, LOS ANGELES, CA, 90004","Match","Exact","119 S EDGEMONT ST, LOS ANGELES, CA, 90004",141604893,"R"
32858,"119 SOUTH KILBOURNE ROAD","COLUMBIA","SC",29205,33.989655428,-80.98846615,358,"119 SOUTH KILBOURNE ROAD, COLUMBIA, SC, 29205","Match","Exact","119 S KILBOURNE RD, COLUMBIA, SC, 29205",71828788,"R"
32859,"119 SOUTH MAIN ST","CAMDEN","MI",49232,41.7551531730001,-84.75756025,359,"119 SOUTH MAIN ST, CAMDEN, MI, 49232","Match","Exact","119 S MAIN ST, CAMDEN, MI, 49232",8284155,"R"
32860,"119 SOUTH SHORE DRIVE","BUTLER","IN",46721,41.4150673190001,-84.873139048,360,"119 SOUTH SHORE DRIVE, BUTLER, IN, 46721","Match","Exact","119 S SHORE DR, BUTLER, IN, 46721",645661443,"L"
32861,"119 SOUTH TENNESSEE AVENUE","LAFOLLETTE","TN",37766,36.380275904,-84.1221823509999,361,"119 SOUTH TENNESSEE AVENUE, LAFOLLETTE, TN, 37766","Match","Non_Exact","119 S TENNESSEE AVE, LA FOLLETTE, TN, 37766",125745561,"R"
32862,"119 SPEAR COURT","IRVING","TX",75063,32.915960822,-96.94483347,362,"119 SPEAR COURT, IRVING, TX, 75063","Match","Exact","119 SPEAR CT, IRVING, TX, 75063",643182768,"L"
32863,"119 STONECREST ROAD","GREER","SC",29650,34.878442319,-82.263961431,363,"119 STONECREST ROAD, GREER, SC, 29650","Match","Exact","119 STONECREST RD, GREER, SC, 29650",38322893,"R"
32864,"119 STRATFORD WAY","HUDSON","WI",54016,44.960775002,-92.698537379,364,"119 STRATFORD WAY, HUDSON, WI, 54016","Match","Exact","119 STRATFORD WAY, HUDSON, WI, 54016",616410225,"L"
32865,"119 STRYKER PEAK TRAIL","KALISPELL","MT",59901,48.277261691,-114.336956782,365,"119 STRYKER PEAK TRAIL, KALISPELL, MT, 59901","Match","Exact","119 STRYKER PEAK TRL, KALISPELL, MT, 59901",634571019,"L"
32866,"119 SUMMERS STREET","CHARLESTON","WV",25301,38.3502948770001,-81.6361817389999,366,"119 SUMMERS STREET, CHARLESTON, WV, 25301","Match","Exact","119 SUMMERS ST, CHARLESTON, WV, 25301",78647166,"L"
32867,"119 SUNFLOWER COURT","BURLINGTON","NC",27217,36.1240493620001,-79.440501105,367,"119 SUNFLOWER COURT, BURLINGTON, NC, 27217","Match","Exact","119 SUNFLOWER CT, BURLINGTON, NC, 27217",617453891,"R"
32868,"119 SW HANGING GARDEN STREET","LEES SUMMIT","MO",64064,38.94659826,-94.2686545239999,368,"119 SW HANGING GARDEN STREET, LEES SUMMIT, MO, 64064","Match","Exact","119 SW HANGING GARDEN ST, LEES SUMMIT, MO, 64064",618449084,"R"
32869,"119 SW KERRON","WINLOCK","WA",98596,46.490805634,-122.938224281,369,"119 SW KERRON, WINLOCK, WA, 98596","Match","Non_Exact","119 SW KERRON ST, WINLOCK, WA, 98596",180720687,"L"
32870,"119 SW MAYNARD RD SUITE 270","CARY","NC",27511,35.7713076800001,-78.78256692,370,"119 SW MAYNARD RD SUITE 270, CARY, NC, 27511","Match","Non_Exact","119 SW MAYNARD RD, CARY, NC, 27511",72498444,"R"
32871,"119 SW ROSE GARDEN LANE","LEES SUMMIT","MO",64064,38.945855269,-94.268769957,371,"119 SW ROSE GARDEN LANE, LEES SUMMIT, MO, 64064","Match","Exact","119 SW ROSE GARDEN LN, LEES SUMMIT, MO, 64064",618449097,"R"
32872,"119 SYCAMORE DRIVE","ATHENS","GA",30606,33.9470258750001,-83.418274046,372,"119 SYCAMORE DRIVE, ATHENS, GA, 30606","Match","Exact","119 SYCAMORE DR, ATHENS, GA, 30606",4805274,"L"
32873,"119 TALAH WAY","LOUDON","TN",37774,35.6775479340001,-84.258230909,373,"119 TALAH WAY, LOUDON, TN, 37774","Match","Exact","119 TALAH WAY, LOUDON, TN, 37774",99973211,"R"
32874,"119 TALAVERA PLACE","PALM BEACH GARDENS","FL",33418,26.8491805990001,-80.152824782,374,"119 TALAVERA PLACE, PALM BEACH GARDENS, FL, 33418","Match","Exact","119 TALAVERA PL, PALM BEACH GARDENS, FL, 33418",115542637,"R"
32875,"119 TILDEN AVE SUITE B","CHESAPEAKE","VA",23320,36.725851935,-76.242143195,375,"119 TILDEN AVE SUITE B, CHESAPEAKE, VA, 23320","Match","Exact","119 TILDEN AVE, CHESAPEAKE, VA, 23320",121773531,"L"
32876,"119 TOWNSHIP DRIVE","UNIONTOWN","PA",15401,39.8799612290001,-79.7184883049999,376,"119 TOWNSHIP DRIVE, UNIONTOWN, PA, 15401","Match","Exact","119 TOWNSHIP DR, UNIONTOWN, PA, 15401",51175852,"L"
32877,"119 UNIVERSITY BLVD STE 123","DENVER","CO",80206,39.7186155580001,-104.959331596,377,"119 UNIVERSITY BLVD STE 123, DENVER, CO, 80206","Match","Exact","119 UNIVERSITY BLVD, DENVER, CO, 80206",177338220,"L"
32878,"119 URBAN ST","BUFFALO","NY",14211,42.909331384,-78.8347770569999,378,"119 URBAN ST, BUFFALO, NY, 14211","Match","Exact","119 URBAN ST, BUFFALO, NY, 14211",48296716,"R"
32879,"119 VALERIE LN","BEAR","DE",19701,39.6046627050001,-75.703447432,379,"119 VALERIE LN, BEAR, DE, 19701","Match","Exact","119 VALERIE LN, BEAR, DE, 19701",187284694,"R"
32880,"119 VARNUM ST NW","WASHINGTON","DC",20011,38.9433178620001,-77.012783167,380,"119 VARNUM ST NW, WASHINGTON, DC, 20011","Match","Exact","119 VARNUM ST NW, WASHINGTON, DC, 20011",76223940,"R"
32881,"119 VIA DEL MILAGRO","MONTEREY","CA",93940,36.574093546,-121.780328685,381,"119 VIA DEL MILAGRO, MONTEREY, CA, 93940","Match","Exact","119 VIA DEL MILAGRO, MONTEREY, CA, 93940",196862255,"R"
32882,"119 VINE ST","CAMBRIDGE","IA",50046,41.8970813400001,-93.532270916,382,"119 VINE ST, CAMBRIDGE, IA, 50046","Match","Exact","119 VINE ST, CAMBRIDGE, IA, 50046",65948512,"L"
32883,"119 W 12TH STREET","COZAD","NE",69130,40.86318285,-99.9868021729999,383,"119 W 12TH STREET, COZAD, NE, 69130","Match","Exact","119 12TH ST, COZAD, NE, 69130",137933163,"R"
32884,"119 W 24TH ST 4TH FL C/O COMAR LLP","NEW YORK","NY",10011,40.743857566,-73.992988047,384,"119 W 24TH ST 4TH FL C/O COMAR LLP, NEW YORK, NY, 10011","Match","Non_Exact","119 W 24TH ST, NEW YORK, NY, 10011",642472021,"R"
32885,"119 W 57 STREET SUITE 1100","NEW YORK","NY",10019,40.7646155900001,-73.977865036,385,"119 W 57 STREET SUITE 1100, NEW YORK, NY, 10019","Match","Non_Exact","119 W 57TH ST, NEW YORK, NY, 10019",59657122,"R"
32886,"119 W BAYVIEW AVENUE","PLEASANTVILLE","NJ",8232,39.3876165340001,-74.5295145389999,386,"119 W BAYVIEW AVENUE, PLEASANTVILLE, NJ, 8232","Match","Exact","119 W BAYVIEW AVE, PLEASANTVILLE, NJ, 08232",202486179,"L"
32887,"119 W EASY ST","DESTREHAN","LA",70047,29.9727373380001,-90.390008665,387,"119 W EASY ST, DESTREHAN, LA, 70047","Match","Exact","119 W EASY ST, DESTREHAN, LA, 70047",93635108,"L"
32888,"119 W GARRO ST","PLYMOUTH","IN",46563,41.3408110020001,-86.3094871869999,388,"119 W GARRO ST, PLYMOUTH, IN, 46563","Match","Exact","119 W GARRO ST, PLYMOUTH, IN, 46563",7642213,"R"
32889,"119 W GARRO STREET","PLYMOUTH","IN",46563,41.3408110020001,-86.3094871869999,389,"119 W GARRO STREET, PLYMOUTH, IN, 46563","Match","Exact","119 W GARRO ST, PLYMOUTH, IN, 46563",7642213,"R"
32890,"119 W GREGORY BLVD","KANSAS CITY","MO",64114,38.9994660020001,-94.590589605,390,"119 W GREGORY BLVD, KANSAS CITY, MO, 64114","Match","Exact","119 W GREGORY BLVD, KANSAS CITY, MO, 64114",91454618,"L"
32891,"119 W HARRISON ST","RENSSELAER","IN",47978,40.9355444890001,-87.150255252,391,"119 W HARRISON ST, RENSSELAER, IN, 47978","Match","Exact","119 W HARRISON ST, RENSSELAER, IN, 47978",15369805,"R"
32892,"119 W IRON AVENUE 10TH FLOOR","SALINA","KS",67401,38.8405513160001,-97.608800226,392,"119 W IRON AVENUE 10TH FLOOR, SALINA, KS, 67401","Match","Non_Exact","119 E IRON AVE, SALINA, KS, 67401",196684931,"R"
32893,"119 W MADISON ST SUITE 102","OTTAWA","IL",61350,41.3468355970001,-88.8422866499999,393,"119 W MADISON ST SUITE 102, OTTAWA, IL, 61350","Match","Non_Exact","119 W MADISON ST, OTTAWA, IL, 61350",8586256,"L"
32894,"119 W MAIN ST C        P O BOX 12","STOCKBRIDGE","MI",49285,NA,NA,394,"119 W MAIN ST C        P O BOX 12, STOCKBRIDGE, MI, 49285","Tie",NA,NA,NA,NA
32895,"119 W MEDCALF","MARLOW","OK",73055,NA,NA,395,"119 W MEDCALF, MARLOW, OK, 73055","No_Match",NA,NA,NA,NA
32896,"119 W MOSES ST","CUSHING","OK",74023,35.981053783,-96.772977235,396,"119 W MOSES ST, CUSHING, OK, 74023","Match","Exact","119 W MOSES ST, CUSHING, OK, 74023",166362694,"L"
32897,"119 W QUAIL RIDGE RD","OXFOR","NC",27565,36.3127186090001,-78.6110696809999,397,"119 W QUAIL RIDGE RD, OXFOR, NC, 27565","Match","Non_Exact","119 W QUAIL RIDGE RD, OXFORD, NC, 27565",647172880,"L"
32898,"119 W SMITHFILED ST","BRADFORD","OH",45308,40.128367661,-84.431540377,398,"119 W SMITHFILED ST, BRADFORD, OH, 45308","Match","Non_Exact","119 W SMITHFIELD ST, BRADFORD, OH, 45308",54552652,"L"
32899,"119 W STATE ST","NOKOMIS","IL",62075,39.3010177290001,-89.28557018,399,"119 W STATE ST, NOKOMIS, IL, 62075","Match","Exact","119 W STATE ST, NOKOMIS, IL, 62075",99436661,"R"
32900,"119 W STATE STREET","QUARRYVILLE","PA",17566,39.896579348,-76.165502228,400,"119 W STATE STREET, QUARRYVILLE, PA, 17566","Match","Exact","119 W STATE ST, QUARRYVILLE, PA, 17566",179671524,"R"
32901,"119 W TEAGUE BAY DR","ST AUGUSTINE","FL",32092,30.0320029530001,-81.521600582,401,"119 W TEAGUE BAY DR, ST AUGUSTINE, FL, 32092","Match","Exact","119 W TEAGUE BAY DR, SAINT AUGUSTINE, FL, 32092",639383118,"L"
32902,"119 W WASHINGTON ST","KIRKSVILLE","MO",63501,40.1947107660001,-92.58342887,402,"119 W WASHINGTON ST, KIRKSVILLE, MO, 63501","Match","Exact","119 W WASHINGTON ST, KIRKSVILLE, MO, 63501",24761932,"R"
32903,"119 WALNUT TREE LOOP","GEORGETOWN","TX",78633,30.7094299560001,-97.750968356,403,"119 WALNUT TREE LOOP, GEORGETOWN, TX, 78633","Match","Exact","119 WALNUT TREE LOOP, GEORGETOWN, TX, 78633",647891783,"L"
32904,"119 WARREN ST","SUFFOLK","VA",23434,36.700324665,-76.603566507,404,"119 WARREN ST, SUFFOLK, VA, 23434","Match","Exact","119 WARREN ST, SUFFOLK, VA, 23434",122226475,"L"
32905,"119 WASHBURNE AVE","PAYNESVILLE","MN",56362,45.3825243740001,-94.713450097,405,"119 WASHBURNE AVE, PAYNESVILLE, MN, 56362","Match","Exact","119 WASHBURNE AVE, PAYNESVILLE, MN, 56362",107406042,"R"
32906,"119 WASHINGTON AVENUE SUITE 500","MIAMI BEACH","FL",33139,25.770218836,-80.135105756,406,"119 WASHINGTON AVENUE SUITE 500, MIAMI BEACH, FL, 33139","Match","Exact","119 WASHINGTON AVE, MIAMI BEACH, FL, 33139",116020773,"R"
32907,"119 WATERWORKS ROAD","RIPLEY","OH",45167,38.731808277,-83.837353072,407,"119 WATERWORKS ROAD, RIPLEY, OH, 45167","Match","Exact","119 WATERWORKS RD, RIPLEY, OH, 45167",100972005,"R"
32908,"119 WEST 71ST STREET   6A","NEW YORK","NY",10023,40.777008643,-73.979918662,408,"119 WEST 71ST STREET   6A, NEW YORK, NY, 10023","Match","Exact","119 W 71ST ST, NEW YORK, NY, 10023",59655117,"L"
32909,"119 WEST BRIDGE ROAD","HAMILTON","MT",59840,46.247568621,-114.183385666,409,"119 WEST BRIDGE ROAD, HAMILTON, MT, 59840","Match","Exact","119 W BRIDGE RD, HAMILTON, MT, 59840",640933504,"R"
32910,"119 WEST DAVIS STREET","YELLOW SPRINGS","OH",45387,39.802941547,-83.891521487,410,"119 WEST DAVIS STREET, YELLOW SPRINGS, OH, 45387","Match","Exact","119 W DAVIS ST, YELLOW SPGS, OH, 45387",143385981,"L"
32911,"119 WEST IRON STREET 2ND FLOOR","SALINA","KS",67401,NA,NA,411,"119 WEST IRON STREET 2ND FLOOR, SALINA, KS, 67401","No_Match",NA,NA,NA,NA
32912,"119 WEST OHIO STREET","MORGANTOWN","KY",42261,37.2266396530001,-86.683906465,412,"119 WEST OHIO STREET, MORGANTOWN, KY, 42261","Match","Exact","119 W OHIO ST, MORGANTOWN, KY, 42261",15627847,"L"
32913,"119 WEST SPRING STREET","ST MARYS","OH",45885,40.5429264310001,-84.388508784,413,"119 WEST SPRING STREET, ST MARYS, OH, 45885","Match","Exact","119 W SPRING ST, SAINT MARYS, OH, 45885",36420595,"R"
32914,"119 WHITE ROCK ROAD","JANE","MO",64856,NA,NA,414,"119 WHITE ROCK ROAD, JANE, MO, 64856","No_Match",NA,NA,NA,NA
32915,"119 WHITE STREET","MANCHESTER","CT",6042,41.790583499,-72.5185378209999,415,"119 WHITE STREET, MANCHESTER, CT, 6042","Match","Exact","119 WHITE ST, MANCHESTER, CT, 06042",3492212,"R"
32916,"119 WILDWOOD AVENUE","PITMAN","NJ",8071,39.7293072640001,-75.124411365,416,"119 WILDWOOD AVENUE, PITMAN, NJ, 8071","Match","Exact","119 WILDWOOD AVE, PITMAN, NJ, 08071",134588291,"R"
32917,"119 WILLIAMS ROAD","TRAVELERS REST","SC",29690,34.9816960090001,-82.441268233,417,"119 WILLIAMS ROAD, TRAVELERS REST, SC, 29690","Match","Exact","119 WILLIAMS RD, TRAVELERS REST, SC, 29690",38356681,"R"
32918,"119 WILLIAMS ST","HURON","OH",44839,41.397257639,-82.553029451,418,"119 WILLIAMS ST, HURON, OH, 44839","Match","Exact","119 WILLIAMS ST, HURON, OH, 44839",55334343,"L"
32919,"119 WILLOW STREET APARTMENT 2","CAMBRIDGE","MA",2141,42.3729480170001,-71.09171156,419,"119 WILLOW STREET APARTMENT 2, CAMBRIDGE, MA, 2141","Match","Exact","119 WILLOW ST, CAMBRIDGE, MA, 02141",650221903,"R"
32920,"119 WINCLIFF DRIVE","BUDA","TX",78610,30.0993491180001,-97.8643581969999,420,"119 WINCLIFF DRIVE, BUDA, TX, 78610","Match","Exact","119 WINCLIFF DR, BUDA, TX, 78610",650647187,"L"
32921,"119 WINNEBAGO STREET SUITE 4","DECORAH","IA",52101,43.304064522,-91.787177454,421,"119 WINNEBAGO STREET SUITE 4, DECORAH, IA, 52101","Match","Exact","119 WINNEBAGO ST, DECORAH, IA, 52101",27524662,"L"
32922,"119 WOODLAWN AVE","ROYAL OAK","MI",48073,42.52183538,-83.145107111,422,"119 WOODLAWN AVE, ROYAL OAK, MI, 48073","Match","Exact","119 WOODLAWN AVE, ROYAL OAK, MI, 48073",69743773,"L"
32923,"119 YADKIN FALLS ROAD","NEW LONDON","NC",28127,35.468157945,-80.094726076,423,"119 YADKIN FALLS ROAD, NEW LONDON, NC, 28127","Match","Exact","119 YADKIN FALLS, NEW LONDON, NC, 28127",20039665,"L"
32924,"119-121 COLUMBIA AVE","NEWARK","NJ",7106,40.740973437,-74.2204638919999,424,"119-121 COLUMBIA AVE, NEWARK, NJ, 7106","Match","Exact","119 COLUMBIA AVE, NEWARK, NJ, 07106",63464416,"R"
32925,"119-23 229TH STREET","CAMBRIA HEIGHTS","NY",11411,40.6890274790001,-73.734200469,425,"119-23 229TH STREET, CAMBRIA HEIGHTS, NY, 11411","Match","Exact","119-23 229TH ST, CAMBRIA HTS, NY, 11411",59720920,"L"
32926,"119-30 237TH STREET","CAMBRIA HEIGHTS","NY",11411,40.686807559,-73.727307205,426,"119-30 237TH STREET, CAMBRIA HEIGHTS, NY, 11411","Match","Exact","119-30 237TH ST, CAMBRIA HTS, NY, 11411",59724974,"R"
32927,"119-44 167 STREET","JAMAICA","NY",11434,40.682864443,-73.7780939469999,427,"119-44 167 STREET, JAMAICA, NY, 11434","Match","Exact","119-44 167TH ST, JAMAICA, NY, 11434",59718858,"R"
32928,"119-44 195 STREET","ST. ALBANS","NY",11412,40.6896906200001,-73.755143184,428,"119-44 195 STREET, ST. ALBANS, NY, 11412","Match","Exact","119-44 195TH ST, SAINT ALBANS, NY, 11412",59719426,"R"
32929,"119-51 178TH STREET","JAMAICA","NY",11434,40.6859998680001,-73.76644219,429,"119-51 178TH STREET, JAMAICA, NY, 11434","Match","Exact","119-51 178TH ST, JAMAICA, NY, 11434",59732429,"L"
32930,"119-51 221 STREET","CAMBRIA HEIGHTS","NY",11411,40.690749269,-73.741409694,430,"119-51 221 STREET, CAMBRIA HEIGHTS, NY, 11411","Match","Exact","119-51 221ST ST, CAMBRIA HTS, NY, 11411",59720504,"L"
32931,"119","SAINT CLOUD","FL",34769,NA,NA,431,"119, SAINT CLOUD, FL, 34769","No_Match",NA,NA,NA,NA
32932,"1190 25TH STREET","MARION","IA",52302,42.038272442,-91.5860505319999,432,"1190 25TH STREET, MARION, IA, 52302","Match","Exact","1190 25TH ST, MARION, IA, 52302",17023104,"L"
32933,"1190 330TH ST","HENDRICKS","MN",56136,NA,NA,433,"1190 330TH ST, HENDRICKS, MN, 56136","No_Match",NA,NA,NA,NA
32934,"1190 BOYLSTON STREET","NEWTON","MA",2464,42.317700131,-71.220638762,434,"1190 BOYLSTON STREET, NEWTON, MA, 2464","Match","Exact","1190 BOYLSTON ST, NEWTON, MA, 02464",647976052,"L"
32935,"1190 BRIDGE MILL AVENUE","CANTON","GA",30114,34.1794990810001,-84.570467618,435,"1190 BRIDGE MILL AVENUE, CANTON, GA, 30114","Match","Exact","1190 BRIDGE MILL AVE, CANTON, GA, 30114",627188250,"L"
32936,"1190 BULLDOG DR","FREEDOM","PA",15042,40.6788604830001,-80.239303599,436,"1190 BULLDOG DR, FREEDOM, PA, 15042","Match","Exact","1190 BULLDOG DR, FREEDOM, PA, 15042",52576657,"L"
32937,"1190 CHANDLER DRIVE","WESTMINSTER","MD",21157,39.545503905,-76.978678154,437,"1190 CHANDLER DRIVE, WESTMINSTER, MD, 21157","Match","Exact","1190 CHANDLER DR, WESTMINSTER, MD, 21157",608459397,"R"
32938,"1190 CRANE VIEW ROAD","SALISBURY","NC",28146,35.663773996,-80.330459766,438,"1190 CRANE VIEW ROAD, SALISBURY, NC, 28146","Match","Exact","1190 CRANE VIEW RD, SALISBURY, NC, 28146",624448855,"R"
32939,"1190 DELL AVE UNIT I","CAMPBELL","CA",95008,37.2690516590001,-121.952768466,439,"1190 DELL AVE UNIT I, CAMPBELL, CA, 95008","Match","Exact","1190 DELL AVE, CAMPBELL, CA, 95008",122920271,"L"
32940,"1190 DELPHI","SHERIDAN","WY",82801,44.8096761,-106.966962956,440,"1190 DELPHI, SHERIDAN, WY, 82801","Match","Non_Exact","1190 DELPHI AVE, SHERIDAN, WY, 82801",147422120,"L"
32941,"1190 EAST DELEVAN AVENUE","BUFFALO","NY",14215,42.9226720620001,-78.812887202,441,"1190 EAST DELEVAN AVENUE, BUFFALO, NY, 14215","Match","Non_Exact","1190 E DELAVAN AVE, BUFFALO, NY, 14215",48297412,"L"
32942,"1190 HARRIS ROAD","WEBSTER","NY",14580,43.193815079,-77.411491427,442,"1190 HARRIS ROAD, WEBSTER, NY, 14580","Match","Exact","1190 HARRIS RD, WEBSTER, NY, 14580",14549357,"L"
32943,"1190 KEITH DR","COLORADO SPRINGS","CO",80916,38.815373707,-104.739626353,443,"1190 KEITH DR, COLORADO SPRINGS, CO, 80916","Match","Exact","1190 KEITH DR, COLORADO SPRINGS, CO, 80916",105522974,"R"
32944,"1190 KENMORE ROAD","HILLSVILLE","VA",24343,36.687644533,-80.7521845369999,444,"1190 KENMORE ROAD, HILLSVILLE, VA, 24343","Match","Exact","1190 KENMORE RD, HILLSVILLE, VA, 24343",648421862,"R"
32945,"1190 LAURELWOOD LANE","LAWRENCEVILLE","GA",30045,33.9219525440001,-84.009461179,445,"1190 LAURELWOOD LANE, LAWRENCEVILLE, GA, 30045","Match","Exact","1190 LAURELWOOD LN, LAWRENCEVILLE, GA, 30045",627010100,"L"
32946,"1190 LEDGESTONE DR","WADSWORTH","OH",44281,41.0567258770001,-81.744392319,446,"1190 LEDGESTONE DR, WADSWORTH, OH, 44281","Match","Exact","1190 LEDGESTONE DR, WADSWORTH, OH, 44281",58691522,"R"
32947,"1190 LINCOLN AVE UNIT C","GLENDALE","OH",45246,39.2784316410001,-84.4770361449999,447,"1190 LINCOLN AVE UNIT C, GLENDALE, OH, 45246","Match","Exact","1190 LINCOLN AVE, GLENDALE, OH, 45246",103944283,"R"
32948,"1190 MERAMEC STATION ROAD","BALLWIN","MO",63021,38.571528658,-90.498301138,448,"1190 MERAMEC STATION ROAD, BALLWIN, MO, 63021","Match","Exact","1190 MERAMEC STATION RD, BALLWIN, MO, 63021",628727676,"R"
32949,"1190 MONTEREY PASS ROAD","MONTEREY PARK","CA",91754,34.050233941,-118.15938203,449,"1190 MONTEREY PASS ROAD, MONTEREY PARK, CA, 91754","Match","Exact","1190 MONTEREY PASS RD, MONTEREY PARK, CA, 91754",141636150,"L"
32950,"1190 MT AETNA ROAD STE 101","HAGERSTOWN","MD",21740,39.6239884280001,-77.695798816,450,"1190 MT AETNA ROAD STE 101, HAGERSTOWN, MD, 21740","Match","Exact","1190 MOUNT AETNA RD, HAGERSTOWN, MD, 21740",60798087,"L"
32951,"1190 N CARROLL AVE","SOUTHLAKE","TX",76092,32.955295974,-97.134099926,451,"1190 N CARROLL AVE, SOUTHLAKE, TX, 76092","Match","Exact","1190 N CARROLL AVE, SOUTHLAKE, TX, 76092",101867018,"R"
32952,"1190 NIAGARA DRIVE UNIT 15","FORT COLLINS","CO",80525,40.560215301,-105.056299311,452,"1190 NIAGARA DRIVE UNIT 15, FORT COLLINS, CO, 80525","Match","Exact","1190 NIAGARA DR, FORT COLLINS, CO, 80525",188538371,"R"
32953,"1190 OAKRIDGE ROAD NORTH","PARK CITY","UT",84098,40.766940124,-111.488887241,453,"1190 OAKRIDGE ROAD NORTH, PARK CITY, UT, 84098","Match","Exact","1190 OAKRIDGE RD N, PARK CITY, UT, 84098",160638730,"L"
32954,"1190 OLD CAP-AU-GRIS","TROY","MO",63379,NA,NA,454,"1190 OLD CAP-AU-GRIS, TROY, MO, 63379","Tie",NA,NA,NA,NA
32955,"1190 OLD INDUSTRIAL ROAD","MCCOMB","MS",39648,31.203122181,-90.4381514999999,455,"1190 OLD INDUSTRIAL ROAD, MCCOMB, MS, 39648","Match","Exact","1190 OLD INDUSTRIAL RD, MCCOMB, MS, 39648",75860128,"R"
32956,"1190 PINE DR","LEMOORE","CA",93245,36.3162946090001,-119.767716765,456,"1190 PINE DR, LEMOORE, CA, 93245","Match","Exact","1190 PINE DR, LEMOORE, CA, 93245",197979208,"L"
32957,"1190 PINE ST","CHEROKEE","AL",35616,34.770169923,-87.956451703,457,"1190 PINE ST, CHEROKEE, AL, 35616","Match","Exact","1190 PINE ST, CHEROKEE, AL, 35616",40754849,"R"
32958,"1190 S TRADE DAYS BLVD STE 2","CANTON","TX",75103,NA,NA,458,"1190 S TRADE DAYS BLVD STE 2, CANTON, TX, 75103","No_Match",NA,NA,NA,NA
32959,"1190 S WINERY APT 193","FRESNO","CA",93727,NA,NA,459,"1190 S WINERY APT 193, FRESNO, CA, 93727","No_Match",NA,NA,NA,NA
32960,"1190 SAINT VINCENT DRIVE","MONROEVILLE","PA",15146,40.4206220560001,-79.7502524079999,460,"1190 SAINT VINCENT DRIVE, MONROEVILLE, PA, 15146","Match","Exact","1190 SAINT VINCENT DR, MONROEVILLE, PA, 15146",51677103,"L"
32961,"1190 SHELL OIL RD","BRANDON","MS",39042,32.178540728,-89.92484518,461,"1190 SHELL OIL RD, BRANDON, MS, 39042","Match","Exact","1190 SHELL OIL RD, BRANDON, MS, 39042",116900453,"L"
32962,"1190 STONEHEATH MEWS","MARIETTA","GA",30068,33.987778156,-84.397925759,462,"1190 STONEHEATH MEWS, MARIETTA, GA, 30068","Match","Exact","1190 STONEHEATH MEWS, MARIETTA, GA, 30068",17186926,"L"
32963,"1190 W 24TH ST UNIT 1","SAN PEDRO","CA",90731,33.722489975,-118.303134183,463,"1190 W 24TH ST UNIT 1, SAN PEDRO, CA, 90731","Match","Non_Exact","1190 W 24TH ST, SAN PEDRO, CA, 90731",141690394,"R"
32964,"1190 WAUBEEK RD","CENTRAL CITY","IA",52214,42.1657339120001,-91.479304928,464,"1190 WAUBEEK RD, CENTRAL CITY, IA, 52214","Match","Exact","1190 WAUBEEK RD, CENTRAL CITY, IA, 52214",17014093,"R"
32965,"1190 WHIGAM ROAD","RIVERWOODS","IL",60015,42.171662181,-87.902646496,465,"1190 WHIGAM ROAD, RIVERWOODS, IL, 60015","Match","Exact","1190 WHIGAM RD, RIVERWOODS, IL, 60015",119650038,"L"
32966,"1190 WINDBROOKE DRIVE","POWDER SPRINGS","GA",30127,33.8308564120001,-84.6745936199999,466,"1190 WINDBROOKE DRIVE, POWDER SPRINGS, GA, 30127","Match","Exact","1190 WINDBROOKE DR, POWDER SPGS, GA, 30127",619994908,"R"
32967,"11900 ASHLEY DR","ROCKVILLE","MD",20852,39.05023443,-77.092270384,467,"11900 ASHLEY DR, ROCKVILLE, MD, 20852","Match","Exact","11900 ASHLEY DR, ROCKVILLE, MD, 20852",62061063,"L"
32968,"11900 BAILEY ROAD","CORNELIUS","NC",28031,35.4680086060001,-80.839161121,468,"11900 BAILEY ROAD, CORNELIUS, NC, 28031","Match","Exact","11900 BAILEY RD, CORNELIUS, NC, 28031",624122091,"R"
32969,"11900 BISCAYNE BOULEVARD SUITE 280","MIAMI","FL",33181,25.886273078,-80.1646815029999,469,"11900 BISCAYNE BOULEVARD SUITE 280, MIAMI, FL, 33181","Match","Exact","11900 BISCAYNE BLVD, MIAMI, FL, 33181",647907303,"L"
32970,"11900 CITY PARK CENTRAL LN 7103","HOUSTON","TX",77047,29.6244746840001,-95.3900430899999,470,"11900 CITY PARK CENTRAL LN 7103, HOUSTON, TX, 77047","Match","Exact","11900 CITY PARK CENTRAL LN, HOUSTON, TX, 77047",633572674,"R"
32971,"11900 CITY PARK CENTRAL LN APT 2206","HOUSTON","TX",77047,29.6244746840001,-95.3900430899999,471,"11900 CITY PARK CENTRAL LN APT 2206, HOUSTON, TX, 77047","Match","Exact","11900 CITY PARK CENTRAL LN, HOUSTON, TX, 77047",633572674,"R"
32972,"11900 CITY PARK CENTRAL LN APT 3310","HOUSTON","TX",77047,29.6244746840001,-95.3900430899999,472,"11900 CITY PARK CENTRAL LN APT 3310, HOUSTON, TX, 77047","Match","Exact","11900 CITY PARK CENTRAL LN, HOUSTON, TX, 77047",633572674,"R"
32973,"11900 COLORIVER RD","MANASSAS","OH",20108,NA,NA,473,"11900 COLORIVER RD, MANASSAS, OH, 20108","No_Match",NA,NA,NA,NA
32974,"11900 E 131ST STREET SOUTH","BROKEN ARROW","OK",74011,35.973847214,-95.843654068,474,"11900 E 131ST STREET SOUTH, BROKEN ARROW, OK, 74011","Match","Exact","11900 E 131ST ST S, BROKEN ARROW, OK, 74011",166505951,"R"
32975,"11900 E BROADWAY AVE","SPOKANE VALLEY","WA",99206,47.6643560470001,-117.24488114,475,"11900 E BROADWAY AVE, SPOKANE VALLEY, WA, 99206","Match","Exact","11900 E BROADWAY AVE, SPOKANE VALLEY, WA, 99206",189888764,"R"
32976,"11900 EAGLES GLEN DR","AUSTIN","TX",78732,30.355300764,-97.8904345129999,476,"11900 EAGLES GLEN DR, AUSTIN, TX, 78732","Match","Exact","11900 EAGLES GLEN DR, AUSTIN, TX, 78732",624860936,"L"
32977,"11900 FROST DR","BOWIE","MD",20720,39.0025764050001,-76.800118033,477,"11900 FROST DR, BOWIE, MD, 20720","Match","Exact","11900 FROST DR, BOWIE, MD, 20720",76335857,"L"
32978,"11900 JOLLYVILLE RD UNIT 200023","AUSTIN","TX",78759,30.4234183450001,-97.7563016029999,478,"11900 JOLLYVILLE RD UNIT 200023, AUSTIN, TX, 78759","Match","Exact","11900 JOLLYVILLE RD, AUSTIN, TX, 78759",63964430,"L"
32979,"11900 N PENNSYLVANIA - SUITE A-8","OKLAHOMA CITY","OK",73120,NA,NA,479,"11900 N PENNSYLVANIA - SUITE A-8, OKLAHOMA CITY, OK, 73120","No_Match",NA,NA,NA,NA
32980,"11900 OAKMOOR PARKWAY - APT 112","HOUSTON","TX",77051,29.641567004,-95.401921805,480,"11900 OAKMOOR PARKWAY - APT 112, HOUSTON, TX, 77051","Match","Exact","11900 OAKMOOR PKWY, HOUSTON, TX, 77051",623701158,"L"
32981,"11900 SAINT ALBANS HOLLOW DR","MINNETONKA","MN",55305,44.947326724,-93.429676466,481,"11900 SAINT ALBANS HOLLOW DR, MINNETONKA, MN, 55305","Match","Exact","11900 SAINT ALBANS HOLLOW DR, MINNETONKA, MN, 55305",43844776,"L"
32982,"11900 SHADOW CREEK  626","PEARLAND","TX",77584,NA,NA,482,"11900 SHADOW CREEK  626, PEARLAND, TX, 77584","No_Match",NA,NA,NA,NA
32983,"11900 SHADOW CREEK PARKWAY APT","PEARLAND","TX",77584,NA,NA,483,"11900 SHADOW CREEK PARKWAY APT, PEARLAND, TX, 77584","No_Match",NA,NA,NA,NA
32984,"11900 SHADOW CREEK PARKWAY/1022","PEARLAND","TX",77584,NA,NA,484,"11900 SHADOW CREEK PARKWAY/1022, PEARLAND, TX, 77584","No_Match",NA,NA,NA,NA
32985,"11900 SW 202 ST APT 201","MIAMI","FL",33177,25.5790324810001,-80.38488724,485,"11900 SW 202 ST APT 201, MIAMI, FL, 33177","Match","Non_Exact","11900 SW 202ND ST, MIAMI, FL, 33177",116279896,"L"
32986,"11900 TAHOE AVE","HAWTHORNE","CA",90250,33.9254034800001,-118.367046915,486,"11900 TAHOE AVE, HAWTHORNE, CA, 90250","Match","Exact","11900 TAHOE AVE, HAWTHORNE, CA, 90250",141655911,"L"
32987,"11900 W 525 SOUTH","COLUMBUS","IN",47201,39.117499186,-86.048953173,487,"11900 W 525 SOUTH, COLUMBUS, IN, 47201","Match","Exact","11900 W 525 S, COLUMBUS, IN, 47201",606451738,"R"
32988,"11900 W OLYMPIC BLVD SUITE 770","LOS ANGELES","CA",90064,34.032766641,-118.45150627,488,"11900 W OLYMPIC BLVD SUITE 770, LOS ANGELES, CA, 90064","Match","Non_Exact","11900 W OLYMPIC BLVD, LOS ANGELES, CA, 90064",625278208,"L"
32989,"11900 WICKCHESTER LN 410","HOUSTON","TX",77043,29.7879097200001,-95.593549753,489,"11900 WICKCHESTER LN 410, HOUSTON, TX, 77043","Match","Exact","11900 WICKCHESTER LN, HOUSTON, TX, 77043",96629949,"L"
32990,"11901 10TH WAY N APT 3301","ST PETERSBURG","FL",33716,27.8805415210001,-82.650210568,490,"11901 10TH WAY N APT 3301, ST PETERSBURG, FL, 33716","Match","Exact","11901 10TH WAY N, SAINT PETERSBURG, FL, 33716",645842375,"R"
32991,"11901 176TH STREET APT 222","ARTESIA","CA",90701,33.870951561,-118.08105391,491,"11901 176TH STREET APT 222, ARTESIA, CA, 90701","Match","Exact","11901 176TH ST, ARTESIA, CA, 90701",141744155,"L"
32992,"11901 47TH AVE","PLEASANT PRAIRIE","WI",53158,42.505340124,-87.863059101,492,"11901 47TH AVE, PLEASANT PRAIRIE, WI, 53158","Match","Exact","11901 47TH AVE, PLEASANT PRAIRIE, WI, 53158",79799114,"L"
32993,"11901 ACACIA AVENUE","HAWTHORNE","CA",90250,33.925355906,-118.351329017,493,"11901 ACACIA AVENUE, HAWTHORNE, CA, 90250","Match","Exact","11901 ACACIA AVE, HAWTHORNE, CA, 90250",141656221,"R"
32994,"11901 AVALON BOULEVARD","LOS ANGELES","CA",90061,33.9245902380001,-118.265199876,494,"11901 AVALON BOULEVARD, LOS ANGELES, CA, 90061","Match","Exact","11901 AVALON BLVD, LOS ANGELES, CA, 90061",141673206,"R"
32995,"11901 BLUE MOON AVE","OKLAHOMA CITY","OK",73162,35.591156885,-97.6655683559999,495,"11901 BLUE MOON AVE, OKLAHOMA CITY, OK, 73162","Match","Exact","11901 BLUE MOON AVE, OKLAHOMA CITY, OK, 73162",100422623,"R"
32996,"11901 CENTRAL PARK WAY APT 2310","MAPLE GROVE","MN",55369,45.1005545780001,-93.433662069,496,"11901 CENTRAL PARK WAY APT 2310, MAPLE GROVE, MN, 55369","Match","Non_Exact","11901 CENTRAL PARK WAY N, MAPLE GROVE, MN, 55369",641439677,"R"
32997,"11901 E 131ST STREET SOUTH","BROKEN ARROW","OK",74011,NA,NA,497,"11901 E 131ST STREET SOUTH, BROKEN ARROW, OK, 74011","No_Match",NA,NA,NA,NA
32998,"11901 EAST WASHINGTON STREET","INDIANAPOLIS","IN",46229,39.7765187110001,-85.95597795,498,"11901 EAST WASHINGTON STREET, INDIANAPOLIS, IN, 46229","Match","Exact","11901 E WASHINGTON ST, INDIANAPOLIS, IN, 46229",108013550,"R"
32999,"11901 EASTFIELD ROAD","HUNTERSVILLE","NC",28078,35.3756106550001,-80.801905818,499,"11901 EASTFIELD ROAD, HUNTERSVILLE, NC, 28078","Match","Exact","11901 EASTFIELD RD, HUNTERSVILLE, NC, 28078",70559337,"L"
33000,"11901 FOOTHILL BLVD","LAKE VIEW TERRACE","CA",91342,34.2751527780001,-118.395772844,500,"11901 FOOTHILL BLVD, LAKE VIEW TERRACE, CA, 91342","Match","Exact","11901 FOOTHILL BLVD, LAKE VIEW TERRACE, CA, 91342",638625917,"R"
