"ID","Address","City","State","Zip","lat","long","id","input_address","match_indicator","match_type","matched_address","tiger_line_id","tiger_side"
86501,"17327 MEEKLAND AVENUE","HAYWARD","CA",94541,NA,NA,1,"17327 MEEKLAND AVENUE, HAYWARD, CA, 94541","No_Match",NA,NA,NA,NA
86502,"17328 121ST LANE SE SUITE TT302","RENTON","WA",98058,47.447261542,-122.18027376,2,"17328 121ST LANE SE SUITE TT302, RENTON, WA, 98058","Match","Exact","17328 121ST LN SE, RENTON, WA, 98058",186683228,"R"
86503,"17328 S ELWOOD AVE","MOUNDS","OK",74047,35.9117888440001,-95.993865344,3,"17328 S ELWOOD AVE, MOUNDS, OK, 74047","Match","Exact","17328 S ELWOOD AVE, MOUNDS, OK, 74047",166518497,"L"
86504,"17328 VENTURA BLVD NO 190","ENCINO","CA",91316,34.1609379540001,-118.510363803,4,"17328 VENTURA BLVD NO 190, ENCINO, CA, 91316","Match","Non_Exact","17328 VENTURA BLVD, ENCINO, CA, 91316",141556131,"L"
86505,"17328 VENTURA BLVD SUITE 421","ENCINO","CA",91316,34.1609379540001,-118.510363803,5,"17328 VENTURA BLVD SUITE 421, ENCINO, CA, 91316","Match","Exact","17328 VENTURA BLVD, ENCINO, CA, 91316",141556131,"L"
86506,"1733 14TH STREET","LOS OSOS","CA",93402,35.319960581,-120.827739085,6,"1733 14TH STREET, LOS OSOS, CA, 93402","Match","Exact","1733 14TH ST, LOS OSOS, CA, 93402",109729770,"L"
86507,"1733 38TH STREET SE","WASHINGTON","DC",20020,38.8686352670001,-76.952549389,7,"1733 38TH STREET SE, WASHINGTON, DC, 20020","Match","Exact","1733 38TH ST SE, WASHINGTON, DC, 20020",76233722,"R"
86508,"1733 45TH AVE SW","SEATTLE","WA",98116,47.587810339,-122.389008032,8,"1733 45TH AVE SW, SEATTLE, WA, 98116","Match","Exact","1733 45TH AVE SW, SEATTLE, WA, 98116",186660719,"R"
86509,"1733 ALDER AVE","LEWISTON","ID",83501,46.3713406970001,-116.942147303,9,"1733 ALDER AVE, LEWISTON, ID, 83501","Match","Exact","1733 ALDER AVE, LEWISTON, ID, 83501",173136019,"R"
86510,"1733 BARTHOLOMEW ST","NEW ORLEANS","LA",70117,29.972123975,-90.033448974,10,"1733 BARTHOLOMEW ST, NEW ORLEANS, LA, 70117","Match","Exact","1733 BARTHOLOMEW ST, NEW ORLEANS, LA, 70117",191717703,"R"
86511,"1733 BLUE PEAK DRIVE","TOOELE","UT",84074,40.5612902280001,-112.255393322,11,"1733 BLUE PEAK DRIVE, TOOELE, UT, 84074","Match","Non_Exact","1733 BLUE PEAK RD, TOOELE, UT, 84074",155395404,"L"
86512,"1733 BRIARCREST DRIVE STE 100","BRYAN","TX",77802,30.6530946990001,-96.3389413039999,12,"1733 BRIARCREST DRIVE STE 100, BRYAN, TX, 77802","Match","Exact","1733 BRIARCREST DR, BRYAN, TX, 77802",21815631,"L"
86513,"1733 CAMPUS PLAZA COURT SUITE 7","BOWLING GREEN","KY",42101,36.9794128410001,-86.453520236,13,"1733 CAMPUS PLAZA COURT SUITE 7, BOWLING GREEN, KY, 42101","Match","Exact","1733 CAMPUS PLAZA CT, BOWLING GREEN, KY, 42101",28026767,"L"
86514,"1733 COUNTY ROAD 6 SW","STEWARTVILLE","MN",55976,43.8483335760001,-92.518235848,14,"1733 COUNTY ROAD 6 SW, STEWARTVILLE, MN, 55976","Match","Exact","1733 CO RD 6 SW, STEWARTVILLE, MN, 55976",612132324,"L"
86515,"1733 DELL OAK DRIVE","GARLAND","TX",75040,32.9305230640001,-96.611181382,15,"1733 DELL OAK DRIVE, GARLAND, TX, 75040","Match","Exact","1733 DELL OAK DR, GARLAND, TX, 75040",102928664,"L"
86516,"1733 DUNWOODY DRIVE","TUPELO","MS",38801,34.28094516,-88.791152359,16,"1733 DUNWOODY DRIVE, TUPELO, MS, 38801","Match","Exact","1733 DUNWOODY DR, TUPELO, MS, 38801",90669657,"R"
86517,"1733 E 70TH","CLEVELAND","OH",44103,41.5094526240001,-81.641196653,17,"1733 E 70TH, CLEVELAND, OH, 44103","Match","Non_Exact","1733 E 70TH ST, CLEVELAND, OH, 44103",61113101,"L"
86518,"1733 E DIMONDALE DRIVE","CARSON","CA",90746,33.8487469670001,-118.240198115,18,"1733 E DIMONDALE DRIVE, CARSON, CA, 90746","Match","Exact","1733 E DIMONDALE DR, CARSON, CA, 90746",141681175,"L"
86519,"1733 E LEVEE ST","DALLAS","TX",75207,32.792120412,-96.8294030009999,19,"1733 E LEVEE ST, DALLAS, TX, 75207","Match","Exact","1733 E LEVEE ST, DALLAS, TX, 75207",102905546,"L"
86520,"1733 ELLA STREET","CINCINNATI","OH",45223,39.1643547240001,-84.543825128,20,"1733 ELLA STREET, CINCINNATI, OH, 45223","Match","Exact","1733 ELLA ST, CINCINNATI, OH, 45223",103922083,"L"
86521,"1733 EVERGREEN DRIVE","HARRISONBURG","VA",22801,38.449892635,-78.9000221059999,21,"1733 EVERGREEN DRIVE, HARRISONBURG, VA, 22801","Match","Exact","1733 EVERGREEN DR, HARRISONBURG, VA, 22801",55762252,"R"
86522,"1733 FLAMINGO DRIVE","LITTLE ELM","TX",75068,33.2187899850001,-96.9336990369999,22,"1733 FLAMINGO DRIVE, LITTLE ELM, TX, 75068","Match","Exact","1733 FLAMINGO DR, LITTLE ELM, TX, 75068",632436849,"L"
86523,"1733 HEAD OF RIVER ROAD","CHESAPEAKE","VA",23322,36.619290925,-76.130817383,23,"1733 HEAD OF RIVER ROAD, CHESAPEAKE, VA, 23322","Match","Exact","1733 HEAD OF RIVER RD, CHESAPEAKE, VA, 23322",121791771,"R"
86524,"1733 HULON DYER DRIVE","COOKEVILLE","TN",38501,36.196159633,-85.601672032,24,"1733 HULON DYER DRIVE, COOKEVILLE, TN, 38501","Match","Exact","1733 HULON DYER DR, COOKEVILLE, TN, 38501",627986007,"L"
86525,"1733 LA LOMA AVE","BERKELEY","CA",94709,37.8770198230001,-122.25719938,25,"1733 LA LOMA AVE, BERKELEY, CA, 94709","Match","Exact","1733 LA LOMA AVE, BERKELEY, CA, 94709",124998309,"L"
86526,"1733 LA MADERIA DR","PALM BAY","FL",32908,27.9582393850001,-80.672761092,26,"1733 LA MADERIA DR, PALM BAY, FL, 32908","Match","Non_Exact","1733 LA MADERIA DR SW, PALM BAY, FL, 32908",647538376,"R"
86527,"1733 N VALENCIA","SANTA ANA","CA",92706,33.761645033,-117.862707192,27,"1733 N VALENCIA, SANTA ANA, CA, 92706","Match","Non_Exact","1733 VALENCIA AVE, SANTA ANA, CA, 92706",144131945,"R"
86528,"1733 NE 162 STREET","N MIAMI BEACH","FL",33162,25.924889244,-80.1652535759999,28,"1733 NE 162 STREET, N MIAMI BEACH, FL, 33162","Match","Exact","1733 NE 162ND ST, N MIAMI BEACH, FL, 33162",116036299,"L"
86529,"1733 NEWTON STREET NW UNIT B","WASHINGTON","DC",20010,38.9341825320001,-77.039743275,29,"1733 NEWTON STREET NW UNIT B, WASHINGTON, DC, 20010","Match","Exact","1733 NEWTON ST NW, WASHINGTON, DC, 20010",76222819,"R"
86530,"1733 OCEAN AVENUE SUITE 350","SANTA MONCIA","CA",90407,34.00890966,-118.491911096,30,"1733 OCEAN AVENUE SUITE 350, SANTA MONCIA, CA, 90407","Match","Non_Exact","1733 OCEAN AVE, SANTA MONICA, CA, 90401",647625277,"L"
86531,"1733 PUTTER LANE","DYERSBURG","TN",38024,36.051643438,-89.407700773,31,"1733 PUTTER LANE, DYERSBURG, TN, 38024","Match","Exact","1733 PUTTER LN, DYERSBURG, TN, 38024",40659231,"R"
86532,"1733 RIO RANCHERO","PIPE CREEK","TX",78063,29.6496130730001,-98.976151666,32,"1733 RIO RANCHERO, PIPE CREEK, TX, 78063","Match","Exact","1733 RIO RANCHERO, PIPE CREEK, TX, 78063",102718702,"L"
86533,"1733 SHENANDOAH DR","LAFAYETTE","IN",47905,40.43455758,-86.842726372,33,"1733 SHENANDOAH DR, LAFAYETTE, IN, 47905","Match","Exact","1733 SHENANDOAH DR, LAFAYETTE, IN, 47905",27308480,"R"
86534,"1733 SOUTH FIFTH AVE","KANKAKEE","IL",60901,41.1001932620001,-87.874737232,34,"1733 SOUTH FIFTH AVE, KANKAKEE, IL, 60901","Match","Exact","1733 S 5TH AVE, KANKAKEE, IL, 60901",98371367,"R"
86535,"1733 SOUTH HAVEN CIRCLE","JACKSON","MS",39204,32.2714275920001,-90.251690049,35,"1733 SOUTH HAVEN CIRCLE, JACKSON, MS, 39204","Match","Non_Exact","1733 SOUTHHAVEN CIR, JACKSON, MS, 39204",65379490,"R"
86536,"1733 W IRVING PARK RD UNIT 218","CHICAGO","IL",60613,41.954235356,-87.672708502,36,"1733 W IRVING PARK RD UNIT 218, CHICAGO, IL, 60613","Match","Non_Exact","1733 W IRVING PARK RD, CHICAGO, IL, 60613",605199452,"L"
86537,"1733 WASHINGTON BOULEVARD SUITE 13","EASTON","PA",18042,40.6860783880001,-75.2356162569999,37,"1733 WASHINGTON BOULEVARD SUITE 13, EASTON, PA, 18042","Match","Exact","1733 WASHINGTON BLVD, EASTON, PA, 18042",136882473,"R"
86538,"1733 WOODDALE BLVD","BATON ROUGE","LA",70806,30.4641441360001,-91.112507438,38,"1733 WOODDALE BLVD, BATON ROUGE, LA, 70806","Match","Exact","1733 WOODDALE BLVD, BATON ROUGE, LA, 70806",606175703,"L"
86539,"17330 CRICKET MILL DRIVE","HUMBLE","TX",77346,29.9739575300001,-95.210316791,39,"17330 CRICKET MILL DRIVE, HUMBLE, TX, 77346","Match","Exact","17330 CRICKET MILL, HUMBLE, TX, 77346",635219092,"L"
86540,"17330 NORTHCHAPEL STREET","SPRING","TX",77379,30.0214875340001,-95.561150735,40,"17330 NORTHCHAPEL STREET, SPRING, TX, 77379","Match","Exact","17330 NORTHCHAPEL ST, SPRING, TX, 77379",96003459,"L"
86541,"17330 PRESTON RD SUITE 200D","DALLAS","TX",75252,32.9881284860001,-96.802629957,41,"17330 PRESTON RD SUITE 200D, DALLAS, TX, 75252","Match","Exact","17330 PRESTON RD, DALLAS, TX, 75252",210469693,"R"
86542,"17330 PRESTON ROAD 200D","DALLAS","TX",75252,32.9881284860001,-96.802629957,42,"17330 PRESTON ROAD 200D, DALLAS, TX, 75252","Match","Exact","17330 PRESTON RD, DALLAS, TX, 75252",210469693,"R"
86543,"17330 PRESTON ROAD SUITE 200 D","DALLAS","TX",75252,32.9881284860001,-96.802629957,43,"17330 PRESTON ROAD SUITE 200 D, DALLAS, TX, 75252","Match","Exact","17330 PRESTON RD, DALLAS, TX, 75252",210469693,"R"
86544,"17330 W CENTER RD STE 110-107","OMAHA","NE",68130,NA,NA,44,"17330 W CENTER RD STE 110-107, OMAHA, NE, 68130","No_Match",NA,NA,NA,NA
86545,"17330 YOAKUM ROAD","RICHWOOD","OH",43344,40.503018539,-83.40165343,45,"17330 YOAKUM ROAD, RICHWOOD, OH, 43344","Match","Exact","17330 YOAKUM RD, RICHWOOD, OH, 43344",135336417,"L"
86546,"17331 AVENLEIGH DRIVE","ASHTON","MD",20861,39.1383350070001,-77.0092212819999,46,"17331 AVENLEIGH DRIVE, ASHTON, MD, 20861","Match","Exact","17331 AVENLEIGH DR, ASHTON, MD, 20861",62097785,"L"
86547,"17331 LIME KILN ROAD","CRESCENT","IA",51526,41.323184516,-95.854244423,47,"17331 LIME KILN ROAD, CRESCENT, IA, 51526","Match","Exact","17331 LIME KILN RD, CRESCENT, IA, 51526",43926224,"R"
86548,"17331 RIMROCK DRIVE","GOLDEN","CO",80401,39.74505292,-105.196687767,48,"17331 RIMROCK DRIVE, GOLDEN, CO, 80401","Match","Exact","17331 RIMROCK DR, GOLDEN, CO, 80401",177801716,"R"
86549,"17333 VIRGINIA AVE","HAGERSTOWN","MD",21740,39.6174489690001,-77.76785978,49,"17333 VIRGINIA AVE, HAGERSTOWN, MD, 21740","Match","Exact","17333 VIRGINIA AVE, HAGERSTOWN, MD, 21740",612161768,"L"
86550,"17336 WEST LITTLE YORK ROAD","HOUSTON","TX",77084,29.8654091280001,-95.672142853,50,"17336 WEST LITTLE YORK ROAD, HOUSTON, TX, 77084","Match","Exact","17336 W LITTLE YORK RD, HOUSTON, TX, 77084",649897617,"L"
86551,"17337 32ND LANE NORTH","LOXAHATCHEE","FL",33470,26.7273021130001,-80.319390504,51,"17337 32ND LANE NORTH, LOXAHATCHEE, FL, 33470","Match","Exact","17337 32ND LN N, LOXAHATCHEE, FL, 33470",115547828,"R"
86552,"17337 ASPENGLOW LANE","YORBA LINDA","CA",92886,33.89804451,-117.830850895,52,"17337 ASPENGLOW LANE, YORBA LINDA, CA, 92886","Match","Exact","17337 ASPENGLOW LN, YORBA LINDA, CA, 92886",143994777,"L"
86553,"17337 LAHSER RD","DETROIT","MI",48219,42.4170476900001,-83.2577042469999,53,"17337 LAHSER RD, DETROIT, MI, 48219","Match","Exact","17337 LAHSER RD, DETROIT, MI, 48219",95421171,"L"
86554,"17337 SANTA ISABEL ST","FOUNTAIN VALLEY","CA",92708,33.710985427,-117.979865526,54,"17337 SANTA ISABEL ST, FOUNTAIN VALLEY, CA, 92708","Match","Exact","17337 SANTA ISABEL ST, FOUNTAIN VALLEY, CA, 92708",144018663,"R"
86555,"17337 WATERHOUSE CIR UNIT D","PARKER","CO",80134,39.553703081,-104.788055229,55,"17337 WATERHOUSE CIR UNIT D, PARKER, CO, 80134","Match","Exact","17337 WATERHOUSE CIR, PARKER, CO, 80134",647983041,"R"
86556,"17338 EAST  CALAVERAS AVENUE","FOUNTAIN HILLS","AZ",85268,33.6186791430001,-111.707073041,56,"17338 EAST  CALAVERAS AVENUE, FOUNTAIN HILLS, AZ, 85268","Match","Exact","17338 E CALAVERAS AVE, FOUNTAIN HILLS, AZ, 85268",128191294,"R"
86557,"1733A 13TH AVE S","SEATTLE","WA",98144,47.5878904910001,-122.3159893,57,"1733A 13TH AVE S, SEATTLE, WA, 98144","Match","Exact","1733 13TH AVE S, SEATTLE, WA, 98144",640605375,"R"
86558,"1734 46TH STREET","BROOKLYN","NY",11204,40.6307218860001,-73.9804668039999,58,"1734 46TH STREET, BROOKLYN, NY, 11204","Match","Exact","1734 46TH ST, BROOKLYN, NY, 11204",59080706,"R"
86559,"1734 ARROYO DE ORO","SAN JOSE","CA",95116,37.3588441840001,-121.858605693,59,"1734 ARROYO DE ORO, SAN JOSE, CA, 95116","Match","Exact","1734 ARROYO DE ORO, SAN JOSE, CA, 95116",122908533,"R"
86560,"1734 BAY ST SE","WASHINGTON","DC",20003,38.8866513840001,-76.980107975,60,"1734 BAY ST SE, WASHINGTON, DC, 20003","Match","Exact","1734 BAY ST SE, WASHINGTON, DC, 20003",76230533,"L"
86561,"1734 BROMMER STREET","SANTA CRUZ","CA",95062,36.9709326600001,-121.983731121,61,"1734 BROMMER STREET, SANTA CRUZ, CA, 95062","Match","Exact","1734 BROMMER ST, SANTA CRUZ, CA, 95062",606000641,"R"
86562,"1734 CHESAPEAKE DRIVE","EDGEWATER","MD",21037,38.9316144860001,-76.548409711,62,"1734 CHESAPEAKE DRIVE, EDGEWATER, MD, 21037","Match","Exact","1734 CHESAPEAKE DR, EDGEWATER, MD, 21037",68171572,"R"
86563,"1734 DAVID DRIVE","MEMPHIS","TN",38114,35.0395667870001,-90.006465293,63,"1734 DAVID DRIVE, MEMPHIS, TN, 38114","Match","Non_Exact","1734 DAVID DR, MEMPHIS, TN, 38116",72919036,"L"
86564,"1734 E 3150 S","SALT LAKE CITY","UT",84106,NA,NA,64,"1734 E 3150 S, SALT LAKE CITY, UT, 84106","No_Match",NA,NA,NA,NA
86565,"1734 E 63RD STREET","KANSAS CITY","MO",64110,39.012912747,-94.566010746,65,"1734 E 63RD STREET, KANSAS CITY, MO, 64110","Match","Non_Exact","1734 E 63RD ST, KANSAS CITY, MO, 64110",91454848,"L"
86566,"1734 ELTON ROAD SUITE 220","SILVER SPRING","MD",20903,39.0195859460001,-76.973190912,66,"1734 ELTON ROAD SUITE 220, SILVER SPRING, MD, 20903","Match","Exact","1734 ELTON RD, SILVER SPRING, MD, 20903",637892856,"L"
86567,"1734 EMERALD CREEK DR","FLORISSANT","MO",63031,38.825336668,-90.333232799,67,"1734 EMERALD CREEK DR, FLORISSANT, MO, 63031","Match","Exact","1734 EMERALD CREEK DR, FLORISSANT, MO, 63031",604551192,"L"
86568,"1734 FULLER ST","PHILADELPHIA","PA",19152,40.065181814,-75.0602121209999,68,"1734 FULLER ST, PHILADELPHIA, PA, 19152","Match","Exact","1734 FULLER ST, PHILADELPHIA, PA, 19152",131415741,"R"
86569,"1734 GROSHELLE BLVD","LAUREL","MT",59044,45.6920649640001,-108.772718958,69,"1734 GROSHELLE BLVD, LAUREL, MT, 59044","Match","Exact","1734 GROSHELLE BLVD, LAUREL, MT, 59044",181460128,"L"
86570,"1734 HARTZELL AVE","YOUNGSTOWN","OH",44509,41.111763549,-80.6859573689999,70,"1734 HARTZELL AVE, YOUNGSTOWN, OH, 44509","Match","Exact","1734 HARTZELL AVE, YOUNGSTOWN, OH, 44509",64594317,"R"
86571,"1734 HENDRICKS STREET","GARY","IN",46404,41.5856736700001,-87.38042553,71,"1734 HENDRICKS STREET, GARY, IN, 46404","Match","Exact","1734 HENDRICKS ST, GARY, IN, 46404",98425307,"R"
86572,"1734 INDIAN HILL BLVD","POMONA","CA",91767,34.076479056,-117.719237388,72,"1734 INDIAN HILL BLVD, POMONA, CA, 91767","Match","Exact","1734 INDIAN HILL BLVD, POMONA, CA, 91767",625177885,"R"
86573,"1734 JONES AVE","SANTA CLARA","CA",95051,37.354927509,-121.987384952,73,"1734 JONES AVE, SANTA CLARA, CA, 95051","Match","Exact","1734 JONES AVE, SANTA CLARA, CA, 95051",122898078,"L"
86574,"1734 LORDSBURG DRIVE","GARLAND","TX",75040,32.941950843,-96.609202269,74,"1734 LORDSBURG DRIVE, GARLAND, TX, 75040","Match","Exact","1734 LORDSBURG DR, GARLAND, TX, 75040",102980666,"R"
86575,"1734 MARGIE CT","KISSIMMEE","FL",34746,28.255757455,-81.4529521269999,75,"1734 MARGIE CT, KISSIMMEE, FL, 34746","Match","Exact","1734 MARGIE CT, KISSIMMEE, FL, 34746",176690598,"R"
86576,"1734 MONTEREY AVE","MODESTO","CA",95354,37.6272659910001,-120.967005062,76,"1734 MONTEREY AVE, MODESTO, CA, 95354","Match","Exact","1734 MONTEREY AVE, MODESTO, CA, 95354",102607480,"R"
86577,"1734 OXMOOR ROAD","BIRMINGHAM","AL",35209,33.476822021,-86.793721969,77,"1734 OXMOOR ROAD, BIRMINGHAM, AL, 35209","Match","Exact","1734 OXMOOR RD, BIRMINGHAM, AL, 35209",81614607,"L"
86578,"1734 REDWOOD","SEGUIN","TX",78155,29.5678330110001,-97.9322878089999,78,"1734 REDWOOD, SEGUIN, TX, 78155","Match","Non_Exact","1734 REDWOOD ST, SEGUIN, TX, 78155",54828789,"L"
86579,"1734 REGENT STREET","NILES","MI",49120,41.829601557,-86.2336015179999,79,"1734 REGENT STREET, NILES, MI, 49120","Match","Exact","1734 REGENT ST, NILES, MI, 49120",119979985,"R"
86580,"1734 SOUTH 4TH STREET","LOUISVILLE","KY",40208,38.22231265,-85.7625585279999,80,"1734 SOUTH 4TH STREET, LOUISVILLE, KY, 40208","Match","Exact","1734 S 4TH ST, LOUISVILLE, KY, 40208",96844103,"R"
86581,"1734 SW CECELIA LANE","PORT ST LUCIE","FL",34953,27.2808980680001,-80.40054244,81,"1734 SW CECELIA LANE, PORT ST LUCIE, FL, 34953","Match","Exact","1734 SW CECELIA LN, PORT ST LUCIE, FL, 34953",120138044,"L"
86582,"1734 W 21ST ST APT G","CHICAGO","IL",60608,41.854102164,-87.669468217,82,"1734 W 21ST ST APT G, CHICAGO, IL, 60608","Match","Non_Exact","1734 W 21ST ST, CHICAGO, IL, 60608",111803120,"R"
86583,"1734 WILLIAMSBRIDGE RD","BRONX","NY",10461,40.849483653,-73.850716495,83,"1734 WILLIAMSBRIDGE RD, BRONX, NY, 10461","Match","Exact","1734 WILLIAMSBRIDGE RD, BRONX, NY, 10461",80305294,"R"
86584,"1734 WOODLAND TRAIL","XENIA","OH",45385,39.7516662840001,-83.995625578,84,"1734 WOODLAND TRAIL, XENIA, OH, 45385","Match","Exact","1734 WOODLAND TRL, XENIA, OH, 45385",143388068,"R"
86585,"17340 SAN JOSE STREET","GRANADA HILLS","CA",91344,34.261201719,-118.511957964,85,"17340 SAN JOSE STREET, GRANADA HILLS, CA, 91344","Match","Exact","17340 SAN JOSE ST, GRANADA HILLS, CA, 91344",141542503,"L"
86586,"17340 SW BILES LANE","BEAVERTON","OR",97003,45.507498916,-122.855735844,86,"17340 SW BILES LANE, BEAVERTON, OR, 97003","Match","Exact","17340 SW BILES LN, BEAVERTON, OR, 97003",624948332,"R"
86587,"17340 W 12 MILE RD /SUITE 106","SOUTHFIELD","MI",48076,42.5026185200001,-83.216994284,87,"17340 W 12 MILE RD /SUITE 106, SOUTHFIELD, MI, 48076","Match","Non_Exact","17340 W 12 MILE RD, SOUTHFIELD, MI, 48076",69736009,"R"
86588,"17341 BIRCHCREST","DETROIT","MI",48221,42.41957239,-83.1370298319999,88,"17341 BIRCHCREST, DETROIT, MI, 48221","Match","Non_Exact","17341 BIRCHCREST DR, DETROIT, MI, 48221",95461041,"L"
86589,"17341 RIVER RD","NATCHEZ","MS",39120,NA,NA,89,"17341 RIVER RD, NATCHEZ, MS, 39120","No_Match",NA,NA,NA,NA
86590,"17341 VALERIO ST","LAKE BALBOA","CA",91406,34.2054430630001,-118.511683309,90,"17341 VALERIO ST, LAKE BALBOA, CA, 91406","Match","Exact","17341 VALERIO ST, LAKE BALBOA, CA, 91406",141544251,"R"
86591,"17342 REDMAN CIR","OMAHA","NE",68116,41.3042525280001,-96.185864722,91,"17342 REDMAN CIR, OMAHA, NE, 68116","Match","Exact","17342 REDMAN CIR, OMAHA, NE, 68116",617546715,"L"
86592,"17343 MINT LEAF LANE","LAND O LAKES","FL",34638,28.207073619,-82.528627291,92,"17343 MINT LEAF LANE, LAND O LAKES, FL, 34638","Match","Exact","17343 MINT LEAF LN, LAND O LAKES, FL, 34638",618491843,"L"
86593,"17343 SW 32ND LN","MIRAMAR","FL",33029,25.9821664560001,-80.377541166,93,"17343 SW 32ND LN, MIRAMAR, FL, 33029","Match","Exact","17343 SW 32ND LN, MIRAMAR, FL, 33029",114777794,"R"
86594,"17344 14 MILE ROAD","BATTLE CREEK","MI",49014,42.3247439180001,-85.024529343,94,"17344 14 MILE ROAD, BATTLE CREEK, MI, 49014","Match","Exact","17344 14 MILE RD, BATTLE CREEK, MI, 49014",11716905,"R"
86595,"17344 CRICKET CHIRP LOOP","LAND O' LAKES","FL",34638,28.1978881900001,-82.528046715,95,"17344 CRICKET CHIRP LOOP, LAND O' LAKES, FL, 34638","Match","Non_Exact","17344 CRICKET CHIRP LOOP, LAND O LAKES, FL, 34638",636389890,"R"
86596,"17345 15 MILE","CLINTON TOWNSHIP","MI",48035,42.5536817810001,-82.943875453,96,"17345 15 MILE, CLINTON TOWNSHIP, MI, 48035","Match","Non_Exact","17345 15 MILE RD, CLINTON TOWNSHIP, MI, 48035",110679878,"L"
86597,"17345 CIVIC DR  UNIT284","BROOKFIELD","WI",53008,43.0576755340001,-88.1298054,97,"17345 CIVIC DR  UNIT284, BROOKFIELD, WI, 53008","Match","Non_Exact","17345 CIVIC DR, BROOKFIELD, WI, 53045",53869507,"L"
86598,"17345 CIVIC DRIVE  2543","BROOKFIELD","WI",53008,43.0576755340001,-88.1298054,98,"17345 CIVIC DRIVE  2543, BROOKFIELD, WI, 53008","Match","Non_Exact","17345 CIVIC DR, BROOKFIELD, WI, 53045",53869507,"L"
86599,"17345 FORESTAL CT","HUGHESVILLE","MD",20637,38.521028965,-76.709627387,99,"17345 FORESTAL CT, HUGHESVILLE, MD, 20637","Match","Exact","17345 FORESTAL CT, HUGHESVILLE, MD, 20637",25427784,"L"
86600,"17345 NORTHLAWN ST","DETROIT","MI",48221,42.4193390120001,-83.153724245,100,"17345 NORTHLAWN ST, DETROIT, MI, 48221","Match","Exact","17345 NORTHLAWN ST, DETROIT, MI, 48221",95425624,"L"
86601,"17346 NW CROSSHAVEN ST","PORTLAND","OR",97229,45.5611401030001,-122.856360244,101,"17346 NW CROSSHAVEN ST, PORTLAND, OR, 97229","Match","Exact","17346 NW CROSSHAVEN ST, PORTLAND, OR, 97229",158229449,"L"
86602,"17346 WESTMORELAND RD","DETROIT","MI",48219,42.4180014310001,-83.2361636379999,102,"17346 WESTMORELAND RD, DETROIT, MI, 48219","Match","Exact","17346 WESTMORELAND RD, DETROIT, MI, 48219",95421854,"R"
86603,"17348 E 1150 RD","SWEETWATER","OK",73666,35.349700623,-99.890889187,103,"17348 E 1150 RD, SWEETWATER, OK, 73666","Match","Exact","17348 E 1150 RD, SWEETWATER, OK, 73666",151562830,"L"
86604,"17349 EAST VIEW DRIVE","CHINO HILLS","CA",91709,33.9376480940001,-117.668752468,104,"17349 EAST VIEW DRIVE, CHINO HILLS, CA, 91709","Match","Non_Exact","17349 EASTVIEW DR, CHINO HILLS, CA, 91709",144973071,"R"
86605,"1735 172ND CT NE","BELLEVUE","WA",98008,47.6255848430001,-122.109308049,105,"1735 172ND CT NE, BELLEVUE, WA, 98008","Match","Exact","1735 172ND CT NE, BELLEVUE, WA, 98008",186612809,"L"
86606,"1735 ARLINGTON AVENUE","SHREVEPORT","LA",71103,32.4949527140001,-93.774350985,106,"1735 ARLINGTON AVENUE, SHREVEPORT, LA, 71103","Match","Exact","1735 ARLINGTON AVE, SHREVEPORT, LA, 71103",57435169,"L"
86607,"1735 BARBEE STREET","MCLEAN","VA",22101,38.9192675260001,-77.165291106,107,"1735 BARBEE STREET, MCLEAN, VA, 22101","Match","Exact","1735 BARBEE ST, MCLEAN, VA, 22101",75963732,"L"
86608,"1735 BEECHWOOD DR","AURORA","NE",68818,40.879215593,-97.994866279,108,"1735 BEECHWOOD DR, AURORA, NE, 68818","Match","Exact","1735 BEECHWOOD DR, AURORA, NE, 68818",159708801,"R"
86609,"1735 BOGGS RD","FOREST HILL","MD",21050,39.555586598,-76.428925302,109,"1735 BOGGS RD, FOREST HILL, MD, 21050","Match","Exact","1735 BOGGS RD, FOREST HILL, MD, 21050",191639524,"L"
86610,"1735 BRANTLEY RD APT 2014","FORT MYERS","FL",33907,NA,NA,110,"1735 BRANTLEY RD APT 2014, FORT MYERS, FL, 33907","No_Match",NA,NA,NA,NA
86611,"1735 BUFORD HWY STE 215-235","CUMMING","GA",30041,NA,NA,111,"1735 BUFORD HWY STE 215-235, CUMMING, GA, 30041","No_Match",NA,NA,NA,NA
86612,"1735 BUFORD HWY SUITE 215 UNIT 201","CUMMING","GA",30041,NA,NA,112,"1735 BUFORD HWY SUITE 215 UNIT 201, CUMMING, GA, 30041","No_Match",NA,NA,NA,NA
86613,"1735 CARAVELLE DRIVE APT A5","NIAGARA FALLS","NY",14305,43.0971184310001,-78.944943472,113,"1735 CARAVELLE DRIVE APT A5, NIAGARA FALLS, NY, 14305","Match","Non_Exact","1735 CARAVELLE DR, NIAGARA FALLS, NY, 14304",48688222,"R"
86614,"1735 CHATHAM CIRCLE","APOPKA","FL",32703,28.6500798660001,-81.479252217,114,"1735 CHATHAM CIRCLE, APOPKA, FL, 32703","Match","Exact","1735 CHATHAM CIR, APOPKA, FL, 32703",94342827,"L"
86615,"1735 CYPRESS LN","SEDALIA","MO",65301,38.6950933860001,-93.303406665,115,"1735 CYPRESS LN, SEDALIA, MO, 65301","Match","Exact","1735 CYPRESS LN, SEDALIA, MO, 65301",648250049,"R"
86616,"1735 DOLE ST APT 204","HONOLULU","HI",96822,21.3006796500001,-157.831441205,116,"1735 DOLE ST APT 204, HONOLULU, HI, 96822","Match","Exact","1735 DOLE ST, HONOLULU, HI, 96822",203237620,"R"
86617,"1735 E ADAMS DRIVE","MAITLAND","FL",32751,28.624906078,-81.3494514659999,117,"1735 E ADAMS DRIVE, MAITLAND, FL, 32751","Match","Exact","1735 E ADAMS DR, MAITLAND, FL, 32751",94278083,"L"
86618,"1735 E CHARLESTOWN DR","ANAHEIM","CA",92805,33.835067101,-117.892220776,118,"1735 E CHARLESTOWN DR, ANAHEIM, CA, 92805","Match","Exact","1735 E CHARLESTOWN DR, ANAHEIM, CA, 92805",144027420,"L"
86619,"1735 FLEET STREET","BALTIMORE","MD",21231,39.2846489770001,-76.5920941109999,119,"1735 FLEET STREET, BALTIMORE, MD, 21231","Match","Exact","1735 FLEET ST, BALTIMORE, MD, 21231",206424631,"R"
86620,"1735 HEARTHGLOW LN","CHARLOTTESVILLE","VA",22901,38.0843882630001,-78.460763291,120,"1735 HEARTHGLOW LN, CHARLOTTESVILLE, VA, 22901","Match","Exact","1735 HEARTHGLOW LN, CHARLOTTESVILLE, VA, 22901",83370347,"L"
86621,"1735 HECKLE BLVD STE 103-227","ROCK HILL","SC",29732,NA,NA,121,"1735 HECKLE BLVD STE 103-227, ROCK HILL, SC, 29732","No_Match",NA,NA,NA,NA
86622,"1735 HIGH TRL","ATLANTA","GA",30339,33.914199507,-84.453438439,122,"1735 HIGH TRL, ATLANTA, GA, 30339","Match","Exact","1735 HIGH TRL, ATLANTA, GA, 30339",618319309,"L"
86623,"1735 JACKSON ST","FORT MYERS","FL",33901,26.642513658,-81.8675532519999,123,"1735 JACKSON ST, FORT MYERS, FL, 33901","Match","Exact","1735 JACKSON ST, FORT MYERS, FL, 33901",118021333,"L"
86624,"1735 LARSON LN","ROSELLE","IL",60172,41.9911441310001,-88.0721708899999,124,"1735 LARSON LN, ROSELLE, IL, 60172","Match","Exact","1735 LARSON LN, ROSELLE, IL, 60172",605614709,"R"
86625,"1735 LAVON ST","LAKELAND","FL",33805,28.068314468,-81.982651699,125,"1735 LAVON ST, LAKELAND, FL, 33805","Match","Exact","1735 LAVON ST, LAKELAND, FL, 33805",651847806,"R"
86626,"1735 LAZY LOON WAY","FAIRBANKS","AK",99709,64.8332729090001,-147.867753173,126,"1735 LAZY LOON WAY, FAIRBANKS, AK, 99709","Match","Exact","1735 LAZY LOON WAY, FAIRBANKS, AK, 99709",190891856,"R"
86627,"1735 LOG CABIN ROAD","BEAVERDAM","VA",23015,38.007001411,-77.655575851,127,"1735 LOG CABIN ROAD, BEAVERDAM, VA, 23015","Match","Exact","1735 LOG CABIN RD, BEAVERDAM, VA, 23015",228787632,"R"
86628,"1735 MADISON AVENUE SUITE 1B","NEW YORK","NY",10029,40.7987028690001,-73.9457756049999,128,"1735 MADISON AVENUE SUITE 1B, NEW YORK, NY, 10029","Match","Exact","1735 MADISON AVE, NEW YORK, NY, 10029",611226449,"R"
86629,"1735 MARKET ST - SUITE A 247","PHILADELPHIA","PA",19103,39.9530558710001,-75.1690226119999,129,"1735 MARKET ST - SUITE A 247, PHILADELPHIA, PA, 19103","Match","Exact","1735 MARKET ST, PHILADELPHIA, PA, 19103",131407480,"R"
86630,"1735 MARKET ST STE A","PHILADELPHIA","PA",19103,39.9530558710001,-75.1690226119999,130,"1735 MARKET ST STE A, PHILADELPHIA, PA, 19103","Match","Exact","1735 MARKET ST, PHILADELPHIA, PA, 19103",131407480,"R"
86631,"1735 MARKET STREET - SUITE A460","PHILADELPHIA","PA",19103,39.9530558710001,-75.1690226119999,131,"1735 MARKET STREET - SUITE A460, PHILADELPHIA, PA, 19103","Match","Exact","1735 MARKET ST, PHILADELPHIA, PA, 19103",131407480,"R"
86632,"1735 MARKET STREET 37TH FLOOR","PHILADELPHIA","PA",19103,39.9530558710001,-75.1690226119999,132,"1735 MARKET STREET 37TH FLOOR, PHILADELPHIA, PA, 19103","Match","Exact","1735 MARKET ST, PHILADELPHIA, PA, 19103",131407480,"R"
86633,"1735 MARKET STREET 51ST FLOOR","PHILADELPHIA","PA",19103,39.9530558710001,-75.1690226119999,133,"1735 MARKET STREET 51ST FLOOR, PHILADELPHIA, PA, 19103","Match","Exact","1735 MARKET ST, PHILADELPHIA, PA, 19103",131407480,"R"
86634,"1735 MARKET STREET SUITE A-191","PHILADELPHIA","PA",19103,39.9530558710001,-75.1690226119999,134,"1735 MARKET STREET SUITE A-191, PHILADELPHIA, PA, 19103","Match","Exact","1735 MARKET ST, PHILADELPHIA, PA, 19103",131407480,"R"
86635,"1735 MARKET STREET SUITE A452","PHILADELPHIA","PA",19103,39.9530558710001,-75.1690226119999,135,"1735 MARKET STREET SUITE A452, PHILADELPHIA, PA, 19103","Match","Exact","1735 MARKET ST, PHILADELPHIA, PA, 19103",131407480,"R"
86636,"1735 MARKET STREET SUITE A489","PHILADELPHIA","PA",19103,39.9530558710001,-75.1690226119999,136,"1735 MARKET STREET SUITE A489, PHILADELPHIA, PA, 19103","Match","Exact","1735 MARKET ST, PHILADELPHIA, PA, 19103",131407480,"R"
86637,"1735 MIDLAND DRIVE","THIBODAUX","LA",70301,29.7827019150001,-90.843070933,137,"1735 MIDLAND DRIVE, THIBODAUX, LA, 70301","Match","Exact","1735 MIDLAND DR, THIBODAUX, LA, 70301",652957472,"R"
86638,"1735 MILLER ROAD","CAMDEN","TN",38320,36.088756677,-88.181062206,138,"1735 MILLER ROAD, CAMDEN, TN, 38320","Match","Exact","1735 MILLER RD, CAMDEN, TN, 38320",19121584,"R"
86639,"1735 MOUNTAIN DRIVE","BIRMINGHAM","AL",35217,33.578864525,-86.7621245939999,139,"1735 MOUNTAIN DRIVE, BIRMINGHAM, AL, 35217","Match","Exact","1735 MOUNTAIN DR, BIRMINGHAM, AL, 35217",647631629,"R"
86640,"1735 MOUNTAINSIDE DR","CUMMING","GA",30040,34.2272756630001,-84.152000344,140,"1735 MOUNTAINSIDE DR, CUMMING, GA, 30040","Match","Exact","1735 MOUNTAINSIDE DR, CUMMING, GA, 30040",70184751,"L"
86641,"1735 N FIRST ST  STE 302","SAN JOSE","CA",95112,37.3685942120001,-121.914764103,141,"1735 N FIRST ST  STE 302, SAN JOSE, CA, 95112","Match","Non_Exact","1735 N 1ST ST, SAN JOSE, CA, 95112",122968403,"L"
86642,"1735 N GRAMERCY PLACE APT 204","LOS ANGELES","CA",90028,34.1023316000001,-118.312260068,142,"1735 N GRAMERCY PLACE APT 204, LOS ANGELES, CA, 90028","Match","Non_Exact","1735 N GRAMERCY PL, LOS ANGELES, CA, 90028",648168295,"L"
86643,"1735 N GRAMERCY PLACE UNIT 301","LOS ANGELES","CA",90028,34.1023316000001,-118.312260068,143,"1735 N GRAMERCY PLACE UNIT 301, LOS ANGELES, CA, 90028","Match","Non_Exact","1735 N GRAMERCY PL, LOS ANGELES, CA, 90028",648168295,"L"
86644,"1735 NE 23RD AVE","FT LAUDERDALE","FL",33305,26.1516420350001,-80.115938085,144,"1735 NE 23RD AVE, FT LAUDERDALE, FL, 33305","Match","Exact","1735 NE 23RD AVE, FORT LAUDERDALE, FL, 33305",114725420,"L"
86645,"1735 NORTH MAIN AVENUE","SCRANTON","PA",18508,41.436495902,-75.659597338,145,"1735 NORTH MAIN AVENUE, SCRANTON, PA, 18508","Match","Exact","1735 N MAIN AVE, SCRANTON, PA, 18508",139325626,"L"
86646,"1735 NORTH NELLIS SUITE 200","LAS VEGAS","NV",89115,36.1913591270001,-115.062257557,146,"1735 NORTH NELLIS SUITE 200, LAS VEGAS, NV, 89115","Match","Non_Exact","1735 N NELLIS BLVD, LAS VEGAS, NV, 89115",201875282,"L"
86647,"1735 PEAR LOOP","JUNCTION CITY","OR",97448,44.228534827,-123.212551005,147,"1735 PEAR LOOP, JUNCTION CITY, OR, 97448","Match","Exact","1735 PEAR LOOP, JUNCTION CITY, OR, 97448",178223057,"L"
86648,"1735 S NEW FLORRISANT","FLORRISANT","MO",63031,38.7728218010001,-90.3165571279999,148,"1735 S NEW FLORRISANT, FLORRISANT, MO, 63031","Match","Non_Exact","1735 S NEW FLORISSANT RD, FLORISSANT, MO, 63031",604547564,"R"
86649,"1735 SE HAWTHORNE ROAD","GAINESVILLE","FL",32641,29.6495149890001,-82.3026238149999,149,"1735 SE HAWTHORNE ROAD, GAINESVILLE, FL, 32641","Match","Exact","1735 SE HAWTHORNE RD, GAINESVILLE, FL, 32641",637948828,"R"
86650,"1735 SOUTH RIVER ROAD","SAINT CHARLES","MO",63303,38.760736165,-90.49523599,150,"1735 SOUTH RIVER ROAD, SAINT CHARLES, MO, 63303","Match","Exact","1735 S RIVER RD, SAINT CHARLES, MO, 63303",606667256,"R"
86651,"1735 SOUTH VICTORIA AVE","LOS ANGELES","CA",90019,34.041949312,-118.33128049,151,"1735 SOUTH VICTORIA AVE, LOS ANGELES, CA, 90019","Match","Exact","1735 S VICTORIA AVE, LOS ANGELES, CA, 90019",642861400,"R"
86652,"1735 STRONG AVENUE","ELKHART","IN",46514,41.6856944880001,-86.001790611,152,"1735 STRONG AVENUE, ELKHART, IN, 46514","Match","Exact","1735 STRONG AVE, ELKHART, IN, 46514",7758221,"L"
86653,"1735 STUART AVE","BATON ROUGE","LA",70808,NA,NA,153,"1735 STUART AVE, BATON ROUGE, LA, 70808","No_Match",NA,NA,NA,NA
86654,"1735 THOMAS H DELPIT","BATON ROUGE","LA",70802,30.432045428,-91.1773483439999,154,"1735 THOMAS H DELPIT, BATON ROUGE, LA, 70802","Match","Non_Exact","1735 THOMAS H DELPIT DR, BATON ROUGE, LA, 70802",92183103,"L"
86655,"1735 UNION CHURCH RD","RUSSELLVILLE","KY",42276,36.8066293030001,-87.0061573089999,155,"1735 UNION CHURCH RD, RUSSELLVILLE, KY, 42276","Match","Exact","1735 UNION CHURCH RD, RUSSELLVILLE, KY, 42276",15832160,"L"
86656,"1735 VETERANS BLVD SUITE 13","MERCED","CA",95340,NA,NA,156,"1735 VETERANS BLVD SUITE 13, MERCED, CA, 95340","No_Match",NA,NA,NA,NA
86657,"17350 FORRER ST","DETROIT","MI",48235,42.4180894850001,-83.2022106909999,157,"17350 FORRER ST, DETROIT, MI, 48235","Match","Exact","17350 FORRER ST, DETROIT, MI, 48235",95423190,"R"
86658,"17350 HAZEL ST","SPRING LAKE","MI",49456,43.086060726,-86.2122822489999,158,"17350 HAZEL ST, SPRING LAKE, MI, 49456","Match","Non_Exact","17350 HAZEL, SPRING LAKE, MI, 49456",650177062,"R"
86659,"17350 HIGHWAY 249 STE 220 4074","HOUSTON","TX",77064,NA,NA,159,"17350 HIGHWAY 249 STE 220 4074, HOUSTON, TX, 77064","No_Match",NA,NA,NA,NA
86660,"17350 STATE HIGHWAY 249 STE 220","HOUSTON","TX",77064,NA,NA,160,"17350 STATE HIGHWAY 249 STE 220, HOUSTON, TX, 77064","No_Match",NA,NA,NA,NA
86661,"17350 STATE HIGHWAY 249 SUITE 220","HOUSTON","TX",77064,NA,NA,161,"17350 STATE HIGHWAY 249 SUITE 220, HOUSTON, TX, 77064","No_Match",NA,NA,NA,NA
86662,"17350 STATE HWY 249 STE 220 -1318","HOUSTON","TX",77064,NA,NA,162,"17350 STATE HWY 249 STE 220 -1318, HOUSTON, TX, 77064","No_Match",NA,NA,NA,NA
86663,"17350 STATE HWY 249 STE 220 7358","HOUSTON","TX",77064,NA,NA,163,"17350 STATE HWY 249 STE 220 7358, HOUSTON, TX, 77064","No_Match",NA,NA,NA,NA
86664,"17350 W 163RD ST","OLATHE","KS",66062,38.8342813900001,-94.787220566,164,"17350 W 163RD ST, OLATHE, KS, 66062","Match","Exact","17350 W 163RD ST, OLATHE, KS, 66062",619892941,"R"
86665,"17350 WILTSHIRE BLVD","SOUTHFIELD","MI",48076,42.498407926,-83.217107821,165,"17350 WILTSHIRE BLVD, SOUTHFIELD, MI, 48076","Match","Exact","17350 WILTSHIRE BLVD, SOUTHFIELD, MI, 48076",69806810,"R"
86666,"17351 JANSEN COURT","LOWELL","IN",46356,41.302591229,-87.4060108589999,166,"17351 JANSEN COURT, LOWELL, IN, 46356","Match","Exact","17351 JANSEN CT, LOWELL, IN, 46356",98454418,"L"
86667,"17352 SUNSET BLVD STE 205 D","PACIFIC PALISADES","CA",90272,34.0405043530001,-118.553683239,167,"17352 SUNSET BLVD STE 205 D, PACIFIC PALISADES, CA, 90272","Match","Exact","17352 SUNSET BLVD, PACIFIC PALISADES, CA, 90272",641512984,"L"
86668,"17352 VINEWOOD AVE","TUSTIN","CA",92780,33.749055551,-117.829733581,168,"17352 VINEWOOD AVE, TUSTIN, CA, 92780","Match","Exact","17352 VINEWOOD AVE, TUSTIN, CA, 92780",144053415,"R"
86669,"17353 BELL NORTH DR STE 112","SCHERTZ","TX",78154,29.619106566,-98.2922040729999,169,"17353 BELL NORTH DR STE 112, SCHERTZ, TX, 78154","Match","Exact","17353 BELL NORTH DR, SCHERTZ, TX, 78154",649130018,"L"
86670,"17353 MCLEAN ROAD","PEARLAND","TX",77584,29.518992799,-95.297193917,170,"17353 MCLEAN ROAD, PEARLAND, TX, 77584","Match","Exact","17353 MCLEAN RD, PEARLAND, TX, 77584",116630402,"L"
86671,"17353 MENDOTA ST","DETROIT","MI",48221,42.419153366,-83.165918228,171,"17353 MENDOTA ST, DETROIT, MI, 48221","Match","Exact","17353 MENDOTA ST, DETROIT, MI, 48221",95425335,"L"
86672,"17355 HAMLIN BLVD","LOXAHATCHEE","FL",33470,26.8093598200001,-80.317196109,172,"17355 HAMLIN BLVD, LOXAHATCHEE, FL, 33470","Match","Exact","17355 HAMLIN BLVD, LOXAHATCHEE, FL, 33470",115323770,"L"
86673,"17355 SUMMER OAK PLACE","YORBA LINDA","CA",92886,33.8749248670001,-117.830280664,173,"17355 SUMMER OAK PLACE, YORBA LINDA, CA, 92886","Match","Exact","17355 SUMMER OAK PL, YORBA LINDA, CA, 92886",144126939,"R"
86674,"17356 WESTBURY DR","GRANADA HILLS","CA",91344,34.2986004210001,-118.512488861,174,"17356 WESTBURY DR, GRANADA HILLS, CA, 91344","Match","Exact","17356 WESTBURY DR, GRANADA HILLS, CA, 91344",141541884,"L"
86675,"17358 MAYERLING STREET","GRANADA HILLS","CA",91344,34.283332376,-118.512143167,175,"17358 MAYERLING STREET, GRANADA HILLS, CA, 91344","Match","Exact","17358 MAYERLING ST, GRANADA HILLS, CA, 91344",640414114,"L"
86676,"17358 W 147TH ST","LOCKPORT","IL",60441,41.6193097330001,-88.0393251959999,176,"17358 W 147TH ST, LOCKPORT, IL, 60441","Match","Exact","17358 W 147TH ST, LOCKPORT, IL, 60441",111633022,"L"
86677,"17359 91ST PLACE N","MAPLE GROVE","MN",55311,45.120462796,-93.501642523,177,"17359 91ST PLACE N, MAPLE GROVE, MN, 55311","Match","Exact","17359 91ST PL N, MAPLE GROVE, MN, 55311",43852134,"R"
86678,"1736 125TH AV SE","BELLEVUE","WA",98005,47.5954290290001,-122.173634376,178,"1736 125TH AV SE, BELLEVUE, WA, 98005","Match","Exact","1736 125TH AVE SE, BELLEVUE, WA, 98005",186608237,"L"
86679,"1736 BANTRY DR","DRESHER","PA",19025,40.1505963220001,-75.163516961,179,"1736 BANTRY DR, DRESHER, PA, 19025","Match","Exact","1736 BANTRY DR, DRESHER, PA, 19025",135078757,"L"
86680,"1736 CAPRI LANE","SEABROOK","TX",77586,29.569105474,-95.0191816449999,180,"1736 CAPRI LANE, SEABROOK, TX, 77586","Match","Exact","1736 CAPRI LN, SEABROOK, TX, 77586",96117144,"L"
86681,"1736 CHARLEMONT AVENUE","HACIENDA HEIGHTS","CA",91745,33.9994013420001,-117.960317943,181,"1736 CHARLEMONT AVENUE, HACIENDA HEIGHTS, CA, 91745","Match","Exact","1736 CHARLEMONT AVE, HACIENDA HTS, CA, 91745",141819519,"L"
86682,"1736 E MOBILE LN","PHOENIX","AZ",85040,33.4013422400001,-112.044140217,182,"1736 E MOBILE LN, PHOENIX, AZ, 85040","Match","Exact","1736 E MOBILE LN, PHOENIX, AZ, 85040",128216059,"L"
86683,"1736 E SUNSHINE ST STE 501","SPRINGFIELD","MO",65804,37.1816593620001,-93.263562895,183,"1736 E SUNSHINE ST STE 501, SPRINGFIELD, MO, 65804","Match","Non_Exact","1736 E SUNSHINE ST, SPRINGFIELD, MO, 65804",605886045,"R"
86684,"1736 E SUNSHINE SUITE 303 A","SPRINGFIELD","MO",65804,NA,NA,184,"1736 E SUNSHINE SUITE 303 A, SPRINGFIELD, MO, 65804","No_Match",NA,NA,NA,NA
86685,"1736 E VINE AVE","WEST COVINA","CA",91791,34.057452445,-117.909350089,185,"1736 E VINE AVE, WEST COVINA, CA, 91791","Match","Exact","1736 E VINE AVE, WEST COVINA, CA, 91791",142782339,"R"
86686,"1736 EAST 87TH PLACE","CHICAGO","IL",60617,41.7360920130001,-87.5813089,186,"1736 EAST 87TH PLACE, CHICAGO, IL, 60617","Match","Exact","1736 E 87TH PL, CHICAGO, IL, 60617",605549890,"L"
86687,"1736 EDMOND ROAD","LOOKOUT","WV",25868,38.0692308270001,-81.010338942,187,"1736 EDMOND ROAD, LOOKOUT, WV, 25868","Match","Exact","1736 EDMOND RD, LOOKOUT, WV, 25868",75104097,"L"
86688,"1736 FAYETTEVILLE OWEN ROAD","BEDFORD","IN",47421,38.878867014,-86.624730074,188,"1736 FAYETTEVILLE OWEN ROAD, BEDFORD, IN, 47421","Match","Exact","1736 FAYETTEVILLE OWEN RD, BEDFORD, IN, 47421",649949326,"R"
86689,"1736 FERGUSON DRIVE","ALLISON PARK","PA",15101,40.5655238410001,-79.997820175,189,"1736 FERGUSON DRIVE, ALLISON PARK, PA, 15101","Match","Non_Exact","1736 FERGUSON RD, ALLISON PARK, PA, 15101",51607656,"R"
86690,"1736 FIDDYMENT DRIVE","ROMEOVILLE","IL",60446,41.605427299,-88.145397268,190,"1736 FIDDYMENT DRIVE, ROMEOVILLE, IL, 60446","Match","Exact","1736 FIDDYMENT DR, ROMEOVILLE, IL, 60446",111624568,"R"
86691,"1736 GATEWAY BLVD - APT 118","BELOIT","WI",53511,42.518474466,-88.9651599699999,191,"1736 GATEWAY BLVD - APT 118, BELOIT, WI, 53511","Match","Exact","1736 GATEWAY BLVD, BELOIT, WI, 53511",49873477,"L"
86692,"1736 HILLCREST AVE","PENNSAUKEN","NJ",8110,39.9647802280001,-75.0619846719999,192,"1736 HILLCREST AVE, PENNSAUKEN, NJ, 8110","Match","Exact","1736 HILLCREST AVE, PENNSAUKEN, NJ, 08110",134342619,"L"
86693,"1736 HUMBOLDT AVE","WEST SAINT PAUL","MN",55118,44.893568701,-93.084989301,193,"1736 HUMBOLDT AVE, WEST SAINT PAUL, MN, 55118","Match","Exact","1736 HUMBOLDT AVE, W SAINT PAUL, MN, 55118",37916182,"L"
86694,"1736 KEMPER AVENUE","CINCINNATI","OH",45231,39.228341083,-84.550820121,194,"1736 KEMPER AVENUE, CINCINNATI, OH, 45231","Match","Exact","1736 KEMPER AVE, CINCINNATI, OH, 45231",103919733,"R"
86695,"1736 KING AVE","INDIANAPOLIS","IN",46222,39.7895696530001,-86.204199737,195,"1736 KING AVE, INDIANAPOLIS, IN, 46222","Match","Exact","1736 KING AVE, INDIANAPOLIS, IN, 46222",107986084,"L"
86696,"1736 LITTLE BEAR LOOP","LEWIS CENTER","OH",43035,40.16433934,-82.995587804,196,"1736 LITTLE BEAR LOOP, LEWIS CENTER, OH, 43035","Match","Exact","1736 LITTLE BEAR LOOP, LEWIS CENTER, OH, 43035",637667516,"L"
86697,"1736 N 1500 E","VERNAL","UT",84078,40.4811420680001,-109.500300216,197,"1736 N 1500 E, VERNAL, UT, 84078","Match","Exact","1736 N 1500 E, VERNAL, UT, 84078",632183419,"R"
86698,"1736 NE 171 STREET","NORTH MIAMI BEACH","FL",33162,25.9332117820001,-80.165565726,198,"1736 NE 171 STREET, NORTH MIAMI BEACH, FL, 33162","Match","Exact","1736 NE 171ST ST, N MIAMI BEACH, FL, 33162",116036243,"R"
86699,"1736 NE 28TH STREET","WILTON MANORS","FL",33334,26.1625969130001,-80.1239605389999,199,"1736 NE 28TH STREET, WILTON MANORS, FL, 33334","Match","Exact","1736 NE 28TH ST, WILTON MANORS, FL, 33334",652502743,"R"
86700,"1736 PENN AVENUE","PITTSBURGH","PA",15222,40.4499767720001,-79.985649607,200,"1736 PENN AVENUE, PITTSBURGH, PA, 15222","Match","Exact","1736 PENN AVE, PITTSBURGH, PA, 15222",51628463,"R"
86701,"1736 PONDELLA DR","CHARLOTTE","NC",28213,35.277618154,-80.777630207,201,"1736 PONDELLA DR, CHARLOTTE, NC, 28213","Match","Exact","1736 PONDELLA DR, CHARLOTTE, NC, 28213",70480577,"R"
86702,"1736 SHAWN STREET NW","WASHINGTON","DC",20009,NA,NA,202,"1736 SHAWN STREET NW, WASHINGTON, DC, 20009","No_Match",NA,NA,NA,NA
86703,"1736 SHENANDOAH DR","LEXINGTON","KY",40504,38.0407164050001,-84.545310824,203,"1736 SHENANDOAH DR, LEXINGTON, KY, 40504","Match","Exact","1736 SHENANDOAH DR, LEXINGTON, KY, 40504",31919789,"L"
86704,"1736 SHETLAND LN","ROCK HILL","SC",29730,34.9328756740001,-80.979676521,204,"1736 SHETLAND LN, ROCK HILL, SC, 29730","Match","Exact","1736 SHETLAND LN, ROCK HILL, SC, 29730",19836725,"R"
86705,"1736 SILVER BIRCH ROAD","HUNTINGDON VALLEY","PA",19006,40.157567398,-75.07022899,205,"1736 SILVER BIRCH ROAD, HUNTINGDON VALLEY, PA, 19006","Match","Exact","1736 SILVER BIRCH RD, HUNTINGDON VALLEY, PA, 19006",605660787,"L"
86706,"1736 SOUTH BROAD","GRIFFITH","IN",46319,41.493519791,-87.4273805569999,206,"1736 SOUTH BROAD, GRIFFITH, IN, 46319","Match","Non_Exact","1736 S BROAD ST, GRIFFITH, IN, 46319",98456787,"R"
86707,"1736 STERLING TRACE DRIVE","KELLER","TX",76244,32.964390006,-97.245644139,207,"1736 STERLING TRACE DRIVE, KELLER, TX, 76244","Match","Non_Exact","1736 STERLING TRACE DR, KELLER, TX, 76248",627286977,"R"
86708,"1736 W 48TH ST","DAVENPORT","IA",52806,41.5688727400001,-90.601348934,208,"1736 W 48TH ST, DAVENPORT, IA, 52806","Match","Exact","1736 W 48TH ST, DAVENPORT, IA, 52806",635847755,"R"
86709,"1736 WOOTEN DR","NESBIT","MS",38651,34.886022032,-90.000619181,209,"1736 WOOTEN DR, NESBIT, MS, 38651","Match","Exact","1736 WOOTEN DR, NESBIT, MS, 38651",617660483,"R"
86710,"17360 COIT ROAD","DALLAS","TX",75252,NA,NA,210,"17360 COIT ROAD, DALLAS, TX, 75252","No_Match",NA,NA,NA,NA
86711,"17360 W 8 MILE RD SUITE C1","SOUTHFIELD","MI",48075,42.444646112,-83.214648701,211,"17360 W 8 MILE RD SUITE C1, SOUTHFIELD, MI, 48075","Match","Non_Exact","17360 W 8 MILE RD, SOUTHFIELD, MI, 48075",69839696,"L"
86712,"17362 LEADWELL STREET","LAKE BALBOA","CA",91406,34.204029586,-118.511853563,212,"17362 LEADWELL STREET, LAKE BALBOA, CA, 91406","Match","Exact","17362 LEADWELL ST, LAKE BALBOA, CA, 91406",141544256,"L"
86713,"17363 BENECIA RD","MADERA","CA",93636,36.9986620980001,-119.861194535,213,"17363 BENECIA RD, MADERA, CA, 93636","Match","Exact","17363 BENECIA RD, MADERA, CA, 93636",102372651,"L"
86714,"17367 CANVASBACK DR","CLINTON TOWNSHIP","MI",48038,42.61982758,-82.948414805,214,"17367 CANVASBACK DR, CLINTON TOWNSHIP, MI, 48038","Match","Exact","17367 CANVASBACK DR, CLINTON TOWNSHIP, MI, 48038",617074326,"L"
86715,"17369 GLENMORE","REDFORD","MI",48240,42.4174968680001,-83.295416299,215,"17369 GLENMORE, REDFORD, MI, 48240","Match","Exact","17369 GLENMORE, REDFORD, MI, 48240",95419956,"L"
86716,"1736B SEVERE RD","GILLSVILLE","GA",30543,NA,NA,216,"1736B SEVERE RD, GILLSVILLE, GA, 30543","No_Match",NA,NA,NA,NA
86717,"1737 16TH AVE S","BIRMINGHAM","AL",35205,33.4927390330001,-86.7969288959999,217,"1737 16TH AVE S, BIRMINGHAM, AL, 35205","Match","Exact","1737 16TH AVE S, BIRMINGHAM, AL, 35205",81720925,"R"
86718,"1737 211TH PLACE NE","SAMMAMISH","WA",98074,47.625177696,-122.057696956,218,"1737 211TH PLACE NE, SAMMAMISH, WA, 98074","Match","Exact","1737 211TH PL NE, SAMMAMISH, WA, 98074",186617474,"L"
86719,"1737 ASHLAND AVE","SAINT PAUL","MN",55104,44.943974419,-93.1738300979999,219,"1737 ASHLAND AVE, SAINT PAUL, MN, 55104","Match","Exact","1737 ASHLAND AVE, SAINT PAUL, MN, 55104",97645458,"R"
86720,"1737 CAPITOLA WAY","FAIRFIELD","CA",94534,38.2651368570001,-122.06536896,220,"1737 CAPITOLA WAY, FAIRFIELD, CA, 94534","Match","Exact","1737 CAPITOLA WAY, FAIRFIELD, CA, 94534",192533166,"L"
86721,"1737 CATALINA DR","SAN ANGELO","TX",76901,31.4811758320001,-100.473222101,221,"1737 CATALINA DR, SAN ANGELO, TX, 76901","Match","Non_Exact","1737 CATALINA DR E, SAN ANGELO, TX, 76901",190678655,"L"
86722,"1737 CLAYTON AVE","CHATTANOOGA","TN",37412,34.988722624,-85.272400195,222,"1737 CLAYTON AVE, CHATTANOOGA, TN, 37412","Match","Non_Exact","1737 S CLAYTON AVE, CHATTANOOGA, TN, 37412",59314512,"R"
86723,"1737 DERBY STREET","BERKELEY","CA",94704,37.859392724,-122.274930346,223,"1737 DERBY STREET, BERKELEY, CA, 94704","Match","Non_Exact","1737 DERBY ST, BERKELEY, CA, 94703",124994596,"L"
86724,"1737 E 30TH ST","LORAIN","OH",44055,41.4433765570001,-82.139500223,224,"1737 E 30TH ST, LORAIN, OH, 44055","Match","Exact","1737 E 30TH ST, LORAIN, OH, 44055",55406647,"L"
86725,"1737 E FRONTIER ST","APACHE JUNCTION","AZ",85119,33.4567562010001,-111.52801564,225,"1737 E FRONTIER ST, APACHE JUNCTION, AZ, 85119","Match","Exact","1737 E FRONTIER ST, APACHE JUNCTION, AZ, 85119",638559872,"L"
86726,"1737 EDENWALD AVE APT 3","BRONX","NY",10466,40.891468118,-73.8501264719999,226,"1737 EDENWALD AVE APT 3, BRONX, NY, 10466","Match","Exact","1737 EDENWALD AVE, BRONX, NY, 10466",80297620,"L"
86727,"1737 FREEPORT ROAD","ARNOLD","PA",15068,40.578772837,-79.757176369,227,"1737 FREEPORT ROAD, ARNOLD, PA, 15068","Match","Exact","1737 FREEPORT RD, ARNOLD, PA, 15068",613068988,"L"
86728,"1737 JORDAN AVE","CLOVIS","CA",93611,36.8513888960001,-119.685808621,228,"1737 JORDAN AVE, CLOVIS, CA, 93611","Match","Non_Exact","1737 JORDAN, CLOVIS, CA, 93611",606270166,"L"
86729,"1737 LANGHOLM WAY","FOLSOM","CA",95630,38.6904710360001,-121.11087078,229,"1737 LANGHOLM WAY, FOLSOM, CA, 95630","Match","Exact","1737 LANGHOLM WAY, FOLSOM, CA, 95630",133408796,"L"
86730,"1737 LANIER SPRING DRIVE","GAINESVILLE","GA",30504,34.299446447,-83.861276262,230,"1737 LANIER SPRING DRIVE, GAINESVILLE, GA, 30504","Match","Non_Exact","1737 LANIER SPRINGS DR NW, GAINESVILLE, GA, 30504",98249294,"R"
86731,"1737 N BEAVER","GUYMON","OK",73942,36.6964839890001,-101.488042951,231,"1737 N BEAVER, GUYMON, OK, 73942","Match","Non_Exact","1737 N BEAVER ST, GUYMON, OK, 73942",189772452,"L"
86732,"1737 NEWFOUND ROAD","LEICESTER","NC",28748,35.577512691,-82.764562975,232,"1737 NEWFOUND ROAD, LEICESTER, NC, 28748","Match","Exact","1737 NEWFOUND RD, LEICESTER, NC, 28748",36858704,"L"
86733,"1737 NW 5TH STREET","FARIBAULT","MN",55021,44.2957124000001,-93.295895665,233,"1737 NW 5TH STREET, FARIBAULT, MN, 55021","Match","Non_Exact","1737 5TH ST NW, FARIBAULT, MN, 55021",636252524,"L"
86734,"1737 ORINDA COURT","THOUSAND OAKS","CA",91362,34.2080149760001,-118.846959932,234,"1737 ORINDA COURT, THOUSAND OAKS, CA, 91362","Match","Exact","1737 ORINDA CT, THOUSAND OAKS, CA, 91362",109975834,"L"
86735,"1737 RAMBLEWOOD RD","PETERSBURG","VA",23805,37.194446993,-77.407803772,235,"1737 RAMBLEWOOD RD, PETERSBURG, VA, 23805","Match","Exact","1737 RAMBLEWOOD RD, PETERSBURG, VA, 23805",649950127,"L"
86736,"1737 ROSAMOND STREET","PETALUMA","CA",94954,38.2659089100001,-122.632831914,236,"1737 ROSAMOND STREET, PETALUMA, CA, 94954","Match","Exact","1737 ROSAMOND ST, PETALUMA, CA, 94954",605021759,"L"
86737,"1737 S HIGHLAND PARK DRIVE","LAKE WALES","FL",33898,27.8653046740001,-81.561774723,237,"1737 S HIGHLAND PARK DRIVE, LAKE WALES, FL, 33898","Match","Exact","1737 S HIGHLAND PARK DR, LAKE WALES, FL, 33898",104863890,"L"
86738,"1737 SOUTH LOGAN BOULEVARD","HOLLIDAYSBURG","PA",16648,40.440708849,-78.392645489,238,"1737 SOUTH LOGAN BOULEVARD, HOLLIDAYSBURG, PA, 16648","Match","Non_Exact","1737 LOGAN BLVD, HOLLIDAYSBURG, PA, 16648",49714679,"R"
86739,"1737 SPRING ARBOR RD 184","JACKSON","MI",49203,42.2393444670001,-84.435648182,239,"1737 SPRING ARBOR RD 184, JACKSON, MI, 49203","Match","Exact","1737 SPRING ARBOR RD, JACKSON, MI, 49203",17631946,"L"
86740,"1737 SPRING ARBOR RD SUITE 208","JACKSON","MI",49203,42.2393444670001,-84.435648182,240,"1737 SPRING ARBOR RD SUITE 208, JACKSON, MI, 49203","Match","Exact","1737 SPRING ARBOR RD, JACKSON, MI, 49203",17631946,"L"
86741,"1737 UNION STREET BOX 132","NISKAYUNA","NY",12309,42.803169063,-73.9006366899999,241,"1737 UNION STREET BOX 132, NISKAYUNA, NY, 12309","Match","Exact","1737 UNION ST, NISKAYUNA, NY, 12309",18030606,"L"
86742,"1737 W VISTA WAY","VISTA","CA",92083,33.18941599,-117.277472041,242,"1737 W VISTA WAY, VISTA, CA, 92083","Match","Exact","1737 W VISTA WAY, VISTA, CA, 92083",195381036,"R"
86743,"1737 WEEKEND VILLA RD","RAMONA","CA",92065,33.0704331530001,-116.888334393,243,"1737 WEEKEND VILLA RD, RAMONA, CA, 92065","Match","Exact","1737 WEEKEND VILLA RD, RAMONA, CA, 92065",195414095,"R"
86744,"1737 WEST VISTA WAY","VISTA","CA",92083,33.189418076,-117.277465216,244,"1737 WEST VISTA WAY, VISTA, CA, 92083","Match","Exact","1737 W VISTA WAY, VISTA, CA, 92083",195381036,"R"
86745,"1737 WESTWAY AVE","GARLAND","TX",75042,32.897205039,-96.655336677,245,"1737 WESTWAY AVE, GARLAND, TX, 75042","Match","Exact","1737 WESTWAY AVE, GARLAND, TX, 75042",102926746,"R"
86746,"17371 NE 67TH CT A-7","REDMOND","WA",98052,47.665242972,-122.108001437,246,"17371 NE 67TH CT A-7, REDMOND, WA, 98052","Match","Non_Exact","17371 NE 67TH CT, REDMOND, WA, 98052",186683817,"R"
86747,"17371 NE 67TH CT STE A7","REDMOND","WA",98052,47.665242972,-122.108001437,247,"17371 NE 67TH CT STE A7, REDMOND, WA, 98052","Match","Non_Exact","17371 NE 67TH CT, REDMOND, WA, 98052",186683817,"R"
86748,"17371 NE 67TH CT SUITE A7","REDMOND","WA",98052,47.665242972,-122.108001437,248,"17371 NE 67TH CT SUITE A7, REDMOND, WA, 98052","Match","Non_Exact","17371 NE 67TH CT, REDMOND, WA, 98052",186683817,"R"
86749,"17371 SILVER TIP CIR","YORBA LINDA","CA",92886,33.8780694380001,-117.830716146,249,"17371 SILVER TIP CIR, YORBA LINDA, CA, 92886","Match","Exact","17371 SILVER TIP CIR, YORBA LINDA, CA, 92886",144112207,"L"
86750,"17373 E LEHIGH PL","AURORA","CO",80013,39.6479833240001,-104.78461515,250,"17373 E LEHIGH PL, AURORA, CO, 80013","Match","Exact","17373 E LEHIGH PL, AURORA, CO, 80013",649638960,"R"
86751,"17374 METCALF AVE","PORT CHARLOTTE","FL",33954,27.0252816060001,-82.1608107719999,251,"17374 METCALF AVE, PORT CHARLOTTE, FL, 33954","Match","Exact","17374 METCALF AVE, PORT CHARLOTTE, FL, 33954",4284469,"L"
86752,"17374 N RAINBOW CIRCLE","SURPRISE","AZ",85374,33.6422432970001,-112.372296277,252,"17374 N RAINBOW CIRCLE, SURPRISE, AZ, 85374","Match","Exact","17374 N RAINBOW CIR, SURPRISE, AZ, 85374",642857684,"L"
86753,"17375 CAMPILLO DRIVE","SAN DIEGO","CA",92128,33.0300021190001,-117.063097003,253,"17375 CAMPILLO DRIVE, SAN DIEGO, CA, 92128","Match","Exact","17375 CAMPILLO DR, SAN DIEGO, CA, 92128",195315635,"R"
86754,"17375 E 2000TH AVE","EFFINGHAM","IL",62401,39.200543806,-88.482391659,254,"17375 E 2000TH AVE, EFFINGHAM, IL, 62401","Match","Exact","17375 E 2000TH AVE, EFFINGHAM, IL, 62401",651637764,"L"
86755,"17375 GLAZE RD","ATHENS","AL",35611,34.8120729610001,-87.036240543,255,"17375 GLAZE RD, ATHENS, AL, 35611","Match","Exact","17375 GLAZE RD, ATHENS, AL, 35611",95255690,"L"
86756,"17375 TALLASEE BLVD","FOLEY","AL",36535,30.3396576160001,-87.727973772,256,"17375 TALLASEE BLVD, FOLEY, AL, 36535","Match","Exact","17375 TALLASEE BLVD, FOLEY, AL, 36535",618721917,"L"
86757,"17378 GRANDE PLACE","SAN DIEGO","CA",92128,33.0283405810001,-117.062353092,257,"17378 GRANDE PLACE, SAN DIEGO, CA, 92128","Match","Non_Exact","17378 GRANDEE PL, SAN DIEGO, CA, 92128",195315676,"L"
86758,"1738 23RD AVE N","NASHVILLE","TN",37208,36.178058316,-86.81400422,258,"1738 23RD AVE N, NASHVILLE, TN, 37208","Match","Exact","1738 23RD AVE N, NASHVILLE, TN, 37208",606407872,"R"
86759,"1738 BEECHER DRIVE","63136","MO",63136,38.7630819300001,-90.2715197489999,259,"1738 BEECHER DRIVE, 63136, MO, 63136","Match","Non_Exact","1738 BEECHER DR, SAINT LOUIS, MO, 63136",100145689,"R"
86760,"1738 CANYON DRIVE","LOS ANGELES","CA",90028,34.102827303,-118.316733037,260,"1738 CANYON DRIVE, LOS ANGELES, CA, 90028","Match","Exact","1738 CANYON DR, LOS ANGELES, CA, 90028",141597147,"R"
86761,"1738 E HOLLY OAK DRIVE","WEST COVINA","CA",91791,34.0680579580001,-117.908690021,261,"1738 E HOLLY OAK DRIVE, WEST COVINA, CA, 91791","Match","Exact","1738 E HOLLY OAK DR, WEST COVINA, CA, 91791",142782275,"R"
86762,"1738 ELTON ROAD STE 215","SILVER SPRING","MD",20903,39.01957077,-76.97310057,262,"1738 ELTON ROAD STE 215, SILVER SPRING, MD, 20903","Match","Exact","1738 ELTON RD, SILVER SPRING, MD, 20903",637892856,"L"
86763,"1738 GLEN VALLEY DRIVE","TOLEDO","OH",43614,41.6078992160001,-83.657878161,263,"1738 GLEN VALLEY DRIVE, TOLEDO, OH, 43614","Match","Exact","1738 GLEN VALLEY DR, TOLEDO, OH, 43614",33935787,"L"
86764,"1738 HIDDEN FOREST LN","JACKSONVILLE","FL",32225,30.3531441980001,-81.4829350489999,264,"1738 HIDDEN FOREST LN, JACKSONVILLE, FL, 32225","Match","Exact","1738 HIDDEN FOREST LN, JACKSONVILLE, FL, 32225",83980188,"L"
86765,"1738 HILLANDALE ROAD SUITE D","DURHAM","NC",27705,36.026114539,-78.935943896,265,"1738 HILLANDALE ROAD SUITE D, DURHAM, NC, 27705","Match","Exact","1738 HILLANDALE RD, DURHAM, NC, 27705",71738156,"R"
86766,"1738 HILLSGATE COURT","TALLAHASSEE","FL",32308,NA,NA,266,"1738 HILLSGATE COURT, TALLAHASSEE, FL, 32308","No_Match",NA,NA,NA,NA
86767,"1738 N ASPEN CIR","SARATOGA SPRINGS","UT",84045,40.393262029,-111.930715351,267,"1738 N ASPEN CIR, SARATOGA SPRINGS, UT, 84045","Match","Exact","1738 ASPEN CIR, SARATOGA SPRINGS, UT, 84045",629752561,"R"
86768,"1738 PARK DR","EATON PARK","FL",33840,NA,NA,268,"1738 PARK DR, EATON PARK, FL, 33840","No_Match",NA,NA,NA,NA
86769,"1738 PO BOX","SIMI VALLEY","CA",93062,NA,NA,269,"1738 PO BOX, SIMI VALLEY, CA, 93062","No_Match",NA,NA,NA,NA
86770,"1738 ROCK RIDGE DR","CEDAR HILL","TX",75104,32.5584487780001,-96.902224772,270,"1738 ROCK RIDGE DR, CEDAR HILL, TX, 75104","Match","Exact","1738 ROCK RIDGE DR, CEDAR HILL, TX, 75104",616809702,"R"
86771,"1738 ROSEBURY LOOP","THE VILLAGES","FL",32162,28.918070368,-81.994437765,271,"1738 ROSEBURY LOOP, THE VILLAGES, FL, 32162","Match","Exact","1738 ROSEBURY LOOP, THE VILLAGES, FL, 32162",612346046,"L"
86772,"1738 ROSS CIR APT 1","SAN JOSE","CA",95124,37.2532010100001,-121.91014923,272,"1738 ROSS CIR APT 1, SAN JOSE, CA, 95124","Match","Exact","1738 ROSS CIR, SAN JOSE, CA, 95124",122921344,"L"
86773,"1738 S DELAWARE PL","TULSA","OK",74104,36.136497159,-95.948187133,273,"1738 S DELAWARE PL, TULSA, OK, 74104","Match","Exact","1738 S DELAWARE PL, TULSA, OK, 74104",166449038,"R"
86774,"1738 SE 58TH AVE","OCALA","FL",34480,29.1711081940001,-82.053680127,274,"1738 SE 58TH AVE, OCALA, FL, 34480","Match","Exact","1738 SE 58TH AVE, OCALA, FL, 34480",116730795,"R"
86775,"1738 SILVER WAY","LITHIA SPRINGS","GA",30122,33.778324608,-84.631780691,275,"1738 SILVER WAY, LITHIA SPRINGS, GA, 30122","Match","Exact","1738 SILVER WAY, LITHIA SPGS, GA, 30122",16654966,"L"
86776,"1738 SOUTH RIO LINDA ST","VISALIA","CA",93292,36.31383835,-119.244292263,276,"1738 SOUTH RIO LINDA ST, VISALIA, CA, 93292","Match","Exact","1738 S RIO LINDA ST, VISALIA, CA, 93292",607602082,"L"
86777,"1738 ST ROCH AVENUE","NEW ORLEANS","LA",70117,29.9753086910001,-90.052779711,277,"1738 ST ROCH AVENUE, NEW ORLEANS, LA, 70117","Match","Exact","1738 SAINT ROCH AVE, NEW ORLEANS, LA, 70117",191716552,"L"
86778,"1738 TALIAFERRO TRL","MONTGOMERY","AL",36117,32.350430556,-86.1675233129999,278,"1738 TALIAFERRO TRL, MONTGOMERY, AL, 36117","Match","Exact","1738 TALIAFERRO TRL, MONTGOMERY, AL, 36117",1507036,"L"
86779,"1738 TAPPAHANNOCK TRL","MARIETTA","GA",30062,33.9882917580001,-84.5024416809999,279,"1738 TAPPAHANNOCK TRL, MARIETTA, GA, 30062","Match","Exact","1738 TAPPAHANNOCK TRL, MARIETTA, GA, 30062",632360059,"R"
86780,"1738 W 37TH STREET","LOS ANGELES","CA",90018,34.02105555,-118.310129448,280,"1738 W 37TH STREET, LOS ANGELES, CA, 90018","Match","Exact","1738 W 37TH ST, LOS ANGELES, CA, 90018",141606271,"L"
86781,"1738 WEST 8340 SOUTH","WEST JORDAN","UT",84088,40.5996339210001,-111.939708509,281,"1738 WEST 8340 SOUTH, WEST JORDAN, UT, 84088","Match","Exact","1738 W 8340 S, WEST JORDAN, UT, 84088",176121539,"R"
86782,"1738 WILLOW PARK WAY","MONUMENT","CO",80132,NA,NA,282,"1738 WILLOW PARK WAY, MONUMENT, CO, 80132","No_Match",NA,NA,NA,NA
86783,"1738 YORK DRIVE","COLUMBIA","SC",29204,34.016671021,-81.000166072,283,"1738 YORK DRIVE, COLUMBIA, SC, 29204","Match","Exact","1738 YORK DR, COLUMBIA, SC, 29204",71821950,"R"
86784,"17381 MAGNOLIA PKWY","SOUTHFIELD","MI",48075,42.4499731670001,-83.216367642,284,"17381 MAGNOLIA PKWY, SOUTHFIELD, MI, 48075","Match","Exact","17381 MAGNOLIA PKWY, SOUTHFIELD, MI, 48075",69740380,"L"
86785,"17383 RD 36","MADERA","CA",93636,37.0004524880001,-119.893677337,285,"17383 RD 36, MADERA, CA, 93636","Match","Exact","17383 RD 36, MADERA, CA, 93636",102352549,"R"
86786,"17384 TENNYSON","ROSEVILLE","MI",48066,42.499861497,-82.941491414,286,"17384 TENNYSON, ROSEVILLE, MI, 48066","Match","Exact","17384 TENNYSON, ROSEVILLE, MI, 48066",110699464,"L"
86787,"17387","HONOLULU","HI",96817,NA,NA,287,"17387, HONOLULU, HI, 96817","No_Match",NA,NA,NA,NA
86788,"17389 HOOVER STREET","DETROIT","MI",48234,42.422737774,-83.004140418,288,"17389 HOOVER STREET, DETROIT, MI, 48234","Match","Non_Exact","17389 HOOVER ST, DETROIT, MI, 48205",95466793,"L"
86789,"1739 22ND AVE N","NASHVILLE","TN",37208,36.1780509660001,-86.812710006,289,"1739 22ND AVE N, NASHVILLE, TN, 37208","Match","Exact","1739 22ND AVE N, NASHVILLE, TN, 37208",606375027,"L"
86790,"1739 2ND STREET","MANHATTAN BEACH","CA",90266,33.8800907240001,-118.38209134,290,"1739 2ND STREET, MANHATTAN BEACH, CA, 90266","Match","Exact","1739 2ND ST, MANHATTAN BEACH, CA, 90266",141582969,"L"
86791,"1739 BLUESTEM AVENUE","WILLIAMSTOWN","NJ",8094,39.6855611300001,-75.051417048,291,"1739 BLUESTEM AVENUE, WILLIAMSTOWN, NJ, 8094","Match","Exact","1739 BLUESTEM AVE, WILLIAMSTOWN, NJ, 08094",635767272,"R"
86792,"1739 BONNYTON LN","HOUSTON","TX",77014,29.9863927530001,-95.4487408699999,292,"1739 BONNYTON LN, HOUSTON, TX, 77014","Match","Non_Exact","1739 BONNYTON, HOUSTON, TX, 77014",624515552,"R"
86793,"1739 BROCKWAY","SAGINAW","MI",48602,43.4189055960001,-83.9860857259999,293,"1739 BROCKWAY, SAGINAW, MI, 48602","Match","Non_Exact","1739 BROCKWAY RD, SAGINAW, MI, 48602",80209474,"L"
86794,"1739 CHANCER LANE","SLIDELL","LA",70461,30.2500154520001,-89.749389061,294,"1739 CHANCER LANE, SLIDELL, LA, 70461","Match","Exact","1739 CHANCER LN, SLIDELL, LA, 70461",111276124,"R"
86795,"1739 E 83RD STREET","CHICAGO","IL",60617,41.7442537200001,-87.581516651,295,"1739 E 83RD STREET, CHICAGO, IL, 60617","Match","Exact","1739 E 83RD ST, CHICAGO, IL, 60617",111775289,"R"
86796,"1739 E 87TH STREET","CHICAGO","IL",60617,41.7369647470001,-87.581850316,296,"1739 E 87TH STREET, CHICAGO, IL, 60617","Match","Exact","1739 E 87TH ST, CHICAGO, IL, 60617",111775405,"R"
86797,"1739 EAST 83RD STREET","CHICAGO","IL",60617,41.7442537200001,-87.5815195769999,297,"1739 EAST 83RD STREET, CHICAGO, IL, 60617","Match","Exact","1739 E 83RD ST, CHICAGO, IL, 60617",111775289,"R"
86798,"1739 ELIZABETH AVE NW","GRAND RAPIDS","MI",49504,42.9942357240001,-85.682156881,298,"1739 ELIZABETH AVE NW, GRAND RAPIDS, MI, 49504","Match","Exact","1739 ELIZABETH AVE NW, GRAND RAPIDS, MI, 49504",12498604,"L"
86799,"1739 FM 489","OAKWOOD","TX",75855,31.6769484210001,-95.957481162,299,"1739 FM 489, OAKWOOD, TX, 75855","Match","Exact","1739 FM 489, OAKWOOD, TX, 75855",627810511,"L"
86800,"1739 GEMMA ST NW","SALEM","OR",97304,44.9595138510001,-123.077174658,300,"1739 GEMMA ST NW, SALEM, OR, 97304","Match","Exact","1739 GEMMA ST NW, SALEM, OR, 97304",610950430,"L"
86801,"1739 GORDON HIGHWAY","AUGUSTA","GA",30904,33.441596519,-82.028323429,301,"1739 GORDON HIGHWAY, AUGUSTA, GA, 30904","Match","Exact","1739 GORDON HWY, AUGUSTA, GA, 30904",635634227,"R"
86802,"1739 GRAFTON DRIVE","SAINT LOUIS","MO",63136,38.7687292890001,-90.270987506,302,"1739 GRAFTON DRIVE, SAINT LOUIS, MO, 63136","Match","Exact","1739 GRAFTON DR, SAINT LOUIS, MO, 63136",628738363,"L"
86803,"1739 JANELLA WAY","SANDY","UT",84093,40.60096373,-111.841728144,303,"1739 JANELLA WAY, SANDY, UT, 84093","Match","Non_Exact","1739 E JANELLA WAY, SANDY, UT, 84093",176089901,"L"
86804,"1739 KINGS RD","HANFORD","CA",93230,36.3430736280001,-119.666178471,304,"1739 KINGS RD, HANFORD, CA, 93230","Match","Exact","1739 KINGS RD, HANFORD, CA, 93230",197988821,"L"
86805,"1739 MASTERS DRIVE","FRANKLIN","TN",37064,35.85102497,-86.894375521,305,"1739 MASTERS DRIVE, FRANKLIN, TN, 37064","Match","Exact","1739 MASTERS DR, FRANKLIN, TN, 37064",73129618,"R"
86806,"1739 N HIGH ST","COLUMBUS","OH",43210,39.9976646650001,-83.007601929,306,"1739 N HIGH ST, COLUMBUS, OH, 43210","Match","Exact","1739 N HIGH ST, COLUMBUS, OH, 43210",218652890,"L"
86807,"1739 N HIGH STREET 2095 OHIO UNION","COLUMBUS","OH",43210,39.9976646650001,-83.007601929,307,"1739 N HIGH STREET 2095 OHIO UNION, COLUMBUS, OH, 43210","Match","Non_Exact","1739 N HIGH ST, COLUMBUS, OH, 43210",218652890,"L"
86808,"1739 N HIGH STREET","COLUMBUS","OH",43210,39.9976646650001,-83.007601929,308,"1739 N HIGH STREET, COLUMBUS, OH, 43210","Match","Exact","1739 N HIGH ST, COLUMBUS, OH, 43210",218652890,"L"
86809,"1739 N ST NW","WASHINGTON","DC",20036,38.9072492870001,-77.039956753,309,"1739 N ST NW, WASHINGTON, DC, 20036","Match","Exact","1739 N ST NW, WASHINGTON, DC, 20036",76225601,"R"
86810,"1739 NORIEGA ST","SAN FRANCISCO","CA",94122,37.7539792250001,-122.482311693,310,"1739 NORIEGA ST, SAN FRANCISCO, CA, 94122","Match","Exact","1739 NORIEGA ST, SAN FRANCISCO, CA, 94122",192278079,"L"
86811,"1739 NORTH HIGH STREET ROOM 2095","COLUMBUS","OH",43210,39.9976508600001,-83.0075992549999,311,"1739 NORTH HIGH STREET ROOM 2095, COLUMBUS, OH, 43210","Match","Exact","1739 N HIGH ST, COLUMBUS, OH, 43210",218652890,"L"
86812,"1739 NORTH HIGH STREET","COLUMBUS","OH",43210,39.9976508600001,-83.0075992549999,312,"1739 NORTH HIGH STREET, COLUMBUS, OH, 43210","Match","Exact","1739 N HIGH ST, COLUMBUS, OH, 43210",218652890,"L"
86813,"1739 NORTH HIGHSTREET","COLUMBUS","OH",43210,NA,NA,313,"1739 NORTH HIGHSTREET, COLUMBUS, OH, 43210","No_Match",NA,NA,NA,NA
86814,"1739 OBERLIN CT NW CANTON","CANTON","OH",44703,40.817279044,-81.371741288,314,"1739 OBERLIN CT NW CANTON, CANTON, OH, 44703","Match","Exact","1739 OBERLIN CT NW, CANTON, OH, 44703",64679195,"L"
86815,"1739 PEMISCOT STREET","CAPE GIRARDEAU","MO",63701,37.3165558310001,-89.5397945879999,315,"1739 PEMISCOT STREET, CAPE GIRARDEAU, MO, 63701","Match","Exact","1739 PEMISCOT ST, CAPE GIRARDEAU, MO, 63701",35182322,"L"
86816,"1739 REVERE AVE","SAN FRANCISCO","CA",94124,37.7330130560001,-122.392546339,316,"1739 REVERE AVE, SAN FRANCISCO, CA, 94124","Match","Exact","1739 REVERE AVE, SAN FRANCISCO, CA, 94124",640912071,"L"
86817,"1739 ROOSEVELT BLVD","VINELAND","NJ",8361,39.4572145930001,-74.9960973079999,317,"1739 ROOSEVELT BLVD, VINELAND, NJ, 8361","Match","Exact","1739 ROOSEVELT BLVD, VINELAND, NJ, 08361",617568139,"R"
86818,"1739 SHERWOOD FOREST","BATON ROUGE","LA",70815,30.4378945600001,-91.0573428389999,318,"1739 SHERWOOD FOREST, BATON ROUGE, LA, 70815","Match","Non_Exact","1739 SHERWOOD FOREST BLVD, BATON ROUGE, LA, 70815",92196117,"L"
86819,"1739 SIERRA TRAIL UNIT 1B","VAIL","CO",81657,39.6300258650001,-106.411251686,319,"1739 SIERRA TRAIL UNIT 1B, VAIL, CO, 81657","Match","Exact","1739 SIERRA TRL, VAIL, CO, 81657",105734575,"L"
86820,"1739 SIESTA DR","SANDY","UT",84093,40.612391577,-111.842415221,320,"1739 SIESTA DR, SANDY, UT, 84093","Match","Exact","1739 SIESTA DR, SANDY, UT, 84093",176114600,"L"
86821,"1739 SUPPER CLUB RD","LETART","WV",25253,NA,NA,321,"1739 SUPPER CLUB RD, LETART, WV, 25253","No_Match",NA,NA,NA,NA
86822,"1739 TARAH TRACE DRIVE","BRANDON","FL",33510,27.9722171180001,-82.311039701,322,"1739 TARAH TRACE DRIVE, BRANDON, FL, 33510","Match","Exact","1739 TARAH TRACE DR, BRANDON, FL, 33510",104555702,"R"
86823,"1739 UNIVERSITY AVE SUITE 341","OXFORD","MS",38655,34.3629868960001,-89.5118320019999,323,"1739 UNIVERSITY AVE SUITE 341, OXFORD, MS, 38655","Match","Exact","1739 UNIVERSITY AVE, OXFORD, MS, 38655",607276477,"R"
86824,"1739 UNIVERSITY DRIVE","COLUMBIA","TN",38401,35.6132989660001,-87.1095816119999,324,"1739 UNIVERSITY DRIVE, COLUMBIA, TN, 38401","Match","Exact","1739 UNIVERSITY DR, COLUMBIA, TN, 38401",26900495,"L"
86825,"1739 W 101ST STREET","CHICAGO","IL",60643,41.71003262,-87.665916169,325,"1739 W 101ST STREET, CHICAGO, IL, 60643","Match","Exact","1739 W 101ST ST, CHICAGO, IL, 60643",604993754,"L"
86826,"17391 BERNARDO CENTER DRIVE","SAN DIEGO","CA",92128,33.0287277140001,-117.075834139,326,"17391 BERNARDO CENTER DRIVE, SAN DIEGO, CA, 92128","Match","Exact","17391 BERNARDO CENTER DR, SAN DIEGO, CA, 92128",195315358,"R"
86827,"17392 RANCH DRIVE","PINE CITY","MN",55063,45.8606415310001,-92.9791992299999,327,"17392 RANCH DRIVE, PINE CITY, MN, 55063","Match","Exact","17392 RANCH DR, PINE CITY, MN, 55063",618433905,"R"
86828,"17393 MOUNTAIN DR","BROOKINGS","OR",97415,42.07974018,-124.248547439,328,"17393 MOUNTAIN DR, BROOKINGS, OR, 97415","Match","Exact","17393 MOUNTAIN DR, BROOKINGS, OR, 97415",137108775,"L"
86829,"17396 RIVER ROAD","COURTLAND","VA",23837,36.7827480500001,-77.1296642789999,329,"17396 RIVER ROAD, COURTLAND, VA, 23837","Match","Exact","17396 RIVER RD, COURTLAND, VA, 23837",82720148,"L"
86830,"17397 SANTA SUZANNE ST","FOUNTAIN VALLEY","CA",92708,33.710299155,-117.976163663,330,"17397 SANTA SUZANNE ST, FOUNTAIN VALLEY, CA, 92708","Match","Exact","17397 SANTA SUZANNE ST, FOUNTAIN VALLEY, CA, 92708",653168890,"R"
86831,"173OSBORNETERRACE","NEWARK","NJ",7112,NA,NA,331,"173OSBORNETERRACE, NEWARK, NJ, 7112","No_Match",NA,NA,NA,NA
86832,"174 ANNAPOLIS BEND CIRCLE","HENDERSONVILLE","TN",37075,36.357230793,-86.550748362,332,"174 ANNAPOLIS BEND CIRCLE, HENDERSONVILLE, TN, 37075","Match","Exact","174 ANNAPOLIS BEND CIR, HENDERSONVILLE, TN, 37075",628073239,"R"
86833,"174 AVE C","PORT ST JOE","FL",32456,29.8196895660001,-85.304785989,333,"174 AVE C, PORT ST JOE, FL, 32456","Match","Exact","174 AVE C, PORT SAINT JOE, FL, 32456",7147211,"R"
86834,"174 BEARCE ROAD","WINTHROP","ME",4364,44.33413855,-69.942780935,334,"174 BEARCE ROAD, WINTHROP, ME, 4364","Match","Exact","174 BEARCE RD, WINTHROP, ME, 04364",75473422,"L"
86835,"174 BLAKE ST APT 3","LEWISTON","ME",4240,44.0944186230001,-70.2116962869999,335,"174 BLAKE ST APT 3, LEWISTON, ME, 4240","Match","Exact","174 BLAKE ST, LEWISTON, ME, 04240",77961720,"L"
86836,"174 BRUSH HILL RD","MILTON","MA",2186,42.2603659480001,-71.100580131,336,"174 BRUSH HILL RD, MILTON, MA, 2186","Match","Exact","174 BRUSH HILL RD, MILTON, MA, 02186",87246963,"L"
86837,"174 CEDAR GROVE LANE","SOMERSET","NJ",8873,40.517087474,-74.527258655,337,"174 CEDAR GROVE LANE, SOMERSET, NJ, 8873","Match","Exact","174 CEDAR GROVE LN, SOMERSET, NJ, 08873",628652571,"L"
86838,"174 CHEROKEE ROAD","TAPPAHANNOCK","VA",22560,37.8239413090001,-76.943650702,338,"174 CHEROKEE ROAD, TAPPAHANNOCK, VA, 22560","Match","Exact","174 CHEROKEE RD, TAPPAHANNOCK, VA, 22560",21886590,"L"
86839,"174 CHESTNUT STREET APT BASEMENT","ALBANY","NY",12210,42.654894014,-73.764036882,339,"174 CHESTNUT STREET APT BASEMENT, ALBANY, NY, 12210","Match","Exact","174 CHESTNUT ST, ALBANY, NY, 12210",18310375,"L"
86840,"174 CHESTON ST","PITTSBURGH","PA",15227,40.388103931,-79.974918879,340,"174 CHESTON ST, PITTSBURGH, PA, 15227","Match","Exact","174 CHESTON ST, PITTSBURGH, PA, 15227",51692002,"R"
86841,"174 CLARK RD","SEALE","AL",36875,32.385025657,-85.117100841,341,"174 CLARK RD, SEALE, AL, 36875","Match","Exact","174 CLARK RD, SEALE, AL, 36875",636709502,"R"
86842,"174 CLEVELAND AVE","ATHENS","GA",30601,33.968348254,-83.381180429,342,"174 CLEVELAND AVE, ATHENS, GA, 30601","Match","Exact","174 CLEVELAND AVE, ATHENS, GA, 30601",4802165,"R"
86843,"174 COUNTY ROAD 1330","VINEMONT","AL",35179,34.24791644,-86.83964402,343,"174 COUNTY ROAD 1330, VINEMONT, AL, 35179","Match","Exact","174 CO RD 1330, VINEMONT, AL, 35179",130238991,"R"
86844,"174 COUNTY ROAD 383","BILLINGSLEY","AL",36006,32.726474356,-86.6498288079999,344,"174 COUNTY ROAD 383, BILLINGSLEY, AL, 36006","Match","Exact","174 CO RD 383, BILLINGSLEY, AL, 36006",649797284,"R"
86845,"174 CR 2363 W","LIBERTY","TX",77575,NA,NA,345,"174 CR 2363 W, LIBERTY, TX, 77575","Tie",NA,NA,NA,NA
86846,"174 CREWS LANE","PEARCY","AR",71964,34.458709152,-93.220219271,346,"174 CREWS LANE, PEARCY, AR, 71964","Match","Exact","174 CREWS LN, PEARCY, AR, 71964",610977763,"L"
86847,"174 DANA AVE","HYDE PARK","MA",2136,42.247050809,-71.1193517629999,347,"174 DANA AVE, HYDE PARK, MA, 2136","Match","Exact","174 DANA AVE, HYDE PARK, MA, 02136",85715841,"L"
86848,"174 DANA AVENUE","HYDE PARK","MA",2136,42.247050809,-71.1193517629999,348,"174 DANA AVENUE, HYDE PARK, MA, 2136","Match","Exact","174 DANA AVE, HYDE PARK, MA, 02136",85715841,"L"
86849,"174 DANDY AVENUE","BROADWAY","VA",22815,38.617677208,-78.8106966839999,349,"174 DANDY AVENUE, BROADWAY, VA, 22815","Match","Exact","174 DANDY AVE, BROADWAY, VA, 22815",634109943,"L"
86850,"174 DEEPDALE DRIVE","MIDDLETOWN","NJ",7748,40.3774900400001,-74.1324330699999,350,"174 DEEPDALE DRIVE, MIDDLETOWN, NJ, 7748","Match","Exact","174 DEEPDALE DR, MIDDLETOWN, NJ, 07748",90497160,"L"
86851,"174 DELMONT AVENUE","WARMINSTER","PA",18974,40.2097056870001,-75.125982627,351,"174 DELMONT AVENUE, WARMINSTER, PA, 18974","Match","Exact","174 DELMONT AVE, WARMINSTER, PA, 18974",134736113,"L"
86852,"174 E ADAMS","IONIA","MI",48846,42.9821605120001,-85.059377072,352,"174 E ADAMS, IONIA, MI, 48846","Match","Non_Exact","174 E ADAMS ST, IONIA, MI, 48846",638724531,"L"
86853,"174 E BLITHEDALE AVENUE","MILL VALLEY","CA",94941,37.9048647130001,-122.543375562,353,"174 E BLITHEDALE AVENUE, MILL VALLEY, CA, 94941","Match","Exact","174 E BLITHEDALE AVE, MILL VALLEY, CA, 94941",192766392,"R"
86854,"174 E COLONIAL DRIVE","VERNON HILLS","IL",60061,42.2630204760001,-87.9603422389999,354,"174 E COLONIAL DRIVE, VERNON HILLS, IL, 60061","Match","Exact","174 COLONIAL DR, VERNON HILLS, IL, 60061",647197912,"L"
86855,"174 E DAVID HWY","IONIA","MI",48846,NA,NA,355,"174 E DAVID HWY, IONIA, MI, 48846","Tie",NA,NA,NA,NA
86856,"174 E MOURNING DOVE WAY","GALLOWAY","NJ",8205,39.492131638,-74.5061698,356,"174 E MOURNING DOVE WAY, GALLOWAY, NJ, 8205","Match","Exact","174 E MOURNING DOVE WAY, GALLOWAY, NJ, 08205",202505458,"R"
86857,"174 E PINE GROVE RD","PINE GROVE MILLS","PA",16868,40.7355720940001,-77.883344015,357,"174 E PINE GROVE RD, PINE GROVE MILLS, PA, 16868","Match","Exact","174 PINE GROVE RD, PINE GROVE MILLS, PA, 16868",50366009,"R"
86858,"174 EAST 104 STREET","NEW YORK","NY",10029,40.7906906910001,-73.94665581,358,"174 EAST 104 STREET, NEW YORK, NY, 10029","Match","Exact","174 E 104TH ST, NEW YORK, NY, 10029",59657919,"R"
86859,"174 EAST AVE","SARATOGA SPRINGS","NY",12866,43.0836580230001,-73.771731022,359,"174 EAST AVE, SARATOGA SPRINGS, NY, 12866","Match","Exact","174 EAST AVE, SARATOGA SPGS, NY, 12866",18766513,"R"
86860,"174 EAST MAIN STREET - APT 312","SPARTANBURG","SC",29306,34.9501010650001,-81.929247501,360,"174 EAST MAIN STREET - APT 312, SPARTANBURG, SC, 29306","Match","Exact","174 E MAIN ST, SPARTANBURG, SC, 29306",19477563,"L"
86861,"174 EDISON ROAD","LAKE HOPATCONG","NJ",7849,40.9583838130001,-74.599354106,361,"174 EDISON ROAD, LAKE HOPATCONG, NJ, 7849","Match","Exact","174 EDISON RD, LAKE HOPATCONG, NJ, 07849",649303092,"R"
86862,"174 FANN ROAD","NOLENSVILLE","TN",37135,35.9806822580001,-86.654083755,362,"174 FANN ROAD, NOLENSVILLE, TN, 37135","Match","Exact","174 FANN RD, NOLENSVILLE, TN, 37135",97222194,"R"
86863,"174 FOREST AVENUE","WEST CALDWELL","NJ",7006,40.8450383050001,-74.263578208,363,"174 FOREST AVENUE, WEST CALDWELL, NJ, 7006","Match","Exact","174 FOREST AVE, W CALDWELL, NJ, 07006",63495412,"R"
86864,"174 FRANKLYN RD","EWING","NJ",8628,40.2558468400001,-74.805606099,364,"174 FRANKLYN RD, EWING, NJ, 8628","Match","Exact","174 FRANKLYN RD, EWING, NJ, 08628",60175895,"R"
86865,"174 GEHRIG AVE","GLOUCESTER CITY","NJ",8030,39.885214537,-75.1029008309999,365,"174 GEHRIG AVE, GLOUCESTER CITY, NJ, 8030","Match","Exact","174 GEHRIG AVE, GLOUCESTER CITY, NJ, 08030",134348833,"L"
86866,"174 GRANTHAM SCHOOL ROAD","GOLDSBORO","NC",27530,35.2949677460001,-78.165442544,366,"174 GRANTHAM SCHOOL ROAD, GOLDSBORO, NC, 27530","Match","Exact","174 GRANTHAM SCHOOL RD, GOLDSBORO, NC, 27530",14421121,"L"
86867,"174 HAVERHILL STREET UNIT 313","ANDOVER","MA",1810,42.6742993120001,-71.13253558,367,"174 HAVERHILL STREET UNIT 313, ANDOVER, MA, 1810","Match","Exact","174 HAVERHILL ST, ANDOVER, MA, 01810",86703498,"L"
86868,"174 HAWK AVE","AKRON","OH",44312,41.058980773,-81.440914074,368,"174 HAWK AVE, AKRON, OH, 44312","Match","Exact","174 HAWK AVE, AKRON, OH, 44312",61354997,"R"
86869,"174 HEMINGWAY COURT","TULARE","CA",93274,36.2360803820001,-119.350039946,369,"174 HEMINGWAY COURT, TULARE, CA, 93274","Match","Exact","174 HEMINGWAY CT, TULARE, CA, 93274",607542940,"R"
86870,"174 HENDRICKSON AV","ELMONT","NY",11003,40.7117472320001,-73.707845366,370,"174 HENDRICKSON AV, ELMONT, NY, 11003","Match","Exact","174 HENDRICKSON AVE, ELMONT, NY, 11003",147665348,"L"
86871,"174 HIGH STREET","SAN LUIS OBISPO","CA",93401,35.272186334,-120.668210441,371,"174 HIGH STREET, SAN LUIS OBISPO, CA, 93401","Match","Exact","174 HIGH ST, SAN LUIS OBISPO, CA, 93401",109732413,"R"
86872,"174 HIGH STREET","WEBSTER","MA",1570,42.046987087,-71.884983101,372,"174 HIGH STREET, WEBSTER, MA, 1570","Match","Exact","174 HIGH ST, WEBSTER, MA, 01570",40090802,"R"
86873,"174 HILLTOP DR","WEST BRANCH","IA",52358,41.6739675220001,-91.357915474,373,"174 HILLTOP DR, WEST BRANCH, IA, 52358","Match","Exact","174 HILLTOP DR, WEST BRANCH, IA, 52358",651204735,"R"
86874,"174 HOLLY HILL ST","BROADWAY","VA",22815,38.614708303,-78.801348494,374,"174 HOLLY HILL ST, BROADWAY, VA, 22815","Match","Exact","174 HOLLY HILL ST, BROADWAY, VA, 22815",55742308,"L"
86875,"174 HUMPHRIES COVE ROAD","WEST POINT","MS",39773,33.578488271,-88.497320437,375,"174 HUMPHRIES COVE ROAD, WEST POINT, MS, 39773","Match","Exact","174 HUMPHRIES COVE RD, WEST POINT, MS, 39773",164183140,"R"
86876,"174 IMPERIAL BLVD","HENDERSONVILLE","TN",37075,36.299390508,-86.630397062,376,"174 IMPERIAL BLVD, HENDERSONVILLE, TN, 37075","Match","Exact","174 IMPERIAL BLVD, HENDERSONVILLE, TN, 37075",29775479,"R"
86877,"174 IVES STREET 401","PROVIDENCE","RI",2906,41.8230507380001,-71.392213264,377,"174 IVES STREET 401, PROVIDENCE, RI, 2906","Match","Exact","174 IVES ST, PROVIDENCE, RI, 02906",47467753,"L"
86878,"174 JACKSON AVENUE","EDISON","NJ",8837,40.5337800720001,-74.3399640769999,378,"174 JACKSON AVENUE, EDISON, NJ, 8837","Match","Exact","174 JACKSON AVE, EDISON, NJ, 08837",60278435,"R"
86879,"174 KELLER DRIVE","GREENFIELD","IN",46140,39.767341259,-85.7636496279999,379,"174 KELLER DRIVE, GREENFIELD, IN, 46140","Match","Exact","174 KELLER DR, GREENFIELD, IN, 46140",31080238,"L"
86880,"174 KELVINGTON DR","MONROEVILLE","PA",15146,40.3965266270001,-79.7550671,380,"174 KELVINGTON DR, MONROEVILLE, PA, 15146","Match","Exact","174 KELVINGTON DR, MONROEVILLE, PA, 15146",51677137,"R"
86881,"174 KOSCIUSZKO ST APT-1R","BROOKLYN","NY",11216,40.6910970530001,-73.947230463,381,"174 KOSCIUSZKO ST APT-1R, BROOKLYN, NY, 11216","Match","Exact","174 KOSCIUSZKO ST, BROOKLYN, NY, 11216",59078768,"R"
86882,"174 LAKE ARBOR DRIVE","PALM SPRINGS","FL",33461,NA,NA,382,"174 LAKE ARBOR DRIVE, PALM SPRINGS, FL, 33461","No_Match",NA,NA,NA,NA
86883,"174 LAKEVIEW AVENUE","CAMBRIDGE","MA",2138,42.381308651,-71.14013655,383,"174 LAKEVIEW AVENUE, CAMBRIDGE, MA, 2138","Match","Non_Exact","174 LAKE VIEW AVE, CAMBRIDGE, MA, 02138",86892127,"L"
86884,"174 LAMINGTON RD","LEBANON","NJ",8858,40.6647016320001,-74.74372675,384,"174 LAMINGTON RD, LEBANON, NJ, 8858","Match","Non_Exact","174 LAMINGTON RD, OLDWICK, NJ, 08858",60011670,"R"
86885,"174 LARRICK ROAD","SABINA","OH",45169,39.4184985430001,-83.6474335089999,385,"174 LARRICK ROAD, SABINA, OH, 45169","Match","Exact","174 LARRICK RD, SABINA, OH, 45169",146864680,"L"
86886,"174 LINK AVE","PITTSBURGH","PA",15237,40.534245823,-80.0418571659999,386,"174 LINK AVE, PITTSBURGH, PA, 15237","Match","Exact","174 LINK AVE, PITTSBURGH, PA, 15237",51619795,"L"
86887,"174 LONG BEACH BLVD","COMPTON","CA",90221,NA,NA,387,"174 LONG BEACH BLVD, COMPTON, CA, 90221","Tie",NA,NA,NA,NA
86888,"174 MAIN AVENUE NORTH","BRITT","IA",50423,43.098452815,-93.801891719,388,"174 MAIN AVENUE NORTH, BRITT, IA, 50423","Match","Exact","174 MAIN AVE N, BRITT, IA, 50423",7404013,"L"
86889,"174 MAIN STREET PO BOX 531","BRADFORD","VT",5033,43.995094479,-72.128016122,389,"174 MAIN STREET PO BOX 531, BRADFORD, VT, 5033","Match","Exact","174 MAIN ST, BRADFORD, VT, 05033",181129517,"R"
86890,"174 MAIN STREET","VAN BUREN","ME",4785,NA,NA,390,"174 MAIN STREET, VAN BUREN, ME, 4785","No_Match",NA,NA,NA,NA
86891,"174 MAPLE PARKWAY","STATEN ISLAND","NY",10303,40.6291319950001,-74.156583296,391,"174 MAPLE PARKWAY, STATEN ISLAND, NY, 10303","Match","Exact","174 MAPLE PKWY, STATEN ISLAND, NY, 10303",59877387,"R"
86892,"174 MELANIE BLVD","IMLAY CITY","MI",48444,43.018734313,-83.0787043239999,392,"174 MELANIE BLVD, IMLAY CITY, MI, 48444","Match","Exact","174 MELANIE BLVD, IMLAY CITY, MI, 48444",110460092,"L"
86893,"174 METACOMET DRIVE","MERIDEN","CT",6450,41.5402827450001,-72.761489189,393,"174 METACOMET DRIVE, MERIDEN, CT, 6450","Match","Exact","174 METACOMET DR, MERIDEN, CT, 06450",3724739,"R"
86894,"174 MIDLAND PLACE","NEWARK","NJ",7106,40.735769148,-74.243843108,394,"174 MIDLAND PLACE, NEWARK, NJ, 7106","Match","Exact","174 MIDLAND PL, NEWARK, NJ, 07106",63484876,"L"
86895,"174 MURRAY ROAD","MIDDLETOWN","NY",10940,41.4298189560001,-74.511496134,395,"174 MURRAY ROAD, MIDDLETOWN, NY, 10940","Match","Exact","174 MURRAY RD, MIDDLETOWN, NY, 10940",124491576,"R"
86896,"174 N BELLE TERRE ST","WICHITA","KS",67230,37.68946779,-97.161330596,396,"174 N BELLE TERRE ST, WICHITA, KS, 67230","Match","Exact","174 N BELLE TERRE ST, WICHITA, KS, 67230",115682904,"L"
86897,"174 NASSAU ST PO BOX 3800","PRINCETON","NJ",8542,40.3506915080001,-74.656228332,397,"174 NASSAU ST PO BOX 3800, PRINCETON, NJ, 8542","Match","Exact","174 NASSAU ST, PRINCETON, NJ, 08542",638117061,"L"
86898,"174 NASSAU STREET SUITE BOX 196","PRINCETON","NJ",8542,40.3506915080001,-74.656228332,398,"174 NASSAU STREET SUITE BOX 196, PRINCETON, NJ, 8542","Match","Exact","174 NASSAU ST, PRINCETON, NJ, 08542",638117061,"L"
86899,"174 NEWBURYPORT TURNPIKE SUITE 5","ROWLEY","MA",1969,42.696413541,-70.912902967,399,"174 NEWBURYPORT TURNPIKE SUITE 5, ROWLEY, MA, 1969","Match","Exact","174 NEWBURYPORT TPKE, ROWLEY, MA, 01969",86697702,"R"
86900,"174 NEWINGTON CIR","ANDERSON","SC",29625,34.5755021430001,-82.641648893,400,"174 NEWINGTON CIR, ANDERSON, SC, 29625","Match","Non_Exact","174 NEWINGTON CIR, ANDERSON, SC, 29621",25469186,"L"
86901,"174 NOTTINGHAM LANE","BERLIN","MD",21811,38.366871572,-75.160026655,401,"174 NOTTINGHAM LANE, BERLIN, MD, 21811","Match","Exact","174 NOTTINGHAM LN, BERLIN, MD, 21811",114514582,"R"
86902,"174 OAK STREET","SENECA","IL",61360,41.3094891000001,-88.607963097,402,"174 OAK STREET, SENECA, IL, 61360","Match","Exact","174 OAK ST, SENECA, IL, 61360",8589860,"R"
86903,"174 OBERG COURT","MOUNTAIN VIEW","CA",94043,37.391016773,-122.057397525,403,"174 OBERG COURT, MOUNTAIN VIEW, CA, 94043","Match","Exact","174 OBERG CT, MOUNTAIN VIEW, CA, 94043",627318281,"R"
86904,"174 PACIFIC AVENUE","STATEN ISLAND","NY",10312,40.5397983410001,-74.156105738,404,"174 PACIFIC AVENUE, STATEN ISLAND, NY, 10312","Match","Exact","174 PACIFIC AVE, STATEN ISLAND, NY, 10312",59875518,"L"
86905,"174 PALMER DRIVE","KALISPELL","MT",59901,48.226361436,-114.298766269,405,"174 PALMER DRIVE, KALISPELL, MT, 59901","Match","Exact","174 PALMER DR, KALISPELL, MT, 59901",204126666,"L"
86906,"174 PINE STREET","THROOP","PA",18512,41.4490408770001,-75.630144344,406,"174 PINE STREET, THROOP, PA, 18512","Match","Exact","174 PINE ST, THROOP, PA, 18512",139326175,"R"
86907,"174 PINEHURST AVENUE APT J35","NEW YORK","NY",10033,40.8539477420001,-73.9382522349999,407,"174 PINEHURST AVENUE APT J35, NEW YORK, NY, 10033","Match","Exact","174 PINEHURST AVE, NEW YORK, NY, 10033",611227030,"L"
86908,"174 POSTLE BLVD","COLUMBUS","OH",43228,39.9483037160001,-83.1350926699999,408,"174 POSTLE BLVD, COLUMBUS, OH, 43228","Match","Exact","174 POSTLE BLVD, COLUMBUS, OH, 43228",218677374,"L"
86909,"174 POWDER CREEK WAY","DALLAS","GA",30157,33.9132554600001,-84.7485090919999,409,"174 POWDER CREEK WAY, DALLAS, GA, 30157","Match","Exact","174 POWDER CREEK WAY, DALLAS, GA, 30157",17736249,"R"
86910,"174 RANGEWOOD DR","PITTSBURG","CA",94565,37.9963129450001,-121.866811706,410,"174 RANGEWOOD DR, PITTSBURG, CA, 94565","Match","Exact","174 RANGEWOOD DR, PITTSBURG, CA, 94565",645681701,"R"
86911,"174 RENSHAW AVE","EAST ORANGE","NJ",7017,40.7775360030001,-74.2037107369999,411,"174 RENSHAW AVE, EAST ORANGE, NJ, 7017","Match","Exact","174 RENSHAW AVE, EAST ORANGE, NJ, 07017",63451461,"R"
86912,"174 RIDGE RD","GROSSE POINTE FARMS","MI",48236,42.3990061600001,-82.903018894,412,"174 RIDGE RD, GROSSE POINTE FARMS, MI, 48236","Match","Exact","174 RIDGE RD, GROSSE POINTE FARMS, MI, 48236",95488333,"R"
86913,"174 ROBERT STREET","CLINTONVILLE","WI",54929,44.627226803,-88.749590207,413,"174 ROBERT STREET, CLINTONVILLE, WI, 54929","Match","Exact","174 ROBERT ST, CLINTONVILLE, WI, 54929",74963444,"R"
86914,"174 ROOSEVELT","IRVINE","CA",92620,33.7027496330001,-117.774570825,414,"174 ROOSEVELT, IRVINE, CA, 92620","Match","Exact","174 ROOSEVELT, IRVINE, CA, 92620",144135120,"L"
86915,"174 ROPER DRIVE","WINTER GARDEN","FL",34787,28.571310913,-81.589704623,415,"174 ROPER DRIVE, WINTER GARDEN, FL, 34787","Match","Exact","174 ROPER DR, WINTER GARDEN, FL, 34787",94262986,"R"
86916,"174 S 9TH STREET","WOOD RIVER","IL",62095,38.8587989710001,-90.081673232,416,"174 S 9TH STREET, WOOD RIVER, IL, 62095","Match","Exact","174 S 9TH ST, WOOD RIVER, IL, 62095",107686151,"R"
86917,"174 S GUADALUPE SUITE 207-17","SAN MARCOS","TX",78666,NA,NA,417,"174 S GUADALUPE SUITE 207-17, SAN MARCOS, TX, 78666","No_Match",NA,NA,NA,NA
86918,"174 S TWIN CIRCLE WAY","HALETHORPE","TX",21227,NA,NA,418,"174 S TWIN CIRCLE WAY, HALETHORPE, TX, 21227","No_Match",NA,NA,NA,NA
86919,"174 SANDSTONE RIDGE WAY","BEREA","OH",44017,41.3825748450001,-81.883433882,419,"174 SANDSTONE RIDGE WAY, BEREA, OH, 44017","Match","Exact","174 SANDSTONE RIDGE WAY, BEREA, OH, 44017",616914448,"L"
86920,"174 SANFORD LANE","ABILENE","TX",79602,32.3623902940001,-99.654050699,420,"174 SANFORD LANE, ABILENE, TX, 79602","Match","Exact","174 SANFORD LN, ABILENE, TX, 79602",636753389,"L"
86921,"174 SARATOGA STREET","HOT SPRINGS","AR",71901,34.4776814100001,-93.0079449679999,421,"174 SARATOGA STREET, HOT SPRINGS, AR, 71901","Match","Exact","174 SARATOGA ST, HOT SPRINGS, AR, 71901",22776403,"R"
86922,"174 SEAVEY ROAD","PITTSBURGH","PA",15223,40.499145406,-79.953594054,422,"174 SEAVEY ROAD, PITTSBURGH, PA, 15223","Match","Exact","174 SEAVEY RD, PITTSBURGH, PA, 15223",617246675,"R"
86923,"174 SHENANDOAH COURT","KOUTS","IN",46347,41.3058089530001,-87.031401321,423,"174 SHENANDOAH COURT, KOUTS, IN, 46347","Match","Exact","174 SHENANDOAH CT, KOUTS, IN, 46347",119932143,"L"
86924,"174 SHERIDAN AVE","LONGWOOD","FL",32750,28.704426832,-81.3736569549999,424,"174 SHERIDAN AVE, LONGWOOD, FL, 32750","Match","Exact","174 SHERIDAN AVE, LONGWOOD, FL, 32750",93762818,"R"
86925,"174 SOUTH COUNTRY ROAD","BELLPORT","NY",11713,40.7592383320001,-72.936949973,425,"174 SOUTH COUNTRY ROAD, BELLPORT, NY, 11713","Match","Exact","174 S COUNTRY RD, BELLPORT, NY, 11713",114014711,"L"
86926,"174 SPEIR LANE UNIT A","ELGIN","TX",78621,30.271204847,-97.412791565,426,"174 SPEIR LANE UNIT A, ELGIN, TX, 78621","Match","Exact","174 SPEIR LN, ELGIN, TX, 78621",635393099,"R"
86927,"174 SPOONER DR","BYRON","GA",31008,32.6717892730001,-83.7116229969999,427,"174 SPOONER DR, BYRON, GA, 31008","Match","Exact","174 SPOONER DR, BYRON, GA, 31008",93723690,"R"
86928,"174 SPURWINK ROAD 1","SCARBOROUGH","ME",4074,43.579251459,-70.268747699,428,"174 SPURWINK ROAD 1, SCARBOROUGH, ME, 4074","Match","Exact","174 SPURWINK RD, SCARBOROUGH, ME, 04074",78030712,"L"
86929,"174 STOUT ST","GARYVILLE","LA",70051,30.0461853910001,-90.6122888639999,429,"174 STOUT ST, GARYVILLE, LA, 70051","Match","Exact","174 STOUT ST, GARYVILLE, LA, 70051",93688165,"L"
86930,"174 SUGAR MAGNOLIA WAY","CHARLESTON","SC",29414,32.8306651350001,-80.089267014,430,"174 SUGAR MAGNOLIA WAY, CHARLESTON, SC, 29414","Match","Exact","174 SUGAR MAGNOLIA WAY, CHARLESTON, SC, 29414",618975537,"L"
86931,"174 SUGARTREE CIRCLE","LIPAN","TX",76462,32.609023898,-97.9350216299999,431,"174 SUGARTREE CIRCLE, LIPAN, TX, 76462","Match","Exact","174 SUGARTREE CIR, LIPAN, TX, 76462",651914438,"L"
86932,"174 SW FRITZ GLEN","LAKE CITY","FL",32024,30.163677824,-82.6877101119999,432,"174 SW FRITZ GLEN, LAKE CITY, FL, 32024","Match","Exact","174 SW FRITZ GLEN, LAKE CITY, FL, 32024",5155009,"R"
86933,"174 US ROUTE 1","FALMOUTH","ME",4105,43.7150664660001,-70.233559208,433,"174 US ROUTE 1, FALMOUTH, ME, 4105","Match","Non_Exact","174 US HWY 1, FALMOUTH, ME, 04105",78074992,"R"
86934,"174 W 137TH ST APT 5","NEW YORK","NY",10030,40.81627465,-73.941982047,434,"174 W 137TH ST APT 5, NEW YORK, NY, 10030","Match","Non_Exact","174 W 137TH ST, NEW YORK, NY, 10030",59656397,"L"
86935,"174 W 4TH STREET 283","NEW YORK","NY",10014,40.732223022,-74.001582163,435,"174 W 4TH STREET 283, NEW YORK, NY, 10014","Match","Non_Exact","174 W 4TH ST, NEW YORK, NY, 10014",59660020,"L"
86936,"174 W 76TH ST 1G","NEW YORK","NY",10023,40.7808674840001,-73.978974147,436,"174 W 76TH ST 1G, NEW YORK, NY, 10023","Match","Non_Exact","174 W 76TH ST, NEW YORK, NY, 10023",59656674,"L"
86937,"174 W CELESTE AVE","FRESNO","CA",93704,36.8210805080001,-119.794256271,437,"174 W CELESTE AVE, FRESNO, CA, 93704","Match","Exact","174 W CELESTE AVE, FRESNO, CA, 93704",197572705,"R"
86938,"174 WALLACE PATE DRIVE S","GEORGETOWN","SC",29440,33.3729446180001,-79.182584887,438,"174 WALLACE PATE DRIVE S, GEORGETOWN, SC, 29440","Match","Non_Exact","174 WALLACE PATE DR, GEORGETOWN, SC, 29440",29004998,"R"
86939,"174 WALNUT ST","PATERSON","NJ",7522,40.9161391010001,-74.185040497,439,"174 WALNUT ST, PATERSON, NJ, 7522","Match","Exact","174 WALNUT ST, PATERSON, NJ, 07522",65262814,"R"
86940,"174 WATERCOLOR WAY STE 103  NO 244","SANTA ROSA BEACH","FL",32459,30.32884668,-86.126197835,440,"174 WATERCOLOR WAY STE 103  NO 244, SANTA ROSA BEACH, FL, 32459","Match","Exact","174 WATERCOLOR WAY, SANTA ROSA BEACH, FL, 32459",640840198,"R"
86941,"174 WATERCOLOR WAY STE 336","SANTA ROSA BEACH","FL",32459,30.32884668,-86.126197835,441,"174 WATERCOLOR WAY STE 336, SANTA ROSA BEACH, FL, 32459","Match","Exact","174 WATERCOLOR WAY, SANTA ROSA BEACH, FL, 32459",640840198,"R"
86942,"174 WATERCOLOR WAY SUITE 103/271","SANTA ROSA BEACH","FL",32459,30.32884668,-86.126197835,442,"174 WATERCOLOR WAY SUITE 103/271, SANTA ROSA BEACH, FL, 32459","Match","Exact","174 WATERCOLOR WAY, SANTA ROSA BEACH, FL, 32459",640840198,"R"
86943,"174 WELLS FARGO CIRCLE","JEFFERSON","CO",80456,39.2928170060001,-105.720377984,443,"174 WELLS FARGO CIRCLE, JEFFERSON, CO, 80456","Match","Exact","174 WELLS FARGO CIR, JEFFERSON, CO, 80456",635476593,"R"
86944,"174 WEST 4TH STREET     SUITE 374","NEW YORK","NY",10014,40.7321822010001,-74.001544944,444,"174 WEST 4TH STREET     SUITE 374, NEW YORK, NY, 10014","Match","Exact","174 W 4TH ST, NEW YORK, NY, 10014",59660020,"L"
86945,"174 WEST 4TH STREET SUITE 383","NEW YORK","NY",10014,40.7321822010001,-74.001544944,445,"174 WEST 4TH STREET SUITE 383, NEW YORK, NY, 10014","Match","Exact","174 W 4TH ST, NEW YORK, NY, 10014",59660020,"L"
86946,"174 WEST MCKINLEY AVENUE","POMONA","CA",91768,34.074570185,-117.752895075,446,"174 WEST MCKINLEY AVENUE, POMONA, CA, 91768","Match","Exact","174 W MCKINLEY AVE, POMONA, CA, 91768",142791236,"L"
86947,"174 WILCOX RD","MIDDLETOWN","CT",6457,41.5264887700001,-72.6269807629999,447,"174 WILCOX RD, MIDDLETOWN, CT, 6457","Match","Exact","174 WILCOX RD, MIDDLETOWN, CT, 06457",113890178,"L"
86948,"174 WISSINGER STREET","SALIX","PA",15952,40.2989577590001,-78.762984209,448,"174 WISSINGER STREET, SALIX, PA, 15952","Match","Exact","174 WISSINGER ST, SALIX, PA, 15952",50257150,"L"
86949,"1740 12TH PL SW","BIRMINGHAM","AL",35211,33.46980383,-86.844921847,449,"1740 12TH PL SW, BIRMINGHAM, AL, 35211","Match","Exact","1740 12TH PL SW, BIRMINGHAM, AL, 35211",81559608,"R"
86950,"1740 ALTA VISTA WAY","SAN DIEGO","CA",92109,32.8134817150001,-117.241529361,450,"1740 ALTA VISTA WAY, SAN DIEGO, CA, 92109","Match","Exact","1740 ALTA VISTA WAY, SAN DIEGO, CA, 92109",195302833,"L"
86951,"1740 BEAR CANYON ROAD","BOZEMAN","MT",59715,45.631596212,-110.94104418,451,"1740 BEAR CANYON ROAD, BOZEMAN, MT, 59715","Match","Exact","1740 BEAR CANYON RD, BOZEMAN, MT, 59715",163526283,"R"
86952,"1740 BETENBOUGH WAY","WEBB CITY","MO",64870,37.13166907,-94.489872894,452,"1740 BETENBOUGH WAY, WEBB CITY, MO, 64870","Match","Exact","1740 BETENBOUGH WAY, WEBB CITY, MO, 64870",651292245,"R"
86953,"1740 BIRKSHIRE RIDGE","MCDONOUGH","GA",30252,NA,NA,453,"1740 BIRKSHIRE RIDGE, MCDONOUGH, GA, 30252","No_Match",NA,NA,NA,NA
86954,"1740 BOBBY K MARKS BLVD PO BOX 2297","HUNTSVILLE","TX",77341,NA,NA,454,"1740 BOBBY K MARKS BLVD PO BOX 2297, HUNTSVILLE, TX, 77341","No_Match",NA,NA,NA,NA
86955,"1740 CENTURY CIRCLE   UNIT 1314","ATLANTA","GA",30345,NA,NA,455,"1740 CENTURY CIRCLE   UNIT 1314, ATLANTA, GA, 30345","Tie",NA,NA,NA,NA
86956,"1740 CONEJO AVE","SAN LUIS OBISPO","CA",93401,35.2858904490001,-120.648641446,456,"1740 CONEJO AVE, SAN LUIS OBISPO, CA, 93401","Match","Exact","1740 CONEJO AVE, SAN LUIS OBISPO, CA, 93401",109732031,"L"
86957,"1740 DEKALB AVENUE 2F","RIDGEWOOD","NY",11385,40.7069794820001,-73.916498153,457,"1740 DEKALB AVENUE 2F, RIDGEWOOD, NY, 11385","Match","Exact","1740 DEKALB AVE, RIDGEWOOD, NY, 11385",59693167,"R"
86958,"1740 DELL RANGE BLVD STE H","CHEYENNE","WY",82009,41.1602895130001,-104.799296795,458,"1740 DELL RANGE BLVD STE H, CHEYENNE, WY, 82009","Match","Exact","1740 DELL RANGE BLVD, CHEYENNE, WY, 82009",160150562,"L"
86959,"1740 DRURY LANE","CONWAY","AR",72034,35.103323769,-92.470307296,459,"1740 DRURY LANE, CONWAY, AR, 72034","Match","Exact","1740 DRURY LN, CONWAY, AR, 72034",141057537,"R"
86960,"1740 DUTTON RD","ROCHESTER HILLS","MI",48306,42.7106258210001,-83.172887976,460,"1740 DUTTON RD, ROCHESTER HILLS, MI, 48306","Match","Exact","1740 DUTTON RD, ROCHESTER HILLS, MI, 48306",69760953,"R"
86961,"1740 E BELMONT AVE","ANAHEIM","CA",92805,33.8478158250001,-117.892347336,461,"1740 E BELMONT AVE, ANAHEIM, CA, 92805","Match","Exact","1740 E BELMONT AVE, ANAHEIM, CA, 92805",144026209,"R"
86962,"1740 E FLORENCE AVE","LOS ANGELES","CA",90001,33.974740066,-118.241643563,462,"1740 E FLORENCE AVE, LOS ANGELES, CA, 90001","Match","Exact","1740 E FLORENCE AVE, LOS ANGELES, CA, 90001",141671872,"R"
86963,"1740 E JOPPA ROAD  SUITE 200","BALTIMORE","MD",21234,NA,NA,463,"1740 E JOPPA ROAD  SUITE 200, BALTIMORE, MD, 21234","No_Match",NA,NA,NA,NA
86964,"1740 EAST 19TH STREET","OAKLAND","CA",94606,37.7907803590001,-122.239545382,464,"1740 EAST 19TH STREET, OAKLAND, CA, 94606","Match","Exact","1740 E 19TH ST, OAKLAND, CA, 94606",125002541,"L"
86965,"1740 EAST GREENBRIAR DR","FUQUAY-VARINA","NC",27526,35.5842676410001,-78.762766099,465,"1740 EAST GREENBRIAR DR, FUQUAY-VARINA, NC, 27526","Match","Non_Exact","1740 GREENBRIAR DR, FUQUAY VARINA, NC, 27526",634732448,"L"
86966,"1740 EAST M36","PINCKNEY","MI",48169,NA,NA,466,"1740 EAST M36, PINCKNEY, MI, 48169","No_Match",NA,NA,NA,NA
86967,"1740 EAST STREET","RIO HONDO","CA",95673,38.676316028,-121.425428386,467,"1740 EAST STREET, RIO HONDO, CA, 95673","Match","Non_Exact","1740 E ST, RIO LINDA, CA, 95673",133426870,"R"
86968,"1740 ED TEMPLE BLVD","NASHVILLE","TN",37208,36.1746926800001,-86.8234236069999,468,"1740 ED TEMPLE BLVD, NASHVILLE, TN, 37208","Match","Exact","1740 ED TEMPLE BLVD, NASHVILLE, TN, 37208",97230032,"R"
86969,"1740 EISENHOWER STREET","SAN MATEO","CA",94403,37.5584716610001,-122.295247119,469,"1740 EISENHOWER STREET, SAN MATEO, CA, 94403","Match","Exact","1740 EISENHOWER ST, SAN MATEO, CA, 94403",192379519,"R"
86970,"1740 FOURMILE CANYON DRIVE","BOULDER","CO",80302,40.0312515540001,-105.34132261,470,"1740 FOURMILE CANYON DRIVE, BOULDER, CO, 80302","Match","Exact","1740 FOURMILE CANYON DR, BOULDER, CO, 80302",188215120,"R"
86971,"1740 FRANKFORT AVENUE","LOUISVILLE","KY",40206,38.2571296850001,-85.717693668,471,"1740 FRANKFORT AVENUE, LOUISVILLE, KY, 40206","Match","Exact","1740 FRANKFORT AVE, LOUISVILLE, KY, 40206",96845607,"R"
86972,"1740 HUDSON BRIDGE ROAD STE 1053","STOCKBRIDGE","GA",30281,33.501499311,-84.243710931,472,"1740 HUDSON BRIDGE ROAD STE 1053, STOCKBRIDGE, GA, 30281","Match","Exact","1740 HUDSON BRIDGE RD, STOCKBRIDGE, GA, 30281",210421094,"L"
86973,"1740 HUDSON BRIDGE ROAD STE1074","STOCKBRIDGE","GA",30281,33.501499311,-84.243710931,473,"1740 HUDSON BRIDGE ROAD STE1074, STOCKBRIDGE, GA, 30281","Match","Exact","1740 HUDSON BRIDGE RD, STOCKBRIDGE, GA, 30281",210421094,"L"
86974,"1740 HUDSON BRIDGE ROAD SUITE 1044","STOCKBRIDGE","GA",30281,33.501499311,-84.243710931,474,"1740 HUDSON BRIDGE ROAD SUITE 1044, STOCKBRIDGE, GA, 30281","Match","Exact","1740 HUDSON BRIDGE RD, STOCKBRIDGE, GA, 30281",210421094,"L"
86975,"1740 HUDSON BRIDGE ROAD SUITE 1166","STOCKBRIDGE","GA",30281,33.501499311,-84.243710931,475,"1740 HUDSON BRIDGE ROAD SUITE 1166, STOCKBRIDGE, GA, 30281","Match","Exact","1740 HUDSON BRIDGE RD, STOCKBRIDGE, GA, 30281",210421094,"L"
86976,"1740 HUNTER CREEK ROAD","RENO","NV",89519,39.49452604,-119.861609579,476,"1740 HUNTER CREEK ROAD, RENO, NV, 89519","Match","Exact","1740 HUNTER CREEK RD, RENO, NV, 89519",107103951,"L"
86977,"1740 HWY M","STOVER","MO",65078,38.513004102,-93.0370573929999,477,"1740 HWY M, STOVER, MO, 65078","Match","Exact","1740 HWY M, STOVER, MO, 65078",648863718,"L"
86978,"1740 INNOVATION DRIVE SUITE 103","CARBONDALE","IL",62901,NA,NA,478,"1740 INNOVATION DRIVE SUITE 103, CARBONDALE, IL, 62901","No_Match",NA,NA,NA,NA
86979,"1740 JAVELINA","CHAPARRAL","NM",88081,32.063616187,-106.457816073,479,"1740 JAVELINA, CHAPARRAL, NM, 88081","Match","Non_Exact","1740 JAVELINA ST, CHAPARRAL, NM, 88081",648903514,"L"
86980,"1740 LANGDON FARM ROAD","CINCINNATI","OH",45237,39.1840381640001,-84.463701132,480,"1740 LANGDON FARM ROAD, CINCINNATI, OH, 45237","Match","Exact","1740 LANGDON FARM RD, CINCINNATI, OH, 45237",640628043,"L"
86981,"1740 LISTER DR","PELL CITY","AL",35125,33.6424124480001,-86.2953083309999,481,"1740 LISTER DR, PELL CITY, AL, 35125","Match","Exact","1740 LISTER DR, PELL CITY, AL, 35125",66879601,"R"
86982,"1740 MATEO AVE","LA HABRA","CA",90631,33.934448736,-117.927706974,482,"1740 MATEO AVE, LA HABRA, CA, 90631","Match","Exact","1740 MATEO AVE, LA HABRA, CA, 90631",144006180,"R"
86983,"1740 MILLHOUSE RUN","MARIETTA","GA",30066,34.0550714560001,-84.489699867,483,"1740 MILLHOUSE RUN, MARIETTA, GA, 30066","Match","Exact","1740 MILLHOUSE RUN, MARIETTA, GA, 30066",17228095,"L"
86984,"1740 N BAMBREY STREET","PHILADELPHIA","PA",19121,39.9817800220001,-75.17656568,484,"1740 N BAMBREY STREET, PHILADELPHIA, PA, 19121","Match","Exact","1740 N BAMBREY ST, PHILADELPHIA, PA, 19121",131405064,"L"
86985,"1740 N WILLAMETTE RD","LIBERTY LAKE","WA",99016,47.6728987550001,-117.135828794,485,"1740 N WILLAMETTE RD, LIBERTY LAKE, WA, 99016","Match","Exact","1740 N WILLAMETTE RD, LIBERTY LAKE, WA, 99016",626987264,"R"
86986,"1740 NE 35TH AVE","HOMESTEAD","FL",33033,25.4859513750001,-80.423557299,486,"1740 NE 35TH AVE, HOMESTEAD, FL, 33033","Match","Exact","1740 NE 35TH AVE, HOMESTEAD, FL, 33033",632045502,"R"
86987,"1740 NORTH PASCAL STREET","FALCON HEIGHTS","MN",55113,44.99373072,-93.161688155,487,"1740 NORTH PASCAL STREET, FALCON HEIGHTS, MN, 55113","Match","Exact","1740 N PASCAL ST, FALCON HEIGHTS, MN, 55113",97640964,"R"
86988,"1740 NW 52ND STREET","MIAMI","FL",33142,25.822929274,-80.2253620389999,488,"1740 NW 52ND STREET, MIAMI, FL, 33142","Match","Exact","1740 NW 52ND ST, MIAMI, FL, 33142",116004936,"L"
86989,"1740 PINE COVE COURT","WINSTON SALEM","NC",27127,36.024917772,-80.277313243,489,"1740 PINE COVE COURT, WINSTON SALEM, NC, 27127","Match","Exact","1740 PINE COVE CT, WINSTON SALEM, NC, 27127",627505198,"L"
86990,"1740 PORTAGE AVE","SOUTH BEND","IN",46616,41.698923403,-86.271920865,490,"1740 PORTAGE AVE, SOUTH BEND, IN, 46616","Match","Exact","1740 PORTAGE AVE, SOUTH BEND, IN, 46616",8052542,"R"
86991,"1740 ROCKY CREEK ROAD 20094","MACON","GA",31205,32.786088701,-83.675548992,491,"1740 ROCKY CREEK ROAD 20094, MACON, GA, 31205","Match","Non_Exact","1740 ROCKY CREEK RD, MACON, GA, 31206",81092535,"L"
86992,"1740 S 18TH ST","PHILADELPHIA","PA",19145,39.929228354,-75.1752149499999,492,"1740 S 18TH ST, PHILADELPHIA, PA, 19145","Match","Exact","1740 S 18TH ST, PHILADELPHIA, PA, 19145",131411223,"R"
86993,"1740 SHAFF RD STE 117","STAYTON","OR",97383,44.8097635350001,-122.813317896,493,"1740 SHAFF RD STE 117, STAYTON, OR, 97383","Match","Exact","1740 SHAFF RD, STAYTON, OR, 97383",156267493,"R"
86994,"1740 SW  BUCKLEY LANE","LAKE CITY","FL",32024,30.0320414190001,-82.6355383869999,494,"1740 SW  BUCKLEY LANE, LAKE CITY, FL, 32024","Match","Exact","1740 SW BUCKLEY LN, LAKE CITY, FL, 32024",5150682,"R"
86995,"1740 TAHOE CIRCLE","TRACY","CA",95376,37.7211753330001,-121.43808153,495,"1740 TAHOE CIRCLE, TRACY, CA, 95376","Match","Exact","1740 TAHOE CIR, TRACY, CA, 95376",133908004,"L"
86996,"1740 TRISTEN DRIVE","NEWTOWN","PA",18940,40.2605810630001,-74.9078326059999,496,"1740 TRISTEN DRIVE, NEWTOWN, PA, 18940","Match","Exact","1740 TRISTEN DR, NEWTOWN, PA, 18940",646907007,"R"
86997,"1740 VICTOR BLVD","ARCATA","CA",95521,40.8489096110001,-124.162943994,497,"1740 VICTOR BLVD, ARCATA, CA, 95521","Match","Exact","1740 VICTOR BLVD, ARCATA, CA, 95521",113044096,"R"
86998,"1740 WALDORN AVE NE","GRAND RAPIDS","MI",49505,42.994069858,-85.633246782,498,"1740 WALDORN AVE NE, GRAND RAPIDS, MI, 49505","Match","Exact","1740 WALDORN AVE NE, GRAND RAPIDS, MI, 49505",12488482,"L"
86999,"1740 WILLIS AVENUE","MERRICK","NY",11566,40.6708518620001,-73.565661032,499,"1740 WILLIS AVENUE, MERRICK, NY, 11566","Match","Exact","1740 WILLIS AVE, MERRICK, NY, 11566",147635174,"R"
87000,"1740 WINDING WOODS LANE","JONESBORO","GA",30236,33.5360133550001,-84.333348797,500,"1740 WINDING WOODS LANE, JONESBORO, GA, 30236","Match","Exact","1740 WINDING WOODS LN, JONESBORO, GA, 30236",23319525,"R"
