"ID","Address","City","State","Zip","lat","long","id","input_address","match_indicator","match_type","matched_address","tiger_line_id","tiger_side"
120001,"22 FINLEY RIDGE WAY","GREENSBORO","NC",27455,NA,NA,1,"22 FINLEY RIDGE WAY, GREENSBORO, NC, 27455","No_Match",NA,NA,NA,NA
120002,"22 FISHER RD","BREVARD","NC",28712,35.2425448830001,-82.727503089,2,"22 FISHER RD, BREVARD, NC, 28712","Match","Exact","22 FISHER RD, BREVARD, NC, 28712",133736526,"R"
120003,"22 FLEETWOOD AVENUE","CHESTNUT RIDGE","NY",10977,41.073106997,-74.0594598329999,3,"22 FLEETWOOD AVENUE, CHESTNUT RIDGE, NY, 10977","Match","Exact","22 FLEETWOOD AVE, CHESTNUT RIDGE, NY, 10977",124594524,"L"
120004,"22 FLORENCE TOLLGATE PLACE UNIT- 2","FLORENCE","NJ",8518,40.1138477470001,-74.802904997,4,"22 FLORENCE TOLLGATE PLACE UNIT- 2, FLORENCE, NJ, 8518","Match","Exact","22 FLORENCE TOLLGATE PL, FLORENCE, NJ, 08518",134033210,"L"
120005,"22 FOREST LN","NEWNAN","GA",30263,33.3843413820001,-84.810211711,5,"22 FOREST LN, NEWNAN, GA, 30263","Match","Non_Exact","22 FORREST LN, NEWNAN, GA, 30263",9344623,"L"
120006,"22 FORREST LANE","CONWAY","AR",72034,35.0982139820001,-92.46929263,6,"22 FORREST LANE, CONWAY, AR, 72034","Match","Exact","22 FORREST LN, CONWAY, AR, 72034",141045764,"R"
120007,"22 FOSTER STREET","PEABODY","MA",1960,42.52507841,-70.927834429,7,"22 FOSTER STREET, PEABODY, MA, 1960","Match","Exact","22 FOSTER ST, PEABODY, MA, 01960",86640691,"L"
120008,"22 FRANKLIN AVE","BEDFORD","OH",44146,41.390217256,-81.5332704739999,8,"22 FRANKLIN AVE, BEDFORD, OH, 44146","Match","Exact","22 FRANKLIN AVE, BEDFORD, OH, 44146",61130433,"R"
120009,"22 FURLONG DRIVE","ALBANY","NY",12205,42.7340275500001,-73.839652246,9,"22 FURLONG DRIVE, ALBANY, NY, 12205","Match","Exact","22 FURLONG DR, ALBANY, NY, 12205",18363422,"L"
120010,"22 GORHAM POND RD","GOFFSTOWN","NH",3045,43.0287310960001,-71.627431614,10,"22 GORHAM POND RD, GOFFSTOWN, NH, 3045","Match","Exact","22 GORHAM POND RD, GOFFSTOWN, NH, 03045",624915293,"R"
120011,"22 GORMAN LANE","SPRINGFIELD","MA",1118,42.100765908,-72.524266199,11,"22 GORMAN LANE, SPRINGFIELD, MA, 1118","Match","Exact","22 GORMAN LN, SPRINGFIELD, MA, 01118",4037395,"L"
120012,"22 GOSHEN ST","FRANKFORT","KY",40601,NA,NA,12,"22 GOSHEN ST, FRANKFORT, KY, 40601","Tie",NA,NA,NA,NA
120013,"22 GREEN ACRE WAY","GLASSBORO","NJ",8028,39.711241504,-75.08808127,13,"22 GREEN ACRE WAY, GLASSBORO, NJ, 8028","Match","Exact","22 GREEN ACRE WAY, GLASSBORO, NJ, 08028",134602496,"R"
120014,"22 GREEN STREET","WOODSTOWN","NJ",8098,39.6495118770001,-75.3280612579999,14,"22 GREEN STREET, WOODSTOWN, NJ, 8098","Match","Exact","22 GREEN ST, WOODSTOWN, NJ, 08098",174417593,"R"
120015,"22 GREYSTONE CIRCLE","WALDORF","MD",20602,38.591908909,-76.9188101829999,15,"22 GREYSTONE CIRCLE, WALDORF, MD, 20602","Match","Exact","22 GREYSTONE CIR, WALDORF, MD, 20602",25369634,"R"
120016,"22 HAIGH AVE","NIANTIC","CT",6357,41.3217763600001,-72.1992689849999,16,"22 HAIGH AVE, NIANTIC, CT, 6357","Match","Exact","22 HAIGH AVE, NIANTIC, CT, 06357",56843692,"R"
120017,"22 HAPPY VALLEY ROAD","GREENBRIER","AR",72058,35.2513028700001,-92.2510575049999,17,"22 HAPPY VALLEY ROAD, GREENBRIER, AR, 72058","Match","Exact","22 HAPPY VALLEY RD, GREENBRIER, AR, 72058",141039562,"R"
120018,"22 HARDING AVE","HATBORO","PA",19040,40.175718073,-75.108940574,18,"22 HARDING AVE, HATBORO, PA, 19040","Match","Exact","22 HARDING AVE, HATBORO, PA, 19040",135079773,"R"
120019,"22 HARDWICKE DRIVE","VOORHEES","NJ",8043,39.8548989220001,-74.9755803529999,19,"22 HARDWICKE DRIVE, VOORHEES, NJ, 8043","Match","Exact","22 HARDWICKE DR, VOORHEES, NJ, 08043",134369738,"R"
120020,"22 HARROW LANE","LEVITTOWN","NY",11756,40.7086578660001,-73.513313495,20,"22 HARROW LANE, LEVITTOWN, NY, 11756","Match","Exact","22 HARROW LN, LEVITTOWN, NY, 11756",147644903,"R"
120021,"22 HARTFORD ST","SOUTH DARTMOUTH","MA",2748,41.5965209390001,-70.9396114049999,21,"22 HARTFORD ST, SOUTH DARTMOUTH, MA, 2748","Match","Exact","22 HARTFORD ST, SOUTH DARTMOUTH, MA, 02748",46793723,"R"
120022,"22 HASKELL DRIVE","BRATENAHL","OH",44108,41.553917348,-81.6029368499999,22,"22 HASKELL DRIVE, BRATENAHL, OH, 44108","Match","Exact","22 HASKELL DR, BRATENAHL, OH, 44108",638271933,"R"
120023,"22 HATIKVA WAY","NORTH CHELMSFORD","MA",1863,42.6240405070001,-71.383344463,23,"22 HATIKVA WAY, NORTH CHELMSFORD, MA, 1863","Match","Exact","22 HATIKVA WAY, N CHELMSFORD, MA, 01863",86931787,"R"
120024,"22 HAYES AVE","BEVERLY","MA",1915,42.551418531,-70.906951857,24,"22 HAYES AVE, BEVERLY, MA, 1915","Match","Exact","22 HAYES AVE, BEVERLY, MA, 01915",86641744,"L"
120025,"22 HAYES DR","NORTH AUGUSTA","SC",29860,33.627265519,-81.917858409,25,"22 HAYES DR, NORTH AUGUSTA, SC, 29860","Match","Exact","22 HAYES DR, NORTH AUGUSTA, SC, 29860",55848532,"R"
120026,"22 HAYWARD ST","ATTLEBORO","MA",2703,41.9459342530001,-71.287301595,26,"22 HAYWARD ST, ATTLEBORO, MA, 2703","Match","Exact","22 HAYWARD ST, ATTLEBORO, MA, 02703",46747640,"L"
120027,"22 HEARST CASTLE AVE","ATWATER","CA",95301,37.356384017,-120.578164733,27,"22 HEARST CASTLE AVE, ATWATER, CA, 95301","Match","Exact","22 HEARST CASTLE AVE, ATWATER, CA, 95301",125278590,"L"
120028,"22 HEATHERFIELD DRIVE","SIMPSONVILLE","SC",29680,34.689888409,-82.249137537,28,"22 HEATHERFIELD DRIVE, SIMPSONVILLE, SC, 29680","Match","Exact","22 HEATHERFIELD DR, SIMPSONVILLE, SC, 29680",624281800,"R"
120029,"22 HEATHERWOOD DRIVE","SHELBY","OH",44875,40.878625641,-82.677390589,29,"22 HEATHERWOOD DRIVE, SHELBY, OH, 44875","Match","Exact","22 HEATHERWOOD DR, SHELBY, OH, 44875",12837745,"R"
120030,"22 HERRICK AVE UNIT 201","SPRING VALLEY","NY",10977,41.113147032,-74.055402955,30,"22 HERRICK AVE UNIT 201, SPRING VALLEY, NY, 10977","Match","Exact","22 HERRICK AVE, SPRING VALLEY, NY, 10977",124593358,"R"
120031,"22 HIGH POINT WOODS DRIVE APT 101","MADISON","WI",53719,43.0505241660001,-89.516719068,31,"22 HIGH POINT WOODS DRIVE APT 101, MADISON, WI, 53719","Match","Exact","22 HIGH POINT WOODS DR, MADISON, WI, 53719",49545140,"L"
120032,"22 HIGH STREET","LITTLE FALLS","NY",13365,43.0474477400001,-74.858856263,32,"22 HIGH STREET, LITTLE FALLS, NY, 13365","Match","Exact","22 HIGH ST, LITTLE FALLS, NY, 13365",153759391,"L"
120033,"22 HILL ST","GREENWICH","NY",12834,43.0895939850001,-73.50112511,33,"22 HILL ST, GREENWICH, NY, 12834","Match","Exact","22 HILL ST, GREENWICH, NY, 12834",139148836,"R"
120034,"22 HILL TOP DRIVE","LEOMINSTER","MA",1453,42.5306923850001,-71.7231098729999,34,"22 HILL TOP DRIVE, LEOMINSTER, MA, 1453","Match","Exact","22 HILL TOP DR, LEOMINSTER, MA, 01453",40031226,"L"
120035,"22 HILLDALE DRIVE","SANDY HOOK","CT",6482,41.429610369,-73.248254472,35,"22 HILLDALE DRIVE, SANDY HOOK, CT, 6482","Match","Exact","22 HILLDALE DR, SANDY HOOK, CT, 06482",3252598,"R"
120036,"22 HILLSIDE AVE","GLEN RIDGE","NJ",7028,40.7935120500001,-74.207931241,36,"22 HILLSIDE AVE, GLEN RIDGE, NJ, 7028","Match","Exact","22 HILLSIDE AVE, GLEN RIDGE, NJ, 07028",63494470,"L"
120037,"22 HILLSIDE DRIVE","MALVERN","PA",19355,40.0495955820001,-75.531424322,37,"22 HILLSIDE DRIVE, MALVERN, PA, 19355","Match","Exact","22 HILLSIDE DR, MALVERN, PA, 19355",179494587,"R"
120038,"22 HILLWOOD LANE","MERIDEN","CT",6450,41.5169084240001,-72.801770135,38,"22 HILLWOOD LANE, MERIDEN, CT, 6450","Match","Exact","22 HILLWOOD LN, MERIDEN, CT, 06450",3724859,"L"
120039,"22 HOBART COURT","RANDALLSTOWN","MD",21133,39.37481604,-76.822697808,39,"22 HOBART COURT, RANDALLSTOWN, MD, 21133","Match","Exact","22 HOBART CT, RANDALLSTOWN, MD, 21133",191550651,"L"
120040,"22 HOMER STREET","NEWPORT","RI",2840,41.5008283770001,-71.312955814,40,"22 HOMER STREET, NEWPORT, RI, 2840","Match","Exact","22 HOMER ST, NEWPORT, RI, 02840",47346840,"L"
120041,"22 HUDSON FALLS RD","SOUTH GLENS FALLS","NY",12803,43.296416691,-73.59807654,41,"22 HUDSON FALLS RD, SOUTH GLENS FALLS, NY, 12803","Match","Exact","22 HUDSON FALLS RD, S GLENS FALLS, NY, 12803",18816236,"R"
120042,"22 HUNT DRIVE","PISCATAWAY","NJ",8854,40.5348060850001,-74.453531535,42,"22 HUNT DRIVE, PISCATAWAY, NJ, 8854","Match","Exact","22 HUNT DR, PISCATAWAY, NJ, 08854",60294776,"R"
120043,"22 HUNTINGTON AVE","ARLINGTON","MA",2474,42.4304301390001,-71.176645045,43,"22 HUNTINGTON AVE, ARLINGTON, MA, 2474","Match","Non_Exact","22 HUNTINGTON RD, ARLINGTON, MA, 02474",86885067,"L"
120044,"22 ISLAND CREEK ROAD","SEALE","AL",36875,32.4025006640001,-85.1913468499999,44,"22 ISLAND CREEK ROAD, SEALE, AL, 36875","Match","Exact","22 ISLAND CREEK RD, SEALE, AL, 36875",69260002,"R"
120045,"22 JACKSON STREET","KEESEVILLE","NY",12944,44.5033300330001,-73.4899735939999,45,"22 JACKSON STREET, KEESEVILLE, NY, 12944","Match","Exact","22 JACKSON ST, KEESEVILLE, NY, 12944",136073797,"R"
120046,"22 JACKSON STREET","LAWRENCE","MA",1841,42.7109826930001,-71.157884091,46,"22 JACKSON STREET, LAWRENCE, MA, 1841","Match","Exact","22 JACKSON ST, LAWRENCE, MA, 01841",651812633,"L"
120047,"22 JENNIFER DRIVE","HOWELL","NJ",7731,40.139685124,-74.211963838,47,"22 JENNIFER DRIVE, HOWELL, NJ, 7731","Match","Exact","22 JENNIFER DR, HOWELL, NJ, 07731",90496650,"R"
120048,"22 JENNINGS ST","WORCESTER","MA",1604,42.2506818310001,-71.7600871619999,48,"22 JENNINGS ST, WORCESTER, MA, 1604","Match","Exact","22 JENNINGS ST, WORCESTER, MA, 01604",40014760,"R"
120049,"22 JENNINGS STREET","WORCESTER","MA",1604,42.2506818310001,-71.7600871619999,49,"22 JENNINGS STREET, WORCESTER, MA, 1604","Match","Exact","22 JENNINGS ST, WORCESTER, MA, 01604",40014760,"R"
120050,"22 JILLSON CIRCLE","MILFORD","MA",1757,42.1597932380001,-71.534318672,50,"22 JILLSON CIRCLE, MILFORD, MA, 1757","Match","Exact","22 JILLSON CIR, MILFORD, MA, 01757",40038199,"L"
120051,"22 JOHNSON STREET","PAWTUCKET","MA",2860,NA,NA,51,"22 JOHNSON STREET, PAWTUCKET, MA, 2860","No_Match",NA,NA,NA,NA
120052,"22 JOSSELYN AVE","DUXBURY","MA",2332,42.0284232450001,-70.673866572,52,"22 JOSSELYN AVE, DUXBURY, MA, 2332","Match","Exact","22 JOSSELYN AVE, DUXBURY, MA, 02332",87436950,"L"
120053,"22 JUAN DE FUCA RD","PORT TOWNSEND","WA",98368,48.1321290130001,-122.827136049,53,"22 JUAN DE FUCA RD, PORT TOWNSEND, WA, 98368","Match","Exact","22 JUAN DE FUCA RD, PORT TOWNSEND, WA, 98368",151990915,"R"
120054,"22 JUDITH LANE","WESLEY HILLS, NY 109","NY",10952,41.1462777880001,-74.08429752,54,"22 JUDITH LANE, WESLEY HILLS, NY 109, NY, 10952","Match","Non_Exact","22 JUDITH LN, AIRMONT, NY, 10952",640624647,"R"
120055,"22 JUNARD DRIVE","ROSLYN","NY",11576,40.793095937,-73.651715441,55,"22 JUNARD DRIVE, ROSLYN, NY, 11576","Match","Exact","22 JUNARD DR, ROSLYN, NY, 11576",147663538,"R"
120056,"22 KAIKUONO ST","HILO","HI",96720,19.7015346360001,-155.116421326,56,"22 KAIKUONO ST, HILO, HI, 96720","Match","Exact","22 KAIKUONO ST, HILO, HI, 96720",203022810,"L"
120057,"22 KEEFE AVE","HOLYOKE","MA",1040,42.204255163,-72.629588855,57,"22 KEEFE AVE, HOLYOKE, MA, 1040","Match","Exact","22 KEEFE AVE, HOLYOKE, MA, 01040",4017185,"L"
120058,"22 KEELER DR","ALBANY","NY",12208,42.650257439,-73.806867527,58,"22 KEELER DR, ALBANY, NY, 12208","Match","Exact","22 KEELER DR, ALBANY, NY, 12208",18307940,"R"
120059,"22 KEEPSAKE WAY","KNOXVILLE","AL",35469,NA,NA,59,"22 KEEPSAKE WAY, KNOXVILLE, AL, 35469","No_Match",NA,NA,NA,NA
120060,"22 KESWICK CIRCLE","MONROE TOWNSHIP","NJ",8831,40.3331943090001,-74.414567527,60,"22 KESWICK CIRCLE, MONROE TOWNSHIP, NJ, 8831","Match","Exact","22 KESWICK CIR, MONROE TOWNSHIP, NJ, 08831",641762017,"R"
120061,"22 KEYSTONE DR","GAITHERSBURG","MD",20878,39.1328550260001,-77.242078196,61,"22 KEYSTONE DR, GAITHERSBURG, MD, 20878","Match","Exact","22 KEYSTONE DR, GAITHERSBURG, MD, 20878",62047475,"R"
120062,"22 KINGSTON RD","NATCHEZ","MS",39120,31.4820149060001,-91.3660511849999,62,"22 KINGSTON RD, NATCHEZ, MS, 39120","Match","Exact","22 KINGSTON RD, NATCHEZ, MS, 39120",612924830,"R"
120063,"22 KNAPP ST","SOMERVILLE","MA",2143,42.3826519260001,-71.102025095,63,"22 KNAPP ST, SOMERVILLE, MA, 2143","Match","Exact","22 KNAPP ST, SOMERVILLE, MA, 02143",86869037,"R"
120064,"22 KOSTER BLVD","EDISON","NJ",8837,40.5478477440001,-74.344214484,64,"22 KOSTER BLVD, EDISON, NJ, 8837","Match","Exact","22 KOSTER BLVD, EDISON, NJ, 08837",60323287,"L"
120065,"22 KOWALL PLACE","LYNBROOK","NY",11563,40.6655064500001,-73.677530079,65,"22 KOWALL PLACE, LYNBROOK, NY, 11563","Match","Exact","22 KOWALL PL, LYNBROOK, NY, 11563",147670912,"R"
120066,"22 LAMBERT ST","WASHINGTON","NJ",7882,40.7589184340001,-74.995563144,66,"22 LAMBERT ST, WASHINGTON, NJ, 7882","Match","Exact","22 LAMBERT ST, WASHINGTON, NJ, 07882",635161860,"R"
120067,"22 LANGTREE DRIVE","PICKERINGTON","OH",43147,39.8849181300001,-82.780542639,67,"22 LANGTREE DRIVE, PICKERINGTON, OH, 43147","Match","Exact","22 LANGTREE DR, PICKERINGTON, OH, 43147",37239058,"R"
120068,"22 LAURA AVENUE","NUTLEY","NJ",7110,40.829968567,-74.160071574,68,"22 LAURA AVENUE, NUTLEY, NJ, 7110","Match","Exact","22 LAURA AVE, NUTLEY, NJ, 07110",63453311,"R"
120069,"22 LAURENCE CT","CLOSTER","NJ",7624,40.965609182,-73.9451874059999,69,"22 LAURENCE CT, CLOSTER, NJ, 7624","Match","Exact","22 LAURENCE CT, CLOSTER, NJ, 07624",64371448,"R"
120070,"22 LEDGE ROAD","GLOUCESTER","MA",1930,42.6038844350001,-70.651448439,70,"22 LEDGE ROAD, GLOUCESTER, MA, 1930","Match","Exact","22 LEDGE RD, GLOUCESTER, MA, 01930",86633945,"L"
120071,"22 LIBERTY STREET","PAINESVILLE","OH",44077,41.72368642,-81.2448199569999,71,"22 LIBERTY STREET, PAINESVILLE, OH, 44077","Match","Exact","22 LIBERTY ST, PAINESVILLE, OH, 44077",137466105,"R"
120072,"22 LIGHTHOUSE COURT","TOMPKINS COVE","NY",10986,41.2440849770001,-73.985852666,72,"22 LIGHTHOUSE COURT, TOMPKINS COVE, NY, 10986","Match","Non_Exact","22 LIGHTHOUSE CT, TOMKINS COVE, NY, 10986",124627118,"R"
120073,"22 LIMESTONE CT","LITITZ","PA",17543,40.1686738970001,-76.3053332969999,73,"22 LIMESTONE CT, LITITZ, PA, 17543","Match","Exact","22 LIMESTONE CT, LITITZ, PA, 17543",179702197,"R"
120074,"22 LO BELL DRIVE","WASHINGTON","PA",15301,40.1951662500001,-80.274997271,74,"22 LO BELL DRIVE, WASHINGTON, PA, 15301","Match","Exact","22 LO BELL DR, WASHINGTON, PA, 15301",52825637,"L"
120075,"22 LONEY CIRCLE","GREENSBORO","NC",27406,36.0098157960001,-79.8158610469999,75,"22 LONEY CIRCLE, GREENSBORO, NC, 27406","Match","Exact","22 LONEY CIR, GREENSBORO, NC, 27406",131107399,"R"
120076,"22 LONGWOOD DRIVE","BURLINGTON","NJ",8016,40.0529597940001,-74.863029318,76,"22 LONGWOOD DRIVE, BURLINGTON, NJ, 8016","Match","Exact","22 LONGWOOD DR, BURLINGTON, NJ, 08016",134029930,"R"
120077,"22 LOS PRADOS","SANTA FE","NM",87506,35.716938994,-106.001316269,77,"22 LOS PRADOS, SANTA FE, NM, 87506","Match","Exact","22 LOS PRADOS, SANTA FE, NM, 87506",169427873,"R"
120078,"22 LYDIA LANE","GARDEN CITY","NY",11530,40.714584163,-73.653370751,78,"22 LYDIA LANE, GARDEN CITY, NY, 11530","Match","Exact","22 LYDIA LN, GARDEN CITY, NY, 11530",147823493,"R"
120079,"22 MADDIE WAY","BELLINGHAM","MA",2019,42.0671667020001,-71.4926316089999,79,"22 MADDIE WAY, BELLINGHAM, MA, 2019","Match","Exact","22 MADDIE WAY, BELLINGHAM, MA, 02019",624068173,"L"
120080,"22 MAIN STREET APT 33","DANBURY","CT",6810,41.387266503,-73.445256806,80,"22 MAIN STREET APT 33, DANBURY, CT, 6810","Match","Exact","22 MAIN ST, DANBURY, CT, 06810",3231985,"L"
120081,"22 MAIN STREET UNIT 9","DANBURY","CT",6810,41.387266503,-73.445256806,81,"22 MAIN STREET UNIT 9, DANBURY, CT, 6810","Match","Exact","22 MAIN ST, DANBURY, CT, 06810",3231985,"L"
120082,"22 MANOR PLACE","WATERVLIET","NY",12189,42.7146915380001,-73.710904296,82,"22 MANOR PLACE, WATERVLIET, NY, 12189","Match","Exact","22 MANOR PL, WATERVLIET, NY, 12189",642832116,"R"
120083,"22 MAPLE AVENUE","WHEELING","WV",26003,40.0791169300001,-80.690108422,83,"22 MAPLE AVENUE, WHEELING, WV, 26003","Match","Exact","22 MAPLE AVE, WHEELING, WV, 26003",38093870,"L"
120084,"22 MARCY PL APT 1E","BRONX","NY",10452,40.8388146710001,-73.918167479,84,"22 MARCY PL APT 1E, BRONX, NY, 10452","Match","Exact","22 MARCY PL, BRONX, NY, 10452",80299797,"R"
120085,"22 MARNE RD","CHEEKTOWAGA","NY",14215,42.9234344700001,-78.796744105,85,"22 MARNE RD, CHEEKTOWAGA, NY, 14215","Match","Exact","22 MARNE RD, CHEEKTOWAGA, NY, 14215",48297647,"L"
120086,"22 MARYLAND AVENUE","BALTIMORE","MD",21208,39.3671346960001,-76.7149487409999,86,"22 MARYLAND AVENUE, BALTIMORE, MD, 21208","Match","Exact","22 MARYLAND AVE, BALTIMORE, MD, 21208",191547663,"L"
120087,"22 MC 6017","YELLVILLE","AR",72687,NA,NA,87,"22 MC 6017, YELLVILLE, AR, 72687","No_Match",NA,NA,NA,NA
120088,"22 MCGRATH HWY SUITE 210","SOMERVILLE","MA",2143,42.3742687440001,-71.083344922,88,"22 MCGRATH HWY SUITE 210, SOMERVILLE, MA, 2143","Match","Exact","22 MCGRATH HWY, SOMERVILLE, MA, 02143",87108544,"L"
120089,"22 MEADOWOOD DRIVE","TUNKHANNOCK","PA",18657,NA,NA,89,"22 MEADOWOOD DRIVE, TUNKHANNOCK, PA, 18657","No_Match",NA,NA,NA,NA
120090,"22 MIKIOI ST","HILO","HI",96720,19.693534092,-155.063112323,90,"22 MIKIOI ST, HILO, HI, 96720","Match","Exact","22 MIKIOI ST, HILO, HI, 96720",203001041,"R"
120091,"22 MILL STREET    APT 101","JEFFERSON","VT",5464,44.6434968470001,-72.828946397,91,"22 MILL STREET    APT 101, JEFFERSON, VT, 5464","Match","Non_Exact","22 MILL ST, JEFFERSONVILLE, VT, 05464",647557136,"L"
120092,"22 MINERVA LANE","LITCHFIELD","CT",6759,41.75910299,-73.192291579,92,"22 MINERVA LANE, LITCHFIELD, CT, 6759","Match","Exact","22 MINERVA LN, LITCHFIELD, CT, 06759",3101499,"L"
120093,"22 MONTEREY DRIVE","CHERRY VALLEY","MA",1611,42.240454448,-71.8890059719999,93,"22 MONTEREY DRIVE, CHERRY VALLEY, MA, 1611","Match","Exact","22 MONTEREY DR, CHERRY VALLEY, MA, 01611",40004438,"R"
120094,"22 MONTGOMERY ROAD","WINDHAM","ME",4062,43.7445236340001,-70.3986520879999,94,"22 MONTGOMERY ROAD, WINDHAM, ME, 4062","Match","Exact","22 MONTGOMERY RD, WINDHAM, ME, 04062",651749236,"R"
120095,"22 MOSS AVE SUITE 104","OAKLAND","CA",94610,37.8184705520001,-122.250908555,95,"22 MOSS AVE SUITE 104, OAKLAND, CA, 94610","Match","Exact","22 MOSS AVE, OAKLAND, CA, 94610",652205453,"R"
120096,"22 MOUNT TOM ROAD","NEW ROCHELLE","NY",10805,40.8951567490001,-73.788410685,96,"22 MOUNT TOM ROAD, NEW ROCHELLE, NY, 10805","Match","Exact","22 MOUNT TOM RD, NEW ROCHELLE, NY, 10805",139842942,"L"
120097,"22 MYNAH DRIVE","AMELIA","OH",45102,39.020724424,-84.222791549,97,"22 MYNAH DRIVE, AMELIA, OH, 45102","Match","Exact","22 MYNAH DR, AMELIA, OH, 45102",118472595,"R"
120098,"22 N ENDICOTT PO BOX 118","POSEYVILLE","IN",47633,NA,NA,98,"22 N ENDICOTT PO BOX 118, POSEYVILLE, IN, 47633","No_Match",NA,NA,NA,NA
120099,"22 N KILDARE AVE","CHICAGO","IL",60624,41.88148052,-87.733056694,99,"22 N KILDARE AVE, CHICAGO, IL, 60624","Match","Exact","22 N KILDARE AVE, CHICAGO, IL, 60624",605080482,"L"
120100,"22 N WINSTON STREET","REYNOLDS","GA",31076,32.5564162700001,-84.096140543,100,"22 N WINSTON STREET, REYNOLDS, GA, 31076","Match","Non_Exact","22 S WINSTON ST, REYNOLDS, GA, 31076",30777909,"L"
120101,"22 NEWBERRY CT","LAKEWOOD","NJ",8701,40.0759715,-74.208842326,101,"22 NEWBERRY CT, LAKEWOOD, NJ, 8701","Match","Exact","22 NEWBERRY CT, LAKEWOOD, NJ, 08701",641794321,"R"
120102,"22 NEWBERRY PLACE","GROSSE POINTE FARMS","MI",48236,42.3921439900001,-82.8937768819999,102,"22 NEWBERRY PLACE, GROSSE POINTE FARMS, MI, 48236","Match","Exact","22 NEWBERRY PL, GROSSE POINTE FARMS, MI, 48236",95488389,"R"
120103,"22 NORTH 3RD ST","CLEAR LAKE","IA",50428,43.136140203,-93.382228712,103,"22 NORTH 3RD ST, CLEAR LAKE, IA, 50428","Match","Exact","22 N 3RD ST, CLEAR LAKE, IA, 50428",7288311,"R"
120104,"22 NORTH 6TH STREET APARTMENT 20C","BROOKLYN","NY",11249,40.7199738100001,-73.962606641,104,"22 NORTH 6TH STREET APARTMENT 20C, BROOKLYN, NY, 11249","Match","Exact","22 N 6TH ST, BROOKLYN, NY, 11249",624545571,"L"
120105,"22 NORTH CEDAR STREET","BEACON","NY",12508,41.5067077940001,-73.969336008,105,"22 NORTH CEDAR STREET, BEACON, NY, 12508","Match","Exact","22 N CEDAR ST, BEACON, NY, 12508",4162137,"R"
120106,"22 NORTH FRONT STREET STE 660","MEMPHIS","TN",38103,35.146343524,-90.0537939719999,106,"22 NORTH FRONT STREET STE 660, MEMPHIS, TN, 38103","Match","Exact","22 N FRONT ST, MEMPHIS, TN, 38103",72903247,"R"
120107,"22 NORTH MAIN STREET BUILDING B","WATKINSVILLE","GA",30677,33.8642115000001,-83.409947996,107,"22 NORTH MAIN STREET BUILDING B, WATKINSVILLE, GA, 30677","Match","Exact","22 N MAIN ST, WATKINSVILLE, GA, 30677",5039498,"R"
120108,"22 NORTH MULBERRY STREET SUITE 111","HAGERSTOWN","MD",21740,39.6406473150001,-77.715852502,108,"22 NORTH MULBERRY STREET SUITE 111, HAGERSTOWN, MD, 21740","Match","Exact","22 N MULBERRY ST, HAGERSTOWN, MD, 21740",612158709,"R"
120109,"22 NORTH VENETIAN WAY","PORT ORANGE","FL",32127,29.1388730030001,-80.9645447349999,109,"22 NORTH VENETIAN WAY, PORT ORANGE, FL, 32127","Match","Exact","22 N VENETIAN WAY, PORT ORANGE, FL, 32127",94529211,"R"
120110,"22 OAK CT","MERRICK","NY",11566,40.685672417,-73.560052218,110,"22 OAK CT, MERRICK, NY, 11566","Match","Exact","22 OAK CT, MERRICK, NY, 11566",147634813,"R"
120111,"22 OAK VALLEY DR","MARYVILLE","IL",62062,38.7144202000001,-89.979178394,111,"22 OAK VALLEY DR, MARYVILLE, IL, 62062","Match","Exact","22 OAK VALLEY DR, MARYVILLE, IL, 62062",107764475,"L"
120112,"22 ODYSSEY STE 240","IRVINE","CA",92618,NA,NA,112,"22 ODYSSEY STE 240, IRVINE, CA, 92618","No_Match",NA,NA,NA,NA
120113,"22 OLD VINEYARD LANE","FLINT HILL","VA",22627,38.7678158950001,-78.0317026009999,113,"22 OLD VINEYARD LANE, FLINT HILL, VA, 22627","Match","Exact","22 OLD VINEYARD LN, FLINT HILL, VA, 22627",29935248,"R"
120114,"22 ONYX WAY","LAS VEGAS","NV",89106,36.1748261070001,-115.16946581,114,"22 ONYX WAY, LAS VEGAS, NV, 89106","Match","Exact","22 ONYX WAY, LAS VEGAS, NV, 89106",201847079,"L"
120115,"22 ORCHARD DR","WAYNESBORO","VA",22980,38.053673168,-79.004093524,115,"22 ORCHARD DR, WAYNESBORO, VA, 22980","Match","Exact","22 ORCHARD DR, WAYNESBORO, VA, 22980",98828080,"R"
120116,"22 OROVILLE","IRVINE","CA",92602,33.7350719880001,-117.765291119,116,"22 OROVILLE, IRVINE, CA, 92602","Match","Exact","22 OROVILLE, IRVINE, CA, 92602",144135583,"R"
120117,"22 OXFORD STREET","SOMERVILLE","MA",2143,42.3864727380001,-71.100155635,117,"22 OXFORD STREET, SOMERVILLE, MA, 2143","Match","Exact","22 OXFORD ST, SOMERVILLE, MA, 02143",86869029,"L"
120118,"22 PARK AVE","COVENTRY","RI",2816,41.709493525,-71.533940195,118,"22 PARK AVE, COVENTRY, RI, 2816","Match","Exact","22 PARK AVE, COVENTRY, RI, 02816",159142260,"R"
120119,"22 PARK ROW","CHATHAM","NY",12037,42.3626075340001,-73.59688045,119,"22 PARK ROW, CHATHAM, NY, 12037","Match","Exact","22 PARK ROW, CHATHAM, NY, 12037",41523484,"L"
120120,"22 PARK TERRACE DRIVE","SAINT AUGUSTINE","FL",32080,29.8797080320001,-81.28992809,120,"22 PARK TERRACE DRIVE, SAINT AUGUSTINE, FL, 32080","Match","Exact","22 PARK TERRACE DR, SAINT AUGUSTINE, FL, 32080",92598462,"R"
120121,"22 PARKWAY SOUTH    SUITE 53","BREWER","ME",4412,44.782336404,-68.7517350529999,121,"22 PARKWAY SOUTH    SUITE 53, BREWER, ME, 4412","Match","Exact","22 PARKWAY S, BREWER, ME, 04412",605642877,"L"
120122,"22 PARTRICK LANE","WESTPORT","CT",6880,41.153286517,-73.3810753779999,122,"22 PARTRICK LANE, WESTPORT, CT, 6880","Match","Exact","22 PARTRICK LN, WESTPORT, CT, 06880",3261850,"R"
120123,"22 PASSAIC AVE","OGDENSBURG","NJ",7439,41.081436765,-74.59461455,123,"22 PASSAIC AVE, OGDENSBURG, NJ, 7439","Match","Exact","22 PASSAIC AVE, OGDENSBURG, NJ, 07439",98001417,"R"
120124,"22 PEACH ORCHARD DRIVE","EAST BRUNSWICK","NJ",8816,40.431741592,-74.4267706809999,124,"22 PEACH ORCHARD DRIVE, EAST BRUNSWICK, NJ, 8816","Match","Exact","22 PEACH ORCHARD DR, E BRUNSWICK, NJ, 08816",60269025,"L"
120125,"22 PEASE STREET","MOUNT VERNON","NY",10553,40.9091746230001,-73.824392028,125,"22 PEASE STREET, MOUNT VERNON, NY, 10553","Match","Exact","22 PEASE ST, MOUNT VERNON, NY, 10553",139748737,"R"
120126,"22 PELHAM PLACE","BERGENFIELD","NJ",7621,40.931961669,-73.9998735729999,126,"22 PELHAM PLACE, BERGENFIELD, NJ, 7621","Match","Exact","22 PELHAM PL, BERGENFIELD, NJ, 07621",64412750,"L"
120127,"22 PELHAM ROAD","WESTON","MA",2493,42.345693022,-71.3198638649999,127,"22 PELHAM ROAD, WESTON, MA, 2493","Match","Exact","22 PELHAM RD, WESTON, MA, 02493",87092409,"L"
120128,"22 PENNOCK BROOK DRIVE","NEWYORK","NY",13144,NA,NA,128,"22 PENNOCK BROOK DRIVE, NEWYORK, NY, 13144","Tie",NA,NA,NA,NA
120129,"22 PINE STREET SUITE 7","FREEPORT","NY",11520,40.6557790260001,-73.583437493,129,"22 PINE STREET SUITE 7, FREEPORT, NY, 11520","Match","Exact","22 PINE ST, FREEPORT, NY, 11520",147631685,"R"
120130,"22 PINEVIEW DRIVE","GILLETTE","WY",82716,44.4582943230001,-105.584427223,130,"22 PINEVIEW DRIVE, GILLETTE, WY, 82716","Match","Exact","22 PINEVIEW DR, GILLETTE, WY, 82716",607411193,"L"
120131,"22 PITCHER AVENUE","MEDFORD","MA",2155,42.421676231,-71.139578668,131,"22 PITCHER AVENUE, MEDFORD, MA, 2155","Match","Exact","22 PITCHER AVE, MEDFORD, MA, 02155",86889109,"L"
120132,"22 PLAINS GAP ROAD","NORTH BRUNSWICK","NJ",8902,40.449169081,-74.4649966859999,132,"22 PLAINS GAP ROAD, NORTH BRUNSWICK, NJ, 8902","Match","Exact","22 PLAINS GAP RD, N BRUNSWICK, NJ, 08902",60314223,"R"
120133,"22 POINT LN","ARCADIA","IN",46030,40.1471399220001,-86.0228539949999,133,"22 POINT LN, ARCADIA, IN, 46030","Match","Exact","22 POINT LN, ARCADIA, IN, 46030",647902184,"L"
120134,"22 POPLAR GROVE AVE","ABERDEEN","MD",21001,39.459786781,-76.227533233,134,"22 POPLAR GROVE AVE, ABERDEEN, MD, 21001","Match","Exact","22 POPLAR GROVE AVE, ABERDEEN, MD, 21001",191660256,"L"
120135,"22 PORTUGUESE BEND RD","ROLLING HILLS","CA",90274,NA,NA,135,"22 PORTUGUESE BEND RD, ROLLING HILLS, CA, 90274","No_Match",NA,NA,NA,NA
120136,"22 PRAIRIE CLOVER","LITTLETON","CO",80127,39.587402108,-105.168245658,136,"22 PRAIRIE CLOVER, LITTLETON, CO, 80127","Match","Exact","22 PRAIRIE CLOVER, LITTLETON, CO, 80127",177735171,"L"
120137,"22 PRIMROSE LANE","HACKETTSTOWN","NJ",7840,NA,NA,137,"22 PRIMROSE LANE, HACKETTSTOWN, NJ, 7840","No_Match",NA,NA,NA,NA
120138,"22 PUTNAM AVE","CAMBRIDGE","MA",2139,42.3690707120001,-71.113468257,138,"22 PUTNAM AVE, CAMBRIDGE, MA, 2139","Match","Exact","22 PUTNAM AVE, CAMBRIDGE, MA, 02139",86868729,"L"
120139,"22 Q STREET","ANDERSON","SC",29625,34.5093591510001,-82.669667066,139,"22 Q STREET, ANDERSON, SC, 29625","Match","Exact","22 Q ST, ANDERSON, SC, 29625",25450595,"L"
120140,"22 RAILROAD AVE SUITE 2","SAYVILLE","NY",11782,NA,NA,140,"22 RAILROAD AVE SUITE 2, SAYVILLE, NY, 11782","Tie",NA,NA,NA,NA
120141,"22 RAPIDS FORD CT","IRMO","SC",29063,34.089318704,-81.16994625,141,"22 RAPIDS FORD CT, IRMO, SC, 29063","Match","Exact","22 RAPIDS FORD CT, IRMO, SC, 29063",71837161,"L"
120142,"22 RAWSON AVENUE","NEWBURYPORT","MA",1950,NA,NA,142,"22 RAWSON AVENUE, NEWBURYPORT, MA, 1950","No_Match",NA,NA,NA,NA
120143,"22 READE STREET","NEW YORK","NY",10007,40.7140464920001,-74.004519037,143,"22 READE STREET, NEW YORK, NY, 10007","Match","Exact","22 READE ST, NEW YORK, NY, 10007",59662320,"R"
120144,"22 RED BARN LN","MIDDLETOWN","NY",10940,41.4432685520001,-74.386443158,144,"22 RED BARN LN, MIDDLETOWN, NY, 10940","Match","Exact","22 RED BARN LN, MIDDLETOWN, NY, 10940",124388677,"L"
120145,"22 REGENT ST","NORTH PLAINFIELD","NJ",7060,40.6264035460001,-74.4337449289999,145,"22 REGENT ST, NORTH PLAINFIELD, NJ, 7060","Match","Exact","22 REGENT ST, N PLAINFIELD, NJ, 07060",59949108,"R"
120146,"22 REMBRANDT COURT","OAKLEY","CA",94561,37.9918083800001,-121.693715497,146,"22 REMBRANDT COURT, OAKLEY, CA, 94561","Match","Exact","22 REMBRANDT CT, OAKLEY, CA, 94561",624619066,"R"
120147,"22 RHYN CT","DURHAM","NC",27704,36.0384895830001,-78.8660209719999,147,"22 RHYN CT, DURHAM, NC, 27704","Match","Exact","22 RHYN CT, DURHAM, NC, 27704",71754833,"R"
120148,"22 RIDGE CREST DR","CHESTERFIELD","MO",63017,38.6863648390001,-90.5123703309999,148,"22 RIDGE CREST DR, CHESTERFIELD, MO, 63017","Match","Exact","22 RIDGE CREST DR, CHESTERFIELD, MO, 63017",100179384,"L"
120149,"22 RINTIN STREET","FRANKLIN SQUARE","NY",11010,40.7063056380001,-73.6683984869999,149,"22 RINTIN STREET, FRANKLIN SQUARE, NY, 11010","Match","Exact","22 RINTIN ST, FRANKLIN SQUARE, NY, 11010",147672169,"R"
120150,"22 RIVERDALE DRIVE","HAMPTON BAYS","NY",11946,40.8665287900001,-72.502922417,150,"22 RIVERDALE DRIVE, HAMPTON BAYS, NY, 11946","Match","Exact","22 RIVERDALE DR, HAMPTON BAYS, NY, 11946",114027645,"R"
120151,"22 ROBINSON AVE","SUCCASUNNA","NJ",7876,40.86559498,-74.6487943659999,151,"22 ROBINSON AVE, SUCCASUNNA, NJ, 7876","Match","Exact","22 ROBINSON AVE, SUCCASUNNA, NJ, 07876",60432886,"L"
120152,"22 ROBINSON ROAD","SCOTIA","NY",12302,42.8641388230001,-73.947385308,152,"22 ROBINSON ROAD, SCOTIA, NY, 12302","Match","Exact","22 ROBINSON RD, SCOTIA, NY, 12302",18024477,"R"
120153,"22 ROCKCREST DRIVE","VALLEY GROVE","WV",26060,NA,NA,153,"22 ROCKCREST DRIVE, VALLEY GROVE, WV, 26060","No_Match",NA,NA,NA,NA
120154,"22 ROCKWOOD LN","GLOUCESTER","MA",1930,42.6818368630001,-70.651030706,154,"22 ROCKWOOD LN, GLOUCESTER, MA, 1930","Match","Exact","22 ROCKWOOD LN, GLOUCESTER, MA, 01930",86633283,"R"
120155,"22 RODNEY STREET","SEAFORD","DE",19973,38.644636903,-75.627667835,155,"22 RODNEY STREET, SEAFORD, DE, 19973","Match","Exact","22 RODNEY ST, SEAFORD, DE, 19973",106082991,"L"
120156,"22 ROSE STREET","SOMERVILLE","MA",2143,42.3788045790001,-71.1027993,156,"22 ROSE STREET, SOMERVILLE, MA, 2143","Match","Exact","22 ROSE ST, SOMERVILLE, MA, 02143",86869268,"R"
120157,"22 S ADAIR STREET","PRYOR","OK",74361,36.3068995670001,-95.317355343,157,"22 S ADAIR STREET, PRYOR, OK, 74361","Match","Exact","22 S ADAIR ST, PRYOR, OK, 74361",58807323,"L"
120158,"22 S LA SALLE ST","REDLANDS","CA",92374,34.054240781,-117.143281164,158,"22 S LA SALLE ST, REDLANDS, CA, 92374","Match","Exact","22 S LA SALLE ST, REDLANDS, CA, 92374",144666499,"R"
120159,"22 S LEAVITT ST","CHICAGO","IL",60612,41.880549715,-87.681524466,159,"22 S LEAVITT ST, CHICAGO, IL, 60612","Match","Exact","22 S LEAVITT ST, CHICAGO, IL, 60612",616886345,"R"
120160,"22 S MIDDLETOWN RD","MONTVALE","NJ",7645,NA,NA,160,"22 S MIDDLETOWN RD, MONTVALE, NJ, 7645","Tie",NA,NA,NA,NA
120161,"22 S MIDDLETOWN ROAD","MONTVALE","NJ",7645,NA,NA,161,"22 S MIDDLETOWN ROAD, MONTVALE, NJ, 7645","Tie",NA,NA,NA,NA
120162,"22 S WILLIAMS ST","WINDER","GA",30680,NA,NA,162,"22 S WILLIAMS ST, WINDER, GA, 30680","Tie",NA,NA,NA,NA
120163,"22 SACRAMENTO PL","CAMBRIDGE","MA",2138,42.3827491010001,-71.1169385539999,163,"22 SACRAMENTO PL, CAMBRIDGE, MA, 2138","Match","Exact","22 SACRAMENTO PL, CAMBRIDGE, MA, 02138",86867993,"R"
120164,"22 SAILERS WAY","RUMSON","NJ",7760,40.3520529950001,-74.006755266,164,"22 SAILERS WAY, RUMSON, NJ, 7760","Match","Non_Exact","22 SAILORS WAY, RUMSON, NJ, 07760",90453031,"R"
120165,"22 SAN JOSE AVE","JEFFERSON","LA",70121,29.9674808140001,-90.150377804,165,"22 SAN JOSE AVE, JEFFERSON, LA, 70121","Match","Exact","22 SAN JOSE AVE, JEFFERSON, LA, 70121",648090905,"L"
120166,"22 SANDALWOOD DR","EAST BRUNSWICK","NJ",8816,40.405825522,-74.4062675019999,166,"22 SANDALWOOD DR, EAST BRUNSWICK, NJ, 8816","Match","Exact","22 SANDALWOOD DR, E BRUNSWICK, NJ, 08816",60361487,"R"
120167,"22 SANTA CRUZ","ROLLING HILLS ESTAT","CA",90274,33.7586184250001,-118.389312861,167,"22 SANTA CRUZ, ROLLING HILLS ESTAT, CA, 90274","Match","Non_Exact","22 SANTA CRUZ, ROLLING HILLS, CA, 90274",142665887,"L"
120168,"22 SARAH COURT","ALBANY","NY",12205,42.737246445,-73.8513086889999,168,"22 SARAH COURT, ALBANY, NY, 12205","Match","Exact","22 SARAH CT, ALBANY, NY, 12205",18357624,"L"
120169,"22 SARATOGA DRIVE","WEST WINDSOR","NJ",8550,40.30138319,-74.584586848,169,"22 SARATOGA DRIVE, WEST WINDSOR, NJ, 8550","Match","Exact","22 SARATOGA DR, WEST WINDSOR, NJ, 08550",60197497,"R"
120170,"22 SCHOOL STREET","WOBURN","MA",1801,42.5088214680001,-71.1584303819999,170,"22 SCHOOL STREET, WOBURN, MA, 1801","Match","Exact","22 SCHOOL ST, WOBURN, MA, 01801",86906685,"L"
120171,"22 SEASCAPE DRIVE","NEWPORT BEACH","CA",92663,33.625258327,-117.935487515,171,"22 SEASCAPE DRIVE, NEWPORT BEACH, CA, 92663","Match","Exact","22 SEASCAPE DR, NEWPORT BEACH, CA, 92663",645529272,"R"
120172,"22 SELU LANE","BRIDGTON","ME",4009,NA,NA,172,"22 SELU LANE, BRIDGTON, ME, 4009","No_Match",NA,NA,NA,NA
120173,"22 SETTLERS DRIVE","LAKEVILLE","MA",2347,41.8627889310001,-70.9334108369999,173,"22 SETTLERS DRIVE, LAKEVILLE, MA, 2347","Match","Exact","22 SETTLERS DR, LAKEVILLE, MA, 02347",632059171,"R"
120174,"22 SEVENTH STREET","MEDFORD","MA",2155,42.4069078790001,-71.078699258,174,"22 SEVENTH STREET, MEDFORD, MA, 2155","Match","Exact","22 7TH ST, MEDFORD, MA, 02155",86860598,"L"
120175,"22 SHARPE ROAD","NEWTON","MA",2459,42.309632419,-71.193679576,175,"22 SHARPE ROAD, NEWTON, MA, 2459","Match","Exact","22 SHARPE RD, NEWTON, MA, 02459",86867026,"L"
120176,"22 SHAWNEE TRAIL","SHAMONG","NJ",8088,39.8007317890001,-74.703760283,176,"22 SHAWNEE TRAIL, SHAMONG, NJ, 8088","Match","Exact","22 SHAWNEE TRL, SHAMONG, NJ, 08088",134082629,"R"
120177,"22 SHEFFORD STREET","SPRINGFIELD","MA",1107,42.1266626610001,-72.601885996,177,"22 SHEFFORD STREET, SPRINGFIELD, MA, 1107","Match","Exact","22 SHEFFORD ST, SPRINGFIELD, MA, 01107",4021989,"L"
120178,"22 SKINNERS PATH","MARBLEHEAD","MA",1945,42.4993012090001,-70.851290497,178,"22 SKINNERS PATH, MARBLEHEAD, MA, 1945","Match","Exact","22 SKINNERS PATH, MARBLEHEAD, MA, 01945",86649136,"L"
120179,"22 SMITH STREET","WESTBOROUGH","MA",1581,42.297725966,-71.575172165,179,"22 SMITH STREET, WESTBOROUGH, MA, 1581","Match","Exact","22 SMITH ST, WESTBOROUGH, MA, 01581",636893159,"L"
120180,"22 SMITH TERRACE","STATEN ISLAND","NY",10304,40.627728463,-74.081132425,180,"22 SMITH TERRACE, STATEN ISLAND, NY, 10304","Match","Exact","22 SMITH TER, STATEN ISLAND, NY, 10304",59879028,"L"
120181,"22 SNYDER ROAD","HEGINS","PA",17938,40.656692724,-76.5567992649999,181,"22 SNYDER ROAD, HEGINS, PA, 17938","Match","Exact","22 SNYDER RD, HEGINS, PA, 17938",645488581,"R"
120182,"22 SOUTH 3RD ST","FORT DODGE","IA",50501,42.503946441,-94.194000764,182,"22 SOUTH 3RD ST, FORT DODGE, IA, 50501","Match","Exact","22 S 3RD ST, FORT DODGE, IA, 50501",66072409,"L"
120183,"22 SOUTH GREEN STREET","BALTIMORE","MD",21201,NA,NA,183,"22 SOUTH GREEN STREET, BALTIMORE, MD, 21201","No_Match",NA,NA,NA,NA
120184,"22 SOUTH HILLSIDE ST","ASSONET","MA",2702,41.7930020950001,-71.092918388,184,"22 SOUTH HILLSIDE ST, ASSONET, MA, 2702","Match","Exact","22 S HILLSIDE ST, ASSONET, MA, 02702",46757788,"L"
120185,"22 SOUTH HILLSIDE STREET","ASSONET","MA",2702,41.7930020950001,-71.092918388,185,"22 SOUTH HILLSIDE STREET, ASSONET, MA, 2702","Match","Exact","22 S HILLSIDE ST, ASSONET, MA, 02702",46757788,"L"
120186,"22 SOUTH ORANGE STREET","FELLSMERE","FL",32948,27.766795604,-80.602491223,186,"22 SOUTH ORANGE STREET, FELLSMERE, FL, 32948","Match","Exact","22 S ORANGE ST, FELLSMERE, FL, 32948",120295082,"L"
120187,"22 SOUTH SPRINGFIELD RD APT H2","CLIFTON HEIGHTS","PA",19018,39.9290348060001,-75.2967680249999,187,"22 SOUTH SPRINGFIELD RD APT H2, CLIFTON HEIGHTS, PA, 19018","Match","Exact","22 S SPRINGFIELD RD, CLIFTON HEIGHTS, PA, 19018",134883205,"R"
120188,"22 SOUTHBROOK DR","YORK","SC",29745,34.9814224450001,-81.236455841,188,"22 SOUTHBROOK DR, YORK, SC, 29745","Match","Exact","22 SOUTHBROOK DR, YORK, SC, 29745",19782179,"L"
120189,"22 SPOTTED OWL DRIVE","BROWNSBURG","IN",46112,39.8203895440001,-86.3903226959999,189,"22 SPOTTED OWL DRIVE, BROWNSBURG, IN, 46112","Match","Exact","22 SPOTTED OWL DR, BROWNSBURG, IN, 46112",89210397,"R"
120190,"22 SPRING VALLEY RD","NATICK","MA",1760,42.3076793210001,-71.355622131,190,"22 SPRING VALLEY RD, NATICK, MA, 1760","Match","Exact","22 SPRING VALLEY RD, NATICK, MA, 01760",86852122,"L"
120191,"22 STANDISH LANE","WINCHESTER","MA",1890,42.437739923,-71.129133698,191,"22 STANDISH LANE, WINCHESTER, MA, 1890","Match","Exact","22 STANDISH LN, WINCHESTER, MA, 01890",86889282,"L"
120192,"22 STANFORD COURT","IRVINE","CA",92612,33.6551951180001,-117.839125241,192,"22 STANFORD COURT, IRVINE, CA, 92612","Match","Exact","22 STANFORD CT, IRVINE, CA, 92612",647328019,"R"
120193,"22 STOCKBRIDGE","ALISO VIEJO","CA",92656,33.564338868,-117.735215269,193,"22 STOCKBRIDGE, ALISO VIEJO, CA, 92656","Match","Exact","22 STOCKBRIDGE, ALISO VIEJO, CA, 92656",144417547,"L"
120194,"22 STONEBRIDGE DR","HOCKESSIN","DE",19707,39.7746806530001,-75.719854927,194,"22 STONEBRIDGE DR, HOCKESSIN, DE, 19707","Match","Exact","22 STONEBRIDGE DR, HOCKESSIN, DE, 19707",187283518,"R"
120195,"22 STONEGATE DRIVE","HURRICANE","WV",25526,38.46595425,-81.925131468,195,"22 STONEGATE DRIVE, HURRICANE, WV, 25526","Match","Exact","22 STONEGATE DR, HURRICANE, WV, 25526",130519487,"L"
120196,"22 STRAFFORD STREET STE 2","LACONIA","NH",3246,43.532886406,-71.4642222099999,196,"22 STRAFFORD STREET STE 2, LACONIA, NH, 3246","Match","Exact","22 STRAFFORD ST, LACONIA, NH, 03246",647619614,"L"
120197,"22 STUBBE DR","STONY POINT","NY",10980,41.22248066,-73.98953677,197,"22 STUBBE DR, STONY POINT, NY, 10980","Match","Exact","22 STUBBE DR, STONY POINT, NY, 10980",124590647,"R"
120198,"22 SULTANS COURT","WILLIAMSVILLE","NY",14221,43.009726034,-78.727671876,198,"22 SULTANS COURT, WILLIAMSVILLE, NY, 14221","Match","Exact","22 SULTANS CT, WILLIAMSVILLE, NY, 14221",48318383,"R"
120199,"22 SUMMIT STREET","RIDGEFIELD PARK","NJ",7660,40.860282544,-74.027756321,199,"22 SUMMIT STREET, RIDGEFIELD PARK, NJ, 7660","Match","Exact","22 SUMMIT ST, RIDGEFIELD PARK, NJ, 07660",64397576,"L"
120200,"22 SUNRIDGE DR","MORGANTOWN","WV",26505,39.651006346,-79.947852595,200,"22 SUNRIDGE DR, MORGANTOWN, WV, 26505","Match","Exact","22 SUNRIDGE DR, MORGANTOWN, WV, 26505",624831520,"R"
120201,"22 SWATLING RD","LATHAM","NY",12110,42.7423002840001,-73.73579441,201,"22 SWATLING RD, LATHAM, NY, 12110","Match","Exact","22 SWATLING RD, LATHAM, NY, 12110",18307140,"L"
120202,"22 SWEENEY RIDGE ROAD","BEDFORD","MA",1730,42.5060618900001,-71.259350587,202,"22 SWEENEY RIDGE ROAD, BEDFORD, MA, 1730","Match","Exact","22 SWEENEY RIDGE RD, BEDFORD, MA, 01730",86926885,"R"
120203,"22 SWEETOAK COURT","COLUMBIA","SC",29223,34.0814764360001,-80.882544701,203,"22 SWEETOAK COURT, COLUMBIA, SC, 29223","Match","Exact","22 SWEETOAK CT, COLUMBIA, SC, 29223",624508481,"R"
120204,"22 SWEETWOOD DRIVE","RANDOLPH","NJ",7869,40.853368088,-74.6001198129999,204,"22 SWEETWOOD DRIVE, RANDOLPH, NJ, 7869","Match","Exact","22 SWEETWOOD DR, RANDOLPH, NJ, 07869",60471768,"L"
120205,"22 TEAL CT","BREVARD","NC",28712,35.239045698,-82.754779995,205,"22 TEAL CT, BREVARD, NC, 28712","Match","Exact","22 TEAL CT, BREVARD, NC, 28712",133741999,"R"
120206,"22 TERRA VISTA AVE APT G20","SAN FRANCISCO","CA",94115,37.7814563330001,-122.441861144,206,"22 TERRA VISTA AVE APT G20, SAN FRANCISCO, CA, 94115","Match","Exact","22 TERRA VISTA AVE, SAN FRANCISCO, CA, 94115",192283239,"R"
120207,"22 THANES WAY","MARTINSBURG","WV",25403,39.4635734340001,-78.001175103,207,"22 THANES WAY, MARTINSBURG, WV, 25403","Match","Exact","22 THANES WAY, MARTINSBURG, WV, 25403",123388289,"R"
120208,"22 TILTON STREET APT 3","NEW HAVEN","CT",6511,41.3201083610001,-72.9265706799999,208,"22 TILTON STREET APT 3, NEW HAVEN, CT, 6511","Match","Exact","22 TILTON ST, NEW HAVEN, CT, 06511",3699799,"R"
120209,"22 TINA LANE","BURLINGTON","NJ",8016,40.0649441750001,-74.889955024,209,"22 TINA LANE, BURLINGTON, NJ, 8016","Match","Exact","22 TINA LN, BURLINGTON, NJ, 08016",134059701,"R"
120210,"22 TOWN GARDEN DR APT 9","LIVERPOOL","NY",13088,NA,NA,210,"22 TOWN GARDEN DR APT 9, LIVERPOOL, NY, 13088","No_Match",NA,NA,NA,NA
120211,"22 TOWSEN RD","WAYNE","NJ",7470,40.9404605080001,-74.20739596,211,"22 TOWSEN RD, WAYNE, NJ, 7470","Match","Exact","22 TOWSEN RD, WAYNE, NJ, 07470",65260139,"R"
120212,"22 TRACEY STREET","NORWALK","CT",6850,41.1217127780001,-73.431482788,212,"22 TRACEY STREET, NORWALK, CT, 6850","Match","Exact","22 TRACEY ST, NORWALK, CT, 06850",3249352,"R"
120213,"22 TREE TOP LANE","BROAD BROOK","CT",6016,41.9103559820001,-72.5270960029999,213,"22 TREE TOP LANE, BROAD BROOK, CT, 6016","Match","Exact","22 TREE TOP LN, BROAD BROOK, CT, 06016",604934064,"R"
120214,"22 TROWBRIDGE STREET","CAMBRIDGE","MA",2138,42.3711467860001,-71.112200464,214,"22 TROWBRIDGE STREET, CAMBRIDGE, MA, 2138","Match","Exact","22 TROWBRIDGE ST, CAMBRIDGE, MA, 02138",86868741,"R"
120215,"22 TULIP CIRCLE","HAVERHILL","MA",1830,42.812784881,-71.096782028,215,"22 TULIP CIRCLE, HAVERHILL, MA, 1830","Match","Exact","22 TULIP CIR, HAVERHILL, MA, 01830",86674578,"R"
120216,"22 VALLEYVIEW ST W","MORRISTOWN","NJ",7960,40.8102046720001,-74.509915367,216,"22 VALLEYVIEW ST W, MORRISTOWN, NJ, 7960","Match","Exact","22 VALLEYVIEW ST W, MORRISTOWN, NJ, 07960",636111104,"L"
120217,"22 VERDUN AVENUE","NEW ROCHELLE","NY",10804,40.9523667180001,-73.79184928,217,"22 VERDUN AVENUE, NEW ROCHELLE, NY, 10804","Match","Exact","22 VERDUN AVE, NEW ROCHELLE, NY, 10804",139842696,"L"
120218,"22 VERSAILLES WAY","NANUET","NY",10954,41.1166039840001,-74.028261218,218,"22 VERSAILLES WAY, NANUET, NY, 10954","Match","Exact","22 VERSAILLES WAY, NANUET, NY, 10954",653733371,"L"
120219,"22 VIOLET ROAD","BETSY LAYNE","KY",41605,37.555090287,-82.636604759,219,"22 VIOLET ROAD, BETSY LAYNE, KY, 41605","Match","Exact","22 VIOLET RD, BETSY LAYNE, KY, 41605",33604350,"R"
120220,"22 VISTA AVENUE","STATEN ISLAND","NY",10304,40.5970345270001,-74.094562598,220,"22 VISTA AVENUE, STATEN ISLAND, NY, 10304","Match","Exact","22 VISTA AVE, STATEN ISLAND, NY, 10304",59868461,"L"
120221,"22 VISTA LN","HOLLISTER","CA",95023,36.856706451,-121.413630244,221,"22 VISTA LN, HOLLISTER, CA, 95023","Match","Exact","22 VISTA LN, HOLLISTER, CA, 95023",125452042,"R"
120222,"22 VLY ROAD","ALBANY","NY",12205,42.7321218450001,-73.846011859,222,"22 VLY ROAD, ALBANY, NY, 12205","Match","Exact","22 VLY RD, ALBANY, NY, 12205",18326435,"L"
120223,"22 W 25TH STREET APT 4G","BAYONNE","NJ",7002,NA,NA,223,"22 W 25TH STREET APT 4G, BAYONNE, NJ, 7002","Tie",NA,NA,NA,NA
120224,"22 W 7TH STREET","CINCINNATI","OH",45212,39.103604777,-84.514260002,224,"22 W 7TH STREET, CINCINNATI, OH, 45212","Match","Non_Exact","22 W 7TH ST, CINCINNATI, OH, 45202",647370508,"R"
120225,"22 W FACTORY RD","BERLIN","NJ",8009,39.760164757,-74.920227762,225,"22 W FACTORY RD, BERLIN, NJ, 8009","Match","Exact","22 W FACTORY RD, BERLIN, NJ, 08009",632485905,"L"
120226,"22 W KIOWA ST","COLORADO SPRINGS","CO",80903,38.8359202660001,-104.827157849,226,"22 W KIOWA ST, COLORADO SPRINGS, CO, 80903","Match","Exact","22 W KIOWA ST, COLORADO SPRINGS, CO, 80903",610729076,"R"
120227,"22 W LIVE OAK AVE","ARCADIA","CA",91007,34.107109333,-118.032601466,227,"22 W LIVE OAK AVE, ARCADIA, CA, 91007","Match","Exact","22 W LIVE OAK AVE, ARCADIA, CA, 91007",141645538,"R"
120228,"22 W MAIN AVE APT 8","SPOKANE","WA",99201,47.659088743,-117.411473979,228,"22 W MAIN AVE APT 8, SPOKANE, WA, 99201","Match","Non_Exact","22 W MAIN AVE, SPOKANE, WA, 99201",189876954,"R"
120229,"22 W MINGLEWOOD DR","MIDDLETOWN","DE",19709,39.4316987770001,-75.7154170219999,229,"22 W MINGLEWOOD DR, MIDDLETOWN, DE, 19709","Match","Exact","22 W MINGLEWOOD DR, MIDDLETOWN, DE, 19709",187293567,"L"
120230,"22 W OHIO ST","BUTLER","MO",64730,38.2585060050001,-94.332150605,230,"22 W OHIO ST, BUTLER, MO, 64730","Match","Exact","22 W OHIO ST, BUTLER, MO, 64730",44779615,"R"
120231,"22 W SANDAL ROAD","COCHISE","AZ",85606,NA,NA,231,"22 W SANDAL ROAD, COCHISE, AZ, 85606","No_Match",NA,NA,NA,NA
120232,"22 W WASHINGTON ST STE 1","PETERSBURG","VA",23803,NA,NA,232,"22 W WASHINGTON ST STE 1, PETERSBURG, VA, 23803","Tie",NA,NA,NA,NA
120233,"22 WADSWORTH LANE","WALLINGFORD","CT",6492,41.4762247950001,-72.867874533,233,"22 WADSWORTH LANE, WALLINGFORD, CT, 6492","Match","Exact","22 WADSWORTH LN, WALLINGFORD, CT, 06492",640684856,"R"
120234,"22 WAGON WHEEL RD","SHERMAN","CT",6784,41.546479226,-73.4848181149999,234,"22 WAGON WHEEL RD, SHERMAN, CT, 6784","Match","Exact","22 WAGON WHEEL RD, SHERMAN, CT, 06784",3229395,"R"
120235,"22 WALDRON ROAD","BRAINTREE","MA",2184,42.1776088180001,-71.015445281,235,"22 WALDRON ROAD, BRAINTREE, MA, 2184","Match","Exact","22 WALDRON RD, BRAINTREE, MA, 02184",87268622,"L"
120236,"22 WALECO RD","BROCKTON","MA",2302,42.1013516570001,-70.995119568,236,"22 WALECO RD, BROCKTON, MA, 2302","Match","Exact","22 WALECO RD, BROCKTON, MA, 02302",87442814,"L"
120237,"22 WALES ROAD","BRIMFIELD","MA",1010,42.120531268,-72.200906674,237,"22 WALES ROAD, BRIMFIELD, MA, 1010","Match","Exact","22 WALES RD, BRIMFIELD, MA, 01010",4056774,"L"
120238,"22 WALTON AVE","WHITE PLAINS","NY",10606,41.0167846790001,-73.7790059879999,238,"22 WALTON AVE, WHITE PLAINS, NY, 10606","Match","Exact","22 WALTON AVE, WHITE PLAINS, NY, 10606",139739061,"R"
120239,"22 WARD LANE","SHERBORN","MA",1770,42.2149725950001,-71.396888663,239,"22 WARD LANE, SHERBORN, MA, 1770","Match","Exact","22 WARD LN, SHERBORN, MA, 01770",86851235,"L"
120240,"22 WAYNE AVE APT 202","STUARTS DRAFT","VA",24477,38.024967243,-79.032245557,240,"22 WAYNE AVE APT 202, STUARTS DRAFT, VA, 24477","Match","Exact","22 WAYNE AVE, STUARTS DRAFT, VA, 24477",98818312,"L"
120241,"22 WEBSTER AVE APT 1 A","BROOKLYN","NY",11230,40.6292407830001,-73.978319584,241,"22 WEBSTER AVE APT 1 A, BROOKLYN, NY, 11230","Match","Exact","22 WEBSTER AVE, BROOKLYN, NY, 11230",59080795,"R"
120242,"22 WEBSTER LANE","CARBONDALE","IL",62902,37.7411962690001,-89.1540930039999,242,"22 WEBSTER LANE, CARBONDALE, IL, 62902","Match","Exact","22 WEBSTER LN, CARBONDALE, IL, 62902",95072855,"R"
120243,"22 WEST 48TH STREET SUITE 902","NEW YORK","NY",10036,40.757693509,-73.979089667,243,"22 WEST 48TH STREET SUITE 902, NEW YORK, NY, 10036","Match","Exact","22 W 48TH ST, NEW YORK, NY, 10036",59657159,"L"
120244,"22 WEST 66TH STREET","NEW YORK","NY",10023,40.7727168690001,-73.979454375,244,"22 WEST 66TH STREET, NEW YORK, NY, 10023","Match","Exact","22 W 66TH ST, NEW YORK, NY, 10023",59657044,"L"
120245,"22 WEST PEARL STREET - SUITE 2","COLDWATER","MI",49036,41.9394884880001,-85.001827851,245,"22 WEST PEARL STREET - SUITE 2, COLDWATER, MI, 49036","Match","Exact","22 W PEARL ST, COLDWATER, MI, 49036",8211884,"R"
120246,"22 WEST SHIRLEY STREET","MOUNT UNION","PA",17066,40.384672703,-77.8833193199999,246,"22 WEST SHIRLEY STREET, MOUNT UNION, PA, 17066","Match","Exact","22 W SHIRLEY ST, MOUNT UNION, PA, 17066",50604309,"R"
120247,"22 WEST WASHINGTON - SUITE 1500","CHICAGO","IL",60602,41.88322415,-87.628619245,247,"22 WEST WASHINGTON - SUITE 1500, CHICAGO, IL, 60602","Match","Non_Exact","22 W WASHINGTON ST, CHICAGO, IL, 60602",111768773,"R"
120248,"22 WEST WASHINGTON SUITE 1500","CHICAGO","IL",60602,41.88322415,-87.628619245,248,"22 WEST WASHINGTON SUITE 1500, CHICAGO, IL, 60602","Match","Non_Exact","22 W WASHINGTON ST, CHICAGO, IL, 60602",111768773,"R"
120249,"22 WESTBANK EXPRESSWAY","GRENTA","LA",70053,29.911418719,-90.052766807,249,"22 WESTBANK EXPRESSWAY, GRENTA, LA, 70053","Match","Non_Exact","22 WESTBANK EXPY, GRETNA, LA, 70053",93541611,"L"
120250,"22 WESTOVER CIRCLE","MAYS LANDING","NJ",8330,39.4291889570001,-74.634640097,250,"22 WESTOVER CIRCLE, MAYS LANDING, NJ, 8330","Match","Exact","22 WESTOVER CIR, MAYS LANDING, NJ, 08330",627224264,"R"
120251,"22 WHITECLOUD","IRVINE","CA",92614,33.672662109,-117.808072952,251,"22 WHITECLOUD, IRVINE, CA, 92614","Match","Exact","22 WHITECLOUD, IRVINE, CA, 92614",144118900,"R"
120252,"22 WHITLOCK LN","RIDGEFIELD","CT",6877,41.341635753,-73.504185101,252,"22 WHITLOCK LN, RIDGEFIELD, CT, 6877","Match","Exact","22 WHITLOCK LN, RIDGEFIELD, CT, 06877",3254928,"R"
120253,"22 WILDER TERRACE","ROCHESTER","NY",14612,43.2595987230001,-77.611456728,253,"22 WILDER TERRACE, ROCHESTER, NY, 14612","Match","Exact","22 WILDER TER, ROCHESTER, NY, 14612",14535546,"L"
120254,"22 WILDWOOD LANE","MOUNT VERNON","OH",43050,40.394032226,-82.441488186,254,"22 WILDWOOD LANE, MOUNT VERNON, OH, 43050","Match","Exact","22 WILDWOOD LN, MOUNT VERNON, OH, 43050",24674116,"L"
120255,"22 WILLIAMSBURG LANE","HOUSTON","TX",77024,29.768251134,-95.531517701,255,"22 WILLIAMSBURG LANE, HOUSTON, TX, 77024","Match","Exact","22 WILLIAMSBURG LN, HOUSTON, TX, 77024",96029759,"R"
120256,"22 WILLOW AVE","PORTSMOUTH","RI",2842,41.5124009240001,-71.299371884,256,"22 WILLOW AVE, PORTSMOUTH, RI, 2842","Match","Non_Exact","22 WILLOW AVE, MIDDLETOWN, RI, 02842",47347018,"L"
120257,"22 WILLOW AVENUE","SALEM","MA",1970,42.5099350560001,-70.8888614639999,257,"22 WILLOW AVENUE, SALEM, MA, 1970","Match","Exact","22 WILLOW AVE, SALEM, MA, 01970",86643923,"R"
120258,"22 WILLOW ST","MILLBURN","NJ",7041,40.7177685570001,-74.308824122,258,"22 WILLOW ST, MILLBURN, NJ, 7041","Match","Exact","22 WILLOW ST, MILLBURN, NJ, 07041",63461816,"L"
120259,"22 WILLOWBROOK DRIVE","BENNINGTON","VT",5201,42.8986071690001,-73.2057003359999,259,"22 WILLOWBROOK DRIVE, BENNINGTON, VT, 5201","Match","Non_Exact","22 WILLOW BROOK DR, BENNINGTON, VT, 05201",139202253,"R"
120260,"22 WINDING RIVER COURT","LAKEWOOD","NJ",8701,40.058034778,-74.2359933939999,260,"22 WINDING RIVER COURT, LAKEWOOD, NJ, 8701","Match","Exact","22 WINDING RIVER CT, LAKEWOOD, NJ, 08701",203769831,"L"
120261,"22 WINDMILL CIRCLE","IRMO","SC",29063,34.113794511,-81.1598741189999,261,"22 WINDMILL CIRCLE, IRMO, SC, 29063","Match","Exact","22 WINDMILL CIR, IRMO, SC, 29063",71816217,"L"
120262,"22 WINDRIFT CT","EASTON","PA",18045,40.6653498270001,-75.258290148,262,"22 WINDRIFT CT, EASTON, PA, 18045","Match","Exact","22 WINDRIFT CT, EASTON, PA, 18045",612303396,"R"
120263,"22 WINDWOOD DRIVE","NEWBURGH","NY",12550,41.5203446130001,-74.120503839,263,"22 WINDWOOD DRIVE, NEWBURGH, NY, 12550","Match","Exact","22 WINDWOOD DR, NEWBURGH, NY, 12550",124411039,"L"
120264,"22 WINDWOOD RD","BROOKFIELD","CT",6804,41.477832339,-73.356059617,264,"22 WINDWOOD RD, BROOKFIELD, CT, 6804","Match","Exact","22 WINDWOOD RD, BROOKFIELD, CT, 06804",3233976,"L"
120265,"22 WINTERBERRY DRIVE","FRANKLIN","MA",2038,42.1150292450001,-71.4013867629999,265,"22 WINTERBERRY DRIVE, FRANKLIN, MA, 2038","Match","Exact","22 WINTERBERRY DR, FRANKLIN, MA, 02038",87279553,"L"
120266,"22 WINTHROP ST","ROXBURY","MA",2119,42.326303748,-71.0817606479999,266,"22 WINTHROP ST, ROXBURY, MA, 2119","Match","Exact","22 WINTHROP ST, ROXBURY, MA, 02119",85700559,"L"
120267,"22 WINWOOD ROAD","NEWARK","DE",19711,39.689393764,-75.717818828,267,"22 WINWOOD ROAD, NEWARK, DE, 19711","Match","Non_Exact","22 WINNWOOD RD, NEWARK, DE, 19711",187264083,"L"
120268,"22 WOODS BAY RD","BLUFFTON","SC",29910,32.275332484,-80.9242903749999,268,"22 WOODS BAY RD, BLUFFTON, SC, 29910","Match","Exact","22 WOODS BAY RD, BLUFFTON, SC, 29910",631649014,"R"
120269,"22 WRIGHT AVE","ROBERTA","GA",31078,NA,NA,269,"22 WRIGHT AVE, ROBERTA, GA, 31078","No_Match",NA,NA,NA,NA
120270,"22 WYCKHAM ROAD","SPRING LAKE","NJ",7762,40.158758376,-74.036892874,270,"22 WYCKHAM ROAD, SPRING LAKE, NJ, 7762","Match","Exact","22 WYCKHAM RD, SPRING LAKE, NJ, 07762",90492592,"R"
120271,"22 YANKEE WAY","BEVERLY","MA",1915,42.570091474,-70.8610661669999,271,"22 YANKEE WAY, BEVERLY, MA, 1915","Match","Exact","22 YANKEE WAY, BEVERLY, MA, 01915",623962169,"R"
120272,"22 YAPLES ORCHARD DRIVE","CHILLICOTHE","OH",45601,39.3466241290001,-83.01212291,272,"22 YAPLES ORCHARD DRIVE, CHILLICOTHE, OH, 45601","Match","Exact","22 YAPLES ORCHARD DR, CHILLICOTHE, OH, 45601",604879446,"R"
120273,"22-12 38TH STREET","ASTORIA","NY",11105,40.773048262,-73.9071852769999,273,"22-12 38TH STREET, ASTORIA, NY, 11105","Match","Exact","22-12 38TH ST, ASTORIA, NY, 11105",59697343,"R"
120274,"22-17 125TH STREET","QUEENS","NY",11356,40.779818123,-73.843310247,274,"22-17 125TH STREET, QUEENS, NY, 11356","Match","Non_Exact","22 125TH ST, COLLEGE POINT, NY, 11356",59699928,"L"
120275,"22-24 99 STREET","EAST ELMHURST","NY",11369,40.769809622,-73.8717895199999,275,"22-24 99 STREET, EAST ELMHURST, NY, 11369","Match","Exact","22-24 99TH ST, EAST ELMHURST, NY, 11369",59699206,"R"
120276,"22-24 WEST 128TH STREET SUITE 1B","NEW YORK","NY",10027,40.8086786540001,-73.941683427,276,"22-24 WEST 128TH STREET SUITE 1B, NEW YORK, NY, 10027","Match","Exact","22 W 128TH ST, NEW YORK, NY, 10027",59656427,"L"
120277,"22-26 N 9TH STREET","NEWARK","NJ",7107,40.7560385670001,-74.19235793,277,"22-26 N 9TH STREET, NEWARK, NJ, 7107","Match","Exact","22 N 9TH ST, NEWARK, NJ, 07107",63452205,"L"
120278,"22-27 41ST STREET","ASTORIA","NY",11105,40.771800688,-73.905979714,278,"22-27 41ST STREET, ASTORIA, NY, 11105","Match","Exact","22-27 41ST ST, ASTORIA, NY, 11105",59697347,"L"
120279,"22-27 CRESCENT STREET","ASTORIA","NY",11105,40.7782514900001,-73.9150776659999,279,"22-27 CRESCENT STREET, ASTORIA, NY, 11105","Match","Exact","22-27 CRESCENT ST, ASTORIA, NY, 11105",59696921,"L"
120280,"22-28 38TH STREET","ASTORIA","NY",11105,40.772805691,-73.9074813239999,280,"22-28 38TH STREET, ASTORIA, NY, 11105","Match","Exact","22-28 38TH ST, ASTORIA, NY, 11105",59697343,"R"
120281,"22-46 43RD STREET","ASTORIA","NY",11105,40.7704947190001,-73.90493402,281,"22-46 43RD STREET, ASTORIA, NY, 11105","Match","Exact","22-46 43RD ST, ASTORIA, NY, 11105",59697358,"R"
120282,"22-51 29 STREET","ASTORIA","NY",11105,40.7758317760001,-73.912906022,282,"22-51 29 STREET, ASTORIA, NY, 11105","Match","Exact","22-51 29TH ST, ASTORIA, NY, 11105",59697017,"L"
120283,"22-5A WINDING WOOD DR","SAYREVILLE","NJ",8872,NA,NA,283,"22-5A WINDING WOOD DR, SAYREVILLE, NJ, 8872","No_Match",NA,NA,NA,NA
120284,"22","EDISON","NJ",8820,NA,NA,284,"22, EDISON, NJ, 8820","No_Match",NA,NA,NA,NA
120285,"22","PLAINFIELD","IL",60544,NA,NA,285,"22, PLAINFIELD, IL, 60544","No_Match",NA,NA,NA,NA
120286,"220  W AVENIDA CORDOBA","SAN CLEMENTE","CA",92672,33.417705106,-117.610593888,286,"220  W AVENIDA CORDOBA, SAN CLEMENTE, CA, 92672","Match","Exact","220 W AVE CORDOBA, SAN CLEMENTE, CA, 92672",144076205,"R"
120287,"220 10TH AVENUE SOUTH","NAMPA","ID",83651,43.579275733,-116.563093998,287,"220 10TH AVENUE SOUTH, NAMPA, ID, 83651","Match","Exact","220 10TH AVE S, NAMPA, ID, 83651",122786907,"R"
120288,"220 11TH STREET SW","NAPLES","FL",34117,26.225525976,-81.628855962,288,"220 11TH STREET SW, NAPLES, FL, 34117","Match","Exact","220 11TH ST SW, NAPLES, FL, 34117",115134630,"R"
120289,"220 12TH STREET","MARINA","CA",93933,36.668567223,-121.804587162,289,"220 12TH STREET, MARINA, CA, 93933","Match","Exact","220 12TH ST, MARINA, CA, 93933",196816934,"L"
120290,"220 13TH AVE EAST","MENOMONIE","WI",54751,44.871065806,-91.928114281,290,"220 13TH AVE EAST, MENOMONIE, WI, 54751","Match","Exact","220 13TH AVE E, MENOMONIE, WI, 54751",649517673,"L"
120291,"220 16TH STREET SE","WASHINGTON","DC",20003,38.8869190460001,-76.98220606,291,"220 16TH STREET SE, WASHINGTON, DC, 20003","Match","Exact","220 16TH ST SE, WASHINGTON, DC, 20003",76230514,"L"
120292,"220 18TH ST CIR SE","HICKORY","NC",28602,NA,NA,292,"220 18TH ST CIR SE, HICKORY, NC, 28602","Tie",NA,NA,NA,NA
120293,"220 2ND AVE S","SEATTLE","WA",98104,47.600662024,-122.331563175,293,"220 2ND AVE S, SEATTLE, WA, 98104","Match","Exact","220 2ND AVE S, SEATTLE, WA, 98104",186589687,"L"
120294,"220 2ND AVENUE EAST SUITE B6","ONEONTA","AL",35121,33.9457388000001,-86.476238871,294,"220 2ND AVENUE EAST SUITE B6, ONEONTA, AL, 35121","Match","Exact","220 2ND AVE E, ONEONTA, AL, 35121",99067146,"L"
120295,"220 36TH STREET SUITE B521","BROOKLYN","NY",11232,40.656623257,-74.008244581,295,"220 36TH STREET SUITE B521, BROOKLYN, NY, 11232","Match","Exact","220 36TH ST, BROOKLYN, NY, 11232",59099520,"L"
120296,"220 36TH STREET UNIT 106","BROOKLYN","NY",11232,40.656623257,-74.008244581,296,"220 36TH STREET UNIT 106, BROOKLYN, NY, 11232","Match","Exact","220 36TH ST, BROOKLYN, NY, 11232",59099520,"L"
120297,"220 3RD STREET EAST","MOBRIDGE","SD",57601,45.53536853,-100.43209224,297,"220 3RD STREET EAST, MOBRIDGE, SD, 57601","Match","Exact","220 3RD ST E, MOBRIDGE, SD, 57601",198541654,"R"
120298,"220 59TH AVENUE SOUTH","S","FL",33705,27.714602891,-82.635638404,298,"220 59TH AVENUE SOUTH, S, FL, 33705","Match","Non_Exact","220 59TH AVE S, SAINT PETERSBURG, FL, 33705",124711674,"L"
120299,"220 ADAMS AVENUE","COVINGTON","KY",41014,39.059364483,-84.499894954,299,"220 ADAMS AVENUE, COVINGTON, KY, 41014","Match","Exact","220 ADAMS AVE, COVINGTON, KY, 41014",103877323,"L"
120300,"220 ALANNA LANE","JENA","LA",71342,31.596644122,-92.125806078,300,"220 ALANNA LANE, JENA, LA, 71342","Match","Exact","220 ALANNA LN, JENA, LA, 71342",13303072,"L"
120301,"220 ALCANTAR CIRCLE","SACRAMENTO","CA",95834,38.6277174480001,-121.540172396,301,"220 ALCANTAR CIRCLE, SACRAMENTO, CA, 95834","Match","Exact","220 ALCANTAR CIR, SACRAMENTO, CA, 95834",133409129,"L"
120302,"220 ALDENWOOD PL","APEX","NC",27539,35.6655169430001,-78.8129649969999,302,"220 ALDENWOOD PL, APEX, NC, 27539","Match","Exact","220 ALDENWOOD PL, APEX, NC, 27539",639451020,"R"
120303,"220 ALHAMBRA CIRCLE SUITE 310","CORAL GABLES","FL",33134,25.7520964620001,-80.2592407449999,303,"220 ALHAMBRA CIRCLE SUITE 310, CORAL GABLES, FL, 33134","Match","Exact","220 ALHAMBRA CIR, CORAL GABLES, FL, 33134",116266098,"L"
120304,"220 ANN DR","MIDDLETOWN","DE",19709,39.538731806,-75.659556471,304,"220 ANN DR, MIDDLETOWN, DE, 19709","Match","Exact","220 ANN DR, MIDDLETOWN, DE, 19709",648699948,"R"
120305,"220 AUTUMN DRIVE","CHAPEL HILL","NC",27516,35.9355593870001,-79.095105452,305,"220 AUTUMN DRIVE, CHAPEL HILL, NC, 27516","Match","Exact","220 AUTUMN DR, CHAPEL HILL, NC, 27516",72406063,"L"
120306,"220 AVONDALE AVENUE SUITE 101","WILMINGTON","NC",28404,34.2089362740001,-77.8651560389999,306,"220 AVONDALE AVENUE SUITE 101, WILMINGTON, NC, 28404","Match","Non_Exact","220 AVONDALE AVE, WILMINGTON, NC, 28403",152755452,"R"
120307,"220 BABYLON STREET","ISLIP TERRACE","NY",11752,40.771892687,-73.1782370179999,307,"220 BABYLON STREET, ISLIP TERRACE, NY, 11752","Match","Exact","220 BABYLON ST, ISLIP TERRACE, NY, 11752",624401636,"L"
120308,"220 BAKER ROAD","WYNCOTE","PA",19095,NA,NA,308,"220 BAKER ROAD, WYNCOTE, PA, 19095","No_Match",NA,NA,NA,NA
120309,"220 BAPTIST BRANCH ROAD","BLAKELY","GA",39823,31.370863689,-84.9438149429999,309,"220 BAPTIST BRANCH ROAD, BLAKELY, GA, 39823","Match","Exact","220 BAPTIST BRANCH RD, BLAKELY, GA, 39823",149773025,"R"
120310,"220 BAY ST NW","FWB","FL",32548,30.425950771,-86.661744438,310,"220 BAY ST NW, FWB, FL, 32548","Match","Non_Exact","220 BAY ST NW, OKALOOSA IS, FL, 32548",74388641,"L"
120311,"220 BAYFIELD COURT","ALPHARETTA","GA",30004,34.1093147450001,-84.275327182,311,"220 BAYFIELD COURT, ALPHARETTA, GA, 30004","Match","Exact","220 BAYFIELD CT, ALPHARETTA, GA, 30004",17391347,"L"
120312,"220 BEAR RIVER DRIVE","EVANSTON","WY",82930,41.271103844,-110.947231337,312,"220 BEAR RIVER DRIVE, EVANSTON, WY, 82930","Match","Exact","220 BEAR RIVER DR, EVANSTON, WY, 82930",606033680,"R"
120313,"220 BEAR TRAIL","NEW BERN","NC",28562,34.9853356290001,-76.9819212199999,313,"220 BEAR TRAIL, NEW BERN, NC, 28562","Match","Exact","220 BEAR TRL, NEW BERN, NC, 28562",625295358,"R"
120314,"220 BEDELL AVENUE","HEMPSTEAD","NY",11550,40.712682828,-73.642121694,314,"220 BEDELL AVENUE, HEMPSTEAD, NY, 11550","Match","Exact","220 BEDELL AVE, HEMPSTEAD, NY, 11550",147673516,"R"
120315,"220 BENICIA ROAD","DIAMOND BAR","CA",91765,34.024095603,-117.806684829,315,"220 BENICIA ROAD, DIAMOND BAR, CA, 91765","Match","Exact","220 BENICIA RD, DIAMOND BAR, CA, 91765",141730446,"L"
120316,"220 BENNETTAVE","COUNCIL BLUFFS","IA",51503,NA,NA,316,"220 BENNETTAVE, COUNCIL BLUFFS, IA, 51503","No_Match",NA,NA,NA,NA
120317,"220 BETHANY PIKE","WHEELING","WV",26003,40.0859155640001,-80.691679041,317,"220 BETHANY PIKE, WHEELING, WV, 26003","Match","Non_Exact","220 BETHANY PIKE RD, WHEELING, WV, 26003",649869434,"R"
120318,"220 BIDDEFORD PLACE","GREENVILLE","SC",29609,34.916101939,-82.366848466,318,"220 BIDDEFORD PLACE, GREENVILLE, SC, 29609","Match","Exact","220 BIDDEFORD PL, GREENVILLE, SC, 29609",624449117,"R"
120319,"220 BIRCH RUN","FLORENCE","AL",35633,34.8777340830001,-87.67980213,319,"220 BIRCH RUN, FLORENCE, AL, 35633","Match","Exact","220 BIRCH RUN, FLORENCE, AL, 35633",41312685,"R"
120320,"220 BLACKBURN BLVD","NORTH PORT","FL",34287,27.0442993400001,-82.269385873,320,"220 BLACKBURN BLVD, NORTH PORT, FL, 34287","Match","Exact","220 BLACKBURN BLVD, NORTH PORT, FL, 34287",16408467,"L"
120321,"220 BOLARO LANE","OXNARD","CA",93036,34.220781183,-119.176015464,321,"220 BOLARO LANE, OXNARD, CA, 93036","Match","Non_Exact","220 BOLERO LN, OXNARD, CA, 93036",110110968,"L"
120322,"220 BROAD STREET","NEW BETHLEHEM","PA",16242,41.000119021,-79.3400232129999,322,"220 BROAD STREET, NEW BETHLEHEM, PA, 16242","Match","Exact","220 BROAD ST, NEW BETHLEHEM, PA, 16242",52473001,"L"
120323,"220 BROADWAY AVE S STE 102","ROCHESTER","MN",55904,NA,NA,323,"220 BROADWAY AVE S STE 102, ROCHESTER, MN, 55904","No_Match",NA,NA,NA,NA
120324,"220 BROADWAY SUITE 402","LYNNFIELD","MA",1940,42.5089661220001,-71.0116611719999,324,"220 BROADWAY SUITE 402, LYNNFIELD, MA, 1940","Match","Exact","220 BROADWAY, LYNNFIELD, MA, 01940",647407152,"L"
120325,"220 BROOKE LYN TERRACE","PLEASANT GROVE","AL",35127,33.4921640650001,-86.9528337679999,325,"220 BROOKE LYN TERRACE, PLEASANT GROVE, AL, 35127","Match","Non_Exact","220 BROOKLYN TER, PLEASANT GROVE, AL, 35127",81691717,"L"
120326,"220 CALLE MANUEL DOMENECH UNIT 616","SAN JUAN","PR",918,NA,NA,326,"220 CALLE MANUEL DOMENECH UNIT 616, SAN JUAN, PR, 918","No_Match",NA,NA,NA,NA
120327,"220 CALLE MANUEL DOMENECH","SAN JUAN","PR",918,NA,NA,327,"220 CALLE MANUEL DOMENECH, SAN JUAN, PR, 918","No_Match",NA,NA,NA,NA
120328,"220 CAMBRIDGE DR","LAFAYETTE","LA",70503,30.189532145,-92.056675548,328,"220 CAMBRIDGE DR, LAFAYETTE, LA, 70503","Match","Exact","220 CAMBRIDGE DR, LAFAYETTE, LA, 70503",85627999,"R"
120329,"220 CAMPBELL COURT","BASSETT","VA",24055,36.7562671680001,-79.9823555199999,329,"220 CAMPBELL COURT, BASSETT, VA, 24055","Match","Exact","220 CAMPBELL CT, BASSETT, VA, 24055",55510399,"R"
120330,"220 CASEY AVE","RICHLAND","WA",99352,46.2652175740001,-119.277042577,330,"220 CASEY AVE, RICHLAND, WA, 99352","Match","Exact","220 CASEY AVE, RICHLAND, WA, 99352",174988571,"R"
120331,"220 CEDAR GROVE LOOP","BOLIVAR","TN",38008,35.3027375,-89.0755908679999,331,"220 CEDAR GROVE LOOP, BOLIVAR, TN, 38008","Match","Exact","220 CEDAR GROVE LOOP, BOLIVAR, TN, 38008",21121191,"L"
120332,"220 CEDAR ST S","EAST CANTON","OH",44730,40.7858824080001,-81.2840963419999,332,"220 CEDAR ST S, EAST CANTON, OH, 44730","Match","Exact","220 CEDAR ST S, EAST CANTON, OH, 44730",64688723,"L"
120333,"220 CENTER AVENUE","APTOS","CA",95003,36.9745056310001,-121.908697058,333,"220 CENTER AVENUE, APTOS, CA, 95003","Match","Exact","220 CENTER AVE, APTOS, CA, 95003",125510203,"R"
120334,"220 CHARLES ST","PITTSBURGH","PA",15210,40.4165661370001,-79.991238803,334,"220 CHARLES ST, PITTSBURGH, PA, 15210","Match","Exact","220 CHARLES ST, PITTSBURGH, PA, 15210",51636653,"L"
120335,"220 CHESTER STREET","LAFAYETTE","LA",70501,30.248339738,-92.0045091869999,335,"220 CHESTER STREET, LAFAYETTE, LA, 70501","Match","Exact","220 CHESTER ST, LAFAYETTE, LA, 70501",85616930,"R"
120336,"220 CHURCH STREET - 584","WRANGELL","AK",99929,56.4720686370001,-132.383133909,336,"220 CHURCH STREET - 584, WRANGELL, AK, 99929","Match","Exact","220 CHURCH ST, WRANGELL, AK, 99929",647161017,"L"
120337,"220 CIDER DR","SHELBY","NC",28152,35.258242766,-81.4874068889999,337,"220 CIDER DR, SHELBY, NC, 28152","Match","Exact","220 CIDER DR, SHELBY, NC, 28152",19333132,"R"
120338,"220 CLAIREMONT DR","ELPASO","TX",79912,31.8258092230001,-106.530790571,338,"220 CLAIREMONT DR, ELPASO, TX, 79912","Match","Non_Exact","220 CLAIREMONT DR, EL PASO, TX, 79912",189336126,"L"
120339,"220 CLAREMONT AVE","SAN ANTONIO","TX",78209,29.4566446210001,-98.465180039,339,"220 CLAREMONT AVE, SAN ANTONIO, TX, 78209","Match","Exact","220 CLAREMONT AVE, SAN ANTONIO, TX, 78209",101525164,"R"
120340,"220 CLARK ST","WAHIAWA","HI",96786,21.501806631,-158.021094629,340,"220 CLARK ST, WAHIAWA, HI, 96786","Match","Exact","220 CLARK ST, WAHIAWA, HI, 96786",203222635,"R"
120341,"220 CLASSIC COURT","ROHNERT PARK","CA",94928,38.357330292,-122.709435398,341,"220 CLASSIC COURT, ROHNERT PARK, CA, 94928","Match","Exact","220 CLASSIC CT, ROHNERT PARK, CA, 94928",67471900,"L"
120342,"220 CLIFF MINE RD","CORAOPOLIS","PA",15108,40.4450605060001,-80.189143778,342,"220 CLIFF MINE RD, CORAOPOLIS, PA, 15108","Match","Exact","220 CLIFF MINE RD, CORAOPOLIS, PA, 15108",649984047,"L"
120343,"220 COFFMAN AVENUE","FOND DU LAC","WI",54935,43.7843884640001,-88.43073026,343,"220 COFFMAN AVENUE, FOND DU LAC, WI, 54935","Match","Exact","220 COFFMAN AVE, FOND DU LAC, WI, 54935",74834864,"L"
120344,"220 COLE AVENUE","PINEDALE","WY",82941,42.863948791,-109.873327594,344,"220 COLE AVENUE, PINEDALE, WY, 82941","Match","Exact","220 COLE AVE, PINEDALE, WY, 82941",149348630,"R"
120345,"220 COLONIAL VILLAGE DR","LINCOLNTON","NC",28092,35.494667657,-81.244458439,345,"220 COLONIAL VILLAGE DR, LINCOLNTON, NC, 28092","Match","Exact","220 COLONIAL VILLAGE DR, LINCOLNTON, NC, 28092",69536202,"L"
120346,"220 COMMERCIAL DR  SUITE  B - 146","HARKER HEIGHTS","TX",76546,31.0686541580001,-97.670574406,346,"220 COMMERCIAL DR  SUITE  B - 146, HARKER HEIGHTS, TX, 76546","Match","Non_Exact","220 COMMERICAL DR, HARKER HEIGHTS, TX, 76548",146142548,"R"
120347,"220 CONCOURSE BOULEVARD","SANTA ROSA","CA",95403,38.5123978660001,-122.788495843,347,"220 CONCOURSE BOULEVARD, SANTA ROSA, CA, 95403","Match","Exact","220 CONCOURSE BLVD, SANTA ROSA, CA, 95403",604985707,"R"
120348,"220 COOPER AVE","WOONSOCKET","RI",2895,41.9916278470001,-71.5061042949999,348,"220 COOPER AVE, WOONSOCKET, RI, 2895","Match","Exact","220 COOPER AVE, WOONSOCKET, RI, 02895",47447295,"L"
120349,"220 CORAL REEF CT","ROMEOVILLE","IL",60446,41.6345554050001,-88.1100474849999,349,"220 CORAL REEF CT, ROMEOVILLE, IL, 60446","Match","Exact","220 CORAL REEF CT, ROMEOVILLE, IL, 60446",645548433,"L"
120350,"220 COUNTY ROAD 1033","JEMISON","AL",35085,NA,NA,350,"220 COUNTY ROAD 1033, JEMISON, AL, 35085","No_Match",NA,NA,NA,NA
120351,"220 COUNTY ROAD 110","HOUSTON","MS",38851,33.919838714,-88.9778605239999,351,"220 COUNTY ROAD 110, HOUSTON, MS, 38851","Match","Exact","220 CO RD 110, HOUSTON, MS, 38851",607202802,"R"
120352,"220 COUNTY ROAD B","SHAWANO","WI",54166,NA,NA,352,"220 COUNTY ROAD B, SHAWANO, WI, 54166","No_Match",NA,NA,NA,NA
120353,"220 COURTYARD DRIVE","NORTH SIOUX CITY","SD",57049,42.5007949820001,-96.4934769989999,353,"220 COURTYARD DRIVE, NORTH SIOUX CITY, SD, 57049","Match","Exact","220 COURTYARD DR, NORTH SIOUX CITY, SD, 57049",176352492,"R"
120354,"220 CRAWFORD AVE","LANSDOWNE","PA",19050,39.9479667100001,-75.2709665469999,354,"220 CRAWFORD AVE, LANSDOWNE, PA, 19050","Match","Exact","220 CRAWFORD AVE, LANSDOWNE, PA, 19050",134877878,"L"
120355,"220 CREEKSIDE CIRCLE","HAMPTON","GA",30228,33.399862677,-84.277404684,355,"220 CREEKSIDE CIRCLE, HAMPTON, GA, 30228","Match","Exact","220 CREEKSIDE CIR, HAMPTON, GA, 30228",619927353,"L"
120356,"220 CROSS PARK DR","PEARL","MS",39208,32.2865828000001,-90.042397114,356,"220 CROSS PARK DR, PEARL, MS, 39208","Match","Exact","220 CROSS PARK DR, PEARL, MS, 39208",116922118,"L"
120357,"220 DAVIDSON AVE","SOMERSET","NJ",8873,40.5368086240001,-74.5241907879999,357,"220 DAVIDSON AVE, SOMERSET, NJ, 8873","Match","Exact","220 DAVIDSON AVE, SOMERSET, NJ, 08873",59968873,"L"
120358,"220 DAVIS LOVE DRIVE","CHAPEL HILL","NC",27517,35.785685076,-79.0563465019999,358,"220 DAVIS LOVE DRIVE, CHAPEL HILL, NC, 27517","Match","Exact","220 DAVIS LOVE DR, CHAPEL HILL, NC, 27517",600317129,"R"
120359,"220 DAWSONS PARK DRIVE","LEXINGTON","SC",29072,33.9824343600001,-81.293742525,359,"220 DAWSONS PARK DRIVE, LEXINGTON, SC, 29072","Match","Exact","220 DAWSONS PARK DR, LEXINGTON, SC, 29072",624318013,"R"
120360,"220 DEBORAH CT","NEW BADEN","IL",62265,38.5455599220001,-89.702640522,360,"220 DEBORAH CT, NEW BADEN, IL, 62265","Match","Exact","220 DEBORAH CT, NEW BADEN, IL, 62265",615623592,"L"
120361,"220 DICKINSON STREET","EWING","NJ",8638,40.2313548490001,-74.74361851,361,"220 DICKINSON STREET, EWING, NJ, 8638","Match","Exact","220 DICKINSON ST, EWING, NJ, 08638",60180639,"L"
120362,"220 DICKINSON STREET","TRENTON","NJ",8638,40.2313548490001,-74.74361851,362,"220 DICKINSON STREET, TRENTON, NJ, 8638","Match","Exact","220 DICKINSON ST, TRENTON, NJ, 08638",60180639,"L"
120363,"220 DOMENECH PMB 2042","SAN JUAN","PR",918,NA,NA,363,"220 DOMENECH PMB 2042, SAN JUAN, PR, 918","No_Match",NA,NA,NA,NA
120364,"220 DONATO CT","NAZARETH","PA",18064,40.7853134590001,-75.315649143,364,"220 DONATO CT, NAZARETH, PA, 18064","Match","Exact","220 DONATO CT, NAZARETH, PA, 18064",627071282,"L"
120365,"220 DOVE CT","LYNCHBURG","VA",24501,37.3906086430001,-79.203798385,365,"220 DOVE CT, LYNCHBURG, VA, 24501","Match","Exact","220 DOVE CT, LYNCHBURG, VA, 24501",62736129,"R"
120366,"220 DOVER ST","ST LOUIS","MO",63111,38.5609096380001,-90.244359491,366,"220 DOVER ST, ST LOUIS, MO, 63111","Match","Exact","220 DOVER ST, SAINT LOUIS, MO, 63111",107602084,"L"
120367,"220 E 141ST PL","DOLTON","IL",60419,41.638290059,-87.616538614,367,"220 E 141ST PL, DOLTON, IL, 60419","Match","Exact","220 E 141ST PL, DOLTON, IL, 60419",111778302,"L"
120368,"220 E 23RD STREET STE 900","NEW YORK","NY",10010,40.7383755280001,-73.9820723989999,368,"220 E 23RD STREET STE 900, NEW YORK, NY, 10010","Match","Non_Exact","220 E 23RD ST, NEW YORK, NY, 10010",639436265,"R"
120369,"220 E 45TH ST","HIBBING","MN",55746,47.39499248,-92.9389356519999,369,"220 E 45TH ST, HIBBING, MN, 55746","Match","Exact","220 E 45TH ST, HIBBING, MN, 55746",163168404,"L"
120370,"220 E 57TH STREET  APT 7F","NEW YORK","NY",10022,40.7598000130001,-73.966465977,370,"220 E 57TH STREET  APT 7F, NEW YORK, NY, 10022","Match","Non_Exact","220 E 57TH ST, NEW YORK, NY, 10022",59657510,"R"
120371,"220 E 6TH ST","LEADVILLE","CO",80461,39.2494278660001,-106.289158118,371,"220 E 6TH ST, LEADVILLE, CO, 80461","Match","Exact","220 E 6TH ST, LEADVILLE, CO, 80461",105939921,"L"
120372,"220 E ASHBRIDGE STREET","WEST CHESTER","PA",19380,39.968828962,-75.607279567,372,"220 E ASHBRIDGE STREET, WEST CHESTER, PA, 19380","Match","Exact","220 E ASHBRIDGE ST, WEST CHESTER, PA, 19380",179490140,"R"
120373,"220 E BADILLO AVE","COVINA","CA",91723,34.0861605010001,-117.887351522,373,"220 E BADILLO AVE, COVINA, CA, 91723","Match","Non_Exact","220 E BADILLO ST, COVINA, CA, 91723",141715988,"R"
120374,"220 E BROADWAY APT 412","GLENDALE","CA",91205,34.1462992310001,-118.253488924,374,"220 E BROADWAY APT 412, GLENDALE, CA, 91205","Match","Non_Exact","220 E BROADWAY, GLENDALE, CA, 91205",241240422,"R"
120375,"220 E BROADWAY ST","PRINCETON","IN",47670,38.3551877620001,-87.565992366,375,"220 E BROADWAY ST, PRINCETON, IN, 47670","Match","Exact","220 E BROADWAY ST, PRINCETON, IN, 47670",36372048,"R"
120376,"220 E CENTER STREET","SHELDON","IL",60966,40.7691626170001,-87.56193927,376,"220 E CENTER STREET, SHELDON, IL, 60966","Match","Exact","220 E CENTER ST, SHELDON, IL, 60966",90755657,"R"
120377,"220 E FRANKLIN ST","KENTON","OH",43326,NA,NA,377,"220 E FRANKLIN ST, KENTON, OH, 43326","Tie",NA,NA,NA,NA
120378,"220 E HORIZON DRIVE SUITE H","HENDERSON","NV",89015,36.0125460690001,-114.984349655,378,"220 E HORIZON DRIVE SUITE H, HENDERSON, NV, 89015","Match","Non_Exact","220 E HORIZON DR, HENDERSON, NV, 89015",201883125,"L"
120379,"220 E MERMAID LANE UNIT 169","PHILADELPHIA","PA",19118,40.070632888,-75.194315439,379,"220 E MERMAID LANE UNIT 169, PHILADELPHIA, PA, 19118","Match","Non_Exact","220 E MERMAID LN, PHILADELPHIA, PA, 19118",131394069,"R"
120380,"220 E MERMAID LN NUM T121","PHILADELPHIA","PA",19118,40.070632888,-75.194315439,380,"220 E MERMAID LN NUM T121, PHILADELPHIA, PA, 19118","Match","Non_Exact","220 E MERMAID LN, PHILADELPHIA, PA, 19118",131394069,"R"
120381,"220 E MOUNTAIN VIEW","BARSTOW","CA",92311,34.892844278,-117.026236028,381,"220 E MOUNTAIN VIEW, BARSTOW, CA, 92311","Match","Non_Exact","220 E MOUNTAIN VIEW ST, BARSTOW, CA, 92311",144556877,"R"
120382,"220 E PRAIRIE ROAD","EAGLE BUTTE","SD",57625,NA,NA,382,"220 E PRAIRIE ROAD, EAGLE BUTTE, SD, 57625","Tie",NA,NA,NA,NA
120383,"220 E UNIVERSITY BLVD UNIT 1202","MELBOURNE","FL",32901,NA,NA,383,"220 E UNIVERSITY BLVD UNIT 1202, MELBOURNE, FL, 32901","Tie",NA,NA,NA,NA
120384,"220 EAST 22ND STREET APT 1P","NEW YORK","NY",10010,40.7377431200001,-73.982642313,384,"220 EAST 22ND STREET APT 1P, NEW YORK, NY, 10010","Match","Exact","220 E 22ND ST, NEW YORK, NY, 10010",611173585,"R"
120385,"220 EAST 700 SOUTH","MOUNT PLEASANT","UT",84647,39.5365637460001,-111.450958578,385,"220 EAST 700 SOUTH, MOUNT PLEASANT, UT, 84647","Match","Exact","220 E 700 S, MOUNT PLEASANT, UT, 84647",133786096,"L"
120386,"220 EAST 72ND STREET STE 21A","NEW YORK","NY",10021,40.769504554,-73.9600323719999,386,"220 EAST 72ND STREET STE 21A, NEW YORK, NY, 10021","Match","Exact","220 E 72ND ST, NEW YORK, NY, 10021",650155872,"R"
120387,"220 EAST ILLINOIS STREET NO 4604","CHICAGO","IL",60611,41.890989082,-87.621275209,387,"220 EAST ILLINOIS STREET NO 4604, CHICAGO, IL, 60611","Match","Non_Exact","220 E ILLINOIS ST, CHICAGO, IL, 60611",636324945,"L"
120388,"220 EAST MAIN STREET","MARSHALLTOWN","IA",50158,42.0491694670001,-92.9092426779999,388,"220 EAST MAIN STREET, MARSHALLTOWN, IA, 50158","Match","Exact","220 E MAIN ST, MARSHALLTOWN, IA, 50158",90920785,"R"
120389,"220 EAST MAIN STREET","WATERVILLE","NY",13480,NA,NA,389,"220 EAST MAIN STREET, WATERVILLE, NY, 13480","No_Match",NA,NA,NA,NA
120390,"220 EAST MORRIS AVE 3RD FLOOR","SOUTH SALT LAKE","UT",84115,40.7178398030001,-111.884747256,390,"220 EAST MORRIS AVE 3RD FLOOR, SOUTH SALT LAKE, UT, 84115","Match","Exact","220 E MORRIS AVE, S SALT LAKE, UT, 84115",176078765,"R"
120391,"220 EAST TULARE AVENUE","TULARE","CA",93274,36.2081196710001,-119.345931053,391,"220 EAST TULARE AVENUE, TULARE, CA, 93274","Match","Exact","220 E TULARE AVE, TULARE, CA, 93274",607515092,"L"
120392,"220 EAST YOSEMITE AVE","MANTECA","CA",95336,37.797407723,-121.215054271,392,"220 EAST YOSEMITE AVE, MANTECA, CA, 95336","Match","Non_Exact","220 YOSEMITE AVE, MANTECA, CA, 95336",133902350,"R"
120393,"220 ELBA HWY","TROY","AL",36079,31.7836555120001,-85.964470213,393,"220 ELBA HWY, TROY, AL, 36079","Match","Exact","220 ELBA HWY, TROY, AL, 36079",636439193,"R"
120394,"220 ELM STREET","LITTLETON","NH",3561,44.312601149,-71.7751249259999,394,"220 ELM STREET, LITTLETON, NH, 3561","Match","Exact","220 ELM ST, LITTLETON, NH, 03561",145672022,"R"
120395,"220 ELMWOOD DRIVE","ELMWOOD PARK","NJ",7407,40.914124783,-74.123396414,395,"220 ELMWOOD DRIVE, ELMWOOD PARK, NJ, 7407","Match","Exact","220 ELMWOOD DR, ELMWOOD PARK, NJ, 07407",64380389,"R"
120396,"220 EMERSON PLACE STE 101-F","DAVENPORT","IA",52801,41.5207539400001,-90.57227039,396,"220 EMERSON PLACE STE 101-F, DAVENPORT, IA, 52801","Match","Exact","220 EMERSON PL, DAVENPORT, IA, 52801",122717626,"L"
120397,"220 EMERSON PLACE STE 301","DAVENPORT","IA",52801,41.5207539400001,-90.57227039,397,"220 EMERSON PLACE STE 301, DAVENPORT, IA, 52801","Match","Exact","220 EMERSON PL, DAVENPORT, IA, 52801",122717626,"L"
120398,"220 EMERSON PLACE SUITE 301","DAVENPORT","IA",52801,41.5207539400001,-90.57227039,398,"220 EMERSON PLACE SUITE 301, DAVENPORT, IA, 52801","Match","Exact","220 EMERSON PL, DAVENPORT, IA, 52801",122717626,"L"
120399,"220 FEDERAL AVENUE","LOS ANGELES","CA",90064,NA,NA,399,"220 FEDERAL AVENUE, LOS ANGELES, CA, 90064","No_Match",NA,NA,NA,NA
120400,"220 FERRIS AVENUE","WHITE PLAINS","NY",10603,41.042513118,-73.774488789,400,"220 FERRIS AVENUE, WHITE PLAINS, NY, 10603","Match","Exact","220 FERRIS AVE, WHITE PLAINS, NY, 10603",139841595,"L"
120401,"220 FIRST ST","WHEELING","IL",60090,42.14365231,-87.912168821,401,"220 FIRST ST, WHEELING, IL, 60090","Match","Exact","220 1ST ST, WHEELING, IL, 60090",112363516,"R"
120402,"220 FM 1863","NEW BRAUNFELS","TX",78130,29.7187701550001,-98.181630629,402,"220 FM 1863, NEW BRAUNFELS, TX, 78130","Match","Non_Exact","220 FM 1863, NEW BRAUNFELS, TX, 78132",650982065,"L"
120403,"220 FM 1863","NEW BRAUNFELS","TX",78132,29.7187701550001,-98.181630629,403,"220 FM 1863, NEW BRAUNFELS, TX, 78132","Match","Exact","220 FM 1863, NEW BRAUNFELS, TX, 78132",650982065,"L"
120404,"220 FOOTHILLS SOUTH DRIVE","SEDONA","AZ",86336,34.8540913860001,-111.818797543,404,"220 FOOTHILLS SOUTH DRIVE, SEDONA, AZ, 86336","Match","Exact","220 FOOTHILLS SOUTH DR, SEDONA, AZ, 86336",159507095,"L"
120405,"220 FOREMAN CIRCLE","NORMAN","OK",73069,35.220433303,-97.463588978,405,"220 FOREMAN CIRCLE, NORMAN, OK, 73069","Match","Exact","220 FOREMAN CIR, NORMAN, OK, 73069",99910673,"R"
120406,"220 FOREST PARK COURT","PACIFIC GROVE","CA",93950,36.6239854620001,-121.926759589,406,"220 FOREST PARK COURT, PACIFIC GROVE, CA, 93950","Match","Exact","220 FOREST PARK CT, PACIFIC GROVE, CA, 93950",196812223,"R"
120407,"220 FOUNTAIN LANE","SAINT LEONARD","MD",20685,NA,NA,407,"220 FOUNTAIN LANE, SAINT LEONARD, MD, 20685","No_Match",NA,NA,NA,NA
120408,"220 FOX RUN ROAD","GEORGETOWN","KY",40324,38.2173788010001,-84.5186737609999,408,"220 FOX RUN ROAD, GEORGETOWN, KY, 40324","Match","Exact","220 FOX RUN RD, GEORGETOWN, KY, 40324",631699969,"L"
120409,"220 FRAD AVENUE","NORTH LAS VEGAS","NV",89031,36.250095709,-115.136859457,409,"220 FRAD AVENUE, NORTH LAS VEGAS, NV, 89031","Match","Exact","220 FRAD AVE, N LAS VEGAS, NV, 89031",612987984,"L"
120410,"220 FRANKLIN CIRCLE","LITTLE RIVER","SC",29566,NA,NA,410,"220 FRANKLIN CIRCLE, LITTLE RIVER, SC, 29566","No_Match",NA,NA,NA,NA
120411,"220 GAWAIN DRIVE","RICHMOND","VA",23223,37.5441409530001,-77.355925745,411,"220 GAWAIN DRIVE, RICHMOND, VA, 23223","Match","Exact","220 GAWAIN DR, RICHMOND, VA, 23223",106656740,"R"
120412,"220 GOODRICH RD","CENTRALIA","WA",98531,46.7554840660001,-123.004889781,412,"220 GOODRICH RD, CENTRALIA, WA, 98531","Match","Exact","220 GOODRICH RD, CENTRALIA, WA, 98531",180757767,"L"
120413,"220 GRANGER LANE","LAWRENCEVILLE","GA",30044,NA,NA,413,"220 GRANGER LANE, LAWRENCEVILLE, GA, 30044","No_Match",NA,NA,NA,NA
120414,"220 GREEN STREET","WASHINGTON C H","OH",43160,39.5323803680001,-83.448065974,414,"220 GREEN STREET, WASHINGTON C H, OH, 43160","Match","Non_Exact","220 GREEN ST, WASHINGTON COURT HOUSE, OH, 43160",119060272,"R"
120415,"220 GREENFIELD AV","TULLAHOMA","TN",37388,35.348870386,-86.223508172,415,"220 GREENFIELD AV, TULLAHOMA, TN, 37388","Match","Exact","220 GREENFIELD AVE, TULLAHOMA, TN, 37388",58230210,"L"
120416,"220 GREENFIELD CT","STERLING","VA",20164,39.0397606450001,-77.377831489,416,"220 GREENFIELD CT, STERLING, VA, 20164","Match","Exact","220 GREENFIELD CT, STERLING, VA, 20164",62327676,"L"
120417,"220 GROVE VILLAGE WAY","MADISON","AL",35758,34.731993973,-86.779771521,417,"220 GROVE VILLAGE WAY, MADISON, AL, 35758","Match","Exact","220 GROVE VILLAGE WAY, MADISON, AL, 35758",625330973,"L"
120418,"220 GROWS MILL RD","WILMORE","KY",40390,37.8610888960001,-84.641098268,418,"220 GROWS MILL RD, WILMORE, KY, 40390","Match","Exact","220 GROWS MILL RD, WILMORE, KY, 40390",640355360,"R"
120419,"220 HAMPTON BLUFF DR","CHARLESTON","SC",29414,32.831721638,-80.091509362,419,"220 HAMPTON BLUFF DR, CHARLESTON, SC, 29414","Match","Non_Exact","220 HAMPTON BLUFF RD, CHARLESTON, SC, 29414",617154052,"L"
120420,"220 HARDWOOD DRIVE","FRANKLINTON","NC",27525,36.1341154200001,-78.509523154,420,"220 HARDWOOD DRIVE, FRANKLINTON, NC, 27525","Match","Exact","220 HARDWOOD DR, FRANKLINTON, NC, 27525",90247980,"R"
120421,"220 HATCH STREET","BURLINGTON","NC",27217,36.104069382,-79.440972582,421,"220 HATCH STREET, BURLINGTON, NC, 27217","Match","Exact","220 HATCH ST, BURLINGTON, NC, 27217",71662724,"L"
120422,"220 HEARTLAND TRL","FLORA","MS",19071,32.5034575980001,-90.305828333,422,"220 HEARTLAND TRL, FLORA, MS, 19071","Match","Non_Exact","220 HEARTLAND TRL, FLORA, MS, 39071",650923119,"L"
120423,"220 HENRY ST","NEW YORK","NY",10002,40.7137012490001,-73.986191409,423,"220 HENRY ST, NEW YORK, NY, 10002","Match","Exact","220 HENRY ST, NEW YORK, NY, 10002",59654332,"R"
120424,"220 HIGH HOUSE ROAD","CARY","NC",27513,35.7835390930001,-78.802473699,424,"220 HIGH HOUSE ROAD, CARY, NC, 27513","Match","Exact","220 HIGH HOUSE RD, CARY, NC, 27513",639847644,"L"
120425,"220 HIGH STREET APT 6","BURLINGTON","NJ",8016,40.0804302450001,-74.8593728439999,425,"220 HIGH STREET APT 6, BURLINGTON, NJ, 8016","Match","Exact","220 HIGH ST, BURLINGTON, NJ, 08016",134029478,"R"
120426,"220 HIGH TRAIL PASS","DALLAS","GA",30132,33.9528859070001,-84.804229256,426,"220 HIGH TRAIL PASS, DALLAS, GA, 30132","Match","Exact","220 HIGH TRAIL PASS, DALLAS, GA, 30132",618933153,"R"
120427,"220 HIGHLAND DR","SUMMERVILLE","SC",29483,33.0177884600001,-80.259565865,427,"220 HIGHLAND DR, SUMMERVILLE, SC, 29483","Match","Exact","220 HIGHLAND DR, SUMMERVILLE, SC, 29483",645293112,"R"
120428,"220 HITCHCOCK DRIVE","VILLA RICA","GA",30180,33.7578450080001,-84.950238468,428,"220 HITCHCOCK DRIVE, VILLA RICA, GA, 30180","Match","Exact","220 HITCHCOCK DR, VILLA RICA, GA, 30180",17126132,"L"
120429,"220 HOCKENBURY RD","HILLSBOROUGH","NJ",8844,40.499024734,-74.785530336,429,"220 HOCKENBURY RD, HILLSBOROUGH, NJ, 8844","Match","Exact","220 HOCKENBURY RD, HILLSBOROUGH, NJ, 08844",653286694,"R"
120430,"220 HOLIDAY DRIVE - SUITE 5","WHITE RIVER JUNCTION","VT",5001,43.642589528,-72.334348758,430,"220 HOLIDAY DRIVE - SUITE 5, WHITE RIVER JUNCTION, VT, 5001","Match","Exact","220 HOLIDAY DR, WHITE RIVER JUNCTION, VT, 05001",139253648,"R"
120431,"220 HOSPITAL DR","JACKSON","AL",36545,NA,NA,431,"220 HOSPITAL DR, JACKSON, AL, 36545","No_Match",NA,NA,NA,NA
120432,"220 HUNT STREET","DETROIT","MI",48207,NA,NA,432,"220 HUNT STREET, DETROIT, MI, 48207","No_Match",NA,NA,NA,NA
120433,"220 JACKSON AVENUE","FORT COLLINS","CO",80521,40.5853568950001,-105.099132105,433,"220 JACKSON AVENUE, FORT COLLINS, CO, 80521","Match","Exact","220 JACKSON AVE, FORT COLLINS, CO, 80521",188490348,"L"
120434,"220 JESSIE RD","LAKE PLACID","FL",33852,NA,NA,434,"220 JESSIE RD, LAKE PLACID, FL, 33852","No_Match",NA,NA,NA,NA
120435,"220 JONES COVE RD","COSBY","TN",37722,35.820843682,-83.259543091,435,"220 JONES COVE RD, COSBY, TN, 37722","Match","Exact","220 JONES COVE RD, COSBY, TN, 37722",612037892,"R"
120436,"220 JOSEPH E LOWERY BOULEVARD NW","ATLANTA","GA",30314,33.760885424,-84.4175017599999,436,"220 JOSEPH E LOWERY BOULEVARD NW, ATLANTA, GA, 30314","Match","Exact","220 JOSEPH E LOWERY BLVD NW, ATLANTA, GA, 30314",17342454,"L"
120437,"220 KENYON STREET SUITE 300","HARTFORD","CT",6105,41.7740347270001,-72.709928718,437,"220 KENYON STREET SUITE 300, HARTFORD, CT, 6105","Match","Exact","220 KENYON ST, HARTFORD, CT, 06105",3494114,"R"
120438,"220 KILLARNEY ROAD","CAMBRIDGE","MD",21613,38.566757061,-76.06226337,438,"220 KILLARNEY ROAD, CAMBRIDGE, MD, 21613","Match","Exact","220 KILLARNEY RD, CAMBRIDGE, MD, 21613",99674643,"R"
120439,"220 KINGS HIGHWAY","DECATUR","GA",30030,33.765946721,-84.299455361,439,"220 KINGS HIGHWAY, DECATUR, GA, 30030","Match","Exact","220 KINGS HWY, DECATUR, GA, 30030",23367409,"L"
120440,"220 LAKESIDE ROAD","CORBIN","KY",40701,36.968536294,-84.1837051479999,440,"220 LAKESIDE ROAD, CORBIN, KY, 40701","Match","Exact","220 LAKESIDE RD, CORBIN, KY, 40701",98747308,"R"
120441,"220 LAUREL STREET","LULING","LA",70070,29.8897384270001,-90.344088841,441,"220 LAUREL STREET, LULING, LA, 70070","Match","Non_Exact","220 LAUREL CT, LULING, LA, 70070",93629288,"L"
120442,"220 LINCOLN AVENUE","BARRINGTON","RI",2806,41.7460884390001,-71.3217235559999,442,"220 LINCOLN AVENUE, BARRINGTON, RI, 2806","Match","Exact","220 LINCOLN AVE, BARRINGTON, RI, 02806",645420687,"L"
120443,"220 LOTHROP HILL RD","LEXINGTON","SC",29072,33.9537229640001,-81.282594713,443,"220 LOTHROP HILL RD, LEXINGTON, SC, 29072","Match","Exact","220 LOTHROP HILL RD, LEXINGTON, SC, 29072",640942920,"R"
120444,"220 LUTHER JACKSON DRIVE","MARYVILLE","TN",37804,35.80013875,-83.9392766029999,444,"220 LUTHER JACKSON DRIVE, MARYVILLE, TN, 37804","Match","Exact","220 LUTHER JACKSON DR, MARYVILLE, TN, 37804",607451011,"L"
120445,"220 MADEIRA AVE APT 9","MIAMI","FL",33134,25.755887294,-80.259379655,445,"220 MADEIRA AVE APT 9, MIAMI, FL, 33134","Match","Exact","220 MADEIRA AVE, MIAMI, FL, 33134",116266166,"L"
120446,"220 MADISON AVENUE APT 12N","NEW YORK","NY",10016,40.7491905110001,-73.9819287299999,446,"220 MADISON AVENUE APT 12N, NEW YORK, NY, 10016","Match","Exact","220 MADISON AVE, NEW YORK, NY, 10016",59654382,"L"
120447,"220 MAIN AVENUE SOUTH PO BOX 142","PARK RAPIDS","MN",56470,46.9208015830001,-95.059997416,447,"220 MAIN AVENUE SOUTH PO BOX 142, PARK RAPIDS, MN, 56470","Match","Exact","220 MAIN AVE S, PARK RAPIDS, MN, 56470",168157502,"R"
120448,"220 MAIN ST","MOULTON","AL",35650,34.4733012520001,-87.291415022,448,"220 MAIN ST, MOULTON, AL, 35650","Match","Exact","220 MAIN ST, MOULTON, AL, 35650",41383276,"R"
120449,"220 MAIN STREET UNIT 2","SULPHUR SPRINGS","TX",75482,33.1377058520001,-95.6022894929999,449,"220 MAIN STREET UNIT 2, SULPHUR SPRINGS, TX, 75482","Match","Exact","220 MAIN ST, SULPHUR SPRINGS, TX, 75482",42785451,"L"
120450,"220 MALLARD LANE","PLEASANTVILLE","NJ",8232,39.3801550320001,-74.4959293219999,450,"220 MALLARD LANE, PLEASANTVILLE, NJ, 8232","Match","Exact","220 MALLARD LN, PLEASANTVILLE, NJ, 08232",643059859,"R"
120451,"220 MANISTIQUE STREET","DETROIT","MI",48215,42.362430384,-82.933432949,451,"220 MANISTIQUE STREET, DETROIT, MI, 48215","Match","Exact","220 MANISTIQUE ST, DETROIT, MI, 48215",95489348,"R"
120452,"220 MAPLE STREET NUM 777","NOBLE","OK",73068,35.136653901,-97.395858472,452,"220 MAPLE STREET NUM 777, NOBLE, OK, 73068","Match","Non_Exact","220 E MAPLE ST, NOBLE, OK, 73068",99942719,"R"
120453,"220 MAPLE STREET","HAWORTH","NJ",7641,40.96235984,-73.9933786029999,453,"220 MAPLE STREET, HAWORTH, NJ, 7641","Match","Exact","220 MAPLE ST, HAWORTH, NJ, 07641",64369733,"L"
120454,"220 MARINE AVENUE","BROOKLYN","NY",11209,40.6152466840001,-74.03481872,454,"220 MARINE AVENUE, BROOKLYN, NY, 11209","Match","Exact","220 MARINE AVE, BROOKLYN, NY, 11209",59087414,"R"
120455,"220 MARKET AVE S 8TH FLOOR","CANTON","OH",44702,40.7975401590001,-81.374970269,455,"220 MARKET AVE S 8TH FLOOR, CANTON, OH, 44702","Match","Exact","220 MARKET AVE S, CANTON, OH, 44702",640600337,"L"
120456,"220 MCKENZIE AVE","PANAMA CITY","FL",32401,30.1530170290001,-85.6578783849999,456,"220 MCKENZIE AVE, PANAMA CITY, FL, 32401","Match","Non_Exact","220 MC KENZIE AVE, PANAMA CITY, FL, 32401",7029421,"R"
120457,"220 MEADOW AVE","MANNINGTON","WV",26582,39.5222868170001,-80.331248392,457,"220 MEADOW AVE, MANNINGTON, WV, 26582","Match","Exact","220 MEADOW AVE, MANNINGTON, WV, 26582",51444793,"L"
120458,"220 MEADOWLARK DRIVE","EPHRATA","PA",17522,40.2076499400001,-76.201448861,458,"220 MEADOWLARK DRIVE, EPHRATA, PA, 17522","Match","Exact","220 MEADOWLARK DR, EPHRATA, PA, 17522",179678742,"R"
120459,"220 MI MOUNTAIN RD","FRANKLIN","NC",28734,35.220474321,-83.35119931,459,"220 MI MOUNTAIN RD, FRANKLIN, NC, 28734","Match","Exact","220 MI MOUNTAIN RD, FRANKLIN, NC, 28734",35525342,"R"
120460,"220 MIDTOWN DRIVE","TRAVERSE CITY","MI",49684,44.760466122,-85.620074146,460,"220 MIDTOWN DRIVE, TRAVERSE CITY, MI, 49684","Match","Exact","220 MIDTOWN DR, TRAVERSE CITY, MI, 49684",650212198,"L"
120461,"220 MILLER LANE","CHICORA","PA",16025,40.968059022,-79.783654676,461,"220 MILLER LANE, CHICORA, PA, 16025","Match","Exact","220 MILLER LN, CHICORA, PA, 16025",52692592,"L"
120462,"220 MISQUAH ROAD","DULUTH","MN",55804,46.826191436,-92.052346025,462,"220 MISQUAH ROAD, DULUTH, MN, 55804","Match","Exact","220 MISQUAH RD, DULUTH, MN, 55804",635959860,"R"
120463,"220 MOHAWK AVE","LOUISVILLE","KY",40209,38.187179261,-85.758222113,463,"220 MOHAWK AVE, LOUISVILLE, KY, 40209","Match","Exact","220 MOHAWK AVE, LOUISVILLE, KY, 40209",640121689,"R"
120464,"220 MONTGOMERY AVE","MOUNT CARMEL","TN",37645,36.5376352330001,-82.675352125,464,"220 MONTGOMERY AVE, MOUNT CARMEL, TN, 37645","Match","Exact","220 MONTGOMERY AVE, MOUNT CARMEL, TN, 37645",605539850,"L"
120465,"220 MONTGOMERY STREET  1009","SAN FRANCISCO","CA",94104,37.7912046960001,-122.402418258,465,"220 MONTGOMERY STREET  1009, SAN FRANCISCO, CA, 94104","Match","Exact","220 MONTGOMERY ST, SAN FRANCISCO, CA, 94104",192281309,"R"
120466,"220 MONTGOMERY STREET 1009","SAN FRANCISCO","CA",94104,37.7912046960001,-122.402418258,466,"220 MONTGOMERY STREET 1009, SAN FRANCISCO, CA, 94104","Match","Exact","220 MONTGOMERY ST, SAN FRANCISCO, CA, 94104",192281309,"R"
120467,"220 MONTOYA ST","TAOS","NM",87571,36.404084918,-105.570513102,467,"220 MONTOYA ST, TAOS, NM, 87571","Match","Exact","220 MONTOYA ST, TAOS, NM, 87571",159920811,"L"
120468,"220 MYRTLE AVE","WEST ISLIP","NY",11795,40.7012307320001,-73.284655711,468,"220 MYRTLE AVE, WEST ISLIP, NY, 11795","Match","Exact","220 MYRTLE AVE, WEST ISLIP, NY, 11795",113995371,"L"
120469,"220 N 2040 E","ST GEORGE","UT",84790,37.1119520600001,-113.540071807,469,"220 N 2040 E, ST GEORGE, UT, 84790","Match","Exact","220 N 2040 E, SAINT GEORGE, UT, 84790",166195200,"R"
120470,"220 N 69TH AVE","HOLLYWOOD","FL",33024,26.010651336,-80.2255837989999,470,"220 N 69TH AVE, HOLLYWOOD, FL, 33024","Match","Exact","220 N 69TH AVE, HOLLYWOOD, FL, 33024",114716117,"L"
120471,"220 N ARLINGTON AVE","EAST ORANGE","NJ",7017,40.7679735630001,-74.205931248,471,"220 N ARLINGTON AVE, EAST ORANGE, NJ, 7017","Match","Exact","220 N ARLINGTON AVE, EAST ORANGE, NJ, 07017",63480025,"R"
120472,"220 N ARMSTRONG RD","VENUS","TX",76084,32.357344418,-97.047768944,472,"220 N ARMSTRONG RD, VENUS, TX, 76084","Match","Exact","220 N ARMSTRONG RD, VENUS, TX, 76084",103490467,"R"
120473,"220 N CENTRAL AVE","UMATILLA","FL",32784,28.9284925530001,-81.667987651,473,"220 N CENTRAL AVE, UMATILLA, FL, 32784","Match","Exact","220 N CENTRAL AVE, UMATILLA, FL, 32784",94211716,"R"
120474,"220 N GREENHILL RD","MT JULIET","TN",37122,36.2279403750001,-86.543090378,474,"220 N GREENHILL RD, MT JULIET, TN, 37122","Match","Exact","220 N GREENHILL RD, MOUNT JULIET, TN, 37122",89706792,"R"
120475,"220 N GREENHILL ROAD","MOUNT JULIET","TN",37122,36.2279403750001,-86.543090378,475,"220 N GREENHILL ROAD, MOUNT JULIET, TN, 37122","Match","Exact","220 N GREENHILL RD, MOUNT JULIET, TN, 37122",89706792,"R"
120476,"220 N HAMILTON ST","SAGINAW","MI",48602,43.4177170080001,-83.962340223,476,"220 N HAMILTON ST, SAGINAW, MI, 48602","Match","Exact","220 N HAMILTON ST, SAGINAW, MI, 48602",80210966,"R"
120477,"220 N JEFFERSON ST","WINCHESTER","TN",37398,35.1874152340001,-86.113239209,477,"220 N JEFFERSON ST, WINCHESTER, TN, 37398","Match","Exact","220 N JEFFERSON ST, WINCHESTER, TN, 37398",57962576,"R"
120478,"220 N LIBERTY ST","PLYMOUTH","IN",46563,41.341373021,-86.3028121739999,478,"220 N LIBERTY ST, PLYMOUTH, IN, 46563","Match","Exact","220 N LIBERTY ST, PLYMOUTH, IN, 46563",7642207,"R"
120479,"220 N MAIN ST STE 600","DAVENPORT","IA",52801,41.521466645,-90.575604155,479,"220 N MAIN ST STE 600, DAVENPORT, IA, 52801","Match","Non_Exact","220 N MAIN ST, DAVENPORT, IA, 52801",122725298,"L"
120480,"220 N MAIN STREET","NEW CITY","NY",10956,41.1582052090001,-73.988544276,480,"220 N MAIN STREET, NEW CITY, NY, 10956","Match","Exact","220 N MAIN ST, NEW CITY, NY, 10956",124595558,"R"
120481,"220 N MARQUETTE AVE","SIOUX FALLS","SD",57110,43.548959962,-96.66480093,481,"220 N MARQUETTE AVE, SIOUX FALLS, SD, 57110","Match","Exact","220 N MARQUETTE AVE, SIOUX FALLS, SD, 57110",34993075,"R"
120482,"220 N MILBY ST","HOUSTON","TX",77003,NA,NA,482,"220 N MILBY ST, HOUSTON, TX, 77003","Tie",NA,NA,NA,NA
120483,"220 N MILLEDGE AVE","ATHENS","GA",30601,33.956305355,-83.3887904869999,483,"220 N MILLEDGE AVE, ATHENS, GA, 30601","Match","Exact","220 N MILLEDGE AVE, ATHENS, GA, 30601",4802219,"R"
120484,"220 N NEW HAMPSHIRE AVENUE APT 305","ATLANTIC CITY","NJ",8401,NA,NA,484,"220 N NEW HAMPSHIRE AVENUE APT 305, ATLANTIC CITY, NJ, 8401","Tie",NA,NA,NA,NA
120485,"220 N PURDUE AVE","OAK RIDGE","TN",37830,36.011521112,-84.250404632,485,"220 N PURDUE AVE, OAK RIDGE, TN, 37830","Match","Exact","220 N PURDUE AVE, OAK RIDGE, TN, 37830",90128345,"L"
120486,"220 N SALEM STREET","APEX","NC",27502,35.7321553640001,-78.850575266,486,"220 N SALEM STREET, APEX, NC, 27502","Match","Exact","220 N SALEM ST, APEX, NC, 27502",208347829,"R"
120487,"220 N SYCAMORE ST","PETERSBURG","VA",23803,37.2308567740001,-77.4044715479999,487,"220 N SYCAMORE ST, PETERSBURG, VA, 23803","Match","Exact","220 N SYCAMORE ST, PETERSBURG, VA, 23803",647712437,"L"
120488,"220 N ZAPATA HWY STE 646B","LAREDO","TX",78043,NA,NA,488,"220 N ZAPATA HWY STE 646B, LAREDO, TX, 78043","Tie",NA,NA,NA,NA
120489,"220 NASSAU ROAD","STRATFORD","CT",6614,41.2289471340001,-73.141336828,489,"220 NASSAU ROAD, STRATFORD, CT, 6614","Match","Exact","220 NASSAU RD, STRATFORD, CT, 06614",3226178,"R"
120490,"220 NE 38TH STREET SUITE 12","OAKLAND PARK","FL",33334,26.1740085490001,-80.1438672369999,490,"220 NE 38TH STREET SUITE 12, OAKLAND PARK, FL, 33334","Match","Non_Exact","220 NE 38TH ST, OAKLAND PARK, FL, 33334",114719506,"R"
120491,"220 NEW YORK AVENUE","BERGENFIELD","NJ",7621,40.9356946,-73.9846653009999,491,"220 NEW YORK AVENUE, BERGENFIELD, NJ, 7621","Match","Exact","220 NEW YORK AVE, BERGENFIELD, NJ, 07621",642879055,"R"
120492,"220 NEWPORT CENTER DR STE  11-127","NEWPORT BEACH","CA",92660,33.61271549,-117.874634892,492,"220 NEWPORT CENTER DR STE  11-127, NEWPORT BEACH, CA, 92660","Match","Exact","220 NEWPORT CENTER DR, NEWPORT BEACH, CA, 92660",144050375,"R"
120493,"220 NEWPORT CENTER DRIVE 446","NEWPORT BEACH","CA",92660,33.61271549,-117.874634892,493,"220 NEWPORT CENTER DRIVE 446, NEWPORT BEACH, CA, 92660","Match","Exact","220 NEWPORT CENTER DR, NEWPORT BEACH, CA, 92660",144050375,"R"
120494,"220 NEWPORT CENTER DRIVE STE 11-280","NEWPORT BEACH","CA",92660,33.61271549,-117.874634892,494,"220 NEWPORT CENTER DRIVE STE 11-280, NEWPORT BEACH, CA, 92660","Match","Exact","220 NEWPORT CENTER DR, NEWPORT BEACH, CA, 92660",144050375,"R"
120495,"220 NEWPORT CENTER DRIVE STE 11-293","NEWPORT BEACH","CA",92660,33.61271549,-117.874634892,495,"220 NEWPORT CENTER DRIVE STE 11-293, NEWPORT BEACH, CA, 92660","Match","Exact","220 NEWPORT CENTER DR, NEWPORT BEACH, CA, 92660",144050375,"R"
120496,"220 NORTH 6TH STREET","MCALESTER","OK",74501,34.93138423,-95.761010998,496,"220 NORTH 6TH STREET, MCALESTER, OK, 74501","Match","Exact","220 N 6TH ST, MCALESTER, OK, 74501",106305481,"R"
120497,"220 NORTH ARBOR DRIVE","HARRISON","AR",72601,36.2288134,-93.134617116,497,"220 NORTH ARBOR DRIVE, HARRISON, AR, 72601","Match","Non_Exact","220 ARBOR DR, HARRISON, AR, 72601",19981916,"L"
120498,"220 NORTH BEACH STREET SUITE 1873","DAYTONA BEACH","FL",32115,29.214678593,-81.020570522,498,"220 NORTH BEACH STREET SUITE 1873, DAYTONA BEACH, FL, 32115","Match","Non_Exact","220 N BEACH ST, DAYTONA BEACH, FL, 32114",636389425,"L"
120499,"220 NORTH BEACH STREET UNIT 1873","DAYTONA BEACH","FL",32115,29.214678593,-81.020570522,499,"220 NORTH BEACH STREET UNIT 1873, DAYTONA BEACH, FL, 32115","Match","Non_Exact","220 N BEACH ST, DAYTONA BEACH, FL, 32114",636389425,"L"
120500,"220 NORTH BEACH STREET","DAYTONA BEACH","FL",32115,29.214678593,-81.020570522,500,"220 NORTH BEACH STREET, DAYTONA BEACH, FL, 32115","Match","Non_Exact","220 N BEACH ST, DAYTONA BEACH, FL, 32114",636389425,"L"
