"ID","Address","City","State","Zip","lat","long","id","input_address","match_indicator","match_type","matched_address","tiger_line_id","tiger_side"
184501,"3549 72ND STREET APT 2R","JACKSON HEIGHTS","NY",11372,NA,NA,1,"3549 72ND STREET APT 2R, JACKSON HEIGHTS, NY, 11372","No_Match",NA,NA,NA,NA
184502,"3549 BLACKSTONE ST","LAS VEGAS","NV",89121,36.1252761320001,-115.103512816,2,"3549 BLACKSTONE ST, LAS VEGAS, NV, 89121","Match","Exact","3549 BLACKSTONE ST, LAS VEGAS, NV, 89121",201871876,"R"
184503,"3549 COURTHOUSE ROAD","NORTH CHESTERFIELD","VA",23236,37.444281265,-77.5817663839999,3,"3549 COURTHOUSE ROAD, NORTH CHESTERFIELD, VA, 23236","Match","Exact","3549 COURTHOUSE RD, NORTH CHESTERFIELD, VA, 23236",201584488,"L"
184504,"3549 FOXHALL DR","DAVIDSONVILLE","MD",21035,38.911178347,-76.633413262,4,"3549 FOXHALL DR, DAVIDSONVILLE, MD, 21035","Match","Exact","3549 FOXHALL DR, DAVIDSONVILLE, MD, 21035",68192106,"L"
184505,"3549 FOXHALL DRIVE","DAVIDSONVILLE","MD",21035,38.911178347,-76.633413262,5,"3549 FOXHALL DRIVE, DAVIDSONVILLE, MD, 21035","Match","Exact","3549 FOXHALL DR, DAVIDSONVILLE, MD, 21035",68192106,"L"
184506,"3549 MADORA AVE","AKRON","OH",44319,40.9842914390001,-81.507355654,6,"3549 MADORA AVE, AKRON, OH, 44319","Match","Exact","3549 MADORA AVE, AKRON, OH, 44319",61375681,"L"
184507,"3549 MILLER COURT","UNION CITY","CA",94587,37.6010751860001,-122.078546705,7,"3549 MILLER COURT, UNION CITY, CA, 94587","Match","Exact","3549 MILLER CT, UNION CITY, CA, 94587",617284989,"R"
184508,"3549 NE 182ND STREET","LAKE FOREST PARK","WA",98155,47.759511344,-122.291182157,8,"3549 NE 182ND STREET, LAKE FOREST PARK, WA, 98155","Match","Exact","3549 NE 182ND ST, LAKE FOREST PARK, WA, 98155",239761159,"R"
184509,"3549 PELOCK DR","APOPKA","FL",32703,28.6252186670001,-81.531531346,9,"3549 PELOCK DR, APOPKA, FL, 32703","Match","Exact","3549 PELOCK DR, APOPKA, FL, 32703",646559303,"R"
184510,"3549 SANCTUARY DRIVE","SAINT CLOUD","FL",34769,28.224332082,-81.294162171,10,"3549 SANCTUARY DRIVE, SAINT CLOUD, FL, 34769","Match","Exact","3549 SANCTUARY DR, SAINT CLOUD, FL, 34769",640009624,"L"
184511,"3549 SAWMILL ROAD","NEWTOWN SQUARE","PA",19073,40.001675182,-75.40817742,11,"3549 SAWMILL ROAD, NEWTOWN SQUARE, PA, 19073","Match","Exact","3549 SAWMILL RD, NEWTOWN SQUARE, PA, 19073",134892647,"R"
184512,"3549 SOUTH ST","FORT MYERS","FL",33916,26.630340817,-81.84119383,12,"3549 SOUTH ST, FORT MYERS, FL, 33916","Match","Exact","3549 SOUTH ST, FORT MYERS, FL, 33916",118022812,"L"
184513,"3549 VALLEY VIEW DRIVE","KISSIMMEE","FL",34746,28.185993737,-81.430395007,13,"3549 VALLEY VIEW DRIVE, KISSIMMEE, FL, 34746","Match","Non_Exact","3549 VALLEYVIEW DR, KISSIMMEE, FL, 34746",176698915,"L"
184514,"3549 W THOMAS RD SUITE 103","PHOENIX","AZ",85019,33.480464768,-112.134748121,14,"3549 W THOMAS RD SUITE 103, PHOENIX, AZ, 85019","Match","Non_Exact","3549 W THOMAS RD, PHOENIX, AZ, 85019",633220450,"L"
184515,"3549 WEST ATLANTIC BLVD APT 614","POMPANO BEACH","FL",33069,NA,NA,15,"3549 WEST ATLANTIC BLVD APT 614, POMPANO BEACH, FL, 33069","No_Match",NA,NA,NA,NA
184516,"35493 STATE HWY 89","ROSEAU","MN",56751,48.912868626,-95.9208301629999,16,"35493 STATE HWY 89, ROSEAU, MN, 56751","Match","Exact","35493 STATE HWY 89, ROSEAU, MN, 56751",176590256,"R"
184517,"35497 COYOTE TRAIL","LOCUST GROVE","VA",22508,38.3696118610001,-77.750488842,17,"35497 COYOTE TRAIL, LOCUST GROVE, VA, 22508","Match","Exact","35497 COYOTE TRL, LOCUST GROVE, VA, 22508",616748558,"L"
184518,"355 8TH AVE SW","CEDAR RAPIDS","IA",52404,41.9683192430001,-91.673398573,18,"355 8TH AVE SW, CEDAR RAPIDS, IA, 52404","Match","Exact","355 8TH AVE SW, CEDAR RAPIDS, IA, 52404",17025866,"L"
184519,"355 ALHAMBRA CIRCLE  SUITE 900","CORAL GABLES","FL",33134,25.7519084620001,-80.261871911,19,"355 ALHAMBRA CIRCLE  SUITE 900, CORAL GABLES, FL, 33134","Match","Exact","355 ALHAMBRA CIR, CORAL GABLES, FL, 33134",116266101,"R"
184520,"355 ALMA STREET","PALO ALTO","CA",94301,37.444402692,-122.165463899,20,"355 ALMA STREET, PALO ALTO, CA, 94301","Match","Exact","355 ALMA ST, PALO ALTO, CA, 94301",123012987,"L"
184521,"355 BARK BRANCH RD","FRANKFORT","KY",40601,38.2428598540001,-84.945033745,21,"355 BARK BRANCH RD, FRANKFORT, KY, 40601","Match","Exact","355 BARK BRANCH RD, FRANKFORT, KY, 40601",97055362,"R"
184522,"355 BARRETT CIRCLE","DANVILLE","CA",94526,37.79395866,-121.970235895,22,"355 BARRETT CIRCLE, DANVILLE, CA, 94526","Match","Exact","355 BARRETT CIR, DANVILLE, CA, 94526",192065481,"R"
184523,"355 BATES AVE","BOULDER","CO",80305,39.9881685240001,-105.255625567,23,"355 BATES AVE, BOULDER, CO, 80305","Match","Non_Exact","355 BATES ST, BOULDER, CO, 80305",188162751,"R"
184524,"355 BOX ROAD","DARDEN","TN",38328,NA,NA,24,"355 BOX ROAD, DARDEN, TN, 38328","No_Match",NA,NA,NA,NA
184525,"355 BROADMOOR DR","FAYETTEVILLE","GA",30215,33.3718007900001,-84.5017340749999,25,"355 BROADMOOR DR, FAYETTEVILLE, GA, 30215","Match","Exact","355 BROADMOOR DR, FAYETTEVILLE, GA, 30215",644923030,"R"
184526,"355 CALLE DEL PARQUE SUITE 4B","SAN JUAN","PR",912,18.4459528080001,-66.065403056,26,"355 CALLE DEL PARQUE SUITE 4B, SAN JUAN, PR, 912","Match","Non_Exact","355 CLL DEL PARQUE, SAN JUAN, PR, 00912",206605289,"L"
184527,"355 CARMEL AVE NO 1","MARINA","CA",93933,36.679150113,-121.792076196,27,"355 CARMEL AVE NO 1, MARINA, CA, 93933","Match","Non_Exact","355 CARMEL AVE, MARINA, CA, 93933",628774839,"L"
184528,"355 CHICKASAW LAND COVE","COLLIERVILLE","TN",38017,35.0068317880001,-89.681512136,28,"355 CHICKASAW LAND COVE, COLLIERVILLE, TN, 38017","Match","Exact","355 CHICKASAW LAND COVE, COLLIERVILLE, TN, 38017",72962993,"R"
184529,"355 CLAIBORNE FIELDS DR","CENTREVILLE","MD",21617,39.0591682780001,-76.026943439,29,"355 CLAIBORNE FIELDS DR, CENTREVILLE, MD, 21617","Match","Exact","355 CLAIBORNE FIELDS DR, CENTREVILLE, MD, 21617",607196635,"L"
184530,"355 COUNTY ROAD 3301","OMAHA","TX",75571,NA,NA,30,"355 COUNTY ROAD 3301, OMAHA, TX, 75571","No_Match",NA,NA,NA,NA
184531,"355 COX ST SUITE B","LUCEDALE","MS",39452,30.9238992840001,-88.589895833,31,"355 COX ST SUITE B, LUCEDALE, MS, 39452","Match","Exact","355 COX ST, LUCEDALE, MS, 39452",62283097,"R"
184532,"355 CUSTERS CT","LOCUST GROVE","GA",30248,33.3340900370001,-84.115363112,32,"355 CUSTERS CT, LOCUST GROVE, GA, 30248","Match","Exact","355 CUSTERS CT, LOCUST GROVE, GA, 30248",23194860,"R"
184533,"355 DANIEL MILL CROSSING","VILLA RICA","GA",30180,33.69329607,-84.925834325,33,"355 DANIEL MILL CROSSING, VILLA RICA, GA, 30180","Match","Exact","355 DANIEL MILL CROSSING, VILLA RICA, GA, 30180",632076913,"R"
184534,"355 DAPPLE DR","VALLEJO","CA",94591,38.1235946800001,-122.215323227,34,"355 DAPPLE DR, VALLEJO, CA, 94591","Match","Exact","355 DAPPLE DR, VALLEJO, CA, 94591",192528804,"R"
184535,"355 DELLWOOD DR","EUGENE","OR",97405,44.014984058,-123.099895413,35,"355 DELLWOOD DR, EUGENE, OR, 97405","Match","Exact","355 DELLWOOD DR, EUGENE, OR, 97405",178216175,"R"
184536,"355 DRESDEN","SAN ANTONIO","TX",78213,29.499030813,-98.517083025,36,"355 DRESDEN, SAN ANTONIO, TX, 78213","Match","Non_Exact","355 DRESDEN DR, SAN ANTONIO, TX, 78213",101494540,"R"
184537,"355 E ALBERTONI ST   SUITE 200-722","CARSON","CA",90746,33.871439046,-118.271159981,37,"355 E ALBERTONI ST   SUITE 200-722, CARSON, CA, 90746","Match","Non_Exact","355 E ALBERTONI ST, CARSON, CA, 90746",142766173,"L"
184538,"355 E MAIN STREET","LANCASTER","OH",43130,39.713562536,-82.596152128,38,"355 E MAIN STREET, LANCASTER, OH, 43130","Match","Exact","355 E MAIN ST, LANCASTER, OH, 43130",37242665,"R"
184539,"355 E MARIE AVE","WEST ST PAUL","MN",55118,44.8908475870001,-93.100123041,39,"355 E MARIE AVE, WEST ST PAUL, MN, 55118","Match","Non_Exact","355 MARIE AVE W, W SAINT PAUL, MN, 55118",37916120,"R"
184540,"355 E OHIO STREET APT 2208","CHICAGO","IL",60611,41.892624491,-87.6185296899999,40,"355 E OHIO STREET APT 2208, CHICAGO, IL, 60611","Match","Non_Exact","355 E OHIO ST, CHICAGO, IL, 60611",650072308,"R"
184541,"355 EAST 187TH S APT E32","BRONX","NY",10458,NA,NA,41,"355 EAST 187TH S APT E32, BRONX, NY, 10458","No_Match",NA,NA,NA,NA
184542,"355 EAST 187TH ST APT E32","BRONX","NY",10458,40.8594515440001,-73.8947316479999,42,"355 EAST 187TH ST APT E32, BRONX, NY, 10458","Match","Exact","355 E 187TH ST, BRONX, NY, 10458",642559392,"L"
184543,"355 EAST 187TH STREET  BB","BRONX","NY",10458,40.8594515440001,-73.8947316479999,43,"355 EAST 187TH STREET  BB, BRONX, NY, 10458","Match","Exact","355 E 187TH ST, BRONX, NY, 10458",642559392,"L"
184544,"355 EAST MONROE STREET SUITE 1","JACKSONVILLE","FL",32202,30.327532798,-81.652867583,44,"355 EAST MONROE STREET SUITE 1, JACKSONVILLE, FL, 32202","Match","Exact","355 E MONROE ST, JACKSONVILLE, FL, 32202",83899851,"L"
184545,"355 FAIRFAX DR","WINSTON-SALEM","NC",27104,36.0935591750001,-80.293532292,45,"355 FAIRFAX DR, WINSTON-SALEM, NC, 27104","Match","Exact","355 FAIRFAX DR, WINSTON SALEM, NC, 27104",84679365,"L"
184546,"355 FARMERS LANE APT 6","SANTA ROSA","CA",95405,38.4472497400001,-122.688125471,46,"355 FARMERS LANE APT 6, SANTA ROSA, CA, 95405","Match","Exact","355 FARMERS LN, SANTA ROSA, CA, 95405",67470807,"R"
184547,"355 FENCE CT","EARLYSVILLE","VA",22936,38.1594098150001,-78.4880777289999,47,"355 FENCE CT, EARLYSVILLE, VA, 22936","Match","Exact","355 FENCE CT, EARLYSVILLE, VA, 22936",83373421,"L"
184548,"355 FIFTH AVENUE SUITE 1416","PITTSBURGH","PA",15222,40.4403917610001,-79.999437395,48,"355 FIFTH AVENUE SUITE 1416, PITTSBURGH, PA, 15222","Match","Exact","355 5TH AVE, PITTSBURGH, PA, 15222",51633809,"L"
184549,"355 FM 973","TAYLOR","TX",76574,NA,NA,49,"355 FM 973, TAYLOR, TX, 76574","No_Match",NA,NA,NA,NA
184550,"355 FORESTRY RD","LECOMPTE","LA",71346,31.14163597,-92.47426631,50,"355 FORESTRY RD, LECOMPTE, LA, 71346","Match","Exact","355 FORESTRY RD, LECOMPTE, LA, 71346",11781156,"L"
184551,"355 GELLERT BLVD STE 260","DALY CITY","CA",94015,37.663787574,-122.469223914,51,"355 GELLERT BLVD STE 260, DALY CITY, CA, 94015","Match","Exact","355 GELLERT BLVD, DALY CITY, CA, 94015",637969733,"L"
184552,"355 GELLERT BLVD SUITE 108","DALY CITY","CA",94015,37.663787574,-122.469223914,52,"355 GELLERT BLVD SUITE 108, DALY CITY, CA, 94015","Match","Exact","355 GELLERT BLVD, DALY CITY, CA, 94015",637969733,"L"
184553,"355 GODDARD DRIVE","GREENEVILLE","TN",37745,36.1518360760001,-82.788708229,53,"355 GODDARD DRIVE, GREENEVILLE, TN, 37745","Match","Exact","355 GODDARD DR, GREENEVILLE, TN, 37745",127754133,"L"
184554,"355 HEAVEN BOUND LANE","MESHOPPEN","PA",18630,NA,NA,54,"355 HEAVEN BOUND LANE, MESHOPPEN, PA, 18630","No_Match",NA,NA,NA,NA
184555,"355 HOLLYWOOD AVE","TRACY","CA",95376,37.744372254,-121.420005823,55,"355 HOLLYWOOD AVE, TRACY, CA, 95376","Match","Non_Exact","355 E HOLLYWOOD AVE, TRACY, CA, 95376",133854281,"L"
184556,"355 I ST SW SUITE S-312","WASHINGTON","DC",20024,38.8792909700001,-77.0166799949999,56,"355 I ST SW SUITE S-312, WASHINGTON, DC, 20024","Match","Exact","355 I ST SW, WASHINGTON, DC, 20024",76227004,"R"
184557,"355 INDIAN LANE","CENTRE HALL","PA",16828,40.839223174,-77.646114935,57,"355 INDIAN LANE, CENTRE HALL, PA, 16828","Match","Exact","355 INDIAN LN, CENTRE HALL, PA, 16828",652458108,"L"
184558,"355 KELLEY BLVD","NORTH ATTLEBORO","MA",2760,41.994823013,-71.291348233,58,"355 KELLEY BLVD, NORTH ATTLEBORO, MA, 2760","Match","Exact","355 KELLEY BLVD, NORTH ATTLEBORO, MA, 02760",46815823,"R"
184559,"355 KENYON AVE","ELYRIA","OH",44035,41.3665859930001,-82.093156672,59,"355 KENYON AVE, ELYRIA, OH, 44035","Match","Exact","355 KENYON AVE, ELYRIA, OH, 44035",55413278,"R"
184560,"355 KRIM STREET","MISSOULA","MT",59804,46.867710318,-114.074511087,60,"355 KRIM STREET, MISSOULA, MT, 59804","Match","Exact","355 KRIM ST, MISSOULA, MT, 59804",205253168,"L"
184561,"355 LAKE AVENUE","COLONIA","NJ",7067,40.60559433,-74.319634338,61,"355 LAKE AVENUE, COLONIA, NJ, 7067","Match","Exact","355 LAKE AVE, COLONIA, NJ, 07067",60361968,"L"
184562,"355 LEXINGTON AVENUE","NEW YORK","NY",10017,40.7502040200001,-73.9769421669999,62,"355 LEXINGTON AVENUE, NEW YORK, NY, 10017","Match","Exact","355 LEXINGTON AVE, NEW YORK, NY, 10017",59662082,"R"
184563,"355 MAIN STREET SOUTH","FORMAN","ND",58032,46.1049680100001,-97.636374211,63,"355 MAIN STREET SOUTH, FORMAN, ND, 58032","Match","Non_Exact","355 MAIN ST SW, FORMAN, ND, 58032",199545975,"L"
184564,"355 MAIN STREET","CHADRON","NE",69337,42.828511867,-103.000747702,64,"355 MAIN STREET, CHADRON, NE, 69337","Match","Exact","355 MAIN ST, CHADRON, NE, 69337",164260245,"R"
184565,"355 MARSHALL AVENUE - 301","SAINT PAUL","MN",55104,44.9481953000001,-93.1148687209999,65,"355 MARSHALL AVENUE - 301, SAINT PAUL, MN, 55104","Match","Non_Exact","355 MARSHALL AVE, SAINT PAUL, MN, 55102",97647785,"R"
184566,"355 MID RIVERS MALL DR","SAINT PETERS","MO",63376,38.790678745,-90.625264126,66,"355 MID RIVERS MALL DR, SAINT PETERS, MO, 63376","Match","Exact","355 MID RIVERS MALL DR, SAINT PETERS, MO, 63376",635858971,"L"
184567,"355 MIDDLE ROAD","BRENTWOOD","NH",3833,42.984602813,-71.0645211029999,67,"355 MIDDLE ROAD, BRENTWOOD, NH, 3833","Match","Exact","355 MIDDLE RD, BRENTWOOD, NH, 03833",113671905,"L"
184568,"355 MONUMENT RD APT 22 E1","JACKSONVILLE","FL",32225,30.3276455810001,-81.5469280739999,68,"355 MONUMENT RD APT 22 E1, JACKSONVILLE, FL, 32225","Match","Exact","355 MONUMENT RD, JACKSONVILLE, FL, 32225",83969814,"R"
184569,"355 N 500 W APT 503","SALT LAKE CITY","UT",84116,NA,NA,69,"355 N 500 W APT 503, SALT LAKE CITY, UT, 84116","No_Match",NA,NA,NA,NA
184570,"355 N LA GRANGE RD","LA GRANGE PARK","IL",60526,41.8212573920001,-87.870298052,70,"355 N LA GRANGE RD, LA GRANGE PARK, IL, 60526","Match","Exact","355 N LA GRANGE RD, LA GRANGE PARK, IL, 60526",111790129,"R"
184571,"355 N LANTANA SUITE 573","CAMARILLO","CA",93010,34.2378969280001,-119.054615777,71,"355 N LANTANA SUITE 573, CAMARILLO, CA, 93010","Match","Non_Exact","355 LANTANA ST, CAMARILLO, CA, 93010",110116197,"L"
184572,"355 N PEETS RD","MIDDLEVILLE","MI",49333,NA,NA,72,"355 N PEETS RD, MIDDLEVILLE, MI, 49333","Tie",NA,NA,NA,NA
184573,"355 NEWCASTLE STREET","BOCA RATON","FL",33487,26.3982229100001,-80.077777867,73,"355 NEWCASTLE STREET, BOCA RATON, FL, 33487","Match","Exact","355 NEWCASTLE ST, BOCA RATON, FL, 33487",115293285,"L"
184574,"355 NORTH 300 WEST","SALT LAKE CITY","UT",84103,40.7770958520001,-111.899684449,74,"355 NORTH 300 WEST, SALT LAKE CITY, UT, 84103","Match","Exact","355 N 300 W, SALT LAKE CITY, UT, 84103",176097200,"R"
184575,"355 NORTH BELVEDERE DRIVE","GALLATIN","TN",37066,NA,NA,75,"355 NORTH BELVEDERE DRIVE, GALLATIN, TN, 37066","No_Match",NA,NA,NA,NA
184576,"355 NORTH WELCO DRIVE","SAINT PETER","MN",56082,44.351388715,-93.958841918,76,"355 NORTH WELCO DRIVE, SAINT PETER, MN, 56082","Match","Exact","355 N WELCO DR, SAINT PETER, MN, 56082",28699124,"R"
184577,"355 NW 3RD COURT","DEERFIELD BEACH","FL",33441,NA,NA,77,"355 NW 3RD COURT, DEERFIELD BEACH, FL, 33441","Tie",NA,NA,NA,NA
184578,"355 NW 6TH AVENUE","MICANOPY","FL",32667,NA,NA,78,"355 NW 6TH AVENUE, MICANOPY, FL, 32667","No_Match",NA,NA,NA,NA
184579,"355 NW LOCUST AVE","EARLHAM","IA",50072,41.494016312,-94.124417663,79,"355 NW LOCUST AVE, EARLHAM, IA, 50072","Match","Exact","355 NW LOCUST AVE, EARLHAM, IA, 50072",75195250,"L"
184580,"355 NW SILVERADO DR","BEAVERTON","OR",97006,45.522116211,-122.844274811,80,"355 NW SILVERADO DR, BEAVERTON, OR, 97006","Match","Exact","355 NW SILVERADO DR, BEAVERTON, OR, 97006",158196520,"R"
184581,"355 ORENDROFF WAY NE","COLUMBIA HEIGHTS","MN",55421,45.0381443000001,-93.2616017079999,81,"355 ORENDROFF WAY NE, COLUMBIA HEIGHTS, MN, 55421","Match","Non_Exact","355 ORENDORF WAY NE, COLUMBIA HEIGHTS, MN, 55421",617527261,"R"
184582,"355 PACIFIC AVENUE NORTH SUITE B","MONMOUTH","OR",97361,44.851370339,-123.229295858,82,"355 PACIFIC AVENUE NORTH SUITE B, MONMOUTH, OR, 97361","Match","Exact","355 PACIFIC AVE N, MONMOUTH, OR, 97361",155775889,"R"
184583,"355 PARAGON DR","BOULDER","CO",80303,39.983918052,-105.174173587,83,"355 PARAGON DR, BOULDER, CO, 80303","Match","Exact","355 PARAGON DR, BOULDER, CO, 80303",188210580,"R"
184584,"355 PINE CREEK ROAD","WEXFORD","PA",15090,40.5928710330001,-80.058376948,84,"355 PINE CREEK ROAD, WEXFORD, PA, 15090","Match","Exact","355 PINE CREEK RD, WEXFORD, PA, 15090",51606223,"L"
184585,"355 PROSPECT VALLEY ROAD","WILLSEYVILLE","NY",13864,42.281533358,-76.352426844,85,"355 PROSPECT VALLEY ROAD, WILLSEYVILLE, NY, 13864","Match","Exact","355 PROSPECT VALLEY RD, WILLSEYVILLE, NY, 13864",46715568,"R"
184586,"355 REDONDO AVE","LONG BEACH","CA",90814,33.7701640450001,-118.15241296,86,"355 REDONDO AVE, LONG BEACH, CA, 90814","Match","Non_Exact","355 N REDONDO AVE, LONG BEACH, CA, 90814",141701760,"L"
184587,"355 RONSDALE ROAD","SYKESVILLE","MD",21784,39.4225363630001,-76.981748168,87,"355 RONSDALE ROAD, SYKESVILLE, MD, 21784","Match","Exact","355 RONSDALE RD, SYKESVILLE, MD, 21784",61755631,"R"
184588,"355 RUELA DR STE 1","EAGLE PASS","TX",78852,28.6558736810001,-100.426788971,88,"355 RUELA DR STE 1, EAGLE PASS, TX, 78852","Match","Exact","355 RUELA DR, EAGLE PASS, TX, 78852",183366237,"L"
184589,"355 S GRAND AVE STE 2450","LOS ANGELES","CA",90071,34.0527026400001,-118.251544452,89,"355 S GRAND AVE STE 2450, LOS ANGELES, CA, 90071","Match","Non_Exact","355 S GRAND AVE, LOS ANGELES, CA, 90071",241132966,"R"
184590,"355 S LEMON AVE STE B","WALNUT","CA",91789,NA,NA,90,"355 S LEMON AVE STE B, WALNUT, CA, 91789","No_Match",NA,NA,NA,NA
184591,"355 SAINT CATHERINE STREET","WINSTED","CT",6098,41.911281869,-73.08780906,91,"355 SAINT CATHERINE STREET, WINSTED, CT, 6098","Match","Non_Exact","355 ST CATHERINE, WINSTED, CT, 06098",646025354,"R"
184592,"355 SELDON ROAD","PETOSKEY","MI",49770,NA,NA,92,"355 SELDON ROAD, PETOSKEY, MI, 49770","No_Match",NA,NA,NA,NA
184593,"355 SENECA RD PO BOX 235","HORNELL","NY",14843,42.3434653240001,-77.660474017,93,"355 SENECA RD PO BOX 235, HORNELL, NY, 14843","Match","Exact","355 SENECA RD, HORNELL, NY, 14843",14726659,"R"
184594,"355 SHADOW CREEK DRIVE","BRENTWOOD","TN",37027,36.0042190080001,-86.731194651,94,"355 SHADOW CREEK DRIVE, BRENTWOOD, TN, 37027","Match","Exact","355 SHADOW CREEK DR, BRENTWOOD, TN, 37027",630049153,"L"
184595,"355 SHEFFIELD COURT","SAN JOSE","CA",95125,37.2919972180001,-121.921228575,95,"355 SHEFFIELD COURT, SAN JOSE, CA, 95125","Match","Exact","355 SHEFFIELD CT, SAN JOSE, CA, 95125",122906233,"L"
184596,"355 SHELBY","RADCLIFF","KY",40160,37.8135607030001,-85.9161756089999,96,"355 SHELBY, RADCLIFF, KY, 40160","Match","Non_Exact","355 SHELBY AVE, RADCLIFF, KY, 40160",34618859,"R"
184597,"355 SHEPPARDS MILL ROAD","BRIDGETON","NJ",8302,39.399701087,-75.284521392,97,"355 SHEPPARDS MILL ROAD, BRIDGETON, NJ, 8302","Match","Exact","355 SHEPPARDS MILL RD, BRIDGETON, NJ, 08302",174132175,"L"
184598,"355 SKYLINE DRIVE","TAYLORSVILLE","KY",40071,38.1018539630001,-85.380230933,98,"355 SKYLINE DRIVE, TAYLORSVILLE, KY, 40071","Match","Exact","355 SKYLINE DR, TAYLORSVILLE, KY, 40071",47765021,"L"
184599,"355 SLEEPY HOLLOW RD","CHARLOTTE","NC",28217,35.1663415350001,-80.9000054099999,99,"355 SLEEPY HOLLOW RD, CHARLOTTE, NC, 28217","Match","Exact","355 SLEEPY HOLLOW RD, CHARLOTTE, NC, 28217",70484322,"L"
184600,"355 SOUTH END AVE 2M","NEW YORK","NY",10280,40.7107725380001,-74.016110558,100,"355 SOUTH END AVE 2M, NEW YORK, NY, 10280","Match","Exact","355 S END AVE, NEW YORK, NY, 10280",650069441,"L"
184601,"355 SOUTH GRAND AVENUE  STE 2450","LOS ANGELES","CA",90071,34.0527085320001,-118.251538947,101,"355 SOUTH GRAND AVENUE  STE 2450, LOS ANGELES, CA, 90071","Match","Exact","355 S GRAND AVE, LOS ANGELES, CA, 90071",241132966,"R"
184602,"355 SPRING TIME ST","SPRING HILL","FL",34608,28.4409957610001,-82.555428503,102,"355 SPRING TIME ST, SPRING HILL, FL, 34608","Match","Exact","355 SPRING TIME ST, SPRING HILL, FL, 34608",85446230,"L"
184603,"355 STANTON DRIVE","DEWITT","NY",13214,43.050491622,-76.074409363,103,"355 STANTON DRIVE, DEWITT, NY, 13214","Match","Non_Exact","355 STANTON DR, DE WITT, NY, 13214",46575361,"L"
184604,"355 STATE ST 3WF","ALBANY","NY",12210,42.65590587,-73.7642707809999,104,"355 STATE ST 3WF, ALBANY, NY, 12210","Match","Exact","355 STATE ST, ALBANY, NY, 12210",18310345,"R"
184605,"355 TAILWIND DR","KYLE","TX",78640,30.026496524,-97.8169546519999,105,"355 TAILWIND DR, KYLE, TX, 78640","Match","Exact","355 TAILWIND DR, KYLE, TX, 78640",651449333,"L"
184606,"355 TAPLIN ROAD","SAINT HELENA","CA",94574,38.5030219650001,-122.426409207,106,"355 TAPLIN ROAD, SAINT HELENA, CA, 94574","Match","Exact","355 TAPLIN RD, SAINT HELENA, CA, 94574",67413062,"L"
184607,"355 TEMPO LANE","MILPITAS","CA",95035,37.4056455460001,-121.895199405,107,"355 TEMPO LANE, MILPITAS, CA, 95035","Match","Exact","355 TEMPO LN, MILPITAS, CA, 95035",648533905,"R"
184608,"355 TREMONT STREET","TAUNTON","MA",2780,41.911432054,-71.142393964,108,"355 TREMONT STREET, TAUNTON, MA, 2780","Match","Exact","355 TREMONT ST, TAUNTON, MA, 02780",46759416,"L"
184609,"355 W 8TH ST","NORTHPORT","MI",49670,45.1371894230001,-85.623093954,109,"355 W 8TH ST, NORTHPORT, MI, 49670","Match","Exact","355 8TH ST, NORTHPORT, MI, 49670",145983882,"L"
184610,"355 W OLIVE AVE STE 202","SUNNYVALE","CA",94086,NA,NA,110,"355 W OLIVE AVE STE 202, SUNNYVALE, CA, 94086","Tie",NA,NA,NA,NA
184611,"355 W POTTER DRIVE","ANCHORAGE","AK",99518,61.1703836080001,-149.889198793,111,"355 W POTTER DRIVE, ANCHORAGE, AK, 99518","Match","Exact","355 W POTTER DR, ANCHORAGE, AK, 99518",190798421,"R"
184612,"355 WARREN AVENUE","STIRLING","NJ",7980,40.6702882810001,-74.490969977,112,"355 WARREN AVENUE, STIRLING, NJ, 7980","Match","Exact","355 WARREN AVE, STIRLING, NJ, 07980",636222209,"R"
184613,"355 WEST 26TH STREET","ERIE","PA",16508,42.1090537420001,-80.081325271,113,"355 WEST 26TH STREET, ERIE, PA, 16508","Match","Exact","355 W 26TH ST, ERIE, PA, 16508",117494879,"L"
184614,"355 WEST DELONEY AVENUE APT D7","JACKSON","WY",83001,43.480329415,-110.767403097,114,"355 WEST DELONEY AVENUE APT D7, JACKSON, WY, 83001","Match","Exact","355 W DELONEY AVE, JACKSON, WY, 83001",130425485,"L"
184615,"355 WEST MESQUITE BOULEVARD D30-152","MESQUITE","NV",89027,36.804000006,-114.07438055,115,"355 WEST MESQUITE BOULEVARD D30-152, MESQUITE, NV, 89027","Match","Exact","355 W MESQUITE BLVD, MESQUITE, NV, 89027",201890265,"L"
184616,"355 WEST STATE STREET","ATHENS","OH",45701,39.333814696,-82.117011438,116,"355 WEST STATE STREET, ATHENS, OH, 45701","Match","Exact","355 W STATE ST, ATHENS, OH, 45701",635532500,"L"
184617,"3550 34TH STREET  SUITE 1ST FLOOR","ASTORIA","NY",11106,NA,NA,117,"3550 34TH STREET  SUITE 1ST FLOOR, ASTORIA, NY, 11106","No_Match",NA,NA,NA,NA
184618,"3550 ASHLEY PHOSPHATE ROAD","NORTH CHARLESTON","SC",29418,32.9276375810001,-80.077313934,118,"3550 ASHLEY PHOSPHATE ROAD, NORTH CHARLESTON, SC, 29418","Match","Exact","3550 ASHLEY PHOSPHATE RD, N CHARLESTON, SC, 29418",108908926,"L"
184619,"3550 BARKWOOD DRIVE","JOHNSTOWN","CO",80534,NA,NA,119,"3550 BARKWOOD DRIVE, JOHNSTOWN, CO, 80534","No_Match",NA,NA,NA,NA
184620,"3550 BENTLEY DRIVE","SPRING VALLEY","CA",91977,32.7445400620001,-117.010279885,120,"3550 BENTLEY DRIVE, SPRING VALLEY, CA, 91977","Match","Exact","3550 BENTLEY DR, SPRING VALLEY, CA, 91977",612893273,"L"
184621,"3550 BISCAYNE BLVD  SUITE 304","MIAMI","FL",33137,NA,NA,121,"3550 BISCAYNE BLVD  SUITE 304, MIAMI, FL, 33137","No_Match",NA,NA,NA,NA
184622,"3550 CARRIAGE WALK LANE","LAUREL","MD",20724,39.10316942,-76.7957952679999,122,"3550 CARRIAGE WALK LANE, LAUREL, MD, 20724","Match","Exact","3550 CARRIAGE WALK LN, LAUREL, MD, 20724",618593674,"R"
184623,"3550 CHATEAU DRIVE","EAST NEW MARKET","MD",21631,38.552671726,-75.975607645,123,"3550 CHATEAU DRIVE, EAST NEW MARKET, MD, 21631","Match","Exact","3550 CHATEAU DR, EAST NEW MARKET, MD, 21631",99676025,"L"
184624,"3550 COUNTRY CLUB DR S","SALEM","OR",97302,44.9031076900001,-123.10752613,124,"3550 COUNTRY CLUB DR S, SALEM, OR, 97302","Match","Exact","3550 COUNTRY CLUB DR S, SALEM, OR, 97302",613681220,"L"
184625,"3550 COUNTRY SQUARE DR NUMBER 607","DALLAS","TX",75006,32.9638588650001,-96.851513778,125,"3550 COUNTRY SQUARE DR NUMBER 607, DALLAS, TX, 75006","Match","Non_Exact","3550 COUNTRY SQUARE DR, CARROLLTON, TX, 75006",611520956,"R"
184626,"3550 COUNTY ROAD 245","FLORENCE","TX",76527,30.7697490690001,-97.7883606569999,126,"3550 COUNTY ROAD 245, FLORENCE, TX, 76527","Match","Exact","3550 CO RD 245, FLORENCE, TX, 76527",126492699,"R"
184627,"3550 COURTLAND DRIVE","BATON ROUGE","LA",70814,30.4828030790001,-91.08635679,127,"3550 COURTLAND DRIVE, BATON ROUGE, LA, 70814","Match","Exact","3550 COURTLAND DR, BATON ROUGE, LA, 70814",92189026,"R"
184628,"3550 CRESTVIEW DR","PITTSBURG","CA",94565,38.0089831490001,-121.900782419,128,"3550 CRESTVIEW DR, PITTSBURG, CA, 94565","Match","Exact","3550 CRESTVIEW DR, PITTSBURG, CA, 94565",617630333,"R"
184629,"3550 E 2351ST RD","SERENA","IL",60549,41.4499849380001,-88.732999525,129,"3550 E 2351ST RD, SERENA, IL, 60549","Match","Exact","3550 E 2351ST RD, SERENA, IL, 60549",8615952,"L"
184630,"3550 E 300 S","KAMAS","UT",84036,NA,NA,130,"3550 E 300 S, KAMAS, UT, 84036","No_Match",NA,NA,NA,NA
184631,"3550 EARLY WOODLAND PLACE","FAIRFAX","VI",22031,NA,NA,131,"3550 EARLY WOODLAND PLACE, FAIRFAX, VI, 22031","No_Match",NA,NA,NA,NA
184632,"3550 EAST 2351ST ROAD","SERENA","IL",60549,41.4499705850001,-88.73299865,132,"3550 EAST 2351ST ROAD, SERENA, IL, 60549","Match","Exact","3550 E 2351ST RD, SERENA, IL, 60549",8615952,"L"
184633,"3550 ESPLANADE WAY-12108","TALLAHASSEE","FL",32311,30.4043692590001,-84.232842658,133,"3550 ESPLANADE WAY-12108, TALLAHASSEE, FL, 32311","Match","Non_Exact","3550 ESPLANADE WAY, TALLAHASSEE, FL, 32311",618803192,"R"
184634,"3550 ESTATES LANDING DRIVE NW","KENNESAW","GA",30144,34.03742147,-84.549302273,134,"3550 ESTATES LANDING DRIVE NW, KENNESAW, GA, 30144","Match","Non_Exact","3550 ESTATES LANDING DR, KENNESAW, GA, 30144",618320134,"R"
184635,"3550 EXECUTIVE PARKWAY SUITE 7 118","TOLEDO","OH",43606,41.682612003,-83.6269201809999,135,"3550 EXECUTIVE PARKWAY SUITE 7 118, TOLEDO, OH, 43606","Match","Exact","3550 EXECUTIVE PKWY, TOLEDO, OH, 43606",33950449,"R"
184636,"3550 EXECUTIVE PARKWAY SUITE 7-170","TOLEDO","OH",43604,41.682612003,-83.6269201809999,136,"3550 EXECUTIVE PARKWAY SUITE 7-170, TOLEDO, OH, 43604","Match","Non_Exact","3550 EXECUTIVE PKWY, TOLEDO, OH, 43606",33950449,"R"
184637,"3550 EXECUTIVE PARKWAY SUITE 7-191","TOLEDO","OH",43606,41.682612003,-83.6269201809999,137,"3550 EXECUTIVE PARKWAY SUITE 7-191, TOLEDO, OH, 43606","Match","Exact","3550 EXECUTIVE PKWY, TOLEDO, OH, 43606",33950449,"R"
184638,"3550 EXECUTIVE PARKWAY SUITE 7-194","TOLEDO","OH",43606,41.682612003,-83.6269201809999,138,"3550 EXECUTIVE PARKWAY SUITE 7-194, TOLEDO, OH, 43606","Match","Exact","3550 EXECUTIVE PKWY, TOLEDO, OH, 43606",33950449,"R"
184639,"3550 EXECUTIVE PARKWAY SUITE 7-220","TOLEDO","OH",43606,41.682612003,-83.6269201809999,139,"3550 EXECUTIVE PARKWAY SUITE 7-220, TOLEDO, OH, 43606","Match","Exact","3550 EXECUTIVE PKWY, TOLEDO, OH, 43606",33950449,"R"
184640,"3550 EXECUTIVE PARKWAY SUITE 7-232","TOLEDO","OH",43606,41.682612003,-83.6269201809999,140,"3550 EXECUTIVE PARKWAY SUITE 7-232, TOLEDO, OH, 43606","Match","Exact","3550 EXECUTIVE PKWY, TOLEDO, OH, 43606",33950449,"R"
184641,"3550 EXECUTIVE PARKWAY SUITE 7-235","TOLEDO","OH",43606,41.682612003,-83.6269201809999,141,"3550 EXECUTIVE PARKWAY SUITE 7-235, TOLEDO, OH, 43606","Match","Exact","3550 EXECUTIVE PKWY, TOLEDO, OH, 43606",33950449,"R"
184642,"3550 EXECUTIVE PARKWAY SUITE 7-242","TOLEDO","OH",43606,41.682612003,-83.6269201809999,142,"3550 EXECUTIVE PARKWAY SUITE 7-242, TOLEDO, OH, 43606","Match","Exact","3550 EXECUTIVE PKWY, TOLEDO, OH, 43606",33950449,"R"
184643,"3550 EXECUTIVE PARKWAY SUITE 7-244","TOLEDO","OH",43606,41.682612003,-83.6269201809999,143,"3550 EXECUTIVE PARKWAY SUITE 7-244, TOLEDO, OH, 43606","Match","Exact","3550 EXECUTIVE PKWY, TOLEDO, OH, 43606",33950449,"R"
184644,"3550 EXECUTIVE PARKWAY SUITE 7-268","TOLEDO","OH",43606,41.682612003,-83.6269201809999,144,"3550 EXECUTIVE PARKWAY SUITE 7-268, TOLEDO, OH, 43606","Match","Exact","3550 EXECUTIVE PKWY, TOLEDO, OH, 43606",33950449,"R"
184645,"3550 EXECUTIVE PARKWAY SUITE 7-310","TOLEDO","OH",43606,41.682612003,-83.6269201809999,145,"3550 EXECUTIVE PARKWAY SUITE 7-310, TOLEDO, OH, 43606","Match","Exact","3550 EXECUTIVE PKWY, TOLEDO, OH, 43606",33950449,"R"
184646,"3550 FELSITE AVEUNE","ROSAMOND","CA",93560,34.8711000170001,-118.194612452,146,"3550 FELSITE AVEUNE, ROSAMOND, CA, 93560","Match","Non_Exact","3550 FELSITE AVE, ROSAMOND, CA, 93560",109102331,"R"
184647,"3550 FRONTIER AVENUE   UNIT D","BOULDER","CO",80301,40.0240415490001,-105.247449319,147,"3550 FRONTIER AVENUE   UNIT D, BOULDER, CO, 80301","Match","Exact","3550 FRONTIER AVE, BOULDER, CO, 80301",188162494,"L"
184648,"3550 LITTLE SYCAMORE RD","TAZEWELL","TN",37879,36.4671286810001,-83.484697871,148,"3550 LITTLE SYCAMORE RD, TAZEWELL, TN, 37879","Match","Exact","3550 LITTLE SYCAMORE RD, TAZEWELL, TN, 37879",42182148,"R"
184649,"3550 LOGAN AVENUE","SAN DIEGO","CA",92113,32.6975057610001,-117.11770053,149,"3550 LOGAN AVENUE, SAN DIEGO, CA, 92113","Match","Exact","3550 LOGAN AVE, SAN DIEGO, CA, 92113",195742192,"L"
184650,"3550 LOWREY CT","NAPA","CA",94558,38.3020078810001,-122.345792159,150,"3550 LOWREY CT, NAPA, CA, 94558","Match","Exact","3550 LOWREY CT, NAPA, CA, 94558",67414035,"R"
184651,"3550 MAIN ST APT 7110","HOUSTON","TX",77002,29.7394033260001,-95.378820557,151,"3550 MAIN ST APT 7110, HOUSTON, TX, 77002","Match","Exact","3550 MAIN ST, HOUSTON, TX, 77002",96070977,"R"
184652,"3550 N 5000W RD","KANKAKEE","IL",60901,41.169819616,-87.972311363,152,"3550 N 5000W RD, KANKAKEE, IL, 60901","Match","Exact","3550 N 5000W RD, KANKAKEE, IL, 60901",98354194,"R"
184653,"3550 N LAKE SHORE DRIVE SUITE 924","CHICAGO","IL",60657,NA,NA,153,"3550 N LAKE SHORE DRIVE SUITE 924, CHICAGO, IL, 60657","No_Match",NA,NA,NA,NA
184654,"3550 N LAKELINE BLVD 170-1225","LEANDER","TX",78641,30.5444312130001,-97.864144078,154,"3550 N LAKELINE BLVD 170-1225, LEANDER, TX, 78641","Match","Non_Exact","3550 N LAKELINE BLVD, LEANDER, TX, 78641",639608741,"R"
184655,"3550 NORTH DOVE LAKES DR SUITE 104","CAVE CREEK","AZ",85331,NA,NA,155,"3550 NORTH DOVE LAKES DR SUITE 104, CAVE CREEK, AZ, 85331","No_Match",NA,NA,NA,NA
184656,"3550 NW 33RD STREET","MIAMI","FL",33142,25.8058902560001,-80.2533884699999,156,"3550 NW 33RD STREET, MIAMI, FL, 33142","Match","Exact","3550 NW 33RD ST, MIAMI, FL, 33142",116001971,"L"
184657,"3550 NW 83RD AVE APT 609","DORAL","FL",33122,25.8082041970001,-80.3312362679999,157,"3550 NW 83RD AVE APT 609, DORAL, FL, 33122","Match","Non_Exact","3550 NW 83RD AVE, DORAL, FL, 33122",648372962,"R"
184658,"3550 PARK STREET N","ST PETERSBURG","FL",33710,27.804361375,-82.753821333,158,"3550 PARK STREET N, ST PETERSBURG, FL, 33710","Match","Exact","3550 PARK ST N, SAINT PETERSBURG, FL, 33710",124692839,"L"
184659,"3550 PARKWOOD BLVD  SUITE 401","FRISCO","TX",75034,NA,NA,159,"3550 PARKWOOD BLVD  SUITE 401, FRISCO, TX, 75034","No_Match",NA,NA,NA,NA
184660,"3550 S 4TH STREET SUITE 120","LEAVENWORTH","KS",66048,39.283318378,-94.903281226,160,"3550 S 4TH STREET SUITE 120, LEAVENWORTH, KS, 66048","Match","Non_Exact","3550 S 4TH ST, LEAVENWORTH, KS, 66048",91408499,"L"
184661,"3550 S HARLAN STREET  SUITE 170","DENVER","CO",80235,39.766076673,-105.062611433,161,"3550 S HARLAN STREET  SUITE 170, DENVER, CO, 80235","Match","Non_Exact","3550 HARLAN ST, DENVER, CO, 80033",177299367,"R"
184662,"3550 SAN MATEO RD","WATERFORD","MI",48329,42.691318747,-83.34550097,162,"3550 SAN MATEO RD, WATERFORD, MI, 48329","Match","Exact","3550 SAN MATEO RD, WATERFORD, MI, 48329",69701487,"R"
184663,"3550 SEDGEMOOR CIRCLE","CARMEL","IN",46032,39.9494362620001,-86.2162022969999,163,"3550 SEDGEMOOR CIRCLE, CARMEL, IN, 46032","Match","Exact","3550 SEDGEMOOR CIR, CARMEL, IN, 46032",29309425,"L"
184664,"3550 SOUTH RHODES AVENUE  APT 2008","CHICAGO","IL",60653,41.8300725670001,-87.614467259,164,"3550 SOUTH RHODES AVENUE  APT 2008, CHICAGO, IL, 60653","Match","Exact","3550 S RHODES AVE, CHICAGO, IL, 60653",605538307,"R"
184665,"3550 STATE ROUTE 105","GRAYLAND","WA",98590,46.7456836440001,-124.08045379,165,"3550 STATE ROUTE 105, GRAYLAND, WA, 98590","Match","Non_Exact","3550 STATE RTE 105, GRAYLAND, WA, 98547",636492111,"L"
184666,"3550 STEVENS CREEK BLVD STE 235","SAN JOSE","CA",95117,37.3231648350001,-121.961200917,166,"3550 STEVENS CREEK BLVD STE 235, SAN JOSE, CA, 95117","Match","Exact","3550 STEVENS CREEK BLVD, SAN JOSE, CA, 95117",638614210,"L"
184667,"3550 STEVENS CREEK BLVD STE 310","SAN JOSE","CA",95117,37.3231648350001,-121.961200917,167,"3550 STEVENS CREEK BLVD STE 310, SAN JOSE, CA, 95117","Match","Exact","3550 STEVENS CREEK BLVD, SAN JOSE, CA, 95117",638614210,"L"
184668,"3550 STEVENS CREEK BLVD UNIT 310","SAN JOSE","CA",95117,37.3231648350001,-121.961200917,168,"3550 STEVENS CREEK BLVD UNIT 310, SAN JOSE, CA, 95117","Match","Exact","3550 STEVENS CREEK BLVD, SAN JOSE, CA, 95117",638614210,"L"
184669,"3550 SW 117TH CT","OCALA","FL",34481,29.1533098800001,-82.314184045,169,"3550 SW 117TH CT, OCALA, FL, 34481","Match","Exact","3550 SW 117TH CT, OCALA, FL, 34481",635625833,"L"
184670,"3550 TEMPLE HALL HWY","GRANBURY","TX",76049,32.530752427,-97.7251370119999,170,"3550 TEMPLE HALL HWY, GRANBURY, TX, 76049","Match","Exact","3550 TEMPLE HALL HWY, GRANBURY, TX, 76049",158813403,"L"
184671,"3550 W 38TH AVE APT 658","DENVER","CO",80211,39.769522507,-105.034070268,171,"3550 W 38TH AVE APT 658, DENVER, CO, 80211","Match","Non_Exact","3550 W 38TH AVE, DENVER, CO, 80211",177300655,"L"
184672,"3550 W MONTROSE AVE UNIT 507","CHICAGO","IL",60618,41.9610870230001,-87.7171958869999,172,"3550 W MONTROSE AVE UNIT 507, CHICAGO, IL, 60618","Match","Non_Exact","3550 W MONTROSE AVE, CHICAGO, IL, 60618",111756564,"R"
184673,"3550 W PETERSON AVE 203 2ND FL","CHICAGO","IL",60659,41.990279732,-87.718071423,173,"3550 W PETERSON AVE 203 2ND FL, CHICAGO, IL, 60659","Match","Non_Exact","3550 W PETERSON AVE, CHICAGO, IL, 60659",111742375,"R"
184674,"3550 WATERMELON RD APT 15 C","NORTHPORT","AL",35473,33.23820362,-87.551736611,174,"3550 WATERMELON RD APT 15 C, NORTHPORT, AL, 35473","Match","Exact","3550 WATERMELON RD, NORTHPORT, AL, 35473",639591083,"R"
184675,"3550 WATT AVE STE 140","SACRAMENTO","CA",95821,38.629715167,-121.382884485,175,"3550 WATT AVE STE 140, SACRAMENTO, CA, 95821","Match","Exact","3550 WATT AVE, SACRAMENTO, CA, 95821",133333322,"R"
184676,"3550 WEST 117TH STREET","CLEVELAND","OH",44111,41.4562849180001,-81.7689806819999,176,"3550 WEST 117TH STREET, CLEVELAND, OH, 44111","Match","Exact","3550 W 117TH ST, CLEVELAND, OH, 44111",61103154,"R"
184677,"3550 WILSHIRE BLVD STE 700","LOS ANGELES","CA",90010,34.0617301070001,-118.302059779,177,"3550 WILSHIRE BLVD STE 700, LOS ANGELES, CA, 90010","Match","Exact","3550 WILSHIRE BLVD, LOS ANGELES, CA, 90010",141603898,"L"
184678,"3550 WILSHIRE BLVD SUITE 860B","LOS ANGELES","CA",90010,34.0617301070001,-118.302059779,178,"3550 WILSHIRE BLVD SUITE 860B, LOS ANGELES, CA, 90010","Match","Exact","3550 WILSHIRE BLVD, LOS ANGELES, CA, 90010",141603898,"L"
184679,"3550 WOODSIDE DRIVE","COLUMBUS","IN",47203,39.238146908,-85.922449543,179,"3550 WOODSIDE DRIVE, COLUMBUS, IN, 47203","Match","Exact","3550 WOODSIDE DR, COLUMBUS, IN, 47203",606490803,"L"
184680,"3551 ADAMS LANDING DRIVE","POWDER SPRINGS","GA",30127,33.8905961040001,-84.656165675,180,"3551 ADAMS LANDING DRIVE, POWDER SPRINGS, GA, 30127","Match","Exact","3551 ADAMS LANDING DR, POWDER SPGS, GA, 30127",650729712,"R"
184681,"3551 AVENUE C","LAKE CHARLES","LA",70615,NA,NA,181,"3551 AVENUE C, LAKE CHARLES, LA, 70615","No_Match",NA,NA,NA,NA
184682,"3551 BLAIRSTONE ROAD SUITE 105-129","TALLAHASSEE","FL",32301,30.402531636,-84.238089795,182,"3551 BLAIRSTONE ROAD SUITE 105-129, TALLAHASSEE, FL, 32301","Match","Non_Exact","3551 BLAIR STONE RD, TALLAHASSEE, FL, 32301",610918601,"L"
184683,"3551 BLAIRSTONE ROAD SUITE 128-217","TALLAHASSEE","FL",32301,30.402531636,-84.238089795,183,"3551 BLAIRSTONE ROAD SUITE 128-217, TALLAHASSEE, FL, 32301","Match","Non_Exact","3551 BLAIR STONE RD, TALLAHASSEE, FL, 32301",610918601,"L"
184684,"3551 BLAIRSTONE ROAD SUITE 128-233","TALLAHASSEE","FL",32301,30.402531636,-84.238089795,184,"3551 BLAIRSTONE ROAD SUITE 128-233, TALLAHASSEE, FL, 32301","Match","Non_Exact","3551 BLAIR STONE RD, TALLAHASSEE, FL, 32301",610918601,"L"
184685,"3551 BROWN MILL ROAD","ATLANTA","GA",30354,33.6588732980001,-84.387647543,185,"3551 BROWN MILL ROAD, ATLANTA, GA, 30354","Match","Non_Exact","3551 BROWNS MILL RD, ATLANTA, GA, 30354",17350172,"R"
184686,"3551 CAMINO MIRA COSTA SUITE E","SAN CLEMENTE","CA",92672,NA,NA,186,"3551 CAMINO MIRA COSTA SUITE E, SAN CLEMENTE, CA, 92672","No_Match",NA,NA,NA,NA
184687,"3551 COVENTRYVILLE ROAD","POTTSTOWN","PA",19465,40.1677685830001,-75.690109116,187,"3551 COVENTRYVILLE ROAD, POTTSTOWN, PA, 19465","Match","Exact","3551 COVENTRYVILLE RD, POTTSTOWN, PA, 19465",179544373,"R"
184688,"3551 ESKEW COURT","WOODBRIDGE","VA",22192,38.6783159030001,-77.317309082,188,"3551 ESKEW COURT, WOODBRIDGE, VA, 22192","Match","Exact","3551 ESKEW CT, WOODBRIDGE, VA, 22192",76524328,"L"
184689,"3551 FLOWERS CHAPEL RD","DOTHAN","AL",36305,31.2237301160001,-85.458455063,189,"3551 FLOWERS CHAPEL RD, DOTHAN, AL, 36305","Match","Exact","3551 FLOWERS CHAPEL RD, DOTHAN, AL, 36305",640057436,"R"
184690,"3551 FOREST HAVEN DRIVE","LAUREL","MD",20724,39.103521056,-76.811374201,190,"3551 FOREST HAVEN DRIVE, LAUREL, MD, 20724","Match","Exact","3551 FOREST HAVEN DR, LAUREL, MD, 20724",68213825,"L"
184691,"3551 HEATHER TRAILS DR","FLORISSANT","MO",63031,38.835954746,-90.319300713,191,"3551 HEATHER TRAILS DR, FLORISSANT, MO, 63031","Match","Exact","3551 HEATHER TRAILS DR, FLORISSANT, MO, 63031",100116116,"L"
184692,"3551 LAWRENCEVILLE RD - MS-G13-01","PRINCETON","NJ",8540,40.3152743520001,-74.705177804,192,"3551 LAWRENCEVILLE RD - MS-G13-01, PRINCETON, NJ, 8540","Match","Exact","3551 LAWRENCEVILLE RD, PRINCETON, NJ, 08540",60198247,"L"
184693,"3551 MANILA DRIVE","WESTERVILLE","OH",43081,40.092326961,-82.9184958769999,193,"3551 MANILA DRIVE, WESTERVILLE, OH, 43081","Match","Exact","3551 MANILA DR, WESTERVILLE, OH, 43081",218696121,"R"
184694,"3551 MARSEILLE LANE","CHICAGO","IL",60429,NA,NA,194,"3551 MARSEILLE LANE, CHICAGO, IL, 60429","No_Match",NA,NA,NA,NA
184695,"3551 MUCKLE BRANCH RD","ETHRIDGE","TN",38456,35.3107413990001,-87.198335302,195,"3551 MUCKLE BRANCH RD, ETHRIDGE, TN, 38456","Match","Exact","3551 MUCKLE BRANCH RD, ETHRIDGE, TN, 38456",45321244,"L"
184696,"3551 PECK ROAD  UNIT 101","EL MONTE","CA",91731,NA,NA,196,"3551 PECK ROAD  UNIT 101, EL MONTE, CA, 91731","No_Match",NA,NA,NA,NA
184697,"3551 ROGER BROOKE DR","SAN ANTONIO","TX",78234,29.4594686400001,-98.417115026,197,"3551 ROGER BROOKE DR, SAN ANTONIO, TX, 78234","Match","Exact","3551 ROGER BROOKE DR, SAN ANTONIO, TX, 78234",653211465,"L"
184698,"3551 ROGER BROOKE DRIVE","SAN ANTONIO","TX",78219,29.4594686400001,-98.417115026,198,"3551 ROGER BROOKE DRIVE, SAN ANTONIO, TX, 78219","Match","Non_Exact","3551 ROGER BROOKE DR, SAN ANTONIO, TX, 78234",653211465,"L"
184699,"3551 S CREST LN","SALINA","KS",67401,38.7721665920001,-97.6982653219999,199,"3551 S CREST LN, SALINA, KS, 67401","Match","Exact","3551 S CREST LN, SALINA, KS, 67401",196683803,"R"
184700,"3551 S IVANHOE ST","DENVER","CO",80237,39.651497297,-104.921792637,200,"3551 S IVANHOE ST, DENVER, CO, 80237","Match","Exact","3551 S IVANHOE ST, DENVER, CO, 80237",177342003,"R"
184701,"3551 S TURNER ROAD","CANFIELD","OH",44406,41.065077241,-80.7912379329999,201,"3551 S TURNER ROAD, CANFIELD, OH, 44406","Match","Exact","3551 S TURNER RD, CANFIELD, OH, 44406",64591252,"L"
184702,"3551 SALEM ROAD","ENTERPRISE","AL",36330,31.360653074,-85.8753867039999,202,"3551 SALEM ROAD, ENTERPRISE, AL, 36330","Match","Exact","3551 SALEM RD, ENTERPRISE, AL, 36330",99554260,"R"
184703,"3551 SNELLING AVENUE","MINNEAPOLIS","MN",55406,44.938610184,-93.228883517,203,"3551 SNELLING AVENUE, MINNEAPOLIS, MN, 55406","Match","Non_Exact","3551 SNELLING AVE S, MINNEAPOLIS, MN, 55406",43639845,"L"
184704,"3551 W FULLERTON","CHICAGO","IL",60647,41.9246140060001,-87.7157384,204,"3551 W FULLERTON, CHICAGO, IL, 60647","Match","Non_Exact","3551 W FULLERTON PKWY, CHICAGO, IL, 60647",111758950,"L"
184705,"3551 WABASH AVE","KANSAS CITY","MO",64109,39.0617502960001,-94.554392584,205,"3551 WABASH AVE, KANSAS CITY, MO, 64109","Match","Exact","3551 WABASH AVE, KANSAS CITY, MO, 64109",91451833,"L"
184706,"3551 WABASH AVENUE","KANSAS CITY","MO",64109,39.0617502960001,-94.554392584,206,"3551 WABASH AVENUE, KANSAS CITY, MO, 64109","Match","Exact","3551 WABASH AVE, KANSAS CITY, MO, 64109",91451833,"L"
184707,"3551 WINFAIR PLACE","MARIETTA","GA",30062,34.0511419210001,-84.442363364,207,"3551 WINFAIR PLACE, MARIETTA, GA, 30062","Match","Exact","3551 WINFAIR PL, MARIETTA, GA, 30062",17169645,"L"
184708,"3552 141ST LANE NW","ANDOVER","MN",55304,45.2272978760001,-93.356105476,208,"3552 141ST LANE NW, ANDOVER, MN, 55304","Match","Exact","3552 141ST LN NW, ANDOVER, MN, 55304",97483020,"R"
184709,"3552 BRANDYWINE ST NW","WASHINGTON","DC",20008,38.9496832070001,-77.068980008,209,"3552 BRANDYWINE ST NW, WASHINGTON, DC, 20008","Match","Exact","3552 BRANDYWINE ST NW, WASHINGTON, DC, 20008",76220541,"L"
184710,"3552 HARVEY AVE","CINCINNATI","OH",45229,39.147221179,-84.497329964,210,"3552 HARVEY AVE, CINCINNATI, OH, 45229","Match","Exact","3552 HARVEY AVE, CINCINNATI, OH, 45229",103925477,"R"
184711,"3552 MODESTO DRIVE","ROCKFORD","IL",61114,42.312091584,-89.0012043309999,211,"3552 MODESTO DRIVE, ROCKFORD, IL, 61114","Match","Exact","3552 MODESTO DR, ROCKFORD, IL, 61114",49277123,"R"
184712,"3552 S 41ST STREET","MILWAUKEE","WI",53221,42.9797986790001,-87.96576183,212,"3552 S 41ST STREET, MILWAUKEE, WI, 53221","Match","Exact","3552 S 41ST ST, MILWAUKEE, WI, 53221",77768414,"L"
184713,"3552 TWELVE OAKS CIRCLE","MERRITT ISLAND","FL",32953,28.418625122,-80.716030748,213,"3552 TWELVE OAKS CIRCLE, MERRITT ISLAND, FL, 32953","Match","Exact","3552 TWELVE OAKS CIR, MERRITT ISLAND, FL, 32953",93958849,"L"
184714,"3552 WEST SIEBENTHALER AVE","DAYTON","OH",45406,39.7980890530001,-84.2462116409999,214,"3552 WEST SIEBENTHALER AVE, DAYTON, OH, 45406","Match","Exact","3552 W SIEBENTHALER AVE, DAYTON, OH, 45406",143630230,"L"
184715,"3552 WHITESIDE ST","LOS ANGELES","CA",90063,34.056349418,-118.186988851,215,"3552 WHITESIDE ST, LOS ANGELES, CA, 90063","Match","Non_Exact","3552 E WHITESIDE ST, LOS ANGELES, CA, 90063",142734010,"R"
184716,"35520 SHEADE STREET","BEAUMONT","CA",92223,NA,NA,216,"35520 SHEADE STREET, BEAUMONT, CA, 92223","No_Match",NA,NA,NA,NA
184717,"35527 AVENUE H","YUCAIPA","CA",92399,34.01030401,-117.029633684,217,"35527 AVENUE H, YUCAIPA, CA, 92399","Match","Exact","35527 AVE H, YUCAIPA, CA, 92399",144733313,"R"
184718,"35527 PENROSE LANE","YUCAIPA","CA",92399,34.0075936970001,-117.029478108,218,"35527 PENROSE LANE, YUCAIPA, CA, 92399","Match","Exact","35527 PENROSE LN, YUCAIPA, CA, 92399",144967091,"L"
184719,"3553 ATLANTIC AVE   SUITE 254","LONG BEACH","CA",90807,33.8211691590001,-118.18501673,219,"3553 ATLANTIC AVE   SUITE 254, LONG BEACH, CA, 90807","Match","Exact","3553 ATLANTIC AVE, LONG BEACH, CA, 90807",141686230,"L"
184720,"3553 ATLANTIC AVE 1200","LONG BEACH","CA",90807,33.8211691590001,-118.18501673,220,"3553 ATLANTIC AVE 1200, LONG BEACH, CA, 90807","Match","Exact","3553 ATLANTIC AVE, LONG BEACH, CA, 90807",141686230,"L"
184721,"3553 ATLANTIC AVE 309","LONG BEACH","CA",90807,33.8211691590001,-118.18501673,221,"3553 ATLANTIC AVE 309, LONG BEACH, CA, 90807","Match","Exact","3553 ATLANTIC AVE, LONG BEACH, CA, 90807",141686230,"L"
184722,"3553 ATLANTIC AVE STE B 1611","LONG BEACH","CA",90807,33.8211691590001,-118.18501673,222,"3553 ATLANTIC AVE STE B 1611, LONG BEACH, CA, 90807","Match","Exact","3553 ATLANTIC AVE, LONG BEACH, CA, 90807",141686230,"L"
184723,"3553 ATLANTIC AVE SUITE 1336","LONG BEACH","CA",90807,33.8211691590001,-118.18501673,223,"3553 ATLANTIC AVE SUITE 1336, LONG BEACH, CA, 90807","Match","Exact","3553 ATLANTIC AVE, LONG BEACH, CA, 90807",141686230,"L"
184724,"3553 ATLANTIC AVE SUITE 562","LONG BEACH","CA",90807,33.8211691590001,-118.18501673,224,"3553 ATLANTIC AVE SUITE 562, LONG BEACH, CA, 90807","Match","Exact","3553 ATLANTIC AVE, LONG BEACH, CA, 90807",141686230,"L"
184725,"3553 ATLANTIC AVENUE  SUITE 149","LONG BEACH","CA",90807,33.8211691590001,-118.18501673,225,"3553 ATLANTIC AVENUE  SUITE 149, LONG BEACH, CA, 90807","Match","Exact","3553 ATLANTIC AVE, LONG BEACH, CA, 90807",141686230,"L"
184726,"3553 ATLANTIC AVENUE 1255","LONG BEACH","CA",90807,33.8211691590001,-118.18501673,226,"3553 ATLANTIC AVENUE 1255, LONG BEACH, CA, 90807","Match","Exact","3553 ATLANTIC AVE, LONG BEACH, CA, 90807",141686230,"L"
184727,"3553 ATLANTIC AVENUE","LONG BEACH","CA",90807,33.8211691590001,-118.18501673,227,"3553 ATLANTIC AVENUE, LONG BEACH, CA, 90807","Match","Exact","3553 ATLANTIC AVE, LONG BEACH, CA, 90807",141686230,"L"
184728,"3553 CONSERVATION TRAIL","THE VILLAGES","FL",32163,28.8471411960001,-81.939464519,228,"3553 CONSERVATION TRAIL, THE VILLAGES, FL, 32163","Match","Exact","3553 CONSERVATION TRL, THE VILLAGES, FL, 32163",650606441,"L"
184729,"3553 EMERALD STREET APT 108","TORRANCE","CA",90503,33.841355837,-118.348499055,229,"3553 EMERALD STREET APT 108, TORRANCE, CA, 90503","Match","Exact","3553 EMERALD ST, TORRANCE, CA, 90503",241243206,"R"
184730,"3553 KORI ROAD","JACKSONVILLE","FL",32257,30.20201395,-81.620486397,230,"3553 KORI ROAD, JACKSONVILLE, FL, 32257","Match","Exact","3553 KORI RD, JACKSONVILLE, FL, 32257",83989854,"R"
184731,"3553 LOCUST AVE","WANTAGH","NY",11793,40.6725362700001,-73.5005393499999,231,"3553 LOCUST AVE, WANTAGH, NY, 11793","Match","Exact","3553 LOCUST AVE, WANTAGH, NY, 11793",652209515,"L"
184732,"3553 MOUNT ACOMITA AVE","SAN DIEGO","CA",92111,32.8067729470001,-117.178088457,232,"3553 MOUNT ACOMITA AVE, SAN DIEGO, CA, 92111","Match","Exact","3553 MOUNT ACOMITA AVE, SAN DIEGO, CA, 92111",195305550,"R"
184733,"3553 S VALLEY VIEW BLVD","LAS VEGAS","NV",89103,36.125788394,-115.190190926,233,"3553 S VALLEY VIEW BLVD, LAS VEGAS, NV, 89103","Match","Exact","3553 S VALLEY VIEW BLVD, LAS VEGAS, NV, 89103",201869409,"R"
184734,"3553 WALTER DRIVE","SLIDELL","LA",70445,30.25535096,-89.7828814709999,234,"3553 WALTER DRIVE, SLIDELL, LA, 70445","Match","Non_Exact","3553 WALTER DR, SLIDELL, LA, 70458",111249474,"L"
184735,"3553 WEST ARDMORE AVE","CHICAGO","IL",60659,41.9865790320001,-87.7182826919999,235,"3553 WEST ARDMORE AVE, CHICAGO, IL, 60659","Match","Exact","3553 W ARDMORE AVE, CHICAGO, IL, 60659",605176079,"L"
184736,"3553- A ATLANTIC AVENUE -1617","LONG BEACH","CA",90807,33.8211691590001,-118.18501673,236,"3553- A ATLANTIC AVENUE -1617, LONG BEACH, CA, 90807","Match","Exact","3553 ATLANTIC AVE, LONG BEACH, CA, 90807",141686230,"L"
184737,"35531  23 MILE ROAD","NEW BALTIMORE","MI",48047,42.6761530750001,-82.746137392,237,"35531  23 MILE ROAD, NEW BALTIMORE, MI, 48047","Match","Exact","35531 23 MILE RD, NEW BALTIMORE, MI, 48047",110666888,"L"
184738,"35533 FERNWOOD STREET","WESTLAND","MI",48186,42.307255807,-83.390143354,238,"35533 FERNWOOD STREET, WESTLAND, MI, 48186","Match","Exact","35533 FERNWOOD ST, WESTLAND, MI, 48186",95501198,"L"
184739,"35535 SIOUX LANE","BROOKSHIRE","TX",77423,29.800290639,-95.9858078029999,239,"35535 SIOUX LANE, BROOKSHIRE, TX, 77423","Match","Exact","35535 SIOUX LN, BROOKSHIRE, TX, 77423",646647708,"L"
184740,"35537 CORNFLOWER PL","MURRIETA","CA",92562,33.6072749630001,-117.183235604,240,"35537 CORNFLOWER PL, MURRIETA, CA, 92562","Match","Exact","35537 CORNFLOWER PL, MURRIETA, CA, 92562",627740725,"R"
184741,"3554 29TH AVE SOUTH","SAINT PETERSBURG","FL",33711,27.74178712,-82.681495492,241,"3554 29TH AVE SOUTH, SAINT PETERSBURG, FL, 33711","Match","Exact","3554 29TH AVE S, SAINT PETERSBURG, FL, 33711",124709807,"L"
184742,"3554 BLOCK RD","DELEVAN","NY",14042,42.4860871270001,-78.4978187849999,242,"3554 BLOCK RD, DELEVAN, NY, 14042","Match","Exact","3554 BLOCK RD, DELEVAN, NY, 14042",122048060,"L"
184743,"3554 BREEZE CT","PERRIS","CA",92571,33.836440903,-117.192892884,243,"3554 BREEZE CT, PERRIS, CA, 92571","Match","Exact","3554 BREEZE CT, PERRIS, CA, 92571",195090098,"R"
184744,"3554 FOUNTAINBLEAU ROAD","KEITHVILLE","LA",71047,32.3622094,-93.832935221,244,"3554 FOUNTAINBLEAU ROAD, KEITHVILLE, LA, 71047","Match","Exact","3554 FOUNTAINBLEAU RD, KEITHVILLE, LA, 71047",57477434,"R"
184745,"3554 POMO RD","CLEARLAKE","CA",95422,38.968127467,-122.64991117,245,"3554 POMO RD, CLEARLAKE, CA, 95422","Match","Exact","3554 POMO RD, CLEARLAKE, CA, 95422",67035687,"R"
184746,"3554 PROMENADE PLACE  SUITE 308","WALDORF","MD",20603,38.6119533020001,-76.936772514,246,"3554 PROMENADE PLACE  SUITE 308, WALDORF, MD, 20603","Match","Exact","3554 PROMENADE PL, WALDORF, MD, 20603",650799450,"R"
184747,"3554 SANTA CRUZ WAY","SACRAMENTO","CA",95817,38.542636035,-121.459860848,247,"3554 SANTA CRUZ WAY, SACRAMENTO, CA, 95817","Match","Exact","3554 SANTA CRUZ WAY, SACRAMENTO, CA, 95817",133327163,"R"
184748,"3554 W OLD MOUNTAIN ROAD","LOUISA","VA",23093,37.9351427140001,-78.035556653,248,"3554 W OLD MOUNTAIN ROAD, LOUISA, VA, 23093","Match","Exact","3554 W OLD MOUNTAIN RD, LOUISA, VA, 23093",84943555,"R"
184749,"3554 W ORANGE COUNTRY CLUB DR 250","WINTER GARDEN","FL",34787,28.50118135,-81.594101584,249,"3554 W ORANGE COUNTRY CLUB DR 250, WINTER GARDEN, FL, 34787","Match","Non_Exact","3554 W ORANGE COUNTRY CLUB DR, WINTER GARDEN, FL, 34787",650057089,"L"
184750,"3554 W SHAKESPEARE AVE","CHICAGO","IL",60647,41.9200495200001,-87.715626363,250,"3554 W SHAKESPEARE AVE, CHICAGO, IL, 60647","Match","Exact","3554 W SHAKESPEARE AVE, CHICAGO, IL, 60647",111758962,"R"
184751,"3555 BRODERICK ST APT 302","SAN FRANCISCO","CA",94123,37.8030680910001,-122.445189269,251,"3555 BRODERICK ST APT 302, SAN FRANCISCO, CA, 94123","Match","Exact","3555 BRODERICK ST, SAN FRANCISCO, CA, 94123",192279400,"L"
184752,"3555 CEDAR CREEK DR","SHREVEPORT","LA",71118,32.4075347250001,-93.831211131,252,"3555 CEDAR CREEK DR, SHREVEPORT, LA, 71118","Match","Exact","3555 CEDAR CREEK DR, SHREVEPORT, LA, 71118",611167940,"L"
184753,"3555 DEEPHAVEN AVE","WAYZATA","MN",55391,44.9392867080001,-93.5227491959999,253,"3555 DEEPHAVEN AVE, WAYZATA, MN, 55391","Match","Exact","3555 DEEPHAVEN AVE, WAYZATA, MN, 55391",43820514,"R"
184754,"3555 E RAMP CREEK RD","BLOOMINGTON","IN",47401,39.069419526,-86.489409084,254,"3555 E RAMP CREEK RD, BLOOMINGTON, IN, 47401","Match","Exact","3555 E RAMP CREEK RD, BLOOMINGTON, IN, 47401",42318084,"L"
184755,"3555 ELLENBORO","TROY","MI",48083,42.5709296800001,-83.138039686,255,"3555 ELLENBORO, TROY, MI, 48083","Match","Non_Exact","3555 ELLENBORO DR, TROY, MI, 48083",640929309,"L"
184756,"3555 GRANADA AVE","DALLAS","TX",75205,32.8417227570001,-96.790831882,256,"3555 GRANADA AVE, DALLAS, TX, 75205","Match","Exact","3555 GRANADA AVE, DALLAS, TX, 75205",102907630,"L"
184757,"3555 HARWICH COURT","GREENACRES","FL",33467,26.6242850040001,-80.1480205679999,257,"3555 HARWICH COURT, GREENACRES, FL, 33467","Match","Exact","3555 HARWICH CT, GREENACRES, FL, 33467",115578504,"L"
184758,"3555 LIME STREET","RIVERSIDE","CA",92501,33.9827783870001,-117.369355422,258,"3555 LIME STREET, RIVERSIDE, CA, 92501","Match","Exact","3555 LIME ST, RIVERSIDE, CA, 92501",194876139,"R"
184759,"3555 NE 4TH AVE","BOCA RATON","FL",33431,NA,NA,259,"3555 NE 4TH AVE, BOCA RATON, FL, 33431","Tie",NA,NA,NA,NA
184760,"3555 NORTH STATE ROUTE 635","FOSTORIA","OH",44830,41.1746366410001,-83.284847731,260,"3555 NORTH STATE ROUTE 635, FOSTORIA, OH, 44830","Match","Non_Exact","3555 STATE RTE 635, FOSTORIA, OH, 44830",12962749,"R"
184761,"3555 NW 58TH ST STE 1000","OKLAHOMA CITY","OK",73112,35.529926249,-97.581377663,261,"3555 NW 58TH ST STE 1000, OKLAHOMA CITY, OK, 73112","Match","Non_Exact","3555 NW 58TH ST, OKLAHOMA CITY, OK, 73112",636719173,"L"
184762,"3555 OAK HILL","WOOSTER","OH",44691,40.8425911680001,-81.953383365,262,"3555 OAK HILL, WOOSTER, OH, 44691","Match","Non_Exact","3555 OAK HILL RD, WOOSTER, OH, 44691",58741684,"R"
184763,"3555 OLD CHAMBLEE TUCKER RD UNIT E","ATLANTA","GA",30340,33.8855951240001,-84.248667852,263,"3555 OLD CHAMBLEE TUCKER RD UNIT E, ATLANTA, GA, 30340","Match","Non_Exact","3555 CHAMBLEE TUCKER RD, ATLANTA, GA, 30341",642350560,"R"
184764,"3555 PROMENADE PLACE SUITE 325","WALDORF","MD",20603,38.6119163830001,-76.936813274,264,"3555 PROMENADE PLACE SUITE 325, WALDORF, MD, 20603","Match","Exact","3555 PROMENADE PL, WALDORF, MD, 20603",650799450,"L"
184765,"3555 S MENTOR AVENUE","SPRINGFIELD","MO",65804,37.147818667,-93.231104928,265,"3555 S MENTOR AVENUE, SPRINGFIELD, MO, 65804","Match","Exact","3555 S MENTOR AVE, SPRINGFIELD, MO, 65804",76682037,"R"
184766,"3555 S ZENO WAY UNIT 104","AURORA","CO",80013,39.651438124,-104.773907947,266,"3555 S ZENO WAY UNIT 104, AURORA, CO, 80013","Match","Non_Exact","3555 S ZENO WAY, AURORA, CO, 80013",635725028,"R"
184767,"3555 SLEEPY HOLLOW DR","RENO","NV",89502,39.4919748780001,-119.715788115,267,"3555 SLEEPY HOLLOW DR, RENO, NV, 89502","Match","Exact","3555 SLEEPY HOLLOW DR, RENO, NV, 89502",107089853,"R"
184768,"3555 SURREY CT SE","PORT ORCHARD","WA",98366,47.5163658930001,-122.602486049,268,"3555 SURREY CT SE, PORT ORCHARD, WA, 98366","Match","Exact","3555 SURREY CT SE, PORT ORCHARD, WA, 98366",187643910,"L"
184769,"3555 US RT 42","WEST JEFFERSON","OH",43162,39.990508677,-83.3346226419999,269,"3555 US RT 42, WEST JEFFERSON, OH, 43162","Match","Non_Exact","3555 US HWY 42, W JEFFERSON, OH, 43162",135266628,"R"
184770,"3555 W 26 ST","CHICAGO","IL",60623,41.844387876,-87.714270491,270,"3555 W 26 ST, CHICAGO, IL, 60623","Match","Non_Exact","3555 W 26TH ST, CHICAGO, IL, 60623",605092394,"L"
184771,"3555 W MCGRAW STREET","SEATTLE","WA",98199,47.639539115,-122.403360498,271,"3555 W MCGRAW STREET, SEATTLE, WA, 98199","Match","Exact","3555 W MCGRAW ST, SEATTLE, WA, 98199",186659498,"L"
184772,"3555 WOODLAKE RD","HEPHZIBAH","GA",30815,33.3924410170001,-82.070665783,272,"3555 WOODLAKE RD, HEPHZIBAH, GA, 30815","Match","Exact","3555 WOODLAKE RD, HEPHZIBAH, GA, 30815",55636942,"R"
184773,"35550 CROSSROADS ST","WILDOMAR","CA",92595,33.6042359040001,-117.22143707,273,"35550 CROSSROADS ST, WILDOMAR, CA, 92595","Match","Exact","35550 CROSSROADS ST, WILDOMAR, CA, 92595",637676939,"R"
184774,"355527 EAST 1070 ROAD","PRAGUE","OK",74864,NA,NA,274,"355527 EAST 1070 ROAD, PRAGUE, OK, 74864","No_Match",NA,NA,NA,NA
184775,"35555 SAINT JAMES DR","ROUND HILL","VA",20141,39.1476044230001,-77.7731333839999,275,"35555 SAINT JAMES DR, ROUND HILL, VA, 20141","Match","Exact","35555 SAINT JAMES DR, ROUND HILL, VA, 20141",623786580,"R"
184776,"35555 SPARTA LANE","RICHLAND","OR",97870,44.8025283520001,-117.206747306,276,"35555 SPARTA LANE, RICHLAND, OR, 97870","Match","Exact","35555 SPARTA LN, RICHLAND, OR, 97870",137641828,"L"
184777,"3556 222ND STREET","BAYSIDE","NY",11361,NA,NA,277,"3556 222ND STREET, BAYSIDE, NY, 11361","No_Match",NA,NA,NA,NA
184778,"3556 GOLFING GREEN DR","FARMERS BRANCH","TX",75234,32.927320621,-96.86026709,278,"3556 GOLFING GREEN DR, FARMERS BRANCH, TX, 75234","Match","Exact","3556 GOLFING GREEN DR, FARMERS BRANCH, TX, 75234",102897580,"R"
184779,"3556 LAKE SHORE ROAD  SUITE 500","BUFFALO","NY",14219,42.793120248,-78.846954715,279,"3556 LAKE SHORE ROAD  SUITE 500, BUFFALO, NY, 14219","Match","Exact","3556 LAKE SHORE RD, BUFFALO, NY, 14219",638080215,"R"
184780,"3556 MAPLE HILL RD","LITHONIA","GA",30038,33.6790420570001,-84.0867953819999,280,"3556 MAPLE HILL RD, LITHONIA, GA, 30038","Match","Exact","3556 MAPLE HILL RD, LITHONIA, GA, 30038",635317769,"L"
184781,"3556 MOORE STREET","LOS ANGELES","CA",90066,34.0056709240001,-118.444524526,281,"3556 MOORE STREET, LOS ANGELES, CA, 90066","Match","Exact","3556 MOORE ST, LOS ANGELES, CA, 90066",141570437,"L"
184782,"3556 OLD 96 INDIAN TRL","WAGENER","SC",29164,33.6712349220001,-81.410787812,282,"3556 OLD 96 INDIAN TRL, WAGENER, SC, 29164","Match","Exact","3556 OLD NINETY SIX INDIAN TRL, WAGENER, SC, 29164",64979209,"L"
184783,"3556 READING RD","CINCINNATI","OH",45229,39.1462321490001,-84.4898298049999,283,"3556 READING RD, CINCINNATI, OH, 45229","Match","Exact","3556 READING RD, CINCINNATI, OH, 45229",103925611,"R"
184784,"3556 SULLIVAN AVE SUITE 304","COLUMBUS","OH",43204,NA,NA,284,"3556 SULLIVAN AVE SUITE 304, COLUMBUS, OH, 43204","No_Match",NA,NA,NA,NA
184785,"3556 SW 173RD WAY","MIRAMAR","FL",33029,25.9729375100001,-80.37799193,285,"3556 SW 173RD WAY, MIRAMAR, FL, 33029","Match","Exact","3556 SW 173RD WAY, MIRAMAR, FL, 33029",114802853,"L"
184786,"3556 TOM AUSTIN HWY  SUITE 7","SPRINGFIELD","TN",37172,36.4905287030001,-86.878355659,286,"3556 TOM AUSTIN HWY  SUITE 7, SPRINGFIELD, TN, 37172","Match","Exact","3556 TOM AUSTIN HWY, SPRINGFIELD, TN, 37172",97434305,"L"
184787,"3556 TOM AUSTIN HWY","SPRINGFIELD","TN",37172,36.4905287030001,-86.878355659,287,"3556 TOM AUSTIN HWY, SPRINGFIELD, TN, 37172","Match","Exact","3556 TOM AUSTIN HWY, SPRINGFIELD, TN, 37172",97434305,"L"
184788,"3556 W  21ST AVENUE","GARY","IN",46404,41.580659289,-87.381738049,288,"3556 W  21ST AVENUE, GARY, IN, 46404","Match","Exact","3556 W 21ST AVE, GARY, IN, 46404",98425322,"R"
184789,"3556 WINBRANCH APT 1","MEMPHIS","TN",38116,35.0513444360001,-90.010796598,289,"3556 WINBRANCH APT 1, MEMPHIS, TN, 38116","Match","Non_Exact","3556 WINBRANCH DR, MEMPHIS, TN, 38116",72910199,"L"
184790,"35560 GRAND RIVER AVE STE 146","FARMINGTON HILLS","MI",48335,42.469053107,-83.3982755929999,290,"35560 GRAND RIVER AVE STE 146, FARMINGTON HILLS, MI, 48335","Match","Exact","35560 GRAND RIVER AVE, FARMINGTON HILLS, MI, 48335",635819310,"R"
184791,"35560 GRAND RIVER UNIT 114","FARMINGTON HILLS","MI",48335,42.469053107,-83.3982755929999,291,"35560 GRAND RIVER UNIT 114, FARMINGTON HILLS, MI, 48335","Match","Non_Exact","35560 GRAND RIVER AVE, FARMINGTON HILLS, MI, 48335",635819310,"R"
184792,"35564 COUNTY ROAD 12","HOUSTON","MN",55943,43.9132393840001,-91.567798248,292,"35564 COUNTY ROAD 12, HOUSTON, MN, 55943","Match","Exact","35564 CO RD 12, HOUSTON, MN, 55943",611910030,"R"
184793,"3557 100 N SHARON AMITY ROAD","CHARLOTTE","NC",28205,35.175961607,-80.7981401599999,293,"3557 100 N SHARON AMITY ROAD, CHARLOTTE, NC, 28205","Match","Non_Exact","100 N SHARON AMITY RD, CHARLOTTE, NC, 28211",70489058,"R"
184794,"3557 BEAVER RIVER COURT","FT COLLINS","CO",80524,NA,NA,294,"3557 BEAVER RIVER COURT, FT COLLINS, CO, 80524","No_Match",NA,NA,NA,NA
184795,"3557 BURLING WAY","JACKSONVILLE BEACH","FL",32250,30.261832527,-81.391528002,295,"3557 BURLING WAY, JACKSONVILLE BEACH, FL, 32250","Match","Exact","3557 BURLING WAY, JACKSONVILLE BEACH, FL, 32250",83948280,"R"
184796,"3557 EAST 149 STREET","CLEVELAND","OH",44120,41.4627900090001,-81.5771621769999,296,"3557 EAST 149 STREET, CLEVELAND, OH, 44120","Match","Exact","3557 E 149TH ST, CLEVELAND, OH, 44120",61127177,"L"
184797,"3557 EAST 149TH STREET","CLEVELAND","OH",44120,41.4627900090001,-81.5771621769999,297,"3557 EAST 149TH STREET, CLEVELAND, OH, 44120","Match","Exact","3557 E 149TH ST, CLEVELAND, OH, 44120",61127177,"L"
184798,"3557 MEADOWBROOK DRIVE","NAPA","CA",94558,38.3041212480001,-122.344395469,298,"3557 MEADOWBROOK DRIVE, NAPA, CA, 94558","Match","Exact","3557 MEADOWBROOK DR, NAPA, CA, 94558",67424134,"L"
184799,"3557 N SHARON AMITY RD STE 101","CHARLOTTE","NC",28205,35.206607134,-80.7582324969999,299,"3557 N SHARON AMITY RD STE 101, CHARLOTTE, NC, 28205","Match","Non_Exact","3557 N SHARON AMITY RD, CHARLOTTE, NC, 28205",639257911,"L"
184800,"3557 N SHARON AMITY RD","CHARLOTTE","NC",28205,35.206607134,-80.7582324969999,300,"3557 N SHARON AMITY RD, CHARLOTTE, NC, 28205","Match","Exact","3557 N SHARON AMITY RD, CHARLOTTE, NC, 28205",639257911,"L"
184801,"3557 N SHARON AMITY ROAD SUITE 102","CHARLOTTE","NC",28205,35.206607134,-80.7582324969999,301,"3557 N SHARON AMITY ROAD SUITE 102, CHARLOTTE, NC, 28205","Match","Non_Exact","3557 N SHARON AMITY RD, CHARLOTTE, NC, 28205",639257911,"L"
184802,"3557 NORTH SHARON AMITY RD","CHARLOTTE","NC",28205,35.2065972290001,-80.758236815,302,"3557 NORTH SHARON AMITY RD, CHARLOTTE, NC, 28205","Match","Exact","3557 N SHARON AMITY RD, CHARLOTTE, NC, 28205",639257911,"L"
184803,"3557 ROUTE 62","KENNEDY","NY",14747,42.1568788800001,-79.102131051,303,"3557 ROUTE 62, KENNEDY, NY, 14747","Match","Non_Exact","3557 US HWY 62, KENNEDY, NY, 14747",120767344,"L"
184804,"3557 SALEM HILLS DR","STONECREST","GA",30038,33.6775723100001,-84.1745868309999,304,"3557 SALEM HILLS DR, STONECREST, GA, 30038","Match","Exact","3557 SALEM HILLS DR, STONECREST, GA, 30038",23395757,"R"
184805,"3557 SHARON AMITY ROAD","CHARLOTTE","NC",28205,35.2065972290001,-80.758236815,305,"3557 SHARON AMITY ROAD, CHARLOTTE, NC, 28205","Match","Non_Exact","3557 N SHARON AMITY RD, CHARLOTTE, NC, 28205",639257911,"L"
184806,"3557 VINEVILLE AVENUE","MACON","GA",31204,32.8588194650001,-83.683633766,306,"3557 VINEVILLE AVENUE, MACON, GA, 31204","Match","Exact","3557 VINEVILLE AVE, MACON, GA, 31204",81084429,"R"
184807,"3557-F OLD CHAMBLEE TUCKER RD","ATLANTA","GA",30340,33.8855431150001,-84.2435152209999,307,"3557-F OLD CHAMBLEE TUCKER RD, ATLANTA, GA, 30340","Match","Exact","3557 OLD CHAMBLEE TUCKER RD, ATLANTA, GA, 30340",625103237,"R"
184808,"3558 CARMAN ROAD","SCHENECTADY","NY",12303,42.7379205340001,-73.94092693,308,"3558 CARMAN ROAD, SCHENECTADY, NY, 12303","Match","Exact","3558 CARMAN RD, SCHENECTADY, NY, 12303",18330931,"L"
184809,"3558 CLINTON ROSS COURT","TRIANGLE","VA",22172,NA,NA,309,"3558 CLINTON ROSS COURT, TRIANGLE, VA, 22172","No_Match",NA,NA,NA,NA
184810,"3558 DR SPRINGS RD","CARTERVILLE","IL",62918,37.8036561550001,-89.089005349,310,"3558 DR SPRINGS RD, CARTERVILLE, IL, 62918","Match","Exact","3558 DR SPRINGS RD, CARTERVILLE, IL, 62918",642889706,"R"
184811,"3558 ELKHORN ROAD","CAMPBELLSVILLE","KY",42718,37.325178464,-85.288231646,311,"3558 ELKHORN ROAD, CAMPBELLSVILLE, KY, 42718","Match","Exact","3558 ELKHORN RD, CAMPBELLSVILLE, KY, 42718",636250609,"R"
184812,"3558 FM 536","FLORESVILLE","TX",78114,29.12515955,-98.213797523,312,"3558 FM 536, FLORESVILLE, TX, 78114","Match","Exact","3558 FM 536, FLORESVILLE, TX, 78114",54881798,"L"
184813,"3558 LONE PINE ROAD","DELRAY BEACH","FL",33445,26.482745493,-80.099365539,313,"3558 LONE PINE ROAD, DELRAY BEACH, FL, 33445","Match","Exact","3558 LONE PINE RD, DELRAY BEACH, FL, 33445",115289529,"R"
184814,"3558 NYLAND WAY","LAFAYETTE","CO",80026,39.9957353790001,-105.151119821,314,"3558 NYLAND WAY, LAFAYETTE, CO, 80026","Match","Exact","3558 NYLAND WAY, LAFAYETTE, CO, 80026",220750036,"L"
184815,"3558 S OSAGE AVE","WICHITA","KS",67217,37.6305481150001,-97.3484707009999,315,"3558 S OSAGE AVE, WICHITA, KS, 67217","Match","Exact","3558 S OSAGE AVE, WICHITA, KS, 67217",115646094,"L"
184816,"3558 SHORELINE CIRCLE","PALM HARBORT","FL",34684,28.0905515800001,-82.7207128169999,316,"3558 SHORELINE CIRCLE, PALM HARBORT, FL, 34684","Match","Non_Exact","3558 SHORE LINE CIR, PALM HARBOR, FL, 34684",124729454,"L"
184817,"3558 WINDSOR SPRING RD SUITE A","HEPHZIBAH","GA",30815,33.386562113,-82.066560942,317,"3558 WINDSOR SPRING RD SUITE A, HEPHZIBAH, GA, 30815","Match","Exact","3558 WINDSOR SPRING RD, HEPHZIBAH, GA, 30815",55636972,"R"
184818,"35587 AVENUE 13 1/4","MADERA","CA",93636,NA,NA,318,"35587 AVENUE 13 1/4, MADERA, CA, 93636","Tie",NA,NA,NA,NA
184819,"3559 10TH ST NW","WASHINGTON","DC",20010,38.9341844460001,-77.027195639,319,"3559 10TH ST NW, WASHINGTON, DC, 20010","Match","Exact","3559 10TH ST NW, WASHINGTON, DC, 20010",76224048,"R"
184820,"3559 ASHLEY STATION DR","MARIETTA","GA",30008,33.8659737420001,-84.6068099249999,320,"3559 ASHLEY STATION DR, MARIETTA, GA, 30008","Match","Exact","3559 ASHLEY STATION DR, MARIETTA, GA, 30008",17222327,"L"
184821,"3559 COPLEY ROAD","COPLEY","OH",44321,41.09921166,-81.6429112819999,321,"3559 COPLEY ROAD, COPLEY, OH, 44321","Match","Exact","3559 COPLEY RD, COPLEY, OH, 44321",61393213,"R"
184822,"3559 CORSICA CT","SAN JOSE","CA",95148,37.318826723,-121.766408904,322,"3559 CORSICA CT, SAN JOSE, CA, 95148","Match","Exact","3559 CORSICA CT, SAN JOSE, CA, 95148",618195032,"L"
184823,"3559 E 600 N","ANDERSON","IN",46012,NA,NA,323,"3559 E 600 N, ANDERSON, IN, 46012","No_Match",NA,NA,NA,NA
184824,"3559 FELTON ST","SAN DIEGO","CA",92104,32.74301539,-117.121778761,324,"3559 FELTON ST, SAN DIEGO, CA, 92104","Match","Exact","3559 FELTON ST, SAN DIEGO, CA, 92104",195345844,"R"
184825,"3559 GONDOLA DR","ANTIOCH","TN",37013,36.0827326020001,-86.600653286,325,"3559 GONDOLA DR, ANTIOCH, TN, 37013","Match","Exact","3559 GONDOLA DR, ANTIOCH, TN, 37013",97214705,"L"
184826,"3559 MAGELLAN CIR UNIT 323","AVENTURA","FL",33180,25.970952944,-80.13054047,326,"3559 MAGELLAN CIR UNIT 323, AVENTURA, FL, 33180","Match","Exact","3559 MAGELLAN CIR, AVENTURA, FL, 33180",644676212,"R"
184827,"3559 MT DIABLO BLVD SUITE 48","LAFAYETTE","CA",94549,NA,NA,327,"3559 MT DIABLO BLVD SUITE 48, LAFAYETTE, CA, 94549","No_Match",NA,NA,NA,NA
184828,"3559 NE WEBSTER STREET","PORTLAND","OR",97211,45.5598211610001,-122.627392036,328,"3559 NE WEBSTER STREET, PORTLAND, OR, 97211","Match","Exact","3559 NE WEBSTER ST, PORTLAND, OR, 97211",157506288,"L"
184829,"3559 NW GOLDFINCH PL","CORVALLIS","OR",97330,44.6028631340001,-123.288066639,329,"3559 NW GOLDFINCH PL, CORVALLIS, OR, 97330","Match","Exact","3559 NW GOLDFINCH PL, CORVALLIS, OR, 97330",625029583,"R"
184830,"3559 RICHARDS CROSSING","FORT MILL","SC",29708,35.0382101330001,-80.981458636,330,"3559 RICHARDS CROSSING, FORT MILL, SC, 29708","Match","Exact","3559 RICHARDS CROSSING, FORT MILL, SC, 29708",651507417,"L"
184831,"3559 RIVERSIDE DRIVE","NORFOLK","VA",23502,36.845179429,-76.2356360799999,331,"3559 RIVERSIDE DRIVE, NORFOLK, VA, 23502","Match","Exact","3559 RIVERSIDE DR, NORFOLK, VA, 23502",122129327,"R"
184832,"3559 SW SUMMERWOOD RD","TOPEKA","KS",66614,39.0021386810001,-95.7197716379999,332,"3559 SW SUMMERWOOD RD, TOPEKA, KS, 66614","Match","Exact","3559 SW SUMMERWOOD RD, TOPEKA, KS, 66614",17898571,"R"
184833,"3559 WESTCOTT DRIVE SE","ADA","MI",49301,42.899978359,-85.472536933,333,"3559 WESTCOTT DRIVE SE, ADA, MI, 49301","Match","Exact","3559 WESTCOTT DR SE, ADA, MI, 49301",12474952,"R"
184834,"35590 BROOKE COURT","NEW BALTIMORE","MI",48047,42.6934224180001,-82.7429031899999,334,"35590 BROOKE COURT, NEW BALTIMORE, MI, 48047","Match","Exact","35590 BROOKE CT, NEW BALTIMORE, MI, 48047",110701703,"R"
184835,"35595 US HWY 19 NORTH NUMBER 372","PALM HARBOR","FL",34684,28.0961073610001,-82.739628352,335,"35595 US HWY 19 NORTH NUMBER 372, PALM HARBOR, FL, 34684","Match","Non_Exact","35595 US HWY 19 N, PALM HARBOR, FL, 34684",613724993,"R"
184836,"356 51ST STREET","OAKLAND","CA",94609,37.8360422430001,-122.255732224,336,"356 51ST STREET, OAKLAND, CA, 94609","Match","Exact","356 51ST ST, OAKLAND, CA, 94609",652204886,"R"
184837,"356 71ST STREET","SPRINGFIELD","OR",97478,44.047593073,-122.900793971,337,"356 71ST STREET, SPRINGFIELD, OR, 97478","Match","Exact","356 71ST ST, SPRINGFIELD, OR, 97478",178175039,"L"
184838,"356 BELLE DRIVE","NORTHLAKE","IL",60164,41.9109776450001,-87.890666817,338,"356 BELLE DRIVE, NORTHLAKE, IL, 60164","Match","Exact","356 BELLE DR, NORTHLAKE, IL, 60164",111726325,"L"
184839,"356 BLAIRWOOD DRIVE","FORT WORTH","TX",76134,32.6298510510001,-97.3288363249999,339,"356 BLAIRWOOD DRIVE, FORT WORTH, TX, 76134","Match","Exact","356 BLAIRWOOD DR, FORT WORTH, TX, 76134",619863227,"R"
184840,"356 BRUSH CREEK DRIVE","ROCHESTER","NY",14612,43.266818319,-77.701403135,340,"356 BRUSH CREEK DRIVE, ROCHESTER, NY, 14612","Match","Exact","356 BRUSH CREEK DR, ROCHESTER, NY, 14612",14550847,"R"
184841,"356 CAMDEN RD NE","ATLANTA","GA",30309,33.812013284,-84.383061458,341,"356 CAMDEN RD NE, ATLANTA, GA, 30309","Match","Exact","356 CAMDEN RD NE, ATLANTA, GA, 30309",651386809,"L"
184842,"356 CANDLEWOOD HILL RD","HIGGANUM","CT",6441,41.4828138770001,-72.587218132,342,"356 CANDLEWOOD HILL RD, HIGGANUM, CT, 6441","Match","Exact","356 CANDLEWOOD HILL RD, HIGGANUM, CT, 06441",610703282,"R"
184843,"356 CASHEW LANE","GERRARDSTOWN","WV",25420,39.3750351740001,-78.141364643,343,"356 CASHEW LANE, GERRARDSTOWN, WV, 25420","Match","Exact","356 CASHEW LN, GERRARDSTOWN, WV, 25420",123387562,"L"
184844,"356 CENTRAL PARK AVENUE E8","SCARSDALE","NY",10583,41.0093940530001,-73.8086586869999,344,"356 CENTRAL PARK AVENUE E8, SCARSDALE, NY, 10583","Match","Exact","356 CENTRAL PARK AVE, SCARSDALE, NY, 10583",139841357,"R"
184845,"356 CENTURY DRIVE","OSWEGO","IL",60543,41.697950259,-88.362976289,345,"356 CENTURY DRIVE, OSWEGO, IL, 60543","Match","Exact","356 CENTURY DR, OSWEGO, IL, 60543",649174604,"L"
184846,"356 CLIFTON ROAD","BLOOMFIELD HILLS","MI",48301,42.5477315200001,-83.253534719,346,"356 CLIFTON ROAD, BLOOMFIELD HILLS, MI, 48301","Match","Non_Exact","356 N CLIFTON RD, BLOOMFIELD HILLS, MI, 48301",69729366,"R"
184847,"356 CONGRESS AVE","HAVRE DE GRACE","MD",21078,39.547721757,-76.089148237,347,"356 CONGRESS AVE, HAVRE DE GRACE, MD, 21078","Match","Exact","356 CONGRESS AVE, HAVRE DE GRACE, MD, 21078",191646656,"L"
184848,"356 COUNTRY CLUB ROAD","BLACKVILLE","SC",29817,33.365710344,-81.264208986,348,"356 COUNTRY CLUB ROAD, BLACKVILLE, SC, 29817","Match","Exact","356 COUNTRY CLUB RD, BLACKVILLE, SC, 29817",636618351,"R"
184849,"356 COUNTY ROAD 116","JASPER","TX",75951,30.92414518,-94.0545965919999,349,"356 COUNTY ROAD 116, JASPER, TX, 75951","Match","Exact","356 CO RD 116, JASPER, TX, 75951",32399034,"R"
184850,"356 COWPOKE CYN","DRIFTWOOD","TX",78619,30.076297574,-98.0281582709999,350,"356 COWPOKE CYN, DRIFTWOOD, TX, 78619","Match","Exact","356 COWPOKE CANYON, DRIFTWOOD, TX, 78619",63842207,"R"
184851,"356 CR 3611","LAMAR","AR",72846,35.5122523220001,-93.378910015,351,"356 CR 3611, LAMAR, AR, 72846","Match","Exact","356 CO RD 3611, LAMAR, AR, 72846",634046247,"L"
184852,"356 CROMWELL COURT","NAPLES","FL",34108,26.2480677890001,-81.812275517,352,"356 CROMWELL COURT, NAPLES, FL, 34108","Match","Exact","356 CROMWELL CT, NAPLES, FL, 34108",115151801,"R"
184853,"356 DENTON WAY","SANTA ROSA","CA",95401,38.4487169700001,-122.720870096,353,"356 DENTON WAY, SANTA ROSA, CA, 95401","Match","Exact","356 DENTON WAY, SANTA ROSA, CA, 95401",67469542,"R"
184854,"356 E MERCHANT STREET","KANKAKEE","IL",60901,41.1187546950001,-87.861965239,354,"356 E MERCHANT STREET, KANKAKEE, IL, 60901","Match","Exact","356 E MERCHANT ST, KANKAKEE, IL, 60901",98356512,"R"
184855,"356 E RUSTIC RD","SANTA MONICA","CA",90402,34.031332134,-118.516827671,355,"356 E RUSTIC RD, SANTA MONICA, CA, 90402","Match","Exact","356 E RUSTIC RD, SANTA MONICA, CA, 90402",141558661,"R"
184856,"356 EAST 112TH STREET","NEW YORK","NY",10029,40.7937530950001,-73.937938334,356,"356 EAST 112TH STREET, NEW YORK, NY, 10029","Match","Exact","356 E 112TH ST, NEW YORK, NY, 10029",611173340,"R"
184857,"356 EAST POST ROAD SE","CEDAR RAPIDS","IA",52403,41.9850623450001,-91.604322425,357,"356 EAST POST ROAD SE, CEDAR RAPIDS, IA, 52403","Match","Exact","356 E POST RD SE, CEDAR RAPIDS, IA, 52403",17046452,"R"
184858,"356 FALLING TIMBER COURT","STOCKBRIDGE","GA",30281,33.613442923,-84.201162198,358,"356 FALLING TIMBER COURT, STOCKBRIDGE, GA, 30281","Match","Exact","356 FALLING TIMBER CT, STOCKBRIDGE, GA, 30281",23212155,"R"
184859,"356 FORESTVIEW DRIVE","WINTERSVILLE","OH",43953,40.36815503,-80.720034201,359,"356 FORESTVIEW DRIVE, WINTERSVILLE, OH, 43953","Match","Exact","356 FORESTVIEW DR, WINTERSVILLE, OH, 43953",648882530,"R"
184860,"356 FRANKLIN AVE","RIDGEWOOD","NJ",7450,40.9789940520001,-74.1102597839999,360,"356 FRANKLIN AVE, RIDGEWOOD, NJ, 7450","Match","Exact","356 FRANKLIN AVE, RIDGEWOOD, NJ, 07450",64376535,"R"
184861,"356 FRAZIER ROAD","BREVARD","NC",28712,35.1373105050001,-82.6811292849999,361,"356 FRAZIER ROAD, BREVARD, NC, 28712","Match","Exact","356 FRAZIER RD, BREVARD, NC, 28712",133748515,"R"
184862,"356 GREENHAVEN CT","ELIZABETHTOWN","KY",42701,37.634507909,-85.816858875,362,"356 GREENHAVEN CT, ELIZABETHTOWN, KY, 42701","Match","Exact","356 GREENHAVEN CT, ELIZABETHTOWN, KY, 42701",34633487,"L"
184863,"356 HAWTHRONE AVENUE","UNIONDALE","NY",11553,40.7068186670001,-73.5998599059999,363,"356 HAWTHRONE AVENUE, UNIONDALE, NY, 11553","Match","Non_Exact","356 HAWTHORNE AVE, UNIONDALE, NY, 11553",147627751,"R"
184864,"356 HICKMAN COUNTY LINE RD","CENTERVILLE","TN",37033,NA,NA,364,"356 HICKMAN COUNTY LINE RD, CENTERVILLE, TN, 37033","No_Match",NA,NA,NA,NA
184865,"356 HILLSBOROUGH STREET","SAFETY HARBOR","FL",34695,27.9958666480001,-82.684407103,365,"356 HILLSBOROUGH STREET, SAFETY HARBOR, FL, 34695","Match","Exact","356 HILLSBOROUGH ST, SAFETY HARBOR, FL, 34695",124685376,"R"
184866,"356 HOLLY BERRY DR","DAVENPORT","FL",33897,NA,NA,366,"356 HOLLY BERRY DR, DAVENPORT, FL, 33897","No_Match",NA,NA,NA,NA
184867,"356 JAMES BILLIE RD","CHOCTAW","MS",39350,32.8016375450001,-89.209162205,367,"356 JAMES BILLIE RD, CHOCTAW, MS, 39350","Match","Exact","356 JAMES BILLIE RD, CHOCTAW, MS, 39350",617500402,"R"
184868,"356 KNOPP VALLEY DRIVE","WINONA","MN",55987,44.044621008,-91.7129427959999,368,"356 KNOPP VALLEY DRIVE, WINONA, MN, 55987","Match","Exact","356 KNOPP VALLEY DR, WINONA, MN, 55987",31669055,"R"
184869,"356 LAKEVIEW DRIVE","MADISON HEIGHTS","VA",24572,37.4355726160001,-79.1131197939999,369,"356 LAKEVIEW DRIVE, MADISON HEIGHTS, VA, 24572","Match","Exact","356 LAKEVIEW DR, MADISON HEIGHTS, VA, 24572",159113700,"R"
184870,"356 LATITUDE BOULEVARD","HARDEEVILLE","SC",29927,NA,NA,370,"356 LATITUDE BOULEVARD, HARDEEVILLE, SC, 29927","No_Match",NA,NA,NA,NA
184871,"356 LOCUST STREET","CENTRAL ISLIP","NY",11722,40.7629916610001,-73.2066068199999,371,"356 LOCUST STREET, CENTRAL ISLIP, NY, 11722","Match","Exact","356 LOCUST ST, CENTRAL ISLIP, NY, 11722",113990088,"R"
184872,"356 MEEK RD","GASTONIA","NC",28056,35.161946577,-81.146574433,372,"356 MEEK RD, GASTONIA, NC, 28056","Match","Exact","356 MEEK RD, GASTONIA, NC, 28056",647209239,"L"
184873,"356 MERCER AVENUE","ROCHESTER","NY",14606,43.176585958,-77.700529911,373,"356 MERCER AVENUE, ROCHESTER, NY, 14606","Match","Exact","356 MERCER AVE, ROCHESTER, NY, 14606",14529808,"R"
184874,"356 MOUNTAIN RD","ARUNDEL","ME",4046,43.4495154360001,-70.516853156,374,"356 MOUNTAIN RD, ARUNDEL, ME, 4046","Match","Exact","356 MOUNTAIN RD, ARUNDEL, ME, 04046",92786134,"L"
184875,"356 MOUNTAIN ROAD","ARUNDEL","ME",4046,43.4495154360001,-70.516853156,375,"356 MOUNTAIN ROAD, ARUNDEL, ME, 4046","Match","Exact","356 MOUNTAIN RD, ARUNDEL, ME, 04046",92786134,"L"
184876,"356 N BELKNAP ST","STEPHENVILLE","TX",76401,32.2218493180001,-98.2039586939999,376,"356 N BELKNAP ST, STEPHENVILLE, TX, 76401","Match","Exact","356 N BELKNAP ST, STEPHENVILLE, TX, 76401",158515081,"L"
184877,"356 NEWTOWN TURNPIKE","WILTON","CT",6897,41.191267383,-73.3858855669999,377,"356 NEWTOWN TURNPIKE, WILTON, CT, 6897","Match","Exact","356 NEWTOWN TPKE, WILTON, CT, 06897",618530227,"R"
184878,"356 NORTH FOX CHASE POINT","LONGWOOD","FL",32779,28.698126433,-81.443569011,378,"356 NORTH FOX CHASE POINT, LONGWOOD, FL, 32779","Match","Exact","356 N FOX CHASE PT, LONGWOOD, FL, 32779",93753765,"L"
184879,"356 NORTH MARKET ST","WOOSTER","OH",44691,40.8014537170001,-81.940758139,379,"356 NORTH MARKET ST, WOOSTER, OH, 44691","Match","Exact","356 N MARKET ST, WOOSTER, OH, 44691",58734732,"L"
184880,"356 PARTRIDGE BEND","POWELL","OH",43065,40.1658032080001,-83.053949129,380,"356 PARTRIDGE BEND, POWELL, OH, 43065","Match","Exact","356 PARTRIDGE BEND, POWELL, OH, 43065",24602051,"L"
184881,"356 PICCADILLY DOWNS","LYNBROOK","NY",11563,40.6522073670001,-73.689449285,381,"356 PICCADILLY DOWNS, LYNBROOK, NY, 11563","Match","Exact","356 PICCADILLY DOWNS, LYNBROOK, NY, 11563",147678650,"R"
184882,"356 PLOWMAN CT","FORT COLLINS","CO",80526,40.5417959370001,-105.083001897,382,"356 PLOWMAN CT, FORT COLLINS, CO, 80526","Match","Exact","356 PLOWMAN CT, FORT COLLINS, CO, 80526",188552532,"R"
184883,"356 PROSPECT CREEK DRIVE SUITE F","BALLWIN","MO",63021,38.588528857,-90.494123589,383,"356 PROSPECT CREEK DRIVE SUITE F, BALLWIN, MO, 63021","Match","Exact","356 PROSPECT CREEK DR, BALLWIN, MO, 63021",100168453,"L"
184884,"356 PUFFENBURGER LN","HEDGESVILLE","WV",25427,39.4205426550001,-78.134755808,384,"356 PUFFENBURGER LN, HEDGESVILLE, WV, 25427","Match","Exact","356 PUFFENBURGER LN, HEDGESVILLE, WV, 25427",607695672,"R"
184885,"356 RIDGESTONE DRIVE SW","MARIETTA","GA",30008,33.906575493,-84.565489978,385,"356 RIDGESTONE DRIVE SW, MARIETTA, GA, 30008","Match","Non_Exact","356 RIDGESTONE DR, MARIETTA, GA, 30008",642999382,"R"
184886,"356 S HALDEMAN RD","ARTESIA","NM",88210,NA,NA,386,"356 S HALDEMAN RD, ARTESIA, NM, 88210","No_Match",NA,NA,NA,NA
184887,"356 SEAVER STREET APT 1","DORCHESTER","MA",2121,42.304366283,-71.0826638199999,387,"356 SEAVER STREET APT 1, DORCHESTER, MA, 2121","Match","Exact","356 SEAVER ST, DORCHESTER, MA, 02121",85701550,"L"
184888,"356 SEEWEE CIRCLE","MT PLEASANT","SC",29464,32.815953795,-79.888706446,388,"356 SEEWEE CIRCLE, MT PLEASANT, SC, 29464","Match","Exact","356 SEEWEE CIR, MOUNT PLEASANT, SC, 29464",108854909,"L"
184889,"356 SMITH STREET","PROVIDENCE","RI",2908,41.8343227240001,-71.423411302,389,"356 SMITH STREET, PROVIDENCE, RI, 2908","Match","Exact","356 SMITH ST, PROVIDENCE, RI, 02908",47458686,"L"
184890,"356 SOUTH HILL DR","WAXAHACHIE","TX",75165,32.424773099,-96.8306778579999,390,"356 SOUTH HILL DR, WAXAHACHIE, TX, 75165","Match","Exact","356 S HILL DR, WAXAHACHIE, TX, 75165",648582815,"R"
184891,"356 SR 76","SANTA CRUZ","NM",87567,NA,NA,391,"356 SR 76, SANTA CRUZ, NM, 87567","No_Match",NA,NA,NA,NA
184892,"356 VIA DE PELLEGRINI","HENDERSON","NV",89011,36.0856914280001,-114.969687734,392,"356 VIA DE PELLEGRINI, HENDERSON, NV, 89011","Match","Exact","356 VIA DE PELLEGRINI, HENDERSON, NV, 89011",641510157,"L"
184893,"356 W AURORA ROAD","SAGAMORE HILLS","OH",44067,41.314324743,-81.551246984,393,"356 W AURORA ROAD, SAGAMORE HILLS, OH, 44067","Match","Exact","356 W AURORA RD, SAGAMORE HILLS, OH, 44067",61361125,"L"
184894,"356 W HALE STREET","BOISE","ID",83706,NA,NA,394,"356 W HALE STREET, BOISE, ID, 83706","Tie",NA,NA,NA,NA
184895,"356 W LEATHERWOOD ROAD","TOCCOA","GA",30577,NA,NA,395,"356 W LEATHERWOOD ROAD, TOCCOA, GA, 30577","Tie",NA,NA,NA,NA
184896,"356 WATERMILL RD","LAUREL","MS",39443,31.7588980800001,-89.184294675,396,"356 WATERMILL RD, LAUREL, MS, 39443","Match","Exact","356 WATERMILL RD, LAUREL, MS, 39443",611058167,"R"
184897,"356 WILD PLUM DRIVE","CROSSVILLE","TN",38555,35.8826157030001,-84.9999964579999,397,"356 WILD PLUM DRIVE, CROSSVILLE, TN, 38555","Match","Exact","356 WILD PLUM DR, CROSSVILLE, TN, 38555",649947657,"R"
184898,"356 WINTERS ST","WEST PALM","FL",33405,26.654239854,-80.0539059979999,398,"356 WINTERS ST, WEST PALM, FL, 33405","Match","Non_Exact","356 WINTERS ST, WEST PALM BEACH, FL, 33405",115280717,"L"
184899,"3560 158TH STREET","FLUSHING","NY",11358,NA,NA,399,"3560 158TH STREET, FLUSHING, NY, 11358","No_Match",NA,NA,NA,NA
184900,"3560 BOULDER CIRCLE","ELLENWOOD","GA",30294,33.678528498,-84.309668239,400,"3560 BOULDER CIRCLE, ELLENWOOD, GA, 30294","Match","Exact","3560 BOULDER CIR, ELLENWOOD, GA, 30294",23396461,"R"
184901,"3560 CHARLESTON CIR","IDAHO FALLS","ID",83404,43.465991681,-112.035205404,401,"3560 CHARLESTON CIR, IDAHO FALLS, ID, 83404","Match","Exact","3560 CHARLESTON CIR, IDAHO FALLS, ID, 83404",119147022,"L"
184902,"3560 E FEATHER AVE","GILBERT","AZ",85234,33.3693646620001,-111.71441394,402,"3560 E FEATHER AVE, GILBERT, AZ, 85234","Match","Exact","3560 E FEATHER AVE, GILBERT, AZ, 85234",128866184,"L"
184903,"3560 FARM HILL BLVD","REDWOOD CITY","CA",94061,37.463250788,-122.249846315,403,"3560 FARM HILL BLVD, REDWOOD CITY, CA, 94061","Match","Exact","3560 FARM HILL BLVD, REDWOOD CITY, CA, 94061",192362240,"R"
184904,"3560 GRAND AVENUE SUITE J","CHINO HILLS","CA",91709,34.002403895,-117.732690552,404,"3560 GRAND AVENUE SUITE J, CHINO HILLS, CA, 91709","Match","Exact","3560 GRAND AVE, CHINO HILLS, CA, 91709",632071495,"L"
184905,"3560 LYNHAVEN DRIVE","COLUMBIA","SC",29204,34.0409289070001,-80.985643651,405,"3560 LYNHAVEN DRIVE, COLUMBIA, SC, 29204","Match","Exact","3560 LYNHAVEN DR, COLUMBIA, SC, 29204",640029453,"L"
184906,"3560 MCCARTY","SAGINAW","MI",48603,43.465413219,-83.9873359979999,406,"3560 MCCARTY, SAGINAW, MI, 48603","Match","Non_Exact","3560 MCCARTY RD, SAGINAW, MI, 48603",616923320,"R"
184907,"3560 MEMORIAL DRIVE","NORTH MUSKEGON","MI",49445,43.247849359,-86.341727889,407,"3560 MEMORIAL DRIVE, NORTH MUSKEGON, MI, 49445","Match","Exact","3560 MEMORIAL DR, N MUSKEGON, MI, 49445",77673576,"L"
184908,"3560 NORTH CHARLES PORTER AVE","OAK HARBOR","WA",98278,NA,NA,408,"3560 NORTH CHARLES PORTER AVE, OAK HARBOR, WA, 98278","No_Match",NA,NA,NA,NA
184909,"3560 NW 87TH TERRACE","GAINESVILLE","FL",32606,29.6868821960001,-82.435537299,409,"3560 NW 87TH TERRACE, GAINESVILLE, FL, 32606","Match","Exact","3560 NW 87TH TER, GAINESVILLE, FL, 32606",6831049,"L"
184910,"3560 SPRINGFIELD RD","BLOOMFIELD","KY",40008,37.8649203680001,-85.299569634,410,"3560 SPRINGFIELD RD, BLOOMFIELD, KY, 40008","Match","Exact","3560 SPRINGFIELD RD, BLOOMFIELD, KY, 40008",35149480,"R"
184911,"3560 STONE RIDGE DRIVE","DOUGLASVILLE","GA",30134,33.7674626450001,-84.692350543,411,"3560 STONE RIDGE DRIVE, DOUGLASVILLE, GA, 30134","Match","Non_Exact","3560 STONE RIDGE TRL, DOUGLASVILLE, GA, 30134",16648570,"R"
184912,"3560 SWEETWOOD ST","SIMI VALLEY","CA",93063,34.2804364200001,-118.727128735,412,"3560 SWEETWOOD ST, SIMI VALLEY, CA, 93063","Match","Exact","3560 SWEETWOOD ST, SIMI VALLEY, CA, 93063",109979102,"R"
184913,"3560 VELDA OAKS CIRCLE","TALLAHASSEE","FL",32309,30.5592658360001,-84.212338839,413,"3560 VELDA OAKS CIRCLE, TALLAHASSEE, FL, 32309","Match","Exact","3560 VELDA OAKS CIR, TALLAHASSEE, FL, 32309",634069428,"L"
184914,"3560 W BELLA VALENCIA CT","LAS VEGAS","NV",89141,35.996767397,-115.186982681,414,"3560 W BELLA VALENCIA CT, LAS VEGAS, NV, 89141","Match","Exact","3560 BELLA VALENCIA CT, LAS VEGAS, NV, 89141",612989722,"R"
184915,"3560 W DAWSON RD","SEDALIA","CO",80135,39.3315323370001,-104.950670381,415,"3560 W DAWSON RD, SEDALIA, CO, 80135","Match","Exact","3560 DAWSON RD, SEDALIA, CO, 80135",130795873,"R"
184916,"3560 W MEDILL AVE","CHICAGO","IL",60647,41.9237081110001,-87.716022235,416,"3560 W MEDILL AVE, CHICAGO, IL, 60647","Match","Exact","3560 W MEDILL AVE, CHICAGO, IL, 60647",111758948,"R"
184917,"3560 W WILLIS","SHOW LOW","AZ",85901,34.2597285630001,-110.080972961,417,"3560 W WILLIS, SHOW LOW, AZ, 85901","Match","Exact","3560 W WILLIS, SHOW LOW, AZ, 85901",172509560,"R"
184918,"3560 WARDER ST NW","WASHINGTON","DC",20010,38.9335497710001,-77.020690116,418,"3560 WARDER ST NW, WASHINGTON, DC, 20010","Match","Exact","3560 WARDER ST NW, WASHINGTON, DC, 20010",76224142,"L"
184919,"3560 WATT WAY PED 111","LOS ANGELES","CA",90089,34.021494423,-118.287080006,419,"3560 WATT WAY PED 111, LOS ANGELES, CA, 90089","Match","Exact","3560 WATT WAY, LOS ANGELES, CA, 90089",142665669,"R"
184920,"3560 WAYSIDE DRIVE","HARTFORD","WI",53027,43.320228652,-88.3417126699999,420,"3560 WAYSIDE DRIVE, HARTFORD, WI, 53027","Match","Exact","3560 WAYSIDE DR, HARTFORD, WI, 53027",79573480,"L"
184921,"3560 WEBSTER AVE APT 4G","BRONX","NY",10467,40.88157297,-73.870343302,421,"3560 WEBSTER AVE APT 4G, BRONX, NY, 10467","Match","Exact","3560 WEBSTER AVE, BRONX, NY, 10467",80311653,"R"
184922,"3560 WILDWOOD DR","NIAGARA FALLS","NY",14304,43.1191694600001,-78.974382852,422,"3560 WILDWOOD DR, NIAGARA FALLS, NY, 14304","Match","Exact","3560 WILDWOOD DR, NIAGARA FALLS, NY, 14304",48696107,"L"
184923,"35600 13TH ST","NEHALEM","OR",97131,45.715698563,-123.900286113,423,"35600 13TH ST, NEHALEM, OR, 97131","Match","Exact","35600 13TH ST, NEHALEM, OR, 97131",156375521,"L"
184924,"35602 GOFF STREET","REHOBOTH BEACH","DE",19971,38.701009103,-75.1290443139999,424,"35602 GOFF STREET, REHOBOTH BEACH, DE, 19971","Match","Exact","35602 GOFF ST, REHOBOTH BCH, DE, 19971",648998433,"R"
184925,"3561 BOYNTON ROAD","CLEVELAND HEIGHTS","OH",44121,41.5275308220001,-81.5528444239999,425,"3561 BOYNTON ROAD, CLEVELAND HEIGHTS, OH, 44121","Match","Exact","3561 BOYNTON RD, CLEVELAND HEIGHTS, OH, 44121",61124169,"L"
184926,"3561 DEBINA WAY","RANCHO CORDOVA","CA",95670,38.574005351,-121.273976928,426,"3561 DEBINA WAY, RANCHO CORDOVA, CA, 95670","Match","Exact","3561 DEBINA WAY, RANCHO CORDOVA, CA, 95670",615383944,"L"
184927,"3561 E DEUCE OF CLUBS","SHOW LOW","AZ",85901,34.259905191,-110.002117539,427,"3561 E DEUCE OF CLUBS, SHOW LOW, AZ, 85901","Match","Exact","3561 E DEUCE OF CLUBS, SHOW LOW, AZ, 85901",635837764,"R"
184928,"3561 HIGHWAY 62 NW","CORYDON","IN",47112,38.240544062,-86.1914490199999,428,"3561 HIGHWAY 62 NW, CORYDON, IN, 47112","Match","Exact","3561 HWY 62 NW, CORYDON, IN, 47112",34807921,"L"
184929,"3561 HOMESTEAD RD STE 263","SANTA CLARA","CA",95051,37.33787227,-121.994699226,429,"3561 HOMESTEAD RD STE 263, SANTA CLARA, CA, 95051","Match","Exact","3561 HOMESTEAD RD, SANTA CLARA, CA, 95051",614040777,"R"
184930,"3561 MIDDLETOWN ST","PORT CHARLOTTE","FL",33952,26.9728138180001,-82.078761626,430,"3561 MIDDLETOWN ST, PORT CHARLOTTE, FL, 33952","Match","Exact","3561 MIDDLETOWN ST, PORT CHARLOTTE, FL, 33952",4309014,"L"
184931,"3561 OLD BOYNTON ROAD","BOYNTON BEACH","FL",33436,NA,NA,431,"3561 OLD BOYNTON ROAD, BOYNTON BEACH, FL, 33436","No_Match",NA,NA,NA,NA
184932,"3561 PADUCAH ROAD","BARLOW","KY",42024,NA,NA,432,"3561 PADUCAH ROAD, BARLOW, KY, 42024","No_Match",NA,NA,NA,NA
184933,"3561 RICE HILL RD","FRANKLIN","VT",5457,44.941328436,-72.906000616,433,"3561 RICE HILL RD, FRANKLIN, VT, 5457","Match","Exact","3561 RICE HILL RD, FRANKLIN, VT, 05457",136511496,"L"
184934,"3561 S DOLLISON AVE","SPRINGFIELD","MO",65807,37.1499024240001,-93.285764617,434,"3561 S DOLLISON AVE, SPRINGFIELD, MO, 65807","Match","Exact","3561 S DOLLISON AVE, SPRINGFIELD, MO, 65807",76680754,"R"
184935,"3561 STATE HIGHWAY 49","COOL","CA",95614,NA,NA,435,"3561 STATE HIGHWAY 49, COOL, CA, 95614","No_Match",NA,NA,NA,NA
184936,"3561 SW 70TH AVE","MIRAMAR","FL",33023,25.977258384,-80.2283461229999,436,"3561 SW 70TH AVE, MIRAMAR, FL, 33023","Match","Exact","3561 SW 70TH AVE, MIRAMAR, FL, 33023",114734704,"L"
184937,"35610 LAUREL TREE COURT","WINCHESTER","CA",92596,33.6084610030001,-117.091757202,437,"35610 LAUREL TREE COURT, WINCHESTER, CA, 92596","Match","Exact","35610 LAUREL TREE CT, WINCHESTER, CA, 92596",640889397,"L"
184938,"35613 MICHIGAN AVE","WAYNE","MI",48184,42.27989969,-83.389920009,438,"35613 MICHIGAN AVE, WAYNE, MI, 48184","Match","Exact","35613 MICHIGAN AVE, WAYNE, MI, 48184",95416384,"L"
184939,"35613 WESTMINSTER ST","PLEASANT HILL","OR",97455,43.9738710300001,-122.947560941,439,"35613 WESTMINSTER ST, PLEASANT HILL, OR, 97455","Match","Exact","35613 WESTMINSTER ST, PLEASANT HILL, OR, 97455",178151168,"L"
184940,"3562 BLUE BELL TRAIL","CHEYENNE","WY",82007,41.115893972,-104.605617354,440,"3562 BLUE BELL TRAIL, CHEYENNE, WY, 82007","Match","Exact","3562 BLUE BELL TRL, CHEYENNE, WY, 82007",160172905,"L"
184941,"3562 DUMONT ROAD","ALLEGAN","MI",49010,42.585823727,-85.896047928,441,"3562 DUMONT ROAD, ALLEGAN, MI, 49010","Match","Exact","3562 DUMONT RD, ALLEGAN, MI, 49010",11443292,"L"
184942,"3562 GENEVA DRIVE","SANTA CLARA","CA",95051,37.3288384320001,-121.994160808,442,"3562 GENEVA DRIVE, SANTA CLARA, CA, 95051","Match","Exact","3562 GENEVA DR, SANTA CLARA, CA, 95051",122898376,"L"
184943,"3562 JASMINE AVE APT 8","LOS ANGELES","CA",90034,34.0266336080001,-118.405666661,443,"3562 JASMINE AVE APT 8, LOS ANGELES, CA, 90034","Match","Exact","3562 JASMINE AVE, LOS ANGELES, CA, 90034",141573705,"L"
184944,"3562 LARKHAVEN AVE SW","CONCORD","NC",28027,35.3494437430001,-80.632136949,444,"3562 LARKHAVEN AVE SW, CONCORD, NC, 28027","Match","Exact","3562 LARKHAVEN AVE SW, CONCORD, NC, 28027",642175328,"R"
184945,"3562 OSPREY AVENUE","SARASOTA","FL",34239,27.3019826140001,-82.533648479,445,"3562 OSPREY AVENUE, SARASOTA, FL, 34239","Match","Non_Exact","3562 S OSPREY AVE, SARASOTA, FL, 34239",16398674,"R"
184946,"3562 UTAH STREET","SAN DIEGO","CA",92104,32.74349184,-117.132813278,446,"3562 UTAH STREET, SAN DIEGO, CA, 92104","Match","Exact","3562 UTAH ST, SAN DIEGO, CA, 92104",195345699,"L"
184947,"35622 FIR AVE","YUCAIPA","CA",92399,34.0557345660001,-117.027496777,447,"35622 FIR AVE, YUCAIPA, CA, 92399","Match","Exact","35622 FIR AVE, YUCAIPA, CA, 92399",144732647,"L"
184948,"35624 CYPRESS CT","LEESBURG","FL",34788,28.8677729,-81.744686053,448,"35624 CYPRESS CT, LEESBURG, FL, 34788","Match","Exact","35624 CYPRESS CT, LEESBURG, FL, 34788",94109184,"L"
184949,"3563 HIGHWAY 45 N","JACKSON","TN",38305,NA,NA,449,"3563 HIGHWAY 45 N, JACKSON, TN, 38305","No_Match",NA,NA,NA,NA
184950,"3563 PHILLIPS HWY SUITE 702","JACKSONVILLE","FL",32207,30.290202277,-81.6355985289999,450,"3563 PHILLIPS HWY SUITE 702, JACKSONVILLE, FL, 32207","Match","Non_Exact","3563 PHILIPS HWY, JACKSONVILLE, FL, 32207",83915914,"L"
184951,"3563 SUNFLOWER WAY","FORT COLLINS","CO",80521,40.5719571240001,-105.142778076,451,"3563 SUNFLOWER WAY, FORT COLLINS, CO, 80521","Match","Non_Exact","3563 SUNFLOWER DR, FORT COLLINS, CO, 80521",642902828,"L"
184952,"3563 TREVIS WAY","CARMEL","CA",93923,36.544923227,-121.910902295,452,"3563 TREVIS WAY, CARMEL, CA, 93923","Match","Exact","3563 TREVIS WAY, CARMEL, CA, 93923",196816476,"L"
184953,"3564 AVALON PARK E BLVD STE 1 - 261","ORLANDO","FL",32828,NA,NA,453,"3564 AVALON PARK E BLVD STE 1 - 261, ORLANDO, FL, 32828","No_Match",NA,NA,NA,NA
184954,"3564 CENTRAL AVE SUITE-C1","RIVERSIDE","CA",92506,33.953585596,-117.389818053,454,"3564 CENTRAL AVE SUITE-C1, RIVERSIDE, CA, 92506","Match","Exact","3564 CENTRAL AVE, RIVERSIDE, CA, 92506",194741781,"L"
184955,"3564 KITFORD ROAD","JOHNS ISLAND","SC",29455,32.765435272,-80.105124527,455,"3564 KITFORD ROAD, JOHNS ISLAND, SC, 29455","Match","Exact","3564 KITFORD RD, JOHNS ISLAND, SC, 29455",617153488,"L"
184956,"3564 ROUTE 82","MILLBROOK","NY",12545,41.742700961,-73.7128835569999,456,"3564 ROUTE 82, MILLBROOK, NY, 12545","Match","Exact","3564 RTE 82, MILLBROOK, NY, 12545",647173855,"L"
184957,"3564 SOUTHERN TRAIL","FULTONDALE","AL",35068,33.6091577350001,-86.7914708059999,457,"3564 SOUTHERN TRAIL, FULTONDALE, AL, 35068","Match","Exact","3564 SOUTHERN TRL, FULTONDALE, AL, 35068",646664628,"R"
184958,"3564 W THAMES DR","FAYETTEVILLE","AR",72704,36.101237068,-94.210477988,458,"3564 W THAMES DR, FAYETTEVILLE, AR, 72704","Match","Exact","3564 W THAMES DR, FAYETTEVILLE, AR, 72704",49072500,"L"
184959,"35640 FREMONT BLVD 332","FREMONT","CA",94536,NA,NA,459,"35640 FREMONT BLVD 332, FREMONT, CA, 94536","No_Match",NA,NA,NA,NA
184960,"35641 GROTH ROAD","HOUSTON","MN",55943,43.911829504,-91.56803532,460,"35641 GROTH ROAD, HOUSTON, MN, 55943","Match","Non_Exact","35641 GROTH DR, HOUSTON, MN, 55943",611909713,"R"
184961,"3565 CR 405","TAYLOR","TX",76574,30.4849461380001,-97.437618723,461,"3565 CR 405, TAYLOR, TX, 76574","Match","Exact","3565 CO RD 405, TAYLOR, TX, 76574",126482161,"R"
184962,"3565 DREYFUS STREET","HOUSTON","TX",77021,29.68909289,-95.371074844,462,"3565 DREYFUS STREET, HOUSTON, TX, 77021","Match","Exact","3565 DREYFUS ST, HOUSTON, TX, 77021",96088257,"L"
184963,"3565 FOREST BEND TER","JACKSONVILLE","FL",32224,30.2827773430001,-81.449716962,463,"3565 FOREST BEND TER, JACKSONVILLE, FL, 32224","Match","Exact","3565 FOREST BEND TE, JACKSONVILLE, FL, 32224",83961826,"L"
184964,"3565 GABLES DR","FAYETTEVILLE","NC",28311,35.1088191860001,-78.8854632059999,464,"3565 GABLES DR, FAYETTEVILLE, NC, 28311","Match","Exact","3565 GABLES DR, FAYETTEVILLE, NC, 28311",64229370,"L"
184965,"3565 HOMESTEAD ROAD","SANTA CLARA","CA",95051,37.3378721820001,-121.994713873,465,"3565 HOMESTEAD ROAD, SANTA CLARA, CA, 95051","Match","Exact","3565 HOMESTEAD RD, SANTA CLARA, CA, 95051",614040777,"R"
184966,"3565 LOYOLA CT","DUNKIRK","MD",20754,38.74957892,-76.66604542,466,"3565 LOYOLA CT, DUNKIRK, MD, 20754","Match","Exact","3565 LOYOLA CT, DUNKIRK, MD, 20754",637457288,"R"
184967,"3565 N CRYSTAL PEAK CIRCLE","MESA","AZ",85207,33.480557672,-111.648048659,467,"3565 N CRYSTAL PEAK CIRCLE, MESA, AZ, 85207","Match","Exact","3565 N CRYSTAL PEAK CIR, MESA, AZ, 85207",616711567,"L"
184968,"3565 NW 204TH TER","MIAMI GARDENS","FL",33056,25.96108579,-80.2610541989999,468,"3565 NW 204TH TER, MIAMI GARDENS, FL, 33056","Match","Exact","3565 NW 204TH TER, MIAMI GARDENS, FL, 33056",116064645,"R"
184969,"3565 ROCK SHELF LN","ROUND ROCK","TX",78681,30.5587463160001,-97.73981945,469,"3565 ROCK SHELF LN, ROUND ROCK, TX, 78681","Match","Exact","3565 ROCK SHELF LN, ROUND ROCK, TX, 78681",126467343,"L"
184970,"3565 SPENCER LANE","MARIETTA","GA",30066,34.037020376,-84.4903644459999,470,"3565 SPENCER LANE, MARIETTA, GA, 30066","Match","Exact","3565 SPENCER LN, MARIETTA, GA, 30066",17204871,"L"
184971,"3565 STOER RD APT 8","SHAKER HEIGHTS","OH",44122,41.462955493,-81.5444237579999,471,"3565 STOER RD APT 8, SHAKER HEIGHTS, OH, 44122","Match","Exact","3565 STOER RD, SHAKER HEIGHTS, OH, 44122",61128965,"L"
184972,"3565 SWAMP ROAD","CANANDAIGUA","NY",14424,42.915275653,-77.1878241969999,472,"3565 SWAMP ROAD, CANANDAIGUA, NY, 14424","Match","Exact","3565 SWAMP RD, CANANDAIGUA, NY, 14424",13473054,"R"
184973,"3565 WALDROP RIDGE LANE","DECATUR","GA",30034,33.6780362010001,-84.2447532209999,473,"3565 WALDROP RIDGE LANE, DECATUR, GA, 30034","Match","Exact","3565 WALDROP RIDGE LN, DECATUR, GA, 30034",23398211,"R"
184974,"3565 WILLOW DRIVE  APT 137","PLOVER","WI",54467,44.4551701410001,-89.562381564,474,"3565 WILLOW DRIVE  APT 137, PLOVER, WI, 54467","Match","Exact","3565 WILLOW DR, PLOVER, WI, 54467",648153800,"L"
184975,"3566 ADKINS RD NW","ATLANTA","GA",30331,33.7715926490001,-84.505976055,475,"3566 ADKINS RD NW, ATLANTA, GA, 30331","Match","Exact","3566 ADKINS RD NW, ATLANTA, GA, 30331",17336469,"L"
184976,"3566 COLEMAN RD","FAYETTEVILLE","NC",28312,35.12962401,-78.793506947,476,"3566 COLEMAN RD, FAYETTEVILLE, NC, 28312","Match","Exact","3566 COLEMAN RD, FAYETTEVILLE, NC, 28312",64244923,"R"
184977,"3566 N DOVE PL","BOISE","ID",83704,43.6370747120001,-116.308868371,477,"3566 N DOVE PL, BOISE, ID, 83704","Match","Exact","3566 N DOVE PL, BOISE, ID, 83704",117856611,"R"
184978,"3566 RABBITS FOOT TRAIL","LEXINGTON","KY",40503,38.0062487110001,-84.564702379,478,"3566 RABBITS FOOT TRAIL, LEXINGTON, KY, 40503","Match","Exact","3566 RABBITS FOOT TRL, LEXINGTON, KY, 40503",636245136,"R"
184979,"3566 RAIN FOREST DR W","JACKSONVILLE","FL",32277,30.3634578240001,-81.573987758,479,"3566 RAIN FOREST DR W, JACKSONVILLE, FL, 32277","Match","Exact","3566 RAIN FOREST DR W, JACKSONVILLE, FL, 32277",83942088,"L"
184980,"3566 S JEFFERSON STREET","MONTICELLO","FL",32344,NA,NA,480,"3566 S JEFFERSON STREET, MONTICELLO, FL, 32344","No_Match",NA,NA,NA,NA
184981,"3566 SALDING TERRACE","PEACHTREE CORNERS","GA",30092,NA,NA,481,"3566 SALDING TERRACE, PEACHTREE CORNERS, GA, 30092","No_Match",NA,NA,NA,NA
184982,"3566 SE PAULA JEAN CT","HILLSBORO","OR",97123,45.4930092590001,-122.961151392,482,"3566 SE PAULA JEAN CT, HILLSBORO, OR, 97123","Match","Exact","3566 SE PAULA JEAN CT, HILLSBORO, OR, 97123",158179719,"L"
184983,"3566 SOUTH COTTAGE GROVE","CHICAGO","IL",60653,41.829860882,-87.6099257499999,483,"3566 SOUTH COTTAGE GROVE, CHICAGO, IL, 60653","Match","Non_Exact","3566 S COTTAGE GROVE AVE, CHICAGO, IL, 60653",111770370,"R"
184984,"3566 SOUTH HOLLY ST","DENVER","CO",80237,39.651158862,-104.922897033,484,"3566 SOUTH HOLLY ST, DENVER, CO, 80237","Match","Exact","3566 S HOLLY ST, DENVER, CO, 80237",177341920,"L"
184985,"3566 VISTA COURT","MIAMI","FL",33133,25.7371870200001,-80.2237404919999,485,"3566 VISTA COURT, MIAMI, FL, 33133","Match","Exact","3566 VISTA CT, MIAMI, FL, 33133",116019113,"R"
184986,"3566 W DICKENS AVE","CHICAGO","IL",60647,41.919130169,-87.715968302,486,"3566 W DICKENS AVE, CHICAGO, IL, 60647","Match","Exact","3566 W DICKENS AVE, CHICAGO, IL, 60647",111759085,"R"
184987,"3566 WARBLER DR","DECATUR","GA",30034,33.6916786780001,-84.242093218,487,"3566 WARBLER DR, DECATUR, GA, 30034","Match","Exact","3566 WARBLER DR, DECATUR, GA, 30034",640580740,"R"
184988,"3567 BENTON STREET NUMBER 162","SANTA CLARA","CA",95051,37.345466566,-121.995335759,488,"3567 BENTON STREET NUMBER 162, SANTA CLARA, CA, 95051","Match","Exact","3567 BENTON ST, SANTA CLARA, CA, 95051",618171723,"R"
184989,"3567 CLARIDON-WESTFIELD ROAD","MARION","OH",43302,40.518904718,-82.995588965,489,"3567 CLARIDON-WESTFIELD ROAD, MARION, OH, 43302","Match","Non_Exact","3567 CLARIDON WESTFIELD RD, MARION, OH, 43302",12714387,"L"
184990,"3567 CORTE ROSADO","CARLSBAD","CA",92009,33.0679818780001,-117.227214006,490,"3567 CORTE ROSADO, CARLSBAD, CA, 92009","Match","Exact","3567 CORTE ROSADO, CARLSBAD, CA, 92009",195674436,"L"
184991,"3567 REVERE RD","ATLANTA","GA",30331,33.707481837,-84.504533327,491,"3567 REVERE RD, ATLANTA, GA, 30331","Match","Non_Exact","3567 REVERE RD SW, ATLANTA, GA, 30331",17337540,"R"
184992,"3567 SPLINTERWOOD RD","NORCROSS","GA",30092,33.9580507250001,-84.24229794,492,"3567 SPLINTERWOOD RD, NORCROSS, GA, 30092","Match","Exact","3567 SPLINTERWOOD RD, NORCROSS, GA, 30092",88893436,"R"
184993,"35672 SAYRE RD","CARTHAGE","NY",13619,43.9809222700001,-75.661933759,493,"35672 SAYRE RD, CARTHAGE, NY, 13619","Match","Exact","35672 SAYRE RD, CARTHAGE, NY, 13619",154247687,"L"
184994,"35676 CAPITOLA CT","WILDOMAR","CA",92595,33.6020279200001,-117.238909225,494,"35676 CAPITOLA CT, WILDOMAR, CA, 92595","Match","Exact","35676 CAPITOLA CT, WILDOMAR, CA, 92595",646286196,"R"
184995,"35677 GALBERRY ROAD","CHESAPEAKE","VA",23323,NA,NA,495,"35677 GALBERRY ROAD, CHESAPEAKE, VA, 23323","No_Match",NA,NA,NA,NA
184996,"35677 HIGHWAY 11","BURAS","LA",70041,29.355078473,-89.5278389969999,496,"35677 HIGHWAY 11, BURAS, LA, 70041","Match","Exact","35677 HWY 11, BURAS, LA, 70041",191985307,"R"
184997,"35677 W 91ST ST S","MANNFORD","OK",74044,36.0322239930001,-96.391308097,497,"35677 W 91ST ST S, MANNFORD, OK, 74044","Match","Exact","35677 W 91ST ST S, MANNFORD, OK, 74044",165897584,"R"
184998,"3568 ADAMS LANDING DR","POWDER SPRINGS","GA",30127,33.8908800790001,-84.656523917,498,"3568 ADAMS LANDING DR, POWDER SPRINGS, GA, 30127","Match","Exact","3568 ADAMS LANDING DR, POWDER SPGS, GA, 30127",650729712,"L"
184999,"3568 BRICKMORE ROAD","CLEVELAND HEIGHTS","OH",44121,NA,NA,499,"3568 BRICKMORE ROAD, CLEVELAND HEIGHTS, OH, 44121","No_Match",NA,NA,NA,NA
185000,"3568 ELMWOOD DR","RIVERSIDE","CA",92506,33.9652577690001,-117.384541951,500,"3568 ELMWOOD DR, RIVERSIDE, CA, 92506","Match","Exact","3568 ELMWOOD DR, RIVERSIDE, CA, 92506",194793570,"L"
