"ID","Address","City","State","Zip","lat","long","id","input_address","match_indicator","match_type","matched_address","tiger_line_id","tiger_side"
245001,"5536 HUNTER STREET","PHILADELPHIA","PA",19131,39.977499617,-75.233078225,1,"5536 HUNTER STREET, PHILADELPHIA, PA, 19131","Match","Exact","5536 HUNTER ST, PHILADELPHIA, PA, 19131",131398035,"L"
245002,"5536 N 6TH STREET","PHOENIX","AZ",85012,33.516835159,-112.066678789,2,"5536 N 6TH STREET, PHOENIX, AZ, 85012","Match","Non_Exact","5536 N 6TH ST, PHOENIX, AZ, 85012",128208316,"L"
245003,"5536 N WINTHROP AVE","CHICAGO","IL",60640,41.982555458,-87.657992022,3,"5536 N WINTHROP AVE, CHICAGO, IL, 60640","Match","Exact","5536 N WINTHROP AVE, CHICAGO, IL, 60640",111761476,"L"
245004,"5536 TUXEDO ROAD","HYATTSVILLE","MD",20781,38.9173319870001,-76.924290517,4,"5536 TUXEDO ROAD, HYATTSVILLE, MD, 20781","Match","Exact","5536 TUXEDO RD, HYATTSVILLE, MD, 20781",76373056,"L"
245005,"5536 VARSITY DR    BLDG 9","FORT BRAGG","NC",28307,NA,NA,5,"5536 VARSITY DR    BLDG 9, FORT BRAGG, NC, 28307","No_Match",NA,NA,NA,NA
245006,"5536 VIRGINIA COURT","AMHERST","OH",44001,41.415004524,-82.19292553,6,"5536 VIRGINIA COURT, AMHERST, OH, 44001","Match","Non_Exact","5536 VIRGINIA DR, AMHERST, OH, 44001",55448994,"R"
245007,"5537  WESTWARD DRIVE","VIRGINIA BEACH","VA",23464,36.8079796480001,-76.183074457,7,"5537  WESTWARD DRIVE, VIRGINIA BEACH, VA, 23464","Match","Exact","5537 WESTWARD DR, VA BCH, VA, 23464",122264234,"L"
245008,"5537 CHATHAM WOODS DR","COLUMBUS","GA",31907,32.500027575,-84.897402014,8,"5537 CHATHAM WOODS DR, COLUMBUS, GA, 31907","Match","Exact","5537 CHATHAM WOODS DR, COLUMBUS, GA, 31907",624096923,"L"
245009,"5537 GAUMER AVENUE","PENNSAUKEN","NJ",8109,39.941511817,-75.062372539,9,"5537 GAUMER AVENUE, PENNSAUKEN, NJ, 8109","Match","Exact","5537 GAUMER AVE, PENNSAUKEN, NJ, 08109",134343611,"R"
245010,"5537 GERMANTOWN AVE FLR 2","PHILADELPHIA","PA",19144,40.0345369980001,-75.172987644,10,"5537 GERMANTOWN AVE FLR 2, PHILADELPHIA, PA, 19144","Match","Exact","5537 GERMANTOWN AVE, PHILADELPHIA, PA, 19144",131401280,"R"
245011,"5537 LOMA LINDA LANE NE","CANTON","OH",44721,40.8611383310001,-81.35841844,11,"5537 LOMA LINDA LANE NE, CANTON, OH, 44721","Match","Exact","5537 LOMA LINDA LN NE, CANTON, OH, 44721",64706307,"L"
245012,"5537 LOMA LINDA LANE NORTHEAST","CANTON","OH",44721,40.8611383310001,-81.35841844,12,"5537 LOMA LINDA LANE NORTHEAST, CANTON, OH, 44721","Match","Exact","5537 LOMA LINDA LN NE, CANTON, OH, 44721",64706307,"L"
245013,"5537 S INDIGO PL","BOISE","ID",83716,43.551667621,-116.147154222,13,"5537 S INDIGO PL, BOISE, ID, 83716","Match","Exact","5537 S INDIGO PL, BOISE, ID, 83716",117884190,"L"
245014,"5537 SAINT ANDREWS DRIVE","STOCKTON","CA",95219,37.969130039,-121.369273022,14,"5537 SAINT ANDREWS DRIVE, STOCKTON, CA, 95219","Match","Exact","5537 SAINT ANDREWS DR, STOCKTON, CA, 95219",133930652,"L"
245015,"5537 W 44TH STREET","INDIANAPOLIS","IN",46254,NA,NA,15,"5537 W 44TH STREET, INDIANAPOLIS, IN, 46254","No_Match",NA,NA,NA,NA
245016,"5538 CUMBERLAND HIGHWAY","CHAMBERSBURG","PA",17202,39.9952253860001,-77.612470114,16,"5538 CUMBERLAND HIGHWAY, CHAMBERSBURG, PA, 17202","Match","Exact","5538 CUMBERLAND HWY, CHAMBERSBURG, PA, 17202",60084018,"R"
245017,"5538 DUNBROOK PARK LANE","KATY","TX",77449,29.852580776,-95.725608865,17,"5538 DUNBROOK PARK LANE, KATY, TX, 77449","Match","Exact","5538 DUNBROOK PARK LN, KATY, TX, 77449",630320914,"L"
245018,"5538 HANNIBAL STREET","DENVER","CO",80239,39.7959616430001,-104.808870261,18,"5538 HANNIBAL STREET, DENVER, CO, 80239","Match","Non_Exact","5538 N HANNIBAL ST, DENVER, CO, 80239",606058170,"R"
245019,"5538 MONTEGO LANE","PORT CHARLOTTE","FL",33981,26.9489614720001,-82.2359913719999,19,"5538 MONTEGO LANE, PORT CHARLOTTE, FL, 33981","Match","Exact","5538 MONTEGO LN, PORT CHARLOTTE, FL, 33981",4300545,"R"
245020,"5538 ROE BOULEVARD","ROELAND PARK","KS",66205,39.0279268850001,-94.639731125,20,"5538 ROE BOULEVARD, ROELAND PARK, KS, 66205","Match","Exact","5538 ROE BLVD, ROELAND PARK, KS, 66205",91273987,"R"
245021,"5539 BYRON CENTER AVENUE SW","WYOMING","MI",49519,42.8638558420001,-85.723196516,21,"5539 BYRON CENTER AVENUE SW, WYOMING, MI, 49519","Match","Exact","5539 BYRON CENTER AVE SW, WYOMING, MI, 49519",642602022,"R"
245022,"5539 CASTLEBERRY RD","HARRISON","AR",72601,36.2334367720001,-93.1942568379999,22,"5539 CASTLEBERRY RD, HARRISON, AR, 72601","Match","Non_Exact","5539 CASTLEBERRY RD W, HARRISON, AR, 72601",19981333,"R"
245023,"5539 CEDAR ELM LN","FULSHEAR","TX",77441,29.708133995,-95.850717942,23,"5539 CEDAR ELM LN, FULSHEAR, TX, 77441","Match","Exact","5539 CEDAR ELM LN, FULSHEAR, TX, 77441",641060418,"R"
245024,"5539 HALL CIRCLE","UNION CITY","GA",30291,33.592425436,-84.562022965,24,"5539 HALL CIRCLE, UNION CITY, GA, 30291","Match","Exact","5539 HALL CIR, UNION CITY, GA, 30291",17432901,"R"
245025,"5539 LANIER AVENUE","CAMP SPRINGS","MD",20746,38.831121898,-76.911680035,25,"5539 LANIER AVENUE, CAMP SPRINGS, MD, 20746","Match","Exact","5539 LANIER AVE, CAMP SPRINGS, MD, 20746",639243790,"L"
245026,"5539 LANSDOWNE AVENUE","PHILADELPHIA","PA",19131,39.976731413,-75.232954352,26,"5539 LANSDOWNE AVENUE, PHILADELPHIA, PA, 19131","Match","Exact","5539 LANSDOWNE AVE, PHILADELPHIA, PA, 19131",131398037,"R"
245027,"5539 LIVERPOOL ST","DENVER","CO",80249,39.795530404,-104.744242339,27,"5539 LIVERPOOL ST, DENVER, CO, 80249","Match","Non_Exact","5539 N LIVERPOOL ST, DENVER, CO, 80249",617188525,"L"
245028,"5539 N MONITOR AVE APT 2","CHICAGO","IL",60630,41.9818349600001,-87.7748324839999,28,"5539 N MONITOR AVE APT 2, CHICAGO, IL, 60630","Match","Non_Exact","5539 N MONITOR AVE, CHICAGO, IL, 60630",605160793,"R"
245029,"5539 OLD BUSH RIVER RD","COLUMBIA","SC",29212,34.054672628,-81.182213329,29,"5539 OLD BUSH RIVER RD, COLUMBIA, SC, 29212","Match","Exact","5539 BUSH RIVER RD, COLUMBIA, SC, 29212",70075520,"R"
245030,"5539 POPLAR STREET","PHILADELPHIA","PA",19131,39.969861843,-75.231259969,30,"5539 POPLAR STREET, PHILADELPHIA, PA, 19131","Match","Exact","5539 POPLAR ST, PHILADELPHIA, PA, 19131",131398384,"R"
245031,"5539 PRESCOTT ST","DETROIT","MI",48212,42.405799126,-83.046501585,31,"5539 PRESCOTT ST, DETROIT, MI, 48212","Match","Exact","5539 PRESCOTT ST, DETROIT, MI, 48212",95466066,"L"
245032,"5539 SOUNDSIDE DR APT E","GULF BREEZE","FL",32563,30.3899251870001,-86.98478134,32,"5539 SOUNDSIDE DR APT E, GULF BREEZE, FL, 32563","Match","Exact","5539 SOUNDSIDE DR, GULF BREEZE, FL, 32563",74592036,"R"
245033,"5539 SOUTH SANGAMON","CHICAGO","IL",60621,41.7929895010001,-87.648761346,33,"5539 SOUTH SANGAMON, CHICAGO, IL, 60621","Match","Non_Exact","5539 S SANGAMON ST, CHICAGO, IL, 60621",605564711,"L"
245034,"554 1/2 HAWTHORNE STREET","GLENDALE","CA",91204,34.144996168,-118.26566542,34,"554 1/2 HAWTHORNE STREET, GLENDALE, CA, 91204","Match","Exact","554 HAWTHORNE ST, GLENDALE, CA, 91204",141609887,"L"
245035,"554 BAYBERRY DR","LAKE PARK","FL",33403,26.7937793880001,-80.0638261829999,35,"554 BAYBERRY DR, LAKE PARK, FL, 33403","Match","Exact","554 BAYBERRY DR, LAKE PARK, FL, 33403",115275871,"L"
245036,"554 BEACHVIEW CIRCLE","HOT SPRINGS","AR",71913,34.416942163,-93.062582666,36,"554 BEACHVIEW CIRCLE, HOT SPRINGS, AR, 71913","Match","Exact","554 BEACHVIEW CIR, HOT SPRINGS, AR, 71913",22734586,"L"
245037,"554 BLOOMFIELD AVE","BLOOMFIELD","NJ",7003,40.7924127900001,-74.197091356,37,"554 BLOOMFIELD AVE, BLOOMFIELD, NJ, 7003","Match","Exact","554 BLOOMFIELD AVE, BLOOMFIELD, NJ, 07003",63451232,"L"
245038,"554 BOSTON POST ROAD - 306","ORANGE","CT",6477,NA,NA,38,"554 BOSTON POST ROAD - 306, ORANGE, CT, 6477","No_Match",NA,NA,NA,NA
245039,"554 CALLE PERSEO","SAN JUAN","PR",920,18.3987925600001,-66.107580861,39,"554 CALLE PERSEO, SAN JUAN, PR, 920","Match","Non_Exact","554 CLL PERSEO, SAN JUAN, PR, 00920",206606186,"R"
245040,"554 CHANDLER STREET","WINSTON SALEM","NC",27101,36.104736642,-80.203090838,40,"554 CHANDLER STREET, WINSTON SALEM, NC, 27101","Match","Non_Exact","554 CHANDLER ST NE, WINSTON SALEM, NC, 27101",84613087,"L"
245041,"554 CLAYTON STREET 170096","SAN FRANCISCO","CA",94117,37.7702278040001,-122.448656677,41,"554 CLAYTON STREET 170096, SAN FRANCISCO, CA, 94117","Match","Exact","554 CLAYTON ST, SAN FRANCISCO, CA, 94117",192282354,"L"
245042,"554 E  BRETT STREET","INGLEWOOD","CA",90302,33.9779016300001,-118.350417605,42,"554 E  BRETT STREET, INGLEWOOD, CA, 90302","Match","Exact","554 E BRETT ST, INGLEWOOD, CA, 90302",141654808,"R"
245043,"554 E 149TH STREET","BRONX","NY",10455,40.814569141,-73.913866163,43,"554 E 149TH STREET, BRONX, NY, 10455","Match","Exact","554 E 149TH ST, BRONX, NY, 10455",80300772,"R"
245044,"554 EAST BELLEVUE ROAD","ATWATER","CA",95301,37.3604741070001,-120.588817812,44,"554 EAST BELLEVUE ROAD, ATWATER, CA, 95301","Match","Exact","554 E BELLEVUE RD, ATWATER, CA, 95301",125279953,"R"
245045,"554 EAST J STREET","CHULA VISTA","CA",91910,32.63518056,-117.040392734,45,"554 EAST J STREET, CHULA VISTA, CA, 91910","Match","Exact","554 E J ST, CHULA VISTA, CA, 91910",195363666,"R"
245046,"554 EBENEZER LOOP","CHUCKEY","TN",37641,36.187739552,-82.685404149,46,"554 EBENEZER LOOP, CHUCKEY, TN, 37641","Match","Exact","554 EBENEZER LOOP, CHUCKEY, TN, 37641",611353716,"R"
245047,"554 ELTON ST","BROOKLYN","NY",11208,40.66928569,-73.882265064,47,"554 ELTON ST, BROOKLYN, NY, 11208","Match","Exact","554 ELTON ST, BROOKLYN, NY, 11208",59085215,"R"
245048,"554 HINCKLE AVENUE","EWING","NJ",8628,40.2638037900001,-74.819660664,48,"554 HINCKLE AVENUE, EWING, NJ, 8628","Match","Exact","554 HINCKLE AVE, EWING, NJ, 08628",60175754,"R"
245049,"554 HOPEWELL RD","MARLTON","NJ",8053,39.808552123,-74.8888168189999,49,"554 HOPEWELL RD, MARLTON, NJ, 8053","Match","Exact","554 HOPEWELL RD, MARLTON, NJ, 08053",647259921,"L"
245050,"554 KINGSBROOKE CROSSING","BOLINGBROOK","IL",60440,41.6848710460001,-88.088913374,50,"554 KINGSBROOKE CROSSING, BOLINGBROOK, IL, 60440","Match","Exact","554 KINGSBROOKE CROSSING, BOLINGBROOK, IL, 60440",111617545,"L"
245051,"554 LAFAYETTE AVE","PALMERTON","PA",18071,40.806447059,-75.6044216729999,51,"554 LAFAYETTE AVE, PALMERTON, PA, 18071","Match","Exact","554 LAFAYETTE AVE, PALMERTON, PA, 18071",80622174,"R"
245052,"554 MCKINLEY AVE","AKRON","OH",44311,41.056706993,-81.508751439,52,"554 MCKINLEY AVE, AKRON, OH, 44311","Match","Exact","554 MCKINLEY AVE, AKRON, OH, 44311",61352973,"R"
245053,"554 N EAST STREET","HANFORD","CA",93230,36.3307191480001,-119.637995302,53,"554 N EAST STREET, HANFORD, CA, 93230","Match","Exact","554 N EAST ST, HANFORD, CA, 93230",197988985,"L"
245054,"554 NW 53RD AVENUE","DELRAY BEACH","FL",33445,26.471506618,-80.121891476,54,"554 NW 53RD AVENUE, DELRAY BEACH, FL, 33445","Match","Exact","554 NW 53RD AVE, DELRAY BEACH, FL, 33445",115288598,"R"
245055,"554 PARKSIDE DR","AIKEN","SC",29803,33.4648117850001,-81.77348741,55,"554 PARKSIDE DR, AIKEN, SC, 29803","Match","Exact","554 PARKSIDE DR, AIKEN, SC, 29803",636494267,"R"
245056,"554 RIDGE DR","MEDINA","OH",44256,41.1473966780001,-81.855253229,56,"554 RIDGE DR, MEDINA, OH, 44256","Match","Exact","554 RIDGE DR, MEDINA, OH, 44256",58676179,"R"
245057,"554 RIVER ROAD","HOLLIS","ME",4042,43.6354490190001,-70.598480191,57,"554 RIVER ROAD, HOLLIS, ME, 4042","Match","Non_Exact","554 RIVER RD, HOLLIS CENTER, ME, 04042",92763184,"L"
245058,"554 ROSINGS DRIVE","SUMMERVILLE","SC",29486,33.055138486,-80.1382362689999,58,"554 ROSINGS DRIVE, SUMMERVILLE, SC, 29486","Match","Exact","554 ROSINGS DR, SUMMERVILLE, SC, 29486",638896364,"L"
245059,"554 S 48TH STREET","PHILADELPHIA","PA",19143,39.9500482920001,-75.218885939,59,"554 S 48TH STREET, PHILADELPHIA, PA, 19143","Match","Exact","554 S 48TH ST, PHILADELPHIA, PA, 19143",131399784,"R"
245060,"554 S OLD BELAIR RD","GROVETOWN","GA",30813,33.4829537040001,-82.144438029,60,"554 S OLD BELAIR RD, GROVETOWN, GA, 30813","Match","Exact","554 S OLD BELAIR RD, GROVETOWN, GA, 30813",55389491,"R"
245061,"554 S WHITNEY ST","ARANSAS PASS","TX",78336,27.902970935,-97.151594044,61,"554 S WHITNEY ST, ARANSAS PASS, TX, 78336","Match","Exact","554 S WHITNEY ST, ARANSAS PASS, TX, 78336",36326765,"R"
245062,"554 SALTERTON WAY","MARTINEZ","GA",30907,NA,NA,62,"554 SALTERTON WAY, MARTINEZ, GA, 30907","No_Match",NA,NA,NA,NA
245063,"554 SANDRA LN","ROCKFORD","IL",61107,42.2742049720001,-89.004741827,63,"554 SANDRA LN, ROCKFORD, IL, 61107","Match","Exact","554 SANDRA LN, ROCKFORD, IL, 61107",49262949,"L"
245064,"554 SE GOLF PARK BLVD","TOPEKA","KS",66605,39.0090572980001,-95.6707633349999,64,"554 SE GOLF PARK BLVD, TOPEKA, KS, 66605","Match","Exact","554 GOLF PARK BLVD, TOPEKA, KS, 66605",17892091,"L"
245065,"554 SPRING ROAD","LAURENS","SC",29360,34.5017188630001,-82.099373423,65,"554 SPRING ROAD, LAURENS, SC, 29360","Match","Exact","554 SPRING RD, LAURENS, SC, 29360",44439970,"R"
245066,"554 SUMMIT ROAD","APALACHIN","NY",13732,42.0698977590001,-76.198267492,66,"554 SUMMIT ROAD, APALACHIN, NY, 13732","Match","Exact","554 SUMMIT RD, APALACHIN, NY, 13732",46716433,"R"
245067,"554 VALLEY ROAD","MONTCLAIR","NJ",7043,40.8387879110001,-74.207617109,67,"554 VALLEY ROAD, MONTCLAIR, NJ, 7043","Match","Exact","554 VALLEY RD, MONTCLAIR, NJ, 07043",63448450,"L"
245068,"554 W MAIN ST","MANCHESTER","MI",48158,42.145895233,-84.048295646,68,"554 W MAIN ST, MANCHESTER, MI, 48158","Match","Exact","554 W MAIN ST, MANCHESTER, MI, 48158",26034512,"R"
245069,"554 WARREN AVENUE","KINGSTON","PA",18704,41.2645696450001,-75.88357216,69,"554 WARREN AVENUE, KINGSTON, PA, 18704","Match","Exact","554 WARREN AVE, KINGSTON, PA, 18704",80914038,"L"
245070,"554 WASHINGTON ST 240229","DORCHESTER","MA",2124,42.2922716470001,-71.07175839,70,"554 WASHINGTON ST 240229, DORCHESTER, MA, 2124","Match","Exact","554 WASHINGTON ST, DORCHESTER, MA, 02124",85702238,"L"
245071,"554 WILDCAT SHOALS RD","GASSVILLE","AR",72635,36.312642769,-92.4867213489999,71,"554 WILDCAT SHOALS RD, GASSVILLE, AR, 72635","Match","Exact","554 WILDCAT SHOALS RD, GASSVILLE, AR, 72635",610882999,"L"
245072,"554 WILSON AVE","PERRIS","CA",92571,33.7915619140001,-117.213042946,72,"554 WILSON AVE, PERRIS, CA, 92571","Match","Exact","554 WILSON AVE, PERRIS, CA, 92571",608998472,"L"
245073,"554","CALHOUN","LA",71225,NA,NA,73,"554, CALHOUN, LA, 71225","No_Match",NA,NA,NA,NA
245074,"5540 49TH ST","SACRAMENTO","CA",95820,38.5256776910001,-121.446668054,74,"5540 49TH ST, SACRAMENTO, CA, 95820","Match","Exact","5540 49TH ST, SACRAMENTO, CA, 95820",133327489,"R"
245075,"5540 CENTERVIEW DR STE 204","RALEIGH","NC",27606,35.7620190970001,-78.7314277959999,75,"5540 CENTERVIEW DR STE 204, RALEIGH, NC, 27606","Match","Exact","5540 CENTERVIEW DR, RALEIGH, NC, 27606",624196746,"L"
245076,"5540 E 4TH AVE","DENVER","CO",80220,39.7231709370001,-104.923425903,76,"5540 E 4TH AVE, DENVER, CO, 80220","Match","Exact","5540 E 4TH AVE, DENVER, CO, 80220",177339546,"R"
245077,"5540 FALMOUTH STREET SUITE 301","RICHMOND","VA",23230,37.60297954,-77.5077853,77,"5540 FALMOUTH STREET SUITE 301, RICHMOND, VA, 23230","Match","Exact","5540 FALMOUTH ST, RICHMOND, VA, 23230",106677091,"R"
245078,"5540 HAVERHILL ROAD NORTH APT 90","WEST PALM BEACH","FL",33407,26.7591840530001,-80.1168340949999,78,"5540 HAVERHILL ROAD NORTH APT 90, WEST PALM BEACH, FL, 33407","Match","Non_Exact","5540 HAVERHILL RD, WEST PALM BEACH, FL, 33407",630032438,"R"
245079,"5540 MAMMOTH AVE 9","SHERMAN OAKS","CA",91401,34.1710796950001,-118.432325197,79,"5540 MAMMOTH AVE 9, SHERMAN OAKS, CA, 91401","Match","Exact","5540 MAMMOTH AVE, SHERMAN OAKS, CA, 91401",141561812,"R"
245080,"5540 N 32ND STREET","MILWAUKEE","WI",53209,43.1181167410001,-87.952630853,80,"5540 N 32ND STREET, MILWAUKEE, WI, 53209","Match","Exact","5540 N 32ND ST, MILWAUKEE, WI, 53209",77735545,"R"
245081,"5540 N ACADEMY BLVD STE 120","COLORADO SPRINGS","CO",80918,38.907927445,-104.78425119,81,"5540 N ACADEMY BLVD STE 120, COLORADO SPRINGS, CO, 80918","Match","Non_Exact","5540 N ACADEMY BLVD, COLORADO SPRINGS, CO, 80918",105515318,"L"
245082,"5540 N MICHIGAN RD","INDIANAPOLIS","IN",46236,39.852861336,-86.194382796,82,"5540 N MICHIGAN RD, INDIANAPOLIS, IN, 46236","Match","Non_Exact","5540 MICHIGAN RD, INDIANAPOLIS, IN, 46228",108067957,"L"
245083,"5540 N MICHIGAN RD","INDIANAPOLIS","IN",46260,39.852861336,-86.194382796,83,"5540 N MICHIGAN RD, INDIANAPOLIS, IN, 46260","Match","Non_Exact","5540 MICHIGAN RD, INDIANAPOLIS, IN, 46228",108067957,"L"
245084,"5540 NORTH LAMAR","AUSTIN","TX",78756,NA,NA,84,"5540 NORTH LAMAR, AUSTIN, TX, 78756","No_Match",NA,NA,NA,NA
245085,"5540 OLD COLONY COURT","WHITE PLAINS","MD",20695,38.563380888,-76.916285736,85,"5540 OLD COLONY COURT, WHITE PLAINS, MD, 20695","Match","Exact","5540 OLD COLONY CT, WHITE PLAINS, MD, 20695",650930547,"R"
245086,"5540 PACKARD ST","LOS ANGELES","CA",90019,34.0515835620001,-118.357217716,86,"5540 PACKARD ST, LOS ANGELES, CA, 90019","Match","Exact","5540 PACKARD ST, LOS ANGELES, CA, 90019",141599260,"L"
245087,"5540 SOUTH LISBON STREET","CENTENNIAL","CO",80015,39.6162122360001,-104.745834422,87,"5540 SOUTH LISBON STREET, CENTENNIAL, CO, 80015","Match","Exact","5540 S LISBON ST, CENTENNIAL, CO, 80015",177539120,"R"
245088,"5541 BEVERLY PLACE","PITTSBURGH","PA",15206,40.476876143,-79.925542059,88,"5541 BEVERLY PLACE, PITTSBURGH, PA, 15206","Match","Exact","5541 BEVERLY PL, PITTSBURGH, PA, 15206",51644057,"L"
245089,"5541 BLOYD STREET","PHILADELPHIA","PA",19138,40.0444520560001,-75.161083301,89,"5541 BLOYD STREET, PHILADELPHIA, PA, 19138","Match","Exact","5541 BLOYD ST, PHILADELPHIA, PA, 19138",131395921,"R"
245090,"5541 BRAVO COURT","SALISBURY","MD",21804,38.3445668630001,-75.5420859449999,90,"5541 BRAVO COURT, SALISBURY, MD, 21804","Match","Exact","5541 BRAVO CT, SALISBURY, MD, 21804",114465613,"L"
245091,"5541 CLINTON AVE","MINNEAPOLIS","MN",55419,44.9022964110001,-93.2725397839999,91,"5541 CLINTON AVE, MINNEAPOLIS, MN, 55419","Match","Non_Exact","5541 CLINTON AVE S, MINNEAPOLIS, MN, 55419",43835936,"L"
245092,"5541 COUNTRY HILLS DRIVE","AURORA","IN",47001,39.0960084880001,-84.9216924899999,92,"5541 COUNTRY HILLS DRIVE, AURORA, IN, 47001","Match","Exact","5541 COUNTRY HILLS DR, AURORA, IN, 47001",76877545,"R"
245093,"5541 DE VORE COURT","AGOURA HILLS","CA",91301,34.1489741550001,-118.743493637,93,"5541 DE VORE COURT, AGOURA HILLS, CA, 91301","Match","Exact","5541 DE VORE CT, AGOURA HILLS, CA, 91301",141777110,"L"
245094,"5541 EAST GRANT ROAD","TUCSON","AZ",85712,32.250688187,-110.874249057,94,"5541 EAST GRANT ROAD, TUCSON, AZ, 85712","Match","Exact","5541 E GRANT RD, TUCSON, AZ, 85712",121179762,"L"
245095,"5541 KNOXBORO ROAD","MUNNSVILLE","NY",13409,42.9862024940001,-75.522355176,95,"5541 KNOXBORO ROAD, MUNNSVILLE, NY, 13409","Match","Exact","5541 KNOXBORO RD, MUNNSVILLE, NY, 13409",652645834,"L"
245096,"5541 SAKS RD","ANNISTON","AL",36206,33.720749491,-85.844137001,96,"5541 SAKS RD, ANNISTON, AL, 36206","Match","Exact","5541 SAKS RD, ANNISTON, AL, 36206",66539874,"R"
245097,"5541 SHALLOW RIVER ROAD","CLINTON","MD",20735,38.7840453370001,-76.911326279,97,"5541 SHALLOW RIVER ROAD, CLINTON, MD, 20735","Match","Exact","5541 SHALLOW RIVER RD, CLINTON, MD, 20735",76355201,"L"
245098,"5541 SHREWSBURY ROAD","LEITCHFIELD","KY",42754,37.400973836,-86.3690849659999,98,"5541 SHREWSBURY ROAD, LEITCHFIELD, KY, 42754","Match","Exact","5541 SHREWSBURY RD, LEITCHFIELD, KY, 42754",15776754,"R"
245099,"5541 W 22ND ST","ODESSA","TX",79763,31.847566181,-102.44034716,99,"5541 W 22ND ST, ODESSA, TX, 79763","Match","Exact","5541 W 22ND ST, ODESSA, TX, 79763",139437201,"L"
245100,"5541 W ROOSEVELT DR","MILWAUKEE","WI",53216,43.078670017,-87.981812702,100,"5541 W ROOSEVELT DR, MILWAUKEE, WI, 53216","Match","Exact","5541 W ROOSEVELT DR, MILWAUKEE, WI, 53216",77731753,"L"
245101,"55417 E 29TH PL","STRASBURG","CO",80136,39.7568542920001,-104.338234274,101,"55417 E 29TH PL, STRASBURG, CO, 80136","Match","Exact","55417 E 29TH PL, STRASBURG, CO, 80136",625402117,"R"
245102,"5542 BENTON STREET","LEHIGH ACRES","FL",33971,26.632973927,-81.747479396,102,"5542 BENTON STREET, LEHIGH ACRES, FL, 33971","Match","Exact","5542 BENTON ST, LEHIGH ACRES, FL, 33971",117983739,"L"
245103,"5542 CULVER STREET","INDIANAPOLIS","IN",46226,39.8300769690001,-86.0730258419999,103,"5542 CULVER STREET, INDIANAPOLIS, IN, 46226","Match","Exact","5542 CULVER ST, INDIANAPOLIS, IN, 46226",107999571,"L"
245104,"5542 FISHER PL","FERNDALE","WA",98248,48.843757209,-122.615456485,104,"5542 FISHER PL, FERNDALE, WA, 98248","Match","Exact","5542 FISHER PL, FERNDALE, WA, 98248",646044506,"R"
245105,"5542 HEIDI DR","ROCKFORD","IL",61109,42.2327967680001,-89.007684738,105,"5542 HEIDI DR, ROCKFORD, IL, 61109","Match","Non_Exact","5542 HEIDI LN, ROCKFORD, IL, 61109",49294055,"L"
245106,"5542 N PAULINA ST 2","CHICAGO","IL",60640,41.982806064,-87.672255843,106,"5542 N PAULINA ST 2, CHICAGO, IL, 60640","Match","Non_Exact","5542 N PAULINA ST, CHICAGO, IL, 60640",111761185,"L"
245107,"5542 NW JENNINGS RD","TOPEKA","KS",66618,39.146617496,-95.738113987,107,"5542 NW JENNINGS RD, TOPEKA, KS, 66618","Match","Exact","5542 NW JENNINGS RD, TOPEKA, KS, 66618",17920999,"R"
245108,"5542 ORTEGA PARK BLVD","JACKSONVILLE","FL",32244,30.220140642,-81.725931106,108,"5542 ORTEGA PARK BLVD, JACKSONVILLE, FL, 32244","Match","Exact","5542 ORTEGA PARK BLVD, JACKSONVILLE, FL, 32244",83962720,"R"
245109,"5542 PATSY CIRCLE WEST","MEMPHIS","TN",38125,34.9966045,-89.819496839,109,"5542 PATSY CIRCLE WEST, MEMPHIS, TN, 38125","Match","Exact","5542 PATSY CIR W, MEMPHIS, TN, 38125",72952958,"L"
245110,"5542 VEDDER ROAD","NEW HAEN","MO",63068,NA,NA,110,"5542 VEDDER ROAD, NEW HAEN, MO, 63068","No_Match",NA,NA,NA,NA
245111,"5543 BUFFALO AVE","SHERMAN OAKS","CA",91401,34.171110775,-118.430151631,111,"5543 BUFFALO AVE, SHERMAN OAKS, CA, 91401","Match","Exact","5543 BUFFALO AVE, SHERMAN OAKS, CA, 91401",141561819,"L"
245112,"5543 CORTEZ DRIVE","BATON ROUGE","LA",70811,30.5217774760001,-91.135112635,112,"5543 CORTEZ DRIVE, BATON ROUGE, LA, 70811","Match","Exact","5543 CORTEZ DR, BATON ROUGE, LA, 70811",92186465,"L"
245113,"5543 DYER ST","DALLAS","TX",75206,32.8431612640001,-96.7737354179999,113,"5543 DYER ST, DALLAS, TX, 75206","Match","Exact","5543 DYER ST, DALLAS, TX, 75206",102908126,"L"
245114,"5543 EDMONDSON PIKE STE 279","NASHVILLE","TN",37211,36.0412860180001,-86.743791135,114,"5543 EDMONDSON PIKE STE 279, NASHVILLE, TN, 37211","Match","Exact","5543 EDMONDSON PIKE, NASHVILLE, TN, 37211",606822627,"R"
245115,"5543 EDMONDSON PIKE SUITE 124","NASHVILLE","TN",37211,36.0412860180001,-86.743791135,115,"5543 EDMONDSON PIKE SUITE 124, NASHVILLE, TN, 37211","Match","Exact","5543 EDMONDSON PIKE, NASHVILLE, TN, 37211",606822627,"R"
245116,"5543 LARRY ST","ZEPHYRHILLS","FL",33542,28.2380447080001,-82.164416946,116,"5543 LARRY ST, ZEPHYRHILLS, FL, 33542","Match","Exact","5543 LARRY ST, ZEPHYRHILLS, FL, 33542",86374669,"R"
245117,"5543 NORTH GLENWOOD AVENUE","CHICAGO","IL",60640,41.9828282620001,-87.664923534,117,"5543 NORTH GLENWOOD AVENUE, CHICAGO, IL, 60640","Match","Exact","5543 N GLENWOOD AVE, CHICAGO, IL, 60640",111761412,"R"
245118,"5543 NW 55TH TER","COCONUT CREEK","FL",33073,26.29763296,-80.199479114,118,"5543 NW 55TH TER, COCONUT CREEK, FL, 33073","Match","Exact","5543 NW 55TH TER, COCONUT CREEK, FL, 33073",114787661,"L"
245119,"5543 PINE CIRCLE","CORAL SPRINGS","FL",33067,26.298067954,-80.2358314699999,119,"5543 PINE CIRCLE, CORAL SPRINGS, FL, 33067","Match","Exact","5543 PINE CIR, CORAL SPRINGS, FL, 33067",114773236,"R"
245120,"5543 SOUTH QUATAR STREET","CENTENNIAL","CO",80015,39.61577665,-104.734815757,120,"5543 SOUTH QUATAR STREET, CENTENNIAL, CO, 80015","Match","Exact","5543 S QUATAR ST, CENTENNIAL, CO, 80015",177524111,"R"
245121,"5543 VIRGINIA AVE","KANSAS CITY","MO",64110,39.026270181,-94.570345821,121,"5543 VIRGINIA AVE, KANSAS CITY, MO, 64110","Match","Exact","5543 VIRGINIA AVE, KANSAS CITY, MO, 64110",91448663,"L"
245122,"5543 WARNER VIEW LN","WESTERVILLE","OH",43081,40.093155677,-82.8503337069999,122,"5543 WARNER VIEW LN, WESTERVILLE, OH, 43081","Match","Exact","5543 WARNER VIEW LN, WESTERVILLE, OH, 43081",641137638,"R"
245123,"5543 WINCHESTER MEADOWS DRIVE","CANAL WINCHESTER","OH",43110,39.8693897750001,-82.811134678,123,"5543 WINCHESTER MEADOWS DRIVE, CANAL WINCHESTER, OH, 43110","Match","Exact","5543 WINCHESTER MEADOWS DR, CANAL WINCHESTER, OH, 43110",135779533,"L"
245124,"5544 BILOXI AVE","NORTH HOLLYWOOD","CA",91601,34.1710383880001,-118.358326766,124,"5544 BILOXI AVE, NORTH HOLLYWOOD, CA, 91601","Match","Exact","5544 BILOXI AVE, N HOLLYWOOD, CA, 91601",141591986,"R"
245125,"5544 EDWIN FOREST RD","MEMPHIS","TN",38141,34.997143792,-89.839742004,125,"5544 EDWIN FOREST RD, MEMPHIS, TN, 38141","Match","Exact","5544 EDWIN FOREST RD, MEMPHIS, TN, 38141",72953412,"L"
245126,"5544 FOREST DRIVE","LOGANVILLE","GA",30052,33.8626828640001,-83.87476997,126,"5544 FOREST DRIVE, LOGANVILLE, GA, 30052","Match","Exact","5544 FOREST DR, LOGANVILLE, GA, 30052",77621733,"R"
245127,"5544 MOBLEY CRT","PLANO","TX",75093,33.0378860500001,-96.811904322,127,"5544 MOBLEY CRT, PLANO, TX, 75093","Match","Exact","5544 MOBLEY CT, PLANO, TX, 75093",123531781,"L"
245128,"5544 MORINO WAY","AVE MARIA","FL",34142,NA,NA,128,"5544 MORINO WAY, AVE MARIA, FL, 34142","No_Match",NA,NA,NA,NA
245129,"5544 NORTHUMBERLAND ST","PITTSBURGH","PA",15217,40.4404482510001,-79.929253338,129,"5544 NORTHUMBERLAND ST, PITTSBURGH, PA, 15217","Match","Exact","5544 NORTHUMBERLAND ST, PITTSBURGH, PA, 15217",51650109,"R"
245130,"5544 S MORGAN ST","CHICAGO","IL",60621,41.7930167920001,-87.649991157,130,"5544 S MORGAN ST, CHICAGO, IL, 60621","Match","Exact","5544 S MORGAN ST, CHICAGO, IL, 60621",605565295,"R"
245131,"5544 STATE HWY 94","TEBBETTS","MO",65080,38.619049676,-91.9604163339999,131,"5544 STATE HWY 94, TEBBETTS, MO, 65080","Match","Exact","5544 STATE HWY 94, TEBBETTS, MO, 65080",34371216,"R"
245132,"5544 STATE ROAD","PARMA","OH",44134,41.4105845730001,-81.710445799,132,"5544 STATE ROAD, PARMA, OH, 44134","Match","Exact","5544 STATE RD, PARMA, OH, 44134",61116944,"R"
245133,"5544 WEST HWY 318","REDDICK","FL",32686,29.410435353,-82.214982585,133,"5544 WEST HWY 318, REDDICK, FL, 32686","Match","Exact","5544 W HWY 318, REDDICK, FL, 32686",647905897,"R"
245134,"5544 WILKINS AVENUE","PITTSBURGH","PA",15217,40.4445639680001,-79.928899534,134,"5544 WILKINS AVENUE, PITTSBURGH, PA, 15217","Match","Exact","5544 WILKINS AVE, PITTSBURGH, PA, 15217",51650055,"R"
245135,"5544 WILLIAMS DR","DONALSONVILLE","GA",39845,31.022581777,-84.8898707229999,135,"5544 WILLIAMS DR, DONALSONVILLE, GA, 39845","Match","Exact","5544 WILLIAMS DR, DONALSONVILLE, GA, 39845",87870871,"L"
245136,"5544 XAPARY WAY","DENVER","CO",80239,39.7963113500001,-104.828974072,136,"5544 XAPARY WAY, DENVER, CO, 80239","Match","Exact","5544 XAPARY WAY, DENVER, CO, 80239",177350049,"R"
245137,"5545 4TH AVE","PITTSVILLE","WI",54466,44.447657242,-90.125237565,137,"5545 4TH AVE, PITTSVILLE, WI, 54466","Match","Exact","5545 4TH AVE, PITTSVILLE, WI, 54466",624687511,"L"
245138,"5545 BELLE TERRE PKWY","PALM COAST","FL",32137,29.6008087720001,-81.262883055,138,"5545 BELLE TERRE PKWY, PALM COAST, FL, 32137","Match","Exact","5545 BELLE TERRE PKWY, PALM COAST, FL, 32137",94947749,"L"
245139,"5545 FAIRFIELD PIKE","ENON","OH",45323,39.8490155370001,-83.920889921,139,"5545 FAIRFIELD PIKE, ENON, OH, 45323","Match","Exact","5545 FAIRFIELD PIKE, ENON, OH, 45323",135014211,"L"
245140,"5545 GEORGIA AVE","KANSAS CITY","KS",66104,39.136110558,-94.707196977,140,"5545 GEORGIA AVE, KANSAS CITY, KS, 66104","Match","Exact","5545 GEORGIA AVE, KANSAS CITY, KS, 66104",91133882,"L"
245141,"5545 HEATHERTON DR","SOMIS","CA",93066,34.2863398870001,-118.998471943,141,"5545 HEATHERTON DR, SOMIS, CA, 93066","Match","Non_Exact","5545 N HEATHERTON DR, SOMIS, CA, 93066",109960422,"R"
245142,"5545 JACMAR CT","LAS VEGAS","NV",89120,36.089274044,-115.111833117,142,"5545 JACMAR CT, LAS VEGAS, NV, 89120","Match","Exact","5545 JACMAR CT, LAS VEGAS, NV, 89120",201873038,"R"
245143,"5545 LAWNSBERRY DRIVE","FORT WORTH","TX",76137,32.8808265050001,-97.2649348419999,143,"5545 LAWNSBERRY DRIVE, FORT WORTH, TX, 76137","Match","Exact","5545 LAWNSBERRY DR, FORT WORTH, TX, 76137",102105849,"L"
245144,"5545 NORTH ALTON AVE","INDIANAPOLIS","IN",46228,39.8510995500001,-86.2182348009999,144,"5545 NORTH ALTON AVE, INDIANAPOLIS, IN, 46228","Match","Non_Exact","5545 ALTON AVE, INDIANAPOLIS, IN, 46228",107982020,"R"
245145,"5545 NW LOOP410 SUT 103","SAN ANTONIO","TX",78238,29.484879597,-98.594710655,145,"5545 NW LOOP410 SUT 103, SAN ANTONIO, TX, 78238","Match","Non_Exact","5545 NW LOOP 410, SAN ANTONIO, TX, 78238",101717011,"R"
245146,"5545 OAKFERN TRL","FLOWERY BRANCH","GA",30542,34.1546251400001,-83.9172975829999,146,"5545 OAKFERN TRL, FLOWERY BRANCH, GA, 30542","Match","Exact","5545 OAKFERN TRL, FLOWERY BR, GA, 30542",98296691,"L"
245147,"5545 OCEAN 101","HAWTHORNE","CA",90250,33.9157551640001,-118.377542024,147,"5545 OCEAN 101, HAWTHORNE, CA, 90250","Match","Exact","5545 OCEAN, HAWTHORNE, CA, 90250",641502888,"L"
245148,"5545 PINECREST DRIVE","ZANESVILLE","OH",43701,39.974764732,-82.095427973,148,"5545 PINECREST DRIVE, ZANESVILLE, OH, 43701","Match","Exact","5545 PINECREST DR, ZANESVILLE, OH, 43701",45608974,"R"
245149,"5545 S 2200 WEST","TAYLORSVILLE","UT",84129,40.6503987900001,-111.94835201,149,"5545 S 2200 WEST, TAYLORSVILLE, UT, 84129","Match","Exact","5545 S 2200 W, TAYLORSVILLE, UT, 84129",176075742,"L"
245150,"5545 S ORANGE AVE","ORLANDO","FL",32809,28.478829368,-81.371565822,150,"5545 S ORANGE AVE, ORLANDO, FL, 32809","Match","Exact","5545 S ORANGE AVE, ORLANDO, FL, 32809",94284753,"L"
245151,"5545 SW 24TH AVE","FORT LAUDERDALE","FL",33312,26.05395143,-80.1723808799999,151,"5545 SW 24TH AVE, FORT LAUDERDALE, FL, 33312","Match","Exact","5545 SW 24TH AVE, FORT LAUDERDALE, FL, 33312",114728753,"R"
245152,"5545 WINDSONG OAK DRIVE","LEESBURG","FL",34748,28.725183987,-81.8607563849999,152,"5545 WINDSONG OAK DRIVE, LEESBURG, FL, 34748","Match","Exact","5545 WINDSONG OAK DR, LEESBURG, FL, 34748",638468490,"L"
245153,"5545 WOODRUFF AVE 432","LAKEWOOD","CA",90713,33.8569963350001,-118.117046833,153,"5545 WOODRUFF AVE 432, LAKEWOOD, CA, 90713","Match","Exact","5545 WOODRUFF AVE, LAKEWOOD, CA, 90713",241246788,"L"
245154,"5546 CAHUILLA AVE","TWENTY NINE PALMS","CA",92277,34.152482766,-116.0916823,154,"5546 CAHUILLA AVE, TWENTY NINE PALMS, CA, 92277","Match","Non_Exact","5546 CAHUILLA AVE, TWENTYNINE PALMS, CA, 92277",144624811,"L"
245155,"5546 CAMINO AL NORTE 2-333","NORTH LAS VEGAS","NV",89031,NA,NA,155,"5546 CAMINO AL NORTE 2-333, NORTH LAS VEGAS, NV, 89031","No_Match",NA,NA,NA,NA
245156,"5546 CAMINO AL NORTE SUITE 2-304","NORTH LAS VEGAS","NV",89031,NA,NA,156,"5546 CAMINO AL NORTE SUITE 2-304, NORTH LAS VEGAS, NV, 89031","No_Match",NA,NA,NA,NA
245157,"5546 REMINGTON VILLAS COURT","SAINT LOUIS","MO",63005,38.471249701,-90.3007741769999,157,"5546 REMINGTON VILLAS COURT, SAINT LOUIS, MO, 63005","Match","Non_Exact","5546 REMINGTON VILLAS CT, SAINT LOUIS, MO, 63129",100190373,"R"
245158,"5546 SAPPHIRE LOOP","ANCHORAGE","AK",99504,61.200435532,-149.775904844,158,"5546 SAPPHIRE LOOP, ANCHORAGE, AK, 99504","Match","Exact","5546 SAPPHIRE LOOP, ANCHORAGE, AK, 99504",605182141,"R"
245159,"5546 US 220 SOUTH","MOOREFIELD","WV",26836,NA,NA,159,"5546 US 220 SOUTH, MOOREFIELD, WV, 26836","No_Match",NA,NA,NA,NA
245160,"5547 BRAZORIA DR","GRAND PRAIRIE","TX",75052,32.641261962,-97.046354241,160,"5547 BRAZORIA DR, GRAND PRAIRIE, TX, 75052","Match","Exact","5547 BRAZORIA DR, GRAND PRAIRIE, TX, 75052",102187685,"L"
245161,"5547 HAMPTON WAY","STANSBURY PARK","UT",84074,40.629588622,-112.293848925,161,"5547 HAMPTON WAY, STANSBURY PARK, UT, 84074","Match","Exact","5547 HAMPTON WAY, STANSBURY PARK, UT, 84074",607228909,"L"
245162,"5547 N MILITARY TRAIL UNIT 2412","BOCA RATON","FL",33496,26.3966026520001,-80.121544909,162,"5547 N MILITARY TRAIL UNIT 2412, BOCA RATON, FL, 33496","Match","Non_Exact","5547 N MILITARY TRL, BOCA RATON, FL, 33496",115292866,"L"
245163,"5548 BASS PLACE SE","WASHINGTON","DC",20019,38.884819952,-76.921819786,163,"5548 BASS PLACE SE, WASHINGTON, DC, 20019","Match","Exact","5548 BASS PL SE, WASHINGTON, DC, 20019",76234259,"L"
245164,"5548 CREEK PINE DRIVE","WAKE FOREST","NC",27587,35.943487883,-78.4294877949999,164,"5548 CREEK PINE DRIVE, WAKE FOREST, NC, 27587","Match","Exact","5548 CREEK PINE DR, WAKE FOREST, NC, 27587",612816726,"R"
245165,"5548 DOLORES AVE","BALTIMORE","MD",21227,39.2456313690001,-76.702368155,165,"5548 DOLORES AVE, BALTIMORE, MD, 21227","Match","Exact","5548 DOLORES AVE, BALTIMORE, MD, 21227",191485439,"R"
245166,"5548 HALSEY TRACE SW","ATLANTA","GA",30349,33.6624294600001,-84.567139363,166,"5548 HALSEY TRACE SW, ATLANTA, GA, 30349","Match","Non_Exact","5548 HALSEY TRCE, ATLANTA, GA, 30349",628078437,"R"
245167,"5548 HALWIS ST","ALEXANDRIA","VA",22303,38.800794092,-77.101584056,167,"5548 HALWIS ST, ALEXANDRIA, VA, 22303","Match","Exact","5548 HALWIS ST, ALEXANDRIA, VA, 22303",76058429,"R"
245168,"5548 HIGHWAY 392W","HARRISON","AR",72601,NA,NA,168,"5548 HIGHWAY 392W, HARRISON, AR, 72601","No_Match",NA,NA,NA,NA
245169,"5548 MABLE AVE UNIT A4","SAINT LOUIS","MO",63140,38.733373978,-90.319319905,169,"5548 MABLE AVE UNIT A4, SAINT LOUIS, MO, 63140","Match","Exact","5548 MABLE AVE, SAINT LOUIS, MO, 63140",649642364,"R"
245170,"5548 NOVARA PLACE","SARASOTA","FL",34238,27.240604085,-82.459477917,170,"5548 NOVARA PLACE, SARASOTA, FL, 34238","Match","Exact","5548 NOVARA PL, SARASOTA, FL, 34238",631952597,"R"
245171,"5548 PINE STREET","SEFFNER","FL",33584,27.999612799,-82.294192982,171,"5548 PINE STREET, SEFFNER, FL, 33584","Match","Exact","5548 PINE ST, SEFFNER, FL, 33584",104589167,"R"
245172,"5548 SIERRA VISTA","LOS ANGELES","CA",90038,34.089542054,-118.312444181,172,"5548 SIERRA VISTA, LOS ANGELES, CA, 90038","Match","Non_Exact","5548 SIERRA VISTA AVE, LOS ANGELES, CA, 90038",141602947,"L"
245173,"5548 SPAHN AVE","LAKEWOOD","CA",90713,33.8573556700001,-118.114204008,173,"5548 SPAHN AVE, LAKEWOOD, CA, 90713","Match","Exact","5548 SPAHN AVE, LAKEWOOD, CA, 90713",141743093,"R"
245174,"5548 SPANGLER LANE","WOODBRIDGE","VA",22193,38.6383450280001,-77.373553155,174,"5548 SPANGLER LANE, WOODBRIDGE, VA, 22193","Match","Exact","5548 SPANGLER LN, WOODBRIDGE, VA, 22193",76508168,"L"
245175,"5548 TROUSDALE DR","BRENTWOOD","TN",37027,36.044963737,-86.760134589,175,"5548 TROUSDALE DR, BRENTWOOD, TN, 37027","Match","Exact","5548 TROUSDALE DR, BRENTWOOD, TN, 37027",97205878,"R"
245176,"5548 TULLIS DR","NEW ORLEANS","LA",70131,29.9016172340001,-89.996050791,176,"5548 TULLIS DR, NEW ORLEANS, LA, 70131","Match","Exact","5548 TULLIS DR, NEW ORLEANS, LA, 70131",191723709,"L"
245177,"5548 WEST HEATHROW CIRCLE","KEARNS","UT",84118,40.6639344800001,-112.02302023,177,"5548 WEST HEATHROW CIRCLE, KEARNS, UT, 84118","Match","Exact","5548 W HEATHROW CIR, KEARNS, UT, 84118",176069472,"R"
245178,"5549 BEECHWOOD AVENUE","MAPLE HEIGHTS","OH",44137,41.4109200130001,-81.55013143,178,"5549 BEECHWOOD AVENUE, MAPLE HEIGHTS, OH, 44137","Match","Exact","5549 BEECHWOOD AVE, MAPLE HEIGHTS, OH, 44137",61129868,"L"
245179,"5549 BIGGER RD","KETTERING","OH",45440,39.6619661440001,-84.126697259,179,"5549 BIGGER RD, KETTERING, OH, 45440","Match","Exact","5549 BIGGER RD, KETTERING, OH, 45440",143584323,"R"
245180,"5549 CEDAR BREAK DR","CENTREVILLE","VA",20120,38.854225021,-77.4396978,180,"5549 CEDAR BREAK DR, CENTREVILLE, VA, 20120","Match","Exact","5549 CEDAR BREAK DR, CENTREVILLE, VA, 20120",76061760,"L"
245181,"5549 CREEK INDIAN DRIVE","SUGAR HILL","GA",30518,NA,NA,181,"5549 CREEK INDIAN DRIVE, SUGAR HILL, GA, 30518","No_Match",NA,NA,NA,NA
245182,"5549 ROCKHAMPTON PATH","CLAY","NY",13041,43.170963912,-76.140496548,182,"5549 ROCKHAMPTON PATH, CLAY, NY, 13041","Match","Exact","5549 ROCKHAMPTON PATH, CLAY, NY, 13041",624555170,"R"
245183,"5549 ROSWELL ROAD","SANDY SPRINGS","GA",30342,33.906402154,-84.3786489829999,183,"5549 ROSWELL ROAD, SANDY SPRINGS, GA, 30342","Match","Exact","5549 ROSWELL RD, SANDY SPRINGS, GA, 30342",650096574,"R"
245184,"5549 SPICEBUSH DRIVE","INDIANAPOLIS","IN",46254,39.8509048110001,-86.291009357,184,"5549 SPICEBUSH DRIVE, INDIANAPOLIS, IN, 46254","Match","Non_Exact","5549 SPICE BUSH DR, INDIANAPOLIS, IN, 46254",108034763,"R"
245185,"5549 W CHERRY COURT","HART","MI",49420,43.6916981090001,-86.417330595,185,"5549 W CHERRY COURT, HART, MI, 49420","Match","Exact","5549 W CHERRY CT, HART, MI, 49420",636032460,"L"
245186,"555 12TH STREET SUITE 1670","OAKLAND","CA",94607,37.8041422630001,-122.275131783,186,"555 12TH STREET SUITE 1670, OAKLAND, CA, 94607","Match","Exact","555 12TH ST, OAKLAND, CA, 94607",124997016,"L"
245187,"555 37TH STREET","RICHMOND","CA",94802,37.9373496000001,-122.333431701,187,"555 37TH STREET, RICHMOND, CA, 94802","Match","Non_Exact","555 37TH ST, RICHMOND, CA, 94805",192041177,"L"
245188,"555 4TH STREET UNIT  717","SAN FRANCISCO","CA",94107,37.778939248,-122.397281959,188,"555 4TH STREET UNIT  717, SAN FRANCISCO, CA, 94107","Match","Exact","555 4TH ST, SAN FRANCISCO, CA, 94107",192287931,"L"
245189,"555 5TH STREET SUITE 101G","SANTA ROSA","CA",95401,38.440777112,-122.71524342,189,"555 5TH STREET SUITE 101G, SANTA ROSA, CA, 95401","Match","Non_Exact","555 5TH ST, SANTA ROSA, CA, 95404",67469915,"L"
245190,"555 8TH AVE SUITE 1902","NEW YORK","NY",10018,40.7544732040001,-73.991809792,190,"555 8TH AVE SUITE 1902, NEW YORK, NY, 10018","Match","Exact","555 8TH AVE, NEW YORK, NY, 10018",59658585,"L"
245191,"555 AEROVIEW RD","YAKIMA","WA",98908,46.6046491450001,-120.667196657,191,"555 AEROVIEW RD, YAKIMA, WA, 98908","Match","Non_Exact","555 AEROVIEW, YAKIMA, WA, 98908",184963457,"R"
245192,"555 ANNEX AVE","NASHVILLE","TN",37209,36.157874308,-86.878908358,192,"555 ANNEX AVE, NASHVILLE, TN, 37209","Match","Exact","555 ANNEX AVE, NASHVILLE, TN, 37209",97178551,"L"
245193,"555 ANTON BLVD 230 STE","COSTA MESA","CA",92626,33.6900968520001,-117.882603563,193,"555 ANTON BLVD 230 STE, COSTA MESA, CA, 92626","Match","Exact","555 ANTON BLVD, COSTA MESA, CA, 92626",144044167,"R"
245194,"555 AUGUSTA DRIVE SE","CEDAR RAPIDS","IA",52403,42.0064169720001,-91.6245574009999,194,"555 AUGUSTA DRIVE SE, CEDAR RAPIDS, IA, 52403","Match","Exact","555 AUGUSTA DR SE, CEDAR RAPIDS, IA, 52403",17037018,"R"
245195,"555 AVENUE G","BOULDER CITY","NV",89005,35.9775784,-114.83223193,195,"555 AVENUE G, BOULDER CITY, NV, 89005","Match","Exact","555 AVE G, BOULDER CITY, NV, 89005",201830880,"R"
245196,"555 BAKERVILLE ROAD","DARTMOUTH","MA",2748,41.591429539,-70.980023106,196,"555 BAKERVILLE ROAD, DARTMOUTH, MA, 2748","Match","Exact","555 BAKERVILLE RD, DARTMOUTH, MA, 02748",647343616,"L"
245197,"555 BARRINGTON","GROSSE POINTE PARK","MI",48230,42.36351161,-82.930571207,197,"555 BARRINGTON, GROSSE POINTE PARK, MI, 48230","Match","Exact","555 BARRINGTON, GROSSE POINTE PARK, MI, 48230",95716202,"L"
245198,"555 BELDEN HILL ROAD","WILTON","CT",6897,41.1594638540001,-73.4322602939999,198,"555 BELDEN HILL ROAD, WILTON, CT, 6897","Match","Exact","555 BELDEN HILL RD, WILTON, CT, 06897",3259756,"R"
245199,"555 BERNARD ST","COSTA MESA","CA",92627,33.6455112290001,-117.920932669,199,"555 BERNARD ST, COSTA MESA, CA, 92627","Match","Exact","555 BERNARD ST, COSTA MESA, CA, 92627",650847375,"L"
245200,"555 BIG BEN LN","COLUMBUS","OH",43213,39.968785412,-82.831231649,200,"555 BIG BEN LN, COLUMBUS, OH, 43213","Match","Exact","555 BIG BEN LN, COLUMBUS, OH, 43213",218649952,"R"
245201,"555 BLACKBIRD ROOST NUMBER 5","FLAGSTAFF","AZ",86001,35.1955328330001,-111.66071453,201,"555 BLACKBIRD ROOST NUMBER 5, FLAGSTAFF, AZ, 86001","Match","Non_Exact","555 S BLACKBIRD ROOST, FLAGSTAFF, AZ, 86001",189063228,"L"
245202,"555 BOLIN TERRACE","UPPER MARLBORO","MD",20774,38.8849512520001,-76.752400451,202,"555 BOLIN TERRACE, UPPER MARLBORO, MD, 20774","Match","Exact","555 BOLIN TER, UPPER MARLBORO, MD, 20774",624834326,"L"
245203,"555 BRACKETT TOWN RD","NEBO","NC",28761,35.5663237810001,-81.9264147969999,203,"555 BRACKETT TOWN RD, NEBO, NC, 28761","Match","Exact","555 BRACKETT TOWN RD, NEBO, NC, 28761",35891486,"R"
245204,"555 BRIGHTON COVE","FREEPORT","FL",32439,30.496919393,-86.171496734,204,"555 BRIGHTON COVE, FREEPORT, FL, 32439","Match","Exact","555 BRIGHTON CV, FREEPORT, FL, 32439",650793865,"L"
245205,"555 BROAD STREET","CENTRAL FALLS","RI",2863,41.8871461950001,-71.387174739,205,"555 BROAD STREET, CENTRAL FALLS, RI, 2863","Match","Exact","555 BROAD ST, CENTRAL FALLS, RI, 02863",47455655,"R"
245206,"555 BRYANT ST NUM 413","PALO ALTO","CA",94301,37.44537223,-122.160746186,206,"555 BRYANT ST NUM 413, PALO ALTO, CA, 94301","Match","Exact","555 BRYANT ST, PALO ALTO, CA, 94301",640731874,"L"
245207,"555 BRYANT ST NUM 483","PALO ALTO","CA",94301,37.44537223,-122.160746186,207,"555 BRYANT ST NUM 483, PALO ALTO, CA, 94301","Match","Exact","555 BRYANT ST, PALO ALTO, CA, 94301",640731874,"L"
245208,"555 BRYANT STREET  UNIT 181","PALO ALTO","CA",94301,37.44537223,-122.160746186,208,"555 BRYANT STREET  UNIT 181, PALO ALTO, CA, 94301","Match","Exact","555 BRYANT ST, PALO ALTO, CA, 94301",640731874,"L"
245209,"555 BRYANT STREET 290","PALO ALTO","CA",94301,37.44537223,-122.160746186,209,"555 BRYANT STREET 290, PALO ALTO, CA, 94301","Match","Exact","555 BRYANT ST, PALO ALTO, CA, 94301",640731874,"L"
245210,"555 BURBANK ST STE M","BROOMFIELD","CO",80020,39.9257881080001,-105.095371767,210,"555 BURBANK ST STE M, BROOMFIELD, CO, 80020","Match","Exact","555 BURBANK ST, BROOMFIELD, CO, 80020",210039873,"L"
245211,"555 CAPITOL MALL SUITE 1425","SACRAMENTO","CA",95814,38.5785638290001,-121.500804812,211,"555 CAPITOL MALL SUITE 1425, SACRAMENTO, CA, 95814","Match","Exact","555 CAPITOL MALL, SACRAMENTO, CA, 95814",133321855,"L"
245212,"555 CASSADAGA ROAD","LAKE HELEN","FL",32744,28.966482507,-81.238810958,212,"555 CASSADAGA ROAD, LAKE HELEN, FL, 32744","Match","Exact","555 CASSADAGA RD, LAKE HELEN, FL, 32744",640814290,"L"
245213,"555 CENTRAL PARK AVENUE UNIT 230","SCARSDALE","NY",10583,NA,NA,213,"555 CENTRAL PARK AVENUE UNIT 230, SCARSDALE, NY, 10583","No_Match",NA,NA,NA,NA
245214,"555 CHAUCER LN","CARROLLTON","GA",30117,33.5736109050001,-85.055230675,214,"555 CHAUCER LN, CARROLLTON, GA, 30117","Match","Exact","555 CHAUCER LN, CARROLLTON, GA, 30117",612750198,"R"
245215,"555 CITY PARK AVE","COLUMBUS","OH",43065,39.950887881,-82.996681434,215,"555 CITY PARK AVE, COLUMBUS, OH, 43065","Match","Non_Exact","555 CITY PARK AVE, COLUMBUS, OH, 43215",135576817,"R"
245216,"555 CLARK RD","JASPER","AL",35503,33.8826156530001,-87.3496068219999,216,"555 CLARK RD, JASPER, AL, 35503","Match","Exact","555 CLARK RD, JASPER, AL, 35503",120542356,"R"
245217,"555 COLLEGE AVE","LEMOORE","CA",93230,36.2944055790001,-119.821579534,217,"555 COLLEGE AVE, LEMOORE, CA, 93230","Match","Non_Exact","555 COLLEGE AVE, LEMOORE, CA, 93245",197991386,"L"
245218,"555 COLONIAL AVENUE","WOODBURY","NJ",8096,39.8596266370001,-75.14370676,218,"555 COLONIAL AVENUE, WOODBURY, NJ, 8096","Match","Exact","555 COLONIAL AVE, WOODBURY, NJ, 08096",134583043,"L"
245219,"555 CORPORATE DRIVE SUITE 215","LADERA RANCH","CA",92694,NA,NA,219,"555 CORPORATE DRIVE SUITE 215, LADERA RANCH, CA, 92694","No_Match",NA,NA,NA,NA
245220,"555 COTTON CREEK LANE","WINDER","GA",30680,33.973094727,-83.7501668099999,220,"555 COTTON CREEK LANE, WINDER, GA, 30680","Match","Exact","555 COTTON CREEK LN, WINDER, GA, 30680",634088241,"L"
245221,"555 COUNTY RD","LOUISVILLE","CO",80027,39.97533458,-105.130583781,221,"555 COUNTY RD, LOUISVILLE, CO, 80027","Match","Exact","555 COUNTY RD, LOUISVILLE, CO, 80027",188166414,"L"
245222,"555 CUSTER AVE","HELENA","MT",59602,46.616463041,-112.033827076,222,"555 CUSTER AVE, HELENA, MT, 59602","Match","Non_Exact","555 W CUSTER AVE, HELENA, MT, 59602",647471171,"R"
245223,"555 DAVIS ROAD","ALBERTVILLE","AL",35951,34.2910985510001,-86.153223764,223,"555 DAVIS ROAD, ALBERTVILLE, AL, 35951","Match","Exact","555 DAVIS RD, ALBERTVILLE, AL, 35951",651708449,"R"
245224,"555 DOVE CREEK PLACE","GRAPEVINE","TX",76051,32.946052487,-97.094554735,224,"555 DOVE CREEK PLACE, GRAPEVINE, TX, 76051","Match","Exact","555 DOVE CREEK PL, GRAPEVINE, TX, 76051",640623279,"L"
245225,"555 DUNDEE RD","NORTHBROOK","IL",60062,42.137933348,-87.793181491,225,"555 DUNDEE RD, NORTHBROOK, IL, 60062","Match","Exact","555 DUNDEE RD, NORTHBROOK, IL, 60062",605022225,"L"
245226,"555 E 33RD PLACE APT 803","CHICAGO","IL",60616,41.8336786940001,-87.612278353,226,"555 E 33RD PLACE APT 803, CHICAGO, IL, 60616","Match","Non_Exact","555 E 33RD PL, CHICAGO, IL, 60616",611230443,"R"
245227,"555 E 5TH STREET APT 3007","AUSTIN","TX",78701,NA,NA,227,"555 E 5TH STREET APT 3007, AUSTIN, TX, 78701","Tie",NA,NA,NA,NA
245228,"555 E CHANNEL VIEW PL","ORO VALLEY","AZ",85737,32.403344685,-110.963100106,228,"555 E CHANNEL VIEW PL, ORO VALLEY, AZ, 85737","Match","Exact","555 E CHANNEL VIEW PL, ORO VALLEY, AZ, 85737",617655933,"L"
245229,"555 E MAIN ST","MARENGO","IA",52301,41.8006670730001,-92.0633576819999,229,"555 E MAIN ST, MARENGO, IA, 52301","Match","Exact","555 E MAIN ST, MARENGO, IA, 52301",84397288,"R"
245230,"555 E MAPLE AVE","WOODBRIDGE","NJ",7095,40.559965952,-74.282155285,230,"555 E MAPLE AVE, WOODBRIDGE, NJ, 7095","Match","Exact","555 E MAPLE AVE, WOODBRIDGE, NJ, 07095",60275339,"L"
245231,"555 E OCEAN BLVD SUITE 630","LONG BEACH","CA",90802,NA,NA,231,"555 E OCEAN BLVD SUITE 630, LONG BEACH, CA, 90802","Tie",NA,NA,NA,NA
245232,"555 E PACIFIC COAST HWY 211","LONG BEACH","CA",90806,NA,NA,232,"555 E PACIFIC COAST HWY 211, LONG BEACH, CA, 90806","Tie",NA,NA,NA,NA
245233,"555 E PIKES PEAK AVE SUITE 120","COLORADO SPRINGS","CO",80903,38.833441351,-104.813901774,233,"555 E PIKES PEAK AVE SUITE 120, COLORADO SPRINGS, CO, 80903","Match","Non_Exact","555 E PIKES PEAK AVE, COLORADO SPRINGS, CO, 80903",639687571,"R"
245234,"555 E SILVERADO RANCH BLVD 2146","LAS VEGAS","NV",89183,36.013237001,-115.150854325,234,"555 E SILVERADO RANCH BLVD 2146, LAS VEGAS, NV, 89183","Match","Exact","555 SILVERADO RANCH BLVD, LAS VEGAS, NV, 89183",652655697,"R"
245235,"555 E THIRD STREET","GROVE","OK",74344,36.594661059,-94.759289718,235,"555 E THIRD STREET, GROVE, OK, 74344","Match","Exact","555 E 3RD ST, GROVE, OK, 74344",647794491,"L"
245236,"555 E WEBER AVE","STOCKTON","CA",95202,37.954748341,-121.284144516,236,"555 E WEBER AVE, STOCKTON, CA, 95202","Match","Exact","555 WEBER AVE, STOCKTON, CA, 95202",133850522,"L"
245237,"555 EAGLE RIDGE RD","MC GREGOR","TX",76657,31.4898286100001,-97.375278623,237,"555 EAGLE RIDGE RD, MC GREGOR, TX, 76657","Match","Exact","555 EAGLE RIDGE RD, MC GREGOR, TX, 76657",146740443,"L"
245238,"555 EAST 100 SOUTH","NEPHI","UT",84648,39.7070960360001,-111.825618333,238,"555 EAST 100 SOUTH, NEPHI, UT, 84648","Match","Exact","555 E 100 S, NEPHI, UT, 84648",188081449,"R"
245239,"555 EAST 200 SOUTH","SALT LAKE CITY","UT",84102,40.7650120860001,-111.875226187,239,"555 EAST 200 SOUTH, SALT LAKE CITY, UT, 84102","Match","Exact","555 E 200 S, SALT LAKE CITY, UT, 84102",637521985,"L"
245240,"555 EAST 33RD PLACE","CHICAGO","IL",60616,41.8336786360001,-87.6122819829999,240,"555 EAST 33RD PLACE, CHICAGO, IL, 60616","Match","Exact","555 E 33RD PL, CHICAGO, IL, 60616",611230443,"R"
245241,"555 EAST LIBERTY ST UNIT 306","NORFOLK","VA",23523,36.8289845460001,-76.280606042,241,"555 EAST LIBERTY ST UNIT 306, NORFOLK, VA, 23523","Match","Exact","555 E LIBERTY ST, NORFOLK, VA, 23523",122142802,"R"
245242,"555 EAST WILLIAM SUITE 24-I","ANN ARBOR","MI",48104,42.277864187,-83.7425391799999,242,"555 EAST WILLIAM SUITE 24-I, ANN ARBOR, MI, 48104","Match","Non_Exact","555 E WILLIAM ST, ANN ARBOR, MI, 48104",26014747,"L"
245243,"555 EASTERN PARKWAY APT 4C","BROOKLYN","NY",11216,40.670039871,-73.949778045,243,"555 EASTERN PARKWAY APT 4C, BROOKLYN, NY, 11216","Match","Exact","555 EASTERN PKWY, BROOKLYN, NY, 11216",640852969,"R"
245244,"555 ELDORADO BLVD SUITE 200","BROOMFIELD","CO",80021,39.9229142820001,-105.129439059,244,"555 ELDORADO BLVD SUITE 200, BROOMFIELD, CO, 80021","Match","Exact","555 ELDORADO BLVD, BROOMFIELD, CO, 80021",210036361,"R"
245245,"555 ELIZABETH AVE  APT 24 F","NEWARK","NJ",7112,40.7074013110001,-74.2025088939999,245,"555 ELIZABETH AVE  APT 24 F, NEWARK, NJ, 7112","Match","Exact","555 ELIZABETH AVE, NEWARK, NJ, 07112",63466301,"R"
245246,"555 EMPIRE STREET-PO BOX 63","HAYTI HEIGHTS","MO",63851,36.228498931,-89.7662131709999,246,"555 EMPIRE STREET-PO BOX 63, HAYTI HEIGHTS, MO, 63851","Match","Non_Exact","555 EMPIRE ST, HAYTI HEIGHTS, MO, 63851",38897767,"R"
245247,"555 EXETER AVENUE     SUITE 110","WEST PITTSTON","PA",18643,41.333984474,-75.7995967049999,247,"555 EXETER AVENUE     SUITE 110, WEST PITTSTON, PA, 18643","Match","Exact","555 EXETER AVE, WEST PITTSTON, PA, 18643",80917556,"L"
245248,"555 FAYE TTEVILLE ST STE 201","RALEIGH","NC",27601,NA,NA,248,"555 FAYE TTEVILLE ST STE 201, RALEIGH, NC, 27601","No_Match",NA,NA,NA,NA
245249,"555 FAYETTEVILLE STREET","RALEIGH","NC",27601,35.774405195,-78.639403482,249,"555 FAYETTEVILLE STREET, RALEIGH, NC, 27601","Match","Non_Exact","555 FAYETTEVILLE STREET MALL, RALEIGH, NC, 27601",612818106,"L"
245250,"555 FIFTH STREET 300O","SANTA ROSA","CA",95401,38.440777112,-122.71524342,250,"555 FIFTH STREET 300O, SANTA ROSA, CA, 95401","Match","Non_Exact","555 5TH ST, SANTA ROSA, CA, 95404",67469915,"L"
245251,"555 FLUSHING AVE APT 6L","BROOKLYN","NY",11206,40.699481758,-73.952717804,251,"555 FLUSHING AVE APT 6L, BROOKLYN, NY, 11206","Match","Exact","555 FLUSHING AVE, BROOKLYN, NY, 11206",650071933,"L"
245252,"555 FM 82 WEST","KIRBYVILLE","TX",75956,30.6419963590001,-93.9054919879999,252,"555 FM 82 WEST, KIRBYVILLE, TX, 75956","Match","Non_Exact","555 FM 82, KIRBYVILLE, TX, 75956",632911128,"L"
245253,"555 FRONT ST UNIT 1403","SAN DIEGO","CA",92101,32.710984576,-117.164670511,253,"555 FRONT ST UNIT 1403, SAN DIEGO, CA, 92101","Match","Exact","555 FRONT ST, SAN DIEGO, CA, 92101",195344415,"R"
245254,"555 FRONT STREET UNIT 1802","SAN DIEGO","CA",92101,32.710984576,-117.164670511,254,"555 FRONT STREET UNIT 1802, SAN DIEGO, CA, 92101","Match","Exact","555 FRONT ST, SAN DIEGO, CA, 92101",195344415,"R"
245255,"555 GLENRIDGE CONNECTOR STE 200","ATLANTA","GA",30342,NA,NA,255,"555 GLENRIDGE CONNECTOR STE 200, ATLANTA, GA, 30342","No_Match",NA,NA,NA,NA
245256,"555 GRAND AVENUE UNIT 7242","EWING","NJ",8628,40.2644451250001,-74.8184095509999,256,"555 GRAND AVENUE UNIT 7242, EWING, NJ, 8628","Match","Exact","555 GRAND AVE, EWING, NJ, 08628",60175745,"L"
245257,"555 GREAT CIRCLE ROAD","NASHVILLE","TN",37228,NA,NA,257,"555 GREAT CIRCLE ROAD, NASHVILLE, TN, 37228","No_Match",NA,NA,NA,NA
245258,"555 GRUBER ROAD","HARLEYSVILLE","PA",19438,40.285417065,-75.385757675,258,"555 GRUBER ROAD, HARLEYSVILLE, PA, 19438","Match","Exact","555 GRUBER RD, HARLEYSVILLE, PA, 19438",652073572,"L"
245259,"555 HARTSVILLE PIKE","GALLATIN","TN",37066,36.39110693,-86.434209069,259,"555 HARTSVILLE PIKE, GALLATIN, TN, 37066","Match","Exact","555 HARTSVILLE PIKE, GALLATIN, TN, 37066",645574646,"R"
245260,"555 HEATHERWOODE CIR","SPRINGBORO","OH",45066,39.531671186,-84.227945848,260,"555 HEATHERWOODE CIR, SPRINGBORO, OH, 45066","Match","Exact","555 HEATHERWOODE CIR, SPRINGBORO, OH, 45066",636554530,"R"
245261,"555 HERNDON STREET","SHREVEPORT","LA",71101,32.4963120990001,-93.741253431,261,"555 HERNDON STREET, SHREVEPORT, LA, 71101","Match","Exact","555 HERNDON ST, SHREVEPORT, LA, 71101",57437613,"L"
245262,"555 HIGH STREET STE 9 1059","MOUNT HOLLY","NJ",8060,40.006247396,-74.795821743,262,"555 HIGH STREET STE 9 1059, MOUNT HOLLY, NJ, 8060","Match","Exact","555 HIGH ST, MOUNT HOLLY, NJ, 08060",647261175,"R"
245263,"555 HUIZENGA AVE","ZEELAND","MI",49464,42.8063309820001,-86.0348973759999,263,"555 HUIZENGA AVE, ZEELAND, MI, 49464","Match","Exact","555 HUIZENGA AVE, ZEELAND, MI, 49464",646225962,"R"
245264,"555 INNES AVE UNIT 206","SAN FRANCISCO","MD",94124,NA,NA,264,"555 INNES AVE UNIT 206, SAN FRANCISCO, MD, 94124","No_Match",NA,NA,NA,NA
245265,"555 JOPPA FARM RD","JOPPA","MD",21085,39.411871455,-76.352268722,265,"555 JOPPA FARM RD, JOPPA, MD, 21085","Match","Exact","555 JOPPA FARM RD, JOPPA, MD, 21085",191644182,"R"
245266,"555 LAKE STREET UNIT 3","SAUGATUCK","MI",49453,42.653358553,-86.198281715,266,"555 LAKE STREET UNIT 3, SAUGATUCK, MI, 49453","Match","Exact","555 LAKE ST, SAUGATUCK, MI, 49453",635604830,"L"
245267,"555 LAS PERLAS DRIVE","SANTA BARBARA","CA",93111,34.448859756,-119.810850301,267,"555 LAS PERLAS DRIVE, SANTA BARBARA, CA, 93111","Match","Exact","555 LAS PERLAS DR, SANTA BARBARA, CA, 93111",650907472,"L"
245268,"555 LASHER ROAD LOT 13","TIVOLI","NY",12583,42.061089274,-73.8489147349999,268,"555 LASHER ROAD LOT 13, TIVOLI, NY, 12583","Match","Exact","555 LASHER RD, TIVOLI, NY, 12583",41494462,"L"
245269,"555 LENOX AVE 2B","NEW YORK","NY",10037,40.81611659,-73.939397779,269,"555 LENOX AVE 2B, NEW YORK, NY, 10037","Match","Exact","555 LENOX AVE, NEW YORK, NY, 10037",59656414,"L"
245270,"555 MAIN STREET  UNIT 404","STONEHAM","MA",2180,42.470280937,-71.100803571,270,"555 MAIN STREET  UNIT 404, STONEHAM, MA, 2180","Match","Exact","555 MAIN ST, STONEHAM, MA, 02180",86856665,"R"
245271,"555 MAIN STREET STE 105","NEW YORK","NY",10044,40.7624582120001,-73.949462715,271,"555 MAIN STREET STE 105, NEW YORK, NY, 10044","Match","Exact","555 MAIN ST, NEW YORK, NY, 10044",650067843,"L"
245272,"555 MAIN STREET","HACKENSACK","NJ",7601,40.8964172760001,-74.039892143,272,"555 MAIN STREET, HACKENSACK, NJ, 7601","Match","Exact","555 MAIN ST, HACKENSACK, NJ, 07601",64386075,"L"
245273,"555 MARRIOTT DR SUITE 315","NASHVILLE","TN",37214,36.1495171440001,-86.690547904,273,"555 MARRIOTT DR SUITE 315, NASHVILLE, TN, 37214","Match","Exact","555 MARRIOTT DR, NASHVILLE, TN, 37214",97208977,"R"
245274,"555 MCCAULEY RD","WILMORE","KY",40390,37.8938017770001,-84.661360889,274,"555 MCCAULEY RD, WILMORE, KY, 40390","Match","Exact","555 MCCAULEY RD, WILMORE, KY, 40390",38466261,"R"
245275,"555 MCKEE DRIVE","GENTRY","AR",72734,36.2723698680001,-94.480821224,275,"555 MCKEE DRIVE, GENTRY, AR, 72734","Match","Exact","555 MCKEE DR, GENTRY, AR, 72734",47840173,"L"
245276,"555 MCMURRAY ROAD","BUELLTON","CA",93427,34.616330706,-120.187786724,276,"555 MCMURRAY ROAD, BUELLTON, CA, 93427","Match","Exact","555 MCMURRAY RD, BUELLTON, CA, 93427",108614776,"L"
245277,"555 MEADOW RD","DURHAM","ME",4222,43.9694691710001,-70.06379515,277,"555 MEADOW RD, DURHAM, ME, 4222","Match","Exact","555 MEADOW RD, DURHAM, ME, 04222",77964404,"L"
245278,"555 MICHIGAN AVENUE SUITE 202","LAPORTE","IN",46350,41.612283378,-86.722307252,278,"555 MICHIGAN AVENUE SUITE 202, LAPORTE, IN, 46350","Match","Exact","555 MICHIGAN AVE, LAPORTE, IN, 46350",15407033,"R"
245279,"555 MILL ST NE","COLUMBIA HEIGHTS","MN",55421,45.040206438,-93.2574455659999,279,"555 MILL ST NE, COLUMBIA HEIGHTS, MN, 55421","Match","Non_Exact","555 MILL ST, COLUMBIA HEIGHTS, MN, 55421",97518015,"L"
245280,"555 MONDY ROAD","RUSTON","LA",71270,32.482419936,-92.7031190339999,280,"555 MONDY ROAD, RUSTON, LA, 71270","Match","Exact","555 MONDY RD, RUSTON, LA, 71270",635299913,"L"
245281,"555 MONTGOMERY STREET SUITE 1205","SAN FRANCISCO","CA",94111,37.794284051,-122.403064608,281,"555 MONTGOMERY STREET SUITE 1205, SAN FRANCISCO, CA, 94111","Match","Exact","555 MONTGOMERY ST, SAN FRANCISCO, CA, 94111",192281282,"L"
245282,"555 MT PROSPECT AVENUE","NEWARK","NJ",7104,40.771408453,-74.167948478,282,"555 MT PROSPECT AVENUE, NEWARK, NJ, 7104","Match","Exact","555 MT PROSPECT AVE, NEWARK, NJ, 07104",645106877,"R"
245283,"555 N 5TH ST FL 35","LOS ANGELES","CA",90013,NA,NA,283,"555 N 5TH ST FL 35, LOS ANGELES, CA, 90013","Tie",NA,NA,NA,NA
245284,"555 N CARANCAHUA STE 1000","CORPUS CHRISTI","TX",78401,NA,NA,284,"555 N CARANCAHUA STE 1000, CORPUS CHRISTI, TX, 78401","No_Match",NA,NA,NA,NA
245285,"555 N COMMERCIAL RD STE 10","PALM SPRINGS","CA",92262,33.8309843390001,-116.516230243,285,"555 N COMMERCIAL RD STE 10, PALM SPRINGS, CA, 92262","Match","Non_Exact","555 N COMMERCIAL RD, PALM SPRINGS, CA, 92262",194763726,"L"
245286,"555 N DUPONT AVE A-11","MADISON","TN",37115,36.266117588,-86.703145256,286,"555 N DUPONT AVE A-11, MADISON, TN, 37115","Match","Exact","555 DUPONT AVE, MADISON, TN, 37115",97183145,"L"
245287,"555 N GAFFEY ST 116","SAN PEDRO","CA",90731,NA,NA,287,"555 N GAFFEY ST 116, SAN PEDRO, CA, 90731","Tie",NA,NA,NA,NA
245288,"555 N HARBOR DRIVE SLIP 51","REDONDO BEACH","CA",90277,33.847947472,-118.394801688,288,"555 N HARBOR DRIVE SLIP 51, REDONDO BEACH, CA, 90277","Match","Non_Exact","555 N HARBOR DR, REDONDO BEACH, CA, 90277",141583474,"L"
245289,"555 N HIGH STREET","COLUMBUS","OH",43215,39.9736235510001,-83.00285028,289,"555 N HIGH STREET, COLUMBUS, OH, 43215","Match","Exact","555 N HIGH ST, COLUMBUS, OH, 43215",218651212,"L"
245290,"555 N HILL RD","KALISPELL","MT",59901,48.196592335,-114.426713031,290,"555 N HILL RD, KALISPELL, MT, 59901","Match","Exact","555 N HILL RD, KALISPELL, MT, 59901",641007901,"R"
245291,"555 N MORTON ST","BLOOMINGTON","IN",47404,39.1711352360001,-86.5361038469999,291,"555 N MORTON ST, BLOOMINGTON, IN, 47404","Match","Exact","555 N MORTON ST, BLOOMINGTON, IN, 47404",42321858,"L"
245292,"555 N SNELLING AVE STE B","ST PAUL","MN",55104,44.9580036940001,-93.1670896699999,292,"555 N SNELLING AVE STE B, ST PAUL, MN, 55104","Match","Exact","555 SNELLING AVE, SAINT PAUL, MN, 55104",638357777,"L"
245293,"555 NE 15TH ST 29D","MIAMI","FL",33132,25.7896453550001,-80.185919454,293,"555 NE 15TH ST 29D, MIAMI, FL, 33132","Match","Non_Exact","555 NE 15TH ST, MIAMI, FL, 33132",642153478,"L"
245294,"555 NE 15TH ST UNIT 28J","MIAMI","FL",33132,25.7896453550001,-80.185919454,294,"555 NE 15TH ST UNIT 28J, MIAMI, FL, 33132","Match","Non_Exact","555 NE 15TH ST, MIAMI, FL, 33132",642153478,"L"
245295,"555 NE 15TH STREET APT 18I","MIAMI","FL",33132,NA,NA,295,"555 NE 15TH STREET APT 18I, MIAMI, FL, 33132","No_Match",NA,NA,NA,NA
245296,"555 NE 34TH STREET APT 1001","MIAMI","FL",33137,NA,NA,296,"555 NE 34TH STREET APT 1001, MIAMI, FL, 33137","No_Match",NA,NA,NA,NA
245297,"555 NORTH AVENUE APT 19M","FORT LEE","NJ",7024,40.8539315350001,-73.983204547,297,"555 NORTH AVENUE APT 19M, FORT LEE, NJ, 7024","Match","Exact","555 NORTH AVE, FORT LEE, NJ, 07024",64413315,"R"
245298,"555 NORTH CENTENNIAL STREET","INDIANAPOLIS","IN",46222,39.7749274440001,-86.213416471,298,"555 NORTH CENTENNIAL STREET, INDIANAPOLIS, IN, 46222","Match","Exact","555 N CENTENNIAL ST, INDIANAPOLIS, IN, 46222",107987078,"R"
245299,"555 NORTH MAIN STREET STE N","NORTH SALT LAKE","UT",84054,40.895061415,-111.879010621,299,"555 NORTH MAIN STREET STE N, NORTH SALT LAKE, UT, 84054","Match","Non_Exact","555 N MAIN ST, N SALT LAKE, UT, 84010",155311585,"L"
245300,"555 NORTH STARCREST DRIVE B29","SALT LAKE CITY","UT",84116,40.7814937850001,-111.943681772,300,"555 NORTH STARCREST DRIVE B29, SALT LAKE CITY, UT, 84116","Match","Exact","555 N STARCREST DR, SALT LAKE CITY, UT, 84116",176065635,"L"
245301,"555 NORTH WASHINGTON BLVD","SEA GIRT","NJ",8750,40.130081569,-74.041973965,301,"555 NORTH WASHINGTON BLVD, SEA GIRT, NJ, 8750","Match","Non_Exact","555 WASHINGTON BLVD, SEA GIRT, NJ, 08750",90519929,"R"
245302,"555 NW 5TH STREET","CORVALLIS","OR",97330,44.5693590230001,-123.260716276,302,"555 NW 5TH STREET, CORVALLIS, OR, 97330","Match","Exact","555 NW 5TH ST, CORVALLIS, OR, 97330",155847078,"R"
245303,"555 NW PARK AVENUE UNIT 314","PORTLAND","OR",97209,45.526638689,-122.679212437,303,"555 NW PARK AVENUE UNIT 314, PORTLAND, OR, 97209","Match","Non_Exact","555 NW PARK AVE, PORTLAND, OR, 97209",157499108,"L"
245304,"555 OAK HILL ROAD","NORTH KINGSTOWN","RI",2852,41.5580961570001,-71.484221562,304,"555 OAK HILL ROAD, NORTH KINGSTOWN, RI, 2852","Match","Exact","555 OAK HILL RD, NORTH KINGSTOWN, RI, 02852",58926448,"L"
245305,"555 OCEAN AVE APT1K","BROOKLYN","NY",11226,40.649179808,-73.960828845,305,"555 OCEAN AVE APT1K, BROOKLYN, NY, 11226","Match","Exact","555 OCEAN AVE, BROOKLYN, NY, 11226",59080978,"L"
245306,"555 OLD PRISON CAMP RD","POLKTON","NC",28135,34.990262382,-80.1659256039999,306,"555 OLD PRISON CAMP RD, POLKTON, NC, 28135","Match","Exact","555 PRISON CAMP RD, POLKTON, NC, 28135",605345730,"L"
245307,"555 PEREIRA REAL APT 902 CONL","EL TUREY","PR",923,NA,NA,307,"555 PEREIRA REAL APT 902 CONL, EL TUREY, PR, 923","No_Match",NA,NA,NA,NA
245308,"555 PETERS AVENUE STE 110","PLEASANTON","CA",94566,37.6614738660001,-121.876860977,308,"555 PETERS AVENUE STE 110, PLEASANTON, CA, 94566","Match","Exact","555 PETERS AVE, PLEASANTON, CA, 94566",125032478,"R"
245309,"555 PINNEY ROAD","HUNTINGDON VALLEY","PA",19006,40.1414985000001,-75.0422912829999,309,"555 PINNEY ROAD, HUNTINGDON VALLEY, PA, 19006","Match","Exact","555 PINNEY RD, HUNTINGDON VALLEY, PA, 19006",636461646,"R"
245310,"555 POLE ST","BOSTON","MA",2565,NA,NA,310,"555 POLE ST, BOSTON, MA, 2565","No_Match",NA,NA,NA,NA
245311,"555 POLK STREET","GARY","IN",46402,41.6017221230001,-87.349775753,311,"555 POLK STREET, GARY, IN, 46402","Match","Exact","555 POLK ST, GARY, IN, 46402",618046338,"L"
245312,"555 POPLAR STREET SUITE 10","MACON","GA",31201,32.834381711,-83.6303486749999,312,"555 POPLAR STREET SUITE 10, MACON, GA, 31201","Match","Non_Exact","555 POPLAR STREET LN, MACON, GA, 31201",81062857,"R"
245313,"555 REBEL RD UNIT 2653","KYLE","TX",78640,29.9921577870001,-97.883517218,313,"555 REBEL RD UNIT 2653, KYLE, TX, 78640","Match","Exact","555 REBEL RD, KYLE, TX, 78640",63809928,"L"
245314,"555 REPUBLIC DR STE 200","PLANO","TX",75074,33.0306837030001,-96.705639143,314,"555 REPUBLIC DR STE 200, PLANO, TX, 75074","Match","Exact","555 REPUBLIC DR, PLANO, TX, 75074",210470578,"R"
245315,"555 REPUBLIC DR STE 320","PLANO","TX",75074,33.0306837030001,-96.705639143,315,"555 REPUBLIC DR STE 320, PLANO, TX, 75074","Match","Exact","555 REPUBLIC DR, PLANO, TX, 75074",210470578,"R"
245316,"555 REPUBLIC DRIVE SUITE 200","PLANO","TX",75074,33.0306837030001,-96.705639143,316,"555 REPUBLIC DRIVE SUITE 200, PLANO, TX, 75074","Match","Exact","555 REPUBLIC DR, PLANO, TX, 75074",210470578,"R"
245317,"555 RIDGE RD","ELMONT","NY",11003,40.69755473,-73.718919785,317,"555 RIDGE RD, ELMONT, NY, 11003","Match","Exact","555 RIDGE RD, ELMONT, NY, 11003",147667577,"L"
245318,"555 ROSE AVE UNIT 2","VENICE","CA",90291,33.9988758900001,-118.472546024,318,"555 ROSE AVE UNIT 2, VENICE, CA, 90291","Match","Exact","555 ROSE AVE, VENICE, CA, 90291",141568966,"L"
245319,"555 S 91ST PL","MESA","AZ",85208,33.4047750670001,-111.633964275,319,"555 S 91ST PL, MESA, AZ, 85208","Match","Exact","555 S 91ST PL, MESA, AZ, 85208",651802961,"L"
245320,"555 S B B KING BLVD LBBY 54","MEMPHIS","TN",38101,NA,NA,320,"555 S B B KING BLVD LBBY 54, MEMPHIS, TN, 38101","No_Match",NA,NA,NA,NA
245321,"555 S LEWIS AVE","TULSA","OK",74104,36.152630575,-95.958189036,321,"555 S LEWIS AVE, TULSA, OK, 74104","Match","Exact","555 S LEWIS AVE, TULSA, OK, 74104",166439618,"L"
245322,"555 S OLD WOODWARD SUITE 755","BIRMINGHAM","MI",48009,NA,NA,322,"555 S OLD WOODWARD SUITE 755, BIRMINGHAM, MI, 48009","No_Match",NA,NA,NA,NA
245323,"555 S UNION ST","CONCORD","NC",28025,NA,NA,323,"555 S UNION ST, CONCORD, NC, 28025","No_Match",NA,NA,NA,NA
245324,"555 S VERMONT ST","PALATINE","IL",60067,42.1004434020001,-88.037450558,324,"555 S VERMONT ST, PALATINE, IL, 60067","Match","Exact","555 S VERMONT ST, PALATINE, IL, 60067",111696671,"L"
245325,"555 SATURN BOULEVARD SUITE B 732","SAN DIEGO","CA",92154,32.5866634390001,-117.092635133,325,"555 SATURN BOULEVARD SUITE B 732, SAN DIEGO, CA, 92154","Match","Exact","555 SATURN BLVD, SAN DIEGO, CA, 92154",195357652,"L"
245326,"555 SATURN BOULVARD NO B732","SAN DIEGO","CA",92154,32.5866634390001,-117.092635133,326,"555 SATURN BOULVARD NO B732, SAN DIEGO, CA, 92154","Match","Non_Exact","555 SATURN BLVD, SAN DIEGO, CA, 92154",195357652,"L"
245327,"555 SAWMILL ROAD","PORT MATILDA","PA",16870,40.7989857800001,-77.985115112,327,"555 SAWMILL ROAD, PORT MATILDA, PA, 16870","Match","Exact","555 SAWMILL RD, PORT MATILDA, PA, 16870",50384552,"L"
245328,"555 SCHUMANN RD","SOMERSET","TX",78069,29.1545384950001,-98.692397834,328,"555 SCHUMANN RD, SOMERSET, TX, 78069","Match","Non_Exact","555 SCHUMANN LN, SOMERSET, TX, 78069",627498093,"R"
245329,"555 SCHUYLER AVE STE 155","KANKAKEE","IL",60901,NA,NA,329,"555 SCHUYLER AVE STE 155, KANKAKEE, IL, 60901","Tie",NA,NA,NA,NA
245330,"555 SEAFORD AVENUE","MASSAPEQUA","NY",11758,40.6795773420001,-73.48051685,330,"555 SEAFORD AVENUE, MASSAPEQUA, NY, 11758","Match","Exact","555 SEAFORD AVE, MASSAPEQUA, NY, 11758",147648597,"L"
245331,"555 SEMINAR 64","HOUSTON","TX",77060,29.948168002,-95.3926209859999,331,"555 SEMINAR 64, HOUSTON, TX, 77060","Match","Non_Exact","555 SEMINAR DR, HOUSTON, TX, 77060",96043977,"L"
245332,"555 SHORELINE POINTE","EL DORADO HILLS","CA",95762,38.7374480240001,-121.076201416,332,"555 SHORELINE POINTE, EL DORADO HILLS, CA, 95762","Match","Exact","555 SHORELINE POINTE, EL DORADO HILLS, CA, 95762",651589492,"L"
245333,"555 SOUTH 18TH STREET","COLUMBUS","OH",43205,39.9532842250001,-82.976449234,333,"555 SOUTH 18TH STREET, COLUMBUS, OH, 43205","Match","Exact","555 S 18TH ST, COLUMBUS, OH, 43205",135580564,"R"
245334,"555 SOUTH A STREET  SUITE 130","OXNARD","CA",93030,34.1968095120001,-119.178587679,334,"555 SOUTH A STREET  SUITE 130, OXNARD, CA, 93030","Match","Exact","555 S A ST, OXNARD, CA, 93030",110062852,"L"
245335,"555 SOUTH B STREET","OXNARD","CA",93030,34.1965648130001,-119.179858786,335,"555 SOUTH B STREET, OXNARD, CA, 93030","Match","Exact","555 S B ST, OXNARD, CA, 93030",109962107,"R"
245336,"555 SOUTH BLUFF STREET SUITE 301","SAINT GEORGE","UT",84770,37.0986923180001,-113.587839804,336,"555 SOUTH BLUFF STREET SUITE 301, SAINT GEORGE, UT, 84770","Match","Exact","555 S BLUFF ST, SAINT GEORGE, UT, 84770",166167079,"R"
245337,"555 SOUTH CENTER STREET","DUTCH JOHN","UT",84023,NA,NA,337,"555 SOUTH CENTER STREET, DUTCH JOHN, UT, 84023","No_Match",NA,NA,NA,NA
245338,"555 SOUTH MAIN STREET","JASPER","TX",75951,30.916088137,-94.0002912209999,338,"555 SOUTH MAIN STREET, JASPER, TX, 75951","Match","Exact","555 S MAIN ST, JASPER, TX, 75951",32391677,"R"
245339,"555 SOUTH MAIN STREET","WILLIAMSTOWN","NJ",8094,39.681103013,-74.988927286,339,"555 SOUTH MAIN STREET, WILLIAMSTOWN, NJ, 8094","Match","Exact","555 S MAIN ST, WILLIAMSTOWN, NJ, 08094",134590991,"R"
245340,"555 SOUTH OLD 3C ROAD","SUNBURY","OH",43074,NA,NA,340,"555 SOUTH OLD 3C ROAD, SUNBURY, OH, 43074","No_Match",NA,NA,NA,NA
245341,"555 SOUTH PERRYVILLE ROAD","ROCKFORD","IL",61108,42.2652141720001,-88.9800516779999,341,"555 SOUTH PERRYVILLE ROAD, ROCKFORD, IL, 61108","Match","Exact","555 S PERRYVILLE RD, ROCKFORD, IL, 61108",49280253,"R"
245342,"555 SOUTH ST APT 1105","HONOLULU","HI",96813,21.301702026,-157.860080713,342,"555 SOUTH ST APT 1105, HONOLULU, HI, 96813","Match","Exact","555 SOUTH ST, HONOLULU, HI, 96813",203236082,"R"
245343,"555 SOUTH WATER ST CONDO 219","PROVIDENCE","RI",2903,NA,NA,343,"555 SOUTH WATER ST CONDO 219, PROVIDENCE, RI, 2903","No_Match",NA,NA,NA,NA
245344,"555 SPANISH TOWN RD  RM 1","BATON ROUGE","LA",70802,30.4546898090001,-91.185344593,344,"555 SPANISH TOWN RD  RM 1, BATON ROUGE, LA, 70802","Match","Exact","555 SPANISH TOWN RD, BATON ROUGE, LA, 70802",92181813,"L"
245345,"555 STATE HIGHWAY M73","IRON RIVER","WI",49935,NA,NA,345,"555 STATE HIGHWAY M73, IRON RIVER, WI, 49935","No_Match",NA,NA,NA,NA
245346,"555 STONEBROOK TRAIL","CLEVELAND","GA",30528,34.561247446,-83.751934771,346,"555 STONEBROOK TRAIL, CLEVELAND, GA, 30528","Match","Exact","555 STONEBROOK TRL, CLEVELAND, GA, 30528",625648013,"L"
245347,"555 SW 12 AVENUE SUITE 105","POMPANO BEACH","FL",33069,NA,NA,347,"555 SW 12 AVENUE SUITE 105, POMPANO BEACH, FL, 33069","Tie",NA,NA,NA,NA
245348,"555 TROJAN TRAIL","GLASGOW","KY",42141,36.9792640680001,-85.919912903,348,"555 TROJAN TRAIL, GLASGOW, KY, 42141","Match","Exact","555 TROJAN TRL, GLASGOW, KY, 42141",29510100,"R"
245349,"555 TURNPIKE ST STE 55","NORTH ANDOVER","MA",1845,NA,NA,349,"555 TURNPIKE ST STE 55, NORTH ANDOVER, MA, 1845","No_Match",NA,NA,NA,NA
245350,"555 US HIGHWAY ONE SOUTH","ISELIN","NJ",8830,NA,NA,350,"555 US HIGHWAY ONE SOUTH, ISELIN, NJ, 8830","No_Match",NA,NA,NA,NA
245351,"555 VETERANS DRIVE SUITE 2458","KYLE","TX",78640,NA,NA,351,"555 VETERANS DRIVE SUITE 2458, KYLE, TX, 78640","No_Match",NA,NA,NA,NA
245352,"555 W   MADISON ST 1101","CHICAGO","IL",60661,41.8818435090001,-87.641802685,352,"555 W   MADISON ST 1101, CHICAGO, IL, 60661","Match","Non_Exact","555 W MADISON ST, CHICAGO, IL, 60661",111768197,"L"
245353,"555 W 112TH AVE","NORTHGLENN","CO",80234,39.8997313340001,-104.994360093,353,"555 W 112TH AVE, NORTHGLENN, CO, 80234","Match","Exact","555 W 112TH AVE, NORTHGLENN, CO, 80234",177440033,"R"
245354,"555 W 170TH STREET APT 23","NEW YORK","NY",10032,40.841776542,-73.937701862,354,"555 W 170TH STREET APT 23, NEW YORK, NY, 10032","Match","Non_Exact","555 W 170TH ST, NEW YORK, NY, 10032",59655702,"R"
245355,"555 W 23RD ST APT S9N","NEW YORK","NY",10011,40.748393143,-74.005823853,355,"555 W 23RD ST APT S9N, NEW YORK, NY, 10011","Match","Non_Exact","555 W 23RD ST, NEW YORK, NY, 10011",650075072,"R"
245356,"555 W 5TH FLOOR 3130","LOS ANGELES","CA",90013,NA,NA,356,"555 W 5TH FLOOR 3130, LOS ANGELES, CA, 90013","No_Match",NA,NA,NA,NA
245357,"555 W 5TH STREET 35TH FLOOR","LOS ANGELES","CA",90013,NA,NA,357,"555 W 5TH STREET 35TH FLOOR, LOS ANGELES, CA, 90013","Tie",NA,NA,NA,NA
245358,"555 W BEECH STREET SUITE 510","SAN DIEGO","CA",92101,32.7209291620001,-117.159700765,358,"555 W BEECH STREET SUITE 510, SAN DIEGO, CA, 92101","Match","Exact","555 BEECH ST, SAN DIEGO, CA, 92101",195343577,"R"
245359,"555 W GRANADA BLVD SUITE A2","ORMOND BEACH","FL",32124,29.2787508370001,-81.074122486,359,"555 W GRANADA BLVD SUITE A2, ORMOND BEACH, FL, 32124","Match","Non_Exact","555 GRANADA BLVD, ORMOND BEACH, FL, 32174",94563556,"R"
245360,"555 W LEYDEN RD","LEYDEN","MA",1337,42.69933511,-72.664769544,360,"555 W LEYDEN RD, LEYDEN, MA, 1337","Match","Exact","555 W LEYDEN RD, LEYDEN, MA, 01337",39910772,"L"
245361,"555 W STRATFORD PL APT 502","CHICAGO","IL",60657,41.9454543320001,-87.6439209069999,361,"555 W STRATFORD PL APT 502, CHICAGO, IL, 60657","Match","Non_Exact","555 W STRATFORD PL, CHICAGO, IL, 60657",611396876,"L"
245362,"555 W WHITTIER AVE","HEMET","CA",92543,NA,NA,362,"555 W WHITTIER AVE, HEMET, CA, 92543","Tie",NA,NA,NA,NA
245363,"555 WASHINGTON AVENUE SUITE 600","ST. LOUIS","MO",63101,38.6301436900001,-90.1888353269999,363,"555 WASHINGTON AVENUE SUITE 600, ST. LOUIS, MO, 63101","Match","Exact","555 WASHINGTON AVE, SAINT LOUIS, MO, 63101",107605785,"R"
245364,"555 WASHINGTON ROAD","PITTSBURGH","PA",15228,40.383697657,-80.0437655699999,364,"555 WASHINGTON ROAD, PITTSBURGH, PA, 15228","Match","Exact","555 WASHINGTON RD, PITTSBURGH, PA, 15228",607644677,"L"
245365,"555 WASHINGTON SUITE 100","SAINT LOUIS","MO",63101,38.6301436900001,-90.1888353269999,365,"555 WASHINGTON SUITE 100, SAINT LOUIS, MO, 63101","Match","Non_Exact","555 WASHINGTON AVE, SAINT LOUIS, MO, 63101",107605785,"R"
245366,"555 WEST 18TH ST","CHICAGO","IL",60616,41.857630623,-87.64088957,366,"555 WEST 18TH ST, CHICAGO, IL, 60616","Match","Exact","555 W 18TH ST, CHICAGO, IL, 60616",605101690,"L"
245367,"555 WEST 5TH STREET - SUITE 3100","LOS ANGELES","CA",90013,34.0499298,-118.253534413,367,"555 WEST 5TH STREET - SUITE 3100, LOS ANGELES, CA, 90013","Match","Exact","555 W 5TH ST, LOS ANGELES, CA, 90013",141617212,"R"
245368,"555 WEST GAINES STREET","MONTICELLO","AR",71655,33.6293404420001,-91.797962449,368,"555 WEST GAINES STREET, MONTICELLO, AR, 71655","Match","Non_Exact","555 W GAINES AVE, MONTICELLO, AR, 71655",635383916,"L"
245369,"555 WEST MITCHELL","PETOSKEY","MI",49770,45.373978032,-84.966594675,369,"555 WEST MITCHELL, PETOSKEY, MI, 49770","Match","Non_Exact","555 W MITCHELL ST, PETOSKEY, MI, 49770",647415432,"R"
245370,"555 WETHERSFIELD AVE","HARTFORD","CT",6114,41.740809078,-72.672123056,370,"555 WETHERSFIELD AVE, HARTFORD, CT, 6114","Match","Exact","555 WETHERSFIELD AVE, HARTFORD, CT, 06114",3516092,"R"
245371,"555 WHITEHALL STREET SW SUITE B","ATLANTA","GA",30303,33.7431336330001,-84.405188352,371,"555 WHITEHALL STREET SW SUITE B, ATLANTA, GA, 30303","Match","Exact","555 WHITEHALL ST SW, ATLANTA, GA, 30303",17343120,"R"
245372,"555 WINDING VALLEY CV","COLLIERVILLE","TN",38017,35.015763856,-89.687589243,372,"555 WINDING VALLEY CV, COLLIERVILLE, TN, 38017","Match","Exact","555 WINDING VALLEY COVE, COLLIERVILLE, TN, 38017",619923058,"R"
245373,"555 WOODLAWN ST SE","GRAND RAPIDS","MI",49507,42.9426136610001,-85.655236754,373,"555 WOODLAWN ST SE, GRAND RAPIDS, MI, 49507","Match","Exact","555 WOODLAWN ST SE, GRAND RAPIDS, MI, 49507",12461404,"L"
245374,"555 YGNACIO VALLEY ROAD UNIT 422","WALNUT CREEK","CA",94596,37.9067135340001,-122.06290428,374,"555 YGNACIO VALLEY ROAD UNIT 422, WALNUT CREEK, CA, 94596","Match","Exact","555 YGNACIO VALLEY RD, WALNUT CREEK, CA, 94596",192056286,"R"
245375,"555","CONCRETE","WA",98237,NA,NA,375,"555, CONCRETE, WA, 98237","No_Match",NA,NA,NA,NA
245376,"5550 AMELIA PLANTATION DRIVE","KATY","TX",77449,29.8523026240001,-95.7097174959999,376,"5550 AMELIA PLANTATION DRIVE, KATY, TX, 77449","Match","Exact","5550 AMELIA PLANTATION DR, KATY, TX, 77449",646704281,"R"
245377,"5550 AVENT FERRY ST","LAS VEGAS","NV",89148,36.088049276,-115.300096716,377,"5550 AVENT FERRY ST, LAS VEGAS, NV, 89148","Match","Non_Exact","5550 S AVENT FERRY ST, LAS VEGAS, NV, 89148",623849874,"R"
245378,"5550 CHATSWORTH ST N","SHOREVIEW","MN",55126,45.109179705,-93.1439713999999,378,"5550 CHATSWORTH ST N, SHOREVIEW, MN, 55126","Match","Exact","5550 CHATSWORTH ST N, SHOREVIEW, MN, 55126",97669175,"L"
245379,"5550 CLAIRE ROSE LANE","ATLANTA","GA",30327,33.9069811900001,-84.403060802,379,"5550 CLAIRE ROSE LANE, ATLANTA, GA, 30327","Match","Exact","5550 CLAIRE ROSE LN, ATLANTA, GA, 30327",17383167,"R"
245380,"5550 COLES FERRY PIKE","LEBANON","TN",37087,36.271319992,-86.3441111129999,380,"5550 COLES FERRY PIKE, LEBANON, TN, 37087","Match","Exact","5550 COLES FERRY PIKE, LEBANON, TN, 37087",89683867,"L"
245381,"5550 COLUMBIA PIKE APT 745","ARLINGTON","VA",22204,38.853645387,-77.1189600769999,381,"5550 COLUMBIA PIKE APT 745, ARLINGTON, VA, 22204","Match","Exact","5550 COLUMBIA PIKE, ARLINGTON, VA, 22204",650098516,"R"
245382,"5550 E SUNSET DR","FLAGSTAFF","AZ",86004,35.2685712030001,-111.549641728,382,"5550 E SUNSET DR, FLAGSTAFF, AZ, 86004","Match","Exact","5550 SUNSET DR, FLAGSTAFF, AZ, 86004",188957888,"L"
245383,"5550 FRONT DR","HOLIDAY","FL",34690,28.183097236,-82.722581804,383,"5550 FRONT DR, HOLIDAY, FL, 34690","Match","Exact","5550 FRONT DR, HOLIDAY, FL, 34690",86358332,"R"
245384,"5550 GLADES RD","BOCA RATON","FL",33431,26.36831134,-80.1299581919999,384,"5550 GLADES RD, BOCA RATON, FL, 33431","Match","Exact","5550 GLADES RD, BOCA RATON, FL, 33431",115300787,"L"
245385,"5550 HOLLYWOOD BLVD APT 507","LOS ANGELES","CA",90028,34.1017190260001,-118.310936884,385,"5550 HOLLYWOOD BLVD APT 507, LOS ANGELES, CA, 90028","Match","Exact","5550 HOLLYWOOD BLVD, LOS ANGELES, CA, 90028",141597273,"L"
245386,"5550 IDLEWOOD DRIVE","NASHPORT","OH",43830,40.0254060680001,-82.042005241,386,"5550 IDLEWOOD DRIVE, NASHPORT, OH, 43830","Match","Exact","5550 IDLEWOOD DR, NASHPORT, OH, 43830",625321038,"R"
245387,"5550 MAPLE PARK DRIVE APT 5556","FLINT","MI",48507,42.9574295720001,-83.716354285,387,"5550 MAPLE PARK DRIVE APT 5556, FLINT, MI, 48507","Match","Exact","5550 MAPLE PARK DR, FLINT, MI, 48507",69616891,"R"
245388,"5550 N FIRST ST","FRESNO","CA",93710,36.8177367210001,-119.772252051,388,"5550 N FIRST ST, FRESNO, CA, 93710","Match","Exact","5550 N 1ST ST, FRESNO, CA, 93710",197573494,"R"
245389,"5550 N TALGACH VIEW","WASILLA","AK",99654,61.645008832,-149.325130422,389,"5550 N TALGACH VIEW, WASILLA, AK, 99654","Match","Non_Exact","5550 TALGACH VIEW DR, WASILLA, AK, 99654",191044920,"R"
245390,"5550 NORTH FIRST STREET","FRESNO","CA",93710,36.8177304380001,-119.772251992,390,"5550 NORTH FIRST STREET, FRESNO, CA, 93710","Match","Exact","5550 N 1ST ST, FRESNO, CA, 93710",197573494,"R"
245391,"5550 NORTH OCEAN DRIVE 4D","SINGER ISLAND","FL",33404,26.812949663,-80.0366940069999,391,"5550 NORTH OCEAN DRIVE 4D, SINGER ISLAND, FL, 33404","Match","Exact","5550 N OCEAN DR, SINGER ISLAND, FL, 33404",650063938,"R"
245392,"5550 NW JOHNSTON DRIVE","JOHNSTON","IA",50131,41.6575915610001,-93.692590863,392,"5550 NW JOHNSTON DRIVE, JOHNSTON, IA, 50131","Match","Exact","5550 NW JOHNSTON DR, JOHNSTON, IA, 50131",646221580,"R"
245393,"5550 PAINTED MIRAGE RD STE 320-A063","LAS VEGAS","NV",89149,36.262719888,-115.25664923,393,"5550 PAINTED MIRAGE RD STE 320-A063, LAS VEGAS, NV, 89149","Match","Exact","5550 PAINTED MIRAGE RD, LAS VEGAS, NV, 89149",632506479,"L"
245394,"5550 PAINTED MIRAGE RD SUITE 320","LAS VEGAS","NV",89149,36.262719888,-115.25664923,394,"5550 PAINTED MIRAGE RD SUITE 320, LAS VEGAS, NV, 89149","Match","Exact","5550 PAINTED MIRAGE RD, LAS VEGAS, NV, 89149",632506479,"L"
245395,"5550 PLATTE DR","ELLENWOOD","GA",30294,33.6049180100001,-84.267819081,395,"5550 PLATTE DR, ELLENWOOD, GA, 30294","Match","Exact","5550 PLATTE DR, ELLENWOOD, GA, 30294",639504617,"R"
245396,"5550 RIVERDALE AVENUE","BRONX","NY",10471,40.903558602,-73.9052286039999,396,"5550 RIVERDALE AVENUE, BRONX, NY, 10471","Match","Exact","5550 RIVERDALE AVE, BRONX, NY, 10471",80313114,"R"
245397,"5550 TALLY YATES RD","REMBERT","SC",29128,34.038109392,-80.463453411,397,"5550 TALLY YATES RD, REMBERT, SC, 29128","Match","Exact","5550 TALLY YATES RD, REMBERT, SC, 29128",636585882,"L"
245398,"5550 TECH CENTER DRIVE  STE 303","COLORADO SPRINGS","CO",80919,38.913041611,-104.826550571,398,"5550 TECH CENTER DRIVE  STE 303, COLORADO SPRINGS, CO, 80919","Match","Exact","5550 TECH CENTER DR, COLORADO SPRINGS, CO, 80919",610703974,"L"
245399,"5550 TECH CENTER DRIVE STE 303","COLORADO SPRINGS","CO",80919,38.913041611,-104.826550571,399,"5550 TECH CENTER DRIVE STE 303, COLORADO SPRINGS, CO, 80919","Match","Exact","5550 TECH CENTER DR, COLORADO SPRINGS, CO, 80919",610703974,"L"
245400,"5550 TECH CENTER DRIVE SUITE 303","COLORADO SPRINGS","CO",80919,38.913041611,-104.826550571,400,"5550 TECH CENTER DRIVE SUITE 303, COLORADO SPRINGS, CO, 80919","Match","Exact","5550 TECH CENTER DR, COLORADO SPRINGS, CO, 80919",610703974,"L"
245401,"5550 TECH CENTER DRIVE SUITE 305","COLORADO SPRINGS","CO",80919,38.913041611,-104.826550571,401,"5550 TECH CENTER DRIVE SUITE 305, COLORADO SPRINGS, CO, 80919","Match","Exact","5550 TECH CENTER DR, COLORADO SPRINGS, CO, 80919",610703974,"L"
245402,"5550 TECH CENTER DRIVE SUITE 308","COLORADO SPRINGS","CO",80919,38.913041611,-104.826550571,402,"5550 TECH CENTER DRIVE SUITE 308, COLORADO SPRINGS, CO, 80919","Match","Exact","5550 TECH CENTER DR, COLORADO SPRINGS, CO, 80919",610703974,"L"
245403,"5550 TECH CENTER DRIVE","COLORADO SPRINGS","CO",80919,38.913041611,-104.826550571,403,"5550 TECH CENTER DRIVE, COLORADO SPRINGS, CO, 80919","Match","Exact","5550 TECH CENTER DR, COLORADO SPRINGS, CO, 80919",610703974,"L"
245404,"5550 VANDERIPE RD","SARASOTA","FL",34241,27.273097948,-82.331510717,404,"5550 VANDERIPE RD, SARASOTA, FL, 34241","Match","Exact","5550 VANDERIPE RD, SARASOTA, FL, 34241",16380610,"L"
245405,"5550 W CENTRAL AVENUE","TOLEDO","OH",43615,41.676546301,-83.675055358,405,"5550 W CENTRAL AVENUE, TOLEDO, OH, 43615","Match","Exact","5550 W CENTRAL AVE, TOLEDO, OH, 43615",33929432,"R"
245406,"5550 W FLAMINGO ROAD SUITE D-1","LAS VEGAS","NV",89103,36.115028567,-115.216960762,406,"5550 W FLAMINGO ROAD SUITE D-1, LAS VEGAS, NV, 89103","Match","Non_Exact","5550 W FLAMINGO RD, LAS VEGAS, NV, 89103",624771666,"R"
245407,"5550 WEST 10TH STREET","INDIANAPOLIS","IN",46224,39.7798499780001,-86.257175041,407,"5550 WEST 10TH STREET, INDIANAPOLIS, IN, 46224","Match","Non_Exact","5550 10TH ST, INDIANAPOLIS, IN, 46224",108039497,"R"
245408,"5550 WIGEON STREET SE","SALEM","OR",97306,44.875051145,-123.054189568,408,"5550 WIGEON STREET SE, SALEM, OR, 97306","Match","Exact","5550 WIGEON ST SE, SALEM, OR, 97306",640193301,"R"
245409,"5550-A PEACHTREE PARKWAY","NORCROSS","GA",30092,33.968277963,-84.222023033,409,"5550-A PEACHTREE PARKWAY, NORCROSS, GA, 30092","Match","Non_Exact","5550 PEACHTREE PKWY NW, NORCROSS, GA, 30092",640547450,"R"
245410,"55500 N COOPER RD","LORANGER","LA",70446,30.6637345610001,-90.43520255,410,"55500 N COOPER RD, LORANGER, LA, 70446","Match","Exact","55500 N COOPER RD, LORANGER, LA, 70446",75767459,"R"
245411,"5551 AINSLEY DR","WESTERVILLE","OH",43082,40.151955146,-82.9284734509999,411,"5551 AINSLEY DR, WESTERVILLE, OH, 43082","Match","Exact","5551 AINSLEY DR, WESTERVILLE, OH, 43082",24603679,"L"
245412,"5551 AZALEA WAY","NEWARK","CA",94560,37.5356389610001,-122.014996035,412,"5551 AZALEA WAY, NEWARK, CA, 94560","Match","Exact","5551 AZALEA WAY, NEWARK, CA, 94560",649583632,"R"
245413,"5551 CHATFORD SQUARE APT B","COLUMBUS","OH",43232,39.9352676340001,-82.845864728,413,"5551 CHATFORD SQUARE APT B, COLUMBUS, OH, 43232","Match","Exact","5551 CHATFORD SQ, COLUMBUS, OH, 43232",624773270,"R"
245414,"5551 COLODNY DRIVE","AGOURA HILLS","CA",91301,34.149176616,-118.738323737,414,"5551 COLODNY DRIVE, AGOURA HILLS, CA, 91301","Match","Exact","5551 COLODNY DR, AGOURA HILLS, CA, 91301",142837641,"R"
245415,"5551 HEDGE BROOKE DRIVE","ACWORTH","GA",30101,34.005896331,-84.70827924,415,"5551 HEDGE BROOKE DRIVE, ACWORTH, GA, 30101","Match","Exact","5551 HEDGE BROOKE DR, ACWORTH, GA, 30101",614184534,"R"
245416,"5551 HOLLYWOOD BLVD  APT 1015","HOLLYWOOD","CA",90028,34.1017307760001,-118.310788443,416,"5551 HOLLYWOOD BLVD  APT 1015, HOLLYWOOD, CA, 90028","Match","Exact","5551 HOLLYWOOD BLVD, HOLLYWOOD, CA, 90028",141597273,"R"
245417,"5551 HOLLYWOOD BLVD 1182","HOLLYWOOD","CA",90028,34.1017307760001,-118.310788443,417,"5551 HOLLYWOOD BLVD 1182, HOLLYWOOD, CA, 90028","Match","Exact","5551 HOLLYWOOD BLVD, HOLLYWOOD, CA, 90028",141597273,"R"
245418,"5551 HOLLYWOOD BOULEVARD - 1168","HOLLYWOOD","CA",90028,34.1017307760001,-118.310788443,418,"5551 HOLLYWOOD BOULEVARD - 1168, HOLLYWOOD, CA, 90028","Match","Exact","5551 HOLLYWOOD BLVD, HOLLYWOOD, CA, 90028",141597273,"R"
245419,"5551 JESSE DR","SAN BERNARDINO","CA",92407,34.180106321,-117.303990653,419,"5551 JESSE DR, SAN BERNARDINO, CA, 92407","Match","Exact","5551 JESSE DR, SAN BERNARDINO, CA, 92407",144700253,"R"
245420,"5551 LIBERTY STREET","FLORENCE","SC",29506,NA,NA,420,"5551 LIBERTY STREET, FLORENCE, SC, 29506","No_Match",NA,NA,NA,NA
245421,"5551 N UNIVERSITY DR SUITE 101B","CORAL SPRINGS","FL",33067,26.297579048,-80.2501295979999,421,"5551 N UNIVERSITY DR SUITE 101B, CORAL SPRINGS, FL, 33067","Match","Non_Exact","5551 N UNIVERSITY DR, CORAL SPRINGS, FL, 33067",616391609,"L"
245422,"5551 PRISCILLA LANE","SACRAMENTO","CA",95820,38.525606425,-121.415161748,422,"5551 PRISCILLA LANE, SACRAMENTO, CA, 95820","Match","Exact","5551 PRISCILLA LN, SACRAMENTO, CA, 95820",133337477,"L"
245423,"5551 S BILOXI WAY","AURORA","CO",80016,39.6151653900001,-104.715077776,423,"5551 S BILOXI WAY, AURORA, CO, 80016","Match","Exact","5551 S BILOXI WAY, AURORA, CO, 80016",634791079,"L"
245424,"5551 W CONGRESS PKWY","CHICAGO","IL",60644,41.873836227,-87.7635400089999,424,"5551 W CONGRESS PKWY, CHICAGO, IL, 60644","Match","Exact","5551 W CONGRESS PKWY, CHICAGO, IL, 60644",605077565,"L"
245425,"5551 W GOWEN RD","BOISE","ID",83709,43.557214329,-116.247940893,425,"5551 W GOWEN RD, BOISE, ID, 83709","Match","Exact","5551 W GOWEN RD, BOISE, ID, 83709",117864079,"L"
245426,"5551 YATES LANE","RICHMOND","VA",23223,NA,NA,426,"5551 YATES LANE, RICHMOND, VA, 23223","No_Match",NA,NA,NA,NA
245427,"5552 ELAMSVILLE RD","STUART","VA",24171,36.7642847920001,-80.197523616,427,"5552 ELAMSVILLE RD, STUART, VA, 24171","Match","Exact","5552 ELAMSVILLE RD, STUART, VA, 24171",56548197,"L"
245428,"5552 LAUREL RIDGE DRIVE","ALPHARETTA","GA",30005,34.0578066320001,-84.1995560669999,428,"5552 LAUREL RIDGE DRIVE, ALPHARETTA, GA, 30005","Match","Exact","5552 LAUREL RIDGE DR, ALPHARETTA, GA, 30005",17420275,"L"
245429,"5552 W MONROE","CHICAGO","IL",60644,41.8792752100001,-87.7634134149999,429,"5552 W MONROE, CHICAGO, IL, 60644","Match","Non_Exact","5552 W MONROE ST, CHICAGO, IL, 60644",111754859,"R"
245430,"5552 W QUINCY","CHICAGO","IL",60644,41.877470504,-87.763058486,430,"5552 W QUINCY, CHICAGO, IL, 60644","Match","Non_Exact","5552 W QUINCY ST, CHICAGO, IL, 60644",605077394,"R"
245431,"5552 W VAN BUREN","CHICAGO","IL",60644,41.87475284,-87.763244298,431,"5552 W VAN BUREN, CHICAGO, IL, 60644","Match","Non_Exact","5552 W VAN BUREN ST, CHICAGO, IL, 60644",111795076,"R"
245432,"5552 WOODED CREEK DRIVE","SAINT CHARLES","MO",63304,38.729500543,-90.686500821,432,"5552 WOODED CREEK DRIVE, SAINT CHARLES, MO, 63304","Match","Exact","5552 WOODED CREEK DR, SAINT CHARLES, MO, 63304",633459887,"L"
245433,"5552","WESTMINSTER","CA",92683,NA,NA,433,"5552, WESTMINSTER, CA, 92683","No_Match",NA,NA,NA,NA
245434,"5553 ANNIE CREEK","FORT WORTH","TX",76126,NA,NA,434,"5553 ANNIE CREEK, FORT WORTH, TX, 76126","No_Match",NA,NA,NA,NA
245435,"5553 ASHMOORE CT","FLOWERY BRANCH","GA",30542,34.2020415860001,-83.921353564,435,"5553 ASHMOORE CT, FLOWERY BRANCH, GA, 30542","Match","Exact","5553 ASHMOORE CT, FLOWERY BR, GA, 30542",640170187,"L"
245436,"5553 COTTONPORT DRIVE","BRENTWOOD","TN",37027,36.025543853,-86.753929233,436,"5553 COTTONPORT DRIVE, BRENTWOOD, TN, 37027","Match","Exact","5553 COTTONPORT DR, BRENTWOOD, TN, 37027",97207872,"L"
245437,"5553 DESERTGOLD DR","CINCINNATI","OH",45247,39.224304311,-84.629427079,437,"5553 DESERTGOLD DR, CINCINNATI, OH, 45247","Match","Exact","5553 DESERTGOLD DR, CINCINNATI, OH, 45247",103951540,"R"
245438,"5553 DEVILS HEAD CIR","GOLDEN","CO",80403,39.7967432180001,-105.216336754,438,"5553 DEVILS HEAD CIR, GOLDEN, CO, 80403","Match","Exact","5553 DEVILS HEAD CIR, GOLDEN, CO, 80403",177797262,"L"
245439,"5553 FIRST STATESMAN LANE","ALEXANDRIA","VA",22312,38.800564369,-77.1456864099999,439,"5553 FIRST STATESMAN LANE, ALEXANDRIA, VA, 22312","Match","Exact","5553 FIRST STATESMAN LN, ALEXANDRIA, VA, 22312",76005016,"L"
245440,"5553 LITTLE FALLS RD","ARLINGTON","VA",22207,38.9020611350001,-77.145639127,440,"5553 LITTLE FALLS RD, ARLINGTON, VA, 22207","Match","Non_Exact","5553 N LITTLE FALLS RD, ARLINGTON, VA, 22207",76477004,"R"
245441,"5553 MURRAY AVE","CINCINNATI","OH",45227,39.1493985660001,-84.40087392,441,"5553 MURRAY AVE, CINCINNATI, OH, 45227","Match","Non_Exact","5553 MURRAY RD, CINCINNATI, OH, 45227",103954064,"R"
245442,"5553 SALUDA CT NW","ACWORTH","GA",30101,34.0069363310001,-84.707946669,442,"5553 SALUDA CT NW, ACWORTH, GA, 30101","Match","Exact","5553 SALUDA CT NW, ACWORTH, GA, 30101",17222100,"L"
245443,"5553 UNIT 1 SPRINGHILL DR","ORLANDO","FL",32808,NA,NA,443,"5553 UNIT 1 SPRINGHILL DR, ORLANDO, FL, 32808","No_Match",NA,NA,NA,NA
245444,"55535 FAIRFIELD AVE","PINE CITY","MN",55063,45.7533730120001,-92.980882675,444,"55535 FAIRFIELD AVE, PINE CITY, MN, 55063","Match","Exact","55535 FAIRFIELD AVE, PINE CITY, MN, 55063",611854915,"R"
245445,"5554 53RD STREET","LUBBOCK","TX",79414,33.546236568,-101.934883135,445,"5554 53RD STREET, LUBBOCK, TX, 79414","Match","Exact","5554 53RD ST, LUBBOCK, TX, 79414",185328941,"R"
245446,"5554 BARNES LN","WOODBRIDGE","VA",22193,38.629122249,-77.375232737,446,"5554 BARNES LN, WOODBRIDGE, VA, 22193","Match","Exact","5554 BARNES LN, WOODBRIDGE, VA, 22193",640846300,"R"
245447,"5554 CLAYTON ROAD ROOM 4","CONCORD","CA",94521,37.948768079,-121.951039455,447,"5554 CLAYTON ROAD ROOM 4, CONCORD, CA, 94521","Match","Exact","5554 CLAYTON RD, CONCORD, CA, 94521",607799852,"R"
245448,"5554 HARRY HINES BLVD","DALLAS","TX",75235,32.814640964,-96.840803184,448,"5554 HARRY HINES BLVD, DALLAS, TX, 75235","Match","Exact","5554 HARRY HINES BLVD, DALLAS, TX, 75235",103200663,"R"
245449,"5554 MAYFAIR DR","PENSACOLA","FL",32506,30.414408473,-87.290907374,449,"5554 MAYFAIR DR, PENSACOLA, FL, 32506","Match","Exact","5554 MAYFAIR DR, PENSACOLA, FL, 32506",93213866,"R"
245450,"5554 OLD CLARKSVILLE RD","RENO","TX",75462,33.6525340470001,-95.482123501,450,"5554 OLD CLARKSVILLE RD, RENO, TX, 75462","Match","Exact","5554 OLD CLARKSVILLE RD, RENO, TX, 75462",63587714,"L"
245451,"5554 RESEDA BLVD SUITE 203","TARZANA","CA",91356,34.171425883,-118.535992203,451,"5554 RESEDA BLVD SUITE 203, TARZANA, CA, 91356","Match","Exact","5554 RESEDA BLVD, TARZANA, CA, 91356",141554930,"R"
245452,"5554 SW 6TH CT","MARGATE","FL",33068,26.223169468,-80.201908287,452,"5554 SW 6TH CT, MARGATE, FL, 33068","Match","Non_Exact","5554 SW 6TH CT, MARGATE, FL, 33068",114693297,"L"
245453,"5554 WALDEN GLEN DRIVE","MURRAY","UT",84123,40.6500805690001,-111.927115016,453,"5554 WALDEN GLEN DRIVE, MURRAY, UT, 84123","Match","Exact","5554 WALDEN GLEN DR, MURRAY, UT, 84123",176128893,"R"
245454,"5555 BROADWAY SUITE 204","AMERICAN CANYON","CA",94503,38.200258326,-122.256288145,454,"5555 BROADWAY SUITE 204, AMERICAN CANYON, CA, 94503","Match","Non_Exact","5555 BROADWAY ST, AMERICAN CANYON, CA, 94503",646905299,"L"
245455,"5555 CLIPPER BAY DRIVE","POWDER SPRINGS","GA",30127,33.921970663,-84.7184903959999,455,"5555 CLIPPER BAY DRIVE, POWDER SPRINGS, GA, 30127","Match","Exact","5555 CLIPPER BAY DR, POWDER SPGS, GA, 30127",17234753,"L"
245456,"5555 COLLINS AVE 6P","MIAMI BEACH","FL",33140,25.8356383350001,-80.120770051,456,"5555 COLLINS AVE 6P, MIAMI BEACH, FL, 33140","Match","Exact","5555 COLLINS AVE, MIAMI BEACH, FL, 33140",650070350,"R"
245457,"5555 CONNER SUITE 2612","DETROIT","MI",48213,42.3911891980001,-82.980357853,457,"5555 CONNER SUITE 2612, DETROIT, MI, 48213","Match","Non_Exact","5555 CONNER ST, DETROIT, MI, 48213",95484940,"L"
245458,"5555 COUNTY ROAD 255","WESTCLIFFE","CO",81252,38.198952246,-105.393392933,458,"5555 COUNTY ROAD 255, WESTCLIFFE, CO, 81252","Match","Exact","5555 CO RD 255, WESTCLIFFE, CO, 81252",105432621,"L"
245459,"5555 E MOCKINGBIRD LANE","DALLAS","TX",75206,32.836625086,-96.771764042,459,"5555 E MOCKINGBIRD LANE, DALLAS, TX, 75206","Match","Exact","5555 E MOCKINGBIRD LN, DALLAS, TX, 75206",103235160,"L"
245460,"5555 E MOCKINGBIRD LN APT 1407","DALLAS","TX",75206,32.836625086,-96.771764042,460,"5555 E MOCKINGBIRD LN APT 1407, DALLAS, TX, 75206","Match","Non_Exact","5555 E MOCKINGBIRD LN, DALLAS, TX, 75206",103235160,"L"
245461,"5555 GARDEN AVE","WEST PALM BEACH","FL",33405,26.664336258,-80.0600678329999,461,"5555 GARDEN AVE, WEST PALM BEACH, FL, 33405","Match","Exact","5555 GARDEN AVE, WEST PALM BEACH, FL, 33405",115280396,"R"
245462,"5555 GARDEN GROVE BLVD STE 200","WESTMINSTER","CA",92683,NA,NA,462,"5555 GARDEN GROVE BLVD STE 200, WESTMINSTER, CA, 92683","No_Match",NA,NA,NA,NA
245463,"5555 GLENRIDGE CONNECTOR STE 200","ATLANTA","GA",30342,NA,NA,463,"5555 GLENRIDGE CONNECTOR STE 200, ATLANTA, GA, 30342","No_Match",NA,NA,NA,NA
245464,"5555 LONG PRAIRIE TRACE  APT 431","RICHMOND","TX",77407,29.674201673,-95.7522013829999,464,"5555 LONG PRAIRIE TRACE  APT 431, RICHMOND, TX, 77407","Match","Exact","5555 LONG PRAIRIE TRCE, RICHMOND, TX, 77407",648937088,"L"
245465,"5555 LONG PRAIRIE TRACE 1412","RICHMOND","TX",77407,29.674201673,-95.7522013829999,465,"5555 LONG PRAIRIE TRACE 1412, RICHMOND, TX, 77407","Match","Exact","5555 LONG PRAIRIE TRCE, RICHMOND, TX, 77407",648937088,"L"
245466,"5555 LONG PRAIRIE TRACE APT 1422","RICHMOND","TX",77407,29.674201673,-95.7522013829999,466,"5555 LONG PRAIRIE TRACE APT 1422, RICHMOND, TX, 77407","Match","Exact","5555 LONG PRAIRIE TRCE, RICHMOND, TX, 77407",648937088,"L"
245467,"5555 MACK LINEBERRY RD","CLIMAX","NC",27233,35.84817745,-79.712371591,467,"5555 MACK LINEBERRY RD, CLIMAX, NC, 27233","Match","Exact","5555 MACK LINEBERRY RD, CLIMAX, NC, 27233",651482923,"L"
245468,"5555 MACK LINEBERRY ROAD","CLIMAX","NC",27233,35.84817745,-79.712371591,468,"5555 MACK LINEBERRY ROAD, CLIMAX, NC, 27233","Match","Exact","5555 MACK LINEBERRY RD, CLIMAX, NC, 27233",651482923,"L"
245469,"5555 N WILBUR AVE","PORTLAND","OR",97217,45.5633068010001,-122.693588092,469,"5555 N WILBUR AVE, PORTLAND, OR, 97217","Match","Exact","5555 N WILBUR AVE, PORTLAND, OR, 97217",157497324,"L"
245470,"5555 NORTH LAMAR BLVD  SUITE J109","AUSTIN","TX",78751,30.3238864040001,-97.727643137,470,"5555 NORTH LAMAR BLVD  SUITE J109, AUSTIN, TX, 78751","Match","Exact","5555 N LAMAR BLVD, AUSTIN, TX, 78751",641885238,"R"
245471,"5555 NORTH LAMAR BLVD SUITE K113","AUSTIN","TX",78751,30.3238864040001,-97.727643137,471,"5555 NORTH LAMAR BLVD SUITE K113, AUSTIN, TX, 78751","Match","Exact","5555 N LAMAR BLVD, AUSTIN, TX, 78751",641885238,"R"
245472,"5555 OAKBROOK PKWY SUITE 100","NORCROSS","GA",30093,33.9192735120001,-84.186739099,472,"5555 OAKBROOK PKWY SUITE 100, NORCROSS, GA, 30093","Match","Exact","5555 OAKBROOK PKWY, NORCROSS, GA, 30093",88935772,"R"
245473,"5555 PATSY CIRCLE WEST","MEMPHIS","TN",38125,34.996858633,-89.8197413139999,473,"5555 PATSY CIRCLE WEST, MEMPHIS, TN, 38125","Match","Exact","5555 PATSY CIR W, MEMPHIS, TN, 38125",72952958,"R"
245474,"5555 POWERS BOULEVARD","PARMA","OH",44129,41.3827393550001,-81.725669463,474,"5555 POWERS BOULEVARD, PARMA, OH, 44129","Match","Exact","5555 POWERS BLVD, PARMA, OH, 44129",638740347,"R"
245475,"5555 ROSWELL ROAD APT F9","ATLANTA","GA",30342,33.9065424950001,-84.3786543589999,475,"5555 ROSWELL ROAD APT F9, ATLANTA, GA, 30342","Match","Exact","5555 ROSWELL RD, ATLANTA, GA, 30342",650096574,"R"
245476,"5555 S EVERETT AVE  C-9","CHICAGO","IL",60637,41.7939622390001,-87.582496308,476,"5555 S EVERETT AVE  C-9, CHICAGO, IL, 60637","Match","Non_Exact","5555 S EVERETT AVE, CHICAGO, IL, 60637",635793543,"L"
245477,"5555 SALEM RD","LITHONIA","GA",30038,33.676282659,-84.162092778,477,"5555 SALEM RD, LITHONIA, GA, 30038","Match","Exact","5555 SALEM RD, LITHONIA, GA, 30038",23389727,"R"
245478,"5555 SAN FELIPE SUITE 200","HOUSTON","TX",77056,29.750066309,-95.4726213119999,478,"5555 SAN FELIPE SUITE 200, HOUSTON, TX, 77056","Match","Non_Exact","5555 SAN FELIPE ST, HOUSTON, TX, 77056",639270237,"L"
245479,"5555 THREE POINTS BLVD","MOUND","MN",55364,44.9471588310001,-93.6644443609999,479,"5555 THREE POINTS BLVD, MOUND, MN, 55364","Match","Exact","5555 THREE POINTS BLVD, MOUND, MN, 55364",43851737,"L"
245480,"5555 TIMBER RIDGE DR","MOUNT VERNON","WA",98273,48.426793133,-122.26921905,480,"5555 TIMBER RIDGE DR, MOUNT VERNON, WA, 98273","Match","Non_Exact","5555 TIMBERRIDGE DR, MOUNT VERNON, WA, 98273",625058340,"L"
245481,"5555 TRANSPORTATION BLVD","CLEVELAND","OH",44125,NA,NA,481,"5555 TRANSPORTATION BLVD, CLEVELAND, OH, 44125","No_Match",NA,NA,NA,NA
245482,"5555 W OLYMPIC BLVD","LOS ANGELES","CA",90036,34.0573238210001,-118.350401381,482,"5555 W OLYMPIC BLVD, LOS ANGELES, CA, 90036","Match","Exact","5555 W OLYMPIC BLVD, LOS ANGELES, CA, 90036",141599308,"R"
245483,"5555 WEST LOOP S STE 600","HOUSTON","TX",77401,NA,NA,483,"5555 WEST LOOP S STE 600, HOUSTON, TX, 77401","No_Match",NA,NA,NA,NA
245484,"5555 WINGSPREAD LANE","NORTH GARDEN","VA",22959,37.9140036690001,-78.697242436,484,"5555 WINGSPREAD LANE, NORTH GARDEN, VA, 22959","Match","Exact","5555 WINGSPREAD LN, NORTH GARDEN, VA, 22959",221723472,"L"
245485,"55555 E STEARNS ST 203","LONG BEACH","CA",90815,NA,NA,485,"55555 E STEARNS ST 203, LONG BEACH, CA, 90815","No_Match",NA,NA,NA,NA
245486,"5556 BRYNWOOD WAY","CHINO HILLS","CA",91709,33.9620210790001,-117.683128295,486,"5556 BRYNWOOD WAY, CHINO HILLS, CA, 91709","Match","Exact","5556 BRYNWOOD WAY, CHINO HILLS, CA, 91709",145002236,"L"
245487,"5556 CANFIELD PLACE NORTH","SEATTLE","WA",98103,47.6696966100001,-122.336014496,487,"5556 CANFIELD PLACE NORTH, SEATTLE, WA, 98103","Match","Exact","5556 CANFIELD PL N, SEATTLE, WA, 98103",186580316,"R"
245488,"5556 CAPISTRANO AVENUE","WOODLAND HLS","CA",91367,34.1715373850001,-118.61675586,488,"5556 CAPISTRANO AVENUE, WOODLAND HLS, CA, 91367","Match","Exact","5556 CAPISTRANO AVE, WOODLAND HILLS, CA, 91367",141534875,"R"
245489,"5556 E 50 N","KOKOMO","IN",46901,40.4847363330001,-86.021992354,489,"5556 E 50 N, KOKOMO, IN, 46901","Match","Exact","5556 E 50 N, KOKOMO, IN, 46901",27285775,"L"
245490,"5556 E VIA MONTOYA DR","PHOENIX","AZ",85054,33.6866809470001,-111.95885029,490,"5556 E VIA MONTOYA DR, PHOENIX, AZ, 85054","Match","Exact","5556 E VIA MONTOYA DR, PHOENIX, AZ, 85054",128959717,"L"
245491,"5556 FOLAND RD","PARADISE","CA",95969,39.750691718,-121.591500611,491,"5556 FOLAND RD, PARADISE, CA, 95969","Match","Exact","5556 FOLAND RD, PARADISE, CA, 95969",636970152,"R"
245492,"5556 GRIFFIN STREET","OAKLAND","CA",94605,37.7854948950001,-122.176301247,492,"5556 GRIFFIN STREET, OAKLAND, CA, 94605","Match","Exact","5556 GRIFFIN ST, OAKLAND, CA, 94605",642189183,"L"
245493,"5556 HALIFAX COURT","DENVER","CO",80249,39.79664963,-104.755002524,493,"5556 HALIFAX COURT, DENVER, CO, 80249","Match","Non_Exact","5556 N HALIFAX CT, DENVER, CO, 80249",606088808,"R"
245494,"5556 S JERICHO WAY","CENTENNIAL","CO",80015,39.6155688360001,-104.74960903,494,"5556 S JERICHO WAY, CENTENNIAL, CO, 80015","Match","Exact","5556 S JERICHO WAY, CENTENNIAL, CO, 80015",177360567,"L"
245495,"5557 BALTIMORE AVE SUITE 500-2082","HYATTSVILLE","MD",20781,38.9560119060001,-76.940136368,495,"5557 BALTIMORE AVE SUITE 500-2082, HYATTSVILLE, MD, 20781","Match","Exact","5557 BALTIMORE AVE, HYATTSVILLE, MD, 20781",638959243,"L"
245496,"5557 BALTIMORE AVENUE STE 500-1020","HYATTSVILLE","MD",20781,38.9560119060001,-76.940136368,496,"5557 BALTIMORE AVENUE STE 500-1020, HYATTSVILLE, MD, 20781","Match","Exact","5557 BALTIMORE AVE, HYATTSVILLE, MD, 20781",638959243,"L"
245497,"5557 GOVERNMENT ST","BATON ROUGE","LA",70806,30.444637399,-91.132823006,497,"5557 GOVERNMENT ST, BATON ROUGE, LA, 70806","Match","Exact","5557 GOVERNMENT ST, BATON ROUGE, LA, 70806",92189151,"L"
245498,"5557 HEATH ROW DR","BIRMINGHAM","AL",35242,33.3991425070001,-86.698024733,498,"5557 HEATH ROW DR, BIRMINGHAM, AL, 35242","Match","Exact","5557 HEATH ROW DR, BIRMINGHAM, AL, 35242",82083704,"R"
245499,"5558 DECLARE DRIVE","JACKSON","MS",39209,NA,NA,499,"5558 DECLARE DRIVE, JACKSON, MS, 39209","No_Match",NA,NA,NA,NA
245500,"5558 E LEITNER DR","CORAL SPRINGS","FL",33067,26.29962234,-80.225416062,500,"5558 E LEITNER DR, CORAL SPRINGS, FL, 33067","Match","Exact","5558 E LEITNER DR, CORAL SPRINGS, FL, 33067",114785810,"L"
