"ID","Address","City","State","Zip","lat","long","id","input_address","match_indicator","match_type","matched_address","tiger_line_id","tiger_side"
322001,"9964 GRANITE CREST CT","GRANITE BAY","CA",95746,38.7171776810001,-121.191576141,1,"9964 GRANITE CREST CT, GRANITE BAY, CA, 95746","Match","Exact","9964 GRANITE CREST CT, GRANITE BAY, CA, 95746",106813346,"R"
322002,"9964 HIGHWAY 73 / PO BOX 565","MANDAREE","ND",58757,NA,NA,2,"9964 HIGHWAY 73 / PO BOX 565, MANDAREE, ND, 58757","No_Match",NA,NA,NA,NA
322003,"9964 LODESTONE DR","BRENTWOOD","TN",37027,35.974754853,-86.716575107,3,"9964 LODESTONE DR, BRENTWOOD, TN, 37027","Match","Exact","9964 LODESTONE DR, BRENTWOOD, TN, 37027",631951077,"L"
322004,"9965 RIVERTOWN ROAD","FAIRBURN","GA",30268,33.5922816610001,-84.715159581,4,"9965 RIVERTOWN ROAD, FAIRBURN, GA, 30268","Match","Non_Exact","9965 RIVERTOWN RD, FAIRBURN, GA, 30213",17330675,"R"
322005,"9966 BLEEDING HEART AVE","LAS VEGAS","NV",89178,36.0321612830001,-115.311199861,5,"9966 BLEEDING HEART AVE, LAS VEGAS, NV, 89178","Match","Exact","9966 BLEEDING HEART AVE, LAS VEGAS, NV, 89178",650642065,"L"
322006,"9966 DARTMOUTH DR","FRISCO","TX",75035,33.1875494180001,-96.795096789,6,"9966 DARTMOUTH DR, FRISCO, TX, 75035","Match","Exact","9966 DARTMOUTH DR, FRISCO, TX, 75035",615162020,"R"
322007,"9966 N BOGUS BASIN RD","BOISE","ID",83702,43.693489056,-116.173554818,7,"9966 N BOGUS BASIN RD, BOISE, ID, 83702","Match","Exact","9966 BOGUS BASIN RD, BOISE, ID, 83702",642015624,"L"
322008,"9966 NORHILL HEIGHTS LN","BROOKSHIRE","TX",77423,29.7659953780001,-95.894053894,8,"9966 NORHILL HEIGHTS LN, BROOKSHIRE, TX, 77423","Match","Exact","9966 NORHILL HEIGHTS LN, BROOKSHIRE, TX, 77423",648068732,"R"
322009,"9966 PASEO MONTALBAN","SAN DIEGO","CA",92129,32.963864593,-117.114707713,9,"9966 PASEO MONTALBAN, SAN DIEGO, CA, 92129","Match","Non_Exact","9966 PSO MONTALBAN, SAN DIEGO, CA, 92129",195318495,"L"
322010,"9966 SW 78TH LANE","OCALA","FL",34481,29.107836768,-82.2849351839999,10,"9966 SW 78TH LANE, OCALA, FL, 34481","Match","Exact","9966 SW 78TH LN, OCALA, FL, 34481",647043843,"R"
322011,"9966 VINEYARD LAKE RD E","JACKSONVILLE","FL",32256,30.1876535150001,-81.5262216629999,11,"9966 VINEYARD LAKE RD E, JACKSONVILLE, FL, 32256","Match","Exact","9966 VINEYARD LAKE RD E, JACKSONVILLE, FL, 32256",83943129,"R"
322012,"9967 OCEAN HIGHWAY","PAWLEYS ISLAND","SC",29585,33.4349788370001,-79.134837094,12,"9967 OCEAN HIGHWAY, PAWLEYS ISLAND, SC, 29585","Match","Exact","9967 OCEAN HWY, PAWLEYS ISLAND, SC, 29585",638503565,"L"
322013,"9968 FARMVIEW CT","MIAMISBURG","OH",45342,39.6027617080001,-84.213700871,13,"9968 FARMVIEW CT, MIAMISBURG, OH, 45342","Match","Exact","9968 FARMVIEW CT, MIAMISBURG, OH, 45342",143603507,"L"
322014,"9968 SW 224TH ST","MIAMI","FL",33190,NA,NA,14,"9968 SW 224TH ST, MIAMI, FL, 33190","Tie",NA,NA,NA,NA
322015,"99689 KAHILINNI PL","AIEA","HI",96701,NA,NA,15,"99689 KAHILINNI PL, AIEA, HI, 96701","No_Match",NA,NA,NA,NA
322016,"9969 GOODLUCK RD - SUITE 204","LANHAM","MD",20706,38.9946443440001,-76.834710167,16,"9969 GOODLUCK RD - SUITE 204, LANHAM, MD, 20706","Match","Non_Exact","9969 GOOD LUCK RD, LANHAM, MD, 20706",641062771,"R"
322017,"997 CALVERY ESKEW RD","MART","TX",76664,31.5574013130001,-96.843888259,17,"997 CALVERY ESKEW RD, MART, TX, 76664","Match","Exact","997 CALVERY ESKEW RD, MART, TX, 76664",146774036,"L"
322018,"997 DONHAM DRIVE","BEAVERCREEK","OH",45434,39.714875034,-84.003969879,18,"997 DONHAM DRIVE, BEAVERCREEK, OH, 45434","Match","Exact","997 DONHAM DR, BEAVERCREEK, OH, 45434",143417310,"L"
322019,"997 EAST 19TH STREET","BROOKLYN","NY",11230,40.626380086,-73.9577358349999,19,"997 EAST 19TH STREET, BROOKLYN, NY, 11230","Match","Exact","997 E 19TH ST, BROOKLYN, NY, 11230",59081287,"L"
322020,"997 FOREST KNOLL CT","LITHIA SPRINGS","GA",30122,33.747083844,-84.6072584569999,20,"997 FOREST KNOLL CT, LITHIA SPRINGS, GA, 30122","Match","Exact","997 FOREST KNOLL CT, LITHIA SPGS, GA, 30122",618471305,"R"
322021,"997 HOOVER ROAD","HAMPSTEAD","NC",28443,34.383917291,-77.711590523,21,"997 HOOVER ROAD, HAMPSTEAD, NC, 28443","Match","Exact","997 HOOVER RD, HAMPSTEAD, NC, 28443",14137089,"L"
322022,"997 HUCKLEBERRY RD","NORTH BELLMORE","NY",11710,40.6962532520001,-73.534740089,22,"997 HUCKLEBERRY RD, NORTH BELLMORE, NY, 11710","Match","Exact","997 HUCKLEBERRY RD, N BELLMORE, NY, 11710",147636245,"L"
322023,"997 JOHNNIE DODDS BLVD APT 516","MOUNT PLEASANT","SC",29464,NA,NA,23,"997 JOHNNIE DODDS BLVD APT 516, MOUNT PLEASANT, SC, 29464","No_Match",NA,NA,NA,NA
322024,"997 LOCH FOREST  WAY","RIVERDALE","GA",30296,33.5441629000001,-84.424851955,24,"997 LOCH FOREST  WAY, RIVERDALE, GA, 30296","Match","Exact","997 LOCH FOREST WAY, RIVERDALE, GA, 30296",632647094,"R"
322025,"997 S PALAFOX ST","PENSACOLA","FM",32502,NA,NA,25,"997 S PALAFOX ST, PENSACOLA, FM, 32502","No_Match",NA,NA,NA,NA
322026,"997 TERRA CALIFORNIA DRIVE 4","WALNUT CREEK","CA",94595,37.869433556,-122.071129559,26,"997 TERRA CALIFORNIA DRIVE 4, WALNUT CREEK, CA, 94595","Match","Exact","997 TERRA CALIFORNIA DR, WALNUT CREEK, CA, 94595",192052613,"L"
322027,"997 TIMBER DRIVE","NEW BRAUNFELS","TX",78130,29.7085137170001,-98.1603936079999,27,"997 TIMBER DRIVE, NEW BRAUNFELS, TX, 78130","Match","Exact","997 TIMBER DR, NEW BRAUNFELS, TX, 78130",72244663,"R"
322028,"997 UNION RD","WEST SENECA","NY",14224,42.828327605,-78.753458651,28,"997 UNION RD, WEST SENECA, NY, 14224","Match","Exact","997 UNION RD, WEST SENECA, NY, 14224",48304858,"R"
322029,"9970 WINKLE CIRCLE","ELK GROVE","CA",95757,NA,NA,29,"9970 WINKLE CIRCLE, ELK GROVE, CA, 95757","No_Match",NA,NA,NA,NA
322030,"9971 COTTONCREEK DR","HIGHLANDS RANCH","CO",80130,39.5337492360001,-104.90558068,30,"9971 COTTONCREEK DR, HIGHLANDS RANCH, CO, 80130","Match","Exact","9971 COTTONCREEK DR, HIGHLANDS RANCH, CO, 80130",130819440,"R"
322031,"9971 CYRANDALL DR","OAKTON","VA",22124,38.8741922340001,-77.2907528059999,31,"9971 CYRANDALL DR, OAKTON, VA, 22124","Match","Exact","9971 CYRANDALL DR, OAKTON, VA, 22124",618645080,"L"
322032,"9971 WING STREET","CONROE","TX",77385,30.2133265000001,-95.423513014,32,"9971 WING STREET, CONROE, TX, 77385","Match","Exact","9971 WING ST, CONROE, TX, 77385",641138389,"L"
322033,"9971 WOLF LOG RD","FLOMATON","AL",36441,31.0706434260001,-87.321000036,33,"9971 WOLF LOG RD, FLOMATON, AL, 36441","Match","Exact","9971 WOLF LOG RD, FLOMATON, AL, 36441",1929892,"R"
322034,"9972 BRAZOS BEND STREET","LAS VEGAS","NV",89178,36.007337723,-115.290573183,34,"9972 BRAZOS BEND STREET, LAS VEGAS, NV, 89178","Match","Non_Exact","9972 S BRAZOS BEND ST, LAS VEGAS, NV, 89178",627348271,"R"
322035,"9972 LEANDER LANE","MANASSAS","VA",20110,38.739720963,-77.4551224589999,35,"9972 LEANDER LANE, MANASSAS, VA, 20110","Match","Exact","9972 LEANDER LN, MANASSAS, VA, 20110",651141533,"L"
322036,"9972 SCRIPPS RANCH BLVD","SAN DIEGO","CA",92131,32.903350129,-117.098644825,36,"9972 SCRIPPS RANCH BLVD, SAN DIEGO, CA, 92131","Match","Exact","9972 SCRIPPS RANCH BLVD, SAN DIEGO, CA, 92131",195319495,"L"
322037,"9972 WESTMINSTER AVE 108","GARDEN GROVE","CA",92844,33.759529306,-117.95572457,37,"9972 WESTMINSTER AVE 108, GARDEN GROVE, CA, 92844","Match","Non_Exact","9972 WESTMINISTER BLVD, GARDEN GROVE, CA, 92844",144089742,"R"
322038,"9974 NEW HOPE RD","GALT","CA",95632,38.247367567,-121.324874964,38,"9974 NEW HOPE RD, GALT, CA, 95632","Match","Exact","9974 NEW HOPE RD, GALT, CA, 95632",133365575,"R"
322039,"9974 RIO DOSO","DALLAS","TX",75227,32.7668028730001,-96.6492019629999,39,"9974 RIO DOSO, DALLAS, TX, 75227","Match","Non_Exact","9974 RIO DOSO DR, DALLAS, TX, 75227",619124340,"R"
322040,"9974 SCRIPPS RANCH BLVD NUMBER 232","SAN DIEGO","CA",92131,32.903361633,-117.098655178,40,"9974 SCRIPPS RANCH BLVD NUMBER 232, SAN DIEGO, CA, 92131","Match","Exact","9974 SCRIPPS RANCH BLVD, SAN DIEGO, CA, 92131",195319495,"L"
322041,"9974 SCRIPPS RANCH BOULEVARD 279","SAN DIEGO","CA",92131,32.903361633,-117.098655178,41,"9974 SCRIPPS RANCH BOULEVARD 279, SAN DIEGO, CA, 92131","Match","Exact","9974 SCRIPPS RANCH BLVD, SAN DIEGO, CA, 92131",195319495,"L"
322042,"9975 N STATE RD 67","WORTHINGTON","IN",47471,39.1628362710001,-86.929754429,42,"9975 N STATE RD 67, WORTHINGTON, IN, 47471","Match","Exact","9975 STATE RD 67, WORTHINGTON, IN, 47471",39297435,"L"
322043,"9975 WADSWORTH PKWY UNIT K-2 235","WESTMINSTER","CO",80021,39.877364678,-105.095572244,43,"9975 WADSWORTH PKWY UNIT K-2 235, WESTMINSTER, CO, 80021","Match","Exact","9975 WADSWORTH PKWY, WESTMINSTER, CO, 80021",647332583,"L"
322044,"9976 FULTON RD","MARSHALLVILLE","OH",44645,40.901936608,-81.796483746,44,"9976 FULTON RD, MARSHALLVILLE, OH, 44645","Match","Exact","9976 FULTON RD, MARSHALLVILLE, OH, 44645",633563303,"L"
322045,"9977 BURGUNDY OAKS DR","SHREVEPORT","LA",71118,32.377037123,-93.795669085,45,"9977 BURGUNDY OAKS DR, SHREVEPORT, LA, 71118","Match","Exact","9977 BURGUNDY OAKS DR, SHREVEPORT, LA, 71118",652007351,"R"
322046,"9977 GOODLUCK RD APT 101","LANHAM","MD",20706,38.9949606280001,-76.8344423029999,46,"9977 GOODLUCK RD APT 101, LANHAM, MD, 20706","Match","Non_Exact","9977 GOOD LUCK RD, LANHAM, MD, 20706",641062771,"R"
322047,"9978 E PLACITA DELAS PALMERITAS","TUCSON","AZ",85747,NA,NA,47,"9978 E PLACITA DELAS PALMERITAS, TUCSON, AZ, 85747","No_Match",NA,NA,NA,NA
322048,"9978 PEBBLE BEACH CV","AURORA","OH",44202,41.3307599080001,-81.393056439,48,"9978 PEBBLE BEACH CV, AURORA, OH, 44202","Match","Exact","9978 PEBBLE BEACH COVE, AURORA, OH, 44202",61373368,"R"
322049,"9979 164TH ROAD","HOWARD BEACH","NY",11414,NA,NA,49,"9979 164TH ROAD, HOWARD BEACH, NY, 11414","No_Match",NA,NA,NA,NA
322050,"9979 OLD MILL ROAD","ELLICOTT CITY","MD",21042,39.3002097830001,-76.8546532,50,"9979 OLD MILL ROAD, ELLICOTT CITY, MD, 21042","Match","Exact","9979 OLD MILL RD, ELLICOTT CITY, MD, 21042",635796134,"R"
322051,"9979 SE OSPREY POINTE DRIVE","HOBE SOUND","FL",33455,27.0818880750001,-80.136559378,51,"9979 SE OSPREY POINTE DRIVE, HOBE SOUND, FL, 33455","Match","Exact","9979 SE OSPREY POINTE DR, HOBE SOUND, FL, 33455",120437285,"L"
322052,"9979 SW 41ST WAY","JASPER","FL",32052,30.5164570970001,-82.977994973,52,"9979 SW 41ST WAY, JASPER, FL, 32052","Match","Exact","9979 SW 41ST WAY, JASPER, FL, 32052",605975044,"R"
322053,"998 6TH AVE  PO BOX 4803","YUMA","AZ",85364,32.709534825,-114.627038489,53,"998 6TH AVE  PO BOX 4803, YUMA, AZ, 85364","Match","Non_Exact","998 S 6TH AVE, YUMA, AZ, 85364",129625318,"R"
322054,"998 AZALEA DRIVE","COSTA MESA","CA",92626,33.695897502,-117.897894804,54,"998 AZALEA DRIVE, COSTA MESA, CA, 92626","Match","Exact","998 AZALEA DR, COSTA MESA, CA, 92626",144043276,"R"
322055,"998 CHERRY LAUREL DRIVE","LITHONIA","GA",30058,33.7591153430001,-84.130860432,55,"998 CHERRY LAUREL DRIVE, LITHONIA, GA, 30058","Match","Exact","998 CHERRY LAUREL DR, LITHONIA, GA, 30058",23381846,"R"
322056,"998 COLE DRIVE","LILBURN","GA",30047,33.8584394060001,-84.115533549,56,"998 COLE DRIVE, LILBURN, GA, 30047","Match","Non_Exact","998 COLE DR SW, LILBURN, GA, 30047",88887368,"L"
322057,"998 DIXON RD","BOULDER","CO",80302,40.055349834,-105.413786486,57,"998 DIXON RD, BOULDER, CO, 80302","Match","Exact","998 DIXON RD, BOULDER, CO, 80302",220759118,"R"
322058,"998 HIGHWAY 19 41 UNIT 753","HAMPTON","GA",30228,NA,NA,58,"998 HIGHWAY 19 41 UNIT 753, HAMPTON, GA, 30228","No_Match",NA,NA,NA,NA
322059,"998 HIGHWAY 1941 UNIT 1791","HAMPTON","GA",30228,NA,NA,59,"998 HIGHWAY 1941 UNIT 1791, HAMPTON, GA, 30228","No_Match",NA,NA,NA,NA
322060,"998 HOLDERNESS LANE","CINCINNATI","OH",45240,39.2950935480001,-84.516239361,60,"998 HOLDERNESS LANE, CINCINNATI, OH, 45240","Match","Exact","998 HOLDERNESS LN, CINCINNATI, OH, 45240",103959755,"R"
322061,"998 HWY 19 41 1301","HAMPTON","GA",30228,NA,NA,61,"998 HWY 19 41 1301, HAMPTON, GA, 30228","No_Match",NA,NA,NA,NA
322062,"998 INDIANA AVENUE","MONACA","PA",15061,40.693015793,-80.2791351989999,62,"998 INDIANA AVENUE, MONACA, PA, 15061","Match","Exact","998 INDIANA AVE, MONACA, PA, 15061",52565019,"R"
322063,"998 JARDIN DRIVE","NAPLES","FL",34104,26.1448714470001,-81.73987214,63,"998 JARDIN DRIVE, NAPLES, FL, 34104","Match","Exact","998 JARDIN DR, NAPLES, FL, 34104",619116996,"R"
322064,"998 LOST LAKE LN","VIDOR","TX",77662,30.136600555,-93.942743177,64,"998 LOST LAKE LN, VIDOR, TX, 77662","Match","Exact","998 LOST LAKE LN, VIDOR, TX, 77662",74018052,"R"
322065,"998 MAYFAIR COURT","DUBUQUE","IA",52003,42.4761315630001,-90.674561021,65,"998 MAYFAIR COURT, DUBUQUE, IA, 52003","Match","Exact","998 MAYFAIR CT, DUBUQUE, IA, 52003",16910025,"L"
322066,"998 N DOUGLAS DRIVE","CLAREMORE","OK",74017,36.314744316,-95.590864053,66,"998 N DOUGLAS DRIVE, CLAREMORE, OK, 74017","Match","Exact","998 N DOUGLAS DR, CLAREMORE, OK, 74017",20703910,"R"
322067,"998 N EVERGREEN DRIVE","JASPER","IN",47546,38.393577216,-86.9854445129999,67,"998 N EVERGREEN DRIVE, JASPER, IN, 47546","Match","Non_Exact","998 EVERGREEN LN, JASPER, IN, 47546",608315912,"L"
322068,"998 OAK PARK","SCHERTZ","TX",78154,29.571326647,-98.268001703,68,"998 OAK PARK, SCHERTZ, TX, 78154","Match","Exact","998 OAK PARK, SCHERTZ, TX, 78154",634104438,"R"
322069,"998 RICHLAND DR","IDAHO FALLS","ID",83401,43.5043716420001,-111.945073937,69,"998 RICHLAND DR, IDAHO FALLS, ID, 83401","Match","Exact","998 RICHLAND DR, IDAHO FALLS, ID, 83401",618118635,"L"
322070,"998 ROSEDALE DRIVE","HARRISONBURG","VA",22801,38.410906921,-78.8618400029999,70,"998 ROSEDALE DRIVE, HARRISONBURG, VA, 22801","Match","Exact","998 ROSEDALE DR, HARRISONBURG, VA, 22801",55739687,"R"
322071,"998 TUMBLEWOOD TRAIL","LAWRENCEVILLE","GA",30044,33.9259337600001,-84.1218526659999,71,"998 TUMBLEWOOD TRAIL, LAWRENCEVILLE, GA, 30044","Match","Exact","998 TUMBLEWOOD TRL, LAWRENCEVILLE, GA, 30044",88886090,"R"
322072,"998 US-19 41 UNIT 876","HAMPTON","GA",30228,NA,NA,72,"998 US-19 41 UNIT 876, HAMPTON, GA, 30228","No_Match",NA,NA,NA,NA
322073,"998 WEST RICHLAND CIRCLE","AUBURN","AL",36832,32.628038755,-85.537964463,73,"998 WEST RICHLAND CIRCLE, AUBURN, AL, 36832","Match","Exact","998 W RICHLAND CIR, AUBURN, AL, 36832",650051646,"L"
322074,"9980 ARROW RTE APT E","RANCHO CUCAMONGA","CA",91730,34.099301989,-117.58672346,74,"9980 ARROW RTE APT E, RANCHO CUCAMONGA, CA, 91730","Match","Exact","9980 ARROW RTE, RANCHO CUCAMONGA, CA, 91730",144635889,"L"
322075,"9980 CENTRAL PARK BLV N STE 116","BOCA RATON","FL",33428,NA,NA,75,"9980 CENTRAL PARK BLV N STE 116, BOCA RATON, FL, 33428","No_Match",NA,NA,NA,NA
322076,"9980 CLARK DR","NORTHGLENN","CO",80260,39.8779918710001,-104.99174106,76,"9980 CLARK DR, NORTHGLENN, CO, 80260","Match","Exact","9980 CLARK DR, NORTHGLENN, CO, 80260",177296337,"R"
322077,"9980 E BUCKSHOT CIR","TUCSON","AZ",85749,32.2478245460001,-110.779088464,77,"9980 E BUCKSHOT CIR, TUCSON, AZ, 85749","Match","Exact","9980 BUCKSHOT CIR, TUCSON, AZ, 85749",121188070,"L"
322078,"9980 FIELDING","DETROIT","MI",48228,42.3682173290001,-83.241102989,78,"9980 FIELDING, DETROIT, MI, 48228","Match","Non_Exact","9980 FIELDING ST, DETROIT, MI, 48228",95438641,"R"
322079,"9980 HORN ROAD","SACRAMENTO","CA",95827,38.5769138260001,-121.322663069,79,"9980 HORN ROAD, SACRAMENTO, CA, 95827","Match","Exact","9980 HORN RD, SACRAMENTO, CA, 95827",133347728,"L"
322080,"9980 LOBLOLLY TER","AMELIA COURT HOUSE","VA",23002,37.354356851,-77.8957958779999,80,"9980 LOBLOLLY TER, AMELIA COURT HOUSE, VA, 23002","Match","Exact","9980 LOBLOLLY TER, AMELIA COURT HOUSE, VA, 23002",614166710,"R"
322081,"9980 N 4000 W","CEDAR HILLS","UT",84062,40.411752381,-111.754326962,81,"9980 N 4000 W, CEDAR HILLS, UT, 84062","Match","Exact","9980 N 4000 W, CEDAR HILLS, UT, 84062",646300660,"L"
322082,"9980 S 300 W SUITE 200","SANDY","UT",84070,40.570286471,-111.900782886,82,"9980 S 300 W SUITE 200, SANDY, UT, 84070","Match","Non_Exact","9980 S 300 W, SANDY, UT, 84070",176085926,"R"
322083,"9980 SE 40TH STREET","MERCER ISLAND","WA",98040,47.5744975310001,-122.206202778,83,"9980 SE 40TH STREET, MERCER ISLAND, WA, 98040","Match","Exact","9980 SE 40TH ST, MERCER ISLAND, WA, 98040",186954912,"L"
322084,"9980 SOUTH 300 WEST SUITE 200","SANDY","UT",84070,40.570316577,-111.900782729,84,"9980 SOUTH 300 WEST SUITE 200, SANDY, UT, 84070","Match","Exact","9980 S 300 W, SANDY, UT, 84070",176085926,"R"
322085,"9981 14 MILE RD NE","ROCKFORD","MI",49341,43.1763219170001,-85.42326407,85,"9981 14 MILE RD NE, ROCKFORD, MI, 49341","Match","Exact","9981 14 MILE RD NE, ROCKFORD, MI, 49341",624888099,"L"
322086,"9981 CITY VIEW DR","MORRISON","CO",80465,39.5344194200001,-105.229367914,86,"9981 CITY VIEW DR, MORRISON, CO, 80465","Match","Exact","9981 CITY VIEW DR, MORRISON, CO, 80465",177783550,"L"
322087,"9981 N STAGELINE TRAIL","TUCSON","AZ",85742,32.387492939,-111.044846478,87,"9981 N STAGELINE TRAIL, TUCSON, AZ, 85742","Match","Exact","9981 N STAGELINE TRL, TUCSON, AZ, 85742",121384027,"L"
322088,"9981 TUSCARORA RD","RANDALLSTOWN","MD",21133,39.3854869400001,-76.8260222929999,88,"9981 TUSCARORA RD, RANDALLSTOWN, MD, 21133","Match","Exact","9981 TUSCARORA RD, RANDALLSTOWN, MD, 21133",191463041,"R"
322089,"9981 W 190TH STREET SUITE K","MOKENA","IL",60448,41.544732647,-87.860286222,89,"9981 W 190TH STREET SUITE K, MOKENA, IL, 60448","Match","Exact","9981 190TH ST, MOKENA, IL, 60448",111628276,"R"
322090,"9984 VILLAGE GRREN DRIVE","WOODSTOCK","MD",21163,39.3519865850001,-76.827176451,90,"9984 VILLAGE GRREN DRIVE, WOODSTOCK, MD, 21163","Match","Non_Exact","9984 VILLAGE GREEN DR, WOODSTOCK, MD, 21163",191551396,"R"
322091,"9985 BALTIMORE NATIONAL PIKE","MEYERSVILLE","MD",21773,39.5070373900001,-77.555240265,91,"9985 BALTIMORE NATIONAL PIKE, MEYERSVILLE, MD, 21773","Match","Non_Exact","9985 BALTIMORE NATIONAL PIKE, MYERSVILLE, MD, 21773",638668697,"R"
322092,"9985 E HWY 56","WINDOM","TX",75492,NA,NA,92,"9985 E HWY 56, WINDOM, TX, 75492","Tie",NA,NA,NA,NA
322093,"9985 ERNST ROAD","COULTERVILLE","CA",95311,37.7246485410001,-120.123993118,93,"9985 ERNST ROAD, COULTERVILLE, CA, 95311","Match","Exact","9985 ERNST RD, COULTERVILLE, CA, 95311",102461825,"L"
322094,"9985 HWY 441 NORTH","OKEECHOBEE","FL",34972,NA,NA,94,"9985 HWY 441 NORTH, OKEECHOBEE, FL, 34972","No_Match",NA,NA,NA,NA
322095,"9985 W 105TH AVE","WESTMINSTER","CO",80021,39.886845943,-105.109128037,95,"9985 W 105TH AVE, WESTMINSTER, CO, 80021","Match","Exact","9985 W 105TH AVE, WESTMINSTER, CO, 80021",177800209,"L"
322096,"9986 CYPRESS BEND DRIVE","OLIVE BRANCH","MS",38654,34.91296987,-89.812979131,96,"9986 CYPRESS BEND DRIVE, OLIVE BRANCH, MS, 38654","Match","Exact","9986 CYPRESS BEND DR, OLIVE BRANCH, MS, 38654",620639173,"L"
322097,"9987 S STATE HWY 94","TRINITY","TX",75862,30.9997130260001,-95.306452395,97,"9987 S STATE HWY 94, TRINITY, TX, 75862","Match","Exact","9987 STATE HWY 94, TRINITY, TX, 75862",24377624,"R"
322098,"9987 VIA DAROCA","SAN DIEGO","CA",92129,32.965236657,-117.115346669,98,"9987 VIA DAROCA, SAN DIEGO, CA, 92129","Match","Exact","9987 VIA DAROCA, SAN DIEGO, CA, 92129",195318476,"L"
322099,"9988 HILLVIEW DR","PENSACOLA","FL",32514,30.540540026,-87.22041548,99,"9988 HILLVIEW DR, PENSACOLA, FL, 32514","Match","Exact","9988 HILLVIEW DR, PENSACOLA, FL, 32514",93268961,"R"
322100,"9988 WINDMILL LAKES BLVD  STE 2208","HOUSTON","TX",77075,29.6198081800001,-95.2418805789999,100,"9988 WINDMILL LAKES BLVD  STE 2208, HOUSTON, TX, 77075","Match","Exact","9988 WINDMILL LAKES BLVD, HOUSTON, TX, 77075",649081419,"L"
322101,"9989 S  BEVERLY AVE","CHICAGO","IL",60643,41.7117534330001,-87.658469531,101,"9989 S  BEVERLY AVE, CHICAGO, IL, 60643","Match","Exact","9989 S BEVERLY AVE, CHICAGO, IL, 60643",111823123,"L"
322102,"998C OLD COUNTRY RD 203","PLAINVIEW","NY",11803,40.77536689,-73.47403478,102,"998C OLD COUNTRY RD 203, PLAINVIEW, NY, 11803","Match","Exact","998 OLD COUNTRY RD, PLAINVIEW, NY, 11803",147642799,"R"
322103,"999 ABERDEEN","BAY SHORE","NY",11706,40.716765364,-73.275143124,103,"999 ABERDEEN, BAY SHORE, NY, 11706","Match","Non_Exact","999 ABERDEEN RD, BAY SHORE, NY, 11706",113994792,"L"
322104,"999 BAKER WAY STE 500","SAN MATEO","CA",94404,37.5590347670001,-122.285496467,104,"999 BAKER WAY STE 500, SAN MATEO, CA, 94404","Match","Exact","999 BAKER WAY, SAN MATEO, CA, 94404",192401641,"L"
322105,"999 BARNETT BEND CIRCLE","BRANDON","MS",39047,32.372852859,-90.0512168829999,105,"999 BARNETT BEND CIRCLE, BRANDON, MS, 39047","Match","Exact","999 BARNETT BEND CIR, BRANDON, MS, 39047",116913457,"R"
322106,"999 BISHOP STREET SUITE 2600","HONOLULU","HI",96813,21.3084426500001,-157.861595793,106,"999 BISHOP STREET SUITE 2600, HONOLULU, HI, 96813","Match","Exact","999 BISHOP ST, HONOLULU, HI, 96813",203236043,"R"
322107,"999 BROADWAY SUITE 103","SAUGUS","MA",1906,42.474143903,-71.0241718239999,107,"999 BROADWAY SUITE 103, SAUGUS, MA, 1906","Match","Exact","999 BROADWAY, SAUGUS, MA, 01906",86692950,"R"
322108,"999 BROADWAY SUITE 500E","SAUGUS","MA",1906,42.474143903,-71.0241718239999,108,"999 BROADWAY SUITE 500E, SAUGUS, MA, 1906","Match","Exact","999 BROADWAY, SAUGUS, MA, 01906",86692950,"R"
322109,"999 CENTER ROAD","SOMIS","CA",93066,34.2728667760001,-119.095803721,109,"999 CENTER ROAD, SOMIS, CA, 93066","Match","Exact","999 CENTER RD, SOMIS, CA, 93066",110051259,"L"
322110,"999 CHARWOOD DRIVE","LEXINGTON","KY",40515,37.952248985,-84.492724279,110,"999 CHARWOOD DRIVE, LEXINGTON, KY, 40515","Match","Exact","999 CHARWOOD DR, LEXINGTON, KY, 40515",31939278,"L"
322111,"999 CORPORATE DRIVE SUITE 100","LADERA RANCH","CA",92694,NA,NA,111,"999 CORPORATE DRIVE SUITE 100, LADERA RANCH, CA, 92694","No_Match",NA,NA,NA,NA
322112,"999 CROSSWATER PKWY BOX 4","PONTE VEDRA","FL",32081,30.1032102830001,-81.414132826,112,"999 CROSSWATER PKWY BOX 4, PONTE VEDRA, FL, 32081","Match","Exact","999 CROSSWATER PKWY, PONTE VEDRA, FL, 32081",648042078,"R"
322113,"999 E BASSE RD SUITE 180 NO 118","SAN ANTONIO","TX",78209,29.496839391,-98.469741721,113,"999 E BASSE RD SUITE 180 NO 118, SAN ANTONIO, TX, 78209","Match","Non_Exact","999 BASSE RD E, SAN ANTONIO, TX, 78209",101568845,"L"
322114,"999 EVELYN TER W APT 67","SUNNYVALE","CA",94086,37.371253209,-122.007679444,114,"999 EVELYN TER W APT 67, SUNNYVALE, CA, 94086","Match","Exact","999 EVELYN TER W, SUNNYVALE, CA, 94086",122941502,"L"
322115,"999 FERNGATE DRIVE","FRANKLIN SQUARE","NY",11010,40.689842587,-73.6787824789999,115,"999 FERNGATE DRIVE, FRANKLIN SQUARE, NY, 11010","Match","Exact","999 FERNGATE DR, FRANKLIN SQUARE, NY, 11010",147669819,"L"
322116,"999 FOREST AVE STE 7","PORTLAND","ME",4103,43.6819354420001,-70.290105839,116,"999 FOREST AVE STE 7, PORTLAND, ME, 4103","Match","Exact","999 FOREST AVE, PORTLAND, ME, 04103",78026361,"R"
322117,"999 GREENE AVENUE","BROOKLYN","NY",11221,40.691180151,-73.927055272,117,"999 GREENE AVENUE, BROOKLYN, NY, 11221","Match","Exact","999 GREENE AVE, BROOKLYN, NY, 11221",59082700,"L"
322118,"999 HIDDEN LAKE DRIVE 14F","NORTH BRUNSWICK","NJ",8902,NA,NA,118,"999 HIDDEN LAKE DRIVE 14F, NORTH BRUNSWICK, NJ, 8902","No_Match",NA,NA,NA,NA
322119,"999 HILLSIDE AVENUE","PLAINFIELD","NJ",7060,40.6145114870001,-74.404798905,119,"999 HILLSIDE AVENUE, PLAINFIELD, NJ, 7060","Match","Exact","999 HILLSIDE AVE, PLAINFIELD, NJ, 07060",60560743,"L"
322120,"999 HONEY RIDGE ROAD","GUYTON","GA",31312,32.302820599,-81.414333122,120,"999 HONEY RIDGE ROAD, GUYTON, GA, 31312","Match","Exact","999 HONEY RIDGE RD, GUYTON, GA, 31312",6280031,"L"
322121,"999 KATAMA BAY DRIVE","COSTA MESA","CA",92627,NA,NA,121,"999 KATAMA BAY DRIVE, COSTA MESA, CA, 92627","No_Match",NA,NA,NA,NA
322122,"999 LATHAM STREET","GRENADA","MS",38901,33.776266998,-89.816496619,122,"999 LATHAM STREET, GRENADA, MS, 38901","Match","Exact","999 LATHAM ST, GRENADA, MS, 38901",7555523,"R"
322123,"999 LENOX ROAD","BROOKLYN","NY",11212,40.6567348930001,-73.9225534349999,123,"999 LENOX ROAD, BROOKLYN, NY, 11212","Match","Exact","999 LENOX RD, BROOKLYN, NY, 11212",59083686,"L"
322124,"999 LOCUST ST NE","SALEM","OR",97301,44.9642547500001,-123.021383285,124,"999 LOCUST ST NE, SALEM, OR, 97301","Match","Exact","999 LOCUST ST NE, SALEM, OR, 97301",156266740,"L"
322125,"999 MAIN STREET","STURGIS","SD",57785,44.414396433,-103.50884335,125,"999 MAIN STREET, STURGIS, SD, 57785","Match","Exact","999 MAIN ST, STURGIS, SD, 57785",200907325,"R"
322126,"999 N 9TH STREET SUITE 111","BATON ROUGE","LA",70802,NA,NA,126,"999 N 9TH STREET SUITE 111, BATON ROUGE, LA, 70802","No_Match",NA,NA,NA,NA
322127,"999 NORTH 9TH STREET APT 319","BATON ROUGE","LA",70802,30.4563085940001,-91.180978323,127,"999 NORTH 9TH STREET APT 319, BATON ROUGE, LA, 70802","Match","Exact","999 N 9TH ST, BATON ROUGE, LA, 70802",619222796,"L"
322128,"999 NORTH NC HIGHWAY 11","PINK HILL","NC",28572,35.0562393060001,-77.759871752,128,"999 NORTH NC HIGHWAY 11, PINK HILL, NC, 28572","Match","Non_Exact","999 STATE HWY 11, PINK HILL, NC, 28572",13421153,"R"
322129,"999 NW 74TH ST","REDMOND","OR",97756,44.2847806930001,-121.257232892,129,"999 NW 74TH ST, REDMOND, OR, 97756","Match","Exact","999 NW 74TH ST, REDMOND, OR, 97756",152586865,"L"
322130,"999 OLD EAGLE SCHOOL RD SUITE 121","WAYNE","PA",19087,40.077012617,-75.411038547,130,"999 OLD EAGLE SCHOOL RD SUITE 121, WAYNE, PA, 19087","Match","Non_Exact","999 OLD EAGLE SCHOOL RD, WAYNE, PA, 19087",642566054,"R"
322131,"999 PEACHTREE STREET NE STE 2300","ATLANTA","GA",30309,NA,NA,131,"999 PEACHTREE STREET NE STE 2300, ATLANTA, GA, 30309","Tie",NA,NA,NA,NA
322132,"999 PEACHTREE STREET NE SUITE 2300","ATLANTA","GA",30309,NA,NA,132,"999 PEACHTREE STREET NE SUITE 2300, ATLANTA, GA, 30309","Tie",NA,NA,NA,NA
322133,"999 PEACHTREE STREET SUITE 1816","ATLANTA","GA",30309,33.7816331170001,-84.3840067419999,133,"999 PEACHTREE STREET SUITE 1816, ATLANTA, GA, 30309","Match","Exact","999 PEACHTREE ST, ATLANTA, GA, 30309",17343540,"R"
322134,"999 PONCE DE LEON BLVD STE 1045","CORAL GABLES","FL",33134,25.7621381860001,-80.259091483,134,"999 PONCE DE LEON BLVD STE 1045, CORAL GABLES, FL, 33134","Match","Exact","999 PONCE DE LEON BLVD, CORAL GABLES, FL, 33134",116010703,"L"
322135,"999 READ STREET APT 406","ATTLEBORO","MA",2703,41.9045868330001,-71.321643072,135,"999 READ STREET APT 406, ATTLEBORO, MA, 2703","Match","Exact","999 READ ST, ATTLEBORO, MA, 02703",46785876,"R"
322136,"999 SPEEDWAY PARK","LAWRENCEBURG","IN",47025,NA,NA,136,"999 SPEEDWAY PARK, LAWRENCEBURG, IN, 47025","No_Match",NA,NA,NA,NA
322137,"999 SW 1ST AVE UNIT 1712","MIAMI","FL",33130,25.764498701,-80.195232518,137,"999 SW 1ST AVE UNIT 1712, MIAMI, FL, 33130","Match","Non_Exact","999 SW 1ST AVE, MIAMI, FL, 33130",116018666,"L"
322138,"999 THIRD AVE SUITE 2525","SEATTLE","WA",98104,47.6055606580001,-122.333973238,138,"999 THIRD AVE SUITE 2525, SEATTLE, WA, 98104","Match","Exact","999 3RD AVE, SEATTLE, WA, 98104",186589591,"L"
322139,"999 THIRD AVENUE SUITE 4600","SEATTLE","WA",98104,47.6055606580001,-122.333973238,139,"999 THIRD AVENUE SUITE 4600, SEATTLE, WA, 98104","Match","Exact","999 3RD AVE, SEATTLE, WA, 98104",186589591,"L"
322140,"999 VANDERBILT BEACH RD STE 1","NAPLES","FL",34108,26.2505513510001,-81.798890929,140,"999 VANDERBILT BEACH RD STE 1, NAPLES, FL, 34108","Match","Exact","999 VANDERBILT BEACH RD, NAPLES, FL, 34108",115195831,"L"
322141,"999 VANDERBILT BEACH ROAD STE 200","NAPLES","FL",34108,26.2505513510001,-81.798890929,141,"999 VANDERBILT BEACH ROAD STE 200, NAPLES, FL, 34108","Match","Exact","999 VANDERBILT BEACH RD, NAPLES, FL, 34108",115195831,"L"
322142,"999 WATER STREET","CHARLESTOWN","IN",47111,38.445139485,-85.661023465,142,"999 WATER STREET, CHARLESTOWN, IN, 47111","Match","Exact","999 WATER ST, CHARLESTOWN, IN, 47111",64879600,"L"
322143,"999 WATERSIDE DR STE 2525 - 2600","NORFOLK","VA",23510,36.844056181,-76.287937743,143,"999 WATERSIDE DR STE 2525 - 2600, NORFOLK, VA, 23510","Match","Exact","999 WATERSIDE DR, NORFOLK, VA, 23510",122153793,"R"
322144,"999 WATERSIDE DR SUITE 2100","NORFOLK","VA",23510,36.844056181,-76.287937743,144,"999 WATERSIDE DR SUITE 2100, NORFOLK, VA, 23510","Match","Exact","999 WATERSIDE DR, NORFOLK, VA, 23510",122153793,"R"
322145,"999 WATERSIDE DRIVE SUITE 2100","NORFOLK","VA",23510,36.844056181,-76.287937743,145,"999 WATERSIDE DRIVE SUITE 2100, NORFOLK, VA, 23510","Match","Exact","999 WATERSIDE DR, NORFOLK, VA, 23510",122153793,"R"
322146,"999 WATERSIDE DRIVE SUITE 2300","NORFOLK","VA",23510,36.844056181,-76.287937743,146,"999 WATERSIDE DRIVE SUITE 2300, NORFOLK, VA, 23510","Match","Exact","999 WATERSIDE DR, NORFOLK, VA, 23510",122153793,"R"
322147,"999 WATERSIDE DRIVE SUITE 2525","NORFOLK","VA",23510,36.844056181,-76.287937743,147,"999 WATERSIDE DRIVE SUITE 2525, NORFOLK, VA, 23510","Match","Exact","999 WATERSIDE DR, NORFOLK, VA, 23510",122153793,"R"
322148,"999-32 MONTAUK HWY UNIT 153","SHIRLEY","NY",11967,40.802324379,-72.860825198,148,"999-32 MONTAUK HWY UNIT 153, SHIRLEY, NY, 11967","Match","Exact","999 MONTAUK HWY, SHIRLEY, NY, 11967",114019137,"L"
322149,"999-4F HIDDEN LAKE DRIVE","NORTH BRUNSWICK","NJ",8902,NA,NA,149,"999-4F HIDDEN LAKE DRIVE, NORTH BRUNSWICK, NJ, 8902","No_Match",NA,NA,NA,NA
322150,"9990 ARBORWOOD DRIVE APT 424","CINCINNATI","OH",45251,39.2521290120001,-84.5900550489999,150,"9990 ARBORWOOD DRIVE APT 424, CINCINNATI, OH, 45251","Match","Exact","9990 ARBORWOOD DR, CINCINNATI, OH, 45251",103942324,"R"
322151,"9990 CALVINE ROAD","SACRAMENTO","CA",95829,38.4526614210001,-121.32099184,151,"9990 CALVINE ROAD, SACRAMENTO, CA, 95829","Match","Exact","9990 CALVINE RD, SACRAMENTO, CA, 95829",133417307,"R"
322152,"9990 FAIRFAX BOULEVARD SUITE 430","FAIRFAX","VA",22030,38.8631193590001,-77.2887459199999,152,"9990 FAIRFAX BOULEVARD SUITE 430, FAIRFAX, VA, 22030","Match","Exact","9990 FAIRFAX BLVD, FAIRFAX, VA, 22030",638318511,"L"
322153,"9990 MESA RIM ROAD SUITE 240","SAN DIEGO","CA",92121,32.900051294,-117.177339104,153,"9990 MESA RIM ROAD SUITE 240, SAN DIEGO, CA, 92121","Match","Exact","9990 MESA RIM RD, SAN DIEGO, CA, 92121",195300724,"L"
322154,"9990 PARK MEADOWS DR","LONE TREE","CO",80124,39.5516378820001,-104.872134433,154,"9990 PARK MEADOWS DR, LONE TREE, CO, 80124","Match","Exact","9990 PARK MEADOWS DR, LONE TREE, CO, 80124",648196832,"R"
322155,"9990 RICHMOND AVENUE","HOUSTON","TX",77042,29.728791937,-95.548306591,155,"9990 RICHMOND AVENUE, HOUSTON, TX, 77042","Match","Exact","9990 RICHMOND AVE, HOUSTON, TX, 77042",96613850,"R"
322156,"9990 W 190TH STREET SUITE A","NEW LENOX","IL",60451,NA,NA,156,"9990 W 190TH STREET SUITE A, NEW LENOX, IL, 60451","No_Match",NA,NA,NA,NA
322157,"9990","SAN DIEGO","CA",92126,NA,NA,157,"9990, SAN DIEGO, CA, 92126","No_Match",NA,NA,NA,NA
322158,"9991 ELLSWORTH LANE","AVON","IN",46123,39.7739136880001,-86.345180722,158,"9991 ELLSWORTH LANE, AVON, IN, 46123","Match","Exact","9991 ELLSWORTH LN, AVON, IN, 46123",89235765,"R"
322159,"9991 IDAVILLE RD","ATOKA","TN",38004,35.3996935640001,-89.720577963,159,"9991 IDAVILLE RD, ATOKA, TN, 38004","Match","Exact","9991 IDAVILLE RD, ATOKA, TN, 38004",72900720,"L"
322160,"9993 MARCONI DR","SAN DIEGO","CA",92154,32.5542954090001,-116.930198745,160,"9993 MARCONI DR, SAN DIEGO, CA, 92154","Match","Exact","9993 MARCONI DR, SAN DIEGO, CA, 92154",195656090,"R"
322161,"9994 COLLINS ROAD","SEDRO WOOLLEY","WA",98284,48.5004756600001,-122.280419293,161,"9994 COLLINS ROAD, SEDRO WOOLLEY, WA, 98284","Match","Exact","9994 COLLINS RD, SEDRO WOOLLEY, WA, 98284",183651404,"L"
322162,"9994 NOB HILL PLACE","SUNRISE","FL",33351,26.17439054,-80.2814910559999,162,"9994 NOB HILL PLACE, SUNRISE, FL, 33351","Match","Exact","9994 NOB HILL PL, SUNRISE, FL, 33351",114811943,"R"
322163,"9994 SOWDER VILLAGE SQUARE 816","MANASSAS","VA",20109,38.7387322280001,-77.536126668,163,"9994 SOWDER VILLAGE SQUARE 816, MANASSAS, VA, 20109","Match","Exact","9994 SOWDER VILLAGE SQ, MANASSAS, VA, 20109",634593293,"R"
322164,"9994 VILLETTE COURT","ELK GROVE","CA",95757,38.395143633,-121.427965936,164,"9994 VILLETTE COURT, ELK GROVE, CA, 95757","Match","Exact","9994 VILLETTE CT, ELK GROVE, CA, 95757",133442827,"R"
322165,"9994 WORNOM AVENUE","SUNLAND","CA",91040,34.250883994,-118.351915384,165,"9994 WORNOM AVENUE, SUNLAND, CA, 91040","Match","Exact","9994 WORNOM AVE, SUNLAND, CA, 91040",141586556,"R"
322166,"9995 RED SAGE DR","COLORADO SPRINGS","CO",80920,38.9759758120001,-104.755393702,166,"9995 RED SAGE DR, COLORADO SPRINGS, CO, 80920","Match","Exact","9995 RED SAGE DR, CO SPGS, CO, 80920",610689679,"R"
322167,"9995 SUNYVIEW RD NE","SALEM","OR",97317,44.9517066970001,-122.854571416,167,"9995 SUNYVIEW RD NE, SALEM, OR, 97317","Match","Non_Exact","9995 SUNNYVIEW RD NE, SALEM, OR, 97317",613688193,"R"
322168,"9995 W TUDOR DRIVE","BOISE","ID",83704,43.6327245570001,-116.306326832,168,"9995 W TUDOR DRIVE, BOISE, ID, 83704","Match","Exact","9995 TUDOR DR, BOISE, ID, 83704",117875956,"L"
322169,"9996 NORTH US HWY 259","GILMER","TX",75645,32.6495768670001,-94.756980632,169,"9996 NORTH US HWY 259, GILMER, TX, 75645","Match","Non_Exact","9996 US HWY 259, GILMER, TX, 75645",141131334,"L"
322170,"9996 W US HIGHWAY 50 STE 1223","SALIDA","CO",81201,38.5166292660001,-106.062694237,170,"9996 W US HIGHWAY 50 STE 1223, SALIDA, CO, 81201","Match","Non_Exact","9996 W US HWY 50, SALIDA, CO, 81201",650670820,"R"
322171,"9997 W NORTH AVE UNIT 397","WAUWATOSA","WI",53226,NA,NA,171,"9997 W NORTH AVE UNIT 397, WAUWATOSA, WI, 53226","No_Match",NA,NA,NA,NA
322172,"9998 AURORA DRIVE 790","GLENNALLEN","AK",99588,NA,NA,172,"9998 AURORA DRIVE 790, GLENNALLEN, AK, 99588","No_Match",NA,NA,NA,NA
322173,"9999 BELLAIRE BLVD STE 350","HOUSTON","TX",77036,29.704546302,-95.5563472169999,173,"9999 BELLAIRE BLVD STE 350, HOUSTON, TX, 77036","Match","Exact","9999 BELLAIRE BLVD, HOUSTON, TX, 77036",638594571,"L"
322174,"9999 COUNTY ROAD 936","ANNA","TX",75409,33.3731926900001,-96.4099172269999,174,"9999 COUNTY ROAD 936, ANNA, TX, 75409","Match","Exact","9999 CO RD 936, ANNA, TX, 75409",653264565,"R"
322175,"9999 HOMESTEAD","HOUSTON","TX",77026,NA,NA,175,"9999 HOMESTEAD, HOUSTON, TX, 77026","No_Match",NA,NA,NA,NA
322176,"9999 INDEPENDENCE BLVD","PARMA HTS","OH",44130,41.373200094,-81.75614302,176,"9999 INDEPENDENCE BLVD, PARMA HTS, OH, 44130","Match","Exact","9999 INDEPENDENCE BLVD, PARMA HEIGHTS, OH, 44130",61180003,"L"
322177,"9999 MIRA MESA BLVD SUITE 104","SAN DIEGO","CA",92131,32.916783927,-117.111430282,177,"9999 MIRA MESA BLVD SUITE 104, SAN DIEGO, CA, 92131","Match","Exact","9999 MIRA MESA BLVD, SAN DIEGO, CA, 92131",637268474,"R"
322178,"9999 N 90TH STREET","SCOTTSDALE","AZ",85258,33.5768509430001,-111.885721578,178,"9999 N 90TH STREET, SCOTTSDALE, AZ, 85258","Match","Exact","9999 N 90TH ST, SCOTTSDALE, AZ, 85258",128922109,"L"
322179,"9999 S W 89TH CT","MIAMI","FL",33176,25.6770714300001,-80.339996062,179,"9999 S W 89TH CT, MIAMI, FL, 33176","Match","Exact","9999 SW 89TH CT, MIAMI, FL, 33176",115980909,"L"
322180,"9999 WALNUT ST APT 1088","DALLAS","TX",75243,32.9195871360001,-96.711661367,180,"9999 WALNUT ST APT 1088, DALLAS, TX, 75243","Match","Exact","9999 WALNUT ST, DALLAS, TX, 75243",103247950,"L"
322181,"9A HAMILTON PL","BOSTON","MA",2108,42.3563976400001,-71.061322014,181,"9A HAMILTON PL, BOSTON, MA, 2108","Match","Exact","9 HAMILTON PL, BOSTON, MA, 02108",85709815,"R"
322182,"9A HAMILTON PLACE","BOSTON","MA",2108,42.3563976400001,-71.061322014,182,"9A HAMILTON PLACE, BOSTON, MA, 2108","Match","Exact","9 HAMILTON PL, BOSTON, MA, 02108",85709815,"R"
322183,"9A PADDOCK LANE","LEXINGTON","MA",2421,42.4342614440001,-71.216784552,183,"9A PADDOCK LANE, LEXINGTON, MA, 2421","Match","Exact","9 PADDOCK LN, LEXINGTON, MA, 02421",86883859,"R"
322184,"9B QUINCY DR","WHITING","NJ",8759,39.9590321960001,-74.346666563,184,"9B QUINCY DR, WHITING, NJ, 8759","Match","Exact","9 QUINCY DR, WHITING, NJ, 08759",203718253,"L"
322185,"9C SIMEON ROAD","BETHEL","CT",6801,41.375450825,-73.414963835,185,"9C SIMEON ROAD, BETHEL, CT, 6801","Match","Exact","9 SIMEON RD, BETHEL, CT, 06801",624881347,"L"
322186,"9N 835 HOGAN HILL","ELGIN","IL",60124,42.0111380610001,-88.3821106789999,186,"9N 835 HOGAN HILL, ELGIN, IL, 60124","Match","Exact","9N HOGAN HILL, ELGIN, IL, 60124",119499530,"R"
322187,"9N975 MEADOW DRIVE","ELGIN","IL",60124,42.0121812680001,-88.42523446,187,"9N975 MEADOW DRIVE, ELGIN, IL, 60124","Match","Exact","9N975 MEADOW DR, ELGIN, IL, 60124",119499242,"L"
322188,"9S043 IL STATE ROUTE 53","NAPERVILLE","IL",60565,NA,NA,188,"9S043 IL STATE ROUTE 53, NAPERVILLE, IL, 60565","No_Match",NA,NA,NA,NA
322189,"9S045 NANTUCKET DRIVE","DARIEN","IL",60561,41.743904419,-87.964411852,189,"9S045 NANTUCKET DRIVE, DARIEN, IL, 60561","Match","Exact","9S45 NANTUCKET DR, DARIEN, IL, 60561",112551574,"L"
322190,"9Y ESTATE COTTAGE","CHRISTIANSTED","VI",820,NA,NA,190,"9Y ESTATE COTTAGE, CHRISTIANSTED, VI, 820","No_Match",NA,NA,NA,NA
322191,"A SANDERS TEE 233 S 6TH ST APT1609","PHILADELPHIA","PA",19106,NA,NA,191,"A SANDERS TEE 233 S 6TH ST APT1609, PHILADELPHIA, PA, 19106","No_Match",NA,NA,NA,NA
322192,"A","KEW GARDENS","NY",11415,NA,NA,192,"A, KEW GARDENS, NY, 11415","No_Match",NA,NA,NA,NA
322193,"A312","ATLANTA","GA",30338,NA,NA,193,"A312, ATLANTA, GA, 30338","No_Match",NA,NA,NA,NA
322194,"A335 DEPT PHARMACOLOGY UNIV OF PR","SAN JUAN","PR",936,NA,NA,194,"A335 DEPT PHARMACOLOGY UNIV OF PR, SAN JUAN, PR, 936","No_Match",NA,NA,NA,NA
322195,"AC0988 KEEFE CAMPUS AMHERST COLLEGE","AMHERST","MA",1002,NA,NA,195,"AC0988 KEEFE CAMPUS AMHERST COLLEGE, AMHERST, MA, 1002","No_Match",NA,NA,NA,NA
322196,"ACADIA MS 970 ROUTE 146","CLIFTON PARK","NY",12065,42.869071546,-73.810566616,196,"ACADIA MS 970 ROUTE 146, CLIFTON PARK, NY, 12065","Match","Non_Exact","970 STATE HWY 146, CLIFTON PARK, NY, 12065",18800642,"R"
322197,"ACG ONE WORLD TRADE CENTER STE 8500","NEW YORK","NY",10007,NA,NA,197,"ACG ONE WORLD TRADE CENTER STE 8500, NEW YORK, NY, 10007","No_Match",NA,NA,NA,NA
322198,"ACP 0104-09  PO BOX 1108","SALEM","OR",97308,NA,NA,198,"ACP 0104-09  PO BOX 1108, SALEM, OR, 97308","No_Match",NA,NA,NA,NA
322199,"ACP18042 PO BOX 2995","ANNAPOLIS","MD",21404,NA,NA,199,"ACP18042 PO BOX 2995, ANNAPOLIS, MD, 21404","No_Match",NA,NA,NA,NA
322200,"ADRIENNE","THOMASVILLE","NC",27360,NA,NA,200,"ADRIENNE, THOMASVILLE, NC, 27360","No_Match",NA,NA,NA,NA
322201,"AIRPORT VIEW DRIVE SW","ROCHESTER","MN",55902,NA,NA,201,"AIRPORT VIEW DRIVE SW, ROCHESTER, MN, 55902","No_Match",NA,NA,NA,NA
322202,"ALBRIGHT COLLEGE 1621 N 13TH STREET","READING","PA",19604,40.3622825590001,-75.911513381,202,"ALBRIGHT COLLEGE 1621 N 13TH STREET, READING, PA, 19604","Match","Exact","1621 N 13TH ST, READING, PA, 19604",80377587,"R"
322203,"ALLEYCORP 520 BROADWAY FL 2","NEW YORK","NY",10012,NA,NA,203,"ALLEYCORP 520 BROADWAY FL 2, NEW YORK, NY, 10012","No_Match",NA,NA,NA,NA
322204,"ALLISON HOLLAND--61 SHERRILL RD","LITTLE ROCK","AR",72202,NA,NA,204,"ALLISON HOLLAND--61 SHERRILL RD, LITTLE ROCK, AR, 72202","No_Match",NA,NA,NA,NA
322205,"ALTMAN 271 W 47TH STREET 51A","NEW YORK","NY",10036,NA,NA,205,"ALTMAN 271 W 47TH STREET 51A, NEW YORK, NY, 10036","No_Match",NA,NA,NA,NA
322206,"ANDERSON DEVELOPMENT CENTER CORP","DETROIT","MI",48204,NA,NA,206,"ANDERSON DEVELOPMENT CENTER CORP, DETROIT, MI, 48204","No_Match",NA,NA,NA,NA
322207,"APARTADO 1028","NAGUABO","PR",718,NA,NA,207,"APARTADO 1028, NAGUABO, PR, 718","No_Match",NA,NA,NA,NA
322208,"APARTADO 2319","ISABELA","PR",662,NA,NA,208,"APARTADO 2319, ISABELA, PR, 662","No_Match",NA,NA,NA,NA
322209,"APARTADO 2359","TOA BAJA","PR",951,NA,NA,209,"APARTADO 2359, TOA BAJA, PR, 951","No_Match",NA,NA,NA,NA
322210,"APARTADO 70351","SAN JUAN","PR",936,NA,NA,210,"APARTADO 70351, SAN JUAN, PR, 936","No_Match",NA,NA,NA,NA
322211,"APARTADO 82","CABO ROJO","PR",623,NA,NA,211,"APARTADO 82, CABO ROJO, PR, 623","No_Match",NA,NA,NA,NA
322212,"APARTMENT 3203","HUNTSVILLE","AL",35806,NA,NA,212,"APARTMENT 3203, HUNTSVILLE, AL, 35806","No_Match",NA,NA,NA,NA
322213,"APOLLO HIGH SCHOOL 1000 44TH AVE N","SAINT CLOUD","MN",56303,45.569436635,-94.212392564,213,"APOLLO HIGH SCHOOL 1000 44TH AVE N, SAINT CLOUD, MN, 56303","Match","Exact","1000 44TH AVE N, SAINT CLOUD, MN, 56303",647956928,"R"
322214,"APPLE VALLEY HS  14450 HAYES ROAD","APPLE VALLEY","MN",55124,44.7415298330001,-93.233025431,214,"APPLE VALLEY HS  14450 HAYES ROAD, APPLE VALLEY, MN, 55124","Match","Exact","14450 HAYES RD, APPLE VALLEY, MN, 55124",37907073,"R"
322215,"APT 20 808 17TH AVE N","NASHVILLE","TN",37203,36.1637865930001,-86.801575585,215,"APT 20 808 17TH AVE N, NASHVILLE, TN, 37203","Match","Exact","808 17TH AVE N, NASHVILLE, TN, 37203",97216913,"R"
322216,"APT 211 4545 42ND AVE SOUTHWEST","SEATTLE","WA",98116,47.562391168,-122.385465009,216,"APT 211 4545 42ND AVE SOUTHWEST, SEATTLE, WA, 98116","Match","Exact","4545 42ND AVE SW, SEATTLE, WA, 98116",186661414,"R"
322217,"APT 306 2517 MOZART PLACE NW","WASHINGTON, DC","DC",20009,38.9235343610001,-77.0377758659999,217,"APT 306 2517 MOZART PLACE NW, WASHINGTON, DC, DC, 20009","Match","Exact","2517 MOZART PL NW, WASHINGTON, DC, 20009",76223052,"R"
322218,"APT 3F 6708 FRESH POND ROAD","RIDGEWOOD","NY",11385,NA,NA,218,"APT 3F 6708 FRESH POND ROAD, RIDGEWOOD, NY, 11385","No_Match",NA,NA,NA,NA
322219,"APT 8 2228 BAXTER LANE","BOZEMAN","MT",59718,45.7001500580001,-111.137537368,219,"APT 8 2228 BAXTER LANE, BOZEMAN, MT, 59718","Match","Exact","2228 BAXTER LN, BOZEMAN, MT, 59718",163496999,"R"
322220,"APT 992","JUNCOS","PR",777,NA,NA,220,"APT 992, JUNCOS, PR, 777","No_Match",NA,NA,NA,NA
322221,"APT 9E","OWINGS MILLS","MD",21117,NA,NA,221,"APT 9E, OWINGS MILLS, MD, 21117","No_Match",NA,NA,NA,NA
322222,"ARCH HILL DR","CHESTERFIELD","VA",23236,NA,NA,222,"ARCH HILL DR, CHESTERFIELD, VA, 23236","No_Match",NA,NA,NA,NA
322223,"ARJAN KANG","TAMPA","FL",33647,NA,NA,223,"ARJAN KANG, TAMPA, FL, 33647","No_Match",NA,NA,NA,NA
322224,"AS GONNO","SAIPAN","MP",95950,NA,NA,224,"AS GONNO, SAIPAN, MP, 95950","No_Match",NA,NA,NA,NA
322225,"ASU BOX 32200","BOONE","NC",28608,NA,NA,225,"ASU BOX 32200, BOONE, NC, 28608","No_Match",NA,NA,NA,NA
322226,"ASU STATION  BOX 10902","SAN ANGELO","TX",76909,NA,NA,226,"ASU STATION  BOX 10902, SAN ANGELO, TX, 76909","No_Match",NA,NA,NA,NA
322227,"ATLANTICO ST D38 MANS PLAYA HUCARES","NAGUABO","PR",718,NA,NA,227,"ATLANTICO ST D38 MANS PLAYA HUCARES, NAGUABO, PR, 718","No_Match",NA,NA,NA,NA
322228,"ATN ROGER KAHAN 81 GREENBROOK DRIVE","STOUGHTON","MA",2072,42.138680407,-71.1340031089999,228,"ATN ROGER KAHAN 81 GREENBROOK DRIVE, STOUGHTON, MA, 2072","Match","Exact","81 GREENBROOK DR, STOUGHTON, MA, 02072",87298109,"R"
322229,"ATT KIM HALE 401 ATLANTIC AVE 09","DELRAY BEACH","FL",33444,NA,NA,229,"ATT KIM HALE 401 ATLANTIC AVE 09, DELRAY BEACH, FL, 33444","No_Match",NA,NA,NA,NA
322230,"ATTN CHORAL DIR  130 BERLIN RD","NEW OXFORD","PA",17350,39.868080719,-77.054246957,230,"ATTN CHORAL DIR  130 BERLIN RD, NEW OXFORD, PA, 17350","Match","Exact","130 BERLIN RD, NEW OXFORD, PA, 17350",60873018,"L"
322231,"ATTN LARA BACH 1395 BRICKELL AVENUE","MIAMI","FL",33131,25.76075301,-80.192085864,231,"ATTN LARA BACH 1395 BRICKELL AVENUE, MIAMI, FL, 33131","Match","Exact","1395 BRICKELL AVE, MIAMI, FL, 33131",116018709,"L"
322232,"ATTN M LEVI - 2260 BENSON AVE - 6M","BROOKLYN","NY",11214,NA,NA,232,"ATTN M LEVI - 2260 BENSON AVE - 6M, BROOKLYN, NY, 11214","No_Match",NA,NA,NA,NA
322233,"ATTN ROBERT MALDONADO PO BOX 218","S MILWAUKEE","WI",53154,NA,NA,233,"ATTN ROBERT MALDONADO PO BOX 218, S MILWAUKEE, WI, 53154","No_Match",NA,NA,NA,NA
322234,"ATTN SMC/HO 438 NORTH AVIATION BLVD","EL SEGUNDO","CA",90245,NA,NA,234,"ATTN SMC/HO 438 NORTH AVIATION BLVD, EL SEGUNDO, CA, 90245","No_Match",NA,NA,NA,NA
322235,"ATTN STEVE VEILE 512 CAPITOL AVENUE","JEFFERSON CITY","MO",65101,38.574152402,-92.1658805549999,235,"ATTN STEVE VEILE 512 CAPITOL AVENUE, JEFFERSON CITY, MO, 65101","Match","Non_Exact","512 E CAPITOL AVE, JEFFERSON CITY, MO, 65101",34407871,"L"
322236,"ATTN TIM KEATON  12093 WINFIELD ROA","WINFIELD","WV",25213,NA,NA,236,"ATTN TIM KEATON  12093 WINFIELD ROA, WINFIELD, WV, 25213","No_Match",NA,NA,NA,NA
322237,"ATTN WILLIAM THOMAS 400 SW 4TH STRE","ATLANTA","IL",61723,NA,NA,237,"ATTN WILLIAM THOMAS 400 SW 4TH STRE, ATLANTA, IL, 61723","No_Match",NA,NA,NA,NA
322238,"ATTN-H JO  BME DEPT AT EMORY U","ATLANTA","GA",30322,NA,NA,238,"ATTN-H JO  BME DEPT AT EMORY U, ATLANTA, GA, 30322","No_Match",NA,NA,NA,NA
322239,"AU C/O LSTRATFORD   1 MACKLEM DRIVE","WILMORE","KY",40390,37.862333993,-84.662272553,239,"AU C/O LSTRATFORD   1 MACKLEM DRIVE, WILMORE, KY, 40390","Match","Exact","1 MACKLEM DR, WILMORE, KY, 40390",38465376,"L"
322240,"AURELIUS RD","LANSING","MI",48911,NA,NA,240,"AURELIUS RD, LANSING, MI, 48911","No_Match",NA,NA,NA,NA
322241,"AUSTRAL STREET 609 ALTAMIRA","SAN JUAN","PR",920,NA,NA,241,"AUSTRAL STREET 609 ALTAMIRA, SAN JUAN, PR, 920","No_Match",NA,NA,NA,NA
322242,"AVATAR STUDIOS 441 W 53RD STREET","NEW YORK","NY",10019,40.7662736440001,-73.989716019,242,"AVATAR STUDIOS 441 W 53RD STREET, NEW YORK, NY, 10019","Match","Exact","441 W 53RD ST, NEW YORK, NY, 10019",647141557,"R"
322243,"AVE ACUARELA 110 QUINTAVALLE TN 903","GUAYNABO","PR",969,NA,NA,243,"AVE ACUARELA 110 QUINTAVALLE TN 903, GUAYNABO, PR, 969","No_Match",NA,NA,NA,NA
322244,"AVE PONCE DE LEON 900","SAN JUAN","PR",907,NA,NA,244,"AVE PONCE DE LEON 900, SAN JUAN, PR, 907","No_Match",NA,NA,NA,NA
322245,"AVENIDA MAGNOLIA GARDENS LOTE 25","BAYAMON","PR",961,NA,NA,245,"AVENIDA MAGNOLIA GARDENS LOTE 25, BAYAMON, PR, 961","No_Match",NA,NA,NA,NA
322246,"AVON ROAD","DANVERS","MA",1923,NA,NA,246,"AVON ROAD, DANVERS, MA, 1923","No_Match",NA,NA,NA,NA
322247,"AVONDALE AVE","COLUMBUS","OH",43223,NA,NA,247,"AVONDALE AVE, COLUMBUS, OH, 43223","No_Match",NA,NA,NA,NA
322248,"AVOT INC","PLANTATION","FL",33324,NA,NA,248,"AVOT INC, PLANTATION, FL, 33324","No_Match",NA,NA,NA,NA
322249,"B NEWMAN 1726 MADISON AVE","MEMPHIS","TN",38104,NA,NA,249,"B NEWMAN 1726 MADISON AVE, MEMPHIS, TN, 38104","No_Match",NA,NA,NA,NA
322250,"B STEMBRIDGE 208 WEST 119 STREET","NEW YORK","NY",10026,40.805195364,-73.95121812,250,"B STEMBRIDGE 208 WEST 119 STREET, NEW YORK, NY, 10026","Match","Exact","208 W 119TH ST, NEW YORK, NY, 10026",652206814,"L"
322251,"B1478","BELLEVUE","WA",98008,NA,NA,251,"B1478, BELLEVUE, WA, 98008","No_Match",NA,NA,NA,NA
322252,"B18 TUDOR COURT","EASTAMPTON","NJ",8060,NA,NA,252,"B18 TUDOR COURT, EASTAMPTON, NJ, 8060","No_Match",NA,NA,NA,NA
322253,"B20 JUNIPER EAST","YARMOUTH","ME",4096,43.8085010890001,-70.1699155439999,253,"B20 JUNIPER EAST, YARMOUTH, ME, 4096","Match","Exact","B20 JUNIPER E, YARMOUTH, ME, 04096",78071221,"L"
322254,"BABIES LIVES MATTER FOUNDATION INC","SAINT PETERSBURG","FL",33711,NA,NA,254,"BABIES LIVES MATTER FOUNDATION INC, SAINT PETERSBURG, FL, 33711","No_Match",NA,NA,NA,NA
322255,"BAKER CENTER 354 OHIO UNIVERSITY","ATHENS","OH",45701,NA,NA,255,"BAKER CENTER 354 OHIO UNIVERSITY, ATHENS, OH, 45701","No_Match",NA,NA,NA,NA
322256,"BAL4001 HAMPTON BVD","NORFOLK","VA",23529,NA,NA,256,"BAL4001 HAMPTON BVD, NORFOLK, VA, 23529","No_Match",NA,NA,NA,NA
322257,"BALDORIOTY NUMBER 2","CAGUAS","PR",725,NA,NA,257,"BALDORIOTY NUMBER 2, CAGUAS, PR, 725","No_Match",NA,NA,NA,NA
322258,"BALLGROUND INDIANS 12U INC","ACWORTH","GA",30102,NA,NA,258,"BALLGROUND INDIANS 12U INC, ACWORTH, GA, 30102","No_Match",NA,NA,NA,NA
322259,"BARRIO CALZADA BUZON 91","MAUNABO","PR",707,NA,NA,259,"BARRIO CALZADA BUZON 91, MAUNABO, PR, 707","No_Match",NA,NA,NA,NA
322260,"BARRIO GUARDARRAYA  HC 64  BOX 8482","PATILLAS","PR",723,NA,NA,260,"BARRIO GUARDARRAYA  HC 64  BOX 8482, PATILLAS, PR, 723","No_Match",NA,NA,NA,NA
322261,"BAYLOR U - ONE BEAR PLACE 97144","WACO","TX",76798,NA,NA,261,"BAYLOR U - ONE BEAR PLACE 97144, WACO, TX, 76798","No_Match",NA,NA,NA,NA
322262,"BAYLOR UNIVERSITY ENGLISH DEPT 314","WACO","TX",76798,NA,NA,262,"BAYLOR UNIVERSITY ENGLISH DEPT 314, WACO, TX, 76798","No_Match",NA,NA,NA,NA
322263,"BBSRB B126  741 SOUTH LIMESTONE ST","LEXINGTON","KY",40536,38.0342124380001,-84.5086052509999,263,"BBSRB B126  741 SOUTH LIMESTONE ST, LEXINGTON, KY, 40536","Match","Non_Exact","741 S LIMESTONE ST, LEXINGTON, KY, 40508",31933271,"R"
322264,"BC 206 NUNN DRIVE - NKU","HIGHLAND HEIGHTS","KY",41099,NA,NA,264,"BC 206 NUNN DRIVE - NKU, HIGHLAND HEIGHTS, KY, 41099","No_Match",NA,NA,NA,NA
322265,"BDA GUAYDIA CALLE JUAN ARZOLA 84","GUAYANILLA","PR",656,NA,NA,265,"BDA GUAYDIA CALLE JUAN ARZOLA 84, GUAYANILLA, PR, 656","No_Match",NA,NA,NA,NA
322266,"BDA PLAYA HUCARES BZN 22 CARR 3 KM","NAGUABO","PR",718,NA,NA,266,"BDA PLAYA HUCARES BZN 22 CARR 3 KM, NAGUABO, PR, 718","No_Match",NA,NA,NA,NA
322267,"BDG 718 PERIMETER ROAD","CREECH AFB","NV",89018,NA,NA,267,"BDG 718 PERIMETER ROAD, CREECH AFB, NV, 89018","No_Match",NA,NA,NA,NA
322268,"BEECH ST","SANFORD","MI",48657,NA,NA,268,"BEECH ST, SANFORD, MI, 48657","No_Match",NA,NA,NA,NA
322269,"BEECHWOODS DR","LEXINGTON","SC",29072,NA,NA,269,"BEECHWOODS DR, LEXINGTON, SC, 29072","No_Match",NA,NA,NA,NA
322270,"BEV CPA 110 HILLSIDE AV STE 200","SPRINGFIELD","NJ",7081,NA,NA,270,"BEV CPA 110 HILLSIDE AV STE 200, SPRINGFIELD, NJ, 7081","No_Match",NA,NA,NA,NA
322271,"BEVERLY BURRUS 1825 PARKER RD 1412","CONYERS","GA",30094,NA,NA,271,"BEVERLY BURRUS 1825 PARKER RD 1412, CONYERS, GA, 30094","No_Match",NA,NA,NA,NA
322272,"BIA WOLF CREEK RD PO BOX 1627","PINE RIDGE","SD",57770,NA,NA,272,"BIA WOLF CREEK RD PO BOX 1627, PINE RIDGE, SD, 57770","No_Match",NA,NA,NA,NA
322273,"BIANCA B INC 477 MADISON AVE 6TH FL","NEW YORK","NY",10022,NA,NA,273,"BIANCA B INC 477 MADISON AVE 6TH FL, NEW YORK, NY, 10022","No_Match",NA,NA,NA,NA
322274,"BILTMORE WAY 600 SUITE 917","CORAL GABLES","FL",33134,NA,NA,274,"BILTMORE WAY 600 SUITE 917, CORAL GABLES, FL, 33134","No_Match",NA,NA,NA,NA
322275,"BIOLOGICAL SCIENCES BGSU","BOWLING GREEN","OH",43403,NA,NA,275,"BIOLOGICAL SCIENCES BGSU, BOWLING GREEN, OH, 43403","No_Match",NA,NA,NA,NA
322276,"BIRMINGHAM STREET UNIT A","WYLIE","TX",75098,NA,NA,276,"BIRMINGHAM STREET UNIT A, WYLIE, TX, 75098","No_Match",NA,NA,NA,NA
322277,"BLACKMORE ROAD","CAMILLUS","NY",13031,NA,NA,277,"BLACKMORE ROAD, CAMILLUS, NY, 13031","No_Match",NA,NA,NA,NA
322278,"BLDG 1 STE 200 4200 NORTHSIDE PKWAY","ATLANTA","GA",30327,33.8639165550001,-84.4455817309999,278,"BLDG 1 STE 200 4200 NORTHSIDE PKWAY, ATLANTA, GA, 30327","Match","Non_Exact","4200 NORTHSIDE PKWY NW, ATLANTA, GA, 30327",647137483,"L"
322279,"BLDG 1005 REAPER RD","CREECH AFB","NV",89018,NA,NA,279,"BLDG 1005 REAPER RD, CREECH AFB, NV, 89018","No_Match",NA,NA,NA,NA
322280,"BLDG 1222 THOMAS AVE","LRAFB","AR",72099,NA,NA,280,"BLDG 1222 THOMAS AVE, LRAFB, AR, 72099","Tie",NA,NA,NA,NA
322281,"BLDG 158 AVE B","FORT IRWIN","CA",92310,NA,NA,281,"BLDG 158 AVE B, FORT IRWIN, CA, 92310","No_Match",NA,NA,NA,NA
322282,"BLDG 3373 EVERGREEN AVE","JBLM","WA",98434,NA,NA,282,"BLDG 3373 EVERGREEN AVE, JBLM, WA, 98434","No_Match",NA,NA,NA,NA
322283,"BLDG 9-51 FORT INDIANTOWN GAP","ANNVILLE","PA",17003,NA,NA,283,"BLDG 9-51 FORT INDIANTOWN GAP, ANNVILLE, PA, 17003","No_Match",NA,NA,NA,NA
322284,"BLDG 977 TICONDEROGA STREET","LEMOORE","CA",93245,NA,NA,284,"BLDG 977 TICONDEROGA STREET, LEMOORE, CA, 93245","No_Match",NA,NA,NA,NA
322285,"BLDG 9804 SUITE 124 LOVE ROAD","FORT MEADE","MD",20755,NA,NA,285,"BLDG 9804 SUITE 124 LOVE ROAD, FORT MEADE, MD, 20755","No_Match",NA,NA,NA,NA
322286,"BLDG RR440 PSC BOX 20117","CAMP LEJEUNE","NC",28542,NA,NA,286,"BLDG RR440 PSC BOX 20117, CAMP LEJEUNE, NC, 28542","No_Match",NA,NA,NA,NA
322287,"BLUFF","RED BLUFF","CA",96080,NA,NA,287,"BLUFF, RED BLUFF, CA, 96080","No_Match",NA,NA,NA,NA
322288,"BO BUCARABONES   HC-2 BOX 10742","LAS MARIAS","PR",670,NA,NA,288,"BO BUCARABONES   HC-2 BOX 10742, LAS MARIAS, PR, 670","No_Match",NA,NA,NA,NA
322289,"BO CEIBA SANANA 182 CALLE M RAMIREZ","VEGA BAJA","PR",693,NA,NA,289,"BO CEIBA SANANA 182 CALLE M RAMIREZ, VEGA BAJA, PR, 693","No_Match",NA,NA,NA,NA
322290,"BO CORCOVADO CARR 492 INTERIOR","HATILLO","PR",659,NA,NA,290,"BO CORCOVADO CARR 492 INTERIOR, HATILLO, PR, 659","No_Match",NA,NA,NA,NA
322291,"BO DUQUE BOX 2071-2 CALLE 3 PAR 218","NAGUABO","PR",718,NA,NA,291,"BO DUQUE BOX 2071-2 CALLE 3 PAR 218, NAGUABO, PR, 718","No_Match",NA,NA,NA,NA
322292,"BO GUERRERO CARR 466 KM 3-7","AGUADILLA","PR",603,NA,NA,292,"BO GUERRERO CARR 466 KM 3-7, AGUADILLA, PR, 603","No_Match",NA,NA,NA,NA
322293,"BO LA CUARTA CALLE E 43","MERCEDITA","PR",715,NA,NA,293,"BO LA CUARTA CALLE E 43, MERCEDITA, PR, 715","No_Match",NA,NA,NA,NA
322294,"BO SUMIDO CARR 715 KM-1 HM-4 RM-1","CAYEY","PR",736,NA,NA,294,"BO SUMIDO CARR 715 KM-1 HM-4 RM-1, CAYEY, PR, 736","No_Match",NA,NA,NA,NA
322295,"BOB HUFFMAN 3925 SANGO RD","CLARKSVILLE","TN",37043,36.499448871,-87.1953274479999,295,"BOB HUFFMAN 3925 SANGO RD, CLARKSVILLE, TN, 37043","Match","Exact","3925 SANGO RD, CLARKSVILLE, TN, 37043",31825493,"R"
322296,"BOCAIMITO MORCELO INT CARR 842K6H3","SAN JUAN","PR",927,NA,NA,296,"BOCAIMITO MORCELO INT CARR 842K6H3, SAN JUAN, PR, 927","No_Match",NA,NA,NA,NA
322297,"BOROUGH MUNICIPAL BLDG 201 N 4TH ST","GIRARDVILLE","PA",17935,40.793926447,-76.278733443,297,"BOROUGH MUNICIPAL BLDG 201 N 4TH ST, GIRARDVILLE, PA, 17935","Match","Exact","201 N 4TH ST, GIRARDVILLE, PA, 17935",70934670,"L"
322298,"BOSQUE DOARDO 60026 CALLE NARANJO","DORADO","PR",646,NA,NA,298,"BOSQUE DOARDO 60026 CALLE NARANJO, DORADO, PR, 646","No_Match",NA,NA,NA,NA
322299,"BOX  42031-75","LUBBOCK","TX",79409,NA,NA,299,"BOX  42031-75, LUBBOCK, TX, 79409","No_Match",NA,NA,NA,NA
322300,"BOX  621133","ORLANDO","FL",32822,NA,NA,300,"BOX  621133, ORLANDO, FL, 32822","No_Match",NA,NA,NA,NA
322301,"BOX 1","CONTOOCOOK","NH",3229,NA,NA,301,"BOX 1, CONTOOCOOK, NH, 3229","No_Match",NA,NA,NA,NA
322302,"BOX 100","KINDERHOOK","NY",12106,NA,NA,302,"BOX 100, KINDERHOOK, NY, 12106","No_Match",NA,NA,NA,NA
322303,"BOX 101","MEDIA","PA",19063,NA,NA,303,"BOX 101, MEDIA, PA, 19063","No_Match",NA,NA,NA,NA
322304,"BOX 10282","CANOGA PARK","CA",91309,NA,NA,304,"BOX 10282, CANOGA PARK, CA, 91309","No_Match",NA,NA,NA,NA
322305,"BOX 1031","AULT","CO",80610,NA,NA,305,"BOX 1031, AULT, CO, 80610","No_Match",NA,NA,NA,NA
322306,"BOX 1037","NEWARK","DE",19715,NA,NA,306,"BOX 1037, NEWARK, DE, 19715","No_Match",NA,NA,NA,NA
322307,"BOX 105","GUILDERLAND","NY",12084,NA,NA,307,"BOX 105, GUILDERLAND, NY, 12084","No_Match",NA,NA,NA,NA
322308,"BOX 1053","PORT TOWNSEND","WA",98368,NA,NA,308,"BOX 1053, PORT TOWNSEND, WA, 98368","No_Match",NA,NA,NA,NA
322309,"BOX 1092","SOUTH ORLEANS","MA",2662,NA,NA,309,"BOX 1092, SOUTH ORLEANS, MA, 2662","No_Match",NA,NA,NA,NA
322310,"BOX 111","CENTERVILLE","IA",52544,NA,NA,310,"BOX 111, CENTERVILLE, IA, 52544","No_Match",NA,NA,NA,NA
322311,"BOX 111","NELLYSFORD","VA",22958,NA,NA,311,"BOX 111, NELLYSFORD, VA, 22958","No_Match",NA,NA,NA,NA
322312,"BOX 1129","VEGA BAJA","PR",694,NA,NA,312,"BOX 1129, VEGA BAJA, PR, 694","No_Match",NA,NA,NA,NA
322313,"BOX 114","ALBION","PA",16401,NA,NA,313,"BOX 114, ALBION, PA, 16401","No_Match",NA,NA,NA,NA
322314,"BOX 1144","DOVER","DE",19901,NA,NA,314,"BOX 1144, DOVER, DE, 19901","No_Match",NA,NA,NA,NA
322315,"BOX 1164","TOWNSEND","MT",59644,NA,NA,315,"BOX 1164, TOWNSEND, MT, 59644","No_Match",NA,NA,NA,NA
322316,"BOX 1190","DOUGLAS","WY",82633,NA,NA,316,"BOX 1190, DOUGLAS, WY, 82633","No_Match",NA,NA,NA,NA
322317,"BOX 121","ELMORA","PA",15737,NA,NA,317,"BOX 121, ELMORA, PA, 15737","No_Match",NA,NA,NA,NA
322318,"BOX 124","ENGLEWOOD","NJ",7631,NA,NA,318,"BOX 124, ENGLEWOOD, NJ, 7631","No_Match",NA,NA,NA,NA
322319,"BOX 124","SILVANA","WA",98287,NA,NA,319,"BOX 124, SILVANA, WA, 98287","No_Match",NA,NA,NA,NA
322320,"BOX 125","CALDWELL","ID",83606,NA,NA,320,"BOX 125, CALDWELL, ID, 83606","No_Match",NA,NA,NA,NA
322321,"BOX 1252","LANHAN","MD",20703,NA,NA,321,"BOX 1252, LANHAN, MD, 20703","No_Match",NA,NA,NA,NA
322322,"BOX 126","FORT YUKON","AK",99740,NA,NA,322,"BOX 126, FORT YUKON, AK, 99740","No_Match",NA,NA,NA,NA
322323,"BOX 131","ALICEVILLE","AL",35442,NA,NA,323,"BOX 131, ALICEVILLE, AL, 35442","No_Match",NA,NA,NA,NA
322324,"BOX 131","MOUNT DORA","FL",32756,NA,NA,324,"BOX 131, MOUNT DORA, FL, 32756","No_Match",NA,NA,NA,NA
322325,"BOX 1338","LONGVIEW","WA",98632,NA,NA,325,"BOX 1338, LONGVIEW, WA, 98632","No_Match",NA,NA,NA,NA
322326,"BOX 134 RT 4 HOLDER ROAD","FORRESTON","TX",76041,NA,NA,326,"BOX 134 RT 4 HOLDER ROAD, FORRESTON, TX, 76041","No_Match",NA,NA,NA,NA
322327,"BOX 1345","PALMETTO","FL",34220,NA,NA,327,"BOX 1345, PALMETTO, FL, 34220","No_Match",NA,NA,NA,NA
322328,"BOX 1399","NEWPORT NEWS","VA",23601,NA,NA,328,"BOX 1399, NEWPORT NEWS, VA, 23601","No_Match",NA,NA,NA,NA
322329,"BOX 140623","IRVING","TX",75014,NA,NA,329,"BOX 140623, IRVING, TX, 75014","No_Match",NA,NA,NA,NA
322330,"BOX 14175","LANSING","MI",48901,NA,NA,330,"BOX 14175, LANSING, MI, 48901","No_Match",NA,NA,NA,NA
322331,"BOX 145 FPG STUDENT UNION CB 5210","CHAPEL HILL","NC",27599,NA,NA,331,"BOX 145 FPG STUDENT UNION CB 5210, CHAPEL HILL, NC, 27599","No_Match",NA,NA,NA,NA
322332,"BOX 145","EDNA","TX",77957,NA,NA,332,"BOX 145, EDNA, TX, 77957","No_Match",NA,NA,NA,NA
322333,"BOX 1471","MANSFIELD","OH",44901,NA,NA,333,"BOX 1471, MANSFIELD, OH, 44901","No_Match",NA,NA,NA,NA
322334,"BOX 1493","LOGANSPORT","IN",46947,NA,NA,334,"BOX 1493, LOGANSPORT, IN, 46947","No_Match",NA,NA,NA,NA
322335,"BOX 15","BEDFORD","NY",10506,NA,NA,335,"BOX 15, BEDFORD, NY, 10506","No_Match",NA,NA,NA,NA
322336,"BOX 1502","SAN JUAN","TX",78589,NA,NA,336,"BOX 1502, SAN JUAN, TX, 78589","No_Match",NA,NA,NA,NA
322337,"BOX 1530","CHELAN","WA",98816,NA,NA,337,"BOX 1530, CHELAN, WA, 98816","No_Match",NA,NA,NA,NA
322338,"BOX 1538","ELIZABETH","CO",80107,NA,NA,338,"BOX 1538, ELIZABETH, CO, 80107","No_Match",NA,NA,NA,NA
322339,"BOX 154","GARFIELD","WA",99130,NA,NA,339,"BOX 154, GARFIELD, WA, 99130","No_Match",NA,NA,NA,NA
322340,"BOX 154","SEASIDE PARK","NJ",8752,NA,NA,340,"BOX 154, SEASIDE PARK, NJ, 8752","No_Match",NA,NA,NA,NA
322341,"BOX 1548","FREDERIKSTED","VI",841,NA,NA,341,"BOX 1548, FREDERIKSTED, VI, 841","No_Match",NA,NA,NA,NA
322342,"BOX 1552","HELENA","MT",59624,NA,NA,342,"BOX 1552, HELENA, MT, 59624","No_Match",NA,NA,NA,NA
322343,"BOX 156 - 101 FELLOWSHIP RD","UWCHLAND","PA",19480,NA,NA,343,"BOX 156 - 101 FELLOWSHIP RD, UWCHLAND, PA, 19480","No_Match",NA,NA,NA,NA
322344,"BOX 156","NOTTOWAY","VA",23955,NA,NA,344,"BOX 156, NOTTOWAY, VA, 23955","No_Match",NA,NA,NA,NA
322345,"BOX 159","OOLTEWAH","TN",37363,NA,NA,345,"BOX 159, OOLTEWAH, TN, 37363","No_Match",NA,NA,NA,NA
322346,"BOX 16119","HOOKSETT","NH",3106,NA,NA,346,"BOX 16119, HOOKSETT, NH, 3106","No_Match",NA,NA,NA,NA
322347,"BOX 16184","CHARLOTTE","NC",28297,NA,NA,347,"BOX 16184, CHARLOTTE, NC, 28297","No_Match",NA,NA,NA,NA
322348,"BOX 16214","JACKSON","MS",39236,NA,NA,348,"BOX 16214, JACKSON, MS, 39236","No_Match",NA,NA,NA,NA
322349,"BOX 1648","NEW YORK","NY",10276,NA,NA,349,"BOX 1648, NEW YORK, NY, 10276","No_Match",NA,NA,NA,NA
322350,"BOX 165","ROCKPORT","MA",1966,NA,NA,350,"BOX 165, ROCKPORT, MA, 1966","No_Match",NA,NA,NA,NA
322351,"BOX 1662","TAVARES","FL",32778,NA,NA,351,"BOX 1662, TAVARES, FL, 32778","No_Match",NA,NA,NA,NA
322352,"BOX 167","BAKER","MT",59313,NA,NA,352,"BOX 167, BAKER, MT, 59313","No_Match",NA,NA,NA,NA
322353,"BOX 170592","AUSTIN","TX",78717,NA,NA,353,"BOX 170592, AUSTIN, TX, 78717","No_Match",NA,NA,NA,NA
322354,"BOX 1714","OROVILLE","CA",95965,NA,NA,354,"BOX 1714, OROVILLE, CA, 95965","No_Match",NA,NA,NA,NA
322355,"BOX 172","POYNETTE","WI",53955,NA,NA,355,"BOX 172, POYNETTE, WI, 53955","No_Match",NA,NA,NA,NA
322356,"BOX 1726","YREKA","CA",96097,NA,NA,356,"BOX 1726, YREKA, CA, 96097","No_Match",NA,NA,NA,NA
322357,"BOX 173900","BOZEMAN","MT",59717,NA,NA,357,"BOX 173900, BOZEMAN, MT, 59717","No_Match",NA,NA,NA,NA
322358,"BOX 1758","HAINES","AK",99827,NA,NA,358,"BOX 1758, HAINES, AK, 99827","No_Match",NA,NA,NA,NA
322359,"BOX 1762","NORTHPORT","ME",4849,NA,NA,359,"BOX 1762, NORTHPORT, ME, 4849","No_Match",NA,NA,NA,NA
322360,"BOX 177","BUFORD","GA",30515,NA,NA,360,"BOX 177, BUFORD, GA, 30515","No_Match",NA,NA,NA,NA
322361,"BOX 1785","OCEAN SHORES","WA",98569,NA,NA,361,"BOX 1785, OCEAN SHORES, WA, 98569","No_Match",NA,NA,NA,NA
322362,"BOX 179","SHELBYVILLE","KY",40065,NA,NA,362,"BOX 179, SHELBYVILLE, KY, 40065","No_Match",NA,NA,NA,NA
322363,"BOX 18","MERINO","CO",80741,NA,NA,363,"BOX 18, MERINO, CO, 80741","No_Match",NA,NA,NA,NA
322364,"BOX 18","NINNEKAH","OK",73067,NA,NA,364,"BOX 18, NINNEKAH, OK, 73067","No_Match",NA,NA,NA,NA
322365,"BOX 18","PORT LIONS","AK",99550,NA,NA,365,"BOX 18, PORT LIONS, AK, 99550","No_Match",NA,NA,NA,NA
322366,"BOX 181414","DENVER","CO",80218,NA,NA,366,"BOX 181414, DENVER, CO, 80218","No_Match",NA,NA,NA,NA
322367,"BOX 188 FPG STUDENT UNION","CHAPEL HILL","NC",27599,NA,NA,367,"BOX 188 FPG STUDENT UNION, CHAPEL HILL, NC, 27599","No_Match",NA,NA,NA,NA
322368,"BOX 1884","LAS VEGAS","NM",87701,NA,NA,368,"BOX 1884, LAS VEGAS, NM, 87701","No_Match",NA,NA,NA,NA
322369,"BOX 189    4008 LOUETTA RD","SPRING","TX",77388,30.048740695,-95.473414404,369,"BOX 189    4008 LOUETTA RD, SPRING, TX, 77388","Match","Exact","4008 LOUETTA RD, SPRING, TX, 77388",642113512,"L"
322370,"BOX 1892","MARTINEZ","CA",94553,NA,NA,370,"BOX 1892, MARTINEZ, CA, 94553","No_Match",NA,NA,NA,NA
322371,"BOX 19017 WOOLF HALL 420","ARLINGTON","TX",76019,NA,NA,371,"BOX 19017 WOOLF HALL 420, ARLINGTON, TX, 76019","No_Match",NA,NA,NA,NA
322372,"BOX 191762","DALLAS","TX",75219,NA,NA,372,"BOX 191762, DALLAS, TX, 75219","No_Match",NA,NA,NA,NA
322373,"BOX 19316 NEDDERMAN HALL RM 222","ARLINGTON","TX",76016,NA,NA,373,"BOX 19316 NEDDERMAN HALL RM 222, ARLINGTON, TX, 76016","No_Match",NA,NA,NA,NA
322374,"BOX 19316","ARLIGTON","TX",76019,NA,NA,374,"BOX 19316, ARLIGTON, TX, 76019","No_Match",NA,NA,NA,NA
322375,"BOX 19316","ARLINGTON","MI",76019,NA,NA,375,"BOX 19316, ARLINGTON, MI, 76019","No_Match",NA,NA,NA,NA
322376,"BOX 19316","ARLINGTON","TX",76016,NA,NA,376,"BOX 19316, ARLINGTON, TX, 76016","No_Match",NA,NA,NA,NA
322377,"BOX 19316","ARLINGTON","TX",76019,NA,NA,377,"BOX 19316, ARLINGTON, TX, 76019","No_Match",NA,NA,NA,NA
322378,"BOX 19316","ARLINGTON","VA",76019,NA,NA,378,"BOX 19316, ARLINGTON, VA, 76019","No_Match",NA,NA,NA,NA
322379,"BOX 19437 - 701 S WEST ST- STE 535","ARLINGTON","TX",76019,NA,NA,379,"BOX 19437 - 701 S WEST ST- STE 535, ARLINGTON, TX, 76019","No_Match",NA,NA,NA,NA
322380,"BOX 19451","SACRAMENTO","CA",95819,NA,NA,380,"BOX 19451, SACRAMENTO, CA, 95819","No_Match",NA,NA,NA,NA
322381,"BOX 1954","FAIRVIEW HEIGHTS","IL",62208,NA,NA,381,"BOX 1954, FAIRVIEW HEIGHTS, IL, 62208","No_Match",NA,NA,NA,NA
322382,"BOX 1956","CAROLINA","PR",983,NA,NA,382,"BOX 1956, CAROLINA, PR, 983","No_Match",NA,NA,NA,NA
322383,"BOX 1957 155 GEORGE ST","PROVIDENCE","RI",2919,41.8376945470001,-71.4835164789999,383,"BOX 1957 155 GEORGE ST, PROVIDENCE, RI, 2919","Match","Exact","155 GEORGE ST, PROVIDENCE, RI, 02919",647219732,"R"
322384,"BOX 198 6852 MAIN ST","BURNSIDE","PA",15721,NA,NA,384,"BOX 198 6852 MAIN ST, BURNSIDE, PA, 15721","No_Match",NA,NA,NA,NA
322385,"BOX 2","CIRCLEVILLE","OH",43113,NA,NA,385,"BOX 2, CIRCLEVILLE, OH, 43113","No_Match",NA,NA,NA,NA
322386,"BOX 202","ORELAND","PA",19075,NA,NA,386,"BOX 202, ORELAND, PA, 19075","No_Match",NA,NA,NA,NA
322387,"BOX 203","CORNISH","ME",4020,NA,NA,387,"BOX 203, CORNISH, ME, 4020","No_Match",NA,NA,NA,NA
322388,"BOX 203","HOXIE","KS",67740,NA,NA,388,"BOX 203, HOXIE, KS, 67740","No_Match",NA,NA,NA,NA
322389,"BOX 2038","AIBONITO","PR",705,NA,NA,389,"BOX 2038, AIBONITO, PR, 705","No_Match",NA,NA,NA,NA
322390,"BOX 205","UNDERWOOD","WA",98651,NA,NA,390,"BOX 205, UNDERWOOD, WA, 98651","No_Match",NA,NA,NA,NA
322391,"BOX 20521","STATEN ISLAND","NY",10302,NA,NA,391,"BOX 20521, STATEN ISLAND, NY, 10302","No_Match",NA,NA,NA,NA
322392,"BOX 20543","ROANOKE","VA",24018,NA,NA,392,"BOX 20543, ROANOKE, VA, 24018","No_Match",NA,NA,NA,NA
322393,"BOX 206","INCHELIUM","WA",99138,NA,NA,393,"BOX 206, INCHELIUM, WA, 99138","No_Match",NA,NA,NA,NA
322394,"BOX 207 FRANK PORTER GRAHAM STREET","CHAPEL HILL","NC",27599,NA,NA,394,"BOX 207 FRANK PORTER GRAHAM STREET, CHAPEL HILL, NC, 27599","No_Match",NA,NA,NA,NA
322395,"BOX 20844","ROCHESTER","NY",14602,NA,NA,395,"BOX 20844, ROCHESTER, NY, 14602","No_Match",NA,NA,NA,NA
322396,"BOX 21","COOPERS PLAINS","NY",14827,NA,NA,396,"BOX 21, COOPERS PLAINS, NY, 14827","No_Match",NA,NA,NA,NA
322397,"BOX 21","YODER","KS",67585,NA,NA,397,"BOX 21, YODER, KS, 67585","No_Match",NA,NA,NA,NA
322398,"BOX 21125","SEATTLE","WA",98111,NA,NA,398,"BOX 21125, SEATTLE, WA, 98111","No_Match",NA,NA,NA,NA
322399,"BOX 2121","CRYSTAL LAKE","IL",60039,NA,NA,399,"BOX 2121, CRYSTAL LAKE, IL, 60039","No_Match",NA,NA,NA,NA
322400,"BOX 213","BARNUM","MN",55707,NA,NA,400,"BOX 213, BARNUM, MN, 55707","No_Match",NA,NA,NA,NA
322401,"BOX 213","GROVETON","TX",75845,NA,NA,401,"BOX 213, GROVETON, TX, 75845","No_Match",NA,NA,NA,NA
322402,"BOX 215 253 MAIN ST","WOLF CREEK","OR",97497,42.695662284,-123.39872526,402,"BOX 215 253 MAIN ST, WOLF CREEK, OR, 97497","Match","Exact","253 MAIN ST, WOLF CREEK, OR, 97497",608176659,"R"
322403,"BOX 215","CHENANGO BRIDGE","NY",13745,NA,NA,403,"BOX 215, CHENANGO BRIDGE, NY, 13745","No_Match",NA,NA,NA,NA
322404,"BOX 215","RUSTON","LA",71273,NA,NA,404,"BOX 215, RUSTON, LA, 71273","No_Match",NA,NA,NA,NA
322405,"BOX 21510 VILLAS DE GUAVATE","CAYEY","PR",736,NA,NA,405,"BOX 21510 VILLAS DE GUAVATE, CAYEY, PR, 736","No_Match",NA,NA,NA,NA
322406,"BOX 2176","SANDWICH","MA",2563,NA,NA,406,"BOX 2176, SANDWICH, MA, 2563","No_Match",NA,NA,NA,NA
322407,"BOX 218133","HOUSTON","TX",77218,NA,NA,407,"BOX 218133, HOUSTON, TX, 77218","No_Match",NA,NA,NA,NA
322408,"BOX 2184","TOMBALL","TX",77377,NA,NA,408,"BOX 2184, TOMBALL, TX, 77377","No_Match",NA,NA,NA,NA
322409,"BOX 2186","LEAVENWORTH","WA",98826,NA,NA,409,"BOX 2186, LEAVENWORTH, WA, 98826","No_Match",NA,NA,NA,NA
322410,"BOX 219  2604 ELMWOOD AVE","ROCHESTER","NY",14618,43.126350533,-77.567013526,410,"BOX 219  2604 ELMWOOD AVE, ROCHESTER, NY, 14618","Match","Exact","2604 ELMWOOD AVE, ROCHESTER, NY, 14618",14543098,"L"
322411,"BOX 2193","MARIETTA","OH",45750,NA,NA,411,"BOX 2193, MARIETTA, OH, 45750","No_Match",NA,NA,NA,NA
322412,"BOX 2223","OSHKOSH","WI",54902,NA,NA,412,"BOX 2223, OSHKOSH, WI, 54902","No_Match",NA,NA,NA,NA
322413,"BOX 2248","HUNTSVILLE","AL",35804,NA,NA,413,"BOX 2248, HUNTSVILLE, AL, 35804","No_Match",NA,NA,NA,NA
322414,"BOX 225997","DALLAS","TX",75222,NA,NA,414,"BOX 225997, DALLAS, TX, 75222","No_Match",NA,NA,NA,NA
322415,"BOX 226","NORTHUMBERLAND","PA",17857,NA,NA,415,"BOX 226, NORTHUMBERLAND, PA, 17857","No_Match",NA,NA,NA,NA
322416,"BOX 2277","SITKA","AK",99835,NA,NA,416,"BOX 2277, SITKA, AK, 99835","No_Match",NA,NA,NA,NA
322417,"BOX 229","WALLOWA","OR",97885,NA,NA,417,"BOX 229, WALLOWA, OR, 97885","No_Match",NA,NA,NA,NA
322418,"BOX 23 710 MARKET ST","CHAPEL HILL","NC",27516,35.880735703,-79.066154523,418,"BOX 23 710 MARKET ST, CHAPEL HILL, NC, 27516","Match","Exact","710 MARKET ST, CHAPEL HILL, NC, 27516",72413728,"R"
322419,"BOX 2382","MIDLAND","MI",48641,NA,NA,419,"BOX 2382, MIDLAND, MI, 48641","No_Match",NA,NA,NA,NA
322420,"BOX 24034","PITTSBURGH","PA",15206,NA,NA,420,"BOX 24034, PITTSBURGH, PA, 15206","No_Match",NA,NA,NA,NA
322421,"BOX 241","MANASQUAN","NJ",8736,NA,NA,421,"BOX 241, MANASQUAN, NJ, 8736","No_Match",NA,NA,NA,NA
322422,"BOX 2451","CULVER CITY","CA",90231,NA,NA,422,"BOX 2451, CULVER CITY, CA, 90231","No_Match",NA,NA,NA,NA
322423,"BOX 2452","KINGSFORD","MI",49802,NA,NA,423,"BOX 2452, KINGSFORD, MI, 49802","No_Match",NA,NA,NA,NA
322424,"BOX 2466","TOLEDO","OH",43606,NA,NA,424,"BOX 2466, TOLEDO, OH, 43606","No_Match",NA,NA,NA,NA
322425,"BOX 248","MINERAL SPRINGS","NC",28108,NA,NA,425,"BOX 248, MINERAL SPRINGS, NC, 28108","No_Match",NA,NA,NA,NA
322426,"BOX 250","BIG HORN","WY",82833,NA,NA,426,"BOX 250, BIG HORN, WY, 82833","No_Match",NA,NA,NA,NA
322427,"BOX 250","PALMDALE","FL",33944,NA,NA,427,"BOX 250, PALMDALE, FL, 33944","No_Match",NA,NA,NA,NA
322428,"BOX 254","RED LODGE","MT",59068,NA,NA,428,"BOX 254, RED LODGE, MT, 59068","No_Match",NA,NA,NA,NA
322429,"BOX 25502","MIRAMAR","FL",33320,NA,NA,429,"BOX 25502, MIRAMAR, FL, 33320","No_Match",NA,NA,NA,NA
322430,"BOX 2554","MONROE","MI",48161,NA,NA,430,"BOX 2554, MONROE, MI, 48161","No_Match",NA,NA,NA,NA
322431,"BOX 2556","LAS CRUCES","NM",88004,NA,NA,431,"BOX 2556, LAS CRUCES, NM, 88004","No_Match",NA,NA,NA,NA
322432,"BOX 26","IRWIN","IA",51446,NA,NA,432,"BOX 26, IRWIN, IA, 51446","No_Match",NA,NA,NA,NA
322433,"BOX 260","EXCELSIOR","MN",55331,NA,NA,433,"BOX 260, EXCELSIOR, MN, 55331","No_Match",NA,NA,NA,NA
322434,"BOX 263","OZARK","AR",72949,NA,NA,434,"BOX 263, OZARK, AR, 72949","No_Match",NA,NA,NA,NA
322435,"BOX 266 355 SOUTH MAIN","THURSTON","NE",68062,42.17439168,-96.700882074,435,"BOX 266 355 SOUTH MAIN, THURSTON, NE, 68062","Match","Non_Exact","355 S MAIN ST, THURSTON, NE, 68062",193829226,"L"
322436,"BOX 266","BRACKETTVILLE","TX",78832,NA,NA,436,"BOX 266, BRACKETTVILLE, TX, 78832","No_Match",NA,NA,NA,NA
322437,"BOX 266","JANESVILLE","MN",56048,NA,NA,437,"BOX 266, JANESVILLE, MN, 56048","No_Match",NA,NA,NA,NA
322438,"BOX 26691","LOS ANGELES","CA",90026,NA,NA,438,"BOX 26691, LOS ANGELES, CA, 90026","No_Match",NA,NA,NA,NA
322439,"BOX 267","PORTAL","ND",58772,NA,NA,439,"BOX 267, PORTAL, ND, 58772","No_Match",NA,NA,NA,NA
322440,"BOX 268","KASOTA","MN",56050,NA,NA,440,"BOX 268, KASOTA, MN, 56050","No_Match",NA,NA,NA,NA
322441,"BOX 2681","CHAMPAIGN","IL",61825,NA,NA,441,"BOX 2681, CHAMPAIGN, IL, 61825","No_Match",NA,NA,NA,NA
322442,"BOX 270 FPG STUDENT UNION","CHAPEL HILL","NC",27599,NA,NA,442,"BOX 270 FPG STUDENT UNION, CHAPEL HILL, NC, 27599","No_Match",NA,NA,NA,NA
322443,"BOX 2704","KALISPELL","MT",59903,NA,NA,443,"BOX 2704, KALISPELL, MT, 59903","No_Match",NA,NA,NA,NA
322444,"BOX 270744","MILWAUKEE","WI",53227,NA,NA,444,"BOX 270744, MILWAUKEE, WI, 53227","No_Match",NA,NA,NA,NA
322445,"BOX 272","MELISSA","TX",75454,NA,NA,445,"BOX 272, MELISSA, TX, 75454","No_Match",NA,NA,NA,NA
322446,"BOX 273","WAINSCOTT","NY",11975,NA,NA,446,"BOX 273, WAINSCOTT, NY, 11975","No_Match",NA,NA,NA,NA
322447,"BOX 2740","BECKLEY","WV",25801,NA,NA,447,"BOX 2740, BECKLEY, WV, 25801","No_Match",NA,NA,NA,NA
322448,"BOX 278","LAKE LEELANAU","MI",49653,NA,NA,448,"BOX 278, LAKE LEELANAU, MI, 49653","No_Match",NA,NA,NA,NA
322449,"BOX 28","COUNCE","TN",38326,NA,NA,449,"BOX 28, COUNCE, TN, 38326","No_Match",NA,NA,NA,NA
322450,"BOX 281","HURLEY","NY",12443,NA,NA,450,"BOX 281, HURLEY, NY, 12443","No_Match",NA,NA,NA,NA
322451,"BOX 281","WASHINGTON TOWNSHIP","MI",48094,NA,NA,451,"BOX 281, WASHINGTON TOWNSHIP, MI, 48094","No_Match",NA,NA,NA,NA
322452,"BOX 2870","VALDEZ","AK",99686,NA,NA,452,"BOX 2870, VALDEZ, AK, 99686","No_Match",NA,NA,NA,NA
322453,"BOX 293","CHEROKEE","TX",76832,NA,NA,453,"BOX 293, CHEROKEE, TX, 76832","No_Match",NA,NA,NA,NA
322454,"BOX 295","MCCONNELL BURG","PA",17233,NA,NA,454,"BOX 295, MCCONNELL BURG, PA, 17233","No_Match",NA,NA,NA,NA
322455,"BOX 295","ODESSA","DE",19730,NA,NA,455,"BOX 295, ODESSA, DE, 19730","No_Match",NA,NA,NA,NA
322456,"BOX 297","NORMAN","OK",73070,NA,NA,456,"BOX 297, NORMAN, OK, 73070","No_Match",NA,NA,NA,NA
322457,"BOX 30053","CINCINNATI","OH",45230,NA,NA,457,"BOX 30053, CINCINNATI, OH, 45230","No_Match",NA,NA,NA,NA
322458,"BOX 301","BRATTLEBORO","VT",5302,NA,NA,458,"BOX 301, BRATTLEBORO, VT, 5302","No_Match",NA,NA,NA,NA
322459,"BOX 301","GRANTHAM","PA",17027,NA,NA,459,"BOX 301, GRANTHAM, PA, 17027","No_Match",NA,NA,NA,NA
322460,"BOX 301346","BOSTON","MA",2130,NA,NA,460,"BOX 301346, BOSTON, MA, 2130","No_Match",NA,NA,NA,NA
322461,"BOX 3029","HONOLULU","HI",96802,NA,NA,461,"BOX 3029, HONOLULU, HI, 96802","No_Match",NA,NA,NA,NA
322462,"BOX 304","PINE CITY","NY",14871,NA,NA,462,"BOX 304, PINE CITY, NY, 14871","No_Match",NA,NA,NA,NA
322463,"BOX 3043","LAUNA HILLS","CA",92654,NA,NA,463,"BOX 3043, LAUNA HILLS, CA, 92654","No_Match",NA,NA,NA,NA
322464,"BOX 305","RISING STAR","TX",76471,NA,NA,464,"BOX 305, RISING STAR, TX, 76471","No_Match",NA,NA,NA,NA
322465,"BOX 3063","CRESTED BUTTE","CO",81224,NA,NA,465,"BOX 3063, CRESTED BUTTE, CO, 81224","No_Match",NA,NA,NA,NA
322466,"BOX 31","CLARINDA","IA",51632,NA,NA,466,"BOX 31, CLARINDA, IA, 51632","No_Match",NA,NA,NA,NA
322467,"BOX 31","KNAPP","WI",54749,NA,NA,467,"BOX 31, KNAPP, WI, 54749","No_Match",NA,NA,NA,NA
322468,"BOX 311","WILLERNIE","MN",55090,NA,NA,468,"BOX 311, WILLERNIE, MN, 55090","No_Match",NA,NA,NA,NA
322469,"BOX 313","INDIANA","PA",15701,NA,NA,469,"BOX 313, INDIANA, PA, 15701","No_Match",NA,NA,NA,NA
322470,"BOX 32071","BOONE","NC",28608,NA,NA,470,"BOX 32071, BOONE, NC, 28608","No_Match",NA,NA,NA,NA
322471,"BOX 324","PROVIDENCE","RI",2901,NA,NA,471,"BOX 324, PROVIDENCE, RI, 2901","No_Match",NA,NA,NA,NA
322472,"BOX 33 FPG STUDENT UNION UNC-CH","CHAPEL HILL","NC",27599,NA,NA,472,"BOX 33 FPG STUDENT UNION UNC-CH, CHAPEL HILL, NC, 27599","No_Match",NA,NA,NA,NA
322473,"BOX 332","KARNS CITY","PA",16041,NA,NA,473,"BOX 332, KARNS CITY, PA, 16041","No_Match",NA,NA,NA,NA
322474,"BOX 3323","HUNTERSVILLE","NC",28070,NA,NA,474,"BOX 3323, HUNTERSVILLE, NC, 28070","No_Match",NA,NA,NA,NA
322475,"BOX 333","DESERT HOT SPRINGS","CA",92240,NA,NA,475,"BOX 333, DESERT HOT SPRINGS, CA, 92240","No_Match",NA,NA,NA,NA
322476,"BOX 33344","AMARILLO","TX",79120,NA,NA,476,"BOX 33344, AMARILLO, TX, 79120","No_Match",NA,NA,NA,NA
322477,"BOX 334","MORRIS","IL",60450,NA,NA,477,"BOX 334, MORRIS, IL, 60450","No_Match",NA,NA,NA,NA
322478,"BOX 335","LAUPAHOEHOE","HI",96764,NA,NA,478,"BOX 335, LAUPAHOEHOE, HI, 96764","No_Match",NA,NA,NA,NA
322479,"BOX 336","JUNCTION CITY","OR",97448,NA,NA,479,"BOX 336, JUNCTION CITY, OR, 97448","No_Match",NA,NA,NA,NA
322480,"BOX 341124","DAYTON","OH",45432,NA,NA,480,"BOX 341124, DAYTON, OH, 45432","No_Match",NA,NA,NA,NA
322481,"BOX 343","MORRO BAY","CA",93443,NA,NA,481,"BOX 343, MORRO BAY, CA, 93443","No_Match",NA,NA,NA,NA
322482,"BOX 343","SPRINGFIELD","VT",5156,NA,NA,482,"BOX 343, SPRINGFIELD, VT, 5156","No_Match",NA,NA,NA,NA
322483,"BOX 348","BOOKER","TX",79005,NA,NA,483,"BOX 348, BOOKER, TX, 79005","No_Match",NA,NA,NA,NA
322484,"BOX 352238 SAO 130 HUB 232","SEATTLE","WA",98105,NA,NA,484,"BOX 352238 SAO 130 HUB 232, SEATTLE, WA, 98105","No_Match",NA,NA,NA,NA
322485,"BOX 355351 UNIVERSITY OF WASHINGTON","SEATTLE","WA",98195,NA,NA,485,"BOX 355351 UNIVERSITY OF WASHINGTON, SEATTLE, WA, 98195","No_Match",NA,NA,NA,NA
322486,"BOX 358426","TACOMA","WA",98402,NA,NA,486,"BOX 358426, TACOMA, WA, 98402","No_Match",NA,NA,NA,NA
322487,"BOX 362","VALPARAISO","IN",46384,NA,NA,487,"BOX 362, VALPARAISO, IN, 46384","No_Match",NA,NA,NA,NA
322488,"BOX 3664","BEVERLY HILLS","CA",90210,NA,NA,488,"BOX 3664, BEVERLY HILLS, CA, 90210","No_Match",NA,NA,NA,NA
322489,"BOX 37 FPG STUDENT UNION","CHAPEL HILL","NC",27599,NA,NA,489,"BOX 37 FPG STUDENT UNION, CHAPEL HILL, NC, 27599","No_Match",NA,NA,NA,NA
322490,"BOX 372896","DECATUR","GA",30037,NA,NA,490,"BOX 372896, DECATUR, GA, 30037","No_Match",NA,NA,NA,NA
322491,"BOX 388","PONCHA SPRINGS","CO",81242,NA,NA,491,"BOX 388, PONCHA SPRINGS, CO, 81242","No_Match",NA,NA,NA,NA
322492,"BOX 394","OSAWATOMIE","KS",66064,NA,NA,492,"BOX 394, OSAWATOMIE, KS, 66064","No_Match",NA,NA,NA,NA
322493,"BOX 4","KINGMAN","IN",47952,NA,NA,493,"BOX 4, KINGMAN, IN, 47952","No_Match",NA,NA,NA,NA
322494,"BOX 4052 BARRIO HATO VIEJO CUMBRE","CIALES","PR",638,NA,NA,494,"BOX 4052 BARRIO HATO VIEJO CUMBRE, CIALES, PR, 638","No_Match",NA,NA,NA,NA
322495,"BOX 41034","SAN JOSE","CA",95160,NA,NA,495,"BOX 41034, SAN JOSE, CA, 95160","No_Match",NA,NA,NA,NA
322496,"BOX 414","MENARD","TX",76859,NA,NA,496,"BOX 414, MENARD, TX, 76859","No_Match",NA,NA,NA,NA
322497,"BOX 417 8581 SANTA MONICA BLVD","LOS ANGELES","CA",90069,34.0883890200001,-118.378923104,497,"BOX 417 8581 SANTA MONICA BLVD, LOS ANGELES, CA, 90069","Match","Exact","8581 SANTA MONICA BLVD, LOS ANGELES, CA, 90069",141572204,"R"
322498,"BOX 419","VEGA ALTA","PR",646,NA,NA,498,"BOX 419, VEGA ALTA, PR, 646","No_Match",NA,NA,NA,NA
322499,"BOX 421 69 JAMESON ROAD","MANCHESTER","KY",40962,NA,NA,499,"BOX 421 69 JAMESON ROAD, MANCHESTER, KY, 40962","No_Match",NA,NA,NA,NA
322500,"BOX 427","RAWLINS","WY",82301,NA,NA,500,"BOX 427, RAWLINS, WY, 82301","No_Match",NA,NA,NA,NA
