"ID","Address","City","State","Zip","lat","long","id","input_address","match_indicator","match_type","matched_address","tiger_line_id","tiger_side"
344001,"PO BOX 3017","BRIDGEHAMPTON","NY",11932,NA,NA,1,"PO BOX 3017, BRIDGEHAMPTON, NY, 11932","No_Match",NA,NA,NA,NA
344002,"PO BOX 3017","VICTORVILLE","CA",92393,NA,NA,2,"PO BOX 3017, VICTORVILLE, CA, 92393","No_Match",NA,NA,NA,NA
344003,"PO BOX 301712","ST THOMAS","VI",803,NA,NA,3,"PO BOX 301712, ST THOMAS, VI, 803","No_Match",NA,NA,NA,NA
344004,"PO BOX 301727","JAMAICA PLAIN","MA",2130,NA,NA,4,"PO BOX 301727, JAMAICA PLAIN, MA, 2130","No_Match",NA,NA,NA,NA
344005,"PO BOX 3018","WEST CHESTER","PA",19381,NA,NA,5,"PO BOX 3018, WEST CHESTER, PA, 19381","No_Match",NA,NA,NA,NA
344006,"PO BOX 3018","WHEELING","WV",26003,NA,NA,6,"PO BOX 3018, WHEELING, WV, 26003","No_Match",NA,NA,NA,NA
344007,"PO BOX 30181","GREENVILLE","NC",27833,NA,NA,7,"PO BOX 30181, GREENVILLE, NC, 27833","No_Match",NA,NA,NA,NA
344008,"PO BOX 30183","COLUMBIA","MO",65205,NA,NA,8,"PO BOX 30183, COLUMBIA, MO, 65205","No_Match",NA,NA,NA,NA
344009,"PO BOX 30184","PARMA","OH",44130,NA,NA,9,"PO BOX 30184, PARMA, OH, 44130","No_Match",NA,NA,NA,NA
344010,"PO BOX 301855","AUSTIN","TX",78703,NA,NA,10,"PO BOX 301855, AUSTIN, TX, 78703","No_Match",NA,NA,NA,NA
344011,"PO BOX 3019","EDGARTOWN","MA",2539,NA,NA,11,"PO BOX 3019, EDGARTOWN, MA, 2539","No_Match",NA,NA,NA,NA
344012,"PO BOX 30190","ANAHOLA","HI",96703,NA,NA,12,"PO BOX 30190, ANAHOLA, HI, 96703","No_Match",NA,NA,NA,NA
344013,"PO BOX 30198","ROCHESTER","NY",14603,NA,NA,13,"PO BOX 30198, ROCHESTER, NY, 14603","No_Match",NA,NA,NA,NA
344014,"PO BOX 302 2541 S IH-35 STE 200","ROUND ROCK","TX",78664,NA,NA,14,"PO BOX 302 2541 S IH-35 STE 200, ROUND ROCK, TX, 78664","No_Match",NA,NA,NA,NA
344015,"PO BOX 302","ABSAROKEE","MT",59001,NA,NA,15,"PO BOX 302, ABSAROKEE, MT, 59001","No_Match",NA,NA,NA,NA
344016,"PO BOX 302","ANTIGO","WI",54409,NA,NA,16,"PO BOX 302, ANTIGO, WI, 54409","No_Match",NA,NA,NA,NA
344017,"PO BOX 302","AUGUSTA","ME",4332,NA,NA,17,"PO BOX 302, AUGUSTA, ME, 4332","No_Match",NA,NA,NA,NA
344018,"PO BOX 302","BETHEL","OH",45106,NA,NA,18,"PO BOX 302, BETHEL, OH, 45106","No_Match",NA,NA,NA,NA
344019,"PO BOX 302","BRISTOL","ME",4539,NA,NA,19,"PO BOX 302, BRISTOL, ME, 4539","No_Match",NA,NA,NA,NA
344020,"PO BOX 302","CENTERVILLE","IN",47330,NA,NA,20,"PO BOX 302, CENTERVILLE, IN, 47330","No_Match",NA,NA,NA,NA
344021,"PO BOX 302","COACHELLA","CA",92236,NA,NA,21,"PO BOX 302, COACHELLA, CA, 92236","No_Match",NA,NA,NA,NA
344022,"PO BOX 302","CODORUS","PA",17311,NA,NA,22,"PO BOX 302, CODORUS, PA, 17311","No_Match",NA,NA,NA,NA
344023,"PO BOX 302","COOK","MN",55723,NA,NA,23,"PO BOX 302, COOK, MN, 55723","No_Match",NA,NA,NA,NA
344024,"PO BOX 302","COWICHE","WA",98923,NA,NA,24,"PO BOX 302, COWICHE, WA, 98923","No_Match",NA,NA,NA,NA
344025,"PO BOX 302","ELFRIDA","AZ",85610,NA,NA,25,"PO BOX 302, ELFRIDA, AZ, 85610","No_Match",NA,NA,NA,NA
344026,"PO BOX 302","ELLETTSVILLE","IN",47429,NA,NA,26,"PO BOX 302, ELLETTSVILLE, IN, 47429","No_Match",NA,NA,NA,NA
344027,"PO BOX 302","ELWOOD","IN",46036,NA,NA,27,"PO BOX 302, ELWOOD, IN, 46036","No_Match",NA,NA,NA,NA
344028,"PO BOX 302","FAIRBANK","IA",50629,NA,NA,28,"PO BOX 302, FAIRBANK, IA, 50629","No_Match",NA,NA,NA,NA
344029,"PO BOX 302","FREEPORT","TX",77541,NA,NA,29,"PO BOX 302, FREEPORT, TX, 77541","No_Match",NA,NA,NA,NA
344030,"PO BOX 302","GERMANTOWN","WI",53022,NA,NA,30,"PO BOX 302, GERMANTOWN, WI, 53022","No_Match",NA,NA,NA,NA
344031,"PO BOX 302","GLENSIDE","PA",19038,NA,NA,31,"PO BOX 302, GLENSIDE, PA, 19038","No_Match",NA,NA,NA,NA
344032,"PO BOX 302","GREAT BEND","KS",67530,NA,NA,32,"PO BOX 302, GREAT BEND, KS, 67530","No_Match",NA,NA,NA,NA
344033,"PO BOX 302","HAMILTON","VA",20159,NA,NA,33,"PO BOX 302, HAMILTON, VA, 20159","No_Match",NA,NA,NA,NA
344034,"PO BOX 302","LAGRANGE","IN",46761,NA,NA,34,"PO BOX 302, LAGRANGE, IN, 46761","No_Match",NA,NA,NA,NA
344035,"PO BOX 302","LULA","GA",30554,NA,NA,35,"PO BOX 302, LULA, GA, 30554","No_Match",NA,NA,NA,NA
344036,"PO BOX 302","MANDAN","ND",58554,NA,NA,36,"PO BOX 302, MANDAN, ND, 58554","No_Match",NA,NA,NA,NA
344037,"PO BOX 302","MEDFORD","NY",11763,NA,NA,37,"PO BOX 302, MEDFORD, NY, 11763","No_Match",NA,NA,NA,NA
344038,"PO BOX 302","MORRISVILLE","NC",27560,NA,NA,38,"PO BOX 302, MORRISVILLE, NC, 27560","No_Match",NA,NA,NA,NA
344039,"PO BOX 302","NEW YORK","NY",10024,NA,NA,39,"PO BOX 302, NEW YORK, NY, 10024","No_Match",NA,NA,NA,NA
344040,"PO BOX 302","PARMELEE","SD",57566,NA,NA,40,"PO BOX 302, PARMELEE, SD, 57566","No_Match",NA,NA,NA,NA
344041,"PO BOX 302","PENDLETON","OR",97801,NA,NA,41,"PO BOX 302, PENDLETON, OR, 97801","No_Match",NA,NA,NA,NA
344042,"PO BOX 302","SALEM","UT",84653,NA,NA,42,"PO BOX 302, SALEM, UT, 84653","No_Match",NA,NA,NA,NA
344043,"PO BOX 302","SARDINIA","NY",14134,NA,NA,43,"PO BOX 302, SARDINIA, NY, 14134","No_Match",NA,NA,NA,NA
344044,"PO BOX 302","SHORT HILLS","NJ",7078,NA,NA,44,"PO BOX 302, SHORT HILLS, NJ, 7078","No_Match",NA,NA,NA,NA
344045,"PO BOX 302","SKANEATELES","NY",13152,NA,NA,45,"PO BOX 302, SKANEATELES, NY, 13152","No_Match",NA,NA,NA,NA
344046,"PO BOX 302","STEELE","ND",58482,NA,NA,46,"PO BOX 302, STEELE, ND, 58482","No_Match",NA,NA,NA,NA
344047,"PO BOX 302","TRYON","NC",28782,NA,NA,47,"PO BOX 302, TRYON, NC, 28782","No_Match",NA,NA,NA,NA
344048,"PO BOX 302","VESTAVIA","AL",35216,NA,NA,48,"PO BOX 302, VESTAVIA, AL, 35216","No_Match",NA,NA,NA,NA
344049,"PO BOX 302","WAUPUN","WI",53963,NA,NA,49,"PO BOX 302, WAUPUN, WI, 53963","No_Match",NA,NA,NA,NA
344050,"PO BOX 302","WELAKA","FL",32193,NA,NA,50,"PO BOX 302, WELAKA, FL, 32193","No_Match",NA,NA,NA,NA
344051,"PO BOX 302","WESTMORELAND","TN",37186,NA,NA,51,"PO BOX 302, WESTMORELAND, TN, 37186","No_Match",NA,NA,NA,NA
344052,"PO BOX 302","WHITE DEER","TX",79097,NA,NA,52,"PO BOX 302, WHITE DEER, TX, 79097","No_Match",NA,NA,NA,NA
344053,"PO BOX 302","WHITE PINE","TN",37890,NA,NA,53,"PO BOX 302, WHITE PINE, TN, 37890","No_Match",NA,NA,NA,NA
344054,"PO BOX 3020","HUNTINGTON","WV",25702,NA,NA,54,"PO BOX 3020, HUNTINGTON, WV, 25702","No_Match",NA,NA,NA,NA
344055,"PO BOX 3020","OAKHURST","CA",93644,NA,NA,55,"PO BOX 3020, OAKHURST, CA, 93644","No_Match",NA,NA,NA,NA
344056,"PO BOX 30201","GAHANNA","OH",43230,NA,NA,56,"PO BOX 30201, GAHANNA, OH, 43230","No_Match",NA,NA,NA,NA
344057,"PO BOX 3021","WEST MONROE","LA",71291,NA,NA,57,"PO BOX 3021, WEST MONROE, LA, 71291","No_Match",NA,NA,NA,NA
344058,"PO BOX 3021","WINTHROP","WA",98862,NA,NA,58,"PO BOX 3021, WINTHROP, WA, 98862","No_Match",NA,NA,NA,NA
344059,"PO BOX 30211","LAS VEGAS","NV",89173,NA,NA,59,"PO BOX 30211, LAS VEGAS, NV, 89173","No_Match",NA,NA,NA,NA
344060,"PO BOX 30216","SAVANNAH","GA",31410,NA,NA,60,"PO BOX 30216, SAVANNAH, GA, 31410","No_Match",NA,NA,NA,NA
344061,"PO BOX 30222","COLUMBIA","SC",29230,NA,NA,61,"PO BOX 30222, COLUMBIA, SC, 29230","No_Match",NA,NA,NA,NA
344062,"PO BOX 30224","ELKINS PARK","PA",19027,NA,NA,62,"PO BOX 30224, ELKINS PARK, PA, 19027","No_Match",NA,NA,NA,NA
344063,"PO BOX 30232","SANTA BARBARA","CA",93130,NA,NA,63,"PO BOX 30232, SANTA BARBARA, CA, 93130","No_Match",NA,NA,NA,NA
344064,"PO BOX 3024","EAST CHICAGO","IN",46312,NA,NA,64,"PO BOX 3024, EAST CHICAGO, IN, 46312","No_Match",NA,NA,NA,NA
344065,"PO BOX 3024","LA MESA","CA",91944,NA,NA,65,"PO BOX 3024, LA MESA, CA, 91944","No_Match",NA,NA,NA,NA
344066,"PO BOX 3024","STOWE","VT",5672,NA,NA,66,"PO BOX 3024, STOWE, VT, 5672","No_Match",NA,NA,NA,NA
344067,"PO BOX 3024","TUPELO","MS",38803,NA,NA,67,"PO BOX 3024, TUPELO, MS, 38803","No_Match",NA,NA,NA,NA
344068,"PO BOX 30241","BROOKLYN","NY",11203,NA,NA,68,"PO BOX 30241, BROOKLYN, NY, 11203","No_Match",NA,NA,NA,NA
344069,"PO BOX 30241","INDIANAPOLIS","IN",46230,NA,NA,69,"PO BOX 30241, INDIANAPOLIS, IN, 46230","No_Match",NA,NA,NA,NA
344070,"PO BOX 30242","RALEIGH","NC",27622,NA,NA,70,"PO BOX 30242, RALEIGH, NC, 27622","No_Match",NA,NA,NA,NA
344071,"PO BOX 302422","AUSTIN","TX",78703,NA,NA,71,"PO BOX 302422, AUSTIN, TX, 78703","No_Match",NA,NA,NA,NA
344072,"PO BOX 30243","SAVANNAH","GA",31410,NA,NA,72,"PO BOX 30243, SAVANNAH, GA, 31410","No_Match",NA,NA,NA,NA
344073,"PO BOX 30257","PENSACOLA","FL",32503,NA,NA,73,"PO BOX 30257, PENSACOLA, FL, 32503","No_Match",NA,NA,NA,NA
344074,"PO BOX 3026","PEORIA","IL",61612,NA,NA,74,"PO BOX 3026, PEORIA, IL, 61612","No_Match",NA,NA,NA,NA
344075,"PO BOX 302664","ST THOMAS","VI",803,NA,NA,75,"PO BOX 302664, ST THOMAS, VI, 803","No_Match",NA,NA,NA,NA
344076,"PO BOX 302767","AUSTIN","TX",78703,NA,NA,76,"PO BOX 302767, AUSTIN, TX, 78703","No_Match",NA,NA,NA,NA
344077,"PO BOX 3028","SHIREMANSTOWN","PA",17011,NA,NA,77,"PO BOX 3028, SHIREMANSTOWN, PA, 17011","No_Match",NA,NA,NA,NA
344078,"PO BOX 30283","AUSTIN","TX",78755,NA,NA,78,"PO BOX 30283, AUSTIN, TX, 78755","No_Match",NA,NA,NA,NA
344079,"PO BOX 3029","BRUNSWICK","GA",31521,NA,NA,79,"PO BOX 3029, BRUNSWICK, GA, 31521","No_Match",NA,NA,NA,NA
344080,"PO BOX 303  456 WASHINGTON AVENUE","BRIDGEVILLE","PA",15017,40.3592420680001,-80.1119238169999,80,"PO BOX 303  456 WASHINGTON AVENUE, BRIDGEVILLE, PA, 15017","Match","Exact","456 WASHINGTON AVE, BRIDGEVILLE, PA, 15017",51617524,"R"
344081,"PO BOX 303 PINE FORGE ROAD","PINE FORGE","PA",19548,NA,NA,81,"PO BOX 303 PINE FORGE ROAD, PINE FORGE, PA, 19548","No_Match",NA,NA,NA,NA
344082,"PO BOX 303","ASHLAND","IL",62612,NA,NA,82,"PO BOX 303, ASHLAND, IL, 62612","No_Match",NA,NA,NA,NA
344083,"PO BOX 303","BALDWIN","MI",49304,NA,NA,83,"PO BOX 303, BALDWIN, MI, 49304","No_Match",NA,NA,NA,NA
344084,"PO BOX 303","BARABOO","WI",53913,NA,NA,84,"PO BOX 303, BARABOO, WI, 53913","No_Match",NA,NA,NA,NA
344085,"PO BOX 303","BARTON","VT",5822,NA,NA,85,"PO BOX 303, BARTON, VT, 5822","No_Match",NA,NA,NA,NA
344086,"PO BOX 303","BECKET","MA",1223,NA,NA,86,"PO BOX 303, BECKET, MA, 1223","No_Match",NA,NA,NA,NA
344087,"PO BOX 303","BUFFALO","NY",14223,NA,NA,87,"PO BOX 303, BUFFALO, NY, 14223","No_Match",NA,NA,NA,NA
344088,"PO BOX 303","CENTER CITY","MN",55012,NA,NA,88,"PO BOX 303, CENTER CITY, MN, 55012","No_Match",NA,NA,NA,NA
344089,"PO BOX 303","CLARION","PA",16214,NA,NA,89,"PO BOX 303, CLARION, PA, 16214","No_Match",NA,NA,NA,NA
344090,"PO BOX 303","CUSHING","OK",74023,NA,NA,90,"PO BOX 303, CUSHING, OK, 74023","No_Match",NA,NA,NA,NA
344091,"PO BOX 303","DUTCH FLAT","CA",95714,NA,NA,91,"PO BOX 303, DUTCH FLAT, CA, 95714","No_Match",NA,NA,NA,NA
344092,"PO BOX 303","ELDON","IA",52554,NA,NA,92,"PO BOX 303, ELDON, IA, 52554","No_Match",NA,NA,NA,NA
344093,"PO BOX 303","ELMORE","OH",43416,NA,NA,93,"PO BOX 303, ELMORE, OH, 43416","No_Match",NA,NA,NA,NA
344094,"PO BOX 303","FAIRBURN","GA",30213,NA,NA,94,"PO BOX 303, FAIRBURN, GA, 30213","No_Match",NA,NA,NA,NA
344095,"PO BOX 303","FARRELL","PA",16121,NA,NA,95,"PO BOX 303, FARRELL, PA, 16121","No_Match",NA,NA,NA,NA
344096,"PO BOX 303","FORT STOCKTON","TX",79735,NA,NA,96,"PO BOX 303, FORT STOCKTON, TX, 79735","No_Match",NA,NA,NA,NA
344097,"PO BOX 303","HONEOYE","NY",14471,NA,NA,97,"PO BOX 303, HONEOYE, NY, 14471","No_Match",NA,NA,NA,NA
344098,"PO BOX 303","LISBON","ND",58054,NA,NA,98,"PO BOX 303, LISBON, ND, 58054","No_Match",NA,NA,NA,NA
344099,"PO BOX 303","MANNINGTON","WV",26582,NA,NA,99,"PO BOX 303, MANNINGTON, WV, 26582","No_Match",NA,NA,NA,NA
344100,"PO BOX 303","MIDDLEBURY","VT",5753,NA,NA,100,"PO BOX 303, MIDDLEBURY, VT, 5753","No_Match",NA,NA,NA,NA
344101,"PO BOX 303","MISHICOT","WI",54228,NA,NA,101,"PO BOX 303, MISHICOT, WI, 54228","No_Match",NA,NA,NA,NA
344102,"PO BOX 303","NEW MELLE","MO",63365,NA,NA,102,"PO BOX 303, NEW MELLE, MO, 63365","No_Match",NA,NA,NA,NA
344103,"PO BOX 303","NOWATA","OK",74048,NA,NA,103,"PO BOX 303, NOWATA, OK, 74048","No_Match",NA,NA,NA,NA
344104,"PO BOX 303","OLD FORGE","NY",13420,NA,NA,104,"PO BOX 303, OLD FORGE, NY, 13420","No_Match",NA,NA,NA,NA
344105,"PO BOX 303","OLNEY","IL",62450,NA,NA,105,"PO BOX 303, OLNEY, IL, 62450","No_Match",NA,NA,NA,NA
344106,"PO BOX 303","RED BANK","NJ",7701,NA,NA,106,"PO BOX 303, RED BANK, NJ, 7701","No_Match",NA,NA,NA,NA
344107,"PO BOX 303","REPTON","AL",36475,NA,NA,107,"PO BOX 303, REPTON, AL, 36475","No_Match",NA,NA,NA,NA
344108,"PO BOX 303","RUTHERFORDTON","NC",28139,NA,NA,108,"PO BOX 303, RUTHERFORDTON, NC, 28139","No_Match",NA,NA,NA,NA
344109,"PO BOX 303","SAGINAW","MI",48606,NA,NA,109,"PO BOX 303, SAGINAW, MI, 48606","No_Match",NA,NA,NA,NA
344110,"PO BOX 303","SCANDIA","MN",55073,NA,NA,110,"PO BOX 303, SCANDIA, MN, 55073","No_Match",NA,NA,NA,NA
344111,"PO BOX 303","VANCOUVER","WA",98666,NA,NA,111,"PO BOX 303, VANCOUVER, WA, 98666","No_Match",NA,NA,NA,NA
344112,"PO BOX 303","VEBLEN","SD",57270,NA,NA,112,"PO BOX 303, VEBLEN, SD, 57270","No_Match",NA,NA,NA,NA
344113,"PO BOX 303","WOODLAND PARK","CO",80866,NA,NA,113,"PO BOX 303, WOODLAND PARK, CO, 80866","No_Match",NA,NA,NA,NA
344114,"PO BOX 3030","WINTHROP","WA",98862,NA,NA,114,"PO BOX 3030, WINTHROP, WA, 98862","No_Match",NA,NA,NA,NA
344115,"PO BOX 30303","SANTA BARBARA","CA",93130,NA,NA,115,"PO BOX 30303, SANTA BARBARA, CA, 93130","No_Match",NA,NA,NA,NA
344116,"PO BOX 30307","COLUMBUS","OH",43230,NA,NA,116,"PO BOX 30307, COLUMBUS, OH, 43230","No_Match",NA,NA,NA,NA
344117,"PO BOX 3031","GARDNERVILLE","NV",89410,NA,NA,117,"PO BOX 3031, GARDNERVILLE, NV, 89410","No_Match",NA,NA,NA,NA
344118,"PO BOX 3031","NEW BEDFORD","MA",2741,NA,NA,118,"PO BOX 3031, NEW BEDFORD, MA, 2741","No_Match",NA,NA,NA,NA
344119,"PO BOX 30315","HONOLULU","HI",96820,NA,NA,119,"PO BOX 30315, HONOLULU, HI, 96820","No_Match",NA,NA,NA,NA
344120,"PO BOX 3032","MISSOULA","MT",59806,NA,NA,120,"PO BOX 3032, MISSOULA, MT, 59806","No_Match",NA,NA,NA,NA
344121,"PO BOX 30321","SPOKANE","WA",99223,NA,NA,121,"PO BOX 30321, SPOKANE, WA, 99223","No_Match",NA,NA,NA,NA
344122,"PO BOX 3033","LAKEWOOD","CA",90711,NA,NA,122,"PO BOX 3033, LAKEWOOD, CA, 90711","No_Match",NA,NA,NA,NA
344123,"PO BOX 3034","BAYONNE","NJ",7002,NA,NA,123,"PO BOX 3034, BAYONNE, NJ, 7002","No_Match",NA,NA,NA,NA
344124,"PO BOX 303470","ST THOMAS","VI",803,NA,NA,124,"PO BOX 303470, ST THOMAS, VI, 803","No_Match",NA,NA,NA,NA
344125,"PO BOX 303497","ST THOMAS","VI",803,NA,NA,125,"PO BOX 303497, ST THOMAS, VI, 803","No_Match",NA,NA,NA,NA
344126,"PO BOX 3035","BOULDER","CO",80307,NA,NA,126,"PO BOX 3035, BOULDER, CO, 80307","No_Match",NA,NA,NA,NA
344127,"PO BOX 303583","ST THOMAS","VI",803,NA,NA,127,"PO BOX 303583, ST THOMAS, VI, 803","No_Match",NA,NA,NA,NA
344128,"PO BOX 3036","EAGLE","CO",81631,NA,NA,128,"PO BOX 3036, EAGLE, CO, 81631","No_Match",NA,NA,NA,NA
344129,"PO BOX 3036","PALM SPRINGS","CA",92263,NA,NA,129,"PO BOX 3036, PALM SPRINGS, CA, 92263","No_Match",NA,NA,NA,NA
344130,"PO BOX 3036","RUTHERFORDTON","NC",28139,NA,NA,130,"PO BOX 3036, RUTHERFORDTON, NC, 28139","No_Match",NA,NA,NA,NA
344131,"PO BOX 30364","SPOKANE","WA",99223,NA,NA,131,"PO BOX 30364, SPOKANE, WA, 99223","No_Match",NA,NA,NA,NA
344132,"PO BOX 3038","KALISPELL","MT",59903,NA,NA,132,"PO BOX 3038, KALISPELL, MT, 59903","No_Match",NA,NA,NA,NA
344133,"PO BOX 30386","WASHINGTON","DC",20030,NA,NA,133,"PO BOX 30386, WASHINGTON, DC, 20030","No_Match",NA,NA,NA,NA
344134,"PO BOX 303883","ST THOMAS","VI",803,NA,NA,134,"PO BOX 303883, ST THOMAS, VI, 803","No_Match",NA,NA,NA,NA
344135,"PO BOX 3039","CAMARILLO","CA",93011,NA,NA,135,"PO BOX 3039, CAMARILLO, CA, 93011","No_Match",NA,NA,NA,NA
344136,"PO BOX 3039","WATERBURY","CT",6705,NA,NA,136,"PO BOX 3039, WATERBURY, CT, 6705","No_Match",NA,NA,NA,NA
344137,"PO BOX 30396","GREENVILLE","NC",27833,NA,NA,137,"PO BOX 30396, GREENVILLE, NC, 27833","No_Match",NA,NA,NA,NA
344138,"PO BOX 304","BLUE RIDGE","GA",30513,NA,NA,138,"PO BOX 304, BLUE RIDGE, GA, 30513","No_Match",NA,NA,NA,NA
344139,"PO BOX 304","CARLISLE","KY",40311,NA,NA,139,"PO BOX 304, CARLISLE, KY, 40311","No_Match",NA,NA,NA,NA
344140,"PO BOX 304","HARLOWTON","MT",59036,NA,NA,140,"PO BOX 304, HARLOWTON, MT, 59036","No_Match",NA,NA,NA,NA
344141,"PO BOX 304","HUNTSVILLE","UT",84317,NA,NA,141,"PO BOX 304, HUNTSVILLE, UT, 84317","No_Match",NA,NA,NA,NA
344142,"PO BOX 304","HURLEY","WI",54534,NA,NA,142,"PO BOX 304, HURLEY, WI, 54534","No_Match",NA,NA,NA,NA
344143,"PO BOX 304","JACKSONVILLE","AL",36265,NA,NA,143,"PO BOX 304, JACKSONVILLE, AL, 36265","No_Match",NA,NA,NA,NA
344144,"PO BOX 304","JOHNSTOWN","CO",80534,NA,NA,144,"PO BOX 304, JOHNSTOWN, CO, 80534","No_Match",NA,NA,NA,NA
344145,"PO BOX 304","KOLOA","HI",96756,NA,NA,145,"PO BOX 304, KOLOA, HI, 96756","No_Match",NA,NA,NA,NA
344146,"PO BOX 304","LAKE PLACID","FL",33862,NA,NA,146,"PO BOX 304, LAKE PLACID, FL, 33862","No_Match",NA,NA,NA,NA
344147,"PO BOX 304","MILLERSVILLE","PA",17551,NA,NA,147,"PO BOX 304, MILLERSVILLE, PA, 17551","No_Match",NA,NA,NA,NA
344148,"PO BOX 304","MILTON FREEWATER","OR",97862,NA,NA,148,"PO BOX 304, MILTON FREEWATER, OR, 97862","No_Match",NA,NA,NA,NA
344149,"PO BOX 304","POMPTON PLAINS","NJ",7444,NA,NA,149,"PO BOX 304, POMPTON PLAINS, NJ, 7444","No_Match",NA,NA,NA,NA
344150,"PO BOX 304","ROSS","CA",94957,NA,NA,150,"PO BOX 304, ROSS, CA, 94957","No_Match",NA,NA,NA,NA
344151,"PO BOX 304","ROUZERVILLE","PA",17250,NA,NA,151,"PO BOX 304, ROUZERVILLE, PA, 17250","No_Match",NA,NA,NA,NA
344152,"PO BOX 304","SILVERTON","ID",83867,NA,NA,152,"PO BOX 304, SILVERTON, ID, 83867","No_Match",NA,NA,NA,NA
344153,"PO BOX 304","ST. MARYS","WV",26170,NA,NA,153,"PO BOX 304, ST. MARYS, WV, 26170","No_Match",NA,NA,NA,NA
344154,"PO BOX 304","STATESVILLE","NC",28687,NA,NA,154,"PO BOX 304, STATESVILLE, NC, 28687","No_Match",NA,NA,NA,NA
344155,"PO BOX 304","WADSWORTH","OH",44282,NA,NA,155,"PO BOX 304, WADSWORTH, OH, 44282","No_Match",NA,NA,NA,NA
344156,"PO BOX 304","WAVERLY","PA",18471,NA,NA,156,"PO BOX 304, WAVERLY, PA, 18471","No_Match",NA,NA,NA,NA
344157,"PO BOX 3041","FARMINGDALE","NY",11735,NA,NA,157,"PO BOX 3041, FARMINGDALE, NY, 11735","No_Match",NA,NA,NA,NA
344158,"PO BOX 3041","MAMMOTH LAKES","CA",93546,NA,NA,158,"PO BOX 3041, MAMMOTH LAKES, CA, 93546","No_Match",NA,NA,NA,NA
344159,"PO BOX 30413","COLUMBIA","SC",29230,NA,NA,159,"PO BOX 30413, COLUMBIA, SC, 29230","No_Match",NA,NA,NA,NA
344160,"PO BOX 30419","SEA ISLAND","GA",31561,NA,NA,160,"PO BOX 30419, SEA ISLAND, GA, 31561","No_Match",NA,NA,NA,NA
344161,"PO BOX 3042","GARDNERVILLE","NV",89410,NA,NA,161,"PO BOX 3042, GARDNERVILLE, NV, 89410","No_Match",NA,NA,NA,NA
344162,"PO BOX 3042","LANCASTER","SC",29721,NA,NA,162,"PO BOX 3042, LANCASTER, SC, 29721","No_Match",NA,NA,NA,NA
344163,"PO BOX 30423","INDIANAPOLIS","IN",46230,NA,NA,163,"PO BOX 30423, INDIANAPOLIS, IN, 46230","No_Match",NA,NA,NA,NA
344164,"PO BOX 30425","COLUMBUS","OH",43230,NA,NA,164,"PO BOX 30425, COLUMBUS, OH, 43230","No_Match",NA,NA,NA,NA
344165,"PO BOX 30426","CHARLOTTE","NC",28230,NA,NA,165,"PO BOX 30426, CHARLOTTE, NC, 28230","No_Match",NA,NA,NA,NA
344166,"PO BOX 30427","EDMOND","OK",73003,NA,NA,166,"PO BOX 30427, EDMOND, OK, 73003","No_Match",NA,NA,NA,NA
344167,"PO BOX 3043","CHERRY HILL","NJ",8034,NA,NA,167,"PO BOX 3043, CHERRY HILL, NJ, 8034","No_Match",NA,NA,NA,NA
344168,"PO BOX 3044","ASHLAND","OR",97520,NA,NA,168,"PO BOX 3044, ASHLAND, OR, 97520","No_Match",NA,NA,NA,NA
344169,"PO BOX 3044","SHREVEPORT","LA",71033,NA,NA,169,"PO BOX 3044, SHREVEPORT, LA, 71033","No_Match",NA,NA,NA,NA
344170,"PO BOX 30441","RALEIGH","NC",27622,NA,NA,170,"PO BOX 30441, RALEIGH, NC, 27622","No_Match",NA,NA,NA,NA
344171,"PO BOX 3045","YOUNGSTOWN","OH",44511,NA,NA,171,"PO BOX 3045, YOUNGSTOWN, OH, 44511","No_Match",NA,NA,NA,NA
344172,"PO BOX 304574","ST THOMAS","VI",803,NA,NA,172,"PO BOX 304574, ST THOMAS, VI, 803","No_Match",NA,NA,NA,NA
344173,"PO BOX 3048","CASHIERS","NC",28717,NA,NA,173,"PO BOX 3048, CASHIERS, NC, 28717","No_Match",NA,NA,NA,NA
344174,"PO BOX 304923","ST THOMAS","VI",803,NA,NA,174,"PO BOX 304923, ST THOMAS, VI, 803","No_Match",NA,NA,NA,NA
344175,"PO BOX 305","ASHBY","MN",56309,NA,NA,175,"PO BOX 305, ASHBY, MN, 56309","No_Match",NA,NA,NA,NA
344176,"PO BOX 305","AURORA","MO",65605,NA,NA,176,"PO BOX 305, AURORA, MO, 65605","No_Match",NA,NA,NA,NA
344177,"PO BOX 305","AVALON","CA",90704,NA,NA,177,"PO BOX 305, AVALON, CA, 90704","No_Match",NA,NA,NA,NA
344178,"PO BOX 305","CLEVELAND","TN",37364,NA,NA,178,"PO BOX 305, CLEVELAND, TN, 37364","No_Match",NA,NA,NA,NA
344179,"PO BOX 305","COLUMBUS","MT",59019,NA,NA,179,"PO BOX 305, COLUMBUS, MT, 59019","No_Match",NA,NA,NA,NA
344180,"PO BOX 305","DAYTON","OR",97114,NA,NA,180,"PO BOX 305, DAYTON, OR, 97114","No_Match",NA,NA,NA,NA
344181,"PO BOX 305","DOYLESTOWN","PA",18901,NA,NA,181,"PO BOX 305, DOYLESTOWN, PA, 18901","No_Match",NA,NA,NA,NA
344182,"PO BOX 305","DUBOIS","WY",82513,NA,NA,182,"PO BOX 305, DUBOIS, WY, 82513","No_Match",NA,NA,NA,NA
344183,"PO BOX 305","EMERSON","NJ",7630,NA,NA,183,"PO BOX 305, EMERSON, NJ, 7630","No_Match",NA,NA,NA,NA
344184,"PO BOX 305","FLORENCE","OR",97439,NA,NA,184,"PO BOX 305, FLORENCE, OR, 97439","No_Match",NA,NA,NA,NA
344185,"PO BOX 305","GULFPORT","MS",39502,NA,NA,185,"PO BOX 305, GULFPORT, MS, 39502","No_Match",NA,NA,NA,NA
344186,"PO BOX 305","HARRISVILLE","RI",2830,NA,NA,186,"PO BOX 305, HARRISVILLE, RI, 2830","No_Match",NA,NA,NA,NA
344187,"PO BOX 305","JAMESTOWN","RI",2835,NA,NA,187,"PO BOX 305, JAMESTOWN, RI, 2835","No_Match",NA,NA,NA,NA
344188,"PO BOX 305","KIMBALL","MN",55353,NA,NA,188,"PO BOX 305, KIMBALL, MN, 55353","No_Match",NA,NA,NA,NA
344189,"PO BOX 305","MARS","PA",16046,NA,NA,189,"PO BOX 305, MARS, PA, 16046","No_Match",NA,NA,NA,NA
344190,"PO BOX 305","NEW ULM","MN",56073,NA,NA,190,"PO BOX 305, NEW ULM, MN, 56073","No_Match",NA,NA,NA,NA
344191,"PO BOX 305","NEW YORK","NY",10274,NA,NA,191,"PO BOX 305, NEW YORK, NY, 10274","No_Match",NA,NA,NA,NA
344192,"PO BOX 305","PETERSBURG","WV",26847,NA,NA,192,"PO BOX 305, PETERSBURG, WV, 26847","No_Match",NA,NA,NA,NA
344193,"PO BOX 305","POESTENKILL","NY",12140,NA,NA,193,"PO BOX 305, POESTENKILL, NY, 12140","No_Match",NA,NA,NA,NA
344194,"PO BOX 305","RANDSBURG","CA",93554,NA,NA,194,"PO BOX 305, RANDSBURG, CA, 93554","No_Match",NA,NA,NA,NA
344195,"PO BOX 305","SHADY SPRING","WV",25918,NA,NA,195,"PO BOX 305, SHADY SPRING, WV, 25918","No_Match",NA,NA,NA,NA
344196,"PO BOX 305","STANDISH","ME",4084,NA,NA,196,"PO BOX 305, STANDISH, ME, 4084","No_Match",NA,NA,NA,NA
344197,"PO BOX 305","STURGEON BAY","WI",54235,NA,NA,197,"PO BOX 305, STURGEON BAY, WI, 54235","No_Match",NA,NA,NA,NA
344198,"PO BOX 305","SUNMAN","IN",47041,NA,NA,198,"PO BOX 305, SUNMAN, IN, 47041","No_Match",NA,NA,NA,NA
344199,"PO BOX 305","TONOPAH","AZ",85354,NA,NA,199,"PO BOX 305, TONOPAH, AZ, 85354","No_Match",NA,NA,NA,NA
344200,"PO BOX 305","WESTHAMPTON","NY",11977,NA,NA,200,"PO BOX 305, WESTHAMPTON, NY, 11977","No_Match",NA,NA,NA,NA
344201,"PO BOX 3050","SAN LEANDRO","CA",94578,NA,NA,201,"PO BOX 3050, SAN LEANDRO, CA, 94578","No_Match",NA,NA,NA,NA
344202,"PO BOX 30504","CHARLOTTE","NC",28230,NA,NA,202,"PO BOX 30504, CHARLOTTE, NC, 28230","No_Match",NA,NA,NA,NA
344203,"PO BOX 30504","SPOKANE","WA",99223,NA,NA,203,"PO BOX 30504, SPOKANE, WA, 99223","No_Match",NA,NA,NA,NA
344204,"PO BOX 3051","EVANSVILLE","IN",47730,NA,NA,204,"PO BOX 3051, EVANSVILLE, IN, 47730","No_Match",NA,NA,NA,NA
344205,"PO BOX 30518","SAN JUAN","PR",929,NA,NA,205,"PO BOX 30518, SAN JUAN, PR, 929","No_Match",NA,NA,NA,NA
344206,"PO BOX 3052","MUNSTER","IN",46321,NA,NA,206,"PO BOX 3052, MUNSTER, IN, 46321","No_Match",NA,NA,NA,NA
344207,"PO BOX 3053","PRESCOTT","AZ",86302,NA,NA,207,"PO BOX 3053, PRESCOTT, AZ, 86302","No_Match",NA,NA,NA,NA
344208,"PO BOX 30531","COLUMBIA","MO",65205,NA,NA,208,"PO BOX 30531, COLUMBIA, MO, 65205","No_Match",NA,NA,NA,NA
344209,"PO BOX 30535","CHARLESTON","SC",29417,NA,NA,209,"PO BOX 30535, CHARLESTON, SC, 29417","No_Match",NA,NA,NA,NA
344210,"PO BOX 30543","SAN BERNARDINO","CA",92413,NA,NA,210,"PO BOX 30543, SAN BERNARDINO, CA, 92413","No_Match",NA,NA,NA,NA
344211,"PO BOX 3055","MOUNT VERNON","KY",40456,NA,NA,211,"PO BOX 3055, MOUNT VERNON, KY, 40456","No_Match",NA,NA,NA,NA
344212,"PO BOX 3055","NEW BRUNSWICK","NJ",8903,NA,NA,212,"PO BOX 3055, NEW BRUNSWICK, NJ, 8903","No_Match",NA,NA,NA,NA
344213,"PO BOX 3056","SEDONA","AR",86340,NA,NA,213,"PO BOX 3056, SEDONA, AR, 86340","No_Match",NA,NA,NA,NA
344214,"PO BOX 305683","ST.THOMAS","VI",803,NA,NA,214,"PO BOX 305683, ST.THOMAS, VI, 803","No_Match",NA,NA,NA,NA
344215,"PO BOX 3057","PADUCAH","KY",42002,NA,NA,215,"PO BOX 3057, PADUCAH, KY, 42002","No_Match",NA,NA,NA,NA
344216,"PO BOX 3057","VALDEZ","AK",99686,NA,NA,216,"PO BOX 3057, VALDEZ, AK, 99686","No_Match",NA,NA,NA,NA
344217,"PO BOX 3059","SAN LUIS OBISPO","CA",93403,NA,NA,217,"PO BOX 3059, SAN LUIS OBISPO, CA, 93403","No_Match",NA,NA,NA,NA
344218,"PO BOX 3059","SEDONA","AZ",86340,NA,NA,218,"PO BOX 3059, SEDONA, AZ, 86340","No_Match",NA,NA,NA,NA
344219,"PO BOX 305964","ST THOMAS","VI",803,NA,NA,219,"PO BOX 305964, ST THOMAS, VI, 803","No_Match",NA,NA,NA,NA
344220,"PO BOX 306","APOLLO","PA",15676,NA,NA,220,"PO BOX 306, APOLLO, PA, 15676","No_Match",NA,NA,NA,NA
344221,"PO BOX 306","AUGUSTA","ME",4232,NA,NA,221,"PO BOX 306, AUGUSTA, ME, 4232","No_Match",NA,NA,NA,NA
344222,"PO BOX 306","BRUSH PRAIRIE","WA",98606,NA,NA,222,"PO BOX 306, BRUSH PRAIRIE, WA, 98606","No_Match",NA,NA,NA,NA
344223,"PO BOX 306","CASHION","OK",73016,NA,NA,223,"PO BOX 306, CASHION, OK, 73016","No_Match",NA,NA,NA,NA
344224,"PO BOX 306","CEDAR HILL","TX",75104,NA,NA,224,"PO BOX 306, CEDAR HILL, TX, 75104","No_Match",NA,NA,NA,NA
344225,"PO BOX 306","CHESHIRE","OR",97419,NA,NA,225,"PO BOX 306, CHESHIRE, OR, 97419","No_Match",NA,NA,NA,NA
344226,"PO BOX 306","CIBOLO","TX",78109,NA,NA,226,"PO BOX 306, CIBOLO, TX, 78109","No_Match",NA,NA,NA,NA
344227,"PO BOX 306","CRIPPLE CREEK","CO",80813,NA,NA,227,"PO BOX 306, CRIPPLE CREEK, CO, 80813","No_Match",NA,NA,NA,NA
344228,"PO BOX 306","DAVENPORT","CA",95017,NA,NA,228,"PO BOX 306, DAVENPORT, CA, 95017","No_Match",NA,NA,NA,NA
344229,"PO BOX 306","FOX LAKE","IL",60020,NA,NA,229,"PO BOX 306, FOX LAKE, IL, 60020","No_Match",NA,NA,NA,NA
344230,"PO BOX 306","FULTONDALE","AL",35068,NA,NA,230,"PO BOX 306, FULTONDALE, AL, 35068","No_Match",NA,NA,NA,NA
344231,"PO BOX 306","GERONIMO","TX",78115,NA,NA,231,"PO BOX 306, GERONIMO, TX, 78115","No_Match",NA,NA,NA,NA
344232,"PO BOX 306","KETTLE FALLS","WA",99141,NA,NA,232,"PO BOX 306, KETTLE FALLS, WA, 99141","No_Match",NA,NA,NA,NA
344233,"PO BOX 306","LA CONNER","WA",98257,NA,NA,233,"PO BOX 306, LA CONNER, WA, 98257","No_Match",NA,NA,NA,NA
344234,"PO BOX 306","LADSON","SC",29456,NA,NA,234,"PO BOX 306, LADSON, SC, 29456","No_Match",NA,NA,NA,NA
344235,"PO BOX 306","LAND O LAKES","FL",34639,NA,NA,235,"PO BOX 306, LAND O LAKES, FL, 34639","No_Match",NA,NA,NA,NA
344236,"PO BOX 306","LEWES","DE",19958,NA,NA,236,"PO BOX 306, LEWES, DE, 19958","No_Match",NA,NA,NA,NA
344237,"PO BOX 306","LINCOLN CITY","OR",97367,NA,NA,237,"PO BOX 306, LINCOLN CITY, OR, 97367","No_Match",NA,NA,NA,NA
344238,"PO BOX 306","MARLBOROUGH","CT",6447,NA,NA,238,"PO BOX 306, MARLBOROUGH, CT, 6447","No_Match",NA,NA,NA,NA
344239,"PO BOX 306","MYRTLE POINT","OR",97458,NA,NA,239,"PO BOX 306, MYRTLE POINT, OR, 97458","No_Match",NA,NA,NA,NA
344240,"PO BOX 306","PORCUPINE","SD",57772,NA,NA,240,"PO BOX 306, PORCUPINE, SD, 57772","No_Match",NA,NA,NA,NA
344241,"PO BOX 306","PORT JERVIS","NY",12771,NA,NA,241,"PO BOX 306, PORT JERVIS, NY, 12771","No_Match",NA,NA,NA,NA
344242,"PO BOX 306","QUINTON","VA",23141,NA,NA,242,"PO BOX 306, QUINTON, VA, 23141","No_Match",NA,NA,NA,NA
344243,"PO BOX 306","TYBEE ISLAND","GA",31328,NA,NA,243,"PO BOX 306, TYBEE ISLAND, GA, 31328","No_Match",NA,NA,NA,NA
344244,"PO BOX 306","WEST COLUMBIA","TX",77486,NA,NA,244,"PO BOX 306, WEST COLUMBIA, TX, 77486","No_Match",NA,NA,NA,NA
344245,"PO BOX 3060","SUN VALLEY","ID",83353,NA,NA,245,"PO BOX 3060, SUN VALLEY, ID, 83353","No_Match",NA,NA,NA,NA
344246,"PO BOX 30603","ALBUQUERQUE","NM",87190,NA,NA,246,"PO BOX 30603, ALBUQUERQUE, NM, 87190","No_Match",NA,NA,NA,NA
344247,"PO BOX 30604","CHARLOTTE","NC",28204,NA,NA,247,"PO BOX 30604, CHARLOTTE, NC, 28204","No_Match",NA,NA,NA,NA
344248,"PO BOX 30607","CHARLOTTE","NC",28230,NA,NA,248,"PO BOX 30607, CHARLOTTE, NC, 28230","No_Match",NA,NA,NA,NA
344249,"PO BOX 30611","EDMOND","OK",73003,NA,NA,249,"PO BOX 30611, EDMOND, OK, 73003","No_Match",NA,NA,NA,NA
344250,"PO BOX 30612","SAN BERNARDINO","CA",92413,NA,NA,250,"PO BOX 30612, SAN BERNARDINO, CA, 92413","No_Match",NA,NA,NA,NA
344251,"PO BOX 3062","ASHLAND","OR",97520,NA,NA,251,"PO BOX 3062, ASHLAND, OR, 97520","No_Match",NA,NA,NA,NA
344252,"PO BOX 3062","DAPHNE","AL",36526,NA,NA,252,"PO BOX 3062, DAPHNE, AL, 36526","No_Match",NA,NA,NA,NA
344253,"PO BOX 30624","CLARKSVILLE","TN",37040,NA,NA,253,"PO BOX 30624, CLARKSVILLE, TN, 37040","No_Match",NA,NA,NA,NA
344254,"PO BOX 306357","SAINT THOMAS","VI",803,NA,NA,254,"PO BOX 306357, SAINT THOMAS, VI, 803","No_Match",NA,NA,NA,NA
344255,"PO BOX 3064","BRANDON","FL",33509,NA,NA,255,"PO BOX 3064, BRANDON, FL, 33509","No_Match",NA,NA,NA,NA
344256,"PO BOX 3064","DICKINSON","ND",58602,NA,NA,256,"PO BOX 3064, DICKINSON, ND, 58602","No_Match",NA,NA,NA,NA
344257,"PO BOX 3064","FAIRVIEW HEIGHTS","IL",62208,NA,NA,257,"PO BOX 3064, FAIRVIEW HEIGHTS, IL, 62208","No_Match",NA,NA,NA,NA
344258,"PO BOX 3064","SOUTHFIELD","MI",48037,NA,NA,258,"PO BOX 3064, SOUTHFIELD, MI, 48037","No_Match",NA,NA,NA,NA
344259,"PO BOX 30643","SPOKANE","WA",99223,NA,NA,259,"PO BOX 30643, SPOKANE, WA, 99223","No_Match",NA,NA,NA,NA
344260,"PO BOX 30644","PENSACOLA","FL",32503,NA,NA,260,"PO BOX 30644, PENSACOLA, FL, 32503","No_Match",NA,NA,NA,NA
344261,"PO BOX 3065","COLORADO SPRINGS","CO",80934,NA,NA,261,"PO BOX 3065, COLORADO SPRINGS, CO, 80934","No_Match",NA,NA,NA,NA
344262,"PO BOX 3065","NEWARK","NJ",7103,NA,NA,262,"PO BOX 3065, NEWARK, NJ, 7103","No_Match",NA,NA,NA,NA
344263,"PO BOX 3065","TAOS","NM",87571,NA,NA,263,"PO BOX 3065, TAOS, NM, 87571","No_Match",NA,NA,NA,NA
344264,"PO BOX 30654","PALM BEACH GARDENS","FL",33420,NA,NA,264,"PO BOX 30654, PALM BEACH GARDENS, FL, 33420","No_Match",NA,NA,NA,NA
344265,"PO BOX 306571","ST THOMAS","VI",803,NA,NA,265,"PO BOX 306571, ST THOMAS, VI, 803","No_Match",NA,NA,NA,NA
344266,"PO BOX 3066","BLOOMINGTON","IN",47402,NA,NA,266,"PO BOX 3066, BLOOMINGTON, IN, 47402","No_Match",NA,NA,NA,NA
344267,"PO BOX 3066","ELIDA","OH",45807,NA,NA,267,"PO BOX 3066, ELIDA, OH, 45807","No_Match",NA,NA,NA,NA
344268,"PO BOX 306616","ST. THOMAS","VI",803,NA,NA,268,"PO BOX 306616, ST. THOMAS, VI, 803","No_Match",NA,NA,NA,NA
344269,"PO BOX 30671","ALBUQUERQUE","NM",87190,NA,NA,269,"PO BOX 30671, ALBUQUERQUE, NM, 87190","No_Match",NA,NA,NA,NA
344270,"PO BOX 3068","ANDOVER","MA",1844,NA,NA,270,"PO BOX 3068, ANDOVER, MA, 1844","No_Match",NA,NA,NA,NA
344271,"PO BOX 30684","CLARKSVILLE","TN",37040,NA,NA,271,"PO BOX 30684, CLARKSVILLE, TN, 37040","No_Match",NA,NA,NA,NA
344272,"PO BOX 3069","CARMICHAEL","CA",95609,NA,NA,272,"PO BOX 3069, CARMICHAEL, CA, 95609","No_Match",NA,NA,NA,NA
344273,"PO BOX 3069","PALM BEACH","FL",33480,NA,NA,273,"PO BOX 3069, PALM BEACH, FL, 33480","No_Match",NA,NA,NA,NA
344274,"PO BOX 30691","ELMONT","NY",11003,NA,NA,274,"PO BOX 30691, ELMONT, NY, 11003","No_Match",NA,NA,NA,NA
344275,"PO BOX 307","BELLEFONTE","PA",16823,NA,NA,275,"PO BOX 307, BELLEFONTE, PA, 16823","No_Match",NA,NA,NA,NA
344276,"PO BOX 307","CHISAGO CITY","MN",55045,NA,NA,276,"PO BOX 307, CHISAGO CITY, MN, 55045","No_Match",NA,NA,NA,NA
344277,"PO BOX 307","COALVILLE","UT",84017,NA,NA,277,"PO BOX 307, COALVILLE, UT, 84017","No_Match",NA,NA,NA,NA
344278,"PO BOX 307","CROSBYTON","TX",79322,NA,NA,278,"PO BOX 307, CROSBYTON, TX, 79322","No_Match",NA,NA,NA,NA
344279,"PO BOX 307","DEER RIVER","MN",56636,NA,NA,279,"PO BOX 307, DEER RIVER, MN, 56636","No_Match",NA,NA,NA,NA
344280,"PO BOX 307","DHANIS","TX",78850,NA,NA,280,"PO BOX 307, DHANIS, TX, 78850","No_Match",NA,NA,NA,NA
344281,"PO BOX 307","FINDLAY","OH",45839,NA,NA,281,"PO BOX 307, FINDLAY, OH, 45839","No_Match",NA,NA,NA,NA
344282,"PO BOX 307","GEORGETOWN","TX",78627,NA,NA,282,"PO BOX 307, GEORGETOWN, TX, 78627","No_Match",NA,NA,NA,NA
344283,"PO BOX 307","LAKE CITY","MN",55041,NA,NA,283,"PO BOX 307, LAKE CITY, MN, 55041","No_Match",NA,NA,NA,NA
344284,"PO BOX 307","LAKE GROVE","NY",11755,NA,NA,284,"PO BOX 307, LAKE GROVE, NY, 11755","No_Match",NA,NA,NA,NA
344285,"PO BOX 307","MARION","IL",62959,NA,NA,285,"PO BOX 307, MARION, IL, 62959","No_Match",NA,NA,NA,NA
344286,"PO BOX 307","NEW BALTIMORE","MI",48047,NA,NA,286,"PO BOX 307, NEW BALTIMORE, MI, 48047","No_Match",NA,NA,NA,NA
344287,"PO BOX 307","NEW LEBANON","NY",12125,NA,NA,287,"PO BOX 307, NEW LEBANON, NY, 12125","No_Match",NA,NA,NA,NA
344288,"PO BOX 307","ONA","WV",25545,NA,NA,288,"PO BOX 307, ONA, WV, 25545","No_Match",NA,NA,NA,NA
344289,"PO BOX 307","PORT ORCHARD","WA",98366,NA,NA,289,"PO BOX 307, PORT ORCHARD, WA, 98366","No_Match",NA,NA,NA,NA
344290,"PO BOX 307","RICE","MN",56367,NA,NA,290,"PO BOX 307, RICE, MN, 56367","No_Match",NA,NA,NA,NA
344291,"PO BOX 307","RIDGEWOOD","NJ",7676,NA,NA,291,"PO BOX 307, RIDGEWOOD, NJ, 7676","No_Match",NA,NA,NA,NA
344292,"PO BOX 307","SAVAGE","MD",20763,NA,NA,292,"PO BOX 307, SAVAGE, MD, 20763","No_Match",NA,NA,NA,NA
344293,"PO BOX 307","SCHULENBURG","TX",78956,NA,NA,293,"PO BOX 307, SCHULENBURG, TX, 78956","No_Match",NA,NA,NA,NA
344294,"PO BOX 307","SHULLSBURG","WI",53586,NA,NA,294,"PO BOX 307, SHULLSBURG, WI, 53586","No_Match",NA,NA,NA,NA
344295,"PO BOX 307","SIDNEY","IA",51652,NA,NA,295,"PO BOX 307, SIDNEY, IA, 51652","No_Match",NA,NA,NA,NA
344296,"PO BOX 307","ST. GEORGE","UT",84771,NA,NA,296,"PO BOX 307, ST. GEORGE, UT, 84771","No_Match",NA,NA,NA,NA
344297,"PO BOX 307","WARREN","VT",5674,NA,NA,297,"PO BOX 307, WARREN, VT, 5674","No_Match",NA,NA,NA,NA
344298,"PO BOX 30704","GREENVILLE","NC",27833,NA,NA,298,"PO BOX 30704, GREENVILLE, NC, 27833","No_Match",NA,NA,NA,NA
344299,"PO BOX 3071","LONDON","KY",40741,NA,NA,299,"PO BOX 3071, LONDON, KY, 40741","No_Match",NA,NA,NA,NA
344300,"PO BOX 3071","RIVERVIEW","FL",33568,NA,NA,300,"PO BOX 3071, RIVERVIEW, FL, 33568","No_Match",NA,NA,NA,NA
344301,"PO BOX 30712","LAUGHLIN","NV",89028,NA,NA,301,"PO BOX 30712, LAUGHLIN, NV, 89028","No_Match",NA,NA,NA,NA
344302,"PO BOX 30712","LINCOLN","NE",68503,NA,NA,302,"PO BOX 30712, LINCOLN, NE, 68503","No_Match",NA,NA,NA,NA
344303,"PO BOX 307146","ST THOMAS","VI",803,NA,NA,303,"PO BOX 307146, ST THOMAS, VI, 803","No_Match",NA,NA,NA,NA
344304,"PO BOX 3072","AUGUSTA","SC",30914,NA,NA,304,"PO BOX 3072, AUGUSTA, SC, 30914","No_Match",NA,NA,NA,NA
344305,"PO BOX 3072","CORYDON","IN",47112,NA,NA,305,"PO BOX 3072, CORYDON, IN, 47112","No_Match",NA,NA,NA,NA
344306,"PO BOX 3072","DECATUR","IL",62524,NA,NA,306,"PO BOX 3072, DECATUR, IL, 62524","No_Match",NA,NA,NA,NA
344307,"PO BOX 3073","ALBANY","NY",12203,NA,NA,307,"PO BOX 3073, ALBANY, NY, 12203","No_Match",NA,NA,NA,NA
344308,"PO BOX 30733","COLUMBIA","MO",65205,NA,NA,308,"PO BOX 30733, COLUMBIA, MO, 65205","No_Match",NA,NA,NA,NA
344309,"PO BOX 3074","CHESAPEAKE","VA",23327,NA,NA,309,"PO BOX 3074, CHESAPEAKE, VA, 23327","No_Match",NA,NA,NA,NA
344310,"PO BOX 30741","RALEIGH","NC",27622,NA,NA,310,"PO BOX 30741, RALEIGH, NC, 27622","No_Match",NA,NA,NA,NA
344311,"PO BOX 3075","KINGSHILL","VI",851,NA,NA,311,"PO BOX 3075, KINGSHILL, VI, 851","No_Match",NA,NA,NA,NA
344312,"PO BOX 3076","ANDERSON","AK",99744,NA,NA,312,"PO BOX 3076, ANDERSON, AK, 99744","No_Match",NA,NA,NA,NA
344313,"PO BOX 3076","AUGUSTA","ME",4330,NA,NA,313,"PO BOX 3076, AUGUSTA, ME, 4330","No_Match",NA,NA,NA,NA
344314,"PO BOX 3076","CORRALES","NM",87048,NA,NA,314,"PO BOX 3076, CORRALES, NM, 87048","No_Match",NA,NA,NA,NA
344315,"PO BOX 3076","SANTA CLARA","CA",95055,NA,NA,315,"PO BOX 3076, SANTA CLARA, CA, 95055","No_Match",NA,NA,NA,NA
344316,"PO BOX 307653","COLUMBUS","OH",43230,NA,NA,316,"PO BOX 307653, COLUMBUS, OH, 43230","No_Match",NA,NA,NA,NA
344317,"PO BOX 3077","AUGUSTA","ME",4330,NA,NA,317,"PO BOX 3077, AUGUSTA, ME, 4330","No_Match",NA,NA,NA,NA
344318,"PO BOX 30771","SPOKANE","WA",99223,NA,NA,318,"PO BOX 30771, SPOKANE, WA, 99223","No_Match",NA,NA,NA,NA
344319,"PO BOX 30771","WILMINGTON","DE",19805,NA,NA,319,"PO BOX 30771, WILMINGTON, DE, 19805","No_Match",NA,NA,NA,NA
344320,"PO BOX 307713","ST THOMAS","VI",803,NA,NA,320,"PO BOX 307713, ST THOMAS, VI, 803","No_Match",NA,NA,NA,NA
344321,"PO BOX 307806","ST THOMAS","VI",803,NA,NA,321,"PO BOX 307806, ST THOMAS, VI, 803","No_Match",NA,NA,NA,NA
344322,"PO BOX 30783","CHARLOTTE","NC",28230,NA,NA,322,"PO BOX 30783, CHARLOTTE, NC, 28230","No_Match",NA,NA,NA,NA
344323,"PO BOX 30783","WASHINGTON","DC",20020,NA,NA,323,"PO BOX 30783, WASHINGTON, DC, 20020","No_Match",NA,NA,NA,NA
344324,"PO BOX 30797","HONOLULU","HI",96820,NA,NA,324,"PO BOX 30797, HONOLULU, HI, 96820","No_Match",NA,NA,NA,NA
344325,"PO BOX 308","AMBOY","IN",46911,NA,NA,325,"PO BOX 308, AMBOY, IN, 46911","No_Match",NA,NA,NA,NA
344326,"PO BOX 308","BELMONT","NH",3301,NA,NA,326,"PO BOX 308, BELMONT, NH, 3301","No_Match",NA,NA,NA,NA
344327,"PO BOX 308","BETHEL","NC",27812,NA,NA,327,"PO BOX 308, BETHEL, NC, 27812","No_Match",NA,NA,NA,NA
344328,"PO BOX 308","BLADENBORO","NC",28320,NA,NA,328,"PO BOX 308, BLADENBORO, NC, 28320","No_Match",NA,NA,NA,NA
344329,"PO BOX 308","CLEBURNE","TX",76033,NA,NA,329,"PO BOX 308, CLEBURNE, TX, 76033","No_Match",NA,NA,NA,NA
344330,"PO BOX 308","COLFAX","IN",46035,NA,NA,330,"PO BOX 308, COLFAX, IN, 46035","No_Match",NA,NA,NA,NA
344331,"PO BOX 308","CUMBERLAND FURNACE","TN",37051,NA,NA,331,"PO BOX 308, CUMBERLAND FURNACE, TN, 37051","No_Match",NA,NA,NA,NA
344332,"PO BOX 308","DRAYTON","SC",29333,NA,NA,332,"PO BOX 308, DRAYTON, SC, 29333","No_Match",NA,NA,NA,NA
344333,"PO BOX 308","ELM GROVE","WI",53122,NA,NA,333,"PO BOX 308, ELM GROVE, WI, 53122","No_Match",NA,NA,NA,NA
344334,"PO BOX 308","HALIFAX","NC",27839,NA,NA,334,"PO BOX 308, HALIFAX, NC, 27839","No_Match",NA,NA,NA,NA
344335,"PO BOX 308","HUNTSBURG","OH",44046,NA,NA,335,"PO BOX 308, HUNTSBURG, OH, 44046","No_Match",NA,NA,NA,NA
344336,"PO BOX 308","IRMO","SC",29063,NA,NA,336,"PO BOX 308, IRMO, SC, 29063","No_Match",NA,NA,NA,NA
344337,"PO BOX 308","IRVINGTON","NJ",7111,NA,NA,337,"PO BOX 308, IRVINGTON, NJ, 7111","No_Match",NA,NA,NA,NA
344338,"PO BOX 308","MAGDALENA","NM",87825,NA,NA,338,"PO BOX 308, MAGDALENA, NM, 87825","No_Match",NA,NA,NA,NA
344339,"PO BOX 308","MIDDLEBURGH","NY",12122,NA,NA,339,"PO BOX 308, MIDDLEBURGH, NY, 12122","No_Match",NA,NA,NA,NA
344340,"PO BOX 308","OWINGS","MD",20736,NA,NA,340,"PO BOX 308, OWINGS, MD, 20736","No_Match",NA,NA,NA,NA
344341,"PO BOX 308","SAN GABRIEL","CA",91778,NA,NA,341,"PO BOX 308, SAN GABRIEL, CA, 91778","No_Match",NA,NA,NA,NA
344342,"PO BOX 308","SANTA FE","NM",87504,NA,NA,342,"PO BOX 308, SANTA FE, NM, 87504","No_Match",NA,NA,NA,NA
344343,"PO BOX 308","STROMSBURG","NE",68666,NA,NA,343,"PO BOX 308, STROMSBURG, NE, 68666","No_Match",NA,NA,NA,NA
344344,"PO BOX 308","SUWANEE","GA",30024,NA,NA,344,"PO BOX 308, SUWANEE, GA, 30024","No_Match",NA,NA,NA,NA
344345,"PO BOX 308","WATERVLIET","NY",12189,NA,NA,345,"PO BOX 308, WATERVLIET, NY, 12189","No_Match",NA,NA,NA,NA
344346,"PO BOX 3080","POCATELLO","ID",83206,NA,NA,346,"PO BOX 3080, POCATELLO, ID, 83206","No_Match",NA,NA,NA,NA
344347,"PO BOX 30800 PMB 152","HONOLULU","HI",96818,NA,NA,347,"PO BOX 30800 PMB 152, HONOLULU, HI, 96818","No_Match",NA,NA,NA,NA
344348,"PO BOX 30800","HONOLULU","HI",96820,NA,NA,348,"PO BOX 30800, HONOLULU, HI, 96820","No_Match",NA,NA,NA,NA
344349,"PO BOX 30801","PALM BEACH GARDENS","FL",33420,NA,NA,349,"PO BOX 30801, PALM BEACH GARDENS, FL, 33420","No_Match",NA,NA,NA,NA
344350,"PO BOX 30805","SAVANNAH","GA",31410,NA,NA,350,"PO BOX 30805, SAVANNAH, GA, 31410","No_Match",NA,NA,NA,NA
344351,"PO BOX 3081","HAYDEN","ID",83835,NA,NA,351,"PO BOX 3081, HAYDEN, ID, 83835","No_Match",NA,NA,NA,NA
344352,"PO BOX 3081","KAILUA-KONA","HI",96745,NA,NA,352,"PO BOX 3081, KAILUA-KONA, HI, 96745","No_Match",NA,NA,NA,NA
344353,"PO BOX 3081","LEBANON","TN",37088,NA,NA,353,"PO BOX 3081, LEBANON, TN, 37088","No_Match",NA,NA,NA,NA
344354,"PO BOX 3081","LIHUE","HI",96766,NA,NA,354,"PO BOX 3081, LIHUE, HI, 96766","No_Match",NA,NA,NA,NA
344355,"PO BOX 30810","COLUMBIA","SC",29203,NA,NA,355,"PO BOX 30810, COLUMBIA, SC, 29203","No_Match",NA,NA,NA,NA
344356,"PO BOX 30815","GAHANNA","OH",43230,NA,NA,356,"PO BOX 30815, GAHANNA, OH, 43230","No_Match",NA,NA,NA,NA
344357,"PO BOX 30819","WILMINGTON","DE",19805,NA,NA,357,"PO BOX 30819, WILMINGTON, DE, 19805","No_Match",NA,NA,NA,NA
344358,"PO BOX 3082","ANN ARBOR","MI",48106,NA,NA,358,"PO BOX 3082, ANN ARBOR, MI, 48106","No_Match",NA,NA,NA,NA
344359,"PO BOX 3082","WATERBURY","CT",6705,NA,NA,359,"PO BOX 3082, WATERBURY, CT, 6705","No_Match",NA,NA,NA,NA
344360,"PO BOX 30823","MIDWEST CITY","OK",73140,NA,NA,360,"PO BOX 30823, MIDWEST CITY, OK, 73140","No_Match",NA,NA,NA,NA
344361,"PO BOX 30824","LITTLE ROCK","AR",72260,NA,NA,361,"PO BOX 30824, LITTLE ROCK, AR, 72260","No_Match",NA,NA,NA,NA
344362,"PO BOX 3083","NEW BRITAIN","CT",6052,NA,NA,362,"PO BOX 3083, NEW BRITAIN, CT, 6052","No_Match",NA,NA,NA,NA
344363,"PO BOX 30832","GREENVILLE","NC",27833,NA,NA,363,"PO BOX 30832, GREENVILLE, NC, 27833","No_Match",NA,NA,NA,NA
344364,"PO BOX 30832","INDIANAPOLIS","IN",46230,NA,NA,364,"PO BOX 30832, INDIANAPOLIS, IN, 46230","No_Match",NA,NA,NA,NA
344365,"PO BOX 308359","ST THOMAS","VI",803,NA,NA,365,"PO BOX 308359, ST THOMAS, VI, 803","No_Match",NA,NA,NA,NA
344366,"PO BOX 30836","GREENVILLE","NC",27833,NA,NA,366,"PO BOX 30836, GREENVILLE, NC, 27833","No_Match",NA,NA,NA,NA
344367,"PO BOX 30838","HONOLULU","HI",96820,NA,NA,367,"PO BOX 30838, HONOLULU, HI, 96820","No_Match",NA,NA,NA,NA
344368,"PO BOX 3084","BUFFALO","NY",14240,NA,NA,368,"PO BOX 3084, BUFFALO, NY, 14240","No_Match",NA,NA,NA,NA
344369,"PO BOX 30843","PALM BEACH GARDENS","FL",33420,NA,NA,369,"PO BOX 30843, PALM BEACH GARDENS, FL, 33420","No_Match",NA,NA,NA,NA
344370,"PO BOX 3085","ANN ARBOR","MI",48106,NA,NA,370,"PO BOX 3085, ANN ARBOR, MI, 48106","No_Match",NA,NA,NA,NA
344371,"PO BOX 3085","SANTA MONICA","CA",90408,NA,NA,371,"PO BOX 3085, SANTA MONICA, CA, 90408","No_Match",NA,NA,NA,NA
344372,"PO BOX 30859","WASHINGTON","DC",20030,NA,NA,372,"PO BOX 30859, WASHINGTON, DC, 20030","No_Match",NA,NA,NA,NA
344373,"PO BOX 3086","LA GRANDE","OR",97850,NA,NA,373,"PO BOX 3086, LA GRANDE, OR, 97850","No_Match",NA,NA,NA,NA
344374,"PO BOX 3086","MUSKOGEE","OK",74402,NA,NA,374,"PO BOX 3086, MUSKOGEE, OK, 74402","No_Match",NA,NA,NA,NA
344375,"PO BOX 30863","OAKLAND","CA",94604,NA,NA,375,"PO BOX 30863, OAKLAND, CA, 94604","No_Match",NA,NA,NA,NA
344376,"PO BOX 3087","EARLY","TX",76803,NA,NA,376,"PO BOX 3087, EARLY, TX, 76803","No_Match",NA,NA,NA,NA
344377,"PO BOX 30884","PHILADELPHIA","PA",19104,NA,NA,377,"PO BOX 30884, PHILADELPHIA, PA, 19104","No_Match",NA,NA,NA,NA
344378,"PO BOX 30892","INDIANAPOLIS","IN",46230,NA,NA,378,"PO BOX 30892, INDIANAPOLIS, IN, 46230","No_Match",NA,NA,NA,NA
344379,"PO BOX 309","AUBURN","WA",98071,NA,NA,379,"PO BOX 309, AUBURN, WA, 98071","No_Match",NA,NA,NA,NA
344380,"PO BOX 309","BRENTWOOD","CA",94513,NA,NA,380,"PO BOX 309, BRENTWOOD, CA, 94513","No_Match",NA,NA,NA,NA
344381,"PO BOX 309","BURLINGTON","NC",27217,NA,NA,381,"PO BOX 309, BURLINGTON, NC, 27217","No_Match",NA,NA,NA,NA
344382,"PO BOX 309","CARMICHAELS","PA",15320,NA,NA,382,"PO BOX 309, CARMICHAELS, PA, 15320","No_Match",NA,NA,NA,NA
344383,"PO BOX 309","CARSON","WA",98610,NA,NA,383,"PO BOX 309, CARSON, WA, 98610","No_Match",NA,NA,NA,NA
344384,"PO BOX 309","CHANHASSEN","MN",55317,NA,NA,384,"PO BOX 309, CHANHASSEN, MN, 55317","No_Match",NA,NA,NA,NA
344385,"PO BOX 309","CLINTWOOD","VA",24228,NA,NA,385,"PO BOX 309, CLINTWOOD, VA, 24228","No_Match",NA,NA,NA,NA
344386,"PO BOX 309","DEARBORN","MI",48121,NA,NA,386,"PO BOX 309, DEARBORN, MI, 48121","No_Match",NA,NA,NA,NA
344387,"PO BOX 309","DEEPWATER","NJ",8023,NA,NA,387,"PO BOX 309, DEEPWATER, NJ, 8023","No_Match",NA,NA,NA,NA
344388,"PO BOX 309","EAST PALESTINE","OH",44413,NA,NA,388,"PO BOX 309, EAST PALESTINE, OH, 44413","No_Match",NA,NA,NA,NA
344389,"PO BOX 309","FAULKTON","SD",57438,NA,NA,389,"PO BOX 309, FAULKTON, SD, 57438","No_Match",NA,NA,NA,NA
344390,"PO BOX 309","FLINT HILL","VA",22627,NA,NA,390,"PO BOX 309, FLINT HILL, VA, 22627","No_Match",NA,NA,NA,NA
344391,"PO BOX 309","HARRISVILLE","RI",2830,NA,NA,391,"PO BOX 309, HARRISVILLE, RI, 2830","No_Match",NA,NA,NA,NA
344392,"PO BOX 309","LINDEN","MI",48451,NA,NA,392,"PO BOX 309, LINDEN, MI, 48451","No_Match",NA,NA,NA,NA
344393,"PO BOX 309","MOUNT VERNON","OH",43050,NA,NA,393,"PO BOX 309, MOUNT VERNON, OH, 43050","No_Match",NA,NA,NA,NA
344394,"PO BOX 309","PECOS","NM",87552,NA,NA,394,"PO BOX 309, PECOS, NM, 87552","No_Match",NA,NA,NA,NA
344395,"PO BOX 309","PLUMMER","ID",83851,NA,NA,395,"PO BOX 309, PLUMMER, ID, 83851","No_Match",NA,NA,NA,NA
344396,"PO BOX 309","SALOME","AZ",85348,NA,NA,396,"PO BOX 309, SALOME, AZ, 85348","No_Match",NA,NA,NA,NA
344397,"PO BOX 309","TANNERSVILLE","NY",12485,NA,NA,397,"PO BOX 309, TANNERSVILLE, NY, 12485","No_Match",NA,NA,NA,NA
344398,"PO BOX 309","WILLIAMSTON","MI",48895,NA,NA,398,"PO BOX 309, WILLIAMSTON, MI, 48895","No_Match",NA,NA,NA,NA
344399,"PO BOX 309","YONKERS","NY",10705,NA,NA,399,"PO BOX 309, YONKERS, NY, 10705","No_Match",NA,NA,NA,NA
344400,"PO BOX 3090","FAIRBORN","OH",45324,NA,NA,400,"PO BOX 3090, FAIRBORN, OH, 45324","No_Match",NA,NA,NA,NA
344401,"PO BOX 3090","WESTPORT","MA",2790,NA,NA,401,"PO BOX 3090, WESTPORT, MA, 2790","No_Match",NA,NA,NA,NA
344402,"PO BOX 30901","GREENVILLE","NC",27833,NA,NA,402,"PO BOX 30901, GREENVILLE, NC, 27833","No_Match",NA,NA,NA,NA
344403,"PO BOX 30905","NEW YORK","NY",10011,NA,NA,403,"PO BOX 30905, NEW YORK, NY, 10011","No_Match",NA,NA,NA,NA
344404,"PO BOX 3093","FREDERICK","MD",21705,NA,NA,404,"PO BOX 3093, FREDERICK, MD, 21705","No_Match",NA,NA,NA,NA
344405,"PO BOX 30934","PALM BEACH GARDENS","FL",33420,NA,NA,405,"PO BOX 30934, PALM BEACH GARDENS, FL, 33420","No_Match",NA,NA,NA,NA
344406,"PO BOX 30935","BELLINGHAM","WA",98228,NA,NA,406,"PO BOX 30935, BELLINGHAM, WA, 98228","No_Match",NA,NA,NA,NA
344407,"PO BOX 3094","BANDERA","TX",78003,NA,NA,407,"PO BOX 3094, BANDERA, TX, 78003","No_Match",NA,NA,NA,NA
344408,"PO BOX 30955","EDMOND","OK",73003,NA,NA,408,"PO BOX 30955, EDMOND, OK, 73003","No_Match",NA,NA,NA,NA
344409,"PO BOX 3096","AVON","CO",81620,NA,NA,409,"PO BOX 3096, AVON, CO, 81620","No_Match",NA,NA,NA,NA
344410,"PO BOX 30961","TUCSON","AZ",85715,NA,NA,410,"PO BOX 30961, TUCSON, AZ, 85715","No_Match",NA,NA,NA,NA
344411,"PO BOX 30965","HONOLULU","HI",96820,NA,NA,411,"PO BOX 30965, HONOLULU, HI, 96820","No_Match",NA,NA,NA,NA
344412,"PO BOX 30966","LAS VEGAS","NV",89173,NA,NA,412,"PO BOX 30966, LAS VEGAS, NV, 89173","No_Match",NA,NA,NA,NA
344413,"PO BOX 30986","GREENVILLE","NC",27833,NA,NA,413,"PO BOX 30986, GREENVILLE, NC, 27833","No_Match",NA,NA,NA,NA
344414,"PO BOX 31 100 CENTER ST","CHICOPEE","MA",1013,42.1456902570001,-72.60821019,414,"PO BOX 31 100 CENTER ST, CHICOPEE, MA, 1013","Match","Exact","100 CENTER ST, CHICOPEE, MA, 01013",4058510,"R"
344415,"PO BOX 31 50 E DERRY ROAD","DERRY","NH",3041,NA,NA,415,"PO BOX 31 50 E DERRY ROAD, DERRY, NH, 3041","No_Match",NA,NA,NA,NA
344416,"PO BOX 31","ADIN","CA",96006,NA,NA,416,"PO BOX 31, ADIN, CA, 96006","No_Match",NA,NA,NA,NA
344417,"PO BOX 31","BEASLEY","TX",77417,NA,NA,417,"PO BOX 31, BEASLEY, TX, 77417","No_Match",NA,NA,NA,NA
344418,"PO BOX 31","CALMAR","IA",52132,NA,NA,418,"PO BOX 31, CALMAR, IA, 52132","No_Match",NA,NA,NA,NA
344419,"PO BOX 31","CEDAR RAPIDS","IA",52406,NA,NA,419,"PO BOX 31, CEDAR RAPIDS, IA, 52406","No_Match",NA,NA,NA,NA
344420,"PO BOX 31","CORDELL","OK",73632,NA,NA,420,"PO BOX 31, CORDELL, OK, 73632","No_Match",NA,NA,NA,NA
344421,"PO BOX 31","DAYTON","TN",37321,NA,NA,421,"PO BOX 31, DAYTON, TN, 37321","No_Match",NA,NA,NA,NA
344422,"PO BOX 31","EAST CONCORD","NY",14055,NA,NA,422,"PO BOX 31, EAST CONCORD, NY, 14055","No_Match",NA,NA,NA,NA
344423,"PO BOX 31","EMMETSBURG","IA",50536,NA,NA,423,"PO BOX 31, EMMETSBURG, IA, 50536","No_Match",NA,NA,NA,NA
344424,"PO BOX 31","FARSON","WY",82932,NA,NA,424,"PO BOX 31, FARSON, WY, 82932","No_Match",NA,NA,NA,NA
344425,"PO BOX 31","FAYETTE","AL",35555,NA,NA,425,"PO BOX 31, FAYETTE, AL, 35555","No_Match",NA,NA,NA,NA
344426,"PO BOX 31","GOOSE CREEK","SC",29445,NA,NA,426,"PO BOX 31, GOOSE CREEK, SC, 29445","No_Match",NA,NA,NA,NA
344427,"PO BOX 31","GREENE","NY",13778,NA,NA,427,"PO BOX 31, GREENE, NY, 13778","No_Match",NA,NA,NA,NA
344428,"PO BOX 31","HARTFORD","SD",57033,NA,NA,428,"PO BOX 31, HARTFORD, SD, 57033","No_Match",NA,NA,NA,NA
344429,"PO BOX 31","HARVEY","ND",58341,NA,NA,429,"PO BOX 31, HARVEY, ND, 58341","No_Match",NA,NA,NA,NA
344430,"PO BOX 31","HURRICANE","WV",25526,NA,NA,430,"PO BOX 31, HURRICANE, WV, 25526","No_Match",NA,NA,NA,NA
344431,"PO BOX 31","IREDELL","TX",76649,NA,NA,431,"PO BOX 31, IREDELL, TX, 76649","No_Match",NA,NA,NA,NA
344432,"PO BOX 31","LIBERTY CORNER","NJ",7938,NA,NA,432,"PO BOX 31, LIBERTY CORNER, NJ, 7938","No_Match",NA,NA,NA,NA
344433,"PO BOX 31","MALTA","OH",43758,NA,NA,433,"PO BOX 31, MALTA, OH, 43758","No_Match",NA,NA,NA,NA
344434,"PO BOX 31","MALVERN","OH",44644,NA,NA,434,"PO BOX 31, MALVERN, OH, 44644","No_Match",NA,NA,NA,NA
344435,"PO BOX 31","MT JUDEA","AR",72655,NA,NA,435,"PO BOX 31, MT JUDEA, AR, 72655","No_Match",NA,NA,NA,NA
344436,"PO BOX 31","NEW LENOX","IL",60451,NA,NA,436,"PO BOX 31, NEW LENOX, IL, 60451","No_Match",NA,NA,NA,NA
344437,"PO BOX 31","NUNNELLY","TN",37137,NA,NA,437,"PO BOX 31, NUNNELLY, TN, 37137","No_Match",NA,NA,NA,NA
344438,"PO BOX 31","OWOSSO","MI",48867,NA,NA,438,"PO BOX 31, OWOSSO, MI, 48867","No_Match",NA,NA,NA,NA
344439,"PO BOX 31","PORT ELIZABETH","NJ",8348,NA,NA,439,"PO BOX 31, PORT ELIZABETH, NJ, 8348","No_Match",NA,NA,NA,NA
344440,"PO BOX 31","PT PLEASANT","PA",18950,NA,NA,440,"PO BOX 31, PT PLEASANT, PA, 18950","No_Match",NA,NA,NA,NA
344441,"PO BOX 31","RED HILL","PA",18073,NA,NA,441,"PO BOX 31, RED HILL, PA, 18073","No_Match",NA,NA,NA,NA
344442,"PO BOX 31","SANDY","OR",97055,NA,NA,442,"PO BOX 31, SANDY, OR, 97055","No_Match",NA,NA,NA,NA
344443,"PO BOX 31","SOUTH HERO","VT",5486,NA,NA,443,"PO BOX 31, SOUTH HERO, VT, 5486","No_Match",NA,NA,NA,NA
344444,"PO BOX 31","TOCCOA","GA",30577,NA,NA,444,"PO BOX 31, TOCCOA, GA, 30577","No_Match",NA,NA,NA,NA
344445,"PO BOX 31","WAYZATA","MN",55391,NA,NA,445,"PO BOX 31, WAYZATA, MN, 55391","No_Match",NA,NA,NA,NA
344446,"PO BOX 31","WELLINGTON","CO",80549,NA,NA,446,"PO BOX 31, WELLINGTON, CO, 80549","No_Match",NA,NA,NA,NA
344447,"PO BOX 31","WEST SAYVILLE","NY",11796,NA,NA,447,"PO BOX 31, WEST SAYVILLE, NY, 11796","No_Match",NA,NA,NA,NA
344448,"PO BOX 31","WESTBY","WI",54667,NA,NA,448,"PO BOX 31, WESTBY, WI, 54667","No_Match",NA,NA,NA,NA
344449,"PO BOX 31","WILDERSVILLE","TN",38388,NA,NA,449,"PO BOX 31, WILDERSVILLE, TN, 38388","No_Match",NA,NA,NA,NA
344450,"PO BOX 31","YATESBORO","PA",16263,NA,NA,450,"PO BOX 31, YATESBORO, PA, 16263","No_Match",NA,NA,NA,NA
344451,"PO BOX 310","ANGELS CAMP","CA",95222,NA,NA,451,"PO BOX 310, ANGELS CAMP, CA, 95222","No_Match",NA,NA,NA,NA
344452,"PO BOX 310","ASHTON","MD",20851,NA,NA,452,"PO BOX 310, ASHTON, MD, 20851","No_Match",NA,NA,NA,NA
344453,"PO BOX 310","CHAVIES","KY",41727,NA,NA,453,"PO BOX 310, CHAVIES, KY, 41727","No_Match",NA,NA,NA,NA
344454,"PO BOX 310","CORINTH","MS",38835,NA,NA,454,"PO BOX 310, CORINTH, MS, 38835","No_Match",NA,NA,NA,NA
344455,"PO BOX 310","FLINT HILL","VA",22627,NA,NA,455,"PO BOX 310, FLINT HILL, VA, 22627","No_Match",NA,NA,NA,NA
344456,"PO BOX 310","GARNER","NC",27529,NA,NA,456,"PO BOX 310, GARNER, NC, 27529","No_Match",NA,NA,NA,NA
344457,"PO BOX 310","GLEN ELLEN","CA",95442,NA,NA,457,"PO BOX 310, GLEN ELLEN, CA, 95442","No_Match",NA,NA,NA,NA
344458,"PO BOX 310","HOLLY","MI",48430,NA,NA,458,"PO BOX 310, HOLLY, MI, 48430","No_Match",NA,NA,NA,NA
344459,"PO BOX 310","LAKE JUNALUSKA","NC",28745,NA,NA,459,"PO BOX 310, LAKE JUNALUSKA, NC, 28745","No_Match",NA,NA,NA,NA
344460,"PO BOX 310","MAMMOTH SPRING","AR",72554,NA,NA,460,"PO BOX 310, MAMMOTH SPRING, AR, 72554","No_Match",NA,NA,NA,NA
344461,"PO BOX 310","NEWPORT","NC",28570,NA,NA,461,"PO BOX 310, NEWPORT, NC, 28570","No_Match",NA,NA,NA,NA
344462,"PO BOX 310","NOBLESVILLE","IN",46061,NA,NA,462,"PO BOX 310, NOBLESVILLE, IN, 46061","No_Match",NA,NA,NA,NA
344463,"PO BOX 310","PLATTSBURGH","NY",12901,NA,NA,463,"PO BOX 310, PLATTSBURGH, NY, 12901","No_Match",NA,NA,NA,NA
344464,"PO BOX 310","WEIR","TX",78674,NA,NA,464,"PO BOX 310, WEIR, TX, 78674","No_Match",NA,NA,NA,NA
344465,"PO BOX 310","WOODVILLE","FL",32362,NA,NA,465,"PO BOX 310, WOODVILLE, FL, 32362","No_Match",NA,NA,NA,NA
344466,"PO BOX 310","YOUNGSVILLE","PA",16371,NA,NA,466,"PO BOX 310, YOUNGSVILLE, PA, 16371","No_Match",NA,NA,NA,NA
344467,"PO BOX 3100","BOWLING GREEN","KY",42102,NA,NA,467,"PO BOX 3100, BOWLING GREEN, KY, 42102","No_Match",NA,NA,NA,NA
344468,"PO BOX 310021","ATLANTA","GA",31131,NA,NA,468,"PO BOX 310021, ATLANTA, GA, 31131","No_Match",NA,NA,NA,NA
344469,"PO BOX 3101","WARRENTON","VA",20188,NA,NA,469,"PO BOX 3101, WARRENTON, VA, 20188","No_Match",NA,NA,NA,NA
344470,"PO BOX 31012","SPOKANE","WA",99223,NA,NA,470,"PO BOX 31012, SPOKANE, WA, 99223","No_Match",NA,NA,NA,NA
344471,"PO BOX 310160","ENTERPRISE","AL",36330,NA,NA,471,"PO BOX 310160, ENTERPRISE, AL, 36330","No_Match",NA,NA,NA,NA
344472,"PO BOX 310164","MIAMI","FL",33231,NA,NA,472,"PO BOX 310164, MIAMI, FL, 33231","No_Match",NA,NA,NA,NA
344473,"PO BOX 310168","ATLANTA","GA",31131,NA,NA,473,"PO BOX 310168, ATLANTA, GA, 31131","No_Match",NA,NA,NA,NA
344474,"PO BOX 310171","FLINT","MI",48531,NA,NA,474,"PO BOX 310171, FLINT, MI, 48531","No_Match",NA,NA,NA,NA
344475,"PO BOX 310181","FONTANA","CA",92331,NA,NA,475,"PO BOX 310181, FONTANA, CA, 92331","No_Match",NA,NA,NA,NA
344476,"PO BOX 3102","SARASOTA","FL",34230,NA,NA,476,"PO BOX 3102, SARASOTA, FL, 34230","No_Match",NA,NA,NA,NA
344477,"PO BOX 3102","TUCKER","GA",30085,NA,NA,477,"PO BOX 3102, TUCKER, GA, 30085","No_Match",NA,NA,NA,NA
344478,"PO BOX 3102","WAQUOIT","MA",2536,NA,NA,478,"PO BOX 3102, WAQUOIT, MA, 2536","No_Match",NA,NA,NA,NA
344479,"PO BOX 31023","SEATTLE","WA",98103,NA,NA,479,"PO BOX 31023, SEATTLE, WA, 98103","No_Match",NA,NA,NA,NA
344480,"PO BOX 310294","FLINT","MI",48531,NA,NA,480,"PO BOX 310294, FLINT, MI, 48531","No_Match",NA,NA,NA,NA
344481,"PO BOX 3103","FREDERICKSBURG","TX",78624,NA,NA,481,"PO BOX 3103, FREDERICKSBURG, TX, 78624","No_Match",NA,NA,NA,NA
344482,"PO BOX 3103","HIGHLAND PARK","MI",48203,NA,NA,482,"PO BOX 3103, HIGHLAND PARK, MI, 48203","No_Match",NA,NA,NA,NA
344483,"PO BOX 3103","PATERSON","NJ",7509,NA,NA,483,"PO BOX 3103, PATERSON, NJ, 7509","No_Match",NA,NA,NA,NA
344484,"PO BOX 310352","HOUSTON","TX",77231,NA,NA,484,"PO BOX 310352, HOUSTON, TX, 77231","No_Match",NA,NA,NA,NA
344485,"PO BOX 310358","NEW BRAUNFELS","TX",78131,NA,NA,485,"PO BOX 310358, NEW BRAUNFELS, TX, 78131","No_Match",NA,NA,NA,NA
344486,"PO BOX 310369","NEW BRAUNFELS","TX",78131,NA,NA,486,"PO BOX 310369, NEW BRAUNFELS, TX, 78131","No_Match",NA,NA,NA,NA
344487,"PO BOX 310374","NEW BRAUNFELS","TX",78131,NA,NA,487,"PO BOX 310374, NEW BRAUNFELS, TX, 78131","No_Match",NA,NA,NA,NA
344488,"PO BOX 3104","BURLINGTON","VT",5408,NA,NA,488,"PO BOX 3104, BURLINGTON, VT, 5408","No_Match",NA,NA,NA,NA
344489,"PO BOX 3104","EASTON","PA",18042,NA,NA,489,"PO BOX 3104, EASTON, PA, 18042","No_Match",NA,NA,NA,NA
344490,"PO BOX 310406","ATLANTA","GA",30331,NA,NA,490,"PO BOX 310406, ATLANTA, GA, 30331","No_Match",NA,NA,NA,NA
344491,"PO BOX 31046","CHARLOTTE","NC",28231,NA,NA,491,"PO BOX 31046, CHARLOTTE, NC, 28231","No_Match",NA,NA,NA,NA
344492,"PO BOX 310493","HOUSTON","TX",77231,NA,NA,492,"PO BOX 310493, HOUSTON, TX, 77231","No_Match",NA,NA,NA,NA
344493,"PO BOX 31052","KNOXVILLE","TN",37930,NA,NA,493,"PO BOX 31052, KNOXVILLE, TN, 37930","No_Match",NA,NA,NA,NA
344494,"PO BOX 310531","HOUSTON","TX",77231,NA,NA,494,"PO BOX 310531, HOUSTON, TX, 77231","No_Match",NA,NA,NA,NA
344495,"PO BOX 3106","JACKSON","WY",83001,NA,NA,495,"PO BOX 3106, JACKSON, WY, 83001","No_Match",NA,NA,NA,NA
344496,"PO BOX 3106","ZANESVILLE","OH",43702,NA,NA,496,"PO BOX 3106, ZANESVILLE, OH, 43702","No_Match",NA,NA,NA,NA
344497,"PO BOX 310629","ATLANTA","GA",31131,NA,NA,497,"PO BOX 310629, ATLANTA, GA, 31131","No_Match",NA,NA,NA,NA
344498,"PO BOX 310658","TAMPA","FL",33680,NA,NA,498,"PO BOX 310658, TAMPA, FL, 33680","No_Match",NA,NA,NA,NA
344499,"PO BOX 310671","TAMPA","FL",33680,NA,NA,499,"PO BOX 310671, TAMPA, FL, 33680","No_Match",NA,NA,NA,NA
344500,"PO BOX 31071","DES PERES","MO",63131,NA,NA,500,"PO BOX 31071, DES PERES, MO, 63131","No_Match",NA,NA,NA,NA
