"ID","Address","City","State","Zip","lat","long","id","input_address","match_indicator","match_type","matched_address","tiger_line_id","tiger_side"
269001,"663 RIDGEWAY DRIVE","TAYLOR MILL","KY",41015,38.9995893970001,-84.4917882239999,1,"663 RIDGEWAY DRIVE, TAYLOR MILL, KY, 41015","Match","Exact","663 RIDGEWAY DR, TAYLOR MILL, KY, 41015",103891933,"R"
269002,"663 S ELLIOTT ST","EVANSVILLE","IN",47713,37.9687762140001,-87.5579661799999,2,"663 S ELLIOTT ST, EVANSVILLE, IN, 47713","Match","Exact","663 S ELLIOTT ST, EVANSVILLE, IN, 47713",39783123,"R"
269003,"663 S WHITMAN CT","ADA","MI",49301,42.953917086,-85.529325257,3,"663 S WHITMAN CT, ADA, MI, 49301","Match","Non_Exact","663 S WHITMAN CT SE, ADA, MI, 49301",636962637,"R"
269004,"663 SARVER ROAD","SARVER","PA",16055,40.734893721,-79.7374878379999,4,"663 SARVER ROAD, SARVER, PA, 16055","Match","Exact","663 SARVER RD, SARVER, PA, 16055",52674363,"R"
269005,"663 SOUTH LAKE STREET","SOUTH AMHERST","OH",44001,41.38834417,-82.2407319819999,5,"663 SOUTH LAKE STREET, SOUTH AMHERST, OH, 44001","Match","Exact","663 S LAKE ST, SOUTH AMHERST, OH, 44001",55421834,"L"
269006,"663 SOUTHWESTERN PARKWAY","LOUISVILLE","KY",40211,38.252609852,-85.826782781,6,"663 SOUTHWESTERN PARKWAY, LOUISVILLE, KY, 40211","Match","Exact","663 SOUTHWESTERN PKWY, LOUISVILLE, KY, 40211",96835936,"L"
269007,"663 W 100 S","SLC","UT",84104,40.7671638210001,-111.910689771,7,"663 W 100 S, SLC, UT, 84104","Match","Exact","663 W 100 S, SLC, UT, 84104",640937824,"L"
269008,"663 W 60TH STREET","LOS ANGELES","CA",90044,33.9850913930001,-118.285017488,8,"663 W 60TH STREET, LOS ANGELES, CA, 90044","Match","Exact","663 W 60TH ST, LOS ANGELES, CA, 90044",141659304,"R"
269009,"663","APOPKA","FL",32704,NA,NA,9,"663, APOPKA, FL, 32704","No_Match",NA,NA,NA,NA
269010,"6630 50TH STREET","SACRAMENTO","CA",95823,38.506832714,-121.446539397,10,"6630 50TH STREET, SACRAMENTO, CA, 95823","Match","Exact","6630 50TH ST, SACRAMENTO, CA, 95823",133336842,"R"
269011,"6630 CADILLAC STREET","HOUSTON","TX",77021,29.700303031,-95.366776049,11,"6630 CADILLAC STREET, HOUSTON, TX, 77021","Match","Exact","6630 CADILLAC ST, HOUSTON, TX, 77021",96072630,"R"
269012,"6630 E SWEETWATER AVE","SCOTTSDALE","AR",85254,NA,NA,12,"6630 E SWEETWATER AVE, SCOTTSDALE, AR, 85254","No_Match",NA,NA,NA,NA
269013,"6630 EAST LIGHTNING DRIVE","TUCSON","AZ",85708,32.1893675050001,-110.858929383,13,"6630 EAST LIGHTNING DRIVE, TUCSON, AZ, 85708","Match","Exact","6630 E LIGHTNING DR, TUCSON, AZ, 85708",121181888,"R"
269014,"6630 FRONTAGE AT WHITEHORSE RD","GREENVILLE","SC",29605,34.7928152550001,-82.406652568,14,"6630 FRONTAGE AT WHITEHORSE RD, GREENVILLE, SC, 29605","Match","Non_Exact","6630 FRONTAGE RD, GREENVILLE, SC, 29605",640773949,"L"
269015,"6630 HARRIS RD","BROADVIEW HEIGHTS","OH",44147,41.321576957,-81.642526561,15,"6630 HARRIS RD, BROADVIEW HEIGHTS, OH, 44147","Match","Exact","6630 HARRIS RD, BROADVIEW HEIGHTS, OH, 44147",61141812,"R"
269016,"6630 HWY AJ","WASHINGTON","MO",63090,38.4543436760001,-91.1049248689999,16,"6630 HWY AJ, WASHINGTON, MO, 63090","Match","Exact","6630 HWY AJ, WASHINGTON, MO, 63090",639929668,"R"
269017,"6630 LAUGHLIN DR","MISSOURI CITY","TX",77489,29.5973796700001,-95.484052691,17,"6630 LAUGHLIN DR, MISSOURI CITY, TX, 77489","Match","Exact","6630 LAUGHLIN DR, MISSOURI CITY, TX, 77489",78270676,"L"
269018,"6630 MARLBORO PK","DISTRICT HEIGHTS","MD",20747,38.851957355,-76.891886428,18,"6630 MARLBORO PK, DISTRICT HEIGHTS, MD, 20747","Match","Non_Exact","6630 MARLBORO PIKE, DISTRICT HEIGHTS, MD, 20747",76415072,"L"
269019,"6630 MAYWOOD AVE","MIDDLETON","WI",53562,43.100328996,-89.4958915669999,19,"6630 MAYWOOD AVE, MIDDLETON, WI, 53562","Match","Exact","6630 MAYWOOD AVE, MIDDLETON, WI, 53562",49466495,"R"
269020,"6630 N RILEY AVE","INDIANAPOLIS","IN",46220,39.8774527640001,-86.08812144,20,"6630 N RILEY AVE, INDIANAPOLIS, IN, 46220","Match","Exact","6630 N RILEY AVE, INDIANAPOLIS, IN, 46220",107995762,"L"
269021,"6630 NEWBURY LANE","PARMA HEIGHTS","OH",44130,41.3834034130001,-81.7709463099999,21,"6630 NEWBURY LANE, PARMA HEIGHTS, OH, 44130","Match","Exact","6630 NEWBURY LN, PARMA HEIGHTS, OH, 44130",61104319,"R"
269022,"6630 S MCCARRAN BOULEVARD SUITE B16","RENO","NV",89509,39.476716879,-119.801446358,22,"6630 S MCCARRAN BOULEVARD SUITE B16, RENO, NV, 89509","Match","Non_Exact","6630 S MCCARRAN BLVD, RENO, NV, 89509",611724169,"R"
269023,"6630 SIEGEN LANE APT 280","BATON ROUGE","LA",70809,30.389087911,-91.061943078,23,"6630 SIEGEN LANE APT 280, BATON ROUGE, LA, 70809","Match","Exact","6630 SIEGEN LN, BATON ROUGE, LA, 70809",606173810,"R"
269024,"6630 ST CROIX TRAIL S","HASTINGS","MN",55033,44.8525620610001,-92.797602306,24,"6630 ST CROIX TRAIL S, HASTINGS, MN, 55033","Match","Exact","6630 ST CROIX TRL S, HASTINGS, MN, 55033",97806916,"L"
269025,"6630 SURREY ST","LAS VEGAS","NV",89119,36.069380004,-115.12369414,25,"6630 SURREY ST, LAS VEGAS, NV, 89119","Match","Exact","6630 SURREY ST, LAS VEGAS, NV, 89119",653250736,"L"
269026,"6630 WOODS EDGE NORTH DRIVE STE 2D","INDIANAPOLIS","IN",46250,NA,NA,26,"6630 WOODS EDGE NORTH DRIVE STE 2D, INDIANAPOLIS, IN, 46250","No_Match",NA,NA,NA,NA
269027,"6631 CANDLESTICK AVE NE","CANTON","OH",44721,40.876998488,-81.341861834,27,"6631 CANDLESTICK AVE NE, CANTON, OH, 44721","Match","Exact","6631 CANDLESTICK AVE NE, CANTON, OH, 44721",64694348,"R"
269028,"6631 CATTLE DRIVE","DALLAS","TX",75241,32.6577585200001,-96.7644533,28,"6631 CATTLE DRIVE, DALLAS, TX, 75241","Match","Exact","6631 CATTLE DR, DALLAS, TX, 75241",619132038,"R"
269029,"6631 COLONIAL FOREST LANE","KNOXVILLE","TN",37919,35.914514131,-83.999959742,29,"6631 COLONIAL FOREST LANE, KNOXVILLE, TN, 37919","Match","Exact","6631 COLONIAL FOREST LN, KNOXVILLE, TN, 37919",632080501,"L"
269030,"6631 LANDIS MILL ROAD","CENTER VALLEY","PA",18034,40.531064884,-75.377548781,30,"6631 LANDIS MILL ROAD, CENTER VALLEY, PA, 18034","Match","Exact","6631 LANDIS MILL RD, CENTER VALLEY, PA, 18034",617262098,"R"
269031,"6631 MAIN STREET","WILLIAMSVILLE","NY",14221,42.9655982620001,-78.706429854,31,"6631 MAIN STREET, WILLIAMSVILLE, NY, 14221","Match","Exact","6631 MAIN ST, WILLIAMSVILLE, NY, 14221",48347948,"R"
269032,"6631 MALVERN AVENUE","PHILADELPHIA","PA",19151,39.978916973,-75.2541505899999,32,"6631 MALVERN AVENUE, PHILADELPHIA, PA, 19151","Match","Exact","6631 MALVERN AVE, PHILADELPHIA, PA, 19151",131396962,"R"
269033,"6631 SHILOH RD","MIDLOTHIAN","TX",76065,32.517341813,-96.909702651,33,"6631 SHILOH RD, MIDLOTHIAN, TX, 76065","Match","Exact","6631 SHILOH RD, MIDLOTHIAN, TX, 76065",616467955,"L"
269034,"6631 W 6000 N","REXBURG","ID",83440,43.9127869820001,-111.909613636,34,"6631 W 6000 N, REXBURG, ID, 83440","Match","Exact","6631 W 6000 N, REXBURG, ID, 83440",119110663,"L"
269035,"6631 WOODLAND OAKS","MAGNOLIA","TX",77354,30.2323378730001,-95.573360067,35,"6631 WOODLAND OAKS, MAGNOLIA, TX, 77354","Match","Non_Exact","6631 WOODLAND OAKS DR, MAGNOLIA, TX, 77354",79310007,"L"
269036,"6632 BELLOWS CT","WEST BLOOMFIELD","MI",48322,42.540638727,-83.366700086,36,"6632 BELLOWS CT, WEST BLOOMFIELD, MI, 48322","Match","Exact","6632 BELLOWS CT, W BLOOMFIELD, MI, 48322",69829098,"R"
269037,"6632 BUSLETON AVENUE","PHILADELPHIA","PA",19149,NA,NA,37,"6632 BUSLETON AVENUE, PHILADELPHIA, PA, 19149","No_Match",NA,NA,NA,NA
269038,"6632 CHANDLER AVE","PENNSAUKEN","NJ",8110,39.9397855810001,-75.077168593,38,"6632 CHANDLER AVE, PENNSAUKEN, NJ, 8110","Match","Exact","6632 CHANDLER AVE, PENNSAUKEN, NJ, 08110",134343105,"L"
269039,"6632 COCONUT DRIVE","MIRAMAR","FL",33023,25.978581508,-80.218317579,39,"6632 COCONUT DRIVE, MIRAMAR, FL, 33023","Match","Exact","6632 COCONUT DR, MIRAMAR, FL, 33023",114763133,"R"
269040,"6632 FLAT CREEK DR","CHARLOTTE","NC",28277,35.0378023320001,-80.799067012,40,"6632 FLAT CREEK DR, CHARLOTTE, NC, 28277","Match","Exact","6632 FLAT CREEK DR, CHARLOTTE, NC, 28277",70568198,"R"
269041,"6632 GRAMERCY ST","BUENA PARK","CA",90621,33.864222284,-118.006912603,41,"6632 GRAMERCY ST, BUENA PARK, CA, 90621","Match","Exact","6632 GRAMERCY ST, BUENA PARK, CA, 90621",144000860,"L"
269042,"6632 KINGSBURY BLVD","UNIVERSITY CITY","MO",63130,38.653507533,-90.307093048,42,"6632 KINGSBURY BLVD, UNIVERSITY CITY, MO, 63130","Match","Exact","6632 KINGSBURY BLVD, UNIVERSITY CITY, MO, 63130",100153262,"L"
269043,"6632 MARINE AVENUE","RANCHO CUCAMONGA","CA",91737,34.133609332,-117.577435728,43,"6632 MARINE AVENUE, RANCHO CUCAMONGA, CA, 91737","Match","Exact","6632 MARINE AVE, RANCHO CUCAMONGA, CA, 91737",144636002,"R"
269044,"6632 SHADOW CREEK DR","DALLAS","TX",75241,32.6571617720001,-96.7665279939999,44,"6632 SHADOW CREEK DR, DALLAS, TX, 75241","Match","Exact","6632 SHADOW CREEK DR, DALLAS, TX, 75241",619132009,"L"
269045,"6632 SOUTH 300 WEST","WABASH","IN",46992,40.729253385,-85.847392067,45,"6632 SOUTH 300 WEST, WABASH, IN, 46992","Match","Exact","6632 S 300 W, WABASH, IN, 46992",15532141,"L"
269046,"6632 TELEGRAPH ROAD SUITE 245","BLOOMFIELD HILLS","MI",48301,42.542812563,-83.285138945,46,"6632 TELEGRAPH ROAD SUITE 245, BLOOMFIELD HILLS, MI, 48301","Match","Exact","6632 TELEGRAPH RD, BLOOMFIELD HILLS, MI, 48301",69837347,"R"
269047,"6632 TELEGRAPH ROAD SUITE 296","BLOOMFIELD HILLS","MI",48301,42.542812563,-83.285138945,47,"6632 TELEGRAPH ROAD SUITE 296, BLOOMFIELD HILLS, MI, 48301","Match","Exact","6632 TELEGRAPH RD, BLOOMFIELD HILLS, MI, 48301",69837347,"R"
269048,"66321 CAHUILLA AVE","DESERT HOT SPRINGS","CA",92240,33.95872619,-116.504332131,48,"66321 CAHUILLA AVE, DESERT HOT SPRINGS, CA, 92240","Match","Exact","66321 CAHUILLA AVE, DESERT HOT SPRINGS, CA, 92240",194721914,"L"
269049,"6633 191ST AVENUE NW","NOWTHEN","MN",55303,45.317165345,-93.434170653,49,"6633 191ST AVENUE NW, NOWTHEN, MN, 55303","Match","Exact","6633 191ST AVE NW, NOWTHEN, MN, 55303",635651736,"R"
269050,"6633 CAMINTO COORS NW","ALBUQUERQUE","NM",87120,NA,NA,50,"6633 CAMINTO COORS NW, ALBUQUERQUE, NM, 87120","No_Match",NA,NA,NA,NA
269051,"6633 EAST GREENWAY PARKWAY APT 2060","SCOTTSDALE","AZ",85254,33.623331933,-111.937319688,51,"6633 EAST GREENWAY PARKWAY APT 2060, SCOTTSDALE, AZ, 85254","Match","Exact","6633 E GREENWAY PKWY, SCOTTSDALE, AZ, 85254",128959446,"R"
269052,"6633 FAIRWAY AVE SE","SNOQUALMIE","WA",98065,47.5419769530001,-121.869673924,52,"6633 FAIRWAY AVE SE, SNOQUALMIE, WA, 98065","Match","Exact","6633 FAIRWAY AVE SE, SNOQUALMIE, WA, 98065",239779457,"L"
269053,"6633 FICUS DRIVE","MIRAMAR","FL",33023,25.9761232980001,-80.2180281239999,53,"6633 FICUS DRIVE, MIRAMAR, FL, 33023","Match","Exact","6633 FICUS DR, MIRAMAR, FL, 33023",114734857,"R"
269054,"6633 HILLCROFT AVE STE 265","HOUSTON","TX",77081,29.708608279,-95.493097253,54,"6633 HILLCROFT AVE STE 265, HOUSTON, TX, 77081","Match","Non_Exact","6633 HILLCROFT ST, HOUSTON, TX, 77081",96031808,"L"
269055,"6633 HILLCROFT STREET STE 102","HOUSTON","TX",77081,29.708608279,-95.493097253,55,"6633 HILLCROFT STREET STE 102, HOUSTON, TX, 77081","Match","Exact","6633 HILLCROFT ST, HOUSTON, TX, 77081",96031808,"L"
269056,"6633 MABLETON PKWY UNIT 100","MABLETON","GA",30126,33.791434623,-84.554041852,56,"6633 MABLETON PKWY UNIT 100, MABLETON, GA, 30126","Match","Non_Exact","6633 MABLETON PKWY SE, MABLETON, GA, 30126",17258268,"L"
269057,"6633 MAYCREST LN","SAN DIEGO","CA",92121,32.916726785,-117.179306416,57,"6633 MAYCREST LN, SAN DIEGO, CA, 92121","Match","Exact","6633 MAYCREST LN, SAN DIEGO, CA, 92121",195659469,"L"
269058,"6633 N STATE HIGHWAY 64","WILLIAMS","AZ",86046,NA,NA,58,"6633 N STATE HIGHWAY 64, WILLIAMS, AZ, 86046","No_Match",NA,NA,NA,NA
269059,"6633 NW 174TH TERRACE","MIAMI","FL",33015,25.9325100720001,-80.308508295,59,"6633 NW 174TH TERRACE, MIAMI, FL, 33015","Match","Non_Exact","6633 NW 174TH TER, MIAMI GARDENS, FL, 33015",116059389,"L"
269060,"6633 OLD PLACE ROAD SE","WINNABOW","NC",28479,NA,NA,60,"6633 OLD PLACE ROAD SE, WINNABOW, NC, 28479","No_Match",NA,NA,NA,NA
269061,"6633 RONALD ROAD","CAPITAL HEIGHTS","MD",20743,38.872491912,-76.892021685,61,"6633 RONALD ROAD, CAPITAL HEIGHTS, MD, 20743","Match","Non_Exact","6633 RONALD RD, CAPITOL HGTS, MD, 20743",76357511,"L"
269062,"6633 VIRGINIA PARKWAY","MCKINNEY","TX",75071,NA,NA,62,"6633 VIRGINIA PARKWAY, MCKINNEY, TX, 75071","No_Match",NA,NA,NA,NA
269063,"6633 WEST LAW ROAD","VALLEY CITY","OH",44280,41.2228928920001,-81.927762711,63,"6633 WEST LAW ROAD, VALLEY CITY, OH, 44280","Match","Exact","6633 W LAW RD, VALLEY CITY, OH, 44280",635556788,"L"
269064,"6634 59TH STREET","MIDDLE VILLAGE","NY",11379,NA,NA,64,"6634 59TH STREET, MIDDLE VILLAGE, NY, 11379","No_Match",NA,NA,NA,NA
269065,"6634 AMERICAN WAY","BETHLEHEM","PA",18017,40.6841708590001,-75.3812786679999,65,"6634 AMERICAN WAY, BETHLEHEM, PA, 18017","Match","Exact","6634 AMERICAN WAY, BETHLEHEM, PA, 18017",612429874,"R"
269066,"6634 BUCK CREEK AVE SW","GRAND RAPIDS","MI",49548,42.843563305,-85.671105622,66,"6634 BUCK CREEK AVE SW, GRAND RAPIDS, MI, 49548","Match","Exact","6634 BUCK CREEK AVE SW, GRAND RAPIDS, MI, 49548",12464285,"L"
269067,"6634 N RICHMOND ST","CHICAGO","IL",60645,42.0018279440001,-87.7034158229999,67,"6634 N RICHMOND ST, CHICAGO, IL, 60645","Match","Exact","6634 N RICHMOND ST, CHICAGO, IL, 60645",111744508,"L"
269068,"6634 NEW SULPHUR SPRINGS ROAD","SAN ANTONIO","TX",78263,29.3632840810001,-98.360050144,68,"6634 NEW SULPHUR SPRINGS ROAD, SAN ANTONIO, TX, 78263","Match","Exact","6634 NEW SULPHUR SPRINGS RD, SAN ANTONIO, TX, 78263",101732151,"R"
269069,"6635 8 MILE RD","FREELAND","MI",48623,NA,NA,69,"6635 8 MILE RD, FREELAND, MI, 48623","No_Match",NA,NA,NA,NA
269070,"6635 ALDER DR","HOUSTON","TX",77081,29.7082895660001,-95.480478805,70,"6635 ALDER DR, HOUSTON, TX, 77081","Match","Exact","6635 ALDER DR, HOUSTON, TX, 77081",96609418,"L"
269071,"6635 E 52ND PLACE","INDIANAPOLIS","IN",46226,39.848356193,-86.0532408559999,71,"6635 E 52ND PLACE, INDIANAPOLIS, IN, 46226","Match","Exact","6635 E 52ND PL, INDIANAPOLIS, IN, 46226",107997357,"R"
269072,"6635 FLAGSTONE COURT","CUMMING","GA",30028,34.302240161,-84.17780084,72,"6635 FLAGSTONE COURT, CUMMING, GA, 30028","Match","Exact","6635 FLAGSTONE CT, CUMMING, GA, 30028",625073312,"L"
269073,"6635 GERANIUM WAY","SPARKS","NV",89436,39.6133603230001,-119.700964921,73,"6635 GERANIUM WAY, SPARKS, NV, 89436","Match","Exact","6635 GERANIUM WAY, SPARKS, NV, 89436",619509391,"L"
269074,"6635 HOHMAN AVE","HAMMOND","IN",46324,41.5929907170001,-87.521956953,74,"6635 HOHMAN AVE, HAMMOND, IN, 46324","Match","Exact","6635 HOHMAN AVE, HAMMOND, IN, 46324",98417290,"L"
269075,"6635 MCCALLUM STREET - UNIT A602","PHILADELPHIA","PA",19119,40.045643017,-75.191681235,75,"6635 MCCALLUM STREET - UNIT A602, PHILADELPHIA, PA, 19119","Match","Exact","6635 MCCALLUM ST, PHILADELPHIA, PA, 19119",131394594,"R"
269076,"6635 REYNOLDS DR","LAS CRUCES","NM",88011,32.3923148960001,-106.690910683,76,"6635 REYNOLDS DR, LAS CRUCES, NM, 88011","Match","Exact","6635 REYNOLDS DR, LAS CRUCES, NM, 88011",189532424,"L"
269077,"6635 TIMBER OAKS DRIVE","OLIVE BRANCH","MS",38654,34.9543539960001,-89.8717048679999,77,"6635 TIMBER OAKS DRIVE, OLIVE BRANCH, MS, 38654","Match","Exact","6635 TIMBER OAKS DR, OLIVE BRANCH, MS, 38654",639569291,"R"
269078,"6635 UNION ST","ARVADA","CO",80004,39.8169694810001,-105.133206143,78,"6635 UNION ST, ARVADA, CO, 80004","Match","Exact","6635 UNION ST, ARVADA, CO, 80004",642118268,"L"
269079,"6635 W COMMERCIAL BLVD SUITE 207","TAMARAC","FL",33319,26.1939063570001,-80.238956544,79,"6635 W COMMERCIAL BLVD SUITE 207, TAMARAC, FL, 33319","Match","Non_Exact","6635 W COMMERCIAL BLVD, TAMARAC, FL, 33319",637075530,"L"
269080,"6635 W HAPPY VALLEY RD  STE 104-483","GLENDALE","AZ",85310,33.712245179,-112.201783506,80,"6635 W HAPPY VALLEY RD  STE 104-483, GLENDALE, AZ, 85310","Match","Non_Exact","6635 W HAPPY VALLEY RD, GLENDALE, AZ, 85310",243926866,"L"
269081,"6635","WARNER ROBINS","GA",31095,NA,NA,81,"6635, WARNER ROBINS, GA, 31095","No_Match",NA,NA,NA,NA
269082,"66351 KESSINGTON RD","CASSOPOLIS","MI",49031,41.8374176140001,-85.895686575,82,"66351 KESSINGTON RD, CASSOPOLIS, MI, 49031","Match","Exact","66351 KESSINGTON RD, CASSOPOLIS, MI, 49031",22582817,"R"
269083,"6636 HUNTER RD","ELKRIDGE","MD",21075,39.207964713,-76.742711373,83,"6636 HUNTER RD, ELKRIDGE, MD, 21075","Match","Exact","6636 HUNTER RD, ELKRIDGE, MD, 21075",158941158,"L"
269084,"6636 KAREN DR","SEVEN HILLS","OH",44131,41.383057319,-81.6646958859999,84,"6636 KAREN DR, SEVEN HILLS, OH, 44131","Match","Exact","6636 KAREN DR, SEVEN HILLS, OH, 44131",61170445,"R"
269085,"6636 KINMORE","DEARBORN HEIGHTS","MI",48127,42.3367308970001,-83.288888878,85,"6636 KINMORE, DEARBORN HEIGHTS, MI, 48127","Match","Non_Exact","6636 KINMORE ST, DEARBORN HEIGHTS, MI, 48127",95432175,"R"
269086,"6636 LAKERIDGE DRIVE","TEXARKANA","TX",75503,33.4832505360001,-94.0520468829999,86,"6636 LAKERIDGE DRIVE, TEXARKANA, TX, 75503","Match","Exact","6636 LAKERIDGE DR, TEXARKANA, TX, 75503",648384128,"R"
269087,"6636 N 36TH ST","PHOENIX","AZ",85018,33.534511563,-112.00281018,87,"6636 N 36TH ST, PHOENIX, AZ, 85018","Match","Exact","6636 N 36TH ST, PHOENIX, AZ, 85018",128944376,"L"
269088,"6636 PRINCE GEORGE LN APT 9104","FORT WORTH","TX",76135,NA,NA,88,"6636 PRINCE GEORGE LN APT 9104, FORT WORTH, TX, 76135","No_Match",NA,NA,NA,NA
269089,"6636 S YALE AVENUE","CHICAGO","IL",60621,41.7737894470001,-87.631659715,89,"6636 S YALE AVENUE, CHICAGO, IL, 60621","Match","Exact","6636 S YALE AVE, CHICAGO, IL, 60621",111831223,"R"
269090,"6636 SHAPIRO CT","STONE MOUNTAIN","GA",30087,33.7672617220001,-84.1162089319999,90,"6636 SHAPIRO CT, STONE MOUNTAIN, GA, 30087","Match","Exact","6636 SHAPIRO CT, STONE MOUNTAIN, GA, 30087",23394852,"L"
269091,"6636 W STATE ROUTE 113","KANKAKEE","IL",60901,41.202144199,-88.000527544,91,"6636 W STATE ROUTE 113, KANKAKEE, IL, 60901","Match","Non_Exact","6636 W STATE RTE 113, KANKAKEE, IL, 60901",98362814,"L"
269092,"6637 BROOKFIELD ROAD","ROANOKE","VA",24019,37.349899377,-79.96594554,92,"6637 BROOKFIELD ROAD, ROANOKE, VA, 24019","Match","Exact","6637 BROOKFIELD RD, ROANOKE, VA, 24019",62930237,"R"
269093,"6637 FOOTHILLS CT","FLORISSANT","MO",63033,38.8111392750001,-90.238002353,93,"6637 FOOTHILLS CT, FLORISSANT, MO, 63033","Match","Exact","6637 FOOTHILLS CT, FLORISSANT, MO, 63033",100144192,"L"
269094,"6637 N KNOLL AVE","FRESNO","CA",93711,36.8338961950001,-119.85857194,94,"6637 N KNOLL AVE, FRESNO, CA, 93711","Match","Exact","6637 N KNOLL AVE, FRESNO, CA, 93711",197599498,"R"
269095,"6637 OAKMONT DRIVE SUITE A","SANTA ROSA","CA",95409,38.43912834,-122.602124813,95,"6637 OAKMONT DRIVE SUITE A, SANTA ROSA, CA, 95409","Match","Exact","6637 OAKMONT DR, SANTA ROSA, CA, 95409",639038603,"L"
269096,"6638 CARLSBAD RIO","SAN ANTONIO","TX",78233,29.5610310640001,-98.358469287,96,"6638 CARLSBAD RIO, SAN ANTONIO, TX, 78233","Match","Exact","6638 CARLSBAD RIO, SAN ANTONIO, TX, 78233",629606713,"R"
269097,"6638 CIBOLA ROAD","SAN DIEGO","CA",92120,32.807261796,-117.054711707,97,"6638 CIBOLA ROAD, SAN DIEGO, CA, 92120","Match","Exact","6638 CIBOLA RD, SAN DIEGO, CA, 92120",195678685,"L"
269098,"6638 HANLEY RD","PERRYSBURG","OH",43551,41.5293433860001,-83.522003001,98,"6638 HANLEY RD, PERRYSBURG, OH, 43551","Match","Exact","6638 HANLEY RD, PERRYSBURG, OH, 43551",38735147,"L"
269099,"6638 MUIR DRIVE","HAYMARKET","VA",20169,38.8130754760001,-77.658005761,99,"6638 MUIR DRIVE, HAYMARKET, VA, 20169","Match","Exact","6638 MUIR DR, HAYMARKET, VA, 20169",646050343,"R"
269100,"6638 S 17TH AVE","RICHFIELD","MN",55423,44.8824218980001,-93.250410498,100,"6638 S 17TH AVE, RICHFIELD, MN, 55423","Match","Non_Exact","6638 17TH AVE S, RICHFIELD, MN, 55423",640578771,"R"
269101,"6639 AUTUMN CRK","OWENSBORO","KY",42301,37.753779265,-87.232123176,101,"6639 AUTUMN CRK, OWENSBORO, KY, 42301","Match","Exact","6639 AUTUMN CREEK, OWENSBORO, KY, 42301",617293959,"R"
269102,"6639 COLUMBIA AVE","LAKE WORTH","FL",33467,26.5769475180001,-80.172244314,102,"6639 COLUMBIA AVE, LAKE WORTH, FL, 33467","Match","Exact","6639 COLUMBIA AVE, LAKE WORTH, FL, 33467",115577937,"R"
269103,"6639 MARINE AVE","ARBUCKLE","CA",95912,38.9584392690001,-122.065692971,103,"6639 MARINE AVE, ARBUCKLE, CA, 95912","Match","Exact","6639 MARINE AVE, ARBUCKLE, CA, 95912",67123497,"L"
269104,"6639 RIVER RD","WESTWEGO","LA",70094,29.923338415,-90.216745223,104,"6639 RIVER RD, WESTWEGO, LA, 70094","Match","Exact","6639 RIVER RD, WESTWEGO, LA, 70094",93515195,"L"
269105,"6639 RIVER ROAD","WESTWEGO","LA",70094,29.923338415,-90.216745223,105,"6639 RIVER ROAD, WESTWEGO, LA, 70094","Match","Exact","6639 RIVER RD, WESTWEGO, LA, 70094",93515195,"L"
269106,"6639 SULLIVAN ROAD SUITE B","GREENWELL SPRINGS","LA",70739,30.513344348,-91.0300162089999,106,"6639 SULLIVAN ROAD SUITE B, GREENWELL SPRINGS, LA, 70739","Match","Exact","6639 SULLIVAN RD, GREENWELL SPRINGS, LA, 70739",92206334,"L"
269107,"663W SUNRISE DRIVE","AVALON","NJ",8202,39.107097723,-74.726960988,107,"663W SUNRISE DRIVE, AVALON, NJ, 8202","Match","Exact","663 SUNRISE DR, AVALON, NJ, 08202",174340899,"R"
269108,"664 49TH STREET APT B","BROOKLYN","NY",11220,40.6434969700001,-74.006151468,108,"664 49TH STREET APT B, BROOKLYN, NY, 11220","Match","Exact","664 49TH ST, BROOKLYN, NY, 11220",59094781,"R"
269109,"664 ADAMS AVENUE","MEMPHIS","TN",38105,35.144628432,-90.0383056209999,109,"664 ADAMS AVENUE, MEMPHIS, TN, 38105","Match","Exact","664 ADAMS AVE, MEMPHIS, TN, 38105",72903751,"L"
269110,"664 BENNETT LN","PERKASIE","PA",18944,40.339403539,-75.24956065,110,"664 BENNETT LN, PERKASIE, PA, 18944","Match","Exact","664 BENNETT LN, PERKASIE, PA, 18944",647089449,"R"
269111,"664 BOW AND ARROW DR - 2092","DALLAS","TX",75224,32.697393344,-96.834245849,111,"664 BOW AND ARROW DR - 2092, DALLAS, TX, 75224","Match","Exact","664 BOW AND ARROW DR, DALLAS, TX, 75224",102947903,"L"
269112,"664 BROADWAY STREET","BARLOW","KY",42024,37.051544316,-89.042237573,112,"664 BROADWAY STREET, BARLOW, KY, 42024","Match","Non_Exact","664 BROADWAY, BARLOW, KY, 42024",27851920,"R"
269113,"664 E BRIDGE ST","WESTBROOK","ME",4092,NA,NA,113,"664 E BRIDGE ST, WESTBROOK, ME, 4092","Tie",NA,NA,NA,NA
269114,"664 EAST MAIN STREET","CENTREVILLE","MI",49032,41.9225783910001,-85.51249319,114,"664 EAST MAIN STREET, CENTREVILLE, MI, 49032","Match","Exact","664 E MAIN ST, CENTREVILLE, MI, 49032",15330527,"L"
269115,"664 JOAN DRIVE","MASON","MI",48854,42.600387923,-84.477728903,115,"664 JOAN DRIVE, MASON, MI, 48854","Match","Exact","664 JOAN DR, MASON, MI, 48854",17506587,"R"
269116,"664 LIBERTY LANE","WESTERVILLE","OH",43081,40.1069190430001,-82.9016451639999,116,"664 LIBERTY LANE, WESTERVILLE, OH, 43081","Match","Exact","664 LIBERTY LN, WESTERVILLE, OH, 43081",218696174,"L"
269117,"664 LYONS LANE","LONGBOAT KEY","FL",34228,27.429473171,-82.673579736,117,"664 LYONS LANE, LONGBOAT KEY, FL, 34228","Match","Exact","664 LYONS LN, LONGBOAT KEY, FL, 34228",648067169,"R"
269118,"664 MAIN STREET SUITE 451","ROLLINSFORD","NH",3869,43.235906577,-70.8207194889999,118,"664 MAIN STREET SUITE 451, ROLLINSFORD, NH, 3869","Match","Exact","664 MAIN ST, ROLLINSFORD, NH, 03869",117807141,"L"
269119,"664 N CLIFFSIDE DR","FAYETTEVILLE","AR",72701,36.0696972430001,-94.1155591099999,119,"664 N CLIFFSIDE DR, FAYETTEVILLE, AR, 72701","Match","Exact","664 N CLIFFSIDE DR, FAYETTEVILLE, AR, 72701",49070531,"R"
269120,"664 PATHWOOD LANE","STOCKBRIDGE","GA",30281,33.517558788,-84.262391639,120,"664 PATHWOOD LANE, STOCKBRIDGE, GA, 30281","Match","Exact","664 PATHWOOD LN, STOCKBRIDGE, GA, 30281",23213282,"L"
269121,"664 ROUTE 15 S","LAKE HOPATCONG","NJ",7849,NA,NA,121,"664 ROUTE 15 S, LAKE HOPATCONG, NJ, 7849","No_Match",NA,NA,NA,NA
269122,"664 S PARK AVE","TITUSVILLE","FL",32796,28.608310309,-80.818621401,122,"664 S PARK AVE, TITUSVILLE, FL, 32796","Match","Exact","664 S PARK AVE, TITUSVILLE, FL, 32796",93891154,"R"
269123,"664 SHORELINE CIRCLE","PORT ARANSAS","TX",78373,27.8387405560001,-97.075079406,123,"664 SHORELINE CIRCLE, PORT ARANSAS, TX, 78373","Match","Exact","664 SHORELINE CIR, PORT ARANSAS, TX, 78373",178546025,"L"
269124,"664 SWEETBRIAR ROAD","PERKASIE","PA",18944,40.4248376720001,-75.222072165,124,"664 SWEETBRIAR ROAD, PERKASIE, PA, 18944","Match","Exact","664 SWEETBRIAR RD, PERKASIE, PA, 18944",134783537,"L"
269125,"664 TUNNEL RD","GLENDALE","OR",97442,42.729521146,-123.406105441,125,"664 TUNNEL RD, GLENDALE, OR, 97442","Match","Exact","664 TUNNEL RD, GLENDALE, OR, 97442",137234219,"L"
269126,"664 W LYMAN AVE","WINTER PARK","FL",32789,28.594876587,-81.357875295,126,"664 W LYMAN AVE, WINTER PARK, FL, 32789","Match","Exact","664 W LYMAN AVE, WINTER PARK, FL, 32789",94422609,"L"
269127,"6640 ABRAMS RD  821051","DALLAS","TX",75231,NA,NA,127,"6640 ABRAMS RD  821051, DALLAS, TX, 75231","No_Match",NA,NA,NA,NA
269128,"6640 ADAMS STREET","LINCOLN","NE",68507,40.84249542,-96.6298663429999,128,"6640 ADAMS STREET, LINCOLN, NE, 68507","Match","Exact","6640 ADAMS ST, LINCOLN, NE, 68507",28293661,"L"
269129,"6640 ASHEBROOKE DR","DOUGLASVILLE","GA",30135,33.6567001330001,-84.7931743629999,129,"6640 ASHEBROOKE DR, DOUGLASVILLE, GA, 30135","Match","Exact","6640 ASHEBROOKE DR, DOUGLASVILLE, GA, 30135",16656685,"R"
269130,"6640 BEECHWOOD AVE","PORTAGE","IN",46368,41.568742861,-87.159547647,130,"6640 BEECHWOOD AVE, PORTAGE, IN, 46368","Match","Exact","6640 BEECHWOOD AVE, PORTAGE, IN, 46368",119911420,"L"
269131,"6640 E 26TH CT","TULSA","OK",74129,36.124980543,-95.901163907,131,"6640 E 26TH CT, TULSA, OK, 74129","Match","Exact","6640 E 26TH CT, TULSA, OK, 74129",166450583,"R"
269132,"6640 EAST 8 MILE","DETROIT","MI",48234,42.447925866,-83.0352313289999,132,"6640 EAST 8 MILE, DETROIT, MI, 48234","Match","Non_Exact","6640 E 8 MILE RD, DETROIT, MI, 48234",647589119,"R"
269133,"6640 HEATHROW LANE","STONE MOUNTAIN","GA",30087,33.783093315,-84.115627725,133,"6640 HEATHROW LANE, STONE MOUNTAIN, GA, 30087","Match","Exact","6640 HEATHROW LN, STONE MOUNTAIN, GA, 30087",23375445,"L"
269134,"6640 MANCHESTER LANE","EDEN PRAIRIE","MN",55346,44.882876029,-93.455577219,134,"6640 MANCHESTER LANE, EDEN PRAIRIE, MN, 55346","Match","Exact","6640 MANCHESTER LN, EDEN PRAIRIE, MN, 55346",43826649,"R"
269135,"6640 RIDGEVIEW CIRCLE","MONTGOMERY","AL",36117,32.386347878,-86.182701691,135,"6640 RIDGEVIEW CIRCLE, MONTGOMERY, AL, 36117","Match","Exact","6640 RIDGEVIEW CIR, MONTGOMERY, AL, 36117",638583662,"L"
269136,"6640 VIEW ACRES DRIVE","PARADISE","CA",95969,39.778347044,-121.620181481,136,"6640 VIEW ACRES DRIVE, PARADISE, CA, 95969","Match","Exact","6640 VIEW ACRES DR, PARADISE, CA, 95969",68412531,"R"
269137,"6640 W 143RD STREET STE 250","OVERLAND PARK","KS",66223,38.8691976270001,-94.6632362779999,137,"6640 W 143RD STREET STE 250, OVERLAND PARK, KS, 66223","Match","Non_Exact","6640 W 143RD ST, OVERLAND PARK, KS, 66223",91324117,"R"
269138,"6641 AXIS STREET SE","LACEY","WA",98513,46.9884093160001,-122.81803044,138,"6641 AXIS STREET SE, LACEY, WA, 98513","Match","Exact","6641 AXIS ST SE, LACEY, WA, 98513",633096626,"R"
269139,"6641 COVEVIEW CT","NEW ORLEANS","LA",70126,30.021609879,-90.011491596,139,"6641 COVEVIEW CT, NEW ORLEANS, LA, 70126","Match","Exact","6641 COVEVIEW CT, NEW ORLEANS, LA, 70126",191705503,"L"
269140,"6641 DEL PRADO TERRACE","NEW PORT RICHEY","FL",34652,28.2540059400001,-82.732945241,140,"6641 DEL PRADO TERRACE, NEW PORT RICHEY, FL, 34652","Match","Exact","6641 DEL PRADO TER, NEW PORT RICHEY, FL, 34652",86337581,"L"
269141,"6641 FOREST HILL BLVD","GREENACRES","FL",33413,26.6511840580001,-80.147570634,141,"6641 FOREST HILL BLVD, GREENACRES, FL, 33413","Match","Exact","6641 FOREST HILL BLVD, GREENACRES, FL, 33413",115331689,"L"
269142,"6641 FULTON AVENUE","VAN NUYS","CA",91401,34.19141634,-118.42252462,142,"6641 FULTON AVENUE, VAN NUYS, CA, 91401","Match","Exact","6641 FULTON AVE, VAN NUYS, CA, 91401",141562918,"L"
269143,"6641 LOST TREE CT","INDIANAPOLIS","IN",46268,39.877088718,-86.239225672,143,"6641 LOST TREE CT, INDIANAPOLIS, IN, 46268","Match","Exact","6641 LOST TREE CT, INDIANAPOLIS, IN, 46268",108046440,"L"
269144,"6641 PENSFORD LN","CHARLOTTE","NC",28270,35.120677506,-80.7755745759999,144,"6641 PENSFORD LN, CHARLOTTE, NC, 28270","Match","Exact","6641 PENSFORD LN, CHARLOTTE, NC, 28270",70495187,"L"
269145,"6641 PINNOCHIO DR","JACKSONVILLE","FL",32210,30.27678554,-81.7530733409999,145,"6641 PINNOCHIO DR, JACKSONVILLE, FL, 32210","Match","Exact","6641 PINNOCHIO DR, JACKSONVILLE, FL, 32210",83910467,"R"
269146,"6641 SILVERSTREAM AVE UNIT D","LAS VEGAS","NV",89107,36.177505678,-115.238957593,146,"6641 SILVERSTREAM AVE UNIT D, LAS VEGAS, NV, 89107","Match","Exact","6641 SILVERSTREAM AVE, LAS VEGAS, NV, 89107",201859728,"L"
269147,"6641 SW 19 STREET","MIRAMAR","FL",33023,25.993801987,-80.22009711,147,"6641 SW 19 STREET, MIRAMAR, FL, 33023","Match","Exact","6641 SW 19TH ST, MIRAMAR, FL, 33023",114734394,"R"
269148,"66413","ROSEVILLE","MI",66413,NA,NA,148,"66413, ROSEVILLE, MI, 66413","No_Match",NA,NA,NA,NA
269149,"6642 CLAYTON ROAD - SUITE 210","RICHMOND HEIGHTS","MO",63117,38.6345108610001,-90.315915897,149,"6642 CLAYTON ROAD - SUITE 210, RICHMOND HEIGHTS, MO, 63117","Match","Exact","6642 CLAYTON RD, RICHMOND HTS, MO, 63117",652554708,"L"
269150,"6642 CLAYTON ROAD","ST LOUIS","MO",63117,38.6345108610001,-90.315915897,150,"6642 CLAYTON ROAD, ST LOUIS, MO, 63117","Match","Exact","6642 CLAYTON RD, SAINT LOUIS, MO, 63117",652554708,"L"
269151,"6642 E 99TH AVE","ANCHORAGE","AK",99507,61.1311734880001,-149.758336158,151,"6642 E 99TH AVE, ANCHORAGE, AK, 99507","Match","Exact","6642 E 99TH AVE, ANCHORAGE, AK, 99507",190810954,"R"
269152,"6642 GOLDRUSH DRIVE","ELKO","NV",89801,40.9560020490001,-115.615955119,152,"6642 GOLDRUSH DRIVE, ELKO, NV, 89801","Match","Exact","6642 GOLDRUSH DR, ELKO, NV, 89801",647493778,"L"
269153,"6642 MISSION RD","PRAIRIE VILLAGE","KS",66208,39.0086511980001,-94.63042603,153,"6642 MISSION RD, PRAIRIE VILLAGE, KS, 66208","Match","Exact","6642 MISSION RD, PRAIRIE VLG, KS, 66208",91337831,"R"
269154,"6642 N 300 W","ANDERSON","IN",46011,40.202521705,-85.7285649569999,154,"6642 N 300 W, ANDERSON, IN, 46011","Match","Exact","6642 N 300 W, ANDERSON, IN, 46011",31109214,"L"
269155,"6642 TIGER TOOTH","LITTLETON","CO",80124,39.5256444120001,-104.912508207,155,"6642 TIGER TOOTH, LITTLETON, CO, 80124","Match","Exact","6642 TIGER TOOTH, LITTLETON, CO, 80124",130819598,"L"
269156,"6642 W JAMESTOWN DR","MCCORDSVILLE","IN",46055,39.866799692,-85.928051347,156,"6642 W JAMESTOWN DR, MCCORDSVILLE, IN, 46055","Match","Exact","6642 W JAMESTOWN DR, MCCORDSVILLE, IN, 46055",31086026,"L"
269157,"66422 HUNTER RD","SUMMERVILLE","OR",97876,45.462410468,-118.050684581,157,"66422 HUNTER RD, SUMMERVILLE, OR, 97876","Match","Exact","66422 HUNTER RD, SUMMERVILLE, OR, 97876",605958962,"L"
269158,"6643 BAYOU VIEW DR","HOUSTON","TX",77091,29.8600077730001,-95.46163648,158,"6643 BAYOU VIEW DR, HOUSTON, TX, 77091","Match","Exact","6643 BAYOU VIEW DR, HOUSTON, TX, 77091",96027536,"L"
269159,"6643 COUNTY RD 579","SEFFNER","FL",33584,28.0264956120001,-82.302541963,159,"6643 COUNTY RD 579, SEFFNER, FL, 33584","Match","Exact","6643 CO RD 579, SEFFNER, FL, 33584",104540617,"L"
269160,"6643 EAST JULIE COURT","BYRON","MI",48418,42.7708660490001,-84.050739767,160,"6643 EAST JULIE COURT, BYRON, MI, 48418","Match","Exact","6643 E JULIE CT, BYRON, MI, 48418",619592805,"L"
269161,"6643 SAN MIGUEL AVE","LEMON GROVE","CA",91945,32.7340355440001,-117.054034757,161,"6643 SAN MIGUEL AVE, LEMON GROVE, CA, 91945","Match","Exact","6643 SAN MIGUEL AVE, LEMON GROVE, CA, 91945",651707680,"R"
269162,"6643 SKYLINE BLVD","OAKLAND","CA",94611,37.848409684,-122.201758316,162,"6643 SKYLINE BLVD, OAKLAND, CA, 94611","Match","Exact","6643 SKYLINE BLVD, OAKLAND, CA, 94611",650256958,"R"
269163,"66433 N CALIFORNIA AVENUE APT 3N","CHICAGO","IL",60645,NA,NA,163,"66433 N CALIFORNIA AVENUE APT 3N, CHICAGO, IL, 60645","No_Match",NA,NA,NA,NA
269164,"6644 COLTON CRAWFORD CIRCLE","FALLS CHURCH","VA",22042,38.8747152920001,-77.170182573,164,"6644 COLTON CRAWFORD CIRCLE, FALLS CHURCH, VA, 22042","Match","Exact","6644 COLTON CRAWFORD CIR, FALLS CHURCH, VA, 22042",649768465,"R"
269165,"6644 ESTATE VIEW  DR  N","BLACKLICK","OH",43004,40.0060643840001,-82.830790757,165,"6644 ESTATE VIEW  DR  N, BLACKLICK, OH, 43004","Match","Exact","6644 ESTATE VIEW DR N, BLACKLICK, OH, 43004",218682267,"L"
269166,"6644 FOXBERRY RD","FAYETTEVILLE","NC",28314,35.045309806,-79.01710265,166,"6644 FOXBERRY RD, FAYETTEVILLE, NC, 28314","Match","Exact","6644 FOXBERRY RD, FAYETTEVILLE, NC, 28314",64258744,"L"
269167,"6644 HOMETOWN WAY","SACRAMENTO","CA",95828,38.506612703,-121.417635707,167,"6644 HOMETOWN WAY, SACRAMENTO, CA, 95828","Match","Exact","6644 HOMETOWN WAY, SACRAMENTO, CA, 95828",133337790,"R"
269168,"6644 ORANGE AVENUE UNIT 114","LONG BEACH","CA",90805,33.875434951,-118.177365358,168,"6644 ORANGE AVENUE UNIT 114, LONG BEACH, CA, 90805","Match","Exact","6644 ORANGE AVE, LONG BEACH, CA, 90805",141683950,"R"
269169,"6644 US RTE 9","HUDSON","NY",12534,42.2877997960001,-73.751750965,169,"6644 US RTE 9, HUDSON, NY, 12534","Match","Non_Exact","6644 US HWY 9, HUDSON, NY, 12534",646915468,"R"
269170,"6644 W AIRPORT ROAD","WILLCOX","AZ",85643,32.2533668450001,-109.927143088,170,"6644 W AIRPORT ROAD, WILLCOX, AZ, 85643","Match","Exact","6644 W AIRPORT RD, WILLCOX, AZ, 85643",642482909,"R"
269171,"6645 23RD AVENUE","HYATTSVILLE","MD",20782,38.970904155,-76.9725991449999,171,"6645 23RD AVENUE, HYATTSVILLE, MD, 20782","Match","Exact","6645 23RD AVE, HYATTSVILLE, MD, 20782",76303836,"R"
269172,"6645 BRIGHAM ST","PORTAGE","MI",49024,42.2206474280001,-85.6255051919999,172,"6645 BRIGHAM ST, PORTAGE, MI, 49024","Match","Exact","6645 BRIGHAM ST, PORTAGE, MI, 49024",12239221,"L"
269173,"6645 DELMONICO DRIVE  SUITE 200","COLORADO SPRINGS","CO",80919,38.9291563890001,-104.831103846,173,"6645 DELMONICO DRIVE  SUITE 200, COLORADO SPRINGS, CO, 80919","Match","Exact","6645 DELMONICO DR, COLORADO SPRINGS, CO, 80919",610699741,"R"
269174,"6645 GLENEDEN BEACH LOOP ROAD","GLENEDEN BEACH","OR",97388,44.8771422730001,-124.033243784,174,"6645 GLENEDEN BEACH LOOP ROAD, GLENEDEN BEACH, OR, 97388","Match","Exact","6645 GLENEDEN BEACH LOOP, GLENEDEN BEACH, OR, 97388",155959339,"L"
269175,"6645 MT VERNON ROAD","NEWARK","OH",43055,40.152320548,-82.425539337,175,"6645 MT VERNON ROAD, NEWARK, OH, 43055","Match","Exact","6645 MOUNT VERNON RD, NEWARK, OH, 43055",61555253,"L"
269176,"6645 PROUD EAGLE CT","COLORADO SPRINGS","CO",80915,38.8516259680001,-104.703382165,176,"6645 PROUD EAGLE CT, COLORADO SPRINGS, CO, 80915","Match","Exact","6645 PROUD EAGLE CT, COLORADO SPRINGS, CO, 80915",610721233,"R"
269177,"6645 SOLON BLVD","SOLON","OH",44139,41.378104395,-81.443460349,177,"6645 SOLON BLVD, SOLON, OH, 44139","Match","Exact","6645 SOLON BLVD, SOLON, OH, 44139",61148667,"L"
269178,"6645 SW 102 ST","MIAMI","FL",33156,25.6761897160001,-80.302069804,178,"6645 SW 102 ST, MIAMI, FL, 33156","Match","Exact","6645 SW 102ND ST, MIAMI, FL, 33156",115985817,"R"
269179,"6645 WILLOWS WAY","CUMMING","GA",30040,34.179913184,-84.20234269,179,"6645 WILLOWS WAY, CUMMING, GA, 30040","Match","Exact","6645 WILLOWS WAY, CUMMING, GA, 30040",629766682,"L"
269180,"6645 WOODWELL STREET","PITTSBURGH","PA",15217,40.4444276400001,-79.913838391,180,"6645 WOODWELL STREET, PITTSBURGH, PA, 15217","Match","Exact","6645 WOODWELL ST, PITTSBURGH, PA, 15217",51652185,"L"
269181,"6646 COLLAMER RD","EAST SYRACUSE","NY",13057,43.104423582,-76.061721538,181,"6646 COLLAMER RD, EAST SYRACUSE, NY, 13057","Match","Exact","6646 COLLAMER RD, EAST SYRACUSE, NY, 13057",638754937,"R"
269182,"6646 KIRBY MEADOW COVE","MEMPHIS","TN",38115,35.054811543,-89.841926341,182,"6646 KIRBY MEADOW COVE, MEMPHIS, TN, 38115","Match","Non_Exact","6646 KIRBY MEADOWS COVE, MEMPHIS, TN, 38115",72930340,"L"
269183,"6646 LIBERTY HALL ROAD","QUINTON","VA",23141,NA,NA,183,"6646 LIBERTY HALL ROAD, QUINTON, VA, 23141","Tie",NA,NA,NA,NA
269184,"6646 MACARTHUR BLVD APT 26","OAKLAND","CA",94605,37.7721624430001,-122.177563864,184,"6646 MACARTHUR BLVD APT 26, OAKLAND, CA, 94605","Match","Exact","6646 MACARTHUR BLVD, OAKLAND, CA, 94605",125008732,"L"
269185,"6646 WASHFORDE LN","HOUSTON","TX",77049,NA,NA,185,"6646 WASHFORDE LN, HOUSTON, TX, 77049","No_Match",NA,NA,NA,NA
269186,"6646 WILLOW POINTE DRIVE APT H","HUNTSVILLE","AL",35806,34.7492247550001,-86.666238048,186,"6646 WILLOW POINTE DRIVE APT H, HUNTSVILLE, AL, 35806","Match","Non_Exact","6646 WILLOW POINTE DR NW, HUNTSVILLE, AL, 35806",58195611,"L"
269187,"6647 CORNELL ST","TAYLOR","MI",48180,42.2596840260001,-83.267971191,187,"6647 CORNELL ST, TAYLOR, MI, 48180","Match","Exact","6647 CORNELL ST, TAYLOR, MI, 48180",95437028,"L"
269188,"6647 GREEN GABLES AVENUE","SAN DIEGO","CA",92119,32.7974388160001,-117.044001266,188,"6647 GREEN GABLES AVENUE, SAN DIEGO, CA, 92119","Match","Exact","6647 GREEN GABLES AVE, SAN DIEGO, CA, 92119",195323362,"R"
269189,"6647 NORTH WINFIELD AVENUE","PARKER","CO",80134,NA,NA,189,"6647 NORTH WINFIELD AVENUE, PARKER, CO, 80134","No_Match",NA,NA,NA,NA
269190,"6647 SHADOW CREEK DRIVE","DALLAS","TX",75241,32.656928513,-96.766385468,190,"6647 SHADOW CREEK DRIVE, DALLAS, TX, 75241","Match","Exact","6647 SHADOW CREEK DR, DALLAS, TX, 75241",619132009,"R"
269191,"6648 CHICK EVANS LN","WOODRIDGE","IL",60517,41.762368322,-88.076904784,191,"6648 CHICK EVANS LN, WOODRIDGE, IL, 60517","Match","Exact","6648 CHICK EVANS LN, WOODRIDGE, IL, 60517",112666991,"R"
269192,"6648 HIGHWAY 1","FINLAND","MN",55603,47.40978857,-91.2461491889999,192,"6648 HIGHWAY 1, FINLAND, MN, 55603","Match","Non_Exact","6648 STATE HWY 1, FINLAND, MN, 55603",634413504,"L"
269193,"6648 KERNS RD","FALLS CHURCH","VA",22042,38.8590654490001,-77.173198231,193,"6648 KERNS RD, FALLS CHURCH, VA, 22042","Match","Exact","6648 KERNS RD, FALLS CHURCH, VA, 22042",75980744,"R"
269194,"6648 RESEDA BLVD","RESEDA","CA",91335,34.191448984,-118.53602335,194,"6648 RESEDA BLVD, RESEDA, CA, 91335","Match","Exact","6648 RESEDA BLVD, RESEDA, CA, 91335",142714544,"R"
269195,"6648 RUSTIC ROAD SE","PRIOR LAKE","MN",55372,44.73836873,-93.386249811,195,"6648 RUSTIC ROAD SE, PRIOR LAKE, MN, 55372","Match","Exact","6648 RUSTIC RD SE, PRIOR LAKE, MN, 55372",38144031,"L"
269196,"6648 UDALL PL SE","AUBURN","WA",98092,47.248586048,-122.202746161,196,"6648 UDALL PL SE, AUBURN, WA, 98092","Match","Exact","6648 UDALL PL SE, AUBURN, WA, 98092",645885531,"L"
269197,"6649 AMETHYST AVE 9611","RANCHO CUCAMONGA","CA",91701,34.1335144880001,-117.598264485,197,"6649 AMETHYST AVE 9611, RANCHO CUCAMONGA, CA, 91701","Match","Non_Exact","6649 AMETHYST AVE, ALTA LOMA, CA, 91737",145228751,"L"
269198,"6649 BEACON LANE","NASHVILLE","TN",37209,36.139467289,-86.891517741,198,"6649 BEACON LANE, NASHVILLE, TN, 37209","Match","Exact","6649 BEACON LN, NASHVILLE, TN, 37209",97179607,"L"
269199,"6649 BLYTHDALE DRIVE","CHARLOTTE","NC",28213,35.2849693360001,-80.755927173,199,"6649 BLYTHDALE DRIVE, CHARLOTTE, NC, 28213","Match","Non_Exact","6649 BLYTHEDALE DR, CHARLOTTE, NC, 28213",70557925,"L"
269200,"6649 BLYTHEDALE DRIVE","CHARLOTTE","NC",28213,35.2849693360001,-80.755927173,200,"6649 BLYTHEDALE DRIVE, CHARLOTTE, NC, 28213","Match","Exact","6649 BLYTHEDALE DR, CHARLOTTE, NC, 28213",70557925,"L"
269201,"6649 S MICHIGAN AVE","CHICAGO","IL",60637,41.7736861280001,-87.622720884,201,"6649 S MICHIGAN AVE, CHICAGO, IL, 60637","Match","Exact","6649 S MICHIGAN AVE, CHICAGO, IL, 60637",111772183,"L"
269202,"6649 SUNDOWN TRL","FRISCO","TX",75034,33.1191235860001,-96.828834746,202,"6649 SUNDOWN TRL, FRISCO, TX, 75034","Match","Exact","6649 SUNDOWN TRL, FRISCO, TX, 75034",123538687,"R"
269203,"6649 WEST VININGS CREEK COVE","MEMPHIS","TN",38119,NA,NA,203,"6649 WEST VININGS CREEK COVE, MEMPHIS, TN, 38119","No_Match",NA,NA,NA,NA
269204,"665 31ST STREET","OAKLAND","CA",94609,37.820736916,-122.27168815,204,"665 31ST STREET, OAKLAND, CA, 94609","Match","Exact","665 31ST ST, OAKLAND, CA, 94609",618785640,"L"
269205,"665 ANDERSON AVENUE FLOOR 2","CLIFFSIDE PARK","NJ",7010,40.827111587,-73.986992206,205,"665 ANDERSON AVENUE FLOOR 2, CLIFFSIDE PARK, NJ, 7010","Match","Exact","665 ANDERSON AVE, CLIFFSIDE PARK, NJ, 07010",64391437,"L"
269206,"665 AVENUE C","BAYONNE","NJ",7002,40.6702434490001,-74.116216997,206,"665 AVENUE C, BAYONNE, NJ, 7002","Match","Exact","665 AVE C, BAYONNE, NJ, 07002",59602605,"L"
269207,"665 BAKER DRIVE","WADSWORTH","OH",44281,41.041490589,-81.730273148,207,"665 BAKER DRIVE, WADSWORTH, OH, 44281","Match","Exact","665 BAKER DR, WADSWORTH, OH, 44281",58691377,"R"
269208,"665 BANKS TERRACE TRAIL","INMAN","SC",29349,35.0521434340001,-82.058965524,208,"665 BANKS TERRACE TRAIL, INMAN, SC, 29349","Match","Exact","665 BANKS TERRACE TRL, INMAN, SC, 29349",624848641,"L"
269209,"665 BOB HOLMAN RD","ATHENS","GA",30607,34.031218546,-83.3891691589999,209,"665 BOB HOLMAN RD, ATHENS, GA, 30607","Match","Exact","665 BOB HOLMAN RD, ATHENS, GA, 30607",4984469,"L"
269210,"665 BROADWAY AVE","BEDFORD","OH",44146,41.3921037970001,-81.536188683,210,"665 BROADWAY AVE, BEDFORD, OH, 44146","Match","Exact","665 BROADWAY AVE, BEDFORD, OH, 44146",61130158,"L"
269211,"665 CAMINO DE LOS MARES SUITE 309","SAN CLEMENTE","CA",92673,NA,NA,211,"665 CAMINO DE LOS MARES SUITE 309, SAN CLEMENTE, CA, 92673","No_Match",NA,NA,NA,NA
269212,"665 CEDRUM ROAD","EUTAW","AL",35462,NA,NA,212,"665 CEDRUM ROAD, EUTAW, AL, 35462","No_Match",NA,NA,NA,NA
269213,"665 CENTER STREET","HANOVER","MA",2339,42.097593144,-70.8608273099999,213,"665 CENTER STREET, HANOVER, MA, 2339","Match","Exact","665 CENTER ST, HANOVER, MA, 02339",87485114,"L"
269214,"665 CLAIBORNE AVE","JACKSON","MS",39209,32.3113986270001,-90.222858765,214,"665 CLAIBORNE AVE, JACKSON, MS, 39209","Match","Exact","665 CLAIBORNE AVE, JACKSON, MS, 39209",65366288,"R"
269215,"665 COMMERCE DR RM 523","FAIRFIELD","CT",6825,41.1630798940001,-73.2340321409999,215,"665 COMMERCE DR RM 523, FAIRFIELD, CT, 6825","Match","Exact","665 COMMERCE DR, FAIRFIELD, CT, 06825",3228576,"L"
269216,"665 CRESCENT DR","CHULA VISTA","CA",91911,NA,NA,216,"665 CRESCENT DR, CHULA VISTA, CA, 91911","No_Match",NA,NA,NA,NA
269217,"665 DEER LODGE HWY","SUNBRIGHT","TN",37872,36.227211332,-84.6915858529999,217,"665 DEER LODGE HWY, SUNBRIGHT, TN, 37872","Match","Exact","665 DEER LODGE HWY, SUNBRIGHT, TN, 37872",605275453,"R"
269218,"665 DENARDS ML SE","MARIETTA","GA",30067,33.933297796,-84.451272481,218,"665 DENARDS ML SE, MARIETTA, GA, 30067","Match","Exact","665 DENARDS ML SE, MARIETTA, GA, 30067",17187036,"R"
269219,"665 DIELLEN LANE","ELMONT","NY",11003,40.6925127800001,-73.6969623909999,219,"665 DIELLEN LANE, ELMONT, NY, 11003","Match","Exact","665 DIELLEN LN, ELMONT, NY, 11003",147669093,"L"
269220,"665 DUNDEE AVE","ELGIN","IL",60120,42.049734185,-88.273169996,220,"665 DUNDEE AVE, ELGIN, IL, 60120","Match","Exact","665 DUNDEE AVE, ELGIN, IL, 60120",119502843,"R"
269221,"665 E 600 S  APT 4P","PROVO","UT",84606,NA,NA,221,"665 E 600 S  APT 4P, PROVO, UT, 84606","No_Match",NA,NA,NA,NA
269222,"665 E ARROW HWY","AZUSA","CA",91702,34.10680433,-117.893637929,222,"665 E ARROW HWY, AZUSA, CA, 91702","Match","Exact","665 E ARROW HWY, AZUSA, CA, 91702",629806044,"L"
269223,"665 E BEECH STREET","PONCHATOULA","LA",70454,30.4434697880001,-90.433235698,223,"665 E BEECH STREET, PONCHATOULA, LA, 70454","Match","Exact","665 E BEECH ST, PONCHATOULA, LA, 70454",75755580,"R"
269224,"665 E FRENCH AVE","ORANGE CITY","FL",32763,28.952287696,-81.290835374,224,"665 E FRENCH AVE, ORANGE CITY, FL, 32763","Match","Exact","665 E FRENCH AVE, ORANGE CITY, FL, 32763",94518027,"L"
269225,"665 EAST 220TH STREET","BRONX","NY",10467,40.884627197,-73.8634739949999,225,"665 EAST 220TH STREET, BRONX, NY, 10467","Match","Exact","665 E 220TH ST, BRONX, NY, 10467",80297011,"L"
269226,"665 EAST CHANNEL ROAD","SANTA MONICA","CA",90402,34.0390088190001,-118.510462903,226,"665 EAST CHANNEL ROAD, SANTA MONICA, CA, 90402","Match","Exact","665 E CHANNEL RD, SANTA MONICA, CA, 90402",142715257,"L"
269227,"665 FOY LANE","ESCONDIDO","CA",92025,33.100557501,-117.076927694,227,"665 FOY LANE, ESCONDIDO, CA, 92025","Match","Exact","665 FOY LN, ESCONDIDO, CA, 92025",624779684,"R"
269228,"665 FRUITVILLE PIKE","MANHEIM","PA",17545,NA,NA,228,"665 FRUITVILLE PIKE, MANHEIM, PA, 17545","No_Match",NA,NA,NA,NA
269229,"665 GALLOPS LANE","SYLACAUGA","AL",35151,33.1047918990001,-86.469645038,229,"665 GALLOPS LANE, SYLACAUGA, AL, 35151","Match","Exact","665 GALLOPS LN, SYLACAUGA, AL, 35151",66951425,"L"
269230,"665 GARRY RD","AKRON","OH",44305,41.083104221,-81.475686052,230,"665 GARRY RD, AKRON, OH, 44305","Match","Exact","665 GARRY RD, AKRON, OH, 44305",61350833,"R"
269231,"665 HARRISON STREET","EMMAUS","PA",18049,40.5360411930001,-75.50072406,231,"665 HARRISON STREET, EMMAUS, PA, 18049","Match","Exact","665 HARRISON ST, EMMAUS, PA, 18049",80766569,"R"
269232,"665 HOPE HOLLOW RD","LOGANVILLE","GA",30052,33.876671963,-83.9446277,232,"665 HOPE HOLLOW RD, LOGANVILLE, GA, 30052","Match","Exact","665 HOPE HOLLOW RD, LOGANVILLE, GA, 30052",627551402,"R"
269233,"665 LANGDON STREET","ORANGE","NJ",7050,40.759860777,-74.250575258,233,"665 LANGDON STREET, ORANGE, NJ, 7050","Match","Exact","665 LANGDON ST, ORANGE, NJ, 07050",63461108,"R"
269234,"665 LUCAS BARROW ROAD","DEQUINCY","LA",70633,30.4639118480001,-93.405858165,234,"665 LUCAS BARROW ROAD, DEQUINCY, LA, 70633","Match","Exact","665 LUCAS BARROW RD, DEQUINCY, LA, 70633",624944518,"L"
269235,"665 LUCILLE DR","LEXINGTON","KY",40511,38.0967697670001,-84.533009442,235,"665 LUCILLE DR, LEXINGTON, KY, 40511","Match","Exact","665 LUCILLE DR, LEXINGTON, KY, 40511",634863978,"R"
269236,"665 MANCHESTER ROAD","GLASTONBURY","CT",6033,41.6955046410001,-72.533233906,236,"665 MANCHESTER ROAD, GLASTONBURY, CT, 6033","Match","Exact","665 MANCHESTER RD, GLASTONBURY, CT, 06033",604943927,"L"
269237,"665 MATHER ST","BRIGHTON","CO",80601,39.980528543,-104.814461487,237,"665 MATHER ST, BRIGHTON, CO, 80601","Match","Exact","665 MATHER ST, BRIGHTON, CO, 80601",177348522,"L"
269238,"665 MCBRIDE AVE","WOODLAND PARK","NJ",7424,40.902917593,-74.1991048529999,238,"665 MCBRIDE AVE, WOODLAND PARK, NJ, 7424","Match","Exact","665 MCBRIDE AVE, WOODLAND PARK, NJ, 07424",65261598,"L"
269239,"665 MENDOCINA CT APT 09","FLORISSANT","MO",63031,38.7937376130001,-90.3450535279999,239,"665 MENDOCINA CT APT 09, FLORISSANT, MO, 63031","Match","Exact","665 MENDOCINA CT, FLORISSANT, MO, 63031",100119079,"R"
269240,"665 MONACO PARKWAY","DENVER","CO",80220,39.726418874,-104.912796005,240,"665 MONACO PARKWAY, DENVER, CO, 80220","Match","Exact","665 MONACO PKWY, DENVER, CO, 80220",177339806,"L"
269241,"665 N BAGDAD RD APT 11103","LEANDER","TX",78641,30.5661353690001,-97.865640523,241,"665 N BAGDAD RD APT 11103, LEANDER, TX, 78641","Match","Non_Exact","665 S BAGDAD RD, LEANDER, TX, 78641",641005758,"L"
269242,"665 N PEACHTREET STREET","JASPER","TX",75951,NA,NA,242,"665 N PEACHTREET STREET, JASPER, TX, 75951","No_Match",NA,NA,NA,NA
269243,"665 OAK HARBOUR DRIVE 115","ALTAMONTE SPRINGS","FL",32701,NA,NA,243,"665 OAK HARBOUR DRIVE 115, ALTAMONTE SPRINGS, FL, 32701","No_Match",NA,NA,NA,NA
269244,"665 PRINCESS ANNE RD","VIRGINIA BEACH","VA",23457,36.609704906,-76.0350618749999,244,"665 PRINCESS ANNE RD, VIRGINIA BEACH, VA, 23457","Match","Exact","665 PRINCESS ANNE RD, VA BCH, VA, 23457",122300091,"L"
269245,"665 PRINCETON AVE APT 207","LAKEWOOD","NJ",8701,40.0973945310001,-74.208989946,245,"665 PRINCETON AVE APT 207, LAKEWOOD, NJ, 8701","Match","Exact","665 PRINCETON AVE, LAKEWOOD, NJ, 08701",203723713,"L"
269246,"665 RANCH ROAD 2323","FREDERICKSBURG","TX",78624,30.3879851620001,-98.952613076,246,"665 RANCH ROAD 2323, FREDERICKSBURG, TX, 78624","Match","Exact","665 RANCH RD 2323, FREDERICKSBURG, TX, 78624",176833758,"L"
269247,"665 ROSWELL RD","ADRIAN","OR",97901,43.7333140160001,-117.05189069,247,"665 ROSWELL RD, ADRIAN, OR, 97901","Match","Exact","665 ROSWELL RD, ADRIAN, OR, 97901",138636162,"L"
269248,"665 S 4TH ST","DAVID CITY","NE",68632,41.2448456060001,-97.129325767,248,"665 S 4TH ST, DAVID CITY, NE, 68632","Match","Exact","665 S 4TH ST, DAVID CITY, NE, 68632",635753041,"L"
269249,"665 S WESTERN AVE","BRAWLEY","CA",92227,32.971678266,-115.543775199,249,"665 S WESTERN AVE, BRAWLEY, CA, 92227","Match","Exact","665 S WESTERN AVE, BRAWLEY, CA, 92227",194488350,"L"
269250,"665 SAN RODOLFO DR STE 124 BOX 188","SOLANA BEACH","CA",92075,32.9939201020001,-117.26061056,250,"665 SAN RODOLFO DR STE 124 BOX 188, SOLANA BEACH, CA, 92075","Match","Exact","665 SAN RODOLFO DR, SOLANA BEACH, CA, 92075",195294300,"R"
269251,"665 SAN RODOLFO DR SUITE 124/203","SOLANA BEACH","CA",92075,32.9939201020001,-117.26061056,251,"665 SAN RODOLFO DR SUITE 124/203, SOLANA BEACH, CA, 92075","Match","Exact","665 SAN RODOLFO DR, SOLANA BEACH, CA, 92075",195294300,"R"
269252,"665 SAN RODOLFO DR- SUITE 124- 203","SOLANA BEACH","CA",92075,32.9939201020001,-117.26061056,252,"665 SAN RODOLFO DR- SUITE 124- 203, SOLANA BEACH, CA, 92075","Match","Non_Exact","665 SAN RODOLFO DR, SOLANA BEACH, CA, 92075",195294300,"R"
269253,"665 SCHILLER AVENUE","AKRON","OH",44310,41.103277866,-81.513690164,253,"665 SCHILLER AVENUE, AKRON, OH, 44310","Match","Exact","665 SCHILLER AVE, AKRON, OH, 44310",61340919,"R"
269254,"665 SE 10TH STREET 201","DEERFIELD BEACH","FL",33441,NA,NA,254,"665 SE 10TH STREET 201, DEERFIELD BEACH, FL, 33441","Tie",NA,NA,NA,NA
269255,"665 SE 10TH STREET SUITE 201","DEERFIELD BEACH","FL",33441,NA,NA,255,"665 SE 10TH STREET SUITE 201, DEERFIELD BEACH, FL, 33441","Tie",NA,NA,NA,NA
269256,"665 SE ATWOOD AVE","CORVALLIS","OR",97333,44.5494063960001,-123.260953363,256,"665 SE ATWOOD AVE, CORVALLIS, OR, 97333","Match","Exact","665 SE ATWOOD AVE, CORVALLIS, OR, 97333",155857577,"R"
269257,"665 UNIONTOWN ROAD","PHILLIPSBURG","NJ",8865,40.711475315,-75.140204597,257,"665 UNIONTOWN ROAD, PHILLIPSBURG, NJ, 8865","Match","Exact","665 UNIONTOWN RD, PHILLIPSBURG, NJ, 08865",98088128,"R"
269258,"665 VINE ST","BUFFALO GAO","TX",79508,32.2806204510001,-99.8285366169999,258,"665 VINE ST, BUFFALO GAO, TX, 79508","Match","Non_Exact","665 VINE ST, BUFFALO GAP, TX, 79508",129964927,"R"
269259,"665 WEST AVENUE J SUITE C","LANCASTER","CA",93534,34.6895167160001,-118.140855699,259,"665 WEST AVENUE J SUITE C, LANCASTER, CA, 93534","Match","Exact","665 W AVE J, LANCASTER, CA, 93534",241135078,"R"
269260,"665 WEST SAN JOSE AVENUE","CLAREMONT","CA",91711,34.0830881540001,-117.724984239,260,"665 WEST SAN JOSE AVENUE, CLAREMONT, CA, 91711","Match","Exact","665 W SAN JOSE AVE, CLAREMONT, CA, 91711",142791444,"R"
269261,"665 WILLIS STREET","SOUTH HEMPSTEAD","NY",11550,40.6820329120001,-73.6164166249999,261,"665 WILLIS STREET, SOUTH HEMPSTEAD, NY, 11550","Match","Exact","665 WILLIS ST, S HEMPSTEAD, NY, 11550",147629075,"L"
269262,"665 WINDERMERE DRIVE","CULPEPER","VA",22701,38.4769309700001,-78.020467245,262,"665 WINDERMERE DRIVE, CULPEPER, VA, 22701","Match","Exact","665 WINDERMERE DR, CULPEPER, VA, 22701",632945610,"L"
269263,"6650 AHERN CT","INDIANAPOLIS","IN",46268,39.8773096950001,-86.2109726689999,263,"6650 AHERN CT, INDIANAPOLIS, IN, 46268","Match","Exact","6650 AHERN CT, INDIANAPOLIS, IN, 46268",108039684,"L"
269264,"6650 AQUEDUCT AVE","VAN NUYS","CA",91406,34.1914195860001,-118.473794353,264,"6650 AQUEDUCT AVE, VAN NUYS, CA, 91406","Match","Exact","6650 AQUEDUCT AVE, VAN NUYS, CA, 91406",141560023,"R"
269265,"6650 AVALON DRIVE SE","CALEDONIA","MI",49316,42.8441356320001,-85.602809182,265,"6650 AVALON DRIVE SE, CALEDONIA, MI, 49316","Match","Non_Exact","6650 AVALON DR, CALEDONIA, MI, 49316",633710495,"R"
269266,"6650 COMMONS DRIVE SUITE C","PRINCE GEORGE","VA",23875,37.221728135,-77.2908453639999,266,"6650 COMMONS DRIVE SUITE C, PRINCE GEORGE, VA, 23875","Match","Exact","6650 COMMONS DR, PRINCE GEORGE, VA, 23875",54183874,"R"
269267,"6650 FRANKLIN AVE UNIT 509","LA","CA",90028,34.105185137,-118.334869224,267,"6650 FRANKLIN AVE UNIT 509, LA, CA, 90028","Match","Exact","6650 FRANKLIN AVE, LOS ANGELES, CA, 90028",638619335,"L"
269268,"6650 KANSAS AVE","HAMMOND","IN",46323,41.5927871150001,-87.448278907,268,"6650 KANSAS AVE, HAMMOND, IN, 46323","Match","Exact","6650 KANSAS AVE, HAMMOND, IN, 46323",606333629,"R"
269269,"6650 LUSK BLVD STE B203","SAN DIEGO","CA",92121,32.900973311,-117.205115919,269,"6650 LUSK BLVD STE B203, SAN DIEGO, CA, 92121","Match","Exact","6650 LUSK BLVD, SAN DIEGO, CA, 92121",645308426,"L"
269270,"6650 RANKIN ROAD","HUMBLE","TX",77396,29.9673593680001,-95.290158219,270,"6650 RANKIN ROAD, HUMBLE, TX, 77396","Match","Exact","6650 RANKIN RD, HUMBLE, TX, 77396",96046147,"R"
269271,"6650 RIVERS AVE STE 100","CHARLESTON","SC",29406,NA,NA,271,"6650 RIVERS AVE STE 100, CHARLESTON, SC, 29406","No_Match",NA,NA,NA,NA
269272,"6650 RIVERS AVENUE STE 100","CHARLESTON","SC",29406,32.917901799,-80.0280952219999,272,"6650 RIVERS AVENUE STE 100, CHARLESTON, SC, 29406","Match","Exact","6650 RIVERS AVE, CHARLESTON, SC, 29406",647988814,"L"
269273,"6650 RIVERS AVENUE SUITE 100","CHARLESTON","SC",29406,32.917901799,-80.0280952219999,273,"6650 RIVERS AVENUE SUITE 100, CHARLESTON, SC, 29406","Match","Exact","6650 RIVERS AVE, CHARLESTON, SC, 29406",647988814,"L"
269274,"6650 S UNIVERSITY AV APT 1A","CHICAGO","IL",60637,41.7740949560001,-87.598496032,274,"6650 S UNIVERSITY AV APT 1A, CHICAGO, IL, 60637","Match","Non_Exact","6650 S UNIVERSITY AVE, CHICAGO, IL, 60637",111774195,"R"
269275,"6650 SPRINGSIDE AVENUE","DOWNERS GROVE","IL",60516,41.7667690440001,-88.023273579,275,"6650 SPRINGSIDE AVENUE, DOWNERS GROVE, IL, 60516","Match","Exact","6650 SPRINGSIDE AVE, DOWNERS GROVE, IL, 60516",112539680,"R"
269276,"6650 STOFFER ROAD","BELLVILLE","OH",44813,40.576540273,-82.4842373609999,276,"6650 STOFFER ROAD, BELLVILLE, OH, 44813","Match","Exact","6650 STOFFER RD, BELLVILLE, OH, 44813",12828604,"L"
269277,"6650 W INDIANTOWN RD SUITE 27/HFTC","JUPITER","FL",33458,26.9344543560001,-80.1367990799999,277,"6650 W INDIANTOWN RD SUITE 27/HFTC, JUPITER, FL, 33458","Match","Non_Exact","6650 W INDIANTOWN RD, JUPITER, FL, 33458",115532295,"R"
269278,"6650 W STATE ST UNIT D170","WAUWATOSA","WI",53213,43.045615458,-87.995683597,278,"6650 W STATE ST UNIT D170, WAUWATOSA, WI, 53213","Match","Non_Exact","6650 W STATE ST, WAUWATOSA, WI, 53213",649046585,"R"
269279,"6650 W STATE STREET  D264","WAUWATOSA","WI",53213,43.045615458,-87.995683597,279,"6650 W STATE STREET  D264, WAUWATOSA, WI, 53213","Match","Non_Exact","6650 W STATE ST, WAUWATOSA, WI, 53213",649046585,"R"
269280,"6650 WALNUT ST","NEW ALBANY","OH",43054,40.1131477070001,-82.8094022619999,280,"6650 WALNUT ST, NEW ALBANY, OH, 43054","Match","Exact","6650 WALNUT ST, NEW ALBANY, OH, 43054",621736866,"L"
269281,"6650 WEST STATE STREET  NUM 125","WAUWATOSA","WI",53213,43.0456140090001,-87.9956783229999,281,"6650 WEST STATE STREET  NUM 125, WAUWATOSA, WI, 53213","Match","Exact","6650 W STATE ST, WAUWATOSA, WI, 53213",649046585,"R"
269282,"6651 136TH AVENUE","HOLLAND","MI",49424,42.889559008,-86.1199467979999,282,"6651 136TH AVENUE, HOLLAND, MI, 49424","Match","Exact","6651 136TH AVE, HOLLAND, MI, 49424",71074115,"L"
269283,"6651 67TH AVE N APT105","BROOKLYN PARK","MN",55428,45.076320509,-93.364392343,283,"6651 67TH AVE N APT105, BROOKLYN PARK, MN, 55428","Match","Exact","6651 67TH AVE N, BROOKLYN PARK, MN, 55428",632907577,"L"
269284,"6651 CONWAY CT","OAK FOREST","IL",60452,41.6258581880001,-87.784075606,284,"6651 CONWAY CT, OAK FOREST, IL, 60452","Match","Exact","6651 CONWAY CT, OAK FOREST, IL, 60452",641704771,"R"
269285,"6651 CRESTINE DR","JACKSONVILLE","FL",32211,NA,NA,285,"6651 CRESTINE DR, JACKSONVILLE, FL, 32211","No_Match",NA,NA,NA,NA
269286,"6651 DIAMOND WING CT","SPARKS","NV",89431,39.6142805480001,-119.683492429,286,"6651 DIAMOND WING CT, SPARKS, NV, 89431","Match","Non_Exact","6651 DIAMOND WING CT, SPARKS, NV, 89436",107080063,"L"
269287,"6651 S GARTH AVENUE","LOS ANGELES","CA",90056,33.9790797860001,-118.376013863,287,"6651 S GARTH AVENUE, LOS ANGELES, CA, 90056","Match","Exact","6651 S GARTH AVE, LOS ANGELES, CA, 90056",142688131,"R"
269288,"6651 TWIG PLACE APT F","INDIANAPOLIS","IN",46221,39.667573643,-86.2496354,288,"6651 TWIG PLACE APT F, INDIANAPOLIS, IN, 46221","Match","Exact","6651 TWIG PL, INDIANAPOLIS, IN, 46221",645039461,"L"
269289,"6651 VILLAGE DRIVE","CASPER","WY",82604,42.8225264490001,-106.422399038,289,"6651 VILLAGE DRIVE, CASPER, WY, 82604","Match","Exact","6651 VILLAGE DR, CASPER, WY, 82604",648481067,"L"
269290,"6652 CHAPLIN DRIVE","COLORADO SPRINGS","CO",80925,NA,NA,290,"6652 CHAPLIN DRIVE, COLORADO SPRINGS, CO, 80925","No_Match",NA,NA,NA,NA
269291,"6652 EAGLE POINTE DR N APT 3B","INDIANAPOLIS","IN",46254,39.837456086,-86.27725815,291,"6652 EAGLE POINTE DR N APT 3B, INDIANAPOLIS, IN, 46254","Match","Exact","6652 EAGLE POINTE DR N, INDIANAPOLIS, IN, 46254",108034802,"R"
269292,"6652 HEATHROW AVENUE","FONTANA","CA",92336,34.133088404,-117.466781605,292,"6652 HEATHROW AVENUE, FONTANA, CA, 92336","Match","Exact","6652 HEATHROW AVE, FONTANA, CA, 92336",145000717,"L"
269293,"6652 HEATHROW LANE","STONE MOUNTAIN","GA",30087,33.7831076100001,-84.115417583,293,"6652 HEATHROW LANE, STONE MOUNTAIN, GA, 30087","Match","Exact","6652 HEATHROW LN, STONE MOUNTAIN, GA, 30087",23375445,"L"
269294,"6652 HOULTON CIRCLE","BOCA RATON","FL",33467,26.584719536,-80.150718924,294,"6652 HOULTON CIRCLE, BOCA RATON, FL, 33467","Match","Non_Exact","6652 HOULTON CIR, LAKE WORTH, FL, 33467",115558146,"R"
269295,"6652 PALAMINO CIRCLE","YORBA LINDA","CA",92886,33.866149265,-117.787085722,295,"6652 PALAMINO CIRCLE, YORBA LINDA, CA, 92886","Match","Exact","6652 PALAMINO CIR, YORBA LINDA, CA, 92886",144033102,"L"
269296,"6652 S LIZA LANE","WEST JORDAN","UT",84081,40.6296957650001,-112.043214239,296,"6652 S LIZA LANE, WEST JORDAN, UT, 84081","Match","Exact","6652 LIZA LN, WEST JORDAN, UT, 84081",639164640,"L"
269297,"6652A MARMADUKE AVENUE","SAINT LOUIS","MO",63139,38.6111100540001,-90.301463548,297,"6652A MARMADUKE AVENUE, SAINT LOUIS, MO, 63139","Match","Exact","6652 MARMADUKE AVE, SAINT LOUIS, MO, 63139",107606978,"L"
269298,"6653 MARBELLA LANE","NAPLES","FL",34105,26.196577076,-81.7471967659999,298,"6653 MARBELLA LANE, NAPLES, FL, 34105","Match","Exact","6653 MARBELLA LN, NAPLES, FL, 34105",619123600,"L"
269299,"6653 OAKTON AVE","HAYMARKET","VA",20169,38.811596067,-77.668291559,299,"6653 OAKTON AVE, HAYMARKET, VA, 20169","Match","Exact","6653 OAKTON AVE, HAYMARKET, VA, 20169",632552461,"R"
269300,"6653 OLD IRONSIDE LANE","DELAWARE","OH",43015,40.200318103,-83.032345385,300,"6653 OLD IRONSIDE LANE, DELAWARE, OH, 43015","Match","Exact","6653 OLD IRONSIDE LN, DELAWARE, OH, 43015",619929472,"L"
269301,"6653 W SEASCAPE WAY","TUCSON","AZ",85757,32.121370816,-111.107505884,301,"6653 W SEASCAPE WAY, TUCSON, AZ, 85757","Match","Exact","6653 W SEASCAPE WAY, TUCSON, AZ, 85757",606829188,"R"
269302,"6654 N MOZART","CHICAGO","IL",60645,42.002192316,-87.700987595,302,"6654 N MOZART, CHICAGO, IL, 60645","Match","Non_Exact","6654 N MOZART ST, CHICAGO, IL, 60645",111744520,"L"
269303,"6654 OCTATILLO VIEW","FOUNTIAN","CO",80817,NA,NA,303,"6654 OCTATILLO VIEW, FOUNTIAN, CO, 80817","No_Match",NA,NA,NA,NA
269304,"6654 W WOOD RIDGE DR","JANESVILLE","WI",53548,42.7404105680001,-89.133102578,304,"6654 W WOOD RIDGE DR, JANESVILLE, WI, 53548","Match","Exact","6654 W WOOD RIDGE DR, JANESVILLE, WI, 53548",49865374,"R"
269305,"6655  MARTINIQUE WAY","VERO BEACH","FL",32967,NA,NA,305,"6655  MARTINIQUE WAY, VERO BEACH, FL, 32967","No_Match",NA,NA,NA,NA
269306,"6655 100TH AVENUE NORTH","PINELLAS PARK","FL",33782,27.862434754,-82.729916154,306,"6655 100TH AVENUE NORTH, PINELLAS PARK, FL, 33782","Match","Non_Exact","6655 100TH AVE, PINELLAS PARK, FL, 33782",124687393,"R"
269307,"6655 ARAPAHOE ROAD","BOULDER","CO",80303,40.0146744900001,-105.197349993,307,"6655 ARAPAHOE ROAD, BOULDER, CO, 80303","Match","Exact","6655 ARAPAHOE RD, BOULDER, CO, 80303",220751121,"L"
269308,"6655 CONSEAR ROAD","OTTAWA LAKE","MI",49267,41.7684438630001,-83.707044307,308,"6655 CONSEAR ROAD, OTTAWA LAKE, MI, 49267","Match","Exact","6655 CONSEAR RD, OTTAWA LAKE, MI, 49267",40483256,"R"
269309,"6655 DESEO","IRVING","TX",75039,32.8994105140001,-96.938262739,309,"6655 DESEO, IRVING, TX, 75039","Match","Exact","6655 DESEO, IRVING, TX, 75039",617055083,"L"
269310,"6655 GRAHAM CIR","CITRUS HEIGHTS","CA",95610,38.6869876120001,-121.28613805,310,"6655 GRAHAM CIR, CITRUS HEIGHTS, CA, 95610","Match","Exact","6655 GRAHAM CIR, CITRUS HEIGHTS, CA, 95610",133344216,"R"
269311,"6655 HILLCROFT SUITE 225","HOUSTON","TX",77081,29.7083470750001,-95.4930888649999,311,"6655 HILLCROFT SUITE 225, HOUSTON, TX, 77081","Match","Non_Exact","6655 HILLCROFT ST, HOUSTON, TX, 77081",96031808,"L"
269312,"6655 JACKSON ROAD UNIT 827","ANN ARBOR","MI",48103,42.2915623040001,-83.860017107,312,"6655 JACKSON ROAD UNIT 827, ANN ARBOR, MI, 48103","Match","Exact","6655 JACKSON RD, ANN ARBOR, MI, 48103",26026495,"L"
269313,"6655 KEENTOWN ROAD","DUETTE","FL",34219,27.5721704260001,-82.137566017,313,"6655 KEENTOWN ROAD, DUETTE, FL, 34219","Match","Exact","6655 KEENTOWN RD, DUETTE, FL, 34219",16274506,"L"
269314,"6655 LANDMOR DR","GREENWELL SPRINGS","LA",70739,30.514792465,-90.9942192569999,314,"6655 LANDMOR DR, GREENWELL SPRINGS, LA, 70739","Match","Exact","6655 LANDMOR DR, GREENWELL SPRINGS, LA, 70739",92187951,"R"
269315,"6655 LONDON ST","HOUSTON","TX",77021,29.691636826,-95.3517498319999,315,"6655 LONDON ST, HOUSTON, TX, 77021","Match","Exact","6655 LONDON ST, HOUSTON, TX, 77021",96089109,"L"
269316,"6655 MARTINIQUE WAY","VERO BEACH","FL",32967,NA,NA,316,"6655 MARTINIQUE WAY, VERO BEACH, FL, 32967","No_Match",NA,NA,NA,NA
269317,"6655 NE 12TH AVE","PLEASANT HILL","IA",50327,41.600619581,-93.474920304,317,"6655 NE 12TH AVE, PLEASANT HILL, IA, 50327","Match","Exact","6655 NE 12TH AVE, PLEASANT HILL, IA, 50327",649437924,"L"
269318,"6655 OBISPO AVE UNIT 256","LONG BEACH","CA",90805,33.8756913710001,-118.155652184,318,"6655 OBISPO AVE UNIT 256, LONG BEACH, CA, 90805","Match","Non_Exact","6655 N OBISPO AVE, LONG BEACH, CA, 90805",141698644,"L"
269319,"6655 OSCAR CIR","ELK GROVE","CA",95757,38.3881155350001,-121.427761978,319,"6655 OSCAR CIR, ELK GROVE, CA, 95757","Match","Exact","6655 OSCAR CIR, ELK GROVE, CA, 95757",133444280,"L"
269320,"6655 PINETREE LANE","MIAMI BEACH","FL",33141,25.8478009670001,-80.1276256579999,320,"6655 PINETREE LANE, MIAMI BEACH, FL, 33141","Match","Exact","6655 PINETREE LN, MIAMI BEACH, FL, 33141",116008726,"R"
269321,"6655 POST ROAD","DUBLIN","OH",43016,40.1070407280001,-83.1698567289999,321,"6655 POST ROAD, DUBLIN, OH, 43016","Match","Exact","6655 POST RD, DUBLIN, OH, 43016",218661497,"L"
269322,"6655 RIDGE RD","PARMA","OH",44129,41.383287146,-81.734666254,322,"6655 RIDGE RD, PARMA, OH, 44129","Match","Exact","6655 RIDGE RD, PARMA, OH, 44129",61107495,"L"
269323,"6655 S CODDINGTON AVE","LINCOLN","NE",68523,40.7493787450001,-96.7494784949999,323,"6655 S CODDINGTON AVE, LINCOLN, NE, 68523","Match","Exact","6655 S CODDINGTON AVE, LINCOLN, NE, 68523",28264910,"R"
269324,"6655 S SAHAR AVE STE B200","LAS VEGAS","NV",89146,NA,NA,324,"6655 S SAHAR AVE STE B200, LAS VEGAS, NV, 89146","No_Match",NA,NA,NA,NA
269325,"6655 SAINT BARBARA RD 8471","ELKRIDGE","MD",21075,39.190043099,-76.7472056,325,"6655 SAINT BARBARA RD 8471, ELKRIDGE, MD, 21075","Match","Non_Exact","6655 SANTA BARBARA RD, ELKRIDGE, MD, 21075",158963506,"L"
269326,"6655 SORENSON PKWY","OMAHA","NE",68152,41.317620091,-96.014894183,326,"6655 SORENSON PKWY, OMAHA, NE, 68152","Match","Non_Exact","6655 SORENSEN PKWY, OMAHA, NE, 68152",116975662,"L"
269327,"6655 W SAHARA AVE STE B200","LAS VEGAS","NV",89146,36.143955513,-115.237365189,327,"6655 W SAHARA AVE STE B200, LAS VEGAS, NV, 89146","Match","Non_Exact","6655 W SAHARA AVE, LAS VEGAS, NV, 89146",635958774,"R"
269328,"6655 W SAHARA AVE SUITE E100","LAS VEGAS","NV",89146,36.143955513,-115.237365189,328,"6655 W SAHARA AVE SUITE E100, LAS VEGAS, NV, 89146","Match","Non_Exact","6655 W SAHARA AVE, LAS VEGAS, NV, 89146",635958774,"R"
269329,"6655 WEST JEWELL AVE SUITE 111","LAKEWOOD","CO",80232,39.68221121,-105.071131111,329,"6655 WEST JEWELL AVE SUITE 111, LAKEWOOD, CO, 80232","Match","Exact","6655 W JEWELL AVE, LAKEWOOD, CO, 80232",177801752,"R"
269330,"6656 DELAWARE BEND","FAIRBURN","GA",30213,33.5757564520001,-84.636141014,330,"6656 DELAWARE BEND, FAIRBURN, GA, 30213","Match","Exact","6656 DELAWARE BND, FAIRBURN, GA, 30213",629548512,"R"
269331,"6656 MAJESTIC PEARL PL","NORTH LAS VEGAS","NV",89084,36.28207251,-115.149763339,331,"6656 MAJESTIC PEARL PL, NORTH LAS VEGAS, NV, 89084","Match","Exact","6656 MAJESTIC PEARL PL, N LAS VEGAS, NV, 89084",201990028,"L"
269332,"6656 NORTH 80TH PL","SCOTTSDALE","AZ",85250,33.5339279450001,-111.908072219,332,"6656 NORTH 80TH PL, SCOTTSDALE, AZ, 85250","Match","Exact","6656 N 80TH PL, SCOTTSDALE, AZ, 85250",128229197,"L"
269333,"6657 CHERRY AVENUE","BAKERSFIELD","CA",93314,35.4218713390001,-119.243049572,333,"6657 CHERRY AVENUE, BAKERSFIELD, CA, 93314","Match","Exact","6657 CHERRY AVE, BAKERSFIELD, CA, 93314",109562967,"L"
269334,"6657 MATILIJA AVE","VAN NUYS","CA",91405,34.191379156,-118.4334399,334,"6657 MATILIJA AVE, VAN NUYS, CA, 91405","Match","Exact","6657 MATILIJA AVE, VAN NUYS, CA, 91405",141561241,"L"
269335,"6657 MERRY LANE","HOUSTON","TX",77023,29.7188692720001,-95.311565634,335,"6657 MERRY LANE, HOUSTON, TX, 77023","Match","Exact","6657 MERRY LN, HOUSTON, TX, 77023",96082728,"L"
269336,"6657 S BENTON AVE","KANSAS CITY","MO",64132,39.005952929,-94.552981449,336,"6657 S BENTON AVE, KANSAS CITY, MO, 64132","Match","Exact","6657 S BENTON AVE, KANSAS CITY, MO, 64132",91456786,"L"
269337,"6657 VIRGINIA PARKWAY SUITE 100","MCKINNEY","TX",75071,NA,NA,337,"6657 VIRGINIA PARKWAY SUITE 100, MCKINNEY, TX, 75071","No_Match",NA,NA,NA,NA
269338,"6658 BARTMER AVE","ST LOUIS","MO",63130,38.6648313680001,-90.305857084,338,"6658 BARTMER AVE, ST LOUIS, MO, 63130","Match","Exact","6658 BARTMER AVE, SAINT LOUIS, MO, 63130",100152137,"L"
269339,"6658 E 10TH ST","INDIANAPOLIS","IN",46219,39.7817131360001,-86.052448364,339,"6658 E 10TH ST, INDIANAPOLIS, IN, 46219","Match","Exact","6658 E 10TH ST, INDIANAPOLIS, IN, 46219",108003483,"L"
269340,"6658 JUDY LANE","RIVERDALE","GA",30296,33.5725795130001,-84.457568292,340,"6658 JUDY LANE, RIVERDALE, GA, 30296","Match","Exact","6658 JUDY LN, RIVERDALE, GA, 30296",646184744,"L"
269341,"6658 NORTH 56TH STREET","MILWAUKEE","WI",53223,43.138683573,-87.981953865,341,"6658 NORTH 56TH STREET, MILWAUKEE, WI, 53223","Match","Exact","6658 N 56TH ST, MILWAUKEE, WI, 53223",77726520,"R"
269342,"6658 NOWHERE ROAD","HULL","GA",30646,34.076894845,-83.3509868679999,342,"6658 NOWHERE ROAD, HULL, GA, 30646","Match","Exact","6658 NOWHERE RD, HULL, GA, 30646",5015295,"R"
269343,"6658 OLD HWY 64 E","HAYESVILLE","NC",28904,NA,NA,343,"6658 OLD HWY 64 E, HAYESVILLE, NC, 28904","Tie",NA,NA,NA,NA
269344,"6658 THORNTON AVE","NEWARK","CA",94560,37.532043034,-122.034492946,344,"6658 THORNTON AVE, NEWARK, CA, 94560","Match","Exact","6658 THORNTON AVE, NEWARK, CA, 94560",618777605,"L"
269345,"66580 EIGHTH STREET SUITE A","DESERT HOT SPRINGS","CA",92240,33.9687654150001,-116.50012155,345,"66580 EIGHTH STREET SUITE A, DESERT HOT SPRINGS, CA, 92240","Match","Exact","66580 8TH ST, DESERT HOT SPRINGS, CA, 92240",195074952,"L"
269346,"6659 ADRIATIC WAY","GREENACRES","FL",33413,26.685239805,-80.14226963,346,"6659 ADRIATIC WAY, GREENACRES, FL, 33413","Match","Exact","6659 ADRIATIC WAY, GREENACRES, FL, 33413",636846021,"R"
269347,"6659 BROKEN ARROW ROAD","FORT MYERS","FL",33912,26.508430348,-81.8442194849999,347,"6659 BROKEN ARROW ROAD, FORT MYERS, FL, 33912","Match","Exact","6659 BROKEN ARROW RD, FORT MYERS, FL, 33912",118039468,"R"
269348,"6659 EAST MEADOWLARK LANE","PARADISE VALLEY","AZ",85253,33.5402897610001,-111.936917805,348,"6659 EAST MEADOWLARK LANE, PARADISE VALLEY, AZ, 85253","Match","Exact","6659 E MEADOWLARK LN, PARADISE VALLEY, AZ, 85253",128920900,"R"
269349,"6659 FISHER RIDGE RD","LIBERTY","WV",25124,38.61758688,-81.717142713,349,"6659 FISHER RIDGE RD, LIBERTY, WV, 25124","Match","Exact","6659 FISHER RIDGE RD, LIBERTY, WV, 25124",649985594,"R"
269350,"6659 LIBERTY CT","LIBERTY TOWNSHIP","OH",45044,39.3809366,-84.369557464,350,"6659 LIBERTY CT, LIBERTY TOWNSHIP, OH, 45044","Match","Exact","6659 LIBERTY CT, LIBERTY TOWNSHIP, OH, 45044",113810455,"L"
269351,"6659 PAXTON GUINEA ROAD","LOVELAND","OH",45140,39.2308691870001,-84.24209182,351,"6659 PAXTON GUINEA ROAD, LOVELAND, OH, 45140","Match","Exact","6659 PAXTON GUINEA RD, LOVELAND, OH, 45140",118466750,"L"
269352,"6659 PEACHTREE INDL BLVD STE E","NORCROSS","GA",30092,NA,NA,352,"6659 PEACHTREE INDL BLVD STE E, NORCROSS, GA, 30092","No_Match",NA,NA,NA,NA
269353,"6659 SCHAEFER RD 155","DEARBORN","MI",48126,42.3394980800001,-83.176665063,353,"6659 SCHAEFER RD 155, DEARBORN, MI, 48126","Match","Exact","6659 SCHAEFER RD, DEARBORN, MI, 48126",95443907,"L"
269354,"6659 SCHAEFER RD","DEARBORN","MI",48126,42.3394980800001,-83.176665063,354,"6659 SCHAEFER RD, DEARBORN, MI, 48126","Match","Exact","6659 SCHAEFER RD, DEARBORN, MI, 48126",95443907,"L"
269355,"6659 WEST MILL ROAD","MILWAUKEE","WI",53218,43.134038264,-87.995226256,355,"6659 WEST MILL ROAD, MILWAUKEE, WI, 53218","Match","Exact","6659 W MILL RD, MILWAUKEE, WI, 53218",633435596,"L"
269356,"6659 WOODWELL STREET","PITTSBURGH","PA",15217,40.4445016280001,-79.913424224,356,"6659 WOODWELL STREET, PITTSBURGH, PA, 15217","Match","Exact","6659 WOODWELL ST, PITTSBURGH, PA, 15217",51652185,"L"
269357,"666 E 141 ST STREET","BRONX","NY",10454,40.8074601070001,-73.9130608729999,357,"666 E 141 ST STREET, BRONX, NY, 10454","Match","Non_Exact","666 E 141ST ST, BRONX, NY, 10454",80300823,"R"
269358,"666 FIFTH AVENUE","NEW YORK","NY",10103,40.7601732430001,-73.9760165979999,358,"666 FIFTH AVENUE, NEW YORK, NY, 10103","Match","Exact","666 5TH AVE, NEW YORK, NY, 10103",59657205,"L"
269359,"666 GRAND AVENUE SUITE 2000","DES MOINES","IA",50309,41.58758011,-93.6261001889999,359,"666 GRAND AVENUE SUITE 2000, DES MOINES, IA, 50309","Match","Exact","666 GRAND AVE, DES MOINES, IA, 50309",65782856,"L"
269360,"666 GREENWICH ST APT 519","NEW YORK","NY",10014,40.7322183480001,-74.007697048,360,"666 GREENWICH ST APT 519, NEW YORK, NY, 10014","Match","Exact","666 GREENWICH ST, NEW YORK, NY, 10014",59659878,"L"
269361,"666 HANCOCK STREET APT 1F","BROOKLYN","NY",11233,40.6849892650001,-73.92864221,361,"666 HANCOCK STREET APT 1F, BROOKLYN, NY, 11233","Match","Exact","666 HANCOCK ST, BROOKLYN, NY, 11233",652210778,"R"
269362,"666 HOUSTON AVENUE APT 406","TAKOMA PARK","MD",20912,38.990423757,-77.004224725,362,"666 HOUSTON AVENUE APT 406, TAKOMA PARK, MD, 20912","Match","Exact","666 HOUSTON AVE, TAKOMA PARK, MD, 20912",639109406,"L"
269363,"666 KINDERKAMACK ROAD","RIVER EDGE","NJ",7661,40.9310470980001,-74.033959861,363,"666 KINDERKAMACK ROAD, RIVER EDGE, NJ, 7661","Match","Exact","666 KINDERKAMACK RD, RIVER EDGE, NJ, 07661",64387181,"R"
269364,"666 MOUNT PARAN ROAD NW","ATLANTA","GA",30327,33.882623849,-84.40795873,364,"666 MOUNT PARAN ROAD NW, ATLANTA, GA, 30327","Match","Exact","666 MOUNT PARAN RD NW, ATLANTA, GA, 30327",17334245,"L"
269365,"666 NE 125TH STREET SUITE 238","NORTH MIAMI","FL",33161,25.890337871,-80.185098356,365,"666 NE 125TH STREET SUITE 238, NORTH MIAMI, FL, 33161","Match","Non_Exact","666 NE 125TH ST, NORTH MIAMI, FL, 33161",116034504,"R"
269366,"666 OLD COUNTRY ROAD SUITE 810","GARDEN CITY","NY",11530,NA,NA,366,"666 OLD COUNTRY ROAD SUITE 810, GARDEN CITY, NY, 11530","No_Match",NA,NA,NA,NA
269367,"666 PLAINSBORO ROAD SUITE 1238","PLAINSBORO","NJ",8536,40.328794595,-74.5759126729999,367,"666 PLAINSBORO ROAD SUITE 1238, PLAINSBORO, NJ, 8536","Match","Exact","666 PLAINSBORO RD, PLAINSBORO, NJ, 08536",638549036,"R"
269368,"666 RUSSELL COURT SUITE 308","WOODSTOCK","IL",60098,42.3397196330001,-88.4396058469999,368,"666 RUSSELL COURT SUITE 308, WOODSTOCK, IL, 60098","Match","Non_Exact","666 RUSSEL CT, WOODSTOCK, IL, 60098",119816678,"R"
269369,"666 SYLVANER WAY","FREMONT","CA",94539,37.467568468,-121.90819632,369,"666 SYLVANER WAY, FREMONT, CA, 94539","Match","Exact","666 SYLVANER WAY, FREMONT, CA, 94539",125042574,"L"
269370,"666 THIRD AVENUE","NEW YORK","NY",10017,40.7511895170001,-73.974150251,370,"666 THIRD AVENUE, NEW YORK, NY, 10017","Match","Exact","666 3RD AVE, NEW YORK, NY, 10017",59658710,"L"
269371,"666 WEST END AVE APT 2J","NEW YORK","NY",10025,40.792957829,-73.9748740809999,371,"666 WEST END AVE APT 2J, NEW YORK, NY, 10025","Match","Exact","666 W END AVE, NEW YORK, NY, 10025",59656695,"R"
269372,"666 WEST END AVENUE - 21A","NEW YORK","NY",10025,40.792957829,-73.9748740809999,372,"666 WEST END AVENUE - 21A, NEW YORK, NY, 10025","Match","Exact","666 W END AVE, NEW YORK, NY, 10025",59656695,"R"
269373,"666 YORKTOWN PLACE","PARAMUS","NJ",7652,40.970517811,-74.089896123,373,"666 YORKTOWN PLACE, PARAMUS, NJ, 7652","Match","Exact","666 YORKTOWN PL, PARAMUS, NJ, 07652",64377408,"R"
269374,"6660 AVON LAKE RD","MEDINA","OH",44256,41.0923686940001,-82.024371394,374,"6660 AVON LAKE RD, MEDINA, OH, 44256","Match","Exact","6660 AVON LAKE RD, MEDINA, OH, 44256",635557018,"L"
269375,"6660 CAMBRIDGE STREET","BATON ROUGE","LA",70807,30.510717331,-91.162294142,375,"6660 CAMBRIDGE STREET, BATON ROUGE, LA, 70807","Match","Exact","6660 CAMBRIDGE ST, BATON ROUGE, LA, 70807",92179937,"R"
269376,"6660 DELMONICO DR STE 127","COLORADO SPRINGS","CO",80919,NA,NA,376,"6660 DELMONICO DR STE 127, COLORADO SPRINGS, CO, 80919","No_Match",NA,NA,NA,NA
269377,"6660 DOUBLETREE AVENUE SUITE 8","COLUMBUS","OH",43229,40.1015296840001,-82.987126218,377,"6660 DOUBLETREE AVENUE SUITE 8, COLUMBUS, OH, 43229","Match","Exact","6660 DOUBLETREE AVE, COLUMBUS, OH, 43229",135569945,"R"
269378,"6660 QUILEN ROAD","SHREVEPORT","LA",71108,32.447940493,-93.793198567,378,"6660 QUILEN ROAD, SHREVEPORT, LA, 71108","Match","Exact","6660 QUILEN RD, SHREVEPORT, LA, 71108",57488513,"R"
269379,"6660 S CALVARY LANE","HEREFORD","AZ",85615,NA,NA,379,"6660 S CALVARY LANE, HEREFORD, AZ, 85615","No_Match",NA,NA,NA,NA
269380,"6660 SE 5TH STREET APT1","DES MOINES","IA",50315,41.523149216,-93.606437597,380,"6660 SE 5TH STREET APT1, DES MOINES, IA, 50315","Match","Non_Exact","6660 SE 5TH ST, DES MOINES, IA, 50315",65851493,"R"
269381,"6661 DIXIE HIGHWAY SUITE 4","LOUISVILLE","KY",40258,38.154054337,-85.835500946,381,"6661 DIXIE HIGHWAY SUITE 4, LOUISVILLE, KY, 40258","Match","Exact","6661 DIXIE HWY, LOUISVILLE, KY, 40258",96839356,"L"
269382,"6661 OLD PORTER ROAD","PORTAGE","IN",46368,41.5940713190001,-87.157575505,382,"6661 OLD PORTER ROAD, PORTAGE, IN, 46368","Match","Exact","6661 OLD PORTER RD, PORTAGE, IN, 46368",119908812,"R"
269383,"66610 YUCCA DRIVE","DESERT HOT SPRINGS","CA",92240,33.9745376720001,-116.499035676,383,"66610 YUCCA DRIVE, DESERT HOT SPRINGS, CA, 92240","Match","Exact","66610 YUCCA DR, DESERT HOT SPRINGS, CA, 92240",651720059,"R"
269384,"66612","PORTLAND","OR",97206,NA,NA,384,"66612, PORTLAND, OR, 97206","No_Match",NA,NA,NA,NA
269385,"66614 COMMUNICATIONS PARKWAY","PLANO","TX",75093,NA,NA,385,"66614 COMMUNICATIONS PARKWAY, PLANO, TX, 75093","No_Match",NA,NA,NA,NA
269386,"6662 DEBRA LU WAY","SPRINGFIELD","VA",22150,38.773853912,-77.159637064,386,"6662 DEBRA LU WAY, SPRINGFIELD, VA, 22150","Match","Exact","6662 DEBRA LU WAY, SPRINGFIELD, VA, 22150",76040694,"L"
269387,"66629 INDIAN HILLS WAY POB2014","SALOME","AZ",85348,33.7593735070001,-113.616451586,387,"66629 INDIAN HILLS WAY POB2014, SALOME, AZ, 85348","Match","Exact","66629 INDIAN HILLS WAY, SALOME, AZ, 85348",129742855,"L"
269388,"6663 HALL AVE","MADISON","OH",44057,41.8344440860001,-81.049015826,388,"6663 HALL AVE, MADISON, OH, 44057","Match","Exact","6663 HALL AVE, MADISON, OH, 44057",137468058,"R"
269389,"6663 HEARTWOOD DRIVE","OAKLAND","CA",94611,37.8340236980001,-122.202056716,389,"6663 HEARTWOOD DRIVE, OAKLAND, CA, 94611","Match","Exact","6663 HEARTWOOD DR, OAKLAND, CA, 94611",633926189,"L"
269390,"6663 STATE HIGHWAY 58","HAMMOND","NY",13646,NA,NA,390,"6663 STATE HIGHWAY 58, HAMMOND, NY, 13646","No_Match",NA,NA,NA,NA
269391,"6663 SW BEAVERTON HILLSDALE HWY","BEAVERTON","OR",97225,45.487053485,-122.744457512,391,"6663 SW BEAVERTON HILLSDALE HWY, BEAVERTON, OR, 97225","Match","Non_Exact","6663 SW BEAVERTON-HILLSDALE HWY, PORTLAND, OR, 97225",634871688,"R"
269392,"6663 W HOWARD ST","NILES","IL",60714,42.0191435620001,-87.7929173269999,392,"6663 W HOWARD ST, NILES, IL, 60714","Match","Exact","6663 W HOWARD ST, NILES, IL, 60714",111735966,"L"
269393,"6664 TIMOTHY LAKE ROAD","E STROUDSBURG","PA",18302,41.109575598,-75.061355425,393,"6664 TIMOTHY LAKE ROAD, E STROUDSBURG, PA, 18302","Match","Exact","6664 TIMOTHY LAKE RD, E STROUDSBURG, PA, 18302",136762139,"R"
269394,"6664 W FAIRMONT AVE","FRESNO","CA",93723,36.805821015,-119.909949061,394,"6664 W FAIRMONT AVE, FRESNO, CA, 93723","Match","Exact","6664 W FAIRMONT AVE, FRESNO, CA, 93723",619120746,"R"
269395,"6665 POND APPLE ROAD","BOCA RATON","FL",33433,26.363525903,-80.1478534779999,395,"6665 POND APPLE ROAD, BOCA RATON, FL, 33433","Match","Exact","6665 POND APPLE RD, BOCA RATON, FL, 33433",115575062,"R"
269396,"6665 WINCHESTER ROAD","CARROLL","OH",43112,39.7994674510001,-82.720603302,396,"6665 WINCHESTER ROAD, CARROLL, OH, 43112","Match","Non_Exact","6665 WINCHESTER RD NW, CARROLL, OH, 43112",37229940,"L"
269397,"6666 BARRETT RD","GENEVA","OH",44041,41.6896738450001,-80.990754277,397,"6666 BARRETT RD, GENEVA, OH, 44041","Match","Exact","6666 BARRETT RD, GENEVA, OH, 44041",117316917,"L"
269398,"6666 GREEN VALLEY CIRCLE STE 216","CULVER CITY","CA",90230,33.9790057590001,-118.385455356,398,"6666 GREEN VALLEY CIRCLE STE 216, CULVER CITY, CA, 90230","Match","Exact","6666 GREEN VALLEY CIR, CULVER CITY, CA, 90230",141794980,"L"
269399,"6666 GREEN VALLEY CIRCLE","CULVER CITY","CA",90230,33.9790057590001,-118.385455356,399,"6666 GREEN VALLEY CIRCLE, CULVER CITY, CA, 90230","Match","Exact","6666 GREEN VALLEY CIR, CULVER CITY, CA, 90230",141794980,"L"
269400,"6666 HARWIN DR SUITE 340","HOUSTON","TX",77036,29.719742952,-95.499660252,400,"6666 HARWIN DR SUITE 340, HOUSTON, TX, 77036","Match","Exact","6666 HARWIN DR, HOUSTON, TX, 77036",96614574,"R"
269401,"6666 MICHAEL PL","MICHIGAN CITY","IN",46360,41.6703147790001,-86.829209551,401,"6666 MICHAEL PL, MICHIGAN CITY, IN, 46360","Match","Exact","6666 MICHAEL PL, MICHIGAN CITY, IN, 46360",15414213,"L"
269402,"6666 MULBERRY CIRCLE EAST","CHANHASSEN","MN",55317,44.883145142,-93.552506589,402,"6666 MULBERRY CIRCLE EAST, CHANHASSEN, MN, 55317","Match","Exact","6666 MULBERRY CIR E, CHANHASSEN, MN, 55317",43499900,"R"
269403,"6666 OAKLAND CT","NEWBURGH","IN",47630,37.992801292,-87.3713403629999,403,"6666 OAKLAND CT, NEWBURGH, IN, 47630","Match","Exact","6666 OAKLAND CT, NEWBURGH, IN, 47630",32217381,"L"
269404,"6666 ODANA RD STE 375","MADISON","WI",53719,43.0563613580001,-89.495929406,404,"6666 ODANA RD STE 375, MADISON, WI, 53719","Match","Exact","6666 ODANA RD, MADISON, WI, 53719",49536540,"R"
269405,"6666 ODANA ROAD SUITE 221","MADISON","WI",53719,43.0563613580001,-89.495929406,405,"6666 ODANA ROAD SUITE 221, MADISON, WI, 53719","Match","Exact","6666 ODANA RD, MADISON, WI, 53719",49536540,"R"
269406,"6667 CHESTER AVE","PHILADELPHIA","PA",19142,39.9273542610001,-75.2404547949999,406,"6667 CHESTER AVE, PHILADELPHIA, PA, 19142","Match","Exact","6667 CHESTER AVE, PHILADELPHIA, PA, 19142",647553463,"R"
269407,"6667 COUNTY ROAD 214","KEYSTONE HEIGHTS","FL",32656,29.742278636,-82.016689882,407,"6667 COUNTY ROAD 214, KEYSTONE HEIGHTS, FL, 32656","Match","Exact","6667 CO RD 214, KEYSTONE HEIGHTS, FL, 32656",606128861,"R"
269408,"6667 KENNEDY AVE","CINCINNATI","OH",45213,39.1905958850001,-84.4150168899999,408,"6667 KENNEDY AVE, CINCINNATI, OH, 45213","Match","Exact","6667 KENNEDY AVE, CINCINNATI, OH, 45213",103931857,"L"
269409,"6668 APPLERIDGE DR","YOUNGSTOWN","OH",44512,41.0293350630001,-80.642644713,409,"6668 APPLERIDGE DR, YOUNGSTOWN, OH, 44512","Match","Exact","6668 APPLERIDGE DR, YOUNGSTOWN, OH, 44512",64599124,"R"
269410,"6668 CHERRY LEAF CT","MASON","OH",45040,39.382876524,-84.333714651,410,"6668 CHERRY LEAF CT, MASON, OH, 45040","Match","Exact","6668 CHERRY LEAF CT, MASON, OH, 45040",159050985,"R"
269411,"6668 E 126TH ST S","BIXBY","OK",74008,35.9811710440001,-95.902518027,411,"6668 E 126TH ST S, BIXBY, OK, 74008","Match","Exact","6668 E 126TH ST S, BIXBY, OK, 74008",624484556,"L"
269412,"6668 SOUTH GARNET WAY","CHANDLER","AZ",85249,33.2092333630001,-111.757319125,412,"6668 SOUTH GARNET WAY, CHANDLER, AZ, 85249","Match","Exact","6668 S GARNET WAY, CHANDLER, AZ, 85249",128873477,"R"
269413,"6668 W 350 S","ENDIBURGH","IN",46124,39.473715332,-85.905718393,413,"6668 W 350 S, ENDIBURGH, IN, 46124","Match","Non_Exact","6668 W 350 S, EDINBURGH, IN, 46124",33213560,"L"
269414,"66687  180TH STREET","DARWIN","MN",55324,45.00840644,-94.424904124,414,"66687  180TH STREET, DARWIN, MN, 55324","Match","Exact","66687 180TH ST, DARWIN, MN, 55324",36985733,"R"
269415,"6669 HAWKSNEST CT","WESTERVILLE","OH",43082,40.1733286460001,-82.915834479,415,"6669 HAWKSNEST CT, WESTERVILLE, OH, 43082","Match","Exact","6669 HAWKSNEST CT, WESTERVILLE, OH, 43082",213002823,"L"
269416,"667 4TH AVE","SAN FRANCISCO","CA",94118,37.7761291470001,-122.461785574,416,"667 4TH AVE, SAN FRANCISCO, CA, 94118","Match","Exact","667 4TH AVE, SAN FRANCISCO, CA, 94118",192281924,"R"
269417,"667 BABBITT RD","EUCLID","OH",44123,41.6005300790001,-81.518767579,417,"667 BABBITT RD, EUCLID, OH, 44123","Match","Exact","667 BABBITT RD, EUCLID, OH, 44123",61108436,"L"
269418,"667 BEATY DRIVE","CLEVELAND","TN",37312,35.2326666370001,-84.91118252,418,"667 BEATY DRIVE, CLEVELAND, TN, 37312","Match","Non_Exact","667 BEATY DR NW, CLEVELAND, TN, 37312",645474970,"L"
269419,"667 BISHOP RD","HIGHLAND HEIGHTS","OH",44143,41.546088216,-81.478418757,419,"667 BISHOP RD, HIGHLAND HEIGHTS, OH, 44143","Match","Exact","667 BISHOP RD, HIGHLAND HEIGHTS, OH, 44143",61149697,"L"
269420,"667 BROMLEY RD","BROMLEY","KY",41017,NA,NA,420,"667 BROMLEY RD, BROMLEY, KY, 41017","No_Match",NA,NA,NA,NA
269421,"667 COATES LANE","KING OF PRUSSIA","PA",19406,40.0978934500001,-75.3433812919999,421,"667 COATES LANE, KING OF PRUSSIA, PA, 19406","Match","Exact","667 COATES LN, KING OF PRUSSIA, PA, 19406",647904905,"R"
269422,"667 E WARREN AVE","LONGWOOD","FL",32750,28.7002415430001,-81.3347277139999,422,"667 E WARREN AVE, LONGWOOD, FL, 32750","Match","Exact","667 E WARREN AVE, LONGWOOD, FL, 32750",93787266,"L"
269423,"667 HARRIS ROAD","FERNDALE","NY",12734,41.74504856,-74.73491362,423,"667 HARRIS ROAD, FERNDALE, NY, 12734","Match","Exact","667 HARRIS RD, FERNDALE, NY, 12734",128983039,"R"
269424,"667 HASTINGS CIRCLE WEST","MEMPHIS","TN",38107,35.1585727900001,-90.0271984949999,424,"667 HASTINGS CIRCLE WEST, MEMPHIS, TN, 38107","Match","Exact","667 HASTINGS CIR W, MEMPHIS, TN, 38107",72950773,"L"
269425,"667 MATTHEW PL","RICHARDSON","TX",75081,32.941886932,-96.7337291859999,425,"667 MATTHEW PL, RICHARDSON, TX, 75081","Match","Exact","667 MATTHEW PL, RICHARDSON, TX, 75081",639632722,"R"
269426,"667 MELANIE STREET","JESUP","GA",31545,31.6145383950001,-81.905537631,426,"667 MELANIE STREET, JESUP, GA, 31545","Match","Exact","667 MELANIE ST, JESUP, GA, 31545",4835771,"R"
269427,"667 N COVE DR","WEBSTER","NY",14580,43.229715947,-77.5227437679999,427,"667 N COVE DR, WEBSTER, NY, 14580","Match","Exact","667 N COVE DR, WEBSTER, NY, 14580",14551953,"L"
269428,"667 OAKLAND PL","BRONX","NY",10457,40.8475516980001,-73.889794044,428,"667 OAKLAND PL, BRONX, NY, 10457","Match","Exact","667 OAKLAND PL, BRONX, NY, 10457",80301536,"L"
269429,"667 PATTERSON MILL RD","BARNWELL","SC",29812,33.233699104,-81.406660557,429,"667 PATTERSON MILL RD, BARNWELL, SC, 29812","Match","Exact","667 PATTERSON MILL RD, BARNWELL, SC, 29812",19078717,"R"
269430,"667 PLEASANT HILL ROAD","MORGANTOWN","WV",26508,39.6249649330001,-79.897075953,430,"667 PLEASANT HILL ROAD, MORGANTOWN, WV, 26508","Match","Exact","667 PLEASANT HILL RD, MORGANTOWN, WV, 26508",50772928,"L"
269431,"667 RIDGE RD","GEROGETOWN","PA",15043,40.4808105930001,-80.499269641,431,"667 RIDGE RD, GEROGETOWN, PA, 15043","Match","Non_Exact","667 RIDGE RD, GEORGETOWN, PA, 15043",52574869,"R"
269432,"667 RTE 114","SOUTH SUTTON","NH",3273,43.3190450390001,-71.934477622,432,"667 RTE 114, SOUTH SUTTON, NH, 3273","Match","Non_Exact","667 STATE RTE 114, SOUTH SUTTON, NH, 03273",117709352,"L"
269433,"667 S 22ND AVE","BRIGHTON","CO",80601,39.9739702480001,-104.7941389,433,"667 S 22ND AVE, BRIGHTON, CO, 80601","Match","Exact","667 S 22ND AVE, BRIGHTON, CO, 80601",177412027,"R"
269434,"667 S DETROIT APT 409","LOS ANGELES","CA",90036,NA,NA,434,"667 S DETROIT APT 409, LOS ANGELES, CA, 90036","No_Match",NA,NA,NA,NA
269435,"667 SE BARNES AVENUE","GRESHAM","OR",97080,45.4918884530001,-122.392627579,435,"667 SE BARNES AVENUE, GRESHAM, OR, 97080","Match","Exact","667 SE BARNES AVE, GRESHAM, OR, 97080",157530983,"R"
269436,"667 SEQUOIA VALLEY RD","MILL VALLEY","CA",94941,37.8992330300001,-122.558518233,436,"667 SEQUOIA VALLEY RD, MILL VALLEY, CA, 94941","Match","Exact","667 SEQUOIA VALLEY RD, MILL VALLEY, CA, 94941",647377112,"L"
269437,"667 SOUTH JUNE ST","LOS ANGELES","CA",90005,34.0630707380001,-118.334749549,437,"667 SOUTH JUNE ST, LOS ANGELES, CA, 90005","Match","Exact","667 S JUNE ST, LOS ANGELES, CA, 90005",642863813,"R"
269438,"667 SOUTH STREET","WRENTHAM","MA",2093,42.0524013630001,-71.3435017909999,438,"667 SOUTH STREET, WRENTHAM, MA, 2093","Match","Exact","667 SOUTH ST, WRENTHAM, MA, 02093",87261143,"L"
269439,"667 STEINMAN DRIVE","LANCASTER","PA",17603,40.0482107770001,-76.3482506249999,439,"667 STEINMAN DRIVE, LANCASTER, PA, 17603","Match","Exact","667 STEINMAN DR, LANCASTER, PA, 17603",179661037,"L"
269440,"667 TIVOLI ROAD","FREDERICK","MD",21703,39.393234314,-77.4330498859999,440,"667 TIVOLI ROAD, FREDERICK, MD, 21703","Match","Exact","667 TIVOLI RD, FREDERICK, MD, 21703",624487172,"R"
269441,"667 TRAVIS AVENUE","STATEN ISLAND","NY",10314,40.5923837460001,-74.161131122,441,"667 TRAVIS AVENUE, STATEN ISLAND, NY, 10314","Match","Exact","667 TRAVIS AVE, STATEN ISLAND, NY, 10314",59881974,"R"
269442,"667 TURNBURRY LN","ANTIOCH","IL",60002,42.485616447,-88.115589814,442,"667 TURNBURRY LN, ANTIOCH, IL, 60002","Match","Exact","667 TURNBURRY LN, ANTIOCH, IL, 60002",119712670,"L"
269443,"667 W LINCOLN AVE","RAHWAY","NJ",7065,40.621002709,-74.276501807,443,"667 W LINCOLN AVE, RAHWAY, NJ, 7065","Match","Exact","667 W LINCOLN AVE, RAHWAY, NJ, 07065",60562511,"R"
269444,"667 WASHINGTON BLVD","BALTIMORE","MD",21230,39.2838808710001,-76.6253990499999,444,"667 WASHINGTON BLVD, BALTIMORE, MD, 21230","Match","Exact","667 WASHINGTON BLVD, BALTIMORE, MD, 21230",639169031,"L"
269445,"667 WEST 161 STREET APT5G","NEW YORK","NY",10032,40.837598621,-73.945520989,445,"667 WEST 161 STREET APT5G, NEW YORK, NY, 10032","Match","Exact","667 W 161ST ST, NEW YORK, NY, 10032",59655436,"R"
269446,"6670 BLACK FOREST DRIVE","EASTVALE","CA",92880,33.967576577,-117.573889433,446,"6670 BLACK FOREST DRIVE, EASTVALE, CA, 92880","Match","Exact","6670 BLACK FOREST DR, EASTVALE, CA, 92880",629828237,"R"
269447,"6670 DANA DRIVE","MACON","GA",31220,32.834089443,-83.778993477,447,"6670 DANA DRIVE, MACON, GA, 31220","Match","Exact","6670 DANA DR, MACON, GA, 31220",81081481,"L"
269448,"6670 GEORGIA AVE APT 203","WASHINGTON","DC",20012,38.971608449,-77.027107682,448,"6670 GEORGIA AVE APT 203, WASHINGTON, DC, 20012","Match","Non_Exact","6670 GEORGIA AVE NW, WASHINGTON, DC, 20012",76221792,"L"
269449,"6670 LUCIA LANE NORTHEAST 6","FRIDLEY","MN",55432,45.089565844,-93.241885474,449,"6670 LUCIA LANE NORTHEAST 6, FRIDLEY, MN, 55432","Match","Exact","6670 LUCIA LN NE, FRIDLEY, MN, 55432",97511865,"L"
269450,"6670 NE BAYVIEW BLVD","BAINBRIDGE ISLAND","WA",98110,47.6731291400001,-122.560842029,450,"6670 NE BAYVIEW BLVD, BAINBRIDGE ISLAND, WA, 98110","Match","Exact","6670 NE BAYVIEW BLVD, BAINBRIDGE ISLAND, WA, 98110",187666964,"R"
269451,"6670 SOUTH BRAINARD AVENUE UNIT 106","COUNTRYSIDE","IL",60525,41.770312808,-87.877378058,451,"6670 SOUTH BRAINARD AVENUE UNIT 106, COUNTRYSIDE, IL, 60525","Match","Exact","6670 S BRAINARD AVE, COUNTRYSIDE, IL, 60525",111867528,"R"
269452,"6670 SW AMBER LN","PORTLAND","OR",97225,45.4820186260001,-122.745902069,452,"6670 SW AMBER LN, PORTLAND, OR, 97225","Match","Exact","6670 SW AMBER LN, PORTLAND, OR, 97225",605220850,"L"
269453,"6671 SAINT ANDREWS RD","COLUMBIA","SC",29212,34.0672608580001,-81.170616857,453,"6671 SAINT ANDREWS RD, COLUMBIA, SC, 29212","Match","Exact","6671 ST ANDREWS RD, COLUMBIA, SC, 29212",70049382,"L"
269454,"6671 SAINT ANDREWS ROAD","COLUMBIA","SC",29212,34.0672608580001,-81.170616857,454,"6671 SAINT ANDREWS ROAD, COLUMBIA, SC, 29212","Match","Exact","6671 ST ANDREWS RD, COLUMBIA, SC, 29212",70049382,"L"
269455,"6671 ST ANDREWS RD","COLUMBIA","SC",29212,34.0672608580001,-81.170616857,455,"6671 ST ANDREWS RD, COLUMBIA, SC, 29212","Match","Exact","6671 ST ANDREWS RD, COLUMBIA, SC, 29212",70049382,"L"
269456,"6671 W INDIANTOWN RD STE 50 PMB 102","JUPITER","FL",33458,26.9344727910001,-80.1364235889999,456,"6671 W INDIANTOWN RD STE 50 PMB 102, JUPITER, FL, 33458","Match","Non_Exact","6671 W INDIANTOWN RD, JUPITER, FL, 33458",115532295,"L"
269457,"6671 W INDIANTOWN RD STE 50-396","JUPITER","FL",33458,26.9344727910001,-80.1364235889999,457,"6671 W INDIANTOWN RD STE 50-396, JUPITER, FL, 33458","Match","Non_Exact","6671 W INDIANTOWN RD, JUPITER, FL, 33458",115532295,"L"
269458,"6671 W SUNSET BLVD STE 1585 - 109","LOS ANGELES","CA",90028,34.0979846980001,-118.335637622,458,"6671 W SUNSET BLVD STE 1585 - 109, LOS ANGELES, CA, 90028","Match","Non_Exact","6671 W SUNSET BLVD, LOS ANGELES, CA, 90028",141599696,"R"
269459,"6671 W SUNSET BLVD SUITE 1585 - 109","LOS ANGELES","CA",90028,34.0979846980001,-118.335637622,459,"6671 W SUNSET BLVD SUITE 1585 - 109, LOS ANGELES, CA, 90028","Match","Non_Exact","6671 W SUNSET BLVD, LOS ANGELES, CA, 90028",141599696,"R"
269460,"6671 WEST INDIANTOWN RD STE 50-194","JUPITER","FL",33458,26.934472956,-80.1364153119999,460,"6671 WEST INDIANTOWN RD STE 50-194, JUPITER, FL, 33458","Match","Exact","6671 W INDIANTOWN RD, JUPITER, FL, 33458",115532295,"L"
269461,"6672 MOTTAR RD","ROCHESTER","IL",62563,39.6846612800001,-89.522757382,461,"6672 MOTTAR RD, ROCHESTER, IL, 62563","Match","Exact","6672 MOTTAR RD, ROCHESTER, IL, 62563",643406386,"R"
269462,"6672 ROCHELLE AVE","NEWARK","CA",94560,37.5405680110001,-122.046732151,462,"6672 ROCHELLE AVE, NEWARK, CA, 94560","Match","Exact","6672 ROCHELLE AVE, NEWARK, CA, 94560",125027301,"L"
269463,"6672 RUBY ST","PLAINFIELD","IN",46168,39.6553570900001,-86.405732578,463,"6672 RUBY ST, PLAINFIELD, IN, 46168","Match","Exact","6672 RUBY ST, PLAINFIELD, IN, 46168",624965292,"R"
269464,"6672 SILVER MILL WAY","ROSEVILLE","CA",95678,NA,NA,464,"6672 SILVER MILL WAY, ROSEVILLE, CA, 95678","No_Match",NA,NA,NA,NA
269465,"6673 KALINOWSKI ST","TARAWA TERRACE","NC",28543,NA,NA,465,"6673 KALINOWSKI ST, TARAWA TERRACE, NC, 28543","No_Match",NA,NA,NA,NA
269466,"6673 SAY KALLY RD","CHEYENNE","WY",82009,41.185094292,-104.727220765,466,"6673 SAY KALLY RD, CHEYENNE, WY, 82009","Match","Non_Exact","6673 SAYKALLY RD, CHEYENNE, WY, 82009",604965686,"R"
269467,"6673 WALNUTWOOD CIRCLE","BALTIMORE","MD",21212,39.3760018900001,-76.6201022829999,467,"6673 WALNUTWOOD CIRCLE, BALTIMORE, MD, 21212","Match","Exact","6673 WALNUTWOOD CIR, BALTIMORE, MD, 21212",624950920,"L"
269468,"66735 PIERSON BLVD BLDG B","DESERT HOT SPRINGS","CA",92240,33.9614616010001,-116.497162679,468,"66735 PIERSON BLVD BLDG B, DESERT HOT SPRINGS, CA, 92240","Match","Exact","66735 PIERSON BLVD, DESERT HOT SPRINGS, CA, 92240",194690718,"L"
269469,"6674 CALHOUN 160","LITTLE ROCK","AR",72223,NA,NA,469,"6674 CALHOUN 160, LITTLE ROCK, AR, 72223","No_Match",NA,NA,NA,NA
269470,"6674 PRUE RD APT 1902","SAN ANTONIO","TX",78240,29.544627232,-98.617894567,470,"6674 PRUE RD APT 1902, SAN ANTONIO, TX, 78240","Match","Exact","6674 PRUE RD, SAN ANTONIO, TX, 78240",648245856,"L"
269471,"6674 S ROME STREET","AURORA","CO",80016,39.5952411740001,-104.730682297,471,"6674 S ROME STREET, AURORA, CO, 80016","Match","Exact","6674 S ROME ST, AURORA, CO, 80016",177543247,"L"
269472,"6674 TRAQUAIR PLACE","DUBLIN","OH",43016,40.088072375,-83.168755317,472,"6674 TRAQUAIR PLACE, DUBLIN, OH, 43016","Match","Exact","6674 TRAQUAIR PL, DUBLIN, OH, 43016",218673575,"L"
269473,"6675 38TH AVE N        SUITE 102","ST PETERSBURG","FL",33710,27.8063625290001,-82.7313342259999,473,"6675 38TH AVE N        SUITE 102, ST PETERSBURG, FL, 33710","Match","Exact","6675 38TH AVE N, SAINT PETERSBURG, FL, 33710",124695922,"R"
269474,"6675 BRICKELL COURT","ORLANDO","FL",32809,28.4632552470001,-81.382838394,474,"6675 BRICKELL COURT, ORLANDO, FL, 32809","Match","Exact","6675 BRICKELL CT, ORLANDO, FL, 32809",94290664,"L"
269475,"6675 EAST HIGHWAY 11 SE","ELIZABETH","IN",47117,38.0826750090001,-86.0009733699999,475,"6675 EAST HIGHWAY 11 SE, ELIZABETH, IN, 47117","Match","Exact","6675 E HWY 11 SE, ELIZABETH, IN, 47117",34810879,"L"
269476,"6675 OLD GAY HILL RD","BRENHAM","TX",77833,30.2396362310001,-96.457085309,476,"6675 OLD GAY HILL RD, BRENHAM, TX, 77833","Match","Exact","6675 OLD GAY HILL RD, BRENHAM, TX, 77833",39259369,"L"
269477,"6675 QUINTARA DRIVE","INDIANAPOLIS","IN",46260,39.8781293050001,-86.182423516,477,"6675 QUINTARA DRIVE, INDIANAPOLIS, IN, 46260","Match","Exact","6675 QUINTARA DR, INDIANAPOLIS, IN, 46260",636092703,"L"
269478,"6676 FEDER RD","GALLOWAY","OH",43119,39.973571953,-83.1843296169999,478,"6676 FEDER RD, GALLOWAY, OH, 43119","Match","Exact","6676 FEDER RD, GALLOWAY, OH, 43119",135606922,"R"
269479,"6676 LANA LN","JACKSONVILLE","FL",32244,30.2263289840001,-81.776585811,479,"6676 LANA LN, JACKSONVILLE, FL, 32244","Match","Exact","6676 LANA LN, JACKSONVILLE, FL, 32244",83941804,"R"
269480,"6676 MISSION STREET","DALY CITY","CA",94014,37.7021985160001,-122.463243767,480,"6676 MISSION STREET, DALY CITY, CA, 94014","Match","Exact","6676 MISSION ST, DALY CITY, CA, 94014",192367607,"R"
269481,"6676 PAISLEY DR","CINCINNATI","OH",45236,39.189874307,-84.390956219,481,"6676 PAISLEY DR, CINCINNATI, OH, 45236","Match","Exact","6676 PAISLEY DR, CINCINNATI, OH, 45236",640627934,"R"
269482,"6676 QUAY RD AE","TUCUMCARI","NM",88401,35.2268079630001,-103.542671146,482,"6676 QUAY RD AE, TUCUMCARI, NM, 88401","Match","Exact","6676 QUAY ROAD AE, TUCUMCARI, NM, 88401",617694648,"R"
269483,"6676 ROHR STREET","NIAGARA FALLS","NY",14304,43.102268999,-78.913932841,483,"6676 ROHR STREET, NIAGARA FALLS, NY, 14304","Match","Exact","6676 ROHR ST, NIAGARA FALLS, NY, 14304",48688447,"R"
269484,"6677 BUSCH BLVD","COLUMBUS","OH",43229,40.1002954590001,-82.99334286,484,"6677 BUSCH BLVD, COLUMBUS, OH, 43229","Match","Exact","6677 BUSCH BLVD, COLUMBUS, OH, 43229",135569920,"L"
269485,"6677 CAMDEN AVE","SAN JOSE","CA",95120,37.221209969,-121.849371519,485,"6677 CAMDEN AVE, SAN JOSE, CA, 95120","Match","Exact","6677 CAMDEN AVE, SAN JOSE, CA, 95120",122925752,"R"
269486,"6677 NE WINDERMERE ROAD","SEATTLE","WA",98115,47.673568738,-122.254802453,486,"6677 NE WINDERMERE ROAD, SEATTLE, WA, 98115","Match","Exact","6677 NE WINDERMERE RD, SEATTLE, WA, 98115",634385447,"R"
269487,"6677 RIDGE HAVEN LANE","HIXSON","TN",37343,35.1407169180001,-85.1850794759999,487,"6677 RIDGE HAVEN LANE, HIXSON, TN, 37343","Match","Exact","6677 RIDGE HAVEN LN, HIXSON, TN, 37343",59327799,"L"
269488,"66772 SUMMERVILLE RD","IMBLER","OR",97841,45.464059729,-117.972206364,488,"66772 SUMMERVILLE RD, IMBLER, OR, 97841","Match","Exact","66772 SUMMERVILLE RD, IMBLER, OR, 97841",605950034,"L"
269489,"66772 SUMMERVILLE ROAD","IMBLER","OR",97841,45.464059729,-117.972206364,489,"66772 SUMMERVILLE ROAD, IMBLER, OR, 97841","Match","Exact","66772 SUMMERVILLE RD, IMBLER, OR, 97841",605950034,"L"
269490,"66779 BELMONT MORRISTOWN ROAD","BELMONT","OH",43718,40.064044913,-81.055495745,490,"66779 BELMONT MORRISTOWN ROAD, BELMONT, OH, 43718","Match","Exact","66779 BELMONT MORRISTOWN RD, BELMONT, OH, 43718",640062866,"R"
269491,"66779 BELMONT-MORRISTOWN RD","BELMONT","OH",43718,40.064044913,-81.055495745,491,"66779 BELMONT-MORRISTOWN RD, BELMONT, OH, 43718","Match","Non_Exact","66779 BELMONT MORRISTOWN RD, BELMONT, OH, 43718",640062866,"R"
269492,"6678 KELLY WILLIS RD","GREENBRIER","TN",37073,36.4219103040001,-86.770792711,492,"6678 KELLY WILLIS RD, GREENBRIER, TN, 37073","Match","Exact","6678 KELLY WILLIS RD, GREENBRIER, TN, 37073",649774001,"L"
269493,"6678 OWENS DR STE 102","PLEASANTON","CA",94588,37.6995210640001,-121.908783058,493,"6678 OWENS DR STE 102, PLEASANTON, CA, 94588","Match","Exact","6678 OWENS DR, PLEASANTON, CA, 94588",125017479,"L"
269494,"6679 HWY 84","PATTERSON","GA",31557,31.393310017,-82.1327360929999,494,"6679 HWY 84, PATTERSON, GA, 31557","Match","Non_Exact","6679 US HWY 84, PATTERSON, GA, 31557",4617933,"R"
269495,"668 AMERICAN LEGION DRIVE 5","TEANECK","NJ",7666,40.886354468,-74.02240803,495,"668 AMERICAN LEGION DRIVE 5, TEANECK, NJ, 7666","Match","Exact","668 AMERICAN LEGION DR, TEANECK, NJ, 07666",64388721,"L"
269496,"668 ANCHORAGE AVE","GRAYSON","GA",30017,33.897934524,-83.9785149749999,496,"668 ANCHORAGE AVE, GRAYSON, GA, 30017","Match","Exact","668 ANCHORAGE AVE, GRAYSON, GA, 30017",88935030,"L"
269497,"668 BEDFORD AVENUE","BROOKLYN","NY",11249,40.7013065880001,-73.957980399,497,"668 BEDFORD AVENUE, BROOKLYN, NY, 11249","Match","Exact","668 BEDFORD AVE, BROOKLYN, NY, 11249",59077861,"R"
269498,"668 BRIXHAM RD","COLUMBUS","OH",43204,39.9397521380001,-83.093971782,498,"668 BRIXHAM RD, COLUMBUS, OH, 43204","Match","Exact","668 BRIXHAM RD, COLUMBUS, OH, 43204",218635498,"R"
269499,"668 BROADSIDE AVENUE","WARRENTON","VA",20186,NA,NA,499,"668 BROADSIDE AVENUE, WARRENTON, VA, 20186","No_Match",NA,NA,NA,NA
269500,"668 CHATEAU CIRCLE","VACAVILLE","CA",95687,38.3371633850001,-121.936659447,500,"668 CHATEAU CIRCLE, VACAVILLE, CA, 95687","Match","Exact","668 CHATEAU CIR, VACAVILLE, CA, 95687",192620833,"R"
