"ID","Address","City","State","Zip","lat","long","id","input_address","match_indicator","match_type","matched_address","tiger_line_id","tiger_side"
84001,"17049 MAGNOLIA BLVD","CLERMONT","FL",34711,NA,NA,1,"17049 MAGNOLIA BLVD, CLERMONT, FL, 34711","No_Match",NA,NA,NA,NA
84002,"1705 16TH AVENUE","MENOMINEE","MI",49858,45.1134057260001,-87.623813422,2,"1705 16TH AVENUE, MENOMINEE, MI, 49858","Match","Exact","1705 16TH AVE, MENOMINEE, MI, 49858",170210975,"L"
84003,"1705 2ND AVENUE","MANCHESTER","TN",37355,35.453260298,-86.09061553,3,"1705 2ND AVENUE, MANCHESTER, TN, 37355","Match","Exact","1705 2ND AVE, MANCHESTER, TN, 37355",58227644,"R"
84004,"1705 AMERICUS AVE","PENSACOLA","FL",32507,30.3836563400001,-87.315307494,4,"1705 AMERICUS AVE, PENSACOLA, FL, 32507","Match","Exact","1705 AMERICUS AVE, PENSACOLA, FL, 32507",93249195,"R"
84005,"1705 ANDREWS AVE APT 3L","BRONX","NY",10453,40.8496999750001,-73.918202203,5,"1705 ANDREWS AVE APT 3L, BRONX, NY, 10453","Match","Non_Exact","1705 ANDREWS AVE S, BRONX, NY, 10453",80299547,"L"
84006,"1705 BLACKSTONE DR","CARROLLTON","TX",75007,32.9862455140001,-96.89487345,6,"1705 BLACKSTONE DR, CARROLLTON, TX, 75007","Match","Exact","1705 BLACKSTONE DR, CARROLLTON, TX, 75007",102995383,"L"
84007,"1705 BLAIRMONT DRIVE","LEBANON","TN",37087,36.217476054,-86.346960812,7,"1705 BLAIRMONT DRIVE, LEBANON, TN, 37087","Match","Exact","1705 BLAIRMONT DR, LEBANON, TN, 37087",89699880,"R"
84008,"1705 BROMPTON STREET","PETALUMA","CA",94954,38.264114674,-122.631111289,8,"1705 BROMPTON STREET, PETALUMA, CA, 94954","Match","Exact","1705 BROMPTON ST, PETALUMA, CA, 94954",67520370,"R"
84009,"1705 BUCKBOARD LANE","ENID","OK",73703,36.4257037510001,-97.901081897,9,"1705 BUCKBOARD LANE, ENID, OK, 73703","Match","Exact","1705 BUCKBOARD LN, ENID, OK, 73703",154080771,"L"
84010,"1705 C INDUSTRIAL DR","JEFFERSON CITY","MO",65109,38.585257982,-92.196365779,10,"1705 C INDUSTRIAL DR, JEFFERSON CITY, MO, 65109","Match","Exact","1705 INDUSTRIAL DR, JEFFERSON CITY, MO, 65109",34423401,"L"
84011,"1705 CARDIAC COVE RD","GROVE","OK",74344,36.5806971850001,-94.797873204,11,"1705 CARDIAC COVE RD, GROVE, OK, 74344","Match","Exact","1705 CARDIAC COVE RD, GROVE, OK, 74344",627440444,"R"
84012,"1705 CARRIAGE LAMP COURT","SEVERN","MD",21144,39.1285438100001,-76.710098423,12,"1705 CARRIAGE LAMP COURT, SEVERN, MD, 21144","Match","Exact","1705 CARRIAGE LAMP CT, SEVERN, MD, 21144",68211400,"L"
84013,"1705 CHESTNUT STREET","WILMINGTON","NC",28405,34.2392934750001,-77.927700248,13,"1705 CHESTNUT STREET, WILMINGTON, NC, 28405","Match","Exact","1705 CHESTNUT ST, WILMINGTON, NC, 28405",152731248,"L"
84014,"1705 CHURCH AVE","BROOKLYN","NY",11203,40.6491193780001,-73.9639091,14,"1705 CHURCH AVE, BROOKLYN, NY, 11203","Match","Non_Exact","1705 CHURCH AVE, BROOKLYN, NY, 11226",59102394,"L"
84015,"1705 CHURCH AVE","BROOKLYN","NY",11226,40.6491193780001,-73.9639091,15,"1705 CHURCH AVE, BROOKLYN, NY, 11226","Match","Exact","1705 CHURCH AVE, BROOKLYN, NY, 11226",59102394,"L"
84016,"1705 COLLEGE STREET SUITE 650","COLUMBIA","SC",29208,33.9998116140001,-81.02307587,16,"1705 COLLEGE STREET SUITE 650, COLUMBIA, SC, 29208","Match","Non_Exact","1705 COLLEGE ST, COLUMBIA, SC, 29201",71821669,"L"
84017,"1705 CREST VIEW DRIVE","GRAND JUNCTION","CO",81506,39.0989350770001,-108.544801479,17,"1705 CREST VIEW DRIVE, GRAND JUNCTION, CO, 81506","Match","Exact","1705 CREST VIEW DR, GRAND JCT, CO, 81506",639954548,"R"
84018,"1705 CUMBERLAND DRIVE","ROCKINGHAM","VA",22801,38.38899866,-78.850445473,18,"1705 CUMBERLAND DRIVE, ROCKINGHAM, VA, 22801","Match","Exact","1705 CUMBERLAND DR, ROCKINGHAM, VA, 22801",215299085,"L"
84019,"1705 DOUGLAS AVE","RACINE","WI",53402,42.7429152820001,-87.7955053859999,19,"1705 DOUGLAS AVE, RACINE, WI, 53402","Match","Non_Exact","1705 DOUGLAS AVE, RACINE, WI, 53404",77909848,"R"
84020,"1705 E 9TH ST","WASHINGTON","MO",63090,38.5440524410001,-90.9921086099999,20,"1705 E 9TH ST, WASHINGTON, MO, 63090","Match","Exact","1705 E 9TH ST, WASHINGTON, MO, 63090",99755142,"R"
84021,"1705 E ADAMS ST","JACKSONVILLE","FL",32202,30.3219717710001,-81.633085036,21,"1705 E ADAMS ST, JACKSONVILLE, FL, 32202","Match","Exact","1705 E ADAMS ST, JACKSONVILLE, FL, 32202",639972097,"L"
84022,"1705 E CHASE STREET","BALTIMORE","MD",21213,39.303266539,-76.5940848449999,22,"1705 E CHASE STREET, BALTIMORE, MD, 21213","Match","Exact","1705 E CHASE ST, BALTIMORE, MD, 21213",646504298,"R"
84023,"1705 E HARRISON ST","SEATTLE","WA",98112,47.622064203,-122.309883702,23,"1705 E HARRISON ST, SEATTLE, WA, 98112","Match","Exact","1705 E HARRISON ST, SEATTLE, WA, 98112",186587630,"R"
84024,"1705 EAGLE GLEN PASS","GUNTER","TX",75058,33.4312440580001,-96.714008002,24,"1705 EAGLE GLEN PASS, GUNTER, TX, 75058","Match","Exact","1705 EAGLE GLEN PASS, GUNTER, TX, 75058",636984596,"R"
84025,"1705 EAST 36TH ST","TULSA","OK",74105,36.111534991,-95.9668803879999,25,"1705 EAST 36TH ST, TULSA, OK, 74105","Match","Exact","1705 E 36TH ST, TULSA, OK, 74105",166443331,"L"
84026,"1705 EAST 7TH","JOPLIN","MO",64801,37.083860084,-94.496195341,26,"1705 EAST 7TH, JOPLIN, MO, 64801","Match","Non_Exact","1705 E 7TH ST, JOPLIN, MO, 64801",66149125,"L"
84027,"1705 EAST NEWPORT PIKE","WILMINGTON","DE",19804,39.715786269,-75.604188413,27,"1705 EAST NEWPORT PIKE, WILMINGTON, DE, 19804","Match","Exact","1705 E NEWPORT PIKE, WILMINGTON, DE, 19804",187297642,"R"
84028,"1705 EAST-WEST HIGHWAY","SILVER SPRING","MD",20901,NA,NA,28,"1705 EAST-WEST HIGHWAY, SILVER SPRING, MD, 20901","No_Match",NA,NA,NA,NA
84029,"1705 FM 2851","BROADDUS","TX",75929,NA,NA,29,"1705 FM 2851, BROADDUS, TX, 75929","No_Match",NA,NA,NA,NA
84030,"1705 FORESTDALE DR","WILMINGTON","DE",19803,39.784946555,-75.5321208679999,30,"1705 FORESTDALE DR, WILMINGTON, DE, 19803","Match","Non_Exact","1705 FORESTDALE RD, WILMINGTON, DE, 19803",187256492,"R"
84031,"1705 GRANGER AVE","LOS ALTOS","CA",94024,37.3506274910001,-122.085345551,31,"1705 GRANGER AVE, LOS ALTOS, CA, 94024","Match","Exact","1705 GRANGER AVE, LOS ALTOS, CA, 94024",640267239,"L"
84032,"1705 HAYWOOD ROAD 1ST FLOOR","PERKIOMENVILLE","PA",18074,40.319224783,-75.483776362,32,"1705 HAYWOOD ROAD 1ST FLOOR, PERKIOMENVILLE, PA, 18074","Match","Exact","1705 HAYWOOD RD, PERKIOMENVILLE, PA, 18074",135064944,"L"
84033,"1705 HIGHWAY 138SE SUITE 81502","CONYERS","GA",30013,NA,NA,33,"1705 HIGHWAY 138SE SUITE 81502, CONYERS, GA, 30013","No_Match",NA,NA,NA,NA
84034,"1705 HONEYSUCKLE DRIVE","WAGONER","OK",74467,35.979233892,-95.3736456139999,34,"1705 HONEYSUCKLE DRIVE, WAGONER, OK, 74467","Match","Exact","1705 HONEYSUCKLE DR, WAGONER, OK, 74467",83177583,"L"
84035,"1705 HOSTA","CONWAY","AR",72034,35.053929436,-92.4664314409999,35,"1705 HOSTA, CONWAY, AR, 72034","Match","Exact","1705 HOSTA, CONWAY, AR, 72034",141071866,"R"
84036,"1705 HWY 138 SE  80146","CONYERS","GA",30013,NA,NA,36,"1705 HWY 138 SE  80146, CONYERS, GA, 30013","No_Match",NA,NA,NA,NA
84037,"1705 HWY 138 SE BOX 83403","COVINGTON","GA",30013,NA,NA,37,"1705 HWY 138 SE BOX 83403, COVINGTON, GA, 30013","No_Match",NA,NA,NA,NA
84038,"1705 HWY 138 SE","CONYERS","GA",30013,NA,NA,38,"1705 HWY 138 SE, CONYERS, GA, 30013","No_Match",NA,NA,NA,NA
84039,"1705 HWY 59 SUITE 11","MANDEVILLE","LA",70448,NA,NA,39,"1705 HWY 59 SUITE 11, MANDEVILLE, LA, 70448","No_Match",NA,NA,NA,NA
84040,"1705 JOHNSON AVE","ANDERSON","IN",46016,40.099620965,-85.665198907,40,"1705 JOHNSON AVE, ANDERSON, IN, 46016","Match","Exact","1705 JOHNSON AVE, ANDERSON, IN, 46016",31125061,"R"
84041,"1705 JOY RD","SAGINAW","MI",48601,43.3972375650001,-83.881433123,41,"1705 JOY RD, SAGINAW, MI, 48601","Match","Exact","1705 JOY RD, SAGINAW, MI, 48601",80217103,"L"
84042,"1705 JULIA STREET","NEW IBERIA","LA",70560,29.990369802,-91.837236474,42,"1705 JULIA STREET, NEW IBERIA, LA, 70560","Match","Exact","1705 JULIA ST, NEW IBERIA, LA, 70560",85355276,"R"
84043,"1705 KILBURN AVE","ROCKFORD","IL",61101,42.291211656,-89.10421636,43,"1705 KILBURN AVE, ROCKFORD, IL, 61101","Match","Exact","1705 KILBURN AVE, ROCKFORD, IL, 61101",49250827,"R"
84044,"1705 LAKE MAUREPAS DRIVE","HARVEY","LA",70058,29.860462845,-90.042169829,44,"1705 LAKE MAUREPAS DRIVE, HARVEY, LA, 70058","Match","Exact","1705 LAKE MAUREPAS DR, HARVEY, LA, 70058",93544092,"L"
84045,"1705 LAKE SHORE CREST DRIVE APT 14","RESTON","VA",20190,38.9647200840001,-77.364104364,45,"1705 LAKE SHORE CREST DRIVE APT 14, RESTON, VA, 20190","Match","Exact","1705 LAKE SHORE CREST DR, RESTON, VA, 20190",76035590,"R"
84046,"1705 LINCOLN STREET","GREENSBORO","NC",27401,36.0512034650001,-79.7657340979999,46,"1705 LINCOLN STREET, GREENSBORO, NC, 27401","Match","Exact","1705 LINCOLN ST, GREENSBORO, NC, 27401",131036127,"L"
84047,"1705 LINDEN BLVD BROOKLYN","NEW YORK","NY",11212,40.657313054,-73.899735091,47,"1705 LINDEN BLVD BROOKLYN, NEW YORK, NY, 11212","Match","Non_Exact","1705 LINDEN BLVD, BROOKLYN, NY, 11212",59098153,"L"
84048,"1705 LOWRY AVENUE NE","MINNEAPOLIS","MN",55418,45.0131968790001,-93.235734077,48,"1705 LOWRY AVENUE NE, MINNEAPOLIS, MN, 55418","Match","Exact","1705 LOWRY AVE NE, MINNEAPOLIS, MN, 55418",43637504,"L"
84049,"1705 MARK AVE","ELGIN","IL",60123,42.0568436240001,-88.320058925,49,"1705 MARK AVE, ELGIN, IL, 60123","Match","Exact","1705 MARK AVE, ELGIN, IL, 60123",119501068,"L"
84050,"1705 MILL STREET","CAMDEN","SC",29020,34.2577049290001,-80.59999486,50,"1705 MILL STREET, CAMDEN, SC, 29020","Match","Exact","1705 MILL ST, CAMDEN, SC, 29020",78470462,"L"
84051,"1705 N NAGLE","CHICAGO","IL",60707,41.9111453260001,-87.786685689,51,"1705 N NAGLE, CHICAGO, IL, 60707","Match","Non_Exact","1705 N NAGLE AVE, CHICAGO, IL, 60707",111752531,"R"
84052,"1705 NE 20 AVE","FORT LAUDERDALE","FL",33305,26.150055885,-80.121072122,52,"1705 NE 20 AVE, FORT LAUDERDALE, FL, 33305","Match","Exact","1705 NE 20TH AVE, FORT LAUDERDALE, FL, 33305",114725450,"L"
84053,"1705 NORTH GREENVILLE NUMBER 256","RICHARDSON","TX",75081,32.97149575,-96.716392301,53,"1705 NORTH GREENVILLE NUMBER 256, RICHARDSON, TX, 75081","Match","Non_Exact","1705 N GREENVILLE AVE, RICHARDSON, TX, 75081",648244379,"L"
84054,"1705 NORTH WOODLAWN AVENUE","SAINT LOUIS","MO",63124,38.6141953110001,-90.396461932,54,"1705 NORTH WOODLAWN AVENUE, SAINT LOUIS, MO, 63124","Match","Exact","1705 N WOODLAWN AVE, SAINT LOUIS, MO, 63124",604536687,"L"
84055,"1705 OLIVER AVE","INDIANAPOLIS","IN",46221,39.758429548,-86.191480234,55,"1705 OLIVER AVE, INDIANAPOLIS, IN, 46221","Match","Exact","1705 OLIVER AVE, INDIANAPOLIS, IN, 46221",107988004,"L"
84056,"1705 OREGON PIKE","LANCASTER","PA",17601,40.068534255,-76.302936205,56,"1705 OREGON PIKE, LANCASTER, PA, 17601","Match","Exact","1705 OREGON PIKE, LANCASTER, PA, 17601",179714573,"R"
84057,"1705 OREGON STREET","HIAWATHA","KS",66434,39.8519203020001,-95.5541687369999,57,"1705 OREGON STREET, HIAWATHA, KS, 66434","Match","Exact","1705 OREGON ST, HIAWATHA, KS, 66434",9769441,"R"
84058,"1705 PANTEGO TRAIL","CARY","NC",27519,35.8192311650001,-78.880990304,58,"1705 PANTEGO TRAIL, CARY, NC, 27519","Match","Exact","1705 PANTEGO TRL, CARY, NC, 27519",648950709,"L"
84059,"1705 PASEO LA CRESTA","PALS VERDES ESTATES","CA",90274,33.7819023110001,-118.395122469,59,"1705 PASEO LA CRESTA, PALS VERDES ESTATES, CA, 90274","Match","Non_Exact","1705 PSO LA CRESTA, PALOS VERDES ESTATES, CA, 90274",142722880,"R"
84060,"1705 PURDY  STREET 7H","BRONX","NY",10462,40.8408057460001,-73.854274801,60,"1705 PURDY  STREET 7H, BRONX, NY, 10462","Match","Exact","1705 PURDY ST, BRONX, NY, 10462",80305394,"L"
84061,"1705 RACCOON ROAD","MAYESVILLE","SC",29104,34.0618602340001,-80.273097515,61,"1705 RACCOON ROAD, MAYESVILLE, SC, 29104","Match","Exact","1705 RACCOON RD, MAYESVILLE, SC, 29104",79600104,"R"
84062,"1705 REDWOOD LANE","DAVIS","CA",95616,38.559003966,-121.753640214,62,"1705 REDWOOD LANE, DAVIS, CA, 95616","Match","Exact","1705 REDWOOD LN, DAVIS, CA, 95616",67696196,"L"
84063,"1705 RHODE ISLAND AVENUE","LYNN HAVEN","FL",32444,30.2330709550001,-85.6659776719999,63,"1705 RHODE ISLAND AVENUE, LYNN HAVEN, FL, 32444","Match","Exact","1705 RHODE ISLAND AVE, LYNN HAVEN, FL, 32444",7076868,"R"
84064,"1705 RICHARDSON LN","BAYTOWN","TX",77520,29.739715732,-94.9482856179999,64,"1705 RICHARDSON LN, BAYTOWN, TX, 77520","Match","Non_Exact","1705 RICHARDSON ST, BAYTOWN, TX, 77520",96111378,"L"
84065,"1705 RIDGE VIEW DR","COLTON","CA",92324,NA,NA,65,"1705 RIDGE VIEW DR, COLTON, CA, 92324","No_Match",NA,NA,NA,NA
84066,"1705 S LA LONDE AVE","LOMBARD","IL",60148,41.8514468980001,-88.006378441,66,"1705 S LA LONDE AVE, LOMBARD, IL, 60148","Match","Exact","1705 LA LONDE AVE, LOMBARD, IL, 60148",112674904,"L"
84067,"1705 S MAIN STREET","JOPLIN","MO",64804,37.0729571210001,-94.5139771139999,67,"1705 S MAIN STREET, JOPLIN, MO, 64804","Match","Exact","1705 S MAIN ST, JOPLIN, MO, 64804",66148693,"L"
84068,"1705 S SPRUCE ST","CASPER","WY",82604,42.8333056910001,-106.331914502,68,"1705 S SPRUCE ST, CASPER, WY, 82604","Match","Non_Exact","1705 S SPRUCE ST, CASPER, WY, 82601",635544070,"L"
84069,"1705 S WASHINGTON ST","CLINTON","MO",64735,38.35220345,-93.779313792,69,"1705 S WASHINGTON ST, CLINTON, MO, 64735","Match","Exact","1705 WASHINGTON ST, CLINTON, MO, 64735",44945131,"R"
84070,"1705 SATTERFIELD DRIVE","EMPORIA","VA",23847,36.7133512450001,-77.5643108739999,70,"1705 SATTERFIELD DRIVE, EMPORIA, VA, 23847","Match","Exact","1705 SATTERFIELD DR, EMPORIA, VA, 23847",54232033,"L"
84071,"1705 SE CUTTER LANE","VANCOUVER","WA",98661,45.6170736280001,-122.653140596,71,"1705 SE CUTTER LANE, VANCOUVER, WA, 98661","Match","Exact","1705 SE CUTTER LN, VANCOUVER, WA, 98661",158369620,"R"
84072,"1705 SECOND STREET","EARLE","AR",72331,35.270721646,-90.4758719279999,72,"1705 SECOND STREET, EARLE, AR, 72331","Match","Exact","1705 2ND ST, EARLE, AR, 72331",69381660,"L"
84073,"1705 SHADY GLEN DRIVE APT 2220","ARLINGTON","TX",76015,32.689613851,-97.135032947,73,"1705 SHADY GLEN DRIVE APT 2220, ARLINGTON, TX, 76015","Match","Exact","1705 SHADY GLEN DR, ARLINGTON, TX, 76015",102111846,"L"
84074,"1705 SHALLOW CREEK TRAIL","WEBSTER","NY",14580,43.237997185,-77.397357899,74,"1705 SHALLOW CREEK TRAIL, WEBSTER, NY, 14580","Match","Exact","1705 SHALLOW CREEK TRL, WEBSTER, NY, 14580",625723178,"L"
84075,"1705 SUMMIT AVE 301","SEATTLE","WA",98122,47.6164976220001,-122.325554454,75,"1705 SUMMIT AVE 301, SEATTLE, WA, 98122","Match","Exact","1705 SUMMIT AVE, SEATTLE, WA, 98122",186584260,"L"
84076,"1705 TAPPAHANNOCK TRAIL","MARIETTA","GA",30062,33.9884062960001,-84.501393349,76,"1705 TAPPAHANNOCK TRAIL, MARIETTA, GA, 30062","Match","Exact","1705 TAPPAHANNOCK TRL, MARIETTA, GA, 30062",645584954,"L"
84077,"1705 TOWNSEND LANE","ROCK HILL","SC",29730,34.931780114,-80.98076714,77,"1705 TOWNSEND LANE, ROCK HILL, SC, 29730","Match","Exact","1705 TOWNSEND LN, ROCK HILL, SC, 29730",19840233,"L"
84078,"1705 VALDOSTA DRIVE","CINCINNATI","OH",45246,39.2965537640001,-84.4433793429999,78,"1705 VALDOSTA DRIVE, CINCINNATI, OH, 45246","Match","Exact","1705 VALDOSTA DR, CINCINNATI, OH, 45246",103944431,"R"
84079,"1705 VALLEY FALLS AVE","REDLANDS","CA",92374,34.0740851250001,-117.142658554,79,"1705 VALLEY FALLS AVE, REDLANDS, CA, 92374","Match","Exact","1705 VALLEY FALLS AVE, REDLANDS, CA, 92374",614813372,"L"
84080,"1705 VALLEY HIGH DRIVE","CEDAR FALLS","IA",50613,42.5017238240001,-92.4253821199999,80,"1705 VALLEY HIGH DRIVE, CEDAR FALLS, IA, 50613","Match","Exact","1705 VALLEY HIGH DR, CEDAR FALLS, IA, 50613",77275252,"R"
84081,"1705 VINSETTA BLVD","ROYAL OAK","MI",48067,42.5031701660001,-83.1614830679999,81,"1705 VINSETTA BLVD, ROYAL OAK, MI, 48067","Match","Exact","1705 VINSETTA BLVD, ROYAL OAK, MI, 48067",639606154,"L"
84082,"1705 W FAYETTE ST","BALTIMORE","MD",21223,39.289596562,-76.6439630519999,82,"1705 W FAYETTE ST, BALTIMORE, MD, 21223","Match","Exact","1705 W FAYETTE ST, BALTIMORE, MD, 21223",206417505,"L"
84083,"1705 W GRANDVIEW DRIVE","KNOXVILLE","IA",50138,41.330530283,-93.115153554,83,"1705 W GRANDVIEW DRIVE, KNOXVILLE, IA, 50138","Match","Exact","1705 W GRANDVIEW DR, KNOXVILLE, IA, 50138",89479249,"L"
84084,"1705 W MISSOURI AVE","MIDLAND","TX",79701,31.9938821280001,-102.092167244,84,"1705 W MISSOURI AVE, MIDLAND, TX, 79701","Match","Exact","1705 W MISSOURI AVE, MIDLAND, TX, 79701",139583054,"L"
84085,"1705 W SYCAMORE ST","DENTON","TX",76201,33.2126699510001,-97.151008734,85,"1705 W SYCAMORE ST, DENTON, TX, 76201","Match","Non_Exact","1705 W SYCAMORE ST, DENTON, TX, 76203",103338702,"R"
84086,"1705 WALSH DRIVE","ROUND ROCK","TX",78681,30.5260853620001,-97.74494186,86,"1705 WALSH DRIVE, ROUND ROCK, TX, 78681","Match","Exact","1705 WALSH DR, ROUND ROCK, TX, 78681",648569998,"R"
84087,"1705 WEST COWING DRIVE","MUNCIE","IN",47304,40.213708373,-85.405937299,87,"1705 WEST COWING DRIVE, MUNCIE, IN, 47304","Match","Exact","1705 W COWING DR, MUNCIE, IN, 47304",30834318,"L"
84088,"1705 WHITTINGTON DRIVE","RALEIGH","NC",27614,35.9202650940001,-78.5802544969999,88,"1705 WHITTINGTON DRIVE, RALEIGH, NC, 27614","Match","Exact","1705 WHITTINGTON DR, RALEIGH, NC, 27614",72648066,"L"
84089,"1705 WILLIAMSON RD STE 101","GRIFFIN","GA",30224,33.223186695,-84.3036415289999,89,"1705 WILLIAMSON RD STE 101, GRIFFIN, GA, 30224","Match","Exact","1705 WILLIAMSON RD, GRIFFIN, GA, 30224",23761572,"L"
84090,"1705","ALBERT LEA","MN",56007,NA,NA,90,"1705, ALBERT LEA, MN, 56007","No_Match",NA,NA,NA,NA
84091,"17050 CLAYTON RD","WILDWOOD","MO",63011,38.5983276520001,-90.6325172689999,91,"17050 CLAYTON RD, WILDWOOD, MO, 63011","Match","Exact","17050 CLAYTON RD, WILDWOOD, MO, 63011",628731226,"L"
84092,"17050 HERMOSA RD","SUNRIVER","OR",97707,43.851657781,-121.473173473,92,"17050 HERMOSA RD, SUNRIVER, OR, 97707","Match","Exact","17050 HERMOSA RD, SUNRIVER, OR, 97707",152531576,"L"
84093,"17050 IMPERIAL VALLEY DR NO 284","HOUSTON","TX",77060,29.9464955180001,-95.396502965,93,"17050 IMPERIAL VALLEY DR NO 284, HOUSTON, TX, 77060","Match","Non_Exact","17050 IMPERIAL VALLEY DR, HOUSTON, TX, 77060",96656510,"R"
84094,"17050 S PARK AVE STE  103","SOUTH HOLLAND","IL",60473,41.58601559,-87.607329454,94,"17050 S PARK AVE STE  103, SOUTH HOLLAND, IL, 60473","Match","Non_Exact","17050 S PARK AVE, SOUTH HOLLAND, IL, 60473",111778936,"R"
84095,"17050 S PEYTON HIGHWAY","CALHAN","CO",80906,NA,NA,95,"17050 S PEYTON HIGHWAY, CALHAN, CO, 80906","No_Match",NA,NA,NA,NA
84096,"17050 SOUTH PARK AVE","SOUTH HOLLAND","IL",60473,41.586019767,-87.607329506,96,"17050 SOUTH PARK AVE, SOUTH HOLLAND, IL, 60473","Match","Exact","17050 S PARK AVE, SOUTH HOLLAND, IL, 60473",111778936,"R"
84097,"17051 DREXEL ST","OMAHA","NE",68135,41.192535725,-96.180015426,97,"17051 DREXEL ST, OMAHA, NE, 68135","Match","Exact","17051 DREXEL ST, OMAHA, NE, 68135",117011560,"L"
84098,"17051 NUMA PL","PARKER","CO",80134,39.520642685,-104.78851197,98,"17051 NUMA PL, PARKER, CO, 80134","Match","Exact","17051 NUMA PL, PARKER, CO, 80134",130822323,"L"
84099,"17053 SHERWOOD AVENUE","OMAHA","NE",68116,41.281567098,-96.181187328,99,"17053 SHERWOOD AVENUE, OMAHA, NE, 68116","Match","Exact","17053 SHERWOOD AVE, OMAHA, NE, 68116",624470773,"R"
84100,"17055 COUNTY ROAD 1520","ADA","OK",74820,34.8106153430001,-96.651423682,100,"17055 COUNTY ROAD 1520, ADA, OK, 74820","Match","Exact","17055 CO RD 1520, ADA, OK, 74820",606942115,"R"
84101,"17055 SW ELDORADO DR","TIGARD","OR",97224,45.396866742,-122.806561466,101,"17055 SW ELDORADO DR, TIGARD, OR, 97224","Match","Exact","17055 SW ELDORADO DR, TIGARD, OR, 97224",158201316,"R"
84102,"17056 BULGER AVENUE","HAZEL CREST","IL",60429,41.579645585,-87.667914115,102,"17056 BULGER AVENUE, HAZEL CREST, IL, 60429","Match","Exact","17056 BULGER AVE, HAZEL CREST, IL, 60429",605709405,"R"
84103,"17056 CANVAS ST","CANYON COUNTRY","CA",91387,34.4259657630001,-118.43375256,103,"17056 CANVAS ST, CANYON COUNTRY, CA, 91387","Match","Exact","17056 CANVAS ST, CANYON COUNTRY, CA, 91387",640421566,"L"
84104,"17056 KENWOOD AVE","SOUTH HOLLAND","IL",60473,41.585250122,-87.585615919,104,"17056 KENWOOD AVE, SOUTH HOLLAND, IL, 60473","Match","Exact","17056 KENWOOD AVE, SOUTH HOLLAND, IL, 60473",111780838,"R"
84105,"17059 KENWOOD AVE","SOUTH HOLLAN","IL",60473,41.58522743,-87.585601068,105,"17059 KENWOOD AVE, SOUTH HOLLAN, IL, 60473","Match","Non_Exact","17059 KENWOOD AVE, SOUTH HOLLAND, IL, 60473",111780838,"L"
84106,"17059 MCGUFFIE RD","SALINAS","CA",93907,36.7919504020001,-121.680432548,106,"17059 MCGUFFIE RD, SALINAS, CA, 93907","Match","Exact","17059 MCGUFFIE RD, SALINAS, CA, 93907",196870385,"R"
84107,"1706 11TH STREET","GREENSBORO","NC",27401,36.1028632740001,-79.761541484,107,"1706 11TH STREET, GREENSBORO, NC, 27401","Match","Non_Exact","1706 11TH ST, GREENSBORO, NC, 27405",131034748,"R"
84108,"1706 68TH ST W","BRADENTON","FL",34209,27.4842652040001,-82.629726394,108,"1706 68TH ST W, BRADENTON, FL, 34209","Match","Exact","1706 68TH ST W, BRADENTON, FL, 34209",16232820,"R"
84109,"1706 AVE M","BROOKLYN","NY",11230,40.6182292600001,-73.9580159779999,109,"1706 AVE M, BROOKLYN, NY, 11230","Match","Exact","1706 AVE M, BROOKLYN, NY, 11230",59089962,"R"
84110,"1706 BARTONCLIFF DRIVE","AUSTIN","TX",78704,30.2611472360001,-97.782318571,110,"1706 BARTONCLIFF DRIVE, AUSTIN, TX, 78704","Match","Exact","1706 BARTONCLIFF DR, AUSTIN, TX, 78704",63941679,"R"
84111,"1706 BRAWNE AVE NW","OLYMPIA","WA",98502,47.052819621,-122.92181163,111,"1706 BRAWNE AVE NW, OLYMPIA, WA, 98502","Match","Exact","1706 BRAWNE AVE NW, OLYMPIA, WA, 98502",180943003,"R"
84112,"1706 BRENTWOOD LANE","WHEATON","IL",60189,41.8366371910001,-88.083404054,112,"1706 BRENTWOOD LANE, WHEATON, IL, 60189","Match","Exact","1706 BRENTWOOD LN, WHEATON, IL, 60189",112530424,"R"
84113,"1706 BROOKDALE DRIVE","ATCHISON","KS",66002,39.5865836200001,-95.150266831,113,"1706 BROOKDALE DRIVE, ATCHISON, KS, 66002","Match","Exact","1706 BROOKDALE DR, ATCHISON, KS, 66002",10066641,"R"
84114,"1706 BUSHMAN APT 110","KANSAS CITY","MO",64110,NA,NA,114,"1706 BUSHMAN APT 110, KANSAS CITY, MO, 64110","No_Match",NA,NA,NA,NA
84115,"1706 COUNTRY LANE","QUAKERTOWN","PA",18951,40.4794722980001,-75.244949237,115,"1706 COUNTRY LANE, QUAKERTOWN, PA, 18951","Match","Exact","1706 COUNTRY LN, QUAKERTOWN, PA, 18951",134698512,"L"
84116,"1706 CROSS SPRING LANE","LEAGUE CITY","TX",77573,29.480903282,-95.110062972,116,"1706 CROSS SPRING LANE, LEAGUE CITY, TX, 77573","Match","Exact","1706 CROSS SPRING LN, LEAGUE CITY, TX, 77573",624593585,"L"
84117,"1706 CURTIS DRIVE","GARLAND","TX",75040,32.897227629,-96.619915337,117,"1706 CURTIS DRIVE, GARLAND, TX, 75040","Match","Exact","1706 CURTIS DR, GARLAND, TX, 75040",102928099,"L"
84118,"1706 DEMPSEY MAYO ROAD","TALLAHASSEE","FL",32308,30.476345773,-84.210265356,118,"1706 DEMPSEY MAYO ROAD, TALLAHASSEE, FL, 32308","Match","Exact","1706 DEMPSEY MAYO RD, TALLAHASSEE, FL, 32308",82855038,"L"
84119,"1706 DEPAUW AVE","ORLANDO","FL",32804,28.5658416420001,-81.379213964,119,"1706 DEPAUW AVE, ORLANDO, FL, 32804","Match","Exact","1706 DEPAUW AVE, ORLANDO, FL, 32804",94281655,"L"
84120,"1706 DUKE STREET","GEORGETOWN","SC",29440,33.3770320520001,-79.291659243,120,"1706 DUKE STREET, GEORGETOWN, SC, 29440","Match","Exact","1706 DUKE ST, GEORGETOWN, SC, 29440",28961139,"R"
84121,"1706 E SEMORAN BLVD SUITE 102B","APOPKA","FL",32703,NA,NA,121,"1706 E SEMORAN BLVD SUITE 102B, APOPKA, FL, 32703","No_Match",NA,NA,NA,NA
84122,"1706 E SYCAMORE AVENUE","NORFOLK","NE",68701,42.0434539350001,-97.381307239,122,"1706 E SYCAMORE AVENUE, NORFOLK, NE, 68701","Match","Exact","1706 E SYCAMORE AVE, NORFOLK, NE, 68701",647882658,"R"
84123,"1706 EAST 50TH STREET","SAVANNAH","GA",31404,32.040159153,-81.076819292,123,"1706 EAST 50TH STREET, SAVANNAH, GA, 31404","Match","Exact","1706 E 50TH ST, SAVANNAH, GA, 31404",6178691,"L"
84124,"1706 EGLESTON AVE","KALAMAZOO","MI",49001,42.2764262680001,-85.559181198,124,"1706 EGLESTON AVE, KALAMAZOO, MI, 49001","Match","Exact","1706 EGLESTON AVE, KALAMAZOO, MI, 49001",12230265,"R"
84125,"1706 FLOYD AVENUE","RICHMOND","VA",23220,37.5490752700001,-77.461691932,125,"1706 FLOYD AVENUE, RICHMOND, VA, 23220","Match","Exact","1706 FLOYD AVE, RICHMOND, VA, 23220",201538662,"R"
84126,"1706 GARNERS CREEK RD","DICKSON","TN",37055,36.053173766,-87.534844956,126,"1706 GARNERS CREEK RD, DICKSON, TN, 37055","Match","Exact","1706 GARNERS CREEK RD, DICKSON, TN, 37055",637214608,"L"
84127,"1706 GLEN KEITH BLVD APT D","TOWSON","MD",21286,39.3872917420001,-76.5725595489999,127,"1706 GLEN KEITH BLVD APT D, TOWSON, MD, 21286","Match","Exact","1706 GLEN KEITH BLVD, TOWSON, MD, 21286",191540012,"L"
84128,"1706 GRACE","VINTON","LA",70668,30.181514093,-93.584426378,128,"1706 GRACE, VINTON, LA, 70668","Match","Non_Exact","1706 GRACE AVE, VINTON, LA, 70668",640620545,"L"
84129,"1706 GRASSY KNOB RD","RUTHERFORDTON","NC",28139,35.4050286400001,-82.1748105569999,129,"1706 GRASSY KNOB RD, RUTHERFORDTON, NC, 28139","Match","Exact","1706 GRASSY KNOB RD, RUTHERFORDTON, NC, 28139",652169389,"L"
84130,"1706 HIGHWAY 51 S","COVINGTON","TN",38019,35.5413487860001,-89.667255627,130,"1706 HIGHWAY 51 S, COVINGTON, TN, 38019","Match","Non_Exact","1706 US HWY 51 S, COVINGTON, TN, 38019",608023858,"R"
84131,"1706 HILLSIDE LANE","MCHENRY","IL",60051,NA,NA,131,"1706 HILLSIDE LANE, MCHENRY, IL, 60051","No_Match",NA,NA,NA,NA
84132,"1706 HOLLAND DR","SOMERSET","NJ",8873,40.4496408750001,-74.5231771859999,132,"1706 HOLLAND DR, SOMERSET, NJ, 8873","Match","Exact","1706 HOLLAND DR, SOMERSET, NJ, 08873",59968524,"L"
84133,"1706 HWY 138 SUITE E","CONYERS","GA",30013,33.643540134,-84.014353017,133,"1706 HWY 138 SUITE E, CONYERS, GA, 30013","Match","Non_Exact","1706 STATE RTE 138, CONYERS, GA, 30013",23741107,"R"
84134,"1706 LAKE WINDS DR","MISSOURI CITY","TX",77459,29.5967590290001,-95.56994685,134,"1706 LAKE WINDS DR, MISSOURI CITY, TX, 77459","Match","Exact","1706 LAKE WINDS DR, MISSOURI CITY, TX, 77459",78297205,"L"
84135,"1706 LEXINGTON AVENUE","ALLEN","TX",75013,33.11342576,-96.717177576,135,"1706 LEXINGTON AVENUE, ALLEN, TX, 75013","Match","Exact","1706 LEXINGTON AVE, ALLEN, TX, 75013",627525055,"R"
84136,"1706 MAPLE ST","RACINE","WI",53404,42.726893988,-87.80179126,136,"1706 MAPLE ST, RACINE, WI, 53404","Match","Exact","1706 MAPLE ST, RACINE, WI, 53404",77909957,"R"
84137,"1706 MARIE LN","IRVING","TX",75060,32.797447656,-96.947819438,137,"1706 MARIE LN, IRVING, TX, 75060","Match","Exact","1706 MARIE LN, IRVING, TX, 75060",102892845,"L"
84138,"1706 N JUNIPER ST","TACOMA","WA",98406,47.265432977,-122.541162471,138,"1706 N JUNIPER ST, TACOMA, WA, 98406","Match","Exact","1706 JUNIPER ST, TACOMA, WA, 98406",184656850,"L"
84139,"1706 N MAYS ST","ROUND ROCK","TX",78664,30.5240571470001,-97.6859202799999,139,"1706 N MAYS ST, ROUND ROCK, TX, 78664","Match","Exact","1706 N MAYS ST, ROUND ROCK, TX, 78664",126423304,"L"
84140,"1706 N NAGLE AVE","CHICAGO","IL",60707,41.911177018,-87.786701121,140,"1706 N NAGLE AVE, CHICAGO, IL, 60707","Match","Exact","1706 N NAGLE AVE, CHICAGO, IL, 60707",111752531,"L"
84141,"1706 NANTUCKET COURT","PALM HARBOR","FL",34683,28.0541658080001,-82.7646196219999,141,"1706 NANTUCKET COURT, PALM HARBOR, FL, 34683","Match","Exact","1706 NANTUCKET CT, PALM HARBOR, FL, 34683",124734568,"L"
84142,"1706 OAK STREET COLUMBUS OHIO 43205","COLUMBUS","OH",43205,39.96223624,-82.9543730619999,142,"1706 OAK STREET COLUMBUS OHIO 43205, COLUMBUS, OH, 43205","Match","Exact","1706 OAK ST, COLUMBUS, OH, 43205",218649434,"L"
84143,"1706 OREGON AVENUE","STEUBENVILLE","OH",43952,40.371606936,-80.6325821139999,143,"1706 OREGON AVENUE, STEUBENVILLE, OH, 43952","Match","Exact","1706 OREGON AVE, STEUBENVILLE, OH, 43952",648849139,"L"
84144,"1706 PALACIO DRIVE","BAY POINT","CA",94565,38.0211365220001,-121.960934983,144,"1706 PALACIO DRIVE, BAY POINT, CA, 94565","Match","Exact","1706 PALACIO DR, BAY POINT, CA, 94565",645683384,"R"
84145,"1706 PALO ALTO AVE","LADY LAKE","FL",32159,28.9403116670001,-81.965043166,145,"1706 PALO ALTO AVE, LADY LAKE, FL, 32159","Match","Exact","1706 PALO ALTO AVE, LADY LAKE, FL, 32159",618384273,"R"
84146,"1706 PARKVIEW DR","MONROE","LA",71202,32.487739854,-92.0890155659999,146,"1706 PARKVIEW DR, MONROE, LA, 71202","Match","Exact","1706 PARKVIEW DR, MONROE, LA, 71202",612378095,"R"
84147,"1706 PENNROCK ROAD","WILMINGTON","DE",19809,39.7912959010001,-75.486567561,147,"1706 PENNROCK ROAD, WILMINGTON, DE, 19809","Match","Exact","1706 PENNROCK RD, WILMINGTON, DE, 19809",187260853,"R"
84148,"1706 PERRY COURT","PROSPECT","KY",40059,38.41299451,-85.615225176,148,"1706 PERRY COURT, PROSPECT, KY, 40059","Match","Exact","1706 PERRY CT, PROSPECT, KY, 40059",624264218,"R"
84149,"1706 POPLARS RD","YORK","PA",17408,39.988755632,-76.806270131,149,"1706 POPLARS RD, YORK, PA, 17408","Match","Exact","1706 POPLARS RD, YORK, PA, 17408",611418047,"L"
84150,"1706 PORT MANLEIGH CIRCLE","NEWPORT BEACH","CA",92660,33.621579683,-117.859744421,150,"1706 PORT MANLEIGH CIRCLE, NEWPORT BEACH, CA, 92660","Match","Exact","1706 PORT MANLEIGH CIR, NEWPORT BEACH, CA, 92660",144059108,"L"
84151,"1706 RAMBLER DR","WACO","TX",76710,31.528997625,-97.2077105549999,151,"1706 RAMBLER DR, WACO, TX, 76710","Match","Exact","1706 RAMBLER DR, WACO, TX, 76710",146741866,"L"
84152,"1706 S HAWKINS AVENUE","AKRON","OH",44320,41.063276543,-81.569731915,152,"1706 S HAWKINS AVENUE, AKRON, OH, 44320","Match","Exact","1706 S HAWKINS AVE, AKRON, OH, 44320",61338701,"R"
84153,"1706 S HWY 41","MULLINS","SC",29574,34.1722452600001,-79.250824312,153,"1706 S HWY 41, MULLINS, SC, 29574","Match","Exact","1706 S HWY 41, MULLINS, SC, 29574",28775321,"R"
84154,"1706 S STREET NW UNIT 1","WASHINGTON","DC",20009,38.91408821,-77.038876439,154,"1706 S STREET NW UNIT 1, WASHINGTON, DC, 20009","Match","Exact","1706 S ST NW, WASHINGTON, DC, 20009",76223107,"L"
84155,"1706 S SYCAMORE AVE","LOS ANGELES","CA",90019,34.044147568,-118.349512778,155,"1706 S SYCAMORE AVE, LOS ANGELES, CA, 90019","Match","Exact","1706 S SYCAMORE AVE, LOS ANGELES, CA, 90019",142729024,"L"
84156,"1706 S SYCAMORE AVENUE","LOS ANGELES","CA",90019,34.044147568,-118.349512778,156,"1706 S SYCAMORE AVENUE, LOS ANGELES, CA, 90019","Match","Exact","1706 S SYCAMORE AVE, LOS ANGELES, CA, 90019",142729024,"L"
84157,"1706 SE AUBURN BLACK DAIMOND RD","AUBURN","WA",98002,47.304243211,-122.20701626,157,"1706 SE AUBURN BLACK DAIMOND RD, AUBURN, WA, 98002","Match","Non_Exact","1706 SE AUBURN-BLACK DIAMOND RD, AUBURN, WA, 98002",187015964,"R"
84158,"1706 SILVER STREET","JACKSONVILLE","FL",32206,30.344852529,-81.657208333,158,"1706 SILVER STREET, JACKSONVILLE, FL, 32206","Match","Exact","1706 SILVER ST, JACKSONVILLE, FL, 32206",83898930,"L"
84159,"1706 SIMMS","CONWAY","AR",72034,35.083498917,-92.44704011,159,"1706 SIMMS, CONWAY, AR, 72034","Match","Non_Exact","1706 SIMMS ST, CONWAY, AR, 72034",141044318,"R"
84160,"1706 SOLOMON RD","CHARLOTTESVILLE","VA",22901,38.064541359,-78.500960236,160,"1706 SOLOMON RD, CHARLOTTESVILLE, VA, 22901","Match","Exact","1706 SOLOMON RD, CHARLOTTESVILLE, VA, 22901",632004087,"L"
84161,"1706 SOUTH 21ST ST","PARSONS","KS",67357,37.3236695620001,-95.267444268,161,"1706 SOUTH 21ST ST, PARSONS, KS, 67357","Match","Exact","1706 S 21ST ST, PARSONS, KS, 67357",13743375,"R"
84162,"1706 SOUTH 9TH STREET","MONROE","LA",71202,32.4866816160001,-92.0920244279999,162,"1706 SOUTH 9TH STREET, MONROE, LA, 71202","Match","Exact","1706 S 9TH ST, MONROE, LA, 71202",612377761,"R"
84163,"1706 SW 35TH PLACE","GAINESVILLE","FL",32608,29.6204275920001,-82.3463962719999,163,"1706 SW 35TH PLACE, GAINESVILLE, FL, 32608","Match","Non_Exact","1706 SW 35TH AVE, GAINESVILLE, FL, 32608",6807219,"R"
84164,"1706 THOUSAND OAKS CIR","AUSTIN","TX",78746,30.2663884340001,-97.805610616,164,"1706 THOUSAND OAKS CIR, AUSTIN, TX, 78746","Match","Exact","1706 THOUSAND OAKS CIR, AUSTIN, TX, 78746",63938259,"R"
84165,"1706 TRUCKEE LANE","STOCKTON","CA",95206,37.9305182530001,-121.310432804,165,"1706 TRUCKEE LANE, STOCKTON, CA, 95206","Match","Exact","1706 TRUCKEE LN, STOCKTON, CA, 95206",133884146,"R"
84166,"1706 UNION STREET SUITE 302","BROOKLYN","NY",11213,40.667856639,-73.931868395,166,"1706 UNION STREET SUITE 302, BROOKLYN, NY, 11213","Match","Exact","1706 UNION ST, BROOKLYN, NY, 11213",59079784,"R"
84167,"1706 UNIV LN APT 607","COCOA","FL",32922,28.386386762,-80.7519074969999,167,"1706 UNIV LN APT 607, COCOA, FL, 32922","Match","Exact","1706 UNIVERSITY LN, COCOA, FL, 32922",627940356,"L"
84168,"1706 W 3RD PLACE","RUSSELLVILLE","AR",72801,35.277331432,-93.149951044,168,"1706 W 3RD PLACE, RUSSELLVILLE, AR, 72801","Match","Exact","1706 W 3RD PL, RUSSELLVILLE, AR, 72801",81881074,"R"
84169,"1706 WEST 7TH STREET","TEXARKANA","TX",75501,33.4232032360001,-94.061251426,169,"1706 WEST 7TH STREET, TEXARKANA, TX, 75501","Match","Exact","1706 W 7TH ST, TEXARKANA, TX, 75501",57669878,"R"
84170,"1706 WEST WALTON - PO BOX 1281","BENTONVILLE","AR",72712,NA,NA,170,"1706 WEST WALTON - PO BOX 1281, BENTONVILLE, AR, 72712","No_Match",NA,NA,NA,NA
84171,"1706 WILLOW DR","JUNEAU","AK",88901,NA,NA,171,"1706 WILLOW DR, JUNEAU, AK, 88901","Tie",NA,NA,NA,NA
84172,"1706 WOODHOME DRIVE","BEL AIR","MD",21015,39.511161105,-76.318096507,172,"1706 WOODHOME DRIVE, BEL AIR, MD, 21015","Match","Exact","1706 WOODHOME DR, BEL AIR, MD, 21015",191655195,"R"
84173,"17060 S HIGHLAND RIDGE DRIVE","VLG LOCH LOYD","MO",64012,NA,NA,173,"17060 S HIGHLAND RIDGE DRIVE, VLG LOCH LOYD, MO, 64012","Tie",NA,NA,NA,NA
84174,"17061 54TH STREET SE","KINDRED","ND",58051,46.6302347480001,-96.890079902,174,"17061 54TH STREET SE, KINDRED, ND, 58051","Match","Exact","17061 54TH ST SE, KINDRED, ND, 58051",649715874,"R"
84175,"17061 ACENA DRIVE","SAN DIEGO","CA",92128,33.0219636890001,-117.070454473,175,"17061 ACENA DRIVE, SAN DIEGO, CA, 92128","Match","Exact","17061 ACENA DR, SAN DIEGO, CA, 92128",195316015,"R"
84176,"17061 EMILE STREET NO 5","BOCA RATON","FL",33487,26.4182783270001,-80.1013442459999,176,"17061 EMILE STREET NO 5, BOCA RATON, FL, 33487","Match","Non_Exact","17061 EMILE ST, BOCA RATON, FL, 33487",640862344,"L"
84177,"17061 WATERFORD DRIVE","LANSING","IL",60438,NA,NA,177,"17061 WATERFORD DRIVE, LANSING, IL, 60438","No_Match",NA,NA,NA,NA
84178,"17062 HOSSTON RODESSA ROAD","RODESSA","LA",71069,32.9520494510001,-93.9609244,178,"17062 HOSSTON RODESSA ROAD, RODESSA, LA, 71069","Match","Non_Exact","17062 HOSSTON RODESSA RD N, RODESSA, LA, 71069",57443155,"R"
84179,"17063 EAST 10 MILE ROAD","EASTPOINTE","MI",48021,42.479727575,-82.945575811,179,"17063 EAST 10 MILE ROAD, EASTPOINTE, MI, 48021","Match","Exact","17063 E 10 MILE RD, EASTPOINTE, MI, 48021",110684649,"L"
84180,"17063 GREENLAWN HILLS CT","CHARLOTTE","NC",28213,35.302959086,-80.691448927,180,"17063 GREENLAWN HILLS CT, CHARLOTTE, NC, 28213","Match","Exact","17063 GREENLAWN HILLS CT, CHARLOTTE, NC, 28213",70563934,"L"
84181,"17063 W SOUTHAMPTON RD","SURPRISE","AZ",85374,33.641413732,-112.425432084,181,"17063 W SOUTHAMPTON RD, SURPRISE, AZ, 85374","Match","Non_Exact","17063 N SOUTHAMPTON RD, SURPRISE, AZ, 85374",243967339,"R"
84182,"17065 PINECREST DRIVE","ALLEN PARK","MI",48101,42.263380071,-83.221530446,182,"17065 PINECREST DRIVE, ALLEN PARK, MI, 48101","Match","Exact","17065 PINECREST DR, ALLEN PARK, MI, 48101",95724722,"R"
84183,"17069 ARENA WAY","RAMONA","CA",92065,33.024203072,-116.819288964,183,"17069 ARENA WAY, RAMONA, CA, 92065","Match","Exact","17069 ARENA WAY, RAMONA, CA, 92065",195729372,"L"
84184,"1706A W VICTORIA DR APT 3A","MT PROSPECT","IL",60055,NA,NA,184,"1706A W VICTORIA DR APT 3A, MT PROSPECT, IL, 60055","No_Match",NA,NA,NA,NA
84185,"1707 1/2 POST OAK BLVD PMB 273","HOUSTON","TX",77056,29.749966128,-95.461287135,185,"1707 1/2 POST OAK BLVD PMB 273, HOUSTON, TX, 77056","Match","Exact","1707 POST OAK BLVD, HOUSTON, TX, 77056",639189927,"L"
84186,"1707 1/2 POST OAK BLVD STE 208","HOUSTON","TX",77056,29.749966128,-95.461287135,186,"1707 1/2 POST OAK BLVD STE 208, HOUSTON, TX, 77056","Match","Exact","1707 POST OAK BLVD, HOUSTON, TX, 77056",639189927,"L"
84187,"1707 1/2 POST OAK BLVD UNIT 647","HOUSTON","TX",77056,29.749966128,-95.461287135,187,"1707 1/2 POST OAK BLVD UNIT 647, HOUSTON, TX, 77056","Match","Exact","1707 POST OAK BLVD, HOUSTON, TX, 77056",639189927,"L"
84188,"1707 1/2 POST OAK RD PMB 304","HOUSTON","TX",77056,29.749966128,-95.461287135,188,"1707 1/2 POST OAK RD PMB 304, HOUSTON, TX, 77056","Match","Non_Exact","1707 POST OAK BLVD, HOUSTON, TX, 77056",639189927,"L"
84189,"1707 16TH STREET","MOLINE","IL",61265,41.495543565,-90.513432552,189,"1707 16TH STREET, MOLINE, IL, 61265","Match","Exact","1707 16TH ST, MOLINE, IL, 61265",9212881,"R"
84190,"1707 17TH AVENUE SOUTH","SEATTLE","WA",98144,47.587861375,-122.310551057,190,"1707 17TH AVENUE SOUTH, SEATTLE, WA, 98144","Match","Exact","1707 17TH AVE S, SEATTLE, WA, 98144",186593605,"R"
84191,"1707 A ENTERPRISE DRIVE","BUFORD","GA",30047,34.100711495,-84.0064863549999,191,"1707 A ENTERPRISE DRIVE, BUFORD, GA, 30047","Match","Non_Exact","1707 ENTERPRISE DR, BUFORD, GA, 30518",88930107,"R"
84192,"1707 AGRICULTURE STREET","NEW ORLEANS","LA",70119,29.9871065310001,-90.070102538,192,"1707 AGRICULTURE STREET, NEW ORLEANS, LA, 70119","Match","Exact","1707 AGRICULTURE ST, NEW ORLEANS, LA, 70119",191709062,"L"
84193,"1707 ALISON ANN CT","PFLUGERVILLE","TX",78660,30.4738283020001,-97.589601277,193,"1707 ALISON ANN CT, PFLUGERVILLE, TX, 78660","Match","Exact","1707 ALISON ANN CT, PFLUGERVILLE, TX, 78660",601188048,"L"
84194,"1707 ALMOND CREEK NORTH TERRACE","RICHMOND","VA",23231,37.4987517870001,-77.384205881,194,"1707 ALMOND CREEK NORTH TERRACE, RICHMOND, VA, 23231","Match","Exact","1707 ALMOND CREEK NORTH TER, RICHMOND, VA, 23231",106665705,"L"
84195,"1707 ASHBROOK DRIVE","CINCINNATI","OH",45238,39.122369383,-84.5964099289999,195,"1707 ASHBROOK DRIVE, CINCINNATI, OH, 45238","Match","Exact","1707 ASHBROOK DR, CINCINNATI, OH, 45238",103917916,"L"
84196,"1707 BARTRUM TRAIL","SUGAR LAND","TX",77479,29.5864375030001,-95.6524256549999,196,"1707 BARTRUM TRAIL, SUGAR LAND, TX, 77479","Match","Exact","1707 BARTRUM TRL, SUGAR LAND, TX, 77479",617956074,"L"
84197,"1707 BIRD SONG PLACE","EL CAJON","CA",92021,32.8192045330001,-116.927556952,197,"1707 BIRD SONG PLACE, EL CAJON, CA, 92021","Match","Non_Exact","1707 BIRDSONG PL, EL CAJON, CA, 92021",195332814,"R"
84198,"1707 CANTIGNY LN","KATY","TX",77450,29.7561779710001,-95.7644159869999,198,"1707 CANTIGNY LN, KATY, TX, 77450","Match","Exact","1707 CANTIGNY LN, KATY, TX, 77450",96623213,"L"
84199,"1707 CARRIAGE CREEK DR","DESOTO","TX",75115,32.598965068,-96.898274226,199,"1707 CARRIAGE CREEK DR, DESOTO, TX, 75115","Match","Exact","1707 CARRIAGE CREEK DR, DESOTO, TX, 75115",624607894,"L"
84200,"1707 CHAMBERLAYNE PARKWAY","RICHMOND","VA",23222,37.5586318920001,-77.4424461139999,200,"1707 CHAMBERLAYNE PARKWAY, RICHMOND, VA, 23222","Match","Non_Exact","1707 CHAMBERLAYNE AVE, RICHMOND, VA, 23222",201538612,"R"
84201,"1707 CHEECK SPARGER ROAD","COLLEYVILLE","TX",76034,NA,NA,201,"1707 CHEECK SPARGER ROAD, COLLEYVILLE, TX, 76034","No_Match",NA,NA,NA,NA
84202,"1707 CLINTON STREET","LINDEN","NJ",7036,40.6234581000001,-74.2361991619999,202,"1707 CLINTON STREET, LINDEN, NJ, 7036","Match","Exact","1707 CLINTON ST, LINDEN, NJ, 07036",60563305,"L"
84203,"1707 COASTLINE LN","MANSFIELD","TX",76063,32.5875047870001,-97.173843332,203,"1707 COASTLINE LN, MANSFIELD, TX, 76063","Match","Exact","1707 COASTLINE LN, MANSFIELD, TX, 76063",102118461,"L"
84204,"1707 COLUMBIA RD NW SUITE 110","WASHINGTON","DC",20009,38.9248188600001,-77.039380384,204,"1707 COLUMBIA RD NW SUITE 110, WASHINGTON, DC, 20009","Match","Exact","1707 COLUMBIA RD NW, WASHINGTON, DC, 20009",76223048,"R"
84205,"1707 CRAFT ROAD","OLIVE BRANCH","MS",38654,34.885257241,-89.865587322,205,"1707 CRAFT ROAD, OLIVE BRANCH, MS, 38654","Match","Exact","1707 CRAFT RD, OLIVE BRANCH, MS, 38654",91844486,"L"
84206,"1707 CROMWELL DRIVE","NORFOLK","VA",23509,36.88680192,-76.262301979,206,"1707 CROMWELL DRIVE, NORFOLK, VA, 23509","Match","Exact","1707 CROMWELL DR, NORFOLK, VA, 23509",122145138,"R"
84207,"1707 DADS RD","BAKER","FL",32531,30.7491083800001,-86.65111388,207,"1707 DADS RD, BAKER, FL, 32531","Match","Exact","1707 DADS RD, BAKER, FL, 32531",74399650,"L"
84208,"1707 DELWOOD CIRCLE","GREENEVILLE","TN",37745,36.1929199480001,-82.792769246,208,"1707 DELWOOD CIRCLE, GREENEVILLE, TN, 37745","Match","Exact","1707 DELWOOD CIR, GREENEVILLE, TN, 37745",611351167,"R"
84209,"1707 DIVOT LANE","SEBRING","FL",33782,27.4834699100001,-81.503018104,209,"1707 DIVOT LANE, SEBRING, FL, 33782","Match","Non_Exact","1707 DIVOT LN, SEBRING, FL, 33872",4679908,"L"
84210,"1707 E 33RD STREET","BALTIMORE","MD",21218,39.3283397330001,-76.5919271399999,210,"1707 E 33RD STREET, BALTIMORE, MD, 21218","Match","Exact","1707 E 33RD ST, BALTIMORE, MD, 21218",206410112,"R"
84211,"1707 E 6TH AVE","SHEFFIELD","AL",35660,34.7476140730001,-87.6899013139999,211,"1707 E 6TH AVE, SHEFFIELD, AL, 35660","Match","Exact","1707 E 6TH AVE, SHEFFIELD, AL, 35660",40760208,"L"
84212,"1707 E CEDAR  SUITE 103","OLATHE","KS",66062,NA,NA,212,"1707 E CEDAR  SUITE 103, OLATHE, KS, 66062","No_Match",NA,NA,NA,NA
84213,"1707 EAST STATE STREET","ROCKFORD","IL",61104,42.2669577090001,-89.06772047,213,"1707 EAST STATE STREET, ROCKFORD, IL, 61104","Match","Exact","1707 E STATE ST, ROCKFORD, IL, 61104",647223823,"R"
84214,"1707 ENGLEHART STREET","CORDOVA","TN",38016,35.1725987300001,-89.725785953,214,"1707 ENGLEHART STREET, CORDOVA, TN, 38016","Match","Exact","1707 ENGLEHART ST, CORDOVA, TN, 38016",612564393,"L"
84215,"1707 FLAT RIDGE DR","HENDERSON","NV",89014,36.046729536,-115.059414582,215,"1707 FLAT RIDGE DR, HENDERSON, NV, 89014","Match","Exact","1707 FLAT RIDGE DR, HENDERSON, NV, 89014",201911614,"L"
84216,"1707 FOSTER AVE","CONWAY","SC",29527,33.838723601,-79.069467343,216,"1707 FOSTER AVE, CONWAY, SC, 29527","Match","Exact","1707 FOSTER AVE, CONWAY, SC, 29527",618087695,"L"
84217,"1707 HORIZON DRIVE SW","SUPPLY","NC",28462,33.9285199930001,-78.289706725,217,"1707 HORIZON DRIVE SW, SUPPLY, NC, 28462","Match","Exact","1707 HORIZON DR SW, SUPPLY, NC, 28462",153163074,"L"
84218,"1707 INDIAN CAMP TRL","COPPERAS COVE","TX",76522,31.1001203490001,-97.915052372,218,"1707 INDIAN CAMP TRL, COPPERAS COVE, TX, 76522","Match","Exact","1707 INDIAN CAMP TRL, COPPERAS COVE, TX, 76522",615002235,"R"
84219,"1707 JACKSON CIR","ROLLA","MO",65401,37.9570038250001,-91.745867296,219,"1707 JACKSON CIR, ROLLA, MO, 65401","Match","Exact","1707 JACKSON CIR, ROLLA, MO, 65401",45078205,"L"
84220,"1707 JENNIFER CT","ONALASKA","WI",54650,43.881815664,-91.213286871,220,"1707 JENNIFER CT, ONALASKA, WI, 54650","Match","Exact","1707 JENNIFER CT, ONALASKA, WI, 54650",51011022,"L"
84221,"1707 JUNCTION RDG","SAN ANTONIO","TX",78248,29.5817296970001,-98.518537341,221,"1707 JUNCTION RDG, SAN ANTONIO, TX, 78248","Match","Exact","1707 JUNCTION RIDGE, SAN ANTONIO, TX, 78248",101733061,"L"
84222,"1707 KRAFT STREET","DALLAS","TX",75212,32.7840941420001,-96.8466021309999,222,"1707 KRAFT STREET, DALLAS, TX, 75212","Match","Exact","1707 KRAFT ST, DALLAS, TX, 75212",102904601,"R"
84223,"1707 LAKEVIEW DR","FRITCH","TX",79036,35.641244988,-101.613213976,223,"1707 LAKEVIEW DR, FRITCH, TX, 79036","Match","Exact","1707 LAKEVIEW DR, FRITCH, TX, 79036",185364615,"R"
84224,"1707 LORMAN STREET","BALTIMORE","MD",21217,39.3042141170001,-76.6453627939999,224,"1707 LORMAN STREET, BALTIMORE, MD, 21217","Match","Exact","1707 LORMAN ST, BALTIMORE, MD, 21217",206416305,"L"
84225,"1707 LOUISE DRIVE SE","JACKSONVILLE","AL",36265,33.806928935,-85.74698215,225,"1707 LOUISE DRIVE SE, JACKSONVILLE, AL, 36265","Match","Exact","1707 LOUISE DR SE, JACKSONVILLE, AL, 36265",636472069,"R"
84226,"1707 MAIN STREET OFFICE 435","LA CROSSE","WI",54601,43.8117168680001,-91.230820105,226,"1707 MAIN STREET OFFICE 435, LA CROSSE, WI, 54601","Match","Exact","1707 MAIN ST, LA CROSSE, WI, 54601",51012845,"L"
84227,"1707 MANCHESTER CROSSING DRIVE","FRESNO","TX",77545,29.5392535340001,-95.479392363,227,"1707 MANCHESTER CROSSING DRIVE, FRESNO, TX, 77545","Match","Exact","1707 MANCHESTER CROSSING DR, FRESNO, TX, 77545",630304204,"R"
84228,"1707 N 30TH STREET","KANSAS CITY","KS",66102,39.1228452870001,-94.662465544,228,"1707 N 30TH STREET, KANSAS CITY, KS, 66102","Match","Exact","1707 N 30TH ST, KANSAS CITY, KS, 66102",91135219,"R"
84229,"1707 N HALL ST APT 213","DALLAS","TX",75204,32.7955269710001,-96.7892499449999,229,"1707 N HALL ST APT 213, DALLAS, TX, 75204","Match","Exact","1707 HALL ST, DALLAS, TX, 75204",102910714,"L"
84230,"1707 N MARKET ST APT 112","FREDERICK","MD",21701,39.4368338680001,-77.401746515,230,"1707 N MARKET ST APT 112, FREDERICK, MD, 21701","Match","Non_Exact","1707 N MARKET ST, FREDERICK, MD, 21701",60724969,"L"
84231,"1707 NW 46TH STREET","TAMARAC","FL",33309,26.184316283,-80.165287502,231,"1707 NW 46TH STREET, TAMARAC, FL, 33309","Match","Exact","1707 NW 46TH ST, TAMARAC, FL, 33309",114718172,"R"
84232,"1707 OAKLEIGH","BALTIMORE","MD",21234,39.3738870230001,-76.560506195,232,"1707 OAKLEIGH, BALTIMORE, MD, 21234","Match","Non_Exact","1707 OAKLEIGH CT, BALTIMORE, MD, 21234",191513588,"R"
84233,"1707 OHIO AVENUE","CUYAHOGA FALLAS","OH",44223,41.1358189760001,-81.503360141,233,"1707 OHIO AVENUE, CUYAHOGA FALLAS, OH, 44223","Match","Non_Exact","1707 OHIO AVE, CUYAHOGA FALLS, OH, 44223",61347871,"R"
84234,"1707 OLYMPIC DR UNIT 24","DAVIS","CA",95616,38.5587366720001,-121.776247074,234,"1707 OLYMPIC DR UNIT 24, DAVIS, CA, 95616","Match","Exact","1707 OLYMPIC DR, DAVIS, CA, 95616",67702053,"R"
84235,"1707 OVERTON AVE","WAYCROSS","GA",31503,31.1929819700001,-82.3721218599999,235,"1707 OVERTON AVE, WAYCROSS, GA, 31503","Match","Exact","1707 OVERTON AVE, WAYCROSS, GA, 31503",5238622,"R"
84236,"1707 POST OAK BLVD NUM 459","HOUSTON","TX",77056,29.749977561,-95.46128728,236,"1707 POST OAK BLVD NUM 459, HOUSTON, TX, 77056","Match","Exact","1707 POST OAK BLVD, HOUSTON, TX, 77056",639189927,"L"
84237,"1707 POST OAK BLVD STE 500","HOUSTON","TX",77056,29.749977561,-95.46128728,237,"1707 POST OAK BLVD STE 500, HOUSTON, TX, 77056","Match","Exact","1707 POST OAK BLVD, HOUSTON, TX, 77056",639189927,"L"
84238,"1707 RESERVOIR RD","HOLLIDAYSBURG","PA",16648,40.4049418920001,-78.385066405,238,"1707 RESERVOIR RD, HOLLIDAYSBURG, PA, 16648","Match","Exact","1707 RESERVOIR RD, HOLLIDAYSBURG, PA, 16648",627690924,"L"
84239,"1707 REX AVE APT 205","JOPLIN","MO",64801,37.072124237,-94.471578762,239,"1707 REX AVE APT 205, JOPLIN, MO, 64801","Match","Exact","1707 REX AVE, JOPLIN, MO, 64801",644995115,"L"
84240,"1707 SCARBOROUGH DRIVE APT 2Q","BELLEVUE","NE",68123,41.1177071340001,-95.941048215,240,"1707 SCARBOROUGH DRIVE APT 2Q, BELLEVUE, NE, 68123","Match","Exact","1707 SCARBOROUGH DR, BELLEVUE, NE, 68123",647807015,"R"
84241,"1707 SHILLINGTON DRIVE","HOUSTON","TX",77094,29.764352009,-95.715273376,241,"1707 SHILLINGTON DRIVE, HOUSTON, TX, 77094","Match","Exact","1707 SHILLINGTON DR, HOUSTON, TX, 77094",645507670,"L"
84242,"1707 SORGHUM RIDGE","WHEELING","WV",26003,NA,NA,242,"1707 SORGHUM RIDGE, WHEELING, WV, 26003","Tie",NA,NA,NA,NA
84243,"1707 SOUTH GROVE AVE STE E","ONTARIO","CA",91761,34.042699344,-117.628549198,243,"1707 SOUTH GROVE AVE STE E, ONTARIO, CA, 91761","Match","Exact","1707 S GROVE AVE, ONTARIO, CA, 91761",614814874,"L"
84244,"1707 SOUTHBELTLINE BLVD APT 14","COLUMBIA","SC",29205,NA,NA,244,"1707 SOUTHBELTLINE BLVD APT 14, COLUMBIA, SC, 29205","No_Match",NA,NA,NA,NA
84245,"1707 SOUTHWEST A STREET","RICHMOND","IN",47374,39.8282737860001,-84.925837106,245,"1707 SOUTHWEST A STREET, RICHMOND, IN, 47374","Match","Exact","1707 SW A ST, RICHMOND, IN, 47374",31324267,"R"
84246,"1707 TOTTENHAM COURT","WINTERVILLE","NC",28590,35.557340165,-77.356650937,246,"1707 TOTTENHAM COURT, WINTERVILLE, NC, 28590","Match","Exact","1707 TOTTENHAM CT, WINTERVILLE, NC, 28590",80042385,"R"
84247,"1707 W PECAN ST UNIT B","NASHVILLE","TN",37208,36.186576722,-86.812599779,247,"1707 W PECAN ST UNIT B, NASHVILLE, TN, 37208","Match","Exact","1707 PECAN ST, NASHVILLE, TN, 37208",606817388,"L"
84248,"1707 W SPENCER ST","CRESTON","IA",50801,41.0649801340001,-94.382705839,248,"1707 W SPENCER ST, CRESTON, IA, 50801","Match","Exact","1707 SPENCER ST, CRESTON, IA, 50801",75248189,"R"
84249,"1707 WEST 6TH STREET","TEXARKANA","TX",75501,33.422249713,-94.06217248,249,"1707 WEST 6TH STREET, TEXARKANA, TX, 75501","Match","Exact","1707 W 6TH ST, TEXARKANA, TX, 75501",651869462,"L"
84250,"1707 WILLOW ST","SYCAMORE","IL",60178,41.974166118,-88.72182915,250,"1707 WILLOW ST, SYCAMORE, IL, 60178","Match","Exact","1707 WILLOW ST, SYCAMORE, IL, 60178",52260177,"R"
84251,"1707","TUSTIN","CA",92871,NA,NA,251,"1707, TUSTIN, CA, 92871","No_Match",NA,NA,NA,NA
84252,"17070 COLLINS AVE STE 258","SUNNY ISLES BEACH","FL",33160,25.9345763640001,-80.121722613,252,"17070 COLLINS AVE STE 258, SUNNY ISLES BEACH, FL, 33160","Match","Exact","17070 COLLINS AVE, SUNNY ISLES BEACH, FL, 33160",609079602,"L"
84253,"17070 KENTARA WAY","FT MYERS","FL",33913,26.5462061470001,-81.675836005,253,"17070 KENTARA WAY, FT MYERS, FL, 33913","Match","Exact","17070 KENTARA WAY, FORT MYERS, FL, 33913",118114226,"R"
84254,"17070 SCENIC HIGHWAY 98","POINT CLEAR","AL",36564,NA,NA,254,"17070 SCENIC HIGHWAY 98, POINT CLEAR, AL, 36564","No_Match",NA,NA,NA,NA
84255,"17070 SOUTH PARK AVE   STE F","SOUTH HOLLAND","IL",60473,41.5854976950001,-87.607324804,255,"17070 SOUTH PARK AVE   STE F, SOUTH HOLLAND, IL, 60473","Match","Exact","17070 S PARK AVE, SOUTH HOLLAND, IL, 60473",111778936,"R"
84256,"17070 WALNUT VILLAGE PKWY SUITE D","FONTANA","CA",92336,34.1286250810001,-117.432421322,256,"17070 WALNUT VILLAGE PKWY SUITE D, FONTANA, CA, 92336","Match","Exact","17070 WALNUT VILLAGE PKWY, FONTANA, CA, 92336",144701967,"L"
84257,"17071 63RD STREET","BANGOR","MI",49013,42.3572543830001,-86.158168519,257,"17071 63RD STREET, BANGOR, MI, 49013","Match","Exact","17071 63RD ST, BANGOR, MI, 49013",34766187,"R"
84258,"17071 GOTHARD STREET","HUNTINGTON BEACH","CA",92647,33.7140139730001,-118.00007637,258,"17071 GOTHARD STREET, HUNTINGTON BEACH, CA, 92647","Match","Exact","17071 GOTHARD ST, HUNTINGTON BEACH, CA, 92647",144017655,"R"
84259,"17071 GOTHARD STREET","HUNTINGTON BEAH","CA",92647,33.7140139730001,-118.00007637,259,"17071 GOTHARD STREET, HUNTINGTON BEAH, CA, 92647","Match","Non_Exact","17071 GOTHARD ST, HUNTINGTON BEACH, CA, 92647",144017655,"R"
84260,"17071 W DIXIE HWY STE 110","NORTH MIAMI BEACH","FL",33160,25.9334160390001,-80.152545548,260,"17071 W DIXIE HWY STE 110, NORTH MIAMI BEACH, FL, 33160","Match","Non_Exact","17071 W DIXIE HWY, N MIAMI BEACH, FL, 33160",116036773,"R"
84261,"17072 MOUNTAIN RIDGE","DUBUQUE","IA",52002,42.5007244170001,-90.820520261,261,"17072 MOUNTAIN RIDGE, DUBUQUE, IA, 52002","Match","Exact","17072 MOUNTAIN RIDGE, DUBUQUE, IA, 52002",650536079,"L"
84262,"17073 PALM RIDGE DRIVE","D'IBERVILLE","MS",39540,30.502552871,-88.9154509969999,262,"17073 PALM RIDGE DRIVE, D'IBERVILLE, MS, 39540","Match","Non_Exact","17073 PALM RIDGE DR, DIBERVILLE, MS, 39540",637756099,"R"
84263,"17075 COLONIAL PARK DR","MONUMENT","CO",80132,39.079462167,-104.799194581,263,"17075 COLONIAL PARK DR, MONUMENT, CO, 80132","Match","Exact","17075 COLONIAL PARK DR, MONUMENT, CO, 80132",647965411,"L"
84264,"17075 DEVONSHIRE STREET STE 206","NORTHRIDGE","CA",91325,34.2575378830001,-118.504805655,264,"17075 DEVONSHIRE STREET STE 206, NORTHRIDGE, CA, 91325","Match","Exact","17075 DEVONSHIRE ST, NORTHRIDGE, CA, 91325",141542593,"R"
84265,"17075 FOREST LAKE RD","SONORA","CA",95370,38.0500701760001,-120.267642156,265,"17075 FOREST LAKE RD, SONORA, CA, 95370","Match","Exact","17075 FOREST LAKE RD, SONORA, CA, 95370",101454306,"L"
84266,"17075 PETERSBURG ROAD","EVANSVILLE","IN",47725,38.1297519940001,-87.483239424,266,"17075 PETERSBURG ROAD, EVANSVILLE, IN, 47725","Match","Exact","17075 PETERSBURG RD, EVANSVILLE, IN, 47725",640439718,"R"
84267,"1708  NE  24TH  STREET","WILTON  MANORS","FL",33305,26.157807388,-80.124623754,267,"1708  NE  24TH  STREET, WILTON  MANORS, FL, 33305","Match","Exact","1708 NE 24TH ST, WILTON MANORS, FL, 33305",612223680,"R"
84268,"1708  NE 259TH STREET","RIDGEFIELD","WA",98642,45.8086964060001,-122.654299569,268,"1708  NE 259TH STREET, RIDGEFIELD, WA, 98642","Match","Exact","1708 NE 259TH ST, RIDGEFIELD, WA, 98642",643161956,"L"
84269,"1708 1/2 E 2ND STREET","LONG BEACH","CA",90802,33.767047065,-118.170837877,269,"1708 1/2 E 2ND STREET, LONG BEACH, CA, 90802","Match","Exact","1708 E 2ND ST, LONG BEACH, CA, 90802",639059507,"R"
84270,"1708 13TH STREET","BOULDER","CO",80302,40.015338709,-105.277669969,270,"1708 13TH STREET, BOULDER, CO, 80302","Match","Exact","1708 13TH ST, BOULDER, CO, 80302",188215641,"R"
84271,"1708 23RD STREET","ARLINGTON","VA",22202,38.8531386780001,-77.073106872,271,"1708 23RD STREET, ARLINGTON, VA, 22202","Match","Non_Exact","1708 23RD ST S, ARLINGTON, VA, 22202",76471967,"L"
84272,"1708 30TH AVE CT NE","HICKORY","NC",28601,NA,NA,272,"1708 30TH AVE CT NE, HICKORY, NC, 28601","Tie",NA,NA,NA,NA
84273,"1708 8TH ST SW","WILLMAR","MN",56201,45.105377924,-95.051519116,273,"1708 8TH ST SW, WILLMAR, MN, 56201","Match","Exact","1708 8TH ST SW, WILLMAR, MN, 56201",36712479,"L"
84274,"1708 ANN AVENUE","HARRISONVILLE","MO",64701,38.6430804350001,-94.3343261909999,274,"1708 ANN AVENUE, HARRISONVILLE, MO, 64701","Match","Exact","1708 ANN AVE, HARRISONVILLE, MO, 64701",100912189,"L"
84275,"1708 ANTLER HILL CT","ST AUGUSTINE","FL",32092,30.046173567,-81.531326313,275,"1708 ANTLER HILL CT, ST AUGUSTINE, FL, 32092","Match","Exact","1708 ANTLER HILL CT, SAINT AUGUSTINE, FL, 32092",627276619,"R"
84276,"1708 AUGUSTA ST   SUITE C 356","GREENVILLE","SC",29605,34.8284094250001,-82.399262404,276,"1708 AUGUSTA ST   SUITE C 356, GREENVILLE, SC, 29605","Match","Exact","1708 AUGUSTA ST, GREENVILLE, SC, 29605",38329430,"R"
84277,"1708 AUGUSTA ST STE 325","GREENVILLE","SC",29605,34.8284094250001,-82.399262404,277,"1708 AUGUSTA ST STE 325, GREENVILLE, SC, 29605","Match","Exact","1708 AUGUSTA ST, GREENVILLE, SC, 29605",38329430,"R"
84278,"1708 BARTHOLOMEW STREET","NEW ORLEANS","LA",70117,29.9719131640001,-90.033519999,278,"1708 BARTHOLOMEW STREET, NEW ORLEANS, LA, 70117","Match","Exact","1708 BARTHOLOMEW ST, NEW ORLEANS, LA, 70117",191717703,"L"
84279,"1708 BRIDGE ROAD","LANCASTER","PA",17602,39.988842764,-76.233217022,279,"1708 BRIDGE ROAD, LANCASTER, PA, 17602","Match","Exact","1708 BRIDGE RD, LANCASTER, PA, 17602",179710754,"R"
84280,"1708 BYFIELD CT","GAMBRILLS","MD",21054,38.999309657,-76.657584888,280,"1708 BYFIELD CT, GAMBRILLS, MD, 21054","Match","Exact","1708 BYFIELD CT, GAMBRILLS, MD, 21054",618396599,"L"
84281,"1708 CALIFORNIA AVE","FORT WAYNE","IN",46805,41.091237662,-85.122083673,281,"1708 CALIFORNIA AVE, FORT WAYNE, IN, 46805","Match","Exact","1708 CALIFORNIA AVE, FORT WAYNE, IN, 46805",6379125,"R"
84282,"1708 CAMINO ALEMEDA","LEANDER","TX",78641,NA,NA,282,"1708 CAMINO ALEMEDA, LEANDER, TX, 78641","No_Match",NA,NA,NA,NA
84283,"1708 CAMINO LA VISTA","FULLERTON","CA",92833,33.890578525,-117.94855541,283,"1708 CAMINO LA VISTA, FULLERTON, CA, 92833","Match","Exact","1708 CAMINO LA VIS, FULLERTON, CA, 92833",144008400,"R"
84284,"1708 CENTRAL BLVD","BAY SHORE","NY",11706,40.7675539480001,-73.2755068,284,"1708 CENTRAL BLVD, BAY SHORE, NY, 11706","Match","Exact","1708 CENTRAL BLVD, BAY SHORE, NY, 11706",113983130,"R"
84285,"1708 CROWLEY DR","ST LOUIS","MO",63136,38.7658993860001,-90.270522222,285,"1708 CROWLEY DR, ST LOUIS, MO, 63136","Match","Exact","1708 CROWLEY DR, SAINT LOUIS, MO, 63136",628738351,"R"
84286,"1708 CROWN DRIVE","AUSTIN","TX",78745,30.224940357,-97.7872538249999,286,"1708 CROWN DRIVE, AUSTIN, TX, 78745","Match","Exact","1708 CROWN DR, AUSTIN, TX, 78745",63944022,"R"
84287,"1708 DAMASCUS RD","MURFREESBORO","TN",37128,35.8279873120001,-86.4602202519999,287,"1708 DAMASCUS RD, MURFREESBORO, TN, 37128","Match","Exact","1708 DAMASCUS RD, MURFREESBORO, TN, 37128",642303402,"L"
84288,"1708 DRAWBRIDGE CT","CHARLESTON","SC",29414,32.7997607020001,-80.043503135,288,"1708 DRAWBRIDGE CT, CHARLESTON, SC, 29414","Match","Exact","1708 DRAWBRIDGE CT, CHARLESTON, SC, 29414",645483461,"R"
84289,"1708 E CARVER DRIVE","MUNCIE","IN",47303,40.1996505210001,-85.3667233,289,"1708 E CARVER DRIVE, MUNCIE, IN, 47303","Match","Exact","1708 E CARVER DR, MUNCIE, IN, 47303",30837040,"L"
84290,"1708 E CORTEZ ST","WEST COVINA","CA",91791,34.0643705890001,-117.909385863,290,"1708 E CORTEZ ST, WEST COVINA, CA, 91791","Match","Exact","1708 E CORTEZ ST, WEST COVINA, CA, 91791",142239766,"L"
84291,"1708 E MENLO ST","MESA","AZ",85203,33.4598723730001,-111.793171577,291,"1708 E MENLO ST, MESA, AZ, 85203","Match","Exact","1708 E MENLO ST, MESA, AZ, 85203",128265802,"L"
84292,"1708 EAST OAKEY BLVD","LAS VEGAS","NV",89104,36.1516607790001,-115.127385072,292,"1708 EAST OAKEY BLVD, LAS VEGAS, NV, 89104","Match","Exact","1708 E OAKEY BLVD, LAS VEGAS, NV, 89104",201868157,"R"
84293,"1708 ELLINGTON RD","SOUTH WINDSOR","CT",6074,41.8267813860001,-72.5565117639999,293,"1708 ELLINGTON RD, SOUTH WINDSOR, CT, 6074","Match","Exact","1708 ELLINGTON RD, SOUTH WINDSOR, CT, 06074",3491152,"L"
84294,"1708 FOBES LANE APT 1","TUPELO","MS",38804,NA,NA,294,"1708 FOBES LANE APT 1, TUPELO, MS, 38804","No_Match",NA,NA,NA,NA
84295,"1708 FRIARTUCK LN","CINCINNATI","OH",45230,39.08361145,-84.364037316,295,"1708 FRIARTUCK LN, CINCINNATI, OH, 45230","Match","Exact","1708 FRIARTUCK LN, CINCINNATI, OH, 45230",103940541,"L"
84296,"1708 GREAT SHOALS CIR","LAWRENCEVILLE","GA",30045,33.9294400150001,-83.903970522,296,"1708 GREAT SHOALS CIR, LAWRENCEVILLE, GA, 30045","Match","Exact","1708 GREAT SHOALS CIR, LAWRENCEVILLE, GA, 30045",637408240,"L"
84297,"1708 GREEN DOWNS DRIVE","RALEIGH","NC",27613,35.9531774880001,-78.6958667809999,297,"1708 GREEN DOWNS DRIVE, RALEIGH, NC, 27613","Match","Exact","1708 GREEN DOWNS DR, RALEIGH, NC, 27613",72604447,"L"
84298,"1708 GROVE CT DR SE","CONYER","GA",30013,33.5994145080001,-84.006242071,298,"1708 GROVE CT DR SE, CONYER, GA, 30013","Match","Non_Exact","1708 GROVE CT SE, CONYERS, GA, 30013",619876331,"L"
84299,"1708 HAMPSHIRE GREEN LN APT 31","SILVER SPRING","MD",20903,39.015423216,-76.976068675,299,"1708 HAMPSHIRE GREEN LN APT 31, SILVER SPRING, MD, 20903","Match","Exact","1708 HAMPSHIRE GREEN LN, SILVER SPRING, MD, 20903",62141173,"L"
84300,"1708 HARTFORD RD","AUSTIN","TX",78703,30.286391736,-97.760626594,300,"1708 HARTFORD RD, AUSTIN, TX, 78703","Match","Exact","1708 HARTFORD RD, AUSTIN, TX, 78703",63942275,"L"
84301,"1708 HEYBURN AVE E","TWIN FALLS","ID",83301,42.566754831,-114.451289862,301,"1708 HEYBURN AVE E, TWIN FALLS, ID, 83301","Match","Exact","1708 HEYBURN AVE E, TWIN FALLS, ID, 83301",118762847,"R"
84302,"1708 HOUNDSTOOTH GLEN","LEXINGTON","KY",40515,37.9687964240001,-84.456727841,302,"1708 HOUNDSTOOTH GLEN, LEXINGTON, KY, 40515","Match","Exact","1708 HOUNDSTOOTH GLEN, LEXINGTON, KY, 40515",31932712,"L"
84303,"1708 KENWOOD AVENUE","SPRING LAKE","NC",28390,35.1938871560001,-79.011066257,303,"1708 KENWOOD AVENUE, SPRING LAKE, NC, 28390","Match","Exact","1708 KENWOOD AVE, SPRING LAKE, NC, 28390",64211115,"R"
84304,"1708 LAKE WASHINGTON BLVD","SEATTLE","WA",98122,47.616678268,-122.281795421,304,"1708 LAKE WASHINGTON BLVD, SEATTLE, WA, 98122","Match","Exact","1708 LAKE WASHINGTON BLVD, SEATTLE, WA, 98122",239770648,"R"
84305,"1708 LEXINGTON AVENUE","NEW YORK","NY",10029,40.7926464380001,-73.9459941809999,305,"1708 LEXINGTON AVENUE, NEW YORK, NY, 10029","Match","Exact","1708 LEXINGTON AVE, NEW YORK, NY, 10029",59657922,"L"
84306,"1708 LEXINGTON MEWS","WOOLWICH TOWNSHIP","NJ",8085,39.7413565200001,-75.3237700999999,306,"1708 LEXINGTON MEWS, WOOLWICH TOWNSHIP, NJ, 8085","Match","Exact","1708 LEXINGTON MEWS, WOOLWICH TOWNSHIP, NJ, 08085",651382967,"L"
84307,"1708 LINCOLN AVENUE","DES MOINES","IA",50314,41.613187456,-93.640182517,307,"1708 LINCOLN AVENUE, DES MOINES, IA, 50314","Match","Exact","1708 LINCOLN AVE, DES MOINES, IA, 50314",65781875,"L"
84308,"1708 MARSH RD","YAKIMA","WA",98901,46.6181201740001,-120.481082174,308,"1708 MARSH RD, YAKIMA, WA, 98901","Match","Exact","1708 MARSH RD, YAKIMA, WA, 98901",184964571,"R"
84309,"1708 MARY STREET","HONOLULU","HI",96819,21.3216427030001,-157.886087144,309,"1708 MARY STREET, HONOLULU, HI, 96819","Match","Exact","1708 MARY ST, HONOLULU, HI, 96819",203234551,"R"
84310,"1708 MARYLAND STREET","LUMBERTON","NC",28358,34.608535696,-79.020701039,310,"1708 MARYLAND STREET, LUMBERTON, NC, 28358","Match","Exact","1708 MARYLAND ST, LUMBERTON, NC, 28358",49140986,"L"
84311,"1708 MEADOWBROOK LANE","WILSON","NC",27893,35.729767425,-77.940540294,311,"1708 MEADOWBROOK LANE, WILSON, NC, 27893","Match","Non_Exact","1708 MEADOWBROOK LN W, WILSON, NC, 27893",26705029,"L"
84312,"1708 MONTROSE DRIVE","TUSCALOOSA","AL",35405,33.159325795,-87.559454075,312,"1708 MONTROSE DRIVE, TUSCALOOSA, AL, 35405","Match","Exact","1708 MONTROSE DR, TUSCALOOSA, AL, 35405",82217831,"L"
84313,"1708 MOUNTAINBROOK DR","HUNTSVILLE","AL",35801,34.720521654,-86.5543882859999,313,"1708 MOUNTAINBROOK DR, HUNTSVILLE, AL, 35801","Match","Non_Exact","1708 MOUNTAIN BROOK DR SE, HUNTSVILLE, AL, 35801",58119496,"R"
84314,"1708 N MOHAWK ST","CHICAGO","IL",60614,41.913198632,-87.642301897,314,"1708 N MOHAWK ST, CHICAGO, IL, 60614","Match","Exact","1708 N MOHAWK ST, CHICAGO, IL, 60614",605071454,"L"
84315,"1708 NANTUCKETT LANE UNIT 202","CHARLOTTE","NC",28270,35.1124719060001,-80.7687583539999,315,"1708 NANTUCKETT LANE UNIT 202, CHARLOTTE, NC, 28270","Match","Exact","1708 NANTUCKETT LN, CHARLOTTE, NC, 28270",70539982,"L"
84316,"1708 NASH STREET","SANFORD","NC",27330,35.4682321130001,-79.146907943,316,"1708 NASH STREET, SANFORD, NC, 27330","Match","Exact","1708 NASH ST, SANFORD, NC, 27330",72059521,"L"
84317,"1708 NICKLAUS CT","MCKINNEY","TX",75070,33.18752392,-96.72758358,317,"1708 NICKLAUS CT, MCKINNEY, TX, 75070","Match","Non_Exact","1708 NICKLAUS CT, MCKINNEY, TX, 75072",210482268,"R"
84318,"1708 NORTH ELM STREET","LUMBERTON","NC",28358,34.629156913,-79.008269903,318,"1708 NORTH ELM STREET, LUMBERTON, NC, 28358","Match","Exact","1708 N ELM ST, LUMBERTON, NC, 28358",49137101,"R"
84319,"1708 NW SPRINGHILL DR","ALBANY","OR",97321,44.6575627,-123.102166978,319,"1708 NW SPRINGHILL DR, ALBANY, OR, 97321","Match","Exact","1708 NW SPRINGHILL DR, ALBANY, OR, 97321",155843432,"L"
84320,"1708 OAK LANE","MCLEAN","VA",22101,38.921213075,-77.137637529,320,"1708 OAK LANE, MCLEAN, VA, 22101","Match","Exact","1708 OAK LN, MCLEAN, VA, 22101",75964331,"R"
84321,"1708 PHEASANT CREEK CT","ANTIOCH","TN",37013,36.0704371630001,-86.595242712,321,"1708 PHEASANT CREEK CT, ANTIOCH, TN, 37013","Match","Exact","1708 PHEASANT CREEK CT, ANTIOCH, TN, 37013",97213625,"R"
84322,"1708 PINECONE CT","BOWIE","MD",20721,38.915233916,-76.8326346279999,322,"1708 PINECONE CT, BOWIE, MD, 20721","Match","Exact","1708 PINECONE CT, BOWIE, MD, 20721",76356738,"R"
84323,"1708 RIVER COURT","VIRGINIA BEACH","VA",23454,36.8839863430001,-76.0670848939999,323,"1708 RIVER COURT, VIRGINIA BEACH, VA, 23454","Match","Exact","1708 RIVER CT, VIRGINIA BCH, VA, 23454",122299957,"L"
84324,"1708 RIVERSHORE PARKWAY","Indianapolis","IN",46208,39.8107557770001,-86.190508,324,"1708 RIVERSHORE PARKWAY, Indianapolis, IN, 46208","Match","Non_Exact","1708 RIVER SHORE PKWY, INDIANAPOLIS, IN, 46208",108055563,"R"
84325,"1708 RIVERSHORE PARKWAY","INDIANAPOLIS","IN",46208,39.8107557770001,-86.190508,325,"1708 RIVERSHORE PARKWAY, INDIANAPOLIS, IN, 46208","Match","Non_Exact","1708 RIVER SHORE PKWY, INDIANAPOLIS, IN, 46208",108055563,"R"
84326,"1708 S GENESEE DRIVE","LANSING","MI",48915,42.737849559,-84.575427565,326,"1708 S GENESEE DRIVE, LANSING, MI, 48915","Match","Exact","1708 S GENESEE DR, LANSING, MI, 48915",17497998,"R"
84327,"1708 S RACINE AVE","CHICAGO","IL",60608,41.8587258060001,-87.656452453,327,"1708 S RACINE AVE, CHICAGO, IL, 60608","Match","Exact","1708 S RACINE AVE, CHICAGO, IL, 60608",111803037,"R"
84328,"1708 S STATE RD","UPPER DARBY","PA",19082,39.9605404050001,-75.28263491,328,"1708 S STATE RD, UPPER DARBY, PA, 19082","Match","Exact","1708 S STATE RD, UPPER DARBY, PA, 19082",134877252,"L"
84329,"1708 S STREET NW","WASHINGTON","DC",20009,38.91408821,-77.038987871,329,"1708 S STREET NW, WASHINGTON, DC, 20009","Match","Exact","1708 S ST NW, WASHINGTON, DC, 20009",76223107,"L"
84330,"1708 SE 2ND TER","CAPE CORAL","FL",33990,26.6479755510001,-81.938462923,330,"1708 SE 2ND TER, CAPE CORAL, FL, 33990","Match","Exact","1708 SE 2ND TER, CAPE CORAL, FL, 33990",118009689,"R"
84331,"1708 SIERRA HIGHLANDS DR","RENO","NV",89523,39.528461582,-119.867102909,331,"1708 SIERRA HIGHLANDS DR, RENO, NV, 89523","Match","Exact","1708 SIERRA HIGHLANDS DR, RENO, NV, 89523",107072880,"L"
84332,"1708 SILVERY CANOE WAY","WYLIE","TX",75098,33.06140379,-96.5502520639999,332,"1708 SILVERY CANOE WAY, WYLIE, TX, 75098","Match","Exact","1708 SILVERY CANOE WAY, WYLIE, TX, 75098",648105034,"R"
84333,"1708 SOUTH ADAMS STREET","FORT WORTH","TX",76110,32.7258241110001,-97.3368154949999,333,"1708 SOUTH ADAMS STREET, FORT WORTH, TX, 76110","Match","Exact","1708 S ADAMS ST, FORT WORTH, TX, 76110",101885907,"R"
84334,"1708 SPOONBILL DR","LITTLE ELM","TX",75068,NA,NA,334,"1708 SPOONBILL DR, LITTLE ELM, TX, 75068","No_Match",NA,NA,NA,NA
84335,"1708 SPRING GREEN BLVD STE 120-233","KATY","TX",77494,NA,NA,335,"1708 SPRING GREEN BLVD STE 120-233, KATY, TX, 77494","No_Match",NA,NA,NA,NA
84336,"1708 SPRINGHILL DR NW","ALBANY","OR",97321,NA,NA,336,"1708 SPRINGHILL DR NW, ALBANY, OR, 97321","No_Match",NA,NA,NA,NA
84337,"1708 TARGHEE DR","TWIN FALLS","ID",83301,42.5809138400001,-114.452364887,337,"1708 TARGHEE DR, TWIN FALLS, ID, 83301","Match","Exact","1708 TARGHEE DR, TWIN FALLS, ID, 83301",118763447,"R"
84338,"1708 TRIANGLE","ALICE","TX",78332,NA,NA,338,"1708 TRIANGLE, ALICE, TX, 78332","No_Match",NA,NA,NA,NA
84339,"1708 TURTLECREEK ROAD","EDMOND","OK",73013,35.636301152,-97.4522349119999,339,"1708 TURTLECREEK ROAD, EDMOND, OK, 73013","Match","Exact","1708 TURTLECREEK RD, EDMOND, OK, 73013",100436944,"L"
84340,"1708 VILLAGE RIDGE PLACE","COLLIERVILLE","TN",38017,35.045066137,-89.7185403559999,340,"1708 VILLAGE RIDGE PLACE, COLLIERVILLE, TN, 38017","Match","Exact","1708 VILLAGE RIDGE PL, COLLIERVILLE, TN, 38017",607495501,"R"
84341,"1708 W SANDCROFT DR","CHARLESTON","SC",29407,32.81722362,-80.02361831,341,"1708 W SANDCROFT DR, CHARLESTON, SC, 29407","Match","Exact","1708 W SANDCROFT DR, CHARLESTON, SC, 29407",605516167,"L"
84342,"1708 WYNFIELD LANE","AUBURN","GA",30011,34.0168733790001,-83.8450503719999,342,"1708 WYNFIELD LANE, AUBURN, GA, 30011","Match","Exact","1708 WYNFIELD LN, AUBURN, GA, 30011",634087777,"R"
84343,"1708 ZIMMERMAN COURT","VIRGINIA BEACH","VA",23464,36.7856895890001,-76.1863808849999,343,"1708 ZIMMERMAN COURT, VIRGINIA BEACH, VA, 23464","Match","Exact","1708 ZIMMERMAN CT, VA BCH, VA, 23464",122294936,"R"
84344,"1708 ZUMA DRIVE APT305","ARLINGTON","TX",76006,32.77209336,-97.084666289,344,"1708 ZUMA DRIVE APT305, ARLINGTON, TX, 76006","Match","Exact","1708 ZUMA DR, ARLINGTON, TX, 76006",102096913,"R"
84345,"17080 MONAHAN DR","ALTURA","MN",55910,44.034694942,-91.93057355,345,"17080 MONAHAN DR, ALTURA, MN, 55910","Match","Exact","17080 MONAHAN DR, ALTURA, MN, 55910",31661213,"R"
84346,"17080 SAFETY ST APT 104","FORT MYERS","FL",33908,NA,NA,346,"17080 SAFETY ST APT 104, FORT MYERS, FL, 33908","No_Match",NA,NA,NA,NA
84347,"17081 A LN APT B","HUNTINGTON BEACH","CA",92647,33.71486315,-117.988222309,347,"17081 A LN APT B, HUNTINGTON BEACH, CA, 92647","Match","Exact","17081 A LN, HUNTINGTON BEACH, CA, 92647",144018056,"R"
84348,"17081 THREE RIVERS ROAD","COVINGTON","LA",70433,30.4345735640001,-90.111388434,348,"17081 THREE RIVERS ROAD, COVINGTON, LA, 70433","Match","Exact","17081 THREE RIVERS RD, COVINGTON, LA, 70433",111235677,"L"
84349,"17082 ANNS BROOK COURT","WOODBRIDGE","VA",22191,38.581061962,-77.2943178749999,349,"17082 ANNS BROOK COURT, WOODBRIDGE, VA, 22191","Match","Exact","17082 ANNS BROOK CT, WOODBRIDGE, VA, 22191",76521499,"R"
84350,"17085 NORTH GRANITE DR","COTTONWOOD","CA",96022,40.2905371750001,-122.290334236,350,"17085 NORTH GRANITE DR, COTTONWOOD, CA, 96022","Match","Exact","17085 N GRANITE DR, COTTONWOOD, CA, 96022",624850907,"L"
84351,"17089 STAFFORD RD","BROOKINGS","OR",97415,42.0717398900001,-124.299888961,351,"17089 STAFFORD RD, BROOKINGS, OR, 97415","Match","Exact","17089 STAFFORD RD, BROOKINGS, OR, 97415",137108040,"R"
84352,"1709 4TH ST SE","AUBURN","WA",98002,47.3047080420001,-122.207498737,352,"1709 4TH ST SE, AUBURN, WA, 98002","Match","Exact","1709 4TH ST SE, AUBURN, WA, 98002",186656430,"L"
84353,"1709 6TH AVE N UNIT A","NASHVILLE","TN",37208,36.1821999480001,-86.7942058039999,353,"1709 6TH AVE N UNIT A, NASHVILLE, TN, 37208","Match","Exact","1709 6TH AVE N, NASHVILLE, TN, 37208",606374267,"L"
84354,"1709 BLOSSOM CIRCLE WEST","LAKELAND","FL",33805,28.067480554,-81.973258517,354,"1709 BLOSSOM CIRCLE WEST, LAKELAND, FL, 33805","Match","Exact","1709 BLOSSOM CIR W, LAKELAND, FL, 33805",104861397,"R"
84355,"1709 BYNWOOD DR","WILSON","NC",27893,35.7077880510001,-77.895484868,355,"1709 BYNWOOD DR, WILSON, NC, 27893","Match","Non_Exact","1709 BYNWOOD DR SE, WILSON, NC, 27893",26707233,"R"
84356,"1709 CHAMBERS DRIVE","MATTHEWS","NC",28105,35.118772017,-80.694229096,356,"1709 CHAMBERS DRIVE, MATTHEWS, NC, 28105","Match","Exact","1709 CHAMBERS DR, MATTHEWS, NC, 28105",70539002,"R"
84357,"1709 CHEVY CHASE DRIVE","BEVERLY HILLS","CA",90210,34.0837629170001,-118.423281848,357,"1709 CHEVY CHASE DRIVE, BEVERLY HILLS, CA, 90210","Match","Exact","1709 CHEVY CHASE DR, BEVERLY HILLS, CA, 90210",141571035,"R"
84358,"1709 CLINTON AVENUE","KALAMAZOO","MI",49001,42.2754355980001,-85.5591643129999,358,"1709 CLINTON AVENUE, KALAMAZOO, MI, 49001","Match","Exact","1709 CLINTON AVE, KALAMAZOO, MI, 49001",12230291,"L"
84359,"1709 CLUB COVE","STUTTGART","AR",72160,34.4794217350001,-91.531435458,359,"1709 CLUB COVE, STUTTGART, AR, 72160","Match","Exact","1709 CLUB COVE, STUTTGART, AR, 72160",11977789,"L"
84360,"1709 CREEKSIDE DRIVE","STEVENSVILLE","MT",59870,46.507835712,-114.06852679,360,"1709 CREEKSIDE DRIVE, STEVENSVILLE, MT, 59870","Match","Exact","1709 CREEKSIDE DR, STEVENSVILLE, MT, 59870",153560159,"R"
84361,"1709 DATE AVENUE","TORRANCE","CA",90503,33.8310049080001,-118.32979801,361,"1709 DATE AVENUE, TORRANCE, CA, 90503","Match","Exact","1709 DATE AVE, TORRANCE, CA, 90503",142756871,"R"
84362,"1709 DEXTER AVE N UNIT B","SEATTLE","WA",98109,47.634197198,-122.342291975,362,"1709 DEXTER AVE N UNIT B, SEATTLE, WA, 98109","Match","Exact","1709 DEXTER AVE N, SEATTLE, WA, 98109",186990414,"L"
84363,"1709 DIANE MERLE DRIVE","NORTH HUNTINGDON","PA",15642,40.3258610230001,-79.7689057549999,363,"1709 DIANE MERLE DRIVE, NORTH HUNTINGDON, PA, 15642","Match","Exact","1709 DIANE MERLE DR, N HUNTINGDON, PA, 15642",52966070,"L"
84364,"1709 E BANCROFT LANE","CROFTON","MD",21114,39.013891652,-76.6767247289999,364,"1709 E BANCROFT LANE, CROFTON, MD, 21114","Match","Exact","1709 E BANCROFT LN, CROFTON, MD, 21114",68191045,"R"
84365,"1709 E EZMIRLIAN ST","COMPTON","CA",90221,33.906031774,-118.205251822,365,"1709 E EZMIRLIAN ST, COMPTON, CA, 90221","Match","Exact","1709 E EZMIRLIAN ST, COMPTON, CA, 90221",141678589,"L"
84366,"1709 E TAYLOR ST","BLOOMINGTON","IL",61701,40.4762043750001,-88.968621764,366,"1709 E TAYLOR ST, BLOOMINGTON, IL, 61701","Match","Exact","1709 E TAYLOR ST, BLOOMINGTON, IL, 61701",20547969,"R"
84367,"1709 E WILLIAM J BRYAN PKWY","BRYAN","TX",77802,NA,NA,367,"1709 E WILLIAM J BRYAN PKWY, BRYAN, TX, 77802","No_Match",NA,NA,NA,NA
84368,"1709 EAST CLAY STREET APT 505","RICHMOND","VA",23223,37.5377448420001,-77.424273253,368,"1709 EAST CLAY STREET APT 505, RICHMOND, VA, 23223","Match","Exact","1709 E CLAY ST, RICHMOND, VA, 23223",201541090,"R"
84369,"1709 EAST GENESEE STREET","TAMPA","FL",33610,27.9842155000001,-82.4398985839999,369,"1709 EAST GENESEE STREET, TAMPA, FL, 33610","Match","Exact","1709 E GENESEE ST, TAMPA, FL, 33610",104522833,"R"
84370,"1709 ELK ST","STEVENS POINT","WI",54481,44.5179512440001,-89.5799399859999,370,"1709 ELK ST, STEVENS POINT, WI, 54481","Match","Exact","1709 ELK ST, STEVENS POINT, WI, 54481",126794912,"R"
84371,"1709 FAIRWAY LANE","SPANISH FORK","UT",84660,40.0868146700001,-111.596260453,371,"1709 FAIRWAY LANE, SPANISH FORK, UT, 84660","Match","Exact","1709 FAIRWAY LN, SPANISH FORK, UT, 84660",227059797,"R"
84372,"1709 FARINGDON DRIVE","PLANO","TX",75075,33.0307617820001,-96.729246545,372,"1709 FARINGDON DRIVE, PLANO, TX, 75075","Match","Exact","1709 FARINGDON DR, PLANO, TX, 75075",650663591,"L"
84373,"1709 FELICITY LANE","KISSIMMEE","FL",34744,NA,NA,373,"1709 FELICITY LANE, KISSIMMEE, FL, 34744","No_Match",NA,NA,NA,NA
84374,"1709 FRANK HALL DRIVE","ALBERT LEA","MN",56007,43.6326514180001,-93.353660527,374,"1709 FRANK HALL DRIVE, ALBERT LEA, MN, 56007","Match","Exact","1709 FRANK HALL DR, ALBERT LEA, MN, 56007",39546433,"R"
84375,"1709 GORNTO ROAD PMB243","VALDOSTA","GA",31601,30.845362993,-83.324374926,375,"1709 GORNTO ROAD PMB243, VALDOSTA, GA, 31601","Match","Exact","1709 GORNTO RD, VALDOSTA, GA, 31601",647600822,"R"
84376,"1709 GRAVES RD","STAMPING GROUND","KY",40379,38.304651812,-84.6666876049999,376,"1709 GRAVES RD, STAMPING GROUND, KY, 40379","Match","Exact","1709 GRAVES RD, STAMPING GROUND, KY, 40379",41240583,"R"
84377,"1709 HARVEST DRIVE","HOUMA","LA",70360,29.583895484,-90.735997092,377,"1709 HARVEST DRIVE, HOUMA, LA, 70360","Match","Exact","1709 HARVEST DR, HOUMA, LA, 70360",92062701,"L"
84378,"1709 HIBISCUS CIR N","OLDSMAR","FL",34677,28.0400649900001,-82.689951729,378,"1709 HIBISCUS CIR N, OLDSMAR, FL, 34677","Match","Exact","1709 HIBISCUS CIR N, OLDSMAR, FL, 34677",124682215,"R"
84379,"1709 HIBISCUS CIRCLE N","OLDSMAR","FL",34677,28.0400649900001,-82.689951729,379,"1709 HIBISCUS CIRCLE N, OLDSMAR, FL, 34677","Match","Exact","1709 HIBISCUS CIR N, OLDSMAR, FL, 34677",124682215,"R"
84380,"1709 HIGHWAY 20 WEST","MCDONOUGH","GA",30253,NA,NA,380,"1709 HIGHWAY 20 WEST, MCDONOUGH, GA, 30253","No_Match",NA,NA,NA,NA
84381,"1709 HOPKINS STREET","BERKELEY","CA",94707,37.8831189860001,-122.278997817,381,"1709 HOPKINS STREET, BERKELEY, CA, 94707","Match","Exact","1709 HOPKINS ST, BERKELEY, CA, 94707",605994352,"L"
84382,"1709 HUNTINGTON DR","MESQUITE","TX",75149,32.7893867600001,-96.64767044,382,"1709 HUNTINGTON DR, MESQUITE, TX, 75149","Match","Exact","1709 HUNTINGTON DR, MESQUITE, TX, 75149",102972370,"L"
84383,"1709 HUSSON AVENUE","PALATKA","FL",32177,29.631538452,-81.653499816,383,"1709 HUSSON AVENUE, PALATKA, FL, 32177","Match","Exact","1709 HUSSON AVE, PALATKA, FL, 32177",86073273,"R"
84384,"1709 HWY 20 EAST","SAINT PAULS","NC",28384,NA,NA,384,"1709 HWY 20 EAST, SAINT PAULS, NC, 28384","No_Match",NA,NA,NA,NA
84385,"1709 HWY 24","COMMERCE","TX",75428,NA,NA,385,"1709 HWY 24, COMMERCE, TX, 75428","No_Match",NA,NA,NA,NA
84386,"1709 KERRY COURT","WEST COVINA","CA",91792,34.018013904,-117.91001361,386,"1709 KERRY COURT, WEST COVINA, CA, 91792","Match","Exact","1709 KERRY CT, WEST COVINA, CA, 91792",141716768,"L"
84387,"1709 KY ROUTE 321","PRESTONSBURG","KY",41653,NA,NA,387,"1709 KY ROUTE 321, PRESTONSBURG, KY, 41653","No_Match",NA,NA,NA,NA
84388,"1709 LYLE ROAD","WEATHERFORD","OK",73096,35.5412062240001,-98.676477563,388,"1709 LYLE ROAD, WEATHERFORD, OK, 73096","Match","Exact","1709 LYLE RD, WEATHERFORD, OK, 73096",150585906,"L"
84389,"1709 LYTLE ST","LOUISVILLE","KY",40203,38.2627594520001,-85.777305038,389,"1709 LYTLE ST, LOUISVILLE, KY, 40203","Match","Exact","1709 LYTLE ST, LOUISVILLE, KY, 40203",96842000,"R"
84390,"1709 MADRID","SAN ANTONIO","TX",78254,NA,NA,390,"1709 MADRID, SAN ANTONIO, TX, 78254","No_Match",NA,NA,NA,NA
84391,"1709 MAID MARION LANE APARTMENT 302","WINSTON SALEM","NC",27106,36.1183780110001,-80.361099651,391,"1709 MAID MARION LANE APARTMENT 302, WINSTON SALEM, NC, 27106","Match","Exact","1709 MAID MARION LN, WINSTON SALEM, NC, 27106",650209982,"L"
84392,"1709 MARTIN LUTHER KING JR BLVD","DALLAS","TX",75215,32.7620916970001,-96.776594051,392,"1709 MARTIN LUTHER KING JR BLVD, DALLAS, TX, 75215","Match","Exact","1709 MARTIN LUTHER KING JR BLVD, DALLAS, TX, 75215",102950422,"L"
84393,"1709 MCKNIGHT ROAD NORTH","MAPLEWOOD","MN",55109,NA,NA,393,"1709 MCKNIGHT ROAD NORTH, MAPLEWOOD, MN, 55109","No_Match",NA,NA,NA,NA
84394,"1709 N AVENUE 55","LOS ANGELES","CA",90042,34.124514811,-118.197573005,394,"1709 N AVENUE 55, LOS ANGELES, CA, 90042","Match","Exact","1709 N AVE 55, LOS ANGELES, CA, 90042",640421440,"L"
84395,"1709 N FULLER AVENUE 15","LOS ANGELES","CA",90046,34.101902678,-118.348952699,395,"1709 N FULLER AVENUE 15, LOS ANGELES, CA, 90046","Match","Non_Exact","1709 N FULLER AVE, LOS ANGELES, CA, 90046",648859080,"L"
84396,"1709 N VALLEY AVE","PEORIA","IL",61604,40.7082765870001,-89.6110009609999,396,"1709 N VALLEY AVE, PEORIA, IL, 61604","Match","Exact","1709 N VALLEY AVE, PEORIA, IL, 61604",8722316,"L"
84397,"1709 NE 21ST ST","OKLAHOMA CITY","OK",73111,35.4913419710001,-97.482147659,397,"1709 NE 21ST ST, OKLAHOMA CITY, OK, 73111","Match","Exact","1709 NE 21ST ST, OKLAHOMA CITY, OK, 73111",100411786,"L"
84398,"1709 NEW YORK AVE","EGG HARBOR CITY","NJ",8215,NA,NA,398,"1709 NEW YORK AVE, EGG HARBOR CITY, NJ, 8215","No_Match",NA,NA,NA,NA
84399,"1709 NORRIS DRIVE","AUSTIN","TX",78704,30.2556732410001,-97.775216276,399,"1709 NORRIS DRIVE, AUSTIN, TX, 78704","Match","Exact","1709 NORRIS DR, AUSTIN, TX, 78704",63998764,"L"
84400,"1709 NORTH RACINE STREET","APPLETON","WI",54911,44.277241759,-88.389205609,400,"1709 NORTH RACINE STREET, APPLETON, WI, 54911","Match","Exact","1709 N RACINE ST, APPLETON, WI, 54911",74886796,"L"
84401,"1709 NORTH WASHTENAW AVENUE","CHICAGO","IL",60647,41.9123446840001,-87.694594406,401,"1709 NORTH WASHTENAW AVENUE, CHICAGO, IL, 60647","Match","Exact","1709 N WASHTENAW AVE, CHICAGO, IL, 60647",111762858,"R"
84402,"1709 NORTHBOURNE ROAD","BALTIMORE","MD",21239,39.354147927,-76.582852031,402,"1709 NORTHBOURNE ROAD, BALTIMORE, MD, 21239","Match","Exact","1709 NORTHBOURNE RD, BALTIMORE, MD, 21239",206409701,"R"
84403,"1709 NUTTMAN AV","DECATUR","IN",46733,40.8324099700001,-84.94240185,403,"1709 NUTTMAN AV, DECATUR, IN, 46733","Match","Exact","1709 NUTTMAN AVE, DECATUR, IN, 46733",6488923,"L"
84404,"1709 OAKLAWN DR","MONROE","LA",71202,32.493395548,-92.0889995429999,404,"1709 OAKLAWN DR, MONROE, LA, 71202","Match","Exact","1709 OAKLAWN DR, MONROE, LA, 71202",612375835,"L"
84405,"1709 OLIVE ST","BALTIMORE","MD",21230,39.2703465180001,-76.614544025,405,"1709 OLIVE ST, BALTIMORE, MD, 21230","Match","Exact","1709 OLIVE ST, BALTIMORE, MD, 21230",206421084,"L"
84406,"1709 OVERVIEW DR","NEW PORT RICHEY","FL",34655,28.184626162,-82.7078743759999,406,"1709 OVERVIEW DR, NEW PORT RICHEY, FL, 34655","Match","Exact","1709 OVERVIEW DR, NEW PORT RICHEY, FL, 34655",86358423,"R"
84407,"1709 REISTERSTOWN ROAD - SUITE 3","PIKESVILLE","MD",21208,39.381352647,-76.730185766,407,"1709 REISTERSTOWN ROAD - SUITE 3, PIKESVILLE, MD, 21208","Match","Exact","1709 REISTERSTOWN RD, PIKESVILLE, MD, 21208",191560981,"R"
84408,"1709 RIVERKNOLL DRIVE UNIT 103","RALEIGH","NC",27610,35.756762372,-78.548401337,408,"1709 RIVERKNOLL DRIVE UNIT 103, RALEIGH, NC, 27610","Match","Non_Exact","1709 RIVER KNOLL DR, RALEIGH, NC, 27610",72542599,"R"
84409,"1709 RYAN AVE","MURRAY","KY",42071,36.616021781,-88.329929379,409,"1709 RYAN AVE, MURRAY, KY, 42071","Match","Exact","1709 RYAN AVE, MURRAY, KY, 42071",31708867,"L"
84410,"1709 S JEFFERSON ST","PERRY","FL",32348,30.1040367570001,-83.582550618,410,"1709 S JEFFERSON ST, PERRY, FL, 32348","Match","Exact","1709 S JEFFERSON ST, PERRY, FL, 32348",53965592,"L"
84411,"1709 SE CUTTER LANE","VANCOUVER","WA",98661,45.6170718760001,-122.653116571,411,"1709 SE CUTTER LANE, VANCOUVER, WA, 98661","Match","Exact","1709 SE CUTTER LN, VANCOUVER, WA, 98661",158369620,"R"
84412,"1709 SHAD LANE","KISSIMMEE","FL",34759,28.0796002060001,-81.5058586169999,412,"1709 SHAD LANE, KISSIMMEE, FL, 34759","Match","Exact","1709 SHAD LN, KISSIMMEE, FL, 34759",104870250,"L"
84413,"1709 SIR JOHN CT","ORLANDO","FL",32837,28.384173629,-81.400128264,413,"1709 SIR JOHN CT, ORLANDO, FL, 32837","Match","Exact","1709 SIR JOHN CT, ORLANDO, FL, 32837",94370651,"L"
84414,"1709 SOUTHERN DRAW DR","TEMPLE","TX",76502,NA,NA,414,"1709 SOUTHERN DRAW DR, TEMPLE, TX, 76502","No_Match",NA,NA,NA,NA
84415,"1709 SPIELBUSCH AVE STE 101","TOLEDO","OH",43604,41.65738423,-83.536759116,415,"1709 SPIELBUSCH AVE STE 101, TOLEDO, OH, 43604","Match","Exact","1709 SPIELBUSCH AVE, TOLEDO, OH, 43604",638580979,"L"
84416,"1709 SUMMERFIELD ST","RIDGEWOOD","NY",11385,40.696914963,-73.9003401209999,416,"1709 SUMMERFIELD ST, RIDGEWOOD, NY, 11385","Match","Exact","1709 SUMMERFIELD ST, RIDGEWOOD, NY, 11385",59726093,"L"
84417,"1709 SUNSET VIEW CIRCLE","APOPKA","FL",32703,28.6799940340001,-81.4779731089999,417,"1709 SUNSET VIEW CIRCLE, APOPKA, FL, 32703","Match","Exact","1709 SUNSET VIEW CIR, APOPKA, FL, 32703",640914491,"R"
84418,"1709 TIMBERLAKE DRIVE","SALISBURY","MD",21801,38.3387580250001,-75.6268414199999,418,"1709 TIMBERLAKE DRIVE, SALISBURY, MD, 21801","Match","Exact","1709 TIMBERLAKE DR, SALISBURY, MD, 21801",114451719,"R"
84419,"1709 TIPTON STATION RD","KNOXVILLE","TN",37920,35.8941304090001,-83.875603554,419,"1709 TIPTON STATION RD, KNOXVILLE, TN, 37920","Match","Exact","1709 TIPTON STATION RD, KNOXVILLE, TN, 37920",42632518,"R"
84420,"1709 VERNON AVE","ROCKY MOUNT","NC",27802,NA,NA,420,"1709 VERNON AVE, ROCKY MOUNT, NC, 27802","No_Match",NA,NA,NA,NA
84421,"1709 VIOLETAS RD NW","ALBUQUERQUE","NM",87104,35.1088043600001,-106.663681983,421,"1709 VIOLETAS RD NW, ALBUQUERQUE, NM, 87104","Match","Exact","1709 VIOLETAS RD NW, ALBUQUERQUE, NM, 87104",634063681,"L"
84422,"1709 W 40TH AVE","KENNEWICK","WA",99337,46.172555964,-119.142414556,422,"1709 W 40TH AVE, KENNEWICK, WA, 99337","Match","Exact","1709 W 40TH AVE, KENNEWICK, WA, 99337",606992864,"L"
84423,"1709 W LOMBARD STREET","BALTIMORE","MD",21223,39.286268368,-76.644329322,423,"1709 W LOMBARD STREET, BALTIMORE, MD, 21223","Match","Exact","1709 W LOMBARD ST, BALTIMORE, MD, 21223",206417557,"L"
84424,"1709 W SHERRIE DR","FLAGSTAFF","AZ",86001,35.1903339690001,-111.67413943,424,"1709 W SHERRIE DR, FLAGSTAFF, AZ, 86001","Match","Exact","1709 W SHERRIE DR, FLAGSTAFF, AZ, 86001",188954264,"R"
84425,"1709 WASHINGTON VALLEY DRIVE","STEWARTSVILLE","NJ",8886,40.6868097720001,-75.134391815,425,"1709 WASHINGTON VALLEY DRIVE, STEWARTSVILLE, NJ, 8886","Match","Exact","1709 WASHINGTON VALLEY DR, STEWARTSVILLE, NJ, 08886",98096842,"R"
84426,"17090 COLLINSON","EASTPOINTE","MI",48021,42.4548009820001,-82.945248841,426,"17090 COLLINSON, EASTPOINTE, MI, 48021","Match","Non_Exact","17090 COLLINSON AVE, EASTPOINTE, MI, 48021",110685214,"R"
84427,"17090 MW 22 STREET","PEMBROKE PINES","FL",33028,26.026679105,-80.375214451,427,"17090 MW 22 STREET, PEMBROKE PINES, FL, 33028","Match","Non_Exact","17090 NW 22ND ST, PEMBROKE PINES, FL, 33028",114790246,"R"
84428,"17092 80TH PL N","MAPLE GROVE","MN",55311,45.1013978500001,-93.4975129169999,428,"17092 80TH PL N, MAPLE GROVE, MN, 55311","Match","Exact","17092 80TH PL N, MAPLE GROVE, MN, 55311",43847271,"L"
84429,"17094 FERRY DOCK ROAD","KING GEORGE","VA",22485,38.3235188080001,-77.050565489,429,"17094 FERRY DOCK ROAD, KING GEORGE, VA, 22485","Match","Exact","17094 FERRY DOCK RD, KING GEORGE, VA, 22485",650239315,"L"
84430,"17096 BEAVER DAM","BEAVERDAM","VA",23015,37.8723032130001,-77.689375409,430,"17096 BEAVER DAM, BEAVERDAM, VA, 23015","Match","Non_Exact","17096 BEAVERDAM RD, BEAVERDAM, VA, 23015",84992118,"R"
84431,"17096 SEQUOIA AVE 117","HESPERIA","CA",92345,34.469079213,-117.290333664,431,"17096 SEQUOIA AVE 117, HESPERIA, CA, 92345","Match","Non_Exact","17096 SEQUOIA ST, HESPERIA, CA, 92345",614850840,"R"
84432,"17099 VIA MAGDALENA","SAN LORENZO","CA",94580,37.6749185690001,-122.127176602,432,"17099 VIA MAGDALENA, SAN LORENZO, CA, 94580","Match","Exact","17099 VIA MAGDALENA, SAN LORENZO, CA, 94580",125019314,"R"
84433,"171 12TH STREET","BETHPAGE","NY",11714,40.7505313870001,-73.49279438,433,"171 12TH STREET, BETHPAGE, NY, 11714","Match","Exact","171 12TH ST, BETHPAGE, NY, 11714",147834193,"L"
84434,"171 17TH STREET NW SUITE 1100","ATLANTA","GA",30363,33.7911804930001,-84.3897867869999,434,"171 17TH STREET NW SUITE 1100, ATLANTA, GA, 30363","Match","Non_Exact","171 17TH ST NW, ATLANTA, GA, 30309",17343416,"R"
84435,"171 38 107TH ST","JAMAICA","NY",11433,NA,NA,435,"171 38 107TH ST, JAMAICA, NY, 11433","No_Match",NA,NA,NA,NA
84436,"171 AMITY ROAD","BETHANY","CT",6524,41.3999362340001,-73.0011723059999,436,"171 AMITY ROAD, BETHANY, CT, 6524","Match","Exact","171 AMITY RD, BETHANY, CT, 06524",3716843,"L"
84437,"171 ANDOVER STREET UNIT 1","LOWELL","MA",1852,42.6420694650001,-71.298713638,437,"171 ANDOVER STREET UNIT 1, LOWELL, MA, 1852","Match","Exact","171 ANDOVER ST, LOWELL, MA, 01852",86878938,"R"
84438,"171 ARGILLA ROAD","IPSWICH","MA",1938,42.667938443,-70.7975682639999,438,"171 ARGILLA ROAD, IPSWICH, MA, 1938","Match","Exact","171 ARGILLA RD, IPSWICH, MA, 01938",86654778,"L"
84439,"171 ARLINGTON AVENUE EAST","SAINT PAUL","MN",55117,44.984565794,-93.0931531109999,439,"171 ARLINGTON AVENUE EAST, SAINT PAUL, MN, 55117","Match","Exact","171 ARLINGTON AVE E, SAINT PAUL, MN, 55117",97670715,"L"
84440,"171 ASPEN DR","DURANGO","CO",81301,37.2667130620001,-107.991931854,440,"171 ASPEN DR, DURANGO, CO, 81301","Match","Exact","171 ASPEN DR, DURANGO, CO, 81301",91706549,"R"
84441,"171 AUBINWOOD ROAD","AMHERST","MA",1002,42.3685770120001,-72.476736446,441,"171 AUBINWOOD ROAD, AMHERST, MA, 1002","Match","Exact","171 AUBINWOOD RD, AMHERST, MA, 01002",39853316,"R"
84442,"171 AUBURN AVE NE SUITE 307","ATLANTA","GA",30303,33.7555443250001,-84.3813312249999,442,"171 AUBURN AVE NE SUITE 307, ATLANTA, GA, 30303","Match","Exact","171 AUBURN AVE NE, ATLANTA, GA, 30303",17344657,"R"
84443,"171 BAYLOR SCHOOL C/O LUCIE MERKATZ","CHATTANOOGA","TN",37405,35.0850692880001,-85.3337628419999,443,"171 BAYLOR SCHOOL C/O LUCIE MERKATZ, CHATTANOOGA, TN, 37405","Match","Non_Exact","171 BAYLOR SCHOOL RD, CHATTANOOGA, TN, 37405",624530485,"R"
84444,"171 BEXLEY CHURCH RD","LUCEDALE","MS",39452,30.9283661420001,-88.6955322319999,444,"171 BEXLEY CHURCH RD, LUCEDALE, MS, 39452","Match","Exact","171 BEXLEY CHURCH RD, LUCEDALE, MS, 39452",606144046,"L"
84445,"171 BOBBY STREET","ELIZABETHTOWN","KY",42701,37.655281169,-85.824761247,445,"171 BOBBY STREET, ELIZABETHTOWN, KY, 42701","Match","Exact","171 BOBBY ST, ELIZABETHTOWN, KY, 42701",34651641,"L"
84446,"171 BONA ROAD","BUFORD","GA",30518,34.127123973,-83.9970111709999,446,"171 BONA ROAD, BUFORD, GA, 30518","Match","Exact","171 BONA RD, BUFORD, GA, 30518",649873588,"L"
84447,"171 BORMAN AVE","AVENEL","NJ",7001,40.583025208,-74.265851813,447,"171 BORMAN AVE, AVENEL, NJ, 7001","Match","Exact","171 BORMAN AVE, AVENEL, NJ, 07001",626224140,"L"
84448,"171 BOYNTON ROAD","Hampton","GA",30248,33.344100822,-84.2596879399999,448,"171 BOYNTON ROAD, Hampton, GA, 30248","Match","Non_Exact","171 BOYNTON RD, HAMPTON, GA, 30228",652440130,"L"
84449,"171 BRANHAM LN STE 10-512","SAN JOSE","CA",95136,37.266006455,-121.8404525,449,"171 BRANHAM LN STE 10-512, SAN JOSE, CA, 95136","Match","Exact","171 BRANHAM LN, SAN JOSE, CA, 95136",123012304,"L"
84450,"171 BROAD ST UNIT 1 NUMBER700","RED BANK","NJ",7701,40.3458050840001,-74.064766526,450,"171 BROAD ST UNIT 1 NUMBER700, RED BANK, NJ, 7701","Match","Exact","171 BROAD ST, RED BANK, NJ, 07701",90452289,"L"
84451,"171 BROAD STREET UNIT 344","RED BANK","NJ",7701,40.3458050840001,-74.064766526,451,"171 BROAD STREET UNIT 344, RED BANK, NJ, 7701","Match","Exact","171 BROAD ST, RED BANK, NJ, 07701",90452289,"L"
84452,"171 BUFFALO RD","CLARKSVILLE","VA",23927,36.6221034480001,-78.574357242,452,"171 BUFFALO RD, CLARKSVILLE, VA, 23927","Match","Exact","171 BUFFALO RD, CLARKSVILLE, VA, 23927",54324713,"R"
84453,"171 CANAL BLVD","PONTE VEDRA BEACH","FL",32082,30.17703993,-81.3964817029999,453,"171 CANAL BLVD, PONTE VEDRA BEACH, FL, 32082","Match","Exact","171 CANAL BLVD, PONTE VEDRA BEACH, FL, 32082",92617262,"L"
84454,"171 CARROLL ST","SHREVEPORT","LA",71105,32.4537436270001,-93.7163613769999,454,"171 CARROLL ST, SHREVEPORT, LA, 71105","Match","Exact","171 CARROLL ST, SHREVEPORT, LA, 71105",57441726,"L"
84455,"171 CHEROKEE ROAD","HENDERSONVILLE","TN",37075,36.292351631,-86.602668641,455,"171 CHEROKEE ROAD, HENDERSONVILLE, TN, 37075","Match","Exact","171 CHEROKEE RD, HENDERSONVILLE, TN, 37075",29775883,"L"
84456,"171 CHEYENNE DRIVE","LYNCHBURG","VA",24502,37.3468643030001,-79.252356779,456,"171 CHEYENNE DRIVE, LYNCHBURG, VA, 24502","Match","Exact","171 CHEYENNE DR, LYNCHBURG, VA, 24502",644910311,"R"
84457,"171 CHURCH ST STE 160","CHARLESTON","SC",29401,32.7812107610001,-79.929631505,457,"171 CHURCH ST STE 160, CHARLESTON, SC, 29401","Match","Exact","171 CHURCH ST, CHARLESTON, SC, 29401",108807736,"L"
84458,"171 CHURCH STREET EXT","SMITHFIELD","PA",15478,39.814555996,-79.819856203,458,"171 CHURCH STREET EXT, SMITHFIELD, PA, 15478","Match","Non_Exact","171 CHURCH ST, SMITHFIELD, PA, 15478",613528474,"L"
84459,"171 COLERIDGE ST","BOSTON","MA",2128,42.3813778480001,-71.0132721689999,459,"171 COLERIDGE ST, BOSTON, MA, 2128","Match","Exact","171 COLERIDGE ST, BOSTON, MA, 02128",85714221,"R"
84460,"171 CONAMARA LANE","WOODRUFF","SC",29388,34.8455559550001,-82.112219691,460,"171 CONAMARA LANE, WOODRUFF, SC, 29388","Match","Exact","171 CONAMARA LN, WOODRUFF, SC, 29388",624476497,"L"
84461,"171 CONCORD LN","HINCKLEY","OH",44233,41.271594233,-81.7630479869999,461,"171 CONCORD LN, HINCKLEY, OH, 44233","Match","Exact","171 CONCORD LN, HINCKLEY, OH, 44233",58684584,"L"
84462,"171 COUNTY HWY 430","ORAN","MO",63771,37.0388930500001,-89.617967505,462,"171 COUNTY HWY 430, ORAN, MO, 63771","Match","Non_Exact","171 CO RD 430, ORAN, MO, 63771",624827379,"L"
84463,"171 CR 1818","SALTILLO","MS",38866,34.3365666390001,-88.579454385,463,"171 CR 1818, SALTILLO, MS, 38866","Match","Exact","171 CO RD 1818, SALTILLO, MS, 38866",90656435,"L"
84464,"171 DENISE ST","OVIEDO","FL",32765,28.6718629850001,-81.1856792139999,464,"171 DENISE ST, OVIEDO, FL, 32765","Match","Exact","171 DENISE ST, OVIEDO, FL, 32765",93740943,"L"
84465,"171 DEWEY ST","SUN PRAIRIE","WI",53590,43.184659176,-89.208240995,465,"171 DEWEY ST, SUN PRAIRIE, WI, 53590","Match","Exact","171 DEWEY ST, SUN PRAIRIE, WI, 53590",49479320,"R"
84466,"171 DOURDAN PLACE","BLOOMFIELD HILLS","MI",48304,42.5972958300001,-83.253725145,466,"171 DOURDAN PLACE, BLOOMFIELD HILLS, MI, 48304","Match","Exact","171 DOURDAN PL, BLOOMFIELD HILLS, MI, 48304",69821131,"L"
84467,"171 DUKE OF GLOUCESTER ST","ANNAPOLIS","FL",21401,NA,NA,467,"171 DUKE OF GLOUCESTER ST, ANNAPOLIS, FL, 21401","No_Match",NA,NA,NA,NA
84468,"171 E IMPERIAL HWY","LA HABRA","CA",90631,NA,NA,468,"171 E IMPERIAL HWY, LA HABRA, CA, 90631","No_Match",NA,NA,NA,NA
84469,"171 E IVY AVE","GERVAIS","OR",97026,NA,NA,469,"171 E IVY AVE, GERVAIS, OR, 97026","Tie",NA,NA,NA,NA
84470,"171 E RIDGEWOOD AVENUE","RIDGEWOOD","NJ",7450,40.979141801,-74.1159418999999,470,"171 E RIDGEWOOD AVENUE, RIDGEWOOD, NJ, 7450","Match","Exact","171 E RIDGEWOOD AVE, RIDGEWOOD, NJ, 07450",64376519,"L"
84471,"171 EAST 84TH STREET APT 12G","NEW YORK","NY",10028,40.7778594640001,-73.955764785,471,"171 EAST 84TH STREET APT 12G, NEW YORK, NY, 10028","Match","Exact","171 E 84TH ST, NEW YORK, NY, 10028",59658259,"L"
84472,"171 EASTERN AVE","SPRINGFIELD","MA",1109,42.1059389440001,-72.562957302,472,"171 EASTERN AVE, SPRINGFIELD, MA, 1109","Match","Exact","171 EASTERN AVE, SPRINGFIELD, MA, 01109",4035868,"L"
84473,"171 EGG AND I RIDGE ROAD","CHIMACUM","WA",98325,NA,NA,473,"171 EGG AND I RIDGE ROAD, CHIMACUM, WA, 98325","No_Match",NA,NA,NA,NA
84474,"171 EMERALD GREEN COURT","CREVE COEUR","MO",63141,38.6574771620001,-90.446441425,474,"171 EMERALD GREEN COURT, CREVE COEUR, MO, 63141","Match","Exact","171 EMERALD GREEN CT, CREVE COEUR, MO, 63141",100125066,"L"
84475,"171 FAYWOOD AVE APT 242","EAST BOSTON","MA",2128,42.392149929,-71.0069096129999,475,"171 FAYWOOD AVE APT 242, EAST BOSTON, MA, 2128","Match","Exact","171 FAYWOOD AVE, EAST BOSTON, MA, 02128",85714246,"R"
84476,"171 FIGUREA AVENUE","STATEN ISLAND","NY",10312,40.5505576670001,-74.1733979219999,476,"171 FIGUREA AVENUE, STATEN ISLAND, NY, 10312","Match","Exact","171 FIGUREA AVE, STATEN ISLAND, NY, 10312",59872176,"R"
84477,"171 FOOTHILLS PARKWAY - SUITE 109","MARBLE HILL","GA",30148,34.414662171,-84.280831871,477,"171 FOOTHILLS PARKWAY - SUITE 109, MARBLE HILL, GA, 30148","Match","Exact","171 FOOTHILLS PKWY, MARBLE HILL, GA, 30148",648872485,"L"
84478,"171 FRANKLIN STREET","TORRINGTON","CT",6790,41.800673766,-73.1161368109999,478,"171 FRANKLIN STREET, TORRINGTON, CT, 6790","Match","Exact","171 FRANKLIN ST, TORRINGTON, CT, 06790",3104245,"L"
84479,"171 GARBROOKE DRIVE","BENNINGTON","VT",5201,42.880321365,-73.157326434,479,"171 GARBROOKE DRIVE, BENNINGTON, VT, 5201","Match","Exact","171 GARBROOKE DR, BENNINGTON, VT, 05201",139214366,"R"
84480,"171 GRAND AVENUE","MONROVIA","CA",91016,34.1538571190001,-117.994485367,480,"171 GRAND AVENUE, MONROVIA, CA, 91016","Match","Exact","171 GRAND AVE, MONROVIA, CA, 91016",141646103,"L"
84481,"171 GRAVES RD","FAYETTEVILLE","GA",30214,33.4854175900001,-84.485949455,481,"171 GRAVES RD, FAYETTEVILLE, GA, 30214","Match","Exact","171 GRAVES RD, FAYETTEVILLE, GA, 30214",75929678,"L"
84482,"171 HICKORY VIEW WAY APT 106","SHINNSTON","WV",26431,39.362707254,-80.203810467,482,"171 HICKORY VIEW WAY APT 106, SHINNSTON, WV, 26431","Match","Exact","171 HICKORY VIEW WAY, SHINNSTON, WV, 26431",641539097,"L"
84483,"171 HIDDEN OAK LN","SEGUIN","TX",78155,29.5461072950001,-97.831641829,483,"171 HIDDEN OAK LN, SEGUIN, TX, 78155","Match","Exact","171 HIDDEN OAK LN, SEGUIN, TX, 78155",54822287,"L"
84484,"171 HIGHLAND RD","MANSFIELD CENTER","CT",6250,41.7447717920001,-72.2501641649999,484,"171 HIGHLAND RD, MANSFIELD CENTER, CT, 6250","Match","Exact","171 HIGHLAND RD, MANSFIELD CENTER, CT, 06250",57008934,"L"
84485,"171 HIGHWAY 89","MONTEVALLO","AL",35115,33.07200627,-86.8041722419999,485,"171 HIGHWAY 89, MONTEVALLO, AL, 35115","Match","Non_Exact","171 CO RD 89, MONTEVALLO, AL, 35115",82125063,"L"
84486,"171 HUBLER RIDGE ROAD","BELLEFONTE","PA",16823,40.9643793990001,-77.6144848279999,486,"171 HUBLER RIDGE ROAD, BELLEFONTE, PA, 16823","Match","Exact","171 HUBLER RIDGE RD, BELLEFONTE, PA, 16823",630633190,"L"
84487,"171 HUGGINS ROAD","DUNCANNON","PA",17020,40.4611868490001,-76.978074452,487,"171 HUGGINS ROAD, DUNCANNON, PA, 17020","Match","Exact","171 HUGGINS RD, DUNCANNON, PA, 17020",61084389,"R"
84488,"171 JOSHUA CT","LINCOLNTON","NC",28092,35.4753655120001,-81.180277928,488,"171 JOSHUA CT, LINCOLNTON, NC, 28092","Match","Exact","171 JOSHUA CT, LINCOLNTON, NC, 28092",69535596,"L"
84489,"171 KENWOOD DRIVE NORTH","LEVITTWON","PA",19055,40.1427288450001,-74.825365666,489,"171 KENWOOD DRIVE NORTH, LEVITTWON, PA, 19055","Match","Non_Exact","171 KENWOOD DR N, LEVITTOWN, PA, 19055",134766456,"L"
84490,"171 KNOX AVE","WEST SENECA","NY",14224,42.8589371530001,-78.783245856,490,"171 KNOX AVE, WEST SENECA, NY, 14224","Match","Exact","171 KNOX AVE, WEST SENECA, NY, 14224",48304047,"R"
84491,"171 LAKE MARIANA PL","AUBURNDALE","FL",33823,28.0758448120001,-81.774485031,491,"171 LAKE MARIANA PL, AUBURNDALE, FL, 33823","Match","Exact","171 LAKE MARIANA PL, AUBURNDALE, FL, 33823",651874824,"R"
84492,"171 LAUREL MOUNTAIN DR","TOCCOA","GA",30577,34.635789518,-83.268549593,492,"171 LAUREL MOUNTAIN DR, TOCCOA, GA, 30577","Match","Exact","171 LAUREL MOUNTAIN DR, TOCCOA, GA, 30577",97857918,"L"
84493,"171 LINCOLN ST","LOWELL","MA",1852,42.628024086,-71.317823473,493,"171 LINCOLN ST, LOWELL, MA, 1852","Match","Exact","171 LINCOLN ST, LOWELL, MA, 01852",87109794,"R"
84494,"171 LINCOLN STREET","LOWELL","MA",1852,42.628024086,-71.317823473,494,"171 LINCOLN STREET, LOWELL, MA, 1852","Match","Exact","171 LINCOLN ST, LOWELL, MA, 01852",87109794,"R"
84495,"171 LITTLE YORK PATTENBURG RD","MILFORD","NJ",8848,40.614421013,-75.052338548,495,"171 LITTLE YORK PATTENBURG RD, MILFORD, NJ, 8848","Match","Exact","171 LITTLE YORK PATTENBURG RD, MILFORD, NJ, 08848",641719161,"L"
84496,"171 LONESOME DOVE LN","LAWRENCEVILLE","VA",23868,36.812356451,-77.752495223,496,"171 LONESOME DOVE LN, LAWRENCEVILLE, VA, 23868","Match","Exact","171 LONESOME DOVE LN, LAWRENCEVILLE, VA, 23868",54035004,"R"
84497,"171 MADISON AVENUE SUITE 1602","NEW YORK","NY",10016,40.7472288160001,-73.983336846,497,"171 MADISON AVENUE SUITE 1602, NEW YORK, NY, 10016","Match","Exact","171 MADISON AVE, NEW YORK, NY, 10016",59654393,"R"
84498,"171 MAIN ST UNIT 298","LOS ALTOS","CA",94022,37.3792390140001,-122.115116598,498,"171 MAIN ST UNIT 298, LOS ALTOS, CA, 94022","Match","Exact","171 MAIN ST, LOS ALTOS, CA, 94022",123176211,"L"
84499,"171 MAIN STREET SUITE 175","LOS ALTOS","CA",94022,37.3792390140001,-122.115116598,499,"171 MAIN STREET SUITE 175, LOS ALTOS, CA, 94022","Match","Exact","171 MAIN ST, LOS ALTOS, CA, 94022",123176211,"L"
84500,"171 MAIN STREET","NEW PALTZ","NY",12561,41.7466040190001,-74.079654363,500,"171 MAIN STREET, NEW PALTZ, NY, 12561","Match","Exact","171 MAIN ST, NEW PALTZ, NY, 12561",41874993,"R"
