"ID","Address","City","State","Zip","lat","long","id","input_address","match_indicator","match_type","matched_address","tiger_line_id","tiger_side"
335001,"PO BOX 153","LONG CREEK","OR",97856,NA,NA,1,"PO BOX 153, LONG CREEK, OR, 97856","No_Match",NA,NA,NA,NA
335002,"PO BOX 153","MERCEDES","TX",78570,NA,NA,2,"PO BOX 153, MERCEDES, TX, 78570","No_Match",NA,NA,NA,NA
335003,"PO BOX 153","MYERSTOWN","PA",17067,NA,NA,3,"PO BOX 153, MYERSTOWN, PA, 17067","No_Match",NA,NA,NA,NA
335004,"PO BOX 153","ORLEANS","CA",95556,NA,NA,4,"PO BOX 153, ORLEANS, CA, 95556","No_Match",NA,NA,NA,NA
335005,"PO BOX 153","ORTONVILLE","MN",56278,NA,NA,5,"PO BOX 153, ORTONVILLE, MN, 56278","No_Match",NA,NA,NA,NA
335006,"PO BOX 153","PAW CREEK","NC",28130,NA,NA,6,"PO BOX 153, PAW CREEK, NC, 28130","No_Match",NA,NA,NA,NA
335007,"PO BOX 153","RUSH CITY","MN",55069,NA,NA,7,"PO BOX 153, RUSH CITY, MN, 55069","No_Match",NA,NA,NA,NA
335008,"PO BOX 153","SMITHFIELD","NC",27527,NA,NA,8,"PO BOX 153, SMITHFIELD, NC, 27527","No_Match",NA,NA,NA,NA
335009,"PO BOX 153","SMITHVILLE","TX",78957,NA,NA,9,"PO BOX 153, SMITHVILLE, TX, 78957","No_Match",NA,NA,NA,NA
335010,"PO BOX 153","ST MARYS","WV",26170,NA,NA,10,"PO BOX 153, ST MARYS, WV, 26170","No_Match",NA,NA,NA,NA
335011,"PO BOX 153","TOLEDO","OH",43697,NA,NA,11,"PO BOX 153, TOLEDO, OH, 43697","No_Match",NA,NA,NA,NA
335012,"PO BOX 153","TRACY","CA",95378,NA,NA,12,"PO BOX 153, TRACY, CA, 95378","No_Match",NA,NA,NA,NA
335013,"PO BOX 153","WEST BEND","WI",53095,NA,NA,13,"PO BOX 153, WEST BEND, WI, 53095","No_Match",NA,NA,NA,NA
335014,"PO BOX 1530","ALAMEDA","CA",94501,NA,NA,14,"PO BOX 1530, ALAMEDA, CA, 94501","No_Match",NA,NA,NA,NA
335015,"PO BOX 1530","RUNNING SPRINGS","CA",92382,NA,NA,15,"PO BOX 1530, RUNNING SPRINGS, CA, 92382","No_Match",NA,NA,NA,NA
335016,"PO BOX 15305","ALEXANDRIA","VA",22309,NA,NA,16,"PO BOX 15305, ALEXANDRIA, VA, 22309","No_Match",NA,NA,NA,NA
335017,"PO BOX 1531","COLUMBUS","GA",31902,NA,NA,17,"PO BOX 1531, COLUMBUS, GA, 31902","No_Match",NA,NA,NA,NA
335018,"PO BOX 1531","LYMAN","WY",82937,NA,NA,18,"PO BOX 1531, LYMAN, WY, 82937","No_Match",NA,NA,NA,NA
335019,"PO BOX 1531","PAHOA","HI",96778,NA,NA,19,"PO BOX 1531, PAHOA, HI, 96778","No_Match",NA,NA,NA,NA
335020,"PO BOX 1531","SEBRING","FL",33871,NA,NA,20,"PO BOX 1531, SEBRING, FL, 33871","No_Match",NA,NA,NA,NA
335021,"PO BOX 1531","TAYLORS","SC",29687,NA,NA,21,"PO BOX 1531, TAYLORS, SC, 29687","No_Match",NA,NA,NA,NA
335022,"PO BOX 15312","RIO RANCHO","NM",87174,NA,NA,22,"PO BOX 15312, RIO RANCHO, NM, 87174","No_Match",NA,NA,NA,NA
335023,"PO BOX 1532","ALACHUA","FL",32616,NA,NA,23,"PO BOX 1532, ALACHUA, FL, 32616","No_Match",NA,NA,NA,NA
335024,"PO BOX 1532","BOZEMAN","MT",59771,NA,NA,24,"PO BOX 1532, BOZEMAN, MT, 59771","No_Match",NA,NA,NA,NA
335025,"PO BOX 1532","CLAREMONT","CA",91711,NA,NA,25,"PO BOX 1532, CLAREMONT, CA, 91711","No_Match",NA,NA,NA,NA
335026,"PO BOX 1532","COPPELL","TX",75019,NA,NA,26,"PO BOX 1532, COPPELL, TX, 75019","No_Match",NA,NA,NA,NA
335027,"PO BOX 1532","FAIRBURN","GA",30213,NA,NA,27,"PO BOX 1532, FAIRBURN, GA, 30213","No_Match",NA,NA,NA,NA
335028,"PO BOX 1532","HARRISON","AR",72602,NA,NA,28,"PO BOX 1532, HARRISON, AR, 72602","No_Match",NA,NA,NA,NA
335029,"PO BOX 1532","PAHOA","HI",96778,NA,NA,29,"PO BOX 1532, PAHOA, HI, 96778","No_Match",NA,NA,NA,NA
335030,"PO BOX 1532","STEVENSON","WA",98648,NA,NA,30,"PO BOX 1532, STEVENSON, WA, 98648","No_Match",NA,NA,NA,NA
335031,"PO BOX 15328","PENSACOLA","FL",32514,NA,NA,31,"PO BOX 15328, PENSACOLA, FL, 32514","No_Match",NA,NA,NA,NA
335032,"PO BOX 1533","CLINTON","IA",52733,NA,NA,32,"PO BOX 1533, CLINTON, IA, 52733","No_Match",NA,NA,NA,NA
335033,"PO BOX 1533","LOMA LINDA","CA",92354,NA,NA,33,"PO BOX 1533, LOMA LINDA, CA, 92354","No_Match",NA,NA,NA,NA
335034,"PO BOX 15331","DURHAM","NC",27704,NA,NA,34,"PO BOX 15331, DURHAM, NC, 27704","No_Match",NA,NA,NA,NA
335035,"PO BOX 1534","FORREST CITY","AR",72336,NA,NA,35,"PO BOX 1534, FORREST CITY, AR, 72336","No_Match",NA,NA,NA,NA
335036,"PO BOX 1534","GRAND RAPIDS","MI",49501,NA,NA,36,"PO BOX 1534, GRAND RAPIDS, MI, 49501","No_Match",NA,NA,NA,NA
335037,"PO BOX 1534","LEICESTER","NC",28748,NA,NA,37,"PO BOX 1534, LEICESTER, NC, 28748","No_Match",NA,NA,NA,NA
335038,"PO BOX 1534","OKEECHOBEE","FL",34973,NA,NA,38,"PO BOX 1534, OKEECHOBEE, FL, 34973","No_Match",NA,NA,NA,NA
335039,"PO BOX 15341","NEW BERN","NC",28562,NA,NA,39,"PO BOX 15341, NEW BERN, NC, 28562","No_Match",NA,NA,NA,NA
335040,"PO BOX 153482","IRVING","TX",75015,NA,NA,40,"PO BOX 153482, IRVING, TX, 75015","No_Match",NA,NA,NA,NA
335041,"PO BOX 1535","JACKSON","MS",39215,NA,NA,41,"PO BOX 1535, JACKSON, MS, 39215","No_Match",NA,NA,NA,NA
335042,"PO BOX 1535","KLAMATH FALLS","OR",97601,NA,NA,42,"PO BOX 1535, KLAMATH FALLS, OR, 97601","No_Match",NA,NA,NA,NA
335043,"PO BOX 15353","SYRACUSE","NY",13215,NA,NA,43,"PO BOX 15353, SYRACUSE, NY, 13215","No_Match",NA,NA,NA,NA
335044,"PO BOX 15356","NEW BERN","NC",28561,NA,NA,44,"PO BOX 15356, NEW BERN, NC, 28561","No_Match",NA,NA,NA,NA
335045,"PO BOX 15358","CHICAGO","IL",60615,NA,NA,45,"PO BOX 15358, CHICAGO, IL, 60615","No_Match",NA,NA,NA,NA
335046,"PO BOX 1536","CHICAGO","IL",60690,NA,NA,46,"PO BOX 1536, CHICAGO, IL, 60690","No_Match",NA,NA,NA,NA
335047,"PO BOX 1536","CLIFTON PARK","NY",12065,NA,NA,47,"PO BOX 1536, CLIFTON PARK, NY, 12065","No_Match",NA,NA,NA,NA
335048,"PO BOX 1536","EDWARDS","CO",81632,NA,NA,48,"PO BOX 1536, EDWARDS, CO, 81632","No_Match",NA,NA,NA,NA
335049,"PO BOX 1536","LEAGUE CITY","TX",77574,NA,NA,49,"PO BOX 1536, LEAGUE CITY, TX, 77574","No_Match",NA,NA,NA,NA
335050,"PO BOX 1536","WEST CHATHAM","MA",2669,NA,NA,50,"PO BOX 1536, WEST CHATHAM, MA, 2669","No_Match",NA,NA,NA,NA
335051,"PO BOX 15364","PLANTATION","FL",33318,NA,NA,51,"PO BOX 15364, PLANTATION, FL, 33318","No_Match",NA,NA,NA,NA
335052,"PO BOX 15365","SPOKANE VALLEY","WA",99215,NA,NA,52,"PO BOX 15365, SPOKANE VALLEY, WA, 99215","No_Match",NA,NA,NA,NA
335053,"PO BOX 15369","PORTLAND","ME",4112,NA,NA,53,"PO BOX 15369, PORTLAND, ME, 4112","No_Match",NA,NA,NA,NA
335054,"PO BOX 1537","CAMBRIDGE","MD",21613,NA,NA,54,"PO BOX 1537, CAMBRIDGE, MD, 21613","No_Match",NA,NA,NA,NA
335055,"PO BOX 1537","DELTA JUNCTION","AK",99737,NA,NA,55,"PO BOX 1537, DELTA JUNCTION, AK, 99737","No_Match",NA,NA,NA,NA
335056,"PO BOX 1537","FAIRFIELD","IA",52556,NA,NA,56,"PO BOX 1537, FAIRFIELD, IA, 52556","No_Match",NA,NA,NA,NA
335057,"PO BOX 1537","GREENFIELD","MA",1301,NA,NA,57,"PO BOX 1537, GREENFIELD, MA, 1301","No_Match",NA,NA,NA,NA
335058,"PO BOX 1537","KALAMA","WA",98625,NA,NA,58,"PO BOX 1537, KALAMA, WA, 98625","No_Match",NA,NA,NA,NA
335059,"PO BOX 1537","KOLOA","HI",96756,NA,NA,59,"PO BOX 1537, KOLOA, HI, 96756","No_Match",NA,NA,NA,NA
335060,"PO BOX 1537","NASHUA","NH",3061,NA,NA,60,"PO BOX 1537, NASHUA, NH, 3061","No_Match",NA,NA,NA,NA
335061,"PO BOX 15372","COLUMBUS","OH",43215,NA,NA,61,"PO BOX 15372, COLUMBUS, OH, 43215","No_Match",NA,NA,NA,NA
335062,"PO BOX 153722","LUFKIN","TX",75915,NA,NA,62,"PO BOX 153722, LUFKIN, TX, 75915","No_Match",NA,NA,NA,NA
335063,"PO BOX 153786","IRVING","TX",75015,NA,NA,63,"PO BOX 153786, IRVING, TX, 75015","No_Match",NA,NA,NA,NA
335064,"PO BOX 1538","PORTLAND","OR",97207,NA,NA,64,"PO BOX 1538, PORTLAND, OR, 97207","No_Match",NA,NA,NA,NA
335065,"PO BOX 1538","WILDOMAR","CA",92595,NA,NA,65,"PO BOX 1538, WILDOMAR, CA, 92595","No_Match",NA,NA,NA,NA
335066,"PO BOX 1538","WOODBRIDGE","CA",95258,NA,NA,66,"PO BOX 1538, WOODBRIDGE, CA, 95258","No_Match",NA,NA,NA,NA
335067,"PO BOX 1539","EAGLE POINT","OR",97524,NA,NA,67,"PO BOX 1539, EAGLE POINT, OR, 97524","No_Match",NA,NA,NA,NA
335068,"PO BOX 153972","SAN DIEGO","CA",92195,NA,NA,68,"PO BOX 153972, SAN DIEGO, CA, 92195","No_Match",NA,NA,NA,NA
335069,"PO BOX 154","ATKINS","AR",72823,NA,NA,69,"PO BOX 154, ATKINS, AR, 72823","No_Match",NA,NA,NA,NA
335070,"PO BOX 154","BERWYN","IL",60402,NA,NA,70,"PO BOX 154, BERWYN, IL, 60402","No_Match",NA,NA,NA,NA
335071,"PO BOX 154","BOONVILLE","IN",47601,NA,NA,71,"PO BOX 154, BOONVILLE, IN, 47601","No_Match",NA,NA,NA,NA
335072,"PO BOX 154","BURLINGTON","IA",52601,NA,NA,72,"PO BOX 154, BURLINGTON, IA, 52601","No_Match",NA,NA,NA,NA
335073,"PO BOX 154","COLORA","MD",21917,NA,NA,73,"PO BOX 154, COLORA, MD, 21917","No_Match",NA,NA,NA,NA
335074,"PO BOX 154","COPELAND","KS",67837,NA,NA,74,"PO BOX 154, COPELAND, KS, 67837","No_Match",NA,NA,NA,NA
335075,"PO BOX 154","CROFTON","NE",68730,NA,NA,75,"PO BOX 154, CROFTON, NE, 68730","No_Match",NA,NA,NA,NA
335076,"PO BOX 154","EDWARDSVILLE","IL",62025,NA,NA,76,"PO BOX 154, EDWARDSVILLE, IL, 62025","No_Match",NA,NA,NA,NA
335077,"PO BOX 154","FENNIMORE","WI",53809,NA,NA,77,"PO BOX 154, FENNIMORE, WI, 53809","No_Match",NA,NA,NA,NA
335078,"PO BOX 154","FRISCO","CO",80443,NA,NA,78,"PO BOX 154, FRISCO, CO, 80443","No_Match",NA,NA,NA,NA
335079,"PO BOX 154","HAYS","MT",59527,NA,NA,79,"PO BOX 154, HAYS, MT, 59527","No_Match",NA,NA,NA,NA
335080,"PO BOX 154","LEDGEWOOD","NJ",7852,NA,NA,80,"PO BOX 154, LEDGEWOOD, NJ, 7852","No_Match",NA,NA,NA,NA
335081,"PO BOX 154","MARSHFIELD","MA",2050,NA,NA,81,"PO BOX 154, MARSHFIELD, MA, 2050","No_Match",NA,NA,NA,NA
335082,"PO BOX 154","MCKENNY","VA",23872,NA,NA,82,"PO BOX 154, MCKENNY, VA, 23872","No_Match",NA,NA,NA,NA
335083,"PO BOX 154","NEDERLAND","CO",80466,NA,NA,83,"PO BOX 154, NEDERLAND, CO, 80466","No_Match",NA,NA,NA,NA
335084,"PO BOX 154","RIGBY","ID",83442,NA,NA,84,"PO BOX 154, RIGBY, ID, 83442","No_Match",NA,NA,NA,NA
335085,"PO BOX 154","ROBESONIA","PA",19551,NA,NA,85,"PO BOX 154, ROBESONIA, PA, 19551","No_Match",NA,NA,NA,NA
335086,"PO BOX 154","SALIDA","CA",95368,NA,NA,86,"PO BOX 154, SALIDA, CA, 95368","No_Match",NA,NA,NA,NA
335087,"PO BOX 154","SAN JACINTO","CA",92581,NA,NA,87,"PO BOX 154, SAN JACINTO, CA, 92581","No_Match",NA,NA,NA,NA
335088,"PO BOX 154","SEARCHLIGHT","NV",89046,NA,NA,88,"PO BOX 154, SEARCHLIGHT, NV, 89046","No_Match",NA,NA,NA,NA
335089,"PO BOX 154","STOUGHTON","WI",53589,NA,NA,89,"PO BOX 154, STOUGHTON, WI, 53589","No_Match",NA,NA,NA,NA
335090,"PO BOX 154","SUMMERTON","SC",29148,NA,NA,90,"PO BOX 154, SUMMERTON, SC, 29148","No_Match",NA,NA,NA,NA
335091,"PO BOX 154","TOCCOA","GA",30577,NA,NA,91,"PO BOX 154, TOCCOA, GA, 30577","No_Match",NA,NA,NA,NA
335092,"PO BOX 154","TOULON","IL",61483,NA,NA,92,"PO BOX 154, TOULON, IL, 61483","No_Match",NA,NA,NA,NA
335093,"PO BOX 154","USK","WA",99180,NA,NA,93,"PO BOX 154, USK, WA, 99180","No_Match",NA,NA,NA,NA
335094,"PO BOX 154","WAPAKONETA","OH",45895,NA,NA,94,"PO BOX 154, WAPAKONETA, OH, 45895","No_Match",NA,NA,NA,NA
335095,"PO BOX 154","YANCEYVILLE","NC",27379,NA,NA,95,"PO BOX 154, YANCEYVILLE, NC, 27379","No_Match",NA,NA,NA,NA
335096,"PO BOX 1540","FLORENCE","OR",97439,NA,NA,96,"PO BOX 1540, FLORENCE, OR, 97439","No_Match",NA,NA,NA,NA
335097,"PO BOX 1540","PORTSMOUTH","NH",3802,NA,NA,97,"PO BOX 1540, PORTSMOUTH, NH, 3802","No_Match",NA,NA,NA,NA
335098,"PO BOX 15401","RIVERSIDE","RI",2915,NA,NA,98,"PO BOX 15401, RIVERSIDE, RI, 2915","No_Match",NA,NA,NA,NA
335099,"PO BOX 15406","SEATTLE","WA",98115,NA,NA,99,"PO BOX 15406, SEATTLE, WA, 98115","No_Match",NA,NA,NA,NA
335100,"PO BOX 15407","FORT WROTH","TX",76119,NA,NA,100,"PO BOX 15407, FORT WROTH, TX, 76119","No_Match",NA,NA,NA,NA
335101,"PO BOX 1541","FRANKFORT","KY",40602,NA,NA,101,"PO BOX 1541, FRANKFORT, KY, 40602","No_Match",NA,NA,NA,NA
335102,"PO BOX 1541","FRESNO","TX",77545,NA,NA,102,"PO BOX 1541, FRESNO, TX, 77545","No_Match",NA,NA,NA,NA
335103,"PO BOX 1541","HAGATNA","GU",96932,NA,NA,103,"PO BOX 1541, HAGATNA, GU, 96932","No_Match",NA,NA,NA,NA
335104,"PO BOX 1541","MONTEREY","CA",93942,NA,NA,104,"PO BOX 1541, MONTEREY, CA, 93942","No_Match",NA,NA,NA,NA
335105,"PO BOX 1541","MURRELLS INLET","SC",29576,NA,NA,105,"PO BOX 1541, MURRELLS INLET, SC, 29576","No_Match",NA,NA,NA,NA
335106,"PO BOX 1541","OCEAN SHORES","WA",98569,NA,NA,106,"PO BOX 1541, OCEAN SHORES, WA, 98569","No_Match",NA,NA,NA,NA
335107,"PO BOX 1541","WISCONSIN RAPIDS","WI",54495,NA,NA,107,"PO BOX 1541, WISCONSIN RAPIDS, WI, 54495","No_Match",NA,NA,NA,NA
335108,"PO BOX 1542","COLUMBUS","OH",43216,NA,NA,108,"PO BOX 1542, COLUMBUS, OH, 43216","No_Match",NA,NA,NA,NA
335109,"PO BOX 1542","FREDERICKSBURG","TX",78624,NA,NA,109,"PO BOX 1542, FREDERICKSBURG, TX, 78624","No_Match",NA,NA,NA,NA
335110,"PO BOX 1542","HOLLAND","MI",49422,NA,NA,110,"PO BOX 1542, HOLLAND, MI, 49422","No_Match",NA,NA,NA,NA
335111,"PO BOX 1542","LADSON","SC",29456,NA,NA,111,"PO BOX 1542, LADSON, SC, 29456","No_Match",NA,NA,NA,NA
335112,"PO BOX 1542","SALYERSVILLE","KY",41465,NA,NA,112,"PO BOX 1542, SALYERSVILLE, KY, 41465","No_Match",NA,NA,NA,NA
335113,"PO BOX 15421","COLORADO SPRINGS","CO",80935,NA,NA,113,"PO BOX 15421, COLORADO SPRINGS, CO, 80935","No_Match",NA,NA,NA,NA
335114,"PO BOX 154251","BELLMEAD","TX",76715,NA,NA,114,"PO BOX 154251, BELLMEAD, TX, 76715","No_Match",NA,NA,NA,NA
335115,"PO BOX 1543","LUBBOCK","TX",79408,NA,NA,115,"PO BOX 1543, LUBBOCK, TX, 79408","No_Match",NA,NA,NA,NA
335116,"PO BOX 1543","PAONIA","CO",81428,NA,NA,116,"PO BOX 1543, PAONIA, CO, 81428","No_Match",NA,NA,NA,NA
335117,"PO BOX 15433","NEW BERN","NC",28561,NA,NA,117,"PO BOX 15433, NEW BERN, NC, 28561","No_Match",NA,NA,NA,NA
335118,"PO BOX 15435","ROCHESTER","NY",14615,NA,NA,118,"PO BOX 15435, ROCHESTER, NY, 14615","No_Match",NA,NA,NA,NA
335119,"PO BOX 1544","CANYON LAKE","TX",78133,NA,NA,119,"PO BOX 1544, CANYON LAKE, TX, 78133","No_Match",NA,NA,NA,NA
335120,"PO BOX 1544","FRUITLAND","NM",87416,NA,NA,120,"PO BOX 1544, FRUITLAND, NM, 87416","No_Match",NA,NA,NA,NA
335121,"PO BOX 1544","VERO BEACH","FL",32962,NA,NA,121,"PO BOX 1544, VERO BEACH, FL, 32962","No_Match",NA,NA,NA,NA
335122,"PO BOX 154413","WACO","TX",76715,NA,NA,122,"PO BOX 154413, WACO, TX, 76715","No_Match",NA,NA,NA,NA
335123,"PO BOX 1545 NORTH END STATION","PLAINS","PA",18705,NA,NA,123,"PO BOX 1545 NORTH END STATION, PLAINS, PA, 18705","No_Match",NA,NA,NA,NA
335124,"PO BOX 1545","LEXINGTON","KY",40588,NA,NA,124,"PO BOX 1545, LEXINGTON, KY, 40588","No_Match",NA,NA,NA,NA
335125,"PO BOX 1545","SILVER CITY","NM",88062,NA,NA,125,"PO BOX 1545, SILVER CITY, NM, 88062","No_Match",NA,NA,NA,NA
335126,"PO BOX 1545","SONOMA","CA",95476,NA,NA,126,"PO BOX 1545, SONOMA, CA, 95476","No_Match",NA,NA,NA,NA
335127,"PO BOX 154506","LUFKIN","TX",75915,NA,NA,127,"PO BOX 154506, LUFKIN, TX, 75915","No_Match",NA,NA,NA,NA
335128,"PO BOX 15451","AUGUSTA","GA",30919,NA,NA,128,"PO BOX 15451, AUGUSTA, GA, 30919","No_Match",NA,NA,NA,NA
335129,"PO BOX 15454","SACRAMENTO","CA",95851,NA,NA,129,"PO BOX 15454, SACRAMENTO, CA, 95851","No_Match",NA,NA,NA,NA
335130,"PO BOX 1547","BEND","OR",97709,NA,NA,130,"PO BOX 1547, BEND, OR, 97709","No_Match",NA,NA,NA,NA
335131,"PO BOX 1547","COTTONWOOD","AZ",86326,NA,NA,131,"PO BOX 1547, COTTONWOOD, AZ, 86326","No_Match",NA,NA,NA,NA
335132,"PO BOX 1547","ESPANOLA","NM",87532,NA,NA,132,"PO BOX 1547, ESPANOLA, NM, 87532","No_Match",NA,NA,NA,NA
335133,"PO BOX 1547","FLORISSANT","MO",63031,NA,NA,133,"PO BOX 1547, FLORISSANT, MO, 63031","No_Match",NA,NA,NA,NA
335134,"PO BOX 1548","GUTHRIE","OK",73044,NA,NA,134,"PO BOX 1548, GUTHRIE, OK, 73044","No_Match",NA,NA,NA,NA
335135,"PO BOX 15485","ST. PETERSBURG","FL",33733,NA,NA,135,"PO BOX 15485, ST. PETERSBURG, FL, 33733","No_Match",NA,NA,NA,NA
335136,"PO BOX 1549","UPLAND","CA",91785,NA,NA,136,"PO BOX 1549, UPLAND, CA, 91785","No_Match",NA,NA,NA,NA
335137,"PO BOX 155","ABIQUIU","NM",87510,NA,NA,137,"PO BOX 155, ABIQUIU, NM, 87510","No_Match",NA,NA,NA,NA
335138,"PO BOX 155","AMANDA","OH",43102,NA,NA,138,"PO BOX 155, AMANDA, OH, 43102","No_Match",NA,NA,NA,NA
335139,"PO BOX 155","ARNOLDS PARK","IA",51331,NA,NA,139,"PO BOX 155, ARNOLDS PARK, IA, 51331","No_Match",NA,NA,NA,NA
335140,"PO BOX 155","BLYTHE","CA",92226,NA,NA,140,"PO BOX 155, BLYTHE, CA, 92226","No_Match",NA,NA,NA,NA
335141,"PO BOX 155","COAL CITY","IL",60416,NA,NA,141,"PO BOX 155, COAL CITY, IL, 60416","No_Match",NA,NA,NA,NA
335142,"PO BOX 155","COALDALE","CO",81222,NA,NA,142,"PO BOX 155, COALDALE, CO, 81222","No_Match",NA,NA,NA,NA
335143,"PO BOX 155","COKEVILLE","WY",83114,NA,NA,143,"PO BOX 155, COKEVILLE, WY, 83114","No_Match",NA,NA,NA,NA
335144,"PO BOX 155","COLUMBIANA","OH",44408,NA,NA,144,"PO BOX 155, COLUMBIANA, OH, 44408","No_Match",NA,NA,NA,NA
335145,"PO BOX 155","CULPEPER","VA",22701,NA,NA,145,"PO BOX 155, CULPEPER, VA, 22701","No_Match",NA,NA,NA,NA
335146,"PO BOX 155","DANBURY","TX",77534,NA,NA,146,"PO BOX 155, DANBURY, TX, 77534","No_Match",NA,NA,NA,NA
335147,"PO BOX 155","DEL NORTE","CO",81132,NA,NA,147,"PO BOX 155, DEL NORTE, CO, 81132","No_Match",NA,NA,NA,NA
335148,"PO BOX 155","GRAYSVILLE","GA",30726,NA,NA,148,"PO BOX 155, GRAYSVILLE, GA, 30726","No_Match",NA,NA,NA,NA
335149,"PO BOX 155","GROTON","MA",1450,NA,NA,149,"PO BOX 155, GROTON, MA, 1450","No_Match",NA,NA,NA,NA
335150,"PO BOX 155","KINGSTON SPRINGS","TN",37082,NA,NA,150,"PO BOX 155, KINGSTON SPRINGS, TN, 37082","No_Match",NA,NA,NA,NA
335151,"PO BOX 155","LANSING","OH",43934,NA,NA,151,"PO BOX 155, LANSING, OH, 43934","No_Match",NA,NA,NA,NA
335152,"PO BOX 155","LOWELL","OR",97452,NA,NA,152,"PO BOX 155, LOWELL, OR, 97452","No_Match",NA,NA,NA,NA
335153,"PO BOX 155","MONTGOMERY","MI",49255,NA,NA,153,"PO BOX 155, MONTGOMERY, MI, 49255","No_Match",NA,NA,NA,NA
335154,"PO BOX 155","MT ZION","IL",62549,NA,NA,154,"PO BOX 155, MT ZION, IL, 62549","No_Match",NA,NA,NA,NA
335155,"PO BOX 155","NEW WILMINGTON","PA",16142,NA,NA,155,"PO BOX 155, NEW WILMINGTON, PA, 16142","No_Match",NA,NA,NA,NA
335156,"PO BOX 155","NORTH ADAMS","MA",1247,NA,NA,156,"PO BOX 155, NORTH ADAMS, MA, 1247","No_Match",NA,NA,NA,NA
335157,"PO BOX 155","PORTSMOUTH","NH",3801,NA,NA,157,"PO BOX 155, PORTSMOUTH, NH, 3801","No_Match",NA,NA,NA,NA
335158,"PO BOX 155","SMYRNA","DE",19977,NA,NA,158,"PO BOX 155, SMYRNA, DE, 19977","No_Match",NA,NA,NA,NA
335159,"PO BOX 155","SPRINGFIELD","OR",97477,NA,NA,159,"PO BOX 155, SPRINGFIELD, OR, 97477","No_Match",NA,NA,NA,NA
335160,"PO BOX 155","VOLTAIRE","ND",58792,NA,NA,160,"PO BOX 155, VOLTAIRE, ND, 58792","No_Match",NA,NA,NA,NA
335161,"PO BOX 1550","MONTGOMERY","TX",77356,NA,NA,161,"PO BOX 1550, MONTGOMERY, TX, 77356","No_Match",NA,NA,NA,NA
335162,"PO BOX 155005","LUFKIN","TX",75915,NA,NA,162,"PO BOX 155005, LUFKIN, TX, 75915","No_Match",NA,NA,NA,NA
335163,"PO BOX 1551 ST CHARLES IL 60174","ST. CHARLES","IL",60175,NA,NA,163,"PO BOX 1551 ST CHARLES IL 60174, ST. CHARLES, IL, 60175","No_Match",NA,NA,NA,NA
335164,"PO BOX 1551","DES PLAINES","IL",60017,NA,NA,164,"PO BOX 1551, DES PLAINES, IL, 60017","No_Match",NA,NA,NA,NA
335165,"PO BOX 1551","HERMISTON","OR",97838,NA,NA,165,"PO BOX 1551, HERMISTON, OR, 97838","No_Match",NA,NA,NA,NA
335166,"PO BOX 1551","LITTLETON","MA",1460,NA,NA,166,"PO BOX 1551, LITTLETON, MA, 1460","No_Match",NA,NA,NA,NA
335167,"PO BOX 1551","NORCROSS","GA",30091,NA,NA,167,"PO BOX 1551, NORCROSS, GA, 30091","No_Match",NA,NA,NA,NA
335168,"PO BOX 1551","ORANGE","CA",92856,NA,NA,168,"PO BOX 1551, ORANGE, CA, 92856","No_Match",NA,NA,NA,NA
335169,"PO BOX 1551","PEORIA","IL",61655,NA,NA,169,"PO BOX 1551, PEORIA, IL, 61655","No_Match",NA,NA,NA,NA
335170,"PO BOX 1551","TRAVERSE CITY","MI",49685,NA,NA,170,"PO BOX 1551, TRAVERSE CITY, MI, 49685","No_Match",NA,NA,NA,NA
335171,"PO BOX 15516","ARLINGTON","VA",22215,NA,NA,171,"PO BOX 15516, ARLINGTON, VA, 22215","No_Match",NA,NA,NA,NA
335172,"PO BOX 1552","ARDMORE","OK",73402,NA,NA,172,"PO BOX 1552, ARDMORE, OK, 73402","No_Match",NA,NA,NA,NA
335173,"PO BOX 1552","COLUMBUS","OH",43216,NA,NA,173,"PO BOX 1552, COLUMBUS, OH, 43216","No_Match",NA,NA,NA,NA
335174,"PO BOX 1552","EVERETT","WA",98206,NA,NA,174,"PO BOX 1552, EVERETT, WA, 98206","No_Match",NA,NA,NA,NA
335175,"PO BOX 1552","FRONT ROYAL","VA",22630,NA,NA,175,"PO BOX 1552, FRONT ROYAL, VA, 22630","No_Match",NA,NA,NA,NA
335176,"PO BOX 1552","PORTLAND","ME",4104,NA,NA,176,"PO BOX 1552, PORTLAND, ME, 4104","No_Match",NA,NA,NA,NA
335177,"PO BOX 1552","THOMASTON","GA",30286,NA,NA,177,"PO BOX 1552, THOMASTON, GA, 30286","No_Match",NA,NA,NA,NA
335178,"PO BOX 15523","SAVANNAH","GA",31416,NA,NA,178,"PO BOX 15523, SAVANNAH, GA, 31416","No_Match",NA,NA,NA,NA
335179,"PO BOX 1553","GIG HARBOR","WA",98335,NA,NA,179,"PO BOX 1553, GIG HARBOR, WA, 98335","No_Match",NA,NA,NA,NA
335180,"PO BOX 1553","KILLEEN","TX",76541,NA,NA,180,"PO BOX 1553, KILLEEN, TX, 76541","No_Match",NA,NA,NA,NA
335181,"PO BOX 1553","PINE BUSH","NY",12566,NA,NA,181,"PO BOX 1553, PINE BUSH, NY, 12566","No_Match",NA,NA,NA,NA
335182,"PO BOX 1553","PUYALLUP","WA",98371,NA,NA,182,"PO BOX 1553, PUYALLUP, WA, 98371","No_Match",NA,NA,NA,NA
335183,"PO BOX 15531","PANAMA CITY","FL",32406,NA,NA,183,"PO BOX 15531, PANAMA CITY, FL, 32406","No_Match",NA,NA,NA,NA
335184,"PO BOX 15532","COLORADO SPRINGS","CO",80935,NA,NA,184,"PO BOX 15532, COLORADO SPRINGS, CO, 80935","No_Match",NA,NA,NA,NA
335185,"PO BOX 1554","ELGIN","IL",60121,NA,NA,185,"PO BOX 1554, ELGIN, IL, 60121","No_Match",NA,NA,NA,NA
335186,"PO BOX 1554","KINGSTON","MD",98346,NA,NA,186,"PO BOX 1554, KINGSTON, MD, 98346","No_Match",NA,NA,NA,NA
335187,"PO BOX 1554","LAKESIDE","AZ",85929,NA,NA,187,"PO BOX 1554, LAKESIDE, AZ, 85929","No_Match",NA,NA,NA,NA
335188,"PO BOX 1554","MARIPOSA","CA",95338,NA,NA,188,"PO BOX 1554, MARIPOSA, CA, 95338","No_Match",NA,NA,NA,NA
335189,"PO BOX 15544","HATTIESBURG","MS",39404,NA,NA,189,"PO BOX 15544, HATTIESBURG, MS, 39404","No_Match",NA,NA,NA,NA
335190,"PO BOX 1555","INTERNATIONAL FALLS","MN",56649,NA,NA,190,"PO BOX 1555, INTERNATIONAL FALLS, MN, 56649","No_Match",NA,NA,NA,NA
335191,"PO BOX 1555","PHOENIX","IL",60426,NA,NA,191,"PO BOX 1555, PHOENIX, IL, 60426","No_Match",NA,NA,NA,NA
335192,"PO BOX 15554","TALLAHASSEE","FL",32317,NA,NA,192,"PO BOX 15554, TALLAHASSEE, FL, 32317","No_Match",NA,NA,NA,NA
335193,"PO BOX 1556","PINE KNOT","KY",42635,NA,NA,193,"PO BOX 1556, PINE KNOT, KY, 42635","No_Match",NA,NA,NA,NA
335194,"PO BOX 1556","ROCKFORD","IL",61110,NA,NA,194,"PO BOX 1556, ROCKFORD, IL, 61110","No_Match",NA,NA,NA,NA
335195,"PO BOX 1556","ROSS","CA",94957,NA,NA,195,"PO BOX 1556, ROSS, CA, 94957","No_Match",NA,NA,NA,NA
335196,"PO BOX 1556","SHINER","TX",77984,NA,NA,196,"PO BOX 1556, SHINER, TX, 77984","No_Match",NA,NA,NA,NA
335197,"PO BOX 15562","IRVINE","CA",92623,NA,NA,197,"PO BOX 15562, IRVINE, CA, 92623","No_Match",NA,NA,NA,NA
335198,"PO BOX 15567","CHEYENNE","WY",82003,NA,NA,198,"PO BOX 15567, CHEYENNE, WY, 82003","No_Match",NA,NA,NA,NA
335199,"PO BOX 1557","FOREST","MS",39074,NA,NA,199,"PO BOX 1557, FOREST, MS, 39074","No_Match",NA,NA,NA,NA
335200,"PO BOX 1557","GRANTS PASS","OR",97528,NA,NA,200,"PO BOX 1557, GRANTS PASS, OR, 97528","No_Match",NA,NA,NA,NA
335201,"PO BOX 1557","NEW PORT RICHEY","FL",34656,NA,NA,201,"PO BOX 1557, NEW PORT RICHEY, FL, 34656","No_Match",NA,NA,NA,NA
335202,"PO BOX 1558","BARCELONETA","PR",617,NA,NA,202,"PO BOX 1558, BARCELONETA, PR, 617","No_Match",NA,NA,NA,NA
335203,"PO BOX 1558","LOWELL","MA",1853,NA,NA,203,"PO BOX 1558, LOWELL, MA, 1853","No_Match",NA,NA,NA,NA
335204,"PO BOX 1558","NEW YORK","NY",10023,NA,NA,204,"PO BOX 1558, NEW YORK, NY, 10023","No_Match",NA,NA,NA,NA
335205,"PO BOX 1558","SHELBYVILLE","KY",40066,NA,NA,205,"PO BOX 1558, SHELBYVILLE, KY, 40066","No_Match",NA,NA,NA,NA
335206,"PO BOX 1558","VALDEZ","AK",99686,NA,NA,206,"PO BOX 1558, VALDEZ, AK, 99686","No_Match",NA,NA,NA,NA
335207,"PO BOX 15580","DURHAM","NC",27704,NA,NA,207,"PO BOX 15580, DURHAM, NC, 27704","No_Match",NA,NA,NA,NA
335208,"PO BOX 1559","CAMP HILL","PA",17001,NA,NA,208,"PO BOX 1559, CAMP HILL, PA, 17001","No_Match",NA,NA,NA,NA
335209,"PO BOX 1559","MOORESVILLE","NC",28115,NA,NA,209,"PO BOX 1559, MOORESVILLE, NC, 28115","No_Match",NA,NA,NA,NA
335210,"PO BOX 1559","PALOMINAS","AZ",85615,NA,NA,210,"PO BOX 1559, PALOMINAS, AZ, 85615","No_Match",NA,NA,NA,NA
335211,"PO BOX 1559","WALDPORT","OR",97394,NA,NA,211,"PO BOX 1559, WALDPORT, OR, 97394","No_Match",NA,NA,NA,NA
335212,"PO BOX 156","AMENIA","NY",12501,NA,NA,212,"PO BOX 156, AMENIA, NY, 12501","No_Match",NA,NA,NA,NA
335213,"PO BOX 156","ANMOORE","WV",26323,NA,NA,213,"PO BOX 156, ANMOORE, WV, 26323","No_Match",NA,NA,NA,NA
335214,"PO BOX 156","ARIVACA","AZ",85601,NA,NA,214,"PO BOX 156, ARIVACA, AZ, 85601","No_Match",NA,NA,NA,NA
335215,"PO BOX 156","BEDFORD HILLS","NY",10507,NA,NA,215,"PO BOX 156, BEDFORD HILLS, NY, 10507","No_Match",NA,NA,NA,NA
335216,"PO BOX 156","BELLEVILLE","NJ",7109,NA,NA,216,"PO BOX 156, BELLEVILLE, NJ, 7109","No_Match",NA,NA,NA,NA
335217,"PO BOX 156","BRIDGMAN","MI",49106,NA,NA,217,"PO BOX 156, BRIDGMAN, MI, 49106","No_Match",NA,NA,NA,NA
335218,"PO BOX 156","BRIGHTWATERS","NY",11718,NA,NA,218,"PO BOX 156, BRIGHTWATERS, NY, 11718","No_Match",NA,NA,NA,NA
335219,"PO BOX 156","BYRON CENTER","MI",49315,NA,NA,219,"PO BOX 156, BYRON CENTER, MI, 49315","No_Match",NA,NA,NA,NA
335220,"PO BOX 156","CEDAR PARK","TX",78630,NA,NA,220,"PO BOX 156, CEDAR PARK, TX, 78630","No_Match",NA,NA,NA,NA
335221,"PO BOX 156","DEER PARK","WA",99006,NA,NA,221,"PO BOX 156, DEER PARK, WA, 99006","No_Match",NA,NA,NA,NA
335222,"PO BOX 156","DEERFIELD","IL",60015,NA,NA,222,"PO BOX 156, DEERFIELD, IL, 60015","No_Match",NA,NA,NA,NA
335223,"PO BOX 156","FOXBOROUGH","MA",2035,NA,NA,223,"PO BOX 156, FOXBOROUGH, MA, 2035","No_Match",NA,NA,NA,NA
335224,"PO BOX 156","GRAFTON","OH",44044,NA,NA,224,"PO BOX 156, GRAFTON, OH, 44044","No_Match",NA,NA,NA,NA
335225,"PO BOX 156","HILLSBORO","NM",88042,NA,NA,225,"PO BOX 156, HILLSBORO, NM, 88042","No_Match",NA,NA,NA,NA
335226,"PO BOX 156","JUNTURA","OR",97911,NA,NA,226,"PO BOX 156, JUNTURA, OR, 97911","No_Match",NA,NA,NA,NA
335227,"PO BOX 156","LONG BEACH","WA",98631,NA,NA,227,"PO BOX 156, LONG BEACH, WA, 98631","No_Match",NA,NA,NA,NA
335228,"PO BOX 156","LOUISE","TX",77455,NA,NA,228,"PO BOX 156, LOUISE, TX, 77455","No_Match",NA,NA,NA,NA
335229,"PO BOX 156","LOUP CITY","NE",68853,NA,NA,229,"PO BOX 156, LOUP CITY, NE, 68853","No_Match",NA,NA,NA,NA
335230,"PO BOX 156","NEW PHILADELPHIA","OH",44663,NA,NA,230,"PO BOX 156, NEW PHILADELPHIA, OH, 44663","No_Match",NA,NA,NA,NA
335231,"PO BOX 156","NEWVILLE","PA",17241,NA,NA,231,"PO BOX 156, NEWVILLE, PA, 17241","No_Match",NA,NA,NA,NA
335232,"PO BOX 156","PAW CREEK","NC",28130,NA,NA,232,"PO BOX 156, PAW CREEK, NC, 28130","No_Match",NA,NA,NA,NA
335233,"PO BOX 156","ROWAN","IA",50470,NA,NA,233,"PO BOX 156, ROWAN, IA, 50470","No_Match",NA,NA,NA,NA
335234,"PO BOX 156","SOUTH LYON","MI",48178,NA,NA,234,"PO BOX 156, SOUTH LYON, MI, 48178","No_Match",NA,NA,NA,NA
335235,"PO BOX 156","SUMAS","WA",98295,NA,NA,235,"PO BOX 156, SUMAS, WA, 98295","No_Match",NA,NA,NA,NA
335236,"PO BOX 156","THOMAS","WV",26292,NA,NA,236,"PO BOX 156, THOMAS, WV, 26292","No_Match",NA,NA,NA,NA
335237,"PO BOX 156","WEST DEPTFORD","NJ",8086,NA,NA,237,"PO BOX 156, WEST DEPTFORD, NJ, 8086","No_Match",NA,NA,NA,NA
335238,"PO BOX 15608","CINCINNATI","OH",45215,NA,NA,238,"PO BOX 15608, CINCINNATI, OH, 45215","No_Match",NA,NA,NA,NA
335239,"PO BOX 1561","COUPEVILLE","WA",98239,NA,NA,239,"PO BOX 1561, COUPEVILLE, WA, 98239","No_Match",NA,NA,NA,NA
335240,"PO BOX 1561","DUXBURY","MA",2332,NA,NA,240,"PO BOX 1561, DUXBURY, MA, 2332","No_Match",NA,NA,NA,NA
335241,"PO BOX 1561","JAMESTOWN","TN",38556,NA,NA,241,"PO BOX 1561, JAMESTOWN, TN, 38556","No_Match",NA,NA,NA,NA
335242,"PO BOX 15614","TALLAHASSEE","FL",32317,NA,NA,242,"PO BOX 15614, TALLAHASSEE, FL, 32317","No_Match",NA,NA,NA,NA
335243,"PO BOX 1562","ELLENSBURG","WA",98926,NA,NA,243,"PO BOX 1562, ELLENSBURG, WA, 98926","No_Match",NA,NA,NA,NA
335244,"PO BOX 1562","FRISCO","TX",75034,NA,NA,244,"PO BOX 1562, FRISCO, TX, 75034","No_Match",NA,NA,NA,NA
335245,"PO BOX 1563","ALTOONA","PA",16603,NA,NA,245,"PO BOX 1563, ALTOONA, PA, 16603","No_Match",NA,NA,NA,NA
335246,"PO BOX 1563","BLAIRSVILLE","GA",30514,NA,NA,246,"PO BOX 1563, BLAIRSVILLE, GA, 30514","No_Match",NA,NA,NA,NA
335247,"PO BOX 1563","CUPERTINO","CA",95015,NA,NA,247,"PO BOX 1563, CUPERTINO, CA, 95015","No_Match",NA,NA,NA,NA
335248,"PO BOX 1563","FRIENDSWOOD","TX",77549,NA,NA,248,"PO BOX 1563, FRIENDSWOOD, TX, 77549","No_Match",NA,NA,NA,NA
335249,"PO BOX 1563","MEDFORD","OR",97501,NA,NA,249,"PO BOX 1563, MEDFORD, OR, 97501","No_Match",NA,NA,NA,NA
335250,"PO BOX 15639","FERNANDINA BEACH","FL",32035,NA,NA,250,"PO BOX 15639, FERNANDINA BEACH, FL, 32035","No_Match",NA,NA,NA,NA
335251,"PO BOX 1564","BUCKLEY","WA",98321,NA,NA,251,"PO BOX 1564, BUCKLEY, WA, 98321","No_Match",NA,NA,NA,NA
335252,"PO BOX 1564","EASTSOUND","WA",98245,NA,NA,252,"PO BOX 1564, EASTSOUND, WA, 98245","No_Match",NA,NA,NA,NA
335253,"PO BOX 1564","OAK HARBOR","WA",98277,NA,NA,253,"PO BOX 1564, OAK HARBOR, WA, 98277","No_Match",NA,NA,NA,NA
335254,"PO BOX 1564","REDMOND","OR",97756,NA,NA,254,"PO BOX 1564, REDMOND, OR, 97756","No_Match",NA,NA,NA,NA
335255,"PO BOX 1564","RIVERVIEW","FL",33568,NA,NA,255,"PO BOX 1564, RIVERVIEW, FL, 33568","No_Match",NA,NA,NA,NA
335256,"PO BOX 1564","SAN LEANDRO","CA",94577,NA,NA,256,"PO BOX 1564, SAN LEANDRO, CA, 94577","No_Match",NA,NA,NA,NA
335257,"PO BOX 1565","BASTROP","TX",78602,NA,NA,257,"PO BOX 1565, BASTROP, TX, 78602","No_Match",NA,NA,NA,NA
335258,"PO BOX 1565","BATAVIA","NY",14021,NA,NA,258,"PO BOX 1565, BATAVIA, NY, 14021","No_Match",NA,NA,NA,NA
335259,"PO BOX 1565","DAYTON","OH",45401,NA,NA,259,"PO BOX 1565, DAYTON, OH, 45401","No_Match",NA,NA,NA,NA
335260,"PO BOX 1565","DEFUNIAK SPRINGS","FL",32435,NA,NA,260,"PO BOX 1565, DEFUNIAK SPRINGS, FL, 32435","No_Match",NA,NA,NA,NA
335261,"PO BOX 1565","KINGSTON","NY",12402,NA,NA,261,"PO BOX 1565, KINGSTON, NY, 12402","No_Match",NA,NA,NA,NA
335262,"PO BOX 1565","NAVASOTA","TX",77868,NA,NA,262,"PO BOX 1565, NAVASOTA, TX, 77868","No_Match",NA,NA,NA,NA
335263,"PO BOX 1565","ORTING","WA",98360,NA,NA,263,"PO BOX 1565, ORTING, WA, 98360","No_Match",NA,NA,NA,NA
335264,"PO BOX 1565","TUSCALOOSA","AL",35403,NA,NA,264,"PO BOX 1565, TUSCALOOSA, AL, 35403","No_Match",NA,NA,NA,NA
335265,"PO BOX 15656","NEWPORT BEACH","CA",92659,NA,NA,265,"PO BOX 15656, NEWPORT BEACH, CA, 92659","No_Match",NA,NA,NA,NA
335266,"PO BOX 1566","BEAR","DE",19701,NA,NA,266,"PO BOX 1566, BEAR, DE, 19701","No_Match",NA,NA,NA,NA
335267,"PO BOX 1566","BIDDEFORD","ME",4005,NA,NA,267,"PO BOX 1566, BIDDEFORD, ME, 4005","No_Match",NA,NA,NA,NA
335268,"PO BOX 1566","DERRY","NH",3038,NA,NA,268,"PO BOX 1566, DERRY, NH, 3038","No_Match",NA,NA,NA,NA
335269,"PO BOX 1566","PORTSMOUTH","NH",3802,NA,NA,269,"PO BOX 1566, PORTSMOUTH, NH, 3802","No_Match",NA,NA,NA,NA
335270,"PO BOX 1566","RIDGEFIELD","WA",98642,NA,NA,270,"PO BOX 1566, RIDGEFIELD, WA, 98642","No_Match",NA,NA,NA,NA
335271,"PO BOX 1566","SHEPHERDSTOWN","WV",25443,NA,NA,271,"PO BOX 1566, SHEPHERDSTOWN, WV, 25443","No_Match",NA,NA,NA,NA
335272,"PO BOX 1566","TROUT CREEK","MT",59874,NA,NA,272,"PO BOX 1566, TROUT CREEK, MT, 59874","No_Match",NA,NA,NA,NA
335273,"PO BOX 1566","YAKIMA","WA",98907,NA,NA,273,"PO BOX 1566, YAKIMA, WA, 98907","No_Match",NA,NA,NA,NA
335274,"PO BOX 15662","RICHMOND","VA",23227,NA,NA,274,"PO BOX 15662, RICHMOND, VA, 23227","No_Match",NA,NA,NA,NA
335275,"PO BOX 15669","SAN FRANCISCO","CA",94115,NA,NA,275,"PO BOX 15669, SAN FRANCISCO, CA, 94115","No_Match",NA,NA,NA,NA
335276,"PO BOX 1567","VALLEY CENTER","CA",92082,NA,NA,276,"PO BOX 1567, VALLEY CENTER, CA, 92082","No_Match",NA,NA,NA,NA
335277,"PO BOX 15674","NEWPORT BEACH","CA",92659,NA,NA,277,"PO BOX 15674, NEWPORT BEACH, CA, 92659","No_Match",NA,NA,NA,NA
335278,"PO BOX 1568","ADDISON","TX",75001,NA,NA,278,"PO BOX 1568, ADDISON, TX, 75001","No_Match",NA,NA,NA,NA
335279,"PO BOX 1568","SAN PEDRO","CA",90733,NA,NA,279,"PO BOX 1568, SAN PEDRO, CA, 90733","No_Match",NA,NA,NA,NA
335280,"PO BOX 1568","WOLFEBORO","NH",3894,NA,NA,280,"PO BOX 1568, WOLFEBORO, NH, 3894","No_Match",NA,NA,NA,NA
335281,"PO BOX 15683","MINNEAPOLIS","MN",55415,NA,NA,281,"PO BOX 15683, MINNEAPOLIS, MN, 55415","No_Match",NA,NA,NA,NA
335282,"PO BOX 15685","WILMINGTON","NC",28408,NA,NA,282,"PO BOX 15685, WILMINGTON, NC, 28408","No_Match",NA,NA,NA,NA
335283,"PO BOX 15686","FERNANDINA BEACH","FL",32035,NA,NA,283,"PO BOX 15686, FERNANDINA BEACH, FL, 32035","No_Match",NA,NA,NA,NA
335284,"PO BOX 15687","WASHINGTON","DC",20003,NA,NA,284,"PO BOX 15687, WASHINGTON, DC, 20003","No_Match",NA,NA,NA,NA
335285,"PO BOX 1569","LONGMONT","CO",80502,NA,NA,285,"PO BOX 1569, LONGMONT, CO, 80502","No_Match",NA,NA,NA,NA
335286,"PO BOX 1569","NORMAN","OK",73070,NA,NA,286,"PO BOX 1569, NORMAN, OK, 73070","No_Match",NA,NA,NA,NA
335287,"PO BOX 1569","WALKER","LA",70785,NA,NA,287,"PO BOX 1569, WALKER, LA, 70785","No_Match",NA,NA,NA,NA
335288,"PO BOX 15699","WILMINGTON","NC",28408,NA,NA,288,"PO BOX 15699, WILMINGTON, NC, 28408","No_Match",NA,NA,NA,NA
335289,"PO BOX 157-A BUILDING 25","WHITFIELD","MS",39193,NA,NA,289,"PO BOX 157-A BUILDING 25, WHITFIELD, MS, 39193","No_Match",NA,NA,NA,NA
335290,"PO BOX 157","AVANT","OK",74001,NA,NA,290,"PO BOX 157, AVANT, OK, 74001","No_Match",NA,NA,NA,NA
335291,"PO BOX 157","BELPRE","OH",45714,NA,NA,291,"PO BOX 157, BELPRE, OH, 45714","No_Match",NA,NA,NA,NA
335292,"PO BOX 157","COAL HILL","AR",72832,NA,NA,292,"PO BOX 157, COAL HILL, AR, 72832","No_Match",NA,NA,NA,NA
335293,"PO BOX 157","DENTON","MD",21629,NA,NA,293,"PO BOX 157, DENTON, MD, 21629","No_Match",NA,NA,NA,NA
335294,"PO BOX 157","ELLENDALE","MN",56026,NA,NA,294,"PO BOX 157, ELLENDALE, MN, 56026","No_Match",NA,NA,NA,NA
335295,"PO BOX 157","ELLENSBURG","WA",98926,NA,NA,295,"PO BOX 157, ELLENSBURG, WA, 98926","No_Match",NA,NA,NA,NA
335296,"PO BOX 157","GARDEN","MI",49835,NA,NA,296,"PO BOX 157, GARDEN, MI, 49835","No_Match",NA,NA,NA,NA
335297,"PO BOX 157","GILCREST","CO",80623,NA,NA,297,"PO BOX 157, GILCREST, CO, 80623","No_Match",NA,NA,NA,NA
335298,"PO BOX 157","GRAYLING","MI",49738,NA,NA,298,"PO BOX 157, GRAYLING, MI, 49738","No_Match",NA,NA,NA,NA
335299,"PO BOX 157","HAMILTON","NY",13346,NA,NA,299,"PO BOX 157, HAMILTON, NY, 13346","No_Match",NA,NA,NA,NA
335300,"PO BOX 157","HENDERSON","AR",72544,NA,NA,300,"PO BOX 157, HENDERSON, AR, 72544","No_Match",NA,NA,NA,NA
335301,"PO BOX 157","LADY LAKE","FL",32157,NA,NA,301,"PO BOX 157, LADY LAKE, FL, 32157","No_Match",NA,NA,NA,NA
335302,"PO BOX 157","LEITCHFIELD","KY",42754,NA,NA,302,"PO BOX 157, LEITCHFIELD, KY, 42754","No_Match",NA,NA,NA,NA
335303,"PO BOX 157","MEETEETSE","WY",82433,NA,NA,303,"PO BOX 157, MEETEETSE, WY, 82433","No_Match",NA,NA,NA,NA
335304,"PO BOX 157","MOUNT VERNON","VA",22121,NA,NA,304,"PO BOX 157, MOUNT VERNON, VA, 22121","No_Match",NA,NA,NA,NA
335305,"PO BOX 157","MULLINVILLE","KS",67109,NA,NA,305,"PO BOX 157, MULLINVILLE, KS, 67109","No_Match",NA,NA,NA,NA
335306,"PO BOX 157","NOKOMIS","FL",34274,NA,NA,306,"PO BOX 157, NOKOMIS, FL, 34274","No_Match",NA,NA,NA,NA
335307,"PO BOX 157","NORWICH","VT",5055,NA,NA,307,"PO BOX 157, NORWICH, VT, 5055","No_Match",NA,NA,NA,NA
335308,"PO BOX 157","OLIVEHURST","CA",95961,NA,NA,308,"PO BOX 157, OLIVEHURST, CA, 95961","No_Match",NA,NA,NA,NA
335309,"PO BOX 157","PORT TOWNSEND","WA",98368,NA,NA,309,"PO BOX 157, PORT TOWNSEND, WA, 98368","No_Match",NA,NA,NA,NA
335310,"PO BOX 157","ROSWELL","NM",88202,NA,NA,310,"PO BOX 157, ROSWELL, NM, 88202","No_Match",NA,NA,NA,NA
335311,"PO BOX 157","TOWNLEY","AL",35587,NA,NA,311,"PO BOX 157, TOWNLEY, AL, 35587","No_Match",NA,NA,NA,NA
335312,"PO BOX 157","TRINITY","AL",35673,NA,NA,312,"PO BOX 157, TRINITY, AL, 35673","No_Match",NA,NA,NA,NA
335313,"PO BOX 1570","BAYTOWN","TX",77522,NA,NA,313,"PO BOX 1570, BAYTOWN, TX, 77522","No_Match",NA,NA,NA,NA
335314,"PO BOX 1570","PHILOMATH","OR",97370,NA,NA,314,"PO BOX 1570, PHILOMATH, OR, 97370","No_Match",NA,NA,NA,NA
335315,"PO BOX 1571","MARIPOSA","CA",95338,NA,NA,315,"PO BOX 1571, MARIPOSA, CA, 95338","No_Match",NA,NA,NA,NA
335316,"PO BOX 1571","PATASKALA","OH",43062,NA,NA,316,"PO BOX 1571, PATASKALA, OH, 43062","No_Match",NA,NA,NA,NA
335317,"PO BOX 1572","ADA","OK",74821,NA,NA,317,"PO BOX 1572, ADA, OK, 74821","No_Match",NA,NA,NA,NA
335318,"PO BOX 1572","BOYNTON BEACH","FL",33425,NA,NA,318,"PO BOX 1572, BOYNTON BEACH, FL, 33425","No_Match",NA,NA,NA,NA
335319,"PO BOX 1572","CATOOSA","OK",74015,NA,NA,319,"PO BOX 1572, CATOOSA, OK, 74015","No_Match",NA,NA,NA,NA
335320,"PO BOX 1572","HARRISON","AR",72602,NA,NA,320,"PO BOX 1572, HARRISON, AR, 72602","No_Match",NA,NA,NA,NA
335321,"PO BOX 1572","MILFORD","PA",18337,NA,NA,321,"PO BOX 1572, MILFORD, PA, 18337","No_Match",NA,NA,NA,NA
335322,"PO BOX 1572","NEW YORK","NY",10113,NA,NA,322,"PO BOX 1572, NEW YORK, NY, 10113","No_Match",NA,NA,NA,NA
335323,"PO BOX 1572","WISCONSIN RAPIDS","WI",54495,NA,NA,323,"PO BOX 1572, WISCONSIN RAPIDS, WI, 54495","No_Match",NA,NA,NA,NA
335324,"PO BOX 15724","DURHAM","NC",27704,NA,NA,324,"PO BOX 15724, DURHAM, NC, 27704","No_Match",NA,NA,NA,NA
335325,"PO BOX 1573","BOONE","NC",28607,NA,NA,325,"PO BOX 1573, BOONE, NC, 28607","No_Match",NA,NA,NA,NA
335326,"PO BOX 1573","DEARBORN","MI",48121,NA,NA,326,"PO BOX 1573, DEARBORN, MI, 48121","No_Match",NA,NA,NA,NA
335327,"PO BOX 1573","WYLIE","TX",75098,NA,NA,327,"PO BOX 1573, WYLIE, TX, 75098","No_Match",NA,NA,NA,NA
335328,"PO BOX 1574","BOWLING GREEN","KY",42102,NA,NA,328,"PO BOX 1574, BOWLING GREEN, KY, 42102","No_Match",NA,NA,NA,NA
335329,"PO BOX 1574","GILBERT","AZ",85299,NA,NA,329,"PO BOX 1574, GILBERT, AZ, 85299","No_Match",NA,NA,NA,NA
335330,"PO BOX 1574","KIHEI","HI",96753,NA,NA,330,"PO BOX 1574, KIHEI, HI, 96753","No_Match",NA,NA,NA,NA
335331,"PO BOX 1574","PINEDALLE","WY",82941,NA,NA,331,"PO BOX 1574, PINEDALLE, WY, 82941","No_Match",NA,NA,NA,NA
335332,"PO BOX 15742","FORT WORTH","TX",76119,NA,NA,332,"PO BOX 15742, FORT WORTH, TX, 76119","No_Match",NA,NA,NA,NA
335333,"PO BOX 15747","SAN LUIS OBISPO","CA",93406,NA,NA,333,"PO BOX 15747, SAN LUIS OBISPO, CA, 93406","No_Match",NA,NA,NA,NA
335334,"PO BOX 1575","TEMPLE HILLS","MD",20757,NA,NA,334,"PO BOX 1575, TEMPLE HILLS, MD, 20757","No_Match",NA,NA,NA,NA
335335,"PO BOX 1576","CLEWISTON","FL",33440,NA,NA,335,"PO BOX 1576, CLEWISTON, FL, 33440","No_Match",NA,NA,NA,NA
335336,"PO BOX 1576","MEDFORD","OR",97501,NA,NA,336,"PO BOX 1576, MEDFORD, OR, 97501","No_Match",NA,NA,NA,NA
335337,"PO BOX 15763","CHESAPEAKE","VA",23328,NA,NA,337,"PO BOX 15763, CHESAPEAKE, VA, 23328","No_Match",NA,NA,NA,NA
335338,"PO BOX 1577","DELTA JUNCTION","AK",99737,NA,NA,338,"PO BOX 1577, DELTA JUNCTION, AK, 99737","No_Match",NA,NA,NA,NA
335339,"PO BOX 1577","FREDERIKSTED","VI",841,NA,NA,339,"PO BOX 1577, FREDERIKSTED, VI, 841","No_Match",NA,NA,NA,NA
335340,"PO BOX 1577","LA PINE","OR",97739,NA,NA,340,"PO BOX 1577, LA PINE, OR, 97739","No_Match",NA,NA,NA,NA
335341,"PO BOX 1577","LOWELL","MA",1853,NA,NA,341,"PO BOX 1577, LOWELL, MA, 1853","No_Match",NA,NA,NA,NA
335342,"PO BOX 1577","ORANGEBURG","SC",29116,NA,NA,342,"PO BOX 1577, ORANGEBURG, SC, 29116","No_Match",NA,NA,NA,NA
335343,"PO BOX 1577","OROFINO","ID",83544,NA,NA,343,"PO BOX 1577, OROFINO, ID, 83544","No_Match",NA,NA,NA,NA
335344,"PO BOX 1577","RUNNING SPRINGS","CA",92385,NA,NA,344,"PO BOX 1577, RUNNING SPRINGS, CA, 92385","No_Match",NA,NA,NA,NA
335345,"PO BOX 1577","VAN ALSTYNE","TX",75495,NA,NA,345,"PO BOX 1577, VAN ALSTYNE, TX, 75495","No_Match",NA,NA,NA,NA
335346,"PO BOX 15775","PHILADELPHIA","PA",19103,NA,NA,346,"PO BOX 15775, PHILADELPHIA, PA, 19103","No_Match",NA,NA,NA,NA
335347,"PO BOX 15782","NEWPORT BEACH","CA",92659,NA,NA,347,"PO BOX 15782, NEWPORT BEACH, CA, 92659","No_Match",NA,NA,NA,NA
335348,"PO BOX 15784","WASHINGTON","DC",20003,NA,NA,348,"PO BOX 15784, WASHINGTON, DC, 20003","No_Match",NA,NA,NA,NA
335349,"PO BOX 1579","MCMINNVILLE","OR",97128,NA,NA,349,"PO BOX 1579, MCMINNVILLE, OR, 97128","No_Match",NA,NA,NA,NA
335350,"PO BOX 15791","LENEXA","KS",66285,NA,NA,350,"PO BOX 15791, LENEXA, KS, 66285","No_Match",NA,NA,NA,NA
335351,"PO BOX 158","BINGHAMTON","NY",13903,NA,NA,351,"PO BOX 158, BINGHAMTON, NY, 13903","No_Match",NA,NA,NA,NA
335352,"PO BOX 158","CHAMBERSBURG","PA",17201,NA,NA,352,"PO BOX 158, CHAMBERSBURG, PA, 17201","No_Match",NA,NA,NA,NA
335353,"PO BOX 158","COALTON","OH",45621,NA,NA,353,"PO BOX 158, COALTON, OH, 45621","No_Match",NA,NA,NA,NA
335354,"PO BOX 158","DURANGO","CO",81302,NA,NA,354,"PO BOX 158, DURANGO, CO, 81302","No_Match",NA,NA,NA,NA
335355,"PO BOX 158","KALKASKA","MI",49646,NA,NA,355,"PO BOX 158, KALKASKA, MI, 49646","No_Match",NA,NA,NA,NA
335356,"PO BOX 158","LEESBURG","NJ",8327,NA,NA,356,"PO BOX 158, LEESBURG, NJ, 8327","No_Match",NA,NA,NA,NA
335357,"PO BOX 158","LYON","MS",38645,NA,NA,357,"PO BOX 158, LYON, MS, 38645","No_Match",NA,NA,NA,NA
335358,"PO BOX 158","MINONG","WI",54859,NA,NA,358,"PO BOX 158, MINONG, WI, 54859","No_Match",NA,NA,NA,NA
335359,"PO BOX 158","MUNISING","MI",49862,NA,NA,359,"PO BOX 158, MUNISING, MI, 49862","No_Match",NA,NA,NA,NA
335360,"PO BOX 158","OZARK","MO",65721,NA,NA,360,"PO BOX 158, OZARK, MO, 65721","No_Match",NA,NA,NA,NA
335361,"PO BOX 158","RED BANK","NJ",7712,NA,NA,361,"PO BOX 158, RED BANK, NJ, 7712","No_Match",NA,NA,NA,NA
335362,"PO BOX 158","SCHERTZ","TX",78154,NA,NA,362,"PO BOX 158, SCHERTZ, TX, 78154","No_Match",NA,NA,NA,NA
335363,"PO BOX 158","SOMERVILLE","NJ",8876,NA,NA,363,"PO BOX 158, SOMERVILLE, NJ, 8876","No_Match",NA,NA,NA,NA
335364,"PO BOX 158","ST CHARLES","MO",63302,NA,NA,364,"PO BOX 158, ST CHARLES, MO, 63302","No_Match",NA,NA,NA,NA
335365,"PO BOX 158","SULLIVANS ISLAND","SC",29482,NA,NA,365,"PO BOX 158, SULLIVANS ISLAND, SC, 29482","No_Match",NA,NA,NA,NA
335366,"PO BOX 158","YANCEYVILLE","NC",27379,NA,NA,366,"PO BOX 158, YANCEYVILLE, NC, 27379","No_Match",NA,NA,NA,NA
335367,"PO BOX 1580","HAVERTOWN","PA",19083,NA,NA,367,"PO BOX 1580, HAVERTOWN, PA, 19083","No_Match",NA,NA,NA,NA
335368,"PO BOX 1580","SOCORRO","NM",87801,NA,NA,368,"PO BOX 1580, SOCORRO, NM, 87801","No_Match",NA,NA,NA,NA
335369,"PO BOX 1580","TOPOCK","AZ",86436,NA,NA,369,"PO BOX 1580, TOPOCK, AZ, 86436","No_Match",NA,NA,NA,NA
335370,"PO BOX 15801","ASHEVILLE","NC",28813,NA,NA,370,"PO BOX 15801, ASHEVILLE, NC, 28813","No_Match",NA,NA,NA,NA
335371,"PO BOX 15801","SARASOTA","FL",34277,NA,NA,371,"PO BOX 15801, SARASOTA, FL, 34277","No_Match",NA,NA,NA,NA
335372,"PO BOX 1581","CASTLE ROCK","CO",80104,NA,NA,372,"PO BOX 1581, CASTLE ROCK, CO, 80104","No_Match",NA,NA,NA,NA
335373,"PO BOX 1581","CEDAR PARK","TX",78630,NA,NA,373,"PO BOX 1581, CEDAR PARK, TX, 78630","No_Match",NA,NA,NA,NA
335374,"PO BOX 1581","GULFPORT","MS",39502,NA,NA,374,"PO BOX 1581, GULFPORT, MS, 39502","No_Match",NA,NA,NA,NA
335375,"PO BOX 1581","HAYDEN","ID",83835,NA,NA,375,"PO BOX 1581, HAYDEN, ID, 83835","No_Match",NA,NA,NA,NA
335376,"PO BOX 1581","MORGANTOWN","WV",26505,NA,NA,376,"PO BOX 1581, MORGANTOWN, WV, 26505","No_Match",NA,NA,NA,NA
335377,"PO BOX 1581","OJAI","CA",93024,NA,NA,377,"PO BOX 1581, OJAI, CA, 93024","No_Match",NA,NA,NA,NA
335378,"PO BOX 158102","NASHVILLE","TN",37215,NA,NA,378,"PO BOX 158102, NASHVILLE, TN, 37215","No_Match",NA,NA,NA,NA
335379,"PO BOX 158161","NASHVILLE","TN",37215,NA,NA,379,"PO BOX 158161, NASHVILLE, TN, 37215","No_Match",NA,NA,NA,NA
335380,"PO BOX 1582","GRAEAGLE","CA",96103,NA,NA,380,"PO BOX 1582, GRAEAGLE, CA, 96103","No_Match",NA,NA,NA,NA
335381,"PO BOX 1582","HAYDEN","ID",83835,NA,NA,381,"PO BOX 1582, HAYDEN, ID, 83835","No_Match",NA,NA,NA,NA
335382,"PO BOX 1582","REEDLEY","CA",93654,NA,NA,382,"PO BOX 1582, REEDLEY, CA, 93654","No_Match",NA,NA,NA,NA
335383,"PO BOX 15824","SACRAMENTO","CA",95852,NA,NA,383,"PO BOX 15824, SACRAMENTO, CA, 95852","No_Match",NA,NA,NA,NA
335384,"PO BOX 1583","ALTURAS","CA",96101,NA,NA,384,"PO BOX 1583, ALTURAS, CA, 96101","No_Match",NA,NA,NA,NA
335385,"PO BOX 1583","GULFPORT","MS",39502,NA,NA,385,"PO BOX 1583, GULFPORT, MS, 39502","No_Match",NA,NA,NA,NA
335386,"PO BOX 1583","MORGAN HILL","CA",95037,NA,NA,386,"PO BOX 1583, MORGAN HILL, CA, 95037","No_Match",NA,NA,NA,NA
335387,"PO BOX 1583","PEMBROKE","GA",31321,NA,NA,387,"PO BOX 1583, PEMBROKE, GA, 31321","No_Match",NA,NA,NA,NA
335388,"PO BOX 1583","PHARR","TX",78577,NA,NA,388,"PO BOX 1583, PHARR, TX, 78577","No_Match",NA,NA,NA,NA
335389,"PO BOX 1583","WEST SACRAMENTO","CA",95691,NA,NA,389,"PO BOX 1583, WEST SACRAMENTO, CA, 95691","No_Match",NA,NA,NA,NA
335390,"PO BOX 15836","WASHINGTON","DC",20003,NA,NA,390,"PO BOX 15836, WASHINGTON, DC, 20003","No_Match",NA,NA,NA,NA
335391,"PO BOX 1584","BOLINGBROOK","IL",60440,NA,NA,391,"PO BOX 1584, BOLINGBROOK, IL, 60440","No_Match",NA,NA,NA,NA
335392,"PO BOX 1584","MILES CITY","MT",59301,NA,NA,392,"PO BOX 1584, MILES CITY, MT, 59301","No_Match",NA,NA,NA,NA
335393,"PO BOX 15846","PHOENIX","AZ",85060,NA,NA,393,"PO BOX 15846, PHOENIX, AZ, 85060","No_Match",NA,NA,NA,NA
335394,"PO BOX 1585","CHOTEAU","MT",59422,NA,NA,394,"PO BOX 1585, CHOTEAU, MT, 59422","No_Match",NA,NA,NA,NA
335395,"PO BOX 1585","KEA'AU","HI",96749,NA,NA,395,"PO BOX 1585, KEA'AU, HI, 96749","No_Match",NA,NA,NA,NA
335396,"PO BOX 1586","FREELAND","WA",98249,NA,NA,396,"PO BOX 1586, FREELAND, WA, 98249","No_Match",NA,NA,NA,NA
335397,"PO BOX 1586","GEORGETOWN","TX",78627,NA,NA,397,"PO BOX 1586, GEORGETOWN, TX, 78627","No_Match",NA,NA,NA,NA
335398,"PO BOX 1586","WILLIAMSBURY","VA",23187,NA,NA,398,"PO BOX 1586, WILLIAMSBURY, VA, 23187","No_Match",NA,NA,NA,NA
335399,"PO BOX 1587","HOUSTON","TX",77251,NA,NA,399,"PO BOX 1587, HOUSTON, TX, 77251","No_Match",NA,NA,NA,NA
335400,"PO BOX 15872","TALLAHASSEE","FL",32317,NA,NA,400,"PO BOX 15872, TALLAHASSEE, FL, 32317","No_Match",NA,NA,NA,NA
335401,"PO BOX 15884","HATTIESBURG","MS",39404,NA,NA,401,"PO BOX 15884, HATTIESBURG, MS, 39404","No_Match",NA,NA,NA,NA
335402,"PO BOX 1589","TUCSON","AZ",85702,NA,NA,402,"PO BOX 1589, TUCSON, AZ, 85702","No_Match",NA,NA,NA,NA
335403,"PO BOX 159","ANDERSON","SC",29622,NA,NA,403,"PO BOX 159, ANDERSON, SC, 29622","No_Match",NA,NA,NA,NA
335404,"PO BOX 159","BONHAM","TX",75418,NA,NA,404,"PO BOX 159, BONHAM, TX, 75418","No_Match",NA,NA,NA,NA
335405,"PO BOX 159","CARNATION","WA",98014,NA,NA,405,"PO BOX 159, CARNATION, WA, 98014","No_Match",NA,NA,NA,NA
335406,"PO BOX 159","CENTRAL SQUARE","NY",13036,NA,NA,406,"PO BOX 159, CENTRAL SQUARE, NY, 13036","No_Match",NA,NA,NA,NA
335407,"PO BOX 159","CHEBOYGAN","MI",49721,NA,NA,407,"PO BOX 159, CHEBOYGAN, MI, 49721","No_Match",NA,NA,NA,NA
335408,"PO BOX 159","CHELAN","WA",98816,NA,NA,408,"PO BOX 159, CHELAN, WA, 98816","No_Match",NA,NA,NA,NA
335409,"PO BOX 159","CLARENDON","NY",14429,NA,NA,409,"PO BOX 159, CLARENDON, NY, 14429","No_Match",NA,NA,NA,NA
335410,"PO BOX 159","HALSEY","OR",97348,NA,NA,410,"PO BOX 159, HALSEY, OR, 97348","No_Match",NA,NA,NA,NA
335411,"PO BOX 159","IOLA","TX",77861,NA,NA,411,"PO BOX 159, IOLA, TX, 77861","No_Match",NA,NA,NA,NA
335412,"PO BOX 159","LAKE NEBAGAMON","WI",54849,NA,NA,412,"PO BOX 159, LAKE NEBAGAMON, WI, 54849","No_Match",NA,NA,NA,NA
335413,"PO BOX 159","MAPLE FALLS","WA",98266,NA,NA,413,"PO BOX 159, MAPLE FALLS, WA, 98266","No_Match",NA,NA,NA,NA
335414,"PO BOX 159","MAYFIELD","UT",84643,NA,NA,414,"PO BOX 159, MAYFIELD, UT, 84643","No_Match",NA,NA,NA,NA
335415,"PO BOX 159","MOUNT VERNON","IN",47620,NA,NA,415,"PO BOX 159, MOUNT VERNON, IN, 47620","No_Match",NA,NA,NA,NA
335416,"PO BOX 159","OSTRANDER","OH",43061,NA,NA,416,"PO BOX 159, OSTRANDER, OH, 43061","No_Match",NA,NA,NA,NA
335417,"PO BOX 159","PELHAM","TN",37366,NA,NA,417,"PO BOX 159, PELHAM, TN, 37366","No_Match",NA,NA,NA,NA
335418,"PO BOX 159","PIERCE","NE",68767,NA,NA,418,"PO BOX 159, PIERCE, NE, 68767","No_Match",NA,NA,NA,NA
335419,"PO BOX 159","SCANDIA","MN",55073,NA,NA,419,"PO BOX 159, SCANDIA, MN, 55073","No_Match",NA,NA,NA,NA
335420,"PO BOX 159","SHARON HILL","PA",19079,NA,NA,420,"PO BOX 159, SHARON HILL, PA, 19079","No_Match",NA,NA,NA,NA
335421,"PO BOX 159","SHERMAN","CT",6784,NA,NA,421,"PO BOX 159, SHERMAN, CT, 6784","No_Match",NA,NA,NA,NA
335422,"PO BOX 159","SICKLERVILLE","NJ",8081,NA,NA,422,"PO BOX 159, SICKLERVILLE, NJ, 8081","No_Match",NA,NA,NA,NA
335423,"PO BOX 159","WAPATO","WA",98951,NA,NA,423,"PO BOX 159, WAPATO, WA, 98951","No_Match",NA,NA,NA,NA
335424,"PO BOX 1590","KOLOA","HI",96756,NA,NA,424,"PO BOX 1590, KOLOA, HI, 96756","No_Match",NA,NA,NA,NA
335425,"PO BOX 1591","AURORA","IL",60506,NA,NA,425,"PO BOX 1591, AURORA, IL, 60506","No_Match",NA,NA,NA,NA
335426,"PO BOX 1591","BUFFALO","NY",14215,NA,NA,426,"PO BOX 1591, BUFFALO, NY, 14215","No_Match",NA,NA,NA,NA
335427,"PO BOX 1591","DECATUR","AL",35602,NA,NA,427,"PO BOX 1591, DECATUR, AL, 35602","No_Match",NA,NA,NA,NA
335428,"PO BOX 1591","EAU CLAIRE","WI",54701,NA,NA,428,"PO BOX 1591, EAU CLAIRE, WI, 54701","No_Match",NA,NA,NA,NA
335429,"PO BOX 1591","GULF BREEZE","FL",32562,NA,NA,429,"PO BOX 1591, GULF BREEZE, FL, 32562","No_Match",NA,NA,NA,NA
335430,"PO BOX 1591","HILLSVILLE","VA",24343,NA,NA,430,"PO BOX 1591, HILLSVILLE, VA, 24343","No_Match",NA,NA,NA,NA
335431,"PO BOX 1591","MODESTO","CA",95336,NA,NA,431,"PO BOX 1591, MODESTO, CA, 95336","No_Match",NA,NA,NA,NA
335432,"PO BOX 1591","PONTE VEDRA","FL",32004,NA,NA,432,"PO BOX 1591, PONTE VEDRA, FL, 32004","No_Match",NA,NA,NA,NA
335433,"PO BOX 1591","VALLEY SPRINGS","CA",95252,NA,NA,433,"PO BOX 1591, VALLEY SPRINGS, CA, 95252","No_Match",NA,NA,NA,NA
335434,"PO BOX 1592","BREWTON","AL",36427,NA,NA,434,"PO BOX 1592, BREWTON, AL, 36427","No_Match",NA,NA,NA,NA
335435,"PO BOX 1592","CLINTON","AR",72031,NA,NA,435,"PO BOX 1592, CLINTON, AR, 72031","No_Match",NA,NA,NA,NA
335436,"PO BOX 1592","ELK CITY","OK",73648,NA,NA,436,"PO BOX 1592, ELK CITY, OK, 73648","No_Match",NA,NA,NA,NA
335437,"PO BOX 1592","HARRISBUG","NC",28075,NA,NA,437,"PO BOX 1592, HARRISBUG, NC, 28075","No_Match",NA,NA,NA,NA
335438,"PO BOX 1592","MELBOURNE","FL",32902,NA,NA,438,"PO BOX 1592, MELBOURNE, FL, 32902","No_Match",NA,NA,NA,NA
335439,"PO BOX 1592","OCEAN SHORES","WA",98569,NA,NA,439,"PO BOX 1592, OCEAN SHORES, WA, 98569","No_Match",NA,NA,NA,NA
335440,"PO BOX 15923","PLANTATION","FL",33318,NA,NA,440,"PO BOX 15923, PLANTATION, FL, 33318","No_Match",NA,NA,NA,NA
335441,"PO BOX 1593","HAINES","AK",99827,NA,NA,441,"PO BOX 1593, HAINES, AK, 99827","No_Match",NA,NA,NA,NA
335442,"PO BOX 15933","SAN ANTONIO","TX",78212,NA,NA,442,"PO BOX 15933, SAN ANTONIO, TX, 78212","No_Match",NA,NA,NA,NA
335443,"PO BOX 1594","KENNESAW","GA",30156,NA,NA,443,"PO BOX 1594, KENNESAW, GA, 30156","No_Match",NA,NA,NA,NA
335444,"PO BOX 1594","KILL DEVIL HILLS","NC",27948,NA,NA,444,"PO BOX 1594, KILL DEVIL HILLS, NC, 27948","No_Match",NA,NA,NA,NA
335445,"PO BOX 1594","PINE LAKE","GA",30072,NA,NA,445,"PO BOX 1594, PINE LAKE, GA, 30072","No_Match",NA,NA,NA,NA
335446,"PO BOX 15946","SURFSIDE BEACH","SC",29587,NA,NA,446,"PO BOX 15946, SURFSIDE BEACH, SC, 29587","No_Match",NA,NA,NA,NA
335447,"PO BOX 1595","BATTLE","NV",89820,NA,NA,447,"PO BOX 1595, BATTLE, NV, 89820","No_Match",NA,NA,NA,NA
335448,"PO BOX 1595","BURLESON","TX",76097,NA,NA,448,"PO BOX 1595, BURLESON, TX, 76097","No_Match",NA,NA,NA,NA
335449,"PO BOX 1595","DESOTO","TX",75123,NA,NA,449,"PO BOX 1595, DESOTO, TX, 75123","No_Match",NA,NA,NA,NA
335450,"PO BOX 1595","EL GRANADA","CA",94018,NA,NA,450,"PO BOX 1595, EL GRANADA, CA, 94018","No_Match",NA,NA,NA,NA
335451,"PO BOX 1595","FORT PIERCE","FL",34954,NA,NA,451,"PO BOX 1595, FORT PIERCE, FL, 34954","No_Match",NA,NA,NA,NA
335452,"PO BOX 1595","HILLSBOROUGH","NC",27278,NA,NA,452,"PO BOX 1595, HILLSBOROUGH, NC, 27278","No_Match",NA,NA,NA,NA
335453,"PO BOX 1595","LARAMIE","WY",82073,NA,NA,453,"PO BOX 1595, LARAMIE, WY, 82073","No_Match",NA,NA,NA,NA
335454,"PO BOX 1596","HOBOKEN","NJ",7030,NA,NA,454,"PO BOX 1596, HOBOKEN, NJ, 7030","No_Match",NA,NA,NA,NA
335455,"PO BOX 1596","KING GEORGE","VA",22485,NA,NA,455,"PO BOX 1596, KING GEORGE, VA, 22485","No_Match",NA,NA,NA,NA
335456,"PO BOX 1596","MILLS","WY",82644,NA,NA,456,"PO BOX 1596, MILLS, WY, 82644","No_Match",NA,NA,NA,NA
335457,"PO BOX 1596","RUSSELL SPRINGS","KY",42642,NA,NA,457,"PO BOX 1596, RUSSELL SPRINGS, KY, 42642","No_Match",NA,NA,NA,NA
335458,"PO BOX 1596","SAULT STE MARIE","MI",49783,NA,NA,458,"PO BOX 1596, SAULT STE MARIE, MI, 49783","No_Match",NA,NA,NA,NA
335459,"PO BOX 1597","PURVIS","MS",39475,NA,NA,459,"PO BOX 1597, PURVIS, MS, 39475","No_Match",NA,NA,NA,NA
335460,"PO BOX 1598","DEFUNIAK SPRINGS","FL",32435,NA,NA,460,"PO BOX 1598, DEFUNIAK SPRINGS, FL, 32435","No_Match",NA,NA,NA,NA
335461,"PO BOX 1598","STOW","OH",44224,NA,NA,461,"PO BOX 1598, STOW, OH, 44224","No_Match",NA,NA,NA,NA
335462,"PO BOX 1599","DAHLONEGA","GA",30533,NA,NA,462,"PO BOX 1599, DAHLONEGA, GA, 30533","No_Match",NA,NA,NA,NA
335463,"PO BOX 1599","OSAGE BEACH","MO",65065,NA,NA,463,"PO BOX 1599, OSAGE BEACH, MO, 65065","No_Match",NA,NA,NA,NA
335464,"PO BOX 1599","PAHOA","HI",96778,NA,NA,464,"PO BOX 1599, PAHOA, HI, 96778","No_Match",NA,NA,NA,NA
335465,"PO BOX 16","ALLERTON","IA",50008,NA,NA,465,"PO BOX 16, ALLERTON, IA, 50008","No_Match",NA,NA,NA,NA
335466,"PO BOX 16","ASPERMONT","TX",79502,NA,NA,466,"PO BOX 16, ASPERMONT, TX, 79502","No_Match",NA,NA,NA,NA
335467,"PO BOX 16","CHESTER","TX",75936,NA,NA,467,"PO BOX 16, CHESTER, TX, 75936","No_Match",NA,NA,NA,NA
335468,"PO BOX 16","COEUR DALENE","ID",83816,NA,NA,468,"PO BOX 16, COEUR DALENE, ID, 83816","No_Match",NA,NA,NA,NA
335469,"PO BOX 16","CONCORD","NH",3302,NA,NA,469,"PO BOX 16, CONCORD, NH, 3302","No_Match",NA,NA,NA,NA
335470,"PO BOX 16","COUNCIL GROVE","KS",66846,NA,NA,470,"PO BOX 16, COUNCIL GROVE, KS, 66846","No_Match",NA,NA,NA,NA
335471,"PO BOX 16","DALLAS","GA",30132,NA,NA,471,"PO BOX 16, DALLAS, GA, 30132","No_Match",NA,NA,NA,NA
335472,"PO BOX 16","DORRIS","CA",96023,NA,NA,472,"PO BOX 16, DORRIS, CA, 96023","No_Match",NA,NA,NA,NA
335473,"PO BOX 16","GEORGETOWN","MA",1833,NA,NA,473,"PO BOX 16, GEORGETOWN, MA, 1833","No_Match",NA,NA,NA,NA
335474,"PO BOX 16","GRANT CITY","MO",64456,NA,NA,474,"PO BOX 16, GRANT CITY, MO, 64456","No_Match",NA,NA,NA,NA
335475,"PO BOX 16","HOCKEY","TX",77447,NA,NA,475,"PO BOX 16, HOCKEY, TX, 77447","No_Match",NA,NA,NA,NA
335476,"PO BOX 16","ISMAY","MT",59336,NA,NA,476,"PO BOX 16, ISMAY, MT, 59336","No_Match",NA,NA,NA,NA
335477,"PO BOX 16","KENT CITY","MI",49330,NA,NA,477,"PO BOX 16, KENT CITY, MI, 49330","No_Match",NA,NA,NA,NA
335478,"PO BOX 16","KIMBALL","SD",57355,NA,NA,478,"PO BOX 16, KIMBALL, SD, 57355","No_Match",NA,NA,NA,NA
335479,"PO BOX 16","KING GEORGE","VA",22485,NA,NA,479,"PO BOX 16, KING GEORGE, VA, 22485","No_Match",NA,NA,NA,NA
335480,"PO BOX 16","LANDRUM","SC",29356,NA,NA,480,"PO BOX 16, LANDRUM, SC, 29356","No_Match",NA,NA,NA,NA
335481,"PO BOX 16","LODI","NJ",7644,NA,NA,481,"PO BOX 16, LODI, NJ, 7644","No_Match",NA,NA,NA,NA
335482,"PO BOX 16","LONG LAKE","WI",54542,NA,NA,482,"PO BOX 16, LONG LAKE, WI, 54542","No_Match",NA,NA,NA,NA
335483,"PO BOX 16","NEW MILFORD","NJ",7646,NA,NA,483,"PO BOX 16, NEW MILFORD, NJ, 7646","No_Match",NA,NA,NA,NA
335484,"PO BOX 16","OAKWOOD","GA",30566,NA,NA,484,"PO BOX 16, OAKWOOD, GA, 30566","No_Match",NA,NA,NA,NA
335485,"PO BOX 16","OWATONNA","MN",55060,NA,NA,485,"PO BOX 16, OWATONNA, MN, 55060","No_Match",NA,NA,NA,NA
335486,"PO BOX 16","PEOSTA","IA",52068,NA,NA,486,"PO BOX 16, PEOSTA, IA, 52068","No_Match",NA,NA,NA,NA
335487,"PO BOX 16","PERRY","GA",31069,NA,NA,487,"PO BOX 16, PERRY, GA, 31069","No_Match",NA,NA,NA,NA
335488,"PO BOX 160","ANSONIA","CT",6401,NA,NA,488,"PO BOX 160, ANSONIA, CT, 6401","No_Match",NA,NA,NA,NA
335489,"PO BOX 160","BELMONT","NH",3320,NA,NA,489,"PO BOX 160, BELMONT, NH, 3320","No_Match",NA,NA,NA,NA
335490,"PO BOX 160","CALHOUN","KY",42327,NA,NA,490,"PO BOX 160, CALHOUN, KY, 42327","No_Match",NA,NA,NA,NA
335491,"PO BOX 160","CHIPLEY","FL",32428,NA,NA,491,"PO BOX 160, CHIPLEY, FL, 32428","No_Match",NA,NA,NA,NA
335492,"PO BOX 160","DEFOREST","WI",53532,NA,NA,492,"PO BOX 160, DEFOREST, WI, 53532","No_Match",NA,NA,NA,NA
335493,"PO BOX 160","ENOSBURG FALLS","VT",5450,NA,NA,493,"PO BOX 160, ENOSBURG FALLS, VT, 5450","No_Match",NA,NA,NA,NA
335494,"PO BOX 160","GRANBURY","TX",76048,NA,NA,494,"PO BOX 160, GRANBURY, TX, 76048","No_Match",NA,NA,NA,NA
335495,"PO BOX 160","LEWISBERRY","PA",17339,NA,NA,495,"PO BOX 160, LEWISBERRY, PA, 17339","No_Match",NA,NA,NA,NA
335496,"PO BOX 160","LISBON","NY",13658,NA,NA,496,"PO BOX 160, LISBON, NY, 13658","No_Match",NA,NA,NA,NA
335497,"PO BOX 160","LOON LAKE","NY",12989,NA,NA,497,"PO BOX 160, LOON LAKE, NY, 12989","No_Match",NA,NA,NA,NA
335498,"PO BOX 160","MENAHGA","MN",56464,NA,NA,498,"PO BOX 160, MENAHGA, MN, 56464","No_Match",NA,NA,NA,NA
335499,"PO BOX 160","NAHANT","MA",1908,NA,NA,499,"PO BOX 160, NAHANT, MA, 1908","No_Match",NA,NA,NA,NA
335500,"PO BOX 160","NICEVILLE","FL",32588,NA,NA,500,"PO BOX 160, NICEVILLE, FL, 32588","No_Match",NA,NA,NA,NA
