"ID","Address","City","State","Zip","lat","long","id","input_address","match_indicator","match_type","matched_address","tiger_line_id","tiger_side"
294501,"8031","NEW ORLEANS","LA",70182,NA,NA,1,"8031, NEW ORLEANS, LA, 70182","No_Match",NA,NA,NA,NA
294502,"8031","PHILADELPHIA","PA",19153,NA,NA,2,"8031, PHILADELPHIA, PA, 19153","No_Match",NA,NA,NA,NA
294503,"8032 CARDINAL CV E","INDIANAPOLIS","IN",46256,39.8997127100001,-86.029183057,3,"8032 CARDINAL CV E, INDIANAPOLIS, IN, 46256","Match","Exact","8032 CARDINAL COVE E, INDIANAPOLIS, IN, 46256",639688290,"R"
294504,"8032 COLESON XING","LOCUST GROVE","GA",30248,NA,NA,4,"8032 COLESON XING, LOCUST GROVE, GA, 30248","No_Match",NA,NA,NA,NA
294505,"8032 FOUNTAINHEAD PLACE","FORT WAYNE","IN",46835,41.136768123,-85.0401033489999,5,"8032 FOUNTAINHEAD PLACE, FORT WAYNE, IN, 46835","Match","Exact","8032 FOUNTAINHEAD PL, FORT WAYNE, IN, 46835",6402953,"L"
294506,"8032 HEAVENLY VALLEY DRIVE","HENRICO","VA",23231,37.445185472,-77.330219268,6,"8032 HEAVENLY VALLEY DRIVE, HENRICO, VA, 23231","Match","Exact","8032 HEAVENLY VALLEY DR, HENRICO, VA, 23231",627265213,"R"
294507,"8032 MARMION DRIVE","PITTSBURGH","PA",15237,40.5543760320001,-80.024725792,7,"8032 MARMION DRIVE, PITTSBURGH, PA, 15237","Match","Exact","8032 MARMION DR, PITTSBURGH, PA, 15237",623254007,"L"
294508,"8032 NW 198TH STREET","HIALEAH","FL",33015,25.9530909040001,-80.332517422,8,"8032 NW 198TH STREET, HIALEAH, FL, 33015","Match","Exact","8032 NW 198TH ST, HIALEAH, FL, 33015",641713948,"L"
294509,"8032 RODNEY STREET","PHILADELPHIA","PA",19150,40.068365606,-75.1744205429999,9,"8032 RODNEY STREET, PHILADELPHIA, PA, 19150","Match","Exact","8032 RODNEY ST, PHILADELPHIA, PA, 19150",131394865,"L"
294510,"8032 SANDS POINT DRIVE - UNIT D","HOUSTON","TX",77036,29.714617456,-95.526883917,10,"8032 SANDS POINT DRIVE - UNIT D, HOUSTON, TX, 77036","Match","Exact","8032 SANDS POINT DR, HOUSTON, TX, 77036",96614234,"L"
294511,"8032 VILLA AVADA COURT","LAS VEGAS","NV",89113,36.0791367750001,-115.266460282,11,"8032 VILLA AVADA COURT, LAS VEGAS, NV, 89113","Match","Exact","8032 VILLA AVADA CT, LAS VEGAS, NV, 89113",201991970,"R"
294512,"80326 AVENIDA LINDA VISTA","INDIO","CA",92203,33.7578936210001,-116.2634929,12,"80326 AVENIDA LINDA VISTA, INDIO, CA, 92203","Match","Exact","80326 AVENIDA LINDA VIS, INDIO, CA, 92203",608981897,"L"
294513,"8033 ASHTON AVENUE SUITE 105","MANASSAS","VA",20109,38.786292174,-77.5210586589999,13,"8033 ASHTON AVENUE SUITE 105, MANASSAS, VA, 20109","Match","Exact","8033 ASHTON AVE, MANASSAS, VA, 20109",207165601,"R"
294514,"8033 CAUGHMAN ROAD","COLUMBIA","SC",29209,33.9662053690001,-80.913693192,14,"8033 CAUGHMAN ROAD, COLUMBIA, SC, 29209","Match","Exact","8033 CAUGHMAN RD, COLUMBIA, SC, 29209",71830811,"L"
294515,"8033 EDGEWOOD AVE N","BROOKLYN PARK","MN",55445,45.100388998,-93.3628383989999,15,"8033 EDGEWOOD AVE N, BROOKLYN PARK, MN, 55445","Match","Exact","8033 EDGEWOOD AVE N, BROOKLYN PARK, MN, 55445",43828924,"L"
294516,"8033 MISTY MEADOW COURT N","JACKSONVILLE","FL",32210,NA,NA,16,"8033 MISTY MEADOW COURT N, JACKSONVILLE, FL, 32210","No_Match",NA,NA,NA,NA
294517,"8033 NW 192 TERRACE","HIALEAH","FL",33015,25.948373508,-80.333221065,17,"8033 NW 192 TERRACE, HIALEAH, FL, 33015","Match","Exact","8033 NW 192ND TER, HIALEAH, FL, 33015",116059750,"R"
294518,"8033 S 113TH ST","SEATTLE","WA",98178,47.502025051,-122.232203442,18,"8033 S 113TH ST, SEATTLE, WA, 98178","Match","Exact","8033 S 113TH ST, SEATTLE, WA, 98178",186630302,"R"
294519,"8033 S 15TH ST STE A","LINCOLN","NE",68512,40.7320471680001,-96.700306905,19,"8033 S 15TH ST STE A, LINCOLN, NE, 68512","Match","Non_Exact","8033 S 15TH ST, LINCOLN, NE, 68512",620633549,"R"
294520,"8033 SUNSET BOULEVARD 167","LOS ANGELES","CA",90046,34.0980140520001,-118.364662064,20,"8033 SUNSET BOULEVARD 167, LOS ANGELES, CA, 90046","Match","Exact","8033 SUNSET BLVD, LOS ANGELES, CA, 90046",141598071,"R"
294521,"8033 SUNSET BOULEVARD UNIT 942","WEST HOLLYWOOD","CA",90046,34.0980140520001,-118.364662064,21,"8033 SUNSET BOULEVARD UNIT 942, WEST HOLLYWOOD, CA, 90046","Match","Exact","8033 SUNSET BLVD, W HOLLYWOOD, CA, 90046",141598071,"R"
294522,"8033 SUNSET BOULEVARD","LOS ANGELES","CA",90046,34.0980140520001,-118.364662064,22,"8033 SUNSET BOULEVARD, LOS ANGELES, CA, 90046","Match","Exact","8033 SUNSET BLVD, LOS ANGELES, CA, 90046",141598071,"R"
294523,"8033 W ADDISON ST","CHICAGO","IL",60634,41.944989213,-87.827933663,23,"8033 W ADDISON ST, CHICAGO, IL, 60634","Match","Exact","8033 W ADDISON ST, CHICAGO, IL, 60634",111747169,"L"
294524,"8033 W SUNSET 520","LOS ANGELES","CA",90046,34.0980140080001,-118.36466524,24,"8033 W SUNSET 520, LOS ANGELES, CA, 90046","Match","Non_Exact","8033 SUNSET BLVD, LOS ANGELES, CA, 90046",141598071,"R"
294525,"80339 GREEN HILLS DRIVE","INDIO","CA",92201,33.719798928,-116.262567219,25,"80339 GREEN HILLS DRIVE, INDIO, CA, 92201","Match","Exact","80339 GREEN HILLS DR, INDIO, CA, 92201",195087594,"L"
294526,"8034 14TH AVE S","SEATTLE","WA",98118,NA,NA,26,"8034 14TH AVE S, SEATTLE, WA, 98118","No_Match",NA,NA,NA,NA
294527,"8034 DEADWOOD RIDGE","CONVERSE","TX",78109,29.5330055960001,-98.330565083,27,"8034 DEADWOOD RIDGE, CONVERSE, TX, 78109","Match","Exact","8034 DEADWOOD RIDGE, CONVERSE, TX, 78109",101504287,"R"
294528,"8034 LAKEWOOD AVENUE","GARY","IN",46403,41.6139117970001,-87.240706723,28,"8034 LAKEWOOD AVENUE, GARY, IN, 46403","Match","Exact","8034 LAKEWOOD AVE, GARY, IN, 46403",98437616,"L"
294529,"8035 CRANE COVE APT 303","FORT WAYNE","IN",46804,NA,NA,29,"8035 CRANE COVE APT 303, FORT WAYNE, IN, 46804","No_Match",NA,NA,NA,NA
294530,"8035 E R L THORNTION FRWY STE 444","DALLAS","TX",75228,NA,NA,30,"8035 E R L THORNTION FRWY STE 444, DALLAS, TX, 75228","No_Match",NA,NA,NA,NA
294531,"8035 E R L THORNTON FRWY STE 268","DALLAS","TX",75228,NA,NA,31,"8035 E R L THORNTON FRWY STE 268, DALLAS, TX, 75228","No_Match",NA,NA,NA,NA
294532,"8035 E R L THORNTON FRWY STE 444","DALLAS","TX",75228,NA,NA,32,"8035 E R L THORNTON FRWY STE 444, DALLAS, TX, 75228","No_Match",NA,NA,NA,NA
294533,"8035 E R L THORNTON FWY SUIT 266","DALLAS","TX",75228,NA,NA,33,"8035 E R L THORNTON FWY SUIT 266, DALLAS, TX, 75228","No_Match",NA,NA,NA,NA
294534,"8035 E R L THORNTON FWY-251","DALLAS","TX",75228,NA,NA,34,"8035 E R L THORNTON FWY-251, DALLAS, TX, 75228","No_Match",NA,NA,NA,NA
294535,"8035 E RL THORNTON SUITE 300","DALLAS","TX",75228,NA,NA,35,"8035 E RL THORNTON SUITE 300, DALLAS, TX, 75228","No_Match",NA,NA,NA,NA
294536,"8035 GILBERT STREET","PHILADELPHIA","PA",19150,40.0717433360001,-75.170997485,36,"8035 GILBERT STREET, PHILADELPHIA, PA, 19150","Match","Exact","8035 GILBERT ST, PHILADELPHIA, PA, 19150",131394949,"R"
294537,"8035 LAKESIDE DR","JURUPA VALLEY","CA",92509,33.9825328680001,-117.459445875,37,"8035 LAKESIDE DR, JURUPA VALLEY, CA, 92509","Match","Exact","8035 LAKESIDE DR, JURUPA VALLEY, CA, 92509",195077577,"R"
294538,"8035 LEE DRIVE  APT 202","ARVADA","CO",80005,39.8426900850001,-105.111968999,38,"8035 LEE DRIVE  APT 202, ARVADA, CO, 80005","Match","Exact","8035 LEE DR, ARVADA, CO, 80005",177801528,"L"
294539,"8035 MADISON AVE STE A1","CITRUS HEIGHTS","CA",95610,38.6640160330001,-121.264825125,39,"8035 MADISON AVE STE A1, CITRUS HEIGHTS, CA, 95610","Match","Exact","8035 MADISON AVE, CITRUS HEIGHTS, CA, 95610",133410649,"L"
294540,"8035 MONCLOVA ROAD","MONCLOVA","OH",43542,41.5587680780001,-83.733835843,40,"8035 MONCLOVA ROAD, MONCLOVA, OH, 43542","Match","Exact","8035 MONCLOVA RD, MONCLOVA, OH, 43542",33939790,"R"
294541,"8035 OSWEGO ROAD PO BOX 2365","LIVERPOOL","NY",13089,NA,NA,41,"8035 OSWEGO ROAD PO BOX 2365, LIVERPOOL, NY, 13089","No_Match",NA,NA,NA,NA
294542,"8035 S WABASH AVE","CHICAGO","IL",60619,41.7484665870001,-87.6229215239999,42,"8035 S WABASH AVE, CHICAGO, IL, 60619","Match","Exact","8035 S WABASH AVE, CHICAGO, IL, 60619",111772697,"L"
294543,"8035 SPRINGFIELD BLVD - APT 2H","QUEENS VILLAGE","NY",11427,NA,NA,43,"8035 SPRINGFIELD BLVD - APT 2H, QUEENS VILLAGE, NY, 11427","No_Match",NA,NA,NA,NA
294544,"8035 VILLAGE DR","BEAUMONT","TX",77713,30.106231107,-94.1884506069999,44,"8035 VILLAGE DR, BEAUMONT, TX, 77713","Match","Exact","8035 VILLAGE DR, BEAUMONT, TX, 77713",73936302,"R"
294545,"8036 3RD STREET SUITE 105","DOWNEY","CA",90241,33.943902483,-118.135656975,45,"8036 3RD STREET SUITE 105, DOWNEY, CA, 90241","Match","Exact","8036 3RD ST, DOWNEY, CA, 90241",141697542,"R"
294546,"8036 CLAYTON CT","FRANKLIN","WI",53132,42.889230287,-88.0150863979999,46,"8036 CLAYTON CT, FRANKLIN, WI, 53132","Match","Exact","8036 CLAYTON CT, FRANKLIN, WI, 53132",77763138,"L"
294547,"8036 S SANGAMON ST","CHICAGO","IL",60620,41.7480476330001,-87.647613306,47,"8036 S SANGAMON ST, CHICAGO, IL, 60620","Match","Exact","8036 S SANGAMON ST, CHICAGO, IL, 60620",111831517,"R"
294548,"8036 S SAWYER AVE","CHICAGO","IL",60652,41.7472389160001,-87.703546036,48,"8036 S SAWYER AVE, CHICAGO, IL, 60652","Match","Exact","8036 S SAWYER AVE, CHICAGO, IL, 60652",111819904,"R"
294549,"8036 ST ANDREWS LN","STANLEY","NC",28164,35.4511645310001,-80.967923833,49,"8036 ST ANDREWS LN, STANLEY, NC, 28164","Match","Exact","8036 SAINT ANDREWS LN, STANLEY, NC, 28164",645500154,"L"
294550,"8036 W BERWYN AVE","CHICAGO","IL",60656,41.975521724,-87.8279380929999,50,"8036 W BERWYN AVE, CHICAGO, IL, 60656","Match","Exact","8036 W BERWYN AVE, CHICAGO, IL, 60656",111746577,"R"
294551,"8037 116TH AVE SE","CRETE","ND",58040,46.2488122730001,-97.96554238,51,"8037 116TH AVE SE, CRETE, ND, 58040","Match","Exact","8037 116TH AVE SE, CRETE, ND, 58040",199554869,"L"
294552,"8037 ESCALON AVE","PASADENA","MD",21122,39.1319799980001,-76.554024,52,"8037 ESCALON AVE, PASADENA, MD, 21122","Match","Exact","8037 ESCALON AVE, PASADENA, MD, 21122",653281462,"R"
294553,"8037 GEORGIA CT","SEVERN","MD",21144,39.120023363,-76.689263269,53,"8037 GEORGIA CT, SEVERN, MD, 21144","Match","Exact","8037 GEORGIA CT, SEVERN, MD, 21144",68206873,"R"
294554,"8037 JOHANNISBERG WAY","SACRAMENTO","CA",95829,38.4664848580001,-121.357782926,54,"8037 JOHANNISBERG WAY, SACRAMENTO, CA, 95829","Match","Exact","8037 JOHANNISBERG WAY, SACRAMENTO, CA, 95829",133373596,"L"
294555,"8037 S MUSKEGON AVENUE","CHICAGO","IL",60617,41.7493446920001,-87.555265747,55,"8037 S MUSKEGON AVENUE, CHICAGO, IL, 60617","Match","Exact","8037 S MUSKEGON AVE, CHICAGO, IL, 60617",111776297,"L"
294556,"8037 SAN MATEO STREET","NORTH LAS VEGAS","NV",89085,36.3074277970001,-115.202671963,56,"8037 SAN MATEO STREET, NORTH LAS VEGAS, NV, 89085","Match","Exact","8037 SAN MATEO ST, N LAS VEGAS, NV, 89085",632266089,"L"
294557,"8037 SUPERIOR DRIVE","DENHAM SPRINGS","LA",70726,30.433622303,-90.955792382,57,"8037 SUPERIOR DRIVE, DENHAM SPRINGS, LA, 70726","Match","Non_Exact","8037 SUPERIOR AVE, DENHAM SPRINGS, LA, 70726",624779907,"L"
294558,"8037 WEATHER VANE DR","JACKSONVILLE","FL",32244,30.1984638590001,-81.794482993,58,"8037 WEATHER VANE DR, JACKSONVILLE, FL, 32244","Match","Exact","8037 WEATHER VANE DR, JACKSONVILLE, FL, 32244",640434137,"L"
294559,"8038 138TH  ST APT 2","JAMAICA","NY",11435,NA,NA,59,"8038 138TH  ST APT 2, JAMAICA, NY, 11435","No_Match",NA,NA,NA,NA
294560,"8038 ASHFORD BOULEVARD","LAUREL","MD",20707,39.0920211690001,-76.8655265959999,60,"8038 ASHFORD BOULEVARD, LAUREL, MD, 20707","Match","Exact","8038 ASHFORD BLVD, LAUREL, MD, 20707",76335419,"R"
294561,"8038 B LIBERTY ROAD","FREDERICK","MD",21701,39.4446823010001,-77.398753658,61,"8038 B LIBERTY ROAD, FREDERICK, MD, 21701","Match","Exact","8038 LIBERTY RD, FREDERICK, MD, 21701",646641499,"L"
294562,"8038 HARSHAW DR","INDIANAPOLIS","IN",46239,39.733199461,-86.02498753,62,"8038 HARSHAW DR, INDIANAPOLIS, IN, 46239","Match","Exact","8038 HARSHAW DR, INDIANAPOLIS, IN, 46239",630293907,"R"
294563,"8038 HIGH OAK RD","GLEN BURNIE","MD",21060,39.149122963,-76.564438001,63,"8038 HIGH OAK RD, GLEN BURNIE, MD, 21060","Match","Exact","8038 HIGH OAK RD, GLEN BURNIE, MD, 21060",68209676,"L"
294564,"8038 SIERRA GARDENS DRIVE","JACKSONVILLE","FL",32219,30.4095293460001,-81.824572019,64,"8038 SIERRA GARDENS DRIVE, JACKSONVILLE, FL, 32219","Match","Exact","8038 SIERRA GARDENS DR, JACKSONVILLE, FL, 32219",624026863,"L"
294565,"8038 TRINITY MILLS ROAD APT 8","CORDOVA","TN",38016,35.17838297,-89.796225874,65,"8038 TRINITY MILLS ROAD APT 8, CORDOVA, TN, 38016","Match","Exact","8038 TRINITY MILLS RD, CORDOVA, TN, 38016",607536481,"L"
294566,"8038 VINEYARD LANE","LA VERGNE","TN",37086,35.969295263,-86.587732137,66,"8038 VINEYARD LANE, LA VERGNE, TN, 37086","Match","Exact","8038 VINEYARD LN, LA VERGNE, TN, 37086",606779416,"L"
294567,"8039 68TH LOOP SE","OLYMPIA","WA",98516,46.9854388470001,-122.769455678,67,"8039 68TH LOOP SE, OLYMPIA, WA, 98516","Match","Non_Exact","8039 68TH LOOP SE, OLYMPIA, WA, 98513",631136984,"L"
294568,"8039 AMBER COURT","HAYES","VA",23072,37.271302716,-76.4807096979999,68,"8039 AMBER COURT, HAYES, VA, 23072","Match","Exact","8039 AMBER CT, HAYES, VA, 23072",168209263,"L"
294569,"8039 BAUMAN AVE","OMAHA","NE",68122,41.3179284770001,-96.038989959,69,"8039 BAUMAN AVE, OMAHA, NE, 68122","Match","Exact","8039 BAUMAN AVE, OMAHA, NE, 68122",117014917,"R"
294570,"8039 CANTURA MILLS","CONVERSE","TX",78109,29.5050433110001,-98.3264466909999,70,"8039 CANTURA MILLS, CONVERSE, TX, 78109","Match","Exact","8039 CANTURA MILLS, CONVERSE, TX, 78109",101581011,"L"
294571,"8039 GOLDEN GLEN COURT","ORLANDO","FL",32819,28.4730944390001,-81.493824032,71,"8039 GOLDEN GLEN COURT, ORLANDO, FL, 32819","Match","Exact","8039 GOLDEN GLEN CT, ORLANDO, FL, 32819",94272145,"L"
294572,"8039 LYDIA AVE","KANSAS CITY","MO",64131,38.9822764030001,-94.571482633,72,"8039 LYDIA AVE, KANSAS CITY, MO, 64131","Match","Exact","8039 LYDIA AVE, KANSAS CITY, MO, 64131",91455348,"L"
294573,"8039 ROARING SPRINGS RD","GLOUCESTER","VA",23061,37.432483033,-76.528707733,73,"8039 ROARING SPRINGS RD, GLOUCESTER, VA, 23061","Match","Exact","8039 ROARING SPRINGS RD, GLOUCESTER, VA, 23061",636665684,"R"
294574,"8039 S QUINCE CIR","CENTENNIAL","CO",80112,39.570435919,-104.903603227,74,"8039 S QUINCE CIR, CENTENNIAL, CO, 80112","Match","Exact","8039 S QUINCE CIR, CENTENNIAL, CO, 80112",649782128,"L"
294575,"8039 STATE AVE","KANSAS CITY","KS",66112,39.1163747160001,-94.7667021299999,75,"8039 STATE AVE, KANSAS CITY, KS, 66112","Match","Exact","8039 STATE AVE, KANSAS CITY, KS, 66112",91137287,"L"
294576,"8039 TUSCARORA ROAD NW","ALBUQUERQUE","NM",87114,35.1968978300001,-106.753071492,76,"8039 TUSCARORA ROAD NW, ALBUQUERQUE, NM, 87114","Match","Exact","8039 TUSCARORA RD NW, ALBUQUERQUE, NM, 87114",639608339,"R"
294577,"8039 W MANCHESTER AVE","PLAYA DEL REY","CA",90293,33.959395182,-118.436232248,77,"8039 W MANCHESTER AVE, PLAYA DEL REY, CA, 90293","Match","Exact","8039 W MANCHESTER AVE, PLAYA DEL REY, CA, 90293",241170023,"R"
294578,"804 10TH STREET","LAKE PARK","FL",33403,26.800577149,-80.072884903,78,"804 10TH STREET, LAKE PARK, FL, 33403","Match","Exact","804 10TH ST, LAKE PARK, FL, 33403",115564437,"L"
294579,"804 2ND AVE S","CLEAR LAKE","IA",50428,43.1355333450001,-93.3785967319999,79,"804 2ND AVE S, CLEAR LAKE, IA, 50428","Match","Exact","804 2ND AVE S, CLEAR LAKE, IA, 50428",7288317,"R"
294580,"804 ATLANTIC STREET","STAMFORD","CT",6902,41.043326069,-73.541138991,80,"804 ATLANTIC STREET, STAMFORD, CT, 6902","Match","Exact","804 ATLANTIC ST, STAMFORD, CT, 06902",3245704,"L"
294581,"804 BARNARD TERRACE","BIRMINGHAM","AL",35206,33.5752920460001,-86.69071858,81,"804 BARNARD TERRACE, BIRMINGHAM, AL, 35206","Match","Exact","804 BARNARD TER, BIRMINGHAM, AL, 35206",81587015,"L"
294582,"804 BAY POINT DR","MADEIRA BEACH","FL",33708,27.8023853290001,-82.789874031,82,"804 BAY POINT DR, MADEIRA BEACH, FL, 33708","Match","Exact","804 BAY POINT DR, MADEIRA BEACH, FL, 33708",124692069,"R"
294583,"804 BENSON ROAD","MONTEVIDEO","MN",56265,NA,NA,83,"804 BENSON ROAD, MONTEVIDEO, MN, 56265","Tie",NA,NA,NA,NA
294584,"804 BUTLER ST","COLDWATER","OH",45828,40.4866567560001,-84.638595844,84,"804 BUTLER ST, COLDWATER, OH, 45828","Match","Exact","804 BUTLER ST, COLDWATER, OH, 45828",43086513,"R"
294585,"804 CENTRAL AVENUE SUITE B","NEBRASKA CITY","NE",68410,40.6766050000001,-95.855210594,85,"804 CENTRAL AVENUE SUITE B, NEBRASKA CITY, NE, 68410","Match","Exact","804 CENTRAL AVE, NEBRASKA CITY, NE, 68410",10394806,"R"
294586,"804 CLOVER","TOBYHANNA","PA",18466,41.1871947180001,-75.3522941259999,86,"804 CLOVER, TOBYHANNA, PA, 18466","Match","Non_Exact","804 CLOVER DR, TOBYHANNA, PA, 18466",136753307,"L"
294587,"804 COLLEGE STREET","BOWLING GREEN","KY",42101,36.9946548890001,-86.440374869,87,"804 COLLEGE STREET, BOWLING GREEN, KY, 42101","Match","Exact","804 COLLEGE ST, BOWLING GREEN, KY, 42101",28007728,"R"
294588,"804 COLUMBIA ST","HELENA","AR",72342,34.5304023080001,-90.5912061609999,88,"804 COLUMBIA ST, HELENA, AR, 72342","Match","Exact","804 COLUMBIA ST, HELENA, AR, 72342",12307829,"R"
294589,"804 CRIPPLE CREEK LANE","SUFFOLK","VA",23434,36.7166707860001,-76.568418767,89,"804 CRIPPLE CREEK LANE, SUFFOLK, VA, 23434","Match","Exact","804 CRIPPLE CREEK LN, SUFFOLK, VA, 23434",122246980,"L"
294590,"804 DELAFIELD ROAD","PITTSBURGH","PA",15215,40.4956372230001,-79.894107037,90,"804 DELAFIELD ROAD, PITTSBURGH, PA, 15215","Match","Exact","804 DELAFIELD RD, PITTSBURGH, PA, 15215",51647404,"R"
294591,"804 DUSKY SAP COURT","GRIFFIN","GA",30223,33.3029004310001,-84.244559346,91,"804 DUSKY SAP COURT, GRIFFIN, GA, 30223","Match","Exact","804 DUSKY SAP CT, GRIFFIN, GA, 30223",645777787,"R"
294592,"804 E 12TH STREET","MISHAWAKA","IN",46544,41.6512522530001,-86.16892389,92,"804 E 12TH STREET, MISHAWAKA, IN, 46544","Match","Exact","804 E 12TH ST, MISHAWAKA, IN, 46544",8062786,"L"
294593,"804 E 14TH AVENUE","DENVER","CO",80218,39.7384103300001,-104.977476307,93,"804 E 14TH AVENUE, DENVER, CO, 80218","Match","Exact","804 E 14TH AVE, DENVER, CO, 80218",177305815,"R"
294594,"804 E CHURCH STREET","MARION","OH",43302,40.587992167,-83.109789099,94,"804 E CHURCH STREET, MARION, OH, 43302","Match","Exact","804 E CHURCH ST, MARION, OH, 43302",12710305,"L"
294595,"804 E HUMPHREY AVE","ROCK FALLS","IL",61071,41.775364945,-89.656932313,95,"804 E HUMPHREY AVE, ROCK FALLS, IL, 61071","Match","Exact","804 E HUMPHREY AVE, ROCK FALLS, IL, 61071",48968476,"L"
294596,"804 E PINE","EDGEWOOD","TX",75117,32.6939201920001,-95.875311604,96,"804 E PINE, EDGEWOOD, TX, 75117","Match","Non_Exact","804 E PINE ST, EDGEWOOD, TX, 75117",42916364,"L"
294597,"804 E ROCK STREET","SPRINGFIELD","MN",56087,44.2454792620001,-94.961962542,97,"804 E ROCK STREET, SPRINGFIELD, MN, 56087","Match","Exact","804 E ROCK ST, SPRINGFIELD, MN, 56087",28570954,"L"
294598,"804 E SEMINARY AVE","TOWSON","MD",21286,39.4242962810001,-76.571226827,98,"804 E SEMINARY AVE, TOWSON, MD, 21286","Match","Exact","804 E SEMINARY AVE, TOWSON, MD, 21286",191474635,"L"
294599,"804 EAST 8280 SOUTH","SANDY","UT",84094,40.600913894,-111.868784554,99,"804 EAST 8280 SOUTH, SANDY, UT, 84094","Match","Exact","804 E 8280 S, SANDY, UT, 84094",176088765,"R"
294600,"804 EAST ROCK STREET","SPRINGFIELD","MN",56087,44.2454788100001,-94.9619638999999,100,"804 EAST ROCK STREET, SPRINGFIELD, MN, 56087","Match","Exact","804 E ROCK ST, SPRINGFIELD, MN, 56087",28570954,"L"
294601,"804 EMERSON AVE N","MINNEAPOLIS","MN",55411,44.9864560070001,-93.294075106,101,"804 EMERSON AVE N, MINNEAPOLIS, MN, 55411","Match","Exact","804 EMERSON AVE N, MINNEAPOLIS, MN, 55411",642733854,"R"
294602,"804 ENCINO DR","AR","TX",76001,32.617400983,-97.1212786839999,102,"804 ENCINO DR, AR, TX, 76001","Match","Non_Exact","804 ENCINO DR, ARLINGTON, TX, 76001",102148410,"R"
294603,"804 ENGMAN ST","CLEARWATER","FL",33755,27.9786545380001,-82.7952894319999,103,"804 ENGMAN ST, CLEARWATER, FL, 33755","Match","Exact","804 ENGMAN ST, CLEARWATER, FL, 33755",124664269,"L"
294604,"804 FALCON DR","MADISON","TN",37115,36.2762350530001,-86.732824917,104,"804 FALCON DR, MADISON, TN, 37115","Match","Exact","804 FALCON DR, MADISON, TN, 37115",97182530,"R"
294605,"804 FOX RUN TRL","SAGINAW","TX",76179,32.868341356,-97.389576962,105,"804 FOX RUN TRL, SAGINAW, TX, 76179","Match","Exact","804 FOX RUN TRL, SAGINAW, TX, 76179",102095075,"L"
294606,"804 GREEN JACKET WAY","O FALLON","IL",62269,38.6177540530001,-89.9645729869999,106,"804 GREEN JACKET WAY, O FALLON, IL, 62269","Match","Exact","804 GREEN JACKET WAY, O FALLON, IL, 62269",650700236,"R"
294607,"804 GREEN VALLEY ROAD SUITE 200","GREENSBORO","NC",27408,36.0917897850001,-79.8172610459999,107,"804 GREEN VALLEY ROAD SUITE 200, GREENSBORO, NC, 27408","Match","Exact","804 GREEN VALLEY RD, GREENSBORO, NC, 27408",131095885,"R"
294608,"804 GREEN VALLEY ROAD","GREENSBORO","NC",27408,36.0917897850001,-79.8172610459999,108,"804 GREEN VALLEY ROAD, GREENSBORO, NC, 27408","Match","Exact","804 GREEN VALLEY RD, GREENSBORO, NC, 27408",131095885,"R"
294609,"804 GROVE ST","KINGS MOUNTAIN","NC",28086,NA,NA,109,"804 GROVE ST, KINGS MOUNTAIN, NC, 28086","No_Match",NA,NA,NA,NA
294610,"804 HICKORY GLEN DRIVE","SEFFNER","FL",33584,27.995240998,-82.2709718999999,110,"804 HICKORY GLEN DRIVE, SEFFNER, FL, 33584","Match","Exact","804 HICKORY GLEN DR, SEFFNER, FL, 33584",104643003,"R"
294611,"804 HIGHLAND AVE","OAK PARK","IL",60304,41.874283043,-87.781798092,111,"804 HIGHLAND AVE, OAK PARK, IL, 60304","Match","Non_Exact","804 S HIGHLAND AVE, OAK PARK, IL, 60304",111794845,"L"
294612,"804 HILL STREET","MAYFIELD","PA",18433,41.5391556340001,-75.534477795,112,"804 HILL STREET, MAYFIELD, PA, 18433","Match","Exact","804 HILL ST, MAYFIELD, PA, 18433",139331915,"R"
294613,"804 HOWDENSHIRE RUN","KNIGHTDALE","NC",27545,35.7765600560001,-78.514445842,113,"804 HOWDENSHIRE RUN, KNIGHTDALE, NC, 27545","Match","Exact","804 HOWDENSHIRE RUN, KNIGHTDALE, NC, 27545",618768215,"L"
294614,"804 IRBY DRIVE","RICHMOND","VA",23225,37.514768804,-77.500046008,114,"804 IRBY DRIVE, RICHMOND, VA, 23225","Match","Exact","804 IRBY DR, RICHMOND, VA, 23225",201536738,"L"
294615,"804 KEARNY DRIVE","NORTH WOODMERE","NY",11581,40.646459941,-73.7233720249999,115,"804 KEARNY DRIVE, NORTH WOODMERE, NY, 11581","Match","Non_Exact","804 KEARNY DR, VALLEY STREAM, NY, 11581",147692987,"R"
294616,"804 KROSHUS DR","DILWORTH","MN",56529,46.882033747,-96.713473569,116,"804 KROSHUS DR, DILWORTH, MN, 56529","Match","Exact","804 KROSHUS DR, DILWORTH, MN, 56529",168034151,"L"
294617,"804 LINDENWOOD DR S","SOUTH BEND","IN",46617,41.7426291350001,-86.262907265,117,"804 LINDENWOOD DR S, SOUTH BEND, IN, 46617","Match","Non_Exact","804 LINDENWOOD DR S, SOUTH BEND, IN, 46637",8052949,"R"
294618,"804 LOCHWOOD PL","ESCONDIDO","CA",92026,33.1692713640001,-117.085372959,118,"804 LOCHWOOD PL, ESCONDIDO, CA, 92026","Match","Exact","804 LOCHWOOD PL, ESCONDIDO, CA, 92026",195751110,"R"
294619,"804 LUMMIS ROAD","SUFFOLK","VA",23437,36.683131433,-76.712799017,119,"804 LUMMIS ROAD, SUFFOLK, VA, 23437","Match","Exact","804 LUMMIS RD, SUFFOLK, VA, 23437",122237421,"R"
294620,"804 MADISON STREET","COATESVILLE","PA",19320,39.976303715,-75.839412339,120,"804 MADISON STREET, COATESVILLE, PA, 19320","Match","Exact","804 MADISON ST, COATESVILLE, PA, 19320",179479963,"L"
294621,"804 MAIN AVENUE","OAKES","ND",58474,46.1388392490001,-98.0888460739999,121,"804 MAIN AVENUE, OAKES, ND, 58474","Match","Exact","804 MAIN AVE, OAKES, ND, 58474",204415686,"L"
294622,"804 MAIN STREET","TABOR","IA",51653,40.9003539010001,-95.671384265,122,"804 MAIN STREET, TABOR, IA, 51653","Match","Exact","804 MAIN ST, TABOR, IA, 51653",9904105,"R"
294623,"804 MARYLAND AVENUE","WILMINGTON","DE",19805,39.7373568420001,-75.5671301359999,123,"804 MARYLAND AVENUE, WILMINGTON, DE, 19805","Match","Exact","804 MARYLAND AVE, WILMINGTON, DE, 19805",187257362,"L"
294624,"804 MENDOZA DRIVE","KISSIMMEE","FL",34758,28.1529645250001,-81.4496045659999,124,"804 MENDOZA DRIVE, KISSIMMEE, FL, 34758","Match","Exact","804 MENDOZA DR, KISSIMMEE, FL, 34758",176663507,"L"
294625,"804 MILITARY AVE","DODGE CITY","KS",67801,37.75379889,-100.006276896,125,"804 MILITARY AVE, DODGE CITY, KS, 67801","Match","Non_Exact","804 MILITARY ST, DODGE CITY, KS, 67801",206564819,"R"
294626,"804 MONROE ST","VALPARAISO","IN",46383,41.4658182950001,-87.051291061,126,"804 MONROE ST, VALPARAISO, IN, 46383","Match","Exact","804 MONROE ST, VALPARAISO, IN, 46383",119928530,"L"
294627,"804 MYSTIC DRIVE","GREENSBORO","NC",27406,36.02224047,-79.812150133,127,"804 MYSTIC DRIVE, GREENSBORO, NC, 27406","Match","Exact","804 MYSTIC DR, GREENSBORO, NC, 27406",131045971,"R"
294628,"804 N 3RD AVE","EDGAR","WI",54426,44.929854344,-89.963964254,128,"804 N 3RD AVE, EDGAR, WI, 54426","Match","Exact","804 N 3RD AVE, EDGAR, WI, 54426",117164279,"R"
294629,"804 N DOGWOOD ST","SALLISAW","OK",74955,35.46586519,-94.7789063929999,129,"804 N DOGWOOD ST, SALLISAW, OK, 74955","Match","Exact","804 N DOGWOOD ST, SALLISAW, OK, 74955",53750640,"R"
294630,"804 N HARRISON ST","WILMINGTON","DE",19806,39.7483089900001,-75.560873804,130,"804 N HARRISON ST, WILMINGTON, DE, 19806","Match","Exact","804 N HARRISON ST, WILMINGTON, DE, 19806",187257159,"R"
294631,"804 N LAMAR","ABBEVILLE","LA",70510,29.9789862910001,-92.125529877,131,"804 N LAMAR, ABBEVILLE, LA, 70510","Match","Non_Exact","804 N LAMAR ST, ABBEVILLE, LA, 70510",85962473,"R"
294632,"804 N MONTGOMERY AVE","LITCHFIELD","IL",62056,39.180687381,-89.646895386,132,"804 N MONTGOMERY AVE, LITCHFIELD, IL, 62056","Match","Exact","804 N MONTGOMERY AVE, LITCHFIELD, IL, 62056",99455694,"R"
294633,"804 N OLIVE AVE  FL 2","W PALM BCH","FL",33401,NA,NA,133,"804 N OLIVE AVE  FL 2, W PALM BCH, FL, 33401","Tie",NA,NA,NA,NA
294634,"804 N SALINA ST","SYRACUSE","NY",13208,43.0618794540001,-76.154192103,134,"804 N SALINA ST, SYRACUSE, NY, 13208","Match","Exact","804 N SALINA ST, SYRACUSE, NY, 13208",46569234,"R"
294635,"804 N WOODLAND","OLATHE","KS",66061,38.892907549,-94.816035827,135,"804 N WOODLAND, OLATHE, KS, 66061","Match","Non_Exact","804 N WOODLAND ST, OLATHE, KS, 66061",91282919,"R"
294636,"804 NE BRIDGE CREEK CROSSING","GRIMES","IA",50111,41.7071994770001,-93.7863411979999,136,"804 NE BRIDGE CREEK CROSSING, GRIMES, IA, 50111","Match","Exact","804 NE BRIDGE CREEK CROSSING, GRIMES, IA, 50111",641885093,"R"
294637,"804 NEW HOLLAND AVE","LANCASTER","PA",17602,40.050872784,-76.290808378,137,"804 NEW HOLLAND AVE, LANCASTER, PA, 17602","Match","Exact","804 NEW HOLLAND AVE, LANCASTER, PA, 17602",179663073,"R"
294638,"804 NORTH EUCLID STE 102","PIERRE","SD",57501,44.3776904740001,-100.348490161,138,"804 NORTH EUCLID STE 102, PIERRE, SD, 57501","Match","Non_Exact","804 N EUCLID AVE, PIERRE, SD, 57501",200328096,"R"
294639,"804 NW  151 ST","VANCOUVER","WA",98685,45.7300378740001,-122.678592354,139,"804 NW  151 ST, VANCOUVER, WA, 98685","Match","Exact","804 NW 151ST ST, VANCOUVER, WA, 98685",158372206,"R"
294640,"804 PEMBROKE OAK GROVE ROAD","OAK GROVE","KY",42262,36.6471511190001,-87.4150646429999,140,"804 PEMBROKE OAK GROVE ROAD, OAK GROVE, KY, 42262","Match","Exact","804 PEMBROKE OAK GROVE RD, OAK GROVE, KY, 42262",11276475,"R"
294641,"804 PLEASANT ST","HENRICO","VA",23075,37.5421935890001,-77.344163438,141,"804 PLEASANT ST, HENRICO, VA, 23075","Match","Exact","804 PLEASANT ST, HENRICO, VA, 23075",652316781,"R"
294642,"804 POPULAR LANE","MELBOURNE","FL",32901,28.058214617,-80.6073252739999,142,"804 POPULAR LANE, MELBOURNE, FL, 32901","Match","Non_Exact","804 POPLAR LN, MELBOURNE, FL, 32901",639072989,"L"
294643,"804 PURCELL DRIVE","PLANO","TX",75025,33.0823508450001,-96.70574827,143,"804 PURCELL DRIVE, PLANO, TX, 75025","Match","Exact","804 PURCELL DR, PLANO, TX, 75025",123520805,"L"
294644,"804 RIDGE LANE","MEDIA","PA",19063,39.9180844040001,-75.368490832,144,"804 RIDGE LANE, MEDIA, PA, 19063","Match","Exact","804 RIDGE LN, MEDIA, PA, 19063",134898257,"R"
294645,"804 RIVER FOREST DRIVE","MAINEVILLE","OH",45039,39.3626176990001,-84.23316464,145,"804 RIVER FOREST DRIVE, MAINEVILLE, OH, 45039","Match","Exact","804 RIVER FOREST DR, MAINEVILLE, OH, 45039",159044596,"R"
294646,"804 RIVER STRAND","CHESAPEAKE","VA",23320,36.7345326770001,-76.279661098,146,"804 RIVER STRAND, CHESAPEAKE, VA, 23320","Match","Exact","804 RIVER STRAND, CHESAPEAKE, VA, 23320",121781670,"R"
294647,"804 RONALD REAGAN DRIVE","FAYETTEVILLE","NC",28311,35.154395128,-78.8958813149999,147,"804 RONALD REAGAN DRIVE, FAYETTEVILLE, NC, 28311","Match","Exact","804 RONALD REAGAN DR, FAYETTEVILLE, NC, 28311",646737657,"R"
294648,"804 S BRADLEY DR","CHANDLER","AZ",85226,33.2930202850001,-111.93229762,148,"804 S BRADLEY DR, CHANDLER, AZ, 85226","Match","Exact","804 S BRADLEY DR, CHANDLER, AZ, 85226",128369436,"R"
294649,"804 S CALIFORNIA","CHICAGO","IL",60612,41.8709579550001,-87.6960289519999,149,"804 S CALIFORNIA, CHICAGO, IL, 60612","Match","Non_Exact","804 S CALIFORNIA AVE, CHICAGO, IL, 60612",111801461,"R"
294650,"804 S PARK AVE","ALEXANDRIA","IN",46001,40.2558641300001,-85.6714309119999,150,"804 S PARK AVE, ALEXANDRIA, IN, 46001","Match","Exact","804 S PARK AVE, ALEXANDRIA, IN, 46001",636455539,"L"
294651,"804 S PARKVIEW DR","COLDWATER","OH",45828,40.4842687880001,-84.6383716189999,151,"804 S PARKVIEW DR, COLDWATER, OH, 45828","Match","Exact","804 S PARKVIEW DR, COLDWATER, OH, 45828",43086536,"R"
294652,"804 S ROCKWALL AVE","TERRELL","TX",75160,32.7304713710001,-96.281721869,152,"804 S ROCKWALL AVE, TERRELL, TX, 75160","Match","Exact","804 S ROCKWALL AVE, TERRELL, TX, 75160",123752880,"L"
294653,"804 S ZELMA","DEPEW","OK",74028,35.798615112,-96.508726436,153,"804 S ZELMA, DEPEW, OK, 74028","Match","Non_Exact","804 ZELMA AVE, DEPEW, OK, 74028",165875767,"L"
294654,"804 SAINT CLAIR AVENUE","ERIE","PA",16505,42.0966643530001,-80.16756997,154,"804 SAINT CLAIR AVENUE, ERIE, PA, 16505","Match","Exact","804 ST CLAIR AVE, ERIE, PA, 16505",117492437,"R"
294655,"804 SARAH STREET STE 305","STROUDSBURG","PA",18360,40.98662713,-75.197110525,155,"804 SARAH STREET STE 305, STROUDSBURG, PA, 18360","Match","Exact","804 SARAH ST, STROUDSBURG, PA, 18360",136768634,"L"
294656,"804 SARATOGA AVE SUITE B310","SAN JOSE","CA",95129,37.312699132,-121.977229031,156,"804 SARATOGA AVE SUITE B310, SAN JOSE, CA, 95129","Match","Exact","804 SARATOGA AVE, SAN JOSE, CA, 95129",650109072,"L"
294657,"804 SCARLET DR","EARLY","TX",76802,31.7385975060001,-98.934294313,157,"804 SCARLET DR, EARLY, TX, 76802","Match","Exact","804 SCARLET DR, EARLY, TX, 76802",129468409,"L"
294658,"804 SCOTSMAN TR","DYESRBURG","TN",38024,36.045518584,-89.3957166769999,158,"804 SCOTSMAN TR, DYESRBURG, TN, 38024","Match","Non_Exact","804 SCOTSMAN TRCE, DYERSBURG, TN, 38024",40659213,"R"
294659,"804 SEMINOLE AVENUE","ORLANDO","FL",32804,28.5547036400001,-81.3899725699999,159,"804 SEMINOLE AVENUE, ORLANDO, FL, 32804","Match","Exact","804 SEMINOLE AVE, ORLANDO, FL, 32804",94280635,"L"
294660,"804 SOUTH STATE ST","RALEIGH","NC",27601,35.769960472,-78.62458586,160,"804 SOUTH STATE ST, RALEIGH, NC, 27601","Match","Exact","804 S STATE ST, RALEIGH, NC, 27601",72509098,"R"
294661,"804 SOUTH WILLIAM STREET","JOHNSTOWN","NY",12095,42.9954304620001,-74.373543894,161,"804 SOUTH WILLIAM STREET, JOHNSTOWN, NY, 12095","Match","Exact","804 S WILLIAM ST, JOHNSTOWN, NY, 12095",153640861,"L"
294662,"804 SOUTH YORK STREET","MECHANICSBURG","PA",17055,40.203520477,-77.009307343,162,"804 SOUTH YORK STREET, MECHANICSBURG, PA, 17055","Match","Exact","804 S YORK ST, MECHANICSBURG, PA, 17055",647961990,"R"
294663,"804 SOUTHWEST 5TH TERRACE","GAINESVILLE","FL",32601,29.644679388,-82.330359797,163,"804 SOUTHWEST 5TH TERRACE, GAINESVILLE, FL, 32601","Match","Exact","804 SW 5TH TER, GAINESVILLE, FL, 32601",6807338,"R"
294664,"804 SPRINGWOOD DR","WAXHAW","NC",28173,34.9888898190001,-80.6896936219999,164,"804 SPRINGWOOD DR, WAXHAW, NC, 28173","Match","Exact","804 SPRINGWOOD DR, WAXHAW, NC, 28173",649541588,"R"
294665,"804 SPRUCE PLACE","SAINT PETER","MN",56082,44.3130541940001,-93.975482595,165,"804 SPRUCE PLACE, SAINT PETER, MN, 56082","Match","Exact","804 SPRUCE PL, SAINT PETER, MN, 56082",28697614,"L"
294666,"804 STAFFORD COURT","MCDONOUGH","GA",30253,33.4974949900001,-84.2050344739999,166,"804 STAFFORD COURT, MCDONOUGH, GA, 30253","Match","Exact","804 STAFFORD CT, MCDONOUGH, GA, 30253",210422973,"R"
294667,"804 STERLING TRACE DRIVE","MANSFIELD","TX",76063,32.5450022630001,-97.1129104079999,167,"804 STERLING TRACE DRIVE, MANSFIELD, TX, 76063","Match","Exact","804 STERLING TRACE DR, MANSFIELD, TX, 76063",650171874,"L"
294668,"804 SUNSET AVE APT A","DALLAS","TX",75208,32.744158369,-96.835973527,168,"804 SUNSET AVE APT A, DALLAS, TX, 75208","Match","Exact","804 SUNSET AVE, DALLAS, TX, 75208",102945982,"L"
294669,"804 SW 5TH STREET","GAINESVILLE","FL",32601,29.644858389,-82.329553919,169,"804 SW 5TH STREET, GAINESVILLE, FL, 32601","Match","Exact","804 SW 5TH ST, GAINESVILLE, FL, 32601",640547600,"R"
294670,"804 THAYOR STREET","NORFOLK","VA",23504,36.844697782,-76.2615096339999,170,"804 THAYOR STREET, NORFOLK, VA, 23504","Match","Exact","804 THAYOR ST, NORFOLK, VA, 23504",122129080,"R"
294671,"804 VASSAR ST","ORLANDO","FL",32804,28.5729393840001,-81.391185811,171,"804 VASSAR ST, ORLANDO, FL, 32804","Match","Exact","804 VASSAR ST, ORLANDO, FL, 32804",94418189,"L"
294672,"804 VERVILLA ROAD","MCMINNVILLE","TN",37110,35.6414659390001,-85.8199304999999,172,"804 VERVILLA ROAD, MCMINNVILLE, TN, 37110","Match","Exact","804 VERVILLA RD, MCMINNVILLE, TN, 37110",635132333,"L"
294673,"804 W 180TH ST  APT 63","NEW YORK","NY",10033,40.8500592190001,-73.939007249,173,"804 W 180TH ST  APT 63, NEW YORK, NY, 10033","Match","Non_Exact","804 W 180TH ST, NEW YORK, NY, 10033",59655511,"L"
294674,"804 W 620 S","TOOELE","UT",84074,40.5195583,-112.320234689,174,"804 W 620 S, TOOELE, UT, 84074","Match","Exact","804 W 620 S, TOOELE, UT, 84074",155396957,"R"
294675,"804 W AVE K","MULESHOE","TX",79347,34.222151931,-102.738868591,175,"804 W AVE K, MULESHOE, TX, 79347","Match","Exact","804 W AVE K, MULESHOE, TX, 79347",163973633,"R"
294676,"804 W FITZHENRY COURT","GLENWOOD","IL",60425,41.5581041390001,-87.63076883,176,"804 W FITZHENRY COURT, GLENWOOD, IL, 60425","Match","Exact","804 FITZHENRY CT, GLENWOOD, IL, 60425",111712898,"L"
294677,"804 WALDEN LANE","GRUNDY CENTER","IA",50638,42.360340761,-92.7822854029999,177,"804 WALDEN LANE, GRUNDY CENTER, IA, 50638","Match","Exact","804 WALDEN LN, GRUNDY CENTER, IA, 50638",77415175,"R"
294678,"804 WASHBURN AVE","KALAMAZOO","MI",49048,42.299702444,-85.550044247,178,"804 WASHBURN AVE, KALAMAZOO, MI, 49048","Match","Exact","804 WASHBURN AVE, KALAMAZOO, MI, 49048",12228264,"R"
294679,"804 WEST JENICEK LOOP","POST FALLS","ID",83854,NA,NA,179,"804 WEST JENICEK LOOP, POST FALLS, ID, 83854","No_Match",NA,NA,NA,NA
294680,"804 WEST WALNUT","DUNCAN","OK",73533,34.502892999,-97.9567656309999,180,"804 WEST WALNUT, DUNCAN, OK, 73533","Match","Non_Exact","804 W WALNUT AVE, DUNCAN, OK, 73533",13648683,"L"
294681,"804 ZADOCK DRIVE","FAYETTEVILLE","NC",28314,35.054681875,-79.08684113,181,"804 ZADOCK DRIVE, FAYETTEVILLE, NC, 28314","Match","Exact","804 ZADOCK DR, FAYETTEVILLE, NC, 28314",64260807,"R"
294682,"8040 80TH ST S","COTTAGE GROVE","MN",55016,NA,NA,182,"8040 80TH ST S, COTTAGE GROVE, MN, 55016","No_Match",NA,NA,NA,NA
294683,"8040 80TH STREET SOUTH","COTTAGE GROVE","MN",55016,NA,NA,183,"8040 80TH STREET SOUTH, COTTAGE GROVE, MN, 55016","No_Match",NA,NA,NA,NA
294684,"8040 CHRISTIAN COURT","OLIVE BRANCH","MS",38637,34.92007176,-89.847147289,184,"8040 CHRISTIAN COURT, OLIVE BRANCH, MS, 38637","Match","Non_Exact","8040 CHRISTIAN CT, OLIVE BRANCH, MS, 38654",624351976,"R"
294685,"8040 CHRISTIAN COURT","OLIVE BRANCH","MS",38654,34.92007176,-89.847147289,185,"8040 CHRISTIAN COURT, OLIVE BRANCH, MS, 38654","Match","Exact","8040 CHRISTIAN CT, OLIVE BRANCH, MS, 38654",624351976,"R"
294686,"8040 CRYSTAL BROOK CIRCLE","BROOKSVILLE","FL",34601,28.5484221770001,-82.415993868,186,"8040 CRYSTAL BROOK CIRCLE, BROOKSVILLE, FL, 34601","Match","Exact","8040 CRYSTAL BROOK CIR, BROOKSVILLE, FL, 34601",614675601,"R"
294687,"8040 E CASPIAN DR","NAMPA","ID",83687,43.6298069790001,-116.554633774,187,"8040 E CASPIAN DR, NAMPA, ID, 83687","Match","Exact","8040 E CASPIAN DR, NAMPA, ID, 83687",122849133,"L"
294688,"8040 E MORGAN TRL STE 1","SCOTTSDALE","AZ",85258,33.5766923480001,-111.90772258,188,"8040 E MORGAN TRL STE 1, SCOTTSDALE, AZ, 85258","Match","Non_Exact","8040 E MORGAN TRL, SCOTTSDALE, AZ, 85258",128364181,"L"
294689,"8040 LONE STAR ROAD SUITE C","JACKSONVILLE","FL",32211,30.3376390400001,-81.572711515,189,"8040 LONE STAR ROAD SUITE C, JACKSONVILLE, FL, 32211","Match","Exact","8040 LONE STAR RD, JACKSONVILLE, FL, 32211",83904053,"R"
294690,"8040 NE 8TH COURT","MIAMI","FL",33138,25.8491398580001,-80.179555579,190,"8040 NE 8TH COURT, MIAMI, FL, 33138","Match","Exact","8040 NE 8TH CT, MIAMI, FL, 33138",116006874,"L"
294691,"8040 ROWLAND AVE SUITE C154","PHILADELPHIA","PA",19136,40.046549993,-75.029621575,191,"8040 ROWLAND AVE SUITE C154, PHILADELPHIA, PA, 19136","Match","Exact","8040 ROWLAND AVE, PHILADELPHIA, PA, 19136",642122482,"L"
294692,"8040 S 6TH STREET","OAK CREEK","WI",53154,42.900522139,-87.919399189,192,"8040 S 6TH STREET, OAK CREEK, WI, 53154","Match","Exact","8040 S 6TH ST, OAK CREEK, WI, 53154",648111695,"R"
294693,"8040 SHORT DRIVE","PENSACOLA","FL",32514,30.511404849,-87.249674453,193,"8040 SHORT DRIVE, PENSACOLA, FL, 32514","Match","Exact","8040 SHORT DR, PENSACOLA, FL, 32514",93244648,"R"
294694,"8040 STRAWBERRY LANE","CHARLOTTE","NC",28277,35.091350644,-80.7974837849999,194,"8040 STRAWBERRY LANE, CHARLOTTE, NC, 28277","Match","Exact","8040 STRAWBERRY LN, CHARLOTTE, NC, 28277",70491312,"R"
294695,"8040 SW VALLEY VIEW CT","PORTLAND","OR",97225,45.499129946,-122.759034134,195,"8040 SW VALLEY VIEW CT, PORTLAND, OR, 97225","Match","Exact","8040 SW VALLEY VIEW CT, PORTLAND, OR, 97225",158222167,"L"
294696,"8041 BERMUDA POINT LANE","DAVIE","FL",33328,26.0754637960001,-80.2537013749999,196,"8041 BERMUDA POINT LANE, DAVIE, FL, 33328","Match","Exact","8041 BERMUDA POINT LN, DAVIE, FL, 33328",114796170,"L"
294697,"8041 COMMONWEALTH BLVD","BELLEROSE","NY",11426,NA,NA,197,"8041 COMMONWEALTH BLVD, BELLEROSE, NY, 11426","No_Match",NA,NA,NA,NA
294698,"8041 FLAMINGO DRIVE","SPARTA","IL",62286,38.103774774,-89.6149160419999,198,"8041 FLAMINGO DRIVE, SPARTA, IL, 62286","Match","Exact","8041 FLAMINGO DR, SPARTA, IL, 62286",95187540,"L"
294699,"8041 N MACARTHUR BLVD APT 2171","IRVING","TX",75063,32.9221007470001,-96.957834008,199,"8041 N MACARTHUR BLVD APT 2171, IRVING, TX, 75063","Match","Non_Exact","8041 N MACARTHUR BLVD, IRVING, TX, 75063",103245963,"L"
294700,"8041 VICTORY GARDEN LANE","LIBERTY TOWNSHIP","OH",45044,39.424341054,-84.3514647489999,200,"8041 VICTORY GARDEN LANE, LIBERTY TOWNSHIP, OH, 45044","Match","Exact","8041 VICTORY GARDEN LN, LIBERTY TOWNSHIP, OH, 45044",651750192,"L"
294701,"8041 WALES STREET","NEW ORLEANS","LA",70126,30.0393047480001,-90.002082079,201,"8041 WALES STREET, NEW ORLEANS, LA, 70126","Match","Exact","8041 WALES ST, NEW ORLEANS, LA, 70126",191720433,"L"
294702,"8042 BELLE HELENE DRIVE","DENHAM SPRINGS","LA",70726,30.4298973090001,-90.9538139809999,202,"8042 BELLE HELENE DRIVE, DENHAM SPRINGS, LA, 70726","Match","Exact","8042 BELLE HELENE DR, DENHAM SPRINGS, LA, 70726",612915898,"R"
294703,"8042 E SOARING EAGLE WAY","SCOTTSDALE","AZ",85266,33.7895107940001,-111.907930139,203,"8042 E SOARING EAGLE WAY, SCOTTSDALE, AZ, 85266","Match","Exact","8042 E SOARING EAGLE WAY, SCOTTSDALE, AZ, 85266",243973770,"L"
294704,"8042 KILPATRIC AVE","SKOKIE","IL",60076,42.0272121250001,-87.74506407,204,"8042 KILPATRIC AVE, SKOKIE, IL, 60076","Match","Non_Exact","8042 KILPATRICK AVE, SKOKIE, IL, 60076",605257124,"L"
294705,"8042 SETTLERS CIRCLE","BATON ROUGE","LA",70810,30.3746269650001,-91.0857385,205,"8042 SETTLERS CIRCLE, BATON ROUGE, LA, 70810","Match","Non_Exact","8042 SETTLER'S CIR, BATON ROUGE, LA, 70810",618068165,"L"
294706,"8042 WESTMINSTER ABBEY BLVD","ORLANDO","FL",32835,28.507703904,-81.502319422,206,"8042 WESTMINSTER ABBEY BLVD, ORLANDO, FL, 32835","Match","Exact","8042 WESTMINSTER ABBEY BLVD, ORLANDO, FL, 32835",94372958,"R"
294707,"8043 JAMESTOWN CIRCLE","FONTANA","CA",92336,34.1070188150001,-117.513288527,207,"8043 JAMESTOWN CIRCLE, FONTANA, CA, 92336","Match","Exact","8043 JAMESTOWN CIR, FONTANA, CA, 92336",638618425,"R"
294708,"8043 MAIN STREET","HOUMA","LA",70360,29.5976741970001,-90.7205843249999,208,"8043 MAIN STREET, HOUMA, LA, 70360","Match","Exact","8043 MAIN ST, HOUMA, LA, 70360",92051088,"L"
294709,"8043 MAPLE ROAD","AKRON","NY",14001,43.0688062880001,-78.5169774949999,209,"8043 MAPLE ROAD, AKRON, NY, 14001","Match","Exact","8043 MAPLE RD, AKRON, NY, 14001",48312585,"R"
294710,"8043 MURANO CIRCLE","PALM BEACH GARDENS","FL",33418,26.804831639,-80.1332565339999,210,"8043 MURANO CIRCLE, PALM BEACH GARDENS, FL, 33418","Match","Exact","8043 MURANO CIR, PALM BEACH GARDENS, FL, 33418",633736568,"L"
294711,"8043 NORTH SHORE DRIVE","LINCOLN","NE",68516,40.746562274,-96.612602582,211,"8043 NORTH SHORE DRIVE, LINCOLN, NE, 68516","Match","Exact","8043 N SHORE DR, LINCOLN, NE, 68516",28263046,"R"
294712,"8043 RUTLAND VILLAGE DR","MECHANICSVILLE","VA",23116,NA,NA,212,"8043 RUTLAND VILLAGE DR, MECHANICSVILLE, VA, 23116","No_Match",NA,NA,NA,NA
294713,"8043 SINGING SONNET LANE","HOUSTON","TX",77072,29.690325268,-95.613134772,213,"8043 SINGING SONNET LANE, HOUSTON, TX, 77072","Match","Exact","8043 SINGING SONNET LN, HOUSTON, TX, 77072",636923746,"R"
294714,"8043 W FOSTER LN APT 2N","NILES","IL",60714,42.052520869,-87.8275525459999,214,"8043 W FOSTER LN APT 2N, NILES, IL, 60714","Match","Non_Exact","8043 W FOSTER LN, NILES, IL, 60714",605004474,"L"
294715,"8043 W STATE ROUTE 163   SUITE 100","OAK HARBOR","OH",43449,NA,NA,215,"8043 W STATE ROUTE 163   SUITE 100, OAK HARBOR, OH, 43449","No_Match",NA,NA,NA,NA
294716,"8044 88TH AVE","PLEASANT PRAIRIE","WI",53158,42.559437288,-87.914057336,216,"8044 88TH AVE, PLEASANT PRAIRIE, WI, 53158","Match","Exact","8044 88TH AVE, PLEASANT PRAIRIE, WI, 53158",79814639,"R"
294717,"8044 HIDDEN VIEW CIR","FAIR OAKS","CA",95628,38.6470226600001,-121.266920863,217,"8044 HIDDEN VIEW CIR, FAIR OAKS, CA, 95628","Match","Exact","8044 HIDDEN VIEW CIR, FAIR OAKS, CA, 95628",645242808,"R"
294718,"8044 MONTGOMERY RD SUITE 700","CINCINNATI","OH",45236,39.2023386010001,-84.371700529,218,"8044 MONTGOMERY RD SUITE 700, CINCINNATI, OH, 45236","Match","Exact","8044 MONTGOMERY RD, CINCINNATI, OH, 45236",103938898,"R"
294719,"8044 W LOUISE DRIVE","PEORIA","AZ",85383,33.6831647400001,-112.232756896,219,"8044 W LOUISE DRIVE, PEORIA, AZ, 85383","Match","Exact","8044 W LOUISE DR, PEORIA, AZ, 85383",128416331,"L"
294720,"8045 ANTOINE DRIVE 242","HOUSTON","TX",77088,29.8856662200001,-95.474036634,220,"8045 ANTOINE DRIVE 242, HOUSTON, TX, 77088","Match","Exact","8045 ANTOINE DR, HOUSTON, TX, 77088",96026831,"L"
294721,"8045 ANTOINE DRIVE SUITE B148","HOUSTON","TX",77088,29.8856662200001,-95.474036634,221,"8045 ANTOINE DRIVE SUITE B148, HOUSTON, TX, 77088","Match","Exact","8045 ANTOINE DR, HOUSTON, TX, 77088",96026831,"L"
294722,"8045 DORCHESTER RD","NORTH CHARLESTON","SC",29418,32.9077027390001,-80.096575505,222,"8045 DORCHESTER RD, NORTH CHARLESTON, SC, 29418","Match","Exact","8045 DORCHESTER RD, N CHARLESTON, SC, 29418",647852097,"L"
294723,"8045 E DOUGLAS STE 105","WICHITA","KS",67207,NA,NA,223,"8045 E DOUGLAS STE 105, WICHITA, KS, 67207","No_Match",NA,NA,NA,NA
294724,"8045 ERDRICK STREET","PHILADELPHIA","PA",19136,40.040503922,-75.026306032,224,"8045 ERDRICK STREET, PHILADELPHIA, PA, 19136","Match","Exact","8045 ERDRICK ST, PHILADELPHIA, PA, 19136",131432866,"R"
294725,"8045 HARDY ROAD","HARDY","VA",24101,37.21551307,-79.800941687,225,"8045 HARDY ROAD, HARDY, VA, 24101","Match","Exact","8045 HARDY RD, HARDY, VA, 24101",56409353,"L"
294726,"8045 HIGHWAY 51","BRIGHTON","TN",38011,NA,NA,226,"8045 HIGHWAY 51, BRIGHTON, TN, 38011","No_Match",NA,NA,NA,NA
294727,"8045 HWY 51 SOUTH","BRIGHTON","TN",38011,NA,NA,227,"8045 HWY 51 SOUTH, BRIGHTON, TN, 38011","No_Match",NA,NA,NA,NA
294728,"8045 HWY 95 SUITE C","MOHAVE VALLEY","AZ",86440,34.918769495,-114.597844661,228,"8045 HWY 95 SUITE C, MOHAVE VALLEY, AZ, 86440","Match","Non_Exact","8045 STATE RTE 95, MOHAVE VALLEY, AZ, 86440",190368541,"L"
294729,"8045 JOHN HENRY DRIVE","BURLESON","TX",76028,32.5552416460001,-97.267412067,229,"8045 JOHN HENRY DRIVE, BURLESON, TX, 76028","Match","Exact","8045 JOHN HENRY DR, BURLESON, TX, 76028",640623410,"L"
294730,"8045 JONATHAN DRIVE","OOLTEWAH","TN",37363,35.143559988,-85.06591284,230,"8045 JONATHAN DRIVE, OOLTEWAH, TN, 37363","Match","Exact","8045 JONATHAN DR, OOLTEWAH, TN, 37363",633826265,"L"
294731,"8045 JONSON DR","REYNOLDSBURG","OH",43068,39.961890834,-82.784014578,231,"8045 JONSON DR, REYNOLDSBURG, OH, 43068","Match","Exact","8045 JONSON DR, REYNOLDSBURG, OH, 43068",135595424,"R"
294732,"8045 TARA BLVD NUMBER 258","JONESBORO","GA",30236,33.5316523880001,-84.3638932759999,232,"8045 TARA BLVD NUMBER 258, JONESBORO, GA, 30236","Match","Exact","8045 TARA BLVD, JONESBORO, GA, 30236",23336055,"R"
294733,"8045 TOLLGATE RD","ALEXANDRIA","KY",41001,38.964594262,-84.403144342,233,"8045 TOLLGATE RD, ALEXANDRIA, KY, 41001","Match","Exact","8045 TOLLGATE RD, ALEXANDRIA, KY, 41001",104450351,"L"
294734,"804553","CHICAGO","IL",60699,NA,NA,234,"804553, CHICAGO, IL, 60699","No_Match",NA,NA,NA,NA
294735,"8046 ESKERBAN DR","AVON","IN",46123,39.789631969,-86.3800445639999,235,"8046 ESKERBAN DR, AVON, IN, 46123","Match","Exact","8046 ESKERBAN DR, AVON, IN, 46123",645279096,"L"
294736,"8046 FRANKFORD AVE","PHILADELPHIA","PA",19136,40.0418253020001,-75.027005757,236,"8046 FRANKFORD AVE, PHILADELPHIA, PA, 19136","Match","Exact","8046 FRANKFORD AVE, PHILADELPHIA, PA, 19136",131432858,"L"
294737,"8046 FRANKFORD AVENUE","PHILADELPHIA","PA",19136,40.0418253020001,-75.027005757,237,"8046 FRANKFORD AVENUE, PHILADELPHIA, PA, 19136","Match","Exact","8046 FRANKFORD AVE, PHILADELPHIA, PA, 19136",131432858,"L"
294738,"8046 S SAINT LAWRENCE","CHICAGO","IL",60619,41.7484938520001,-87.610010626,238,"8046 S SAINT LAWRENCE, CHICAGO, IL, 60619","Match","Non_Exact","8046 S ST LAWRENCE AVE, CHICAGO, IL, 60619",111772910,"R"
294739,"8046 S SPAULDING AVENUE","CHICAGO","IL",60652,41.7472033020001,-87.704767214,239,"8046 S SPAULDING AVENUE, CHICAGO, IL, 60652","Match","Exact","8046 S SPAULDING AVE, CHICAGO, IL, 60652",653209212,"R"
294740,"8046 W 87TH STREET APT 302","CHICAGO","IL",60652,NA,NA,240,"8046 W 87TH STREET APT 302, CHICAGO, IL, 60652","No_Match",NA,NA,NA,NA
294741,"8047 COUNTY ROAD 7-2","DELTA","OH",43515,NA,NA,241,"8047 COUNTY ROAD 7-2, DELTA, OH, 43515","No_Match",NA,NA,NA,NA
294742,"8047 DORIAN WAY","FAIR OAKS","CA",95628,38.6552052320001,-121.265774341,242,"8047 DORIAN WAY, FAIR OAKS, CA, 95628","Match","Exact","8047 DORIAN WAY, FAIR OAKS, CA, 95628",133346680,"L"
294743,"8047 EAST 107 STREET","KANSAS CITY","MO",64134,38.930058355,-94.495935221,243,"8047 EAST 107 STREET, KANSAS CITY, MO, 64134","Match","Exact","8047 E 107TH ST, KANSAS CITY, MO, 64134",91506848,"R"
294744,"8047 INTERNATIONAL VILLAGE DR","JACKSONVILLE","FL",32277,30.3613555100001,-81.563615747,244,"8047 INTERNATIONAL VILLAGE DR, JACKSONVILLE, FL, 32277","Match","Exact","8047 INTERNATIONAL VILLAGE DR, JACKSONVILLE, FL, 32277",83942181,"L"
294745,"8048 MILLER RD  SUITE D","SWARTZ CREEK","MI",48473,42.957173878,-83.833308425,245,"8048 MILLER RD  SUITE D, SWARTZ CREEK, MI, 48473","Match","Exact","8048 MILLER RD, SWARTZ CREEK, MI, 48473",69572227,"R"
294746,"8049 GREENLY DRIVE","OAKLAND","CA",94605,37.7679703700001,-122.156823615,246,"8049 GREENLY DRIVE, OAKLAND, CA, 94605","Match","Exact","8049 GREENLY DR, OAKLAND, CA, 94605",125010959,"R"
294747,"8049 S TOLEDO AVE SUITE B","TULSA","OK",74137,NA,NA,247,"8049 S TOLEDO AVE SUITE B, TULSA, OK, 74137","No_Match",NA,NA,NA,NA
294748,"8049 SPRINGTREE ROAD","JACKSONVILLE","FL",32210,30.2663545080001,-81.782513996,248,"8049 SPRINGTREE ROAD, JACKSONVILLE, FL, 32210","Match","Exact","8049 SPRINGTREE RD, JACKSONVILLE, FL, 32210",83909203,"R"
294749,"8049 TAYLOR RD","REYNOLDSBURG","OH",43068,39.9767925370001,-82.7689410999999,249,"8049 TAYLOR RD, REYNOLDSBURG, OH, 43068","Match","Exact","8049 TAYLOR RD, REYNOLDSBURG, OH, 43068",649837863,"R"
294750,"8049 W BLACK EAGLE CT","TUCSON","AZ",85757,32.1381144420001,-111.136961857,250,"8049 W BLACK EAGLE CT, TUCSON, AZ, 85757","Match","Exact","8049 W BLACK EAGLE CT, TUCSON, AZ, 85757",606829595,"L"
294751,"805 - 250TH STREET","BRITT","IA",50423,NA,NA,251,"805 - 250TH STREET, BRITT, IA, 50423","No_Match",NA,NA,NA,NA
294752,"805 15TH STREET","WEST DES MOINES","IA",50265,41.580875228,-93.7240219509999,252,"805 15TH STREET, WEST DES MOINES, IA, 50265","Match","Exact","805 15TH ST, W DES MOINES, IA, 50265",65776783,"R"
294753,"805 16TH AVENUE PO BOX 763","EAST MOLINE","IL",61244,41.5151150730001,-90.442395236,253,"805 16TH AVENUE PO BOX 763, EAST MOLINE, IL, 61244","Match","Exact","805 16TH AVE, EAST MOLINE, IL, 61244",9215085,"L"
294754,"805 18TH STREET","MARYSVILLE","MI",48040,42.9007145190001,-82.48720587,254,"805 18TH STREET, MARYSVILLE, MI, 48040","Match","Exact","805 18TH ST, MARYSVILLE, MI, 48040",110958743,"R"
294755,"805 6TH AVE S  PO BOX 16","CLEAR LAKE","SD",57226,44.7511489620001,-96.6867568769999,255,"805 6TH AVE S  PO BOX 16, CLEAR LAKE, SD, 57226","Match","Exact","805 6TH AVE S, CLEAR LAKE, SD, 57226",173664592,"L"
294756,"805 7TH AVENUE","ALBANY","GA",31701,31.595781179,-84.1681756959999,256,"805 7TH AVENUE, ALBANY, GA, 31701","Match","Exact","805 7TH AVE, ALBANY, GA, 31701",84314144,"R"
294757,"805 7TH STREET","SULLY","IA",50251,41.575378535,-92.844258264,257,"805 7TH STREET, SULLY, IA, 50251","Match","Exact","805 7TH ST, SULLY, IA, 50251",89433962,"R"
294758,"805 8TH STREET NW","KASSON","MN",55944,44.0367389400001,-92.758731075,258,"805 8TH STREET NW, KASSON, MN, 55944","Match","Exact","805 8TH ST NW, KASSON, MN, 55944",31422544,"R"
294759,"805 9TH AVENUE","BEAVER FALLS","PA",15010,40.7495445710001,-80.322249126,259,"805 9TH AVENUE, BEAVER FALLS, PA, 15010","Match","Exact","805 9TH AVE, BEAVER FALLS, PA, 15010",52559300,"L"
294760,"805 A GREENHILL ST","BELLVILLE","TX",77418,29.950987727,-96.2482283749999,260,"805 A GREENHILL ST, BELLVILLE, TX, 77418","Match","Exact","805 GREENHILL ST, BELLVILLE, TX, 77418",41819351,"L"
294761,"805 AIRPORT ROAD","MUSKEGON","MI",49441,43.176382807,-86.2250960279999,261,"805 AIRPORT ROAD, MUSKEGON, MI, 49441","Match","Exact","805 AIRPORT RD, MUSKEGON, MI, 49441",77672541,"R"
294762,"805 ANTLER CT","PIQUA","OH",45356,40.1527164120001,-84.279214028,262,"805 ANTLER CT, PIQUA, OH, 45356","Match","Exact","805 ANTLER CT, PIQUA, OH, 45356",135305281,"R"
294763,"805 AUTUMN BREEZE CT","HERNDON","VA",20170,38.972141234,-77.410262653,263,"805 AUTUMN BREEZE CT, HERNDON, VA, 20170","Match","Exact","805 AUTUMN BREEZE CT, HERNDON, VA, 20170",76008197,"R"
294764,"805 BACKCREST AVE","WHITEVILLE","NC",28472,NA,NA,264,"805 BACKCREST AVE, WHITEVILLE, NC, 28472","No_Match",NA,NA,NA,NA
294765,"805 BEDFORD ST","STAMFORD","CT",6901,41.060810062,-73.537565784,265,"805 BEDFORD ST, STAMFORD, CT, 6901","Match","Exact","805 BEDFORD ST, STAMFORD, CT, 06901",618528530,"R"
294766,"805 BELLEMEADE BLVD","GRETNA","LA",70056,29.872934414,-90.0373478559999,266,"805 BELLEMEADE BLVD, GRETNA, LA, 70056","Match","Exact","805 BELLEMEADE BLVD, GRETNA, LA, 70056",93510753,"L"
294767,"805 BOWLER DRIVE","DURHAM","NC",27703,36.0091351630001,-78.8056423529999,267,"805 BOWLER DRIVE, DURHAM, NC, 27703","Match","Exact","805 BOWLER DR, DURHAM, NC, 27703",71785666,"L"
294768,"805 BROAD ST","BEAUFORT","NC",28516,34.7169157590001,-76.658966802,268,"805 BROAD ST, BEAUFORT, NC, 28516","Match","Exact","805 BROAD ST, BEAUFORT, NC, 28516",33862114,"R"
294769,"805 BROADVIEW PL","COLORADO SPRINGS","CO",80904,38.8618804980001,-104.84245508,269,"805 BROADVIEW PL, COLORADO SPRINGS, CO, 80904","Match","Exact","805 BROADVIEW PL, COLORADO SPRINGS, CO, 80904",610717789,"L"
294770,"805 BROADWAY STREET SUITE 405","VANCOUVER","WA",98660,45.6272899040001,-122.670549974,270,"805 BROADWAY STREET SUITE 405, VANCOUVER, WA, 98660","Match","Exact","805 BROADWAY ST, VANCOUVER, WA, 98660",158325721,"R"
294771,"805 BURTON BLVD UNIT D","DEFOREST","WI",53532,43.2575517120001,-89.334757802,271,"805 BURTON BLVD UNIT D, DEFOREST, WI, 53532","Match","Exact","805 BURTON BLVD, DEFOREST, WI, 53532",49538315,"L"
294772,"805 CALVERT STREET","JACKSONVILLE","FL",32208,30.378716798,-81.667420565,272,"805 CALVERT STREET, JACKSONVILLE, FL, 32208","Match","Exact","805 CALVERT ST, JACKSONVILLE, FL, 32208",83893159,"R"
294773,"805 CAMBRIDGE DRIVE","LAFAYETTE","LA",70503,30.1819896050001,-92.047237464,273,"805 CAMBRIDGE DRIVE, LAFAYETTE, LA, 70503","Match","Exact","805 CAMBRIDGE DR, LAFAYETTE, LA, 70503",85636961,"L"
294774,"805 CANDLE MEADOW BLVD","DESOTO","TX",75115,32.5769454690001,-96.890440126,274,"805 CANDLE MEADOW BLVD, DESOTO, TX, 75115","Match","Exact","805 CANDLE MEADOW BLVD, DESOTO, TX, 75115",103277874,"R"
294775,"805 CARTER RD","ROCKVILLE","MD",20852,39.0707398820001,-77.1480891699999,275,"805 CARTER RD, ROCKVILLE, MD, 20852","Match","Exact","805 CARTER RD, ROCKVILLE, MD, 20852",62054919,"R"
294776,"805 CEDARSTONE WAY","NASHVILLE","TN",37214,36.1694158830001,-86.6560302939999,276,"805 CEDARSTONE WAY, NASHVILLE, TN, 37214","Match","Exact","805 CEDARSTONE WAY, NASHVILLE, TN, 37214",631784584,"R"
294777,"805 CHATEAU VALLEY CT","FERGUSON","MO",63135,38.764959076,-90.2968251359999,277,"805 CHATEAU VALLEY CT, FERGUSON, MO, 63135","Match","Exact","805 CHATEAU VALLEY CT, FERGUSON, MO, 63135",100177449,"L"
294778,"805 CHRISTY COVE","JACKSONVILLE","AR",72076,34.8753310010001,-92.149093353,278,"805 CHRISTY COVE, JACKSONVILLE, AR, 72076","Match","Exact","805 CHRISTY COVE, JACKSONVILLE, AR, 72076",83529142,"L"
294779,"805 CHURCH STREET","GERMAN VALLEY","IL",61039,42.215193147,-89.489351463,279,"805 CHURCH STREET, GERMAN VALLEY, IL, 61039","Match","Exact","805 CHURCH ST, GERMAN VALLEY, IL, 61039",32697922,"R"
294780,"805 CLARA ST","ASHLAND","KY",41102,38.464515104,-82.667200055,280,"805 CLARA ST, ASHLAND, KY, 41102","Match","Exact","805 CLARA ST, ASHLAND, KY, 41102",151046219,"R"
294781,"805 COACH N SIX CT","SAINT LOUIS","MO",63137,38.746452145,-90.222996963,281,"805 COACH N SIX CT, SAINT LOUIS, MO, 63137","Match","Exact","805 COACH N SIX CT, SAINT LOUIS, MO, 63137",100150370,"L"
294782,"805 COTTAGE STREET SW","VIENNA","VA",22180,38.8922728650001,-77.2598887349999,282,"805 COTTAGE STREET SW, VIENNA, VA, 22180","Match","Exact","805 COTTAGE ST SW, VIENNA, VA, 22180",75970780,"L"
294783,"805 COTTONWOOD RD","HARRISON","AR",72601,36.2643820440001,-93.1172679859999,283,"805 COTTONWOOD RD, HARRISON, AR, 72601","Match","Exact","805 COTTONWOOD RD, HARRISON, AR, 72601",19997012,"R"
294784,"805 COUNTY ROAD 1440","YANTIS","TX",75497,32.984979717,-95.559317971,284,"805 COUNTY ROAD 1440, YANTIS, TX, 75497","Match","Exact","805 CO RD 1440, YANTIS, TX, 75497",42790576,"L"
294785,"805 CRESCENT HILL RD","NASHVILLE","TN",37206,36.183991157,-86.7193753239999,285,"805 CRESCENT HILL RD, NASHVILLE, TN, 37206","Match","Exact","805 CRESCENT HILL RD, NASHVILLE, TN, 37206",97194959,"L"
294786,"805 CRYSTAL WAY","GALT","CA",95632,38.249016763,-121.289467109,286,"805 CRYSTAL WAY, GALT, CA, 95632","Match","Exact","805 CRYSTAL WAY, GALT, CA, 95632",133402535,"L"
294787,"805 CURA COURT","OAKLAND","FL",34787,28.545608848,-81.639816603,287,"805 CURA COURT, OAKLAND, FL, 34787","Match","Exact","805 CURA CT, OAKLAND, FL, 34787",94409475,"L"
294788,"805 CYPRESS OAK CIRCLE","DELAND","FL",32720,29.036461048,-81.3363020959999,288,"805 CYPRESS OAK CIRCLE, DELAND, FL, 32720","Match","Exact","805 CYPRESS OAK CIR, DELAND, FL, 32720",612317628,"L"
294789,"805 DOUGLAS STREET","SIDNEY","IA",51652,40.7451096240001,-95.643223478,289,"805 DOUGLAS STREET, SIDNEY, IA, 51652","Match","Exact","805 DOUGLAS ST, SIDNEY, IA, 51652",653229757,"L"
294790,"805 DUPONT ST SUITE 8","BELLINGHAM","WA",98225,48.7562942160001,-122.483089458,290,"805 DUPONT ST SUITE 8, BELLINGHAM, WA, 98225","Match","Exact","805 DUPONT ST, BELLINGHAM, WA, 98225",183771869,"L"
294791,"805 E BELT LINE RD","DESOTO","TX",75115,32.5897265580001,-96.838266861,291,"805 E BELT LINE RD, DESOTO, TX, 75115","Match","Exact","805 E BELT LINE RD, DESOTO, TX, 75115",102954221,"L"
294792,"805 E GIBBS ST","UNION CITY","TN",38261,36.430386759,-89.047899408,292,"805 E GIBBS ST, UNION CITY, TN, 38261","Match","Exact","805 E GIBBS ST, UNION CITY, TN, 38261",30894137,"L"
294793,"805 E HIGH STREET","SPRINGFIELD","OH",45503,39.9212190870001,-83.797518695,293,"805 E HIGH STREET, SPRINGFIELD, OH, 45503","Match","Non_Exact","805 E HIGH ST, SPRINGFIELD, OH, 45505",135009833,"R"
294794,"805 E OAK AVE","JONESBORO","AR",72401,35.833775598,-90.697298844,294,"805 E OAK AVE, JONESBORO, AR, 72401","Match","Exact","805 E OAK AVE, JONESBORO, AR, 72401",46909502,"L"
294795,"805 E VALLEY ST","RED OAK","IA",51566,41.0130204340001,-95.222985314,295,"805 E VALLEY ST, RED OAK, IA, 51566","Match","Exact","805 E VALLEY ST, RED OAK, IA, 51566",43870410,"R"
294796,"805 EAGLERIDGE BLVD STE 50","PUEBLO","CO",81004,38.320500914,-104.618619948,296,"805 EAGLERIDGE BLVD STE 50, PUEBLO, CO, 81004","Match","Non_Exact","805 EAGLERIDGE BLVD, PUEBLO, CO, 81008",105103743,"R"
294797,"805 EAST GIFT AVENUE","PEORIA","IL",61603,40.7193462770001,-89.5838476339999,297,"805 EAST GIFT AVENUE, PEORIA, IL, 61603","Match","Exact","805 E GIFT AVE, PEORIA, IL, 61603",8719215,"L"
294798,"805 EAST HIGHWAY 72","FREDERICKTOWN","MO",63645,NA,NA,298,"805 EAST HIGHWAY 72, FREDERICKTOWN, MO, 63645","No_Match",NA,NA,NA,NA
294799,"805 EAST TEASDALE ROAD","TEASDALE","UT",84773,38.2709958,-111.454999374,299,"805 EAST TEASDALE ROAD, TEASDALE, UT, 84773","Match","Exact","805 E TEASDALE RD, TEASDALE, UT, 84773",176376744,"R"
294800,"805 FOREST AVE APT 203","NORTHFIELD","MN",55057,44.4570025140001,-93.1714604059999,300,"805 FOREST AVE APT 203, NORTHFIELD, MN, 55057","Match","Exact","805 FOREST AVE, NORTHFIELD, MN, 55057",640621444,"L"
294801,"805 FOUNDRY ROAD APT 302","LOUISVILLE","KY",40245,38.2317891180001,-85.500968851,301,"805 FOUNDRY ROAD APT 302, LOUISVILLE, KY, 40245","Match","Exact","805 FOUNDRY RD, LOUISVILLE, KY, 40245",649827865,"R"
294802,"805 FOX HUNTER ROAD","LENOIR CITY","TN",37772,35.797804483,-84.205029096,302,"805 FOX HUNTER ROAD, LENOIR CITY, TN, 37772","Match","Non_Exact","805 FOX HUNTERS RD, LENOIR CITY, TN, 37772",99967177,"R"
294803,"805 GARDEN OF THE GODS ROAD SUITE A","COLORADO SPRINGS","CO",80907,NA,NA,303,"805 GARDEN OF THE GODS ROAD SUITE A, COLORADO SPRINGS, CO, 80907","No_Match",NA,NA,NA,NA
294804,"805 GAYLORD STREET","DENVER","CO",80206,39.7292678150001,-104.961354752,304,"805 GAYLORD STREET, DENVER, CO, 80206","Match","Exact","805 GAYLORD ST, DENVER, CO, 80206",177331893,"L"
294805,"805 GEBHARDT AVENUE","ELIZABETH","NJ",7208,40.6741806360001,-74.234437223,305,"805 GEBHARDT AVENUE, ELIZABETH, NJ, 7208","Match","Exact","805 GEBHARDT AVE, ELIZABETH, NJ, 07208",642812493,"R"
294806,"805 GLYNN ST S STE 127 NUM 313","FAYETTEVILLE","GA",30269,33.4328918750001,-84.457060541,306,"805 GLYNN ST S STE 127 NUM 313, FAYETTEVILLE, GA, 30269","Match","Non_Exact","805 GLYNN ST S, FAYETTEVILLE, GA, 30214",640443311,"L"
294807,"805 HAPPY HOLLOW","BRENHAM","TX",77833,30.1785823640001,-96.492505932,307,"805 HAPPY HOLLOW, BRENHAM, TX, 77833","Match","Non_Exact","805 HAPPY HOLLOW RD, BRENHAM, TX, 77833",39258799,"L"
294808,"805 HARRISON ST","PAWNEE","OK",74058,36.337881155,-96.807417156,308,"805 HARRISON ST, PAWNEE, OK, 74058","Match","Exact","805 HARRISON ST, PAWNEE, OK, 74058",166310313,"L"
294809,"805 HAWTHORNE","GREENVILLE","MI",48838,43.172725643,-85.282424119,309,"805 HAWTHORNE, GREENVILLE, MI, 48838","Match","Non_Exact","805 HAWTHORNE CT, GREENVILLE, MI, 48838",110580088,"R"
294810,"805 HAYES","OAK PARK","IL",60302,41.900331194,-87.7789724629999,310,"805 HAYES, OAK PARK, IL, 60302","Match","Non_Exact","805 HAYES AVE, OAK PARK, IL, 60302",111753707,"L"
294811,"805 HIGHLAND DR","TYRONE","PA",16686,40.6778052440001,-78.250395678,311,"805 HIGHLAND DR, TYRONE, PA, 16686","Match","Exact","805 HIGHLAND DR, TYRONE, PA, 16686",633317637,"L"
294812,"805 HOLLOW TREE","LA VERNIA","TX",78121,29.298735756,-98.105142722,312,"805 HOLLOW TREE, LA VERNIA, TX, 78121","Match","Exact","805 HOLLOW TREE, LA VERNIA, TX, 78121",629750191,"L"
294813,"805 HOUSTON AVE APT 1","TAKOMA PARK","MD",20912,38.9911245640001,-77.001784443,313,"805 HOUSTON AVE APT 1, TAKOMA PARK, MD, 20912","Match","Exact","805 HOUSTON AVE, TAKOMA PARK, MD, 20912",62069305,"R"
294814,"805 IDLEWOOD DRIVE","ALLEN","TX",75002,33.0851063430001,-96.631429885,314,"805 IDLEWOOD DRIVE, ALLEN, TX, 75002","Match","Exact","805 IDLEWOOD DR, ALLEN, TX, 75002",210477935,"L"
294815,"805 ISOLA WAY","UKIAH","CA",95482,39.148043042,-123.173053222,315,"805 ISOLA WAY, UKIAH, CA, 95482","Match","Exact","805 ISOLA WAY, UKIAH, CA, 95482",67268807,"L"
294816,"805 JEWELL MAIN ROAD PO BOX 197","JEWELL RIDGE","VA",24622,37.184821291,-81.787773144,316,"805 JEWELL MAIN ROAD PO BOX 197, JEWELL RIDGE, VA, 24622","Match","Exact","805 JEWELL MAIN RD, JEWELL RIDGE, VA, 24622",47290838,"L"
294817,"805 KEMP CT","CALEXICO","CA",92231,32.6839571630001,-115.488642484,317,"805 KEMP CT, CALEXICO, CA, 92231","Match","Exact","805 KEMP CT, CALEXICO, CA, 92231",194538919,"R"
294818,"805 KINGSWOOD AVE","RICHARDSON","TX",75080,32.9750063770001,-96.748530909,318,"805 KINGSWOOD AVE, RICHARDSON, TX, 75080","Match","Exact","805 KINGSWOOD AVE, RICHARDSON, TX, 75080",102896452,"L"
294819,"805 LAKE ST PMB 463","OAK PARK","IL",60301,41.888639031,-87.7947415099999,319,"805 LAKE ST PMB 463, OAK PARK, IL, 60301","Match","Exact","805 LAKE ST, OAK PARK, IL, 60301",111752796,"L"
294820,"805 LAKE ST STE 441","OAK PARK","IL",60301,41.888639031,-87.7947415099999,320,"805 LAKE ST STE 441, OAK PARK, IL, 60301","Match","Exact","805 LAKE ST, OAK PARK, IL, 60301",111752796,"L"
294821,"805 LAKE STREET 232","OAK PARK","IL",60301,41.888639031,-87.7947415099999,321,"805 LAKE STREET 232, OAK PARK, IL, 60301","Match","Exact","805 LAKE ST, OAK PARK, IL, 60301",111752796,"L"
294822,"805 LAKE STREET STE 173","OAK PARK","IL",60301,41.888639031,-87.7947415099999,322,"805 LAKE STREET STE 173, OAK PARK, IL, 60301","Match","Exact","805 LAKE ST, OAK PARK, IL, 60301",111752796,"L"
294823,"805 LAKESIDE DRIVE","FLORENCE","SC",29505,34.170140996,-79.778936442,323,"805 LAKESIDE DRIVE, FLORENCE, SC, 29505","Match","Exact","805 LAKESIDE DR, FLORENCE, SC, 29505",28912756,"R"
294824,"805 LAVILLA ROAD","PUNT GORDA","FL",33950,26.9391194450001,-82.039241854,324,"805 LAVILLA ROAD, PUNT GORDA, FL, 33950","Match","Non_Exact","805 LAVILLA RD, PUNTA GORDA, FL, 33950",4324220,"R"
294825,"805 LINCOLN AVENUE","DUBUQUE","IA",52001,42.5172125290001,-90.66374759,325,"805 LINCOLN AVENUE, DUBUQUE, IA, 52001","Match","Exact","805 LINCOLN AVE, DUBUQUE, IA, 52001",16908586,"L"
294826,"805 LONG HOLLOW PIKE","GALLATIN","TN",37066,36.3884410480001,-86.464656771,326,"805 LONG HOLLOW PIKE, GALLATIN, TN, 37066","Match","Exact","805 LONG HOLLOW PIKE, GALLATIN, TN, 37066",29776918,"R"
294827,"805 LOTUS DR","RICHARDSON","TX",75081,32.937641775,-96.727685042,327,"805 LOTUS DR, RICHARDSON, TX, 75081","Match","Exact","805 LOTUS DR, RICHARDSON, TX, 75081",618103319,"L"
294828,"805 LOVINGHAM DR","ARLINGTON","TX",76017,32.6503348250001,-97.118193839,328,"805 LOVINGHAM DR, ARLINGTON, TX, 76017","Match","Exact","805 LOVINGHAM DR, ARLINGTON, TX, 76017",101928781,"R"
294829,"805 LUKE LANE","LEANDER","TX",78641,30.5421075520001,-97.829316526,329,"805 LUKE LANE, LEANDER, TX, 78641","Match","Exact","805 LUKE LN, LEANDER, TX, 78641",126456209,"R"
294830,"805 MARYLAND DR","AUSTIN","TX",78758,30.358072367,-97.70223298,330,"805 MARYLAND DR, AUSTIN, TX, 78758","Match","Exact","805 MARYLAND DR, AUSTIN, TX, 78758",63932013,"L"
294831,"805 MONROE STREET","DEARBORN","MI",48124,42.3082907630001,-83.244902155,331,"805 MONROE STREET, DEARBORN, MI, 48124","Match","Exact","805 MONROE ST, DEARBORN, MI, 48124",95440736,"L"
294832,"805 MORRIS STREET","GLOUCESTER CITY","NJ",8030,39.9001747840001,-75.118201933,332,"805 MORRIS STREET, GLOUCESTER CITY, NJ, 8030","Match","Exact","805 MORRIS ST, GLOUCESTER CITY, NJ, 08030",134346921,"L"
294833,"805 MULKEY LANE","DENTON","TX",76209,33.220538908,-97.111346299,333,"805 MULKEY LANE, DENTON, TX, 76209","Match","Exact","805 MULKEY LN, DENTON, TX, 76209",103340418,"R"
294834,"805 N E 108 TH ST","VANCOUVER","WA",98685,45.6989779850001,-122.663941429,334,"805 N E 108 TH ST, VANCOUVER, WA, 98685","Match","Non_Exact","805 NE 108TH ST, VANCOUVER, WA, 98685",158334685,"R"
294835,"805 N VAN AUKEN ST","ELMHURST","IL",60126,41.923033672,-87.9336186469999,335,"805 N VAN AUKEN ST, ELMHURST, IL, 60126","Match","Exact","805 VAN AUKEN ST, ELMHURST, IL, 60126",112709336,"R"
294836,"805 NE 8TH STREET","FORT LAUDERDALE","FL",33304,26.1335995360001,-80.136001843,336,"805 NE 8TH STREET, FORT LAUDERDALE, FL, 33304","Match","Non_Exact","805 NE 8TH ST, FORT LAUDERDALE, FL, 33304",114722961,"L"
294837,"805 NEW BERN AVENUE","RALEIGH","NC",27610,35.7800514080001,-78.627182594,337,"805 NEW BERN AVENUE, RALEIGH, NC, 27610","Match","Non_Exact","805 NEW BERN AVE, RALEIGH, NC, 27601",72508878,"L"
294838,"805 NORTH BUCHANAN ST","LITTLE ROCK","AR",72205,34.7585778280001,-92.339159135,338,"805 NORTH BUCHANAN ST, LITTLE ROCK, AR, 72205","Match","Non_Exact","805 BUCHANAN ST, LITTLE ROCK, AR, 72205",83505177,"R"
294839,"805 NORTH OLIVE AVENUE APT 218","WEST PALM BEACH","FL",33401,26.7199690300001,-80.051756327,339,"805 NORTH OLIVE AVENUE APT 218, WEST PALM BEACH, FL, 33401","Match","Exact","805 N OLIVE AVE, WEST PALM BEACH, FL, 33401",115278463,"L"
294840,"805 NORTH OVERLOOK DRIVE","ALEXANDRIA","VA",22305,38.8384960980001,-77.074793114,340,"805 NORTH OVERLOOK DRIVE, ALEXANDRIA, VA, 22305","Match","Exact","805 N OVERLOOK DR, ALEXANDRIA, VA, 22305",75987211,"R"
294841,"805 NW 12 ST B","HOMESTEAD","FL",33034,25.458768739,-80.48956449,341,"805 NW 12 ST B, HOMESTEAD, FL, 33034","Match","Non_Exact","805 NW 12TH ST, HOMESTEAD, FL, 33034",115961786,"L"
294842,"805 PATTON CHAPEL TRL","BIRMINGHAM","AL",35226,33.387186774,-86.8266583659999,342,"805 PATTON CHAPEL TRL, BIRMINGHAM, AL, 35226","Match","Exact","805 PATTON CHAPEL TRL, BIRMINGHAM, AL, 35226",81656027,"R"
294843,"805 PAU FERRO CT","BEREA","KY",40403,37.589092335,-84.319217559,343,"805 PAU FERRO CT, BEREA, KY, 40403","Match","Exact","805 PAU FERRO CT, BEREA, KY, 40403",32002765,"L"
294844,"805 PEACHTREE ST NE UNIT 409","ATLANTA","GA",30308,33.7765330890001,-84.384486076,344,"805 PEACHTREE ST NE UNIT 409, ATLANTA, GA, 30308","Match","Non_Exact","805 PEACHTREE ST, ATLANTA, GA, 30308",610225890,"R"
294845,"805 PEACHTREE STREET NORTHEAST","ATLANTA","GA",30308,33.7765330890001,-84.384486076,345,"805 PEACHTREE STREET NORTHEAST, ATLANTA, GA, 30308","Match","Non_Exact","805 PEACHTREE ST, ATLANTA, GA, 30308",610225890,"R"
294846,"805 PEPPERIDGE ROAD","WESTBURY","NY",11590,40.768334725,-73.576161868,346,"805 PEPPERIDGE ROAD, WESTBURY, NY, 11590","Match","Exact","805 PEPPERIDGE RD, WESTBURY, NY, 11590",147624070,"L"
294847,"805 PHILLIPS FAITH CHAPEL CHURCH RD","MURFREESBORO","TN",37130,35.857837295,-86.330701279,347,"805 PHILLIPS FAITH CHAPEL CHURCH RD, MURFREESBORO, TN, 37130","Match","Non_Exact","805 PHILLIPS RD, MURFREESBORO, TN, 37130",59037319,"R"
294848,"805 PINE ISLAND RD","ST AUGUSTINE","FL",32095,NA,NA,348,"805 PINE ISLAND RD, ST AUGUSTINE, FL, 32095","No_Match",NA,NA,NA,NA
294849,"805 PLEASANT HILL RD  NUMBER 142","LILBURN","GA",30047,33.9204428780001,-84.113794124,349,"805 PLEASANT HILL RD  NUMBER 142, LILBURN, GA, 30047","Match","Non_Exact","805 PLEASANT HILL RD NW, LILBURN, GA, 30047",645877004,"L"
294850,"805 RAGSDALE ROAD","JAMESTOWN","NC",27282,36.001719403,-79.940724054,350,"805 RAGSDALE ROAD, JAMESTOWN, NC, 27282","Match","Exact","805 RAGSDALE RD, JAMESTOWN, NC, 27282",131042516,"R"
294851,"805 RICHMOND DR","MCKINNEY","TX",75071,33.2091428320001,-96.736684917,351,"805 RICHMOND DR, MCKINNEY, TX, 75071","Match","Exact","805 RICHMOND DR, MCKINNEY, TX, 75071",123562988,"L"
294852,"805 ROSEDALE AVE","CAPITOLA","CA",95010,36.9807366430001,-121.950285385,352,"805 ROSEDALE AVE, CAPITOLA, CA, 95010","Match","Exact","805 ROSEDALE AVE, CAPITOLA, CA, 95010",605998818,"L"
294853,"805 RUTLAND STREET APT 6","SAN FRANCISCO","CA",94134,37.712460752,-122.40746702,353,"805 RUTLAND STREET APT 6, SAN FRANCISCO, CA, 94134","Match","Exact","805 RUTLAND ST, SAN FRANCISCO, CA, 94134",192290395,"L"
294854,"805 S 336TH ST","FEDERAL WAY","WA",98003,47.300644966,-122.323962597,354,"805 S 336TH ST, FEDERAL WAY, WA, 98003","Match","Exact","805 S 336TH ST, FEDERAL WAY, WA, 98003",239774380,"R"
294855,"805 S ANAHEIM BLVD UNIT 103","ANAHEIM","CA",92805,NA,NA,355,"805 S ANAHEIM BLVD UNIT 103, ANAHEIM, CA, 92805","Tie",NA,NA,NA,NA
294856,"805 S BROADWAY ST","BOULDER","CO",80305,39.9767825120001,-105.242114364,356,"805 S BROADWAY ST, BOULDER, CO, 80305","Match","Exact","805 S BROADWAY ST, BOULDER, CO, 80305",188229082,"R"
294857,"805 S CUMBERLAND","METAIRIE","LA",70003,29.976351406,-90.232280413,357,"805 S CUMBERLAND, METAIRIE, LA, 70003","Match","Non_Exact","805 S CUMBERLAND ST, METAIRIE, LA, 70003",93495642,"R"
294858,"805 S GLYNN ST STE 127 BOX 195","FAYETTEVILLE","GA",30214,NA,NA,358,"805 S GLYNN ST STE 127 BOX 195, FAYETTEVILLE, GA, 30214","Tie",NA,NA,NA,NA
294859,"805 S GLYNN ST STE 127 PMB 334","FAYETTEVILLE","GA",30214,NA,NA,359,"805 S GLYNN ST STE 127 PMB 334, FAYETTEVILLE, GA, 30214","Tie",NA,NA,NA,NA
294860,"805 S GLYNN ST SUITE 127-133","FAYETTEVILLE","GA",30214,NA,NA,360,"805 S GLYNN ST SUITE 127-133, FAYETTEVILLE, GA, 30214","Tie",NA,NA,NA,NA
294861,"805 S KIRKMAN RD STE 207","ORLANDO","FL",32811,28.531849439,-81.4591221969999,361,"805 S KIRKMAN RD STE 207, ORLANDO, FL, 32811","Match","Non_Exact","805 S KIRKMAN RD, ORLANDO, FL, 32811",638650406,"R"
294862,"805 S VIRGINIA LN","OLATHE","KS",66061,NA,NA,362,"805 S VIRGINIA LN, OLATHE, KS, 66061","No_Match",NA,NA,NA,NA
294863,"805 S WASHINGTON ST","ANGOLA","IN",46703,41.63033325,-84.996822741,363,"805 S WASHINGTON ST, ANGOLA, IN, 46703","Match","Exact","805 S WASHINGTON ST, ANGOLA, IN, 46703",7715367,"R"
294864,"805 S WRIGHT","BLOOMINGTON","IL",61701,40.471361948,-88.991140958,364,"805 S WRIGHT, BLOOMINGTON, IL, 61701","Match","Non_Exact","805 S WRIGHT ST, BLOOMINGTON, IL, 61701",20546266,"R"
294865,"805 SAINT CHARLES STREET","MARSHFIELD","MO",65804,37.339560754,-92.895490873,365,"805 SAINT CHARLES STREET, MARSHFIELD, MO, 65804","Match","Non_Exact","805 SAINT CHARLES ST, MARSHFIELD, MO, 65706",26613183,"L"
294866,"805 SE 3RD AVE","FT LAUDERDALE","FL",33316,26.112074702,-80.140172819,366,"805 SE 3RD AVE, FT LAUDERDALE, FL, 33316","Match","Exact","805 SE 3RD AVE, FORT LAUDERDALE, FL, 33316",114727921,"R"
294867,"805 SE 46TH LANE APT 201","CAPE CORAL","FL",33904,26.565519781,-81.957436624,367,"805 SE 46TH LANE APT 201, CAPE CORAL, FL, 33904","Match","Non_Exact","805 SE 46TH LN, CAPE CORAL, FL, 33904",118015728,"L"
294868,"805 SE STEPHENS   NO 208","ROSEBURG","OR",97470,NA,NA,368,"805 SE STEPHENS   NO 208, ROSEBURG, OR, 97470","No_Match",NA,NA,NA,NA
294869,"805 SHOREHAM CIR","TUSKEGEE","AL",36083,32.422100899,-85.672334986,369,"805 SHOREHAM CIR, TUSKEGEE, AL, 36083","Match","Exact","805 SHOREHAM CIR, TUSKEGEE, AL, 36083",69147721,"L"
294870,"805 SOUTH BY PASS","KENNETT","MO",63857,NA,NA,370,"805 SOUTH BY PASS, KENNETT, MO, 63857","No_Match",NA,NA,NA,NA
294871,"805 SOUTH CHURCH STREET- SUITE 20","MURFREESBORO","TN",37130,35.837777563,-86.3926644159999,371,"805 SOUTH CHURCH STREET- SUITE 20, MURFREESBORO, TN, 37130","Match","Non_Exact","805 S CHURCH ST, MURFREESBORO, TN, 37130",636445978,"R"
294872,"805 SOUTH MITTMAN","SAN ANTONIO","TX",78203,29.411977795,-98.454522599,372,"805 SOUTH MITTMAN, SAN ANTONIO, TX, 78203","Match","Non_Exact","805 S MITTMAN ST, SAN ANTONIO, TX, 78203",101531256,"R"
294873,"805 SOUTH TREE DRIVE","COLLIERVILLE","TN",38017,35.064491053,-89.688596946,373,"805 SOUTH TREE DRIVE, COLLIERVILLE, TN, 38017","Match","Exact","805 S TREE DR, COLLIERVILLE, TN, 38017",72969658,"L"
294874,"805 SOUTH WALKER STREET","BURGAW","NC",28425,34.544600975,-77.91603549,374,"805 SOUTH WALKER STREET, BURGAW, NC, 28425","Match","Exact","805 S WALKER ST, BURGAW, NC, 28425",642476240,"L"
294875,"805 SPRING VALLEY CT","SCHAUMBURG","IL",60193,42.026419144,-88.059843723,375,"805 SPRING VALLEY CT, SCHAUMBURG, IL, 60193","Match","Exact","805 SPRING VALLEY CT, SCHAUMBURG, IL, 60193",111863117,"R"
294876,"805 STEVENSON LANE","TOWSON","MD",21286,39.384784364,-76.596169205,376,"805 STEVENSON LANE, TOWSON, MD, 21286","Match","Exact","805 STEVENSON LN, TOWSON, MD, 21286",191474023,"R"
294877,"805 STONEWALL STREET","LEXINGTON","VA",24450,37.7763844680001,-79.4565976069999,377,"805 STONEWALL STREET, LEXINGTON, VA, 24450","Match","Exact","805 STONEWALL ST, LEXINGTON, VA, 24450",63117845,"R"
294878,"805 STRATFORD AVENUE","ELKINS PARK","PA",19027,40.0598584360001,-75.12336253,378,"805 STRATFORD AVENUE, ELKINS PARK, PA, 19027","Match","Exact","805 STRATFORD AVE, ELKINS PARK, PA, 19027",135094727,"R"
294879,"805 SUTTER LOOP","LONGWOOD","FL",32750,28.7085377920001,-81.3643878399999,379,"805 SUTTER LOOP, LONGWOOD, FL, 32750","Match","Exact","805 SUTTER LOOP, LONGWOOD, FL, 32750",605417970,"R"
294880,"805 SW BROADWAY SUITE 1580","PORTLAND","OR",97205,45.5185845170001,-122.68003774,380,"805 SW BROADWAY SUITE 1580, PORTLAND, OR, 97205","Match","Non_Exact","805 SW BROADWAY, PORTLAND, OR, 97205",157573695,"R"
294881,"805 SW BROADWAY SUITE 470","PORTLAND","OR",97205,45.5185845170001,-122.68003774,381,"805 SW BROADWAY SUITE 470, PORTLAND, OR, 97205","Match","Non_Exact","805 SW BROADWAY, PORTLAND, OR, 97205",157573695,"R"
294882,"805 TALL PINE BLVD","LITTLE ROCK","AR",72204,NA,NA,382,"805 TALL PINE BLVD, LITTLE ROCK, AR, 72204","No_Match",NA,NA,NA,NA
294883,"805 TAMERTON PLACE","SAINT PETERS","MO",63376,38.794708455,-90.679621315,383,"805 TAMERTON PLACE, SAINT PETERS, MO, 63376","Match","Exact","805 TAMERTON PL, SAINT PETERS, MO, 63376",100033168,"L"
294884,"805 TULARE STREET","MARICOPA","CA",93252,35.056814366,-119.396661419,384,"805 TULARE STREET, MARICOPA, CA, 93252","Match","Exact","805 TULARE ST, MARICOPA, CA, 93252",640634127,"R"
294885,"805 VALLEY AVENUE SUITE 211","SOLANA BEACH","CA",92075,32.98517257,-117.258315018,385,"805 VALLEY AVENUE SUITE 211, SOLANA BEACH, CA, 92075","Match","Exact","805 VALLEY AVE, SOLANA BEACH, CA, 92075",195369254,"R"
294886,"805 VENICE BLVD","VENICE","CA",90291,33.9920283760001,-118.457053658,386,"805 VENICE BLVD, VENICE, CA, 90291","Match","Non_Exact","805 N VENICE BLVD, VENICE, CA, 90291",141576658,"L"
294887,"805 W BAYBERRY CIRCLE","SIOUX FALLS","SD",57108,43.499747373,-96.735425232,387,"805 W BAYBERRY CIRCLE, SIOUX FALLS, SD, 57108","Match","Exact","805 W BAYBERRY CIR, SIOUX FALLS, SD, 57108",176319038,"L"
294888,"805 W LAKE STREET","OAK PARK","IL",60304,41.888639031,-87.7947415099999,388,"805 W LAKE STREET, OAK PARK, IL, 60304","Match","Non_Exact","805 LAKE ST, OAK PARK, IL, 60301",111752796,"L"
294889,"805 W MARKET ST","PALESTINE","IL",62451,39.0029633280001,-87.622880106,389,"805 W MARKET ST, PALESTINE, IL, 62451","Match","Exact","805 W MARKET ST, PALESTINE, IL, 62451",649814280,"L"
294890,"805 W PEARL ST","WAPAKONETA","OH",45895,40.568174674,-84.205379953,390,"805 W PEARL ST, WAPAKONETA, OH, 45895","Match","Exact","805 W PEARL ST, WAPAKONETA, OH, 45895",36422682,"L"
294891,"805 W PROWLER STREET","OAK HARBOR","WA",98278,NA,NA,391,"805 W PROWLER STREET, OAK HARBOR, WA, 98278","No_Match",NA,NA,NA,NA
294892,"805 WARBLER WAY","NASHVILLE","TN",37221,36.0467372410001,-86.9106916009999,392,"805 WARBLER WAY, NASHVILLE, TN, 37221","Match","Exact","805 WARBLER WAY, NASHVILLE, TN, 37221",73116767,"L"
294893,"805 WATERS AVE","SAVANNAH","GA",31404,32.062856486,-81.080131686,393,"805 WATERS AVE, SAVANNAH, GA, 31404","Match","Exact","805 WATERS AVE, SAVANNAH, GA, 31404",6176998,"R"
294894,"805 WEST BROWN","ALPINE","TX",79830,30.360613711,-103.670547487,394,"805 WEST BROWN, ALPINE, TX, 79830","Match","Non_Exact","805 W BROWN AVE, ALPINE, TX, 79830",183977993,"L"
294895,"805 WEST JEFFERSON","JONESBORO","AR",72401,35.8370583170001,-90.714647186,395,"805 WEST JEFFERSON, JONESBORO, AR, 72401","Match","Non_Exact","805 W JEFFERSON AVE, JONESBORO, AR, 72401",46909323,"L"
294896,"805 WEST MAIN STREET","EASTLAND","TX",76448,32.401791513,-98.825651466,396,"805 WEST MAIN STREET, EASTLAND, TX, 76448","Match","Exact","805 W MAIN ST, EASTLAND, TX, 76448",158685771,"R"
294897,"805 WESTVIEW COURT","GOLDSBORO","NC",27530,35.3669587890001,-77.988552334,397,"805 WESTVIEW COURT, GOLDSBORO, NC, 27530","Match","Exact","805 WESTVIEW CT, GOLDSBORO, NC, 27530",14404282,"L"
294898,"805 WINCHESTER DR","LEWISVILLE","TX",75056,33.0384657720001,-96.915317606,398,"805 WINCHESTER DR, LEWISVILLE, TX, 75056","Match","Exact","805 WINCHESTER DR, LEWISVILLE, TX, 75056",627739999,"L"
294899,"805 WINDOM BLVD","CHESAPEAKE","VA",23320,36.756321794,-76.2070000259999,399,"805 WINDOM BLVD, CHESAPEAKE, VA, 23320","Match","Exact","805 WINDOM BLVD, CHESAPEAKE, VA, 23320",642143313,"L"
294900,"805 WOODMARK DR","CROWLEY","TX",76036,32.5831863440001,-97.333741458,400,"805 WOODMARK DR, CROWLEY, TX, 76036","Match","Exact","805 WOODMARK DR, CROWLEY, TX, 76036",651990980,"R"
294901,"8050 ARMOUR ST","SAN DIEGO","CA",92111,32.819970052,-117.150201625,401,"8050 ARMOUR ST, SAN DIEGO, CA, 92111","Match","Exact","8050 ARMOUR ST, SAN DIEGO, CA, 92111",195305286,"L"
294902,"8050 BECKETT CENTER DRIVE SUITE 325","WEST CHESTER","OH",45069,39.3558490190001,-84.4595559159999,402,"8050 BECKETT CENTER DRIVE SUITE 325, WEST CHESTER, OH, 45069","Match","Exact","8050 BECKETT CENTER, WEST CHESTER, OH, 45069",653457689,"L"
294903,"8050 CREEKLAND DRIVE","COLUMBUS","GA",31904,32.561354872,-84.9662587879999,403,"8050 CREEKLAND DRIVE, COLUMBUS, GA, 31904","Match","Exact","8050 CREEKLAND DR, COLUMBUS, GA, 31904",629827088,"R"
294904,"8050 DERBYSHIRE COURT","DULUTH","GA",30097,34.071060995,-84.139681103,404,"8050 DERBYSHIRE COURT, DULUTH, GA, 30097","Match","Exact","8050 DERBYSHIRE CT, DULUTH, GA, 30097",635778910,"R"
294905,"8050 E TWIN OAKS DR","EFFINGHAM","IL",62401,NA,NA,405,"8050 E TWIN OAKS DR, EFFINGHAM, IL, 62401","Tie",NA,NA,NA,NA
294906,"8050 E TWIN OAKS DRIVE","EFFINGHAM","IL",62401,NA,NA,406,"8050 E TWIN OAKS DRIVE, EFFINGHAM, IL, 62401","Tie",NA,NA,NA,NA
294907,"8050 ELPHICK ROAD","SEBASTOPOL","CA",95472,38.378995178,-122.822579367,407,"8050 ELPHICK ROAD, SEBASTOPOL, CA, 95472","Match","Exact","8050 ELPHICK RD, SEBASTOPOL, CA, 95472",604987220,"R"
294908,"8050 FLORENCE AVENUE 23","DOWNEY","CA",90242,33.9530226750001,-118.128963721,408,"8050 FLORENCE AVENUE 23, DOWNEY, CA, 90242","Match","Non_Exact","8050 FLORENCE AVE, DOWNEY, CA, 90240",241244883,"R"
294909,"8050 FLORENCE AVENUE SUITE 34","DOWNEY","CA",90240,33.9530226750001,-118.128963721,409,"8050 FLORENCE AVENUE SUITE 34, DOWNEY, CA, 90240","Match","Exact","8050 FLORENCE AVE, DOWNEY, CA, 90240",241244883,"R"
294910,"8050 HORACE LANE","EATON RAPIDS","MI",48827,42.4987728180001,-84.6788401919999,410,"8050 HORACE LANE, EATON RAPIDS, MI, 48827","Match","Exact","8050 HORACE LN, EATON RAPIDS, MI, 48827",636724596,"R"
294911,"8050 N 19TH AVE 270","PHOENIX","AZ",85021,33.554111107,-112.0996778,411,"8050 N 19TH AVE 270, PHOENIX, AZ, 85021","Match","Non_Exact","8050 N 19TH AVE, PHOENIX, AZ, 85021",128315271,"L"
294912,"8050 N 19TH AVE UNIT 220","PHOENIX","AZ",85021,33.554111107,-112.0996778,412,"8050 N 19TH AVE UNIT 220, PHOENIX, AZ, 85021","Match","Non_Exact","8050 N 19TH AVE, PHOENIX, AZ, 85021",128315271,"L"
294913,"8050 N 19TH AVE UNIT 263","PHOENIX","AZ",85021,33.554111107,-112.0996778,413,"8050 N 19TH AVE UNIT 263, PHOENIX, AZ, 85021","Match","Non_Exact","8050 N 19TH AVE, PHOENIX, AZ, 85021",128315271,"L"
294914,"8050 N 61 ST AVE 210","GLENDALE","AZ",85302,NA,NA,414,"8050 N 61 ST AVE 210, GLENDALE, AZ, 85302","No_Match",NA,NA,NA,NA
294915,"8050 N HIGH STREET SUITE 100","COLUMBUS","OH",43235,40.13117012,-83.016392604,415,"8050 N HIGH STREET SUITE 100, COLUMBUS, OH, 43235","Match","Non_Exact","8050 N HIGH ST, COLUMBUS, OH, 43235",644881873,"R"
294916,"8050 NORTH 129TH AVENUE","OMAHA","NE",68142,41.3337508270001,-96.1152993589999,416,"8050 NORTH 129TH AVENUE, OMAHA, NE, 68142","Match","Exact","8050 N 129TH AVE, OMAHA, NE, 68142",624440875,"R"
294917,"8050 NORTH NINTH AVENUE APT 127","PENSACOLA","FL",32514,30.5090925210001,-87.184521681,417,"8050 NORTH NINTH AVENUE APT 127, PENSACOLA, FL, 32514","Match","Exact","8050 N 9TH AVE, PENSACOLA, FL, 32514",647791190,"R"
294918,"8050 PHILADELPHIA RD","BALTIMORE","MD",21237,39.3227836950001,-76.511669554,418,"8050 PHILADELPHIA RD, BALTIMORE, MD, 21237","Match","Exact","8050 PHILADELPHIA RD, BALTIMORE, MD, 21237",191478624,"L"
294919,"8050 READING ROAD","CINCINNATI","OH",45237,39.207989409,-84.450257923,419,"8050 READING ROAD, CINCINNATI, OH, 45237","Match","Exact","8050 READING RD, CINCINNATI, OH, 45237",617088137,"R"
294920,"8050 RUTHWOOD WAY","ORANGEVALE","CA",95662,38.690207953,-121.259566314,420,"8050 RUTHWOOD WAY, ORANGEVALE, CA, 95662","Match","Exact","8050 RUTHWOOD WAY, ORANGEVALE, CA, 95662",133377839,"R"
294921,"8050 S ST LAWRENCE AVE","CHICAGO","IL",60619,41.7484298360001,-87.61000875,421,"8050 S ST LAWRENCE AVE, CHICAGO, IL, 60619","Match","Non_Exact","8050 S ST LAWRENCE AVE, CHICAGO, IL, 60619",111772910,"R"
294922,"8050 STATE HWY 21 WEST","CALDWELL","TX",77836,30.6015718640001,-96.5882335909999,422,"8050 STATE HWY 21 WEST, CALDWELL, TX, 77836","Match","Non_Exact","8050 STATE HWY 21, CALDWELL, TX, 77836",24806405,"R"
294923,"8050 W 78TH STREET","EDINA","MN",55439,NA,NA,423,"8050 W 78TH STREET, EDINA, MN, 55439","No_Match",NA,NA,NA,NA
294924,"8050 W PARKWAY ST","DETROIT","MI",48239,42.3497747820001,-83.26421727,424,"8050 W PARKWAY ST, DETROIT, MI, 48239","Match","Exact","8050 W PARKWAY ST, DETROIT, MI, 48239",95431702,"R"
294925,"8050 WATSON ROAD SUITE 355","SAINT LOUIS","MO",63119,38.5675725880001,-90.342320063,425,"8050 WATSON ROAD SUITE 355, SAINT LOUIS, MO, 63119","Match","Exact","8050 WATSON RD, SAINT LOUIS, MO, 63119",652557506,"L"
294926,"8050 WEST PARKWAY","DETROIT","MI",48239,42.349768666,-83.264216635,426,"8050 WEST PARKWAY, DETROIT, MI, 48239","Match","Non_Exact","8050 W PARKWAY ST, DETROIT, MI, 48239",95431702,"R"
294927,"8051 ASHTON AVENUE","MANASSAS","VA",20109,38.786114006,-77.5210299509999,427,"8051 ASHTON AVENUE, MANASSAS, VA, 20109","Match","Exact","8051 ASHTON AVE, MANASSAS, VA, 20109",207165601,"R"
294928,"8051 DAMICO DR","EL DORADO HILLS","CA",95762,38.675960258,-121.040391513,428,"8051 DAMICO DR, EL DORADO HILLS, CA, 95762","Match","Exact","8051 DAMICO DR, EL DORADO HILLS, CA, 95762",607160554,"L"
294929,"8051 EAST MCMILLAN STREET","MARSHFIELD","WI",54449,NA,NA,429,"8051 EAST MCMILLAN STREET, MARSHFIELD, WI, 54449","No_Match",NA,NA,NA,NA
294930,"8051 JEANNIE MARIE COURT","LAS VEGAS","NV",89113,36.0827150210001,-115.265985401,430,"8051 JEANNIE MARIE COURT, LAS VEGAS, NV, 89113","Match","Exact","8051 JEANNIE MARIE CT, LAS VEGAS, NV, 89113",201954476,"L"
294931,"8051 KIMBERLIN DRIVE SOUTH","MOBILE","AL",36695,30.669540026,-88.231780875,431,"8051 KIMBERLIN DRIVE SOUTH, MOBILE, AL, 36695","Match","Exact","8051 KIMBERLIN DR S, MOBILE, AL, 36695",61906280,"L"
294932,"8051 LARSON AVE UNIT B","GARDEN GROVE","CA",92844,33.772009531,-117.98879657,432,"8051 LARSON AVE UNIT B, GARDEN GROVE, CA, 92844","Match","Exact","8051 LARSON AVE, GARDEN GROVE, CA, 92844",649775283,"L"
294933,"8051 ROBBIES RD","STEEDMAN","MO",65077,38.7638479250001,-91.81021958,433,"8051 ROBBIES RD, STEEDMAN, MO, 65077","Match","Exact","8051 ROBBIES RD, STEEDMAN, MO, 65077",34354844,"R"
294934,"8051 SE168TH TC ST","THE VILLAGES","FL",32162,NA,NA,434,"8051 SE168TH TC ST, THE VILLAGES, FL, 32162","No_Match",NA,NA,NA,NA
294935,"8051 WINDBREAK ROAD APT 2","CORDOVA","TN",38016,35.1791817180001,-89.794742951,435,"8051 WINDBREAK ROAD APT 2, CORDOVA, TN, 38016","Match","Exact","8051 WINDBREAK RD, CORDOVA, TN, 38016",607524361,"L"
294936,"8052 CALLE GUTIERREZ PEREZ","ISABELA","PR",662,NA,NA,436,"8052 CALLE GUTIERREZ PEREZ, ISABELA, PR, 662","No_Match",NA,NA,NA,NA
294937,"8052 DORR ST","TOLEDO","OH",43617,41.6536772490001,-83.735163878,437,"8052 DORR ST, TOLEDO, OH, 43617","Match","Exact","8052 DORR ST, TOLEDO, OH, 43617",33928423,"R"
294938,"8052 FM 1861","EUSTACE","TX",75124,NA,NA,438,"8052 FM 1861, EUSTACE, TX, 75124","No_Match",NA,NA,NA,NA
294939,"8052 LEISHEAR RD","LAUREL","MD",20723,39.1488649550001,-76.871589479,439,"8052 LEISHEAR RD, LAUREL, MD, 20723","Match","Exact","8052 LEISHEAR RD, LAUREL, MD, 20723",158942503,"R"
294940,"8053 16TH AVE NW","SEATTLE","WA",98117,47.687290225,-122.377877303,440,"8053 16TH AVE NW, SEATTLE, WA, 98117","Match","Exact","8053 16TH AVE NW, SEATTLE, WA, 98117",186658913,"L"
294941,"8053 BOULEVARD 26 SUITE C","NORTH RICHLAND HILLS","TX",76180,32.8384227330001,-97.208370752,441,"8053 BOULEVARD 26 SUITE C, NORTH RICHLAND HILLS, TX, 76180","Match","Exact","8053 BLVD 26, NORTH RICHLAND HILLS, TX, 76180",101865198,"L"
294942,"8053 GILLIAM ROAD","ORLANDO","FL",32703,28.6256437100001,-81.494502896,442,"8053 GILLIAM ROAD, ORLANDO, FL, 32703","Match","Non_Exact","8053 GILLIAM RD, FOREST CITY, FL, 32703",94422245,"R"
294943,"8053 LEAD CIRCLE APT 812","FORT WORTH","TX",76137,NA,NA,443,"8053 LEAD CIRCLE APT 812, FORT WORTH, TX, 76137","No_Match",NA,NA,NA,NA
294944,"8053 NE 30TH PLACE","ALTOONA","IA",50003,41.621542639,-93.443949405,444,"8053 NE 30TH PLACE, ALTOONA, IA, 50003","Match","Non_Exact","8053 NE 30TH PL, ALTOONA, IA, 50009",65855582,"R"
294945,"8053 PIONEER DRIVE","ANCHORAGE","AK",99504,61.184297181,-149.730491045,445,"8053 PIONEER DRIVE, ANCHORAGE, AK, 99504","Match","Exact","8053 PIONEER DR, ANCHORAGE, AK, 99504",641432727,"L"
294946,"8054 E 9TH AVE","DENVER","CO",80230,39.7301265560001,-104.894829799,446,"8054 E 9TH AVE, DENVER, CO, 80230","Match","Exact","8054 E 9TH AVE, DENVER, CO, 80230",617528998,"R"
294947,"8054 EXCHANGE DR 701","AUSTIN","TX",78754,30.3332588750001,-97.664673353,447,"8054 EXCHANGE DR 701, AUSTIN, TX, 78754","Match","Exact","8054 EXCHANGE DR, AUSTIN, TX, 78754",653233094,"L"
294948,"8054 POTOMAC ST","CENTERLINE","MI",48015,42.4907651880001,-83.02684031,448,"8054 POTOMAC ST, CENTERLINE, MI, 48015","Match","Non_Exact","8054 POTOMAC ST, CENTER LINE, MI, 48015",110676530,"R"
294949,"80542 PATERSON FERRY RD 44-45","IRRIGON","OR",97844,45.869405515,-119.558756262,449,"80542 PATERSON FERRY RD 44-45, IRRIGON, OR, 97844","Match","Exact","80542 PATERSON FERRY RD, IRRIGON, OR, 97844",175430140,"L"
294950,"8055 APRIL DRIVE","FLAGSTAFF","AZ",86004,35.2553802780001,-111.502424597,450,"8055 APRIL DRIVE, FLAGSTAFF, AZ, 86004","Match","Exact","8055 APRIL DR, FLAGSTAFF, AZ, 86004",651893550,"L"
294951,"8055 FLEET ST","CANTON","MI",48187,42.3447311640001,-83.4644349989999,451,"8055 FLEET ST, CANTON, MI, 48187","Match","Exact","8055 FLEET ST, CANTON, MI, 48187",95713979,"R"
294952,"8055 FM 359 RD S UNIT 0475","FULSHEAR","TX",77441,NA,NA,452,"8055 FM 359 RD S UNIT 0475, FULSHEAR, TX, 77441","No_Match",NA,NA,NA,NA
294953,"8055 FM 359 RD S","FULSHEAR","TX",77441,NA,NA,453,"8055 FM 359 RD S, FULSHEAR, TX, 77441","No_Match",NA,NA,NA,NA
294954,"8055 RANCHERS ROAD","FRIDLEY","MN",55432,45.1143351200001,-93.266100692,454,"8055 RANCHERS ROAD, FRIDLEY, MN, 55432","Match","Non_Exact","8055 RANCHERS RD NE, FRIDLEY, MN, 55432",97517624,"L"
294955,"8055 VOTH ROAD","BEAUMONT","TX",77708,30.1465297450001,-94.180632305,455,"8055 VOTH ROAD, BEAUMONT, TX, 77708","Match","Exact","8055 VOTH RD, BEAUMONT, TX, 77708",73881414,"L"
294956,"8055 WINDROSE AVE - 3221","PLANO","TX",75024,33.0883378450001,-96.825772424,456,"8055 WINDROSE AVE - 3221, PLANO, TX, 75024","Match","Exact","8055 WINDROSE AVE, PLANO, TX, 75024",650657701,"R"
294957,"8056 ARBOR BEND LANE","CORDOVA","TN",38018,35.1397896280001,-89.794814765,457,"8056 ARBOR BEND LANE, CORDOVA, TN, 38018","Match","Exact","8056 ARBOR BEND LN, CORDOVA, TN, 38018",647238862,"L"
294958,"8056 ASPENCREST COURT","ORLANDO","FL",32835,28.5468555480001,-81.4947787249999,458,"8056 ASPENCREST COURT, ORLANDO, FL, 32835","Match","Exact","8056 ASPENCREST CT, ORLANDO, FL, 32835",617825495,"R"
294959,"8056 GREENWICH ROAD","CATLETT","VA",20119,38.705486943,-77.6657041349999,459,"8056 GREENWICH ROAD, CATLETT, VA, 20119","Match","Exact","8056 GREENWICH RD, CATLETT, VA, 20119",146292253,"L"
294960,"8056 HORIZON DR","COLORADO SPRINGS","CO",80920,38.9437662880001,-104.776117238,460,"8056 HORIZON DR, COLORADO SPRINGS, CO, 80920","Match","Exact","8056 HORIZON DR, CO SPGS, CO, 80920",105510263,"R"
294961,"8056 HWY 70 SOUTH","VERNON","TX",76384,34.142757546,-99.3316350169999,461,"8056 HWY 70 SOUTH, VERNON, TX, 76384","Match","Exact","8056 HWY 70 S, VERNON, TX, 76384",183240814,"L"
294962,"8056 RALEIGH ST","DENVER","CO",80031,39.843542853,-105.043641163,462,"8056 RALEIGH ST, DENVER, CO, 80031","Match","Non_Exact","8056 RALEIGH ST, WESTMINSTER, CO, 80031",177293598,"R"
294963,"80560 SOUTH VALLEY ROAD","DUFUR","OR",97021,45.4094399100001,-121.257122977,463,"80560 SOUTH VALLEY ROAD, DUFUR, OR, 97021","Match","Exact","80560 S VALLEY RD, DUFUR, OR, 97021",627624522,"R"
294964,"80575 MAIN STREET","MEMPHIIS","MI",48041,42.8933148560001,-82.768817715,464,"80575 MAIN STREET, MEMPHIIS, MI, 48041","Match","Non_Exact","80575 MAIN ST, MEMPHIS, MI, 48041",653391329,"R"
294965,"8058 BROADWAY STREET APT 147U","SAN ANTONIO","TX",78209,29.5086758480001,-98.466200918,465,"8058 BROADWAY STREET APT 147U, SAN ANTONIO, TX, 78209","Match","Non_Exact","8058 BROADWAY, SAN ANTONIO, TX, 78209",101497791,"R"
294966,"80580 AVENIDA CAMARILLO","INDIO","CA",92203,33.747546895,-116.259063195,466,"80580 AVENIDA CAMARILLO, INDIO, CA, 92203","Match","Exact","80580 AVE CAMARILLO, INDIO, CA, 92203",625705428,"L"
294967,"8059 CABOOSE LN","BRYCEVILLE","FL",32009,NA,NA,467,"8059 CABOOSE LN, BRYCEVILLE, FL, 32009","No_Match",NA,NA,NA,NA
294968,"8059 CHILTON DR","ORLANDO","FL",32836,28.410267042,-81.500074147,468,"8059 CHILTON DR, ORLANDO, FL, 32836","Match","Exact","8059 CHILTON DR, ORLANDO, FL, 32836",645099852,"L"
294969,"8059 LOVERIDGE DRIVE","INDIANAPOLIS","IN",46268,39.900983275,-86.2213425149999,469,"8059 LOVERIDGE DRIVE, INDIANAPOLIS, IN, 46268","Match","Exact","8059 LOVERIDGE DR, INDIANAPOLIS, IN, 46268",641063816,"R"
294970,"8059 MAPLE STREET","SWARTZ CREEK","MI",48473,42.9521963110001,-83.83365694,470,"8059 MAPLE STREET, SWARTZ CREEK, MI, 48473","Match","Exact","8059 MAPLE ST, SWARTZ CREEK, MI, 48473",69587990,"L"
294971,"8059 S PEREGRINE PLACE","SANDY","UT",84094,40.6050036070001,-111.863870366,471,"8059 S PEREGRINE PLACE, SANDY, UT, 84094","Match","Exact","8059 PEREGRINE PL, SANDY, UT, 84094",176124275,"L"
294972,"8059 SHERWOOD CROSSING PL -201","MECHANICSVILLE","VA",23111,37.6157780770001,-77.344392667,472,"8059 SHERWOOD CROSSING PL -201, MECHANICSVILLE, VA, 23111","Match","Exact","8059 SHERWOOD CROSSING PL, MECHANICSVILLE, VA, 23111",84968955,"L"
294973,"80591 OLD HIGHWAY","ISLAMORADA","FL",33036,24.906459033,-80.647726354,473,"80591 OLD HIGHWAY, ISLAMORADA, FL, 33036","Match","Exact","80591 OLD HWY, ISLAMORADA, FL, 33036",116466703,"L"
294974,"806 1/2 E MARKET ST","LOUISVILLE","KY",40206,38.25314982,-85.7377633409999,474,"806 1/2 E MARKET ST, LOUISVILLE, KY, 40206","Match","Exact","806 E MARKET ST, LOUISVILLE, KY, 40206",96845182,"R"
294975,"806 12TH ST","IMPERIAL BEACH CA","CA",91932,32.58207602,-117.108131158,475,"806 12TH ST, IMPERIAL BEACH CA, CA, 91932","Match","Non_Exact","806 12TH ST, IMPERIAL BEACH, CA, 91932",195355026,"R"
294976,"806 13TH STREET RM 178","VANDENBERG AFB","CA",93436,NA,NA,476,"806 13TH STREET RM 178, VANDENBERG AFB, CA, 93436","No_Match",NA,NA,NA,NA
294977,"806 14TH STREET","BEAVER FALLS","PA",15010,40.7550025670001,-80.321516292,477,"806 14TH STREET, BEAVER FALLS, PA, 15010","Match","Exact","806 14TH ST, BEAVER FALLS, PA, 15010",52559264,"R"
294978,"806 1ST AVENUE","SILVIS","IL",61282,41.5124610840001,-90.416799689,478,"806 1ST AVENUE, SILVIS, IL, 61282","Match","Exact","806 1ST AVE, SILVIS, IL, 61282",9226644,"R"
294979,"806 4TH AVE","FAYETTEVILLE","TN",37334,35.161329273,-86.583264635,479,"806 4TH AVE, FAYETTEVILLE, TN, 37334","Match","Exact","806 4TH AVE, FAYETTEVILLE, TN, 37334",58304707,"R"
294980,"806 5TH AVE","BREWSTER","MN",56119,43.6977087180001,-95.463814959,480,"806 5TH AVE, BREWSTER, MN, 56119","Match","Exact","806 5TH AVE, BREWSTER, MN, 56119",29727477,"L"
294981,"806 5TH ST","TRAFFORD","PA",15085,40.384822279,-79.75494509,481,"806 5TH ST, TRAFFORD, PA, 15085","Match","Exact","806 5TH ST, TRAFFORD, PA, 15085",52963702,"L"
294982,"806 8TH STREET NE APARTMENT 4","WASHINGTON","DC",20002,38.9003523850001,-76.994966215,482,"806 8TH STREET NE APARTMENT 4, WASHINGTON, DC, 20002","Match","Exact","806 8TH ST NE, WASHINGTON, DC, 20002",76229773,"L"
294983,"806 8TH STREET","GRUNDY CENTER","IA",50638,42.3603888870001,-92.773961256,483,"806 8TH STREET, GRUNDY CENTER, IA, 50638","Match","Exact","806 8TH ST, GRUNDY CENTER, IA, 50638",77411092,"R"
294984,"806 ADAMS DRIVE","LIBERTY","MO",64068,39.2614882170001,-94.432676656,484,"806 ADAMS DRIVE, LIBERTY, MO, 64068","Match","Exact","806 ADAMS DR, LIBERTY, MO, 64068",89768518,"L"
294985,"806 ATLAS AVE","KILLEEN","TX",76542,31.062190006,-97.7458751629999,485,"806 ATLAS AVE, KILLEEN, TX, 76542","Match","Exact","806 ATLAS AVE, KILLEEN, TX, 76542",650172389,"R"
294986,"806 BALDWIN ST","MAXWELL","IA",50161,41.8951884000001,-93.401058962,486,"806 BALDWIN ST, MAXWELL, IA, 50161","Match","Exact","806 BALDWIN ST, MAXWELL, IA, 50161",65959410,"L"
294987,"806 BANBURY RD","NOBLESVILLE","IN",46062,40.0872654560001,-86.059535435,487,"806 BANBURY RD, NOBLESVILLE, IN, 46062","Match","Exact","806 BANBURY RD, NOBLESVILLE, IN, 46062",29292941,"R"
294988,"806 BELL STREET","BLOOMINGTON","IL",61701,40.4722262390001,-88.983624767,488,"806 BELL STREET, BLOOMINGTON, IL, 61701","Match","Exact","806 BELL ST, BLOOMINGTON, IL, 61701",640173369,"L"
294989,"806 BIRCHWOOD ROAD","SAVANNAH","GA",31419,31.9673130090001,-81.158916373,489,"806 BIRCHWOOD ROAD, SAVANNAH, GA, 31419","Match","Exact","806 BIRCHWOOD RD, SAVANNAH, GA, 31419",6172071,"R"
294990,"806 BROWNSTONE WAY","BOWLING GREEN","KY",42104,36.935937375,-86.4322915509999,490,"806 BROWNSTONE WAY, BOWLING GREEN, KY, 42104","Match","Exact","806 BROWNSTONE WAY, BOWLING GREEN, KY, 42104",636069514,"R"
294991,"806 BUCHANAN BLVD 115-272","BOULDER CITY","NV",89005,35.9739188230001,-114.845863036,491,"806 BUCHANAN BLVD 115-272, BOULDER CITY, NV, 89005","Match","Exact","806 BUCHANAN BLVD, BOULDER CITY, NV, 89005",201831094,"L"
294992,"806 BUCHANNAN BLVD STE 115-163","BOULDER CITY","NV",89005,35.9739188230001,-114.845863036,492,"806 BUCHANNAN BLVD STE 115-163, BOULDER CITY, NV, 89005","Match","Non_Exact","806 BUCHANAN BLVD, BOULDER CITY, NV, 89005",201831094,"L"
294993,"806 BUSINESS LOOP 70 E","COLUMBIA","MO",65201,NA,NA,493,"806 BUSINESS LOOP 70 E, COLUMBIA, MO, 65201","No_Match",NA,NA,NA,NA
294994,"806 COLLINS AVE","FRESNO","CA",93706,36.7235212260001,-119.800038128,494,"806 COLLINS AVE, FRESNO, CA, 93706","Match","Exact","806 COLLINS AVE, FRESNO, CA, 93706",197579475,"R"
294995,"806 COOPER STREET","MARION","SC",29571,34.1692402520001,-79.3979009289999,495,"806 COOPER STREET, MARION, SC, 29571","Match","Exact","806 COOPER ST, MARION, SC, 29571",28773482,"L"
294996,"806 COUNTY ROUTE 5","EAST CHATHAM","NY",12060,42.3660398260001,-73.48254865,496,"806 COUNTY ROUTE 5, EAST CHATHAM, NY, 12060","Match","Non_Exact","806 CO RD 5, EAST CHATHAM, NY, 12060",625498814,"R"
294997,"806 DARBY ROAD","HAVERTOWN","PA",19083,39.9746172330001,-75.302232105,497,"806 DARBY ROAD, HAVERTOWN, PA, 19083","Match","Exact","806 DARBY RD, HAVERTOWN, PA, 19083",134875386,"L"
294998,"806 DOUGLAS ROAD SUITE 625","CORAL GABLES","FL",33134,25.764466874,-80.2551342089999,498,"806 DOUGLAS ROAD SUITE 625, CORAL GABLES, FL, 33134","Match","Exact","806 DOUGLAS RD, CORAL GABLES, FL, 33134",116011848,"R"
294999,"806 E 3RD AVE","ELLENSBURG","WA",98926,46.9946833380001,-120.536823061,499,"806 E 3RD AVE, ELLENSBURG, WA, 98926","Match","Exact","806 E 3RD AVE, ELLENSBURG, WA, 98926",634237932,"L"
295000,"806 E 46TH ST","TUCSON","AZ",85713,32.1813824870001,-110.958639505,500,"806 E 46TH ST, TUCSON, AZ, 85713","Match","Exact","806 E 46TH ST, TUCSON, AZ, 85713",121172961,"R"
