"ID","Address","City","State","Zip","lat","long","id","input_address","match_indicator","match_type","matched_address","tiger_line_id","tiger_side"
35501,"12023 CONTINENTAL DRIVE","SAINT LOUIS","MO",63138,38.7921285310001,-90.22816452,1,"12023 CONTINENTAL DRIVE, SAINT LOUIS, MO, 63138","Match","Exact","12023 CONTINENTAL DR, SAINT LOUIS, MO, 63138",100162055,"R"
35502,"12023 CREEKHURST DR","HOUSTON","TX",77099,29.667696898,-95.592455269,2,"12023 CREEKHURST DR, HOUSTON, TX, 77099","Match","Exact","12023 CREEKHURST DR, HOUSTON, TX, 77099",96035651,"L"
35503,"12023 ISLAND LAKE ROAD","DEXTER","MI",48130,42.357629194,-83.9686040669999,3,"12023 ISLAND LAKE ROAD, DEXTER, MI, 48130","Match","Exact","12023 ISLAND LAKE RD, DEXTER, MI, 48130",26008917,"L"
35504,"12023 SAWHILL BOULEVARD","SPOTSYLVANIA","VA",22553,38.289604372,-77.632745746,4,"12023 SAWHILL BOULEVARD, SPOTSYLVANIA, VA, 22553","Match","Exact","12023 SAWHILL BLVD, SPOTSYLVANIA, VA, 22553",635288290,"R"
35505,"12023 SILVER VALLEY","SAN ANTONIO","TX",78254,NA,NA,5,"12023 SILVER VALLEY, SAN ANTONIO, TX, 78254","No_Match",NA,NA,NA,NA
35506,"12024 4 MILE ROAD NE","LOWELL","MI",49331,43.0291645940001,-85.369055874,6,"12024 4 MILE ROAD NE, LOWELL, MI, 49331","Match","Exact","12024 4 MILE RD NE, LOWELL, MI, 49331",12449782,"R"
35507,"12024 LAVENIA LANE","LOUISVILLE","KY",40272,38.079743378,-85.87039277,7,"12024 LAVENIA LANE, LOUISVILLE, KY, 40272","Match","Exact","12024 LAVENIA LN, LOUISVILLE, KY, 40272",96892249,"R"
35508,"12024 MINNIE ROSE LANE NE","BAINBRIDGE ISLAND","WA",98110,47.6728006450001,-122.543526118,8,"12024 MINNIE ROSE LANE NE, BAINBRIDGE ISLAND, WA, 98110","Match","Exact","12024 MINNIE ROSE LN NE, BAINBRIDGE ISLAND, WA, 98110",187651322,"L"
35509,"12024 MINNIE ROSE LN NE","BAINBRIDGE IS","WA",98110,47.6728006450001,-122.543526118,9,"12024 MINNIE ROSE LN NE, BAINBRIDGE IS, WA, 98110","Match","Exact","12024 MINNIE ROSE LN NE, BAINBRIDGE IS, WA, 98110",187651322,"L"
35510,"12024 WEST 54TH DRIVE","ARVADA","CO",80002,39.7954426750001,-105.13123232,10,"12024 WEST 54TH DRIVE, ARVADA, CO, 80002","Match","Exact","12024 W 54TH DR, ARVADA, CO, 80002",635616526,"L"
35511,"12025 BION DRIVE","FORT WASHINGTON","MD",20744,38.7271655490001,-77.003991963,11,"12025 BION DRIVE, FORT WASHINGTON, MD, 20744","Match","Exact","12025 BION DR, FT WASHINGTON, MD, 20744",76417639,"R"
35512,"12025 FLORENCE AVENUE SUITE 301","SANTA FE SPRINGS","CA",90670,33.935383222,-118.074984533,12,"12025 FLORENCE AVENUE SUITE 301, SANTA FE SPRINGS, CA, 90670","Match","Exact","12025 FLORENCE AVE, SANTA FE SPRINGS, CA, 90670",241253417,"L"
35513,"12025 HIGHWAY 32 NORTH","ROPER","NC",27970,35.926477693,-76.580837967,13,"12025 HIGHWAY 32 NORTH, ROPER, NC, 27970","Match","Non_Exact","12025 STATE HWY 32 N, ROPER, NC, 27970",18684830,"L"
35514,"12025 RICHMOND AVENUE 3101","HOUSTON","TX",77082,29.7308594400001,-95.590345192,14,"12025 RICHMOND AVENUE 3101, HOUSTON, TX, 77082","Match","Exact","12025 RICHMOND AVE, HOUSTON, TX, 77082",96619030,"R"
35515,"12025 RICHMOND AVENUE APT 3101","HOUSTON","TX",77082,29.7308594400001,-95.590345192,15,"12025 RICHMOND AVENUE APT 3101, HOUSTON, TX, 77082","Match","Exact","12025 RICHMOND AVE, HOUSTON, TX, 77082",96619030,"R"
35516,"12025 S WILLOWBROOK AVE","COMPTON","CA",90222,33.922841954,-118.235150601,16,"12025 S WILLOWBROOK AVE, COMPTON, CA, 90222","Match","Exact","12025 S WILLOWBROOK AVE, COMPTON, CA, 90222",141674380,"R"
35517,"12025 SCOTT HIGHWAY","HELENWOOD","TN",37755,36.4097606730001,-84.5377620089999,17,"12025 SCOTT HIGHWAY, HELENWOOD, TN, 37755","Match","Exact","12025 SCOTT HWY, HELENWOOD, TN, 37755",26342938,"R"
35518,"12025 TOWN SQUARE STREET 1233","RESTON","VA",20190,NA,NA,18,"12025 TOWN SQUARE STREET 1233, RESTON, VA, 20190","No_Match",NA,NA,NA,NA
35519,"12025 W POLK STREET","AVONDALE","AZ",85323,33.4502866730001,-112.317847711,19,"12025 W POLK STREET, AVONDALE, AZ, 85323","Match","Exact","12025 POLK ST, AVONDALE, AZ, 85323",128871056,"R"
35520,"120252","CLERMONT","FL",34712,NA,NA,20,"120252, CLERMONT, FL, 34712","No_Match",NA,NA,NA,NA
35521,"12026 15 MILE ROAD","STERLING HEIGHTS","MI",48312,42.5517695410001,-83.00574941,21,"12026 15 MILE ROAD, STERLING HEIGHTS, MI, 48312","Match","Exact","12026 15 MILE RD, STERLING HEIGHTS, MI, 48312",110672022,"R"
35522,"12026 CYPRESSWOOD DRIVE","HOUSTON","TX",77070,29.9824952810001,-95.6020339089999,22,"12026 CYPRESSWOOD DRIVE, HOUSTON, TX, 77070","Match","Exact","12026 CYPRESSWOOD DR, HOUSTON, TX, 77070",96660488,"R"
35523,"12026 MELODY DRIVE","WESTMINSTER","CO",80234,39.9146238480001,-104.994683856,23,"12026 MELODY DRIVE, WESTMINSTER, CO, 80234","Match","Exact","12026 MELODY DR, WESTMINSTER, CO, 80234",177294874,"R"
35524,"12026 RIDGEMONT DRIVE","URBANDALE","IA",50323,41.6332807100001,-93.780810725,24,"12026 RIDGEMONT DRIVE, URBANDALE, IA, 50323","Match","Exact","12026 RIDGEMONT DR, URBANDALE, IA, 50323",65855649,"R"
35525,"12026 S KILDARE","ALSIP","IL",60803,41.6738144230001,-87.727498135,25,"12026 S KILDARE, ALSIP, IL, 60803","Match","Non_Exact","12026 S KILDARE AVE, ALSIP, IL, 60803",639824723,"R"
35526,"12026 WEST ALBANY DRIVE","BOISE","ID",83713,43.6462973660001,-116.331811528,26,"12026 WEST ALBANY DRIVE, BOISE, ID, 83713","Match","Exact","12026 W ALBANY DR, BOISE, ID, 83713",117879653,"R"
35527,"12027 197 STREET","SAINT ALBANS","NY",11412,40.689092761,-73.752558546,27,"12027 197 STREET, SAINT ALBANS, NY, 11412","Match","Exact","12027 197TH ST, SAINT ALBANS, NY, 11412",634801486,"L"
35528,"12027 CIRVLE G RANCH RD","PICAYUNE","MS",39466,NA,NA,28,"12027 CIRVLE G RANCH RD, PICAYUNE, MS, 39466","No_Match",NA,NA,NA,NA
35529,"12027 HESPERIA ROAD STE B","HESPERIA","CA",92345,34.469334471,-117.292268475,29,"12027 HESPERIA ROAD STE B, HESPERIA, CA, 92345","Match","Exact","12027 HESPERIA RD, HESPERIA, CA, 92345",614829804,"R"
35530,"12027 HESPERIA ROAD","HESPERIA","CA",92345,34.469334471,-117.292268475,30,"12027 HESPERIA ROAD, HESPERIA, CA, 92345","Match","Exact","12027 HESPERIA RD, HESPERIA, CA, 92345",614829804,"R"
35531,"12027 HIDDEN LAKE DRIVE","SAINT LOUIS","MO",63138,38.7918392510001,-90.2229488999999,31,"12027 HIDDEN LAKE DRIVE, SAINT LOUIS, MO, 63138","Match","Exact","12027 HIDDEN LAKE DR, SAINT LOUIS, MO, 63138",100175117,"L"
35532,"12027 SW 14TH ST","PEMBROKE PINES","FL",33025,25.9958572100001,-80.307201804,32,"12027 SW 14TH ST, PEMBROKE PINES, FL, 33025","Match","Non_Exact","12027 SW 14TH ST, PEMBROKE PINES, FL, 33025",114770830,"L"
35533,"12027 TAMADGE REACH DR","HUMBLE","TX",77346,29.9463838820001,-95.208315762,33,"12027 TAMADGE REACH DR, HUMBLE, TX, 77346","Match","Non_Exact","12027 TALMADGE REACH DR, HUMBLE, TX, 77346",651947105,"L"
35534,"12028 MOURNING DOVE LANE","CHARLOTTE","NC",28269,35.3623902910001,-80.755627424,34,"12028 MOURNING DOVE LANE, CHARLOTTE, NC, 28269","Match","Exact","12028 MOURNING DOVE LN, CHARLOTTE, NC, 28269",70531790,"R"
35535,"12028 ROUTE 287","MIDDLEBURY CENTER","PA",16935,41.84867016,-77.262612797,35,"12028 ROUTE 287, MIDDLEBURY CENTER, PA, 16935","Match","Non_Exact","12028 STATE RTE 287, MIDDLEBURY CENTER, PA, 16935",189677073,"R"
35536,"12028 SE 134TH STREET","OKLAHOMA CITY","OK",73165,35.3341655200001,-97.317426326,36,"12028 SE 134TH STREET, OKLAHOMA CITY, OK, 73165","Match","Non_Exact","12028 SE 134TH ST, OKLAHOMA CITY, OK, 73165",99926517,"R"
35537,"1203 16TH AVE E","SEATTLE","WA",98112,47.6307774690001,-122.311240738,37,"1203 16TH AVE E, SEATTLE, WA, 98112","Match","Exact","1203 16TH AVE E, SEATTLE, WA, 98112",640610393,"L"
35538,"1203 54TH ST","WASHOUGAL","WA",98671,45.5855248410001,-122.310941788,38,"1203 54TH ST, WASHOUGAL, WA, 98671","Match","Exact","1203 54TH ST, WASHOUGAL, WA, 98671",158369346,"L"
35539,"1203 7TH STREET NORTH","NAMPA","ID",83687,43.5851633870001,-116.551379965,39,"1203 7TH STREET NORTH, NAMPA, ID, 83687","Match","Exact","1203 7TH ST N, NAMPA, ID, 83687",122786667,"L"
35540,"1203 ARIZONA AVE","EL PASO","TX",79902,31.771658206,-106.483124886,40,"1203 ARIZONA AVE, EL PASO, TX, 79902","Match","Exact","1203 ARIZONA AVE, EL PASO, TX, 79902",189341271,"L"
35541,"1203 ASTER COURT","SAINT JAMES","MO",65559,38.0141169720001,-91.601426126,41,"1203 ASTER COURT, SAINT JAMES, MO, 65559","Match","Non_Exact","1203 ASTER, SAINT JAMES, MO, 65559",613389825,"L"
35542,"1203 BIG BETHEL ROAD","HAMPTON","VA",23666,37.057623973,-76.427691561,42,"1203 BIG BETHEL ROAD, HAMPTON, VA, 23666","Match","Exact","1203 BIG BETHEL RD, HAMPTON, VA, 23666",103799722,"L"
35543,"1203 BONNIE DR","KILLEEN","TX",76549,31.1071613940001,-97.753401282,43,"1203 BONNIE DR, KILLEEN, TX, 76549","Match","Exact","1203 BONNIE DR, KILLEEN, TX, 76549",146139165,"R"
35544,"1203 BROADWAY STREET","JOPLIN","MO",64801,37.0917861980001,-94.4999724469999,44,"1203 BROADWAY STREET, JOPLIN, MO, 64801","Match","Exact","1203 BROADWAY ST, JOPLIN, MO, 64801",66148970,"L"
35545,"1203 BROOKSIDE DRIVE NW","WILSON","NC",27896,35.7432314820001,-77.939343993,45,"1203 BROOKSIDE DRIVE NW, WILSON, NC, 27896","Match","Non_Exact","1203 BROOKSIDE DR, WILSON, NC, 27896",26704554,"R"
35546,"1203 CENTER ST","NEW IBERIA","LA",70560,29.9938049680001,-91.828977181,46,"1203 CENTER ST, NEW IBERIA, LA, 70560","Match","Exact","1203 CENTER ST, NEW IBERIA, LA, 70560",639230250,"R"
35547,"1203 CLIFTON STREET","RALEIGH","NC",27604,35.794186364,-78.6274037049999,47,"1203 CLIFTON STREET, RALEIGH, NC, 27604","Match","Exact","1203 CLIFTON ST, RALEIGH, NC, 27604",639837701,"L"
35548,"1203 CLOVERDALE AVENUE SW","DECATUR","AL",35601,34.58931582,-87.006709644,48,"1203 CLOVERDALE AVENUE SW, DECATUR, AL, 35601","Match","Exact","1203 CLOVERDALE AVE SW, DECATUR, AL, 35601",97136603,"R"
35549,"1203 CROWN STREET","GALENA PARK","TX",77547,29.740776714,-95.230550831,49,"1203 CROWN STREET, GALENA PARK, TX, 77547","Match","Exact","1203 CROWN ST, GALENA PARK, TX, 77547",96097362,"R"
35550,"1203 DAMYIEN ARCH","CHESAPEAKE","VA",23320,36.758394745,-76.25365773,50,"1203 DAMYIEN ARCH, CHESAPEAKE, VA, 23320","Match","Exact","1203 DAMYIEN ARCH, CHESAPEAKE, VA, 23320",121776470,"L"
35551,"1203 DECATUR ST APT 1","CHESAPEAKE","VA",23324,36.815242514,-76.275615763,51,"1203 DECATUR ST APT 1, CHESAPEAKE, VA, 23324","Match","Exact","1203 DECATUR ST, CHESAPEAKE, VA, 23324",121770287,"L"
35552,"1203 DRAGON STREET","DALLAS","TX",75207,32.7887881510001,-96.8177872049999,52,"1203 DRAGON STREET, DALLAS, TX, 75207","Match","Exact","1203 DRAGON ST, DALLAS, TX, 75207",102909290,"L"
35553,"1203 EMMA AVENUE","DES MOINES","IA",50315,41.543165539,-93.631586822,53,"1203 EMMA AVENUE, DES MOINES, IA, 50315","Match","Exact","1203 EMMA AVE, DES MOINES, IA, 50315",65786106,"R"
35554,"1203 F STREET","MARYSVILLE","CA",95901,39.1480259940001,-121.593205929,54,"1203 F STREET, MARYSVILLE, CA, 95901","Match","Exact","1203 F ST, MARYSVILLE, CA, 95901",106940448,"R"
35555,"1203 FAIRGREEN CT","CLERMONT","FL",34711,28.549986426,-81.7310354689999,55,"1203 FAIRGREEN CT, CLERMONT, FL, 34711","Match","Exact","1203 FAIRGREEN CT, CLERMONT, FL, 34711",94220487,"L"
35556,"1203 FARRAGUT DR","RADFORD","VA",24141,37.1251606540001,-80.565847844,56,"1203 FARRAGUT DR, RADFORD, VA, 24141","Match","Exact","1203 FARRAGUT DR, RADFORD, VA, 24141",73615438,"L"
35557,"1203 FORD STREET","LLANO","TX",78643,30.746223668,-98.675924917,57,"1203 FORD STREET, LLANO, TX, 78643","Match","Exact","1203 FORD ST, LLANO, TX, 78643",182244184,"L"
35558,"1203 FULTON AVE APT 10","BRONX","NY",10456,40.830153614,-73.904832342,58,"1203 FULTON AVE APT 10, BRONX, NY, 10456","Match","Exact","1203 FULTON AVE, BRONX, NY, 10456",80301939,"L"
35559,"1203 GALWAY CT","HUMMELSTOWN","PA",17036,40.253578298,-76.688375873,59,"1203 GALWAY CT, HUMMELSTOWN, PA, 17036","Match","Exact","1203 GALWAY CT, HUMMELSTOWN, PA, 17036",637451105,"R"
35560,"1203 GOLF COURSE DR","JONESBORO","AR",72404,35.782842461,-90.6842201279999,60,"1203 GOLF COURSE DR, JONESBORO, AR, 72404","Match","Exact","1203 GOLF COURSE DR, JONESBORO, AR, 72404",46925160,"R"
35561,"1203 HALEDON ROAD","CHESAPEAKE","VA",23320,36.7697692630001,-76.2630679439999,61,"1203 HALEDON ROAD, CHESAPEAKE, VA, 23320","Match","Exact","1203 HALEDON RD, CHESAPEAKE, VA, 23320",121771879,"R"
35562,"1203 HARVEST DALE COURT","STONE MOUNTAIN","GA",30088,33.758044372,-84.182322969,62,"1203 HARVEST DALE COURT, STONE MOUNTAIN, GA, 30088","Match","Exact","1203 HARVEST DALE CT, STONE MOUNTAIN, GA, 30088",23383776,"L"
35563,"1203 HIXSON PIKE","CHATTANOOGA","TN",37405,35.0695450420001,-85.2893061079999,63,"1203 HIXSON PIKE, CHATTANOOGA, TN, 37405","Match","Exact","1203 HIXSON PIKE, CHATTANOOGA, TN, 37405",59307470,"L"
35564,"1203 JEFFERSON ROAD","SOUTH CHARLESTON","WV",25309,38.3436995050001,-81.7038009939999,64,"1203 JEFFERSON ROAD, SOUTH CHARLESTON, WV, 25309","Match","Exact","1203 JEFFERSON RD, S CHARLESTON, WV, 25309",78673857,"R"
35565,"1203 JESSE WAY","PISCATAWAY","NJ",8854,40.5310103470001,-74.414385682,65,"1203 JESSE WAY, PISCATAWAY, NJ, 8854","Match","Exact","1203 JESSE WAY, PISCATAWAY, NJ, 08854",60299209,"L"
35566,"1203 KING ST","ALEXANDRIA","VA",22314,38.8057844590001,-77.052557491,66,"1203 KING ST, ALEXANDRIA, VA, 22314","Match","Exact","1203 KING ST, ALEXANDRIA, VA, 22314",75991419,"R"
35567,"1203 LAKE RIDGE LN","ATLANTA","GA",30338,33.9274207500001,-84.307802849,67,"1203 LAKE RIDGE LN, ATLANTA, GA, 30338","Match","Exact","1203 LAKE RIDGE LN, ATLANTA, GA, 30338",23394172,"R"
35568,"1203 LOUISIANA AVE","LIBBY","MT",59923,48.383950317,-115.55252451,68,"1203 LOUISIANA AVE, LIBBY, MT, 59923","Match","Exact","1203 LOUISIANA AVE, LIBBY, MT, 59923",169658608,"R"
35569,"1203 MAGRUDER ROAD","SMITHFIELD","VA",23430,36.9719620720001,-76.61254854,69,"1203 MAGRUDER ROAD, SMITHFIELD, VA, 23430","Match","Exact","1203 MAGRUDER RD, SMITHFIELD, VA, 23430",198629396,"L"
35570,"1203 MALLOW STREET","WOLVERINE LAKE","MI",48390,42.554929782,-83.497067715,70,"1203 MALLOW STREET, WOLVERINE LAKE, MI, 48390","Match","Exact","1203 MALLOW ST, WOLVERINE LAKE, MI, 48390",69717967,"L"
35571,"1203 MARY FRANCES DRIVE","KERRVILLE","TX",78028,30.049696854,-99.119162748,71,"1203 MARY FRANCES DRIVE, KERRVILLE, TX, 78028","Match","Non_Exact","1203 MARY FRANCES ST, KERRVILLE, TX, 78028",176889912,"L"
35572,"1203 MEADOWBROOK CT","REEDSVILLE","WI",54230,44.110551591,-87.8251889599999,72,"1203 MEADOWBROOK CT, REEDSVILLE, WI, 54230","Match","Exact","1203 MEADOWBROOK CT, REEDSVILLE, WI, 54230",147973440,"L"
35573,"1203 MINNESOTA STREET","OSHKOSH","WI",54902,44.0073436370001,-88.545019683,73,"1203 MINNESOTA STREET, OSHKOSH, WI, 54902","Match","Exact","1203 MINNESOTA ST, OSHKOSH, WI, 54902",74490387,"R"
35574,"1203 N 16 COURT SUITE 102","HOLLYWOOD","FL",33020,26.0218323350001,-80.140175191,74,"1203 N 16 COURT SUITE 102, HOLLYWOOD, FL, 33020","Match","Non_Exact","1203 N 16TH CT, HOLLYWOOD, FL, 33020",114730793,"R"
35575,"1203 N ATLANTIC AVENUE UNIT 9","NEW SMYRNA BEACH","FL",32169,NA,NA,75,"1203 N ATLANTIC AVENUE UNIT 9, NEW SMYRNA BEACH, FL, 32169","Tie",NA,NA,NA,NA
35576,"1203 N MAIN ST","CARROLLTON","MO",64633,39.372789319,-93.4957494719999,76,"1203 N MAIN ST, CARROLLTON, MO, 64633","Match","Exact","1203 N MAIN ST, CARROLLTON, MO, 64633",20817425,"L"
35577,"1203 N SEACREST BLVD","BOYNTON BEACH","FL",33435,26.5370776080001,-80.064329102,77,"1203 N SEACREST BLVD, BOYNTON BEACH, FL, 33435","Match","Exact","1203 N SEACREST BLVD, BOYNTON BEACH, FL, 33435",115295858,"L"
35578,"1203 NE 267TH AVE","CAMAS","WA",98607,45.6308097610001,-122.398633138,78,"1203 NE 267TH AVE, CAMAS, WA, 98607","Match","Exact","1203 NE 267TH AVE, CAMAS, WA, 98607",158319289,"R"
35579,"1203 PARK AVE","MURFREESBORO","TN",37129,35.8358728860001,-86.396955062,79,"1203 PARK AVE, MURFREESBORO, TN, 37129","Match","Exact","1203 PARK AVE, MURFREESBORO, TN, 37129",59014895,"R"
35580,"1203 PELHAM ST","WILLIAMSBURG","KY",40769,36.7336992780001,-84.170174093,80,"1203 PELHAM ST, WILLIAMSBURG, KY, 40769","Match","Exact","1203 PELHAM ST, WILLIAMSBURG, KY, 40769",150144916,"L"
35581,"1203 PETERS ST","PHILADELPHIA","PA",19147,39.936662073,-75.164154067,81,"1203 PETERS ST, PHILADELPHIA, PA, 19147","Match","Exact","1203 PETERS ST, PHILADELPHIA, PA, 19147",131408317,"R"
35582,"1203 PROSSER AVENUE","PROSSER","WA",99350,46.2038195100001,-119.767233602,82,"1203 PROSSER AVENUE, PROSSER, WA, 99350","Match","Exact","1203 PROSSER AVE, PROSSER, WA, 99350",174980290,"R"
35583,"1203 RED KEY RD","WINCHESTER","OH",45697,39.03870698,-83.6773454409999,83,"1203 RED KEY RD, WINCHESTER, OH, 45697","Match","Exact","1203 RED KEY RD, WINCHESTER, OH, 45697",101070572,"L"
35584,"1203 S VICTORIA AVENUE","COLUMBIA","MO",65201,38.9367555900001,-92.277000296,84,"1203 S VICTORIA AVENUE, COLUMBIA, MO, 65201","Match","Exact","1203 S VICTORIA AVE, COLUMBIA, MO, 65201",23489618,"R"
35585,"1203 SAPPLING DRIVE","SEVERN","MD",21144,39.119963435,-76.716362745,85,"1203 SAPPLING DRIVE, SEVERN, MD, 21144","Match","Exact","1203 SAPPLING DR, SEVERN, MD, 21144",651770071,"R"
35586,"1203 SARAH DR","SILVER SPRING","MD",20904,39.0523625320001,-76.984818875,86,"1203 SARAH DR, SILVER SPRING, MD, 20904","Match","Exact","1203 SARAH DR, SILVER SPRING, MD, 20904",62073405,"R"
35587,"1203 SOMERSET LANE","JEFFERSON CITY","MO",65101,38.5042167190001,-92.1844439979999,87,"1203 SOMERSET LANE, JEFFERSON CITY, MO, 65101","Match","Exact","1203 SOMERSET LN, JEFFERSON CITY, MO, 65101",34422093,"R"
35588,"1203 SOUTH 35TH STREET","MILWAUKEE","WI",53215,43.018872365,-87.957722057,88,"1203 SOUTH 35TH STREET, MILWAUKEE, WI, 53215","Match","Exact","1203 S 35TH ST, MILWAUKEE, WI, 53215",77740592,"R"
35589,"1203 SPRING LAKE DR","DUNCANVILLE","TX",75137,32.6375301300001,-96.926507585,89,"1203 SPRING LAKE DR, DUNCANVILLE, TX, 75137","Match","Exact","1203 SPRING LAKE DR, DUNCANVILLE, TX, 75137",102942114,"R"
35590,"1203 SPRUCE","CHETOPA","KS",67336,NA,NA,90,"1203 SPRUCE, CHETOPA, KS, 67336","No_Match",NA,NA,NA,NA
35591,"1203 TIFFANY LANE","LONGVIEW","TX",75604,32.5297853120001,-94.772203132,91,"1203 TIFFANY LANE, LONGVIEW, TX, 75604","Match","Exact","1203 TIFFANY LN, LONGVIEW, TX, 75604",141108052,"L"
35592,"1203 TURNBURY OAK ST","HOUSTON","TX",77055,NA,NA,92,"1203 TURNBURY OAK ST, HOUSTON, TX, 77055","Tie",NA,NA,NA,NA
35593,"1203 VANDALIA","COLLINSVILLE","IL",62234,38.683584038,-89.976742612,93,"1203 VANDALIA, COLLINSVILLE, IL, 62234","Match","Non_Exact","1203 VANDALIA ST, COLLINSVILLE, IL, 62234",615332306,"L"
35594,"1203 W 6TH ST UNIT 79","CORONA","CA",92882,33.877526065,-117.586035663,94,"1203 W 6TH ST UNIT 79, CORONA, CA, 92882","Match","Non_Exact","1203 W 6TH ST, CORONA, CA, 92882",194732005,"R"
35595,"1203 W GRAHAM AVE","LAKE ELSINORE","CA",92530,33.671383286,-117.339498909,95,"1203 W GRAHAM AVE, LAKE ELSINORE, CA, 92530","Match","Exact","1203 W GRAHAM AVE, LAKE ELSINORE, CA, 92530",194707669,"R"
35596,"1203 W IMPERIAL HWY STE 100","BREA","CA",92821,NA,NA,96,"1203 W IMPERIAL HWY STE 100, BREA, CA, 92821","No_Match",NA,NA,NA,NA
35597,"1203 W SAN PEDRO STREET","GILBERT","AZ",85233,33.367794885,-111.815581113,97,"1203 W SAN PEDRO STREET, GILBERT, AZ, 85233","Match","Exact","1203 W SAN PEDRO ST, GILBERT, AZ, 85233",128268841,"R"
35598,"1203 WALDEN LANE","DEERFIELD","IL",60015,42.1749401860001,-87.844369947,98,"1203 WALDEN LANE, DEERFIELD, IL, 60015","Match","Exact","1203 WALDEN LN, DEERFIELD, IL, 60015",119650815,"R"
35599,"1203 WASHINGTON STREET APT 9A","HOBOKEN","NJ",7030,40.751204774,-74.0266707919999,99,"1203 WASHINGTON STREET APT 9A, HOBOKEN, NJ, 7030","Match","Exact","1203 WASHINGTON ST, HOBOKEN, NJ, 07030",59600266,"R"
35600,"1203 WATERS EDGE RD","CHAMPAIGN","IL",61822,40.1030161470001,-88.306104606,100,"1203 WATERS EDGE RD, CHAMPAIGN, IL, 61822","Match","Exact","1203 WATERS EDGE RD, CHAMPAIGN, IL, 61822",642920901,"L"
35601,"1203 WAUGHTOWN STREET","WINSTON SALEM","NC",27107,36.068854539,-80.213606888,101,"1203 WAUGHTOWN STREET, WINSTON SALEM, NC, 27107","Match","Exact","1203 WAUGHTOWN ST, WINSTON SALEM, NC, 27107",84614000,"L"
35602,"1203 WEST WADDELL STREET","SELMA","NC",27576,35.5430710100001,-78.294628759,102,"1203 WEST WADDELL STREET, SELMA, NC, 27576","Match","Exact","1203 W WADDELL ST, SELMA, NC, 27576",26523675,"L"
35603,"1203 WILLAMETTE STREET SUITE 200","EUGENE","OR",97401,44.046489453,-123.092736377,103,"1203 WILLAMETTE STREET SUITE 200, EUGENE, OR, 97401","Match","Exact","1203 WILLAMETTE ST, EUGENE, OR, 97401",645727730,"L"
35604,"1203 WILLOW BROOK COURT","SUGAR LAND","TX",77479,29.5955792950001,-95.638682601,104,"1203 WILLOW BROOK COURT, SUGAR LAND, TX, 77479","Match","Exact","1203 WILLOW BROOK CT, SUGAR LAND, TX, 77479",637110340,"R"
35605,"1203 WINCHESTER HIGHWAY","FAYETTEVILLE","TN",37334,35.162927992,-86.544089995,105,"1203 WINCHESTER HIGHWAY, FAYETTEVILLE, TN, 37334","Match","Exact","1203 WINCHESTER HWY, FAYETTEVILLE, TN, 37334",58304137,"R"
35606,"1203 YORKMONT ROAD","CHARLOTTE","NC",28217,35.184738172,-80.897806273,106,"1203 YORKMONT ROAD, CHARLOTTE, NC, 28217","Match","Exact","1203 YORKMONT RD, CHARLOTTE, NC, 28217",642907299,"L"
35607,"12030 COLDSTREAM DR","POTOMAC","MD",20854,39.0536058490001,-77.1801137739999,107,"12030 COLDSTREAM DR, POTOMAC, MD, 20854","Match","Exact","12030 COLDSTREAM DR, POTOMAC, MD, 20854",62053938,"L"
35608,"12030 COLDSTREAM DRIVE","POTOMAC","MD",20854,39.0536058490001,-77.1801137739999,108,"12030 COLDSTREAM DRIVE, POTOMAC, MD, 20854","Match","Exact","12030 COLDSTREAM DR, POTOMAC, MD, 20854",62053938,"L"
35609,"12030 OLD ORCHARD DRIVE","INDIANAPOLIS","IN",46236,39.8826540900001,-85.953224485,109,"12030 OLD ORCHARD DRIVE, INDIANAPOLIS, IN, 46236","Match","Exact","12030 OLD ORCHARD DR, INDIANAPOLIS, IN, 46236",108012029,"L"
35610,"12030 ROCHESTER AVE 112","LOS ANGELES","CA",90025,34.0424868650001,-118.464216934,110,"12030 ROCHESTER AVE 112, LOS ANGELES, CA, 90025","Match","Exact","12030 ROCHESTER AVE, LOS ANGELES, CA, 90025",141568357,"L"
35611,"12030 ROLLINGSFORD DR","BLACK JACK","MO",63033,38.78923566,-90.266595004,111,"12030 ROLLINGSFORD DR, BLACK JACK, MO, 63033","Match","Exact","12030 ROLLINGSFORD DR, BLACK JACK, MO, 63033",628735038,"R"
35612,"12030 SUNRISE VALLEY DR STE 450","RESTON","VA",20191,38.948413083,-77.363572658,112,"12030 SUNRISE VALLEY DR STE 450, RESTON, VA, 20191","Match","Exact","12030 SUNRISE VALLEY DR, RESTON, VA, 20191",75957496,"R"
35613,"12030 SUNRISE VALLEY DRIVE SUITE 45","RESTON","VA",20191,38.948413083,-77.363572658,113,"12030 SUNRISE VALLEY DRIVE SUITE 45, RESTON, VA, 20191","Match","Exact","12030 SUNRISE VALLEY DR, RESTON, VA, 20191",75957496,"R"
35614,"12030 SUNRISE VALLEY DRIVE","RESTON","VA",20191,38.948413083,-77.363572658,114,"12030 SUNRISE VALLEY DRIVE, RESTON, VA, 20191","Match","Exact","12030 SUNRISE VALLEY DR, RESTON, VA, 20191",75957496,"R"
35615,"12030 SW 129TH COURT STE 104","MIAMI","FL",33033,NA,NA,115,"12030 SW 129TH COURT STE 104, MIAMI, FL, 33033","No_Match",NA,NA,NA,NA
35616,"12031 GREEN ROAD S","WILTON","CA",95693,38.4160739180001,-121.227709776,116,"12031 GREEN ROAD S, WILTON, CA, 95693","Match","Exact","12031 GREEN RD S, WILTON, CA, 95693",133390129,"L"
35617,"12031 NORTHUMBERLAND DR","TAMPA","FL",33626,28.069364589,-82.6288002319999,117,"12031 NORTHUMBERLAND DR, TAMPA, FL, 33626","Match","Exact","12031 NORTHUMBERLAND DR, TAMPA, FL, 33626",104614615,"R"
35618,"12032 KINGSBRIDGE ROAD","FORT WAYNE","IN",46814,41.0348644850001,-85.301632603,118,"12032 KINGSBRIDGE ROAD, FORT WAYNE, IN, 46814","Match","Exact","12032 KINGSBRIDGE RD, FORT WAYNE, IN, 46814",6411076,"R"
35619,"12032 SE 215TH STREET","KENT","WA",98031,47.4093796020001,-122.18031864,119,"12032 SE 215TH STREET, KENT, WA, 98031","Match","Exact","12032 SE 215TH ST, KENT, WA, 98031",239766681,"L"
35620,"120324 COUNTY ROAD F","MITCHELL","NE",69357,NA,NA,120,"120324 COUNTY ROAD F, MITCHELL, NE, 69357","No_Match",NA,NA,NA,NA
35621,"12034 CHATHAM","REDFORD","MI",48239,42.374433201,-83.262290126,121,"12034 CHATHAM, REDFORD, MI, 48239","Match","Non_Exact","12034 CHATHAM ST, REDFORD, MI, 48239",95431397,"R"
35622,"12034 HARBOUR TOWN PKY","FAYETTEVILLE","GA",30215,33.4322148420001,-84.393660111,122,"12034 HARBOUR TOWN PKY, FAYETTEVILLE, GA, 30215","Match","Exact","12034 HARBOUR TOWN PKWY, FAYETTEVILLE, GA, 30215",23328773,"R"
35623,"12034 LAGOONA CIRCLE NW","UNIONTOWN","OH",44685,40.9605329070001,-81.411673932,123,"12034 LAGOONA CIRCLE NW, UNIONTOWN, OH, 44685","Match","Exact","12034 LAGOONA CIR NW, UNIONTOWN, OH, 44685",64690828,"R"
35624,"12034 PRAILS MILL LANE","CHARLOTTE","NC",28262,35.3387054630001,-80.7081348419999,124,"12034 PRAILS MILL LANE, CHARLOTTE, NC, 28262","Match","Exact","12034 PRAILS MILL LN, CHARLOTTE, NC, 28262",70512799,"L"
35625,"12034 WEST CHASE LANE","AVONDALE","AZ",85323,NA,NA,125,"12034 WEST CHASE LANE, AVONDALE, AZ, 85323","No_Match",NA,NA,NA,NA
35626,"12035 FLAMINGO LAKES COURT","HOUSTON","TX",77065,29.9201506380001,-95.5985262089999,126,"12035 FLAMINGO LAKES COURT, HOUSTON, TX, 77065","Match","Exact","12035 FLAMINGO LAKES CT, HOUSTON, TX, 77065",96230637,"R"
35627,"12035 INDIAN WELLS DR","HOUSTON","TX",77066,29.965802925,-95.510755422,127,"12035 INDIAN WELLS DR, HOUSTON, TX, 77066","Match","Exact","12035 INDIAN WELLS DR, HOUSTON, TX, 77066",96010158,"R"
35628,"12035 N SAGUARO BLVD SUITE 101","FOUNTAIN HILLS","AZ",85268,33.596664795,-111.716645456,128,"12035 N SAGUARO BLVD SUITE 101, FOUNTAIN HILLS, AZ, 85268","Match","Non_Exact","12035 N SAGUARO BLVD, FOUNTAIN HILLS, AZ, 85268",128191428,"R"
35629,"12035 NORTH DICKINSON DR","FREDERICKSBURG","VA",22407,38.2874593780001,-77.55583305,129,"12035 NORTH DICKINSON DR, FREDERICKSBURG, VA, 22407","Match","Exact","12035 N DICKINSON DR, FREDERICKSBURG, VA, 22407",85004774,"R"
35630,"12035 ORCHID LANE","ALPHARETTA","GA",30009,34.0739090660001,-84.2993493709999,130,"12035 ORCHID LANE, ALPHARETTA, GA, 30009","Match","Exact","12035 ORCHID LN, ALPHARETTA, GA, 30009",618449100,"R"
35631,"12036 14TH AVE NE","SEATTLE","WA",98125,47.7161229590001,-122.313924643,131,"12036 14TH AVE NE, SEATTLE, WA, 98125","Match","Exact","12036 14TH AVE NE, SEATTLE, WA, 98125",642836282,"R"
35632,"12036 HALLWOOD DR","EL MONTE","CA",91732,34.090581909,-118.00373287,132,"12036 HALLWOOD DR, EL MONTE, CA, 91732","Match","Exact","12036 HALLWOOD DR, EL MONTE, CA, 91732",142747259,"R"
35633,"12037 BAUMHART ROAD","SOUTH AMHERST","OH",44001,41.313737981,-82.272645665,133,"12037 BAUMHART ROAD, SOUTH AMHERST, OH, 44001","Match","Exact","12037 BAUMHART RD, SOUTH AMHERST, OH, 44001",652732921,"L"
35634,"12037 MALVA PL","LAS VEGAS","NV",89138,36.169661331,-115.358043385,134,"12037 MALVA PL, LAS VEGAS, NV, 89138","Match","Exact","12037 MALVA PL, LAS VEGAS, NV, 89138",612992072,"L"
35635,"12037 PENFORD DR","LA MIRADA","CA",90638,33.922305566,-117.998493084,135,"12037 PENFORD DR, LA MIRADA, CA, 90638","Match","Exact","12037 PENFORD DR, LA MIRADA, CA, 90638",141751999,"R"
35636,"12038 CANARY COURT","GRAND TERRACE","CA",92313,34.035346534,-117.303841521,136,"12038 CANARY COURT, GRAND TERRACE, CA, 92313","Match","Exact","12038 CANARY CT, GRAND TERRACE, CA, 92313",144658806,"R"
35637,"12038 RATNER STREET","NORTH HOLLYWOOD","CA",91605,34.216805623,-118.394993594,137,"12038 RATNER STREET, NORTH HOLLYWOOD, CA, 91605","Match","Exact","12038 RATNER ST, N HOLLYWOOD, CA, 91605",141552966,"L"
35638,"12039 MAIN OAKS ST","HOUSTON","TX",77038,NA,NA,138,"12039 MAIN OAKS ST, HOUSTON, TX, 77038","No_Match",NA,NA,NA,NA
35639,"12039 SW 132 CT","MIAMI","FL",33186,25.6558832850001,-80.4085770949999,139,"12039 SW 132 CT, MIAMI, FL, 33186","Match","Non_Exact","12039 SW 132ND CT, MIAMI, FL, 33186",640558997,"R"
35640,"1203B E GRAND AVE NUM 309","MARSHALL","TX",75670,32.548467971,-94.357461778,140,"1203B E GRAND AVE NUM 309, MARSHALL, TX, 75670","Match","Non_Exact","1203 E GRAND AVE, MARSHALL, TX, 75672",141174036,"R"
35641,"1204 1/2 LYNDON ST","SOUTH PASADENA","CA",91030,34.1109502520001,-118.154808411,141,"1204 1/2 LYNDON ST, SOUTH PASADENA, CA, 91030","Match","Exact","1204 LYNDON ST, SOUTH PASADENA, CA, 91030",241240852,"L"
35642,"1204 14TH AVENUE NORTH","ST PETERSBURG","FL",33705,27.785251176,-82.6509121879999,142,"1204 14TH AVENUE NORTH, ST PETERSBURG, FL, 33705","Match","Exact","1204 14TH AVE N, SAINT PETERSBURG, FL, 33705",124706757,"L"
35643,"1204 3RD ST NW","WASHINGTON DC","DC",20001,38.905746908,-77.015247216,143,"1204 3RD ST NW, WASHINGTON DC, DC, 20001","Match","Exact","1204 3RD ST NW, WASHINGTON, DC, 20001",76226487,"L"
35644,"1204 46TH STREET SE","WASHINGTON","DC",20019,38.8762989780001,-76.933993958,144,"1204 46TH STREET SE, WASHINGTON, DC, 20019","Match","Exact","1204 46TH ST SE, WASHINGTON, DC, 20019",76233909,"L"
35645,"1204 56TH COURT","NORTHPORT","AL",35473,33.261317734,-87.569769652,145,"1204 56TH COURT, NORTHPORT, AL, 35473","Match","Exact","1204 56TH CT, NORTHPORT, AL, 35473",82200243,"L"
35646,"1204 6TH STREET","BETTENDORF","IA",52722,41.5335312940001,-90.524787455,146,"1204 6TH STREET, BETTENDORF, IA, 52722","Match","Exact","1204 6TH ST, BETTENDORF, IA, 52722",122721626,"L"
35647,"1204 ALI BABA AVENUE","MIAMI GARDENS","FL",33054,25.9031481260001,-80.247653008,147,"1204 ALI BABA AVENUE, MIAMI GARDENS, FL, 33054","Match","Exact","1204 ALI BABA AVE, MIAMI GARDENS, FL, 33054",116032254,"R"
35648,"1204 ASHBRIDGE ROAD","WEST CHESTER","PA",19380,39.9962506370001,-75.599367348,148,"1204 ASHBRIDGE ROAD, WEST CHESTER, PA, 19380","Match","Exact","1204 ASHBRIDGE RD, WEST CHESTER, PA, 19380",179517792,"L"
35649,"1204 ASHLAND AVENUE","SAINT PAUL","MN",55104,44.943954278,-93.150993903,149,"1204 ASHLAND AVENUE, SAINT PAUL, MN, 55104","Match","Non_Exact","1204 W ASHLAND AVE, SAINT PAUL, MN, 55104",97646431,"L"
35650,"1204 BALTIMORE PIKE SUITE 200","CHADDS FORD","PA",19317,39.878565333,-75.552509669,150,"1204 BALTIMORE PIKE SUITE 200, CHADDS FORD, PA, 19317","Match","Exact","1204 BALTIMORE PIKE, CHADDS FORD, PA, 19317",605194817,"R"
35651,"1204 BELGIAN DRIVE NW","DALTON","GA",30720,34.889010184,-84.986424788,151,"1204 BELGIAN DRIVE NW, DALTON, GA, 30720","Match","Exact","1204 BELGIAN DR NW, DALTON, GA, 30720",57385592,"R"
35652,"1204 BLOOMFIELD DRIVE","PINE BLUFF","AR",71601,34.2183730360001,-91.9804768559999,152,"1204 BLOOMFIELD DRIVE, PINE BLUFF, AR, 71601","Match","Exact","1204 BLOOMFIELD DR, PINE BLUFF, AR, 71601",2552749,"R"
35653,"1204 BOND STREET","ASBURY PARK","NJ",7712,40.22446417,-74.0089936749999,153,"1204 BOND STREET, ASBURY PARK, NJ, 7712","Match","Exact","1204 BOND ST, ASBURY PARK, NJ, 07712",90464784,"R"
35654,"1204 BRIDGEPORT LANE NW","ALEXANDRIA","MN",56308,45.9038109890001,-95.395647045,154,"1204 BRIDGEPORT LANE NW, ALEXANDRIA, MN, 56308","Match","Exact","1204 BRIDGEPORT LN NW, ALEXANDRIA, MN, 56308",204665975,"L"
35655,"1204 BRITTANY CIRCLE","BROWNSBURG","IN",46112,39.8606739690001,-86.387384948,155,"1204 BRITTANY CIRCLE, BROWNSBURG, IN, 46112","Match","Exact","1204 BRITTANY CIR, BROWNSBURG, IN, 46112",635487730,"R"
35656,"1204 C WRIGHTSBORO RD","AUGUSTA","GA",30901,33.461446058,-81.981294141,156,"1204 C WRIGHTSBORO RD, AUGUSTA, GA, 30901","Match","Exact","1204 WRIGHTSBORO RD, AUGUSTA, GA, 30901",55640023,"L"
35657,"1204 CALIFORNIA ROAD","YORK","SC",29745,34.9940009330001,-81.2641043839999,157,"1204 CALIFORNIA ROAD, YORK, SC, 29745","Match","Exact","1204 CALIFORNIA RD, YORK, SC, 29745",19781277,"L"
35658,"1204 CANTERBURY TRAIL","DESOTO","TX",75115,32.570234396,-96.866509698,158,"1204 CANTERBURY TRAIL, DESOTO, TX, 75115","Match","Exact","1204 CANTERBURY TRL, DESOTO, TX, 75115",627688356,"R"
35659,"1204 COLUMBUS CIRCLE","JANESVILLE","WI",53545,42.6899965160001,-89.009391901,159,"1204 COLUMBUS CIRCLE, JANESVILLE, WI, 53545","Match","Exact","1204 COLUMBUS CIR, JANESVILLE, WI, 53545",49854551,"R"
35660,"1204 CONDOR DRIVE","GREENSBORO","NC",27410,36.102196925,-79.883724741,160,"1204 CONDOR DRIVE, GREENSBORO, NC, 27410","Match","Exact","1204 CONDOR DR, GREENSBORO, NC, 27410",131025635,"R"
35661,"1204 COPPERFIELD DR","RAPID CITY","SD",57703,44.0738806350001,-103.16234235,161,"1204 COPPERFIELD DR, RAPID CITY, SD, 57703","Match","Exact","1204 COPPERFIELD DR, RAPID CITY, SD, 57703",205532400,"R"
35662,"1204 DAVISWOOD DRIVE","MCLEAN","VA",22102,38.9451093550001,-77.234423098,162,"1204 DAVISWOOD DRIVE, MCLEAN, VA, 22102","Match","Exact","1204 DAVISWOOD DR, MCLEAN, VA, 22102",76014627,"L"
35663,"1204 DELANO STREEET","HOUSTON","TX",77003,29.7460758710001,-95.35074738,163,"1204 DELANO STREEET, HOUSTON, TX, 77003","Match","Non_Exact","1204 DELANO ST, HOUSTON, TX, 77003",96072906,"R"
35664,"1204 DILWORTH CRESENT ROW","CHARLOTTE","NC",28203,35.2123290440001,-80.844825989,164,"1204 DILWORTH CRESENT ROW, CHARLOTTE, NC, 28203","Match","Non_Exact","1204 DILWORTH CRESCENT ROW, CHARLOTTE, NC, 28203",70536967,"R"
35665,"1204 DRUM AVENUE","CAPITAL HEIGHTS","MD",20743,38.8748837360001,-76.927774078,165,"1204 DRUM AVENUE, CAPITAL HEIGHTS, MD, 20743","Match","Non_Exact","1204 DRUM AVE, CAPITOL HGTS, MD, 20743",76313477,"L"
35666,"1204 E 24TH ST","INDIANAPOLIS","IN",46205,39.801414778,-86.137960858,166,"1204 E 24TH ST, INDIANAPOLIS, IN, 46205","Match","Exact","1204 E 24TH ST, INDIANAPOLIS, IN, 46205",107990546,"L"
35667,"1204 E BASELINE ROAD SUITE 108","TEMPE","AZ",85282,NA,NA,167,"1204 E BASELINE ROAD SUITE 108, TEMPE, AZ, 85282","No_Match",NA,NA,NA,NA
35668,"1204 E DERRINGER WAY","CHANDLER","AZ",85286,33.291054553,-111.820908701,168,"1204 E DERRINGER WAY, CHANDLER, AZ, 85286","Match","Exact","1204 E DERRINGER WAY, CHANDLER, AZ, 85286",128854913,"L"
35669,"1204 E NORTH ST","ELDON","MO",65026,38.349783277,-92.5598460479999,169,"1204 E NORTH ST, ELDON, MO, 65026","Match","Exact","1204 E NORTH ST, ELDON, MO, 65026",143096488,"L"
35670,"1204 E OVERBLUFF RD","SPOKANE","WA",99203,47.635442749,-117.392808378,170,"1204 E OVERBLUFF RD, SPOKANE, WA, 99203","Match","Exact","1204 E OVERBLUFF RD, SPOKANE, WA, 99203",635398615,"R"
35671,"1204 EAST 17TH STREET","FARMINGTON","NM",87401,36.746127417,-108.192420285,171,"1204 EAST 17TH STREET, FARMINGTON, NM, 87401","Match","Exact","1204 E 17TH ST, FARMINGTON, NM, 87401",127413011,"R"
35672,"1204 EAST 55TH STREET","SAVANNAH","GA",31404,32.0386002480001,-81.0866450139999,172,"1204 EAST 55TH STREET, SAVANNAH, GA, 31404","Match","Exact","1204 E 55TH ST, SAVANNAH, GA, 31404",6178693,"L"
35673,"1204 EASTERN AVE SE","GRAND RAPIDS","MI",49507,42.9410189230001,-85.649149762,173,"1204 EASTERN AVE SE, GRAND RAPIDS, MI, 49507","Match","Exact","1204 EASTERN AVE SE, GRAND RAPIDS, MI, 49507",12461466,"L"
35674,"1204 ELM GROVE CIRCLE","SILVER SPRING","MD",20905,39.094608932,-76.986577876,174,"1204 ELM GROVE CIRCLE, SILVER SPRING, MD, 20905","Match","Exact","1204 ELM GROVE CIR, SILVER SPRING, MD, 20905",62078692,"L"
35675,"1204 FIELDCREST LANE","CLARKSVILLE","TN",37043,36.4677133320001,-87.2464216979999,175,"1204 FIELDCREST LANE, CLARKSVILLE, TN, 37043","Match","Exact","1204 FIELDCREST LN, CLARKSVILLE, TN, 37043",31831025,"R"
35676,"1204 FLORES DRIVE","SHOW LOW","AZ",85901,34.2037748160001,-110.029138147,176,"1204 FLORES DRIVE, SHOW LOW, AZ, 85901","Match","Exact","1204 FLORES DR, SHOW LOW, AZ, 85901",172579189,"R"
35677,"1204 FORSYTH LN","GALENA","OH",43021,40.25614533,-82.957381062,177,"1204 FORSYTH LN, GALENA, OH, 43021","Match","Exact","1204 FORSYTH LN, GALENA, OH, 43021",213002052,"R"
35678,"1204 FOURTH AVENUE E 4","OLYMPIA","WA",98503,47.045905943,-122.886921304,178,"1204 FOURTH AVENUE E 4, OLYMPIA, WA, 98503","Match","Non_Exact","1204 4TH AVE E, OLYMPIA, WA, 98506",180944611,"L"
35679,"1204 GAZANIA DRIVE","PFLUGERVILLE","TX",78660,30.457545687,-97.631024331,179,"1204 GAZANIA DRIVE, PFLUGERVILLE, TX, 78660","Match","Exact","1204 GAZANIA DR, PFLUGERVILLE, TX, 78660",63986519,"L"
35680,"1204 GRANDVIEW DR","NASHVILLE","TN",37215,36.108395445,-86.794163149,180,"1204 GRANDVIEW DR, NASHVILLE, TN, 37215","Match","Exact","1204 GRANDVIEW DR, NASHVILLE, TN, 37215",97191089,"R"
35681,"1204 GRANTLAND CT","MODESTO","CA",95350,37.6500686640001,-120.978277712,181,"1204 GRANTLAND CT, MODESTO, CA, 95350","Match","Exact","1204 GRANTLAND CT, MODESTO, CA, 95350",102605989,"R"
35682,"1204 GRAVER LANE","CHESAPEAKE","VA",23322,36.6966359460001,-76.1953735559999,182,"1204 GRAVER LANE, CHESAPEAKE, VA, 23322","Match","Exact","1204 GRAVER LN, CHESAPEAKE, VA, 23322",121794650,"R"
35683,"1204 GREENOCK BUENA VISTA RD","MCKEESPORT","PA",15135,40.3123722070001,-79.80443801,183,"1204 GREENOCK BUENA VISTA RD, MCKEESPORT, PA, 15135","Match","Exact","1204 GREENOCK BUENA VISTA RD, MCKEESPORT, PA, 15135",51679692,"R"
35684,"1204 HARBOR DR SE","ROCHESTER","MN",55904,44.006750228,-92.4145264319999,184,"1204 HARBOR DR SE, ROCHESTER, MN, 55904","Match","Exact","1204 HARBOR DR SE, ROCHESTER, MN, 55904",635525888,"L"
35685,"1204 HARMONY CT","SPRINGFIELD","IL",62703,39.7169842220001,-89.637001786,185,"1204 HARMONY CT, SPRINGFIELD, IL, 62703","Match","Exact","1204 HARMONY CT, SPRINGFIELD, IL, 62703",97351631,"R"
35686,"1204 HARRISON GLEN LN","KNOXVILLE","TN",37922,35.8350027000001,-84.1807645329999,186,"1204 HARRISON GLEN LN, KNOXVILLE, TN, 37922","Match","Exact","1204 HARRISON GLEN LN, KNOXVILLE, TN, 37922",627018341,"R"
35687,"1204 JEWELL","FRANKLIN","TN",37064,35.924352105,-86.9185176349999,187,"1204 JEWELL, FRANKLIN, TN, 37064","Match","Non_Exact","1204 JEWELL AVE, FRANKLIN, TN, 37064",631988110,"R"
35688,"1204 LAZY CREEK COURT","NEWTON","KS",67114,38.0289764350001,-97.385213468,188,"1204 LAZY CREEK COURT, NEWTON, KS, 67114","Match","Exact","1204 LAZY CREEK CT, NEWTON, KS, 67114",618671530,"R"
35689,"1204 LIBERTY DRIVE","THOMASVILLE","NC",27360,35.8623188380001,-80.0670153889999,189,"1204 LIBERTY DRIVE, THOMASVILLE, NC, 27360","Match","Exact","1204 LIBERTY DR, THOMASVILLE, NC, 27360",20219112,"L"
35690,"1204 MAIN STREET","BRANFORD","CT",6405,41.2840792440001,-72.809823363,190,"1204 MAIN STREET, BRANFORD, CT, 6405","Match","Exact","1204 MAIN ST, BRANFORD, CT, 06405",606595260,"L"
35691,"1204 MAPLE AVENUE","SANDUSKY","OH",44870,41.432798888,-82.7924927619999,191,"1204 MAPLE AVENUE, SANDUSKY, OH, 44870","Match","Exact","1204 MAPLE AVE, SANDUSKY, OH, 44870",55339820,"R"
35692,"1204 MERIDIAN STREET","ANDERSON","IN",46011,40.10400853,-85.6792016329999,192,"1204 MERIDIAN STREET, ANDERSON, IN, 46011","Match","Non_Exact","1204 MERIDIAN ST, ANDERSON, IN, 46016",31114269,"L"
35693,"1204 MOHAWK ST","DERIDDER","LA",70634,30.865948206,-93.3003816729999,193,"1204 MOHAWK ST, DERIDDER, LA, 70634","Match","Exact","1204 MOHAWK ST, DERIDDER, LA, 70634",88363336,"R"
35694,"1204 MONROE ST NW","WASHINGTON","DC",20010,38.932564891,-77.0291231959999,194,"1204 MONROE ST NW, WASHINGTON, DC, 20010","Match","Exact","1204 MONROE ST NW, WASHINGTON, DC, 20010",76224044,"L"
35695,"1204 MONTGOMERY HWY","VESTAVIA HILLS","AL",35216,33.4339792260001,-86.790399109,195,"1204 MONTGOMERY HWY, VESTAVIA HILLS, AL, 35216","Match","Non_Exact","1204 OLD MONTGOMERY HWY, VESTAVIA HILLS, AL, 35216",81582198,"R"
35696,"1204 N ORLEANS AVENUE","DELL RAPIDS","SD",57022,43.8309125060001,-96.7103657819999,196,"1204 N ORLEANS AVENUE, DELL RAPIDS, SD, 57022","Match","Exact","1204 ORLEANS AVE, DELL RAPIDS, SD, 57022",34961695,"R"
35697,"1204 N YALE BLVD","RICHARDSON","TX",75081,32.9623336830001,-96.6916828619999,197,"1204 N YALE BLVD, RICHARDSON, TX, 75081","Match","Exact","1204 N YALE BLVD, RICHARDSON, TX, 75081",102915576,"R"
35698,"1204 NE 10TH ST","CAPE CORAL","FL",33909,26.670167925,-81.949054163,198,"1204 NE 10TH ST, CAPE CORAL, FL, 33909","Match","Exact","1204 NE 10TH ST, CAPE CORAL, FL, 33909",118008424,"L"
35699,"1204 NE CREEKSEDGE DR","HILLSBORO","OR",97124,45.5426112640001,-122.970515521,199,"1204 NE CREEKSEDGE DR, HILLSBORO, OR, 97124","Match","Exact","1204 NE CREEKSEDGE DR, HILLSBORO, OR, 97124",158223799,"R"
35700,"1204 NEW ST","HEARNE","TX",77859,30.878214466,-96.606905011,200,"1204 NEW ST, HEARNE, TX, 77859","Match","Exact","1204 NEW ST, HEARNE, TX, 77859",24681303,"L"
35701,"1204 NORTH 10TH PLACE UNIT 2346","RENTON","WA",98057,NA,NA,201,"1204 NORTH 10TH PLACE UNIT 2346, RENTON, WA, 98057","No_Match",NA,NA,NA,NA
35702,"1204 NORTH ABINGTON RD BOX 87","WAVERLY","PA",18471,41.5270029710001,-75.7054013279999,202,"1204 NORTH ABINGTON RD BOX 87, WAVERLY, PA, 18471","Match","Non_Exact","1204 ABINGTON RD, WAVERLY, PA, 18471",139318977,"L"
35703,"1204 NORTH WINDSOR DR","KANNAPOLIS","NC",28081,35.4604864520001,-80.64670917,203,"1204 NORTH WINDSOR DR, KANNAPOLIS, NC, 28081","Match","Exact","1204 N WINDSOR DR, KANNAPOLIS, NC, 28081",648152562,"R"
35704,"1204 PERRY WILLIAM DR","MCLEAN","VA",22101,38.9426222370001,-77.1502665099999,204,"1204 PERRY WILLIAM DR, MCLEAN, VA, 22101","Match","Exact","1204 PERRY WILLIAM DR, MCLEAN, VA, 22101",75963963,"L"
35705,"1204 PIKE PATH","ROUND ROCK","TX",78665,30.553107073,-97.664403844,205,"1204 PIKE PATH, ROUND ROCK, TX, 78665","Match","Exact","1204 PIKE PATH, ROUND ROCK, TX, 78665",126453191,"L"
35706,"1204 PINE LANE","ACCOKEEK","MD",20607,38.6601840710001,-77.030597584,206,"1204 PINE LANE, ACCOKEEK, MD, 20607","Match","Exact","1204 PINE LN, ACCOKEEK, MD, 20607",76302666,"L"
35707,"1204 REED DR","LOCKHART","TX",78644,29.876090436,-97.654986542,207,"1204 REED DR, LOCKHART, TX, 78644","Match","Exact","1204 REED DR, LOCKHART, TX, 78644",638476274,"R"
35708,"1204 ROWLEY DR","CEDAR PARK","TX",78613,30.484396917,-97.857035727,208,"1204 ROWLEY DR, CEDAR PARK, TX, 78613","Match","Exact","1204 ROWLEY DR, CEDAR PARK, TX, 78613",617952208,"L"
35709,"1204 SNOWBERRY DR","GOLDEN","CO",80401,39.694706346,-105.26784224,209,"1204 SNOWBERRY DR, GOLDEN, CO, 80401","Match","Exact","1204 SNOWBERRY DR, GOLDEN, CO, 80401",642118178,"L"
35710,"1204 SOUTH 2ND STREET","PHILADELPHIA","PA",19147,39.93261678,-75.14754914,210,"1204 SOUTH 2ND STREET, PHILADELPHIA, PA, 19147","Match","Exact","1204 S 2ND ST, PHILADELPHIA, PA, 19147",131436998,"R"
35711,"1204 SUMMER LANE","MCKINNEY","TX",75071,33.249280479,-96.598899542,211,"1204 SUMMER LANE, MCKINNEY, TX, 75071","Match","Exact","1204 SUMMER LN, MCKINNEY, TX, 75071",650326482,"R"
35712,"1204 SW 1ST STREET","PRYOR","OK",74361,NA,NA,212,"1204 SW 1ST STREET, PRYOR, OK, 74361","Tie",NA,NA,NA,NA
35713,"1204 TALLMADGE RD","KENT","OH",44240,41.1000242630001,-81.350045317,213,"1204 TALLMADGE RD, KENT, OH, 44240","Match","Exact","1204 TALLMADGE RD, KENT, OH, 44240",137545162,"R"
35714,"1204 TEALWOOD DRIVE","SAINT CHARLES","MO",63304,38.7349892460001,-90.671041955,214,"1204 TEALWOOD DRIVE, SAINT CHARLES, MO, 63304","Match","Exact","1204 TEALWOOD DR, SAINT CHARLES, MO, 63304",653454084,"R"
35715,"1204 TENNYSON CLOSE","MOOSIC","PA",18507,41.3510575600001,-75.686632088,215,"1204 TENNYSON CLOSE, MOOSIC, PA, 18507","Match","Exact","1204 TENNYSON CLOSE, MOOSIC, PA, 18507",618247260,"R"
35716,"1204 TRAFALGAR RD","WINTERVILLE","NC",28590,35.542451462,-77.363159819,216,"1204 TRAFALGAR RD, WINTERVILLE, NC, 28590","Match","Non_Exact","1204 TRAFALGAR DR, WINTERVILLE, NC, 28590",642169913,"R"
35717,"1204 TSALAGI ROAD","CHEROKEE","NC",28719,NA,NA,217,"1204 TSALAGI ROAD, CHEROKEE, NC, 28719","No_Match",NA,NA,NA,NA
35718,"1204 WASHINGTON AVE","ST LOUIS","MO",63101,38.631797299,-90.1968795,218,"1204 WASHINGTON AVE, ST LOUIS, MO, 63101","Match","Non_Exact","1204 WASHINGTON AVE, SAINT LOUIS, MO, 63103",107604989,"L"
35719,"1204 WILD DAISY DR","PLANT CITY","FL",33563,28.031969137,-82.115981022,219,"1204 WILD DAISY DR, PLANT CITY, FL, 33563","Match","Exact","1204 WILD DAISY DR, PLANT CITY, FL, 33563",650320261,"L"
35720,"1204 WINDSOR DR","KANNAPOLIS","NC",28081,35.460461654,-80.6452294009999,220,"1204 WINDSOR DR, KANNAPOLIS, NC, 28081","Match","Exact","1204 WINDSOR DR, KANNAPOLIS, NC, 28081",24912482,"R"
35721,"1204 WOODLAWN DRIVE","CAMDEN","SC",29020,34.252166528,-80.56834959,221,"1204 WOODLAWN DRIVE, CAMDEN, SC, 29020","Match","Exact","1204 WOODLAWN DR, CAMDEN, SC, 29020",78484617,"R"
35722,"12040 115TH AVE NE","KIRKLAND","WA",98034,47.7076237890001,-122.187439247,222,"12040 115TH AVE NE, KIRKLAND, WA, 98034","Match","Exact","12040 115TH AVE NE, KIRKLAND, WA, 98034",186953208,"R"
35723,"12040 5TH STREET","YUCAIPA","CA",92399,34.035227573,-117.056226482,223,"12040 5TH STREET, YUCAIPA, CA, 92399","Match","Exact","12040 5TH ST, YUCAIPA, CA, 92399",144667548,"R"
35724,"12040 CROSSTIMBERS DR","BEAUMONT","TX",77705,NA,NA,224,"12040 CROSSTIMBERS DR, BEAUMONT, TX, 77705","No_Match",NA,NA,NA,NA
35725,"12040 PARAMOUNT BLVD SUITE NO  3","DOWNEY","CA",90242,33.932524718,-118.145498623,225,"12040 PARAMOUNT BLVD SUITE NO  3, DOWNEY, CA, 90242","Match","Exact","12040 PARAMOUNT BLVD, DOWNEY, CA, 90242",640424828,"L"
35726,"12040 SALEM DRIVE","GRANADA HILLS","CA",91344,34.2894965150001,-118.508256002,226,"12040 SALEM DRIVE, GRANADA HILLS, CA, 91344","Match","Exact","12040 SALEM DR, GRANADA HILLS, CA, 91344",141542042,"R"
35727,"12040 SOUTH LAKES DRIVE STE 103","RESTON","VA",20191,38.9433116960001,-77.362597256,227,"12040 SOUTH LAKES DRIVE STE 103, RESTON, VA, 20191","Match","Exact","12040 S LAKES DR, RESTON, VA, 20191",635445400,"R"
35728,"12040 STONEWICK PLACE","GLEN ALLEN","VA",23059,37.681883977,-77.615359097,228,"12040 STONEWICK PLACE, GLEN ALLEN, VA, 23059","Match","Exact","12040 STONEWICK PL, GLEN ALLEN, VA, 23059",642705011,"L"
35729,"12040 WINDY RIDGE LN","CLERMONT","FL",34711,28.5218109370001,-81.7150654389999,229,"12040 WINDY RIDGE LN, CLERMONT, FL, 34711","Match","Exact","12040 WINDY RIDGE LN, CLERMONT, FL, 34711",653170443,"L"
35730,"12041 66TH ST STE F G","LARGO","FL",33773,27.881308678,-82.729097779,230,"12041 66TH ST STE F G, LARGO, FL, 33773","Match","Exact","12041 66TH ST, LARGO, FL, 33773",124782102,"R"
35731,"12041 CHOLLA RD","FISHERS","IN",46037,39.9607151750001,-85.950877404,231,"12041 CHOLLA RD, FISHERS, IN, 46037","Match","Exact","12041 CHOLLA RD, FISHERS, IN, 46037",29339369,"R"
35732,"12041 SW 131 AVE","MIAMI","FL",33186,25.6559433420001,-80.4067048109999,232,"12041 SW 131 AVE, MIAMI, FL, 33186","Match","Exact","12041 SW 131ST AVE, MIAMI, FL, 33186",116318445,"L"
35733,"12042 BLANCO RD STE 320","SAN ANTONIO","TX",78216,29.550866763,-98.512035693,233,"12042 BLANCO RD STE 320, SAN ANTONIO, TX, 78216","Match","Exact","12042 BLANCO RD, SAN ANTONIO, TX, 78216",101492818,"R"
35734,"12042 MANOR ST","DETROIT","MI",48204,42.3762038130001,-83.167059942,234,"12042 MANOR ST, DETROIT, MI, 48204","Match","Exact","12042 MANOR ST, DETROIT, MI, 48204",95442618,"R"
35735,"12042 N SAWTOOTH CANYON DR","TOMBALL","TX",77377,30.036820854,-95.617677982,235,"12042 N SAWTOOTH CANYON DR, TOMBALL, TX, 77377","Match","Exact","12042 N SAWTOOTH CANYON DR, TOMBALL, TX, 77377",627681162,"R"
35736,"12042 SE SUNNYSIDE NO 584","CLACKAMAS","OR",97015,NA,NA,236,"12042 SE SUNNYSIDE NO 584, CLACKAMAS, OR, 97015","No_Match",NA,NA,NA,NA
35737,"12042 SE SUNNYSIDE RD  NUM 338","CLACKAMAS","OR",97015,45.429681718,-122.540021082,237,"12042 SE SUNNYSIDE RD  NUM 338, CLACKAMAS, OR, 97015","Match","Non_Exact","12042 SE SUNNYSIDE RD, CLACKAMAS, OR, 97015",651209072,"L"
35738,"12042 SE SUNNYSIDE RD NUMBER 369","CLACKAMAS","OR",97015,45.429681718,-122.540021082,238,"12042 SE SUNNYSIDE RD NUMBER 369, CLACKAMAS, OR, 97015","Match","Non_Exact","12042 SE SUNNYSIDE RD, CLACKAMAS, OR, 97015",651209072,"L"
35739,"12043 S PRAIRIE DRIVE","ALSIP","IL",60803,41.6729351170001,-87.723781403,239,"12043 S PRAIRIE DRIVE, ALSIP, IL, 60803","Match","Exact","12043 S PRAIRIE DR, ALSIP, IL, 60803",112222156,"L"
35740,"12043 VINTAGE DRIVE","FONTANA","CA",92337,34.0344747840001,-117.504796069,240,"12043 VINTAGE DRIVE, FONTANA, CA, 92337","Match","Exact","12043 VINTAGE DR, FONTANA, CA, 92337",144973720,"L"
35741,"12044 ATLANTIC ROAD","ASSAWOMAN","VA",23302,37.874159198,-75.521821911,241,"12044 ATLANTIC ROAD, ASSAWOMAN, VA, 23302","Match","Exact","12044 ATLANTIC RD, ASSAWOMAN, VA, 23302",114601107,"L"
35742,"12045 DAPPLE WAY","SAN DIEGO","CA",92128,32.9382415050001,-117.07088154,242,"12045 DAPPLE WAY, SAN DIEGO, CA, 92128","Match","Exact","12045 DAPPLE WAY, SAN DIEGO, CA, 92128",195404176,"L"
35743,"12045 LEEWARD WALK CIR","ALPHARETTA","GA",30005,34.074493885,-84.205873342,243,"12045 LEEWARD WALK CIR, ALPHARETTA, GA, 30005","Match","Exact","12045 LEEWARD WALK CIR, ALPHARETTA, GA, 30005",17375810,"R"
35744,"12045 LUCKEY RIVER","SAN ANTONIO","TX",78252,29.367034303,-98.731138169,244,"12045 LUCKEY RIVER, SAN ANTONIO, TX, 78252","Match","Non_Exact","12045 LUCKEY VW, SAN ANTONIO, TX, 78252",650691556,"R"
35745,"12045 S EMERALD AVE","CHICAGO","IL",60628,41.675234485,-87.640670443,245,"12045 S EMERALD AVE, CHICAGO, IL, 60628","Match","Exact","12045 S EMERALD AVE, CHICAGO, IL, 60628",605514927,"L"
35746,"12045 SW 116TH AVE","TIGARD","OR",97223,45.432701652,-122.795767192,246,"12045 SW 116TH AVE, TIGARD, OR, 97223","Match","Exact","12045 SW 116TH AVE, TIGARD, OR, 97223",158189825,"R"
35747,"12045 WILLOW GROVE LANE  C/O EVANS","CLERMONT","FL",34711,28.5247500780001,-81.739316214,247,"12045 WILLOW GROVE LANE  C/O EVANS, CLERMONT, FL, 34711","Match","Exact","12045 WILLOW GROVE LN, CLERMONT, FL, 34711",617504199,"L"
35748,"12046 CR 345","WINONA","TX",75792,32.4920137890001,-95.188092071,248,"12046 CR 345, WINONA, TX, 75792","Match","Exact","12046 CO RD 345, WINONA, TX, 75792",141267209,"L"
35749,"12046 LA SALLE OAKS","CONROE","TX",77304,30.3532890430001,-95.541306262,249,"12046 LA SALLE OAKS, CONROE, TX, 77304","Match","Exact","12046 LA SALLE OAKS, CONROE, TX, 77304",79322312,"R"
35750,"12047 HWY 22","SAINT AMANT","LA",70774,30.23942527,-90.795100127,250,"12047 HWY 22, SAINT AMANT, LA, 70774","Match","Non_Exact","12047 STATE RTE 22, SAINT AMANT, LA, 70774",651143466,"L"
35751,"12048 GRAND RIVER AVE","DETROIT","MI",48204,42.3766466440001,-83.15859647,251,"12048 GRAND RIVER AVE, DETROIT, MI, 48204","Match","Exact","12048 GRAND RIVER AVE, DETROIT, MI, 48204",95442883,"R"
35752,"12048 LOVEGRASS STREET","VENICE","FL",34923,27.0612281680001,-82.320806074,252,"12048 LOVEGRASS STREET, VENICE, FL, 34923","Match","Non_Exact","12048 LOVEGRASS ST, VENICE, FL, 34293",650314074,"R"
35753,"12049 BLANCO RD","SAN ANTONIO","TX",78216,29.550912172,-98.512085124,253,"12049 BLANCO RD, SAN ANTONIO, TX, 78216","Match","Exact","12049 BLANCO RD, SAN ANTONIO, TX, 78216",101492818,"L"
35754,"12049 BROAD MEADOW LANE","CLARKSVILLE","MD",21029,39.2256373120001,-76.9312329529999,254,"12049 BROAD MEADOW LANE, CLARKSVILLE, MD, 21029","Match","Exact","12049 BROAD MEADOW LN, CLARKSVILLE, MD, 21029",158938186,"L"
35755,"12049 CESSNA PLACE","BROOKSHIRE","TX",77423,29.936542779,-96.033932206,255,"12049 CESSNA PLACE, BROOKSHIRE, TX, 77423","Match","Exact","12049 CESSNA PL, BROOKSHIRE, TX, 77423",646647706,"L"
35756,"12049 N 2020 RD","ELK CITY","OK",73644,35.273685718,-99.382172785,256,"12049 N 2020 RD, ELK CITY, OK, 73644","Match","Exact","12049 N 2020 RD, ELK CITY, OK, 73644",151549061,"L"
35757,"12049 ORION LANE","WOODBRIDGE","VA",22192,NA,NA,257,"12049 ORION LANE, WOODBRIDGE, VA, 22192","No_Match",NA,NA,NA,NA
35758,"12049 TRAIN ROAD","DEVILS ELBOW","MO",65457,37.8444767490001,-92.061043248,258,"12049 TRAIN ROAD, DEVILS ELBOW, MO, 65457","Match","Exact","12049 TRAIN RD, DEVILS ELBOW, MO, 65457",26393928,"R"
35759,"1205 4TH AVENUE","DEER TRAIL","CO",80105,39.622172617,-104.047993843,259,"1205 4TH AVENUE, DEER TRAIL, CO, 80105","Match","Exact","1205 4TH AVE, DEER TRAIL, CO, 80105",651333444,"L"
35760,"1205 ADAMS ST","ALTUS","OK",73521,34.6294826490001,-99.315385051,260,"1205 ADAMS ST, ALTUS, OK, 73521","Match","Exact","1205 ADAMS ST, ALTUS, OK, 73521",171822356,"R"
35761,"1205 ALTA VISTA RD","VISTA","CA",92084,33.2060649740001,-117.225531506,261,"1205 ALTA VISTA RD, VISTA, CA, 92084","Match","Non_Exact","1205 ALTA VISTA DR, VISTA, CA, 92084",195288815,"R"
35762,"1205 ANDERSON DRIVE","WILLIAMSTON","SC",29697,34.6152698980001,-82.497694259,262,"1205 ANDERSON DRIVE, WILLIAMSTON, SC, 29697","Match","Exact","1205 ANDERSON DR, WILLIAMSTON, SC, 29697",25446141,"R"
35763,"1205 ARLINGTON ROAD","HOPEWELL","VA",23860,37.284337953,-77.2955727409999,263,"1205 ARLINGTON ROAD, HOPEWELL, VA, 23860","Match","Exact","1205 ARLINGTON RD, HOPEWELL, VA, 23860",54150347,"L"
35764,"1205 ASH STREET","ALBEMARLE","NC",28001,35.366252108,-80.203627039,264,"1205 ASH STREET, ALBEMARLE, NC, 28001","Match","Exact","1205 ASH ST, ALBEMARLE, NC, 28001",14079607,"L"
35765,"1205 ATLANTIC AVENUE","BROOKLYN","NY",11216,40.678624175,-73.950807519,265,"1205 ATLANTIC AVENUE, BROOKLYN, NY, 11216","Match","Exact","1205 ATLANTIC AVE, BROOKLYN, NY, 11216",59078863,"L"
35766,"1205 BASSWOOD APT A207","WARRENSBURG","MO",64093,38.7854284700001,-93.733408249,266,"1205 BASSWOOD APT A207, WARRENSBURG, MO, 64093","Match","Exact","1205 BASSWOOD, WARRENSBURG, MO, 64093",628855751,"R"
35767,"1205 BLANCHETTE DR","FLORISSANT","MO",63031,38.7980257350001,-90.346977975,267,"1205 BLANCHETTE DR, FLORISSANT, MO, 63031","Match","Exact","1205 BLANCHETTE DR, FLORISSANT, MO, 63031",100119001,"L"
35768,"1205 BRAMPTON AVE","STATESBORO","GA",30458,32.4112017780001,-81.770830626,268,"1205 BRAMPTON AVE, STATESBORO, GA, 30458","Match","Exact","1205 BRAMPTON AVE, STATESBORO, GA, 30458",641825826,"L"
35769,"1205 BRISTOL STATION COURT","CARTERET","NJ",7008,40.588001638,-74.2189137089999,269,"1205 BRISTOL STATION COURT, CARTERET, NJ, 7008","Match","Exact","1205 BRISTOL STATION CT, CARTERET, NJ, 07008",633353876,"R"
35770,"1205 BROWNFIELD RD","PENSACOLA","FL",32526,30.4837037410001,-87.320919659,270,"1205 BROWNFIELD RD, PENSACOLA, FL, 32526","Match","Exact","1205 BROWNFIELD RD, PENSACOLA, FL, 32526",635558628,"L"
35771,"1205 BROWNFORD","BURLESON","TX",76028,32.5876517730001,-97.297424329,271,"1205 BROWNFORD, BURLESON, TX, 76028","Match","Non_Exact","1205 BROWNFORD DR, BURLESON, TX, 76028",644085627,"L"
35772,"1205 CAMBRIDGE RD","COSHOCTON","OH",43812,40.2604523790001,-81.844350089,272,"1205 CAMBRIDGE RD, COSHOCTON, OH, 43812","Match","Exact","1205 CAMBRIDGE RD, COSHOCTON, OH, 43812",52105497,"L"
35773,"1205 CANE RIDGE LN","LEWISVILLE","NC",27023,36.095970272,-80.4048366649999,273,"1205 CANE RIDGE LN, LEWISVILLE, NC, 27023","Match","Exact","1205 CANE RIDGE LN, LEWISVILLE, NC, 27023",84677234,"R"
35774,"1205 CATALINA AVE","SEAL BEACH","CA",90740,33.748241324,-118.098477857,274,"1205 CATALINA AVE, SEAL BEACH, CA, 90740","Match","Exact","1205 CATALINA AVE, SEAL BEACH, CA, 90740",144012765,"L"
35775,"1205 CENTRAL STREET","LEOMINSTER","MA",1453,42.493089469,-71.7451315499999,275,"1205 CENTRAL STREET, LEOMINSTER, MA, 1453","Match","Exact","1205 CENTRAL ST, LEOMINSTER, MA, 01453",40034574,"R"
35776,"1205 CERRO DRIVE","DUBUQUE","IA",52001,42.517615477,-90.697551462,276,"1205 CERRO DRIVE, DUBUQUE, IA, 52001","Match","Exact","1205 CERRO DR, DUBUQUE, IA, 52001",16907626,"R"
35777,"1205 CINDY LN","CLEBURNE","TX",76033,32.3281200060001,-97.401198019,277,"1205 CINDY LN, CLEBURNE, TX, 76033","Match","Exact","1205 CINDY LN, CLEBURNE, TX, 76033",103522081,"L"
35778,"1205 COAST BLVD UNIT B","LA JOLLA","CA",92037,32.849980918,-117.272177411,278,"1205 COAST BLVD UNIT B, LA JOLLA, CA, 92037","Match","Exact","1205 COAST BLVD, LA JOLLA, CA, 92037",195651631,"R"
35779,"1205 CONSTITUTION DR","PORT ST JOE","FL",32456,29.803568673,-85.301648669,279,"1205 CONSTITUTION DR, PORT ST JOE, FL, 32456","Match","Exact","1205 CONSTITUTION DR, PORT SAINT JOE, FL, 32456",614812634,"R"
35780,"1205 CORMAC STREET","FRANKLIN","TN",37064,35.920215151,-86.921101699,280,"1205 CORMAC STREET, FRANKLIN, TN, 37064","Match","Exact","1205 CORMAC ST, FRANKLIN, TN, 37064",640790170,"L"
35781,"1205 COURTNEY LANE","COPPERAS COVE","TX",76522,31.1394643830001,-97.908758102,281,"1205 COURTNEY LANE, COPPERAS COVE, TX, 76522","Match","Exact","1205 COURTNEY LN, COPPERAS COVE, TX, 76522",651825774,"L"
35782,"1205 CROSSBEND CT","FAYETTEVILLE","NC",28314,35.0528315620001,-79.061297097,282,"1205 CROSSBEND CT, FAYETTEVILLE, NC, 28314","Match","Exact","1205 CROSSBEND CT, FAYETTEVILLE, NC, 28314",64225916,"R"
35783,"1205 DELZELL WOOD","ROGERSVILLE","MO",65742,NA,NA,283,"1205 DELZELL WOOD, ROGERSVILLE, MO, 65742","No_Match",NA,NA,NA,NA
35784,"1205 DOE RUN RD","SHIPPENVILLE","PA",16254,41.217517496,-79.4185599209999,284,"1205 DOE RUN RD, SHIPPENVILLE, PA, 16254","Match","Exact","1205 DOE RUN RD, SHIPPENVILLE, PA, 16254",66232926,"L"
35785,"1205 DRAKE DR SUITE B","DAVIS","CA",95616,NA,NA,285,"1205 DRAKE DR SUITE B, DAVIS, CA, 95616","No_Match",NA,NA,NA,NA
35786,"1205 E 11TH STREET","FORD HEIGHTS","IL",60411,41.511815696,-87.589184372,286,"1205 E 11TH STREET, FORD HEIGHTS, IL, 60411","Match","Exact","1205 11TH ST, FORD HEIGHTS, IL, 60411",111785619,"L"
35787,"1205 E 5TH STREET","ANDERSON","IN",46012,40.1111543850001,-85.664112731,287,"1205 E 5TH STREET, ANDERSON, IN, 46012","Match","Exact","1205 E 5TH ST, ANDERSON, IN, 46012",638706532,"R"
35788,"1205 E COLUMBIA AVE","PHILADELPHIA","PA",19125,NA,NA,288,"1205 E COLUMBIA AVE, PHILADELPHIA, PA, 19125","No_Match",NA,NA,NA,NA
35789,"1205 E COLUMBIA AVENUE","PHILADELPHIA","PA",19125,NA,NA,289,"1205 E COLUMBIA AVENUE, PHILADELPHIA, PA, 19125","No_Match",NA,NA,NA,NA
35790,"1205 E HAROLD DRIVE","SAN TAN VALLEY","AZ",85140,33.233326806,-111.552784952,290,"1205 E HAROLD DRIVE, SAN TAN VALLEY, AZ, 85140","Match","Exact","1205 E HAROLD DR, SAN TAN VALLEY, AZ, 85140",627632063,"L"
35791,"1205 E QUINLAN PKWY","QUINLAN","TX",75474,NA,NA,291,"1205 E QUINLAN PKWY, QUINLAN, TX, 75474","No_Match",NA,NA,NA,NA
35792,"1205 E SEASONS RD","ATHOL","ID",83801,47.918666171,-116.769039871,292,"1205 E SEASONS RD, ATHOL, ID, 83801","Match","Exact","1205 E SEASONS RD, ATHOL, ID, 83801",618107375,"R"
35793,"1205 EAST ALEXANDER STREET","LAFAYETTE","LA",70501,30.254098056,-91.990300598,293,"1205 EAST ALEXANDER STREET, LAFAYETTE, LA, 70501","Match","Exact","1205 E ALEXANDER ST, LAFAYETTE, LA, 70501",85636908,"L"
35794,"1205 EASTERN PARKWAY  17A","BROOKLYN","NY",11213,40.668884179,-73.92860559,294,"1205 EASTERN PARKWAY  17A, BROOKLYN, NY, 11213","Match","Exact","1205 EASTERN PKWY, BROOKLYN, NY, 11213",640852548,"R"
35795,"1205 EASTERN PARKWAY  APT 3A","BROOKLYN","NY",11213,40.668884179,-73.92860559,295,"1205 EASTERN PARKWAY  APT 3A, BROOKLYN, NY, 11213","Match","Exact","1205 EASTERN PKWY, BROOKLYN, NY, 11213",640852548,"R"
35796,"1205 EUTAW PL","BALTIMORE","MD",21217,39.3032933970001,-76.6251700179999,296,"1205 EUTAW PL, BALTIMORE, MD, 21217","Match","Exact","1205 EUTAW PL, BALTIMORE, MD, 21217",206417246,"R"
35797,"1205 FARRAGUT ST NW","WASHINGTON","DC",20011,38.950808786,-77.0282209809999,297,"1205 FARRAGUT ST NW, WASHINGTON, DC, 20011","Match","Exact","1205 FARRAGUT ST NW, WASHINGTON, DC, 20011",76223430,"R"
35798,"1205 FATHERLAND STREET","NASHVILLE","TN",37206,36.174012035,-86.748932036,298,"1205 FATHERLAND STREET, NASHVILLE, TN, 37206","Match","Exact","1205 FATHERLAND ST, NASHVILLE, TN, 37206",647606189,"L"
35799,"1205 FLEET STREET","STURGIS","SD",57885,44.4122624340001,-103.503496478,299,"1205 FLEET STREET, STURGIS, SD, 57885","Match","Non_Exact","1205 FLEET ST, STURGIS, SD, 57785",200907954,"R"
35800,"1205 FLORA WAY","RIDGECREST","CA",93555,35.63213698,-117.69501245,300,"1205 FLORA WAY, RIDGECREST, CA, 93555","Match","Exact","1205 FLORA WAY, RIDGECREST, CA, 93555",109112022,"R"
35801,"1205 FLORES AVE","LADY LAKE","FL",32159,28.9372220020001,-81.952570924,301,"1205 FLORES AVE, LADY LAKE, FL, 32159","Match","Exact","1205 FLORES AVE, LADY LAKE, FL, 32159",94170386,"R"
35802,"1205 GOLD COAST ROAD    APT7","PAPILLION","NE",68046,41.1419835020001,-96.03703583,302,"1205 GOLD COAST ROAD    APT7, PAPILLION, NE, 68046","Match","Exact","1205 GOLD COAST RD, PAPILLION, NE, 68046",28497368,"L"
35803,"1205 HALE ST","PHILA","PA",19111,40.0396147880001,-75.08226695,303,"1205 HALE ST, PHILA, PA, 19111","Match","Exact","1205 HALE ST, PHILA, PA, 19111",131416008,"L"
35804,"1205 HAMPTON DR","JACKSON","MI",49203,42.2141988180001,-84.429044287,304,"1205 HAMPTON DR, JACKSON, MI, 49203","Match","Exact","1205 HAMPTON DR, JACKSON, MI, 49203",17618131,"L"
35805,"1205 HIDEAWAY LN SE","ALBUQUERQUE","NM",87123,35.056239379,-106.486326746,305,"1205 HIDEAWAY LN SE, ALBUQUERQUE, NM, 87123","Match","Exact","1205 HIDEAWAY LN SE, ALBUQUERQUE, NM, 87123",206724214,"L"
35806,"1205 HIGHLAND VILLAGE TRAIL","BIRMINGHAM","AL",35242,33.4128906560001,-86.635673539,306,"1205 HIGHLAND VILLAGE TRAIL, BIRMINGHAM, AL, 35242","Match","Exact","1205 HIGHLAND VILLAGE TRL, BIRMINGHAM, AL, 35242",630201999,"L"
35807,"1205 HIGHWAY 1 N","GREENVILLE","MS",38703,33.4238340680001,-91.0386780109999,307,"1205 HIGHWAY 1 N, GREENVILLE, MS, 38703","Match","Exact","1205 HWY 1 N, GREENVILLE, MS, 38703",639146372,"R"
35808,"1205 HOGBACK","ANN ARBOR","MI",48105,42.263379119,-83.6784809979999,308,"1205 HOGBACK, ANN ARBOR, MI, 48105","Match","Non_Exact","1205 HOGBACK RD, ANN ARBOR, MI, 48105",26044291,"L"
35809,"1205 HOLLY STREET","AUSTIN","TX",78702,30.256266279,-97.734115873,309,"1205 HOLLY STREET, AUSTIN, TX, 78702","Match","Exact","1205 HOLLY ST, AUSTIN, TX, 78702",63948321,"R"
35810,"1205 HUNTER CIRCLE","ORACLE","AZ",85623,32.6120842880001,-110.777486071,310,"1205 HUNTER CIRCLE, ORACLE, AZ, 85623","Match","Non_Exact","1205 N HUNTER CIR, ORACLE, AZ, 85623",129318282,"R"
35811,"1205 INLET PLACE","RALEIGH","NC",27615,35.893335887,-78.6681060889999,311,"1205 INLET PLACE, RALEIGH, NC, 27615","Match","Exact","1205 INLET PL, RALEIGH, NC, 27615",72576688,"L"
35812,"1205 JOHNSON FERRY RD STE 136 - 171","MARIETTA","GA",30068,33.978670354,-84.419194309,312,"1205 JOHNSON FERRY RD STE 136 - 171, MARIETTA, GA, 30068","Match","Exact","1205 JOHNSON FERRY RD, MARIETTA, GA, 30068",17255677,"L"
35813,"1205 JOHNSON FERRY ROAD   SUITE 136","MARIETTA","GA",30068,33.978670354,-84.419194309,313,"1205 JOHNSON FERRY ROAD   SUITE 136, MARIETTA, GA, 30068","Match","Exact","1205 JOHNSON FERRY RD, MARIETTA, GA, 30068",17255677,"L"
35814,"1205 JOHNSON FERRY ROAD STE 136 467","MARIETTA","GA",30068,33.978670354,-84.419194309,314,"1205 JOHNSON FERRY ROAD STE 136 467, MARIETTA, GA, 30068","Match","Exact","1205 JOHNSON FERRY RD, MARIETTA, GA, 30068",17255677,"L"
35815,"1205 JOHNSON FERRY ROAD STE 136-304","MARIETTA","GA",30062,33.978670354,-84.419194309,315,"1205 JOHNSON FERRY ROAD STE 136-304, MARIETTA, GA, 30062","Match","Non_Exact","1205 JOHNSON FERRY RD, MARIETTA, GA, 30068",17255677,"L"
35816,"1205 JUNE STREET","ALBUQUERQUE","NM",87112,35.092928955,-106.523048326,316,"1205 JUNE STREET, ALBUQUERQUE, NM, 87112","Match","Non_Exact","1205 JUNE ST NE, ALBUQUERQUE, NM, 87112",206720007,"L"
35817,"1205 JUNIPER COURT","FORT COLLINS","CO",80521,40.590053857,-105.09819673,317,"1205 JUNIPER COURT, FORT COLLINS, CO, 80521","Match","Exact","1205 JUNIPER CT, FORT COLLINS, CO, 80521",188570740,"L"
35818,"1205 KENSHIRE LANE","RICHARDSON","TX",75081,32.943920092,-96.707251115,318,"1205 KENSHIRE LANE, RICHARDSON, TX, 75081","Match","Exact","1205 KENSHIRE LN, RICHARDSON, TX, 75081",102915701,"L"
35819,"1205 LEONARD STREET","LAS VEGAS","NV",89106,36.1893284510001,-115.158458285,319,"1205 LEONARD STREET, LAS VEGAS, NV, 89106","Match","Non_Exact","1205 LEONARD AVE, LAS VEGAS, NV, 89106",201865190,"L"
35820,"1205 LEVERETT RD 307","WARNER ROBINS","GA",31088,32.601838904,-83.6668257709999,320,"1205 LEVERETT RD 307, WARNER ROBINS, GA, 31088","Match","Exact","1205 LEVERETT RD, WARNER ROBINS, GA, 31088",651788763,"R"
35821,"1205 LEVERETT RD APT 604","WARNER ROBINS","GA",31088,32.601838904,-83.6668257709999,321,"1205 LEVERETT RD APT 604, WARNER ROBINS, GA, 31088","Match","Exact","1205 LEVERETT RD, WARNER ROBINS, GA, 31088",651788763,"R"
35822,"1205 LINDEN AVENUE","NASHVILLE","TN",37212,36.1276666250001,-86.789647181,322,"1205 LINDEN AVENUE, NASHVILLE, TN, 37212","Match","Exact","1205 LINDEN AVE, NASHVILLE, TN, 37212",606381859,"L"
35823,"1205 MACKIE DR","CARROLLTON","TX",75007,32.993529246,-96.917802071,323,"1205 MACKIE DR, CARROLLTON, TX, 75007","Match","Exact","1205 MACKIE DR, CARROLLTON, TX, 75007",103351809,"R"
35824,"1205 MAIN ST","SUSANVILLE","CA",96130,40.417025971,-120.655346286,324,"1205 MAIN ST, SUSANVILLE, CA, 96130","Match","Exact","1205 MAIN ST, SUSANVILLE, CA, 96130",126931362,"R"
35825,"1205 MALABAR DRIVE","KINGSPORT","TN",37660,36.552743369,-82.525649906,325,"1205 MALABAR DRIVE, KINGSPORT, TN, 37660","Match","Exact","1205 MALABAR DR, KINGSPORT, TN, 37660",127829857,"L"
35826,"1205 MARSHALL CREEK ROAD","PHILIPSBURG","MT",59858,46.3469616240001,-113.5075636,326,"1205 MARSHALL CREEK ROAD, PHILIPSBURG, MT, 59858","Match","Exact","1205 MARSHALL CREEK RD, PHILIPSBURG, MT, 59858",611091796,"L"
35827,"1205 MICHAEL AVE","LEWISVILLE","TX",75077,33.0609239730001,-97.0230051519999,327,"1205 MICHAEL AVE, LEWISVILLE, TX, 75077","Match","Exact","1205 MICHAEL AVE, LEWISVILLE, TX, 75077",103388411,"R"
35828,"1205 MILLER RD","NEW CASTLE","PA",16101,40.991832274,-80.379663517,328,"1205 MILLER RD, NEW CASTLE, PA, 16101","Match","Exact","1205 MILLER RD, NEW CASTLE, PA, 16101",65168508,"R"
35829,"1205 MINNESOTA WAY","UPPER MARLBORO","MD",20774,38.872389567,-76.830464841,329,"1205 MINNESOTA WAY, UPPER MARLBORO, MD, 20774","Match","Exact","1205 MINNESOTA WAY, UPPER MARLBORO, MD, 20774",76346540,"L"
35830,"1205 MISSOURI AVE","WEST PLAINS","MO",65775,36.7425427060001,-91.870927614,330,"1205 MISSOURI AVE, WEST PLAINS, MO, 65775","Match","Exact","1205 MISSOURI AVE, WEST PLAINS, MO, 65775",636272998,"L"
35831,"1205 N AUSTIN APT A","DENTON","TX",76201,NA,NA,331,"1205 N AUSTIN APT A, DENTON, TX, 76201","No_Match",NA,NA,NA,NA
35832,"1205 N FIELDER RD","ARLINGTON","TX",76012,32.752700598,-97.131677876,332,"1205 N FIELDER RD, ARLINGTON, TX, 76012","Match","Exact","1205 N FIELDER RD, ARLINGTON, TX, 76012",618450782,"R"
35833,"1205 N MISSOURI STREET","MACON","MO",63552,39.7479298010001,-92.468031001,333,"1205 N MISSOURI STREET, MACON, MO, 63552","Match","Exact","1205 N MISSOURI ST, MACON, MO, 63552",639708759,"L"
35834,"1205 N RENEE AVE","GILBERT","AZ",85234,33.372788546,-111.689860136,334,"1205 N RENEE AVE, GILBERT, AZ, 85234","Match","Exact","1205 N RENEE AVE, GILBERT, AZ, 85234",128786049,"R"
35835,"1205 N TANGLEWOOD CT","ELLENSBURG","WA",98926,47.004182545,-120.518570813,335,"1205 N TANGLEWOOD CT, ELLENSBURG, WA, 98926","Match","Exact","1205 N TANGLEWOOD CT, ELLENSBURG, WA, 98926",651961510,"L"
35836,"1205 NACION AVENUE","CHULA VISTA","CA",91911,32.6178481540001,-117.039982056,336,"1205 NACION AVENUE, CHULA VISTA, CA, 91911","Match","Exact","1205 NACION AVE, CHULA VISTA, CA, 91911",195363811,"L"
35837,"1205 NEW JERSEY ST","LAWRENCE","KS",66044,38.961673309,-95.230071675,337,"1205 NEW JERSEY ST, LAWRENCE, KS, 66044","Match","Exact","1205 NEW JERSEY ST, LAWRENCE, KS, 66044",17685620,"R"
35838,"1205 NORTH 6TH STREET","HARRISBURG","PA",17102,40.2698620260001,-76.8856304139999,338,"1205 NORTH 6TH STREET, HARRISBURG, PA, 17102","Match","Exact","1205 N 6TH ST, HARRISBURG, PA, 17102",636360920,"R"
35839,"1205 NORTH FORMOSA AVENUE SUITE 2","WEST HOLLYWOOD","CA",90046,34.0931128560001,-118.346246932,339,"1205 NORTH FORMOSA AVENUE SUITE 2, WEST HOLLYWOOD, CA, 90046","Match","Exact","1205 N FORMOSA AVE, W HOLLYWOOD, CA, 90046",141599400,"L"
35840,"1205 NORTH MICHIGAN AVE","ATLANTIC CITY","NJ",8401,39.3710001750001,-74.443594543,340,"1205 NORTH MICHIGAN AVE, ATLANTIC CITY, NJ, 8401","Match","Exact","1205 N MICHIGAN AVE, ATLANTIC CITY, NJ, 08401",202490258,"R"
35841,"1205 NW 8TH AVE","CAMAS","WA",98607,45.586007044,-122.421942252,341,"1205 NW 8TH AVE, CAMAS, WA, 98607","Match","Exact","1205 NW 8TH AVE, CAMAS, WA, 98607",158369217,"L"
35842,"1205 PEPPERDINE AVE","EDMOND","OK",73013,35.619143013,-97.466504925,342,"1205 PEPPERDINE AVE, EDMOND, OK, 73013","Match","Exact","1205 PEPPERDINE AVE, EDMOND, OK, 73013",100410467,"L"
35843,"1205 PIPERS CRESCENT APT 418","VIRGINIA BEACH","VA",23454,36.8471321530001,-76.005707493,343,"1205 PIPERS CRESCENT APT 418, VIRGINIA BEACH, VA, 23454","Match","Exact","1205 PIPERS CRES, VIRGINIA BCH, VA, 23454",122283018,"R"
35844,"1205 PREEMAN STREET","BLACKLICK","OH",43004,40.0080124990001,-82.782390011,344,"1205 PREEMAN STREET, BLACKLICK, OH, 43004","Match","Exact","1205 PREEMAN ST, BLACKLICK, OH, 43004",218653576,"R"
35845,"1205 REDCRESTED CT","UPPER MARLBORO","MD",20774,38.872736188,-76.771194704,345,"1205 REDCRESTED CT, UPPER MARLBORO, MD, 20774","Match","Exact","1205 REDCRESTED CT, UPPER MARLBORO, MD, 20774",76345206,"L"
35846,"1205 RIDEAU ROAD","ANDERSON","SC",29625,34.559545896,-82.7256492779999,346,"1205 RIDEAU ROAD, ANDERSON, SC, 29625","Match","Exact","1205 RIDEAU RD, ANDERSON, SC, 29625",25463471,"R"
35847,"1205 S 273RD PLACE","DES MOINES","WA",98198,47.3573965400001,-122.317741305,347,"1205 S 273RD PLACE, DES MOINES, WA, 98198","Match","Exact","1205 S 273RD PL, DES MOINES, WA, 98198",637627959,"L"
35848,"1205 S AIR DEPOT 320","MIDWEST CITY","OK",73110,NA,NA,348,"1205 S AIR DEPOT 320, MIDWEST CITY, OK, 73110","No_Match",NA,NA,NA,NA
35849,"1205 S BROOKSIDE DRIVE","CORNVILLE","AZ",86325,34.7174909460001,-111.917052532,349,"1205 S BROOKSIDE DRIVE, CORNVILLE, AZ, 86325","Match","Exact","1205 BROOKSIDE DR, CORNVILLE, AZ, 86325",159506715,"L"
35850,"1205 S MAIN","KALISPELL","MT",59901,48.1869717380001,-114.309434036,350,"1205 S MAIN, KALISPELL, MT, 59901","Match","Non_Exact","1205 S MAIN ST, KALISPELL, MT, 59901",204087669,"R"
35851,"1205 S SECOND ST SW","TUMWATER","WA",98512,47.005094645,-122.910437442,351,"1205 S SECOND ST SW, TUMWATER, WA, 98512","Match","Non_Exact","1205 2ND AVE SW, TUMWATER, WA, 98512",180944006,"R"
35852,"1205 S SHERIDAN ST","CORONA","CA",92882,33.869274863,-117.571079586,352,"1205 S SHERIDAN ST, CORONA, CA, 92882","Match","Exact","1205 S SHERIDAN ST, CORONA, CA, 92882",194777632,"L"
35853,"1205 S STATE","LITCHFIELD","IL",62056,39.16525841,-89.655652011,353,"1205 S STATE, LITCHFIELD, IL, 62056","Match","Non_Exact","1205 S STATE ST, LITCHFIELD, IL, 62056",99453563,"L"
35854,"1205 S SUTTON","WESTLAND","MI",48186,42.300675111,-83.413678727,354,"1205 S SUTTON, WESTLAND, MI, 48186","Match","Non_Exact","1205 S SUTTON DR, WESTLAND, MI, 48186",95412298,"L"
35855,"1205 S WHITE CHAPEL BLVD SUITE 100","SOUTHLAKE","TX",76092,NA,NA,355,"1205 S WHITE CHAPEL BLVD SUITE 100, SOUTHLAKE, TX, 76092","Tie",NA,NA,NA,NA
35856,"1205 SADIE DR 2","BRYANT","AR",72022,34.5843218200001,-92.501035906,356,"1205 SADIE DR 2, BRYANT, AR, 72022","Match","Exact","1205 SADIE DR, BRYANT, AR, 72022",651564956,"R"
35857,"1205 SANTA FE TRAIL","IRVING","TX",75063,32.935880882,-96.956389309,357,"1205 SANTA FE TRAIL, IRVING, TX, 75063","Match","Exact","1205 SANTA FE TRL, IRVING, TX, 75063",102998509,"L"
35858,"1205 SHORT STREET","MIDDLETOWN","OH",45042,39.525928697,-84.368724605,358,"1205 SHORT STREET, MIDDLETOWN, OH, 45042","Match","Exact","1205 SHORT ST, MIDDLETOWN, OH, 45042",113793275,"R"
35859,"1205 SOUTH 20TH STREET","SHEBOYGAN","WI",53081,43.7421542370001,-87.732125291,359,"1205 SOUTH 20TH STREET, SHEBOYGAN, WI, 53081","Match","Exact","1205 S 20TH ST, SHEBOYGAN, WI, 53081",79496377,"L"
35860,"1205 SOUTH BANANA RIVER DR","MERRITT ISLAND","FL",32952,28.336138921,-80.6605995849999,360,"1205 SOUTH BANANA RIVER DR, MERRITT ISLAND, FL, 32952","Match","Exact","1205 S BANANA RIVER DR, MERRITT ISLAND, FL, 32952",634866978,"R"
35861,"1205 SPRINGHEALTH CT","SAINT AUGUSTINE","FL",32092,29.964888171,-81.526015489,361,"1205 SPRINGHEALTH CT, SAINT AUGUSTINE, FL, 32092","Match","Exact","1205 SPRINGHEALTH CT, SAINT AUGUSTINE, FL, 32092",624586844,"R"
35862,"1205 SW 27TH ST","CAPE CORAL","FM",33914,NA,NA,362,"1205 SW 27TH ST, CAPE CORAL, FM, 33914","No_Match",NA,NA,NA,NA
35863,"1205 SWAN HWY","BIGFORK","MT",59911,NA,NA,363,"1205 SWAN HWY, BIGFORK, MT, 59911","No_Match",NA,NA,NA,NA
35864,"1205 TRICIA LN","BRENHAM","TX",77833,30.152200325,-96.381084457,364,"1205 TRICIA LN, BRENHAM, TX, 77833","Match","Exact","1205 TRICIA LN, BRENHAM, TX, 77833",39236130,"L"
35865,"1205 TROWBRIDGE DR","ALPENA","MI",49707,45.089675502,-83.478309027,365,"1205 TROWBRIDGE DR, ALPENA, MI, 49707","Match","Exact","1205 TROWBRIDGE DR, ALPENA, MI, 49707",633567823,"R"
35866,"1205 TROY-SCHENECTADY ROAD STE 105","LATHAM","NY",12110,42.7706624790001,-73.82128453,366,"1205 TROY-SCHENECTADY ROAD STE 105, LATHAM, NY, 12110","Match","Non_Exact","1205 TROY SCHENECTADY RD, LATHAM, NY, 12110",18363960,"R"
35867,"1205 TUCKER STREET","MCKINNEY","TX",75069,33.202529826,-96.624975959,367,"1205 TUCKER STREET, MCKINNEY, TX, 75069","Match","Non_Exact","1205 W TUCKER ST, MCKINNEY, TX, 75069",123491988,"L"
35868,"1205 W 6TH ST","LOS ANGELES","CA",90017,34.0548442830001,-118.26398158,368,"1205 W 6TH ST, LOS ANGELES, CA, 90017","Match","Exact","1205 W 6TH ST, LOS ANGELES, CA, 90017",141616749,"R"
35869,"1205 W BESSEMER AVE STE 223","GREENSBORO","NC",27408,36.086767094,-79.804165773,369,"1205 W BESSEMER AVE STE 223, GREENSBORO, NC, 27408","Match","Non_Exact","1205 W BESSEMER AVE, GREENSBORO, NC, 27408",131031723,"L"
35870,"1205 W JACKSON AVE","PASADENA","TX",77506,29.707155814,-95.1973520829999,370,"1205 W JACKSON AVE, PASADENA, TX, 77506","Match","Exact","1205 JACKSON AVE, PASADENA, TX, 77506",96098181,"L"
35871,"1205 WEEPINGGATE LANE","SAN JOSE","CA",95136,37.260361738,-121.830140394,371,"1205 WEEPINGGATE LANE, SAN JOSE, CA, 95136","Match","Exact","1205 WEEPINGGATE LN, SAN JOSE, CA, 95136",122924622,"L"
35872,"1205 WEST 19TH COURT","SANFORD","FL",32771,28.794930719,-81.279471192,372,"1205 WEST 19TH COURT, SANFORD, FL, 32771","Match","Exact","1205 W 19TH CT, SANFORD, FL, 32771",93753554,"R"
35873,"1205 WEST 2ND AVENUE","KENNEWICK","WA",99336,46.207189371,-119.135528399,373,"1205 WEST 2ND AVENUE, KENNEWICK, WA, 99336","Match","Exact","1205 W 2ND AVE, KENNEWICK, WA, 99336",174992348,"L"
35874,"1205 WEST HIGHWAY 49 APARTMENT 17","WEST HELENA","AR",72390,NA,NA,374,"1205 WEST HIGHWAY 49 APARTMENT 17, WEST HELENA, AR, 72390","No_Match",NA,NA,NA,NA
35875,"1205 WEST VIRGINIA AVE","MARTINSBURG","WV",25401,39.445184066,-77.975521939,375,"1205 WEST VIRGINIA AVE, MARTINSBURG, WV, 25401","Match","Exact","1205 WEST VIRGINIA AVE, MARTINSBURG, WV, 25401",123380178,"L"
35876,"1205 WESTRIDGE DR","MANSFIELD","TX",76063,32.5810080580001,-97.073186844,376,"1205 WESTRIDGE DR, MANSFIELD, TX, 76063","Match","Exact","1205 WESTRIDGE DR, MANSFIELD, TX, 76063",102118234,"R"
35877,"1205 WHITNEY LANE","ALLENDALE","NJ",7401,41.024216881,-74.127844464,377,"1205 WHITNEY LANE, ALLENDALE, NJ, 7401","Match","Exact","1205 WHITNEY LN, ALLENDALE, NJ, 07401",651697946,"R"
35878,"1205 WILLOW CREEK DR","MIOUNT JOY","PA",17552,40.114804957,-76.4838989789999,378,"1205 WILLOW CREEK DR, MIOUNT JOY, PA, 17552","Match","Non_Exact","1205 WILLOW CREEK DR, MOUNT JOY, PA, 17552",624645549,"L"
35879,"1205 WOODS CIRCLE NE","ATLANTA","GA",30324,33.8421459310001,-84.348125011,379,"1205 WOODS CIRCLE NE, ATLANTA, GA, 30324","Match","Exact","1205 WOODS CIR NE, ATLANTA, GA, 30324",23399862,"L"
35880,"1205","DISTRICT HEIGHTS","MD",20747,NA,NA,380,"1205, DISTRICT HEIGHTS, MD, 20747","No_Match",NA,NA,NA,NA
35881,"12050 BRYDEN ST APT11","DETROIT","MI",48204,42.3765145310001,-83.14578561,381,"12050 BRYDEN ST APT11, DETROIT, MI, 48204","Match","Exact","12050 BRYDEN ST, DETROIT, MI, 48204",95470300,"R"
35882,"12050 MCGREGOR BLVD","FORT MYERS","FL",33919,26.5698982210001,-81.9026192869999,382,"12050 MCGREGOR BLVD, FORT MYERS, FL, 33919","Match","Exact","12050 MCGREGOR BLVD, FORT MYERS, FL, 33919",118103300,"R"
35883,"12050 N BULLARD AVENUE","SURPRISE","AZ",85379,33.5933909710001,-112.376379023,383,"12050 N BULLARD AVENUE, SURPRISE, AZ, 85379","Match","Exact","12050 N BULLARD AVE, SURPRISE, AZ, 85379",614552995,"L"
35884,"12050 OVERSTREET RD","WINDERMERE","FL",34786,28.460616094,-81.559736148,384,"12050 OVERSTREET RD, WINDERMERE, FL, 34786","Match","Exact","12050 OVERSTREET RD, WINDERMERE, FL, 34786",649052865,"L"
35885,"12050 SUMMERGATE CIR C-102","FORT MYERS","FL",33913,26.564885852,-81.7571275079999,385,"12050 SUMMERGATE CIR C-102, FORT MYERS, FL, 33913","Match","Exact","12050 SUMMERGATE CIR, FORT MYERS, FL, 33913",118120434,"L"
35886,"12050 W CARLOTA LANE","SUN CITY","AZ",85373,33.6854306320001,-112.319894142,386,"12050 W CARLOTA LANE, SUN CITY, AZ, 85373","Match","Exact","12050 W CARLOTA LN, SUN CITY, AZ, 85373",244015069,"L"
35887,"12050 WOODS RD","WILTON","CA",95693,38.3578785070001,-121.225926416,387,"12050 WOODS RD, WILTON, CA, 95693","Match","Exact","12050 WOODS RD, WILTON, CA, 95693",133317328,"R"
35888,"12051 GODWIN ROAD","THEODORE","AL",36582,30.44084021,-88.120273847,388,"12051 GODWIN ROAD, THEODORE, AL, 36582","Match","Exact","12051 GODWIN RD, THEODORE, AL, 36582",61918990,"R"
35889,"12051 SMOKEY LANE","RICE","VA",23966,37.389221133,-78.2109123119999,389,"12051 SMOKEY LANE, RICE, VA, 23966","Match","Exact","12051 SMOKEY LN, RICE, VA, 23966",73733105,"R"
35890,"12051","LA JOLLA","CA",92039,NA,NA,390,"12051, LA JOLLA, CA, 92039","No_Match",NA,NA,NA,NA
35891,"12052 LAKE PLACID DR","ST LOUIS","MO",63146,38.680593349,-90.443540641,391,"12052 LAKE PLACID DR, ST LOUIS, MO, 63146","Match","Exact","12052 LAKE PLACID DR, SAINT LOUIS, MO, 63146",100124949,"L"
35892,"12052 MARYHILL CT","MEQUON","WI",53092,43.2375704310001,-87.963311004,392,"12052 MARYHILL CT, MEQUON, WI, 53092","Match","Non_Exact","12052 N MARYHILL CT, MEQUON, WI, 53092",95900931,"R"
35893,"12053 COUNTY ROAD 1110","LOOKEBA","OK",73053,35.40636421,-98.427254557,393,"12053 COUNTY ROAD 1110, LOOKEBA, OK, 73053","Match","Exact","12053 CO RD 1110, LOOKEBA, OK, 73053",92470163,"L"
35894,"12053 COUNTY ROAD 302","NACOGDOCHES","TX",75961,31.571143539,-94.497458389,394,"12053 COUNTY ROAD 302, NACOGDOCHES, TX, 75961","Match","Exact","12053 CO RD 302, NACOGDOCHES, TX, 75961",72438477,"R"
35895,"12053 HIGHWAY 1078","FOLSOM","LA",70437,30.5640305800001,-90.208804523,395,"12053 HIGHWAY 1078, FOLSOM, LA, 70437","Match","Non_Exact","12053 STATE RTE 1078, FOLSOM, LA, 70437",111297703,"R"
35896,"12055 BROOKFIELD CLUB DR","ROSWELL","GA",30075,34.0776147990001,-84.40731784,396,"12055 BROOKFIELD CLUB DR, ROSWELL, GA, 30075","Match","Exact","12055 BROOKFIELD CLUB DR, ROSWELL, GA, 30075",17373416,"R"
35897,"12055 HADLEY RD","GREGORY","MI",48137,42.412765339,-84.045021155,397,"12055 HADLEY RD, GREGORY, MI, 48137","Match","Exact","12055 HADLEY RD, GREGORY, MI, 48137",26008022,"R"
35898,"12055 N ANWAY RD","MARANA","AZ",85653,32.423569871,-111.321452828,398,"12055 N ANWAY RD, MARANA, AZ, 85653","Match","Exact","12055 N ANWAY RD, MARANA, AZ, 85653",121220945,"L"
35899,"12055 OAKVIEW WAY","SAN DIEGO","CA",92128,32.9378260980001,-117.068725858,399,"12055 OAKVIEW WAY, SAN DIEGO, CA, 92128","Match","Exact","12055 OAKVIEW WAY, SAN DIEGO, CA, 92128",195656900,"R"
35900,"12055 OSPREY AVE","WEEKI WACHEE","FL",34614,28.597767579,-82.524976677,400,"12055 OSPREY AVE, WEEKI WACHEE, FL, 34614","Match","Exact","12055 OSPREY AVE, WEEKI WACHEE, FL, 34614",85445120,"R"
35901,"12055 PREST","DETROIT","MI",48227,42.375595214,-83.196571994,401,"12055 PREST, DETROIT, MI, 48227","Match","Non_Exact","12055 PREST ST, DETROIT, MI, 48227",95441554,"L"
35902,"12055 S NORMAL AVE","CHICAGO","IL",60628,41.6750790410001,-87.634587591,402,"12055 S NORMAL AVE, CHICAGO, IL, 60628","Match","Exact","12055 S NORMAL AVE, CHICAGO, IL, 60628",111834370,"L"
35903,"12055 SW 240 STREET","PRINCETON","FL",33032,25.5442021310001,-80.386909325,403,"12055 SW 240 STREET, PRINCETON, FL, 33032","Match","Exact","12055 SW 240TH ST, PRINCETON, FL, 33032",115990974,"R"
35904,"12055 SW 73RD AVE","MIAMI","FL",33156,25.6589562550001,-80.312689832,404,"12055 SW 73RD AVE, MIAMI, FL, 33156","Match","Exact","12055 SW 73RD AVE, MIAMI, FL, 33156",115985204,"L"
35905,"12055 VANCE JACKSON ROAD SUITE 103","SAN ANTONIO","TX",78230,29.5586588250001,-98.578883096,405,"12055 VANCE JACKSON ROAD SUITE 103, SAN ANTONIO, TX, 78230","Match","Exact","12055 VANCE JACKSON RD, SAN ANTONIO, TX, 78230",609297976,"R"
35906,"12056 CALLE DE LEON UNIT 61","EL CAJON","CA",92019,32.753762286,-116.928465577,406,"12056 CALLE DE LEON UNIT 61, EL CAJON, CA, 92019","Match","Non_Exact","12056 CLL DE LEON, EL CAJON, CA, 92019",195656300,"L"
35907,"12056 MEADOW GATE","EL PASO","TX",79936,31.7578230820001,-106.280563591,407,"12056 MEADOW GATE, EL PASO, TX, 79936","Match","Non_Exact","12056 MEADOW GATE DR, EL PASO, TX, 79936",189377159,"L"
35908,"12057 FERNCREST PLACE","SAN DIEGO","CA",92128,32.9722744650001,-117.071298539,408,"12057 FERNCREST PLACE, SAN DIEGO, CA, 92128","Match","Exact","12057 FERNCREST PL, SAN DIEGO, CA, 92128",195660270,"R"
35909,"12057 OLMSTEAD DRIVE","FAYETTEVILLE","GA",30215,33.4263093370001,-84.3993660789999,409,"12057 OLMSTEAD DRIVE, FAYETTEVILLE, GA, 30215","Match","Exact","12057 OLMSTEAD DR, FAYETTEVILLE, GA, 30215",23329593,"R"
35910,"12057 SW 253RD ST","HOMESTEAD","FL",33032,25.532293441,-80.3866774799999,410,"12057 SW 253RD ST, HOMESTEAD, FL, 33032","Match","Exact","12057 SW 253RD ST, HOMESTEAD, FL, 33032",642095737,"R"
35911,"12057 TECH RD STE B","SILVER SPRING","MD",20904,39.05256539,-76.9689738549999,411,"12057 TECH RD STE B, SILVER SPRING, MD, 20904","Match","Exact","12057 TECH RD, SILVER SPRING, MD, 20904",62073845,"R"
35912,"12057 TECH RD","SILVER SPRING","MD",20904,39.05256539,-76.9689738549999,412,"12057 TECH RD, SILVER SPRING, MD, 20904","Match","Exact","12057 TECH RD, SILVER SPRING, MD, 20904",62073845,"R"
35913,"12057 ZIP LANE","MADRID","IA",50156,41.8624431590001,-93.831468759,413,"12057 ZIP LANE, MADRID, IA, 50156","Match","Exact","12057 ZIP LN, MADRID, IA, 50156",651765219,"L"
35914,"12058 FISHER ROAD","WHITAKERS","NC",27891,36.1136084730001,-77.72847444,414,"12058 FISHER ROAD, WHITAKERS, NC, 27891","Match","Exact","12058 FISHER RD, WHITAKERS, NC, 27891",90398010,"R"
35915,"12058 MALLARD STREAM STREET","HOUSTON","TX",77038,29.908798475,-95.462733703,415,"12058 MALLARD STREAM STREET, HOUSTON, TX, 77038","Match","Non_Exact","12058 MALLARD STREAM CT, HOUSTON, TX, 77038",624580611,"L"
35916,"12059 NW VALLEY VISTA ROAD","HILLSBORO","OR",97124,45.606363742,-122.892459245,416,"12059 NW VALLEY VISTA ROAD, HILLSBORO, OR, 97124","Match","Exact","12059 NW VALLEY VISTA RD, HILLSBORO, OR, 97124",635888881,"R"
35917,"1206 2ND ST NW","MANDAN","ND",58554,46.8268816140001,-100.907251836,417,"1206 2ND ST NW, MANDAN, ND, 58554","Match","Exact","1206 2ND ST NW, MANDAN, ND, 58554",199032377,"R"
35918,"1206 2ND STREET NE SUITE 205","MINNEAPOLIS","MN",55413,44.999956974,-93.2661542989999,418,"1206 2ND STREET NE SUITE 205, MINNEAPOLIS, MN, 55413","Match","Exact","1206 2ND ST NE, MINNEAPOLIS, MN, 55413",43631719,"L"
35919,"1206 AMMONS ROAD","DUNN","NC",28334,35.2799455860001,-78.6228829299999,419,"1206 AMMONS ROAD, DUNN, NC, 28334","Match","Exact","1206 AMMONS RD, DUNN, NC, 28334",635886380,"L"
35920,"1206 ANVIL CT","UNIVERSITY PARK","IL",60484,41.4299944470001,-87.673543974,420,"1206 ANVIL CT, UNIVERSITY PARK, IL, 60484","Match","Exact","1206 ANVIL CT, UNIVERSITY PARK, IL, 60484",111607331,"L"
35921,"1206 APOLLO RD BOX 850845","RICHARDSON","TX",75085,32.9534756260001,-96.7046822679999,421,"1206 APOLLO RD BOX 850845, RICHARDSON, TX, 75085","Match","Non_Exact","1206 APOLLO RD, RICHARDSON, TX, 75081",103163964,"R"
35922,"1206 ARDEN WAY","JACKSONVILLE BEACH","FL",32250,30.3068404950001,-81.404320288,422,"1206 ARDEN WAY, JACKSONVILLE BEACH, FL, 32250","Match","Exact","1206 ARDEN WAY, JACKSONVILLE BEACH, FL, 32250",83922954,"L"
35923,"1206 ASHLEIGH STATION CT","BOWIE","MD",20721,38.9056531320001,-76.737623432,423,"1206 ASHLEIGH STATION CT, BOWIE, MD, 20721","Match","Exact","1206 ASHLEIGH STATION CT, BOWIE, MD, 20721",624352696,"L"
35924,"1206 AVENUE ST","MCDONOUGH","GA",30253,33.4231546020001,-84.196645194,424,"1206 AVENUE ST, MCDONOUGH, GA, 30253","Match","Exact","1206 AVENUE ST, MCDONOUGH, GA, 30253",649955380,"L"
35925,"1206 BERGEN STREET APT C5G","BROOKLYN","NY",11213,40.6758447390001,-73.945405764,425,"1206 BERGEN STREET APT C5G, BROOKLYN, NY, 11213","Match","Exact","1206 BERGEN ST, BROOKLYN, NY, 11213",650085807,"R"
35926,"1206 BIRCH AVENUE","YARDLEY","PA",19067,40.215494762,-74.799180156,426,"1206 BIRCH AVENUE, YARDLEY, PA, 19067","Match","Exact","1206 BIRCH AVE, YARDLEY, PA, 19067",134723496,"R"
35927,"1206 BITTERSWEET COVE","DESOTO","TX",75115,32.5703389440001,-96.873384804,427,"1206 BITTERSWEET COVE, DESOTO, TX, 75115","Match","Exact","1206 BITTERSWEET COVE, DESOTO, TX, 75115",102995234,"R"
35928,"1206 BRAWLEY SCHOOL RD","MOORESVILLE","NC",28117,35.5671686530001,-80.908122127,428,"1206 BRAWLEY SCHOOL RD, MOORESVILLE, NC, 28117","Match","Exact","1206 BRAWLEY SCHOOL RD, MOORESVILLE, NC, 28117",646473487,"L"
35929,"1206 BULTMAN ROAD","MADISON","WI",53704,43.1159198140001,-89.294482322,429,"1206 BULTMAN ROAD, MADISON, WI, 53704","Match","Exact","1206 BULTMAN RD, MADISON, WI, 53704",640726625,"L"
35930,"1206 CANTERBURY COURT","ARLINGTON","TX",76013,32.7261288350001,-97.168419399,430,"1206 CANTERBURY COURT, ARLINGTON, TX, 76013","Match","Exact","1206 CANTERBURY CT, ARLINGTON, TX, 76013",101904630,"R"
35931,"1206 CHADWELL COURT","ODENTON","MD",21113,39.092742818,-76.705187426,431,"1206 CHADWELL COURT, ODENTON, MD, 21113","Match","Exact","1206 CHADWELL CT, ODENTON, MD, 21113",649048206,"L"
35932,"1206 CONSTITUTION DR","CHATTANOOGA","TN",37405,35.0594906430001,-85.2893271459999,432,"1206 CONSTITUTION DR, CHATTANOOGA, TN, 37405","Match","Exact","1206 CONSTITUTION DR, CHATTANOOGA, TN, 37405",59327482,"R"
35933,"1206 COOLIDGE AVE","PEKIN","IL",61554,40.5855921720001,-89.634552672,433,"1206 COOLIDGE AVE, PEKIN, IL, 61554","Match","Exact","1206 COOLIDGE AVE, PEKIN, IL, 61554",22497533,"R"
35934,"1206 CORAL CLUB DRIVE","CORAL SPRINGS","FL",33071,26.243515169,-80.2685322419999,434,"1206 CORAL CLUB DRIVE, CORAL SPRINGS, FL, 33071","Match","Exact","1206 CORAL CLUB DR, CORAL SPRINGS, FL, 33071",114785025,"L"
35935,"1206 DEARING ST","LYNCHBURG","VA",24503,37.430821123,-79.152635484,435,"1206 DEARING ST, LYNCHBURG, VA, 24503","Match","Exact","1206 DEARING ST, LYNCHBURG, VA, 24503",62647004,"R"
35936,"1206 DEBRA LANE","MADISON","WI",53704,43.1473695080001,-89.375170091,436,"1206 DEBRA LANE, MADISON, WI, 53704","Match","Exact","1206 DEBRA LN, MADISON, WI, 53704",49470800,"L"
35937,"1206 DIAMOND DRAPE DR","IOWA COLONY","TX",77583,29.445360431,-95.458788404,437,"1206 DIAMOND DRAPE DR, IOWA COLONY, TX, 77583","Match","Exact","1206 DIAMOND DRAPE DR, IOWA COLONY, TX, 77583",651893818,"R"
35938,"1206 E BEST AVENUE","COEUR D ALENE","ID",83814,47.70074592,-116.768706062,438,"1206 E BEST AVENUE, COEUR D ALENE, ID, 83814","Match","Exact","1206 E BEST AVE, COEUR D ALENE, ID, 83814",192904695,"L"
35939,"1206 E CAMPBELL AVE","CAMPBELL","CA",95008,NA,NA,439,"1206 E CAMPBELL AVE, CAMPBELL, CA, 95008","Tie",NA,NA,NA,NA
35940,"1206 E HARBOR VIEW DRIVE","TEMPE","AZ",85283,33.3761436290001,-111.918650541,440,"1206 E HARBOR VIEW DRIVE, TEMPE, AZ, 85283","Match","Exact","1206 E HARBOR VIEW DR, TEMPE, AZ, 85283",128889448,"R"
35941,"1206 E LAKE ST","MINNEAPOLIS","MN",55407,44.9483605730001,-93.257416739,441,"1206 E LAKE ST, MINNEAPOLIS, MN, 55407","Match","Exact","1206 E LAKE ST, MINNEAPOLIS, MN, 55407",43634675,"L"
35942,"1206 E SAGE RIDGE RD","SANDY","UT",84094,40.5327950340001,-111.855963023,442,"1206 E SAGE RIDGE RD, SANDY, UT, 84094","Match","Exact","1206 SAGE RIDGE RD, SANDY, UT, 84094",176116060,"R"
35943,"1206 EAGLE CREST BLVD SW","JACKSONVILLE","AL",36265,33.7922033470001,-85.770983776,443,"1206 EAGLE CREST BLVD SW, JACKSONVILLE, AL, 36265","Match","Exact","1206 EAGLE CREST BLVD SW, JACKSONVILLE, AL, 36265",66559398,"R"
35944,"1206 EMBURY AVE","NEPTUNE","NJ",7753,40.2120927,-74.0208310099999,444,"1206 EMBURY AVE, NEPTUNE, NJ, 7753","Match","Exact","1206 EMBURY AVE, NEPTUNE, NJ, 07753",90463964,"L"
35945,"1206 GENEVA STREET","GLENDALE","CA",91207,34.1635993350001,-118.246287825,445,"1206 GENEVA STREET, GLENDALE, CA, 91207","Match","Exact","1206 GENEVA ST, GLENDALE, CA, 91207",141609343,"R"
35946,"1206 GRANT ST","DANDRIDGE","TN",37725,36.0246093810001,-83.404221575,446,"1206 GRANT ST, DANDRIDGE, TN, 37725","Match","Exact","1206 GRANT ST, DANDRIDGE, TN, 37725",618083790,"L"
35947,"1206 HACKBERRY DR","MARBLE FALLS","TX",78654,30.5569982980001,-98.29331773,447,"1206 HACKBERRY DR, MARBLE FALLS, TX, 78654","Match","Exact","1206 HACKBERRY DR, MARBLE FALLS, TX, 78654",653792546,"L"
35948,"1206 HECK AVE","NEPTUNE","NJ",7753,40.212842489,-74.021092521,448,"1206 HECK AVE, NEPTUNE, NJ, 7753","Match","Exact","1206 HECK AVE, NEPTUNE, NJ, 07753",90463667,"L"
35949,"1206 HENDRICKS","DALLAS","TX",75216,32.7381924490001,-96.806360054,449,"1206 HENDRICKS, DALLAS, TX, 75216","Match","Non_Exact","1206 HENDRICKS AVE, DALLAS, TX, 75216",102949764,"R"
35950,"1206 HIGHWAY 22","SPARTA","GA",31087,33.1607504200001,-83.080796564,450,"1206 HIGHWAY 22, SPARTA, GA, 31087","Match","Non_Exact","1206 STATE RTE 22, SPARTA, GA, 31087",639064927,"R"
35951,"1206 HORSETRAIL CT","HAMILTON","OH",45013,39.386466037,-84.631985646,451,"1206 HORSETRAIL CT, HAMILTON, OH, 45013","Match","Non_Exact","1206 HORSE TRAIL CT, HAMILTON, OH, 45013",617663683,"R"
35952,"1206 HUMMINGBIRD COURT","ROUND ROCK","TX",78681,30.518820867,-97.712981086,452,"1206 HUMMINGBIRD COURT, ROUND ROCK, TX, 78681","Match","Exact","1206 HUMMINGBIRD CT, ROUND ROCK, TX, 78681",126451990,"R"
35953,"1206 HUNTERS WAY","BOZEMAN","MT",59718,45.691343003,-111.077135902,453,"1206 HUNTERS WAY, BOZEMAN, MT, 59718","Match","Exact","1206 HUNTERS WAY, BOZEMAN, MT, 59718",163549784,"R"
35954,"1206 JESSIE LANE","LANCASTER","TX",75146,32.5954297490001,-96.7762270809999,454,"1206 JESSIE LANE, LANCASTER, TX, 75146","Match","Exact","1206 JESSIE LN, LANCASTER, TX, 75146",619595914,"L"
35955,"1206 KAY LYNN DR","BELLEVUE","NE",68005,41.1480167190001,-95.908373319,455,"1206 KAY LYNN DR, BELLEVUE, NE, 68005","Match","Exact","1206 KAY LYNN DR, BELLEVUE, NE, 68005",28471062,"R"
35956,"1206 LADELLE AVE","DELL RAPIDS","SD",57022,43.8310853680001,-96.711882411,456,"1206 LADELLE AVE, DELL RAPIDS, SD, 57022","Match","Exact","1206 LADELLE AVE, DELL RAPIDS, SD, 57022",622111710,"R"
35957,"1206 LEXINGTON AVE","FORD HEIGHTS","IL",60411,41.5099339440001,-87.588532001,457,"1206 LEXINGTON AVE, FORD HEIGHTS, IL, 60411","Match","Exact","1206 LEXINGTON AVE, FORD HEIGHTS, IL, 60411",111785667,"R"
35958,"1206 LOCUST STREET SOUTH","CANAL FULTON","OH",44614,40.8856580280001,-81.5847979759999,458,"1206 LOCUST STREET SOUTH, CANAL FULTON, OH, 44614","Match","Exact","1206 LOCUST ST S, CANAL FULTON, OH, 44614",64706859,"L"
35959,"1206 LOMITA BLVD UNIT 6B","HARBOR CITY","CA",90710,33.7977565690001,-118.298896898,459,"1206 LOMITA BLVD UNIT 6B, HARBOR CITY, CA, 90710","Match","Non_Exact","1206 W LOMITA BLVD, HARBOR CITY, CA, 90710",141669288,"L"
35960,"1206 MARTIN LUTHER KING BLVD","SAVANNAH","GA",31415,32.06522876,-81.1029507059999,460,"1206 MARTIN LUTHER KING BLVD, SAVANNAH, GA, 31415","Match","Exact","1206 MARTIN LUTHER KING JR BLVD, SAVANNAH, GA, 31415",6171130,"L"
35961,"1206 MARTIN LUTHER KING JR BLVD","SAVANNAH","GA",31415,32.06522876,-81.1029507059999,461,"1206 MARTIN LUTHER KING JR BLVD, SAVANNAH, GA, 31415","Match","Exact","1206 MARTIN LUTHER KING JR BLVD, SAVANNAH, GA, 31415",6171130,"L"
35962,"1206 MEREDITH DRIVE","BISMARCK","ND",58501,46.819459253,-100.789845166,462,"1206 MEREDITH DRIVE, BISMARCK, ND, 58501","Match","Exact","1206 MEREDITH DR, BISMARCK, ND, 58501",198847988,"L"
35963,"1206 MERIDIAN STREET","ANDERSON","IN",46016,40.1039916450001,-85.679201416,463,"1206 MERIDIAN STREET, ANDERSON, IN, 46016","Match","Exact","1206 MERIDIAN ST, ANDERSON, IN, 46016",31114269,"L"
35964,"1206 MESA DR","BELTON","MO",64012,38.7952738980001,-94.547054519,464,"1206 MESA DR, BELTON, MO, 64012","Match","Exact","1206 MESA DR, BELTON, MO, 64012",614096297,"L"
35965,"1206 MLK JR BLVD","SAVANNAH","GA",31415,32.06522876,-81.1029507059999,465,"1206 MLK JR BLVD, SAVANNAH, GA, 31415","Match","Exact","1206 MARTIN LUTHER KING JR BLVD, SAVANNAH, GA, 31415",6171130,"L"
35966,"1206 N 6TH STREET","BISMARCK","ND",58501,NA,NA,466,"1206 N 6TH STREET, BISMARCK, ND, 58501","No_Match",NA,NA,NA,NA
35967,"1206 N GATES ST","SANTA ANA","CA",92703,33.755030033,-117.925179072,467,"1206 N GATES ST, SANTA ANA, CA, 92703","Match","Exact","1206 N GATES ST, SANTA ANA, CA, 92703",144257135,"L"
35968,"1206 N HICKORY","CHAMPAIGN","IL",61820,40.1273780450001,-88.242329604,468,"1206 N HICKORY, CHAMPAIGN, IL, 61820","Match","Non_Exact","1206 N HICKORY ST, CHAMPAIGN, IL, 61820",8811033,"R"
35969,"1206 N ORIANNA ST NUM 5","PHILADELPHIA","PA",19122,39.9699373930001,-75.1423626449999,469,"1206 N ORIANNA ST NUM 5, PHILADELPHIA, PA, 19122","Match","Non_Exact","1206 N ORIANNA ST, PHILADELPHIA, PA, 19122",652295596,"L"
35970,"1206 N POINTER STREET","TERRE HAUTE","IN",47803,39.481047167,-87.2922308999999,470,"1206 N POINTER STREET, TERRE HAUTE, IN, 47803","Match","Exact","1206 POINTER ST, TERRE HAUTE, IN, 47803",27126776,"R"
35971,"1206 NECK ROAD","PONTE VEDRA BEACH","FL",32082,30.151893167,-81.363709109,471,"1206 NECK ROAD, PONTE VEDRA BEACH, FL, 32082","Match","Exact","1206 NECK RD, PONTE VEDRA BEACH, FL, 32082",650427864,"L"
35972,"1206 NEW BRUNSWICK AVE","PISCATAWAY","NJ",8854,40.5903420120001,-74.44038857,472,"1206 NEW BRUNSWICK AVE, PISCATAWAY, NJ, 8854","Match","Exact","1206 NEW BRUNSWICK AVE, PISCATAWAY, NJ, 08854",647272356,"R"
35973,"1206 NORTH NOBLE RD","TEXAS CITY","TX",77591,29.3943364690001,-95.0068913709999,473,"1206 NORTH NOBLE RD, TEXAS CITY, TX, 77591","Match","Exact","1206 N NOBLE RD, TEXAS CITY, TX, 77591",96675212,"R"
35974,"1206 NW 4TH STREET","BATTLE GROUND","WA",98604,45.783978216,-122.55083323,474,"1206 NW 4TH STREET, BATTLE GROUND, WA, 98604","Match","Exact","1206 NW 4TH ST, BATTLE GROUND, WA, 98604",158349661,"L"
35975,"1206 OAK ST","MUSCATINE","IA",52761,41.433542371,-91.047660203,475,"1206 OAK ST, MUSCATINE, IA, 52761","Match","Exact","1206 OAK ST, MUSCATINE, IA, 52761",98995576,"L"
35976,"1206 OSBORNE DR","FRIENDSWOOD","TX",77546,29.51056664,-95.197518481,476,"1206 OSBORNE DR, FRIENDSWOOD, TX, 77546","Match","Exact","1206 OSBORNE DR, FRIENDSWOOD, TX, 77546",96681881,"L"
35977,"1206 PACIFIC STREET APT 3D","BROOKLYN","NY",11216,40.677760902,-73.951533129,477,"1206 PACIFIC STREET APT 3D, BROOKLYN, NY, 11216","Match","Exact","1206 PACIFIC ST, BROOKLYN, NY, 11216",59079350,"R"
35978,"1206 PINSONFORK DR","SPRING","TX",77379,30.0308594850001,-95.564466526,478,"1206 PINSONFORK DR, SPRING, TX, 77379","Match","Exact","1206 PINSONFORK DR, SPRING, TX, 77379",96567074,"R"
35979,"1206 PROCTOR DRIVE","WEST MEMPHIS","AR",72301,35.1587490380001,-90.170014064,479,"1206 PROCTOR DRIVE, WEST MEMPHIS, AR, 72301","Match","Non_Exact","1206 PROCTOR RD, WEST MEMPHIS, AR, 72301",69372667,"R"
35980,"1206 QUARRIER ST","CHARLESTON","WV",25301,38.346265868,-81.630283116,480,"1206 QUARRIER ST, CHARLESTON, WV, 25301","Match","Exact","1206 QUARRIER ST, CHARLESTON, WV, 25301",78593606,"L"
35981,"1206 RAMBLE DRIVE","FREDERICKSBURG","VA",22401,NA,NA,481,"1206 RAMBLE DRIVE, FREDERICKSBURG, VA, 22401","No_Match",NA,NA,NA,NA
35982,"1206 RUSSELL STREET","NORMAL","IL",61761,40.5060308440001,-89.009462163,482,"1206 RUSSELL STREET, NORMAL, IL, 61761","Match","Exact","1206 RUSSELL ST, NORMAL, IL, 61761",20544124,"R"
35983,"1206 S JOLIET CT APT 7-304","AURORA","CO",80012,NA,NA,483,"1206 S JOLIET CT APT 7-304, AURORA, CO, 80012","No_Match",NA,NA,NA,NA
35984,"1206 S JOLIET CT","AURORA","CO",80012,39.6948980270001,-104.861807518,484,"1206 S JOLIET CT, AURORA, CO, 80012","Match","Non_Exact","1206 S JOLIET ST, AURORA, CO, 80012",633059181,"R"
35985,"1206 S RUSSELL ST","SKIATOOK","OK",74070,36.3558651340001,-96.00525069,485,"1206 S RUSSELL ST, SKIATOOK, OK, 74070","Match","Exact","1206 S RUSSELL ST, SKIATOOK, OK, 74070",82335402,"L"
35986,"1206 SANDY POINT RD","KNOXVILLE","GA",31050,32.7559331260001,-83.9331017649999,486,"1206 SANDY POINT RD, KNOXVILLE, GA, 31050","Match","Exact","1206 SANDY POINT RD, KNOXVILLE, GA, 31050",635641516,"L"
35987,"1206 SEILER AVENUE","SAVANNAH","GA",31404,32.051629033,-81.08185114,487,"1206 SEILER AVENUE, SAVANNAH, GA, 31404","Match","Exact","1206 SEILER AVE, SAVANNAH, GA, 31404",6176983,"L"
35988,"1206 SHAWNEE TRAIL","YOUNGSTOWN","OH",44511,41.081723874,-80.6896707989999,488,"1206 SHAWNEE TRAIL, YOUNGSTOWN, OH, 44511","Match","Exact","1206 SHAWNEE TRL, YOUNGSTOWN, OH, 44511",64594739,"R"
35989,"1206 SOUTH FOURTH STREET ROOM 2005","CHAMPAIGN","IL",61820,40.1037794000001,-88.233413594,489,"1206 SOUTH FOURTH STREET ROOM 2005, CHAMPAIGN, IL, 61820","Match","Exact","1206 S 4TH ST, CHAMPAIGN, IL, 61820",8812062,"L"
35990,"1206 SOUTH GLENDALE AVENUE UNIT 363","GLENDALE","CA",91205,34.132438818,-118.252089914,490,"1206 SOUTH GLENDALE AVENUE UNIT 363, GLENDALE, CA, 91205","Match","Exact","1206 S GLENDALE AVE, GLENDALE, CA, 91205",241240481,"L"
35991,"1206 ST CHARLES AVENUE","NEW ORLEANS","LA",70130,29.9411533360001,-90.073817778,491,"1206 ST CHARLES AVENUE, NEW ORLEANS, LA, 70130","Match","Exact","1206 SAINT CHARLES AVE, NEW ORLEANS, LA, 70130",191714393,"L"
35992,"1206 TRAFALGER DRIVE","TRINITY","FL",34655,28.176544419,-82.688338227,492,"1206 TRAFALGER DRIVE, TRINITY, FL, 34655","Match","Non_Exact","1206 TRAFALGAR DR, TRINITY, FL, 34655",86379995,"R"
35993,"1206 W 19TH AVE","GARY","IN",46407,41.5841592410001,-87.3517651189999,493,"1206 W 19TH AVE, GARY, IN, 46407","Match","Exact","1206 W 19TH AVE, GARY, IN, 46407",98426213,"R"
35994,"1206 W ELMWOOD CT","SPOKANE","WA",99218,47.7682471970001,-117.424824692,494,"1206 W ELMWOOD CT, SPOKANE, WA, 99218","Match","Exact","1206 W ELMWOOD CT, SPOKANE, WA, 99218",189868156,"R"
35995,"1206 W FRANKLIN STREET","ELKHART","IN",46516,41.679319418,-85.985928295,495,"1206 W FRANKLIN STREET, ELKHART, IN, 46516","Match","Exact","1206 W FRANKLIN ST, ELKHART, IN, 46516",7750163,"R"
35996,"1206 WEST 30TH AVENUE","KENNEWICK","WA",99337,46.181752798,-119.135757846,496,"1206 WEST 30TH AVENUE, KENNEWICK, WA, 99337","Match","Exact","1206 W 30TH AVE, KENNEWICK, WA, 99337",606989703,"R"
35997,"1206 WEST HILLSDALE BLVD SUITE D","SAN MATEO","CA",94403,NA,NA,497,"1206 WEST HILLSDALE BLVD SUITE D, SAN MATEO, CA, 94403","No_Match",NA,NA,NA,NA
35998,"1206 WHALEY STREET","COLUMBIA","SC",29201,33.9878932620001,-81.027143829,498,"1206 WHALEY STREET, COLUMBIA, SC, 29201","Match","Exact","1206 WHALEY ST, COLUMBIA, SC, 29201",71827771,"R"
35999,"1206 WORMWOOD BRANCH CT","HAVELOCK","NC",28532,34.875636641,-76.877039866,499,"1206 WORMWOOD BRANCH CT, HAVELOCK, NC, 28532","Match","Exact","1206 WORMWOOD BRANCH CT, HAVELOCK, NC, 28532",34125413,"L"
36000,"12060 BELLAIRE BLVD STE G","HOUSTON","TX",77072,29.703679618,-95.591493714,500,"12060 BELLAIRE BLVD STE G, HOUSTON, TX, 77072","Match","Exact","12060 BELLAIRE BLVD, HOUSTON, TX, 77072",96023750,"L"
