"ID","Address","City","State","Zip","lat","long","id","input_address","match_indicator","match_type","matched_address","tiger_line_id","tiger_side"
340001,"PO BOX 2222","STREETSBORO","OH",44241,NA,NA,1,"PO BOX 2222, STREETSBORO, OH, 44241","No_Match",NA,NA,NA,NA
340002,"PO BOX 222204","DALLAS","TX",75222,NA,NA,2,"PO BOX 222204, DALLAS, TX, 75222","No_Match",NA,NA,NA,NA
340003,"PO BOX 2223","BRYSON CITY","NC",28713,NA,NA,3,"PO BOX 2223, BRYSON CITY, NC, 28713","No_Match",NA,NA,NA,NA
340004,"PO BOX 2223","LA CROSSE","WI",54602,NA,NA,4,"PO BOX 2223, LA CROSSE, WI, 54602","No_Match",NA,NA,NA,NA
340005,"PO BOX 2223","LAURINBURG","NC",28353,NA,NA,5,"PO BOX 2223, LAURINBURG, NC, 28353","No_Match",NA,NA,NA,NA
340006,"PO BOX 2223","MEDFORD","NJ",8055,NA,NA,6,"PO BOX 2223, MEDFORD, NJ, 8055","No_Match",NA,NA,NA,NA
340007,"PO BOX 2223","OLYMPIA","WA",98507,NA,NA,7,"PO BOX 2223, OLYMPIA, WA, 98507","No_Match",NA,NA,NA,NA
340008,"PO BOX 2223","SAINT LOUIS","MO",63116,NA,NA,8,"PO BOX 2223, SAINT LOUIS, MO, 63116","No_Match",NA,NA,NA,NA
340009,"PO BOX 22231","CHEYENNE","WY",82003,NA,NA,9,"PO BOX 22231, CHEYENNE, WY, 82003","No_Match",NA,NA,NA,NA
340010,"PO BOX 22234","LANSING","MI",48909,NA,NA,10,"PO BOX 22234, LANSING, MI, 48909","No_Match",NA,NA,NA,NA
340011,"PO BOX 222365","WEST PALM BEACH","FL",33422,NA,NA,11,"PO BOX 222365, WEST PALM BEACH, FL, 33422","No_Match",NA,NA,NA,NA
340012,"PO BOX 22238","MILWAUKIE","OR",97222,NA,NA,12,"PO BOX 22238, MILWAUKIE, OR, 97222","No_Match",NA,NA,NA,NA
340013,"PO BOX 2224","MANITOWOC","WI",54221,NA,NA,13,"PO BOX 2224, MANITOWOC, WI, 54221","No_Match",NA,NA,NA,NA
340014,"PO BOX 2225","MANITOWOC","WI",54221,NA,NA,14,"PO BOX 2225, MANITOWOC, WI, 54221","No_Match",NA,NA,NA,NA
340015,"PO BOX 2225","PORTAGE","MI",49081,NA,NA,15,"PO BOX 2225, PORTAGE, MI, 49081","No_Match",NA,NA,NA,NA
340016,"PO BOX 2225","VICTORVILLE","CA",92393,NA,NA,16,"PO BOX 2225, VICTORVILLE, CA, 92393","No_Match",NA,NA,NA,NA
340017,"PO BOX 22251","NEWPORT NEWS","VA",23609,NA,NA,17,"PO BOX 22251, NEWPORT NEWS, VA, 23609","No_Match",NA,NA,NA,NA
340018,"PO BOX 22252","BEAUMONT","TX",77720,NA,NA,18,"PO BOX 22252, BEAUMONT, TX, 77720","No_Match",NA,NA,NA,NA
340019,"PO BOX 2226","MARIPOSA","CA",95338,NA,NA,19,"PO BOX 2226, MARIPOSA, CA, 95338","No_Match",NA,NA,NA,NA
340020,"PO BOX 2226","SEDONA","AZ",86339,NA,NA,20,"PO BOX 2226, SEDONA, AZ, 86339","No_Match",NA,NA,NA,NA
340021,"PO BOX 222696","CHANTILLY","VA",20153,NA,NA,21,"PO BOX 222696, CHANTILLY, VA, 20153","No_Match",NA,NA,NA,NA
340022,"PO BOX 2227","AURORA","IL",60507,NA,NA,22,"PO BOX 2227, AURORA, IL, 60507","No_Match",NA,NA,NA,NA
340023,"PO BOX 2227","BRENHAM","TX",77834,NA,NA,23,"PO BOX 2227, BRENHAM, TX, 77834","No_Match",NA,NA,NA,NA
340024,"PO BOX 22271","PORTSMOUTH","NH",3802,NA,NA,24,"PO BOX 22271, PORTSMOUTH, NH, 3802","No_Match",NA,NA,NA,NA
340025,"PO BOX 222720","CHRISTIANTED","VI",822,NA,NA,25,"PO BOX 222720, CHRISTIANTED, VI, 822","No_Match",NA,NA,NA,NA
340026,"PO BOX 222744","OAKLAND","CA",94609,NA,NA,26,"PO BOX 222744, OAKLAND, CA, 94609","No_Match",NA,NA,NA,NA
340027,"PO BOX 2228","KEYSTONE HEIGHTS","FL",32656,NA,NA,27,"PO BOX 2228, KEYSTONE HEIGHTS, FL, 32656","No_Match",NA,NA,NA,NA
340028,"PO BOX 22281","OAKLAND","CA",94623,NA,NA,28,"PO BOX 22281, OAKLAND, CA, 94623","No_Match",NA,NA,NA,NA
340029,"PO BOX 22287","TAMPA","FL",33622,NA,NA,29,"PO BOX 22287, TAMPA, FL, 33622","No_Match",NA,NA,NA,NA
340030,"PO BOX 2229","ABINGDON","VA",24212,NA,NA,30,"PO BOX 2229, ABINGDON, VA, 24212","No_Match",NA,NA,NA,NA
340031,"PO BOX 2229","TULARE","CA",93275,NA,NA,31,"PO BOX 2229, TULARE, CA, 93275","No_Match",NA,NA,NA,NA
340032,"PO BOX 223","ALBION","CA",95410,NA,NA,32,"PO BOX 223, ALBION, CA, 95410","No_Match",NA,NA,NA,NA
340033,"PO BOX 223","BELLWOOD","PA",16617,NA,NA,33,"PO BOX 223, BELLWOOD, PA, 16617","No_Match",NA,NA,NA,NA
340034,"PO BOX 223","BEREA","OH",44017,NA,NA,34,"PO BOX 223, BEREA, OH, 44017","No_Match",NA,NA,NA,NA
340035,"PO BOX 223","CAMDEN","ME",4843,NA,NA,35,"PO BOX 223, CAMDEN, ME, 4843","No_Match",NA,NA,NA,NA
340036,"PO BOX 223","CHAPIN","SC",29036,NA,NA,36,"PO BOX 223, CHAPIN, SC, 29036","No_Match",NA,NA,NA,NA
340037,"PO BOX 223","CLAREMONT","NC",28610,NA,NA,37,"PO BOX 223, CLAREMONT, NC, 28610","No_Match",NA,NA,NA,NA
340038,"PO BOX 223","COOPERS MILLS","ME",4341,NA,NA,38,"PO BOX 223, COOPERS MILLS, ME, 4341","No_Match",NA,NA,NA,NA
340039,"PO BOX 223","EASLEY","SC",29641,NA,NA,39,"PO BOX 223, EASLEY, SC, 29641","No_Match",NA,NA,NA,NA
340040,"PO BOX 223","ENFIELD","NC",27823,NA,NA,40,"PO BOX 223, ENFIELD, NC, 27823","No_Match",NA,NA,NA,NA
340041,"PO BOX 223","FLORENCE","MT",59833,NA,NA,41,"PO BOX 223, FLORENCE, MT, 59833","No_Match",NA,NA,NA,NA
340042,"PO BOX 223","GRAND BAY","AL",36541,NA,NA,42,"PO BOX 223, GRAND BAY, AL, 36541","No_Match",NA,NA,NA,NA
340043,"PO BOX 223","GREENVILLE","RI",2828,NA,NA,43,"PO BOX 223, GREENVILLE, RI, 2828","No_Match",NA,NA,NA,NA
340044,"PO BOX 223","HARTINGTON","NE",68739,NA,NA,44,"PO BOX 223, HARTINGTON, NE, 68739","No_Match",NA,NA,NA,NA
340045,"PO BOX 223","HYDE PARK","PA",15641,NA,NA,45,"PO BOX 223, HYDE PARK, PA, 15641","No_Match",NA,NA,NA,NA
340046,"PO BOX 223","LAKE JUNALUSKA","NC",28745,NA,NA,46,"PO BOX 223, LAKE JUNALUSKA, NC, 28745","No_Match",NA,NA,NA,NA
340047,"PO BOX 223","LAPLACE","LA",70069,NA,NA,47,"PO BOX 223, LAPLACE, LA, 70069","No_Match",NA,NA,NA,NA
340048,"PO BOX 223","LAUREL","MS",39441,NA,NA,48,"PO BOX 223, LAUREL, MS, 39441","No_Match",NA,NA,NA,NA
340049,"PO BOX 223","LITTLE COMPTON","RI",2837,NA,NA,49,"PO BOX 223, LITTLE COMPTON, RI, 2837","No_Match",NA,NA,NA,NA
340050,"PO BOX 223","LOVETTSVILLE","VI",20185,NA,NA,50,"PO BOX 223, LOVETTSVILLE, VI, 20185","No_Match",NA,NA,NA,NA
340051,"PO BOX 223","MARLBORO","NY",12542,NA,NA,51,"PO BOX 223, MARLBORO, NY, 12542","No_Match",NA,NA,NA,NA
340052,"PO BOX 223","NELLIS","WV",25142,NA,NA,52,"PO BOX 223, NELLIS, WV, 25142","No_Match",NA,NA,NA,NA
340053,"PO BOX 223","NEWTON","IL",62448,NA,NA,53,"PO BOX 223, NEWTON, IL, 62448","No_Match",NA,NA,NA,NA
340054,"PO BOX 223","PINEHURST","MA",1866,NA,NA,54,"PO BOX 223, PINEHURST, MA, 1866","No_Match",NA,NA,NA,NA
340055,"PO BOX 223","ROBINSON","IL",62454,NA,NA,55,"PO BOX 223, ROBINSON, IL, 62454","No_Match",NA,NA,NA,NA
340056,"PO BOX 223","SASSER","GA",39885,NA,NA,56,"PO BOX 223, SASSER, GA, 39885","No_Match",NA,NA,NA,NA
340057,"PO BOX 223","SHELBY","NC",28151,NA,NA,57,"PO BOX 223, SHELBY, NC, 28151","No_Match",NA,NA,NA,NA
340058,"PO BOX 223","WARM SPRINGS","MT",59756,NA,NA,58,"PO BOX 223, WARM SPRINGS, MT, 59756","No_Match",NA,NA,NA,NA
340059,"PO BOX 223","WOODSON","AR",72180,NA,NA,59,"PO BOX 223, WOODSON, AR, 72180","No_Match",NA,NA,NA,NA
340060,"PO BOX 2231","LAKE HAVASU CITY","AZ",86405,NA,NA,60,"PO BOX 2231, LAKE HAVASU CITY, AZ, 86405","No_Match",NA,NA,NA,NA
340061,"PO BOX 2231","LAKE HAVASU","AZ",86405,NA,NA,61,"PO BOX 2231, LAKE HAVASU, AZ, 86405","No_Match",NA,NA,NA,NA
340062,"PO BOX 22315","BEACHWOOD","OH",44122,NA,NA,62,"PO BOX 22315, BEACHWOOD, OH, 44122","No_Match",NA,NA,NA,NA
340063,"PO BOX 22316","GREEN BAY","WI",54305,NA,NA,63,"PO BOX 22316, GREEN BAY, WI, 54305","No_Match",NA,NA,NA,NA
340064,"PO BOX 22325","SEATTLE","WA",98122,NA,NA,64,"PO BOX 22325, SEATTLE, WA, 98122","No_Match",NA,NA,NA,NA
340065,"PO BOX 22328","PHILADELPHIA","PA",19110,NA,NA,65,"PO BOX 22328, PHILADELPHIA, PA, 19110","No_Match",NA,NA,NA,NA
340066,"PO BOX 2233","BEAVERTON","OR",97075,NA,NA,66,"PO BOX 2233, BEAVERTON, OR, 97075","No_Match",NA,NA,NA,NA
340067,"PO BOX 223302","CHRISTIANSTED","VI",822,NA,NA,67,"PO BOX 223302, CHRISTIANSTED, VI, 822","No_Match",NA,NA,NA,NA
340068,"PO BOX 22332","HUNTSVILLE","AL",35814,NA,NA,68,"PO BOX 22332, HUNTSVILLE, AL, 35814","No_Match",NA,NA,NA,NA
340069,"PO BOX 223343","CHRISTIANSTED","VI",822,NA,NA,69,"PO BOX 223343, CHRISTIANSTED, VI, 822","No_Match",NA,NA,NA,NA
340070,"PO BOX 223363","PRINCEVILLE","HI",96722,NA,NA,70,"PO BOX 223363, PRINCEVILLE, HI, 96722","No_Match",NA,NA,NA,NA
340071,"PO BOX 2234","JOSHUA TREE","CA",92252,NA,NA,71,"PO BOX 2234, JOSHUA TREE, CA, 92252","No_Match",NA,NA,NA,NA
340072,"PO BOX 22343","TUCSON","AZ",85734,NA,NA,72,"PO BOX 22343, TUCSON, AZ, 85734","No_Match",NA,NA,NA,NA
340073,"PO BOX 2235 61 NW OREGON AVE","BEND","OR",97709,44.058520619,-121.31139704,73,"PO BOX 2235 61 NW OREGON AVE, BEND, OR, 97709","Match","Non_Exact","61 NW OREGON AVE, BEND, OR, 97703",152553902,"L"
340074,"PO BOX 2235","COEUR D'ALENE","ID",83816,NA,NA,74,"PO BOX 2235, COEUR D'ALENE, ID, 83816","No_Match",NA,NA,NA,NA
340075,"PO BOX 2235","TUSCALOOSA","AL",35403,NA,NA,75,"PO BOX 2235, TUSCALOOSA, AL, 35403","No_Match",NA,NA,NA,NA
340076,"PO BOX 223519","CARMEL","CA",93922,NA,NA,76,"PO BOX 223519, CARMEL, CA, 93922","No_Match",NA,NA,NA,NA
340077,"PO BOX 223581","DALLAS","TX",75222,NA,NA,77,"PO BOX 223581, DALLAS, TX, 75222","No_Match",NA,NA,NA,NA
340078,"PO BOX 2236","SAINT JAMES","NY",11780,NA,NA,78,"PO BOX 2236, SAINT JAMES, NY, 11780","No_Match",NA,NA,NA,NA
340079,"PO BOX 2236","WOONSOCKET","RI",2895,NA,NA,79,"PO BOX 2236, WOONSOCKET, RI, 2895","No_Match",NA,NA,NA,NA
340080,"PO BOX 22363","HONOLULU","HI",96823,NA,NA,80,"PO BOX 22363, HONOLULU, HI, 96823","No_Match",NA,NA,NA,NA
340081,"PO BOX 223632","PRINCEVILLE","HI",96722,NA,NA,81,"PO BOX 223632, PRINCEVILLE, HI, 96722","No_Match",NA,NA,NA,NA
340082,"PO BOX 2237","BARSTOW","CA",92312,NA,NA,82,"PO BOX 2237, BARSTOW, CA, 92312","No_Match",NA,NA,NA,NA
340083,"PO BOX 2238","HOMELAND","CA",92548,NA,NA,83,"PO BOX 2238, HOMELAND, CA, 92548","No_Match",NA,NA,NA,NA
340084,"PO BOX 2238","HONOLULU","HI",96804,NA,NA,84,"PO BOX 2238, HONOLULU, HI, 96804","No_Match",NA,NA,NA,NA
340085,"PO BOX 2238","LIVERPOOL","NY",13089,NA,NA,85,"PO BOX 2238, LIVERPOOL, NY, 13089","No_Match",NA,NA,NA,NA
340086,"PO BOX 2238","PLUGERVILLE","TX",78660,NA,NA,86,"PO BOX 2238, PLUGERVILLE, TX, 78660","No_Match",NA,NA,NA,NA
340087,"PO BOX 22381","LEXINGTON","KY",40522,NA,NA,87,"PO BOX 22381, LEXINGTON, KY, 40522","No_Match",NA,NA,NA,NA
340088,"PO BOX 223871","DALLAS","TX",75222,NA,NA,88,"PO BOX 223871, DALLAS, TX, 75222","No_Match",NA,NA,NA,NA
340089,"PO BOX 223924","CHANTILLY","VA",20153,NA,NA,89,"PO BOX 223924, CHANTILLY, VA, 20153","No_Match",NA,NA,NA,NA
340090,"PO BOX 224","ACKERLY","TX",79713,NA,NA,90,"PO BOX 224, ACKERLY, TX, 79713","No_Match",NA,NA,NA,NA
340091,"PO BOX 224","BAINBRIDGE","NY",13733,NA,NA,91,"PO BOX 224, BAINBRIDGE, NY, 13733","No_Match",NA,NA,NA,NA
340092,"PO BOX 224","BROOKINGS","SD",57006,NA,NA,92,"PO BOX 224, BROOKINGS, SD, 57006","No_Match",NA,NA,NA,NA
340093,"PO BOX 224","BROOMFIELD","CO",80038,NA,NA,93,"PO BOX 224, BROOMFIELD, CO, 80038","No_Match",NA,NA,NA,NA
340094,"PO BOX 224","BUFFALO","MN",55313,NA,NA,94,"PO BOX 224, BUFFALO, MN, 55313","No_Match",NA,NA,NA,NA
340095,"PO BOX 224","CANADIAN","TX",79014,NA,NA,95,"PO BOX 224, CANADIAN, TX, 79014","No_Match",NA,NA,NA,NA
340096,"PO BOX 224","DANBURY","CT",6813,NA,NA,96,"PO BOX 224, DANBURY, CT, 6813","No_Match",NA,NA,NA,NA
340097,"PO BOX 224","DIAMOND","OH",44412,NA,NA,97,"PO BOX 224, DIAMOND, OH, 44412","No_Match",NA,NA,NA,NA
340098,"PO BOX 224","EAST PETERSBURG","PA",17520,NA,NA,98,"PO BOX 224, EAST PETERSBURG, PA, 17520","No_Match",NA,NA,NA,NA
340099,"PO BOX 224","GRAND JUNCTION","IA",50107,NA,NA,99,"PO BOX 224, GRAND JUNCTION, IA, 50107","No_Match",NA,NA,NA,NA
340100,"PO BOX 224","GREAT BEND","NY",13643,NA,NA,100,"PO BOX 224, GREAT BEND, NY, 13643","No_Match",NA,NA,NA,NA
340101,"PO BOX 224","HEPHZIBAH","GA",30815,NA,NA,101,"PO BOX 224, HEPHZIBAH, GA, 30815","No_Match",NA,NA,NA,NA
340102,"PO BOX 224","JAMESTOWN","ND",58402,NA,NA,102,"PO BOX 224, JAMESTOWN, ND, 58402","No_Match",NA,NA,NA,NA
340103,"PO BOX 224","JOBSTOWN","NJ",8041,NA,NA,103,"PO BOX 224, JOBSTOWN, NJ, 8041","No_Match",NA,NA,NA,NA
340104,"PO BOX 224","LAFAYETTE","NJ",7848,NA,NA,104,"PO BOX 224, LAFAYETTE, NJ, 7848","No_Match",NA,NA,NA,NA
340105,"PO BOX 224","LANSIG","NC",28643,NA,NA,105,"PO BOX 224, LANSIG, NC, 28643","No_Match",NA,NA,NA,NA
340106,"PO BOX 224","LONGVIEW","TX",75606,NA,NA,106,"PO BOX 224, LONGVIEW, TX, 75606","No_Match",NA,NA,NA,NA
340107,"PO BOX 224","MARSHALLS CREEK","PA",18335,NA,NA,107,"PO BOX 224, MARSHALLS CREEK, PA, 18335","No_Match",NA,NA,NA,NA
340108,"PO BOX 224","MARTINSBURG","OH",43037,NA,NA,108,"PO BOX 224, MARTINSBURG, OH, 43037","No_Match",NA,NA,NA,NA
340109,"PO BOX 224","MORNING SUN","IA",52640,NA,NA,109,"PO BOX 224, MORNING SUN, IA, 52640","No_Match",NA,NA,NA,NA
340110,"PO BOX 224","NORTH QUINCY","MA",2171,NA,NA,110,"PO BOX 224, NORTH QUINCY, MA, 2171","No_Match",NA,NA,NA,NA
340111,"PO BOX 224","ORRVILLE","OH",44667,NA,NA,111,"PO BOX 224, ORRVILLE, OH, 44667","No_Match",NA,NA,NA,NA
340112,"PO BOX 224","PRINCETON JUNCTION","NJ",8550,NA,NA,112,"PO BOX 224, PRINCETON JUNCTION, NJ, 8550","No_Match",NA,NA,NA,NA
340113,"PO BOX 224","RIGGINS","ID",83549,NA,NA,113,"PO BOX 224, RIGGINS, ID, 83549","No_Match",NA,NA,NA,NA
340114,"PO BOX 224","SKILLMAN","NJ",8558,NA,NA,114,"PO BOX 224, SKILLMAN, NJ, 8558","No_Match",NA,NA,NA,NA
340115,"PO BOX 224","THATCHER","AZ",85552,NA,NA,115,"PO BOX 224, THATCHER, AZ, 85552","No_Match",NA,NA,NA,NA
340116,"PO BOX 224","WALLINGFORD","CT",6492,NA,NA,116,"PO BOX 224, WALLINGFORD, CT, 6492","No_Match",NA,NA,NA,NA
340117,"PO BOX 224","WEST COLUMBIA","TX",77486,NA,NA,117,"PO BOX 224, WEST COLUMBIA, TX, 77486","No_Match",NA,NA,NA,NA
340118,"PO BOX 224","WESTON","TX",75097,NA,NA,118,"PO BOX 224, WESTON, TX, 75097","No_Match",NA,NA,NA,NA
340119,"PO BOX 22403","LINCOLN","NE",68542,NA,NA,119,"PO BOX 22403, LINCOLN, NE, 68542","No_Match",NA,NA,NA,NA
340120,"PO BOX 2241","HEMET","CA",92546,NA,NA,120,"PO BOX 2241, HEMET, CA, 92546","No_Match",NA,NA,NA,NA
340121,"PO BOX 2241","LEWISTON","ID",83501,NA,NA,121,"PO BOX 2241, LEWISTON, ID, 83501","No_Match",NA,NA,NA,NA
340122,"PO BOX 2241","SMYRNA","GA",30081,NA,NA,122,"PO BOX 2241, SMYRNA, GA, 30081","No_Match",NA,NA,NA,NA
340123,"PO BOX 2241","STONE MOUNTAIN","GA",30086,NA,NA,123,"PO BOX 2241, STONE MOUNTAIN, GA, 30086","No_Match",NA,NA,NA,NA
340124,"PO BOX 2241","UNIONTOWN","PA",15401,NA,NA,124,"PO BOX 2241, UNIONTOWN, PA, 15401","No_Match",NA,NA,NA,NA
340125,"PO BOX 22415","SAVANNAH","GA",31403,NA,NA,125,"PO BOX 22415, SAVANNAH, GA, 31403","No_Match",NA,NA,NA,NA
340126,"PO BOX 2242","APACHE JCT","AZ",85117,NA,NA,126,"PO BOX 2242, APACHE JCT, AZ, 85117","No_Match",NA,NA,NA,NA
340127,"PO BOX 2242","PEACHTREE CITY","GA",30269,NA,NA,127,"PO BOX 2242, PEACHTREE CITY, GA, 30269","No_Match",NA,NA,NA,NA
340128,"PO BOX 2242","POULSBO","WA",98370,NA,NA,128,"PO BOX 2242, POULSBO, WA, 98370","No_Match",NA,NA,NA,NA
340129,"PO BOX 2242","ROCKVILLE","MD",20847,NA,NA,129,"PO BOX 2242, ROCKVILLE, MD, 20847","No_Match",NA,NA,NA,NA
340130,"PO BOX 2242","VASHON","WA",98070,NA,NA,130,"PO BOX 2242, VASHON, WA, 98070","No_Match",NA,NA,NA,NA
340131,"PO BOX 22424","PITTSBURGH","PA",15222,NA,NA,131,"PO BOX 22424, PITTSBURGH, PA, 15222","No_Match",NA,NA,NA,NA
340132,"PO BOX 224273","CHRISTIANSTED","VI",822,NA,NA,132,"PO BOX 224273, CHRISTIANSTED, VI, 822","No_Match",NA,NA,NA,NA
340133,"PO BOX 22428","LOUISVILLE","KY",40252,NA,NA,133,"PO BOX 22428, LOUISVILLE, KY, 40252","No_Match",NA,NA,NA,NA
340134,"PO BOX 2243","NEW YORK","NY",10108,NA,NA,134,"PO BOX 2243, NEW YORK, NY, 10108","No_Match",NA,NA,NA,NA
340135,"PO BOX 22431","BALTIMORE","NY",21203,NA,NA,135,"PO BOX 22431, BALTIMORE, NY, 21203","No_Match",NA,NA,NA,NA
340136,"PO BOX 22432","SAVANNAH","GA",31403,NA,NA,136,"PO BOX 22432, SAVANNAH, GA, 31403","No_Match",NA,NA,NA,NA
340137,"PO BOX 2244","BAKERSFIELD","CA",93303,NA,NA,137,"PO BOX 2244, BAKERSFIELD, CA, 93303","No_Match",NA,NA,NA,NA
340138,"PO BOX 2244","FAYETTE","MS",39069,NA,NA,138,"PO BOX 2244, FAYETTE, MS, 39069","No_Match",NA,NA,NA,NA
340139,"PO BOX 2244","GLENDALE","AZ",85311,NA,NA,139,"PO BOX 2244, GLENDALE, AZ, 85311","No_Match",NA,NA,NA,NA
340140,"PO BOX 2244","WOODBRIDGE","VA",22195,NA,NA,140,"PO BOX 2244, WOODBRIDGE, VA, 22195","No_Match",NA,NA,NA,NA
340141,"PO BOX 22442","FORT WORTH","TX",76122,NA,NA,141,"PO BOX 22442, FORT WORTH, TX, 76122","No_Match",NA,NA,NA,NA
340142,"PO BOX 22443","HOUSTON","TX",77227,NA,NA,142,"PO BOX 22443, HOUSTON, TX, 77227","No_Match",NA,NA,NA,NA
340143,"PO BOX 2245","ASHLAND","KY",41105,NA,NA,143,"PO BOX 2245, ASHLAND, KY, 41105","No_Match",NA,NA,NA,NA
340144,"PO BOX 2245","BIGFORK","MT",59911,NA,NA,144,"PO BOX 2245, BIGFORK, MT, 59911","No_Match",NA,NA,NA,NA
340145,"PO BOX 2245","CENTREVILLE","VA",20122,NA,NA,145,"PO BOX 2245, CENTREVILLE, VA, 20122","No_Match",NA,NA,NA,NA
340146,"PO BOX 22457","FREDERICK","MD",21701,NA,NA,146,"PO BOX 22457, FREDERICK, MD, 21701","No_Match",NA,NA,NA,NA
340147,"PO BOX 2246","MERCED","CA",95344,NA,NA,147,"PO BOX 2246, MERCED, CA, 95344","No_Match",NA,NA,NA,NA
340148,"PO BOX 2246","NEWBURGH","NY",12550,NA,NA,148,"PO BOX 2246, NEWBURGH, NY, 12550","No_Match",NA,NA,NA,NA
340149,"PO BOX 2246","STUART","FL",34995,NA,NA,149,"PO BOX 2246, STUART, FL, 34995","No_Match",NA,NA,NA,NA
340150,"PO BOX 2247","COAMO","PR",769,NA,NA,150,"PO BOX 2247, COAMO, PR, 769","No_Match",NA,NA,NA,NA
340151,"PO BOX 2247","MERCED","CA",95348,NA,NA,151,"PO BOX 2247, MERCED, CA, 95348","No_Match",NA,NA,NA,NA
340152,"PO BOX 22471","KNOXVILLE","TN",37933,NA,NA,152,"PO BOX 22471, KNOXVILLE, TN, 37933","No_Match",NA,NA,NA,NA
340153,"PO BOX 22480","BEACHWOOD","OH",44122,NA,NA,153,"PO BOX 22480, BEACHWOOD, OH, 44122","No_Match",NA,NA,NA,NA
340154,"PO BOX 224952","DALLAS","TX",75222,NA,NA,154,"PO BOX 224952, DALLAS, TX, 75222","No_Match",NA,NA,NA,NA
340155,"PO BOX 224988","DALLAS","TX",75222,NA,NA,155,"PO BOX 224988, DALLAS, TX, 75222","No_Match",NA,NA,NA,NA
340156,"PO BOX 225","ALTOONA","IA",50009,NA,NA,156,"PO BOX 225, ALTOONA, IA, 50009","No_Match",NA,NA,NA,NA
340157,"PO BOX 225","AMAWALK","NY",10501,NA,NA,157,"PO BOX 225, AMAWALK, NY, 10501","No_Match",NA,NA,NA,NA
340158,"PO BOX 225","ASHLAND","WI",54806,NA,NA,158,"PO BOX 225, ASHLAND, WI, 54806","No_Match",NA,NA,NA,NA
340159,"PO BOX 225","BUCYRUS","OH",44820,NA,NA,159,"PO BOX 225, BUCYRUS, OH, 44820","No_Match",NA,NA,NA,NA
340160,"PO BOX 225","CHATHAM","NY",12037,NA,NA,160,"PO BOX 225, CHATHAM, NY, 12037","No_Match",NA,NA,NA,NA
340161,"PO BOX 225","DOLGEVILLE","NY",13329,NA,NA,161,"PO BOX 225, DOLGEVILLE, NY, 13329","No_Match",NA,NA,NA,NA
340162,"PO BOX 225","DOVER","AR",72837,NA,NA,162,"PO BOX 225, DOVER, AR, 72837","No_Match",NA,NA,NA,NA
340163,"PO BOX 225","ESTANCIA","NM",87016,NA,NA,163,"PO BOX 225, ESTANCIA, NM, 87016","No_Match",NA,NA,NA,NA
340164,"PO BOX 225","GOOSE CREEK","SC",29445,NA,NA,164,"PO BOX 225, GOOSE CREEK, SC, 29445","No_Match",NA,NA,NA,NA
340165,"PO BOX 225","HARRISVILLE","MI",48740,NA,NA,165,"PO BOX 225, HARRISVILLE, MI, 48740","No_Match",NA,NA,NA,NA
340166,"PO BOX 225","INYOKERN","CA",93527,NA,NA,166,"PO BOX 225, INYOKERN, CA, 93527","No_Match",NA,NA,NA,NA
340167,"PO BOX 225","IRONTON","OH",45638,NA,NA,167,"PO BOX 225, IRONTON, OH, 45638","No_Match",NA,NA,NA,NA
340168,"PO BOX 225","LEWISBURG","PA",17837,NA,NA,168,"PO BOX 225, LEWISBURG, PA, 17837","No_Match",NA,NA,NA,NA
340169,"PO BOX 225","LINCOLN","NH",3251,NA,NA,169,"PO BOX 225, LINCOLN, NH, 3251","No_Match",NA,NA,NA,NA
340170,"PO BOX 225","LOMIRA","WI",53048,NA,NA,170,"PO BOX 225, LOMIRA, WI, 53048","No_Match",NA,NA,NA,NA
340171,"PO BOX 225","MISHAWAKA","IN",46546,NA,NA,171,"PO BOX 225, MISHAWAKA, IN, 46546","No_Match",NA,NA,NA,NA
340172,"PO BOX 225","NEWBURY","VT",5051,NA,NA,172,"PO BOX 225, NEWBURY, VT, 5051","No_Match",NA,NA,NA,NA
340173,"PO BOX 225","NOBLESVILLE","IN",46061,NA,NA,173,"PO BOX 225, NOBLESVILLE, IN, 46061","No_Match",NA,NA,NA,NA
340174,"PO BOX 225","OSPREY","FL",34229,NA,NA,174,"PO BOX 225, OSPREY, FL, 34229","No_Match",NA,NA,NA,NA
340175,"PO BOX 225","WEAVERVILLE","CA",96093,NA,NA,175,"PO BOX 225, WEAVERVILLE, CA, 96093","No_Match",NA,NA,NA,NA
340176,"PO BOX 2250","FORT LEE","NJ",7024,NA,NA,176,"PO BOX 2250, FORT LEE, NJ, 7024","No_Match",NA,NA,NA,NA
340177,"PO BOX 2250","HAWTHORNE","NV",89415,NA,NA,177,"PO BOX 2250, HAWTHORNE, NV, 89415","No_Match",NA,NA,NA,NA
340178,"PO BOX 225008","SAN FRANCISCO","CA",94122,NA,NA,178,"PO BOX 225008, SAN FRANCISCO, CA, 94122","No_Match",NA,NA,NA,NA
340179,"PO BOX 22501","NEWPORT NEWS","VA",23609,NA,NA,179,"PO BOX 22501, NEWPORT NEWS, VA, 23609","No_Match",NA,NA,NA,NA
340180,"PO BOX 22502","EAGAN","MN",55122,NA,NA,180,"PO BOX 22502, EAGAN, MN, 55122","No_Match",NA,NA,NA,NA
340181,"PO BOX 22502","LITTLE ROCK","AR",72221,NA,NA,181,"PO BOX 22502, LITTLE ROCK, AR, 72221","No_Match",NA,NA,NA,NA
340182,"PO BOX 22506","NASHVILLE","TN",37202,NA,NA,182,"PO BOX 22506, NASHVILLE, TN, 37202","No_Match",NA,NA,NA,NA
340183,"PO BOX 2251","LAND O LAKES","FL",34639,NA,NA,183,"PO BOX 2251, LAND O LAKES, FL, 34639","No_Match",NA,NA,NA,NA
340184,"PO BOX 2251","PALM HARBOR","FL",34682,NA,NA,184,"PO BOX 2251, PALM HARBOR, FL, 34682","No_Match",NA,NA,NA,NA
340185,"PO BOX 2252","DAVIDSON","NC",28036,NA,NA,185,"PO BOX 2252, DAVIDSON, NC, 28036","No_Match",NA,NA,NA,NA
340186,"PO BOX 22521","SANTA FE","NM",87502,NA,NA,186,"PO BOX 22521, SANTA FE, NM, 87502","No_Match",NA,NA,NA,NA
340187,"PO BOX 22522","LOUISVILLE","KY",40252,NA,NA,187,"PO BOX 22522, LOUISVILLE, KY, 40252","No_Match",NA,NA,NA,NA
340188,"PO BOX 2253","COVINGTON","GA",30015,NA,NA,188,"PO BOX 2253, COVINGTON, GA, 30015","No_Match",NA,NA,NA,NA
340189,"PO BOX 2253","DUNCAN","OK",73534,NA,NA,189,"PO BOX 2253, DUNCAN, OK, 73534","No_Match",NA,NA,NA,NA
340190,"PO BOX 2253","MANSFIELD","TX",76063,NA,NA,190,"PO BOX 2253, MANSFIELD, TX, 76063","No_Match",NA,NA,NA,NA
340191,"PO BOX 2254","NORTH BEND","WA",98045,NA,NA,191,"PO BOX 2254, NORTH BEND, WA, 98045","No_Match",NA,NA,NA,NA
340192,"PO BOX 2254","RED LODGE","MT",59068,NA,NA,192,"PO BOX 2254, RED LODGE, MT, 59068","No_Match",NA,NA,NA,NA
340193,"PO BOX 2254","WALDPORT","OR",97394,NA,NA,193,"PO BOX 2254, WALDPORT, OR, 97394","No_Match",NA,NA,NA,NA
340194,"PO BOX 225427","DALLAS","TX",75222,NA,NA,194,"PO BOX 225427, DALLAS, TX, 75222","No_Match",NA,NA,NA,NA
340195,"PO BOX 22544","SAVANNAH","GA",31405,NA,NA,195,"PO BOX 22544, SAVANNAH, GA, 31405","No_Match",NA,NA,NA,NA
340196,"PO BOX 22548","AKRON","OH",44302,NA,NA,196,"PO BOX 22548, AKRON, OH, 44302","No_Match",NA,NA,NA,NA
340197,"PO BOX 2255       15625 GRETA LANE","FONTANA","CA",92334,34.1219483410001,-117.464728743,197,"PO BOX 2255       15625 GRETA LANE, FONTANA, CA, 92334","Match","Non_Exact","15625 GRETA LN, FONTANA, CA, 92336",614822094,"R"
340198,"PO BOX 2256","ALBEMARLE","NC",28002,NA,NA,198,"PO BOX 2256, ALBEMARLE, NC, 28002","No_Match",NA,NA,NA,NA
340199,"PO BOX 2256","CEDAR PARK","TX",78630,NA,NA,199,"PO BOX 2256, CEDAR PARK, TX, 78630","No_Match",NA,NA,NA,NA
340200,"PO BOX 2256","PINELLAS PARK","FL",33780,NA,NA,200,"PO BOX 2256, PINELLAS PARK, FL, 33780","No_Match",NA,NA,NA,NA
340201,"PO BOX 22564","DENVER","CO",80222,NA,NA,201,"PO BOX 22564, DENVER, CO, 80222","No_Match",NA,NA,NA,NA
340202,"PO BOX 225647","DALLAS","TX",75222,NA,NA,202,"PO BOX 225647, DALLAS, TX, 75222","No_Match",NA,NA,NA,NA
340203,"PO BOX 2257","HOBE SOUND","FL",33475,NA,NA,203,"PO BOX 2257, HOBE SOUND, FL, 33475","No_Match",NA,NA,NA,NA
340204,"PO BOX 22573","HUNTSVILLE","AL",35814,NA,NA,204,"PO BOX 22573, HUNTSVILLE, AL, 35814","No_Match",NA,NA,NA,NA
340205,"PO BOX 2258","NEVADA CITY","CA",95959,NA,NA,205,"PO BOX 2258, NEVADA CITY, CA, 95959","No_Match",NA,NA,NA,NA
340206,"PO BOX 2258","TRAVERSE CITY","MI",49685,NA,NA,206,"PO BOX 2258, TRAVERSE CITY, MI, 49685","No_Match",NA,NA,NA,NA
340207,"PO BOX 225820","DALLAS","TX",75222,NA,NA,207,"PO BOX 225820, DALLAS, TX, 75222","No_Match",NA,NA,NA,NA
340208,"PO BOX 2259","BEAVERTON","OR",97075,NA,NA,208,"PO BOX 2259, BEAVERTON, OR, 97075","No_Match",NA,NA,NA,NA
340209,"PO BOX 22593","MILWAUKIE","OR",97269,NA,NA,209,"PO BOX 22593, MILWAUKIE, OR, 97269","No_Match",NA,NA,NA,NA
340210,"PO BOX 226 6932 SERENITY FARM ROAD","BENEDICT","MD",20612,NA,NA,210,"PO BOX 226 6932 SERENITY FARM ROAD, BENEDICT, MD, 20612","No_Match",NA,NA,NA,NA
340211,"PO BOX 226","AVON","CT",6001,NA,NA,211,"PO BOX 226, AVON, CT, 6001","No_Match",NA,NA,NA,NA
340212,"PO BOX 226","CEDAR BLUFFS","NE",68015,NA,NA,212,"PO BOX 226, CEDAR BLUFFS, NE, 68015","No_Match",NA,NA,NA,NA
340213,"PO BOX 226","DELAWARE","OH",43035,NA,NA,213,"PO BOX 226, DELAWARE, OH, 43035","No_Match",NA,NA,NA,NA
340214,"PO BOX 226","EAST ROCHESTER","NY",14445,NA,NA,214,"PO BOX 226, EAST ROCHESTER, NY, 14445","No_Match",NA,NA,NA,NA
340215,"PO BOX 226","ELGIN","OK",73538,NA,NA,215,"PO BOX 226, ELGIN, OK, 73538","No_Match",NA,NA,NA,NA
340216,"PO BOX 226","GOLDENDALE","WA",98620,NA,NA,216,"PO BOX 226, GOLDENDALE, WA, 98620","No_Match",NA,NA,NA,NA
340217,"PO BOX 226","HARBERT","MI",49115,NA,NA,217,"PO BOX 226, HARBERT, MI, 49115","No_Match",NA,NA,NA,NA
340218,"PO BOX 226","LEAVITTSBURG","OH",44430,NA,NA,218,"PO BOX 226, LEAVITTSBURG, OH, 44430","No_Match",NA,NA,NA,NA
340219,"PO BOX 226","MARIETTA","GA",30061,NA,NA,219,"PO BOX 226, MARIETTA, GA, 30061","No_Match",NA,NA,NA,NA
340220,"PO BOX 226","NEWARK","IL",60541,NA,NA,220,"PO BOX 226, NEWARK, IL, 60541","No_Match",NA,NA,NA,NA
340221,"PO BOX 226","ODESSA","FL",33556,NA,NA,221,"PO BOX 226, ODESSA, FL, 33556","No_Match",NA,NA,NA,NA
340222,"PO BOX 226","STOCKPORT","OH",43787,NA,NA,222,"PO BOX 226, STOCKPORT, OH, 43787","No_Match",NA,NA,NA,NA
340223,"PO BOX 226","STRATFORD","CT",6615,NA,NA,223,"PO BOX 226, STRATFORD, CT, 6615","No_Match",NA,NA,NA,NA
340224,"PO BOX 226","WATSONVILLE","CA",95077,NA,NA,224,"PO BOX 226, WATSONVILLE, CA, 95077","No_Match",NA,NA,NA,NA
340225,"PO BOX 2260","GONZALES","LA",70707,NA,NA,225,"PO BOX 2260, GONZALES, LA, 70707","No_Match",NA,NA,NA,NA
340226,"PO BOX 226054","DALLAS","TX",75222,NA,NA,226,"PO BOX 226054, DALLAS, TX, 75222","No_Match",NA,NA,NA,NA
340227,"PO BOX 2261","ALABASTER","AL",35007,NA,NA,227,"PO BOX 2261, ALABASTER, AL, 35007","No_Match",NA,NA,NA,NA
340228,"PO BOX 2261","ATHENS","OH",45701,NA,NA,228,"PO BOX 2261, ATHENS, OH, 45701","No_Match",NA,NA,NA,NA
340229,"PO BOX 2261","OLYMPIA","WA",98507,NA,NA,229,"PO BOX 2261, OLYMPIA, WA, 98507","No_Match",NA,NA,NA,NA
340230,"PO BOX 226126","DALLAS","TX",75222,NA,NA,230,"PO BOX 226126, DALLAS, TX, 75222","No_Match",NA,NA,NA,NA
340231,"PO BOX 2262","CERES","CA",95307,NA,NA,231,"PO BOX 2262, CERES, CA, 95307","No_Match",NA,NA,NA,NA
340232,"PO BOX 2262","LILBURN","GA",30048,NA,NA,232,"PO BOX 2262, LILBURN, GA, 30048","No_Match",NA,NA,NA,NA
340233,"PO BOX 22623","KANSAS CITY","MO",64113,NA,NA,233,"PO BOX 22623, KANSAS CITY, MO, 64113","No_Match",NA,NA,NA,NA
340234,"PO BOX 22625","HUNTSVILLE","AL",35814,NA,NA,234,"PO BOX 22625, HUNTSVILLE, AL, 35814","No_Match",NA,NA,NA,NA
340235,"PO BOX 22626","HUNTSVILLE","AL",35814,NA,NA,235,"PO BOX 22626, HUNTSVILLE, AL, 35814","No_Match",NA,NA,NA,NA
340236,"PO BOX 2263","ALAMOGORDO","NM",88311,NA,NA,236,"PO BOX 2263, ALAMOGORDO, NM, 88311","No_Match",NA,NA,NA,NA
340237,"PO BOX 2263","CARROLLTON","GA",30112,NA,NA,237,"PO BOX 2263, CARROLLTON, GA, 30112","No_Match",NA,NA,NA,NA
340238,"PO BOX 2263","FALLS CHURCH","VA",22042,NA,NA,238,"PO BOX 2263, FALLS CHURCH, VA, 22042","No_Match",NA,NA,NA,NA
340239,"PO BOX 2263","SEWARD","AK",99664,NA,NA,239,"PO BOX 2263, SEWARD, AK, 99664","No_Match",NA,NA,NA,NA
340240,"PO BOX 2263","SOUTHAMPTON","NY",11969,NA,NA,240,"PO BOX 2263, SOUTHAMPTON, NY, 11969","No_Match",NA,NA,NA,NA
340241,"PO BOX 2264","ALBEMARLE","NC",28002,NA,NA,241,"PO BOX 2264, ALBEMARLE, NC, 28002","No_Match",NA,NA,NA,NA
340242,"PO BOX 2264","BEAUFORT","NC",28516,NA,NA,242,"PO BOX 2264, BEAUFORT, NC, 28516","No_Match",NA,NA,NA,NA
340243,"PO BOX 2264","COVINGTON","GA",30015,NA,NA,243,"PO BOX 2264, COVINGTON, GA, 30015","No_Match",NA,NA,NA,NA
340244,"PO BOX 2264","REIDSVILLE","NC",27323,NA,NA,244,"PO BOX 2264, REIDSVILLE, NC, 27323","No_Match",NA,NA,NA,NA
340245,"PO BOX 2265","KINGSPORT","TN",37662,NA,NA,245,"PO BOX 2265, KINGSPORT, TN, 37662","No_Match",NA,NA,NA,NA
340246,"PO BOX 2265","MIDLAND","MI",48641,NA,NA,246,"PO BOX 2265, MIDLAND, MI, 48641","No_Match",NA,NA,NA,NA
340247,"PO BOX 2265","NATCHEZ","MS",38121,NA,NA,247,"PO BOX 2265, NATCHEZ, MS, 38121","No_Match",NA,NA,NA,NA
340248,"PO BOX 2265","WAYNE","NJ",7474,NA,NA,248,"PO BOX 2265, WAYNE, NJ, 7474","No_Match",NA,NA,NA,NA
340249,"PO BOX 2266","BRATTLEBORO","VT",5303,NA,NA,249,"PO BOX 2266, BRATTLEBORO, VT, 5303","No_Match",NA,NA,NA,NA
340250,"PO BOX 22661","BALTIMORE","MD",21203,NA,NA,250,"PO BOX 22661, BALTIMORE, MD, 21203","No_Match",NA,NA,NA,NA
340251,"PO BOX 2268","BELLINGHAM","WA",98227,NA,NA,251,"PO BOX 2268, BELLINGHAM, WA, 98227","No_Match",NA,NA,NA,NA
340252,"PO BOX 2268","COLUMBIA FALLS","MT",59912,NA,NA,252,"PO BOX 2268, COLUMBIA FALLS, MT, 59912","No_Match",NA,NA,NA,NA
340253,"PO BOX 2268","LA PLATA","MD",20646,NA,NA,253,"PO BOX 2268, LA PLATA, MD, 20646","No_Match",NA,NA,NA,NA
340254,"PO BOX 2268","SILVERDALE","WA",98383,NA,NA,254,"PO BOX 2268, SILVERDALE, WA, 98383","No_Match",NA,NA,NA,NA
340255,"PO BOX 22687","HONOLULU","HI",96823,NA,NA,255,"PO BOX 22687, HONOLULU, HI, 96823","No_Match",NA,NA,NA,NA
340256,"PO BOX 227","BELCAMP","MD",21017,NA,NA,256,"PO BOX 227, BELCAMP, MD, 21017","No_Match",NA,NA,NA,NA
340257,"PO BOX 227","CHANDLER","AZ",85225,NA,NA,257,"PO BOX 227, CHANDLER, AZ, 85225","No_Match",NA,NA,NA,NA
340258,"PO BOX 227","CHESTER","PA",19016,NA,NA,258,"PO BOX 227, CHESTER, PA, 19016","No_Match",NA,NA,NA,NA
340259,"PO BOX 227","HELLERTOWN","PA",18055,NA,NA,259,"PO BOX 227, HELLERTOWN, PA, 18055","No_Match",NA,NA,NA,NA
340260,"PO BOX 227","LAKE OSWEGO","OR",97034,NA,NA,260,"PO BOX 227, LAKE OSWEGO, OR, 97034","No_Match",NA,NA,NA,NA
340261,"PO BOX 227","MILLWOOD","VA",22646,NA,NA,261,"PO BOX 227, MILLWOOD, VA, 22646","No_Match",NA,NA,NA,NA
340262,"PO BOX 227","MONTE VISTA","CO",81144,NA,NA,262,"PO BOX 227, MONTE VISTA, CO, 81144","No_Match",NA,NA,NA,NA
340263,"PO BOX 227","MOUNT VICTORY","OH",43340,NA,NA,263,"PO BOX 227, MOUNT VICTORY, OH, 43340","No_Match",NA,NA,NA,NA
340264,"PO BOX 227","NEW RICHMOND","WI",54017,NA,NA,264,"PO BOX 227, NEW RICHMOND, WI, 54017","No_Match",NA,NA,NA,NA
340265,"PO BOX 227","OLD WESTBURY","NY",11568,NA,NA,265,"PO BOX 227, OLD WESTBURY, NY, 11568","No_Match",NA,NA,NA,NA
340266,"PO BOX 227","OVERPECK","OH",45055,NA,NA,266,"PO BOX 227, OVERPECK, OH, 45055","No_Match",NA,NA,NA,NA
340267,"PO BOX 227","POTEET","TX",78065,NA,NA,267,"PO BOX 227, POTEET, TX, 78065","No_Match",NA,NA,NA,NA
340268,"PO BOX 227","WALLBURG","NC",27373,NA,NA,268,"PO BOX 227, WALLBURG, NC, 27373","No_Match",NA,NA,NA,NA
340269,"PO BOX 2270","DAVIDSON","NC",28036,NA,NA,269,"PO BOX 2270, DAVIDSON, NC, 28036","No_Match",NA,NA,NA,NA
340270,"PO BOX 2270","DOLORES","CO",81323,NA,NA,270,"PO BOX 2270, DOLORES, CO, 81323","No_Match",NA,NA,NA,NA
340271,"PO BOX 22700","PHILADELPHIA","PA",19110,NA,NA,271,"PO BOX 22700, PHILADELPHIA, PA, 19110","No_Match",NA,NA,NA,NA
340272,"PO BOX 2271","BURLESON","TX",76097,NA,NA,272,"PO BOX 2271, BURLESON, TX, 76097","No_Match",NA,NA,NA,NA
340273,"PO BOX 2271","INDIANAPOLIS","IN",46206,NA,NA,273,"PO BOX 2271, INDIANAPOLIS, IN, 46206","No_Match",NA,NA,NA,NA
340274,"PO BOX 2271","JACKSONVILLE","TX",75766,NA,NA,274,"PO BOX 2271, JACKSONVILLE, TX, 75766","No_Match",NA,NA,NA,NA
340275,"PO BOX 2271","ROCHESTER","NY",14692,NA,NA,275,"PO BOX 2271, ROCHESTER, NY, 14692","No_Match",NA,NA,NA,NA
340276,"PO BOX 22711","BULLHEAD CITY","AZ",86439,NA,NA,276,"PO BOX 22711, BULLHEAD CITY, AZ, 86439","No_Match",NA,NA,NA,NA
340277,"PO BOX 2272","BOOTHWYN","PA",19061,NA,NA,277,"PO BOX 2272, BOOTHWYN, PA, 19061","No_Match",NA,NA,NA,NA
340278,"PO BOX 2272","DUNN","NC",28335,NA,NA,278,"PO BOX 2272, DUNN, NC, 28335","No_Match",NA,NA,NA,NA
340279,"PO BOX 22723","SAVANNAH","GA",31403,NA,NA,279,"PO BOX 22723, SAVANNAH, GA, 31403","No_Match",NA,NA,NA,NA
340280,"PO BOX 227231","DORAL","FL",33222,NA,NA,280,"PO BOX 227231, DORAL, FL, 33222","No_Match",NA,NA,NA,NA
340281,"PO BOX 2273","DALLAS","GA",30132,NA,NA,281,"PO BOX 2273, DALLAS, GA, 30132","No_Match",NA,NA,NA,NA
340282,"PO BOX 2273","WHITE SALMON","WA",98672,NA,NA,282,"PO BOX 2273, WHITE SALMON, WA, 98672","No_Match",NA,NA,NA,NA
340283,"PO BOX 22730","SEATTLE","WA",98122,NA,NA,283,"PO BOX 22730, SEATTLE, WA, 98122","No_Match",NA,NA,NA,NA
340284,"PO BOX 227341","DALLAS","TX",75222,NA,NA,284,"PO BOX 227341, DALLAS, TX, 75222","No_Match",NA,NA,NA,NA
340285,"PO BOX 2274","WEATHERFORD","TX",76086,NA,NA,285,"PO BOX 2274, WEATHERFORD, TX, 76086","No_Match",NA,NA,NA,NA
340286,"PO BOX 22743","SEATTLE","WA",98122,NA,NA,286,"PO BOX 22743, SEATTLE, WA, 98122","No_Match",NA,NA,NA,NA
340287,"PO BOX 22753","SEATTLE","WA",98122,NA,NA,287,"PO BOX 22753, SEATTLE, WA, 98122","No_Match",NA,NA,NA,NA
340288,"PO BOX 22754","HOT SPRINGS","AR",71903,NA,NA,288,"PO BOX 22754, HOT SPRINGS, AR, 71903","No_Match",NA,NA,NA,NA
340289,"PO BOX 2276","AUBURN","WA",98071,NA,NA,289,"PO BOX 2276, AUBURN, WA, 98071","No_Match",NA,NA,NA,NA
340290,"PO BOX 2276","HAWTHORNE","NV",89415,NA,NA,290,"PO BOX 2276, HAWTHORNE, NV, 89415","No_Match",NA,NA,NA,NA
340291,"PO BOX 2277","MISSION VIEJO","CA",92690,NA,NA,291,"PO BOX 2277, MISSION VIEJO, CA, 92690","No_Match",NA,NA,NA,NA
340292,"PO BOX 22777","KANSAS CITY","MO",64113,NA,NA,292,"PO BOX 22777, KANSAS CITY, MO, 64113","No_Match",NA,NA,NA,NA
340293,"PO BOX 2278","KYLE","TX",78640,NA,NA,293,"PO BOX 2278, KYLE, TX, 78640","No_Match",NA,NA,NA,NA
340294,"PO BOX 2278","RIDGECREST","CA",93556,NA,NA,294,"PO BOX 2278, RIDGECREST, CA, 93556","No_Match",NA,NA,NA,NA
340295,"PO BOX 22790","SACRAMENTO","CA",95822,NA,NA,295,"PO BOX 22790, SACRAMENTO, CA, 95822","No_Match",NA,NA,NA,NA
340296,"PO BOX 228","CHILLICOTHE","MO",64601,NA,NA,296,"PO BOX 228, CHILLICOTHE, MO, 64601","No_Match",NA,NA,NA,NA
340297,"PO BOX 228","CLAYTON","OH",45315,NA,NA,297,"PO BOX 228, CLAYTON, OH, 45315","No_Match",NA,NA,NA,NA
340298,"PO BOX 228","DAYTON","TN",37321,NA,NA,298,"PO BOX 228, DAYTON, TN, 37321","No_Match",NA,NA,NA,NA
340299,"PO BOX 228","IOWA CITY","IA",52244,NA,NA,299,"PO BOX 228, IOWA CITY, IA, 52244","No_Match",NA,NA,NA,NA
340300,"PO BOX 228","MARBLEHEAD","MA",1945,NA,NA,300,"PO BOX 228, MARBLEHEAD, MA, 1945","No_Match",NA,NA,NA,NA
340301,"PO BOX 228","ORANGEFIELD","TX",77639,NA,NA,301,"PO BOX 228, ORANGEFIELD, TX, 77639","No_Match",NA,NA,NA,NA
340302,"PO BOX 228","OSBORNE","KS",67473,NA,NA,302,"PO BOX 228, OSBORNE, KS, 67473","No_Match",NA,NA,NA,NA
340303,"PO BOX 228","PEABODY","MA",1960,NA,NA,303,"PO BOX 228, PEABODY, MA, 1960","No_Match",NA,NA,NA,NA
340304,"PO BOX 228","PENTWATER","MI",49449,NA,NA,304,"PO BOX 228, PENTWATER, MI, 49449","No_Match",NA,NA,NA,NA
340305,"PO BOX 228","STANDISH","ME",4084,NA,NA,305,"PO BOX 228, STANDISH, ME, 4084","No_Match",NA,NA,NA,NA
340306,"PO BOX 228","STROUDSBURG","PA",18360,NA,NA,306,"PO BOX 228, STROUDSBURG, PA, 18360","No_Match",NA,NA,NA,NA
340307,"PO BOX 2280","BOULDER","CO",80306,NA,NA,307,"PO BOX 2280, BOULDER, CO, 80306","No_Match",NA,NA,NA,NA
340308,"PO BOX 2280","PINEDALE","WY",82941,NA,NA,308,"PO BOX 2280, PINEDALE, WY, 82941","No_Match",NA,NA,NA,NA
340309,"PO BOX 2280","STATESBORO","GA",30459,NA,NA,309,"PO BOX 2280, STATESBORO, GA, 30459","No_Match",NA,NA,NA,NA
340310,"PO BOX 22805","OAKLAND","CA",94609,NA,NA,310,"PO BOX 22805, OAKLAND, CA, 94609","No_Match",NA,NA,NA,NA
340311,"PO BOX 2281","STUART","FL",34995,NA,NA,311,"PO BOX 2281, STUART, FL, 34995","No_Match",NA,NA,NA,NA
340312,"PO BOX 2282","DOVER","OH",44622,NA,NA,312,"PO BOX 2282, DOVER, OH, 44622","No_Match",NA,NA,NA,NA
340313,"PO BOX 2282","LAKE OSWEGO","OR",97035,NA,NA,313,"PO BOX 2282, LAKE OSWEGO, OR, 97035","No_Match",NA,NA,NA,NA
340314,"PO BOX 2282","LEES SUMMIT","MO",64063,NA,NA,314,"PO BOX 2282, LEES SUMMIT, MO, 64063","No_Match",NA,NA,NA,NA
340315,"PO BOX 2282","MOREHEAD CITY","NC",28557,NA,NA,315,"PO BOX 2282, MOREHEAD CITY, NC, 28557","No_Match",NA,NA,NA,NA
340316,"PO BOX 2283","CEDAR HILL","TX",75106,NA,NA,316,"PO BOX 2283, CEDAR HILL, TX, 75106","No_Match",NA,NA,NA,NA
340317,"PO BOX 2283","OAK RIDGE","NJ",7438,NA,NA,317,"PO BOX 2283, OAK RIDGE, NJ, 7438","No_Match",NA,NA,NA,NA
340318,"PO BOX 2283","WALTERBORO","SC",29488,NA,NA,318,"PO BOX 2283, WALTERBORO, SC, 29488","No_Match",NA,NA,NA,NA
340319,"PO BOX 22833","ALEXANDRIA","VA",22304,NA,NA,319,"PO BOX 22833, ALEXANDRIA, VA, 22304","No_Match",NA,NA,NA,NA
340320,"PO BOX 2284","MOREHEAD CITY","NC",28557,NA,NA,320,"PO BOX 2284, MOREHEAD CITY, NC, 28557","No_Match",NA,NA,NA,NA
340321,"PO BOX 2284","SHARON","PA",16146,NA,NA,321,"PO BOX 2284, SHARON, PA, 16146","No_Match",NA,NA,NA,NA
340322,"PO BOX 2285","EAGLE LAKE","FL",33839,NA,NA,322,"PO BOX 2285, EAGLE LAKE, FL, 33839","No_Match",NA,NA,NA,NA
340323,"PO BOX 2286","CAMARILLO","CA",93011,NA,NA,323,"PO BOX 2286, CAMARILLO, CA, 93011","No_Match",NA,NA,NA,NA
340324,"PO BOX 2286","GARDEN CITY","ID",83701,NA,NA,324,"PO BOX 2286, GARDEN CITY, ID, 83701","No_Match",NA,NA,NA,NA
340325,"PO BOX 2286","JACKSON","WY",83001,NA,NA,325,"PO BOX 2286, JACKSON, WY, 83001","No_Match",NA,NA,NA,NA
340326,"PO BOX 2286","NEW YORK","NY",10027,NA,NA,326,"PO BOX 2286, NEW YORK, NY, 10027","No_Match",NA,NA,NA,NA
340327,"PO BOX 22866","SAVANNAH","GA",31403,NA,NA,327,"PO BOX 22866, SAVANNAH, GA, 31403","No_Match",NA,NA,NA,NA
340328,"PO BOX 22867","BROOKLYN","NY",11201,NA,NA,328,"PO BOX 22867, BROOKLYN, NY, 11201","No_Match",NA,NA,NA,NA
340329,"PO BOX 2287","LAKE HAVASU CITY","AZ",86405,NA,NA,329,"PO BOX 2287, LAKE HAVASU CITY, AZ, 86405","No_Match",NA,NA,NA,NA
340330,"PO BOX 22872","LOUISVILLE","KY",40252,NA,NA,330,"PO BOX 22872, LOUISVILLE, KY, 40252","No_Match",NA,NA,NA,NA
340331,"PO BOX 2288","SUWANEE","GA",30024,NA,NA,331,"PO BOX 2288, SUWANEE, GA, 30024","No_Match",NA,NA,NA,NA
340332,"PO BOX 2288822","MIAMI","FL",33222,NA,NA,332,"PO BOX 2288822, MIAMI, FL, 33222","No_Match",NA,NA,NA,NA
340333,"PO BOX 2289","MCKINNEY","TX",75070,NA,NA,333,"PO BOX 2289, MCKINNEY, TX, 75070","No_Match",NA,NA,NA,NA
340334,"PO BOX 22891","ALEXANDRIA","VA",22304,NA,NA,334,"PO BOX 22891, ALEXANDRIA, VA, 22304","No_Match",NA,NA,NA,NA
340335,"PO BOX 229","BARABOO","WI",53913,NA,NA,335,"PO BOX 229, BARABOO, WI, 53913","No_Match",NA,NA,NA,NA
340336,"PO BOX 229","CRESTED BUTTE","CO",81224,NA,NA,336,"PO BOX 229, CRESTED BUTTE, CO, 81224","No_Match",NA,NA,NA,NA
340337,"PO BOX 229","GREENVILLE","TX",75403,NA,NA,337,"PO BOX 229, GREENVILLE, TX, 75403","No_Match",NA,NA,NA,NA
340338,"PO BOX 229","HARRISON","NY",10528,NA,NA,338,"PO BOX 229, HARRISON, NY, 10528","No_Match",NA,NA,NA,NA
340339,"PO BOX 229","ST IGNATIUS","MT",59865,NA,NA,339,"PO BOX 229, ST IGNATIUS, MT, 59865","No_Match",NA,NA,NA,NA
340340,"PO BOX 229","VINEYARD HAVEN","MA",2568,NA,NA,340,"PO BOX 229, VINEYARD HAVEN, MA, 2568","No_Match",NA,NA,NA,NA
340341,"PO BOX 2290","BRANDON","FL",33509,NA,NA,341,"PO BOX 2290, BRANDON, FL, 33509","No_Match",NA,NA,NA,NA
340342,"PO BOX 2291","GALLUP","NM",87305,NA,NA,342,"PO BOX 2291, GALLUP, NM, 87305","No_Match",NA,NA,NA,NA
340343,"PO BOX 2292","BELLAIRE","TX",77402,NA,NA,343,"PO BOX 2292, BELLAIRE, TX, 77402","No_Match",NA,NA,NA,NA
340344,"PO BOX 2292","MIDLAND","TX",79702,NA,NA,344,"PO BOX 2292, MIDLAND, TX, 79702","No_Match",NA,NA,NA,NA
340345,"PO BOX 2293","CHARLOTTESVILLE","VA",22902,NA,NA,345,"PO BOX 2293, CHARLOTTESVILLE, VA, 22902","No_Match",NA,NA,NA,NA
340346,"PO BOX 2293","GRAND RAPIDS","MI",49501,NA,NA,346,"PO BOX 2293, GRAND RAPIDS, MI, 49501","No_Match",NA,NA,NA,NA
340347,"PO BOX 2294","STAFFORD","VA",22555,NA,NA,347,"PO BOX 2294, STAFFORD, VA, 22555","No_Match",NA,NA,NA,NA
340348,"PO BOX 2294","VINELAND","NJ",8362,NA,NA,348,"PO BOX 2294, VINELAND, NJ, 8362","No_Match",NA,NA,NA,NA
340349,"PO BOX 2295","OTTAWA","IL",61350,NA,NA,349,"PO BOX 2295, OTTAWA, IL, 61350","No_Match",NA,NA,NA,NA
340350,"PO BOX 22959","HOUSTON","TX",77227,NA,NA,350,"PO BOX 22959, HOUSTON, TX, 77227","No_Match",NA,NA,NA,NA
340351,"PO BOX 2296","ANGLETON","TX",77516,NA,NA,351,"PO BOX 2296, ANGLETON, TX, 77516","No_Match",NA,NA,NA,NA
340352,"PO BOX 2296","ANTIOCH","TN",37013,NA,NA,352,"PO BOX 2296, ANTIOCH, TN, 37013","No_Match",NA,NA,NA,NA
340353,"PO BOX 2296","CYPRESS","TX",77410,NA,NA,353,"PO BOX 2296, CYPRESS, TX, 77410","No_Match",NA,NA,NA,NA
340354,"PO BOX 2296","HONOLULU","HI",96804,NA,NA,354,"PO BOX 2296, HONOLULU, HI, 96804","No_Match",NA,NA,NA,NA
340355,"PO BOX 2297","EWA BEACH","HI",96706,NA,NA,355,"PO BOX 2297, EWA BEACH, HI, 96706","No_Match",NA,NA,NA,NA
340356,"PO BOX 2297","HAGATNA","GU",96932,NA,NA,356,"PO BOX 2297, HAGATNA, GU, 96932","No_Match",NA,NA,NA,NA
340357,"PO BOX 2297","HARKER HEIGHTS","TX",76548,NA,NA,357,"PO BOX 2297, HARKER HEIGHTS, TX, 76548","No_Match",NA,NA,NA,NA
340358,"PO BOX 22971","ALEXANDRIA","VA",22304,NA,NA,358,"PO BOX 22971, ALEXANDRIA, VA, 22304","No_Match",NA,NA,NA,NA
340359,"PO BOX 2298","FLORISSANT","MO",63032,NA,NA,359,"PO BOX 2298, FLORISSANT, MO, 63032","No_Match",NA,NA,NA,NA
340360,"PO BOX 2298","MUSKOGEE","OK",74402,NA,NA,360,"PO BOX 2298, MUSKOGEE, OK, 74402","No_Match",NA,NA,NA,NA
340361,"PO BOX 2298","PEEKSKILL","NY",10566,NA,NA,361,"PO BOX 2298, PEEKSKILL, NY, 10566","No_Match",NA,NA,NA,NA
340362,"PO BOX 22995","SEATTLE","WA",98122,NA,NA,362,"PO BOX 22995, SEATTLE, WA, 98122","No_Match",NA,NA,NA,NA
340363,"PO BOX 23    206 JOSEPHINE STREET","BERRYVILLE","VA",22611,39.1430798600001,-77.9815694489999,363,"PO BOX 23    206 JOSEPHINE STREET, BERRYVILLE, VA, 22611","Match","Exact","206 JOSEPHINE ST, BERRYVILLE, VA, 22611",125889541,"R"
340364,"PO BOX 23","ALVARADO","TX",76009,NA,NA,364,"PO BOX 23, ALVARADO, TX, 76009","No_Match",NA,NA,NA,NA
340365,"PO BOX 23","ARIVACA","AZ",85601,NA,NA,365,"PO BOX 23, ARIVACA, AZ, 85601","No_Match",NA,NA,NA,NA
340366,"PO BOX 23","BENSON","MN",56215,NA,NA,366,"PO BOX 23, BENSON, MN, 56215","No_Match",NA,NA,NA,NA
340367,"PO BOX 23","BOMOSEEN","VT",5832,NA,NA,367,"PO BOX 23, BOMOSEEN, VT, 5832","No_Match",NA,NA,NA,NA
340368,"PO BOX 23","BOUNTIFUL","UT",84011,NA,NA,368,"PO BOX 23, BOUNTIFUL, UT, 84011","No_Match",NA,NA,NA,NA
340369,"PO BOX 23","CHAMBERLAIN","ME",4541,NA,NA,369,"PO BOX 23, CHAMBERLAIN, ME, 4541","No_Match",NA,NA,NA,NA
340370,"PO BOX 23","CHERRYVILLE","NC",28021,NA,NA,370,"PO BOX 23, CHERRYVILLE, NC, 28021","No_Match",NA,NA,NA,NA
340371,"PO BOX 23","COON VALLEY","WI",54623,NA,NA,371,"PO BOX 23, COON VALLEY, WI, 54623","No_Match",NA,NA,NA,NA
340372,"PO BOX 23","COTTEKILL","NY",12419,NA,NA,372,"PO BOX 23, COTTEKILL, NY, 12419","No_Match",NA,NA,NA,NA
340373,"PO BOX 23","DEWITT","NY",13214,NA,NA,373,"PO BOX 23, DEWITT, NY, 13214","No_Match",NA,NA,NA,NA
340374,"PO BOX 23","ELBRIDGE","NY",13060,NA,NA,374,"PO BOX 23, ELBRIDGE, NY, 13060","No_Match",NA,NA,NA,NA
340375,"PO BOX 23","ELKHORN","WI",53121,NA,NA,375,"PO BOX 23, ELKHORN, WI, 53121","No_Match",NA,NA,NA,NA
340376,"PO BOX 23","ENGLEWOOD","OH",45322,NA,NA,376,"PO BOX 23, ENGLEWOOD, OH, 45322","No_Match",NA,NA,NA,NA
340377,"PO BOX 23","FAYETTEVILLE","PA",17222,NA,NA,377,"PO BOX 23, FAYETTEVILLE, PA, 17222","No_Match",NA,NA,NA,NA
340378,"PO BOX 23","FRUITLAND","IA",52749,NA,NA,378,"PO BOX 23, FRUITLAND, IA, 52749","No_Match",NA,NA,NA,NA
340379,"PO BOX 23","HADLYME","CT",6439,NA,NA,379,"PO BOX 23, HADLYME, CT, 6439","No_Match",NA,NA,NA,NA
340380,"PO BOX 23","HAGERSTOWN","IN",47346,NA,NA,380,"PO BOX 23, HAGERSTOWN, IN, 47346","No_Match",NA,NA,NA,NA
340381,"PO BOX 23","HEMPSTEAD","TX",77445,NA,NA,381,"PO BOX 23, HEMPSTEAD, TX, 77445","No_Match",NA,NA,NA,NA
340382,"PO BOX 23","HYDE PARK","NY",12538,NA,NA,382,"PO BOX 23, HYDE PARK, NY, 12538","No_Match",NA,NA,NA,NA
340383,"PO BOX 23","INDEPENDENCE","MS",38638,NA,NA,383,"PO BOX 23, INDEPENDENCE, MS, 38638","No_Match",NA,NA,NA,NA
340384,"PO BOX 23","INDIANA","PA",15701,NA,NA,384,"PO BOX 23, INDIANA, PA, 15701","No_Match",NA,NA,NA,NA
340385,"PO BOX 23","INTERLOCHEN","MI",49643,NA,NA,385,"PO BOX 23, INTERLOCHEN, MI, 49643","No_Match",NA,NA,NA,NA
340386,"PO BOX 23","KILLDEER","ND",58640,NA,NA,386,"PO BOX 23, KILLDEER, ND, 58640","No_Match",NA,NA,NA,NA
340387,"PO BOX 23","KINGWOOD","WV",26537,NA,NA,387,"PO BOX 23, KINGWOOD, WV, 26537","No_Match",NA,NA,NA,NA
340388,"PO BOX 23","LIZELLA","GA",31052,NA,NA,388,"PO BOX 23, LIZELLA, GA, 31052","No_Match",NA,NA,NA,NA
340389,"PO BOX 23","MANZANITA","OR",97130,NA,NA,389,"PO BOX 23, MANZANITA, OR, 97130","No_Match",NA,NA,NA,NA
340390,"PO BOX 23","MARSHALL","TX",75671,NA,NA,390,"PO BOX 23, MARSHALL, TX, 75671","No_Match",NA,NA,NA,NA
340391,"PO BOX 23","MERCEDES","TX",78570,NA,NA,391,"PO BOX 23, MERCEDES, TX, 78570","No_Match",NA,NA,NA,NA
340392,"PO BOX 23","MOGADORE","OH",44260,NA,NA,392,"PO BOX 23, MOGADORE, OH, 44260","No_Match",NA,NA,NA,NA
340393,"PO BOX 23","MT HOLLY","NC",28120,NA,NA,393,"PO BOX 23, MT HOLLY, NC, 28120","No_Match",NA,NA,NA,NA
340394,"PO BOX 23","NARBERTH","PA",19063,NA,NA,394,"PO BOX 23, NARBERTH, PA, 19063","No_Match",NA,NA,NA,NA
340395,"PO BOX 23","NEWCASTLE","WY",82701,NA,NA,395,"PO BOX 23, NEWCASTLE, WY, 82701","No_Match",NA,NA,NA,NA
340396,"PO BOX 23","NORTH EASTON","MA",2356,NA,NA,396,"PO BOX 23, NORTH EASTON, MA, 2356","No_Match",NA,NA,NA,NA
340397,"PO BOX 23","NORTHWOOD","NH",3261,NA,NA,397,"PO BOX 23, NORTHWOOD, NH, 3261","No_Match",NA,NA,NA,NA
340398,"PO BOX 23","ONSTED","MI",49265,NA,NA,398,"PO BOX 23, ONSTED, MI, 49265","No_Match",NA,NA,NA,NA
340399,"PO BOX 23","POMEROY","WA",99347,NA,NA,399,"PO BOX 23, POMEROY, WA, 99347","No_Match",NA,NA,NA,NA
340400,"PO BOX 23","PRAIRIE GROVE","AR",72753,NA,NA,400,"PO BOX 23, PRAIRIE GROVE, AR, 72753","No_Match",NA,NA,NA,NA
340401,"PO BOX 23","RED FEATHER LAKES","CO",80545,NA,NA,401,"PO BOX 23, RED FEATHER LAKES, CO, 80545","No_Match",NA,NA,NA,NA
340402,"PO BOX 23","SMITH","NV",89430,NA,NA,402,"PO BOX 23, SMITH, NV, 89430","No_Match",NA,NA,NA,NA
340403,"PO BOX 23","UTE PARK","NM",87714,NA,NA,403,"PO BOX 23, UTE PARK, NM, 87714","No_Match",NA,NA,NA,NA
340404,"PO BOX 23","WAKEFIELD","MI",49968,NA,NA,404,"PO BOX 23, WAKEFIELD, MI, 49968","No_Match",NA,NA,NA,NA
340405,"PO BOX 23","WAKEFIELD","VA",23888,NA,NA,405,"PO BOX 23, WAKEFIELD, VA, 23888","No_Match",NA,NA,NA,NA
340406,"PO BOX 23","WAYNESBORO","MS",39367,NA,NA,406,"PO BOX 23, WAYNESBORO, MS, 39367","No_Match",NA,NA,NA,NA
340407,"PO BOX 23","WELLSBURG","NY",14894,NA,NA,407,"PO BOX 23, WELLSBURG, NY, 14894","No_Match",NA,NA,NA,NA
340408,"PO BOX 230","AMARILLO","TX",79105,NA,NA,408,"PO BOX 230, AMARILLO, TX, 79105","No_Match",NA,NA,NA,NA
340409,"PO BOX 230","BAJADERO","PR",616,NA,NA,409,"PO BOX 230, BAJADERO, PR, 616","No_Match",NA,NA,NA,NA
340410,"PO BOX 230","DENIO","NV",89404,NA,NA,410,"PO BOX 230, DENIO, NV, 89404","No_Match",NA,NA,NA,NA
340411,"PO BOX 230","DOVER","DE",19903,NA,NA,411,"PO BOX 230, DOVER, DE, 19903","No_Match",NA,NA,NA,NA
340412,"PO BOX 230","HARTLAND","WI",53029,NA,NA,412,"PO BOX 230, HARTLAND, WI, 53029","No_Match",NA,NA,NA,NA
340413,"PO BOX 230","MARION","OH",43301,NA,NA,413,"PO BOX 230, MARION, OH, 43301","No_Match",NA,NA,NA,NA
340414,"PO BOX 230","NASHUA","NH",3061,NA,NA,414,"PO BOX 230, NASHUA, NH, 3061","No_Match",NA,NA,NA,NA
340415,"PO BOX 230","NORTHFIELD","VT",5663,NA,NA,415,"PO BOX 230, NORTHFIELD, VT, 5663","No_Match",NA,NA,NA,NA
340416,"PO BOX 230","OAKDALE","CA",95361,NA,NA,416,"PO BOX 230, OAKDALE, CA, 95361","No_Match",NA,NA,NA,NA
340417,"PO BOX 230","ORADELL","NJ",7649,NA,NA,417,"PO BOX 230, ORADELL, NJ, 7649","No_Match",NA,NA,NA,NA
340418,"PO BOX 230","PADUCAH","TX",79248,NA,NA,418,"PO BOX 230, PADUCAH, TX, 79248","No_Match",NA,NA,NA,NA
340419,"PO BOX 230","PERKINSVILLE","VT",5151,NA,NA,419,"PO BOX 230, PERKINSVILLE, VT, 5151","No_Match",NA,NA,NA,NA
340420,"PO BOX 230","PERU","ME",4290,NA,NA,420,"PO BOX 230, PERU, ME, 4290","No_Match",NA,NA,NA,NA
340421,"PO BOX 230013","HOLLIS","NY",11423,NA,NA,421,"PO BOX 230013, HOLLIS, NY, 11423","No_Match",NA,NA,NA,NA
340422,"PO BOX 230098","HOLLIS","NY",11423,NA,NA,422,"PO BOX 230098, HOLLIS, NY, 11423","No_Match",NA,NA,NA,NA
340423,"PO BOX 2301","NEVADA CITY","CA",95959,NA,NA,423,"PO BOX 2301, NEVADA CITY, CA, 95959","No_Match",NA,NA,NA,NA
340424,"PO BOX 2301","RIDGECREST","CA",93556,NA,NA,424,"PO BOX 2301, RIDGECREST, CA, 93556","No_Match",NA,NA,NA,NA
340425,"PO BOX 230102","BOSTON","MA",2123,NA,NA,425,"PO BOX 230102, BOSTON, MA, 2123","No_Match",NA,NA,NA,NA
340426,"PO BOX 230104","TIGARD","OR",97281,NA,NA,426,"PO BOX 230104, TIGARD, OR, 97281","No_Match",NA,NA,NA,NA
340427,"PO BOX 230145","HOLLIS","NY",11423,NA,NA,427,"PO BOX 230145, HOLLIS, NY, 11423","No_Match",NA,NA,NA,NA
340428,"PO BOX 23016","BEAUMONT","TX",77720,NA,NA,428,"PO BOX 23016, BEAUMONT, TX, 77720","No_Match",NA,NA,NA,NA
340429,"PO BOX 230194","TIGARD","OR",97281,NA,NA,429,"PO BOX 230194, TIGARD, OR, 97281","No_Match",NA,NA,NA,NA
340430,"PO BOX 2302","BEAUMONT","TX",77704,NA,NA,430,"PO BOX 2302, BEAUMONT, TX, 77704","No_Match",NA,NA,NA,NA
340431,"PO BOX 2302","LAKE PLACID","FL",33862,NA,NA,431,"PO BOX 2302, LAKE PLACID, FL, 33862","No_Match",NA,NA,NA,NA
340432,"PO BOX 2302","PRINCETON","NJ",8543,NA,NA,432,"PO BOX 2302, PRINCETON, NJ, 8543","No_Match",NA,NA,NA,NA
340433,"PO BOX 2302","TUSCALOOSA","AL",35403,NA,NA,433,"PO BOX 2302, TUSCALOOSA, AL, 35403","No_Match",NA,NA,NA,NA
340434,"PO BOX 23021","PROVIDENCE","RI",2903,NA,NA,434,"PO BOX 23021, PROVIDENCE, RI, 2903","No_Match",NA,NA,NA,NA
340435,"PO BOX 230211","TIGARD","OR",97281,NA,NA,435,"PO BOX 230211, TIGARD, OR, 97281","No_Match",NA,NA,NA,NA
340436,"PO BOX 230213","CHANTILLY","VA",20120,NA,NA,436,"PO BOX 230213, CHANTILLY, VA, 20120","No_Match",NA,NA,NA,NA
340437,"PO BOX 23022","SAN BERNARDINO","CA",92406,NA,NA,437,"PO BOX 23022, SAN BERNARDINO, CA, 92406","No_Match",NA,NA,NA,NA
340438,"PO BOX 230222","HOUSTON","TX",77223,NA,NA,438,"PO BOX 230222, HOUSTON, TX, 77223","No_Match",NA,NA,NA,NA
340439,"PO BOX 230256","HOLLIS","NY",11423,NA,NA,439,"PO BOX 230256, HOLLIS, NY, 11423","No_Match",NA,NA,NA,NA
340440,"PO BOX 230274","LAS VEGAS","NV",89105,NA,NA,440,"PO BOX 230274, LAS VEGAS, NV, 89105","No_Match",NA,NA,NA,NA
340441,"PO BOX 230276","ANCHORAGE","AK",99523,NA,NA,441,"PO BOX 230276, ANCHORAGE, AK, 99523","No_Match",NA,NA,NA,NA
340442,"PO BOX 2303","ALMA","AR",72921,NA,NA,442,"PO BOX 2303, ALMA, AR, 72921","No_Match",NA,NA,NA,NA
340443,"PO BOX 2303","LAWRENCE","KS",66044,NA,NA,443,"PO BOX 2303, LAWRENCE, KS, 66044","No_Match",NA,NA,NA,NA
340444,"PO BOX 23030","LEXINGTON","KY",40523,NA,NA,444,"PO BOX 23030, LEXINGTON, KY, 40523","No_Match",NA,NA,NA,NA
340445,"PO BOX 23030","PHILADELPHIA","PA",19124,NA,NA,445,"PO BOX 23030, PHILADELPHIA, PA, 19124","No_Match",NA,NA,NA,NA
340446,"PO BOX 230315","LAS VEGAS","NV",89105,NA,NA,446,"PO BOX 230315, LAS VEGAS, NV, 89105","No_Match",NA,NA,NA,NA
340447,"PO BOX 230371","HOUSTON","TX",77223,NA,NA,447,"PO BOX 230371, HOUSTON, TX, 77223","No_Match",NA,NA,NA,NA
340448,"PO BOX 230393","ANCHORAGE","AK",99523,NA,NA,448,"PO BOX 230393, ANCHORAGE, AK, 99523","No_Match",NA,NA,NA,NA
340449,"PO BOX 2304","MORRISTOWN","NJ",7962,NA,NA,449,"PO BOX 2304, MORRISTOWN, NJ, 7962","No_Match",NA,NA,NA,NA
340450,"PO BOX 23043","RICHFIELD","MN",55423,NA,NA,450,"PO BOX 23043, RICHFIELD, MN, 55423","No_Match",NA,NA,NA,NA
340451,"PO BOX 230445","BROOKLYN","NY",11223,NA,NA,451,"PO BOX 230445, BROOKLYN, NY, 11223","No_Match",NA,NA,NA,NA
340452,"PO BOX 230474","HOUSTON","TX",77023,NA,NA,452,"PO BOX 230474, HOUSTON, TX, 77023","No_Match",NA,NA,NA,NA
340453,"PO BOX 2305","BLOOMFIELD","NM",87413,NA,NA,453,"PO BOX 2305, BLOOMFIELD, NM, 87413","No_Match",NA,NA,NA,NA
340454,"PO BOX 2305","BURLESON","TX",76097,NA,NA,454,"PO BOX 2305, BURLESON, TX, 76097","No_Match",NA,NA,NA,NA
340455,"PO BOX 2305","MCKINNEY","TX",75070,NA,NA,455,"PO BOX 2305, MCKINNEY, TX, 75070","No_Match",NA,NA,NA,NA
340456,"PO BOX 2305","TAYLOR","MI",48180,NA,NA,456,"PO BOX 2305, TAYLOR, MI, 48180","No_Match",NA,NA,NA,NA
340457,"PO BOX 23055","OVERLAND PARK","KS",66283,NA,NA,457,"PO BOX 23055, OVERLAND PARK, KS, 66283","No_Match",NA,NA,NA,NA
340458,"PO BOX 23056","SAN ANTONIO","TX",78223,NA,NA,458,"PO BOX 23056, SAN ANTONIO, TX, 78223","No_Match",NA,NA,NA,NA
340459,"PO BOX 2306","ALAMEDA","CA",94501,NA,NA,459,"PO BOX 2306, ALAMEDA, CA, 94501","No_Match",NA,NA,NA,NA
340460,"PO BOX 2306","APTOS","CA",95001,NA,NA,460,"PO BOX 2306, APTOS, CA, 95001","No_Match",NA,NA,NA,NA
340461,"PO BOX 2306","BARTLESVILLE","OK",74005,NA,NA,461,"PO BOX 2306, BARTLESVILLE, OK, 74005","No_Match",NA,NA,NA,NA
340462,"PO BOX 2306","KAILUA KONA","HI",96745,NA,NA,462,"PO BOX 2306, KAILUA KONA, HI, 96745","No_Match",NA,NA,NA,NA
340463,"PO BOX 2306","LAKESIDE AZ","AZ",85929,NA,NA,463,"PO BOX 2306, LAKESIDE AZ, AZ, 85929","No_Match",NA,NA,NA,NA
340464,"PO BOX 23061","LITTLE ROCK","AR",72221,NA,NA,464,"PO BOX 23061, LITTLE ROCK, AR, 72221","No_Match",NA,NA,NA,NA
340465,"PO BOX 230653","BOSTON","MA",2123,NA,NA,465,"PO BOX 230653, BOSTON, MA, 2123","No_Match",NA,NA,NA,NA
340466,"PO BOX 230662","GRAND RAPIDS","MI",49523,NA,NA,466,"PO BOX 230662, GRAND RAPIDS, MI, 49523","No_Match",NA,NA,NA,NA
340467,"PO BOX 23067","TOLEDO","OH",43623,NA,NA,467,"PO BOX 23067, TOLEDO, OH, 43623","No_Match",NA,NA,NA,NA
340468,"PO BOX 230684","ANCHORAGE","AK",99523,NA,NA,468,"PO BOX 230684, ANCHORAGE, AK, 99523","No_Match",NA,NA,NA,NA
340469,"PO BOX 2307","EASTHAMPTON","NY",11937,NA,NA,469,"PO BOX 2307, EASTHAMPTON, NY, 11937","No_Match",NA,NA,NA,NA
340470,"PO BOX 2307","GALLUP","NM",87305,NA,NA,470,"PO BOX 2307, GALLUP, NM, 87305","No_Match",NA,NA,NA,NA
340471,"PO BOX 2308","LONGVIEW","WA",98632,NA,NA,471,"PO BOX 2308, LONGVIEW, WA, 98632","No_Match",NA,NA,NA,NA
340472,"PO BOX 2308","STAUNTON","VA",24402,NA,NA,472,"PO BOX 2308, STAUNTON, VA, 24402","No_Match",NA,NA,NA,NA
340473,"PO BOX 2308","WAIANAE","HI",96792,NA,NA,473,"PO BOX 2308, WAIANAE, HI, 96792","No_Match",NA,NA,NA,NA
340474,"PO BOX 23083","LEXINGTON","KY",40523,NA,NA,474,"PO BOX 23083, LEXINGTON, KY, 40523","No_Match",NA,NA,NA,NA
340475,"PO BOX 23083","RICHFIELD","MN",55423,NA,NA,475,"PO BOX 23083, RICHFIELD, MN, 55423","No_Match",NA,NA,NA,NA
340476,"PO BOX 23087","JACKSONVILLE","FL",32241,NA,NA,476,"PO BOX 23087, JACKSONVILLE, FL, 32241","No_Match",NA,NA,NA,NA
340477,"PO BOX 230884","LAS VEGAS","NV",89105,NA,NA,477,"PO BOX 230884, LAS VEGAS, NV, 89105","No_Match",NA,NA,NA,NA
340478,"PO BOX 230893","MONTGOMERY","AL",36123,NA,NA,478,"PO BOX 230893, MONTGOMERY, AL, 36123","No_Match",NA,NA,NA,NA
340479,"PO BOX 230898","LAS VEGAS","NV",89105,NA,NA,479,"PO BOX 230898, LAS VEGAS, NV, 89105","No_Match",NA,NA,NA,NA
340480,"PO BOX 2309","JOPLIN","MO",64803,NA,NA,480,"PO BOX 2309, JOPLIN, MO, 64803","No_Match",NA,NA,NA,NA
340481,"PO BOX 23090","RICHMOND","VA",23223,NA,NA,481,"PO BOX 23090, RICHMOND, VA, 23223","No_Match",NA,NA,NA,NA
340482,"PO BOX 23091","OAKLAND","CA",94623,NA,NA,482,"PO BOX 23091, OAKLAND, CA, 94623","No_Match",NA,NA,NA,NA
340483,"PO BOX 230917","BOSTON","MA",2123,NA,NA,483,"PO BOX 230917, BOSTON, MA, 2123","No_Match",NA,NA,NA,NA
340484,"PO BOX 23095","COLUMBIA","SC",29224,NA,NA,484,"PO BOX 23095, COLUMBIA, SC, 29224","No_Match",NA,NA,NA,NA
340485,"PO BOX 230951","ANCHORAGE","AK",99523,NA,NA,485,"PO BOX 230951, ANCHORAGE, AK, 99523","No_Match",NA,NA,NA,NA
340486,"PO BOX 23097","PROVIDENCE","RI",2903,NA,NA,486,"PO BOX 23097, PROVIDENCE, RI, 2903","No_Match",NA,NA,NA,NA
340487,"PO BOX 231","BENNINGTON","KS",67422,NA,NA,487,"PO BOX 231, BENNINGTON, KS, 67422","No_Match",NA,NA,NA,NA
340488,"PO BOX 231","BISHOPVILLE","SC",29010,NA,NA,488,"PO BOX 231, BISHOPVILLE, SC, 29010","No_Match",NA,NA,NA,NA
340489,"PO BOX 231","BUFFALO","WY",82834,NA,NA,489,"PO BOX 231, BUFFALO, WY, 82834","No_Match",NA,NA,NA,NA
340490,"PO BOX 231","CAMARILLO","CA",93011,NA,NA,490,"PO BOX 231, CAMARILLO, CA, 93011","No_Match",NA,NA,NA,NA
340491,"PO BOX 231","CLEAR LAKE","IA",50428,NA,NA,491,"PO BOX 231, CLEAR LAKE, IA, 50428","No_Match",NA,NA,NA,NA
340492,"PO BOX 231","COLUMBUS JCT","IA",52738,NA,NA,492,"PO BOX 231, COLUMBUS JCT, IA, 52738","No_Match",NA,NA,NA,NA
340493,"PO BOX 231","COLUMBUS JUNCTION","IA",52738,NA,NA,493,"PO BOX 231, COLUMBUS JUNCTION, IA, 52738","No_Match",NA,NA,NA,NA
340494,"PO BOX 231","CROTHERSVILLE","IN",47229,NA,NA,494,"PO BOX 231, CROTHERSVILLE, IN, 47229","No_Match",NA,NA,NA,NA
340495,"PO BOX 231","DANSVILLE","MI",48819,NA,NA,495,"PO BOX 231, DANSVILLE, MI, 48819","No_Match",NA,NA,NA,NA
340496,"PO BOX 231","FAIRACRES","NM",88033,NA,NA,496,"PO BOX 231, FAIRACRES, NM, 88033","No_Match",NA,NA,NA,NA
340497,"PO BOX 231","FAIRHOPE","AL",36533,NA,NA,497,"PO BOX 231, FAIRHOPE, AL, 36533","No_Match",NA,NA,NA,NA
340498,"PO BOX 231","FAYETTEVILLE","GA",30214,NA,NA,498,"PO BOX 231, FAYETTEVILLE, GA, 30214","No_Match",NA,NA,NA,NA
340499,"PO BOX 231","LYNDEN","WA",98264,NA,NA,499,"PO BOX 231, LYNDEN, WA, 98264","No_Match",NA,NA,NA,NA
340500,"PO BOX 231","MASON","MI",48854,NA,NA,500,"PO BOX 231, MASON, MI, 48854","No_Match",NA,NA,NA,NA
