"ID","Address","City","State","Zip","lat","long","id","input_address","match_indicator","match_type","matched_address","tiger_line_id","tiger_side"
202001,"407 WINDOVER COURT NW","VIENNA","VA",22180,38.9006170590001,-77.272622763,1,"407 WINDOVER COURT NW, VIENNA, VA, 22180","Match","Exact","407 WINDOVER CT NW, VIENNA, VA, 22180",75968736,"R"
202002,"407 YESHIVA LANE APT 3B","PIKESVILLE","MD",21208,39.3879397100001,-76.7518912479999,2,"407 YESHIVA LANE APT 3B, PIKESVILLE, MD, 21208","Match","Exact","407 YESHIVA LN, PIKESVILLE, MD, 21208",191561143,"L"
202003,"4070 HOLLEMAN DRIVE SOUTH","COLLEGE STATION","TX",77845,NA,NA,3,"4070 HOLLEMAN DRIVE SOUTH, COLLEGE STATION, TX, 77845","No_Match",NA,NA,NA,NA
202004,"4070 LAHRING ROAD","LINDEN","MI",48451,42.840975315,-83.7480728419999,4,"4070 LAHRING ROAD, LINDEN, MI, 48451","Match","Exact","4070 LAHRING RD, LINDEN, MI, 48451",69579173,"L"
202005,"4070 MISSION AVENUE","OCEANSIDE","CA",92057,33.2296319370001,-117.321106051,5,"4070 MISSION AVENUE, OCEANSIDE, CA, 92057","Match","Exact","4070 MISSION AVE, OCEANSIDE, CA, 92057",195284007,"L"
202006,"4070 ROSENCRANS RD","WEST RICHLAND","WA",99353,46.2841767290001,-119.346587184,6,"4070 ROSENCRANS RD, WEST RICHLAND, WA, 99353","Match","Exact","4070 ROSENCRANS RD, WEST RICHLAND, WA, 99353",175001927,"L"
202007,"4070 S JEFFERSON PT","HOMOSASSA","FL",34448,28.802210041,-82.5978055849999,7,"4070 S JEFFERSON PT, HOMOSASSA, FL, 34448","Match","Exact","4070 S JEFFERSON PT, HOMOSASSA, FL, 34448",86198899,"L"
202008,"4070 SAN MARCO WAY","DOUGLASVILLE","GA",30135,33.697051819,-84.7116543719999,8,"4070 SAN MARCO WAY, DOUGLASVILLE, GA, 30135","Match","Exact","4070 SAN MARCO WAY, DOUGLASVILLE, GA, 30135",618471708,"R"
202009,"40700 WOODWARD STE 302","BLOOMFIELD HILLS","MI",48304,42.584033961,-83.2453766359999,9,"40700 WOODWARD STE 302, BLOOMFIELD HILLS, MI, 48304","Match","Non_Exact","40700 WOODWARD AVE, BLOOMFIELD HILLS, MI, 48304",69732868,"R"
202010,"40707 COOL VALLEY CIRCLE","ALDIE","VA",20105,38.951108628,-77.594319115,10,"40707 COOL VALLEY CIRCLE, ALDIE, VA, 20105","Match","Exact","40707 COOL VALLEY CIR, ALDIE, VA, 20105",218903574,"R"
202011,"4071 32ND ST","SAN DIEGO","CA",92104,32.7516271690001,-117.125209103,11,"4071 32ND ST, SAN DIEGO, CA, 92104","Match","Exact","4071 32ND ST, SAN DIEGO, CA, 92104",195345760,"R"
202012,"4071 E 49TH ST","NEWBURGH HTS","OH",44105,41.4456094560001,-81.656426847,12,"4071 E 49TH ST, NEWBURGH HTS, OH, 44105","Match","Exact","4071 E 49TH ST, NEWBURGH HEIGHTS, OH, 44105",61179923,"L"
202013,"4071 EDSON AVE","BRONX","NY",10466,40.8918315670001,-73.8442138089999,13,"4071 EDSON AVE, BRONX, NY, 10466","Match","Exact","4071 EDSON AVE, BRONX, NY, 10466",80297697,"L"
202014,"4071 OLD CANOE CREEK RD NUM 701080","Saint cloud","FL",34769,28.238662397,-81.317771636,14,"4071 OLD CANOE CREEK RD NUM 701080, Saint cloud, FL, 34769","Match","Non_Exact","4071 OLD CANOE CREEK RD, SAINT CLOUD, FL, 34769",640009976,"L"
202015,"4071 ROUTE 9","HUDSON","NY",12534,42.2141381960001,-73.7904726949999,15,"4071 ROUTE 9, HUDSON, NY, 12534","Match","Non_Exact","4071 US HWY 9, HUDSON, NY, 12534",640427665,"L"
202016,"4071 SPARTINA CT","BETTENDORF","IA",52722,41.553000646,-90.474643615,16,"4071 SPARTINA CT, BETTENDORF, IA, 52722","Match","Exact","4071 SPARTINA CT, BETTENDORF, IA, 52722",122720666,"R"
202017,"40710 WIMBLEDON CT","PALMDALE","CA",93551,34.622268338,-118.229648952,17,"40710 WIMBLEDON CT, PALMDALE, CA, 93551","Match","Exact","40710 WIMBLEDON CT, PALMDALE, CA, 93551",241213236,"L"
202018,"40718 18TH STREET WEST","PALMDALE","CA",93551,34.622188916,-118.16331028,18,"40718 18TH STREET WEST, PALMDALE, CA, 93551","Match","Exact","40718 18TH ST W, PALMDALE, CA, 93551",641280762,"L"
202019,"4072 BUTTERNUT PLACE","COLLEGE PARK","GA",30349,33.6461414710001,-84.602917084,19,"4072 BUTTERNUT PLACE, COLLEGE PARK, GA, 30349","Match","Exact","4072 BUTTERNUT PL, COLLEGE PARK, GA, 30349",629826933,"L"
202020,"4072 COUNTY ROAD A3200","BIG SPRING","TX",79720,NA,NA,20,"4072 COUNTY ROAD A3200, BIG SPRING, TX, 79720","No_Match",NA,NA,NA,NA
202021,"4072 FOXPOINTE DR","WEST BLOOMFIELD","MI",48323,42.571348576,-83.3635938099999,21,"4072 FOXPOINTE DR, WEST BLOOMFIELD, MI, 48323","Match","Exact","4072 FOXPOINTE DR, W BLOOMFIELD, MI, 48323",69775402,"L"
202022,"4072 GRAND FIR LANE","SAN BERNARDINO","CA",92407,34.189396679,-117.414311122,22,"4072 GRAND FIR LANE, SAN BERNARDINO, CA, 92407","Match","Exact","4072 GRAND FIR LN, SAN BERNARDINO, CA, 92407",650227375,"R"
202023,"4072 INDEPENDENCE DRIVE","LOVELAND","CO",80538,40.411334551,-105.018326949,23,"4072 INDEPENDENCE DRIVE, LOVELAND, CO, 80538","Match","Exact","4072 INDEPENDENCE DR, LOVELAND, CO, 80538",188586070,"R"
202024,"4072 LAURELWOOD DR","CHARLESTON","SC",29414,32.850732549,-80.085550472,24,"4072 LAURELWOOD DR, CHARLESTON, SC, 29414","Match","Exact","4072 LAURELWOOD DR, CHARLESTON, SC, 29414",108889040,"L"
202025,"4072 MCREE AVE","SAINT LOUIS","MO",63110,38.6189825020001,-90.249156173,25,"4072 MCREE AVE, SAINT LOUIS, MO, 63110","Match","Exact","4072 MCREE AVE, SAINT LOUIS, MO, 63110",641145219,"L"
202026,"4072 MCREE AVE","ST. LOUIS","MO",63110,38.6189825020001,-90.249156173,26,"4072 MCREE AVE, ST. LOUIS, MO, 63110","Match","Exact","4072 MCREE AVE, SAINT LOUIS, MO, 63110",641145219,"L"
202027,"4072 N 46 STREET","MILWAUKEE","WI",53216,43.0911505330001,-87.9711114949999,27,"4072 N 46 STREET, MILWAUKEE, WI, 53216","Match","Exact","4072 N 46TH ST, MILWAUKEE, WI, 53216",77731576,"R"
202028,"4072 N BUTLER AVE","INDIANAPOLIS","IN",46226,39.830653596,-86.0803153969999,28,"4072 N BUTLER AVE, INDIANAPOLIS, IN, 46226","Match","Exact","4072 N BUTLER AVE, INDIANAPOLIS, IN, 46226",107999334,"L"
202029,"4072 SPRUCE CREED ROAD","SPRUCE CREEK","PA",16683,NA,NA,29,"4072 SPRUCE CREED ROAD, SPRUCE CREEK, PA, 16683","No_Match",NA,NA,NA,NA
202030,"4072 W SAN RAMON 93722","FRESNO","CA",93722,NA,NA,30,"4072 W SAN RAMON 93722, FRESNO, CA, 93722","No_Match",NA,NA,NA,NA
202031,"4072 W SAN RAMON AVE","FRESNO","CA",93722,36.813492248,-119.864726461,31,"4072 W SAN RAMON AVE, FRESNO, CA, 93722","Match","Exact","4072 W SAN RAMON AVE, FRESNO, CA, 93722",197565596,"L"
202032,"40723 GUALALA PLACE","FREMONT","CA",94539,37.5475189570001,-121.950851436,32,"40723 GUALALA PLACE, FREMONT, CA, 94539","Match","Exact","40723 GUALALA PL, FREMONT, CA, 94539",125033228,"R"
202033,"40724 122ND ST","CLAREMONT","SD",57432,45.617640925,-98.0754120829999,33,"40724 122ND ST, CLAREMONT, SD, 57432","Match","Exact","40724 122ND ST, CLAREMONT, SD, 57432",200805954,"L"
202034,"4073 COMMANCHE DRIVE","TUCKER","GA",30084,33.8525635600001,-84.22182165,34,"4073 COMMANCHE DRIVE, TUCKER, GA, 30084","Match","Exact","4073 COMMANCHE DR, TUCKER, GA, 30084",23363519,"R"
202035,"4073 COONPATH RD","LANCASTER","OH",43130,39.7683607120001,-82.5164069429999,35,"4073 COONPATH RD, LANCASTER, OH, 43130","Match","Non_Exact","4073 COONPATH RD NE, LANCASTER, OH, 43130",37219174,"R"
202036,"4073 COONPATH","LANCASTER","OH",43130,NA,NA,36,"4073 COONPATH, LANCASTER, OH, 43130","No_Match",NA,NA,NA,NA
202037,"4073 HARTNESS ST","MACON","GA",31204,32.8181054670001,-83.704472398,37,"4073 HARTNESS ST, MACON, GA, 31204","Match","Exact","4073 HARTNESS ST, MACON, GA, 31204",81080842,"R"
202038,"4073 HOOVER ROAD","HOLLY SPRINGS","MS",38635,34.849213908,-89.2881806459999,38,"4073 HOOVER ROAD, HOLLY SPRINGS, MS, 38635","Match","Exact","4073 HOOVER RD, HOLLY SPRINGS, MS, 38635",649881256,"L"
202039,"4074 BEECHCREEK","COLUMBUS","OH",43213,39.9694958270001,-82.891216834,39,"4074 BEECHCREEK, COLUMBUS, OH, 43213","Match","Non_Exact","4074 BEECHCREEK RD, COLUMBUS, OH, 43213",218680342,"L"
202040,"4074 BERKELEY MILL CLOSE","DULUTH","GA",30096,33.955784834,-84.153183443,40,"4074 BERKELEY MILL CLOSE, DULUTH, GA, 30096","Match","Non_Exact","4074 BERKELEY MILL CLOSE NW, DULUTH, GA, 30096",88916241,"L"
202041,"4074 BLAINE STREET","DETROIT","MI",48204,42.364972009,-83.117780861,41,"4074 BLAINE STREET, DETROIT, MI, 48204","Match","Exact","4074 BLAINE ST, DETROIT, MI, 48204",95471948,"R"
202042,"4074 BST3 3501 FIFTH AVENUE","PITTSBURGH","PA",15261,40.440599214,-79.960108121,42,"4074 BST3 3501 FIFTH AVENUE, PITTSBURGH, PA, 15261","Match","Non_Exact","3501 5TH AVE, PITTSBURGH, PA, 15213",51648990,"L"
202043,"4074 CEMETERY ROAD","FOWLERVILLE","MI",48836,42.658571561,-84.053599414,43,"4074 CEMETERY ROAD, FOWLERVILLE, MI, 48836","Match","Exact","4074 CEMETERY RD, FOWLERVILLE, MI, 48836",23553756,"R"
202044,"4074 FLOWERFIELD","CIRCLE PINES","MN",55014,45.131547869,-93.167016023,44,"4074 FLOWERFIELD, CIRCLE PINES, MN, 55014","Match","Non_Exact","4074 FLOWERFIELD RD, CIRCLE PINES, MN, 55014",97492713,"R"
202045,"4074 MOZART DRIVE","EL SOBRANTE","CA",94803,37.9673030870001,-122.317213776,45,"4074 MOZART DRIVE, EL SOBRANTE, CA, 94803","Match","Exact","4074 MOZART DR, EL SOBRANTE, CA, 94803",192076776,"L"
202046,"40742 TURTLE LAKE ROUND","BIGFORK","MN",56628,47.654897529,-93.720091143,46,"40742 TURTLE LAKE ROUND, BIGFORK, MN, 56628","Match","Non_Exact","40742 TURTLE LAKE RD, BIGFORK, MN, 56628",162954357,"R"
202047,"40743 LINCOLN ST","CHERRY VALLEY","CA",92223,33.9642284330001,-116.952831671,47,"40743 LINCOLN ST, CHERRY VALLEY, CA, 92223","Match","Exact","40743 LINCOLN ST, CHERRY VALLEY, CA, 92223",194753663,"R"
202048,"4075 275TH ST W","NORTHFIELD","MN",55057,44.550943126,-93.149560766,48,"4075 275TH ST W, NORTHFIELD, MN, 55057","Match","Exact","4075 275TH ST W, NORTHFIELD, MN, 55057",37935121,"L"
202049,"4075 BEAVER OAKS DR","DULUTH","GA",30096,33.9578143750001,-84.1508507459999,49,"4075 BEAVER OAKS DR, DULUTH, GA, 30096","Match","Exact","4075 BEAVER OAKS DR, DULUTH, GA, 30096",88916251,"R"
202050,"4075 BRIDLE PATH LN","MAYSVILLE","KY",41056,NA,NA,50,"4075 BRIDLE PATH LN, MAYSVILLE, KY, 41056","No_Match",NA,NA,NA,NA
202051,"4075 LINGLESTOWN ROAD 330","HARRISBURG","PA",17112,40.3349932740001,-76.8381393989999,51,"4075 LINGLESTOWN ROAD 330, HARRISBURG, PA, 17112","Match","Exact","4075 LINGLESTOWN RD, HARRISBURG, PA, 17112",648395668,"R"
202052,"4075 LINGLESTOWN ROAD 337","HARRISBURG","PA",17112,40.3349932740001,-76.8381393989999,52,"4075 LINGLESTOWN ROAD 337, HARRISBURG, PA, 17112","Match","Exact","4075 LINGLESTOWN RD, HARRISBURG, PA, 17112",648395668,"R"
202053,"4075 LINGLESTOWN ROAD 375","HARRISBURG","PA",17112,40.3349932740001,-76.8381393989999,53,"4075 LINGLESTOWN ROAD 375, HARRISBURG, PA, 17112","Match","Exact","4075 LINGLESTOWN RD, HARRISBURG, PA, 17112",648395668,"R"
202054,"4075 LINGLESTOWN ROAD NUMBER 312","HARRISBURG","PA",17112,40.3349932740001,-76.8381393989999,54,"4075 LINGLESTOWN ROAD NUMBER 312, HARRISBURG, PA, 17112","Match","Exact","4075 LINGLESTOWN RD, HARRISBURG, PA, 17112",648395668,"R"
202055,"4075 NW BRIARCLIFF CIRCLE","BOCA RATON","FL",33496,NA,NA,55,"4075 NW BRIARCLIFF CIRCLE, BOCA RATON, FL, 33496","No_Match",NA,NA,NA,NA
202056,"4075 POPLAR AVENUE","CONCORD","CA",94521,37.9768612250001,-121.994357973,56,"4075 POPLAR AVENUE, CONCORD, CA, 94521","Match","Exact","4075 POPLAR AVE, CONCORD, CA, 94521",192057996,"L"
202057,"4075 S ACHILLES DR","SALT LAKE CITY","UT",84124,40.6827172280001,-111.794421395,57,"4075 S ACHILLES DR, SALT LAKE CITY, UT, 84124","Match","Exact","4075 ACHILLES DR, SALT LAKE CITY, UT, 84124",176095108,"L"
202058,"4075 SOUTH FRONTAGE ROAD","COLUMBUS","MS",39701,33.4799338720001,-88.565457623,58,"4075 SOUTH FRONTAGE ROAD, COLUMBUS, MS, 39701","Match","Exact","4075 S FRONTAGE RD, COLUMBUS, MS, 39701",649460870,"L"
202059,"4075 W BONANZA DRIVE","BEVERLY HILLS","FL",34465,28.912108915,-82.504020568,59,"4075 W BONANZA DRIVE, BEVERLY HILLS, FL, 34465","Match","Exact","4075 W BONANZA DR, BEVERLY HILLS, FL, 34465",610753856,"L"
202060,"4075 WINDFLOWER LANE","DENVER","NC",28037,35.5263211400001,-80.99530404,60,"4075 WINDFLOWER LANE, DENVER, NC, 28037","Match","Exact","4075 WINDFLOWER LN, DENVER, NC, 28037",630167889,"R"
202061,"4076 BURNELL CIR E","COLUMBUS","OH",43224,40.053161878,-82.9342612309999,61,"4076 BURNELL CIR E, COLUMBUS, OH, 43224","Match","Exact","4076 BURNELL CIR E, COLUMBUS, OH, 43224",218659327,"R"
202062,"4076 HIGHWAY 31","OPELOUSAS","LA",70570,30.469616511,-91.9818181099999,62,"4076 HIGHWAY 31, OPELOUSAS, LA, 70570","Match","Non_Exact","4076 STATE RTE 31, OPELOUSAS, LA, 70570",635297299,"L"
202063,"4076 N CRESTVIEW LN","TERRE HAUTE","IN",47805,NA,NA,63,"4076 N CRESTVIEW LN, TERRE HAUTE, IN, 47805","No_Match",NA,NA,NA,NA
202064,"4076 OLD SOWELL MILL PIKE","COLUMBIA","TN",38401,35.5807140640001,-86.875320743,64,"4076 OLD SOWELL MILL PIKE, COLUMBIA, TN, 38401","Match","Exact","4076 OLD SOWELL MILL PIKE, COLUMBIA, TN, 38401",26888498,"R"
202065,"40760 HARRIS RD","BELLEVILLE","MI",48111,42.1682354330001,-83.434586769,65,"40760 HARRIS RD, BELLEVILLE, MI, 48111","Match","Exact","40760 HARRIS RD, BELLEVILLE, MI, 48111",95708055,"R"
202066,"40763 AMBAR PLACE","FREMONT","CA",94539,37.54762623,-121.949899692,66,"40763 AMBAR PLACE, FREMONT, CA, 94539","Match","Exact","40763 AMBAR PL, FREMONT, CA, 94539",125033230,"R"
202067,"4077 ETTA RD","OWOSSO","MI",48867,42.9335090640001,-84.242383881,67,"4077 ETTA RD, OWOSSO, MI, 48867","Match","Exact","4077 ETTA RD, OWOSSO, MI, 48867",23648754,"L"
202068,"4077 LINCOLN AVENUE","OAKLAND","CA",94602,37.8056477480001,-122.208162763,68,"4077 LINCOLN AVENUE, OAKLAND, CA, 94602","Match","Exact","4077 LINCOLN AVE, OAKLAND, CA, 94602",125003954,"L"
202069,"4077 LOWERY RD","VIRGILINA","VA",24598,36.619740173,-78.817802238,69,"4077 LOWERY RD, VIRGILINA, VA, 24598","Match","Exact","4077 LOWERY RD, VIRGILINA, VA, 24598",90313461,"R"
202070,"4077 MINOR ROAD","COPLEY","OH",44321,41.0812003460001,-81.6669532609999,70,"4077 MINOR ROAD, COPLEY, OH, 44321","Match","Exact","4077 MINOR RD, COPLEY, OH, 44321",61361850,"R"
202071,"4077 NORTH WEST 22 STREET 236D","COCONUT CREEK","FL",33066,NA,NA,71,"4077 NORTH WEST 22 STREET 236D, COCONUT CREEK, FL, 33066","No_Match",NA,NA,NA,NA
202072,"4077 OSGOOD AVE N","STILLWATER","MN",55082,45.0077537130001,-92.807175237,72,"4077 OSGOOD AVE N, STILLWATER, MN, 55082","Match","Exact","4077 OSGOOD AVE N, STILLWATER, MN, 55082",624780518,"R"
202073,"4077 SOUNDPOINTE DRIVE","GULF BREEZE","FL",32563,30.3867908570001,-87.053589145,73,"4077 SOUNDPOINTE DRIVE, GULF BREEZE, FL, 32563","Match","Exact","4077 SOUNDPOINTE DR, GULF BREEZE, FL, 32563",74607864,"R"
202074,"4077 SOUTH 2820 WEST","WEST VALLEY CITY","UT",84119,40.682186244,-111.960844259,74,"4077 SOUTH 2820 WEST, WEST VALLEY CITY, UT, 84119","Match","Exact","4077 S 2820 W, WEST VALLEY CITY, UT, 84119",176103485,"R"
202075,"4077 SPRINGDALE HUNTERS ROAD","SPRINGDALE","WA",99173,48.0509256760001,-117.768575902,75,"4077 SPRINGDALE HUNTERS ROAD, SPRINGDALE, WA, 99173","Match","Exact","4077 SPRINGDALE HUNTERS RD, SPRINGDALE, WA, 99173",174856498,"R"
202076,"4077 WOODBRIDGE AVENUE","EDISON","NJ",8837,40.5328151530001,-74.322968671,76,"4077 WOODBRIDGE AVENUE, EDISON, NJ, 8837","Match","Exact","4077 WOODBRIDGE AVE, EDISON, NJ, 08837",645310908,"L"
202077,"40779 293RD ST","TRIPP","SD",57376,43.1398842290001,-98.034470257,77,"40779 293RD ST, TRIPP, SD, 57376","Match","Exact","40779 293RD ST, TRIPP, SD, 57376",172920283,"R"
202078,"4078 2 MILE RD","ATHENS","MI",49011,42.1294443560001,-85.255644278,78,"4078 2 MILE RD, ATHENS, MI, 49011","Match","Exact","4078 2 MILE RD, ATHENS, MI, 49011",652792304,"L"
202079,"4078 E 138TH STREET","CLEVELAND","OH",44105,41.447582358,-81.586359266,79,"4078 E 138TH STREET, CLEVELAND, OH, 44105","Match","Exact","4078 E 138TH ST, CLEVELAND, OH, 44105",61127226,"R"
202080,"4078 MARYANNE PLACE APT D","GROVE CITY","OH",43123,39.8809908330001,-83.082021262,80,"4078 MARYANNE PLACE APT D, GROVE CITY, OH, 43123","Match","Exact","4078 MARYANNE PL, GROVE CITY, OH, 43123",218641694,"L"
202081,"4078 MASSIE AVE","LOUISVILLE","KY",40207,38.2607214780001,-85.649720725,81,"4078 MASSIE AVE, LOUISVILLE, KY, 40207","Match","Exact","4078 MASSIE AVE, LOUISVILLE, KY, 40207",635550435,"R"
202082,"4078 MUIRFIELD DRIVE","MEMPHIS","TN",38125,35.0379109080001,-89.7842320509999,82,"4078 MUIRFIELD DRIVE, MEMPHIS, TN, 38125","Match","Exact","4078 MUIRFIELD DR, MEMPHIS, TN, 38125",642797865,"R"
202083,"4078 PGA BLVD","PALM BEACH GARDENS","FL",33410,NA,NA,83,"4078 PGA BLVD, PALM BEACH GARDENS, FL, 33410","No_Match",NA,NA,NA,NA
202084,"4078 SWEAT CREEK COVE","MARIETTA","GA",30062,34.0493782460001,-84.4393305629999,84,"4078 SWEAT CREEK COVE, MARIETTA, GA, 30062","Match","Exact","4078 SWEAT CREEK COVE, MARIETTA, GA, 30062",634051580,"R"
202085,"4078 YEARGAN RD","MURFREESBORO","TN",37128,35.783590727,-86.469678062,85,"4078 YEARGAN RD, MURFREESBORO, TN, 37128","Match","Exact","4078 YEARGAN RD, MURFREESBORO, TN, 37128",59014777,"R"
202086,"40784 LAGUNA PLACE","FREMONT","CA",94539,37.547766654,-121.948953465,86,"40784 LAGUNA PLACE, FREMONT, CA, 94539","Match","Exact","40784 LAGUNA PL, FREMONT, CA, 94539",125033232,"L"
202087,"4079 BUTTERNUT PLACE","ATLANTA","GA",30349,33.6459355260001,-84.602928176,87,"4079 BUTTERNUT PLACE, ATLANTA, GA, 30349","Match","Exact","4079 BUTTERNUT PL, ATLANTA, GA, 30349",629826933,"R"
202088,"4079 GOLD MILL RIDGE","CANTON","GA",30114,34.201598389,-84.535424522,88,"4079 GOLD MILL RIDGE, CANTON, GA, 30114","Match","Exact","4079 GOLD MILL RIDGE, CANTON, GA, 30114",627188257,"R"
202089,"4079 GOVERNOR DRIVE 271","SAN DIEGO","CA",92122,32.854559292,-117.202054519,89,"4079 GOVERNOR DRIVE 271, SAN DIEGO, CA, 92122","Match","Exact","4079 GOVERNOR DR, SAN DIEGO, CA, 92122",635494549,"R"
202090,"4079 N ROSE RD","MEMPHIS","TN",38117,35.136863186,-89.9277909469999,90,"4079 N ROSE RD, MEMPHIS, TN, 38117","Match","Exact","4079 N ROSE RD, MEMPHIS, TN, 38117",72978480,"L"
202091,"4079 PINECREEK ROAD APT 7","GRANDVILLE","MI",49418,42.8896120370001,-85.733307839,91,"4079 PINECREEK ROAD APT 7, GRANDVILLE, MI, 49418","Match","Non_Exact","4079 PINE CREEK RD SW, GRANDVILLE, MI, 49418",12454920,"L"
202092,"4079 PORTER RD","WESTLAKE","OH",44145,41.4303210320001,-81.9379187389999,92,"4079 PORTER RD, WESTLAKE, OH, 44145","Match","Exact","4079 PORTER RD, WESTLAKE, OH, 44145",61180068,"L"
202093,"4079 RIVERSIDE AVENUE","SOMERSET","MA",2726,41.7651308370001,-71.135756343,93,"4079 RIVERSIDE AVENUE, SOMERSET, MA, 2726","Match","Exact","4079 RIVERSIDE AVE, SOMERSET, MA, 02726",46807653,"L"
202094,"4079 SW 46TH TER","OCALA","FL",34474,29.1466542430001,-82.1986364479999,94,"4079 SW 46TH TER, OCALA, FL, 34474","Match","Exact","4079 SW 46TH TER, OCALA, FL, 34474",628002068,"R"
202095,"40794 ROBIN STREET","MATTAWAN","MI",49071,42.2712112350001,-85.7772468049999,95,"40794 ROBIN STREET, MATTAWAN, MI, 49071","Match","Exact","40794 ROBIN ST, MATTAWAN, MI, 49071",34763473,"L"
202096,"407F BRADWELL ST","HINESVILLE","GA",31313,31.853260547,-81.591677879,96,"407F BRADWELL ST, HINESVILLE, GA, 31313","Match","Exact","407 BRADWELL ST, HINESVILLE, GA, 31313",6327299,"L"
202097,"407N OXFORD LN","MONROE TWP","NJ",8831,40.3260355740001,-74.471857169,97,"407N OXFORD LN, MONROE TWP, NJ, 8831","Match","Exact","407 OXFORD LN, MONROE TOWNSHIP, NJ, 08831",652777748,"L"
202098,"408  EAST 31 ST","PATERSON","NJ",7504,40.911866488,-74.1451090159999,98,"408  EAST 31 ST, PATERSON, NJ, 7504","Match","Exact","408 E 31ST ST, PATERSON, NJ, 07504",65264797,"R"
202099,"408 106TH AVE NW","COON RAPIDS","MN",55448,45.162392783,-93.277085079,99,"408 106TH AVE NW, COON RAPIDS, MN, 55448","Match","Exact","408 106TH AVE NW, COON RAPIDS, MN, 55448",97485859,"L"
202100,"408 11TH ST NW","CHARLOTTESVILLE","VA",22903,NA,NA,100,"408 11TH ST NW, CHARLOTTESVILLE, VA, 22903","No_Match",NA,NA,NA,NA
202101,"408 24TH AVE N UNIT 302","N MYRTLE BEACH","SC",29582,33.8310957190001,-78.643241339,101,"408 24TH AVE N UNIT 302, N MYRTLE BEACH, SC, 29582","Match","Exact","408 24TH AVE N, N MYRTLE BCH, SC, 29582",29071516,"R"
202102,"408 3RD AVENUE SOUTH LOT 144","BROOKINGS","SD",57006,44.3018852280001,-96.800173625,102,"408 3RD AVENUE SOUTH LOT 144, BROOKINGS, SD, 57006","Match","Exact","408 3RD AVE S, BROOKINGS, SD, 57006",640000357,"L"
202103,"408 56TH STREET","DES MOINES","IA",50312,41.583222226,-93.693765334,103,"408 56TH STREET, DES MOINES, IA, 50312","Match","Exact","408 56TH ST, DES MOINES, IA, 50312",65853108,"L"
202104,"408 A CRAIG ROAD","PACKWOOD","WA",98361,46.60834601,-121.691217723,104,"408 A CRAIG ROAD, PACKWOOD, WA, 98361","Match","Exact","408 CRAIG RD, PACKWOOD, WA, 98361",180741003,"L"
202105,"408 ACORN DR","NEW BRAUNFELS","TX",78130,29.719547214,-98.1365997139999,105,"408 ACORN DR, NEW BRAUNFELS, TX, 78130","Match","Exact","408 ACORN DR, NEW BRAUNFELS, TX, 78130",651010604,"R"
202106,"408 ALBOR CIRCLE NE","RIO RANCHO","NM",87124,35.265961293,-106.712637347,106,"408 ALBOR CIRCLE NE, RIO RANCHO, NM, 87124","Match","Exact","408 ALBOR CIR NE, RIO RANCHO, NM, 87124",193994428,"R"
202107,"408 ALTA VISTA STREET","SANTA FE","NM",87505,35.669671458,-105.949212054,107,"408 ALTA VISTA STREET, SANTA FE, NM, 87505","Match","Exact","408 ALTA VISTA ST, SANTA FE, NM, 87505",169378714,"L"
202108,"408 APODACA HILL STREET","SANTA FE","NM",87501,35.6785369950001,-105.914461475,108,"408 APODACA HILL STREET, SANTA FE, NM, 87501","Match","Exact","408 APODACA HILL ST, SANTA FE, NM, 87501",169379714,"R"
202109,"408 ARLINGTON DRIVE","HINESVILLE","GA",31313,NA,NA,109,"408 ARLINGTON DRIVE, HINESVILLE, GA, 31313","No_Match",NA,NA,NA,NA
202110,"408 ARROWHEAD COURT","COLUMBIA CITY","IN",46725,41.1512885660001,-85.4780739409999,110,"408 ARROWHEAD COURT, COLUMBIA CITY, IN, 46725","Match","Exact","408 ARROWHEAD CT, COLUMBIA CITY, IN, 46725",6648734,"R"
202111,"408 ASCOT LANE","OAK BROOK","IL",60523,41.826802824,-87.990431772,111,"408 ASCOT LANE, OAK BROOK, IL, 60523","Match","Exact","408 ASCOT LN, OAK BROOK, IL, 60523",112547046,"R"
202112,"408 BARCLAY ROAD","MUSKOGEE","OK",74403,35.7129673740001,-95.364097352,112,"408 BARCLAY ROAD, MUSKOGEE, OK, 74403","Match","Exact","408 BARCLAY RD, MUSKOGEE, OK, 74403",91935196,"L"
202113,"408 BAY MEADOW LANE","LAFAYETTE","LA",70507,30.3105819850001,-92.01269709,113,"408 BAY MEADOW LANE, LAFAYETTE, LA, 70507","Match","Exact","408 BAY MEADOW LN, LAFAYETTE, LA, 70507",649861151,"R"
202114,"408 BIRCH AVE","GENOA","IL",60135,42.0904784570001,-88.697315163,114,"408 BIRCH AVE, GENOA, IL, 60135","Match","Exact","408 BIRCH AVE, GENOA, IL, 60135",52273354,"L"
202115,"408 BIRCH STREET","BARABOO","WI",53913,43.4691264210001,-89.746016858,115,"408 BIRCH STREET, BARABOO, WI, 53913","Match","Exact","408 BIRCH ST, BARABOO, WI, 53913",86534423,"R"
202116,"408 BOBCAT TRAIL","ELLIJAY","GA",30540,NA,NA,116,"408 BOBCAT TRAIL, ELLIJAY, GA, 30540","No_Match",NA,NA,NA,NA
202117,"408 BOULEVARD","COLONIAL HGTS","VA",23834,37.241902403,-77.4074811689999,117,"408 BOULEVARD, COLONIAL HGTS, VA, 23834","Match","Exact","408 BOULEVARD, COLONIAL HGTS, VA, 23834",201550185,"L"
202118,"408 BRAY STREET","NEW CARLISLE","IN",46552,41.702623551,-86.5123450469999,118,"408 BRAY STREET, NEW CARLISLE, IN, 46552","Match","Exact","408 BRAY ST, NEW CARLISLE, IN, 46552",8074036,"R"
202119,"408 BRICKYARD RD","FREEHOLD","NJ",7728,40.2383261420001,-74.206133608,119,"408 BRICKYARD RD, FREEHOLD, NJ, 7728","Match","Exact","408 BRICKYARD RD, FREEHOLD, NJ, 07728",90526640,"R"
202120,"408 BROOKLYN AVE","KANSAS CITY","MO",64124,39.1093745200001,-94.555488695,120,"408 BROOKLYN AVE, KANSAS CITY, MO, 64124","Match","Exact","408 BROOKLYN AVE, KANSAS CITY, MO, 64124",91448901,"R"
202121,"408 BRUNSWICK DRIVE APT 3","TROY","NY",12180,42.7491276160001,-73.639861851,121,"408 BRUNSWICK DRIVE APT 3, TROY, NY, 12180","Match","Exact","408 BRUNSWICK DR, TROY, NY, 12180",635571755,"L"
202122,"408 BRYANT DRIVE","ADAMSVILLE","AL",35005,NA,NA,122,"408 BRYANT DRIVE, ADAMSVILLE, AL, 35005","No_Match",NA,NA,NA,NA
202123,"408 CAROLINA BACK ROAD","CHARLESTOWN","RI",2813,41.4516377730001,-71.6574942089999,123,"408 CAROLINA BACK ROAD, CHARLESTOWN, RI, 2813","Match","Exact","408 CAROLINA BACK RD, CHARLESTOWN, RI, 02813",646777698,"L"
202124,"408 CEDARDALE 28TH ROAD","CORNELL","MI",49818,45.9212508590001,-87.361160566,124,"408 CEDARDALE 28TH ROAD, CORNELL, MI, 49818","Match","Exact","408 CEDARDALE 28TH RD, CORNELL, MI, 49818",181945467,"L"
202125,"408 CENTER ST","RAYNHAM","MA",2767,41.9443244650001,-71.0587668699999,125,"408 CENTER ST, RAYNHAM, MA, 2767","Match","Exact","408 CENTER ST, RAYNHAM, MA, 02767",46779483,"L"
202126,"408 CHAPMAN RD","FARMERVILLE","LA",71241,32.6835062120001,-92.186279467,126,"408 CHAPMAN RD, FARMERVILLE, LA, 71241","Match","Exact","408 CHAPMAN RD, FARMERVILLE, LA, 71241",150047234,"L"
202127,"408 CHARTWELL DRIVE","GREER","SC",29650,34.884508806,-82.237957012,127,"408 CHARTWELL DRIVE, GREER, SC, 29650","Match","Exact","408 CHARTWELL DR, GREER, SC, 29650",647217415,"R"
202128,"408 CHICAGO DR UNIT 594","JENISON","MI",49429,42.903125786,-85.791280824,128,"408 CHICAGO DR UNIT 594, JENISON, MI, 49429","Match","Non_Exact","408 CHICAGO DR, JENISON, MI, 49428",71096426,"L"
202129,"408 CLARK STREET","CANTON","MO",63435,40.1312879170001,-91.5189898849999,129,"408 CLARK STREET, CANTON, MO, 63435","Match","Exact","408 CLARK ST, CANTON, MO, 63435",13076948,"L"
202130,"408 COLLINS ST","HILLSDALE","NY",12529,42.2087892440001,-73.499593632,130,"408 COLLINS ST, HILLSDALE, NY, 12529","Match","Exact","408 COLLINS ST, HILLSDALE, NY, 12529",41500404,"R"
202131,"408 DAY STREET NW","CEDAR RAPIDS","IA",52405,41.976384835,-91.7422524899999,131,"408 DAY STREET NW, CEDAR RAPIDS, IA, 52405","Match","Exact","408 DAY ST NW, CEDAR RAPIDS, IA, 52405",17023804,"L"
202132,"408 DEE JAY HUDSON","SHERWOOD","AR",72120,34.847992037,-92.234966609,132,"408 DEE JAY HUDSON, SHERWOOD, AR, 72120","Match","Non_Exact","408 DEE JAY HUDSON DR, SHERWOOD, AR, 72120",83497529,"L"
202133,"408 DEPOT STREET","ASHEVILLE","NC",28801,35.5797599380001,-82.5642568339999,133,"408 DEPOT STREET, ASHEVILLE, NC, 28801","Match","Exact","408 DEPOT ST, ASHEVILLE, NC, 28801",36909806,"L"
202134,"408 DODGE STREET","EAU CLAIRE","WI",54701,44.8120137830001,-91.494388278,134,"408 DODGE STREET, EAU CLAIRE, WI, 54701","Match","Exact","408 DODGE ST, EAU CLAIRE, WI, 54701",46067823,"R"
202135,"408 E 144TH ST STE 6","BRONX","NY",10454,40.8127048970001,-73.919626375,135,"408 E 144TH ST STE 6, BRONX, NY, 10454","Match","Non_Exact","408 E 144TH ST, BRONX, NY, 10454",80300377,"R"
202136,"408 E 65TH TERRACE","KANSAS CITY","MO",64131,39.009246079,-94.583630919,136,"408 E 65TH TERRACE, KANSAS CITY, MO, 64131","Match","Exact","408 E 65TH TER, KANSAS CITY, MO, 64131",91454546,"L"
202137,"408 E 6TH STREET","BLOOMINGTON","IN",47408,39.167531038,-86.529560079,137,"408 E 6TH STREET, BLOOMINGTON, IN, 47408","Match","Exact","408 E 6TH ST, BLOOMINGTON, IN, 47408",42322672,"R"
202138,"408 E BRINKLEY LOOP APT 6","MARION","AR",72364,35.2004565010001,-90.206840875,138,"408 E BRINKLEY LOOP APT 6, MARION, AR, 72364","Match","Non_Exact","408 E BRINKLEY LOOP, MARION, AR, 72364",645632928,"L"
202139,"408 E GRAND PRAIRIE ST","PALESTINE","IL",62451,39.0017356870001,-87.6077964999999,139,"408 E GRAND PRAIRIE ST, PALESTINE, IL, 62451","Match","Exact","408 E GRAND PRAIRIE ST, PALESTINE, IL, 62451",26969372,"R"
202140,"408 E LINCOLN","RIVERTON","IL",62561,39.8441528000001,-89.5435007139999,140,"408 E LINCOLN, RIVERTON, IL, 62561","Match","Non_Exact","408 E LINCOLN ST, RIVERTON, IL, 62561",640037433,"R"
202141,"408 E MAIN ST","BATTLE GROUND","WA",98604,45.7809097740001,-122.5335895,141,"408 E MAIN ST, BATTLE GROUND, WA, 98604","Match","Exact","408 E MAIN ST, BATTLE GROUND, WA, 98604",158315090,"R"
202142,"408 E MAIN ST","TUTTLE","OK",73089,35.2908278690001,-97.807291148,142,"408 E MAIN ST, TUTTLE, OK, 73089","Match","Exact","408 E MAIN ST, TUTTLE, OK, 73089",15221791,"L"
202143,"408 E NORTH POINTE DRIVE APT 214","SALISBURY","MD",21804,NA,NA,143,"408 E NORTH POINTE DRIVE APT 214, SALISBURY, MD, 21804","No_Match",NA,NA,NA,NA
202144,"408 E SHERMAN AVE  SUITE 216","COEUR D ALENE","ID",83814,47.6734607270001,-116.780946251,144,"408 E SHERMAN AVE  SUITE 216, COEUR D ALENE, ID, 83814","Match","Exact","408 SHERMAN AVE, COEUR D ALENE, ID, 83814",192902873,"L"
202145,"408 E STREET","CALEXICO","CA",92243,NA,NA,145,"408 E STREET, CALEXICO, CA, 92243","No_Match",NA,NA,NA,NA
202146,"408 E WINMORE AVE","CHAPEL HILL","NC",27516,35.9458447910001,-79.08862328,146,"408 E WINMORE AVE, CHAPEL HILL, NC, 27516","Match","Exact","408 E WINMORE AVE, CHAPEL HILL, NC, 27516",627867481,"L"
202147,"408 EAST 53RD STREET","BROOKLYN","NY",11203,40.6497420210001,-73.927243608,147,"408 EAST 53RD STREET, BROOKLYN, NY, 11203","Match","Exact","408 E 53RD ST, BROOKLYN, NY, 11203",59085751,"R"
202148,"408 EAST 65TH ST","SAVANNAH","GA",31405,32.031714047,-81.099835065,148,"408 EAST 65TH ST, SAVANNAH, GA, 31405","Match","Exact","408 E 65TH ST, SAVANNAH, GA, 31405",6178302,"L"
202149,"408 EAST 79TH ST APARTMENT 18A","NEW YORK","NY",10075,40.7722420910001,-73.952460688,149,"408 EAST 79TH ST APARTMENT 18A, NEW YORK, NY, 10075","Match","Exact","408 E 79TH ST, NEW YORK, NY, 10075",650152661,"R"
202150,"408 EAST STOUGHTON STREET APT 307","CHAMPAIGN","IL",61820,40.113477979,-88.233299023,150,"408 EAST STOUGHTON STREET APT 307, CHAMPAIGN, IL, 61820","Match","Exact","408 E STOUGHTON ST, CHAMPAIGN, IL, 61820",8811996,"L"
202151,"408 ELDER GROVE COURT","PEARLAND","TX",77584,29.582277693,-95.382336712,151,"408 ELDER GROVE COURT, PEARLAND, TX, 77584","Match","Exact","408 ELDER GROVE CT, PEARLAND, TX, 77584",116643502,"R"
202152,"408 EMPRESS LANE","CHULUOTA","FL",32766,28.6500079960001,-81.121900809,152,"408 EMPRESS LANE, CHULUOTA, FL, 32766","Match","Exact","408 EMPRESS LN, CHULUOTA, FL, 32766",625034513,"R"
202153,"408 FAIRFIELD AVE","BELLEVUE","KY",41073,39.10688708,-84.482544322,153,"408 FAIRFIELD AVE, BELLEVUE, KY, 41073","Match","Exact","408 FAIRFIELD AVE, BELLEVUE, KY, 41073",640091295,"R"
202154,"408 FERNWOOD DRIVE","AKRON","OH",44320,41.086698497,-81.544765935,154,"408 FERNWOOD DRIVE, AKRON, OH, 44320","Match","Exact","408 FERNWOOD DR, AKRON, OH, 44320",61340226,"R"
202155,"408 FINLAY STREET","AUBURN","CA",95603,38.8961625480001,-121.067094084,155,"408 FINLAY STREET, AUBURN, CA, 95603","Match","Non_Exact","408 FINLEY ST, AUBURN, CA, 95603",106772404,"L"
202156,"408 FOREST AVE","LEES SUMMIT","KS",64063,NA,NA,156,"408 FOREST AVE, LEES SUMMIT, KS, 64063","No_Match",NA,NA,NA,NA
202157,"408 FOREST AVE","LYNDHURST","NJ",7071,40.807656169,-74.125729253,157,"408 FOREST AVE, LYNDHURST, NJ, 7071","Match","Exact","408 FOREST AVE, LYNDHURST, NJ, 07071",64399232,"R"
202158,"408 FOREST VENUE","LYNDHURST","NJ",7071,40.807656169,-74.125729253,158,"408 FOREST VENUE, LYNDHURST, NJ, 7071","Match","Non_Exact","408 FOREST AVE, LYNDHURST, NJ, 07071",64399232,"R"
202159,"408 FROYLE CT","ROLESVILLE","NC",27571,35.9083387740001,-78.4655011259999,159,"408 FROYLE CT, ROLESVILLE, NC, 27571","Match","Exact","408 FROYLE CT, ROLESVILLE, NC, 27571",612815808,"R"
202160,"408 GAFFNEY LANE","BARDSTOWN","KY",40004,37.8093829680001,-85.459551301,160,"408 GAFFNEY LANE, BARDSTOWN, KY, 40004","Match","Exact","408 GAFFNEY LN, BARDSTOWN, KY, 40004",35148382,"L"
202161,"408 GARDEN ROAD","ALBERT LEA","MN",56007,43.666011617,-93.380869178,161,"408 GARDEN ROAD, ALBERT LEA, MN, 56007","Match","Exact","408 GARDEN RD, ALBERT LEA, MN, 56007",39532922,"L"
202162,"408 GILBERT STREET","LEROY","MI",49655,44.038158218,-85.448138877,162,"408 GILBERT STREET, LEROY, MI, 49655","Match","Exact","408 GILBERT ST, LEROY, MI, 49655",110624680,"R"
202163,"408 GRANDVIEW AVENUE","BARBERTON","OH",44203,41.021855606,-81.589999039,163,"408 GRANDVIEW AVENUE, BARBERTON, OH, 44203","Match","Exact","408 GRANDVIEW AVE, BARBERTON, OH, 44203",61342553,"R"
202164,"408 GREAT FALLS","COLLIERVILLE","TN",38017,35.050178433,-89.660689883,164,"408 GREAT FALLS, COLLIERVILLE, TN, 38017","Match","Non_Exact","408 GREAT FALLS RD, COLLIERVILLE, TN, 38017",72933832,"R"
202165,"408 GROVE ST","HALF MOON BAY","CA",94019,37.454754203,-122.436280375,165,"408 GROVE ST, HALF MOON BAY, CA, 94019","Match","Exact","408 GROVE ST, HALF MOON BAY, CA, 94019",192382674,"R"
202166,"408 HAYES ST","WARRENS","WI",54666,44.1324355400001,-90.501681266,166,"408 HAYES ST, WARRENS, WI, 54666","Match","Exact","408 HAYES ST, WARRENS, WI, 54666",51084598,"L"
202167,"408 HAZELWOOD AVE SE","WARREN","OH",44483,41.2334779170001,-80.789150744,167,"408 HAZELWOOD AVE SE, WARREN, OH, 44483","Match","Exact","408 HAZELWOOD AVE SE, WARREN, OH, 44483",117407506,"R"
202168,"408 HEARD BRIDGE RD","WAUCHULA","FL",33873,27.552681309,-81.809376883,168,"408 HEARD BRIDGE RD, WAUCHULA, FL, 33873","Match","Exact","408 HEARD BRIDGE RD, WAUCHULA, FL, 33873",16193122,"R"
202169,"408 HETTINGER LN","PALO ALTO","CA",94306,37.4096783540001,-122.119935159,169,"408 HETTINGER LN, PALO ALTO, CA, 94306","Match","Exact","408 HETTINGER LN, PALO ALTO, CA, 94306",640658805,"R"
202170,"408 HIGHLAND DRIVE","INDIANOLA","MS",38751,33.456230718,-90.639265571,170,"408 HIGHLAND DRIVE, INDIANOLA, MS, 38751","Match","Exact","408 HIGHLAND DR, INDIANOLA, MS, 38751",2719536,"R"
202171,"408 HOYT ST APT 1","BUFFALO","NY",14213,42.92658414,-78.8859546639999,171,"408 HOYT ST APT 1, BUFFALO, NY, 14213","Match","Exact","408 HOYT ST, BUFFALO, NY, 14213",48289029,"L"
202172,"408 HOYT ST UPPER","BUFFALO","NY",14213,42.92658414,-78.8859546639999,172,"408 HOYT ST UPPER, BUFFALO, NY, 14213","Match","Exact","408 HOYT ST, BUFFALO, NY, 14213",48289029,"L"
202173,"408 HUB DR","WIMBERLEY","TX",78676,29.986464836,-98.0788218769999,173,"408 HUB DR, WIMBERLEY, TX, 78676","Match","Exact","408 HUB DR, WIMBERLEY, TX, 78676",63843658,"R"
202174,"408 HUBBS DRIVE","PALMYRA","NJ",8065,39.9967081720001,-75.025195384,174,"408 HUBBS DRIVE, PALMYRA, NJ, 8065","Match","Exact","408 HUBBS DR, PALMYRA, NJ, 08065",134057935,"L"
202175,"408 INDIANA STREET","LAWRENCE","KS",66044,38.976659899,-95.24290171,175,"408 INDIANA STREET, LAWRENCE, KS, 66044","Match","Exact","408 INDIANA ST, LAWRENCE, KS, 66044",17683850,"L"
202176,"408 IVY STREET","JUNCTION CITY","OR",97448,44.2175483130001,-123.204583556,176,"408 IVY STREET, JUNCTION CITY, OR, 97448","Match","Exact","408 IVY ST, JUNCTION CITY, OR, 97448",178161915,"R"
202177,"408 J ST","HOQUIAM","WA",98550,46.97955562,-123.889049039,177,"408 J ST, HOQUIAM, WA, 98550","Match","Exact","408 J ST, HOQUIAM, WA, 98550",180580380,"L"
202178,"408 KAYLA CT","WASHINGTON","MO",63090,38.536312718,-91.014825092,178,"408 KAYLA CT, WASHINGTON, MO, 63090","Match","Exact","408 KAYLA CT, WASHINGTON, MO, 63090",605154438,"R"
202179,"408 KELLY DRIVE","SPRING CITY","PA",19475,40.182359831,-75.561057978,179,"408 KELLY DRIVE, SPRING CITY, PA, 19475","Match","Exact","408 KELLY DR, SPRING CITY, PA, 19475",179517761,"R"
202180,"408 KING STREET","STOUGHTON","WI",53589,42.915279486,-89.236779312,180,"408 KING STREET, STOUGHTON, WI, 53589","Match","Exact","408 KING ST, STOUGHTON, WI, 53589",49558107,"L"
202181,"408 KINGSWOOD DR","CARY","NC",27513,35.7964712470001,-78.776265036,181,"408 KINGSWOOD DR, CARY, NC, 27513","Match","Exact","408 KINGSWOOD DR, CARY, NC, 27513",72593194,"L"
202182,"408 KNOLLSIDE DR","COLUMBIA","SC",29223,NA,NA,182,"408 KNOLLSIDE DR, COLUMBIA, SC, 29223","No_Match",NA,NA,NA,NA
202183,"408 LAKE ORANGE RD","HILLSBOROUGH","NC",27278,36.1506350220001,-79.13258482,183,"408 LAKE ORANGE RD, HILLSBOROUGH, NC, 27278","Match","Exact","408 LAKE ORANGE RD, HILLSBOROUGH, NC, 27278",72424812,"R"
202184,"408 LAKEWOOD DRIVE","DESOTO","TX",75115,32.6077115160001,-96.863638916,184,"408 LAKEWOOD DRIVE, DESOTO, TX, 75115","Match","Exact","408 LAKEWOOD DR, DESOTO, TX, 75115",102953557,"L"
202185,"408 MADISON TAYLOR PL","LAS VEGAS","NV",89144,36.177455154,-115.324510182,185,"408 MADISON TAYLOR PL, LAS VEGAS, NV, 89144","Match","Exact","408 MADISON TAYLOR PL, LAS VEGAS, NV, 89144",201924639,"R"
202186,"408 MAGNOLIA ST","JOANNA","SC",29351,34.411336912,-81.81652688,186,"408 MAGNOLIA ST, JOANNA, SC, 29351","Match","Exact","408 MAGNOLIA ST, JOANNA, SC, 29351",44435047,"L"
202187,"408 MAIN ST","MARION","SC",29571,34.174956276,-79.4006431779999,187,"408 MAIN ST, MARION, SC, 29571","Match","Non_Exact","408 S MAIN ST, MARION, SC, 29571",28773350,"L"
202188,"408 MAIN","LIBERTY","TX",77575,30.058954167,-94.795853134,188,"408 MAIN, LIBERTY, TX, 77575","Match","Non_Exact","408 MAIN ST, LIBERTY, TX, 77575",24115609,"R"
202189,"408 MANSELL DR","YOUNGSTOWN","OH",44505,41.1431950480001,-80.656074447,189,"408 MANSELL DR, YOUNGSTOWN, OH, 44505","Match","Non_Exact","408 MANSEL DR, YOUNGSTOWN, OH, 44505",117413018,"L"
202190,"408 MARYLAND ST","PARKER CITY","IN",47368,40.1875109600001,-85.194825333,190,"408 MARYLAND ST, PARKER CITY, IN, 47368","Match","Exact","408 MARYLAND ST, PARKER CITY, IN, 47368",31214708,"R"
202191,"408 MEADOW VIEW PKWY","ERIE","CO",80516,40.03848272,-105.081603245,191,"408 MEADOW VIEW PKWY, ERIE, CO, 80516","Match","Exact","408 MEADOW VIEW PKWY, ERIE, CO, 80516",188239320,"R"
202192,"408 MEMORIAL AVENUE","GLOUCESTER CITY","NJ",8030,39.8939077750001,-75.107736502,192,"408 MEMORIAL AVENUE, GLOUCESTER CITY, NJ, 8030","Match","Exact","408 MEMORIAL AVE, GLOUCESTER CITY, NJ, 08030",134407193,"R"
202193,"408 MIDGARD RD","COLUMBUS","OH",43202,NA,NA,193,"408 MIDGARD RD, COLUMBUS, OH, 43202","No_Match",NA,NA,NA,NA
202194,"408 MONTGOMERY STREET","NAVASOTA","TX",77868,30.3786123890001,-96.08115329,194,"408 MONTGOMERY STREET, NAVASOTA, TX, 77868","Match","Non_Exact","408 MONTGOMERY RD, NAVASOTA, TX, 77868",21901193,"R"
202195,"408 MORGAN AAVE","PALMYRA","NJ",8065,40.00731111,-75.02178429,195,"408 MORGAN AAVE, PALMYRA, NJ, 8065","Match","Non_Exact","408 MORGAN AVE, PALMYRA, NJ, 08065",134024816,"L"
202196,"408 N 3RD AVE","STAYTON","OR",97383,44.798064713,-122.792241659,196,"408 N 3RD AVE, STAYTON, OR, 97383","Match","Exact","408 N 3RD AVE, STAYTON, OR, 97383",156232635,"R"
202197,"408 N ARTHUR AVE","POCATELLO","ID",83204,42.8638383630001,-112.45436652,197,"408 N ARTHUR AVE, POCATELLO, ID, 83204","Match","Exact","408 N ARTHUR AVE, POCATELLO, ID, 83204",204351531,"R"
202198,"408 N BEDFORD STREET","GEORGETOWN","DE",19947,38.69538234,-75.3918435269999,198,"408 N BEDFORD STREET, GEORGETOWN, DE, 19947","Match","Exact","408 N BEDFORD ST, GEORGETOWN, DE, 19947",106108814,"R"
202199,"408 N BROADWAY","SPRING VALLEY","MN",55975,43.691888657,-92.392136404,199,"408 N BROADWAY, SPRING VALLEY, MN, 55975","Match","Non_Exact","408 N BROADWAY AVE, SPRING VALLEY, MN, 55975",619414818,"L"
202200,"408 N FIRESTONE STREET","GASTONIA","NC",28052,35.2658469720001,-81.201768918,200,"408 N FIRESTONE STREET, GASTONIA, NC, 28052","Match","Exact","408 N FIRESTONE ST, GASTONIA, NC, 28052",70378687,"R"
202201,"408 N GARFIELD ST","BLOOMDALE","OH",44817,41.1737574700001,-83.5556556889999,201,"408 N GARFIELD ST, BLOOMDALE, OH, 44817","Match","Exact","408 N GARFIELD ST, BLOOMDALE, OH, 44817",38724624,"R"
202202,"408 N MAIN ST","CAMBRIDGE","IL",61238,41.307931227,-90.195959854,202,"408 N MAIN ST, CAMBRIDGE, IL, 61238","Match","Exact","408 N MAIN ST, CAMBRIDGE, IL, 61238",8909034,"R"
202203,"408 N MERIDIAN STREET","HOLLAND","IN",47541,38.248919329,-87.035912534,203,"408 N MERIDIAN STREET, HOLLAND, IN, 47541","Match","Non_Exact","408 S MERIDIAN ST, HOLLAND, IN, 47541",7880733,"L"
202204,"408 N PINE ST","HOPE","AR",71801,33.671540888,-93.596891356,204,"408 N PINE ST, HOPE, AR, 71801","Match","Exact","408 N PINE ST, HOPE, AR, 71801",10868621,"L"
202205,"408 N PLATTE AVE STE A","YORK","NE",68467,40.864981051,-97.594195134,205,"408 N PLATTE AVE STE A, YORK, NE, 68467","Match","Exact","408 PLATTE AVE, YORK, NE, 68467",150344947,"R"
202206,"408 N RIDGWOOD DR","SEBRING","FL",33870,27.498984449,-81.43998422,206,"408 N RIDGWOOD DR, SEBRING, FL, 33870","Match","Non_Exact","408 N RIDGEWOOD DR, SEBRING, FL, 33870",4632833,"R"
202207,"408 N RIVER GLEN AVENUE","ELMHURST","IL",60126,41.908918418,-87.963248408,207,"408 N RIVER GLEN AVENUE, ELMHURST, IL, 60126","Match","Exact","408 RIVER GLEN AVE, ELMHURST, IL, 60126",638205778,"L"
202208,"408 N WAYNE ST","FULLERTON","CA",92833,33.8740006570001,-117.949666382,208,"408 N WAYNE ST, FULLERTON, CA, 92833","Match","Non_Exact","408 WAYNE AVE, FULLERTON, CA, 92833",144021554,"R"
202209,"408 NORTH 6TH","HAINES CITY","FL",33844,28.112765503,-81.626615869,209,"408 NORTH 6TH, HAINES CITY, FL, 33844","Match","Non_Exact","408 N 6TH ST, HAINES CITY, FL, 33844",104826815,"R"
202210,"408 NORTH CLAREMONT STREET","ROBSTOWN","TX",78380,27.7934858690001,-97.669983658,210,"408 NORTH CLAREMONT STREET, ROBSTOWN, TX, 78380","Match","Exact","408 N CLAREMONT ST, ROBSTOWN, TX, 78380",178510613,"R"
202211,"408 NORTH MAIN","OLA","AR",72853,NA,NA,211,"408 NORTH MAIN, OLA, AR, 72853","No_Match",NA,NA,NA,NA
202212,"408 NORTH TAYLOR AVE","MONTEBELLO","CA",90640,34.0167861200001,-118.112261552,212,"408 NORTH TAYLOR AVE, MONTEBELLO, CA, 90640","Match","Exact","408 N TAYLOR AVE, MONTEBELLO, CA, 90640",141642126,"R"
202213,"408 NW 1ST TERRACE","DEERFIELD BEACH","FL",33441,26.3226303490001,-80.1038355869999,213,"408 NW 1ST TERRACE, DEERFIELD BEACH, FL, 33441","Match","Exact","408 NW 1ST TER, DEERFIELD BEACH, FL, 33441",640852797,"L"
202214,"408 NW 27TH ST","MOORE","OK",73160,35.363299307,-97.4980935569999,214,"408 NW 27TH ST, MOORE, OK, 73160","Match","Exact","408 NW 27TH ST, MOORE, OK, 73160",649817617,"L"
202215,"408 OAKLEY AVENUE","HARRODSBURG","KY",40330,37.798095979,-84.8527295979999,215,"408 OAKLEY AVENUE, HARRODSBURG, KY, 40330","Match","Exact","408 OAKLEY AVE, HARRODSBURG, KY, 40330",32613407,"L"
202216,"408 OAKMONT LANE","SCHAUMBURG","IL",60173,42.036029275,-88.05811281,216,"408 OAKMONT LANE, SCHAUMBURG, IL, 60173","Match","Exact","408 OAKMONT LN, SCHAUMBURG, IL, 60173",111877432,"L"
202217,"408 OGORMAN AVENUE","STATEN ISLAND","NY",10308,40.5523920420001,-74.140253446,217,"408 OGORMAN AVENUE, STATEN ISLAND, NY, 10308","Match","Non_Exact","408 O GORMAN AVE, STATEN ISLAND, NY, 10308",59873112,"L"
202218,"408 OHIO ST","PITTSBURG","KS",66762,37.383957095,-94.69990325,218,"408 OHIO ST, PITTSBURG, KS, 66762","Match","Exact","408 OHIO ST, PITTSBURG, KS, 66762",33423978,"L"
202219,"408 OLD CREEK LANE","JEFFERSONVILLE","IN",47130,38.3152632470001,-85.692230568,219,"408 OLD CREEK LANE, JEFFERSONVILLE, IN, 47130","Match","Exact","408 OLD CREEK LN, JEFFERSONVILLE, IN, 47130",625064756,"R"
202220,"408 OLD MILL RD","SOUTHFIELDS","NY",10975,41.247123075,-74.1738990429999,220,"408 OLD MILL RD, SOUTHFIELDS, NY, 10975","Match","Exact","408 OLD MILL RD, SOUTHFIELDS, NY, 10975",124497455,"L"
202221,"408 PAR STREET WEST","ORLANDO","FM",32804,NA,NA,221,"408 PAR STREET WEST, ORLANDO, FM, 32804","No_Match",NA,NA,NA,NA
202222,"408 PARK PL","FAIRBURN","GA",30213,33.5879697550001,-84.598456955,222,"408 PARK PL, FAIRBURN, GA, 30213","Match","Exact","408 PARK PL, FAIRBURN, GA, 30213",627548867,"L"
202223,"408 PARKINSON AVENUE 1ST FLOOR","HAMILTON","NJ",8610,40.2013442900001,-74.725390983,223,"408 PARKINSON AVENUE 1ST FLOOR, HAMILTON, NJ, 8610","Match","Exact","408 PARKINSON AVE, HAMILTON, NJ, 08610",60183245,"L"
202224,"408 PARTRIDGE CIR","DESOTO","TX",75115,32.5693012670001,-96.850908853,224,"408 PARTRIDGE CIR, DESOTO, TX, 75115","Match","Exact","408 PARTRIDGE CIR, DESOTO, TX, 75115",102954059,"R"
202225,"408 PINE AVE SE","AIKEN","SC",29806,NA,NA,225,"408 PINE AVE SE, AIKEN, SC, 29806","No_Match",NA,NA,NA,NA
202226,"408 PINE AVENUE","CUMBERLAND","MD",21502,39.6510343900001,-78.750563556,226,"408 PINE AVENUE, CUMBERLAND, MD, 21502","Match","Exact","408 PINE AVE, CUMBERLAND, MD, 21502",636217198,"L"
202227,"408 PINE STREET","RICH SQUARE","NC",27869,36.27239187,-77.290638691,227,"408 PINE STREET, RICH SQUARE, NC, 27869","Match","Exact","408 PINE ST, RICH SQUARE, NC, 27869",54073397,"L"
202228,"408 POPLAR ST","LA VETA","CO",81055,37.50673741,-105.004327496,228,"408 POPLAR ST, LA VETA, CO, 81055","Match","Exact","408 POPLAR ST, LA VETA, CO, 81055",607512268,"L"
202229,"408 PRESCOT COURT","WARRINGTON","PA",18976,40.23350393,-75.1570369579999,229,"408 PRESCOT COURT, WARRINGTON, PA, 18976","Match","Exact","408 PRESCOT CT, WARRINGTON, PA, 18976",641591826,"L"
202230,"408 PULASKI ST","LINCOLN","IL",62656,40.1466295070001,-89.3643964939999,230,"408 PULASKI ST, LINCOLN, IL, 62656","Match","Exact","408 PULASKI ST, LINCOLN, IL, 62656",22455609,"R"
202231,"408 QUAKER ROAD UNIT 953","EAST AURORA","NY",14052,42.7617958920001,-78.6419464149999,231,"408 QUAKER ROAD UNIT 953, EAST AURORA, NY, 14052","Match","Exact","408 QUAKER RD, EAST AURORA, NY, 14052",48311810,"R"
202232,"408 RANSOM STREET","CHAPEL HILL","NC",27516,35.9054425160001,-79.0569625919999,232,"408 RANSOM STREET, CHAPEL HILL, NC, 27516","Match","Exact","408 RANSOM ST, CHAPEL HILL, NC, 27516",72378956,"L"
202233,"408 REIDS MILL WAY","CARROLLTON","GA",30116,33.587250919,-85.0032682309999,233,"408 REIDS MILL WAY, CARROLLTON, GA, 30116","Match","Exact","408 REIDS MILL WAY, CARROLLTON, GA, 30116",627205207,"R"
202234,"408 RIDGEMOOR DRIVE","WILLOWBROOK","IL",60527,NA,NA,234,"408 RIDGEMOOR DRIVE, WILLOWBROOK, IL, 60527","No_Match",NA,NA,NA,NA
202235,"408 RUSSELL AVE","WALSENBURG","CO",81089,37.626182542,-104.780273075,235,"408 RUSSELL AVE, WALSENBURG, CO, 81089","Match","Exact","408 RUSSELL AVE, WALSENBURG, CO, 81089",104312894,"R"
202236,"408 S 2ND","SILVERTON","OR",97381,45.0039827030001,-122.779528518,236,"408 S 2ND, SILVERTON, OR, 97381","Match","Non_Exact","408 S 2ND ST, SILVERTON, OR, 97381",156243410,"L"
202237,"408 S 6TH STREET","ST, CHARLES","MO",63301,38.7804536310001,-90.489941592,237,"408 S 6TH STREET, ST, CHARLES, MO, 63301","Match","Exact","408 S 6TH ST, SAINT CHARLES, MO, 63301",633267420,"L"
202238,"408 S AUSTIN BLVD APT 3N","OAK PARK","IL",60304,41.8745080210001,-87.7744684639999,238,"408 S AUSTIN BLVD APT 3N, OAK PARK, IL, 60304","Match","Non_Exact","408 S AUSTIN BLVD, OAK PARK, IL, 60304",112226266,"R"
202239,"408 S COUNTRY RD","BROOKHAVEN","NY",11719,40.7822467510001,-72.9156266859999,239,"408 S COUNTRY RD, BROOKHAVEN, NY, 11719","Match","Exact","408 S COUNTRY RD, BROOKHAVEN, NY, 11719",114014798,"L"
202240,"408 S GATEHOUSE DRIVE APT  C","METAIRIE","LA",70001,29.993046239,-90.150743913,240,"408 S GATEHOUSE DRIVE APT  C, METAIRIE, LA, 70001","Match","Non_Exact","408 S GATEHOUSE DR, METAIRIE, LA, 70001",93502565,"L"
202241,"408 S HOWARD ST","NEWBERG","OR",97132,45.2976459120001,-122.975125657,241,"408 S HOWARD ST, NEWBERG, OR, 97132","Match","Exact","408 S HOWARD ST, NEWBERG, OR, 97132",156499754,"R"
202242,"408 S JEFFERSON ST","BELMONT","OH",43718,40.026575258,-81.039306229,242,"408 S JEFFERSON ST, BELMONT, OH, 43718","Match","Exact","408 JEFFERSON ST, BELMONT, OH, 43718",36211134,"L"
202243,"408 S MAIN ST","EAGLE BUTTE","SD",57625,NA,NA,243,"408 S MAIN ST, EAGLE BUTTE, SD, 57625","No_Match",NA,NA,NA,NA
202244,"408 S MAIN ST","OWENTON","KY",40359,NA,NA,244,"408 S MAIN ST, OWENTON, KY, 40359","No_Match",NA,NA,NA,NA
202245,"408 S MICHIGAN AVE","ROSWELL","NM",88203,33.389695934,-104.533203368,245,"408 S MICHIGAN AVE, ROSWELL, NM, 88203","Match","Exact","408 S MICHIGAN AVE, ROSWELL, NM, 88203",131767614,"L"
202246,"408 S NIXON STREET","LANDISVILLE","NJ",8326,39.5187478010001,-74.936016195,246,"408 S NIXON STREET, LANDISVILLE, NJ, 8326","Match","Exact","408 NIXON ST, LANDISVILLE, NJ, 08326",624816721,"R"
202247,"408 S SCOTT ST","OAKWOOD","IL",61858,40.1124657030001,-87.776832559,247,"408 S SCOTT ST, OAKWOOD, IL, 61858","Match","Exact","408 S SCOTT ST, OAKWOOD, IL, 61858",612000964,"R"
202248,"408 SAPPHIRE CT","SENECA","SC",29672,34.7270628590001,-82.9813172789999,248,"408 SAPPHIRE CT, SENECA, SC, 29672","Match","Exact","408 SAPPHIRE CT, SENECA, SC, 29672",25658836,"R"
202249,"408 SE WEISS CIR","LEES SUMMIT","MO",64063,38.9091283700001,-94.308956924,249,"408 SE WEISS CIR, LEES SUMMIT, MO, 64063","Match","Exact","408 WEISS CIR, LEES SUMMIT, MO, 64063",650444985,"L"
202250,"408 SILVER MINE DR","JUSTIN","TX",76247,33.0731827560001,-97.3021291649999,250,"408 SILVER MINE DR, JUSTIN, TX, 76247","Match","Exact","408 SILVER MINE DR, JUSTIN, TX, 76247",618810387,"L"
202251,"408 SIMPSON AVE","CLARKSBURG","WV",26301,39.2785515740001,-80.3637012569999,251,"408 SIMPSON AVE, CLARKSBURG, WV, 26301","Match","Exact","408 SIMPSON AVE, CLARKSBURG, WV, 26301",53302397,"R"
202252,"408 SOUTH HILL BORN AVE","WEST COVINA","CA",91791,34.0669687980001,-117.900034927,252,"408 SOUTH HILL BORN AVE, WEST COVINA, CA, 91791","Match","Non_Exact","408 S HILLBORN AVE, WEST COVINA, CA, 91791",141715709,"L"
202253,"408 SOUTHBROOK DR","NICHOLASVILLE","KY",40356,37.8515170000001,-84.57621755,253,"408 SOUTHBROOK DR, NICHOLASVILLE, KY, 40356","Match","Exact","408 SOUTHBROOK DR, NICHOLASVILLE, KY, 40356",38464345,"R"
202254,"408 SPRINGCREEK ROAD","SEYMOUR","MO",65746,37.122489294,-92.778771174,254,"408 SPRINGCREEK ROAD, SEYMOUR, MO, 65746","Match","Non_Exact","408 SPRING CREEK RD, SEYMOUR, MO, 65746",26615085,"R"
202255,"408 STEELE STREET","DENVER","CO",80206,39.722780013,-104.949787339,255,"408 STEELE STREET, DENVER, CO, 80206","Match","Exact","408 STEELE ST, DENVER, CO, 80206",177338334,"R"
202256,"408 STILLWATER DRIVE","BLUFFTON","IN",46714,40.7762182660001,-85.158092691,256,"408 STILLWATER DRIVE, BLUFFTON, IN, 46714","Match","Exact","408 STILLWATER DR, BLUFFTON, IN, 46714",628100874,"R"
202257,"408 STONE POST RD","CHARLOTTE","NC",28217,35.1374805880001,-80.897813614,257,"408 STONE POST RD, CHARLOTTE, NC, 28217","Match","Exact","408 STONE POST RD, CHARLOTTE, NC, 28217",70484464,"R"
202258,"408 STUBBS VINSON ROAD","MONROE","LA",71203,32.526880487,-91.973429525,258,"408 STUBBS VINSON ROAD, MONROE, LA, 71203","Match","Exact","408 STUBBS VINSON RD, MONROE, LA, 71203",612364604,"R"
202259,"408 SUNRISE AVE","ROSEVILLE","CA",95661,38.74000749,-121.272034097,259,"408 SUNRISE AVE, ROSEVILLE, CA, 95661","Match","Exact","408 SUNRISE AVE, ROSEVILLE, CA, 95661",106765050,"R"
202260,"408 SUNRISE AVENUE","SANBORN","IA",51248,43.185588576,-95.651445764,260,"408 SUNRISE AVENUE, SANBORN, IA, 51248","Match","Exact","408 SUNRISE AVE, SANBORN, IA, 51248",39352239,"R"
202261,"408 SW 33RD TER","CAPE CORAL","FL",33914,26.5900128550001,-81.982930906,261,"408 SW 33RD TER, CAPE CORAL, FL, 33914","Match","Exact","408 SW 33RD TER, CAPE CORAL, FL, 33914",118088791,"R"
202262,"408 THARPE ROAD","WARNER ROBINS","GA",31088,32.589639311,-83.7044337249999,262,"408 THARPE ROAD, WARNER ROBINS, GA, 31088","Match","Exact","408 THARPE RD, WARNER ROBINS, GA, 31088",91232823,"R"
202263,"408 THIRD AVENUE","PROCTOR","MN",55810,46.746194706,-92.224260443,263,"408 THIRD AVENUE, PROCTOR, MN, 55810","Match","Non_Exact","408 N 3RD AVE, PROCTOR, MN, 55810",163208633,"R"
202264,"408 TWIN CREEK ROAD","CREVE COUER","MO",63141,38.6476759970001,-90.471017704,264,"408 TWIN CREEK ROAD, CREVE COUER, MO, 63141","Match","Non_Exact","408 TWIN CREEK RD, CREVE COEUR, MO, 63141",100123760,"L"
202265,"408 VILLAGE ORCHARD RD","CARY","NC",27519,35.8395663950001,-78.901595742,265,"408 VILLAGE ORCHARD RD, CARY, NC, 27519","Match","Exact","408 VILLAGE ORCHARD RD, CARY, NC, 27519",637759761,"L"
202266,"408 VINE ST","PERKASIE","PA",18944,40.374606526,-75.289300493,266,"408 VINE ST, PERKASIE, PA, 18944","Match","Exact","408 VINE ST, PERKASIE, PA, 18944",134697949,"R"
202267,"408 W 17TH ST STE 101","AUSTIN","TX",78701,NA,NA,267,"408 W 17TH ST STE 101, AUSTIN, TX, 78701","Tie",NA,NA,NA,NA
202268,"408 W 4TH ST","APPLETON CITY","MO",64724,38.190656613,-94.034120276,268,"408 W 4TH ST, APPLETON CITY, MO, 64724","Match","Exact","408 W 4TH ST, APPLETON CITY, MO, 64724",23145015,"L"
202269,"408 W 57 STREET","NEW YORK","NY",10019,40.768111214,-73.986185738,269,"408 W 57 STREET, NEW YORK, NY, 10019","Match","Exact","408 W 57TH ST, NEW YORK, NY, 10019",650153717,"L"
202270,"408 W BELL ST","STATESVILLE","NC",28677,35.778596674,-80.890654718,270,"408 W BELL ST, STATESVILLE, NC, 28677","Match","Exact","408 W BELL ST, STATESVILLE, NC, 28677",45984049,"L"
202271,"408 W PARKWAY DR","RIDGELAND","MS",39157,NA,NA,271,"408 W PARKWAY DR, RIDGELAND, MS, 39157","No_Match",NA,NA,NA,NA
202272,"408 W QUEEN STREET  UNIT 101","INGLEWOOD","CA",90301,33.962862785,-118.362049324,272,"408 W QUEEN STREET  UNIT 101, INGLEWOOD, CA, 90301","Match","Non_Exact","408 W QUEEN ST, INGLEWOOD, CA, 90301",141654138,"L"
202273,"408 WATSON STREET","WILLARD","MO",65781,37.3011549230001,-93.4318093649999,273,"408 WATSON STREET, WILLARD, MO, 65781","Match","Non_Exact","408 S WATSON ST, WILLARD, MO, 65781",76668363,"L"
202274,"408 WAYSIDE COURT","NASHVILLE","TN",37205,36.09949871,-86.907504288,274,"408 WAYSIDE COURT, NASHVILLE, TN, 37205","Match","Exact","408 WAYSIDE CT, NASHVILLE, TN, 37205",97179718,"R"
202275,"408 WEST 14TH STREET","AUSTIN","TX",78701,30.2769954240001,-97.7434960309999,275,"408 WEST 14TH STREET, AUSTIN, TX, 78701","Match","Exact","408 W 14TH ST, AUSTIN, TX, 78701",63943267,"R"
202276,"408 WEST 36TH STREET","NEW YORK","NY",10018,40.754830521,-73.9957209469999,276,"408 WEST 36TH STREET, NEW YORK, NY, 10018","Match","Exact","408 W 36TH ST, NEW YORK, NY, 10018",640902380,"L"
202277,"408 WEST BELL STREET","STATESVILLE","NC",28677,35.7786044270001,-80.890631647,277,"408 WEST BELL STREET, STATESVILLE, NC, 28677","Match","Exact","408 W BELL ST, STATESVILLE, NC, 28677",45984049,"L"
202278,"408 WEST COLLEGE AVENUE UNIT 1","TALLAHASSEE","FL",32301,30.4407374150001,-84.286057951,278,"408 WEST COLLEGE AVENUE UNIT 1, TALLAHASSEE, FL, 32301","Match","Exact","408 W COLLEGE AVE, TALLAHASSEE, FL, 32301",638491376,"R"
202279,"408 WEST G STREET APT 48","ONTARIO","CA",91762,34.070654485,-117.654936102,279,"408 WEST G STREET APT 48, ONTARIO, CA, 91762","Match","Exact","408 W G ST, ONTARIO, CA, 91762",144675629,"R"
202280,"408 WEST HENDERSON","CLEBURNE","TX",76033,NA,NA,280,"408 WEST HENDERSON, CLEBURNE, TX, 76033","No_Match",NA,NA,NA,NA
202281,"408 WEST MARKET ST APT 4","JEFFERSONVILLE","IN",47130,38.2693915080001,-85.7440810539999,281,"408 WEST MARKET ST APT 4, JEFFERSONVILLE, IN, 47130","Match","Exact","408 W MARKET ST, JEFFERSONVILLE, IN, 47130",64882022,"R"
202282,"408 WEST MEDA AVE","GLENDORA","CA",91741,34.1384923690001,-117.870576539,282,"408 WEST MEDA AVE, GLENDORA, CA, 91741","Match","Exact","408 W MEDA AVE, GLENDORA, CA, 91741",142780092,"L"
202283,"408 WEST STREET","SYLVESTER","GA",31791,31.5271317620001,-83.843050999,283,"408 WEST STREET, SYLVESTER, GA, 31791","Match","Exact","408 WEST ST, SYLVESTER, GA, 31791",84453129,"R"
202284,"408 WEST VAN WEISS","WEST BURLINGTON","IA",52655,40.817610142,-91.160506802,284,"408 WEST VAN WEISS, WEST BURLINGTON, IA, 52655","Match","Non_Exact","408 W VAN WEISS BLVD, W BURLINGTON, IA, 52655",5550472,"R"
202285,"408 WHEELER STREET","SAVANNAH","GA",31405,32.0155648520001,-81.103118347,285,"408 WHEELER STREET, SAVANNAH, GA, 31405","Match","Exact","408 WHEELER ST, SAVANNAH, GA, 31405",6190180,"L"
202286,"408 WILLOW BEND","YOUNGSVILLE","LA",70592,30.126718522,-92.027267944,286,"408 WILLOW BEND, YOUNGSVILLE, LA, 70592","Match","Exact","408 WILLOW BEND, YOUNGSVILLE, LA, 70592",85638411,"R"
202287,"408-D CEDAR STREET NW","WASHINGTON","DC",20012,38.9747811080001,-77.019165016,287,"408-D CEDAR STREET NW, WASHINGTON, DC, 20012","Match","Exact","408 CEDAR ST NW, WASHINGTON, DC, 20012",76221934,"L"
202288,"408","BOURBON","IN",46504,NA,NA,288,"408, BOURBON, IN, 46504","No_Match",NA,NA,NA,NA
202289,"408","CLAYTON","DE",19938,NA,NA,289,"408, CLAYTON, DE, 19938","No_Match",NA,NA,NA,NA
202290,"4080 BALDWIN STREET","DETROIT","MI",48214,42.3699656480001,-83.0113161639999,290,"4080 BALDWIN STREET, DETROIT, MI, 48214","Match","Exact","4080 BALDWIN ST, DETROIT, MI, 48214",95483339,"R"
202291,"4080 CLEARWATER WAY","LEXINGTON","KY",40515,37.965923069,-84.512038296,291,"4080 CLEARWATER WAY, LEXINGTON, KY, 40515","Match","Exact","4080 CLEARWATER WAY, LEXINGTON, KY, 40515",31938686,"L"
202292,"4080 GARFIELD ST","WAYNE","MI",48184,42.2785442680001,-83.3510286549999,292,"4080 GARFIELD ST, WAYNE, MI, 48184","Match","Exact","4080 GARFIELD ST, WAYNE, MI, 48184",95433996,"R"
202293,"4080 GARFIELD STREET","WAYNE","MI",48184,42.2785442680001,-83.3510286549999,293,"4080 GARFIELD STREET, WAYNE, MI, 48184","Match","Exact","4080 GARFIELD ST, WAYNE, MI, 48184",95433996,"R"
202294,"4080 HANCOCK ST 3401","SAN DIEGO","CA",92110,32.7550446920001,-117.217014462,294,"4080 HANCOCK ST 3401, SAN DIEGO, CA, 92110","Match","Exact","4080 HANCOCK ST, SAN DIEGO, CA, 92110",195340567,"R"
202295,"4080 KINGS ROW","RENO","NV",89503,39.5480636890001,-119.869574781,295,"4080 KINGS ROW, RENO, NV, 89503","Match","Exact","4080 KINGS ROW, RENO, NV, 89503",107125364,"L"
202296,"4080 MCGINNIS FERRY RD STE 602","ALPHARETTA","GA",30005,34.10141444,-84.237850485,296,"4080 MCGINNIS FERRY RD STE 602, ALPHARETTA, GA, 30005","Match","Exact","4080 MCGINNIS FERRY RD, ALPHARETTA, GA, 30005",628089271,"L"
202297,"4080 MCGINNIS FERRY RD SUITE 1206","ALPHARETTA","GA",30005,34.10141444,-84.237850485,297,"4080 MCGINNIS FERRY RD SUITE 1206, ALPHARETTA, GA, 30005","Match","Exact","4080 MCGINNIS FERRY RD, ALPHARETTA, GA, 30005",628089271,"L"
202298,"4080 MCLAUGHLIN DRIVE","TALLAHASSEE","FL",32309,30.528463587,-84.194528223,298,"4080 MCLAUGHLIN DRIVE, TALLAHASSEE, FL, 32309","Match","Exact","4080 MCLAUGHLIN DR, TALLAHASSEE, FL, 32309",82870579,"R"
202299,"4080 QUAIL RD","FOUNTAIN","CO",80817,38.496501972,-104.66294231,299,"4080 QUAIL RD, FOUNTAIN, CO, 80817","Match","Exact","4080 QUAIL RD, FOUNTAIN, CO, 80817",625030187,"R"
202300,"4080 RICHARD RD","MIDLOTHIAN","TX",76065,32.523939861,-96.94104921,300,"4080 RICHARD RD, MIDLOTHIAN, TX, 76065","Match","Exact","4080 RICHARD RD, MIDLOTHIAN, TX, 76065",648699765,"R"
202301,"4080 ROCKLIN ROAD","ROCKLIN","CA",95677,38.7899442360001,-121.234198309,301,"4080 ROCKLIN ROAD, ROCKLIN, CA, 95677","Match","Exact","4080 ROCKLIN RD, ROCKLIN, CA, 95677",608087296,"R"
202302,"4080 US HIGHWAY 20","LUSK","WY",82001,42.7507163600001,-104.466685837,302,"4080 US HIGHWAY 20, LUSK, WY, 82001","Match","Non_Exact","4080 US HWY 20, LUSK, WY, 82225",607025912,"R"
202303,"4080 W 800 N","WEST POINT","UT",84015,41.125358808,-112.104593379,303,"4080 W 800 N, WEST POINT, UT, 84015","Match","Exact","4080 W 800 N, WEST POINT, UT, 84015",155367686,"R"
202304,"4080 WOODCOCK DR BLDG 2400  ST 120","JACKSONVILLE","FL",32207,30.303063873,-81.618805413,304,"4080 WOODCOCK DR BLDG 2400  ST 120, JACKSONVILLE, FL, 32207","Match","Exact","4080 WOODCOCK DR, JACKSONVILLE, FL, 32207",83916145,"R"
202305,"4080 WOODCOCK DR BLDG 2400 STE 120","JACKSONVILLE","FL",32207,30.303063873,-81.618805413,305,"4080 WOODCOCK DR BLDG 2400 STE 120, JACKSONVILLE, FL, 32207","Match","Exact","4080 WOODCOCK DR, JACKSONVILLE, FL, 32207",83916145,"R"
202306,"40801 LAS PIEDRAS TERRANCE","PALMDALE","CA",93551,34.623920238,-118.225867639,306,"40801 LAS PIEDRAS TERRANCE, PALMDALE, CA, 93551","Match","Non_Exact","40801 LAS PIEDRAS TER, PALMDALE, CA, 93551",624480293,"L"
202307,"40807 TOMALES TERRACE","FREMONT","CA",94538,37.54107487,-121.955561526,307,"40807 TOMALES TERRACE, FREMONT, CA, 94538","Match","Exact","40807 TOMALES TER, FREMONT, CA, 94538",640794610,"L"
202308,"4081 CONOVER RD","CLEVELAND","OH",44118,41.491780572,-81.533564342,308,"4081 CONOVER RD, CLEVELAND, OH, 44118","Match","Exact","4081 CONOVER RD, CLEVELAND, OH, 44118",61125880,"L"
202309,"4081 DALTON PIKE SE","CLEVELAND","TN",37323,35.100938827,-84.873330392,309,"4081 DALTON PIKE SE, CLEVELAND, TN, 37323","Match","Non_Exact","4081 DALTON PIKE, CLEVELAND, TN, 37323",57578383,"R"
202310,"4081 HABERSHAM CIRCLE","COVINGTON","GA",30014,33.739502207,-83.8506332869999,310,"4081 HABERSHAM CIRCLE, COVINGTON, GA, 30014","Match","Exact","4081 HABERSHAM CIR, COVINGTON, GA, 30014",77627498,"L"
202311,"4081 HODGDON CORNERS DR","LITHONIA","GA",30038,33.663674067,-84.191681463,311,"4081 HODGDON CORNERS DR, LITHONIA, GA, 30038","Match","Exact","4081 HODGDON CORNERS DR, LITHONIA, GA, 30038",619386956,"R"
202312,"4081 KISER COVE LANE","TERRELL","NC",28682,NA,NA,312,"4081 KISER COVE LANE, TERRELL, NC, 28682","No_Match",NA,NA,NA,NA
202313,"4081 ODESSA DRIVE","YORBA LINDA","CA",92886,33.9024157850001,-117.84103203,313,"4081 ODESSA DRIVE, YORBA LINDA, CA, 92886","Match","Exact","4081 ODESSA DR, YORBA LINDA, CA, 92886",144118955,"R"
202314,"4081 POWELLDALE DRIVE","MONTGOMERY","AL",36111,32.330221567,-86.2743294369999,314,"4081 POWELLDALE DRIVE, MONTGOMERY, AL, 36111","Match","Exact","4081 POWELLDALE DR, MONTGOMERY, AL, 36111",1547959,"L"
202315,"4081 TAGGART CAY N UNIT 202","SARASOTA","FL",34233,NA,NA,315,"4081 TAGGART CAY N UNIT 202, SARASOTA, FL, 34233","No_Match",NA,NA,NA,NA
202316,"4081 WEST FENDER AVENUE","FRESNO","CA",93722,36.7823831040001,-119.86411395,316,"4081 WEST FENDER AVENUE, FRESNO, CA, 93722","Match","Exact","4081 W FENDER AVE, FRESNO, CA, 93722",617780017,"L"
202317,"4081 WINTERSWEET DRIVE","DECATUR","GA",30034,33.6806390580001,-84.224263537,317,"4081 WINTERSWEET DRIVE, DECATUR, GA, 30034","Match","Exact","4081 WINTERSWEET DR, DECATUR, GA, 30034",23389874,"R"
202318,"40810 N KENOSHA RD","BEACH PARK","IL",60099,42.4548271730001,-87.870655535,318,"40810 N KENOSHA RD, BEACH PARK, IL, 60099","Match","Exact","40810 N KENOSHA RD, BEACH PARK, IL, 60099",642908386,"L"
202319,"4082 ALBATROSS STREET UNIT 15","SAN DIEGO","CA",92103,32.7514255580001,-117.166161827,319,"4082 ALBATROSS STREET UNIT 15, SAN DIEGO, CA, 92103","Match","Exact","4082 ALBATROSS ST, SAN DIEGO, CA, 92103",195342445,"L"
202320,"4082 FORSYTHE WAY","TALLAHASSEE","FL",32309,30.5260671500001,-84.231207909,320,"4082 FORSYTHE WAY, TALLAHASSEE, FL, 32309","Match","Exact","4082 FORSYTHE WAY, TALLAHASSEE, FL, 32309",646442160,"L"
202321,"4082 GLENBROOK STREET","MEMPHIS","TN",38109,35.0374090540001,-90.0943480779999,321,"4082 GLENBROOK STREET, MEMPHIS, TN, 38109","Match","Exact","4082 GLENBROOK ST, MEMPHIS, TN, 38109",72957836,"L"
202322,"4082 MAHAILA AVENUE UNIT C","SAN DIEGO","CA",92122,32.8696156600001,-117.218656545,322,"4082 MAHAILA AVENUE UNIT C, SAN DIEGO, CA, 92122","Match","Exact","4082 MAHAILA AVE, SAN DIEGO, CA, 92122",195300488,"L"
202323,"4082 N 350 E","HUNTINGTON","IN",46750,40.8906673720001,-85.38139867,323,"4082 N 350 E, HUNTINGTON, IN, 46750","Match","Exact","4082 N 350 E, HUNTINGTON, IN, 46750",6547079,"L"
202324,"40822 N LYTHAM COURT","ANTHEM","AZ",85086,33.855895993,-112.091876379,324,"40822 N LYTHAM COURT, ANTHEM, AZ, 85086","Match","Exact","40822 N LYTHAM CT, ANTHEM, AZ, 85086",243975045,"L"
202325,"40825 ONDINA CT","FREMONT","CA",94539,37.5494997420001,-121.94553503,325,"40825 ONDINA CT, FREMONT, CA, 94539","Match","Exact","40825 ONDINA CT, FREMONT, CA, 94539",125033437,"L"
202326,"4083 AMBERLY GREEN NW","KENNESAW","GA",30144,34.051241685,-84.611727244,326,"4083 AMBERLY GREEN NW, KENNESAW, GA, 30144","Match","Exact","4083 AMBERLY GREEN NW, KENNESAW, GA, 30144",17227542,"L"
202327,"4083 GLAESER ROAD","BELLVILLE","TX",77418,30.0102424070001,-96.376060184,327,"4083 GLAESER ROAD, BELLVILLE, TX, 77418","Match","Exact","4083 GLAESER RD, BELLVILLE, TX, 77418",41819576,"L"
202328,"4083 NORTH MARSHALL STREET","COOLIDGE","GA",31738,31.015733352,-83.862979283,328,"4083 NORTH MARSHALL STREET, COOLIDGE, GA, 31738","Match","Exact","4083 N MARSHALL ST, COOLIDGE, GA, 31738",83107598,"L"
202329,"4083 ST RT W","WEST PLAINS","MO",65438,NA,NA,329,"4083 ST RT W, WEST PLAINS, MO, 65438","No_Match",NA,NA,NA,NA
202330,"4083 WEST AVE L NUM 125","LANCASTER","CA",93536,34.660141525,-118.204311604,330,"4083 WEST AVE L NUM 125, LANCASTER, CA, 93536","Match","Exact","4083 W AVE L, LANCASTER, CA, 93536",142703859,"L"
202331,"4083 WEST AVE L UNIT 223","LANCASTER","CA",93536,34.660141525,-118.204311604,331,"4083 WEST AVE L UNIT 223, LANCASTER, CA, 93536","Match","Exact","4083 W AVE L, LANCASTER, CA, 93536",142703859,"L"
202332,"4083 WEST AVENUE L UNIT 262","LANCASTER","CA",93536,34.660141525,-118.204311604,332,"4083 WEST AVENUE L UNIT 262, LANCASTER, CA, 93536","Match","Exact","4083 W AVE L, LANCASTER, CA, 93536",142703859,"L"
202333,"4083 WEST AVENUE L/ NO 168","QUARTZ HILL","CA",93536,NA,NA,333,"4083 WEST AVENUE L/ NO 168, QUARTZ HILL, CA, 93536","No_Match",NA,NA,NA,NA
202334,"40836 CHEROKEE OAKS DR","THREE RIVERS","CA",93271,36.416019196,-118.91244508,334,"40836 CHEROKEE OAKS DR, THREE RIVERS, CA, 93271","Match","Exact","40836 CHEROKEE OAKS DR, THREE RIVERS, CA, 93271",202820859,"L"
202335,"4084 90TH AVE","FLORISSANT","MO",63034,38.8272163780001,-90.3011383579999,335,"4084 90TH AVE, FLORISSANT, MO, 63034","Match","Exact","4084 90TH AVE, FLORISSANT, MO, 63034",100143606,"R"
202336,"4084 ASTER COURT","LAKE WORTH","FL",33461,26.611875066,-80.1071292789999,336,"4084 ASTER COURT, LAKE WORTH, FL, 33461","Match","Exact","4084 ASTER CT, LAKE WORTH, FL, 33461",115284477,"R"
202337,"4084 BARN HOLLOW WAY","ANTIOCH","CA",94509,37.988302607,-121.859960725,337,"4084 BARN HOLLOW WAY, ANTIOCH, CA, 94509","Match","Exact","4084 BARN HOLLOW WAY, ANTIOCH, CA, 94509",617829755,"R"
202338,"4084 BLACKBUTTE CIR","STOCKTON","CA",95209,38.047815127,-121.368453766,338,"4084 BLACKBUTTE CIR, STOCKTON, CA, 95209","Match","Non_Exact","4084 BLACK BUTTE CIR, STOCKTON, CA, 95209",133889253,"R"
202339,"4084 HONEYSUCKLE DRIVE","EDGEWATER","MD",21037,38.89507997,-76.49318289,339,"4084 HONEYSUCKLE DRIVE, EDGEWATER, MD, 21037","Match","Exact","4084 HONEYSUCKLE DR, EDGEWATER, MD, 21037",68177830,"R"
202340,"4084 MOUNT CARMEL ROAD","FRONTENAC","KS",66763,37.446151484,-94.695722265,340,"4084 MOUNT CARMEL ROAD, FRONTENAC, KS, 66763","Match","Exact","4084 MOUNT CARMEL RD, FRONTENAC, KS, 66763",33438438,"R"
202341,"4084 MT CARMEL RD","FRONTENAC","KS",66763,37.446151484,-94.695722265,341,"4084 MT CARMEL RD, FRONTENAC, KS, 66763","Match","Exact","4084 MOUNT CARMEL RD, FRONTENAC, KS, 66763",33438438,"R"
202342,"4084 NORTH ANGUS","FRESNO","CA",93726,36.7918885650001,-119.77465779,342,"4084 NORTH ANGUS, FRESNO, CA, 93726","Match","Non_Exact","4084 N ANGUS ST, FRESNO, CA, 93726",197575318,"R"
202343,"4084 PENDLETON WAY NUM 290","INDIANAPOLIS","IN",46226,39.8310216190001,-86.0374616129999,343,"4084 PENDLETON WAY NUM 290, INDIANAPOLIS, IN, 46226","Match","Exact","4084 PENDLETON WAY, INDIANAPOLIS, IN, 46226",108035198,"R"
202344,"4084 PENDLETON WAY STE 266","INDIANAPOLIS","IN",46226,39.8310216190001,-86.0374616129999,344,"4084 PENDLETON WAY STE 266, INDIANAPOLIS, IN, 46226","Match","Exact","4084 PENDLETON WAY, INDIANAPOLIS, IN, 46226",108035198,"R"
202345,"4084 PINE STREET","OCHLOCKNEE","GA",31773,30.9679571930001,-84.053553059,345,"4084 PINE STREET, OCHLOCKNEE, GA, 31773","Match","Exact","4084 PINE ST, OCHLOCKNEE, GA, 31773",83099732,"R"
202346,"4084 S 300 W","SALT LAKE CITY","UT",84107,40.683904553,-111.899756797,346,"4084 S 300 W, SALT LAKE CITY, UT, 84107","Match","Exact","4084 S 300 W, SALT LAKE CITY, UT, 84107",621651858,"R"
202347,"4084 S HUACHUCA WAY","CHANDLER","AZ",85249,33.246957238,-111.778839624,347,"4084 S HUACHUCA WAY, CHANDLER, AZ, 85249","Match","Exact","4084 S HUACHUCA WAY, CHANDLER, AZ, 85249",614559258,"L"
202348,"4084 WARRIORS MARK PATH","WARRIORS MARK","PA",16877,40.702702286,-78.1288143099999,348,"4084 WARRIORS MARK PATH, WARRIORS MARK, PA, 16877","Match","Exact","4084 WARRIORS MARK PATH, WARRIORS MARK, PA, 16877",607270097,"L"
202349,"40845 AVENIDA CALIFIA","PALM DESERT","CA",92260,33.75164726,-116.389568153,349,"40845 AVENIDA CALIFIA, PALM DESERT, CA, 92260","Match","Non_Exact","40845 AVE CALAFIA, PALM DESERT, CA, 92260",195065343,"R"
202350,"40847 VALLEY OF THE FALLS DR","FOREST FALLS","CA",92339,34.085918775,-116.912049687,350,"40847 VALLEY OF THE FALLS DR, FOREST FALLS, CA, 92339","Match","Exact","40847 VALLEY OF THE FALLS DR, FOREST FALLS, CA, 92339",145207878,"L"
202351,"4085 20TH ST","SAN FRANCISCO","CA",94114,37.7576667820001,-122.432290861,351,"4085 20TH ST, SAN FRANCISCO, CA, 94114","Match","Exact","4085 20TH ST, SAN FRANCISCO, CA, 94114",192284748,"L"
202352,"4085 BALSAM BARK DRIVE","CUMMING","GA",30028,34.32278008,-84.0722675539999,352,"4085 BALSAM BARK DRIVE, CUMMING, GA, 30028","Match","Exact","4085 BALSAM BARK DR, CUMMING, GA, 30028",625652446,"L"
202353,"4085 CENTRAL AVENUE","BROWNSVILLE","TX",78526,25.9650831330001,-97.4443787819999,353,"4085 CENTRAL AVENUE, BROWNSVILLE, TX, 78526","Match","Non_Exact","4085 N CENTRAL AVE, BROWNSVILLE, TX, 78526",90018341,"R"
202354,"4085 COROLYN DR","LA MESA","CA",91941,32.7528970710001,-117.02642581,354,"4085 COROLYN DR, LA MESA, CA, 91941","Match","Exact","4085 COROLYN DR, LA MESA, CA, 91941",195359474,"R"
202355,"4085 ESTRADA AVENUE","ATASCADERO","CA",93422,35.5098365790001,-120.675333351,355,"4085 ESTRADA AVENUE, ATASCADERO, CA, 93422","Match","Exact","4085 ESTRADA AVE, ATASCADERO, CA, 93422",109718589,"R"
202356,"4085 LEGION COURT","LAFAYETTE","CA",94549,37.8859504750001,-122.157769932,356,"4085 LEGION COURT, LAFAYETTE, CA, 94549","Match","Exact","4085 LEGION CT, LAFAYETTE, CA, 94549",192050877,"L"
202357,"4085 MAGNOLIA PL","DIBERVILLE","MS",39540,30.434280561,-88.9033516219999,357,"4085 MAGNOLIA PL, DIBERVILLE, MS, 39540","Match","Exact","4085 MAGNOLIA PL, DIBERVILLE, MS, 39540",111390151,"R"
202358,"4085 MAPLE CREST COURT","WINSTON","GA",30187,33.6940205270001,-84.8155440419999,358,"4085 MAPLE CREST COURT, WINSTON, GA, 30187","Match","Exact","4085 MAPLE CREST CT, WINSTON, GA, 30187",618467756,"R"
202359,"4085 PRESTON OAKS PLACE","LITHONIA","GA",30058,33.6661765330001,-84.1694029559999,359,"4085 PRESTON OAKS PLACE, LITHONIA, GA, 30058","Match","Non_Exact","4085 PRESTON OAKS PL, LITHONIA, GA, 30038",23400354,"R"
202360,"4085 PROSPECT AVE APT 107","YORBA LINDA","CA",92886,NA,NA,360,"4085 PROSPECT AVE APT 107, YORBA LINDA, CA, 92886","No_Match",NA,NA,NA,NA
202361,"4085 W 8TH ST","LOS ANGELES","CA",90005,34.0580962720001,-118.317598522,361,"4085 W 8TH ST, LOS ANGELES, CA, 90005","Match","Exact","4085 W 8TH ST, LOS ANGELES, CA, 90005",141603668,"R"
202362,"4085 WELCOME AVE N","CRYSTAL","MN",55429,45.029225954,-93.350765632,362,"4085 WELCOME AVE N, CRYSTAL, MN, 55429","Match","Non_Exact","4085 WELCOME AVE N, CRYSTAL, MN, 55422",43831098,"L"
202363,"4086 ANTHONY JAMES CT","RENO","NV",89503,39.565320623,-119.829473911,363,"4086 ANTHONY JAMES CT, RENO, NV, 89503","Match","Exact","4086 ANTHONY JAMES CT, RENO, NV, 89503",107120633,"R"
202364,"4086 ASBURY RIDGE DR","COLUMBUS","OH",43230,40.0618811860001,-82.869302853,364,"4086 ASBURY RIDGE DR, COLUMBUS, OH, 43230","Match","Exact","4086 ASBURY RIDGE DR, COLUMBUS, OH, 43230",636559638,"R"
202365,"4086 CLOVELLY DRIVE","GREENSBORO","NC",27406,36.039820186,-79.712033205,365,"4086 CLOVELLY DRIVE, GREENSBORO, NC, 27406","Match","Exact","4086 CLOVELLY DR, GREENSBORO, NC, 27406",131098876,"L"
202366,"4086 CURRY STATION RD","MUNFORD","AL",36203,33.5419409520001,-86.0095816799999,366,"4086 CURRY STATION RD, MUNFORD, AL, 36203","Match","Non_Exact","4086 CURRY STATION RD, MUNFORD, AL, 36268",66949292,"R"
202367,"4086 E SCHUCKMAN RD","VINCENNES","IN",47591,NA,NA,367,"4086 E SCHUCKMAN RD, VINCENNES, IN, 47591","Tie",NA,NA,NA,NA
202368,"40865 LEELAND ROAD","MECHANICSVILLE","MD",20659,38.409100257,-76.6620011539999,368,"40865 LEELAND ROAD, MECHANICSVILLE, MD, 20659","Match","Exact","40865 LEELAND RD, MECHANICSVILLE, MD, 20659",641886523,"R"
202369,"4087 HWY 45 SOUTH","COLUMBUS","MS",39701,33.424641579,-88.511211083,369,"4087 HWY 45 SOUTH, COLUMBUS, MS, 39701","Match","Exact","4087 HWY 45 S, COLUMBUS, MS, 39701",647551159,"R"
202370,"4087 SANDY BRANCH DR","BUFORD","GA",30519,34.1204774830001,-83.95466064,370,"4087 SANDY BRANCH DR, BUFORD, GA, 30519","Match","Non_Exact","4087 SANDY BRANCH DR NE, BUFORD, GA, 30519",623813766,"L"
202371,"4088 BEACH CLUB LN","TEGA CAY","SC",29708,35.0428300350001,-81.0058800319999,371,"4088 BEACH CLUB LN, TEGA CAY, SC, 29708","Match","Exact","4088 BEACH CLUB LN, TEGA CAY, SC, 29708",625372929,"R"
202372,"4088 DEAN SHOP ROAD","ESTILL SPRING","TN",37330,35.352810048,-86.011895787,372,"4088 DEAN SHOP ROAD, ESTILL SPRING, TN, 37330","Match","Non_Exact","4088 DEANS SHOP RD, ESTILL SPRINGS, TN, 37330",58241797,"R"
202373,"4088 DRIFTED ROAD","NEW TRIPOLI","PA",18066,40.6229923930001,-75.727108113,373,"4088 DRIFTED ROAD, NEW TRIPOLI, PA, 18066","Match","Exact","4088 DRIFTED RD, NEW TRIPOLI, PA, 18066",80754538,"L"
202374,"4088 E 370 N","RIGBY","ID",83442,43.680289052,-111.885411252,374,"4088 E 370 N, RIGBY, ID, 83442","Match","Exact","4088 370 N, RIGBY, ID, 83442",119321082,"L"
202375,"4088 E GALVIN STREET","CAVE CREEK","AZ",85331,33.8057826130001,-111.998099026,375,"4088 E GALVIN STREET, CAVE CREEK, AZ, 85331","Match","Exact","4088 E GALVIN ST, CAVE CREEK, AZ, 85331",128843126,"R"
202376,"4088 E JASPER DR","GILBERT","AZ",85296,33.3271285020001,-111.701900522,376,"4088 E JASPER DR, GILBERT, AZ, 85296","Match","Exact","4088 E JASPER DR, GILBERT, AZ, 85296",128878151,"L"
202377,"4088 E WINDSONG ST","SPRINGFIELD","MO",65809,37.171870529,-93.211687576,377,"4088 E WINDSONG ST, SPRINGFIELD, MO, 65809","Match","Exact","4088 E WINDSONG ST, SPRINGFIELD, MO, 65809",76712184,"L"
202378,"4088 GALLO ST","PORT CHARLOTTE","FL",33948,26.971625881,-82.145810377,378,"4088 GALLO ST, PORT CHARLOTTE, FL, 33948","Match","Exact","4088 GALLO ST, PORT CHARLOTTE, FL, 33948",4299804,"R"
202379,"4088 KINGS LANE","NASHVILLE","TN",37218,36.2167280510001,-86.854444459,379,"4088 KINGS LANE, NASHVILLE, TN, 37218","Match","Exact","4088 KINGS LN, NASHVILLE, TN, 37218",649569403,"R"
202380,"4088 MURPHY LN STE 102","LOUISVILLE","KY",40241,38.3030392630001,-85.533265571,380,"4088 MURPHY LN STE 102, LOUISVILLE, KY, 40241","Match","Exact","4088 MURPHY LN, LOUISVILLE, KY, 40241",96862761,"L"
202381,"4088 SAVANNAH GROVE LANE","COLUMBUS","OH",43221,40.060175504,-83.128708629,381,"4088 SAVANNAH GROVE LANE, COLUMBUS, OH, 43221","Match","Exact","4088 SAVANNAH GROVE LN, COLUMBUS, OH, 43221",625543950,"L"
202382,"4088 W HAWTHORNE TRACE RD APT 205","BROWN DEER","WI",53209,43.1915341230001,-87.962683705,382,"4088 W HAWTHORNE TRACE RD APT 205, BROWN DEER, WI, 53209","Match","Non_Exact","4088 W HAWTHORNE TRACE RD, BROWN DEER, WI, 53209",77761421,"L"
202383,"4088 W HAWTHORNE TRACE ROAD APT 202","BROWN DEER","WI",53209,43.1915341230001,-87.962683705,383,"4088 W HAWTHORNE TRACE ROAD APT 202, BROWN DEER, WI, 53209","Match","Non_Exact","4088 W HAWTHORNE TRACE RD, BROWN DEER, WI, 53209",77761421,"L"
202384,"4088 W KENDERTON TRL","BEAVERCREEK","OH",45430,39.7036336,-84.0884346239999,384,"4088 W KENDERTON TRL, BEAVERCREEK, OH, 45430","Match","Exact","4088 KENDERTON TRL, BEAVERCREEK, OH, 45430",143419192,"R"
202385,"40882 SPRING HOUSE LANE","LEONARDTOWN","MD",20650,38.2665923170001,-76.6642540299999,385,"40882 SPRING HOUSE LANE, LEONARDTOWN, MD, 20650","Match","Exact","40882 SPRING HOUSE LN, LEONARDTOWN, MD, 20650",36618602,"R"
202386,"4089 21ST AVE SW","CEDAR RAPIDS","IA",52404,41.9592073100001,-91.724755258,386,"4089 21ST AVE SW, CEDAR RAPIDS, IA, 52404","Match","Exact","4089 21ST AVE SW, CEDAR RAPIDS, IA, 52404",17034896,"L"
202387,"4089 BOTTLE BAY RD","SAGLE","ID",83860,48.2687534470001,-116.505432585,387,"4089 BOTTLE BAY RD, SAGLE, ID, 83860","Match","Exact","4089 BOTTLE BAY RD, SAGLE, ID, 83860",639578241,"R"
202388,"4089 BRAINARD RD","CHAGRIN FALLS","OH",44022,41.447823069,-81.4802266,388,"4089 BRAINARD RD, CHAGRIN FALLS, OH, 44022","Match","Exact","4089 BRAINARD RD, CHAGRIN FALLS, OH, 44022",633549231,"L"
202389,"4089 FAIRMOUNT AVENUE","SAN DIEGO","CA",92105,32.7512157780001,-117.10085103,389,"4089 FAIRMOUNT AVENUE, SAN DIEGO, CA, 92105","Match","Exact","4089 FAIRMOUNT AVE, SAN DIEGO, CA, 92105",612873155,"R"
202390,"4089 S 84 ST  211","OMAHA","NE",68127,NA,NA,390,"4089 S 84 ST  211, OMAHA, NE, 68127","No_Match",NA,NA,NA,NA
202391,"4089 VALLEY OAK DR","LOVELAND","CO",80538,40.43355122,-105.024588959,391,"4089 VALLEY OAK DR, LOVELAND, CO, 80538","Match","Exact","4089 VALLEY OAK DR, LOVELAND, CO, 80538",636177155,"L"
202392,"40891 W COLTIN WAY","MARICOPA","AZ",85138,33.068544579,-112.006805445,392,"40891 W COLTIN WAY, MARICOPA, AZ, 85138","Match","Exact","40891 W COLTIN WAY, MARICOPA, AZ, 85138",641425945,"R"
202393,"408B COMMERCE LANE","WEST BERLIN","NJ",8091,39.8105133550001,-74.92889518,393,"408B COMMERCE LANE, WEST BERLIN, NJ, 8091","Match","Exact","408 COMMERCE LN, WEST BERLIN, NJ, 08091",134400288,"R"
202394,"408D PLAZA DRIVE","MONROE","GA",30655,33.799141682,-83.727415568,394,"408D PLAZA DRIVE, MONROE, GA, 30655","Match","Exact","408 PLAZA DR, MONROE, GA, 30655",618471198,"R"
202395,"408E FAIRMONT AVE","MODESTO","CA",95354,37.6572513360001,-120.988099526,395,"408E FAIRMONT AVE, MODESTO, CA, 95354","Match","Non_Exact","408 E FAIRMONT AVE, MODESTO, CA, 95354",102604176,"R"
202396,"409 1ST NH TPKE","NORTHWOOD","NH",3261,43.2049428720001,-71.169030756,396,"409 1ST NH TPKE, NORTHWOOD, NH, 3261","Match","Exact","409 FIRST NEW HAMPSHIRE TPKE, NORTHWOOD, NH, 03261",651387856,"L"
202397,"409 20TH AVENUE","PHENIX CITY","AL",36869,32.45225795,-85.02080867,397,"409 20TH AVENUE, PHENIX CITY, AL, 36869","Match","Exact","409 20TH AVE, PHENIX CITY, AL, 36869",69269105,"R"
202398,"409 20TH","LAWRENCEVILLE","IL",62439,38.7322440830001,-87.691161542,398,"409 20TH, LAWRENCEVILLE, IL, 62439","Match","Non_Exact","409 20TH ST, LAWRENCEVILLE, IL, 62439",29667884,"L"
202399,"409 21ST STREET","SACRAMENTO","CA",95811,38.5827224870001,-121.475785432,399,"409 21ST STREET, SACRAMENTO, CA, 95811","Match","Exact","409 21ST ST, SACRAMENTO, CA, 95811",133421864,"L"
202400,"409 27 TH ST","ROCKFORD","IL",61108,42.262426927,-89.047939535,400,"409 27 TH ST, ROCKFORD, IL, 61108","Match","Non_Exact","409 27TH ST, ROCKFORD, IL, 61108",49260616,"R"
202401,"409 40TH ST","SUNSET BEACH","NC",28468,33.8678113180001,-78.517138502,401,"409 40TH ST, SUNSET BEACH, NC, 28468","Match","Exact","409 40TH ST, SUNSET BEACH, NC, 28468",153152466,"R"
202402,"409 44TH ST SE","CHARLESTON","WV",25304,38.3236149750001,-81.5857006699999,402,"409 44TH ST SE, CHARLESTON, WV, 25304","Match","Exact","409 44TH ST SE, CHARLESTON, WV, 25304",78649311,"R"
202403,"409 4TH ST","SERGEANT BLUFF","IA",51054,42.4038393230001,-96.3603321749999,403,"409 4TH ST, SERGEANT BLUFF, IA, 51054","Match","Exact","409 4TH ST, SERGEANT BLUFF, IA, 51054",93425053,"L"
202404,"409 8TH ST","CLARKSTON","WA",99403,46.4214704670001,-117.048168119,404,"409 8TH ST, CLARKSTON, WA, 99403","Match","Exact","409 8TH ST, CLARKSTON, WA, 99403",173102304,"R"
202405,"409 ACCOLADE DR","CARY","NC",27513,35.7787716030001,-78.8466043239999,405,"409 ACCOLADE DR, CARY, NC, 27513","Match","Exact","409 ACCOLADE DR, CARY, NC, 27513",72570218,"L"
202406,"409 ARROWHEAD BLVD   STE A116","JONESBORO","GA",30236,33.5749477190001,-84.379282858,406,"409 ARROWHEAD BLVD   STE A116, JONESBORO, GA, 30236","Match","Exact","409 ARROWHEAD BLVD, JONESBORO, GA, 30236",650124223,"R"
202407,"409 ARTHURS ROUND TABLE","WYNNEWOOD","PA",19096,40.0128435770001,-75.278698364,407,"409 ARTHURS ROUND TABLE, WYNNEWOOD, PA, 19096","Match","Exact","409 ARTHURS ROUND TABLE, WYNNEWOOD, PA, 19096",135130447,"R"
202408,"409 AZRA CT","HAVRE DE GRACE","MD",21078,39.544765043,-76.135081891,408,"409 AZRA CT, HAVRE DE GRACE, MD, 21078","Match","Exact","409 AZRA CT, HAVRE DE GRACE, MD, 21078",640358723,"L"
202409,"409 BAINBRIDGE COURT 23","LEXINGTON","KY",40509,38.0051307000001,-84.428708912,409,"409 BAINBRIDGE COURT 23, LEXINGTON, KY, 40509","Match","Exact","409 BAINBRIDGE CT, LEXINGTON, KY, 40509",31927954,"L"
202410,"409 BEATTY ROAD","MONROEVILLE","PA",15146,40.4462803760001,-79.763926177,410,"409 BEATTY ROAD, MONROEVILLE, PA, 15146","Match","Exact","409 BEATTY RD, MONROEVILLE, PA, 15146",51676845,"L"
202411,"409 BERKLEY PLACE COURT","SAINT LOUIS","MO",63132,38.664011268,-90.374161317,411,"409 BERKLEY PLACE COURT, SAINT LOUIS, MO, 63132","Match","Exact","409 BERKLEY PLACE CT, SAINT LOUIS, MO, 63132",100177775,"R"
202412,"409 BLACK DIAMOND ROAD","SMYRNA","DE",19977,39.350359714,-75.640539363,412,"409 BLACK DIAMOND ROAD, SMYRNA, DE, 19977","Match","Exact","409 BLACK DIAMOND RD, SMYRNA, DE, 19977",606277351,"R"
202413,"409 BOAS STREET","HARRISBURG","PA",17102,40.267981526,-76.8859240199999,413,"409 BOAS STREET, HARRISBURG, PA, 17102","Match","Exact","409 BOAS ST, HARRISBURG, PA, 17102",70817557,"R"
202414,"409 BOB WHITE STREET","DESOTO","TX",75115,32.5952801290001,-96.852267567,414,"409 BOB WHITE STREET, DESOTO, TX, 75115","Match","Exact","409 BOB WHITE ST, DESOTO, TX, 75115",102953776,"L"
202415,"409 BROAD STREET -  STE 204","SEWICKLEY","PA",15143,40.5393112830001,-80.1814855,415,"409 BROAD STREET -  STE 204, SEWICKLEY, PA, 15143","Match","Exact","409 BROAD ST, SEWICKLEY, PA, 15143",51691621,"L"
202416,"409 BROAD STREET - STE 204","SEWICKLEY","PA",15143,40.5393112830001,-80.1814855,416,"409 BROAD STREET - STE 204, SEWICKLEY, PA, 15143","Match","Exact","409 BROAD ST, SEWICKLEY, PA, 15143",51691621,"L"
202417,"409 BROADWAY STREET SUITE A","ROCK SPRINGS","WY",82901,41.585712675,-109.220444034,417,"409 BROADWAY STREET SUITE A, ROCK SPRINGS, WY, 82901","Match","Exact","409 BROADWAY ST, ROCK SPRINGS, WY, 82901",637240979,"L"
202418,"409 BROOKVIEW COURT","HARRISBURG","PA",17112,NA,NA,418,"409 BROOKVIEW COURT, HARRISBURG, PA, 17112","No_Match",NA,NA,NA,NA
202419,"409 BUDD ROAD","WOODBOURNE","NY",12788,41.771548694,-74.56508182,419,"409 BUDD ROAD, WOODBOURNE, NY, 12788","Match","Exact","409 BUDD RD, WOODBOURNE, NY, 12788",647746782,"L"
202420,"409 CANAL STREET","MILLDALE","CT",6479,41.566907513,-72.90279122,420,"409 CANAL STREET, MILLDALE, CT, 6479","Match","Non_Exact","409 CANAL ST, PLANTSVILLE, CT, 06479",3512242,"L"
202421,"409 CANTERBERRY DRIVE","NEW BRAUNFELS","TX",78132,29.727286701,-98.179283429,421,"409 CANTERBERRY DRIVE, NEW BRAUNFELS, TX, 78132","Match","Exact","409 CANTERBERRY DR, NEW BRAUNFELS, TX, 78132",72244613,"L"
202422,"409 CASON AVENUE","BASTROP","LA",71220,32.772404699,-91.918124109,422,"409 CASON AVENUE, BASTROP, LA, 71220","Match","Exact","409 CASON AVE, BASTROP, LA, 71220",75377814,"R"
202423,"409 CAT TAIL LANE","MANCHESTER","CT",6042,41.799474989,-72.541890113,423,"409 CAT TAIL LANE, MANCHESTER, CT, 6042","Match","Exact","409 CAT TAIL LN, MANCHESTER, CT, 06042",624410643,"L"
202424,"409 CHERRY STREET","COLUMBIA","PA",17512,40.0320471300001,-76.499779227,424,"409 CHERRY STREET, COLUMBIA, PA, 17512","Match","Exact","409 CHERRY ST, COLUMBIA, PA, 17512",179702148,"R"
202425,"409 CHESTNUT ST","LEBANON","PA",17042,40.338463828,-76.418072961,425,"409 CHESTNUT ST, LEBANON, PA, 17042","Match","Exact","409 CHESTNUT ST, LEBANON, PA, 17042",611342557,"R"
202426,"409 CIRCLE DR","LAKE GENEVA","WI",53147,42.5944609540001,-88.44877655,426,"409 CIRCLE DR, LAKE GENEVA, WI, 53147","Match","Exact","409 CIRCLE DR, LAKE GENEVA, WI, 53147",53672721,"R"
202427,"409 CLAY AVE","SCRANTON","PA",18510,41.4062818460001,-75.653833277,427,"409 CLAY AVE, SCRANTON, PA, 18510","Match","Exact","409 CLAY AVE, SCRANTON, PA, 18510",638980468,"L"
202428,"409 CLAYMORE DR","LAFAYETTE","LA",70503,30.193004477,-92.0497940289999,428,"409 CLAYMORE DR, LAFAYETTE, LA, 70503","Match","Exact","409 CLAYMORE DR, LAFAYETTE, LA, 70503",85618043,"L"
202429,"409 CLIFFORD SEALS AVE","EUFAULA","OK",74432,NA,NA,429,"409 CLIFFORD SEALS AVE, EUFAULA, OK, 74432","No_Match",NA,NA,NA,NA
202430,"409 COLD BRANCH DRIVE","COLUMBIA","SC",29223,34.138611027,-80.8851615629999,430,"409 COLD BRANCH DRIVE, COLUMBIA, SC, 29223","Match","Exact","409 COLD BRANCH DR, COLUMBIA, SC, 29223",71808201,"R"
202431,"409 COLEMAN BOULEVARD","MT PLEASANT","SC",29464,32.7904595640001,-79.876332683,431,"409 COLEMAN BOULEVARD, MT PLEASANT, SC, 29464","Match","Exact","409 COLEMAN BLVD, MOUNT PLEASANT, SC, 29464",108808558,"L"
202432,"409 COLLEGE STREET","BOWLING GREEN","KY",42101,36.997879411,-86.435478244,432,"409 COLLEGE STREET, BOWLING GREEN, KY, 42101","Match","Exact","409 COLLEGE ST, BOWLING GREEN, KY, 42101",28005182,"L"
202433,"409 CONRAD ROAD","ENGLEWOOD","NJ",7631,40.9115098890001,-73.977673855,433,"409 CONRAD ROAD, ENGLEWOOD, NJ, 7631","Match","Exact","409 CONRAD RD, ENGLEWOOD, NJ, 07631",64374125,"R"
202434,"409 CORTONA DRIVE","ORLANDO","FL",32828,28.5461581530001,-81.146551539,434,"409 CORTONA DRIVE, ORLANDO, FL, 32828","Match","Exact","409 CORTONA DR, ORLANDO, FL, 32828",611172792,"L"
202435,"409 COULTER BUILDING","CULLOWEE","NC",28723,NA,NA,435,"409 COULTER BUILDING, CULLOWEE, NC, 28723","No_Match",NA,NA,NA,NA
202436,"409 DONALD DRIVE","SCHENECTADY","NY",12306,42.768995524,-74.0005169889999,436,"409 DONALD DRIVE, SCHENECTADY, NY, 12306","Match","Exact","409 DONALD DR, SCHENECTADY, NY, 12306",18034431,"L"
202437,"409 DONEY WAY","BOZEMAN","MT",59718,45.5817848390001,-111.09664351,437,"409 DONEY WAY, BOZEMAN, MT, 59718","Match","Exact","409 DONEY WAY, BOZEMAN, MT, 59718",615521547,"R"
202438,"409 E 50 S","VEEDERSBURG","IN",47987,40.118742469,-87.242262333,438,"409 E 50 S, VEEDERSBURG, IN, 47987","Match","Exact","409 E 50 S, VEEDERSBURG, IN, 47987",55223521,"L"
202439,"409 E 74TH ST APT 4C","NEW YORK","NY",10021,40.7687868630001,-73.954228418,439,"409 E 74TH ST APT 4C, NEW YORK, NY, 10021","Match","Non_Exact","409 E 74TH ST, NEW YORK, NY, 10021",650156955,"L"
202440,"409 E 95TH STREET","BROOKLYN","NY",11212,40.657097074,-73.918504118,440,"409 E 95TH STREET, BROOKLYN, NY, 11212","Match","Exact","409 E 95TH ST, BROOKLYN, NY, 11212",59083701,"L"
202441,"409 E PALM AVENUE","REDLANDS","CA",92373,34.0466674640001,-117.169886702,441,"409 E PALM AVENUE, REDLANDS, CA, 92373","Match","Exact","409 E PALM AVE, REDLANDS, CA, 92373",144665643,"L"
202442,"409 E WESTMONT AVE","NORFOLK","VA",23503,36.936472757,-76.253766196,442,"409 E WESTMONT AVE, NORFOLK, VA, 23503","Match","Exact","409 E WESTMONT AVE, NORFOLK, VA, 23503",122133206,"R"
202443,"409 EAST 26TH STREET","BRYAN","TX",77803,30.673343254,-96.3699149989999,443,"409 EAST 26TH STREET, BRYAN, TX, 77803","Match","Exact","409 E 26TH ST, BRYAN, TX, 77803",21813189,"R"
202444,"409 EAST 3RD STREET","BROOKLYN","IA",52211,41.7308651070001,-92.441553143,444,"409 EAST 3RD STREET, BROOKLYN, IA, 52211","Match","Exact","409 E 3RD ST, BROOKLYN, IA, 52211",89576061,"L"
202445,"409 EAST 5TH ST","NEILLSVILLE","WI",54456,44.559851268,-90.591319475,445,"409 EAST 5TH ST, NEILLSVILLE, WI, 54456","Match","Exact","409 E 5TH ST, NEILLSVILLE, WI, 54456",50864121,"L"
202446,"409 EAST 85TH STREET 2B","NEW YORK","NY",10028,40.775935544,-73.949232815,446,"409 EAST 85TH STREET 2B, NEW YORK, NY, 10028","Match","Exact","409 E 85TH ST, NEW YORK, NY, 10028",650084371,"L"
202447,"409 EAST 9TH ST","COLUMBIA","TN",38401,35.6116720480001,-87.029498748,447,"409 EAST 9TH ST, COLUMBIA, TN, 38401","Match","Exact","409 E 9TH ST, COLUMBIA, TN, 38401",26884084,"R"
202448,"409 EAST BROAD ROCK ROAD","RICHMOND","VA",23224,37.5065656900001,-77.4633732569999,448,"409 EAST BROAD ROCK ROAD, RICHMOND, VA, 23224","Match","Exact","409 E BROAD ROCK RD, RICHMOND, VA, 23224",201541574,"R"
202449,"409 EAST CALLENDER","LIVINGSTON","MT",59047,45.6633242670001,-110.55651016,449,"409 EAST CALLENDER, LIVINGSTON, MT, 59047","Match","Non_Exact","409 E CALLENDER ST, LIVINGSTON, MT, 59047",610910652,"L"
202450,"409 EAST LEA ANNE","RENSSELAER","IN",47978,NA,NA,450,"409 EAST LEA ANNE, RENSSELAER, IN, 47978","No_Match",NA,NA,NA,NA
202451,"409 EAST MAIN STREET","FRONT ROYAL","VA",22630,38.9174855150001,-78.189743243,451,"409 EAST MAIN STREET, FRONT ROYAL, VA, 22630","Match","Exact","409 E MAIN ST, FRONT ROYAL, VA, 22630",159080221,"L"
202452,"409 EAST MARKET STREET","FREEBURG","PA",17827,40.7650655080001,-76.9358238569999,452,"409 EAST MARKET STREET, FREEBURG, PA, 17827","Match","Exact","409 E MARKET ST, FREEBURG, PA, 17827",47794474,"R"
202453,"409 EASTON ROAD P1","WILLOW GROVE","PA",19090,40.1490997720001,-75.119687265,453,"409 EASTON ROAD P1, WILLOW GROVE, PA, 19090","Match","Exact","409 EASTON RD, WILLOW GROVE, PA, 19090",629036526,"R"
202454,"409 EASTWOOD STREET","WALNUT RIDGE","AR",72476,36.067923018,-90.947140826,454,"409 EASTWOOD STREET, WALNUT RIDGE, AR, 72476","Match","Non_Exact","409 EASTWOOD CIR, WALNUT RIDGE, AR, 72476",79044246,"L"
202455,"409 ELDORADO DRIVE","ESCONDIDO","CA",92025,33.1046401410001,-117.063762858,455,"409 ELDORADO DRIVE, ESCONDIDO, CA, 92025","Match","Exact","409 ELDORADO DR, ESCONDIDO, CA, 92025",195314260,"R"
202456,"409 ELM STREET","BOYNE CITY","MI",49712,45.2088729290001,-85.019664066,456,"409 ELM STREET, BOYNE CITY, MI, 49712","Match","Exact","409 ELM ST, BOYNE CITY, MI, 49712",134487050,"R"
202457,"409 ELM STREET","RAVENNA","KY",40472,37.6842521390001,-83.950120442,457,"409 ELM STREET, RAVENNA, KY, 40472","Match","Exact","409 ELM ST, RAVENNA, KY, 40472",31898836,"L"
202458,"409 ESTHER","WAKE VILLAGE","TX",75501,33.4223624890001,-94.103805699,458,"409 ESTHER, WAKE VILLAGE, TX, 75501","Match","Non_Exact","409 ESTHER ST, WAKE VILLAGE, TX, 75501",57668954,"R"
202459,"409 EXECUTIVECENTER DRIVE 209","WEST PALM BEACH","FL",33401,26.7127014920001,-80.078162043,459,"409 EXECUTIVECENTER DRIVE 209, WEST PALM BEACH, FL, 33401","Match","Non_Exact","409 EXECUTIVE CENTER DR, WEST PALM BEACH, FL, 33401",611175198,"R"
202460,"409 FAIRGROUNDS","MEXICO","MO",65265,NA,NA,460,"409 FAIRGROUNDS, MEXICO, MO, 65265","No_Match",NA,NA,NA,NA
202461,"409 FARMER ROAD","WILLARD","MO",65781,37.3012970300001,-93.433033306,461,"409 FARMER ROAD, WILLARD, MO, 65781","Match","Non_Exact","409 S FARMER RD, WILLARD, MO, 65781",639936297,"R"
202462,"409 FLEDGE DRIVE","LOUISVILLE","KY",40214,38.1339846380001,-85.7579268269999,462,"409 FLEDGE DRIVE, LOUISVILLE, KY, 40214","Match","Exact","409 FLEDGE DR, LOUISVILLE, KY, 40214",618511406,"L"
202463,"409 FRANKLIN AVENUE","DES MOINES","IA",50314,41.611307826,-93.623845816,463,"409 FRANKLIN AVENUE, DES MOINES, IA, 50314","Match","Exact","409 FRANKLIN AVE, DES MOINES, IA, 50314",65782206,"R"
202464,"409 GARRATY RD","SAN ANTONIO","TX",78209,29.47494139,-98.4554350449999,464,"409 GARRATY RD, SAN ANTONIO, TX, 78209","Match","Exact","409 GARRATY RD, SAN ANTONIO, TX, 78209",101529791,"L"
202465,"409 GIBBS AVE","NEWPORT","RI",2840,41.4870136000001,-71.299923247,465,"409 GIBBS AVE, NEWPORT, RI, 2840","Match","Exact","409 GIBBS AVE, NEWPORT, RI, 02840",47357837,"R"
202466,"409 GIRARD AVE","SOMERSET","NJ",8873,40.4887384310001,-74.4921505889999,466,"409 GIRARD AVE, SOMERSET, NJ, 8873","Match","Exact","409 GIRARD AVE, SOMERSET, NJ, 08873",59942499,"L"
202467,"409 GLEN OAKS DRIVE","BRANDON","MS",39047,32.3410632550001,-89.990578542,467,"409 GLEN OAKS DRIVE, BRANDON, MS, 39047","Match","Exact","409 GLEN OAKS DR, BRANDON, MS, 39047",645536854,"L"
202468,"409 GLENBROOK RD APT 9F","STAMFORD","CT",6906,41.0677492680001,-73.521055027,468,"409 GLENBROOK RD APT 9F, STAMFORD, CT, 6906","Match","Exact","409 GLENBROOK RD, STAMFORD, CT, 06906",618526177,"R"
202469,"409 GRAIL PLACE","GARNER","NC",27529,35.675732456,-78.6161068869999,469,"409 GRAIL PLACE, GARNER, NC, 27529","Match","Exact","409 GRAIL PL, GARNER, NC, 27529",72599533,"R"
202470,"409 GREELY ROAD EXT","CUMBERLAND CENTER","ME",4021,NA,NA,470,"409 GREELY ROAD EXT, CUMBERLAND CENTER, ME, 4021","No_Match",NA,NA,NA,NA
202471,"409 H STREET NE","WASHINGTON","DC",20002,38.9001997660001,-77.000412677,471,"409 H STREET NE, WASHINGTON, DC, 20002","Match","Exact","409 H ST NE, WASHINGTON, DC, 20002",76229730,"R"
202472,"409 HACKNEY LN","OSWEGO","IL",60543,41.658591947,-88.3385871679999,472,"409 HACKNEY LN, OSWEGO, IL, 60543","Match","Exact","409 HACKNEY LN, OSWEGO, IL, 60543",54494543,"L"
202473,"409 HAYMOND HIGHWAY","CLARKSBURG","WV",26301,39.271263241,-80.328763849,473,"409 HAYMOND HIGHWAY, CLARKSBURG, WV, 26301","Match","Exact","409 HAYMOND HWY, CLARKSBURG, WV, 26301",53302686,"L"
202474,"409 HILL AVENUE","GLEN ELLYN","IL",60137,41.8705554690001,-88.072094124,474,"409 HILL AVENUE, GLEN ELLYN, IL, 60137","Match","Exact","409 HILL AVE, GLEN ELLYN, IL, 60137",112530092,"R"
202475,"409 HILLSIDE DR SW","ATLANTA","GA",30310,33.7173043650001,-84.401266823,475,"409 HILLSIDE DR SW, ATLANTA, GA, 30310","Match","Exact","409 HILLSIDE DR SW, ATLANTA, GA, 30310",17346251,"R"
202476,"409 HOGAN CIRCLE","CLAYTON","NC",27527,35.627015634,-78.403737758,476,"409 HOGAN CIRCLE, CLAYTON, NC, 27527","Match","Exact","409 HOGAN CIR, CLAYTON, NC, 27527",26541731,"R"
202477,"409 HONEYSUCKLE LN","SAN RAMON","CA",94582,37.7848755630001,-121.9217442,477,"409 HONEYSUCKLE LN, SAN RAMON, CA, 94582","Match","Exact","409 HONEYSUCKLE LN, SAN RAMON, CA, 94582",192113619,"L"
202478,"409 HUNT DRIVE","LUCAS","TX",75002,33.0905686570001,-96.586073857,478,"409 HUNT DRIVE, LUCAS, TX, 75002","Match","Exact","409 HUNT DR, LUCAS, TX, 75002",618114791,"L"
202479,"409 ILLINOIS ST","FORTVILLE","IN",46040,39.93899974,-85.8460468649999,479,"409 ILLINOIS ST, FORTVILLE, IN, 46040","Match","Exact","409 ILLINOIS ST, FORTVILLE, IN, 46040",31075439,"R"
202480,"409 IRIS LN","DANVILLE","VA",24540,36.627373348,-79.412444948,480,"409 IRIS LN, DANVILLE, VA, 24540","Match","Exact","409 IRIS LN, DANVILLE, VA, 24540",649743245,"L"
202481,"409 IRVINE RD","CHAMPAIGN","IL",61822,40.1213667370001,-88.294692773,481,"409 IRVINE RD, CHAMPAIGN, IL, 61822","Match","Exact","409 IRVINE RD, CHAMPAIGN, IL, 61822",8835075,"L"
202482,"409 JERSEY AVE APT 1","FAIRVIEW","NJ",7022,40.81935915,-73.995883609,482,"409 JERSEY AVE APT 1, FAIRVIEW, NJ, 7022","Match","Exact","409 JERSEY AVE, FAIRVIEW, NJ, 07022",64391217,"R"
202483,"409 JOHNSON LOOP","SULLIGENT","AL",35586,33.6773968730001,-88.2536136579999,483,"409 JOHNSON LOOP, SULLIGENT, AL, 35586","Match","Exact","409 JOHNSON LOOP, SULLIGENT, AL, 35586",158977878,"R"
202484,"409 JONATHANS COVE COURT","VIRGINIA BEACH","VA",23464,36.83128212,-76.2082057269999,484,"409 JONATHANS COVE COURT, VIRGINIA BEACH, VA, 23464","Match","Exact","409 JONATHANS COVE CT, VA BCH, VA, 23464",122291677,"L"
202485,"409 KUNZE ROAD","VENICE","FL",34292,27.0974926690001,-82.405097332,485,"409 KUNZE ROAD, VENICE, FL, 34292","Match","Exact","409 KUNZE RD, VENICE, FL, 34292",647841158,"L"
202486,"409 LAKESIDE DRIVE","BRIDGEPORT","CT",6606,41.2255492940001,-73.20502986,486,"409 LAKESIDE DRIVE, BRIDGEPORT, CT, 6606","Match","Exact","409 LAKESIDE DR, BRIDGEPORT, CT, 06606",3222203,"L"
202487,"409 LIBERTY STREET","BOONTON","NJ",7005,40.909781605,-74.4101664199999,487,"409 LIBERTY STREET, BOONTON, NJ, 7005","Match","Exact","409 LIBERTY ST, BOONTON, NJ, 07005",640032383,"R"
202488,"409 LION DR N","GRAVETTE","AR",72736,36.426083238,-94.438843036,488,"409 LION DR N, GRAVETTE, AR, 72736","Match","Exact","409 LION DR N, GRAVETTE, AR, 72736",635480078,"L"
202489,"409 MAIN ST/ PO BOX 414","LAVELLE","PA",17943,NA,NA,489,"409 MAIN ST/ PO BOX 414, LAVELLE, PA, 17943","No_Match",NA,NA,NA,NA
202490,"409 MAIN STREET","BENNINGTON","VT",5201,42.878291812,-73.1967510279999,490,"409 MAIN STREET, BENNINGTON, VT, 5201","Match","Exact","409 MAIN ST, BENNINGTON, VT, 05201",139201818,"L"
202491,"409 MAIN STREET","SHIRLEY","IN",47384,39.892689257,-85.57662987,491,"409 MAIN STREET, SHIRLEY, IN, 47384","Match","Exact","409 MAIN ST, SHIRLEY, IN, 47384",635512662,"L"
202492,"409 MAIN STREET","WEST POINT","VA",23181,37.52958575,-76.7952868639999,492,"409 MAIN STREET, WEST POINT, VA, 23181","Match","Exact","409 MAIN ST, WEST POINT, VA, 23181",106708418,"L"
202493,"409 MARKS LANE","BARDSTOWN","KY",40004,37.802421827,-85.354098693,493,"409 MARKS LANE, BARDSTOWN, KY, 40004","Match","Exact","409 MARKS LN, BARDSTOWN, KY, 40004",627142436,"L"
202494,"409 MARTINS POND RD","GROTON","MA",1450,42.6152650060001,-71.546365704,494,"409 MARTINS POND RD, GROTON, MA, 1450","Match","Exact","409 MARTINS POND RD, GROTON, MA, 01450",86834109,"L"
202495,"409 MAYNARD AVE S STE 109 BOX 14618","SEATTLE","WA",98104,47.5990641670001,-122.325063529,495,"409 MAYNARD AVE S STE 109 BOX 14618, SEATTLE, WA, 98104","Match","Exact","409 MAYNARD AVE S, SEATTLE, WA, 98104",239762540,"R"
202496,"409 MCFADDEN AVE","MOORPARK","CA",93021,34.2830464080001,-118.883128541,496,"409 MCFADDEN AVE, MOORPARK, CA, 93021","Match","Exact","409 MCFADDEN AVE, MOORPARK, CA, 93021",109966562,"R"
202497,"409 MEAD RD UNIT 4","DECATUR","GA",30030,33.760789947,-84.3039049989999,497,"409 MEAD RD UNIT 4, DECATUR, GA, 30030","Match","Exact","409 MEAD RD, DECATUR, GA, 30030",640580298,"L"
202498,"409 MEADOWLARK LANE","BELLEVILLE","IL",62220,38.496674394,-90.0107685409999,498,"409 MEADOWLARK LANE, BELLEVILLE, IL, 62220","Match","Exact","409 MEADOWLARK LN, BELLEVILLE, IL, 62220",638839539,"R"
202499,"409 MIDDLE AVE  APT 3","ELYRIA","OH",44135,41.3638263400001,-82.1071278049999,499,"409 MIDDLE AVE  APT 3, ELYRIA, OH, 44135","Match","Non_Exact","409 MIDDLE AVE, ELYRIA, OH, 44035",55412878,"R"
202500,"409 MILLER AVENUE","BROOKLYN","NY",11207,40.670739069,-73.8907207569999,500,"409 MILLER AVENUE, BROOKLYN, NY, 11207","Match","Exact","409 MILLER AVE, BROOKLYN, NY, 11207",59085053,"L"
