"ID","Address","City","State","Zip","lat","long","id","input_address","match_indicator","match_type","matched_address","tiger_line_id","tiger_side"
117501,"215 FOREST AVE","BUFFALO","NY",14213,42.927713623,-78.890977471,1,"215 FOREST AVE, BUFFALO, NY, 14213","Match","Exact","215 FOREST AVE, BUFFALO, NY, 14213",48288788,"R"
117502,"215 FRANKLIN STREET","CLARKSVILLE","TN",37040,36.52765749,-87.3585480849999,2,"215 FRANKLIN STREET, CLARKSVILLE, TN, 37040","Match","Exact","215 FRANKLIN ST, CLARKSVILLE, TN, 37040",31815034,"L"
117503,"215 FRONT ST N UNIT 6","ISSAQUAH","WA",98027,47.5323042260001,-122.036480139,3,"215 FRONT ST N UNIT 6, ISSAQUAH, WA, 98027","Match","Exact","215 FRONT ST N, ISSAQUAH, WA, 98027",186955133,"L"
117504,"215 FRONT STREET","PERTH AMBOY","NJ",8861,40.504183932,-74.263404699,4,"215 FRONT STREET, PERTH AMBOY, NJ, 8861","Match","Exact","215 FRONT ST, PERTH AMBOY, NJ, 08861",60313267,"L"
117505,"215 GAILANE ST","LAWRENCEBURG","KY",40342,38.023285908,-84.8984351839999,5,"215 GAILANE ST, LAWRENCEBURG, KY, 40342","Match","Exact","215 GAILANE ST, LAWRENCEBURG, KY, 40342",43453253,"R"
117506,"215 GARFIELD STREET","MIDDLETOWN","OH",45044,39.5109487280001,-84.397322808,6,"215 GARFIELD STREET, MIDDLETOWN, OH, 45044","Match","Exact","215 GARFIELD ST, MIDDLETOWN, OH, 45044",113795777,"L"
117507,"215 GONYO LANE","RICHMOND","TX",77469,29.5414355080001,-95.710139607,7,"215 GONYO LANE, RICHMOND, TX, 77469","Match","Exact","215 GONYO LN, RICHMOND, TX, 77469",649813281,"L"
117508,"215 GRAND AVENUE","WATERTOWN","TN",37184,36.100095492,-86.144075996,8,"215 GRAND AVENUE, WATERTOWN, TN, 37184","Match","Exact","215 GRAND AVE, WATERTOWN, TN, 37184",89692007,"R"
117509,"215 GREEN LANE DRIVE","CAMP HILL","PA",17011,40.219232622,-76.8991887349999,9,"215 GREEN LANE DRIVE, CAMP HILL, PA, 17011","Match","Exact","215 GREEN LANE DR, CAMP HILL, PA, 17011",88737335,"R"
117510,"215 GRINDSTONE LANE","WEST END","NC",27376,35.3008831270001,-79.569236717,10,"215 GRINDSTONE LANE, WEST END, NC, 27376","Match","Exact","215 GRINDSTONE LN, WEST END, NC, 27376",618448290,"L"
117511,"215 GROTTO ST SOUTH","ST PAUL","MN",55105,NA,NA,11,"215 GROTTO ST SOUTH, ST PAUL, MN, 55105","No_Match",NA,NA,NA,NA
117512,"215 HARRIS STREET","TAUNTON","MA",2780,NA,NA,12,"215 HARRIS STREET, TAUNTON, MA, 2780","No_Match",NA,NA,NA,NA
117513,"215 HARVARD STREET UNIT 2","MEDFORD","MA",2155,42.4046293820001,-71.1091912909999,13,"215 HARVARD STREET UNIT 2, MEDFORD, MA, 2155","Match","Exact","215 HARVARD ST, MEDFORD, MA, 02155",86858989,"R"
117514,"215 HAZEL LANE","NIPOMO","CA",93444,35.0231015960001,-120.496350292,14,"215 HAZEL LANE, NIPOMO, CA, 93444","Match","Exact","215 HAZEL LN, NIPOMO, CA, 93444",109770783,"R"
117515,"215 HIGH STREET","MOORESTOWN","NJ",8057,39.9620364040001,-74.945731686,15,"215 HIGH STREET, MOORESTOWN, NJ, 8057","Match","Exact","215 HIGH ST, MOORESTOWN, NJ, 08057",134030727,"L"
117516,"215 HILLCREST AVENUE SUITE C","YORKVILLE","IL",60560,41.6574968630001,-88.447279607,16,"215 HILLCREST AVENUE SUITE C, YORKVILLE, IL, 60560","Match","Exact","215 HILLCREST AVE, YORKVILLE, IL, 60560",54487102,"L"
117517,"215 HOLLY BUSH GARDENS","GLASSBORO","NJ",8028,NA,NA,17,"215 HOLLY BUSH GARDENS, GLASSBORO, NJ, 8028","No_Match",NA,NA,NA,NA
117518,"215 HUDSON LANE","JONESVILLE","LA",71343,31.598623633,-91.830084125,18,"215 HUDSON LANE, JONESVILLE, LA, 71343","Match","Exact","215 HUDSON LN, JONESVILLE, LA, 71343",118969152,"L"
117519,"215 JAY ST","LAKEWOOD","CO",80226,39.7205740220001,-105.065070321,19,"215 JAY ST, LAKEWOOD, CO, 80226","Match","Exact","215 JAY ST, LAKEWOOD, CO, 80226",639325835,"L"
117520,"215 KREFELD RD NW","PALM BAY","FL",32907,28.0349765440001,-80.673756952,20,"215 KREFELD RD NW, PALM BAY, FL, 32907","Match","Exact","215 KREFELD RD NW, PALM BAY, FL, 32907",93906738,"R"
117521,"215 LAKE BLVD SUITE 414","REDDING","CA",96003,40.6107731120001,-122.380668447,21,"215 LAKE BLVD SUITE 414, REDDING, CA, 96003","Match","Exact","215 LAKE BLVD, REDDING, CA, 96003",126686467,"R"
117522,"215 LATIGO LOOP","HUNTSVILLE","AL",35806,34.7820527330001,-86.684126432,22,"215 LATIGO LOOP, HUNTSVILLE, AL, 35806","Match","Exact","215 LATIGO LOOP, HUNTSVILLE, AL, 35806",58161223,"L"
117523,"215 LAWRENCE STREET","UNIONDALE","NY",11553,40.718343851,-73.607608485,23,"215 LAWRENCE STREET, UNIONDALE, NY, 11553","Match","Exact","215 LAWRENCE ST, UNIONDALE, NY, 11553",147627509,"L"
117524,"215 LEWIS STREET","JACKSON","OH",45640,39.028783651,-82.6301857139999,24,"215 LEWIS STREET, JACKSON, OH, 45640","Match","Exact","215 LEWIS ST, JACKSON, OH, 45640",54771587,"L"
117525,"215 LEXINGTON ROAD","CONCORD","MA",1742,42.457903602,-71.341431835,25,"215 LEXINGTON ROAD, CONCORD, MA, 1742","Match","Exact","215 LEXINGTON RD, CONCORD, MA, 01742",86844988,"R"
117526,"215 LEXINGTON STREET APT 2","BOSTON","MA",2128,42.3797818530001,-71.0319658879999,26,"215 LEXINGTON STREET APT 2, BOSTON, MA, 2128","Match","Exact","215 LEXINGTON ST, BOSTON, MA, 02128",85711564,"R"
117527,"215 LIBERTY STREET","LITTLE FERRY","NJ",7643,40.850418221,-74.043631073,27,"215 LIBERTY STREET, LITTLE FERRY, NJ, 7643","Match","Exact","215 LIBERTY ST, LITTLE FERRY, NJ, 07643",64397039,"L"
117528,"215 LINCOLN AVE STE 200","SANTA FE","NM",87501,35.6896374290001,-105.938072754,28,"215 LINCOLN AVE STE 200, SANTA FE, NM, 87501","Match","Exact","215 LINCOLN AVE, SANTA FE, NM, 87501",169377547,"R"
117529,"215 LOBLOLLY DRIVE","DURHAM","NC",27712,36.128733696,-78.8546992999999,29,"215 LOBLOLLY DRIVE, DURHAM, NC, 27712","Match","Exact","215 LOBLOLLY DR, DURHAM, NC, 27712",71769073,"R"
117530,"215 LOCKWOOD CT","HUBERT","NC",28539,34.6902864360001,-77.2105867989999,30,"215 LOCKWOOD CT, HUBERT, NC, 28539","Match","Exact","215 LOCKWOOD CT, HUBERT, NC, 28539",642449850,"L"
117531,"215 LOCUST STREET","LA SALLE","CO",80645,40.3464484420001,-104.699999106,31,"215 LOCUST STREET, LA SALLE, CO, 80645","Match","Exact","215 LOCUST ST, LA SALLE, CO, 80645",188696693,"R"
117532,"215 LOMBARD STREET","PITTSBURGH","PA",15219,40.439743347,-79.9788739319999,32,"215 LOMBARD STREET, PITTSBURGH, PA, 15219","Match","Exact","215 LOMBARD ST, PITTSBURGH, PA, 15219",51635891,"L"
117533,"215 LYTTON AVE","PITTSBURGH","PA",15213,40.4466316050001,-79.9559207519999,33,"215 LYTTON AVE, PITTSBURGH, PA, 15213","Match","Exact","215 LYTTON AVE, PITTSBURGH, PA, 15213",51648947,"L"
117534,"215 MADISON 8744","HUNTSVILLE","AR",72740,NA,NA,34,"215 MADISON 8744, HUNTSVILLE, AR, 72740","No_Match",NA,NA,NA,NA
117535,"215 MAIN STREET","BOYLSTON","MA",1505,42.32648798,-71.7509537669999,35,"215 MAIN STREET, BOYLSTON, MA, 1505","Match","Exact","215 MAIN ST, BOYLSTON, MA, 01505",40105435,"L"
117536,"215 MAIN STREET","COLD SPRING","NY",10516,41.4210581030001,-73.9530920179999,36,"215 MAIN STREET, COLD SPRING, NY, 10516","Match","Exact","215 MAIN ST, COLD SPRING, NY, 10516",647212024,"R"
117537,"215 MAIN STREET","COTUIT","MA",2635,41.632977334,-70.4477076159999,37,"215 MAIN STREET, COTUIT, MA, 2635","Match","Exact","215 MAIN ST, COTUIT, MA, 02635",636153345,"L"
117538,"215 MAIN STREET","JOHNSTOWN","PA",15901,40.327370898,-78.923137315,38,"215 MAIN STREET, JOHNSTOWN, PA, 15901","Match","Exact","215 MAIN ST, JOHNSTOWN, PA, 15901",606680204,"L"
117539,"215 MAIN STREET","OCONTO","WI",54153,44.893233991,-87.883776889,39,"215 MAIN STREET, OCONTO, WI, 54153","Match","Exact","215 MAIN ST, OCONTO, WI, 54153",647191623,"R"
117540,"215 MAIN STREET","SOUTH WINDSOR","CT",6074,41.8038272370001,-72.62732899,40,"215 MAIN STREET, SOUTH WINDSOR, CT, 6074","Match","Exact","215 MAIN ST, SOUTH WINDSOR, CT, 06074",3490188,"L"
117541,"215 MAIN STREET","STEINAUER","NE",68441,NA,NA,41,"215 MAIN STREET, STEINAUER, NE, 68441","No_Match",NA,NA,NA,NA
117542,"215 MARION ST","INDIAN HARBOUR BEACH","FL",32937,28.1461191120001,-80.589237317,42,"215 MARION ST, INDIAN HARBOUR BEACH, FL, 32937","Match","Exact","215 MARION ST, INDIAN HARBOUR BEACH, FL, 32937",93904116,"L"
117543,"215 MARKET ST","STONYFORD","CA",95979,39.376138692,-122.545863876,43,"215 MARKET ST, STONYFORD, CA, 95979","Match","Exact","215 MARKET ST, STONYFORD, CA, 95979",67113487,"L"
117544,"215 MARTIN RD","AKRON","NY",14001,43.05436238,-78.4619708119999,44,"215 MARTIN RD, AKRON, NY, 14001","Match","Exact","215 MARTIN RD, AKRON, NY, 14001",48160432,"L"
117545,"215 MAY AVE","SANTA CRUZ","CA",95060,36.977229575,-122.019110849,45,"215 MAY AVE, SANTA CRUZ, CA, 95060","Match","Exact","215 MAY AVE, SANTA CRUZ, CA, 95060",125506455,"L"
117546,"215 MAYHAW DRIVE","BAYTOWN","TX",77520,29.7700611980001,-95.033888043,46,"215 MAYHAW DRIVE, BAYTOWN, TX, 77520","Match","Non_Exact","215 MAYHAW ST, BAYTOWN, TX, 77520",96102466,"R"
117547,"215 MAYNARD LAKE ROAD","ERWIN","NC",28339,35.335655554,-78.6694582,47,"215 MAYNARD LAKE ROAD, ERWIN, NC, 28339","Match","Exact","215 MAYNARD LAKE RD, ERWIN, NC, 28339",71996396,"R"
117548,"215 MCCREARY HEIGHTS","DICKSON","TN",37055,36.082334879,-87.38879825,48,"215 MCCREARY HEIGHTS, DICKSON, TN, 37055","Match","Exact","215 MCCREARY HTS, DICKSON, TN, 37055",72754994,"L"
117549,"215 MEADOW LN","SWEETWATER","TN",37874,35.5945014860001,-84.454982994,49,"215 MEADOW LN, SWEETWATER, TN, 37874","Match","Exact","215 MEADOW LN, SWEETWATER, TN, 37874",85298590,"R"
117550,"215 MIAMI ST","PARK FOREST","IL",60466,41.4739299290001,-87.69260694,50,"215 MIAMI ST, PARK FOREST, IL, 60466","Match","Exact","215 MIAMI ST, PARK FOREST, IL, 60466",111710719,"L"
117551,"215 MICKEY RD","LAFAYETTE","LA",70507,30.277992829,-92.044256312,51,"215 MICKEY RD, LAFAYETTE, LA, 70507","Match","Exact","215 MICKEY RD, LAFAYETTE, LA, 70507",85613531,"L"
117552,"215 MOBILE STREET","HATTIESBURG","MS",39401,31.3305442160001,-89.290019405,52,"215 MOBILE STREET, HATTIESBURG, MS, 39401","Match","Exact","215 MOBILE ST, HATTIESBURG, MS, 39401",636546368,"R"
117553,"215 MONTEREY PLACE","VESTAVIA HILLS","AL",35216,33.4575961950001,-86.773865922,53,"215 MONTEREY PLACE, VESTAVIA HILLS, AL, 35216","Match","Exact","215 MONTEREY PL, VESTAVIA HILLS, AL, 35216",81584524,"L"
117554,"215 MOONEFIELD DRIVE","SMITHFIELD","VA",23430,36.995446671,-76.601521224,54,"215 MOONEFIELD DRIVE, SMITHFIELD, VA, 23430","Match","Exact","215 MOONEFIELD DR, SMITHFIELD, VA, 23430",198624641,"L"
117555,"215 MORRIS AVENUE SUITE 300","SPRING LAKE","NJ",7762,40.152131937,-74.0267477359999,55,"215 MORRIS AVENUE SUITE 300, SPRING LAKE, NJ, 7762","Match","Exact","215 MORRIS AVE, SPRING LAKE, NJ, 07762",90466131,"L"
117556,"215 MORRIS AVENUE UNIT 2","SPRING LAKE","NJ",7762,40.152131937,-74.0267477359999,56,"215 MORRIS AVENUE UNIT 2, SPRING LAKE, NJ, 7762","Match","Exact","215 MORRIS AVE, SPRING LAKE, NJ, 07762",90466131,"L"
117557,"215 MORRIS DRIVE","EAST MEADOW","NY",11554,40.730852676,-73.545150696,57,"215 MORRIS DRIVE, EAST MEADOW, NY, 11554","Match","Exact","215 MORRIS DR, EAST MEADOW, NY, 11554",147633168,"L"
117558,"215 MT VERNON AVENUE","HADDONFIELD","NJ",8033,39.8996943440001,-75.042006484,58,"215 MT VERNON AVENUE, HADDONFIELD, NJ, 8033","Match","Non_Exact","215 W MOUNT VERNON AVE, HADDONFIELD, NJ, 08033",134354150,"R"
117559,"215 MULBERRY ST  UNIT 4","NEW YORK","NY",10012,40.722125003,-73.996206828,59,"215 MULBERRY ST  UNIT 4, NEW YORK, NY, 10012","Match","Exact","215 MULBERRY ST, NEW YORK, NY, 10012",59653952,"L"
117560,"215 N 200 E","LINDON","UT",84042,NA,NA,60,"215 N 200 E, LINDON, UT, 84042","No_Match",NA,NA,NA,NA
117561,"215 N 2ND AVENUE SUITE B","UPLAND","CA",91786,NA,NA,61,"215 N 2ND AVENUE SUITE B, UPLAND, CA, 91786","Tie",NA,NA,NA,NA
117562,"215 N 2ND AVENUE SUITE H","UPLAND","CA",91786,NA,NA,62,"215 N 2ND AVENUE SUITE H, UPLAND, CA, 91786","Tie",NA,NA,NA,NA
117563,"215 N 50TH ST","MILWAUKEE","WI",53208,43.0326365710001,-87.977063727,63,"215 N 50TH ST, MILWAUKEE, WI, 53208","Match","Exact","215 N 50TH ST, MILWAUKEE, WI, 53208",77733994,"L"
117564,"215 N 5TH STREET","TOMBSTONE","AZ",85638,31.7153932360001,-110.064564072,64,"215 N 5TH STREET, TOMBSTONE, AZ, 85638","Match","Exact","215 N 5TH ST, TOMBSTONE, AZ, 85638",120923653,"L"
117565,"215 N BOSTON AVENUE","N MASSAPEQUA","NY",11758,40.6871167150001,-73.46253476,65,"215 N BOSTON AVENUE, N MASSAPEQUA, NY, 11758","Match","Exact","215 BOSTON AVE, N MASSAPEQUA, NY, 11758",147651316,"L"
117566,"215 N CEDAR AVENUE","INGLEWOOD","CA",90304,33.964527694,-118.363945727,66,"215 N CEDAR AVENUE, INGLEWOOD, CA, 90304","Match","Non_Exact","215 N CEDAR AVE, INGLEWOOD, CA, 90301",142749829,"L"
117567,"215 N COUNTRY MANOR LANE","ALPINE","UT",84004,40.4560939770001,-111.756311526,67,"215 N COUNTRY MANOR LANE, ALPINE, UT, 84004","Match","Exact","215 N COUNTRY MANOR LN, ALPINE, UT, 84004",134235814,"R"
117568,"215 N CROSS ST  ROOM 104","WEST UNION","OH",45693,38.795062498,-83.5465287919999,68,"215 N CROSS ST  ROOM 104, WEST UNION, OH, 45693","Match","Non_Exact","215 N CROSS ST, WEST UNION, OH, 45693",100850757,"L"
117569,"215 N FEDERAL HWY","BOCA RATON","FL",33432,26.3525226670001,-80.086447644,69,"215 N FEDERAL HWY, BOCA RATON, FL, 33432","Match","Exact","215 N FEDERAL HWY, BOCA RATON, FL, 33432",115512708,"L"
117570,"215 N GREENWOOD STREET","SPRING VALLEY","IL",61362,41.3264665030001,-89.1981895329999,70,"215 N GREENWOOD STREET, SPRING VALLEY, IL, 61362","Match","Exact","215 N GREENWOOD ST, SPRING VALLEY, IL, 61362",8485153,"R"
117571,"215 N HICKORY AVENUE","TRACY","CA",95376,37.7321840500001,-121.443277362,71,"215 N HICKORY AVENUE, TRACY, CA, 95376","Match","Exact","215 N HICKORY AVE, TRACY, CA, 95376",133888543,"L"
117572,"215 N I STREET","PENSACOLA","FL",32502,30.4144199620001,-87.23491641,72,"215 N I STREET, PENSACOLA, FL, 32502","Match","Exact","215 N I ST, PENSACOLA, FL, 32502",93306874,"L"
117573,"215 N LOOP 1604 E APT 16306","SAN ANTONIO","TX",78232,NA,NA,73,"215 N LOOP 1604 E APT 16306, SAN ANTONIO, TX, 78232","No_Match",NA,NA,NA,NA
117574,"215 N LOOP 1604 E APT 3302","SAN ANTONIO","TX",78232,NA,NA,74,"215 N LOOP 1604 E APT 3302, SAN ANTONIO, TX, 78232","No_Match",NA,NA,NA,NA
117575,"215 N MAIN ST P O BOX 14","PAYETTE","ID",83661,NA,NA,75,"215 N MAIN ST P O BOX 14, PAYETTE, ID, 83661","Tie",NA,NA,NA,NA
117576,"215 N MAIN ST","AINSWORTH","NE",69210,42.5470863140001,-99.8624670299999,76,"215 N MAIN ST, AINSWORTH, NE, 69210","Match","Exact","215 N MAIN ST, AINSWORTH, NE, 69210",193692222,"L"
117577,"215 N MAIN STREET","BELMONT","NC",28012,35.245916268,-81.0392397319999,77,"215 N MAIN STREET, BELMONT, NC, 28012","Match","Exact","215 N MAIN ST, BELMONT, NC, 28012",70385781,"R"
117578,"215 N MARENGO AVE STE 145","PASADENA","CA",91101,NA,NA,78,"215 N MARENGO AVE STE 145, PASADENA, CA, 91101","Tie",NA,NA,NA,NA
117579,"215 N MONTFORD AVE","BALTIMORE","MD",21224,39.294530351,-76.583457288,79,"215 N MONTFORD AVE, BALTIMORE, MD, 21224","Match","Exact","215 N MONTFORD AVE, BALTIMORE, MD, 21224",206424757,"R"
117580,"215 N MOORE RD APT 1202","COPPELL","TX",75019,NA,NA,80,"215 N MOORE RD APT 1202, COPPELL, TX, 75019","Tie",NA,NA,NA,NA
117581,"215 N MOSSY CREEK CIRCLE","MADISON","AL",35757,NA,NA,81,"215 N MOSSY CREEK CIRCLE, MADISON, AL, 35757","Tie",NA,NA,NA,NA
117582,"215 N SAN PATRICIO","SINTON","TX",78387,28.038018392,-97.516521386,82,"215 N SAN PATRICIO, SINTON, TX, 78387","Match","Non_Exact","215 N SAN PATRICIO AVE, SINTON, TX, 78387",36321902,"R"
117583,"215 N SMEAD COURT","ROSWELL","GA",30076,33.992129752,-84.304693765,83,"215 N SMEAD COURT, ROSWELL, GA, 30076","Match","Non_Exact","215 SMEAD CT N, ROSWELL, GA, 30076",17373648,"R"
117584,"215 N UNION STREET","AURORA","IL",60505,41.7594026960001,-88.3006864769999,84,"215 N UNION STREET, AURORA, IL, 60505","Match","Exact","215 N UNION ST, AURORA, IL, 60505",119516035,"R"
117585,"215 N UNION STREET","DELPHI","IN",46923,40.588405848,-86.67406425,85,"215 N UNION STREET, DELPHI, IN, 46923","Match","Exact","215 N UNION ST, DELPHI, IN, 46923",651262589,"R"
117586,"215 N WATER ST","OWOSSO","MI",48867,43.0000065250001,-84.173155666,86,"215 N WATER ST, OWOSSO, MI, 48867","Match","Exact","215 N WATER ST, OWOSSO, MI, 48867",23656180,"L"
117587,"215 NASH ST E APT I","WILSON","NC",27893,35.724835091,-77.910078057,87,"215 NASH ST E APT I, WILSON, NC, 27893","Match","Exact","215 NASH ST E, WILSON, NC, 27893",26705260,"R"
117588,"215 NE 13TH ST","DELRAY BEACH","FL",33444,26.478324506,-80.070367601,88,"215 NE 13TH ST, DELRAY BEACH, FL, 33444","Match","Exact","215 NE 13TH ST, DELRAY BEACH, FL, 33444",115297716,"L"
117589,"215 NORTH 10TH STREET","LACROSSE","WI",54601,NA,NA,89,"215 NORTH 10TH STREET, LACROSSE, WI, 54601","No_Match",NA,NA,NA,NA
117590,"215 NORTH AVE NE STE 1501","ATLANTA","GA",30308,NA,NA,90,"215 NORTH AVE NE STE 1501, ATLANTA, GA, 30308","No_Match",NA,NA,NA,NA
117591,"215 NORTH BROOKS STREET","MANNING","SC",29102,33.6995144480001,-80.210534367,91,"215 NORTH BROOKS STREET, MANNING, SC, 29102","Match","Exact","215 N BROOKS ST, MANNING, SC, 29102",636622331,"L"
117592,"215 NORTH DARLINGTON AVENUE","LAMAR","SC",29069,34.1720224430001,-80.0573219039999,92,"215 NORTH DARLINGTON AVENUE, LAMAR, SC, 29069","Match","Exact","215 N DARLINGTON AVE, LAMAR, SC, 29069",78406820,"L"
117593,"215 NORTH EOLA DRIVE","ORLANDO","FL",32801,28.544818574,-81.369942585,93,"215 NORTH EOLA DRIVE, ORLANDO, FL, 32801","Match","Exact","215 N EOLA DR, ORLANDO, FL, 32801",94416277,"R"
117594,"215 NORTH HOLLY AVENUE","ORANGE CITY","FL",32763,28.949747082,-81.297837798,94,"215 NORTH HOLLY AVENUE, ORANGE CITY, FL, 32763","Match","Exact","215 N HOLLY AVE, ORANGE CITY, FL, 32763",94517862,"R"
117595,"215 NORTH LABURNUM AVENUE","RICHMOND","VA",23223,37.5479753610001,-77.371649672,95,"215 NORTH LABURNUM AVENUE, RICHMOND, VA, 23223","Match","Exact","215 N LABURNUM AVE, RICHMOND, VA, 23223",640610305,"R"
117596,"215 NORTH MASON STREET","BOWIE","TX",76230,33.559159612,-97.848535565,96,"215 NORTH MASON STREET, BOWIE, TX, 76230","Match","Exact","215 N MASON ST, BOWIE, TX, 76230",152115284,"R"
117597,"215 NORTH PARK DRIVE","MONROE","LA",71203,NA,NA,97,"215 NORTH PARK DRIVE, MONROE, LA, 71203","No_Match",NA,NA,NA,NA
117598,"215 NORTH RAILROAD STREET","SUMNER","IA",50674,42.8486042970001,-92.099016416,98,"215 NORTH RAILROAD STREET, SUMNER, IA, 50674","Match","Exact","215 N RAILROAD ST, SUMNER, IA, 50674",77344701,"L"
117599,"215 NORTH WASHINGTON STREET","HAVRE DE GRACE","MD",21078,39.5488644370001,-76.0897798139999,99,"215 NORTH WASHINGTON STREET, HAVRE DE GRACE, MD, 21078","Match","Exact","215 N WASHINGTON ST, HAVRE DE GRACE, MD, 21078",647525772,"L"
117600,"215 NW 111TH LOOP","VANCOUVER","WA",98685,45.7004984330001,-122.671178015,100,"215 NW 111TH LOOP, VANCOUVER, WA, 98685","Match","Exact","215 NW 111TH LOOP, VANCOUVER, WA, 98685",158370358,"R"
117601,"215 OAK HOLLOW COURT","WHITE","GA",30184,34.2151216030001,-84.634866226,101,"215 OAK HOLLOW COURT, WHITE, GA, 30184","Match","Exact","215 OAK HOLLOW CT, WHITE, GA, 30184",632771056,"L"
117602,"215 OAK TREE ROAD","MOUNTAINSIDE","NJ",7092,40.6730732980001,-74.355958243,102,"215 OAK TREE ROAD, MOUNTAINSIDE, NJ, 7092","Match","Exact","215 OAK TREE RD, MOUNTAINSIDE, NJ, 07092",60603573,"L"
117603,"215 OAKDALE AVE","CARLISLE","SC",29031,34.593796651,-81.471023203,103,"215 OAKDALE AVE, CARLISLE, SC, 29031","Match","Exact","215 OAKDALE AVE, CARLISLE, SC, 29031",19726137,"R"
117604,"215 OCEAN BAY DR","JENSEN BEACH","FL",34957,27.328747612,-80.231320086,104,"215 OCEAN BAY DR, JENSEN BEACH, FL, 34957","Match","Exact","215 OCEAN BAY DR, JENSEN BEACH, FL, 34957",637922140,"L"
117605,"215 OLD ORCHARD ROAD","BRISTOL","CT",6010,NA,NA,105,"215 OLD ORCHARD ROAD, BRISTOL, CT, 6010","No_Match",NA,NA,NA,NA
117606,"215 ORLEANS","BEAUMONT","TX",77701,30.0850059360001,-94.101661271,106,"215 ORLEANS, BEAUMONT, TX, 77701","Match","Non_Exact","215 ORLEANS ST, BEAUMONT, TX, 77701",73875871,"R"
117607,"215 PALMYRA DRIVE","VIRGINIA BEACH","VA",23462,36.8344409750001,-76.168893238,107,"215 PALMYRA DRIVE, VIRGINIA BEACH, VA, 23462","Match","Non_Exact","215 N PALMYRA DR, VA BCH, VA, 23462",122302804,"L"
117608,"215 PAONIA AVE","PAONIA","CO",81428,38.8645985530001,-107.582145978,108,"215 PAONIA AVE, PAONIA, CO, 81428","Match","Exact","215 PAONIA AVE, PAONIA, CO, 81428",122393577,"L"
117609,"215 PARAMOUNT STREET","HIGH POINT","NC",27260,35.9643330590001,-79.96021647,109,"215 PARAMOUNT STREET, HIGH POINT, NC, 27260","Match","Exact","215 PARAMOUNT ST, HIGH POINT, NC, 27260",131043031,"L"
117610,"215 PARK AVE S/ SUITE 1713","NEW YORK","NY",10003,40.736989597,-73.98868734,110,"215 PARK AVE S/ SUITE 1713, NEW YORK, NY, 10003","Match","Exact","215 PARK AVE S, NEW YORK, NY, 10003",59653630,"R"
117611,"215 PARK AVE SE","AIKEN","SC",29801,33.5578728290001,-81.718557359,111,"215 PARK AVE SE, AIKEN, SC, 29801","Match","Exact","215 PARK AVE SE, AIKEN, SC, 29801",65032406,"R"
117612,"215 PARK LANE","AUSTIN","TX",78704,30.24943424,-97.7481297799999,112,"215 PARK LANE, AUSTIN, TX, 78704","Match","Exact","215 PARK LN, AUSTIN, TX, 78704",63944871,"R"
117613,"215 PEN BOULEVARD","LANSDOWNE","PA",19050,39.946046907,-75.261029837,113,"215 PEN BOULEVARD, LANSDOWNE, PA, 19050","Match","Non_Exact","215 PENN BLVD, LANSDOWNE, PA, 19050",134878474,"R"
117614,"215 PHEASANT RUN ROAD","MAYS LANDING","NJ",8330,39.4318062030001,-74.6429016499999,114,"215 PHEASANT RUN ROAD, MAYS LANDING, NJ, 8330","Match","Exact","215 PHEASANT RUN RD, MAYS LANDING, NJ, 08330",627246104,"L"
117615,"215 PIEDMONT AVE  NE SUITE 301","ATLANTA","GA",30308,NA,NA,115,"215 PIEDMONT AVE  NE SUITE 301, ATLANTA, GA, 30308","No_Match",NA,NA,NA,NA
117616,"215 PIEDMONT AVE NE UNIT 909","ATLANTA","GA",30308,NA,NA,116,"215 PIEDMONT AVE NE UNIT 909, ATLANTA, GA, 30308","No_Match",NA,NA,NA,NA
117617,"215 PINE COVE DR","INMAN","SC",29349,35.1060608600001,-82.0407110519999,117,"215 PINE COVE DR, INMAN, SC, 29349","Match","Exact","215 PINE COVE DR, INMAN, SC, 29349",19476388,"L"
117618,"215 PINEDA ST STE 117","LONGWOOD","FL",32750,28.685817404,-81.348316262,118,"215 PINEDA ST STE 117, LONGWOOD, FL, 32750","Match","Exact","215 PINEDA ST, LONGWOOD, FL, 32750",93779861,"R"
117619,"215 PLEASANT VALLEY ROAD","HARRISONBURG","VA",22801,38.4037736400001,-78.904296041,119,"215 PLEASANT VALLEY ROAD, HARRISONBURG, VA, 22801","Match","Exact","215 PLEASANT VALLEY RD, HARRISONBURG, VA, 22801",649896415,"L"
117620,"215 PO BOX","THREE OAKS","MI",49128,NA,NA,120,"215 PO BOX, THREE OAKS, MI, 49128","No_Match",NA,NA,NA,NA
117621,"215 PRINCE ALBERT AVE","SAINT JOHNS","FL",32259,NA,NA,121,"215 PRINCE ALBERT AVE, SAINT JOHNS, FL, 32259","No_Match",NA,NA,NA,NA
117622,"215 PROMENADE VISTA ST     APT2051","CHARLESTON","SC",29412,32.761973497,-79.9794947729999,122,"215 PROMENADE VISTA ST     APT2051, CHARLESTON, SC, 29412","Match","Exact","215 PROMENADE VISTA ST, CHARLESTON, SC, 29412",653707530,"R"
117623,"215 PROSPECT AVE","WATERLOO","IA",50703,42.500511858,-92.311618381,123,"215 PROSPECT AVE, WATERLOO, IA, 50703","Match","Exact","215 PROSPECT AVE, WATERLOO, IA, 50703",77253305,"L"
117624,"215 PUTNAM POND ROAD","TICONDEROGA","NY",12883,NA,NA,124,"215 PUTNAM POND ROAD, TICONDEROGA, NY, 12883","No_Match",NA,NA,NA,NA
117625,"215 RANDON TERRACE","LAKE MARY","FL",32746,28.768773616,-81.343858993,125,"215 RANDON TERRACE, LAKE MARY, FL, 32746","Match","Exact","215 RANDON TER, LAKE MARY, FL, 32746",93796494,"L"
117626,"215 REA AVENUE EXTENSION","HAWTHORNE","NJ",7506,NA,NA,126,"215 REA AVENUE EXTENSION, HAWTHORNE, NJ, 7506","No_Match",NA,NA,NA,NA
117627,"215 REDWOOD DR","WOODLAND","CA",95695,38.6591136870001,-121.780257874,127,"215 REDWOOD DR, WOODLAND, CA, 95695","Match","Exact","215 REDWOOD DR, WOODLAND, CA, 95695",67690411,"L"
117628,"215 RICHMOND AVENUE NORTH","LEHIGH ACRES","FL",33936,26.6079884220001,-81.6249477389999,128,"215 RICHMOND AVENUE NORTH, LEHIGH ACRES, FL, 33936","Match","Exact","215 RICHMOND AVE N, LEHIGH ACRES, FL, 33936",117987454,"L"
117629,"215 RIVERWOOD DR","ST ROSE","LA",70087,29.9475712130001,-90.320835722,129,"215 RIVERWOOD DR, ST ROSE, LA, 70087","Match","Exact","215 RIVERWOOD DR, SAINT ROSE, LA, 70087",631937716,"R"
117630,"215 ROANOKE DRIVE","KILL DEVIL HILLS","NC",27948,36.0095390170001,-75.717916604,130,"215 ROANOKE DRIVE, KILL DEVIL HILLS, NC, 27948","Match","Exact","215 ROANOKE DR, KILL DEVIL HILLS, NC, 27948",615365885,"R"
117631,"215 ROLAND LANE","JEANERETTE","LA",70544,29.9119697290001,-91.658976342,131,"215 ROLAND LANE, JEANERETTE, LA, 70544","Match","Exact","215 ROLAND LN, JEANERETTE, LA, 70544",85357427,"R"
117632,"215 RONNIE DR","GREENWOOD","SC",29649,34.2369110270001,-82.19676713,132,"215 RONNIE DR, GREENWOOD, SC, 29649","Match","Exact","215 RONNIE DR, GREENWOOD, SC, 29649",50816874,"L"
117633,"215 ROOK ROAD","CHARLOTTE","NC",28216,35.2883635170001,-80.89286128,133,"215 ROOK ROAD, CHARLOTTE, NC, 28216","Match","Exact","215 ROOK RD, CHARLOTTE, NC, 28216",618155841,"R"
117634,"215 ROYAL CT","MIDDLETOWN","NJ",7748,NA,NA,134,"215 ROYAL CT, MIDDLETOWN, NJ, 7748","No_Match",NA,NA,NA,NA
117635,"215 RUGGLES ST","WESTBOROUGH","MA",1581,42.233333041,-71.620530744,135,"215 RUGGLES ST, WESTBOROUGH, MA, 1581","Match","Exact","215 RUGGLES ST, WESTBOROUGH, MA, 01581",40105010,"R"
117636,"215 S 26TH ST","SOUTH BEND","IN",46615,41.6751012030001,-86.2101973709999,136,"215 S 26TH ST, SOUTH BEND, IN, 46615","Match","Exact","215 S 26TH ST, SOUTH BEND, IN, 46615",8061185,"R"
117637,"215 S BROADNAX ST","DADEVILLE","AL",36853,32.8290744880001,-85.7636036069999,137,"215 S BROADNAX ST, DADEVILLE, AL, 36853","Match","Exact","215 S BROADNAX ST, DADEVILLE, AL, 36853",1666848,"R"
117638,"215 S BROADWAY UNIT 214","SALEM","NH",3079,NA,NA,138,"215 S BROADWAY UNIT 214, SALEM, NH, 3079","Tie",NA,NA,NA,NA
117639,"215 S COMMONWEALTH AVE","LOS ANGELES","CA",90010,34.0701417600001,-118.285722668,139,"215 S COMMONWEALTH AVE, LOS ANGELES, CA, 90010","Match","Non_Exact","215 S COMMONWEALTH AVE, LOS ANGELES, CA, 90004",141604974,"R"
117640,"215 S ELM DR APT 203","BEVERLY HILLS","CA",90212,34.06442716,-118.394873749,140,"215 S ELM DR APT 203, BEVERLY HILLS, CA, 90212","Match","Non_Exact","215 S ELM DR, BEVERLY HILLS, CA, 90212",141572509,"R"
117641,"215 S GLASGOW AVE","RICO","CO",81332,37.6898970820001,-108.03139029,141,"215 S GLASGOW AVE, RICO, CO, 81332","Match","Exact","215 S GLASGOW AVE, RICO, CO, 81332",608022879,"L"
117642,"215 S MARKET ST","LISBON","OH",44432,40.7707626650001,-80.768036696,142,"215 S MARKET ST, LISBON, OH, 44432","Match","Exact","215 S MARKET ST, LISBON, OH, 44432",649994526,"L"
117643,"215 S SANTA FE AVE APT 19","LOS ANGELES","CA",90012,NA,NA,143,"215 S SANTA FE AVE APT 19, LOS ANGELES, CA, 90012","Tie",NA,NA,NA,NA
117644,"215 S SPRUCE ST","INDIANOLA","IA",50125,41.358369721,-93.588237378,144,"215 S SPRUCE ST, INDIANOLA, IA, 50125","Match","Exact","215 S SPRUCE ST, INDIANOLA, IA, 50125",624958867,"L"
117645,"215 S VALLEY VIEW RD- LOT 86","DONNA","TX",78537,NA,NA,145,"215 S VALLEY VIEW RD- LOT 86, DONNA, TX, 78537","No_Match",NA,NA,NA,NA
117646,"215 S WAYNE STREET","ANGOLA","IN",46703,41.633807012,-84.999238785,146,"215 S WAYNE STREET, ANGOLA, IN, 46703","Match","Exact","215 S WAYNE ST, ANGOLA, IN, 46703",7715325,"R"
117647,"215 SAINT JOHN AVENUE","STATEN ISLAND","NY",10314,40.618224593,-74.134834643,147,"215 SAINT JOHN AVENUE, STATEN ISLAND, NY, 10314","Match","Exact","215 ST JOHN AVE, STATEN ISLAND, NY, 10314",59876053,"L"
117648,"215 SE 8TH AVE STE 760","FORT LAUDERDALE","FL",33301,NA,NA,148,"215 SE 8TH AVE STE 760, FORT LAUDERDALE, FL, 33301","Tie",NA,NA,NA,NA
117649,"215 SECOND AVENUE SE - SUITE 300","CEDAR RAPIDS","IA",52401,NA,NA,149,"215 SECOND AVENUE SE - SUITE 300, CEDAR RAPIDS, IA, 52401","No_Match",NA,NA,NA,NA
117650,"215 SELMONT AVENUE","SELMA","AL",36703,32.391895381,-87.006528116,150,"215 SELMONT AVENUE, SELMA, AL, 36703","Match","Exact","215 SELMONT AVE, SELMA, AL, 36703",1284540,"R"
117651,"215 SHARP ROAD","STAMPING GROUND","KY",40379,38.3138343110001,-84.720043088,151,"215 SHARP ROAD, STAMPING GROUND, KY, 40379","Match","Exact","215 SHARP RD, STAMPING GROUND, KY, 40379",41240574,"R"
117652,"215 SHELLBARK DR","TROY","MO",63379,38.9671899680001,-90.9827827079999,152,"215 SHELLBARK DR, TROY, MO, 63379","Match","Exact","215 SHELLBARK DR, TROY, MO, 63379",44853984,"L"
117653,"215 SHEPLEY DRIVE","GLASGOW VILLAGE","MO",63137,38.755770225,-90.197987529,153,"215 SHEPLEY DRIVE, GLASGOW VILLAGE, MO, 63137","Match","Non_Exact","215 SHEPLEY DR, SAINT LOUIS, MO, 63137",100184474,"R"
117654,"215 SOUTH 16TH ST SUITE 14","PHILADELPHIA","PA",19102,39.949278372,-75.167614569,154,"215 SOUTH 16TH ST SUITE 14, PHILADELPHIA, PA, 19102","Match","Exact","215 S 16TH ST, PHILADELPHIA, PA, 19102",131407657,"L"
117655,"215 SOUTH 5TH STREET","COLBERT","GA",30628,34.0350067950001,-83.209506247,155,"215 SOUTH 5TH STREET, COLBERT, GA, 30628","Match","Exact","215 S 5TH ST, COLBERT, GA, 30628",5016391,"R"
117656,"215 SOUTH ADAIR STREET","STUART","IA",50250,41.5026888680001,-94.326440495,156,"215 SOUTH ADAIR STREET, STUART, IA, 50250","Match","Non_Exact","215 ADAIR ST, STUART, IA, 50250",61670018,"R"
117657,"215 SOUTH BROAD ST","SACKETS HARBOR","NY",13685,43.9450169450001,-76.1204461739999,157,"215 SOUTH BROAD ST, SACKETS HARBOR, NY, 13685","Match","Exact","215 S BROAD ST, SACKETS HARBOR, NY, 13685",154224195,"R"
117658,"215 SOUTH BROAD STREET","SACKETS HARBOR","NY",13685,43.9450169450001,-76.1204461739999,158,"215 SOUTH BROAD STREET, SACKETS HARBOR, NY, 13685","Match","Exact","215 S BROAD ST, SACKETS HARBOR, NY, 13685",154224195,"R"
117659,"215 SOUTH BROADWAY","BUTLER","IN",46721,41.4284603350001,-84.8713143699999,159,"215 SOUTH BROADWAY, BUTLER, IN, 46721","Match","Non_Exact","215 S BROADWAY ST, BUTLER, IN, 46721",606654934,"R"
117660,"215 SOUTH GROVE    APT 310","YPSILANTI","MI",48198,42.236434468,-83.6037331059999,160,"215 SOUTH GROVE    APT 310, YPSILANTI, MI, 48198","Match","Non_Exact","215 S GROVE ST, YPSILANTI, MI, 48198",26021818,"L"
117661,"215 SOUTH HAMILTON STREET","MADISON","WI",53703,43.071500638,-89.384222646,161,"215 SOUTH HAMILTON STREET, MADISON, WI, 53703","Match","Exact","215 S HAMILTON ST, MADISON, WI, 53703",49472416,"L"
117662,"215 SOUTH MAIN STREET","BRILLION","WI",54110,44.17538259,-88.064230841,162,"215 SOUTH MAIN STREET, BRILLION, WI, 54110","Match","Exact","215 S MAIN ST, BRILLION, WI, 54110",74780882,"L"
117663,"215 SOUTH QUEEN STREET","LANCASTER","PA",17603,40.0345199390001,-76.305025346,163,"215 SOUTH QUEEN STREET, LANCASTER, PA, 17603","Match","Exact","215 S QUEEN ST, LANCASTER, PA, 17603",179664609,"L"
117664,"215 SOUTH WASHINGTON STREET","LYONS","GA",30436,32.2011706550001,-82.322738473,164,"215 SOUTH WASHINGTON STREET, LYONS, GA, 30436","Match","Exact","215 S WASHINGTON ST, LYONS, GA, 30436",4771484,"R"
117665,"215 SOUTHLAND DRIVE","LEXINGTON","KY",40503,38.013495655,-84.5209992599999,165,"215 SOUTHLAND DRIVE, LEXINGTON, KY, 40503","Match","Exact","215 SOUTHLAND DR, LEXINGTON, KY, 40503",31922941,"R"
117666,"215 STOCKTON AVE","SANTA CRUZ","CA",95060,36.951655445,-122.049707095,166,"215 STOCKTON AVE, SANTA CRUZ, CA, 95060","Match","Exact","215 STOCKTON AVE, SANTA CRUZ, CA, 95060",125508279,"L"
117667,"215 STONE RIDGE ROAD","STARKVILLE","MS",39759,33.377162394,-88.813610454,167,"215 STONE RIDGE ROAD, STARKVILLE, MS, 39759","Match","Exact","215 STONE RIDGE RD, STARKVILLE, MS, 39759",625262522,"L"
117668,"215 STONEHAM LANE","KILLEEN","TX",76542,31.0220324860001,-97.750692514,168,"215 STONEHAM LANE, KILLEEN, TX, 76542","Match","Exact","215 STONEHAM LN, KILLEEN, TX, 76542",146171159,"R"
117669,"215 STONEHENGE WAY","ATHENS","GA",30606,33.93565276,-83.4984517089999,169,"215 STONEHENGE WAY, ATHENS, GA, 30606","Match","Exact","215 STONEHENGE WAY, ATHENS, GA, 30606",4800560,"L"
117670,"215 SUNSET DR","WHITE OAK","PA",15131,40.3355766830001,-79.8128459759999,170,"215 SUNSET DR, WHITE OAK, PA, 15131","Match","Exact","215 SUNSET DR, WHITE OAK, PA, 15131",51679466,"L"
117671,"215 SUSAN ROAD","ST. LOUIS","MO",63129,38.453625265,-90.301577659,171,"215 SUSAN ROAD, ST. LOUIS, MO, 63129","Match","Exact","215 SUSAN RD, SAINT LOUIS, MO, 63129",617839008,"L"
117672,"215 SW 311TH PLACE","FEDERAL WAY","WA",98023,47.3233347760001,-122.33657425,172,"215 SW 311TH PLACE, FEDERAL WAY, WA, 98023","Match","Exact","215 SW 311TH PL, FEDERAL WAY, WA, 98023",617957737,"R"
117673,"215 SW ADAMS AVE","HILLSBORO","OR",97123,45.5207135570001,-122.991318892,173,"215 SW ADAMS AVE, HILLSBORO, OR, 97123","Match","Exact","215 SW ADAMS AVE, HILLSBORO, OR, 97123",638344283,"R"
117674,"215 THOMPSON AVE","BOUND BROOK","NJ",8805,40.5651690650001,-74.5478080239999,174,"215 THOMPSON AVE, BOUND BROOK, NJ, 8805","Match","Exact","215 THOMPSON AVE, BOUND BROOK, NJ, 08805",59939129,"L"
117675,"215 TOWERS RANCH DRIVE","ST AUGUSTINE","FL",32092,29.9969487490001,-81.5415995549999,175,"215 TOWERS RANCH DRIVE, ST AUGUSTINE, FL, 32092","Match","Exact","215 TOWERS RANCH DR, SAINT AUGUSTINE, FL, 32092",92631588,"R"
117676,"215 TREMONT STREET SUITE 300","ROCHESTER","NY",14608,43.1478468110001,-77.621950903,176,"215 TREMONT STREET SUITE 300, ROCHESTER, NY, 14608","Match","Exact","215 TREMONT ST, ROCHESTER, NY, 14608",14567952,"L"
117677,"215 TROJAN CENTER","TROY","AL",36082,NA,NA,177,"215 TROJAN CENTER, TROY, AL, 36082","No_Match",NA,NA,NA,NA
117678,"215 TWO RIVER COURT","ROMEOVILLE","IL",60446,41.6150858350001,-88.15900705,178,"215 TWO RIVER COURT, ROMEOVILLE, IL, 60446","Match","Exact","215 TWO RIVER CT, ROMEOVILLE, IL, 60446",111612839,"R"
117679,"215 TYLER BROOKS DR","WILLIAMSBURG","VA",23185,37.2975572130001,-76.731488676,179,"215 TYLER BROOKS DR, WILLIAMSBURG, VA, 23185","Match","Exact","215 TYLER BROOKS DR, WILLIAMSBURG, VA, 23185",103747146,"L"
117680,"215 UNION AVE","HARRISON","NY",10528,40.980984499,-73.731777236,180,"215 UNION AVE, HARRISON, NY, 10528","Match","Exact","215 UNION AVE, HARRISON, NY, 10528",139843369,"R"
117681,"215 UPLAND WAY","WAYNE","PA",19087,40.040330372,-75.3844164819999,181,"215 UPLAND WAY, WAYNE, PA, 19087","Match","Exact","215 UPLAND WAY, WAYNE, PA, 19087",134897808,"L"
117682,"215 VILLAGE CREEK CT","BALLWIN","MO",63021,38.584633206,-90.561889004,182,"215 VILLAGE CREEK CT, BALLWIN, MO, 63021","Match","Exact","215 VILLAGE CREEK CT, BALLWIN, MO, 63021",100196749,"L"
117683,"215 VIVIAN ST","HANCOCK","MI",49930,47.1278011460001,-88.5728964469999,183,"215 VIVIAN ST, HANCOCK, MI, 49930","Match","Exact","215 VIVIAN ST, HANCOCK, MI, 49930",184107242,"R"
117684,"215 W 101ST ST APT 7B","NEW YORK","NY",10025,40.7976882680001,-73.969073378,184,"215 W 101ST ST APT 7B, NEW YORK, NY, 10025","Match","Non_Exact","215 W 101ST ST, NEW YORK, NY, 10025",59656830,"R"
117685,"215 W 145TH ST APT 14","NEW YORK","NY",10039,40.821886955,-73.939648151,185,"215 W 145TH ST APT 14, NEW YORK, NY, 10039","Match","Non_Exact","215 W 145TH ST, NEW YORK, NY, 10039",59656287,"R"
117686,"215 W 16TH AVE","COVINGTON","LA",70433,30.4716889380001,-90.1053571369999,186,"215 W 16TH AVE, COVINGTON, LA, 70433","Match","Exact","215 W 16TH AVE, COVINGTON, LA, 70433",111269050,"L"
117687,"215 W 67TH STREET","LOS ANGELES","CA",90003,33.9790236640001,-118.276410877,187,"215 W 67TH STREET, LOS ANGELES, CA, 90003","Match","Exact","215 W 67TH ST, LOS ANGELES, CA, 90003",141659826,"R"
117688,"215 W 6TH ST 514","LOS ANGELES","CA",90014,NA,NA,188,"215 W 6TH ST 514, LOS ANGELES, CA, 90014","Tie",NA,NA,NA,NA
117689,"215 W 75TH STREET","NEW YORK","NY",10023,40.78078845,-73.9807248239999,189,"215 W 75TH STREET, NEW YORK, NY, 10023","Match","Exact","215 W 75TH ST, NEW YORK, NY, 10023",59656652,"R"
117690,"215 W BIG SPRINGS RD","RIVERSIDE","CA",92507,33.9756975130001,-117.316666223,190,"215 W BIG SPRINGS RD, RIVERSIDE, CA, 92507","Match","Exact","215 W BIG SPRINGS RD, RIVERSIDE, CA, 92507",194746588,"R"
117691,"215 W CHICAGO ST","BRONSON","MI",49028,41.8720029770001,-85.196849571,191,"215 W CHICAGO ST, BRONSON, MI, 49028","Match","Exact","215 W CHICAGO ST, BRONSON, MI, 49028",8212993,"R"
117692,"215 W DANFORTH RD","EDMOND","OK",73003,35.6673688180001,-97.482989114,192,"215 W DANFORTH RD, EDMOND, OK, 73003","Match","Exact","215 W DANFORTH RD, EDMOND, OK, 73003",606122713,"R"
117693,"215 W DANFORTH","EDMOND","OK",73003,35.6673688180001,-97.482989114,193,"215 W DANFORTH, EDMOND, OK, 73003","Match","Non_Exact","215 W DANFORTH RD, EDMOND, OK, 73003",606122713,"R"
117694,"215 W FISHER AVENUE","GREENSBORO","NC",27401,36.079898954,-79.791180208,194,"215 W FISHER AVENUE, GREENSBORO, NC, 27401","Match","Exact","215 W FISHER AVE, GREENSBORO, NC, 27401",131032862,"L"
117695,"215 W LOMBARD DR","LINCOLN","NE",68521,40.863585824,-96.726916772,195,"215 W LOMBARD DR, LINCOLN, NE, 68521","Match","Exact","215 W LOMBARD DR, LINCOLN, NE, 68521",28276342,"L"
117696,"215 W MICHIGAN","YPSILANTI","MI",48197,42.2410185250001,-83.614828168,196,"215 W MICHIGAN, YPSILANTI, MI, 48197","Match","Non_Exact","215 W MICHIGAN AVE, YPSILANTI, MI, 48197",26020818,"L"
117697,"215 W OAKCREST AVE","NORTHFIELD","NJ",8225,39.3601047930001,-74.562351435,197,"215 W OAKCREST AVE, NORTHFIELD, NJ, 8225","Match","Exact","215 W OAKCREST AVE, NORTHFIELD, NJ, 08225",202483853,"R"
117698,"215 W PERSHING RD 5TH FLOOR","KANSAS CITY","MO",64108,NA,NA,198,"215 W PERSHING RD 5TH FLOOR, KANSAS CITY, MO, 64108","Tie",NA,NA,NA,NA
117699,"215 W PINE GROVE RD PO BOX 237","PINE GROVE MILLS","PA",16868,40.7330025040001,-77.8901722319999,199,"215 W PINE GROVE RD PO BOX 237, PINE GROVE MILLS, PA, 16868","Match","Exact","215 PINE GROVE RD, PINE GROVE MILLS, PA, 16868",50365587,"L"
117700,"215 W SAM J STONE AVENUE","PEORIA","IL",61602,40.6943888550001,-89.595992316,200,"215 W SAM J STONE AVENUE, PEORIA, IL, 61602","Match","Non_Exact","215 W SAM J STONE AVE, PEORIA, IL, 61605",8720102,"R"
117701,"215 W SAM J STONE AVENUE","PEORIA","IL",61605,40.6943888550001,-89.595992316,201,"215 W SAM J STONE AVENUE, PEORIA, IL, 61605","Match","Exact","215 W SAM J STONE AVE, PEORIA, IL, 61605",8720102,"R"
117702,"215 W TROY STREET","FERNDALE","MI",48220,42.460013702,-83.1369382089999,202,"215 W TROY STREET, FERNDALE, MI, 48220","Match","Exact","215 W TROY ST, FERNDALE, MI, 48220",69810828,"L"
117703,"215 WASHINGTON AVENUE APT 227D","WACO","TX",76701,31.559933491,-97.130169025,203,"215 WASHINGTON AVENUE APT 227D, WACO, TX, 76701","Match","Exact","215 WASHINGTON AVE, WACO, TX, 76701",146736126,"R"
117704,"215 WASHINGTON AVENUE SUITE 110","TOWSON","MD",21204,39.397644041,-76.6057328319999,204,"215 WASHINGTON AVENUE SUITE 110, TOWSON, MD, 21204","Match","Exact","215 WASHINGTON AVE, TOWSON, MD, 21204",191473790,"R"
117705,"215 WASHINGTON STREET","JACKSONVILLE","FL",32202,30.3264994520001,-81.651159589,205,"215 WASHINGTON STREET, JACKSONVILLE, FL, 32202","Match","Non_Exact","215 N WASHINGTON ST, JACKSONVILLE, FL, 32202",83900223,"R"
117706,"215 WASHINGTON","GRAND HAVEN","MI",49417,43.063878329,-86.230706219,206,"215 WASHINGTON, GRAND HAVEN, MI, 49417","Match","Non_Exact","215 WASHINGTON AVE, GRAND HAVEN, MI, 49417",71084399,"R"
117707,"215 WATTS BRANCH PARKWAY","ROCKVILLE","MD",20850,39.0820898200001,-77.17436975,207,"215 WATTS BRANCH PARKWAY, ROCKVILLE, MD, 20850","Match","Exact","215 WATTS BRANCH PKWY, ROCKVILLE, MD, 20850",62085484,"R"
117708,"215 WEST 125TH STREET 4TH FLOOR","NEW YORK","NY",10027,40.809217286,-73.9488908179999,208,"215 WEST 125TH STREET 4TH FLOOR, NEW YORK, NY, 10027","Match","Exact","215 W 125TH ST, NEW YORK, NY, 10027",59661831,"R"
117709,"215 WEST 147TH STREET","NEW  YORK","NY",10039,40.823444963,-73.939323026,209,"215 WEST 147TH STREET, NEW  YORK, NY, 10039","Match","Exact","215 W 147TH ST, NEW YORK, NY, 10039",650153041,"R"
117710,"215 WEST BANDERA RD STE 114-236","BOERNE","TX",78006,29.780504407,-98.7354651209999,210,"215 WEST BANDERA RD STE 114-236, BOERNE, TX, 78006","Match","Exact","215 W BANDERA RD, BOERNE, TX, 78006",637357516,"R"
117711,"215 WEST BROADWAY STREET","BUTTE","MT",59701,46.0133968820001,-112.539587048,211,"215 WEST BROADWAY STREET, BUTTE, MT, 59701","Match","Exact","215 W BROADWAY ST, BUTTE, MT, 59701",153586460,"L"
117712,"215 WEST FERRY STREET","BUFFALO","NY",14213,42.915188599,-78.893773594,212,"215 WEST FERRY STREET, BUFFALO, NY, 14213","Match","Exact","215 W FERRY ST, BUFFALO, NY, 14213",48288898,"R"
117713,"215 WEST GREYWING CIRCLE","THE WOODLANDS","TX",77382,30.2082102950001,-95.5207844029999,213,"215 WEST GREYWING CIRCLE, THE WOODLANDS, TX, 77382","Match","Exact","215 W GREYWING CIR, THE WOODLANDS, TX, 77382",79335638,"R"
117714,"215 WEST LIVE OAK","DUBLIN","TX",76446,32.086560332,-98.3442941869999,214,"215 WEST LIVE OAK, DUBLIN, TX, 76446","Match","Exact","215 W LIVE OAK, DUBLIN, TX, 76446",158519050,"L"
117715,"215 WEST MACARTHUR BLVD APT 514","OAKLAND","CA",94611,37.8229149680001,-122.256322036,215,"215 WEST MACARTHUR BLVD APT 514, OAKLAND, CA, 94611","Match","Non_Exact","215 W MACARTHUR, OAKLAND, CA, 94611",633918791,"L"
117716,"215 WEST MAIN STREET","HILL CITY","KS",67642,39.364556787,-99.843577636,216,"215 WEST MAIN STREET, HILL CITY, KS, 67642","Match","Exact","215 W MAIN ST, HILL CITY, KS, 67642",203629773,"R"
117717,"215 WEST MAIN STREET","NORTHVILLE","MI",48167,42.4309844680001,-83.484811012,217,"215 WEST MAIN STREET, NORTHVILLE, MI, 48167","Match","Exact","215 W MAIN ST, NORTHVILLE, MI, 48167",95404768,"L"
117718,"215 WEST MAIN STREET","NORTON","MA",2766,41.9568600280001,-71.21339424,218,"215 WEST MAIN STREET, NORTON, MA, 2766","Match","Exact","215 W MAIN ST, NORTON, MA, 02766",46758842,"L"
117719,"215 WEST MICHIGAN AVE","PAW PAW","MI",49079,42.2174963200001,-85.8982514689999,219,"215 WEST MICHIGAN AVE, PAW PAW, MI, 49079","Match","Exact","215 W MICHIGAN AVE, PAW PAW, MI, 49079",34755350,"R"
117720,"215 WEST NORTH STREET","DANVILLE","IL",61832,40.1263283640001,-87.633753445,220,"215 WEST NORTH STREET, DANVILLE, IL, 61832","Match","Exact","215 W NORTH ST, DANVILLE, IL, 61832",65999006,"R"
117721,"215 WEST PINE ST","SISSETON","SD",57262,NA,NA,221,"215 WEST PINE ST, SISSETON, SD, 57262","No_Match",NA,NA,NA,NA
117722,"215 WEST PORTLAND STREET UNIT 255C","PHOENIX","AZ",85003,33.4599452530001,-112.076645514,222,"215 WEST PORTLAND STREET UNIT 255C, PHOENIX, AZ, 85003","Match","Exact","215 W PORTLAND ST, PHOENIX, AZ, 85003",128843493,"L"
117723,"215 WEST SEGO LILY DR UNIT 709405","SANDY","UT",84070,40.5696805690001,-111.896745979,223,"215 WEST SEGO LILY DR UNIT 709405, SANDY, UT, 84070","Match","Exact","215 W SEGO LILY DR, SANDY, UT, 84070",176155492,"R"
117724,"215 WEST SUMMIT STREET","CHELSEA","MI",48118,42.315117119,-84.022440177,224,"215 WEST SUMMIT STREET, CHELSEA, MI, 48118","Match","Exact","215 W SUMMIT ST, CHELSEA, MI, 48118",26008727,"L"
117725,"215 WEST WASHINGTON STREET","POYNETTE","WI",53955,43.390554722,-89.404393526,225,"215 WEST WASHINGTON STREET, POYNETTE, WI, 53955","Match","Exact","215 W WASHINGTON ST, POYNETTE, WI, 53955",73321591,"R"
117726,"215 WESTWOOD AVE PO BOX 821","WESTWOOD","NJ",7675,40.9926116020001,-74.030478992,226,"215 WESTWOOD AVE PO BOX 821, WESTWOOD, NJ, 7675","Match","Exact","215 WESTWOOD AVE, WESTWOOD, NJ, 07675",64378963,"L"
117727,"215 WILLOW CREEK RD","AUBURN","AL",36832,32.6060579470001,-85.530728997,227,"215 WILLOW CREEK RD, AUBURN, AL, 36832","Match","Exact","215 WILLOW CREEK RD, AUBURN, AL, 36832",1568830,"L"
117728,"215 WINCHESTER DR SUITE 103","TYLER","TX",75701,32.3075427420001,-95.2992022609999,228,"215 WINCHESTER DR SUITE 103, TYLER, TX, 75701","Match","Exact","215 WINCHESTER DR, TYLER, TX, 75701",141296584,"R"
117729,"215 WINCHESTER LANE","WEATHERFORD","TX",76085,32.883848319,-97.645454381,229,"215 WINCHESTER LANE, WEATHERFORD, TX, 76085","Match","Exact","215 WINCHESTER LN, WEATHERFORD, TX, 76085",103597185,"L"
117730,"215 WISTERIA DRIVE","OXFORD","GA",30054,33.6624131460001,-83.912155744,230,"215 WISTERIA DRIVE, OXFORD, GA, 30054","Match","Exact","215 WISTERIA DR, OXFORD, GA, 30054",23639868,"L"
117731,"215 WOOD THRUSH WAY","SUMMERVILLE","SC",29486,33.102200026,-80.1332283739999,231,"215 WOOD THRUSH WAY, SUMMERVILLE, SC, 29486","Match","Exact","215 WOOD THRUSH WAY, SUMMERVILLE, SC, 29486",652127358,"L"
117732,"215 WOODFIELD CROSSING","ROCKY HILL","CT",6067,41.643026686,-72.6901103609999,232,"215 WOODFIELD CROSSING, ROCKY HILL, CT, 6067","Match","Exact","215 WOODFIELD CROSSING, ROCKY HILL, CT, 06067",3532937,"L"
117733,"215- 10TH STREET SUITE 1300","DES MOINES","IA",50309,NA,NA,233,"215- 10TH STREET SUITE 1300, DES MOINES, IA, 50309","No_Match",NA,NA,NA,NA
117734,"215-14 HOLLIS AVENUE","QUEENS VILLAGE","NY",11429,40.7100856600001,-73.742863454,234,"215-14 HOLLIS AVENUE, QUEENS VILLAGE, NY, 11429","Match","Exact","215-14 HOLLIS AVE, QUEENS VILLAGE, NY, 11429",59718045,"R"
117735,"2150 75TH STREET N","SAINT PETERSBURG","FL",33710,27.7913772590001,-82.741578881,235,"2150 75TH STREET N, SAINT PETERSBURG, FL, 33710","Match","Exact","2150 75TH ST N, SAINT PETERSBURG, FL, 33710",124693868,"L"
117736,"2150 ALLSTON WAY STE 400","BERKELEY","CA",94704,37.869509029,-122.267209533,236,"2150 ALLSTON WAY STE 400, BERKELEY, CA, 94704","Match","Exact","2150 ALLSTON WAY, BERKELEY, CA, 94704",606184373,"R"
117737,"2150 AVENUE E","HAWARDEN","IA",51023,NA,NA,237,"2150 AVENUE E, HAWARDEN, IA, 51023","Tie",NA,NA,NA,NA
117738,"2150 BENNETT STREET","LA CROSSE","WI",54601,43.7888167580001,-91.222562244,238,"2150 BENNETT STREET, LA CROSSE, WI, 54601","Match","Exact","2150 BENNETT ST, LA CROSSE, WI, 54601",51013550,"R"
117739,"2150 BRANDON LEE DR","MARIETTA","GA",30008,33.8999501600001,-84.604795033,239,"2150 BRANDON LEE DR, MARIETTA, GA, 30008","Match","Non_Exact","2150 BRANDON LEE DR SW, MARIETTA, GA, 30008",17222686,"R"
117740,"2150 BROADWAY APT 11A","NEW YORK","NY",10023,40.781451062,-73.981157364,240,"2150 BROADWAY APT 11A, NEW YORK, NY, 10023","Match","Exact","2150 BROADWAY, NEW YORK, NY, 10023",59656649,"R"
117741,"2150 CHANNING WAY","BERKELEY","CA",94704,37.865965428,-122.266301091,241,"2150 CHANNING WAY, BERKELEY, CA, 94704","Match","Exact","2150 CHANNING WAY, BERKELEY, CA, 94704",605994258,"R"
117742,"2150 CHRISTINE PL","ARROYO GRANDE","CA",93420,35.1639722670001,-120.554390147,242,"2150 CHRISTINE PL, ARROYO GRANDE, CA, 93420","Match","Exact","2150 CHRISTINE PL, ARROYO GRANDE, CA, 93420",109739456,"R"
117743,"2150 COUNTRY CLUB RD SUITE 160","WINSTON-SALEM","NC",27104,36.097809845,-80.2795604039999,243,"2150 COUNTRY CLUB RD SUITE 160, WINSTON-SALEM, NC, 27104","Match","Exact","2150 COUNTRY CLUB RD, WINSTON SALEM, NC, 27104",84608095,"L"
117744,"2150 CYPRESS CREEK DRIVE","CEDAR PARK","TX",78613,NA,NA,244,"2150 CYPRESS CREEK DRIVE, CEDAR PARK, TX, 78613","No_Match",NA,NA,NA,NA
117745,"2150 CYPRESS CREEK RD","CEDAR PARK","TX",78613,NA,NA,245,"2150 CYPRESS CREEK RD, CEDAR PARK, TX, 78613","No_Match",NA,NA,NA,NA
117746,"2150 CYPRESS CREEK ROAD","CEDAR PARK","TX",78613,NA,NA,246,"2150 CYPRESS CREEK ROAD, CEDAR PARK, TX, 78613","No_Match",NA,NA,NA,NA
117747,"2150 DAMIEN AVENUE","LA VERNE","CA",91750,34.103760767,-117.789285742,247,"2150 DAMIEN AVENUE, LA VERNE, CA, 91750","Match","Exact","2150 DAMIEN AVE, LA VERNE, CA, 91750",142788529,"R"
117748,"2150 E BELL RD 1011","PHOENIX","AZ",85022,33.6404816090001,-112.036066544,248,"2150 E BELL RD 1011, PHOENIX, AZ, 85022","Match","Non_Exact","2150 E BELL RD, PHOENIX, AZ, 85022",640591045,"L"
117749,"2150 E BELL ROAD 1011","PHOENIX","AZ",85022,33.6404816090001,-112.036066544,249,"2150 E BELL ROAD 1011, PHOENIX, AZ, 85022","Match","Non_Exact","2150 E BELL RD, PHOENIX, AZ, 85022",640591045,"L"
117750,"2150 E CONTINENTAL BLVD","SOUTHLAKE","TX",76092,32.926264513,-97.125416588,250,"2150 E CONTINENTAL BLVD, SOUTHLAKE, TX, 76092","Match","Exact","2150 E CONTINENTAL BLVD, SOUTHLAKE, TX, 76092",624389165,"L"
117751,"2150 E I ROAD","BALLANTINE","MT",59006,45.9586565910001,-108.095178441,251,"2150 E I ROAD, BALLANTINE, MT, 59006","Match","Exact","2150 E I RD, BALLANTINE, MT, 59006",181499824,"R"
117752,"2150 E M 36","PINCKNEY","MI",48169,NA,NA,252,"2150 E M 36, PINCKNEY, MI, 48169","No_Match",NA,NA,NA,NA
117753,"2150 E SOUTHERN AVE","TEMPE","AZ",85282,33.3929902530001,-111.894046068,253,"2150 E SOUTHERN AVE, TEMPE, AZ, 85282","Match","Exact","2150 E SOUTHERN AVE, TEMPE, AZ, 85282",128233088,"L"
117754,"2150 EARLYSVILLE RD","EARLYSVILLE","VA",22936,38.0975376170001,-78.483414931,254,"2150 EARLYSVILLE RD, EARLYSVILLE, VA, 22936","Match","Exact","2150 EARLYSVILLE RD, EARLYSVILLE, VA, 22936",83405003,"L"
117755,"2150 GOODLETTE ROAD NORTH 6TH FLOOR","NAPLES","FL",34102,NA,NA,255,"2150 GOODLETTE ROAD NORTH 6TH FLOOR, NAPLES, FL, 34102","No_Match",NA,NA,NA,NA
117756,"2150 HILLHURST AVE","LOS ANGELES","CA",90027,34.1111522410001,-118.28742177,256,"2150 HILLHURST AVE, LOS ANGELES, CA, 90027","Match","Exact","2150 HILLHURST AVE, LOS ANGELES, CA, 90027",141597569,"R"
117757,"2150 INWOOD TERRACE 1","JACKSONVILLE","FL",32207,30.290430105,-81.641997251,257,"2150 INWOOD TERRACE 1, JACKSONVILLE, FL, 32207","Match","Exact","2150 INWOOD TER, JACKSONVILLE, FL, 32207",83960666,"R"
117758,"2150 LAKERIDGE DR","WINTER HAVEN","FL",33881,28.052248971,-81.738127519,258,"2150 LAKERIDGE DR, WINTER HAVEN, FL, 33881","Match","Exact","2150 LAKERIDGE DR, WINTER HAVEN, FL, 33881",648237615,"L"
117759,"2150 MACON CEMETERY ROAD","OAKLAND","TN",38060,35.1812804950001,-89.483476788,259,"2150 MACON CEMETERY ROAD, OAKLAND, TN, 38060","Match","Exact","2150 MACON CEMETERY RD, OAKLAND, TN, 38060",72707341,"R"
117760,"2150 MADISON ST APT 23","HOLLYWOOD","FL",33020,26.0063803670001,-80.150267833,260,"2150 MADISON ST APT 23, HOLLYWOOD, FL, 33020","Match","Exact","2150 MADISON ST, HOLLYWOOD, FL, 33020",114732521,"L"
117761,"2150 MASONIC WAY","FOREST GROVE","OR",97116,45.5236288630001,-123.086079024,261,"2150 MASONIC WAY, FOREST GROVE, OR, 97116","Match","Exact","2150 MASONIC WAY, FOREST GROVE, OR, 97116",158212082,"L"
117762,"2150 MCLEAN BLVD","EUGENE","OR",97405,44.0239180950001,-123.12452705,262,"2150 MCLEAN BLVD, EUGENE, OR, 97405","Match","Exact","2150 MCLEAN BLVD, EUGENE, OR, 97405",605394843,"L"
117763,"2150 MORNINGSIDE DRIVE","SAFETY HARBOR","FL",34695,28.0079625610001,-82.6849475509999,263,"2150 MORNINGSIDE DRIVE, SAFETY HARBOR, FL, 34695","Match","Exact","2150 MORNINGSIDE DR, SAFETY HARBOR, FL, 34695",124685079,"R"
117764,"2150 N 107 ST B-85","SEATTLE","WA",98133,47.7068406280001,-122.332224292,264,"2150 N 107 ST B-85, SEATTLE, WA, 98133","Match","Non_Exact","2150 N 107TH ST, SEATTLE, WA, 98133",186691019,"L"
117765,"2150 N 107TH STREET - B85","SEATTLE","WA",98133,47.7068406280001,-122.332224292,265,"2150 N 107TH STREET - B85, SEATTLE, WA, 98133","Match","Non_Exact","2150 N 107TH ST, SEATTLE, WA, 98133",186691019,"L"
117766,"2150 N 46TH ST","MILWAUKEE","WI",53208,43.058341324,-87.9712553859999,266,"2150 N 46TH ST, MILWAUKEE, WI, 53208","Match","Exact","2150 N 46TH ST, MILWAUKEE, WI, 53208",77734005,"R"
117767,"2150 N CLEVELAND-MASSILLON RD","AKRON","OH",44333,41.1931134330001,-81.636283046,267,"2150 N CLEVELAND-MASSILLON RD, AKRON, OH, 44333","Match","Non_Exact","2150 N CLEVELAND MASSILLON RD, AKRON, OH, 44333",61393887,"L"
117768,"2150 N FIRST STREET SUITE 434","SAN JOSE","CA",95131,37.3770518000001,-121.921035293,268,"2150 N FIRST STREET SUITE 434, SAN JOSE, CA, 95131","Match","Non_Exact","2150 N 1ST ST, SAN JOSE, CA, 95131",122959869,"R"
117769,"2150 N KIOWA STE A-102","LAKE HAVASU","AZ",86403,NA,NA,269,"2150 N KIOWA STE A-102, LAKE HAVASU, AZ, 86403","No_Match",NA,NA,NA,NA
117770,"2150 NAEGELE ROAD","COLORADO SPRINGS","CO",80904,38.841209812,-104.86008105,270,"2150 NAEGELE ROAD, COLORADO SPRINGS, CO, 80904","Match","Exact","2150 NAEGELE RD, COLORADO SPRINGS, CO, 80904",635613040,"R"
117771,"2150 NE 43RD ST","OCALA","FL",34479,29.231374051,-82.1091043169999,271,"2150 NE 43RD ST, OCALA, FL, 34479","Match","Exact","2150 NE 43RD ST, OCALA, FL, 34479",116783832,"R"
117772,"2150 NW 105TH LANE","CORAL SPRINGS","FL",33071,26.2571042160001,-80.265831195,272,"2150 NW 105TH LANE, CORAL SPRINGS, FL, 33071","Match","Exact","2150 NW 105TH LN, CORAL SPRINGS, FL, 33071",114772431,"L"
117773,"2150 NW 21 STREET","MIAMI","FL",33142,25.7954829720001,-80.23051165,273,"2150 NW 21 STREET, MIAMI, FL, 33142","Match","Exact","2150 NW 21ST ST, MIAMI, FL, 33142",116011345,"L"
117774,"2150 NW 93 TERRACE","MIAMI","FL",33147,25.8594815540001,-80.233037892,274,"2150 NW 93 TERRACE, MIAMI, FL, 33147","Match","Exact","2150 NW 93RD TER, MIAMI, FL, 33147",115998933,"L"
117775,"2150 OAKLEY SEAVER DRIVE","CLERMONT","FL",34711,28.5549160250001,-81.715627232,275,"2150 OAKLEY SEAVER DRIVE, CLERMONT, FL, 34711","Match","Exact","2150 OAKLEY SEAVER DR, CLERMONT, FL, 34711",648417251,"L"
117776,"2150 PARK PL UNIT 100","EL SEGUNDO","CA",90245,33.9049784420001,-118.387189301,276,"2150 PARK PL UNIT 100, EL SEGUNDO, CA, 90245","Match","Exact","2150 PARK PL, EL SEGUNDO, CA, 90245",640424617,"L"
117777,"2150 REDONDO BEACH BLVD","TORRANCE","CA",90504,33.8859370640001,-118.31666104,277,"2150 REDONDO BEACH BLVD, TORRANCE, CA, 90504","Match","Non_Exact","2150 W REDONDO BEACH BLVD, TORRANCE, CA, 90504",141823427,"R"
117778,"2150 REV RICHARD WILSON DR","KENNER","LA",70062,NA,NA,278,"2150 REV RICHARD WILSON DR, KENNER, LA, 70062","No_Match",NA,NA,NA,NA
117779,"2150 ROCHESTER AVENUE","IOWA CITY","IA",52245,41.664722456,-91.5052235639999,279,"2150 ROCHESTER AVENUE, IOWA CITY, IA, 52245","Match","Exact","2150 ROCHESTER AVE, IOWA CITY, IA, 52245",84499482,"L"
117780,"2150 S CANALPORT 4C-10","CHICAGO","IL",60608,NA,NA,280,"2150 S CANALPORT 4C-10, CHICAGO, IL, 60608","No_Match",NA,NA,NA,NA
117781,"2150 S CANALPORT AVE 2ND FL","CHICAGO","IL",60608,41.8528806,-87.650632053,281,"2150 S CANALPORT AVE 2ND FL, CHICAGO, IL, 60608","Match","Non_Exact","2150 S CANALPORT AVE, CHICAGO, IL, 60608",111827951,"R"
117782,"2150 S CANALPORT AVE","CHICAGO","IL",60681,41.8528806,-87.650632053,282,"2150 S CANALPORT AVE, CHICAGO, IL, 60681","Match","Non_Exact","2150 S CANALPORT AVE, CHICAGO, IL, 60608",111827951,"R"
117783,"2150 S CANALPORT UNIT 2A-11","CHICAGO","IL",60608,NA,NA,283,"2150 S CANALPORT UNIT 2A-11, CHICAGO, IL, 60608","No_Match",NA,NA,NA,NA
117784,"2150 S CENTRAL EXPRESSWAY SUITE 200","MCKINNEY","TX",75070,33.1808719910001,-96.64044955,284,"2150 S CENTRAL EXPRESSWAY SUITE 200, MCKINNEY, TX, 75070","Match","Exact","2150 CENTRAL EXPY, MCKINNEY, TX, 75070",123539932,"L"
117785,"2150 S CENTRAL EXPY  STE 262","MCKINNEY","TX",75070,33.1808719910001,-96.64044955,285,"2150 S CENTRAL EXPY  STE 262, MCKINNEY, TX, 75070","Match","Exact","2150 CENTRAL EXPY, MCKINNEY, TX, 75070",123539932,"L"
117786,"2150 S CENTRAL EXPY STE 110","MCKINNEY","TX",75070,33.1808719910001,-96.64044955,286,"2150 S CENTRAL EXPY STE 110, MCKINNEY, TX, 75070","Match","Exact","2150 CENTRAL EXPY, MCKINNEY, TX, 75070",123539932,"L"
117787,"2150 S CHERRY STREET","DENVER","CO",80222,39.6772881690001,-104.93412828,287,"2150 S CHERRY STREET, DENVER, CO, 80222","Match","Exact","2150 S CHERRY ST, DENVER, CO, 80222",639411101,"L"
117788,"2150 SAINT LAKES WAY","STOCKTON","CA",95206,37.92705713,-121.316954979,288,"2150 SAINT LAKES WAY, STOCKTON, CA, 95206","Match","Exact","2150 SAINT LAKES WAY, STOCKTON, CA, 95206",133877636,"L"
117789,"2150 SE HIGHWAY 101 UNIT 375","LINCOLN CITY","OR",97367,NA,NA,289,"2150 SE HIGHWAY 101 UNIT 375, LINCOLN CITY, OR, 97367","No_Match",NA,NA,NA,NA
117790,"2150 SE TORBANK RD","MILWAUKIE","OR",97222,45.425005002,-122.64188679,290,"2150 SE TORBANK RD, MILWAUKIE, OR, 97222","Match","Exact","2150 SE TORBANK RD, MILWAUKIE, OR, 97222",157913125,"R"
117791,"2150 SEVEN SPRINGS BLVD","NEW PORT RICHEY","FL",34655,28.1898051420001,-82.698947986,291,"2150 SEVEN SPRINGS BLVD, NEW PORT RICHEY, FL, 34655","Match","Exact","2150 SEVEN SPRINGS BLVD, NEW PORT RICHEY, FL, 34655",620601650,"L"
117792,"2150 SEVEN SPRINGS BLVD","TRINITY","FL",34655,28.1898051420001,-82.698947986,292,"2150 SEVEN SPRINGS BLVD, TRINITY, FL, 34655","Match","Exact","2150 SEVEN SPRINGS BLVD, TRINITY, FL, 34655",620601650,"L"
117793,"2150 SOUTH CANALPORT      STE  5B-1","CHICAGO","IL",60608,41.8528860920001,-87.650619203,293,"2150 SOUTH CANALPORT      STE  5B-1, CHICAGO, IL, 60608","Match","Non_Exact","2150 S CANALPORT AVE, CHICAGO, IL, 60608",111827951,"R"
117794,"2150 SOUTH CANALPORT AVE 2ND FL","CHICAGO","IL",60608,41.8528860920001,-87.650619203,294,"2150 SOUTH CANALPORT AVE 2ND FL, CHICAGO, IL, 60608","Match","Exact","2150 S CANALPORT AVE, CHICAGO, IL, 60608",111827951,"R"
117795,"2150 SOUTH CENTRAL EXPY SUITE 200","MCKINNEY","TX",75070,NA,NA,295,"2150 SOUTH CENTRAL EXPY SUITE 200, MCKINNEY, TX, 75070","Tie",NA,NA,NA,NA
117796,"2150 SOUTH HILLSIDE STREET","WICHITA","KS",67211,37.654303064,-97.298762923,296,"2150 SOUTH HILLSIDE STREET, WICHITA, KS, 67211","Match","Exact","2150 S HILLSIDE ST, WICHITA, KS, 67211",115648611,"L"
117797,"2150 STAR DRIVE","WOOSTER","OH",44691,40.8259919170001,-81.957642095,297,"2150 STAR DRIVE, WOOSTER, OH, 44691","Match","Exact","2150 STAR DR, WOOSTER, OH, 44691",58739659,"L"
117798,"2150 SW 123 AVE","MIAMI","FL",33175,25.7483605570001,-80.393419695,298,"2150 SW 123 AVE, MIAMI, FL, 33175","Match","Exact","2150 SW 123RD AVE, MIAMI, FL, 33175",116089077,"R"
117799,"2150 TOWN SQUARE PLACE SUITE 395","SUGAR LAND","TX",77479,29.596244191,-95.622782951,299,"2150 TOWN SQUARE PLACE SUITE 395, SUGAR LAND, TX, 77479","Match","Exact","2150 TOWN SQUARE PL, SUGAR LAND, TX, 77479",633671865,"L"
117800,"2150 W 18TH STREET STE 202","HOUSTON","TX",77008,29.8016001300001,-95.437176441,300,"2150 W 18TH STREET STE 202, HOUSTON, TX, 77008","Match","Non_Exact","2150 W 18TH ST, HOUSTON, TX, 77008",96552235,"L"
117801,"2150 W ALAMEDA ROAD NO 1137","PHOENIX","AZ",85085,NA,NA,301,"2150 W ALAMEDA ROAD NO 1137, PHOENIX, AZ, 85085","No_Match",NA,NA,NA,NA
117802,"2150 WEST 117TH ST UNIT 1311","CLEVELAND","OH",44111,41.4731476950001,-81.768820163,302,"2150 WEST 117TH ST UNIT 1311, CLEVELAND, OH, 44111","Match","Exact","2150 W 117TH ST, CLEVELAND, OH, 44111",61100714,"R"
117803,"2150 WEST 117TH STREET  NO 1011","CLEVELAND","OH",44111,41.4731476950001,-81.768820163,303,"2150 WEST 117TH STREET  NO 1011, CLEVELAND, OH, 44111","Match","Non_Exact","2150 W 117TH ST, CLEVELAND, OH, 44111",61100714,"R"
117804,"2150 WESTON LANE NORTH","PLYMOUTH","MN",55447,45.0016780060001,-93.482701272,304,"2150 WESTON LANE NORTH, PLYMOUTH, MN, 55447","Match","Non_Exact","2150 WESTON LN, PLYMOUTH, MN, 55447",641220184,"L"
117805,"2150 WILSON AVE STE 112","ST PAUL","MN",55119,44.954047733,-93.009795776,305,"2150 WILSON AVE STE 112, ST PAUL, MN, 55119","Match","Exact","2150 WILSON AVE, SAINT PAUL, MN, 55119",97653747,"R"
117806,"2150","AUBURN","AL",36830,NA,NA,306,"2150, AUBURN, AL, 36830","No_Match",NA,NA,NA,NA
117807,"21500 BISCAYNE BOULEVARD SUITE 403","AVENTURA","FL",33180,NA,NA,307,"21500 BISCAYNE BOULEVARD SUITE 403, AVENTURA, FL, 33180","No_Match",NA,NA,NA,NA
117808,"21500 PARK ROW STE 704","KATY","TX",77449,29.792790929,-95.747143798,308,"21500 PARK ROW STE 704, KATY, TX, 77449","Match","Non_Exact","21500 PARK ROW DR, KATY, TX, 77449",96580038,"L"
117809,"21500 ROCK HALL AVENUE","ROCK HALL","MD",21661,39.138724633,-76.23190419,309,"21500 ROCK HALL AVENUE, ROCK HALL, MD, 21661","Match","Exact","21500 ROCK HALL AVE, ROCK HALL, MD, 21661",612151964,"L"
117810,"21500 WYANDOTTE STREET SUITE 103","CANOGA PARK","CA",91303,34.2028442330001,-118.599121105,310,"21500 WYANDOTTE STREET SUITE 103, CANOGA PARK, CA, 91303","Match","Exact","21500 WYANDOTTE ST, CANOGA PARK, CA, 91303",141533226,"L"
117811,"21501 GODDARD RD","TAYLOR","MI",48180,42.2272409560001,-83.2443886199999,311,"21501 GODDARD RD, TAYLOR, MI, 48180","Match","Exact","21501 GODDARD RD, TAYLOR, MI, 48180",95447353,"L"
117812,"21502 NE 9TH PL","SAMMAMISH","WA",98074,47.617798797,-122.053297303,312,"21502 NE 9TH PL, SAMMAMISH, WA, 98074","Match","Exact","21502 NE 9TH PL, SAMMAMISH, WA, 98074",186683867,"R"
117813,"21502 SILVERHEELS DR","CYPRESS","TX",77433,30.030235885,-95.759226815,313,"21502 SILVERHEELS DR, CYPRESS, TX, 77433","Match","Exact","21502 SILVERHEELS DR, CYPRESS, TX, 77433",648938483,"L"
117814,"21503 MANOR VIEW CIR","GERMANTOWN","MD",20876,39.2088743480001,-77.252220317,314,"21503 MANOR VIEW CIR, GERMANTOWN, MD, 20876","Match","Exact","21503 MANOR VIEW CIR, GERMANTOWN, MD, 20876",62096753,"L"
117815,"21503 RIPKEN COURT","MURFREESBORO","TN",37129,NA,NA,315,"21503 RIPKEN COURT, MURFREESBORO, TN, 37129","No_Match",NA,NA,NA,NA
117816,"21504 STATE HIGHWAY 6","LEWISTOWN","MO",63452,NA,NA,316,"21504 STATE HIGHWAY 6, LEWISTOWN, MO, 63452","No_Match",NA,NA,NA,NA
117817,"21505 W 122ND TERR","OLATHE","KS",66061,38.9058635210001,-94.834679577,317,"21505 W 122ND TERR, OLATHE, KS, 66061","Match","Exact","21505 W 122ND TER, OLATHE, KS, 66061",91321982,"L"
117818,"21506 BRIAR OAK DR","HUMBLE","TX",77338,30.0257477390001,-95.305392882,318,"21506 BRIAR OAK DR, HUMBLE, TX, 77338","Match","Exact","21506 BRIAR OAK DR, HUMBLE, TX, 77338",96045389,"R"
117819,"21506 GOLDEN AUTUMN PL","BROADLANDS","VA",20148,39.021671428,-77.5180767969999,319,"21506 GOLDEN AUTUMN PL, BROADLANDS, VA, 20148","Match","Exact","21506 GOLDEN AUTUMN PL, BROADLANDS, VA, 20148",62341392,"R"
117820,"21508 TRAMP HARBOR RD SW","VASHON","WA",98070,47.4121370600001,-122.439373998,320,"21508 TRAMP HARBOR RD SW, VASHON, WA, 98070","Match","Exact","21508 TRAMP HARBOR RD SW, VASHON, WA, 98070",239759048,"R"
117821,"2150A CAROL DRIVE","LEWISTON","ID",83501,46.399024336,-117.032040154,321,"2150A CAROL DRIVE, LEWISTON, ID, 83501","Match","Exact","2150 CAROL DR, LEWISTON, ID, 83501",173150436,"L"
117822,"2150WEST 117TH STREET 1357","CLEVELAND","OH",44111,NA,NA,322,"2150WEST 117TH STREET 1357, CLEVELAND, OH, 44111","No_Match",NA,NA,NA,NA
117823,"2151 1/4 MONTANA STREET","LOS ANGELES","CA",90026,34.081160078,-118.263056634,323,"2151 1/4 MONTANA STREET, LOS ANGELES, CA, 90026","Match","Exact","2151 MONTANA ST, LOS ANGELES, CA, 90026",141615909,"R"
117824,"2151 42ND AVENUE NORTH","ST PETERSBURG","FL",33714,27.8101979410001,-82.662373359,324,"2151 42ND AVENUE NORTH, ST PETERSBURG, FL, 33714","Match","Exact","2151 42ND AVE N, SAINT PETERSBURG, FL, 33714",124702711,"R"
117825,"2151 ATHERTON ROAD","HONOLULU","HI",96822,21.302385601,-157.823650369,325,"2151 ATHERTON ROAD, HONOLULU, HI, 96822","Match","Exact","2151 ATHERTON RD, HONOLULU, HI, 96822",203237727,"R"
117826,"2151 AUTUMN RD","POPLAR BLUFF","MO",63901,36.771910328,-90.427881881,326,"2151 AUTUMN RD, POPLAR BLUFF, MO, 63901","Match","Exact","2151 AUTUMN RD, POPLAR BLUFF, MO, 63901",47396168,"R"
117827,"2151 BOULDER RD","CHANHASSEN","MN",55317,44.8494885530001,-93.576163725,327,"2151 BOULDER RD, CHANHASSEN, MN, 55317","Match","Exact","2151 BOULDER RD, CHANHASSEN, MN, 55317",43499812,"R"
117828,"2151 BUCKING HORSE LANE","FORT COLLINS","CO",80525,40.5583969240001,-105.034453847,328,"2151 BUCKING HORSE LANE, FORT COLLINS, CO, 80525","Match","Exact","2151 BUCKING HORSE LN, FORT COLLINS, CO, 80525",617919288,"R"
117829,"2151 CARRINGTON LN","MIAMISBURG","OH",45342,39.619656036,-84.252619867,329,"2151 CARRINGTON LN, MIAMISBURG, OH, 45342","Match","Exact","2151 CARRINGTON LN, MIAMISBURG, OH, 45342",143610655,"L"
117830,"2151 CHAMBERLAIN ROAD","LAFAYETTE","GA",30728,34.6779411960001,-85.3416922119999,330,"2151 CHAMBERLAIN ROAD, LAFAYETTE, GA, 30728","Match","Non_Exact","2151 CHAMBERLAIN RD, LA FAYETTE, GA, 30728",66732357,"R"
117831,"2151 E COMMERCIAL BLVD STE 306","FORT LAUDERDALE","FL",33308,26.189347925,-80.1165918579999,331,"2151 E COMMERCIAL BLVD STE 306, FORT LAUDERDALE, FL, 33308","Match","Non_Exact","2151 E COMMERCIAL BLVD, FORT LAUDERDALE, FL, 33308",637111199,"L"
117832,"2151 EAST 99TH PLACE","THORNTON","CO",80229,39.8773150650001,-104.961529296,332,"2151 EAST 99TH PLACE, THORNTON, CO, 80229","Match","Exact","2151 E 99TH PL, THORNTON, CO, 80229",177416351,"L"
117833,"2151 ELM TREE LN","SILVER SPRING","MD",20906,39.0896356550001,-77.046939375,333,"2151 ELM TREE LN, SILVER SPRING, MD, 20906","Match","Exact","2151 ELM TREE LN, SILVER SPRING, MD, 20906",62097831,"R"
117834,"2151 GOLD COURSE ROAD","SCOTT AFB","IL",62225,NA,NA,334,"2151 GOLD COURSE ROAD, SCOTT AFB, IL, 62225","No_Match",NA,NA,NA,NA
117835,"2151 HISKEY ST","POCATELLO","ID",83201,42.9142466980001,-112.419921667,335,"2151 HISKEY ST, POCATELLO, ID, 83201","Match","Exact","2151 HISKEY ST, POCATELLO, ID, 83201",204352383,"L"
117836,"2151 MAIN STREET","NAPA","CA",94559,38.3084586750001,-122.293018282,336,"2151 MAIN STREET, NAPA, CA, 94559","Match","Exact","2151 MAIN ST, NAPA, CA, 94559",67415583,"L"
117837,"2151 MENZEL PLACE","SANTA CLARA","CA",95050,37.3581458850001,-121.962428429,337,"2151 MENZEL PLACE, SANTA CLARA, CA, 95050","Match","Exact","2151 MENZEL PL, SANTA CLARA, CA, 95050",122899035,"R"
117838,"2151 N KRAEMER BLVD","PLACENTIA","CA",92870,33.900877947,-117.863809398,338,"2151 N KRAEMER BLVD, PLACENTIA, CA, 92870","Match","Exact","2151 N KRAEMER BLVD, PLACENTIA, CA, 92870",609050013,"L"
117839,"2151 N ROSSER RD","AJO","AZ",85321,32.3956941270001,-112.868316309,339,"2151 N ROSSER RD, AJO, AZ, 85321","Match","Exact","2151 N ROSSER RD, AJO, AZ, 85321",641020822,"R"
117840,"2151 PANORAMA LN","GRAND PRAIRIE","TX",75052,32.6868015900001,-97.032285246,340,"2151 PANORAMA LN, GRAND PRAIRIE, TX, 75052","Match","Exact","2151 PANORAMA LN, GRAND PRAIRIE, TX, 75052",634122198,"R"
117841,"2151 POND VIEW COURT","RESTON","VA",20191,38.9373997690001,-77.350997564,341,"2151 POND VIEW COURT, RESTON, VA, 20191","Match","Exact","2151 POND VIEW CT, RESTON, VA, 20191",75958647,"L"
117842,"2151 RINGOLD STREET","FLOMATON","FL",36441,NA,NA,342,"2151 RINGOLD STREET, FLOMATON, FL, 36441","No_Match",NA,NA,NA,NA
117843,"2151 S 3 BS AND K ROAD","GALENA","OH",43021,NA,NA,343,"2151 S 3 BS AND K ROAD, GALENA, OH, 43021","Tie",NA,NA,NA,NA
117844,"2151 S COLLEGE DR STE 101","SANTA MARIA","CA",93455,34.921628952,-120.425386708,344,"2151 S COLLEGE DR STE 101, SANTA MARIA, CA, 93455","Match","Non_Exact","2151 S COLLEGE DR, SANTA MARIA, CA, 93455",616216202,"R"
117845,"2151 SALVIO ST STE 512","CONCORD","CA",94520,37.9777290070001,-122.034127708,345,"2151 SALVIO ST STE 512, CONCORD, CA, 94520","Match","Exact","2151 SALVIO ST, CONCORD, CA, 94520",192054508,"L"
117846,"2151 SALVIO ST STE A2 UNIT 331","CONCORD","CA",94520,37.9777290070001,-122.034127708,346,"2151 SALVIO ST STE A2 UNIT 331, CONCORD, CA, 94520","Match","Exact","2151 SALVIO ST, CONCORD, CA, 94520",192054508,"L"
117847,"2151 SALVIO STREET A2 378","CONCORD","CA",94520,37.9777290070001,-122.034127708,347,"2151 SALVIO STREET A2 378, CONCORD, CA, 94520","Match","Exact","2151 SALVIO ST, CONCORD, CA, 94520",192054508,"L"
117848,"2151 SEMINOLE","DETROIT","MI",48214,42.359929644,-82.997505603,348,"2151 SEMINOLE, DETROIT, MI, 48214","Match","Non_Exact","2151 SEMINOLE ST, DETROIT, MI, 48214",95484037,"L"
117849,"2151 SILAS CREEK PARKWAY","WINSTON-SALEM","NC",27103,36.070037234,-80.2719742639999,349,"2151 SILAS CREEK PARKWAY, WINSTON-SALEM, NC, 27103","Match","Non_Exact","2151 SILAS CREEK PKWY SW, WINSTON SALEM, NC, 27103",640151430,"R"
117850,"2151 SILVA CT","CONLEY","GA",30288,33.6573075380001,-84.3036523,350,"2151 SILVA CT, CONLEY, GA, 30288","Match","Exact","2151 SILVA CT, CONLEY, GA, 30288",627546829,"R"
117851,"2151 SW 23 AVENUE","FORT LAUDERDALE","FL",33312,26.097198587,-80.1720399119999,351,"2151 SW 23 AVENUE, FORT LAUDERDALE, FL, 33312","Match","Exact","2151 SW 23RD AVE, FORT LAUDERDALE, FL, 33312",636370025,"R"
117852,"2151 TRANSIT ROAD SUITE A","ELMA","NY",14059,42.8252410750001,-78.6969237609999,352,"2151 TRANSIT ROAD SUITE A, ELMA, NY, 14059","Match","Exact","2151 TRANSIT RD, ELMA, NY, 14059",48308150,"R"
117853,"2151 VILLAGE WALK DR APT 20205","HENDERSON","NV",89012,36.022642519,-115.081457277,353,"2151 VILLAGE WALK DR APT 20205, HENDERSON, NV, 89012","Match","Exact","2151 VILLAGE WALK DR, HENDERSON, NV, 89012",646658294,"R"
117854,"21510 ROSCOE BLVD","CANOGA PARK","CA",91304,34.2197642080001,-118.599044892,354,"21510 ROSCOE BLVD, CANOGA PARK, CA, 91304","Match","Exact","21510 ROSCOE BLVD, CANOGA PARK, CA, 91304",141533165,"L"
117855,"21511 GABLE MEADOWS LN","SPRING","TX",77379,30.079917063,-95.527735579,355,"21511 GABLE MEADOWS LN, SPRING, TX, 77379","Match","Exact","21511 GABLE MEADOWS LN, SPRING, TX, 77379",637600910,"R"
117856,"21512 BROADWELL AVE","TORRANCE","CA",90502,33.8325650620001,-118.293025037,356,"21512 BROADWELL AVE, TORRANCE, CA, 90502","Match","Exact","21512 BROADWELL AVE, TORRANCE, CA, 90502",141774656,"R"
117857,"21512 DEQUINDRE APT 201","WARREN","MI",48091,42.4531403990001,-83.083626424,357,"21512 DEQUINDRE APT 201, WARREN, MI, 48091","Match","Non_Exact","21512 DEQUINDRE RD, WARREN, MI, 48091",642575224,"R"
117858,"21512 N 68TH DR","GLENDALE","AZ",85308,33.6798066060001,-112.205986286,358,"21512 N 68TH DR, GLENDALE, AZ, 85308","Match","Exact","21512 N 68TH DR, GLENDALE, AZ, 85308",128394645,"R"
117859,"21512 WEST STATE ROUTE","CHENEY","WA",99004,NA,NA,359,"21512 WEST STATE ROUTE, CHENEY, WA, 99004","No_Match",NA,NA,NA,NA
117860,"21513 TERRACE DR","CUPERTINO","CA",95014,37.3051907670001,-122.050629776,360,"21513 TERRACE DR, CUPERTINO, CA, 95014","Match","Exact","21513 TERRACE DR, CUPERTINO, CA, 95014",122939790,"R"
117861,"21514 CRAINFELD DRIVE","RICHMOND","TX",77407,29.692506048,-95.753569995,361,"21514 CRAINFELD DRIVE, RICHMOND, TX, 77407","Match","Exact","21514 CRAINFELD DR, RICHMOND, TX, 77407",648704938,"R"
117862,"21514 EGRET DRIVE","CREST HILL","IL",60403,41.585161197,-88.140931453,362,"21514 EGRET DRIVE, CREST HILL, IL, 60403","Match","Exact","21514 EGRET DR, CREST HILL, IL, 60403",111635897,"L"
117863,"21515 CRANE STREET","DOWAGIAC","MI",49047,42.027040411,-85.983180623,363,"21515 CRANE STREET, DOWAGIAC, MI, 49047","Match","Exact","21515 CRANE ST, DOWAGIAC, MI, 49047",624740447,"L"
117864,"21515 HAWTHORN BLVD SUITE 200","TORRANCE","CA",90503,NA,NA,364,"21515 HAWTHORN BLVD SUITE 200, TORRANCE, CA, 90503","No_Match",NA,NA,NA,NA
117865,"21515 HAWTHORNE BLVD STE 1059","TORRANCE","CA",90503,33.8335458610001,-118.353024349,365,"21515 HAWTHORNE BLVD STE 1059, TORRANCE, CA, 90503","Match","Exact","21515 HAWTHORNE BLVD, TORRANCE, CA, 90503",241196685,"L"
117866,"21515 HAWTHORNE BLVD STE 200","TORRANCE","CA",90503,33.8335458610001,-118.353024349,366,"21515 HAWTHORNE BLVD STE 200, TORRANCE, CA, 90503","Match","Exact","21515 HAWTHORNE BLVD, TORRANCE, CA, 90503",241196685,"L"
117867,"21515 HAWTHORNE BLVD STE 265","TORRANCE","CA",90503,33.8335458610001,-118.353024349,367,"21515 HAWTHORNE BLVD STE 265, TORRANCE, CA, 90503","Match","Exact","21515 HAWTHORNE BLVD, TORRANCE, CA, 90503",241196685,"L"
117868,"21515 HAWTHORNE BLVD SUITE 1250","TORRANCE","CA",90503,33.8335458610001,-118.353024349,368,"21515 HAWTHORNE BLVD SUITE 1250, TORRANCE, CA, 90503","Match","Exact","21515 HAWTHORNE BLVD, TORRANCE, CA, 90503",241196685,"L"
117869,"21515 HAWTHRONE SUITE 204","TORRANCE","CA",90503,NA,NA,369,"21515 HAWTHRONE SUITE 204, TORRANCE, CA, 90503","No_Match",NA,NA,NA,NA
117870,"21517 HALLDALE AVE","TORRANCE","CA",90501,33.833320159,-118.301641227,370,"21517 HALLDALE AVE, TORRANCE, CA, 90501","Match","Exact","21517 HALLDALE AVE, TORRANCE, CA, 90501",141668505,"R"
117871,"21518 BLUEBONNET MEADOW LN","SPRING","TX",77388,30.0761803710001,-95.469265943,371,"21518 BLUEBONNET MEADOW LN, SPRING, TX, 77388","Match","Exact","21518 BLUEBONNET MEADOW LN, SPRING, TX, 77388",96161318,"R"
117872,"21518 MOUNT VIEW DRIVE","LAGO VISTA","TX",78645,30.438903392,-98.014632541,372,"21518 MOUNT VIEW DRIVE, LAGO VISTA, TX, 78645","Match","Exact","21518 MOUNT VIEW DR, LAGO VISTA, TX, 78645",63919621,"R"
117873,"2152 13TH ST","ENCINITAS","CA",92024,33.057255007,-117.234543715,373,"2152 13TH ST, ENCINITAS, CA, 92024","Match","Exact","2152 13TH ST, ENCINITAS, CA, 92024",195658411,"L"
117874,"2152 ARNDALE ROAD","STOW","OH",44224,41.182487757,-81.4307646,374,"2152 ARNDALE ROAD, STOW, OH, 44224","Match","Exact","2152 ARNDALE RD, STOW, OH, 44224",61347070,"R"
117875,"2152 AUDUBON TRAIL","MIDDLETOWN","DE",19709,39.512956671,-75.675370075,375,"2152 AUDUBON TRAIL, MIDDLETOWN, DE, 19709","Match","Exact","2152 AUDUBON TRL, MIDDLETOWN, DE, 19709",648956905,"R"
117876,"2152 BOWERS AVENUE SUITE 4","SANTA CLARA","CA",95051,37.361767667,-121.975487009,376,"2152 BOWERS AVENUE SUITE 4, SANTA CLARA, CA, 95051","Match","Exact","2152 BOWERS AVE, SANTA CLARA, CA, 95051",618169353,"L"
117877,"2152 E GOLF AVENUE","TEMPE","AZ",85282,33.395486002,-111.893919297,377,"2152 E GOLF AVENUE, TEMPE, AZ, 85282","Match","Exact","2152 E GOLF AVE, TEMPE, AZ, 85282",128965518,"L"
117878,"2152 EAST MAIN ST","WATERBURY","CT",6702,NA,NA,378,"2152 EAST MAIN ST, WATERBURY, CT, 6702","No_Match",NA,NA,NA,NA
117879,"2152 EVERGREEN ST","BIRMINGHAM","AL",35217,33.5962504980001,-86.750281091,379,"2152 EVERGREEN ST, BIRMINGHAM, AL, 35217","Match","Exact","2152 EVERGREEN ST, BIRMINGHAM, AL, 35217",627297599,"L"
117880,"2152 LENOX AVENUE","DECATUR","GA",30035,33.7326594630001,-84.1974784349999,380,"2152 LENOX AVENUE, DECATUR, GA, 30035","Match","Exact","2152 LENOX AVE, DECATUR, GA, 30035",627355165,"R"
117881,"2152 MAPLEDALE ROAD","ELIZABETHTOWN","PA",17022,40.2106045790001,-76.5980203299999,381,"2152 MAPLEDALE ROAD, ELIZABETHTOWN, PA, 17022","Match","Exact","2152 MAPLEDALE RD, ELIZABETHTOWN, PA, 17022",636360994,"R"
117882,"2152 N 28TH STREET","PHILADELPHIA","PA",19121,39.988454204,-75.178784814,382,"2152 N 28TH STREET, PHILADELPHIA, PA, 19121","Match","Exact","2152 N 28TH ST, PHILADELPHIA, PA, 19121",131402167,"L"
117883,"2152 N MAPLEWOOD AVENUE","CHICAGO","IL",60647,41.9208516360001,-87.6913858899999,383,"2152 N MAPLEWOOD AVENUE, CHICAGO, IL, 60647","Match","Exact","2152 N MAPLEWOOD AVE, CHICAGO, IL, 60647",111762995,"L"
117884,"2152 RALPH AVENUE SUITE 855","BROOKLYN","NY",11234,40.625222256,-73.9178413669999,384,"2152 RALPH AVENUE SUITE 855, BROOKLYN, NY, 11234","Match","Exact","2152 RALPH AVE, BROOKLYN, NY, 11234",59098198,"R"
117885,"2152 S GARY PLACE","TULSA","OK",74114,36.1314732660001,-95.94107589,385,"2152 S GARY PLACE, TULSA, OK, 74114","Match","Exact","2152 S GARY PL, TULSA, OK, 74114",166449259,"R"
117886,"2152 SE BEAVER CREEK LANE","TROUTDALE","OR",97060,45.5263654770001,-122.383562721,386,"2152 SE BEAVER CREEK LANE, TROUTDALE, OR, 97060","Match","Exact","2152 SE BEAVER CREEK LN, TROUTDALE, OR, 97060",157530045,"L"
117887,"2152 STAUNTON-SUGAR GROVE ROAD","WASHINGTON COURTHOUS","OH",43160,NA,NA,387,"2152 STAUNTON-SUGAR GROVE ROAD, WASHINGTON COURTHOUS, OH, 43160","No_Match",NA,NA,NA,NA
117888,"2152 UPPER AFTON RD E","ST PAUL","MN",55119,44.941045016,-93.009448301,388,"2152 UPPER AFTON RD E, ST PAUL, MN, 55119","Match","Non_Exact","2152 UPPER AFTON RD, SAINT PAUL, MN, 55119",97655115,"R"
117889,"2152 UPPER AFTON ROAD E","ST PAUL","MN",55119,44.941045016,-93.009448301,389,"2152 UPPER AFTON ROAD E, ST PAUL, MN, 55119","Match","Non_Exact","2152 UPPER AFTON RD, SAINT PAUL, MN, 55119",97655115,"R"
117890,"2152","ASHLAND","VA",23005,NA,NA,390,"2152, ASHLAND, VA, 23005","No_Match",NA,NA,NA,NA
117891,"21520 YORBA LINDA BLVD STE G228","YORBA LINDA","CA",92887,NA,NA,391,"21520 YORBA LINDA BLVD STE G228, YORBA LINDA, CA, 92887","No_Match",NA,NA,NA,NA
117892,"21520 YORBA LINDA BOULEVARD G-548","YORBA LINDA","CA",92887,NA,NA,392,"21520 YORBA LINDA BOULEVARD G-548, YORBA LINDA, CA, 92887","No_Match",NA,NA,NA,NA
117893,"21521 45TH AVE SE","BOTHELL","WA",98021,47.8025897750001,-122.172804721,393,"21521 45TH AVE SE, BOTHELL, WA, 98021","Match","Exact","21521 45TH AVE SE, BOTHELL, WA, 98021",653887336,"R"
117894,"21525 TRUMPETER DRIVE","LAND O LAKES","FL",34639,28.211275232,-82.4593314319999,394,"21525 TRUMPETER DRIVE, LAND O LAKES, FL, 34639","Match","Exact","21525 TRUMPETER DR, LAND O LAKES, FL, 34639",86383913,"R"
117895,"21527 TATTON CREST CT","SPRING","TX",77388,30.0773812360001,-95.5098512659999,395,"21527 TATTON CREST CT, SPRING, TX, 77388","Match","Exact","21527 TATTON CREST CT, SPRING, TX, 77388",641749691,"L"
117896,"21528 WIND HAM RUN","ESTERO","FL",33928,26.429631359,-81.7751653029999,396,"21528 WIND HAM RUN, ESTERO, FL, 33928","Match","Non_Exact","21528 WINDHAM RUN, ESTERO, FL, 33928",118113840,"R"
117897,"2153 DOUGS WAY","HEISKELL","TN",37754,36.113066158,-84.01575662,397,"2153 DOUGS WAY, HEISKELL, TN, 37754","Match","Exact","2153 DOUGS WAY, HEISKELL, TN, 37754",42665014,"L"
117898,"2153 EAST MAIN STREET SUITE C14-334","DUNCAN","SC",29334,34.8888259330001,-82.071567616,398,"2153 EAST MAIN STREET SUITE C14-334, DUNCAN, SC, 29334","Match","Exact","2153 E MAIN ST, DUNCAN, SC, 29334",19500501,"R"
117899,"2153 ELM TREE LANE","SILVER SPRING","MD",20906,39.0896285690001,-77.046964176,399,"2153 ELM TREE LANE, SILVER SPRING, MD, 20906","Match","Exact","2153 ELM TREE LN, SILVER SPRING, MD, 20906",62097831,"R"
117900,"2153 FLORIDA LN","DURHAM","CA",95938,NA,NA,400,"2153 FLORIDA LN, DURHAM, CA, 95938","No_Match",NA,NA,NA,NA
117901,"2153 GEORGE THOMAS ROAD","TEXARKANA","TX",75501,33.318944774,-94.077920563,401,"2153 GEORGE THOMAS ROAD, TEXARKANA, TX, 75501","Match","Exact","2153 GEORGE THOMAS RD, TEXARKANA, TX, 75501",57688354,"R"
117902,"2153 HANDEL ACE","HENDERSON","NV",89052,35.9785141340001,-115.080693309,402,"2153 HANDEL ACE, HENDERSON, NV, 89052","Match","Non_Exact","2153 HANDEL AVE, HENDERSON, NV, 89052",202006347,"L"
117903,"2153 JUNO AVENUE","SAINT PAUL","MN",55116,44.926146218,-93.191007441,403,"2153 JUNO AVENUE, SAINT PAUL, MN, 55116","Match","Non_Exact","2153 W JUNO AVE, SAINT PAUL, MN, 55116",97639534,"R"
117904,"2153 LAKEVIEW DRIVE APT 38","YPSILANTI","MI",48198,42.215334225,-83.570366212,404,"2153 LAKEVIEW DRIVE APT 38, YPSILANTI, MI, 48198","Match","Exact","2153 LAKEVIEW DR, YPSILANTI, MI, 48198",26033380,"L"
117905,"2153 N FOREST TRL","DUNWOODY","GA",30338,33.9252794940001,-84.2970747319999,405,"2153 N FOREST TRL, DUNWOODY, GA, 30338","Match","Exact","2153 N FOREST TRL, DUNWOODY, GA, 30338",23411345,"L"
117906,"2153 NE VINE ST","ROSEBURG","OR",97470,43.234856252,-123.347275746,406,"2153 NE VINE ST, ROSEBURG, OR, 97470","Match","Exact","2153 NE VINE ST, ROSEBURG, OR, 97470",649815532,"R"
117907,"2153 PAMELA DRIVE","HOLIDAY","FL",34690,28.190660376,-82.731009399,407,"2153 PAMELA DRIVE, HOLIDAY, FL, 34690","Match","Exact","2153 PAMELA DR, HOLIDAY, FL, 34690",86351036,"L"
117908,"2153 PASQUAL DRIVE","ROSEVILLE","CA",95661,38.7559309860001,-121.24869331,408,"2153 PASQUAL DRIVE, ROSEVILLE, CA, 95661","Match","Exact","2153 PASQUAL DR, ROSEVILLE, CA, 95661",648500452,"L"
117909,"2153 S NIELSON ST","GILBERT","AZ",85295,33.3111656400001,-111.763238443,409,"2153 S NIELSON ST, GILBERT, AZ, 85295","Match","Exact","2153 S NIELSON ST, GILBERT, AZ, 85295",128810433,"R"
117910,"2153 S STAGECOACH DR","OLATHE","KS",66062,38.8485499510001,-94.791923964,410,"2153 S STAGECOACH DR, OLATHE, KS, 66062","Match","Exact","2153 S STAGECOACH DR, OLATHE, KS, 66062",91300869,"R"
117911,"2153 SE HAWTHORNE RD SUITE 208","GAINESVILLE","FL",32641,29.6461139090001,-82.295936234,411,"2153 SE HAWTHORNE RD SUITE 208, GAINESVILLE, FL, 32641","Match","Non_Exact","2153 SE HAWTHORNE RD, GAINESVILLE, FL, 32641",637948860,"R"
117912,"2153 SE HAWTHORNE ROAD","GAINESVILLE","FL",32641,29.6461139090001,-82.295936234,412,"2153 SE HAWTHORNE ROAD, GAINESVILLE, FL, 32641","Match","Exact","2153 SE HAWTHORNE RD, GAINESVILLE, FL, 32641",637948860,"R"
117913,"2153 SE HIGHWAY 41","MORRISTON","FL",32668,29.2996457450001,-82.4484570239999,413,"2153 SE HIGHWAY 41, MORRISTON, FL, 32668","Match","Non_Exact","2153 US HWY 41, MORRISTON, FL, 32668",43321318,"R"
117914,"2153 SMOKE ROAD","VALPARAISO","IN",46385,41.4398710200001,-87.065920911,414,"2153 SMOKE ROAD, VALPARAISO, IN, 46385","Match","Exact","2153 SMOKE RD, VALPARAISO, IN, 46385",119930085,"L"
117915,"2153 US HWY 73","HIAWATHA","KS",66434,39.8188105080001,-95.5270809469999,415,"2153 US HWY 73, HIAWATHA, KS, 66434","Match","Exact","2153 US HWY 73, HIAWATHA, KS, 66434",636647215,"L"
117916,"21530 CALIFA STREET UNIT 330","WOODLAND HILLS","CA",91367,34.1772250080001,-118.599297833,416,"21530 CALIFA STREET UNIT 330, WOODLAND HILLS, CA, 91367","Match","Exact","21530 CALIFA ST, WOODLAND HILLS, CA, 91367",624578727,"L"
117917,"21530","EASPOINTE","MI",48021,NA,NA,417,"21530, EASPOINTE, MI, 48021","No_Match",NA,NA,NA,NA
117918,"21531 MANOR VIEW CIRCLE","GERMANTOWN","MD",20876,39.2078053500001,-77.25045585,418,"21531 MANOR VIEW CIRCLE, GERMANTOWN, MD, 20876","Match","Exact","21531 MANOR VIEW CIR, GERMANTOWN, MD, 20876",62091968,"L"
117919,"21531 S LAKE SHORE","EUCLID","OH",44123,41.6004289840001,-81.53017383,419,"21531 S LAKE SHORE, EUCLID, OH, 44123","Match","Non_Exact","21531 S LAKE SHORE BLVD, EUCLID, OH, 44123",61108354,"L"
117920,"21533 E LAYTON DRIVE","AURORA","CO",80015,39.6293778300001,-104.739718205,420,"21533 E LAYTON DRIVE, AURORA, CO, 80015","Match","Exact","21533 E LAYTON DR, AURORA, CO, 80015",617955249,"L"
117921,"21534 E 32ND STREET SOUTH","BROKEN ARROW","OK",74014,36.1176104030001,-95.7373932629999,421,"21534 E 32ND STREET SOUTH, BROKEN ARROW, OK, 74014","Match","Exact","21534 E 32ND ST S, BROKEN ARROW, OK, 74014",640166897,"R"
117922,"21534 TRANBARGER RD","BRISTOL","VA",24202,36.6352540140001,-82.1638261099999,422,"21534 TRANBARGER RD, BRISTOL, VA, 24202","Match","Exact","21534 TRANBARGER RD, BRISTOL, VA, 24202",154373847,"L"
117923,"21535 ROSCOE BLVD SUITE 324","CANOGA PARK","CA",91304,34.21976306,-118.599802557,423,"21535 ROSCOE BLVD SUITE 324, CANOGA PARK, CA, 91304","Match","Exact","21535 ROSCOE BLVD, CANOGA PARK, CA, 91304",141533165,"R"
117924,"21535 VAN BORN","TAYLOR","MI",48180,42.2695629520001,-83.2464570819999,424,"21535 VAN BORN, TAYLOR, MI, 48180","Match","Non_Exact","21535 VAN BORN RD, TAYLOR, MI, 48180",95445319,"L"
117925,"21537 EAST 58TH AVENUE SE","HAWTHORNE","FL",32640,NA,NA,425,"21537 EAST 58TH AVENUE SE, HAWTHORNE, FL, 32640","No_Match",NA,NA,NA,NA
117926,"21539 BEAR CREEK ROAD","BEND","OR",97701,44.0513123210001,-121.246499586,426,"21539 BEAR CREEK ROAD, BEND, OR, 97701","Match","Exact","21539 BEAR CREEK RD, BEND, OR, 97701",152558488,"L"
117927,"2154 250TH STREET NW","OXFORD","IA",52322,41.7530360870001,-91.719425647,427,"2154 250TH STREET NW, OXFORD, IA, 52322","Match","Exact","2154 250TH ST NW, OXFORD, IA, 52322",84499290,"R"
117928,"2154 9TH AVENUE SOUTH UNIT D","ST PETERSBURG","FL",33712,27.76107654,-82.662464062,428,"2154 9TH AVENUE SOUTH UNIT D, ST PETERSBURG, FL, 33712","Match","Exact","2154 9TH AVE S, SAINT PETERSBURG, FL, 33712",124706283,"L"
117929,"2154 ALEX AVE SE","SALEM","OR",97302,44.88392917,-123.015440217,429,"2154 ALEX AVE SE, SALEM, OR, 97302","Match","Exact","2154 ALEX AVE SE, SALEM, OR, 97302",635861129,"R"
117930,"2154 BELVEDERE DRIVE","JACKSON","MS",39204,32.2779621280001,-90.227091312,430,"2154 BELVEDERE DRIVE, JACKSON, MS, 39204","Match","Exact","2154 BELVEDERE DR, JACKSON, MS, 39204",65367648,"L"
117931,"2154 CAINHOY ROAD","HUGER","SC",29450,33.0026024690001,-79.849580402,431,"2154 CAINHOY ROAD, HUGER, SC, 29450","Match","Exact","2154 CAINHOY RD, HUGER, SC, 29450",605123050,"R"
117932,"2154 CAMERON CIRCLE","BIRMINGHAM","AL",35242,33.427672758,-86.655011795,432,"2154 CAMERON CIRCLE, BIRMINGHAM, AL, 35242","Match","Exact","2154 CAMERON CIR, BIRMINGHAM, AL, 35242",82084055,"L"
117933,"2154 CLOVERFIELD DRIVE","LEBANON","PW",17046,NA,NA,433,"2154 CLOVERFIELD DRIVE, LEBANON, PW, 17046","No_Match",NA,NA,NA,NA
117934,"2154 DOLL BENNETT RD","MILLWOOD","GA",31552,31.2392183790001,-82.6394780319999,434,"2154 DOLL BENNETT RD, MILLWOOD, GA, 31552","Match","Exact","2154 DOLL BENNETT RD, MILLWOOD, GA, 31552",5252172,"R"
117935,"2154 EAST 4TH STREET","BROOKLYN","NY",11223,40.597937358,-73.967848706,435,"2154 EAST 4TH STREET, BROOKLYN, NY, 11223","Match","Exact","2154 E 4TH ST, BROOKLYN, NY, 11223",59090906,"R"
117936,"2154 HACIENDA TER","WESTON","FL",33327,26.132780483,-80.423491655,436,"2154 HACIENDA TER, WESTON, FL, 33327","Match","Exact","2154 HACIENDA TER, WESTON, FL, 33327",114814263,"R"
117937,"2154 LOWELL PARK ROAD","DIXON","IL",61021,41.8963117750001,-89.495151752,437,"2154 LOWELL PARK ROAD, DIXON, IL, 61021","Match","Exact","2154 LOWELL PARK RD, DIXON, IL, 61021",48741647,"R"
117938,"2154 MARCHFIELD WAY","BEAVERCREEK","OH",45434,39.7219904230001,-84.013640767,438,"2154 MARCHFIELD WAY, BEAVERCREEK, OH, 45434","Match","Exact","2154 MARCHFIELD WAY, BEAVERCREEK, OH, 45434",630212126,"L"
117939,"2154 MCCORMICK DR","SALINE","MI",48176,42.1985258170001,-83.771023132,439,"2154 MCCORMICK DR, SALINE, MI, 48176","Match","Exact","2154 MCCORMICK DR, SALINE, MI, 48176",26032229,"R"
117940,"2154 RUSSET MEADOWS LN","BIRMINGHAM","AL",35244,33.3242443080001,-86.9021335259999,440,"2154 RUSSET MEADOWS LN, BIRMINGHAM, AL, 35244","Match","Exact","2154 RUSSET MEADOWS LN, BIRMINGHAM, AL, 35244",81690252,"L"
117941,"2154 SALT MARSH CT","LEAGUE CITY","TX",77573,29.479303923,-95.128588061,441,"2154 SALT MARSH CT, LEAGUE CITY, TX, 77573","Match","Exact","2154 SALT MARSH CT, LEAGUE CITY, TX, 77573",96742484,"L"
117942,"2154 SAPONI VILLAGE COURT","WINSTON SALEM","NC",27127,36.0073201600001,-80.2831507239999,442,"2154 SAPONI VILLAGE COURT, WINSTON SALEM, NC, 27127","Match","Exact","2154 SAPONI VILLAGE CT, WINSTON SALEM, NC, 27127",84680095,"L"
117943,"2154 UNIVERSITY SQUARE MALL","TAMPA","FL",33612,NA,NA,443,"2154 UNIVERSITY SQUARE MALL, TAMPA, FL, 33612","No_Match",NA,NA,NA,NA
117944,"2154 W 38TH PLACE","DAVENPORT","IA",52806,41.5593108640001,-90.6084928239999,444,"2154 W 38TH PLACE, DAVENPORT, IA, 52806","Match","Exact","2154 W 38TH PL, DAVENPORT, IA, 52806",122716132,"R"
117945,"2154 W NORTHWEST HWY STE 214","DALLAS","TX",75220,NA,NA,445,"2154 W NORTHWEST HWY STE 214, DALLAS, TX, 75220","No_Match",NA,NA,NA,NA
117946,"2154 WASECA LANE","LEESBURG","FL",34748,28.8415031650001,-81.886864111,446,"2154 WASECA LANE, LEESBURG, FL, 34748","Match","Exact","2154 WASECA LN, LEESBURG, FL, 34748",617506738,"R"
117947,"21540 N PINE LAKE CT","KILDEER","IL",60047,42.175760795,-88.0599004649999,447,"21540 N PINE LAKE CT, KILDEER, IL, 60047","Match","Exact","21540 PINE LAKE CT, KILDEER, IL, 60047",119648503,"R"
117948,"21547 SOUTHERN CHARM DRIVE","LAND O LAKES","FL",34637,28.277562157,-82.459517738,448,"21547 SOUTHERN CHARM DRIVE, LAND O LAKES, FL, 34637","Match","Exact","21547 SOUTHERN CHARM DR, LAND O LAKES, FL, 34637",634647775,"R"
117949,"21548 ARORA HEIGHTS DR","BROADLANDS","VA",20148,39.0204937720001,-77.5292074939999,449,"21548 ARORA HEIGHTS DR, BROADLANDS, VA, 20148","Match","Exact","21548 ARORA HEIGHTS DR, BROADLANDS, VA, 20148",624938027,"R"
117950,"2154C ROCKWELL AVE","CLEVELAND","OH",44114,41.508546181,-81.678501669,450,"2154C ROCKWELL AVE, CLEVELAND, OH, 44114","Match","Exact","2154 ROCKWELL AVE, CLEVELAND, OH, 44114",61110889,"R"
117951,"2155 ANDOVER PL","CAMBRIA","CA",93428,35.5578475550001,-121.087563972,451,"2155 ANDOVER PL, CAMBRIA, CA, 93428","Match","Exact","2155 ANDOVER PL, CAMBRIA, CA, 93428",109752052,"R"
117952,"2155 ARKANSAS LANE  UNIT 1334","GRAND PRAIRIE","TX",75052,32.7056002730001,-97.0330921569999,452,"2155 ARKANSAS LANE  UNIT 1334, GRAND PRAIRIE, TX, 75052","Match","Exact","2155 ARKANSAS LN, GRAND PRAIRIE, TX, 75052",618738970,"L"
117953,"2155 ASPEN RIDGE CT APT 202","WINSTON SALEM","NC",27103,36.058755166,-80.31116019,453,"2155 ASPEN RIDGE CT APT 202, WINSTON SALEM, NC, 27103","Match","Exact","2155 ASPEN RIDGE CT, WINSTON SALEM, NC, 27103",623785260,"R"
117954,"2155 BAHIA VISTA STREET","SARASOTA","FL",34239,27.3228612950001,-82.525662876,454,"2155 BAHIA VISTA STREET, SARASOTA, FL, 34239","Match","Exact","2155 BAHIA VISTA ST, SARASOTA, FL, 34239",16351362,"R"
117955,"2155 CARTER AVENUE","ASHLAND","KY",41101,38.4744450520001,-82.633748515,455,"2155 CARTER AVENUE, ASHLAND, KY, 41101","Match","Exact","2155 CARTER AVE, ASHLAND, KY, 41101",151047948,"L"
117956,"2155 COMMERCIAL DRIVE","PLAINFIELD","IN",46168,39.6819695130001,-86.3516937959999,456,"2155 COMMERCIAL DRIVE, PLAINFIELD, IN, 46168","Match","Exact","2155 COMMERCIAL DR, PLAINFIELD, IN, 46168",89235380,"L"
117957,"2155 DICKENS STREET","MOBILE","AL",36617,30.718111138,-88.079010382,457,"2155 DICKENS STREET, MOBILE, AL, 36617","Match","Exact","2155 DICKENS ST, MOBILE, AL, 36617",61860631,"L"
117958,"2155 DUBLIN RD","COLUMBUS","OH",43228,39.998585963,-83.090059157,458,"2155 DUBLIN RD, COLUMBUS, OH, 43228","Match","Exact","2155 DUBLIN RD, COLUMBUS, OH, 43228",218689925,"L"
117959,"2155 DUBLIN ROAD","COLUMBUS","OH",43228,39.998585963,-83.090059157,459,"2155 DUBLIN ROAD, COLUMBUS, OH, 43228","Match","Exact","2155 DUBLIN RD, COLUMBUS, OH, 43228",218689925,"L"
117960,"2155 E 83RD STREET","CHICAGO","IL",60617,41.7443869160001,-87.5715436469999,460,"2155 E 83RD STREET, CHICAGO, IL, 60617","Match","Exact","2155 E 83RD ST, CHICAGO, IL, 60617",605558162,"R"
117961,"2155 E MCMANUS DRIVE","PALM SPRINGS","CA",92262,33.827485333,-116.523133882,461,"2155 E MCMANUS DRIVE, PALM SPRINGS, CA, 92262","Match","Exact","2155 E MCMANUS DR, PALM SPRINGS, CA, 92262",194763652,"R"
117962,"2155 E MINTON DR","TEMPE","AZ",85282,33.382055915,-111.893977361,462,"2155 E MINTON DR, TEMPE, AZ, 85282","Match","Exact","2155 E MINTON DR, TEMPE, AZ, 85282",128239351,"R"
117963,"2155 EAGLEWOOD DR","NEWBURGH","IN",47630,38.003238212,-87.379644616,463,"2155 EAGLEWOOD DR, NEWBURGH, IN, 47630","Match","Exact","2155 EAGLEWOOD DR, NEWBURGH, IN, 47630",600646444,"L"
117964,"2155 EAST MINTON DR","TEMPE","AZ",85282,33.382055915,-111.893977361,464,"2155 EAST MINTON DR, TEMPE, AZ, 85282","Match","Exact","2155 E MINTON DR, TEMPE, AZ, 85282",128239351,"R"
117965,"2155 FELSPAR STREET 5","SAN DIEGO","CA",92109,32.802956341,-117.230979147,465,"2155 FELSPAR STREET 5, SAN DIEGO, CA, 92109","Match","Exact","2155 FELSPAR ST, SAN DIEGO, CA, 92109",195303208,"R"
117966,"2155 FRANCIS AVE","SANTA CLARA","CA",95051,37.360925637,-121.979784163,466,"2155 FRANCIS AVE, SANTA CLARA, CA, 95051","Match","Exact","2155 FRANCIS AVE, SANTA CLARA, CA, 95051",122898640,"R"
117967,"2155 GRANT AVE APT 153","OGDEN","UT",84401,41.2279317520001,-111.973142648,467,"2155 GRANT AVE APT 153, OGDEN, UT, 84401","Match","Exact","2155 GRANT AVE, OGDEN, UT, 84401",635612783,"R"
117968,"2155 HAMMOND DR","TAYLORSVILLE","UT",84129,40.6521608250001,-111.947591889,468,"2155 HAMMOND DR, TAYLORSVILLE, UT, 84129","Match","Exact","2155 HAMMOND DR, TAYLORSVILLE, UT, 84129",176075740,"R"
117969,"2155 HARNED DR","TROY","MI",48085,42.622483324,-83.107652778,469,"2155 HARNED DR, TROY, MI, 48085","Match","Exact","2155 HARNED DR, TROY, MI, 48085",69784304,"L"
117970,"2155 HILLSIDE AVE","MEMPHIS","TN",38127,35.234456778,-89.992026604,470,"2155 HILLSIDE AVE, MEMPHIS, TN, 38127","Match","Exact","2155 HILLSIDE AVE, MEMPHIS, TN, 38127",72897986,"R"
117971,"2155 JUDGE FRAN JAMIESON WAY 308","VIERA","FL",32940,28.2478212240001,-80.72853223,471,"2155 JUDGE FRAN JAMIESON WAY 308, VIERA, FL, 32940","Match","Exact","2155 JUDGE FRAN JAMIESON WAY, VIERA, FL, 32940",640619586,"L"
117972,"2155 KING CROSS STREET SUITE 4","CHRISTIANSTED","VI",820,NA,NA,472,"2155 KING CROSS STREET SUITE 4, CHRISTIANSTED, VI, 820","No_Match",NA,NA,NA,NA
117973,"2155 OCEAN AVE SUITE A","RONKONKOMA","NY",11779,40.7933555220001,-73.122206315,473,"2155 OCEAN AVE SUITE A, RONKONKOMA, NY, 11779","Match","Exact","2155 OCEAN AVE, RONKONKOMA, NY, 11779",114245180,"R"
117974,"2155 PINEVIEW DRIVE","TYLER","TX",75704,32.3542041470001,-95.383553513,474,"2155 PINEVIEW DRIVE, TYLER, TX, 75704","Match","Exact","2155 PINEVIEW DR, TYLER, TX, 75704",141268446,"R"
117975,"2155 ROLLING HILLS DR SE","GRAND RAPIDS","MI",49546,42.9242535380001,-85.607648297,475,"2155 ROLLING HILLS DR SE, GRAND RAPIDS, MI, 49546","Match","Exact","2155 ROLLING HILLS DR SE, GRAND RAPIDS, MI, 49546",12463085,"R"
117976,"2155 S ST","EUREKA","CA",95501,40.7878240210001,-124.149054622,476,"2155 S ST, EUREKA, CA, 95501","Match","Exact","2155 S ST, EUREKA, CA, 95501",645213968,"R"
117977,"2155 TWIN LAKES BLVD","WEST COLUMBIA","TX",77486,29.160833849,-95.6155278369999,477,"2155 TWIN LAKES BLVD, WEST COLUMBIA, TX, 77486","Match","Exact","2155 TWIN LAKES BLVD, WEST COLUMBIA, TX, 77486",116571318,"L"
117978,"2155 VEENENDAAL COURT","HERNDON","VA",20170,38.964219832,-77.412728306,478,"2155 VEENENDAAL COURT, HERNDON, VA, 20170","Match","Exact","2155 VEENENDAAL CT, HERNDON, VA, 20170",75956251,"L"
117979,"2155 VERDUGO BLVD - STE 526","MONTROSE","CA",91020,34.2049232320001,-118.22419635,479,"2155 VERDUGO BLVD - STE 526, MONTROSE, CA, 91020","Match","Exact","2155 VERDUGO BLVD, MONTROSE, CA, 91020",142724719,"R"
117980,"2155 VERDUGO BLVD 130","GLENDALE","CA",91020,34.2049232320001,-118.22419635,480,"2155 VERDUGO BLVD 130, GLENDALE, CA, 91020","Match","Non_Exact","2155 VERDUGO BLVD, MONTROSE, CA, 91020",142724719,"R"
117981,"2155 W MAYA PALM DRIVE","BOCA RATON","FL",33432,NA,NA,481,"2155 W MAYA PALM DRIVE, BOCA RATON, FL, 33432","Tie",NA,NA,NA,NA
117982,"2155 WASHINGTON CT 404","MIAMI BEACH","FL",33139,25.7982363410001,-80.131529299,482,"2155 WASHINGTON CT 404, MIAMI BEACH, FL, 33139","Match","Exact","2155 WASHINGTON CT, MIAMI BEACH, FL, 33139",116020370,"R"
117983,"21550 BOX SPRINGS RD 1058","MORENO VALLEY","CA",92557,33.9465877000001,-117.285810746,483,"21550 BOX SPRINGS RD 1058, MORENO VALLEY, CA, 92557","Match","Exact","21550 BOX SPRINGS RD, MORENO VALLEY, CA, 92557",647471255,"L"
117984,"21550 BOX SPRINGS RD APT 2071","MORENO VALLEY","CA",92557,33.9465877000001,-117.285810746,484,"21550 BOX SPRINGS RD APT 2071, MORENO VALLEY, CA, 92557","Match","Exact","21550 BOX SPRINGS RD, MORENO VALLEY, CA, 92557",647471255,"L"
117985,"21550 OXNARD STREET  STE 630","WOODLAND HILLS","CA",91364,34.1791655060001,-118.599516551,485,"21550 OXNARD STREET  STE 630, WOODLAND HILLS, CA, 91364","Match","Non_Exact","21550 OXNARD ST, WOODLAND HLS, CA, 91367",142709996,"L"
117986,"21550 W 47TH","SHAWNEE","KS",66226,39.0435405760001,-94.835512653,486,"21550 W 47TH, SHAWNEE, KS, 66226","Match","Non_Exact","21550 W 47TH ST, SHAWNEE, KS, 66226",91307996,"L"
117987,"21551 PETERSON AVE","SAUK VILLAGE","IL",60411,41.496550616,-87.5763904189999,487,"21551 PETERSON AVE, SAUK VILLAGE, IL, 60411","Match","Exact","21551 PETERSON AVE, SAUK VILLAGE, IL, 60411",111785903,"L"
117988,"21554 WEST 9000 SOUTH","DUCHESNE","UT",84021,NA,NA,488,"21554 WEST 9000 SOUTH, DUCHESNE, UT, 84021","No_Match",NA,NA,NA,NA
117989,"21555 MELROSE STREET - SUITE 24","SOUTHFIELD","MI",48075,42.4478517310001,-83.255754365,489,"21555 MELROSE STREET - SUITE 24, SOUTHFIELD, MI, 48075","Match","Non_Exact","21555 MELROSE AVE, SOUTHFIELD, MI, 48075",638598536,"R"
117990,"21555 SW HELLS CANYON RD","SHERWOOD","OR",97140,45.324639878,-122.909169469,490,"21555 SW HELLS CANYON RD, SHERWOOD, OR, 97140","Match","Exact","21555 SW HELLS CANYON RD, SHERWOOD, OR, 97140",156500928,"R"
117991,"215569 SCOUT ROAD","MOSINEE","WI",54455,44.8227778790001,-89.6982556249999,491,"215569 SCOUT ROAD, MOSINEE, WI, 54455","Match","Exact","215569 SCOUT RD, MOSINEE, WI, 54455",117150555,"R"
117992,"21559 WAVERLY DR","MACOMB","MI",48044,42.6575887660001,-82.902593012,492,"21559 WAVERLY DR, MACOMB, MI, 48044","Match","Exact","21559 WAVERLY DR, MACOMB, MI, 48044",110728335,"L"
117993,"2156 BIRCH ST","LEAVENWORTH","KS",66048,39.2707141880001,-94.955282787,493,"2156 BIRCH ST, LEAVENWORTH, KS, 66048","Match","Exact","2156 BIRCH ST, LEAVENWORTH, KS, 66048",648219725,"L"
117994,"2156 E MONROE TERRACE","SPRINGFIELD","MO",65802,37.20044354,-93.2535278409999,494,"2156 E MONROE TERRACE, SPRINGFIELD, MO, 65802","Match","Exact","2156 E MONROE TER, SPRINGFIELD, MO, 65802",76679277,"R"
117995,"2156 EAST 71ST STREET","CHICAGO","IL",60649,41.766253421,-87.5723751789999,495,"2156 EAST 71ST STREET, CHICAGO, IL, 60649","Match","Non_Exact","2156 E 71ST ST, CHICAGO, IL, 60619",605536367,"L"
117996,"2156 FLAGSTONE COURT N6","GREENVILLE","NC",27836,35.585978837,-77.430853962,496,"2156 FLAGSTONE COURT N6, GREENVILLE, NC, 27836","Match","Non_Exact","2156 FLAGSTONE CT, GREENVILLE, NC, 27834",80048673,"R"
117997,"2156 LINCOLN STREET","GARY","IN",46407,41.57967546,-87.353793342,497,"2156 LINCOLN STREET, GARY, IN, 46407","Match","Exact","2156 LINCOLN ST, GARY, IN, 46407",606312172,"R"
117998,"2156 MULINER AVE","BRONX","NY",10462,40.855732113,-73.8619456279999,498,"2156 MULINER AVE, BRONX, NY, 10462","Match","Exact","2156 MULINER AVE, BRONX, NY, 10462",80304469,"R"
117999,"2156 NW THORNCROFT DR 915","HILLSBORO","OR",97124,45.5364918320001,-122.875477573,499,"2156 NW THORNCROFT DR 915, HILLSBORO, OR, 97124","Match","Non_Exact","2156 NW THORNCROFT DR, HILLSBORO, OR, 97124",636602310,"L"
118000,"2156 PELHAM PARKWAY SUITE D","PELHAM","AL",35124,33.3365466380001,-86.7916820949999,500,"2156 PELHAM PARKWAY SUITE D, PELHAM, AL, 35124","Match","Exact","2156 PELHAM PKWY, PELHAM, AL, 35124",221554181,"R"
