"ID","Address","City","State","Zip","lat","long","id","input_address","match_indicator","match_type","matched_address","tiger_line_id","tiger_side"
58001,"1403 BALSAM COURT","FOREST HILL","MD",21050,39.5615397940001,-76.364171735,1,"1403 BALSAM COURT, FOREST HILL, MD, 21050","Match","Exact","1403 BALSAM CT, FOREST HILL, MD, 21050",191640871,"R"
58002,"1403 BERRY LANE","FLOSSMOOR","IL",60422,41.5369682510001,-87.6863155359999,2,"1403 BERRY LANE, FLOSSMOOR, IL, 60422","Match","Exact","1403 BERRY LN, FLOSSMOOR, IL, 60422",111709264,"L"
58003,"1403 BRAZOS TRACES DRIVE","RICHMOND","TX",77469,29.555069314,-95.699404519,3,"1403 BRAZOS TRACES DRIVE, RICHMOND, TX, 77469","Match","Exact","1403 BRAZOS TRACES DR, RICHMOND, TX, 77469",635758353,"L"
58004,"1403 BRIERWOOD ROAD","HAVERTOWN","PA",19083,39.9759699300001,-75.3194159179999,4,"1403 BRIERWOOD ROAD, HAVERTOWN, PA, 19083","Match","Exact","1403 BRIERWOOD RD, HAVERTOWN, PA, 19083",134898567,"L"
58005,"1403 CALIFORNIA AVE","WAHIAWA","HI",96786,21.503062937,-158.016117611,5,"1403 CALIFORNIA AVE, WAHIAWA, HI, 96786","Match","Exact","1403 CALIFORNIA AVE, WAHIAWA, HI, 96786",203322511,"L"
58006,"1403 CARROLL WHITE DRIVE","INDIANAPOLIS","IN",46219,39.786464299,-86.029311352,6,"1403 CARROLL WHITE DRIVE, INDIANAPOLIS, IN, 46219","Match","Exact","1403 CARROLL WHITE DR, INDIANAPOLIS, IN, 46219",108003033,"R"
58007,"1403 CEDAR LANE","NASHVILLE","TN",37212,36.120223212,-86.792946469,7,"1403 CEDAR LANE, NASHVILLE, TN, 37212","Match","Exact","1403 CEDAR LN, NASHVILLE, TN, 37212",606395697,"L"
58008,"1403 CENTINELA AVENUE","INGLEWOOD","CA",90302,33.976721781,-118.363286122,8,"1403 CENTINELA AVENUE, INGLEWOOD, CA, 90302","Match","Exact","1403 CENTINELA AVE, INGLEWOOD, CA, 90302",141653677,"L"
58009,"1403 CERRISSE CT","BRENTWOOD","TN",37027,35.9687340190001,-86.708417302,9,"1403 CERRISSE CT, BRENTWOOD, TN, 37027","Match","Exact","1403 CERRISSE CT, BRENTWOOD, TN, 37027",625628589,"L"
58010,"1403 CHAUMONT CT","ARLINGTON","TX",76013,32.7226696430001,-97.178038999,10,"1403 CHAUMONT CT, ARLINGTON, TX, 76013","Match","Exact","1403 CHAUMONT CT, ARLINGTON, TX, 76013",636967802,"R"
58011,"1403 CLEBURNE STREET","HOUSTON","TX",77004,29.733920703,-95.377934625,11,"1403 CLEBURNE STREET, HOUSTON, TX, 77004","Match","Exact","1403 CLEBURNE ST, HOUSTON, TX, 77004",96071270,"L"
58012,"1403 COLLEEN AVENUE","ARDEN HILLS","MN",55112,45.071437007,-93.159992373,12,"1403 COLLEEN AVENUE, ARDEN HILLS, MN, 55112","Match","Exact","1403 COLLEEN AVE, ARDEN HILLS, MN, 55112",642756733,"L"
58013,"1403 COLORADO BEND DR","CEDAR PARK","TX",78613,30.529840113,-97.826295896,13,"1403 COLORADO BEND DR, CEDAR PARK, TX, 78613","Match","Exact","1403 COLORADO BEND DR, CEDAR PARK, TX, 78613",627585926,"L"
58014,"1403 COPPER MOUNTAIN DR","DIAMOND BAR","CA",91765,33.996052666,-117.808511256,14,"1403 COPPER MOUNTAIN DR, DIAMOND BAR, CA, 91765","Match","Exact","1403 COPPER MOUNTAIN DR, DIAMOND BAR, CA, 91765",142792121,"R"
58015,"1403 CORVALLIS AVENUE","CINCINNATI","OH",45237,39.1961862630001,-84.466142689,15,"1403 CORVALLIS AVENUE, CINCINNATI, OH, 45237","Match","Exact","1403 CORVALLIS AVE, CINCINNATI, OH, 45237",103928432,"R"
58016,"1403 DANIEL COURT","NORTHBROOK","IL",60062,42.1274117460001,-87.8813099069999,16,"1403 DANIEL COURT, NORTHBROOK, IL, 60062","Match","Exact","1403 DANIEL CT, NORTHBROOK, IL, 60062",112362477,"L"
58017,"1403 DOWNS DR SW","ATLANTA","GA",30311,33.718105069,-84.454892307,17,"1403 DOWNS DR SW, ATLANTA, GA, 30311","Match","Exact","1403 DOWNS DR SW, ATLANTA, GA, 30311",17341158,"R"
58018,"1403 DRUID ROAD","CLEARWATER","FL",33756,NA,NA,18,"1403 DRUID ROAD, CLEARWATER, FL, 33756","Tie",NA,NA,NA,NA
58019,"1403 E STREET APARTMENT 201","LINCOLN","NE",68508,40.8036398890001,-96.701074708,19,"1403 E STREET APARTMENT 201, LINCOLN, NE, 68508","Match","Exact","1403 E ST, LINCOLN, NE, 68508",28254694,"R"
58020,"1403 EAST CULVER ROAD","KNOX","IN",46534,41.2880346040001,-86.604186894,20,"1403 EAST CULVER ROAD, KNOX, IN, 46534","Match","Exact","1403 E CULVER RD, KNOX, IN, 46534",604875469,"R"
58021,"1403 ENGLEWOOD","MACON","MO",63552,39.749527582,-92.4603187869999,21,"1403 ENGLEWOOD, MACON, MO, 63552","Match","Non_Exact","1403 ENGLEWOOD DR, MACON, MO, 63552",24957483,"L"
58022,"1403 FAULKENBERRY ROAD","WILMINGTON","NC",28409,34.1032136420001,-77.893731331,22,"1403 FAULKENBERRY ROAD, WILMINGTON, NC, 28409","Match","Exact","1403 FAULKENBERRY RD, WILMINGTON, NC, 28409",152758993,"R"
58023,"1403 FLEMING RD","CORDELE","GA",31015,31.954547459,-83.768077546,23,"1403 FLEMING RD, CORDELE, GA, 31015","Match","Exact","1403 FLEMING RD, CORDELE, GA, 31015",15658565,"R"
58024,"1403 FOOTHILLS VILLAGE DR","HENDERSON","NV",89012,36.0126519200001,-115.053238333,24,"1403 FOOTHILLS VILLAGE DR, HENDERSON, NV, 89012","Match","Exact","1403 FOOTHILLS VILLAGE DR, HENDERSON, NV, 89012",630483614,"L"
58025,"1403 GEORGIA AVENUE","ROCKLEDGE","FL",32955,28.340534039,-80.746292115,25,"1403 GEORGIA AVENUE, ROCKLEDGE, FL, 32955","Match","Exact","1403 GEORGIA AVE, ROCKLEDGE, FL, 32955",93893801,"R"
58026,"1403 GERTRUDITA CT","UPLAND","CA",91786,34.1151013780001,-117.630856924,26,"1403 GERTRUDITA CT, UPLAND, CA, 91786","Match","Exact","1403 GERTRUDITA CT, UPLAND, CA, 91786",144674992,"L"
58027,"1403 GLENCREST DRIVE","AUSTIN","TX",78723,30.3186732390001,-97.696110615,27,"1403 GLENCREST DRIVE, AUSTIN, TX, 78723","Match","Exact","1403 GLENCREST DR, AUSTIN, TX, 78723",63932732,"R"
58028,"1403 HARTLAND ROAD","SOMERSET","NY",14012,43.3446959710001,-78.5750818449999,28,"1403 HARTLAND ROAD, SOMERSET, NY, 14012","Match","Non_Exact","1403 HARTLAND RD, BARKER, NY, 14012",48682232,"R"
58029,"1403 HARVEST GROVE LANE SE","CONYERS","GA",30013,33.6451175240001,-83.9942953519999,29,"1403 HARVEST GROVE LANE SE, CONYERS, GA, 30013","Match","Non_Exact","1403 HARVEST GROVE LN, CONYERS, GA, 30013",23751816,"R"
58030,"1403 HAWTHORN WAY","WESTLAKE","TX",76262,32.9695820690001,-97.189764737,30,"1403 HAWTHORN WAY, WESTLAKE, TX, 76262","Match","Exact","1403 HAWTHORN WAY, WESTLAKE, TX, 76262",102119195,"L"
58031,"1403 HOLDEN ST","PORT WASHINGTON","WI",53074,43.401414442,-87.87773964,31,"1403 HOLDEN ST, PORT WASHINGTON, WI, 53074","Match","Non_Exact","1403 N HOLDEN ST, PORT WASHINGTON, WI, 53074",612754649,"R"
58032,"1403 HUSKY DR","MOSES LAKE","WA",98837,47.1136318710001,-119.247151675,32,"1403 HUSKY DR, MOSES LAKE, WA, 98837","Match","Exact","1403 HUSKY DR, MOSES LAKE, WA, 98837",157111003,"R"
58033,"1403 K ST SE","WASHINGTON","DC",20003,38.878391611,-76.985328393,33,"1403 K ST SE, WASHINGTON, DC, 20003","Match","Exact","1403 K ST SE, WASHINGTON, DC, 20003",76230990,"R"
58034,"1403 KEY PARKWAY SUITE A202","FREDERICK","MD",21702,39.4239690950001,-77.461140071,34,"1403 KEY PARKWAY SUITE A202, FREDERICK, MD, 21702","Match","Exact","1403 KEY PKWY, FREDERICK, MD, 21702",636224384,"R"
58035,"1403 LAKEVIEW DR","ST PAUL","TX",75098,33.034449957,-96.5469549109999,35,"1403 LAKEVIEW DR, ST PAUL, TX, 75098","Match","Exact","1403 LAKEVIEW DR, ST PAUL, TX, 75098",123497558,"L"
58036,"1403 LAMONT WAY","MABLETON","GA",30126,33.8394676790001,-84.596570211,36,"1403 LAMONT WAY, MABLETON, GA, 30126","Match","Exact","1403 LAMONT WAY, MABLETON, GA, 30126",17218663,"L"
58037,"1403 LIMESTONE CREEK DR","KELLER","TX",76248,32.9367475620001,-97.221168329,37,"1403 LIMESTONE CREEK DR, KELLER, TX, 76248","Match","Exact","1403 LIMESTONE CREEK DR, KELLER, TX, 76248",102100403,"R"
58038,"1403 LOGAN ST","MUSCATINE","IA",52761,41.427947144,-91.064941947,38,"1403 LOGAN ST, MUSCATINE, IA, 52761","Match","Exact","1403 LOGAN ST, MUSCATINE, IA, 52761",651746343,"R"
58039,"1403 MANJACK CAY DR","ROUND ROCK","TX",78664,30.470175553,-97.6435566649999,39,"1403 MANJACK CAY DR, ROUND ROCK, TX, 78664","Match","Exact","1403 MANJACK CAY DR, ROUND ROCK, TX, 78664",640586275,"L"
58040,"1403 MAYFAIR PLACE","SOUTHLAKE","TX",76092,32.9391908220001,-97.171085659,40,"1403 MAYFAIR PLACE, SOUTHLAKE, TX, 76092","Match","Exact","1403 MAYFAIR PL, SOUTHLAKE, TX, 76092",102088512,"L"
58041,"1403 MIDVIEW DRIVE","DECATUR","GA",30032,33.752146768,-84.2526193039999,41,"1403 MIDVIEW DRIVE, DECATUR, GA, 30032","Match","Exact","1403 MIDVIEW DR, DECATUR, GA, 30032",23369890,"R"
58042,"1403 N 3RD STREET","ATCHISON","KS",66002,39.578621507,-95.1165014539999,42,"1403 N 3RD STREET, ATCHISON, KS, 66002","Match","Exact","1403 N 3RD ST, ATCHISON, KS, 66002",10062479,"L"
58043,"1403 NASH RD","ATLANTA","GA",30331,33.7926165490001,-84.490605987,43,"1403 NASH RD, ATLANTA, GA, 30331","Match","Non_Exact","1403 NASH RD NW, ATLANTA, GA, 30331",17332584,"R"
58044,"1403 NORTH MOORE ROAD","CHATTANOOGA","TN",37411,35.0367524640001,-85.2200847939999,44,"1403 NORTH MOORE ROAD, CHATTANOOGA, TN, 37411","Match","Exact","1403 N MOORE RD, CHATTANOOGA, TN, 37411",59311449,"L"
58045,"1403 OLD SCREVEN ROAD","JESUP","GA",31545,31.5826444730001,-81.97416348,45,"1403 OLD SCREVEN ROAD, JESUP, GA, 31545","Match","Exact","1403 OLD SCREVEN RD, JESUP, GA, 31545",4845932,"R"
58046,"1403 ORANGE CT","MURFREESBORO","TN",37130,35.866515533,-86.345471995,46,"1403 ORANGE CT, MURFREESBORO, TN, 37130","Match","Exact","1403 ORANGE CT, MURFREESBORO, TN, 37130",648112484,"L"
58047,"1403 PALMER RD","HEDGESVILLE","WV",25427,39.4349876860001,-78.161137485,47,"1403 PALMER RD, HEDGESVILLE, WV, 25427","Match","Exact","1403 PALMER RD, HEDGESVILLE, WV, 25427",636717858,"L"
58048,"1403 PANNELL DRIVE APT N","ABERDEEN","MD",21001,39.485232748,-76.243096951,48,"1403 PANNELL DRIVE APT N, ABERDEEN, MD, 21001","Match","Exact","1403 PANNELL DR, ABERDEEN, MD, 21001",651738708,"L"
58049,"1403 PICO AVENUE","LANSING","MI",48910,42.7176923010001,-84.5647521669999,49,"1403 PICO AVENUE, LANSING, MI, 48910","Match","Exact","1403 PICO AVE, LANSING, MI, 48910",17498827,"L"
58050,"1403 PINE ST","MELBOURNE BEACH","FL",32951,28.0643843120001,-80.563141645,50,"1403 PINE ST, MELBOURNE BEACH, FL, 32951","Match","Exact","1403 PINE ST, MELBOURNE BCH, FL, 32951",93906501,"L"
58051,"1403 POWHATAN AVE","TAMPA","FL",33604,27.9987956310001,-82.444181917,51,"1403 POWHATAN AVE, TAMPA, FL, 33604","Match","Non_Exact","1403 E POWHATAN AVE, TAMPA, FL, 33604",104522564,"R"
58052,"1403 REGENCY DR","XENIA","OH",45385,39.7054134590001,-83.923423492,52,"1403 REGENCY DR, XENIA, OH, 45385","Match","Non_Exact","1403 N REGENCY DR, XENIA, OH, 45385",143379682,"R"
58053,"1403 RIVERSIDE CIR","SALT LAKE CITY","UT",84116,40.7794807560001,-111.931044895,53,"1403 RIVERSIDE CIR, SALT LAKE CITY, UT, 84116","Match","Exact","1403 RIVERSIDE CIR, SALT LAKE CITY, UT, 84116",176066073,"L"
58054,"1403 S FRISCO AVE","TULSA","OK",74119,36.1424028530001,-95.994724827,54,"1403 S FRISCO AVE, TULSA, OK, 74119","Match","Exact","1403 S FRISCO AVE, TULSA, OK, 74119",166441695,"L"
58055,"1403 S VERDE DR","COTTONWOOD","AZ",86326,34.7139514690001,-112.014000156,55,"1403 S VERDE DR, COTTONWOOD, AZ, 86326","Match","Exact","1403 VERDE DR, COTTONWOOD, AZ, 86326",159501093,"R"
58056,"1403 S YELLOW SPRINGS ST","SPRINGFIELD","OH",45506,39.9101401390001,-83.826224538,56,"1403 S YELLOW SPRINGS ST, SPRINGFIELD, OH, 45506","Match","Exact","1403 S YELLOW SPRINGS ST, SPRINGFIELD, OH, 45506",135015347,"R"
58057,"1403 SAXONY LANE","NASSAU BAY","TX",77058,29.544150388,-95.0978171149999,57,"1403 SAXONY LANE, NASSAU BAY, TX, 77058","Match","Non_Exact","1403 SAXONY LN, HOUSTON, TX, 77058",96115966,"R"
58058,"1403 SCRIBNER ST APT 1","SPOONER","WI",54801,45.8344797670001,-91.887815562,58,"1403 SCRIBNER ST APT 1, SPOONER, WI, 54801","Match","Exact","1403 SCRIBNER ST, SPOONER, WI, 54801",196342085,"L"
58059,"1403 SHEEP CREEK COURT","FORT COLLINS","CO",80526,40.5303767670001,-105.101085169,59,"1403 SHEEP CREEK COURT, FORT COLLINS, CO, 80526","Match","Exact","1403 SHEEP CREEK CT, FORT COLLINS, CO, 80526",188585135,"L"
58060,"1403 SINTON RD","EVERGREEN","CO",80439,39.6729086490001,-105.424932921,60,"1403 SINTON RD, EVERGREEN, CO, 80439","Match","Exact","1403 SINTON RD, EVERGREEN, CO, 80439",635882598,"R"
58061,"1403 SOUTH ACADEMY STREET","TYLER","TX",75701,32.333839648,-95.321881087,61,"1403 SOUTH ACADEMY STREET, TYLER, TX, 75701","Match","Non_Exact","1403 S ACADEMY AVE, TYLER, TX, 75701",635752989,"R"
58062,"1403 STANNAGE AVENUE","BERKELEY","CA",94702,37.878903845,-122.293474569,62,"1403 STANNAGE AVENUE, BERKELEY, CA, 94702","Match","Exact","1403 STANNAGE AVE, BERKELEY, CA, 94702",124992907,"L"
58063,"1403 SUMMIT STREET","WHITE OAK","PA",15131,40.3492321000001,-79.821699095,63,"1403 SUMMIT STREET, WHITE OAK, PA, 15131","Match","Exact","1403 SUMMIT ST, WHITE OAK, PA, 15131",51673646,"L"
58064,"1403 SYCAMORE ROAD","DEKALB","IL",60115,41.9429893010001,-88.737598426,64,"1403 SYCAMORE ROAD, DEKALB, IL, 60115","Match","Exact","1403 SYCAMORE RD, DEKALB, IL, 60115",52273048,"L"
58065,"1403 TALL TREE DRIVE","SCRANTON","PA",18505,41.4036299370001,-75.614473367,65,"1403 TALL TREE DRIVE, SCRANTON, PA, 18505","Match","Non_Exact","1403 TALL TREES DR, SCRANTON, PA, 18505",139342913,"R"
58066,"1403 THIRD AVENUE","ASBURY PARK","NJ",7712,40.2256725710001,-74.020706155,66,"1403 THIRD AVENUE, ASBURY PARK, NJ, 7712","Match","Exact","1403 3RD AVE, ASBURY PARK, NJ, 07712",90463288,"R"
58067,"1403 TRUCKERS BLVD","JEFFERSONVILLE","IN",47130,38.31838915,-85.7495579549999,67,"1403 TRUCKERS BLVD, JEFFERSONVILLE, IN, 47130","Match","Exact","1403 TRUCKERS BLVD, JEFFERSONVILLE, IN, 47130",64888820,"L"
58068,"1403 W 5TH ST","SANTA ANA","CA",92703,33.7488132620001,-117.887141869,68,"1403 W 5TH ST, SANTA ANA, CA, 92703","Match","Exact","1403 W 5TH ST, SANTA ANA, CA, 92703",144041617,"R"
58069,"1403 W CIRCLE DR","MCCOOK","NE",69001,40.211077016,-100.631431293,69,"1403 W CIRCLE DR, MCCOOK, NE, 69001","Match","Exact","1403 W CIRCLE DR, MCCOOK, NE, 69001",164133252,"R"
58070,"1403 W MOUNTAIN SKY AVE","PHOENIX","AZ",85045,33.3035948300001,-112.090422054,70,"1403 W MOUNTAIN SKY AVE, PHOENIX, AZ, 85045","Match","Exact","1403 W MOUNTAIN SKY AVE, PHOENIX, AZ, 85045",128357546,"R"
58071,"1403 W SPENCER ST","PLANT CITY","FL",33563,28.029239794,-82.13566044,71,"1403 W SPENCER ST, PLANT CITY, FL, 33563","Match","Exact","1403 W SPENCER ST, PLANT CITY, FL, 33563",641392085,"L"
58072,"1403 WALNUT","MURPHYSBORO","IL",62966,37.76432807,-89.33825611,72,"1403 WALNUT, MURPHYSBORO, IL, 62966","Match","Non_Exact","1403 WALNUT ST, MURPHYSBORO, IL, 62966",95063074,"L"
58073,"1403 WARFORD","PERRY","IA",50220,41.8395367190001,-94.1023104339999,73,"1403 WARFORD, PERRY, IA, 50220","Match","Non_Exact","1403 WARFORD ST, PERRY, IA, 50220",65626817,"L"
58074,"1403 WEST  ORANGE AVE","TALLAHASSEE","FL",32310,30.4126599350001,-84.3073889249999,74,"1403 WEST  ORANGE AVE, TALLAHASSEE, FL, 32310","Match","Exact","1403 W ORANGE AVE, TALLAHASSEE, FL, 32310",82851855,"L"
58075,"1403 WHITAKER","DALLAS","TX",75216,32.731326654,-96.80783128,75,"1403 WHITAKER, DALLAS, TX, 75216","Match","Non_Exact","1403 WHITAKER AVE, DALLAS, TX, 75216",102949478,"R"
58076,"1403 WOODMAN HALL ROAD","SHELBY","NC",28151,NA,NA,76,"1403 WOODMAN HALL ROAD, SHELBY, NC, 28151","No_Match",NA,NA,NA,NA
58077,"1403-2 DUNN AVE","JACKSONVILLE","FL",32218,30.4298431870001,-81.668927298,77,"1403-2 DUNN AVE, JACKSONVILLE, FL, 32218","Match","Exact","1403 DUNN AVE, JACKSONVILLE, FL, 32218",83971891,"R"
58078,"1403-A YANCEYVILLE ST","GREENSBORO","NC",27405,36.088905047,-79.7823284359999,78,"1403-A YANCEYVILLE ST, GREENSBORO, NC, 27405","Match","Exact","1403 YANCEYVILLE ST, GREENSBORO, NC, 27405",641635162,"L"
58079,"14030 BRIARWICK STREET","GERMANTOWN","MD",20874,39.1801090610001,-77.2922659339999,79,"14030 BRIARWICK STREET, GERMANTOWN, MD, 20874","Match","Exact","14030 BRIARWICK ST, GERMANTOWN, MD, 20874",62111105,"R"
58080,"14030 CONNECTICUT AVE UNIT 6332","SILVER SPRING","MD",20906,39.085107346,-77.0751604179999,80,"14030 CONNECTICUT AVE UNIT 6332, SILVER SPRING, MD, 20906","Match","Exact","14030 CONNECTICUT AVE, SILVER SPRING, MD, 20906",638658873,"L"
58081,"14030 GODWIT ST","CLARKSBURG","MD",20871,39.2180587720001,-77.290023229,81,"14030 GODWIT ST, CLARKSBURG, MD, 20871","Match","Exact","14030 GODWIT ST, CLARKSBURG, MD, 20871",650637157,"L"
58082,"14030 LEMOLI AVE 8","HAWTHORNE","CA",90250,33.904025747,-118.330820838,82,"14030 LEMOLI AVE 8, HAWTHORNE, CA, 90250","Match","Exact","14030 LEMOLI AVE, HAWTHORNE, CA, 90250",641501799,"L"
58083,"14030 METROPOLIS AVE SUITE 200","FORT MYERS","FL",33912,NA,NA,83,"14030 METROPOLIS AVE SUITE 200, FORT MYERS, FL, 33912","No_Match",NA,NA,NA,NA
58084,"14031 BELMONT CIRCLE","MONT BELVIEU","TX",77523,29.840916103,-94.840843913,84,"14031 BELMONT CIRCLE, MONT BELVIEU, TX, 77523","Match","Exact","14031 BELMONT CIR, MONT BELVIEU, TX, 77523",641749143,"R"
58085,"14031 DALL LANE","TUSTIN","CA",92780,33.7591715560001,-117.815867312,85,"14031 DALL LANE, TUSTIN, CA, 92780","Match","Exact","14031 DALL LN, TUSTIN, CA, 92780",144053580,"R"
58086,"14031 FM 1771 N","PLANTERSVILLE","TX",77363,NA,NA,86,"14031 FM 1771 N, PLANTERSVILLE, TX, 77363","No_Match",NA,NA,NA,NA
58087,"14031 HIWASSE RD","HIWASSE","AR",72739,36.439834605,-94.3333269079999,87,"14031 HIWASSE RD, HIWASSE, AR, 72739","Match","Exact","14031 HIWASSE RD, HIWASSE, AR, 72739",47926828,"L"
58088,"14031 LISSADELL CIRCLE","CHARLOTTE","NC",28277,35.021218543,-80.852074863,88,"14031 LISSADELL CIRCLE, CHARLOTTE, NC, 28277","Match","Exact","14031 LISSADELL CIR, CHARLOTTE, NC, 28277",649732613,"R"
58089,"14031 PURITAS AVE","CLEVELAND","OH",44135,41.4335238530001,-81.790920482,89,"14031 PURITAS AVE, CLEVELAND, OH, 44135","Match","Exact","14031 PURITAS AVE, CLEVELAND, OH, 44135",61102647,"L"
58090,"14031 WEST CHERISE AVE NUMBER 216","HAWTHORNE","CA",90250,NA,NA,90,"14031 WEST CHERISE AVE NUMBER 216, HAWTHORNE, CA, 90250","No_Match",NA,NA,NA,NA
58091,"14032 EAST TUFTS DRIVE APT 222","AURORA","CO",80015,39.633593671,-104.826112411,91,"14032 EAST TUFTS DRIVE APT 222, AURORA, CO, 80015","Match","Exact","14032 E TUFTS DR, AURORA, CO, 80015",177522781,"R"
58092,"14032 SANDY POINT LANE","EL PASO","TX",79938,31.786961499,-106.236358394,92,"14032 SANDY POINT LANE, EL PASO, TX, 79938","Match","Exact","14032 SANDY POINT LN, EL PASO, TX, 79938",618946582,"R"
58093,"14032 SPRINGWATER LANE","CORONA","CA",92880,33.9426227770001,-117.589643374,93,"14032 SPRINGWATER LANE, CORONA, CA, 92880","Match","Exact","14032 SPRINGWATER LN, CORONA, CA, 92880",608987809,"L"
58094,"14033 DETROIT DR","THORNTON","CO",80602,39.951075141,-104.953123907,94,"14033 DETROIT DR, THORNTON, CO, 80602","Match","Exact","14033 DETROIT DR, THORNTON, CO, 80602",647747147,"R"
58095,"14033 SW 270 TERRACE","HOMESTEAD","FL",33032,25.5160206740001,-80.418799792,95,"14033 SW 270 TERRACE, HOMESTEAD, FL, 33032","Match","Exact","14033 SW 270TH TER, HOMESTEAD, FL, 33032",637510442,"L"
58096,"14034 BAY OAKS BLVD","HOUSTON","TX",77059,29.595985366,-95.136360192,96,"14034 BAY OAKS BLVD, HOUSTON, TX, 77059","Match","Exact","14034 BAY OAKS BLVD, HOUSTON, TX, 77059",641936154,"L"
58097,"14034 EDMORE","DETROIT","MI",48205,42.446859971,-82.979768932,97,"14034 EDMORE, DETROIT, MI, 48205","Match","Non_Exact","14034 EDMORE DR, DETROIT, MI, 48205",95467428,"R"
58098,"14034 SE 283RD PL","KENT","WA",98042,47.347574314,-122.153968971,98,"14034 SE 283RD PL, KENT, WA, 98042","Match","Exact","14034 SE 283RD PL, KENT, WA, 98042",239782214,"L"
58099,"14034 STALEY ROAD","ANNA","OH",45302,40.3982134180001,-84.221269304,99,"14034 STALEY ROAD, ANNA, OH, 45302","Match","Exact","14034 STALEY RD, ANNA, OH, 45302",52217030,"R"
58100,"14035 EUCLID AVE","E. CLEVELAND","OH",44112,41.5274933170001,-81.585061649,100,"14035 EUCLID AVE, E. CLEVELAND, OH, 44112","Match","Exact","14035 EUCLID AVE, EAST CLEVELAND, OH, 44112",61121657,"L"
58101,"14035 GALLOP TERRACE","GERMANTOWN","MD",20874,39.1733867070001,-77.288131431,101,"14035 GALLOP TERRACE, GERMANTOWN, MD, 20874","Match","Exact","14035 GALLOP TER, GERMANTOWN, MD, 20874",62080340,"L"
58102,"14035 SENECA RIDGE DR","HAGERSTOWN","MD",21740,39.6959360980001,-77.739802732,102,"14035 SENECA RIDGE DR, HAGERSTOWN, MD, 21740","Match","Non_Exact","14035 SENECA RIDGE RD, HAGERSTOWN, MD, 21740",625636405,"R"
58103,"14035 SUNVIEW DRIVE","ANCHORAGE","AK",99515,61.0931268780001,-149.840718363,103,"14035 SUNVIEW DRIVE, ANCHORAGE, AK, 99515","Match","Exact","14035 SUNVIEW DR, ANCHORAGE, AK, 99515",190821319,"L"
58104,"14036 HATTON CROSS DRIVE","CHARLOTTE","NC",28278,35.0900702010001,-81.0026767539999,104,"14036 HATTON CROSS DRIVE, CHARLOTTE, NC, 28278","Match","Exact","14036 HATTON CROSS DR, CHARLOTTE, NC, 28278",70539314,"R"
58105,"14036 W DIXIE HWY","NORTH MIAMI","FL",33162,25.9048367890001,-80.173685581,105,"14036 W DIXIE HWY, NORTH MIAMI, FL, 33162","Match","Non_Exact","14036 W DIXIE HWY, NORTH MIAMI, FL, 33161",116037107,"L"
58106,"14037 MAIN MARKET RD","HIRAM","OH",44234,41.3864440740001,-81.1386763419999,106,"14037 MAIN MARKET RD, HIRAM, OH, 44234","Match","Exact","14037 MAIN MARKET RD, HIRAM, OH, 44234",652726527,"R"
58107,"14037 NORTH AVENUE","BELLEVUE","MI",49021,42.4490771370001,-85.18044632,107,"14037 NORTH AVENUE, BELLEVUE, MI, 49021","Match","Exact","14037 NORTH AVE, BELLEVUE, MI, 49021",10520425,"R"
58108,"14038 PARLEY LN","FISHERS","IN",46038,39.992817539,-85.960288121,108,"14038 PARLEY LN, FISHERS, IN, 46038","Match","Exact","14038 PARLEY LN, FISHERS, IN, 46038",645778030,"L"
58109,"14038 SE UPPER ALDERCREST DR","MILWAUKIE","OR",97267,45.421051533,-122.608095055,109,"14038 SE UPPER ALDERCREST DR, MILWAUKIE, OR, 97267","Match","Exact","14038 SE UPPER ALDERCREST DR, MILWAUKIE, OR, 97267",157915288,"L"
58110,"14039 BERNARDY LANE","CHARLOTTE","NC",28269,35.3924475170001,-80.7705070769999,110,"14039 BERNARDY LANE, CHARLOTTE, NC, 28269","Match","Exact","14039 BERNARDY LN, CHARLOTTE, NC, 28269",70605739,"L"
58111,"14039 FRANCISQUITO AVENUE","BALDWIN PARK","CA",91706,34.065758814,-117.9702808,111,"14039 FRANCISQUITO AVENUE, BALDWIN PARK, CA, 91706","Match","Exact","14039 FRANCISQUITO AVE, BALDWIN PARK, CA, 91706",647608050,"L"
58112,"14039 HIGHWAY 74 E SUITE A6-261","INDIAN TRAIL","NC",28079,NA,NA,112,"14039 HIGHWAY 74 E SUITE A6-261, INDIAN TRAIL, NC, 28079","No_Match",NA,NA,NA,NA
58113,"1403A BELLVILLE DR","HOUSTON","TX",77038,29.906350108,-95.427455529,113,"1403A BELLVILLE DR, HOUSTON, TX, 77038","Match","Exact","1403 BELLVILLE DR, HOUSTON, TX, 77038",96043794,"R"
58114,"1404 1/2 ADAMS AVENUE","HUNTINGTON","WV",25704,38.4118452440001,-82.479962031,114,"1404 1/2 ADAMS AVENUE, HUNTINGTON, WV, 25704","Match","Exact","1404 ADAMS AVE, HUNTINGTON, WV, 25704",640187188,"R"
58115,"1404 140TH PL NE","BELLEVUE","WA",98007,47.623088222,-122.151884202,115,"1404 140TH PL NE, BELLEVUE, WA, 98007","Match","Exact","1404 140TH PL NE, BELLEVUE, WA, 98007",639740575,"L"
58116,"1404 15TH STREET","SAN FRA NCISCO","CA",94103,37.766934259,-122.415624647,116,"1404 15TH STREET, SAN FRA NCISCO, CA, 94103","Match","Non_Exact","1404 15TH ST, SAN FRANCISCO, CA, 94103",192287510,"R"
58117,"1404 7TH ST NW","FARIBAULT","MN",55021,44.2978132470001,-93.288995669,117,"1404 7TH ST NW, FARIBAULT, MN, 55021","Match","Exact","1404 7TH ST NW, FARIBAULT, MN, 55021",37316871,"R"
58118,"1404 APACHE TRAIL","WAPAKONETA","OH",45895,40.5857379230001,-84.1939502819999,118,"1404 APACHE TRAIL, WAPAKONETA, OH, 45895","Match","Exact","1404 APACHE TRL, WAPAKONETA, OH, 45895",36432144,"R"
58119,"1404 ARTHUR AVENUE","LAS VEGAS","NV",89101,36.1862040570001,-115.111202639,119,"1404 ARTHUR AVENUE, LAS VEGAS, NV, 89101","Match","Exact","1404 ARTHUR AVE, LAS VEGAS, NV, 89101",201868288,"R"
58120,"1404 AUGUST DRIVE","KILLEEN","TX",76549,31.087393229,-97.764036156,120,"1404 AUGUST DRIVE, KILLEEN, TX, 76549","Match","Exact","1404 AUGUST DR, KILLEEN, TX, 76549",146164523,"L"
58121,"1404 BEAUMONT AVE STE A2-139","BEAUMONT","CA",92223,33.947198869,-116.977202372,121,"1404 BEAUMONT AVE STE A2-139, BEAUMONT, CA, 92223","Match","Exact","1404 BEAUMONT AVE, BEAUMONT, CA, 92223",195085702,"L"
58122,"1404 BELCASTLE CT","RESTON","VA",20194,38.977511647,-77.341340472,122,"1404 BELCASTLE CT, RESTON, VA, 20194","Match","Exact","1404 BELCASTLE CT, RESTON, VA, 20194",76023232,"R"
58123,"1404 BISSELL STREET","SAINT LOUIS","MO",63107,38.6708695720001,-90.2043177469999,123,"1404 BISSELL STREET, SAINT LOUIS, MO, 63107","Match","Exact","1404 BISSELL ST, SAINT LOUIS, MO, 63107",107603539,"L"
58124,"1404 BURFORD COURT","FAYETTEVILE","NC",28314,35.044649733,-79.004610901,124,"1404 BURFORD COURT, FAYETTEVILE, NC, 28314","Match","Non_Exact","1404 BURFORD CT, FAYETTEVILLE, NC, 28314",64261110,"R"
58125,"1404 BUTTERNUT DRIVE","GREENVILLE","IL",62246,38.897799779,-89.392914191,125,"1404 BUTTERNUT DRIVE, GREENVILLE, IL, 62246","Match","Exact","1404 BUTTERNUT DR, GREENVILLE, IL, 62246",101026792,"R"
58126,"1404 CAMDEN WAY","NICHOLS HILLS","OK",73116,35.5414602380001,-97.538324969,126,"1404 CAMDEN WAY, NICHOLS HILLS, OK, 73116","Match","Exact","1404 CAMDEN WAY, NICHOLS HILLS, OK, 73116",636720255,"L"
58127,"1404 CASTLEBROOK WAY","MARIETTA","GA",30066,NA,NA,127,"1404 CASTLEBROOK WAY, MARIETTA, GA, 30066","No_Match",NA,NA,NA,NA
58128,"1404 CASTLEBROOKE WAY","MARIETTA","GA",30066,34.019245142,-84.508682955,128,"1404 CASTLEBROOKE WAY, MARIETTA, GA, 30066","Match","Exact","1404 CASTLEBROOKE WAY, MARIETTA, GA, 30066",618319831,"L"
58129,"1404 CEDAR AVE","AUSTIN","TX",78702,30.27692961,-97.713448907,129,"1404 CEDAR AVE, AUSTIN, TX, 78702","Match","Exact","1404 CEDAR AVE, AUSTIN, TX, 78702",63947665,"L"
58130,"1404 COACKLEY DRIVE","LIMA","OH",45807,NA,NA,130,"1404 COACKLEY DRIVE, LIMA, OH, 45807","No_Match",NA,NA,NA,NA
58131,"1404 CRAVENS AVENUE","TORRANCE","CA",90501,33.8347694350001,-118.318031741,131,"1404 CRAVENS AVENUE, TORRANCE, CA, 90501","Match","Exact","1404 CRAVENS AVE, TORRANCE, CA, 90501",142758861,"L"
58132,"1404 E 5TH STREET","AUSTIN","TX",78702,30.262787603,-97.728832268,132,"1404 E 5TH STREET, AUSTIN, TX, 78702","Match","Exact","1404 E 5TH ST, AUSTIN, TX, 78702",64016911,"L"
58133,"1404 EAST  MAIN STREET","EL CAJON","CA",92021,32.7998632970001,-116.930837955,133,"1404 EAST  MAIN STREET, EL CAJON, CA, 92021","Match","Exact","1404 E MAIN ST, EL CAJON, CA, 92021",195721706,"L"
58134,"1404 EAST 2700 NORTH","NORTH LOGAN","UT",84341,41.780251811,-111.799474957,134,"1404 EAST 2700 NORTH, NORTH LOGAN, UT, 84341","Match","Exact","1404 E 2700 N, NORTH LOGAN, UT, 84341",155112253,"L"
58135,"1404 EAST CLARK STREET","SIOUX FALLS","SD",57105,43.5350273870001,-96.708670588,135,"1404 EAST CLARK STREET, SIOUX FALLS, SD, 57105","Match","Exact","1404 E CLARK ST, SIOUX FALLS, SD, 57105",34974140,"L"
58136,"1404 EUCLID ST NW","WASHINGTON","DC",20009,38.9236111880001,-77.032401657,136,"1404 EUCLID ST NW, WASHINGTON, DC, 20009","Match","Exact","1404 EUCLID ST NW, WASHINGTON, DC, 20009",76223147,"L"
58137,"1404 GABLES CT STE 102","MCKINNEY","TX",75075,33.019084096,-96.7526882609999,137,"1404 GABLES CT STE 102, MCKINNEY, TX, 75075","Match","Non_Exact","1404 GABLES CT, PLANO, TX, 75075",123511556,"L"
58138,"1404 GOLF CLUB ROAD","WAUSAU","WI",54403,44.9920968870001,-89.60903637,138,"1404 GOLF CLUB ROAD, WAUSAU, WI, 54403","Match","Exact","1404 GOLF CLUB RD, WAUSAU, WI, 54403",117157020,"L"
58139,"1404 GREEN BAY STREET","LA CROSSE","WI",54601,43.7941851620001,-91.235681121,139,"1404 GREEN BAY STREET, LA CROSSE, WI, 54601","Match","Exact","1404 GREEN BAY ST, LA CROSSE, WI, 54601",51013320,"R"
58140,"1404 HADWICK DRIVE APARTMENT F","ESSEX","MD",21221,39.30267307,-76.448519709,140,"1404 HADWICK DRIVE APARTMENT F, ESSEX, MD, 21221","Match","Exact","1404 HADWICK DR, ESSEX, MD, 21221",191490059,"L"
58141,"1404 HARLLEES BRIDGE ROAD","LITTLE ROCK","SC",29567,34.4744050520001,-79.4055508499999,141,"1404 HARLLEES BRIDGE ROAD, LITTLE ROCK, SC, 29567","Match","Exact","1404 HARLLEES BRIDGE RD, LITTLE ROCK, SC, 29567",28817426,"R"
58142,"1404 HARRINGTON AVENUE","KILL DEVIL HILLS","NC",27948,35.997871688,-75.6563834029999,142,"1404 HARRINGTON AVENUE, KILL DEVIL HILLS, NC, 27948","Match","Exact","1404 HARRINGTON AVE, KILL DEVIL HILLS, NC, 27948",81301924,"L"
58143,"1404 HEMLOCK AVENUE","NASHVILLE","TN",37216,36.21629748,-86.709998545,143,"1404 HEMLOCK AVENUE, NASHVILLE, TN, 37216","Match","Exact","1404 HEMLOCK AVE, NASHVILLE, TN, 37216",97194399,"R"
58144,"1404 HERITAGE HILLS WAY","WAKE FOREST","NC",27587,35.9640658610001,-78.4934578639999,144,"1404 HERITAGE HILLS WAY, WAKE FOREST, NC, 27587","Match","Exact","1404 HERITAGE HILLS WAY, WAKE FOREST, NC, 27587",647285311,"L"
58145,"1404 HIGHWAY 22 W","MADISONVILLE","LA",70447,NA,NA,145,"1404 HIGHWAY 22 W, MADISONVILLE, LA, 70447","No_Match",NA,NA,NA,NA
58146,"1404 HILLCREST ST","GAUTIER","MS",39553,30.420563615,-88.632084188,146,"1404 HILLCREST ST, GAUTIER, MS, 39553","Match","Non_Exact","1404 HILLCREST DR, GAUTIER, MS, 39553",89249317,"R"
58147,"1404 HOLT ROAD","PERRY","FL",32348,30.062449122,-83.595724532,147,"1404 HOLT ROAD, PERRY, FL, 32348","Match","Exact","1404 HOLT RD, PERRY, FL, 32348",610764918,"R"
58148,"1404 IVY RIDGE ROAD - APT 24","SYRACUSE","NY",13210,NA,NA,148,"1404 IVY RIDGE ROAD - APT 24, SYRACUSE, NY, 13210","No_Match",NA,NA,NA,NA
58149,"1404 JACKSON STREET NE","WASHINGTON","DC",20017,38.9298308090001,-76.9859076989999,149,"1404 JACKSON STREET NE, WASHINGTON, DC, 20017","Match","Exact","1404 JACKSON ST NE, WASHINGTON, DC, 20017",76228830,"L"
58150,"1404 KENDRICK RD","GASTONIA","NC",28056,35.2149491860001,-81.151140144,150,"1404 KENDRICK RD, GASTONIA, NC, 28056","Match","Exact","1404 KENDRICK RD, GASTONIA, NC, 28056",70451558,"L"
58151,"1404 LAKE RIDGE SQUARE","JOHNSON CITY","TN",37601,36.386027605,-82.3858927919999,151,"1404 LAKE RIDGE SQUARE, JOHNSON CITY, TN, 37601","Match","Exact","1404 LAKE RIDGE SQ, JOHNSON CITY, TN, 37601",607246337,"R"
58152,"1404 LAUREL CREEK ROAD EXTENSION","TODD","NC",28684,NA,NA,152,"1404 LAUREL CREEK ROAD EXTENSION, TODD, NC, 28684","No_Match",NA,NA,NA,NA
58153,"1404 LONG ACRE DRIVE","MACON","GA",31204,NA,NA,153,"1404 LONG ACRE DRIVE, MACON, GA, 31204","No_Match",NA,NA,NA,NA
58154,"1404 MARTIN LUTHER KING  JR AVE","LAKELAND","FL",33805,28.0625431930001,-81.961444876,154,"1404 MARTIN LUTHER KING  JR AVE, LAKELAND, FL, 33805","Match","Exact","1404 MARTIN L KING JR AVE, LAKELAND, FL, 33805",104808240,"L"
58155,"1404 MAYFIELD WAY","TUSTIN","CA",92782,33.7138554090001,-117.82149773,155,"1404 MAYFIELD WAY, TUSTIN, CA, 92782","Match","Exact","1404 MAYFIELD WAY, TUSTIN, CA, 92782",617873700,"R"
58156,"1404 MISSOURI AVE BLD 5302","NORTH LITTLE ROCK","AR",72118,34.8266436540001,-92.28686562,156,"1404 MISSOURI AVE BLD 5302, NORTH LITTLE ROCK, AR, 72118","Match","Non_Exact","1404 MISSOURI AVE, N LITTLE ROCK, AR, 72199",653156850,"R"
58157,"1404 N AZUSA AVE STE 169","COVINA","CA",91722,34.1050858450001,-117.907660922,157,"1404 N AZUSA AVE STE 169, COVINA, CA, 91722","Match","Non_Exact","1404 N AZUSA AVE, COVINA, CA, 91722",241111350,"R"
58158,"1404 N B ST","INDIANOLA","IA",50125,41.3742466350001,-93.56387833,158,"1404 N B ST, INDIANOLA, IA, 50125","Match","Exact","1404 N B ST, INDIANOLA, IA, 50125",636240582,"R"
58159,"1404 N IROQUOIS","CHOUTEAU","OK",74337,36.1970066800001,-95.323830084,159,"1404 N IROQUOIS, CHOUTEAU, OK, 74337","Match","Non_Exact","1404 IROQUOIS AVE, CHOUTEAU, OK, 74337",58801703,"R"
58160,"1404 N MOHAWK 3","CHICAGO","IL",60610,NA,NA,160,"1404 N MOHAWK 3, CHICAGO, IL, 60610","No_Match",NA,NA,NA,NA
58161,"1404 NE 17TH COURT","FORT LAUDERDALE","FL",33305,26.150327374,-80.1301999359999,161,"1404 NE 17TH COURT, FORT LAUDERDALE, FL, 33305","Match","Non_Exact","1404 NE 17TH CT, FORT LAUDERDALE, FL, 33305",114722326,"R"
58162,"1404 NORTH ROLLING ROAD","BALTIMORE","MD",21228,39.2966985520001,-76.753439111,162,"1404 NORTH ROLLING ROAD, BALTIMORE, MD, 21228","Match","Exact","1404 N ROLLING RD, BALTIMORE, MD, 21228",191549584,"L"
58163,"1404 NW K ST","BENTONVILLE","AR",72712,36.3882066960001,-94.224681055,163,"1404 NW K ST, BENTONVILLE, AR, 72712","Match","Exact","1404 NW K ST, BENTONVILLE, AR, 72712",47878747,"R"
58164,"1404 OLD FREEHOLD RD","TOMS RIVER","NJ",8753,39.9944280390001,-74.1963875069999,164,"1404 OLD FREEHOLD RD, TOMS RIVER, NJ, 8753","Match","Exact","1404 OLD FREEHOLD RD, TOMS RIVER, NJ, 08753",203773613,"L"
58165,"1404 ONEIDA STREET","DENVER","CO",80220,39.7388675330001,-104.908145324,165,"1404 ONEIDA STREET, DENVER, CO, 80220","Match","Exact","1404 ONEIDA ST, DENVER, CO, 80220",177313377,"R"
58166,"1404 PARK AVENUE SE","ATLANTA","GA",30315,33.715707954,-84.370020817,166,"1404 PARK AVENUE SE, ATLANTA, GA, 30315","Match","Exact","1404 PARK AVE SE, ATLANTA, GA, 30315",17358306,"L"
58167,"1404 PLAZA DRIVE","BAKER","LA",70714,30.589834577,-91.1570087969999,167,"1404 PLAZA DRIVE, BAKER, LA, 70714","Match","Exact","1404 PLAZA DR, BAKER, LA, 70714",92197447,"R"
58168,"1404 POST LANE","BOWIE","MD",20716,38.9087314980001,-76.733179783,168,"1404 POST LANE, BOWIE, MD, 20716","Match","Exact","1404 POST LN, BOWIE, MD, 20716",76328600,"L"
58169,"1404 PRINCETON AVE","TRENTON","NJ",8638,40.239056529,-74.753553031,169,"1404 PRINCETON AVE, TRENTON, NJ, 8638","Match","Exact","1404 PRINCETON AVE, TRENTON, NJ, 08638",60178853,"R"
58170,"1404 S 14TH AVE","MAYWOOD","IL",60153,41.874435625,-87.849780606,170,"1404 S 14TH AVE, MAYWOOD, IL, 60153","Match","Exact","1404 S 14TH AVE, MAYWOOD, IL, 60153",111874559,"R"
58171,"1404 S 40TH STREET","SAN DIEGO","CA",92113,32.6916810860001,-117.108124133,171,"1404 S 40TH STREET, SAN DIEGO, CA, 92113","Match","Exact","1404 S 40TH ST, SAN DIEGO, CA, 92113",637438122,"R"
58172,"1404 S BRIGGS ST","JOLIET","IL",60433,NA,NA,172,"1404 S BRIGGS ST, JOLIET, IL, 60433","No_Match",NA,NA,NA,NA
58173,"1404 S DISCOVERY AVE","SIOUX FALLS","SD",57106,43.533776544,-96.822374259,173,"1404 S DISCOVERY AVE, SIOUX FALLS, SD, 57106","Match","Exact","1404 S DISCOVERY AVE, SIOUX FALLS, SD, 57106",640215304,"L"
58174,"1404 S GOLF CLUB DRIVE","RICHMOND","MO",64085,39.263811409,-93.952447803,174,"1404 S GOLF CLUB DRIVE, RICHMOND, MO, 64085","Match","Non_Exact","1404 GOLF CLUB DR S, RICHMOND, MO, 64085",20988984,"R"
58175,"1404 SE VAN BUREN","IDABEL","OK",74745,33.8884526510001,-94.8121614139999,175,"1404 SE VAN BUREN, IDABEL, OK, 74745","Match","Non_Exact","1404 SE VAN BUREN ST, IDABEL, OK, 74745",68740756,"R"
58176,"1404 SOUTH PINE STREET","PITTSBURG","KS",66762,37.3941354310001,-94.706319848,176,"1404 SOUTH PINE STREET, PITTSBURG, KS, 66762","Match","Exact","1404 S PINE ST, PITTSBURG, KS, 66762",645586968,"R"
58177,"1404 SOUTH PRIMROSE LANE","JASPER","AL",35503,33.879604317,-87.29217606,177,"1404 SOUTH PRIMROSE LANE, JASPER, AL, 35503","Match","Exact","1404 S PRIMROSE LN, JASPER, AL, 35503",120556773,"R"
58178,"1404 SUMMERPOINT LANE","FENTON","MO",63026,38.5119644440001,-90.50292304,178,"1404 SUMMERPOINT LANE, FENTON, MO, 63026","Match","Exact","1404 SUMMERPOINT LN, FENTON, MO, 63026",100185681,"L"
58179,"1404 THAXTON CT APT C","LARAMIE","WY",82070,41.333755802,-105.578550171,179,"1404 THAXTON CT APT C, LARAMIE, WY, 82070","Match","Non_Exact","1404 THAXTON CT, LARAMIE, WY, 82072",619758659,"L"
58180,"1404 THIRD STREET PROMENADE","SANTA MONICA","CA",90401,34.015506938,-118.495917511,180,"1404 THIRD STREET PROMENADE, SANTA MONICA, CA, 90401","Match","Exact","1404 3RD STREET PROMENADE, SANTA MONICA, CA, 90401",141559509,"R"
58181,"1404 TIMBER CIRCLE","HELENA","AL",35080,33.2691309410001,-86.840710998,181,"1404 TIMBER CIRCLE, HELENA, AL, 35080","Match","Exact","1404 TIMBER CIR, HELENA, AL, 35080",82132539,"R"
58182,"1404 UTICA SELLERSBURG RD","JEFFERSONVILLE","IN",47130,38.331917672,-85.667843728,182,"1404 UTICA SELLERSBURG RD, JEFFERSONVILLE, IN, 47130","Match","Exact","1404 UTICA SELLERSBURG RD, JEFFERSONVILLE, IN, 47130",64918324,"L"
58183,"1404 VALLEYVIEW DRIVE","BLACKSBURG","VA",24060,37.22224899,-80.393321414,183,"1404 VALLEYVIEW DRIVE, BLACKSBURG, VA, 24060","Match","Non_Exact","1404 VALLEYVIEW DR SE, BLACKSBURG, VA, 24060",73640681,"R"
58184,"1404 W 10TH AVE","CORSICANA","TX",75110,32.083229992,-96.475604188,184,"1404 W 10TH AVE, CORSICANA, TX, 75110","Match","Exact","1404 W 10TH AVE, CORSICANA, TX, 75110",183884034,"L"
58185,"1404 W SUN RIVER PARKWAY STE 200","SAINT GEORGE","UT",84790,37.0299445480001,-113.61660609,185,"1404 W SUN RIVER PARKWAY STE 200, SAINT GEORGE, UT, 84790","Match","Exact","1404 SUN RIVER PKWY, SAINT GEORGE, UT, 84790",166193920,"L"
58186,"1404 W WALNUT HILL LANE SUITE 118","IRVING","TX",75038,NA,NA,186,"1404 W WALNUT HILL LANE SUITE 118, IRVING, TX, 75038","No_Match",NA,NA,NA,NA
58187,"1404 W WALNUT HILL LN  SUITE 118","IRVING","TX",75038,NA,NA,187,"1404 W WALNUT HILL LN  SUITE 118, IRVING, TX, 75038","No_Match",NA,NA,NA,NA
58188,"1404 W WASHINGTON ST","CHAMPAIGN","IL",61821,40.1201538170001,-88.269426545,188,"1404 W WASHINGTON ST, CHAMPAIGN, IL, 61821","Match","Exact","1404 W WASHINGTON ST, CHAMPAIGN, IL, 61821",8808926,"R"
58189,"1404 WALKING TRAIL COURT","MOUNT PLEASANT","SC",29466,32.8513558010001,-79.77294209,189,"1404 WALKING TRAIL COURT, MOUNT PLEASANT, SC, 29466","Match","Exact","1404 WALKING TRAIL CT, MOUNT PLEASANT, SC, 29466",108907833,"L"
58190,"1404 WESLYN SPRINGS WAY","FUQUAY-VARINA","NC",27526,35.5845241230001,-78.832935874,190,"1404 WESLYN SPRINGS WAY, FUQUAY-VARINA, NC, 27526","Match","Exact","1404 WESLYN SPRINGS WAY, FUQUAY VARINA, NC, 27526",612816388,"R"
58191,"1404 WESSER CT","FUQUAY VARINA","NC",27526,35.6151784140001,-78.766586078,191,"1404 WESSER CT, FUQUAY VARINA, NC, 27526","Match","Exact","1404 WESSER CT, FUQUAY VARINA, NC, 27526",647279672,"L"
58192,"1404 WESSER CT","FUQUAY-VARINA","NC",27526,35.6151784140001,-78.766586078,192,"1404 WESSER CT, FUQUAY-VARINA, NC, 27526","Match","Exact","1404 WESSER CT, FUQUAY VARINA, NC, 27526",647279672,"L"
58193,"1404 WEST END STREET APT 1","MARION","IL",62959,37.729611139,-88.940916998,193,"1404 WEST END STREET APT 1, MARION, IL, 62959","Match","Exact","1404 W END ST, MARION, IL, 62959",6020660,"L"
58194,"1404 WEST WORLEY","COLUMBIA","MO",65203,38.9600114630001,-92.359184458,194,"1404 WEST WORLEY, COLUMBIA, MO, 65203","Match","Non_Exact","1404 W WORLEY ST, COLUMBIA, MO, 65203",23480248,"L"
58195,"1404 WHEATFIELD DR","MESQUITE","TX",75149,32.779358787,-96.5769637659999,195,"1404 WHEATFIELD DR, MESQUITE, TX, 75149","Match","Exact","1404 WHEATFIELD DR, MESQUITE, TX, 75149",102934142,"R"
58196,"1404 WIGEON WAY","STOCKBRIDGE","GA",30281,33.5532995730001,-84.168026697,196,"1404 WIGEON WAY, STOCKBRIDGE, GA, 30281","Match","Exact","1404 WIGEON WAY, STOCKBRIDGE, GA, 30281",649198212,"R"
58197,"1404 WILLOW HEIGHTS DRIVE","NORTH HUNTINGDON","PA",15642,40.33126423,-79.756756117,197,"1404 WILLOW HEIGHTS DRIVE, NORTH HUNTINGDON, PA, 15642","Match","Non_Exact","1404 WILLOW HEIGHTS DR N, N HUNTINGDON, PA, 15642",613038601,"R"
58198,"1404 WINDJAMMER COURT","FORT WASHINGTON","MD",20744,38.7256439820001,-76.983996679,198,"1404 WINDJAMMER COURT, FORT WASHINGTON, MD, 20744","Match","Exact","1404 WINDJAMMER CT, FT WASHINGTON, MD, 20744",632159282,"R"
58199,"1404 WOODBRIDGE DRIVE","TYLER","TX",75703,32.2932721600001,-95.321427624,199,"1404 WOODBRIDGE DRIVE, TYLER, TX, 75703","Match","Exact","1404 WOODBRIDGE DR, TYLER, TX, 75703",141272456,"L"
58200,"1404 WOODMONT CT","MOUNT ARLINGTON","NJ",7859,NA,NA,200,"1404 WOODMONT CT, MOUNT ARLINGTON, NJ, 7859","No_Match",NA,NA,NA,NA
58201,"1404 YOSEMITE LANE","BROOKINGS","SD",57006,44.2938183810001,-96.779794386,201,"1404 YOSEMITE LANE, BROOKINGS, SD, 57006","Match","Exact","1404 YOSEMITE LN, BROOKINGS, SD, 57006",193633449,"R"
58202,"1404-B KIRKWOOD ROAD","AUSTIN","TX",78722,30.295358235,-97.7153743,202,"1404-B KIRKWOOD ROAD, AUSTIN, TX, 78722","Match","Exact","1404 KIRKWOOD RD, AUSTIN, TX, 78722",63946228,"L"
58203,"14040 BISCAYNE BLVD 516","MIAMI","FL",33181,NA,NA,203,"14040 BISCAYNE BLVD 516, MIAMI, FL, 33181","No_Match",NA,NA,NA,NA
58204,"14040 BISCAYNE BLVD APT 608","NORTH MIAMI BEACH","FL",33181,NA,NA,204,"14040 BISCAYNE BLVD APT 608, NORTH MIAMI BEACH, FL, 33181","No_Match",NA,NA,NA,NA
58205,"14040 ELDORADO PARKWAY","FRISCO","TX",75035,33.174491823,-96.755886839,205,"14040 ELDORADO PARKWAY, FRISCO, TX, 75035","Match","Exact","14040 ELDORADO PKWY, FRISCO, TX, 75035",615039261,"R"
58206,"14040 ELDORADO PKWY","FRISCO","TX",75035,33.174491823,-96.755886839,206,"14040 ELDORADO PKWY, FRISCO, TX, 75035","Match","Exact","14040 ELDORADO PKWY, FRISCO, TX, 75035",615039261,"R"
58207,"14040 RUNNYMEDE STREET","VAN NUYS","CA",91405,34.205775052,-118.438481852,207,"14040 RUNNYMEDE STREET, VAN NUYS, CA, 91405","Match","Exact","14040 RUNNYMEDE ST, VAN NUYS, CA, 91405",141550247,"L"
58208,"14040 STANLEY PARK DR","ASHLAND","VA",23005,37.7820842530001,-77.475760508,208,"14040 STANLEY PARK DR, ASHLAND, VA, 23005","Match","Exact","14040 STANLEY PARK DR, ASHLAND, VA, 23005",640844942,"R"
58209,"14041 BREAKFAST DR","REDFORD","MI",48239,42.3868749170001,-83.3075057729999,209,"14041 BREAKFAST DR, REDFORD, MI, 48239","Match","Exact","14041 BREAKFAST DR, REDFORD, MI, 48239",95427348,"L"
58210,"14041 PRESTON ROAD 2301E","DALLAS","TX",75254,32.9395290040001,-96.803650768,210,"14041 PRESTON ROAD 2301E, DALLAS, TX, 75254","Match","Exact","14041 PRESTON RD, DALLAS, TX, 75254",103209709,"L"
58211,"14041 S 32ND STREET","PHOENIX","AZ",85044,33.3184646760001,-112.014415458,211,"14041 S 32ND STREET, PHOENIX, AZ, 85044","Match","Exact","14041 S 32ND ST, PHOENIX, AZ, 85044",128784740,"R"
58212,"14044 SAN CHRISTOVAL PASS","HASLET","TX",76052,32.9863621040001,-97.3702325579999,212,"14044 SAN CHRISTOVAL PASS, HASLET, TX, 76052","Match","Exact","14044 SAN CHRISTOVAL PASS, HASLET, TX, 76052",619874629,"R"
58213,"14044 SANDY POINT","EL PASO","TX",79938,31.7867771210001,-106.236110294,213,"14044 SANDY POINT, EL PASO, TX, 79938","Match","Non_Exact","14044 SANDY POINT LN, EL PASO, TX, 79938",618942474,"R"
58214,"140449","STATEN ISLAND","NY",10314,NA,NA,214,"140449, STATEN ISLAND, NY, 10314","No_Match",NA,NA,NA,NA
58215,"14045 E CARLSON ROAD","BRULE","WI",54820,46.574886227,-91.570051843,215,"14045 E CARLSON ROAD, BRULE, WI, 54820","Match","Exact","14045 CARLSON RD, BRULE, WI, 54820",164838782,"R"
58216,"14045 MANTUA MILL ROAD","REISTERSTOWN","MD",21136,39.508667513,-76.754429494,216,"14045 MANTUA MILL ROAD, REISTERSTOWN, MD, 21136","Match","Exact","14045 MANTUA MILL RD, REISTERSTOWN, MD, 21136",191508378,"R"
58217,"14046 BRINGARD","DETROIT","MI",48205,42.445969532,-82.979480709,217,"14046 BRINGARD, DETROIT, MI, 48205","Match","Non_Exact","14046 BRINGARD DR, DETROIT, MI, 48205",95467430,"R"
58218,"14046 HIGHWAY 6","IREDELL","TX",76649,31.979687558,-97.8483549219999,218,"14046 HIGHWAY 6, IREDELL, TX, 76649","Match","Non_Exact","14046 STATE HWY 6, IREDELL, TX, 76649",158607536,"R"
58219,"14047 REDDEN ROAD","BRIDGEVILLE","DE",19933,38.7527923230001,-75.526871579,219,"14047 REDDEN ROAD, BRIDGEVILLE, DE, 19933","Match","Exact","14047 REDDEN RD, BRIDGEVILLE, DE, 19933",106078675,"L"
58220,"14047 TWIN PEAKS ROAD","POWAY","CA",92064,32.9782051330001,-117.026587544,220,"14047 TWIN PEAKS ROAD, POWAY, CA, 92064","Match","Exact","14047 TWIN PEAKS RD, POWAY, CA, 92064",195317728,"R"
58221,"14049 - 155TH AVE","GRAND HAVEN","MI",49417,NA,NA,221,"14049 - 155TH AVE, GRAND HAVEN, MI, 49417","No_Match",NA,NA,NA,NA
58222,"14049 N 56TH STREET","SCOTTSDALE","AZ",85254,33.613484772,-111.960487049,222,"14049 N 56TH STREET, SCOTTSDALE, AZ, 85254","Match","Exact","14049 N 56TH ST, SCOTTSDALE, AZ, 85254",128354521,"R"
58223,"14049 NEPTUNE LANE","BROWNS VALLEY","CA",95918,39.370125758,-121.329151632,223,"14049 NEPTUNE LANE, BROWNS VALLEY, CA, 95918","Match","Non_Exact","14049 NEPTUNE RD, BROWNS VALLEY, CA, 95918",106962895,"R"
58224,"14049 RODEO DAZE DR","HASLET","TX",76052,32.9852251190001,-97.392865451,224,"14049 RODEO DAZE DR, HASLET, TX, 76052","Match","Exact","14049 RODEO DAZE DR, HASLET, TX, 76052",619874639,"L"
58225,"14049 SW 166TH ST","MIAMI","FL",33177,25.612870797,-80.420374973,225,"14049 SW 166TH ST, MIAMI, FL, 33177","Match","Exact","14049 SW 166TH ST, MIAMI, FL, 33177",642890806,"L"
58226,"1404B GRAND AVE","COLUMBIA","MO",65203,38.966328752,-92.336139961,226,"1404B GRAND AVE, COLUMBIA, MO, 65203","Match","Exact","1404 GRAND AVE, COLUMBIA, MO, 65203",23480084,"R"
58227,"1405  W 34TH ST APT A204","HOUSTON","TX",77018,29.8173072490001,-95.4249943569999,227,"1405  W 34TH ST APT A204, HOUSTON, TX, 77018","Match","Non_Exact","1405 W 34TH ST, HOUSTON, TX, 77018",96054486,"L"
58228,"1405 10TH ST NW","AUSTIN","MN",55912,43.6787044060001,-92.987264873,228,"1405 10TH ST NW, AUSTIN, MN, 55912","Match","Exact","1405 10TH ST NW, AUSTIN, MN, 55912",27622055,"L"
58229,"1405 11TH ST SE","DECATUR","AL",35601,34.583991702,-86.970031945,229,"1405 11TH ST SE, DECATUR, AL, 35601","Match","Exact","1405 11TH ST SE, DECATUR, AL, 35601",97114351,"R"
58230,"1405 12TH AVE N SUITE 308","SAINT CLOUD","MN",56303,45.5750307110001,-94.177485135,230,"1405 12TH AVE N SUITE 308, SAINT CLOUD, MN, 56303","Match","Exact","1405 12TH AVE N, SAINT CLOUD, MN, 56303",647953300,"L"
58231,"1405 13TH STREET","LAKE CHARLES","LA",70601,30.2117111100001,-93.201224662,231,"1405 13TH STREET, LAKE CHARLES, LA, 70601","Match","Exact","1405 13TH ST, LAKE CHARLES, LA, 70601",88436662,"L"
58232,"1405 15TH STREET","AUGUSTA","GA",30901,33.4643661210001,-81.994631608,232,"1405 15TH STREET, AUGUSTA, GA, 30901","Match","Exact","1405 15TH ST, AUGUSTA, GA, 30901",55639595,"R"
58233,"1405 16TH ST","RACINE","WI",53403,42.712483019,-87.7966446249999,233,"1405 16TH ST, RACINE, WI, 53403","Match","Exact","1405 16TH ST, RACINE, WI, 53403",77910785,"L"
58234,"1405 4TH AVE NW  PMB 268","ARDMORE","OK",73401,34.1802114930001,-97.1461140119999,234,"1405 4TH AVE NW  PMB 268, ARDMORE, OK, 73401","Match","Exact","1405 4TH AVE NW, ARDMORE, OK, 73401",640189732,"L"
58235,"1405 4TH AVENUE NW  PMB 342","ARDMORE","OK",73401,34.1802114930001,-97.1461140119999,235,"1405 4TH AVENUE NW  PMB 342, ARDMORE, OK, 73401","Match","Exact","1405 4TH AVE NW, ARDMORE, OK, 73401",640189732,"L"
58236,"1405 AMSTERDAM AVE SUITE 3G","NEW YORK","NY",10027,40.8152271220001,-73.9549093809999,236,"1405 AMSTERDAM AVE SUITE 3G, NEW YORK, NY, 10027","Match","Exact","1405 AMSTERDAM AVE, NEW YORK, NY, 10027",59656034,"R"
58237,"1405 BERKELEY DRIVE","REDLANDS","CA",92374,34.072225405,-117.171159084,237,"1405 BERKELEY DRIVE, REDLANDS, CA, 92374","Match","Exact","1405 BERKELEY DR, REDLANDS, CA, 92374",144664610,"L"
58238,"1405 BRECKENRIDGE CT","WHITES CREEK","TN",37189,36.277403092,-86.7791250769999,238,"1405 BRECKENRIDGE CT, WHITES CREEK, TN, 37189","Match","Exact","1405 BRECKENRIDGE CT, WHITES CREEK, TN, 37189",97181739,"R"
58239,"1405 BROADWAY","FORT WAYNE","IN",46802,41.0727689600001,-85.1478156479999,239,"1405 BROADWAY, FORT WAYNE, IN, 46802","Match","Exact","1405 BROADWAY, FORT WAYNE, IN, 46802",6377956,"L"
58240,"1405 CANOPY CREEK WAY","AUSTIN","TX",78748,30.167022661,-97.819350183,240,"1405 CANOPY CREEK WAY, AUSTIN, TX, 78748","Match","Exact","1405 CANOPY CREEK WAY, AUSTIN, TX, 78748",641768964,"L"
58241,"1405 CARTER PLACE","WEST CHESTER","PA",19382,39.9581737070001,-75.5301688719999,241,"1405 CARTER PLACE, WEST CHESTER, PA, 19382","Match","Exact","1405 CARTER PL, WEST CHESTER, PA, 19382",179497460,"L"
58242,"1405 CHAPEL DRIVE","YORK","PA",17404,39.9808167640001,-76.737277843,242,"1405 CHAPEL DRIVE, YORK, PA, 17404","Match","Exact","1405 CHAPEL DR, YORK, PA, 17404",633003333,"R"
58243,"1405 CHELSEA ROAD","PALOS VERDES ESTATES","CA",90274,33.7870881210001,-118.412866188,243,"1405 CHELSEA ROAD, PALOS VERDES ESTATES, CA, 90274","Match","Exact","1405 CHELSEA RD, PALOS VERDES ESTATES, CA, 90274",141584831,"R"
58244,"1405 COOPER ROAD","SEBASTOPOL","CA",95472,38.388164424,-122.80780257,244,"1405 COOPER ROAD, SEBASTOPOL, CA, 95472","Match","Exact","1405 COOPER RD, SEBASTOPOL, CA, 95472",638178622,"L"
58245,"1405 CRANE AVENUE - SUITE 125","ANNISTON","AL",36201,33.662544214,-85.8607414539999,245,"1405 CRANE AVENUE - SUITE 125, ANNISTON, AL, 36201","Match","Exact","1405 CRANE AVE, ANNISTON, AL, 36201",66541673,"R"
58246,"1405 CREEKFORD DRIVE","ARLINGTON","TX",76012,32.752942408,-97.151137787,246,"1405 CREEKFORD DRIVE, ARLINGTON, TX, 76012","Match","Exact","1405 CREEKFORD DR, ARLINGTON, TX, 76012",101904959,"R"
58247,"1405 DANBURY LN","ANNISTON","AL",36207,33.628932191,-85.769892907,247,"1405 DANBURY LN, ANNISTON, AL, 36207","Match","Exact","1405 DANBURY LN, ANNISTON, AL, 36207",66546255,"L"
58248,"1405 DELILE PLACE","WANTAGH","NY",11793,40.688202376,-73.501896152,248,"1405 DELILE PLACE, WANTAGH, NY, 11793","Match","Exact","1405 DELILE PL, WANTAGH, NY, 11793",147647264,"R"
58249,"1405 DOVE DRIVE","VIRGINIA BEACH","VA",23454,36.7919472460001,-76.0046813709999,249,"1405 DOVE DRIVE, VIRGINIA BEACH, VA, 23454","Match","Exact","1405 DOVE DR, VIRGINIA BCH, VA, 23454",122271646,"L"
58250,"1405 E 5TH ST","CHATTANOOGA","TN",37404,35.0417247010001,-85.279624789,250,"1405 E 5TH ST, CHATTANOOGA, TN, 37404","Match","Exact","1405 E 5TH ST, CHATTANOOGA, TN, 37404",635650142,"L"
58251,"1405 E LOCUST ST","DECATUR","IL",62521,39.8562901120001,-88.9375194689999,251,"1405 E LOCUST ST, DECATUR, IL, 62521","Match","Exact","1405 E LOCUST ST, DECATUR, IL, 62521",20747230,"R"
58252,"1405 E ST RD 32","LEBANON","IN",46052,40.0392276330001,-86.442691205,252,"1405 E ST RD 32, LEBANON, IN, 46052","Match","Exact","1405 STATE RD 32, LEBANON, IN, 46052",29252656,"R"
58253,"1405 EAST 28TH STREET","LORAIN","OH",44055,41.445295039,-82.149297474,253,"1405 EAST 28TH STREET, LORAIN, OH, 44055","Match","Exact","1405 E 28TH ST, LORAIN, OH, 44055",55430215,"L"
58254,"1405 EAST US HWY 50","O FALLON","IL",62269,38.5809406070001,-89.887721057,254,"1405 EAST US HWY 50, O FALLON, IL, 62269","Match","Exact","1405 E US HWY 50, O FALLON, IL, 62269",107933981,"L"
58255,"1405 EMBASSY LANE","FORD HEIGHTS","IL",60411,41.5131503960001,-87.5870642199999,255,"1405 EMBASSY LANE, FORD HEIGHTS, IL, 60411","Match","Exact","1405 EMBASSY LN, FORD HEIGHTS, IL, 60411",111785624,"R"
58256,"1405 FALCON AVENUE","BAKERSFIELD","CA",93304,35.3208259850001,-119.017788948,256,"1405 FALCON AVENUE, BAKERSFIELD, CA, 93304","Match","Exact","1405 FALCON AVE, BAKERSFIELD, CA, 93304",109092419,"L"
58257,"1405 FIFTH AVENUE APT 4B","NEW YORK","NY",10029,40.800186018,-73.946802329,257,"1405 FIFTH AVENUE APT 4B, NEW YORK, NY, 10029","Match","Exact","1405 5TH AVE, NEW YORK, NY, 10029",59657752,"R"
58258,"1405 FURIONG CT","IRVING","TX",75060,NA,NA,258,"1405 FURIONG CT, IRVING, TX, 75060","No_Match",NA,NA,NA,NA
58259,"1405 GETWELL RD","MEMPHIS","TN",38111,35.0937798320001,-89.931013929,259,"1405 GETWELL RD, MEMPHIS, TN, 38111","Match","Exact","1405 GETWELL RD, MEMPHIS, TN, 38111",72920591,"R"
58260,"1405 GLENVIEW DR","DERIDDER","LA",70634,30.839913241,-93.312177417,260,"1405 GLENVIEW DR, DERIDDER, LA, 70634","Match","Exact","1405 GLENVIEW DR, DERIDDER, LA, 70634",88363902,"L"
58261,"1405 GREENVILL BLVD SW","GREENVILLE","NC",27834,NA,NA,261,"1405 GREENVILL BLVD SW, GREENVILLE, NC, 27834","No_Match",NA,NA,NA,NA
58262,"1405 GROVEHURST DRIVE","ALPHARETTA","GA",30022,34.027286062,-84.2478038679999,262,"1405 GROVEHURST DRIVE, ALPHARETTA, GA, 30022","Match","Exact","1405 GROVEHURST DR, ALPHARETTA, GA, 30022",17394090,"L"
58263,"1405 HAMPTON PLACE","HOOVER","AL",35216,33.3903025170001,-86.798778122,263,"1405 HAMPTON PLACE, HOOVER, AL, 35216","Match","Exact","1405 HAMPTON PL, HOOVER, AL, 35216",81711094,"R"
58264,"1405 HAMPTON STREET","WALTERBORO","SC",29488,32.8971464540001,-80.6457966569999,264,"1405 HAMPTON STREET, WALTERBORO, SC, 29488","Match","Exact","1405 HAMPTON ST, WALTERBORO, SC, 29488",647247506,"R"
58265,"1405 HANDLEY AVENUE","WINCHESTER","VA",22601,39.175166226,-78.1779507639999,265,"1405 HANDLEY AVENUE, WINCHESTER, VA, 22601","Match","Exact","1405 HANDLEY AVE, WINCHESTER, VA, 22601",55578712,"L"
58266,"1405 HARLOW DRIVE","PITTSBURGH","PA",15204,40.4596257910001,-80.0714263629999,266,"1405 HARLOW DRIVE, PITTSBURGH, PA, 15204","Match","Non_Exact","1405 HARLOW ST, PITTSBURGH, PA, 15204",51621410,"L"
58267,"1405 HEMINGWAY STREET","MYRTLE BEACH","SC",29577,33.7050691960001,-78.8803821129999,267,"1405 HEMINGWAY STREET, MYRTLE BEACH, SC, 29577","Match","Exact","1405 HEMINGWAY ST, MYRTLE BEACH, SC, 29577",29056959,"L"
58268,"1405 HEWATT ROAD SW","LILBURN","GA",30047,33.8722311240001,-84.0532659789999,268,"1405 HEWATT ROAD SW, LILBURN, GA, 30047","Match","Exact","1405 HEWATT RD SW, LILBURN, GA, 30047",652441590,"R"
58269,"1405 HICKORY VIEW CIRCLE","PARRISH","FL",34219,27.525262915,-82.375358352,269,"1405 HICKORY VIEW CIRCLE, PARRISH, FL, 34219","Match","Exact","1405 HICKORY VIEW CIR, PARRISH, FL, 34219",627945552,"L"
58270,"1405 INWOOD TERRACE","JACKSONVILLE","FL",32207,30.29141939,-81.649642119,270,"1405 INWOOD TERRACE, JACKSONVILLE, FL, 32207","Match","Exact","1405 INWOOD TER, JACKSONVILLE, FL, 32207",83915243,"L"
58271,"1405 JAXON CT","YUKON","OK",73099,35.4521156060001,-97.7311985059999,271,"1405 JAXON CT, YUKON, OK, 73099","Match","Exact","1405 JAXON CT, YUKON, OK, 73099",646291126,"R"
58272,"1405 JEFFERSON ST","HYATTSVILLE","MD",20782,38.9548129290001,-76.986663784,272,"1405 JEFFERSON ST, HYATTSVILLE, MD, 20782","Match","Exact","1405 JEFFERSON ST, HYATTSVILLE, MD, 20782",76304074,"R"
58273,"1405 LAKE POINTE CT","SPRINGFIELD","IL",62712,39.708896748,-89.6333183679999,273,"1405 LAKE POINTE CT, SPRINGFIELD, IL, 62712","Match","Non_Exact","1405 LAKEPOINT CT, SPRINGFIELD, IL, 62712",97367592,"L"
58274,"1405 LILAC DR N      STE 125","GOLDEN VALLEY","MN",55422,44.9933124730001,-93.349850983,274,"1405 LILAC DR N      STE 125, GOLDEN VALLEY, MN, 55422","Match","Exact","1405 LILAC DR N, GOLDEN VALLEY, MN, 55422",43831900,"L"
58275,"1405 MAIN ST SUITE C UNIT 5","SALT LAKE CITY","UT",84115,40.739154102,-111.891060763,275,"1405 MAIN ST SUITE C UNIT 5, SALT LAKE CITY, UT, 84115","Match","Non_Exact","1405 S MAIN ST, SALT LAKE CITY, UT, 84115",176078046,"L"
58276,"1405 MAY DRIVE","ONALASKA","TX",77360,30.844272452,-95.1472629369999,276,"1405 MAY DRIVE, ONALASKA, TX, 77360","Match","Exact","1405 MAY DR, ONALASKA, TX, 77360",634856121,"L"
58277,"1405 MICHAEL WAY UNIT 103","LAS VEGAS","NV",89108,36.186130866,-115.215067072,277,"1405 MICHAEL WAY UNIT 103, LAS VEGAS, NV, 89108","Match","Non_Exact","1405 N MICHAEL WAY, LAS VEGAS, NV, 89108",201860600,"L"
58278,"1405 MILES DRIVE","CHARLESTON","SC",29407,32.807843259,-79.99635231,278,"1405 MILES DRIVE, CHARLESTON, SC, 29407","Match","Exact","1405 MILES DR, CHARLESTON, SC, 29407",605838963,"L"
58279,"1405 MONTOPOLIS DRIVE","AUSTIN","TX",78741,30.2299563080001,-97.7002731859999,279,"1405 MONTOPOLIS DRIVE, AUSTIN, TX, 78741","Match","Exact","1405 MONTOPOLIS DR, AUSTIN, TX, 78741",64003827,"L"
58280,"1405 N CHESTNUT","FRESNO","CA",93703,NA,NA,280,"1405 N CHESTNUT, FRESNO, CA, 93703","No_Match",NA,NA,NA,NA
58281,"1405 N KING CHARLES RD","RALEIGH","NC",27610,35.7982537520001,-78.6032663559999,281,"1405 N KING CHARLES RD, RALEIGH, NC, 27610","Match","Exact","1405 N KING CHARLES RD, RALEIGH, NC, 27610",72508342,"L"
58282,"1405 N PEBBLE BEACH BLVD","SUN CITY CENTER","FL",33573,NA,NA,282,"1405 N PEBBLE BEACH BLVD, SUN CITY CENTER, FL, 33573","Tie",NA,NA,NA,NA
58283,"1405 N VOLLAND ST","KENNEWICK","WA",99336,46.224514012,-119.181233851,283,"1405 N VOLLAND ST, KENNEWICK, WA, 99336","Match","Exact","1405 N VOLLAND ST, KENNEWICK, WA, 99336",174990534,"L"
58284,"1405 NORTH DOBSON ROAD SUITE 1","CHANDLER","AZ",85224,33.3264239490001,-111.876397595,284,"1405 NORTH DOBSON ROAD SUITE 1, CHANDLER, AZ, 85224","Match","Exact","1405 N DOBSON RD, CHANDLER, AZ, 85224",128942695,"R"
58285,"1405 NUNEZ ST","NEW ORLEANS","LA",70114,29.9411744060001,-90.050707153,285,"1405 NUNEZ ST, NEW ORLEANS, LA, 70114","Match","Exact","1405 NUNEZ ST, NEW ORLEANS, LA, 70114",191718825,"R"
58286,"1405 NW 179TH TERRACE","EDMOND","OK",73012,35.653556945,-97.5372561889999,286,"1405 NW 179TH TERRACE, EDMOND, OK, 73012","Match","Exact","1405 NW 179TH TER, EDMOND, OK, 73012",606071757,"R"
58287,"1405 OVERLAND XING","ALPHARETTA","GA",30004,34.118414042,-84.23704808,287,"1405 OVERLAND XING, ALPHARETTA, GA, 30004","Match","Exact","1405 OVERLAND CROSSING, ALPHARETTA, GA, 30004",70194205,"L"
58288,"1405 OVERLEA PLACE NW","CONCORD","NC",28027,35.434843894,-80.757098032,288,"1405 OVERLEA PLACE NW, CONCORD, NC, 28027","Match","Exact","1405 OVERLEA PL NW, CONCORD, NC, 28027",650418461,"L"
58289,"1405 PARK BOULEVARD","SAN DIEGO","CA",92101,32.719718646,-117.153814759,289,"1405 PARK BOULEVARD, SAN DIEGO, CA, 92101","Match","Exact","1405 PARK BLVD, SAN DIEGO, CA, 92101",195676726,"R"
58290,"1405 PATTERSON AVENUE","WINSTON SALEM","NC",27105,36.112671564,-80.2418243549999,290,"1405 PATTERSON AVENUE, WINSTON SALEM, NC, 27105","Match","Exact","1405 PATTERSON AVE, WINSTON SALEM, NC, 27105",84609288,"R"
58291,"1405 PAYNE AVE","NORTH TONAWANDA","NY",14120,43.0589832250001,-78.885996387,291,"1405 PAYNE AVE, NORTH TONAWANDA, NY, 14120","Match","Exact","1405 PAYNE AVE, N TONAWANDA, NY, 14120",48688610,"R"
58292,"1405 PEBBLE BEACH LN","HAMPTON","GA",30228,33.452226061,-84.347234199,292,"1405 PEBBLE BEACH LN, HAMPTON, GA, 30228","Match","Exact","1405 PEBBLE BEACH LN, HAMPTON, GA, 30228",636096711,"R"
58293,"1405 PENNINGTON LANE","BOWIE","MD",20716,38.909173738,-76.724089899,293,"1405 PENNINGTON LANE, BOWIE, MD, 20716","Match","Exact","1405 PENNINGTON LN, BOWIE, MD, 20716",76328663,"R"
58294,"1405 POPLAR POINT CT","VIRGINIA BEACH","VA",23454,36.8780619230001,-76.045032868,294,"1405 POPLAR POINT CT, VIRGINIA BEACH, VA, 23454","Match","Exact","1405 POPLAR POINT CT, VIRGINIA BCH, VA, 23454",122261211,"L"
58295,"1405 PROSPECT PLACE B6","BROOKLYN","NY",11213,40.673245654,-73.9303233219999,295,"1405 PROSPECT PLACE B6, BROOKLYN, NY, 11213","Match","Exact","1405 PROSPECT PL, BROOKLYN, NY, 11213",642653619,"L"
58296,"1405 RADCLIFFE CT","NEWTOWN SQ","PA",19073,39.960134813,-75.5026544849999,296,"1405 RADCLIFFE CT, NEWTOWN SQ, PA, 19073","Match","Exact","1405 RADCLIFFE CT, NEWTOWN SQ, PA, 19073",179532027,"L"
58297,"1405 REIGER DR","GREENVILLE","TX",75402,33.107328378,-96.0937588899999,297,"1405 REIGER DR, GREENVILLE, TX, 75402","Match","Exact","1405 REIGER DR, GREENVILLE, TX, 75402",42887753,"R"
58298,"1405 RIDGCREST RD","EDMOND","OK",73013,35.631431245,-97.461758349,298,"1405 RIDGCREST RD, EDMOND, OK, 73013","Match","Non_Exact","1405 RIDGECREST RD, EDMOND, OK, 73013",100410409,"L"
58299,"1405 RIVERSIDE DR","NORTH GROSVENORDALE","CT",6255,42.013002783,-71.887822549,299,"1405 RIVERSIDE DR, NORTH GROSVENORDALE, CT, 6255","Match","Exact","1405 RIVERSIDE DR, NORTH GROSVENORDALE, CT, 06255",56451948,"R"
58300,"1405 RIVERWATCH COURT  APT 2304","MURFREESBORO","TN",37128,35.8224830180001,-86.4147834079999,300,"1405 RIVERWATCH COURT  APT 2304, MURFREESBORO, TN, 37128","Match","Exact","1405 RIVERWATCH CT, MURFREESBORO, TN, 37128",652150923,"R"
58301,"1405 S 262ND ST","DES MOINES","WA",98198,47.367110434,-122.315194678,301,"1405 S 262ND ST, DES MOINES, WA, 98198","Match","Exact","1405 S 262ND ST, DES MOINES, WA, 98198",186649139,"R"
58302,"1405 S CHURCH ST","DECATUR","TX",76234,33.225245482,-97.585626229,302,"1405 S CHURCH ST, DECATUR, TX, 76234","Match","Exact","1405 S CHURCH ST, DECATUR, TX, 76234",103665542,"R"
58303,"1405 S CREST DR","PEORIA","IL",61605,40.6720215130001,-89.6518309529999,303,"1405 S CREST DR, PEORIA, IL, 61605","Match","Exact","1405 S CREST DR, PEORIA, IL, 61605",8714067,"R"
58304,"1405 S FERN ST STE 145","ARLINGTON","VA",22202,38.86060847,-77.0562937449999,304,"1405 S FERN ST STE 145, ARLINGTON, VA, 22202","Match","Non_Exact","1405 S FERN ST, ARLINGTON, VA, 22202",624273514,"L"
58305,"1405 S FERN ST UNIT 90372","ARLINGTON","VA",22202,38.86060847,-77.0562937449999,305,"1405 S FERN ST UNIT 90372, ARLINGTON, VA, 22202","Match","Non_Exact","1405 S FERN ST, ARLINGTON, VA, 22202",624273514,"L"
58306,"1405 S FERN ST","ARLINGTON","VA",22202,38.86060847,-77.0562937449999,306,"1405 S FERN ST, ARLINGTON, VA, 22202","Match","Exact","1405 S FERN ST, ARLINGTON, VA, 22202",624273514,"L"
58307,"1405 S INDIANA AVE","CHICAGO","IL",60605,NA,NA,307,"1405 S INDIANA AVE, CHICAGO, IL, 60605","Tie",NA,NA,NA,NA
58308,"1405 SADDLE BROOK LN","METAMORA","IL",61548,40.805498975,-89.3808650189999,308,"1405 SADDLE BROOK LN, METAMORA, IL, 61548","Match","Exact","1405 SADDLE BROOK LN, METAMORA, IL, 61548",627092689,"L"
58309,"1405 SAN JUAN HILLS DRIVE UNIT 203","LAS VEGAS","NV",89134,36.186781706,-115.302338782,309,"1405 SAN JUAN HILLS DRIVE UNIT 203, LAS VEGAS, NV, 89134","Match","Exact","1405 SAN JUAN HILLS DR, LAS VEGAS, NV, 89134",201914973,"R"
58310,"1405 SCHLAGER AVE","TAYLOR","PA",18517,NA,NA,310,"1405 SCHLAGER AVE, TAYLOR, PA, 18517","No_Match",NA,NA,NA,NA
58311,"1405 SE CARLTON ST","PORTLAND","OR",97202,45.477888276,-122.651634114,311,"1405 SE CARLTON ST, PORTLAND, OR, 97202","Match","Exact","1405 SE CARLTON ST, PORTLAND, OR, 97202",157510338,"L"
58312,"1405 SEDGEFIELD TRAIL","BETHLEHEM","GA",30620,33.907670814,-83.747187608,312,"1405 SEDGEFIELD TRAIL, BETHLEHEM, GA, 30620","Match","Exact","1405 SEDGEFIELD TRL, BETHLEHEM, GA, 30620",219936865,"R"
58313,"1405 SOUTH J STREET 201","TACOMA","WA",98405,NA,NA,313,"1405 SOUTH J STREET 201, TACOMA, WA, 98405","No_Match",NA,NA,NA,NA
58314,"1405 STANEFER CIRCLE","DENTON","TX",76205,NA,NA,314,"1405 STANEFER CIRCLE, DENTON, TX, 76205","No_Match",NA,NA,NA,NA
58315,"1405 SW 41ST CIRCLE","LEE'S SUMMIT","MO",64082,38.8447390050001,-94.406686587,315,"1405 SW 41ST CIRCLE, LEE'S SUMMIT, MO, 64082","Match","Non_Exact","1405 SW 41ST CIR, LEES SUMMIT, MO, 64082",601264375,"L"
58316,"1405 SW GREENVILLE BLVD","GREENVILLE","NC",27834,35.574828504,-77.419155157,316,"1405 SW GREENVILLE BLVD, GREENVILLE, NC, 27834","Match","Non_Exact","1405 GREENVILLE BLVD SW, GREENVILLE, NC, 27834",80009675,"L"
58317,"1405 SW GREENVILLE BOULEVARD","GREENVILLE","NC",27834,35.574828504,-77.419155157,317,"1405 SW GREENVILLE BOULEVARD, GREENVILLE, NC, 27834","Match","Non_Exact","1405 GREENVILLE BLVD SW, GREENVILLE, NC, 27834",80009675,"L"
58318,"1405 TALL PINE WAY","FORT WORTH","TX",76112,NA,NA,318,"1405 TALL PINE WAY, FORT WORTH, TX, 76112","No_Match",NA,NA,NA,NA
58319,"1405 TANGLEWOOD DRIVE","WICHITA FALLS","TX",76309,33.900040851,-98.55830436,319,"1405 TANGLEWOOD DRIVE, WICHITA FALLS, TX, 76309","Match","Exact","1405 TANGLEWOOD DR, WICHITA FALLS, TX, 76309",169851004,"R"
58320,"1405 TIDWELL ST SW","CULLMAN","AL",35055,34.1651369160001,-86.85552703,320,"1405 TIDWELL ST SW, CULLMAN, AL, 35055","Match","Exact","1405 TIDWELL ST SW, CULLMAN, AL, 35055",130222763,"L"
58321,"1405 VETERANS HIGHWAY  APARTMENTJ10","BRISTOL","PA",19007,40.111375319,-74.8790911729999,321,"1405 VETERANS HIGHWAY  APARTMENTJ10, BRISTOL, PA, 19007","Match","Exact","1405 VETERANS HWY, BRISTOL, PA, 19007",134775303,"L"
58322,"1405 VETERANS HIGHWAY G2","BRISTOL","PA",19007,40.111375319,-74.8790911729999,322,"1405 VETERANS HIGHWAY G2, BRISTOL, PA, 19007","Match","Exact","1405 VETERANS HWY, BRISTOL, PA, 19007",134775303,"L"
58323,"1405 W 6TH ST","HOLTON","KS",66436,39.4663192360001,-95.754009479,323,"1405 W 6TH ST, HOLTON, KS, 66436","Match","Exact","1405 W 6TH ST, HOLTON, KS, 66436",10128138,"L"
58324,"1405 W KANDY COURT","TUCSON","AZ",85745,NA,NA,324,"1405 W KANDY COURT, TUCSON, AZ, 85745","Tie",NA,NA,NA,NA
58325,"1405 W NIAGARA ST","TUCSON","AZ",85745,32.2316083750001,-110.995179261,325,"1405 W NIAGARA ST, TUCSON, AZ, 85745","Match","Exact","1405 W NIAGARA ST, TUCSON, AZ, 85745",121169063,"L"
58326,"1405 WAKARUSA","LAWRENCE","KS",66049,38.959186426,-95.306936091,326,"1405 WAKARUSA, LAWRENCE, KS, 66049","Match","Non_Exact","1405 WAKARUSA DR, LAWRENCE, KS, 66049",17704562,"R"
58327,"1405 WASHINGTON STREET","OLEAN","NY",14760,42.079845516,-78.445977329,327,"1405 WASHINGTON STREET, OLEAN, NY, 14760","Match","Exact","1405 WASHINGTON ST, OLEAN, NY, 14760",122031668,"L"
58328,"1405 WATT AVE","SACRAMENTO","CA",95864,38.5910831210001,-121.383064789,328,"1405 WATT AVE, SACRAMENTO, CA, 95864","Match","Exact","1405 WATT AVE, SACRAMENTO, CA, 95864",133338297,"L"
58329,"1405 WOODMONT DRIVE","ALLEN","TX",75002,33.0924536650001,-96.638031465,329,"1405 WOODMONT DRIVE, ALLEN, TX, 75002","Match","Exact","1405 WOODMONT DR, ALLEN, TX, 75002",210520939,"L"
58330,"14050 ASTER AVE","WELINGTON","FL",33414,26.6673561110001,-80.271444792,330,"14050 ASTER AVE, WELINGTON, FL, 33414","Match","Non_Exact","14050 ASTER AVE, WELLINGTON, FL, 33414",115578997,"L"
58331,"14050 OLYMPIC DRIVE","CLEARLAKE","CA",95422,38.960930251,-122.648770433,331,"14050 OLYMPIC DRIVE, CLEARLAKE, CA, 95422","Match","Exact","14050 OLYMPIC DR, CLEARLAKE, CA, 95422",67053121,"L"
58332,"14050 RIATA CIRCLE","RENO","NV",89521,39.398039775,-119.732735431,332,"14050 RIATA CIRCLE, RENO, NV, 89521","Match","Exact","14050 RIATA CIR, RENO, NV, 89521",107107622,"R"
58333,"14051 32ND AVE NE","SEATTLE","WA",98125,47.7305185970001,-122.293851267,333,"14051 32ND AVE NE, SEATTLE, WA, 98125","Match","Exact","14051 32ND AVE NE, SEATTLE, WA, 98125",186576448,"L"
58334,"14051 BELLE CHASSE BLV","LAUREL","MD",20707,39.073267109,-76.879720148,334,"14051 BELLE CHASSE BLV, LAUREL, MD, 20707","Match","Exact","14051 BELLE CHASSE BLVD, LAUREL, MD, 20707",639244648,"R"
58335,"14051 E HWY 316","FORT MCCOY","FL",32134,29.371636891,-81.926271917,335,"14051 E HWY 316, FORT MCCOY, FL, 32134","Match","Non_Exact","14051 E HWY 316, FORT MC COY, FL, 32134",648177126,"L"
58336,"14051 NEWPORT AVE - G","TUSTIN","CA",92780,33.736331781,-117.824166922,336,"14051 NEWPORT AVE - G, TUSTIN, CA, 92780","Match","Exact","14051 NEWPORT AVE, TUSTIN, CA, 92780",638571174,"R"
58337,"14052 52ND S","DELRAY BEACH","FL",33483,NA,NA,337,"14052 52ND S, DELRAY BEACH, FL, 33483","No_Match",NA,NA,NA,NA
58338,"14052 SE 63RD ST","BELLEVUE","WA",98006,47.5466626470001,-122.153961794,338,"14052 SE 63RD ST, BELLEVUE, WA, 98006","Match","Exact","14052 SE 63RD ST, BELLEVUE, WA, 98006",629180361,"R"
58339,"14055 CEDAR RD STE 200","SOUTH EUCLID","OH",44118,41.501373986,-81.5336460239999,339,"14055 CEDAR RD STE 200, SOUTH EUCLID, OH, 44118","Match","Exact","14055 CEDAR RD, SOUTH EUCLID, OH, 44118",61125665,"L"
58340,"14055 DUNBAR COURT","GRANDVIEW","MO",64030,38.869720482,-94.525036546,340,"14055 DUNBAR COURT, GRANDVIEW, MO, 64030","Match","Exact","14055 DUNBAR CT, GRANDVIEW, MO, 64030",91487142,"R"
58341,"14056 TORREY PINES DRIVE","AUBURN","CA",95602,39.0287878950001,-121.068818043,341,"14056 TORREY PINES DRIVE, AUBURN, CA, 95602","Match","Exact","14056 TORREY PINES DR, AUBURN, CA, 95602",106539600,"L"
58342,"14056 WALKING STICK WAY","STRONGSVILLE","OH",44136,41.288792577,-81.7942949609999,342,"14056 WALKING STICK WAY, STRONGSVILLE, OH, 44136","Match","Exact","14056 WALKING STICK WAY, STRONGSVILLE, OH, 44136",61132467,"L"
58343,"14057 SE CENTER ST","PORTLAND","OR",97236,45.4932638860001,-122.518098288,343,"14057 SE CENTER ST, PORTLAND, OR, 97236","Match","Exact","14057 SE CENTER ST, PORTLAND, OR, 97236",638570236,"L"
58344,"14057 SNOWDALE STREET","LA PUENTE","CA",91746,34.064254599,-117.97033902,344,"14057 SNOWDALE STREET, LA PUENTE, CA, 91746","Match","Exact","14057 SNOWDALE ST, LA PUENTE, CA, 91746",624479974,"L"
58345,"14059 ROBIN CREST LN","CHINO HILLS","CA",91709,33.9975669180001,-117.753906793,345,"14059 ROBIN CREST LN, CHINO HILLS, CA, 91709","Match","Exact","14059 ROBIN CREST LN, CHINO HILLS, CA, 91709",144968304,"L"
58346,"14059 STATE ROUTE 226","LAKEVILLE","OH",44638,40.657035351,-82.125166796,346,"14059 STATE ROUTE 226, LAKEVILLE, OH, 44638","Match","Exact","14059 STATE RTE 226, LAKEVILLE, OH, 44638",58636743,"L"
58347,"1406 10TH STREET SOUTH","FARGO","ND",58103,46.8593406800001,-96.795005378,347,"1406 10TH STREET SOUTH, FARGO, ND, 58103","Match","Exact","1406 10TH ST S, FARGO, ND, 58103",151447868,"L"
58348,"1406 218TH AVE NE","SAMMAMISH","WA",98074,47.617897258,-122.048926699,348,"1406 218TH AVE NE, SAMMAMISH, WA, 98074","Match","Exact","1406 218TH AVE NE, SAMMAMISH, WA, 98074",186970724,"L"
58349,"1406 22ND ST","WOODWARD","OK",73801,NA,NA,349,"1406 22ND ST, WOODWARD, OK, 73801","No_Match",NA,NA,NA,NA
58350,"1406 37TH STREET APT D","CANTON","OH",44714,40.8375130790001,-81.357371139,350,"1406 37TH STREET APT D, CANTON, OH, 44714","Match","Non_Exact","1406 37TH ST NE, CANTON, OH, 44714",614827814,"R"
58351,"1406 56TH SOUTH STREET","RICHMOND","CA",94804,NA,NA,351,"1406 56TH SOUTH STREET, RICHMOND, CA, 94804","No_Match",NA,NA,NA,NA
58352,"1406 6TH AVENUE","CADILLAC","MI",49601,44.263334613,-85.416560496,352,"1406 6TH AVENUE, CADILLAC, MI, 49601","Match","Exact","1406 6TH AVE, CADILLAC, MI, 49601",146094871,"R"
58353,"1406 ADELL ROSE LN","HOUSTON","TX",77043,NA,NA,353,"1406 ADELL ROSE LN, HOUSTON, TX, 77043","No_Match",NA,NA,NA,NA
58354,"1406 ALHAMBRA RD","SOUTH PASADENA","CA",91030,NA,NA,354,"1406 ALHAMBRA RD, SOUTH PASADENA, CA, 91030","No_Match",NA,NA,NA,NA
58355,"1406 ALLEGHENY ST","ATLANTA","GA",30310,33.7350413030001,-84.4335627409999,355,"1406 ALLEGHENY ST, ATLANTA, GA, 30310","Match","Non_Exact","1406 ALLEGHENY ST SW, ATLANTA, GA, 30310",17341300,"L"
58356,"1406 ALLISON ST","BRENHAM","TX",77833,30.1490782990001,-96.378720269,356,"1406 ALLISON ST, BRENHAM, TX, 77833","Match","Exact","1406 ALLISON ST, BRENHAM, TX, 77833",39247346,"L"
58357,"1406 ARD BRAC PLACE","SALISBURY","MD",21804,38.3366871750001,-75.595751701,357,"1406 ARD BRAC PLACE, SALISBURY, MD, 21804","Match","Exact","1406 ARD BRAC PL, SALISBURY, MD, 21804",626225076,"R"
58358,"1406 BALTIMORE","SENECA","KS",66538,39.8332286950001,-96.074914411,358,"1406 BALTIMORE, SENECA, KS, 66538","Match","Non_Exact","1406 BALTIMORE ST, SENECA, KS, 66538",10194082,"R"
58359,"1406 BARITONE COURT","VIENNA","VA",22182,38.949004216,-77.270032492,359,"1406 BARITONE COURT, VIENNA, VA, 22182","Match","Exact","1406 BARITONE CT, VIENNA, VA, 22182",75961042,"L"
58360,"1406 BEATTIES FORD ROAD","CHARLOTTE","NC",28216,35.256275112,-80.855686275,360,"1406 BEATTIES FORD ROAD, CHARLOTTE, NC, 28216","Match","Exact","1406 BEATTIES FORD RD, CHARLOTTE, NC, 28216",70477303,"R"
58361,"1406 BISON RIDGE COURT","WINDSOR","CO",80550,40.4641308550001,-104.945236199,361,"1406 BISON RIDGE COURT, WINDSOR, CO, 80550","Match","Exact","1406 BISON RIDGE CT, WINDSOR, CO, 80550",188610451,"R"
58362,"1406 BLAKELY GROVE LN","PEARLAND","TX",77581,29.584857867,-95.264594226,362,"1406 BLAKELY GROVE LN, PEARLAND, TX, 77581","Match","Exact","1406 BLAKELY GROVE LN, PEARLAND, TX, 77581",653226905,"R"
58363,"1406 BUNCHE STREET","WAYCROSS","GA",31501,31.2329032060001,-82.3585831729999,363,"1406 BUNCHE STREET, WAYCROSS, GA, 31501","Match","Exact","1406 BUNCHE ST, WAYCROSS, GA, 31501",5236489,"R"
58364,"1406 CEDAR LAWN AVE","HENRICO","VA",23231,37.4789934400001,-77.3936722399999,364,"1406 CEDAR LAWN AVE, HENRICO, VA, 23231","Match","Exact","1406 CEDAR LAWN AVE, HENRICO, VA, 23231",106650640,"L"
58365,"1406 CENTRA VILLA DRIVE","ATLANTA","GA",30311,33.7173157490001,-84.452964188,365,"1406 CENTRA VILLA DRIVE, ATLANTA, GA, 30311","Match","Non_Exact","1406 CENTRA VILLA DR SW, ATLANTA, GA, 30311",17341163,"L"
58366,"1406 CHAUMONT CIR","ANDOVER","KS",67002,NA,NA,366,"1406 CHAUMONT CIR, ANDOVER, KS, 67002","No_Match",NA,NA,NA,NA
58367,"1406 CHESTER ST","SOUTH BEND","IN",46615,41.6668886740001,-86.2275516,367,"1406 CHESTER ST, SOUTH BEND, IN, 46615","Match","Exact","1406 CHESTER ST, SOUTH BEND, IN, 46615",8084554,"R"
58368,"1406 CLEVELAND AVE","COLUMBUS","OH",43211,39.993940192,-82.9814327349999,368,"1406 CLEVELAND AVE, COLUMBUS, OH, 43211","Match","Exact","1406 CLEVELAND AVE, COLUMBUS, OH, 43211",135577928,"R"
58369,"1406 CORNELL ST","MCKEESPORT","PA",15132,40.346722367,-79.85765773,369,"1406 CORNELL ST, MCKEESPORT, PA, 15132","Match","Exact","1406 CORNELL ST, MCKEESPORT, PA, 15132",51814848,"R"
58370,"1406 COTTONWOOD DRIVE","COLUMBUS","OH",43229,40.081958431,-82.9784899589999,370,"1406 COTTONWOOD DRIVE, COLUMBUS, OH, 43229","Match","Exact","1406 COTTONWOOD DR, COLUMBUS, OH, 43229",218660631,"L"
58371,"1406 CR 3300","LUBBOCK","TX",79403,33.5828479800001,-101.674749275,371,"1406 CR 3300, LUBBOCK, TX, 79403","Match","Exact","1406 CO RD 3300, LUBBOCK, TX, 79403",185328420,"L"
58372,"1406 DEVONSHIRE DR","JOLIET","IL",60435,41.548532466,-88.1328619719999,372,"1406 DEVONSHIRE DR, JOLIET, IL, 60435","Match","Exact","1406 DEVONSHIRE DR, JOLIET, IL, 60435",111539329,"R"
58373,"1406 E 126 ST","COMPTON","CA",90222,33.918353107,-118.249016025,373,"1406 E 126 ST, COMPTON, CA, 90222","Match","Exact","1406 E 126TH ST, COMPTON, CA, 90222",141674660,"R"
58374,"1406 E 68TH STREET UNIT 3","CHICAGO","IL",60637,41.771475966,-87.590739118,374,"1406 E 68TH STREET UNIT 3, CHICAGO, IL, 60637","Match","Non_Exact","1406 E 68TH ST, CHICAGO, IL, 60637",605503016,"L"
58375,"1406 E MAIN ST  200-114","FREDERICKSBURG","TX",78624,NA,NA,375,"1406 E MAIN ST  200-114, FREDERICKSBURG, TX, 78624","Tie",NA,NA,NA,NA
58376,"1406 E PALM LN","PHOENIX","AZ",85006,33.4693748130001,-112.051721619,376,"1406 E PALM LN, PHOENIX, AZ, 85006","Match","Exact","1406 E PALM LN, PHOENIX, AZ, 85006",128214202,"L"
58377,"1406 EAST 1900 NORTH","LOGAN","UT",84341,41.7657922760001,-111.799382906,377,"1406 EAST 1900 NORTH, LOGAN, UT, 84341","Match","Exact","1406 E 1900 N, LOGAN, UT, 84341",641067057,"R"
58378,"1406 FLAGLER BOULEVARD","LAKE PARK","FL",33403,26.804329119,-80.06793583,378,"1406 FLAGLER BOULEVARD, LAKE PARK, FL, 33403","Match","Exact","1406 FLAGLER BLVD, LAKE PARK, FL, 33403",115275477,"L"
58379,"1406 FORREST AVE","DOVER","DE",19904,39.1590318630001,-75.557395964,379,"1406 FORREST AVE, DOVER, DE, 19904","Match","Exact","1406 FORREST AVE, DOVER, DE, 19904",68097651,"L"
58380,"1406 GLENSIDE DR","BOLINGBROOK","IL",60490,41.6744239830001,-88.132342487,380,"1406 GLENSIDE DR, BOLINGBROOK, IL, 60490","Match","Exact","1406 GLENSIDE DR, BOLINGBROOK, IL, 60490",111614502,"R"
58381,"1406 GODWIN STREET","HOUSTON","TX",77023,29.7286844670001,-95.331225347,381,"1406 GODWIN STREET, HOUSTON, TX, 77023","Match","Exact","1406 GODWIN ST, HOUSTON, TX, 77023",96081814,"R"
58382,"1406 HAMILTON STREET NW","WASHINGTON","DC",20011,38.952904242,-77.033591781,382,"1406 HAMILTON STREET NW, WASHINGTON, DC, 20011","Match","Exact","1406 HAMILTON ST NW, WASHINGTON, DC, 20011",641520506,"L"
58383,"1406 HAYES ST","EUREKA","CA",95501,40.783615108,-124.153284953,383,"1406 HAYES ST, EUREKA, CA, 95501","Match","Exact","1406 HAYES ST, EUREKA, CA, 95501",112990153,"L"
58384,"1406 HIGH STREET","HARLINGEN","TX",78550,26.2063062330001,-97.680577823,384,"1406 HIGH STREET, HARLINGEN, TX, 78550","Match","Exact","1406 HIGH ST, HARLINGEN, TX, 78550",89956954,"R"
58385,"1406 HUTTON DRIVE","CAROLLTON","TX",75006,32.9505540970001,-96.916160922,385,"1406 HUTTON DRIVE, CAROLLTON, TX, 75006","Match","Non_Exact","1406 HUTTON DR, CARROLLTON, TX, 75006",103209250,"L"
58386,"1406 IOWA AVE","LYNN HAVEN","FL",32444,30.2372741780001,-85.640816929,386,"1406 IOWA AVE, LYNN HAVEN, FL, 32444","Match","Exact","1406 IOWA AVE, LYNN HAVEN, FL, 32444",7027476,"R"
58387,"1406 KELSTON PL APT 101","CHARLOTTE","NC",28212,35.2075344680001,-80.74228705,387,"1406 KELSTON PL APT 101, CHARLOTTE, NC, 28212","Match","Exact","1406 KELSTON PL, CHARLOTTE, NC, 28212",70538116,"R"
58388,"1406 KELVING WAY","WHARTON","TX",77488,29.3160565110001,-96.0831933489999,388,"1406 KELVING WAY, WHARTON, TX, 77488","Match","Exact","1406 KELVING WAY, WHARTON, TX, 77488",42537320,"L"
58389,"1406 KING WILLIAM DR","CATONSVILLE","MD",21228,39.3009336870001,-76.760517519,389,"1406 KING WILLIAM DR, CATONSVILLE, MD, 21228","Match","Exact","1406 KING WILLIAM DR, CATONSVILLE, MD, 21228",191482994,"L"
58390,"1406 LIGHT STREET","BALTIMORE","MD",21230,39.2740345550001,-76.6119425749999,390,"1406 LIGHT STREET, BALTIMORE, MD, 21230","Match","Exact","1406 LIGHT ST, BALTIMORE, MD, 21230",206421201,"R"
58391,"1406 LOREA LANE","BRANDON","FL",33511,NA,NA,391,"1406 LOREA LANE, BRANDON, FL, 33511","No_Match",NA,NA,NA,NA
58392,"1406 LUCILLE AVENUE","MONROE","NC",28112,34.972681407,-80.56294453,392,"1406 LUCILLE AVENUE, MONROE, NC, 28112","Match","Exact","1406 LUCILLE AVE, MONROE, NC, 28112",14174611,"L"
58393,"1406 MACCLESBY LN","CHANNELVIEW","TX",77530,29.8011604700001,-95.149629655,393,"1406 MACCLESBY LN, CHANNELVIEW, TX, 77530","Match","Exact","1406 MACCLESBY LN, CHANNELVIEW, TX, 77530",96096064,"R"
58394,"1406 MALVERN AVENUE","TOWSON","MD",21204,39.3964706450001,-76.6400857959999,394,"1406 MALVERN AVENUE, TOWSON, MD, 21204","Match","Exact","1406 MALVERN AVE, TOWSON, MD, 21204",191541351,"R"
58395,"1406 MEDINA TRAIL","EULESS","TX",76039,32.873460965,-97.105047669,395,"1406 MEDINA TRAIL, EULESS, TX, 76039","Match","Exact","1406 MEDINA TRL, EULESS, TX, 76039",648290234,"L"
58396,"1406 MERLIN CIRCLE","AUDUBON","PA",19403,40.1414436810001,-75.433835217,396,"1406 MERLIN CIRCLE, AUDUBON, PA, 19403","Match","Exact","1406 MERLIN CIR, AUDUBON, PA, 19403",135124308,"R"
58397,"1406 N OLD COURSE ROAD","WASHINGTON","UT",84780,37.1504666870001,-113.527647578,397,"1406 N OLD COURSE ROAD, WASHINGTON, UT, 84780","Match","Exact","1406 N OLD COURSE RD, WASHINGTON, UT, 84780",619160264,"R"
58398,"1406 NORTH MULBERRY STREET","MARYVILLE","MO",64468,40.358244298,-94.876230366,398,"1406 NORTH MULBERRY STREET, MARYVILLE, MO, 64468","Match","Exact","1406 N MULBERRY ST, MARYVILLE, MO, 64468",38560264,"L"
58399,"1406 NORTHBROOKE DR","MONTICELLO","IN",47960,40.762182771,-86.770206775,399,"1406 NORTHBROOKE DR, MONTICELLO, IN, 47960","Match","Non_Exact","1406 NORTHBROOK DR, MONTICELLO, IN, 47960",606930893,"R"
58400,"1406 NW OCEANVIEW DRIVE","NEWPORT","OR",97365,44.6474930110001,-124.057424844,400,"1406 NW OCEANVIEW DRIVE, NEWPORT, OR, 97365","Match","Exact","1406 NW OCEANVIEW DR, NEWPORT, OR, 97365",155931178,"R"
58401,"1406 OLD TOWN CT","BEAVERCREEK","OH",45434,39.7296590890001,-84.0202094479999,401,"1406 OLD TOWN CT, BEAVERCREEK, OH, 45434","Match","Exact","1406 OLD TOWN CT, BEAVERCREEK, OH, 45434",143407199,"L"
58402,"1406 PAWN DRIVE","KIRKSVILLE","MO",63501,40.2062806000001,-92.570210016,402,"1406 PAWN DRIVE, KIRKSVILLE, MO, 63501","Match","Exact","1406 PAWN DR, KIRKSVILLE, MO, 63501",24763483,"R"
58403,"1406 PEACH TREE LN","PHILADELPHIA","PA",19111,40.0687900780001,-75.0648569109999,403,"1406 PEACH TREE LN, PHILADELPHIA, PA, 19111","Match","Exact","1406 PEACH TREE LN, PHILADELPHIA, PA, 19111",641938526,"R"
58404,"1406 PEARL DR","LOUDONVILLE","OH",44842,NA,NA,404,"1406 PEARL DR, LOUDONVILLE, OH, 44842","No_Match",NA,NA,NA,NA
58405,"1406 PINE ST","NORTH LITTLE ROCK","AR",72114,34.767160776,-92.2601909749999,405,"1406 PINE ST, NORTH LITTLE ROCK, AR, 72114","Match","Non_Exact","1406 N PINE ST, N LITTLE ROCK, AR, 72114",83514502,"R"
58406,"1406 QUIET ACRES CIRCLE","ROCK HILL","SC",29732,34.945010547,-81.096987547,406,"1406 QUIET ACRES CIRCLE, ROCK HILL, SC, 29732","Match","Exact","1406 QUIET ACRES CIR, ROCK HILL, SC, 29732",19816847,"R"
58407,"1406 ROBIN WILLOW","SAN ANTONIO","TX",78260,29.6897612450001,-98.469823304,407,"1406 ROBIN WILLOW, SAN ANTONIO, TX, 78260","Match","Exact","1406 ROBIN WILLOW, SAN ANTONIO, TX, 78260",619993471,"R"
58408,"1406 S KEMP AVE","COMPTON","CA",90220,33.882867338,-118.238905067,408,"1406 S KEMP AVE, COMPTON, CA, 90220","Match","Exact","1406 S KEMP AVE, COMPTON, CA, 90220",141680822,"L"
58409,"1406 S RAYMOND AVE","ALHAMBRA","CA",91803,34.0768266040001,-118.145430186,409,"1406 S RAYMOND AVE, ALHAMBRA, CA, 91803","Match","Exact","1406 S RAYMOND AVE, ALHAMBRA, CA, 91803",142736809,"L"
58410,"1406 S VAN NESS AVE","LOS ANGELES","CA",90015,34.046209128,-118.3156879,410,"1406 S VAN NESS AVE, LOS ANGELES, CA, 90015","Match","Non_Exact","1406 S VAN NESS AVE, LOS ANGELES, CA, 90019",141605609,"L"
58411,"1406 SE RHINE ST","PORTLAND","OR",97202,45.4974727470001,-122.651187124,411,"1406 SE RHINE ST, PORTLAND, OR, 97202","Match","Exact","1406 SE RHINE ST, PORTLAND, OR, 97202",157509478,"R"
58412,"1406 SOUTH 56TH STREET","RICHMOND","CA",94804,37.912291956,-122.316905755,412,"1406 SOUTH 56TH STREET, RICHMOND, CA, 94804","Match","Exact","1406 S 56TH ST, RICHMOND, CA, 94804",192043569,"L"
58413,"1406 STARMONT DRIVE","HILLSBOROUGH","NC",27278,36.089185071,-79.07996518,413,"1406 STARMONT DRIVE, HILLSBOROUGH, NC, 27278","Match","Exact","1406 STARMONT DR, HILLSBOROUGH, NC, 27278",627464874,"L"
58414,"1406 STARR GRADD DR","MADISON","WI",53719,NA,NA,414,"1406 STARR GRADD DR, MADISON, WI, 53719","No_Match",NA,NA,NA,NA
58415,"1406 SUNDANCE DR","PLUMAS LAKE","CA",95961,39.0083100460001,-121.548384008,415,"1406 SUNDANCE DR, PLUMAS LAKE, CA, 95961","Match","Non_Exact","1406 SUNDANCE, PLUMAS LAKE, CA, 95961",611583179,"R"
58416,"1406 SUNSET DRIVE","FRANKLIN","TN",37064,35.9108298580001,-86.868697207,416,"1406 SUNSET DRIVE, FRANKLIN, TN, 37064","Match","Exact","1406 SUNSET DR, FRANKLIN, TN, 37064",73116967,"L"
58417,"1406 TROPICAL PINE CV","MIDDLEBURG","FL",32068,NA,NA,417,"1406 TROPICAL PINE CV, MIDDLEBURG, FL, 32068","No_Match",NA,NA,NA,NA
58418,"1406 TURIN LANE","LOS ANGELES","CA",90047,NA,NA,418,"1406 TURIN LANE, LOS ANGELES, CA, 90047","No_Match",NA,NA,NA,NA
58419,"1406 VALLEY VIEW DRIVE","JOHNSON CITY","TN",37601,36.3203265400001,-82.325480388,419,"1406 VALLEY VIEW DRIVE, JOHNSON CITY, TN, 37601","Match","Exact","1406 VALLEY VIEW DR, JOHNSON CITY, TN, 37601",127925932,"R"
58420,"1406 W 64TH STREET","CHICAGO","IL",60636,41.7777255560001,-87.659611865,420,"1406 W 64TH STREET, CHICAGO, IL, 60636","Match","Exact","1406 W 64TH ST, CHICAGO, IL, 60636",605487636,"R"
58421,"1406 W CRESTWOOD DR","MEMPHIS","TN",38119,35.0930177220001,-89.877782859,421,"1406 W CRESTWOOD DR, MEMPHIS, TN, 38119","Match","Exact","1406 W CRESTWOOD DR, MEMPHIS, TN, 38119",72927442,"L"
58422,"1406 W FERN AVE","MCALLEN","TX",78501,26.232907563,-98.230179888,422,"1406 W FERN AVE, MCALLEN, TX, 78501","Match","Exact","1406 FERN AVE, MCALLEN, TX, 78501",71494240,"R"
58423,"1406 WEST 69TH ST","LOS ANGELES","CA",90047,33.976998715,-118.300556616,423,"1406 WEST 69TH ST, LOS ANGELES, CA, 90047","Match","Exact","1406 W 69TH ST, LOS ANGELES, CA, 90047",141658472,"L"
58424,"1406 WEST LAKE STREET SUITE 209","MINNEAPOLIS","MN",55408,44.948368155,-93.297460045,424,"1406 WEST LAKE STREET SUITE 209, MINNEAPOLIS, MN, 55408","Match","Exact","1406 W LAKE ST, MINNEAPOLIS, MN, 55408",43628550,"R"
58425,"1406 WESTWOOD DR","IRVING","TX",75060,32.7996002620001,-96.960862748,425,"1406 WESTWOOD DR, IRVING, TX, 75060","Match","Exact","1406 WESTWOOD DR, IRVING, TX, 75060",102892568,"L"
58426,"1406 WILDWOOD DR","FALLSTON","MD",21047,39.5316197590001,-76.398255385,426,"1406 WILDWOOD DR, FALLSTON, MD, 21047","Match","Exact","1406 WILDWOOD DR, FALLSTON, MD, 21047",191639758,"R"
58427,"1406 WILSON AVENUE","SAN MARINO","CA",91108,34.1103692180001,-118.133856348,427,"1406 WILSON AVENUE, SAN MARINO, CA, 91108","Match","Exact","1406 WILSON AVE, SAN MARINO, CA, 91108",141631289,"R"
58428,"1406 WINDING BROOK CIRCLE APT 278","DALLAS","TX",75208,32.7625290170001,-96.848150977,428,"1406 WINDING BROOK CIRCLE APT 278, DALLAS, TX, 75208","Match","Exact","1406 WINDING BROOK CIR, DALLAS, TX, 75208",103266734,"L"
58429,"1406 WISHART PLACE","ST LOUIS","MO",63132,38.6848770990001,-90.3793363,429,"1406 WISHART PLACE, ST LOUIS, MO, 63132","Match","Non_Exact","1406 WISHART AVE, SAINT LOUIS, MO, 63132",100130868,"R"
58430,"1406 WOODCREEK DR","RICHARDSON","TX",75401,32.980635625,-96.699346227,430,"1406 WOODCREEK DR, RICHARDSON, TX, 75401","Match","Non_Exact","1406 WOODCREEK DR, RICHARDSON, TX, 75082",103212979,"R"
58431,"1406 YOUNGS MILL RD","GREENSBORO","NC",27406,36.051297909,-79.708887886,431,"1406 YOUNGS MILL RD, GREENSBORO, NC, 27406","Match","Exact","1406 YOUNGS MILL RD, GREENSBORO, NC, 27406",636770735,"R"
58432,"14060 LEAH CLARK PL","CHARLOTTE HALL","MD",20622,38.4757640510001,-76.821870787,432,"14060 LEAH CLARK PL, CHARLOTTE HALL, MD, 20622","Match","Exact","14060 LEAH CLARK PL, CHARLOTTE HALL, MD, 20622",636784417,"L"
58433,"14060 S POPLAR ST","GLENPOOL","OK",74033,35.960121029,-95.986339346,433,"14060 S POPLAR ST, GLENPOOL, OK, 74033","Match","Exact","14060 S POPLAR ST, GLENPOOL, OK, 74033",166460694,"L"
58434,"14060 STEPHENS RD","WARREN","MI",48089,42.4713255120001,-82.9809534029999,434,"14060 STEPHENS RD, WARREN, MI, 48089","Match","Exact","14060 STEPHENS RD, WARREN, MI, 48089",110678037,"R"
58435,"14060 SW 54TH ST SUITE 101A","MIRAMAR","FL",33027,NA,NA,435,"14060 SW 54TH ST SUITE 101A, MIRAMAR, FL, 33027","No_Match",NA,NA,NA,NA
58436,"14060 SW 54TH ST SUITE 107A","MIRAMAR","FL",33027,NA,NA,436,"14060 SW 54TH ST SUITE 107A, MIRAMAR, FL, 33027","No_Match",NA,NA,NA,NA
58437,"14062 BALBOA BLVD","SYLMA","CA",91342,34.3208781720001,-118.487878213,437,"14062 BALBOA BLVD, SYLMA, CA, 91342","Match","Non_Exact","14062 BALBOA BLVD, SYLMAR, CA, 91342",142837539,"R"
58438,"14062 DARKWOOD CIRCLE","CENTREVILLE","VA",20121,38.822164199,-77.4348555029999,438,"14062 DARKWOOD CIRCLE, CENTREVILLE, VA, 20121","Match","Exact","14062 DARKWOOD CIR, CENTREVILLE, VA, 20121",614141618,"L"
58439,"14062 DENVER WEST PARKWAY BLDG 52","GOLDEN","CO",80401,39.7431237050001,-105.15754682,439,"14062 DENVER WEST PARKWAY BLDG 52, GOLDEN, CO, 80401","Match","Exact","14062 DENVER WEST PKWY, GOLDEN, CO, 80401",647320750,"R"
58440,"14062 N ROADRUNNER LN","FLORENCE","AZ",85132,33.0066437730001,-111.328684996,440,"14062 N ROADRUNNER LN, FLORENCE, AZ, 85132","Match","Exact","14062 N ROADRUNNER LN, FLORENCE, AZ, 85132",129300492,"L"
58441,"14063 CRONESE ROAD","APPLE VALLEY","CA",92307,34.5069088070001,-117.230430664,441,"14063 CRONESE ROAD, APPLE VALLEY, CA, 92307","Match","Exact","14063 CRONESE RD, APPLE VALLEY, CA, 92307",144576315,"R"
58442,"14064 SW 104 CT","MIAMI","FL",33176,25.638780765,-80.363535575,442,"14064 SW 104 CT, MIAMI, FL, 33176","Match","Exact","14064 SW 104TH CT, MIAMI, FL, 33176",115981937,"R"
58443,"14065 CHESTER LN","PEKIN","IL",61554,NA,NA,443,"14065 CHESTER LN, PEKIN, IL, 61554","No_Match",NA,NA,NA,NA
58444,"14065 RD 37","MANCOS","CO",81328,37.4236698060001,-108.37268721,444,"14065 RD 37, MANCOS, CO, 81328","Match","Non_Exact","14065 CO RD 37, MANCOS, CO, 81328",605777482,"L"
58445,"14065 SE GLADSTONE STREET UNIT A","PORTLAND","OR",97236,45.492314574,-122.518631052,445,"14065 SE GLADSTONE STREET UNIT A, PORTLAND, OR, 97236","Match","Non_Exact","14065 SE GLADSTONE ST, PORTLAND, OR, 97236",157558404,"L"
58446,"14066 MILLDALE ROAD","BROOKWOOD","AL",35444,33.3079838520001,-87.22046489,446,"14066 MILLDALE ROAD, BROOKWOOD, AL, 35444","Match","Exact","14066 MILLDALE RD, BROOKWOOD, AL, 35444",82220893,"L"
58447,"140668 GREENWOOD CHURCH ROAD","ASHLAND","VA",23005,NA,NA,447,"140668 GREENWOOD CHURCH ROAD, ASHLAND, VA, 23005","No_Match",NA,NA,NA,NA
58448,"14067 MINT TRAIL","SAN ANTONIO","TX",78232,29.5853405510001,-98.4980330819999,448,"14067 MINT TRAIL, SAN ANTONIO, TX, 78232","Match","Non_Exact","14067 MINT TRAIL DR, SAN ANTONIO, TX, 78232",101495527,"L"
58449,"14067 SOUTH SHORE DRIVE","CLIVE","IA",50325,41.6072648300001,-93.811655813,449,"14067 SOUTH SHORE DRIVE, CLIVE, IA, 50325","Match","Exact","14067 S SHORE DR, CLIVE, IA, 50325",65853679,"L"
58450,"14067 ZEPHERMOOR LANE","WINTER GARDEN","FL",34787,28.505262542,-81.5926202269999,450,"14067 ZEPHERMOOR LANE, WINTER GARDEN, FL, 34787","Match","Exact","14067 ZEPHERMOOR LN, WINTER GARDEN, FL, 34787",94409565,"L"
58451,"14068 BIG BRANCH DR","DAYTON","MD",21036,39.240418316,-77.0119616329999,451,"14068 BIG BRANCH DR, DAYTON, MD, 21036","Match","Exact","14068 BIG BRANCH DR, DAYTON, MD, 21036",619841547,"R"
58452,"14068 HIGH HILL CIRCLE","TALLAHASSEE","FL",32312,30.6737271040001,-84.282217508,452,"14068 HIGH HILL CIRCLE, TALLAHASSEE, FL, 32312","Match","Non_Exact","14068 HIGH HILLS CIR, TALLAHASSEE, FL, 32312",640426674,"L"
58453,"14068 HIGH HILL CIRCLE","TALLAHASSEE","FL",32313,NA,NA,453,"14068 HIGH HILL CIRCLE, TALLAHASSEE, FL, 32313","No_Match",NA,NA,NA,NA
58454,"14068 SW 47TH LN","MIAMI","FL",33175,25.7226739930001,-80.4222533669999,454,"14068 SW 47TH LN, MIAMI, FL, 33175","Match","Exact","14068 SW 47TH LN, MIAMI, FL, 33175",115963797,"L"
58455,"14068 SW 49TH STREET","MIRAMAR","FL",33027,25.963474408,-80.3312047909999,455,"14068 SW 49TH STREET, MIRAMAR, FL, 33027","Match","Exact","14068 SW 49TH ST, MIRAMAR, FL, 33027",617659992,"L"
58456,"1406C RIVERSIDE DRIVE","SALISBURY","MD",21801,38.3442602110001,-75.623674716,456,"1406C RIVERSIDE DRIVE, SALISBURY, MD, 21801","Match","Exact","1406 RIVERSIDE DR, SALISBURY, MD, 21801",114453132,"L"
58457,"1407 - 187TH STREET","HOMEWOOD","IL",60430,NA,NA,457,"1407 - 187TH STREET, HOMEWOOD, IL, 60430","No_Match",NA,NA,NA,NA
58458,"1407 132ND AVE NE UNIT 8","BELLEVUE","WA",98005,47.6223528130001,-122.164384121,458,"1407 132ND AVE NE UNIT 8, BELLEVUE, WA, 98005","Match","Exact","1407 132ND AVE NE, BELLEVUE, WA, 98005",186611028,"L"
58459,"1407 14 1/2 AVE","BARRON","WI",54812,45.4156579350001,-91.8656394609999,459,"1407 14 1/2 AVE, BARRON, WI, 54812","Match","Exact","1407 14 1/2 AVE, BARRON, WI, 54812",611611888,"L"
58460,"1407 24TH AVENUE N STE 203","GRAND FORKS","ND",58201,47.896238586,-97.047133846,460,"1407 24TH AVENUE N STE 203, GRAND FORKS, ND, 58201","Match","Non_Exact","1407 24TH AVE S, GRAND FORKS, ND, 58201",171277079,"L"
58461,"1407 24TH AVENUE","LONGVIEW","WA",98632,46.140697125,-122.94854371,461,"1407 24TH AVENUE, LONGVIEW, WA, 98632","Match","Exact","1407 24TH AVE, LONGVIEW, WA, 98632",184489003,"L"
58462,"1407 3RD STREET","WEST PORTSMOUTH","OH",45663,38.7547638070001,-83.0280517319999,462,"1407 3RD STREET, WEST PORTSMOUTH, OH, 45663","Match","Exact","1407 3RD ST, W PORTSMOUTH, OH, 45663",55105333,"L"
58463,"1407 ACORN CT","MISSOURI CITY","TX",77489,29.580991828,-95.52240664,463,"1407 ACORN CT, MISSOURI CITY, TX, 77489","Match","Exact","1407 ACORN CT, MISSOURI CITY, TX, 77489",78334013,"R"
58464,"1407 AFTON CIRCLE","INVERNESS","IL",60010,42.1301327680001,-88.108520288,464,"1407 AFTON CIRCLE, INVERNESS, IL, 60010","Match","Exact","1407 AFTON CIR, INVERNESS, IL, 60010",111835878,"R"
58465,"1407 ALBERTA DR","DISTRICT HEIGHTS","MD",20747,38.869491415,-76.862757589,465,"1407 ALBERTA DR, DISTRICT HEIGHTS, MD, 20747","Match","Exact","1407 ALBERTA DR, DISTRICT HEIGHTS, MD, 20747",76318397,"R"
58466,"1407 ANNA MARIE LANE","ALLEN","TX",75013,NA,NA,466,"1407 ANNA MARIE LANE, ALLEN, TX, 75013","No_Match",NA,NA,NA,NA
58467,"1407 ARTESIA LN","ROCKWALL","TX",75032,32.8734140620001,-96.389364582,467,"1407 ARTESIA LN, ROCKWALL, TX, 75032","Match","Exact","1407 ARTESIA LN, ROCKWALL, TX, 75032",627401957,"L"
58468,"1407 ASHWOOD CIR","WEST MEMPHIS","AR",72301,35.1587238220001,-90.21632578,468,"1407 ASHWOOD CIR, WEST MEMPHIS, AR, 72301","Match","Exact","1407 ASHWOOD CIR, WEST MEMPHIS, AR, 72301",69380545,"L"
58469,"1407 AVENUE F","DANBURY","TX",77534,29.230888975,-95.350354991,469,"1407 AVENUE F, DANBURY, TX, 77534","Match","Exact","1407 AVE F, DANBURY, TX, 77534",116577833,"L"
58470,"1407 AVON LANE","NORTH LAUDERDALE","FL",33068,26.210253988,-80.2290324909999,470,"1407 AVON LANE, NORTH LAUDERDALE, FL, 33068","Match","Exact","1407 AVON LN, N LAUDERDALE, FL, 33068",114820151,"R"
58471,"1407 BUENA VISTA STREET","PITTSBURGH","PA",15212,40.4564960330001,-80.014392331,471,"1407 BUENA VISTA STREET, PITTSBURGH, PA, 15212","Match","Exact","1407 BUENA VISTA ST, PITTSBURGH, PA, 15212",51626166,"L"
58472,"1407 CANDLELIGHT LN","HOUSTON","TX",77018,29.8358768100001,-95.435977758,472,"1407 CANDLELIGHT LN, HOUSTON, TX, 77018","Match","Exact","1407 CANDLELIGHT LN, HOUSTON, TX, 77018",96054013,"L"
58473,"1407 CHARTER CT","SANTA MARIA","CA",93455,34.8747093600001,-120.410100171,473,"1407 CHARTER CT, SANTA MARIA, CA, 93455","Match","Exact","1407 CHARTER CT, SANTA MARIA, CA, 93455",108611685,"L"
58474,"1407 CHELSEA DOWN LANE","CONYERS","GA",30013,NA,NA,474,"1407 CHELSEA DOWN LANE, CONYERS, GA, 30013","No_Match",NA,NA,NA,NA
58475,"1407 COLLINS DR","BURLINGTON","NC",27215,36.0740611320001,-79.4380177319999,475,"1407 COLLINS DR, BURLINGTON, NC, 27215","Match","Exact","1407 COLLINS DR, BURLINGTON, NC, 27215",71696963,"R"
58476,"1407 CROAKER LANE","CAROLINA BEACH","NC",28428,34.0204419510001,-77.905925806,476,"1407 CROAKER LANE, CAROLINA BEACH, NC, 28428","Match","Exact","1407 CROAKER LN, CAROLINA BCH, NC, 28428",152764892,"L"
58477,"1407 CROIX CREST DR","HUDSON","WI",54016,44.955437262,-92.7449675189999,477,"1407 CROIX CREST DR, HUDSON, WI, 54016","Match","Exact","1407 CROIX CREST DR, HUDSON, WI, 54016",110913562,"L"
58478,"1407 DRY CREEK ROAD","ELLENSBURG","WA",98926,47.0109607850001,-120.567817832,478,"1407 DRY CREEK ROAD, ELLENSBURG, WA, 98926","Match","Exact","1407 DRY CREEK RD, ELLENSBURG, WA, 98926",157206883,"R"
58479,"1407 E 57TH AVENUE","SPOKANE","WA",99223,47.602308576,-117.389743176,479,"1407 E 57TH AVENUE, SPOKANE, WA, 99223","Match","Exact","1407 E 57TH AVE, SPOKANE, WA, 99223",189913615,"L"
58480,"1407 E 60TH ST","CHICAGO","IL",60637,41.7860927080001,-87.591324468,480,"1407 E 60TH ST, CHICAGO, IL, 60637","Match","Exact","1407 E 60TH ST, CHICAGO, IL, 60637",111772044,"R"
58481,"1407 E DANIEL DR","FRUIT HEIGHTS","UT",84037,NA,NA,481,"1407 E DANIEL DR, FRUIT HEIGHTS, UT, 84037","No_Match",NA,NA,NA,NA
58482,"1407 E GILBREATH ST","GRAHAM","NC",27253,36.0454341070001,-79.3732797179999,482,"1407 E GILBREATH ST, GRAHAM, NC, 27253","Match","Exact","1407 E GILBREATH ST, GRAHAM, NC, 27253",71696065,"L"
58483,"1407 E RANDLE AVE","COEUR DALENE","ID",83814,47.6997765610001,-116.766997077,483,"1407 E RANDLE AVE, COEUR DALENE, ID, 83814","Match","Non_Exact","1407 E RANDLE AVE, COEUR D ALENE, ID, 83814",192904728,"R"
58484,"1407 EAST 180TH STREET","BRONX","NY",10460,40.840048374,-73.8709059019999,484,"1407 EAST 180TH STREET, BRONX, NY, 10460","Match","Exact","1407 E 180TH ST, BRONX, NY, 10460",80311914,"L"
58485,"1407 EAST CARY STREET APARTMENT 101","RICHMOND","VA",23219,NA,NA,485,"1407 EAST CARY STREET APARTMENT 101, RICHMOND, VA, 23219","No_Match",NA,NA,NA,NA
58486,"1407 ENCINITAS BLVD 308","ENCINITAS","CA",92024,33.045897139,-117.259185534,486,"1407 ENCINITAS BLVD 308, ENCINITAS, CA, 92024","Match","Exact","1407 ENCINITAS BLVD, ENCINITAS, CA, 92024",195653701,"R"
58487,"1407 ENDINGO AVE","WILLIAMSTOWN","NJ",8094,39.677237092,-75.0426049559999,487,"1407 ENDINGO AVE, WILLIAMSTOWN, NJ, 8094","Match","Exact","1407 ENDINGO AVE, WILLIAMSTOWN, NJ, 08094",134608657,"R"
58488,"1407 FLORIDA STREET","GASTONIA","NC",28052,35.245430732,-81.193200183,488,"1407 FLORIDA STREET, GASTONIA, NC, 28052","Match","Exact","1407 FLORIDA ST, GASTONIA, NC, 28052",70379513,"R"
58489,"1407 FOOTHILL BLVD BOX 53","LAVERNE","CA",91750,34.1171519010001,-117.776725013,489,"1407 FOOTHILL BLVD BOX 53, LAVERNE, CA, 91750","Match","Non_Exact","1407 FOOTHILL BLVD, LA VERNE, CA, 91750",142788579,"L"
58490,"1407 FOOTHILL BOULEVARD PMB 173","LA VERNE","CA",91750,34.1171519010001,-117.776725013,490,"1407 FOOTHILL BOULEVARD PMB 173, LA VERNE, CA, 91750","Match","Exact","1407 FOOTHILL BLVD, LA VERNE, CA, 91750",142788579,"L"
58491,"1407 GERTRUDE DR","BRANDON","FL",33511,27.918801552,-82.2810933,491,"1407 GERTRUDE DR, BRANDON, FL, 33511","Match","Exact","1407 GERTRUDE DR, BRANDON, FL, 33511",104543446,"L"
58492,"1407 GLENMEADOWS DR","ROUND ROCK","TX",78681,30.5192750780001,-97.6975168709999,492,"1407 GLENMEADOWS DR, ROUND ROCK, TX, 78681","Match","Exact","1407 GLENMEADOWS DR, ROUND ROCK, TX, 78681",126423376,"R"
58493,"1407 HANSON DRIVE","FRANKLIN","TN",37067,35.923127772,-86.776914174,493,"1407 HANSON DRIVE, FRANKLIN, TN, 37067","Match","Exact","1407 HANSON DR, FRANKLIN, TN, 37067",619135762,"R"
58494,"1407 HAZEL AVE","NEW BERN","NC",28560,35.118299102,-77.0703512279999,494,"1407 HAZEL AVE, NEW BERN, NC, 28560","Match","Exact","1407 HAZEL AVE, NEW BERN, NC, 28560",34139683,"L"
58495,"1407 HIGHWAY 311","SCHRIEVER","LA",70395,29.679685008,-90.8122088,495,"1407 HIGHWAY 311, SCHRIEVER, LA, 70395","Match","Non_Exact","1407 STATE RTE 311, SCHRIEVER, LA, 70395",92070546,"R"
58496,"1407 HUNTERS FORD","STONE MOUNTAIN","GA",30088,33.750548065,-84.181602426,496,"1407 HUNTERS FORD, STONE MOUNTAIN, GA, 30088","Match","Exact","1407 HUNTERS FORD, STONE MOUNTAIN, GA, 30088",23372519,"R"
58497,"1407 JEFFERSON AVENUE","ST. PAUL","MN",55105,44.93060131,-93.159711886,497,"1407 JEFFERSON AVENUE, ST. PAUL, MN, 55105","Match","Non_Exact","1407 W JEFFERSON AVE, SAINT PAUL, MN, 55105",97645924,"R"
58498,"1407 JULIE ST","SEAGOVILLE","TX",75159,32.654785415,-96.548358628,498,"1407 JULIE ST, SEAGOVILLE, TX, 75159","Match","Exact","1407 JULIE ST, SEAGOVILLE, TX, 75159",615340480,"R"
58499,"1407 KANSAS STREET","NORMAN","OK",73069,35.2225291140001,-97.461612793,499,"1407 KANSAS STREET, NORMAN, OK, 73069","Match","Exact","1407 KANSAS ST, NORMAN, OK, 73069",99910671,"R"
58500,"1407 LAKE GRAYSON DRIVE","KATY","TX",77494,29.7544526070001,-95.821376914,500,"1407 LAKE GRAYSON DRIVE, KATY, TX, 77494","Match","Exact","1407 LAKE GRAYSON DR, KATY, TX, 77494",629660342,"L"
