"ID","Address","City","State","Zip","lat","long","id","input_address","match_indicator","match_type","matched_address","tiger_line_id","tiger_side"
220501,"4644 W GANDBY BLVD STE 4 - 132","TAMPA","FL",33611,NA,NA,1,"4644 W GANDBY BLVD STE 4 - 132, TAMPA, FL, 33611","No_Match",NA,NA,NA,NA
220502,"46448 262ND STREET","HARTFORD","SD",57033,43.5872383190001,-96.925208842,2,"46448 262ND STREET, HARTFORD, SD, 57033","Match","Exact","46448 262ND ST, HARTFORD, SD, 57033",34965142,"R"
220503,"4645 BIT AND SPUR ROAD","MOBILE","AL",36608,30.682700197,-88.169438547,3,"4645 BIT AND SPUR ROAD, MOBILE, AL, 36608","Match","Exact","4645 BIT AND SPUR RD, MOBILE, AL, 36608",61928809,"L"
220504,"4645 COLISEUM ST  APT 2","LOS ANGELES","CA",90016,34.0173424020001,-118.347969443,4,"4645 COLISEUM ST  APT 2, LOS ANGELES, CA, 90016","Match","Exact","4645 COLISEUM ST, LOS ANGELES, CA, 90016",637366966,"R"
220505,"4645 DOLPHIN ROAD 113","DALLAS","TX",75223,32.779121119,-96.7377367289999,5,"4645 DOLPHIN ROAD 113, DALLAS, TX, 75223","Match","Exact","4645 DOLPHIN RD, DALLAS, TX, 75223",635764402,"L"
220506,"4645 ELM TERRACE","SKOKIE","IL",60076,42.0348594160001,-87.743536666,6,"4645 ELM TERRACE, SKOKIE, IL, 60076","Match","Exact","4645 ELM TER, SKOKIE, IL, 60076",111740651,"L"
220507,"4645 ENDERS RD","MANLIUS","NY",13104,42.9966476910001,-75.955484831,7,"4645 ENDERS RD, MANLIUS, NY, 13104","Match","Exact","4645 ENDERS RD, MANLIUS, NY, 13104",46579045,"L"
220508,"4645 HAWTHORNE LANE NW","WASHINGTON","DC",20016,38.92894434,-77.0916409659999,8,"4645 HAWTHORNE LANE NW, WASHINGTON, DC, 20016","Match","Exact","4645 HAWTHORNE LN NW, WASHINGTON, DC, 20016",76220094,"R"
220509,"4645 HIGHLINE PLACE","DENVER","CO",80222,39.6598323440001,-104.933405317,9,"4645 HIGHLINE PLACE, DENVER, CO, 80222","Match","Exact","4645 HIGHLINE PL, DENVER, CO, 80222",177341047,"L"
220510,"4645 JACKYBELL TRL","DECATUR","GA",30034,33.6852081760001,-84.202963827,10,"4645 JACKYBELL TRL, DECATUR, GA, 30034","Match","Exact","4645 JACKYBELL TRL, DECATUR, GA, 30034",23383593,"R"
220511,"4645 NANNIE HELEN BURROUGHS AVE NE","WASHINGTON","DC",20019,38.899051807,-76.934232602,11,"4645 NANNIE HELEN BURROUGHS AVE NE, WASHINGTON, DC, 20019","Match","Exact","4645 NANNIE HELEN BURROUGHS AVE NE, WASHINGTON, DC, 20019",76233524,"R"
220512,"4645 NANNIE HELEN BURROUGHS AVENUE","WASHINGTON","DC",20019,38.899051807,-76.934232602,12,"4645 NANNIE HELEN BURROUGHS AVENUE, WASHINGTON, DC, 20019","Match","Non_Exact","4645 NANNIE HELEN BURROUGHS AVE NE, WASHINGTON, DC, 20019",76233524,"R"
220513,"4645 NH BURROUGHS AVE NE STE 20","WASHINGTON","DC",20019,NA,NA,13,"4645 NH BURROUGHS AVE NE STE 20, WASHINGTON, DC, 20019","No_Match",NA,NA,NA,NA
220514,"4645 PITT STREET","ALBUQUERQUE","NM",87111,35.1334963240001,-106.530062992,14,"4645 PITT STREET, ALBUQUERQUE, NM, 87111","Match","Non_Exact","4645 PITT ST NE, ALBUQUERQUE, NM, 87111",206748680,"L"
220515,"4645 PLANO PARKWAY 2204","CARROLLTON","TX",75010,NA,NA,15,"4645 PLANO PARKWAY 2204, CARROLLTON, TX, 75010","No_Match",NA,NA,NA,NA
220516,"4645 RIVERMAN WAY","LEXINGTON","KY",40515,37.9574316910001,-84.489105323,16,"4645 RIVERMAN WAY, LEXINGTON, KY, 40515","Match","Exact","4645 RIVERMAN WAY, LEXINGTON, KY, 40515",31934240,"R"
220517,"4645 SE 11TH PL STE 101","CAPE CORAL","FL",33904,26.56503159,-81.95116031,17,"4645 SE 11TH PL STE 101, CAPE CORAL, FL, 33904","Match","Non_Exact","4645 SE 11TH PL, CAPE CORAL, FL, 33904",118015808,"L"
220518,"4645 SEMINARY RD APT 301","ALEXANDRIA","VA",22304,38.8267309060001,-77.109349257,18,"4645 SEMINARY RD APT 301, ALEXANDRIA, VA, 22304","Match","Exact","4645 SEMINARY RD, ALEXANDRIA, VA, 22304",76065598,"R"
220519,"4645 SOUTH TROPICAL TRAIL","MERRITT ISLAND","FL",32952,28.2752819780001,-80.665456992,19,"4645 SOUTH TROPICAL TRAIL, MERRITT ISLAND, FL, 32952","Match","Exact","4645 S TROPICAL TRL, MERRITT ISLAND, FL, 32952",93956550,"R"
220520,"4645 VALAIS COURT UNIT 123","JOHNS CREEK","GA",30022,34.0470042790001,-84.225671662,20,"4645 VALAIS COURT UNIT 123, JOHNS CREEK, GA, 30022","Match","Exact","4645 VALAIS CT, JOHNS CREEK, GA, 30022",17397203,"L"
220521,"4645 VALAIS CT 74","ALPHARETTA","GA",30222,34.0470042790001,-84.225671662,21,"4645 VALAIS CT 74, ALPHARETTA, GA, 30222","Match","Non_Exact","4645 VALAIS CT, ALPHARETTA, GA, 30022",17397203,"L"
220522,"4645 W STATE ROAD","BLOOMINGTON","IN",47403,NA,NA,22,"4645 W STATE ROAD, BLOOMINGTON, IN, 47403","No_Match",NA,NA,NA,NA
220523,"4646 COLORADO ST SE","PRIOR LAKE","MN",55372,44.713572024,-93.425865041,23,"4646 COLORADO ST SE, PRIOR LAKE, MN, 55372","Match","Exact","4646 COLORADO ST SE, PRIOR LAKE, MN, 55372",38141900,"L"
220524,"4646 E MOUNTAIN VISTA DR","PHOENIX","AZ",85048,33.3011193070001,-111.983692642,24,"4646 E MOUNTAIN VISTA DR, PHOENIX, AZ, 85048","Match","Exact","4646 E MOUNTAIN VISTA DR, PHOENIX, AZ, 85048",128891808,"L"
220525,"4646 GOLDEN WEST COVE","SOUTHHAVEN","MS",38671,34.9910873040001,-90.0709975359999,25,"4646 GOLDEN WEST COVE, SOUTHHAVEN, MS, 38671","Match","Non_Exact","4646 GOLDEN WEST COVE, SOUTHAVEN, MS, 38671",91848810,"R"
220526,"4646 GREENE PL NW","WASHINGTON","DC",20007,38.9088380090001,-77.088614535,26,"4646 GREENE PL NW, WASHINGTON, DC, 20007","Match","Exact","4646 GREENE PL NW, WASHINGTON, DC, 20007",76224736,"L"
220527,"4646 JANSSEN DR","CORPUS CHRISTI","TX",78411,27.7220074370001,-97.382953645,27,"4646 JANSSEN DR, CORPUS CHRISTI, TX, 78411","Match","Exact","4646 JANSSEN DR, CORPUS CHRISTI, TX, 78411",178520055,"L"
220528,"4646 KATHI DR","BETHLEHEM","PA",18017,40.6759847930001,-75.4056383079999,28,"4646 KATHI DR, BETHLEHEM, PA, 18017","Match","Exact","4646 KATHI DR, BETHLEHEM, PA, 18017",136891951,"R"
220529,"4646 N BEACON STREET APT 102","CHICAGO","IL",60640,41.9661887190001,-87.663981888,29,"4646 N BEACON STREET APT 102, CHICAGO, IL, 60640","Match","Non_Exact","4646 N BEACON ST, CHICAGO, IL, 60640",111761562,"L"
220530,"4646 POPLAR AVE STE 515","MEMPHIS","TN",38117,35.116317038,-89.907142892,30,"4646 POPLAR AVE STE 515, MEMPHIS, TN, 38117","Match","Exact","4646 POPLAR AVE, MEMPHIS, TN, 38117",607435301,"L"
220531,"4646 POPLAR SUITE 440B","MEMPHIS","TN",38117,35.116317038,-89.907142892,31,"4646 POPLAR SUITE 440B, MEMPHIS, TN, 38117","Match","Non_Exact","4646 POPLAR AVE, MEMPHIS, TN, 38117",607435301,"L"
220532,"4646 PRINCESS ANNE ROAD SUITE 105","VIRGINIA BEACH","VA",23462,36.810951776,-76.138573601,32,"4646 PRINCESS ANNE ROAD SUITE 105, VIRGINIA BEACH, VA, 23462","Match","Exact","4646 PRINCESS ANNE RD, VA BCH, VA, 23462",122302821,"L"
220533,"4646 RHETT LANE UNIT B","CARROLLTON","TX",75010,33.036622376,-96.8628600439999,33,"4646 RHETT LANE UNIT B, CARROLLTON, TX, 75010","Match","Exact","4646 RHETT LN, CARROLLTON, TX, 75010",650728221,"R"
220534,"4646 ROAMING DR NE","GRAND RAPIDS","MI",49525,43.047786267,-85.626229468,34,"4646 ROAMING DR NE, GRAND RAPIDS, MI, 49525","Match","Exact","4646 ROAMING DR NE, GRAND RAPIDS, MI, 49525",646760955,"R"
220535,"4646 SE ALLEN CT","TOPEKA","KS",66605,39.019437168,-95.588498175,35,"4646 SE ALLEN CT, TOPEKA, KS, 66605","Match","Exact","4646 SE ALLEN CT, TOPEKA, KS, 66605",17894088,"L"
220536,"4646 SHERER AVENUE SW","CANTON","OH",44706,40.7440252230001,-81.3907872249999,36,"4646 SHERER AVENUE SW, CANTON, OH, 44706","Match","Exact","4646 SHERER AVE SW, CANTON, OH, 44706",64686938,"L"
220537,"4646 SOUTH PRAIRIE AVE APT 1S","CHICAGO","IL",60653,41.8104867230001,-87.619629178,37,"4646 SOUTH PRAIRIE AVE APT 1S, CHICAGO, IL, 60653","Match","Exact","4646 S PRAIRIE AVE, CHICAGO, IL, 60653",605539651,"R"
220538,"4646 SOUTH WALLACE LANE","HOLLADAY","UT",84117,40.6693933450001,-111.807247486,38,"4646 SOUTH WALLACE LANE, HOLLADAY, UT, 84117","Match","Non_Exact","4646 WALLACE LN, HOLLADAY, UT, 84117",176112842,"R"
220539,"4646 WOODBINE RD","PENSACOLA","FL",32571,NA,NA,39,"4646 WOODBINE RD, PENSACOLA, FL, 32571","No_Match",NA,NA,NA,NA
220540,"4646 WOODLAND AVE","DREXEL HILL","PA",19026,39.9484648870001,-75.312489963,40,"4646 WOODLAND AVE, DREXEL HILL, PA, 19026","Match","Exact","4646 WOODLAND AVE, DREXEL HILL, PA, 19026",134876150,"L"
220541,"464612","LAWRENCEVILLE","GA",30044,NA,NA,41,"464612, LAWRENCEVILLE, GA, 30044","No_Match",NA,NA,NA,NA
220542,"4647 E ANAHEIM ST","LONG BEACH","CA",90803,33.782596396,-118.138600424,42,"4647 E ANAHEIM ST, LONG BEACH, CA, 90803","Match","Non_Exact","4647 E ANAHEIM ST, LONG BEACH, CA, 90804",141797195,"L"
220543,"4647 MERIDIAN RD","WILLIAMSTON","MI",48895,42.7167385230001,-84.363503195,43,"4647 MERIDIAN RD, WILLIAMSTON, MI, 48895","Match","Exact","4647 MERIDIAN RD, WILLIAMSTON, MI, 48895",17523933,"L"
220544,"4647 NATURES CIRCLE","SYRACUSE","NY",13215,42.993903716,-76.193787453,44,"4647 NATURES CIRCLE, SYRACUSE, NY, 13215","Match","Exact","4647 NATURES CIR, SYRACUSE, NY, 13215",625599448,"R"
220545,"4647 SE 33RD AVENUE","PORTLAND","OR",97202,45.489284109,-122.631421512,45,"4647 SE 33RD AVENUE, PORTLAND, OR, 97202","Match","Exact","4647 SE 33RD AVE, PORTLAND, OR, 97202",638569370,"R"
220546,"4647 SIENNA OAKS CT","SAINT LOUIS","MO",63128,38.504012636,-90.348530908,46,"4647 SIENNA OAKS CT, SAINT LOUIS, MO, 63128","Match","Exact","4647 SIENNA OAKS CT, SAINT LOUIS, MO, 63128",618225932,"R"
220547,"4647 VISTA DEL MONTE AVE STE 208","SHERMAN OAKS","CA",91403,34.155275439,-118.449858224,47,"4647 VISTA DEL MONTE AVE STE 208, SHERMAN OAKS, CA, 91403","Match","Exact","4647 VISTA DEL MONTE AVE, SHERMAN OAKS, CA, 91403",141561637,"L"
220548,"46471 CREEKSIDE COURT","CANTON","MI",48187,42.3353269610001,-83.50523082,48,"46471 CREEKSIDE COURT, CANTON, MI, 48187","Match","Exact","46471 CREEKSIDE CT, CANTON, MI, 48187",95685330,"L"
220549,"46472 CREEKSIDE CT","CANTON","MI",48187,42.3353364480001,-83.505244262,49,"46472 CREEKSIDE CT, CANTON, MI, 48187","Match","Exact","46472 CREEKSIDE CT, CANTON, MI, 48187",95685330,"R"
220550,"4648 CEDAR DR","HILLSBORO","MO",63050,38.2211228140001,-90.556362209,50,"4648 CEDAR DR, HILLSBORO, MO, 63050","Match","Exact","4648 CEDAR DR, HILLSBORO, MO, 63050",62770357,"L"
220551,"4648 CEDAR LAKE ROAD S APT 1","SAINT LOUIS PARK","MN",55416,44.962893894,-93.3340787659999,51,"4648 CEDAR LAKE ROAD S APT 1, SAINT LOUIS PARK, MN, 55416","Match","Exact","4648 CEDAR LAKE RD S, SAINT LOUIS PARK, MN, 55416",43832857,"R"
220552,"4648 CR 4300","INDEPENDENCE","KS",67301,37.2463333790001,-95.674830134,52,"4648 CR 4300, INDEPENDENCE, KS, 67301","Match","Exact","4648 CR 4300, INDEPENDENCE, KS, 67301",13784994,"R"
220553,"4648 E ALPINE DR","POST FALLS","ID",83854,47.7023615480001,-116.885525725,53,"4648 E ALPINE DR, POST FALLS, ID, 83854","Match","Exact","4648 E ALPINE DR, POST FALLS, ID, 83854",192900135,"L"
220554,"4648 GRAND DELL DRIVE","CRESTWOOD","KY",40014,38.362809859,-85.345280137,54,"4648 GRAND DELL DRIVE, CRESTWOOD, KY, 40014","Match","Exact","4648 GRAND DELL DR, CRESTWOOD, KY, 40014",130922199,"R"
220555,"4648 GREEN FOREST CT","MOBILE","AL",36618,30.7175945020001,-88.147768677,55,"4648 GREEN FOREST CT, MOBILE, AL, 36618","Match","Exact","4648 GREEN FOREST CT, MOBILE, AL, 36618",640527060,"L"
220556,"4648 LONG BAY RD NW","HACKENSACK","MN",56452,46.9782784340001,-94.5237853249999,56,"4648 LONG BAY RD NW, HACKENSACK, MN, 56452","Match","Exact","4648 LONG BAY RD NW, HACKENSACK, MN, 56452",162743427,"L"
220557,"4648 MAPLETREE LOOP","WESLEY CHAPEL","FL",33549,28.225827124,-82.3650619489999,57,"4648 MAPLETREE LOOP, WESLEY CHAPEL, FL, 33549","Match","Non_Exact","4648 MAPLETREE LOOP, WESLEY CHAPEL, FL, 33544",640554411,"L"
220558,"4648 POND RUN","CANTON","MI",48188,42.2718330500001,-83.497506249,58,"4648 POND RUN, CANTON, MI, 48188","Match","Exact","4648 POND RUN, CANTON, MI, 48188",95695470,"R"
220559,"4648 WEST MONROE STREET","CHICAGO","IL",60644,41.87929695,-87.741654922,59,"4648 WEST MONROE STREET, CHICAGO, IL, 60644","Match","Exact","4648 W MONROE ST, CHICAGO, IL, 60644",111765729,"R"
220560,"4649 CAVERNS DRIVE","KISSIMMEE","FL",34758,28.213172059,-81.467801971,60,"4649 CAVERNS DRIVE, KISSIMMEE, FL, 34758","Match","Exact","4649 CAVERNS DR, KISSIMMEE, FL, 34758",624647792,"R"
220561,"4649 CLOISTER CIR","HAMPTON","GA",30228,33.4510146210001,-84.2625089269999,61,"4649 CLOISTER CIR, HAMPTON, GA, 30228","Match","Exact","4649 CLOISTER CIR, HAMPTON, GA, 30228",619921981,"L"
220562,"4649 E ASHFORD AVENUE","ORANGE","CA",92867,33.8345501910001,-117.80370687,62,"4649 E ASHFORD AVENUE, ORANGE, CA, 92867","Match","Exact","4649 E ASHFORD AVE, ORANGE, CA, 92867",144124810,"R"
220563,"4649 FLOWER STREET","WHEAT RIDGE","CO",80033,39.781685284,-105.099341518,63,"4649 FLOWER STREET, WHEAT RIDGE, CO, 80033","Match","Exact","4649 FLOWER ST, WHEAT RIDGE, CO, 80033",177786561,"L"
220564,"4649 GUTHRIE HWY","CLARKSVILLE","TN",37040,36.6273991910001,-87.220175593,64,"4649 GUTHRIE HWY, CLARKSVILLE, TN, 37040","Match","Exact","4649 GUTHRIE HWY, CLARKSVILLE, TN, 37040",628045569,"R"
220565,"4649 HICKORY WOOD ROW","GREENWOOD","IN",46143,NA,NA,65,"4649 HICKORY WOOD ROW, GREENWOOD, IN, 46143","No_Match",NA,NA,NA,NA
220566,"4649 MABRY PARKWAY","ROCK HILL","SC",29732,34.962640322,-81.0876573799999,66,"4649 MABRY PARKWAY, ROCK HILL, SC, 29732","Match","Exact","4649 MABRY PKWY, ROCK HILL, SC, 29732",635871179,"L"
220567,"4649 PONCE DE LEON BLVD SUITE 404","CORAL GABLES","FL",33146,25.7263802480001,-80.2632547869999,67,"4649 PONCE DE LEON BLVD SUITE 404, CORAL GABLES, FL, 33146","Match","Exact","4649 PONCE DE LEON BLVD, CORAL GABLES, FL, 33146",116013802,"R"
220568,"4649 PONCE DE LEON BLVD SUITE 406","CORAL GABLES","FL",33146,25.7263802480001,-80.2632547869999,68,"4649 PONCE DE LEON BLVD SUITE 406, CORAL GABLES, FL, 33146","Match","Exact","4649 PONCE DE LEON BLVD, CORAL GABLES, FL, 33146",116013802,"R"
220569,"4649 RAYNOR COURT","MASON","OH",45040,39.3718690520001,-84.333021053,69,"4649 RAYNOR COURT, MASON, OH, 45040","Match","Exact","4649 RAYNOR CT, MASON, OH, 45040",159043347,"L"
220570,"4649 SHANNON VIEW","ACTON","CA",93510,34.530770202,-118.218012422,70,"4649 SHANNON VIEW, ACTON, CA, 93510","Match","Non_Exact","4649 SHANNON VIEW RD, ACTON, CA, 93510",641534314,"R"
220571,"4649 W MOORESVILLE RD","INDIANAPOLIS","IN",46221,39.7098043720001,-86.24059913,71,"4649 W MOORESVILLE RD, INDIANAPOLIS, IN, 46221","Match","Exact","4649 W MOORESVILLE RD, INDIANAPOLIS, IN, 46221",108005028,"L"
220572,"465 21ST AVE S RM 4280A","NASHVILLE","TN",37240,36.1475649010001,-86.799370736,72,"465 21ST AVE S RM 4280A, NASHVILLE, TN, 37240","Match","Exact","465 21ST AVE S, NASHVILLE, TN, 37240",606811130,"R"
220573,"465 ANSON STREET","BRIDGEPORT","CT",6606,41.203895737,-73.203540032,73,"465 ANSON STREET, BRIDGEPORT, CT, 6606","Match","Exact","465 ANSON ST, BRIDGEPORT, CT, 06606",3223093,"L"
220574,"465 ARBOR CIRCLE","YOUNGSTOWN","OH",44505,41.1482388740001,-80.658179189,74,"465 ARBOR CIRCLE, YOUNGSTOWN, OH, 44505","Match","Exact","465 ARBOR CIR, YOUNGSTOWN, OH, 44505",117425735,"R"
220575,"465 ASH STREET","HENDERSON","NV",89015,36.0447835410001,-114.959609956,75,"465 ASH STREET, HENDERSON, NV, 89015","Match","Exact","465 ASH ST, HENDERSON, NV, 89015",201880782,"L"
220576,"465 BELMONT AVE","SPRINGFIELD","MA",1108,42.086711295,-72.560872494,76,"465 BELMONT AVE, SPRINGFIELD, MA, 1108","Match","Exact","465 BELMONT AVE, SPRINGFIELD, MA, 01108",4036328,"L"
220577,"465 BOULEVARD - UNIT 4","ELMWOOD PARK","NJ",7407,40.901161039,-74.116356286,77,"465 BOULEVARD - UNIT 4, ELMWOOD PARK, NJ, 7407","Match","Exact","465 BOULEVARD, ELMWOOD PARK, NJ, 07407",64381722,"L"
220578,"465 BOULEVARD","ELMWOOD PARK","NJ",7407,40.901161039,-74.116356286,78,"465 BOULEVARD, ELMWOOD PARK, NJ, 7407","Match","Exact","465 BOULEVARD, ELMWOOD PARK, NJ, 07407",64381722,"L"
220579,"465 BRICKELL AVENUE APT 5005","MIAMI","FL",33131,25.768913581,-80.190025256,79,"465 BRICKELL AVENUE APT 5005, MIAMI, FL, 33131","Match","Exact","465 BRICKELL AVE, MIAMI, FL, 33131",116018806,"L"
220580,"465 BRIGHTVIEW DR","LAKE MARY","FL",32746,28.7835535310001,-81.302358853,80,"465 BRIGHTVIEW DR, LAKE MARY, FL, 32746","Match","Exact","465 BRIGHTVIEW DR, LAKE MARY, FL, 32746",93766473,"L"
220581,"465 BUOY DR","CROWLEY","TX",76036,32.564977346,-97.363229065,81,"465 BUOY DR, CROWLEY, TX, 76036","Match","Exact","465 BUOY DR, CROWLEY, TX, 76036",642148911,"R"
220582,"465 CALIFORNIA STREET SUITE 425","SAN FRANCISCO","CA",94104,37.7929146810001,-122.40223666,82,"465 CALIFORNIA STREET SUITE 425, SAN FRANCISCO, CA, 94104","Match","Exact","465 CALIFORNIA ST, SAN FRANCISCO, CA, 94104",192281305,"L"
220583,"465 CALLE HOSTOS URB EL VEDADO","SAN JUAN","PR",917,NA,NA,83,"465 CALLE HOSTOS URB EL VEDADO, SAN JUAN, PR, 917","No_Match",NA,NA,NA,NA
220584,"465 CALLE PORTAL","SIERRA VISTA","AZ",85635,31.550349984,-110.266342615,84,"465 CALLE PORTAL, SIERRA VISTA, AZ, 85635","Match","Non_Exact","465 CLL PORTAL, SIERRA VISTA, AZ, 85635",120926108,"R"
220585,"465 CENTRAL AVE","ALBANY","NY",12206,42.668539116,-73.7768346779999,85,"465 CENTRAL AVE, ALBANY, NY, 12206","Match","Exact","465 CENTRAL AVE, ALBANY, NY, 12206",18309986,"R"
220586,"465 COLONIAL PLACE","NIPOMO","CA",93444,35.0524539420001,-120.534023146,86,"465 COLONIAL PLACE, NIPOMO, CA, 93444","Match","Exact","465 COLONIAL PL, NIPOMO, CA, 93444",109773311,"R"
220587,"465 COUNTY ROAD 526","POPLAR BLUFF","MO",63901,36.812320533,-90.447154472,87,"465 COUNTY ROAD 526, POPLAR BLUFF, MO, 63901","Match","Exact","465 CO RD 526, POPLAR BLUFF, MO, 63901",47417986,"L"
220588,"465 DACULA ROAD SUITE G","DACULA","GA",30019,33.998415331,-83.904757036,88,"465 DACULA ROAD SUITE G, DACULA, GA, 30019","Match","Exact","465 DACULA RD, DACULA, GA, 30019",88944846,"R"
220589,"465 DE LASALLE AVENUE","NAPERVILLE","IL",60565,41.7133368730001,-88.1515019399999,89,"465 DE LASALLE AVENUE, NAPERVILLE, IL, 60565","Match","Exact","465 DE LASALLE AVE, NAPERVILLE, IL, 60565",111583341,"L"
220590,"465 EAST 850 SOUTH","OREM","UT",84097,40.2813312010001,-111.684732225,90,"465 EAST 850 SOUTH, OREM, UT, 84097","Match","Exact","465 E 850 S, OREM, UT, 84097",134206520,"L"
220591,"465 EAST GRAND AVE","RAHWAY","NJ",7065,40.6076605920001,-74.264552577,91,"465 EAST GRAND AVE, RAHWAY, NJ, 7065","Match","Exact","465 E GRAND AVE, RAHWAY, NJ, 07065",60562833,"R"
220592,"465 GADWALL DRIVE","RICHMOND","KY",40475,37.846698239,-84.305274781,92,"465 GADWALL DRIVE, RICHMOND, KY, 40475","Match","Exact","465 GADWALL DR, RICHMOND, KY, 40475",634145782,"L"
220593,"465 GLADES PT","FAIRBURN","GA",30213,NA,NA,93,"465 GLADES PT, FAIRBURN, GA, 30213","No_Match",NA,NA,NA,NA
220594,"465 GOLD ASH MEWS","GAITHERSBURG","MD",20878,NA,NA,94,"465 GOLD ASH MEWS, GAITHERSBURG, MD, 20878","No_Match",NA,NA,NA,NA
220595,"465 GOLDEN POND LOOP","CAMPBELLSVILLE","KY",42718,37.3196932380001,-85.392573595,95,"465 GOLDEN POND LOOP, CAMPBELLSVILLE, KY, 42718","Match","Exact","465 GOLDEN POND LOOP, CAMPBELLSVILLE, KY, 42718",635388787,"R"
220596,"465 GRAND ST","NEW YORK","NY",10002,40.7150986820001,-73.983899132,96,"465 GRAND ST, NEW YORK, NY, 10002","Match","Exact","465 GRAND ST, NEW YORK, NY, 10002",59654331,"R"
220597,"465 HUNTINGTON ROAD SUITE 150","ATHENS","GA",30606,33.9461107770001,-83.464036641,97,"465 HUNTINGTON ROAD SUITE 150, ATHENS, GA, 30606","Match","Exact","465 HUNTINGTON RD, ATHENS, GA, 30606",619388645,"L"
220598,"465 LAND OR DR","RUTHER GLEN","VA",22546,38.016561166,-77.565344802,98,"465 LAND OR DR, RUTHER GLEN, VA, 22546","Match","Exact","465 LAND OR DR, RUTHER GLEN, VA, 22546",21944302,"L"
220599,"465 LOWERLINE","NEW ORLEANS","LA",70118,29.936271537,-90.129845453,99,"465 LOWERLINE, NEW ORLEANS, LA, 70118","Match","Non_Exact","465 LOWERLINE ST, NEW ORLEANS, LA, 70118",191701710,"R"
220600,"465 MARIN BLVD","JERSEY CITY","NJ",7302,NA,NA,100,"465 MARIN BLVD, JERSEY CITY, NJ, 7302","No_Match",NA,NA,NA,NA
220601,"465 MAYFLOWER DRIVE","SAGINAW","MI",48638,43.418540083,-84.025301268,101,"465 MAYFLOWER DRIVE, SAGINAW, MI, 48638","Match","Exact","465 MAYFLOWER DR, SAGINAW, MI, 48638",80208310,"L"
220602,"465 MEMORIAL DR SE UNIT 252","ATLANTA","GA",30312,33.746766811,-84.372215535,102,"465 MEMORIAL DR SE UNIT 252, ATLANTA, GA, 30312","Match","Exact","465 MEMORIAL DR SE, ATLANTA, GA, 30312",17357433,"R"
220603,"465 MEMORIAL DR SE UNIT 681","ATLANTA","GA",30312,33.746766811,-84.372215535,103,"465 MEMORIAL DR SE UNIT 681, ATLANTA, GA, 30312","Match","Exact","465 MEMORIAL DR SE, ATLANTA, GA, 30312",17357433,"R"
220604,"465 N 4TH ST STE 110","LARAMIE","WY",82072,41.3162604600001,-105.591713512,104,"465 N 4TH ST STE 110, LARAMIE, WY, 82072","Match","Non_Exact","465 N 4TH ST, LARAMIE, WY, 82072",168740001,"R"
220605,"465 N 660 W","WEST BOUNTIFUL","UT",84087,40.894947734,-111.897224106,105,"465 N 660 W, WEST BOUNTIFUL, UT, 84087","Match","Exact","465 N 660 W, W BOUNTIFUL, UT, 84087",611646918,"L"
220606,"465 N HAYWORTH AVE UNIT 207","LOS ANGELES","CA",90048,34.0794505710001,-118.362650801,106,"465 N HAYWORTH AVE UNIT 207, LOS ANGELES, CA, 90048","Match","Non_Exact","465 N HAYWORTH AVE, LOS ANGELES, CA, 90048",141598295,"L"
220607,"465 N JAMES AVE","EAST WENATCHEE","WA",98802,47.41208348,-120.269213913,107,"465 N JAMES AVE, EAST WENATCHEE, WA, 98802","Match","Exact","465 N JAMES AVE, EAST WENATCHEE, WA, 98802",156896814,"L"
220608,"465 N PARK DR 3508","CHICAGO","IL",60611,41.8907822300001,-87.619615262,108,"465 N PARK DR 3508, CHICAGO, IL, 60611","Match","Non_Exact","465 N PARK DR, CHICAGO, IL, 60611",111889105,"L"
220609,"465 N WESTERN AVENUE APT 207","LOS ANGELES","CA",90004,34.0799125630001,-118.309167805,109,"465 N WESTERN AVENUE APT 207, LOS ANGELES, CA, 90004","Match","Non_Exact","465 N WESTERN AVE, LOS ANGELES, CA, 90004",141603307,"L"
220610,"465 NE 7TH STREET","BOCA RATON","FL",33432,26.357203246,-80.078507652,110,"465 NE 7TH STREET, BOCA RATON, FL, 33432","Match","Exact","465 NE 7TH ST, BOCA RATON, FL, 33432",115303298,"L"
220611,"465 NEWFOUND HARBOR DR","MERRITT ISLAND","FL",32952,28.3492874950001,-80.6673698709999,111,"465 NEWFOUND HARBOR DR, MERRITT ISLAND, FL, 32952","Match","Exact","465 NEWFOUND HARBOR DR, MERRITT ISLAND, FL, 32952",93898710,"R"
220612,"465 NORTH 4TH AVENUE","COAL CITY","IL",60416,41.293575064,-88.271082953,112,"465 NORTH 4TH AVENUE, COAL CITY, IL, 60416","Match","Exact","465 N 4TH AVE, COAL CITY, IL, 60416",54444230,"R"
220613,"465 OCEAN PARKWAY 6C","BROOKLYN","NY",11218,40.6372331160001,-73.9726532129999,113,"465 OCEAN PARKWAY 6C, BROOKLYN, NY, 11218","Match","Exact","465 OCEAN PKWY, BROOKLYN, NY, 11218",59080766,"R"
220614,"465 OKEEPA TRAIL","LOVELAND","CO",80537,40.4118066830001,-105.255736325,114,"465 OKEEPA TRAIL, LOVELAND, CO, 80537","Match","Exact","465 OKEEPA TRL, LOVELAND, CO, 80537",188483251,"L"
220615,"465 PAXSON AVENUE","HAMILTON","NJ",8690,40.243794246,-74.67014067,115,"465 PAXSON AVENUE, HAMILTON, NJ, 8690","Match","Exact","465 PAXSON AVE, HAMILTON, NJ, 08690",60180318,"L"
220616,"465 PERUQUE HILLS PARKWAY","WENTZVILLE","MO",63385,38.7962935210001,-90.846985946,116,"465 PERUQUE HILLS PARKWAY, WENTZVILLE, MO, 63385","Match","Exact","465 PERUQUE HILLS PKWY, WENTZVILLE, MO, 63385",647054480,"L"
220617,"465 PIERCE AVENUE","MACON","GA",31204,32.8579242000001,-83.662446501,117,"465 PIERCE AVENUE, MACON, GA, 31204","Match","Exact","465 PIERCE AVE, MACON, GA, 31204",81059062,"R"
220618,"465 PLAIN ROAD","HINSDALE","NH",3451,42.8143869740001,-72.501645141,118,"465 PLAIN ROAD, HINSDALE, NH, 3451","Match","Exact","465 PLAIN RD, HINSDALE, NH, 03451",124087658,"L"
220619,"465 PROSPECT ST","GLEN ROCK","NJ",7452,40.966356772,-74.1136169709999,119,"465 PROSPECT ST, GLEN ROCK, NJ, 7452","Match","Exact","465 PROSPECT ST, GLEN ROCK, NJ, 07452",64376683,"L"
220620,"465 RAMS WAY","TUCKER","GA",30084,33.877856539,-84.175419338,120,"465 RAMS WAY, TUCKER, GA, 30084","Match","Exact","465 RAMS WAY, TUCKER, GA, 30084",88921830,"L"
220621,"465 RED CORNER ROAD","DOUGLASSVILLE","PA",19518,40.2436764730001,-75.745068084,121,"465 RED CORNER ROAD, DOUGLASSVILLE, PA, 19518","Match","Exact","465 RED CORNER RD, DOUGLASSVILLE, PA, 19518",642115530,"L"
220622,"465 RIDGEWAY COURT","SPRING VALLEY","CA",91977,32.695946233,-117.019241991,122,"465 RIDGEWAY COURT, SPRING VALLEY, CA, 91977","Match","Exact","465 RIDGEWAY CT, SPRING VALLEY, CA, 91977",195700226,"L"
220623,"465 RIDGEWAY","WHITE PLAINS","NY",10605,41.013696038,-73.738198406,123,"465 RIDGEWAY, WHITE PLAINS, NY, 10605","Match","Exact","465 RIDGEWAY, WHITE PLAINS, NY, 10605",139825418,"R"
220624,"465 RIVERSIDE DRIVE","PRINCE FREDERICK","MD",20678,38.5265831,-76.6485722899999,124,"465 RIVERSIDE DRIVE, PRINCE FREDERICK, MD, 20678","Match","Exact","465 RIVERSIDE DR, PRINCE FREDERICK, MD, 20678",78180208,"L"
220625,"465 S MADISON AVE APT 307","PASADENA","CA",91101,NA,NA,125,"465 S MADISON AVE APT 307, PASADENA, CA, 91101","Tie",NA,NA,NA,NA
220626,"465 S MAIN ST","MARTINSVILLE","IN",46151,39.4228335620001,-86.428484955,126,"465 S MAIN ST, MARTINSVILLE, IN, 46151","Match","Exact","465 S MAIN ST, MARTINSVILLE, IN, 46151",43546615,"R"
220627,"465 S ORLANDO AVE NO 103","MAITLAND","FL",32751,NA,NA,127,"465 S ORLANDO AVE NO 103, MAITLAND, FL, 32751","No_Match",NA,NA,NA,NA
220628,"465 SAILMAKER CIRCLE","ALPHARETTA","GA",30022,34.041770593,-84.261399395,128,"465 SAILMAKER CIRCLE, ALPHARETTA, GA, 30022","Match","Exact","465 SAILMAKER CIR, ALPHARETTA, GA, 30022",17402666,"R"
220629,"465 SCOTTS RUN ROAD","OSAGE","WV",26543,39.659326133,-80.0083589069999,129,"465 SCOTTS RUN ROAD, OSAGE, WV, 26543","Match","Exact","465 SCOTTS RUN RD, OSAGE, WV, 26543",50738935,"L"
220630,"465 SHIPPENSBURG RD","NEWVILLE","PA",17241,40.159057864,-77.417967845,130,"465 SHIPPENSBURG RD, NEWVILLE, PA, 17241","Match","Exact","465 SHIPPENSBURG RD, NEWVILLE, PA, 17241",60978152,"R"
220631,"465 SHUNPIKE RD","CAPE MAY COURTHOUSE","NJ",8210,39.071615896,-74.836978446,131,"465 SHUNPIKE RD, CAPE MAY COURTHOUSE, NJ, 8210","Match","Non_Exact","465 SHUNPIKE RD, CAPE MAY COURT HOUSE, NJ, 08210",645281013,"L"
220632,"465 SPRING HILL RD","MONTGOMERY","NJ",8558,40.4286091700001,-74.750527963,132,"465 SPRING HILL RD, MONTGOMERY, NJ, 8558","Match","Non_Exact","465 SPRING HILL RD, SKILLMAN, NJ, 08558",653264589,"L"
220633,"465 STEVENSON ROAD","NEW HAVEN","CT",6515,NA,NA,133,"465 STEVENSON ROAD, NEW HAVEN, CT, 6515","No_Match",NA,NA,NA,NA
220634,"465 STREAM VIEW DR","SHELBYVILLE","KY",40065,38.217156957,-85.198966846,134,"465 STREAM VIEW DR, SHELBYVILLE, KY, 40065","Match","Exact","465 STREAM VIEW DR, SHELBYVILLE, KY, 40065",619760062,"R"
220635,"465 TENNYSON KNOLL","GRAYSON","GA",30017,33.8999182210001,-83.9312167149999,135,"465 TENNYSON KNOLL, GRAYSON, GA, 30017","Match","Exact","465 TENNYSON KNOLL, GRAYSON, GA, 30017",636188549,"R"
220636,"465 TERRELL CT","RICHMOND HEIGHTS","OH",44143,41.551870675,-81.519799936,136,"465 TERRELL CT, RICHMOND HEIGHTS, OH, 44143","Match","Exact","465 TERRELL CT, RICHMOND HEIGHTS, OH, 44143",645578253,"R"
220637,"465 TIORAM LANE","SMYRNA","GA",30080,33.8254799170001,-84.50468248,137,"465 TIORAM LANE, SMYRNA, GA, 30080","Match","Non_Exact","465 TIORAM LN, SMYRNA, GA, 30082",625827334,"L"
220638,"465 VIA VISTA","MONTEBELLO","CA",90640,34.019395263,-118.129580006,138,"465 VIA VISTA, MONTEBELLO, CA, 90640","Match","Exact","465 VIA VIS, MONTEBELLO, CA, 90640",141639332,"L"
220639,"465 VICTORIA STATION BLVD","LAWRENCEVILLE","GA",30043,33.988754683,-83.9924318389999,139,"465 VICTORIA STATION BLVD, LAWRENCEVILLE, GA, 30043","Match","Non_Exact","465 VICTORIA STATION BLVD NE, LAWRENCEVILLE, GA, 30043",88927115,"L"
220640,"465 VIOLA ROAD","SPRING VALLEY","NY",10977,41.1331019310001,-74.057735427,140,"465 VIOLA ROAD, SPRING VALLEY, NY, 10977","Match","Exact","465 VIOLA RD, SPRING VALLEY, NY, 10977",124628449,"R"
220641,"465 W 159TH STREET APT 53","NEW YORK","NY",10032,40.8337146810001,-73.940172506,141,"465 W 159TH STREET APT 53, NEW YORK, NY, 10032","Match","Non_Exact","465 W 159TH ST, NEW YORK, NY, 10032",59655770,"R"
220642,"465 W MEADOWHURST ROAD","SAINT MARIES","ID",83861,47.3288713580001,-116.577504358,142,"465 W MEADOWHURST ROAD, SAINT MARIES, ID, 83861","Match","Exact","465 W MEADOWHURST RD, SAINT MARIES, ID, 83861",639704966,"R"
220643,"465 WASHINGTON BLVD APT 2305 S","JERSEY CITY","NJ",7310,NA,NA,143,"465 WASHINGTON BLVD APT 2305 S, JERSEY CITY, NJ, 7310","Tie",NA,NA,NA,NA
220644,"465 WAVERLY OAKS ROAD","WALTHAM","MA",2452,42.386959931,-71.2038662849999,144,"465 WAVERLY OAKS ROAD, WALTHAM, MA, 2452","Match","Non_Exact","465 WAVERLEY OAKS RD, WALTHAM, MA, 02452",87112214,"R"
220645,"465 WEST LAKESHORE DRIVE","CLERMONT","FL",34711,28.545444091,-81.763141054,145,"465 WEST LAKESHORE DRIVE, CLERMONT, FL, 34711","Match","Exact","465 W LAKESHORE DR, CLERMONT, FL, 34711",94104054,"L"
220646,"465 WEST MAIN STREET","KUTZTOWN","PA",19530,40.513151963,-75.7810372989999,146,"465 WEST MAIN STREET, KUTZTOWN, PA, 19530","Match","Exact","465 W MAIN ST, KUTZTOWN, PA, 19530",647480379,"L"
220647,"465 WEST MARKET STREET","YORK","PA",17401,39.9589588600001,-76.73905737,147,"465 WEST MARKET STREET, YORK, PA, 17401","Match","Exact","465 W MARKET ST, YORK, PA, 17401",88730983,"R"
220648,"465 WEST SLY FOX STREET","MERIDIAN","ID",83646,43.665321706,-116.400373466,148,"465 WEST SLY FOX STREET, MERIDIAN, ID, 83646","Match","Non_Exact","465 W SLY FOX, MERIDIAN, ID, 83646",117888315,"R"
220649,"465 WESTMINSTER ROAD","BROOKLYN","NY",11218,40.6373655080001,-73.966527565,149,"465 WESTMINSTER ROAD, BROOKLYN, NY, 11218","Match","Exact","465 WESTMINSTER RD, BROOKLYN, NY, 11218",59081067,"L"
220650,"465 WILDWOOD DR","BRIGHAM CITY","UT",84302,NA,NA,150,"465 WILDWOOD DR, BRIGHAM CITY, UT, 84302","No_Match",NA,NA,NA,NA
220651,"465 WILLOW GLEN WAY APT 333","SAN JOSE","CA",95125,37.3040364780001,-121.880180942,151,"465 WILLOW GLEN WAY APT 333, SAN JOSE, CA, 95125","Match","Exact","465 WILLOW GLEN WAY, SAN JOSE, CA, 95125",122999840,"R"
220652,"4650 ADAMS LANE","ACWORTH","GA",30102,34.0648650480001,-84.58868426,152,"4650 ADAMS LANE, ACWORTH, GA, 30102","Match","Non_Exact","4650 ADAMS LN NW, ACWORTH, GA, 30102",17195383,"L"
220653,"4650 ARROW HIGHWAY SUITE B","MONTCLAIRE","CA",91763,34.0925722210001,-117.703084422,153,"4650 ARROW HIGHWAY SUITE B, MONTCLAIRE, CA, 91763","Match","Non_Exact","4650 ARROW HWY, MONTCLAIR, CA, 91763",647989413,"L"
220654,"4650 AUDOBON","DETROIT","MI",48224,42.4004379290001,-82.9360412949999,154,"4650 AUDOBON, DETROIT, MI, 48224","Match","Non_Exact","4650 AUDUBON, DETROIT, MI, 48224",95487269,"R"
220655,"4650 BRIGHT RD LOT 5","CHARLOTTE","NC",28214,35.2290589030001,-81.0043628509999,155,"4650 BRIGHT RD LOT 5, CHARLOTTE, NC, 28214","Match","Exact","4650 BRIGHT RD, CHARLOTTE, NC, 28214",648378529,"R"
220656,"4650 CAMPUS DRIVE","FORT WORTH","TX",76119,NA,NA,156,"4650 CAMPUS DRIVE, FORT WORTH, TX, 76119","No_Match",NA,NA,NA,NA
220657,"4650 DEWEY AVENUE","ROCHESTER","NY",14612,43.26361545,-77.6466916369999,157,"4650 DEWEY AVENUE, ROCHESTER, NY, 14612","Match","Exact","4650 DEWEY AVE, ROCHESTER, NY, 14612",14578486,"R"
220658,"4650 EAST PONCE DE LEON AVE A-11","CLARKSTON","GA",30021,33.8189895470001,-84.2275188739999,158,"4650 EAST PONCE DE LEON AVE A-11, CLARKSTON, GA, 30021","Match","Exact","4650 E PONCE DE LEON AVE, CLARKSTON, GA, 30021",23387531,"L"
220659,"4650 EAST PONCE DE LEON","CLARKSTON","GA",30021,33.8189895470001,-84.2275188739999,159,"4650 EAST PONCE DE LEON, CLARKSTON, GA, 30021","Match","Non_Exact","4650 E PONCE DE LEON AVE, CLARKSTON, GA, 30021",23387531,"L"
220660,"4650 FIELDSTONE LANE","WASHINGTON","DC",20008,38.950864064,-77.0537589159999,160,"4650 FIELDSTONE LANE, WASHINGTON, DC, 20008","Match","Non_Exact","4650 FIELDSTONE LN NW, WASHINGTON, DC, 20008",649317178,"R"
220661,"4650 JOHNSON ST NE UNIT 104","COLUMBIA HEIGHTS","MN",55421,45.0526920990001,-93.23781867,161,"4650 JOHNSON ST NE UNIT 104, COLUMBIA HEIGHTS, MN, 55421","Match","Exact","4650 JOHNSON ST NE, COLUMBIA HEIGHTS, MN, 55421",97493536,"L"
220662,"4650 KESTER AVE 227","SHERMAN OAKS","CA",91403,34.1550894850001,-118.457414666,162,"4650 KESTER AVE 227, SHERMAN OAKS, CA, 91403","Match","Exact","4650 KESTER AVE, SHERMAN OAKS, CA, 91403",141560890,"R"
220663,"4650 LIPSCOMB ST NE SUITE 16","PALM BAY","FL",32905,28.0363511740001,-80.605379494,163,"4650 LIPSCOMB ST NE SUITE 16, PALM BAY, FL, 32905","Match","Exact","4650 LIPSCOMB ST NE, PALM BAY, FL, 32905",93909814,"L"
220664,"4650 LIVINGSTON ROAD SE","WASHINGTON","DC",20032,38.8229094220001,-77.0019350919999,164,"4650 LIVINGSTON ROAD SE, WASHINGTON, DC, 20032","Match","Exact","4650 LIVINGSTON RD SE, WASHINGTON, DC, 20032",76232618,"L"
220665,"4650 N 71ST LANE","PHOENIX","AZ",85033,33.5054702790001,-112.211916474,165,"4650 N 71ST LANE, PHOENIX, AZ, 85033","Match","Exact","4650 N 71ST LN, PHOENIX, AZ, 85033",639057978,"L"
220666,"4650 N PALM AVE","FRESNO","CA",93704,36.8020684960001,-119.808525371,166,"4650 N PALM AVE, FRESNO, CA, 93704","Match","Exact","4650 N PALM AVE, FRESNO, CA, 93704",197573819,"R"
220667,"4650 N PORT WASHINGTON RD","MILWAUKEE","WI",53212,43.1012390280001,-87.9169186729999,167,"4650 N PORT WASHINGTON RD, MILWAUKEE, WI, 53212","Match","Exact","4650 N PORT WASHINGTON RD, MILWAUKEE, WI, 53212",77738816,"R"
220668,"4650 N RAINBOW BLVD 1016","LAS VEGAS","NV",89108,NA,NA,168,"4650 N RAINBOW BLVD 1016, LAS VEGAS, NV, 89108","No_Match",NA,NA,NA,NA
220669,"4650 NW 74TH AVE","MIAMI","FL",33166,25.8167293990001,-80.317430596,169,"4650 NW 74TH AVE, MIAMI, FL, 33166","Match","Non_Exact","4650 NW 74TH AVE, MIAMI, FL, 33166",115957775,"L"
220670,"4650 OLD LOONEY MILL ROAD","BIRMINGHAM","AL",35243,33.424084765,-86.728463662,170,"4650 OLD LOONEY MILL ROAD, BIRMINGHAM, AL, 35243","Match","Exact","4650 OLD LOONEY MILL RD, BIRMINGHAM, AL, 35243",81663290,"R"
220671,"4650 RANCH HOUSE ROAD UNIT 64","NORTH LAS VEGAS","NV",89031,36.272718608,-115.202721993,171,"4650 RANCH HOUSE ROAD UNIT 64, NORTH LAS VEGAS, NV, 89031","Match","Non_Exact","4650 W RANCH HOUSE RD, N LAS VEGAS, NV, 89031",624621616,"R"
220672,"4650 REDWOOD","NEW ORLEANS","LA",70127,30.020598557,-89.969140152,172,"4650 REDWOOD, NEW ORLEANS, LA, 70127","Match","Non_Exact","4650 REDWOOD ST, NEW ORLEANS, LA, 70127",191721768,"L"
220673,"4650 SW 61ST AVE SUITE D","DAVIE","FL",33314,26.0640551860001,-80.2280553269999,173,"4650 SW 61ST AVE SUITE D, DAVIE, FL, 33314","Match","Non_Exact","4650 SW 61ST AVE, DAVIE, FL, 33314",637515313,"L"
220674,"4650 SW 61ST AVE","DAVIE","FL",33314,26.0640551860001,-80.2280553269999,174,"4650 SW 61ST AVE, DAVIE, FL, 33314","Match","Exact","4650 SW 61ST AVE, DAVIE, FL, 33314",637515313,"L"
220675,"4650 VILLA RIDGE RD","MARIETTA","GA",30068,33.986088954,-84.416529085,175,"4650 VILLA RIDGE RD, MARIETTA, GA, 30068","Match","Exact","4650 VILLA RIDGE RD, MARIETTA, GA, 30068",17186896,"R"
220676,"4650 W SPENCER STREET STE A","APPLETON","WI",54914,44.258549573,-88.47465073,176,"4650 W SPENCER STREET STE A, APPLETON, WI, 54914","Match","Non_Exact","4650 W SPENCER ST, APPLETON, WI, 54914",74884202,"R"
220677,"4650 WASHINGTON BLVD APT 911","ARLINGTON","VA",22201,38.885383889,-77.117877177,177,"4650 WASHINGTON BLVD APT 911, ARLINGTON, VA, 22201","Match","Exact","4650 WASHINGTON BLVD, ARLINGTON, VA, 22201",638168838,"L"
220678,"46500 ROYAL OAKS TRAIL","CALLAHAN","FL",32011,NA,NA,178,"46500 ROYAL OAKS TRAIL, CALLAHAN, FL, 32011","No_Match",NA,NA,NA,NA
220679,"46501 WARREN ROAD","CANTON","MI",48187,NA,NA,179,"46501 WARREN ROAD, CANTON, MI, 48187","No_Match",NA,NA,NA,NA
220680,"4651 CASTLE CREST DR","LOS ANGELES","CA",90041,34.134087004,-118.222940136,180,"4651 CASTLE CREST DR, LOS ANGELES, CA, 90041","Match","Exact","4651 CASTLE CREST DR, LOS ANGELES, CA, 90041",647598294,"L"
220681,"4651 CHARLOTTE PARK DRIVE SUITE 300","CHARLOTTE","NC",28217,35.182249751,-80.890586926,181,"4651 CHARLOTTE PARK DRIVE SUITE 300, CHARLOTTE, NC, 28217","Match","Exact","4651 CHARLOTTE PARK DR, CHARLOTTE, NC, 28217",653482127,"L"
220682,"4651 DEMETRIA RUN","ROCK HILL","SC",29732,34.969263835,-81.08916744,182,"4651 DEMETRIA RUN, ROCK HILL, SC, 29732","Match","Exact","4651 DEMETRIA RUN, ROCK HILL, SC, 29732",19827204,"L"
220683,"4651 GREENVIEW CT","AVON","OH",44011,41.4218264290001,-82.0058982309999,183,"4651 GREENVIEW CT, AVON, OH, 44011","Match","Exact","4651 GREENVIEW CT, AVON, OH, 44011",55421563,"R"
220684,"4651 HAIRSTON CROSSING PL","STONE MOUNTAIN","GA",30083,33.796213171,-84.198881752,184,"4651 HAIRSTON CROSSING PL, STONE MOUNTAIN, GA, 30083","Match","Exact","4651 HAIRSTON CROSSING PL, STONE MOUNTAIN, GA, 30083",23389932,"R"
220685,"4651 HICKORY GROVE ROAD","SHARON","SC",29742,34.953469543,-81.38060652,185,"4651 HICKORY GROVE ROAD, SHARON, SC, 29742","Match","Exact","4651 HICKORY GROVE RD, SHARON, SC, 29742",19780738,"L"
220686,"4651 NORTH PINE HILLS RD","ORLANDO","FL",32808,28.598423629,-81.451448031,186,"4651 NORTH PINE HILLS RD, ORLANDO, FL, 32808","Match","Exact","4651 N PINE HILLS RD, ORLANDO, FL, 32808",647001905,"R"
220687,"4651 PONCE DE LEON BLVD SUITE 100","CORAL GABLES","FL",33146,25.726345517,-80.263297926,187,"4651 PONCE DE LEON BLVD SUITE 100, CORAL GABLES, FL, 33146","Match","Exact","4651 PONCE DE LEON BLVD, CORAL GABLES, FL, 33146",116013802,"R"
220688,"4651 SALISBURY RD STE 4OO","JACKSONVILLE","FL",32256,30.248624023,-81.588889265,188,"4651 SALISBURY RD STE 4OO, JACKSONVILLE, FL, 32256","Match","Exact","4651 SALISBURY RD, JACKSONVILLE, FL, 32256",83963979,"L"
220689,"4651 SOUTH CUSTER ROAD","MCKINNEY","TX",75070,33.156699028,-96.73295326,189,"4651 SOUTH CUSTER ROAD, MCKINNEY, TX, 75070","Match","Non_Exact","4651 CUSTER RD, MCKINNEY, TX, 75070",649825939,"R"
220690,"4651 TIGER LILY TRAIL","CLARKSTON","MI",48346,42.7171827860001,-83.3454949059999,190,"4651 TIGER LILY TRAIL, CLARKSTON, MI, 48346","Match","Exact","4651 TIGER LILY TRL, CLARKSTON, MI, 48346",69824985,"R"
220691,"4651 TOWNE PARK RD","SUITLAND","MD",20746,NA,NA,191,"4651 TOWNE PARK RD, SUITLAND, MD, 20746","No_Match",NA,NA,NA,NA
220692,"4651 VERDE VIEW DR","COTTONWOOD","AZ",86326,34.699503705,-111.975351247,192,"4651 VERDE VIEW DR, COTTONWOOD, AZ, 86326","Match","Exact","4651 VERDE VIEW DR, COTTONWOOD, AZ, 86326",159476405,"R"
220693,"4651 VINCENT RD","MILLINGTON","TN",38053,35.32011879,-89.9082375899999,193,"4651 VINCENT RD, MILLINGTON, TN, 38053","Match","Exact","4651 VINCENT RD, MILLINGTON, TN, 38053",72899904,"R"
220694,"4651 WOODSTOCK RD STE 208-157","ROSWELL","GA",30075,34.062403153,-84.421221084,194,"4651 WOODSTOCK RD STE 208-157, ROSWELL, GA, 30075","Match","Exact","4651 WOODSTOCK RD, ROSWELL, GA, 30075",643224069,"R"
220695,"4651 WOODSTOCK RD","ROSWELL","GA",30075,34.062403153,-84.421221084,195,"4651 WOODSTOCK RD, ROSWELL, GA, 30075","Match","Exact","4651 WOODSTOCK RD, ROSWELL, GA, 30075",643224069,"R"
220696,"46512 EASTMAN ROAD","BROWNS VALLEY","MN",56219,45.616067474,-96.891120401,196,"46512 EASTMAN ROAD, BROWNS VALLEY, MN, 56219","Match","Exact","46512 EASTMAN RD, BROWNS VALLEY, MN, 56219",647505159,"R"
220697,"4652 GOLDROCK DRIVE","FORT WORTH","NV",76137,NA,NA,197,"4652 GOLDROCK DRIVE, FORT WORTH, NV, 76137","No_Match",NA,NA,NA,NA
220698,"4652 MEADOWGREEN TRAIL","LAKE WORTH","FL",33463,26.592774965,-80.116597165,198,"4652 MEADOWGREEN TRAIL, LAKE WORTH, FL, 33463","Match","Non_Exact","4652 MEADOW GREEN TRL, LAKE WORTH, FL, 33463",115499190,"R"
220699,"4652 NORTH ECHO SUMMIT PLACE","STAR","ID",83669,43.734398383,-116.474155288,199,"4652 NORTH ECHO SUMMIT PLACE, STAR, ID, 83669","Match","Exact","4652 N ECHO SUMMIT PL, STAR, ID, 83669",117893843,"L"
220700,"4652 S 2080 W","TAYLORSVILLE","UT",84129,40.6686005980001,-111.946074262,200,"4652 S 2080 W, TAYLORSVILLE, UT, 84129","Match","Exact","4652 S 2080 W, TAYLORSVILLE, UT, 84129",176073240,"R"
220701,"4652 S 500 W","VALLONIA","IN",47281,38.8079275710001,-86.129627838,201,"4652 S 500 W, VALLONIA, IN, 47281","Match","Non_Exact","4652 S CO RD 500 W, VALLONIA, IN, 47281",31263363,"L"
220702,"4652 S SKY DANCE LN","SIERRA VISTA","AZ",85650,31.483455968,-110.285694847,202,"4652 S SKY DANCE LN, SIERRA VISTA, AZ, 85650","Match","Exact","4652 S SKY DANCE LN, SIERRA VISTA, AZ, 85650",651614422,"L"
220703,"4652 SHIRLEY PLACE","SAINT LOUIS","MO",63115,38.681277246,-90.233854983,203,"4652 SHIRLEY PLACE, SAINT LOUIS, MO, 63115","Match","Exact","4652 SHIRLEY PL, SAINT LOUIS, MO, 63115",647679905,"L"
220704,"4652 WINTERSTILL","ZIONSVILLE","IN",46077,39.973989298,-86.262433729,204,"4652 WINTERSTILL, ZIONSVILLE, IN, 46077","Match","Exact","4652 WINTERSTILL, ZIONSVILLE, IN, 46077",29262247,"L"
220705,"4652 YEARDLEY LOOP","WILLIAMSBURG","VA",23185,37.240223826,-76.7783139269999,205,"4652 YEARDLEY LOOP, WILLIAMSBURG, VA, 23185","Match","Exact","4652 YEARDLEY LOOP, WILLIAMSBURG, VA, 23185",220090262,"R"
220706,"46520 FREMONT BOULEVARD SUITE 614","FREMONT","CA",94538,37.4837855220001,-121.945833206,206,"46520 FREMONT BOULEVARD SUITE 614, FREMONT, CA, 94538","Match","Exact","46520 FREMONT BLVD, FREMONT, CA, 94538",635933799,"R"
220707,"46525 CONTINENTAL DRIVE","CHESTERFIELD TWP","MI",48047,42.642858581,-82.8326383689999,207,"46525 CONTINENTAL DRIVE, CHESTERFIELD TWP, MI, 48047","Match","Non_Exact","46525 CONTINENTAL DR, CHESTERFIELD, MI, 48047",110712240,"R"
220708,"4653 BENSON ST","PHILADELPHIA","PA",19136,40.04251723,-75.012324943,208,"4653 BENSON ST, PHILADELPHIA, PA, 19136","Match","Exact","4653 BENSON ST, PHILADELPHIA, PA, 19136",131433181,"L"
220709,"4653 CARMEL MOUNTAIN RD 308-517","SAN DIEGO","CA",92130,32.9217878810001,-117.213466949,209,"4653 CARMEL MOUNTAIN RD 308-517, SAN DIEGO, CA, 92130","Match","Exact","4653 CARMEL MOUNTAIN RD, SAN DIEGO, CA, 92130",195723775,"R"
220710,"4653 CARMEL MOUNTAIN RD STE 308-145","SAN DIEGO","CA",92130,32.9217878810001,-117.213466949,210,"4653 CARMEL MOUNTAIN RD STE 308-145, SAN DIEGO, CA, 92130","Match","Exact","4653 CARMEL MOUNTAIN RD, SAN DIEGO, CA, 92130",195723775,"R"
220711,"4653 CARMEL MTN RD  SUITE 308-221","SAN DIEGO","CA",92130,32.9217878810001,-117.213466949,211,"4653 CARMEL MTN RD  SUITE 308-221, SAN DIEGO, CA, 92130","Match","Exact","4653 CARMEL MOUNTAIN RD, SAN DIEGO, CA, 92130",195723775,"R"
220712,"4653 CLAIRTON BLVD","PITTSBURGH","PA",15236,40.355304674,-79.979410361,212,"4653 CLAIRTON BLVD, PITTSBURGH, PA, 15236","Match","Exact","4653 CLAIRTON BLVD, PITTSBURGH, PA, 15236",51640094,"L"
220713,"4653 CORTE MAR DE CORAZON","SAN DIEGO","CA",92130,32.9222927960001,-117.213834474,213,"4653 CORTE MAR DE CORAZON, SAN DIEGO, CA, 92130","Match","Exact","4653 CORTE MAR DE CORAZON, SAN DIEGO, CA, 92130",195687138,"R"
220714,"4653 DUPONT AVE S","MINNEAPOLIS","MN",55419,44.918613012,-93.293385601,214,"4653 DUPONT AVE S, MINNEAPOLIS, MN, 55419","Match","Exact","4653 DUPONT AVE S, MINNEAPOLIS, MN, 55419",43629021,"L"
220715,"4653 KING COLE BLVD","ORLANDO","FL",32811,28.5185521830001,-81.439858347,215,"4653 KING COLE BLVD, ORLANDO, FL, 32811","Match","Exact","4653 KING COLE BLVD, ORLANDO, FL, 32811",94274073,"R"
220716,"4653 NW 206TH ST","EDMOND","OK",73012,35.6821068790001,-97.604792705,216,"4653 NW 206TH ST, EDMOND, OK, 73012","Match","Exact","4653 NW 206TH ST, EDMOND, OK, 73012",646655591,"L"
220717,"4653 OLD SYLACAUGA HWY","SYLACAUGA","AL",35151,33.2227714540001,-86.321583115,217,"4653 OLD SYLACAUGA HWY, SYLACAUGA, AL, 35151","Match","Exact","4653 OLD SYLACAUGA HWY, SYLACAUGA, AL, 35151",66987558,"R"
220718,"4653 OXFORD TRENTON ROAD","OXFORD","OH",45056,39.507822338,-84.7136618709999,218,"4653 OXFORD TRENTON ROAD, OXFORD, OH, 45056","Match","Exact","4653 OXFORD TRENTON RD, OXFORD, OH, 45056",640378089,"L"
220719,"4653 TANEY AVENUE","ALEXANDRIA","VA",22304,38.816256948,-77.11204667,219,"4653 TANEY AVENUE, ALEXANDRIA, VA, 22304","Match","Exact","4653 TANEY AVE, ALEXANDRIA, VA, 22304",75983007,"R"
220720,"46533 VALLEY CT","MACOMB","MI",48044,42.6408986800001,-82.9010106379999,220,"46533 VALLEY CT, MACOMB, MI, 48044","Match","Exact","46533 VALLEY CT, MACOMB, MI, 48044",110717247,"L"
220721,"46537 BEAU JARDIN DR 1318","MACOMB","MI",48044,42.6406713960001,-82.909870353,221,"46537 BEAU JARDIN DR 1318, MACOMB, MI, 48044","Match","Exact","46537 BEAU JARDIN DR, MACOMB, MI, 48044",110705181,"L"
220722,"4654 CONCORD CIRCLE","EASTON","PA",18045,40.6567307190001,-75.281879902,222,"4654 CONCORD CIRCLE, EASTON, PA, 18045","Match","Exact","4654 CONCORD CIR, EASTON, PA, 18045",136896012,"L"
220723,"4654 E STATE ROAD 64 SUITE 142","BRADENTON","FL",34208,27.4983616280001,-82.5083820959999,223,"4654 E STATE ROAD 64 SUITE 142, BRADENTON, FL, 34208","Match","Non_Exact","4654 E STATE RD 64, BRADENTON, FL, 34208",16272532,"R"
220724,"4654 EAST STATE ROAD 64 - SUITE 231","BRADENTON","FL",34208,NA,NA,224,"4654 EAST STATE ROAD 64 - SUITE 231, BRADENTON, FL, 34208","No_Match",NA,NA,NA,NA
220725,"4654 OWENS DR","DAYTON","OH",45406,39.7913845210001,-84.2608901519999,225,"4654 OWENS DR, DAYTON, OH, 45406","Match","Exact","4654 OWENS DR, DAYTON, OH, 45406",143565066,"L"
220726,"46540 10TH AVE","KENON","MN",55946,44.2760490100001,-93.0205661049999,226,"46540 10TH AVE, KENON, MN, 55946","Match","Non_Exact","46540 10TH AVE, KENYON, MN, 55946",636520356,"R"
220727,"465406 E 1010 RD","SALLISAW","OK",74955,35.5514442480001,-94.741705236,227,"465406 E 1010 RD, SALLISAW, OK, 74955","Match","Exact","465406 E 1010 RD, SALLISAW, OK, 74955",650748315,"L"
220728,"46542  EAST  CHURCH ROAD","STERLING","VA",20164,39.006539547,-77.389150301,228,"46542  EAST  CHURCH ROAD, STERLING, VA, 20164","Match","Exact","46542 E CHURCH RD, STERLING, VA, 20164",613888179,"R"
220729,"4655 7TH ST","BOULDER","CO",80304,NA,NA,229,"4655 7TH ST, BOULDER, CO, 80304","No_Match",NA,NA,NA,NA
220730,"4655 CLARA STREET APT C","NEW ORLEANS","LA",70115,29.937857265,-90.10677272,230,"4655 CLARA STREET APT C, NEW ORLEANS, LA, 70115","Match","Exact","4655 CLARA ST, NEW ORLEANS, LA, 70115",191711586,"R"
220731,"4655 DAHLONEGA HIGHWAY","CUMMING","GA",30028,34.2982133530001,-84.0999801039999,231,"4655 DAHLONEGA HIGHWAY, CUMMING, GA, 30028","Match","Exact","4655 DAHLONEGA HWY, CUMMING, GA, 30028",70176166,"L"
220732,"4655 DANBURY WAY","OKEMOS","MI",48864,42.716893876,-84.418937274,232,"4655 DANBURY WAY, OKEMOS, MI, 48864","Match","Exact","4655 DANBURY WAY, OKEMOS, MI, 48864",17511529,"L"
220733,"4655 DON ZAREMBO DR","LOS ANGELES","CA",90008,34.004220638,-118.356141471,233,"4655 DON ZAREMBO DR, LOS ANGELES, CA, 90008","Match","Exact","4655 DON ZAREMBO DR, LOS ANGELES, CA, 90008",141601503,"R"
220734,"4655 EBONY CT","MARIANNA","FL",32446,30.9061098,-85.28623701,234,"4655 EBONY CT, MARIANNA, FL, 32446","Match","Exact","4655 EBONY CT, MARIANNA, FL, 32446",7199369,"L"
220735,"4655 NW 68TH BLVD","LAKE PANASOFFKEE","FL",33538,28.856158383,-82.185827261,235,"4655 NW 68TH BLVD, LAKE PANASOFFKEE, FL, 33538","Match","Exact","4655 NW 68TH BLVD, LAKE PANASOFFKEE, FL, 33538",86511460,"R"
220736,"4655 OSAGE BEACH PARKWAY SUITE A","OSAGE BEACH","MO",65065,NA,NA,236,"4655 OSAGE BEACH PARKWAY SUITE A, OSAGE BEACH, MO, 65065","No_Match",NA,NA,NA,NA
220737,"4655 RISING FAWN DRIVE","DOUGLASVILLE","GA",30135,33.678672184,-84.6664900439999,237,"4655 RISING FAWN DRIVE, DOUGLASVILLE, GA, 30135","Match","Exact","4655 RISING FAWN DR, DOUGLASVILLE, GA, 30135",618466213,"L"
220738,"4655 RISING SUN AVE","PHILADELPHIA","PA",19140,40.021399434,-75.1259426189999,238,"4655 RISING SUN AVE, PHILADELPHIA, PA, 19140","Match","Exact","4655 RISING SUN AVE, PHILADELPHIA, PA, 19140",131419841,"R"
220739,"4655 S COUNTRY CLUB RD","GARLAND","TX",75043,32.8614389580001,-96.58885244,239,"4655 S COUNTRY CLUB RD, GARLAND, TX, 75043","Match","Exact","4655 S COUNTRY CLUB RD, GARLAND, TX, 75043",103164685,"R"
220740,"4655 S KING DR","CHICAGO","IL",60653,NA,NA,240,"4655 S KING DR, CHICAGO, IL, 60653","No_Match",NA,NA,NA,NA
220741,"4655 S KING DRIVE STE 201","CHICAGO","IL",60653,NA,NA,241,"4655 S KING DRIVE STE 201, CHICAGO, IL, 60653","No_Match",NA,NA,NA,NA
220742,"4655 S KING DRIVE SUITE 203","CHICAGO","IL",60653,NA,NA,242,"4655 S KING DRIVE SUITE 203, CHICAGO, IL, 60653","No_Match",NA,NA,NA,NA
220743,"4655 S LAKE PARK AVE 120","CHICAGO","IL",60653,41.8104821000001,-87.593363283,243,"4655 S LAKE PARK AVE 120, CHICAGO, IL, 60653","Match","Non_Exact","4655 S LAKE PARK AVE, CHICAGO, IL, 60653",111771559,"L"
220744,"4655 SOUTH LAKE PARK AVE STE 304","CHICAGO","IL",60653,41.8104968150001,-87.5933808999999,244,"4655 SOUTH LAKE PARK AVE STE 304, CHICAGO, IL, 60653","Match","Exact","4655 S LAKE PARK AVE, CHICAGO, IL, 60653",111771559,"L"
220745,"4655 STATE ROAD 10","TIPPECANOE","IN",46570,NA,NA,245,"4655 STATE ROAD 10, TIPPECANOE, IN, 46570","No_Match",NA,NA,NA,NA
220746,"4655 SW 146 COURT","MIAMI","FL",33175,25.7218899430001,-80.430540067,246,"4655 SW 146 COURT, MIAMI, FL, 33175","Match","Exact","4655 SW 146TH CT, MIAMI, FL, 33175",116055550,"L"
220747,"4655 TOWER TERRACE RD","CEDAR RAPIDS","IA",52411,NA,NA,247,"4655 TOWER TERRACE RD, CEDAR RAPIDS, IA, 52411","No_Match",NA,NA,NA,NA
220748,"4655 W 228TH ST","FAIRVIEW PARK","OH",44126,41.4345980910001,-81.8732183829999,248,"4655 W 228TH ST, FAIRVIEW PARK, OH, 44126","Match","Exact","4655 W 228TH ST, FAIRVIEW PARK, OH, 44126",61147929,"L"
220749,"4655 W CHASE AV","LINCOLNWOOD","IL",60712,42.0136045950001,-87.744996656,249,"4655 W CHASE AV, LINCOLNWOOD, IL, 60712","Match","Exact","4655 CHASE AVE, LINCOLNWOOD, IL, 60712",111740851,"L"
220750,"4655 WEBB BRIDGE RD","ALPHARETTA","GA",30005,34.064471649,-84.224146307,250,"4655 WEBB BRIDGE RD, ALPHARETTA, GA, 30005","Match","Exact","4655 WEBB BRIDGE RD, ALPHARETTA, GA, 30005",647364094,"R"
220751,"4655 WEST  AMITY","MERIDIAN","ID",83642,43.5611583850001,-116.451644555,251,"4655 WEST  AMITY, MERIDIAN, ID, 83642","Match","Non_Exact","4655 W AMITY RD, MERIDIAN, ID, 83642",117852218,"L"
220752,"4655 WOODBINE RD","PACE","FL",32571,30.6067827680001,-87.182235925,252,"4655 WOODBINE RD, PACE, FL, 32571","Match","Exact","4655 WOODBINE RD, PACE, FL, 32571",74603321,"L"
220753,"46551 264TH ST","SIOUX FALLS","SD",57107,43.55793964,-96.9055501239999,253,"46551 264TH ST, SIOUX FALLS, SD, 57107","Match","Exact","46551 264TH ST, SIOUX FALLS, SD, 57107",637814780,"R"
220754,"46557 HEYDENREICH RD","MACOMB","MI",48044,42.6402030960001,-82.9164205129999,254,"46557 HEYDENREICH RD, MACOMB, MI, 48044","Match","Exact","46557 HEYDENREICH RD, MACOMB, MI, 48044",110715738,"L"
220755,"4656 BACKWOODS ROAD","CHESAPEAKE","VA",23322,36.551274875,-76.232324268,255,"4656 BACKWOODS ROAD, CHESAPEAKE, VA, 23322","Match","Exact","4656 BACKWOODS RD, CHESAPEAKE, VA, 23322",644714901,"R"
220756,"4656 EXPLORER DR APT 201","WEST MELBOURNE","FL",32904,28.0422337900001,-80.6438669729999,256,"4656 EXPLORER DR APT 201, WEST MELBOURNE, FL, 32904","Match","Exact","4656 EXPLORER DR, W MELBOURNE, FL, 32904",648269289,"L"
220757,"4656 FM 535","CEDAR CREEK","TX",78612,30.032765107,-97.453822767,257,"4656 FM 535, CEDAR CREEK, TX, 78612","Match","Exact","4656 FM 535, CEDAR CREEK, TX, 78612",45483170,"R"
220758,"4656 GARDEN COURT","TRAVERSE CITY","MI",49684,44.746934627,-85.666624676,258,"4656 GARDEN COURT, TRAVERSE CITY, MI, 49684","Match","Exact","4656 GARDEN CT, TRAVERSE CITY, MI, 49684",145518861,"R"
220759,"4656 SOUTH WOOD DUCK LANE","HOLLADAY","UT",84117,40.667302185,-111.85909071,259,"4656 SOUTH WOOD DUCK LANE, HOLLADAY, UT, 84117","Match","Non_Exact","4656 WOODDUCK LN, HOLLADAY, UT, 84117",176112256,"R"
220760,"4656 W ERIE","CHICAGO","IL",60644,41.89233037,-87.7424729479999,260,"4656 W ERIE, CHICAGO, IL, 60644","Match","Non_Exact","4656 W ERIE ST, CHICAGO, IL, 60644",111758429,"R"
220761,"4656 WEST 3855 SOUTH","WEST VALLEY CITY","UT",84120,40.687958549,-112.002491394,261,"4656 WEST 3855 SOUTH, WEST VALLEY CITY, UT, 84120","Match","Exact","4656 W 3855 S, WEST VALLEY CITY, UT, 84120",176069360,"R"
220762,"46560 FREMONT BLVD SUITE 105","FREMONT","CA",94538,37.483165275,-121.945673714,262,"46560 FREMONT BLVD SUITE 105, FREMONT, CA, 94538","Match","Exact","46560 FREMONT BLVD, FREMONT, CA, 94538",635933799,"R"
220763,"46569 HAMPSHIRE STATION DR","POTOMAC FALLS","VA",20165,39.0421291700001,-77.388887945,263,"46569 HAMPSHIRE STATION DR, POTOMAC FALLS, VA, 20165","Match","Exact","46569 HAMPSHIRE STATION DR, POTOMAC FALLS, VA, 20165",62340306,"L"
220764,"4657 E ODESSA DRIVE","SAN TAN VALLEY","AZ",85140,33.227250053,-111.515678435,264,"4657 E ODESSA DRIVE, SAN TAN VALLEY, AZ, 85140","Match","Exact","4657 ODESSA DR, SAN TAN VALLEY, AZ, 85140",624651465,"R"
220765,"4657 GESNER PL","SAN DIEGO","CA",92117,32.792823909,-117.199486343,265,"4657 GESNER PL, SAN DIEGO, CA, 92117","Match","Exact","4657 GESNER PL, SAN DIEGO, CA, 92117",195304158,"R"
220766,"4657 KIRBY AVE APT 2","CINCINNATI","OH",45223,39.175546985,-84.5492185099999,266,"4657 KIRBY AVE APT 2, CINCINNATI, OH, 45223","Match","Exact","4657 KIRBY AVE, CINCINNATI, OH, 45223",103921361,"L"
220767,"4657 OCEAN DRIVE APT 247","CORPUS CHRISTI","TX",78412,27.73317761,-97.3599779959999,267,"4657 OCEAN DRIVE APT 247, CORPUS CHRISTI, TX, 78412","Match","Exact","4657 OCEAN DR, CORPUS CHRISTI, TX, 78412",605751739,"R"
220768,"4657 S US HWY 1 STE H","ROCKLEDGE","FL",32955,NA,NA,268,"4657 S US HWY 1 STE H, ROCKLEDGE, FL, 32955","No_Match",NA,NA,NA,NA
220769,"4657 W MADISON 3R","CHICAGO","IL",60644,NA,NA,269,"4657 W MADISON 3R, CHICAGO, IL, 60644","No_Match",NA,NA,NA,NA
220770,"46573 BONAPARTE DR","MACOMB","MI",48044,42.641578313,-82.902032575,270,"46573 BONAPARTE DR, MACOMB, MI, 48044","Match","Exact","46573 BONAPARTE DR, MACOMB, MI, 48044",110705153,"R"
220771,"46574 ERB DR","MACOMB","MI",48042,42.6418457780001,-82.857863902,271,"46574 ERB DR, MACOMB, MI, 48042","Match","Exact","46574 ERB DR, MACOMB, MI, 48042",110664415,"L"
220772,"4658 36TH ST SOUTH","ARLINGTON","VA",22206,38.833368122,-77.0943674379999,272,"4658 36TH ST SOUTH, ARLINGTON, VA, 22206","Match","Exact","4658 36TH ST S, ARLINGTON, VA, 22206",635443896,"L"
220773,"4658 CARLTON DUNES DRIVE  UNIT 11","AMELIA ISLAND","FL",32034,30.5976768840001,-81.444459235,273,"4658 CARLTON DUNES DRIVE  UNIT 11, AMELIA ISLAND, FL, 32034","Match","Non_Exact","4658 CARLTON DUNES, AMELIA ISLAND, FL, 32034",610868486,"L"
220774,"4658 E KINGS AVE","PHOENIX","AZ",85032,33.63666979,-111.980645469,274,"4658 E KINGS AVE, PHOENIX, AZ, 85032","Match","Exact","4658 E KINGS AVE, PHOENIX, AZ, 85032",128186337,"R"
220775,"4658 GLENLEIGH DRIVE SW","MABLETON","GA",30126,33.8416803260001,-84.556222544,275,"4658 GLENLEIGH DRIVE SW, MABLETON, GA, 30126","Match","Exact","4658 GLENLEIGH DR SW, MABLETON, GA, 30126",17258697,"L"
220776,"4658 IVORY CT NE","SALEM","OR",97305,44.9842909640001,-122.969904053,276,"4658 IVORY CT NE, SALEM, OR, 97305","Match","Exact","4658 IVORY CT NE, SALEM, OR, 97305",156252380,"R"
220777,"4658 JACKAM RIDGE COURT","LITHONIA","GA",30038,33.6369418,-84.133704907,277,"4658 JACKAM RIDGE COURT, LITHONIA, GA, 30038","Match","Exact","4658 JACKAM RIDGE CT, LITHONIA, GA, 30038",635317747,"R"
220778,"4658 L B MCLEOD RD","ORLANDO","FL",32811,28.5082498400001,-81.440382474,278,"4658 L B MCLEOD RD, ORLANDO, FL, 32811","Match","Exact","4658 L B MCLEOD RD, ORLANDO, FL, 32811",94274150,"L"
220779,"4658D HAYGOOD ROAD","VIRGINIA BEACH","VA",23455,36.874307451,-76.137345981,279,"4658D HAYGOOD ROAD, VIRGINIA BEACH, VA, 23455","Match","Exact","4658 HAYGOOD RD, VIRGINIA BCH, VA, 23455",122295205,"R"
220780,"4659 126TH DRIVE NORTH","WEST PALM BEACH","FL",33411,26.7459597050001,-80.241627213,280,"4659 126TH DRIVE NORTH, WEST PALM BEACH, FL, 33411","Match","Exact","4659 126TH DR N, WEST PALM BEACH, FL, 33411",115535738,"R"
220781,"4659 QUEENS GROVE STREET","WHITE PLAINS","MD",20695,38.613401063,-77.027598418,281,"4659 QUEENS GROVE STREET, WHITE PLAINS, MD, 20695","Match","Exact","4659 QUEENS GROVE ST, WHITE PLAINS, MD, 20695",25428279,"L"
220782,"46597 PASEO PADRE PKWY","FREMONT","CA",94539,NA,NA,282,"46597 PASEO PADRE PKWY, FREMONT, CA, 94539","No_Match",NA,NA,NA,NA
220783,"466 AVENUE E","BAYONNE","NJ",7002,40.669524202,-74.1102274679999,283,"466 AVENUE E, BAYONNE, NJ, 7002","Match","Non_Exact","466 AVENUE E, BAYONNE, NJ, 07002",59603520,"R"
220784,"466 BLAISDELL DR","DELAWARE","OH",43015,40.3078092700001,-83.116871615,284,"466 BLAISDELL DR, DELAWARE, OH, 43015","Match","Exact","466 BLAISDELL DR, DELAWARE, OH, 43015",24606557,"L"
220785,"466 CLARA DR","RIVERDALE","GA",30274,33.550915681,-84.3753869079999,285,"466 CLARA DR, RIVERDALE, GA, 30274","Match","Exact","466 CLARA DR, RIVERDALE, GA, 30274",23316344,"L"
220786,"466 CLEVELAND STREET","BROOKLYN","NY",11208,40.673210673,-73.884111412,286,"466 CLEVELAND STREET, BROOKLYN, NY, 11208","Match","Exact","466 CLEVELAND ST, BROOKLYN, NY, 11208",652209119,"R"
220787,"466 COLLETT BRIDGE ROAD","ALVATON","KY",42122,36.892241766,-86.381618335,287,"466 COLLETT BRIDGE ROAD, ALVATON, KY, 42122","Match","Exact","466 COLLETT BRIDGE RD, ALVATON, KY, 42122",28016654,"R"
220788,"466 COUNTY ROAD 2320","DECATUR","TX",76234,33.255100251,-97.442783084,288,"466 COUNTY ROAD 2320, DECATUR, TX, 76234","Match","Exact","466 CO RD 2320, DECATUR, TX, 76234",103683092,"R"
220789,"466 COUNTY ROAD 9","LYNN","AL",35575,34.086746879,-87.6069923649999,289,"466 COUNTY ROAD 9, LYNN, AL, 35575","Match","Exact","466 CO RD 9, LYNN, AL, 35575",650921587,"L"
220790,"466 CRESTVIEW DR NE","LANCASTER","OH",43130,39.7245865200001,-82.5594495459999,290,"466 CRESTVIEW DR NE, LANCASTER, OH, 43130","Match","Non_Exact","466 CRESTVIEW DR, LANCASTER, OH, 43130",37222141,"R"
220791,"466 DOUGLAS AVENUE","LEXINGTON","KY",40508,38.0660534570001,-84.504629971,291,"466 DOUGLAS AVENUE, LEXINGTON, KY, 40508","Match","Exact","466 DOUGLAS AVE, LEXINGTON, KY, 40508",31921378,"R"
220792,"466 E CAMINO BRAVO","NOGALES","AZ",85621,NA,NA,292,"466 E CAMINO BRAVO, NOGALES, AZ, 85621","No_Match",NA,NA,NA,NA
220793,"466 EAST 170TH STREET","SOUTH HOLLAND","IL",60473,41.586345099,-87.60476047,293,"466 EAST 170TH STREET, SOUTH HOLLAND, IL, 60473","Match","Exact","466 E 170TH ST, SOUTH HOLLAND, IL, 60473",111778953,"L"
220794,"466 ELLIS SQUARE COURT","SANFORD","FL",32771,28.801937147,-81.349333499,294,"466 ELLIS SQUARE COURT, SANFORD, FL, 32771","Match","Exact","466 ELLIS SQUARE CT, SANFORD, FL, 32771",624152816,"L"
220795,"466 FM 2808","KEMPNER","TX",76539,31.0770759700001,-97.985781456,295,"466 FM 2808, KEMPNER, TX, 76539","Match","Exact","466 FM 2808, KEMPNER, TX, 76539",146695134,"L"
220796,"466 FOOTHILL BLVD - SUITE 378","LA CANADA FLINTRIDGE","CA",91011,34.198930278,-118.188255441,296,"466 FOOTHILL BLVD - SUITE 378, LA CANADA FLINTRIDGE, CA, 91011","Match","Exact","466 FOOTHILL BLVD, LA CANADA, CA, 91011",640107629,"L"
220797,"466 FOOTHILL BLVD NO 374","LA CANADA","CA",91011,34.198930278,-118.188255441,297,"466 FOOTHILL BLVD NO 374, LA CANADA, CA, 91011","Match","Non_Exact","466 FOOTHILL BLVD, LA CANADA, CA, 91011",640107629,"L"
220798,"466 FOOTHILL BLVD UNIT 350","LA CANADA FLINTRIDGE","CA",91011,34.198930278,-118.188255441,298,"466 FOOTHILL BLVD UNIT 350, LA CANADA FLINTRIDGE, CA, 91011","Match","Exact","466 FOOTHILL BLVD, LA CANADA, CA, 91011",640107629,"L"
220799,"466 GENEVA AVE APT 1","DORCHESTER","TN",2122,NA,NA,299,"466 GENEVA AVE APT 1, DORCHESTER, TN, 2122","No_Match",NA,NA,NA,NA
220800,"466 HEMLOCK CIR SE","ATLANTA","GA",30316,33.740997667,-84.3512780899999,300,"466 HEMLOCK CIR SE, ATLANTA, GA, 30316","Match","Exact","466 HEMLOCK CIR SE, ATLANTA, GA, 30316",17358058,"L"
220801,"466 HUNT STREET","CENTRAL FALLS","RI",2863,41.8920313180001,-71.397110341,301,"466 HUNT STREET, CENTRAL FALLS, RI, 2863","Match","Exact","466 HUNT ST, CENTRAL FALLS, RI, 02863",47455445,"L"
220802,"466 HUNTINGTON RIDGE DRIVE","NASHVILLE","TN",37211,36.0520813520001,-86.730007214,302,"466 HUNTINGTON RIDGE DRIVE, NASHVILLE, TN, 37211","Match","Exact","466 HUNTINGTON RIDGE DR, NASHVILLE, TN, 37211",636664411,"R"
220803,"466 LAMSON AVE","BEDFORD","OH",44146,41.396714644,-81.540027467,303,"466 LAMSON AVE, BEDFORD, OH, 44146","Match","Exact","466 LAMSON AVE, BEDFORD, OH, 44146",61130070,"R"
220804,"466 LEGACY PARK LANE","MARIETTA","OK",73448,NA,NA,304,"466 LEGACY PARK LANE, MARIETTA, OK, 73448","No_Match",NA,NA,NA,NA
220805,"466 MIDDLETOWN AVENUE APT 19","NEW HAVEN","CT",6513,41.329672718,-72.876175965,305,"466 MIDDLETOWN AVENUE APT 19, NEW HAVEN, CT, 6513","Match","Exact","466 MIDDLETOWN AVE, NEW HAVEN, CT, 06513",3703317,"L"
220806,"466 MIDLAND STREET","LITTLE ROCK","AR",72205,34.754479227,-92.310683363,306,"466 MIDLAND STREET, LITTLE ROCK, AR, 72205","Match","Exact","466 MIDLAND ST, LITTLE ROCK, AR, 72205",83508685,"L"
220807,"466 N SALINA STREET","SYRACUSE","NY",13203,43.056675468,-76.15204985,307,"466 N SALINA STREET, SYRACUSE, NY, 13203","Match","Exact","466 N SALINA ST, SYRACUSE, NY, 13203",46570779,"R"
220808,"466 NORTH SALINA STREET","SYRACUSE","NY",13203,43.056664524,-76.152050135,308,"466 NORTH SALINA STREET, SYRACUSE, NY, 13203","Match","Exact","466 N SALINA ST, SYRACUSE, NY, 13203",46570779,"R"
220809,"466 NORTHAMPTON STREET","EASTON","PA",18042,40.6910785960001,-75.212372541,309,"466 NORTHAMPTON STREET, EASTON, PA, 18042","Match","Exact","466 NORTHAMPTON ST, EASTON, PA, 18042",136884080,"L"
220810,"466 OAK GLEN DR","BALLWIN","MO",63021,38.5700119840001,-90.5307394549999,310,"466 OAK GLEN DR, BALLWIN, MO, 63021","Match","Exact","466 OAK GLEN DR, BALLWIN, MO, 63021",100168346,"L"
220811,"466 OCEAN PKWY","BROOKLYN","NY",11218,40.6371197230001,-73.973208886,311,"466 OCEAN PKWY, BROOKLYN, NY, 11218","Match","Exact","466 OCEAN PKWY, BROOKLYN, NY, 11218",59080762,"R"
220812,"466 REINHARD AVE","COLUMBUS","OH",43206,39.943388456,-82.984136528,312,"466 REINHARD AVE, COLUMBUS, OH, 43206","Match","Exact","466 REINHARD AVE, COLUMBUS, OH, 43206",135580329,"L"
220813,"466 ROBESON STREET","SPRING LAKE","NC",28390,35.253809566,-78.948443546,313,"466 ROBESON STREET, SPRING LAKE, NC, 28390","Match","Exact","466 ROBESON ST, SPRING LAKE, NC, 28390",71994828,"R"
220814,"466 ROLLING HILLS DRIVE","WADSWORTH","OH",44281,41.014234828,-81.74577751,314,"466 ROLLING HILLS DRIVE, WADSWORTH, OH, 44281","Match","Exact","466 ROLLING HILLS DR, WADSWORTH, OH, 44281",58678826,"R"
220815,"466 S BALSAM ST","LAKEWOOD","CO",80226,NA,NA,315,"466 S BALSAM ST, LAKEWOOD, CO, 80226","Tie",NA,NA,NA,NA
220816,"466 SOUTH 500 EAST","SALT LAKE CITY","UT",84102,40.759255409,-111.876783149,316,"466 SOUTH 500 EAST, SALT LAKE CITY, UT, 84102","Match","Exact","466 S 500 E, SALT LAKE CITY, UT, 84102",176155163,"R"
220817,"466 STEUBEN AVENUE","FORKED RIVER","NY",8731,NA,NA,317,"466 STEUBEN AVENUE, FORKED RIVER, NY, 8731","No_Match",NA,NA,NA,NA
220818,"466 STEVENSVILLE AIRPORT RD","STEVENSVILLE","MT",59870,46.53011343,-114.052099901,318,"466 STEVENSVILLE AIRPORT RD, STEVENSVILLE, MT, 59870","Match","Exact","466 STEVENSVILLE AIRPORT RD, STEVENSVILLE, MT, 59870",640804717,"R"
220819,"466 VILLAGE GREEN RD","NAPERVILLE","IL",60540,41.7687910120001,-88.161881788,319,"466 VILLAGE GREEN RD, NAPERVILLE, IL, 60540","Match","Exact","466 VILLAGE GREEN RD, NAPERVILLE, IL, 60540",112535857,"R"
220820,"466 VISTA RAMBLA","WALNUT","CA",91789,34.0081301880001,-117.873029635,320,"466 VISTA RAMBLA, WALNUT, CA, 91789","Match","Exact","466 VIS RAMBLA, WALNUT, CA, 91789",141724984,"L"
220821,"466 W SHELBY DR","MEMPHIS","TN",38109,35.020939485,-90.080282357,321,"466 W SHELBY DR, MEMPHIS, TN, 38109","Match","Exact","466 W SHELBY DR, MEMPHIS, TN, 38109",72907148,"R"
220822,"466 WARREN STREET","DORCHESTER","MA",2121,42.315407136,-71.0832701739999,322,"466 WARREN STREET, DORCHESTER, MA, 2121","Match","Exact","466 WARREN ST, DORCHESTER, MA, 02121",85728814,"L"
220823,"466 WARREN WRIGHT RD","BELCHERTOWN","MA",1007,42.334766438,-72.466327925,323,"466 WARREN WRIGHT RD, BELCHERTOWN, MA, 1007","Match","Exact","466 WARREN WRIGHT RD, BELCHERTOWN, MA, 01007",39853510,"L"
220824,"466 WASHINGTON RD","RYE","NH",3870,43.0154941930001,-70.767324195,324,"466 WASHINGTON RD, RYE, NH, 3870","Match","Exact","466 WASHINGTON RD, RYE, NH, 03870",113714305,"R"
220825,"466 WESTCOTT STREET","SYRACUSE","NY",13210,43.042692005,-76.1194515029999,325,"466 WESTCOTT STREET, SYRACUSE, NY, 13210","Match","Exact","466 WESTCOTT ST, SYRACUSE, NY, 13210",46623108,"R"
220826,"466 WESTGLEN VILLAGE DR","BALLWIN","MO",63021,38.5727291370001,-90.560573099,326,"466 WESTGLEN VILLAGE DR, BALLWIN, MO, 63021","Match","Exact","466 WESTGLEN VILLAGE DR, BALLWIN, MO, 63021",100184317,"L"
220827,"466 WOODLAND","BATESVILLE","MS",38606,34.297568739,-89.931189816,327,"466 WOODLAND, BATESVILLE, MS, 38606","Match","Non_Exact","466 WOODLAND RD, BATESVILLE, MS, 38606",607772570,"R"
220828,"4660 BEECHNUT ST STE 210","HOUSTON","TX",77096,29.6891406820001,-95.4567861799999,328,"4660 BEECHNUT ST STE 210, HOUSTON, TX, 77096","Match","Exact","4660 BEECHNUT ST, HOUSTON, TX, 77096",96604394,"R"
220829,"4660 CHARECOTE LANE  E","COLUMBUS","OH",43220,40.054454392,-83.0493593479999,329,"4660 CHARECOTE LANE  E, COLUMBUS, OH, 43220","Match","Non_Exact","4660 CHARECOTE LN, COLUMBUS, OH, 43220",135669042,"R"
220830,"4660 CRAIN HWY NUMBER 1622","WHITE PLAINS","MD",20695,38.5842300460001,-76.9490640229999,330,"4660 CRAIN HWY NUMBER 1622, WHITE PLAINS, MD, 20695","Match","Exact","4660 CRAIN HWY, WHITE PLAINS, MD, 20695",25401757,"L"
220831,"4660 FAY BLVD","COCOA","FL",32927,28.4686188700001,-80.797450601,331,"4660 FAY BLVD, COCOA, FL, 32927","Match","Exact","4660 FAY BLVD, COCOA, FL, 32927",93913133,"L"
220832,"4660 FLEDGLING DR","TALLAHASSEE","FL",32311,30.443757229,-84.205545144,332,"4660 FLEDGLING DR, TALLAHASSEE, FL, 32311","Match","Exact","4660 FLEDGLING DR, TALLAHASSEE, FL, 32311",82892904,"L"
220833,"4660 KENNY ROAD UNIT E","COLUMBUS","OH",43220,40.0595712470001,-83.048634356,333,"4660 KENNY ROAD UNIT E, COLUMBUS, OH, 43220","Match","Exact","4660 KENNY RD, COLUMBUS, OH, 43220",642843431,"R"
220834,"4660 LA JOLLA VILLAGE DR SUITE 1080","SAN DIEGO","CA",92122,32.8741952130001,-117.206209546,334,"4660 LA JOLLA VILLAGE DR SUITE 1080, SAN DIEGO, CA, 92122","Match","Non_Exact","4660 LA JOLLA VILLAGE DR, SAN DIEGO, CA, 92122",195661148,"L"
220835,"4660 LONG KEY LANE","COCONUT CREEK","FL",33073,26.290207992,-80.185711231,335,"4660 LONG KEY LANE, COCONUT CREEK, FL, 33073","Match","Exact","4660 LONG KEY LN, COCONUT CREEK, FL, 33073",114813743,"R"
220836,"4660 M LUTH KING JR AV SW STE A3","WASHINGTON","DC",20032,NA,NA,336,"4660 M LUTH KING JR AV SW STE A3, WASHINGTON, DC, 20032","No_Match",NA,NA,NA,NA
220837,"4660 MLK JR AVE SW APT C-415","WASHINGTON","DC",20032,38.822633528,-77.011467346,337,"4660 MLK JR AVE SW APT C-415, WASHINGTON, DC, 20032","Match","Exact","4660 MARTIN LUTHER KING JR AVE SW, WASHINGTON, DC, 20032",653126129,"L"
220838,"4660 N CAREFREE CIRCLE","COLORADO SPRINGS","CO",80917,38.8861318830001,-104.740053358,338,"4660 N CAREFREE CIRCLE, COLORADO SPRINGS, CO, 80917","Match","Exact","4660 N CAREFREE CIR, COLORADO SPRINGS, CO, 80917",612526790,"L"
220839,"4660 N HIDDEN VALLEY RD","MARICOPA","AZ",85139,32.9217463480001,-112.151811075,339,"4660 N HIDDEN VALLEY RD, MARICOPA, AZ, 85139","Match","Exact","4660 N HIDDEN VALLEY RD, MARICOPA, AZ, 85139",129294067,"L"
220840,"4660 N RANCHO DR","LAS VEGAS","NV",89130,NA,NA,340,"4660 N RANCHO DR, LAS VEGAS, NV, 89130","No_Match",NA,NA,NA,NA
220841,"4660 N US HIGHWAY 1","MELBOURNE","FL",32935,28.1827249890001,-80.6524995469999,341,"4660 N US HIGHWAY 1, MELBOURNE, FL, 32935","Match","Exact","4660 US HWY 1, MELBOURNE, FL, 32935",647114253,"L"
220842,"4660 PINTO CT","ELLICOTT CITY","MD",21043,39.2425877250001,-76.8174528229999,342,"4660 PINTO CT, ELLICOTT CITY, MD, 21043","Match","Exact","4660 PINTO CT, ELLICOTT CITY, MD, 21043",158924139,"R"
220843,"4660 RALEIGH DALTON RD","DALLAS","TX",75227,NA,NA,343,"4660 RALEIGH DALTON RD, DALLAS, TX, 75227","No_Match",NA,NA,NA,NA
220844,"4660 US 1 NORTH","MELBOURNE","FL",32935,NA,NA,344,"4660 US 1 NORTH, MELBOURNE, FL, 32935","No_Match",NA,NA,NA,NA
220845,"4660 VICTORIA AVE APT 1701","RIVERSIDE","CA",92507,33.966171268,-117.368061682,345,"4660 VICTORIA AVE APT 1701, RIVERSIDE, CA, 92507","Match","Exact","4660 VICTORIA AVE, RIVERSIDE, CA, 92507",608991123,"L"
220846,"4660 VIOLA ST","NEW ORLEANS","LA",70126,30.018350486,-89.996009245,346,"4660 VIOLA ST, NEW ORLEANS, LA, 70126","Match","Exact","4660 VIOLA ST, NEW ORLEANS, LA, 70126",191721054,"R"
220847,"4660 W CALIFORNIA AVE","FRESNO","CA",93706,36.7209757050001,-119.875519059,347,"4660 W CALIFORNIA AVE, FRESNO, CA, 93706","Match","Exact","4660 W CALIFORNIA AVE, FRESNO, CA, 93706",197569972,"R"
220848,"4660 WEST 9TH COURT","HIALEAH","FL",33012,25.8645078230001,-80.302568631,348,"4660 WEST 9TH COURT, HIALEAH, FL, 33012","Match","Exact","4660 W 9TH CT, HIALEAH, FL, 33012",115956412,"L"
220849,"46600 STRATFORD COURT","NORTHVILLE","MI",48167,42.4271704970001,-83.502638604,349,"46600 STRATFORD COURT, NORTHVILLE, MI, 48167","Match","Exact","46600 STRATFORD CT, NORTHVILLE, MI, 48167",95490179,"R"
220850,"4661 ARABIAN WAY","ANTIOCH","CA",94531,37.97093621,-121.754056265,350,"4661 ARABIAN WAY, ANTIOCH, CA, 94531","Match","Exact","4661 ARABIAN WAY, ANTIOCH, CA, 94531",192100221,"L"
220851,"4661 BARRINGTON DRIVE","SPRINGFIELD","IL",62711,39.7741549720001,-89.742803598,351,"4661 BARRINGTON DRIVE, SPRINGFIELD, IL, 62711","Match","Exact","4661 BARRINGTON DR, SPRINGFIELD, IL, 62711",97359585,"R"
220852,"4661 BRIDLE WOOD DR","DALLAS","TX",75211,32.7181824840001,-96.898535209,352,"4661 BRIDLE WOOD DR, DALLAS, TX, 75211","Match","Exact","4661 BRIDLE WOOD DR, DALLAS, TX, 75211",102939856,"R"
220853,"4661 CR 3411","LONE OAK","TX",75453,32.956003685,-95.954225868,353,"4661 CR 3411, LONE OAK, TX, 75453","Match","Exact","4661 CO RD 3411, LONE OAK, TX, 75453",42862346,"L"
220854,"4661 DALLAS PLACE APT 103","TEMPLE HILLS","MD",20748,38.8258296220001,-76.948276898,354,"4661 DALLAS PLACE APT 103, TEMPLE HILLS, MD, 20748","Match","Exact","4661 DALLAS PL, TEMPLE HILLS, MD, 20748",76411768,"L"
220855,"4661 DOE HILL RD","MCDOWELL","VA",24458,38.395392584,-79.45814422,355,"4661 DOE HILL RD, MCDOWELL, VA, 24458","Match","Non_Exact","4661 DOE HILL RD, MC DOWELL, VA, 24458",172830244,"L"
220856,"4661 ENGLEWOOD DRIVE","INDIANAPOLIS","IN",46226,39.841469063,-86.044829346,356,"4661 ENGLEWOOD DRIVE, INDIANAPOLIS, IN, 46226","Match","Exact","4661 ENGLEWOOD DR, INDIANAPOLIS, IN, 46226",107997685,"R"
220857,"4661 MARYLAND AVE","ST. LOUIS","MO",63108,38.6442254790001,-90.259060849,357,"4661 MARYLAND AVE, ST. LOUIS, MO, 63108","Match","Exact","4661 MARYLAND AVE, SAINT LOUIS, MO, 63108",605109146,"R"
220858,"4661 S FRASER CIRCLE UNIT A","AURORA","CO",80015,39.6321530120001,-104.812499962,358,"4661 S FRASER CIRCLE UNIT A, AURORA, CO, 80015","Match","Non_Exact","4661 S FRASER CIR, AURORA, CO, 80015",177548055,"R"
220859,"4661 VIOLA STREET","NEW ORLEANS","LA",70126,30.018351534,-89.9959966389999,359,"4661 VIOLA STREET, NEW ORLEANS, LA, 70126","Match","Exact","4661 VIOLA ST, NEW ORLEANS, LA, 70126",191721054,"L"
220860,"4661 WALES DRIVE","PLANO","TX",75021,33.0656557180001,-96.790238029,360,"4661 WALES DRIVE, PLANO, TX, 75021","Match","Non_Exact","4661 WALES DR, PLANO, TX, 75024",123530587,"L"
220861,"46616 VISTA DEL RIO","OAKHURST","CA",93644,37.3382491690001,-119.698754508,361,"46616 VISTA DEL RIO, OAKHURST, CA, 93644","Match","Non_Exact","46616 VISTA DEL RIO DR, OAKHURST, CA, 93644",612098711,"R"
220862,"46617 CARRIAGE CT","STERLING","VA",20164,39.0290645330001,-77.386950247,362,"46617 CARRIAGE CT, STERLING, VA, 20164","Match","Exact","46617 CARRIAGE CT, STERLING, VA, 20164",62340176,"L"
220863,"4662 13TH ST SW","CANTON","OH",44710,40.7890315710001,-81.4327768639999,363,"4662 13TH ST SW, CANTON, OH, 44710","Match","Exact","4662 13TH ST SW, CANTON, OH, 44710",64675493,"L"
220864,"4662 ARDENWOOD DRIVE","FORT WORTH","TX",76123,32.612466591,-97.396491085,364,"4662 ARDENWOOD DRIVE, FORT WORTH, TX, 76123","Match","Exact","4662 ARDENWOOD DR, FORT WORTH, TX, 76123",619865788,"R"
220865,"4662 BRAZIL WOOD DRIVE","KENNESAW","GA",30144,34.069205991,-84.553510264,365,"4662 BRAZIL WOOD DRIVE, KENNESAW, GA, 30144","Match","Exact","4662 BRAZIL WOOD DR, KENNESAW, GA, 30144",17268172,"R"
220866,"4662 BRYSON TERRACE","SAN DIEGO","CA",92130,32.957293645,-117.217975705,366,"4662 BRYSON TERRACE, SAN DIEGO, CA, 92130","Match","Exact","4662 BRYSON TER, SAN DIEGO, CA, 92130",195391243,"L"
220867,"4662 HANFORD STREET","NEW YORK","NY",11362,NA,NA,367,"4662 HANFORD STREET, NEW YORK, NY, 11362","No_Match",NA,NA,NA,NA
220868,"4662 WEBSTER WAY NW","ACWORTH","GA",30101,34.067129537,-84.624833564,368,"4662 WEBSTER WAY NW, ACWORTH, GA, 30101","Match","Exact","4662 WEBSTER WAY NW, ACWORTH, GA, 30101",17221766,"R"
220869,"4663 BIG HILL RD","TODD","NC",28684,36.2976915770001,-81.597857574,369,"4663 BIG HILL RD, TODD, NC, 28684","Match","Exact","4663 BIG HILL RD, TODD, NC, 28684",649738815,"L"
220870,"4663 CARADOR LANE","LAFAYETTE","IN",47909,40.350278689,-86.853612036,370,"4663 CARADOR LANE, LAFAYETTE, IN, 47909","Match","Exact","4663 CARADOR LN, LAFAYETTE, IN, 47909",618728658,"L"
220871,"4663 CENTENNIAL BLVD","COLORADO SPRINGS","CO",80919,38.9001186470001,-104.852053783,371,"4663 CENTENNIAL BLVD, COLORADO SPRINGS, CO, 80919","Match","Exact","4663 CENTENNIAL BLVD, COLORADO SPRINGS, CO, 80919",105541232,"R"
220872,"4663 E OUTER DRIVE 302","DETROIT","MI",48234,42.441368444,-83.022605201,372,"4663 E OUTER DRIVE 302, DETROIT, MI, 48234","Match","Non_Exact","4663 E OUTER DR, DETROIT, MI, 48234",95720916,"L"
220873,"4663 EAGLE RD","CHUBBUCK","ID",83202,42.9180959970001,-112.458988823,373,"4663 EAGLE RD, CHUBBUCK, ID, 83202","Match","Non_Exact","4663 EAGLE DR, CHUBBUCK, ID, 83202",204350181,"L"
220874,"4663 EAST 153RD","CLEVELAND","OH",44128,41.4325958140001,-81.57480286,374,"4663 EAST 153RD, CLEVELAND, OH, 44128","Match","Non_Exact","4663 E 153RD ST, CLEVELAND, OH, 44128",61127730,"L"
220875,"4663 GLENWAY AVENUE","CINCINNATI","OH",45238,39.1154903360001,-84.592964685,375,"4663 GLENWAY AVENUE, CINCINNATI, OH, 45238","Match","Exact","4663 GLENWAY AVE, CINCINNATI, OH, 45238",103918902,"L"
220876,"4663 MILES DR","HOLT","MI",48842,42.6347304600001,-84.5305654319999,376,"4663 MILES DR, HOLT, MI, 48842","Match","Exact","4663 MILES DR, HOLT, MI, 48842",17503566,"L"
220877,"4663 MOSELLE DR","LIBERTY TWP","OH",45011,39.39457207,-84.463580092,377,"4663 MOSELLE DR, LIBERTY TWP, OH, 45011","Match","Exact","4663 MOSELLE DR, LIBERTY TWP, OH, 45011",113815048,"R"
220878,"4663 PAGENTRY PL","WEST VALLEY CITY","UT",84120,40.668456963,-111.988715777,378,"4663 PAGENTRY PL, WEST VALLEY CITY, UT, 84120","Match","Exact","4663 PAGENTRY PL, WEST VALLEY CITY, UT, 84120",176146833,"R"
220879,"4663 RABUN DRIVE","DOUGLASVILLE","GA",30135,33.6513338190001,-84.7272025619999,379,"4663 RABUN DRIVE, DOUGLASVILLE, GA, 30135","Match","Exact","4663 RABUN DR, DOUGLASVILLE, GA, 30135",619859228,"R"
220880,"4663 SILVERTHORN DR","JACKSONVILLE","FL",32258,30.1531851280001,-81.587732166,380,"4663 SILVERTHORN DR, JACKSONVILLE, FL, 32258","Match","Exact","4663 SILVERTHORN DR, JACKSONVILLE, FL, 32258",645692113,"R"
220881,"4663 SPRUCEWOOD DR","MACON","GA",31210,32.893873071,-83.7100828709999,381,"4663 SPRUCEWOOD DR, MACON, GA, 31210","Match","Exact","4663 SPRUCEWOOD DR, MACON, GA, 31210",81056965,"R"
220882,"4663 STATE HIGHWAY A","MAYSVILLE","MO",64469,NA,NA,382,"4663 STATE HIGHWAY A, MAYSVILLE, MO, 64469","No_Match",NA,NA,NA,NA
220883,"4664 CEDAR ST","ASTORIA","OR",97103,46.1949490850001,-123.786604106,383,"4664 CEDAR ST, ASTORIA, OR, 97103","Match","Exact","4664 CEDAR ST, ASTORIA, OR, 97103",159221270,"L"
220884,"4664 CHAPEL CREEK DR","PLANO","TX",75024,33.086473154,-96.790538334,384,"4664 CHAPEL CREEK DR, PLANO, TX, 75024","Match","Exact","4664 CHAPEL CREEK DR, PLANO, TX, 75024",123553500,"R"
220885,"4664 E MONTECITO AVE","FRESNO","CA",93702,36.7340599930001,-119.742466795,385,"4664 E MONTECITO AVE, FRESNO, CA, 93702","Match","Exact","4664 E MONTECITO AVE, FRESNO, CA, 93702",197582696,"R"
220886,"4664 EAST COUNTY ROAD 540-A","LAKELAND","FL",33813,NA,NA,386,"4664 EAST COUNTY ROAD 540-A, LAKELAND, FL, 33813","No_Match",NA,NA,NA,NA
220887,"4664 LOS POBLANOS CIR NW","LOS RANCHOS DE ALBUQ","NM",87107,35.146540142,-106.66379132,387,"4664 LOS POBLANOS CIR NW, LOS RANCHOS DE ALBUQ, NM, 87107","Match","Non_Exact","4664 LOS POBLANOS CIR NW, LOS RANCHOS DE ABQ, NM, 87107",206774993,"L"
220888,"4664 NORTH MAIN STREET","EMINENCE","KY",40019,38.372382003,-85.1795111599999,388,"4664 NORTH MAIN STREET, EMINENCE, KY, 40019","Match","Exact","4664 N MAIN ST, EMINENCE, KY, 40019",649788817,"R"
220889,"4664 NORTH PEACHTREE RD","DUNWOODY","GA",30338,33.9306038600001,-84.294784046,389,"4664 NORTH PEACHTREE RD, DUNWOODY, GA, 30338","Match","Exact","4664 N PEACHTREE RD, DUNWOODY, GA, 30338",23357212,"L"
220890,"4664 NORTH PEACHTREE ROAD","DUNWOODY","GA",30338,33.9306038600001,-84.294784046,390,"4664 NORTH PEACHTREE ROAD, DUNWOODY, GA, 30338","Match","Exact","4664 N PEACHTREE RD, DUNWOODY, GA, 30338",23357212,"L"
220891,"4664 NORTH ROCKTON AVE","ROCKFORD","IL",61103,42.327024529,-89.0971081979999,391,"4664 NORTH ROCKTON AVE, ROCKFORD, IL, 61103","Match","Exact","4664 N ROCKTON AVE, ROCKFORD, IL, 61103",618916427,"L"
220892,"4664 NW 59TH COURT","TAMARAC","FL",33319,26.1989634280001,-80.212800617,392,"4664 NW 59TH COURT, TAMARAC, FL, 33319","Match","Exact","4664 NW 59TH CT, TAMARAC, FL, 33319",114816091,"L"
220893,"4664 OLD STENTON AVENUE","PHILADELPHIA","PA",19144,40.0261891760001,-75.159330701,393,"4664 OLD STENTON AVENUE, PHILADELPHIA, PA, 19144","Match","Exact","4664 STENTON AVE, PHILADELPHIA, PA, 19144",131416672,"L"
220894,"4664 PLEASANT HILL RD","ATHENS","OH",45701,39.2636600970001,-82.093774197,394,"4664 PLEASANT HILL RD, ATHENS, OH, 45701","Match","Exact","4664 PLEASANT HILL RD, ATHENS, OH, 45701",641088564,"R"
220895,"4664 ROUSILLON AVE","FREMONT","CA",94555,37.568226485,-122.045932253,395,"4664 ROUSILLON AVE, FREMONT, CA, 94555","Match","Exact","4664 ROUSILLON AVE, FREMONT, CA, 94555",606841007,"L"
220896,"4664 TEATREE CT","VIERA","FL",32955,28.2764064040001,-80.7477015329999,396,"4664 TEATREE CT, VIERA, FL, 32955","Match","Non_Exact","4664 TEA TREE CT, VIERA, FL, 32955",651418559,"R"
220897,"4664 UMBRIA STREET","PHILADELPHIA","PA",19127,40.030960421,-75.2304648799999,397,"4664 UMBRIA STREET, PHILADELPHIA, PA, 19127","Match","Exact","4664 UMBRIA ST, PHILADELPHIA, PA, 19127",131396110,"L"
220898,"4664 WARNER RD","GARFIELD HEIGHTS","OH",44125,41.432773916,-81.631626306,398,"4664 WARNER RD, GARFIELD HEIGHTS, OH, 44125","Match","Exact","4664 WARNER RD, GARFIELD HEIGHTS, OH, 44125",61119283,"R"
220899,"4664 WILLIAMSTON BLVD","LAKELAND","FL",33810,28.102369965,-81.985906655,399,"4664 WILLIAMSTON BLVD, LAKELAND, FL, 33810","Match","Non_Exact","4664 WILLIAMSTOWN BLVD, LAKELAND, FL, 33810",104885682,"L"
220900,"4665 BROWNSBORO ROAD UNIT D","WINSTON SALEM","NC",27106,36.14876931,-80.277773313,400,"4665 BROWNSBORO ROAD UNIT D, WINSTON SALEM, NC, 27106","Match","Exact","4665 BROWNSBORO RD, WINSTON SALEM, NC, 27106",612437334,"R"
220901,"4665 COSNER DR","CORPUS CHRISTI","TX",78415,27.733708866,-97.405906185,401,"4665 COSNER DR, CORPUS CHRISTI, TX, 78415","Match","Exact","4665 COSNER DR, CORPUS CHRISTI, TX, 78415",178519175,"R"
220902,"4665 CR 1555","ADA","OK",74820,34.7603840360001,-96.86971563,402,"4665 CR 1555, ADA, OK, 74820","Match","Exact","4665 CO RD 1555, ADA, OK, 74820",58485456,"R"
220903,"4665 DIXIE SCHOOL ROAD","NOCONA","TX",76255,33.7253406250001,-97.6763789889999,403,"4665 DIXIE SCHOOL ROAD, NOCONA, TX, 76255","Match","Exact","4665 DIXIE SCHOOL RD, NOCONA, TX, 76255",152112406,"R"
220904,"4665 E GRANT AVE","FRESNO","CA",93702,36.748645249,-119.742397145,404,"4665 E GRANT AVE, FRESNO, CA, 93702","Match","Exact","4665 E GRANT AVE, FRESNO, CA, 93702",197582331,"L"
220905,"4665 FREEWAY CIR","SACRAMENTO","CA",95841,38.658706119,-121.356935769,405,"4665 FREEWAY CIR, SACRAMENTO, CA, 95841","Match","Exact","4665 FREEWAY CIR, SACRAMENTO, CA, 95841",133332756,"L"
220906,"4665 HOOVER ROAD","GROVE CITY","OH",43123,39.869202918,-83.070498084,406,"4665 HOOVER ROAD, GROVE CITY, OH, 43123","Match","Exact","4665 HOOVER RD, GROVE CITY, OH, 43123",135769396,"R"
220907,"4665 LAKE CALABAY DRIVE","ORLANDO","FL",32837,28.3571042290001,-81.43150589,407,"4665 LAKE CALABAY DRIVE, ORLANDO, FL, 32837","Match","Exact","4665 LAKE CALABAY DR, ORLANDO, FL, 32837",94338532,"R"
220908,"4665 LOUISIANA ST UNIT 2","SAN DIEGO","CA",92116,32.762158248,-117.140084277,408,"4665 LOUISIANA ST UNIT 2, SAN DIEGO, CA, 92116","Match","Exact","4665 LOUISIANA ST, SAN DIEGO, CA, 92116",195345145,"R"
220909,"4665 MILE HIGH DRIVE","PROVO","UT",84604,40.2948432790001,-111.636839205,409,"4665 MILE HIGH DRIVE, PROVO, UT, 84604","Match","Exact","4665 MILE HIGH DR, PROVO, UT, 84604",134207514,"R"
220910,"4665 MIRANDA CIRCLE","ORLANDO","FL",32818,28.600709072,-81.472691475,410,"4665 MIRANDA CIRCLE, ORLANDO, FL, 32818","Match","Exact","4665 MIRANDA CIR, ORLANDO, FL, 32818",94303830,"R"
220911,"4665 SCARLET COURT","PALMDALE","CA",93551,34.6288616370001,-118.213690126,411,"4665 SCARLET COURT, PALMDALE, CA, 93551","Match","Exact","4665 SCARLET CT, PALMDALE, CA, 93551",141843332,"R"
220912,"4665 SOUTH BLVD SUITE B","VIRGINIA BEACH","VA",23452,36.8322063270001,-76.135984338,412,"4665 SOUTH BLVD SUITE B, VIRGINIA BEACH, VA, 23452","Match","Exact","4665 SOUTH BLVD, VA BCH, VA, 23452",122285556,"R"
220913,"4665 TRABUE RD","COLUMBUS","OH",43228,39.9846649560001,-83.120991227,413,"4665 TRABUE RD, COLUMBUS, OH, 43228","Match","Exact","4665 TRABUE RD, COLUMBUS, OH, 43228",637621360,"L"
220914,"46654 CARNATION ST","INDIO","CA",92201,33.710201011,-116.231532945,414,"46654 CARNATION ST, INDIO, CA, 92201","Match","Non_Exact","46654 CARNATION CT, INDIO, CA, 92201",194773928,"L"
220915,"4666 NORTH 15TH STREET","PHILADELPHIA","PA",19140,40.024221158,-75.149671918,415,"4666 NORTH 15TH STREET, PHILADELPHIA, PA, 19140","Match","Exact","4666 N 15TH ST, PHILADELPHIA, PA, 19140",131417042,"L"
220916,"4666 POST ROAD","MANLIUS","NY",13104,42.99955721,-75.995962689,416,"4666 POST ROAD, MANLIUS, NY, 13104","Match","Exact","4666 POST RD, MANLIUS, NY, 13104",46578615,"R"
220917,"4666 S 132ND STREET","OMAHA","NE",68137,41.2132312570001,-96.1195710649999,417,"4666 S 132ND STREET, OMAHA, NE, 68137","Match","Exact","4666 S 132ND ST, OMAHA, NE, 68137",116971550,"R"
220918,"4666 YORBA LANE","YORBA LINDA","CA",92886,33.893054084,-117.80538955,418,"4666 YORBA LANE, YORBA LINDA, CA, 92886","Match","Exact","4666 YORBA LN, YORBA LINDA, CA, 92886",144412768,"L"
220919,"4667 CLINTON TINNIN ROAD","CLINTON","MS",39056,32.4222705490001,-90.3445488099999,419,"4667 CLINTON TINNIN ROAD, CLINTON, MS, 39056","Match","Non_Exact","4667 CLINTON-TINNIN RD, CLINTON, MS, 39056",65358643,"L"
220920,"4667 GLENSHIRE PLACE","ATLANTA","GA",30338,33.9347274630001,-84.333107796,420,"4667 GLENSHIRE PLACE, ATLANTA, GA, 30338","Match","Exact","4667 GLENSHIRE PL, ATLANTA, GA, 30338",23392199,"R"
220921,"4667 HIGHLAND CT","GRANDVILLE","MI",49418,42.854362215,-85.793095931,421,"4667 HIGHLAND CT, GRANDVILLE, MI, 49418","Match","Exact","4667 HIGHLAND CT, GRANDVILLE, MI, 49418",624465546,"R"
220922,"4667 NORTHWEST 103RD AVENUE","SUNRISE","FL",33351,26.186082318,-80.2874302669999,422,"4667 NORTHWEST 103RD AVENUE, SUNRISE, FL, 33351","Match","Exact","4667 NW 103RD AVE, SUNRISE, FL, 33351",114795154,"R"
220923,"4667 ROBINHOOD CIRCLE","STRAWBERRY PLAINS","TN",37871,36.0179671500001,-83.6536136399999,423,"4667 ROBINHOOD CIRCLE, STRAWBERRY PLAINS, TN, 37871","Match","Exact","4667 ROBINHOOD CIR, STRAWBERRY PLAINS, TN, 37871",107534299,"L"
220924,"4667 TELEGRAPH RD","VENTURA","CA",93003,34.275714147,-119.23020781,424,"4667 TELEGRAPH RD, VENTURA, CA, 93003","Match","Exact","4667 TELEGRAPH RD, VENTURA, CA, 93003",110040381,"L"
220925,"4668 FIELDSTON RD","BELLINGHAM","WA",98225,48.6947623120001,-122.509306409,425,"4668 FIELDSTON RD, BELLINGHAM, WA, 98225","Match","Exact","4668 FIELDSTON RD, BELLINGHAM, WA, 98225",183774058,"R"
220926,"4668 LAKES EDGE APT 7","WEST CHESTER","CA",45069,NA,NA,426,"4668 LAKES EDGE APT 7, WEST CHESTER, CA, 45069","No_Match",NA,NA,NA,NA
220927,"4668 N LECLAIRE AVE","CHICAGO","IL",60630,41.9659507800001,-87.7550235689999,427,"4668 N LECLAIRE AVE, CHICAGO, IL, 60630","Match","Exact","4668 N LECLAIRE AVE, CHICAGO, IL, 60630",605161229,"L"
220928,"4668 N SPAULDING AVENUE","CHICAGO","IL",60625,41.966334434,-87.71086065,428,"4668 N SPAULDING AVENUE, CHICAGO, IL, 60625","Match","Exact","4668 N SPAULDING AVE, CHICAGO, IL, 60625",641756741,"L"
220929,"4668 NORTH DITTMAR ROAD","ARLINGTON","VA",22207,38.9144242350001,-77.131841105,429,"4668 NORTH DITTMAR ROAD, ARLINGTON, VA, 22207","Match","Exact","4668 N DITTMAR RD, ARLINGTON, VA, 22207",76466119,"L"
220930,"4668 PALMER POINTE ROAD","EXCELSIOR","MN",55331,44.892795635,-93.664145547,430,"4668 PALMER POINTE ROAD, EXCELSIOR, MN, 55331","Match","Non_Exact","4668 PALMER CT, EXCELSIOR, MN, 55331",624516424,"L"
220931,"4668 PEMBROOK PL","ORLANDO","FL",32811,28.4941999270001,-81.441506612,431,"4668 PEMBROOK PL, ORLANDO, FL, 32811","Match","Exact","4668 PEMBROOK PL, ORLANDO, FL, 32811",94274167,"L"
220932,"4668 WILLIAMSPORT ROAD","MONONGAHELA","PA",15063,40.235685737,-79.8978928769999,432,"4668 WILLIAMSPORT ROAD, MONONGAHELA, PA, 15063","Match","Exact","4668 WILLIAMSPORT RD, MONONGAHELA, PA, 15063",51816084,"R"
220933,"46681 COVINGTON DRIVE","MACOMB TOWNSHIP","MI",48044,42.640844907,-82.919566167,433,"46681 COVINGTON DRIVE, MACOMB TOWNSHIP, MI, 48044","Match","Non_Exact","46681 COVINGTON DR, MACOMB, MI, 48044",110705006,"R"
220934,"4669 BROOKVIEW DRIVE","AUBURN","IL",62615,39.5785811220001,-89.733519331,434,"4669 BROOKVIEW DRIVE, AUBURN, IL, 62615","Match","Exact","4669 BROOKVIEW DR, AUBURN, IL, 62615",617541841,"L"
220935,"4669 BUTTE ROAD UNIT B","FLORENCE","CO",81226,38.3756261070001,-105.106847861,435,"4669 BUTTE ROAD UNIT B, FLORENCE, CO, 81226","Match","Exact","4669 BUTTE RD, FLORENCE, CO, 81226",108304856,"R"
220936,"4669 MONTAUK STREET","ORLANDO","FL",32808,28.590945892,-81.443293949,436,"4669 MONTAUK STREET, ORLANDO, FL, 32808","Match","Exact","4669 MONTAUK ST, ORLANDO, FL, 32808",94270218,"R"
220937,"4669 MURPHY CANYON RD SUITE 210","SAN DIEGO","CA",92123,32.8273453410001,-117.119479286,437,"4669 MURPHY CANYON RD SUITE 210, SAN DIEGO, CA, 92123","Match","Exact","4669 MURPHY CANYON RD, SAN DIEGO, CA, 92123",637240719,"R"
220938,"4669 SNAPDRAGON WAY","SAN LUIS OBISPO","CA",93401,35.2435572100001,-120.630435996,438,"4669 SNAPDRAGON WAY, SAN LUIS OBISPO, CA, 93401","Match","Exact","4669 SNAPDRAGON WAY, SAN LUIS OBISPO, CA, 93401",109771371,"R"
220939,"4669 STURBRIDGE COURT","ORLANDO","FM",32812,NA,NA,439,"4669 STURBRIDGE COURT, ORLANDO, FM, 32812","No_Match",NA,NA,NA,NA
220940,"46695 WINSTON DRIVE","EAST LIVERPOOL","OH",43920,40.6845440700001,-80.618546237,440,"46695 WINSTON DRIVE, EAST LIVERPOOL, OH, 43920","Match","Exact","46695 WINSTON DR, EAST LIVERPOOL, OH, 43920",605084333,"L"
220941,"467 BARBIN STREET","HORSHAM","PA",19044,40.1988341860001,-75.1769943479999,441,"467 BARBIN STREET, HORSHAM, PA, 19044","Match","Exact","467 BARBIN ST, HORSHAM, PA, 19044",645867846,"L"
220942,"467 BEACON CIRCLE","SPRINGFIELD","MA",1119,42.1282704480001,-72.506273168,442,"467 BEACON CIRCLE, SPRINGFIELD, MA, 1119","Match","Exact","467 BEACON CIR, SPRINGFIELD, MA, 01119",4059380,"L"
220943,"467 DOLLY DR","CONVERSE","TX",78109,29.498298984,-98.3011922599999,443,"467 DOLLY DR, CONVERSE, TX, 78109","Match","Exact","467 DOLLY DR, CONVERSE, TX, 78109",638591450,"R"
220944,"467 E 43RD ST","LOS ANGELES","CA",90011,34.0056955210001,-118.266638508,444,"467 E 43RD ST, LOS ANGELES, CA, 90011","Match","Exact","467 E 43RD ST, LOS ANGELES, CA, 90011",141619901,"L"
220945,"467 E LEGACY DRIVE","MOUNTAIN HOUSE","CA",95391,37.7729281320001,-121.538072184,445,"467 E LEGACY DRIVE, MOUNTAIN HOUSE, CA, 95391","Match","Exact","467 LEGACY DR, MOUNTAIN HOUSE, CA, 95391",133904040,"R"
220946,"467 ENGLISH LANE","LONGVIEW","TX",75605,32.607136939,-94.748714134,446,"467 ENGLISH LANE, LONGVIEW, TX, 75605","Match","Exact","467 ENGLISH LN, LONGVIEW, TX, 75605",649935949,"L"
220947,"467 HAY STREET","FAYETTEVILLE","NC",28301,35.0544532600001,-78.883771075,447,"467 HAY STREET, FAYETTEVILLE, NC, 28301","Match","Exact","467 HAY ST, FAYETTEVILLE, NC, 28301",642873394,"L"
220948,"467 HIDEAWAY LN","GREENVILLE","CA",95947,40.1358217820001,-120.947123942,448,"467 HIDEAWAY LN, GREENVILLE, CA, 95947","Match","Exact","467 HIDEAWAY LN, GREENVILLE, CA, 95947",127225378,"L"
220949,"467 KIHOLO STREET","HONOLULU","HI",96821,21.2863667940001,-157.755275291,449,"467 KIHOLO STREET, HONOLULU, HI, 96821","Match","Exact","467 KIHOLO ST, HONOLULU, HI, 96821",203243720,"R"
220950,"467 LONGFELLOW ST NE","FRIDLEY","MN",55432,45.112418141,-93.282614708,450,"467 LONGFELLOW ST NE, FRIDLEY, MN, 55432","Match","Exact","467 LONGFELLOW ST NE, FRIDLEY, MN, 55432",97486645,"R"
220951,"467 MALLARD ROAD","PHILIPSBURG","PA",16866,40.862995556,-78.206941779,451,"467 MALLARD ROAD, PHILIPSBURG, PA, 16866","Match","Exact","467 MALLARD RD, PHILIPSBURG, PA, 16866",634169846,"R"
220952,"467 N 425 E","LAPORTE","IN",46350,41.613037724,-86.6165473149999,452,"467 N 425 E, LAPORTE, IN, 46350","Match","Exact","467 N 425 E, LAPORTE, IN, 46350",15409398,"R"
220953,"467 N ALAFAYA TRL","ORLANDO","FL",32828,28.5568186580001,-81.207029153,453,"467 N ALAFAYA TRL, ORLANDO, FL, 32828","Match","Exact","467 N ALAFAYA TRL, ORLANDO, FL, 32828",611231596,"L"
220954,"467 OLD HICKORY DR","PITTSBURGH","PA",15235,40.48224344,-79.785512725,454,"467 OLD HICKORY DR, PITTSBURGH, PA, 15235","Match","Exact","467 OLD HICKORY DR, PITTSBURGH, PA, 15235",639686723,"L"
220955,"467 PARKSIDE WAY","MCDONOUGH","GA",30253,33.415800598,-84.179883769,455,"467 PARKSIDE WAY, MCDONOUGH, GA, 30253","Match","Exact","467 PARKSIDE WAY, MCDONOUGH, GA, 30253",619923200,"R"
220956,"467 RIDGE PINE DRIVE","CANTON","GA",30114,34.2103852380001,-84.510803269,456,"467 RIDGE PINE DRIVE, CANTON, GA, 30114","Match","Exact","467 RIDGE PINE DR, CANTON, GA, 30114",68847862,"L"
220957,"467 SPARKS LANE","PICKENS","SC",29671,34.8969479200001,-82.70264876,457,"467 SPARKS LANE, PICKENS, SC, 29671","Match","Exact","467 SPARKS LN, PICKENS, SC, 29671",26212641,"L"
220958,"467 STATE ST","PERTH AMBOY","NJ",8861,40.5147884990001,-74.2647575089999,458,"467 STATE ST, PERTH AMBOY, NJ, 8861","Match","Exact","467 STATE ST, PERTH AMBOY, NJ, 08861",60281432,"L"
220959,"467 SW 90 COURT","MIAMI","FL",33174,25.764560685,-80.34188125,459,"467 SW 90 COURT, MIAMI, FL, 33174","Match","Exact","467 SW 90TH CT, MIAMI, FL, 33174",116260106,"R"
220960,"467 SYLVAN AVE 1ST FLOOR","ENGLEWOOD CLIFFS","NJ",7632,40.8778432140001,-73.951948655,460,"467 SYLVAN AVE 1ST FLOOR, ENGLEWOOD CLIFFS, NJ, 7632","Match","Exact","467 SYLVAN AVE, ENGLEWOOD CLIFFS, NJ, 07632",64375942,"R"
220961,"467 W 175 N","OREM","UT",84057,40.300606364,-111.707709938,461,"467 W 175 N, OREM, UT, 84057","Match","Exact","467 W 175 N, OREM, UT, 84057",134231222,"L"
220962,"467 W 800 S","MONROE","UT",84754,38.618269798,-112.131047199,462,"467 W 800 S, MONROE, UT, 84754","Match","Exact","467 W 800 S, MONROE, UT, 84754",175335523,"R"
220963,"467 WEST RAYMOND ST","COMPTON","CA",90220,33.887187619,-118.231326282,463,"467 WEST RAYMOND ST, COMPTON, CA, 90220","Match","Exact","467 W RAYMOND ST, COMPTON, CA, 90220",651554866,"R"
220964,"467 WHITE OAK SHADE ROAD","NEW CANAAN","CT",6840,41.121812807,-73.473072755,464,"467 WHITE OAK SHADE ROAD, NEW CANAAN, CT, 6840","Match","Exact","467 WHITE OAK SHADE RD, NEW CANAAN, CT, 06840",3248107,"R"
220965,"467 WINCHESTER ROAD P O BX 44","WINCHESTER CENTER","CT",6094,NA,NA,465,"467 WINCHESTER ROAD P O BX 44, WINCHESTER CENTER, CT, 6094","No_Match",NA,NA,NA,NA
220966,"467 YELLOW BRICK ROAD","ORANGE","CT",6477,41.2675095340001,-73.0649628589999,466,"467 YELLOW BRICK ROAD, ORANGE, CT, 6477","Match","Exact","467 YELLOW BRICK RD, ORANGE, CT, 06477",649723910,"L"
220967,"4670 ASHBURN SQUARE DRIVE","TAMPA","FL",33610,27.987614421,-82.338276803,467,"4670 ASHBURN SQUARE DRIVE, TAMPA, FL, 33610","Match","Exact","4670 ASHBURN SQUARE DR, TAMPA, FL, 33610",649937526,"L"
220968,"4670 ATWOOD CT","BETTENDORF","IA",52722,41.568704978,-90.4915264159999,468,"4670 ATWOOD CT, BETTENDORF, IA, 52722","Match","Exact","4670 ATWOOD CT, BETTENDORF, IA, 52722",122713502,"L"
220969,"4670 BRYANT ROAD","BUFORD","GA",30518,34.1239383450001,-83.973483145,469,"4670 BRYANT ROAD, BUFORD, GA, 30518","Match","Exact","4670 BRYANT RD, BUFORD, GA, 30518",647937996,"L"
220970,"4670 CARPINTERIA AVE","CARPINTERIA","CA",93013,34.4015763800001,-119.52290645,470,"4670 CARPINTERIA AVE, CARPINTERIA, CA, 93013","Match","Exact","4670 CARPINTERIA AVE, CARPINTERIA, CA, 93013",648263795,"L"
220971,"4670 CIARRA KENNEDY LN","RENO","NV",89503,39.5690353580001,-119.830447702,471,"4670 CIARRA KENNEDY LN, RENO, NV, 89503","Match","Exact","4670 CIARRA KENNEDY LN, RENO, NV, 89503",618257848,"L"
220972,"4670 FISHER RIDGE RD","LIBERTY","WV",25124,38.6257886490001,-81.739297198,472,"4670 FISHER RIDGE RD, LIBERTY, WV, 25124","Match","Exact","4670 FISHER RIDGE RD, LIBERTY, WV, 25124",649559622,"L"
220973,"4670 GARYS PLACE","CROUSE","NC",28033,35.4349288400001,-81.354790795,473,"4670 GARYS PLACE, CROUSE, NC, 28033","Match","Exact","4670 GARYS PL, CROUSE, NC, 28033",69545035,"R"
220974,"4670 HOLIDAY DRIVE 204","BOULDER","CO",80304,40.0598243420001,-105.278720149,474,"4670 HOLIDAY DRIVE 204, BOULDER, CO, 80304","Match","Exact","4670 HOLIDAY DR, BOULDER, CO, 80304",623725083,"R"
220975,"4670 PEMBROOKE CT SE","CONYERS","GA",30094,33.5674255070001,-84.035753013,475,"4670 PEMBROOKE CT SE, CONYERS, GA, 30094","Match","Exact","4670 PEMBROOKE CT SE, CONYERS, GA, 30094",23746004,"R"
220976,"4670 SOUTH PENINSULA DRIVE","PONCE INLET","FL",32127,29.0992105810001,-80.940796038,476,"4670 SOUTH PENINSULA DRIVE, PONCE INLET, FL, 32127","Match","Exact","4670 S PENINSULA DR, PONCE INLET, FL, 32127",94562173,"R"
220977,"4670 STATE ROUTE 109 - PO BOX 343","MOCLIPS","WA",98562,NA,NA,477,"4670 STATE ROUTE 109 - PO BOX 343, MOCLIPS, WA, 98562","No_Match",NA,NA,NA,NA
220978,"4670 WINDERMERE PARKWAY","CUMMING","GA",30041,34.1125692790001,-84.1520602159999,478,"4670 WINDERMERE PARKWAY, CUMMING, GA, 30041","Match","Exact","4670 WINDERMERE PKWY, CUMMING, GA, 30041",614033637,"L"
220979,"46709 MERION CIRCLE","NORTHVILLE","MI",48168,42.402154297,-83.5049158419999,479,"46709 MERION CIRCLE, NORTHVILLE, MI, 48168","Match","Exact","46709 MERION CIR, NORTHVILLE, MI, 48168",95740928,"L"
220980,"4671 BELL WOOD DR","OLIVE BRANCH","MS",38654,34.928246368,-89.8315602549999,480,"4671 BELL WOOD DR, OLIVE BRANCH, MS, 38654","Match","Exact","4671 BELL WOOD DR, OLIVE BRANCH, MS, 38654",91835210,"R"
220981,"4671 GARRISON INN CT NW","CONCORD","NC",28027,35.394362217,-80.6518091309999,481,"4671 GARRISON INN CT NW, CONCORD, NC, 28027","Match","Exact","4671 GARRISON INN CT NW, CONCORD, NC, 28027",24912100,"L"
220982,"4671 KNOYLE ROAD","ERIE","PA",16510,42.091820338,-79.9575612419999,482,"4671 KNOYLE ROAD, ERIE, PA, 16510","Match","Exact","4671 KNOYLE RD, ERIE, PA, 16510",117501073,"R"
220983,"4671 TUTTLE CROSSING BLVD","DUBLIN","OH",43017,NA,NA,483,"4671 TUTTLE CROSSING BLVD, DUBLIN, OH, 43017","No_Match",NA,NA,NA,NA
220984,"4671 W 3145 S","WEST VALLEY CITY","UT",84120,40.703054658,-112.002933674,484,"4671 W 3145 S, WEST VALLEY CITY, UT, 84120","Match","Exact","4671 W 3145 S, WEST VALLEY CITY, UT, 84120",176069222,"L"
220985,"4671 WARNER AVE APT 128","HUNTINGTON BEACH","TX",92649,NA,NA,485,"4671 WARNER AVE APT 128, HUNTINGTON BEACH, TX, 92649","No_Match",NA,NA,NA,NA
220986,"4672 20TH ST N","ARLINGTON","VA",22207,38.8949173670001,-77.1191358949999,486,"4672 20TH ST N, ARLINGTON, VA, 22207","Match","Exact","4672 20TH ST N, ARLINGTON, VA, 22207",76468139,"L"
220987,"4672 35TH STREET","SAN DIEGO","CA",92116,32.7623802900001,-117.117299303,487,"4672 35TH STREET, SAN DIEGO, CA, 92116","Match","Exact","4672 35TH ST, SAN DIEGO, CA, 92116",612870934,"L"
220988,"4672 MAGRATH DRIVE","COEUR D'ALENE","ID",83815,47.7394416480001,-116.848427466,488,"4672 MAGRATH DRIVE, COEUR D'ALENE, ID, 83815","Match","Non_Exact","4672 MAGRATH DR, COEUR D ALENE, ID, 83815",646748060,"L"
220989,"4672 OTTER LAKE ROAD","OTTER LAKE","MI",48464,43.217087625,-83.4157519,489,"4672 OTTER LAKE ROAD, OTTER LAKE, MI, 48464","Match","Exact","4672 OTTER LAKE RD, OTTER LAKE, MI, 48464",110454315,"L"
220990,"4672 PERRY COURT","LEWISTON","NY",14092,43.1867224920001,-79.025687106,490,"4672 PERRY COURT, LEWISTON, NY, 14092","Match","Exact","4672 PERRY CT, LEWISTON, NY, 14092",605123078,"R"
220991,"4672 PINE STREET SE","SMYRNA","GA",30080,33.8415516590001,-84.491234978,491,"4672 PINE STREET SE, SMYRNA, GA, 30080","Match","Exact","4672 PINE ST SE, SMYRNA, GA, 30080",625652782,"R"
220992,"4672 WEST JENNIFER AVE SUITE 101","FRESNO","CA",93722,36.8108567570001,-119.87742505,492,"4672 WEST JENNIFER AVE SUITE 101, FRESNO, CA, 93722","Match","Exact","4672 W JENNIFER AVE, FRESNO, CA, 93722",197607299,"R"
220993,"4672 WOODMERE LANE","COLUMBUS","GA",31907,32.500932017,-84.9134980599999,493,"4672 WOODMERE LANE, COLUMBUS, GA, 31907","Match","Exact","4672 WOODMERE LN, COLUMBUS, GA, 31907",98947974,"R"
220994,"467262 E 931 RD","BUNCH","OK",74931,NA,NA,494,"467262 E 931 RD, BUNCH, OK, 74931","No_Match",NA,NA,NA,NA
220995,"46727 WOODMINT TERRACE","STERLING","VA",20164,39.0101215990001,-77.383286273,495,"46727 WOODMINT TERRACE, STERLING, VA, 20164","Match","Exact","46727 WOODMINT TER, STERLING, VA, 20164",62363152,"R"
220996,"4673 LABADIE AV","ST LOUIS","MO",63115,38.668051038,-90.246579104,496,"4673 LABADIE AV, ST LOUIS, MO, 63115","Match","Exact","4673 LABADIE AVE, SAINT LOUIS, MO, 63115",605101761,"R"
220997,"4673 LIBERTY ROAD","SOUTH EUCLID","OH",44121,41.525881026,-81.511322182,497,"4673 LIBERTY ROAD, SOUTH EUCLID, OH, 44121","Match","Exact","4673 LIBERTY RD, SOUTH EUCLID, OH, 44121",61179119,"L"
220998,"4673 PAGE","ST LOUIS","MO",63113,38.6577854400001,-90.2544057819999,498,"4673 PAGE, ST LOUIS, MO, 63113","Match","Non_Exact","4673 PAGE BLVD, SAINT LOUIS, MO, 63113",107595448,"R"
220999,"4673 S MONACO ST 304","DENVER","CO",80237,39.7798723920001,-104.912881692,499,"4673 S MONACO ST 304, DENVER, CO, 80237","Match","Non_Exact","4673 MONACO ST, DENVER, CO, 80216",177630492,"L"
221000,"46735 WOODMINT TERRACE","STERLING","VA",20164,39.010031009,-77.383081187,500,"46735 WOODMINT TERRACE, STERLING, VA, 20164","Match","Exact","46735 WOODMINT TER, STERLING, VA, 20164",62363152,"R"
