"ID","Address","City","State","Zip","lat","long","id","input_address","match_indicator","match_type","matched_address","tiger_line_id","tiger_side"
62501,"1442 FRANCIS STATION DR","KNOXVILLE","TN",37909,35.9531836360001,-84.035331229,1,"1442 FRANCIS STATION DR, KNOXVILLE, TN, 37909","Match","Exact","1442 FRANCIS STATION DR, KNOXVILLE, TN, 37909",42662909,"L"
62502,"1442 HUDSON ROAD","FERGUSON","MO",63135,38.760531912,-90.281629273,2,"1442 HUDSON ROAD, FERGUSON, MO, 63135","Match","Exact","1442 HUDSON RD, FERGUSON, MO, 63135",604464633,"R"
62503,"1442 JUDAH STREET","SAN FRANCISCO","CA",94122,37.761686986,-122.47744944,3,"1442 JUDAH STREET, SAN FRANCISCO, CA, 94122","Match","Exact","1442 JUDAH ST, SAN FRANCISCO, CA, 94122",640991398,"R"
62504,"1442 JULIAN ST","DENVER","CO",80204,39.739296472,-105.031112072,4,"1442 JULIAN ST, DENVER, CO, 80204","Match","Exact","1442 JULIAN ST, DENVER, CO, 80204",177301601,"R"
62505,"1442 MACY LANE","DALLAS","TX",75253,32.6766971330001,-96.5901612649999,5,"1442 MACY LANE, DALLAS, TX, 75253","Match","Exact","1442 MACY LN, DALLAS, TX, 75253",624155668,"R"
62506,"1442 N SHORE DRIVE","KNOXVILLE","IA",50138,41.308691014,-93.072967057,6,"1442 N SHORE DRIVE, KNOXVILLE, IA, 50138","Match","Exact","1442 N SHORE DR, KNOXVILLE, IA, 50138",89485499,"R"
62507,"1442 OLNEY AVE SE","PORT ORCHARD","WA",98366,47.5347376,-122.609622881,7,"1442 OLNEY AVE SE, PORT ORCHARD, WA, 98366","Match","Exact","1442 OLNEY AVE SE, PORT ORCHARD, WA, 98366",619734740,"L"
62508,"1442 POTTSTOWN PIKE","WEST CHESTER","PA",19380,40.011366847,-75.6162422749999,8,"1442 POTTSTOWN PIKE, WEST CHESTER, PA, 19380","Match","Exact","1442 POTTSTOWN PIKE, WEST CHESTER, PA, 19380",653369084,"R"
62509,"1442 RAVEN CIRCLE UNIT A","ESTES PARK","CO",80517,NA,NA,9,"1442 RAVEN CIRCLE UNIT A, ESTES PARK, CO, 80517","Tie",NA,NA,NA,NA
62510,"1442 S WINCHESTER BLVD NUM 249","SAN JOSE","CA",95128,37.2980093790001,-121.949920504,10,"1442 S WINCHESTER BLVD NUM 249, SAN JOSE, CA, 95128","Match","Exact","1442 WINCHESTER BLVD, SAN JOSE, CA, 95128",122904666,"L"
62511,"1442 SHELY","TX","TX",78404,NA,NA,11,"1442 SHELY, TX, TX, 78404","No_Match",NA,NA,NA,NA
62512,"1442 WASHINGTON ST","ELDORA","IA",50627,42.359355109,-93.0995253089999,12,"1442 WASHINGTON ST, ELDORA, IA, 50627","Match","Exact","1442 WASHINGTON ST, ELDORA, IA, 50627",77439798,"L"
62513,"1442 WOOLWORTH STREETS","ELMONT","NY",11003,40.7045144800001,-73.694597684,13,"1442 WOOLWORTH STREETS, ELMONT, NY, 11003","Match","Non_Exact","1442 WOOLWORTH ST, ELMONT, NY, 11003",147666823,"R"
62514,"1442","MALVERN","AR",72104,NA,NA,14,"1442, MALVERN, AR, 72104","No_Match",NA,NA,NA,NA
62515,"14420 PEMBROKE ST","DETROIT","MI",48235,42.4380398750001,-83.188254112,15,"14420 PEMBROKE ST, DETROIT, MI, 48235","Match","Non_Exact","14420 PEMBROKE AVE, DETROIT, MI, 48235",95424064,"R"
62516,"14420 S DELTA RD","LOS BANOS","CA",93635,37.0783597650001,-120.76214092,16,"14420 S DELTA RD, LOS BANOS, CA, 93635","Match","Exact","14420 DELTA RD, LOS BANOS, CA, 93635",125290371,"R"
62517,"14420 VOSE ST APT 20","VAN NUYS","CA",91405,34.198458857,-118.447040844,17,"14420 VOSE ST APT 20, VAN NUYS, CA, 91405","Match","Exact","14420 VOSE ST, VAN NUYS, CA, 91405",142716378,"L"
62518,"14421 BEESONS STATION ROAD","CONNERSVILLE","IN",47331,39.7225784340001,-85.149900116,18,"14421 BEESONS STATION ROAD, CONNERSVILLE, IN, 47331","Match","Exact","14421 BEESONS STATION RD, CONNERSVILLE, IN, 47331",31341933,"L"
62519,"14421 CLAY ROCK LN","SILVER SPRING","MD",20906,NA,NA,19,"14421 CLAY ROCK LN, SILVER SPRING, MD, 20906","No_Match",NA,NA,NA,NA
62520,"14421 E PECOS RD","GILBERT","AZ",85295,33.291893541,-111.771861412,20,"14421 E PECOS RD, GILBERT, AZ, 85295","Match","Exact","14421 E PECOS RD, GILBERT, AZ, 85295",641760593,"R"
62521,"14421 EAST NATURE CREEK PLACE","VAIL","AZ",85641,32.049110098,-110.686819331,21,"14421 EAST NATURE CREEK PLACE, VAIL, AZ, 85641","Match","Exact","14421 E NATURE CREEK PL, VAIL, AZ, 85641",121400973,"R"
62522,"14421 FAIRDALE ROAD","SILVER SPRING","MD",20905,39.093932281,-76.955582904,22,"14421 FAIRDALE ROAD, SILVER SPRING, MD, 20905","Match","Exact","14421 FAIRDALE RD, SILVER SPRING, MD, 20905",618606228,"R"
62523,"14421 GENERAL WASHINGTON DRIVE","WOODBRIDGE","VA",22193,38.642267652,-77.3626839,23,"14421 GENERAL WASHINGTON DRIVE, WOODBRIDGE, VA, 22193","Match","Exact","14421 GENERAL WASHINGTON DR, WOODBRIDGE, VA, 22193",619948632,"R"
62524,"14421 GILDENBOROUGH DR","MIDLOTHIAN","VA",23113,37.516084382,-77.6723451029999,24,"14421 GILDENBOROUGH DR, MIDLOTHIAN, VA, 23113","Match","Exact","14421 GILDENBOROUGH DR, MIDLOTHIAN, VA, 23113",201586197,"L"
62525,"14421 GLORIETTA DRIVE","SHERMAN OAKS","CA",91423,34.134581875,-118.445717264,25,"14421 GLORIETTA DRIVE, SHERMAN OAKS, CA, 91423","Match","Exact","14421 GLORIETTA DR, SHERMAN OAKS, CA, 91423",141562488,"R"
62526,"14421 INNSBRUCK CT","SILVER SPRING","MD",20906,39.092526983,-77.047859423,26,"14421 INNSBRUCK CT, SILVER SPRING, MD, 20906","Match","Exact","14421 INNSBRUCK CT, SILVER SPRING, MD, 20906",623890560,"R"
62527,"14421 N 23RD AVE","PHOENIX","AZ",85023,33.617407686,-112.110110931,27,"14421 N 23RD AVE, PHOENIX, AZ, 85023","Match","Exact","14421 N 23RD AVE, PHOENIX, AZ, 85023",128181030,"L"
62528,"14421 NW 13TH ROAD","MIAMI","FL",33167,25.906940736,-80.2211287379999,28,"14421 NW 13TH ROAD, MIAMI, FL, 33167","Match","Exact","14421 NW 13TH RD, MIAMI, FL, 33167",116030100,"R"
62529,"14421 OLD COURTHOUSE WAY","NEWPORT NEWS","VA",23608,37.1298109300001,-76.541544584,29,"14421 OLD COURTHOUSE WAY, NEWPORT NEWS, VA, 23608","Match","Exact","14421 OLD COURTHOUSE WAY, NEWPORT NEWS, VA, 23608",103816299,"L"
62530,"14421 PEAR STREET","RIVERSIDE","CA",92508,33.910926814,-117.334611711,30,"14421 PEAR STREET, RIVERSIDE, CA, 92508","Match","Exact","14421 PEAR ST, RIVERSIDE, CA, 92508",194852951,"R"
62531,"14421 WINCHESTER GRADE RD SUITE 201","BERKELEY SPRINGS","WV",25411,39.4209359340001,-78.2593044239999,31,"14421 WINCHESTER GRADE RD SUITE 201, BERKELEY SPRINGS, WV, 25411","Match","Exact","14421 WINCHESTER GRADE RD, BERKELEY SPRINGS, WV, 25411",634783645,"R"
62532,"14423  CAMEO AVE","NORWALK","CA",90650,33.9007660010001,-118.068164774,32,"14423  CAMEO AVE, NORWALK, CA, 90650","Match","Exact","14423 CAMEO AVE, NORWALK, CA, 90650",142794656,"R"
62533,"14423 CHIPOLTE CT","ADELANTO","CA",92301,34.5128400900001,-117.42387427,33,"14423 CHIPOLTE CT, ADELANTO, CA, 92301","Match","Exact","14423 CHIPOLTE CT, ADELANTO, CA, 92301",648041533,"L"
62534,"14423 N 41ST CT","PHOENIX","AZ",85032,33.618046824,-111.993432279,34,"14423 N 41ST CT, PHOENIX, AZ, 85032","Match","Exact","14423 N 41ST CT, PHOENIX, AZ, 85032",128186282,"R"
62535,"14423 SW 11 STREET","MIAMI","FL",33184,25.7567003350001,-80.429354054,35,"14423 SW 11 STREET, MIAMI, FL, 33184","Match","Exact","14423 SW 11TH ST, MIAMI, FL, 33184",625398837,"R"
62536,"14424 148TH ST E","ORTING","WA",98360,47.1216374190001,-122.236345912,36,"14424 148TH ST E, ORTING, WA, 98360","Match","Exact","14424 148TH ST E, ORTING, WA, 98360",184754183,"R"
62537,"14424 ALLENDALE LANE","CONROE","TX",77302,30.205015605,-95.356413183,37,"14424 ALLENDALE LANE, CONROE, TX, 77302","Match","Exact","14424 ALLENDALE LN, CONROE, TX, 77302",79285471,"R"
62538,"14425 EAGLE ROCK AVENUE","CHESTER","VA",23831,37.326255759,-77.4177885,38,"14425 EAGLE ROCK AVENUE, CHESTER, VA, 23831","Match","Exact","14425 EAGLE ROCK AVE, CHESTER, VA, 23831",201563452,"L"
62539,"14425 NE MILTON ST","PORTLAND","OR",97230,45.548311466,-122.514357938,39,"14425 NE MILTON ST, PORTLAND, OR, 97230","Match","Exact","14425 NE MILTON ST, PORTLAND, OR, 97230",157522170,"L"
62540,"14425 NORTH 22ND STREET","PHOENIX","AZ",85022,33.617606332,-112.035574657,40,"14425 NORTH 22ND STREET, PHOENIX, AZ, 85022","Match","Exact","14425 N 22ND ST, PHOENIX, AZ, 85022",128914905,"L"
62541,"14426 BLACK LAKE RD","ODESSA","FL",33556,28.1897315410001,-82.5772864099999,41,"14426 BLACK LAKE RD, ODESSA, FL, 33556","Match","Exact","14426 BLACK LAKE RD, ODESSA, FL, 33556",86352149,"L"
62542,"14426 BONIFANT PARK PL","SILVER SPRING","MD",20906,39.0938076570001,-77.0403374159999,42,"14426 BONIFANT PARK PL, SILVER SPRING, MD, 20906","Match","Exact","14426 BONIFANT PARK, SILVER SPRING, MD, 20906",618605116,"L"
62543,"14426 BURLESON BEND","HOUSTON","TX",77049,29.8231982360001,-95.182066861,43,"14426 BURLESON BEND, HOUSTON, TX, 77049","Match","Non_Exact","14426 BURLESON BEND DR, HOUSTON, TX, 77049",645138864,"R"
62544,"14426 CLEMINSHAW ROAD","CLEVELAND","OH",44135,41.4438333940001,-81.794933073,44,"14426 CLEMINSHAW ROAD, CLEVELAND, OH, 44135","Match","Exact","14426 CLEMINSHAW RD, CLEVELAND, OH, 44135",61102544,"R"
62545,"14426 GREEN RIVER RD","VICTORVILLE","CA",92394,34.517351406,-117.348048616,45,"14426 GREEN RIVER RD, VICTORVILLE, CA, 92394","Match","Exact","14426 GREEN RIVER RD, VICTORVILLE, CA, 92394",144743365,"R"
62546,"14426 MURPHY CIR E","CARMEL","IN",46074,39.9961224740001,-86.2038185439999,46,"14426 MURPHY CIR E, CARMEL, IN, 46074","Match","Exact","14426 MURPHY CIR E, CARMEL, IN, 46074",618464124,"L"
62547,"14426 SE 156TH","CLACKAMAS","OR",97015,45.4179473830001,-122.502388549,47,"14426 SE 156TH, CLACKAMAS, OR, 97015","Match","Non_Exact","14426 SE 156TH AVE, CLACKAMAS, OR, 97015",651780004,"L"
62548,"14426 SENECA ROAD","GERMANTOWN","MD",20874,39.093085977,-77.2990255619999,48,"14426 SENECA ROAD, GERMANTOWN, MD, 20874","Match","Exact","14426 SENECA RD, GERMANTOWN, MD, 20874",653263429,"L"
62549,"14427 ARBOR LN","HAWTHORNE","CA",90250,33.9001088730001,-118.3300379,49,"14427 ARBOR LN, HAWTHORNE, CA, 90250","Match","Exact","14427 ARBOR LN, HAWTHORNE, CA, 90250",142678691,"R"
62550,"14427 BROWN RD","CENTRAL","LA",70714,30.579511616,-91.0907642459999,50,"14427 BROWN RD, CENTRAL, LA, 70714","Match","Non_Exact","14427 BROWN RD, BAKER, LA, 70714",606189713,"L"
62551,"14427 ERMITA AVE","LA MIRADA","CA",90638,33.901175977,-117.991890637,51,"14427 ERMITA AVE, LA MIRADA, CA, 90638","Match","Exact","14427 ERMITA AVE, LA MIRADA, CA, 90638",141752508,"R"
62552,"14427 SE TERRITORY DR","CLACKAMAS","OR",97015,45.420950503,-122.515318901,52,"14427 SE TERRITORY DR, CLACKAMAS, OR, 97015","Match","Exact","14427 SE TERRITORY DR, CLACKAMAS, OR, 97015",638405536,"R"
62553,"14428 N 56TH PLACE","SCOTTSDALE","AZ",85254,33.617748777,-111.959851536,53,"14428 N 56TH PLACE, SCOTTSDALE, AZ, 85254","Match","Exact","14428 N 56TH PL, SCOTTSDALE, AZ, 85254",128580764,"R"
62554,"14429 GENERAL WASHINGTON DR","WOODBRIDGE","VA",22193,38.6424177600001,-77.3630880379999,54,"14429 GENERAL WASHINGTON DR, WOODBRIDGE, VA, 22193","Match","Exact","14429 GENERAL WASHINGTON DR, WOODBRIDGE, VA, 22193",619948632,"R"
62555,"14429 PENN RD","GRASS VALLEY","CA",95949,39.1600667700001,-121.046131743,55,"14429 PENN RD, GRASS VALLEY, CA, 95949","Match","Exact","14429 PENN RD, GRASS VALLEY, CA, 95949",106543294,"R"
62556,"14429 SOUTH MICHIGAN AVENUE","RIVERDALE","IL",60827,41.632600096,-87.619624877,56,"14429 SOUTH MICHIGAN AVENUE, RIVERDALE, IL, 60827","Match","Exact","14429 S MICHIGAN AVE, RIVERDALE, IL, 60827",604990227,"L"
62557,"1442A WALNUT STREET NO 49","BERKELEY","CA",94709,37.8809667850001,-122.268308757,57,"1442A WALNUT STREET NO 49, BERKELEY, CA, 94709","Match","Non_Exact","1442 WALNUT ST, BERKELEY, CA, 94709",606129328,"R"
62558,"1442A WALNUT STREET NUM 310","BERKELEY","CA",94709,37.8809667850001,-122.268308757,58,"1442A WALNUT STREET NUM 310, BERKELEY, CA, 94709","Match","Exact","1442 WALNUT ST, BERKELEY, CA, 94709",606129328,"R"
62559,"1442A WALNUT STREET SUITE 474","BERKELEY","CA",94709,37.8809667850001,-122.268308757,59,"1442A WALNUT STREET SUITE 474, BERKELEY, CA, 94709","Match","Exact","1442 WALNUT ST, BERKELEY, CA, 94709",606129328,"R"
62560,"1443 ARMIGER LN","KNOXVILLE","TN",37932,35.9281926890001,-84.155185962,60,"1443 ARMIGER LN, KNOXVILLE, TN, 37932","Match","Exact","1443 ARMIGER LN, KNOXVILLE, TN, 37932",634002421,"L"
62561,"1443 COLBY LANE","SCHAUMBURG","IL",60193,42.007301682,-88.1165838429999,61,"1443 COLBY LANE, SCHAUMBURG, IL, 60193","Match","Exact","1443 COLBY LN, SCHAUMBURG, IL, 60193",111872869,"R"
62562,"1443 COMPTON ROAD","JACKSONVILLE","FL",32221,30.2970912910001,-81.792211692,62,"1443 COMPTON ROAD, JACKSONVILLE, FL, 32221","Match","Exact","1443 COMPTON RD, JACKSONVILLE, FL, 32221",83908733,"L"
62563,"1443 CROOKED STICK DRIVE","O FALLON","MO",63366,38.782706741,-90.730763453,63,"1443 CROOKED STICK DRIVE, O FALLON, MO, 63366","Match","Exact","1443 CROOKED STICK DR, O FALLON, MO, 63366",100049027,"R"
62564,"1443 DECREE AVENUE","WEST COLUMBIA","SC",29169,33.983414532,-81.076336252,64,"1443 DECREE AVENUE, WEST COLUMBIA, SC, 29169","Match","Exact","1443 DECREE AVE, WEST COLUMBIA, SC, 29169",70055414,"L"
62565,"1443 DELPLAZA DRIVE SUITE 1","BATON ROUGE","LA",70815,30.438056504,-91.083149995,65,"1443 DELPLAZA DRIVE SUITE 1, BATON ROUGE, LA, 70815","Match","Exact","1443 DELPLAZA DR, BATON ROUGE, LA, 70815",92190972,"L"
62566,"1443 E  WASHINGTON BLVD  276","PASADENA","CA",91104,34.169075434,-118.120609463,66,"1443 E  WASHINGTON BLVD  276, PASADENA, CA, 91104","Match","Non_Exact","1443 E WASHINGTON BLVD, PASADENA, CA, 91104",141628946,"L"
62567,"1443 E BROADWAY UNIT B","GLENDALE","CA",91205,34.1461765540001,-118.232944634,67,"1443 E BROADWAY UNIT B, GLENDALE, CA, 91205","Match","Non_Exact","1443 E BROADWAY, GLENDALE, CA, 91205",141611312,"L"
62568,"1443 E GERONIMO","CHANDLER","AZ",85225,33.292885428,-111.816873717,68,"1443 E GERONIMO, CHANDLER, AZ, 85225","Match","Non_Exact","1443 E GERONIMO ST, CHANDLER, AZ, 85225",128805848,"R"
62569,"1443 E WASHINGTON BLVD  664","PASADENA","CA",91104,34.169075434,-118.120609463,69,"1443 E WASHINGTON BLVD  664, PASADENA, CA, 91104","Match","Non_Exact","1443 E WASHINGTON BLVD, PASADENA, CA, 91104",141628946,"L"
62570,"1443 E WASHINGTON BLVD BOX 642","PASADENA","CA",91104,34.169075434,-118.120609463,70,"1443 E WASHINGTON BLVD BOX 642, PASADENA, CA, 91104","Match","Non_Exact","1443 E WASHINGTON BLVD, PASADENA, CA, 91104",141628946,"L"
62571,"1443 E WASHINGTON BLVD NO 277","PASADENA","CA",91104,NA,NA,71,"1443 E WASHINGTON BLVD NO 277, PASADENA, CA, 91104","No_Match",NA,NA,NA,NA
62572,"1443 E WASHINGTON BLVD NO 808","PASADENA","CA",91104,NA,NA,72,"1443 E WASHINGTON BLVD NO 808, PASADENA, CA, 91104","No_Match",NA,NA,NA,NA
62573,"1443 E WASHINGTON BLVD NUM 107","PASADENA","CA",91104,34.169075434,-118.120609463,73,"1443 E WASHINGTON BLVD NUM 107, PASADENA, CA, 91104","Match","Non_Exact","1443 E WASHINGTON BLVD, PASADENA, CA, 91104",141628946,"L"
62574,"1443 EAST 69TH STREET","CHICAGO","IL",60637,41.7696594080001,-87.589367997,74,"1443 EAST 69TH STREET, CHICAGO, IL, 60637","Match","Exact","1443 E 69TH ST, CHICAGO, IL, 60637",111774560,"R"
62575,"1443 EAST MAIN STREET","ROCHESTER","NY",14609,NA,NA,75,"1443 EAST MAIN STREET, ROCHESTER, NY, 14609","No_Match",NA,NA,NA,NA
62576,"1443 EAST PLATA WAY","SANDY","UT",84093,40.5843730030001,-111.849531957,76,"1443 EAST PLATA WAY, SANDY, UT, 84093","Match","Non_Exact","1443 PLATA WAY, SANDY, UT, 84093",176089311,"L"
62577,"1443 EAST WASHINGTON BLVD  UNIT 241","PASADENA","CA",91104,34.169075333,-118.120639969,77,"1443 EAST WASHINGTON BLVD  UNIT 241, PASADENA, CA, 91104","Match","Exact","1443 E WASHINGTON BLVD, PASADENA, CA, 91104",141628946,"L"
62578,"1443 EAST WASHINGTON BLVD SUITE 244","PASADENA","CA",91104,34.169075333,-118.120639969,78,"1443 EAST WASHINGTON BLVD SUITE 244, PASADENA, CA, 91104","Match","Exact","1443 E WASHINGTON BLVD, PASADENA, CA, 91104",141628946,"L"
62579,"1443 EMERSON ST","HONOLULU","HI",96813,21.307280453,-157.848996503,79,"1443 EMERSON ST, HONOLULU, HI, 96813","Match","Exact","1443 EMERSON ST, HONOLULU, HI, 96813",203236533,"R"
62580,"1443 FOX RIDGE CT","ARNOLD","MO",63010,38.429903488,-90.3717998819999,80,"1443 FOX RIDGE CT, ARNOLD, MO, 63010","Match","Exact","1443 FOX RIDGE CT, ARNOLD, MO, 63010",62794798,"L"
62581,"1443 FULLERTON DRIVE","FAIRFIELD","CA",94533,38.2946104930001,-122.020019876,81,"1443 FULLERTON DRIVE, FAIRFIELD, CA, 94533","Match","Exact","1443 FULLERTON DR, FAIRFIELD, CA, 94533",192553890,"R"
62582,"1443 HARDING ST","ENUMCLAW","WA",98022,47.2044387670001,-121.998851746,82,"1443 HARDING ST, ENUMCLAW, WA, 98022","Match","Exact","1443 HARDING ST, ENUMCLAW, WA, 98022",186643293,"R"
62583,"1443 HAVENBROOK DRIVE","NASHVILLE","TN",37207,36.2578718,-86.772273309,83,"1443 HAVENBROOK DRIVE, NASHVILLE, TN, 37207","Match","Exact","1443 HAVENBROOK DR, NASHVILLE, TN, 37207",651603902,"L"
62584,"1443 HILLTOP ROAD","BATTLE MOUNTAIN","NV",89820,40.592922838,-116.896496025,84,"1443 HILLTOP ROAD, BATTLE MOUNTAIN, NV, 89820","Match","Exact","1443 HILLTOP RD, BATTLE MOUNTAIN, NV, 89820",649958315,"L"
62585,"1443 HOLLINGSWORTH OAKS DR","LAKELAND","FL",33803,28.024706732,-81.9359127,85,"1443 HOLLINGSWORTH OAKS DR, LAKELAND, FL, 33803","Match","Exact","1443 HOLLINGSWORTH OAKS DR, LAKELAND, FL, 33803",104842336,"R"
62586,"1443 HOLLINGSWORTH OAKS DRIVE","LAKELAND","FL",33803,28.024706732,-81.9359127,86,"1443 HOLLINGSWORTH OAKS DRIVE, LAKELAND, FL, 33803","Match","Exact","1443 HOLLINGSWORTH OAKS DR, LAKELAND, FL, 33803",104842336,"R"
62587,"1443 HWY 32","BOLIVAR","MO",65613,37.607433825,-93.372287027,87,"1443 HWY 32, BOLIVAR, MO, 65613","Match","Non_Exact","1443 STATE HWY 32, BOLIVAR, MO, 65613",23042500,"L"
62588,"1443 JOSH VALLEY LANE","LAWRENCEVILLE","GA",30043,34.016282522,-83.9650566349999,88,"1443 JOSH VALLEY LANE, LAWRENCEVILLE, GA, 30043","Match","Exact","1443 JOSH VALLEY LN, LAWRENCEVILLE, GA, 30043",645841709,"R"
62589,"1443 LELAND AVE","BRONX","NY",10460,40.8364642230001,-73.864296419,89,"1443 LELAND AVE, BRONX, NY, 10460","Match","Exact","1443 LELAND AVE, BRONX, NY, 10460",80304694,"L"
62590,"1443 MAPLE COURT","WAHPETON","ND",58075,46.285541929,-96.619640402,90,"1443 MAPLE COURT, WAHPETON, ND, 58075","Match","Exact","1443 MAPLE CT, WAHPETON, ND, 58075",614729866,"L"
62591,"1443 MEMORIAL BLVD","MURFREESBORO","TN",37129,35.862443232,-86.390142613,91,"1443 MEMORIAL BLVD, MURFREESBORO, TN, 37129","Match","Exact","1443 MEMORIAL BLVD, MURFREESBORO, TN, 37129",59013643,"L"
62592,"1443 N ROBBERSON","SPRINGFIELD","MO",65802,37.224210542,-93.290681928,92,"1443 N ROBBERSON, SPRINGFIELD, MO, 65802","Match","Non_Exact","1443 N ROBBERSON AVE, SPRINGFIELD, MO, 65802",605873235,"L"
62593,"1443 OSNATS PT","SAN ANTONIO","TX",78258,29.6395802760001,-98.470236207,93,"1443 OSNATS PT, SAN ANTONIO, TX, 78258","Match","Exact","1443 OSNATS PT, SAN ANTONIO, TX, 78258",619988367,"R"
62594,"1443 REILLY RD BLDG 560","POPE ARMY AIRFIELD","NC",28305,NA,NA,94,"1443 REILLY RD BLDG 560, POPE ARMY AIRFIELD, NC, 28305","No_Match",NA,NA,NA,NA
62595,"1443 RICHLAND BLVD","BAY SHORE","NY",11706,40.743486595,-73.270256455,95,"1443 RICHLAND BLVD, BAY SHORE, NY, 11706","Match","Exact","1443 RICHLAND BLVD, BAY SHORE, NY, 11706",113994263,"R"
62596,"1443 ROCK CREEK FORD ROAD NW","WASHINGTON","DC",20011,38.963670026,-77.034524545,96,"1443 ROCK CREEK FORD ROAD NW, WASHINGTON, DC, 20011","Match","Exact","1443 ROCK CREEK FORD RD NW, WASHINGTON, DC, 20011",76221646,"R"
62597,"1443 ROCK SPRING ROAD SUITE 64","BEL AIR","MD",21014,39.5574451030001,-76.369752111,97,"1443 ROCK SPRING ROAD SUITE 64, BEL AIR, MD, 21014","Match","Exact","1443 ROCK SPRING RD, BEL AIR, MD, 21014",191663218,"R"
62598,"1443 S GIBSON STREET","GILBERT","AZ",85296,33.3242824610001,-111.786210247,98,"1443 S GIBSON STREET, GILBERT, AZ, 85296","Match","Exact","1443 S GIBSON ST, GILBERT, AZ, 85296",128861029,"L"
62599,"1443 SANDERSON AVENUE 2ND FLOOR","SCRANTON","PA",18509,41.4265182130001,-75.6537388369999,99,"1443 SANDERSON AVENUE 2ND FLOOR, SCRANTON, PA, 18509","Match","Exact","1443 SANDERSON AVE, SCRANTON, PA, 18509",139325879,"L"
62600,"1443 SE 43RD STREET","TOPEKA","KS",66609,38.9904499370001,-95.661828648,100,"1443 SE 43RD STREET, TOPEKA, KS, 66609","Match","Exact","1443 SE 43RD ST, TOPEKA, KS, 66609",17921453,"R"
62601,"1443 STONEHEDGE DRIVE","PLEASANT HILL","CA",94523,37.97375279,-122.100702546,101,"1443 STONEHEDGE DRIVE, PLEASANT HILL, CA, 94523","Match","Exact","1443 STONEHEDGE DR, PLEASANT HILL, CA, 94523",192046837,"R"
62602,"1443 STUART ST","DENVER","CO",80204,39.739300816,-105.042839477,102,"1443 STUART ST, DENVER, CO, 80204","Match","Exact","1443 STUART ST, DENVER, CO, 80204",177300493,"L"
62603,"1443 THOMASTON AVE","WATERBURY","CT",6704,41.586332693,-73.049519507,103,"1443 THOMASTON AVE, WATERBURY, CT, 6704","Match","Exact","1443 THOMASTON AVE, WATERBURY, CT, 06704",3726771,"L"
62604,"1443 THREE MILE RD","URBANA","OH",43078,40.0866802690001,-83.6949104239999,104,"1443 THREE MILE RD, URBANA, OH, 43078","Match","Exact","1443 THREE MILE RD, URBANA, OH, 43078",606288340,"L"
62605,"1443 W DEVON AVENUE","CHICAGO","IL",60660,41.998113388,-87.6669986379999,105,"1443 W DEVON AVENUE, CHICAGO, IL, 60660","Match","Exact","1443 W DEVON AVE, CHICAGO, IL, 60660",111745706,"L"
62606,"1443 WEST 35TH PLACE 103","LOS ANGELES","CA",90018,34.023707535,-118.301637525,106,"1443 WEST 35TH PLACE 103, LOS ANGELES, CA, 90018","Match","Exact","1443 W 35TH PL, LOS ANGELES, CA, 90018",141606139,"R"
62607,"1443 WEST STREET","SOLEDAD","CA",93960,36.4445008010001,-121.324276029,107,"1443 WEST STREET, SOLEDAD, CA, 93960","Match","Exact","1443 WEST ST, SOLEDAD, CA, 93960",196862799,"L"
62608,"1443 WILLOW SPRINGS DR","WOODLAND","CA",95776,38.6705952660001,-121.75383704,108,"1443 WILLOW SPRINGS DR, WOODLAND, CA, 95776","Match","Exact","1443 WILLOW SPRINGS DR, WOODLAND, CA, 95776",67697791,"L"
62609,"1443 WIRT ROAD","HOUSTON","TX",77055,29.7957764340001,-95.4849057489999,109,"1443 WIRT ROAD, HOUSTON, TX, 77055","Match","Exact","1443 WIRT RD, HOUSTON, TX, 77055",96635792,"L"
62610,"1443 WOODHOUSE DR","VIRGINIA BEACH","VA",23454,NA,NA,110,"1443 WOODHOUSE DR, VIRGINIA BEACH, VA, 23454","No_Match",NA,NA,NA,NA
62611,"14430 SE WILLET DR","HAPPY VALLEY","OR",97086,45.45321898,-122.515138584,111,"14430 SE WILLET DR, HAPPY VALLEY, OR, 97086","Match","Exact","14430 SE WILLET DR, HAPPY VALLEY, OR, 97086",157947532,"R"
62612,"14430 STRAWBERRY LANE UNIT 6","GARDENA","CA",90247,33.9005720000001,-118.300255391,112,"14430 STRAWBERRY LANE UNIT 6, GARDENA, CA, 90247","Match","Exact","14430 STRAWBERRY LN, GARDENA, CA, 90247",648179251,"L"
62613,"14431 ANDREWS DRIVE","DENVER","CO",80235,39.7802573220001,-104.825364925,113,"14431 ANDREWS DRIVE, DENVER, CO, 80235","Match","Non_Exact","14431 ANDREWS DR, DENVER, CO, 80239",177350144,"R"
62614,"14431 EXLEY LN","APPLE VALLEY","MN",55124,44.7404688190001,-93.186187216,114,"14431 EXLEY LN, APPLE VALLEY, MN, 55124","Match","Exact","14431 EXLEY LN, APPLE VALLEY, MN, 55124",37977889,"L"
62615,"14431 NE 20TH STREET","WILLISTON","FL",32696,29.3613028620001,-82.536782693,115,"14431 NE 20TH STREET, WILLISTON, FL, 32696","Match","Exact","14431 NE 20TH ST, WILLISTON, FL, 32696",612308814,"R"
62616,"14431 VENTURA BLVD 329","SHERMAN OAKS","CA",91423,34.1506141450001,-118.446819366,116,"14431 VENTURA BLVD 329, SHERMAN OAKS, CA, 91423","Match","Exact","14431 VENTURA BLVD, SHERMAN OAKS, CA, 91423",642861619,"R"
62617,"14431 VENTURA BLVD STE 188","SHERMAN OAKS","CA",91423,34.1506141450001,-118.446819366,117,"14431 VENTURA BLVD STE 188, SHERMAN OAKS, CA, 91423","Match","Exact","14431 VENTURA BLVD, SHERMAN OAKS, CA, 91423",642861619,"R"
62618,"14431 VENTURA BLVD SUITE 623","SHERMAN OAKS","CA",91423,34.1506141450001,-118.446819366,118,"14431 VENTURA BLVD SUITE 623, SHERMAN OAKS, CA, 91423","Match","Exact","14431 VENTURA BLVD, SHERMAN OAKS, CA, 91423",642861619,"R"
62619,"14431 WEST BOCA RATON ROAD","SURPRISE","AZ",85379,33.6101562920001,-112.371007973,119,"14431 WEST BOCA RATON ROAD, SURPRISE, AZ, 85379","Match","Exact","14431 W BOCA RATON RD, SURPRISE, AZ, 85379",243995655,"R"
62620,"14432 14TH AVE","WHITESTONE","NY",11357,NA,NA,120,"14432 14TH AVE, WHITESTONE, NY, 11357","No_Match",NA,NA,NA,NA
62621,"14432 BELLAIRE BLVD APT 2022","HOUSTON","TX",77083,29.7039995550001,-95.640934822,121,"14432 BELLAIRE BLVD APT 2022, HOUSTON, TX, 77083","Match","Exact","14432 BELLAIRE BLVD, HOUSTON, TX, 77083",96607992,"R"
62622,"14432 HUME ROAD","HUNTLY","VA",22640,NA,NA,122,"14432 HUME ROAD, HUNTLY, VA, 22640","No_Match",NA,NA,NA,NA
62623,"14432 N 17TH AVE","PHOENIX","AZ",85023,33.617567685,-112.096445421,123,"14432 N 17TH AVE, PHOENIX, AZ, 85023","Match","Exact","14432 N 17TH AVE, PHOENIX, AZ, 85023",128353741,"L"
62624,"14432 PELICAN BAY COURT","JACKSONVILLE","FL",32224,30.290376398,-81.435749162,124,"14432 PELICAN BAY COURT, JACKSONVILLE, FL, 32224","Match","Exact","14432 PELICAN BAY CT, JACKSONVILLE, FL, 32224",83985958,"R"
62625,"14432 W 139TH TER","OLATHE","KS",66062,38.8759843510001,-94.753215874,125,"14432 W 139TH TER, OLATHE, KS, 66062","Match","Exact","14432 W 139TH TER, OLATHE, KS, 66062",91328156,"L"
62626,"14433 BANCROFT AVENUE APARTMENT 1","SAN LEANDRO","CA",94578,37.7116438520001,-122.134907941,126,"14433 BANCROFT AVENUE APARTMENT 1, SAN LEANDRO, CA, 94578","Match","Exact","14433 BANCROFT AVE, SAN LEANDRO, CA, 94578",125013369,"R"
62627,"14433 LEFFINGWELL RD","WHITTIER","CA",90604,33.924508863,-118.021945355,127,"14433 LEFFINGWELL RD, WHITTIER, CA, 90604","Match","Exact","14433 LEFFINGWELL RD, WHITTIER, CA, 90604",142798562,"L"
62628,"14433 S 18TH ST","PHOENIX","AZ",85048,33.3153684710001,-112.04526255,128,"14433 S 18TH ST, PHOENIX, AZ, 85048","Match","Exact","14433 S 18TH ST, PHOENIX, AZ, 85048",128875216,"L"
62629,"14434 BEARD RD PO BOX 175","NEW SPRINGFIELD","OH",44443,40.908753609,-80.595438658,129,"14434 BEARD RD PO BOX 175, NEW SPRINGFIELD, OH, 44443","Match","Exact","14434 BEARD RD, NEW SPRINGFIELD, OH, 44443",64609676,"R"
62630,"14434 TURIN LANE","CENTREVILLE","VA",20121,38.8356650480001,-77.445454075,130,"14434 TURIN LANE, CENTREVILLE, VA, 20121","Match","Exact","14434 TURIN LN, CENTREVILLE, VA, 20121",636672770,"R"
62631,"14434 WOODS HOLE DR","SAN ANTONIO","TX",78233,29.571990455,-98.365868818,131,"14434 WOODS HOLE DR, SAN ANTONIO, TX, 78233","Match","Exact","14434 WOODS HOLE DR, SAN ANTONIO, TX, 78233",101501475,"R"
62632,"14435 BENEFIT STREET APT 5","SHERMAN OAKS","CA",91423,34.1487908120001,-118.447356205,132,"14435 BENEFIT STREET APT 5, SHERMAN OAKS, CA, 91423","Match","Exact","14435 BENEFIT ST, SHERMAN OAKS, CA, 91423",642864525,"R"
62633,"14435 NEWBURGH RD","LIVONIA","MI",48154,42.388185472,-83.412328077,133,"14435 NEWBURGH RD, LIVONIA, MI, 48154","Match","Exact","14435 NEWBURGH RD, LIVONIA, MI, 48154",95411239,"L"
62634,"14435 PLUMMER ST UNIT 10","PANORAMA","CA",91402,34.2426533780001,-118.447087017,134,"14435 PLUMMER ST UNIT 10, PANORAMA, CA, 91402","Match","Non_Exact","14435 PLUMMER ST, PANORAMA CITY, CA, 91402",141549609,"R"
62635,"14435 RIVERSIDE DRIVE","APPLE VALLEY","CA",92307,34.5134956270001,-117.259159372,135,"14435 RIVERSIDE DRIVE, APPLE VALLEY, CA, 92307","Match","Exact","14435 RIVERSIDE DR, APPLE VALLEY, CA, 92307",144571929,"R"
62636,"14435 SHERMAN WAY SUITE 206","VAN NUYS","CA",91405,34.2011993250001,-118.447257639,136,"14435 SHERMAN WAY SUITE 206, VAN NUYS, CA, 91405","Match","Exact","14435 SHERMAN WAY, VAN NUYS, CA, 91405",142716376,"R"
62637,"144359 MIRAMAR PARKWAY","MIRAMAR","FL",33027,NA,NA,137,"144359 MIRAMAR PARKWAY, MIRAMAR, FL, 33027","No_Match",NA,NA,NA,NA
62638,"14437 GENERAL WASHINGTON DRIVE","WOODBRIDGE","VA",22193,38.6425678680001,-77.363492176,138,"14437 GENERAL WASHINGTON DRIVE, WOODBRIDGE, VA, 22193","Match","Exact","14437 GENERAL WASHINGTON DR, WOODBRIDGE, VA, 22193",619948632,"R"
62639,"14437 LILLEY BROOK CV","AUSTIN","TX",78717,30.494686147,-97.783488281,139,"14437 LILLEY BROOK CV, AUSTIN, TX, 78717","Match","Exact","14437 LILLEY BROOK COVE, AUSTIN, TX, 78717",126477444,"R"
62640,"14437 SAN ARDO DR","LA MIRADA","CA",90638,33.8968292870001,-118.025657922,140,"14437 SAN ARDO DR, LA MIRADA, CA, 90638","Match","Exact","14437 SAN ARDO DR, LA MIRADA, CA, 90638",141750319,"L"
62641,"14438 MORENO AVE","HOUSTON","TX",77045,29.617312477,-95.4214939459999,141,"14438 MORENO AVE, HOUSTON, TX, 77045","Match","Exact","14438 MORENO AVE, HOUSTON, TX, 77045",638496697,"R"
62642,"14438 N 18TH DR","PHOENIX","AZ",85023,33.618150428,-112.099086285,142,"14438 N 18TH DR, PHOENIX, AZ, 85023","Match","Exact","14438 N 18TH DR, PHOENIX, AZ, 85023",128181663,"L"
62643,"14438 N 58TH DR","GLENDALE","AZ",85306,33.617025315,-112.184385699,143,"14438 N 58TH DR, GLENDALE, AZ, 85306","Match","Exact","14438 N 58TH DR, GLENDALE, AZ, 85306",128283256,"R"
62644,"14438 UPTON RD","WINDSOR","MO",65360,38.568327679,-93.425511171,144,"14438 UPTON RD, WINDSOR, MO, 65360","Match","Exact","14438 UPTON RD, WINDSOR, MO, 65360",653445390,"L"
62645,"14438 WEST TELEGRAPH ROAD","SANTA PAULA","CA",93060,34.3274669950001,-119.106705458,145,"14438 WEST TELEGRAPH ROAD, SANTA PAULA, CA, 93060","Match","Non_Exact","14438 TELEGRAPH RD, SANTA PAULA, CA, 93060",110048699,"R"
62646,"14439 AVALON RESERVE BLVD APT 306","ORLANDO","FL",32828,28.552968181,-81.167455661,146,"14439 AVALON RESERVE BLVD APT 306, ORLANDO, FL, 32828","Match","Exact","14439 AVALON RESERVE BLVD, ORLANDO, FL, 32828",650679227,"L"
62647,"14439 BONNETT LN","LAUREL","MD",20707,NA,NA,147,"14439 BONNETT LN, LAUREL, MD, 20707","No_Match",NA,NA,NA,NA
62648,"14439 N SLOPE STREET","CENTREVILLE","VA",20120,38.8611934200001,-77.450495001,148,"14439 N SLOPE STREET, CENTREVILLE, VA, 20120","Match","Exact","14439 N SLOPE ST, CENTREVILLE, VA, 20120",76025695,"L"
62649,"14439 NW MILITARY HWY STE 108-478","SAN ANTONIO","TX",78231,29.5743035130001,-98.544250689,149,"14439 NW MILITARY HWY STE 108-478, SAN ANTONIO, TX, 78231","Match","Non_Exact","14439 NW MILITARY HWY, SAN ANTONIO, TX, 78231",101569569,"L"
62650,"1443A DORCHESTER AVENUE","DORCHESTER","MA",2124,NA,NA,150,"1443A DORCHESTER AVENUE, DORCHESTER, MA, 2124","No_Match",NA,NA,NA,NA
62651,"1444 ANGEL CREST DR","MEDFORD","OR",97504,42.335306728,-122.795313269,151,"1444 ANGEL CREST DR, MEDFORD, OR, 97504","Match","Exact","1444 ANGEL CREST DR, MEDFORD, OR, 97504",155554761,"R"
62652,"1444 APPLE CIR APT 169","MECHANICSBURG","PA",17055,40.2124469710001,-76.9800612339999,152,"1444 APPLE CIR APT 169, MECHANICSBURG, PA, 17055","Match","Exact","1444 APPLE CIR, MECHANICSBURG, PA, 17055",60958736,"L"
62653,"1444 AVIATION BLVD SUITE 102","REDONDO BEACH","CA",90278,33.867454712,-118.383642516,153,"1444 AVIATION BLVD SUITE 102, REDONDO BEACH, CA, 90278","Match","Exact","1444 AVIATION BLVD, REDONDO BEACH, CA, 90278",141583623,"R"
62654,"1444 BEACONSFIELD","GROSSE POINTE PARK","MI",48230,42.386889604,-82.941918001,154,"1444 BEACONSFIELD, GROSSE POINTE PARK, MI, 48230","Match","Exact","1444 BEACONSFIELD, GROSSE POINTE PARK, MI, 48230",645864265,"R"
62655,"1444 CLOVE ROAD","STATEN ISLAND","NY",10301,40.6128785940001,-74.099840023,155,"1444 CLOVE ROAD, STATEN ISLAND, NY, 10301","Match","Exact","1444 CLOVE RD, STATEN ISLAND, NY, 10301",59867098,"R"
62656,"1444 COLBY AVENUE","LOS ANGELES","CA",90025,34.046831148,-118.454470112,156,"1444 COLBY AVENUE, LOS ANGELES, CA, 90025","Match","Exact","1444 COLBY AVE, LOS ANGELES, CA, 90025",141568449,"L"
62657,"1444 CR 1350","CHICKASHA","OK",73018,35.0585850190001,-97.831609412,157,"1444 CR 1350, CHICKASHA, OK, 73018","Match","Exact","1444 CO RD 1350, CHICKASHA, OK, 73018",648906919,"R"
62658,"1444 CRESTFIELD DRIVE","DUARTE","CA",91010,34.137437069,-117.951653334,158,"1444 CRESTFIELD DRIVE, DUARTE, CA, 91010","Match","Exact","1444 CRESTFIELD DR, DUARTE, CA, 91010",141707977,"L"
62659,"1444 DAWN DRIVE","FAYETTEVILLE","AR",72703,36.0818030940001,-94.1673863029999,159,"1444 DAWN DRIVE, FAYETTEVILLE, AR, 72703","Match","Non_Exact","1444 N DAWN DR, FAYETTEVILLE, AR, 72703",49060678,"R"
62660,"1444 E 13200 SOUTH","DRAPER","UT",84020,40.511490748,-111.850289054,160,"1444 E 13200 SOUTH, DRAPER, UT, 84020","Match","Exact","1444 E 13200 S, DRAPER, UT, 84020",176093156,"R"
62661,"1444 E 31ST STREET","OAKLAND","CA",94602,37.7991214190001,-122.230509943,161,"1444 E 31ST STREET, OAKLAND, CA, 94602","Match","Exact","1444 E 31ST ST, OAKLAND, CA, 94602",125002454,"L"
62662,"1444 E 53RD ST","TULSA","OK",74105,36.08660481,-95.972513011,162,"1444 E 53RD ST, TULSA, OK, 74105","Match","Exact","1444 E 53RD ST, TULSA, OK, 74105",166444099,"R"
62663,"1444 FM 1665","QUEMADO","TX",78877,28.889951393,-100.559967789,163,"1444 FM 1665, QUEMADO, TX, 78877","Match","Exact","1444 FM 1665, QUEMADO, TX, 78877",183371857,"R"
62664,"1444 FULTON ST SUITE 118","FRESNO","CA",93721,36.738344399,-119.794985501,164,"1444 FULTON ST SUITE 118, FRESNO, CA, 93721","Match","Exact","1444 FULTON ST, FRESNO, CA, 93721",197579132,"R"
62665,"1444 FULTON","FRESNO","CA",93721,36.738344399,-119.794985501,165,"1444 FULTON, FRESNO, CA, 93721","Match","Non_Exact","1444 FULTON ST, FRESNO, CA, 93721",197579132,"R"
62666,"1444 GARY LANE","MODESTO","CA",95355,37.664355997,-120.972453009,166,"1444 GARY LANE, MODESTO, CA, 95355","Match","Exact","1444 GARY LN, MODESTO, CA, 95355",102618223,"R"
62667,"1444 HARRISON ST","MEMPHIS","TN",38108,35.175504679,-89.977740936,167,"1444 HARRISON ST, MEMPHIS, TN, 38108","Match","Exact","1444 HARRISON ST, MEMPHIS, TN, 38108",72911649,"R"
62668,"1444 HONEYSUCKLE LN","SAN DIEGO","CA",92114,32.693549847,-117.06794236,168,"1444 HONEYSUCKLE LN, SAN DIEGO, CA, 92114","Match","Exact","1444 HONEYSUCKLE LN, SAN DIEGO, CA, 92114",195353098,"R"
62669,"1444 JEFFERSON DR","ATLANTA","GA",30350,33.9674835960001,-84.361021916,169,"1444 JEFFERSON DR, ATLANTA, GA, 30350","Match","Exact","1444 JEFFERSON DR, ATLANTA, GA, 30350",17386999,"R"
62670,"1444 MINOR RIDGE COURT","CHARLOTTESVILLE","VA",22901,38.076467662,-78.485414052,170,"1444 MINOR RIDGE COURT, CHARLOTTESVILLE, VA, 22901","Match","Exact","1444 MINOR RIDGE CT, CHARLOTTESVILLE, VA, 22901",83375401,"R"
62671,"1444 PARK PLACE STE E4","BROOKLYN","NY",11213,40.67228885,-73.9295141169999,171,"1444 PARK PLACE STE E4, BROOKLYN, NY, 11213","Match","Exact","1444 PARK PL, BROOKLYN, NY, 11213",642654092,"R"
62672,"1444 REMOUNT ROAD","NORTH CHARLESTON","SC",29406,32.901065643,-79.999274667,172,"1444 REMOUNT ROAD, NORTH CHARLESTON, SC, 29406","Match","Exact","1444 REMOUNT RD, N CHARLESTON, SC, 29406",108799134,"R"
62673,"1444 S SALTAIR AVE APT 203","LOS ANGELES","CA",90025,34.04192771,-118.463111102,173,"1444 S SALTAIR AVE APT 203, LOS ANGELES, CA, 90025","Match","Non_Exact","1444 S SALTAIR AVE, LOS ANGELES, CA, 90025",141568358,"L"
62674,"1444 S ST FRANCIS DR STE A","SANTA FE","NM",87505,35.665489343,-105.956303799,174,"1444 S ST FRANCIS DR STE A, SANTA FE, NM, 87505","Match","Non_Exact","1444 S SAINT FRANCIS DR, SANTA FE, NM, 87505",638148612,"R"
62675,"1444 SEA GULL CT","PUNTA GORDA","FL",33950,26.891363364,-82.061193985,175,"1444 SEA GULL CT, PUNTA GORDA, FL, 33950","Match","Exact","1444 SEA GULL CT, PUNTA GORDA, FL, 33950",4310507,"R"
62676,"1444 SOUTH BELCHER ROAD SUITE 101","CLEARWATER","FL",33764,27.94800035,-82.746029273,176,"1444 SOUTH BELCHER ROAD SUITE 101, CLEARWATER, FL, 33764","Match","Exact","1444 S BELCHER RD, CLEARWATER, FL, 33764",124676238,"R"
62677,"1444 SUMMER STREET","STAMFORD","CT",6905,41.0627702780001,-73.5423137239999,177,"1444 SUMMER STREET, STAMFORD, CT, 6905","Match","Exact","1444 SUMMER ST, STAMFORD, CT, 06905",645547464,"L"
62678,"1444 W 79TH ST","LOS ANGELES","CA",90047,33.967283175,-118.301620715,178,"1444 W 79TH ST, LOS ANGELES, CA, 90047","Match","Exact","1444 W 79TH ST, LOS ANGELES, CA, 90047",141658912,"L"
62679,"1444 W GARVEY S","WEST COVINA","CA",91790,NA,NA,179,"1444 W GARVEY S, WEST COVINA, CA, 91790","No_Match",NA,NA,NA,NA
62680,"1444 W LILL AVENUE","CHICAGO","IL",60614,41.9279298800001,-87.6645787579999,180,"1444 W LILL AVENUE, CHICAGO, IL, 60614","Match","Exact","1444 W LILL AVE, CHICAGO, IL, 60614",605237230,"R"
62681,"1444 W ROSECRANS AVE","GARDENA","CA",90249,33.9019195820001,-118.301932557,181,"1444 W ROSECRANS AVE, GARDENA, CA, 90249","Match","Exact","1444 W ROSECRANS AVE, GARDENA, CA, 90249",141661372,"L"
62682,"1444 WEST 81ST ST","CLEVELAND","OH",44102,41.480360074,-81.740688258,182,"1444 WEST 81ST ST, CLEVELAND, OH, 44102","Match","Exact","1444 W 81ST ST, CLEVELAND, OH, 44102",61101033,"R"
62683,"1444 WEST GARVEY AVENUE","WEST COVINA","CA",91790,34.0721446700001,-117.937316771,183,"1444 WEST GARVEY AVENUE, WEST COVINA, CA, 91790","Match","Non_Exact","1444 W GARVEY AVE S, WEST COVINA, CA, 91790",241245487,"L"
62684,"1444 WEST HIGHLAND STREET","LAKELAND","FL",33815,28.031872643,-81.9778352009999,184,"1444 WEST HIGHLAND STREET, LAKELAND, FL, 33815","Match","Exact","1444 W HIGHLAND ST, LAKELAND, FL, 33815",639801309,"L"
62685,"1444 WILLIAMS ST","SAN LEANDRO","CA",94577,NA,NA,185,"1444 WILLIAMS ST, SAN LEANDRO, CA, 94577","No_Match",NA,NA,NA,NA
62686,"1444 WOODDELL DRIVE","JACKSON","MS",39212,32.267307638,-90.2566912349999,186,"1444 WOODDELL DRIVE, JACKSON, MS, 39212","Match","Exact","1444 WOODDELL DR, JACKSON, MS, 39212",65366782,"R"
62687,"14440 BLACKWELL SALINAS DRIVE","RAYMONDVILLE","TX",78580,NA,NA,187,"14440 BLACKWELL SALINAS DRIVE, RAYMONDVILLE, TX, 78580","No_Match",NA,NA,NA,NA
62688,"14440 CARLISILE ST","DETROIT","MI",48205,42.4487329340001,-82.9752656329999,188,"14440 CARLISILE ST, DETROIT, MI, 48205","Match","Non_Exact","14440 CARLISLE ST, DETROIT, MI, 48205",95467442,"R"
62689,"14440 CHERRY LANE CT STE 102","LAUREL","MD",20707,39.0885728700001,-76.8548025699999,189,"14440 CHERRY LANE CT STE 102, LAUREL, MD, 20707","Match","Exact","14440 CHERRY LANE CT, LAUREL, MD, 20707",76402604,"R"
62690,"14440 LAKESHORE DRIVE","GRAND HAVEN","MI",49417,43.030574691,-86.2227900189999,190,"14440 LAKESHORE DRIVE, GRAND HAVEN, MI, 49417","Match","Non_Exact","14440 LAKESHORE DR N, GRAND HAVEN, MI, 49417",71088576,"R"
62691,"14440 POLO STREET","HOUSTON","TX",77085,29.6182701650001,-95.470577264,191,"14440 POLO STREET, HOUSTON, TX, 77085","Match","Exact","14440 POLO ST, HOUSTON, TX, 77085",96040665,"R"
62692,"14440 SEA BISCUIT COURT","REDDING","CA",96003,40.706160622,-122.332012999,192,"14440 SEA BISCUIT COURT, REDDING, CA, 96003","Match","Non_Exact","14440 SEA BISCUT CT, REDDING, CA, 96003",624871315,"L"
62693,"14440 STARFIGHTER ST","GLENDALE","AZ",85309,33.5305041410001,-112.370287711,193,"14440 STARFIGHTER ST, GLENDALE, AZ, 85309","Match","Non_Exact","14440 W STARFIGHTER ST, GLENDALE, AZ, 85309",642858842,"R"
62694,"14440 WALLISVILLE RD","HOUSTON","TX",77049,29.8060072370001,-95.194884578,194,"14440 WALLISVILLE RD, HOUSTON, TX, 77049","Match","Exact","14440 WALLISVILLE RD, HOUSTON, TX, 77049",642084243,"R"
62695,"14441 E ELK PL","DENVER","CO",80239,39.78121888,-104.823980049,195,"14441 E ELK PL, DENVER, CO, 80239","Match","Exact","14441 E ELK PL, DENVER, CO, 80239",177627200,"L"
62696,"14441 GENERAL WASHINGTON DRIVE","WOODBRIDGE","VA",22193,38.6426429220001,-77.363694245,196,"14441 GENERAL WASHINGTON DRIVE, WOODBRIDGE, VA, 22193","Match","Exact","14441 GENERAL WASHINGTON DR, WOODBRIDGE, VA, 22193",619948632,"R"
62697,"14441 HILLCREST RD","FRISCO","TX",75035,NA,NA,197,"14441 HILLCREST RD, FRISCO, TX, 75035","No_Match",NA,NA,NA,NA
62698,"14441 HILLCREST ROAD","FRISCO","TX",75035,NA,NA,198,"14441 HILLCREST ROAD, FRISCO, TX, 75035","No_Match",NA,NA,NA,NA
62699,"14441 RANCH RD","FORNEY","TX",75126,NA,NA,199,"14441 RANCH RD, FORNEY, TX, 75126","No_Match",NA,NA,NA,NA
62700,"14442 DITTMAR DRIVE","WHITTIER","CA",90603,33.9477213810001,-118.02128749,200,"14442 DITTMAR DRIVE, WHITTIER, CA, 90603","Match","Exact","14442 DITTMAR DR, WHITTIER, CA, 90603",141748646,"R"
62701,"14443 DAHLGREN RD","KING GEORGE","VA",22485,38.3377357030001,-77.0901071019999,201,"14443 DAHLGREN RD, KING GEORGE, VA, 22485","Match","Exact","14443 DAHLGREN RD, KING GEORGE, VA, 22485",605294087,"L"
62702,"14443 ELMDALE","DETROIT","MI",48213,42.410304405,-82.967832916,202,"14443 ELMDALE, DETROIT, MI, 48213","Match","Non_Exact","14443 ELMDALE ST, DETROIT, MI, 48213",95469419,"L"
62703,"14444 ARBOR LN","HAWTHORNE","CA",90250,33.899990508,-118.33002345,203,"14444 ARBOR LN, HAWTHORNE, CA, 90250","Match","Exact","14444 ARBOR LN, HAWTHORNE, CA, 90250",142678691,"L"
62704,"14444 MAGNOLIA BLVD NUM 1021","SHERMAN OAKS","CA",91423,34.164852599,-118.447796155,204,"14444 MAGNOLIA BLVD NUM 1021, SHERMAN OAKS, CA, 91423","Match","Exact","14444 MAGNOLIA BLVD, SHERMAN OAKS, CA, 91423",141561507,"L"
62705,"14444 MAGNOLIA BLVD SUITE 130","SHERMAN OAKS","CA",91423,34.164852599,-118.447796155,205,"14444 MAGNOLIA BLVD SUITE 130, SHERMAN OAKS, CA, 91423","Match","Exact","14444 MAGNOLIA BLVD, SHERMAN OAKS, CA, 91423",141561507,"L"
62706,"14444 WOODFIELD CIRCLE NORTH","JACKSONVILLE","FL",32258,30.142542706,-81.531030857,206,"14444 WOODFIELD CIRCLE NORTH, JACKSONVILLE, FL, 32258","Match","Exact","14444 WOODFIELD CIR N, JACKSONVILLE, FL, 32258",83957998,"L"
62707,"14445 QUAIL LANE","PAINTER","VA",23420,37.6208286310001,-75.825887253,207,"14445 QUAIL LANE, PAINTER, VA, 23420","Match","Exact","14445 QUAIL LN, PAINTER, VA, 23420",114603623,"R"
62708,"14445 ROCK POINT ROAD","NEWBURG","MD",20664,38.327040557,-76.907042395,208,"14445 ROCK POINT ROAD, NEWBURG, MD, 20664","Match","Exact","14445 ROCK POINT RD, NEWBURG, MD, 20664",25395674,"L"
62709,"14445 TURRIN LANE","CENTREVILLE","VA",20121,38.8358120180001,-77.445606977,209,"14445 TURRIN LANE, CENTREVILLE, VA, 20121","Match","Non_Exact","14445 TURIN LN, CENTREVILLE, VA, 20121",636672770,"L"
62710,"14446 110TH ST","OSKALOOSA","KS",66066,39.2432485150001,-95.319254122,210,"14446 110TH ST, OSKALOOSA, KS, 66066","Match","Exact","14446 110TH ST, OSKALOOSA, KS, 66066",22262194,"L"
62711,"14446 N 184TH AVE","SURPRISE","AZ",85388,33.615956629,-112.453986059,211,"14446 N 184TH AVE, SURPRISE, AZ, 85388","Match","Exact","14446 N 184TH AVE, SURPRISE, AZ, 85388",128160925,"L"
62712,"14446 NORTH 100TH PLACE","SCOTTSDALE","AZ",85260,33.617206566,-111.864903727,212,"14446 NORTH 100TH PLACE, SCOTTSDALE, AZ, 85260","Match","Exact","14446 N 100TH PL, SCOTTSDALE, AZ, 85260",128363219,"L"
62713,"14448 US HIGHWAY 231","LOOGOOTEE","IN",47553,38.7070474020001,-86.918717153,213,"14448 US HIGHWAY 231, LOOGOOTEE, IN, 47553","Match","Exact","14448 US HWY 231, LOOGOOTEE, IN, 47553",32114691,"R"
62714,"14449 EAST CARROLL BLVD","UNIVERSITY HEIGHTS","OH",44118,41.4921079530001,-81.519602844,214,"14449 EAST CARROLL BLVD, UNIVERSITY HEIGHTS, OH, 44118","Match","Exact","14449 E CARROLL BLVD, UNIVERSITY HEIGHTS, OH, 44118",61126024,"L"
62715,"1445 10TH ST N","FARGO","ND",58102,46.8962725860001,-96.7936556229999,215,"1445 10TH ST N, FARGO, ND, 58102","Match","Exact","1445 10TH ST N, FARGO, ND, 58102",151447903,"R"
62716,"1445 16 1/2 ST S","FARGO","ND",58103,46.8586852120001,-96.807561951,216,"1445 16 1/2 ST S, FARGO, ND, 58103","Match","Exact","1445 16 1/2 ST S, FARGO, ND, 58103",151447616,"R"
62717,"1445 2ND AVENUE","COLUMBUS","GA",31901,32.4733025800001,-84.99029856,217,"1445 2ND AVENUE, COLUMBUS, GA, 31901","Match","Exact","1445 2ND AVE, COLUMBUS, GA, 31901",98937669,"L"
62718,"1445 300 ST","SHERRARD","IL",61281,41.2782377930001,-90.511861295,218,"1445 300 ST, SHERRARD, IL, 61281","Match","Exact","1445 300TH ST, SHERRARD, IL, 61281",5466614,"R"
62719,"1445 34TH AVE SUITE 7638","OAKLAND","CA",94601,37.7780532990001,-122.223161455,219,"1445 34TH AVE SUITE 7638, OAKLAND, CA, 94601","Match","Exact","1445 34TH AVE, OAKLAND, CA, 94601",125006385,"L"
62720,"1445 ADAMS ST NE","ALBUQUERQU","NM",87110,35.100558263,-106.594291726,220,"1445 ADAMS ST NE, ALBUQUERQU, NM, 87110","Match","Non_Exact","1445 ADAMS ST NE, ALBUQUERQUE, NM, 87110",206715733,"L"
62721,"1445 AMERICAN PACIFIC 110-301","HENDERSON","NV",89074,36.0417040300001,-115.048386534,221,"1445 AMERICAN PACIFIC 110-301, HENDERSON, NV, 89074","Match","Non_Exact","1445 AMERICAN PACIFIC DR, HENDERSON, NV, 89074",641552200,"L"
62722,"1445 BAGGETT ROAD","RINGGOLD","GA",30736,34.9041275010001,-85.167112149,222,"1445 BAGGETT ROAD, RINGGOLD, GA, 30736","Match","Exact","1445 BAGGETT RD, RINGGOLD, GA, 30736",624732107,"L"
62723,"1445 BLUEMONT CT","HERNDON","VA",20170,38.9832560610001,-77.400152174,223,"1445 BLUEMONT CT, HERNDON, VA, 20170","Match","Exact","1445 BLUEMONT CT, HERNDON, VA, 20170",618137026,"R"
62724,"1445 C ST SE","WASHINGTON","DC",20003,38.885350036,-76.984659426,224,"1445 C ST SE, WASHINGTON, DC, 20003","Match","Exact","1445 C ST SE, WASHINGTON, DC, 20003",76230931,"R"
62725,"1445 CARRINGTON CIRCLE","SAN JOSE","CA",95125,37.274951059,-121.894881775,225,"1445 CARRINGTON CIRCLE, SAN JOSE, CA, 95125","Match","Exact","1445 CARRINGTON CIR, SAN JOSE, CA, 95125",639676934,"R"
62726,"1445 CATON FARM ROAD","LOCKPORT","IL",60441,41.5663794230001,-88.118221075,226,"1445 CATON FARM ROAD, LOCKPORT, IL, 60441","Match","Exact","1445 CATON FARM RD, LOCKPORT, IL, 60441",649445565,"L"
62727,"1445 CHURCH ST NW APT 13","WASHINGTON","DC",20005,38.9103928390001,-77.0331409789999,227,"1445 CHURCH ST NW APT 13, WASHINGTON, DC, 20005","Match","Exact","1445 CHURCH ST NW, WASHINGTON, DC, 20005",635190554,"R"
62728,"1445 CITY AVENUE - SUITE 7A","WYNNEWOOD","PA",19096,39.9794636140001,-75.271026262,228,"1445 CITY AVENUE - SUITE 7A, WYNNEWOOD, PA, 19096","Match","Non_Exact","1445 W CITY AVE, WYNNEWOOD, PA, 19096",634776443,"L"
62729,"1445 DAYTON ST","AURORA","CO",80010,39.739169625,-104.875239233,229,"1445 DAYTON ST, AURORA, CO, 80010","Match","Exact","1445 DAYTON ST, AURORA, CO, 80010",177314038,"L"
62730,"1445 DEVEREAUX AVENUE","PHILADELPHIA","PA",19149,40.0363852680001,-75.0788780839999,230,"1445 DEVEREAUX AVENUE, PHILADELPHIA, PA, 19149","Match","Exact","1445 DEVEREAUX AVE, PHILADELPHIA, PA, 19149",131428074,"L"
62731,"1445 E 168TH STREET","SOUTH HOLLAND","IL",60473,41.590335214,-87.582273336,231,"1445 E 168TH STREET, SOUTH HOLLAND, IL, 60473","Match","Exact","1445 E 168TH ST, SOUTH HOLLAND, IL, 60473",111780826,"R"
62732,"1445 E BROAD ST  203B","COLUMBUS","OH",43205,39.966659776,-82.962051386,232,"1445 E BROAD ST  203B, COLUMBUS, OH, 43205","Match","Non_Exact","1445 E BROAD ST, COLUMBUS, OH, 43205",135581364,"R"
62733,"1445 E FORKS RD","BAYSHORE","NY",11706,40.746156091,-73.250300513,233,"1445 E FORKS RD, BAYSHORE, NY, 11706","Match","Non_Exact","1445 E FORKS RD, BAY SHORE, NY, 11706",114038080,"L"
62734,"1445 EAST LAFAYETTE","DETROIT","MI",48207,NA,NA,234,"1445 EAST LAFAYETTE, DETROIT, MI, 48207","No_Match",NA,NA,NA,NA
62735,"1445 EAST MAIN ST","REKLAW","TX",75784,31.864986974,-94.9618027,235,"1445 EAST MAIN ST, REKLAW, TX, 75784","Match","Exact","1445 E MAIN ST, REKLAW, TX, 75784",79650772,"L"
62736,"1445 EASTRIDGE DR","POCATELLO","ID",83201,42.8867556320001,-112.433697579,236,"1445 EASTRIDGE DR, POCATELLO, ID, 83201","Match","Exact","1445 EASTRIDGE DR, POCATELLO, ID, 83201",628660947,"R"
62737,"1445 FINDLAY WAY","BOULDER","CO",80305,39.9736376380001,-105.254421923,237,"1445 FINDLAY WAY, BOULDER, CO, 80305","Match","Exact","1445 FINDLAY WAY, BOULDER, CO, 80305",188209512,"L"
62738,"1445 GARDNER LN SUITE 1000","CORYDON","IN",47112,38.2231573490001,-86.142108767,238,"1445 GARDNER LN SUITE 1000, CORYDON, IN, 47112","Match","Non_Exact","1445 GARDINER LN, CORYDON, IN, 47112",638429052,"R"
62739,"1445 HOLLY ST","DENVER","CO",80220,39.7391427380001,-104.922327964,239,"1445 HOLLY ST, DENVER, CO, 80220","Match","Exact","1445 HOLLY ST, DENVER, CO, 80220",177312220,"L"
62740,"1445 HWY 416 EAST","HENDERSON","KY",42420,NA,NA,240,"1445 HWY 416 EAST, HENDERSON, KY, 42420","No_Match",NA,NA,NA,NA
62741,"1445 KENDALL DR","JACKSONVILLE","FL",32211,30.3322680050001,-81.555476332,241,"1445 KENDALL DR, JACKSONVILLE, FL, 32211","Match","Exact","1445 KENDALL DR, JACKSONVILLE, FL, 32211",650491388,"R"
62742,"1445 KRISTA DR","BURLESON","TX",76028,32.5313648320001,-97.360201411,242,"1445 KRISTA DR, BURLESON, TX, 76028","Match","Exact","1445 KRISTA DR, BURLESON, TX, 76028",614346033,"R"
62743,"1445 LAGONI CIRCLE","DAYTONA BEACH","FL",32117,29.239750271,-81.0749134339999,243,"1445 LAGONI CIRCLE, DAYTONA BEACH, FL, 32117","Match","Exact","1445 LAGONI CIR, DAYTONA BEACH, FL, 32117",624854643,"L"
62744,"1445 LAKESIDE DRIVE APT 209","OAKLAND","CA",94612,37.80239612,-122.262098469,244,"1445 LAKESIDE DRIVE APT 209, OAKLAND, CA, 94612","Match","Exact","1445 LAKESIDE DR, OAKLAND, CA, 94612",125000959,"L"
62745,"1445 LUCILE AVENUE SW NUMBER THREE","ATLANTA","GA",30310,33.7425357180001,-84.435018719,245,"1445 LUCILE AVENUE SW NUMBER THREE, ATLANTA, GA, 30310","Match","Exact","1445 LUCILE AVE SW, ATLANTA, GA, 30310",17340625,"R"
62746,"1445 LYNCHBURG PLACE","MARIETTA","GA",30062,33.9877019400001,-84.50449166,246,"1445 LYNCHBURG PLACE, MARIETTA, GA, 30062","Match","Exact","1445 LYNCHBURG PL, MARIETTA, GA, 30062",643357401,"R"
62747,"1445 LYNRIDGE DRIVE","LITHONIA","GA",30058,33.7537383490001,-84.108616474,247,"1445 LYNRIDGE DRIVE, LITHONIA, GA, 30058","Match","Exact","1445 LYNRIDGE DR, LITHONIA, GA, 30058",23400640,"L"
62748,"1445 MANSION DR UNIT 1","MONROE","WI",53566,42.6119851920001,-89.63868524,248,"1445 MANSION DR UNIT 1, MONROE, WI, 53566","Match","Exact","1445 MANSION DR, MONROE, WI, 53566",48540705,"L"
62749,"1445 MCCREA PLACE","PLAINFIELD","NJ",7062,40.6397522570001,-74.4028645289999,249,"1445 MCCREA PLACE, PLAINFIELD, NJ, 7062","Match","Exact","1445 MCCREA PL, PLAINFIELD, NJ, 07062",60567228,"L"
62750,"1445 MONTPELIER ST","BALTIMORE","MD",21218,39.3223361720001,-76.599243786,250,"1445 MONTPELIER ST, BALTIMORE, MD, 21218","Match","Exact","1445 MONTPELIER ST, BALTIMORE, MD, 21218",206409430,"R"
62751,"1445 MONTPELIER STREET","BALTIMORE","MD",21218,39.3223361720001,-76.599243786,251,"1445 MONTPELIER STREET, BALTIMORE, MD, 21218","Match","Exact","1445 MONTPELIER ST, BALTIMORE, MD, 21218",206409430,"R"
62752,"1445 MT VERNON RD SE","CEDAR RAPIDS","IA",52403,41.9774498,-91.6503355569999,252,"1445 MT VERNON RD SE, CEDAR RAPIDS, IA, 52403","Match","Exact","1445 MOUNT VERNON RD SE, CEDAR RAPIDS, IA, 52403",17026266,"R"
62753,"1445 N 8TH PL","SAPULPA","OK",74066,36.0156166560001,-96.110504889,253,"1445 N 8TH PL, SAPULPA, OK, 74066","Match","Exact","1445 N 8TH PL, SAPULPA, OK, 74066",165864431,"L"
62754,"1445 N CAREY STREET","BALTIMORE","MD",21217,39.30645873,-76.63984612,254,"1445 N CAREY STREET, BALTIMORE, MD, 21217","Match","Exact","1445 N CAREY ST, BALTIMORE, MD, 21217",206416347,"R"
62755,"1445 N CENTRAL AVE","CHICAGO","IL",60651,41.9066016420001,-87.765803465,255,"1445 N CENTRAL AVE, CHICAGO, IL, 60651","Match","Exact","1445 N CENTRAL AVE, CHICAGO, IL, 60651",111753585,"R"
62756,"1445 N LEILA ST","VISALIA","CA",93291,36.3427900230001,-119.328023282,256,"1445 N LEILA ST, VISALIA, CA, 93291","Match","Exact","1445 LEILA ST, VISALIA, CA, 93291",617656481,"L"
62757,"1445 N STATE PARKWAY  APT 2302","CHICAGO","IL",60610,41.908583637,-87.628794113,257,"1445 N STATE PARKWAY  APT 2302, CHICAGO, IL, 60610","Match","Non_Exact","1445 N STATE PKWY, CHICAGO, IL, 60610",642836801,"R"
62758,"1445 NORTH FORK ROAD","DAMASCUS","AR",72039,35.393931298,-92.3187069479999,258,"1445 NORTH FORK ROAD, DAMASCUS, AR, 72039","Match","Exact","1445 N FORK RD, DAMASCUS, AR, 72039",43402720,"L"
62759,"1445 NORTH MANGONIA DRIVE","WEST PALM BEACH","FL",33401,26.72913464,-80.07440901,259,"1445 NORTH MANGONIA DRIVE, WEST PALM BEACH, FL, 33401","Match","Exact","1445 N MANGONIA DR, WEST PALM BEACH, FL, 33401",115579883,"R"
62760,"1445 NW 70TH LN","MARGATE","FL",33063,26.246925049,-80.220081463,260,"1445 NW 70TH LN, MARGATE, FL, 33063","Match","Exact","1445 NW 70TH LN, MARGATE, FL, 33063",114692105,"R"
62761,"1445 PALAY DRIVE","GROVE CITY","OH",43123,39.8682789160001,-83.041977742,261,"1445 PALAY DRIVE, GROVE CITY, OH, 43123","Match","Exact","1445 PALAY DR, GROVE CITY, OH, 43123",627325765,"L"
62762,"1445 PEARL ST SUITE 209","BOULDER","CO",80302,40.0185721240001,-105.276769413,262,"1445 PEARL ST SUITE 209, BOULDER, CO, 80302","Match","Exact","1445 PEARL ST, BOULDER, CO, 80302",188159744,"L"
62763,"1445 PISGAH CHURCH ROAD","LEXINGTON","SC",29072,33.9545902580001,-81.295104787,263,"1445 PISGAH CHURCH ROAD, LEXINGTON, SC, 29072","Match","Exact","1445 PISGAH CHURCH RD, LEXINGTON, SC, 29072",641133591,"R"
62764,"1445 POLK STREET","HUNTINGTON","IN",46750,40.8888164790001,-85.5098596029999,264,"1445 POLK STREET, HUNTINGTON, IN, 46750","Match","Exact","1445 POLK ST, HUNTINGTON, IN, 46750",6552337,"R"
62765,"1445 PULASKI ROAD","BUFFALO","MN",55313,45.191252967,-93.8473509469999,265,"1445 PULASKI ROAD, BUFFALO, MN, 55313","Match","Exact","1445 PULASKI RD, BUFFALO, MN, 55313",44016561,"L"
62766,"1445 PURPLE SAGE CT","FORT COLLINS","CO",80526,40.5348834970001,-105.102652713,266,"1445 PURPLE SAGE CT, FORT COLLINS, CO, 80526","Match","Non_Exact","1445 PURPLE SAGE, FORT COLLINS, CO, 80526",636176371,"L"
62767,"1445 RED SUNSET LN","BLYTHEWOOD","SC",29016,34.23445552,-81.003360087,267,"1445 RED SUNSET LN, BLYTHEWOOD, SC, 29016","Match","Exact","1445 RED SUNSET LN, BLYTHEWOOD, SC, 29016",642079082,"R"
62768,"1445 ROCK QUARRY ROAD SUITE 207","STOCKBRIDGE","GA",30281,33.511896042,-84.229808863,268,"1445 ROCK QUARRY ROAD SUITE 207, STOCKBRIDGE, GA, 30281","Match","Exact","1445 ROCK QUARRY RD, STOCKBRIDGE, GA, 30281",638775598,"L"
62769,"1445 ROSS AVENUE STE 2400","DALLAS","TX",75202,32.7843823170001,-96.802289372,269,"1445 ROSS AVENUE STE 2400, DALLAS, TX, 75202","Match","Exact","1445 ROSS AVE, DALLAS, TX, 75202",102909831,"L"
62770,"1445 ROYAL LAKE DR","INDIANAPOLIS","KS",46228,NA,NA,270,"1445 ROYAL LAKE DR, INDIANAPOLIS, KS, 46228","No_Match",NA,NA,NA,NA
62771,"1445 S JERSEY WAY","DENVER","CO",80224,39.690137388,-104.919456728,271,"1445 S JERSEY WAY, DENVER, CO, 80224","Match","Exact","1445 S JERSEY WAY, DENVER, CO, 80224",177340394,"R"
62772,"1445 SCOTTS CREEK CIRCLE","MT PLEASANT","SC",29464,32.7997421170001,-79.843459369,272,"1445 SCOTTS CREEK CIRCLE, MT PLEASANT, SC, 29464","Match","Exact","1445 SCOTTS CREEK CIR, MOUNT PLEASANT, SC, 29464",647987181,"R"
62773,"1445 SE 17TH STREET","FORT LAUDERDALE","FL",33316,26.1005084510001,-80.1282516479999,273,"1445 SE 17TH STREET, FORT LAUDERDALE, FL, 33316","Match","Exact","1445 SE 17TH ST, FORT LAUDERDALE, FL, 33316",114730963,"L"
62774,"1445 SOUTH AVE","TOLEDO","OH",43609,41.630755315,-83.576183441,274,"1445 SOUTH AVE, TOLEDO, OH, 43609","Match","Exact","1445 SOUTH AVE, TOLEDO, OH, 43609",33938914,"L"
62775,"1445 STONELAKE COVE AVE APT 11305","HENDERSON","NV",89074,36.036846919,-115.048375101,275,"1445 STONELAKE COVE AVE APT 11305, HENDERSON, NV, 89074","Match","Exact","1445 STONELAKE COVE AVE, HENDERSON, NV, 89074",650199111,"L"
62776,"1445 STONELAKE COVE AVENUE - 6307","HENDERSON","NV",89074,36.036846919,-115.048375101,276,"1445 STONELAKE COVE AVENUE - 6307, HENDERSON, NV, 89074","Match","Exact","1445 STONELAKE COVE AVE, HENDERSON, NV, 89074",650199111,"L"
62777,"1445 TOLEDO AVE NORTH","GOLDEN VALLEY","MN",55422,44.994036124,-93.345878998,277,"1445 TOLEDO AVE NORTH, GOLDEN VALLEY, MN, 55422","Match","Exact","1445 TOLEDO AVE N, GOLDEN VALLEY, MN, 55422",43831914,"L"
62778,"1445 TRIMINGHAM DR","PLEASANTON","CA",94566,37.6769505400001,-121.872404688,278,"1445 TRIMINGHAM DR, PLEASANTON, CA, 94566","Match","Exact","1445 TRIMINGHAM DR, PLEASANTON, CA, 94566",125042792,"L"
62779,"1445 VALLEYHIGH DR NW STE 7502","ROCHESTER","MN",55901,44.037042339,-92.4911273119999,279,"1445 VALLEYHIGH DR NW STE 7502, ROCHESTER, MN, 55901","Match","Exact","1445 VALLEYHIGH DR NW, ROCHESTER, MN, 55901",30550904,"R"
62780,"1445 VICTOR AVE SUITE B","REDDING","CA",96003,40.586702857,-122.338903385,280,"1445 VICTOR AVE SUITE B, REDDING, CA, 96003","Match","Exact","1445 VICTOR AVE, REDDING, CA, 96003",126685582,"L"
62781,"1445 VISTA SIERRA DRIVE","EL CAJON","CA",92019,32.772354792,-116.896829513,281,"1445 VISTA SIERRA DRIVE, EL CAJON, CA, 92019","Match","Exact","1445 VISTA SIERRA DR, EL CAJON, CA, 92019",195656447,"L"
62782,"1445 W AUBURN RD","ROCHESTER HILLS","MI",48309,42.6352903580001,-83.161524044,282,"1445 W AUBURN RD, ROCHESTER HILLS, MI, 48309","Match","Exact","1445 W AUBURN RD, ROCHESTER HILLS, MI, 48309",638597208,"L"
62783,"1445 W CRANE DR","CHANDLER","AZ",85226,33.2630846810001,-111.866578991,283,"1445 W CRANE DR, CHANDLER, AZ, 85226","Match","Non_Exact","1445 W CRANE DR, CHANDLER, AZ, 85286",128806193,"R"
62784,"1445 W RUNNING BROOK RD","NASHVILLE","TN",37209,36.119811817,-86.9326419399999,284,"1445 W RUNNING BROOK RD, NASHVILLE, TN, 37209","Match","Exact","1445 W RUNNING BROOK RD, NASHVILLE, TN, 37209",631774154,"L"
62785,"1445 WAMPANOAG TRAIL STE 117","EAST PROVIDENCE","RI",2915,41.774749285,-71.327010803,285,"1445 WAMPANOAG TRAIL STE 117, EAST PROVIDENCE, RI, 2915","Match","Non_Exact","1445 WAMPANOAG TRL, RIVERSIDE, RI, 02915",651143607,"R"
62786,"1445 WOODMONT LANE NW STE 408","ATLANTA","GA",30318,33.8035894500001,-84.43514991,286,"1445 WOODMONT LANE NW STE 408, ATLANTA, GA, 30318","Match","Exact","1445 WOODMONT LN NW, ATLANTA, GA, 30318",17334155,"R"
62787,"1445 WOODMONT LANE NW SUITE 2307","ATLANTA","GA",30318,33.8035894500001,-84.43514991,287,"1445 WOODMONT LANE NW SUITE 2307, ATLANTA, GA, 30318","Match","Exact","1445 WOODMONT LN NW, ATLANTA, GA, 30318",17334155,"R"
62788,"1445 WOODMONT LN NW 306","ATLANTA","GA",30318,33.8035894500001,-84.43514991,288,"1445 WOODMONT LN NW 306, ATLANTA, GA, 30318","Match","Exact","1445 WOODMONT LN NW, ATLANTA, GA, 30318",17334155,"R"
62789,"1445 WOODMONT LN NW STE 1216","ATLANTA","GA",30318,33.8035894500001,-84.43514991,289,"1445 WOODMONT LN NW STE 1216, ATLANTA, GA, 30318","Match","Exact","1445 WOODMONT LN NW, ATLANTA, GA, 30318",17334155,"R"
62790,"1445 WOODMONT LN NW STE 1414","ATLANTA","GA",30318,33.8035894500001,-84.43514991,290,"1445 WOODMONT LN NW STE 1414, ATLANTA, GA, 30318","Match","Exact","1445 WOODMONT LN NW, ATLANTA, GA, 30318",17334155,"R"
62791,"1445 WOODMONT LN NW SUITE 3373","ATLANTA","GA",30318,33.8035894500001,-84.43514991,291,"1445 WOODMONT LN NW SUITE 3373, ATLANTA, GA, 30318","Match","Exact","1445 WOODMONT LN NW, ATLANTA, GA, 30318",17334155,"R"
62792,"1445 WOODMONT LN SUITE 1261 NW","ATLANTA","GA",30318,33.8035894500001,-84.43514991,292,"1445 WOODMONT LN SUITE 1261 NW, ATLANTA, GA, 30318","Match","Non_Exact","1445 WOODMONT LN NW, ATLANTA, GA, 30318",17334155,"R"
62793,"1445 WORTHINGTON WOODS BLVD","WORTHINGTON","OH",43085,40.1194117470001,-82.979545639,293,"1445 WORTHINGTON WOODS BLVD, WORTHINGTON, OH, 43085","Match","Exact","1445 WORTHINGTON WOODS BLVD, WORTHINGTON, OH, 43085",218696403,"R"
62794,"14450 COUNTY ROAD 3200","ROLLA","MO",65401,37.9254434540001,-91.663545153,294,"14450 COUNTY ROAD 3200, ROLLA, MO, 65401","Match","Exact","14450 CO RD 3200, ROLLA, MO, 65401",45107554,"L"
62795,"14450 FM 2100  A 124","CROSBY","TX",77532,NA,NA,295,"14450 FM 2100  A 124, CROSBY, TX, 77532","Tie",NA,NA,NA,NA
62796,"14450 HAYES ROAD","APPLE VALLEY","MN",55124,44.742100427,-93.2330270849999,296,"14450 HAYES ROAD, APPLE VALLEY, MN, 55124","Match","Exact","14450 HAYES RD, APPLE VALLEY, MN, 55124",37907073,"R"
62797,"14450 HENRY DAY ROAD","DRAPER","UT",84020,40.4890336070001,-111.879282561,297,"14450 HENRY DAY ROAD, DRAPER, UT, 84020","Match","Exact","14450 HENRY DAY RD, DRAPER, UT, 84020",176131982,"L"
62798,"14450 LANCASTER FARMS DRIVE","DISPUTANTA","VA",23842,37.1999245960001,-77.1486561419999,298,"14450 LANCASTER FARMS DRIVE, DISPUTANTA, VA, 23842","Match","Exact","14450 LANCASTER FARMS DR, DISPUTANTA, VA, 23842",617124571,"L"
62799,"14450 NW 67TH CIRCLE","KANSAS CITY","MO",64152,NA,NA,299,"14450 NW 67TH CIRCLE, KANSAS CITY, MO, 64152","No_Match",NA,NA,NA,NA
62800,"14450 OAK SHIRE BLVD","ORLANDO","FL",32824,28.3537283790001,-81.378583476,300,"14450 OAK SHIRE BLVD, ORLANDO, FL, 32824","Match","Non_Exact","14450 OAKSHIRE BLVD, ORLANDO, FL, 32824",94406358,"L"
62801,"14450 TRIADELPHIA MILL RD","DAYTON","MD",21036,39.229012674,-77.0139209449999,301,"14450 TRIADELPHIA MILL RD, DAYTON, MD, 21036","Match","Exact","14450 TRIADELPHIA MILL RD, DAYTON, MD, 21036",646643738,"R"
62802,"14451 CORNERSTONE VILLAGE DR","HOUSTON","TX",77014,29.9903271750001,-95.48535629,302,"14451 CORNERSTONE VILLAGE DR, HOUSTON, TX, 77014","Match","Exact","14451 CORNERSTONE VILLAGE DR, HOUSTON, TX, 77014",643351322,"L"
62803,"14451 DORRIS ROAD","CARRIZO PLAIN","CA",93453,35.2790820210001,-119.971699817,303,"14451 DORRIS ROAD, CARRIZO PLAIN, CA, 93453","Match","Non_Exact","14451 DORRIS RD, SANTA MARGAR, CA, 93453",109747179,"R"
62804,"14451 FILARETE STREET","WOODBRIDGE","VA",22193,38.6400559950001,-77.335321799,304,"14451 FILARETE STREET, WOODBRIDGE, VA, 22193","Match","Exact","14451 FILARETE ST, WOODBRIDGE, VA, 22193",76521102,"R"
62805,"14451 HOMESTEAD AVE N","MINNEAPOLIS","MN",55038,45.159123032,-92.9480741519999,305,"14451 HOMESTEAD AVE N, MINNEAPOLIS, MN, 55038","Match","Non_Exact","14451 HOMESTEAD AVE N, LINO LAKES, MN, 55038",97817785,"R"
62806,"14451 SAWYER RANCH RD","AUSTIN","TX",78737,30.1795634640001,-98.002127192,306,"14451 SAWYER RANCH RD, AUSTIN, TX, 78737","Match","Exact","14451 SAWYER RANCH RD, AUSTIN, TX, 78737",63846249,"R"
62807,"14451 WYOMING ST","BENNINGTON","NE",68007,41.32674587,-96.140816652,307,"14451 WYOMING ST, BENNINGTON, NE, 68007","Match","Exact","14451 WYOMING ST, BENNINGTON, NE, 68007",649059860,"R"
62808,"14452 91ST PLACE N","MAPLE GROVE","MN",55369,45.1208372450001,-93.464151567,308,"14452 91ST PLACE N, MAPLE GROVE, MN, 55369","Match","Exact","14452 91ST PL N, MAPLE GROVE, MN, 55369",43815010,"L"
62809,"14452 MILTON RD","FISHERS","IN",46037,39.9740804040001,-85.906169042,309,"14452 MILTON RD, FISHERS, IN, 46037","Match","Exact","14452 MILTON RD, FISHERS, IN, 46037",640740549,"L"
62810,"14453 E STATE RD 114","AKRON","IN",46910,41.023167341,-85.974536041,310,"14453 E STATE RD 114, AKRON, IN, 46910","Match","Exact","14453 STATE RD 114, AKRON, IN, 46910",7848318,"L"
62811,"144535 W VERDE LANE","GOODYEAR","AZ",85395,NA,NA,311,"144535 W VERDE LANE, GOODYEAR, AZ, 85395","No_Match",NA,NA,NA,NA
62812,"14455 LAWRENCE 2145","MOUNT VERNON","MO",65712,37.066698769,-93.79329835,312,"14455 LAWRENCE 2145, MOUNT VERNON, MO, 65712","Match","Exact","14455 LAWRENCE 2145, MOUNT VERNON, MO, 65712",634453419,"L"
62813,"14456 KENTFIELD PL","POWAY","CA",92064,32.9766778310001,-117.03820606,313,"14456 KENTFIELD PL, POWAY, CA, 92064","Match","Exact","14456 KENTFIELD PL, POWAY, CA, 92064",195696380,"R"
62814,"14458 POINT VIRGO ROAD","ROGERS","AR",72756,36.359892861,-94.061801728,314,"14458 POINT VIRGO ROAD, ROGERS, AR, 72756","Match","Exact","14458 POINT VIRGO RD, ROGERS, AR, 72756",47865777,"R"
62815,"14458 WARWICK STREET","DETROIT","MI",48223,42.3930568230001,-83.2286393259999,315,"14458 WARWICK STREET, DETROIT, MI, 48223","Match","Exact","14458 WARWICK ST, DETROIT, MI, 48223",95422507,"R"
62816,"1446 30TH STREET","CEYLON","MN",56121,43.5288722110001,-94.583119235,316,"1446 30TH STREET, CEYLON, MN, 56121","Match","Exact","1446 30TH ST, CEYLON, MN, 56121",9983997,"R"
62817,"1446 44TH STREET","BROOKLYN","NY",11219,40.6358634790001,-73.985957759,317,"1446 44TH STREET, BROOKLYN, NY, 11219","Match","Exact","1446 44TH ST, BROOKLYN, NY, 11219",59080298,"R"
62818,"1446 6TH ST APT C","BERKLEY","CA",94710,37.8760712060001,-122.300363643,318,"1446 6TH ST APT C, BERKLEY, CA, 94710","Match","Non_Exact","1446 6TH ST, BERKELEY, CA, 94710",124992806,"R"
62819,"1446 ALVIN BROOKS ROAD","BUFFALO","KY",42716,37.5078713730001,-85.666274328,319,"1446 ALVIN BROOKS ROAD, BUFFALO, KY, 42716","Match","Exact","1446 ALVIN BROOKS RD, BUFFALO, KY, 42716",653254831,"R"
62820,"1446 BEARSDEN DR","AVON","IN",46123,39.784706613,-86.3724735919999,320,"1446 BEARSDEN DR, AVON, IN, 46123","Match","Exact","1446 BEARSDEN DR, AVON, IN, 46123",89227199,"L"
62821,"1446 BEARSDEN DRIVE","AVON","IN",46123,39.784706613,-86.3724735919999,321,"1446 BEARSDEN DRIVE, AVON, IN, 46123","Match","Exact","1446 BEARSDEN DR, AVON, IN, 46123",89227199,"L"
62822,"1446 CHURCH STREET SUITE C","NORFOLK","VA",23504,36.860856577,-76.2782019319999,322,"1446 CHURCH STREET SUITE C, NORFOLK, VA, 23504","Match","Exact","1446 CHURCH ST, NORFOLK, VA, 23504",122127655,"R"
62823,"1446 CRANMER DR","WALNUT","CA",91789,34.047455089,-117.851198201,323,"1446 CRANMER DR, WALNUT, CA, 91789","Match","Exact","1446 CRANMER DR, WALNUT, CA, 91789",141728343,"R"
62824,"1446 CRESCENT MOON WAY","BEAUMONT","CA",92223,33.9466431330001,-116.953995529,324,"1446 CRESCENT MOON WAY, BEAUMONT, CA, 92223","Match","Exact","1446 CRESCENT MOON WAY, BEAUMONT, CA, 92223",608989659,"R"
62825,"1446 DOUGLAS DR","ELLERSLIE","GA",31807,32.63865674,-84.7915025,325,"1446 DOUGLAS DR, ELLERSLIE, GA, 31807","Match","Exact","1446 DOUGLAS DR, ELLERSLIE, GA, 31807",647387447,"L"
62826,"1446 FOXWOOD LN","ROCKWALL","TX",75032,32.8996744020001,-96.439295977,326,"1446 FOXWOOD LN, ROCKWALL, TX, 75032","Match","Exact","1446 FOXWOOD LN, ROCKWALL, TX, 75032",647387131,"L"
62827,"1446 FROG POND","SHERMAN","TX",75092,33.6604290940001,-96.7852435889999,327,"1446 FROG POND, SHERMAN, TX, 75092","Match","Non_Exact","1446 FROG POND RD, SHERMAN, TX, 75092",63377015,"L"
62828,"1446 LAKME AVE","WILMINGTON","CA",90744,33.792797874,-118.260633371,328,"1446 LAKME AVE, WILMINGTON, CA, 90744","Match","Exact","1446 LAKME AVE, WILMINGTON, CA, 90744",141682038,"R"
62829,"1446 N 27TH AVENUE","PHOENIX","AZ",85009,33.4645079260001,-112.117173341,329,"1446 N 27TH AVENUE, PHOENIX, AZ, 85009","Match","Exact","1446 N 27TH AVE, PHOENIX, AZ, 85009",128210232,"L"
62830,"1446 PAULTON STREET","JOHNSTOWN","PA",15905,40.3188486290001,-78.952392264,330,"1446 PAULTON STREET, JOHNSTOWN, PA, 15905","Match","Exact","1446 PAULTON ST, JOHNSTOWN, PA, 15905",50228733,"L"
62831,"1446 S COOPER ST","MEMPHIS","TN",38114,35.106176663,-89.992479695,331,"1446 S COOPER ST, MEMPHIS, TN, 38114","Match","Exact","1446 S COOPER ST, MEMPHIS, TN, 38114",72917336,"L"
62832,"1446 SPRING STREET SUITE 205","PASO ROBLES","CA",93446,35.6292304360001,-120.691537598,332,"1446 SPRING STREET SUITE 205, PASO ROBLES, CA, 93446","Match","Exact","1446 SPRING ST, PASO ROBLES, CA, 93446",109713732,"R"
62833,"1446 STUBBS MILL RD","LEBANON","OH",45036,39.411449299,-84.181013631,333,"1446 STUBBS MILL RD, LEBANON, OH, 45036","Match","Exact","1446 STUBBS MILL RD, LEBANON, OH, 45036",159014493,"L"
62834,"1446 VAN KIRK ST","PHILADELPHIA","PA",19149,40.0314223880001,-75.080128023,334,"1446 VAN KIRK ST, PHILADELPHIA, PA, 19149","Match","Exact","1446 VAN KIRK ST, PHILADELPHIA, PA, 19149",131428135,"R"
62835,"1446 VENTURA DR","PITTSBURG","CA",94565,37.9999698880001,-121.869431223,335,"1446 VENTURA DR, PITTSBURG, CA, 94565","Match","Exact","1446 VENTURA DR, PITTSBURG, CA, 94565",192088238,"R"
62836,"1446 W BARNES RD","LESLIE","MI",49251,42.523890545,-84.400932617,336,"1446 W BARNES RD, LESLIE, MI, 49251","Match","Exact","1446 W BARNES RD, LESLIE, MI, 49251",652795345,"R"
62837,"1446 WEST ATKINSON AVENUE","MILWAUKEE","WI",53206,43.086347964,-87.928987546,337,"1446 WEST ATKINSON AVENUE, MILWAUKEE, WI, 53206","Match","Exact","1446 W ATKINSON AVE, MILWAUKEE, WI, 53206",77738686,"R"
62838,"1446 WEST JADE DRIVE","SAINT GEORGE 847","UT",84770,37.2527735150001,-113.615872587,338,"1446 WEST JADE DRIVE, SAINT GEORGE 847, UT, 84770","Match","Non_Exact","1446 W JADE DR, SAINT GEORGE, UT, 84770",166187802,"R"
62839,"1446 WEST QUEEN ST STE 209","HAMPTON","VA",23669,37.025649614,-76.3816863599999,339,"1446 WEST QUEEN ST STE 209, HAMPTON, VA, 23669","Match","Exact","1446 W QUEEN ST, HAMPTON, VA, 23669",103807614,"R"
62840,"14460 FALLS OF NEUSE RD 149-386","RALEIGH","NC",27614,35.9458037200001,-78.543220704,340,"14460 FALLS OF NEUSE RD 149-386, RALEIGH, NC, 27614","Match","Non_Exact","14460 NEW FALLS OF NEUSE RD, RALEIGH, NC, 27614",634769273,"L"
62841,"14460 GROUSE LANE","ROGERS","MN",55374,45.215557855,-93.535493864,341,"14460 GROUSE LANE, ROGERS, MN, 55374","Match","Exact","14460 GROUSE LN, ROGERS, MN, 55374",43850016,"L"
62842,"14460 RANEYS LN","ORLAND PARK","IL",60462,41.626947316,-87.869093537,342,"14460 RANEYS LN, ORLAND PARK, IL, 60462","Match","Exact","14460 RANEYS LN, ORLAND PARK, IL, 60462",111871256,"R"
62843,"14460 W COLLEGE AVENUE","NEW BERLIN","WI",53151,42.92987685,-88.0952536619999,343,"14460 W COLLEGE AVENUE, NEW BERLIN, WI, 53151","Match","Exact","14460 COLLEGE AVE, NEW BERLIN, WI, 53151",635629835,"R"
62844,"14460","RALEIGH","NC",27605,NA,NA,344,"14460, RALEIGH, NC, 27605","No_Match",NA,NA,NA,NA
62845,"14461 SW 22ND TER","MIAMI","FL",33175,25.7460508780001,-80.429519697,345,"14461 SW 22ND TER, MIAMI, FL, 33175","Match","Exact","14461 SW 22ND TER, MIAMI, FL, 33175",625401716,"L"
62846,"14461 W ARCHER AVENUE","GOLDEN","CO",80401,39.7161881970001,-105.161591972,346,"14461 W ARCHER AVENUE, GOLDEN, CO, 80401","Match","Exact","14461 W ARCHER AVE, GOLDEN, CO, 80401",177316525,"R"
62847,"14462 PLATZER DRIVE","HOUSTON","TX",77045,29.6170365720001,-95.4233045719999,347,"14462 PLATZER DRIVE, HOUSTON, TX, 77045","Match","Exact","14462 PLATZER DR, HOUSTON, TX, 77045",638496698,"R"
62848,"14463 MONTEREY AVE SOUTH","SAVAGE","MN",55378,44.7429892700001,-93.33813773,348,"14463 MONTEREY AVE SOUTH, SAVAGE, MN, 55378","Match","Exact","14463 MONTEREY AVE S, SAVAGE, MN, 55378",38156010,"R"
62849,"14464 E FRANTZ","PARLIER","CA",93648,NA,NA,349,"14464 E FRANTZ, PARLIER, CA, 93648","No_Match",NA,NA,NA,NA
62850,"14464 SW MISTELTOE DRIVE","TIGARD","OR",97223,45.420030974,-122.825449258,350,"14464 SW MISTELTOE DRIVE, TIGARD, OR, 97223","Match","Non_Exact","14464 SW MISTLETOE DR, TIGARD, OR, 97223",650759360,"L"
62851,"14464 SW MISTLETOE DRIVE","TIGARD","OR",97223,45.420030974,-122.825449258,351,"14464 SW MISTLETOE DRIVE, TIGARD, OR, 97223","Match","Exact","14464 SW MISTLETOE DR, TIGARD, OR, 97223",650759360,"L"
62852,"14465 RH JOHNSON BLVD","SUN CITY WEST","AZ",85375,33.67162603,-112.373879803,352,"14465 RH JOHNSON BLVD, SUN CITY WEST, AZ, 85375","Match","Non_Exact","14465 W R H JOHNSON BLVD, SUN CITY WEST, AZ, 85375",647597324,"R"
62853,"14465 WEBB CHAPEL RD SUITE 206","FARMERS BRANCH","TX",75234,32.94517281,-96.872627425,353,"14465 WEBB CHAPEL RD SUITE 206, FARMERS BRANCH, TX, 75234","Match","Exact","14465 WEBB CHAPEL RD, FARMERS BRANCH, TX, 75234",103272921,"L"
62854,"14466 LACOTA POINT","EL PASO","TX",79938,31.789171314,-106.217511622,354,"14466 LACOTA POINT, EL PASO, TX, 79938","Match","Non_Exact","14466 LACOTA POINT DR, EL PASO, TX, 79938",640780992,"R"
62855,"14468 PATRICK AVENUE","OMAHA","NE",68116,41.2782140200001,-96.140767108,355,"14468 PATRICK AVENUE, OMAHA, NE, 68116","Match","Exact","14468 PATRICK AVE, OMAHA, NE, 68116",116992144,"L"
62856,"14468 REUTER STRASSE CIR APT 508","TAMPA","FL",33613,28.0784250180001,-82.412448879,356,"14468 REUTER STRASSE CIR APT 508, TAMPA, FL, 33613","Match","Exact","14468 REUTER STRASSE CIR, TAMPA, FL, 33613",639493890,"L"
62857,"1447 44TH AVE","SAN FRANCISCO","CA",94122,37.759635835,-122.503726275,357,"1447 44TH AVE, SAN FRANCISCO, CA, 94122","Match","Exact","1447 44TH AVE, SAN FRANCISCO, CA, 94122",192276841,"R"
62858,"1447 ANDOVER BOULEVARD","HOWELL","MI",48843,42.6222051570001,-83.759314273,358,"1447 ANDOVER BOULEVARD, HOWELL, MI, 48843","Match","Exact","1447 ANDOVER BLVD, HOWELL, MI, 48843",614119515,"L"
62859,"1447 AVENIDA DE CORTEZ","PACIFIC PALISADES","CA",90272,34.0737569730001,-118.56326369,359,"1447 AVENIDA DE CORTEZ, PACIFIC PALISADES, CA, 90272","Match","Exact","1447 AVE DE CORTEZ, PACIFIC PALISADES, CA, 90272",141557195,"L"
62860,"1447 BLUE HILL AVE STE 9","MATTAPAN","MA",2126,42.2747566480001,-71.093667481,360,"1447 BLUE HILL AVE STE 9, MATTAPAN, MA, 2126","Match","Exact","1447 BLUE HILL AVE, MATTAPAN, MA, 02126",85705266,"R"
62861,"1447 BRASSIE AVE","FLOSSMOOR","IL",69422,41.536188775,-87.676384978,361,"1447 BRASSIE AVE, FLOSSMOOR, IL, 69422","Match","Non_Exact","1447 BRASSIE AVE, FLOSSMOOR, IL, 60422",111709865,"L"
62862,"1447 CHAPIN STREET NW","WASHINGTON","DC",20009,38.9215548010001,-77.0337020119999,362,"1447 CHAPIN STREET NW, WASHINGTON, DC, 20009","Match","Exact","1447 CHAPIN ST NW, WASHINGTON, DC, 20009",611113335,"R"
62863,"1447 DELSEA DR","DEPTFORD","NJ",8096,39.8286037920001,-75.124832856,363,"1447 DELSEA DR, DEPTFORD, NJ, 8096","Match","Exact","1447 DELSEA DR, DEPTFORD, NJ, 08096",134612293,"R"
62864,"1447 E MARKS CT","SPRINGFIELD","MO",65803,37.270042147,-93.26807187,364,"1447 E MARKS CT, SPRINGFIELD, MO, 65803","Match","Exact","1447 E MARKS CT, SPRINGFIELD, MO, 65803",76690893,"L"
62865,"1447 EAST MAPLE STREET","CUSHING","OK",74023,35.983045948,-96.748751579,365,"1447 EAST MAPLE STREET, CUSHING, OK, 74023","Match","Exact","1447 E MAPLE ST, CUSHING, OK, 74023",166363811,"L"
62866,"1447 FOX LANE","HINSDALE","IL",60521,41.8252898480001,-87.919591845,366,"1447 FOX LANE, HINSDALE, IL, 60521","Match","Exact","1447 FOX LN, HINSDALE, IL, 60521",112716590,"L"
62867,"1447 HI POINT STREET","LOS ANGELES","CA",90035,34.050552533,-118.368996423,367,"1447 HI POINT STREET, LOS ANGELES, CA, 90035","Match","Exact","1447 HI POINT ST, LOS ANGELES, CA, 90035",648169096,"R"
62868,"1447 IRONGATE CT","PLEASANTON","CA",94588,37.680152256,-121.862907716,368,"1447 IRONGATE CT, PLEASANTON, CA, 94588","Match","Exact","1447 IRONGATE CT, PLEASANTON, CA, 94588",606300248,"R"
62869,"1447 JEFF ST SUITE 1","YPSILANTI","MI",48198,42.225904337,-83.568276851,369,"1447 JEFF ST SUITE 1, YPSILANTI, MI, 48198","Match","Exact","1447 JEFF ST, YPSILANTI, MI, 48198",26027657,"L"
62870,"1447 LITTLE ROCK RD","CHARLOTTE","NC",28214,35.2588219960001,-80.93973855,370,"1447 LITTLE ROCK RD, CHARLOTTE, NC, 28214","Match","Exact","1447 LITTLE ROCK RD, CHARLOTTE, NC, 28214",70474912,"L"
62871,"1447 LOMITA BLVD UNIT 4","HARBOR CITY","CA",90710,33.797816332,-118.302942081,371,"1447 LOMITA BLVD UNIT 4, HARBOR CITY, CA, 90710","Match","Exact","1447 LOMITA BLVD, HARBOR CITY, CA, 90710",141669253,"R"
62872,"1447 OZARK RIDGE","CORALVILLE","IA",52241,41.6954055840001,-91.588836669,372,"1447 OZARK RIDGE, CORALVILLE, IA, 52241","Match","Exact","1447 OZARK RIDGE, CORALVILLE, IA, 52241",84519609,"R"
62873,"1447 PEACHTREE STREET SUITE 470","ATLANTA","GA",30309,33.793600671,-84.386969199,373,"1447 PEACHTREE STREET SUITE 470, ATLANTA, GA, 30309","Match","Exact","1447 PEACHTREE ST, ATLANTA, GA, 30309",17408516,"R"
62874,"1447 ROYAL LAKE CIRCLE","INDIANAPOLIS","IN",46228,39.864192915,-86.1862107169999,374,"1447 ROYAL LAKE CIRCLE, INDIANAPOLIS, IN, 46228","Match","Exact","1447 ROYAL LAKE CIR, INDIANAPOLIS, IN, 46228",108045976,"R"
62875,"1447 S GOVERNORS AVE","DOVER","DE",19904,39.1314345800001,-75.530351088,375,"1447 S GOVERNORS AVE, DOVER, DE, 19904","Match","Exact","1447 S GOVERNORS AVE, DOVER, DE, 19904",68108917,"R"
62876,"1447 SLEEPY HOLLOW DR","JACKSON","MS",39212,32.2473301540001,-90.271540358,376,"1447 SLEEPY HOLLOW DR, JACKSON, MS, 39212","Match","Exact","1447 SLEEPY HOLLOW DR, JACKSON, MS, 39212",65368069,"R"
62877,"1447 SOUTH AVE","YOUNGSTOWN","OH",44502,41.08412866,-80.646292417,377,"1447 SOUTH AVE, YOUNGSTOWN, OH, 44502","Match","Exact","1447 SOUTH AVE, YOUNGSTOWN, OH, 44502",64596233,"L"
62878,"1447 STILLWATER DRIVE","HEBER CITY","UT",84032,40.628915147,-111.437774957,378,"1447 STILLWATER DRIVE, HEBER CITY, UT, 84032","Match","Non_Exact","1447 W STILLWATER DR, HEBER CITY, UT, 84032",611495262,"L"
62879,"1447 SUNSET ROAD","ANN ARBOR","MI",48103,42.2974587640001,-83.7651255769999,379,"1447 SUNSET ROAD, ANN ARBOR, MI, 48103","Match","Exact","1447 SUNSET RD, ANN ARBOR, MI, 48103",26011723,"L"
62880,"1447 SW 45TH WAY","DEERFIELD BEACH","FL",33442,26.297031917,-80.1662414209999,380,"1447 SW 45TH WAY, DEERFIELD BEACH, FL, 33442","Match","Exact","1447 SW 45TH WAY, DEERFIELD BEACH, FL, 33442",114778674,"L"
62881,"1447 TREMONT AVENUE","MORGANTOWN","WV",26505,NA,NA,381,"1447 TREMONT AVENUE, MORGANTOWN, WV, 26505","No_Match",NA,NA,NA,NA
62882,"1447 VAN DYKE AVE","SAN FRANCISCO","CA",94124,37.7275420440001,-122.389565284,382,"1447 VAN DYKE AVE, SAN FRANCISCO, CA, 94124","Match","Exact","1447 VAN DYKE AVE, SAN FRANCISCO, CA, 94124",192290997,"L"
62883,"1447 VANKIRK STREET","PHILADELPHA","PA",19149,40.0313927720001,-75.080049747,383,"1447 VANKIRK STREET, PHILADELPHA, PA, 19149","Match","Non_Exact","1447 VAN KIRK ST, PHILA, PA, 19149",131428135,"L"
62884,"1447 W 15TH AVE","APACHE JUNCTION","AZ",85120,33.4018436120001,-111.56077908,384,"1447 W 15TH AVE, APACHE JUNCTION, AZ, 85120","Match","Exact","1447 W 15TH AVE, APACHE JUNCTION, AZ, 85120",129312563,"L"
62885,"1447 W TAYLOR STREET / 1389","CHICAGO","IL",60607,41.8693106970001,-87.6632155299999,385,"1447 W TAYLOR STREET / 1389, CHICAGO, IL, 60607","Match","Non_Exact","1447 W TAYLOR ST, CHICAGO, IL, 60607",111802783,"L"
62886,"1447 W VALLEY DR","WILLIAMS","AZ",86046,NA,NA,386,"1447 W VALLEY DR, WILLIAMS, AZ, 86046","No_Match",NA,NA,NA,NA
62887,"1447 WAYNE AV","GLENDALE HEIGHTS","IL",60139,41.9140422080001,-88.0544946049999,387,"1447 WAYNE AV, GLENDALE HEIGHTS, IL, 60139","Match","Exact","1447 WAYNE AVE, GLENDALE HEIGHTS, IL, 60139",112522905,"R"
62888,"14470 FM 1602","HICO","TX",76457,31.786300168,-97.9766508609999,388,"14470 FM 1602, HICO, TX, 76457","Match","Exact","14470 FM 1602, HICO, TX, 76457",158764298,"R"
62889,"14470 SW 138 CT","MIAMI","FL",33186,25.6325161710001,-80.417858807,389,"14470 SW 138 CT, MIAMI, FL, 33186","Match","Exact","14470 SW 138TH CT, MIAMI, FL, 33186",116069760,"R"
62890,"14471 MOUNTAIN RD","GLEN ALLEN","VA",23059,37.74342869,-77.5907720819999,390,"14471 MOUNTAIN RD, GLEN ALLEN, VA, 23059","Match","Exact","14471 MOUNTAIN RD, GLEN ALLEN, VA, 23059",84986188,"R"
62891,"14472 CHESTNUT STREET","WESTMINSTER","CA",92683,33.7524284840001,-118.002711141,391,"14472 CHESTNUT STREET, WESTMINSTER, CA, 92683","Match","Exact","14472 CHESTNUT ST, WESTMINSTER, CA, 92683",144004716,"L"
62892,"14473 E WILLIAM STREET","MOORES HILL","IN",47032,NA,NA,392,"14473 E WILLIAM STREET, MOORES HILL, IN, 47032","No_Match",NA,NA,NA,NA
62893,"14473 MOORING DRIVE","SEMINOLE","FL",33776,27.862600753,-82.837799046,393,"14473 MOORING DRIVE, SEMINOLE, FL, 33776","Match","Exact","14473 MOORING DR, SEMINOLE, FL, 33776",124672750,"R"
62894,"14474 MADISONPIKE","MORNINGVIEW","KY",41063,NA,NA,394,"14474 MADISONPIKE, MORNINGVIEW, KY, 41063","No_Match",NA,NA,NA,NA
62895,"14474 PETTYCOAT LANE","SAINT LOUIS","MO",63034,38.818024462,-90.2599717579999,395,"14474 PETTYCOAT LANE, SAINT LOUIS, MO, 63034","Match","Non_Exact","14474 PETTYCOAT LN, FLORISSANT, MO, 63034",100144072,"L"
62896,"14474 SW 139TH CT","MIAMI","FL",33186,25.632122813,-80.420768568,396,"14474 SW 139TH CT, MIAMI, FL, 33186","Match","Exact","14474 SW 139TH CT, MIAMI, FL, 33186",647903752,"L"
62897,"14475 ESSEX CT","MAGALIA","CA",95954,39.835419007,-121.609771425,397,"14475 ESSEX CT, MAGALIA, CA, 95954","Match","Exact","14475 ESSEX CT, MAGALIA, CA, 95954",68412074,"L"
62898,"14475 UNIVERSITY AVENUE","WAUKEE","IA",50263,41.600430864,-93.822104659,398,"14475 UNIVERSITY AVENUE, WAUKEE, IA, 50263","Match","Exact","14475 UNIVERSITY AVE, WAUKEE, IA, 50263",65635100,"R"
62899,"14477 HOLLAND CT","APPLE VALLEY","MN",55124,44.739947052,-93.2408642889999,399,"14477 HOLLAND CT, APPLE VALLEY, MN, 55124","Match","Exact","14477 HOLLAND CT, APPLE VALLEY, MN, 55124",37906537,"R"
62900,"14478 S KNAPPER RIDGE COVE","SALT LAKE CITY","UT",84096,40.4903011320001,-112.045285405,400,"14478 S KNAPPER RIDGE COVE, SALT LAKE CITY, UT, 84096","Match","Non_Exact","14478 S KNAPPER RIDGE COVE, RIVERTON, UT, 84096",653304154,"R"
62901,"14479 SW STATE ROAD 47","FORT WHITE","FL",32038,29.97924113,-82.709936448,401,"14479 SW STATE ROAD 47, FORT WHITE, FL, 32038","Match","Non_Exact","14479 SW STATE RD 47, FORT WHITE, FL, 32038",649249386,"R"
62902,"1448 8TH STREET","DES MOINES","IA",50314,41.6049013940001,-93.628001924,402,"1448 8TH STREET, DES MOINES, IA, 50314","Match","Exact","1448 8TH ST, DES MOINES, IA, 50314",65782252,"L"
62903,"1448 ARLINGTON","HOUSTON","TX",77008,29.7971805540001,-95.394328684,403,"1448 ARLINGTON, HOUSTON, TX, 77008","Match","Non_Exact","1448 ARLINGTON ST, HOUSTON, TX, 77008",96061317,"R"
62904,"1448 BELL AVE","SACRAMENTO","CA",95838,38.6473733550001,-121.432619753,404,"1448 BELL AVE, SACRAMENTO, CA, 95838","Match","Exact","1448 BELL AVE, SACRAMENTO, CA, 95838",642585767,"R"
62905,"1448 BERKELEY STREET - B","SANTA MONICA","CA",90404,34.03624475,-118.468552311,405,"1448 BERKELEY STREET - B, SANTA MONICA, CA, 90404","Match","Exact","1448 BERKELEY ST, SANTA MONICA, CA, 90404",142717364,"R"
62906,"1448 BROOKPARK DR","MANSFIELD","OH",44906,40.7194743150001,-82.559222049,406,"1448 BROOKPARK DR, MANSFIELD, OH, 44906","Match","Exact","1448 BROOKPARK DR, MANSFIELD, OH, 44906",12832035,"R"
62907,"1448 CARRINGTON RIDGE LANE","VIENNA","VA",22182,38.9355692090001,-77.2517069689999,407,"1448 CARRINGTON RIDGE LANE, VIENNA, VA, 22182","Match","Exact","1448 CARRINGTON RIDGE LN, VIENNA, VA, 22182",76046539,"R"
62908,"1448 CASTLETON AVENUE","STATEN ISLAND","NY",10302,40.634296648,-74.1310642989999,408,"1448 CASTLETON AVENUE, STATEN ISLAND, NY, 10302","Match","Exact","1448 CASTLETON AVE, STATEN ISLAND, NY, 10302",59877789,"L"
62909,"1448 COLLEGE STREET","MEMPHIS","TN",38106,35.1079241750001,-90.030521919,409,"1448 COLLEGE STREET, MEMPHIS, TN, 38106","Match","Exact","1448 COLLEGE ST, MEMPHIS, TN, 38106",72908494,"L"
62910,"1448 CR 230","MEADOW","TX",79345,33.3413787490001,-102.357258063,410,"1448 CR 230, MEADOW, TX, 79345","Match","Exact","1448 CO RD 230, MEADOW, TX, 79345",185889698,"L"
62911,"1448 CROFTVILLE RD","GRAND MARAIS","MN",55604,47.7634831080001,-90.283317886,411,"1448 CROFTVILLE RD, GRAND MARAIS, MN, 55604","Match","Exact","1448 CROFTVILLE RD, GRAND MARAIS, MN, 55604",636516361,"L"
62912,"1448 E 52ND ST STE 398","CHICAGO","IL",60615,41.8010073740001,-87.5897864469999,412,"1448 E 52ND ST STE 398, CHICAGO, IL, 60615","Match","Non_Exact","1448 E 52ND ST, CHICAGO, IL, 60615",111771725,"L"
62913,"1448 E 52ND STREET - SUITE 164","CHICAGO","IL",60615,41.8010073740001,-87.5897864469999,413,"1448 E 52ND STREET - SUITE 164, CHICAGO, IL, 60615","Match","Non_Exact","1448 E 52ND ST, CHICAGO, IL, 60615",111771725,"L"
62914,"1448 E 85TH STREET","BROOKLYN","NY",11236,40.6288697360001,-73.899604998,414,"1448 E 85TH STREET, BROOKLYN, NY, 11236","Match","Exact","1448 E 85TH ST, BROOKLYN, NY, 11236",59086871,"R"
62915,"1448 FREEMANS CT","PLUMAS LAKE","CA",95961,39.008814913,-121.545328838,415,"1448 FREEMANS CT, PLUMAS LAKE, CA, 95961","Match","Exact","1448 FREEMANS CT, PLUMAS LAKE, CA, 95961",611583332,"R"
62916,"1448 GARDINER LANE SUITE 102","LOUISVILLE","KY",40213,38.1987947530001,-85.692923374,416,"1448 GARDINER LANE SUITE 102, LOUISVILLE, KY, 40213","Match","Exact","1448 GARDINER LN, LOUISVILLE, KY, 40213",639422844,"R"
62917,"1448 KIRKWOOD ROAD","HARRISBURG","PA",17103,40.32254242,-76.881129331,417,"1448 KIRKWOOD ROAD, HARRISBURG, PA, 17103","Match","Non_Exact","1448 KIRKWOOD RD, HARRISBURG, PA, 17110",70840157,"R"
62918,"1448 LAUREL ST NE","VALDESE","NC",28690,35.7599113900001,-81.560037804,418,"1448 LAUREL ST NE, VALDESE, NC, 28690","Match","Exact","1448 LAUREL ST NE, VALDESE, NC, 28690",37158372,"L"
62919,"1448 MAIN STREET","WELLSBURG","WV",26070,40.277787129,-80.610875591,419,"1448 MAIN STREET, WELLSBURG, WV, 26070","Match","Exact","1448 MAIN ST, WELLSBURG, WV, 26070",54996052,"R"
62920,"1448 N CLIFF VALLEY WAY NE APT D","ATLANTA","GA",30319,33.8428084280001,-84.3309092699999,420,"1448 N CLIFF VALLEY WAY NE APT D, ATLANTA, GA, 30319","Match","Non_Exact","1448 N CLIFF VALLEY WAY NE, ATLANTA, GA, 30319",23377142,"L"
62921,"1448 N MAPLEWOOOD AVE APT 1R","CHICAGO","IL",60622,41.907542903,-87.6908395409999,421,"1448 N MAPLEWOOOD AVE APT 1R, CHICAGO, IL, 60622","Match","Non_Exact","1448 N MAPLEWOOD AVE, CHICAGO, IL, 60622",111763199,"L"
62922,"1448 NW 42ND STREET","MIAMI","FL",33142,25.814103926,-80.220932869,422,"1448 NW 42ND STREET, MIAMI, FL, 33142","Match","Exact","1448 NW 42ND ST, MIAMI, FL, 33142",116005283,"L"
62923,"1448 PALM BEACH STREET","CHULA VISTA","CA",91915,32.6315291510001,-116.951551777,423,"1448 PALM BEACH STREET, CHULA VISTA, CA, 91915","Match","Exact","1448 PALM BEACH ST, CHULA VISTA, CA, 91915",195672491,"R"
62924,"1448 PICARD RD","COLUMBUS","OH",43227,39.9425289910001,-82.903574339,424,"1448 PICARD RD, COLUMBUS, OH, 43227","Match","Exact","1448 PICARD RD, COLUMBUS, OH, 43227",218678770,"L"
62925,"1448 REDMOND CIR E","CORDOVA","TN",38016,35.164673592,-89.7132652349999,425,"1448 REDMOND CIR E, CORDOVA, TN, 38016","Match","Exact","1448 REDMOND CIR E, CORDOVA, TN, 38016",612564076,"L"
62926,"1448 RIPPLING WATERS CIRCLE","SEVIERVILLE","TN",37876,35.9107450230001,-83.691977052,426,"1448 RIPPLING WATERS CIRCLE, SEVIERVILLE, TN, 37876","Match","Exact","1448 RIPPLING WATERS CIR, SEVIERVILLE, TN, 37876",614701248,"L"
62927,"1448 ROUGH RIDER LN","PARKTON","NC",28371,34.9533518800001,-78.983367184,427,"1448 ROUGH RIDER LN, PARKTON, NC, 28371","Match","Exact","1448 ROUGH RIDER LN, PARKTON, NC, 28371",627862243,"R"
62928,"1448 S ALTMAN DRIVE","NEW RICHMOND","OH",45157,38.905131424,-84.236875171,428,"1448 S ALTMAN DRIVE, NEW RICHMOND, OH, 45157","Match","Exact","1448 S ALTMAN DR, NEW RICHMOND, OH, 45157",118451609,"R"
62929,"1448 S FAIRFIELD AVE","LOMBARD","IL",60148,41.8558349460001,-88.004754213,429,"1448 S FAIRFIELD AVE, LOMBARD, IL, 60148","Match","Exact","1448 S FAIRFIELD AVE, LOMBARD, IL, 60148",639891406,"R"
62930,"1448 S FAIRWOOD AVE","SPRINGFIELD","MO",65809,37.1850664790001,-93.179270327,430,"1448 S FAIRWOOD AVE, SPRINGFIELD, MO, 65809","Match","Exact","1448 S FAIRWOOD AVE, SPRINGFIELD, MO, 65809",76686577,"L"
62931,"1448 SAN PABLO AVE","BERKELEY","CA",94702,37.877220305,-122.294887327,431,"1448 SAN PABLO AVE, BERKELEY, CA, 94702","Match","Exact","1448 SAN PABLO AVE, BERKELEY, CA, 94702",124992915,"R"
62932,"1448 SNOWDEN AVENUE","MEMPHIS","TN",38107,35.15706111,-90.0109454719999,432,"1448 SNOWDEN AVENUE, MEMPHIS, TN, 38107","Match","Exact","1448 SNOWDEN AVE, MEMPHIS, TN, 38107",72904746,"L"
62933,"1448 SOUTH 9TH STREET","CAMDEN","NJ",8104,39.9286703770001,-75.111303914,433,"1448 SOUTH 9TH STREET, CAMDEN, NJ, 8104","Match","Exact","1448 S 9TH ST, CAMDEN, NJ, 08104",134346242,"L"
62934,"1448 STURGIS ROAD","TWENTYNINE PALMS","CA",92278,34.232091838,-116.055086341,434,"1448 STURGIS ROAD, TWENTYNINE PALMS, CA, 92278","Match","Exact","1448 STURGIS RD, TWENTYNINE PALMS, CA, 92278",144624058,"L"
62935,"1448 SWEETBAY COURT","BELLINGHAM","WA",98229,48.749188229,-122.445979415,435,"1448 SWEETBAY COURT, BELLINGHAM, WA, 98229","Match","Exact","1448 SWEETBAY CT, BELLINGHAM, WA, 98229",183786246,"R"
62936,"1448 TALISMAN CIRCLE","VIRGINIA BEACH","VA",23464,36.796097536,-76.171483772,436,"1448 TALISMAN CIRCLE, VIRGINIA BEACH, VA, 23464","Match","Exact","1448 TALISMAN CIR, VA BCH, VA, 23464",122264560,"L"
62937,"1448 W LARKSPUR LANE","RIVER HILLS","WI",53217,43.175428783,-87.927002172,437,"1448 W LARKSPUR LANE, RIVER HILLS, WI, 53217","Match","Exact","1448 W LARKSPUR LN, RIVER HILLS, WI, 53217",77734949,"R"
62938,"1448 WEST HOWARD STREET","CHICAGO","IL",60201,42.0192336700001,-87.66751075,438,"1448 WEST HOWARD STREET, CHICAGO, IL, 60201","Match","Non_Exact","1448 W HOWARD ST, CHICAGO, IL, 60626",605265080,"R"
62939,"14480 GLOBSTAD BEACH ROAD","LAKE PARK","MN",56554,46.752259237,-96.1043810469999,439,"14480 GLOBSTAD BEACH ROAD, LAKE PARK, MN, 56554","Match","Exact","14480 GLOBSTAD BEACH RD, LAKE PARK, MN, 56554",167961569,"L"
62940,"14480 WEBSTER RD","BATH","MI",48808,42.806326051,-84.448324885,440,"14480 WEBSTER RD, BATH, MI, 48808","Match","Exact","14480 WEBSTER RD, BATH, MI, 48808",17306760,"R"
62941,"14481 DANES CIRCLE","HUNTINGTON BEACH","CA",92647,33.751982931,-118.023073936,441,"14481 DANES CIRCLE, HUNTINGTON BEACH, CA, 92647","Match","Exact","14481 DANES CIR, HUNTINGTON BEACH, CA, 92647",144004224,"R"
62942,"14481 SOUTHERN HILLS LANE","POWAY","CA",92064,32.9715972320001,-117.020604041,442,"14481 SOUTHERN HILLS LANE, POWAY, CA, 92064","Match","Exact","14481 SOUTHERN HILLS LN, POWAY, CA, 92064",612892860,"R"
62943,"14482 305TH AVE NW","PRINCETON","MN",55371,NA,NA,443,"14482 305TH AVE NW, PRINCETON, MN, 55371","No_Match",NA,NA,NA,NA
62944,"14482 N LANTANA BLVD","SKIATOOK","OK",74070,36.36428741,-95.930187487,444,"14482 N LANTANA BLVD, SKIATOOK, OK, 74070","Match","Non_Exact","14482 N LANTANA BLVD E, SKIATOOK, OK, 74070",633722972,"R"
62945,"14485 SW PRAIRIE CREEK RD","ROSE HILL","KS",67133,37.6151026630001,-97.116968643,445,"14485 SW PRAIRIE CREEK RD, ROSE HILL, KS, 67133","Match","Exact","14485 SW PRAIRIE CREEK RD, ROSE HILL, KS, 67133",32274894,"L"
62946,"14485 TAWNEY RIDGE LANE","VICTORVILLE","CA",92394,34.535745632,-117.349598386,446,"14485 TAWNEY RIDGE LANE, VICTORVILLE, CA, 92394","Match","Exact","14485 TAWNEY RIDGE LN, VICTORVILLE, CA, 92394",614863582,"L"
62947,"14486 LELAND CIR","SARATOGA","CA",95070,37.257668805,-122.005308444,447,"14486 LELAND CIR, SARATOGA, CA, 95070","Match","Exact","14486 LELAND CIR, SARATOGA, CA, 95070",122943330,"R"
62948,"14486 SE 122ND AVE","CLACKAMAS","OR",97015,45.418132273,-122.537976081,448,"14486 SE 122ND AVE, CLACKAMAS, OR, 97015","Match","Exact","14486 SE 122ND AVE, CLACKAMAS, OR, 97015",157993389,"L"
62949,"14488 JEKYLL ISLAND CT","NAPLES","FL",34119,26.2615897430001,-81.7027975619999,449,"14488 JEKYLL ISLAND CT, NAPLES, FL, 34119","Match","Exact","14488 JEKYLL ISLAND CT, NAPLES, FL, 34119",115212364,"R"
62950,"14489 E RADCLIFF DR","AURORA","CO",80015,NA,NA,450,"14489 E RADCLIFF DR, AURORA, CO, 80015","No_Match",NA,NA,NA,NA
62951,"1449 37TH ST STE 205","BROOKLYN","NY",11218,40.639770619,-73.981830819,451,"1449 37TH ST STE 205, BROOKLYN, NY, 11218","Match","Exact","1449 37TH ST, BROOKLYN, NY, 11218",59080485,"L"
62952,"1449 CEDARCREST LN","BRYAN","TX",77803,30.6626125220001,-96.38285093,452,"1449 CEDARCREST LN, BRYAN, TX, 77803","Match","Exact","1449 CEDARCREST LN, BRYAN, TX, 77803",21834955,"R"
62953,"1449 CHEBOYGAN RD","OKEMOS","MI",48864,42.704022282,-84.400848864,453,"1449 CHEBOYGAN RD, OKEMOS, MI, 48864","Match","Exact","1449 CHEBOYGAN RD, OKEMOS, MI, 48864",17506389,"L"
62954,"1449 COUNTY ROAD 3413","CHANDLER","TX",75758,32.2308909400001,-95.551448828,454,"1449 COUNTY ROAD 3413, CHANDLER, TX, 75758","Match","Exact","1449 CO RD 3413, CHANDLER, TX, 75758",125829820,"L"
62955,"1449 E BRUCE AVE","GILBERT","AZ",85234,33.352529412,-111.758065028,455,"1449 E BRUCE AVE, GILBERT, AZ, 85234","Match","Exact","1449 E BRUCE AVE, GILBERT, AZ, 85234",128796591,"R"
62956,"1449 F ST PO BOX 169","PAWNEE CITY","NE",68420,NA,NA,456,"1449 F ST PO BOX 169, PAWNEE CITY, NE, 68420","No_Match",NA,NA,NA,NA
62957,"1449 GAIRLOCH DRIVE","FAYETTEVILLE","NC",28304,35.034049586,-78.994176612,457,"1449 GAIRLOCH DRIVE, FAYETTEVILLE, NC, 28304","Match","Exact","1449 GAIRLOCH DR, FAYETTEVILLE, NC, 28304",64195571,"R"
62958,"1449 GRANADA PLACE","FAR ROCKAWAY","NY",11691,NA,NA,458,"1449 GRANADA PLACE, FAR ROCKAWAY, NY, 11691","No_Match",NA,NA,NA,NA
62959,"1449 HARVARD STREET NW APT 5","WASHINGTON","DC",20009,38.9264016650001,-77.034277886,459,"1449 HARVARD STREET NW APT 5, WASHINGTON, DC, 20009","Match","Exact","1449 HARVARD ST NW, WASHINGTON, DC, 20009",76223005,"R"
62960,"1449 HAYNESCREST CT","GRAYSON","GA",30017,33.8627598460001,-83.974541887,460,"1449 HAYNESCREST CT, GRAYSON, GA, 30017","Match","Exact","1449 HAYNESCREST CT, GRAYSON, GA, 30017",624794679,"R"
62961,"1449 MC GHEE RD","WOODLAWN","VA",24381,36.8062145480001,-80.879343534,461,"1449 MC GHEE RD, WOODLAWN, VA, 24381","Match","Non_Exact","1449 MCGHEE RD, WOODLAWN, VA, 24381",153802313,"L"
62962,"1449 MC GHEE ROAD","WOODLAWN","VA",24381,36.8062145480001,-80.879343534,462,"1449 MC GHEE ROAD, WOODLAWN, VA, 24381","Match","Non_Exact","1449 MCGHEE RD, WOODLAWN, VA, 24381",153802313,"L"
62963,"1449 MORROW ST","GREEN BAY","WI",54302,44.509104408,-87.9900839439999,463,"1449 MORROW ST, GREEN BAY, WI, 54302","Match","Exact","1449 MORROW ST, GREEN BAY, WI, 54302",148102789,"L"
62964,"1449 NORTH THUNDERBIRD AVE","GILBERT","AZ",85234,33.37646929,-111.724854926,464,"1449 NORTH THUNDERBIRD AVE, GILBERT, AZ, 85234","Match","Exact","1449 N THUNDERBIRD AVE, GILBERT, AZ, 85234",636793483,"R"
62965,"1449 NOVA AVENUE","CAPITOL HEIGHTS","MD",20743,38.8686791800001,-76.925025541,465,"1449 NOVA AVENUE, CAPITOL HEIGHTS, MD, 20743","Match","Exact","1449 NOVA AVE, CAPITOL HEIGHTS, MD, 20743",76313638,"R"
62966,"1449 RARITAN ROAD","CLARK","NJ",7066,40.6351174330001,-74.301291775,466,"1449 RARITAN ROAD, CLARK, NJ, 7066","Match","Exact","1449 RARITAN RD, CLARK, NJ, 07066",60574705,"L"
62967,"1449 RIPLEY STREET","NORTH PORT","FL",34287,27.0657247,-82.1738020669999,467,"1449 RIPLEY STREET, NORTH PORT, FL, 34287","Match","Non_Exact","1449 RIPLEY ST, NORTH PORT, FL, 34286",16339817,"L"
62968,"1449 ROOKLIDGE ST","DUPONT","WA",98327,47.0997892990001,-122.642490811,468,"1449 ROOKLIDGE ST, DUPONT, WA, 98327","Match","Exact","1449 ROOKLIDGE ST, DUPONT, WA, 98327",184700461,"R"
62969,"1449 SOUTH MARIETTA PKWY","MARIETTA","GA",30067,33.9395300750001,-84.509640233,469,"1449 SOUTH MARIETTA PKWY, MARIETTA, GA, 30067","Match","Exact","1449 S MARIETTA PKWY, MARIETTA, GA, 30067",647806732,"R"
62970,"1449 SOUTH VICTORIA AVENUE SUITE A","VENTURA","CA",93003,34.2614513240001,-119.211621143,470,"1449 SOUTH VICTORIA AVENUE SUITE A, VENTURA, CA, 93003","Match","Exact","1449 S VICTORIA AVE, VENTURA, CA, 93003",109953654,"R"
62971,"1449 SQUIRE LANE","CUMMING","GA",30041,34.130815473,-84.1770741939999,471,"1449 SQUIRE LANE, CUMMING, GA, 30041","Match","Exact","1449 SQUIRE LN, CUMMING, GA, 30041",70184511,"L"
62972,"1449 THAMES COURT","MYRTLE BEACH","SC",29577,33.664927032,-78.961480002,472,"1449 THAMES COURT, MYRTLE BEACH, SC, 29577","Match","Exact","1449 THAMES CT, MYRTLE BEACH, SC, 29577",627233131,"L"
62973,"1449 W WALTON ST APT 2","CHICAGO","IL",60642,41.898850585,-87.663995245,473,"1449 W WALTON ST APT 2, CHICAGO, IL, 60642","Match","Non_Exact","1449 W WALTON ST, CHICAGO, IL, 60642",605069519,"L"
62974,"1449 YOLANDA DRIVE","YUBA CITY","CA",95993,39.1065726480001,-121.65267666,474,"1449 YOLANDA DRIVE, YUBA CITY, CA, 95993","Match","Exact","1449 YOLANDA DR, YUBA CITY, CA, 95993",68583464,"L"
62975,"14490 ST ANDREWS LANE","ASHLAND","VA",23005,37.802007603,-77.5400664159999,475,"14490 ST ANDREWS LANE, ASHLAND, VA, 23005","Match","Exact","14490 ST ANDREWS LN, ASHLAND, VA, 23005",84974039,"R"
62976,"14492 KOHLER LANE","WAPAKONETA","OH",45895,40.559998842,-84.250219293,476,"14492 KOHLER LANE, WAPAKONETA, OH, 45895","Match","Exact","14492 KOHLER LN, WAPAKONETA, OH, 45895",36421989,"R"
62977,"14493 BROWNELL RD","BEULAH","MI",49617,44.6449636410001,-85.9487578869999,477,"14493 BROWNELL RD, BEULAH, MI, 49617","Match","Exact","14493 BROWNELL RD, BEULAH, MI, 49617",618491833,"L"
62978,"14493 LEE HIGHWAY","AMISSVILLE","VA",20106,38.6873562820001,-78.020988973,478,"14493 LEE HIGHWAY, AMISSVILLE, VA, 20106","Match","Exact","14493 LEE HWY, AMISSVILLE, VA, 20106",29948349,"L"
62979,"14493 S PADRE ISLAND DR STE A 187","CORPUS CHRISTI","TX",78418,NA,NA,479,"14493 S PADRE ISLAND DR STE A 187, CORPUS CHRISTI, TX, 78418","No_Match",NA,NA,NA,NA
62980,"14493 S PADRE ISLAND DRIVE SUITE A","CORPUS CHRISTI","TX",78418,27.6178505680001,-97.221876755,480,"14493 S PADRE ISLAND DRIVE SUITE A, CORPUS CHRISTI, TX, 78418","Match","Non_Exact","14493 S PADRE ISLAND DR, CORPUS CHRISTI, TX, 78418",615818573,"L"
62981,"14493 SOUTH PADRE ISLAND DR","CORPUS CHRISTI","TX",78418,27.6178507060001,-97.221876755,481,"14493 SOUTH PADRE ISLAND DR, CORPUS CHRISTI, TX, 78418","Match","Exact","14493 S PADRE ISLAND DR, CORPUS CHRISTI, TX, 78418",615818573,"L"
62982,"14493 SPID A-249","CORPUS CHRISTI","TX",78418,NA,NA,482,"14493 SPID A-249, CORPUS CHRISTI, TX, 78418","No_Match",NA,NA,NA,NA
62983,"14496 CROGHAN PIKE","MOUNT UNION","PA",17066,40.3651343990001,-77.864922468,483,"14496 CROGHAN PIKE, MOUNT UNION, PA, 17066","Match","Exact","14496 CROGHAN PIKE, MOUNT UNION, PA, 17066",50606219,"L"
62984,"14497 AKKER CT","GAINESVILLE","VA",20155,38.8413117100001,-77.600725413,484,"14497 AKKER CT, GAINESVILLE, VA, 20155","Match","Exact","14497 AKKER CT, GAINESVILLE, VA, 20155",207145060,"L"
62985,"14497 DALEBROOK DR","EASTVALE","CA",92880,33.961411975,-117.599375873,485,"14497 DALEBROOK DR, EASTVALE, CA, 92880","Match","Exact","14497 DALEBROOK DR, EASTVALE, CA, 92880",629795712,"R"
62986,"14498 COMISKY DR","BOISE","ID",83713,43.6534365260001,-116.363209979,486,"14498 COMISKY DR, BOISE, ID, 83713","Match","Non_Exact","14498 W COMISKY DR, BOISE, ID, 83713",117936668,"R"
62987,"14499 BEGONIA APT 5","VICTORVILLE","CA",92392,NA,NA,487,"14499 BEGONIA APT 5, VICTORVILLE, CA, 92392","No_Match",NA,NA,NA,NA
62988,"145 1/2 S LAWTON ST","JASONVILLE","IN",47438,39.162422416,-87.20007523,488,"145 1/2 S LAWTON ST, JASONVILLE, IN, 47438","Match","Exact","145 S LAWTON ST, JASONVILLE, IN, 47438",39306710,"R"
62989,"145 15TH ST NE STE 628","ATLANTA","GA",30309,33.788826425,-84.382088939,489,"145 15TH ST NE STE 628, ATLANTA, GA, 30309","Match","Exact","145 15TH ST NE, ATLANTA, GA, 30309",648245712,"R"
62990,"145 28TH AVE","SEATTLE","WA",98122,47.60251835,-122.295990707,490,"145 28TH AVE, SEATTLE, WA, 98122","Match","Exact","145 28TH AVE, SEATTLE, WA, 98122",186593151,"L"
62991,"145 4TH AVE / APT 14M","NEW YORK","NY",10003,40.733701388,-73.989849036,491,"145 4TH AVE / APT 14M, NEW YORK, NY, 10003","Match","Exact","145 4TH AVE, NEW YORK, NY, 10003",59653681,"R"
62992,"145 4TH AVENUE APT 10F","NEW YORK","NY",10003,40.733701388,-73.989849036,492,"145 4TH AVENUE APT 10F, NEW YORK, NY, 10003","Match","Exact","145 4TH AVE, NEW YORK, NY, 10003",59653681,"R"
62993,"145 72ND ST APT C8","BROOKLYN","NY",11209,40.6346257910001,-74.031582784,493,"145 72ND ST APT C8, BROOKLYN, NY, 11209","Match","Exact","145 72ND ST, BROOKLYN, NY, 11209",59094118,"L"
62994,"145 72ND STREET - SUITE A1","BROOKLYN","NY",11209,40.6346257910001,-74.031582784,494,"145 72ND STREET - SUITE A1, BROOKLYN, NY, 11209","Match","Exact","145 72ND ST, BROOKLYN, NY, 11209",59094118,"L"
62995,"145 73 STREET A1","BROOKLYN","NY",11209,40.633943507,-74.031860168,495,"145 73 STREET A1, BROOKLYN, NY, 11209","Match","Exact","145 73RD ST, BROOKLYN, NY, 11209",59094120,"L"
62996,"145 ADAMS AVENUE","HAUPPAUGE","NY",11788,40.812627154,-73.255998424,496,"145 ADAMS AVENUE, HAUPPAUGE, NY, 11788","Match","Exact","145 ADAMS AVE, HAUPPAUGE, NY, 11788",114245952,"R"
62997,"145 AIRPORT RD","MANTEO","NC",27954,35.929678036,-75.6957762119999,497,"145 AIRPORT RD, MANTEO, NC, 27954","Match","Exact","145 AIRPORT RD, MANTEO, NC, 27954",81302152,"R"
62998,"145 AMMEL ROAD","WHITE RIVER JUNCTION","VT",5001,43.6878314960001,-72.365967063,498,"145 AMMEL ROAD, WHITE RIVER JUNCTION, VT, 5001","Match","Exact","145 AMMEL RD, WHITE RIVER JUNCTION, VT, 05001",139264132,"R"
62999,"145 ANDERSON ST APT 1","PORTLAND","ME",4101,43.6676832470001,-70.255717282,499,"145 ANDERSON ST APT 1, PORTLAND, ME, 4101","Match","Exact","145 ANDERSON ST, PORTLAND, ME, 04101",78028331,"R"
63000,"145 ANVIL STREET","FEEDING HILLS","MA",1030,42.073587763,-72.6813646369999,500,"145 ANVIL STREET, FEEDING HILLS, MA, 1030","Match","Exact","145 ANVIL ST, FEEDING HILLS, MA, 01030",4047065,"L"
