"ID","Address","City","State","Zip","lat","long","id","input_address","match_indicator","match_type","matched_address","tiger_line_id","tiger_side"
230501,"502 WEST HIGH STREET APARTMENT B","PEORIA","IL",61606,40.6984477780001,-89.600571727,1,"502 WEST HIGH STREET APARTMENT B, PEORIA, IL, 61606","Match","Exact","502 W HIGH ST, PEORIA, IL, 61606",8725858,"L"
230502,"502 WEST HIGHLAND DRIVE","WILLISTON","ND",58801,48.1560167760001,-103.630099221,2,"502 WEST HIGHLAND DRIVE, WILLISTON, ND, 58801","Match","Exact","502 W HIGHLAND DR, WILLISTON, ND, 58801",167738958,"R"
230503,"502 WEST MARKET STREET","POTTSVILLE","PA",17901,40.684224317,-76.19913001,3,"502 WEST MARKET STREET, POTTSVILLE, PA, 17901","Match","Exact","502 W MARKET ST, POTTSVILLE, PA, 17901",612772859,"L"
230504,"502 WEST MONTGOMERY 154","WILLIS","TX",77378,30.422929062,-95.484139108,4,"502 WEST MONTGOMERY 154, WILLIS, TX, 77378","Match","Non_Exact","502 W MONTGOMERY ST, WILLIS, TX, 77378",79274132,"L"
230505,"502 WEST RAILROAD STREET","MAHANOY CITY","PA",17948,40.8121971680001,-76.147199208,5,"502 WEST RAILROAD STREET, MAHANOY CITY, PA, 17948","Match","Exact","502 W RAILROAD ST, MAHANOY CITY, PA, 17948",70937242,"L"
230506,"502 WEST STATE STREET","O'FALLON","IL",62269,38.5925357850001,-89.918400078,6,"502 WEST STATE STREET, O'FALLON, IL, 62269","Match","Non_Exact","502 W STATE ST, O FALLON, IL, 62269",107843483,"R"
230507,"502 WEST STEWART ST","DAYTON","OH",45417,39.739997036,-84.200704391,7,"502 WEST STEWART ST, DAYTON, OH, 45417","Match","Exact","502 W STEWART ST, DAYTON, OH, 45417",143615424,"L"
230508,"502 WEST STEWART STREET","DAYTON","OH",45417,39.739997036,-84.200704391,8,"502 WEST STEWART STREET, DAYTON, OH, 45417","Match","Exact","502 W STEWART ST, DAYTON, OH, 45417",143615424,"L"
230509,"502","LA GRANGE PARK","IL",60526,NA,NA,9,"502, LA GRANGE PARK, IL, 60526","No_Match",NA,NA,NA,NA
230510,"5020 15TH ST SW","CANTON","OH",44710,40.7868303170001,-81.444146561,10,"5020 15TH ST SW, CANTON, OH, 44710","Match","Exact","5020 15TH ST SW, CANTON, OH, 44710",64675140,"L"
230511,"5020 5TH AVENUE UNIT 11","KEY WEST","FL",33040,24.5688187100001,-81.7456001319999,11,"5020 5TH AVENUE UNIT 11, KEY WEST, FL, 33040","Match","Exact","5020 5TH AVE, KEY WEST, FL, 33040",116476585,"R"
230512,"5020 ADDISON TRAIL","STATESBORO","GA",30458,32.474056827,-81.821331685,12,"5020 ADDISON TRAIL, STATESBORO, GA, 30458","Match","Exact","5020 ADDISON TRL, STATESBORO, GA, 30458",6159683,"R"
230513,"5020 BRYANT AVE N","MINNEAPOLIS","MN",55430,45.046167322,-93.291464216,13,"5020 BRYANT AVE N, MINNEAPOLIS, MN, 55430","Match","Exact","5020 BRYANT AVE N, MINNEAPOLIS, MN, 55430",43621772,"L"
230514,"5020 CLARK ROAD SUITE 130","SARASOTA","FL",34233,27.2690560500001,-82.4686433589999,14,"5020 CLARK ROAD SUITE 130, SARASOTA, FL, 34233","Match","Exact","5020 CLARK RD, SARASOTA, FL, 34233",16378877,"R"
230515,"5020 CLARK ROAD SUITE 208","SARASOTA","FL",34233,27.2690560500001,-82.4686433589999,15,"5020 CLARK ROAD SUITE 208, SARASOTA, FL, 34233","Match","Exact","5020 CLARK RD, SARASOTA, FL, 34233",16378877,"R"
230516,"5020 CLARK ROAD SUITE 414","SARASOTA","FL",34233,27.2690560500001,-82.4686433589999,16,"5020 CLARK ROAD SUITE 414, SARASOTA, FL, 34233","Match","Exact","5020 CLARK RD, SARASOTA, FL, 34233",16378877,"R"
230517,"5020 CONGRESS AVE","OAKLAND","CA",94601,37.7761849660001,-122.202250428,17,"5020 CONGRESS AVE, OAKLAND, CA, 94601","Match","Exact","5020 CONGRESS AVE, OAKLAND, CA, 94601",125007727,"L"
230518,"5020 CROMWELL DR  APT 726","KYLE","TX",78640,NA,NA,18,"5020 CROMWELL DR  APT 726, KYLE, TX, 78640","No_Match",NA,NA,NA,NA
230519,"5020 CYNDUR DR","LEWISVILLE","TX",75056,33.0650338310001,-96.8798477,19,"5020 CYNDUR DR, LEWISVILLE, TX, 75056","Match","Exact","5020 CYNDUR DR, LEWISVILLE, TX, 75056",647041593,"R"
230520,"5020 KLUMP AVE PH 621","NORTH HOLLWOOD","CA",91601,34.161360857,-118.375730215,20,"5020 KLUMP AVE PH 621, NORTH HOLLWOOD, CA, 91601","Match","Non_Exact","5020 KLUMP AVE, N HOLLYWOOD, CA, 91601",141565097,"R"
230521,"5020 LEPRECHAUN DR","DAVENPORT","IA",52807,41.5721462720001,-90.552509567,21,"5020 LEPRECHAUN DR, DAVENPORT, IA, 52807","Match","Exact","5020 LEPRECHAUN DR, DAVENPORT, IA, 52807",650855615,"L"
230522,"5020 LIONS CREST DR","LAKELAND","TN",38002,NA,NA,22,"5020 LIONS CREST DR, LAKELAND, TN, 38002","No_Match",NA,NA,NA,NA
230523,"5020 LIONS CREST DRIVE","LAKELAND","TN",38002,NA,NA,23,"5020 LIONS CREST DRIVE, LAKELAND, TN, 38002","No_Match",NA,NA,NA,NA
230524,"5020 MCCOY CIRCLE","CUMMING","GA",30040,34.2531491350001,-84.15697326,24,"5020 MCCOY CIRCLE, CUMMING, GA, 30040","Match","Exact","5020 MCCOY CIR, CUMMING, GA, 30040",627547095,"L"
230525,"5020 N HILLCREST DR","TUCSON","AZ",85704,32.298004727,-110.966038916,25,"5020 N HILLCREST DR, TUCSON, AZ, 85704","Match","Exact","5020 N HILLCREST DR, TUCSON, AZ, 85704",121166825,"R"
230526,"5020 N WOODRUFF AVE","WHITEFISH BAY","WI",53217,43.1078289640001,-87.8997351899999,26,"5020 N WOODRUFF AVE, WHITEFISH BAY, WI, 53217","Match","Exact","5020 N WOODRUFF AVE, WHITEFISH BAY, WI, 53217",77742848,"R"
230527,"5020 NE 58TH STREET","KANSAS CITY","MO",64119,39.1989541680001,-94.520654753,27,"5020 NE 58TH STREET, KANSAS CITY, MO, 64119","Match","Exact","5020 NE 58TH ST, KANSAS CITY, MO, 64119",89758294,"L"
230528,"5020 NE MARTIN LUTHER KING JR BLVD","PORTLAND","OR",97211,45.5593475800001,-122.661486657,28,"5020 NE MARTIN LUTHER KING JR BLVD, PORTLAND, OR, 97211","Match","Exact","5020 NE M L KING BLVD, PORTLAND, OR, 97211",157503852,"R"
230529,"5020 OBAMA BLVD 22","LOS ANGELES","CA",90016,34.021515499,-118.353207984,29,"5020 OBAMA BLVD 22, LOS ANGELES, CA, 90016","Match","Exact","5020 OBAMA BLVD, LOS ANGELES, CA, 90016",141601429,"L"
230530,"5020 OGONTZ AVE","PHILADELPHIA","PA",19141,40.0306594480001,-75.152987432,30,"5020 OGONTZ AVE, PHILADELPHIA, PA, 19141","Match","Exact","5020 OGONTZ AVE, PHILADELPHIA, PA, 19141",131416731,"L"
230531,"5020 OLD GREEN BAY ROAD","MOUNT PLEASANT","WI",53403,42.6708319460001,-87.867486202,31,"5020 OLD GREEN BAY ROAD, MOUNT PLEASANT, WI, 53403","Match","Non_Exact","5020 S GREEN BAY RD, MOUNT PLEASANT, WI, 53403",77936023,"R"
230532,"5020 OLIVE STREET","KANSAS CITY","MO",64130,39.035206524,-94.556988906,32,"5020 OLIVE STREET, KANSAS CITY, MO, 64130","Match","Exact","5020 OLIVE ST, KANSAS CITY, MO, 64130",91452415,"R"
230533,"5020 PORTILLO VALLEY DR","SAN RAMON","CA",94582,37.7384397910001,-121.917817909,33,"5020 PORTILLO VALLEY DR, SAN RAMON, CA, 94582","Match","Exact","5020 PORTILLO VALLEY DR, SAN RAMON, CA, 94582",192094013,"L"
230534,"5020 RANDOLPH STREET","PLANO","TX",75074,33.0071392200001,-96.6392194589999,34,"5020 RANDOLPH STREET, PLANO, TX, 75074","Match","Exact","5020 RANDOLPH ST, PLANO, TX, 75074",650618054,"R"
230535,"5020 RICAHRDS COURT","ELIZABETH","CO",80107,39.2635170460001,-104.569193332,35,"5020 RICAHRDS COURT, ELIZABETH, CO, 80107","Match","Non_Exact","5020 RICHARDS CT, ELIZABETH, CO, 80107",130881991,"R"
230536,"5020 S LAKESHORE DRIVE 2214N","CHICAGO","IL",60615,NA,NA,36,"5020 S LAKESHORE DRIVE 2214N, CHICAGO, IL, 60615","No_Match",NA,NA,NA,NA
230537,"5020 S LAKESHORE DRIVE","CHICAGO","IL",60615,41.8063667530001,-87.585260653,37,"5020 S LAKESHORE DRIVE, CHICAGO, IL, 60615","Match","Non_Exact","5020 S LAKE SHORE DR, CHICAGO, IL, 60615",638520189,"R"
230538,"5020 SE 30TH AVE ROOM 99","PORTLAND","OR",97202,45.4865972710001,-122.634331707,38,"5020 SE 30TH AVE ROOM 99, PORTLAND, OR, 97202","Match","Non_Exact","5020 SE 30TH AVE, PORTLAND, OR, 97202",157560854,"L"
230539,"5020 SMITH FARM ROAD","VIRGINIA BEACH","VA",23455,36.903699863,-76.148091743,39,"5020 SMITH FARM ROAD, VIRGINIA BEACH, VA, 23455","Match","Exact","5020 SMITH FARM RD, VIRGINIA BCH, VA, 23455",122259021,"R"
230540,"5020 SUNNYSIDE AVENUE SUITE 206","BELTSVILLE","MD",20705,39.0260960580001,-76.9193999349999,40,"5020 SUNNYSIDE AVENUE SUITE 206, BELTSVILLE, MD, 20705","Match","Exact","5020 SUNNYSIDE AVE, BELTSVILLE, MD, 20705",638057007,"L"
230541,"5020 UTICA STREET","METAIRIE","LA",70006,30.000665799,-90.193800274,41,"5020 UTICA STREET, METAIRIE, LA, 70006","Match","Non_Exact","5020 UTICA AVE, METAIRIE, LA, 70006",93499235,"L"
230542,"5020 W SUPERIOR STREET","CHICAGO","IL",60644,41.8940164480001,-87.751294622,42,"5020 W SUPERIOR STREET, CHICAGO, IL, 60644","Match","Exact","5020 W SUPERIOR ST, CHICAGO, IL, 60644",111758158,"R"
230543,"5020 WEST STREET","ERIE","PA",16509,42.076832129,-80.099719133,43,"5020 WEST STREET, ERIE, PA, 16509","Match","Exact","5020 WEST ST, ERIE, PA, 16509",117496093,"R"
230544,"5020 WHITTAKER DRIVE","KNOXVILLE","TN",37919,35.938812285,-83.986810534,44,"5020 WHITTAKER DRIVE, KNOXVILLE, TN, 37919","Match","Exact","5020 WHITTAKER DR, KNOXVILLE, TN, 37919",42616077,"L"
230545,"5020 YALE ROAD APT 4","MEMPHIS","TN",38128,35.2214523710001,-89.896016029,45,"5020 YALE ROAD APT 4, MEMPHIS, TN, 38128","Match","Exact","5020 YALE RD, MEMPHIS, TN, 38128",649759385,"L"
230546,"50200 ROAD 427","OAKHURST","CA",93644,NA,NA,46,"50200 ROAD 427, OAKHURST, CA, 93644","No_Match",NA,NA,NA,NA
230547,"5021 3RD STREET","SAN FRANCISCO","CA",94124,37.7330330830001,-122.391298552,47,"5021 3RD STREET, SAN FRANCISCO, CA, 94124","Match","Exact","5021 3RD ST, SAN FRANCISCO, CA, 94124",192300268,"L"
230548,"5021 BROOKHAVEN DR","NORTH ROYALTON","OH",44133,41.286611641,-81.7177625689999,48,"5021 BROOKHAVEN DR, NORTH ROYALTON, OH, 44133","Match","Exact","5021 BROOKHAVEN DR, N ROYALTON, OH, 44133",624056008,"R"
230549,"5021 CORO RD","MEMPHIS","TN",38109,NA,NA,49,"5021 CORO RD, MEMPHIS, TN, 38109","No_Match",NA,NA,NA,NA
230550,"5021 CURTIS CLARK DRIVE","CORPUS CHRISTI","TX",78411,27.707989286,-97.383062329,50,"5021 CURTIS CLARK DRIVE, CORPUS CHRISTI, TX, 78411","Match","Exact","5021 CURTIS CLARK DR, CORPUS CHRISTI, TX, 78411",178520201,"R"
230551,"5021 E VOLTAIRE AVE","SCOTTSDALE","AZ",85254,33.609750696,-111.972497923,51,"5021 E VOLTAIRE AVE, SCOTTSDALE, AZ, 85254","Match","Exact","5021 E VOLTAIRE AVE, SCOTTSDALE, AZ, 85254",128187639,"R"
230552,"5021 INDIAN SCHOOL NE SUITE 500","ALBUQUERQUE","NM",87110,35.101908355,-106.5893192,52,"5021 INDIAN SCHOOL NE SUITE 500, ALBUQUERQUE, NM, 87110","Match","Non_Exact","5021 INDIAN SCHOOL RD NE, ALBUQUERQUE, NM, 87110",206715799,"L"
230553,"5021 IONE DR","FORT WAYNE","IN",46835,41.143680208,-85.079132371,53,"5021 IONE DR, FORT WAYNE, IN, 46835","Match","Exact","5021 IONE DR, FORT WAYNE, IN, 46835",6384248,"L"
230554,"5021 MACAFEE RD","TORRANCE","CA",90505,33.81528509,-118.36677448,54,"5021 MACAFEE RD, TORRANCE, CA, 90505","Match","Exact","5021 MACAFEE RD, TORRANCE, CA, 90505",142756454,"R"
230555,"5021 MIDDLESEX DR","LOUISVILLE","KY",40245,38.3117832830001,-85.521976544,55,"5021 MIDDLESEX DR, LOUISVILLE, KY, 40245","Match","Exact","5021 MIDDLESEX DR, LOUISVILLE, KY, 40245",96935633,"R"
230556,"5021 MONTAUK TRAIL SE","OWENS CROSS ROADS","AL",35763,34.634960268,-86.488936307,56,"5021 MONTAUK TRAIL SE, OWENS CROSS ROADS, AL, 35763","Match","Non_Exact","5021 MONTAUK TRL, OWENS CROSS ROADS, AL, 35763",647636354,"L"
230557,"5021 MONTEGO BAY DR","IRVING","TX",75038,32.8763138520001,-96.998073818,57,"5021 MONTEGO BAY DR, IRVING, TX, 75038","Match","Exact","5021 MONTEGO BAY DR, IRVING, TX, 75038",103204882,"L"
230558,"5021 N 20TH ST 10101","PHOENIX","AZ",85064,NA,NA,58,"5021 N 20TH ST 10101, PHOENIX, AZ, 85064","No_Match",NA,NA,NA,NA
230559,"5021 N 20TH STREEET UNIT 32704","PHOENIX","AZ",85016,NA,NA,59,"5021 N 20TH STREEET UNIT 32704, PHOENIX, AZ, 85016","No_Match",NA,NA,NA,NA
230560,"5021 NORTH 20TH STREET NUMBER 45481","PHOENIX","AZ",85064,33.509719611,-112.038859233,60,"5021 NORTH 20TH STREET NUMBER 45481, PHOENIX, AZ, 85064","Match","Non_Exact","5021 N 20TH ST, PHOENIX, AZ, 85016",128936180,"R"
230561,"5021 RIPLEY LANE N","RENTON","WA",98056,47.5383790750001,-122.195358017,61,"5021 RIPLEY LANE N, RENTON, WA, 98056","Match","Exact","5021 RIPLEY LN N, RENTON, WA, 98056",647887989,"R"
230562,"5021 VERDUGO WAY 339","CAMARILLO","CA",93012,34.2148681790001,-119.002189797,62,"5021 VERDUGO WAY 339, CAMARILLO, CA, 93012","Match","Exact","5021 VERDUGO WAY, CAMARILLO, CA, 93012",109961692,"R"
230563,"5021 VERNON AVE","EDINA","MN",55436,44.9117587640001,-93.354725844,63,"5021 VERNON AVE, EDINA, MN, 55436","Match","Non_Exact","5021 VERNON AVE S, EDINA, MN, 55436",640002615,"L"
230564,"5021 W CONCORD PLACE","CHICAGO","IL",60639,41.9104666870001,-87.7517612409999,64,"5021 W CONCORD PLACE, CHICAGO, IL, 60639","Match","Exact","5021 W CONCORD PL, CHICAGO, IL, 60639",605039670,"L"
230565,"5021 W OAKLAND PARK BLVD 207","LAUDERDALE LAKES","FL",33313,26.1648495690001,-80.216358615,65,"5021 W OAKLAND PARK BLVD 207, LAUDERDALE LAKES, FL, 33313","Match","Non_Exact","5021 W OAKLAND PARK BLVD, LAUDERDALE LAKES, FL, 33313",618154006,"L"
230566,"5021 WEST CRESTVIEW DRIVE","TUCSON","AZ",85745,32.25445932,-111.070622292,66,"5021 WEST CRESTVIEW DRIVE, TUCSON, AZ, 85745","Match","Exact","5021 W CRESTVIEW DR, TUCSON, AZ, 85745",121240251,"R"
230567,"5021 WOODBERRY CT SE","BEMIDJI","MN",56601,47.412475726,-94.807331603,67,"5021 WOODBERRY CT SE, BEMIDJI, MN, 56601","Match","Exact","5021 WOODBERRY CT SE, BEMIDJI, MN, 56601",176406869,"R"
230568,"5021 WYNNEFORD WAY","RALEIGH","NC",27614,35.9143780530001,-78.618271173,68,"5021 WYNNEFORD WAY, RALEIGH, NC, 27614","Match","Exact","5021 WYNNEFORD WAY, RALEIGH, NC, 27614",208346377,"L"
230569,"5022 9TH AVE S","GULFPORT","FL",33707,27.7614271640001,-82.701454003,69,"5022 9TH AVE S, GULFPORT, FL, 33707","Match","Exact","5022 9TH AVE S, GULFPORT, FL, 33707",124781407,"L"
230570,"5022 ASHFORD DRIVE","UPPER MARLBORO","MD",20772,38.8202873980001,-76.816753085,70,"5022 ASHFORD DRIVE, UPPER MARLBORO, MD, 20772","Match","Exact","5022 ASHFORD DR, UPPER MARLBORO, MD, 20772",76343678,"L"
230571,"5022 DEARBORN ST","PITTSBURGH","PA",15224,40.4658553800001,-79.9436553199999,71,"5022 DEARBORN ST, PITTSBURGH, PA, 15224","Match","Exact","5022 DEARBORN ST, PITTSBURGH, PA, 15224",51644220,"R"
230572,"5022 DEVONSHIREMAVENUE","ST. LOUIS","MO",63109,NA,NA,72,"5022 DEVONSHIREMAVENUE, ST. LOUIS, MO, 63109","No_Match",NA,NA,NA,NA
230573,"5022 HAVENWOOD DRIVE","GREENSBURG","PA",15601,40.2849109850001,-79.470620044,73,"5022 HAVENWOOD DRIVE, GREENSBURG, PA, 15601","Match","Exact","5022 HAVENWOOD DR, GREENSBURG, PA, 15601",627073982,"L"
230574,"5022 KELLY CREEK STREET","MOODY","AL",35004,33.58394005,-86.463656605,74,"5022 KELLY CREEK STREET, MOODY, AL, 35004","Match","Exact","5022 KELLY CREEK ST, MOODY, AL, 35004",624848715,"R"
230575,"5022 KING DAVID BLVD","ANNANDALE","VA",22003,38.8143677510001,-77.260195628,75,"5022 KING DAVID BLVD, ANNANDALE, VA, 22003","Match","Exact","5022 KING DAVID BLVD, ANNANDALE, VA, 22003",636672490,"R"
230576,"5022 LOYOLA AVE","NEW ORLEANS","LA",70115,29.9320477200001,-90.108779043,76,"5022 LOYOLA AVE, NEW ORLEANS, LA, 70115","Match","Exact","5022 LOYOLA AVE, NEW ORLEANS, LA, 70115",191711626,"L"
230577,"5022 NAUTICA LAKE CIRCLE","LAKE WORTH","FL",33463,26.5982302190001,-80.123983611,77,"5022 NAUTICA LAKE CIRCLE, LAKE WORTH, FL, 33463","Match","Exact","5022 NAUTICA LAKE CIR, LAKE WORTH, FL, 33463",115531861,"L"
230578,"5022 PENNWAY ST","PHILADELPHIA","PA",19124,40.024989808,-75.1082271509999,78,"5022 PENNWAY ST, PHILADELPHIA, PA, 19124","Match","Exact","5022 PENNWAY ST, PHILADELPHIA, PA, 19124",131426507,"L"
230579,"5022 W AVE N SUITE 102 NUM 163","PALMDALE","CA",93536,NA,NA,79,"5022 W AVE N SUITE 102 NUM 163, PALMDALE, CA, 93536","No_Match",NA,NA,NA,NA
230580,"5022 WEST AVE N 102 56","PALMDALE","CA",93551,NA,NA,80,"5022 WEST AVE N 102 56, PALMDALE, CA, 93551","No_Match",NA,NA,NA,NA
230581,"50222 COOK RD","JACOBSBURG","OH",43933,39.9392324040001,-80.897100875,81,"50222 COOK RD, JACOBSBURG, OH, 43933","Match","Exact","50222 COOK RD, JACOBSBURG, OH, 43933",36202263,"R"
230582,"5023 ALTOGETHER WAY","CLARKSVILLE","MD",21029,39.2312152210001,-76.969673411,82,"5023 ALTOGETHER WAY, CLARKSVILLE, MD, 21029","Match","Exact","5023 ALTOGETHER WAY, CLARKSVILLE, MD, 21029",649176640,"L"
230583,"5023 BEECHCRAFT WAY","SEFFNER","FL",33584,27.9846357800001,-82.2927745599999,83,"5023 BEECHCRAFT WAY, SEFFNER, FL, 33584","Match","Exact","5023 BEECHCRAFT WAY, SEFFNER, FL, 33584",627968531,"R"
230584,"5023 BOOKER ST","CHESAPEAKE","VA",23320,36.7631832230001,-76.277635488,84,"5023 BOOKER ST, CHESAPEAKE, VA, 23320","Match","Exact","5023 BOOKER ST, CHESAPEAKE, VA, 23320",121771605,"R"
230585,"5023 CHADBOURNE","STERLING HEIGHTS","MI",48310,42.5571457780001,-83.057165369,85,"5023 CHADBOURNE, STERLING HEIGHTS, MI, 48310","Match","Non_Exact","5023 CHADBOURNE DR, STERLING HEIGHTS, MI, 48310",110668385,"L"
230586,"5023 CLEAR CREEK BLVD","FAYETTEVILLE","AR",72704,36.1294221200001,-94.1918613879999,86,"5023 CLEAR CREEK BLVD, FAYETTEVILLE, AR, 72704","Match","Exact","5023 CLEAR CREEK BLVD, FAYETTEVILLE, AR, 72704",614111597,"R"
230587,"5023 DUKE DR","TEMPLE","TX",76502,31.1193990310001,-97.3931307139999,87,"5023 DUKE DR, TEMPLE, TX, 76502","Match","Exact","5023 DUKE DR, TEMPLE, TX, 76502",633780605,"L"
230588,"5023 DUNWOODY TRAIL","RALEIGH","NC",27606,35.778983227,-78.707506272,88,"5023 DUNWOODY TRAIL, RALEIGH, NC, 27606","Match","Exact","5023 DUNWOODY TRL, RALEIGH, NC, 27606",72633122,"R"
230589,"5023 E 56TH STREET  SUITE 220","INDIANAPOLIS","IN",46226,39.8551326250001,-86.0859946529999,89,"5023 E 56TH STREET  SUITE 220, INDIANAPOLIS, IN, 46226","Match","Non_Exact","5023 E 56TH ST, INDIANAPOLIS, IN, 46226",649413278,"R"
230590,"5023 E TULARE","FRESNO","CA",93727,36.74318312,-119.725965471,90,"5023 E TULARE, FRESNO, CA, 93727","Match","Non_Exact","5023 E TULARE AVE, FRESNO, CA, 93727",197612533,"L"
230591,"5023 EDINBURGH LANE","WEST JORDAN","UT",84081,40.5987443920001,-112.010479116,91,"5023 EDINBURGH LANE, WEST JORDAN, UT, 84081","Match","Exact","5023 EDINBURGH LN, WEST JORDAN, UT, 84081",176121848,"L"
230592,"5023 FORESTGLADE BLVD","STONE MOUNTAIN","GA",30087,33.8443731300001,-84.183981162,92,"5023 FORESTGLADE BLVD, STONE MOUNTAIN, GA, 30087","Match","Exact","5023 FORESTGLADE BLVD, STONE MOUNTAIN, GA, 30087",23363816,"L"
230593,"5023 HINKLEVILLE ROAD","PADUCAH","KY",42001,37.0777373110001,-88.6832263489999,93,"5023 HINKLEVILLE ROAD, PADUCAH, KY, 42001","Match","Exact","5023 HINKLEVILLE RD, PADUCAH, KY, 42001",8408544,"L"
230594,"5023 MCCUE DRIVE","CHEYENNE","WY",82009,41.164584242,-104.811245787,94,"5023 MCCUE DRIVE, CHEYENNE, WY, 82009","Match","Exact","5023 MCCUE DR, CHEYENNE, WY, 82009",160147912,"R"
230595,"5023 N 18TH STREET STE 90","PHOENIX","AZ",85016,33.5102543620001,-112.043198231,95,"5023 N 18TH STREET STE 90, PHOENIX, AZ, 85016","Match","Non_Exact","5023 N 18TH ST, PHOENIX, AZ, 85016",128945925,"R"
230596,"5023 N W 57 TERRACE","CORAL SPRINGS","FL",33067,26.2953422250001,-80.2044453679999,96,"5023 N W 57 TERRACE, CORAL SPRINGS, FL, 33067","Match","Exact","5023 NW 57TH TER, CORAL SPRINGS, FL, 33067",114791723,"L"
230597,"5023 PARKWAY CALABASAS","CALABASAS","CA",91302,34.1547757290001,-118.654394273,97,"5023 PARKWAY CALABASAS, CALABASAS, CA, 91302","Match","Exact","5023 PARKWAY CALABASAS, CALABASAS, CA, 91302",241248081,"L"
230598,"5023 S 300TH PL","AUBURN","WA",98001,47.3326921920001,-122.27180337,98,"5023 S 300TH PL, AUBURN, WA, 98001","Match","Exact","5023 S 300TH PL, AUBURN, WA, 98001",186650674,"R"
230599,"5023 W 112TH ST","INGLEWOOD","CA",90304,33.9327882000001,-118.365186417,99,"5023 W 112TH ST, INGLEWOOD, CA, 90304","Match","Exact","5023 W 112TH ST, INGLEWOOD, CA, 90304",142750974,"R"
230600,"5023 W 120TH AVE NO 336","BROOMFIELD","CO",80020,NA,NA,100,"5023 W 120TH AVE NO 336, BROOMFIELD, CO, 80020","No_Match",NA,NA,NA,NA
230601,"5023 WASHINGTON BLVD","ARLINGTON","VA",22205,38.885170225,-77.123894284,101,"5023 WASHINGTON BLVD, ARLINGTON, VA, 22205","Match","Exact","5023 WASHINGTON BLVD, ARLINGTON, VA, 22205",76468442,"R"
230602,"5023 WEDDINGTON MATTHEWS ROAD","WEDDINGTON","NC",28104,35.0403614370001,-80.740772383,102,"5023 WEDDINGTON MATTHEWS ROAD, WEDDINGTON, NC, 28104","Match","Exact","5023 WEDDINGTON MATTHEWS RD, WEDDINGTON, NC, 28104",14190015,"R"
230603,"5023 WEST 120TH AVE PMB 252","BROOMFIELD","CO",80020,39.914228752,-105.051024197,103,"5023 WEST 120TH AVE PMB 252, BROOMFIELD, CO, 80020","Match","Exact","5023 W 120TH AVE, BROOMFIELD, CO, 80020",645116433,"R"
230604,"5023 WEST 120TH AVENUE PMB 251","BROOMFIELD","CO",80020,39.914228752,-105.051024197,104,"5023 WEST 120TH AVENUE PMB 251, BROOMFIELD, CO, 80020","Match","Exact","5023 W 120TH AVE, BROOMFIELD, CO, 80020",645116433,"R"
230605,"5023 WEST 64TH PLACE","CHICAGO","IL",60638,41.775205741,-87.748355251,105,"5023 WEST 64TH PLACE, CHICAGO, IL, 60638","Match","Exact","5023 W 64TH PL, CHICAGO, IL, 60638",111815689,"L"
230606,"5023 WEST LEILA LANE","HERRIMAN","UT",84096,40.492416389,-112.009868115,106,"5023 WEST LEILA LANE, HERRIMAN, UT, 84096","Match","Non_Exact","5023 LEILA LN, HERRIMAN, UT, 84096",617482560,"L"
230607,"5024 20TH ST","ZEPHYRHILS","FL",33542,28.230497884,-82.1715674819999,107,"5024 20TH ST, ZEPHYRHILS, FL, 33542","Match","Non_Exact","5024 20TH ST, ZEPHYRHILLS, FL, 33542",86355199,"R"
230608,"5024 2ND ST NW   APT 2","WASHINGTON","DC",20011,38.9514614600001,-77.013428424,108,"5024 2ND ST NW   APT 2, WASHINGTON, DC, 20011","Match","Exact","5024 2ND ST NW, WASHINGTON, DC, 20011",76223797,"L"
230609,"5024 37TH AVENUE SOUTH","MINNEAAPOLIS","MN",55417,44.9121021670001,-93.219026667,109,"5024 37TH AVENUE SOUTH, MINNEAAPOLIS, MN, 55417","Match","Non_Exact","5024 37TH AVE S, MINNEAPOLIS, MN, 55417",43640738,"R"
230610,"5024 37TH ST E","BRADENTON","FL",34203,27.4507061800001,-82.516179161,110,"5024 37TH ST E, BRADENTON, FL, 34203","Match","Exact","5024 37TH ST E, BRADENTON, FL, 34203",16277149,"R"
230611,"5024 BLACK OAK LN","RIVER OAKS","TX",76114,32.7734394980001,-97.3957230939999,111,"5024 BLACK OAK LN, RIVER OAKS, TX, 76114","Match","Exact","5024 BLACK OAK LN, RIVER OAKS, TX, 76114",101853464,"R"
230612,"5024 CAMPBELL BLVD SUITE K","NOTTINGHAM","MD",21236,39.3730812150001,-76.458272602,112,"5024 CAMPBELL BLVD SUITE K, NOTTINGHAM, MD, 21236","Match","Exact","5024 CAMPBELL BLVD, NOTTINGHAM, MD, 21236",191526360,"L"
230613,"5024 CHANDELLE DR","PENSACOLA","FL",32507,30.32714521,-87.386884543,113,"5024 CHANDELLE DR, PENSACOLA, FL, 32507","Match","Exact","5024 CHANDELLE DR, PENSACOLA, FL, 32507",93273688,"R"
230614,"5024 HILDRING DR APT E -145","FORT WORTH","TX",76132,32.6742563290001,-97.382570949,114,"5024 HILDRING DR APT E -145, FORT WORTH, TX, 76132","Match","Non_Exact","5024 HILDRING DR E, FORT WORTH, TX, 76132",101886591,"R"
230615,"5024 HOLTER ROAD","JEFFERSON","MD",21755,39.3710844990001,-77.523525719,115,"5024 HOLTER ROAD, JEFFERSON, MD, 21755","Match","Exact","5024 HOLTER RD, JEFFERSON, MD, 21755",630533880,"L"
230616,"5024 LONESOME SPUR AVE","LAS VEGAS","NV",89131,36.312804763,-115.210189063,116,"5024 LONESOME SPUR AVE, LAS VEGAS, NV, 89131","Match","Exact","5024 LONESOME SPUR AVE, LAS VEGAS, NV, 89131",612683922,"R"
230617,"5024 MANDURIA STREET","ORLANDO","FL",32812,28.452755429,-81.4478857139999,117,"5024 MANDURIA STREET, ORLANDO, FL, 32812","Match","Non_Exact","5024 MANDURIA ST, ORLANDO, FL, 32819",94289553,"L"
230618,"5024 N WOODBRIDGE TRL","STONE MOUNTAIN","GA",30088,33.7805240500001,-84.182269777,118,"5024 N WOODBRIDGE TRL, STONE MOUNTAIN, GA, 30088","Match","Exact","5024 N WOODBRIDGE TRL, STONE MOUNTAIN, GA, 30088",23386703,"R"
230619,"5024 ROLAND RD","PACE","FL",32571,30.6208254960001,-87.190818908,119,"5024 ROLAND RD, PACE, FL, 32571","Match","Exact","5024 ROLAND RD, PACE, FL, 32571",74567175,"R"
230620,"5024 S WILTON PL","LOS ANGELES","CA",90062,33.9972799290001,-118.314916804,120,"5024 S WILTON PL, LOS ANGELES, CA, 90062","Match","Exact","5024 S WILTON PL, LOS ANGELES, CA, 90062",141606449,"L"
230621,"5024 SOUTH ASH AVENUE STE 109","TEMPE","AZ",85282,33.380159135,-111.941718952,121,"5024 SOUTH ASH AVENUE STE 109, TEMPE, AZ, 85282","Match","Exact","5024 S ASH AVE, TEMPE, AZ, 85282",128237307,"R"
230622,"5024 W BELMONT AVE","GLENDALE","AZ",85301,33.5479406170001,-112.167519037,122,"5024 W BELMONT AVE, GLENDALE, AZ, 85301","Match","Exact","5024 W BELMONT AVE, GLENDALE, AZ, 85301",128196329,"R"
230623,"50247 PASEO CADIZ","COACHELLA","CA",92236,33.6818243290001,-116.197418497,123,"50247 PASEO CADIZ, COACHELLA, CA, 92236","Match","Non_Exact","50247 PSO CADIZ, COACHELLA, CA, 92236",641280245,"L"
230624,"5025 BROADWAY APT 1G","NEW YORK","NY",10034,40.8692535770001,-73.916876524,124,"5025 BROADWAY APT 1G, NEW YORK, NY, 10034","Match","Exact","5025 BROADWAY, NEW YORK, NY, 10034",59664666,"L"
230625,"5025 CAROL ST","SKOKIE","IL",60077,42.0399020500001,-87.7533074839999,125,"5025 CAROL ST, SKOKIE, IL, 60077","Match","Exact","5025 CAROL ST, SKOKIE, IL, 60077",111739006,"L"
230626,"5025 E BLUEFIELD AVE","SCOTTSDALE","AZ",85254,33.652922554,-111.971729127,126,"5025 E BLUEFIELD AVE, SCOTTSDALE, AZ, 85254","Match","Exact","5025 E BLUEFIELD AVE, SCOTTSDALE, AZ, 85254",128587592,"R"
230627,"5025 E KELLOGG DRIVE SUITE 100","WICHITA","KS",67218,NA,NA,127,"5025 E KELLOGG DRIVE SUITE 100, WICHITA, KS, 67218","No_Match",NA,NA,NA,NA
230628,"5025 EAST STREET","SAGINAW","MI",48601,43.350501464,-83.954432406,128,"5025 EAST STREET, SAGINAW, MI, 48601","Match","Non_Exact","5025 EAST RD, SAGINAW, MI, 48601",80216390,"L"
230629,"5025 GLENDALE AVE","TOLEDO","OH",43614,41.6046370700001,-83.661380948,129,"5025 GLENDALE AVE, TOLEDO, OH, 43614","Match","Exact","5025 GLENDALE AVE, TOLEDO, OH, 43614",33957481,"L"
230630,"5025 HI-VIEW AVENUE","SHREWSBURY","MO",63119,38.58741952,-90.322576904,130,"5025 HI-VIEW AVENUE, SHREWSBURY, MO, 63119","Match","Non_Exact","5025 HI VIEW AVE, WEBSTER GROVES, MO, 63119",100141617,"R"
230631,"5025 HILLSBORO PIKE APT 22F","NASHVILLE","TN",37215,36.097822369,-86.823026758,131,"5025 HILLSBORO PIKE APT 22F, NASHVILLE, TN, 37215","Match","Exact","5025 HILLSBORO PIKE, NASHVILLE, TN, 37215",97190199,"L"
230632,"5025 J ST SUITE SUITE 208","SACRAMENTO","CA",95819,38.5666496910001,-121.4422616,132,"5025 J ST SUITE SUITE 208, SACRAMENTO, CA, 95819","Match","Exact","5025 J ST, SACRAMENTO, CA, 95819",133334849,"L"
230633,"5025 JETSAIL DR","ORLANDO","FL",32812,28.516097116,-81.3235164009999,133,"5025 JETSAIL DR, ORLANDO, FL, 32812","Match","Exact","5025 JETSAIL DR, ORLANDO, FL, 32812",631984339,"R"
230634,"5025 LEESHIRE TRAIL","TUCKER","GA",30084,33.8642072270001,-84.1835607099999,134,"5025 LEESHIRE TRAIL, TUCKER, GA, 30084","Match","Exact","5025 LEESHIRE TRL, TUCKER, GA, 30084",23385920,"R"
230635,"5025 N CENTRAL AVE 277","PHOENIX","AZ",85012,33.509651025,-112.073733445,135,"5025 N CENTRAL AVE 277, PHOENIX, AZ, 85012","Match","Non_Exact","5025 N CENTRAL AVE, PHOENIX, AZ, 85012",128208655,"R"
230636,"5025 NORTH CENTRAL AVENUE / 467","PHOENIX","AZ",85012,33.5096457010001,-112.073733479,136,"5025 NORTH CENTRAL AVENUE / 467, PHOENIX, AZ, 85012","Match","Exact","5025 N CENTRAL AVE, PHOENIX, AZ, 85012",128208655,"R"
230637,"5025 OLD MIDDLETON ROAD","MADISON","WI",53705,43.0744421520001,-89.46561064,137,"5025 OLD MIDDLETON ROAD, MADISON, WI, 53705","Match","Exact","5025 OLD MIDDLETON RD, MADISON, WI, 53705",49467175,"L"
230638,"5025 PIERCE ROAD","COLUMBUS","GA",31907,32.448145977,-84.905400841,138,"5025 PIERCE ROAD, COLUMBUS, GA, 31907","Match","Exact","5025 PIERCE RD, COLUMBUS, GA, 31907",98943593,"L"
230639,"5025 RADAR ROAD","HERMANTOWN","MN",55811,46.8004135370001,-92.207440166,139,"5025 RADAR ROAD, HERMANTOWN, MN, 55811","Match","Exact","5025 RADAR RD, HERMANTOWN, MN, 55811",163208234,"R"
230640,"5025 S 116TH STREET","GREENFIELD","WI",53228,42.952206039,-88.05794086,140,"5025 S 116TH STREET, GREENFIELD, WI, 53228","Match","Exact","5025 S 116TH ST, GREENFIELD, WI, 53228",77746481,"R"
230641,"5025 S ASH AVE - SUITE B15","TEMPE","AZ",85282,33.379367825,-111.941505612,141,"5025 S ASH AVE - SUITE B15, TEMPE, AZ, 85282","Match","Non_Exact","5025 S ASH AVE, TEMPE, AZ, 85282",128237307,"L"
230642,"5025 SOUTH CENTRAL AVENUE","PHOENIX","AZ",85040,33.401173704,-112.07332861,142,"5025 SOUTH CENTRAL AVENUE, PHOENIX, AZ, 85040","Match","Exact","5025 S CENTRAL AVE, PHOENIX, AZ, 85040",633220090,"L"
230643,"5025 TARA TEA DRIVE","TEGA CAY","SC",29708,35.0344329010001,-81.022744145,143,"5025 TARA TEA DRIVE, TEGA CAY, SC, 29708","Match","Exact","5025 TARA TEA DR, TEGA CAY, SC, 29708",19789350,"R"
230644,"5025 THACHER RD","OJAI","CA",93023,NA,NA,144,"5025 THACHER RD, OJAI, CA, 93023","No_Match",NA,NA,NA,NA
230645,"5025 VANE CIR","OMAHA","NE",68152,41.3225868490001,-95.9920661949999,145,"5025 VANE CIR, OMAHA, NE, 68152","Match","Exact","5025 VANE CIR, OMAHA, NE, 68152",116976876,"L"
230646,"5025 W MARY COURT","VISALIA","CA",93277,36.310016713,-119.345928149,146,"5025 W MARY COURT, VISALIA, CA, 93277","Match","Exact","5025 W MARY CT, VISALIA, CA, 93277",607602419,"L"
230647,"5025A BACKLICK RD","ANNANDALE","VA",22003,38.8151296620001,-77.1866902259999,147,"5025A BACKLICK RD, ANNANDALE, VA, 22003","Match","Exact","5025 BACKLICK RD, ANNANDALE, VA, 22003",75980698,"L"
230648,"5026 90TH STREET EAST","NORTHFIELD","MN",55057,44.455623846,-93.200594472,148,"5026 90TH STREET EAST, NORTHFIELD, MN, 55057","Match","Exact","5026 90TH ST E, NORTHFIELD, MN, 55057",37335567,"R"
230649,"5026 93RD AVE N","BROOKLYN PARK","MN",55443,45.1231455880001,-93.3438762489999,149,"5026 93RD AVE N, BROOKLYN PARK, MN, 55443","Match","Non_Exact","5026 93RD AVE, BROOKLYN PARK, MN, 55443",626282873,"L"
230650,"5026 ARBOR LAKE DRIVE","MEMPHIS","TN",38141,35.0120270950001,-89.834143432,150,"5026 ARBOR LAKE DRIVE, MEMPHIS, TN, 38141","Match","Exact","5026 ARBOR LAKE DR, MEMPHIS, TN, 38141",72973929,"L"
230651,"5026 BRITTANY DRIVE","STONE MOUNTAIN","GA",30083,33.8006218370001,-84.183754976,151,"5026 BRITTANY DRIVE, STONE MOUNTAIN, GA, 30083","Match","Exact","5026 BRITTANY DR, STONE MOUNTAIN, GA, 30083",23377861,"L"
230652,"5026 BROAD BROOK RD","SOUTH ROYALTON","VT",5068,43.749191222,-72.5415385429999,152,"5026 BROAD BROOK RD, SOUTH ROYALTON, VT, 5068","Match","Exact","5026 BROAD BROOK RD, S ROYALTON, VT, 05068",139235880,"L"
230653,"5026 CONSTELLATION AVE NE","SALEM","OR",97305,NA,NA,153,"5026 CONSTELLATION AVE NE, SALEM, OR, 97305","No_Match",NA,NA,NA,NA
230654,"5026 DOCKSIDE COURT","WEDDINGTON","NC",28104,35.0152672900001,-80.738502672,154,"5026 DOCKSIDE COURT, WEDDINGTON, NC, 28104","Match","Exact","5026 DOCKSIDE CT, WEDDINGTON, NC, 28104",618499041,"R"
230655,"5026 EAST DALE ROAD","CAVE CREEK","AZ",85331,33.747278023,-111.973062512,155,"5026 EAST DALE ROAD, CAVE CREEK, AZ, 85331","Match","Non_Exact","5026 E DALE LN, CAVE CREEK, AZ, 85331",128604487,"R"
230656,"5026 LONGHORN RIVER","CONVERSE","TX",78109,29.4756493140001,-98.304283181,156,"5026 LONGHORN RIVER, CONVERSE, TX, 78109","Match","Exact","5026 LONGHORN RIVER, CONVERSE, TX, 78109",653704562,"R"
230657,"5026 NORTHFIELD DR","SAN ANTONIO","TX",78228,29.4853214570001,-98.587183297,157,"5026 NORTHFIELD DR, SAN ANTONIO, TX, 78228","Match","Exact","5026 NORTHFIELD DR, SAN ANTONIO, TX, 78228",101509123,"L"
230658,"5026 S STONECREEK BLVD","GILBERT","AZ",85298,33.2588954070001,-111.760616696,158,"5026 S STONECREEK BLVD, GILBERT, AZ, 85298","Match","Exact","5026 S STONECREEK BLVD, GILBERT, AZ, 85298",128874253,"R"
230659,"5026 S VENTURA ST","AURORA","CO",80015,39.625487664,-104.779098912,159,"5026 S VENTURA ST, AURORA, CO, 80015","Match","Exact","5026 S VENTURA ST, AURORA, CO, 80015",177359842,"L"
230660,"5026 SABRELINE TERRACE","GREEN ACRES","FL",33463,26.597079744,-80.128205764,160,"5026 SABRELINE TERRACE, GREEN ACRES, FL, 33463","Match","Non_Exact","5026 SABRELINE TER, GREENACRES, FL, 33463",115531917,"R"
230661,"5026 SNAPFINGER WOODS DRIVE DECATUR","DECATUR","GA",30035,NA,NA,161,"5026 SNAPFINGER WOODS DRIVE DECATUR, DECATUR, GA, 30035","No_Match",NA,NA,NA,NA
230662,"5026 WHITFIELD CT","SUMMERVILLE","SC",29485,32.97100864,-80.244281132,162,"5026 WHITFIELD CT, SUMMERVILLE, SC, 29485","Match","Exact","5026 WHITFIELD CT, SUMMERVILLE, SC, 29485",636273762,"R"
230663,"5026 WINDING HILLS LANE","WOODSTOCK","GA",30189,34.129202256,-84.543602785,163,"5026 WINDING HILLS LANE, WOODSTOCK, GA, 30189","Match","Exact","5026 WINDING HILLS LN, WOODSTOCK, GA, 30189",68842890,"R"
230664,"5026","LOUISVILLE","KY",40214,NA,NA,164,"5026, LOUISVILLE, KY, 40214","No_Match",NA,NA,NA,NA
230665,"50260 85TH ST W","LANCASTER","CA",93536,NA,NA,165,"50260 85TH ST W, LANCASTER, CA, 93536","No_Match",NA,NA,NA,NA
230666,"5027 ALLISON LANE","FORT SMITH","AR",72901,35.3347932460001,-94.408807614,166,"5027 ALLISON LANE, FORT SMITH, AR, 72901","Match","Exact","5027 ALLISON LN, FORT SMITH, AR, 72901",56169254,"R"
230667,"5027 COVEVIEW COURT","SAINT CLOUD","FL",34771,28.3234985710001,-81.242298706,167,"5027 COVEVIEW COURT, SAINT CLOUD, FL, 34771","Match","Exact","5027 COVEVIEW CT, SAINT CLOUD, FL, 34771",176698078,"R"
230668,"5027 E ROBERTS RD","AVON PARK","FL",33825,27.5918901790001,-81.416442352,168,"5027 E ROBERTS RD, AVON PARK, FL, 33825","Match","Exact","5027 E ROBERTS RD, AVON PARK, FL, 33825",4654137,"L"
230669,"5027 ILLINOIS AVE NW","WASHINGTON","MI",20011,NA,NA,169,"5027 ILLINOIS AVE NW, WASHINGTON, MI, 20011","No_Match",NA,NA,NA,NA
230670,"5027 LA PREMIERE DR","MAURICE","LA",70555,30.0756392550001,-92.1435931949999,170,"5027 LA PREMIERE DR, MAURICE, LA, 70555","Match","Non_Exact","5027 LAPREMIERRE DR, MAURICE, LA, 70555",85990141,"L"
230671,"5027 NAUTICA LAKE CIR","GREENACRES","FL",33463,26.598242145,-80.1240264429999,171,"5027 NAUTICA LAKE CIR, GREENACRES, FL, 33463","Match","Exact","5027 NAUTICA LAKE CIR, GREENACRES, FL, 33463",115531861,"R"
230672,"5027 PACES STATION DR","ATLANTA","GA",30339,33.8560551640001,-84.476375291,172,"5027 PACES STATION DR, ATLANTA, GA, 30339","Match","Exact","5027 PACES STATION DR, ATLANTA, GA, 30339",639154114,"R"
230673,"5027 S PASADENA RD","FORT MOHAVE","AZ",86426,35.0079715000001,-114.603088259,173,"5027 S PASADENA RD, FORT MOHAVE, AZ, 86426","Match","Exact","5027 PASADENA RD, FORT MOHAVE, AZ, 86426",190318070,"L"
230674,"5027 W NORTH AVE","MILWAUKEE","WI",53208,43.0606462310001,-87.976561348,174,"5027 W NORTH AVE, MILWAUKEE, WI, 53208","Match","Exact","5027 W NORTH AVE, MILWAUKEE, WI, 53208",77732084,"L"
230675,"5027 WHITEWATER WAY","ST CLOUD","FL",34771,28.321645446,-81.240916445,175,"5027 WHITEWATER WAY, ST CLOUD, FL, 34771","Match","Exact","5027 WHITEWATER WAY, SAINT CLOUD, FL, 34771",176698058,"L"
230676,"5028 157TH AVE SE","BELLEVUE","WA",98006,47.557343358,-122.130339576,176,"5028 157TH AVE SE, BELLEVUE, WA, 98006","Match","Exact","5028 157TH AVE SE, BELLEVUE, WA, 98006",186615477,"L"
230677,"5028 CHAMPIONS DR","LUFKIN","TX",75901,31.2821650280001,-94.729673882,177,"5028 CHAMPIONS DR, LUFKIN, TX, 75901","Match","Exact","5028 CHAMPIONS DR, LUFKIN, TX, 75901",23870686,"R"
230678,"5028 CYPRESS LAKE DR","LAKE PARK","GA",31636,30.666848202,-83.240918097,178,"5028 CYPRESS LAKE DR, LAKE PARK, GA, 31636","Match","Exact","5028 CYPRESS LAKE DR, LAKE PARK, GA, 31636",87731603,"R"
230679,"5028 KENS CT","STOCKBRIDGE","GA",30281,33.5430551630001,-84.257415909,179,"5028 KENS CT, STOCKBRIDGE, GA, 30281","Match","Exact","5028 KENS CT, STOCKBRIDGE, GA, 30281",629841585,"R"
230680,"5028 LEATHERBACK ROAD","WOODBRIDGE","VA",22193,38.623364123,-77.360713554,180,"5028 LEATHERBACK ROAD, WOODBRIDGE, VA, 22193","Match","Exact","5028 LEATHERBACK RD, WOODBRIDGE, VA, 22193",207143565,"L"
230681,"5028 LEE ST","SKOKIE","IL",60077,42.035383778,-87.753365751,181,"5028 LEE ST, SKOKIE, IL, 60077","Match","Exact","5028 LEE ST, SKOKIE, IL, 60077",111739015,"R"
230682,"5028 MEADOWLAKE DRIVE","RICHTON PARK","IL",60471,41.489360248,-87.739837462,182,"5028 MEADOWLAKE DRIVE, RICHTON PARK, IL, 60471","Match","Non_Exact","5028 MEADOW LAKE DR, RICHTON PARK, IL, 60471",112203610,"R"
230683,"5028 MESA RIDGE DRIVE","ANTIOCH","CA",94531,37.961645047,-121.805007722,183,"5028 MESA RIDGE DRIVE, ANTIOCH, CA, 94531","Match","Exact","5028 MESA RIDGE DR, ANTIOCH, CA, 94531",192100358,"R"
230684,"5028 MISTY MORN RD","PALM BEACH GARDENS","FL",33418,26.7873911190001,-80.116474986,184,"5028 MISTY MORN RD, PALM BEACH GARDENS, FL, 33418","Match","Exact","5028 MISTY MORN RD, PALM BEACH GARDENS, FL, 33418",115580082,"R"
230685,"5028 N 38TH STREET","MILWAUKEE","WI",53209,43.1087767080001,-87.9601951929999,185,"5028 N 38TH STREET, MILWAUKEE, WI, 53209","Match","Exact","5028 N 38TH ST, MILWAUKEE, WI, 53209",77737274,"R"
230686,"5028 PALLAS CT","FORT WORTH","TX",76123,32.61989039,-97.401179411,186,"5028 PALLAS CT, FORT WORTH, TX, 76123","Match","Exact","5028 PALLAS CT, FORT WORTH, TX, 76123",619865668,"R"
230687,"5028 ROBERTS","THE COLONY","TX",75056,33.0940953050001,-96.885297185,187,"5028 ROBERTS, THE COLONY, TX, 75056","Match","Non_Exact","5028 ROBERTS DR, THE COLONY, TX, 75056",103350730,"R"
230688,"5028 ROMAINE CREEK DRIVE","ARNOLD","MO",63026,NA,NA,188,"5028 ROMAINE CREEK DRIVE, ARNOLD, MO, 63026","No_Match",NA,NA,NA,NA
230689,"5028 ROMAINE SPRING DR","FENTON","MO",63026,38.461735321,-90.452046566,189,"5028 ROMAINE SPRING DR, FENTON, MO, 63026","Match","Exact","5028 ROMAINE SPRING DR, FENTON, MO, 63026",607909150,"L"
230690,"5028 S FLANDERS CT","CENTENNIAL","CO",80015,39.6251530370001,-104.759300159,190,"5028 S FLANDERS CT, CENTENNIAL, CO, 80015","Match","Exact","5028 S FLANDERS CT, CENTENNIAL, CO, 80015",177360050,"L"
230691,"5028 STAGECOACH WAY","GRAND PRAIRIE","TX",75052,32.651352946,-97.00847849,191,"5028 STAGECOACH WAY, GRAND PRAIRIE, TX, 75052","Match","Exact","5028 STAGECOACH WAY, GRAND PRAIRIE, TX, 75052",103218724,"L"
230692,"5028 SUNSET WAY","HERMITAGE","TN",37076,36.1909981260001,-86.591392465,192,"5028 SUNSET WAY, HERMITAGE, TN, 37076","Match","Exact","5028 SUNSET WAY, HERMITAGE, TN, 37076",97214084,"R"
230693,"5028 WISCONSIN AVENUE NW SUITE 100","WASHINGTON","DC",20016,38.955102256,-77.08283893,193,"5028 WISCONSIN AVENUE NW SUITE 100, WASHINGTON, DC, 20016","Match","Exact","5028 WISCONSIN AVE NW, WASHINGTON, DC, 20016",76219683,"L"
230694,"5029 BRIAN DRIVE","PARKER","CO",80134,39.500313852,-104.79314935,194,"5029 BRIAN DRIVE, PARKER, CO, 80134","Match","Exact","5029 BRIAN DR, PARKER, CO, 80134",604920459,"L"
230695,"5029 BRISTOL CT","LOVELAND","OH",45140,39.273158838,-84.304064177,195,"5029 BRISTOL CT, LOVELAND, OH, 45140","Match","Exact","5029 BRISTOL CT, LOVELAND, OH, 45140",103957497,"R"
230696,"5029 CHICAGO AVE","FAIR OAKS","CA",95628,38.6569480530001,-121.25511829,196,"5029 CHICAGO AVE, FAIR OAKS, CA, 95628","Match","Exact","5029 CHICAGO AVE, FAIR OAKS, CA, 95628",133426483,"L"
230697,"5029 CIMARRON STREET","LOS ANGELES","CA",90062,33.997243321,-118.316025744,197,"5029 CIMARRON STREET, LOS ANGELES, CA, 90062","Match","Exact","5029 CIMARRON ST, LOS ANGELES, CA, 90062",141606446,"R"
230698,"5029 CONCORD ROAD","HILLSBORO","OH",45133,39.148927358,-83.625076689,198,"5029 CONCORD ROAD, HILLSBORO, OH, 45133","Match","Exact","5029 CONCORD RD, HILLSBORO, OH, 45133",101061889,"L"
230699,"5029 E STATE ROAD 54","BLOOMFIELD","IN",47424,39.040629332,-86.84737882,199,"5029 E STATE ROAD 54, BLOOMFIELD, IN, 47424","Match","Exact","5029 STATE RD 54, BLOOMFIELD, IN, 47424",39309166,"L"
230700,"5029 FAIRFAX AVENUE","OAKLAND","CA",94601,37.7763244710001,-122.201148346,200,"5029 FAIRFAX AVENUE, OAKLAND, CA, 94601","Match","Exact","5029 FAIRFAX AVE, OAKLAND, CA, 94601",125007729,"R"
230701,"5029 HUMBOLDT AVE N","MINNEAPOLIS","MN",55430,45.047213974,-93.299622916,201,"5029 HUMBOLDT AVE N, MINNEAPOLIS, MN, 55430","Match","Exact","5029 HUMBOLDT AVE N, MINNEAPOLIS, MN, 55430",644519072,"R"
230702,"5029 KENTON ROYALLE","SAN ANTONIO","TX",78240,29.522955987,-98.5877537649999,202,"5029 KENTON ROYALLE, SAN ANTONIO, TX, 78240","Match","Exact","5029 KENTON ROYALLE, SAN ANTONIO, TX, 78240",101580269,"R"
230703,"5029 LENOX NEW LYME RD","JEFFERSON","OH",44047,41.6150943870001,-80.763004173,203,"5029 LENOX NEW LYME RD, JEFFERSON, OH, 44047","Match","Exact","5029 LENOX NEW LYME RD, JEFFERSON, OH, 44047",117321734,"L"
230704,"5029 MILL STREAM RD","OCOEE","FL",34761,28.603241392,-81.504987566,204,"5029 MILL STREAM RD, OCOEE, FL, 34761","Match","Exact","5029 MILL STREAM RD, OCOEE, FL, 34761",94341798,"L"
230705,"5029 OXFORDSHIRE ROAD","WEDDINGTON","NC",28173,35.0072938280001,-80.758436457,205,"5029 OXFORDSHIRE ROAD, WEDDINGTON, NC, 28173","Match","Non_Exact","5029 OXFORDSHIRE RD, MARVIN, NC, 28173",14220243,"R"
230706,"5029 REDWOOD COURT","WEST BLOOMFIELD","MI",48323,42.564065865,-83.3657557,206,"5029 REDWOOD COURT, WEST BLOOMFIELD, MI, 48323","Match","Exact","5029 REDWOOD CT, W BLOOMFIELD, MI, 48323",69760234,"R"
230707,"5029 S VERMONT AVENUE","LOS ANGELES","CA",90037,33.9974802030001,-118.291516456,207,"5029 S VERMONT AVENUE, LOS ANGELES, CA, 90037","Match","Exact","5029 S VERMONT AVE, LOS ANGELES, CA, 90037",141607882,"R"
230708,"5029 SE EBBTIDE AVENUE","STUART","FL",34997,27.142905592,-80.199794713,208,"5029 SE EBBTIDE AVENUE, STUART, FL, 34997","Match","Exact","5029 SE EBBTIDE AVE, STUART, FL, 34997",120430139,"R"
230709,"5029 SOUTHERN STAR TERRACE","COLUMBIA","MD",21044,39.2317536480001,-76.891013518,209,"5029 SOUTHERN STAR TERRACE, COLUMBIA, MD, 21044","Match","Exact","5029 SOUTHERN STAR TER, COLUMBIA, MD, 21044",158950144,"L"
230710,"5029 SPICEWOOD DRIVE","YORK","SC",29745,NA,NA,210,"5029 SPICEWOOD DRIVE, YORK, SC, 29745","No_Match",NA,NA,NA,NA
230711,"5029 TAMIAMI TRAIL EAST","NAPLES","FL",34113,26.1072551820001,-81.7478637569999,211,"5029 TAMIAMI TRAIL EAST, NAPLES, FL, 34113","Match","Exact","5029 TAMIAMI TRL E, NAPLES, FL, 34113",640844618,"R"
230712,"50290 OLLER RD","TICKFAW","LA",70466,30.58311775,-90.523974745,212,"50290 OLLER RD, TICKFAW, LA, 70466","Match","Exact","50290 OLLER RD, TICKFAW, LA, 70466",624689689,"L"
230713,"502A NORTH MAIN","RICE LAKE","WI",54868,45.5062827890001,-91.733554243,213,"502A NORTH MAIN, RICE LAKE, WI, 54868","Match","Non_Exact","502 N MAIN ST, RICE LAKE, WI, 54868",126290640,"L"
230714,"503 1/2 W RINGS ST","WEST UNITY","OH",43507,41.5892384320001,-84.438266121,214,"503 1/2 W RINGS ST, WEST UNITY, OH, 43507","Match","Non_Exact","503 W RINGS ST, WEST UNITY, OH, 43570",8330168,"L"
230715,"503 1ST AVE NE","KENMARE","ND",58746,48.6757259870001,-102.080972121,215,"503 1ST AVE NE, KENMARE, ND, 58746","Match","Exact","503 1ST AVE NE, KENMARE, ND, 58746",200496945,"L"
230716,"503 203RD ST CT E","SPANAWAY","WA",98387,47.072100515,-122.426061534,216,"503 203RD ST CT E, SPANAWAY, WA, 98387","Match","Exact","503 203RD STREET CT E, SPANAWAY, WA, 98387",184660111,"L"
230717,"503 6TH AVE N  APT 5","HETTINGER","ND",58639,46.0060176920001,-102.636075462,217,"503 6TH AVE N  APT 5, HETTINGER, ND, 58639","Match","Exact","503 6TH AVE N, HETTINGER, ND, 58639",635150947,"L"
230718,"503 ADAMS ST","ARMSTRONG","IA",50514,43.395200378,-94.473310054,218,"503 ADAMS ST, ARMSTRONG, IA, 50514","Match","Exact","503 ADAMS ST, ARMSTRONG, IA, 50514",9586905,"L"
230719,"503 ADIRONDACK AVE","ORLANDO","FL",32807,28.5365701000001,-81.3266185529999,219,"503 ADIRONDACK AVE, ORLANDO, FL, 32807","Match","Exact","503 ADIRONDACK AVE, ORLANDO, FL, 32807",94286675,"L"
230720,"503 ADIRONDACK AVENUE","ORLANDO","FL",32807,28.5365701000001,-81.3266185529999,220,"503 ADIRONDACK AVENUE, ORLANDO, FL, 32807","Match","Exact","503 ADIRONDACK AVE, ORLANDO, FL, 32807",94286675,"L"
230721,"503 ALBEMARLE STREET","BALTIMORE","MD",21202,39.2851868750001,-76.601685486,221,"503 ALBEMARLE STREET, BALTIMORE, MD, 21202","Match","Exact","503 ALBEMARLE ST, BALTIMORE, MD, 21202",206421552,"L"
230722,"503 ALLEN DRIVE","OFALLON","MO",63366,38.8183274310001,-90.691846826,222,"503 ALLEN DRIVE, OFALLON, MO, 63366","Match","Non_Exact","503 ALLEN DR, O FALLON, MO, 63366",100014323,"L"
230723,"503 AMBERWOOD DRIVE","AKRON","OH",44312,41.047937871,-81.4494652179999,223,"503 AMBERWOOD DRIVE, AKRON, OH, 44312","Match","Exact","503 AMBERWOOD DR, AKRON, OH, 44312",61370333,"R"
230724,"503 ATWOOD DRIVE","POWNAL","VT",5261,42.7782711520001,-73.21305969,224,"503 ATWOOD DRIVE, POWNAL, VT, 5261","Match","Exact","503 ATWOOD DR, POWNAL, VT, 05261",139215602,"L"
230725,"503 AURORA AVENUE","GRANTS PASS","OR",97526,42.4357858770001,-123.291093321,225,"503 AURORA AVENUE, GRANTS PASS, OR, 97526","Match","Exact","503 AURORA AVE, GRANTS PASS, OR, 97526",156574050,"L"
230726,"503 AVENUE D","BILLINGS","MT",59102,45.7869666930001,-108.528098107,226,"503 AVENUE D, BILLINGS, MT, 59102","Match","Exact","503 AVE D, BILLINGS, MT, 59102",181476753,"R"
230727,"503 AVENUE F","BILLINGS","MT",59102,45.788956807,-108.528121616,227,"503 AVENUE F, BILLINGS, MT, 59102","Match","Exact","503 AVE F, BILLINGS, MT, 59102",181476730,"R"
230728,"503 AZALEA DR","GLENN HEIGHTS","TX",75154,32.5357660830001,-96.84714588,228,"503 AZALEA DR, GLENN HEIGHTS, TX, 75154","Match","Exact","503 AZALEA DR, GLENN HEIGHTS, TX, 75154",214500316,"R"
230729,"503 BANK AVE","RIVERTON","NJ",8077,40.014401509,-75.017153279,229,"503 BANK AVE, RIVERTON, NJ, 8077","Match","Exact","503 BANK AVE, RIVERTON, NJ, 08077",134024660,"R"
230730,"503 BARKLEY ST","HOUSTON","TX",77022,29.8265793580001,-95.393510802,230,"503 BARKLEY ST, HOUSTON, TX, 77022","Match","Exact","503 BARKLEY ST, HOUSTON, TX, 77022",96055047,"L"
230731,"503 BARNSTAPLE DR","DANIELS","WV",25832,37.726411909,-81.088650425,231,"503 BARNSTAPLE DR, DANIELS, WV, 25832","Match","Exact","503 BARNSTAPLE DR, DANIELS, WV, 25832",651779931,"L"
230732,"503 BELLE FERN CT","OCOEE","FL",34761,28.616551375,-81.534656207,232,"503 BELLE FERN CT, OCOEE, FL, 34761","Match","Exact","503 BELLE FERN CT, OCOEE, FL, 34761",640927714,"L"
230733,"503 BENT TREE CT","OSWEGO","IL",60543,41.70019333,-88.325141754,233,"503 BENT TREE CT, OSWEGO, IL, 60543","Match","Exact","503 BENT TREE CT, OSWEGO, IL, 60543",54487023,"R"
230734,"503 BROOKTREE COURT","LUTZ","FL",33548,28.140484358,-82.4700115159999,234,"503 BROOKTREE COURT, LUTZ, FL, 33548","Match","Exact","503 BROOKTREE CT, LUTZ, FL, 33548",104563499,"R"
230735,"503 CENTRO HERMOSA","SAN ANTONIO","TX",78245,29.429981551,-98.6682891579999,235,"503 CENTRO HERMOSA, SAN ANTONIO, TX, 78245","Match","Exact","503 CENTRO HERMOSA, SAN ANTONIO, TX, 78245",101703929,"R"
230736,"503 CHESTNUT ST","SAN ANTONIO","TX",78202,29.42705568,-98.4792047769999,236,"503 CHESTNUT ST, SAN ANTONIO, TX, 78202","Match","Exact","503 CHESTNUT ST, SAN ANTONIO, TX, 78202",101719457,"R"
230737,"503 CHICAGO RD","NEWARK","IL",60541,41.5423911090001,-88.577798945,237,"503 CHICAGO RD, NEWARK, IL, 60541","Match","Exact","503 CHICAGO RD, NEWARK, IL, 60541",611668553,"L"
230738,"503 CHICAMAUGA CIRCLE SE","HUNTSVILLE","AL",35803,34.6293121260001,-86.5608157629999,238,"503 CHICAMAUGA CIRCLE SE, HUNTSVILLE, AL, 35803","Match","Non_Exact","503 CHICAMAUGA CIR, HUNTSVILLE, AL, 35803",635613256,"R"
230739,"503 CITY PARK RD","PFLUGERVILLE","TX",78660,30.445246764,-97.62246902,239,"503 CITY PARK RD, PFLUGERVILLE, TX, 78660","Match","Exact","503 CITY PARK RD, PFLUGERVILLE, TX, 78660",63973001,"R"
230740,"503 COLONY RD","CAMP HILL","PA",17011,40.246092907,-76.945311883,240,"503 COLONY RD, CAMP HILL, PA, 17011","Match","Exact","503 COLONY RD, CAMP HILL, PA, 17011",60942476,"R"
230741,"503 DEACON ROAD","FREDERICKSBURG","VA",22405,38.3296333430001,-77.423259549,241,"503 DEACON ROAD, FREDERICKSBURG, VA, 22405","Match","Exact","503 DEACON RD, FREDERICKSBURG, VA, 22405",636653203,"L"
230742,"503 DUDLEY STREET","DUNMORE","PA",18512,41.4152181630001,-75.631585674,242,"503 DUDLEY STREET, DUNMORE, PA, 18512","Match","Exact","503 DUDLEY ST, DUNMORE, PA, 18512",618245479,"L"
230743,"503 DUNCAN ROAD","WILMINGTON","DE",19809,39.7710322130001,-75.495666493,243,"503 DUNCAN ROAD, WILMINGTON, DE, 19809","Match","Exact","503 DUNCAN RD, WILMINGTON, DE, 19809",187261528,"L"
230744,"503 E 200 ST SUITE 103","EUCLID","OH",44119,41.59270179,-81.540213305,244,"503 E 200 ST SUITE 103, EUCLID, OH, 44119","Match","Non_Exact","503 E 200TH ST, EUCLID, OH, 44119",61108091,"L"
230745,"503 E 200 SUITE  103","EUCLID","OH",44119,NA,NA,245,"503 E 200 SUITE  103, EUCLID, OH, 44119","No_Match",NA,NA,NA,NA
230746,"503 E 200TH ST  STE 103","EUCLID","OH",44119,41.59270179,-81.540213305,246,"503 E 200TH ST  STE 103, EUCLID, OH, 44119","Match","Non_Exact","503 E 200TH ST, EUCLID, OH, 44119",61108091,"L"
230747,"503 E 200TH ST SUITE 103","EUCLID","OH",44119,41.59270179,-81.540213305,247,"503 E 200TH ST SUITE 103, EUCLID, OH, 44119","Match","Non_Exact","503 E 200TH ST, EUCLID, OH, 44119",61108091,"L"
230748,"503 E 200TH ST","CLEVELAND","OH",44119,41.59270179,-81.540213305,248,"503 E 200TH ST, CLEVELAND, OH, 44119","Match","Exact","503 E 200TH ST, CLEVELAND, OH, 44119",61108091,"L"
230749,"503 E 200TH STREET  SUITE 103","EUCLID","OH",44119,41.59270179,-81.540213305,249,"503 E 200TH STREET  SUITE 103, EUCLID, OH, 44119","Match","Non_Exact","503 E 200TH ST, EUCLID, OH, 44119",61108091,"L"
230750,"503 E 200TH STREET SUITE 103","EUCLID","OH",44119,41.59270179,-81.540213305,250,"503 E 200TH STREET SUITE 103, EUCLID, OH, 44119","Match","Non_Exact","503 E 200TH ST, EUCLID, OH, 44119",61108091,"L"
230751,"503 E 61 STREET SUITE","CHICAGO","IL",60649,NA,NA,251,"503 E 61 STREET SUITE, CHICAGO, IL, 60649","No_Match",NA,NA,NA,NA
230752,"503 E 61ST STREET NUMBER 127","CHICAGO","IL",60637,41.7839284560001,-87.613104705,252,"503 E 61ST STREET NUMBER 127, CHICAGO, IL, 60637","Match","Non_Exact","503 E 61ST ST, CHICAGO, IL, 60637",605564162,"R"
230753,"503 E 61ST","CHICAGO","IL",60637,41.7839284560001,-87.613104705,253,"503 E 61ST, CHICAGO, IL, 60637","Match","Non_Exact","503 E 61ST ST, CHICAGO, IL, 60637",605564162,"R"
230754,"503 E CENTRE AVENUE","BUCKEYE","AZ",85326,33.3668415550001,-112.5848397,254,"503 E CENTRE AVENUE, BUCKEYE, AZ, 85326","Match","Exact","503 E CENTRE AVE, BUCKEYE, AZ, 85326",128124337,"L"
230755,"503 E DREXEL AVE","SAN ANTONIO","TX",78210,29.4005730820001,-98.46521125,255,"503 E DREXEL AVE, SAN ANTONIO, TX, 78210","Match","Exact","503 E DREXEL AVE, SAN ANTONIO, TX, 78210",101529549,"L"
230756,"503 E HANCOCK STREET","NEWBERG","OR",97132,45.3011373900001,-122.974989662,256,"503 E HANCOCK STREET, NEWBERG, OR, 97132","Match","Exact","503 E HANCOCK ST, NEWBERG, OR, 97132",156499569,"R"
230757,"503 E JACKSON ST","TAMPA","FL",33602,27.9475432190001,-82.455839952,257,"503 E JACKSON ST, TAMPA, FL, 33602","Match","Exact","503 JACKSON ST, TAMPA, FL, 33602",104530593,"R"
230758,"503 E JOHN STREET","CHAMPAIGN","IL",61820,40.109064985,-88.2318544459999,258,"503 E JOHN STREET, CHAMPAIGN, IL, 61820","Match","Exact","503 E JOHN ST, CHAMPAIGN, IL, 61820",8812028,"R"
230759,"503 E KAYLA LANE","PRAIRIE CITY","IA",50228,41.5926460380001,-93.2314159319999,259,"503 E KAYLA LANE, PRAIRIE CITY, IA, 50228","Match","Exact","503 E KAYLA LN, PRAIRIE CITY, IA, 50228",627103196,"L"
230760,"503 E LAVENDER AVE","DURHAM","NC",27704,36.023423575,-78.887244197,260,"503 E LAVENDER AVE, DURHAM, NC, 27704","Match","Exact","503 E LAVENDER AVE, DURHAM, NC, 27704",71741258,"L"
230761,"503 E NIFONG BLVD NO 227","COLUMBIA","MO",65201,NA,NA,261,"503 E NIFONG BLVD NO 227, COLUMBIA, MO, 65201","No_Match",NA,NA,NA,NA
230762,"503 E PARK AVE","WEATHERFORD","TX",76086,32.7424244870001,-97.789614835,262,"503 E PARK AVE, WEATHERFORD, TX, 76086","Match","Exact","503 E PARK AVE, WEATHERFORD, TX, 76086",103579907,"R"
230763,"503 E PATAPSCO AVE 2ND FL","BALTIMORE","MD",21225,39.2367424810001,-76.603746553,263,"503 E PATAPSCO AVE 2ND FL, BALTIMORE, MD, 21225","Match","Non_Exact","503 E PATAPSCO AVE, BALTIMORE, MD, 21225",647415700,"R"
230764,"503 EAST 200 ST","EUCLID","OH",44119,41.5927196910001,-81.5402139999999,264,"503 EAST 200 ST, EUCLID, OH, 44119","Match","Exact","503 E 200TH ST, EUCLID, OH, 44119",61108091,"L"
230765,"503 EAST 200 STREET","EUCLID","OH",44119,41.5927196910001,-81.5402139999999,265,"503 EAST 200 STREET, EUCLID, OH, 44119","Match","Exact","503 E 200TH ST, EUCLID, OH, 44119",61108091,"L"
230766,"503 EAST 200TH STREET SUITE 103","EUCLID","OH",44119,41.5927196910001,-81.5402139999999,266,"503 EAST 200TH STREET SUITE 103, EUCLID, OH, 44119","Match","Exact","503 E 200TH ST, EUCLID, OH, 44119",61108091,"L"
230767,"503 EAST 61ST ST","CHICAGO","IL",60637,41.7839281780001,-87.613121137,267,"503 EAST 61ST ST, CHICAGO, IL, 60637","Match","Exact","503 E 61ST ST, CHICAGO, IL, 60637",605564162,"R"
230768,"503 EAST COLUMBUS DRIVE APT  3","TAMPA","FL",33602,27.9668689050001,-82.455154873,268,"503 EAST COLUMBUS DRIVE APT  3, TAMPA, FL, 33602","Match","Exact","503 E COLUMBUS DR, TAMPA, FL, 33602",104523250,"R"
230769,"503 EAST MONTGOMERY STREET","MILLEDGEVILLE","GA",31061,33.0853942270001,-83.2210062729999,269,"503 EAST MONTGOMERY STREET, MILLEDGEVILLE, GA, 31061","Match","Non_Exact","503 E MONTOGOMERY ST, MILLEDGEVILLE, GA, 31061",16589468,"R"
230770,"503 EAST NORTHTOWN ROAD","KIRKSVILLE","MO",63501,40.213579892,-92.579985148,270,"503 EAST NORTHTOWN ROAD, KIRKSVILLE, MO, 63501","Match","Exact","503 E NORTHTOWN RD, KIRKSVILLE, MO, 63501",24761459,"L"
230771,"503 EAST SUMMIT STREET SUITE 2","CROWN POINT","IN",46307,41.427518756,-87.3595682929999,271,"503 EAST SUMMIT STREET SUITE 2, CROWN POINT, IN, 46307","Match","Exact","503 E SUMMIT ST, CROWN POINT, IN, 46307",640203205,"R"
230772,"503 EASTBURY AVENUE NE","NORTH CANTON","OH",44720,40.8803958450001,-81.384632709,272,"503 EASTBURY AVENUE NE, NORTH CANTON, OH, 44720","Match","Exact","503 EASTBURY AVE NE, NORTH CANTON, OH, 44720",64704849,"L"
230773,"503 ELISA COLBERG APT 901","SAN JUAN","PR",907,NA,NA,273,"503 ELISA COLBERG APT 901, SAN JUAN, PR, 907","No_Match",NA,NA,NA,NA
230774,"503 ELLINWOOD DRIVE","KINGS MOUNTAIN","NC",28086,35.2464326850001,-81.322173226,274,"503 ELLINWOOD DRIVE, KINGS MOUNTAIN, NC, 28086","Match","Non_Exact","503 ELLENWOOD DR, KINGS MOUNTAIN, NC, 28086",70462076,"R"
230775,"503 EMERALD DOWNS ROAD","CARY","NC",27519,35.8232150320001,-78.904949754,275,"503 EMERALD DOWNS ROAD, CARY, NC, 27519","Match","Exact","503 EMERALD DOWNS RD, CARY, NC, 27519",612827329,"L"
230776,"503 FARRINGTON DRIVE","MARRERO","LA",70072,29.903619416,-90.091898712,276,"503 FARRINGTON DRIVE, MARRERO, LA, 70072","Match","Exact","503 FARRINGTON DR, MARRERO, LA, 70072",93506530,"L"
230777,"503 FERGUSON HILL RD","LAFAYETTE","TN",37083,36.507705839,-86.023139223,277,"503 FERGUSON HILL RD, LAFAYETTE, TN, 37083","Match","Exact","503 FERGUSON HILL RD, LAFAYETTE, TN, 37083",29698747,"R"
230778,"503 FIRST AVENUE","TALLASSEE","AL",36078,32.5303099380001,-85.898948666,278,"503 FIRST AVENUE, TALLASSEE, AL, 36078","Match","Exact","503 1ST AVE, TALLASSEE, AL, 36078",1356145,"R"
230779,"503 FLUKER STREET","THOMSON","GA",30824,33.457600687,-82.504381602,279,"503 FLUKER STREET, THOMSON, GA, 30824","Match","Exact","503 FLUKER ST, THOMSON, GA, 30824",636323556,"L"
230780,"503 FM 2815 S","BONHAM","TX",75418,33.527480053,-96.217093255,280,"503 FM 2815 S, BONHAM, TX, 75418","Match","Non_Exact","503 FM 2815, BONHAM, TX, 75418",63273074,"R"
230781,"503 FM 359 SUITE 130 NUMBER 200","RICHMOND","TX",77406,NA,NA,281,"503 FM 359 SUITE 130 NUMBER 200, RICHMOND, TX, 77406","No_Match",NA,NA,NA,NA
230782,"503 FRANKLIN STREET","CEDAR FALLS","IA",50613,42.534042243,-92.449467746,282,"503 FRANKLIN STREET, CEDAR FALLS, IA, 50613","Match","Exact","503 FRANKLIN ST, CEDAR FALLS, IA, 50613",77248391,"R"
230783,"503 GATLING POINTE PARKWAY","SMITHFIELD","VA",23430,36.98890543,-76.5855400459999,283,"503 GATLING POINTE PARKWAY, SMITHFIELD, VA, 23430","Match","Exact","503 GATLING POINTE PKWY, SMITHFIELD, VA, 23430",198631175,"L"
230784,"503 GIBSON ST","MARION","SC",29571,34.173883416,-79.402518239,284,"503 GIBSON ST, MARION, SC, 29571","Match","Exact","503 GIBSON ST, MARION, SC, 29571",28774157,"R"
230785,"503 GUNNISON DRIVE","SIMPSONVILLE","SC",29681,34.8024931100001,-82.2581403569999,285,"503 GUNNISON DRIVE, SIMPSONVILLE, SC, 29681","Match","Exact","503 GUNNISON DR, SIMPSONVILLE, SC, 29681",624713821,"L"
230786,"503 HENRY STREET- 2R","BROOKLYN","NY",11231,40.6844803590001,-73.999231825,286,"503 HENRY STREET- 2R, BROOKLYN, NY, 11231","Match","Non_Exact","503 HENRY ST, BROOKLYN, NY, 11231",59074841,"L"
230787,"503 JEFFERSON ST","BIRDSBORO","PA",19508,40.261756946,-75.8166795129999,287,"503 JEFFERSON ST, BIRDSBORO, PA, 19508","Match","Exact","503 JEFFERSON ST, BIRDSBORO, PA, 19508",647478289,"L"
230788,"503 JO LYNN DRIVE","JUNCTION","TX",76849,30.4916573460001,-99.786852459,288,"503 JO LYNN DRIVE, JUNCTION, TX, 76849","Match","Exact","503 JO LYNN DR, JUNCTION, TX, 76849",173449828,"L"
230789,"503 KALMIA AVE","BOULDER","CO",80304,40.039052983,-105.289832066,289,"503 KALMIA AVE, BOULDER, CO, 80304","Match","Exact","503 KALMIA AVE, BOULDER, CO, 80304",188217987,"L"
230790,"503 KENILWORTH AVE","DAYTON","OH",45405,39.7762059400001,-84.2119054349999,290,"503 KENILWORTH AVE, DAYTON, OH, 45405","Match","Exact","503 KENILWORTH AVE, DAYTON, OH, 45405",143569680,"R"
230791,"503 LARGOVISTA DRIVE","OAKLAND","FL",34787,28.544044769,-81.6330049709999,291,"503 LARGOVISTA DRIVE, OAKLAND, FL, 34787","Match","Exact","503 LARGOVISTA DR, OAKLAND, FL, 34787",94409444,"L"
230792,"503 MAIN ST","KIEF","ND",58723,47.8559964630001,-100.513064552,292,"503 MAIN ST, KIEF, ND, 58723","Match","Exact","503 MAIN ST, KIEF, ND, 58723",199851824,"L"
230793,"503 MAIN STREET","FOREST CITY","PA",18421,41.6491440410001,-75.466389459,293,"503 MAIN STREET, FOREST CITY, PA, 18421","Match","Exact","503 MAIN ST, FOREST CITY, PA, 18421",612262516,"R"
230794,"503 MALL CT 321","LANSING","MI",48912,42.7398178230001,-84.5061784439999,294,"503 MALL CT 321, LANSING, MI, 48912","Match","Exact","503 MALL CT, LANSING, MI, 48912",17501233,"L"
230795,"503 MALL CT SUITE 271","LANSING","MI",48912,42.7398178230001,-84.5061784439999,295,"503 MALL CT SUITE 271, LANSING, MI, 48912","Match","Exact","503 MALL CT, LANSING, MI, 48912",17501233,"L"
230796,"503 MAPLE TREE WAY","UPPER MARLBORO","MD",20774,38.8963533130001,-76.817277383,296,"503 MAPLE TREE WAY, UPPER MARLBORO, MD, 20774","Match","Exact","503 MAPLE TREE WAY, UPPER MARLBORO, MD, 20774",76345412,"L"
230797,"503 MATTHEWSON   2517 H AVE","WALTHILL","NE",68067,42.151518826,-96.495281806,297,"503 MATTHEWSON   2517 H AVE, WALTHILL, NE, 68067","Match","Non_Exact","503 MATHEWSON ST, WALTHILL, NE, 68067",193834992,"R"
230798,"503 MELODY CIRCLE","KAUFMAN","TX",75142,32.5784698430001,-96.289922783,298,"503 MELODY CIRCLE, KAUFMAN, TX, 75142","Match","Exact","503 MELODY CIR, KAUFMAN, TX, 75142",640536006,"R"
230799,"503 MISTLETOE STREET","PETERSBURG","VA",23803,37.216359713,-77.4074974389999,299,"503 MISTLETOE STREET, PETERSBURG, VA, 23803","Match","Exact","503 MISTLETOE ST, PETERSBURG, VA, 23803",54151585,"R"
230800,"503 MOSELY AVE STE 2","STATEN ISLAND","NY",10312,40.543565986,-74.165236771,300,"503 MOSELY AVE STE 2, STATEN ISLAND, NY, 10312","Match","Exact","503 MOSELY AVE, STATEN ISLAND, NY, 10312",642649013,"L"
230801,"503 MOSSY OAK RIDGE","PRATTVILLE","AL",36066,32.465774851,-86.4290626119999,301,"503 MOSSY OAK RIDGE, PRATTVILLE, AL, 36066","Match","Exact","503 MOSSY OAK RIDGE, PRATTVILLE, AL, 36066",2838534,"L"
230802,"503 N 11TH","GATESVILLE","TX",76528,31.4407946650001,-97.7449702119999,302,"503 N 11TH, GATESVILLE, TX, 76528","Match","Non_Exact","503 N 11TH ST, GATESVILLE, TX, 76528",146558738,"L"
230803,"503 N CROCKETT ST","GRANBURY","TX",76048,32.4462331840001,-97.7865471,303,"503 N CROCKETT ST, GRANBURY, TX, 76048","Match","Exact","503 N CROCKETT ST, GRANBURY, TX, 76048",158789087,"L"
230804,"503 N ETHEL ST","CHURCH POINT","LA",70525,30.4127167400001,-92.216434519,304,"503 N ETHEL ST, CHURCH POINT, LA, 70525","Match","Exact","503 N ETHEL ST, CHURCH POINT, LA, 70525",88296049,"L"
230805,"503 N GENESSEE ST","WAUKEGAN","IL",60085,42.3672091650001,-87.831140696,305,"503 N GENESSEE ST, WAUKEGAN, IL, 60085","Match","Non_Exact","503 N GENESEE ST, WAUKEGAN, IL, 60085",119645445,"R"
230806,"503 N GLOVER ST","BALTIMORE","MD",21205,39.29691898,-76.580038439,306,"503 N GLOVER ST, BALTIMORE, MD, 21205","Match","Exact","503 N GLOVER ST, BALTIMORE, MD, 21205",206424281,"R"
230807,"503 N GRANT ST APT 5","WEST LAFAYETTE","IN",47906,40.430172441,-86.91041649,307,"503 N GRANT ST APT 5, WEST LAFAYETTE, IN, 47906","Match","Non_Exact","503 N GRANT ST, W LAFAYETTE, IN, 47906",27305495,"L"
230808,"503 N MAIN ST STE 5","PUEBLO","CO",81003,38.2716690140001,-104.608592525,308,"503 N MAIN ST STE 5, PUEBLO, CO, 81003","Match","Non_Exact","503 N MAIN ST, PUEBLO, CO, 81003",105025611,"L"
230809,"503 N MAIN ST","BORGER","TX",79007,35.6705508900001,-101.389853002,309,"503 N MAIN ST, BORGER, TX, 79007","Match","Exact","503 N MAIN ST, BORGER, TX, 79007",185357128,"L"
230810,"503 N NEIL STREET","CHAMPAIGN","IL",61820,40.1202862100001,-88.243532091,310,"503 N NEIL STREET, CHAMPAIGN, IL, 61820","Match","Exact","503 N NEIL ST, CHAMPAIGN, IL, 61820",8810383,"L"
230811,"503 N SURREY AVE","VENTNOR CITY","NJ",8406,39.348840174,-74.479577606,311,"503 N SURREY AVE, VENTNOR CITY, NJ, 8406","Match","Exact","503 N SURREY AVE, VENTNOR CITY, NJ, 08406",202488218,"R"
230812,"503 N WATER ST","HAZEN","AR",72064,34.784799057,-91.57495218,312,"503 N WATER ST, HAZEN, AR, 72064","Match","Non_Exact","503 N WATER, HAZEN, AR, 72064",12392707,"R"
230813,"503 NORTH 5TH STREET","LAFAYETTE","IN",47901,40.4219199290001,-86.891874426,313,"503 NORTH 5TH STREET, LAFAYETTE, IN, 47901","Match","Exact","503 N 5TH ST, LAFAYETTE, IN, 47901",27305777,"R"
230814,"503 NORTH MAIN STREET","CARROLL","IA",51401,42.0646596230001,-94.86767588,314,"503 NORTH MAIN STREET, CARROLL, IA, 51401","Match","Exact","503 N MAIN ST, CARROLL, IA, 51401",68630243,"L"
230815,"503 NORTH MORGAN AVENUE","LAKELAND","FL",33801,28.048732521,-81.946984237,315,"503 NORTH MORGAN AVENUE, LAKELAND, FL, 33801","Match","Non_Exact","503 MORGAN AVE, LAKELAND, FL, 33801",104810587,"R"
230816,"503 NORTH ROGERS ST","INDEPENDENCE","MO",64050,39.096136008,-94.399629376,316,"503 NORTH ROGERS ST, INDEPENDENCE, MO, 64050","Match","Exact","503 N ROGERS ST, INDEPENDENCE, MO, 64050",91469294,"R"
230817,"503 NORTH TRAVIS STREET","SHERMAN","TX",75090,33.640642567,-96.610530576,317,"503 NORTH TRAVIS STREET, SHERMAN, TX, 75090","Match","Exact","503 N TRAVIS ST, SHERMAN, TX, 75090",63354923,"R"
230818,"503 OAK STREET","AMITY","OR",97101,NA,NA,318,"503 OAK STREET, AMITY, OR, 97101","No_Match",NA,NA,NA,NA
230819,"503 OAK STREET","YPSILANTI","MI",48198,42.2481422650001,-83.602605017,319,"503 OAK STREET, YPSILANTI, MI, 48198","Match","Exact","503 OAK ST, YPSILANTI, MI, 48198",26021258,"L"
230820,"503 OAKDALE STREET","FOLSOM","CA",95630,38.672410438,-121.181258069,320,"503 OAKDALE STREET, FOLSOM, CA, 95630","Match","Exact","503 OAKDALE ST, FOLSOM, CA, 95630",640620715,"L"
230821,"503 OSTERHOUT","SCHOOLCRAFT","MI",49087,42.1150940890001,-85.6312067109999,321,"503 OSTERHOUT, SCHOOLCRAFT, MI, 49087","Match","Non_Exact","503 OSTERHOUT ST, SCHOOLCRAFT, MI, 49087",12221650,"R"
230822,"503 PAPILLION TRACE","WOODSTOCK","GA",30188,34.096404029,-84.458228182,322,"503 PAPILLION TRACE, WOODSTOCK, GA, 30188","Match","Exact","503 PAPILLION TRCE, WOODSTOCK, GA, 30188",617673699,"R"
230823,"503 PAR DRIVE UNIT 4","MARION","AR",72364,35.197060955,-90.2069119449999,323,"503 PAR DRIVE UNIT 4, MARION, AR, 72364","Match","Exact","503 PAR DR, MARION, AR, 72364",610327589,"R"
230824,"503 PARK AVE","WATERLOO","WI",53594,43.1884385870001,-88.988260544,324,"503 PARK AVE, WATERLOO, WI, 53594","Match","Exact","503 PARK AVE, WATERLOO, WI, 53594",53209181,"L"
230825,"503 PINEHAVEN DRIVE","HOUSTON","TX",77024,29.7760370230001,-95.4596909049999,325,"503 PINEHAVEN DRIVE, HOUSTON, TX, 77024","Match","Exact","503 PINEHAVEN DR, HOUSTON, TX, 77024",96631391,"L"
230826,"503 PINEHILL RD","MONTGOMERY","AL",36109,NA,NA,326,"503 PINEHILL RD, MONTGOMERY, AL, 36109","No_Match",NA,NA,NA,NA
230827,"503 PINTAIL","TAYLOR","TX",76574,30.5873471190001,-97.416357621,327,"503 PINTAIL, TAYLOR, TX, 76574","Match","Non_Exact","503 PINTAIL LN, TAYLOR, TX, 76574",126426498,"R"
230828,"503 RANKIN STREET","ANDALUSIA","AL",36420,31.3023570130001,-86.485825171,328,"503 RANKIN STREET, ANDALUSIA, AL, 36420","Match","Exact","503 RANKIN ST, ANDALUSIA, AL, 36420",1853308,"R"
230829,"503 RED COAT LN","PHOENIXVILLE","PA",19460,40.1186376970001,-75.483475943,329,"503 RED COAT LN, PHOENIXVILLE, PA, 19460","Match","Exact","503 RED COAT LN, PHOENIXVILLE, PA, 19460",179529196,"L"
230830,"503 ROBERTS DRIVE NW","VIENNA","VA",22180,38.8996951560001,-77.282099046,330,"503 ROBERTS DRIVE NW, VIENNA, VA, 22180","Match","Exact","503 ROBERTS DR NW, VIENNA, VA, 22180",75968553,"R"
230831,"503 S 173RD DRIVE","GOODYEAR","AZ",85338,33.442195052,-112.430647692,331,"503 S 173RD DRIVE, GOODYEAR, AZ, 85338","Match","Exact","503 S 173RD DR, GOODYEAR, AZ, 85338",618469694,"L"
230832,"503 S 2ND STREET","STEELTON","PA",17113,NA,NA,332,"503 S 2ND STREET, STEELTON, PA, 17113","Tie",NA,NA,NA,NA
230833,"503 S EASTERN AVENUE","HARTFORD","SD",57033,43.617143647,-96.941286259,333,"503 S EASTERN AVENUE, HARTFORD, SD, 57033","Match","Exact","503 S EASTERN AVE, HARTFORD, SD, 57033",34994887,"R"
230834,"503 S FLOWER ST","BURBANK","CA",91502,34.1748298860001,-118.308048063,334,"503 S FLOWER ST, BURBANK, CA, 91502","Match","Exact","503 S FLOWER ST, BURBANK, CA, 91502",241240117,"R"
230835,"503 S LEROY ST","FENTON","MI",48430,42.79291749,-83.705164079,335,"503 S LEROY ST, FENTON, MI, 48430","Match","Exact","503 S LEROY ST, FENTON, MI, 48430",69580221,"L"
230836,"503 S NEW AVE UNIT C","MONTEREY PARK","CA",91755,NA,NA,336,"503 S NEW AVE UNIT C, MONTEREY PARK, CA, 91755","No_Match",NA,NA,NA,NA
230837,"503 S STERLEY ST","SHILLINGTON","PA",19607,40.2973430430001,-75.976164314,337,"503 S STERLEY ST, SHILLINGTON, PA, 19607","Match","Exact","503 S STERLEY ST, SHILLINGTON, PA, 19607",80380685,"R"
230838,"503 SANDY BANK ROAD","MEDIA","PA",19063,39.9342253730001,-75.3823674879999,338,"503 SANDY BANK ROAD, MEDIA, PA, 19063","Match","Exact","503 SANDY BANK RD, MEDIA, PA, 19063",605237938,"R"
230839,"503 SHADY GLADE DRIVE","HOUSTON","TX",77090,30.0038559160001,-95.43224903,339,"503 SHADY GLADE DRIVE, HOUSTON, TX, 77090","Match","Exact","503 SHADY GLADE DR, HOUSTON, TX, 77090",96042076,"R"
230840,"503 SOUTH FRONT SUITE 207","COLUMBUS","OH",43215,39.9516432830001,-83.000403073,340,"503 SOUTH FRONT SUITE 207, COLUMBUS, OH, 43215","Match","Non_Exact","503 S FRONT ST, COLUMBUS, OH, 43215",135576740,"R"
230841,"503 SOUTH GREEN STREET","LONGVIEW","TX",75602,32.4893438070001,-94.7384112679999,341,"503 SOUTH GREEN STREET, LONGVIEW, TX, 75602","Match","Non_Exact","503 S GREEN ST, LONGVIEW, TX, 75601",141110143,"R"
230842,"503 SOUTH LEXINGTON","HARRISONVILLE","MO",64701,38.6525087300001,-94.348034639,342,"503 SOUTH LEXINGTON, HARRISONVILLE, MO, 64701","Match","Non_Exact","503 S LEXINGTON ST, HARRISONVILLE, MO, 64701",100901162,"R"
230843,"503 SOUTH MOORE STREET","BUNNELL","FL",32110,29.4655183,-81.252095947,343,"503 SOUTH MOORE STREET, BUNNELL, FL, 32110","Match","Exact","503 S MOORE ST, BUNNELL, FL, 32110",94941636,"L"
230844,"503 SOUTH PENN STREET","WHEELING","WV",26003,40.066036045,-80.730867473,344,"503 SOUTH PENN STREET, WHEELING, WV, 26003","Match","Exact","503 S PENN ST, WHEELING, WV, 26003",38100391,"R"
230845,"503 SOUTH TENTH STREET","IRONTON","OH",45638,38.5360350460001,-82.675659401,345,"503 SOUTH TENTH STREET, IRONTON, OH, 45638","Match","Exact","503 S 10TH ST, IRONTON, OH, 45638",55009773,"L"
230846,"503 STATION STREET","CONVERSE","TX",78109,29.513876995,-98.312973439,346,"503 STATION STREET, CONVERSE, TX, 78109","Match","Exact","503 STATION ST, CONVERSE, TX, 78109",101504648,"R"
230847,"503 SUMMERRAIN TERRACE","DOTHAN","AL",36303,31.2614759530001,-85.4522355619999,347,"503 SUMMERRAIN TERRACE, DOTHAN, AL, 36303","Match","Non_Exact","503 SUMMERAIN TER, DOTHAN, AL, 36303",101212334,"L"
230848,"503 SYKES ST","CHAPEL HILL","NC",27516,35.9138960010001,-79.06554482,348,"503 SYKES ST, CHAPEL HILL, NC, 27516","Match","Exact","503 SYKES ST, CHAPEL HILL, NC, 27516",72378690,"L"
230849,"503 TERRY STREET","LONGMONT","CO",80501,40.1675388990001,-105.105169506,349,"503 TERRY STREET, LONGMONT, CO, 80501","Match","Exact","503 TERRY ST, LONGMONT, CO, 80501",188156063,"L"
230850,"503 THE OAKS","CLARKSTON","GA",30021,NA,NA,350,"503 THE OAKS, CLARKSTON, GA, 30021","No_Match",NA,NA,NA,NA
230851,"503 THIRD STREET","DAVIS","CA",95616,38.544359553,-121.74240082,351,"503 THIRD STREET, DAVIS, CA, 95616","Match","Exact","503 3RD ST, DAVIS, CA, 95616",67691596,"L"
230852,"503 TODD DRIVE","GOLDSBORO","NC",27534,35.397204308,-77.922056689,352,"503 TODD DRIVE, GOLDSBORO, NC, 27534","Match","Exact","503 TODD DR, GOLDSBORO, NC, 27534",14406072,"L"
230853,"503 TRAVERSE DRIVE","COSTA MESA","CA",92626,33.686476989,-117.878368618,353,"503 TRAVERSE DRIVE, COSTA MESA, CA, 92626","Match","Exact","503 TRAVERSE DR, COSTA MESA, CA, 92626",144048848,"L"
230854,"503 TULIP DR","THREE OAKS","MI",48346,41.794982325,-86.6042633929999,354,"503 TULIP DR, THREE OAKS, MI, 48346","Match","Non_Exact","503 TULIP DR, THREE OAKS, MI, 49128",119970485,"R"
230855,"503 VERDAE DR","SPARTANBURG","SC",29301,34.91573472,-82.02606502,355,"503 VERDAE DR, SPARTANBURG, SC, 29301","Match","Exact","503 VERDAE DR, SPARTANBURG, SC, 29301",624395565,"R"
230856,"503 W 11TH STREET","MCCAMON","ID",83250,42.6463338080001,-112.197088581,356,"503 W 11TH STREET, MCCAMON, ID, 83250","Match","Non_Exact","503 W 11TH ST, MCCAMMON, ID, 83250",204366838,"L"
230857,"503 W DALY ST","BUTTE","MT",59701,46.028836476,-112.543717243,357,"503 W DALY ST, BUTTE, MT, 59701","Match","Exact","503 W DALY ST, BUTTE, MT, 59701",153586070,"L"
230858,"503 W EDGEWOOD AVE","JACKSONVILLE","FL",32208,NA,NA,358,"503 W EDGEWOOD AVE, JACKSONVILLE, FL, 32208","Tie",NA,NA,NA,NA
230859,"503 W GRAHAM AVE UNIT 304","LAKE ELSINORE","CA",92530,33.669477779,-117.332719043,359,"503 W GRAHAM AVE UNIT 304, LAKE ELSINORE, CA, 92530","Match","Non_Exact","503 W GRAHAM AVE, LAKE ELSINORE, CA, 92530",194707724,"R"
230860,"503 W TAYLOR AVE","MOSCOW","ID",83843,46.7227297100001,-117.006855909,360,"503 W TAYLOR AVE, MOSCOW, ID, 83843","Match","Exact","503 TAYLOR AVE, MOSCOW, ID, 83843",650124854,"R"
230861,"503 W133 ST STE 6D","NEW YORK","NY",10027,NA,NA,361,"503 W133 ST STE 6D, NEW YORK, NY, 10027","No_Match",NA,NA,NA,NA
230862,"503 WALNUT GROVE PAULINE ROAD","PAULINE","SC",29374,34.821361962,-81.882436855,362,"503 WALNUT GROVE PAULINE ROAD, PAULINE, SC, 29374","Match","Exact","503 WALNUT GROVE PAULINE RD, PAULINE, SC, 29374",19451713,"L"
230863,"503 WALNUT ST","TEXARKANA","AR",71854,33.425704506,-94.0415568019999,363,"503 WALNUT ST, TEXARKANA, AR, 71854","Match","Exact","503 WALNUT ST, TEXARKANA, AR, 71854",57275800,"L"
230864,"503 WALWORTH STREET","LAKE GENEVA","WI",53147,42.599011278,-88.430500035,364,"503 WALWORTH STREET, LAKE GENEVA, WI, 53147","Match","Exact","503 WALWORTH ST, LAKE GENEVA, WI, 53147",53671653,"R"
230865,"503 WEST 46TH ST  APT 8","NEW YORK","NY",10036,40.762263788,-73.993778257,365,"503 WEST 46TH ST  APT 8, NEW YORK, NY, 10036","Match","Exact","503 W 46TH ST, NEW YORK, NY, 10036",59661437,"R"
230866,"503 WEST DEAN ROAD","FOX POINT","WI",53217,43.1694910690001,-87.913272649,366,"503 WEST DEAN ROAD, FOX POINT, WI, 53217","Match","Exact","503 W DEAN RD, FOX POINT, WI, 53217",77735103,"L"
230867,"503 WEST MAIN STREET SUITE/C","GALLUP","NM",87301,NA,NA,367,"503 WEST MAIN STREET SUITE/C, GALLUP, NM, 87301","No_Match",NA,NA,NA,NA
230868,"503 WEST RD UNIT 65","HOUSTON","TX",77038,NA,NA,368,"503 WEST RD UNIT 65, HOUSTON, TX, 77038","No_Match",NA,NA,NA,NA
230869,"503 WEXFORD DR","NICEVILLE","FL",32578,30.5176394160001,-86.4426768,369,"503 WEXFORD DR, NICEVILLE, FL, 32578","Match","Exact","503 WEXFORD DR, NICEVILLE, FL, 32578",74432433,"L"
230870,"503 WHITE HORSE PIKE SUITE 202","HADDON HEIGHTS","NJ",8035,NA,NA,370,"503 WHITE HORSE PIKE SUITE 202, HADDON HEIGHTS, NJ, 8035","No_Match",NA,NA,NA,NA
230871,"503 WHITTEN AVENUE","INGLESIDE","IL",60041,42.3826984930001,-88.156603752,371,"503 WHITTEN AVENUE, INGLESIDE, IL, 60041","Match","Exact","503 WHITTEN AVE, INGLESIDE, IL, 60041",119663295,"R"
230872,"503 WILDHAM AVENUE","NORTH CAPE MAY","NJ",8204,NA,NA,372,"503 WILDHAM AVENUE, NORTH CAPE MAY, NJ, 8204","No_Match",NA,NA,NA,NA
230873,"503 WILLOW DRIVE","LOCHBUIE","CO",80603,40.0032519910001,-104.713751623,373,"503 WILLOW DRIVE, LOCHBUIE, CO, 80603","Match","Exact","503 WILLOW DR, LOCHBUIE, CO, 80603",188691061,"L"
230874,"503 WOOD LANE COURT","CINNAMINSON","NJ",8077,39.995073002,-74.9681850119999,374,"503 WOOD LANE COURT, CINNAMINSON, NJ, 8077","Match","Non_Exact","503 WOODLANE CT, CINNAMINSON, NJ, 08077",134026659,"L"
230875,"503 WOODSTOWN RD","WOOLWICH TOWNSHIP","NJ",8085,39.708099915,-75.317916004,375,"503 WOODSTOWN RD, WOOLWICH TOWNSHIP, NJ, 8085","Match","Exact","503 WOODSTOWN RD, WOOLWICH TOWNSHIP, NJ, 08085",134592347,"R"
230876,"503 YANCEY ROAD","ARNOLDSVILLE","GA",30619,33.9198898230001,-83.200639122,376,"503 YANCEY ROAD, ARNOLDSVILLE, GA, 30619","Match","Exact","503 YANCEY RD, ARNOLDSVILLE, GA, 30619",5053372,"L"
230877,"503-5 W HARRISON AVE","HARLINGEN","TX",78550,26.1906583410001,-97.700108159,377,"503-5 W HARRISON AVE, HARLINGEN, TX, 78550","Match","Exact","503 W HARRISON AVE, HARLINGEN, TX, 78550",89955209,"L"
230878,"5030 48TH PLACE","VERO BEACH","FL",32967,27.681342756,-80.4379702589999,378,"5030 48TH PLACE, VERO BEACH, FL, 32967","Match","Exact","5030 48TH PL, VERO BEACH, FL, 32967",120327741,"R"
230879,"5030 5TH AVENUE","KEY WEST","FL",33040,24.5688187100001,-81.745511382,379,"5030 5TH AVENUE, KEY WEST, FL, 33040","Match","Exact","5030 5TH AVE, KEY WEST, FL, 33040",116476585,"R"
230880,"5030 65TH PLACE","WOODSIDE","NY",11377,NA,NA,380,"5030 65TH PLACE, WOODSIDE, NY, 11377","No_Match",NA,NA,NA,NA
230881,"5030 AMES LAKE ROAD NE","CARNATION","WA",98014,NA,NA,381,"5030 AMES LAKE ROAD NE, CARNATION, WA, 98014","No_Match",NA,NA,NA,NA
230882,"5030 ARGONNE PL","SYLVANIA","OH",43560,41.7190801690001,-83.6642079929999,382,"5030 ARGONNE PL, SYLVANIA, OH, 43560","Match","Exact","5030 ARGONNE PL, SYLVANIA, OH, 43560",33927972,"R"
230883,"5030 ARROWHEAD TRACE","OAK FOREST","IL",60452,41.577152443,-87.74205341,383,"5030 ARROWHEAD TRACE, OAK FOREST, IL, 60452","Match","Exact","5030 ARROWHEAD TRCE, OAK FOREST, IL, 60452",634792173,"L"
230884,"5030 BAY LANE","BACLIFF","TX",77518,29.507380024,-94.973529593,384,"5030 BAY LANE, BACLIFF, TX, 77518","Match","Exact","5030 BAY LN, BACLIFF, TX, 77518",627934653,"R"
230885,"5030 BRYAN ROAD","RICHMOND","TX",77469,29.5310734380001,-95.771015125,385,"5030 BRYAN ROAD, RICHMOND, TX, 77469","Match","Exact","5030 BRYAN RD, RICHMOND, TX, 77469",227750373,"R"
230886,"5030 CHAMPION BLVD G-11 456","BOCA RATON","FL",33496,26.4119022400001,-80.1233230889999,386,"5030 CHAMPION BLVD G-11 456, BOCA RATON, FL, 33496","Match","Exact","5030 CHAMPION BLVD, BOCA RATON, FL, 33496",115575952,"R"
230887,"5030 CHAMPION BLVD NUM G-11-422","BOCA RATON","FL",33496,26.4119022400001,-80.1233230889999,387,"5030 CHAMPION BLVD NUM G-11-422, BOCA RATON, FL, 33496","Match","Exact","5030 CHAMPION BLVD, BOCA RATON, FL, 33496",115575952,"R"
230888,"5030 COLLINS LAKE DR","MABLETON","GA",30126,33.832506358,-84.5580467089999,388,"5030 COLLINS LAKE DR, MABLETON, GA, 30126","Match","Non_Exact","5030 COLLINS LAKE DR SW, MABLETON, GA, 30126",614175564,"L"
230889,"5030 DEL SHANNON STREET","NORTH LAS VEGAS","NV",89031,36.2515572770001,-115.206901623,389,"5030 DEL SHANNON STREET, NORTH LAS VEGAS, NV, 89031","Match","Exact","5030 DEL SHANNON ST, N LAS VEGAS, NV, 89031",201908526,"R"
230890,"5030 E BUSCH BLVD","TAMPA","FL",33617,28.0326385710001,-82.400195625,390,"5030 E BUSCH BLVD, TAMPA, FL, 33617","Match","Exact","5030 E BUSCH BLVD, TAMPA, FL, 33617",104532365,"L"
230891,"5030 HARTWELL DR","HOUSTON","TX",77084,29.8456360700001,-95.679777153,391,"5030 HARTWELL DR, HOUSTON, TX, 77084","Match","Exact","5030 HARTWELL DR, HOUSTON, TX, 77084",96143499,"R"
230892,"5030 HILSDALE CIR SUITE 101","EL DORADO HILLS","CA",95762,38.6243295150001,-121.061998638,392,"5030 HILSDALE CIR SUITE 101, EL DORADO HILLS, CA, 95762","Match","Non_Exact","5030 HILLSDALE CIR, EL DORADO HILLS, CA, 95762",133061095,"R"
230893,"5030 KATELLA AVE SUITE 210","LOS ALAMITOS","CA",90720,NA,NA,393,"5030 KATELLA AVE SUITE 210, LOS ALAMITOS, CA, 90720","No_Match",NA,NA,NA,NA
230894,"5030 N MARINE DR","CHICAGO","IL",60640,41.9741331600001,-87.651297545,394,"5030 N MARINE DR, CHICAGO, IL, 60640","Match","Exact","5030 N MARINE DR, CHICAGO, IL, 60640",111766424,"L"
230895,"5030 N MAY AVE SUITE 124","OKLAHOMA CITY","OK",73112,35.5213696910001,-97.565668718,395,"5030 N MAY AVE SUITE 124, OKLAHOMA CITY, OK, 73112","Match","Non_Exact","5030 N MAY AVE, OKLAHOMA CITY, OK, 73112",100396056,"R"
230896,"5030 NESBIT FERRY LANE","SANDY SPRINGS","GA",30350,33.964902307,-84.270853207,396,"5030 NESBIT FERRY LANE, SANDY SPRINGS, GA, 30350","Match","Exact","5030 NESBIT FERRY LN, SANDY SPRINGS, GA, 30350",17356620,"L"
230897,"5030 S 427","PRYOR","OK",74361,36.2325991820001,-95.404578897,397,"5030 S 427, PRYOR, OK, 74361","Match","Non_Exact","5030 S 427 RD, PRYOR, OK, 74361",610830840,"L"
230898,"5030 S 72ND STREET","LINCOLN","NE",68516,40.76316029,-96.622228793,398,"5030 S 72ND STREET, LINCOLN, NE, 68516","Match","Exact","5030 S 72ND ST, LINCOLN, NE, 68516",640632905,"R"
230899,"5030 SANTA ANA STREET APT 208","CUDAHY","CA",90201,33.960063495,-118.178120946,399,"5030 SANTA ANA STREET APT 208, CUDAHY, CA, 90201","Match","Exact","5030 SANTA ANA ST, CUDAHY, CA, 90201",142764281,"R"
230900,"5030 SANTA MONICA BLVD","LOS ANGELES","CA",90029,34.090827769,-118.298907103,400,"5030 SANTA MONICA BLVD, LOS ANGELES, CA, 90029","Match","Exact","5030 SANTA MONICA BLVD, LOS ANGELES, CA, 90029",141603277,"L"
230901,"5030 SCHUYLER STREET","PHILADELPHIA","PA",19144,40.02042555,-75.172413274,401,"5030 SCHUYLER STREET, PHILADELPHIA, PA, 19144","Match","Exact","5030 SCHUYLER ST, PHILADELPHIA, PA, 19144",131401494,"L"
230902,"5030 THACKERAY DRIVE","FAYETTEVILLE","NC",28306,34.9951054960001,-78.9467723829999,402,"5030 THACKERAY DRIVE, FAYETTEVILLE, NC, 28306","Match","Exact","5030 THACKERAY DR, FAYETTEVILLE, NC, 28306",64247950,"L"
230903,"5030 UNION PIKE","RICHMOND","IN",47374,39.901146263,-84.907059872,403,"5030 UNION PIKE, RICHMOND, IN, 47374","Match","Exact","5030 UNION PIKE, RICHMOND, IN, 47374",31334206,"L"
230904,"50300 HANFORD ROAD","CANTON","MI",48187,42.3278670760001,-83.536076877,404,"50300 HANFORD ROAD, CANTON, MI, 48187","Match","Exact","50300 HANFORD RD, CANTON, MI, 48187",642520147,"L"
230905,"50300 PLEASANT STREET","DOWAGIAC","MI",49047,42.0647146430001,-86.153775787,405,"50300 PLEASANT STREET, DOWAGIAC, MI, 49047","Match","Exact","50300 PLEASANT ST, DOWAGIAC, MI, 49047",22574579,"L"
230906,"5031 168TH STREET SW SUITE 100","LYNNWOOD","WA",98037,47.8465638270001,-122.301420326,406,"5031 168TH STREET SW SUITE 100, LYNNWOOD, WA, 98037","Match","Exact","5031 168TH ST SW, LYNNWOOD, WA, 98037",606935570,"R"
230907,"5031 BIG BEND RD","SILVER CITY","NM",88061,32.831015515,-108.271877238,407,"5031 BIG BEND RD, SILVER CITY, NM, 88061","Match","Exact","5031 BIG BEND RD, SILVER CITY, NM, 88061",192655233,"L"
230908,"5031 BIRCH STREET SUITE C","NEWPORT BEACH","CA",92660,33.6665272270001,-117.859246628,408,"5031 BIRCH STREET SUITE C, NEWPORT BEACH, CA, 92660","Match","Exact","5031 BIRCH ST, NEWPORT BEACH, CA, 92660",144058316,"L"
230909,"5031 FAIR AVENUE APT 453","N HOLLYWOOD","CA",91601,34.1618227870001,-118.374664388,409,"5031 FAIR AVENUE APT 453, N HOLLYWOOD, CA, 91601","Match","Exact","5031 FAIR AVE, N HOLLYWOOD, CA, 91601",141591762,"L"
230910,"5031 HERON COURT","COCONUT CREEK","FL",33073,26.310847858,-80.19305973,410,"5031 HERON COURT, COCONUT CREEK, FL, 33073","Match","Exact","5031 HERON CT, COCONUT CREEK, FL, 33073",114792942,"L"
230911,"5031 N 81ST STREET","SCOTTSDALE","AZ",85250,33.510058374,-111.905318825,411,"5031 N 81ST STREET, SCOTTSDALE, AZ, 85250","Match","Exact","5031 N 81ST ST, SCOTTSDALE, AZ, 85250",640590217,"L"
230912,"5031 READ BLVD","NEW ORLEANS","LA",70127,30.0259948080001,-89.968702043,412,"5031 READ BLVD, NEW ORLEANS, LA, 70127","Match","Exact","5031 READ BLVD, NEW ORLEANS, LA, 70127",191739988,"R"
230913,"5031 TONGEN AVE NW","ROCHESTER","MN",55901,44.0751245070001,-92.507982775,413,"5031 TONGEN AVE NW, ROCHESTER, MN, 55901","Match","Exact","5031 TONGEN AVE NW, ROCHESTER, MN, 55901",30561562,"L"
230914,"5031 VT ROUTE 11","LONDONDERRY","VT",5148,43.2101002680001,-72.7673210149999,414,"5031 VT ROUTE 11, LONDONDERRY, VT, 5148","Match","Non_Exact","5031 STATE RTE 11, LONDONDERRY, VT, 05148",650087259,"L"
230915,"5031 WINDINGBROOK TRL","WESLEY CHAPEL","FL",33544,28.229290475,-82.366743721,415,"5031 WINDINGBROOK TRL, WESLEY CHAPEL, FL, 33544","Match","Exact","5031 WINDINGBROOK TRL, WESLEY CHAPEL, FL, 33544",86406400,"L"
230916,"5032 ADAIR OAK DRIVE","ORLANDO","FL",32829,28.490406711,-81.244931537,416,"5032 ADAIR OAK DRIVE, ORLANDO, FL, 32829","Match","Exact","5032 ADAIR OAK DR, ORLANDO, FL, 32829",653176593,"R"
230917,"5032 BAYVIEW CIRCLE","STOCKTON","CA",95219,37.9819987270001,-121.365411053,417,"5032 BAYVIEW CIRCLE, STOCKTON, CA, 95219","Match","Non_Exact","5032 BAY VIEW CIR, STOCKTON, CA, 95219",133887867,"L"
230918,"5032 CAPITAL CIRCLE SW SUITE 2 113","TALLAHASSEE","FL",32305,30.3757238790001,-84.288688,418,"5032 CAPITAL CIRCLE SW SUITE 2 113, TALLAHASSEE, FL, 32305","Match","Exact","5032 CAPITAL CIR SW, TALLAHASSEE, FL, 32305",646456163,"R"
230919,"5032 CROSSWINDS DRIVE","WILMINGTON","NC",28409,34.152212283,-77.877845749,419,"5032 CROSSWINDS DRIVE, WILMINGTON, NC, 28409","Match","Exact","5032 CROSSWINDS DR, WILMINGTON, NC, 28409",152753438,"R"
230920,"5032 FELLOWSHIP ROAD","WILLISTON","SC",29853,33.371854946,-81.455652742,420,"5032 FELLOWSHIP ROAD, WILLISTON, SC, 29853","Match","Exact","5032 FELLOWSHIP RD, WILLISTON, SC, 29853",636618568,"R"
230921,"5032 FERNWOOD AVE","EGG HARBOR TOWNSHIP","NJ",8234,39.393210862,-74.6094028479999,421,"5032 FERNWOOD AVE, EGG HARBOR TOWNSHIP, NJ, 8234","Match","Exact","5032 FERNWOOD AVE, EGG HARBOR TOWNSHIP, NJ, 08234",202526157,"R"
230922,"5032 HANKERSON AVENUE","EDINA","MN",55436,44.912652613,-93.3562775889999,422,"5032 HANKERSON AVENUE, EDINA, MN, 55436","Match","Exact","5032 HANKERSON AVE, EDINA, MN, 55436",43626275,"R"
230923,"5032 HANNA PLACE SE","WASHINGTON","DC",20019,38.879578822,-76.9312797009999,423,"5032 HANNA PLACE SE, WASHINGTON, DC, 20019","Match","Exact","5032 HANNA PL SE, WASHINGTON, DC, 20019",76233904,"L"
230924,"5032 OOLTEWAH RINGGOLD RD  STE 120","OOLTEWAH","TN",37363,35.0607071160001,-85.066544119,424,"5032 OOLTEWAH RINGGOLD RD  STE 120, OOLTEWAH, TN, 37363","Match","Exact","5032 OOLTEWAH RINGGOLD RD, OOLTEWAH, TN, 37363",639701804,"L"
230925,"5032 RAPID RUN ROAD","CINCINNATI","OH",45238,39.1109368240001,-84.605736018,425,"5032 RAPID RUN ROAD, CINCINNATI, OH, 45238","Match","Exact","5032 RAPID RUN RD, CINCINNATI, OH, 45238",103947209,"R"
230926,"5032 SMITHFIELD CIRCLE","NORTHPORT","AL",35473,33.253893819,-87.60717033,426,"5032 SMITHFIELD CIRCLE, NORTHPORT, AL, 35473","Match","Exact","5032 SMITHFIELD CIR, NORTHPORT, AL, 35473",650878218,"L"
230927,"5032 SOUTH BENTON AVENUE","KANSAS CITY","KS",64130,NA,NA,427,"5032 SOUTH BENTON AVENUE, KANSAS CITY, KS, 64130","No_Match",NA,NA,NA,NA
230928,"5032 SOUTH BUR OAK PLACE SUITE 220","SIOUX FALLS","SD",57108,43.499482825,-96.762870983,428,"5032 SOUTH BUR OAK PLACE SUITE 220, SIOUX FALLS, SD, 57108","Match","Exact","5032 S BUR OAK PL, SIOUX FALLS, SD, 57108",618474275,"L"
230929,"5032 SUNSET FAIRWAYS DR","HOLLY SPRINGS","NC",27540,35.6609995370001,-78.799014028,429,"5032 SUNSET FAIRWAYS DR, HOLLY SPRINGS, NC, 27540","Match","Exact","5032 SUNSET FAIRWAYS DR, HOLLY SPRINGS, NC, 27540",72599076,"L"
230930,"5032 WOODMINSTER LANE","OAKLAND","CA",94602,37.8115359990001,-122.197336822,430,"5032 WOODMINSTER LANE, OAKLAND, CA, 94602","Match","Exact","5032 WOODMINSTER LN, OAKLAND, CA, 94602",125003825,"R"
230931,"5033 7TH RD S APT T1","ARLINGTON","VA",22204,38.8596881610001,-77.1164346429999,431,"5033 7TH RD S APT T1, ARLINGTON, VA, 22204","Match","Exact","5033 7TH RD S, ARLINGTON, VA, 22204",76477556,"R"
230932,"5033 COUNTY ROAD 335 NUMBER 295","NEW CASTLE","CO",81647,39.557439937,-107.550386244,432,"5033 COUNTY ROAD 335 NUMBER 295, NEW CASTLE, CO, 81647","Match","Exact","5033 CO RD 335, NEW CASTLE, CO, 81647",105786934,"R"
230933,"5033 ENGLISH CREEK AVE","EGG HARBOR TOWNSHIP","NJ",8234,39.401167974,-74.6311540739999,433,"5033 ENGLISH CREEK AVE, EGG HARBOR TOWNSHIP, NJ, 8234","Match","Exact","5033 ENGLISH CREEK AVE, EGG HARBOR TOWNSHIP, NJ, 08234",649966906,"L"
230934,"5033 GALAXY WAY APT 413","HUNTSVILLE","AL",35816,34.7427443060001,-86.652402878,434,"5033 GALAXY WAY APT 413, HUNTSVILLE, AL, 35816","Match","Non_Exact","5033 GALAXY WAY NW, HUNTSVILLE, AL, 35816",653866490,"L"
230935,"5033 KRICK STREET","NORFOLK","VA",23513,36.8775539490001,-76.229933762,435,"5033 KRICK STREET, NORFOLK, VA, 23513","Match","Exact","5033 KRICK ST, NORFOLK, VA, 23513",647859984,"R"
230936,"5033 RIDGE VISTA WAY","N LAS VEGAS","NV",89031,36.2515002230001,-115.188617085,436,"5033 RIDGE VISTA WAY, N LAS VEGAS, NV, 89031","Match","Exact","5033 RIDGE VISTA WAY, N LAS VEGAS, NV, 89031",201968186,"L"
230937,"5033 S VISION QUEST COURT","GOLD CANYON","AZ",85118,NA,NA,437,"5033 S VISION QUEST COURT, GOLD CANYON, AZ, 85118","Tie",NA,NA,NA,NA
230938,"5033 SOUTHSIDE RANCH RD","ROCKLIN","CA",95677,38.780956486,-121.209985225,438,"5033 SOUTHSIDE RANCH RD, ROCKLIN, CA, 95677","Match","Exact","5033 SOUTHSIDE RANCH RD, ROCKLIN, CA, 95677",608085803,"R"
230939,"5034 38TH AVE APT 5","HYATTSVILLE","MD",20782,38.951742827,-76.9553654869999,439,"5034 38TH AVE APT 5, HYATTSVILLE, MD, 20782","Match","Exact","5034 38TH AVE, HYATTSVILLE, MD, 20782",76391081,"L"
230940,"5034 A STATE ROUTE 133","BATAVIA","OH",45103,39.120460092,-84.058695383,440,"5034 A STATE ROUTE 133, BATAVIA, OH, 45103","Match","Exact","5034 STATE RTE 133, BATAVIA, OH, 45103",652706894,"R"
230941,"5034 ALTA CANYADA ROAD","LA CANADA","CA",91011,34.218823527,-118.21041464,441,"5034 ALTA CANYADA ROAD, LA CANADA, CA, 91011","Match","Exact","5034 ALTA CANYADA RD, LA CANADA, CA, 91011",141590626,"R"
230942,"5034 CARPINTERIA AVE","CARPINTERIA","CA",93013,34.3987227110001,-119.518025706,442,"5034 CARPINTERIA AVE, CARPINTERIA, CA, 93013","Match","Exact","5034 CARPINTERIA AVE, CARPINTERIA, CA, 93013",108608213,"L"
230943,"5034 DUXFORD DRIVE","SMYRNA","GA",30082,33.829821211,-84.5058449159999,443,"5034 DUXFORD DRIVE, SMYRNA, GA, 30082","Match","Exact","5034 DUXFORD DR, SMYRNA, GA, 30082",614177262,"R"
230944,"5034 ELVIS PRESLEY BLVD","MEMPHIS","TN",38116,35.0112927110001,-90.025236427,444,"5034 ELVIS PRESLEY BLVD, MEMPHIS, TN, 38116","Match","Exact","5034 ELVIS PRESLEY BLVD, MEMPHIS, TN, 38116",72922576,"L"
230945,"5034 HAMILTON DRIVE","ALIQUIPPA","PA",15001,40.5640136590001,-80.277844966,445,"5034 HAMILTON DRIVE, ALIQUIPPA, PA, 15001","Match","Exact","5034 HAMILTON DR, ALIQUIPPA, PA, 15001",52582099,"R"
230946,"5034 KENSINGTON AVE","DETROIT","MI",48224,42.4044707520001,-82.935477266,446,"5034 KENSINGTON AVE, DETROIT, MI, 48224","Match","Non_Exact","5034 KENSINGTON, DETROIT, MI, 48224",95487259,"R"
230947,"5034 LAFAYETTE RD","INDIANAPOLIS","IN",46254,39.8438304920001,-86.254279466,447,"5034 LAFAYETTE RD, INDIANAPOLIS, IN, 46254","Match","Exact","5034 LAFAYETTE RD, INDIANAPOLIS, IN, 46254",107976028,"L"
230948,"5034 LAFEYETTE RD","INDIANAPOLIS","IN",46254,39.8438304920001,-86.254279466,448,"5034 LAFEYETTE RD, INDIANAPOLIS, IN, 46254","Match","Non_Exact","5034 LAFAYETTE RD, INDIANAPOLIS, IN, 46254",107976028,"L"
230949,"5034 NORTH RICHMOND STREET","APPLETON","WI",54913,44.315042727,-88.4148344499999,449,"5034 NORTH RICHMOND STREET, APPLETON, WI, 54913","Match","Exact","5034 N RICHMOND ST, APPLETON, WI, 54913",74897821,"R"
230950,"5034 S SHAWNEE ST","AURORA","CO",80015,39.624938904,-104.729068749,450,"5034 S SHAWNEE ST, AURORA, CO, 80015","Match","Exact","5034 S SHAWNEE ST, AURORA, CO, 80015",617960323,"L"
230951,"5034 THOROUGHBRED LANE","BRENTWOOD","TN",37027,36.0370392830001,-86.794412123,451,"5034 THOROUGHBRED LANE, BRENTWOOD, TN, 37027","Match","Exact","5034 THOROUGHBRED LN, BRENTWOOD, TN, 37027",607901877,"L"
230952,"5034 WISCONSIN AVE NW SUITE 200","WASHINGTON","DC",20016,38.95516681,-77.082871632,452,"5034 WISCONSIN AVE NW SUITE 200, WASHINGTON, DC, 20016","Match","Exact","5034 WISCONSIN AVE NW, WASHINGTON, DC, 20016",76219683,"L"
230953,"5035 41ST STREET","SUNNYSIDE","NY",11104,NA,NA,453,"5035 41ST STREET, SUNNYSIDE, NY, 11104","No_Match",NA,NA,NA,NA
230954,"5035 BELAND DR","LAKE WORTH","FL",33467,26.6046919660001,-80.181840784,454,"5035 BELAND DR, LAKE WORTH, FL, 33467","Match","Exact","5035 BELAND DR, LAKE WORTH, FL, 33467",649884978,"R"
230955,"5035 CLAIRTON BLVD","PITTSBURGH","PA",15236,40.3467908120001,-79.9736344569999,455,"5035 CLAIRTON BLVD, PITTSBURGH, PA, 15236","Match","Exact","5035 CLAIRTON BLVD, PITTSBURGH, PA, 15236",653375522,"L"
230956,"5035 COMSTOCK RD","CHAPEL HILL","TN",37034,35.6738745710001,-86.642813948,456,"5035 COMSTOCK RD, CHAPEL HILL, TN, 37034","Match","Exact","5035 COMSTOCK RD, CHAPEL HILL, TN, 37034",58975171,"R"
230957,"5035 FAIRFAX EAST","LAKELAND","FL",33813,27.9733076110001,-81.936791421,457,"5035 FAIRFAX EAST, LAKELAND, FL, 33813","Match","Non_Exact","5035 FAIRFAX DR E, LAKELAND, FL, 33813",104877269,"R"
230958,"5035 HIGHPOINT DR","TOLEDO","OH",43615,41.6845021760001,-83.662200406,458,"5035 HIGHPOINT DR, TOLEDO, OH, 43615","Match","Exact","5035 HIGHPOINT DR, TOLEDO, OH, 43615",33956661,"L"
230959,"5035 LEE ROAD","SOUTH BLOOMFIELD","OH",43103,39.718731544,-82.9811389929999,459,"5035 LEE ROAD, SOUTH BLOOMFIELD, OH, 43103","Match","Exact","5035 LEE RD, S BLOOMFIELD, OH, 43103",632839134,"R"
230960,"5035 LOWER HUNTINGTON ROAD","FORT WAYNE","IN",46809,41.0155923630001,-85.202594737,460,"5035 LOWER HUNTINGTON ROAD, FORT WAYNE, IN, 46809","Match","Exact","5035 LOWER HUNTINGTON RD, FORT WAYNE, IN, 46809",6408882,"L"
230961,"5035 OXFORD STREET APT 14","LYNCHBURG","VA",24502,37.3781085570001,-79.18284067,461,"5035 OXFORD STREET APT 14, LYNCHBURG, VA, 24502","Match","Exact","5035 OXFORD ST, LYNCHBURG, VA, 24502",62738741,"R"
230962,"5035 POSTON DRIVE","SAN JOSE","CA",95136,37.261633503,-121.826574808,462,"5035 POSTON DRIVE, SAN JOSE, CA, 95136","Match","Exact","5035 POSTON DR, SAN JOSE, CA, 95136",122924491,"R"
230963,"5035 S EAST END AVE APT 2201S","CHICAGO","IL",60615,NA,NA,463,"5035 S EAST END AVE APT 2201S, CHICAGO, IL, 60615","No_Match",NA,NA,NA,NA
230964,"5035 S EAST END AVE APT 701S","CHICAGO","IL",60615,NA,NA,464,"5035 S EAST END AVE APT 701S, CHICAGO, IL, 60615","No_Match",NA,NA,NA,NA
230965,"5035 VERMACK RD","DUNWOODY","GA",30338,33.945426909,-84.3166878169999,465,"5035 VERMACK RD, DUNWOODY, GA, 30338","Match","Exact","5035 VERMACK RD, DUNWOODY, GA, 30338",23356453,"R"
230966,"5035 VERMACK ROAD","DUNWOODY","GA",30338,33.945426909,-84.3166878169999,466,"5035 VERMACK ROAD, DUNWOODY, GA, 30338","Match","Exact","5035 VERMACK RD, DUNWOODY, GA, 30338",23356453,"R"
230967,"5035 W BERENICE AVENUE","CHICAGO","IL",60641,41.950593795,-87.753086176,467,"5035 W BERENICE AVENUE, CHICAGO, IL, 60641","Match","Exact","5035 W BERENICE AVE, CHICAGO, IL, 60641",111755541,"L"
230968,"5035 WOOLDRIDGE","BELDING","MI",48809,43.0321077090001,-85.175318582,468,"5035 WOOLDRIDGE, BELDING, MI, 48809","Match","Non_Exact","5035 WOOLDRIDGE RD, BELDING, MI, 48809",12148503,"R"
230969,"5036 BELMEADE RD","KANSAS CITY","MO",64129,39.0334158270001,-94.5103321,469,"5036 BELMEADE RD, KANSAS CITY, MO, 64129","Match","Exact","5036 BELMEADE RD, KANSAS CITY, MO, 64129",91460145,"R"
230970,"5036 COTTONWOOD LANE","JACKSON","MS",39212,32.2517643250001,-90.304471671,470,"5036 COTTONWOOD LANE, JACKSON, MS, 39212","Match","Exact","5036 COTTONWOOD LN, JACKSON, MS, 39212",65367846,"R"
230971,"5036 DR PHILLIPS BLVD STE 321","ORLANDO","FL",32819,NA,NA,471,"5036 DR PHILLIPS BLVD STE 321, ORLANDO, FL, 32819","No_Match",NA,NA,NA,NA
230972,"5036 DR PHILLIPS BLVD SUITE 201","ORLANDO","FL",32819,NA,NA,472,"5036 DR PHILLIPS BLVD SUITE 201, ORLANDO, FL, 32819","No_Match",NA,NA,NA,NA
230973,"5036 DR PHILLIPS BLVD SUITE 242","ORLANDO","FL",32819,NA,NA,473,"5036 DR PHILLIPS BLVD SUITE 242, ORLANDO, FL, 32819","No_Match",NA,NA,NA,NA
230974,"5036 ELYSIAN FIELDS AVE","NEW ORLEANS","LA",70122,30.010030198,-90.06027611,474,"5036 ELYSIAN FIELDS AVE, NEW ORLEANS, LA, 70122","Match","Exact","5036 ELYSIAN FIELDS AVE, NEW ORLEANS, LA, 70122",191704332,"R"
230975,"5036 ERDMAN AVENUE","BALTIMORE","MD",21205,NA,NA,475,"5036 ERDMAN AVENUE, BALTIMORE, MD, 21205","No_Match",NA,NA,NA,NA
230976,"5036 IVY BROOK DRIVE","FORT WAYNE","IN",46835,41.1522193170001,-85.077590028,476,"5036 IVY BROOK DRIVE, FORT WAYNE, IN, 46835","Match","Exact","5036 BROOK DR, FORT WAYNE, IN, 46835",6384188,"R"
230977,"5036 MARNE ST","DALLAS","TX",75215,32.752495203,-96.751050017,477,"5036 MARNE ST, DALLAS, TX, 75215","Match","Exact","5036 MARNE ST, DALLAS, TX, 75215",102955979,"L"
230978,"5036 PASSONS BLVD SUITE 2","PICO RIVERA","CA",90660,33.9977892900001,-118.078415322,478,"5036 PASSONS BLVD SUITE 2, PICO RIVERA, CA, 90660","Match","Exact","5036 PASSONS BLVD, PICO RIVERA, CA, 90660",141736846,"L"
230979,"5036 SNAPFINGER WOODS DR SUITE 207","DECATUR","GA",30035,NA,NA,479,"5036 SNAPFINGER WOODS DR SUITE 207, DECATUR, GA, 30035","No_Match",NA,NA,NA,NA
230980,"5036 SOUTH BLACKSTONE AVE","CHICAGO","IL",60615,41.8035474760001,-87.59053104,480,"5036 SOUTH BLACKSTONE AVE, CHICAGO, IL, 60615","Match","Exact","5036 S BLACKSTONE AVE, CHICAGO, IL, 60615",111771711,"R"
230981,"5036 SW HILLTOP LANE","PORTLAND","OR",97221,45.5050735030001,-122.731227634,481,"5036 SW HILLTOP LANE, PORTLAND, OR, 97221","Match","Exact","5036 SW HILLTOP LN, PORTLAND, OR, 97221",647850874,"R"
230982,"5036 W WOLFE ST","BOISE","ID",83705,43.597356141,-116.24487106,482,"5036 W WOLFE ST, BOISE, ID, 83705","Match","Exact","5036 WOLFE ST, BOISE, ID, 83705",117862958,"R"
230983,"5036 WINSLOW DR","WHITEHALL","OH",43213,39.961262076,-82.863201418,483,"5036 WINSLOW DR, WHITEHALL, OH, 43213","Match","Exact","5036 WINSLOW DR, WHITEHALL, OH, 43213",218680372,"L"
230984,"5037 BROADWAY","GARY","IN",46409,41.5254612910001,-87.3360612879999,484,"5037 BROADWAY, GARY, IN, 46409","Match","Exact","5037 BROADWAY, GARY, IN, 46409",606315296,"L"
230985,"5037 CASSIA DR","PENSACOLA","FL",32506,30.383431564,-87.372705374,485,"5037 CASSIA DR, PENSACOLA, FL, 32506","Match","Exact","5037 CASSIA DR, PENSACOLA, FL, 32506",93244784,"R"
230986,"5037 CRAWFORD GULCH RD","GOLDEN","CO",80403,39.780235976,-105.287490253,486,"5037 CRAWFORD GULCH RD, GOLDEN, CO, 80403","Match","Exact","5037 CRAWFORD GULCH RD, GOLDEN, CO, 80403",177274283,"L"
230987,"5037 EAST MILL STATION DRIVE","BOISE","ID",83716,43.5674541290001,-116.121556542,487,"5037 EAST MILL STATION DRIVE, BOISE, ID, 83716","Match","Exact","5037 E MILL STATION DR, BOISE, ID, 83716",641555255,"R"
230988,"5037 HALIFAX RD","HALIFAX","NC",24558,NA,NA,488,"5037 HALIFAX RD, HALIFAX, NC, 24558","No_Match",NA,NA,NA,NA
230989,"5037 LUDLOW STREET","PHILADELPHIA","PA",19139,39.958834473,-75.221849184,489,"5037 LUDLOW STREET, PHILADELPHIA, PA, 19139","Match","Exact","5037 LUDLOW ST, PHILADELPHIA, PA, 19139",131399620,"R"
230990,"5037 NE 9TH AVE","PORTLAND","OR",97211,45.5594770610001,-122.656564617,490,"5037 NE 9TH AVE, PORTLAND, OR, 97211","Match","Exact","5037 NE 9TH AVE, PORTLAND, OR, 97211",157503976,"L"
230991,"5037 NE 9TH AVENUE","PORTLAND","OR",97211,45.5594770610001,-122.656564617,491,"5037 NE 9TH AVENUE, PORTLAND, OR, 97211","Match","Exact","5037 NE 9TH AVE, PORTLAND, OR, 97211",157503976,"L"
230992,"5037 PORTSMOUTH AVENUE","JACKSONVILLE","FL",32208,30.406218633,-81.7273122299999,492,"5037 PORTSMOUTH AVENUE, JACKSONVILLE, FL, 32208","Match","Exact","5037 PORTSMOUTH AVE, JACKSONVILLE, FL, 32208",83887723,"R"
230993,"5037 ROMAINE SPRING DR","FENTON","MO",63026,38.4615887460001,-90.4524118269999,493,"5037 ROMAINE SPRING DR, FENTON, MO, 63026","Match","Exact","5037 ROMAINE SPRING DR, FENTON, MO, 63026",607909150,"R"
230994,"5037 SANFORD STREET","METAIRIE","LA",70006,30.0027231600001,-90.194630436,494,"5037 SANFORD STREET, METAIRIE, LA, 70006","Match","Exact","5037 SANFORD ST, METAIRIE, LA, 70006",93499232,"R"
230995,"5037 SPYGLASS DR","BROOMFIELD","CO",80023,39.955366575,-105.050343165,495,"5037 SPYGLASS DR, BROOMFIELD, CO, 80023","Match","Exact","5037 SPYGLASS DR, BROOMFIELD, CO, 80023",177418382,"R"
230996,"5037 TOWNSEND DRIVE","FORT WORTH","TX",76115,32.672876532,-97.348749939,496,"5037 TOWNSEND DRIVE, FORT WORTH, TX, 76115","Match","Exact","5037 TOWNSEND DR, FORT WORTH, TX, 76115",101888081,"L"
230997,"5037 W SIERRA VISTA","GLENDALE","AZ",85301,33.5320875580001,-112.167183209,497,"5037 W SIERRA VISTA, GLENDALE, AZ, 85301","Match","Non_Exact","5037 W SIERRA VISTA DR, GLENDALE, AZ, 85301",128197712,"L"
230998,"5037 WALNUT STREET 1ST FLR","PHILADELPHIA","PA",19139,39.9565632370001,-75.222325095,498,"5037 WALNUT STREET 1ST FLR, PHILADELPHIA, PA, 19139","Match","Exact","5037 WALNUT ST, PHILADELPHIA, PA, 19139",131399634,"R"
230999,"5037 WARNOCK STREET","PHILADELPHIA","PA",19141,40.0289343640001,-75.140622846,499,"5037 WARNOCK STREET, PHILADELPHIA, PA, 19141","Match","Non_Exact","5037 N WARNOCK ST, PHILADELPHIA, PA, 19141",131417379,"R"
231000,"5038 AUCKLAND AVE","NORTH HOLLYWOOD","AR",91601,NA,NA,500,"5038 AUCKLAND AVE, NORTH HOLLYWOOD, AR, 91601","No_Match",NA,NA,NA,NA
