"ID","Address","City","State","Zip","lat","long","id","input_address","match_indicator","match_type","matched_address","tiger_line_id","tiger_side"
6501,"10114 LLANO RIVER LN","CYPRESS","TX",77433,29.9224580420001,-95.694694665,1,"10114 LLANO RIVER LN, CYPRESS, TX, 77433","Match","Exact","10114 LLANO RIVER LN, CYPRESS, TX, 77433",641757178,"L"
6502,"10114 N 2391 RD","WEATHERFORD","OK",73096,35.550975484,-98.726775985,2,"10114 N 2391 RD, WEATHERFORD, OK, 73096","Match","Exact","10114 N 2391 RD, WEATHERFORD, OK, 73096",150585573,"R"
6503,"10114 NW 160TH ST","NEWTON","KS",67114,38.057470778,-97.025829326,3,"10114 NW 160TH ST, NEWTON, KS, 67114","Match","Exact","10114 NW 160TH ST, NEWTON, KS, 67114",32253691,"R"
6504,"10114 RANGER RD","FAIRFAX","VA",22030,38.864535657,-77.295438179,4,"10114 RANGER RD, FAIRFAX, VA, 22030","Match","Exact","10114 RANGER RD, FAIRFAX, VA, 22030",75968462,"R"
6505,"10115 BAYOU MANOR LN","HOUSTON","TX",77064,29.918153278,-95.57906927,5,"10115 BAYOU MANOR LN, HOUSTON, TX, 77064","Match","Exact","10115 BAYOU MANOR LN, HOUSTON, TX, 77064",96229193,"R"
6506,"10115 E BELL ROAD","SCOTTSDALE","AZ",85260,33.6399846840001,-111.862966385,6,"10115 E BELL ROAD, SCOTTSDALE, AZ, 85260","Match","Exact","10115 E BELL RD, SCOTTSDALE, AZ, 85260",128598791,"R"
6507,"10115 E MOUNTAIN VIEW ROAD STE 2088","SCOTTSDALE","AZ",85258,33.5733787520001,-111.86428964,7,"10115 E MOUNTAIN VIEW ROAD STE 2088, SCOTTSDALE, AZ, 85258","Match","Non_Exact","10115 E MOUNTAIN VIEW RD, SCOTTSDALE, AZ, 85258",653179707,"R"
6508,"10115 HIGHLAND MEADOW CIR APT 202","PARKER","CO",80134,39.5324820540001,-104.852180092,8,"10115 HIGHLAND MEADOW CIR APT 202, PARKER, CO, 80134","Match","Exact","10115 HIGHLAND MEADOW CIR, PARKER, CO, 80134",624821861,"R"
6509,"10115 JEFFREYS ST UNIT 2156","LAS VEGAS","NV",89183,36.0062939000001,-115.121118437,9,"10115 JEFFREYS ST UNIT 2156, LAS VEGAS, NV, 89183","Match","Exact","10115 JEFFREYS ST, LAS VEGAS, NV, 89183",639261221,"R"
6510,"10115 NORTH BROOKS ST","TAMPA","FL",33612,28.0421336100001,-82.4459578249999,10,"10115 NORTH BROOKS ST, TAMPA, FL, 33612","Match","Exact","10115 N BROOKS ST, TAMPA, FL, 33612",104518760,"R"
6511,"10115 PINEHURST DRIVE","AUSTIN","TX",78747,30.1474440320001,-97.779556155,11,"10115 PINEHURST DRIVE, AUSTIN, TX, 78747","Match","Exact","10115 PINEHURST DR, AUSTIN, TX, 78747",63950500,"L"
6512,"10115 SE BROWNING RD","EVANSVILLE","IN",47725,NA,NA,12,"10115 SE BROWNING RD, EVANSVILLE, IN, 47725","Tie",NA,NA,NA,NA
6513,"10115 WATERFORD LANE","RANCHO CUCAMONGA","CA",91737,34.152207242,-117.5840579,13,"10115 WATERFORD LANE, RANCHO CUCAMONGA, CA, 91737","Match","Exact","10115 WATERFORD LN, RANCHO CUCAMONGA, CA, 91737",614814724,"R"
6514,"10115 WILLMINGTON DRIVE","SUMMERSET","SD",57718,44.181283788,-103.337466397,14,"10115 WILLMINGTON DRIVE, SUMMERSET, SD, 57718","Match","Exact","10115 WILLMINGTON DR, SUMMERSET, SD, 57718",637643905,"R"
6515,"10116  DAWN BROOK DR","PEARLAND","TX",77584,29.56982277,-95.3775908059999,15,"10116  DAWN BROOK DR, PEARLAND, TX, 77584","Match","Exact","10116 DAWN BROOK DR, PEARLAND, TX, 77584",627815649,"R"
6516,"10116 CHEVIOT DRIVE","LOS ANGELES","CA",90064,34.0355922590001,-118.404060672,16,"10116 CHEVIOT DRIVE, LOS ANGELES, CA, 90064","Match","Exact","10116 CHEVIOT DR, LOS ANGELES, CA, 90064",141573547,"L"
6517,"10116 NE 183RD ST","BOTHELL","WA",98011,47.76096618,-122.205215251,17,"10116 NE 183RD ST, BOTHELL, WA, 98011","Match","Exact","10116 NE 183RD ST, BOTHELL, WA, 98011",186598873,"L"
6518,"10116 NW 92ND TERRACE","KANSAS CITY","MO",64153,39.2620739920001,-94.697925447,18,"10116 NW 92ND TERRACE, KANSAS CITY, MO, 64153","Match","Exact","10116 NW 92ND TER, KANSAS CITY, MO, 64153",628686291,"R"
6519,"10116 ROAD 5 9 NE","MOSES LAKE","WA",98837,47.1740842450001,-119.273954505,19,"10116 ROAD 5 9 NE, MOSES LAKE, WA, 98837","Match","Non_Exact","10116 RD 5.9 NE, MOSES LAKE, WA, 98837",633725998,"L"
6520,"10117 CALDWELL DEPOT ROAD","CORNELIUS","NC",28031,35.453590363,-80.85077947,20,"10117 CALDWELL DEPOT ROAD, CORNELIUS, NC, 28031","Match","Exact","10117 CALDWELL DEPOT RD, CORNELIUS, NC, 28031",621884159,"R"
6521,"10117 CARMER","FENTON","MI",48430,42.755598395,-83.742292076,21,"10117 CARMER, FENTON, MI, 48430","Match","Non_Exact","10117 CARMER RD, FENTON, MI, 48430",23576103,"L"
6522,"10117 PRIVATE ROAD 2589","CLYDE","TX",79510,32.3765081070001,-99.563355019,22,"10117 PRIVATE ROAD 2589, CLYDE, TX, 79510","Match","Non_Exact","10117 PVT RD 2589, CLYDE, TX, 79510",129534269,"L"
6523,"10117 ROSEHAVEN DR","HOUSTON","TX",77051,29.6491152880001,-95.3760811929999,23,"10117 ROSEHAVEN DR, HOUSTON, TX, 77051","Match","Exact","10117 ROSEHAVEN DR, HOUSTON, TX, 77051",96088683,"L"
6524,"10117 SEPULVEDA BLVD STE 207","MISSION HILLS","CA",91345,34.2541692460001,-118.467516008,24,"10117 SEPULVEDA BLVD STE 207, MISSION HILLS, CA, 91345","Match","Non_Exact","10117 N SEPULVEDA BLVD, MISSION HILLS, CA, 91345",241188552,"L"
6525,"10117 SPRING GATE DR","LOUISVILLE","KY",40241,38.311249284,-85.5613325039999,25,"10117 SPRING GATE DR, LOUISVILLE, KY, 40241","Match","Exact","10117 SPRING GATE DR, LOUISVILLE, KY, 40241",96935541,"L"
6526,"10117 W 52ND PL UNIT 303","WHEAT RIDGE","CO",80033,39.790861013,-105.111572352,26,"10117 W 52ND PL UNIT 303, WHEAT RIDGE, CO, 80033","Match","Non_Exact","10117 W 52ND PL, WHEAT RIDGE, CO, 80033",648486423,"L"
6527,"10117 WHITTLESEY DR","UNION","KY",41091,38.9474145390001,-84.656656259,27,"10117 WHITTLESEY DR, UNION, KY, 41091","Match","Exact","10117 WHITTLESEY DR, UNION, KY, 41091",81965322,"R"
6528,"10117 WOOD LAUREL WAY","BOWIE","MD",20721,38.912973483,-76.831156848,28,"10117 WOOD LAUREL WAY, BOWIE, MD, 20721","Match","Exact","10117 WOOD LAUREL WAY, BOWIE, MD, 20721",76404636,"R"
6529,"10118 ANZAC AVE","LOS ANGELES","CA",90002,33.944852543,-118.237869518,29,"10118 ANZAC AVE, LOS ANGELES, CA, 90002","Match","Exact","10118 ANZAC AVE, LOS ANGELES, CA, 90002",141672609,"L"
6530,"10118 CLUBHOUSE CIRCLE","MAGNOLIA","TX",77354,30.209661023,-95.6020021209999,30,"10118 CLUBHOUSE CIRCLE, MAGNOLIA, TX, 77354","Match","Exact","10118 CLUBHOUSE CIR, MAGNOLIA, TX, 77354",79333265,"R"
6531,"10118 HORNBEAM BLVD","LOUISVILLE","KY",40228,38.1105530790001,-85.6093419159999,31,"10118 HORNBEAM BLVD, LOUISVILLE, KY, 40228","Match","Exact","10118 HORNBEAM BLVD, LOUISVILLE, KY, 40228",638729807,"L"
6532,"10118 MIMOSA SILK DR","FORT MYERS","FL",33913,26.579136148,-81.7901941229999,32,"10118 MIMOSA SILK DR, FORT MYERS, FL, 33913","Match","Exact","10118 MIMOSA SILK DR, FORT MYERS, FL, 33913",618031353,"R"
6533,"10118 NE MASON ST","PORTLAND","OR",97220,45.5527766210001,-122.558711093,33,"10118 NE MASON ST, PORTLAND, OR, 97220","Match","Exact","10118 NE MASON ST, PORTLAND, OR, 97220",157518227,"R"
6534,"10118 QUIVAS ST","THORNTON","CO",80260,39.8798765130001,-105.007513587,34,"10118 QUIVAS ST, THORNTON, CO, 80260","Match","Exact","10118 QUIVAS ST, THORNTON, CO, 80260",177295931,"L"
6535,"10119 225TH TERRACE NE","REDMOND","WA",98053,47.6893024280001,-122.040098169,35,"10119 225TH TERRACE NE, REDMOND, WA, 98053","Match","Exact","10119 225TH TER NE, REDMOND, WA, 98053",186958056,"L"
6536,"10119 41ST COURT EAST","PARRISH","FL",34219,27.548973909,-82.4609581999999,36,"10119 41ST COURT EAST, PARRISH, FL, 34219","Match","Exact","10119 41ST CT E, PARRISH, FL, 34219",646408133,"L"
6537,"10119 APPLE CREEK DR","DALLAS","TX",75243,32.914643047,-96.719892691,37,"10119 APPLE CREEK DR, DALLAS, TX, 75243","Match","Exact","10119 APPLE CREEK DR, DALLAS, TX, 75243",102914851,"L"
6538,"10119 CRINIUM COVE","AUSTIN","TX",78759,30.409929876,-97.775051989,38,"10119 CRINIUM COVE, AUSTIN, TX, 78759","Match","Exact","10119 CRINIUM COVE, AUSTIN, TX, 78759",63996088,"R"
6539,"10119 E DESERT AIRE DR","TUCSON","AZ",85730,32.1767613710001,-110.777091552,39,"10119 E DESERT AIRE DR, TUCSON, AZ, 85730","Match","Exact","10119 E DESERT AIRE DR, TUCSON, AZ, 85730",121189185,"L"
6540,"10119 LAKE DR","NEW PORT RICHEY","FL",34654,28.3048269920001,-82.606572478,40,"10119 LAKE DR, NEW PORT RICHEY, FL, 34654","Match","Exact","10119 LAKE DR, NEW PORT RICHEY, FL, 34654",86373461,"L"
6541,"10119 LAUREL AVE","NORTH HUNTINGDON","PA",15642,40.3210220440001,-79.7104907249999,41,"10119 LAUREL AVE, NORTH HUNTINGDON, PA, 15642","Match","Exact","10119 LAUREL AVE, N HUNTINGDON, PA, 15642",613040677,"R"
6542,"10119 ROOSEVELT RD","WESTCHESTER","IL",60154,41.8634530780001,-87.875563692,42,"10119 ROOSEVELT RD, WESTCHESTER, IL, 60154","Match","Non_Exact","10119 W ROOSEVELT RD, WESTCHESTER, IL, 60154",111788283,"R"
6543,"10119 S BLANEY AVE APT H","CUPERTINO","CA",95014,NA,NA,43,"10119 S BLANEY AVE APT H, CUPERTINO, CA, 95014","Tie",NA,NA,NA,NA
6544,"10119 S FOREST AVE","CHICAGO","IL",60628,41.710489883,-87.616276362,44,"10119 S FOREST AVE, CHICAGO, IL, 60628","Match","Exact","10119 S FOREST AVE, CHICAGO, IL, 60628",111773372,"L"
6545,"10119 TOPEKA DR","MINT HILL","NC",28227,35.1808668140001,-80.673381435,45,"10119 TOPEKA DR, MINT HILL, NC, 28227","Match","Exact","10119 TOPEKA DR, MINT HILL, NC, 28227",70496331,"L"
6546,"1011HAMMOND AVE","FLINT","MI",48503,NA,NA,46,"1011HAMMOND AVE, FLINT, MI, 48503","No_Match",NA,NA,NA,NA
6547,"1012 109TH ST CT E UNIT 72","TACOMA","WA",98445,NA,NA,47,"1012 109TH ST CT E UNIT 72, TACOMA, WA, 98445","No_Match",NA,NA,NA,NA
6548,"1012 17TH AVE","WALL","NJ",7719,40.1724141820001,-74.035748751,48,"1012 17TH AVE, WALL, NJ, 7719","Match","Exact","1012 17TH AVE, WALL, NJ, 07719",90458971,"R"
6549,"1012 58TH ST S","BIRMINGHAM","AL",35222,33.5299196170001,-86.740375167,49,"1012 58TH ST S, BIRMINGHAM, AL, 35222","Match","Exact","1012 58TH ST S, BIRMINGHAM, AL, 35222",652576178,"R"
6550,"1012 9TH ST","CORONADO","CA",92118,32.687773656,-117.180115743,50,"1012 9TH ST, CORONADO, CA, 92118","Match","Exact","1012 9TH ST, CORONADO, CA, 92118",612864426,"R"
6551,"1012 ADAMS AVENUE APT 3A","SALISBURY","MD",21804,38.35010298,-75.589050723,51,"1012 ADAMS AVENUE APT 3A, SALISBURY, MD, 21804","Match","Exact","1012 ADAMS AVE, SALISBURY, MD, 21804",623930343,"L"
6552,"1012 ADAMS ST","RICHLAND","WA",99352,46.2633014470001,-119.280810894,52,"1012 ADAMS ST, RICHLAND, WA, 99352","Match","Exact","1012 ADAMS ST, RICHLAND, WA, 99352",174988522,"R"
6553,"1012 ALICE STREET NUM B","NASHVILLE","TN",37218,36.2035964410001,-86.80987214,53,"1012 ALICE STREET NUM B, NASHVILLE, TN, 37218","Match","Non_Exact","1012 ALICE AVE, NASHVILLE, TN, 37218",97184350,"L"
6554,"1012 ANNA KNAPP BLVD","MOUNT PLEASANT","SC",29464,32.815084143,-79.8643762849999,54,"1012 ANNA KNAPP BLVD, MOUNT PLEASANT, SC, 29464","Match","Exact","1012 ANNA KNAPP BLVD, MOUNT PLEASANT, SC, 29464",635601963,"R"
6555,"1012 ASTORIA PKWY","CATAWBA","NC",28609,35.669941298,-80.97074595,55,"1012 ASTORIA PKWY, CATAWBA, NC, 28609","Match","Exact","1012 ASTORIA PKWY, CATAWBA, NC, 28609",45964528,"R"
6556,"1012 AVEBURY CT","NEKOOSA","WI",54457,44.2120897230001,-89.7789485489999,56,"1012 AVEBURY CT, NEKOOSA, WI, 54457","Match","Exact","1012 AVEBURY CT, NEKOOSA, WI, 54457",647198941,"R"
6557,"1012 AVENUE A","PORT SAINT JOE","FL",32456,29.8180036910001,-85.290311575,57,"1012 AVENUE A, PORT SAINT JOE, FL, 32456","Match","Exact","1012 AVE A, PORT SAINT JOE, FL, 32456",7141205,"L"
6558,"1012 AZURE HILLS CIR","VAN BUREN","AR",72956,35.458612783,-94.375818953,58,"1012 AZURE HILLS CIR, VAN BUREN, AR, 72956","Match","Exact","1012 AZURE HILLS CIR, VAN BUREN, AR, 72956",630137274,"R"
6559,"1012 BATAVIA AVE","ROYAL OAK","MI",48067,42.481354739,-83.1367583539999,59,"1012 BATAVIA AVE, ROYAL OAK, MI, 48067","Match","Exact","1012 BATAVIA AVE, ROYAL OAK, MI, 48067",69745970,"R"
6560,"1012 BEERSHEBA RD","COLUMBUS","MS",39702,33.4791792090001,-88.2974259699999,60,"1012 BEERSHEBA RD, COLUMBUS, MS, 39702","Match","Exact","1012 BEERSHEBA RD, COLUMBUS, MS, 39702",635223091,"L"
6561,"1012 BELMORROW DRIVE","CHARLOTTE","NC",28214,35.30591767,-80.947934431,61,"1012 BELMORROW DRIVE, CHARLOTTE, NC, 28214","Match","Exact","1012 BELMORROW DR, CHARLOTTE, NC, 28214",70473699,"L"
6562,"1012 BLUE JAY DR","MANSFIELD","TX",76063,32.580048875,-97.137418351,62,"1012 BLUE JAY DR, MANSFIELD, TX, 76063","Match","Exact","1012 BLUE JAY DR, MANSFIELD, TX, 76063",101950874,"L"
6563,"1012 BLUECOAT CIR","HAMPTON","GA",30228,33.3961162700001,-84.3032287899999,63,"1012 BLUECOAT CIR, HAMPTON, GA, 30228","Match","Exact","1012 BLUECOAT CIR, HAMPTON, GA, 30228",619932620,"R"
6564,"1012 BRADDOCK CIRCLE","WOODSTOCK","GA",30189,34.11024042,-84.589786874,64,"1012 BRADDOCK CIRCLE, WOODSTOCK, GA, 30189","Match","Exact","1012 BRADDOCK CIR, WOODSTOCK, GA, 30189",68836007,"R"
6565,"1012 BRENDAN DRIVE","LITTLE ELM","TX",75068,33.2009323290001,-96.891560703,65,"1012 BRENDAN DRIVE, LITTLE ELM, TX, 75068","Match","Exact","1012 BRENDAN DR, LITTLE ELM, TX, 75068",629619218,"L"
6566,"1012 CAPRICE LANE","FRUIT HEIGHTS","UT",84037,41.018252751,-111.907866494,66,"1012 CAPRICE LANE, FRUIT HEIGHTS, UT, 84037","Match","Exact","1012 CAPRICE LN, FRUIT HEIGHTS, UT, 84037",625211234,"L"
6567,"1012 CASTLE ROCK CT","CONCORD","NC",28025,35.3487060420001,-80.564044204,67,"1012 CASTLE ROCK CT, CONCORD, NC, 28025","Match","Exact","1012 CASTLE ROCK CT, CONCORD, NC, 28025",24915659,"R"
6568,"1012 CHINABERRY DR","FREDERICK","MD",21703,39.4064776550001,-77.4429736389999,68,"1012 CHINABERRY DR, FREDERICK, MD, 21703","Match","Exact","1012 CHINABERRY DR, FREDERICK, MD, 21703",60702882,"R"
6569,"1012 CLAREMONT AVE","WINSTON SALEM","NC",27101,36.1063288080001,-80.228667913,69,"1012 CLAREMONT AVE, WINSTON SALEM, NC, 27101","Match","Non_Exact","1012 N CLAREMONT AVE, WINSTON SALEM, NC, 27101",84612435,"R"
6570,"1012 COE STREET","TARENTUM","PA",15084,40.6083402090001,-79.7517603649999,70,"1012 COE STREET, TARENTUM, PA, 15084","Match","Exact","1012 COE ST, TARENTUM, PA, 15084",51692189,"L"
6571,"1012 COLLINS DRIVE","RALEIGH","NC",27609,35.85477129,-78.6529747929999,71,"1012 COLLINS DRIVE, RALEIGH, NC, 27609","Match","Exact","1012 COLLINS DR, RALEIGH, NC, 27609",72496540,"R"
6572,"1012 CORALBERRY DRIVE","NORTH CHESTERFIELD","VA",23236,37.4772928950001,-77.6072849609999,72,"1012 CORALBERRY DRIVE, NORTH CHESTERFIELD, VA, 23236","Match","Exact","1012 CORALBERRY DR, NORTH CHESTERFIELD, VA, 23236",201561048,"R"
6573,"1012 COTTON AVE","EL CAMPO","TX",77437,29.196481996,-96.25805374,73,"1012 COTTON AVE, EL CAMPO, TX, 77437","Match","Exact","1012 COTTON AVE, EL CAMPO, TX, 77437",42490763,"L"
6574,"1012 COUSSONS ROAD","DUBBERLY","LA",71024,32.5015397670001,-93.2217179369999,74,"1012 COUSSONS ROAD, DUBBERLY, LA, 71024","Match","Exact","1012 COUSSONS RD, DUBBERLY, LA, 71024",73417581,"R"
6575,"1012 CRYSTAL COURT","GLENVIEW","IL",60025,42.0732844400001,-87.834114762,75,"1012 CRYSTAL COURT, GLENVIEW, IL, 60025","Match","Exact","1012 CRYSTAL CT, GLENVIEW, IL, 60025",111861509,"L"
6576,"1012 DICKINSON AVENUE","GREENVILLE","NC",27834,35.6066460540001,-77.381270172,76,"1012 DICKINSON AVENUE, GREENVILLE, NC, 27834","Match","Exact","1012 DICKINSON AVE, GREENVILLE, NC, 27834",80009192,"L"
6577,"1012 DOGWOOD CT","GRAY","GA",31032,32.938818982,-83.566201128,77,"1012 DOGWOOD CT, GRAY, GA, 31032","Match","Exact","1012 DOGWOOD CT, GRAY, GA, 31032",65482799,"R"
6578,"1012 E 52ND ST","KANSAS CITY","MO",64110,39.032684563,-94.574431072,78,"1012 E 52ND ST, KANSAS CITY, MO, 64110","Match","Exact","1012 E 52ND ST, KANSAS CITY, MO, 64110",651040235,"L"
6579,"1012 E BRADLEY AVENUE","EL CAJON","CA",92021,32.819113816,-116.947171239,79,"1012 E BRADLEY AVENUE, EL CAJON, CA, 92021","Match","Exact","1012 E BRADLEY AVE, EL CAJON, CA, 92021",195328075,"L"
6580,"1012 E MCKINLEY ST","BOISE","ID",83712,43.6116573420001,-116.181538353,80,"1012 E MCKINLEY ST, BOISE, ID, 83712","Match","Exact","1012 E MCKINLEY ST, BOISE, ID, 83712",641567253,"L"
6581,"1012 E RAINES RD","MEMPHIS","TN",38116,35.035309871,-90.030025129,81,"1012 E RAINES RD, MEMPHIS, TN, 38116","Match","Exact","1012 E RAINES RD, MEMPHIS, TN, 38116",643491260,"L"
6582,"1012 EAST 225TH STREET","BRONX","NY",10466,40.8849325510001,-73.851447529,82,"1012 EAST 225TH STREET, BRONX, NY, 10466","Match","Exact","1012 E 225TH ST, BRONX, NY, 10466",80297648,"R"
6583,"1012 EAST NINE MILE ROAD","HAZEL PARK","MI",48030,42.4615575,-83.096163482,83,"1012 EAST NINE MILE ROAD, HAZEL PARK, MI, 48030","Match","Exact","1012 E 9 MILE RD, HAZEL PARK, MI, 48030",69748426,"R"
6584,"1012 EGRET NEST CIRCLE UNIT 107","WINNABOW","NC",28479,34.1930847670001,-77.986691884,84,"1012 EGRET NEST CIRCLE UNIT 107, WINNABOW, NC, 28479","Match","Exact","1012 EGRET NEST CR, WINNABOW, NC, 28479",630147248,"R"
6585,"1012 F ST NE","WASHINGTON","DC",20002,38.897343893,-76.9924394189999,85,"1012 F ST NE, WASHINGTON, DC, 20002","Match","Exact","1012 F ST NE, WASHINGTON, DC, 20002",76229984,"L"
6586,"1012 FOXSHIRE PLACE","DAYTON","OH",45458,39.6254829920001,-84.189155031,86,"1012 FOXSHIRE PLACE, DAYTON, OH, 45458","Match","Exact","1012 FOXSHIRE PL, DAYTON, OH, 45458",143590167,"R"
6587,"1012 FRANKLIN STREET","OAKDALE","PA",15071,40.405510516,-80.1653815129999,87,"1012 FRANKLIN STREET, OAKDALE, PA, 15071","Match","Exact","1012 FRANKLIN ST, OAKDALE, PA, 15071",51926983,"L"
6588,"1012 GRAMERCY DRIVE","MIDLAND","GA",31820,NA,NA,88,"1012 GRAMERCY DRIVE, MIDLAND, GA, 31820","No_Match",NA,NA,NA,NA
6589,"1012 HARDING STREET","UNIONDALE","NY",11553,40.690046937,-73.5997754329999,89,"1012 HARDING STREET, UNIONDALE, NY, 11553","Match","Exact","1012 HARDING ST, UNIONDALE, NY, 11553",147630470,"R"
6590,"1012 HERMITAGE DRIVE","AUSTIN","TX",78753,30.347757727,-97.688641268,90,"1012 HERMITAGE DRIVE, AUSTIN, TX, 78753","Match","Exact","1012 HERMITAGE DR, AUSTIN, TX, 78753",63934708,"L"
6591,"1012 HILLSIDE DRIVE","KELLER","TX",76248,32.949604794,-97.234634478,91,"1012 HILLSIDE DRIVE, KELLER, TX, 76248","Match","Exact","1012 HILLSIDE DR, KELLER, TX, 76248",101859827,"L"
6592,"1012 HOLLYHOCK DR","OAKLEY","CA",94561,37.9740276140001,-121.721635966,92,"1012 HOLLYHOCK DR, OAKLEY, CA, 94561","Match","Exact","1012 HOLLYHOCK DR, OAKLEY, CA, 94561",627606595,"R"
6593,"1012 HORSE PEN RUN","HUNTINGTOWN","MD",20639,38.574095507,-76.548638856,93,"1012 HORSE PEN RUN, HUNTINGTOWN, MD, 20639","Match","Exact","1012 HORSE PEN RUN, HUNTINGTOWN, MD, 20639",642962714,"R"
6594,"1012 ISAIAS DRIVE","LEANDER","TX",78641,30.601844559,-97.8234160009999,94,"1012 ISAIAS DRIVE, LEANDER, TX, 78641","Match","Exact","1012 ISAIAS DR, LEANDER, TX, 78641",650015417,"R"
6595,"1012 JACKSON ST NE","WASHINGTON","DC",20017,38.929505341,-76.9922190999999,95,"1012 JACKSON ST NE, WASHINGTON, DC, 20017","Match","Exact","1012 JACKSON ST NE, WASHINGTON, DC, 20017",76228746,"L"
6596,"1012 KIMBALL STREET","OAKDALE","CA",95361,37.7709174190001,-120.859220821,96,"1012 KIMBALL STREET, OAKDALE, CA, 95361","Match","Exact","1012 KIMBALL ST, OAKDALE, CA, 95361",102631730,"R"
6597,"1012 KINGSTON VILLAGE LOOP","IRMO","SC",29063,34.1500239980001,-81.210870604,97,"1012 KINGSTON VILLAGE LOOP, IRMO, SC, 29063","Match","Exact","1012 KINGSTON VILLAGE LOOP, IRMO, SC, 29063",645304174,"R"
6598,"1012 LANIE LN","MOORE","OK",73160,35.3293944110001,-97.447264422,98,"1012 LANIE LN, MOORE, OK, 73160","Match","Exact","1012 LANIE LN, MOORE, OK, 73160",618157306,"L"
6599,"1012 LAUREL AVENUE","COEBURN","VA",24230,36.9604072270001,-82.4703972359999,99,"1012 LAUREL AVENUE, COEBURN, VA, 24230","Match","Exact","1012 LAUREL AVE, COEBURN, VA, 24230",83442648,"R"
6600,"1012 MAIN STREET","CANON CITY","CO",81212,38.443718244,-105.233997457,100,"1012 MAIN STREET, CANON CITY, CO, 81212","Match","Exact","1012 MAIN ST, CANON CITY, CO, 81212",108288539,"R"
6601,"1012 MARGARET DR","MC KINNEY","TX",75071,33.2072013060001,-96.642631418,101,"1012 MARGARET DR, MC KINNEY, TX, 75071","Match","Exact","1012 MARGARET DR, MC KINNEY, TX, 75071",619906985,"L"
6602,"1012 MARIS LANE","MCDONOUGH","GA",30253,33.3890836080001,-84.200595592,102,"1012 MARIS LANE, MCDONOUGH, GA, 30253","Match","Exact","1012 MARIS LN, MCDONOUGH, GA, 30253",627695270,"L"
6603,"1012 MARQUEZ PLACE SUITE 207A","SANTA FE","NM",87505,35.6746723040001,-105.950004741,103,"1012 MARQUEZ PLACE SUITE 207A, SANTA FE, NM, 87505","Match","Exact","1012 MARQUEZ PL, SANTA FE, NM, 87505",169378613,"L"
6604,"1012 MATIA CT NE","ALBUQUERQUE","NM",87123,35.0833233290001,-106.488095024,104,"1012 MATIA CT NE, ALBUQUERQUE, NM, 87123","Match","Exact","1012 MATIA CT NE, ALBUQUERQUE, NM, 87123",206723959,"L"
6605,"1012 MCCLUNG AVE","HUNTSVILLE","AL",35801,34.7295119410001,-86.573917261,105,"1012 MCCLUNG AVE, HUNTSVILLE, AL, 35801","Match","Non_Exact","1012 MCCLUNG AVE SE, HUNTSVILLE, AL, 35801",58119129,"R"
6606,"1012 MCFARLAND STREET","NORMAN","OK",73069,35.206554673,-97.454851134,106,"1012 MCFARLAND STREET, NORMAN, OK, 73069","Match","Exact","1012 MCFARLAND ST, NORMAN, OK, 73069",99911166,"L"
6607,"1012 MICHAEL AVE","LEHIGH ACRES","FL",33936,26.63680687,-81.602476434,107,"1012 MICHAEL AVE, LEHIGH ACRES, FL, 33936","Match","Exact","1012 MICHAEL AVE, LEHIGH ACRES, FL, 33936",117985946,"R"
6608,"1012 MORRISVILLE PARKWAY","MORRISVILLE","NC",27560,35.809662449,-78.822566911,108,"1012 MORRISVILLE PARKWAY, MORRISVILLE, NC, 27560","Match","Exact","1012 MORRISVILLE PKWY, MORRISVILLE, NC, 27560",72564406,"R"
6609,"1012 N FARVIEW DRIVE","INDEPENDENCE","MO",64056,NA,NA,109,"1012 N FARVIEW DRIVE, INDEPENDENCE, MO, 64056","Tie",NA,NA,NA,NA
6610,"1012 N MAIN STREET  PO BOX 658","HENDERSON","NE",68371,NA,NA,110,"1012 N MAIN STREET  PO BOX 658, HENDERSON, NE, 68371","No_Match",NA,NA,NA,NA
6611,"1012 N MARQUETTE ST","DAVENPORT","IA",52804,41.5301291440001,-90.591529302,111,"1012 N MARQUETTE ST, DAVENPORT, IA, 52804","Match","Exact","1012 N MARQUETTE ST, DAVENPORT, IA, 52804",122707156,"L"
6612,"1012 N ROCK HILL ROAD","SAINT LOUIS","MO",63119,38.609854436,-90.3653218159999,112,"1012 N ROCK HILL ROAD, SAINT LOUIS, MO, 63119","Match","Exact","1012 N ROCK HILL RD, SAINT LOUIS, MO, 63119",100135007,"R"
6613,"1012 NE 5TH ST","ANKENY","IA",50021,41.735804982,-93.582295713,113,"1012 NE 5TH ST, ANKENY, IA, 50021","Match","Exact","1012 NE 5TH ST, ANKENY, IA, 50021",65857833,"L"
6614,"1012 NORTH HOUSTON STREET","LORENA","TX",76655,31.398596657,-97.2246866469999,114,"1012 NORTH HOUSTON STREET, LORENA, TX, 76655","Match","Exact","1012 N HOUSTON ST, LORENA, TX, 76655",653825301,"L"
6615,"1012 NORTH SHORE DRIVE NE UNIT 22","ST. PETERSBURG","FL",33701,27.7823653630001,-82.6268541749999,115,"1012 NORTH SHORE DRIVE NE UNIT 22, ST. PETERSBURG, FL, 33701","Match","Exact","1012 N SHORE DR NE, SAINT PETERSBURG, FL, 33701",124713461,"L"
6616,"1012 NW 11TH PL","FT LAUDERDALE","FL",33311,26.140154437,-80.1570983,116,"1012 NW 11TH PL, FT LAUDERDALE, FL, 33311","Match","Exact","1012 NW 11TH PL, FORT LAUDERDALE, FL, 33311",114762895,"L"
6617,"1012 OLD ALABAMA SW","MCDONALD","NC",37353,NA,NA,117,"1012 OLD ALABAMA SW, MCDONALD, NC, 37353","No_Match",NA,NA,NA,NA
6618,"1012 OLD WARE ROAD","WETUMPKA","AL",36093,32.4624420640001,-86.112205037,118,"1012 OLD WARE ROAD, WETUMPKA, AL, 36093","Match","Exact","1012 OLD WARE RD, WETUMPKA, AL, 36093",651305496,"R"
6619,"1012 PEACOCK BLVD","CARROLLTON","TX",75007,32.9926069790001,-96.90923184,119,"1012 PEACOCK BLVD, CARROLLTON, TX, 75007","Match","Exact","1012 PEACOCK BLVD, CARROLLTON, TX, 75007",646524298,"R"
6620,"1012 PETROLEUM PARKWAY","BROUSSARD","LA",70518,NA,NA,120,"1012 PETROLEUM PARKWAY, BROUSSARD, LA, 70518","No_Match",NA,NA,NA,NA
6621,"1012 PETWAY AVENUE","NASHVILLE","TN",37206,36.1869963120001,-86.750703491,121,"1012 PETWAY AVENUE, NASHVILLE, TN, 37206","Match","Exact","1012 PETWAY AVE, NASHVILLE, TN, 37206",635876644,"R"
6622,"1012 PLACITA DON ANDRES","SANTA FE","NM",87501,NA,NA,122,"1012 PLACITA DON ANDRES, SANTA FE, NM, 87501","No_Match",NA,NA,NA,NA
6623,"1012 PLYMOUTH STREET","GASTONIA","NC",28054,35.2494379120001,-81.180481323,123,"1012 PLYMOUTH STREET, GASTONIA, NC, 28054","Match","Exact","1012 PLYMOUTH ST, GASTONIA, NC, 28054",70391218,"L"
6624,"1012 POPLAS STREET","BOGALUSA","LA",70427,30.7967771290001,-89.8529103989999,124,"1012 POPLAS STREET, BOGALUSA, LA, 70427","Match","Exact","1012 POPLAS ST, BOGALUSA, LA, 70427",82461819,"R"
6625,"1012 PRESTON DR","NORTH VERSAILLES","PA",15137,40.3667966450001,-79.780175307,125,"1012 PRESTON DR, NORTH VERSAILLES, PA, 15137","Match","Exact","1012 PRESTON DR, N VERSAILLES, PA, 15137",607588795,"R"
6626,"1012 RICHMOND RD","BROOMALL","PA",19008,39.9568332050001,-75.358766942,126,"1012 RICHMOND RD, BROOMALL, PA, 19008","Match","Exact","1012 RICHMOND RD, BROOMALL, PA, 19008",134898526,"L"
6627,"1012 ROBERTSON BLVD","LOS ANGELES","CA",90035,34.0589535240001,-118.383617013,127,"1012 ROBERTSON BLVD, LOS ANGELES, CA, 90035","Match","Non_Exact","1012 S ROBERTSON BLVD, LOS ANGELES, CA, 90035",141573004,"L"
6628,"1012 ROBSON AVENUE","SEFFNER","FL",33584,27.982486905,-82.2903426509999,128,"1012 ROBSON AVENUE, SEFFNER, FL, 33584","Match","Exact","1012 ROBSON AVE, SEFFNER, FL, 33584",104588862,"R"
6629,"1012 ROCHESTER WAY","PLANO","TX",75094,33.006428536,-96.623037493,129,"1012 ROCHESTER WAY, PLANO, TX, 75094","Match","Exact","1012 ROCHESTER WAY, PLANO, TX, 75094",123561884,"R"
6630,"1012 S BALDWIN AVE STE A","ARCADIA","CA",91007,34.1284856410001,-118.054703041,130,"1012 S BALDWIN AVE STE A, ARCADIA, CA, 91007","Match","Non_Exact","1012 S BALDWIN AVE, ARCADIA, CA, 91007",141644399,"L"
6631,"1012 S BROCKWAY ST","OLATHE","KS",66061,38.868720679,-94.841394775,131,"1012 S BROCKWAY ST, OLATHE, KS, 66061","Match","Exact","1012 S BROCKWAY ST, OLATHE, KS, 66061",640605029,"L"
6632,"1012 S JACKSON STREET","BOONE","IA",50036,42.0466269570001,-93.86461702,132,"1012 S JACKSON STREET, BOONE, IA, 50036","Match","Exact","1012 S JACKSON ST, BOONE, IA, 50036",649957954,"L"
6633,"1012 SAINT JULIEN DRIVE APT F4","KENNER","LA",70065,NA,NA,133,"1012 SAINT JULIEN DRIVE APT F4, KENNER, LA, 70065","Tie",NA,NA,NA,NA
6634,"1012 SANFORD AVE","IRVINGTON","NJ",7111,40.7275530860001,-74.240958082,134,"1012 SANFORD AVE, IRVINGTON, NJ, 7111","Match","Exact","1012 SANFORD AVE, IRVINGTON, NJ, 07111",63463637,"L"
6635,"1012 SOUTH 2ND STREET","KALAMAZOO","MI",49009,42.27879304,-85.750404626,135,"1012 SOUTH 2ND STREET, KALAMAZOO, MI, 49009","Match","Exact","1012 S 2ND ST, KALAMAZOO, MI, 49009",12221413,"R"
6636,"1012 SPRUCE ST  NO 1R","PHILADELPHIA","PA",19107,39.9462024010001,-75.158534302,136,"1012 SPRUCE ST  NO 1R, PHILADELPHIA, PA, 19107","Match","Non_Exact","1012 SPRUCE ST, PHILADELPHIA, PA, 19107",131423759,"L"
6637,"1012 STARITA COURT","APEX","NC",27502,35.731143506,-78.9092779329999,137,"1012 STARITA COURT, APEX, NC, 27502","Match","Exact","1012 STARITA CT, APEX, NC, 27502",72640427,"R"
6638,"1012 STURGEON","MONTGOMERY CITY","MO",63361,NA,NA,138,"1012 STURGEON, MONTGOMERY CITY, MO, 63361","No_Match",NA,NA,NA,NA
6639,"1012 TALL OAK LANE","CHATTANOOGA","TN",37421,34.996909305,-85.1426506829999,139,"1012 TALL OAK LANE, CHATTANOOGA, TN, 37421","Match","Exact","1012 TALL OAK LN, CHATTANOOGA, TN, 37421",59324238,"R"
6640,"1012 TRACEY LN","PEA RIDGE","AR",72751,NA,NA,140,"1012 TRACEY LN, PEA RIDGE, AR, 72751","No_Match",NA,NA,NA,NA
6641,"1012 VERDUNVILLE ROAD 131","FRANKLIN","LA",70538,NA,NA,141,"1012 VERDUNVILLE ROAD 131, FRANKLIN, LA, 70538","No_Match",NA,NA,NA,NA
6642,"1012 W 4TH ST","PARKER","AZ",85344,34.1554031810001,-114.294719566,142,"1012 W 4TH ST, PARKER, AZ, 85344","Match","Exact","1012 W 4TH ST, PARKER, AZ, 85344",129735990,"L"
6643,"1012 W BEVERLY BLVD STE 255","MONTEBELLO","CA",90640,NA,NA,143,"1012 W BEVERLY BLVD STE 255, MONTEBELLO, CA, 90640","No_Match",NA,NA,NA,NA
6644,"1012 WATER STREET","PORT TOWNSEND","WA",98368,48.1139093450001,-122.757741613,144,"1012 WATER STREET, PORT TOWNSEND, WA, 98368","Match","Exact","1012 WATER ST, PORT TOWNSEND, WA, 98368",152008642,"L"
6645,"1012 WELLINGTON AVENUE","LIBERTYVILLE","IL",60048,42.2960939060001,-87.971583911,145,"1012 WELLINGTON AVENUE, LIBERTYVILLE, IL, 60048","Match","Exact","1012 WELLINGTON AVE, LIBERTYVILLE, IL, 60048",119733604,"R"
6646,"1012 WEST CHEROKEE STREET","CENTREVILLE","MS",39631,NA,NA,146,"1012 WEST CHEROKEE STREET, CENTREVILLE, MS, 39631","No_Match",NA,NA,NA,NA
6647,"1012 WEST COBBS CREEK PARKWAY","YEADON","PA",19050,39.9300339640001,-75.245281989,147,"1012 WEST COBBS CREEK PARKWAY, YEADON, PA, 19050","Match","Exact","1012 W COBBS CREEK PKWY, YEADON, PA, 19050",134886764,"R"
6648,"1012 WESTCHESTER DR","OKLAHOMA CITY","OK",73114,35.5596068790001,-97.53462403,148,"1012 WESTCHESTER DR, OKLAHOMA CITY, OK, 73114","Match","Exact","1012 WESTCHESTER DR, OKLAHOMA CITY, OK, 73114",100394813,"L"
6649,"1012 WHITE WATER CIRCLE","BELMONT","NC",28012,35.282997579,-81.0488797369999,149,"1012 WHITE WATER CIRCLE, BELMONT, NC, 28012","Match","Exact","1012 WHITE WATER CIR, BELMONT, NC, 28012",642909915,"L"
6650,"1012 WHITETAIL XING","FESTUS","MO",63028,38.1172147400001,-90.3108313019999,150,"1012 WHITETAIL XING, FESTUS, MO, 63028","Match","Exact","1012 WHITETAIL CROSSING, FESTUS, MO, 63028",62809174,"R"
6651,"1012 WHITTINGTON PI","SOUTHLAKE","TX",76092,32.9534788980001,-97.162950097,151,"1012 WHITTINGTON PI, SOUTHLAKE, TX, 76092","Match","Non_Exact","1012 WHITTINGTON PL, SOUTHLAKE, TX, 76092",625172048,"L"
6652,"1012 WILCOX STREET","PETERSBURG","VA",23803,37.220246757,-77.417392408,152,"1012 WILCOX STREET, PETERSBURG, VA, 23803","Match","Exact","1012 WILCOX ST, PETERSBURG, VA, 23803",54148418,"L"
6653,"10120 GENI HILL CIRCLE S","JACKSONVILLE","FL",32225,30.336685932,-81.5354745,153,"10120 GENI HILL CIRCLE S, JACKSONVILLE, FL, 32225","Match","Exact","10120 GENI HILL CIR S, JACKSONVILLE, FL, 32225",83932972,"L"
6654,"10120 LAMBEAU CT","ELK GROVE","CA",95757,38.3902392540001,-121.448028615,154,"10120 LAMBEAU CT, ELK GROVE, CA, 95757","Match","Exact","10120 LAMBEAU CT, ELK GROVE, CA, 95757",624537360,"R"
6655,"10120 LASCASSAS PIKE","LASCASSAS","TN",37085,35.926166853,-86.20841898,155,"10120 LASCASSAS PIKE, LASCASSAS, TN, 37085","Match","Exact","10120 LASCASSAS PIKE, LASCASSAS, TN, 37085",59012501,"L"
6656,"10120 LEMON RD","ZACHARY","LA",70791,30.7035316070001,-91.072494272,156,"10120 LEMON RD, ZACHARY, LA, 70791","Match","Exact","10120 LEMON RD, ZACHARY, LA, 70791",92201758,"L"
6657,"10120 LOMAS BOULEVARD NE","ALBUQUERQUE","NM",87112,35.0873197070001,-106.536476214,157,"10120 LOMAS BOULEVARD NE, ALBUQUERQUE, NM, 87112","Match","Exact","10120 LOMAS BLVD NE, ALBUQUERQUE, NM, 87112",206719768,"R"
6658,"10120 SORREL AVE","POTOMAC","MD",20854,39.021800195,-77.201083098,158,"10120 SORREL AVE, POTOMAC, MD, 20854","Match","Exact","10120 SORREL AVE, POTOMAC, MD, 20854",62053809,"L"
6659,"10120 TWO NOTCH RD STE 2-152","COLUMBIA","SC",29223,NA,NA,159,"10120 TWO NOTCH RD STE 2-152, COLUMBIA, SC, 29223","No_Match",NA,NA,NA,NA
6660,"10120 TWO NOTCH RD STE 2-301","COLUMBIA","SC",29223,NA,NA,160,"10120 TWO NOTCH RD STE 2-301, COLUMBIA, SC, 29223","No_Match",NA,NA,NA,NA
6661,"10120 TWO NOTCH RD SUITE 2","COLUMBIA","SC",29223,NA,NA,161,"10120 TWO NOTCH RD SUITE 2, COLUMBIA, SC, 29223","No_Match",NA,NA,NA,NA
6662,"10120 W FLAMINGO RD 4-344","LAS VEGAS","NV",89147,36.115260134,-115.313288723,162,"10120 W FLAMINGO RD 4-344, LAS VEGAS, NV, 89147","Match","Non_Exact","10120 W FLAMINGO RD, LAS VEGAS, NV, 89147",641512086,"R"
6663,"10120 W FLAMINGO RD STE 4-113","LAS VEGAS","NV",89147,36.115260134,-115.313288723,163,"10120 W FLAMINGO RD STE 4-113, LAS VEGAS, NV, 89147","Match","Non_Exact","10120 W FLAMINGO RD, LAS VEGAS, NV, 89147",641512086,"R"
6664,"10120 W FLAMINGO RD STE 4","LAS VEGAS","NV",89147,36.115260134,-115.313288723,164,"10120 W FLAMINGO RD STE 4, LAS VEGAS, NV, 89147","Match","Non_Exact","10120 W FLAMINGO RD, LAS VEGAS, NV, 89147",641512086,"R"
6665,"10120 W FLAMINGO RD SUITE 4501","LAS VEGAS","NV",89147,36.115260134,-115.313288723,165,"10120 W FLAMINGO RD SUITE 4501, LAS VEGAS, NV, 89147","Match","Non_Exact","10120 W FLAMINGO RD, LAS VEGAS, NV, 89147",641512086,"R"
6666,"10120 W FLAMINGO ROAD  4-344","LAS VEGAS","NV",89147,36.115260134,-115.313288723,166,"10120 W FLAMINGO ROAD  4-344, LAS VEGAS, NV, 89147","Match","Non_Exact","10120 W FLAMINGO RD, LAS VEGAS, NV, 89147",641512086,"R"
6667,"10120 W FLAMINGO ROAD 4-344","LAS VEGAS","NV",89147,36.115260134,-115.313288723,167,"10120 W FLAMINGO ROAD 4-344, LAS VEGAS, NV, 89147","Match","Non_Exact","10120 W FLAMINGO RD, LAS VEGAS, NV, 89147",641512086,"R"
6668,"10121 115TH ST SW","LAKEWOOD","WA",98498,47.1536553030001,-122.571569299,168,"10121 115TH ST SW, LAKEWOOD, WA, 98498","Match","Exact","10121 115TH ST SW, LAKEWOOD, WA, 98498",184621835,"R"
6669,"10121 BUFORD AVE  APT 7","LENNOX","CA",90304,NA,NA,169,"10121 BUFORD AVE  APT 7, LENNOX, CA, 90304","No_Match",NA,NA,NA,NA
6670,"10121 CARROL CANYON ROAD","SAN DIEGO","CA",92131,32.9040174040001,-117.109479575,170,"10121 CARROL CANYON ROAD, SAN DIEGO, CA, 92131","Match","Non_Exact","10121 CARROLL CANYON RD, SAN DIEGO, CA, 92131",195319373,"R"
6671,"10121 E HERON VIEW LANE","MEAD","WA",99021,47.7767423760001,-117.266210873,171,"10121 E HERON VIEW LANE, MEAD, WA, 99021","Match","Exact","10121 E HERON VIEW LN, MEAD, WA, 99021",637626368,"R"
6672,"10121 EVERGREEN WAY  BOX 25-624","EVERETT","WA",98204,47.906283875,-122.242662022,172,"10121 EVERGREEN WAY  BOX 25-624, EVERETT, WA, 98204","Match","Exact","10121 EVERGREEN WAY, EVERETT, WA, 98204",187757933,"L"
6673,"10121 EVERGREEN WAY PMB 25-466","EVERETT","WA",98204,47.906283875,-122.242662022,173,"10121 EVERGREEN WAY PMB 25-466, EVERETT, WA, 98204","Match","Exact","10121 EVERGREEN WAY, EVERETT, WA, 98204",187757933,"L"
6674,"10121 EVERGREEN WAY STE 25-277","EVERETT","WA",98204,47.906283875,-122.242662022,174,"10121 EVERGREEN WAY STE 25-277, EVERETT, WA, 98204","Match","Exact","10121 EVERGREEN WAY, EVERETT, WA, 98204",187757933,"L"
6675,"10121 EVERGREEN WAY SUITE 25 244","EVERETT","WA",98205,47.906283875,-122.242662022,175,"10121 EVERGREEN WAY SUITE 25 244, EVERETT, WA, 98205","Match","Non_Exact","10121 EVERGREEN WAY, EVERETT, WA, 98204",187757933,"L"
6676,"10121 N 149TH STREET","WAVERLY","NE",68462,40.9104196810001,-96.520124639,176,"10121 N 149TH STREET, WAVERLY, NE, 68462","Match","Exact","10121 N 149TH ST, WAVERLY, NE, 68462",28295039,"L"
6677,"10121 NW 58 TH COURT","PARK LAND","FL",33076,26.303346388,-80.261444054,177,"10121 NW 58 TH COURT, PARK LAND, FL, 33076","Match","Non_Exact","10121 NW 58TH CT, PARKLAND, FL, 33076",114768407,"R"
6678,"10121 SCHOOL HOUSE RD","GRAND BAY","AL",36541,30.4803266690001,-88.3433365559999,178,"10121 SCHOOL HOUSE RD, GRAND BAY, AL, 36541","Match","Exact","10121 SCHOOL HOUSE RD, GRAND BAY, AL, 36541",61916981,"R"
6679,"10121 SE SUNNYSIDE RD SUITE 300","CLACKAMAS","OR",97015,45.4334425640001,-122.560534638,179,"10121 SE SUNNYSIDE RD SUITE 300, CLACKAMAS, OR, 97015","Match","Non_Exact","10121 SE SUNNYSIDE RD, CLACKAMAS, OR, 97015",157981634,"L"
6680,"10121 WEST BONNIWELL ROAD","MEQUON","WI",53097,43.2649732,-88.037932676,180,"10121 WEST BONNIWELL ROAD, MEQUON, WI, 53097","Match","Exact","10121 W BONNIWELL RD, MEQUON, WI, 53097",95904433,"L"
6681,"10121 WINDMILL LAKES 617","HOUSTON, TX 77075","TX",77075,NA,NA,181,"10121 WINDMILL LAKES 617, HOUSTON, TX 77075, TX, 77075","No_Match",NA,NA,NA,NA
6682,"10121 WINDMILL LAKES BLVD 603","HOUSTON","TX",77075,29.619971053,-95.241767849,182,"10121 WINDMILL LAKES BLVD 603, HOUSTON, TX, 77075","Match","Exact","10121 WINDMILL LAKES BLVD, HOUSTON, TX, 77075",649081419,"R"
6683,"10122 ALLYSON PARK DRIVE","CHARLOTTE","NC",28277,35.033409604,-80.83359755,183,"10122 ALLYSON PARK DRIVE, CHARLOTTE, NC, 28277","Match","Exact","10122 ALLYSON PARK DR, CHARLOTTE, NC, 28277",640628011,"L"
6684,"10122 BURGOYNE RD","HOUSTON","TX",77042,29.7417158530001,-95.552020499,184,"10122 BURGOYNE RD, HOUSTON, TX, 77042","Match","Exact","10122 BURGOYNE RD, HOUSTON, TX, 77042",96024015,"R"
6685,"10122 CAMPBELL STREET","CAMP DENNISON","OH",45111,39.1962463040001,-84.288160454,185,"10122 CAMPBELL STREET, CAMP DENNISON, OH, 45111","Match","Exact","10122 CAMPBELL ST, CAMP DENNISON, OH, 45111",103940038,"R"
6686,"10122 DEEPBROOK DR","RIVERVIEW","FL",33569,27.8515918620001,-82.270600869,186,"10122 DEEPBROOK DR, RIVERVIEW, FL, 33569","Match","Exact","10122 DEEPBROOK DR, RIVERVIEW, FL, 33569",648455971,"L"
6687,"10122 LOSA DR","DALLAS","TX",75228,32.8379202510001,-96.6919346609999,187,"10122 LOSA DR, DALLAS, TX, 75228","Match","Non_Exact","10122 LOSA DR, DALLAS, TX, 75218",102923235,"R"
6688,"10122 S WOOD","CHICAGO","IL",60643,41.7095056530001,-87.667198178,188,"10122 S WOOD, CHICAGO, IL, 60643","Match","Non_Exact","10122 S WOOD ST, CHICAGO, IL, 60643",604993843,"R"
6689,"10122 SUNDROP PASS","SAN ANTONIO","TX",78245,29.399841388,-98.691584274,189,"10122 SUNDROP PASS, SAN ANTONIO, TX, 78245","Match","Exact","10122 SUNDROP PASS, SAN ANTONIO, TX, 78245",101703952,"L"
6690,"10122 TIMMONS ROAD","TAMPA","FL",33592,28.044079003,-82.3190459579999,190,"10122 TIMMONS ROAD, TAMPA, FL, 33592","Match","Non_Exact","10122 TIMMONS RD, THONOTOSASSA, FL, 33592",104540372,"L"
6691,"10123 95TH ST NE","LANGDON","ND",58249,48.7902612500001,-98.470242433,191,"10123 95TH ST NE, LANGDON, ND, 58249","Match","Exact","10123 95TH ST NE, LANGDON, ND, 58249",181375954,"L"
6692,"10123 ATKINS RIDGE DR","CHARLOTTE","NC",28213,35.299369988,-80.709367808,192,"10123 ATKINS RIDGE DR, CHARLOTTE, NC, 28213","Match","Exact","10123 ATKINS RIDGE DR, CHARLOTTE, NC, 28213",649736376,"L"
6693,"10123 BON VISTA COURT","SAN JOSE","CA",95127,37.3779103420001,-121.797643396,193,"10123 BON VISTA COURT, SAN JOSE, CA, 95127","Match","Exact","10123 BON VISTA CT, SAN JOSE, CA, 95127",122965447,"L"
6694,"10123 CAMPUS WAY SOUTH","LARGO","MD",20774,38.888585118,-76.832476444,194,"10123 CAMPUS WAY SOUTH, LARGO, MD, 20774","Match","Exact","10123 CAMPUS WAY S, LARGO, MD, 20774",76382299,"R"
6695,"10123 CONNECTICUT AVENUE","LIVE OAK","CA",95953,39.2772940790001,-121.668071686,195,"10123 CONNECTICUT AVENUE, LIVE OAK, CA, 95953","Match","Exact","10123 CONNECTICUT AVE, LIVE OAK, CA, 95953",632700008,"R"
6696,"10123 E SLIGH AV E","TAMPA","FL",33610,28.010568415,-82.3205940719999,196,"10123 E SLIGH AV E, TAMPA, FL, 33610","Match","Non_Exact","10123 E SLIGH AVE, TAMPA, FL, 33610",104540471,"R"
6697,"10123 FARRIS AVE","SHERWOOD","TX",72120,NA,NA,197,"10123 FARRIS AVE, SHERWOOD, TX, 72120","No_Match",NA,NA,NA,NA
6698,"10123 KAITLIN AVE","HANOVER","MN",55341,45.1607300150001,-93.684063126,198,"10123 KAITLIN AVE, HANOVER, MN, 55341","Match","Exact","10123 KAITLIN AVE, HANOVER, MN, 55341",44022844,"R"
6699,"10123 N WHIMBREL CIR","CONROE","TX",77385,30.2183850260001,-95.420829928,199,"10123 N WHIMBREL CIR, CONROE, TX, 77385","Match","Non_Exact","10123 E WHIMBREL CIR, CONROE, TX, 77385",651174439,"L"
6700,"10123 S PEONY WAY","SANDY","UT",84094,40.5670369160001,-111.87136274,200,"10123 S PEONY WAY, SANDY, UT, 84094","Match","Exact","10123 S PEONY WAY, SANDY, UT, 84094",176089400,"L"
6701,"10123 WEST PALM LAKE DR","HOUSTON","TX",77034,29.620022062,-95.208419732,201,"10123 WEST PALM LAKE DR, HOUSTON, TX, 77034","Match","Exact","10123 W PALM LAKE DR, HOUSTON, TX, 77034",636968222,"L"
6702,"10124 BLUEPOINT JUNIPER DR","HOUSTON","TX",77075,29.6192367260001,-95.2472931139999,202,"10124 BLUEPOINT JUNIPER DR, HOUSTON, TX, 77075","Match","Non_Exact","10124 BLUE POINT JUNIPER DR, HOUSTON, TX, 77075",649212582,"R"
6703,"10124SOUTH BROADWAY AVE SUITE 200 B","LOS ANGELES","CA",90303,NA,NA,203,"10124SOUTH BROADWAY AVE SUITE 200 B, LOS ANGELES, CA, 90303","No_Match",NA,NA,NA,NA
6704,"10125 CARLINGTON VALLEY COURT","MANASSAS","VA",20111,38.7352894540001,-77.422447161,204,"10125 CARLINGTON VALLEY COURT, MANASSAS, VA, 20111","Match","Exact","10125 CARLINGTON VALLEY CT, MANASSAS, VA, 20111",619937558,"L"
6705,"10125 EBERT ROAD","ROGERS","MN",55374,45.137387555,-93.574084683,205,"10125 EBERT ROAD, ROGERS, MN, 55374","Match","Exact","10125 EBERT RD, ROGERS, MN, 55374",43662475,"L"
6706,"10125 FIDELITY AVE","CLEVELAND","OH",44111,41.461245611,-81.753672336,206,"10125 FIDELITY AVE, CLEVELAND, OH, 44111","Match","Exact","10125 FIDELITY AVE, CLEVELAND, OH, 44111",61104595,"L"
6707,"10125 IDLEWILD LN","HIGHLAND","IN",46322,41.529277393,-87.476975806,207,"10125 IDLEWILD LN, HIGHLAND, IN, 46322","Match","Exact","10125 IDLEWILD LN, HIGHLAND, IN, 46322",98448127,"R"
6708,"10125 LAND O LAKES BLVD","LAND O LAKES","FL",34638,28.303080714,-82.497508801,208,"10125 LAND O LAKES BLVD, LAND O LAKES, FL, 34638","Match","Exact","10125 LAND O LAKES BLVD, LAND O LAKES, FL, 34638",86383446,"L"
6709,"10125 SW 16TH STREET   APT 103","PEMBROKE PINES","FL",33025,25.995033563,-80.282856914,209,"10125 SW 16TH STREET   APT 103, PEMBROKE PINES, FL, 33025","Match","Non_Exact","10125 SW 16TH ST, PEMBROKE PINES, FL, 33025",114782996,"R"
6710,"10125 VERREE RD STE 202","PHILADELPHIA","PA",19116,40.106296033,-75.0305204319999,210,"10125 VERREE RD STE 202, PHILADELPHIA, PA, 19116","Match","Exact","10125 VERREE RD, PHILADELPHIA, PA, 19116",131430973,"R"
6711,"10125","NEWARK","NJ",7101,NA,NA,211,"10125, NEWARK, NJ, 7101","No_Match",NA,NA,NA,NA
6712,"10126 BISHOP LAKE RD W","JACKSONVILLE","FL",32256,30.1804033830001,-81.536243843,212,"10126 BISHOP LAKE RD W, JACKSONVILLE, FL, 32256","Match","Exact","10126 BISHOP LAKE RD W, JACKSONVILLE, FL, 32256",83951639,"R"
6713,"10126 BROOKS SCHOOL RD","FISHERS","IN",46037,39.9455909850001,-85.943650847,213,"10126 BROOKS SCHOOL RD, FISHERS, IN, 46037","Match","Exact","10126 BROOKS SCHOOL RD, FISHERS, IN, 46037",29306654,"R"
6714,"10126 CENTURY DR","ELLICOTT CITY","MD",21042,39.2522856950001,-76.865395554,214,"10126 CENTURY DR, ELLICOTT CITY, MD, 21042","Match","Exact","10126 CENTURY DR, ELLICOTT CITY, MD, 21042",158932114,"R"
6715,"10126 EAST 12000 N ROAD","GRANT PARK","IL",60940,NA,NA,215,"10126 EAST 12000 N ROAD, GRANT PARK, IL, 60940","No_Match",NA,NA,NA,NA
6716,"10126 GRASTY GOLD MINE RD","RHOADESVILLE","VA",22542,38.2647523030001,-77.870153789,216,"10126 GRASTY GOLD MINE RD, RHOADESVILLE, VA, 22542","Match","Exact","10126 GRASTY GOLD MINE RD, RHOADESVILLE, VA, 22542",626642841,"L"
6717,"10126 N ANDREW ST","SPOKANE","WA",99218,47.7502687960001,-117.402281722,217,"10126 N ANDREW ST, SPOKANE, WA, 99218","Match","Exact","10126 N ANDREW ST, SPOKANE, WA, 99218",189869305,"R"
6718,"10126 NW ASH CT","PORTLAND","OR",97231,45.5969125020001,-122.830910939,218,"10126 NW ASH CT, PORTLAND, OR, 97231","Match","Exact","10126 NW ASH CT, PORTLAND, OR, 97231",624959375,"R"
6719,"10126 PAXTON RUN ROAD","CHARLOTTE","NC",28277,35.0179245780001,-80.8309189999999,219,"10126 PAXTON RUN ROAD, CHARLOTTE, NC, 28277","Match","Exact","10126 PAXTON RUN RD, CHARLOTTE, NC, 28277",630162960,"R"
6720,"101273","ANCHORAGE","AK",99520,NA,NA,220,"101273, ANCHORAGE, AK, 99520","No_Match",NA,NA,NA,NA
6721,"10128 132 STREET","SOUTH RICHMOND HILL","NY",11419,NA,NA,221,"10128 132 STREET, SOUTH RICHMOND HILL, NY, 11419","No_Match",NA,NA,NA,NA
6722,"10128 HIDDEN OAKS LN N","CHAMPLIN","MN",55316,45.155634025,-93.409040423,222,"10128 HIDDEN OAKS LN N, CHAMPLIN, MN, 55316","Match","Exact","10128 HIDDEN OAKS LN N, CHAMPLIN, MN, 55316",43853167,"R"
6723,"10128 KAUFFMAN AVE","SOUTH GATE","CA",90280,33.9407705780001,-118.19092361,223,"10128 KAUFFMAN AVE, SOUTH GATE, CA, 90280","Match","Exact","10128 KAUFFMAN AVE, SOUTH GATE, CA, 90280",142765040,"L"
6724,"10128 NE 135 LANE","KIRKLAND","WA",98034,47.7215952020001,-122.204837115,224,"10128 NE 135 LANE, KIRKLAND, WA, 98034","Match","Exact","10128 NE 135TH LN, KIRKLAND, WA, 98034",186924085,"L"
6725,"10128 OCICAT AVE","LAS VEGAS","NV",89166,36.3018921410001,-115.31624096,225,"10128 OCICAT AVE, LAS VEGAS, NV, 89166","Match","Non_Exact","10128 W OCICAT AVE, LAS VEGAS, NV, 89166",627162046,"L"
6726,"10129 BEAR RUN","DOYLESTOWN","OH",44230,40.9981343690001,-81.692238021,226,"10129 BEAR RUN, DOYLESTOWN, OH, 44230","Match","Exact","10129 BEAR RUN, DOYLESTOWN, OH, 44230",58692892,"R"
6727,"10129 CHEZELLE","EL PASO","TX",79925,31.7811351500001,-106.348498075,227,"10129 CHEZELLE, EL PASO, TX, 79925","Match","Non_Exact","10129 CHEZELLE DR, EL PASO, TX, 79925",189347205,"L"
6728,"10129 HEFNER VILLAGE TERRACE","OKC","OK",73162,35.572558568,-97.618158208,228,"10129 HEFNER VILLAGE TERRACE, OKC, OK, 73162","Match","Non_Exact","10129 HEFNER VILLAGE TER, OKLAHOMA CITY, OK, 73162",639082987,"L"
6729,"10129 HIGH EAGLE TRL","FORT WORTH","TX",76108,32.7662820690001,-97.496727027,229,"10129 HIGH EAGLE TRL, FORT WORTH, TX, 76108","Match","Exact","10129 HIGH EAGLE TRL, FORT WORTH, TX, 76108",631028976,"L"
6730,"10129 S WESTERN AVE","CHICAGO","IL",60643,41.709432855,-87.681703106,230,"10129 S WESTERN AVE, CHICAGO, IL, 60643","Match","Exact","10129 S WESTERN AVE, CHICAGO, IL, 60643",111822149,"L"
6731,"1013  NATALIE CT","ALLEN","TX",75013,33.106112599,-96.685700491,231,"1013  NATALIE CT, ALLEN, TX, 75013","Match","Exact","1013 NATALIE CT, ALLEN, TX, 75013",640725586,"R"
6732,"1013 14TH AVENUE SW","DECATUR","AL",35601,34.5915667850001,-87.006066867,232,"1013 14TH AVENUE SW, DECATUR, AL, 35601","Match","Exact","1013 14TH AVE SW, DECATUR, AL, 35601",97139991,"R"
6733,"1013 17TH STREET","KEY WEST","FL",33040,24.569910055,-81.759383376,233,"1013 17TH STREET, KEY WEST, FL, 33040","Match","Exact","1013 17TH ST, KEY WEST, FL, 33040",116475688,"R"
6734,"1013 8TH STREET","LAUREL","MD",20707,39.0990229240001,-76.859123287,234,"1013 8TH STREET, LAUREL, MD, 20707","Match","Exact","1013 8TH ST, LAUREL, MD, 20707",76325594,"R"
6735,"1013 BEECH ROAD","WALLINGFORD","PA",19086,39.875123504,-75.36767653,235,"1013 BEECH ROAD, WALLINGFORD, PA, 19086","Match","Exact","1013 BEECH RD, WALLINGFORD, PA, 19086",134898319,"L"
6736,"1013 BELVOIR RD","PLYMOUTH MEETING","PA",19462,40.1164633830001,-75.307195088,236,"1013 BELVOIR RD, PLYMOUTH MEETING, PA, 19462","Match","Exact","1013 BELVOIR RD, PLYMOUTH MEETING, PA, 19462",135084639,"L"
6737,"1013 BRAMWELL LANE","STONE MOUNTAIN","GA",30083,33.808693588,-84.208999407,237,"1013 BRAMWELL LANE, STONE MOUNTAIN, GA, 30083","Match","Exact","1013 BRAMWELL LN, STONE MOUNTAIN, GA, 30083",23364236,"R"
6738,"1013 BROOKSIDE ROAD - SUITE 203","WESCOSVILLE","PA",18106,40.5630998500001,-75.553514779,238,"1013 BROOKSIDE ROAD - SUITE 203, WESCOSVILLE, PA, 18106","Match","Exact","1013 BROOKSIDE RD, WESCOSVILLE, PA, 18106",80759336,"L"
6739,"1013 CAMPBELL AVE","LAKE WALES","FL",33853,27.8969601270001,-81.5681778319999,239,"1013 CAMPBELL AVE, LAKE WALES, FL, 33853","Match","Exact","1013 CAMPBELL AVE, LAKE WALES, FL, 33853",104832359,"L"
6740,"1013 CANYON RIDGE ROAD APT 304","BLACKSBURG","VA",24060,37.1859124120001,-80.4212706549999,240,"1013 CANYON RIDGE ROAD APT 304, BLACKSBURG, VA, 24060","Match","Exact","1013 CANYON RIDGE RD, BLACKSBURG, VA, 24060",650234196,"R"
6741,"1013 CAROLINE STREET","FREDERICKSBURG","VA",22401,38.303885645,-77.4597271499999,241,"1013 CAROLINE STREET, FREDERICKSBURG, VA, 22401","Match","Exact","1013 CAROLINE ST, FREDERICKSBURG, VA, 22401",638661562,"R"
6742,"1013 CEDAR ST","BEAUFORT","NC",28516,34.71645218,-76.6551026929999,242,"1013 CEDAR ST, BEAUFORT, NC, 28516","Match","Exact","1013 CEDAR ST, BEAUFORT, NC, 28516",33869119,"L"
6743,"1013 CENTER ROAD SUITE 403-B","WILMINGTON","DE",19805,39.756660804,-75.606846337,243,"1013 CENTER ROAD SUITE 403-B, WILMINGTON, DE, 19805","Match","Exact","1013 CENTRE RD, WILMINGTON, DE, 19805",187301835,"R"
6744,"1013 CENTIPEDE DRIVE","ROCKY MOUNT","NC",27801,35.9498094670001,-77.7449557589999,244,"1013 CENTIPEDE DRIVE, ROCKY MOUNT, NC, 27801","Match","Exact","1013 CENTIPEDE DR, ROCKY MOUNT, NC, 27801",90194617,"L"
6745,"1013 CENTRE RD STE 403-A","WILMINGTON","DE",19805,39.756660804,-75.606846337,245,"1013 CENTRE RD STE 403-A, WILMINGTON, DE, 19805","Match","Exact","1013 CENTRE RD, WILMINGTON, DE, 19805",187301835,"R"
6746,"1013 CENTRE ROAD SUITE 403-A","WILMINGTOM","DE",19805,39.756660804,-75.606846337,246,"1013 CENTRE ROAD SUITE 403-A, WILMINGTOM, DE, 19805","Match","Non_Exact","1013 CENTRE RD, WILMINGTON, DE, 19805",187301835,"R"
6747,"1013 CENTRE ROAD SUITE 403S","WILMINGTON","DE",19805,39.756660804,-75.606846337,247,"1013 CENTRE ROAD SUITE 403S, WILMINGTON, DE, 19805","Match","Exact","1013 CENTRE RD, WILMINGTON, DE, 19805",187301835,"R"
6748,"1013 COLLINGTREE COURT","MCDONOUGH","GA",30253,33.5070118740001,-84.203224344,248,"1013 COLLINGTREE COURT, MCDONOUGH, GA, 30253","Match","Exact","1013 COLLINGTREE CT, MCDONOUGH, GA, 30253",647594673,"L"
6749,"1013 COUNTRY SIDE LN","YADKINVILLE","NC",27055,36.130948548,-80.686687992,249,"1013 COUNTRY SIDE LN, YADKINVILLE, NC, 27055","Match","Exact","1013 COUNTRY SIDE LN, YADKINVILLE, NC, 27055",645513733,"L"
6750,"1013 CTYQ","POUND","WI",54114,NA,NA,250,"1013 CTYQ, POUND, WI, 54114","No_Match",NA,NA,NA,NA
6751,"1013 DESHIRE LN","MORRISVILLE","NC",27560,35.857041313,-78.845042892,251,"1013 DESHIRE LN, MORRISVILLE, NC, 27560","Match","Exact","1013 DESHIRE LN, MORRISVILLE, NC, 27560",612816219,"L"
6752,"1013 DUKE ST","GEORGETOWN","SC",29440,33.3716849670001,-79.282889035,252,"1013 DUKE ST, GEORGETOWN, SC, 29440","Match","Exact","1013 DUKE ST, GEORGETOWN, SC, 29440",28965262,"L"
6753,"1013 E 11TH ST","WILMINGTON","DE",19801,39.7418979550001,-75.536004578,253,"1013 E 11TH ST, WILMINGTON, DE, 19801","Match","Non_Exact","1013 E 11TH ST, WILMINGTON, DE, 19802",187259315,"L"
6754,"1013 E BROADWAY ST","HELENA","MT",59601,46.5844929880001,-112.023901741,254,"1013 E BROADWAY ST, HELENA, MT, 59601","Match","Exact","1013 E BROADWAY ST, HELENA, MT, 59601",202349932,"R"
6755,"1013 E CHARLESTON BLVD","LAS VEGAS","NV",89104,36.158859722,-115.139838753,255,"1013 E CHARLESTON BLVD, LAS VEGAS, NV, 89104","Match","Exact","1013 E CHARLESTON BLVD, LAS VEGAS, NV, 89104",201867730,"L"
6756,"1013 EAST 11TH STREET","WILMINGTON","DE",19801,39.74189856,-75.5360061329999,256,"1013 EAST 11TH STREET, WILMINGTON, DE, 19801","Match","Non_Exact","1013 E 11TH ST, WILMINGTON, DE, 19802",187259315,"L"
6757,"1013 EAST 15TH ST BROOKLYN","BROOKLYN","NY",11230,40.6247462810001,-73.961301169,257,"1013 EAST 15TH ST BROOKLYN, BROOKLYN, NY, 11230","Match","Exact","1013 E 15TH ST, BROOKLYN, NY, 11230",59098101,"L"
6758,"1013 EAST 85TH STREET","BROOKLYN","NY",11236,40.6359808390001,-73.907507386,258,"1013 EAST 85TH STREET, BROOKLYN, NY, 11236","Match","Exact","1013 E 85TH ST, BROOKLYN, NY, 11236",59086478,"L"
6759,"1013 EAST KENSINGTON CIRCLE","FREDERICKSBURG","VA",22401,38.285127345,-77.4799208749999,259,"1013 EAST KENSINGTON CIRCLE, FREDERICKSBURG, VA, 22401","Match","Exact","1013 E KENSINGTON CIR, FREDERICKSBURG, VA, 22401",616376365,"R"
6760,"1013 EDITH STREET","BURLINGTON","NC",27215,36.0966076510001,-79.4640202859999,260,"1013 EDITH STREET, BURLINGTON, NC, 27215","Match","Exact","1013 EDITH ST, BURLINGTON, NC, 27215",71661636,"R"
6761,"1013 FLAMING OAKS DRIVE","NORMAN","OK",73026,35.2058881880001,-97.350351253,261,"1013 FLAMING OAKS DRIVE, NORMAN, OK, 73026","Match","Exact","1013 FLAMING OAKS DR, NORMAN, OK, 73026",99913020,"R"
6762,"1013 FRANKLIN AVE","FREMONT","OH",43420,41.3566102290001,-83.1246141999999,262,"1013 FRANKLIN AVE, FREMONT, OH, 43420","Match","Exact","1013 FRANKLIN AVE, FREMONT, OH, 43420",38669930,"R"
6763,"1013 GOLDEN BEAR LANE","MCKINNEY","TX",75072,33.194731323,-96.743147692,263,"1013 GOLDEN BEAR LANE, MCKINNEY, TX, 75072","Match","Exact","1013 GOLDEN BEAR LN, MCKINNEY, TX, 75072",619911507,"L"
6764,"1013 GREAT PLAINS AVE","MATTESON","IL",60443,41.507424438,-87.7667078429999,264,"1013 GREAT PLAINS AVE, MATTESON, IL, 60443","Match","Exact","1013 GREAT PLAINS AVE, MATTESON, IL, 60443",638712562,"R"
6765,"1013 GREENBRIAR DRIVE","GARLAND","TX",75043,32.8496354380001,-96.636040511,265,"1013 GREENBRIAR DRIVE, GARLAND, TX, 75043","Match","Exact","1013 GREENBRIAR DR, GARLAND, TX, 75043",103202310,"R"
6766,"1013 GREENFIELD CIRCLE","STATE COLLEGE","PA",16801,40.7779625750001,-77.862893281,266,"1013 GREENFIELD CIRCLE, STATE COLLEGE, PA, 16801","Match","Exact","1013 GREENFIELD CIR, STATE COLLEGE, PA, 16801",50371016,"L"
6767,"1013 HANOVER STREET","WEATHERFORD","TX",76086,32.770021523,-97.798976755,267,"1013 HANOVER STREET, WEATHERFORD, TX, 76086","Match","Exact","1013 HANOVER ST, WEATHERFORD, TX, 76086",103575566,"L"
6768,"1013 HARBOR BLVD","LOS ANGELES","CA",93035,NA,NA,268,"1013 HARBOR BLVD, LOS ANGELES, CA, 93035","No_Match",NA,NA,NA,NA
6769,"1013 HARMONY DRIVE","RACINE","WI",53402,42.7634076840001,-87.792393782,269,"1013 HARMONY DRIVE, RACINE, WI, 53402","Match","Exact","1013 HARMONY DR, RACINE, WI, 53402",77906017,"L"
6770,"1013 HARTLEY COURT","SICKLERVILLE","NJ",8081,39.7612718610001,-75.0317089719999,270,"1013 HARTLEY COURT, SICKLERVILLE, NJ, 8081","Match","Exact","1013 HARTLEY CT, SICKLERVILLE, NJ, 08081",134419900,"L"
6771,"1013 HIGH DRIVE","CARMEL","IN",46033,39.966979263,-86.1079297269999,271,"1013 HIGH DRIVE, CARMEL, IN, 46033","Match","Exact","1013 HIGH DR, CARMEL, IN, 46033",29295245,"L"
6772,"1013 HIGHWAY 17S","MYRTLE BEACH","SC",29582,NA,NA,272,"1013 HIGHWAY 17S, MYRTLE BEACH, SC, 29582","No_Match",NA,NA,NA,NA
6773,"1013 HODGE STREET","MCKINNEY","TX",75071,33.2484283800001,-96.601005351,273,"1013 HODGE STREET, MCKINNEY, TX, 75071","Match","Exact","1013 HODGE ST, MCKINNEY, TX, 75071",650326479,"L"
6774,"1013 HOLLIDAY DR","NORTH AUGUSTA","SC",29841,33.5095654080001,-81.977913933,274,"1013 HOLLIDAY DR, NORTH AUGUSTA, SC, 29841","Match","Non_Exact","1013 HOLIDAY DR, NORTH AUGUSTA, SC, 29841",64984276,"R"
6775,"1013 HORTON DRIVE SE","CLEVELAND","TN",37323,35.083217285,-84.787814754,275,"1013 HORTON DRIVE SE, CLEVELAND, TN, 37323","Match","Non_Exact","1013 HORTON RD SE, CLEVELAND, TN, 37323",57579089,"L"
6776,"1013 HWY 603","CHEHALIS","WA",98532,46.607281003,-122.951699238,276,"1013 HWY 603, CHEHALIS, WA, 98532","Match","Non_Exact","1013 STATE RTE 603, CHEHALIS, WA, 98532",640617622,"R"
6777,"1013 INNES NE","GRAND RAPIDS","MI",49503,42.9678817320001,-85.644088239,277,"1013 INNES NE, GRAND RAPIDS, MI, 49503","Match","Non_Exact","1013 INNES ST NE, GRAND RAPIDS, MI, 49503",12460628,"L"
6778,"1013 JEFFERSON AVE","WAYNESBORO","VA",22980,38.056760341,-78.89912988,278,"1013 JEFFERSON AVE, WAYNESBORO, VA, 22980","Match","Exact","1013 JEFFERSON AVE, WAYNESBORO, VA, 22980",98871658,"L"
6779,"1013 LINDEN ST","OAKLAND","CA",94607,37.8063226260001,-122.285006949,279,"1013 LINDEN ST, OAKLAND, CA, 94607","Match","Exact","1013 LINDEN ST, OAKLAND, CA, 94607",606305649,"L"
6780,"1013 MAIN ST","PELLA","IA",50219,41.4105796090001,-92.9164297899999,280,"1013 MAIN ST, PELLA, IA, 50219","Match","Exact","1013 MAIN ST, PELLA, IA, 50219",89472554,"L"
6781,"1013 MAIN STREET","MUMFORD","NY",14511,42.9925757120001,-77.860621242,281,"1013 MAIN STREET, MUMFORD, NY, 14511","Match","Exact","1013 MAIN ST, MUMFORD, NY, 14511",14524986,"R"
6782,"1013 MUIR WOODS DRIVE","ALLEN","TX",75002,33.111358282,-96.622001096,282,"1013 MUIR WOODS DRIVE, ALLEN, TX, 75002","Match","Exact","1013 MUIR WOODS DR, ALLEN, TX, 75002",123569020,"L"
6783,"1013 N CAMPUS AVENUE","ONTARIO","CA",91764,34.0765974350001,-117.641413546,283,"1013 N CAMPUS AVENUE, ONTARIO, CA, 91764","Match","Exact","1013 N CAMPUS AVE, ONTARIO, CA, 91764",144675547,"L"
6784,"1013 N CAROL","MONAHANS","TX",79756,31.6026458600001,-102.899611614,284,"1013 N CAROL, MONAHANS, TX, 79756","Match","Non_Exact","1013 N CAROL AVE, MONAHANS, TX, 79756",182585971,"L"
6785,"1013 N CLARA AVE","DELAND","FL",32720,29.0449100760001,-81.30810629,285,"1013 N CLARA AVE, DELAND, FL, 32720","Match","Exact","1013 N CLARA AVE, DELAND, FL, 32720",94546795,"R"
6786,"1013 N EVALINE CT","RIALTO","CA",92376,34.1183064050001,-117.351353374,286,"1013 N EVALINE CT, RIALTO, CA, 92376","Match","Exact","1013 N EVALINE CT, RIALTO, CA, 92376",144965141,"R"
6787,"1013 N MAIN STREET","BELL","FL",32619,29.752954016,-82.861280587,287,"1013 N MAIN STREET, BELL, FL, 32619","Match","Exact","1013 MAIN ST, BELL, FL, 32619",40994798,"L"
6788,"1013 N MAIN STREET","TRENTON","FL",32693,29.619224181,-82.8183856049999,288,"1013 N MAIN STREET, TRENTON, FL, 32693","Match","Exact","1013 N MAIN ST, TRENTON, FL, 32693",636322538,"L"
6789,"1013 N SWOPE DR","INDEPENDENCE","MO",64056,NA,NA,289,"1013 N SWOPE DR, INDEPENDENCE, MO, 64056","Tie",NA,NA,NA,NA
6790,"1013 NW 106TH AVE CIR","MIAMI","FL",33172,25.7797938690001,-80.366270288,290,"1013 NW 106TH AVE CIR, MIAMI, FL, 33172","Match","Exact","1013 NW 106TH AVENUE CIR, MIAMI, FL, 33172",116271698,"R"
6791,"1013 OAKRIDGE CT","KENNEDALE","TX",76060,32.6553662060001,-97.213791142,291,"1013 OAKRIDGE CT, KENNEDALE, TX, 76060","Match","Exact","1013 OAKRIDGE CT, KENNEDALE, TX, 76060",101930667,"L"
6792,"1013 PATRIOT DRIVE","DESHLER","OH",43516,41.21744684,-83.9036735509999,292,"1013 PATRIOT DRIVE, DESHLER, OH, 43516","Match","Exact","1013 PATRIOT DR, DESHLER, OH, 43516",33802343,"L"
6793,"1013 PICKETT ST","FREDERICKSBURG","VA",22401,38.285079194,-77.5079034679999,293,"1013 PICKETT ST, FREDERICKSBURG, VA, 22401","Match","Exact","1013 PICKETT ST, FREDERICKSBURG, VA, 22401",616270648,"L"
6794,"1013 PINE ACRES COURT","KNIGHTDALE","NC",27545,35.7825820310001,-78.515894797,294,"1013 PINE ACRES COURT, KNIGHTDALE, NC, 27545","Match","Exact","1013 PINE ACRES CT, KNIGHTDALE, NC, 27545",208359493,"R"
6795,"1013 RACE STREET - APT  2","NEW ORLEANS","LA",70130,29.9342011860001,-90.0714669399999,295,"1013 RACE STREET - APT  2, NEW ORLEANS, LA, 70130","Match","Exact","1013 RACE ST, NEW ORLEANS, LA, 70130",191714653,"R"
6796,"1013 S EAST ST","BLOOMINGTON","IL",61701,40.4694232890001,-88.9921135659999,296,"1013 S EAST ST, BLOOMINGTON, IL, 61701","Match","Exact","1013 S EAST ST, BLOOMINGTON, IL, 61701",20546215,"R"
6797,"1013 S STATE AVE  SUITE A","ALPENA","MI",49707,NA,NA,297,"1013 S STATE AVE  SUITE A, ALPENA, MI, 49707","Tie",NA,NA,NA,NA
6798,"1013 S WELLS ST","EDNA","TX",77957,28.970144953,-96.6361430219999,298,"1013 S WELLS ST, EDNA, TX, 77957","Match","Exact","1013 S WELLS ST, EDNA, TX, 77957",42124535,"L"
6799,"1013 SHOAL CREEK TRL","CHESAPEAKE","VA",23320,36.761192927,-76.219457555,299,"1013 SHOAL CREEK TRL, CHESAPEAKE, VA, 23320","Match","Exact","1013 SHOAL CREEK TRL, CHESAPEAKE, VA, 23320",121792795,"R"
6800,"1013 SHOREHAVEN DR","GARLAND","TX",75040,32.917508598,-96.6189624309999,300,"1013 SHOREHAVEN DR, GARLAND, TX, 75040","Match","Exact","1013 SHOREHAVEN DR, GARLAND, TX, 75040",102927921,"L"
6801,"1013 SOUTH MERRILL STREET","NEW BOSTON","TX",75570,33.4438129170001,-94.421198336,301,"1013 SOUTH MERRILL STREET, NEW BOSTON, TX, 75570","Match","Exact","1013 S MERRILL ST, NEW BOSTON, TX, 75570",57680358,"R"
6802,"1013 SPRINGDALE CT","DELAND","FL",32720,29.0111815830001,-81.320949038,302,"1013 SPRINGDALE CT, DELAND, FL, 32720","Match","Exact","1013 SPRINGDALE CT, DELAND, FL, 32720",94512039,"R"
6803,"1013 STOCKTON DR","BURLESON","TX",76028,32.5454267580001,-97.354352357,303,"1013 STOCKTON DR, BURLESON, TX, 76028","Match","Non_Exact","1013 STOCKTON, BURLESON, TX, 76028",103545423,"R"
6804,"1013 THORNCREST DRIVE","FLETCHER","NC",28732,35.424373492,-82.5090311769999,304,"1013 THORNCREST DRIVE, FLETCHER, NC, 28732","Match","Exact","1013 THORNCREST DR, FLETCHER, NC, 28732",152305888,"R"
6805,"1013 TRESTLE DRIVE","AUSTELL","GA",30106,33.8512425210001,-84.5838632539999,305,"1013 TRESTLE DRIVE, AUSTELL, GA, 30106","Match","Exact","1013 TRESTLE DR, AUSTELL, GA, 30106",17218571,"L"
6806,"1013 VERNON STREET","LAGRANGE","GA",30240,33.0374775390001,-85.045237974,306,"1013 VERNON STREET, LAGRANGE, GA, 30240","Match","Exact","1013 VERNON ST, LAGRANGE, GA, 30240",1759701,"R"
6807,"1013 W 2ND STREET","SANFORD","FL",32771,28.8107397840001,-81.278215949,307,"1013 W 2ND STREET, SANFORD, FL, 32771","Match","Exact","1013 W 2ND ST, SANFORD, FL, 32771",93749091,"L"
6808,"1013 W 575 N","SPRINGVILLE","UT",84663,40.1752541050001,-111.628969644,308,"1013 W 575 N, SPRINGVILLE, UT, 84663","Match","Exact","1013 575 N, SPRINGVILLE, UT, 84663",653274170,"L"
6809,"1013 WEST COUNTRYSIDE LANE","BLOOMINGTON","IN",47403,39.1431450700001,-86.5449819569999,309,"1013 WEST COUNTRYSIDE LANE, BLOOMINGTON, IN, 47403","Match","Exact","1013 W COUNTRYSIDE LN, BLOOMINGTON, IN, 47403",42332807,"L"
6810,"1013 WEST GLADYS WAY","MUSTANG","OK",73064,35.3986180360001,-97.745111262,310,"1013 WEST GLADYS WAY, MUSTANG, OK, 73064","Match","Exact","1013 W GLADYS WAY, MUSTANG, OK, 73064",92529519,"R"
6811,"1013 WEST WASHINGTON STREET","SOUTH BEND","IN",46601,41.6762515950001,-86.2649386319999,311,"1013 WEST WASHINGTON STREET, SOUTH BEND, IN, 46601","Match","Exact","1013 W WASHINGTON ST, SOUTH BEND, IN, 46601",8087928,"R"
6812,"1013 WEST WASHINGTON STREET","SUFFOLK","VA",23434,36.73081983,-76.599590242,312,"1013 WEST WASHINGTON STREET, SUFFOLK, VA, 23434","Match","Exact","1013 W WASHINGTON ST, SUFFOLK, VA, 23434",122226333,"R"
6813,"1013 WILLARD ST","GREENSBORO","NC",27405,36.0906010080001,-79.747603646,313,"1013 WILLARD ST, GREENSBORO, NC, 27405","Match","Exact","1013 WILLARD ST, GREENSBORO, NC, 27405",131091870,"L"
6814,"1013 WOODHILL COURT","WILLIAMSTOWN","NJ",8094,39.698064371,-75.00468332,314,"1013 WOODHILL COURT, WILLIAMSTOWN, NJ, 8094","Match","Exact","1013 WOODHILL CT, WILLIAMSTOWN, NJ, 08094",623832552,"L"
6815,"1013 YACHT CT","NEW BERN","NC",28560,35.0811273150001,-76.9640839699999,315,"1013 YACHT CT, NEW BERN, NC, 28560","Match","Exact","1013 YACHT CT, NEW BERN, NC, 28560",34151520,"R"
6816,"10130 7TH AVE SE","EVERETT","WA",98208,47.905211152,-122.223250632,316,"10130 7TH AVE SE, EVERETT, WA, 98208","Match","Exact","10130 7TH AVE SE, EVERETT, WA, 98208",187804671,"R"
6817,"10130 E TIERRA BUENA LN","SCOTTSDALE","AZ",85255,33.628955881,-111.861926555,317,"10130 E TIERRA BUENA LN, SCOTTSDALE, AZ, 85255","Match","Exact","10130 E TIERRA BUENA LN, SCOTTSDALE, AZ, 85255",128962538,"L"
6818,"10130 INVERNESS MAIN STREET","ENGLEWOOD","CO",80112,39.5792257470001,-104.871894913,318,"10130 INVERNESS MAIN STREET, ENGLEWOOD, CO, 80112","Match","Exact","10130 INVERNESS MAIN ST, ENGLEWOOD, CO, 80112",617958215,"R"
6819,"10130 LAWN HAVEN CT","INDIANAPOLIS","IN",46229,39.7919996690001,-85.9873502679999,319,"10130 LAWN HAVEN CT, INDIANAPOLIS, IN, 46229","Match","Non_Exact","10130 LAWNHAVEN CT, INDIANAPOLIS, IN, 46229",108013045,"L"
6820,"10130 MALLARD CREEK ROAD SUITE 300","CHARLOTTE","NC",28262,35.339228028,-80.77065017,320,"10130 MALLARD CREEK ROAD SUITE 300, CHARLOTTE, NC, 28262","Match","Exact","10130 MALLARD CREEK RD, CHARLOTTE, NC, 28262",635657641,"R"
6821,"10130 NORTHLAKE BLVD SUITE 214-223","WEST PALM BEACH","FL",33412,26.8115324130001,-80.197300266,321,"10130 NORTHLAKE BLVD SUITE 214-223, WEST PALM BEACH, FL, 33412","Match","Exact","10130 NORTHLAKE BLVD, WEST PALM BEACH, FL, 33412",647656631,"R"
6822,"10130 NORTHLAKE BOULEVARD - STE 212","WEST PALM BEACH","FL",33412,26.8115324130001,-80.197300266,322,"10130 NORTHLAKE BOULEVARD - STE 212, WEST PALM BEACH, FL, 33412","Match","Exact","10130 NORTHLAKE BLVD, WEST PALM BEACH, FL, 33412",647656631,"R"
6823,"10130 NW 22 COURT","PEMBROKE PINES","FL",33026,26.027884387,-80.28143295,323,"10130 NW 22 COURT, PEMBROKE PINES, FL, 33026","Match","Exact","10130 NW 22ND CT, PEMBROKE PINES, FL, 33026",114754220,"R"
6824,"10130 PERIMETER PARKWAY SUITE 200","CHARLOTTE","NC",28216,35.346129983,-80.851710731,324,"10130 PERIMETER PARKWAY SUITE 200, CHARLOTTE, NC, 28216","Match","Exact","10130 PERIMETER PKWY, CHARLOTTE, NC, 28216",642374092,"L"
6825,"10130 PERIMETER PARKWAY SUITE 300","CHARLOTTE","NC",28216,35.346129983,-80.851710731,325,"10130 PERIMETER PARKWAY SUITE 300, CHARLOTTE, NC, 28216","Match","Exact","10130 PERIMETER PKWY, CHARLOTTE, NC, 28216",642374092,"L"
6826,"10130 SIGOURNEY AVENUE","OAKLAND","CA",95610,37.7581893010001,-122.141310855,326,"10130 SIGOURNEY AVENUE, OAKLAND, CA, 95610","Match","Non_Exact","10130 SIGOURNEY AVE, OAKLAND, CA, 94605",125011450,"L"
6827,"10130 VIVERA DRIVE","LA MESA","CA",91941,32.7699590890001,-116.978596958,327,"10130 VIVERA DRIVE, LA MESA, CA, 91941","Match","Exact","10130 VIVERA DR, LA MESA, CA, 91941",195328819,"L"
6828,"10130 WAKEFIELD DRIVE NORTH","MOBILE","AL",36695,30.6692089160001,-88.281744913,328,"10130 WAKEFIELD DRIVE NORTH, MOBILE, AL, 36695","Match","Exact","10130 WAKEFIELD DR N, MOBILE, AL, 36695",61955267,"L"
6829,"101300 PERIMETER PARKWAY SUITE 200","CHARLOTTE","NC",28216,NA,NA,329,"101300 PERIMETER PARKWAY SUITE 200, CHARLOTTE, NC, 28216","No_Match",NA,NA,NA,NA
6830,"10131 APPLE CREEK DRIVE","DALLAS","TX",75243,32.9146456440001,-96.7196329509999,330,"10131 APPLE CREEK DRIVE, DALLAS, TX, 75243","Match","Exact","10131 APPLE CREEK DR, DALLAS, TX, 75243",102914851,"L"
6831,"10131 CARAWAY SPICE AVENUE","RIVERVIEW","FL",33578,27.810024733,-82.3418879119999,331,"10131 CARAWAY SPICE AVENUE, RIVERVIEW, FL, 33578","Match","Exact","10131 CARAWAY SPICE AVE, RIVERVIEW, FL, 33578",646581007,"L"
6832,"10131 MIDLAND BLVD","ST. LOUIS","MO",63114,38.7044909860001,-90.38233851,332,"10131 MIDLAND BLVD, ST. LOUIS, MO, 63114","Match","Exact","10131 MIDLAND BLVD, SAINT LOUIS, MO, 63114",100130576,"R"
6833,"10131 SAINT PATRICK DR","MIDWEST CITY","OK",73130,35.4591386540001,-97.351674775,333,"10131 SAINT PATRICK DR, MIDWEST CITY, OK, 73130","Match","Exact","10131 SAINT PATRICK DR, MIDWEST CITY, OK, 73130",100416932,"L"
6834,"10131 SOUTH UNION AVENUE","CHICAGO","IL",60628,41.709982875,-87.640478431,334,"10131 SOUTH UNION AVENUE, CHICAGO, IL, 60628","Match","Exact","10131 S UNION AVE, CHICAGO, IL, 60628",111833004,"L"
6835,"10131 VALLEY FORGE","HOUSTON","TX",77042,29.7509067340001,-95.552735625,335,"10131 VALLEY FORGE, HOUSTON, TX, 77042","Match","Non_Exact","10131 VALLEY FORGE DR, HOUSTON, TX, 77042",96624135,"L"
6836,"10131 WINDSTONE CREEK","SAN ANTONIO","TX",78254,29.541125193,-98.6636269749999,336,"10131 WINDSTONE CREEK, SAN ANTONIO, TX, 78254","Match","Exact","10131 WINDSTONE CREEK, SAN ANTONIO, TX, 78254",101587741,"R"
6837,"10132 DALEROSE AVE","INGLEWOOD","CA",90304,33.943955713,-118.360196324,337,"10132 DALEROSE AVE, INGLEWOOD, CA, 90304","Match","Exact","10132 DALEROSE AVE, INGLEWOOD, CA, 90304",647611784,"L"
6838,"10132 HICKORY LEAF RD","INDIANAPOLIS","IN",46235,39.85321041,-85.989262169,338,"10132 HICKORY LEAF RD, INDIANAPOLIS, IN, 46235","Match","Exact","10132 HICKORY LEAF RD, INDIANAPOLIS, IN, 46235",108031392,"L"
6839,"10132 S MAY STREET","CHICAGO","IL",60643,41.7097701050001,-87.6514287539999,339,"10132 S MAY STREET, CHICAGO, IL, 60643","Match","Exact","10132 S MAY ST, CHICAGO, IL, 60643",605471079,"R"
6840,"10132 S UNION AVE","CHICAGO","IL",60628,41.7099410120001,-87.640491891,340,"10132 S UNION AVE, CHICAGO, IL, 60628","Match","Exact","10132 S UNION AVE, CHICAGO, IL, 60628",111833004,"R"
6841,"10132 SOUTH OGLESBY","CHICAGO","IL",60628,NA,NA,341,"10132 SOUTH OGLESBY, CHICAGO, IL, 60628","No_Match",NA,NA,NA,NA
6842,"10132 WOODMAN AVENUE","MISSION HILLS","CA",91345,34.2544392680001,-118.454162305,342,"10132 WOODMAN AVENUE, MISSION HILLS, CA, 91345","Match","Exact","10132 WOODMAN AVE, MISSION HILLS, CA, 91345",142039507,"R"
6843,"10133 ANGELES RD","PEYTON","CO",80831,38.977171673,-104.599653403,343,"10133 ANGELES RD, PEYTON, CO, 80831","Match","Exact","10133 ANGELES RD, PEYTON, CO, 80831",617227803,"L"
6844,"10133 BRANDON WAY","MANASSAS","GA",20109,NA,NA,344,"10133 BRANDON WAY, MANASSAS, GA, 20109","No_Match",NA,NA,NA,NA
6845,"10133 HALBERNS BLVD","SANTEE","CA",92071,32.8619304200001,-116.992295919,345,"10133 HALBERNS BLVD, SANTEE, CA, 92071","Match","Exact","10133 HALBERNS BLVD, SANTEE, CA, 92071",195324836,"R"
6846,"10133 LONG RIFLE DRIVE","FORT WORTH","TX",76108,32.763129931,-97.496505731,346,"10133 LONG RIFLE DRIVE, FORT WORTH, TX, 76108","Match","Exact","10133 LONG RIFLE DR, FORT WORTH, TX, 76108",102120358,"R"
6847,"10133 ORCHARD GRASS CT","CHARLOTTE","NC",28278,35.1250423550001,-80.99308368,347,"10133 ORCHARD GRASS CT, CHARLOTTE, NC, 28278","Match","Exact","10133 ORCHARD GRASS CT, CHARLOTTE, NC, 28278",70552543,"R"
6848,"10133 QUIVAS ST","THORNTON","CO",80260,39.880100767,-105.007397118,348,"10133 QUIVAS ST, THORNTON, CO, 80260","Match","Exact","10133 QUIVAS ST, THORNTON, CO, 80260",177295931,"R"
6849,"10133 SAMANTHA DR","FOWLERVILLE","MI",48836,42.654649905,-84.1165390899999,349,"10133 SAMANTHA DR, FOWLERVILLE, MI, 48836","Match","Exact","10133 SAMANTHA DR, FOWLERVILLE, MI, 48836",619591226,"L"
6850,"10133 SPRINGFIELD PIKE","CINCINNATI","OH",45215,39.2513184580001,-84.470392327,350,"10133 SPRINGFIELD PIKE, CINCINNATI, OH, 45215","Match","Exact","10133 SPRINGFIELD PIKE, CINCINNATI, OH, 45215",103944630,"L"
6851,"10133 TAVISTOCK ROAD","ORLANDO","FL",32827,28.4134310490001,-81.243390828,351,"10133 TAVISTOCK ROAD, ORLANDO, FL, 32827","Match","Exact","10133 TAVISTOCK RD, ORLANDO, FL, 32827",94423895,"L"
6852,"10134 AVALON VALLEY DRIVE","DANBURY","CT",6810,41.4113824390001,-73.4337287119999,352,"10134 AVALON VALLEY DRIVE, DANBURY, CT, 6810","Match","Exact","10134 AVALON VALLEY DR, DANBURY, CT, 06810",633274546,"L"
6853,"10134 GORDON AVE","GORDONSVILLE","VA",22942,38.133154598,-78.204412127,353,"10134 GORDON AVE, GORDONSVILLE, VA, 22942","Match","Exact","10134 GORDON AVE, GORDONSVILLE, VA, 22942",29889062,"R"
6854,"10134 ROCKAWAY DRIVE","HOUSTON","TX",77016,29.858343554,-95.3014752079999,354,"10134 ROCKAWAY DRIVE, HOUSTON, TX, 77016","Match","Exact","10134 ROCKAWAY DR, HOUSTON, TX, 77016",96075585,"R"
6855,"10135 160TH AVE","BRISTOL","WI",53104,42.5271968050001,-88.0006115039999,355,"10135 160TH AVE, BRISTOL, WI, 53104","Match","Exact","10135 160TH AVE, BRISTOL, WI, 53104",638425640,"R"
6856,"10135 BALLYCLARE CT","CHARLOTTE","NC",28213,35.3050551050001,-80.7182386379999,356,"10135 BALLYCLARE CT, CHARLOTTE, NC, 28213","Match","Exact","10135 BALLYCLARE CT, CHARLOTTE, NC, 28213",632095424,"R"
6857,"10135 DEERCLIFF DRIVE","TAMPA","FL",33647,28.1287191480001,-82.325729324,357,"10135 DEERCLIFF DRIVE, TAMPA, FL, 33647","Match","Exact","10135 DEERCLIFF DR, TAMPA, FL, 33647",104627961,"R"
6858,"10135 GEARY AVENUE","SANTA E SPRINGS","CA",90670,33.94542468,-118.074948136,358,"10135 GEARY AVENUE, SANTA E SPRINGS, CA, 90670","Match","Non_Exact","10135 GEARY AVE, SANTA FE SPRINGS, CA, 90670",241250890,"R"
6859,"10136 BARTON ST","OVERLAND PARK","KS",66214,38.9441083090001,-94.7136732019999,359,"10136 BARTON ST, OVERLAND PARK, KS, 66214","Match","Exact","10136 BARTON ST, OVERLAND PARK, KS, 66214",91276305,"L"
6860,"10136 SCOTCH HILL DRIVE","UPPER MARLBORO","MD",20774,38.8939067530001,-76.831145754,360,"10136 SCOTCH HILL DRIVE, UPPER MARLBORO, MD, 20774","Match","Exact","10136 SCOTCH HILL DR, UPPER MARLBORO, MD, 20774",76319595,"L"
6861,"10137 FOXHURST COURT","ORLANDO","FL",32836,28.419540791,-81.488888452,361,"10137 FOXHURST COURT, ORLANDO, FL, 32836","Match","Exact","10137 FOXHURST CT, ORLANDO, FL, 32836",94373120,"L"
6862,"10137 NANTUCKET DR","SAN RAMON","CA",94582,37.7537359300001,-121.935625739,362,"10137 NANTUCKET DR, SAN RAMON, CA, 94582","Match","Exact","10137 NANTUCKET DR, SAN RAMON, CA, 94582",192066907,"R"
6863,"10137 NORTH GOLDEN ELM DRIVE","ESTERO","FL",33928,26.439531129,-81.787269306,363,"10137 NORTH GOLDEN ELM DRIVE, ESTERO, FL, 33928","Match","Exact","10137 N GOLDEN ELM DR, ESTERO, FL, 33928",631944911,"R"
6864,"10137 SHERFICK SCHOOL ROAD","SHOALS","IN",47581,38.638723193,-86.734169612,364,"10137 SHERFICK SCHOOL ROAD, SHOALS, IN, 47581","Match","Exact","10137 SHERFICK SCHOOL RD, SHOALS, IN, 47581",32112259,"L"
6865,"10138 BRIDGEPORT WAY SW","LAKEWOOD","WA",98499,47.1658184560001,-122.508740665,365,"10138 BRIDGEPORT WAY SW, LAKEWOOD, WA, 98499","Match","Exact","10138 BRIDGEPORT WAY SW, LAKEWOOD, WA, 98499",637618012,"R"
6866,"10138 WEST TOLLESON ROAD","TOLLESON","AZ",85353,NA,NA,366,"10138 WEST TOLLESON ROAD, TOLLESON, AZ, 85353","No_Match",NA,NA,NA,NA
6867,"10139 DAPHNE AVE","PALM BEACH GARDENS","FL",33410,26.8255649050001,-80.0933688169999,367,"10139 DAPHNE AVE, PALM BEACH GARDENS, FL, 33410","Match","Exact","10139 DAPHNE AVE, PALM BEACH GARDENS, FL, 33410",115267127,"L"
6868,"10139 FLORIDA CIRCLE N","BROOKLYN PARK","MN",55445,45.138094589,-93.360185222,368,"10139 FLORIDA CIRCLE N, BROOKLYN PARK, MN, 55445","Match","Non_Exact","10139 FLORIDA CIR, BROOKLYN PARK, MN, 55445",641220523,"R"
6869,"10139 N SERENITY LN","MOORESVILLE","IN",46158,39.5767443030001,-86.418467267,369,"10139 N SERENITY LN, MOORESVILLE, IN, 46158","Match","Exact","10139 SERENITY LN, MOORESVILLE, IN, 46158",43574733,"L"
6870,"10139 RISING MIST LANE","JACKSONVILLE","FL",32221,30.297654902,-81.821837816,370,"10139 RISING MIST LANE, JACKSONVILLE, FL, 32221","Match","Exact","10139 RISING MIST LN, JACKSONVILLE, FL, 32221",83961560,"L"
6871,"10139 RISING MIST","JACKSONVILLE","FL",32221,NA,NA,371,"10139 RISING MIST, JACKSONVILLE, FL, 32221","Tie",NA,NA,NA,NA
6872,"10139 ROYALTON ROAD SUITE D","NORTH ROYALTON","OH",44133,41.313554595,-81.7616877569999,372,"10139 ROYALTON ROAD SUITE D, NORTH ROYALTON, OH, 44133","Match","Exact","10139 ROYALTON RD, N ROYALTON, OH, 44133",640436722,"L"
6873,"10139 S HARLEM AVE STE A3","CHICAGO RIDGE","IL",60415,41.704864576,-87.798062504,373,"10139 S HARLEM AVE STE A3, CHICAGO RIDGE, IL, 60415","Match","Exact","10139 HARLEM AVE, CHICAGO RIDGE, IL, 60415",638519867,"L"
6874,"1014 11TH ST","ANACORTES","WA",98221,48.5134253300001,-122.612856107,374,"1014 11TH ST, ANACORTES, WA, 98221","Match","Exact","1014 11TH ST, ANACORTES, WA, 98221",183641723,"R"
6875,"1014 6TH AVE","LEWISTON","ID",83501,46.4146414740001,-117.017890603,375,"1014 6TH AVE, LEWISTON, ID, 83501","Match","Exact","1014 6TH AVE, LEWISTON, ID, 83501",649898620,"R"
6876,"1014 ABILENE CT","HAMILTON","OH",45013,39.417047649,-84.6266854529999,376,"1014 ABILENE CT, HAMILTON, OH, 45013","Match","Exact","1014 ABILENE CT, HAMILTON, OH, 45013",113787355,"R"
6877,"1014 ANDREWS CHAPEL ROAD","DURHAM","NC",27702,35.923723513,-78.785552574,377,"1014 ANDREWS CHAPEL ROAD, DURHAM, NC, 27702","Match","Non_Exact","1014 ANDREWS CHAPEL RD, DURHAM, NC, 27703",619297340,"L"
6878,"1014 AVENUE C","KATY","TX",77493,29.7883166570001,-95.823292379,378,"1014 AVENUE C, KATY, TX, 77493","Match","Exact","1014 AVE C, KATY, TX, 77493",96013106,"L"
6879,"1014 BARRINGTON AVENUE","ELKO","NV",89801,40.8499056220001,-115.7752794,379,"1014 BARRINGTON AVENUE, ELKO, NV, 89801","Match","Exact","1014 BARRINGTON AVE, ELKO, NV, 89801",154550509,"L"
6880,"1014 BENDING CHESTNUT DRIVE","LEBANON","TN",37087,36.3110429970001,-86.436460827,380,"1014 BENDING CHESTNUT DRIVE, LEBANON, TN, 37087","Match","Exact","1014 BENDING CHESTNUT DR, LEBANON, TN, 37087",636810061,"L"
6881,"1014 BEVERLY DRIVE","OMAHA","NE",68114,41.2493697740001,-96.0352545709999,381,"1014 BEVERLY DRIVE, OMAHA, NE, 68114","Match","Exact","1014 BEVERLY DR, OMAHA, NE, 68114",116980919,"R"
6882,"1014 CABANA LN","GARLAND","TX",75042,32.921615785,-96.6836566549999,382,"1014 CABANA LN, GARLAND, TX, 75042","Match","Exact","1014 CABANA LN, GARLAND, TX, 75042",102916846,"R"
6883,"1014 CENTER STREET E","ROSEAU","MN",56751,48.8461927210001,-95.7480430909999,383,"1014 CENTER STREET E, ROSEAU, MN, 56751","Match","Exact","1014 CENTER ST E, ROSEAU, MN, 56751",176593662,"R"
6884,"1014 CLARKS LANE","LOUISVILLE","KY",40217,38.2190055300001,-85.7305455379999,384,"1014 CLARKS LANE, LOUISVILLE, KY, 40217","Match","Exact","1014 CLARKS LN, LOUISVILLE, KY, 40217",96847434,"R"
6885,"1014 DARREN DR","BURLESON","TX",76028,32.524992851,-97.339033007,385,"1014 DARREN DR, BURLESON, TX, 76028","Match","Exact","1014 DARREN DR, BURLESON, TX, 76028",225920935,"L"
6886,"1014 DECKER LANE","WARMINSTER","PA",18974,40.194737778,-75.054869314,386,"1014 DECKER LANE, WARMINSTER, PA, 18974","Match","Exact","1014 DECKER LN, WARMINSTER, PA, 18974",134744727,"L"
6887,"1014 DEES DRIVE","OVIEDO","FL",32765,28.6425192340001,-81.1875269129999,387,"1014 DEES DRIVE, OVIEDO, FL, 32765","Match","Exact","1014 DEES DR, OVIEDO, FL, 32765",93781170,"R"
6888,"1014 DOUGLAS AVENUE SUITE 3","BREWTON","AL",36426,31.123119112,-87.068560457,388,"1014 DOUGLAS AVENUE SUITE 3, BREWTON, AL, 36426","Match","Exact","1014 DOUGLAS AVE, BREWTON, AL, 36426",653029480,"R"
6889,"1014 E 1ST ST","EMMETT","ID",83617,43.874648967,-116.487346035,389,"1014 E 1ST ST, EMMETT, ID, 83617","Match","Exact","1014 E 1ST ST, EMMETT, ID, 83617",122873565,"L"
6890,"1014 EAST STATE","BELLE PLAINE","MN",56011,44.6249511980001,-93.7496138929999,390,"1014 EAST STATE, BELLE PLAINE, MN, 56011","Match","Non_Exact","1014 E STATE ST, BELLE PLAINE, MN, 56011",38142535,"L"
6891,"1014 FAIRMOUNT AVE","ELIZABETH","NJ",7201,40.673875824,-74.2008429159999,391,"1014 FAIRMOUNT AVE, ELIZABETH, NJ, 7201","Match","Exact","1014 FAIRMOUNT AVE, ELIZABETH, NJ, 07201",641531990,"L"
6892,"1014 FENWOOD DRIVE","VALLEY STREAM","NY",11580,40.680969163,-73.716569283,392,"1014 FENWOOD DRIVE, VALLEY STREAM, NY, 11580","Match","Exact","1014 FENWOOD DR, VALLEY STREAM, NY, 11580",645746093,"R"
6893,"1014 FORESTWOOD LN","COPPELL","TX",75019,32.9737147340001,-96.956813755,393,"1014 FORESTWOOD LN, COPPELL, TX, 75019","Match","Exact","1014 FORESTWOOD LN, COPPELL, TX, 75019",102992918,"L"
6894,"1014 GLENWOOD LANE","LEBANON","PA",17042,40.3170076980001,-76.44189155,394,"1014 GLENWOOD LANE, LEBANON, PA, 17042","Match","Exact","1014 GLENWOOD LN, LEBANON, PA, 17042",80687923,"R"
6895,"1014 GRAMERCY DRIVE","MIDLAND","GA",31820,NA,NA,395,"1014 GRAMERCY DRIVE, MIDLAND, GA, 31820","No_Match",NA,NA,NA,NA
6896,"1014 GRAYS LAND COURT APT 125","KERNERSVILLE","NC",27284,36.0924503270001,-80.03415648,396,"1014 GRAYS LAND COURT APT 125, KERNERSVILLE, NC, 27284","Match","Exact","1014 GRAYS LAND CT, KERNERSVILLE, NC, 27284",131114276,"R"
6897,"1014 GREENE STREET","COLUMBIA","SC",29208,33.9948389260001,-81.034131138,397,"1014 GREENE STREET, COLUMBIA, SC, 29208","Match","Non_Exact","1014 GREENE ST, COLUMBIA, SC, 29225",638928274,"R"
6898,"1014 HARDIN HOLLY","LAGRANGE","KY",40031,38.4055667150001,-85.39777309,398,"1014 HARDIN HOLLY, LAGRANGE, KY, 40031","Match","Exact","1014 HARDIN HOLLY, LAGRANGE, KY, 40031",130923851,"R"
6899,"1014 HAVENRIDGE DRIVE","HIGH POINT","NC",27265,36.035873372,-80.027303782,399,"1014 HAVENRIDGE DRIVE, HIGH POINT, NC, 27265","Match","Exact","1014 HAVENRIDGE DR, HIGH POINT, NC, 27265",131077742,"L"
6900,"1014 HERB COURT","MCDONOUGH","GA",30252,33.5454281570001,-84.0708163579999,400,"1014 HERB COURT, MCDONOUGH, GA, 30252","Match","Exact","1014 HERB CT, MCDONOUGH, GA, 30252",645556416,"L"
6901,"1014 HOPPER AVENUE SUITE 106","SANTA ROSA","CA",95403,38.479700205,-122.738555302,401,"1014 HOPPER AVENUE SUITE 106, SANTA ROSA, CA, 95403","Match","Exact","1014 HOPPER AVE, SANTA ROSA, CA, 95403",67466860,"R"
6902,"1014 INDIAN CREEK ROAD","WILLIS","VA",24380,36.9278429840001,-80.5556084999999,402,"1014 INDIAN CREEK ROAD, WILLIS, VA, 24380","Match","Non_Exact","1014 INDIAN CREEK RD NW, WILLIS, VA, 24380",79781587,"R"
6903,"1014 IRONWOOD CC DR","NORMAL","IL",61761,NA,NA,403,"1014 IRONWOOD CC DR, NORMAL, IL, 61761","No_Match",NA,NA,NA,NA
6904,"1014 JOSLIN ST","IRVING","TX",75060,32.804257201,-96.988281061,404,"1014 JOSLIN ST, IRVING, TX, 75060","Match","Exact","1014 JOSLIN ST, IRVING, TX, 75060",102887239,"L"
6905,"1014 LAKEVIEW ROAD","DURHAM","NC",27712,36.095562773,-78.92856058,405,"1014 LAKEVIEW ROAD, DURHAM, NC, 27712","Match","Exact","1014 LAKEVIEW RD, DURHAM, NC, 27712",618110486,"R"
6906,"1014 LINDEN STREET","EAST LANSING","MI",48823,42.7362244380001,-84.4707919419999,406,"1014 LINDEN STREET, EAST LANSING, MI, 48823","Match","Exact","1014 LINDEN ST, EAST LANSING, MI, 48823",17505020,"R"
6907,"1014 LISCHEY AVENUE","NASHVILLE","TN",37207,36.188698758,-86.764131676,407,"1014 LISCHEY AVENUE, NASHVILLE, TN, 37207","Match","Exact","1014 LISCHEY AVE, NASHVILLE, TN, 37207",97187687,"L"
6908,"1014 MAIN STREET","ASBURY PARK","NJ",7712,40.222697425,-74.010957708,408,"1014 MAIN STREET, ASBURY PARK, NJ, 7712","Match","Exact","1014 MAIN ST, ASBURY PARK, NJ, 07712",90463488,"R"
6909,"1014 MAPLE AVENUE","LINWOOD","NJ",8221,39.349205227,-74.569676187,409,"1014 MAPLE AVENUE, LINWOOD, NJ, 8221","Match","Exact","1014 MAPLE AVE, LINWOOD, NJ, 08221",202483928,"L"
6910,"1014 MEDIO DR","GARLAND","TX",75040,32.9217499860001,-96.598178113,410,"1014 MEDIO DR, GARLAND, TX, 75040","Match","Exact","1014 MEDIO DR, GARLAND, TX, 75040",102990605,"L"
6911,"1014 MONROE TURNPIKE","MONROE","CT",6468,41.349526113,-73.197782799,411,"1014 MONROE TURNPIKE, MONROE, CT, 6468","Match","Exact","1014 MONROE TPKE, MONROE, CT, 06468",618518622,"R"
6912,"1014 MONTICELLO DR","CHARLESTON","SC",29412,32.729720893,-79.951125717,412,"1014 MONTICELLO DR, CHARLESTON, SC, 29412","Match","Exact","1014 MONTICELLO DR, CHARLESTON, SC, 29412",108812611,"L"
6913,"1014 N CROSBY ST","CHICAGO","IL",60610,41.900452192,-87.64398851,413,"1014 N CROSBY ST, CHICAGO, IL, 60610","Match","Exact","1014 N CROSBY ST, CHICAGO, IL, 60610",111767723,"L"
6914,"1014 N HAYWORTH AVE 3","WEST HOLLYWOOD","CA",90046,34.0891055210001,-118.362712731,414,"1014 N HAYWORTH AVE 3, WEST HOLLYWOOD, CA, 90046","Match","Non_Exact","1014 N HAYWORTH AVE, W HOLLYWOOD, CA, 90046",142728395,"R"
6915,"1014 N PINE ST","DERIDDER","LA",70634,30.86209468,-93.287350278,415,"1014 N PINE ST, DERIDDER, LA, 70634","Match","Exact","1014 N PINE ST, DERIDDER, LA, 70634",88382073,"R"
6916,"1014 N PINES RD STE 120","SPOKANE VALLEY","WA",99206,NA,NA,416,"1014 N PINES RD STE 120, SPOKANE VALLEY, WA, 99206","Tie",NA,NA,NA,NA
6917,"1014 N PLYMOUTH CT","GILBERT","AZ",85234,33.369332464,-111.745721723,417,"1014 N PLYMOUTH CT, GILBERT, AZ, 85234","Match","Exact","1014 N PLYMOUTH CT, GILBERT, AZ, 85234",128809489,"R"
6918,"1014 NORTH 14TH AVE","NASHVILLE","TN",37208,NA,NA,418,"1014 NORTH 14TH AVE, NASHVILLE, TN, 37208","No_Match",NA,NA,NA,NA
6919,"1014 OHIO AVE   SUITE B","PALM HARBOR","FL",34683,28.0735317690001,-82.766954551,419,"1014 OHIO AVE   SUITE B, PALM HARBOR, FL, 34683","Match","Exact","1014 OHIO AVE, PALM HARBOR, FL, 34683",124662086,"R"
6920,"1014 OLD MANCHESTER RD","WESTMINSTER","MD",21157,39.5887968490001,-76.9600465349999,420,"1014 OLD MANCHESTER RD, WESTMINSTER, MD, 21157","Match","Exact","1014 OLD MANCHESTER RD, WESTMINSTER, MD, 21157",61768424,"L"
6921,"1014 ONSLOW DRIVE","GREENSBORO","NC",27408,36.092977316,-79.830908875,421,"1014 ONSLOW DRIVE, GREENSBORO, NC, 27408","Match","Exact","1014 ONSLOW DR, GREENSBORO, NC, 27408",131029326,"R"
6922,"1014 ORCHID AVENUE","BASTROP","LA",71220,32.7924582690001,-91.9256435889999,422,"1014 ORCHID AVENUE, BASTROP, LA, 71220","Match","Exact","1014 ORCHID AVE, BASTROP, LA, 71220",75378874,"L"
6923,"1014 ORTEGA RD NW","LOS RANCHOS","NM",87114,35.184539418,-106.634485724,423,"1014 ORTEGA RD NW, LOS RANCHOS, NM, 87114","Match","Exact","1014 ORTEGA RD NW, LOS RANCHOS, NM, 87114",645541383,"L"
6924,"1014 PARKRIDGE DRIVE","PORT TOWNSEND","WA",98368,48.0678893210001,-122.804139707,424,"1014 PARKRIDGE DRIVE, PORT TOWNSEND, WA, 98368","Match","Exact","1014 PARKRIDGE DR, PORT TOWNSEND, WA, 98368",639790679,"L"
6925,"1014 QUAKER KNOLL ROAD","SANDY SPRING","MD",20860,39.1376758660001,-77.027852729,425,"1014 QUAKER KNOLL ROAD, SANDY SPRING, MD, 20860","Match","Exact","1014 QUAKER KNOLL RD, SANDY SPRING, MD, 20860",62093945,"L"
6926,"1014 RIFLE RANGE ROAD","MOUNT PLEASANT","SC",29464,32.7939980950001,-79.8559183849999,426,"1014 RIFLE RANGE ROAD, MOUNT PLEASANT, SC, 29464","Match","Exact","1014 RIFLE RANGE RD, MOUNT PLEASANT, SC, 29464",647985537,"R"
6927,"1014 RIVER STREET","PORT HURON","MI",48060,42.984100332,-82.435208293,427,"1014 RIVER STREET, PORT HURON, MI, 48060","Match","Exact","1014 RIVER ST, PORT HURON, MI, 48060",110957164,"R"
6928,"1014 RIVERWALK DR","PHOENIXVILLE","PA",19460,40.1513240850001,-75.511132328,428,"1014 RIVERWALK DR, PHOENIXVILLE, PA, 19460","Match","Exact","1014 RIVERWALK DR, PHOENIXVILLE, PA, 19460",179529033,"R"
6929,"1014 ROSALIE STREET","PHILADELPHIA","PA",19149,40.0358176500001,-75.090296957,429,"1014 ROSALIE STREET, PHILADELPHIA, PA, 19149","Match","Exact","1014 ROSALIE ST, PHILADELPHIA, PA, 19149",131426728,"R"
6930,"1014 RUTLAND AVENUE","BALTIMORE","MD",21205,39.3024395960001,-76.592486287,430,"1014 RUTLAND AVENUE, BALTIMORE, MD, 21205","Match","Exact","1014 RUTLAND AVE, BALTIMORE, MD, 21205",625299179,"L"
6931,"1014 S 320TH STREET STE D","FEDERAL WAY","WA",98003,47.315166527,-122.319366433,431,"1014 S 320TH STREET STE D, FEDERAL WAY, WA, 98003","Match","Non_Exact","1014 S 320TH ST, FEDERAL WAY, WA, 98003",186649067,"L"
6932,"1014 S 4TH ST","MADISON","KS",66860,38.128105943,-96.137131569,432,"1014 S 4TH ST, MADISON, KS, 66860","Match","Exact","1014 4TH ST, MADISON, KS, 66860",10732800,"R"
6933,"1014 S 4TH","MADISON","KS",66860,38.12808082,-96.137132032,433,"1014 S 4TH, MADISON, KS, 66860","Match","Non_Exact","1014 4TH ST, MADISON, KS, 66860",10732800,"R"
6934,"1014 S ATLANTIC BLVD","EAST LOS ANGELES","CA",90022,34.0180025820001,-118.157942117,434,"1014 S ATLANTIC BLVD, EAST LOS ANGELES, CA, 90022","Match","Exact","1014 S ATLANTIC BLVD, EAST LOS ANGELES, CA, 90022",142737937,"L"
6935,"1014 S DIXIE HWY","MUNFORDVILLE","KY",42765,37.260823665,-85.88278652,435,"1014 S DIXIE HWY, MUNFORDVILLE, KY, 42765","Match","Exact","1014 S DIXIE HWY, MUNFORDVILLE, KY, 42765",96817065,"R"
6936,"1014 S GRANT AVENUE","MARSHALL","MO",65340,39.1118795100001,-93.206356269,436,"1014 S GRANT AVENUE, MARSHALL, MO, 65340","Match","Exact","1014 S GRANT AVE, MARSHALL, MO, 65340",21027388,"L"
6937,"1014 S LIBERTY PL","SIOUX FALLS","SD",57106,43.5381233800001,-96.7997907709999,437,"1014 S LIBERTY PL, SIOUX FALLS, SD, 57106","Match","Exact","1014 S LIBERTY PL, SIOUX FALLS, SD, 57106",35011658,"R"
6938,"1014 S OAK AVE","SANFORD","FL",32771,28.8033389710001,-81.26898607,438,"1014 S OAK AVE, SANFORD, FL, 32771","Match","Exact","1014 S OAK AVE, SANFORD, FL, 32771",93749897,"R"
6939,"1014 S PORTER ST","GILBERT","AZ",85296,33.3321671,-111.769730442,439,"1014 S PORTER ST, GILBERT, AZ, 85296","Match","Exact","1014 S PORTER ST, GILBERT, AZ, 85296",128822794,"R"
6940,"1014 S SHORE DR","IRVING","NY",14081,42.5664977430001,-79.137012076,440,"1014 S SHORE DR, IRVING, NY, 14081","Match","Exact","1014 S SHORE DR, IRVING, NY, 14081",120755035,"L"
6941,"1014 S WESTLAKE BLVD STE 14-193","WESTLAKE VILLAGE","CA",91361,34.149912054,-118.833377897,441,"1014 S WESTLAKE BLVD STE 14-193, WESTLAKE VILLAGE, CA, 91361","Match","Non_Exact","1014 S WESTLAKE BLVD, WESTLAKE VILLAGE, CA, 91361",110122437,"L"
6942,"1014 S WESTLAKE BLVD STE14 BOX155","WESTLAKE VILLAGE","CA",91361,34.149912054,-118.833377897,442,"1014 S WESTLAKE BLVD STE14 BOX155, WESTLAKE VILLAGE, CA, 91361","Match","Non_Exact","1014 S WESTLAKE BLVD, WESTLAKE VILLAGE, CA, 91361",110122437,"L"
6943,"1014 SE 12TH AVENUE","DEERFIELD BEACH","FL",33441,26.3048494230001,-80.0873967909999,443,"1014 SE 12TH AVENUE, DEERFIELD BEACH, FL, 33441","Match","Exact","1014 SE 12TH AVE, DEERFIELD BEACH, FL, 33441",114743388,"L"
6944,"1014 SOUTH 10TH STREET","FERNANDINA BEACH","FL",32034,30.657729702,-81.459102253,444,"1014 SOUTH 10TH STREET, FERNANDINA BEACH, FL, 32034","Match","Exact","1014 S 10TH ST, FERNANDINA BCH, FL, 32034",84105449,"R"
6945,"1014 SOUTH 53RD STREET","PHILADELPHIAP","PA",19143,39.9447419030001,-75.2264158899999,445,"1014 SOUTH 53RD STREET, PHILADELPHIAP, PA, 19143","Match","Non_Exact","1014 S 53RD ST, PHILADELPHIA, PA, 19143",131399501,"R"
6946,"1014 SOUTH DIXIE HWY","MUNFORDVILLE","KY",42746,37.2608247640001,-85.882785767,446,"1014 SOUTH DIXIE HWY, MUNFORDVILLE, KY, 42746","Match","Non_Exact","1014 S DIXIE HWY, MUNFORDVILLE, KY, 42765",96817065,"R"
6947,"1014 SOUTH DIXIE HWY","MUNFORDVILLE","KY",42765,37.2608247640001,-85.882785767,447,"1014 SOUTH DIXIE HWY, MUNFORDVILLE, KY, 42765","Match","Exact","1014 S DIXIE HWY, MUNFORDVILLE, KY, 42765",96817065,"R"
6948,"1014 SOUTH TAYLOR STREET","GOLDSBORO","NC",27530,35.3646826660001,-77.975194997,448,"1014 SOUTH TAYLOR STREET, GOLDSBORO, NC, 27530","Match","Exact","1014 S TAYLOR ST, GOLDSBORO, NC, 27530",14405266,"L"
6949,"1014 SOUTH WESTLAKE BLVD STE 14-110","WESTLAKE VILLAGE","CA",91361,34.1499121040001,-118.833376942,449,"1014 SOUTH WESTLAKE BLVD STE 14-110, WESTLAKE VILLAGE, CA, 91361","Match","Exact","1014 S WESTLAKE BLVD, WESTLAKE VILLAGE, CA, 91361",110122437,"L"
6950,"1014 SOUTHWOODS RD","COUDERSPORT","PA",16915,41.698689969,-78.034567021,450,"1014 SOUTHWOODS RD, COUDERSPORT, PA, 16915","Match","Exact","1014 SOUTHWOODS RD, COUDERSPORT, PA, 16915",126364889,"L"
6951,"1014 SPRING MEADOW DRIVE","SPRING","TX",77373,30.0584825170001,-95.415264442,451,"1014 SPRING MEADOW DRIVE, SPRING, TX, 77373","Match","Exact","1014 SPRING MEADOW DR, SPRING, TX, 77373",96041537,"L"
6952,"1014 SPRUCE ST UNIT 3-4","PHILADELPHIA","PA",19107,39.9462144610001,-75.15862885,452,"1014 SPRUCE ST UNIT 3-4, PHILADELPHIA, PA, 19107","Match","Exact","1014 SPRUCE ST, PHILADELPHIA, PA, 19107",131423759,"L"
6953,"1014 SUNSET AVENUE","SANTA ROSA","CA",95407,38.427004126,-122.73091604,453,"1014 SUNSET AVENUE, SANTA ROSA, CA, 95407","Match","Exact","1014 SUNSET AVE, SANTA ROSA, CA, 95407",649992248,"L"
6954,"1014 UJAMAA DRIVE","RALEIGH","NC",27610,35.734306927,-78.6212751849999,454,"1014 UJAMAA DRIVE, RALEIGH, NC, 27610","Match","Exact","1014 UJAMAA DR, RALEIGH, NC, 27610",612831626,"R"
6955,"1014 VERRET LN","HOUSTON","TX",77090,30.022757201,-95.449947954,455,"1014 VERRET LN, HOUSTON, TX, 77090","Match","Exact","1014 VERRET LN, HOUSTON, TX, 77090",96009314,"L"
6956,"1014 VIA DELUNA DRIVE","PENSACOLA BEACH","FL",32561,30.3385623520001,-87.1114633719999,456,"1014 VIA DELUNA DRIVE, PENSACOLA BEACH, FL, 32561","Match","Non_Exact","1014 VIA DE LUNA DR, PENSACOLA BEACH, FL, 32561",93260696,"R"
6957,"1014 W 36TH ST","BALTIMORE","MD",21211,39.331113327,-76.6329079819999,457,"1014 W 36TH ST, BALTIMORE, MD, 21211","Match","Exact","1014 W 36TH ST, BALTIMORE, MD, 21211",206407508,"R"
6958,"1014 W 6TH ST N","LADYSMITH","WI",54848,45.473214517,-91.1070668529999,458,"1014 W 6TH ST N, LADYSMITH, WI, 54848","Match","Exact","1014 W 6TH ST N, LADYSMITH, WI, 54848",126545505,"L"
6959,"1014 W BROADWAY","STEELEVILLE","IL",62288,38.0088807500001,-89.6698468869999,459,"1014 W BROADWAY, STEELEVILLE, IL, 62288","Match","Non_Exact","1014 W BROADWAY ST, STEELEVILLE, IL, 62288",95178078,"L"
6960,"1014 W LAKEWOOD AVE","DURHAM","NC",27707,35.98721089,-78.9148474249999,460,"1014 W LAKEWOOD AVE, DURHAM, NC, 27707","Match","Exact","1014 W LAKEWOOD AVE, DURHAM, NC, 27707",71740356,"R"
6961,"1014 W ROCKY ROAD","PAYSON","AZ",85541,34.2371913100001,-111.343155088,461,"1014 W ROCKY ROAD, PAYSON, AZ, 85541","Match","Exact","1014 W ROCKY RD, PAYSON, AZ, 85541",624158616,"L"
6962,"1014 WADE HAMPTON BOULEVARD STE 12","GREENVILLE","SC",29609,34.8707979280001,-82.37309542,462,"1014 WADE HAMPTON BOULEVARD STE 12, GREENVILLE, SC, 29609","Match","Exact","1014 WADE HAMPTON BLVD, GREENVILLE, SC, 29609",38302290,"R"
6963,"1014 WHITEHALL RD","ANDERSON","SC",29625,34.529539582,-82.685162412,463,"1014 WHITEHALL RD, ANDERSON, SC, 29625","Match","Exact","1014 WHITEHALL RD, ANDERSON, SC, 29625",25463584,"L"
6964,"1014 WOODSON ROAD  APT C","BALTIMORE","MD",21212,39.3704528660001,-76.601148366,464,"1014 WOODSON ROAD  APT C, BALTIMORE, MD, 21212","Match","Exact","1014 WOODSON RD, BALTIMORE, MD, 21212",647414158,"L"
6965,"1014 WOODSON ROAD APT C","BALTIMORE","MD",21212,39.3704528660001,-76.601148366,465,"1014 WOODSON ROAD APT C, BALTIMORE, MD, 21212","Match","Exact","1014 WOODSON RD, BALTIMORE, MD, 21212",647414158,"L"
6966,"1014","CEDAR RIDGE","CA",95924,NA,NA,466,"1014, CEDAR RIDGE, CA, 95924","No_Match",NA,NA,NA,NA
6967,"10140 N PORT WASHINGTON RD","MEQUON","WI",53092,43.205643191,-87.924279137,467,"10140 N PORT WASHINGTON RD, MEQUON, WI, 53092","Match","Exact","10140 N PORT WASHINGTON RD, MEQUON, WI, 53092",95903691,"R"
6968,"10140 RIDGE RD","GIRARD","PA",16417,41.993628835,-80.3400111,468,"10140 RIDGE RD, GIRARD, PA, 16417","Match","Exact","10140 RIDGE RD, GIRARD, PA, 16417",649344351,"R"
6969,"10140 ROCKPORT RD","BLUFFTON","OH",45817,40.877564998,-83.9143362579999,469,"10140 ROCKPORT RD, BLUFFTON, OH, 45817","Match","Exact","10140 ROCKPORT RD, BLUFFTON, OH, 45817",35562112,"L"
6970,"10140 SW ALLEN BLVD SUITE B","BEAVERTON","OR",97005,45.4754147730001,-122.780379974,470,"10140 SW ALLEN BLVD SUITE B, BEAVERTON, OR, 97005","Match","Non_Exact","10140 SW ALLEN BLVD, BEAVERTON, OR, 97005",635627973,"L"
6971,"10140 SYCAMORE HOLLOW LN","GERMANTOWN","MD",20876,39.2104784160001,-77.212755509,471,"10140 SYCAMORE HOLLOW LN, GERMANTOWN, MD, 20876","Match","Exact","10140 SYCAMORE HOLLOW LN, GERMANTOWN, MD, 20876",624707510,"L"
6972,"10141 DARA COURT","BOCA RATON","FL",33428,26.348746652,-80.20591812,472,"10141 DARA COURT, BOCA RATON, FL, 33428","Match","Exact","10141 DARA CT, BOCA RATON, FL, 33428",115483688,"L"
6973,"10141 PHAR LAP DR","CUPERTINO","CA",95014,37.325330869,-122.059965772,473,"10141 PHAR LAP DR, CUPERTINO, CA, 95014","Match","Exact","10141 PHAR LAP DR, CUPERTINO, CA, 95014",122937726,"L"
6974,"10141 SANDCHERRY LN","INDIANAPOLIS","IN",46236,39.8669881960001,-85.988853117,474,"10141 SANDCHERRY LN, INDIANAPOLIS, IN, 46236","Match","Exact","10141 SANDCHERRY LN, INDIANAPOLIS, IN, 46236",108044050,"R"
6975,"10141 SW 40 ST","MIAMI","FL",33165,25.7325399590001,-80.359105078,475,"10141 SW 40 ST, MIAMI, FL, 33165","Match","Exact","10141 SW 40TH ST, MIAMI, FL, 33165",115972953,"R"
6976,"10141 SW 40TH STREET","MIAMI","FL",33165,25.7325399590001,-80.359105078,476,"10141 SW 40TH STREET, MIAMI, FL, 33165","Match","Exact","10141 SW 40TH ST, MIAMI, FL, 33165",115972953,"R"
6977,"10141 WOODLAWN BLVD","CINCINNATI","OH",45215,39.251342111,-84.474816787,477,"10141 WOODLAWN BLVD, CINCINNATI, OH, 45215","Match","Exact","10141 WOODLAWN BLVD, CINCINNATI, OH, 45215",650312888,"L"
6978,"10142 INDEPENDENCE AVE","CHATSWORTH","CA",91311,34.2543073430001,-118.590738779,478,"10142 INDEPENDENCE AVE, CHATSWORTH, CA, 91311","Match","Exact","10142 INDEPENDENCE AVE, CHATSWORTH, CA, 91311",141532167,"R"
6979,"10142 MAPLERIDGE","DALLAS","TX",75238,32.882127666,-96.709989884,479,"10142 MAPLERIDGE, DALLAS, TX, 75238","Match","Non_Exact","10142 MAPLERIDGE DR, DALLAS, TX, 75238",102917432,"R"
6980,"10142 OLD OREGON TRAIL","REDDING","CA",96003,40.6275818,-122.322681374,480,"10142 OLD OREGON TRAIL, REDDING, CA, 96003","Match","Exact","10142 OLD OREGON TRL, REDDING, CA, 96003",126687563,"R"
6981,"10142 SEROTINA CT","ORLANDO","FL",32832,28.416401208,-81.212738542,481,"10142 SEROTINA CT, ORLANDO, FL, 32832","Match","Exact","10142 SEROTINA CT, ORLANDO, FL, 32832",625638598,"L"
6982,"101425 OVERSEAS HIGHWAY SUITE 305","KEY LARGO","FL",33037,25.11229036,-80.423543431,482,"101425 OVERSEAS HIGHWAY SUITE 305, KEY LARGO, FL, 33037","Match","Exact","101425 OVERSEAS HWY, KEY LARGO, FL, 33037",612432099,"R"
6983,"10143 BOYNTON PLACE CIRCLE","BOYNTON BEACH","FL",33437,26.5227349560001,-80.132123212,483,"10143 BOYNTON PLACE CIRCLE, BOYNTON BEACH, FL, 33437","Match","Exact","10143 BOYNTON PLACE CIR, BOYNTON BEACH, FL, 33437",115555789,"R"
6984,"10143 MAIN STREET","NEW MIDDLETOWN","OH",44442,NA,NA,484,"10143 MAIN STREET, NEW MIDDLETOWN, OH, 44442","No_Match",NA,NA,NA,NA
6985,"10143 OLD OREGON TRAIL","REDDING","CA",96003,40.627588001,-122.32266946,485,"10143 OLD OREGON TRAIL, REDDING, CA, 96003","Match","Exact","10143 OLD OREGON TRL, REDDING, CA, 96003",126687563,"L"
6986,"10143 RIDGELINE DRIVE","MONTGOMERY VILLAGE","MD",20886,39.1742896580001,-77.207258415,486,"10143 RIDGELINE DRIVE, MONTGOMERY VILLAGE, MD, 20886","Match","Exact","10143 RIDGELINE DR, MONTGOMERY VILLAGE, MD, 20886",62050034,"L"
6987,"10143 ROYALTON ROAD STE G","NORTH ROYALTON","OH",44133,41.31357358,-81.76175476,487,"10143 ROYALTON ROAD STE G, NORTH ROYALTON, OH, 44133","Match","Exact","10143 ROYALTON RD, N ROYALTON, OH, 44133",640436722,"L"
6988,"10143 SW 51ST STREET","COOPER CITY","FL",33328,26.055585249,-80.281717289,488,"10143 SW 51ST STREET, COOPER CITY, FL, 33328","Match","Exact","10143 SW 51ST ST, COOPER CITY, FL, 33328",608971314,"R"
6989,"10144 ARBOR RUN DRIVE UNIT 157","TAMPA","FL",33647,28.1364171380001,-82.325970566,489,"10144 ARBOR RUN DRIVE UNIT 157, TAMPA, FL, 33647","Match","Exact","10144 ARBOR RUN DR, TAMPA, FL, 33647",104613327,"L"
6990,"10144 E PASEO DE MEJIA","TUCSON","AZ",85747,32.099723709,-110.77665163,490,"10144 E PASEO DE MEJIA, TUCSON, AZ, 85747","Match","Non_Exact","10144 E PSO DE MEJIA, TUCSON, AZ, 85747",121398924,"R"
6991,"10144 NW 137TH ST","HIALEAH","FL",33018,25.8978536600001,-80.3633126289999,491,"10144 NW 137TH ST, HIALEAH, FL, 33018","Match","Exact","10144 NW 137TH ST, HIALEAH, FL, 33018",116023948,"R"
6992,"10144 SCHULER RANCH ROAD","ELK GROVE","CA",95757,38.391226751,-121.421574835,492,"10144 SCHULER RANCH ROAD, ELK GROVE, CA, 95757","Match","Exact","10144 SCHULER RANCH RD, ELK GROVE, CA, 95757",133429925,"R"
6993,"10144 WHISPER POINTE DRIVE","TAMPA","FL",33647,28.1351366710001,-82.323866653,493,"10144 WHISPER POINTE DRIVE, TAMPA, FL, 33647","Match","Exact","10144 WHISPER POINTE DR, TAMPA, FL, 33647",642587286,"R"
6994,"10145 CALLE MARIA ST","RENO","NV",89508,39.6570738200001,-119.906170024,494,"10145 CALLE MARIA ST, RENO, NV, 89508","Match","Exact","10145 CALLE MARIA ST, RENO, NV, 89508",107039715,"R"
6995,"10147 JETT DRIVE","SAINT LOUIS","MO",63136,NA,NA,495,"10147 JETT DRIVE, SAINT LOUIS, MO, 63136","No_Match",NA,NA,NA,NA
6996,"10147 N 6960 W","HIGHLAND","UT",84003,40.418102219,-111.82485515,496,"10147 N 6960 W, HIGHLAND, UT, 84003","Match","Exact","10147 N 6960 W, HIGHLAND, UT, 84003",627719659,"L"
6997,"10147 ROYALTON ROAD","NORTH ROYALTON","OH",44133,41.313592564,-81.761821764,497,"10147 ROYALTON ROAD, NORTH ROYALTON, OH, 44133","Match","Exact","10147 ROYALTON RD, N ROYALTON, OH, 44133",640436722,"L"
6998,"10147 STILLWATER RD SE","UHRICHSVILLE","OH",44683,40.325740882,-81.307277858,498,"10147 STILLWATER RD SE, UHRICHSVILLE, OH, 44683","Match","Non_Exact","10147 STILLWATER RD, UHRICHSVILLE, OH, 44683",636552717,"R"
6999,"10147 WAVELL RD","FAIRFAX","VA",22032,38.8186989120001,-77.292017824,499,"10147 WAVELL RD, FAIRFAX, VA, 22032","Match","Exact","10147 WAVELL RD, FAIRFAX, VA, 22032",75969964,"L"
7000,"10148 BIRD RIVER ROAD","BALTIMORE","MD",21220,39.360168586,-76.42652258,500,"10148 BIRD RIVER ROAD, BALTIMORE, MD, 21220","Match","Exact","10148 BIRD RIVER RD, BALTIMORE, MD, 21220",191529543,"L"
