"ID","Address","City","State","Zip","lat","long","id","input_address","match_indicator","match_type","matched_address","tiger_line_id","tiger_side"
228001,"5 MINORTOWN ROAD","WOODBURY","CT",6798,41.5572631090001,-73.188369134,1,"5 MINORTOWN ROAD, WOODBURY, CT, 6798","Match","Exact","5 MINORTOWN RD, WOODBURY, CT, 06798",611508792,"R"
228002,"5 MISSISSIPPI AVE","MILTON","DE",19968,38.8333210660001,-75.217380411,2,"5 MISSISSIPPI AVE, MILTON, DE, 19968","Match","Exact","5 MISSISSIPPI AVE, MILTON, DE, 19968",106081354,"R"
228003,"5 MOCCASIN LANE","ROLLING HILLS ESTATE","CA",90274,33.78683949,-118.357382199,3,"5 MOCCASIN LANE, ROLLING HILLS ESTATE, CA, 90274","Match","Non_Exact","5 MOCCASIN LN, ROLLING HILLS, CA, 90274",141820873,"R"
228004,"5 MOLLY ONEILL RD","WALLINGFORD","CT",6492,41.414200694,-72.824932597,4,"5 MOLLY ONEILL RD, WALLINGFORD, CT, 6492","Match","Exact","5 MOLLY ONEILL RD, WALLINGFORD, CT, 06492",3748542,"R"
228005,"5 MONACELLA CT","FLORISSANT","MO",63031,38.7767267130001,-90.320905344,5,"5 MONACELLA CT, FLORISSANT, MO, 63031","Match","Exact","5 MONACELLA CT, FLORISSANT, MO, 63031",100120140,"L"
228006,"5 MONROE FIELD COURT","CATONSVILLE","MD",21228,39.29201284,-76.754280896,6,"5 MONROE FIELD COURT, CATONSVILLE, MD, 21228","Match","Exact","5 MONROE FIELD CT, CATONSVILLE, MD, 21228",191483235,"R"
228007,"5 MONTE SANO DR","HANAHAN","SC",29410,32.958260712,-80.038461969,7,"5 MONTE SANO DR, HANAHAN, SC, 29410","Match","Exact","5 MONTE SANO DR, HANAHAN, SC, 29410",100747153,"L"
228008,"5 MONTGOMERY STREET UNIT B1","BELLEVILLE","NJ",7109,40.789646636,-74.1760738249999,8,"5 MONTGOMERY STREET UNIT B1, BELLEVILLE, NJ, 7109","Match","Non_Exact","5 MONTGOMERY PL, BELLEVILLE, NJ, 07109",63454428,"L"
228009,"5 MOONCOIN CIRCLE","WALDORF","MD",20602,38.595090865,-76.916769299,9,"5 MOONCOIN CIRCLE, WALDORF, MD, 20602","Match","Exact","5 MOONCOIN CIR, WALDORF, MD, 20602",25371572,"L"
228010,"5 MOONRAKER COURT","CHAPIN","SC",29036,34.1288544720001,-81.2732714099999,10,"5 MOONRAKER COURT, CHAPIN, SC, 29036","Match","Exact","5 MOONRAKER CT, CHAPIN, SC, 29036",627749478,"L"
228011,"5 MOORE ROAD","TIFTON","GA",31794,31.4368670050001,-83.443042265,11,"5 MOORE ROAD, TIFTON, GA, 31794","Match","Exact","5 MOORE RD, TIFTON, GA, 31794",87776385,"L"
228012,"5 MORRIS DRIVE","GLEN MILLS","PA",19342,39.8771412720001,-75.5248333979999,12,"5 MORRIS DRIVE, GLEN MILLS, PA, 19342","Match","Exact","5 MORRIS DR, GLEN MILLS, PA, 19342",134905922,"R"
228013,"5 MOUNT COURT","EAST BRUNSWICK","NJ",8816,40.4232527630001,-74.4341079879999,13,"5 MOUNT COURT, EAST BRUNSWICK, NJ, 8816","Match","Exact","5 MOUNT CT, E BRUNSWICK, NJ, 08816",60268924,"L"
228014,"5 MOUNT HYGEIA ROAD","FOSTER","RI",2825,41.8174389260001,-71.738306958,14,"5 MOUNT HYGEIA ROAD, FOSTER, RI, 2825","Match","Exact","5 MOUNT HYGEIA RD, FOSTER, RI, 02825",47501166,"L"
228015,"5 MOUNTAIN ROSE CT","SIMPSONVILLE","SC",29681,34.8235251830001,-82.2240311209999,15,"5 MOUNTAIN ROSE CT, SIMPSONVILLE, SC, 29681","Match","Exact","5 MOUNTAIN ROSE CT, SIMPSONVILLE, SC, 29681",633404892,"L"
228016,"5 MULBERRY LANE","SOUTH WALPOLE","MA",2071,42.102268656,-71.268344208,16,"5 MULBERRY LANE, SOUTH WALPOLE, MA, 2071","Match","Exact","5 MULBERRY LN, SOUTH WALPOLE, MA, 02071",87271970,"R"
228017,"5 MUNICIPAL ROAD","NEW RINGGOLD","PA",17960,40.7500232670001,-75.902788093,17,"5 MUNICIPAL ROAD, NEW RINGGOLD, PA, 17960","Match","Exact","5 MUNICIPAL RD, NEW RINGGOLD, PA, 17960",636343168,"L"
228018,"5 MUSCATANIPUS ROAD","BROOKLINE","NH",3033,42.709896551,-71.671807684,18,"5 MUSCATANIPUS ROAD, BROOKLINE, NH, 3033","Match","Exact","5 MUSCATANIPUS RD, BROOKLINE, NH, 03033",113555837,"R"
228019,"5 MYSTIC WAY DRIVE","COLUMBIA","SC",29229,34.1522161550001,-80.886853149,19,"5 MYSTIC WAY DRIVE, COLUMBIA, SC, 29229","Match","Exact","5 MYSTIC WAY DR, COLUMBIA, SC, 29229",71851833,"L"
228020,"5 N 17TH AVE 401","JACKSONVILLE BEACH","FL",32250,30.305303381,-81.392360615,20,"5 N 17TH AVE 401, JACKSONVILLE BEACH, FL, 32250","Match","Non_Exact","5 17TH AVE N, JACKSONVILLE BEACH, FL, 32250",83923418,"R"
228021,"5 N 783 W SUNSET VIEWS DR","ST CHARLES","IL",60175,NA,NA,21,"5 N 783 W SUNSET VIEWS DR, ST CHARLES, IL, 60175","Tie",NA,NA,NA,NA
228022,"5 N BATTERY STREET","HIGHLAND SPRINGS","VA",23075,37.5502440340001,-77.33208509,22,"5 N BATTERY STREET, HIGHLAND SPRINGS, VA, 23075","Match","Exact","5 BATTERY ST, HIGHLAND SPGS, VA, 23075",106651301,"R"
228023,"5 N BLOOMFIELD ROAD","WINCHESTER","KY",40391,37.998610028,-84.1926252709999,23,"5 N BLOOMFIELD ROAD, WINCHESTER, KY, 40391","Match","Exact","5 N BLOOMFIELD RD, WINCHESTER, KY, 40391",31791483,"R"
228024,"5 N G ST STE 205","MIDLAND","TX",79701,NA,NA,24,"5 N G ST STE 205, MIDLAND, TX, 79701","No_Match",NA,NA,NA,NA
228025,"5 N GARDEN ST","ROCK ISLAND","WA",98850,NA,NA,25,"5 N GARDEN ST, ROCK ISLAND, WA, 98850","Tie",NA,NA,NA,NA
228026,"5 N HWY 101 UNIT 349","WARRENTON","OR",97146,46.1497521160001,-123.926664632,26,"5 N HWY 101 UNIT 349, WARRENTON, OR, 97146","Match","Non_Exact","5 ALT HWY 101, WARRENTON, OR, 97146",159236740,"L"
228027,"5 N KENT STREET","WINCHESTER","VA",22601,39.18343306,-78.1626990089999,27,"5 N KENT STREET, WINCHESTER, VA, 22601","Match","Exact","5 N KENT ST, WINCHESTER, VA, 22601",55578437,"L"
228028,"5 N METEOR AVENUE","CLEARWATER","FL",33765,27.965687775,-82.757647009,28,"5 N METEOR AVENUE, CLEARWATER, FL, 33765","Match","Exact","5 N METEOR AVE, CLEARWATER, FL, 33765",124669508,"R"
228029,"5 N ORANGE STREET","CARLISLE","PA",17013,40.203328524,-77.2081136739999,29,"5 N ORANGE STREET, CARLISLE, PA, 17013","Match","Exact","5 N ORANGE ST, CARLISLE, PA, 17013",60965806,"R"
228030,"5 N THIRD","MEMPHIS","TN",38103,35.1455769140001,-90.049896654,30,"5 N THIRD, MEMPHIS, TN, 38103","Match","Non_Exact","5 N 3RD ST, MEMPHIS, TN, 38103",72944028,"L"
228031,"5 N WOODMONT CIRCLE","MADISON","WI",53717,43.079720224,-89.513875239,31,"5 N WOODMONT CIRCLE, MADISON, WI, 53717","Match","Exact","5 N WOODMONT CIR, MADISON, WI, 53717",49498865,"R"
228032,"5 NAHOMAN ST","OAK BLUFFS","MA",2557,NA,NA,32,"5 NAHOMAN ST, OAK BLUFFS, MA, 2557","No_Match",NA,NA,NA,NA
228033,"5 NASSAU STREET","ISLIP TERRACE","NY",11752,40.7459880850001,-73.192887839,33,"5 NASSAU STREET, ISLIP TERRACE, NY, 11752","Match","Exact","5 NASSAU ST, ISLIP TERRACE, NY, 11752",113998162,"L"
228034,"5 NEPONSET ST STE3","WORCESTER","MA",1606,42.2990624170001,-71.801752544,34,"5 NEPONSET ST STE3, WORCESTER, MA, 1606","Match","Exact","5 NEPONSET ST, WORCESTER, MA, 01606",640113635,"R"
228035,"5 NESHAMINY INTERPLEX - SUITE 205","TREVOSE","PA",19053,NA,NA,35,"5 NESHAMINY INTERPLEX - SUITE 205, TREVOSE, PA, 19053","No_Match",NA,NA,NA,NA
228036,"5 NEW CASTLE ROAD","ASHLAND","MA",1721,42.245165506,-71.4520615769999,36,"5 NEW CASTLE ROAD, ASHLAND, MA, 1721","Match","Exact","5 NEW CASTLE RD, ASHLAND, MA, 01721",640144836,"L"
228037,"5 NEWPORT CT","STAFFORD","VA",22554,38.447239559,-77.422327228,37,"5 NEWPORT CT, STAFFORD, VA, 22554","Match","Exact","5 NEWPORT CT, STAFFORD, VA, 22554",25565528,"L"
228038,"5 NEWPORT DRIVE UNIT 3101","HILTON HEAD","SC",29928,NA,NA,38,"5 NEWPORT DRIVE UNIT 3101, HILTON HEAD, SC, 29928","No_Match",NA,NA,NA,NA
228039,"5 NICKS LANDING CIRCLE","POQUOSON","VA",23662,37.1515835960001,-76.396382973,39,"5 NICKS LANDING CIRCLE, POQUOSON, VA, 23662","Match","Exact","5 NICKS LANDING CIR, POQUOSON, VA, 23662",103772429,"R"
228040,"5 NIKISCH AVENUE","ROSLINDALE","MA",2131,42.2792837260001,-71.138977113,40,"5 NIKISCH AVENUE, ROSLINDALE, MA, 2131","Match","Exact","5 NIKISCH AVE, ROSLINDALE, MA, 02131",85703462,"R"
228041,"5 NORCROFT STREET","SOUTH DARTMOUTH","MA",2748,41.5956539090001,-70.9448528789999,41,"5 NORCROFT STREET, SOUTH DARTMOUTH, MA, 2748","Match","Exact","5 NORCROFT ST, SOUTH DARTMOUTH, MA, 02748",46754304,"L"
228042,"5 NORTH MAIN STREET","BERKLEY","MA",2779,41.8471974830001,-71.082847111,42,"5 NORTH MAIN STREET, BERKLEY, MA, 2779","Match","Exact","5 N MAIN ST, BERKLEY, MA, 02779",46801323,"R"
228043,"5 NORTH MAIN STREET","WEBSTER","MA",1570,42.055393484,-71.8784003059999,43,"5 NORTH MAIN STREET, WEBSTER, MA, 1570","Match","Exact","5 N MAIN ST, WEBSTER, MA, 01570",40090795,"L"
228044,"5 NORTH ROSA ROAD","MADISON","WI",53705,43.0685535600001,-89.478283461,44,"5 NORTH ROSA ROAD, MADISON, WI, 53705","Match","Exact","5 N ROSA RD, MADISON, WI, 53705",49467014,"R"
228045,"5 NORTH THIRD STREET","MEMPHIS","TN",38103,35.1455766060001,-90.049896771,45,"5 NORTH THIRD STREET, MEMPHIS, TN, 38103","Match","Exact","5 N 3RD ST, MEMPHIS, TN, 38103",72944028,"L"
228046,"5 NORTHWOOD ROAD","YARMOUTH","ME",4096,43.819910473,-70.187433013,46,"5 NORTHWOOD ROAD, YARMOUTH, ME, 4096","Match","Exact","5 NORTHWOOD RD, YARMOUTH, ME, 04096",78040844,"L"
228047,"5 NORWAY MAPLE CIRCLE","MADISON","WI",53704,43.145648119,-89.390408796,47,"5 NORWAY MAPLE CIRCLE, MADISON, WI, 53704","Match","Exact","5 NORWAY MAPLE CIR, MADISON, WI, 53704",49470619,"L"
228048,"5 NW 354 RD","CLINTON","MO",64735,38.4198081970001,-93.755434153,48,"5 NW 354 RD, CLINTON, MO, 64735","Match","Exact","5 NW 354 RD, CLINTON, MO, 64735",624287371,"R"
228049,"5 NW FRANKLIN AVENUE","BEND","OR",97703,44.05593014,-121.307298748,49,"5 NW FRANKLIN AVENUE, BEND, OR, 97703","Match","Exact","5 NW FRANKLIN AVE, BEND, OR, 97703",613966640,"R"
228050,"5 OAK BLUFF DRIVE","SAINT PETERS","MO",63376,NA,NA,50,"5 OAK BLUFF DRIVE, SAINT PETERS, MO, 63376","No_Match",NA,NA,NA,NA
228051,"5 OAK GLEN ROAD","MONSEY","NY",10952,41.1083450940001,-74.074293416,51,"5 OAK GLEN ROAD, MONSEY, NY, 10952","Match","Exact","5 OAK GLEN RD, MONSEY, NY, 10952",650183905,"R"
228052,"5 OAK HOLLOW RD","SHAWNEE","OK",74804,35.375715611,-96.935692516,52,"5 OAK HOLLOW RD, SHAWNEE, OK, 74804","Match","Exact","5 OAK HOLLOW RD, SHAWNEE, OK, 74804",100576965,"L"
228053,"5 OAK RIDGE TERRACE","KINGSTON","NY",12401,41.9555836960001,-74.04156025,53,"5 OAK RIDGE TERRACE, KINGSTON, NY, 12401","Match","Exact","5 OAK RIDGE TER, KINGSTON, NY, 12401",41925758,"L"
228054,"5 OAK STREET","HAMPTON BAYS","NY",11946,40.870224298,-72.534492906,54,"5 OAK STREET, HAMPTON BAYS, NY, 11946","Match","Exact","5 OAK ST, HAMPTON BAYS, NY, 11946",114027032,"L"
228055,"5 OAK TREE DR","SLIDELL","LA",70458,30.231797213,-89.7779290569999,55,"5 OAK TREE DR, SLIDELL, LA, 70458","Match","Exact","5 OAK TREE DR, SLIDELL, LA, 70458",111290277,"L"
228056,"5 OAKLAND ROAD","KENNER","LA",70065,30.0301612860001,-90.2683992409999,56,"5 OAKLAND ROAD, KENNER, LA, 70065","Match","Exact","5 OAKLAND RD, KENNER, LA, 70065",624195108,"R"
228057,"5 OLD BARN COURT","THURMONT","MD",21788,39.632929539,-77.405300556,57,"5 OLD BARN COURT, THURMONT, MD, 21788","Match","Exact","5 OLD BARN CT, THURMONT, MD, 21788",632722762,"L"
228058,"5 OLD RIDGE HILL","CHILMARK","MA",2535,41.36722387,-70.688309525,58,"5 OLD RIDGE HILL, CHILMARK, MA, 2535","Match","Exact","5 OLD RIDGE HILL, CHILMARK, MA, 02535",118885693,"R"
228059,"5 OLD STONE HIGHWAY","EAST HAMPTON","NY",11937,41.021332903,-72.1565187739999,59,"5 OLD STONE HIGHWAY, EAST HAMPTON, NY, 11937","Match","Exact","5 OLD STONE HWY, EAST HAMPTON, NY, 11937",113961384,"L"
228060,"5 OLD STONE HWY","EAST HAMPTON","NY",11937,41.021332903,-72.1565187739999,60,"5 OLD STONE HWY, EAST HAMPTON, NY, 11937","Match","Exact","5 OLD STONE HWY, EAST HAMPTON, NY, 11937",113961384,"L"
228061,"5 OLD TYLER CT","GREENVILLE","SC",29615,34.8331387640001,-82.2442852889999,61,"5 OLD TYLER CT, GREENVILLE, SC, 29615","Match","Exact","5 OLD TYLER CT, GREENVILLE, SC, 29615",38327405,"R"
228062,"5 OLD VIRGINIA CHASE","SANDY SPRINGS","GA",30327,33.90153536,-84.421248625,62,"5 OLD VIRGINIA CHASE, SANDY SPRINGS, GA, 30327","Match","Non_Exact","5 OLD VIRGINIA CHASE NW, SANDY SPRINGS, GA, 30327",17361450,"R"
228063,"5 ORCHARD VIEW","CHADDS FORD","PA",19317,39.856339663,-75.6459047829999,63,"5 ORCHARD VIEW, CHADDS FORD, PA, 19317","Match","Exact","5 ORCHARD VW, CHADDS FORD, PA, 19317",179520124,"R"
228064,"5 OVERBROOK ROAD","SOMERSET","NJ",8873,40.4982849040001,-74.506348476,64,"5 OVERBROOK ROAD, SOMERSET, NJ, 8873","Match","Exact","5 OVERBROOK RD, SOMERSET, NJ, 08873",59943547,"L"
228065,"5 OVERLOOK DRIVE","PITTSBURGH","PA",15238,40.536304661,-79.859884128,65,"5 OVERLOOK DRIVE, PITTSBURGH, PA, 15238","Match","Exact","5 OVERLOOK DR, PITTSBURGH, PA, 15238",607604620,"R"
228066,"5 PAERDEGAT 5TH ST","BROOKLYN","NY",11236,40.6305889920001,-73.9097649879999,66,"5 PAERDEGAT 5TH ST, BROOKLYN, NY, 11236","Match","Exact","5 PAERDEGAT 5TH ST, BROOKLYN, NY, 11236",59086505,"L"
228067,"5 PALIX LN","SOUTH BEND","WA",98586,NA,NA,67,"5 PALIX LN, SOUTH BEND, WA, 98586","No_Match",NA,NA,NA,NA
228068,"5 PALM COURT","BROOKLYN","NY",11225,40.660530065,-73.9466548619999,68,"5 PALM COURT, BROOKLYN, NY, 11225","Match","Exact","5 PALM CT, BROOKLYN, NY, 11225",59079596,"L"
228069,"5 PALO ALTO","CLIFTON PARK","NY",12065,42.8464139160001,-73.8046438759999,69,"5 PALO ALTO, CLIFTON PARK, NY, 12065","Match","Exact","5 PALO ALTO, CLIFTON PARK, NY, 12065",18774897,"R"
228070,"5 PANORAMA TRL","TROPHY CLUB","TX",76262,33.0023672230001,-97.168862922,70,"5 PANORAMA TRL, TROPHY CLUB, TX, 76262","Match","Exact","5 PANORAMA TRL, TROPHY CLUB, TX, 76262",651662020,"R"
228071,"5 PARK BLVD  STE 2","BERLIN","NJ",8009,NA,NA,71,"5 PARK BLVD  STE 2, BERLIN, NJ, 8009","Tie",NA,NA,NA,NA
228072,"5 PARK MEADOW CT","LAS VEGAS","NV",89141,35.97783924,-115.196772532,72,"5 PARK MEADOW CT, LAS VEGAS, NV, 89141","Match","Exact","5 PARK MEADOW CT, LAS VEGAS, NV, 89141",612688566,"L"
228073,"5 PARK PLACE","CAMBRIDGE","NY",12816,43.028882545,-73.376494629,73,"5 PARK PLACE, CAMBRIDGE, NY, 12816","Match","Exact","5 PARK PL, CAMBRIDGE, NY, 12816",139149954,"R"
228074,"5 PARKGATE COURT","SIMPSONVILLE","SC",29680,34.696918795,-82.28565687,74,"5 PARKGATE COURT, SIMPSONVILLE, SC, 29680","Match","Exact","5 PARKGATE CT, SIMPSONVILLE, SC, 29680",628065442,"R"
228075,"5 PATIO PARK LANE","GORHAM","ME",4038,43.6821001860001,-70.416469779,75,"5 PATIO PARK LANE, GORHAM, ME, 4038","Match","Exact","5 PATIO PARK LN, GORHAM, ME, 04038",78074010,"R"
228076,"5 PATRICE COURT","PITTSBURGH","PA",15221,40.432546523,-79.849996741,76,"5 PATRICE COURT, PITTSBURGH, PA, 15221","Match","Exact","5 PATRICE CT, PITTSBURGH, PA, 15221",51669377,"L"
228077,"5 PATTERSON CIRCLE","BRENTWOOD","NH",3833,43.020053089,-71.011031208,77,"5 PATTERSON CIRCLE, BRENTWOOD, NH, 3833","Match","Exact","5 PATTERSON CIR, BRENTWOOD, NH, 03833",631844025,"R"
228078,"5 PEACE LANE","ORLEANS","MA",2653,NA,NA,78,"5 PEACE LANE, ORLEANS, MA, 2653","No_Match",NA,NA,NA,NA
228079,"5 PECAN GORGE CT","SUGAR LAND","TX",77479,29.5952339360001,-95.665595528,79,"5 PECAN GORGE CT, SUGAR LAND, TX, 77479","Match","Exact","5 PECAN GORGE CT, SUGAR LAND, TX, 77479",78292887,"L"
228080,"5 PEEKSKILL ROAD","COLD SPRING","NY",10516,41.4245188200001,-73.945710129,80,"5 PEEKSKILL ROAD, COLD SPRING, NY, 10516","Match","Exact","5 PEEKSKILL RD, COLD SPRING, NY, 10516",139680859,"L"
228081,"5 PENN PLAZA - FLOOR 19","NEW YORK","NY",10001,40.7491701800001,-73.9919459609999,81,"5 PENN PLAZA - FLOOR 19, NEW YORK, NY, 10001","Match","Exact","5 PENN PLZ, NEW YORK, NY, 10001",59653382,"R"
228082,"5 PENN PLAZA SUITE 1948","NEW YORK","NY",10001,40.7491701800001,-73.9919459609999,82,"5 PENN PLAZA SUITE 1948, NEW YORK, NY, 10001","Match","Exact","5 PENN PLZ, NEW YORK, NY, 10001",59653382,"R"
228083,"5 PERCUSSION LANE","PINEDALE","WY",82941,42.878291188,-109.959948473,83,"5 PERCUSSION LANE, PINEDALE, WY, 82941","Match","Exact","5 PERCUSSION LN, PINEDALE, WY, 82941",647259326,"L"
228084,"5 PERIDOT CT","SACRAMENTO","CA",95834,38.6365476080001,-121.511229924,84,"5 PERIDOT CT, SACRAMENTO, CA, 95834","Match","Exact","5 PERIDOT CT, SACRAMENTO, CA, 95834",133409324,"L"
228085,"5 PERKINS WAY UNIT 8","NEWBURYPORT","ME",1950,NA,NA,85,"5 PERKINS WAY UNIT 8, NEWBURYPORT, ME, 1950","No_Match",NA,NA,NA,NA
228086,"5 PEYSER STREET","WOODBRIDGE","NJ",7095,40.5523208290001,-74.292222376,86,"5 PEYSER STREET, WOODBRIDGE, NJ, 7095","Match","Exact","5 PEYSER ST, WOODBRIDGE, NJ, 07095",60274623,"L"
228087,"5 PIEDMONT STREET","WORCESTER","MA",1610,42.257415957,-71.8117895299999,87,"5 PIEDMONT STREET, WORCESTER, MA, 1610","Match","Exact","5 PIEDMONT ST, WORCESTER, MA, 01610",40009854,"L"
228088,"5 PINE HILL DRIVE","WHITE SULPHUR SPRGS","MT",59645,46.344055584,-111.084401276,88,"5 PINE HILL DRIVE, WHITE SULPHUR SPRGS, MT, 59645","Match","Exact","5 PINE HILL DR, WHITE SULPHUR SPRINGS, MT, 59645",166718977,"L"
228089,"5 PINE ST EXT UNIT 2V","NASHUA","NH",3062,NA,NA,89,"5 PINE ST EXT UNIT 2V, NASHUA, NH, 3062","No_Match",NA,NA,NA,NA
228090,"5 PIONEER BOULEVARD","WESTAMPTON","NJ",8060,NA,NA,90,"5 PIONEER BOULEVARD, WESTAMPTON, NJ, 8060","No_Match",NA,NA,NA,NA
228091,"5 PIONEER ROAD","HINGHAM","MA",2043,42.199806057,-70.8895305469999,91,"5 PIONEER ROAD, HINGHAM, MA, 2043","Match","Exact","5 PIONEER RD, HINGHAM, MA, 02043",87478895,"R"
228092,"5 PLAYER PL","FLANDERS","NJ",7836,40.838478767,-74.698861113,92,"5 PLAYER PL, FLANDERS, NJ, 7836","Match","Exact","5 PLAYER PL, FLANDERS, NJ, 07836",60469469,"L"
228093,"5 PLEASANT STREET","ESSEX JUNCTION","VT",5452,44.4927807620001,-73.105650533,93,"5 PLEASANT STREET, ESSEX JUNCTION, VT, 5452","Match","Exact","5 PLEASANT ST, ESSEX JCT, VT, 05452",135829967,"R"
228094,"5 POMONA AVENUE","NEWARK","NJ",7112,40.7049723260001,-74.2079079059999,94,"5 POMONA AVENUE, NEWARK, NJ, 7112","Match","Exact","5 POMONA AVE, NEWARK, NJ, 07112",63466209,"R"
228095,"5 PORTER ROAD","NATICK","MA",1760,42.2919111840001,-71.3914147409999,95,"5 PORTER ROAD, NATICK, MA, 1760","Match","Exact","5 PORTER RD, NATICK, MA, 01760",86848780,"R"
228096,"5 PROSPECT PEAK LANE","BERKELEY SPRINGS","WV",25411,39.6238648290001,-78.256862004,96,"5 PROSPECT PEAK LANE, BERKELEY SPRINGS, WV, 25411","Match","Exact","5 PROSPECT PEAK LN, BERKELEY SPRINGS, WV, 25411",123465670,"L"
228097,"5 QUAIL RIDGE COURT","MEDFORD","NJ",8055,39.8275259160001,-74.799108568,97,"5 QUAIL RIDGE COURT, MEDFORD, NJ, 8055","Match","Non_Exact","5 QUAIL RIDGE RD, MEDFORD, NJ, 08055",134070640,"R"
228098,"5 QUEEN RD","MILLVILLE","NJ",8332,39.340599938,-75.0327773879999,98,"5 QUEEN RD, MILLVILLE, NJ, 8332","Match","Exact","5 QUEEN RD, MILLVILLE, NJ, 08332",174113177,"L"
228099,"5 RAILS ROAD","TUNKHANNOCK","PA",18657,41.6028836730001,-76.011922549,99,"5 RAILS ROAD, TUNKHANNOCK, PA, 18657","Match","Exact","5 RAILS RD, TUNKHANNOCK, PA, 18657",612264950,"L"
228100,"5 RAMSEY DRIVE","WHITE SALMON","WA",98672,NA,NA,100,"5 RAMSEY DRIVE, WHITE SALMON, WA, 98672","No_Match",NA,NA,NA,NA
228101,"5 RAPHAEL WAY","WESTPORT","CT",6880,41.1433035850001,-73.3514634059999,101,"5 RAPHAEL WAY, WESTPORT, CT, 6880","Match","Exact","5 RAPHAEL WAY, WESTPORT, CT, 06880",3238406,"L"
228102,"5 RAYMOND CT","GARDEN CITY","NJ",11530,NA,NA,102,"5 RAYMOND CT, GARDEN CITY, NJ, 11530","No_Match",NA,NA,NA,NA
228103,"5 REDBUD COURT","POTOMAC","MD",20854,39.043372504,-77.164302611,103,"5 REDBUD COURT, POTOMAC, MD, 20854","Match","Exact","5 REDBUD CT, POTOMAC, MD, 20854",62054258,"R"
228104,"5 REGINA STREET APT 2","STOUGHTON","MA",2072,NA,NA,104,"5 REGINA STREET APT 2, STOUGHTON, MA, 2072","No_Match",NA,NA,NA,NA
228105,"5 REMINGTON CT","STAFFORD","VT",22554,NA,NA,105,"5 REMINGTON CT, STAFFORD, VT, 22554","No_Match",NA,NA,NA,NA
228106,"5 RENARD RUN","HURRICANE","WV",25526,38.446016564,-81.962486425,106,"5 RENARD RUN, HURRICANE, WV, 25526","Match","Exact","5 RENARD RUN, HURRICANE, WV, 25526",130518942,"L"
228107,"5 RESERVOIR RD","SOUTHWICK","MA",1077,42.0945170950001,-72.798676949,107,"5 RESERVOIR RD, SOUTHWICK, MA, 1077","Match","Exact","5 RESERVOIR RD, SOUTHWICK, MA, 01077",4060777,"R"
228108,"5 RIDGE ROAD UNIT J","GREENBELT","MD",20770,39.000366055,-76.882567496,108,"5 RIDGE ROAD UNIT J, GREENBELT, MD, 20770","Match","Exact","5 RIDGE RD, GREENBELT, MD, 20770",76338026,"L"
228109,"5 RIDGE ROAD","COS COB","CT",6807,41.039291701,-73.602142,109,"5 RIDGE ROAD, COS COB, CT, 6807","Match","Exact","5 RIDGE RD, COS COB, CT, 06807",3243531,"R"
228110,"5 RIDGE ROAD","GREENBELT","MD",20770,39.000366055,-76.882567496,110,"5 RIDGE ROAD, GREENBELT, MD, 20770","Match","Exact","5 RIDGE RD, GREENBELT, MD, 20770",76338026,"L"
228111,"5 RISING ROAD","NEWARK","DE",19711,39.697119367,-75.7864460169999,111,"5 RISING ROAD, NEWARK, DE, 19711","Match","Exact","5 RISING RD, NEWARK, DE, 19711",187280317,"R"
228112,"5 RIVER RD SUITE 251","WILTON","CT",6897,41.1911466290001,-73.4303935459999,112,"5 RIVER RD SUITE 251, WILTON, CT, 6897","Match","Exact","5 RIVER RD, WILTON, CT, 06897",618521339,"R"
228113,"5 RIVER ROAD STE 246","WILTON","CT",6840,41.1521873840001,-73.447618684,113,"5 RIVER ROAD STE 246, WILTON, CT, 6840","Match","Non_Exact","5 RIVER RD, NEW CANAAN, CT, 06840",3260636,"L"
228114,"5 RIVER ROAD","JOHNSONVILLE","NY",12094,42.9164235850001,-73.513053737,114,"5 RIVER ROAD, JOHNSONVILLE, NY, 12094","Match","Exact","5 RIVER RD, JOHNSONVILLE, NY, 12094",636449886,"L"
228115,"5 RIVERVIEW STREET","BRATTLEBORO","VT",5301,42.8355939570001,-72.554888665,115,"5 RIVERVIEW STREET, BRATTLEBORO, VT, 5301","Match","Exact","5 RIVERVIEW ST, BRATTLEBORO, VT, 05301",171090164,"R"
228116,"5 ROBERTS AVE","WINDSOR","VA",23487,36.80643422,-76.734582455,116,"5 ROBERTS AVE, WINDSOR, VA, 23487","Match","Exact","5 ROBERTS AVE, WINDSOR, VA, 23487",198629296,"R"
228117,"5 ROBERTS DR","SHIP BOTTOM","NJ",8008,39.6368016920001,-74.1870208249999,117,"5 ROBERTS DR, SHIP BOTTOM, NJ, 8008","Match","Exact","5 ROBERTS DR, SHIP BOTTOM, NJ, 08008",203756564,"R"
228118,"5 ROBIN RD","WHITMAN","MA",2382,42.075126305,-70.950284677,118,"5 ROBIN RD, WHITMAN, MA, 2382","Match","Exact","5 ROBIN RD, WHITMAN, MA, 02382",87472065,"R"
228119,"5 ROBINHOOD RD","TYNGSBORO","MA",1879,42.671297667,-71.402097923,119,"5 ROBINHOOD RD, TYNGSBORO, MA, 1879","Match","Exact","5 ROBINHOOD RD, TYNGSBORO, MA, 01879",645282149,"L"
228120,"5 ROCHESTER DRIVE","BRICK","NJ",8723,40.0143212620001,-74.089444569,120,"5 ROCHESTER DRIVE, BRICK, NJ, 8723","Match","Exact","5 ROCHESTER DR, BRICK, NJ, 08723",203845418,"R"
228121,"5 ROLLING HILL CT","MADISON","NJ",7940,40.7450319600001,-74.425194357,121,"5 ROLLING HILL CT, MADISON, NJ, 7940","Match","Exact","5 ROLLING HILL CT, MADISON, NJ, 07940",60469646,"L"
228122,"5 ROSE AVENUE APT 37","VENICE","CA",90291,33.9947526890001,-118.480271248,122,"5 ROSE AVENUE APT 37, VENICE, CA, 90291","Match","Exact","5 ROSE AVE, VENICE, CA, 90291",141575745,"L"
228123,"5 ROSEDOWN DRIVE","DESTREHAN","LA",70047,29.9739885400001,-90.369626416,123,"5 ROSEDOWN DRIVE, DESTREHAN, LA, 70047","Match","Exact","5 ROSEDOWN DR, DESTREHAN, LA, 70047",647727815,"R"
228124,"5 ROSEWOOD LANE","WINGDALE","NY",12594,41.658154122,-73.545481186,124,"5 ROSEWOOD LANE, WINGDALE, NY, 12594","Match","Exact","5 ROSEWOOD LN, WINGDALE, NY, 12594",4197160,"L"
228125,"5 ROY AVE","HICKSVILLE","NY",11801,40.777452184,-73.537993214,125,"5 ROY AVE, HICKSVILLE, NY, 11801","Match","Exact","5 ROY AVE, HICKSVILLE, NY, 11801",147689876,"L"
228126,"5 ROYAL CT","NESCONSET","NY",11767,40.829492938,-73.1473766509999,126,"5 ROYAL CT, NESCONSET, NY, 11767","Match","Exact","5 ROYAL CT, NESCONSET, NY, 11767",113991189,"R"
228127,"5 ROZALYN LANE","LAURENCE HARBOR","NJ",8879,40.4416326210001,-74.2452014959999,127,"5 ROZALYN LANE, LAURENCE HARBOR, NJ, 8879","Match","Exact","5 ROZALYN LN, LAURENCE HARBOR, NJ, 08879",645384235,"L"
228128,"5 RUE CT","MILLSTONE TOWNSHIP","NJ",8535,40.2398992080001,-74.427598453,128,"5 RUE CT, MILLSTONE TOWNSHIP, NJ, 8535","Match","Exact","5 RUE CT, MILLSTONE TOWNSHIP, NJ, 08535",90504369,"R"
228129,"5 RUFFINO ROAD","EAST LONGMEADOW","MA",1028,42.038621844,-72.496429647,129,"5 RUFFINO ROAD, EAST LONGMEADOW, MA, 1028","Match","Exact","5 RUFFINO RD, E LONGMEADOW, MA, 01028",624197291,"R"
228130,"5 RUTLEDGE AVENUE","EWING","NJ",8618,40.2577034670001,-74.793838764,130,"5 RUTLEDGE AVENUE, EWING, NJ, 8618","Match","Exact","5 RUTLEDGE AVE, EWING, NJ, 08618",60176575,"L"
228131,"5 S 1ST ST","RICHMOND","VA",23219,37.5424132910001,-77.4435772689999,131,"5 S 1ST ST, RICHMOND, VA, 23219","Match","Exact","5 S 1ST ST, RICHMOND, VA, 23219",201539403,"L"
228132,"5 S 5TH ST","YUKON","OK",73099,35.5077415850001,-97.750595974,132,"5 S 5TH ST, YUKON, OK, 73099","Match","Exact","5 S 5TH ST, YUKON, OK, 73099",635844460,"L"
228133,"5 S MAIN STREET","TRAVELERS REST","SC",29690,34.9658003850001,-82.441441932,133,"5 S MAIN STREET, TRAVELERS REST, SC, 29690","Match","Exact","5 S MAIN ST, TRAVELERS REST, SC, 29690",640588373,"R"
228134,"5 S MAIN STREET","WHITE RIVER JUNCTION","VT",5001,43.648432649,-72.3186814909999,134,"5 S MAIN STREET, WHITE RIVER JUNCTION, VT, 5001","Match","Exact","5 S MAIN ST, WHITE RIVER JUNCTION, VT, 05001",635735898,"L"
228135,"5 S OLYMPIA DRIVE","WARETOWN","NJ",8758,39.802342971,-74.196402166,135,"5 S OLYMPIA DRIVE, WARETOWN, NJ, 8758","Match","Exact","5 S OLYMPIA DR, WARETOWN, NJ, 08758",617528604,"R"
228136,"5 S PINE ISLAND ROAD APARTMENT 408","PLANTATION","FL",33324,26.120517643,-80.264594856,136,"5 S PINE ISLAND ROAD APARTMENT 408, PLANTATION, FL, 33324","Match","Non_Exact","5 S PINE ISLAND RD, PLANTATION, FL, 33324",611234105,"R"
228137,"5 S YARROW ST","LAKEWOOD","CO",80226,NA,NA,137,"5 S YARROW ST, LAKEWOOD, CO, 80226","Tie",NA,NA,NA,NA
228138,"5 SADDLE LANE","NEW CITY","NY",10956,41.1389759190001,-73.9758403879999,138,"5 SADDLE LANE, NEW CITY, NY, 10956","Match","Exact","5 SADDLE LN, NEW CITY, NY, 10956",124597543,"L"
228139,"5 SAILFISH LANE","OCEAN RIDGE","FL",33435,26.511635427,-80.05317264,139,"5 SAILFISH LANE, OCEAN RIDGE, FL, 33435","Match","Exact","5 SAILFISH LN, OCEAN RIDGE, FL, 33435",115577216,"L"
228140,"5 SAINT LAWRENCE CIRCLE","MADISON","WI",53717,43.070144698,-89.515995209,140,"5 SAINT LAWRENCE CIRCLE, MADISON, WI, 53717","Match","Exact","5 ST LAWRENCE CIR, MADISON, WI, 53717",635634034,"L"
228141,"5 SAINT MICHAELS ALLEY","CHARLESTON","SC",29401,32.775996247,-79.929368357,141,"5 SAINT MICHAELS ALLEY, CHARLESTON, SC, 29401","Match","Exact","5 SAINT MICHAELS ALY, CHARLESTON, SC, 29401",108807948,"L"
228142,"5 SANDS POINT RD","MONSEY","NY",10952,41.126100878,-74.076100009,142,"5 SANDS POINT RD, MONSEY, NY, 10952","Match","Exact","5 SANDS POINT RD, MONSEY, NY, 10952",647918991,"R"
228143,"5 SANDY ROCK WAY","HALFMOON","NY",12065,42.8220698010001,-73.756668541,143,"5 SANDY ROCK WAY, HALFMOON, NY, 12065","Match","Non_Exact","5 SANDY LN, HALFMOON, NY, 12065",18784357,"R"
228144,"5 SANFORD AVE","CATONSVILLE","MD",21228,39.270150458,-76.73676455,144,"5 SANFORD AVE, CATONSVILLE, MD, 21228","Match","Exact","5 SANFORD AVE, CATONSVILLE, MD, 21228",191556558,"L"
228145,"5 SANTA BARBARA DR","MANVEL","TX",77578,29.504203831,-95.400153487,145,"5 SANTA BARBARA DR, MANVEL, TX, 77578","Match","Exact","5 SANTA BARBARA DR, MANVEL, TX, 77578",651869505,"R"
228146,"5 SAWMILL ROAD","LAKE KATRINE","NY",12449,41.988493582,-74.000923708,146,"5 SAWMILL ROAD, LAKE KATRINE, NY, 12449","Match","Exact","5 SAWMILL RD, LAKE KATRINE, NY, 12449",41897879,"R"
228147,"5 SAXTON STREET","MADISON","OH",44057,41.769213544,-81.0471853239999,147,"5 SAXTON STREET, MADISON, OH, 44057","Match","Exact","5 SAXTON ST, MADISON, OH, 44057",641744094,"R"
228148,"5 SCALIA COURT","HAMILTON","NJ",8690,40.247725852,-74.659397284,148,"5 SCALIA COURT, HAMILTON, NJ, 8690","Match","Exact","5 SCALIA CT, HAMILTON, NJ, 08690",60195963,"L"
228149,"5 SCENIC DRIVE","NEWTON","NJ",7860,NA,NA,149,"5 SCENIC DRIVE, NEWTON, NJ, 7860","No_Match",NA,NA,NA,NA
228150,"5 SCOTCH ROAD","EWING","NJ",8628,40.2760469400001,-74.805220372,150,"5 SCOTCH ROAD, EWING, NJ, 8628","Match","Exact","5 SCOTCH RD, EWING, NJ, 08628",60175712,"L"
228151,"5 SEA LANE","SAGAMORE BEACH","MA",2562,41.797224241,-70.536506988,151,"5 SEA LANE, SAGAMORE BEACH, MA, 2562","Match","Exact","5 SEA LN, SAGAMORE BCH, MA, 02562",121620214,"R"
228152,"5 SEAMAN AVENUE SUITE F","NEW YORK","NY",10034,40.8663800830001,-73.9277946459999,152,"5 SEAMAN AVENUE SUITE F, NEW YORK, NY, 10034","Match","Exact","5 SEAMAN AVE, NEW YORK, NY, 10034",59658796,"R"
228153,"5 SEMINOLE AVE","FORT MEADE","FL",33841,NA,NA,153,"5 SEMINOLE AVE, FORT MEADE, FL, 33841","Tie",NA,NA,NA,NA
228154,"5 SENECA PL","JERICHO","NY",11753,40.7765554050001,-73.5455543899999,154,"5 SENECA PL, JERICHO, NY, 11753","Match","Exact","5 SENECA PL, JERICHO, NY, 11753",147625859,"L"
228155,"5 SETON LN","MAHWAH","NJ",7430,41.069641389,-74.184324416,155,"5 SETON LN, MAHWAH, NJ, 7430","Match","Exact","5 SETON LN, MAHWAH, NJ, 07430",64422746,"L"
228156,"5 SETTLERS LANE","HAMLIN","NY",14464,43.2854444050001,-77.913084049,156,"5 SETTLERS LANE, HAMLIN, NY, 14464","Match","Exact","5 SETTLERS LN, HAMLIN, NY, 14464",14523773,"L"
228157,"5 SEVENTH STREET NORTH","HOPKINS","MN",55343,44.9251164200001,-93.408743783,157,"5 SEVENTH STREET NORTH, HOPKINS, MN, 55343","Match","Non_Exact","5 7TH AVE N, HOPKINS, MN, 55343",43827417,"R"
228158,"5 SHADOWRIDGE COURT","OLNEY","MD",20832,39.161476426,-77.060095543,158,"5 SHADOWRIDGE COURT, OLNEY, MD, 20832","Match","Exact","5 SHADOWRIDGE CT, OLNEY, MD, 20832",62093864,"R"
228159,"5 SHAGBARK CT","SAINT PETERS","MO",63376,38.7757203850001,-90.604245991,159,"5 SHAGBARK CT, SAINT PETERS, MO, 63376","Match","Exact","5 SHAGBARK CT, SAINT PETERS, MO, 63376",645719038,"L"
228160,"5 SHELTER ROCK ROAD","DANBURY","CT",6810,NA,NA,160,"5 SHELTER ROCK ROAD, DANBURY, CT, 6810","Tie",NA,NA,NA,NA
228161,"5 SHERRI LANE","SPRING VALLEY","NY",10977,41.1506473540001,-74.063672719,161,"5 SHERRI LANE, SPRING VALLEY, NY, 10977","Match","Exact","5 SHERRI LN, SPRING VALLEY, NY, 10977",124629215,"L"
228162,"5 SHIPYARD LANE","SAVANNAH","GA",31406,31.9446467980001,-81.107176829,162,"5 SHIPYARD LANE, SAVANNAH, GA, 31406","Match","Exact","5 SHIPYARD LN, SAVANNAH, GA, 31406",635557119,"R"
228163,"5 SHORE ROAD","MERRIMAC","MA",1860,42.8432633410001,-70.991126213,163,"5 SHORE ROAD, MERRIMAC, MA, 1860","Match","Exact","5 SHORE RD, MERRIMAC, MA, 01860",86618879,"R"
228164,"5 SHORN DRIVE","BLAUVELT","NY",10913,41.069844238,-73.958159758,164,"5 SHORN DRIVE, BLAUVELT, NY, 10913","Match","Exact","5 SHORN DR, BLAUVELT, NY, 10913",124630889,"R"
228165,"5 SICOMAC RD STE 179","NORTH HALEDON","NJ",7508,40.972701149,-74.1921870429999,165,"5 SICOMAC RD STE 179, NORTH HALEDON, NJ, 7508","Match","Exact","5 SICOMAC RD, NORTH HALEDON, NJ, 07508",65257256,"L"
228166,"5 SICOMAC RD SUITE 6 - 171","N HALEDON","NJ",7508,40.972701149,-74.1921870429999,166,"5 SICOMAC RD SUITE 6 - 171, N HALEDON, NJ, 7508","Match","Exact","5 SICOMAC RD, NORTH HALEDON, NJ, 07508",65257256,"L"
228167,"5 SIDNEY DRIVE","BERWICK","ME",3901,43.283023255,-70.836021551,167,"5 SIDNEY DRIVE, BERWICK, ME, 3901","Match","Exact","5 SIDNEY DR, BERWICK, ME, 03901",92758911,"R"
228168,"5 SIMON TEMPLAR DRIVE","COVENTRY","RI",2816,41.707911773,-71.645109723,168,"5 SIMON TEMPLAR DRIVE, COVENTRY, RI, 2816","Match","Exact","5 SIMON TEMPLAR DR, COVENTRY, RI, 02816",159140275,"R"
228169,"5 SKY VISTA","IRVINE","CA",92602,33.742261356,-117.761893725,169,"5 SKY VISTA, IRVINE, CA, 92602","Match","Exact","5 SKY VIS, IRVINE, CA, 92602",649290580,"L"
228170,"5 SKYTOP LA","PITTSFORD","NY",14534,43.0827985770001,-77.5303167449999,170,"5 SKYTOP LA, PITTSFORD, NY, 14534","Match","Exact","5 SKYTOP LN, PITTSFORD, NY, 14534",14544966,"R"
228171,"5 SLEVIN CT","MONSEY","NY",10952,41.114070903,-74.0947361,171,"5 SLEVIN CT, MONSEY, NY, 10952","Match","Exact","5 SLEVIN CT, MONSEY, NY, 10952",124607627,"L"
228172,"5 SMILING FISH LANE","PALM COAST","FL",32137,29.654819128,-81.209385943,172,"5 SMILING FISH LANE, PALM COAST, FL, 32137","Match","Exact","5 SMILING FISH LN, PALM COAST, FL, 32137",618236998,"L"
228173,"5 SMOKE RISE CT","MONTVALE","NJ",7645,41.064582133,-74.063682087,173,"5 SMOKE RISE CT, MONTVALE, NJ, 7645","Match","Exact","5 SMOKE RISE CT, MONTVALE, NJ, 07645",64417120,"R"
228174,"5 SOMBRERO LANE","SAINT ROSE","LA",70087,29.9617921490001,-90.3148420489999,174,"5 SOMBRERO LANE, SAINT ROSE, LA, 70087","Match","Exact","5 SOMBRERO LN, SAINT ROSE, LA, 70087",93618779,"R"
228175,"5 SONG SPARROW","THE WOODLANDS","TX",77381,30.1809052250001,-95.4989876499999,175,"5 SONG SPARROW, THE WOODLANDS, TX, 77381","Match","Non_Exact","5 SONG SPARROW PL, THE WOODLANDS, TX, 77381",79282266,"L"
228176,"5 SOUTH PEGO WAY","HOT SPRINGS VILLAGE","AR",71909,34.675847866,-93.0334581609999,176,"5 SOUTH PEGO WAY, HOT SPRINGS VILLAGE, AR, 71909","Match","Exact","5 S PEGO WAY, HOT SPRINGS VILLAGE, AR, 71909",22738864,"R"
228177,"5 SOUTHSIDE DRIVE","CLIFTON PARK","NY",12065,42.8603736060001,-73.782197276,177,"5 SOUTHSIDE DRIVE, CLIFTON PARK, NY, 12065","Match","Exact","5 SOUTHSIDE DR, CLIFTON PARK, NY, 12065",18805558,"L"
228178,"5 SPAR CIRCLE","ROCHESTER","NY",14606,43.166367333,-77.6561487989999,178,"5 SPAR CIRCLE, ROCHESTER, NY, 14606","Match","Exact","5 SPAR CIR, ROCHESTER, NY, 14606",14531570,"R"
228179,"5 SPAULDING ST","BOSTON","MA",2122,42.292551163,-71.054251404,179,"5 SPAULDING ST, BOSTON, MA, 2122","Match","Exact","5 SPAULDING ST, BOSTON, MA, 02122",85713651,"R"
228180,"5 SPRAGUE COURT","SANDWICH","MA",2563,41.769875756,-70.498412457,180,"5 SPRAGUE COURT, SANDWICH, MA, 2563","Match","Exact","5 SPRAGUE CT, SANDWICH, MA, 02563",121616970,"R"
228181,"5 SPRING CREEK LN","BROKEN ARROW","OK",74014,35.9657117420001,-95.754920213,181,"5 SPRING CREEK LN, BROKEN ARROW, OK, 74014","Match","Exact","5 SPRING CREEK LN, BROKEN ARROW, OK, 74014",83172479,"R"
228182,"5 SPRING GROVE STREET","DARIEN","CT",6820,41.095014324,-73.510162871,182,"5 SPRING GROVE STREET, DARIEN, CT, 6820","Match","Exact","5 SPRING GROVE ST, DARIEN, CT, 06820",3288321,"R"
228183,"5 SPRUCE HILL CT","PLEASANTVILLE","NY",10570,41.1242594870001,-73.753118693,183,"5 SPRUCE HILL CT, PLEASANTVILLE, NY, 10570","Match","Exact","5 SPRUCE HILL CT, PLEASANTVILLE, NY, 10570",139846499,"R"
228184,"5 SPYGLASS COURT","HALF MOON BAY","CA",94019,37.433547429,-122.436613475,184,"5 SPYGLASS COURT, HALF MOON BAY, CA, 94019","Match","Exact","5 SPYGLASS CT, HALF MOON BAY, CA, 94019",192391131,"L"
228185,"5 STANLEY PLACE","JACKSON","NJ",8527,40.15288725,-74.3119596719999,185,"5 STANLEY PLACE, JACKSON, NJ, 8527","Match","Exact","5 STANLEY PL, JACKSON, NJ, 08527",203716927,"L"
228186,"5 STATE ST - UNIT 4R","WORCESTER","MA",1609,42.269804483,-71.801257251,186,"5 STATE ST - UNIT 4R, WORCESTER, MA, 1609","Match","Exact","5 STATE ST, WORCESTER, MA, 01609",651813735,"L"
228187,"5 STEARNS ROAD","WATERTWOWN","MA",2472,42.37028008,-71.170013652,187,"5 STEARNS ROAD, WATERTWOWN, MA, 2472","Match","Non_Exact","5 STEARNS RD, WATERTOWN, MA, 02472",86864833,"R"
228188,"5 STONECOAL ROAD","BOONEVILLE","KY",41314,NA,NA,188,"5 STONECOAL ROAD, BOONEVILLE, KY, 41314","No_Match",NA,NA,NA,NA
228189,"5 STONEY CREEK COVE","PINE BLUFF","AR",71603,34.172320933,-92.0675199409999,189,"5 STONEY CREEK COVE, PINE BLUFF, AR, 71603","Match","Exact","5 STONEY CREEK, PINE BLUFF, AR, 71603",627867740,"L"
228190,"5 STUDEBAKER CT","CHARLESTON","SC",29414,32.844379974,-80.077473112,190,"5 STUDEBAKER CT, CHARLESTON, SC, 29414","Match","Exact","5 STUDEBAKER CT, CHARLESTON, SC, 29414",108852157,"L"
228191,"5 STUYVESANT OVAL 10E","NEW YORK","NY",10009,NA,NA,191,"5 STUYVESANT OVAL 10E, NEW YORK, NY, 10009","No_Match",NA,NA,NA,NA
228192,"5 SUMMIT RIDGE DRIVE","ATHENS","GA",30606,33.9307297190001,-83.4099105939999,192,"5 SUMMIT RIDGE DRIVE, ATHENS, GA, 30606","Match","Non_Exact","5 SUMMIT RIDGE RD, ATHENS, GA, 30606",624996711,"R"
228193,"5 SUNSET BOULEVARD NORTH","EDWARDSVILLE","IL",62025,NA,NA,193,"5 SUNSET BOULEVARD NORTH, EDWARDSVILLE, IL, 62025","No_Match",NA,NA,NA,NA
228194,"5 SUTTON STREET 3F","BROOKLYN","NY",11222,40.72307362,-73.940257961,194,"5 SUTTON STREET 3F, BROOKLYN, NY, 11222","Match","Exact","5 SUTTON ST, BROOKLYN, NY, 11222",59077036,"L"
228195,"5 SUTTON WAY","AMELIA","OH",45012,39.0133366860001,-84.228249324,195,"5 SUTTON WAY, AMELIA, OH, 45012","Match","Non_Exact","5 SUTTON WAY, AMELIA, OH, 45102",606326631,"R"
228196,"5 SWANEE DRIVE","GODDARD","KS",67052,37.651694062,-97.5731193,196,"5 SWANEE DRIVE, GODDARD, KS, 67052","Match","Exact","5 SWANEE DR, GODDARD, KS, 67052",115625272,"R"
228197,"5 SWEETWOOD DRIVE","RANDOLPH","NJ",7869,40.8506661480001,-74.599981853,197,"5 SWEETWOOD DRIVE, RANDOLPH, NJ, 7869","Match","Exact","5 SWEETWOOD DR, RANDOLPH, NJ, 07869",636221677,"R"
228198,"5 SYCAMORE DRIVE","CONWAY","AR",72032,35.1173375170001,-92.4039592399999,198,"5 SYCAMORE DRIVE, CONWAY, AR, 72032","Match","Exact","5 SYCAMORE DR, CONWAY, AR, 72032",141043373,"L"
228199,"5 SYLVAN WAY","CHELSEA","ME",4330,44.286404227,-69.7637061,199,"5 SYLVAN WAY, CHELSEA, ME, 4330","Match","Exact","5 SYLVAN WAY, CHELSEA, ME, 04330",75470786,"R"
228200,"5 TALBURN LANE","DIX HILLS","NY",11746,40.8035896800001,-73.334344237,200,"5 TALBURN LANE, DIX HILLS, NY, 11746","Match","Exact","5 TALBURN LN, DIX HILLS, NY, 11746",113969553,"R"
228201,"5 TALL PINE CIRCLE","NASHUA","NH",3062,42.7061531300001,-71.486727789,201,"5 TALL PINE CIRCLE, NASHUA, NH, 3062","Match","Exact","5 TALL PINE CIR, NASHUA, NH, 03062",113553418,"R"
228202,"5 TALLIN COURT","GREENVILLE","SC",29607,34.796581023,-82.2655539369999,202,"5 TALLIN COURT, GREENVILLE, SC, 29607","Match","Exact","5 TALLIN CT, GREENVILLE, SC, 29607",38351538,"L"
228203,"5 TALLO LN","LUMBERTON","TX",77657,30.262279951,-94.204202278,203,"5 TALLO LN, LUMBERTON, TX, 77657","Match","Exact","5 TALLO LN, LUMBERTON, TX, 77657",23977384,"L"
228204,"5 TAPPAN COURT","SAN ANSELMO","CA",94960,38.01327831,-122.590150394,204,"5 TAPPAN COURT, SAN ANSELMO, CA, 94960","Match","Exact","5 TAPPAN CT, SAN ANSELMO, CA, 94960",192759806,"R"
228205,"5 TARA TERRACE","BOURNE","MA",2532,41.7132712310001,-70.593197044,205,"5 TARA TERRACE, BOURNE, MA, 2532","Match","Exact","5 TARA TER, BOURNE, MA, 02532",121598347,"L"
228206,"5 TARA WAY","PENNINGTON","NJ",8534,40.342084979,-74.757657568,206,"5 TARA WAY, PENNINGTON, NJ, 8534","Match","Exact","5 TARA WAY, PENNINGTON, NJ, 08534",60198616,"L"
228207,"5 TAYLOR LANE","HINGHAM","VA",2043,NA,NA,207,"5 TAYLOR LANE, HINGHAM, VA, 2043","No_Match",NA,NA,NA,NA
228208,"5 TEAL WAY","EASTHAM","MA",2642,41.815139925,-69.989986813,208,"5 TEAL WAY, EASTHAM, MA, 2642","Match","Exact","5 TEAL WAY, EASTHAM, MA, 02642",121538745,"L"
228209,"5 TELL ST UNIT 2","PROVIDENCE","RI",2909,41.8225037610001,-71.429871726,209,"5 TELL ST UNIT 2, PROVIDENCE, RI, 2909","Match","Exact","5 TELL ST, PROVIDENCE, RI, 02909",47461034,"R"
228210,"5 TEWKESBURY LANE","BARRINGTON","IL",60010,42.1095957410001,-88.123411033,210,"5 TEWKESBURY LANE, BARRINGTON, IL, 60010","Match","Exact","5 TEWKESBURY LN, BARRINGTON, IL, 60010",111689677,"R"
228211,"5 THAYER POND DRIVE UNIT 1","OXFORD","MA",1537,42.1697699580001,-71.890920133,211,"5 THAYER POND DRIVE UNIT 1, OXFORD, MA, 1537","Match","Non_Exact","5 THAYER POND DR, NORTH OXFORD, MA, 01537",40056987,"L"
228212,"5 THEODORE DRIVE","EAST BRUNSWICK","NJ",8816,40.429002032,-74.4064436099999,212,"5 THEODORE DRIVE, EAST BRUNSWICK, NJ, 8816","Match","Exact","5 THEODORE DR, E BRUNSWICK, NJ, 08816",60269432,"R"
228213,"5 THIRD AVE","BUCKHANNON","WV",37601,38.9907095900001,-80.227505602,213,"5 THIRD AVE, BUCKHANNON, WV, 37601","Match","Non_Exact","5 3RD AVE, BUCKHANNON, WV, 26201",611600412,"R"
228214,"5 THOMAS CIRCLE NW FLOOR 2","WASHINGTON","DC",20005,38.905322889,-77.032184791,214,"5 THOMAS CIRCLE NW FLOOR 2, WASHINGTON, DC, 20005","Match","Exact","5 THOMAS CIR NW, WASHINGTON, DC, 20005",76225759,"R"
228215,"5 THOMAS SPEAKMAN DRIVE","GLEN MILLS","PA",19342,39.881547083,-75.508275752,215,"5 THOMAS SPEAKMAN DRIVE, GLEN MILLS, PA, 19342","Match","Exact","5 THOMAS SPEAKMAN DR, GLEN MILLS, PA, 19342",649319253,"L"
228216,"5 THORNTREE","LONGVIEW","TX",75601,32.521249712,-94.731612675,216,"5 THORNTREE, LONGVIEW, TX, 75601","Match","Exact","5 THORNTREE, LONGVIEW, TX, 75601",141121358,"R"
228217,"5 THRUSH MEWS","NORTH BRUNSWICK","NJ",8902,40.4532503630001,-74.507370532,217,"5 THRUSH MEWS, NORTH BRUNSWICK, NJ, 8902","Match","Exact","5 THRUSH MEWS, N BRUNSWICK, NJ, 08902",60257762,"R"
228218,"5 TIMOTHY DRIVE","ANDOVER","MA",1810,42.636446608,-71.139013624,218,"5 TIMOTHY DRIVE, ANDOVER, MA, 1810","Match","Exact","5 TIMOTHY DR, ANDOVER, MA, 01810",86690594,"L"
228219,"5 TOTTENHAM PLACE","NEW HYDE PARK","NY",11040,40.7501494860001,-73.6698221089999,219,"5 TOTTENHAM PLACE, NEW HYDE PARK, NY, 11040","Match","Exact","5 TOTTENHAM PL, NEW HYDE PARK, NY, 11040",147671067,"L"
228220,"5 TRENOR DR","NEW ROCHELLE","NY",10804,40.939145646,-73.793360403,220,"5 TRENOR DR, NEW ROCHELLE, NY, 10804","Match","Exact","5 TRENOR DR, NEW ROCHELLE, NY, 10804",139749463,"R"
228221,"5 TREVILLA CT","FORT THOMAS","KY",41075,39.0898089200001,-84.468131489,221,"5 TREVILLA CT, FORT THOMAS, KY, 41075","Match","Exact","5 TREVILLA CT, FORT THOMAS, KY, 41075",646330574,"R"
228222,"5 TROUT TRAIL","DELANCO","NJ",8075,40.0568599220001,-74.939501799,222,"5 TROUT TRAIL, DELANCO, NJ, 8075","Match","Exact","5 TROUT TRL, DELANCO, NJ, 08075",617124740,"L"
228223,"5 TROY LANE","NEWTON","MA",2468,42.3365654770001,-71.2201468499999,223,"5 TROY LANE, NEWTON, MA, 2468","Match","Non_Exact","5 TROY LN, WABAN, MA, 02468",646713290,"R"
228224,"5 TSIENNETO ROAD UNIT 39","DERRY","NH",3038,42.89785506,-71.322948315,224,"5 TSIENNETO ROAD UNIT 39, DERRY, NH, 3038","Match","Exact","5 TSIENNETO RD, DERRY, NH, 03038",113697080,"L"
228225,"5 TUDOR COURT EAST","OLD SAYBROOK","CT",6475,41.273010024,-72.3781741289999,225,"5 TUDOR COURT EAST, OLD SAYBROOK, CT, 6475","Match","Exact","5 TUDOR CT E, OLD SAYBROOK, CT, 06475",113878644,"L"
228226,"5 TULIP COURT","BARNEGAT","NJ",8005,39.7678742160001,-74.235872037,226,"5 TULIP COURT, BARNEGAT, NJ, 8005","Match","Exact","5 TULIP CT, BARNEGAT, NJ, 08005",635301242,"L"
228227,"5 TULIP LANE","SHORT HILLS","NJ",7078,40.7254053140001,-74.338068251,227,"5 TULIP LANE, SHORT HILLS, NJ, 7078","Match","Exact","5 TULIP LN, SHORT HILLS, NJ, 07078",617019713,"L"
228228,"5 TUPELO DRIVE","CLIFTON PARK","NY",12065,42.8347491740001,-73.7449362139999,228,"5 TUPELO DRIVE, CLIFTON PARK, NY, 12065","Match","Exact","5 TUPELO DR, CLIFTON PARK, NY, 12065",18778495,"L"
228229,"5 TURIN COURT","SAN ANTONIO","TX",78257,29.642058412,-98.6127582569999,229,"5 TURIN COURT, SAN ANTONIO, TX, 78257","Match","Exact","5 TURIN CT, SAN ANTONIO, TX, 78257",101556493,"L"
228230,"5 TURNBERRY RD","WALLINGFORD","CT",6492,41.4305755980001,-72.75656465,230,"5 TURNBERRY RD, WALLINGFORD, CT, 6492","Match","Exact","5 TURNBERRY RD, WALLINGFORD, CT, 06492",628103308,"R"
228231,"5 TUTTLE STREET","BRISTOL","CT",6010,41.6670720280001,-72.936408441,231,"5 TUTTLE STREET, BRISTOL, CT, 6010","Match","Exact","5 TUTTLE ST, BRISTOL, CT, 06010",3506156,"L"
228232,"5 TWELVE OAK CIRCLE APT C","JACKSON","MS",39209,32.299934797,-90.25993557,232,"5 TWELVE OAK CIRCLE APT C, JACKSON, MS, 39209","Match","Non_Exact","5 TWELVE OAKS CIR, JACKSON, MS, 39209",611219913,"L"
228233,"5 UPTON LANE","GOFFSTOWN","NH",3045,43.0191178760001,-71.573829062,233,"5 UPTON LANE, GOFFSTOWN, NH, 3045","Match","Exact","5 UPTON LN, GOFFSTOWN, NH, 03045",113545375,"R"
228234,"5 VALLEY SQUARE SUITE 120","BLUE BELL","PA",19422,40.134063445,-75.282263071,234,"5 VALLEY SQUARE SUITE 120, BLUE BELL, PA, 19422","Match","Exact","5 VALLEY SQ, BLUE BELL, PA, 19422",135121915,"R"
228235,"5 VAN ETTEN BLVD","NEW ROCHELLE","NY",10804,40.9631083580001,-73.781914383,235,"5 VAN ETTEN BLVD, NEW ROCHELLE, NY, 10804","Match","Exact","5 VAN ETTEN BLVD, NEW ROCHELLE, NY, 10804",139777363,"L"
228236,"5 VAN LU VAN ROAD","BRIARCLIFF MANOR","NY",10510,NA,NA,236,"5 VAN LU VAN ROAD, BRIARCLIFF MANOR, NY, 10510","No_Match",NA,NA,NA,NA
228237,"5 VANESSA LANE","STRATHAM","NH",3885,42.996707529,-70.875147812,237,"5 VANESSA LANE, STRATHAM, NH, 3885","Match","Exact","5 VANESSA LN, STRATHAM, NH, 03885",624961771,"L"
228238,"5 VERBENA COURT","CHESHIRE","CT",6410,41.4838674280001,-72.9263542149999,238,"5 VERBENA COURT, CHESHIRE, CT, 6410","Match","Exact","5 VERBENA CT, CHESHIRE, CT, 06410",3712495,"R"
228239,"5 VICTOR AVE","SELDEN","NY",11784,40.884025837,-73.0582722349999,239,"5 VICTOR AVE, SELDEN, NY, 11784","Match","Exact","5 VICTOR AVE, SELDEN, NY, 11784",114003491,"L"
228240,"5 VICTORIA GARDEN","FRAMINGHAM","MA",1701,42.3224072250001,-71.398930336,240,"5 VICTORIA GARDEN, FRAMINGHAM, MA, 1701","Match","Non_Exact","5 VICTORIA GARDENS, FRAMINGHAM, MA, 01701",86933906,"R"
228241,"5 VILLA FARMS CIR","MONROE TOWNSHIP","NJ",8831,40.346213403,-74.4092858399999,241,"5 VILLA FARMS CIR, MONROE TOWNSHIP, NJ, 8831","Match","Exact","5 VILLA FARMS CIR, MONROE TOWNSHIP, NJ, 08831",60320449,"R"
228242,"5 VINCENT AVE APT 3","WORCESTER","MA",1603,42.2520477950001,-71.835703876,242,"5 VINCENT AVE APT 3, WORCESTER, MA, 1603","Match","Exact","5 VINCENT AVE, WORCESTER, MA, 01603",40049763,"R"
228243,"5 VINTON STREET","SOUTH BOSTON","MA",2127,42.330583898,-71.05423281,243,"5 VINTON STREET, SOUTH BOSTON, MA, 2127","Match","Exact","5 VINTON ST, SOUTH BOSTON, MA, 02127",638999841,"R"
228244,"5 VISION BLVD","SOMERS","CT",6071,NA,NA,244,"5 VISION BLVD, SOMERS, CT, 6071","No_Match",NA,NA,NA,NA
228245,"5 W 95TH ST APT B","NEW YORK","NY",10025,40.7911332470001,-73.965496952,245,"5 W 95TH ST APT B, NEW YORK, NY, 10025","Match","Non_Exact","5 W 95TH ST, NEW YORK, NY, 10025",59656934,"R"
228246,"5 W CLARK PLACE","COLONIA","NJ",7067,40.591552601,-74.3373526189999,246,"5 W CLARK PLACE, COLONIA, NJ, 7067","Match","Exact","5 W CLARK PL, COLONIA, NJ, 07067",60361998,"R"
228247,"5 W HARGETT ST SUITE 1012","RALEIGH","NC",27601,NA,NA,247,"5 W HARGETT ST SUITE 1012, RALEIGH, NC, 27601","Tie",NA,NA,NA,NA
228248,"5 W MANTUA AVE FL 2ND","WENONAH","NJ",8090,NA,NA,248,"5 W MANTUA AVE FL 2ND, WENONAH, NJ, 8090","Tie",NA,NA,NA,NA
228249,"5 W MCARTHUR DR","MIDWEST CITY","OK",73110,35.440962674,-97.400255552,249,"5 W MCARTHUR DR, MIDWEST CITY, OK, 73110","Match","Non_Exact","5 MACARTHUR DR, MIDWEST CITY, OK, 73110",100414823,"R"
228250,"5 W PRAIRIE","ROGERS","TX",76569,NA,NA,250,"5 W PRAIRIE, ROGERS, TX, 76569","No_Match",NA,NA,NA,NA
228251,"5 WALDEN MAPLE COURT","GWYNN OAK","MD",21207,39.302547314,-76.732345311,251,"5 WALDEN MAPLE COURT, GWYNN OAK, MD, 21207","Match","Exact","5 WALDEN MAPLE CT, GWYNN OAK, MD, 21207",191483800,"L"
228252,"5 WALDRON DRIVE","MARTINSVILLE","NJ",8836,40.5869889420001,-74.546483323,252,"5 WALDRON DRIVE, MARTINSVILLE, NJ, 8836","Match","Exact","5 WALDRON DR, MARTINSVILLE, NJ, 08836",59956259,"L"
228253,"5 WALL ST","CODY","WY",82414,44.4852691150001,-109.100151872,253,"5 WALL ST, CODY, WY, 82414","Match","Exact","5 WALL ST, CODY, WY, 82414",149186787,"R"
228254,"5 WALNUT ST","NEWBURYPORT","MA",1950,42.8181748530001,-70.8837374409999,254,"5 WALNUT ST, NEWBURYPORT, MA, 1950","Match","Exact","5 WALNUT ST, NEWBURYPORT, MA, 01950",86620927,"L"
228255,"5 WALNUT TREE LANE","COLD SPRING HARBOR","NY",11724,40.878017061,-73.460712127,255,"5 WALNUT TREE LANE, COLD SPRING HARBOR, NY, 11724","Match","Exact","5 WALNUT TREE LN, COLD SPRING HARBOR, NY, 11724",114033226,"L"
228256,"5 WALTHAM STREET","WILMINGTON","MA",1887,42.5660459430001,-71.159416183,256,"5 WALTHAM STREET, WILMINGTON, MA, 1887","Match","Exact","5 WALTHAM ST, WILMINGTON, MA, 01887",87080661,"R"
228257,"5 WALTON WAY","FARMINGTON","CT",6032,41.7403075820001,-72.847570917,257,"5 WALTON WAY, FARMINGTON, CT, 6032","Match","Exact","5 WALTON WAY, FARMINGTON, CT, 06032",648679879,"L"
228258,"5 WARREN PLACE","WESTON","MA",2493,42.3671647910001,-71.312201511,258,"5 WARREN PLACE, WESTON, MA, 2493","Match","Exact","5 WARREN PL, WESTON, MA, 02493",86852796,"R"
228259,"5 WARWICK PLACE","CINCINNATI","OH",45246,39.268862992,-84.459110967,259,"5 WARWICK PLACE, CINCINNATI, OH, 45246","Match","Exact","5 WARWICK PL, CINCINNATI, OH, 45246",103950865,"R"
228260,"5 WASHINGTON SQUARE    SUITE 5","ALBANY","NY",12205,42.7020176670001,-73.8159517889999,260,"5 WASHINGTON SQUARE    SUITE 5, ALBANY, NY, 12205","Match","Non_Exact","5 WASHINGTON AVE, ALBANY, NY, 12205",18360087,"R"
228261,"5 WASHINGTON ST","NEWNAN","GA",30263,NA,NA,261,"5 WASHINGTON ST, NEWNAN, GA, 30263","Tie",NA,NA,NA,NA
228262,"5 WASHINGTON STREET","SOUTH RIVER","NJ",8882,NA,NA,262,"5 WASHINGTON STREET, SOUTH RIVER, NJ, 8882","No_Match",NA,NA,NA,NA
228263,"5 WASHINGTON STREET","VALPARAISO","CA",46385,NA,NA,263,"5 WASHINGTON STREET, VALPARAISO, CA, 46385","No_Match",NA,NA,NA,NA
228264,"5 WASHTON PL","PALM COAST","FL",32164,29.5427054840001,-81.2324880159999,264,"5 WASHTON PL, PALM COAST, FL, 32164","Match","Exact","5 WASHTON PL, PALM COAST, FL, 32164",94950712,"L"
228265,"5 WASHTON PLACE","PALM COAST","FL",32164,29.5427054840001,-81.2324880159999,265,"5 WASHTON PLACE, PALM COAST, FL, 32164","Match","Exact","5 WASHTON PL, PALM COAST, FL, 32164",94950712,"L"
228266,"5 WATERSIDE LANE","WEST NEWBURY","MA",1985,42.7930878070001,-71.008810231,266,"5 WATERSIDE LANE, WEST NEWBURY, MA, 1985","Match","Exact","5 WATERSIDE LN, WEST NEWBURY, MA, 01985",86674807,"L"
228267,"5 WATERVIEW DRIVE","OSSINING","NY",10562,41.1940692740001,-73.869248145,267,"5 WATERVIEW DRIVE, OSSINING, NY, 10562","Match","Exact","5 WATERVIEW DR, OSSINING, NY, 10562",139786364,"R"
228268,"5 WATKINS LANE","SOUTHBOROUGH","MA",1772,42.276619673,-71.5216285229999,268,"5 WATKINS LANE, SOUTHBOROUGH, MA, 1772","Match","Exact","5 WATKINS LN, SOUTHBOROUGH, MA, 01772",625847351,"R"
228269,"5 WAWARSING ROAD","NEW PALTZ","NY",12561,41.7393817380001,-74.1744305299999,269,"5 WAWARSING ROAD, NEW PALTZ, NY, 12561","Match","Exact","5 WAWARSING RD, NEW PALTZ, NY, 12561",648160614,"L"
228270,"5 WEBER ROAD","BELMONT","MA",2478,42.3920208480001,-71.1797972369999,270,"5 WEBER ROAD, BELMONT, MA, 2478","Match","Exact","5 WEBER RD, BELMONT, MA, 02478",86891353,"R"
228271,"5 WEDGEWOOD RD","MATTESON","IL",60443,41.5270321840001,-87.7629031819999,271,"5 WEDGEWOOD RD, MATTESON, IL, 60443","Match","Exact","5 WEDGEWOOD RD, MATTESON, IL, 60443",605677842,"L"
228272,"5 WEST 10TH STREET SUITE 300","ERIE","PA",16501,42.1254350310001,-80.0827657569999,272,"5 WEST 10TH STREET SUITE 300, ERIE, PA, 16501","Match","Exact","5 W 10TH ST, ERIE, PA, 16501",117494312,"L"
228273,"5 WEST 22ND STREET","NEW YORK","NY",10010,40.74104242,-73.990433744,273,"5 WEST 22ND STREET, NEW YORK, NY, 10010","Match","Exact","5 W 22ND ST, NEW YORK, NY, 10010",59653500,"R"
228274,"5 WEST 91 STREET APT 3B","NEW YORK","NY",10024,40.7888234330001,-73.9678190229999,274,"5 WEST 91 STREET APT 3B, NEW YORK, NY, 10024","Match","Exact","5 W 91ST ST, NEW YORK, NY, 10024",611181999,"R"
228275,"5 WEST ARCH STREET","FLEETWOOD","PA",19522,40.45637472,-75.819078055,275,"5 WEST ARCH STREET, FLEETWOOD, PA, 19522","Match","Exact","5 W ARCH ST, FLEETWOOD, PA, 19522",80378473,"R"
228276,"5 WEST MAIN STREET","BOYNE CITY","MI",49712,45.211905834,-85.0158254309999,276,"5 WEST MAIN STREET, BOYNE CITY, MI, 49712","Match","Exact","5 W MAIN ST, BOYNE CITY, MI, 49712",134488033,"R"
228277,"5 WEST NORTHRUP PLACE","BUFFALO","NY",14214,42.950838064,-78.826828297,277,"5 WEST NORTHRUP PLACE, BUFFALO, NY, 14214","Match","Exact","5 W NORTHRUP PL, BUFFALO, NY, 14214",48296121,"R"
228278,"5 WEST STREET","AUBURN","MA",1501,42.1855124300001,-71.869469147,278,"5 WEST STREET, AUBURN, MA, 1501","Match","Exact","5 WEST ST, AUBURN, MA, 01501",40089672,"L"
228279,"5 WESTBROOK RD","BLOOMFIELD","CT",6002,41.8081443200001,-72.7297947869999,279,"5 WESTBROOK RD, BLOOMFIELD, CT, 6002","Match","Exact","5 WESTBROOK RD, BLOOMFIELD, CT, 06002",3485839,"R"
228280,"5 WESTFORD DRIVE","AUBURN","NH",3032,42.946734291,-71.3436637619999,280,"5 WESTFORD DRIVE, AUBURN, NH, 3032","Match","Exact","5 WESTFORD DR, AUBURN, NH, 03032",113718484,"L"
228281,"5 WESTWOOD DRIVE","JAMESTOWN","NY",14701,42.078674214,-79.2507898119999,281,"5 WESTWOOD DRIVE, JAMESTOWN, NY, 14701","Match","Exact","5 WESTWOOD DR, JAMESTOWN, NY, 14701",120754260,"L"
228282,"5 WEXFORD HILL RD","HAMPTON","VA",23666,37.050605062,-76.444094035,282,"5 WEXFORD HILL RD, HAMPTON, VA, 23666","Match","Exact","5 WEXFORD HILL RD, HAMPTON, VA, 23666",103808524,"L"
228283,"5 WEXFORD LANE","LINWOOD","NJ",8221,39.3624946400001,-74.5723599469999,283,"5 WEXFORD LANE, LINWOOD, NJ, 8221","Match","Exact","5 WEXFORD LN, LINWOOD, NJ, 08221",202521882,"L"
228284,"5 WHEATSHEAF COURT","PLAINSBORO","NJ",8536,40.322261305,-74.578081159,284,"5 WHEATSHEAF COURT, PLAINSBORO, NJ, 8536","Match","Exact","5 WHEATSHEAF CT, PLAINSBORO, NJ, 08536",60319699,"R"
228285,"5 WHISPERING PINE DRIVE","WESTBOROUGH","MA",1581,42.2531819430001,-71.644376655,285,"5 WHISPERING PINE DRIVE, WESTBOROUGH, MA, 1581","Match","Exact","5 WHISPERING PINE DR, WESTBOROUGH, MA, 01581",40070276,"R"
228286,"5 WHITE BIRCH ROAD SOUTH","POUND RIDGE","NY",10576,41.160649284,-73.600477736,286,"5 WHITE BIRCH ROAD SOUTH, POUND RIDGE, NY, 10576","Match","Exact","5 WHITE BIRCH RD S, POUND RIDGE, NY, 10576",640547032,"L"
228287,"5 WHITE STREET","NANTUCKET","MA",2554,41.2512156130001,-70.084517682,287,"5 WHITE STREET, NANTUCKET, MA, 2554","Match","Exact","5 WHITE ST, NANTUCKET, MA, 02554",118734131,"L"
228288,"5 WHITMAN ROAD","MORGANVILLE","NJ",7751,40.34563659,-74.315500857,288,"5 WHITMAN ROAD, MORGANVILLE, NJ, 7751","Match","Exact","5 WHITMAN RD, MORGANVILLE, NJ, 07751",90443628,"L"
228289,"5 WILLOW COURT","CHERRY HILL","NJ",8003,39.8815010210001,-74.981608352,289,"5 WILLOW COURT, CHERRY HILL, NJ, 8003","Match","Exact","5 WILLOW CT, CHERRY HILL, NJ, 08003",134358598,"R"
228290,"5 WINCHESTER ROAD","LIVINGSTON","NJ",7039,40.7780767790001,-74.327119738,290,"5 WINCHESTER ROAD, LIVINGSTON, NJ, 7039","Match","Exact","5 WINCHESTER RD, LIVINGSTON, NJ, 07039",63458248,"L"
228291,"5 WINDGATE ROAD","CHERRY HILL","NJ",8003,39.8943633660001,-74.9546443899999,291,"5 WINDGATE ROAD, CHERRY HILL, NJ, 8003","Match","Exact","5 WINDGATE RD, CHERRY HILL, NJ, 08003",134363194,"L"
228292,"5 WINDHAM LOOP","STATEN ISLAND","NY",10314,40.5777800700001,-74.162961658,292,"5 WINDHAM LOOP, STATEN ISLAND, NY, 10314","Match","Exact","5 WINDHAM LOOP, STATEN ISLAND, NY, 10314",59872413,"R"
228293,"5 WINDSOR LANE","WILLINGBORO","NJ",8046,40.025961486,-74.9028390999999,293,"5 WINDSOR LANE, WILLINGBORO, NJ, 8046","Match","Exact","5 WINDSOR LN, WILLINGBORO, NJ, 08046",134058298,"L"
228294,"5 WINDSOR LN","WILLINGBORO","NJ",8046,40.025961486,-74.9028390999999,294,"5 WINDSOR LN, WILLINGBORO, NJ, 8046","Match","Exact","5 WINDSOR LN, WILLINGBORO, NJ, 08046",134058298,"L"
228295,"5 WINDY HILL","GLENS FALLS","NY",12801,43.3229899900001,-73.6352443379999,295,"5 WINDY HILL, GLENS FALLS, NY, 12801","Match","Non_Exact","5 WINDY HILL RD, GLENS FALLS, NY, 12801",173918083,"R"
228296,"5 WINFIELD POINTE LN","ST LOUIS","MO",63141,38.6719377360001,-90.421735064,296,"5 WINFIELD POINTE LN, ST LOUIS, MO, 63141","Match","Exact","5 WINFIELD POINTE LN, SAINT LOUIS, MO, 63141",100187337,"L"
228297,"5 WINGATE ROAD","LEXINGTON","MA",2421,42.4524854520001,-71.2409532349999,297,"5 WINGATE ROAD, LEXINGTON, MA, 2421","Match","Exact","5 WINGATE RD, LEXINGTON, MA, 02421",86881884,"R"
228298,"5 WINTHROP PLACE","HAZLET","NJ",7730,40.4269064550001,-74.169871664,298,"5 WINTHROP PLACE, HAZLET, NJ, 7730","Match","Exact","5 WINTHROP PL, HAZLET, NJ, 07730",90475435,"R"
228299,"5 WOOD BENT DRIVE","SEVERNA PARK","MD",21146,39.09561562,-76.563843737,299,"5 WOOD BENT DRIVE, SEVERNA PARK, MD, 21146","Match","Non_Exact","5 WOODBENT DR, SEVERNA PARK, MD, 21146",68202743,"R"
228300,"5 WOODBINE DRIVE","OSWEGO","NY",13126,43.451589315,-76.4684473029999,300,"5 WOODBINE DRIVE, OSWEGO, NY, 13126","Match","Exact","5 WOODBINE DR, OSWEGO, NY, 13126",57841081,"R"
228301,"5 WOODCREST","PONCA CITY","OK",74604,36.7086169240001,-97.017059552,301,"5 WOODCREST, PONCA CITY, OK, 74604","Match","Exact","5 WOODCREST, PONCA CITY, OK, 74604",115903878,"L"
228302,"5 WOODLAND DRIVE","LEMONT","IL",60439,41.652668685,-87.9793559399999,302,"5 WOODLAND DRIVE, LEMONT, IL, 60439","Match","Exact","5 WOODLAND DR, LEMONT, IL, 60439",112389232,"R"
228303,"5 WOODLAND DRIVE","VIENNA","WV",26105,39.3141203530001,-81.529097077,303,"5 WOODLAND DRIVE, VIENNA, WV, 26105","Match","Exact","5 WOODLAND DR, VIENNA, WV, 26105",90893783,"L"
228304,"5 WOODWARD DRIVE","FREDONIA","NY",14063,42.42866238,-79.3321164939999,304,"5 WOODWARD DRIVE, FREDONIA, NY, 14063","Match","Exact","5 WOODWARD DR, FREDONIA, NY, 14063",120758059,"R"
228305,"5 WRIGHT ST","LEXINGTON","MA",2420,42.4835127850001,-71.24697238,305,"5 WRIGHT ST, LEXINGTON, MA, 2420","Match","Exact","5 WRIGHT ST, LEXINGTON, MA, 02420",86881481,"R"
228306,"5 WRIGLEY","IRVINE","CA",92618,33.640843386,-117.718725727,306,"5 WRIGLEY, IRVINE, CA, 92618","Match","Exact","5 WRIGLEY, IRVINE, CA, 92618",144061574,"R"
228307,"5-11 47TH AVENUE 3M","LONG ISLAND CITY","NY",11101,40.7458783530001,-73.955121451,307,"5-11 47TH AVENUE 3M, LONG ISLAND CITY, NY, 11101","Match","Exact","5-11 47TH AVE, LONG ISLAND CITY, NY, 11101",59691846,"L"
228308,"5-19 DOG TAIL CORNERS ROAD","WINGDALE","NY",12594,41.6541484630001,-73.5383752769999,308,"5-19 DOG TAIL CORNERS ROAD, WINGDALE, NY, 12594","Match","Exact","5 DOG TAIL CORNERS RD, WINGDALE, NY, 12594",4161401,"R"
228309,"5-28 C 115 STREET","COLLEGE POINT","NY",11356,NA,NA,309,"5-28 C 115 STREET, COLLEGE POINT, NY, 11356","Tie",NA,NA,NA,NA
228310,"5-5161 KUHIO HIGHWAY SUITE E-205","HANALEI","HI",96714,22.2034025950001,-159.49449808,310,"5-5161 KUHIO HIGHWAY SUITE E-205, HANALEI, HI, 96714","Match","Exact","5-5161 KUHIO HWY, HANALEI, HI, 96714",618543117,"L"
228311,"5-7 MINETTA STREET APT 4","NEW YORK","NY",10012,40.7297481100001,-74.001842886,311,"5-7 MINETTA STREET APT 4, NEW YORK, NY, 10012","Match","Exact","5 MINETTA ST, NEW YORK, NY, 10012",652209993,"R"
228312,"5-C MAIN STREET SUITE C2","REISTERSTOWN","MD",21136,39.469667788,-76.829689978,312,"5-C MAIN STREET SUITE C2, REISTERSTOWN, MD, 21136","Match","Exact","5 MAIN ST, REISTERSTOWN, MD, 21136",640096174,"L"
228313,"5","CLAYTON","NC",27520,NA,NA,313,"5, CLAYTON, NC, 27520","No_Match",NA,NA,NA,NA
228314,"5","JOHNSTON","IA",50131,NA,NA,314,"5, JOHNSTON, IA, 50131","No_Match",NA,NA,NA,NA
228315,"5","OFALLON","IL",62269,NA,NA,315,"5, OFALLON, IL, 62269","No_Match",NA,NA,NA,NA
228316,"5","WEST COLUMBIA","SC",29169,NA,NA,316,"5, WEST COLUMBIA, SC, 29169","No_Match",NA,NA,NA,NA
228317,"50  MILLS RANCH ROAD","OROVILLE","CA",95966,39.5629007630001,-121.329812712,317,"50  MILLS RANCH ROAD, OROVILLE, CA, 95966","Match","Exact","50 MILLS RANCH RD, OROVILLE, CA, 95966",636409994,"R"
228318,"50 1/2 WILLIAMS STREET","NORTH ADAMS","MA",1247,NA,NA,318,"50 1/2 WILLIAMS STREET, NORTH ADAMS, MA, 1247","Tie",NA,NA,NA,NA
228319,"50 2ND AVE BRDG","CEDAR RAPIDS","IA",52401,41.976262654,-91.670794357,319,"50 2ND AVE BRDG, CEDAR RAPIDS, IA, 52401","Match","Non_Exact","50 2ND AVENUE BRIDGE, CEDAR RAPIDS, IA, 52401",17025713,"L"
228320,"50 50TH ST S","SAINT PETERSBURG","FL",33707,27.7704896220001,-82.7011913269999,320,"50 50TH ST S, SAINT PETERSBURG, FL, 33707","Match","Exact","50 50TH ST S, SAINT PETERSBURG, FL, 33707",124700334,"L"
228321,"50 ACACIA AVE","SAN RAFAEL","CA",94901,37.979402566,-122.514877623,321,"50 ACACIA AVE, SAN RAFAEL, CA, 94901","Match","Exact","50 ACACIA AVE, SAN RAFAEL, CA, 94901",192786876,"R"
228322,"50 AHUALANI PLACE","MAKAWAO","HI",96768,20.8465931320001,-156.333908067,322,"50 AHUALANI PLACE, MAKAWAO, HI, 96768","Match","Exact","50 AHUALANI PL, MAKAWAO, HI, 96768",85084525,"R"
228323,"50 ALLISON AVENUE","NEWFOUNDLAND","NJ",7435,41.057459269,-74.459171176,323,"50 ALLISON AVENUE, NEWFOUNDLAND, NJ, 7435","Match","Exact","50 ALLISON AVE, NEWFOUNDLAND, NJ, 07435",65272668,"R"
228324,"50 ALVIN SLOAN AVE","WASHINGTON","NJ",7882,40.762799188,-74.9958276249999,324,"50 ALVIN SLOAN AVE, WASHINGTON, NJ, 7882","Match","Non_Exact","50 ALVIN SLOAN RD, WASHINGTON, NJ, 07882",98114554,"R"
228325,"50 ARNOLD AVE","SAN FRANCISCO","CA",94110,37.734559775,-122.419655985,325,"50 ARNOLD AVE, SAN FRANCISCO, CA, 94110","Match","Exact","50 ARNOLD AVE, SAN FRANCISCO, CA, 94110",192288650,"R"
228326,"50 ASH ST","HONAKER","VA",24260,37.018739301,-81.986189192,326,"50 ASH ST, HONAKER, VA, 24260","Match","Exact","50 ASH ST, HONAKER, VA, 24260",74136086,"R"
228327,"50 ATTEBURY","HENDERSON","NV",89074,36.0298572660001,-115.073068001,327,"50 ATTEBURY, HENDERSON, NV, 89074","Match","Non_Exact","50 ATTEBURY CT, HENDERSON, NV, 89074",201911188,"R"
228328,"50 ATWELL PARK","SAN ANTONIO","TX",78254,29.5323490480001,-98.66625842,328,"50 ATWELL PARK, SAN ANTONIO, TX, 78254","Match","Exact","50 ATWELL PARK, SAN ANTONIO, TX, 78254",101740007,"L"
228329,"50 AYR ST","CENTRAL FALLS","PR",2863,NA,NA,329,"50 AYR ST, CENTRAL FALLS, PR, 2863","No_Match",NA,NA,NA,NA
228330,"50 B GADSDEN STREET","CHARLESTON","SC",29401,NA,NA,330,"50 B GADSDEN STREET, CHARLESTON, SC, 29401","Tie",NA,NA,NA,NA
228331,"50 B HANOVER STREET","PROVIDENCE","RI",2907,41.807771673,-71.426363564,331,"50 B HANOVER STREET, PROVIDENCE, RI, 2907","Match","Exact","50 HANOVER ST, PROVIDENCE, RI, 02907",47461382,"L"
228332,"50 B HOOVER STREET","MESA","AZ",85210,NA,NA,332,"50 B HOOVER STREET, MESA, AZ, 85210","No_Match",NA,NA,NA,NA
228333,"50 BACK HOLLOW","LEXINGTON","VA",24450,37.8677540950001,-79.5436625359999,333,"50 BACK HOLLOW, LEXINGTON, VA, 24450","Match","Exact","50 BACK HOLLOW, LEXINGTON, VA, 24450",63120017,"L"
228334,"50 BALDWIN STREET","CHARLESTOWN","MA",2129,42.381525831,-71.0707620049999,334,"50 BALDWIN STREET, CHARLESTOWN, MA, 2129","Match","Exact","50 BALDWIN ST, CHARLESTOWN, MA, 02129",636133381,"L"
228335,"50 BATTERY PL APT 8C","NEW YORK","NY",10280,40.7063503970001,-74.01787494,335,"50 BATTERY PL APT 8C, NEW YORK, NY, 10280","Match","Exact","50 BATTERY PL, NEW YORK, NY, 10280",59659500,"L"
228336,"50 BATTERY PLACE     APT 4J","NEW YORK","NY",10280,40.7063503970001,-74.01787494,336,"50 BATTERY PLACE     APT 4J, NEW YORK, NY, 10280","Match","Exact","50 BATTERY PL, NEW YORK, NY, 10280",59659500,"L"
228337,"50 BATTERY STREET STE 700","BOSTON","MA",2109,42.366466028,-71.0502759569999,337,"50 BATTERY STREET STE 700, BOSTON, MA, 2109","Match","Exact","50 BATTERY ST, BOSTON, MA, 02109",645436637,"L"
228338,"50 BAYVIEW LANE","PORT TOWNSEND","WA",98368,48.051884607,-122.835251439,338,"50 BAYVIEW LANE, PORT TOWNSEND, WA, 98368","Match","Exact","50 BAYVIEW LN, PORT TOWNSEND, WA, 98368",151993320,"R"
228339,"50 BELAIR ROAD","STATEN ISLAND","NY",10305,40.611144832,-74.065173746,339,"50 BELAIR ROAD, STATEN ISLAND, NY, 10305","Match","Exact","50 BELAIR RD, STATEN ISLAND, NY, 10305",59887830,"L"
228340,"50 BELMONT AVE APT 912","BALA CYNWYD","PA",19004,40.006266721,-75.222395934,340,"50 BELMONT AVE APT 912, BALA CYNWYD, PA, 19004","Match","Exact","50 BELMONT AVE, BALA CYNWYD, PA, 19004",135091684,"L"
228341,"50 BIRCH COURT","RIVERHEAD","NY",11901,40.893101857,-72.678088304,341,"50 BIRCH COURT, RIVERHEAD, NY, 11901","Match","Exact","50 BIRCH CT, RIVERHEAD, NY, 11901",114024361,"R"
228342,"50 BISCAYNE BLVD APT 1710","MIAMI","FL",33132,NA,NA,342,"50 BISCAYNE BLVD APT 1710, MIAMI, FL, 33132","No_Match",NA,NA,NA,NA
228343,"50 BOWDEN CIRCLE","CHELSEA","AL",35043,33.2685976430001,-86.695776844,343,"50 BOWDEN CIRCLE, CHELSEA, AL, 35043","Match","Exact","50 BOWDEN CIR, CHELSEA, AL, 35043",632444774,"R"
228344,"50 BOWMAN CAMP LANE","ANACONDA","MT",59711,NA,NA,344,"50 BOWMAN CAMP LANE, ANACONDA, MT, 59711","No_Match",NA,NA,NA,NA
228345,"50 BRIDGE RD  ROOM 2B PO BOX 5123","TUBAC","AZ",85646,NA,NA,345,"50 BRIDGE RD  ROOM 2B PO BOX 5123, TUBAC, AZ, 85646","No_Match",NA,NA,NA,NA
228346,"50 BRISTOL ROAD","WELLESLEY","MA",2481,42.3138161090001,-71.292167653,346,"50 BRISTOL ROAD, WELLESLEY, MA, 2481","Match","Exact","50 BRISTOL RD, WELLESLEY, MA, 02481",87236874,"L"
228347,"50 BROAD STREET","NEW YORK","NY",10004,40.705575416,-74.011465534,347,"50 BROAD STREET, NEW YORK, NY, 10004","Match","Exact","50 BROAD ST, NEW YORK, NY, 10004",59659657,"R"
228348,"50 BROOKFIELD DR","VALDOSTA","GA",31602,30.8678554100001,-83.3952727819999,348,"50 BROOKFIELD DR, VALDOSTA, GA, 31602","Match","Exact","50 BROOKFIELD DR, VALDOSTA, GA, 31602",83066977,"R"
228349,"50 BROOKSIDE DR","LEMONT","IL",60439,41.683624136,-87.921707944,349,"50 BROOKSIDE DR, LEMONT, IL, 60439","Match","Exact","50 BROOKSIDE DR, LEMONT, IL, 60439",112204741,"L"
228350,"50 BROWNS CHURCH ROAD","JACKSON","TN",38305,35.6419809720001,-88.77552309,350,"50 BROWNS CHURCH ROAD, JACKSON, TN, 38305","Match","Exact","50 BROWNS CHURCH RD, JACKSON, TN, 38305",21321157,"R"
228351,"50 BROWNS HILL ROAD","SUNAPEE","NH",3782,43.4133686660001,-72.07667495,351,"50 BROWNS HILL ROAD, SUNAPEE, NH, 3782","Match","Exact","50 BROWNS HILL RD, SUNAPEE, NH, 03782",651455393,"R"
228352,"50 BRUNSWICK CT","IOWA CITY","IA",52240,41.64282259,-91.489284358,352,"50 BRUNSWICK CT, IOWA CITY, IA, 52240","Match","Exact","50 BRUNSWICK CT, IOWA CITY, IA, 52240",84519492,"R"
228353,"50 BURMETTE STREET UNIT 2","JAMAICA PLAIN","MA",2130,42.304604596,-71.110426616,353,"50 BURMETTE STREET UNIT 2, JAMAICA PLAIN, MA, 2130","Match","Non_Exact","50 BURNETT ST, JAMAICA PLAIN, MA, 02130",85699447,"L"
228354,"50 BUSHEY RD","PITTSFIELD","MA",1201,42.4352448320001,-73.21056902,354,"50 BUSHEY RD, PITTSFIELD, MA, 1201","Match","Exact","50 BUSHEY RD, PITTSFIELD, MA, 01201",3954373,"R"
228355,"50 BUSHEY ROAD","PITTSFIELD","MA",1201,42.4352448320001,-73.21056902,355,"50 BUSHEY ROAD, PITTSFIELD, MA, 1201","Match","Exact","50 BUSHEY RD, PITTSFIELD, MA, 01201",3954373,"R"
228356,"50 BUSINESS PKWY SUITE 50 H","RICHARDSON","TX",75081,32.9393379580001,-96.738091653,356,"50 BUSINESS PKWY SUITE 50 H, RICHARDSON, TX, 75081","Match","Exact","50 BUSINESS PKWY, RICHARDSON, TX, 75081",640538122,"R"
228357,"50 BUZZARDS BAY AVENUE","WOODS HOLE","MA",2543,41.5304147530001,-70.66795024,357,"50 BUZZARDS BAY AVENUE, WOODS HOLE, MA, 2543","Match","Exact","50 BUZZARDS BAY AVE, WOODS HOLE, MA, 02543",121571377,"L"
228358,"50 CALLE DE SAN JUSTO","SAN JUAN","PR",918,NA,NA,358,"50 CALLE DE SAN JUSTO, SAN JUAN, PR, 918","No_Match",NA,NA,NA,NA
228359,"50 CALMES ST","CHARLES TOWN","WV",25414,39.266087057,-77.878594318,359,"50 CALMES ST, CHARLES TOWN, WV, 25414","Match","Exact","50 CALMES ST, CHARLES TOWN, WV, 25414",647535032,"L"
228360,"50 CAMPGROUND LANE","WILMORE","KY",40390,37.8545115140001,-84.6520102169999,360,"50 CAMPGROUND LANE, WILMORE, KY, 40390","Match","Exact","50 CAMPGROUND LN, WILMORE, KY, 40390",647319297,"R"
228361,"50 CAREER WAY","CENTRAL CITY","KY",42330,NA,NA,361,"50 CAREER WAY, CENTRAL CITY, KY, 42330","No_Match",NA,NA,NA,NA
228362,"50 CARMEL CT","ROSEBURG","OR",97471,43.1523045970001,-123.387620755,362,"50 CARMEL CT, ROSEBURG, OR, 97471","Match","Exact","50 CARMEL CT, ROSEBURG, OR, 97471",137218227,"L"
228363,"50 CARNOUSTIE ROAD","DOVER","DE",19904,39.1685008480001,-75.5633421489999,363,"50 CARNOUSTIE ROAD, DOVER, DE, 19904","Match","Exact","50 CARNOUSTIE RD, DOVER, DE, 19904",68088030,"R"
228364,"50 CARROLL DRIVE","WAPPINGERS FALLS","NY",12590,41.576322352,-73.8649035299999,364,"50 CARROLL DRIVE, WAPPINGERS FALLS, NY, 12590","Match","Exact","50 CARROLL DR, WAPPINGERS FALLS, NY, 12590",4174106,"R"
228365,"50 CASTLE DRIVE","SHARON","MA",2067,42.1049317580001,-71.1413217049999,365,"50 CASTLE DRIVE, SHARON, MA, 2067","Match","Exact","50 CASTLE DR, SHARON, MA, 02067",87263269,"R"
228366,"50 CAUSEWAY","LYMAN","ME",4002,43.5168278580001,-70.6847051619999,366,"50 CAUSEWAY, LYMAN, ME, 4002","Match","Exact","50 CAUSEWAY, LYMAN, ME, 04002",92785748,"R"
228367,"50 CEDARFIELD ROAD","SYOSSET","NY",11791,40.8491465020001,-73.46393836,367,"50 CEDARFIELD ROAD, SYOSSET, NY, 11791","Match","Exact","50 CEDARFIELD RD, SYOSSET, NY, 11791",147839874,"L"
228368,"50 CENTER STREET","FORT PLAIN","NY",13339,42.933069436,-74.625372649,368,"50 CENTER STREET, FORT PLAIN, NY, 13339","Match","Exact","50 CENTER ST, FORT PLAIN, NY, 13339",18611112,"R"
228369,"50 CENTRAL AVENUE","MADISON","NJ",7940,40.760553744,-74.4125145049999,369,"50 CENTRAL AVENUE, MADISON, NJ, 7940","Match","Exact","50 CENTRAL AVE, MADISON, NJ, 07940",60447985,"L"
228370,"50 CENTRAL CAMPUS DR RM3190","SALT LAKE CITY","UT",84112,40.7685967400001,-111.844661198,370,"50 CENTRAL CAMPUS DR RM3190, SALT LAKE CITY, UT, 84112","Match","Exact","50 CENTRAL CAMPUS DR, SALT LAKE CITY, UT, 84112",645878140,"R"
228371,"50 CENTRAL ISLAND ST UNIT 444","DANIEL ISLAND","SC",29492,32.8640263890001,-79.907214815,371,"50 CENTRAL ISLAND ST UNIT 444, DANIEL ISLAND, SC, 29492","Match","Exact","50 CENTRAL ISLAND ST, DANIEL ISLAND, SC, 29492",653319508,"R"
228372,"50 CENTRAL ISLAND STREET UNIT 403","CHARLESTON","SC",29492,32.8640263890001,-79.907214815,372,"50 CENTRAL ISLAND STREET UNIT 403, CHARLESTON, SC, 29492","Match","Exact","50 CENTRAL ISLAND ST, CHARLESTON, SC, 29492",653319508,"R"
228373,"50 CENTRE STREET UNIT 118","BROCKTON","MA",2301,42.0840686940001,-71.018369691,373,"50 CENTRE STREET UNIT 118, BROCKTON, MA, 2301","Match","Exact","50 CENTRE ST, BROCKTON, MA, 02301",87444008,"L"
228374,"50 CHARLESGATE E APT 194","BOSTON","MA",2215,42.346887209,-71.0927728349999,374,"50 CHARLESGATE E APT 194, BOSTON, MA, 2215","Match","Non_Exact","50 CHARLESGATE, BOSTON, MA, 02215",85723624,"R"
228375,"50 CHATEAU DRIVE","WHITESBORO","NY",13492,43.110833461,-75.324732603,375,"50 CHATEAU DRIVE, WHITESBORO, NY, 13492","Match","Exact","50 CHATEAU DR, WHITESBORO, NY, 13492",171526134,"R"
228376,"50 CHERYL ROAD","WEST SENECA","NY",14224,42.814256744,-78.7400106119999,376,"50 CHERYL ROAD, WEST SENECA, NY, 14224","Match","Exact","50 CHERYL RD, WEST SENECA, NY, 14224",48307942,"R"
228377,"50 CHIEFTAIN WAY","CHICKASAW","AL",36611,NA,NA,377,"50 CHIEFTAIN WAY, CHICKASAW, AL, 36611","No_Match",NA,NA,NA,NA
228378,"50 CHRISTOPHER COLUMBUS DR APT 2106","JERSEY CITY","NJ",7302,40.718612072,-74.0400671739999,378,"50 CHRISTOPHER COLUMBUS DR APT 2106, JERSEY CITY, NJ, 7302","Match","Exact","50 CHRISTOPHER COLUMBUS DR, JERSEY CITY, NJ, 07302",650131186,"R"
228379,"50 CHRISTOPHER COLUMBUS SR APT 3513","JERSEY CITY","NJ",7302,40.718612072,-74.0400671739999,379,"50 CHRISTOPHER COLUMBUS SR APT 3513, JERSEY CITY, NJ, 7302","Match","Non_Exact","50 CHRISTOPHER COLUMBUS DR, JERSEY CITY, NJ, 07302",650131186,"R"
228380,"50 CHUMASERO DRIVE APT 1K","SAN FRANCISCO","CA",94132,37.714467352,-122.473265527,380,"50 CHUMASERO DRIVE APT 1K, SAN FRANCISCO, CA, 94132","Match","Exact","50 CHUMASERO DR, SAN FRANCISCO, CA, 94132",641020919,"R"
228381,"50 CHURCH STREET SUITE 106","MONTCLAIR","NJ",7042,40.814180687,-74.219764421,381,"50 CHURCH STREET SUITE 106, MONTCLAIR, NJ, 7042","Match","Exact","50 CHURCH ST, MONTCLAIR, NJ, 07042",63478998,"L"
228382,"50 CIRCLE DRIVEWAY","TEANECK","NJ",7666,40.894497287,-73.999561442,382,"50 CIRCLE DRIVEWAY, TEANECK, NJ, 7666","Match","Non_Exact","50 CIRCLE DR, TEANECK, NJ, 07666",64412516,"R"
228383,"50 CLAY ST UNIT J2","FAIRBURN","GA",30213,33.568957353,-84.5738775459999,383,"50 CLAY ST UNIT J2, FAIRBURN, GA, 30213","Match","Exact","50 CLAY ST, FAIRBURN, GA, 30213",17350650,"L"
228384,"50 CLEARFIELD DRIVE","JACKSON","TN",38305,35.6927265080001,-88.8620801389999,384,"50 CLEARFIELD DRIVE, JACKSON, TN, 38305","Match","Exact","50 CLEARFIELD DR, JACKSON, TN, 38305",21331966,"R"
228385,"50 CLINTON ST 1A","NEW YORK","NY",10002,40.719734766,-73.984726603,385,"50 CLINTON ST 1A, NEW YORK, NY, 10002","Match","Exact","50 CLINTON ST, NEW YORK, NY, 10002",59654154,"L"
228386,"50 CLINTON STREET","HEMPSTEAD","NY",11550,40.7078082680001,-73.618967347,386,"50 CLINTON STREET, HEMPSTEAD, NY, 11550","Match","Exact","50 CLINTON ST, HEMPSTEAD, NY, 11550",147627308,"R"
228387,"50 COLONIAL DR","RANCHO MIRAGE","CA",92270,33.7954098590001,-116.41504762,387,"50 COLONIAL DR, RANCHO MIRAGE, CA, 92270","Match","Exact","50 COLONIAL DR, RANCHO MIRAGE, CA, 92270",195051051,"L"
228388,"50 COLUMBIA STREET APARTMENT 2E","NEW Y","NY",10002,40.7165116560001,-73.9805376739999,388,"50 COLUMBIA STREET APARTMENT 2E, NEW Y, NY, 10002","Match","Non_Exact","50 COLUMBIA ST, NEW YORK, NY, 10002",609806337,"R"
228389,"50 COLUMBIA STREET APT 3H","NEWARK","NJ",7102,40.7309758660001,-74.1697795009999,389,"50 COLUMBIA STREET APT 3H, NEWARK, NJ, 7102","Match","Exact","50 COLUMBIA ST, NEWARK, NJ, 07102",63467536,"L"
228390,"50 COLUMBIA STREET","NEWARK","NJ",7102,40.7309758660001,-74.1697795009999,390,"50 COLUMBIA STREET, NEWARK, NJ, 7102","Match","Exact","50 COLUMBIA ST, NEWARK, NJ, 07102",63467536,"L"
228391,"50 COLUMBIA STREET","WATERTOWN","MA",2472,42.370389071,-71.1784079999999,391,"50 COLUMBIA STREET, WATERTOWN, MA, 2472","Match","Exact","50 COLUMBIA ST, WATERTOWN, MA, 02472",86864760,"L"
228392,"50 COLVIN AVE LL1","ALBANY","NY",12206,42.678749311,-73.795455837,392,"50 COLVIN AVE LL1, ALBANY, NY, 12206","Match","Exact","50 COLVIN AVE, ALBANY, NY, 12206",18360408,"L"
228393,"50 CONGRESS ST","MILFORD","MA",1757,42.143680073,-71.5230684919999,393,"50 CONGRESS ST, MILFORD, MA, 1757","Match","Exact","50 CONGRESS ST, MILFORD, MA, 01757",40039567,"R"
228394,"50 COQUINA POINT DRIVE","ORMOND BEACH","FL",32174,29.262355282,-81.088710928,394,"50 COQUINA POINT DRIVE, ORMOND BEACH, FL, 32174","Match","Exact","50 COQUINA POINT DR, ORMOND BEACH, FL, 32174",94585805,"R"
228395,"50 CORPORATION YARD ROAD","ROSEVILLE","CA",95678,38.759096449,-121.295185988,395,"50 CORPORATION YARD ROAD, ROSEVILLE, CA, 95678","Match","Exact","50 CORPORATION YARD RD, ROSEVILLE, CA, 95678",637752498,"R"
228396,"50 COUNTY ROAD 597","HANCEVILLE","AL",35077,34.0936964300001,-86.7961409499999,396,"50 COUNTY ROAD 597, HANCEVILLE, AL, 35077","Match","Exact","50 CO RD 597, HANCEVILLE, AL, 35077",130226528,"L"
228397,"50 CROSS ROAD","SURRY","ME",4684,44.456516401,-68.4818950969999,397,"50 CROSS ROAD, SURRY, ME, 4684","Match","Exact","50 CROSS RD, SURRY, ME, 04684",625740636,"L"
228398,"50 DARTLEY STREET","STAMFORD","CT",6905,41.07935831,-73.543112149,398,"50 DARTLEY STREET, STAMFORD, CT, 6905","Match","Exact","50 DARTLEY ST, STAMFORD, CT, 06905",3242967,"L"
228399,"50 DEAUVILLE BLVD","COPIAGUE","NY",11726,40.668965461,-73.40284947,399,"50 DEAUVILLE BLVD, COPIAGUE, NY, 11726","Match","Exact","50 DEAUVILLE BLVD, COPIAGUE, NY, 11726",113973159,"R"
228400,"50 DEBRA PLACE","SEWAREN","NJ",7077,40.559180053,-74.2557040469999,400,"50 DEBRA PLACE, SEWAREN, NJ, 7077","Match","Exact","50 DEBRA PL, SEWAREN, NJ, 07077",645535491,"R"
228401,"50 DEPOT ST","WILDER","VT",5088,43.672868936,-72.308982516,401,"50 DEPOT ST, WILDER, VT, 5088","Match","Exact","50 DEPOT ST, WILDER, VT, 05088",139273023,"L"
228402,"50 DESERT SUNFLOWER CIRCLE","HENDERSON","NV",89002,35.9951399290001,-114.991859817,402,"50 DESERT SUNFLOWER CIRCLE, HENDERSON, NV, 89002","Match","Exact","50 DESERT SUNFLOWER CIR, HENDERSON, NV, 89002",612989022,"R"
228403,"50 DEVON DRIVE","EXTON","PA",19341,40.043804639,-75.661019156,403,"50 DEVON DRIVE, EXTON, PA, 19341","Match","Exact","50 DEVON DR, EXTON, PA, 19341",179487117,"L"
228404,"50 DEY ST UNIT 546","JERSEY CITY","NJ",7306,40.7374439770001,-74.066113106,404,"50 DEY ST UNIT 546, JERSEY CITY, NJ, 7306","Match","Exact","50 DEY ST, JERSEY CITY, NJ, 07306",59603913,"R"
228405,"50 DEY STREET LOFT 260","JERSEY CITY","NJ",7306,40.7374439770001,-74.066113106,405,"50 DEY STREET LOFT 260, JERSEY CITY, NJ, 7306","Match","Exact","50 DEY ST, JERSEY CITY, NJ, 07306",59603913,"R"
228406,"50 DEY STREET SUITE 260","JERSEY CITY","NJ",7306,40.7374439770001,-74.066113106,406,"50 DEY STREET SUITE 260, JERSEY CITY, NJ, 7306","Match","Exact","50 DEY ST, JERSEY CITY, NJ, 07306",59603913,"R"
228407,"50 DIAMOND LOOP","KINGSTON","SC",29556,33.7183316270001,-79.875266473,407,"50 DIAMOND LOOP, KINGSTON, SC, 29556","Match","Non_Exact","50 DIAMOND LOOP, KINGSTREE, SC, 29556",614647932,"R"
228408,"50 DICKENS STREET","SPRING ARBOR","MI",49283,42.2085419320001,-84.567067577,408,"50 DICKENS STREET, SPRING ARBOR, MI, 49283","Match","Exact","50 DICKENS ST, SPRING ARBOR, MI, 49283",627083050,"R"
228409,"50 DONALD DR","HASTINGS HDSN","NY",10706,40.982049424,-73.8602977039999,409,"50 DONALD DR, HASTINGS HDSN, NY, 10706","Match","Exact","50 DONALD DR, HASTINGS HDSN, NY, 10706",139781833,"L"
228410,"50 DONGAN HILLS AVENUE","STATEN ISLAND","NY",10306,40.588110956,-74.1008674569999,410,"50 DONGAN HILLS AVENUE, STATEN ISLAND, NY, 10306","Match","Exact","50 DONGAN HILLS AVE, STATEN ISLAND, NY, 10306",652645699,"R"
228411,"50 DORAL DR","SAINT PAULS","NC",28384,34.8373612140001,-78.965113919,411,"50 DORAL DR, SAINT PAULS, NC, 28384","Match","Non_Exact","50 DORAL PL, SAINT PAULS, NC, 28384",623992674,"R"
228412,"50 DORSET DRIVE","CANANDAIGUA","NY",14424,42.894230926,-77.30194074,412,"50 DORSET DRIVE, CANANDAIGUA, NY, 14424","Match","Exact","50 DORSET DR, CANANDAIGUA, NY, 14424",13471737,"L"
228413,"50 DOUGLAS AVE","STATEN ISLAND","NY",10310,40.623981853,-74.112630939,413,"50 DOUGLAS AVE, STATEN ISLAND, NY, 10310","Match","Exact","50 DOUGLAS AVE, STATEN ISLAND, NY, 10310",59866656,"R"
228414,"50 DOWNING AVENUE","NEWBUGH","NY",12550,41.523452349,-74.012095162,414,"50 DOWNING AVENUE, NEWBUGH, NY, 12550","Match","Non_Exact","50 DOWNING AVE, NEWBURGH, NY, 12550",124445778,"R"
228415,"50 DUDLEY AVENUE","NEWPORT","RI",2840,41.5076233460001,-71.305754867,415,"50 DUDLEY AVENUE, NEWPORT, RI, 2840","Match","Exact","50 DUDLEY AVE, NEWPORT, RI, 02840",47347041,"R"
228416,"50 DUFF ROAD APT 307","PITTSBURGH","PA",15235,40.462725925,-79.828049338,416,"50 DUFF ROAD APT 307, PITTSBURGH, PA, 15235","Match","Exact","50 DUFF RD, PITTSBURGH, PA, 15235",607695804,"R"
228417,"50 DURIE AVE","ENGLEWOOD","NJ",7631,40.905256084,-73.971857483,417,"50 DURIE AVE, ENGLEWOOD, NJ, 7631","Match","Exact","50 DURIE AVE, ENGLEWOOD, NJ, 07631",64375132,"L"
228418,"50 E 100 S STE 300","ST GEORGE","UT",84770,NA,NA,418,"50 E 100 S STE 300, ST GEORGE, UT, 84770","No_Match",NA,NA,NA,NA
228419,"50 E 100 S SUITE 101","SAINT GEORGE","UT",84770,NA,NA,419,"50 E 100 S SUITE 101, SAINT GEORGE, UT, 84770","No_Match",NA,NA,NA,NA
228420,"50 E 13TH ST UNIT 1010","KANSAS CITY","MO",64106,39.195967308,-94.683651926,420,"50 E 13TH ST UNIT 1010, KANSAS CITY, MO, 64106","Match","Non_Exact","50 13TH ST, KANSAS CITY, MO, 64152",636512186,"L"
228421,"50 E 26TH ST  APT 418","CHICAGO","IL",60616,NA,NA,421,"50 E 26TH ST  APT 418, CHICAGO, IL, 60616","Tie",NA,NA,NA,NA
228422,"50 E 26TH ST 418","CHICAGO","IL",60616,NA,NA,422,"50 E 26TH ST 418, CHICAGO, IL, 60616","Tie",NA,NA,NA,NA
228423,"50 E 4TH AVENUE","YORK","PA",17404,39.9739910600001,-76.7309544029999,423,"50 E 4TH AVENUE, YORK, PA, 17404","Match","Exact","50 E 4TH AVE, YORK, PA, 17404",611418601,"R"
228424,"50 E 72 ST APT 2D","NEW YORK","NY",10021,40.7715293420001,-73.964843167,424,"50 E 72 ST APT 2D, NEW YORK, NY, 10021","Match","Non_Exact","50 E 72ND ST, NEW YORK, NY, 10021",59657294,"R"
228425,"50 E 96TH ST APT 2A","NEW YORK","NY",10128,40.7871694020001,-73.954034167,425,"50 E 96TH ST APT 2A, NEW YORK, NY, 10128","Match","Non_Exact","50 E 96TH ST, NEW YORK, NY, 10128",59657855,"R"
228426,"50 E CHICAGO AVE 3W","CHICAGO","IL",60611,41.896714892,-87.6261182269999,426,"50 E CHICAGO AVE 3W, CHICAGO, IL, 60611","Match","Non_Exact","50 E CHICAGO AVE, CHICAGO, IL, 60611",616787107,"L"
228427,"50 E CONTINENTAL RD 1899","GREEN VALLEY","AZ",85622,31.8517824100001,-110.990984135,427,"50 E CONTINENTAL RD 1899, GREEN VALLEY, AZ, 85622","Match","Non_Exact","50 CONTINENTAL RD, GREEN VALLEY, AZ, 85614",121124149,"R"
228428,"50 E CR 500 N","ARTHUR","IL",61911,39.724727187,-88.462603987,428,"50 E CR 500 N, ARTHUR, IL, 61911","Match","Exact","50 E CO RD 500 N, ARTHUR, IL, 61911",5741012,"R"
228429,"50 E GREEN STREET ROOM 701","PASADENA","CA",91105,NA,NA,429,"50 E GREEN STREET ROOM 701, PASADENA, CA, 91105","Tie",NA,NA,NA,NA
228430,"50 E MAIN ST","HAZARD","KY",41701,NA,NA,430,"50 E MAIN ST, HAZARD, KY, 41701","No_Match",NA,NA,NA,NA
228431,"50 E MIDDLEFIELD RD  APT14","MOUNTAIN VIEW","CA",94043,37.398685895,-122.065557083,431,"50 E MIDDLEFIELD RD  APT14, MOUNTAIN VIEW, CA, 94043","Match","Non_Exact","50 E MIDDLEFIELD RD, MOUNTAIN VIEW, CA, 94043",614030533,"R"
228432,"50 E WALNUT STREET","CLEONA","PA",17042,NA,NA,432,"50 E WALNUT STREET, CLEONA, PA, 17042","Tie",NA,NA,NA,NA
228433,"50 E-BUSINESS WAY SUITE 125","CINCINNATI","OH",45241,NA,NA,433,"50 E-BUSINESS WAY SUITE 125, CINCINNATI, OH, 45241","No_Match",NA,NA,NA,NA
228434,"50 EAGLEVILLE ROAD","EAGLEVILLE","PA",19403,40.157379297,-75.4105505169999,434,"50 EAGLEVILLE ROAD, EAGLEVILLE, PA, 19403","Match","Exact","50 EAGLEVILLE RD, EAGLEVILLE, PA, 19403",135068904,"L"
228435,"50 EARLY STREET","MORRISTOWN","NJ",7960,40.8018504780001,-74.487294716,435,"50 EARLY STREET, MORRISTOWN, NJ, 7960","Match","Exact","50 EARLY ST, MORRISTOWN, NJ, 07960",629447362,"L"
228436,"50 EAST 42ND STREET SUITE 1501A","NEW YORK","NY",10017,40.7527166900001,-73.9790956479999,436,"50 EAST 42ND STREET SUITE 1501A, NEW YORK, NY, 10017","Match","Exact","50 E 42ND ST, NEW YORK, NY, 10017",59658648,"R"
228437,"50 EAST BROAD ST SUITE 105","BETHLEHEM","PA",18018,40.6222569340001,-75.376852205,437,"50 EAST BROAD ST SUITE 105, BETHLEHEM, PA, 18018","Match","Exact","50 E BROAD ST, BETHLEHEM, PA, 18018",136884951,"R"
228438,"50 EAST COMMERCE ST","BRIDGETON","NJ",8302,39.4298077220001,-75.2386199759999,438,"50 EAST COMMERCE ST, BRIDGETON, NJ, 8302","Match","Non_Exact","50 W COMMERCE ST, BRIDGETON, NJ, 08302",174107740,"L"
228439,"50 EAST FREEDOM WAY","CINCINNATI","OH",45202,39.097085076,-84.5110529839999,439,"50 EAST FREEDOM WAY, CINCINNATI, OH, 45202","Match","Exact","50 E FREEDOM WAY, CINCINNATI, OH, 45202",647377799,"L"
228440,"50 EAST PALISADE AVENUE SUITE 214","ENGLEWOOD","NJ",7631,40.8930743970001,-73.973447219,440,"50 EAST PALISADE AVENUE SUITE 214, ENGLEWOOD, NJ, 7631","Match","Exact","50 E PALISADE AVE, ENGLEWOOD, NJ, 07631",64375286,"R"
228441,"50 EAST PHILADELPHIA AVENUE","BOYERTOWN","PA",19512,40.332972279,-75.636482277,441,"50 EAST PHILADELPHIA AVENUE, BOYERTOWN, PA, 19512","Match","Exact","50 E PHILADELPHIA AVE, BOYERTOWN, PA, 19512",80445942,"R"
228442,"50 EAST RIVERCENTER BLVD SUITE 200","COVINGTON","KY",41011,39.089737337,-84.510669314,442,"50 EAST RIVERCENTER BLVD SUITE 200, COVINGTON, KY, 41011","Match","Non_Exact","50 RIVER CENTER BLVD, COVINGTON, KY, 41011",103894108,"L"
228443,"50 EAST RIVERCENTER BLVD SUITE 407","COVINGTON","KY",41011,39.089737337,-84.510669314,443,"50 EAST RIVERCENTER BLVD SUITE 407, COVINGTON, KY, 41011","Match","Non_Exact","50 RIVER CENTER BLVD, COVINGTON, KY, 41011",103894108,"L"
228444,"50 EAST ROBINSON STREET","ORLANDO","FL",32801,28.545669145,-81.377902632,444,"50 EAST ROBINSON STREET, ORLANDO, FL, 32801","Match","Exact","50 E ROBINSON ST, ORLANDO, FL, 32801",94281887,"R"
228445,"50 EAST SALADO PARKWAY SUITE 1100","TEMPE","AZ",85281,NA,NA,445,"50 EAST SALADO PARKWAY SUITE 1100, TEMPE, AZ, 85281","No_Match",NA,NA,NA,NA
228446,"50 EAST WASHINGTON STREET","CHAGRIN FALLS","OH",44022,41.4298913640001,-81.389527711,446,"50 EAST WASHINGTON STREET, CHAGRIN FALLS, OH, 44022","Match","Exact","50 E WASHINGTON ST, CHAGRIN FALLS, OH, 44022",61155653,"R"
228447,"50 EDGEHILL RD","ARLINGTON","MA",2474,42.4217704390001,-71.1554223209999,447,"50 EDGEHILL RD, ARLINGTON, MA, 2474","Match","Exact","50 EDGEHILL RD, ARLINGTON, MA, 02474",86888026,"L"
228448,"50 EDGEWOOD AVE","LONGMEADOW","MA",1106,42.060284612,-72.581768371,448,"50 EDGEWOOD AVE, LONGMEADOW, MA, 1106","Match","Exact","50 EDGEWOOD AVE, LONGMEADOW, MA, 01106",4038031,"R"
228449,"50 EDGEWOOD DRIVE","MARQUETTE","MI",49855,46.4646102340001,-87.3438374529999,449,"50 EDGEWOOD DRIVE, MARQUETTE, MI, 49855","Match","Exact","50 EDGEWOOD DR, MARQUETTE, MI, 49855",182041117,"R"
228450,"50 ELM STREET","BROCKTON","MA",2301,NA,NA,450,"50 ELM STREET, BROCKTON, MA, 2301","Tie",NA,NA,NA,NA
228451,"50 ELM STREET","MEDFORD","MA",2155,42.4374597300001,-71.100609085,451,"50 ELM STREET, MEDFORD, MA, 2155","Match","Exact","50 ELM ST, MEDFORD, MA, 02155",86922895,"L"
228452,"50 ESMOND STREET","SMITHFIELD","RI",2917,41.874124996,-71.5048575179999,452,"50 ESMOND STREET, SMITHFIELD, RI, 2917","Match","Exact","50 ESMOND ST, SMITHFIELD, RI, 02917",47450312,"R"
228453,"50 ESSEX ST","SAUGUS","MA",1906,42.448832677,-71.011672461,453,"50 ESSEX ST, SAUGUS, MA, 1906","Match","Exact","50 ESSEX ST, SAUGUS, MA, 01906",86636956,"L"
228454,"50 ESSEX","YOUNGSTOWN","OH",44502,41.0907557850001,-80.659089149,454,"50 ESSEX, YOUNGSTOWN, OH, 44502","Match","Non_Exact","50 ESSEX ST, YOUNGSTOWN, OH, 44502",64595413,"R"
228455,"50 ESTATE DRIVE","MORGANTOWN","WV",26508,39.6027710130001,-79.907884538,455,"50 ESTATE DRIVE, MORGANTOWN, WV, 26508","Match","Exact","50 ESTATE DR, MORGANTOWN, WV, 26508",50773003,"R"
228456,"50 F STREET NW STE 7020","WASHINGTON","DC",20001,NA,NA,456,"50 F STREET NW STE 7020, WASHINGTON, DC, 20001","No_Match",NA,NA,NA,NA
228457,"50 FARRIS BRANCH ROAD","WALLINGFORD","KY",41093,38.3424747540001,-83.598186158,457,"50 FARRIS BRANCH ROAD, WALLINGFORD, KY, 41093","Match","Exact","50 FARRIS BRANCH RD, WALLINGFORD, KY, 41093",54404267,"R"
228458,"50 FEDERAL STREET 9TH FLOOR","BOSTON","MA",2110,42.356189478,-71.056509351,458,"50 FEDERAL STREET 9TH FLOOR, BOSTON, MA, 2110","Match","Exact","50 FEDERAL ST, BOSTON, MA, 02110",85710232,"L"
228459,"50 FERRY ST APT 1C","MIDDLETOWN","CT",6457,41.5639404520001,-72.650509518,459,"50 FERRY ST APT 1C, MIDDLETOWN, CT, 6457","Match","Exact","50 FERRY ST, MIDDLETOWN, CT, 06457",113889557,"L"
228460,"50 FIELDSTONE CIRCLE","MIDDLEBORO","MA",2346,41.8116477120001,-70.8518872989999,460,"50 FIELDSTONE CIRCLE, MIDDLEBORO, MA, 2346","Match","Exact","50 FIELDSTONE CIR, MIDDLEBORO, MA, 02346",87465167,"L"
228461,"50 FIELDSTONE ROAD","BEDMINSTER","NJ",7901,NA,NA,461,"50 FIELDSTONE ROAD, BEDMINSTER, NJ, 7901","No_Match",NA,NA,NA,NA
228462,"50 FIELDSTONE ROAD","BEDMINSTER","NJ",7921,40.650962867,-74.636132375,462,"50 FIELDSTONE ROAD, BEDMINSTER, NJ, 7921","Match","Exact","50 FIELDSTONE RD, BEDMINSTER, NJ, 07921",59946298,"R"
228463,"50 FISCHER LANE","PALM COAST","FL",32137,29.5639084920001,-81.216395486,463,"50 FISCHER LANE, PALM COAST, FL, 32137","Match","Exact","50 FISCHER LN, PALM COAST, FL, 32137",94948598,"R"
228464,"50 FLEMISH WAY","LUMBERTON","NJ",8048,39.9600819030001,-74.792065876,464,"50 FLEMISH WAY, LUMBERTON, NJ, 8048","Match","Exact","50 FLEMISH WAY, LUMBERTON, NJ, 08048",134074305,"R"
228465,"50 FOREST STREET SUITE 1218","STAMFORD","CT",6901,41.0565913830001,-73.535515902,465,"50 FOREST STREET SUITE 1218, STAMFORD, CT, 6901","Match","Exact","50 FOREST ST, STAMFORD, CT, 06901",3245553,"L"
228466,"50 FOUNTAIN PLAZA SUITE 1700","BUFFALO","NY",14202,NA,NA,466,"50 FOUNTAIN PLAZA SUITE 1700, BUFFALO, NY, 14202","No_Match",NA,NA,NA,NA
228467,"50 FOUNTAIN VALLEY CT","SAINT PETERS","MO",63376,38.7747296260001,-90.655986694,467,"50 FOUNTAIN VALLEY CT, SAINT PETERS, MO, 63376","Match","Exact","50 FOUNTAIN VALLEY CT, SAINT PETERS, MO, 63376",617977652,"R"
228468,"50 FOURTH AVE 396","DAYTON","NV",89403,39.2402426850001,-119.589685483,468,"50 FOURTH AVE 396, DAYTON, NV, 89403","Match","Exact","50 4TH AVE, DAYTON, NV, 89403",140340621,"R"
228469,"50 FOURTH STREET SUITE C","POINT REYES STATION","CA",94956,38.068425147,-122.807209191,469,"50 FOURTH STREET SUITE C, POINT REYES STATION, CA, 94956","Match","Exact","50 4TH ST, POINT REYES STATION, CA, 94956",192755333,"R"
228470,"50 FOWLER ST","NEW HAVEN","CT",6515,41.3343036790001,-72.980362543,470,"50 FOWLER ST, NEW HAVEN, CT, 6515","Match","Exact","50 FOWLER ST, NEW HAVEN, CT, 06515",3697081,"L"
228471,"50 FRANCIS STREET","WETHERSFIELD","CT",6109,41.7158424670001,-72.658291892,471,"50 FRANCIS STREET, WETHERSFIELD, CT, 6109","Match","Exact","50 FRANCIS ST, WETHERSFIELD, CT, 06109",3541432,"L"
228472,"50 FRANKLIN ST","FRAMINGHAM","MA",1702,42.2779254970001,-71.4178351689999,472,"50 FRANKLIN ST, FRAMINGHAM, MA, 1702","Match","Exact","50 FRANKLIN ST, FRAMINGHAM, MA, 01702",86850280,"L"
228473,"50 FREDERICK STREET","RUMFORD","RI",2916,41.8442180060001,-71.362516926,473,"50 FREDERICK STREET, RUMFORD, RI, 2916","Match","Exact","50 FREDERICK ST, RUMFORD, RI, 02916",47473677,"L"
228474,"50 FRONT ST APT 223","BINGHAMTON","NY",13905,42.095176114,-75.91871595,474,"50 FRONT ST APT 223, BINGHAMTON, NY, 13905","Match","Exact","50 FRONT ST, BINGHAMTON, NY, 13905",46362339,"R"
228475,"50 GALLISON STREET","FRANKLIN","MA",2038,42.0715766450001,-71.405846605,475,"50 GALLISON STREET, FRANKLIN, MA, 2038","Match","Exact","50 GALLISON ST, FRANKLIN, MA, 02038",87260176,"R"
228476,"50 GEIL ST","SALINAS","CA",93901,36.6659666090001,-121.658266419,476,"50 GEIL ST, SALINAS, CA, 93901","Match","Exact","50 GEIL ST, SALINAS, CA, 93901",196819918,"R"
228477,"50 GEORGE APPLEBAY WAY HGR 94","MORIARTY","NM",87035,NA,NA,477,"50 GEORGE APPLEBAY WAY HGR 94, MORIARTY, NM, 87035","No_Match",NA,NA,NA,NA
228478,"50 GEORGE SCHAEFFER ST","WAKEFIELD","RI",2879,41.4508545690001,-71.508264507,478,"50 GEORGE SCHAEFFER ST, WAKEFIELD, RI, 2879","Match","Exact","50 GEORGE SCHAEFFER ST, WAKEFIELD, RI, 02879",58912833,"R"
228479,"50 GILES ROAD","EAST KINGSTON","NH",3827,42.948201689,-70.991641611,479,"50 GILES ROAD, EAST KINGSTON, NH, 3827","Match","Exact","50 GILES RD, EAST KINGSTON, NH, 03827",113710554,"L"
228480,"50 GLAY CT","COVINGTON","GA",30016,NA,NA,480,"50 GLAY CT, COVINGTON, GA, 30016","No_Match",NA,NA,NA,NA
228481,"50 GLEN STREET SUITE 308","GLEN COVE","NY",11542,40.863964045,-73.6307528519999,481,"50 GLEN STREET SUITE 308, GLEN COVE, NY, 11542","Match","Exact","50 GLEN ST, GLEN COVE, NY, 11542",147658093,"R"
228482,"50 GLORIA AVE","DRACUT","MA",1826,42.6888174790001,-71.325857291,482,"50 GLORIA AVE, DRACUT, MA, 1826","Match","Exact","50 GLORIA AVE, DRACUT, MA, 01826",86875223,"L"
228483,"50 GORDON ST APT 2","ALLSTON","MA",2134,42.3513839570001,-71.1400733,483,"50 GORDON ST APT 2, ALLSTON, MA, 2134","Match","Exact","50 GORDON ST, ALLSTON, MA, 02134",85695515,"L"
228484,"50 GRANDVIEW BLVD","READING","PA",19609,40.332109954,-75.983717332,484,"50 GRANDVIEW BLVD, READING, PA, 19609","Match","Exact","50 GRANDVIEW BLVD, READING, PA, 19609",80372441,"R"
228485,"50 GRANT 54","SHERIDAN","AR",72150,34.410167088,-92.48782098,485,"50 GRANT 54, SHERIDAN, AR, 72150","Match","Exact","50 GRANT 54, SHERIDAN, AR, 72150",2482720,"L"
228486,"50 GREENWOOD AVE A4","MONTCLAIR","NJ",7042,40.8133556700001,-74.212383382,486,"50 GREENWOOD AVE A4, MONTCLAIR, NJ, 7042","Match","Exact","50 GREENWOOD AVE, MONTCLAIR, NJ, 07042",63448883,"L"
228487,"50 GRISWOLD DRIVE","WEST HARTFORD","CT",6119,41.771283237,-72.7342169469999,487,"50 GRISWOLD DRIVE, WEST HARTFORD, CT, 6119","Match","Exact","50 GRISWOLD DR, WEST HARTFORD, CT, 06119",3493701,"R"
228488,"50 GROCE ROAD SUITE 204","LYMAN","SC",29365,34.952462489,-82.124239928,488,"50 GROCE ROAD SUITE 204, LYMAN, SC, 29365","Match","Exact","50 GROCE RD, LYMAN, SC, 29365",19460720,"R"
228489,"50 GUILFORD DR","WARWICK","RI",2886,41.7325435700001,-71.438022463,489,"50 GUILFORD DR, WARWICK, RI, 2886","Match","Exact","50 GUILFORD DR, WARWICK, RI, 02886",159146364,"L"
228490,"50 HAFER DRIVE","LEESPORT","PA",19533,40.4498045180001,-75.9628201199999,490,"50 HAFER DRIVE, LEESPORT, PA, 19533","Match","Non_Exact","50 E HAFER DR, LEESPORT, PA, 19533",634775246,"L"
228491,"50 HALSEY STREET UNIT 427H","NEWARK","NJ",7102,40.740992088,-74.170992084,491,"50 HALSEY STREET UNIT 427H, NEWARK, NJ, 7102","Match","Exact","50 HALSEY ST, NEWARK, NJ, 07102",63467439,"L"
228492,"50 HAMILTON WAY","YARMOUTH","ME",4096,43.758563968,-70.1472343729999,492,"50 HAMILTON WAY, YARMOUTH, ME, 4096","Match","Exact","50 HAMILTON WAY, YARMOUTH, ME, 04096",78041734,"R"
228493,"50 HARDING STREET","EWING","NJ",8618,40.266728959,-74.787211016,493,"50 HARDING STREET, EWING, NJ, 8618","Match","Non_Exact","50 HARDING AVE, EWING, NJ, 08618",60176639,"R"
228494,"50 HAREWOOD CT","AIKEN","SC",29803,33.4549422640001,-81.7434736069999,494,"50 HAREWOOD CT, AIKEN, SC, 29803","Match","Exact","50 HAREWOOD CT, AIKEN, SC, 29803",65008631,"R"
228495,"50 HARRINGTON RD","BROAD BROOK","CT",6016,41.9260696580001,-72.554961567,495,"50 HARRINGTON RD, BROAD BROOK, CT, 6016","Match","Exact","50 HARRINGTON RD, BROAD BROOK, CT, 06016",623942343,"L"
228496,"50 HARRISON STREET PH504","HOBOKEN","NJ",7030,40.746183935,-74.039897332,496,"50 HARRISON STREET PH504, HOBOKEN, NJ, 7030","Match","Exact","50 HARRISON ST, HOBOKEN, NJ, 07030",59610625,"R"
228497,"50 HARRISON STREET- PH 413","HOBOKEN","NJ",7030,40.746183935,-74.039897332,497,"50 HARRISON STREET- PH 413, HOBOKEN, NJ, 7030","Match","Non_Exact","50 HARRISON ST, HOBOKEN, NJ, 07030",59610625,"R"
228498,"50 HARRY S TRUMAN PARKWAY  ROOM 307","ANNAPOLIS","MD",21401,38.9816053270001,-76.564294848,498,"50 HARRY S TRUMAN PARKWAY  ROOM 307, ANNAPOLIS, MD, 21401","Match","Exact","50 HARRY S TRUMAN PKWY, ANNAPOLIS, MD, 21401",606913295,"L"
228499,"50 HARRY S TRUMAN PARKWAY","ANNAPOLIS","MD",21401,38.9816053270001,-76.564294848,499,"50 HARRY S TRUMAN PARKWAY, ANNAPOLIS, MD, 21401","Match","Exact","50 HARRY S TRUMAN PKWY, ANNAPOLIS, MD, 21401",606913295,"L"
228500,"50 HARTFORD STREET","FRAMINGHAM","MA",1702,NA,NA,500,"50 HARTFORD STREET, FRAMINGHAM, MA, 1702","No_Match",NA,NA,NA,NA
