"ID","Address","City","State","Zip","lat","long","id","input_address","match_indicator","match_type","matched_address","tiger_line_id","tiger_side"
73501,"157 BISHOP DR","AVONDALE","LA",70094,29.912754969,-90.2181206499999,1,"157 BISHOP DR, AVONDALE, LA, 70094","Match","Exact","157 BISHOP DR, AVONDALE, LA, 70094",93496714,"L"
73502,"157 BRAHMA AVENUE","BRIDGEWATER","NJ",8807,40.5655560540001,-74.661288607,2,"157 BRAHMA AVENUE, BRIDGEWATER, NJ, 8807","Match","Exact","157 BRAHMA AVE, BRIDGEWATER, NJ, 08807",59944826,"R"
73503,"157 BRIDGETON PIKE SUITE 310B","MULLICA HILL","NJ",8062,39.721738972,-75.2177236049999,3,"157 BRIDGETON PIKE SUITE 310B, MULLICA HILL, NJ, 8062","Match","Exact","157 BRIDGETON PIKE, MULLICA HILL, NJ, 08062",614106988,"R"
73504,"157 BROAD STREET","RED BANK","NJ",7701,40.347219265,-74.064994575,4,"157 BROAD STREET, RED BANK, NJ, 7701","Match","Exact","157 BROAD ST, RED BANK, NJ, 07701",90452282,"L"
73505,"157 BROOK HILL LANE","TROY","MO",63379,38.9055394760001,-90.95204265,5,"157 BROOK HILL LANE, TROY, MO, 63379","Match","Exact","157 BROOK HILL LN, TROY, MO, 63379",618454455,"R"
73506,"157 BRUSH RD","RICHMOND HTS","OH",44143,41.58162664,-81.4952895339999,6,"157 BRUSH RD, RICHMOND HTS, OH, 44143","Match","Exact","157 BRUSH RD, RICHMOND HEIGHTS, OH, 44143",61167635,"L"
73507,"157 CARMEL RIVIERA DR","CARMEL","CA",93923,36.4854048670001,-121.938647866,7,"157 CARMEL RIVIERA DR, CARMEL, CA, 93923","Match","Exact","157 CARMEL RIVIERA DR, CARMEL, CA, 93923",196876199,"R"
73508,"157 CHURCH STREET 12TH FLOOR","NEW HAVEN","CT",6510,41.306677689,-72.925300138,8,"157 CHURCH STREET 12TH FLOOR, NEW HAVEN, CT, 6510","Match","Exact","157 CHURCH ST, NEW HAVEN, CT, 06510",647240489,"R"
73509,"157 CHURCH STREET 19TH FLOOR","NEW HAVEN","CT",6511,NA,NA,9,"157 CHURCH STREET 19TH FLOOR, NEW HAVEN, CT, 6511","Tie",NA,NA,NA,NA
73510,"157 CLAREMONT GARDENS","OSSINING","NY",10562,NA,NA,10,"157 CLAREMONT GARDENS, OSSINING, NY, 10562","Tie",NA,NA,NA,NA
73511,"157 CLINTON AVE","LOWER BURRELL","PA",15068,40.5920092010001,-79.723259411,11,"157 CLINTON AVE, LOWER BURRELL, PA, 15068","Match","Exact","157 CLINTON AVE, LOWER BURRELL, PA, 15068",52960796,"R"
73512,"157 COUNTRY RIDGE DRIVE","REY BROOK","NY",10573,41.0309618570001,-73.688225286,12,"157 COUNTRY RIDGE DRIVE, REY BROOK, NY, 10573","Match","Non_Exact","157 COUNTRY RIDGE DR, RYE BROOK, NY, 10573",139761570,"L"
73513,"157 CR 104","OXFORD","MS",38655,34.42462591,-89.539580327,13,"157 CR 104, OXFORD, MS, 38655","Match","Exact","157 CO RD 104, OXFORD, MS, 38655",607273324,"L"
73514,"157 CRAVEN STREET","VALLEJO","CA",94590,38.114464377,-122.263099016,14,"157 CRAVEN STREET, VALLEJO, CA, 94590","Match","Exact","157 CRAVEN ST, VALLEJO, CA, 94590",192563631,"L"
73515,"157 CULVER ELLIS BLVD","KILLEN","AL",35645,34.889146731,-87.563165279,15,"157 CULVER ELLIS BLVD, KILLEN, AL, 35645","Match","Exact","157 CULVER ELLIS BLVD, KILLEN, AL, 35645",41336998,"L"
73516,"157 CUMNER ROAD","VIENNA","ME",4360,44.5335324390001,-70.0203853319999,16,"157 CUMNER ROAD, VIENNA, ME, 4360","Match","Exact","157 CUMNER RD, VIENNA, ME, 04360",75472345,"L"
73517,"157 DREGER","MEMPHIS","TN",38109,35.032711976,-90.0576720289999,17,"157 DREGER, MEMPHIS, TN, 38109","Match","Non_Exact","157 DREGER RD, MEMPHIS, TN, 38109",72909577,"R"
73518,"157 E 122 ST","CHICAGO","IL",60628,41.672609648,-87.6185011759999,18,"157 E 122 ST, CHICAGO, IL, 60628","Match","Exact","157 E 122ND ST, CHICAGO, IL, 60628",111777680,"R"
73519,"157 E 154TH ST","HARVEY","IL",60426,41.6099363280001,-87.646538995,19,"157 E 154TH ST, HARVEY, IL, 60426","Match","Exact","157 E 154TH ST, HARVEY, IL, 60426",605710459,"L"
73520,"157 E LINCOLN AVE","ROSELLE PARK","NJ",7204,NA,NA,20,"157 E LINCOLN AVE, ROSELLE PARK, NJ, 7204","Tie",NA,NA,NA,NA
73521,"157 E MAIN STREET","KUTZTOWN","PA",19530,40.5212069880001,-75.7745077979999,21,"157 E MAIN STREET, KUTZTOWN, PA, 19530","Match","Exact","157 E MAIN ST, KUTZTOWN, PA, 19530",80366435,"L"
73522,"157 E NORTH","FRESNO","CA",93706,36.692280392,-119.788244498,22,"157 E NORTH, FRESNO, CA, 93706","Match","Non_Exact","157 E NORTH AVE, FRESNO, CA, 93706",638184303,"R"
73523,"157 E SPRING VALLEY AVE","MAYWOOD","NJ",7607,NA,NA,23,"157 E SPRING VALLEY AVE, MAYWOOD, NJ, 7607","Tie",NA,NA,NA,NA
73524,"157 E SPRUCE ST","INGLEWOOD","CA",90301,33.9557751520001,-118.353443707,24,"157 E SPRUCE ST, INGLEWOOD, CA, 90301","Match","Non_Exact","157 E SPRUCE AVE, INGLEWOOD, CA, 90301",142750205,"L"
73525,"157 EAGLE ROCK AVENUE SUITE 121","ROSELAND","NJ",7068,40.820694578,-74.2929959529999,25,"157 EAGLE ROCK AVENUE SUITE 121, ROSELAND, NJ, 7068","Match","Exact","157 EAGLE ROCK AVE, ROSELAND, NJ, 07068",63482339,"L"
73526,"157 EAST 32ND STREET","NEW YORK","NY",10016,40.7448417310001,-73.979987964,26,"157 EAST 32ND STREET, NEW YORK, NY, 10016","Match","Exact","157 E 32ND ST, NEW YORK, NY, 10016",59654416,"L"
73527,"157 EAST BAY STREET","CHARLESTON","SC",29401,32.7783610180001,-79.926978424,27,"157 EAST BAY STREET, CHARLESTON, SC, 29401","Match","Exact","157 E BAY ST, CHARLESTON, SC, 29401",108807932,"L"
73528,"157 EAST PULASKI ROAD","HUNTINGTON STATION","NY",11746,40.8504068,-73.401829602,28,"157 EAST PULASKI ROAD, HUNTINGTON STATION, NY, 11746","Match","Exact","157 E PULASKI RD, HUNTINGTON STATION, NY, 11746",113965903,"R"
73529,"157 EAST RAMPART STREET","SHELBYVILLE","IN",46176,39.54746913,-85.774407218,29,"157 EAST RAMPART STREET, SHELBYVILLE, IN, 46176","Match","Exact","157 E RAMPART ST, SHELBYVILLE, IN, 46176",33229589,"L"
73530,"157 ELK LANE","LOCK HAVEN","PA",17745,41.1689897800001,-77.3944849599999,30,"157 ELK LANE, LOCK HAVEN, PA, 17745","Match","Exact","157 ELK LN, LOCK HAVEN, PA, 17745",77158105,"L"
73531,"157 FANO ST APT C","ARCADIA","CA",91006,34.133521144,-118.026462563,31,"157 FANO ST APT C, ARCADIA, CA, 91006","Match","Exact","157 FANO ST, ARCADIA, CA, 91006",141645229,"L"
73532,"157 FLEET STREET PH 14","OXON HILL","MD",20745,NA,NA,32,"157 FLEET STREET PH 14, OXON HILL, MD, 20745","No_Match",NA,NA,NA,NA
73533,"157 FRANCES LANE","GREENTOWN","PA",18426,41.331780447,-75.3006016479999,33,"157 FRANCES LANE, GREENTOWN, PA, 18426","Match","Exact","157 FRANCES LN, GREENTOWN, PA, 18426",648344072,"L"
73534,"157 GEERTSON CREEK ROAD","SALMON","ID",83467,45.145505803,-113.767242763,34,"157 GEERTSON CREEK ROAD, SALMON, ID, 83467","Match","Exact","157 GEERTSON CREEK RD, SALMON, ID, 83467",607536516,"R"
73535,"157 GRASS LAKE PLACE SUITE 208","SAINT PAUL","MN",55126,45.046926688,-93.1077116169999,35,"157 GRASS LAKE PLACE SUITE 208, SAINT PAUL, MN, 55126","Match","Exact","157 GRASS LAKE PL, SAINT PAUL, MN, 55126",642752921,"R"
73536,"157 HENDERSON PL","EAST WINDSOR","NJ",8520,40.257788105,-74.484655662,36,"157 HENDERSON PL, EAST WINDSOR, NJ, 8520","Match","Exact","157 HENDERSON PL, EAST WINDSOR, NJ, 08520",60201274,"L"
73537,"157 INVERNESS AVE","NEWNAN","GA",30263,33.371124842,-84.76462867,37,"157 INVERNESS AVE, NEWNAN, GA, 30263","Match","Exact","157 INVERNESS AVE, NEWNAN, GA, 30263",9352115,"R"
73538,"157 JAMACIA ST","SPRINGFIELD","MA",1119,42.136094986,-72.5019594949999,38,"157 JAMACIA ST, SPRINGFIELD, MA, 1119","Match","Non_Exact","157 JAMAICA ST, SPRINGFIELD, MA, 01119",636264030,"L"
73539,"157 JAMAICA STREET","SPRINGFIELD","MA",1119,42.136094986,-72.5019594949999,39,"157 JAMAICA STREET, SPRINGFIELD, MA, 1119","Match","Exact","157 JAMAICA ST, SPRINGFIELD, MA, 01119",636264030,"L"
73540,"157 JARIPOL CIRCLE","RANCHO MISSION VIEJO","CA",92694,33.5450547200001,-117.595027285,40,"157 JARIPOL CIRCLE, RANCHO MISSION VIEJO, CA, 92694","Match","Exact","157 JARIPOL CIR, RANCHO MISSION VIEJO, CA, 92694",651711612,"R"
73541,"157 JOHNSON FARM LANE","WOODSTOCK","GA",30188,34.111801508,-84.505521905,41,"157 JOHNSON FARM LANE, WOODSTOCK, GA, 30188","Match","Non_Exact","157 JOHNSTON FARM LN, WOODSTOCK, GA, 30188",641987318,"L"
73542,"157 JONES LN","VERSAILLES","KY",40383,37.9923802110001,-84.698130131,42,"157 JONES LN, VERSAILLES, KY, 40383","Match","Exact","157 JONES LN, VERSAILLES, KY, 40383",636696539,"L"
73543,"157 KNIGHT CIR UNIT 2","PAWLEYS ISLAND","SC",29585,33.4695289680001,-79.135972361,43,"157 KNIGHT CIR UNIT 2, PAWLEYS ISLAND, SC, 29585","Match","Exact","157 KNIGHT CIR, PAWLEYS ISLAND, SC, 29585",640074669,"R"
73544,"157 LAKESHORE DRIVE","RICHMOND","KY",40475,37.719853899,-84.328773376,44,"157 LAKESHORE DRIVE, RICHMOND, KY, 40475","Match","Exact","157 LAKESHORE DR, RICHMOND, KY, 40475",31986330,"R"
73545,"157 LITTLE JOHN LN","DIVIDE","CO",80814,38.925896505,-105.181445961,45,"157 LITTLE JOHN LN, DIVIDE, CO, 80814","Match","Exact","157 LITTLE JOHN LN, DIVIDE, CO, 80814",130940330,"L"
73546,"157 MAIN STREET WEST","WABASHA","MN",55981,44.383745414,-92.032258165,46,"157 MAIN STREET WEST, WABASHA, MN, 55981","Match","Exact","157 MAIN ST W, WABASHA, MN, 55981",31621267,"L"
73547,"157 MANCHESTER ST","LEOMINSTER","MA",1453,42.5165109120001,-71.768567746,47,"157 MANCHESTER ST, LEOMINSTER, MA, 1453","Match","Exact","157 MANCHESTER ST, LEOMINSTER, MA, 01453",40030368,"R"
73548,"157 MARDELLA WAY","HOLLY RIDGE","NC",28445,34.479437574,-77.516612349,48,"157 MARDELLA WAY, HOLLY RIDGE, NC, 28445","Match","Exact","157 MARDELLA WAY, HOLLY RIDGE, NC, 28445",647140428,"L"
73549,"157 MCCONNELL DR","LAWRENCEVILLE","GA",30046,33.964410887,-84.005228249,49,"157 MCCONNELL DR, LAWRENCEVILLE, GA, 30046","Match","Exact","157 MCCONNELL DR, LAWRENCEVILLE, GA, 30046",640547636,"L"
73550,"157 MELISSA LANE","WEST CHESTER","PA",19380,39.9678512690001,-75.5498696619999,50,"157 MELISSA LANE, WEST CHESTER, PA, 19380","Match","Non_Exact","157 MELISSA LN, WEST CHESTER, PA, 19382",641658093,"L"
73551,"157 METLARS LANE","PISCATAWAY","NJ",8854,40.5453926480001,-74.434421808,51,"157 METLARS LANE, PISCATAWAY, NJ, 8854","Match","Exact","157 METLARS LN, PISCATAWAY, NJ, 08854",60265225,"L"
73552,"157 METLARS LN","PISCATAWAY","NJ",8854,40.5453926480001,-74.434421808,52,"157 METLARS LN, PISCATAWAY, NJ, 8854","Match","Exact","157 METLARS LN, PISCATAWAY, NJ, 08854",60265225,"L"
73553,"157 N 3700 W PO BOX 1324","PAROWAN","UT",84761,37.8450868580001,-112.910446771,53,"157 N 3700 W PO BOX 1324, PAROWAN, UT, 84761","Match","Non_Exact","157 N 3700 W, PAROWAN, UT, 84761",624482748,"L"
73554,"157 N 87TH STREET","WAUWATOSA","WI",53226,43.0324458910001,-88.020769187,54,"157 N 87TH STREET, WAUWATOSA, WI, 53226","Match","Exact","157 N 87TH ST, WAUWATOSA, WI, 53226",77729525,"L"
73555,"157 NEWTOWN ROAD","HAMPTON BAYS","NY",11946,40.897871174,-72.52227275,55,"157 NEWTOWN ROAD, HAMPTON BAYS, NY, 11946","Match","Exact","157 NEWTOWN RD, HAMPTON BAYS, NY, 11946",114027166,"R"
73556,"157 NORTH STREAM DRIVE","AIKEN","SC",29805,33.645083474,-81.6613311899999,56,"157 NORTH STREAM DRIVE, AIKEN, SC, 29805","Match","Exact","157 N STREAM DR, AIKEN, SC, 29805",65015953,"L"
73557,"157 NW 88TH STREET","EL PORTAL","FL",33150,25.8556933790001,-80.2000938529999,57,"157 NW 88TH STREET, EL PORTAL, FL, 33150","Match","Exact","157 NW 88TH ST, EL PORTAL, FL, 33150",116006024,"R"
73558,"157 OLD UPTON ROAD","GRAFTON","MA",1519,42.192324559,-71.6606970029999,58,"157 OLD UPTON ROAD, GRAFTON, MA, 1519","Match","Exact","157 OLD UPTON RD, GRAFTON, MA, 01519",40093627,"L"
73559,"157 PATTON COURT","GRIFFIN","GA",30224,33.1765815520001,-84.3162979809999,59,"157 PATTON COURT, GRIFFIN, GA, 30224","Match","Exact","157 PATTON CT, GRIFFIN, GA, 30224",83675020,"L"
73560,"157 PENNSYLVANIA AVENUE","FREEPORT","NY",11520,40.661980064,-73.595677209,60,"157 PENNSYLVANIA AVENUE, FREEPORT, NY, 11520","Match","Exact","157 PENNSYLVANIA AVE, FREEPORT, NY, 11520",147631210,"L"
73561,"157 PEREGRINE COURT","WINTER SPRINGS","FL",32708,28.6870251620001,-81.231290114,61,"157 PEREGRINE COURT, WINTER SPRINGS, FL, 32708","Match","Exact","157 PEREGRINE CT, WINTER SPRINGS, FL, 32708",93773584,"R"
73562,"157 PEREGRINE LANE","HUMMELSTOWN","PA",17036,40.308806679,-76.7012544409999,62,"157 PEREGRINE LANE, HUMMELSTOWN, PA, 17036","Match","Exact","157 PEREGRINE LN, HUMMELSTOWN, PA, 17036",627623399,"L"
73563,"157 PINE BROOK RD","MONTVILLE","NJ",7045,40.8928662380001,-74.341017177,63,"157 PINE BROOK RD, MONTVILLE, NJ, 7045","Match","Exact","157 PINE BROOK RD, MONTVILLE, NJ, 07045",60429207,"R"
73564,"157 POPLIN RUN RD","ARGILLITTE","KY",41121,38.4974616260001,-82.846048315,64,"157 POPLIN RUN RD, ARGILLITTE, KY, 41121","Match","Non_Exact","157 POPLIN RUN, ARGILLITE, KY, 41121",151417429,"L"
73565,"157 PROSPECT ST","GARFIELD","NJ",7026,40.887431346,-74.113233426,65,"157 PROSPECT ST, GARFIELD, NJ, 7026","Match","Exact","157 PROSPECT ST, GARFIELD, NJ, 07026",64381967,"L"
73566,"157 REDSTONE WAY","BIRMINGHAM","AL",35215,33.6102196730001,-86.713214504,66,"157 REDSTONE WAY, BIRMINGHAM, AL, 35215","Match","Exact","157 REDSTONE WAY, BIRMINGHAM, AL, 35215",81567291,"L"
73567,"157 RIDGELAND","MAUMELLE","AR",72113,34.872751308,-92.423953835,67,"157 RIDGELAND, MAUMELLE, AR, 72113","Match","Non_Exact","157 RIDGELAND DR, MAUMELLE, AR, 72113",83537184,"R"
73568,"157 RIVERVIEW AVE APT 4","PITTSBURGH","PA",15214,40.4791001150001,-80.018735025,68,"157 RIVERVIEW AVE APT 4, PITTSBURGH, PA, 15214","Match","Exact","157 RIVERVIEW AVE, PITTSBURGH, PA, 15214",635647116,"L"
73569,"157 ROBSON TRAIL","MCDONOUGH","GA",30252,33.522885504,-84.072875401,69,"157 ROBSON TRAIL, MCDONOUGH, GA, 30252","Match","Exact","157 ROBSON TRL, MCDONOUGH, GA, 30252",619913973,"L"
73570,"157 RUTLAND ROAD","BROOKLYN","NY",11225,40.6591092990001,-73.955357234,70,"157 RUTLAND ROAD, BROOKLYN, NY, 11225","Match","Exact","157 RUTLAND RD, BROOKLYN, NY, 11225",59079528,"L"
73571,"157 S MCDONOUGH STREET","JONESBORO","GA",30236,33.518866175,-84.3540503679999,71,"157 S MCDONOUGH STREET, JONESBORO, GA, 30236","Match","Exact","157 S MCDONOUGH ST, JONESBORO, GA, 30236",23317101,"L"
73572,"157 S MOORE ROAD","COPPELL","TX",75019,32.9672884330001,-96.9766762959999,72,"157 S MOORE ROAD, COPPELL, TX, 75019","Match","Exact","157 S MOORE RD, COPPELL, TX, 75019",103174313,"R"
73573,"157 SHERWOOD DR","WESTLAKE VILLAGE","CA",91361,34.1323203050001,-118.811416087,73,"157 SHERWOOD DR, WESTLAKE VILLAGE, CA, 91361","Match","Exact","157 SHERWOOD DR, WESTLAKE VILLAGE, CA, 91361",641519464,"R"
73574,"157 SHORE ROAD","ELLSWORTH","ME",4605,44.561071702,-68.4436729029999,74,"157 SHORE ROAD, ELLSWORTH, ME, 4605","Match","Exact","157 SHORE RD, ELLSWORTH, ME, 04605",608812785,"R"
73575,"157 SOUTH KALAMAZOO MALL APT 406","KALAMAZOO","MI",49007,42.2908194250001,-85.5831909029999,75,"157 SOUTH KALAMAZOO MALL APT 406, KALAMAZOO, MI, 49007","Match","Exact","157 S KALAMAZOO MALL, KALAMAZOO, MI, 49007",12229028,"L"
73576,"157 SOUTH MONROE STREET","SPOKANE","WA",99201,47.6552238150001,-117.426510548,76,"157 SOUTH MONROE STREET, SPOKANE, WA, 99201","Match","Exact","157 S MONROE ST, SPOKANE, WA, 99201",605664377,"L"
73577,"157 SOUTH PROSPECT STREET","YORK","PA",17406,40.0029668380001,-76.603576617,77,"157 SOUTH PROSPECT STREET, YORK, PA, 17406","Match","Exact","157 S PROSPECT ST, YORK, PA, 17406",631651021,"L"
73578,"157 SOUTHWIND LN","WEST ST PAUL","MN",55118,44.9079280890001,-93.092240365,78,"157 SOUTHWIND LN, WEST ST PAUL, MN, 55118","Match","Exact","157 SOUTHWIND LN, W SAINT PAUL, MN, 55118",37915898,"R"
73579,"157 ST CATHERINE STREET","NATCHEZ","MS",39120,31.556432611,-91.3869010829999,79,"157 ST CATHERINE STREET, NATCHEZ, MS, 39120","Match","Exact","157 SAINT CATHERINE ST, NATCHEZ, MS, 39120",79845298,"R"
73580,"157 ST NICHOLAS AVENUE","BROOKLYN","NY",11237,40.7046409280001,-73.9167389579999,80,"157 ST NICHOLAS AVENUE, BROOKLYN, NY, 11237","Match","Exact","157 ST NICHOLAS AVE, BROOKLYN, NY, 11237",59082473,"L"
73581,"157 STONEBRIDGE BLVD APT 1135","EDMOND","OK",73013,35.6192833170001,-97.479827582,81,"157 STONEBRIDGE BLVD APT 1135, EDMOND, OK, 73013","Match","Exact","157 STONEBRIDGE BLVD, EDMOND, OK, 73013",633221845,"L"
73582,"157 SWAN LANE","VAUGHAN","MS",39179,32.837846638,-90.143061432,82,"157 SWAN LANE, VAUGHAN, MS, 39179","Match","Exact","157 SWAN LN, VAUGHAN, MS, 39179",607715987,"L"
73583,"157 TARA LANE","LUCEDALE","MS",39452,30.928237057,-88.5578638379999,83,"157 TARA LANE, LUCEDALE, MS, 39452","Match","Exact","157 TARA LN, LUCEDALE, MS, 39452",62292399,"L"
73584,"157 TENTHS STREET APT 2","BUFFALO","NY",14201,NA,NA,84,"157 TENTHS STREET APT 2, BUFFALO, NY, 14201","No_Match",NA,NA,NA,NA
73585,"157 UNIVERSITY AVE","AKRON","OH",44325,41.0776696290001,-81.515464971,85,"157 UNIVERSITY AVE, AKRON, OH, 44325","Match","Non_Exact","157 UNIVERSITY AVE, AKRON, OH, 44304",61341705,"L"
73586,"157 W 19TH ST","BAYONNE","NJ",7002,40.664634936,-74.1269656379999,86,"157 W 19TH ST, BAYONNE, NJ, 7002","Match","Exact","157 W 19TH ST, BAYONNE, NJ, 07002",59602352,"R"
73587,"157 W 32ND ST","DURANGO","CO",81301,37.300824237,-107.871679865,87,"157 W 32ND ST, DURANGO, CO, 81301","Match","Exact","157 W 32ND ST, DURANGO, CO, 81301",642435804,"R"
73588,"157 W 7065 S SUITE 2","MIDVALE","UT",84047,NA,NA,88,"157 W 7065 S SUITE 2, MIDVALE, UT, 84047","No_Match",NA,NA,NA,NA
73589,"157 W GRANADA BLVD","ORMOND BEACH","FL",32174,29.2838593130001,-81.060132661,89,"157 W GRANADA BLVD, ORMOND BEACH, FL, 32174","Match","Exact","157 W GRANADA BLVD, ORMOND BEACH, FL, 32174",94521580,"R"
73590,"157 WADE AVE","NILES","OH",44446,41.1902125440001,-80.7615357509999,90,"157 WADE AVE, NILES, OH, 44446","Match","Exact","157 WADE AVE, NILES, OH, 44446",117408798,"L"
73591,"157 WELLS MILL ROAD","WARETOWN","NJ",8758,39.791639714,-74.206456024,91,"157 WELLS MILL ROAD, WARETOWN, NJ, 8758","Match","Exact","157 WELLS MILL RD, WARETOWN, NJ, 08758",647796820,"R"
73592,"157 WEST GRENWICH STREET","READING","PA",19601,40.3446698010001,-75.9370926349999,92,"157 WEST GRENWICH STREET, READING, PA, 19601","Match","Non_Exact","157 W GREENWICH ST, READING, PA, 19601",80381482,"R"
73593,"157 WESTCOTT AVE","HAMILTON","NJ",8610,40.191132973,-74.7250224319999,93,"157 WESTCOTT AVE, HAMILTON, NJ, 8610","Match","Exact","157 WESTCOTT AVE, HAMILTON, NJ, 08610",60183688,"R"
73594,"157 YORKSHIRE DR","HEATH","TX",75032,32.8335727480001,-96.4587289629999,94,"157 YORKSHIRE DR, HEATH, TX, 75032","Match","Exact","157 YORKSHIRE DR, HEATH, TX, 75032",213564269,"L"
73595,"157-02 MEYER AVENUE","JAMAICA","NY",11434,40.6873222290001,-73.7899651509999,95,"157-02 MEYER AVENUE, JAMAICA, NY, 11434","Match","Exact","157-2 MEYER AVE, JAMAICA, NY, 11434",59714904,"R"
73596,"157-07 45TH AVENUE 3","FLUSHING","NY",11355,40.756753599,-73.8089164479999,96,"157-07 45TH AVENUE 3, FLUSHING, NY, 11355","Match","Exact","157-7 45TH AVE, FLUSHING, NY, 11355",652211816,"L"
73597,"157-10 RIVERSIDE DRIVE  APT 8V","NEW YORK","NY",10032,40.7912956000001,-73.9793419929999,97,"157-10 RIVERSIDE DRIVE  APT 8V, NEW YORK, NY, 10032","Match","Non_Exact","157 RIVERSIDE DR, NEW YORK, NY, 10024",59656609,"R"
73598,"157-10 RIVERSIDE DRIVE WEST APT 9W","NEW YORK","NY",10032,NA,NA,98,"157-10 RIVERSIDE DRIVE WEST APT 9W, NEW YORK, NY, 10032","Tie",NA,NA,NA,NA
73599,"157-12 BAISLEY BLVD","JAMAICA","NY",11434,40.6759503210001,-73.782885366,99,"157-12 BAISLEY BLVD, JAMAICA, NY, 11434","Match","Exact","157-12 BAISLEY BLVD, JAMAICA, NY, 11434",59715480,"R"
73600,"157-50 80TH STREET","HOWARD BEACH","NY",11414,40.6595004920001,-73.852650696,100,"157-50 80TH STREET, HOWARD BEACH, NY, 11414","Match","Exact","157-50 80TH ST, HOWARD BEACH, NY, 11414",59730320,"L"
73601,"157-57 17 RD","WHITESTONE","NY",11357,40.7826128660001,-73.8035942349999,101,"157-57 17 RD, WHITESTONE, NY, 11357","Match","Exact","157-57 17TH RD, WHITESTONE, NY, 11357",59701745,"L"
73602,"157","SPARTA","MI",49345,NA,NA,102,"157, SPARTA, MI, 49345","No_Match",NA,NA,NA,NA
73603,"1570 52ND STREET","BROOKLYN","NY",11219,40.629777002,-73.9879647609999,103,"1570 52ND STREET, BROOKLYN, NY, 11219","Match","Exact","1570 52ND ST, BROOKLYN, NY, 11219",59080320,"R"
73604,"1570 ARTHUR AVE","LAKEWOOD","OH",44107,41.481216417,-81.805000464,104,"1570 ARTHUR AVE, LAKEWOOD, OH, 44107","Match","Exact","1570 ARTHUR AVE, LAKEWOOD, OH, 44107",61100053,"R"
73605,"1570 BRENTWOOD DRIVE","TROY","MI",48098,42.594485794,-83.179893143,105,"1570 BRENTWOOD DRIVE, TROY, MI, 48098","Match","Exact","1570 BRENTWOOD DR, TROY, MI, 48098",69806795,"R"
73606,"1570 BROYLES LANE","INDIANAPOLIS","IN",46231,39.7409567820001,-86.334398354,106,"1570 BROYLES LANE, INDIANAPOLIS, IN, 46231","Match","Non_Exact","1570 BROYLES DR, INDIANAPOLIS, IN, 46231",612929958,"L"
73607,"1570 COUNTY ROAD 417","ELLSINORE","MO",63937,36.907156103,-90.6485467809999,107,"1570 COUNTY ROAD 417, ELLSINORE, MO, 63937","Match","Exact","1570 CO RD 417, ELLSINORE, MO, 63937",47383450,"R"
73608,"1570 DOVER CT","REDLANDS","CA",92374,34.067314503,-117.147230993,108,"1570 DOVER CT, REDLANDS, CA, 92374","Match","Exact","1570 DOVER CT, REDLANDS, CA, 92374",144966340,"L"
73609,"1570 E 8600 S","SANDY","UT",84093,40.5950372140001,-111.84680914,109,"1570 E 8600 S, SANDY, UT, 84093","Match","Exact","1570 E 8600 S, SANDY, UT, 84093",637522161,"R"
73610,"1570 EAST 14TH STREET   SUITE 6J","BROOKLYN","NY",11230,40.611121322,-73.959679625,110,"1570 EAST 14TH STREET   SUITE 6J, BROOKLYN, NY, 11230","Match","Exact","1570 E 14TH ST, BROOKLYN, NY, 11230",59089861,"R"
73611,"1570 ELIZABETH ST","GREEN BAY","WI",54302,44.520863913,-87.982749482,111,"1570 ELIZABETH ST, GREEN BAY, WI, 54302","Match","Exact","1570 ELIZABETH ST, GREEN BAY, WI, 54302",148103022,"R"
73612,"1570 ELMWOOD AVE UNIT 1502","EVANSTON","IL",60201,42.046204238,-87.683934433,112,"1570 ELMWOOD AVE UNIT 1502, EVANSTON, IL, 60201","Match","Exact","1570 ELMWOOD AVE, EVANSTON, IL, 60201",111743630,"L"
73613,"1570 HALLS VALLEY RD","TRION","GA",30753,34.6011845300001,-85.251904431,113,"1570 HALLS VALLEY RD, TRION, GA, 30753","Match","Exact","1570 HALLS VALLEY RD, TRION, GA, 30753",636277541,"L"
73614,"1570 I ROAD","DELTA","CO",81416,38.769970211,-108.070198143,114,"1570 I ROAD, DELTA, CO, 81416","Match","Exact","1570 I RD, DELTA, CO, 81416",636994495,"L"
73615,"1570 MACARTHUR BLVD","OAKLAND","CA",94602,37.800752086,-122.224425274,115,"1570 MACARTHUR BLVD, OAKLAND, CA, 94602","Match","Exact","1570 MACARTHUR BLVD, OAKLAND, CA, 94602",606075510,"L"
73616,"1570 MILL ACRES DR SW","ATLANTA","GA",30311,33.7131436,-84.471481016,116,"1570 MILL ACRES DR SW, ATLANTA, GA, 30311","Match","Exact","1570 MILL ACRES DR SW, ATLANTA, GA, 30311",17340712,"L"
73617,"1570 MORSE ROAD","COLUMBUS","OH",43215,40.0606062470001,-82.978092218,117,"1570 MORSE ROAD, COLUMBUS, OH, 43215","Match","Non_Exact","1570 MORSE RD, COLUMBUS, OH, 43229",218685562,"L"
73618,"1570 NORTH GENTRY","WICHITA","KS",67208,37.7106614320001,-97.290495252,118,"1570 NORTH GENTRY, WICHITA, KS, 67208","Match","Non_Exact","1570 N GENTRY ST, WICHITA, KS, 67208",115637686,"R"
73619,"1570 NW SERRANO LN","POWELL BUTTE","OR",97753,NA,NA,119,"1570 NW SERRANO LN, POWELL BUTTE, OR, 97753","No_Match",NA,NA,NA,NA
73620,"1570 OLD HWY 34","FAIRFIELD","IA",52556,NA,NA,120,"1570 OLD HWY 34, FAIRFIELD, IA, 52556","No_Match",NA,NA,NA,NA
73621,"1570 RAPID RIVER RUN","PLOVER","WI",54467,44.468977615,-89.520879008,121,"1570 RAPID RIVER RUN, PLOVER, WI, 54467","Match","Exact","1570 RAPID RIVER RUN, PLOVER, WI, 54467",615336890,"L"
73622,"1570 RIDGEWOOD AVENUE APT 2","LAKEWOOD","OH",44107,41.4793732210001,-81.7750838379999,122,"1570 RIDGEWOOD AVENUE APT 2, LAKEWOOD, OH, 44107","Match","Exact","1570 RIDGEWOOD AVE, LAKEWOOD, OH, 44107",61100630,"R"
73623,"1570 SAGEMONT WAY","WESTON","FL",33326,NA,NA,123,"1570 SAGEMONT WAY, WESTON, FL, 33326","No_Match",NA,NA,NA,NA
73624,"1570 SAN PASQUAL ST","PASADENA","CA",91106,34.1378131370001,-118.11787081,124,"1570 SAN PASQUAL ST, PASADENA, CA, 91106","Match","Exact","1570 SAN PASQUAL ST, PASADENA, CA, 91106",141632983,"R"
73625,"1570 SOQUEL DR STE 2","SANTA CRUZ","CA",95062,36.9886019470001,-121.983064887,125,"1570 SOQUEL DR STE 2, SANTA CRUZ, CA, 95062","Match","Non_Exact","1570 SOQUEL DR, SANTA CRUZ, CA, 95065",653163041,"R"
73626,"1570 STATE HIGHWAY 19","LYND","MN",56157,44.4436685090001,-95.979671974,126,"1570 STATE HIGHWAY 19, LYND, MN, 56157","Match","Exact","1570 STATE HWY 19, LYND, MN, 56157",605197896,"R"
73627,"1570 TENAKA PLACE STE 1","SUNNYVALE","CA",94087,37.342146692,-122.034592643,127,"1570 TENAKA PLACE STE 1, SUNNYVALE, CA, 94087","Match","Exact","1570 TENAKA PL, SUNNYVALE, CA, 94087",123001510,"L"
73628,"1570 TRALEE DRIVE","DRESHER","PA",19025,40.1555440070001,-75.168157112,128,"1570 TRALEE DRIVE, DRESHER, PA, 19025","Match","Exact","1570 TRALEE DR, DRESHER, PA, 19025",135078713,"L"
73629,"1570 W MAGGIO WAY 1042","CHANDLER","AZ",85224,NA,NA,129,"1570 W MAGGIO WAY 1042, CHANDLER, AZ, 85224","No_Match",NA,NA,NA,NA
73630,"1570 WEST FIRST AVE","COLUMBUS","OH",43212,39.9819393440001,-83.047102831,130,"1570 WEST FIRST AVE, COLUMBUS, OH, 43212","Match","Exact","1570 W 1ST AVE, COLUMBUS, OH, 43212",218650758,"R"
73631,"15700 EASTWOOD RD","MOUNT ORAB","OH",45154,NA,NA,131,"15700 EASTWOOD RD, MOUNT ORAB, OH, 45154","No_Match",NA,NA,NA,NA
73632,"15700 LEXINGTON BOULEVARD 1106","SUGAR LAND","TX",77478,29.5992190470001,-95.612839566,132,"15700 LEXINGTON BOULEVARD 1106, SUGAR LAND, TX, 77478","Match","Exact","15700 LEXINGTON BLVD, SUGAR LAND, TX, 77478",78267379,"L"
73633,"15700 MORNINGSTAR AVE","MAPLE HEIGHTS","OH",44137,41.3964570860001,-81.568415785,133,"15700 MORNINGSTAR AVE, MAPLE HEIGHTS, OH, 44137","Match","Non_Exact","15700 MORNING STAR AVE, MAPLE HEIGHTS, OH, 44137",61128614,"R"
73634,"15700 SPACE CENTER BOULEVARD","HOUSTON","TX",77062,29.576918763,-95.1206364619999,134,"15700 SPACE CENTER BOULEVARD, HOUSTON, TX, 77062","Match","Exact","15700 SPACE CENTER BLVD, HOUSTON, TX, 77062",96545798,"R"
73635,"15700 SWANSCOMBE LOOP","UPPER MARLBORO","MD",20774,38.8477700490001,-76.731156459,135,"15700 SWANSCOMBE LOOP, UPPER MARLBORO, MD, 20774","Match","Exact","15700 SWANSCOMBE LOOP, UPPER MARLBORO, MD, 20774",648122127,"R"
73636,"15700 W CLARY CIR","WAMEGO","KS",66547,39.2096855820001,-96.3501602709999,136,"15700 W CLARY CIR, WAMEGO, KS, 66547","Match","Exact","15700 CLARY CIR, WAMEGO, KS, 66547",651747475,"R"
73637,"15701 ASHLAND DR","LAUREL","MD",20707,39.104469583,-76.900040205,137,"15701 ASHLAND DR, LAUREL, MD, 20707","Match","Exact","15701 ASHLAND DR, LAUREL, MD, 20707",76325083,"R"
73638,"15701 LAKE STREET","OMAHA","NE",68116,41.2813620760001,-96.159224052,138,"15701 LAKE STREET, OMAHA, NE, 68116","Match","Exact","15701 LAKE ST, OMAHA, NE, 68116",117001430,"L"
73639,"15701 NORUS STREET","UPPER MARLBORO","MD",20772,38.8388355640001,-76.734525274,139,"15701 NORUS STREET, UPPER MARLBORO, MD, 20772","Match","Exact","15701 NORUS ST, UPPER MARLBORO, MD, 20772",644931697,"L"
73640,"15701 ROYAL RIDGE ROAD","SHERMAN OAKS","CA",91403,34.139518174,-118.475263302,140,"15701 ROYAL RIDGE ROAD, SHERMAN OAKS, CA, 91403","Match","Exact","15701 ROYAL RIDGE RD, SHERMAN OAKS, CA, 91403",141562035,"R"
73641,"15701 STATE ROAD 50 STE 205","CLERMONT","FL",34711,28.546688137,-81.696202233,141,"15701 STATE ROAD 50 STE 205, CLERMONT, FL, 34711","Match","Exact","15701 STATE RD 50, CLERMONT, FL, 34711",94170891,"L"
73642,"15701 WOODSHED PL","TAMPA","FL",33624,28.0926158460001,-82.538868389,142,"15701 WOODSHED PL, TAMPA, FL, 33624","Match","Exact","15701 WOODSHED PL, TAMPA, FL, 33624",104505763,"L"
73643,"15702 CRANBERRY COURT","DUMFRIES","VA",22025,38.6117111730001,-77.335291969,143,"15702 CRANBERRY COURT, DUMFRIES, VA, 22025","Match","Exact","15702 CRANBERRY CT, DUMFRIES, VA, 22025",76509331,"R"
73644,"15702 GLASTONBURY WAY","UPPER MARLBORO","MD",20774,38.8532838410001,-76.734194795,144,"15702 GLASTONBURY WAY, UPPER MARLBORO, MD, 20774","Match","Exact","15702 GLASTONBURY WAY, UPPER MARLBORO, MD, 20774",76417304,"R"
73645,"15702 STABLE VIEW CT","CYPRESS","TX",77429,30.003206087,-95.660431687,145,"15702 STABLE VIEW CT, CYPRESS, TX, 77429","Match","Exact","15702 STABLE VIEW CT, CYPRESS, TX, 77429",627761822,"L"
73646,"15703 93RD CIRCLE NE","OTSEGO","MN",55330,45.2855934200001,-93.566886529,146,"15703 93RD CIRCLE NE, OTSEGO, MN, 55330","Match","Exact","15703 93RD CIR NE, OTSEGO, MN, 55330",44002886,"L"
73647,"15703 DARROW RD","VERMILION","OH",44089,41.3911577800001,-82.353097722,147,"15703 DARROW RD, VERMILION, OH, 44089","Match","Exact","15703 DARROW RD, VERMILION, OH, 44089",647382190,"R"
73648,"15703 KNOLLTRAIL","SAN ANTONIO","TX",78247,29.583890984,-98.4149630919999,148,"15703 KNOLLTRAIL, SAN ANTONIO, TX, 78247","Match","Exact","15703 KNOLLTRAIL, SAN ANTONIO, TX, 78247",101577680,"L"
73649,"15703 NW 37TH PLACE","MIAMI","FL",33054,25.917185298,-80.261918266,149,"15703 NW 37TH PLACE, MIAMI, FL, 33054","Match","Non_Exact","15703 NW 37TH PL, MIAMI GARDENS, FL, 33054",116027489,"R"
73650,"15703 STILLER PARK DR","CYPRESS","TX",77429,29.9649635530001,-95.65984739,150,"15703 STILLER PARK DR, CYPRESS, TX, 77429","Match","Exact","15703 STILLER PARK DR, CYPRESS, TX, 77429",96559739,"R"
73651,"15703 STOUT","DETROIT","MI",48223,42.4043861220001,-83.241775216,151,"15703 STOUT, DETROIT, MI, 48223","Match","Non_Exact","15703 STOUT ST, DETROIT, MI, 48223",95422172,"L"
73652,"15703 SWANSCOMBE LOOP","UPPER MARLBORO","MD",20774,38.8477983830001,-76.731201213,152,"15703 SWANSCOMBE LOOP, UPPER MARLBORO, MD, 20774","Match","Exact","15703 SWANSCOMBE LOOP, UPPER MARLBORO, MD, 20774",648122127,"L"
73653,"15705 E PROGRESS CIR","CENTENNIAL","CO",80015,39.62216097,-104.805583701,153,"15705 E PROGRESS CIR, CENTENNIAL, CO, 80015","Match","Exact","15705 E PROGRESS CIR, CENTENNIAL, CO, 80015",177520883,"L"
73654,"15705 E PUMA DR","FOUNTAIN HILLS","AZ",85268,33.5849228020001,-111.741829074,154,"15705 E PUMA DR, FOUNTAIN HILLS, AZ, 85268","Match","Exact","15705 E PUMA DR, FOUNTAIN HILLS, AZ, 85268",128243892,"R"
73655,"15705 PAGE AVE","HARVEY","IL",60426,41.6042564530001,-87.65956596,155,"15705 PAGE AVE, HARVEY, IL, 60426","Match","Exact","15705 PAGE AVE, HARVEY, IL, 60426",111705702,"L"
73656,"15706 ALTO LINDA LANE","TAMPA","FL",33624,28.092065544,-82.520802475,156,"15706 ALTO LINDA LANE, TAMPA, FL, 33624","Match","Non_Exact","15706 ALTOLINDA LN, TAMPA, FL, 33624",648470239,"L"
73657,"15706 NEW GALE DRIVE","MIDLOTHIAN","VA",23112,37.4464799520001,-77.702171978,157,"15706 NEW GALE DRIVE, MIDLOTHIAN, VA, 23112","Match","Exact","15706 NEW GALE DR, MIDLOTHIAN, VA, 23112",650542467,"R"
73658,"15706 PERKINS LANE","BOWIE","MD",20716,38.9142360600001,-76.733509918,158,"15706 PERKINS LANE, BOWIE, MD, 20716","Match","Exact","15706 PERKINS LN, BOWIE, MD, 20716",76328362,"L"
73659,"15707 ATHENA DRIVE","FONTANA","CA",92336,34.128250468,-117.462331337,159,"15707 ATHENA DRIVE, FONTANA, CA, 92336","Match","Exact","15707 ATHENA DR, FONTANA, CA, 92336",614814125,"R"
73660,"15707 ERWIN COURT","BOWIE","MD",20716,38.9477289800001,-76.729928802,160,"15707 ERWIN COURT, BOWIE, MD, 20716","Match","Exact","15707 ERWIN CT, BOWIE, MD, 20716",76350014,"R"
73661,"15707 FRY ST","PLYMOUTH","MI",48170,42.398788128,-83.4456440819999,161,"15707 FRY ST, PLYMOUTH, MI, 48170","Match","Exact","15707 FRY ST, PLYMOUTH, MI, 48170",629090567,"L"
73662,"15707 MONTESA DR","HOUSTON","TX",77083,29.6898137150001,-95.6615511859999,162,"15707 MONTESA DR, HOUSTON, TX, 77083","Match","Exact","15707 MONTESA DR, HOUSTON, TX, 77083",78265112,"R"
73663,"15707 SHELDON RIDGE WAY","HOUSTON","TX",77044,29.877333406,-95.1372377929999,163,"15707 SHELDON RIDGE WAY, HOUSTON, TX, 77044","Match","Exact","15707 SHELDON RIDGE WAY, HOUSTON, TX, 77044",625207900,"R"
73664,"15707 WISTERIA HILL ST","HOUSTON","TX",77073,30.0008909470001,-95.407246371,164,"15707 WISTERIA HILL ST, HOUSTON, TX, 77073","Match","Exact","15707 WISTERIA HILL ST, HOUSTON, TX, 77073",625185421,"L"
73665,"15708 DORSET ROAD SUITE 201","LAUREL","MD",20707,39.106050958,-76.877152549,165,"15708 DORSET ROAD SUITE 201, LAUREL, MD, 20707","Match","Exact","15708 DORSET RD, LAUREL, MD, 20707",76325367,"L"
73666,"15708 E CHICORY DRIVE","FOUNTAIN HILLS","AZ",85268,33.600901913,-111.74144634,166,"15708 E CHICORY DRIVE, FOUNTAIN HILLS, AZ, 85268","Match","Exact","15708 CHICORY DR, FOUNTAIN HILLS, AZ, 85268",128190632,"L"
73667,"15708 LARSON ROAD","ALTURA","MN",55910,44.1135251900001,-92.049826965,167,"15708 LARSON ROAD, ALTURA, MN, 55910","Match","Exact","15708 LARSON RD, ALTURA, MN, 55910",31670658,"R"
73668,"15708 MOUNT OAK ROAD","BOWIE","MD",20716,38.9257821040001,-76.7326999479999,168,"15708 MOUNT OAK ROAD, BOWIE, MD, 20716","Match","Exact","15708 MOUNT OAK RD, BOWIE, MD, 20716",76328331,"L"
73669,"15708 VAN NESS AVE APT 2","GARDENA","CA",90249,33.887823457,-118.317807266,169,"15708 VAN NESS AVE APT 2, GARDENA, CA, 90249","Match","Exact","15708 VAN NESS AVE, GARDENA, CA, 90249",141666446,"L"
73670,"15709 MORNING STAR AVE","MAPLE HEIGHTS","OH",44137,41.3964680510001,-81.5683854919999,170,"15709 MORNING STAR AVE, MAPLE HEIGHTS, OH, 44137","Match","Exact","15709 MORNING STAR AVE, MAPLE HEIGHTS, OH, 44137",61128614,"L"
73671,"15709 NE 93RD ST","VANCOUVER","WA",98682,45.689852117,-122.510928604,171,"15709 NE 93RD ST, VANCOUVER, WA, 98682","Match","Exact","15709 NE 93RD ST, VANCOUVER, WA, 98682",158357928,"R"
73672,"15709 OLIVE BRANCH DR","LA MIRADA","CA",90638,33.9129769530001,-117.996476731,172,"15709 OLIVE BRANCH DR, LA MIRADA, CA, 90638","Match","Exact","15709 OLIVE BRANCH DR, LA MIRADA, CA, 90638",649827842,"L"
73673,"1571 210TH STREET","WINTERSET","IA",50273,41.3447072100001,-94.1303515119999,173,"1571 210TH STREET, WINTERSET, IA, 50273","Match","Exact","1571 210TH ST, WINTERSET, IA, 50273",635884663,"L"
73674,"1571 BASS BLVD","DUNEDIN","FL",34698,28.0260869800001,-82.780242689,174,"1571 BASS BLVD, DUNEDIN, FL, 34698","Match","Exact","1571 BASS BLVD, DUNEDIN, FL, 34698",124665204,"R"
73675,"1571 BEVERLY BLVD","LOS ANGELES","CA",90026,34.063204485,-118.262577391,175,"1571 BEVERLY BLVD, LOS ANGELES, CA, 90026","Match","Exact","1571 BEVERLY BLVD, LOS ANGELES, CA, 90026",141616606,"R"
73676,"1571 BLOOMINGBURG NEW HOLLAND ROAD","BLOOMINGBURG","OH",43106,39.583950095,-83.42938581,176,"1571 BLOOMINGBURG NEW HOLLAND ROAD, BLOOMINGBURG, OH, 43106","Match","Non_Exact","1571 BLOOMINGBURG NEW HOLLAND RD NE, BLOOMINGBURG, OH, 43106",119059752,"L"
73677,"1571 DESERT GOLD","BOERNE","TX",78006,29.7862095130001,-98.586925147,177,"1571 DESERT GOLD, BOERNE, TX, 78006","Match","Exact","1571 DESERT GOLD, BOERNE, TX, 78006",72239284,"R"
73678,"1571 E 30 N","ST GEORGE","UT",84790,37.1086121390001,-113.550231958,178,"1571 E 30 N, ST GEORGE, UT, 84790","Match","Exact","1571 E 30 N, SAINT GEORGE, UT, 84790",166193520,"L"
73679,"1571 EAST DUVAL ST","LAKE CITY","FL",32055,30.189284607,-82.6257498369999,179,"1571 EAST DUVAL ST, LAKE CITY, FL, 32055","Match","Exact","1571 E DUVAL ST, LAKE CITY, FL, 32055",606850250,"R"
73680,"1571 FULTON AVENUE APT 4A","BRONX","NY",10457,40.8382209590001,-73.89966083,180,"1571 FULTON AVENUE APT 4A, BRONX, NY, 10457","Match","Exact","1571 FULTON AVE, BRONX, NY, 10457",80301348,"L"
73681,"1571 GIRARD WAY 6","BOURBONNAIS","IL",60914,41.1689961700001,-87.839186976,181,"1571 GIRARD WAY 6, BOURBONNAIS, IL, 60914","Match","Exact","1571 GIRARD WAY, BOURBONNAIS, IL, 60914",98364681,"L"
73682,"1571 GREAT ROAD","SKILLMAN","NJ",8558,40.39723423,-74.701779099,182,"1571 GREAT ROAD, SKILLMAN, NJ, 8558","Match","Exact","1571 GREAT RD, SKILLMAN, NJ, 08558",59999407,"R"
73683,"1571 JOSLYN ROAD","MUSKEGON","MI",49445,43.281268432,-86.2251570729999,183,"1571 JOSLYN ROAD, MUSKEGON, MI, 49445","Match","Exact","1571 JOSLYN RD, MUSKEGON, MI, 49445",77650233,"L"
73684,"1571 KENSINGTON DR","ALGONQUIN","IL",60102,42.1530988480001,-88.3188349339999,184,"1571 KENSINGTON DR, ALGONQUIN, IL, 60102","Match","Exact","1571 KENSINGTON DR, ALGONQUIN, IL, 60102",119531671,"R"
73685,"1571 RED SPRINGS RD","GURDON","AR",71743,33.909935067,-93.123742732,185,"1571 RED SPRINGS RD, GURDON, AR, 71743","Match","Exact","1571 RED SPRINGS RD, GURDON, AR, 71743",629783503,"L"
73686,"1571 SHERIDAN AVENUE","BRONX","NY",10457,40.8420879820001,-73.9110641839999,186,"1571 SHERIDAN AVENUE, BRONX, NY, 10457","Match","Exact","1571 SHERIDAN AVE, BRONX, NY, 10457",640810278,"L"
73687,"1571 SUNSET DRIVE","LIVERMORE","CA",94551,37.6913480870001,-121.780873374,187,"1571 SUNSET DRIVE, LIVERMORE, CA, 94551","Match","Exact","1571 SUNSET DR, LIVERMORE, CA, 94551",125018490,"R"
73688,"1571 VARNUM AVE","LOWELL","MA",1854,42.654019362,-71.3803970659999,188,"1571 VARNUM AVE, LOWELL, MA, 1854","Match","Exact","1571 VARNUM AVE, LOWELL, MA, 01854",87120652,"R"
73689,"15710 124TH AVE NE","WOODINVILLE","WA",98072,47.7426828230001,-122.174991349,189,"15710 124TH AVE NE, WOODINVILLE, WA, 98072","Match","Exact","15710 124TH AVE NE, WOODINVILLE, WA, 98072",239757926,"R"
73690,"15710 CEDAR LANE","BASEHOR","KS",66007,39.1060581950001,-94.9451011,190,"15710 CEDAR LANE, BASEHOR, KS, 66007","Match","Exact","15710 CEDAR LN, BASEHOR, KS, 66007",91410254,"L"
73691,"15710 EL ESTADO APT 206","DALLAS","TX",75248,32.9626596790001,-96.7719258879999,191,"15710 EL ESTADO APT 206, DALLAS, TX, 75248","Match","Non_Exact","15710 EL ESTADO DR, DALLAS, TX, 75248",103211357,"R"
73692,"15710 RAYNOR CT","MISSOURI CITY","TX",77489,29.59913017,-95.485152227,192,"15710 RAYNOR CT, MISSOURI CITY, TX, 77489","Match","Exact","15710 RAYNOR CT, MISSOURI CITY, TX, 77489",78278258,"R"
73693,"15710 W 66TH PL","ARVADA","CO",80007,39.816556409,-105.17630157,193,"15710 W 66TH PL, ARVADA, CO, 80007","Match","Exact","15710 W 66TH PL, ARVADA, CO, 80007",177732820,"L"
73694,"15710 W SOUTHWEST BLVD","CLEARWATER","KS",67026,37.5907269260001,-97.522081677,194,"15710 W SOUTHWEST BLVD, CLEARWATER, KS, 67026","Match","Exact","15710 W SOUTHWEST BLVD, CLEARWATER, KS, 67026",115627328,"L"
73695,"15710 W WILSHIRE DR","GOODYEAR","AZ",85395,33.4741728120001,-112.398674623,195,"15710 W WILSHIRE DR, GOODYEAR, AZ, 85395","Match","Exact","15710 W WILSHIRE DR, GOODYEAR, AZ, 85395",618472920,"R"
73696,"15711 E WELLESLEY AVE","SPOKANE","WA",99217,47.7004835320001,-117.193915964,196,"15711 E WELLESLEY AVE, SPOKANE, WA, 99217","Match","Non_Exact","15711 E WELLESLEY AVE, SPOKANE, WA, 99216",189890016,"L"
73697,"15712 BOVINE PL","TAMPA","FL",33624,28.093539836,-82.532826187,197,"15712 BOVINE PL, TAMPA, FL, 33624","Match","Exact","15712 BOVINE PL, TAMPA, FL, 33624",104661394,"R"
73698,"15712 COPPER BEECH DRIVE","UPPER MARLBORO","MD",20774,38.8543571760001,-76.7323503269999,198,"15712 COPPER BEECH DRIVE, UPPER MARLBORO, MD, 20774","Match","Exact","15712 COPPER BEECH DR, UPPER MARLBORO, MD, 20774",76417283,"L"
73699,"15712 HEYWOOD WAY","APPLE VALLEY","MN",55124,44.7226550180001,-93.236590204,199,"15712 HEYWOOD WAY, APPLE VALLEY, MN, 55124","Match","Exact","15712 HEYWOOD WAY, APPLE VALLEY, MN, 55124",37906627,"R"
73700,"15712 LAVERGNE AVE","OAK FOREST","IL",60452,41.606501463,-87.741497225,200,"15712 LAVERGNE AVE, OAK FOREST, IL, 60452","Match","Exact","15712 LAVERGNE AVE, OAK FOREST, IL, 60452",111703486,"R"
73701,"15712 NE 28TH CIRCLE","VANCOUVER","WA",98686,45.7354387030001,-122.642198425,201,"15712 NE 28TH CIRCLE, VANCOUVER, WA, 98686","Match","Non_Exact","15712 NE 28TH CT, VANCOUVER, WA, 98686",624769305,"L"
73702,"15712 NW 140TH STREET","ALACHUA","FL",32615,NA,NA,202,"15712 NW 140TH STREET, ALACHUA, FL, 32615","No_Match",NA,NA,NA,NA
73703,"15712 NW HITE CENTER RD","SEABECK","WA",98380,47.5969493310001,-122.859689439,203,"15712 NW HITE CENTER RD, SEABECK, WA, 98380","Match","Exact","15712 NW HITE CENTER RD, SEABECK, WA, 98380",633264427,"R"
73704,"15713 MAYBERRY PLACE LANE","HUNTERSVILLE","NC",28078,35.421883334,-80.881716854,204,"15713 MAYBERRY PLACE LANE, HUNTERSVILLE, NC, 28078","Match","Exact","15713 MAYBERRY PLACE LN, HUNTERSVILLE, NC, 28078",70519832,"R"
73705,"15714 CROOKED ARROW DR","SUGAR LAND","TX",77498,29.67460033,-95.663955737,205,"15714 CROOKED ARROW DR, SUGAR LAND, TX, 77498","Match","Exact","15714 CROOKED ARROW DR, SUGAR LAND, TX, 77498",624718997,"L"
73706,"15714 PLYMOUTH ROAD","DETROIT","MI",47227,42.3725288570001,-83.20019895,206,"15714 PLYMOUTH ROAD, DETROIT, MI, 47227","Match","Non_Exact","15714 PLYMOUTH RD, DETROIT, MI, 48227",95439811,"R"
73707,"15714 S PRINCE DRIVE","SOUTH HOLLAND","IL",60473,41.6093788530001,-87.583647254,207,"15714 S PRINCE DRIVE, SOUTH HOLLAND, IL, 60473","Match","Exact","15714 PRINCE DR, SOUTH HOLLAND, IL, 60473",111780429,"R"
73708,"15714 SLOWIK COURT","FONTANA","CA",92336,NA,NA,208,"15714 SLOWIK COURT, FONTANA, CA, 92336","No_Match",NA,NA,NA,NA
73709,"15715 CANNION FALLS DR","TOMBALL","TX",77377,30.0015016610001,-95.60202766,209,"15715 CANNION FALLS DR, TOMBALL, TX, 77377","Match","Exact","15715 CANNION FALLS DR, TOMBALL, TX, 77377",96004248,"L"
73710,"15715 MARKHAM DRIVE","CLERMONT","FL",34715,28.393002661,-81.6942211579999,210,"15715 MARKHAM DRIVE, CLERMONT, FL, 34715","Match","Non_Exact","15715 MARKHAM DR, CLERMONT, FL, 34714",94215698,"R"
73711,"15715 RILL LN","HOUSTON","TX",77062,29.5634209290001,-95.136550035,211,"15715 RILL LN, HOUSTON, TX, 77062","Match","Exact","15715 RILL LN, HOUSTON, TX, 77062",96114747,"L"
73712,"15715 S DIXIE HIGHWAY SUITE 406","MIAMI","FL",33157,25.6247559060001,-80.3430072479999,212,"15715 S DIXIE HIGHWAY SUITE 406, MIAMI, FL, 33157","Match","Non_Exact","15715 S DIXIE HWY, MIAMI, FL, 33157",116280641,"R"
73713,"15715 WILD OAK LANE","ROLAND","AR",72135,34.8942551910001,-92.5360820019999,213,"15715 WILD OAK LANE, ROLAND, AR, 72135","Match","Exact","15715 WILD OAK LN, ROLAND, AR, 72135",650976645,"L"
73714,"15715 WINTERS LN","RIVERSIDE","CA",92504,33.8582808620001,-117.382903611,214,"15715 WINTERS LN, RIVERSIDE, CA, 92504","Match","Exact","15715 WINTERS LN, RIVERSIDE, CA, 92504",194859642,"L"
73715,"15716 BOONES WAY","LAKE OSWEGO","OR",97035,45.4120940380001,-122.71495382,215,"15716 BOONES WAY, LAKE OSWEGO, OR, 97035","Match","Exact","15716 BOONES WAY, LAKE OSWEGO, OR, 97035",157926445,"L"
73716,"15716 JAMES THOMAS CT","EDMOND","OK",73013,35.6299280490001,-97.5756340089999,216,"15716 JAMES THOMAS CT, EDMOND, OK, 73013","Match","Exact","15716 JAMES THOMAS CT, EDMOND, OK, 73013",625584009,"L"
73717,"15716 MACARTHUR DR - UNIT C","NORTH LITTLE ROCK","AR",72118,34.877048969,-92.347129316,217,"15716 MACARTHUR DR - UNIT C, NORTH LITTLE ROCK, AR, 72118","Match","Exact","15716 MACARTHUR DR, N LITTLE ROCK, AR, 72118",647726171,"R"
73718,"15716 SATICOY STREET UNIT 40","VAN NUYS","CA",91406,34.208436218,-118.475404549,218,"15716 SATICOY STREET UNIT 40, VAN NUYS, CA, 91406","Match","Exact","15716 SATICOY ST, VAN NUYS, CA, 91406",141549236,"L"
73719,"15716 SUMMIT VIEW LANE","NORTH LITTLE ROCK","AR",72113,34.8996750920001,-92.442605755,219,"15716 SUMMIT VIEW LANE, NORTH LITTLE ROCK, AR, 72113","Match","Exact","15716 SUMMIT VIEW LN, N LITTLE ROCK, AR, 72113",642519518,"L"
73720,"15716 THRUSH GATE LANE","SAN ANTONIO","TX",78248,29.59632959,-98.525015853,220,"15716 THRUSH GATE LANE, SAN ANTONIO, TX, 78248","Match","Exact","15716 THRUSH GATE LN, SAN ANTONIO, TX, 78248",101567134,"R"
73721,"15717 98TH ST","HOWARD BEACH","NY",11414,NA,NA,221,"15717 98TH ST, HOWARD BEACH, NY, 11414","No_Match",NA,NA,NA,NA
73722,"15718 LARKFIELD DRIVE","HOUSTON","TX",77059,29.5898241990001,-95.1172855189999,222,"15718 LARKFIELD DRIVE, HOUSTON, TX, 77059","Match","Exact","15718 LARKFIELD DR, HOUSTON, TX, 77059",96115554,"R"
73723,"15718 PARAMOUNT BLVD SUITE B","PARAMOUNT","CA",90723,33.890803222,-118.160011516,223,"15718 PARAMOUNT BLVD SUITE B, PARAMOUNT, CA, 90723","Match","Exact","15718 PARAMOUNT BLVD, PARAMOUNT, CA, 90723",142773915,"L"
73724,"15719 AL-157","BATTLEGROUND","AL",35179,NA,NA,224,"15719 AL-157, BATTLEGROUND, AL, 35179","No_Match",NA,NA,NA,NA
73725,"15719 EUCALYPTUS AVE 19","BELLFLOWER","CA",90706,33.890821062,-118.122003124,225,"15719 EUCALYPTUS AVE 19, BELLFLOWER, CA, 90706","Match","Exact","15719 EUCALYPTUS AVE, BELLFLOWER, CA, 90706",142794697,"R"
73726,"1572 ARIEBILL","WYOMING","MI",49509,NA,NA,226,"1572 ARIEBILL, WYOMING, MI, 49509","No_Match",NA,NA,NA,NA
73727,"1572 BRIDAL TRL","ROCK HILL","SC",29732,34.94881179,-81.056411028,227,"1572 BRIDAL TRL, ROCK HILL, SC, 29732","Match","Exact","1572 BRIDAL TRL, ROCK HILL, SC, 29732",19807093,"R"
73728,"1572 BUENA VISTA AVE APT 3","ALAMEDA","CA",94501,37.775771745,-122.257246143,228,"1572 BUENA VISTA AVE APT 3, ALAMEDA, CA, 94501","Match","Exact","1572 BUENA VISTA AVE, ALAMEDA, CA, 94501",125005046,"R"
73729,"1572 COURTNEY COURT","HELLERTOWN","PA",18055,40.549417346,-75.321356669,229,"1572 COURTNEY COURT, HELLERTOWN, PA, 18055","Match","Non_Exact","1572 CORTNEY CT, HELLERTOWN, PA, 18055",624770080,"L"
73730,"1572 EAST 7TH ST","BROOKLYN","NY",11230,40.6128615800001,-73.9669281239999,230,"1572 EAST 7TH ST, BROOKLYN, NY, 11230","Match","Exact","1572 E 7TH ST, BROOKLYN, NY, 11230",59089634,"R"
73731,"1572 EAST 9 STREET","BROOKLYN","NY",11230,40.61059471,-73.9644565359999,231,"1572 EAST 9 STREET, BROOKLYN, NY, 11230","Match","Exact","1572 E 9TH ST, BROOKLYN, NY, 11230",59089793,"R"
73732,"1572 EDGERTON STREET","SAINT PAUL","MN",55130,44.9886183420001,-93.0761681069999,232,"1572 EDGERTON STREET, SAINT PAUL, MN, 55130","Match","Exact","1572 EDGERTON ST, SAINT PAUL, MN, 55130",97650015,"R"
73733,"1572 FLYING JIB DR","AZLE","TX",76020,32.898822227,-97.520371805,233,"1572 FLYING JIB DR, AZLE, TX, 76020","Match","Exact","1572 FLYING JIB DR, AZLE, TX, 76020",102104364,"L"
73734,"1572 HIGHWAY 85 NORTH SUITE 304","FAYETTEVILLE","GA",30214,NA,NA,234,"1572 HIGHWAY 85 NORTH SUITE 304, FAYETTEVILLE, GA, 30214","No_Match",NA,NA,NA,NA
73735,"1572 HOWELL ST","CPE GIRARDEAU","MO",63701,37.3272750530001,-89.5470287589999,235,"1572 HOWELL ST, CPE GIRARDEAU, MO, 63701","Match","Exact","1572 HOWELL ST, CAPE GIRARDEAU, MO, 63701",35181879,"R"
73736,"1572 NEWCASTLE WAY","PENSACOLA","FL",32534,30.528866291,-87.29971377,236,"1572 NEWCASTLE WAY, PENSACOLA, FL, 32534","Match","Exact","1572 NEWCASTLE WAY, PENSACOLA, FL, 32534",93261854,"R"
73737,"1572 PEARL HEIGHTS ROAD","VISTA","CA",92081,33.149582002,-117.240666403,237,"1572 PEARL HEIGHTS ROAD, VISTA, CA, 92081","Match","Exact","1572 PEARL HEIGHTS RD, VISTA, CA, 92081",195431193,"R"
73738,"1572 RABON FARMS LN","COLUMBIA","SC",29223,34.099790012,-80.926138544,238,"1572 RABON FARMS LN, COLUMBIA, SC, 29223","Match","Exact","1572 RABON FARMS LN, COLUMBIA, SC, 29223",641627677,"R"
73739,"1572 W LINCOLN BLVD","FREEPORT","IL",61032,42.2931486100001,-89.650483999,239,"1572 W LINCOLN BLVD, FREEPORT, IL, 61032","Match","Exact","1572 W LINCOLN BLVD, FREEPORT, IL, 61032",32693547,"L"
73740,"15720 ARTIST WAY APT 2907","ADDISON","TX",75001,32.964214945,-96.828086941,240,"15720 ARTIST WAY APT 2907, ADDISON, TX, 75001","Match","Exact","15720 ARTIST WAY, ADDISON, TX, 75001",616165854,"R"
73741,"15720 BRIXHAM HILL AVENUE SUITE 300","CHARLOTTE","NC",28277,35.0589355970001,-80.853159966,241,"15720 BRIXHAM HILL AVENUE SUITE 300, CHARLOTTE, NC, 28277","Match","Non_Exact","15720 BRIXHAM HILL DR, CHARLOTTE, NC, 28277",70528898,"R"
73742,"15720 CHESTNUT DR","MONTGOMERY","TX",77356,30.47451833,-95.667647098,242,"15720 CHESTNUT DR, MONTGOMERY, TX, 77356","Match","Exact","15720 CHESTNUT DR, MONTGOMERY, TX, 77356",79266507,"R"
73743,"15720 GAULT STREET","LOS ANGELES","CA",91406,34.1993472520001,-118.475716513,243,"15720 GAULT STREET, LOS ANGELES, CA, 91406","Match","Non_Exact","15720 GAULT ST, LAKE BALBOA, CA, 91406",141559977,"L"
73744,"15720 JOHN J DELANEY DRIVE  SUITE 3","CHARLOTTE","NC",28277,35.0583801510001,-80.8516633409999,244,"15720 JOHN J DELANEY DRIVE  SUITE 3, CHARLOTTE, NC, 28277","Match","Exact","15720 JOHN J DELANEY DR, CHARLOTTE, NC, 28277",70546547,"L"
73745,"15721 26TH AVENUE WEST","LYNNWOOD","WA",98087,47.856230001,-122.268124493,245,"15721 26TH AVENUE WEST, LYNNWOOD, WA, 98087","Match","Exact","15721 26TH AVE W, LYNNWOOD, WA, 98087",636777162,"R"
73746,"15721 FOREST PARK DRIVE","WOODBRIDGE","VA",22193,NA,NA,246,"15721 FOREST PARK DRIVE, WOODBRIDGE, VA, 22193","No_Match",NA,NA,NA,NA
73747,"15721 HILL LANE","SELMA","TX",78154,29.5836700130001,-98.294592151,247,"15721 HILL LANE, SELMA, TX, 78154","Match","Exact","15721 HILL LN, SELMA, TX, 78154",54823989,"R"
73748,"15721 ROSECRANS AVE","LA MIRADA","CA",90638,NA,NA,248,"15721 ROSECRANS AVE, LA MIRADA, CA, 90638","No_Match",NA,NA,NA,NA
73749,"15722 BURT STREET","OMAHA","NE",68118,41.2696286720001,-96.160756624,249,"15722 BURT STREET, OMAHA, NE, 68118","Match","Exact","15722 BURT ST, OMAHA, NE, 68118",116992241,"R"
73750,"15722 DREXEL AVENUE","DOLTON","IL",60419,41.6089741710001,-87.595431517,250,"15722 DREXEL AVENUE, DOLTON, IL, 60419","Match","Exact","15722 DREXEL AVE, DOLTON, IL, 60419",111780157,"R"
73751,"15722 STONEHAVEN DR","HOUSTON","TX",77059,29.5977552580001,-95.119208612,251,"15722 STONEHAVEN DR, HOUSTON, TX, 77059","Match","Exact","15722 STONEHAVEN DR, HOUSTON, TX, 77059",96115268,"R"
73752,"15722 SUNNYLAND LN","WELLINGTON","FL",33414,26.6254153900001,-80.297884907,252,"15722 SUNNYLAND LN, WELLINGTON, FL, 33414","Match","Exact","15722 SUNNYLAND LN, WELLINGTON, FL, 33414",115578333,"L"
73753,"15722 WILDWOOD DRIVE","CLIVE","IA",50325,41.6100933280001,-93.834953231,253,"15722 WILDWOOD DRIVE, CLIVE, IA, 50325","Match","Exact","15722 WILDWOOD DR, CLIVE, IA, 50325",65639669,"L"
73754,"15722 WOODWICK AVENUE","BATON ROUGE","LA",70816,30.454062532,-91.012004331,254,"15722 WOODWICK AVENUE, BATON ROUGE, LA, 70816","Match","Exact","15722 WOODWICK AVE, BATON ROUGE, LA, 70816",92194521,"L"
73755,"15725 MESA DR","HUMBLE","TX",77396,29.947195032,-95.2665917589999,255,"15725 MESA DR, HUMBLE, TX, 77396","Match","Exact","15725 MESA DR, HUMBLE, TX, 77396",96047692,"L"
73756,"15725 NW 19TH AVE","MIAMI","FL",33054,NA,NA,256,"15725 NW 19TH AVE, MIAMI, FL, 33054","No_Match",NA,NA,NA,NA
73757,"15726 BEREA DRIVE","ODESSA","FL",33556,28.0988285660001,-82.58845655,257,"15726 BEREA DRIVE, ODESSA, FL, 33556","Match","Exact","15726 BEREA DR, ODESSA, FL, 33556",104661374,"L"
73758,"15726 E ABERDEEN AVE","AURORA","CO",80016,39.607555844,-104.805323044,258,"15726 E ABERDEEN AVE, AURORA, CO, 80016","Match","Exact","15726 E ABERDEEN AVE, AURORA, CO, 80016",177541186,"R"
73759,"15726 SE DANA AVE","MILWAUKIE","OR",97267,45.409205516,-122.648692028,259,"15726 SE DANA AVE, MILWAUKIE, OR, 97267","Match","Exact","15726 SE DANA AVE, MILWAUKIE, OR, 97267",157913833,"L"
73760,"15727 HAYNES RD","LAUREL","MD",20707,39.106555525,-76.871269077,260,"15727 HAYNES RD, LAUREL, MD, 20707","Match","Exact","15727 HAYNES RD, LAUREL, MD, 20707",635446048,"R"
73761,"15727 OLD JAPANESE RD","LOS GATOS","CA",95033,37.127693165,-121.999757087,261,"15727 OLD JAPANESE RD, LOS GATOS, CA, 95033","Match","Non_Exact","15727 OLD JAPANESE RD W, LOS GATOS, CA, 95033",605984846,"L"
73762,"15727 PLYMOUTH RD","DETROIT","MI",48227,42.3725158280001,-83.2003230719999,262,"15727 PLYMOUTH RD, DETROIT, MI, 48227","Match","Exact","15727 PLYMOUTH RD, DETROIT, MI, 48227",95439811,"L"
73763,"15727 S WESTERN AVE SUITE A141","GARDENA","CA",90247,33.8881825170001,-118.309152429,263,"15727 S WESTERN AVE SUITE A141, GARDENA, CA, 90247","Match","Non_Exact","15727 S WESTERN AVE, GARDENA, CA, 90247",241243310,"R"
73764,"15727 SCHULTZ ST","CLINTON TWP","MI",48038,42.5954595900001,-82.9655135519999,264,"15727 SCHULTZ ST, CLINTON TWP, MI, 48038","Match","Exact","15727 SCHULTZ ST, CLINTON TOWNSHIP, MI, 48038",110674011,"R"
73765,"15727 WANDERING TRAIL","FRIENDSWOOD","TX",77546,29.5376491980001,-95.189381929,265,"15727 WANDERING TRAIL, FRIENDSWOOD, TX, 77546","Match","Exact","15727 WANDERING TRL, FRIENDSWOOD, TX, 77546",96589053,"R"
73766,"1573 CORTE DE PEARSON","SAN JOSE","CA",95124,37.258352949,-121.901630453,266,"1573 CORTE DE PEARSON, SAN JOSE, CA, 95124","Match","Exact","1573 CORTE DE PEARSON, SAN JOSE, CA, 95124",123014251,"R"
73767,"1573 EAST 750 NORTH RD","CISSNA PARK","IL",60924,40.5959165260001,-87.829473208,267,"1573 EAST 750 NORTH RD, CISSNA PARK, IL, 60924","Match","Exact","1573 E 750 NORTH RD, CISSNA PARK, IL, 60924",90766858,"L"
73768,"1573 FRIEDENS CHURCH ROAD","MOUNT CRAWFORD","VA",22841,38.3510850870001,-78.915348834,268,"1573 FRIEDENS CHURCH ROAD, MOUNT CRAWFORD, VA, 22841","Match","Exact","1573 FRIEDENS CHURCH RD, MOUNT CRAWFORD, VA, 22841",649981803,"R"
73769,"1573 GROUSE LANE","MOUNTAINSIDE","NJ",7092,40.6725726920001,-74.3743128149999,269,"1573 GROUSE LANE, MOUNTAINSIDE, NJ, 7092","Match","Exact","1573 GROUSE LN, MOUNTAINSIDE, NJ, 07092",60603354,"L"
73770,"1573 MAPLEWOOD DR","SLIDELL","LA",70458,30.2805866410001,-89.754970467,270,"1573 MAPLEWOOD DR, SLIDELL, LA, 70458","Match","Exact","1573 MAPLEWOOD DR, SLIDELL, LA, 70458",111248537,"L"
73771,"1573 RIDGEVIEW TERRACE","OSAGE BEACH","MO",65065,38.1248151230001,-92.7105486999999,271,"1573 RIDGEVIEW TERRACE, OSAGE BEACH, MO, 65065","Match","Exact","1573 RIDGEVIEW TER, OSAGE BEACH, MO, 65065",635572822,"L"
73772,"1573 S TALLGRASS DR","FAYETTEVILLE","AR",72701,36.0456951210001,-94.0873427229999,272,"1573 S TALLGRASS DR, FAYETTEVILLE, AR, 72701","Match","Exact","1573 S TALLGRASS DR, FAYETTEVILLE, AR, 72701",640551246,"L"
73773,"1573 SUGAR GROVE ROAD","TROY","MO",63379,38.9316039500001,-90.983795782,273,"1573 SUGAR GROVE ROAD, TROY, MO, 63379","Match","Exact","1573 SUGAR GROVE RD, TROY, MO, 63379",649144866,"L"
73774,"1573 SURREY DRIVE","BOURBONNAIS","IL",60914,41.1667923970001,-87.823923137,274,"1573 SURREY DRIVE, BOURBONNAIS, IL, 60914","Match","Exact","1573 SURREY DR, BOURBONNAIS, IL, 60914",98369754,"L"
73775,"1573 VIRGINIA STREET EAST","CHARLESTON","WV",25311,38.3393487280001,-81.6204168849999,275,"1573 VIRGINIA STREET EAST, CHARLESTON, WV, 25311","Match","Exact","1573 VIRGINIA ST E, CHARLESTON, WV, 25311",78647819,"R"
73776,"1573","HOCKESSIN","DE",19707,NA,NA,276,"1573, HOCKESSIN, DE, 19707","No_Match",NA,NA,NA,NA
73777,"15730 BASELINE AVE","FONTANA","CA",92336,34.121416621,-117.471750489,277,"15730 BASELINE AVE, FONTANA, CA, 92336","Match","Exact","15730 BASELINE AVE, FONTANA, CA, 92336",144701792,"L"
73778,"15730 NEW GALE DRIVE","MIDLOTHIAN","VA",23112,37.446162132,-77.702145904,278,"15730 NEW GALE DRIVE, MIDLOTHIAN, VA, 23112","Match","Exact","15730 NEW GALE DR, MIDLOTHIAN, VA, 23112",650542467,"R"
73779,"15730 VINTAGE STREET","NORTH HILLS","CA",91343,34.2519234050001,-118.474711197,279,"15730 VINTAGE STREET, NORTH HILLS, CA, 91343","Match","Exact","15730 VINTAGE ST, NORTH HILLS, CA, 91343",141548817,"L"
73780,"15730","WASHINGTON","DC",20003,NA,NA,280,"15730, WASHINGTON, DC, 20003","No_Match",NA,NA,NA,NA
73781,"15731 CRESCENT DRIVE","AURORA","IN",47001,39.100420021,-84.922108865,281,"15731 CRESCENT DRIVE, AURORA, IN, 47001","Match","Exact","15731 CRESCENT DR, AURORA, IN, 47001",76858893,"L"
73782,"15731 FREMONT WAY","APPLE VALLEY","MN",55124,44.722326265,-93.205730252,282,"15731 FREMONT WAY, APPLE VALLEY, MN, 55124","Match","Exact","15731 FREMONT WAY, APPLE VALLEY, MN, 55124",641641006,"L"
73783,"15731 GRIGGS STREET","DETROIT","MI",48238,42.4063186220001,-83.1631090349999,283,"15731 GRIGGS STREET, DETROIT, MI, 48238","Match","Exact","15731 GRIGGS ST, DETROIT, MI, 48238",95425822,"L"
73784,"15731 LYONS VALLEY ROAD","JAMUL","CA",91935,32.7240330590001,-116.813178503,284,"15731 LYONS VALLEY ROAD, JAMUL, CA, 91935","Match","Exact","15731 LYONS VALLEY RD, JAMUL, CA, 91935",195434299,"R"
73785,"15731 NE 8TH ST UNIT 6323","BELLEVUE","WA",98008,NA,NA,285,"15731 NE 8TH ST UNIT 6323, BELLEVUE, WA, 98008","Tie",NA,NA,NA,NA
73786,"15732 BOLTON CIRCLE","WESTFIELD","IN",46074,40.0156855870001,-86.152542967,286,"15732 BOLTON CIRCLE, WESTFIELD, IN, 46074","Match","Exact","15732 BOLTON CIR, WESTFIELD, IN, 46074",617970695,"L"
73787,"15732 SWAN LANE","HUNTINGTON BEACH","CA",92649,33.733574391,-118.038615974,287,"15732 SWAN LANE, HUNTINGTON BEACH, CA, 92649","Match","Exact","15732 SWAN LN, HUNTINGTON BEACH, CA, 92649",144013959,"L"
73788,"15733 CAPITOL AVE","OMAHA","NE",68118,41.2608274090001,-96.161058725,288,"15733 CAPITOL AVE, OMAHA, NE, 68118","Match","Exact","15733 CAPITOL AVE, OMAHA, NE, 68118",116966437,"R"
73789,"15733 ELDERWOOD AVE","BATON ROUGE","LA",70816,30.4361188340001,-91.0114480409999,289,"15733 ELDERWOOD AVE, BATON ROUGE, LA, 70816","Match","Exact","15733 ELDERWOOD AVE, BATON ROUGE, LA, 70816",92194731,"L"
73790,"15733 VINCENNES ST","NORTH HILLS","CA",91343,34.2406855070001,-118.474112608,290,"15733 VINCENNES ST, NORTH HILLS, CA, 91343","Match","Exact","15733 VINCENNES ST, NORTH HILLS, CA, 91343",141824726,"R"
73791,"15734 ROAN ROAD","CHINO HILLS","CA",91709,33.966966391,-117.687149999,291,"15734 ROAN ROAD, CHINO HILLS, CA, 91709","Match","Exact","15734 ROAN RD, CHINO HILLS, CA, 91709",629825447,"R"
73792,"15734 SE SWIFT CT","CLACKAMAS","OR",97015,45.4263459160001,-122.500911002,292,"15734 SE SWIFT CT, CLACKAMAS, OR, 97015","Match","Exact","15734 SE SWIFT CT, CLACKAMAS, OR, 97015",633196180,"R"
73793,"15734 VIA CALANOVA","SAN DIEGO","CA",92128,33.0001230230001,-117.064991271,293,"15734 VIA CALANOVA, SAN DIEGO, CA, 92128","Match","Exact","15734 VIA CALANOVA, SAN DIEGO, CA, 92128",195706280,"L"
73794,"15735  PLAINVIEW   AVENUE","DETROIT","MI",48223,42.4049783240001,-83.236360378,294,"15735  PLAINVIEW   AVENUE, DETROIT, MI, 48223","Match","Exact","15735 PLAINVIEW AVE, DETROIT, MI, 48223",95422396,"L"
73795,"15735 38TH AVE NE","LAKE FOREST PARK","WA",98155,47.743447781,-122.287814939,295,"15735 38TH AVE NE, LAKE FOREST PARK, WA, 98155","Match","Exact","15735 38TH AVE NE, LAKE FOREST PARK, WA, 98155",624999443,"L"
73796,"15735 NORDHOFF ST STE 11","NORTH HILLS","CA",91343,34.235583374,-118.47495084,296,"15735 NORDHOFF ST STE 11, NORTH HILLS, CA, 91343","Match","Exact","15735 NORDHOFF ST, NORTH HILLS, CA, 91343",141548905,"R"
73797,"15735 YOUPON VALLEY DR","HOUSTON","TX",77073,30.001587655,-95.406495594,297,"15735 YOUPON VALLEY DR, HOUSTON, TX, 77073","Match","Exact","15735 YOUPON VALLEY DR, HOUSTON, TX, 77073",625185437,"R"
73798,"15736 TERRACE DR - SUITE O2","OAK FOREST","IL",60452,41.60550176,-87.765083992,298,"15736 TERRACE DR - SUITE O2, OAK FOREST, IL, 60452","Match","Exact","15736 TERRACE DR, OAK FOREST, IL, 60452",111702782,"R"
73799,"15736 W ALMERIA RD","GOODYEAR","AZ",85395,33.4655880330001,-112.397546851,299,"15736 W ALMERIA RD, GOODYEAR, AZ, 85395","Match","Exact","15736 W ALMERIA RD, GOODYEAR, AZ, 85395",618473876,"R"
73800,"1574 79TH AVE","OAKLAND","CA",94621,37.758495252,-122.17947123,300,"1574 79TH AVE, OAKLAND, CA, 94621","Match","Exact","1574 79TH AVE, OAKLAND, CA, 94621",125009177,"R"
73801,"1574 BRANDYWINE LN","LITTLE ELM","TX",75068,33.173224491,-96.9114141539999,301,"1574 BRANDYWINE LN, LITTLE ELM, TX, 75068","Match","Exact","1574 BRANDYWINE LN, LITTLE ELM, TX, 75068",619799805,"R"
73802,"1574 CHANDLER ST","OAKLAND","CA",94603,37.737805055,-122.163865379,302,"1574 CHANDLER ST, OAKLAND, CA, 94603","Match","Exact","1574 CHANDLER ST, OAKLAND, CA, 94603",618139191,"R"
73803,"1574 COBURG RD NUM 314","EUGENE","OR",97401,44.079738929,-123.068058983,303,"1574 COBURG RD NUM 314, EUGENE, OR, 97401","Match","Exact","1574 COBURG RD, EUGENE, OR, 97401",178170603,"L"
73804,"1574 COBURG ROAD  NUMBER 408","EUGENE","OR",97401,44.079738929,-123.068058983,304,"1574 COBURG ROAD  NUMBER 408, EUGENE, OR, 97401","Match","Exact","1574 COBURG RD, EUGENE, OR, 97401",178170603,"L"
73805,"1574 COBURG ROAD 145","EUGENE","OR",97401,44.079738929,-123.068058983,305,"1574 COBURG ROAD 145, EUGENE, OR, 97401","Match","Exact","1574 COBURG RD, EUGENE, OR, 97401",178170603,"L"
73806,"1574 E SHELBY DRIVE","MEMPHIS","TN",38116,35.021066009,-90.012730507,306,"1574 E SHELBY DRIVE, MEMPHIS, TN, 38116","Match","Exact","1574 E SHELBY DR, MEMPHIS, TN, 38116",607504682,"L"
73807,"1574 FRANKLIN CIRCLE","DACULA","GA",30019,33.960555625,-83.857578293,307,"1574 FRANKLIN CIRCLE, DACULA, GA, 30019","Match","Exact","1574 FRANKLIN CIR, DACULA, GA, 30019",88952154,"L"
73808,"1574 HOPSCOTCH DRIVE","CHULA VISTA","CA",91915,32.6266306700001,-116.955929403,308,"1574 HOPSCOTCH DRIVE, CHULA VISTA, CA, 91915","Match","Exact","1574 HOPSCOTCH DR, CHULA VISTA, CA, 91915",195764361,"L"
73809,"1574 N PECAN","REEDLEY","CA",93654,36.6103189070001,-119.436971237,309,"1574 N PECAN, REEDLEY, CA, 93654","Match","Non_Exact","1574 N PECAN AVE, REEDLEY, CA, 93654",197594096,"L"
73810,"1574 P ROAD","LOMA","CO",81524,39.236685392,-108.762384891,310,"1574 P ROAD, LOMA, CO, 81524","Match","Exact","1574 P RD, LOMA, CO, 81524",122424792,"L"
73811,"1574 PARK BLVD","CAMDEN","NJ",8104,NA,NA,311,"1574 PARK BLVD, CAMDEN, NJ, 8104","No_Match",NA,NA,NA,NA
73812,"1574 ROUTE 259","LIGONIER","PA",15658,40.3186855270001,-79.1859639319999,312,"1574 ROUTE 259, LIGONIER, PA, 15658","Match","Non_Exact","1574 STATE RTE 259, LIGONIER, PA, 15658",638531406,"L"
73813,"1574 S WASHINGTON STREET","DENVER","CO",80210,39.6880986740001,-104.979263488,313,"1574 S WASHINGTON STREET, DENVER, CO, 80210","Match","Exact","1574 S WASHINGTON ST, DENVER, CO, 80210",177332325,"L"
73814,"1574 SUTTER STREET","DALLAS","TX",75216,32.7134962860001,-96.800388641,314,"1574 SUTTER STREET, DALLAS, TX, 75216","Match","Exact","1574 SUTTER ST, DALLAS, TX, 75216",102951326,"R"
73815,"1574 TILLINGSDALE DRIVE","KALAMAZOO","MI",49009,42.2746229250001,-85.6652463629999,315,"1574 TILLINGSDALE DRIVE, KALAMAZOO, MI, 49009","Match","Exact","1574 TILLINGSDALE DR, KALAMAZOO, MI, 49009",641488382,"R"
73816,"15740 112 TH CT","ORLAND PARK","IL",60467,41.6033479110001,-87.892724519,316,"15740 112 TH CT, ORLAND PARK, IL, 60467","Match","Non_Exact","15740 112TH CT, ORLAND PARK, IL, 60467",640474231,"R"
73817,"15740 LOOMIS AVE","HARVEY","IL",60426,41.603715392,-87.651077362,317,"15740 LOOMIS AVE, HARVEY, IL, 60426","Match","Exact","15740 LOOMIS AVE, HARVEY, IL, 60426",111711819,"R"
73818,"15740 N 83RD AVE APT 2052","PEORIA","AZ",85382,33.6272049630001,-112.237433697,318,"15740 N 83RD AVE APT 2052, PEORIA, AZ, 85382","Match","Non_Exact","15740 N 83RD AVE, PEORIA, AZ, 85382",243921872,"L"
73819,"15740 PORCHLIGHT LN","EDEN PRAIRIE","MN",55347,44.826163883,-93.476720985,319,"15740 PORCHLIGHT LN, EDEN PRAIRIE, MN, 55347","Match","Exact","15740 PORCHLIGHT LN, EDEN PRAIRIE, MN, 55347",628065831,"L"
73820,"15740 PORTOFINO SPRINGS BLVD 102","FORT MYERS","FL",33908,NA,NA,320,"15740 PORTOFINO SPRINGS BLVD 102, FORT MYERS, FL, 33908","No_Match",NA,NA,NA,NA
73821,"15740 TAYLOR ROAD","BAY MINETTE","AL",36507,30.8347690860001,-87.755347,321,"15740 TAYLOR ROAD, BAY MINETTE, AL, 36507","Match","Exact","15740 TAYLOR RD, BAY MINETTE, AL, 36507",131629636,"L"
73822,"15741 INGLESIDE AVE","DOLTON","IL",60419,41.6091207010001,-87.59412599,322,"15741 INGLESIDE AVE, DOLTON, IL, 60419","Match","Exact","15741 INGLESIDE AVE, DOLTON, IL, 60419",111780160,"L"
73823,"15741 MCINTOSH AVE","CHINO","CA",91708,33.967547359,-117.628305397,323,"15741 MCINTOSH AVE, CHINO, CA, 91708","Match","Exact","15741 MCINTOSH AVE, CHINO, CA, 91708",648191348,"R"
73824,"15741 QUINCY ST","DETROIT","MI",48238,42.406923351,-83.138434827,324,"15741 QUINCY ST, DETROIT, MI, 48238","Match","Exact","15741 QUINCY ST, DETROIT, MI, 48238",95461313,"L"
73825,"15741 QUINCY","DETROIT","MI",48238,42.406923351,-83.138434827,325,"15741 QUINCY, DETROIT, MI, 48238","Match","Non_Exact","15741 QUINCY ST, DETROIT, MI, 48238",95461313,"L"
73826,"15741 TUPPER ST","NORTH HILLS","CA",91343,34.239212335,-118.47498796,326,"15741 TUPPER ST, NORTH HILLS, CA, 91343","Match","Exact","15741 TUPPER ST, NORTH HILLS, CA, 91343",141548904,"R"
73827,"15742 CALIFORNIA ST","TUSTIN","CA",92780,33.7351185410001,-117.828784537,327,"15742 CALIFORNIA ST, TUSTIN, CA, 92780","Match","Exact","15742 CALIFORNIA ST, TUSTIN, CA, 92780",144054537,"L"
73828,"15743 HWY 47","MARTHASVILLE","MO",63357,38.6282760940001,-91.066434126,328,"15743 HWY 47, MARTHASVILLE, MO, 63357","Match","Non_Exact","15743 STATE HWY 47, MARTHASVILLE, MO, 63357",636631900,"L"
73829,"15744 DAKOTA AVE","PRIOR LAKE","MN",55372,44.722396814,-93.358736285,329,"15744 DAKOTA AVE, PRIOR LAKE, MN, 55372","Match","Exact","15744 DAKOTA AVE, PRIOR LAKE, MN, 55372",38145878,"R"
73830,"15744 SULLIVAN RIDGE DRIVE","CHARLOTTE","NC",28277,35.03290466,-80.859971991,330,"15744 SULLIVAN RIDGE DRIVE, CHARLOTTE, NC, 28277","Match","Exact","15744 SULLIVAN RIDGE DR, CHARLOTTE, NC, 28277",70560791,"R"
73831,"15745 EAST END AVE","DOLTON","IL",60419,41.609190068,-87.576746522,331,"15745 EAST END AVE, DOLTON, IL, 60419","Match","Exact","15745 E END AVE, DOLTON, IL, 60419",111781043,"L"
73832,"15745 VAIL RD SE","YELM","WA",98597,46.858900352,-122.593477993,332,"15745 VAIL RD SE, YELM, WA, 98597","Match","Exact","15745 VAIL RD SE, YELM, WA, 98597",180965885,"L"
73833,"15747 SW 147 STREET","MIAMI","FL",33196,25.630030574,-80.448330782,333,"15747 SW 147 STREET, MIAMI, FL, 33196","Match","Non_Exact","15747 SW 147TH ST, MIAMI, FL, 33196",627659502,"L"
73834,"15747 WEAVER GULCH DR","MORRISON","CO",80465,39.622454394,-105.177279421,334,"15747 WEAVER GULCH DR, MORRISON, CO, 80465","Match","Exact","15747 WEAVER GULCH DR, MORRISON, CO, 80465",645235435,"R"
73835,"1575 BARRES STREET","STRASBURG","CO",80136,39.7400336750001,-104.37260308,335,"1575 BARRES STREET, STRASBURG, CO, 80136","Match","Exact","1575 BARRES ST, STRASBURG, CO, 80136",177444810,"L"
73836,"1575 BEN KING ROAD","KENNESAW","GA",30144,NA,NA,336,"1575 BEN KING ROAD, KENNESAW, GA, 30144","No_Match",NA,NA,NA,NA
73837,"1575 CALAVERAS AVENUE","SAN JOSE","CA",95126,37.328782647,-121.922220746,337,"1575 CALAVERAS AVENUE, SAN JOSE, CA, 95126","Match","Exact","1575 CALAVERAS AVE, SAN JOSE, CA, 95126",122903726,"R"
73838,"1575 CASTLE WAY","MOUNTAIN HOME","ID",83647,43.149110385,-115.701341949,338,"1575 CASTLE WAY, MOUNTAIN HOME, ID, 83647","Match","Exact","1575 CASTLE WAY, MOUNTAIN HOME, ID, 83647",117621518,"L"
73839,"1575 CASTLE WAY","RENO","NV",89512,39.543318083,-119.793803652,339,"1575 CASTLE WAY, RENO, NV, 89512","Match","Exact","1575 CASTLE WAY, RENO, NV, 89512",107047915,"L"
73840,"1575 CATHERINE LAKE RD","JACKSONVILLE","NC",28540,34.8170656730001,-77.520390687,340,"1575 CATHERINE LAKE RD, JACKSONVILLE, NC, 28540","Match","Exact","1575 CATHERINE LAKE RD, JACKSONVILLE, NC, 28540",639815246,"L"
73841,"1575 CR 1110","MERIDIAN","TX",76665,31.95459492,-97.619395461,341,"1575 CR 1110, MERIDIAN, TX, 76665","Match","Exact","1575 CO RD 1110, MERIDIAN, TX, 76665",158593051,"R"
73842,"1575 DEGEEST DR","RAPID CITY","SD",57703,44.0706453120001,-103.142312009,342,"1575 DEGEEST DR, RAPID CITY, SD, 57703","Match","Exact","1575 DEGEEST DR, RAPID CITY, SD, 57703",650438411,"R"
73843,"1575 DEPOT ST NE","CHRISTIANSBURG","VA",24073,37.137349617,-80.3924010109999,343,"1575 DEPOT ST NE, CHRISTIANSBURG, VA, 24073","Match","Exact","1575 DEPOT ST NE, CHRISTIANSBURG, VA, 24073",639276885,"L"
73844,"1575 DEWAR DRIVE SUITE 400","ROCK SPRINGS","WY",82901,41.5745892730001,-109.241043754,344,"1575 DEWAR DRIVE SUITE 400, ROCK SPRINGS, WY, 82901","Match","Exact","1575 DEWAR DR, ROCK SPRINGS, WY, 82901",618324544,"L"
73845,"1575 E 89TH DRIVE","MERRILLVILLE","IN",46410,41.4565383230001,-87.31667851,345,"1575 E 89TH DRIVE, MERRILLVILLE, IN, 46410","Match","Non_Exact","1575 E 89TH AVE, MERRILLVILLE, IN, 46410",98448839,"L"
73846,"1575 E RIVER ROAD","BEDMINSTER","NJ",7921,40.6487314240001,-74.676554923,346,"1575 E RIVER ROAD, BEDMINSTER, NJ, 7921","Match","Non_Exact","1575 RIVER RD E, BEDMINSTER, NJ, 07921",59983509,"L"
73847,"1575 GORMAN RD","WAYCROSS","GA",31503,31.2354197550001,-82.403183623,347,"1575 GORMAN RD, WAYCROSS, GA, 31503","Match","Non_Exact","1575 GORMAN ST, WAYCROSS, GA, 31503",5235019,"L"
73848,"1575 HOWARD AVENUE","SAN YSIDRO","CA",92173,32.567619026,-117.066757526,348,"1575 HOWARD AVENUE, SAN YSIDRO, CA, 92173","Match","Exact","1575 HOWARD AVE, SAN YSIDRO, CA, 92173",195358671,"L"
73849,"1575 JORDAN RD","HUNTSVILLE","AL",35811,34.784708193,-86.51054141,349,"1575 JORDAN RD, HUNTSVILLE, AL, 35811","Match","Exact","1575 JORDAN RD, HUNTSVILLE, AL, 35811",58189005,"R"
73850,"1575 LAWRENCEVILLE HWY SUITE K","LAWRENCEVILLE","GA",30044,33.9386149380001,-84.033228142,350,"1575 LAWRENCEVILLE HWY SUITE K, LAWRENCEVILLE, GA, 30044","Match","Exact","1575 LAWRENCEVILLE HWY, LAWRENCEVILLE, GA, 30044",636428308,"R"
73851,"1575 MARIPOSA AVENUE","BOULDER","CO",80302,39.9981892870001,-105.272833219,351,"1575 MARIPOSA AVENUE, BOULDER, CO, 80302","Match","Exact","1575 MARIPOSA AVE, BOULDER, CO, 80302",188160334,"L"
73852,"1575 MCFARLAND RD SUITE 201","PITTSBURGH","PA",15216,40.3933194840001,-80.045897412,352,"1575 MCFARLAND RD SUITE 201, PITTSBURGH, PA, 15216","Match","Exact","1575 MCFARLAND RD, PITTSBURGH, PA, 15216",51632108,"L"
73853,"1575 NOTTINGHAM RD","CHARLESTON","WV",25314,38.335892254,-81.697736818,353,"1575 NOTTINGHAM RD, CHARLESTON, WV, 25314","Match","Exact","1575 NOTTINGHAM RD, CHARLESTON, WV, 25314",78590571,"L"
73854,"1575 PAUL RUSSELL RD APT 604","TALLAHASSEE","FL",32301,30.418089088,-84.243680066,354,"1575 PAUL RUSSELL RD APT 604, TALLAHASSEE, FL, 32301","Match","Exact","1575 PAUL RUSSELL RD, TALLAHASSEE, FL, 32301",629831035,"L"
73855,"1575 PAUL RUSSELL RD UNIT 4302","TALLAHASSEE","FL",32301,30.418089088,-84.243680066,355,"1575 PAUL RUSSELL RD UNIT 4302, TALLAHASSEE, FL, 32301","Match","Exact","1575 PAUL RUSSELL RD, TALLAHASSEE, FL, 32301",629831035,"L"
73856,"1575 PAUL RUSSELL ROAD APT 902","TALLAHASSEE","FL",32301,30.418089088,-84.243680066,356,"1575 PAUL RUSSELL ROAD APT 902, TALLAHASSEE, FL, 32301","Match","Exact","1575 PAUL RUSSELL RD, TALLAHASSEE, FL, 32301",629831035,"L"
73857,"1575 PAUL RUSSELL ROAD UNIT 2703","TALLAHASSEE","FL",32301,30.418089088,-84.243680066,357,"1575 PAUL RUSSELL ROAD UNIT 2703, TALLAHASSEE, FL, 32301","Match","Exact","1575 PAUL RUSSELL RD, TALLAHASSEE, FL, 32301",629831035,"L"
73858,"1575 PLEASANT HILL RD","SEBASTOPOL","CA",95472,38.379482098,-122.832527337,358,"1575 PLEASANT HILL RD, SEBASTOPOL, CA, 95472","Match","Exact","1575 PLEASANT HILL RD, SEBASTOPOL, CA, 95472",67465571,"L"
73859,"1575 PLEASANT HILL ROAD","SEBASTOPOL","CA",95472,38.379482098,-122.832527337,359,"1575 PLEASANT HILL ROAD, SEBASTOPOL, CA, 95472","Match","Exact","1575 PLEASANT HILL RD, SEBASTOPOL, CA, 95472",67465571,"L"
73860,"1575 POSTAL ROAD  UNIT 242","CHESTER","MD",21619,38.9748592510001,-76.286484907,360,"1575 POSTAL ROAD  UNIT 242, CHESTER, MD, 21619","Match","Exact","1575 POSTAL RD, CHESTER, MD, 21619",68054048,"R"
73861,"1575 QUIET HILLS DR","OCEANSIDE","CA",92056,33.218715592,-117.276786271,361,"1575 QUIET HILLS DR, OCEANSIDE, CA, 92056","Match","Exact","1575 QUIET HILLS DR, OCEANSIDE, CA, 92056",195285486,"R"
73862,"1575 QUIET HILLS DRIVE","OCEANSIDE","CA",92056,33.218715592,-117.276786271,362,"1575 QUIET HILLS DRIVE, OCEANSIDE, CA, 92056","Match","Exact","1575 QUIET HILLS DR, OCEANSIDE, CA, 92056",195285486,"R"
73863,"1575 RIDENOUR PARKWAY APT 704","KENNESAW","GA",30152,33.991229751,-84.5875618009999,363,"1575 RIDENOUR PARKWAY APT 704, KENNESAW, GA, 30152","Match","Exact","1575 RIDENOUR PKWY, KENNESAW, GA, 30152",618315919,"R"
73864,"1575 ROUTE 517","HACKETTSTOWN","NJ",7840,40.9046318480001,-74.822637073,364,"1575 ROUTE 517, HACKETTSTOWN, NJ, 7840","Match","Non_Exact","1575 CO RD 517, HACKETTSTOWN, NJ, 07840",653261512,"R"
73865,"1575 S HELM AVE","FRESNO","CA",93727,36.7266779220001,-119.722346193,365,"1575 S HELM AVE, FRESNO, CA, 93727","Match","Exact","1575 S HELM AVE, FRESNO, CA, 93727",197583446,"R"
73866,"1575 SAILPOINT DRIVE","BARTOW","FL",33830,27.877578559,-81.860054986,366,"1575 SAILPOINT DRIVE, BARTOW, FL, 33830","Match","Exact","1575 SAILPOINT DR, BARTOW, FL, 33830",104863600,"L"
73867,"1575 SALIDA DEL SOL","CHINO VALLEY","AZ",86323,34.7692805290001,-112.434381159,367,"1575 SALIDA DEL SOL, CHINO VALLEY, AZ, 86323","Match","Exact","1575 SALIDA DEL SOL, CHINO VALLEY, AZ, 86323",159545953,"R"
73868,"1575 SAUNDERS DR","WOOSTER","OH",44691,40.816958115,-81.9492280709999,368,"1575 SAUNDERS DR, WOOSTER, OH, 44691","Match","Exact","1575 SAUNDERS DR, WOOSTER, OH, 44691",635803155,"R"
73869,"1575 SOUTH RESERVOIR STREET UNIT F","POMONA","CA",91766,34.043201346,-117.73213478,369,"1575 SOUTH RESERVOIR STREET UNIT F, POMONA, CA, 91766","Match","Exact","1575 S RESERVOIR ST, POMONA, CA, 91766",141735577,"R"
73870,"1575 TAPERING POINTE RD","GLENCOE","KY",41046,38.7583351800001,-84.7962816899999,370,"1575 TAPERING POINTE RD, GLENCOE, KY, 41046","Match","Exact","1575 TAPERING POINTE RD, GLENCOE, KY, 41046",637542425,"L"
73871,"1575 TREMONT STREET APT1010","BOSTON","MA",2120,42.3331549660001,-71.1018384499999,371,"1575 TREMONT STREET APT1010, BOSTON, MA, 2120","Match","Exact","1575 TREMONT ST, BOSTON, MA, 02120",85728432,"R"
73872,"1575 UNDERWOOD RD","GAMBRILLS","MD",21054,39.017460724,-76.660449015,372,"1575 UNDERWOOD RD, GAMBRILLS, MD, 21054","Match","Exact","1575 UNDERWOOD RD, GAMBRILLS, MD, 21054",649374835,"L"
73873,"1575 W HAMLIN RD","ROCHESTER HILLS","MI",48309,42.6514775250001,-83.1644704289999,373,"1575 W HAMLIN RD, ROCHESTER HILLS, MI, 48309","Match","Exact","1575 W HAMLIN RD, ROCHESTER HILLS, MI, 48309",638954478,"L"
73874,"1575 W HORIZON RIDGE PKWY 530475","HENDERSON","NV",89012,36.0166864890001,-115.055659078,374,"1575 W HORIZON RIDGE PKWY 530475, HENDERSON, NV, 89012","Match","Non_Exact","1575 W HORIZON RIDGE PKWY, HENDERSON, NV, 89012",201956121,"R"
73875,"1575 WEST WARM SPRINGS ROAD 3114","HENDERSON","NV",89014,36.0562041420001,-115.053058344,375,"1575 WEST WARM SPRINGS ROAD 3114, HENDERSON, NV, 89014","Match","Exact","1575 W WARM SPRINGS RD, HENDERSON, NV, 89014",201921451,"R"
73876,"1575 WESTERN AVENUE","SAINT PAUL","MN",55117,44.9887043840001,-93.116005052,376,"1575 WESTERN AVENUE, SAINT PAUL, MN, 55117","Match","Non_Exact","1575 WESTERN AVE N, SAINT PAUL, MN, 55117",97643615,"L"
73877,"1575 WILLIAMSBRIDGE ROAD SUITE 6H","BRONX","NY",10461,40.8466261780001,-73.8485951649999,377,"1575 WILLIAMSBRIDGE ROAD SUITE 6H, BRONX, NY, 10461","Match","Exact","1575 WILLIAMSBRIDGE RD, BRONX, NY, 10461",80305348,"L"
73878,"15750 DAWSON CREEK DRIVE","MONUMENT","CO",80132,39.0629995950001,-104.829876201,378,"15750 DAWSON CREEK DRIVE, MONUMENT, CO, 80132","Match","Exact","15750 DAWSON CREEK DR, MONUMENT, CO, 80132",105572298,"L"
73879,"15750 REED ROAD","LAKEVIEW","OR",97630,NA,NA,379,"15750 REED ROAD, LAKEVIEW, OR, 97630","No_Match",NA,NA,NA,NA
73880,"15750 S BELL ROAD 1B","HOMER GLEN","IL",60491,41.6025451900001,-87.930164673,380,"15750 S BELL ROAD 1B, HOMER GLEN, IL, 60491","Match","Non_Exact","15750 S BELL RD, HOMER GLEN, IL, 60491",111547779,"R"
73881,"15750 SOUTH TARRANT AVE","COMPTON","CA",90220,33.88836694,-118.262654485,381,"15750 SOUTH TARRANT AVE, COMPTON, CA, 90220","Match","Exact","15750 S TARRANT AVE, COMPTON, CA, 90220",141680024,"L"
73882,"15750 SPECTRUM DR    2221","ADDISON","TX",75001,32.963960404,-96.82395344,382,"15750 SPECTRUM DR    2221, ADDISON, TX, 75001","Match","Exact","15750 SPECTRUM DR, ADDISON, TX, 75001",616171790,"R"
73883,"15751 BROOKHURST ST/STE 210","WESTMINSTER","CA",92683,NA,NA,383,"15751 BROOKHURST ST/STE 210, WESTMINSTER, CA, 92683","No_Match",NA,NA,NA,NA
73884,"15751 SHERIDAN ST    STE 431","FT LAUDERDALE","FL",33331,NA,NA,384,"15751 SHERIDAN ST    STE 431, FT LAUDERDALE, FL, 33331","No_Match",NA,NA,NA,NA
73885,"15751 SHERIDAN ST STE 448","FORT LAUDERDALE","FL",33331,NA,NA,385,"15751 SHERIDAN ST STE 448, FORT LAUDERDALE, FL, 33331","No_Match",NA,NA,NA,NA
73886,"15752 DAYBREEZE DRIVE","SPRING HILL","FL",34610,28.387156496,-82.530867351,386,"15752 DAYBREEZE DRIVE, SPRING HILL, FL, 34610","Match","Exact","15752 DAYBREEZE DR, SPRING HILL, FL, 34610",627401945,"R"
73887,"15754 FM 1567 WEST","CUMBY","TX",75433,33.020429714,-95.820904952,387,"15754 FM 1567 WEST, CUMBY, TX, 75433","Match","Non_Exact","15754 FM 1567, CUMBY, TX, 75433",42795254,"L"
73888,"15754 LEADER","TAYLOR","MI",48180,42.1909671810001,-83.28009163,388,"15754 LEADER, TAYLOR, MI, 48180","Match","Exact","15754 LEADER, TAYLOR, MI, 48180",95437899,"R"
73889,"15755 JEFFERSON HIGHWAY","BATON ROUGE","LA",70817,30.3727284880001,-91.013352044,389,"15755 JEFFERSON HIGHWAY, BATON ROUGE, LA, 70817","Match","Exact","15755 JEFFERSON HWY, BATON ROUGE, LA, 70817",645391883,"L"
73890,"15756 STEEL","DETROIT","MI",48227,42.406874965,-83.1717212349999,390,"15756 STEEL, DETROIT, MI, 48227","Match","Non_Exact","15756 STEEL AVE, DETROIT, MI, 48227",95425722,"R"
73891,"15757 N 90TH PL APT 2074","SCOTTSDALE","AZ",85260,33.6292048390001,-111.884149391,391,"15757 N 90TH PL APT 2074, SCOTTSDALE, AZ, 85260","Match","Non_Exact","15757 N 90TH PL, SCOTTSDALE, AZ, 85260",624034535,"R"
73892,"15757 N 90TH PLACE APT 1152","SCOTTSDALE","AZ",85260,33.6292048390001,-111.884149391,392,"15757 N 90TH PLACE APT 1152, SCOTTSDALE, AZ, 85260","Match","Non_Exact","15757 N 90TH PL, SCOTTSDALE, AZ, 85260",624034535,"R"
73893,"15757 PINES BLVD STE 107","PEMBROKE PINES","FL",33027,26.007773436,-80.35636275,393,"15757 PINES BLVD STE 107, PEMBROKE PINES, FL, 33027","Match","Exact","15757 PINES BLVD, PEMBROKE PINES, FL, 33027",640926456,"L"
73894,"15757 PINES BLVD STE 326","PEMBROKE PINES","FL",33027,26.007773436,-80.35636275,394,"15757 PINES BLVD STE 326, PEMBROKE PINES, FL, 33027","Match","Exact","15757 PINES BLVD, PEMBROKE PINES, FL, 33027",640926456,"L"
73895,"15757 PINES BLVD STE 743","PEMBROKE PINES","FL",33027,26.007773436,-80.35636275,395,"15757 PINES BLVD STE 743, PEMBROKE PINES, FL, 33027","Match","Exact","15757 PINES BLVD, PEMBROKE PINES, FL, 33027",640926456,"L"
73896,"15757 PINES BLVD SUITE 163","PEMBROKE PINES","FL",33027,26.007773436,-80.35636275,396,"15757 PINES BLVD SUITE 163, PEMBROKE PINES, FL, 33027","Match","Exact","15757 PINES BLVD, PEMBROKE PINES, FL, 33027",640926456,"L"
73897,"15757 PINES BLVD SUITE 185","PEMBROKE PINES","FL",33027,26.007773436,-80.35636275,397,"15757 PINES BLVD SUITE 185, PEMBROKE PINES, FL, 33027","Match","Exact","15757 PINES BLVD, PEMBROKE PINES, FL, 33027",640926456,"L"
73898,"15757 PINES BLVD SUITE 250","PEMBROKE PINES","FL",33028,26.007773436,-80.35636275,398,"15757 PINES BLVD SUITE 250, PEMBROKE PINES, FL, 33028","Match","Non_Exact","15757 PINES BLVD, PEMBROKE PNES, FL, 33027",640926456,"L"
73899,"15757 PINES BOULEVARD SUITE 169","PEMBROKE PINES","FL",33027,26.007773436,-80.35636275,399,"15757 PINES BOULEVARD SUITE 169, PEMBROKE PINES, FL, 33027","Match","Exact","15757 PINES BLVD, PEMBROKE PINES, FL, 33027",640926456,"L"
73900,"15758 PRENTICE LANE","CENTENNIAL","CO",80015,39.6209906460001,-104.80480899,400,"15758 PRENTICE LANE, CENTENNIAL, CO, 80015","Match","Non_Exact","15758 E PRENTICE LN, CENTENNIAL, CO, 80015",177520882,"R"
73901,"15759 MANSFIELD ST","DETROIT","MI",48227,42.4060019720001,-83.205393857,401,"15759 MANSFIELD ST, DETROIT, MI, 48227","Match","Exact","15759 MANSFIELD ST, DETROIT, MI, 48227",95423647,"L"
73902,"15759 TURNBERRY STREET","MORENO VALLEY","CA",92555,33.8920618920001,-117.189153384,402,"15759 TURNBERRY STREET, MORENO VALLEY, CA, 92555","Match","Exact","15759 TURNBERRY ST, MORENO VALLEY, CA, 92555",640480894,"R"
73903,"15759 VANOWEN ST APT 16","LAKE BALBOA","CA",91406,34.193917239,-118.476098562,403,"15759 VANOWEN ST APT 16, LAKE BALBOA, CA, 91406","Match","Exact","15759 VANOWEN ST, LAKE BALBOA, CA, 91406",141560002,"R"
73904,"1576 ALLERTON AVE","BRONX","NY",10469,40.8651542050001,-73.8406049829999,404,"1576 ALLERTON AVE, BRONX, NY, 10469","Match","Exact","1576 ALLERTON AVE, BRONX, NY, 10469",80304021,"R"
73905,"1576 ATKINSON ROAD SUITE 210","LAWRENCEVILLE","GA",30043,33.9687787990001,-84.072952815,405,"1576 ATKINSON ROAD SUITE 210, LAWRENCEVILLE, GA, 30043","Match","Exact","1576 ATKINSON RD, LAWRENCEVILLE, GA, 30043",644928318,"L"
73906,"1576 BELLA CRUZ DR BOX 426","THE VILLAGES","FL",32159,28.9513101150001,-81.9579824259999,406,"1576 BELLA CRUZ DR BOX 426, THE VILLAGES, FL, 32159","Match","Exact","1576 BELLA CRUZ DR, THE VILLAGES, FL, 32159",612353235,"R"
73907,"1576 CHURCHILL CT","CLARKSVILLE","TN",37042,36.6052521560001,-87.342738003,407,"1576 CHURCHILL CT, CLARKSVILLE, TN, 37042","Match","Exact","1576 CHURCHILL CT, CLARKSVILLE, TN, 37042",31834702,"R"
73908,"1576 HALL ROAD","THOMASVILLE","GA",31757,30.8818806030001,-83.946952518,408,"1576 HALL ROAD, THOMASVILLE, GA, 31757","Match","Exact","1576 HALL RD, THOMASVILLE, GA, 31757",617527774,"R"
73909,"1576 HWY 42","IBERIA","MO",65486,38.082633335,-92.4168447979999,409,"1576 HWY 42, IBERIA, MO, 65486","Match","Non_Exact","1576 STATE HWY 42, IBERIA, MO, 65486",605480587,"R"
73910,"1576 LATOUCHE STREET UNIT 1","ANCHORAGE","AK",99501,61.206598156,-149.86082748,410,"1576 LATOUCHE STREET UNIT 1, ANCHORAGE, AK, 99501","Match","Exact","1576 LATOUCHE ST, ANCHORAGE, AK, 99501",190798930,"R"
73911,"1576 LOCUST AVENUE STE 203","LONG BEACH","CA",90813,33.786653465,-118.191068449,411,"1576 LOCUST AVENUE STE 203, LONG BEACH, CA, 90813","Match","Exact","1576 LOCUST AVE, LONG BEACH, CA, 90813",141693583,"R"
73912,"1576 MENDELL DRIVE","ST. LOUIS","MO",63130,38.681474501,-90.343049964,412,"1576 MENDELL DRIVE, ST. LOUIS, MO, 63130","Match","Exact","1576 MENDELL DR, SAINT LOUIS, MO, 63130",100133131,"R"
73913,"1576 OAKLAND CHASE PKWY","HENRICO","VA",23231,37.493135389,-77.3806775149999,413,"1576 OAKLAND CHASE PKWY, HENRICO, VA, 23231","Match","Exact","1576 OAKLAND CHASE PKWY, HENRICO, VA, 23231",106691033,"L"
73914,"1576 PLAZA DRIVE","SAN LEANDRO","CA",94578,37.704901469,-122.123086921,414,"1576 PLAZA DRIVE, SAN LEANDRO, CA, 94578","Match","Exact","1576 PLAZA DR, SAN LEANDRO, CA, 94578",125013924,"R"
73915,"1576 SE OHIO AVENUE","ARCADIA","FL",34266,27.201072362,-81.840775832,415,"1576 SE OHIO AVENUE, ARCADIA, FL, 34266","Match","Exact","1576 SE OHIO AVE, ARCADIA, FL, 34266",16162303,"R"
73916,"1576 SHERMAN STREET SUITE 100","DENVER","CO",80203,39.741241921,-104.984845855,416,"1576 SHERMAN STREET SUITE 100, DENVER, CO, 80203","Match","Exact","1576 SHERMAN ST, DENVER, CO, 80203",177305720,"R"
73917,"1576 SW 2ND STREET","HOMESTEAD","FL",33030,25.468200886,-80.4971586079999,417,"1576 SW 2ND STREET, HOMESTEAD, FL, 33030","Match","Exact","1576 SW 2ND ST, HOMESTEAD, FL, 33030",116294844,"L"
73918,"1576 W STONEMAN PLACE","ANAHEIM","CA",92802,33.806511506,-117.936340405,418,"1576 W STONEMAN PLACE, ANAHEIM, CA, 92802","Match","Exact","1576 W STONEMAN PL, ANAHEIM, CA, 92802",144025126,"L"
73919,"1576 WILLIAMS DR","WINTER PARK","FL",32789,NA,NA,419,"1576 WILLIAMS DR, WINTER PARK, FL, 32789","No_Match",NA,NA,NA,NA
73920,"15760 VENTURA BLVD SUITE 801","ENCINO","CA",91436,34.1553836460001,-118.476443182,420,"15760 VENTURA BLVD SUITE 801, ENCINO, CA, 91436","Match","Exact","15760 VENTURA BLVD, ENCINO, CA, 91436",141560494,"L"
73921,"15761 CHAPEL STREET","DETROIT","MI",48223,42.4050651490001,-83.25339207,421,"15761 CHAPEL STREET, DETROIT, MI, 48223","Match","Exact","15761 CHAPEL ST, DETROIT, MI, 48223",95421360,"L"
73922,"15761 Chapel","Detroit","MI",48223,42.4050651490001,-83.25339207,422,"15761 Chapel, Detroit, MI, 48223","Match","Non_Exact","15761 CHAPEL ST, DETROIT, MI, 48223",95421360,"L"
73923,"15761 PARKERS FORD COURT","HAYMARKET","VA",20169,38.8380051250001,-77.6579668049999,423,"15761 PARKERS FORD COURT, HAYMARKET, VA, 20169","Match","Exact","15761 PARKERS FORD CT, HAYMARKET, VA, 20169",617547842,"R"
73924,"15763 AUDUBON WAY","HAYMARKET","VA",20169,38.810698088,-77.659873256,424,"15763 AUDUBON WAY, HAYMARKET, VA, 20169","Match","Exact","15763 AUDUBON WAY, HAYMARKET, VA, 20169",646050310,"L"
73925,"15763 LYONS VALLEY RD","JAMUL","CA",91935,32.722507367,-116.809669966,425,"15763 LYONS VALLEY RD, JAMUL, CA, 91935","Match","Exact","15763 LYONS VALLEY RD, JAMUL, CA, 91935",195366112,"R"
73926,"15763 SW 21 ST","MIRAMAR","FM",30227,NA,NA,426,"15763 SW 21 ST, MIRAMAR, FM, 30227","No_Match",NA,NA,NA,NA
73927,"15765 CAYMAN CIRCLE","MORENO VALLEY","CA",92551,33.890778735,-117.220274054,427,"15765 CAYMAN CIRCLE, MORENO VALLEY, CA, 92551","Match","Exact","15765 CAYMAN CIR, MORENO VALLEY, CA, 92551",194856573,"L"
73928,"15765 HAMBY ROAD","ALPHARETTA","GA",30004,34.1656175110001,-84.274257776,428,"15765 HAMBY ROAD, ALPHARETTA, GA, 30004","Match","Exact","15765 HAMBY RD, ALPHARETTA, GA, 30004",17330104,"R"
73929,"15766 HEYDEN","DETROIT","MI",48223,42.4054076240001,-83.239732423,429,"15766 HEYDEN, DETROIT, MI, 48223","Match","Non_Exact","15766 HEYDEN ST, DETROIT, MI, 48223",95422193,"R"
73930,"1577 27TH ST SW","LOVELAND","CO",80537,40.3650387710001,-105.099683701,430,"1577 27TH ST SW, LOVELAND, CO, 80537","Match","Exact","1577 27TH ST SW, LOVELAND, CO, 80537",188522370,"L"
73931,"1577 58TH ST","BROOKLYN","NY",11219,40.626360549,-73.99134086,431,"1577 58TH ST, BROOKLYN, NY, 11219","Match","Exact","1577 58TH ST, BROOKLYN, NY, 11219",59080392,"L"
73932,"1577 BROADWAY ST NE","SALEM","OR",97301,44.9542991060001,-123.029827909,432,"1577 BROADWAY ST NE, SALEM, OR, 97301","Match","Exact","1577 BROADWAY ST NE, SALEM, OR, 97301",156246711,"L"
73933,"1577 CARROLL STREET","BROOKLYN","NY",11213,40.6663098170001,-73.934623501,433,"1577 CARROLL STREET, BROOKLYN, NY, 11213","Match","Exact","1577 CARROLL ST, BROOKLYN, NY, 11213",59079769,"L"
73934,"1577 ELAINE DR","HANFORD","CA",93230,36.3418609240001,-119.626712867,434,"1577 ELAINE DR, HANFORD, CA, 93230","Match","Exact","1577 ELAINE DR, HANFORD, CA, 93230",197961529,"R"
73935,"1577 FLORENCE AVE","EVANSTON","IL",60201,42.0464354490001,-87.6950467619999,435,"1577 FLORENCE AVE, EVANSTON, IL, 60201","Match","Exact","1577 FLORENCE AVE, EVANSTON, IL, 60201",111743304,"R"
73936,"1577 LASKIN ROAD SUITE 100","VIRGINIA BEACH","VA",23451,NA,NA,436,"1577 LASKIN ROAD SUITE 100, VIRGINIA BEACH, VA, 23451","No_Match",NA,NA,NA,NA
73937,"1577 N LINDER RD  BOX 175","KUNA","ID",83634,43.50276918,-116.413699323,437,"1577 N LINDER RD  BOX 175, KUNA, ID, 83634","Match","Exact","1577 LINDER RD, KUNA, ID, 83634",648981304,"L"
73938,"1577 N LINDER RD MB 211","KUNA","ID",83634,43.50276918,-116.413699323,438,"1577 N LINDER RD MB 211, KUNA, ID, 83634","Match","Exact","1577 LINDER RD, KUNA, ID, 83634",648981304,"L"
73939,"1577 N LINDER RD NUM 211","KUNA","ID",83634,43.50276918,-116.413699323,439,"1577 N LINDER RD NUM 211, KUNA, ID, 83634","Match","Exact","1577 LINDER RD, KUNA, ID, 83634",648981304,"L"
73940,"1577 N LINDER ROAD  212","KUNA","ID",83634,43.50276918,-116.413699323,440,"1577 N LINDER ROAD  212, KUNA, ID, 83634","Match","Exact","1577 LINDER RD, KUNA, ID, 83634",648981304,"L"
73941,"1577 N LINDER ROAD 212","KUNA","ID",83634,43.50276918,-116.413699323,441,"1577 N LINDER ROAD 212, KUNA, ID, 83634","Match","Exact","1577 LINDER RD, KUNA, ID, 83634",648981304,"L"
73942,"1577 N LINDER ROAD SUITE 212","KUNA","ID",83634,43.50276918,-116.413699323,442,"1577 N LINDER ROAD SUITE 212, KUNA, ID, 83634","Match","Exact","1577 LINDER RD, KUNA, ID, 83634",648981304,"L"
73943,"1577 NEVADA RD","PRINCETON","KS",66078,38.4980687070001,-95.212682886,443,"1577 NEVADA RD, PRINCETON, KS, 66078","Match","Exact","1577 NEVADA RD, PRINCETON, KS, 66078",10619431,"L"
73944,"1577 PARKVIEW DR","VISTA","CA",92081,33.1579557090001,-117.238471533,444,"1577 PARKVIEW DR, VISTA, CA, 92081","Match","Exact","1577 PARKVIEW DR, VISTA, CA, 92081",195420893,"R"
73945,"1577 RED OAK LANE","BRENTWOOD","TN",37027,36.0008077850001,-86.726090212,445,"1577 RED OAK LANE, BRENTWOOD, TN, 37027","Match","Exact","1577 RED OAK LN, BRENTWOOD, TN, 37027",624984246,"L"
73946,"1577 ROUTE 300","NEWBURGH","NY",12550,41.539988792,-74.06188939,446,"1577 ROUTE 300, NEWBURGH, NY, 12550","Match","Non_Exact","1577 STATE RTE 300, NEWBURGH, NY, 12550",636410877,"L"
73947,"1577 SANAT MONICA DRIVE","DUNEDIN","FL",34698,28.0262049410001,-82.7734191659999,447,"1577 SANAT MONICA DRIVE, DUNEDIN, FL, 34698","Match","Non_Exact","1577 SANTA MONICA DR, DUNEDIN, FL, 34698",124665567,"R"
73948,"1577 SHOTWELL RD","CLAYTON","NC",27520,35.67572612,-78.475665476,448,"1577 SHOTWELL RD, CLAYTON, NC, 27520","Match","Exact","1577 SHOTWELL RD, CLAYTON, NC, 27520",26548777,"L"
73949,"1577 STEESE RD","UNIONTOWN","OH",44685,40.947687968,-81.477290777,449,"1577 STEESE RD, UNIONTOWN, OH, 44685","Match","Exact","1577 STEESE RD, UNIONTOWN, OH, 44685",61387753,"L"
73950,"1577 STONE GATE LN SE","ATLANTA","GA",30317,33.748378035,-84.3341956849999,450,"1577 STONE GATE LN SE, ATLANTA, GA, 30317","Match","Exact","1577 STONE GATE LN SE, ATLANTA, GA, 30317",624059401,"R"
73951,"1577 TEN MILE ROAD","EVERSON","WA",98247,48.869600715,-122.40596666,451,"1577 TEN MILE ROAD, EVERSON, WA, 98247","Match","Exact","1577 TEN MILE RD, EVERSON, WA, 98247",640066196,"L"
73952,"1577 UNION CHURCH ROAD","CAMERON","NC",28326,35.3253433740001,-79.35683812,452,"1577 UNION CHURCH ROAD, CAMERON, NC, 28326","Match","Exact","1577 UNION CHURCH RD, CAMERON, NC, 28326",20343944,"L"
73953,"15770 BELDEN STREET","DETROIT","MI",48238,42.407211359,-83.1354863339999,453,"15770 BELDEN STREET, DETROIT, MI, 48238","Match","Exact","15770 BELDEN ST, DETROIT, MI, 48238",95461524,"R"
73954,"15770 BELLAIRE BLVD  APT 902","HOUSTON","TX",77083,29.699554564,-95.662278977,454,"15770 BELLAIRE BLVD  APT 902, HOUSTON, TX, 77083","Match","Exact","15770 BELLAIRE BLVD, HOUSTON, TX, 77083",233489670,"R"
73955,"15770 CRYSTALLO DRIVE","PARKER","CO",80134,39.537071096,-104.806875747,455,"15770 CRYSTALLO DRIVE, PARKER, CO, 80134","Match","Exact","15770 CRYSTALLO DR, PARKER, CO, 80134",130824519,"R"
73956,"15770 LASSELLE STREET APTM","MORENO VALLEY","CA",92551,33.89166748,-117.20738103,456,"15770 LASSELLE STREET APTM, MORENO VALLEY, CA, 92551","Match","Exact","15770 LASSELLE ST, MORENO VALLEY, CA, 92551",194856709,"L"
73957,"15771 LAUDER","DETROIT","MI",48227,42.4065820920001,-83.191613293,457,"15771 LAUDER, DETROIT, MI, 48227","Match","Non_Exact","15771 LAUDER ST, DETROIT, MI, 48227",95424653,"L"
73958,"15774 S LAGRANGE - 223","ORLAND PARK","IL",60462,NA,NA,458,"15774 S LAGRANGE - 223, ORLAND PARK, IL, 60462","No_Match",NA,NA,NA,NA
73959,"15774 S LAGRANGE RD STE 267","ORLAND PARK","IL",60462,NA,NA,459,"15774 S LAGRANGE RD STE 267, ORLAND PARK, IL, 60462","No_Match",NA,NA,NA,NA
73960,"15774 S LAGRANGE RD","ORLAND PARK","IL",60462,NA,NA,460,"15774 S LAGRANGE RD, ORLAND PARK, IL, 60462","No_Match",NA,NA,NA,NA
73961,"15775 LOMELA CT","LA MIRADA","CA",90638,33.89003698,-117.995824029,461,"15775 LOMELA CT, LA MIRADA, CA, 90638","Match","Exact","15775 LOMELA CT, LA MIRADA, CA, 90638",141754889,"L"
73962,"15776 SW 74 LANE","MIAMI","FL",33193,25.696384198,-80.448155349,462,"15776 SW 74 LANE, MIAMI, FL, 33193","Match","Non_Exact","15776 SW 74TH LN, MIAMI, FL, 33193",116062299,"L"
73963,"15777 QUARTZ LANE","WILDER","ID",83686,NA,NA,463,"15777 QUARTZ LANE, WILDER, ID, 83686","No_Match",NA,NA,NA,NA
73964,"15777 QUORUM DRIVE APT 1149","ADDISON","TX",75001,32.963814599,-96.8259214299999,464,"15777 QUORUM DRIVE APT 1149, ADDISON, TX, 75001","Match","Exact","15777 QUORUM DR, ADDISON, TX, 75001",647944980,"L"
73965,"15779 78TH DR N","PALM BEACH GARDENS","FL",33418,26.9081220850001,-80.1570144039999,465,"15779 78TH DR N, PALM BEACH GARDENS, FL, 33418","Match","Exact","15779 78TH DR N, PALM BEACH GARDENS, FL, 33418",115523985,"R"
73966,"15779 SELWYN STREET","SOUTHGATE","MI",48195,42.1931408390001,-83.19256796,466,"15779 SELWYN STREET, SOUTHGATE, MI, 48195","Match","Exact","15779 SELWYN ST, SOUTHGATE, MI, 48195",95451806,"L"
73967,"1578 BALLANTREE WAY","SAN JOSE","CA",95118,37.248511417,-121.90256587,467,"1578 BALLANTREE WAY, SAN JOSE, CA, 95118","Match","Exact","1578 BALLANTREE WAY, SAN JOSE, CA, 95118",122946713,"L"
73968,"1578 LEGRAND CIRCLE","LAWRENCEVILLE","GA",30043,33.9954015860001,-84.0673397099999,468,"1578 LEGRAND CIRCLE, LAWRENCEVILLE, GA, 30043","Match","Exact","1578 LEGRAND CIR, LAWRENCEVILLE, GA, 30043",646833862,"L"
73969,"1578 LEXINGTON AVENUE","NEW YORK","NY",10029,40.7888551450001,-73.948760335,469,"1578 LEXINGTON AVENUE, NEW YORK, NY, 10029","Match","Exact","1578 LEXINGTON AVE, NEW YORK, NY, 10029",59657906,"L"
73970,"1578 MAHOGANY DRIVE","ALLEN","TX",75002,33.121019571,-96.6294291039999,470,"1578 MAHOGANY DRIVE, ALLEN, TX, 75002","Match","Exact","1578 MAHOGANY DR, ALLEN, TX, 75002",210514255,"R"
73971,"1578 MCKEE ROAD","TONEY","AL",35773,34.8820849200001,-86.774137197,471,"1578 MCKEE ROAD, TONEY, AL, 35773","Match","Exact","1578 MCKEE RD, TONEY, AL, 35773",58215115,"R"
73972,"1578 MONTROSE RD","RAEFORD","NC",28376,35.0275610680001,-79.347440685,472,"1578 MONTROSE RD, RAEFORD, NC, 28376","Match","Exact","1578 MONTROSE RD, RAEFORD, NC, 28376",639974102,"L"
73973,"1578 SPARROW ROAD","WACONIA","MN",55387,44.828654854,-93.812030196,473,"1578 SPARROW ROAD, WACONIA, MN, 55387","Match","Exact","1578 SPARROW RD, WACONIA, MN, 55387",43509997,"L"
73974,"1578 TIFFANY LANE","BEAUMONT","CA",92223,33.953575357,-116.969087707,474,"1578 TIFFANY LANE, BEAUMONT, CA, 92223","Match","Exact","1578 TIFFANY LN, BEAUMONT, CA, 92223",629096914,"L"
73975,"1578 TRAILWOOD AVENUE","CHULA VISTA","CA",91913,32.6208185460001,-116.980098202,475,"1578 TRAILWOOD AVENUE, CHULA VISTA, CA, 91913","Match","Exact","1578 TRAILWOOD AVE, CHULA VISTA, CA, 91913",195764714,"R"
73976,"1578 UNION STREET","BROOKLYN","NY",11213,40.6681430140001,-73.937033648,476,"1578 UNION STREET, BROOKLYN, NY, 11213","Match","Exact","1578 UNION ST, BROOKLYN, NY, 11213",59079718,"R"
73977,"1578 US HIGHWAY 19S NUMBER 2310","LEESBURG","GA",31763,NA,NA,477,"1578 US HIGHWAY 19S NUMBER 2310, LEESBURG, GA, 31763","No_Match",NA,NA,NA,NA
73978,"1578 W 1700 S  204","SALT LAKE CITY","UT",84118,NA,NA,478,"1578 W 1700 S  204, SALT LAKE CITY, UT, 84118","No_Match",NA,NA,NA,NA
73979,"1578 WEST 1700 SOUTH","SALT LAKE CITY","UT",84104,40.733142419,-111.934951309,479,"1578 WEST 1700 SOUTH, SALT LAKE CITY, UT, 84104","Match","Exact","1578 W 1700 S, SALT LAKE CITY, UT, 84104",176139286,"R"
73980,"1578 WILLIAMSBRIDGE RD UNIT 3E","BRONX","NY",10461,40.8466065640001,-73.8485545039999,480,"1578 WILLIAMSBRIDGE RD UNIT 3E, BRONX, NY, 10461","Match","Exact","1578 WILLIAMSBRIDGE RD, BRONX, NY, 10461",80305348,"R"
73981,"1578","LIBERTY","TX",77575,NA,NA,481,"1578, LIBERTY, TX, 77575","No_Match",NA,NA,NA,NA
73982,"15781 GORDON CUMMINGS ROAD","CANYON","TX",79015,34.9706608020001,-102.020469804,482,"15781 GORDON CUMMINGS ROAD, CANYON, TX, 79015","Match","Exact","15781 GORDON CUMMINGS RD, CANYON, TX, 79015",642461085,"L"
73983,"15782 BASELINE ROAD","BELLEVUE","MI",49021,NA,NA,483,"15782 BASELINE ROAD, BELLEVUE, MI, 49021","No_Match",NA,NA,NA,NA
73984,"15784 2600 ROAD","CEDAREDGE","CO",81413,38.883705122,-107.878131116,484,"15784 2600 ROAD, CEDAREDGE, CO, 81413","Match","Exact","15784 2600 RD, CEDAREDGE, CO, 81413",122388771,"R"
73985,"15784 FLACKWOOD TRAIL","APPLE VALLEY","MN",55124,44.719581545,-93.195599642,485,"15784 FLACKWOOD TRAIL, APPLE VALLEY, MN, 55124","Match","Exact","15784 FLACKWOOD TRL, APPLE VALLEY, MN, 55124",37937579,"L"
73986,"15784 WAGNER ST","SAN LORENZO","CA",94580,37.694233255,-122.123802679,486,"15784 WAGNER ST, SAN LORENZO, CA, 94580","Match","Exact","15784 WAGNER ST, SAN LORENZO, CA, 94580",125014030,"L"
73987,"15785 INDIANA ST","DETROIT","MI",48238,42.4075412440001,-83.157744135,487,"15785 INDIANA ST, DETROIT, MI, 48238","Match","Exact","15785 INDIANA ST, DETROIT, MI, 48238",95426025,"L"
73988,"15786 PASEO HERMOSO","POWAY","CA",92064,32.9985589830001,-117.038929499,488,"15786 PASEO HERMOSO, POWAY, CA, 92064","Match","Non_Exact","15786 PSO HERMOSO, POWAY, CA, 92064",195317502,"L"
73989,"15789 E GREENWOOD DR","AURORA","CO",80013,39.6557098690001,-104.803942056,489,"15789 E GREENWOOD DR, AURORA, CO, 80013","Match","Exact","15789 E GREENWOOD DR, AURORA, CO, 80013",177357294,"L"
73990,"1579 CEDAR ELM DRIVE","EULESS","TX",76039,32.856911407,-97.077607239,490,"1579 CEDAR ELM DRIVE, EULESS, TX, 76039","Match","Exact","1579 CEDAR ELM DR, EULESS, TX, 76039",648491526,"L"
73991,"1579 EAST 10TH STREET","BROOKLYN","NY",11230,40.610522743,-73.963483302,491,"1579 EAST 10TH STREET, BROOKLYN, NY, 11230","Match","Exact","1579 E 10TH ST, BROOKLYN, NY, 11230",59089847,"L"
73992,"1579 EMBER LANE","TARPON SPRINGS","FL",34689,28.1665736740001,-82.789433854,492,"1579 EMBER LANE, TARPON SPRINGS, FL, 34689","Match","Exact","1579 EMBER LN, TARPON SPNGS, FL, 34689",124831095,"R"
73993,"1579 GOLDEN BEAR GATEWAY","MOUNT JULIET","TN",37122,NA,NA,493,"1579 GOLDEN BEAR GATEWAY, MOUNT JULIET, TN, 37122","No_Match",NA,NA,NA,NA
73994,"1579 HAYWORTH CIR NW","PALM BAY","FL",32907,28.012640123,-80.71553747,494,"1579 HAYWORTH CIR NW, PALM BAY, FL, 32907","Match","Exact","1579 HAYWORTH CIR NW, PALM BAY, FL, 32907",93896617,"R"
73995,"1579 HIGHWAY 85 N","FAYETTEVILLE","GA",30214,NA,NA,495,"1579 HIGHWAY 85 N, FAYETTEVILLE, GA, 30214","No_Match",NA,NA,NA,NA
73996,"1579 KINGSTON DRIVE","KANNAPOLIS","NC",28083,35.4932852650001,-80.594088147,496,"1579 KINGSTON DRIVE, KANNAPOLIS, NC, 28083","Match","Exact","1579 KINGSTON DR, KANNAPOLIS, NC, 28083",624591754,"L"
73997,"1579 MONROE DR STE F329","ATLANTA","GA",30324,33.7984998640001,-84.370089697,497,"1579 MONROE DR STE F329, ATLANTA, GA, 30324","Match","Non_Exact","1579 MONROE DR NE, ATLANTA, GA, 30324",640546950,"R"
73998,"1579 MONROE DRIVE F195","ATLANTA","GA",30324,33.7984998640001,-84.370089697,498,"1579 MONROE DRIVE F195, ATLANTA, GA, 30324","Match","Non_Exact","1579 MONROE DR NE, ATLANTA, GA, 30324",640546950,"R"
73999,"1579 MONROE DRIVE NE STE 410","ATLANTA","GA",30324,33.7984998640001,-84.370089697,499,"1579 MONROE DRIVE NE STE 410, ATLANTA, GA, 30324","Match","Exact","1579 MONROE DR NE, ATLANTA, GA, 30324",640546950,"R"
74000,"1579 MONROE DRIVE NE SUITE 410","ATLANTA","GA",30324,33.7984998640001,-84.370089697,500,"1579 MONROE DRIVE NE SUITE 410, ATLANTA, GA, 30324","Match","Exact","1579 MONROE DR NE, ATLANTA, GA, 30324",640546950,"R"
