"ID","Address","City","State","Zip","lat","long","id","input_address","match_indicator","match_type","matched_address","tiger_line_id","tiger_side"
246501,"561 KINGSLAND AVE UNIT 300426","SAINT LOUIS","MO",63130,38.655820313,-90.3091670109999,1,"561 KINGSLAND AVE UNIT 300426, SAINT LOUIS, MO, 63130","Match","Exact","561 KINGSLAND AVE, SAINT LOUIS, MO, 63130",100194319,"L"
246502,"561 LARCH AVE","LA CRESCENT","MN",55947,43.8236328,-91.31318175,2,"561 LARCH AVE, LA CRESCENT, MN, 55947","Match","Exact","561 LARCH AVE, LA CRESCENT, MN, 55947",55817959,"R"
246503,"561 MAIN STREET SOUTH","SOUTHBURY","CT",6488,41.468847225,-73.226705086,3,"561 MAIN STREET SOUTH, SOUTHBURY, CT, 6488","Match","Exact","561 MAIN ST S, SOUTHBURY, CT, 06488",3725572,"L"
246504,"561 N COLFAX STREET","LA HABRA","CA",90631,33.9366221510001,-117.930921803,4,"561 N COLFAX STREET, LA HABRA, CA, 90631","Match","Exact","561 N COLFAX ST, LA HABRA, CA, 90631",144005967,"L"
246505,"561 N MOFFAT AVENUE 100A","EMMETT","ID",83617,43.8796327680001,-116.487687367,5,"561 N MOFFAT AVENUE 100A, EMMETT, ID, 83617","Match","Non_Exact","561 N MOFFATT AVE, EMMETT, ID, 83617",122872269,"L"
246506,"561 OAKDALE RD","NEWARK","DE",19713,39.666545139,-75.6990685819999,6,"561 OAKDALE RD, NEWARK, DE, 19713","Match","Exact","561 OAKDALE RD, NEWARK, DE, 19713",187280002,"R"
246507,"561 OLD NASHVILLE HWY","LAVERGNE","TN",37086,35.997955968,-86.5585178219999,7,"561 OLD NASHVILLE HWY, LAVERGNE, TN, 37086","Match","Non_Exact","561 OLD NASHVILLE HWY, LA VERGNE, TN, 37086",59038556,"L"
246508,"561 OLD ROCK ISLAND RD","ROCK ISLAND","TN",38581,NA,NA,8,"561 OLD ROCK ISLAND RD, ROCK ISLAND, TN, 38581","Tie",NA,NA,NA,NA
246509,"561 ORION RD","TUSTIN","CA",92782,33.7006425370001,-117.804251245,9,"561 ORION RD, TUSTIN, CA, 92782","Match","Exact","561 ORION RD, TUSTIN, CA, 92782",637341681,"R"
246510,"561 PINE COURT","ALTAMONTE SPRINGS","FL",32714,28.653030567,-81.4127005829999,10,"561 PINE COURT, ALTAMONTE SPRINGS, FL, 32714","Match","Exact","561 PINE CT, ALTAMONTE SPRINGS, FL, 32714",93741806,"R"
246511,"561 PINEDALE DRIVE","ANNAPOLIS","MD",21401,38.985006351,-76.5942718319999,11,"561 PINEDALE DRIVE, ANNAPOLIS, MD, 21401","Match","Exact","561 PINEDALE DR, ANNAPOLIS, MD, 21401",68213591,"L"
246512,"561 POND WEED DR","LAWRENCEVILLE","GA",30045,33.959837255,-83.959595728,12,"561 POND WEED DR, LAWRENCEVILLE, GA, 30045","Match","Exact","561 POND WEED DR, LAWRENCEVILLE, GA, 30045",624585108,"R"
246513,"561 QUAIL ROAD","OREM","UT",84097,40.328564177,-111.682671644,13,"561 QUAIL ROAD, OREM, UT, 84097","Match","Non_Exact","561 E QUAIL RD, OREM, UT, 84097",134205242,"L"
246514,"561 RUSHING CREEK PLACE","THOUSAND OAKS","CA",91360,34.229915181,-118.867240592,14,"561 RUSHING CREEK PLACE, THOUSAND OAKS, CA, 91360","Match","Exact","561 RUSHING CREEK PL, THOUSAND OAKS, CA, 91360",109974919,"R"
246515,"561 S FIG TREE LANE","PLANTATION","FL",33317,26.114315409,-80.229704821,15,"561 S FIG TREE LANE, PLANTATION, FL, 33317","Match","Exact","561 S FIG TREE LN, PLANTATION, FL, 33317",114708454,"R"
246516,"561 S PINE STREET","ORANGE","CA",92866,33.7796176750001,-117.845187204,16,"561 S PINE STREET, ORANGE, CA, 92866","Match","Exact","561 S PINE ST, ORANGE, CA, 92866",144051468,"L"
246517,"561 SAINT MARKS AVE","BROOKLYN","NY",11216,40.6757615610001,-73.955197458,17,"561 SAINT MARKS AVE, BROOKLYN, NY, 11216","Match","Exact","561 ST MARKS AVE, BROOKLYN, NY, 11216",59079332,"L"
246518,"561 SANTA FE DRIVE","DENVER","CO",80202,39.7250696360001,-104.998580539,18,"561 SANTA FE DRIVE, DENVER, CO, 80202","Match","Non_Exact","561 SANTA FE DR, DENVER, CO, 80204",177330563,"L"
246519,"561 SHELBY STREET","LEXINGTON","KY",40505,38.049148384,-84.474179657,19,"561 SHELBY STREET, LEXINGTON, KY, 40505","Match","Exact","561 SHELBY ST, LEXINGTON, KY, 40505",31925917,"L"
246520,"561 SOUTH BROWN RD","ENFIELD","NC",27823,36.2378324810001,-77.710972844,20,"561 SOUTH BROWN RD, ENFIELD, NC, 27823","Match","Exact","561 S BROWN RD, ENFIELD, NC, 27823",56732933,"L"
246521,"561 STERLING ST NE","PALM BAY","FL",32907,28.0185871960001,-80.655915184,21,"561 STERLING ST NE, PALM BAY, FL, 32907","Match","Exact","561 STERLING ST NE, PALM BAY, FL, 32907",93907327,"L"
246522,"561 STRANDER BLVD SUIT B-115","TUKWILA","WA",98188,47.4557770320001,-122.2480272,22,"561 STRANDER BLVD SUIT B-115, TUKWILA, WA, 98188","Match","Exact","561 STRANDER BLVD, TUKWILA, WA, 98188",187007134,"R"
246523,"561 THORNTON ROAD STE Z","LITHIA SPRINGS","GA",30122,33.789989012,-84.625073663,23,"561 THORNTON ROAD STE Z, LITHIA SPRINGS, GA, 30122","Match","Exact","561 THORNTON RD, LITHIA SPGS, GA, 30122",16647156,"L"
246524,"561 WALKER ROAD","ONEIDA","TN",37841,36.4335983870001,-84.4187658289999,24,"561 WALKER ROAD, ONEIDA, TN, 37841","Match","Exact","561 WALKER RD, ONEIDA, TN, 37841",26347509,"L"
246525,"561 WATTS CREEK RD","WILLIAMSBURG","KY",40769,36.7699831460001,-84.158983644,25,"561 WATTS CREEK RD, WILLIAMSBURG, KY, 40769","Match","Exact","561 WATTS CREEK RD, WILLIAMSBURG, KY, 40769",150151118,"L"
246526,"561 WEST 143RD STREET APT 57A","NEW YORK","NY",10001,40.8247159590001,-73.9503734639999,26,"561 WEST 143RD STREET APT 57A, NEW YORK, NY, 10001","Match","Non_Exact","561 W 143RD ST, NEW YORK, NY, 10031",59655946,"R"
246527,"561 WEST 147TH STREET APT 55","NEW YORK","NY",10031,40.8272476810001,-73.9483463559999,27,"561 WEST 147TH STREET APT 55, NEW YORK, NY, 10031","Match","Exact","561 W 147TH ST, NEW YORK, NY, 10031",59655922,"R"
246528,"561 WEST 440 NORTH","AMERICAN FORK","UT",84003,40.385886579,-111.813294275,28,"561 WEST 440 NORTH, AMERICAN FORK, UT, 84003","Match","Exact","561 W 440 N, AMERICAN FORK, UT, 84003",134264491,"R"
246529,"561 WEST WAYNE AVE","WAYNE","PA",19087,40.037238872,-75.403254218,29,"561 WEST WAYNE AVE, WAYNE, PA, 19087","Match","Exact","561 W WAYNE AVE, WAYNE, PA, 19087",134866736,"R"
246530,"561 WOODSFIELD DRIVE","COLUMBUS","OH",43214,40.0722730950001,-83.0031540159999,30,"561 WOODSFIELD DRIVE, COLUMBUS, OH, 43214","Match","Exact","561 WOODSFIELD DR, COLUMBUS, OH, 43214",218660536,"R"
246531,"5610 2ND AVE","FERNDALE","WA",98248,48.846037132,-122.591701305,31,"5610 2ND AVE, FERNDALE, WA, 98248","Match","Exact","5610 SECOND AVE, FERNDALE, WA, 98248",183764260,"R"
246532,"5610 BUNCOMBE RD APARTMENT 304","SHREVEPORT","LA",71129,32.446214986,-93.843478331,32,"5610 BUNCOMBE RD APARTMENT 304, SHREVEPORT, LA, 71129","Match","Exact","5610 BUNCOMBE RD, SHREVEPORT, LA, 71129",57484634,"R"
246533,"5610 BUNCOMBE RD APT 1211","SHREVEPORT","LA",71129,32.446214986,-93.843478331,33,"5610 BUNCOMBE RD APT 1211, SHREVEPORT, LA, 71129","Match","Exact","5610 BUNCOMBE RD, SHREVEPORT, LA, 71129",57484634,"R"
246534,"5610 CAITLIN COURT","TROY","MI",48098,42.5993937150001,-83.178776268,34,"5610 CAITLIN COURT, TROY, MI, 48098","Match","Exact","5610 CAITLIN CT, TROY, MI, 48098",69762325,"R"
246535,"5610 DELAWARE DRIVE","OXON HILL","MD",20745,38.8132547860001,-76.99990222,35,"5610 DELAWARE DRIVE, OXON HILL, MD, 20745","Match","Exact","5610 DELAWARE DR, OXON HILL, MD, 20745",76311989,"L"
246536,"5610 FREDRICKS RD","SUNBURY","ID",43074,NA,NA,36,"5610 FREDRICKS RD, SUNBURY, ID, 43074","No_Match",NA,NA,NA,NA
246537,"5610 HARBOR HOUSE DR","GREENSBORO","NC",27410,36.123653081,-79.8899842499999,37,"5610 HARBOR HOUSE DR, GREENSBORO, NC, 27410","Match","Exact","5610 HARBOR HOUSE DR, GREENSBORO, NC, 27410",624707562,"R"
246538,"5610 JENNIFER LANE","MIDLOTHIAN","TX",76065,32.51011823,-96.92152731,38,"5610 JENNIFER LANE, MIDLOTHIAN, TX, 76065","Match","Exact","5610 JENNIFER LN, MIDLOTHIAN, TX, 76065",627662668,"L"
246539,"5610 LANCASTER AVE SUITE 900","PHILADELPHIA","PA",19131,39.9804867660001,-75.234420391,39,"5610 LANCASTER AVE SUITE 900, PHILADELPHIA, PA, 19131","Match","Exact","5610 LANCASTER AVE, PHILADELPHIA, PA, 19131",131397979,"L"
246540,"5610 LOBO LN","WESLACO","TX",78596,26.1054481690001,-97.9919291319999,40,"5610 LOBO LN, WESLACO, TX, 78596","Match","Exact","5610 LOBO LN, WESLACO, TX, 78596",640905650,"L"
246541,"5610 N 56TH ST","TAMPA","FL",33610,27.9994474010001,-82.393561533,41,"5610 N 56TH ST, TAMPA, FL, 33610","Match","Exact","5610 N 56TH ST, TAMPA, FL, 33610",104535010,"L"
246542,"5610 OLD BULLARD RD STE 201","TYLER","TX",75703,32.288393768,-95.306227832,42,"5610 OLD BULLARD RD STE 201, TYLER, TX, 75703","Match","Non_Exact","5610 OLD BULLARD RD, TYLER, TX, 75703",141272773,"L"
246543,"5610 ONYX CT","WILMINGTON","NC",28412,34.133669694,-77.9027228849999,43,"5610 ONYX CT, WILMINGTON, NC, 28412","Match","Exact","5610 ONYX CT, WILMINGTON, NC, 28412",629085468,"R"
246544,"5610 ROSE DR","MOSS POINT","MS",39563,30.397601218,-88.517196596,44,"5610 ROSE DR, MOSS POINT, MS, 39563","Match","Exact","5610 ROSE DR, MOSS POINT, MS, 39563",89254213,"R"
246545,"5610 S CURTICE ST","LITTLETON","CO",80120,39.615056823,-105.018378035,45,"5610 S CURTICE ST, LITTLETON, CO, 80120","Match","Exact","5610 S CURTICE ST, LITTLETON, CO, 80120",177335498,"L"
246546,"5610 SAN LUIS CT","PLEASANTON","CA",94566,37.6479251040001,-121.877224647,46,"5610 SAN LUIS CT, PLEASANTON, CA, 94566","Match","Exact","5610 SAN LUIS CT, PLEASANTON, CA, 94566",125032761,"L"
246547,"5610 SPURFLOWER DRIVE","AUSTIN","TX",78759,30.392491008,-97.767123102,47,"5610 SPURFLOWER DRIVE, AUSTIN, TX, 78759","Match","Exact","5610 SPURFLOWER DR, AUSTIN, TX, 78759",63927232,"R"
246548,"5610 SUGARLOAF ST","ANACORTES","WA",98221,48.4983467540001,-122.681648865,48,"5610 SUGARLOAF ST, ANACORTES, WA, 98221","Match","Exact","5610 SUGARLOAF ST, ANACORTES, WA, 98221",635491577,"R"
246549,"5610 SW 7TH STREET","PLANTATION","FL",33317,26.1119043350001,-80.224832452,49,"5610 SW 7TH STREET, PLANTATION, FL, 33317","Match","Exact","5610 SW 7TH ST, PLANTATION, FL, 33317",114713352,"L"
246550,"5610 TOCCOA DRIVE","DOUGLASVILLE","GA",30135,33.653189001,-84.726829885,50,"5610 TOCCOA DRIVE, DOUGLASVILLE, GA, 30135","Match","Exact","5610 TOCCOA DR, DOUGLASVILLE, GA, 30135",619859154,"L"
246551,"5610 W MARTIN DR","MILWAUKEE","WI",53208,43.0460186130001,-87.983235784,51,"5610 W MARTIN DR, MILWAUKEE, WI, 53208","Match","Exact","5610 W MARTIN DR, MILWAUKEE, WI, 53208",77733884,"R"
246552,"5610 WEST BELLFORT","HOUSTON","TX",77035,29.6572696580001,-95.48535958,52,"5610 WEST BELLFORT, HOUSTON, TX, 77035","Match","Non_Exact","5610 W BELLFORT ST, HOUSTON, TX, 77035",96039443,"R"
246553,"5610 WEST END ROAD SUITE 109","ARCATA","CA",95521,NA,NA,53,"5610 WEST END ROAD SUITE 109, ARCATA, CA, 95521","No_Match",NA,NA,NA,NA
246554,"5610 WESTON LN N","PLYMOUTH","MN",55446,45.0555726090001,-93.482965825,54,"5610 WESTON LN N, PLYMOUTH, MN, 55446","Match","Exact","5610 WESTON LN N, PLYMOUTH, MN, 55446",650885247,"L"
246555,"56100 BITTERSWEET RD","MISHAWAKA","IN",46545,41.6804803970001,-86.10965641,55,"56100 BITTERSWEET RD, MISHAWAKA, IN, 46545","Match","Exact","56100 BITTERSWEET RD, MISHAWAKA, IN, 46545",8080077,"L"
246556,"56100 BITTERSWEET ROAD","MISHAWAKA","IN",46545,41.6804803970001,-86.10965641,56,"56100 BITTERSWEET ROAD, MISHAWAKA, IN, 46545","Match","Exact","56100 BITTERSWEET RD, MISHAWAKA, IN, 46545",8080077,"L"
246557,"5611 108TH STREET NE","MARYSVILLE","WA",98271,48.0921128260001,-122.154965615,57,"5611 108TH STREET NE, MARYSVILLE, WA, 98271","Match","Exact","5611 108TH ST NE, MARYSVILLE, WA, 98271",608939726,"R"
246558,"5611 AN COUNTY RD 370","PALESTINE","TX",75801,NA,NA,58,"5611 AN COUNTY RD 370, PALESTINE, TX, 75801","No_Match",NA,NA,NA,NA
246559,"5611 BENNING DRIVE","HOUSTON","TX",77096,29.6590408380001,-95.485272973,59,"5611 BENNING DRIVE, HOUSTON, TX, 77096","Match","Exact","5611 BENNING DR, HOUSTON, TX, 77096",96039345,"L"
246560,"5611 CASCADE RD SE","GRAND RAPIDS","MI",49546,42.9363283180001,-85.530384376,60,"5611 CASCADE RD SE, GRAND RAPIDS, MI, 49546","Match","Exact","5611 CASCADE RD SE, GRAND RAPIDS, MI, 49546",12488924,"L"
246561,"5611 COUNTY ROAD 37","VALLEY GRANDE","AL",36701,32.4740028730001,-87.0512576959999,61,"5611 COUNTY ROAD 37, VALLEY GRANDE, AL, 36701","Match","Exact","5611 CO RD 37, VALLEY GRANDE, AL, 36701",632786489,"L"
246562,"5611 FAIR OAKS AVENUE","BALTIMORE","MD",21214,39.357387982,-76.565874095,62,"5611 FAIR OAKS AVENUE, BALTIMORE, MD, 21214","Match","Exact","5611 FAIR OAKS AVE, BALTIMORE, MD, 21214",206410686,"R"
246563,"5611 MELSHIRE DRIVE","DALLAS","TX",75230,32.9145883260001,-96.813313742,63,"5611 MELSHIRE DRIVE, DALLAS, TX, 75230","Match","Exact","5611 MELSHIRE DR, DALLAS, TX, 75230",102970790,"R"
246564,"5611 MORNING FLOWER DR","MEMPHIS","TN",38135,35.2321431890001,-89.876236019,64,"5611 MORNING FLOWER DR, MEMPHIS, TN, 38135","Match","Exact","5611 MORNING FLOWER DR, MEMPHIS, TN, 38135",72959208,"R"
246565,"5611 MORNING FLOWER DRIVE","MEMPHIS","TN",38135,35.2321431890001,-89.876236019,65,"5611 MORNING FLOWER DRIVE, MEMPHIS, TN, 38135","Match","Exact","5611 MORNING FLOWER DR, MEMPHIS, TN, 38135",72959208,"R"
246566,"5611 NW OAKRIDGE COURT","KANSAS CITY","MO",64151,39.226145258,-94.6459398549999,66,"5611 NW OAKRIDGE COURT, KANSAS CITY, MO, 64151","Match","Non_Exact","5611 NW OAK RIDGE CT, KANSAS CITY, MO, 64151",39709214,"L"
246567,"5611 S 32ND STREET 256","PHOENIX","AZ",85040,33.396331692,-112.012717175,67,"5611 S 32ND STREET 256, PHOENIX, AZ, 85040","Match","Non_Exact","5611 S 32ND ST, PHOENIX, AZ, 85040",652691992,"L"
246568,"5611 SAN SABA AVE","MIDLAND","TX",79707,32.0169852270001,-102.165047053,68,"5611 SAN SABA AVE, MIDLAND, TX, 79707","Match","Exact","5611 SAN SABA AVE, MIDLAND, TX, 79707",618364727,"L"
246569,"5611 SOJOURN DR","RALEIGH","NC",27610,35.7258523620001,-78.563146527,69,"5611 SOJOURN DR, RALEIGH, NC, 27610","Match","Exact","5611 SOJOURN DR, RALEIGH, NC, 27610",612824520,"L"
246570,"5611 STONEGATE RD","DALLAS","TX",75209,32.859793935,-96.8169634879999,70,"5611 STONEGATE RD, DALLAS, TX, 75209","Match","Exact","5611 STONEGATE RD, DALLAS, TX, 75209",102905861,"L"
246571,"5611 SUNRISE DR","KNOXVILLE","TN",37919,35.939762633,-83.997736076,71,"5611 SUNRISE DR, KNOXVILLE, TN, 37919","Match","Exact","5611 SUNRISE DR, KNOXVILLE, TN, 37919",42615779,"R"
246572,"5611 W 79TH STREET","BURBANK","IL",60459,NA,NA,72,"5611 W 79TH STREET, BURBANK, IL, 60459","Tie",NA,NA,NA,NA
246573,"5611 WEST MADISON","CHICAGO","IL",60644,41.8801833810001,-87.7653367039999,73,"5611 WEST MADISON, CHICAGO, IL, 60644","Match","Non_Exact","5611 W MADISON ST, CHICAGO, IL, 60644",641688113,"L"
246574,"56113 STATE HIGHWAY 56","WEST CONCORD","MN",55985,44.1363394460001,-92.899546427,74,"56113 STATE HIGHWAY 56, WEST CONCORD, MN, 55985","Match","Exact","56113 STATE HWY 56, WEST CONCORD, MN, 55985",31426998,"L"
246575,"56119 HANO ROAD","INDEPENDANCE","LA",92544,NA,NA,75,"56119 HANO ROAD, INDEPENDANCE, LA, 92544","No_Match",NA,NA,NA,NA
246576,"5612  LAKEWOOD AVENUE","NORFOLK","VA",23509,36.8921762520001,-76.269089122,76,"5612  LAKEWOOD AVENUE, NORFOLK, VA, 23509","Match","Non_Exact","5612 LAKEWOOD DR, NORFOLK, VA, 23509",122133815,"R"
246577,"5612 AMOROSO DRIVE","FORT MYERS","FL",33919,26.565683569,-81.891017031,77,"5612 AMOROSO DRIVE, FORT MYERS, FL, 33919","Match","Exact","5612 AMOROSO DR, FORT MYERS, FL, 33919",118025966,"L"
246578,"5612 DARMONDALE","SAN ANTONIO","TX",78261,29.6568080590001,-98.3787360329999,78,"5612 DARMONDALE, SAN ANTONIO, TX, 78261","Match","Non_Exact","5612 DARMONDALE BLVD, SAN ANTONIO, TX, 78261",101705192,"R"
246579,"5612 DIAMOND OAKS DR N","HALTOM CITY","TX",76117,32.8257675030001,-97.263350121,79,"5612 DIAMOND OAKS DR N, HALTOM CITY, TX, 76117","Match","Exact","5612 DIAMOND OAKS DR N, HALTOM CITY, TX, 76117",101862384,"R"
246580,"5612 DOVE CREEK AVE","NORTHPORT","AL",35473,33.260661745,-87.575712494,80,"5612 DOVE CREEK AVE, NORTHPORT, AL, 35473","Match","Exact","5612 DOVE CREEK AVE, NORTHPORT, AL, 35473",82146090,"L"
246581,"5612 E WASHINGTON ST","INDIANAPOLIS","IN",46219,39.770739619,-86.071715544,81,"5612 E WASHINGTON ST, INDIANAPOLIS, IN, 46219","Match","Exact","5612 E WASHINGTON ST, INDIANAPOLIS, IN, 46219",614078438,"L"
246582,"5612 EAST WASHINGTON STREET","INDIANAPOLIS","IN",46219,39.7707382830001,-86.0717422609999,82,"5612 EAST WASHINGTON STREET, INDIANAPOLIS, IN, 46219","Match","Exact","5612 E WASHINGTON ST, INDIANAPOLIS, IN, 46219",614078438,"L"
246583,"5612 FIRST COURT","WEST LINN","OR",97068,45.3658576400001,-122.6146151,83,"5612 FIRST COURT, WEST LINN, OR, 97068","Match","Exact","5612 1ST CT, WEST LINN, OR, 97068",157916448,"L"
246584,"5612 FISH LAKE DAM RD","DULUTH","MN",55803,46.960906574,-92.266617056,84,"5612 FISH LAKE DAM RD, DULUTH, MN, 55803","Match","Exact","5612 FISH LAKE DAM RD, DULUTH, MN, 55803",163228923,"R"
246585,"5612 FORT HAMILTON PKWY   FL1","BROOKLYN","NY",11219,40.634936168,-74.002807221,85,"5612 FORT HAMILTON PKWY   FL1, BROOKLYN, NY, 11219","Match","Exact","5612 FORT HAMILTON PKWY, BROOKLYN, NY, 11219",59094884,"R"
246586,"5612 NE 4TH CT","RENTON","WA",98059,47.4898374150001,-122.144990944,86,"5612 NE 4TH CT, RENTON, WA, 98059","Match","Exact","5612 NE 4TH CT, RENTON, WA, 98059",186958748,"L"
246587,"5612 PARK RD","FT LAUDERDALE","FL",33312,26.051844728,-80.176277065,87,"5612 PARK RD, FT LAUDERDALE, FL, 33312","Match","Exact","5612 PARK RD, FORT LAUDERDALE, FL, 33312",114753008,"L"
246588,"5612 PLUMMER BLVD","SUFFOLK","VA",23435,36.8602825030001,-76.438698882,88,"5612 PLUMMER BLVD, SUFFOLK, VA, 23435","Match","Exact","5612 PLUMMER BLVD, SUFFOLK, VA, 23435",122228078,"R"
246589,"5612 QUITMAN TRL","RALEIGH","NC",27610,35.7365396450001,-78.545661917,89,"5612 QUITMAN TRL, RALEIGH, NC, 27610","Match","Exact","5612 QUITMAN TRL, RALEIGH, NC, 27610",619304899,"R"
246590,"5612 VINEWOOD DR","GARLAND","TX",75043,32.852022909,-96.618296613,90,"5612 VINEWOOD DR, GARLAND, TX, 75043","Match","Exact","5612 VINEWOOD DR, GARLAND, TX, 75043",102930950,"R"
246591,"5612 W 158TH TERRACE","OVERLAND PARK","KS",66223,38.8414376280001,-94.650367058,91,"5612 W 158TH TERRACE, OVERLAND PARK, KS, 66223","Match","Exact","5612 W 158TH TER, OVERLAND PARK, KS, 66223",640605100,"R"
246592,"5612 W NORTHWOOD DR","GLENDALE","AZ",85310,33.7080669040001,-112.180825911,92,"5612 W NORTHWOOD DR, GLENDALE, AZ, 85310","Match","Exact","5612 W NORTHWOOD DR, GLENDALE, AZ, 85310",128353035,"L"
246593,"5612 W WOODHAVEN DR","MCCORDSVILLE","IN",46055,39.874056314,-85.91081836,93,"5612 W WOODHAVEN DR, MCCORDSVILLE, IN, 46055","Match","Exact","5612 W WOODHAVEN DR, MCCORDSVILLE, IN, 46055",648360276,"L"
246594,"5612 WOODLAND AVENUE","WEST DES MOINES","IA",50266,41.586735645,-93.784865867,94,"5612 WOODLAND AVENUE, WEST DES MOINES, IA, 50266","Match","Exact","5612 WOODLAND AVE, WEST DES MOINES, IA, 50266",65852860,"R"
246595,"56122 LANCEWOOD DRIVE","SHELBY TOWNSHIP","MI",48316,42.7073883320001,-83.0447317379999,95,"56122 LANCEWOOD DRIVE, SHELBY TOWNSHIP, MI, 48316","Match","Non_Exact","56122 LANCEWOOD, SHELBY TOWNSHIP, MI, 48316",110708644,"L"
246596,"56123 RIO LINDO DRIVE","ELKHART","IN",46514,41.6811135560001,-86.0221494629999,96,"56123 RIO LINDO DRIVE, ELKHART, IN, 46514","Match","Exact","56123 RIO LINDO DR, ELKHART, IN, 46514",7762880,"R"
246597,"5613 ARTESIAN DRIVE","DERWOOD","MD",20855,39.1768332890001,-77.1098563479999,97,"5613 ARTESIAN DRIVE, DERWOOD, MD, 20855","Match","Exact","5613 ARTESIAN DR, DERWOOD, MD, 20855",62084811,"L"
246598,"5613 ASH AVENUE","RAYTOWN","MO",64133,39.020746892,-94.4589285,98,"5613 ASH AVENUE, RAYTOWN, MO, 64133","Match","Exact","5613 ASH AVE, RAYTOWN, MO, 64133",639225643,"L"
246599,"5613 CASTLEBURY COURT","BURKE","VA",22015,38.8006640460001,-77.277162341,99,"5613 CASTLEBURY COURT, BURKE, VA, 22015","Match","Exact","5613 CASTLEBURY CT, BURKE, VA, 22015",619059594,"L"
246600,"5613 DENISE DRIVE","HALTOM CITY","TX",76148,32.8486647120001,-97.2619422389999,100,"5613 DENISE DRIVE, HALTOM CITY, TX, 76148","Match","Exact","5613 DENISE DR, HALTOM CITY, TX, 76148",101861982,"L"
246601,"5613 JEFF DAVIS AVENUE UNIT B","AUSTIN","TX",78756,30.3296531390001,-97.7370386539999,101,"5613 JEFF DAVIS AVENUE UNIT B, AUSTIN, TX, 78756","Match","Exact","5613 JEFF DAVIS AVE, AUSTIN, TX, 78756",63931356,"R"
246602,"5613 LEESBURG PIKE UNIT 41","FALLS CHURCH","VA",22041,38.848271013,-77.124568176,102,"5613 LEESBURG PIKE UNIT 41, FALLS CHURCH, VA, 22041","Match","Exact","5613 LEESBURG PIKE, FALLS CHURCH, VA, 22041",75982392,"L"
246603,"5613 MELODIA CIR","DUBLIN","CA",94568,37.70528546,-121.901833059,103,"5613 MELODIA CIR, DUBLIN, CA, 94568","Match","Exact","5613 MELODIA CIR, DUBLIN, CA, 94568",650697672,"L"
246604,"5613 QUAIL RIDGE DR","SANFORD","NC",27332,35.3926355900001,-79.231662657,104,"5613 QUAIL RIDGE DR, SANFORD, NC, 27332","Match","Exact","5613 QUAIL RIDGE DR, SANFORD, NC, 27332",636619446,"R"
246605,"5613 TOWN CENTER DRIVE UNIT 2","GRANGER","IN",46530,41.7114475120001,-86.169637984,105,"5613 TOWN CENTER DRIVE UNIT 2, GRANGER, IN, 46530","Match","Exact","5613 TOWN CENTER DR, GRANGER, IN, 46530",8090458,"R"
246606,"5613 W 200 SOUTH","NEW PALESTINE","IN",46163,39.7568674070001,-85.907382424,106,"5613 W 200 SOUTH, NEW PALESTINE, IN, 46163","Match","Exact","5613 W 200 S, NEW PALESTINE, IN, 46163",31083248,"R"
246607,"5613 W TUSCARORA","PEORIA","IL",61607,40.6090484870001,-89.682123927,107,"5613 W TUSCARORA, PEORIA, IL, 61607","Match","Non_Exact","5613 W TUSCARORA RD, PEORIA, IL, 61607",8717779,"R"
246608,"5613 WATER ROSE RD","WINTER GARDEN","FL",34787,28.4848644420001,-81.606305241,108,"5613 WATER ROSE RD, WINTER GARDEN, FL, 34787","Match","Exact","5613 WATER ROSE RD, WINTER GARDEN, FL, 34787",645098400,"L"
246609,"5613 WHITTIER LANE","TULLY","NY",13159,42.778951421,-76.130182734,109,"5613 WHITTIER LANE, TULLY, NY, 13159","Match","Exact","5613 WHITTIER LN, TULLY, NY, 13159",46592585,"L"
246610,"5613 YAMASSEE DRIVE","LIBERTY TWP","OH",45011,39.410951702,-84.4317347859999,110,"5613 YAMASSEE DRIVE, LIBERTY TWP, OH, 45011","Match","Exact","5613 YAMASSEE DR, LIBERTY TWP, OH, 45011",113819306,"L"
246611,"56139 MARSH HAWK RD","BEND","OR",97707,43.8393699960001,-121.455635158,111,"56139 MARSH HAWK RD, BEND, OR, 97707","Match","Exact","56139 MARSH HAWK RD, BEND, OR, 97707",152531694,"L"
246612,"5614 CIVETTA COURT","FRISCO","TX",75035,33.123842182,-96.761080611,112,"5614 CIVETTA COURT, FRISCO, TX, 75035","Match","Exact","5614 CIVETTA CT, FRISCO, TX, 75035",651062035,"R"
246613,"5614 CONNECTICUT AVE NW NO 209","WASHINGTON DC","DC",20015,38.9653714240001,-77.075850276,113,"5614 CONNECTICUT AVE NW NO 209, WASHINGTON DC, DC, 20015","Match","Exact","5614 CONNECTICUT AVE NW, WASHINGTON, DC, 20015",76219174,"L"
246614,"5614 CONNECTICUT AVE NW NUMBER 140","WASHINGTON","DC",20015,38.9653714240001,-77.075850276,114,"5614 CONNECTICUT AVE NW NUMBER 140, WASHINGTON, DC, 20015","Match","Exact","5614 CONNECTICUT AVE NW, WASHINGTON, DC, 20015",76219174,"L"
246615,"5614 CONNECTICUT AVE NW STE 151","WASHINGTON","DC",20015,38.9653714240001,-77.075850276,115,"5614 CONNECTICUT AVE NW STE 151, WASHINGTON, DC, 20015","Match","Exact","5614 CONNECTICUT AVE NW, WASHINGTON, DC, 20015",76219174,"L"
246616,"5614 CONNECTICUT AVENUE NW","WASHINGTON","DC",20015,38.9653714240001,-77.075850276,116,"5614 CONNECTICUT AVENUE NW, WASHINGTON, DC, 20015","Match","Exact","5614 CONNECTICUT AVE NW, WASHINGTON, DC, 20015",76219174,"L"
246617,"5614 CONNECTICUT AVENUE","NW WASHINGTON","DC",20015,38.9653714240001,-77.075850276,117,"5614 CONNECTICUT AVENUE, NW WASHINGTON, DC, 20015","Match","Non_Exact","5614 CONNECTICUT AVE NW, WASHINGTON, DC, 20015",76219174,"L"
246618,"5614 CRESCENT RIDGE DRIVE","WHITE MARSH","MD",21162,39.400187164,-76.4132509739999,118,"5614 CRESCENT RIDGE DRIVE, WHITE MARSH, MD, 21162","Match","Exact","5614 CRESCENT RIDGE DR, WHITE MARSH, MD, 21162",649763023,"R"
246619,"5614 GRAND PKWY","RICHMOND","NY",77406,NA,NA,119,"5614 GRAND PKWY, RICHMOND, NY, 77406","No_Match",NA,NA,NA,NA
246620,"5614 LA MOYA AVE","JACKSONVILLE","FL",32210,30.256975552,-81.7326882529999,120,"5614 LA MOYA AVE, JACKSONVILLE, FL, 32210","Match","Exact","5614 LA MOYA AVE, JACKSONVILLE, FL, 32210",83932451,"L"
246621,"5614 LAURIUM ROAD","CHARLOTTE","NC",28226,35.125645154,-80.796564985,121,"5614 LAURIUM ROAD, CHARLOTTE, NC, 28226","Match","Exact","5614 LAURIUM RD, CHARLOTTE, NC, 28226",70534511,"R"
246622,"5614 MARLBOROUGH ROAD","PITTSBURGH","PA",15217,40.4386948310001,-79.9272130269999,122,"5614 MARLBOROUGH ROAD, PITTSBURGH, PA, 15217","Match","Exact","5614 MARLBOROUGH RD, PITTSBURGH, PA, 15217",51650129,"R"
246623,"5614 PARTRIDGE DRIVE","ORLANDO","FL",32810,28.6124909920001,-81.456756452,123,"5614 PARTRIDGE DRIVE, ORLANDO, FL, 32810","Match","Exact","5614 PARTRIDGE DR, ORLANDO, FL, 32810",94326562,"L"
246624,"5614 S DORCHESTER AVE","CHICAGO","IL",60637,41.792959469,-87.5916386919999,124,"5614 S DORCHESTER AVE, CHICAGO, IL, 60637","Match","Exact","5614 S DORCHESTER AVE, CHICAGO, IL, 60637",111771768,"R"
246625,"5614 S VENTURA CT","CENTENNIAL","CO",80015,39.614161413,-104.779048677,125,"5614 S VENTURA CT, CENTENNIAL, CO, 80015","Match","Exact","5614 S VENTURA CT, CENTENNIAL, CO, 80015",177520941,"R"
246626,"5614 SAXON DR","HOUSTON","TX",77092,29.8273028570001,-95.474309718,126,"5614 SAXON DR, HOUSTON, TX, 77092","Match","Exact","5614 SAXON DR, HOUSTON, TX, 77092",96028218,"R"
246627,"5614 SOUTH HOOVER STREET UNIT 8","LOS ANGELES","CA",90037,33.991259266,-118.287093917,127,"5614 SOUTH HOOVER STREET UNIT 8, LOS ANGELES, CA, 90037","Match","Exact","5614 S HOOVER ST, LOS ANGELES, CA, 90037",141659245,"L"
246628,"5614 SOUTH MAIN STREET","ROCK HALL","MD",21661,39.133496075,-76.2329817359999,128,"5614 SOUTH MAIN STREET, ROCK HALL, MD, 21661","Match","Non_Exact","5614 N MAIN ST, ROCK HALL, MD, 21661",612151894,"L"
246629,"5614 W FORT ST","DETROIT","MI",48209,42.309642265,-83.0963050939999,129,"5614 W FORT ST, DETROIT, MI, 48209","Match","Non_Exact","5614 W FORT ST, DETROIT, MI, 48209",95478982,"R"
246630,"5614 W GRAND PKWY S STE 102-125","RICHMOND","TX",77406,29.701858019,-95.776335409,130,"5614 W GRAND PKWY S STE 102-125, RICHMOND, TX, 77406","Match","Non_Exact","5614 GRAND PKWY, RICHMOND, TX, 77406",648946777,"R"
246631,"5614","LUBBOCK","TX",79414,NA,NA,131,"5614, LUBBOCK, TX, 79414","No_Match",NA,NA,NA,NA
246632,"5615 1/2 GRAND AVE","DULUTH","MN",55807,46.7397987840001,-92.168062721,132,"5615 1/2 GRAND AVE, DULUTH, MN, 55807","Match","Exact","5615 GRAND AVE, DULUTH, MN, 55807",163210090,"R"
246633,"5615 165TH PLACE SE","BELLEVUE","WA",98006,47.5535274060001,-122.119639629,133,"5615 165TH PLACE SE, BELLEVUE, WA, 98006","Match","Exact","5615 165TH PL SE, BELLEVUE, WA, 98006",186925940,"R"
246634,"5615 COUNTY LINE RD","LEIGHTON","AL",35646,34.6550210250001,-87.528583295,134,"5615 COUNTY LINE RD, LEIGHTON, AL, 35646","Match","Exact","5615 COUNTY LINE RD, LEIGHTON, AL, 35646",40778224,"L"
246635,"5615 E EVANS DRIVE","SCOTTSDALE","AZ",85254,33.618009312,-111.959550923,135,"5615 E EVANS DRIVE, SCOTTSDALE, AZ, 85254","Match","Exact","5615 E EVANS DR, SCOTTSDALE, AZ, 85254",128303507,"R"
246636,"5615 E VERNON AVE","SCOTTSDALE","AZ",85257,33.4739140820001,-111.960393251,136,"5615 E VERNON AVE, SCOTTSDALE, AZ, 85257","Match","Exact","5615 E VERNON AVE, SCOTTSDALE, AZ, 85257",128355456,"R"
246637,"5615 EAST BONIWOOD TURN","CLINTON","MD",20735,38.731972554,-76.9112996009999,137,"5615 EAST BONIWOOD TURN, CLINTON, MD, 20735","Match","Exact","5615 E BONIWOOD TURN, CLINTON, MD, 20735",76350726,"R"
246638,"5615 ESTABROOK WOODS DRIVE APT 104","ORLANDO","FL",32839,28.4822332740001,-81.43684036,138,"5615 ESTABROOK WOODS DRIVE APT 104, ORLANDO, FL, 32839","Match","Exact","5615 ESTABROOK WOODS DR, ORLANDO, FL, 32839",641064656,"L"
246639,"5615 FREMONT AVENUE SOUTH","MINNEAPOLIS","MN",55419,44.9011152940001,-93.295915422,139,"5615 FREMONT AVENUE SOUTH, MINNEAPOLIS, MN, 55419","Match","Exact","5615 FREMONT AVE S, MINNEAPOLIS, MN, 55419",43630019,"L"
246640,"5615 GREENBLUFF ROAD SUITE 202","LOUISVILLE","KY",40219,NA,NA,140,"5615 GREENBLUFF ROAD SUITE 202, LOUISVILLE, KY, 40219","No_Match",NA,NA,NA,NA
246641,"5615 HAVENWOOD CT","UPPER MARLBORO","MD",20772,38.81243226,-76.834614506,141,"5615 HAVENWOOD CT, UPPER MARLBORO, MD, 20772","Match","Exact","5615 HAVENWOOD CT, UPPER MARLBORO, MD, 20772",76416630,"L"
246642,"5615 KING ROAD","HOWELL","MI",48843,42.5157624070001,-83.8716612809999,142,"5615 KING ROAD, HOWELL, MI, 48843","Match","Exact","5615 KING RD, HOWELL, MI, 48843",23558448,"R"
246643,"5615 KIRBY SUITE 850","HOUSTON","TX",77005,29.7221221120001,-95.418522692,143,"5615 KIRBY SUITE 850, HOUSTON, TX, 77005","Match","Non_Exact","5615 KIRBY DR, HOUSTON, TX, 77005",96063265,"L"
246644,"5615 KNOTTY RIDGE DR","DOUGLASVILLE","GA",30135,33.652054934,-84.767420377,144,"5615 KNOTTY RIDGE DR, DOUGLASVILLE, GA, 30135","Match","Exact","5615 KNOTTY RIDGE DR, DOUGLASVILLE, GA, 30135",619858078,"R"
246645,"5615 N CENTRAL AVENUE","CHICAGO","IL",60646,41.983468138,-87.768322741,145,"5615 N CENTRAL AVENUE, CHICAGO, IL, 60646","Match","Exact","5615 N CENTRAL AVE, CHICAGO, IL, 60646",616788270,"R"
246646,"5615 PEDDICORD RD","WAMEGO","KS",66547,39.231616049,-96.222005762,146,"5615 PEDDICORD RD, WAMEGO, KS, 66547","Match","Exact","5615 PEDDICORD RD, WAMEGO, KS, 66547",22310355,"R"
246647,"5615 ROLLING ROAD","SPRINGFIELD","VA",22151,38.798383492,-77.2485254759999,147,"5615 ROLLING ROAD, SPRINGFIELD, VA, 22151","Match","Exact","5615 ROLLING RD, SPRINGFIELD, VA, 22151",615646765,"L"
246648,"5615 ROSEMONT AVENUE","TAMPA","FL",33614,27.9984501540001,-82.491570692,148,"5615 ROSEMONT AVENUE, TAMPA, FL, 33614","Match","Exact","5615 ROSEMONT AVE, TAMPA, FL, 33614",104516255,"R"
246649,"5615 S INDIANAPOLIS AVE","TULSA","OK",74135,36.082192182,-95.938436693,149,"5615 S INDIANAPOLIS AVE, TULSA, OK, 74135","Match","Exact","5615 S INDIANAPOLIS AVE, TULSA, OK, 74135",166451188,"L"
246650,"5615 SHORT CT SE","LACEY","WA",98513,46.997209529,-122.765500984,150,"5615 SHORT CT SE, LACEY, WA, 98513","Match","Exact","5615 SHORT CT SE, LACEY, WA, 98513",180949288,"L"
246651,"5615 SOUTH WAYNE AVE","FORT WAYNE","IN",46807,41.032686577,-85.1451590089999,151,"5615 SOUTH WAYNE AVE, FORT WAYNE, IN, 46807","Match","Exact","5615 S WAYNE AVE, FORT WAYNE, IN, 46807",617115230,"L"
246652,"5615 ST BARNABAS RD","OXON HILL","MD",20745,NA,NA,152,"5615 ST BARNABAS RD, OXON HILL, MD, 20745","No_Match",NA,NA,NA,NA
246653,"5615 STEWART WOODS DRIVE","DOUGLASVILLE","GA",30135,33.704412507,-84.749764923,153,"5615 STEWART WOODS DRIVE, DOUGLASVILLE, GA, 30135","Match","Exact","5615 STEWART WOODS DR, DOUGLASVILLE, GA, 30135",16653402,"R"
246654,"5615 SUNSET RIDGE RD","NEWALLA","OK",75857,35.409980064,-97.2228301169999,154,"5615 SUNSET RIDGE RD, NEWALLA, OK, 75857","Match","Non_Exact","5615 SUNSET RIDGE RD, NEWALLA, OK, 74857",633222037,"L"
246655,"5615 WILLOW CREST DR","SHREVEPORT","LA",71119,32.494602419,-93.8293035139999,155,"5615 WILLOW CREST DR, SHREVEPORT, LA, 71119","Match","Exact","5615 WILLOW CREST DR, SHREVEPORT, LA, 71119",57470807,"L"
246656,"5616  MAGNOLIA AVENUE","BALTIMORE","MD",21215,39.3521025800001,-76.685792346,156,"5616  MAGNOLIA AVENUE, BALTIMORE, MD, 21215","Match","Exact","5616 MAGNOLIA AVE, BALTIMORE, MD, 21215",206404653,"L"
246657,"5616 56TH WAY","WEST PALM BEACH","FL",33407,26.746299316,-80.096681298,157,"5616 56TH WAY, WEST PALM BEACH, FL, 33407","Match","Non_Exact","5616 56TH WAY, WEST PALM BEACH, FL, 33409",115311722,"R"
246658,"5616 B STREET A","LITTLE ROCK","AR",72205,NA,NA,158,"5616 B STREET A, LITTLE ROCK, AR, 72205","No_Match",NA,NA,NA,NA
246659,"5616 BROADWAY","BRONX","NY",10463,40.880079596,-73.9039663409999,159,"5616 BROADWAY, BRONX, NY, 10463","Match","Exact","5616 BROADWAY, BRONX, NY, 10463",80308083,"R"
246660,"5616 BROADWAY","BRONX","NY",10468,40.880079596,-73.9039663409999,160,"5616 BROADWAY, BRONX, NY, 10468","Match","Non_Exact","5616 BROADWAY, BRONX, NY, 10463",80308083,"R"
246661,"5616 BUCKEYE RD","MACUNGIE","PA",18062,40.5171399160001,-75.5384376969999,161,"5616 BUCKEYE RD, MACUNGIE, PA, 18062","Match","Exact","5616 BUCKEYE RD, MACUNGIE, PA, 18062",80802130,"L"
246662,"5616 CLOTIDLE SOUPERT CT","NORTH LAS VEGAS","NV",89081,36.2621946030001,-115.101935739,162,"5616 CLOTIDLE SOUPERT CT, NORTH LAS VEGAS, NV, 89081","Match","Exact","5616 CLOTIDLE SOUPERT CT, N LAS VEGAS, NV, 89081",626862107,"R"
246663,"5616 CONCORD AVE","EDINA","MN",55424,44.900730626,-93.344258791,163,"5616 CONCORD AVE, EDINA, MN, 55424","Match","Exact","5616 CONCORD AVE, EDINA, MN, 55424",43627203,"R"
246664,"5616 CYNTHIA DR","LOUISVILLE","KY",40291,38.1689670910001,-85.575177379,164,"5616 CYNTHIA DR, LOUISVILLE, KY, 40291","Match","Exact","5616 CYNTHIA DR, LOUISVILLE, KY, 40291",96866939,"R"
246665,"5616 FARROW ROAD","COLUMBIA","SC",29203,34.0503859230001,-81.010938761,165,"5616 FARROW ROAD, COLUMBIA, SC, 29203","Match","Exact","5616 FARROW RD, COLUMBIA, SC, 29203",647341133,"R"
246666,"5616 GATES LANDING ROAD","VIRGINIA BEACH","VA",23464,36.8156807450001,-76.1849747919999,166,"5616 GATES LANDING ROAD, VIRGINIA BEACH, VA, 23464","Match","Exact","5616 GATES LANDING RD, VA BCH, VA, 23464",636653863,"R"
246667,"5616 HENSLEY DRIVE","FORT WORTH","TX",76134,32.661390796,-97.312481642,167,"5616 HENSLEY DRIVE, FORT WORTH, TX, 76134","Match","Exact","5616 HENSLEY DR, FORT WORTH, TX, 76134",101895326,"R"
246668,"5616 KINGSTON PIKE STE 301","KNOXVILLE","TN",37919,NA,NA,168,"5616 KINGSTON PIKE STE 301, KNOXVILLE, TN, 37919","No_Match",NA,NA,NA,NA
246669,"5616 LEXINGTON AVE 307","LOS ANGELES","CA",90038,34.0927751460001,-118.311482328,169,"5616 LEXINGTON AVE 307, LOS ANGELES, CA, 90038","Match","Exact","5616 LEXINGTON AVE, LOS ANGELES, CA, 90038",141602930,"L"
246670,"5616 LINDSEY DRIVE","PLANO","TX",75093,33.0520312040001,-96.813633174,170,"5616 LINDSEY DRIVE, PLANO, TX, 75093","Match","Exact","5616 LINDSEY DR, PLANO, TX, 75093",123532160,"L"
246671,"5616 MOCCASIN POINT STREET","LAS VEGAS","NV",89148,36.0864724670001,-115.310902957,171,"5616 MOCCASIN POINT STREET, LAS VEGAS, NV, 89148","Match","Exact","5616 MOCCASIN POINT ST, LAS VEGAS, NV, 89148",612692572,"L"
246672,"5616 NE 204TH ST","KENMORE","WA",98028,47.7760011760001,-122.269980813,172,"5616 NE 204TH ST, KENMORE, WA, 98028","Match","Exact","5616 NE 204TH ST, KENMORE, WA, 98028",239761069,"L"
246673,"5616 NW 107TH TERRACE","OKLAHOMA CITY","OK",73162,35.5788842870001,-97.6171431659999,173,"5616 NW 107TH TERRACE, OKLAHOMA CITY, OK, 73162","Match","Exact","5616 NW 107TH TER, OKLAHOMA CITY, OK, 73162",100442884,"L"
246674,"5616 PEMBROKE ROAD","WEST PARK","FL",33023,25.9951126650001,-80.1992771069999,174,"5616 PEMBROKE ROAD, WEST PARK, FL, 33023","Match","Exact","5616 PEMBROKE RD, WEST PARK, FL, 33023",637769871,"R"
246675,"5616 ROXBURY TERRACE UNIT D","INDIANAPOLIS","IN",46226,39.851606476,-86.072309677,175,"5616 ROXBURY TERRACE UNIT D, INDIANAPOLIS, IN, 46226","Match","Exact","5616 ROXBURY TER, INDIANAPOLIS, IN, 46226",108018140,"R"
246676,"5616 S HARLAN ST","DENVER","CO",80123,39.616188085,-105.062705368,176,"5616 S HARLAN ST, DENVER, CO, 80123","Match","Exact","5616 S HARLAN ST, DENVER, CO, 80123",177627958,"R"
246677,"5616 WEST AVE M4","LANCASTER","CA",93536,34.6416338290001,-118.230266502,177,"5616 WEST AVE M4, LANCASTER, CA, 93536","Match","Exact","5616 W AVE M4, LANCASTER, CA, 93536",142815487,"R"
246678,"5617 BELLEFONTAINE AVE","KANSAS CITY","MO",64130,39.0242639510001,-94.549261692,178,"5617 BELLEFONTAINE AVE, KANSAS CITY, MO, 64130","Match","Exact","5617 BELLEFONTAINE AVE, KANSAS CITY, MO, 64130",91492431,"L"
246679,"5617 BLUE PINE AVE NW","ALBUQUERQUE","NM",87120,35.153207831,-106.702552455,179,"5617 BLUE PINE AVE NW, ALBUQUERQUE, NM, 87120","Match","Exact","5617 BLUE PINE AVE NW, ALBUQUERQUE, NM, 87120",623717554,"R"
246680,"5617 E SWAN CREEK DR","TACOMA","WA",98404,47.20605686,-122.40172759,180,"5617 E SWAN CREEK DR, TACOMA, WA, 98404","Match","Exact","5617 E SWAN CREEK DR, TACOMA, WA, 98404",184630647,"L"
246681,"5617 FIVE KNOLLS DRIVE","CHARLOTTE","NC",28226,35.091462386,-80.816816834,181,"5617 FIVE KNOLLS DRIVE, CHARLOTTE, NC, 28226","Match","Exact","5617 FIVE KNOLLS DR, CHARLOTTE, NC, 28226",619611114,"L"
246682,"5617 HENSLEY DR","FORT WORTH","TX",76134,32.6612804970001,-97.312468849,182,"5617 HENSLEY DR, FORT WORTH, TX, 76134","Match","Exact","5617 HENSLEY DR, FORT WORTH, TX, 76134",101895326,"L"
246683,"5617 HIGHWAY 153 SUITE 203","HIXSON","TN",37343,35.149276796,-85.24917508,183,"5617 HIGHWAY 153 SUITE 203, HIXSON, TN, 37343","Match","Non_Exact","5617 STATE RTE 153, HIXSON, TN, 37343",59305298,"L"
246684,"5617 HILL ROAD","ALBANY","GA",31705,31.5814567200001,-83.999603473,184,"5617 HILL ROAD, ALBANY, GA, 31705","Match","Exact","5617 HILL RD, ALBANY, GA, 31705",84320382,"L"
246685,"5617 NARSONNE STREET","CORPUS CHRISTI","TX",78414,27.6629506580001,-97.397706724,185,"5617 NARSONNE STREET, CORPUS CHRISTI, TX, 78414","Match","Non_Exact","5617 NARSONNE, CORPUS CHRISTI, TX, 78414",624809295,"L"
246686,"5617 REGENCY OAKS DR N","MOBILE","AL",36609,30.6601222090001,-88.1728172699999,186,"5617 REGENCY OAKS DR N, MOBILE, AL, 36609","Match","Exact","5617 REGENCY OAKS DR N, MOBILE, AL, 36609",61929052,"L"
246687,"5617 VENICE BLVD","LOS ANGELES","CA",90019,34.0439783940001,-118.360176946,187,"5617 VENICE BLVD, LOS ANGELES, CA, 90019","Match","Exact","5617 VENICE BLVD, LOS ANGELES, CA, 90019",141600957,"R"
246688,"5618 11TH STREET","KATY","TX",77493,29.7964335090001,-95.821820528,188,"5618 11TH STREET, KATY, TX, 77493","Match","Exact","5618 11TH ST, KATY, TX, 77493",96013053,"L"
246689,"5618 BARTLETT ST","PITTSBURGH","PA",15217,40.43581406,-79.926558266,189,"5618 BARTLETT ST, PITTSBURGH, PA, 15217","Match","Exact","5618 BARTLETT ST, PITTSBURGH, PA, 15217",51682241,"R"
246690,"5618 BROCKWAY STREET","SHAWNEE","KS",66226,39.026484601,-94.841707274,190,"5618 BROCKWAY STREET, SHAWNEE, KS, 66226","Match","Exact","5618 BROCKWAY ST, SHAWNEE, KS, 66226",91356686,"R"
246691,"5618 DEERTAIL CREEK","SAN ANTONIO","TX",78251,29.4871692840001,-98.680468323,191,"5618 DEERTAIL CREEK, SAN ANTONIO, TX, 78251","Match","Exact","5618 DEERTAIL CREEK, SAN ANTONIO, TX, 78251",101689267,"R"
246692,"5618 FISHER RD","TEMPLE HILLS","MD",20748,38.8121232600001,-76.949763463,192,"5618 FISHER RD, TEMPLE HILLS, MD, 20748","Match","Exact","5618 FISHER RD, TEMPLE HILLS, MD, 20748",76314253,"L"
246693,"5618 HILLSBORO","DAVISBURG","MI",48350,42.7180121590001,-83.5111826099999,193,"5618 HILLSBORO, DAVISBURG, MI, 48350","Match","Non_Exact","5618 HILLSBORO RD, DAVISBURG, MI, 48350",69689394,"L"
246694,"5618 ICEBURG CT","MIDLOTHIAN","TX",76065,32.422681874,-97.007376005,194,"5618 ICEBURG CT, MIDLOTHIAN, TX, 76065","Match","Non_Exact","5618 ICEBERG CT, MIDLOTHIAN, TX, 76065",648692746,"L"
246695,"5618 OLD ROUW RD","VAN BUREN","AR",72956,35.4135719000001,-94.282834178,195,"5618 OLD ROUW RD, VAN BUREN, AR, 72956","Match","Exact","5618 OLD ROUW RD, VAN BUREN, AR, 72956",53478164,"R"
246696,"5618 POST RD","BRONX","NY",10471,40.903663683,-73.8974013229999,196,"5618 POST RD, BRONX, NY, 10471","Match","Exact","5618 POST RD, BRONX, NY, 10471",80296290,"R"
246697,"5618 SHERATON OAKS DRIVE","HOUSTON","TX",77091,29.859146131,-95.470611433,197,"5618 SHERATON OAKS DRIVE, HOUSTON, TX, 77091","Match","Exact","5618 SHERATON OAKS DR, HOUSTON, TX, 77091",96027159,"R"
246698,"5618 W MELVINA AVENUE","MILWAUKEE","WI",53216,43.088919655,-87.98352306,198,"5618 W MELVINA AVENUE, MILWAUKEE, WI, 53216","Match","Non_Exact","5618 W MELVINA ST, MILWAUKEE, WI, 53216",77731311,"R"
246699,"5618 WESTWOOD LN","THE COLONY","TX",75056,33.0904220570001,-96.8686583259999,199,"5618 WESTWOOD LN, THE COLONY, TX, 75056","Match","Exact","5618 WESTWOOD LN, THE COLONY, TX, 75056",624450784,"L"
246700,"5619 ALDINE BENDER ROAD 193B","HOUSTON","TX",77032,29.930556225,-95.306317011,200,"5619 ALDINE BENDER ROAD 193B, HOUSTON, TX, 77032","Match","Exact","5619 ALDINE BENDER RD, HOUSTON, TX, 77032",96127847,"L"
246701,"5619 BELMAR STREET","PHILADELPHIA","PA",19143,39.9389433150001,-75.2277043459999,201,"5619 BELMAR STREET, PHILADELPHIA, PA, 19143","Match","Non_Exact","5619 BELMAR TER, PHILADELPHIA, PA, 19143",131399584,"R"
246702,"5619 CARY GLEN BLVD","CARY","NC",27519,35.8098786510001,-78.914502413,202,"5619 CARY GLEN BLVD, CARY, NC, 27519","Match","Exact","5619 CARY GLEN BLVD, CARY, NC, 27519",208358668,"L"
246703,"5619 E GLADE AVENUE","MESA","AZ",85206,33.391624151,-111.709805252,203,"5619 E GLADE AVENUE, MESA, AZ, 85206","Match","Exact","5619 E GLADE AVE, MESA, AZ, 85206",637534903,"R"
246704,"5619 ETHERIDGE STREET","HOUSTON","TX",77087,29.6841331740001,-95.3173875419999,204,"5619 ETHERIDGE STREET, HOUSTON, TX, 77087","Match","Exact","5619 ETHERIDGE ST, HOUSTON, TX, 77087",96091112,"L"
246705,"5619 GUIDING STAR CIR","N Las Vegas","NV",89031,36.262398719,-115.163430548,205,"5619 GUIDING STAR CIR, N Las Vegas, NV, 89031","Match","Exact","5619 GUIDING STAR CIR, N LAS VEGAS, NV, 89031",201909565,"L"
246706,"5619 HAZEN ST","HOUSTON","TX",77081,29.691629699,-95.48938707,206,"5619 HAZEN ST, HOUSTON, TX, 77081","Match","Exact","5619 HAZEN ST, HOUSTON, TX, 77081",96038806,"L"
246707,"5619 JAMES AVE N","BROOKLYN CENTER","MN",55430,45.057049712,-93.30153338,207,"5619 JAMES AVE N, BROOKLYN CENTER, MN, 55430","Match","Exact","5619 JAMES AVE N, BROOKLYN CENTER, MN, 55430",43616621,"L"
246708,"5619 JARIST DRIVE","CLIFTON","VA",20124,38.835351346,-77.407269288,208,"5619 JARIST DRIVE, CLIFTON, VA, 20124","Match","Exact","5619 JARIST DR, CLIFTON, VA, 20124",76041840,"L"
246709,"5619 KENNARD ROAD","SEVILLE","OH",44273,41.051099772,-81.890131062,209,"5619 KENNARD ROAD, SEVILLE, OH, 44273","Match","Exact","5619 KENNARD RD, SEVILLE, OH, 44273",58676858,"L"
246710,"5619 STONECREEK DR","DURANT","OK",74701,34.044274069,-96.387472711,210,"5619 STONECREEK DR, DURANT, OK, 74701","Match","Non_Exact","5619 STONE CREEK DR, DURANT, OK, 74701",62514740,"L"
246711,"5619 THOMAS AVENUE","PHILADELPHIA","PA",19143,39.9441814350001,-75.234273031,211,"5619 THOMAS AVENUE, PHILADELPHIA, PA, 19143","Match","Exact","5619 THOMAS AVE, PHILADELPHIA, PA, 19143",131399361,"R"
246712,"562 335TH AVE","FREDERIC","WI",54837,45.6903528400001,-92.274249916,212,"562 335TH AVE, FREDERIC, WI, 54837","Match","Exact","562 335TH AVE, FREDERIC, WI, 54837",110833890,"R"
246713,"562 AZALEA LANE","BRIDGEVILLE","PA",15017,40.3842250960001,-80.100636363,213,"562 AZALEA LANE, BRIDGEVILLE, PA, 15017","Match","Exact","562 AZALEA LN, BRIDGEVILLE, PA, 15017",624756654,"R"
246714,"562 BENNETT DRIVE","CHIPLEY","FL",32428,30.7883160580001,-85.5333275949999,214,"562 BENNETT DRIVE, CHIPLEY, FL, 32428","Match","Exact","562 BENNETT DR, CHIPLEY, FL, 32428",33051015,"L"
246715,"562 BUSHBERRY RD","PELION","SC",29123,33.8144664480001,-81.251560044,215,"562 BUSHBERRY RD, PELION, SC, 29123","Match","Exact","562 BUSHBERRY RD, PELION, SC, 29123",70040992,"L"
246716,"562 CALLE DEL SOL","FLORISSANT","CO",80816,38.871782792,-105.276836674,216,"562 CALLE DEL SOL, FLORISSANT, CO, 80816","Match","Non_Exact","562 CLL DEL SOL, FLORISSANT, CO, 80816",605758702,"L"
246717,"562 CEDAR HILL ROAD","FAR ROCKAWAY","NY",11691,NA,NA,217,"562 CEDAR HILL ROAD, FAR ROCKAWAY, NY, 11691","No_Match",NA,NA,NA,NA
246718,"562 DONIZETTI AVE","VENTURA","CA",93003,34.2684751830001,-119.227955094,218,"562 DONIZETTI AVE, VENTURA, CA, 93003","Match","Exact","562 DONIZETTI AVE, VENTURA, CA, 93003",110037268,"R"
246719,"562 E MAIN ST","SPRINGFIELD","OH",45503,39.924033749,-83.8008524639999,219,"562 E MAIN ST, SPRINGFIELD, OH, 45503","Match","Exact","562 E MAIN ST, SPRINGFIELD, OH, 45503",135009444,"L"
246720,"562 E PATERSON ST","FLINT","MI",48505,43.03357069,-83.695557267,220,"562 E PATERSON ST, FLINT, MI, 48505","Match","Exact","562 E PATERSON ST, FLINT, MI, 48505",69567687,"R"
246721,"562 ENGLEMORE RD","CLIFTON PARK","NY",12065,42.8327782550001,-73.799505289,221,"562 ENGLEMORE RD, CLIFTON PARK, NY, 12065","Match","Exact","562 ENGLEMORE RD, CLIFTON PARK, NY, 12065",18815221,"R"
246722,"562 FLATWOOD RD","SPARTANBURG","SC",29303,35.0356272180001,-81.911360519,222,"562 FLATWOOD RD, SPARTANBURG, SC, 29303","Match","Exact","562 FLATWOOD RD, SPARTANBURG, SC, 29303",19470039,"R"
246723,"562 GARFIELD AVE","BRIDGEPORT","CT",6606,41.1933106010001,-73.209210599,223,"562 GARFIELD AVE, BRIDGEPORT, CT, 6606","Match","Exact","562 GARFIELD AVE, BRIDGEPORT, CT, 06606",3223216,"R"
246724,"562 HACKMAN ROAD","LITITZ","PA",17543,40.191517167,-76.2778508979999,224,"562 HACKMAN ROAD, LITITZ, PA, 17543","Match","Exact","562 HACKMAN RD, LITITZ, PA, 17543",179656214,"L"
246725,"562 HIGHWAY 112","DERIDDER","LA",70634,30.853377112,-93.243647557,225,"562 HIGHWAY 112, DERIDDER, LA, 70634","Match","Non_Exact","562 STATE RTE 112, DERIDDER, LA, 70634",651771065,"R"
246726,"562 HIGHWAY 5 AND 240","FAYETTE","MO",65248,NA,NA,226,"562 HIGHWAY 5 AND 240, FAYETTE, MO, 65248","No_Match",NA,NA,NA,NA
246727,"562 LA COPITA CT","SAN RAMON","CA",94583,37.7717364120001,-121.979173937,227,"562 LA COPITA CT, SAN RAMON, CA, 94583","Match","Exact","562 LA COPITA CT, SAN RAMON, CA, 94583",192065846,"R"
246728,"562 LINKFIELD RD","WATERTOWN","CT",6795,41.6375883260001,-73.131131024,228,"562 LINKFIELD RD, WATERTOWN, CT, 6795","Match","Exact","562 LINKFIELD RD, WATERTOWN, CT, 06795",3134973,"R"
246729,"562 MAIN STREET APT 3","WALTHAM","MA",2452,42.376805217,-71.233126504,229,"562 MAIN STREET APT 3, WALTHAM, MA, 2452","Match","Exact","562 MAIN ST, WALTHAM, MA, 02452",87091515,"L"
246730,"562 N HIGHWAY 92","JEFFERSON CITY","TN",37760,NA,NA,230,"562 N HIGHWAY 92, JEFFERSON CITY, TN, 37760","No_Match",NA,NA,NA,NA
246731,"562 N INWOOD DRIVE","HUNTINGTON","WV",25701,38.3965317980001,-82.4419623489999,231,"562 N INWOOD DRIVE, HUNTINGTON, WV, 25701","Match","Exact","562 N INWOOD DR, HUNTINGTON, WV, 25701",101318113,"R"
246732,"562 NEW LONDON TPKE","NORWICH","CT",6360,41.5105653410001,-72.104526054,232,"562 NEW LONDON TPKE, NORWICH, CT, 6360","Match","Exact","562 NEW LONDON TPKE, NORWICH, CT, 06360",56840012,"L"
246733,"562 NOB HILL TRAIL","FRANKTOWN","CO",80116,39.355442555,-104.68563293,233,"562 NOB HILL TRAIL, FRANKTOWN, CO, 80116","Match","Exact","562 NOB HILL TRL, FRANKTOWN, CO, 80116",130807947,"L"
246734,"562 NOB HILL TRL","FRANKTOWN","CO",80116,39.355442555,-104.68563293,234,"562 NOB HILL TRL, FRANKTOWN, CO, 80116","Match","Exact","562 NOB HILL TRL, FRANKTOWN, CO, 80116",130807947,"L"
246735,"562 PONCHO ST","KINGSLAND","TX",78639,30.6740814460001,-98.470536452,235,"562 PONCHO ST, KINGSLAND, TX, 78639","Match","Exact","562 PONCHO ST, KINGSLAND, TX, 78639",182257036,"L"
246736,"562 ST JAMES AVE SUITE B","SPRINGFIELD","MA",1109,NA,NA,236,"562 ST JAMES AVE SUITE B, SPRINGFIELD, MA, 1109","No_Match",NA,NA,NA,NA
246737,"562 STASSI LANE","SANTA MONICA","CA",90402,34.0336839390001,-118.509828532,237,"562 STASSI LANE, SANTA MONICA, CA, 90402","Match","Exact","562 STASSI LN, SANTA MONICA, CA, 90402",141558827,"R"
246738,"562 SURREY STREET","MOBILE","AL",36617,30.709005619,-88.0892265259999,238,"562 SURREY STREET, MOBILE, AL, 36617","Match","Exact","562 SURREY ST, MOBILE, AL, 36617",61860588,"R"
246739,"562 TURNER ROAD","ENNIS","TX",75119,32.3570317860001,-96.661095116,239,"562 TURNER ROAD, ENNIS, TX, 75119","Match","Exact","562 TURNER RD, ENNIS, TX, 75119",650599888,"R"
246740,"562 VISTA FLORA","NEWPORT BEACH","CA",92660,33.6384278090001,-117.87908306,240,"562 VISTA FLORA, NEWPORT BEACH, CA, 92660","Match","Exact","562 VIS FLORA, NEWPORT BEACH, CA, 92660",144049212,"L"
246741,"562 W ELM ST","BISHOP","CA",93514,37.365396434,-118.399736681,241,"562 W ELM ST, BISHOP, CA, 93514","Match","Exact","562 W ELM ST, BISHOP, CA, 93514",175828297,"L"
246742,"562 WATER TURKEY RETREAT","CHARLESTON","SC",29412,32.736198487,-79.911617602,242,"562 WATER TURKEY RETREAT, CHARLESTON, SC, 29412","Match","Exact","562 WATER TURKEY RETREAT, CHARLESTON, SC, 29412",622740961,"L"
246743,"562 WEST CELESTE AVENUE","FRESNO","CA",93704,36.8210694480001,-119.802269072,243,"562 WEST CELESTE AVENUE, FRESNO, CA, 93704","Match","Exact","562 W CELESTE AVE, FRESNO, CA, 93704",197572378,"R"
246744,"562 WEST SUNNY SLOPE DRIVE","PAUL","ID",83347,42.612358354,-113.775896816,244,"562 WEST SUNNY SLOPE DRIVE, PAUL, ID, 83347","Match","Non_Exact","562 SUNNYSLOPE DR, PAUL, ID, 83347",105181100,"R"
246745,"562 WHITE STONE WAY","HOOVER","AL",35226,33.371208558,-86.855531331,245,"562 WHITE STONE WAY, HOOVER, AL, 35226","Match","Exact","562 WHITE STONE WAY, HOOVER, AL, 35226",645580371,"L"
246746,"5620  S CLAREMONT AVE","CHICAGO","IL",60636,41.79218402,-87.682582573,246,"5620  S CLAREMONT AVE, CHICAGO, IL, 60636","Match","Exact","5620 S CLAREMONT AVE, CHICAGO, IL, 60636",605450980,"R"
246747,"5620 BARTMER AVE","SAINT LOUIS","MO",63112,38.662541606,-90.281406381,247,"5620 BARTMER AVE, SAINT LOUIS, MO, 63112","Match","Exact","5620 BARTMER AVE, SAINT LOUIS, MO, 63112",107592891,"L"
246748,"5620 BELFAST LANE","FORT WORTH","TX",76180,32.849149131,-97.207738962,248,"5620 BELFAST LANE, FORT WORTH, TX, 76180","Match","Exact","5620 BELFAST LN, FORT WORTH, TX, 76180",101864810,"R"
246749,"5620 BELLA TERRA COURT","WAKE FOREST","NC",27587,36.029236328,-78.6391201289999,249,"5620 BELLA TERRA COURT, WAKE FOREST, NC, 27587","Match","Exact","5620 BELLA TERRA CT, WAKE FOREST, NC, 27587",72630075,"R"
246750,"5620 BRYNER DR","JACKSONVILLE","FL",32244,30.2437158440001,-81.729464445,250,"5620 BRYNER DR, JACKSONVILLE, FL, 32244","Match","Exact","5620 BRYNER DR, JACKSONVILLE, FL, 32244",83985815,"L"
246751,"5620 CHARLOTT ST","FORT WORTH","TX",76112,32.757933951,-97.2325406909999,251,"5620 CHARLOTT ST, FORT WORTH, TX, 76112","Match","Exact","5620 CHARLOTT ST, FORT WORTH, TX, 76112",101897597,"R"
246752,"5620 COUNTRY CLUB PKWY","SAN JOSE","CA",95138,37.2708860230001,-121.77173338,252,"5620 COUNTRY CLUB PKWY, SAN JOSE, CA, 95138","Match","Exact","5620 COUNTRY CLUB PKWY, SAN JOSE, CA, 95138",123010118,"L"
246753,"5620 CRAWFORDSVILLE RD SUITE M","SPEEDWAY","IN",46224,39.795274571,-86.259511719,253,"5620 CRAWFORDSVILLE RD SUITE M, SPEEDWAY, IN, 46224","Match","Exact","5620 CRAWFORDSVILLE RD, SPEEDWAY, IN, 46224",108025604,"R"
246754,"5620 E 21ST STREET","WICHITA","KS",67208,NA,NA,254,"5620 E 21ST STREET, WICHITA, KS, 67208","No_Match",NA,NA,NA,NA
246755,"5620 E 350 RD","EL DORADO SPRINGS","MO",64744,37.8465887250001,-93.9643743189999,255,"5620 E 350 RD, EL DORADO SPRINGS, MO, 64744","Match","Exact","5620 350 RD, EL DORADO SPRINGS, MO, 64744",44912230,"R"
246756,"5620 E BROADWAY RD","MESA","AZ",85206,NA,NA,256,"5620 E BROADWAY RD, MESA, AZ, 85206","No_Match",NA,NA,NA,NA
246757,"5620 FOREST DOWNS CIRCLE","ATLANTA","GA",30349,33.611347343,-84.551919497,257,"5620 FOREST DOWNS CIRCLE, ATLANTA, GA, 30349","Match","Exact","5620 FOREST DOWNS CIR, ATLANTA, GA, 30349",17377464,"R"
246758,"5620 HARCOURT AVE","ORLANDO","FL",32839,28.479365058,-81.434265216,258,"5620 HARCOURT AVE, ORLANDO, FL, 32839","Match","Exact","5620 HARCOURT AVE, ORLANDO, FL, 32839",94274380,"R"
246759,"5620 HARRIET AVE","MINNEAPOLIS","MN",55419,44.9010058270001,-93.285741291,259,"5620 HARRIET AVE, MINNEAPOLIS, MN, 55419","Match","Non_Exact","5620 HARRIET AVE S, MINNEAPOLIS, MN, 55419",43635115,"R"
246760,"5620 HENDERSON OAKS DRIVE","CHARLOTTE","NC",28269,35.327013451,-80.836302791,260,"5620 HENDERSON OAKS DRIVE, CHARLOTTE, NC, 28269","Match","Exact","5620 HENDERSON OAKS DR, CHARLOTTE, NC, 28269",70598686,"L"
246761,"5620 HOBART AVENUE","WEST PALM BEACH","FL",33405,26.6647101630001,-80.066625339,261,"5620 HOBART AVENUE, WEST PALM BEACH, FL, 33405","Match","Exact","5620 HOBART AVE, WEST PALM BEACH, FL, 33405",115579467,"L"
246762,"5620 INDUSTRIAL AVE","LOVES PARK","IL",61111,42.3109453970001,-89.045492043,262,"5620 INDUSTRIAL AVE, LOVES PARK, IL, 61111","Match","Exact","5620 INDUSTRIAL AVE, LOVES PARK, IL, 61111",49280938,"R"
246763,"5620 MAUSS HILL ROAD","ADAMS RUN","SC",29426,NA,NA,263,"5620 MAUSS HILL ROAD, ADAMS RUN, SC, 29426","No_Match",NA,NA,NA,NA
246764,"5620 NE 202ND STREET","KENMORE","WA",98028,47.774911747,-122.269462627,264,"5620 NE 202ND STREET, KENMORE, WA, 98028","Match","Exact","5620 NE 202ND ST, KENMORE, WA, 98028",186575688,"L"
246765,"5620 NW TOPEKA BLVD","TOPEKA","KS",66617,39.1491198690001,-95.663935121,265,"5620 NW TOPEKA BLVD, TOPEKA, KS, 66617","Match","Exact","5620 NW TOPEKA BLVD, TOPEKA, KS, 66617",17906418,"R"
246766,"5620 PEA RIDGE ROAD","RUTHERFORDTON","NC",28139,35.2789582130001,-82.04303107,266,"5620 PEA RIDGE ROAD, RUTHERFORDTON, NC, 28139","Match","Exact","5620 PEA RIDGE RD, RUTHERFORDTON, NC, 28139",635935852,"L"
246767,"5620 S COLONY BLVD SUITE 921","THE COLONY","TX",75056,33.0973141110001,-96.8650134809999,267,"5620 S COLONY BLVD SUITE 921, THE COLONY, TX, 75056","Match","Non_Exact","5620 N COLONY BLVD, THE COLONY, TX, 75056",103429853,"R"
246768,"5620 W DIVISION ST","CHICAGO","IL",60651,41.9021382020001,-87.7665243499999,268,"5620 W DIVISION ST, CHICAGO, IL, 60651","Match","Exact","5620 W DIVISION ST, CHICAGO, IL, 60651",605042397,"R"
246769,"5620 WILKIEWICZ ROAD","NORTH LITTLE ROCK","AR",72118,34.8932394300001,-92.326780873,269,"5620 WILKIEWICZ ROAD, NORTH LITTLE ROCK, AR, 72118","Match","Exact","5620 WILKIEWICZ RD, N LITTLE ROCK, AR, 72118",83526902,"L"
246770,"5620-22 W CHICAGO AVE","CHICAGO","IL",60651,41.894847091,-87.7662046899999,270,"5620-22 W CHICAGO AVE, CHICAGO, IL, 60651","Match","Exact","5620 W CHICAGO AVE, CHICAGO, IL, 60651",616886313,"R"
246771,"5621 BROOKLAND CT","ALEXANDRIA","VA",22310,38.7848204200001,-77.131296816,271,"5621 BROOKLAND CT, ALEXANDRIA, VA, 22310","Match","Exact","5621 BROOKLAND CT, ALEXANDRIA, VA, 22310",76040374,"L"
246772,"5621 BUNKER BLVD","WATAUGA","TX",76148,32.8706625450001,-97.262048925,272,"5621 BUNKER BLVD, WATAUGA, TX, 76148","Match","Exact","5621 BUNKER BLVD, WATAUGA, TX, 76148",638290699,"R"
246773,"5621 COSTA MARITIMA","SAN CLEMENTE","CA",92673,33.471841141,-117.618866729,273,"5621 COSTA MARITIMA, SAN CLEMENTE, CA, 92673","Match","Exact","5621 COSTA MARITIMA, SAN CLEMENTE, CA, 92673",144422113,"L"
246774,"5621 DELMAR BLVD SUITE 216","SAINT LOUIS","MO",63108,38.653769056,-90.283154919,274,"5621 DELMAR BLVD SUITE 216, SAINT LOUIS, MO, 63108","Match","Non_Exact","5621 DELMAR BLVD, SAINT LOUIS, MO, 63112",107607891,"R"
246775,"5621 DENNY AVE","N HOLLYWOOD","CA",91601,34.17261503,-118.364837512,275,"5621 DENNY AVE, N HOLLYWOOD, CA, 91601","Match","Exact","5621 DENNY AVE, N HOLLYWOOD, CA, 91601",141591686,"L"
246776,"5621 DUPONT AVE S","MINNEAPOLIS","MN",55419,44.9010148830001,-93.293373658,276,"5621 DUPONT AVE S, MINNEAPOLIS, MN, 55419","Match","Exact","5621 DUPONT AVE S, MINNEAPOLIS, MN, 55419",43630023,"L"
246777,"5621 EAST MARINA DRIVE","FORT LAUDERDALE","FL",33312,26.0521510400001,-80.178743686,277,"5621 EAST MARINA DRIVE, FORT LAUDERDALE, FL, 33312","Match","Exact","5621 E MARINA DR, FORT LAUDERDALE, FL, 33312",114763007,"R"
246778,"5621 EMERALD DRIVE","LAKE CHARLES","LA",70615,30.2730921520001,-93.116860995,278,"5621 EMERALD DRIVE, LAKE CHARLES, LA, 70615","Match","Exact","5621 EMERALD DR, LAKE CHARLES, LA, 70615",88424903,"R"
246779,"5621 KENWOOD AVE","KANSAS CITY","MO",64110,39.02512619,-94.579689188,279,"5621 KENWOOD AVE, KANSAS CITY, MO, 64110","Match","Exact","5621 KENWOOD AVE, KANSAS CITY, MO, 64110",91448365,"L"
246780,"5621 LESLIE COURT","FLINT","MI",48504,43.0647160600001,-83.725361307,280,"5621 LESLIE COURT, FLINT, MI, 48504","Match","Exact","5621 LESLIE CT, FLINT, MI, 48504",69563717,"R"
246781,"5621 LILYVIEW WAY","ELK GROVE","CA",95757,38.4011021470001,-121.437915422,281,"5621 LILYVIEW WAY, ELK GROVE, CA, 95757","Match","Non_Exact","5621 LILLYVIEW WAY, ELK GROVE, CA, 95757",133435072,"L"
246782,"5621 MELBURY WAY","ANTELOPE","CA",95843,38.7047169840001,-121.334839536,282,"5621 MELBURY WAY, ANTELOPE, CA, 95843","Match","Exact","5621 MELBURY WAY, ANTELOPE, CA, 95843",133442513,"L"
246783,"5621 MEREDITH DR","DES MOINES","IA",50310,41.643956388,-93.6950033749999,283,"5621 MEREDITH DR, DES MOINES, IA, 50310","Match","Exact","5621 MEREDITH DR, DES MOINES, IA, 50310",640789630,"R"
246784,"5621 NE 66TH CIRCLE","VANCOUVER","WA",98661,45.670419591,-122.61387121,284,"5621 NE 66TH CIRCLE, VANCOUVER, WA, 98661","Match","Exact","5621 NE 66TH CIR, VANCOUVER, WA, 98661",624506852,"L"
246785,"5621 NICHORA WAY","CARMICHAEL","CA",95608,38.6527059050001,-121.333682799,285,"5621 NICHORA WAY, CARMICHAEL, CA, 95608","Match","Exact","5621 NICHORA WAY, CARMICHAEL, CA, 95608",133342740,"L"
246786,"5621 NORTH PARKER AVENUE","INDIANAPOLIS","IN",46220,39.8558209460001,-86.114000717,286,"5621 NORTH PARKER AVENUE, INDIANAPOLIS, IN, 46220","Match","Exact","5621 N PARKER AVE, INDIANAPOLIS, IN, 46220",107995439,"R"
246787,"5621 S MARSALIS","DALLAS","TX",75241,32.679117827,-96.81466683,287,"5621 S MARSALIS, DALLAS, TX, 75241","Match","Non_Exact","5621 S MARSALIS AVE, DALLAS, TX, 75241",102951594,"R"
246788,"5621 SHETLAND COURT","MORROW","OH",45152,39.3523883190001,-84.1658441719999,288,"5621 SHETLAND COURT, MORROW, OH, 45152","Match","Exact","5621 SHETLAND CT, MORROW, OH, 45152",617731262,"R"
246789,"5621 STRAND BLVD STE 109","NAPLES","FL",34110,26.2988323120001,-81.7500809759999,289,"5621 STRAND BLVD STE 109, NAPLES, FL, 34110","Match","Exact","5621 STRAND BLVD, NAPLES, FL, 34110",640884930,"L"
246790,"5621 SYLVAN AVE","BRONX","NY",10471,40.903997652,-73.898349776,290,"5621 SYLVAN AVE, BRONX, NY, 10471","Match","Exact","5621 SYLVAN AVE, BRONX, NY, 10471",80296286,"L"
246791,"5621 VALLEY GLEN WAY","LOS ANGELES","CA",90043,33.990798881,-118.349354416,291,"5621 VALLEY GLEN WAY, LOS ANGELES, CA, 90043","Match","Exact","5621 VALLEY GLEN WAY, LOS ANGELES, CA, 90043",141653768,"R"
246792,"5621 W BEECHWOOD AVE","FRESNO","CA",93722,36.838070197,-119.893291296,292,"5621 W BEECHWOOD AVE, FRESNO, CA, 93722","Match","Exact","5621 W BEECHWOOD AVE, FRESNO, CA, 93722",197642942,"R"
246793,"5621 WILLOW WOOD DRIVE","MORRISON","CO",80465,39.613380857,-105.186170586,293,"5621 WILLOW WOOD DRIVE, MORRISON, CO, 80465","Match","Exact","5621 WILLOW WOOD DR, MORRISON, CO, 80465",177758654,"R"
246794,"5621 WOODLAND ROAD","WINNECONNE","WI",54986,44.155079239,-88.67905266,294,"5621 WOODLAND ROAD, WINNECONNE, WI, 54986","Match","Exact","5621 WOODLAND RD, WINNECONNE, WI, 54986",617908087,"R"
246795,"5621 WOODLAWN PLACE","NEW ORLEANS","LA",70124,29.9925410700001,-90.1117876229999,295,"5621 WOODLAWN PLACE, NEW ORLEANS, LA, 70124","Match","Exact","5621 WOODLAWN PL, NEW ORLEANS, LA, 70124",191705724,"R"
246796,"56210 160 AVE","WEST CONCORD","MN",55985,44.136165256,-92.92530557,296,"56210 160 AVE, WEST CONCORD, MN, 55985","Match","Exact","56210 160TH AVE, WEST CONCORD, MN, 55985",31426662,"R"
246797,"5622 1ST AVE SOUTH","MINNEAPOLIS","MN",55419,44.9010357780001,-93.2768064589999,297,"5622 1ST AVE SOUTH, MINNEAPOLIS, MN, 55419","Match","Exact","5622 1ST AVE S, MINNEAPOLIS, MN, 55419",43635190,"R"
246798,"5622 36TH ST S SUITE B","FARGO","ND",58104,46.7987111030001,-96.838020898,298,"5622 36TH ST S SUITE B, FARGO, ND, 58104","Match","Exact","5622 36TH ST S, FARGO, ND, 58104",647823339,"R"
246799,"5622 BEAR MEADOW LANE","KATY","TX",77449,29.8532466300001,-95.7249337809999,299,"5622 BEAR MEADOW LANE, KATY, TX, 77449","Match","Exact","5622 BEAR MEADOW LN, KATY, TX, 77449",96562963,"R"
246800,"5622 BELMAR TERRACE","PHILADELPHIA","PA",19143,39.9388992240001,-75.227746418,300,"5622 BELMAR TERRACE, PHILADELPHIA, PA, 19143","Match","Exact","5622 BELMAR TER, PHILADELPHIA, PA, 19143",131399584,"L"
246801,"5622 CENTRAL AVE","ST PETERSBURG","FL",33707,27.7708955630001,-82.709782721,301,"5622 CENTRAL AVE, ST PETERSBURG, FL, 33707","Match","Exact","5622 CENTRAL AVE, SAINT PETERSBURG, FL, 33707",124700211,"L"
246802,"5622 E ENROSE ST","MESA","AZ",85205,33.4317401760001,-111.709222577,302,"5622 E ENROSE ST, MESA, AZ, 85205","Match","Exact","5622 E ENROSE ST, MESA, AZ, 85205",128283518,"L"
246803,"5622 E SHORE DR","GREENSBORO","NC",27406,35.9698652540001,-79.79192209,303,"5622 E SHORE DR, GREENSBORO, NC, 27406","Match","Exact","5622 E SHORE DR, GREENSBORO, NC, 27406",647286606,"R"
246804,"5622 EPWORTH RD","NEWBURGH","IN",47630,37.9533479610001,-87.441093472,304,"5622 EPWORTH RD, NEWBURGH, IN, 47630","Match","Exact","5622 EPWORTH RD, NEWBURGH, IN, 47630",32210131,"L"
246805,"5622 HARVEY COURT","WHITE MARSH","MD",21162,39.4031397430001,-76.413358901,305,"5622 HARVEY COURT, WHITE MARSH, MD, 21162","Match","Exact","5622 HARVEY CT, WHITE MARSH, MD, 21162",614113036,"L"
246806,"5622 KASHMERE ST","HOUSTON","TX",77026,29.8109047520001,-95.3242418039999,306,"5622 KASHMERE ST, HOUSTON, TX, 77026","Match","Exact","5622 KASHMERE ST, HOUSTON, TX, 77026",96636798,"R"
246807,"5622 MEAD CT","INDIANAPOLIS","IN",46220,39.856353825,-86.1096327829999,307,"5622 MEAD CT, INDIANAPOLIS, IN, 46220","Match","Non_Exact","5622 MEAD DR, INDIANAPOLIS, IN, 46220",108054752,"L"
246808,"5622 N EAST SHAFER DR","MONTICELLO","IN",47960,40.8326655380001,-86.7735447319999,308,"5622 N EAST SHAFER DR, MONTICELLO, IN, 47960","Match","Exact","5622 N EAST SHAFER DR, MONTICELLO, IN, 47960",27363830,"R"
246809,"5622 ROSA AVENUE","ST. LOUIS","MO",63109,38.581213534,-90.2898226029999,309,"5622 ROSA AVENUE, ST. LOUIS, MO, 63109","Match","Exact","5622 ROSA AVE, SAINT LOUIS, MO, 63109",107599408,"L"
246810,"5622 SE LAMAY DRIVE","STUART","FL",34997,27.138107543,-80.224501721,310,"5622 SE LAMAY DRIVE, STUART, FL, 34997","Match","Exact","5622 SE LAMAY DR, STUART, FL, 34997",120452399,"L"
246811,"5622 SHENADOAH DR","FAYETTEVILLE","NC",28304,35.025925296,-78.97563859,311,"5622 SHENADOAH DR, FAYETTEVILLE, NC, 28304","Match","Non_Exact","5622 SHENANDOAH DR, FAYETTEVILLE, NC, 28304",64267601,"R"
246812,"5622 W LAKE STREET","ST LOUIS PARK","MN",55416,44.9480384070001,-93.350810288,312,"5622 W LAKE STREET, ST LOUIS PARK, MN, 55416","Match","Exact","5622 W LAKE ST, SAINT LOUIS PARK, MN, 55416",43625863,"R"
246813,"5622 WATERBURY CIRCLE","DES MOINES","IA",50312,41.58702191,-93.6946241059999,313,"5622 WATERBURY CIRCLE, DES MOINES, IA, 50312","Match","Exact","5622 WATERBURY CIR, DES MOINES, IA, 50312",65779945,"L"
246814,"5622 WOODROW DR","BISMARCK","ND",58504,46.7294246110001,-100.704670681,314,"5622 WOODROW DR, BISMARCK, ND, 58504","Match","Exact","5622 WOODROW DR, BISMARCK, ND, 58504",632893488,"L"
246815,"5623 152ND AVE SE","BELLEVUE","WA",98006,47.5514249020001,-122.137872433,315,"5623 152ND AVE SE, BELLEVUE, WA, 98006","Match","Exact","5623 152ND AVE SE, BELLEVUE, WA, 98006",186940334,"L"
246816,"5623 20TH AVE NE","SEATTLE","WA",98105,47.6696944080001,-122.306503458,316,"5623 20TH AVE NE, SEATTLE, WA, 98105","Match","Exact","5623 20TH AVE NE, SEATTLE, WA, 98105",186990993,"L"
246817,"5623 ALLENTOWN RD STE 100","SUITLAND","MD",20748,38.8068453400001,-76.9019889159999,317,"5623 ALLENTOWN RD STE 100, SUITLAND, MD, 20748","Match","Non_Exact","5623 ALLENTOWN RD, SUITLAND, MD, 20746",637895333,"L"
246818,"5623 BELLINGTON AVE","SPRINGFIELD","VA",22151,38.798126364,-77.2110992839999,318,"5623 BELLINGTON AVE, SPRINGFIELD, VA, 22151","Match","Exact","5623 BELLINGTON AVE, SPRINGFIELD, VA, 22151",75976286,"L"
246819,"5623 E CUB RIVER RD","PRESTON","ID",83263,42.092375298,-111.741172968,319,"5623 E CUB RIVER RD, PRESTON, ID, 83263","Match","Exact","5623 E CUB RIVER RD, PRESTON, ID, 83263",167527897,"L"
246820,"5623 HAMILTON WOLFE APT 432","SAN ANTONIO","TX",78240,29.514434631,-98.594353567,320,"5623 HAMILTON WOLFE APT 432, SAN ANTONIO, TX, 78240","Match","Non_Exact","5623 HAMILTON WOLFE RD, SAN ANTONIO, TX, 78240",101547396,"R"
246821,"5623 OLD ROUW RD","VAN BUREN","AR",72956,35.413581972,-94.282774044,321,"5623 OLD ROUW RD, VAN BUREN, AR, 72956","Match","Exact","5623 OLD ROUW RD, VAN BUREN, AR, 72956",53478164,"L"
246822,"5623 S ACACIA CANYON PLACE","GREEN VALLEY","AZ",85622,31.7899760610001,-111.028810161,322,"5623 S ACACIA CANYON PLACE, GREEN VALLEY, AZ, 85622","Match","Exact","5623 S ACACIA CANYON PL, GREEN VALLEY, AZ, 85622",606827527,"L"
246823,"5623 SADDLE BRED DR","HOUSTON","TX",77084,29.857938947,-95.631638585,323,"5623 SADDLE BRED DR, HOUSTON, TX, 77084","Match","Exact","5623 SADDLE BRED DR, HOUSTON, TX, 77084",640071427,"L"
246824,"5623 SANDHILL DRIVE","MIDDLETON","WI",53562,43.1249911730001,-89.477163681,324,"5623 SANDHILL DRIVE, MIDDLETON, WI, 53562","Match","Exact","5623 SANDHILL DR, MIDDLETON, WI, 53562",49508218,"L"
246825,"5623 SCENICHILLS RD","KNOXVILLE","TN",37912,36.008452907,-83.9793141869999,325,"5623 SCENICHILLS RD, KNOXVILLE, TN, 37912","Match","Exact","5623 SCENICHILLS RD, KNOXVILLE, TN, 37912",42613145,"L"
246826,"5623 W 29TH PL","INDIANAPOLIS","IN",46224,39.8076315320001,-86.258499969,326,"5623 W 29TH PL, INDIANAPOLIS, IN, 46224","Match","Exact","5623 W 29TH PL, INDIANAPOLIS, IN, 46224",107978460,"L"
246827,"5623 WHEATSHEAT COURT","VIRGINIA BEACH","VA",23464,NA,NA,327,"5623 WHEATSHEAT COURT, VIRGINIA BEACH, VA, 23464","No_Match",NA,NA,NA,NA
246828,"5623 WILLIS AVE","DALLAS","TX",75206,32.8202514440001,-96.7717101439999,328,"5623 WILLIS AVE, DALLAS, TX, 75206","Match","Exact","5623 WILLIS AVE, DALLAS, TX, 75206",102908331,"L"
246829,"56236 LILAC LANE","LANDERS","CA",92285,34.2912653970001,-116.436454446,329,"56236 LILAC LANE, LANDERS, CA, 92285","Match","Exact","56236 LILAC LN, LANDERS, CA, 92285",144608667,"L"
246830,"5624 58TH ST","MASPETH","NY",11378,NA,NA,330,"5624 58TH ST, MASPETH, NY, 11378","No_Match",NA,NA,NA,NA
246831,"5624 APIA DRIVE","CYPRESS","CA",90630,33.79243145,-118.034884474,331,"5624 APIA DRIVE, CYPRESS, CA, 90630","Match","Exact","5624 APIA DR, CYPRESS, CA, 90630",144000225,"R"
246832,"5624 COUNTRY LAKE COURT","SYLVANIA","OH",43560,41.7138299630001,-83.765571914,332,"5624 COUNTRY LAKE COURT, SYLVANIA, OH, 43560","Match","Exact","5624 COUNTRY LAKE CT, SYLVANIA, OH, 43560",33954166,"L"
246833,"5624 EAGLE LAKE DR","GLEN ALLEN","VA",23060,37.667809925,-77.554247409,333,"5624 EAGLE LAKE DR, GLEN ALLEN, VA, 23060","Match","Exact","5624 EAGLE LAKE DR, GLEN ALLEN, VA, 23060",106666249,"R"
246834,"5624 EXECUTIVE CENTER DR SUITE 130","CHARLOTTE","NC",28212,35.2015049190001,-80.7441839219999,334,"5624 EXECUTIVE CENTER DR SUITE 130, CHARLOTTE, NC, 28212","Match","Exact","5624 EXECUTIVE CENTER DR, CHARLOTTE, NC, 28212",70492297,"R"
246835,"5624 EXECUTIVE CENTER DR SUITE 130","CHARLOTTE","NC",28215,35.2015049190001,-80.7441839219999,335,"5624 EXECUTIVE CENTER DR SUITE 130, CHARLOTTE, NC, 28215","Match","Non_Exact","5624 EXECUTIVE CENTER DR, CHARLOTTE, NC, 28212",70492297,"R"
246836,"5624 GENDER RD","CANAL WINCHESTER","OH",43110,39.8654926950001,-82.8271882129999,336,"5624 GENDER RD, CANAL WINCHESTER, OH, 43110","Match","Exact","5624 GENDER RD, CANAL WINCHESTER, OH, 43110",218640890,"L"
246837,"5624 GREAT WOODS BLVD","COLUMBUS","OH",43231,40.0836174560001,-82.9406476459999,337,"5624 GREAT WOODS BLVD, COLUMBUS, OH, 43231","Match","Exact","5624 GREAT WOODS BLVD, COLUMBUS, OH, 43231",650005894,"L"
246838,"5624 HOKU ROAD","KAPAA","HI",96746,22.0987885530001,-159.329575988,338,"5624 HOKU ROAD, KAPAA, HI, 96746","Match","Exact","5624 HOKU RD, KAPAA, HI, 96746",614440556,"R"
246839,"5624 JUNEBERRY COURT","WATERFORD","MI",48329,42.6803484430001,-83.3993743409999,339,"5624 JUNEBERRY COURT, WATERFORD, MI, 48329","Match","Exact","5624 JUNEBERRY CT, WATERFORD, MI, 48329",69795300,"R"
246840,"5624 MATEO DRIVE","FORT WAYNE","IN",46835,41.1439701670001,-85.0714601509999,340,"5624 MATEO DRIVE, FORT WAYNE, IN, 46835","Match","Non_Exact","5624 MATEO CT, FORT WAYNE, IN, 46835",6384315,"R"
246841,"5624 MC SHANN RD","DALLAS","TX",75230,32.9216021190001,-96.810249152,341,"5624 MC SHANN RD, DALLAS, TX, 75230","Match","Exact","5624 MC SHANN RD, DALLAS, TX, 75230",102900122,"R"
246842,"5624 MOUNT VERNON WAY","MT PLEASANT","WI",53406,42.7437655370001,-87.848573802,342,"5624 MOUNT VERNON WAY, MT PLEASANT, WI, 53406","Match","Exact","5624 MT VERNON WAY, MOUNT PLEASANT, WI, 53406",77935355,"L"
246843,"5624 ORCHARD LANE","TUSCALOOSA","AL",35405,33.1649889810001,-87.460941519,343,"5624 ORCHARD LANE, TUSCALOOSA, AL, 35405","Match","Exact","5624 ORCHARD LN, TUSCALOOSA, AL, 35405",82162635,"L"
246844,"5624 PACES GLEN AVE APT 1028","CHARLOTTE","NC",28212,35.199312213,-80.7522832349999,344,"5624 PACES GLEN AVE APT 1028, CHARLOTTE, NC, 28212","Match","Exact","5624 PACES GLEN AVE, CHARLOTTE, NC, 28212",70508670,"L"
246845,"5624 RAVENEL LANE","SPRINGFIELD","VA",22151,38.7977037270001,-77.2146453189999,345,"5624 RAVENEL LANE, SPRINGFIELD, VA, 22151","Match","Exact","5624 RAVENEL LN, SPRINGFIELD, VA, 22151",76033619,"R"
246846,"5624 S 113TH ST","HALES CORNERS","WI",53130,42.942277629,-88.054223959,346,"5624 S 113TH ST, HALES CORNERS, WI, 53130","Match","Exact","5624 S 113TH ST, HALES CORNERS, WI, 53130",77746527,"L"
246847,"5624 S CARROLL ROAD","NEW PALESTINE","IN",46163,NA,NA,347,"5624 S CARROLL ROAD, NEW PALESTINE, IN, 46163","No_Match",NA,NA,NA,NA
246848,"5624 S GILLIAM STREET","PAHRUMP","NV",89061,36.136940753,-115.943696942,348,"5624 S GILLIAM STREET, PAHRUMP, NV, 89061","Match","Exact","5624 S GILLIAM ST, PAHRUMP, NV, 89061",651378536,"R"
246849,"5624 THACKERAY DRIVE","FAYETTEVILLE","NC",28306,34.997653418,-78.949423032,349,"5624 THACKERAY DRIVE, FAYETTEVILLE, NC, 28306","Match","Exact","5624 THACKERAY DR, FAYETTEVILLE, NC, 28306",635327454,"R"
246850,"5625 1/2 TRUETT ST","HOUSTON","TX",77023,29.724482193,-95.3179014139999,350,"5625 1/2 TRUETT ST, HOUSTON, TX, 77023","Match","Exact","5625 TRUETT ST, HOUSTON, TX, 77023",96082343,"L"
246851,"5625 23RD AVE S","MINNEAPOLIS","MN",55417,44.901135262,-93.238683941,351,"5625 23RD AVE S, MINNEAPOLIS, MN, 55417","Match","Exact","5625 23RD AVE S, MINNEAPOLIS, MN, 55417",43639551,"L"
246852,"5625 AMANDA ST","SAN DIEGO","CA",92114,32.707069362,-117.074899987,352,"5625 AMANDA ST, SAN DIEGO, CA, 92114","Match","Exact","5625 AMANDA ST, SAN DIEGO, CA, 92114",195352170,"R"
246853,"5625 BAILEY LANE","AMARILLO","TX",79118,35.0470850470001,-101.898233772,353,"5625 BAILEY LANE, AMARILLO, TX, 79118","Match","Exact","5625 BAILEY LN, AMARILLO, TX, 79118",182659946,"R"
246854,"5625 BROADWAY","BRONX","NY",10463,40.879517418,-73.904374247,354,"5625 BROADWAY, BRONX, NY, 10463","Match","Exact","5625 BROADWAY, BRONX, NY, 10463",80308083,"L"
246855,"5625 GERMAN CHURCH ROAD STE 1011","INDIANAPOLIS","IN",46235,39.8576052120001,-85.973066834,355,"5625 GERMAN CHURCH ROAD STE 1011, INDIANAPOLIS, IN, 46235","Match","Non_Exact","5625 N GERMAN CHURCH RD, INDIANAPOLIS, IN, 46235",645039711,"R"
246856,"5625 HAVERFORD WAY","LAKE WORTH","FL",33463,26.5949287760001,-80.143512102,356,"5625 HAVERFORD WAY, LAKE WORTH, FL, 33463","Match","Exact","5625 HAVERFORD WAY, LAKE WORTH, FL, 33463",115283732,"L"
246857,"5625 LAFAYETTE PARK DRIVE NORTH","JACKSONVILLE","FL",32244,30.222029756,-81.726371505,357,"5625 LAFAYETTE PARK DRIVE NORTH, JACKSONVILLE, FL, 32244","Match","Exact","5625 LAFAYETTE PARK DR N, JACKSONVILLE, FL, 32244",83962726,"R"
246858,"5625 N POST RD SUITE L100","INDIANAPOLIS","IN",46216,39.8560776410001,-86.0103215,358,"5625 N POST RD SUITE L100, INDIANAPOLIS, IN, 46216","Match","Non_Exact","5625 N POST RD, INDIANAPOLIS, IN, 46216",640801287,"R"
246859,"5625 N WINTHROP AVE SUITE 500","CHICAGO","IL",60660,41.984189601,-87.658011696,359,"5625 N WINTHROP AVE SUITE 500, CHICAGO, IL, 60660","Match","Non_Exact","5625 N WINTHROP AVE, CHICAGO, IL, 60660",111745907,"R"
246860,"5625 NORTHFIELD PKWY","TROY","MI",48098,42.60052955,-83.174782556,360,"5625 NORTHFIELD PKWY, TROY, MI, 48098","Match","Exact","5625 NORTHFIELD PKWY, TROY, MI, 48098",69787332,"L"
246861,"5625 NW 121ST AVENUE","CORAL SPRINGS","FL",33076,26.300754995,-80.288040752,361,"5625 NW 121ST AVENUE, CORAL SPRINGS, FL, 33076","Match","Exact","5625 NW 121ST AVE, CORAL SPRINGS, FL, 33076",114800680,"R"
246862,"5625 O STREET","LINCOLN","NE",68510,40.8133689810001,-96.6434651069999,362,"5625 O STREET, LINCOLN, NE, 68510","Match","Exact","5625 O ST, LINCOLN, NE, 68510",28297562,"R"
246863,"5625 PIEDRA DR","FORT WORTH","TX",76179,32.8354855810001,-97.411700035,363,"5625 PIEDRA DR, FORT WORTH, TX, 76179","Match","Exact","5625 PIEDRA DR, FORT WORTH, TX, 76179",619871741,"L"
246864,"5625 PRAIRIE STREET","CEDAR FALLS","IA",50613,42.487289764,-92.4111265129999,364,"5625 PRAIRIE STREET, CEDAR FALLS, IA, 50613","Match","Exact","5625 PRAIRIE ST, CEDAR FALLS, IA, 50613",77250924,"R"
246865,"5625 ROCK WREN CT","ELK GROVE","CA",95758,38.4287541620001,-121.439993726,365,"5625 ROCK WREN CT, ELK GROVE, CA, 95758","Match","Exact","5625 ROCK WREN CT, ELK GROVE, CA, 95758",133379635,"L"
246866,"5625 S 73RD ST","LINCOLN","NE",68516,40.756527126,-96.620622853,366,"5625 S 73RD ST, LINCOLN, NE, 68516","Match","Exact","5625 S 73RD ST, LINCOLN, NE, 68516",28285124,"R"
246867,"5625 SPICEWOOD DRIVE","COLUMBIA","MO",65203,38.8910235880001,-92.4151442899999,367,"5625 SPICEWOOD DRIVE, COLUMBIA, MO, 65203","Match","Non_Exact","5625 SPICE WOOD CT, COLUMBIA, MO, 65203",627685829,"R"
246868,"5625 W DIAMOND DR","JOPLIN","MO",64801,37.110846048,-94.584468726,368,"5625 W DIAMOND DR, JOPLIN, MO, 64801","Match","Exact","5625 W DIAMOND DR, JOPLIN, MO, 64801",66171603,"L"
246869,"5625 W WISCONSIN AVEENUE","MILWAUKEE","WI",53213,NA,NA,369,"5625 W WISCONSIN AVEENUE, MILWAUKEE, WI, 53213","No_Match",NA,NA,NA,NA
246870,"5625 WEST WISCONSIN AVENUE","MILWAUKEE","WI",53215,43.038786083,-87.983265676,370,"5625 WEST WISCONSIN AVENUE, MILWAUKEE, WI, 53215","Match","Non_Exact","5625 W WISCONSIN AVE, MILWAUKEE, WI, 53213",653038309,"L"
246871,"5626 21ST ST CT E","BRADENTON","FL",34203,27.441265242,-82.5378854969999,371,"5626 21ST ST CT E, BRADENTON, FL, 34203","Match","Exact","5626 21ST STREET CT E, BRADENTON, FL, 34203",16254834,"L"
246872,"5626 AMELIA PLANTATION DRIVE","KATY","TX",77449,29.8537222210001,-95.71018026,372,"5626 AMELIA PLANTATION DRIVE, KATY, TX, 77449","Match","Exact","5626 AMELIA PLANTATION DR, KATY, TX, 77449",646704284,"R"
246873,"5626 ARDMORE DR","BATON ROUGE","LA",70817,30.4028762930001,-91.014463822,373,"5626 ARDMORE DR, BATON ROUGE, LA, 70817","Match","Exact","5626 ARDMORE DR, BATON ROUGE, LA, 70817",92195034,"R"
246874,"5626 AUCKLAND AVE","NORTH HOLLYWOOD","CA",91601,34.172907192,-118.360455283,374,"5626 AUCKLAND AVE, NORTH HOLLYWOOD, CA, 91601","Match","Exact","5626 AUCKLAND AVE, N HOLLYWOOD, CA, 91601",141591964,"R"
246875,"5626 CAMELIA AVE","NORTH HOLLYWOOD","CA",91601,34.172704465,-118.382225341,375,"5626 CAMELIA AVE, NORTH HOLLYWOOD, CA, 91601","Match","Non_Exact","5626 CAMELLIA AVE, N HOLLYWOOD, CA, 91601",141564832,"R"
246876,"5626 DAVID CHRISTIAN PLACE","GREENSBORO","NC",27410,36.1207658380001,-79.889704643,376,"5626 DAVID CHRISTIAN PLACE, GREENSBORO, NC, 27410","Match","Exact","5626 DAVID CHRISTIAN PL, GREENSBORO, NC, 27410",624707611,"R"
246877,"5626 HEISKELL STREET","PHILADELPHIA","PA",19144,40.0390914920001,-75.1696270099999,377,"5626 HEISKELL STREET, PHILADELPHIA, PA, 19144","Match","Exact","5626 HEISKELL ST, PHILADELPHIA, PA, 19144",131395824,"L"
246878,"5626 HODIAMONT AVENUE","JENNINGS","MO",63136,38.7121201680001,-90.2612994529999,378,"5626 HODIAMONT AVENUE, JENNINGS, MO, 63136","Match","Exact","5626 HODIAMONT AVE, JENNINGS, MO, 63136",100149828,"R"
246879,"5626 KERMIT LANE","STOCKTON","CA",95207,38.004706178,-121.301056927,379,"5626 KERMIT LANE, STOCKTON, CA, 95207","Match","Exact","5626 KERMIT LN, STOCKTON, CA, 95207",614165219,"R"
246880,"5626 LUXEMBOURG STREET","ROCKVILLE","MD",20852,39.029985647,-77.114736034,380,"5626 LUXEMBOURG STREET, ROCKVILLE, MD, 20852","Match","Non_Exact","5626 LUXEMBURG ST, ROCKVILLE, MD, 20852",636853265,"L"
246881,"5626 N 51ST AVE","GLENDALE","AZ",85301,33.5189531460001,-112.16869705,381,"5626 N 51ST AVE, GLENDALE, AZ, 85301","Match","Exact","5626 N 51ST AVE, GLENDALE, AZ, 85301",128197791,"L"
246882,"5626 NORTH 134TH DRIVE","LITCHFIELD PARK","AZ",85340,33.516671337,-112.347739239,382,"5626 NORTH 134TH DRIVE, LITCHFIELD PARK, AZ, 85340","Match","Exact","5626 N 134TH DR, LITCHFIELD PARK, AZ, 85340",128858768,"L"
246883,"5626 PRESTON OAKS RD APT 7A","DALLAS","TX",75232,32.943277901,-96.811098121,383,"5626 PRESTON OAKS RD APT 7A, DALLAS, TX, 75232","Match","Non_Exact","5626 PRESTON OAKS RD, DALLAS, TX, 75254",650065790,"R"
246884,"5626 SCOTLAND CIRCLE","PENSACOLA","FL",32526,30.450868282,-87.33112246,384,"5626 SCOTLAND CIRCLE, PENSACOLA, FL, 32526","Match","Exact","5626 SCOTLAND CIR, PENSACOLA, FL, 32526",93211957,"R"
246885,"5626 SOUTEL DRIVE","JACKSONVILLE","FL",32219,30.3862819560001,-81.7337707579999,385,"5626 SOUTEL DRIVE, JACKSONVILLE, FL, 32219","Match","Exact","5626 SOUTEL DR, JACKSONVILLE, FL, 32219",83887900,"L"
246886,"5627 ALLENTOWN ROAD 107","SUITLAND","MD",20746,38.8068435770001,-76.902001846,386,"5627 ALLENTOWN ROAD 107, SUITLAND, MD, 20746","Match","Exact","5627 ALLENTOWN RD, SUITLAND, MD, 20746",637895333,"L"
246887,"5627 APRIL JOURNEY","COLUMBIA","MD",21044,39.231748936,-76.849413017,387,"5627 APRIL JOURNEY, COLUMBIA, MD, 21044","Match","Non_Exact","5627 APRIL JOURNEY RD, COLUMBIA, MD, 21044",158947482,"R"
246888,"5627 BYPASS TRAIL","SAN ANTONIO","TX",78244,29.4817438270001,-98.328507001,388,"5627 BYPASS TRAIL, SAN ANTONIO, TX, 78244","Match","Exact","5627 BYPASS TRL, SAN ANTONIO, TX, 78244",101703884,"R"
246889,"5627 COOPER HOLLOW RD","MONMOUTH","OR",97361,NA,NA,389,"5627 COOPER HOLLOW RD, MONMOUTH, OR, 97361","No_Match",NA,NA,NA,NA
246890,"5627 COUNTRY WALK LANE","SARASOTA","FL",34233,27.2776101380001,-82.458001774,390,"5627 COUNTRY WALK LANE, SARASOTA, FL, 34233","Match","Exact","5627 COUNTRY WALK LN, SARASOTA, FL, 34233",16384917,"R"
246891,"5627 CRESTHAVEN LANE","TOLEDO","OH",43614,41.603045068,-83.672744086,391,"5627 CRESTHAVEN LANE, TOLEDO, OH, 43614","Match","Exact","5627 CRESTHAVEN LN, TOLEDO, OH, 43614",33952547,"L"
246892,"5627 GARRIGA","LAS VEGAS","NV",89135,36.0852599520001,-115.320126379,392,"5627 GARRIGA, LAS VEGAS, NV, 89135","Match","Non_Exact","5627 GARRIGA DR, LAS VEGAS, NV, 89135",645744911,"R"
246893,"5627 LAMAR RD","BETHESDA","MD",20816,38.9641498500001,-77.113225246,393,"5627 LAMAR RD, BETHESDA, MD, 20816","Match","Exact","5627 LAMAR RD, BETHESDA, MD, 20816",62058938,"R"
246894,"5627 N FLORA AVENUE","FRESNO","CA",93710,36.8202175550001,-119.764332856,394,"5627 N FLORA AVENUE, FRESNO, CA, 93710","Match","Exact","5627 N FLORA AVE, FRESNO, CA, 93710",197632242,"L"
246895,"5627 NORTH MARWOOD BOULEVARD","UPPER MARLBORO","MD",20772,38.811980985,-76.834885034,395,"5627 NORTH MARWOOD BOULEVARD, UPPER MARLBORO, MD, 20772","Match","Exact","5627 N MARWOOD BLVD, UPPER MARLBORO, MD, 20772",76416610,"R"
246896,"5627 TELEGRAPH AVE SUITE 158","OAKLAND","CA",94609,37.841642269,-122.261829615,396,"5627 TELEGRAPH AVE SUITE 158, OAKLAND, CA, 94609","Match","Exact","5627 TELEGRAPH AVE, OAKLAND, CA, 94609",635481446,"L"
246897,"56272 52ND AVENUE","LAWRENCE","MI",49064,42.2291923070001,-86.093041364,397,"56272 52ND AVENUE, LAWRENCE, MI, 49064","Match","Exact","56272 52ND AVE, LAWRENCE, MI, 49064",34752145,"R"
246898,"5628 INDIAN TRAIL","PORTSMOUTH","VA",23704,NA,NA,398,"5628 INDIAN TRAIL, PORTSMOUTH, VA, 23704","No_Match",NA,NA,NA,NA
246899,"5628 KENDALL AVE","LOS ANGELES","CA",90032,34.098599107,-118.15821308,399,"5628 KENDALL AVE, LOS ANGELES, CA, 90032","Match","Exact","5628 KENDALL AVE, LOS ANGELES, CA, 90032",141635194,"R"
246900,"5628 MAYBEE RD","CLARKSTON","MI",48455,42.719247033,-83.374004559,400,"5628 MAYBEE RD, CLARKSTON, MI, 48455","Match","Non_Exact","5628 MAYBEE RD, CLARKSTON, MI, 48346",69693868,"R"
246901,"5628 MESA MOUNTAIN DRIVE","LAS VEGAS","NV",89135,36.0858370600001,-115.329359594,401,"5628 MESA MOUNTAIN DRIVE, LAS VEGAS, NV, 89135","Match","Exact","5628 MESA MOUNTAIN, LAS VEGAS, NV, 89135",640590444,"R"
246902,"5628 MURRAY DRIVE","BERKELEY","IL",60163,41.8865258750001,-87.910028912,402,"5628 MURRAY DRIVE, BERKELEY, IL, 60163","Match","Exact","5628 MURRAY DR, BERKELEY, IL, 60163",111724814,"R"
246903,"5628 SW GREEN OAKS BLVD STEB","ARLINGTON","TX",76017,NA,NA,403,"5628 SW GREEN OAKS BLVD STEB, ARLINGTON, TX, 76017","No_Match",NA,NA,NA,NA
246904,"5628 W DAVIT AVE","SANTA ANA","CA",92704,33.739618319,-117.943135461,404,"5628 W DAVIT AVE, SANTA ANA, CA, 92704","Match","Exact","5628 W DAVIT AVE, SANTA ANA, CA, 92704",144121010,"L"
246905,"5628 W GUNNISON STREET","CHICAGO","IL",60630,41.968676524,-87.768851839,405,"5628 W GUNNISON STREET, CHICAGO, IL, 60630","Match","Exact","5628 W GUNNISON ST, CHICAGO, IL, 60630",605160952,"R"
246906,"5628 WALDRON ST","CORONA","NY",11368,NA,NA,406,"5628 WALDRON ST, CORONA, NY, 11368","No_Match",NA,NA,NA,NA
246907,"5628 WOLF CREEK DRIVE","JACKSONVILLE","FL",32222,30.242808874,-81.837507503,407,"5628 WOLF CREEK DRIVE, JACKSONVILLE, FL, 32222","Match","Non_Exact","5628 WOLFCREEK DR, JACKSONVILLE, FL, 32222",83957898,"L"
246908,"56281 LITTLE CAPTINA RD","POWHATAN POINT","OH",43942,39.8978422430001,-80.8262222129999,408,"56281 LITTLE CAPTINA RD, POWHATAN POINT, OH, 43942","Match","Exact","56281 LITTLE CAPTINA RD, POWHATAN POINT, OH, 43942",36233227,"L"
246909,"5629 CHEVROLET BOULEVARD","PARMA","OH",44130,41.408585314,-81.7688950099999,409,"5629 CHEVROLET BOULEVARD, PARMA, OH, 44130","Match","Exact","5629 CHEVROLET BLVD, PARMA, OH, 44130",61104148,"L"
246910,"5629 COLLEEN LANE","WEST BEND","WI",53095,43.39472849,-88.137704055,410,"5629 COLLEEN LANE, WEST BEND, WI, 53095","Match","Exact","5629 COLLEEN LN, WEST BEND, WI, 53095",79559029,"R"
246911,"5629 CRENSHAW RD APT B","RICHMOND","VA",23227,37.609781013,-77.444015768,411,"5629 CRENSHAW RD APT B, RICHMOND, VA, 23227","Match","Exact","5629 CRENSHAW RD, RICHMOND, VA, 23227",106683555,"R"
246912,"5629 FAWNBROOK LANE","DUBLIN","OH",43017,40.129925773,-83.143011534,412,"5629 FAWNBROOK LANE, DUBLIN, OH, 43017","Match","Exact","5629 FAWNBROOK LN, DUBLIN, OH, 43017",135630104,"R"
246913,"5629 IVY HILL DRIVE","FREDERICKSBURG","VA",22407,38.2132213780001,-77.529640662,413,"5629 IVY HILL DRIVE, FREDERICKSBURG, VA, 22407","Match","Exact","5629 IVY HILL DR, FREDERICKSBURG, VA, 22407",614150576,"L"
246914,"5629 WOOD ST","PORT ORANGE","FL",32127,29.116962831,-80.9870739839999,414,"5629 WOOD ST, PORT ORANGE, FL, 32127","Match","Exact","5629 WOOD ST, PORT ORANGE, FL, 32127",94529325,"L"
246915,"5629 WOODVINE CT","FORT WORTH","TX",76140,32.589056758,-97.239652298,415,"5629 WOODVINE CT, FORT WORTH, TX, 76140","Match","Exact","5629 WOODVINE CT, FORT WORTH, TX, 76140",101903587,"L"
246916,"56296 270TH AVENUE","PINE ISLAND","MN",55963,44.132840985,-92.698500241,416,"56296 270TH AVENUE, PINE ISLAND, MN, 55963","Match","Exact","56296 270TH AVE, PINE ISLAND, MN, 55963",31428485,"L"
246917,"563 BLAKE STREET","VICTORIA","TX",77905,28.811975289,-97.0769026,417,"563 BLAKE STREET, VICTORIA, TX, 77905","Match","Exact","563 BLAKE ST, VICTORIA, TX, 77905",44573848,"R"
246918,"563 BROWNING DR","TUSCALOOSA","AL",35405,33.1257349300001,-87.5440142259999,418,"563 BROWNING DR, TUSCALOOSA, AL, 35405","Match","Exact","563 BROWNING DR, TUSCALOOSA, AL, 35405",82192151,"L"
246919,"563 CARTER COURT SUITE B","KIMBERLY","WI",54136,44.262894047,-88.3493541289999,419,"563 CARTER COURT SUITE B, KIMBERLY, WI, 54136","Match","Exact","563 CARTER CT, KIMBERLY, WI, 54136",74895995,"R"
246920,"563 CHESTNUT AVENUE","TEANECK","NJ",7666,40.8844432320001,-74.024213625,420,"563 CHESTNUT AVENUE, TEANECK, NJ, 7666","Match","Exact","563 CHESTNUT AVE, TEANECK, NJ, 07666",64388728,"R"
246921,"563 CHURCH ST","BOUND BROOK","NJ",8805,40.569723911,-74.532216763,421,"563 CHURCH ST, BOUND BROOK, NJ, 8805","Match","Exact","563 CHURCH ST, BOUND BROOK, NJ, 08805",59940682,"L"
246922,"563 COLLEGE AVENUE B102","LANCASTER","PA",17603,40.045697552,-76.318882426,422,"563 COLLEGE AVENUE B102, LANCASTER, PA, 17603","Match","Exact","563 COLLEGE AVE, LANCASTER, PA, 17603",642656024,"R"
246923,"563 DERRICK TURNBOW AVE","CINCINNATI","OH",45214,39.11109808,-84.524687548,423,"563 DERRICK TURNBOW AVE, CINCINNATI, OH, 45214","Match","Exact","563 DERRICK TURNBOW AVE, CINCINNATI, OH, 45214",103970264,"L"
246924,"563 E TREMONT AVE  2ND FL","BRONX","NY",10457,40.8465085760001,-73.894760095,424,"563 E TREMONT AVE  2ND FL, BRONX, NY, 10457","Match","Non_Exact","563 E TREMONT AVE, BRONX, NY, 10457",80301185,"L"
246925,"563 EAST SIENA DRIVE","WASHINGTON","UT",84780,37.1258380530001,-113.500693708,425,"563 EAST SIENA DRIVE, WASHINGTON, UT, 84780","Match","Exact","563 E SIENA DR, WASHINGTON, UT, 84780",652004749,"L"
246926,"563 EAST THREE NOTCH STREET","ANDALUSIA","AL",36420,31.3084624840001,-86.475171937,426,"563 EAST THREE NOTCH STREET, ANDALUSIA, AL, 36420","Match","Exact","563 E THREE NOTCH ST, ANDALUSIA, AL, 36420",1869890,"L"
246927,"563 EMERALD ST","NEW ORLEANS","LA",70124,30.020701301,-90.108360971,427,"563 EMERALD ST, NEW ORLEANS, LA, 70124","Match","Non_Exact","563 EMERALD AVE, NEW ORLEANS, LA, 70124",191702764,"L"
246928,"563 FERGUSON DRIVE STE-L","ORLANDO","FL",32805,28.5504589,-81.4200645879999,428,"563 FERGUSON DRIVE STE-L, ORLANDO, FL, 32805","Match","Exact","563 FERGUSON DR, ORLANDO, FL, 32805",652515116,"R"
246929,"563 GILMORE STAGE ROAD","ORANGE CITY","FL",32763,28.9420329640001,-81.292516076,429,"563 GILMORE STAGE ROAD, ORANGE CITY, FL, 32763","Match","Exact","563 GILMORE STAGE RD, ORANGE CITY, FL, 32763",612317570,"L"
246930,"563 HENDERSON AVENUE","STATEN ISLAND","NY",10310,40.6376920660001,-74.111369118,430,"563 HENDERSON AVENUE, STATEN ISLAND, NY, 10310","Match","Exact","563 HENDERSON AVE, STATEN ISLAND, NY, 10310",59878271,"R"
246931,"563 HILLMAN ST","WARRENVILLE","SC",29851,33.517426078,-81.790099453,431,"563 HILLMAN ST, WARRENVILLE, SC, 29851","Match","Exact","563 HILLMAN ST, WARRENVILLE, SC, 29851",627462215,"L"
246932,"563 LANDON HILL ROAD","CHESTERTOWN","NY",12817,43.6874627180001,-73.816402904,432,"563 LANDON HILL ROAD, CHESTERTOWN, NY, 12817","Match","Exact","563 LANDON HILL RD, CHESTERTOWN, NY, 12817",636776888,"L"
246933,"563 LARCHWOOD AVENUE","UPPER DARBY","PA",19082,39.9612893550001,-75.2694311669999,433,"563 LARCHWOOD AVENUE, UPPER DARBY, PA, 19082","Match","Exact","563 LARCHWOOD AVE, UPPER DARBY, PA, 19082",134877651,"R"
246934,"563 LOG ROAD","SMITHFIELD","RI",2917,41.933291147,-71.583990958,434,"563 LOG ROAD, SMITHFIELD, RI, 2917","Match","Exact","563 LOG RD, SMITHFIELD, RI, 02917",47447684,"L"
246935,"563 MAGNOLIA DR","CROWN POINT","IN",46307,41.3932022830001,-87.358897568,435,"563 MAGNOLIA DR, CROWN POINT, IN, 46307","Match","Exact","563 MAGNOLIA DR, CROWN POINT, IN, 46307",98433169,"L"
246936,"563 MAIN ST","MINTURN","CO",81645,39.583971166,-106.427002663,436,"563 MAIN ST, MINTURN, CO, 81645","Match","Exact","563 MAIN ST, MINTURN, CO, 81645",105731293,"L"
246937,"563 MEMORIAL DRIVE SE UNIT 204","ATLANTA","GA",30312,33.7467092700001,-84.368716322,437,"563 MEMORIAL DRIVE SE UNIT 204, ATLANTA, GA, 30312","Match","Exact","563 MEMORIAL DR SE, ATLANTA, GA, 30312",17357537,"R"
246938,"563 MONTEAGLE DR","MEMPHIS","TN",38109,35.0440800440001,-90.083020093,438,"563 MONTEAGLE DR, MEMPHIS, TN, 38109","Match","Exact","563 MONTEAGLE DR, MEMPHIS, TN, 38109",72906995,"L"
246939,"563 NEW CUT LANE","BLAYTHEWOOD","SC",29016,34.1797853670001,-80.950551778,439,"563 NEW CUT LANE, BLAYTHEWOOD, SC, 29016","Match","Non_Exact","563 NEW CUT LN, BLYTHEWOOD, SC, 29016",645499646,"L"
246940,"563 NORTH CYPRESS STREET","JESUP","GA",31546,31.6042315990001,-81.8719734489999,440,"563 NORTH CYPRESS STREET, JESUP, GA, 31546","Match","Exact","563 N CYPRESS ST, JESUP, GA, 31546",4836138,"L"
246941,"563 PECK AVENUE","FORT MYERS","FL",33919,26.564231923,-81.909778584,441,"563 PECK AVENUE, FORT MYERS, FL, 33919","Match","Exact","563 PECK AVE, FORT MYERS, FL, 33919",118025302,"L"
246942,"563 PIERMONT RD","DEMAREST","NJ",7627,NA,NA,442,"563 PIERMONT RD, DEMAREST, NJ, 7627","No_Match",NA,NA,NA,NA
246943,"563 POINT PETER ROAD","ST. MARYS","GA",31558,NA,NA,443,"563 POINT PETER ROAD, ST. MARYS, GA, 31558","Tie",NA,NA,NA,NA
246944,"563 PRIMUS CT","FREDERICK","MD",21703,39.406262923,-77.4355751369999,444,"563 PRIMUS CT, FREDERICK, MD, 21703","Match","Exact","563 PRIMUS CT, FREDERICK, MD, 21703",604957127,"R"
246945,"563 RIDGESIDE DRIVE","GOLDEN","CO",80401,39.7013345890001,-105.284435997,445,"563 RIDGESIDE DRIVE, GOLDEN, CO, 80401","Match","Exact","563 RIDGESIDE DR, GOLDEN, CO, 80401",624696239,"L"
246946,"563 RIVERSIDE DRIVE","PALM BEACH GARDENS","FL",33410,26.821240189,-80.090665483,446,"563 RIVERSIDE DRIVE, PALM BEACH GARDENS, FL, 33410","Match","Exact","563 RIVERSIDE DR, PALM BEACH GARDENS, FL, 33410",115580298,"R"
246947,"563 RUTHERFORD CIRCLE","BIRMINGHAM","AL",35206,33.5729362430001,-86.7014522429999,447,"563 RUTHERFORD CIRCLE, BIRMINGHAM, AL, 35206","Match","Exact","563 RUTHERFORD CIR, BIRMINGHAM, AL, 35206",640552472,"L"
246948,"563 SOUTH 400 EAST","SALT LAKE CITY","UT",84111,40.757022041,-111.879626813,448,"563 SOUTH 400 EAST, SALT LAKE CITY, UT, 84111","Match","Exact","563 S 400 E, SALT LAKE CITY, UT, 84111",636230727,"L"
246949,"563 SOUTH SHERMAN STREET","DENVER","CO",80209,39.7064097590001,-104.985152246,449,"563 SOUTH SHERMAN STREET, DENVER, CO, 80209","Match","Exact","563 S SHERMAN ST, DENVER, CO, 80209",177331646,"R"
246950,"563 SUTTER STREET","SAN FRANCISCO","CA",94102,37.7890954920001,-122.409597965,450,"563 SUTTER STREET, SAN FRANCISCO, CA, 94102","Match","Exact","563 SUTTER ST, SAN FRANCISCO, CA, 94102",192280955,"L"
246951,"563 VILLA DRIVE","YPSILANTI","MI",48198,42.257911129,-83.619523053,451,"563 VILLA DRIVE, YPSILANTI, MI, 48198","Match","Exact","563 VILLA DR, YPSILANTI, MI, 48198",26020710,"R"
246952,"563 W 150TH STREET APT 1E","NEW YORK","NY",10031,40.8291547480001,-73.9470598939999,452,"563 W 150TH STREET APT 1E, NEW YORK, NY, 10031","Match","Non_Exact","563 W 150TH ST, NEW YORK, NY, 10031",59655932,"R"
246953,"563 W 169TH ST FL 1ST","NEW YORK","NY",10032,40.8412725650001,-73.938343435,453,"563 W 169TH ST FL 1ST, NEW YORK, NY, 10032","Match","Non_Exact","563 W 169TH ST, NEW YORK, NY, 10032",59655700,"R"
246954,"563 WAGON CREEK ROAD","BANDERA","TX",78003,29.739229247,-99.013968157,454,"563 WAGON CREEK ROAD, BANDERA, TX, 78003","Match","Exact","563 WAGON CREEK RD, BANDERA, TX, 78003",102706630,"R"
246955,"563 WARWICK STREET","BROOKLYN","NY",11207,40.669625061,-73.8848708479999,455,"563 WARWICK STREET, BROOKLYN, NY, 11207","Match","Exact","563 WARWICK ST, BROOKLYN, NY, 11207",59085183,"L"
246956,"563","KEEGO HARBOR","MI",48320,NA,NA,456,"563, KEEGO HARBOR, MI, 48320","No_Match",NA,NA,NA,NA
246957,"5630 CLARK STATE ROAD","GAHANNA","OH",43230,40.032752524,-82.8445543299999,457,"5630 CLARK STATE ROAD, GAHANNA, OH, 43230","Match","Exact","5630 CLARK STATE RD, GAHANNA, OH, 43230",641137005,"L"
246958,"5630 FARNSWORTH RD","BRETHREN","MI",49619,44.3223645210001,-86.081203189,458,"5630 FARNSWORTH RD, BRETHREN, MI, 49619","Match","Exact","5630 FARNSWORTH RD, BRETHREN, MI, 49619",146022638,"L"
246959,"5630 HWY 53 E","TATE","GA",30177,34.4173403790001,-84.3786964239999,459,"5630 HWY 53 E, TATE, GA, 30177","Match","Exact","5630 HWY 53 E, TATE, GA, 30177",70205210,"L"
246960,"5630 KENSINGTON AVE","COUNTRYSIDE","IL",60525,41.787790864,-87.874337133,460,"5630 KENSINGTON AVE, COUNTRYSIDE, IL, 60525","Match","Non_Exact","5630 S KENSINGTON AVE, COUNTRYSIDE, IL, 60525",112205386,"R"
246961,"5630 N CAMINO DE LAS ESTRELLAS","TUCSON","AZ",85718,NA,NA,461,"5630 N CAMINO DE LAS ESTRELLAS, TUCSON, AZ, 85718","No_Match",NA,NA,NA,NA
246962,"5630 N VISTA LANE","JANESVILLE","WI",53548,42.7535299940001,-89.128334142,462,"5630 N VISTA LANE, JANESVILLE, WI, 53548","Match","Exact","5630 N VISTA LN, JANESVILLE, WI, 53548",49900136,"R"
246963,"5630 REDTAIL ROAD","COUNCIL BLUFFS","IA",51501,41.202707698,-95.8341415419999,463,"5630 REDTAIL ROAD, COUNCIL BLUFFS, IA, 51501","Match","Exact","5630 REDTAIL RD, COUNCIL BLUFFS, IA, 51501",617973335,"L"
246964,"5630 SANTA CRUZ AVE","RICHMOND","CA",94804,37.9069954930001,-122.312197219,464,"5630 SANTA CRUZ AVE, RICHMOND, CA, 94804","Match","Exact","5630 SANTA CRUZ AVE, RICHMOND, CA, 94804",192043693,"R"
246965,"5630 SEDONA DR","AUSTIN","TX",78759,30.397091372,-97.764694345,465,"5630 SEDONA DR, AUSTIN, TX, 78759","Match","Non_Exact","5630 SEDONIA DR, AUSTIN, TX, 78759",63986152,"L"
246966,"5630 SMITH RD","HUEYTOWN","AL",35023,33.4611110880001,-87.0283131899999,466,"5630 SMITH RD, HUEYTOWN, AL, 35023","Match","Exact","5630 SMITH RD, HUEYTOWN, AL, 35023",81545928,"L"
246967,"5630 STAR GRASS LANE","NAPLES","FL",34116,26.185343356,-81.7207325479999,467,"5630 STAR GRASS LANE, NAPLES, FL, 34116","Match","Exact","5630 STAR GRASS LN, NAPLES, FL, 34116",115139605,"R"
246968,"5630 SW 120TH AVENUE","COOPER CITY","FL",33330,26.047753702,-80.3085168659999,468,"5630 SW 120TH AVENUE, COOPER CITY, FL, 33330","Match","Exact","5630 SW 120TH AVE, COOPER CITY, FL, 33330",114700125,"L"
246969,"5630 TULLS CORNER ROAD","MARION STATION","MD",21838,38.036571124,-75.7665231829999,469,"5630 TULLS CORNER ROAD, MARION STATION, MD, 21838","Match","Exact","5630 TULLS CORNER RD, MARION STATION, MD, 21838",209666718,"L"
246970,"5630 WAPELLO AVE SE","LONE TREE","IA",52755,41.52223443,-91.3867124609999,470,"5630 WAPELLO AVE SE, LONE TREE, IA, 52755","Match","Exact","5630 WAPELLO AVE SE, LONE TREE, IA, 52755",84493102,"R"
246971,"5631 ALPENROSE AVE","FRISCO","TX",75035,33.1239960880001,-96.760115895,471,"5631 ALPENROSE AVE, FRISCO, TX, 75035","Match","Exact","5631 ALPENROSE AVE, FRISCO, TX, 75035",651062045,"R"
246972,"5631 ANDERSON HIGHWAY","POWHATAN","VA",23139,37.563647303,-78.0448228179999,472,"5631 ANDERSON HIGHWAY, POWHATAN, VA, 23139","Match","Exact","5631 ANDERSON HWY, POWHATAN, VA, 23139",626991430,"R"
246973,"5631 CYPRESS AVENUE","CARMICHAEL","CA",95608,38.6389525170001,-121.333625957,473,"5631 CYPRESS AVENUE, CARMICHAEL, CA, 95608","Match","Exact","5631 CYPRESS AVE, CARMICHAEL, CA, 95608",133342980,"L"
246974,"5631 GLENN RD","INDIANAPOLIS","IN",46216,39.855993977,-86.021733736,474,"5631 GLENN RD, INDIANAPOLIS, IN, 46216","Match","Exact","5631 GLENN RD, INDIANAPOLIS, IN, 46216",108055657,"R"
246975,"5631 HIGHYWAY 90 NO 1571","THEODORE","AL",36582,NA,NA,475,"5631 HIGHYWAY 90 NO 1571, THEODORE, AL, 36582","No_Match",NA,NA,NA,NA
246976,"5631 MATLOCK RD","GRANBURY","TX",76049,32.417762743,-97.665254895,476,"5631 MATLOCK RD, GRANBURY, TX, 76049","Match","Exact","5631 MATLOCK RD, GRANBURY, TX, 76049",158810175,"R"
246977,"5631 MIRIAM ROAD","PHILADELPHIA","PA",19124,40.0309476200001,-75.088519407,477,"5631 MIRIAM ROAD, PHILADELPHIA, PA, 19124","Match","Exact","5631 MIRIAM RD, PHILADELPHIA, PA, 19124",131426830,"R"
246978,"5631 MOUNT HOLLY HUNTERSVILLE ROAD","CHARLOTTE","NC",28216,35.3357521560001,-80.9206740819999,478,"5631 MOUNT HOLLY HUNTERSVILLE ROAD, CHARLOTTE, NC, 28216","Match","Non_Exact","5631 MOUNT HOLLY-HUNTERSVILLE RD, CHARLOTTE, NC, 28216",647264647,"L"
246979,"5631 N US 421","MONON","IN",47959,NA,NA,479,"5631 N US 421, MONON, IN, 47959","No_Match",NA,NA,NA,NA
246980,"5631 SEDGEMOOR RD","VIRGINIA BEACH","VA",23455,36.8754795340001,-76.1785877739999,480,"5631 SEDGEMOOR RD, VIRGINIA BEACH, VA, 23455","Match","Exact","5631 SEDGEMOOR RD, VIRGINIA BCH, VA, 23455",122258761,"R"
246981,"5631 STATE ROUTE 154","PINCKNEYVILLE","IL",62274,38.083159675,-89.337679629,481,"5631 STATE ROUTE 154, PINCKNEYVILLE, IL, 62274","Match","Exact","5631 STATE RTE 154, PINCKNEYVILLE, IL, 62274",93123611,"R"
246982,"5631 TILUBO LN","PACE","FL",32571,30.642355997,-87.165747686,482,"5631 TILUBO LN, PACE, FL, 32571","Match","Exact","5631 TILUBO LN, PACE, FL, 32571",74578028,"L"
246983,"5631 W SEEGER CT","VISALIA","CA",93277,36.3103151770001,-119.353275658,483,"5631 W SEEGER CT, VISALIA, CA, 93277","Match","Exact","5631 W SEEGER CT, VISALIA, CA, 93277",202778856,"R"
246984,"5631 WILLOWTWIG LANE","DAYTON","OH",45459,39.670376016,-84.2051980859999,484,"5631 WILLOWTWIG LANE, DAYTON, OH, 45459","Match","Exact","5631 WILLOWTWIG LN, DAYTON, OH, 45459",143580566,"R"
246985,"5632 BELSTEAD LANE","GLEN ALLEN","VA",23059,37.6917032470001,-77.614203961,485,"5632 BELSTEAD LANE, GLEN ALLEN, VA, 23059","Match","Exact","5632 BELSTEAD LN, GLEN ALLEN, VA, 23059",106668029,"L"
246986,"5632 BLOOMINGDALE RD","BLOUNTVILLE","TN",37617,36.572954214,-82.397890473,486,"5632 BLOOMINGDALE RD, BLOUNTVILLE, TN, 37617","Match","Non_Exact","5632 BLOOMINGDALE PIKE, BLOUNTVILLE, TN, 37617",127836076,"R"
246987,"5632 CANDO DRIVE","FORT WORTH","TX",76134,32.6605442170001,-97.3078307929999,487,"5632 CANDO DRIVE, FORT WORTH, TX, 76134","Match","Exact","5632 CANDO DR, FORT WORTH, TX, 76134",101895361,"R"
246988,"5632 DONNELLY AVE","FORT WORTH","TX",76107,32.729269586,-97.406756069,488,"5632 DONNELLY AVE, FORT WORTH, TX, 76107","Match","Exact","5632 DONNELLY AVE, FORT WORTH, TX, 76107",101880734,"R"
246989,"5632 SPANISH RIVER RD","FORT PIERCE","FL",34951,27.5374385800001,-80.389490582,489,"5632 SPANISH RIVER RD, FORT PIERCE, FL, 34951","Match","Exact","5632 SPANISH RIVER RD, FORT PIERCE, FL, 34951",610747236,"L"
246990,"5632 VAN NUYS BLVD    403","VAN NUYS","CA",91401,34.1729011890001,-118.448698198,490,"5632 VAN NUYS BLVD    403, VAN NUYS, CA, 91401","Match","Exact","5632 VAN NUYS BLVD, VAN NUYS, CA, 91401",141561460,"R"
246991,"5632 VAN NUYS BLVD  APT 201","VAN NUYS","CA",91401,34.1729011890001,-118.448698198,491,"5632 VAN NUYS BLVD  APT 201, VAN NUYS, CA, 91401","Match","Exact","5632 VAN NUYS BLVD, VAN NUYS, CA, 91401",141561460,"R"
246992,"5632 VAN NUYS BLVD UNIT 1492","SHERMAN OAKS","CA",91401,34.1729011890001,-118.448698198,492,"5632 VAN NUYS BLVD UNIT 1492, SHERMAN OAKS, CA, 91401","Match","Exact","5632 VAN NUYS BLVD, SHERMAN OAKS, CA, 91401",141561460,"R"
246993,"5632 WOODCREST AVENUE","PHILADELPHIA","PA",19131,39.9900206660001,-75.236623715,493,"5632 WOODCREST AVENUE, PHILADELPHIA, PA, 19131","Match","Exact","5632 WOODCREST AVE, PHILADELPHIA, PA, 19131",131396658,"L"
246994,"5633 BELLINGTON AVENUE","SPRINGFIELD","VA",22151,38.7975314070001,-77.211546713,494,"5633 BELLINGTON AVENUE, SPRINGFIELD, VA, 22151","Match","Exact","5633 BELLINGTON AVE, SPRINGFIELD, VA, 22151",75976285,"L"
246995,"5633 CLIFTON LANE","JACKSONVILLE","FL",32211,30.321651692,-81.60543857,495,"5633 CLIFTON LANE, JACKSONVILLE, FL, 32211","Match","Exact","5633 CLIFTON LN, JACKSONVILLE, FL, 32211",83903303,"L"
246996,"5633 COLFAX AVE","NORTH HOLLYWOOD","CA",91601,34.172793879,-118.387771089,496,"5633 COLFAX AVE, NORTH HOLLYWOOD, CA, 91601","Match","Exact","5633 COLFAX AVE, N HOLLYWOOD, CA, 91601",241237520,"L"
246997,"5633 DEVON ST","PORT ORANGE","FL",32127,29.1069046060001,-80.998000937,497,"5633 DEVON ST, PORT ORANGE, FL, 32127","Match","Exact","5633 DEVON ST, PORT ORANGE, FL, 32127",94529880,"L"
246998,"5633 EXECUTIVE WAY","NORCROSS","GA",30071,33.9341162700001,-84.20062554,498,"5633 EXECUTIVE WAY, NORCROSS, GA, 30071","Match","Exact","5633 EXECUTIVE WAY, NORCROSS, GA, 30071",88893554,"R"
246999,"5633 HAZEL AVENUE","PHILADELPHIA","PA",19143,39.952560485,-75.2353479659999,499,"5633 HAZEL AVENUE, PHILADELPHIA, PA, 19143","Match","Exact","5633 HAZEL AVE, PHILADELPHIA, PA, 19143",131399052,"R"
247000,"5633 HUNTERS BEND LANE","DALLAS","TX",75249,32.6555990620001,-96.97328662,500,"5633 HUNTERS BEND LANE, DALLAS, TX, 75249","Match","Exact","5633 HUNTERS BEND LN, DALLAS, TX, 75249",619137732,"R"
