"ID","Address","City","State","Zip","lat","long","id","input_address","match_indicator","match_type","matched_address","tiger_line_id","tiger_side"
292501,"8 HALSEY","LAWRENCE","MA",1843,42.68788755,-71.147967153,1,"8 HALSEY, LAWRENCE, MA, 1843","Match","Non_Exact","8 HALSEY ST, LAWRENCE, MA, 01843",86629203,"L"
292502,"8 HAMPTON CIRCLE","HULL","MA",2045,42.270603785,-70.864211312,2,"8 HAMPTON CIRCLE, HULL, MA, 2045","Match","Exact","8 HAMPTON CIR, HULL, MA, 02045",87429999,"R"
292503,"8 HANOVER DR","MEDFORD","NJ",8055,39.839572382,-74.779583525,3,"8 HANOVER DR, MEDFORD, NJ, 8055","Match","Exact","8 HANOVER DR, MEDFORD, NJ, 08055",134067143,"R"
292504,"8 HARDY WATER DR SE","LAWRENCEVILLE","GA",30045,33.9768902010001,-83.934966047,4,"8 HARDY WATER DR SE, LAWRENCEVILLE, GA, 30045","Match","Non_Exact","8 HARDY WATER DR, LAWRENCEVILLE, GA, 30045",646849957,"R"
292505,"8 HARRISON AVE","RENSSELAER","NY",12144,42.647220207,-73.7387593289999,5,"8 HARRISON AVE, RENSSELAER, NY, 12144","Match","Exact","8 HARRISON AVE, RENSSELAER, NY, 12144",35727818,"R"
292506,"8 HARTS HILL CIRCLE","WHITESBORO","NY",13492,43.103327849,-75.307461492,6,"8 HARTS HILL CIRCLE, WHITESBORO, NY, 13492","Match","Exact","8 HARTS HILL CIR, WHITESBORO, NY, 13492",171527378,"R"
292507,"8 HAWTHORN WAY","WETHERSFIELD","CT",6109,41.6834692900001,-72.696132956,7,"8 HAWTHORN WAY, WETHERSFIELD, CT, 6109","Match","Exact","8 HAWTHORN WAY, WETHERSFIELD, CT, 06109",627717480,"R"
292508,"8 HAZEL ROAD","BERKELEY","CA",94705,37.856386151,-122.246285409,8,"8 HAZEL ROAD, BERKELEY, CA, 94705","Match","Exact","8 HAZEL RD, BERKELEY, CA, 94705",606340917,"R"
292509,"8 HAZEN PLACE","FORT EDWARD","NY",12828,43.263176781,-73.6364139949999,9,"8 HAZEN PLACE, FORT EDWARD, NY, 12828","Match","Exact","8 HAZEN PL, FORT EDWARD, NY, 12828",18782277,"R"
292510,"8 HEARTHSTONE DR","SOUTH WINDSOR","CT",6074,41.8513658790001,-72.5338321949999,10,"8 HEARTHSTONE DR, SOUTH WINDSOR, CT, 6074","Match","Non_Exact","8 HEARTHSTONE LN, SOUTH WINDSOR, CT, 06074",628527915,"R"
292511,"8 HEATHEWOOD LN","PUEBLO","CO",81008,38.316902649,-104.628577239,11,"8 HEATHEWOOD LN, PUEBLO, CO, 81008","Match","Non_Exact","8 HEATHERWOOD LN, PUEBLO, CO, 81008",105023268,"R"
292512,"8 HERBERT STREET","ALEXANDRIA","VA",22305,38.834128306,-77.0585680419999,12,"8 HERBERT STREET, ALEXANDRIA, VA, 22305","Match","Exact","8 HERBERT ST, ALEXANDRIA, VA, 22305",75987781,"L"
292513,"8 HERITAGE DRIVE","SPARTA","NJ",7871,41.0133657220001,-74.6303170049999,13,"8 HERITAGE DRIVE, SPARTA, NJ, 7871","Match","Exact","8 HERITAGE DR, SPARTA, NJ, 07871",98014579,"L"
292514,"8 HIAWATHA TRAIL","HOLLISTON","MA",1746,42.235243129,-71.42198522,14,"8 HIAWATHA TRAIL, HOLLISTON, MA, 1746","Match","Exact","8 HIAWATHA TRL, HOLLISTON, MA, 01746",646588352,"L"
292515,"8 HICKORY CREEK CT","ARDEN","NC",28704,35.4730596970001,-82.49360224,15,"8 HICKORY CREEK CT, ARDEN, NC, 28704","Match","Exact","8 HICKORY CREEK CT, ARDEN, NC, 28704",36874969,"L"
292516,"8 HICKORY LANE","NORTHBROOK","IL",60062,42.1295316360001,-87.8091926929999,16,"8 HICKORY LANE, NORTHBROOK, IL, 60062","Match","Exact","8 HICKORY LN, NORTHBROOK, IL, 60062",111839853,"L"
292517,"8 HIGH STREET","STOW","MA",1775,42.399775321,-71.5273672129999,17,"8 HIGH STREET, STOW, MA, 1775","Match","Exact","8 HIGH ST, STOW, MA, 01775",86900679,"L"
292518,"8 HIGHLAND PARK AVE","BOSTON","MA",2119,42.3268793300001,-71.095677086,18,"8 HIGHLAND PARK AVE, BOSTON, MA, 2119","Match","Exact","8 HIGHLAND PARK AVE, BOSTON, MA, 02119",85724405,"R"
292519,"8 HILLTOP","IRVINE","CA",92603,33.6400128330001,-117.809980319,19,"8 HILLTOP, IRVINE, CA, 92603","Match","Exact","8 HILLTOP, IRVINE, CA, 92603",144060260,"R"
292520,"8 HITCHING POST DRIVE","WALPOLE","MA",2081,42.12501795,-71.271588578,20,"8 HITCHING POST DRIVE, WALPOLE, MA, 2081","Match","Exact","8 HITCHING POST DR, WALPOLE, MA, 02081",87282651,"L"
292521,"8 HOLLYCHASE","RICHWOOD","TX",77531,29.07212537,-95.415370315,21,"8 HOLLYCHASE, RICHWOOD, TX, 77531","Match","Non_Exact","8 HOLLYCHASE ST, RICHWOOD, TX, 77531",116579613,"L"
292522,"8 HOMESTEAD DRIVE","WHEATLEY HEIGHTS","NY",11798,40.7580334990001,-73.382669133,22,"8 HOMESTEAD DRIVE, WHEATLEY HEIGHTS, NY, 11798","Match","Exact","8 HOMESTEAD DR, WHEATLEY HEIGHTS, NY, 11798",113967936,"R"
292523,"8 HONE STREET","KINGSTON","NY",12401,41.9166979510001,-73.9873242319999,23,"8 HONE STREET, KINGSTON, NY, 12401","Match","Exact","8 HONE ST, KINGSTON, NY, 12401",41879887,"L"
292524,"8 HOPEWELL FARM ROAD","NATICK","MA",1760,42.259366637,-71.34753359,24,"8 HOPEWELL FARM ROAD, NATICK, MA, 1760","Match","Exact","8 HOPEWELL FARM RD, NATICK, MA, 01760",87120211,"L"
292525,"8 HORSE PEN ROAD","NEWPORT NEWS","VA",23602,37.086848493,-76.536742147,25,"8 HORSE PEN ROAD, NEWPORT NEWS, VA, 23602","Match","Exact","8 HORSE PEN RD, NEWPORT NEWS, VA, 23602",103818076,"R"
292526,"8 HUGHES PLACE 2W","NEW HAVEN","CT",6511,41.305836915,-72.9178948969999,26,"8 HUGHES PLACE 2W, NEW HAVEN, CT, 6511","Match","Exact","8 HUGHES PL, NEW HAVEN, CT, 06511",3701475,"L"
292527,"8 HUNTERS RUN","SUDBURY","MA",1776,42.4027671790001,-71.419673089,27,"8 HUNTERS RUN, SUDBURY, MA, 1776","Match","Exact","8 HUNTERS RUN, SUDBURY, MA, 01776",86931044,"L"
292528,"8 HUNTING HOLLOW DR","PEPPERPIKE","OH",44124,41.4748254780001,-81.449725571,28,"8 HUNTING HOLLOW DR, PEPPERPIKE, OH, 44124","Match","Non_Exact","8 HUNTING HOLLOW DR, PEPPER PIKE, OH, 44124",61135162,"L"
292529,"8 HUNTINGTON STREET SUITE 304","HUNTINGTON","CT",6484,41.2949495080001,-73.1458145079999,29,"8 HUNTINGTON STREET SUITE 304, HUNTINGTON, CT, 6484","Match","Exact","8 HUNTINGTON ST, HUNTINGTON, CT, 06484",3282914,"L"
292530,"8 INDIAN SPRING LN","HIGH BRIDGE","NJ",8829,NA,NA,30,"8 INDIAN SPRING LN, HIGH BRIDGE, NJ, 8829","Tie",NA,NA,NA,NA
292531,"8 IREDALE STREET","BRIDGTON","ME",4009,44.055130767,-70.702191566,31,"8 IREDALE STREET, BRIDGTON, ME, 4009","Match","Exact","8 IREDALE ST, BRIDGTON, ME, 04009",78017849,"R"
292532,"8 IRONSTONE DRIVE","CARLISLE","PA",17015,40.198321191,-77.1065299589999,32,"8 IRONSTONE DRIVE, CARLISLE, PA, 17015","Match","Exact","8 IRONSTONE DR, CARLISLE, PA, 17015",647859265,"L"
292533,"8 ISLANDER WAY","POQUOSON","VA",23662,37.1323233000001,-76.386402,33,"8 ISLANDER WAY, POQUOSON, VA, 23662","Match","Exact","8 ISLANDER WAY, POQUOSON, VA, 23662",617115066,"R"
292534,"8 IVA COURT","BROOKLYN","NY",11229,NA,NA,34,"8 IVA COURT, BROOKLYN, NY, 11229","No_Match",NA,NA,NA,NA
292535,"8 IVYBERRY COURT","MONTGOMERY VILLAGE","MD",20886,39.1817512710001,-77.179054295,35,"8 IVYBERRY COURT, MONTGOMERY VILLAGE, MD, 20886","Match","Exact","8 IVYBERRY CT, MONTGOMERY VILLAGE, MD, 20886",62092529,"R"
292536,"8 JACKSON AVENUE","PEABODY","MA",1960,42.5541324370001,-71.016476903,36,"8 JACKSON AVENUE, PEABODY, MA, 1960","Match","Exact","8 JACKSON AVE, PEABODY, MA, 01960",86655405,"L"
292537,"8 JANICE CIR","NATCHEZ","MS",39120,31.541630911,-91.366696352,37,"8 JANICE CIR, NATCHEZ, MS, 39120","Match","Exact","8 JANICE CIR, NATCHEZ, MS, 39120",79847581,"L"
292538,"8 JASMINE COURT","SAVANNAH","GA",31406,32.0138746910001,-81.067881311,38,"8 JASMINE COURT, SAVANNAH, GA, 31406","Match","Exact","8 JASMINE CT, SAVANNAH, GA, 31406",6185762,"R"
292539,"8 JASON DRIVE","LONDONDERRY","NH",3053,42.8448338490001,-71.412938238,39,"8 JASON DRIVE, LONDONDERRY, NH, 3053","Match","Exact","8 JASON DR, LONDONDERRY, NH, 03053",113685964,"L"
292540,"8 JEFFERS ROAD","PLAINSBORO","NJ",8536,40.3339814340001,-74.6085459459999,40,"8 JEFFERS ROAD, PLAINSBORO, NJ, 8536","Match","Exact","8 JEFFERS RD, PLAINSBORO, NJ, 08536",60317440,"R"
292541,"8 JERBEN DRIVE","STONY POINT","NY",10980,41.216459656,-73.988992492,41,"8 JERBEN DRIVE, STONY POINT, NY, 10980","Match","Exact","8 JERBEN DR, STONY POINT, NY, 10980",124628516,"L"
292542,"8 JOAN AVENUE","NOVATO","CA",94947,38.0997852990001,-122.570688924,42,"8 JOAN AVENUE, NOVATO, CA, 94947","Match","Exact","8 JOAN AVE, NOVATO, CA, 94947",192757815,"R"
292543,"8 JOHN STREET","DEMAREST","NJ",7627,40.9537221140001,-73.9603928499999,43,"8 JOHN STREET, DEMAREST, NJ, 7627","Match","Exact","8 JOHN ST, DEMAREST, NJ, 07627",64425591,"R"
292544,"8 JOHNSON AVE","PORT JERVIS","NY",12771,41.3813115780001,-74.6845036129999,44,"8 JOHNSON AVE, PORT JERVIS, NY, 12771","Match","Exact","8 JOHNSON AVE, PORT JERVIS, NY, 12771",124385063,"L"
292545,"8 JOSEPHINE RD","MEDFORD","MA",2155,42.4346897360001,-71.142795264,45,"8 JOSEPHINE RD, MEDFORD, MA, 2155","Match","Exact","8 JOSEPHINE RD, MEDFORD, MA, 02155",86887973,"L"
292546,"8 JOSHUA CIRCLE","ELMORE","AL",36025,32.5269055860001,-86.358800958,46,"8 JOSHUA CIRCLE, ELMORE, AL, 36025","Match","Exact","8 JOSHUA CIR, ELMORE, AL, 36025",627297789,"R"
292547,"8 JUDITH RD","HUDSON","MA",1749,42.3739715820001,-71.574127789,47,"8 JUDITH RD, HUDSON, MA, 1749","Match","Exact","8 JUDITH RD, HUDSON, MA, 01749",614926056,"L"
292548,"8 KELMAR AVENUE","MALVERN","PA",19355,40.0508299040001,-75.568470502,48,"8 KELMAR AVENUE, MALVERN, PA, 19355","Match","Exact","8 KELMAR AVE, MALVERN, PA, 19355",179505587,"R"
292549,"8 KENDAL CT","CRANSTON","RI",2921,NA,NA,49,"8 KENDAL CT, CRANSTON, RI, 2921","No_Match",NA,NA,NA,NA
292550,"8 KINGS MILL","SAN ANTONIO","TX",78257,29.644789309,-98.609917589,50,"8 KINGS MILL, SAN ANTONIO, TX, 78257","Match","Exact","8 KINGS MILL, SAN ANTONIO, TX, 78257",101577858,"R"
292551,"8 KINGSBORO AVE","GLOVERSVILLE","NY",12078,43.0514682080001,-74.333385059,51,"8 KINGSBORO AVE, GLOVERSVILLE, NY, 12078","Match","Exact","8 KINGSBORO AVE, GLOVERSVILLE, NY, 12078",153637462,"R"
292552,"8 KIRK STREET","LOWELL","MA",1852,42.6458832750001,-71.310989115,52,"8 KIRK STREET, LOWELL, MA, 1852","Match","Exact","8 KIRK ST, LOWELL, MA, 01852",87087679,"L"
292553,"8 KITE HILL RD","SANTA CRUZ","CA",95060,37.010436682,-122.0264585,53,"8 KITE HILL RD, SANTA CRUZ, CA, 95060","Match","Exact","8 KITE HILL RD, SANTA CRUZ, CA, 95060",125536867,"L"
292554,"8 KNAPP LANE","NEW CITY","NY",10956,41.177304189,-73.9657541449999,54,"8 KNAPP LANE, NEW CITY, NY, 10956","Match","Exact","8 KNAPP LN, NEW CITY, NY, 10956",124591874,"R"
292555,"8 KNIFFEN ROAD","KATONAH","NY",10536,41.305943364,-73.7041959009999,55,"8 KNIFFEN ROAD, KATONAH, NY, 10536","Match","Exact","8 KNIFFEN RD, KATONAH, NY, 10536",139774223,"R"
292556,"8 KUIKEN CT","WAYNE","NJ",7470,40.9221994910001,-74.2232766549999,56,"8 KUIKEN CT, WAYNE, NJ, 7470","Match","Exact","8 KUIKEN CT, WAYNE, NJ, 07470",65259978,"R"
292557,"8 KUILIMA PL","KIHEI","HI",96753,20.772331148,-156.456372948,57,"8 KUILIMA PL, KIHEI, HI, 96753","Match","Exact","8 KUILIMA PL, KIHEI, HI, 96753",85087183,"R"
292558,"8 KYLE COURT","MOUNT LAUREL","NJ",8054,39.944389825,-74.8865208399999,58,"8 KYLE COURT, MOUNT LAUREL, NJ, 8054","Match","Exact","8 KYLE CT, MOUNT LAUREL, NJ, 08054",617385780,"R"
292559,"8 LAFORGE PLACE","STATEN ISLAND","NY",10302,40.6319154930001,-74.140880614,59,"8 LAFORGE PLACE, STATEN ISLAND, NY, 10302","Match","Exact","8 LAFORGE PL, STATEN ISLAND, NY, 10302",59877591,"R"
292560,"8 LAKESIDE CRESENT","LANCASTER","NY",14086,42.892909086,-78.661657465,60,"8 LAKESIDE CRESENT, LANCASTER, NY, 14086","Match","Exact","8 LAKESIDE CRES, LANCASTER, NY, 14086",48308632,"L"
292561,"8 LAKEWOOD COURT","WHISPERING PINES","NC",28327,35.2687335040001,-79.3736783419999,61,"8 LAKEWOOD COURT, WHISPERING PINES, NC, 28327","Match","Exact","8 LAKEWOOD CT, WHISPERING PINES, NC, 28327",20312304,"R"
292562,"8 LAUREL DRIVE","SHERMAN","CT",6784,41.5536629850001,-73.459015547,62,"8 LAUREL DRIVE, SHERMAN, CT, 6784","Match","Exact","8 LAUREL DR, SHERMAN, CT, 06784",3278907,"R"
292563,"8 LAWTON TER","HYDE PARK","MA",2136,42.235011522,-71.1281220119999,63,"8 LAWTON TER, HYDE PARK, MA, 2136","Match","Exact","8 LAWTON TER, HYDE PARK, MA, 02136",85704762,"R"
292564,"8 LE PARC CT","PRINCETON JCT","NJ",8550,40.2861582470001,-74.62924888,64,"8 LE PARC CT, PRINCETON JCT, NJ, 8550","Match","Exact","8 LE PARC CT, PRINCETON JCT, NJ, 08550",60190727,"R"
292565,"8 LEAHS TRACE","HAMPTON","VA",23666,37.0364820130001,-76.4435901429999,65,"8 LEAHS TRACE, HAMPTON, VA, 23666","Match","Exact","8 LEAHS TRCE, HAMPTON, VA, 23666",103799676,"L"
292566,"8 LEAMOOR DRIVE","MORRIS PLAINS","NJ",7950,40.834305532,-74.4824263789999,66,"8 LEAMOOR DRIVE, MORRIS PLAINS, NJ, 7950","Match","Exact","8 LEAMOOR DR, MORRIS PLAINS, NJ, 07950",60442119,"L"
292567,"8 LEE ROAD 1","BARRINGTON","NH",3825,43.2017001780001,-71.0045477369999,67,"8 LEE ROAD 1, BARRINGTON, NH, 3825","Match","Exact","8 LEE RD, BARRINGTON, NH, 03825",117811806,"L"
292568,"8 LEES CROSSING","VALDOSTA","GA",31605,30.89613796,-83.300115799,68,"8 LEES CROSSING, VALDOSTA, GA, 31605","Match","Non_Exact","8 LEE'S CROSSING, VALDOSTA, GA, 31605",87733676,"R"
292569,"8 LEGGASE STREET","ROCHESTER","NH",3867,NA,NA,69,"8 LEGGASE STREET, ROCHESTER, NH, 3867","No_Match",NA,NA,NA,NA
292570,"8 LEOMINSTER ROAD","SHIRLEY","MA",1464,42.5439497500001,-71.659293582,70,"8 LEOMINSTER ROAD, SHIRLEY, MA, 1464","Match","Exact","8 LEOMINSTER RD, SHIRLEY, MA, 01464",86839875,"R"
292571,"8 LEVI STEWART DRIVE","CORINNA","ME",4928,44.920597204,-69.262798182,71,"8 LEVI STEWART DRIVE, CORINNA, ME, 4928","Match","Exact","8 LEVI STEWART DR, CORINNA, ME, 04928",123623568,"L"
292572,"8 LEXINGTON DRIVE","MEDFORD","NJ",8055,39.8465535030001,-74.804416166,72,"8 LEXINGTON DRIVE, MEDFORD, NJ, 8055","Match","Exact","8 LEXINGTON DR, MEDFORD, NJ, 08055",134074048,"L"
292573,"8 LINDA LANE","TINTON FALLS","NJ",7724,40.320715277,-74.083311357,73,"8 LINDA LANE, TINTON FALLS, NJ, 7724","Match","Exact","8 LINDA LN, TINTON FALLS, NJ, 07724",90505720,"L"
292574,"8 LINDA PLACE","DENVILLE","NJ",7834,40.8897954280001,-74.497694655,74,"8 LINDA PLACE, DENVILLE, NJ, 7834","Match","Exact","8 LINDA PL, DENVILLE, NJ, 07834",60439485,"R"
292575,"8 LINDEN AVE","WEST ORANGE","NJ",7052,40.7771870890001,-74.24921433,75,"8 LINDEN AVE, WEST ORANGE, NJ, 7052","Match","Exact","8 LINDEN AVE, WEST ORANGE, NJ, 07052",63447063,"L"
292576,"8 LINWOOD STREET","SCOTTSBORO","AL",35769,34.6830828770001,-85.987457289,76,"8 LINWOOD STREET, SCOTTSBORO, AL, 35769","Match","Exact","8 LINWOOD ST, SCOTTSBORO, AL, 35769",58018417,"R"
292577,"8 LISA PL","PINE BROOK","NJ",7058,40.877523981,-74.360979798,77,"8 LISA PL, PINE BROOK, NJ, 7058","Match","Exact","8 LISA PL, PINE BROOK, NJ, 07058",60428450,"L"
292578,"8 LISTER DRIVE","BARRINGTON","RI",2806,41.752747405,-71.308620949,78,"8 LISTER DRIVE, BARRINGTON, RI, 2806","Match","Exact","8 LISTER DR, BARRINGTON, RI, 02806",46479568,"L"
292579,"8 LLANDILLO ROAD","HAVERTOWN","PA",19083,39.9722493900001,-75.299510889,79,"8 LLANDILLO ROAD, HAVERTOWN, PA, 19083","Match","Exact","8 LLANDILLO RD, HAVERTOWN, PA, 19083",134875767,"L"
292580,"8 LOCUST STREET","NESCONSET","NY",11767,40.8320210750001,-73.139052733,80,"8 LOCUST STREET, NESCONSET, NY, 11767","Match","Exact","8 LOCUST ST, NESCONSET, NY, 11767",113991027,"L"
292581,"8 LOCUST STRRET","NESCONSET","NY",11767,NA,NA,81,"8 LOCUST STRRET, NESCONSET, NY, 11767","Tie",NA,NA,NA,NA
292582,"8 LOMBARDY ST","NEWARK","NJ",7102,40.742774336,-74.169174574,82,"8 LOMBARDY ST, NEWARK, NJ, 7102","Match","Exact","8 LOMBARDY ST, NEWARK, NJ, 07102",63467381,"L"
292583,"8 LOMBARDY STREET SUITE 301","NEWARK","NJ",7102,40.742774336,-74.169174574,83,"8 LOMBARDY STREET SUITE 301, NEWARK, NJ, 7102","Match","Exact","8 LOMBARDY ST, NEWARK, NJ, 07102",63467381,"L"
292584,"8 LONEPINE ROAD","HOT SPRINGS","MT",59845,47.702995023,-114.628884769,84,"8 LONEPINE ROAD, HOT SPRINGS, MT, 59845","Match","Non_Exact","8 LONEPINE RD, HOT SPRINGS, MT, 59848",607957405,"R"
292585,"8 LONGWOOD DRIVE","KENNEBUNK","ME",4043,43.400503535,-70.539782401,85,"8 LONGWOOD DRIVE, KENNEBUNK, ME, 4043","Match","Exact","8 LONGWOOD DR, KENNEBUNK, ME, 04043",92740585,"L"
292586,"8 LORETTACONG DRIVE","LAKE HOPATCONG","NJ",7849,40.9886100370001,-74.610372602,86,"8 LORETTACONG DRIVE, LAKE HOPATCONG, NJ, 7849","Match","Exact","8 LORETTACONG DR, LAKE HOPATCONG, NJ, 07849",60451654,"R"
292587,"8 LORRAINE DR","CAPE NEDDICK","ME",3902,43.193306482,-70.613037031,87,"8 LORRAINE DR, CAPE NEDDICK, ME, 3902","Match","Exact","8 LORRAINE DR, CAPE NEDDICK, ME, 03902",92770912,"L"
292588,"8 LOTOWANA LANE","STONY BROOK","NY",11790,40.9134451740001,-73.142812943,88,"8 LOTOWANA LANE, STONY BROOK, NY, 11790","Match","Exact","8 LOTOWANA LN, STONY BROOK, NY, 11790",113986714,"R"
292589,"8 LOUISE VIEW DRIVE","BELLINGHAM","WA",98229,48.7087825580001,-122.340928337,89,"8 LOUISE VIEW DRIVE, BELLINGHAM, WA, 98229","Match","Exact","8 LOUISE VIEW DR, BELLINGHAM, WA, 98229",636499896,"R"
292590,"8 LOVETT STREET","ST. AUGUSTINE","FL",32084,29.884534215,-81.312645259,90,"8 LOVETT STREET, ST. AUGUSTINE, FL, 32084","Match","Exact","8 LOVETT ST, SAINT AUGUSTINE, FL, 32084",92582681,"L"
292591,"8 LUANITA LANE","NEWPORT NEWS","VA",23606,37.086503371,-76.510048045,91,"8 LUANITA LANE, NEWPORT NEWS, VA, 23606","Match","Exact","8 LUANITA LN, NEWPORT NEWS, VA, 23606",103751839,"R"
292592,"8 LYNNCREST DR","CHATTANOOGA","TN",37411,35.034347149,-85.244650533,92,"8 LYNNCREST DR, CHATTANOOGA, TN, 37411","Match","Exact","8 LYNNCREST DR, CHATTANOOGA, TN, 37411",59310858,"R"
292593,"8 M","CAMBRIDGE","MA",2141,NA,NA,93,"8 M, CAMBRIDGE, MA, 2141","No_Match",NA,NA,NA,NA
292594,"8 MACK DRIVE","HILLSBOROUGH","NJ",8844,40.48785166,-74.600125659,94,"8 MACK DRIVE, HILLSBOROUGH, NJ, 8844","Match","Exact","8 MACK DR, HILLSBOROUGH, NJ, 08844",623956461,"L"
292595,"8 MACKENZIE CT","SPARTA","NJ",7871,41.043782633,-74.576831865,95,"8 MACKENZIE CT, SPARTA, NJ, 7871","Match","Exact","8 MACKENZIE CT, SPARTA, NJ, 07871",633942515,"R"
292596,"8 MACORY WAY","GANSEVOORT","NY",12831,43.209282144,-73.730282411,96,"8 MACORY WAY, GANSEVOORT, NY, 12831","Match","Exact","8 MACORY WAY, GANSEVOORT, NY, 12831",616586879,"R"
292597,"8 MAIN ST","WALES","MA",1081,42.0649681470001,-72.2229256209999,97,"8 MAIN ST, WALES, MA, 1081","Match","Exact","8 MAIN ST, WALES, MA, 01081",635873883,"R"
292598,"8 MAIN STREET","FLORENCE","MA",1062,42.3346909810001,-72.66726024,98,"8 MAIN STREET, FLORENCE, MA, 1062","Match","Exact","8 MAIN ST, FLORENCE, MA, 01062",39848918,"L"
292599,"8 MALCHIODI DR","WALLINGFORD","CT",6492,41.4610795030001,-72.768231554,99,"8 MALCHIODI DR, WALLINGFORD, CT, 6492","Match","Exact","8 MALCHIODI DR, WALLINGFORD, CT, 06492",604747594,"L"
292600,"8 MANORVALE CT","ROCKVILLE","MD",20853,39.0855494620001,-77.1083172629999,100,"8 MANORVALE CT, ROCKVILLE, MD, 20853","Match","Exact","8 MANORVALE CT, ROCKVILLE, MD, 20853",62055548,"L"
292601,"8 MAPES TERRACE","NEWARK","NJ",7112,NA,NA,101,"8 MAPES TERRACE, NEWARK, NJ, 7112","Tie",NA,NA,NA,NA
292602,"8 MARSHALL AVENUE","ADAMS","MA",1220,42.625246598,-73.128110622,102,"8 MARSHALL AVENUE, ADAMS, MA, 1220","Match","Exact","8 MARSHALL AVE, ADAMS, MA, 01220",3935237,"R"
292603,"8 MARTIN LUTHER KING BLVD","CHARLESTON","SC",29407,32.7934725710001,-80.0046143389999,103,"8 MARTIN LUTHER KING BLVD, CHARLESTON, SC, 29407","Match","Exact","8 MARTIN LUTHER KING BLVD, CHARLESTON, SC, 29407",108816859,"L"
292604,"8 MARY LOUISE AVENUE","LEDGEWOOD","NJ",7852,40.875271495,-74.651826237,104,"8 MARY LOUISE AVENUE, LEDGEWOOD, NJ, 7852","Match","Exact","8 MARY LOUISE AVE, LEDGEWOOD, NJ, 07852",60477215,"R"
292605,"8 MATHER DR","WAREHAM","MA",2571,41.74901491,-70.725213282,105,"8 MATHER DR, WAREHAM, MA, 2571","Match","Exact","8 MATHER DR, WAREHAM, MA, 02571",87425265,"L"
292606,"8 MAYA WAY","BALTIMORE","MD",21237,39.342924989,-76.4852004529999,106,"8 MAYA WAY, BALTIMORE, MD, 21237","Match","Exact","8 MAYA WAY, BALTIMORE, MD, 21237",636801986,"L"
292607,"8 MAYHEW DRIVE","LAMAR","CO",81052,38.0765935630001,-102.622997916,107,"8 MAYHEW DRIVE, LAMAR, CO, 81052","Match","Exact","8 MAYHEW DR, LAMAR, CO, 81052",137783382,"L"
292608,"8 MCDERMOTT ST","DANBURY","CT",6810,41.393434524,-73.4428451479999,108,"8 MCDERMOTT ST, DANBURY, CT, 6810","Match","Exact","8 MCDERMOTT ST, DANBURY, CT, 06810",3232398,"L"
292609,"8 MEADOWVIEW DR","HANOVER","PA",17331,39.797589515,-76.958903962,109,"8 MEADOWVIEW DR, HANOVER, PA, 17331","Match","Exact","8 MEADOWVIEW DR, HANOVER, PA, 17331",88755895,"R"
292610,"8 MEDLOCK ROAD","SANDSTON","VA",23150,37.5227762810001,-77.306496619,110,"8 MEDLOCK ROAD, SANDSTON, VA, 23150","Match","Exact","8 MEDLOCK RD, SANDSTON, VA, 23150",106652236,"R"
292611,"8 MEETING HOUSE LANE","MADISON","CT",6443,41.279472835,-72.602271972,111,"8 MEETING HOUSE LANE, MADISON, CT, 6443","Match","Exact","8 MEETING HOUSE LN, MADISON, CT, 06443",604745638,"R"
292612,"8 MELBA COURT","SENOIA","GA",30276,33.269507392,-84.564674182,112,"8 MELBA COURT, SENOIA, GA, 30276","Match","Exact","8 MELBA CT, SENOIA, GA, 30276",627473618,"L"
292613,"8 MELROSE DR","CHILLICOTHE","OH",45601,39.356762405,-83.0263928859999,113,"8 MELROSE DR, CHILLICOTHE, OH, 45601","Match","Exact","8 MELROSE DR, CHILLICOTHE, OH, 45601",651563316,"L"
292614,"8 MERCHANT ST","NEWARK","NJ",7105,40.729274354,-74.1544080049999,114,"8 MERCHANT ST, NEWARK, NJ, 7105","Match","Exact","8 MERCHANT ST, NEWARK, NJ, 07105",63468754,"L"
292615,"8 MIDDLE LANE","JERICHO","NY",11753,40.7921280210001,-73.523447789,115,"8 MIDDLE LANE, JERICHO, NY, 11753","Match","Exact","8 MIDDLE LN, JERICHO, NY, 11753",147625789,"R"
292616,"8 MIDWOOD ROAD","MARLTON","NJ",8053,39.870856947,-74.908887137,116,"8 MIDWOOD ROAD, MARLTON, NJ, 8053","Match","Exact","8 MIDWOOD RD, MARLTON, NJ, 08053",134037030,"R"
292617,"8 MILL POND","NORTH ANDOVER","MA",1845,42.694574731,-71.1117795919999,117,"8 MILL POND, NORTH ANDOVER, MA, 1845","Match","Exact","8 MILL POND, NORTH ANDOVER, MA, 01845",86713416,"L"
292618,"8 MILLPOND CT","OWINGS MILLS","MD",21117,39.432590933,-76.802871287,118,"8 MILLPOND CT, OWINGS MILLS, MD, 21117","Match","Exact","8 MILLPOND CT, OWINGS MILLS, MD, 21117",641698015,"R"
292619,"8 MIRADA COURT","PUEBLO","CO",81005,38.219534735,-104.670617516,119,"8 MIRADA COURT, PUEBLO, CO, 81005","Match","Exact","8 MIRADA CT, PUEBLO, CO, 81005",105050030,"R"
292620,"8 MITMAN LN","PERKASIE","PA",18944,40.3827951980001,-75.199216696,120,"8 MITMAN LN, PERKASIE, PA, 18944","Match","Exact","8 MITMAN LN, PERKASIE, PA, 18944",134763622,"L"
292621,"8 MITZI CV","WICHITA FALLS","TX",76302,33.8693686400001,-98.499720982,121,"8 MITZI CV, WICHITA FALLS, TX, 76302","Match","Exact","8 MITZI COVE, WICHITA FALLS, TX, 76302",169845777,"R"
292622,"8 MONETT PLACE","GREENLAWN","NY",11740,40.8549128780001,-73.378579701,122,"8 MONETT PLACE, GREENLAWN, NY, 11740","Match","Exact","8 MONETT PL, GREENLAWN, NY, 11740",113966859,"R"
292623,"8 MOORE STREET","HANNA","IN",46340,41.4114783520001,-86.780167982,123,"8 MOORE STREET, HANNA, IN, 46340","Match","Exact","8 MOORE ST, HANNA, IN, 46340",15401784,"L"
292624,"8 MORGAN STREET","FAIRHAVEN","MA",2719,41.658447746,-70.911272207,124,"8 MORGAN STREET, FAIRHAVEN, MA, 2719","Match","Exact","8 MORGAN ST, FAIRHAVEN, MA, 02719",46755161,"L"
292625,"8 MORRIS DRIVE","SICKLERVILLE","NJ",8081,39.740355332,-74.986672921,125,"8 MORRIS DRIVE, SICKLERVILLE, NJ, 8081","Match","Exact","8 MORRIS DR, SICKLERVILLE, NJ, 08081",134402225,"R"
292626,"8 MOUNT JOY AVENUE","SCARSDALE","NY",10583,40.9957054490001,-73.813422792,126,"8 MOUNT JOY AVENUE, SCARSDALE, NY, 10583","Match","Exact","8 MOUNT JOY AVE, SCARSDALE, NY, 10583",139841364,"L"
292627,"8 MOUNT VERNON AVE","BLOOMFIELD","NJ",7003,40.812705797,-74.186453526,127,"8 MOUNT VERNON AVE, BLOOMFIELD, NJ, 7003","Match","Exact","8 MOUNT VERNON AVE, BLOOMFIELD, NJ, 07003",63494643,"L"
292628,"8 MOUNTAIN AVENUE","WINSTED","CT",6098,41.9287140870001,-73.062836874,128,"8 MOUNTAIN AVENUE, WINSTED, CT, 6098","Match","Exact","8 MOUNTAIN AVE, WINSTED, CT, 06098",3098000,"R"
292629,"8 MULLER AVE APT 1","HIGHLAND FALLS","NY",10928,41.371876957,-73.965768763,129,"8 MULLER AVE APT 1, HIGHLAND FALLS, NY, 10928","Match","Exact","8 MULLER AVE, HIGHLAND FALLS, NY, 10928",124414982,"R"
292630,"8 MYRON ROAD","HAVERHILL","MA",1830,42.8157272560001,-71.0318411869999,130,"8 MYRON ROAD, HAVERHILL, MA, 1830","Match","Exact","8 MYRON RD, HAVERHILL, MA, 01830",86618458,"L"
292631,"8 MYRTLE AVENUE","WESTPORT","CT",6880,41.1423174060001,-73.3586110689999,131,"8 MYRTLE AVENUE, WESTPORT, CT, 6880","Match","Exact","8 MYRTLE AVE, WESTPORT, CT, 06880",3276360,"R"
292632,"8 N DOUBLE SPRINGS RD","FARMINGTON","AR",72730,36.0438345790001,-94.2540147569999,132,"8 N DOUBLE SPRINGS RD, FARMINGTON, AR, 72730","Match","Exact","8 N DOUBLE SPRINGS RD, FARMINGTON, AR, 72730",49095332,"R"
292633,"8 N FORKLANDING ROAD","MAPLE SHADE","NJ",8052,39.955851501,-75.0022097409999,133,"8 N FORKLANDING ROAD, MAPLE SHADE, NJ, 8052","Match","Exact","8 N FORKLANDING RD, MAPLE SHADE, NJ, 08052",134027020,"L"
292634,"8 N MERRIMENT DR","NEWARK","DE",19701,39.641137886,-75.666151771,134,"8 N MERRIMENT DR, NEWARK, DE, 19701","Match","Non_Exact","8 N MERRIMENT DR, NEWARK, DE, 19702",187281435,"R"
292635,"8 NEABSCO DR","FREDERICKSBURG","VA",22405,38.339788496,-77.439815596,135,"8 NEABSCO DR, FREDERICKSBURG, VA, 22405","Match","Exact","8 NEABSCO DR, FREDERICKSBURG, VA, 22405",615260444,"L"
292636,"8 NETHERLANDS RD APT 2","BROOKLINE","MA",2445,42.335512941,-71.112436128,136,"8 NETHERLANDS RD APT 2, BROOKLINE, MA, 2445","Match","Exact","8 NETHERLANDS RD, BROOKLINE, MA, 02445",87295055,"L"
292637,"8 NEWBURY ST SUITE 12","DANVERS","MA",1923,NA,NA,137,"8 NEWBURY ST SUITE 12, DANVERS, MA, 1923","No_Match",NA,NA,NA,NA
292638,"8 NORTH FORT THOMAS AVENUE","FORT THOMAS","KY",41075,39.0788840060001,-84.448565118,138,"8 NORTH FORT THOMAS AVENUE, FORT THOMAS, KY, 41075","Match","Exact","8 N FORT THOMAS AVE, FORT THOMAS, KY, 41075",104448910,"R"
292639,"8 NORTH MAIN STREET SUITE 301","ROCKLAND","ME",4841,44.1094365440001,-69.1097805049999,139,"8 NORTH MAIN STREET SUITE 301, ROCKLAND, ME, 4841","Match","Exact","8 N MAIN ST, ROCKLAND, ME, 04841",610458953,"L"
292640,"8 NORTHBOUND GRATIOT AVE","MOUNT CLEMENS","MI",48043,42.587753304,-82.881042759,140,"8 NORTHBOUND GRATIOT AVE, MOUNT CLEMENS, MI, 48043","Match","Exact","8 NORTHBOUND GRATIOT AVE, MOUNT CLEMENS, MI, 48043",110682616,"L"
292641,"8 OAK FOREST DRIVE","BURLINGTON","NJ",8016,40.0423543090001,-74.7922094369999,141,"8 OAK FOREST DRIVE, BURLINGTON, NJ, 8016","Match","Exact","8 OAK FOREST DR, BURLINGTON, NJ, 08016",134071346,"R"
292642,"8 OAK HILL DRIVE","WALPOLE","MA",2081,42.1340221020001,-71.255018041,142,"8 OAK HILL DRIVE, WALPOLE, MA, 2081","Match","Exact","8 OAK HILL DR, WALPOLE, MA, 02081",87254652,"L"
292643,"8 OAK HOLLOW CT","PIKESVILLE","MD",21208,39.400001144,-76.708836515,143,"8 OAK HOLLOW CT, PIKESVILLE, MD, 21208","Match","Exact","8 OAK HOLLOW CT, PIKESVILLE, MD, 21208",191467911,"R"
292644,"8 ODELL CIRCLE","NEWBURGH","NY",12550,41.541238074,-74.1009369189999,144,"8 ODELL CIRCLE, NEWBURGH, NY, 12550","Match","Exact","8 ODELL CIR, NEWBURGH, NY, 12550",124410911,"R"
292645,"8 OGRADY COURT","ORANGEBURG","NY",10962,NA,NA,145,"8 OGRADY COURT, ORANGEBURG, NY, 10962","No_Match",NA,NA,NA,NA
292646,"8 OKLAHOMA TRL","HOPATCONG","NJ",7843,40.951116105,-74.658920993,146,"8 OKLAHOMA TRL, HOPATCONG, NJ, 7843","Match","Exact","8 OKLAHOMA TRL, HOPATCONG, NJ, 07843",98007009,"L"
292647,"8 OLD POST ROAD","MOUNT SINAI","NY",11766,40.948917796,-73.031392486,147,"8 OLD POST ROAD, MOUNT SINAI, NY, 11766","Match","Exact","8 OLD POST RD, MOUNT SINAI, NY, 11766",114074119,"R"
292648,"8 OLD SOUTH DRIVE","COLUMBIA","SC",29209,33.9687028810001,-80.888648764,148,"8 OLD SOUTH DRIVE, COLUMBIA, SC, 29209","Match","Exact","8 OLD SOUTH DR, COLUMBIA, SC, 29209",71831404,"R"
292649,"8 OLDE MEADOW RD","MARION","MA",2738,41.688304913,-70.77033785,149,"8 OLDE MEADOW RD, MARION, MA, 2738","Match","Exact","8 OLDE MEADOW RD, MARION, MA, 02738",87423715,"L"
292650,"8 OLGA COURT","HAMPTON","VA",23669,37.0606940430001,-76.3401564019999,150,"8 OLGA COURT, HAMPTON, VA, 23669","Match","Exact","8 OLGA CT, HAMPTON, VA, 23669",103757967,"R"
292651,"8 OX BOW ROAD","WELLESLEY","MA",2481,42.324670328,-71.27412577,151,"8 OX BOW ROAD, WELLESLEY, MA, 2481","Match","Exact","8 OX BOW RD, WELLESLEY, MA, 02481",87236816,"L"
292652,"8 PANTHER PASS","BYRAM TOWNSHIP","NJ",7821,40.9506263650001,-74.7511571169999,152,"8 PANTHER PASS, BYRAM TOWNSHIP, NJ, 7821","Match","Exact","8 PANTHER PASS, BYRAM TOWNSHIP, NJ, 07821",98030112,"L"
292653,"8 PAQUIN LANE","SPRING VALLEY","NY",10977,41.1213837340001,-74.0369807989999,153,"8 PAQUIN LANE, SPRING VALLEY, NY, 10977","Match","Exact","8 PAQUIN LN, SPRING VALLEY, NY, 10977",124608335,"R"
292654,"8 PARK PLACE","CLARK","NJ",7066,40.630083787,-74.2871334019999,154,"8 PARK PLACE, CLARK, NJ, 7066","Match","Non_Exact","8 PARK ST, CLARK, NJ, 07066",60575103,"R"
292655,"8 PARK PLACE","MANSFIELD","TX",76063,32.59456866,-97.093723509,155,"8 PARK PLACE, MANSFIELD, TX, 76063","Match","Exact","8 PARK PL, MANSFIELD, TX, 76063",101950655,"R"
292656,"8 PARKER STREET","LINCOLN","RI",2865,41.8874001200001,-71.414653412,156,"8 PARKER STREET, LINCOLN, RI, 2865","Match","Exact","8 PARKER ST, LINCOLN, RI, 02865",47487148,"L"
292657,"8 PARKVIEW CIRCLE","COLUMBUS","NJ",8022,40.064019452,-74.744791928,157,"8 PARKVIEW CIRCLE, COLUMBUS, NJ, 8022","Match","Exact","8 PARKVIEW CIR, COLUMBUS, NJ, 08022",134069206,"R"
292658,"8 PASO DEL RIO","CARMEL VALLEY","CA",93924,36.493121242,-121.756119625,158,"8 PASO DEL RIO, CARMEL VALLEY, CA, 93924","Match","Exact","8 PASO DEL RIO, CARMEL VALLEY, CA, 93924",196875406,"L"
292659,"8 PATRICK WAY","HALF MOON BAY","CA",94019,37.467055347,-122.427934226,159,"8 PATRICK WAY, HALF MOON BAY, CA, 94019","Match","Exact","8 PATRICK WAY, HALF MOON BAY, CA, 94019",604978624,"L"
292660,"8 PATTON COURT","WAYNE","NJ",7470,40.9241372750001,-74.220473453,160,"8 PATTON COURT, WAYNE, NJ, 7470","Match","Exact","8 PATTON CT, WAYNE, NJ, 07470",65280604,"R"
292661,"8 PENNSYLVANIA AVENUE","NEWARK","NJ",7102,40.7257144010001,-74.1797084569999,161,"8 PENNSYLVANIA AVENUE, NEWARK, NJ, 7102","Match","Exact","8 PENNSYLVANIA AVE, NEWARK, NJ, 07102",63467821,"R"
292662,"8 PENNYCOOK WAY","AMESBURY","MA",1913,42.880647707,-70.937194351,162,"8 PENNYCOOK WAY, AMESBURY, MA, 1913","Match","Non_Exact","8 PENNYCOOK LN, AMESBURY, MA, 01913",86671016,"L"
292663,"8 PERIMETER CENTER EAST 2538","ATLANTA","GA",30346,NA,NA,163,"8 PERIMETER CENTER EAST 2538, ATLANTA, GA, 30346","No_Match",NA,NA,NA,NA
292664,"8 PHINNEY CIRCLE","NEW GLOUCESTER","ME",4260,43.9677271350001,-70.3038587889999,164,"8 PHINNEY CIRCLE, NEW GLOUCESTER, ME, 4260","Match","Exact","8 PHINNEY CIR, NEW GLOUCESTER, ME, 04260",625313608,"L"
292665,"8 PICARDIE COURT","BOWLING GREEN","OH",43402,41.3827677740001,-83.667400378,165,"8 PICARDIE COURT, BOWLING GREEN, OH, 43402","Match","Exact","8 PICARDIE CT, BOWLING GREEN, OH, 43402",648305364,"L"
292666,"8 PICKETT AVE","SPENCER","NC",28159,35.6894652720001,-80.448718996,166,"8 PICKETT AVE, SPENCER, NC, 28159","Match","Exact","8 PICKETT AVE, SPENCER, NC, 28159",25279267,"R"
292667,"8 PINEWOOD RD","WHITE PLAINS","NY",10605,40.9924098290001,-73.7412500029999,167,"8 PINEWOOD RD, WHITE PLAINS, NY, 10605","Match","Exact","8 PINEWOOD RD, WHITE PLAINS, NY, 10605",139754580,"L"
292668,"8 PINNACLE PLACE","CHARLESTON","WV",25311,38.3511695710001,-81.5958095669999,168,"8 PINNACLE PLACE, CHARLESTON, WV, 25311","Match","Exact","8 PINNACLE PL, CHARLESTON, WV, 25311",78619576,"R"
292669,"8 PINTAIL LANE","GREENWICH","CT",6830,41.0330597380001,-73.615426857,169,"8 PINTAIL LANE, GREENWICH, CT, 6830","Match","Exact","8 PINTAIL LN, GREENWICH, CT, 06830",3243635,"L"
292670,"8 PIONEER LANE","WILLINGBORO","NJ",8046,40.0085080850001,-74.8871341889999,170,"8 PIONEER LANE, WILLINGBORO, NJ, 8046","Match","Exact","8 PIONEER LN, WILLINGBORO, NJ, 08046",134057340,"L"
292671,"8 PLACITA","RANCHO STA MARGARITA","CA",92688,33.6597746350001,-117.612605147,171,"8 PLACITA, RANCHO STA MARGARITA, CA, 92688","Match","Exact","8 PLACITA, RANCHO SANTA MARGARITA, CA, 92688",144379410,"L"
292672,"8 PLYMOUTH ROAD","GLEN ROCK","NJ",7452,40.969656881,-74.1359461,172,"8 PLYMOUTH ROAD, GLEN ROCK, NJ, 7452","Match","Exact","8 PLYMOUTH RD, GLEN ROCK, NJ, 07452",64405263,"R"
292673,"8 POCAHONTAS DR","WINCHESTER","MA",1890,42.4427922830001,-71.1698024409999,173,"8 POCAHONTAS DR, WINCHESTER, MA, 1890","Match","Exact","8 POCAHONTAS DR, WINCHESTER, MA, 01890",86884971,"L"
292674,"8 POINT CHEROKEE CIRCLE","LAKE OZARK","MO",65049,38.2130921740001,-92.6938366259999,174,"8 POINT CHEROKEE CIRCLE, LAKE OZARK, MO, 65049","Match","Exact","8 POINT CHEROKEE CIR, LAKE OZARK, MO, 65049",22859170,"L"
292675,"8 POLAZZO GRANDE","MORGANVILLE","NJ",7751,40.3627377720001,-74.214749721,175,"8 POLAZZO GRANDE, MORGANVILLE, NJ, 7751","Match","Non_Exact","8 PALAZZO GRANDE, MORGANVILLE, NJ, 07751",627702801,"L"
292676,"8 POLO DRIVE","SOUTH BARRINGTON","IL",60010,42.0826599110001,-88.1479699659999,176,"8 POLO DRIVE, SOUTH BARRINGTON, IL, 60010","Match","Exact","8 POLO DR, S BARRINGTON, IL, 60010",653199669,"L"
292677,"8 POND VIEW LANE","HAMPTON","NJ",8827,40.6148829790001,-75.001426243,177,"8 POND VIEW LANE, HAMPTON, NJ, 8827","Match","Exact","8 POND VIEW LN, HAMPTON, NJ, 08827",625720288,"R"
292678,"8 POPE ROAD","PATERSON","NJ",7514,40.9188815740001,-74.1401779459999,178,"8 POPE ROAD, PATERSON, NJ, 7514","Match","Exact","8 POPE RD, PATERSON, NJ, 07514",65277555,"R"
292679,"8 POST LANE","LIVINGSTON","NJ",7039,40.787438976,-74.3529734259999,179,"8 POST LANE, LIVINGSTON, NJ, 7039","Match","Exact","8 POST LN, LIVINGSTON, NJ, 07039",63496687,"L"
292680,"8 POTTS STREET","SOUTH WEBSTER","OH",45682,38.812770185,-82.7292363449999,180,"8 POTTS STREET, SOUTH WEBSTER, OH, 45682","Match","Exact","8 POTTS ST, SOUTH WEBSTER, OH, 45682",55112473,"R"
292681,"8 PRAIRIE VIEW COURT","DURHAM","NC",27703,35.9491718960001,-78.814303364,181,"8 PRAIRIE VIEW COURT, DURHAM, NC, 27703","Match","Exact","8 PRAIRIE VIEW CT, DURHAM, NC, 27703",648138969,"R"
292682,"8 PRICE STREET","QUINCY","MA",2171,42.279126655,-71.030805228,182,"8 PRICE STREET, QUINCY, MA, 2171","Match","Exact","8 PRICE ST, QUINCY, MA, 02171",87248327,"L"
292683,"8 PRINCEWOOD LANE","PALM BEACH GARDENS","FL",33410,26.86882583,-80.076345412,183,"8 PRINCEWOOD LANE, PALM BEACH GARDENS, FL, 33410","Match","Exact","8 PRINCEWOOD LN, PALM BEACH GARDENS, FL, 33410",638632904,"L"
292684,"8 PRISCILLA ROAD","BOSTON","MA",2135,42.345051197,-71.152828431,184,"8 PRISCILLA ROAD, BOSTON, MA, 2135","Match","Exact","8 PRISCILLA RD, BOSTON, MA, 02135",85695140,"L"
292685,"8 PUEBLO DE LUNA","ALAMOGORDO","NM",88310,32.870203659,-105.926148497,185,"8 PUEBLO DE LUNA, ALAMOGORDO, NM, 88310","Match","Exact","8 PUEBLO DEL LUNA, ALAMOGORDO, NM, 88310",624929969,"L"
292686,"8 PUEBLO TRAIL","ORMOND BEACH","FL",32174,29.2871136860001,-81.095364788,186,"8 PUEBLO TRAIL, ORMOND BEACH, FL, 32174","Match","Exact","8 PUEBLO TRL, ORMOND BEACH, FL, 32174",94520079,"L"
292687,"8 RADFORD CT","PRINCETON JCT","NJ",8550,40.2719960790001,-74.607180097,187,"8 RADFORD CT, PRINCETON JCT, NJ, 8550","Match","Exact","8 RADFORD CT, PRINCETON JCT, NJ, 08550",60189149,"R"
292688,"8 RALPH STREET","BEACON","NY",12508,41.510282417,-73.976919414,188,"8 RALPH STREET, BEACON, NY, 12508","Match","Exact","8 RALPH ST, BEACON, NY, 12508",4161962,"L"
292689,"8 RAMSHORN CT","SAVANNAH","GA",31411,31.941938764,-81.0366011949999,189,"8 RAMSHORN CT, SAVANNAH, GA, 31411","Match","Exact","8 RAMSHORN CT, SAVANNAH, GA, 31411",641641158,"R"
292690,"8 RAVENNA STREET","ASHEVILLE","NC",28804,35.575987594,-82.5368065439999,190,"8 RAVENNA STREET, ASHEVILLE, NC, 28804","Match","Non_Exact","8 RAVENNA ST, ASHEVILLE, NC, 28803",36846726,"L"
292691,"8 REBODA COURT","NORWALK","CT",6855,41.1072777420001,-73.395655011,191,"8 REBODA COURT, NORWALK, CT, 6855","Match","Exact","8 REBODA CT, NORWALK, CT, 06855",3276462,"R"
292692,"8 RED LANE DR","LOUDONVILLE","NY",12211,42.7006907250001,-73.773658468,192,"8 RED LANE DR, LOUDONVILLE, NY, 12211","Match","Exact","8 RED LANE DR, LOUDONVILLE, NY, 12211",18306789,"L"
292693,"8 REVERE PL","NEWARK","DE",19702,39.6442473330001,-75.660216098,193,"8 REVERE PL, NEWARK, DE, 19702","Match","Exact","8 REVERE PL, NEWARK, DE, 19702",187276878,"R"
292694,"8 RICHARDS ROAD","LAWRENCEVILLE","NJ",8648,40.2974250080001,-74.6873525629999,194,"8 RICHARDS ROAD, LAWRENCEVILLE, NJ, 8648","Match","Exact","8 RICHARDS RD, LAWRENCEVILLE, NJ, 08648",60196702,"R"
292695,"8 RIDGEVIEW ROAD","DELRAN","NJ",8075,40.015228462,-74.916128323,195,"8 RIDGEVIEW ROAD, DELRAN, NJ, 8075","Match","Exact","8 RIDGEVIEW RD, DELRAN, NJ, 08075",617124348,"R"
292696,"8 RISING TRAIL DRIVE","MIDDLETOWN","CT",6457,41.5947032010001,-72.701706426,196,"8 RISING TRAIL DRIVE, MIDDLETOWN, CT, 6457","Match","Exact","8 RISING TRAIL DR, MIDDLETOWN, CT, 06457",113892377,"R"
292697,"8 RIVER OAKS DRIVE","KENNEBUNK","ME",4043,43.3848335660001,-70.5492610049999,197,"8 RIVER OAKS DRIVE, KENNEBUNK, ME, 4043","Match","Exact","8 RIVER OAKS DR, KENNEBUNK, ME, 04043",92772788,"L"
292698,"8 RIVER TERRACE 6T","NEW YORK","NY",10282,40.716034726,-74.0164504589999,198,"8 RIVER TERRACE 6T, NEW YORK, NY, 10282","Match","Exact","8 RIVER TER, NEW YORK, NY, 10282",59664956,"R"
292699,"8 ROBERTS SQUARE","BAR HARBOR","ME",4609,44.388372313,-68.208766353,199,"8 ROBERTS SQUARE, BAR HARBOR, ME, 4609","Match","Exact","8 ROBERTS SQ, BAR HARBOR, ME, 04609",110256849,"L"
292700,"8 ROBINWOOD AVE","JAMAICA PLAIN","MA",2130,42.3169206760001,-71.1129704799999,200,"8 ROBINWOOD AVE, JAMAICA PLAIN, MA, 2130","Match","Exact","8 ROBINWOOD AVE, JAMAICA PLAIN, MA, 02130",85698582,"L"
292701,"8 ROCKINGHAM RD","WINDHAM","NH",3087,42.808375422,-71.2467770929999,201,"8 ROCKINGHAM RD, WINDHAM, NH, 3087","Match","Exact","8 ROCKINGHAM RD, WINDHAM, NH, 03087",627487715,"R"
292702,"8 ROCKRIDGE ROAD","ARDSLEY","NY",10502,41.0107304640001,-73.836776194,202,"8 ROCKRIDGE ROAD, ARDSLEY, NY, 10502","Match","Exact","8 ROCKRIDGE RD, ARDSLEY, NY, 10502",139833314,"R"
292703,"8 ROCKWOOD CT","SAN MATEO","CA",94403,37.5311819980001,-122.322555574,203,"8 ROCKWOOD CT, SAN MATEO, CA, 94403","Match","Exact","8 ROCKWOOD CT, SAN MATEO, CA, 94403",192378444,"L"
292704,"8 ROCKY FOUNTAIN COURT","MYERSVILLE","MD",21773,39.514399213,-77.571344309,204,"8 ROCKY FOUNTAIN COURT, MYERSVILLE, MD, 21773","Match","Exact","8 ROCKY FOUNTAIN CT, MYERSVILLE, MD, 21773",60707906,"R"
292705,"8 ROGERS DR","ROCHESTER","NY",14606,43.1638955810001,-77.7295746409999,205,"8 ROGERS DR, ROCHESTER, NY, 14606","Match","Exact","8 ROGERS DR, ROCHESTER, NY, 14606",14563601,"R"
292706,"8 ROMAN ROAD","BEACON","NY",12508,41.5198313990001,-73.975197791,206,"8 ROMAN ROAD, BEACON, NY, 12508","Match","Exact","8 ROMAN RD, BEACON, NY, 12508",4161873,"L"
292707,"8 ROSEPETAL STREET","STAFFORD","VA",22556,38.474430667,-77.5404773829999,207,"8 ROSEPETAL STREET, STAFFORD, VA, 22556","Match","Exact","8 ROSEPETAL ST, STAFFORD, VA, 22556",25569353,"L"
292708,"8 ROWLAND CT","IRVINE","CA",92617,33.635080831,-117.831428744,208,"8 ROWLAND CT, IRVINE, CA, 92617","Match","Exact","8 ROWLAND CT, IRVINE, CA, 92617",646579139,"R"
292709,"8 ROYAL CRESCENT WAY","FREDERICKSBURG","VA",22406,38.3588085960001,-77.549169075,209,"8 ROYAL CRESCENT WAY, FREDERICKSBURG, VA, 22406","Match","Exact","8 ROYAL CRESCENT WAY, FREDERICKSBURG, VA, 22406",615267643,"R"
292710,"8 RURAL AVE","HORNELL","NY",14843,42.3524223430001,-77.663138926,210,"8 RURAL AVE, HORNELL, NY, 14843","Match","Exact","8 RURAL AVE, HORNELL, NY, 14843",14710173,"R"
292711,"8 RYCKMAN AVE APT 4","ALBANY","NY",12208,42.6595168320001,-73.790510678,211,"8 RYCKMAN AVE APT 4, ALBANY, NY, 12208","Match","Exact","8 RYCKMAN AVE, ALBANY, NY, 12208",18308847,"L"
292712,"8 S PARK CT","HOLMDEL","NJ",7733,40.37406795,-74.163914351,212,"8 S PARK CT, HOLMDEL, NJ, 7733","Match","Exact","8 S PARK CT, HOLMDEL, NJ, 07733",90447563,"R"
292713,"8 SAIL MAKER COURT","SALEM","SC",29676,34.846276177,-82.912543198,213,"8 SAIL MAKER COURT, SALEM, SC, 29676","Match","Exact","8 SAIL MAKER CT, SALEM, SC, 29676",25651278,"R"
292714,"8 SAMSON COURT","BEAR","DE",19701,39.5919551270001,-75.6691249949999,214,"8 SAMSON COURT, BEAR, DE, 19701","Match","Exact","8 SAMSON CT, BEAR, DE, 19701",606353542,"L"
292715,"8 SANFORD ROAD","CHELMSFORD","MA",1824,42.6108140360001,-71.370744851,215,"8 SANFORD ROAD, CHELMSFORD, MA, 1824","Match","Exact","8 SANFORD RD, CHELMSFORD, MA, 01824",624484197,"L"
292716,"8 SAPPHIRE ROAD","OCALA","FL",34472,29.099740592,-82.001005589,216,"8 SAPPHIRE ROAD, OCALA, FL, 34472","Match","Exact","8 SAPPHIRE RD, OCALA, FL, 34472",116754278,"L"
292717,"8 SCHOOL ROAD EAST","MARLBORO","NJ",7746,40.313295941,-74.2468861259999,217,"8 SCHOOL ROAD EAST, MARLBORO, NJ, 7746","Match","Exact","8 SCHOOL RD E, MARLBORO, NJ, 07746",90447873,"L"
292718,"8 SEARS PLACE","MONTCLAIR","NJ",7042,40.802374672,-74.217897839,218,"8 SEARS PLACE, MONTCLAIR, NJ, 7042","Match","Exact","8 SEARS PL, MONTCLAIR, NJ, 07042",628667933,"R"
292719,"8 SECOND STREET","ANNAPOLIS","MD",21401,38.9849622610001,-76.585905176,219,"8 SECOND STREET, ANNAPOLIS, MD, 21401","Match","Exact","8 2ND ST, ANNAPOLIS, MD, 21401",68202101,"R"
292720,"8 SHARP STREET","ENFIELD","CT",6082,41.966549409,-72.564843945,220,"8 SHARP STREET, ENFIELD, CT, 6082","Match","Exact","8 SHARP ST, ENFIELD, CT, 06082",3481873,"R"
292721,"8 SHAW DR","DRUMS","PA",18222,41.0613852760001,-75.975516813,221,"8 SHAW DR, DRUMS, PA, 18222","Match","Exact","8 SHAW DR, DRUMS, PA, 18222",642714959,"L"
292722,"8 SHERIDAN SQUARE STE 310","KINGSPORT","TN",37660,36.5105758620001,-82.561065406,222,"8 SHERIDAN SQUARE STE 310, KINGSPORT, TN, 37660","Match","Exact","8 SHERIDAN SQ, KINGSPORT, TN, 37660",645309474,"L"
292723,"8 SHERWOOD ROAD SW","ROME","GA",30165,34.2627912630001,-85.192324378,223,"8 SHERWOOD ROAD SW, ROME, GA, 30165","Match","Exact","8 SHERWOOD RD SW, ROME, GA, 30165",30706060,"R"
292724,"8 SHIRE LANE","BEDFORD","MA",1730,42.5037759680001,-71.256433015,224,"8 SHIRE LANE, BEDFORD, MA, 1730","Match","Exact","8 SHIRE LN, BEDFORD, MA, 01730",86920657,"R"
292725,"8 SHORE ROAD","NIANTIC","CT",6357,41.310765852,-72.202762203,225,"8 SHORE ROAD, NIANTIC, CT, 6357","Match","Exact","8 SHORE RD, NIANTIC, CT, 06357",56858887,"L"
292726,"8 SIBLEY STRET","GLOUCESTER","MA",1930,42.6203470520001,-70.6596470119999,226,"8 SIBLEY STRET, GLOUCESTER, MA, 1930","Match","Non_Exact","8 SIBLEY ST, GLOUCESTER, MA, 01930",86633173,"L"
292727,"8 SIMON MADERA","SAN JUAN","PR",924,NA,NA,227,"8 SIMON MADERA, SAN JUAN, PR, 924","No_Match",NA,NA,NA,NA
292728,"8 SIMSBERRY ROAD","NAUGATUCK","CT",6770,41.4861795780001,-73.019049911,228,"8 SIMSBERRY ROAD, NAUGATUCK, CT, 6770","Match","Exact","8 SIMSBERRY RD, NAUGATUCK, CT, 06770",3753771,"L"
292729,"8 SKYTOP RD","WANTAGE","NJ",7461,41.279463557,-74.6216820989999,229,"8 SKYTOP RD, WANTAGE, NJ, 7461","Match","Exact","8 SKYTOP RD, WANTAGE, NJ, 07461",98032956,"L"
292730,"8 SOUTHWIND","IRVINE","CA",92614,33.6711299130001,-117.806711544,230,"8 SOUTHWIND, IRVINE, CA, 92614","Match","Exact","8 SOUTHWIND, IRVINE, CA, 92614",144092023,"R"
292731,"8 SPINNAKER POINT CT","INDIAN HARBOUR BEACH","FL",32937,28.1554383590001,-80.60404721,231,"8 SPINNAKER POINT CT, INDIAN HARBOUR BEACH, FL, 32937","Match","Exact","8 SPINNAKER POINT CT, INDIAN HARBOUR BEACH, FL, 32937",639068116,"R"
292732,"8 SPRING LN","WARREN","NJ",7059,40.6593891730001,-74.471598561,232,"8 SPRING LN, WARREN, NJ, 7059","Match","Exact","8 SPRING LN, WARREN, NJ, 07059",59948140,"R"
292733,"8 SPRING MEADOW","SOUTH HADLEY","MA",1075,NA,NA,233,"8 SPRING MEADOW, SOUTH HADLEY, MA, 1075","Tie",NA,NA,NA,NA
292734,"8 SPRING STREET        NUMBER 4RW","NEW YORK","NY",10012,40.721151745,-73.994327992,234,"8 SPRING STREET        NUMBER 4RW, NEW YORK, NY, 10012","Match","Exact","8 SPRING ST, NEW YORK, NY, 10012",59653966,"L"
292735,"8 SPRING VALLEY DRIVE","HOLMDEL","NJ",7733,40.348152994,-74.180987568,235,"8 SPRING VALLEY DRIVE, HOLMDEL, NJ, 7733","Match","Exact","8 SPRING VALLEY DR, HOLMDEL, NJ, 07733",90447585,"L"
292736,"8 SPRINGFIELD AVE","CRANFORD","NJ",7016,40.6580738230001,-74.3028012839999,236,"8 SPRINGFIELD AVE, CRANFORD, NJ, 7016","Match","Exact","8 SPRINGFIELD AVE, CRANFORD, NJ, 07016",60570575,"R"
292737,"8 SPRUCE ST APT 41F","NEW YORK","NY",10038,40.711266907,-74.005415597,237,"8 SPRUCE ST APT 41F, NEW YORK, NY, 10038","Match","Exact","8 SPRUCE ST, NEW YORK, NY, 10038",650084614,"R"
292738,"8 SPRUCE ST APT 57C","NEW YORK","NY",10038,40.711266907,-74.005415597,238,"8 SPRUCE ST APT 57C, NEW YORK, NY, 10038","Match","Exact","8 SPRUCE ST, NEW YORK, NY, 10038",650084614,"R"
292739,"8 SPRUCE STREET  APT 63J","NEW YORK","NY",10038,40.711266907,-74.005415597,239,"8 SPRUCE STREET  APT 63J, NEW YORK, NY, 10038","Match","Exact","8 SPRUCE ST, NEW YORK, NY, 10038",650084614,"R"
292740,"8 SPRUCE STREET STE 34R","NEW YORK","NY",10038,40.711266907,-74.005415597,240,"8 SPRUCE STREET STE 34R, NEW YORK, NY, 10038","Match","Exact","8 SPRUCE ST, NEW YORK, NY, 10038",650084614,"R"
292741,"8 SPRUCE STREET","NEW YORK","NY",10038,40.711266907,-74.005415597,241,"8 SPRUCE STREET, NEW YORK, NY, 10038","Match","Exact","8 SPRUCE ST, NEW YORK, NY, 10038",650084614,"R"
292742,"8 STABLE GATE RD","HILTON HEAD","SC",29926,32.2405518350001,-80.810600246,242,"8 STABLE GATE RD, HILTON HEAD, SC, 29926","Match","Exact","8 STABLE GATE RD, HILTON HEAD, SC, 29926",87646398,"R"
292743,"8 STADLERIDGE DR APT C","GREENSBORO","NC",27410,36.1017129960001,-79.892734729,243,"8 STADLERIDGE DR APT C, GREENSBORO, NC, 27410","Match","Exact","8 STADLERIDGE DR, GREENSBORO, NC, 27410",623687965,"R"
292744,"8 STAGS LEAP COURT","GERMANTOWN","MD",20874,39.150408611,-77.27364628,244,"8 STAGS LEAP COURT, GERMANTOWN, MD, 20874","Match","Exact","8 STAGS LEAP CT, GERMANTOWN, MD, 20874",62096100,"L"
292745,"8 STARR CIRCLE","WESTFORD","MA",1886,42.5735139060001,-71.454973103,245,"8 STARR CIRCLE, WESTFORD, MA, 1886","Match","Exact","8 STARR CIR, WESTFORD, MA, 01886",87119894,"L"
292746,"8 STATE ROUTE 37  SUITE 6","HOGANSBURG","NY",13655,NA,NA,246,"8 STATE ROUTE 37  SUITE 6, HOGANSBURG, NY, 13655","No_Match",NA,NA,NA,NA
292747,"8 STELLA STREET","TRUMBULL","CT",6611,41.2302663470001,-73.1633770839999,247,"8 STELLA STREET, TRUMBULL, CT, 6611","Match","Exact","8 STELLA ST, TRUMBULL, CT, 06611",3225977,"R"
292748,"8 STEVENS STREET","WINOOSKI","VT",5404,44.4966563670001,-73.1854013939999,248,"8 STEVENS STREET, WINOOSKI, VT, 5404","Match","Exact","8 STEVENS ST, WINOOSKI, VT, 05404",135827646,"L"
292749,"8 STRATFORD ROAD","CLEMENTON","NJ",8021,39.79266155,-75.028442226,249,"8 STRATFORD ROAD, CLEMENTON, NJ, 8021","Match","Exact","8 STRATFORD RD, CLEMENTON, NJ, 08021",134423047,"R"
292750,"8 SUGARLAND RD","WASHINGTON","IN",47501,NA,NA,250,"8 SUGARLAND RD, WASHINGTON, IN, 47501","Tie",NA,NA,NA,NA
292751,"8 SUMMERS DRIVE","STEVENS","PA",17578,40.2038085630001,-76.115668302,251,"8 SUMMERS DRIVE, STEVENS, PA, 17578","Match","Exact","8 SUMMERS DR, STEVENS, PA, 17578",179720840,"L"
292752,"8 SUMMIT TERRACE NORTH","KINNELON","NJ",7405,41.005142026,-74.405601587,252,"8 SUMMIT TERRACE NORTH, KINNELON, NJ, 7405","Match","Exact","8 SUMMIT TER N, KINNELON, NJ, 07405",60426622,"L"
292753,"8 SUNNYSIDE STREET","GRANITE FALLS","NC",28630,35.799261216,-81.425061612,253,"8 SUNNYSIDE STREET, GRANITE FALLS, NC, 28630","Match","Exact","8 SUNNYSIDE ST, GRANITE FALLS, NC, 28630",45849628,"L"
292754,"8 SUTTON LANE","NEW CASTLE","DE",19720,39.7111798670001,-75.548101382,254,"8 SUTTON LANE, NEW CASTLE, DE, 19720","Match","Exact","8 SUTTON LN, NEW CASTLE, DE, 19720",187269869,"R"
292755,"8 TALL OAKS DR","HAZLET","NJ",7730,40.4288858130001,-74.177923043,255,"8 TALL OAKS DR, HAZLET, NJ, 7730","Match","Exact","8 TALL OAKS DR, HAZLET, NJ, 07730",90475110,"R"
292756,"8 TAMIL TRL","MIDDLETOWN","DE",19709,NA,NA,256,"8 TAMIL TRL, MIDDLETOWN, DE, 19709","No_Match",NA,NA,NA,NA
292757,"8 TANAGER TRAIL","THE WOODLANDS","TX",77381,30.184320901,-95.495616761,257,"8 TANAGER TRAIL, THE WOODLANDS, TX, 77381","Match","Exact","8 TANAGER TRL, THE WOODLANDS, TX, 77381",79282055,"L"
292758,"8 TANAGER WAY","LONDONDERRY","NH",3053,42.8523899510001,-71.4315898789999,258,"8 TANAGER WAY, LONDONDERRY, NH, 3053","Match","Exact","8 TANAGER WAY, LONDONDERRY, NH, 03053",617531749,"R"
292759,"8 TANGLEVINE ROAD","CHILMARK","MA",2535,41.3481962880001,-70.718551283,259,"8 TANGLEVINE ROAD, CHILMARK, MA, 2535","Match","Exact","8 TANGLEVINE RD, CHILMARK, MA, 02535",118873619,"L"
292760,"8 TATEM WAY","OLD WESTBURY","NY",11568,40.780527057,-73.570354891,260,"8 TATEM WAY, OLD WESTBURY, NY, 11568","Match","Exact","8 TATEM WAY, OLD WESTBURY, NY, 11568",147826795,"L"
292761,"8 TAYLOR RD","RISING SUN","MD",21911,39.695850761,-76.084500124,261,"8 TAYLOR RD, RISING SUN, MD, 21911","Match","Exact","8 TAYLOR RD, RISING SUN, MD, 21911",187396477,"R"
292762,"8 TEASEL LANE","SKANEATELES","NY",13152,42.9477460210001,-76.415947779,262,"8 TEASEL LANE, SKANEATELES, NY, 13152","Match","Exact","8 TEASEL LN, SKANEATELES, NY, 13152",46595949,"R"
292763,"8 TERRAPIN RD","CAPE GIRARDEAU","MO",63701,37.346494326,-89.539895397,263,"8 TERRAPIN RD, CAPE GIRARDEAU, MO, 63701","Match","Exact","8 TERRAPIN RD, CAPE GIRARDEAU, MO, 63701",650015803,"R"
292764,"8 THANE STREET","DORCHESTER","MA",2124,42.295560424,-71.075851652,264,"8 THANE STREET, DORCHESTER, MA, 2124","Match","Exact","8 THANE ST, DORCHESTER, MA, 02124",85702184,"L"
292765,"8 THE GREEN  SUITE 10926","DOVER","DE",19901,39.1558834680001,-75.524371553,265,"8 THE GREEN  SUITE 10926, DOVER, DE, 19901","Match","Non_Exact","8 THE GREEN, DOVER, DE, 19901",68088461,"L"
292766,"8 THE GREEN  SUITE 4000","DOVER","DE",19901,39.1558834680001,-75.524371553,266,"8 THE GREEN  SUITE 4000, DOVER, DE, 19901","Match","Non_Exact","8 THE GREEN, DOVER, DE, 19901",68088461,"L"
292767,"8 THE GREEN  SUITE A","DOVER","DE",19901,39.1558834680001,-75.524371553,267,"8 THE GREEN  SUITE A, DOVER, DE, 19901","Match","Non_Exact","8 THE GREEN, DOVER, DE, 19901",68088461,"L"
292768,"8 THE GREEN  SUITE B","DOVER","DE",19901,39.1558834680001,-75.524371553,268,"8 THE GREEN  SUITE B, DOVER, DE, 19901","Match","Non_Exact","8 THE GREEN, DOVER, DE, 19901",68088461,"L"
292769,"8 THE GREEN - STE A","DOVER","DE",19901,39.1558834680001,-75.524371553,269,"8 THE GREEN - STE A, DOVER, DE, 19901","Match","Non_Exact","8 THE GREEN, DOVER, DE, 19901",68088461,"L"
292770,"8 THE GREEN SET A","DOVER","DE",19901,39.1558834680001,-75.524371553,270,"8 THE GREEN SET A, DOVER, DE, 19901","Match","Non_Exact","8 THE GREEN, DOVER, DE, 19901",68088461,"L"
292771,"8 THE GREEN STE 6738","DOVER","DE",19901,39.1558834680001,-75.524371553,271,"8 THE GREEN STE 6738, DOVER, DE, 19901","Match","Non_Exact","8 THE GREEN, DOVER, DE, 19901",68088461,"L"
292772,"8 THE GREEN STE A 8357","DOVER","DE",19901,39.1558834680001,-75.524371553,272,"8 THE GREEN STE A 8357, DOVER, DE, 19901","Match","Non_Exact","8 THE GREEN, DOVER, DE, 19901",68088461,"L"
292773,"8 THE GREEN STE A","DOVER","DE",19901,39.1558834680001,-75.524371553,273,"8 THE GREEN STE A, DOVER, DE, 19901","Match","Non_Exact","8 THE GREEN, DOVER, DE, 19901",68088461,"L"
292774,"8 THE GREEN STE A","DOVER","FL",19901,NA,NA,274,"8 THE GREEN STE A, DOVER, FL, 19901","No_Match",NA,NA,NA,NA
292775,"8 THE GREEN STE A","DOVER","TX",19901,NA,NA,275,"8 THE GREEN STE A, DOVER, TX, 19901","No_Match",NA,NA,NA,NA
292776,"8 THE GREEN STE B","DOVER","DE",19901,39.1558834680001,-75.524371553,276,"8 THE GREEN STE B, DOVER, DE, 19901","Match","Non_Exact","8 THE GREEN, DOVER, DE, 19901",68088461,"L"
292777,"8 THE GREEN STE B211","DOVER","DE",19901,39.1558834680001,-75.524371553,277,"8 THE GREEN STE B211, DOVER, DE, 19901","Match","Non_Exact","8 THE GREEN, DOVER, DE, 19901",68088461,"L"
292778,"8 THE GREEN STE R","DOVER","DE",19901,39.1558834680001,-75.524371553,278,"8 THE GREEN STE R, DOVER, DE, 19901","Match","Non_Exact","8 THE GREEN, DOVER, DE, 19901",68088461,"L"
292779,"8 THE GREEN SUITE 11238","DOVER","DE",19901,39.1558834680001,-75.524371553,279,"8 THE GREEN SUITE 11238, DOVER, DE, 19901","Match","Non_Exact","8 THE GREEN, DOVER, DE, 19901",68088461,"L"
292780,"8 THE GREEN SUITE 4166","DOVER","DE",19901,39.1558834680001,-75.524371553,280,"8 THE GREEN SUITE 4166, DOVER, DE, 19901","Match","Non_Exact","8 THE GREEN, DOVER, DE, 19901",68088461,"L"
292781,"8 THE GREEN SUITE 5065","DOVER","DE",19901,39.1558834680001,-75.524371553,281,"8 THE GREEN SUITE 5065, DOVER, DE, 19901","Match","Non_Exact","8 THE GREEN, DOVER, DE, 19901",68088461,"L"
292782,"8 THE GREEN SUITE 5312","DOVER","DE",19901,39.1558834680001,-75.524371553,282,"8 THE GREEN SUITE 5312, DOVER, DE, 19901","Match","Non_Exact","8 THE GREEN, DOVER, DE, 19901",68088461,"L"
292783,"8 THE GREEN SUITE 5505","DOVER","DE",19901,39.1558834680001,-75.524371553,283,"8 THE GREEN SUITE 5505, DOVER, DE, 19901","Match","Non_Exact","8 THE GREEN, DOVER, DE, 19901",68088461,"L"
292784,"8 THE GREEN SUITE 7521","DOVER","DE",19901,39.1558834680001,-75.524371553,284,"8 THE GREEN SUITE 7521, DOVER, DE, 19901","Match","Non_Exact","8 THE GREEN, DOVER, DE, 19901",68088461,"L"
292785,"8 THE GREEN SUITE 8354","DOVER","DE",19901,39.1558834680001,-75.524371553,285,"8 THE GREEN SUITE 8354, DOVER, DE, 19901","Match","Non_Exact","8 THE GREEN, DOVER, DE, 19901",68088461,"L"
292786,"8 THE GREEN SUITE A","DOVER","DE",19901,39.1558834680001,-75.524371553,286,"8 THE GREEN SUITE A, DOVER, DE, 19901","Match","Non_Exact","8 THE GREEN, DOVER, DE, 19901",68088461,"L"
292787,"8 THE GREEN SUITE B","DOVER","DE",19901,39.1558834680001,-75.524371553,287,"8 THE GREEN SUITE B, DOVER, DE, 19901","Match","Non_Exact","8 THE GREEN, DOVER, DE, 19901",68088461,"L"
292788,"8 THE GREEN SUITE B","DOVER","NY",19901,NA,NA,288,"8 THE GREEN SUITE B, DOVER, NY, 19901","No_Match",NA,NA,NA,NA
292789,"8 THE GREEN SUITE E","DOVER","DE",19901,39.1558834680001,-75.524371553,289,"8 THE GREEN SUITE E, DOVER, DE, 19901","Match","Non_Exact","8 THE GREEN, DOVER, DE, 19901",68088461,"L"
292790,"8 THE GREEN","DOVER","DE",19803,39.1558834680001,-75.524371553,290,"8 THE GREEN, DOVER, DE, 19803","Match","Non_Exact","8 THE GREEN, DOVER, DE, 19901",68088461,"L"
292791,"8 THE GREEN","DOVER","DE",19901,39.1558834680001,-75.524371553,291,"8 THE GREEN, DOVER, DE, 19901","Match","Exact","8 THE GREEN, DOVER, DE, 19901",68088461,"L"
292792,"8 THE GREN SUITE B","DOVER","DE",19901,NA,NA,292,"8 THE GREN SUITE B, DOVER, DE, 19901","No_Match",NA,NA,NA,NA
292793,"8 THE GRN STE A","DOVER","DE",19901,39.1558834680001,-75.524371553,293,"8 THE GRN STE A, DOVER, DE, 19901","Match","Non_Exact","8 THE GREEN, DOVER, DE, 19901",68088461,"L"
292794,"8 THE GRN STE B","DOVER","DE",19901,39.1558834680001,-75.524371553,294,"8 THE GRN STE B, DOVER, DE, 19901","Match","Non_Exact","8 THE GREEN, DOVER, DE, 19901",68088461,"L"
292795,"8 THIRD STREET","LADERA RANCH","CA",92694,33.562003577,-117.632769492,295,"8 THIRD STREET, LADERA RANCH, CA, 92694","Match","Exact","8 THIRD ST, LADERA RANCH, CA, 92694",608141229,"R"
292796,"8 THOMPSON CT","STOUGHTON","MA",2072,42.102342304,-71.075748351,296,"8 THOMPSON CT, STOUGHTON, MA, 2072","Match","Exact","8 THOMPSON CT, STOUGHTON, MA, 02072",87283375,"R"
292797,"8 TILDEN RD","CANTON","MA",2021,42.1815777850001,-71.1220688449999,297,"8 TILDEN RD, CANTON, MA, 2021","Match","Exact","8 TILDEN RD, CANTON, MA, 02021",87266441,"L"
292798,"8 TONY ST","WILLIAMSTON","SC",29697,34.614588944,-82.5059046979999,298,"8 TONY ST, WILLIAMSTON, SC, 29697","Match","Exact","8 TONY ST, WILLIAMSTON, SC, 29697",25457713,"R"
292799,"8 TOTH CT","EDISON","NJ",8817,40.51888103,-74.378064708,299,"8 TOTH CT, EDISON, NJ, 8817","Match","Exact","8 TOTH CT, EDISON, NJ, 08817",636752178,"R"
292800,"8 TOWER LN","VIRDEN","NM",88045,32.6940492630001,-109.028051994,300,"8 TOWER LN, VIRDEN, NM, 88045","Match","Exact","8 TOWER LN, VIRDEN, NM, 88045",137574576,"R"
292801,"8 TOWNPARK LANE HOUSE B","CHARLESTON","SC",29412,NA,NA,301,"8 TOWNPARK LANE HOUSE B, CHARLESTON, SC, 29412","No_Match",NA,NA,NA,NA
292802,"8 TRAPPER LANE","LEVITTOWN","NY",11756,40.7381406580001,-73.5040371869999,302,"8 TRAPPER LANE, LEVITTOWN, NY, 11756","Match","Exact","8 TRAPPER LN, LEVITTOWN, NY, 11756",147644474,"R"
292803,"8 TROY STREET","JERSEY CITY","NJ",7307,40.7417237500001,-74.0558574299999,303,"8 TROY STREET, JERSEY CITY, NJ, 7307","Match","Exact","8 TROY ST, JERSEY CITY, NJ, 07307",645166866,"R"
292804,"8 TRUAX LANE","FOXBORO","MA",2035,42.0311853440001,-71.253575725,304,"8 TRUAX LANE, FOXBORO, MA, 2035","Match","Exact","8 TRUAX LN, FOXBORO, MA, 02035",87278004,"R"
292805,"8 TUCKERMAN LN","AMHERST","MA",1002,42.4067752660001,-72.503847981,305,"8 TUCKERMAN LN, AMHERST, MA, 1002","Match","Exact","8 TUCKERMAN LN, AMHERST, MA, 01002",640074830,"R"
292806,"8 TUMBLEROC CT","SMYRNA","DE",19977,39.268358108,-75.595169141,306,"8 TUMBLEROC CT, SMYRNA, DE, 19977","Match","Exact","8 TUMBLEROC CT, SMYRNA, DE, 19977",617127639,"L"
292807,"8 TUSCAN ROAD","MAPLEWOOD","NJ",7040,40.72633425,-74.2731364369999,307,"8 TUSCAN ROAD, MAPLEWOOD, NJ, 7040","Match","Exact","8 TUSCAN RD, MAPLEWOOD, NJ, 07040",63462585,"R"
292808,"8 TWIN LAKES DRIVE","MANALAPAN","NJ",7726,40.2344612100001,-74.336434668,308,"8 TWIN LAKES DRIVE, MANALAPAN, NJ, 7726","Match","Exact","8 TWIN LAKES DR, MANALAPAN, NJ, 07726",90493107,"L"
292809,"8 UNF DRIVE BOX 251","JACKSONVILLE","FL",32224,NA,NA,309,"8 UNF DRIVE BOX 251, JACKSONVILLE, FL, 32224","No_Match",NA,NA,NA,NA
292810,"8 UPLAND FIELD ROAD","LINCOLN","MA",1773,42.422468075,-71.308800987,310,"8 UPLAND FIELD ROAD, LINCOLN, MA, 1773","Match","Exact","8 UPLAND FIELD RD, LINCOLN, MA, 01773",86845876,"L"
292811,"8 UPPER SHAD ROAD","POUND RIDGE","NY",10576,41.1906049520001,-73.559640211,311,"8 UPPER SHAD ROAD, POUND RIDGE, NY, 10576","Match","Exact","8 UPPER SHAD RD, POUND RIDGE, NY, 10576",139844527,"R"
292812,"8 VAN NORDEN ST","CAMBRIDGE","MA",2140,42.3913758940001,-71.130376907,312,"8 VAN NORDEN ST, CAMBRIDGE, MA, 2140","Match","Exact","8 VAN NORDEN ST, CAMBRIDGE, MA, 02140",86892204,"L"
292813,"8 VANDENBERG DRIVE","SOUTH BARRINGTON","IL",60010,NA,NA,313,"8 VANDENBERG DRIVE, SOUTH BARRINGTON, IL, 60010","No_Match",NA,NA,NA,NA
292814,"8 VANDERBILT AVENUE 12D","BROOKLYN","NY",11205,40.6974791050001,-73.970697946,314,"8 VANDERBILT AVENUE 12D, BROOKLYN, NY, 11205","Match","Exact","8 VANDERBILT AVE, BROOKLYN, NY, 11205",59077499,"R"
292815,"8 VIA LA CUMBRE","GREENBRAE","CA",94904,37.945745303,-122.518904925,315,"8 VIA LA CUMBRE, GREENBRAE, CA, 94904","Match","Exact","8 VIA LA CUMBRE, GREENBRAE, CA, 94904",647375854,"R"
292816,"8 VIA ONAGRO","RANCHO SANTA MARGARI","CA",92688,33.646959548,-117.615039789,316,"8 VIA ONAGRO, RANCHO SANTA MARGARI, CA, 92688","Match","Non_Exact","8 VIA ONAGRO, RANCHO SANTA MARGARITA, CA, 92688",144398545,"L"
292817,"8 VICTORIA ROAD","ARLINGTON","MA",2474,42.419864719,-71.154529624,317,"8 VICTORIA ROAD, ARLINGTON, MA, 2474","Match","Exact","8 VICTORIA RD, ARLINGTON, MA, 02474",86888046,"L"
292818,"8 VOLPI ROAD","BOLTON","CT",6043,41.760915084,-72.4607939539999,318,"8 VOLPI ROAD, BOLTON, CT, 6043","Match","Exact","8 VOLPI RD, BOLTON, CT, 06043",57000901,"L"
292819,"8 W 126TH ST","NEW YORK","NY",10027,40.8072675650001,-73.942204074,319,"8 W 126TH ST, NEW YORK, NY, 10027","Match","Exact","8 W 126TH ST, NEW YORK, NY, 10027",59656439,"L"
292820,"8 W 26TH ST","WILMINGTON","DE",19802,39.7548621490001,-75.5362278759999,320,"8 W 26TH ST, WILMINGTON, DE, 19802","Match","Exact","8 W 26TH ST, WILMINGTON, DE, 19802",187259012,"L"
292821,"8 W 38TH STREET SUITE 1205","NEW YORK","NY",10018,40.751137875,-73.9831551949999,321,"8 W 38TH STREET SUITE 1205, NEW YORK, NY, 10018","Match","Non_Exact","8 W 38TH ST, NEW YORK, NY, 10018",59658617,"L"
292822,"8 W 4TH ST STE 1","SPENCER","IA",51301,NA,NA,322,"8 W 4TH ST STE 1, SPENCER, IA, 51301","Tie",NA,NA,NA,NA
292823,"8 W MOODY AVENUE","NEW CASTLE","PA",16101,41.0105024970001,-80.3477144519999,323,"8 W MOODY AVENUE, NEW CASTLE, PA, 16101","Match","Exact","8 W MOODY AVE, NEW CASTLE, PA, 16101",65177904,"L"
292824,"8 W SOUTH ST APT 1","EVERETT","PA",15537,NA,NA,324,"8 W SOUTH ST APT 1, EVERETT, PA, 15537","Tie",NA,NA,NA,NA
292825,"8 W TOWNSHIP LINE ROAD","NORRISTOWN","PA",19401,40.1495561450001,-75.3092591879999,325,"8 W TOWNSHIP LINE ROAD, NORRISTOWN, PA, 19401","Match","Exact","8 TOWNSHIP LINE RD, NORRISTOWN, PA, 19401",135075884,"L"
292826,"8 WAGONWHEEL ROAD","SEEKONK","MA",2771,41.7958765830001,-71.309293467,326,"8 WAGONWHEEL ROAD, SEEKONK, MA, 2771","Match","Exact","8 WAGONWHEEL RD, SEEKONK, MA, 02771",46782919,"L"
292827,"8 WALDEN SQUARE ROAD APT 213","CAMBRIDGE","MA",2140,42.389574758,-71.1313805939999,327,"8 WALDEN SQUARE ROAD APT 213, CAMBRIDGE, MA, 2140","Match","Exact","8 WALDEN SQUARE RD, CAMBRIDGE, MA, 02140",639006071,"L"
292828,"8 WALKER TERRACE","ATLANTA","GA",30309,33.789619873,-84.3783540759999,328,"8 WALKER TERRACE, ATLANTA, GA, 30309","Match","Non_Exact","8 WALKER TER NE, ATLANTA, GA, 30309",17343513,"L"
292829,"8 WAPPOO CREEK PLACE","CHARLESTON","SC",29412,32.7635708190001,-79.977230208,329,"8 WAPPOO CREEK PLACE, CHARLESTON, SC, 29412","Match","Exact","8 WAPPOO CREEK PL, CHARLESTON, SC, 29412",643829702,"L"
292830,"8 WARFIELD DRIVE","MORAGA","CA",94556,37.848559976,-122.138652973,330,"8 WARFIELD DRIVE, MORAGA, CA, 94556","Match","Exact","8 WARFIELD DR, MORAGA, CA, 94556",192051497,"R"
292831,"8 WARNOCK DR","WESTPORT","CT",6880,41.1669582540001,-73.351572802,331,"8 WARNOCK DR, WESTPORT, CT, 6880","Match","Exact","8 WARNOCK DR, WESTPORT, CT, 06880",3237740,"R"
292832,"8 WARREN STREET","HULL","MA",2045,42.286047136,-70.874817604,332,"8 WARREN STREET, HULL, MA, 2045","Match","Exact","8 WARREN ST, HULL, MA, 02045",87429781,"R"
292833,"8 WARREN STREET","LITTLE FALLS","NJ",7424,40.880458635,-74.22927979,333,"8 WARREN STREET, LITTLE FALLS, NJ, 7424","Match","Exact","8 WARREN ST, LITTLE FALLS, NJ, 07424",65261236,"R"
292834,"8 WASHINGTON ST","NEW LONDON","CT",6320,41.3545636370001,-72.0981600659999,334,"8 WASHINGTON ST, NEW LONDON, CT, 6320","Match","Exact","8 WASHINGTON ST, NEW LONDON, CT, 06320",56851095,"L"
292835,"8 WATER OAK DRIVE","HILTON HEAD","SC",29928,32.1499910840001,-80.7848521019999,335,"8 WATER OAK DRIVE, HILTON HEAD, SC, 29928","Match","Exact","8 WATER OAK DR, HILTON HEAD, SC, 29928",87639717,"R"
292836,"8 WATER STREET","HILLSBORO","NM",88942,NA,NA,336,"8 WATER STREET, HILLSBORO, NM, 88942","No_Match",NA,NA,NA,NA
292837,"8 WATERVLIET AVENUE","COHOES","NY",12047,42.776601473,-73.713675258,337,"8 WATERVLIET AVENUE, COHOES, NY, 12047","Match","Exact","8 WATERVLIET AVE, COHOES, NY, 12047",18312285,"L"
292838,"8 WATSON STREET","SOMERVILLE","MA",2114,NA,NA,338,"8 WATSON STREET, SOMERVILLE, MA, 2114","No_Match",NA,NA,NA,NA
292839,"8 WEINNING DR","LULING","LA",70070,29.893502875,-90.345671513,339,"8 WEINNING DR, LULING, LA, 70070","Match","Exact","8 WEINNING DR, LULING, LA, 70070",93619136,"L"
292840,"8 WENTWORTH STREET","LYMAN","ME",4002,43.500689279,-70.6346610589999,340,"8 WENTWORTH STREET, LYMAN, ME, 4002","Match","Exact","8 WENTWORTH ST, LYMAN, ME, 04002",92775163,"L"
292841,"8 WEST 118 ST 9G","NEW YORK","NY",10026,40.8020790310001,-73.9457712299999,341,"8 WEST 118 ST 9G, NEW YORK, NY, 10026","Match","Exact","8 W 118TH ST, NEW YORK, NY, 10026",652209497,"L"
292842,"8 WEST 126TH STREET","NEW YORK","NY",10027,40.807266047,-73.942200478,342,"8 WEST 126TH STREET, NEW YORK, NY, 10027","Match","Exact","8 W 126TH ST, NEW YORK, NY, 10027",59656439,"L"
292843,"8 WEST DR","EDISON","NJ",8820,40.597596772,-74.339930855,343,"8 WEST DR, EDISON, NJ, 8820","Match","Exact","8 WEST DR, EDISON, NJ, 08820",60296953,"L"
292844,"8 WEST GRAND STREET","BAYONNE","NJ",7002,40.6820156270001,-74.103054957,344,"8 WEST GRAND STREET, BAYONNE, NJ, 7002","Match","Exact","8 W GRAND ST, BAYONNE, NJ, 07002",59603123,"L"
292845,"8 WESTBURY DRIVE","LUMBERTON","NJ",8048,39.9734001730001,-74.794932812,345,"8 WESTBURY DRIVE, LUMBERTON, NJ, 8048","Match","Exact","8 WESTBURY DR, LUMBERTON, NJ, 08048",629318996,"R"
292846,"8 WESTERLY AVE","BETHPAGE","NY",11714,40.74315003,-73.477102096,346,"8 WESTERLY AVE, BETHPAGE, NY, 11714","Match","Exact","8 WESTERLY AVE, BETHPAGE, NY, 11714",147841866,"L"
292847,"8 WESTWOOD DRIVE","FREDERICKSBURG","VA",22405,38.289798805,-77.4333153549999,347,"8 WESTWOOD DRIVE, FREDERICKSBURG, VA, 22405","Match","Non_Exact","8 WESTWOOD ST, FREDERICKSBURG, VA, 22405",25557130,"L"
292848,"8 WEXFORD WAY","SOMERSET","NJ",8873,40.5179730740001,-74.52451279,348,"8 WEXFORD WAY, SOMERSET, NJ, 8873","Match","Exact","8 WEXFORD WAY, SOMERSET, NJ, 08873",640450231,"R"
292849,"8 WHATNEY UNIT 100","IRVINE","CA",92618,33.63684249,-117.72114576,349,"8 WHATNEY UNIT 100, IRVINE, CA, 92618","Match","Exact","8 WHATNEY, IRVINE, CA, 92618",144061568,"R"
292850,"8 WHISPERING PINES RD","DE SOTO","MO",63028,38.156431674,-90.661631448,350,"8 WHISPERING PINES RD, DE SOTO, MO, 63028","Match","Non_Exact","8 WHISPERING PINES RD, DE SOTO, MO, 63020",607883576,"L"
292851,"8 WHITE OAK TREE ROAD","LAUREL HOLLOW","NY",11791,40.840913232,-73.4826062989999,351,"8 WHITE OAK TREE ROAD, LAUREL HOLLOW, NY, 11791","Match","Non_Exact","8 WHITE OAK TREE RD, SYOSSET, NY, 11791",147826024,"R"
292852,"8 WHITE SAILS DRIVE","NEWBURGH","NY",12550,41.552810649,-73.9956555319999,352,"8 WHITE SAILS DRIVE, NEWBURGH, NY, 12550","Match","Exact","8 WHITE SAILS DR, NEWBURGH, NY, 12550",124497063,"R"
292853,"8 WHITEWOOD ROAD","NEWTOWN","CT",6470,41.421464331,-73.333108712,353,"8 WHITEWOOD ROAD, NEWTOWN, CT, 6470","Match","Exact","8 WHITEWOOD RD, NEWTOWN, CT, 06470",653171137,"R"
292854,"8 WILDWOOD RD","WINDHAM","NH",3087,42.7956025820001,-71.2672318899999,354,"8 WILDWOOD RD, WINDHAM, NH, 3087","Match","Exact","8 WILDWOOD RD, WINDHAM, NH, 03087",113690764,"L"
292855,"8 WILLARD RD","NORWALK","CT",6851,41.1272102410001,-73.387589775,355,"8 WILLARD RD, NORWALK, CT, 6851","Match","Exact","8 WILLARD RD, NORWALK, CT, 06851",649723032,"R"
292856,"8 WILLIAMS CT","WEYMOUTH","MA",2188,42.219392268,-70.9654414399999,356,"8 WILLIAMS CT, WEYMOUTH, MA, 2188","Match","Exact","8 WILLIAMS CT, WEYMOUTH, MA, 02188",87251566,"L"
292857,"8 WILLIS COURT","EAST BRUNSWICK","NJ",8816,40.428332749,-74.413480062,357,"8 WILLIS COURT, EAST BRUNSWICK, NJ, 8816","Match","Exact","8 WILLIS CT, E BRUNSWICK, NJ, 08816",60269371,"R"
292858,"8 WILLOW COURT","BETHALTO","IL",62010,38.915290842,-90.0566649149999,358,"8 WILLOW COURT, BETHALTO, IL, 62010","Match","Exact","8 WILLOW CT, BETHALTO, IL, 62010",107734647,"L"
292859,"8 WINDING HOLLOW ROAD","AMHERST","ME",3031,NA,NA,359,"8 WINDING HOLLOW ROAD, AMHERST, ME, 3031","No_Match",NA,NA,NA,NA
292860,"8 WINDMILL RD","POUGHKEEPSIE","NY",12601,41.767439278,-73.8786381,360,"8 WINDMILL RD, POUGHKEEPSIE, NY, 12601","Match","Exact","8 WINDMILL RD, POUGHKEEPSIE, NY, 12601",4204176,"R"
292861,"8 WINDY HILL ROAD","WESTPORT","CT",6880,41.144013296,-73.339430664,361,"8 WINDY HILL ROAD, WESTPORT, CT, 6880","Match","Exact","8 WINDY HILL RD, WESTPORT, CT, 06880",3238694,"R"
292862,"8 WINKLER ROAD","SIDNEY","NY",13838,42.307503012,-75.409075735,362,"8 WINKLER ROAD, SIDNEY, NY, 13838","Match","Exact","8 WINKLER RD, SIDNEY, NY, 13838",41554721,"L"
292863,"8 WINTERBERRY DRIVE","MIDDLE ISLAND","NY",11953,40.8897151680001,-72.920388917,363,"8 WINTERBERRY DRIVE, MIDDLE ISLAND, NY, 11953","Match","Exact","8 WINTERBERRY DR, MIDDLE ISLAND, NY, 11953",114274188,"L"
292864,"8 WISTERIA WAY","BEAR","DE",19701,39.5603239270001,-75.753365601,364,"8 WISTERIA WAY, BEAR, DE, 19701","Match","Exact","8 WISTERIA WAY, BEAR, DE, 19701",187286955,"L"
292865,"8 WOODCREST DRIVE","EAST MORICHES","NY",11940,40.816682288,-72.7471263259999,365,"8 WOODCREST DRIVE, EAST MORICHES, NY, 11940","Match","Exact","8 WOODCREST DR, EAST MORICHES, NY, 11940",114022939,"R"
292866,"8 WOODCREST DRIVE","LEXINGTON","NC",27295,35.839886431,-80.2656776109999,366,"8 WOODCREST DRIVE, LEXINGTON, NC, 27295","Match","Exact","8 WOODCREST DR, LEXINGTON, NC, 27295",20207593,"R"
292867,"8 WOODLAWN AVENUE","FACTORYVILLE","PA",18419,NA,NA,367,"8 WOODLAWN AVENUE, FACTORYVILLE, PA, 18419","No_Match",NA,NA,NA,NA
292868,"8 WOODLAWN RD","RANDOLPH","MA",2368,42.1439349620001,-71.0398619599999,368,"8 WOODLAWN RD, RANDOLPH, MA, 2368","Match","Exact","8 WOODLAWN RD, RANDOLPH, MA, 02368",87268430,"L"
292869,"8 WOODRIDGE","PUTNAM VALLEY","NY",10579,41.3396886880001,-73.836823424,369,"8 WOODRIDGE, PUTNAM VALLEY, NY, 10579","Match","Exact","8 WOODRIDGE, PUTNAM VALLEY, NY, 10579",139712664,"L"
292870,"8 WOODS HILL CIRCLE","WOBURN","MA",1801,42.481284126,-71.1339605539999,370,"8 WOODS HILL CIRCLE, WOBURN, MA, 1801","Match","Exact","8 WOODS HILL CIR, WOBURN, MA, 01801",625134791,"L"
292871,"8 WOODSIDE AVE","JAMAICA PLAIN","MA",2130,42.3099534560001,-71.103778945,371,"8 WOODSIDE AVE, JAMAICA PLAIN, MA, 2130","Match","Exact","8 WOODSIDE AVE, JAMAICA PLAIN, MA, 02130",85699615,"R"
292872,"8 WOODWARD PLACE","PINEHURST","NC",28374,35.233883297,-79.413429793,372,"8 WOODWARD PLACE, PINEHURST, NC, 28374","Match","Non_Exact","8 WOODWORD PL, PINEHURST, NC, 28374",617917859,"L"
292873,"8 WORCESTER DR","NORWOOD","MA",2062,42.16448267,-71.194788232,373,"8 WORCESTER DR, NORWOOD, MA, 2062","Match","Exact","8 WORCESTER DR, NORWOOD, MA, 02062",87255113,"R"
292874,"8 WORTH ST","LUTHER","IA",50152,41.968454969,-93.816876436,374,"8 WORTH ST, LUTHER, IA, 50152","Match","Exact","8 WORTH ST, LUTHER, IA, 50152",64937940,"L"
292875,"8 WYOMING STREET","JUNE LAKE","CA",93529,37.764349225,-119.114106145,375,"8 WYOMING STREET, JUNE LAKE, CA, 93529","Match","Exact","8 WYOMING ST, JUNE LAKE, CA, 93529",637801147,"L"
292876,"8 YORK AVENUE","MONTICELLO","NY",12701,41.6542951970001,-74.692267215,376,"8 YORK AVENUE, MONTICELLO, NY, 12701","Match","Exact","8 YORK AVE, MONTICELLO, NY, 12701",128983517,"L"
292877,"8 YORK DR","WHEATLEY HEIGHTS","NY",11798,40.7613755290001,-73.367228927,377,"8 YORK DR, WHEATLEY HEIGHTS, NY, 11798","Match","Exact","8 YORK DR, WHEATLEY HEIGHTS, NY, 11798",113969129,"L"
292878,"8-B COOPER PLACE","BRONX","NY",10475,40.8773721250001,-73.824803076,378,"8-B COOPER PLACE, BRONX, NY, 10475","Match","Exact","8 COOPER PL, BRONX, NY, 10475",609576338,"R"
292879,"8","FERNLEY","NV",89408,NA,NA,379,"8, FERNLEY, NV, 89408","No_Match",NA,NA,NA,NA
292880,"8","NORTH CALDWELL","NJ",7006,NA,NA,380,"8, NORTH CALDWELL, NJ, 7006","No_Match",NA,NA,NA,NA
292881,"80 25TH STREET WEST","BILLINGS","MT",59102,45.7711762230001,-108.579816882,381,"80 25TH STREET WEST, BILLINGS, MT, 59102","Match","Exact","80 25TH ST W, BILLINGS, MT, 59102",181475631,"L"
292882,"80 3RD AVE","BROOMALL","PA",19008,39.978386072,-75.358859975,382,"80 3RD AVE, BROOMALL, PA, 19008","Match","Exact","80 3RD AVE, BROOMALL, PA, 19008",134873227,"R"
292883,"80 ABINGDON CT","BRENTWOOD","TN",37027,36.047039227,-86.770948936,383,"80 ABINGDON CT, BRENTWOOD, TN, 37027","Match","Exact","80 ABINGDON CT, BRENTWOOD, TN, 37027",97205862,"R"
292884,"80 ADAMS STREET","MALDEN","MA",2148,42.421705236,-71.0794231899999,384,"80 ADAMS STREET, MALDEN, MA, 2148","Match","Exact","80 ADAMS ST, MALDEN, MA, 02148",86859969,"L"
292885,"80 AIRPORT ROAD","ORANGE","MA",1364,42.5741619660001,-72.284391021,385,"80 AIRPORT ROAD, ORANGE, MA, 1364","Match","Non_Exact","80 AIRPORT ST, ORANGE, MA, 01364",39938616,"L"
292886,"80 AMBER WAY","COVINGTON","GA",30016,33.5050371230001,-83.994023554,386,"80 AMBER WAY, COVINGTON, GA, 30016","Match","Exact","80 AMBER WAY, COVINGTON, GA, 30016",23636997,"R"
292887,"80 ANDREW DRIVE SUITE 100","STOCKBRIDGE","GA",30281,33.4997609340001,-84.241139698,387,"80 ANDREW DRIVE SUITE 100, STOCKBRIDGE, GA, 30281","Match","Exact","80 ANDREW DR, STOCKBRIDGE, GA, 30281",23206657,"L"
292888,"80 BALDWIN HILL ROAD","PHILLIPSTON","MA",1331,42.5825182410001,-72.166600605,388,"80 BALDWIN HILL ROAD, PHILLIPSTON, MA, 1331","Match","Exact","80 BALDWIN HILL RD, PHILLIPSTON, MA, 01331",40108795,"R"
292889,"80 BARLEY SHEAF RD","FLEMINGTON","NJ",8822,40.495084891,-74.8245082179999,389,"80 BARLEY SHEAF RD, FLEMINGTON, NJ, 8822","Match","Exact","80 BARLEY SHEAF RD, FLEMINGTON, NJ, 08822",60019097,"R"
292890,"80 BARNHART ROAD","GREENSBURG","PA",15601,40.329254871,-79.4974362889999,390,"80 BARNHART ROAD, GREENSBURG, PA, 15601","Match","Exact","80 BARNHART RD, GREENSBURG, PA, 15601",52991459,"L"
292891,"80 BARRINGTON ROAD","BRONXVILLE","NY",10708,40.951812938,-73.843372797,391,"80 BARRINGTON ROAD, BRONXVILLE, NY, 10708","Match","Exact","80 BARRINGTON RD, BRONXVILLE, NY, 10708",139745633,"L"
292892,"80 BAY STREET LANDING APT 4E","STATEN ISLAND","NY",10301,40.6381794660001,-74.073298748,392,"80 BAY STREET LANDING APT 4E, STATEN ISLAND, NY, 10301","Match","Exact","80 BAY STREET LNDG, STATEN ISLAND, NY, 10301",59887676,"L"
292893,"80 BAY WAY","SAN RAFAEL","CA",94901,37.972688153,-122.493644418,393,"80 BAY WAY, SAN RAFAEL, CA, 94901","Match","Exact","80 BAY WAY, SAN RAFAEL, CA, 94901",192767859,"R"
292894,"80 BAYPOINT DRIVE","SAN RAFAEL","CA",94901,37.9617930370001,-122.496420228,394,"80 BAYPOINT DRIVE, SAN RAFAEL, CA, 94901","Match","Exact","80 BAYPOINT DR, SAN RAFAEL, CA, 94901",192779806,"R"
292895,"80 BELAIR ROAD","WARMINSTER","PA",18974,40.2039766290001,-75.1225444419999,395,"80 BELAIR ROAD, WARMINSTER, PA, 18974","Match","Exact","80 BELAIR RD, WARMINSTER, PA, 18974",134705533,"L"
292896,"80 BELL WASH COURT","SEDONA","AZ",86351,34.78309525,-111.757916675,396,"80 BELL WASH COURT, SEDONA, AZ, 86351","Match","Exact","80 BELL WASH CT, SEDONA, AZ, 86351",608164857,"R"
292897,"80 BENNETT AVE SUITE 5G","NEW YORK","NY",10033,40.8527877340001,-73.93549208,397,"80 BENNETT AVE SUITE 5G, NEW YORK, NY, 10033","Match","Exact","80 BENNETT AVE, NEW YORK, NY, 10033",59655571,"L"
292898,"80 BENNETT AVENUE NUMBER 3J","NEW YORK","NY",10033,40.8527877340001,-73.93549208,398,"80 BENNETT AVENUE NUMBER 3J, NEW YORK, NY, 10033","Match","Exact","80 BENNETT AVE, NEW YORK, NY, 10033",59655571,"L"
292899,"80 BETHANY RD","SELBYVILLE","DE",19974,38.462840693,-75.210224983,399,"80 BETHANY RD, SELBYVILLE, DE, 19974","Match","Non_Exact","80 BETHANY RD, SELBYVILLE, DE, 19975",106104520,"R"
292900,"80 BOTANY DR","ASHEVILLE","NC",28805,35.5976694170001,-82.464534145,400,"80 BOTANY DR, ASHEVILLE, NC, 28805","Match","Exact","80 BOTANY DR, ASHEVILLE, NC, 28805",36850306,"L"
292901,"80 BOYDEN AVE","MAPLEWOOD","NJ",7040,40.729233601,-74.2512794579999,401,"80 BOYDEN AVE, MAPLEWOOD, NJ, 7040","Match","Exact","80 BOYDEN AVE, MAPLEWOOD, NJ, 07040",63470985,"L"
292902,"80 BRIDGE STREET","CATSKILL","NY",12414,42.2177998110001,-73.863740368,402,"80 BRIDGE STREET, CATSKILL, NY, 12414","Match","Exact","80 BRIDGE ST, CATSKILL, NY, 12414",639350082,"R"
292903,"80 BRIGHTON HILL RD","COLUMBIA","SC",29223,34.0847937400001,-80.960919421,403,"80 BRIGHTON HILL RD, COLUMBIA, SC, 29223","Match","Exact","80 BRIGHTON HILL RD, COLUMBIA, SC, 29223",71841653,"L"
292904,"80 BRIGHTON HILL ROAD APT 5124","COLUMBIA","SC",29223,34.0847937400001,-80.960919421,404,"80 BRIGHTON HILL ROAD APT 5124, COLUMBIA, SC, 29223","Match","Exact","80 BRIGHTON HILL RD, COLUMBIA, SC, 29223",71841653,"L"
292905,"80 BROAD STREET","BATTLE CREEK","MI",49017,NA,NA,405,"80 BROAD STREET, BATTLE CREEK, MI, 49017","Tie",NA,NA,NA,NA
292906,"80 BROADWAY AVE STE 102","MATTOON","IL",61938,39.4826222660001,-88.3528316699999,406,"80 BROADWAY AVE STE 102, MATTOON, IL, 61938","Match","Exact","80 BROADWAY AVE, MATTOON, IL, 61938",5416342,"L"
292907,"80 BROADWAY STREET NE 505","MINNEAPOLIS","MN",55413,44.9986942200001,-93.267718777,407,"80 BROADWAY STREET NE 505, MINNEAPOLIS, MN, 55413","Match","Exact","80 BROADWAY ST NE, MINNEAPOLIS, MN, 55413",43835696,"R"
292908,"80 BROOK STREET","SWOYERSVILLE","PA",18704,41.307747927,-75.8691664959999,408,"80 BROOK STREET, SWOYERSVILLE, PA, 18704","Match","Exact","80 BROOK ST, SWOYERSVILLE, PA, 18704",604522263,"L"
292909,"80 BUNETT AVE","MAPLEWOOD","NJ",7040,NA,NA,409,"80 BUNETT AVE, MAPLEWOOD, NJ, 7040","No_Match",NA,NA,NA,NA
292910,"80 BURNSIDE DRIVE","HASTINGS ON HUDSON","NY",10706,40.989032921,-73.87567359,410,"80 BURNSIDE DRIVE, HASTINGS ON HUDSON, NY, 10706","Match","Exact","80 BURNSIDE DR, HASTINGS ON HUDSON, NY, 10706",139733090,"R"
292911,"80 BURR RIDGE PARKWAY UNIT 119","BURR RIDGE","IL",60527,41.7506280380001,-87.9138760009999,411,"80 BURR RIDGE PARKWAY UNIT 119, BURR RIDGE, IL, 60527","Match","Exact","80 BURR RIDGE PKWY, BURR RIDGE, IL, 60527",111887504,"R"
292912,"80 BURR RIDGE PKWY STE 149","BURR RIDGE","IL",60527,41.7506280380001,-87.9138760009999,412,"80 BURR RIDGE PKWY STE 149, BURR RIDGE, IL, 60527","Match","Exact","80 BURR RIDGE PKWY, BURR RIDGE, IL, 60527",111887504,"R"
292913,"80 CAMBRIDGE DR","COVINGTON","GA",30014,33.5410012020001,-83.794142167,413,"80 CAMBRIDGE DR, COVINGTON, GA, 30014","Match","Exact","80 CAMBRIDGE DR, COVINGTON, GA, 30014",618469871,"R"
292914,"80 CARDINAL RD","FILLMORE","IN",46128,39.6670658300001,-86.7438543599999,414,"80 CARDINAL RD, FILLMORE, IN, 46128","Match","Exact","80 CARDINAL RD, FILLMORE, IN, 46128",50112516,"L"
292915,"80 CASTRO STREET APT 307","SAN LEANDRO","CA",94577,37.7201377980001,-122.151107438,415,"80 CASTRO STREET APT 307, SAN LEANDRO, CA, 94577","Match","Exact","80 CASTRO ST, SAN LEANDRO, CA, 94577",618784309,"R"
292916,"80 CATHERINE ST","NEW YORK","NY",10038,40.710711222,-73.996596417,416,"80 CATHERINE ST, NEW YORK, NY, 10038","Match","Exact","80 CATHERINE ST, NEW YORK, NY, 10038",59653853,"R"
292917,"80 CATIE CIR","STOCKBRIDGE","GA",30281,33.487208857,-84.2490786399999,417,"80 CATIE CIR, STOCKBRIDGE, GA, 30281","Match","Exact","80 CATIE CIR, STOCKBRIDGE, GA, 30281",23192018,"R"
292918,"80 CEDAR LANE  APT 178","ROSELLE","NJ",7203,40.642299489,-74.2709107319999,418,"80 CEDAR LANE  APT 178, ROSELLE, NJ, 7203","Match","Exact","80 CEDAR LN, ROSELLE, NJ, 07203",60575398,"R"
292919,"80 CENTRAL PARK WEST  7D","NEW YORK","NY",10023,NA,NA,419,"80 CENTRAL PARK WEST  7D, NEW YORK, NY, 10023","No_Match",NA,NA,NA,NA
292920,"80 CHAMBERS ST APT 15A","NEW YORK","NY",10007,40.7144122280001,-74.006845878,420,"80 CHAMBERS ST APT 15A, NEW YORK, NY, 10007","Match","Exact","80 CHAMBERS ST, NEW YORK, NY, 10007",59660346,"L"
292921,"80 CHAPEL ST","LINCOLN","RI",2865,41.8957520640001,-71.410015221,421,"80 CHAPEL ST, LINCOLN, RI, 2865","Match","Exact","80 CHAPEL ST, LINCOLN, RI, 02865",47454737,"L"
292922,"80 COLLINSON WAY","SOMERVILLE","TN",38068,35.16280564,-89.331530759,422,"80 COLLINSON WAY, SOMERVILLE, TN, 38068","Match","Exact","80 COLLINSON WAY, SOMERVILLE, TN, 38068",72706367,"L"
292923,"80 COLONIAL DR","SHREWSBURY","MA",1545,42.327334954,-71.703869336,423,"80 COLONIAL DR, SHREWSBURY, MA, 1545","Match","Exact","80 COLONIAL DR, SHREWSBURY, MA, 01545",40046735,"R"
292924,"80 COMMERCE WAY","HACKENSACK","NJ",7601,40.9106694560001,-74.031053905,424,"80 COMMERCE WAY, HACKENSACK, NJ, 7601","Match","Exact","80 COMMERCE WAY, HACKENSACK, NJ, 07601",64387364,"L"
292925,"80 CONOVER LN","TEMPLETON","CA",93465,35.5594674210001,-120.719681528,425,"80 CONOVER LN, TEMPLETON, CA, 93465","Match","Exact","80 CONOVER LN, TEMPLETON, CA, 93465",641280146,"R"
292926,"80 CONTINENTAL DRIVE","LANSING","KS",66043,39.2512954950001,-94.915443308,426,"80 CONTINENTAL DRIVE, LANSING, KS, 66043","Match","Exact","80 CONTINENTAL DR, LANSING, KS, 66043",646821102,"L"
292927,"80 CORBET STREET","DORCHESTER","MA",2124,42.281157937,-71.082904371,427,"80 CORBET STREET, DORCHESTER, MA, 2124","Match","Exact","80 CORBET ST, DORCHESTER, MA, 02124",651813888,"L"
292928,"80 CORONADO AVENUE","KENNER","LA",70065,30.029239536,-90.235241334,428,"80 CORONADO AVENUE, KENNER, LA, 70065","Match","Exact","80 CORONADO AVE, KENNER, LA, 70065",93493420,"R"
292929,"80 COTTONTAIL LANE","SOMERSET","NJ",8873,NA,NA,429,"80 COTTONTAIL LANE, SOMERSET, NJ, 8873","No_Match",NA,NA,NA,NA
292930,"80 COUNTY ROAD 3237","BARTLESVILLE","OK",74003,36.7556776440001,-96.0377248469999,430,"80 COUNTY ROAD 3237, BARTLESVILLE, OK, 74003","Match","Exact","80 CO RD 3237, BARTLESVILLE, OK, 74003",82347016,"R"
292931,"80 CR 600 SUITE 203","PAGOSA SPRINGS","CO",81147,37.2706090400001,-107.059371244,431,"80 CR 600 SUITE 203, PAGOSA SPRINGS, CO, 81147","Match","Non_Exact","80 CO RD 600, PAGOSA SPRINGS, CO, 81147",127336325,"L"
292932,"80 DAVID STREET","SOUTH RIVER","NJ",8882,40.4367909590001,-74.3818423819999,432,"80 DAVID STREET, SOUTH RIVER, NJ, 8882","Match","Exact","80 DAVID ST, SOUTH RIVER, NJ, 08882",60361641,"L"
292933,"80 DEER RUN DRIVE","FRANKLINTON","NC",27525,36.0643523000001,-78.411366954,433,"80 DEER RUN DRIVE, FRANKLINTON, NC, 27525","Match","Exact","80 DEER RUN DR, FRANKLINTON, NC, 27525",647207514,"R"
292934,"80 DEKALB AVENUE 24N","BROOKLYN","NY",11201,40.6898659780001,-73.9796254829999,434,"80 DEKALB AVENUE 24N, BROOKLYN, NY, 11201","Match","Exact","80 DEKALB AVE, BROOKLYN, NY, 11201",59077547,"R"
292935,"80 DEKALB AVENUE","BROOKLYN","NY",11201,40.6898659780001,-73.9796254829999,435,"80 DEKALB AVENUE, BROOKLYN, NY, 11201","Match","Exact","80 DEKALB AVE, BROOKLYN, NY, 11201",59077547,"R"
292936,"80 DELTA AVENUE","GLADSTONE","MI",49837,NA,NA,436,"80 DELTA AVENUE, GLADSTONE, MI, 49837","No_Match",NA,NA,NA,NA
292937,"80 DEVON LANE   STE 103","AKRON","OH",44313,41.105599818,-81.5559736819999,437,"80 DEVON LANE   STE 103, AKRON, OH, 44313","Match","Exact","80 DEVON LN, AKRON, OH, 44313",61339386,"L"
292938,"80 E LABARGE ST","HUDSON FALLS","NY",12839,43.3115348960001,-73.583587511,438,"80 E LABARGE ST, HUDSON FALLS, NY, 12839","Match","Exact","80 LABARGE ST, HUDSON FALLS, NY, 12839",139153632,"R"
292939,"80 E STIRRUP TRAIL","MONUMENT","CO",80132,39.106376369,-104.826142867,439,"80 E STIRRUP TRAIL, MONUMENT, CO, 80132","Match","Exact","80 E STIRRUP TRL, MONUMENT, CO, 80132",635613138,"R"
292940,"80 E STIRRUP TRAIL","MONUMENT","TX",80132,NA,NA,440,"80 E STIRRUP TRAIL, MONUMENT, TX, 80132","No_Match",NA,NA,NA,NA
292941,"80 EAGLE RANCH ROAD","EAGLE","CO",81631,39.6396445140001,-106.828087087,441,"80 EAGLE RANCH ROAD, EAGLE, CO, 81631","Match","Exact","80 EAGLE RANCH RD, EAGLE, CO, 81631",105744305,"R"
292942,"80 EAGLE ROCK WAY SUITE D","BRENTWOOD","CA",94513,NA,NA,442,"80 EAGLE ROCK WAY SUITE D, BRENTWOOD, CA, 94513","No_Match",NA,NA,NA,NA
292943,"80 EAGLE VALLEY CT","BROADVIEW HEIGHTS","OH",44147,41.3229475460001,-81.6450087709999,443,"80 EAGLE VALLEY CT, BROADVIEW HEIGHTS, OH, 44147","Match","Exact","80 EAGLE VALLEY CT, BROADVIEW HEIGHTS, OH, 44147",61150919,"L"
292944,"80 EAST END AVENUE  SUITE 15F","NEW YORK","NY",10028,40.773039865,-73.946161218,444,"80 EAST END AVENUE  SUITE 15F, NEW YORK, NY, 10028","Match","Exact","80 E END AVE, NEW YORK, NY, 10028",59662173,"L"
292945,"80 ECHO AVE","OAKLAND","CA",94611,37.827689772,-122.248328457,445,"80 ECHO AVE, OAKLAND, CA, 94611","Match","Exact","80 ECHO AVE, OAKLAND, CA, 94611",606410627,"L"
292946,"80 EISEMAN AVE","TONAWANDA","NY",14217,42.97349188,-78.874658057,446,"80 EISEMAN AVE, TONAWANDA, NY, 14217","Match","Exact","80 EISEMAN AVE, TONAWANDA, NY, 14217",48287864,"L"
292947,"80 EL SHACKLETT CT","BRANDENBURG","KY",40108,37.9552892950001,-86.168278618,447,"80 EL SHACKLETT CT, BRANDENBURG, KY, 40108","Match","Exact","80 EL SHACKLETT CT, BRANDENBURG, KY, 40108",8173461,"R"
292948,"80 FALMOUTH RD","FALMOUTH","ME",4105,43.725250456,-70.254104056,448,"80 FALMOUTH RD, FALMOUTH, ME, 4105","Match","Exact","80 FALMOUTH RD, FALMOUTH, ME, 04105",616703793,"R"
292949,"80 FAWCETT ST UNIT 570","CAMBRIDGE","MA",2138,42.392455554,-71.146174655,449,"80 FAWCETT ST UNIT 570, CAMBRIDGE, MA, 2138","Match","Exact","80 FAWCETT ST, CAMBRIDGE, MA, 02138",87173780,"R"
292950,"80 FLORIDA ST UNIT 9","DORCHESTER","MA",2124,42.289286002,-71.05897377,450,"80 FLORIDA ST UNIT 9, DORCHESTER, MA, 2124","Match","Exact","80 FLORIDA ST, DORCHESTER, MA, 02124",85715272,"L"
292951,"80 FREDERICK AVENUE","ALBANY","NY",12205,42.7003410140001,-73.802393971,451,"80 FREDERICK AVENUE, ALBANY, NY, 12205","Match","Exact","80 FREDERICK AVE, ALBANY, NY, 12205",18305840,"R"
292952,"80 FREMONT STREET 6APT15","JERSEY CITY","NJ",7302,40.7201393610001,-74.059501648,452,"80 FREMONT STREET 6APT15, JERSEY CITY, NJ, 7302","Match","Exact","80 FREMONT ST, JERSEY CITY, NJ, 07302",59605726,"R"
292953,"80 FREMONT STREET APT 615","JERSEY CITY","NJ",7302,40.7201393610001,-74.059501648,453,"80 FREMONT STREET APT 615, JERSEY CITY, NJ, 7302","Match","Exact","80 FREMONT ST, JERSEY CITY, NJ, 07302",59605726,"R"
292954,"80 GRAND AVENUE SUITE 810","OAKLAND","CA",94612,37.8114860220001,-122.265715961,454,"80 GRAND AVENUE SUITE 810, OAKLAND, CA, 94612","Match","Exact","80 GRAND AVE, OAKLAND, CA, 94612",617283358,"L"
292955,"80 GREAT OAK DRIVE","SHORT HILLS","NJ",7078,40.7251530870001,-74.3200519329999,455,"80 GREAT OAK DRIVE, SHORT HILLS, NJ, 7078","Match","Exact","80 GREAT OAK DR, SHORT HILLS, NJ, 07078",63461568,"L"
292956,"80 GUION PLACE APARTMENT 7-P","NEW ROCHELLE","NY",10801,40.914595456,-73.788036324,456,"80 GUION PLACE APARTMENT 7-P, NEW ROCHELLE, NY, 10801","Match","Exact","80 GUION PL, NEW ROCHELLE, NY, 10801",139750261,"L"
292957,"80 HAMILTON STREET","NEW LONDON","CT",6320,41.3460367060001,-72.098255095,457,"80 HAMILTON STREET, NEW LONDON, CT, 6320","Match","Exact","80 HAMILTON ST, NEW LONDON, CT, 06320",56851143,"L"
292958,"80 HANSON PL 1ST FLOOR","BROOKLYN","NY",11217,40.6854929580001,-73.9744166579999,458,"80 HANSON PL 1ST FLOOR, BROOKLYN, NY, 11217","Match","Exact","80 HANSON PL, BROOKLYN, NY, 11217",59077670,"R"
292959,"80 HARRIS PLACE APARTMENT 162","FREMONT","CA",94536,37.5729188350001,-121.967879862,459,"80 HARRIS PLACE APARTMENT 162, FREMONT, CA, 94536","Match","Exact","80 HARRIS PL, FREMONT, CA, 94536",638566926,"L"
292960,"80 HARRISON STREET","NEW BRITAIN","CT",6052,41.661570247,-72.8007319229999,460,"80 HARRISON STREET, NEW BRITAIN, CT, 6052","Match","Exact","80 HARRISON ST, NEW BRITAIN, CT, 06052",3510528,"L"
292961,"80 HILLTOP DRIVE","PENFIELD","NY",14526,43.123967528,-77.458144789,461,"80 HILLTOP DRIVE, PENFIELD, NY, 14526","Match","Exact","80 HILLTOP DR, PENFIELD, NY, 14526",14546448,"L"
292962,"80 HILLTOP RD","SHARON","CT",6069,41.8817371220001,-73.472969908,462,"80 HILLTOP RD, SHARON, CT, 6069","Match","Exact","80 HILLTOP RD, SHARON, CT, 06069",3131621,"L"
292963,"80 HOSPITAL DRIVE","BARBOURVILLE","KY",40906,36.8522011910001,-83.870298369,463,"80 HOSPITAL DRIVE, BARBOURVILLE, KY, 40906","Match","Exact","80 HOSPITAL DR, BARBOURVILLE, KY, 40906",160702367,"L"
292964,"80 HUNTINGTON STREET SPACE 649","HUNTINGTON BEACH","CA",92648,33.6572394570001,-117.994908981,464,"80 HUNTINGTON STREET SPACE 649, HUNTINGTON BEACH, CA, 92648","Match","Exact","80 HUNTINGTON ST, HUNTINGTON BEACH, CA, 92648",144020138,"R"
292965,"80 IONA PLACE","PARAMUS","NJ",7652,40.926463547,-74.0634399319999,465,"80 IONA PLACE, PARAMUS, NJ, 7652","Match","Exact","80 IONA PL, PARAMUS, NJ, 07652",64383412,"R"
292966,"80 IRON POINT CIRCLE SUITE 200","FOLSOM","CA",95630,38.643965861,-121.142769297,466,"80 IRON POINT CIRCLE SUITE 200, FOLSOM, CA, 95630","Match","Exact","80 IRON POINT CIR, FOLSOM, CA, 95630",618048789,"R"
292967,"80 ISABELLE LANE/BOX 308","KINGSTON","ID",83837,NA,NA,467,"80 ISABELLE LANE/BOX 308, KINGSTON, ID, 83837","No_Match",NA,NA,NA,NA
292968,"80 JACKSON STREET","LAMBERTVILLE","NJ",8530,40.372692536,-74.935842239,468,"80 JACKSON STREET, LAMBERTVILLE, NJ, 8530","Match","Exact","80 JACKSON ST, LAMBERTVILLE, NJ, 08530",640745785,"L"
292969,"80 JENNIFER DR","WRENTHAM","MA",2093,42.078884579,-71.3469232859999,469,"80 JENNIFER DR, WRENTHAM, MA, 2093","Match","Exact","80 JENNIFER DR, WRENTHAM, MA, 02093",87282086,"R"
292970,"80 JESSE HILL JR DRIVE SE ROOM 3J02","ATLANTA","GA",30303,NA,NA,470,"80 JESSE HILL JR DRIVE SE ROOM 3J02, ATLANTA, GA, 30303","Tie",NA,NA,NA,NA
292971,"80 JOHN ST APT 5I","NEW YORK","NY",10038,40.70851709,-74.007001365,471,"80 JOHN ST APT 5I, NEW YORK, NY, 10038","Match","Exact","80 JOHN ST, NEW YORK, NY, 10038",59660473,"R"
292972,"80 JOHNSON COURT","CLOSTER","NJ",7624,40.9644341810001,-73.9407597919999,472,"80 JOHNSON COURT, CLOSTER, NJ, 7624","Match","Exact","80 JOHNSON CT, CLOSTER, NJ, 07624",64425061,"L"
292973,"80 JUDICIAL DRIVE","BENTON","KY",42025,NA,NA,473,"80 JUDICIAL DRIVE, BENTON, KY, 42025","No_Match",NA,NA,NA,NA
292974,"80 KENDALL RD","KEENE","NH",3431,42.943228354,-72.316779836,474,"80 KENDALL RD, KEENE, NH, 3431","Match","Exact","80 KENDALL RD, KEENE, NH, 03431",124050925,"L"
292975,"80 KING LN","PONTIAC","MI",48341,42.627386605,-83.3038321939999,475,"80 KING LN, PONTIAC, MI, 48341","Match","Exact","80 KING LN, PONTIAC, MI, 48341",69771421,"R"
292976,"80 KIRKLAND COURT","COVINGTON","GA",30016,33.588923246,-83.939162198,476,"80 KIRKLAND COURT, COVINGTON, GA, 30016","Match","Exact","80 KIRKLAND CT, COVINGTON, GA, 30016",23630120,"R"
292977,"80 LA SALLE ST 16H","NEW YORK","NY",10027,40.8129876420001,-73.957755462,477,"80 LA SALLE ST 16H, NEW YORK, NY, 10027","Match","Non_Exact","80 LA SALLE ST, NEW YORK, NY, 10027",610217588,"L"
292978,"80 LAKEVIEW DRIVE","BREWSTER","NY",10509,41.428749505,-73.602932782,478,"80 LAKEVIEW DRIVE, BREWSTER, NY, 10509","Match","Exact","80 LAKEVIEW DR, BREWSTER, NY, 10509",139682181,"L"
292979,"80 LAURA LANE 1ST FL","NEW HAVEN","CT",6512,41.277406184,-72.888376641,479,"80 LAURA LANE 1ST FL, NEW HAVEN, CT, 6512","Match","Exact","80 LAURA LN, NEW HAVEN, CT, 06512",3704301,"L"
292980,"80 LEILEHUA ROAD","WAHIAWA","HI",96786,21.503433396,-158.00078751,480,"80 LEILEHUA ROAD, WAHIAWA, HI, 96786","Match","Exact","80 LEILEHUA RD, WAHIAWA, HI, 96786",203331502,"L"
292981,"80 LEONARD JENARD DR APT-2D","PAWTUCKET","RI",2860,41.878537393,-71.404611412,481,"80 LEONARD JENARD DR APT-2D, PAWTUCKET, RI, 2860","Match","Exact","80 LEONARD JENARD DR, PAWTUCKET, RI, 02860",47506140,"L"
292982,"80 LINDEN STREET","NEEDHAM","MA",2492,42.277314522,-71.2410957829999,482,"80 LINDEN STREET, NEEDHAM, MA, 2492","Match","Exact","80 LINDEN ST, NEEDHAM, MA, 02492",87241333,"L"
292983,"80 LINHAVEN","IRVINE","CA",92602,33.742462865,-117.77137031,483,"80 LINHAVEN, IRVINE, CA, 92602","Match","Exact","80 LINHAVEN, IRVINE, CA, 92602",144139086,"R"
292984,"80 LINVALE RD","RINGOES","NJ",8551,40.4059732900001,-74.835940352,484,"80 LINVALE RD, RINGOES, NJ, 8551","Match","Exact","80 LINVALE RD, RINGOES, NJ, 08551",636225805,"L"
292985,"80 LITTLE CANADA RD E STE 6","LITTLE CANDADA","MN",55117,45.025064958,-93.097576496,485,"80 LITTLE CANADA RD E STE 6, LITTLE CANDADA, MN, 55117","Match","Non_Exact","80 LITTLE CANADA RD E, LITTLE CANADA, MN, 55117",97643171,"R"
292986,"80 LOS BALCONES","ALAMO","CA",94507,37.848644574,-122.015036904,486,"80 LOS BALCONES, ALAMO, CA, 94507","Match","Exact","80 LOS BALCONES, ALAMO, CA, 94507",192076041,"R"
292987,"80 M STREET SE      SUITE 100","WASHINGTON","DC",20003,38.876489109,-77.006207584,487,"80 M STREET SE      SUITE 100, WASHINGTON, DC, 20003","Match","Exact","80 M ST SE, WASHINGTON, DC, 20003",639577473,"L"
292988,"80 M STREET SE","WASHINGTON","DC",20003,38.876489109,-77.006207584,488,"80 M STREET SE, WASHINGTON, DC, 20003","Match","Exact","80 M ST SE, WASHINGTON, DC, 20003",639577473,"L"
292989,"80 M STREET SOUTH EAST","WASHINGTON","DC",20020,NA,NA,489,"80 M STREET SOUTH EAST, WASHINGTON, DC, 20020","No_Match",NA,NA,NA,NA
292990,"80 MAIN STREET","SHINNSTON","WV",26431,39.39427584,-80.301659822,490,"80 MAIN STREET, SHINNSTON, WV, 26431","Match","Exact","80 MAIN ST, SHINNSTON, WV, 26431",53297946,"R"
292991,"80 MAIN STREET","SYCAMORE","AL",35149,NA,NA,491,"80 MAIN STREET, SYCAMORE, AL, 35149","No_Match",NA,NA,NA,NA
292992,"80 MAIN STREET","TERRYVILLE","CT",6786,41.67936932,-72.997248038,492,"80 MAIN STREET, TERRYVILLE, CT, 6786","Match","Exact","80 MAIN ST, TERRYVILLE, CT, 06786",3115202,"L"
292993,"80 MAPLE ST APT 3","JESEY CITY","NJ",7304,40.712239905,-74.059084852,493,"80 MAPLE ST APT 3, JESEY CITY, NJ, 7304","Match","Non_Exact","80 MAPLE ST, JERSEY CITY, NJ, 07304",59606008,"R"
292994,"80 MAPLE STREET","HINSDALE","MA",1235,42.43821445,-73.1250142219999,494,"80 MAPLE STREET, HINSDALE, MA, 1235","Match","Exact","80 MAPLE ST, HINSDALE, MA, 01235",3954670,"R"
292995,"80 MAPLE STREET","STONEHAM","MA",2180,42.4790060810001,-71.10989467,495,"80 MAPLE STREET, STONEHAM, MA, 2180","Match","Exact","80 MAPLE ST, STONEHAM, MA, 02180",86856295,"L"
292996,"80 MARION AVENUE","LAKE FOREST","IL",60045,42.22026061,-87.844328794,496,"80 MARION AVENUE, LAKE FOREST, IL, 60045","Match","Exact","80 MARION AVE, LAKE FOREST, IL, 60045",119647557,"L"
292997,"80 MARIVA ST","PONTIAC","MI",48342,42.6361051920001,-83.2807920069999,497,"80 MARIVA ST, PONTIAC, MI, 48342","Match","Exact","80 MARIVA ST, PONTIAC, MI, 48342",69705934,"R"
292998,"80 MARKET STREET","LAWRENCE","MA",1843,42.70117042,-71.147093742,498,"80 MARKET STREET, LAWRENCE, MA, 1843","Match","Exact","80 MARKET ST, LAWRENCE, MA, 01843",86627922,"L"
292999,"80 MCCLELLAN ST APT 4A","BRONX","NY",10452,40.833609418,-73.920570722,499,"80 MCCLELLAN ST APT 4A, BRONX, NY, 10452","Match","Non_Exact","80 MC CLELLAN ST, BRONX, NY, 10452",80299495,"R"
293000,"80 MERRIMACK STREET 2ND FLOOR","HAVERHILL","MA",1830,42.7746886570001,-71.078176766,500,"80 MERRIMACK STREET 2ND FLOOR, HAVERHILL, MA, 1830","Match","Exact","80 MERRIMACK ST, HAVERHILL, MA, 01830",647386102,"L"
