"ID","Address","City","State","Zip","lat","long","id","input_address","match_indicator","match_type","matched_address","tiger_line_id","tiger_side"
16001,"10714 PLAINFIELD STR","HOUSTON","TX",77031,29.663656127,-95.544512469,1,"10714 PLAINFIELD STR, HOUSTON, TX, 77031","Match","Exact","10714 PLAINFIELD ST, HOUSTON, TX, 77031",96036645,"R"
16002,"10714 S JORDAN GATEWAY STE 100","SOUTH JORDAN","UT",84095,40.557061785,-111.902777351,2,"10714 S JORDAN GATEWAY STE 100, SOUTH JORDAN, UT, 84095","Match","Exact","10714 JORDAN GATEWAY, SOUTH JORDAN, UT, 84095",648012879,"L"
16003,"10714 S JORDAN GTWY STE 100","SOUTH JORDAN","UT",84095,40.557061785,-111.902777351,3,"10714 S JORDAN GTWY STE 100, SOUTH JORDAN, UT, 84095","Match","Exact","10714 JORDAN GATEWAY, SOUTH JORDAN, UT, 84095",648012879,"L"
16004,"10714 S NANDINA CT","JENKS","OK",74037,36.0077228110001,-95.9877783319999,4,"10714 S NANDINA CT, JENKS, OK, 74037","Match","Exact","10714 S NANDINA CT, JENKS, OK, 74037",624765612,"R"
16005,"10714 SHELDRAKE DRIVE","CHESTERTOWN","MD",21620,39.267680365,-76.145085713,5,"10714 SHELDRAKE DRIVE, CHESTERTOWN, MD, 21620","Match","Exact","10714 SHELDRAKE DR, CHESTERTOWN, MD, 21620",636216925,"L"
16006,"10715 CEDAR OAKS COURT","TEXAS CITY","TX",77591,29.4171312720001,-95.0323638679999,6,"10715 CEDAR OAKS COURT, TEXAS CITY, TX, 77591","Match","Exact","10715 CEDAR OAKS CT, TEXAS CITY, TX, 77591",614165619,"R"
16007,"10715 FAWN DRIVE","GREAT FALLS","VA",22066,39.0210280970001,-77.316546472,7,"10715 FAWN DRIVE, GREAT FALLS, VA, 22066","Match","Exact","10715 FAWN DR, GREAT FALLS, VA, 22066",615653511,"R"
16008,"10715 LOCKRIDGE DR","SILVER SPRING","MD",20901,39.0317229770001,-77.0116522819999,8,"10715 LOCKRIDGE DR, SILVER SPRING, MD, 20901","Match","Exact","10715 LOCKRIDGE DR, SILVER SPRING, MD, 20901",642972331,"R"
16009,"10715 SLAUGHTER CREEK DR","AUSTIN","TX",78748,30.158113186,-97.818947028,9,"10715 SLAUGHTER CREEK DR, AUSTIN, TX, 78748","Match","Exact","10715 SLAUGHTER CREEK DR, AUSTIN, TX, 78748",64121648,"L"
16010,"10715 VANDERKARR ROAD","HEBRON","IL",60034,42.430031022,-88.410038722,10,"10715 VANDERKARR ROAD, HEBRON, IL, 60034","Match","Exact","10715 VANDERKARR RD, HEBRON, IL, 60034",119815244,"L"
16011,"10716 CORRENTY DRIVE","GLEN ALLEN","VA",23059,37.670475309,-77.4689211369999,11,"10716 CORRENTY DRIVE, GLEN ALLEN, VA, 23059","Match","Exact","10716 CORRENTY DR, GLEN ALLEN, VA, 23059",106686559,"L"
16012,"10716 E OUTER DRIVE","DETROIT","MI",48224,NA,NA,12,"10716 E OUTER DRIVE, DETROIT, MI, 48224","No_Match",NA,NA,NA,NA
16013,"10716 GALVESTON PL","MCKINNEY","TX",75071,33.208855113,-96.760430596,13,"10716 GALVESTON PL, MCKINNEY, TX, 75071","Match","Exact","10716 GALVESTON PL, MCKINNEY, TX, 75071",650326386,"R"
16014,"10716 MALOIAN DRIVE","SAINT JOHN","IN",46373,41.424273767,-87.485809354,14,"10716 MALOIAN DRIVE, SAINT JOHN, IN, 46373","Match","Exact","10716 MALOIAN DR, SAINT JOHN, IN, 46373",98445779,"R"
16015,"10716 MONTROSE AVE","GARRETT PARK","MD",20896,39.0325708560001,-77.093597237,15,"10716 MONTROSE AVE, GARRETT PARK, MD, 20896","Match","Exact","10716 MONTROSE AVE, GARRETT PARK, MD, 20896",62061427,"L"
16016,"10717 281ST AVE NW","ZIMMERMAN","MN",55398,45.4793762460001,-93.538986969,16,"10717 281ST AVE NW, ZIMMERMAN, MN, 55398","Match","Non_Exact","10717 281ST AVE, ZIMMERMAN, MN, 55398",97773116,"L"
16017,"10717 BLOOMFIELD STREET APT 3","NORTH HOLLYWOOD","CA",91602,34.1496121110001,-118.363935627,17,"10717 BLOOMFIELD STREET APT 3, NORTH HOLLYWOOD, CA, 91602","Match","Exact","10717 BLOOMFIELD ST, N HOLLYWOOD, CA, 91602",648648626,"R"
16018,"10717 DAVIS AVE","WOODSTOCK","MD",21163,39.3352400950001,-76.8559787899999,18,"10717 DAVIS AVE, WOODSTOCK, MD, 21163","Match","Exact","10717 DAVIS AVE, WOODSTOCK, MD, 21163",191564898,"L"
16019,"10717 EWING AVE","KANSAS CITY","MO",64134,38.9303111040001,-94.5120889629999,19,"10717 EWING AVE, KANSAS CITY, MO, 64134","Match","Exact","10717 EWING AVE, KANSAS CITY, MO, 64134",91466000,"L"
16020,"10717 LADY SLIPPER TERRACE","ROCKVILLE","MD",20852,39.0310434940001,-77.123389372,20,"10717 LADY SLIPPER TERRACE, ROCKVILLE, MD, 20852","Match","Exact","10717 LADY SLIPPER TER, ROCKVILLE, MD, 20852",62056543,"L"
16021,"10717 SPYGLASS HILL","ROWLETT","TX",75089,32.9572195970001,-96.530183613,21,"10717 SPYGLASS HILL, ROWLETT, TX, 75089","Match","Exact","10717 SPYGLASS HILL, ROWLETT, TX, 75089",103256414,"R"
16022,"10717 STEVENSON ROAD","STEVENSON","MD",21153,39.418437786,-76.716660001,22,"10717 STEVENSON ROAD, STEVENSON, MD, 21153","Match","Exact","10717 STEVENSON RD, STEVENSON, MD, 21153",191549305,"R"
16023,"10717 WASHINGTON AVENUE","OSSINEKE","MI",49766,44.923018449,-83.424824983,23,"10717 WASHINGTON AVENUE, OSSINEKE, MI, 49766","Match","Exact","10717 WASHINGTON AVE, OSSINEKE, MI, 49766",135786975,"R"
16024,"10718 BUTTERFLY FLAT","SAN ANTONIO","TX",78254,29.508333931,-98.703695791,24,"10718 BUTTERFLY FLAT, SAN ANTONIO, TX, 78254","Match","Exact","10718 BUTTERFLY FLAT, SAN ANTONIO, TX, 78254",101761038,"L"
16025,"10718 CANYON BAY LANE","BOYNTON BEACH","FL",33473,26.5163745570001,-80.1836037959999,25,"10718 CANYON BAY LANE, BOYNTON BEACH, FL, 33473","Match","Exact","10718 CANYON BAY LN, BOYNTON BEACH, FL, 33473",636301665,"L"
16026,"10718 DEEPBROOK DR","RIVERVIEW","FL",33569,27.8398382070001,-82.269751763,26,"10718 DEEPBROOK DR, RIVERVIEW, FL, 33569","Match","Exact","10718 DEEPBROOK DR, RIVERVIEW, FL, 33569",104615851,"L"
16027,"10718 WHITE OAK AVE UNIT 6","GRANADA HILLS","CA",91344,34.265172143,-118.519730795,27,"10718 WHITE OAK AVE UNIT 6, GRANADA HILLS, CA, 91344","Match","Exact","10718 WHITE OAK AVE, GRANADA HILLS, CA, 91344",141542252,"R"
16028,"10719 DEEPBROOK DRIVE","RIVERVIEW","FL",33569,27.839832578,-82.269741121,28,"10719 DEEPBROOK DRIVE, RIVERVIEW, FL, 33569","Match","Exact","10719 DEEPBROOK DR, RIVERVIEW, FL, 33569",104615851,"R"
16029,"10719 JENKINS CIRCLE","SODDY-DAISY","TN",37379,35.2516530820001,-85.134231405,29,"10719 JENKINS CIRCLE, SODDY-DAISY, TN, 37379","Match","Exact","10719 JENKINS CIR, SODDY DAISY, TN, 37379",59298884,"R"
16030,"10719 N LAUREL AVE","KANSAS CITY","MO",64157,39.2861365570001,-94.468590993,30,"10719 N LAUREL AVE, KANSAS CITY, MO, 64157","Match","Exact","10719 N LAUREL AVE, KANSAS CITY, MO, 64157",627743057,"L"
16031,"10719 TUPPER LAKE DRIVE","HOUSTON","TX",77042,29.7554715000001,-95.565459485,31,"10719 TUPPER LAKE DRIVE, HOUSTON, TX, 77042","Match","Exact","10719 TUPPER LAKE DR, HOUSTON, TX, 77042",96022721,"L"
16032,"1072 17TH AVENUE NORTH","SAINT PETERSBURG","FL",33704,27.7879494530001,-82.648150202,32,"1072 17TH AVENUE NORTH, SAINT PETERSBURG, FL, 33704","Match","Exact","1072 17TH AVE N, SAINT PETERSBURG, FL, 33704",124706743,"L"
16033,"1072 ALABAMA STREET","SAN FRANCISCO","CA",94110,37.754773205,-122.411173023,33,"1072 ALABAMA STREET, SAN FRANCISCO, CA, 94110","Match","Exact","1072 ALABAMA ST, SAN FRANCISCO, CA, 94110",192288430,"R"
16034,"1072 AMBOY ROAD","AMBOY","IL",61310,41.707528444,-89.4258428209999,34,"1072 AMBOY ROAD, AMBOY, IL, 61310","Match","Exact","1072 AMBOY RD, AMBOY, IL, 61310",48748076,"L"
16035,"1072 ARCARO COURT","GAHANNA","OH",43230,40.045663887,-82.855232942,35,"1072 ARCARO COURT, GAHANNA, OH, 43230","Match","Exact","1072 ARCARO CT, GAHANNA, OH, 43230",218657612,"L"
16036,"1072 ARCARO CT","COLUMBUS","OH",43230,40.045663887,-82.855232942,36,"1072 ARCARO CT, COLUMBUS, OH, 43230","Match","Exact","1072 ARCARO CT, COLUMBUS, OH, 43230",218657612,"L"
16037,"1072 BAYHILL CIRCLE","NORTH LIBERTY","IA",52317,41.740801898,-91.616641117,37,"1072 BAYHILL CIRCLE, NORTH LIBERTY, IA, 52317","Match","Non_Exact","1072 BAY HILL CIR, NORTH LIBERTY, IA, 52317",84511343,"R"
16038,"1072 BAYWOOD DRIVE","WILLIAMSTOWN","NJ",8094,39.7031037560001,-75.003069963,38,"1072 BAYWOOD DRIVE, WILLIAMSTOWN, NJ, 8094","Match","Exact","1072 BAYWOOD DR, WILLIAMSTOWN, NJ, 08094",134600826,"R"
16039,"1072 BROOK MONT","O'FALLON","MO",63366,38.774451044,-90.732808526,39,"1072 BROOK MONT, O'FALLON, MO, 63366","Match","Non_Exact","1072 BROOK MONT DR, O FALLON, MO, 63366",605571836,"L"
16040,"1072 BURT HILL ROAD","TOLLAND","MA",1034,42.059177839,-73.0358072019999,40,"1072 BURT HILL ROAD, TOLLAND, MA, 1034","Match","Exact","1072 BURT HILL RD, TOLLAND, MA, 01034",4064299,"L"
16041,"1072 CRANFORD ROAD","DENTON","NC",27239,35.5902921410001,-80.070702904,41,"1072 CRANFORD ROAD, DENTON, NC, 27239","Match","Exact","1072 CRANFORD RD, DENTON, NC, 27239",649729480,"L"
16042,"1072 DANBURY RD","FAYETTEVILLE","NC",28311,35.106854539,-78.929291497,42,"1072 DANBURY RD, FAYETTEVILLE, NC, 28311","Match","Exact","1072 DANBURY RD, FAYETTEVILLE, NC, 28311",64197891,"R"
16043,"1072 E 10TH ST","ROANOKE RAPIDS","NC",27870,36.4512976300001,-77.647041782,43,"1072 E 10TH ST, ROANOKE RAPIDS, NC, 27870","Match","Exact","1072 E 10TH ST, ROANOKE RAPIDS, NC, 27870",56712372,"R"
16044,"1072 EAGLE DR APT 1305","AKRON","OH",44312,40.9864594040001,-81.4854442829999,44,"1072 EAGLE DR APT 1305, AKRON, OH, 44312","Match","Exact","1072 EAGLE DR, AKRON, OH, 44312",61387733,"R"
16045,"1072 EAST 85TH ST","BROOKLYN","NY",11236,40.6350082110001,-73.9064418789999,45,"1072 EAST 85TH ST, BROOKLYN, NY, 11236","Match","Exact","1072 E 85TH ST, BROOKLYN, NY, 11236",59086482,"R"
16046,"1072 JEFFERSON AVE SE","GRAND RAPIDS","MI",49507,42.944419752,-85.663930078,46,"1072 JEFFERSON AVE SE, GRAND RAPIDS, MI, 49507","Match","Exact","1072 JEFFERSON AVE SE, GRAND RAPIDS, MI, 49507",12459009,"L"
16047,"1072 MADISON AVE","LAKEWOOD","NJ",8701,40.1003907310001,-74.218341547,47,"1072 MADISON AVE, LAKEWOOD, NJ, 8701","Match","Exact","1072 MADISON AVE, LAKEWOOD, NJ, 08701",203817520,"R"
16048,"1072 MADISON AVENUE SUITE 601","LAKEWOOD","NJ",8701,40.1003907310001,-74.218341547,48,"1072 MADISON AVENUE SUITE 601, LAKEWOOD, NJ, 8701","Match","Exact","1072 MADISON AVE, LAKEWOOD, NJ, 08701",203817520,"R"
16049,"1072 MOSBY RD","MEMPHIS","TN",38116,35.0292685520001,-90.028584832,49,"1072 MOSBY RD, MEMPHIS, TN, 38116","Match","Exact","1072 MOSBY RD, MEMPHIS, TN, 38116",72910332,"L"
16050,"1072 NW 83RD AVENUE","PLANTATION","FL",33322,26.136713097,-80.260994908,50,"1072 NW 83RD AVENUE, PLANTATION, FL, 33322","Match","Exact","1072 NW 83RD AVE, PLANTATION, FL, 33322",114762420,"R"
16051,"1072 PALOMINO PASS","WATKINSVILLE","GA",30677,33.888563441,-83.4786846969999,51,"1072 PALOMINO PASS, WATKINSVILLE, GA, 30677","Match","Exact","1072 PALOMINO PASS, WATKINSVILLE, GA, 30677",5041099,"L"
16052,"1072 PEACHTREE STREET  SUITE 7455","ATLANTA","GA",30357,NA,NA,52,"1072 PEACHTREE STREET  SUITE 7455, ATLANTA, GA, 30357","Tie",NA,NA,NA,NA
16053,"1072 PIEDMONT GOLF COURSE ROAD","PIEDMONT","SC",29673,34.722224759,-82.389316535,53,"1072 PIEDMONT GOLF COURSE ROAD, PIEDMONT, SC, 29673","Match","Exact","1072 PIEDMONT GOLF COURSE RD, PIEDMONT, SC, 29673",653326127,"R"
16054,"1072 S DE ANZA BLVD SUITE A107-525","SAN JOSE","CA",95129,NA,NA,54,"1072 S DE ANZA BLVD SUITE A107-525, SAN JOSE, CA, 95129","No_Match",NA,NA,NA,NA
16055,"1072 SOUTH MERRIMAC ROAD","CAMDEN","NJ",8104,39.9021975520001,-75.107894776,55,"1072 SOUTH MERRIMAC ROAD, CAMDEN, NJ, 8104","Match","Exact","1072 S MERRIMAC RD, CAMDEN, NJ, 08104",641381248,"R"
16056,"1072 SWEETGRASS COURT","HENDERSON","NV",89002,35.9916446510001,-114.980705894,56,"1072 SWEETGRASS COURT, HENDERSON, NV, 89002","Match","Exact","1072 SWEETGRASS CT, HENDERSON, NV, 89002",201991255,"L"
16057,"1072 W 60TH PL","MERRILLVILLE","IN",46410,NA,NA,57,"1072 W 60TH PL, MERRILLVILLE, IN, 46410","No_Match",NA,NA,NA,NA
16058,"1072 W PEACHTREE NW ST 77641","ATLANTA","GA",30357,NA,NA,58,"1072 W PEACHTREE NW ST 77641, ATLANTA, GA, 30357","No_Match",NA,NA,NA,NA
16059,"1072 W PEACHTREE ST NE STE 79331","ATLANTA","GA",30309,NA,NA,59,"1072 W PEACHTREE ST NE STE 79331, ATLANTA, GA, 30309","Tie",NA,NA,NA,NA
16060,"1072 W PEACHTREE ST NW SUITE 77203","ATLANTA","GA",30309,NA,NA,60,"1072 W PEACHTREE ST NW SUITE 77203, ATLANTA, GA, 30309","Tie",NA,NA,NA,NA
16061,"1072 W REX ROAD","MEMPHIS","TN",38119,35.102658412,-89.8723199039999,61,"1072 W REX ROAD, MEMPHIS, TN, 38119","Match","Exact","1072 W REX RD, MEMPHIS, TN, 38119",72927261,"R"
16062,"1072 WATERFORD","CASPER","WY",82609,42.837184753,-106.263871503,62,"1072 WATERFORD, CASPER, WY, 82609","Match","Non_Exact","1072 WATERFORD ST, CASPER, WY, 82609",149035692,"R"
16063,"1072 WEST 15TH  STREET NUMBER 3","SAN PEDRO","CA",90731,33.730644957,-118.300514589,63,"1072 WEST 15TH  STREET NUMBER 3, SAN PEDRO, CA, 90731","Match","Exact","1072 W 15TH ST, SAN PEDRO, CA, 90731",141690303,"R"
16064,"1072 WEST PEACHTREE ST NE  SUI79331","ATLANTA","GA",30309,33.784154244,-84.3878308989999,64,"1072 WEST PEACHTREE ST NE  SUI79331, ATLANTA, GA, 30309","Match","Non_Exact","1072 W PEACHTREE ST NW, ATLANTA, GA, 30309",17343448,"L"
16065,"10720 KANIS ROAD","LITTLE ROCK","AR",72211,34.7430387360001,-92.392712707,65,"10720 KANIS ROAD, LITTLE ROCK, AR, 72211","Match","Exact","10720 KANIS RD, LITTLE ROCK, AR, 72211",618994612,"R"
16066,"10720 LITTLE HORSE CREEK AVE","LAS VEGAS","NV",89129,36.2474023840001,-115.330577043,66,"10720 LITTLE HORSE CREEK AVE, LAS VEGAS, NV, 89129","Match","Exact","10720 LITTLE HORSE CREEK AVE, LAS VEGAS, NV, 89129",635800625,"R"
16067,"10720 MIERA DR NW","ALBUQUERQUE","NM",87114,35.210528529,-106.668632789,67,"10720 MIERA DR NW, ALBUQUERQUE, NM, 87114","Match","Exact","10720 MIERA DR NW, ALBUQUERQUE, NM, 87114",206770868,"R"
16068,"10720 NW 66 ST  APT 307","DORAL","FL",33178,25.8334584730001,-80.3811233599999,68,"10720 NW 66 ST  APT 307, DORAL, FL, 33178","Match","Non_Exact","10720 NW 66TH ST, DORAL, FL, 33178",116087904,"L"
16069,"10720 NW 66TH STREET APARTMENT 111","DORAL","FL",33178,25.8334584730001,-80.3811233599999,69,"10720 NW 66TH STREET APARTMENT 111, DORAL, FL, 33178","Match","Non_Exact","10720 NW 66TH ST, DORAL, FL, 33178",116087904,"L"
16070,"10720 THORNMINT RD SUITE C","SAN DIEGO","CA",92127,33.017796397,-117.105792221,70,"10720 THORNMINT RD SUITE C, SAN DIEGO, CA, 92127","Match","Exact","10720 THORNMINT RD, SAN DIEGO, CA, 92127",195654064,"L"
16071,"10720 W INDIAN SCHOOL RD STE 19-148","PHOENIX","AZ",85037,33.4937112060001,-112.291405609,71,"10720 W INDIAN SCHOOL RD STE 19-148, PHOENIX, AZ, 85037","Match","Non_Exact","10720 W INDIAN SCHOOL RD, PHOENIX, AZ, 85037",128421489,"L"
16072,"10720 W INDIAN SCHOOL RD STE 19146","PHOENIX","AZ",85037,33.4937112060001,-112.291405609,72,"10720 W INDIAN SCHOOL RD STE 19146, PHOENIX, AZ, 85037","Match","Non_Exact","10720 W INDIAN SCHOOL RD, PHOENIX, AZ, 85037",128421489,"L"
16073,"10720 W INDIAN SCHOOL RD STE 46","PHOENIX","AZ",85037,33.4937112060001,-112.291405609,73,"10720 W INDIAN SCHOOL RD STE 46, PHOENIX, AZ, 85037","Match","Non_Exact","10720 W INDIAN SCHOOL RD, PHOENIX, AZ, 85037",128421489,"L"
16074,"10720 W INDIAN SCHOOL ROAD","PHOENIX","AZ",85037,33.4937112060001,-112.291405609,74,"10720 W INDIAN SCHOOL ROAD, PHOENIX, AZ, 85037","Match","Exact","10720 W INDIAN SCHOOL RD, PHOENIX, AZ, 85037",128421489,"L"
16075,"10721 BELL ROAD","JOHNS CREEK","GA",30097,34.0420799240001,-84.159256195,75,"10721 BELL ROAD, JOHNS CREEK, GA, 30097","Match","Exact","10721 BELL RD, JOHNS CREEK, GA, 30097",636350027,"L"
16076,"10721 CEDAR WAY","GRASS VALLEY","CA",95945,39.233971868,-121.07517853,76,"10721 CEDAR WAY, GRASS VALLEY, CA, 95945","Match","Exact","10721 CEDAR WAY, GRASS VALLEY, CA, 95945",106535512,"R"
16077,"10721 E JEFFERSON AVE 862","DETROIT","MI",48214,42.3643600890001,-82.97615136,77,"10721 E JEFFERSON AVE 862, DETROIT, MI, 48214","Match","Non_Exact","10721 E JEFFERSON AVE, DETROIT, MI, 48214",95485357,"L"
16078,"10721 E JEFFERSON AVE STE 874","DETROIT","MI",48214,42.3643600890001,-82.97615136,78,"10721 E JEFFERSON AVE STE 874, DETROIT, MI, 48214","Match","Non_Exact","10721 E JEFFERSON AVE, DETROIT, MI, 48214",95485357,"L"
16079,"10721 E JEFFERSON UNIT 705","DETROIT","MI",48214,NA,NA,79,"10721 E JEFFERSON UNIT 705, DETROIT, MI, 48214","No_Match",NA,NA,NA,NA
16080,"10721 RADAR RD NW","BEMIDJI","MN",56601,47.5711699780001,-95.03041211,80,"10721 RADAR RD NW, BEMIDJI, MN, 56601","Match","Exact","10721 RADAR RD NW, BEMIDJI, MN, 56601",635650225,"L"
16081,"10721 SURREY GREEN LANE APT 219","MATTHEWS","NC",28105,NA,NA,81,"10721 SURREY GREEN LANE APT 219, MATTHEWS, NC, 28105","No_Match",NA,NA,NA,NA
16082,"10722 ARROOW ROUTE SUITE 520","RANCHO CUCAMONGA","CA",91730,34.0992037400001,-117.571900941,82,"10722 ARROOW ROUTE SUITE 520, RANCHO CUCAMONGA, CA, 91730","Match","Non_Exact","10722 ARROW RTE, RANCHO CUCAMONGA, CA, 91730",635643063,"L"
16083,"10722 BEVERLY BLVD SUITE P","WHITTIER","CA",90601,33.999280619,-118.056467912,83,"10722 BEVERLY BLVD SUITE P, WHITTIER, CA, 90601","Match","Exact","10722 BEVERLY BLVD, WHITTIER, CA, 90601",142792199,"R"
16084,"10722 GEIST RIDGE CT","FISHERS","IN",46040,39.9436032020001,-85.898637247,84,"10722 GEIST RIDGE CT, FISHERS, IN, 46040","Match","Exact","10722 GEIST RIDGE CT, FISHERS, IN, 46040",29336926,"R"
16085,"10723 HELLEBORE RD","CHARLOTTE","NC",28213,35.3039442830001,-80.698962458,85,"10723 HELLEBORE RD, CHARLOTTE, NC, 28213","Match","Exact","10723 HELLEBORE RD, CHARLOTTE, NC, 28213",70533157,"L"
16086,"10723 KINGS LANE","BERRIEN SPRINGS","MI",49103,41.924058948,-86.343437008,86,"10723 KINGS LANE, BERRIEN SPRINGS, MI, 49103","Match","Exact","10723 KINGS LN, BERRIEN SPRINGS, MI, 49103",119990166,"L"
16087,"10723 N OAK HILLS PARKWAY SUITE A","BATON ROUGE","LA",70810,30.3689880410001,-91.100547274,87,"10723 N OAK HILLS PARKWAY SUITE A, BATON ROUGE, LA, 70810","Match","Non_Exact","10723 N OAK HILLS PKWY, BATON ROUGE, LA, 70810",92204608,"L"
16088,"10723 SCOTT MILL RD","JACKSONVILLE","FL",32223,30.181455494,-81.637431642,88,"10723 SCOTT MILL RD, JACKSONVILLE, FL, 32223","Match","Exact","10723 SCOTT MILL RD, JACKSONVILLE, FL, 32223",83965867,"R"
16089,"10723 WEST DRIVE APT 304","FAIRFAX","VA",22030,38.8412265960001,-77.3164210959999,89,"10723 WEST DRIVE APT 304, FAIRFAX, VA, 22030","Match","Exact","10723 WEST DR, FAIRFAX, VA, 22030",75966643,"L"
16090,"10724 GLEN EAGLE RD","WOODBURY","MN",55129,44.912112257,-92.889180217,90,"10724 GLEN EAGLE RD, WOODBURY, MN, 55129","Match","Exact","10724 GLEN EAGLE RD, WOODBURY, MN, 55129",97812673,"L"
16091,"10724 LEDERER","CHARLOTTE","NC",28277,35.052237598,-80.834842495,91,"10724 LEDERER, CHARLOTTE, NC, 28277","Match","Non_Exact","10724 LEDERER AVE, CHARLOTTE, NC, 28277",70529033,"R"
16092,"10724 WEST DRIVE UNIT 302","FAIRFAX","VA",22030,38.841242606,-77.316448709,92,"10724 WEST DRIVE UNIT 302, FAIRFAX, VA, 22030","Match","Exact","10724 WEST DR, FAIRFAX, VA, 22030",75966643,"R"
16093,"10725 CLEVELAND AVE","KANSAS CITY","KS",66109,39.1335625150001,-94.828515663,93,"10725 CLEVELAND AVE, KANSAS CITY, KS, 66109","Match","Exact","10725 CLEVELAND AVE, KANSAS CITY, KS, 66109",91146015,"L"
16094,"10725 DERRINGER DRIVE","ORLANDO","FL",32829,28.4926079970001,-81.2365219869999,94,"10725 DERRINGER DRIVE, ORLANDO, FL, 32829","Match","Exact","10725 DERRINGER DR, ORLANDO, FL, 32829",94416107,"L"
16095,"10725 EAST CHOLLA LANE","SCOTTSDALE","AZ",85259,33.5897273160001,-111.849623869,95,"10725 EAST CHOLLA LANE, SCOTTSDALE, AZ, 85259","Match","Exact","10725 E CHOLLA LN, SCOTTSDALE, AZ, 85259",128321059,"L"
16096,"10725 NW 30TH PLACE UNIT 6","SUNRISE","FL",33322,26.163785794,-80.2923271079999,96,"10725 NW 30TH PLACE UNIT 6, SUNRISE, FL, 33322","Match","Non_Exact","10725 NW 30TH PL, SUNRISE, FL, 33322",114801844,"R"
16097,"10725 S OCEAN DR LOT 479","JENSEN BEACH","FL",34957,27.2719253870001,-80.2055626969999,97,"10725 S OCEAN DR LOT 479, JENSEN BEACH, FL, 34957","Match","Non_Exact","10725 S OCEAN DR, JENSEN BEACH, FL, 34957",636386277,"L"
16098,"10725 SETTLERS LANE","HANOVER","MN",55341,45.1487901420001,-93.667611498,98,"10725 SETTLERS LANE, HANOVER, MN, 55341","Match","Exact","10725 SETTLERS LN, HANOVER, MN, 55341",43676633,"L"
16099,"10726 AMESBURY WAY","HIGHLANDS RANCH","CO",80126,39.515364984,-104.94704271,99,"10726 AMESBURY WAY, HIGHLANDS RANCH, CO, 80126","Match","Exact","10726 AMESBURY WAY, HIGHLANDS RANCH, CO, 80126",130841053,"L"
16100,"10726 BURGOYNE RD","HOUSTON","TX",77042,29.7417250030001,-95.565562089,100,"10726 BURGOYNE RD, HOUSTON, TX, 77042","Match","Exact","10726 BURGOYNE RD, HOUSTON, TX, 77042",96023601,"R"
16101,"10726 COUNTY ROAD 64","DAPHNE","AL",36526,30.6038096090001,-87.8397436829999,101,"10726 COUNTY ROAD 64, DAPHNE, AL, 36526","Match","Exact","10726 CO RD 64, DAPHNE, AL, 36526",131632668,"L"
16102,"10726 FLAMBEAU PL","LA MESA","CA",91941,32.756464011,-116.962620515,102,"10726 FLAMBEAU PL, LA MESA, CA, 91941","Match","Exact","10726 FLAMBEAU PL, LA MESA, CA, 91941",195409766,"L"
16103,"10726 HALLSTEAD DRIVE","SAINT LOUIS","MO",63136,38.76688245,-90.258801832,103,"10726 HALLSTEAD DRIVE, SAINT LOUIS, MO, 63136","Match","Exact","10726 HALLSTEAD DR, SAINT LOUIS, MO, 63136",100175094,"R"
16104,"10726 LEWIS COURT","KANSAS CITY","MO",64134,38.927333898,-94.488225047,104,"10726 LEWIS COURT, KANSAS CITY, MO, 64134","Match","Exact","10726 LEWIS CT, KANSAS CITY, MO, 64134",91466517,"L"
16105,"10726 MESA DRIVE","HOUSTON","TX",77078,29.86889834,-95.2625121949999,105,"10726 MESA DRIVE, HOUSTON, TX, 77078","Match","Exact","10726 MESA DR, HOUSTON, TX, 77078",96647646,"R"
16106,"10726 NW 58 STREET","DORAL","FL",33178,25.8262069620001,-80.367310676,106,"10726 NW 58 STREET, DORAL, FL, 33178","Match","Exact","10726 NW 58TH ST, DORAL, FL, 33178",648148253,"L"
16107,"10726 SW 41ST AVE","PORTLAND","OR",97219,45.4481815950001,-122.719069177,107,"10726 SW 41ST AVE, PORTLAND, OR, 97219","Match","Exact","10726 SW 41ST AVE, PORTLAND, OR, 97219",647846412,"L"
16108,"10727 134TH STREET","SO RICHMOND HILL","NY",11419,NA,NA,108,"10727 134TH STREET, SO RICHMOND HILL, NY, 11419","No_Match",NA,NA,NA,NA
16109,"10727 ARCHER PT","SAN ANTONIO","TX",78254,29.5097377390001,-98.703321961,109,"10727 ARCHER PT, SAN ANTONIO, TX, 78254","Match","Exact","10727 ARCHER PT, SAN ANTONIO, TX, 78254",619965586,"L"
16110,"10727 E WILLOW RD","ENID","OK",73701,NA,NA,110,"10727 E WILLOW RD, ENID, OK, 73701","No_Match",NA,NA,NA,NA
16111,"10727 WASHINGTON AVE","OSSINEKE","MI",49766,44.9227409630001,-83.42513036,111,"10727 WASHINGTON AVE, OSSINEKE, MI, 49766","Match","Exact","10727 WASHINGTON AVE, OSSINEKE, MI, 49766",135786975,"R"
16112,"10728 AIRE DRIVE","LAS VEGAS","NV",89144,36.173699508,-115.329606797,112,"10728 AIRE DRIVE, LAS VEGAS, NV, 89144","Match","Exact","10728 AIRE DR, LAS VEGAS, NV, 89144",201924771,"R"
16113,"10728 BEACONSFIELD STREET","DETROIT","MI",48224,42.4186242740001,-82.9501329459999,113,"10728 BEACONSFIELD STREET, DETROIT, MI, 48224","Match","Exact","10728 BEACONSFIELD ST, DETROIT, MI, 48224",95469349,"R"
16114,"10728 CHESTNUT HILL DR","MATTHEWS","NC",28105,35.0610710440001,-80.756224872,114,"10728 CHESTNUT HILL DR, MATTHEWS, NC, 28105","Match","Exact","10728 CHESTNUT HILL DR, MATTHEWS, NC, 28105",70568890,"L"
16115,"10728 DUPREY ST","DETROIT","MI",48224,42.423085137,-82.93591501,115,"10728 DUPREY ST, DETROIT, MI, 48224","Match","Exact","10728 DUPREY ST, DETROIT, MI, 48224",95486665,"R"
16116,"10728 MANDYA COURT","BOYNTON BEACH","FL",33437,26.5178475390001,-80.145223172,116,"10728 MANDYA COURT, BOYNTON BEACH, FL, 33437","Match","Exact","10728 MANDYA CT, BOYNTON BEACH, FL, 33437",115483359,"L"
16117,"10728 S MORNINGSIDE DR","GOODYEAR","AZ",85338,33.3490043850001,-112.433187904,117,"10728 S MORNINGSIDE DR, GOODYEAR, AZ, 85338","Match","Exact","10728 MORNINGSIDE DR, GOODYEAR, AZ, 85338",128367773,"R"
16118,"10728 TWIN LAKES PARKWAY NW","ELK RIVER","MN",55330,45.3140849330001,-93.5394401629999,118,"10728 TWIN LAKES PARKWAY NW, ELK RIVER, MN, 55330","Match","Exact","10728 TWIN LAKES PKWY NW, ELK RIVER, MN, 55330",97785499,"L"
16119,"10729 CAMBRIDGE COURT","BURNSVILLE","MN",55337,44.8088161690001,-93.235520824,119,"10729 CAMBRIDGE COURT, BURNSVILLE, MN, 55337","Match","Exact","10729 CAMBRIDGE CT, BURNSVILLE, MN, 55337",37940047,"R"
16120,"10729 GRAPE STREET","LOS ANGELES","CA",90059,33.9385941790001,-118.236915628,120,"10729 GRAPE STREET, LOS ANGELES, CA, 90059","Match","Exact","10729 GRAPE ST, LOS ANGELES, CA, 90059",642861341,"R"
16121,"10729 STAGG ST","SUN VALLEY","CA",91352,34.2120771400001,-118.36447516,121,"10729 STAGG ST, SUN VALLEY, CA, 91352","Match","Exact","10729 STAGG ST, SUN VALLEY, CA, 91352",141586845,"R"
16122,"1072B TAFELSKI ROAD","NEW WAVERLY","TX",77358,30.567254572,-95.4969280509999,122,"1072B TAFELSKI ROAD, NEW WAVERLY, TX, 77358","Match","Exact","1072 TAFELSKI RD, NEW WAVERLY, TX, 77358",22203702,"R"
16123,"1073 ARLINGTON BLVD","EL CERRITO","CA",94530,37.921829245,-122.291468172,123,"1073 ARLINGTON BLVD, EL CERRITO, CA, 94530","Match","Exact","1073 ARLINGTON BLVD, EL CERRITO, CA, 94530",192103254,"L"
16124,"1073 BRIARWOOD DRIVE","LEXINGTON","KY",40511,38.0818938460001,-84.503743792,124,"1073 BRIARWOOD DRIVE, LEXINGTON, KY, 40511","Match","Exact","1073 BRIARWOOD DR, LEXINGTON, KY, 40511",31946729,"R"
16125,"1073 CATALINA E DR","NEW PALESTINE","IN",46163,39.7708567610001,-85.891523575,125,"1073 CATALINA E DR, NEW PALESTINE, IN, 46163","Match","Exact","1073 CATALINA EAST DR, NEW PALESTINE, IN, 46163",31077116,"L"
16126,"1073 CLOVER AVENUE","CANON CITY","CO",81212,38.4551242920001,-105.23486939,126,"1073 CLOVER AVENUE, CANON CITY, CO, 81212","Match","Exact","1073 CLOVER AVE, CANON CITY, CO, 81212",108288153,"R"
16127,"1073 CORUM CIRCLE","EAST WENATCHEE","WA",98802,47.4204310530001,-120.289917921,127,"1073 CORUM CIRCLE, EAST WENATCHEE, WA, 98802","Match","Exact","1073 CORUM CIR, EAST WENATCHEE, WA, 98802",156906417,"L"
16128,"1073 E 146TH ST","CLEVELAND","OH",44110,41.5500156300001,-81.579473021,128,"1073 E 146TH ST, CLEVELAND, OH, 44110","Match","Exact","1073 E 146TH ST, CLEVELAND, OH, 44110",61121123,"L"
16129,"1073 EAST 12TH STREET","BROOKLYN","NY",11230,40.623148653,-73.963836634,129,"1073 EAST 12TH STREET, BROOKLYN, NY, 11230","Match","Exact","1073 E 12TH ST, BROOKLYN, NY, 11230",59089654,"L"
16130,"1073 EAST BALDY SPRING PLACE","GREEN VALLEY","AZ",85614,31.8510053210001,-110.963697544,130,"1073 EAST BALDY SPRING PLACE, GREEN VALLEY, AZ, 85614","Match","Exact","1073 E BALDY SPRING PL, GREEN VALLEY, AZ, 85614",121402309,"L"
16131,"1073 LOREAUVILLE HIGHWAY","SAINT MARTINVILLE","LA",70582,30.0888581090001,-91.820344286,131,"1073 LOREAUVILLE HIGHWAY, SAINT MARTINVILLE, LA, 70582","Match","Exact","1073 LOREAUVILLE HWY, SAINT MARTINVILLE, LA, 70582",85824947,"L"
16132,"1073 METHVEN COURT","HERNDON","VA",20170,39.0060545310001,-77.363918767,132,"1073 METHVEN COURT, HERNDON, VA, 20170","Match","Exact","1073 METHVEN CT, HERNDON, VA, 20170",215954669,"R"
16133,"1073 N HIDDEN COVE LN","LEHI","UT",84043,40.400785297,-111.841754832,133,"1073 N HIDDEN COVE LN, LEHI, UT, 84043","Match","Exact","1073 HIDDEN COVE LN, LEHI, UT, 84043",227055174,"L"
16134,"1073 NORTH BENSON ROAD","FAIRFIELD","CT",6824,41.160861992,-73.253852963,134,"1073 NORTH BENSON ROAD, FAIRFIELD, CT, 6824","Match","Exact","1073 N BENSON RD, FAIRFIELD, CT, 06824",647172042,"L"
16135,"1073 PENNINGTON RD","EWING","NJ",8618,40.245032404,-74.775675243,135,"1073 PENNINGTON RD, EWING, NJ, 8618","Match","Exact","1073 PENNINGTON RD, EWING, NJ, 08618",60177280,"L"
16136,"1073 ROSS AVE STE D","EL CENTRO","CA",92243,32.781500825,-115.564675339,136,"1073 ROSS AVE STE D, EL CENTRO, CA, 92243","Match","Exact","1073 ROSS AVE, EL CENTRO, CA, 92243",194532994,"R"
16137,"1073 S PALOMINO CREEK DRIVE","GILBERT","AZ",85296,33.330682247,-111.761728972,137,"1073 S PALOMINO CREEK DRIVE, GILBERT, AZ, 85296","Match","Exact","1073 S PALOMINO CREEK DR, GILBERT, AZ, 85296",128968063,"L"
16138,"1073 SOUTHWOOD DRIVE","VILLA RICA","GA",30180,33.7462261200001,-84.880045567,138,"1073 SOUTHWOOD DRIVE, VILLA RICA, GA, 30180","Match","Exact","1073 SOUTHWOOD DR, VILLA RICA, GA, 30180",629550399,"L"
16139,"1073 STANHOPE KELLOGGSVILLE RD","DORSET","OH",44032,41.7212166630001,-80.626013702,139,"1073 STANHOPE KELLOGGSVILLE RD, DORSET, OH, 44032","Match","Exact","1073 STANHOPE KELLOGGSVILLE RD, DORSET, OH, 44032",117320434,"L"
16140,"1073 SW FACET AVE","PORT SAINT LUCIE","FL",34953,27.213167852,-80.38250515,140,"1073 SW FACET AVE, PORT SAINT LUCIE, FL, 34953","Match","Exact","1073 SW FACET AVE, PORT ST LUCIE, FL, 34953",120159983,"R"
16141,"1073 SYDNEY COURT","UPLAND","CA",91786,NA,NA,141,"1073 SYDNEY COURT, UPLAND, CA, 91786","No_Match",NA,NA,NA,NA
16142,"1073 WILLIAMSBURG DR","SCHERTZ","TX",78154,29.560589454,-98.261153662,142,"1073 WILLIAMSBURG DR, SCHERTZ, TX, 78154","Match","Exact","1073 WILLIAMSBURG DR, SCHERTZ, TX, 78154",54824340,"L"
16143,"1073 WILLOW STREET","FARIBAULT","MN",55021,44.2786499970001,-93.273407258,143,"1073 WILLOW STREET, FARIBAULT, MN, 55021","Match","Exact","1073 WILLOW ST, FARIBAULT, MN, 55021",37318047,"R"
16144,"1073 ZION ROAD","GORDONSVILLE","VA",22942,37.9857791590001,-78.230746258,144,"1073 ZION ROAD, GORDONSVILLE, VA, 22942","Match","Exact","1073 ZION RD, GORDONSVILLE, VA, 22942",84929762,"L"
16145,"10730 ARTESIA BLVD","CERRITOS","CA",90703,33.872936419,-118.105401197,145,"10730 ARTESIA BLVD, CERRITOS, CA, 90703","Match","Exact","10730 ARTESIA BLVD, CERRITOS, CA, 90703",142664651,"R"
16146,"10730 BARKER CYPRESS RD STE C 309","CYPRESS","TX",77433,29.9324325380001,-95.683198053,146,"10730 BARKER CYPRESS RD STE C 309, CYPRESS, TX, 77433","Match","Exact","10730 BARKER CYPRESS RD, CYPRESS, TX, 77433",644883171,"L"
16147,"10730 GLENORA DR APT 310","HOUSTON","TX",77065,29.9281932480001,-95.596760553,147,"10730 GLENORA DR APT 310, HOUSTON, TX, 77065","Match","Exact","10730 GLENORA DR, HOUSTON, TX, 77065",96579544,"R"
16148,"10730 GLENORA DRIVE  405","HOUSTON","TX",77065,29.9281932480001,-95.596760553,148,"10730 GLENORA DRIVE  405, HOUSTON, TX, 77065","Match","Exact","10730 GLENORA DR, HOUSTON, TX, 77065",96579544,"R"
16149,"10730 JOHNSON STREET","CLINTON","LA",70722,30.8584969,-91.0270777919999,149,"10730 JOHNSON STREET, CLINTON, LA, 70722","Match","Non_Exact","10730 JOHNSON, CLINTON, LA, 70722",642851033,"R"
16150,"10730 N 56TH ST STE 206","TAMPA","FL",33617,NA,NA,150,"10730 N 56TH ST STE 206, TAMPA, FL, 33617","No_Match",NA,NA,NA,NA
16151,"10730 NW 56TH COURT","CORAL SPRINGS","FL",33076,26.3000894210001,-80.2722850219999,151,"10730 NW 56TH COURT, CORAL SPRINGS, FL, 33076","Match","Exact","10730 NW 56TH CT, CORAL SPRINGS, FL, 33076",114800271,"R"
16152,"10730 POTRANCO ROAD SUITE 122-152","SAN ANTONIO","TX",78251,29.4356036230001,-98.7023663049999,152,"10730 POTRANCO ROAD SUITE 122-152, SAN ANTONIO, TX, 78251","Match","Exact","10730 POTRANCO RD, SAN ANTONIO, TX, 78251",649934324,"R"
16153,"10730 POTRANCO ROAD SUITE 122-238","SAN ANTONIO","TX",78251,29.4356036230001,-98.7023663049999,153,"10730 POTRANCO ROAD SUITE 122-238, SAN ANTONIO, TX, 78251","Match","Exact","10730 POTRANCO RD, SAN ANTONIO, TX, 78251",649934324,"R"
16154,"10730 POTRANCO ROAD SUITE 122-282","SAN ANTONIO","TX",78251,29.4356036230001,-98.7023663049999,154,"10730 POTRANCO ROAD SUITE 122-282, SAN ANTONIO, TX, 78251","Match","Exact","10730 POTRANCO RD, SAN ANTONIO, TX, 78251",649934324,"R"
16155,"10730 POTRANO RD STE 122-556","SAN ANTONIO","TX",78251,NA,NA,155,"10730 POTRANO RD STE 122-556, SAN ANTONIO, TX, 78251","No_Match",NA,NA,NA,NA
16156,"10730 W 118TH TERRACE","OVERLAND PARK KS","KS",66210,38.9142018680001,-94.710329176,156,"10730 W 118TH TERRACE, OVERLAND PARK KS, KS, 66210","Match","Non_Exact","10730 W 118TH TER, OVERLAND PARK, KS, 66210",91335351,"L"
16157,"10731 BEECHNUT COURT","FAIRFAX STATION","VA",22039,38.759217672,-77.316195237,157,"10731 BEECHNUT COURT, FAIRFAX STATION, VA, 22039","Match","Exact","10731 BEECHNUT CT, FAIRFAX STATION, VA, 22039",647348797,"R"
16158,"10731 JOHNSON AVE","CUPERTINO","CA",95014,37.3109082390001,-122.002659544,158,"10731 JOHNSON AVE, CUPERTINO, CA, 95014","Match","Exact","10731 JOHNSON AVE, CUPERTINO, CA, 95014",122942115,"R"
16159,"10731 LURLINE AVE","CHATSWORTH","CA",91311,34.2655175080001,-118.584209801,159,"10731 LURLINE AVE, CHATSWORTH, CA, 91311","Match","Exact","10731 LURLINE AVE, CHATSWORTH, CA, 91311",141532135,"L"
16160,"10731 PROUTY ROAD","CONCORD TWP","OH",44077,41.679068268,-81.2551823329999,160,"10731 PROUTY ROAD, CONCORD TWP, OH, 44077","Match","Exact","10731 PROUTY RD, CONCORD TWP, OH, 44077",137465563,"L"
16161,"10731 RAU ROAD","ELK GROVE","CA",95757,38.3678460090001,-121.403741961,161,"10731 RAU ROAD, ELK GROVE, CA, 95757","Match","Exact","10731 RAU RD, ELK GROVE, CA, 95757",133316166,"L"
16162,"10732 141ST STREET","VERNADALE","MN",56580,NA,NA,162,"10732 141ST STREET, VERNADALE, MN, 56580","No_Match",NA,NA,NA,NA
16163,"10732 154TH PL NE","REDMOND","WA",98052,47.695780863,-122.134419595,163,"10732 154TH PL NE, REDMOND, WA, 98052","Match","Exact","10732 154TH PL NE, REDMOND, WA, 98052",627377440,"L"
16164,"10732 MIERAS DRIVE 18","SPARTA","MI",49345,43.1594248930001,-85.638524667,164,"10732 MIERAS DRIVE 18, SPARTA, MI, 49345","Match","Non_Exact","10732 MIERAS DR NE, SPARTA, MI, 49345",12487869,"L"
16165,"10732 SOUTH MALL DRIVE","BATON ROUGE","LA",70809,30.3773301850001,-91.059320809,165,"10732 SOUTH MALL DRIVE, BATON ROUGE, LA, 70809","Match","Non_Exact","10732 N MALL DR, BATON ROUGE, LA, 70809",653318336,"R"
16166,"10732 WILLIAM TELL DRIVE","ORLANDO","FL",32821,28.4109283760001,-81.448529438,166,"10732 WILLIAM TELL DRIVE, ORLANDO, FL, 32821","Match","Exact","10732 WILLIAM TELL DR, ORLANDO, FL, 32821",94316844,"L"
16167,"10733 E RAINDANCE ST","SIERRA VISTA","AZ",85635,31.5800776720001,-110.111037652,167,"10733 E RAINDANCE ST, SIERRA VISTA, AZ, 85635","Match","Exact","10733 E RAINDANCE ST, SIERRA VISTA, AZ, 85635",120962383,"L"
16168,"10733 REVERE ROAD","MOKENA","IL",60448,41.5393483130001,-87.8788320199999,168,"10733 REVERE ROAD, MOKENA, IL, 60448","Match","Exact","10733 REVERE RD, MOKENA, IL, 60448",111621783,"R"
16169,"10733 STATE ROUTE 150","RAYLAND","OH",43943,40.190909919,-80.722291758,169,"10733 STATE ROUTE 150, RAYLAND, OH, 43943","Match","Exact","10733 STATE RTE 150, RAYLAND, OH, 43943",605776395,"R"
16170,"10734 FLAXTON ST","CULVER CITY","CA",90230,33.999678811,-118.388612806,170,"10734 FLAXTON ST, CULVER CITY, CA, 90230","Match","Exact","10734 FLAXTON ST, CULVER CITY, CA, 90230",141575706,"L"
16171,"10734 SILVERBROOK DRIVE","CINCINNATI","OH",45240,39.2696562530001,-84.542260024,171,"10734 SILVERBROOK DRIVE, CINCINNATI, OH, 45240","Match","Exact","10734 SILVERBROOK DR, CINCINNATI, OH, 45240",103942958,"R"
16172,"10735 COUNTY ROAD F","MERRILL","WI",54452,NA,NA,172,"10735 COUNTY ROAD F, MERRILL, WI, 54452","No_Match",NA,NA,NA,NA
16173,"10735 EMERALD CHASE DRIVE","ORLANDO","FL",32836,28.410216964,-81.509125021,173,"10735 EMERALD CHASE DRIVE, ORLANDO, FL, 32836","Match","Exact","10735 EMERALD CHASE DR, ORLANDO, FL, 32836",637548428,"R"
16174,"10735 HYSSOP ST","PORT RICHEY","FL",34668,28.31365014,-82.6913147779999,174,"10735 HYSSOP ST, PORT RICHEY, FL, 34668","Match","Exact","10735 HYSSOP ST, PORT RICHEY, FL, 34668",86336270,"L"
16175,"10735 S APPLERIDGE LANE","OLATHE","KS",66061,38.933738545,-94.868000858,175,"10735 S APPLERIDGE LANE, OLATHE, KS, 66061","Match","Exact","10735 S APPLERIDGE LN, OLATHE, KS, 66061",619899864,"L"
16176,"10735 SERRENTO HL","HELOTES","TX",78023,29.5422124030001,-98.704140896,176,"10735 SERRENTO HL, HELOTES, TX, 78023","Match","Exact","10735 SERRENTO HL, HELOTES, TX, 78023",650914970,"L"
16177,"10735 SW CANTERBURY LANE 101","TIGARD","OR",97224,45.41481416,-122.787153717,177,"10735 SW CANTERBURY LANE 101, TIGARD, OR, 97224","Match","Non_Exact","10735 SW CANTERBURY LN, TIGARD, OR, 97224",158230898,"R"
16178,"10735 TRASK DRIVE","SAINT LOUIS","MO",63136,38.7688493740001,-90.269261334,178,"10735 TRASK DRIVE, SAINT LOUIS, MO, 63136","Match","Exact","10735 TRASK DR, SAINT LOUIS, MO, 63136",628738331,"L"
16179,"10735 WEST 132ND PLACE","OVERLAND PARK","KS",66213,NA,NA,179,"10735 WEST 132ND PLACE, OVERLAND PARK, KS, 66213","Tie",NA,NA,NA,NA
16180,"10736 FALLING WATER LANE UNIT A","WOODBURY","MN",55129,44.9206924200001,-92.8898313719999,180,"10736 FALLING WATER LANE UNIT A, WOODBURY, MN, 55129","Match","Exact","10736 FALLING WATER LN, WOODBURY, MN, 55129",614158588,"R"
16181,"10736 JEFFERSON BLVD - SUITE 803","CULVER CITY","CA",90230,34.0033060280001,-118.39380896,181,"10736 JEFFERSON BLVD - SUITE 803, CULVER CITY, CA, 90230","Match","Exact","10736 JEFFERSON BLVD, CULVER CITY, CA, 90230",141575548,"L"
16182,"10736 JEFFERSON BLVD STE 142","CULVER CITY","CA",90230,34.0033060280001,-118.39380896,182,"10736 JEFFERSON BLVD STE 142, CULVER CITY, CA, 90230","Match","Exact","10736 JEFFERSON BLVD, CULVER CITY, CA, 90230",141575548,"L"
16183,"10736 JEFFERSON BLVD STE 917","CULVER CITY","CA",90230,34.0033060280001,-118.39380896,183,"10736 JEFFERSON BLVD STE 917, CULVER CITY, CA, 90230","Match","Exact","10736 JEFFERSON BLVD, CULVER CITY, CA, 90230",141575548,"L"
16184,"10736 JEFFERSON BLVD STE747","CULVER CITY","CA",90230,34.0033060280001,-118.39380896,184,"10736 JEFFERSON BLVD STE747, CULVER CITY, CA, 90230","Match","Exact","10736 JEFFERSON BLVD, CULVER CITY, CA, 90230",141575548,"L"
16185,"10736 JEFFERSON BLVD SUITE 695","CULVER CITY","CA",90230,34.0033060280001,-118.39380896,185,"10736 JEFFERSON BLVD SUITE 695, CULVER CITY, CA, 90230","Match","Exact","10736 JEFFERSON BLVD, CULVER CITY, CA, 90230",141575548,"L"
16186,"10736 JEFFERSON BOULEVARD","CULVER CITY","CA",90230,34.0033060280001,-118.39380896,186,"10736 JEFFERSON BOULEVARD, CULVER CITY, CA, 90230","Match","Exact","10736 JEFFERSON BLVD, CULVER CITY, CA, 90230",141575548,"L"
16187,"10736 MIDDLEBURY WAY","HIGHLANDS RANCH","CO",80126,39.520765285,-104.954262646,187,"10736 MIDDLEBURY WAY, HIGHLANDS RANCH, CO, 80126","Match","Exact","10736 MIDDLEBURY WAY, HIGHLANDS RANCH, CO, 80126",130841846,"R"
16188,"10736 PLANTATION BAY DR","TAMPA","FL",33647,28.148867115,-82.290531753,188,"10736 PLANTATION BAY DR, TAMPA, FL, 33647","Match","Exact","10736 PLANTATION BAY DR, TAMPA, FL, 33647",104613385,"L"
16189,"10736 S EBERHART AVE","CHICAGO","IL",60628,41.699173973,-87.6111074739999,189,"10736 S EBERHART AVE, CHICAGO, IL, 60628","Match","Exact","10736 S EBERHART AVE, CHICAGO, IL, 60628",605591823,"R"
16190,"10737 DOMAIN DRIVE SUITE 119","AUSTIN","TX",78758,30.3930282910001,-97.725423352,190,"10737 DOMAIN DRIVE SUITE 119, AUSTIN, TX, 78758","Match","Exact","10737 DOMAIN DR, AUSTIN, TX, 78758",640743378,"R"
16191,"10737 JOYCETON DRIVE","UPPER MARLBORO","MD",20774,38.893831484,-76.82005723,191,"10737 JOYCETON DRIVE, UPPER MARLBORO, MD, 20774","Match","Exact","10737 JOYCETON DR, UPPER MARLBORO, MD, 20774",76331726,"L"
16192,"10737 WHITEHILL ST","DETROIT","MI",48224,42.4152616470001,-82.960107067,192,"10737 WHITEHILL ST, DETROIT, MI, 48224","Match","Exact","10737 WHITEHILL ST, DETROIT, MI, 48224",95469484,"L"
16193,"10738 CRISWELL RD","FREDERICKSBURG","OH",44627,40.669062566,-81.8176924209999,193,"10738 CRISWELL RD, FREDERICKSBURG, OH, 44627","Match","Exact","10738 CRISWELL RD, FREDERICKSBURG, OH, 44627",58727893,"R"
16194,"10738 DURLAND AVE NE","SEATTLE","WA",98125,47.7076374060001,-122.278216776,194,"10738 DURLAND AVE NE, SEATTLE, WA, 98125","Match","Exact","10738 DURLAND AVE NE, SEATTLE, WA, 98125",186586090,"R"
16195,"10738 EAGLE RIDGE DR","ORLAND PARK","IL",60467,41.560643783,-87.879230894,195,"10738 EAGLE RIDGE DR, ORLAND PARK, IL, 60467","Match","Exact","10738 EAGLE RIDGE DR, ORLAND PARK, IL, 60467",111871346,"L"
16196,"10738 ENCINO DR","OAK VIEW","CA",93022,34.404212477,-119.288750605,196,"10738 ENCINO DR, OAK VIEW, CA, 93022","Match","Exact","10738 ENCINO DR, OAK VIEW, CA, 93022",110018590,"R"
16197,"10738 POINTER RIDGE DRIVE","CHARLOTTE","NC",28214,35.305484635,-80.9928761639999,197,"10738 POINTER RIDGE DRIVE, CHARLOTTE, NC, 28214","Match","Exact","10738 POINTER RIDGE DR, CHARLOTTE, NC, 28214",652257214,"L"
16198,"1074 BELVEDERE DRIVE","SLIDELL","LA",70458,30.2878044,-89.774912446,198,"1074 BELVEDERE DRIVE, SLIDELL, LA, 70458","Match","Exact","1074 BELVEDERE DR, SLIDELL, LA, 70458",111289625,"R"
16199,"1074 BREEZE WAY","LATROBE","PA",15650,40.3117979370001,-79.3524363669999,199,"1074 BREEZE WAY, LATROBE, PA, 15650","Match","Exact","1074 BREEZE WAY, LATROBE, PA, 15650",52950558,"R"
16200,"1074 CONEY ISLAND AVENUE","BROOKLYN","NY",11230,40.6312142520001,-73.966500675,200,"1074 CONEY ISLAND AVENUE, BROOKLYN, NY, 11230","Match","Exact","1074 CONEY ISLAND AVE, BROOKLYN, NY, 11230",59081126,"R"
16201,"1074 HARTS BLUFF RD","WADMALAW ISLAND","SC",29487,32.6967074950001,-80.1938887109999,201,"1074 HARTS BLUFF RD, WADMALAW ISLAND, SC, 29487","Match","Exact","1074 HARTS BLUFF RD, WADMALAW ISLAND, SC, 29487",617155702,"R"
16202,"1074 HEMLOCK DRIVE","BLUE BELL","PA",19422,40.1611101930001,-75.274525646,202,"1074 HEMLOCK DRIVE, BLUE BELL, PA, 19422","Match","Exact","1074 HEMLOCK DR, BLUE BELL, PA, 19422",135076208,"L"
16203,"1074 HIGHLAND WAY","SANTA FE","NM",87507,35.6428603840001,-106.042121764,203,"1074 HIGHLAND WAY, SANTA FE, NM, 87507","Match","Exact","1074 HIGHLAND WAY, SANTA FE, NM, 87507",169425014,"R"
16204,"1074 HIGHWAY 1 AND 78","RICHLAND","IA",52585,41.177627402,-91.927904063,204,"1074 HIGHWAY 1 AND 78, RICHLAND, IA, 52585","Match","Non_Exact","1074 STATE HWY 1, RICHLAND, IA, 52585",651920000,"R"
16205,"1074 HYDE PARK AVE  SUITE4","HYDE PARK","MA",2136,42.262542259,-71.121663911,205,"1074 HYDE PARK AVE  SUITE4, HYDE PARK, MA, 2136","Match","Exact","1074 HYDE PARK AVE, HYDE PARK, MA, 02136",85704435,"L"
16206,"1074 N SWAN","TUCSON","AZ",85711,32.235123253,-110.892574053,206,"1074 N SWAN, TUCSON, AZ, 85711","Match","Non_Exact","1074 N SWAN RD, TUCSON, AZ, 85711",652597242,"R"
16207,"1074 PEACHTREE WALK NE","ATLANTA","GA",30309,33.784191417,-84.386289566,207,"1074 PEACHTREE WALK NE, ATLANTA, GA, 30309","Match","Exact","1074 PEACHTREE WALK NE, ATLANTA, GA, 30309",17343469,"L"
16208,"1074 PLEASANT VIEW LANE","LOOGOOTEE","IN",47553,38.6717097050001,-86.9001641259999,208,"1074 PLEASANT VIEW LANE, LOOGOOTEE, IN, 47553","Match","Exact","1074 PLEASANT VIEW LN, LOOGOOTEE, IN, 47553",32112537,"R"
16209,"1074 S CLOVERDALE AVE","LOS ANGELES","CA",90019,34.0554294,-118.348643249,209,"1074 S CLOVERDALE AVE, LOS ANGELES, CA, 90019","Match","Exact","1074 S CLOVERDALE AVE, LOS ANGELES, CA, 90019",652035445,"L"
16210,"1074 S SEAWARD AVE","VENTURA","CA",93001,34.263758625,-119.272751906,210,"1074 S SEAWARD AVE, VENTURA, CA, 93001","Match","Exact","1074 S SEAWARD AVE, VENTURA, CA, 93001",109951485,"L"
16211,"1074 SCENIC DR","KNOXVILLE","TN",37919,35.934506114,-83.972452682,211,"1074 SCENIC DR, KNOXVILLE, TN, 37919","Match","Exact","1074 SCENIC DR, KNOXVILLE, TN, 37919",604624894,"L"
16212,"1074 W TAYLOR ST 203","CHICAGO","IL",60607,41.869474084,-87.653712782,212,"1074 W TAYLOR ST 203, CHICAGO, IL, 60607","Match","Non_Exact","1074 W TAYLOR ST, CHICAGO, IL, 60607",111827293,"R"
16213,"1074 W TAYLOR ST UNIT 113","CHICAGO","IL",60607,41.869474084,-87.653712782,213,"1074 W TAYLOR ST UNIT 113, CHICAGO, IL, 60607","Match","Non_Exact","1074 W TAYLOR ST, CHICAGO, IL, 60607",111827293,"R"
16214,"1074 WEST TAYLOR STREET","CHICAGO","IL",60607,41.869474451,-87.65369421,214,"1074 WEST TAYLOR STREET, CHICAGO, IL, 60607","Match","Exact","1074 W TAYLOR ST, CHICAGO, IL, 60607",111827293,"R"
16215,"1074 WESTWOOD DR","MOORESVILLE","IN",46158,39.6291660480001,-86.3698742569999,215,"1074 WESTWOOD DR, MOORESVILLE, IN, 46158","Match","Exact","1074 WESTWOOD DR, MOORESVILLE, IN, 46158",43549584,"R"
16216,"10740 FLORRIE PL","BATON ROUGE","LA",70818,30.5452400620001,-91.067386262,216,"10740 FLORRIE PL, BATON ROUGE, LA, 70818","Match","Exact","10740 FLORRIE PL, BATON ROUGE, LA, 70818",92205618,"L"
16217,"10740 LACROSSE AVENUE","OAK LAWN","IL",60453,41.6974458710001,-87.7411973279999,217,"10740 LACROSSE AVENUE, OAK LAWN, IL, 60453","Match","Exact","10740 LACROSSE AVE, OAK LAWN, IL, 60453",111818301,"R"
16218,"10740 NE WALKER ROAD","HILLSBORO","OR",97006,45.5286243800001,-122.869788408,218,"10740 NE WALKER ROAD, HILLSBORO, OR, 97006","Match","Non_Exact","10740 NW WALKER RD, HILLSBORO, OR, 97006",158199885,"L"
16219,"10740 STARBOARD WAY","EDMOND","OK",73025,35.7659242140001,-97.5018089339999,219,"10740 STARBOARD WAY, EDMOND, OK, 73025","Match","Exact","10740 STARBOARD WAY, EDMOND, OK, 73025",646745707,"R"
16220,"10740 SW LUCAS DRIVE","TUALATIN","OR",97062,45.3928397350001,-122.787586733,220,"10740 SW LUCAS DRIVE, TUALATIN, OR, 97062","Match","Exact","10740 SW LUCAS DR, TUALATIN, OR, 97062",639781476,"L"
16221,"10740 WEATHERSTONE COURT","LOVELAND","OH",45140,39.258329308,-84.3076776249999,221,"10740 WEATHERSTONE COURT, LOVELAND, OH, 45140","Match","Non_Exact","10740 WEATHER STONE CT, LOVELAND, OH, 45140",103979870,"L"
16222,"10741 FINGERBOARD RD","IJAMSVILLE","MD",21754,39.3479002010001,-77.291128005,222,"10741 FINGERBOARD RD, IJAMSVILLE, MD, 21754","Match","Exact","10741 FINGERBOARD RD, IJAMSVILLE, MD, 21754",60733981,"L"
16223,"10741 HWY 182","FRANKLIN","LA",70538,29.769087477,-91.4776377169999,223,"10741 HWY 182, FRANKLIN, LA, 70538","Match","Non_Exact","10741 STATE RTE 182, FRANKLIN, LA, 70538",639840870,"L"
16224,"10741 N CLEAR LAKE LN","FRESNO","CA",93730,36.8923271630001,-119.769418716,224,"10741 N CLEAR LAKE LN, FRESNO, CA, 93730","Match","Exact","10741 N CLEAR LAKE LN, FRESNO, CA, 93730",197617279,"L"
16225,"10741 SOUTH COUNTY ROAD 850 EAST","CLOVERDALE","IN",46120,39.502640989,-86.6969823429999,225,"10741 SOUTH COUNTY ROAD 850 EAST, CLOVERDALE, IN, 46120","Match","Exact","10741 S CO RD 850 E, CLOVERDALE, IN, 46120",50108644,"R"
16226,"10741 TAVISTOCK DR","TAMPA","FL",33626,28.050777479,-82.604292675,226,"10741 TAVISTOCK DR, TAMPA, FL, 33626","Match","Exact","10741 TAVISTOCK DR, TAMPA, FL, 33626",104619177,"R"
16227,"10741 TOLEDO AVE","OSCEOLA","IN",46561,41.6898025090001,-86.075855656,227,"10741 TOLEDO AVE, OSCEOLA, IN, 46561","Match","Exact","10741 TOLEDO AVE, OSCEOLA, IN, 46561",8064646,"R"
16228,"10741 TYSON ROAD","ORLANDO","FL",32832,28.3782004460001,-81.2322677399999,228,"10741 TYSON ROAD, ORLANDO, FL, 32832","Match","Exact","10741 TYSON RD, ORLANDO, FL, 32832",650146443,"L"
16229,"10741 WEST EL CORTEZ PL 2190","PEORIA","AZ",85383,33.71683835,-112.285521574,229,"10741 WEST EL CORTEZ PL 2190, PEORIA, AZ, 85383","Match","Exact","10741 W EL CORTEZ PL, PEORIA, AZ, 85383",619140769,"L"
16230,"10741 WEST EL CORTEZ PLACE APT 1134","PEORIA","AZ",85383,33.71683835,-112.285521574,230,"10741 WEST EL CORTEZ PLACE APT 1134, PEORIA, AZ, 85383","Match","Exact","10741 W EL CORTEZ PL, PEORIA, AZ, 85383",619140769,"L"
16231,"10742 DURLAND AVE NE","SEATTLE","WA",98125,47.707658618,-122.278226838,231,"10742 DURLAND AVE NE, SEATTLE, WA, 98125","Match","Exact","10742 DURLAND AVE NE, SEATTLE, WA, 98125",186586090,"R"
16232,"10742 SW NAEVE ST","TIGARD","OR",97224,45.4081260040001,-122.787739835,232,"10742 SW NAEVE ST, TIGARD, OR, 97224","Match","Exact","10742 SW NAEVE ST, TIGARD, OR, 97224",158216244,"R"
16233,"10743 CRANE DR","INDIANAPOLIS","IN",46231,39.745525969,-86.329661019,233,"10743 CRANE DR, INDIANAPOLIS, IN, 46231","Match","Exact","10743 CRANE DR, INDIANAPOLIS, IN, 46231",89236356,"L"
16234,"10743 E MCNELLY RD","PEA RIDGE","AR",72751,36.4571740710001,-94.141471952,234,"10743 E MCNELLY RD, PEA RIDGE, AR, 72751","Match","Exact","10743 E MCNELLY RD, PEA RIDGE, AR, 72751",645668142,"L"
16235,"10743 LIBERTY CHAPEL RD","MOUNT VERNON","OH",43050,40.3952496970001,-82.564173415,235,"10743 LIBERTY CHAPEL RD, MOUNT VERNON, OH, 43050","Match","Exact","10743 LIBERTY CHAPEL RD, MOUNT VERNON, OH, 43050",24666054,"L"
16236,"10743 SO TOPVIEW RD","SOUTH JORDAN","UT",84095,40.555841242,-111.997296533,236,"10743 SO TOPVIEW RD, SOUTH JORDAN, UT, 84095","Match","Exact","10743 S TOPVIEW RD, SOUTH JORDAN, UT, 84095",618145292,"R"
16237,"10743 VERMILION ROAD","OBERLIN","OH",44074,41.333359946,-82.300019117,237,"10743 VERMILION ROAD, OBERLIN, OH, 44074","Match","Exact","10743 VERMILION RD, OBERLIN, OH, 44074",634661544,"R"
16238,"10743","LA VISTA","NE",68128,NA,NA,238,"10743, LA VISTA, NE, 68128","No_Match",NA,NA,NA,NA
16239,"10744 CASTLETON TURN","UPPER MARLBORO","MD",20774,38.8916222770001,-76.8194158589999,239,"10744 CASTLETON TURN, UPPER MARLBORO, MD, 20774","Match","Exact","10744 CASTLETON TURN, UPPER MARLBORO, MD, 20774",635445913,"L"
16240,"10744 MORNING STAR LANE","NEVADA CITY","CA",95959,39.2604193760001,-121.064584019,240,"10744 MORNING STAR LANE, NEVADA CITY, CA, 95959","Match","Exact","10744 MORNING STAR LN, NEVADA CITY, CA, 95959",106556984,"L"
16241,"10744 SERENBE LANE","CHATTAHOOCHEE HILLS","GA",30268,33.5142331980001,-84.734584664,241,"10744 SERENBE LANE, CHATTAHOOCHEE HILLS, GA, 30268","Match","Exact","10744 SERENBE LN, CHATTAHOOCHEE HILLS, GA, 30268",629775187,"L"
16242,"10745 126TH AVENUE NE","KIRKLAND","WA",98034,47.697087697,-122.17364143,242,"10745 126TH AVENUE NE, KIRKLAND, WA, 98034","Match","Non_Exact","10745 126TH AVE NE, KIRKLAND, WA, 98033",187031962,"L"
16243,"10745 ALISON WAY","INVER GROVE HEIGHTS","MN",55077,44.7940095920001,-93.1046432099999,243,"10745 ALISON WAY, INVER GROVE HEIGHTS, MN, 55077","Match","Exact","10745 ALISON WAY, INVER GROVE HEIGHTS, MN, 55077",37941403,"L"
16244,"10745 COUNTY ROAD B","AMHERST","WI",54406,NA,NA,244,"10745 COUNTY ROAD B, AMHERST, WI, 54406","No_Match",NA,NA,NA,NA
16245,"10746 BELLS FLATS RD","KODIAK","AK",99615,57.708678525,-152.57883847,245,"10746 BELLS FLATS RD, KODIAK, AK, 99615","Match","Exact","10746 BELLS FLATS RD, KODIAK, AK, 99615",193552559,"L"
16246,"10746 CEDAR BEACH DR NW","ORONOCO","MN",55960,44.1552451490001,-92.4676029349999,246,"10746 CEDAR BEACH DR NW, ORONOCO, MN, 55960","Match","Exact","10746 CEDAR BEACH DR NW, ORONOCO, MN, 55960",30570910,"R"
16247,"10746 FENTON DRIVE","PARKER","AZ",85344,NA,NA,247,"10746 FENTON DRIVE, PARKER, AZ, 85344","No_Match",NA,NA,NA,NA
16248,"10746 QUEENSLAND STREET","LOS ANGELES","CA",90034,34.029675862,-118.417253041,248,"10746 QUEENSLAND STREET, LOS ANGELES, CA, 90034","Match","Exact","10746 QUEENSLAND ST, LOS ANGELES, CA, 90034",141573400,"L"
16249,"10747 A FINGERBOARD RD","IJAMSVILLE","MD",21754,39.34790293,-77.291016599,249,"10747 A FINGERBOARD RD, IJAMSVILLE, MD, 21754","Match","Exact","10747 FINGERBOARD RD, IJAMSVILLE, MD, 21754",60733981,"L"
16250,"10747 FURY LN","EL PASO","TX",79935,31.77811043,-106.329295551,250,"10747 FURY LN, EL PASO, TX, 79935","Match","Exact","10747 FURY LN, EL PASO, TX, 79935",189374841,"R"
16251,"10747 GOODWOOD BLVD","BATON ROUGE","LA",70815,30.4473349940001,-91.065326715,251,"10747 GOODWOOD BLVD, BATON ROUGE, LA, 70815","Match","Exact","10747 GOODWOOD BLVD, BATON ROUGE, LA, 70815",92191165,"L"
16252,"10747 NEIDERHOUSE ROAD","PERRYSBURG","OH",43551,41.529279617,-83.600154292,252,"10747 NEIDERHOUSE ROAD, PERRYSBURG, OH, 43551","Match","Exact","10747 NEIDERHOUSE RD, PERRYSBURG, OH, 43551",38728742,"L"
16253,"10747 VERSAILLES BLVD","WELLINGTON","FL",33449,26.6280177350001,-80.2128613199999,253,"10747 VERSAILLES BLVD, WELLINGTON, FL, 33449","Match","Exact","10747 VERSAILLES BLVD, WELLINGTON, FL, 33449",115570718,"L"
16254,"10748 159TH ST JAMAICA APT 2D","JAMAICA","NY",11433,NA,NA,254,"10748 159TH ST JAMAICA APT 2D, JAMAICA, NY, 11433","No_Match",NA,NA,NA,NA
16255,"10748 W JEFFERSON AVE","RIVER ROUGE","MI",48218,42.2710866900001,-83.1349805409999,255,"10748 W JEFFERSON AVE, RIVER ROUGE, MI, 48218","Match","Exact","10748 W JEFFERSON AVE, RIVER ROUGE, MI, 48218",95480546,"R"
16256,"10749 E NORTHWEST HWY 103","DALLAS","TX",75238,NA,NA,256,"10749 E NORTHWEST HWY 103, DALLAS, TX, 75238","No_Match",NA,NA,NA,NA
16257,"10749 LEATHERSTOCKING AV","LAS VEGAS","NV",89166,36.2829167150001,-115.330446385,257,"10749 LEATHERSTOCKING AV, LAS VEGAS, NV, 89166","Match","Exact","10749 LEATHERSTOCKING AVE, LAS VEGAS, NV, 89166",629929199,"R"
16258,"10749 SOUTH STREET","CERRITOS","CA",90703,NA,NA,258,"10749 SOUTH STREET, CERRITOS, CA, 90703","No_Match",NA,NA,NA,NA
16259,"10749 STANDING STONE DR","WIMAUMA","FL",33594,27.7661033570001,-82.329766628,259,"10749 STANDING STONE DR, WIMAUMA, FL, 33594","Match","Non_Exact","10749 STANDING STONE DR, WIMAUMA, FL, 33598",624637884,"L"
16260,"10749 US HIGHWAY 441 NORTH","BROXTON","GA",31519,31.749529765,-82.9638947889999,260,"10749 US HIGHWAY 441 NORTH, BROXTON, GA, 31519","Match","Non_Exact","10749 US HWY 441, BROXTON, GA, 31519",649756336,"L"
16261,"1075 8TH ST NW","SALEM","OR",97304,44.947149327,-123.058963183,261,"1075 8TH ST NW, SALEM, OR, 97304","Match","Exact","1075 8TH ST NW, SALEM, OR, 97304",155779337,"R"
16262,"1075 BALFOUR QUARRY RD","SALISBURY","NC",28146,35.5986465880001,-80.4510950389999,262,"1075 BALFOUR QUARRY RD, SALISBURY, NC, 28146","Match","Exact","1075 BALFOUR QUARRY RD, SALISBURY, NC, 28146",25290360,"R"
16263,"1075 BAY BLVD","CHULA VISTA","CA",91911,32.6082941700001,-117.092159888,263,"1075 BAY BLVD, CHULA VISTA, CA, 91911","Match","Exact","1075 BAY BLVD, CHULA VISTA, CA, 91911",195738822,"L"
16264,"1075 BIRCH AVE","CORWITH","IA",50430,42.9182062850001,-93.950690824,264,"1075 BIRCH AVE, CORWITH, IA, 50430","Match","Exact","1075 BIRCH AVE, CORWITH, IA, 50430",7406190,"L"
16265,"1075 BLUEBERRY POINT RD","WHITE STONE","VA",22578,37.653420526,-76.410353115,265,"1075 BLUEBERRY POINT RD, WHITE STONE, VA, 22578","Match","Exact","1075 BLUEBERRY POINT RD, WHITE STONE, VA, 22578",30799004,"L"
16266,"1075 BROAD RIPPLE AVE STE 279","INDIANAPOLIS","IN",46220,39.8696917780001,-86.139629036,266,"1075 BROAD RIPPLE AVE STE 279, INDIANAPOLIS, IN, 46220","Match","Exact","1075 BROAD RIPPLE AVE, INDIANAPOLIS, IN, 46220",107984606,"R"
16267,"1075 BROAD RIPPLE AVENUE - STE 318","INDIANAPOLIS","IN",46220,39.8696917780001,-86.139629036,267,"1075 BROAD RIPPLE AVENUE - STE 318, INDIANAPOLIS, IN, 46220","Match","Exact","1075 BROAD RIPPLE AVE, INDIANAPOLIS, IN, 46220",107984606,"R"
16268,"1075 BROAD RIPPLE AVENUE SUITE 335","INDIANAPOLIS","IN",46220,39.8696917780001,-86.139629036,268,"1075 BROAD RIPPLE AVENUE SUITE 335, INDIANAPOLIS, IN, 46220","Match","Exact","1075 BROAD RIPPLE AVE, INDIANAPOLIS, IN, 46220",107984606,"R"
16269,"1075 CAMINO DEL RIO SOUTH","SAN DIEGO","CA",92108,NA,NA,269,"1075 CAMINO DEL RIO SOUTH, SAN DIEGO, CA, 92108","No_Match",NA,NA,NA,NA
16270,"1075 CRINELLA CT","ST HELENA","CA",94574,38.5084145120001,-122.47424653,270,"1075 CRINELLA CT, ST HELENA, CA, 94574","Match","Exact","1075 CRINELLA CT, SAINT HELENA, CA, 94574",67412584,"L"
16271,"1075 DEERFIELD PL","HIGHLAND PARK","IL",60035,42.173322237,-87.814490144,271,"1075 DEERFIELD PL, HIGHLAND PARK, IL, 60035","Match","Exact","1075 DEERFIELD PL, HIGHLAND PARK, IL, 60035",119703425,"L"
16272,"1075 EAST CEDAR STREET APT L","POCATELLO","ID",83201,42.8876955280001,-112.439721258,272,"1075 EAST CEDAR STREET APT L, POCATELLO, ID, 83201","Match","Exact","1075 E CEDAR ST, POCATELLO, ID, 83201",204376590,"R"
16273,"1075 EASTON AVE SUITE 11-323","SOMERSET","NJ",8873,40.515807711,-74.4888023079999,273,"1075 EASTON AVE SUITE 11-323, SOMERSET, NJ, 8873","Match","Exact","1075 EASTON AVE, SOMERSET, NJ, 08873",60000699,"R"
16274,"1075 EASTON AVENCUE  330 / SUITE 11","SOMERSET","NJ",8873,40.515807711,-74.4888023079999,274,"1075 EASTON AVENCUE  330 / SUITE 11, SOMERSET, NJ, 8873","Match","Non_Exact","1075 EASTON AVE, SOMERSET, NJ, 08873",60000699,"R"
16275,"1075 EASTON AVENUE SUITE 11 265","SOMERSET","NJ",8873,40.515807711,-74.4888023079999,275,"1075 EASTON AVENUE SUITE 11 265, SOMERSET, NJ, 8873","Match","Exact","1075 EASTON AVE, SOMERSET, NJ, 08873",60000699,"R"
16276,"1075 EASTON AVENUE","SOMERSET","NJ",8873,40.515807711,-74.4888023079999,276,"1075 EASTON AVENUE, SOMERSET, NJ, 8873","Match","Exact","1075 EASTON AVE, SOMERSET, NJ, 08873",60000699,"R"
16277,"1075 EVANS LANE","ROBERSONVILLE","NC",27871,35.8235040270001,-77.2124774599999,277,"1075 EVANS LANE, ROBERSONVILLE, NC, 27871","Match","Exact","1075 EVANS LN, ROBERSONVILLE, NC, 27871",56811654,"L"
16278,"1075 FILLMORE ST","SAN FRANCISCO","CA",94115,37.7792975780001,-122.431903769,278,"1075 FILLMORE ST, SAN FRANCISCO, CA, 94115","Match","Exact","1075 FILLMORE ST, SAN FRANCISCO, CA, 94115",192283682,"L"
16279,"1075 GORE RD","MORRIS","IL",60450,41.386136891,-88.442888857,279,"1075 GORE RD, MORRIS, IL, 60450","Match","Exact","1075 GORE RD, MORRIS, IL, 60450",648912457,"R"
16280,"1075 GRAND CONCOURSE","NEW YORK","NY",10452,40.8315808290001,-73.9203228389999,280,"1075 GRAND CONCOURSE, NEW YORK, NY, 10452","Match","Non_Exact","1075 GRAND CONCOURSE, BRONX, NY, 10452",640809801,"L"
16281,"1075 HONOR RUN","ALPHARETTA","GA",30005,34.094566984,-84.19961395,281,"1075 HONOR RUN, ALPHARETTA, GA, 30005","Match","Exact","1075 HONOR RUN, ALPHARETTA, GA, 30005",623839955,"L"
16282,"1075 JUNIPERO AVE  APT 303","LONG BEACH","CA",90804,33.7803147230001,-118.163307605,282,"1075 JUNIPERO AVE  APT 303, LONG BEACH, CA, 90804","Match","Exact","1075 JUNIPERO AVE, LONG BEACH, CA, 90804",141701232,"L"
16283,"1075 LAWRENCE RD","HARROD","OH",45850,40.72607292,-83.899227703,283,"1075 LAWRENCE RD, HARROD, OH, 45850","Match","Exact","1075 LAWRENCE RD, HARROD, OH, 45850",209551086,"L"
16284,"1075 LOFTIS BLVD STE C4","NEWPORT NEWS","VA",23606,37.0843585270001,-76.486535381,284,"1075 LOFTIS BLVD STE C4, NEWPORT NEWS, VA, 23606","Match","Exact","1075 LOFTIS BLVD, NEWPORT NEWS, VA, 23606",643032437,"R"
16285,"1075 MANDI CT / PO BOX 2027","NIPOMO","CA",93444,35.033669489,-120.522306483,285,"1075 MANDI CT / PO BOX 2027, NIPOMO, CA, 93444","Match","Exact","1075 MANDI CT, NIPOMO, CA, 93444",109854950,"L"
16286,"1075 MAZZONE DRIVE","SAN JOSE","CA",95120,37.2338584710001,-121.868334746,286,"1075 MAZZONE DRIVE, SAN JOSE, CA, 95120","Match","Exact","1075 MAZZONE DR, SAN JOSE, CA, 95120",122922906,"L"
16287,"1075 MCBRIDE AVE","WOODLAND PARK","NJ",7424,40.8935790890001,-74.2081839749999,287,"1075 MCBRIDE AVE, WOODLAND PARK, NJ, 7424","Match","Exact","1075 MCBRIDE AVE, WOODLAND PARK, NJ, 07424",65261496,"L"
16288,"1075 MITTEN DR","WABASH","IN",46992,40.8121938,-85.831803948,288,"1075 MITTEN DR, WABASH, IN, 46992","Match","Exact","1075 MITTEN DR, WABASH, IN, 46992",15522889,"L"
16289,"1075 N CATALINA AVE","PASADENA","CA",91104,34.164664304,-118.129561613,289,"1075 N CATALINA AVE, PASADENA, CA, 91104","Match","Exact","1075 N CATALINA AVE, PASADENA, CA, 91104",141628867,"L"
16290,"1075 NE 167 STREET","NMB","FL",33162,25.929001623,-80.178828556,290,"1075 NE 167 STREET, NMB, FL, 33162","Match","Non_Exact","1075 NE 167TH ST, MIAMI, FL, 33162",116035867,"L"
16291,"1075 NELSONA VE APT 4A","BRONX","NY",10452,40.8346277590001,-73.9274806829999,291,"1075 NELSONA VE APT 4A, BRONX, NY, 10452","Match","Non_Exact","1075 NELSON AVE, BRONX, NY, 10452",80299362,"L"
16292,"1075 NORMANDY ROAD","SPRINGFIELD","IL",62702,NA,NA,292,"1075 NORMANDY ROAD, SPRINGFIELD, IL, 62702","No_Match",NA,NA,NA,NA
16293,"1075 NW SKYLINE DRIVE","PENDLETON","OR",97801,45.6829519680001,-118.798912506,293,"1075 NW SKYLINE DRIVE, PENDLETON, OR, 97801","Match","Exact","1075 SKYLINE DR, PENDLETON, OR, 97801",170443431,"L"
16294,"1075 PEACHTREE ST NE SUITE 3500","ATLANTA","GA",30309,NA,NA,294,"1075 PEACHTREE ST NE SUITE 3500, ATLANTA, GA, 30309","Tie",NA,NA,NA,NA
16295,"1075 PEACHTREE ST NE SUITE 3650","ATLANTA","GA",30309,NA,NA,295,"1075 PEACHTREE ST NE SUITE 3650, ATLANTA, GA, 30309","Tie",NA,NA,NA,NA
16296,"1075 PEACHTREE STREET NE SUITE 3650","ATLANTA","GA",30309,NA,NA,296,"1075 PEACHTREE STREET NE SUITE 3650, ATLANTA, GA, 30309","Tie",NA,NA,NA,NA
16297,"1075 PICACHO WAY","VALLE","AZ",86046,35.6393841890001,-112.119918944,297,"1075 PICACHO WAY, VALLE, AZ, 86046","Match","Non_Exact","1075 PICACHO WAY, WILLIAMS, AZ, 86046",650647619,"R"
16298,"1075 PITTSBURGH DRIVE","DELAWARE","OH",43015,40.2830006360001,-83.1116687749999,298,"1075 PITTSBURGH DRIVE, DELAWARE, OH, 43015","Match","Exact","1075 PITTSBURGH DR, DELAWARE, OH, 43015",640603070,"L"
16299,"1075 S STATE RT 260","COTTONWOOD","AZ",85326,34.711236764,-111.996823939,299,"1075 S STATE RT 260, COTTONWOOD, AZ, 85326","Match","Non_Exact","1075 STATE RTE 260, COTTONWOOD, AZ, 86326",159525678,"R"
16300,"1075 S YUKON ST  SUITE 320","LAKEWOOD","CO",80226,39.697227626,-105.082702387,300,"1075 S YUKON ST  SUITE 320, LAKEWOOD, CO, 80226","Match","Non_Exact","1075 S YUKON ST, LAKEWOOD, CO, 80226",177320445,"R"
16301,"1075 SLEEPING CHILD RD","HAMILTON","MT",59840,46.1761900710001,-114.155872848,301,"1075 SLEEPING CHILD RD, HAMILTON, MT, 59840","Match","Exact","1075 SLEEPING CHILD RD, HAMILTON, MT, 59840",153541340,"L"
16302,"1075 SOUTH RICHFIELD WAY","AURORA","CO",80017,39.6971560490001,-104.784445122,302,"1075 SOUTH RICHFIELD WAY, AURORA, CO, 80017","Match","Exact","1075 S RICHFIELD WAY, AURORA, CO, 80017",177356494,"R"
16303,"1075 SPACE PARK WAY SPC 53","MOUNTAIN VIEW","CA",94043,37.41727804,-122.070322984,303,"1075 SPACE PARK WAY SPC 53, MOUNTAIN VIEW, CA, 94043","Match","Exact","1075 SPACE PARK WAY, MOUNTAIN VIEW, CA, 94043",122988239,"R"
16304,"1075 STATE ROUTE 121 NORTH","MURRAY","KY",42071,NA,NA,304,"1075 STATE ROUTE 121 NORTH, MURRAY, KY, 42071","No_Match",NA,NA,NA,NA
16305,"1075 SULKY DR","FLORISSANT","MO",63033,38.793298222,-90.296800594,305,"1075 SULKY DR, FLORISSANT, MO, 63033","Match","Exact","1075 SULKY DR, FLORISSANT, MO, 63033",100144719,"L"
16306,"1075 SUNSET STRIP","SUNRISE","FL",33313,NA,NA,306,"1075 SUNSET STRIP, SUNRISE, FL, 33313","No_Match",NA,NA,NA,NA
16307,"1075 US 46","CLIFTON","NJ",7013,NA,NA,307,"1075 US 46, CLIFTON, NJ, 7013","No_Match",NA,NA,NA,NA
16308,"1075 W GRIFFIN STREET","DALLAS","TX",75215,NA,NA,308,"1075 W GRIFFIN STREET, DALLAS, TX, 75215","Tie",NA,NA,NA,NA
16309,"1075 WEST GRIFFIN STREET","DALLAS","TX",75215,NA,NA,309,"1075 WEST GRIFFIN STREET, DALLAS, TX, 75215","No_Match",NA,NA,NA,NA
16310,"1075 WESTFORD STREET 3RD FL","LOWELL","MA",1851,42.629573212,-71.3539161849999,310,"1075 WESTFORD STREET 3RD FL, LOWELL, MA, 1851","Match","Exact","1075 WESTFORD ST, LOWELL, MA, 01851",87117796,"R"
16311,"1075 WESTFORD STREET","LOWELL","MA",1851,42.629573212,-71.3539161849999,311,"1075 WESTFORD STREET, LOWELL, MA, 1851","Match","Exact","1075 WESTFORD ST, LOWELL, MA, 01851",87117796,"R"
16312,"1075 WORTHINGTON RIDGE","BERLIN","CT",6037,41.613659328,-72.747395997,312,"1075 WORTHINGTON RIDGE, BERLIN, CT, 6037","Match","Exact","1075 WORTHINGTON RIDGE, BERLIN, CT, 06037",606364741,"L"
16313,"1075 YORBA PL SUITE 102","PLACENTIA","CA",92870,33.8894122630001,-117.845478879,313,"1075 YORBA PL SUITE 102, PLACENTIA, CA, 92870","Match","Exact","1075 YORBA PL, PLACENTIA, CA, 92870",143995582,"L"
16314,"1075","ANOKA","MN",55303,NA,NA,314,"1075, ANOKA, MN, 55303","No_Match",NA,NA,NA,NA
16315,"10750 BARKER CYPRESS RD","CYPRESS","TX",77433,29.932610196,-95.683112904,315,"10750 BARKER CYPRESS RD, CYPRESS, TX, 77433","Match","Exact","10750 BARKER CYPRESS RD, CYPRESS, TX, 77433",644883171,"L"
16316,"10750 EAST 258TH STREET SOUTH","PORUM","OK",74455,NA,NA,316,"10750 EAST 258TH STREET SOUTH, PORUM, OK, 74455","No_Match",NA,NA,NA,NA
16317,"10750 GARLAND ROAD","DENTON","MD",21629,38.902578018,-75.793638104,317,"10750 GARLAND ROAD, DENTON, MD, 21629","Match","Exact","10750 GARLAND RD, DENTON, MD, 21629",68311462,"L"
16318,"10750 ROCKFORD ROAD APT 109","PLYMOUTH","MN",55442,45.0330422490001,-93.417753116,318,"10750 ROCKFORD ROAD APT 109, PLYMOUTH, MN, 55442","Match","Exact","10750 ROCKFORD RD, PLYMOUTH, MN, 55442",640007755,"R"
16319,"10750 S EGGLSESTON AVE","CHICAGO","IL",60628,NA,NA,319,"10750 S EGGLSESTON AVE, CHICAGO, IL, 60628","No_Match",NA,NA,NA,NA
16320,"10750 SW 146 TERRACE","MIAMI","FL",33176,25.633139004,-80.3677014089999,320,"10750 SW 146 TERRACE, MIAMI, FL, 33176","Match","Exact","10750 SW 146TH TER, MIAMI, FL, 33176",115981990,"L"
16321,"10750 THUNDER MOUNTAIN AVENUE","COLORADO SPRINGS","CO",80908,NA,NA,321,"10750 THUNDER MOUNTAIN AVENUE, COLORADO SPRINGS, CO, 80908","No_Match",NA,NA,NA,NA
16322,"10751 BRIDLEREIN CT","SPOTSYLVANIA","VA",22553,38.329319663,-77.708398157,322,"10751 BRIDLEREIN CT, SPOTSYLVANIA, VA, 22553","Match","Exact","10751 BRIDLEREIN CT, SPOTSYLVANIA, VA, 22553",618667391,"L"
16323,"10751 CENTERVILLE BAY STREET","LAS VEGAS","NV",89179,35.994068203,-115.256944064,323,"10751 CENTERVILLE BAY STREET, LAS VEGAS, NV, 89179","Match","Exact","10751 CENTERVILLE BAY ST, LAS VEGAS, NV, 89179",650704070,"R"
16324,"10751 FOXGLEN DRIVE","BOCA RATON","FL",33428,26.340430929,-80.21542157,324,"10751 FOXGLEN DRIVE, BOCA RATON, FL, 33428","Match","Non_Exact","10751 FOX GLEN DR, BOCA RATON, FL, 33428",115574389,"R"
16325,"10751 PALACE CT","MANASSAS","VA",20111,38.7217894840001,-77.4356531719999,325,"10751 PALACE CT, MANASSAS, VA, 20111","Match","Exact","10751 PALACE CT, MANASSAS, VA, 20111",207162824,"R"
16326,"10751 SHAVANO PEAK COURT","PEYTON","CO",80831,38.9891263650001,-104.589427003,326,"10751 SHAVANO PEAK COURT, PEYTON, CO, 80831","Match","Exact","10751 SHAVANO PEAK CT, PEYTON, CO, 80831",649706828,"L"
16327,"10751 STONEY POINT DR","SOUTH LYON","MI",48178,42.4758866490001,-83.741155486,327,"10751 STONEY POINT DR, SOUTH LYON, MI, 48178","Match","Exact","10751 STONEY POINT DR, SOUTH LYON, MI, 48178",619582939,"L"
16328,"10751 W 77TH PLACE","ARVADA","CO",80005,39.8379878040001,-105.118845344,328,"10751 W 77TH PLACE, ARVADA, CO, 80005","Match","Exact","10751 W 77TH PL, ARVADA, CO, 80005",177281312,"R"
16329,"10751 WILSHIRE BLVD APT 701","LOS ANGELES","CA",90024,34.0603169670001,-118.438106557,329,"10751 WILSHIRE BLVD APT 701, LOS ANGELES, CA, 90024","Match","Exact","10751 WILSHIRE BLVD, LOS ANGELES, CA, 90024",141567856,"R"
16330,"10752 31ST STREET","WESTCHESTER","IL",60154,41.833859886,-87.890097307,330,"10752 31ST STREET, WESTCHESTER, IL, 60154","Match","Exact","10752 31ST ST, WESTCHESTER, IL, 60154",111788101,"R"
16331,"10752 DEERWOOD PARK BLVD SUITE 100","JACKSONVILLE","FL",32256,30.247798179,-81.5335189629999,331,"10752 DEERWOOD PARK BLVD SUITE 100, JACKSONVILLE, FL, 32256","Match","Exact","10752 DEERWOOD PARK BLVD, JACKSONVILLE, FL, 32256",83957851,"R"
16332,"10752 DEERWOOD PARK BLVD SUITE 176","JACKSONVILLE","FL",32256,30.247798179,-81.5335189629999,332,"10752 DEERWOOD PARK BLVD SUITE 176, JACKSONVILLE, FL, 32256","Match","Exact","10752 DEERWOOD PARK BLVD, JACKSONVILLE, FL, 32256",83957851,"R"
16333,"10752 HIGHWAY 52","CHATSWORTH","GA",30705,34.779296645,-84.646121941,333,"10752 HIGHWAY 52, CHATSWORTH, GA, 30705","Match","Non_Exact","10752 STATE RTE 52, CHATSWORTH, GA, 30705",57105966,"R"
16334,"10752 OAKWOOD AVENUE","HESPERIA","CA",92345,34.445705161,-117.342691736,334,"10752 OAKWOOD AVENUE, HESPERIA, CA, 92345","Match","Exact","10752 OAKWOOD AVE, HESPERIA, CA, 92345",144588960,"L"
16335,"10752 ST RT 364","ST MARYS","OH",45885,40.506502391,-84.434541399,335,"10752 ST RT 364, ST MARYS, OH, 45885","Match","Non_Exact","10752 STATE RTE 364, SAINT MARYS, OH, 45885",647351192,"R"
16336,"10753 BLIX ST APT 3","TOLUCA LAKE","CA",91602,34.1566670130001,-118.365883723,336,"10753 BLIX ST APT 3, TOLUCA LAKE, CA, 91602","Match","Exact","10753 BLIX ST, TOLUCA LAKE, CA, 91602",642863974,"R"
16337,"10753 WHITE ASPEN LANE","BOCA RATON","FL",33428,26.36044365,-80.215796773,337,"10753 WHITE ASPEN LANE, BOCA RATON, FL, 33428","Match","Exact","10753 WHITE ASPEN LN, BOCA RATON, FL, 33428",639489852,"R"
16338,"10754 W PASO TRL","PEORIA","AZ",85383,33.720006562,-112.287278395,338,"10754 W PASO TRL, PEORIA, AZ, 85383","Match","Exact","10754 W PASO TRL, PEORIA, AZ, 85383",639805075,"R"
16339,"10755 PARK BLVD N SUITE B","SEMINOLE","FL",33772,27.839591415,-82.788037889,339,"10755 PARK BLVD N SUITE B, SEMINOLE, FL, 33772","Match","Non_Exact","10755 PARK BLVD, SEMINOLE, FL, 33772",647890562,"R"
16340,"10755 SCRIPPS POWAY PARKWAY STE 437","SAN DIEGO","CA",92131,32.936926102,-117.097444256,340,"10755 SCRIPPS POWAY PARKWAY STE 437, SAN DIEGO, CA, 92131","Match","Exact","10755 SCRIPPS POWAY PKWY, SAN DIEGO, CA, 92131",195653488,"R"
16341,"10755 SCRIPPS POWAY PKWY  381","SAN DIEGO","CA",92131,32.936926102,-117.097444256,341,"10755 SCRIPPS POWAY PKWY  381, SAN DIEGO, CA, 92131","Match","Exact","10755 SCRIPPS POWAY PKWY, SAN DIEGO, CA, 92131",195653488,"R"
16342,"10756 JEANES STREET","PHILADELPHIA","PA",19116,40.1119750300001,-75.027503934,342,"10756 JEANES STREET, PHILADELPHIA, PA, 19116","Match","Exact","10756 JEANES ST, PHILADELPHIA, PA, 19116",131430955,"L"
16343,"10756B AMBASSADOR DRIVE STE 201","MANASSAS","VA",20109,38.7937628080001,-77.517211452,343,"10756B AMBASSADOR DRIVE STE 201, MANASSAS, VA, 20109","Match","Exact","10756 AMBASSADOR DR, MANASSAS, VA, 20109",76522439,"L"
16344,"10757 154 ST","JAMAICA","NY",11433,NA,NA,344,"10757 154 ST, JAMAICA, NY, 11433","No_Match",NA,NA,NA,NA
16345,"10757 TORREY PINES CIRCLE","CARMEL","IN",46032,39.9434443150001,-86.2007257179999,345,"10757 TORREY PINES CIRCLE, CARMEL, IN, 46032","Match","Exact","10757 TORREY PINES CIR, CARMEL, IN, 46032",29293689,"R"
16346,"10758 BELLE MAISONS DRIVE","ORLANDO","FL",32832,28.431850578,-81.2221461949999,346,"10758 BELLE MAISONS DRIVE, ORLANDO, FL, 32832","Match","Exact","10758 BELLE MAISONS DR, ORLANDO, FL, 32832",649052187,"R"
16347,"10758 SACO DRIVE","COLORADO SPRINGS","CO",80925,NA,NA,347,"10758 SACO DRIVE, COLORADO SPRINGS, CO, 80925","No_Match",NA,NA,NA,NA
16348,"10758 WHEELING DR","COMMERCE CITY","CO",80022,39.891803354,-104.830284808,348,"10758 WHEELING DR, COMMERCE CITY, CO, 80022","Match","Exact","10758 WHEELING DR, COMMERCE CITY, CO, 80022",177425038,"R"
16349,"10759 S CHURCH ST","CHICAGO","IL",60643,41.6978332150001,-87.661022003,349,"10759 S CHURCH ST, CHICAGO, IL, 60643","Match","Exact","10759 S CHURCH ST, CHICAGO, IL, 60643",604992491,"L"
16350,"10759 SW 226TH STREET","GOULDS","FL",33170,25.5570310000001,-80.365921553,350,"10759 SW 226TH STREET, GOULDS, FL, 33170","Match","Exact","10759 SW 226TH ST, GOULDS, FL, 33170",116094202,"R"
16351,"1076 BETHANY PLACE","GREEN BAY","WI",54304,44.4978311720001,-88.069391384,351,"1076 BETHANY PLACE, GREEN BAY, WI, 54304","Match","Exact","1076 BETHANY PL, GREEN BAY, WI, 54304",148130555,"R"
16352,"1076 COVE HOLLOW DR","CEDAR HILL","TX",75104,32.5998919200001,-96.917730252,352,"1076 COVE HOLLOW DR, CEDAR HILL, TX, 75104","Match","Exact","1076 COVE HOLLOW DR, CEDAR HILL, TX, 75104",103264596,"L"
16353,"1076 DEER TRAIL RD","DURANGO","CO",81303,37.269410657,-107.947374549,353,"1076 DEER TRAIL RD, DURANGO, CO, 81303","Match","Exact","1076 DEER TRAIL RD, DURANGO, CO, 81303",624754422,"R"
16354,"1076 E WOODBURY ROAD","PASADENA","CA",91104,34.17715392,-118.128341863,354,"1076 E WOODBURY ROAD, PASADENA, CA, 91104","Match","Exact","1076 E WOODBURY RD, PASADENA, CA, 91104",141628445,"R"
16355,"1076 FRANKLIN AVE","ASTORIA","OR",97103,46.186972736,-123.832081584,355,"1076 FRANKLIN AVE, ASTORIA, OR, 97103","Match","Exact","1076 FRANKLIN AVE, ASTORIA, OR, 97103",159221559,"R"
16356,"1076 GRACE CT","NORTHVILLE","MI",48167,42.4439515980001,-83.482342748,356,"1076 GRACE CT, NORTHVILLE, MI, 48167","Match","Exact","1076 GRACE CT, NORTHVILLE, MI, 48167",69720018,"R"
16357,"1076 GRANDVIEW GARDENS CT","FLORISSANT","MO",63033,38.7729884730001,-90.298295823,357,"1076 GRANDVIEW GARDENS CT, FLORISSANT, MO, 63033","Match","Exact","1076 GRANDVIEW GARDENS CT, FLORISSANT, MO, 63033",100145072,"R"
16358,"1076 HIGHLAND COLONY PARKWAY","RIDGELAND","MS",39157,32.4478436090001,-90.152051662,358,"1076 HIGHLAND COLONY PARKWAY, RIDGELAND, MS, 39157","Match","Exact","1076 HIGHLAND COLONY PKWY, RIDGELAND, MS, 39157",629296713,"R"
16359,"1076 HIGHWAY 107","QUITMAN","AR",72131,35.324129461,-92.227139651,359,"1076 HIGHWAY 107, QUITMAN, AR, 72131","Match","Non_Exact","1076 STATE HWY 107, QUITMAN, AR, 72131",141039463,"R"
16360,"1076 PURDYTOWN TURNPIKE","LAKEVILLE","PA",18438,41.4488881730001,-75.2218606609999,360,"1076 PURDYTOWN TURNPIKE, LAKEVILLE, PA, 18438","Match","Exact","1076 PURDYTOWN TPKE, LAKEVILLE, PA, 18438",625320088,"L"
16361,"1076 RED BUD CIRCLE","ROCKLEDGE","FL",32955,28.304989747,-80.725453605,361,"1076 RED BUD CIRCLE, ROCKLEDGE, FL, 32955","Match","Exact","1076 RED BUD CIR, ROCKLEDGE, FL, 32955",93931480,"R"
16362,"1076 ROSECRANS ST","SAN DIEGO","CA",92106,32.7211838420001,-117.232055156,362,"1076 ROSECRANS ST, SAN DIEGO, CA, 92106","Match","Exact","1076 ROSECRANS ST, SAN DIEGO, CA, 92106",195340420,"L"
16363,"1076 S STATE RD 19","PALATKA","FL",32177,NA,NA,363,"1076 S STATE RD 19, PALATKA, FL, 32177","No_Match",NA,NA,NA,NA
16364,"1076 SE 7TH AVENUE","HILLSBORO","OR",97123,45.5124994190001,-122.979200787,364,"1076 SE 7TH AVENUE, HILLSBORO, OR, 97123","Match","Exact","1076 SE 7TH AVE, HILLSBORO, OR, 97123",158179466,"L"
16365,"1076 THREE SPRINGS ROAD","MCGAHEYSVILE","VA",22840,38.357645744,-78.766701102,365,"1076 THREE SPRINGS ROAD, MCGAHEYSVILE, VA, 22840","Match","Non_Exact","1076 THREE SPRINGS RD, MCGAHEYSVILLE, VA, 22840",55747145,"L"
16366,"1076 VT RT 113","WEST FAIRLEE","VT",5083,43.9126784530001,-72.263128434,366,"1076 VT RT 113, WEST FAIRLEE, VT, 5083","Match","Non_Exact","1076 STATE RTE 113, WEST FAIRLEE, VT, 05083",181135878,"R"
16367,"1076 WALBURK AVE","LAYTON","UT",84040,41.0752304760001,-111.944302795,367,"1076 WALBURK AVE, LAYTON, UT, 84040","Match","Exact","1076 WALBURK AVE, LAYTON, UT, 84040",155307161,"R"
16368,"1076 WEDDINGTON WOODS ST NW","CONCORD","NC",28027,35.400150658,-80.636203573,368,"1076 WEDDINGTON WOODS ST NW, CONCORD, NC, 28027","Match","Exact","1076 WEDDINGTON WOODS ST NW, CONCORD, NC, 28027",24912021,"R"
16369,"1076 WEST MARKET ST","SCHUYLKILL HAVEN","PA",17972,40.647632925,-76.135227054,369,"1076 WEST MARKET ST, SCHUYLKILL HAVEN, PA, 17972","Match","Exact","1076 W MARKET ST, SCHUYLKILL HAVEN, PA, 17972",645048429,"L"
16370,"1076 WEST MARKET STREET","SCHUYLKILL HAVEN","PA",17972,40.647632925,-76.135227054,370,"1076 WEST MARKET STREET, SCHUYLKILL HAVEN, PA, 17972","Match","Exact","1076 W MARKET ST, SCHUYLKILL HAVEN, PA, 17972",645048429,"L"
16371,"1076 WINDSOR STREET","SAN JOSE","CA",95129,37.307529091,-122.027617021,371,"1076 WINDSOR STREET, SAN JOSE, CA, 95129","Match","Exact","1076 WINDSOR ST, SAN JOSE, CA, 95129",122940470,"L"
16372,"10760 AVEINDA SANTA ANNA","BOCA RATON","FL",33498,NA,NA,372,"10760 AVEINDA SANTA ANNA, BOCA RATON, FL, 33498","No_Match",NA,NA,NA,NA
16373,"10760 FREDERICK ROAD","ELLICOTT CITY","MD",21042,39.284769849,-76.88689017,373,"10760 FREDERICK ROAD, ELLICOTT CITY, MD, 21042","Match","Exact","10760 FREDERICK RD, ELLICOTT CITY, MD, 21042",158948267,"R"
16374,"10760 LAWSONIA LINKS DR","JACKSONVILLE","FL",32222,30.23649685,-81.842091142,374,"10760 LAWSONIA LINKS DR, JACKSONVILLE, FL, 32222","Match","Exact","10760 LAWSONIA LINKS DR, JACKSONVILLE, FL, 32222",83961675,"R"
16375,"10760 PICTORIAL PARK DR","TAMPA","FL",33647,28.163137428,-82.276733505,375,"10760 PICTORIAL PARK DR, TAMPA, FL, 33647","Match","Exact","10760 PICTORIAL PARK DR, TAMPA, FL, 33647",653185208,"R"
16376,"10760 SKIPWITH RD","CHASE CITY","VA",23924,36.7540782460001,-78.474256521,376,"10760 SKIPWITH RD, CHASE CITY, VA, 23924","Match","Exact","10760 SKIPWITH RD, CHASE CITY, VA, 23924",54297328,"R"
16377,"10760 THORNMINT ROAD","SAN DIEGO","CA",92127,33.017627465,-117.103364312,377,"10760 THORNMINT ROAD, SAN DIEGO, CA, 92127","Match","Exact","10760 THORNMINT RD, SAN DIEGO, CA, 92127",195666532,"L"
16378,"10760 WATSON PLACE","JAMAICA","NY",11433,NA,NA,378,"10760 WATSON PLACE, JAMAICA, NY, 11433","No_Match",NA,NA,NA,NA
16379,"10761 BLIX ST APT 106","TOLUCA LAKE","CA",91602,34.1566670130001,-118.365993409,379,"10761 BLIX ST APT 106, TOLUCA LAKE, CA, 91602","Match","Exact","10761 BLIX ST, TOLUCA LAKE, CA, 91602",642863974,"R"
16380,"10761 PERKINS RD STE D","BATON ROUGE","LA",70810,30.3758978400001,-91.091484819,380,"10761 PERKINS RD STE D, BATON ROUGE, LA, 70810","Match","Exact","10761 PERKINS RD, BATON ROUGE, LA, 70810",92192894,"L"
16381,"10761 SW 28 ST","MIAMI","FL",33165,25.74316588,-80.368925018,381,"10761 SW 28 ST, MIAMI, FL, 33165","Match","Exact","10761 SW 28TH ST, MIAMI, FL, 33165",115971614,"R"
16382,"10762 BENTBROOK DRIVE","VANCE","AL",35490,33.1657243980001,-87.228266404,382,"10762 BENTBROOK DRIVE, VANCE, AL, 35490","Match","Non_Exact","10762 BENT BROOK DR, VANCE, AL, 35490",82233884,"L"
16383,"10762 PICTORIAL PARK DR","TAMPA","FL",33647,28.163050614,-82.276767562,383,"10762 PICTORIAL PARK DR, TAMPA, FL, 33647","Match","Exact","10762 PICTORIAL PARK DR, TAMPA, FL, 33647",653185208,"R"
16384,"10762 THORNDALE ST","ADELANTO","CA",92301,34.515389557,-117.429036456,384,"10762 THORNDALE ST, ADELANTO, CA, 92301","Match","Exact","10762 THORNDALE ST, ADELANTO, CA, 92301",614831503,"L"
16385,"10763 GILKEY CREEK RD","OLA","AR",72853,34.989937926,-93.36046368,385,"10763 GILKEY CREEK RD, OLA, AR, 72853","Match","Exact","10763 GILKEY CREEK RD, OLA, AR, 72853",24322439,"L"
16386,"10763 W 2ND ST","AVONDALE","AZ",85323,33.4333205930001,-112.291057588,386,"10763 W 2ND ST, AVONDALE, AZ, 85323","Match","Exact","10763 W 2ND ST, AVONDALE, AZ, 85323",244018296,"R"
16387,"10766 ANGELA DR","KIRTLAND","OH",44094,41.580082804,-81.3583390319999,387,"10766 ANGELA DR, KIRTLAND, OH, 44094","Match","Exact","10766 ANGELA DR, KIRTLAND, OH, 44094",137473984,"R"
16388,"10766 BIRCH DRIVE","JOPLIN","MO",64804,37.018464325,-94.44607045,388,"10766 BIRCH DRIVE, JOPLIN, MO, 64804","Match","Exact","10766 BIRCH DR, JOPLIN, MO, 64804",56006672,"L"
16389,"10766 COOK CT","NORTHGLENN","CO",80233,39.8916440840001,-104.94626992,389,"10766 COOK CT, NORTHGLENN, CO, 80233","Match","Exact","10766 COOK CT, NORTHGLENN, CO, 80233",177409696,"L"
16390,"10766 PREDDY AVE","KLAMATH FALLS","OR",97603,42.1276414450001,-121.751582267,390,"10766 PREDDY AVE, KLAMATH FALLS, OR, 97603","Match","Exact","10766 PREDDY AVE, KLAMATH FALLS, OR, 97603",156658105,"L"
16391,"10766 SUNSET RIDGE LANE","ORLANDO","FL",32832,NA,NA,391,"10766 SUNSET RIDGE LANE, ORLANDO, FL, 32832","No_Match",NA,NA,NA,NA
16392,"10767 JAMACHA BLVD 140","SPRING VALLEY","CA",91978,NA,NA,392,"10767 JAMACHA BLVD 140, SPRING VALLEY, CA, 91978","No_Match",NA,NA,NA,NA
16393,"10767 OREGON AVENUE","CULVER CITY","CA",90232,34.0151959740001,-118.406047732,393,"10767 OREGON AVENUE, CULVER CITY, CA, 90232","Match","Exact","10767 OREGON AVE, CULVER CITY, CA, 90232",141574241,"R"
16394,"10767 S PEORIA STREET","CHICAGO","IL",60643,41.698190406,-87.644995991,394,"10767 S PEORIA STREET, CHICAGO, IL, 60643","Match","Exact","10767 S PEORIA ST, CHICAGO, IL, 60643",639818769,"L"
16395,"10767 SE OREGOLD CT","HAPPY VALLEY","OR",97086,45.444874111,-122.525178654,395,"10767 SE OREGOLD CT, HAPPY VALLEY, OR, 97086","Match","Exact","10767 SE OREGOLD CT, HAPPY VALLEY, OR, 97086",157947650,"R"
16396,"10767 WOODBINE ST NUM 328","LOS ANGELES","CA",90034,34.0252113650001,-118.414097943,396,"10767 WOODBINE ST NUM 328, LOS ANGELES, CA, 90034","Match","Exact","10767 WOODBINE ST, LOS ANGELES, CA, 90034",141573620,"R"
16397,"10769 BROADWAY AV  SUITE 188","CROWN POINT","IN",46307,41.422509769,-87.335413793,397,"10769 BROADWAY AV  SUITE 188, CROWN POINT, IN, 46307","Match","Non_Exact","10769 BROADWAY, CROWN POINT, IN, 46307",98447804,"R"
16398,"10769 BROADWAY SUITE 136","CROWN POINT","IN",46307,41.422509769,-87.335413793,398,"10769 BROADWAY SUITE 136, CROWN POINT, IN, 46307","Match","Exact","10769 BROADWAY, CROWN POINT, IN, 46307",98447804,"R"
16399,"10769 BROADWAY SUITE 216","CROWN POINT","IN",46307,41.422509769,-87.335413793,399,"10769 BROADWAY SUITE 216, CROWN POINT, IN, 46307","Match","Exact","10769 BROADWAY, CROWN POINT, IN, 46307",98447804,"R"
16400,"1077 23RD ST","DES MOINES","IA",50311,41.5975647550001,-93.648201323,400,"1077 23RD ST, DES MOINES, IA, 50311","Match","Exact","1077 23RD ST, DES MOINES, IA, 50311",65780963,"R"
16401,"1077 30TH STREET NW SUITE 211","WASHINGTON","DC",20007,38.903680557,-77.059120018,401,"1077 30TH STREET NW SUITE 211, WASHINGTON, DC, 20007","Match","Exact","1077 30TH ST NW, WASHINGTON, DC, 20007",76225035,"R"
16402,"1077 ALTAMONT RD","GREENVILLE","SC",29609,34.9292387080001,-82.406055903,402,"1077 ALTAMONT RD, GREENVILLE, SC, 29609","Match","Exact","1077 ALTAMONT RD, GREENVILLE, SC, 29609",641133019,"R"
16403,"1077 ARLINGTON AVE  APT 2","PLAINFIELD","NJ",7060,40.6084176310001,-74.409641628,403,"1077 ARLINGTON AVE  APT 2, PLAINFIELD, NJ, 7060","Match","Exact","1077 ARLINGTON AVE, PLAINFIELD, NJ, 07060",647624424,"L"
16404,"1077 BAILEY CREEK ROAD","MILLERTON","PA",16936,41.89172288,-76.9946358609999,404,"1077 BAILEY CREEK ROAD, MILLERTON, PA, 16936","Match","Exact","1077 BAILEY CREEK RD, MILLERTON, PA, 16936",189675208,"L"
16405,"1077 BARKER RD","WHITMORE LAKE","MI",48189,42.4222579290001,-83.784505134,405,"1077 BARKER RD, WHITMORE LAKE, MI, 48189","Match","Exact","1077 BARKER RD, WHITMORE LAKE, MI, 48189",26038748,"L"
16406,"1077 BEECH FOREST RD","KENBRIDGE","VA",23944,36.9331753370001,-78.1987976349999,406,"1077 BEECH FOREST RD, KENBRIDGE, VA, 23944","Match","Exact","1077 BEECH FOREST RD, KENBRIDGE, VA, 23944",54271112,"R"
16407,"1077 CASTLETON AVE","STATEN ISLAND","NY",10301,40.6344473930001,-74.118568381,407,"1077 CASTLETON AVE, STATEN ISLAND, NY, 10301","Match","Non_Exact","1077 CASTLETON AVE, STATEN ISLAND, NY, 10310",59878015,"R"
16408,"1077 COUNTY ROAD L","PANHANDLE","TX",79068,NA,NA,408,"1077 COUNTY ROAD L, PANHANDLE, TX, 79068","No_Match",NA,NA,NA,NA
16409,"1077 COURT AVE","HIGHLAND PARK","IL",60035,42.17839336,-87.807857912,409,"1077 COURT AVE, HIGHLAND PARK, IL, 60035","Match","Exact","1077 COURT AVE, HIGHLAND PARK, IL, 60035",119651622,"R"
16410,"1077 GLEN REILLY DRIVE","FAYETTEVILLE","NC",28314,35.072489826,-79.01719072,410,"1077 GLEN REILLY DRIVE, FAYETTEVILLE, NC, 28314","Match","Non_Exact","1077 GLEN REILLY RD, FAYETTEVILLE, NC, 28314",64227779,"L"
16411,"1077 HAWKSBILL LANE","SUGARLOAF KEY","FL",33042,24.672759899,-81.5347064489999,411,"1077 HAWKSBILL LANE, SUGARLOAF KEY, FL, 33042","Match","Exact","1077 HAWKSBILL LN, SUGARLOAF KEY, FL, 33042",116485925,"L"
16412,"1077 HUBBARD ST","DETROIT","MI",48209,42.316720036,-83.088340358,412,"1077 HUBBARD ST, DETROIT, MI, 48209","Match","Exact","1077 HUBBARD ST, DETROIT, MI, 48209",652801835,"L"
16413,"1077 LANA STREET","PASO ROBLES","CA",93446,35.620792769,-120.664041086,413,"1077 LANA STREET, PASO ROBLES, CA, 93446","Match","Exact","1077 LANA ST, PASO ROBLES, CA, 93446",109719155,"R"
16414,"1077 LEXINGTON ST","WALTHAM","MA",2452,42.411571484,-71.233572651,414,"1077 LEXINGTON ST, WALTHAM, MA, 2452","Match","Exact","1077 LEXINGTON ST, WALTHAM, MA, 02452",86882603,"R"
16415,"1077 MAIL AVE","DEPTFORD","NJ",8096,39.8057218600001,-75.14408094,415,"1077 MAIL AVE, DEPTFORD, NJ, 8096","Match","Exact","1077 MAIL AVE, DEPTFORD, NJ, 08096",639690159,"R"
16416,"1077 MANHATTAN AVE  APT 6","BROOKLYN","NY",11222,40.7354890180001,-73.9551331339999,416,"1077 MANHATTAN AVE  APT 6, BROOKLYN, NY, 11222","Match","Exact","1077 MANHATTAN AVE, BROOKLYN, NY, 11222",59076244,"L"
16417,"1077 N WILLOW AVE SUITE 105-935","CLOVIS","CA",93611,36.849211876,-119.729673515,417,"1077 N WILLOW AVE SUITE 105-935, CLOVIS, CA, 93611","Match","Non_Exact","1077 N WILLOW AVE, CLOVIS, CA, 93611",640344687,"R"
16418,"1077 PACIFIC COAST HIGHWAY NUM 267","SEAL BEACH","CA",90740,NA,NA,418,"1077 PACIFIC COAST HIGHWAY NUM 267, SEAL BEACH, CA, 90740","No_Match",NA,NA,NA,NA
16419,"1077 PACIFIC COAST HWY","SEAL BEACH","CA",90740,NA,NA,419,"1077 PACIFIC COAST HWY, SEAL BEACH, CA, 90740","No_Match",NA,NA,NA,NA
16420,"1077 PARADISE DR","LEMOORE","CA",93245,36.2796033180001,-119.782365737,420,"1077 PARADISE DR, LEMOORE, CA, 93245","Match","Exact","1077 PARADISE DR, LEMOORE, CA, 93245",627867589,"R"
16421,"1077 RAILROAD STREET NW","CONYERS","GA",30012,33.6700116480001,-84.023109585,421,"1077 RAILROAD STREET NW, CONYERS, GA, 30012","Match","Exact","1077 RAILROAD ST NW, CONYERS, GA, 30012",23740655,"R"
16422,"1077 SILAS DEANE HIGHWAY PMB 131","WETHERSFIELD","CT",6109,41.6915615240001,-72.656062762,422,"1077 SILAS DEANE HIGHWAY PMB 131, WETHERSFIELD, CT, 6109","Match","Exact","1077 SILAS DEANE HWY, WETHERSFIELD, CT, 06109",3517408,"R"
16423,"1077 WALKER ROAD","SALTSBURG","PA",15681,40.4967368960001,-79.526669426,423,"1077 WALKER ROAD, SALTSBURG, PA, 15681","Match","Exact","1077 WALKER RD, SALTSBURG, PA, 15681",52971413,"L"
16424,"1077 WILSHIRE BOULEVARD","STEVENS POINT","WI",54481,44.525478563,-89.549987186,424,"1077 WILSHIRE BOULEVARD, STEVENS POINT, WI, 54481","Match","Exact","1077 WILSHIRE BLVD, STEVENS POINT, WI, 54481",126796565,"R"
16425,"10770 BARELY LANE   STE 1301","HOUSTON","TX",77070,29.9415215130001,-95.580961816,425,"10770 BARELY LANE   STE 1301, HOUSTON, TX, 77070","Match","Exact","10770 BARELY LN, HOUSTON, TX, 77070",233451293,"L"
16426,"10770 BIRCH RANCH DR","SACRAMENTO","CA",95830,38.4821292830001,-121.295892173,426,"10770 BIRCH RANCH DR, SACRAMENTO, CA, 95830","Match","Exact","10770 BIRCH RANCH DR, SACRAMENTO, CA, 95830",133390666,"R"
16427,"10770 BUECHE RD","BUECHE","LA",70729,NA,NA,427,"10770 BUECHE RD, BUECHE, LA, 70729","No_Match",NA,NA,NA,NA
16428,"10770 COLUMBIA PIKE STE 400","SILVER SPRING","MD",20901,39.0327251960001,-77.003504574,428,"10770 COLUMBIA PIKE STE 400, SILVER SPRING, MD, 20901","Match","Exact","10770 COLUMBIA PIKE, SILVER SPRING, MD, 20901",642722739,"L"
16429,"10770 COLUMBIA PIKE SUITE 300-W-4","SILVER SPRING","MD",20901,39.0327251960001,-77.003504574,429,"10770 COLUMBIA PIKE SUITE 300-W-4, SILVER SPRING, MD, 20901","Match","Exact","10770 COLUMBIA PIKE, SILVER SPRING, MD, 20901",642722739,"L"
16430,"10770 E BILBY RD","TUCSON","AZ",85747,32.140899835,-110.762033625,430,"10770 E BILBY RD, TUCSON, AZ, 85747","Match","Exact","10770 E BILBY RD, TUCSON, AZ, 85747",646392113,"L"
16431,"10770 FALL CT NW","BEMIDJI","MN",56601,47.5736899460001,-94.905229501,431,"10770 FALL CT NW, BEMIDJI, MN, 56601","Match","Exact","10770 FALL CT NW, BEMIDJI, MN, 56601",624488843,"L"
16432,"10770 HIGH RD","HERNANDO","MS",38632,34.8068306640001,-90.1805428,432,"10770 HIGH RD, HERNANDO, MS, 38632","Match","Exact","10770 HIGH RD, HERNANDO, MS, 38632",91819269,"L"
16433,"10770 JAMACHA BLVD  67","SPRING VALLEY","CA",91978,32.7299634890001,-116.961332185,433,"10770 JAMACHA BLVD  67, SPRING VALLEY, CA, 91978","Match","Exact","10770 JAMACHA BLVD, SPRING VALLEY, CA, 91978",615030105,"L"
16434,"10770 NW 66TH STREET  APT 109","DORAL","FL",33178,25.8332736690001,-80.3821282339999,434,"10770 NW 66TH STREET  APT 109, DORAL, FL, 33178","Match","Non_Exact","10770 NW 66TH ST, DORAL, FL, 33178",116087904,"L"
16435,"10770 WATTSBURG RD","ERIE","PA",16509,42.0566847270001,-79.9036080829999,435,"10770 WATTSBURG RD, ERIE, PA, 16509","Match","Exact","10770 WATTSBURG RD, ERIE, PA, 16509",632814619,"R"
16436,"10771 KITCHENER COURT","BOWIE","MD",20721,38.903075325,-76.822326339,436,"10771 KITCHENER COURT, BOWIE, MD, 20721","Match","Exact","10771 KITCHENER CT, BOWIE, MD, 20721",76342302,"L"
16437,"10771 OLD COX PIKE","BON AQUA","TN",37025,35.942016279,-87.210546483,437,"10771 OLD COX PIKE, BON AQUA, TN, 37025","Match","Exact","10771 OLD COX PIKE, BON AQUA, TN, 37025",607070991,"L"
16438,"10772 KING ROAD","PLYMOUTH","IN",46563,41.320967395,-86.2610769139999,438,"10772 KING ROAD, PLYMOUTH, IN, 46563","Match","Exact","10772 KING RD, PLYMOUTH, IN, 46563",7649805,"R"
16439,"10772 RHODE ISLAND AVENUE","BELTSVILLE","MD",20705,39.032695135,-76.9138867629999,439,"10772 RHODE ISLAND AVENUE, BELTSVILLE, MD, 20705","Match","Exact","10772 RHODE ISLAND AVE, BELTSVILLE, MD, 20705",76402834,"L"
16440,"10773 LOOP RD","SODDY DAISY","TN",37379,35.26944496,-85.172118685,440,"10773 LOOP RD, SODDY DAISY, TN, 37379","Match","Exact","10773 LOOP RD, SODDY DAISY, TN, 37379",59342213,"L"
16441,"10773 NW 58TH STREET UNIT 164","DORAL","FL",33178,25.826192571,-80.367634241,441,"10773 NW 58TH STREET UNIT 164, DORAL, FL, 33178","Match","Non_Exact","10773 NW 58TH ST, DORAL, FL, 33178",648148242,"R"
16442,"10773 PASADENA ROAD","CARBONDALE","IL",62901,37.7501545860001,-89.148580688,442,"10773 PASADENA ROAD, CARBONDALE, IL, 62901","Match","Exact","10773 PASADENA RD, CARBONDALE, IL, 62901",6006182,"L"
16443,"10773 WHISPER WOODS COVE","COLLIERVILLE","TN",38017,35.024634565,-89.703414585,443,"10773 WHISPER WOODS COVE, COLLIERVILLE, TN, 38017","Match","Non_Exact","10773 WHISPERWOODS COVE, COLLIERVILLE, TN, 38017",607503839,"L"
16444,"10774 ESSEX HALL DR","CHARLOTTE","NC",28277,35.0255976490001,-80.834268332,444,"10774 ESSEX HALL DR, CHARLOTTE, NC, 28277","Match","Exact","10774 ESSEX HALL DR, CHARLOTTE, NC, 28277",70552677,"L"
16445,"10774 SOURWOOD AVENUE","WALDORF","MD",20603,NA,NA,445,"10774 SOURWOOD AVENUE, WALDORF, MD, 20603","No_Match",NA,NA,NA,NA
16446,"10775 27TH AVENUE","BECKER","MN",55308,NA,NA,446,"10775 27TH AVENUE, BECKER, MN, 55308","No_Match",NA,NA,NA,NA
16447,"10775 BABCOCK BLVD","GIBSONIA","PA",15044,40.624856558,-80.001157184,447,"10775 BABCOCK BLVD, GIBSONIA, PA, 15044","Match","Exact","10775 BABCOCK BLVD, GIBSONIA, PA, 15044",636374631,"L"
16448,"10775 KELLI DR","TYLER","TX",75703,32.293365904,-95.3457605689999,448,"10775 KELLI DR, TYLER, TX, 75703","Match","Exact","10775 KELLI DR, TYLER, TX, 75703",141269024,"L"
16449,"10775 MENTZER GAP ROAD","WAYNESBORO","PA",17268,39.7659718100001,-77.5252805699999,449,"10775 MENTZER GAP ROAD, WAYNESBORO, PA, 17268","Match","Exact","10775 MENTZER GAP RD, WAYNESBORO, PA, 17268",60090475,"R"
16450,"10775 RIDGE RIM TRL SE","PORT ORCHARD","WA",98367,47.452469534,-122.644940975,450,"10775 RIDGE RIM TRL SE, PORT ORCHARD, WA, 98367","Match","Exact","10775 RIDGE RIM TRL SE, PORT ORCHARD, WA, 98367",187672123,"R"
16451,"10775 ROOSEVELT HWY","LYNDONVILLE","NY",14098,43.3471657970001,-78.4247214439999,451,"10775 ROOSEVELT HWY, LYNDONVILLE, NY, 14098","Match","Exact","10775 ROOSEVELT HWY, LYNDONVILLE, NY, 14098",48807955,"L"
16452,"10775 SCRIPPS POWAY PKWY 155","SAN DIEGO","CA",92131,32.936837343,-117.097075179,452,"10775 SCRIPPS POWAY PKWY 155, SAN DIEGO, CA, 92131","Match","Exact","10775 SCRIPPS POWAY PKWY, SAN DIEGO, CA, 92131",195653488,"R"
16453,"10775 W ONTARIO PL","LITTLETON","CO",80127,39.5922202620001,-105.11901447,453,"10775 W ONTARIO PL, LITTLETON, CO, 80127","Match","Exact","10775 W ONTARIO PL, LITTLETON, CO, 80127",177322765,"R"
16454,"10775 W QUARLES AVE","LITTLETON","CO",80127,39.5899647090001,-105.119481742,454,"10775 W QUARLES AVE, LITTLETON, CO, 80127","Match","Exact","10775 W QUARLES AVE, LITTLETON, CO, 80127",177322761,"R"
16455,"10776 BELL RD","CLARKSVILLE","MI",48815,42.8315555030001,-85.271869699,455,"10776 BELL RD, CLARKSVILLE, MI, 48815","Match","Exact","10776 BELL RD, CLARKSVILLE, MI, 48815",627818514,"L"
16456,"10777 CHARLESTON PLACE","COOPER CITY","FL",33026,26.042872436,-80.290313375,456,"10777 CHARLESTON PLACE, COOPER CITY, FL, 33026","Match","Non_Exact","10777 CHARLESTON PL, HOLLYWOOD, FL, 33026",114764560,"L"
16457,"10777 NORTHWEST FWY STE 700","HOUSTON","TX",77092,NA,NA,457,"10777 NORTHWEST FWY STE 700, HOUSTON, TX, 77092","No_Match",NA,NA,NA,NA
16458,"10778 ABLE ST NE","BLAINE","MN",55434,45.1658988080001,-93.248685614,458,"10778 ABLE ST NE, BLAINE, MN, 55434","Match","Exact","10778 ABLE ST NE, BLAINE, MN, 55434",97541716,"R"
16459,"10779 DUPREY ST","DETROIT","MI",48224,42.4231081130001,-82.935913491,459,"10779 DUPREY ST, DETROIT, MI, 48224","Match","Exact","10779 DUPREY ST, DETROIT, MI, 48224",95486665,"L"
16460,"1078 230TH STREET","GOLDFIELD","IA",50542,NA,NA,460,"1078 230TH STREET, GOLDFIELD, IA, 50542","No_Match",NA,NA,NA,NA
16461,"1078 90TH AVE NW","MOORHEAD","MN",56560,46.9769511690001,-96.799527966,461,"1078 90TH AVE NW, MOORHEAD, MN, 56560","Match","Exact","1078 90TH AVE NW, MOORHEAD, MN, 56560",168028738,"L"
16462,"1078 AZALEA LANE","CONCORD","CA",94520,37.9488554600001,-122.048239321,462,"1078 AZALEA LANE, CONCORD, CA, 94520","Match","Exact","1078 AZALEA LN, CONCORD, CA, 94520",634219570,"L"
16463,"1078 COVENTRY WAY","MAHWAH","NJ",7430,41.103105182,-74.144639055,463,"1078 COVENTRY WAY, MAHWAH, NJ, 7430","Match","Exact","1078 COVENTRY WAY, MAHWAH, NJ, 07430",64418963,"L"
16464,"1078 CR 1035","GREENVILLE","TX",75401,33.227826549,-96.140566921,464,"1078 CR 1035, GREENVILLE, TX, 75401","Match","Exact","1078 CO RD 1035, GREENVILLE, TX, 75401",42868768,"L"
16465,"1078 EAST 43RD STREET","BROOKLYN","NY",11210,40.628552433,-73.9347074729999,465,"1078 EAST 43RD STREET, BROOKLYN, NY, 11210","Match","Exact","1078 E 43RD ST, BROOKLYN, NY, 11210",59082153,"R"
16466,"1078 HIGHWAY 314","FAYETTEVILLE","GA",30214,33.5315273210001,-84.449479761,466,"1078 HIGHWAY 314, FAYETTEVILLE, GA, 30214","Match","Non_Exact","1078 STATE RTE 314, FAYETTEVILLE, GA, 30214",75954296,"R"
16467,"1078 HOSKINS LN","SAN RAMON","CA",94582,37.74970519,-121.893226914,467,"1078 HOSKINS LN, SAN RAMON, CA, 94582","Match","Exact","1078 HOSKINS LN, SAN RAMON, CA, 94582",624637708,"R"
16468,"1078 JACKSON STREET","PATTISON","MS",39144,31.8899580180001,-90.887449367,468,"1078 JACKSON STREET, PATTISON, MS, 39144","Match","Exact","1078 JACKSON ST, PATTISON, MS, 39144",65136570,"L"
16469,"1078 N GARNETTE","SALT LAKE CITY","UT",84116,40.793873449,-111.935355735,469,"1078 N GARNETTE, SALT LAKE CITY, UT, 84116","Match","Non_Exact","1078 GARNETTE CIR, SALT LAKE CITY, UT, 84116",176065699,"R"
16470,"1078 OLD OAK LN","HAYWARD","CA",94541,37.663852982,-122.097679995,470,"1078 OLD OAK LN, HAYWARD, CA, 94541","Match","Exact","1078 OLD OAK LN, HAYWARD, CA, 94541",624046185,"L"
16471,"1078 SHIELDS LANE","SOUTH JORDAN","UT",84095,40.572451442,-111.922273916,471,"1078 SHIELDS LANE, SOUTH JORDAN, UT, 84095","Match","Exact","1078 SHIELDS LN, SOUTH JORDAN, UT, 84095",651919435,"L"
16472,"1078 W DESERT SAGE DR","PUEBLO WEST","CO",81007,38.3374884770001,-104.79159419,472,"1078 W DESERT SAGE DR, PUEBLO WEST, CO, 81007","Match","Exact","1078 W DESERT SAGE DR, PUEBLO WEST, CO, 81007",105034133,"L"
16473,"1078 W GLENN AVE","AUBURN","AL",36832,32.6085006010001,-85.502912561,473,"1078 W GLENN AVE, AUBURN, AL, 36832","Match","Exact","1078 W GLENN AVE, AUBURN, AL, 36832",1569526,"R"
16474,"10780 GLEN ELLEN DR","TAMPA","FL",33624,28.048102482,-82.529008775,474,"10780 GLEN ELLEN DR, TAMPA, FL, 33624","Match","Exact","10780 GLEN ELLEN DR, TAMPA, FL, 33624",104513710,"R"
16475,"107800 SOUTH 4240 ROAD","CHECOTAH","OK",74426,NA,NA,475,"107800 SOUTH 4240 ROAD, CHECOTAH, OK, 74426","No_Match",NA,NA,NA,NA
16476,"10781 CHAPELWOOD DRIVE","GULFPORT","MS",39503,30.4430347520001,-89.124790546,476,"10781 CHAPELWOOD DRIVE, GULFPORT, MS, 39503","Match","Exact","10781 CHAPELWOOD DR, GULFPORT, MS, 39503",649363021,"R"
16477,"10781 OAK STREET","KANSAS CITY","MO",64114,38.931438342,-94.5876600619999,477,"10781 OAK STREET, KANSAS CITY, MO, 64114","Match","Exact","10781 OAK ST, KANSAS CITY, MO, 64114",91456240,"L"
16478,"10782 LAMPS ON AVE APT 14","GARDEN GROVE","CA",92840,33.781416612,-117.944681127,478,"10782 LAMPS ON AVE APT 14, GARDEN GROVE, CA, 92840","Match","Non_Exact","10782 LAMPSON AVE, GARDEN GROVE, CA, 92840",144035222,"R"
16479,"10782 WATTSBURG RD","ERIE","PA",16509,42.0566533030001,-79.903314103,479,"10782 WATTSBURG RD, ERIE, PA, 16509","Match","Exact","10782 WATTSBURG RD, ERIE, PA, 16509",632814619,"R"
16480,"10782 WEYBURN AVENUE","LOS ANGELES","CA",90024,34.061982641,-118.439604187,480,"10782 WEYBURN AVENUE, LOS ANGELES, CA, 90024","Match","Exact","10782 WEYBURN AVE, LOS ANGELES, CA, 90024",141567765,"L"
16481,"10785 CORSICAN STREET","ORLANDO","FL",32824,28.39477063,-81.3716615129999,481,"10785 CORSICAN STREET, ORLANDO, FL, 32824","Match","Exact","10785 CORSICAN ST, ORLANDO, FL, 32824",640875434,"L"
16482,"10785 CROW HASSAN PARK RD","HANOVER","MN",55341,NA,NA,482,"10785 CROW HASSAN PARK RD, HANOVER, MN, 55341","No_Match",NA,NA,NA,NA
16483,"10785 GUIBAL AVE","GILROY","CA",95020,37.0641361400001,-121.559462378,483,"10785 GUIBAL AVE, GILROY, CA, 95020","Match","Exact","10785 GUIBAL AVE, GILROY, CA, 95020",614048005,"L"
16484,"10785 MORTONS CIRCLE","JOHNS CREEK","GA",30022,34.0433558020001,-84.214092998,484,"10785 MORTONS CIRCLE, JOHNS CREEK, GA, 30022","Match","Exact","10785 MORTONS CIR, JOHNS CREEK, GA, 30022",17366970,"L"
16485,"10785 TAYLOR FARD ROAD","WOODSTOCK","MD",21163,NA,NA,485,"10785 TAYLOR FARD ROAD, WOODSTOCK, MD, 21163","No_Match",NA,NA,NA,NA
16486,"10786 KEYES BRANCH RD","CADET","MO",63630,37.9543566770001,-90.760489213,486,"10786 KEYES BRANCH RD, CADET, MO, 63630","Match","Non_Exact","10786 KEYES BRANCH DR, CADET, MO, 63630",604839272,"R"
16487,"10786 PERRY HIGHWAY","MEADVILLE","PA",16335,41.613963315,-80.199205127,487,"10786 PERRY HIGHWAY, MEADVILLE, PA, 16335","Match","Exact","10786 PERRY HWY, MEADVILLE, PA, 16335",635541703,"R"
16488,"10786 S MORLOS DRIVE","YUMA","AZ",85367,32.6722235300001,-114.43792586,488,"10786 S MORLOS DRIVE, YUMA, AZ, 85367","Match","Non_Exact","10786 S MORELOS DR, YUMA, AZ, 85367",625185305,"R"
16489,"10787 N  WHITETAIL COURT","MEQUON","WI",53092,43.2141586910001,-87.981509209,489,"10787 N  WHITETAIL COURT, MEQUON, WI, 53092","Match","Exact","10787 N WHITETAIL CT, MEQUON, WI, 53092",652108239,"R"
16490,"10787 SANTA TOMASA AVENUE","SAN DIEGO","CA",92127,33.008926382,-117.105776683,490,"10787 SANTA TOMASA AVENUE, SAN DIEGO, CA, 92127","Match","Exact","10787 SANTA TOMASA AVE, SAN DIEGO, CA, 92127",195675941,"L"
16491,"10788 BISHOPVILLE RD","BISHOPVILLE","MD",21813,38.4480737980001,-75.1900522239999,491,"10788 BISHOPVILLE RD, BISHOPVILLE, MD, 21813","Match","Exact","10788 BISHOPVILLE RD, BISHOPVILLE, MD, 21813",114550296,"R"
16492,"10788 NEPTUNE WAY","NEHALEM","OR",97131,NA,NA,492,"10788 NEPTUNE WAY, NEHALEM, OR, 97131","No_Match",NA,NA,NA,NA
16493,"10789 W TWAIN AVENUE SUITE 100","LAS VEGAS","NV",89135,36.1239998,-115.326287021,493,"10789 W TWAIN AVENUE SUITE 100, LAS VEGAS, NV, 89135","Match","Non_Exact","10789 W TWAIN AVE, LAS VEGAS, NV, 89135",641511867,"L"
16494,"10789 WYOMING AVE BOX 113","WYOMING","PA",18644,NA,NA,494,"10789 WYOMING AVE BOX 113, WYOMING, PA, 18644","No_Match",NA,NA,NA,NA
16495,"1079 18TH AVE","NEWARK","NJ",7106,40.740355934,-74.2333221649999,495,"1079 18TH AVE, NEWARK, NJ, 7106","Match","Exact","1079 18TH AVE, NEWARK, NJ, 07106",63463977,"L"
16496,"1079 BELFAST LANE","VENTURA","CA",93001,34.265217647,-119.275580506,496,"1079 BELFAST LANE, VENTURA, CA, 93001","Match","Exact","1079 BELFAST LN, VENTURA, CA, 93001",109951448,"R"
16497,"1079 BRUCE JACKSON RD","NEWNAN","GA",30263,33.32198184,-84.915345437,497,"1079 BRUCE JACKSON RD, NEWNAN, GA, 30263","Match","Exact","1079 BRUCE JACKSON RD, NEWNAN, GA, 30263",9344280,"L"
16498,"1079 COMMONWEALTH AVE UNIT 503","BOSTON","MA",2215,42.3522027060001,-71.123822699,498,"1079 COMMONWEALTH AVE UNIT 503, BOSTON, MA, 2215","Match","Exact","1079 COMMONWEALTH AVE, BOSTON, MA, 02215",636133766,"R"
16499,"1079 COUNTY ROAD 451","QUITMAN","MS",39355,NA,NA,499,"1079 COUNTY ROAD 451, QUITMAN, MS, 39355","No_Match",NA,NA,NA,NA
16500,"1079 GOLDEN POND RD","MCCLELLANVILLE","SC",29458,33.0408763620001,-79.588453967,500,"1079 GOLDEN POND RD, MCCLELLANVILLE, SC, 29458","Match","Non_Exact","1079 GOLDEN POND RD, MC CLELLANVILLE, SC, 29458",108878441,"R"
