"ID","Address","City","State","Zip","lat","long","id","input_address","match_indicator","match_type","matched_address","tiger_line_id","tiger_side"
3001,"1000 APOLLO WAY","SANTA ROSA","CA",95407,38.419606666,-122.752593066,1,"1000 APOLLO WAY, SANTA ROSA, CA, 95407","Match","Exact","1000 APOLLO WAY, SANTA ROSA, CA, 95407",67509366,"R"
3002,"1000 APPALACHEE DRIVE SE","HUNTSVILLE","AL",35801,34.7114109290001,-86.550877884,2,"1000 APPALACHEE DRIVE SE, HUNTSVILLE, AL, 35801","Match","Exact","1000 APPALACHEE DR SE, HUNTSVILLE, AL, 35801",647681359,"R"
3003,"1000 ARBOR LAKE DRIVE","NAPLES","FL",34110,26.302231379,-81.818822885,3,"1000 ARBOR LAKE DRIVE, NAPLES, FL, 34110","Match","Exact","1000 ARBOR LAKE DR, NAPLES, FL, 34110",115148243,"L"
3004,"1000 ARBOR WAY","SAUK RAPIDS","MN",56379,45.6066300430001,-94.163192099,4,"1000 ARBOR WAY, SAUK RAPIDS, MN, 56379","Match","Exact","1000 ARBOR WAY, SAUK RAPIDS, MN, 56379",167364303,"R"
3005,"1000 ARDMORE BLVD","PITTSBURGH","PA",15221,NA,NA,5,"1000 ARDMORE BLVD, PITTSBURGH, PA, 15221","No_Match",NA,NA,NA,NA
3006,"1000 ARION PARK ROAD APT 100","BALTIMORE","MD",21229,39.2675055770001,-76.686377835,6,"1000 ARION PARK ROAD APT 100, BALTIMORE, MD, 21229","Match","Exact","1000 ARION PARK RD, BALTIMORE, MD, 21229",206415593,"R"
3007,"1000 ARKANSAS RD","SADLER","TX",76264,33.7547875820001,-96.833526009,7,"1000 ARKANSAS RD, SADLER, TX, 76264","Match","Exact","1000 ARKANSAS RD, SADLER, TX, 76264",647432433,"R"
3008,"1000 ATLANTIC AVE STE 135","CAMDEN","NJ",8104,39.9294074270001,-75.1094864039999,8,"1000 ATLANTIC AVE STE 135, CAMDEN, NJ, 8104","Match","Exact","1000 ATLANTIC AVE, CAMDEN, NJ, 08104",134347729,"R"
3009,"1000 AVELLA ROAD","AVELLA","PA",15312,40.2726552880001,-80.418607922,9,"1000 AVELLA ROAD, AVELLA, PA, 15312","Match","Exact","1000 AVELLA RD, AVELLA, PA, 15312",52829883,"L"
3010,"1000 AVEQ","EUNICE","NM",88231,32.4449829000001,-103.156015217,10,"1000 AVEQ, EUNICE, NM, 88231","Match","Non_Exact","1000 AVE Q, EUNICE, NM, 88231",132051766,"R"
3011,"1000 B SOUTH RODNEY FRENCH BLVD","NEW BEDFORD","MA",2744,41.5970316,-70.904569505,11,"1000 B SOUTH RODNEY FRENCH BLVD, NEW BEDFORD, MA, 2744","Match","Exact","1000 S RODNEY FRENCH BLVD, NEW BEDFORD, MA, 02744",46787766,"R"
3012,"1000 BADGER CIRCLE","GRAFTON","WI",53204,NA,NA,12,"1000 BADGER CIRCLE, GRAFTON, WI, 53204","No_Match",NA,NA,NA,NA
3013,"1000 BAILEY RANCH ROAD","ALEDO","TX",76008,32.711069358,-97.615886465,13,"1000 BAILEY RANCH ROAD, ALEDO, TX, 76008","Match","Exact","1000 BAILEY RANCH RD, ALEDO, TX, 76008",643009341,"R"
3014,"1000 BALFOURE DRIVE","WILMINGTON","NC",28412,34.152810242,-77.9223517469999,14,"1000 BALFOURE DRIVE, WILMINGTON, NC, 28412","Match","Exact","1000 BALFOURE DR, WILMINGTON, NC, 28412",152744946,"L"
3015,"1000 BALLPARK WAY 212-213","ARLINGTON","TX",76011,NA,NA,15,"1000 BALLPARK WAY 212-213, ARLINGTON, TX, 76011","No_Match",NA,NA,NA,NA
3016,"1000 BARONE AVE APT 8404","ATLANTA","GA",30329,33.8419521980001,-84.317339234,16,"1000 BARONE AVE APT 8404, ATLANTA, GA, 30329","Match","Exact","1000 BARONE AVE, ATLANTA, GA, 30329",642362386,"R"
3017,"1000 BAT CREEK ROAD E","VONORE","TN",37885,35.6351226960001,-84.268644259,17,"1000 BAT CREEK ROAD E, VONORE, TN, 37885","Match","Exact","1000 BAT CREEK RD E, VONORE, TN, 37885",85312464,"L"
3018,"1000 BAYOU WOODS DR","COLLEGE STATION","TX",77840,30.6259052830001,-96.313021812,18,"1000 BAYOU WOODS DR, COLLEGE STATION, TX, 77840","Match","Exact","1000 BAYOU WOODS DR, COLLEGE STATION, TX, 77840",21816786,"R"
3019,"1000 BEAVER GRADE RD","MOON TOWNSHIP","PA",15108,40.505370537,-80.207426499,19,"1000 BEAVER GRADE RD, MOON TOWNSHIP, PA, 15108","Match","Exact","1000 BEAVER GRADE RD, MOON TOWNSHIP, PA, 15108",617243864,"R"
3020,"1000 BEETHOVEN COMMON / APT 106","FREMONT","CA",94538,37.5580083020001,-121.96434941,20,"1000 BEETHOVEN COMMON / APT 106, FREMONT, CA, 94538","Match","Exact","1000 BEETHOVEN CMN, FREMONT, CA, 94538",606198034,"R"
3021,"1000 BELLO STREET","PISMO BEACH","CA",93449,35.1442215120001,-120.6407974,21,"1000 BELLO STREET, PISMO BEACH, CA, 93449","Match","Exact","1000 BELLO ST, PISMO BEACH, CA, 93449",109759910,"R"
3022,"1000 BENEDICT STREET APT B","CALDWELL","TX",77836,30.524374622,-96.713027269,22,"1000 BENEDICT STREET APT B, CALDWELL, TX, 77836","Match","Exact","1000 BENEDICT ST, CALDWELL, TX, 77836",24806205,"L"
3023,"1000 BENNETT BLVD STE 8","LAKEWOOD","NJ",8701,40.0572754950001,-74.1797335799999,23,"1000 BENNETT BLVD STE 8, LAKEWOOD, NJ, 8701","Match","Non_Exact","1000 BENNET BLVD, LAKEWOOD, NJ, 08701",641804552,"L"
3024,"1000 BERKLEY PARKWAY APT 257","KANSAS CITY","MO",64120,NA,NA,24,"1000 BERKLEY PARKWAY APT 257, KANSAS CITY, MO, 64120","No_Match",NA,NA,NA,NA
3025,"1000 BETHEL ROAD","HARTSELLE","AL",35640,34.455014917,-86.92359081,25,"1000 BETHEL ROAD, HARTSELLE, AL, 35640","Match","Non_Exact","1000 BETHEL RD NE, HARTSELLE, AL, 35640",639933772,"R"
3026,"1000 BISHOP ST          SUITE 810","HONOLULU","HI",96813,21.3085571940001,-157.861457004,26,"1000 BISHOP ST          SUITE 810, HONOLULU, HI, 96813","Match","Exact","1000 BISHOP ST, HONOLULU, HI, 96813",203236014,"L"
3027,"1000 BISHOP ST STE 908","HONOLULU","HI",96813,21.3085571940001,-157.861457004,27,"1000 BISHOP ST STE 908, HONOLULU, HI, 96813","Match","Exact","1000 BISHOP ST, HONOLULU, HI, 96813",203236014,"L"
3028,"1000 BISHOP ST SUITE 810","HONOLULU","HI",96813,21.3085571940001,-157.861457004,28,"1000 BISHOP ST SUITE 810, HONOLULU, HI, 96813","Match","Exact","1000 BISHOP ST, HONOLULU, HI, 96813",203236014,"L"
3029,"1000 BISHOP STREET  SUITE 808","HONOLULU","HI",96813,21.3085571940001,-157.861457004,29,"1000 BISHOP STREET  SUITE 808, HONOLULU, HI, 96813","Match","Exact","1000 BISHOP ST, HONOLULU, HI, 96813",203236014,"L"
3030,"1000 BISHOP STREET SUITE 810","HONOLULU","HI",96813,21.3085571940001,-157.861457004,30,"1000 BISHOP STREET SUITE 810, HONOLULU, HI, 96813","Match","Exact","1000 BISHOP ST, HONOLULU, HI, 96813",203236014,"L"
3031,"1000 BLUE HERON POINT","BIRMINGHAM","AL",35242,33.399812739,-86.652053375,31,"1000 BLUE HERON POINT, BIRMINGHAM, AL, 35242","Match","Exact","1000 BLUE HERON PT, BIRMINGHAM, AL, 35242",221523619,"R"
3032,"1000 BLUE HILL AVENUE","DORCHESTER","MA",2124,42.289879259,-71.0894660989999,32,"1000 BLUE HILL AVENUE, DORCHESTER, MA, 2124","Match","Exact","1000 BLUE HILL AVE, DORCHESTER, MA, 02124",85734429,"R"
3033,"1000 BOWDEN HILL RD","TITUS","AL",36080,32.688421218,-86.232912432,33,"1000 BOWDEN HILL RD, TITUS, AL, 36080","Match","Non_Exact","1000 BOWDEN RD, TITUS, AL, 36080",635634827,"R"
3034,"1000 BREVARD ROAD SUITE 175","ASHEVILLE","NC",28806,35.526529129,-82.606672907,34,"1000 BREVARD ROAD SUITE 175, ASHEVILLE, NC, 28806","Match","Exact","1000 BREVARD RD, ASHEVILLE, NC, 28806",36864032,"L"
3035,"1000 BRICKELL AVE SUITE 400","MIAMI","FL",33131,25.7641541030001,-80.191216431,35,"1000 BRICKELL AVE SUITE 400, MIAMI, FL, 33131","Match","Exact","1000 BRICKELL AVE, MIAMI, FL, 33131",624579672,"R"
3036,"1000 BRICKELL PLAZA APT 4910","MIAMI","FL",33131,25.7641541030001,-80.191216431,36,"1000 BRICKELL PLAZA APT 4910, MIAMI, FL, 33131","Match","Non_Exact","1000 BRICKELL AVE, MIAMI, FL, 33131",624579672,"R"
3037,"1000 BROOKVIEW DR APT 1206","COPPERAS COVE","TX",76522,NA,NA,37,"1000 BROOKVIEW DR APT 1206, COPPERAS COVE, TX, 76522","No_Match",NA,NA,NA,NA
3038,"1000 BROWN AVE","CLEVELAND","MS",38732,33.737439991,-90.705614978,38,"1000 BROWN AVE, CLEVELAND, MS, 38732","Match","Exact","1000 BROWN AVE, CLEVELAND, MS, 38732",843394,"L"
3039,"1000 BUFFALO ROAD","LEWISBURG","PA",17837,40.967375841,-76.905729159,39,"1000 BUFFALO ROAD, LEWISBURG, PA, 17837","Match","Exact","1000 BUFFALO RD, LEWISBURG, PA, 17837",48190603,"L"
3040,"1000 BUSINESS BLVD","EVANS","GA",30809,33.5447105810001,-82.135056471,40,"1000 BUSINESS BLVD, EVANS, GA, 30809","Match","Exact","1000 BUSINESS BLVD, EVANS, GA, 30809",640752419,"L"
3041,"1000 BUSINESS BOULEVARD","EVANS","GA",30809,33.5447105810001,-82.135056471,41,"1000 BUSINESS BOULEVARD, EVANS, GA, 30809","Match","Exact","1000 BUSINESS BLVD, EVANS, GA, 30809",640752419,"L"
3042,"1000 CALVERIE ROAD","HEBER","CA",92249,32.716611674,-115.405222993,42,"1000 CALVERIE ROAD, HEBER, CA, 92249","Match","Non_Exact","1000 CLAVERIE RD, HEBER, CA, 92249",640431190,"R"
3043,"1000 CARMICHAEL GYM BOX 8111","RALEIGH","NC",27695,NA,NA,43,"1000 CARMICHAEL GYM BOX 8111, RALEIGH, NC, 27695","No_Match",NA,NA,NA,NA
3044,"1000 CARNAHAN DR","MAUMELLE","AR",72113,34.8587214,-92.390077151,44,"1000 CARNAHAN DR, MAUMELLE, AR, 72113","Match","Exact","1000 CARNAHAN DR, MAUMELLE, AR, 72113",631775695,"R"
3045,"1000 CARUSO BLVD STE 201","SLIDELL","LA",70461,30.2456097620001,-89.761076023,45,"1000 CARUSO BLVD STE 201, SLIDELL, LA, 70461","Match","Exact","1000 CARUSO BLVD, SLIDELL, LA, 70461",111338510,"L"
3046,"1000 CAUTHEN COURT","MARIETTA","GA",30066,34.059437777,-84.524258867,46,"1000 CAUTHEN COURT, MARIETTA, GA, 30066","Match","Non_Exact","1000 CAUTHEN CT NE, MARIETTA, GA, 30066",17257671,"R"
3047,"1000 CHAMPION PLACE","VACAVILLE","CA",95987,38.3541642660001,-121.935667902,47,"1000 CHAMPION PLACE, VACAVILLE, CA, 95987","Match","Non_Exact","1000 CHAMPION PL, VACAVILLE, CA, 95687",192614818,"R"
3048,"1000 CHASTAIN ROAD ID000758429","KENNESAW","GA",30144,34.0318506250001,-84.581396368,48,"1000 CHASTAIN ROAD ID000758429, KENNESAW, GA, 30144","Match","Exact","1000 CHASTAIN RD, KENNESAW, GA, 30144",640540957,"R"
3049,"1000 CHASTAIN ROAD","KENNESAW","GA",30144,34.0318506250001,-84.581396368,49,"1000 CHASTAIN ROAD, KENNESAW, GA, 30144","Match","Exact","1000 CHASTAIN RD, KENNESAW, GA, 30144",640540957,"R"
3050,"1000 CHERRY AVE","CHARLOTTESVILLE","VA",22903,38.0285036920001,-78.496801346,50,"1000 CHERRY AVE, CHARLOTTESVILLE, VA, 22903","Match","Exact","1000 CHERRY AVE, CHARLOTTESVILLE, VA, 22903",83369588,"L"
3051,"1000 CHISHOLM TRAIL PARKWAY","DUNCAN","OK",73533,NA,NA,51,"1000 CHISHOLM TRAIL PARKWAY, DUNCAN, OK, 73533","No_Match",NA,NA,NA,NA
3052,"1000 CHURCH LANE","YEADON","PA",19050,39.928300633,-75.246525828,52,"1000 CHURCH LANE, YEADON, PA, 19050","Match","Exact","1000 CHURCH LN, YEADON, PA, 19050",134886793,"R"
3053,"1000 CIVIC CENTER DR","TRACY","CA",95376,NA,NA,53,"1000 CIVIC CENTER DR, TRACY, CA, 95376","No_Match",NA,NA,NA,NA
3054,"1000 CIVIC CENTER DRIVE","TRACY","CA",95376,NA,NA,54,"1000 CIVIC CENTER DRIVE, TRACY, CA, 95376","No_Match",NA,NA,NA,NA
3055,"1000 COLLEGE AVE","BRONX","NY",10456,40.828608306,-73.915779376,55,"1000 COLLEGE AVE, BRONX, NY, 10456","Match","Exact","1000 COLLEGE AVE, BRONX, NY, 10456",80300473,"R"
3056,"1000 COLLEGE BOULEVARD BUILDING 19","PENSACOLA","FL",32504,30.4800192180001,-87.203324911,56,"1000 COLLEGE BOULEVARD BUILDING 19, PENSACOLA, FL, 32504","Match","Exact","1000 COLLEGE BLVD, PENSACOLA, FL, 32504",93269253,"L"
3057,"1000 CONTINENTAL DR SUITE 430","KING OF PRUSSIA","PA",19406,40.0805156110001,-75.398596977,57,"1000 CONTINENTAL DR SUITE 430, KING OF PRUSSIA, PA, 19406","Match","Exact","1000 CONTINENTAL DR, KING OF PRUSSIA, PA, 19406",605696305,"L"
3058,"1000 CORDOVA PLACE  SUITE 117","SANTA FE","NM",87505,35.6739201980001,-105.951381167,58,"1000 CORDOVA PLACE  SUITE 117, SANTA FE, NM, 87505","Match","Exact","1000 CORDOVA PL, SANTA FE, NM, 87505",169378612,"L"
3059,"1000 CORDOVA PLACE 370","SANTA FE","NM",87505,35.6739201980001,-105.951381167,59,"1000 CORDOVA PLACE 370, SANTA FE, NM, 87505","Match","Exact","1000 CORDOVA PL, SANTA FE, NM, 87505",169378612,"L"
3060,"1000 CORDOVA PLACE BOX 707","SANTA FE","NM",87505,35.6739201980001,-105.951381167,60,"1000 CORDOVA PLACE BOX 707, SANTA FE, NM, 87505","Match","Exact","1000 CORDOVA PL, SANTA FE, NM, 87505",169378612,"L"
3061,"1000 CORDOVA PLACE SUITE 717","SANTA FE","NM",87505,35.6739201980001,-105.951381167,61,"1000 CORDOVA PLACE SUITE 717, SANTA FE, NM, 87505","Match","Exact","1000 CORDOVA PL, SANTA FE, NM, 87505",169378612,"L"
3062,"1000 CORPORATE POINTE SUITE 111","WARNER ROBINS","GA",31088,NA,NA,62,"1000 CORPORATE POINTE SUITE 111, WARNER ROBINS, GA, 31088","No_Match",NA,NA,NA,NA
3063,"1000 COURT STREET","MARTINEZ","CA",94553,38.0167440430001,-122.132697088,63,"1000 COURT STREET, MARTINEZ, CA, 94553","Match","Exact","1000 COURT ST, MARTINEZ, CA, 94553",192035474,"R"
3064,"1000 CREEKVIEW CIRCLE STE 1216","CRANBERRY TOWNSHIP","PA",16066,40.680942068,-80.090954042,64,"1000 CREEKVIEW CIRCLE STE 1216, CRANBERRY TOWNSHIP, PA, 16066","Match","Exact","1000 CREEKVIEW CIR, CRANBERRY TOWNSHIP, PA, 16066",648777064,"R"
3065,"1000 CRESTHAVEN DRIVE","SILVER SRING","MD",20903,39.0193908900001,-76.9922757109999,65,"1000 CRESTHAVEN DRIVE, SILVER SRING, MD, 20903","Match","Non_Exact","1000 CRESTHAVEN DR, SILVER SPRING, MD, 20903",62073569,"L"
3066,"1000 CUMBERLAND VIEW DRIVE","ASHLAND CITY","TN",37015,36.29766226,-87.103712276,66,"1000 CUMBERLAND VIEW DRIVE, ASHLAND CITY, TN, 37015","Match","Exact","1000 CUMBERLAND VIEW DR, ASHLAND CITY, TN, 37015",72879716,"L"
3067,"1000 DAVE GIBSON BLVD","FORT MILL","SC",29708,35.040179736,-80.989183837,67,"1000 DAVE GIBSON BLVD, FORT MILL, SC, 29708","Match","Exact","1000 DAVE GIBSON BLVD, FORT MILL, SC, 29708",19835723,"R"
3068,"1000 DEER MEADOW DR","GREENCASTLE","IN",46135,39.6494941510001,-86.8496150779999,68,"1000 DEER MEADOW DR, GREENCASTLE, IN, 46135","Match","Non_Exact","1000 DEER MEADOW LN, GREENCASTLE, IN, 46135",606132381,"R"
3069,"1000 DENA LANE","PONTOTOC","MS",38863,34.218492387,-89.145572833,69,"1000 DENA LANE, PONTOTOC, MS, 38863","Match","Exact","1000 DENA LN, PONTOTOC, MS, 38863",77002685,"R"
3070,"1000 DETENTION DRIVE","CLARKESVILLE","GA",30523,34.6117717230001,-83.533643491,70,"1000 DETENTION DRIVE, CLARKESVILLE, GA, 30523","Match","Exact","1000 DETENTION DR, CLARKESVILLE, GA, 30523",638970380,"R"
3071,"1000 DIANA DRIVE","EDINBURG","TX",78542,26.2885266000001,-98.140595139,71,"1000 DIANA DRIVE, EDINBURG, TX, 78542","Match","Exact","1000 DIANA DR, EDINBURG, TX, 78542",71558725,"R"
3072,"1000 DOLPHIN CT","SUISUN CITY","CA",94585,38.237087049,-122.030950636,72,"1000 DOLPHIN CT, SUISUN CITY, CA, 94585","Match","Exact","1000 DOLPHIN CT, SUISUN CITY, CA, 94585",192538126,"L"
3073,"1000 DUSTY PALOMINO","FORT WORTH","TX",76179,32.8462560990001,-97.378364559,73,"1000 DUSTY PALOMINO, FORT WORTH, TX, 76179","Match","Non_Exact","1000 DUSTY PALOMINO DR, FORT WORTH, TX, 76179",102107799,"R"
3074,"1000 DUTCH VALLEY DRIVE","KNOXVILLE","TN",37918,36.008607543,-83.947368393,74,"1000 DUTCH VALLEY DRIVE, KNOXVILLE, TN, 37918","Match","Exact","1000 DUTCH VALLEY DR, KNOXVILLE, TN, 37918",624553404,"R"
3075,"1000 E 10TH ST","MEDFORD","OR",97504,42.3239854730001,-122.861609677,75,"1000 E 10TH ST, MEDFORD, OR, 97504","Match","Exact","1000 E 10TH ST, MEDFORD, OR, 97504",155514726,"R"
3076,"1000 E 14TH ST","DES MOINES","IA",50316,41.5987574430001,-93.599909609,76,"1000 E 14TH ST, DES MOINES, IA, 50316","Match","Exact","1000 E 14TH ST, DES MOINES, IA, 50316",65784182,"L"
3077,"1000 E 15TH STREET","EDMOND","OK",73013,35.638290048,-97.4675530819999,77,"1000 E 15TH STREET, EDMOND, OK, 73013","Match","Exact","1000 E 15TH ST, EDMOND, OK, 73013",652822997,"R"
3078,"1000 E 7TH STREET APT 326","LOS ANGELES","CA",90021,34.038669785,-118.243870743,78,"1000 E 7TH STREET APT 326, LOS ANGELES, CA, 90021","Match","Non_Exact","1000 E 7TH ST, LOS ANGELES, CA, 90021",141620368,"R"
3079,"1000 E AVE Q A204","PALMDALE","CA",93550,34.5873117680001,-118.111785516,79,"1000 E AVE Q A204, PALMDALE, CA, 93550","Match","Non_Exact","1000 E AVE Q, PALMDALE, CA, 93550",141529387,"L"
3080,"1000 E CARO RD","CARO","MI",48723,43.495797963,-83.387337614,80,"1000 E CARO RD, CARO, MI, 48723","Match","Exact","1000 E CARO RD, CARO, MI, 48723",81244834,"R"
3081,"1000 E CAROLINE STREET 704","TAVARES","FL",32778,28.8056965540001,-81.7180002429999,81,"1000 E CAROLINE STREET 704, TAVARES, FL, 32778","Match","Non_Exact","1000 E CAROLINE ST, TAVARES, FL, 32778",94109774,"L"
3082,"1000 E CENTURY AVE","BISMARCK","ND",58503,46.8381671280001,-100.776485036,82,"1000 E CENTURY AVE, BISMARCK, ND, 58503","Match","Exact","1000 E CENTURY AVE, BISMARCK, ND, 58503",198875854,"L"
3083,"1000 E CHURCH ST","PIERRE","SD",57501,44.3695526160001,-100.339802878,83,"1000 E CHURCH ST, PIERRE, SD, 57501","Match","Exact","1000 E CHURCH ST, PIERRE, SD, 57501",628092839,"R"
3084,"1000 E FOREST AVE","WHEATON","IL",60187,41.8756172080001,-88.09190612,84,"1000 E FOREST AVE, WHEATON, IL, 60187","Match","Exact","1000 E FOREST AVE, WHEATON, IL, 60187",112521366,"R"
3085,"1000 E GRUBB DR","MESQUITE","TX",75149,32.7748791060001,-96.5827205849999,85,"1000 E GRUBB DR, MESQUITE, TX, 75149","Match","Exact","1000 E GRUBB DR, MESQUITE, TX, 75149",103165896,"R"
3086,"1000 E HAWTHORNE","ALBERT LE","MN",56007,43.6585839850001,-93.356962843,86,"1000 E HAWTHORNE, ALBERT LE, MN, 56007","Match","Non_Exact","1000 E HAWTHORNE ST, ALBERT LEA, MN, 56007",39549294,"L"
3087,"1000 E KALEY STREET","ORLANDO","FL",32806,28.520344794,-81.3656792629999,87,"1000 E KALEY STREET, ORLANDO, FL, 32806","Match","Exact","1000 E KALEY ST, ORLANDO, FL, 32806",94426529,"R"
3088,"1000 E MADISON ST","SPRINGFIELD","MO",65807,37.200386114,-93.280329882,88,"1000 E MADISON ST, SPRINGFIELD, MO, 65807","Match","Exact","1000 E MADISON ST, SPRINGFIELD, MO, 65807",76700349,"R"
3089,"1000 E MAIN ST STE 302","MIDLOTHIAN","TX",76065,32.4820999,-97.0053635,89,"1000 E MAIN ST STE 302, MIDLOTHIAN, TX, 76065","Match","Exact","1000 MAIN ST, MIDLOTHIAN, TX, 76065",214495733,"R"
3090,"1000 E MESQUITE ST","GILBERT","AZ",85296,33.342830737,-111.768720116,90,"1000 E MESQUITE ST, GILBERT, AZ, 85296","Match","Exact","1000 E MESQUITE ST, GILBERT, AZ, 85296",638963073,"L"
3091,"1000 E MESQUITE STREET","GILBERT","AZ",85296,33.342830737,-111.768720116,91,"1000 E MESQUITE STREET, GILBERT, AZ, 85296","Match","Exact","1000 E MESQUITE ST, GILBERT, AZ, 85296",638963073,"L"
3092,"1000 E MT DRIVE ACAD AFF MC 37-70","WILKES-BARRE","PA",18711,41.260921592,-75.813857679,92,"1000 E MT DRIVE ACAD AFF MC 37-70, WILKES-BARRE, PA, 18711","Match","Non_Exact","1000 E MOUNTAIN DR, WILKES BARRE, PA, 18711",604525397,"L"
3093,"1000 E PLEASANT RUN ROAD APT 3311","CEDAR HILL","TX",75104,32.604364489,-96.9183152049999,93,"1000 E PLEASANT RUN ROAD APT 3311, CEDAR HILL, TX, 75104","Match","Non_Exact","1000 E PLEASANT RUN RD, CEDAR HILL, TX, 75104",650491652,"R"
3094,"1000 E PORTER STREET","JACKSON","MI",49202,42.267952822,-84.3927707559999,94,"1000 E PORTER STREET, JACKSON, MI, 49202","Match","Exact","1000 E PORTER ST, JACKSON, MI, 49202",17617008,"L"
3095,"1000 E PRYOR AVE","POCOLA","OK",74902,35.259784547,-94.467599602,95,"1000 E PRYOR AVE, POCOLA, OK, 74902","Match","Non_Exact","1000 PRYOR AVE E, POCOLA, OK, 74902",606819667,"R"
3096,"1000 E THIRD STREET  SUITE 8","WINSLOW","AZ",86047,NA,NA,96,"1000 E THIRD STREET  SUITE 8, WINSLOW, AZ, 86047","Tie",NA,NA,NA,NA
3097,"1000 E UNIVERSITY AVE","LARAMIE","WY",82071,NA,NA,97,"1000 E UNIVERSITY AVE, LARAMIE, WY, 82071","No_Match",NA,NA,NA,NA
3098,"1000 E UNIVERSITY DEPT 3354","LARAMIE","WY",82072,NA,NA,98,"1000 E UNIVERSITY DEPT 3354, LARAMIE, WY, 82072","No_Match",NA,NA,NA,NA
3099,"1000 E UNIVERSITY ST DEPT 3295","LARAMIE","WY",82071,NA,NA,99,"1000 E UNIVERSITY ST DEPT 3295, LARAMIE, WY, 82071","No_Match",NA,NA,NA,NA
3100,"1000 E VICTORIA ST","CARSON","CA",90747,33.8672281790001,-118.25534358,100,"1000 E VICTORIA ST, CARSON, CA, 90747","Match","Exact","1000 E VICTORIA ST, CARSON, CA, 90747",142852728,"R"
3101,"1000 E WALNUT AVE STE C","FULLERTON","CA",92831,33.8683652880001,-117.90894714,101,"1000 E WALNUT AVE STE C, FULLERTON, CA, 92831","Match","Non_Exact","1000 E WALNUT AVE, FULLERTON, CA, 92831",144415174,"R"
3102,"1000 E WALNUT ST SUITE 124","PASADENA","CA",91106,34.149594484,-118.130234599,102,"1000 E WALNUT ST SUITE 124, PASADENA, CA, 91106","Match","Non_Exact","1000 E WALNUT ST, PASADENA, CA, 91106",141630835,"R"
3103,"1000 E WILCOX DR","SIERRA VISTA","AZ",85635,31.552343568,-110.28882668,103,"1000 E WILCOX DR, SIERRA VISTA, AZ, 85635","Match","Exact","1000 E WILCOX DR, SIERRA VISTA, AZ, 85635",650233454,"R"
3104,"1000 EAST 15TH ST","EDMOND","OK",73013,35.638290048,-97.467554118,104,"1000 EAST 15TH ST, EDMOND, OK, 73013","Match","Exact","1000 E 15TH ST, EDMOND, OK, 73013",652822997,"R"
3105,"1000 EAST AVENUE","ROCHESTER","NY",14607,43.1509409000001,-77.5778143049999,105,"1000 EAST AVENUE, ROCHESTER, NY, 14607","Match","Exact","1000 EAST AVE, ROCHESTER, NY, 14607",14540898,"L"
3106,"1000 EAST HIGHWAY MM","ASHLAND","MO",65010,NA,NA,106,"1000 EAST HIGHWAY MM, ASHLAND, MO, 65010","No_Match",NA,NA,NA,NA
3107,"1000 EAST NASHVILLE AVE","ATMORE","AL",36502,NA,NA,107,"1000 EAST NASHVILLE AVE, ATMORE, AL, 36502","No_Match",NA,NA,NA,NA
3108,"1000 EAST NINTH STREET","LOCKPORT","IL",60441,41.5929469590001,-88.040479096,108,"1000 EAST NINTH STREET, LOCKPORT, IL, 60441","Match","Exact","1000 E 9TH ST, LOCKPORT, IL, 60441",649240476,"L"
3109,"1000 EAST ROBINSON ST/ SUITE L","ORLANDO","FL",32801,28.5457672320001,-81.366098888,109,"1000 EAST ROBINSON ST/ SUITE L, ORLANDO, FL, 32801","Match","Non_Exact","1000 E ROBINSON ST, ORLANDO, FL, 32801",94282239,"R"
3110,"1000 EAST ROBINSON","ORLANDO","FL",32803,NA,NA,110,"1000 EAST ROBINSON, ORLANDO, FL, 32803","No_Match",NA,NA,NA,NA
3111,"1000 ELDORADO AVE","CHARLOTTE","NC",28262,35.2888274090001,-80.778244265,111,"1000 ELDORADO AVE, CHARLOTTE, NC, 28262","Match","Exact","1000 ELDORADO AVE, CHARLOTTE, NC, 28262",70480546,"L"
3112,"1000 ELLIOTT ROAD","MCDONOUGH","GA",30252,33.4958092700001,-84.118517712,112,"1000 ELLIOTT ROAD, MCDONOUGH, GA, 30252","Match","Exact","1000 ELLIOTT RD, MCDONOUGH, GA, 30252",23184952,"R"
3113,"1000 ELLSWORTH ST SUITE 2000","ELLSWORTH AFB","SD",57706,NA,NA,113,"1000 ELLSWORTH ST SUITE 2000, ELLSWORTH AFB, SD, 57706","No_Match",NA,NA,NA,NA
3114,"1000 ELLSWORTH STREET","ELLSWORTH AFB","SD",57706,NA,NA,114,"1000 ELLSWORTH STREET, ELLSWORTH AFB, SD, 57706","No_Match",NA,NA,NA,NA
3115,"1000 ELMWOOD AVENUE","ROCHESTER","NY",14620,43.1249717530001,-77.6114099169999,115,"1000 ELMWOOD AVENUE, ROCHESTER, NY, 14620","Match","Exact","1000 ELMWOOD AVE, ROCHESTER, NY, 14620",642705996,"L"
3116,"1000 FADLEY ROAD","WEYERS CAVE","VA",24486,38.3045163190001,-78.977538344,116,"1000 FADLEY ROAD, WEYERS CAVE, VA, 24486","Match","Exact","1000 FADLEY RD, WEYERS CAVE, VA, 24486",213466203,"R"
3117,"1000 FAIRWAY DR","EDINBURG","TX",78539,26.2877785360001,-98.174948461,117,"1000 FAIRWAY DR, EDINBURG, TX, 78539","Match","Non_Exact","1000 W FAIRWAY DR, EDINBURG, TX, 78539",71495901,"L"
3118,"1000 FIFTH STREET SUITE 200-M3","MIAMI BEACH","FL",33139,25.774397644,-80.1383897759999,118,"1000 FIFTH STREET SUITE 200-M3, MIAMI BEACH, FL, 33139","Match","Exact","1000 5TH ST, MIAMI BEACH, FL, 33139",116020702,"L"
3119,"1000 FIFTH STREET SUITE 8","SAN RAFAEL","CA",94901,37.9740485570001,-122.526996375,119,"1000 FIFTH STREET SUITE 8, SAN RAFAEL, CA, 94901","Match","Non_Exact","1000 5TH AVE, SAN RAFAEL, CA, 94901",192764676,"R"
3120,"1000 FLAX LN","WAUSAU","WI",54401,NA,NA,120,"1000 FLAX LN, WAUSAU, WI, 54401","No_Match",NA,NA,NA,NA
3121,"1000 FM 1960 WEST SUITE 221","HOUSTON","TX",77090,NA,NA,121,"1000 FM 1960 WEST SUITE 221, HOUSTON, TX, 77090","No_Match",NA,NA,NA,NA
3122,"1000 FOREST GLEN ROAD","SILVER SPRING","MD",20901,39.017919137,-77.025626654,122,"1000 FOREST GLEN ROAD, SILVER SPRING, MD, 20901","Match","Exact","1000 FOREST GLEN RD, SILVER SPRING, MD, 20901",62064907,"L"
3123,"1000 FORREST PL STE 3","PELL CITY","AL",35128,NA,NA,123,"1000 FORREST PL STE 3, PELL CITY, AL, 35128","No_Match",NA,NA,NA,NA
3124,"1000 FREEDOM ROAD","SMITHFIELD","NC",27577,35.5323634920001,-78.472592385,124,"1000 FREEDOM ROAD, SMITHFIELD, NC, 27577","Match","Exact","1000 FREEDOM RD, SMITHFIELD, NC, 27577",26523251,"R"
3125,"1000 FREMONT AVENUE 208","SOUTH PASADENA","CA",91030,34.1147062150001,-118.153088391,125,"1000 FREMONT AVENUE 208, SOUTH PASADENA, CA, 91030","Match","Exact","1000 FREMONT AVE, SOUTH PASADENA, CA, 91030",141630243,"L"
3126,"1000 FRONT STREET SOUTH-UNIT 1","ISSAQUAH","WA",98027,47.519578095,-122.031028183,126,"1000 FRONT STREET SOUTH-UNIT 1, ISSAQUAH, WA, 98027","Match","Exact","1000 FRONT ST S, ISSAQUAH, WA, 98027",187064137,"L"
3127,"1000 FRONT STREET SUITE 366","UNIONDALE","NY",11553,40.7094637710001,-73.593368701,127,"1000 FRONT STREET SUITE 366, UNIONDALE, NY, 11553","Match","Exact","1000 FRONT ST, UNIONDALE, NY, 11553",147628471,"R"
3128,"1000 GALLOPING HILL ROAD SUITE 301","UNION","NJ",7083,40.674354668,-74.2637250239999,128,"1000 GALLOPING HILL ROAD SUITE 301, UNION, NJ, 7083","Match","Exact","1000 GALLOPING HILL RD, UNION, NJ, 07083",60572592,"L"
3129,"1000 GLENVIEW DRIVE","NASHVILLE","TN",37206,36.164295607,-86.752648227,129,"1000 GLENVIEW DRIVE, NASHVILLE, TN, 37206","Match","Exact","1000 GLENVIEW DR, NASHVILLE, TN, 37206",639246042,"R"
3130,"1000 GOLDEN CIRCLE","ELIZABETH","PA",15037,40.229379174,-79.8597217609999,130,"1000 GOLDEN CIRCLE, ELIZABETH, PA, 15037","Match","Exact","1000 GOLDEN CIR, ELIZABETH, PA, 15037",607608999,"R"
3131,"1000 GOODWILL AVENUE","CAMBRIDGE","MD",21613,38.5602486230001,-76.073360769,131,"1000 GOODWILL AVENUE, CAMBRIDGE, MD, 21613","Match","Exact","1000 GOODWILL AVE, CAMBRIDGE, MD, 21613",99661163,"R"
3132,"1000 GREEN VALLEY ROAD","NEW WINDSOR","MD",21176,39.547353797,-77.109807412,132,"1000 GREEN VALLEY ROAD, NEW WINDSOR, MD, 21176","Match","Non_Exact","1000 GREEN VALLEY RD, NEW WINDSOR, MD, 21776",61792605,"R"
3133,"1000 HARRISON STREET","LYNCHBURG","VA",24504,37.4113768550001,-79.146046617,133,"1000 HARRISON STREET, LYNCHBURG, VA, 24504","Match","Exact","1000 HARRISON ST, LYNCHBURG, VA, 24504",62626889,"L"
3134,"1000 HART ROAD SUITE 300","BARRINGTON","IL",60010,NA,NA,134,"1000 HART ROAD SUITE 300, BARRINGTON, IL, 60010","No_Match",NA,NA,NA,NA
3135,"1000 HEATHROW DRIVE","HENDERSONVILLE","TN",37075,36.3794600790001,-86.598933501,135,"1000 HEATHROW DRIVE, HENDERSONVILLE, TN, 37075","Match","Exact","1000 HEATHROW DR, HENDERSONVILLE, TN, 37075",617303163,"R"
3136,"1000 HEMPHILL STREET SUITE 315","FORT WORTH","TX",76104,32.734351347,-97.331563731,136,"1000 HEMPHILL STREET SUITE 315, FORT WORTH, TX, 76104","Match","Exact","1000 HEMPHILL ST, FORT WORTH, TX, 76104",647888547,"R"
3137,"1000 HERITAGE CENTER CIRCLE","ROUND ROCK","TX",78664,30.5178699850001,-97.676281594,137,"1000 HERITAGE CENTER CIRCLE, ROUND ROCK, TX, 78664","Match","Exact","1000 HERITAGE CENTER CIR, ROUND ROCK, TX, 78664",126423417,"L"
3138,"1000 HERRONTOWN ROAD 2ND FLOOR","PRINCETON","NJ",8540,40.387944111,-74.654269066,138,"1000 HERRONTOWN ROAD 2ND FLOOR, PRINCETON, NJ, 8540","Match","Exact","1000 HERRONTOWN RD, PRINCETON, NJ, 08540",637806233,"L"
3139,"1000 HERRONTOWN ROAD","PRINCETON","NJ",8540,40.387944111,-74.654269066,139,"1000 HERRONTOWN ROAD, PRINCETON, NJ, 8540","Match","Exact","1000 HERRONTOWN RD, PRINCETON, NJ, 08540",637806233,"L"
3140,"1000 HIGHLAND COLONY PKW SUITE 5203","RIDGELAND","MS",39157,NA,NA,140,"1000 HIGHLAND COLONY PKW SUITE 5203, RIDGELAND, MS, 39157","No_Match",NA,NA,NA,NA
3141,"1000 HIGHWAY 77 NORTH","WAXAHACHIE","TX",75165,NA,NA,141,"1000 HIGHWAY 77 NORTH, WAXAHACHIE, TX, 75165","No_Match",NA,NA,NA,NA
3142,"1000 HILLTOP CIRCLE","BALTIMORE","MD",21250,39.2555936520001,-76.713978552,142,"1000 HILLTOP CIRCLE, BALTIMORE, MD, 21250","Match","Exact","1000 HILLTOP CIR, BALTIMORE, MD, 21250",191557617,"L"
3143,"1000 HOLLISTER LANE APT 1329","PERRYSBURG","OH",43551,41.525412223,-83.6439843749999,143,"1000 HOLLISTER LANE APT 1329, PERRYSBURG, OH, 43551","Match","Exact","1000 HOLLISTER LN, PERRYSBURG, OH, 43551",623831584,"R"
3144,"1000 HOPE MILLS RD","FAYETTEVILLE","NC",28304,35.030501669,-78.9609903849999,144,"1000 HOPE MILLS RD, FAYETTEVILLE, NC, 28304","Match","Exact","1000 HOPE MILLS RD, FAYETTEVILLE, NC, 28304",613204914,"R"
3145,"1000 HOSPITAL DRIVE","MCPHERSON","KS",67460,38.378790789,-97.672445303,145,"1000 HOSPITAL DRIVE, MCPHERSON, KS, 67460","Match","Exact","1000 HOSPITAL DR, MCPHERSON, KS, 67460",142886379,"R"
3146,"1000 HOUSTON DRIVE","DOTHAN","AL",36303,31.2356036350001,-85.404734011,146,"1000 HOUSTON DRIVE, DOTHAN, AL, 36303","Match","Non_Exact","1000 HOUSTON ST, DOTHAN, AL, 36303",101213156,"R"
3147,"1000 HURRICANE SHOALS RD STE B-1400","LAWRENCEVILLE","GA",30043,33.985811809,-83.9595305939999,147,"1000 HURRICANE SHOALS RD STE B-1400, LAWRENCEVILLE, GA, 30043","Match","Exact","1000 HURRICANE SHOALS RD, LAWRENCEVILLE, GA, 30043",88952718,"R"
3148,"1000 IDAHO AVENUE","PORTAGE","MI",49024,NA,NA,148,"1000 IDAHO AVENUE, PORTAGE, MI, 49024","No_Match",NA,NA,NA,NA
3149,"1000 INDUSTRIAL DRIVE","LEESBURG","OH",45135,NA,NA,149,"1000 INDUSTRIAL DRIVE, LEESBURG, OH, 45135","No_Match",NA,NA,NA,NA
3150,"1000 JACKSON STREET","TOLEDO","OH",43604,41.6570216110001,-83.539254876,150,"1000 JACKSON STREET, TOLEDO, OH, 43604","Match","Exact","1000 JACKSON ST, TOLEDO, OH, 43604",33943746,"R"
3151,"1000 JERSEY LN","PALM BAY","FL",32905,28.0209213750001,-80.584734807,151,"1000 JERSEY LN, PALM BAY, FL, 32905","Match","Non_Exact","1000 JERSEY LN NE, PALM BAY, FL, 32905",93911682,"R"
3152,"1000 JOHNNIE DODDS BLVD STE 103-129","MT PLEASANT","SC",29464,NA,NA,152,"1000 JOHNNIE DODDS BLVD STE 103-129, MT PLEASANT, SC, 29464","No_Match",NA,NA,NA,NA
3153,"1000 JOHNNIE DODDS BLVD STE 103-385","MT PLEASANT","SC",29464,NA,NA,153,"1000 JOHNNIE DODDS BLVD STE 103-385, MT PLEASANT, SC, 29464","No_Match",NA,NA,NA,NA
3154,"1000 JOHNNY DOBBS BLVD STE 103-321","MT. PLEASANT","SC",29464,NA,NA,154,"1000 JOHNNY DOBBS BLVD STE 103-321, MT. PLEASANT, SC, 29464","No_Match",NA,NA,NA,NA
3155,"1000 KELTON AVE","PITTSBURGH","PA",15216,40.3888466340001,-80.034510828,155,"1000 KELTON AVE, PITTSBURGH, PA, 15216","Match","Exact","1000 KELTON AVE, PITTSBURGH, PA, 15216",636372292,"R"
3156,"1000 KELTON AVENUE","PITTSBURGH","PA",15216,40.3888466340001,-80.034510828,156,"1000 KELTON AVENUE, PITTSBURGH, PA, 15216","Match","Exact","1000 KELTON AVE, PITTSBURGH, PA, 15216",636372292,"R"
3157,"1000 LACONIA RD","SANBORNTON","NH",3269,NA,NA,157,"1000 LACONIA RD, SANBORNTON, NH, 3269","No_Match",NA,NA,NA,NA
3158,"1000 LAFAYETTE BLVD SUITE 1100","BRIDGEPORT","CT",6604,41.176305154,-73.192853467,158,"1000 LAFAYETTE BLVD SUITE 1100, BRIDGEPORT, CT, 6604","Match","Exact","1000 LAFAYETTE BLVD, BRIDGEPORT, CT, 06604",3224352,"R"
3159,"1000 LAFAYETTE BLVD SUITE 1120","BRIDGEPORT","CT",6604,41.176305154,-73.192853467,159,"1000 LAFAYETTE BLVD SUITE 1120, BRIDGEPORT, CT, 6604","Match","Exact","1000 LAFAYETTE BLVD, BRIDGEPORT, CT, 06604",3224352,"R"
3160,"1000 LAKEVIEW DRIVE","PARKERSBURG","WV",26104,39.2906707440001,-81.539466459,160,"1000 LAKEVIEW DRIVE, PARKERSBURG, WV, 26104","Match","Exact","1000 LAKEVIEW DR, PARKERSBURG, WV, 26104",90870326,"R"
3161,"1000 LAMBOURNE ROAD","WEST CHESTER","PA",19382,39.9169598120001,-75.605399398,161,"1000 LAMBOURNE ROAD, WEST CHESTER, PA, 19382","Match","Exact","1000 LAMBOURNE RD, WEST CHESTER, PA, 19382",179526278,"L"
3162,"1000 LASALLE AVENUE - TMH 331","MINNEAPOLIS","MN",55403,44.974479982,-93.2762202869999,162,"1000 LASALLE AVENUE - TMH 331, MINNEAPOLIS, MN, 55403","Match","Exact","1000 LASALLE AVE, MINNEAPOLIS, MN, 55403",43632116,"R"
3163,"1000 LEAPWOOD ENVILLE ROAD","ADAMSVILLE","TN",38310,35.2338938550001,-88.432457754,163,"1000 LEAPWOOD ENVILLE ROAD, ADAMSVILLE, TN, 38310","Match","Exact","1000 LEAPWOOD ENVILLE RD, ADAMSVILLE, TN, 38310",607161236,"L"
3164,"1000 LEGION PLACE  SUITE 1000","ORLANDO","FL",32801,28.5587614670001,-81.379296876,164,"1000 LEGION PLACE  SUITE 1000, ORLANDO, FL, 32801","Match","Exact","1000 LEGION PL, ORLANDO, FL, 32801",94281687,"L"
3165,"1000 LELAND DRIVE","LAFAYETTE","CA",94549,37.892634276,-122.087461287,165,"1000 LELAND DRIVE, LAFAYETTE, CA, 94549","Match","Exact","1000 LELAND DR, LAFAYETTE, CA, 94549",607837751,"R"
3166,"1000 LINCOLN AVE","WOODLAND","CA",95695,38.6755907240001,-121.768230042,166,"1000 LINCOLN AVE, WOODLAND, CA, 95695","Match","Exact","1000 LINCOLN AVE, WOODLAND, CA, 95695",67690558,"R"
3167,"1000 LINCOLN AVENUE","WOODLAND","CA",95695,38.6755907240001,-121.768230042,167,"1000 LINCOLN AVENUE, WOODLAND, CA, 95695","Match","Exact","1000 LINCOLN AVE, WOODLAND, CA, 95695",67690558,"R"
3168,"1000 LINCOLN RD STE H PMB 102","YUBA CITY","CA",95991,39.1126690300001,-121.627192241,168,"1000 LINCOLN RD STE H PMB 102, YUBA CITY, CA, 95991","Match","Exact","1000 LINCOLN RD, YUBA CITY, CA, 95991",68583667,"L"
3169,"1000 LINCOLN RD STE H213","YUBA CITY","CA",95993,39.1126690300001,-121.627192241,169,"1000 LINCOLN RD STE H213, YUBA CITY, CA, 95993","Match","Non_Exact","1000 LINCOLN RD, YUBA CITY, CA, 95991",68583667,"L"
3170,"1000 LINCOLN ROAD SUITE H-9","YUBA CITY","CA",95991,39.1126690300001,-121.627192241,170,"1000 LINCOLN ROAD SUITE H-9, YUBA CITY, CA, 95991","Match","Exact","1000 LINCOLN RD, YUBA CITY, CA, 95991",68583667,"L"
3171,"1000 LONGLEAF DRIVE","FOREST PARK","GA",30297,33.593754086,-84.357826269,171,"1000 LONGLEAF DRIVE, FOREST PARK, GA, 30297","Match","Exact","1000 LONGLEAF DR, FOREST PARK, GA, 30297",23314989,"L"
3172,"1000 LOUISIANA   53RD FLOOR","HOUSTON","TX",77002,29.7584658760001,-95.367562014,172,"1000 LOUISIANA   53RD FLOOR, HOUSTON, TX, 77002","Match","Non_Exact","1000 LOUISIANA ST, HOUSTON, TX, 77002",96067554,"R"
3173,"1000 LOWRY ST APT 7G","DELRAY BEACH","FL",33483,26.4635963110001,-80.062508796,173,"1000 LOWRY ST APT 7G, DELRAY BEACH, FL, 33483","Match","Exact","1000 LOWRY ST, DELRAY BEACH, FL, 33483",115567705,"L"
3174,"1000 MADISON AVE","MADISON","IL",62060,38.6866930570001,-90.1563302709999,174,"1000 MADISON AVE, MADISON, IL, 62060","Match","Exact","1000 MADISON AVE, MADISON, IL, 62060",107706754,"R"
3175,"1000 MAIN ST NW BLDG 3","LOS LUNAS","NM",87031,34.814125683,-106.746660924,175,"1000 MAIN ST NW BLDG 3, LOS LUNAS, NM, 87031","Match","Exact","1000 MAIN ST NW, LOS LUNAS, NM, 87031",179192395,"R"
3176,"1000 MAIN STREET STE 237","LADY LAKE","FL",32159,NA,NA,176,"1000 MAIN STREET STE 237, LADY LAKE, FL, 32159","No_Match",NA,NA,NA,NA
3177,"1000 MAIN STREET","BROCKTON","MA",2301,42.065515072,-71.016160301,177,"1000 MAIN STREET, BROCKTON, MA, 2301","Match","Exact","1000 MAIN ST, BROCKTON, MA, 02301",87444346,"L"
3178,"1000 MAIN STREET","DUBUQUE","IA",52001,42.502511901,-90.6681095819999,178,"1000 MAIN STREET, DUBUQUE, IA, 52001","Match","Exact","1000 MAIN ST, DUBUQUE, IA, 52001",16908866,"R"
3179,"1000 MAIN STREET","FOREST PARK","GA",30297,33.619653457,-84.357474955,179,"1000 MAIN STREET, FOREST PARK, GA, 30297","Match","Exact","1000 MAIN ST, FOREST PARK, GA, 30297",23314595,"L"
3180,"1000 MAIN STREET","ST. JOHNSBURY","VT",5819,44.4159207060001,-72.019586771,180,"1000 MAIN STREET, ST. JOHNSBURY, VT, 5819","Match","Exact","1000 MAIN ST, SAINT JOHNSBURY, VT, 05819",181077867,"R"
3181,"1000 MANISON PARKWAY","FRIENDSWOOD","TX",77546,NA,NA,181,"1000 MANISON PARKWAY, FRIENDSWOOD, TX, 77546","No_Match",NA,NA,NA,NA
3182,"1000 MARBLE MILL CIRCLE","MARIETTA","GA",30060,33.9763785760001,-84.560033501,182,"1000 MARBLE MILL CIRCLE, MARIETTA, GA, 30060","Match","Exact","1000 MARBLE MILL CIR, MARIETTA, GA, 30060",642999354,"L"
3183,"1000 MARKET STREET","READING","OH",45215,39.2238603710001,-84.4418710849999,183,"1000 MARKET STREET, READING, OH, 45215","Match","Exact","1000 MARKET ST, READING, OH, 45215",103927465,"R"
3184,"1000 MASON STREET","SAN FRANCISCO","CA",94108,37.792795878,-122.411003174,184,"1000 MASON STREET, SAN FRANCISCO, CA, 94108","Match","Exact","1000 MASON ST, SAN FRANCISCO, CA, 94108",192280790,"R"
3185,"1000 MATECUMBE KEY RD","PUNTA GORDA","FL",33955,26.769433296,-82.054052648,185,"1000 MATECUMBE KEY RD, PUNTA GORDA, FL, 33955","Match","Exact","1000 MATECUMBE KEY RD, PUNTA GORDA, FL, 33955",639985353,"R"
3186,"1000 MCKINLEY AVENUE","MANAHAWKIN","NJ",8050,39.7019194470001,-74.28095145,186,"1000 MCKINLEY AVENUE, MANAHAWKIN, NJ, 8050","Match","Exact","1000 MCKINLEY AVE, MANAHAWKIN, NJ, 08050",637455277,"L"
3187,"1000 MEDICAL CENTER DRIVE","MONTICELLO","IL",61856,NA,NA,187,"1000 MEDICAL CENTER DRIVE, MONTICELLO, IL, 61856","No_Match",NA,NA,NA,NA
3188,"1000 MEREDITH LANE","ROUND ROCK","TX",78681,30.4886696230001,-97.689230145,188,"1000 MEREDITH LANE, ROUND ROCK, TX, 78681","Match","Exact","1000 MEREDITH LN, ROUND ROCK, TX, 78681",126496972,"L"
3189,"1000 MONARCH POINT","GREENEVILLE","TN",37745,NA,NA,189,"1000 MONARCH POINT, GREENEVILLE, TN, 37745","No_Match",NA,NA,NA,NA
3190,"1000 MONTAGE WAY  APT 3101","ATLANTA","GA",30341,33.882706768,-84.249039006,190,"1000 MONTAGE WAY  APT 3101, ATLANTA, GA, 30341","Match","Exact","1000 MONTAGE WAY, ATLANTA, GA, 30341",645265779,"R"
3191,"1000 MORGAN AVE","DOWNS","KS",67437,39.5048229440001,-98.544407587,191,"1000 MORGAN AVE, DOWNS, KS, 67437","Match","Exact","1000 MORGAN AVE, DOWNS, KS, 67437",149886439,"L"
3192,"1000 MOUNT VERNON AVENUE","CHARLOTTE","NC",28203,35.2115093460001,-80.845519682,192,"1000 MOUNT VERNON AVENUE, CHARLOTTE, NC, 28203","Match","Exact","1000 MOUNT VERNON AVE, CHARLOTTE, NC, 28203",70525053,"R"
3193,"1000 MULBERRY ST","ZIONSVILLE","IN",46077,39.961840571,-86.271454217,193,"1000 MULBERRY ST, ZIONSVILLE, IN, 46077","Match","Exact","1000 MULBERRY ST, ZIONSVILLE, IN, 46077",610973217,"R"
3194,"1000 MULBERRY STREET","ZIONSVILLE","IN",46077,39.961840571,-86.271454217,194,"1000 MULBERRY STREET, ZIONSVILLE, IN, 46077","Match","Exact","1000 MULBERRY ST, ZIONSVILLE, IN, 46077",610973217,"R"
3195,"1000 N 1ST STREET UNIT 3","DEKALB","IL",60115,NA,NA,195,"1000 N 1ST STREET UNIT 3, DEKALB, IL, 60115","Tie",NA,NA,NA,NA
3196,"1000 N 25TH AVE","MELROSE PARK","IL",60160,NA,NA,196,"1000 N 25TH AVE, MELROSE PARK, IL, 60160","No_Match",NA,NA,NA,NA
3197,"1000 N 32ND STREET","MATTOON","IL",61938,39.491980664,-88.395002366,197,"1000 N 32ND STREET, MATTOON, IL, 61938","Match","Exact","1000 N 32ND ST, MATTOON, IL, 61938",5414322,"R"
3198,"1000 N 350 E","CHESTERTON","IN",46304,41.579382734,-86.999170896,198,"1000 N 350 E, CHESTERTON, IN, 46304","Match","Non_Exact","1002 N 350 E, CHESTERTON, IN, 46304",119915083,"R"
3199,"1000 N 42ND PLACE","RENTON","WA",98056,47.5308647360001,-122.204217778,199,"1000 N 42ND PLACE, RENTON, WA, 98056","Match","Exact","1000 N 42ND PL, RENTON, WA, 98056",636768277,"R"
3200,"1000 N AVIATOR PARKWAY","PAYSON","AZ",85541,34.255417423,-111.35193826,200,"1000 N AVIATOR PARKWAY, PAYSON, AZ, 85541","Match","Exact","1000 N AVIATOR PKWY, PAYSON, AZ, 85541",159382524,"R"
3201,"1000 N BEELINE HWY 213","PAYSON","AZ",85541,34.2282212700001,-111.328074154,201,"1000 N BEELINE HWY 213, PAYSON, AZ, 85541","Match","Non_Exact","1000 S BEELINE HWY, PAYSON, AZ, 85541",159323351,"L"
3202,"1000 N BLAIR AVE","ROYAL OAK","MI",48067,42.4982076630001,-83.130393402,202,"1000 N BLAIR AVE, ROYAL OAK, MI, 48067","Match","Exact","1000 N BLAIR AVE, ROYAL OAK, MI, 48067",69744382,"R"
3203,"1000 N BROADWAY ST","GREENVILLE","OH",45331,40.114570288,-84.6371916099999,203,"1000 N BROADWAY ST, GREENVILLE, OH, 45331","Match","Non_Exact","1000 N BROADWAY, GREENVILLE, OH, 45331",54559217,"L"
3204,"1000 N COAST HWY","LAGUNA BEACH","CA",92651,33.5476192960001,-117.79771085,204,"1000 N COAST HWY, LAGUNA BEACH, CA, 92651","Match","Exact","1000 N COAST HWY, LAGUNA BEACH, CA, 92651",629773464,"L"
3205,"1000 N DIVISION ST SUITE 201","CARSON CITY","NV",89703,NA,NA,205,"1000 N DIVISION ST SUITE 201, CARSON CITY, NV, 89703","Tie",NA,NA,NA,NA
3206,"1000 N FRENCH STREET","WILMINGTON","DE",19801,39.744897576,-75.546002792,206,"1000 N FRENCH STREET, WILMINGTON, DE, 19801","Match","Exact","1000 N FRENCH ST, WILMINGTON, DE, 19801",187257896,"R"
3207,"1000 N GETTY STREET","UVALDE","TX",78801,29.2235172150001,-99.791902745,207,"1000 N GETTY STREET, UVALDE, TX, 78801","Match","Exact","1000 N GETTY ST, UVALDE, TX, 78801",183444666,"R"
3208,"1000 N GREEN VALLEY PKWY 440-253","HENDERSON","NV",89074,36.028320998,-115.086108193,208,"1000 N GREEN VALLEY PKWY 440-253, HENDERSON, NV, 89074","Match","Non_Exact","1000 N GREEN VALLEY PKWY, HENDERSON, NV, 89074",201966850,"R"
3209,"1000 N GREEN VALLEY PKWY 440/ 649","HENDERSON","NV",89074,36.028320998,-115.086108193,209,"1000 N GREEN VALLEY PKWY 440/ 649, HENDERSON, NV, 89074","Match","Non_Exact","1000 N GREEN VALLEY PKWY, HENDERSON, NV, 89074",201966850,"R"
3210,"1000 N HIGHWAY 77","WAXAHACHIE","TX",75165,32.39717611,-96.84485849,210,"1000 N HIGHWAY 77, WAXAHACHIE, TX, 75165","Match","Non_Exact","1000 US HWY 77, WAXAHACHIE, TX, 75165",103450981,"R"
3211,"1000 N MILWAUKEE AVE SUITE 401","CHICAGO","IL",60642,41.9001636990001,-87.661495057,211,"1000 N MILWAUKEE AVE SUITE 401, CHICAGO, IL, 60642","Match","Non_Exact","1000 N MILWAUKEE AVE, CHICAGO, IL, 60642",111765221,"L"
3212,"1000 N MONROE STREET","TITUSVILLE","PA",16354,41.635548554,-79.6793465869999,212,"1000 N MONROE STREET, TITUSVILLE, PA, 16354","Match","Exact","1000 N MONROE ST, TITUSVILLE, PA, 16354",98593249,"R"
3213,"1000 N MONROE","ROBINSON","IL",62454,39.0142065200001,-87.753665672,213,"1000 N MONROE, ROBINSON, IL, 62454","Match","Non_Exact","1000 N MONROE ST, ROBINSON, IL, 62454",26974571,"L"
3214,"1000 N NELLIS BLVD STE S105","LAS VEGAS","NV",89110,36.178031192,-115.062088943,214,"1000 N NELLIS BLVD STE S105, LAS VEGAS, NV, 89110","Match","Non_Exact","1000 N NELLIS BLVD, LAS VEGAS, NV, 89110",639377937,"R"
3215,"1000 N PANTHER AVE","YELLVILLE","AR",72687,36.2360353820001,-92.6905061369999,215,"1000 N PANTHER AVE, YELLVILLE, AR, 72687","Match","Exact","1000 N PANTHER AVE, YELLVILLE, AR, 72687",2157113,"L"
3216,"1000 N RIVERSIDE DRIVE","POMPANO BEACH","FL",33062,26.2466512930001,-80.089703575,216,"1000 N RIVERSIDE DRIVE, POMPANO BEACH, FL, 33062","Match","Exact","1000 N RIVERSIDE DR, POMPANO BEACH, FL, 33062",114695893,"R"
3217,"1000 N WEST AVE  SUITE 410","SIOUX FALLS","SD",57104,43.5586695800001,-96.7470524,217,"1000 N WEST AVE  SUITE 410, SIOUX FALLS, SD, 57104","Match","Non_Exact","1000 N WEST AVE, SIOUX FALLS, SD, 57104",34982915,"R"
3218,"1000 N WEST AVE STE 235","SIOUX FALLS","SD",57104,43.5586695800001,-96.7470524,218,"1000 N WEST AVE STE 235, SIOUX FALLS, SD, 57104","Match","Non_Exact","1000 N WEST AVE, SIOUX FALLS, SD, 57104",34982915,"R"
3219,"1000 N WEST ST","WILMINGTON","DE",19801,39.7467940070001,-75.5508090719999,219,"1000 N WEST ST, WILMINGTON, DE, 19801","Match","Exact","1000 N WEST ST, WILMINGTON, DE, 19801",187257831,"R"
3220,"1000 N WESTERN AVE ST 200","SAN PEDRO","CA",90732,33.7522793360001,-118.308522772,220,"1000 N WESTERN AVE ST 200, SAN PEDRO, CA, 90732","Match","Exact","1000 WESTERN AVE, SAN PEDRO, CA, 90732",142665967,"R"
3221,"1000 N WINTON RD","ROCHESTER","NY",14609,43.164743452,-77.5448778859999,221,"1000 N WINTON RD, ROCHESTER, NY, 14609","Match","Non_Exact","1000 WINTON RD N, ROCHESTER, NY, 14609",14542400,"R"
3222,"1000 NC MUSIC FACTORY BLVD B-14","CHARLOTTE","NC",28206,NA,NA,222,"1000 NC MUSIC FACTORY BLVD B-14, CHARLOTTE, NC, 28206","No_Match",NA,NA,NA,NA
3223,"1000 NE 122 ND AVE","PORTLAND","OR",97230,45.529519818,-122.537693288,223,"1000 NE 122 ND AVE, PORTLAND, OR, 97230","Match","Non_Exact","1000 NE 122ND AVE, PORTLAND, OR, 97230",157561250,"R"
3224,"1000 NE 122ND AVE","PORTLAND","OR",97230,45.529519818,-122.537693288,224,"1000 NE 122ND AVE, PORTLAND, OR, 97230","Match","Exact","1000 NE 122ND AVE, PORTLAND, OR, 97230",157561250,"R"
3225,"1000 NE 12TH AVENUE","HALLANDALE BEACH","FL",33009,25.9960523940001,-80.136587492,225,"1000 NE 12TH AVENUE, HALLANDALE BEACH, FL, 33009","Match","Exact","1000 NE 12TH AVE, HALLANDALE BEACH, FL, 33009",605969443,"R"
3226,"1000 NE 160TH STREET","NORTH MIAMI BEACH","FL",33162,25.9222760330001,-80.179763253,226,"1000 NE 160TH STREET, NORTH MIAMI BEACH, FL, 33162","Match","Exact","1000 NE 160TH ST, N MIAMI BEACH, FL, 33162",116035907,"R"
3227,"1000 NE 177TH TERRACE","MIAMI","FL",33162,25.93851155,-80.180527529,227,"1000 NE 177TH TERRACE, MIAMI, FL, 33162","Match","Exact","1000 NE 177TH TER, MIAMI, FL, 33162",116030936,"R"
3228,"1000 NE 19TH ST","OKLAHOMA CITY","OK",73111,35.489030035,-97.4944205209999,228,"1000 NE 19TH ST, OKLAHOMA CITY, OK, 73111","Match","Exact","1000 NE 19TH ST, OKLAHOMA CITY, OK, 73111",100401639,"R"
3229,"1000 NORTH ALLEN STREET","ROBINSON","IL",62454,39.0132327110001,-87.749004546,229,"1000 NORTH ALLEN STREET, ROBINSON, IL, 62454","Match","Exact","1000 N ALLEN ST, ROBINSON, IL, 62454",26969130,"R"
3230,"1000 NORTH AMARILLO","CASA GRANDE","AZ",85122,32.883605528,-111.737795383,230,"1000 NORTH AMARILLO, CASA GRANDE, AZ, 85122","Match","Non_Exact","1000 N AMARILLO ST, CASA GRANDE, AZ, 85122",129281726,"R"
3231,"1000 NORTH BROAD STREET","NEW ORLEANS","LA",70119,29.9730689850001,-90.080728291,231,"1000 NORTH BROAD STREET, NEW ORLEANS, LA, 70119","Match","Exact","1000 N BROAD ST, NEW ORLEANS, LA, 70119",191741619,"R"
3232,"1000 NORTH GETTY STREET","UVALDE","TX",78801,29.2235172150001,-99.791902745,232,"1000 NORTH GETTY STREET, UVALDE, TX, 78801","Match","Exact","1000 N GETTY ST, UVALDE, TX, 78801",183444666,"R"
3233,"1000 NORTH GETTY","UVALDE","TX",78801,29.2235172150001,-99.791902745,233,"1000 NORTH GETTY, UVALDE, TX, 78801","Match","Non_Exact","1000 N GETTY ST, UVALDE, TX, 78801",183444666,"R"
3234,"1000 NORTH HIGHWAY 329","RANKIN","TX",79778,NA,NA,234,"1000 NORTH HIGHWAY 329, RANKIN, TX, 79778","No_Match",NA,NA,NA,NA
3235,"1000 NORTH KING STREET","WILMINGTON","DE",19801,39.7452754620001,-75.546892789,235,"1000 NORTH KING STREET, WILMINGTON, DE, 19801","Match","Exact","1000 N KING ST, WILMINGTON, DE, 19801",187257890,"R"
3236,"1000 NORTH MAIN STREET SUITE 107","FUQUAY VARINA","NC",27526,35.5917670690001,-78.785525093,236,"1000 NORTH MAIN STREET SUITE 107, FUQUAY VARINA, NC, 27526","Match","Exact","1000 N MAIN ST, FUQUAY VARINA, NC, 27526",72565411,"R"
3237,"1000 NORTH MASON STREET","APPLETON","WI",54914,44.270401631,-88.425811368,237,"1000 NORTH MASON STREET, APPLETON, WI, 54914","Match","Exact","1000 N MASON ST, APPLETON, WI, 54914",74919963,"R"
3238,"1000 NORTH MONROE STREET","WILMINGTON","DE",19801,39.748596653,-75.555066604,238,"1000 NORTH MONROE STREET, WILMINGTON, DE, 19801","Match","Exact","1000 N MONROE ST, WILMINGTON, DE, 19801",187257686,"R"
3239,"1000 NORTH PALM AVENUE","FROSTPROOF","FL",33843,NA,NA,239,"1000 NORTH PALM AVENUE, FROSTPROOF, FL, 33843","No_Match",NA,NA,NA,NA
3240,"1000 NW 1ST AVE STE 100","MIAMI","FL",33136,25.783779786,-80.196394696,240,"1000 NW 1ST AVE STE 100, MIAMI, FL, 33136","Match","Non_Exact","1000 NW 1ST AVE, MIAMI, FL, 33136",116017776,"L"
3241,"1000 NW 54TH STREET","MIAMI","FL",33127,25.8248079140001,-80.212364581,241,"1000 NW 54TH STREET, MIAMI, FL, 33127","Match","Exact","1000 NW 54TH ST, MIAMI, FL, 33127",116005449,"L"
3242,"1000 NW 57TH COURT SUITE 1040","MIAMI","FL",33126,NA,NA,242,"1000 NW 57TH COURT SUITE 1040, MIAMI, FL, 33126","No_Match",NA,NA,NA,NA
3243,"1000 OLD COUNTY CIR STE 115","WINDSOR LOCKS","CT",6096,41.9108600920001,-72.663111368,243,"1000 OLD COUNTY CIR STE 115, WINDSOR LOCKS, CT, 6096","Match","Non_Exact","1000 OLD COUNTY CIR, WINDSOR LOCKS, CT, 06096",3527340,"R"
3244,"1000 OLD HARSHMAN RD","DAYTON","OH",45431,39.7792024390001,-84.122035005,244,"1000 OLD HARSHMAN RD, DAYTON, OH, 45431","Match","Exact","1000 HARSHMAN RD, DAYTON, OH, 45431",143587668,"R"
3245,"1000 OSBON DRIVE","AIKEN","MD",29801,NA,NA,245,"1000 OSBON DRIVE, AIKEN, MD, 29801","No_Match",NA,NA,NA,NA
3246,"1000 OUTLANDS WAY","VIRGINIA BEACH","VA",23456,36.75291961,-75.995644335,246,"1000 OUTLANDS WAY, VIRGINIA BEACH, VA, 23456","Match","Exact","1000 OUTLANDS WAY, VA BCH, VA, 23456",122287627,"L"
3247,"1000 PALISADES CIR APT 202","BELMONT","NC",28012,35.2512897890001,-81.0492264169999,247,"1000 PALISADES CIR APT 202, BELMONT, NC, 28012","Match","Exact","1000 PALISADES CIR, BELMONT, NC, 28012",649288153,"L"
3248,"1000 PAN AMERICAN AVE","DOUGLAS","AZ",85607,31.343947843,-109.557198707,248,"1000 PAN AMERICAN AVE, DOUGLAS, AZ, 85607","Match","Exact","1000 PAN AMERICAN AVE, DOUGLAS, AZ, 85607",120910605,"L"
3249,"1000 PARK AVE NE UNIT 2108","ATLANTA","GA",30326,33.8546001300001,-84.3619757399999,249,"1000 PARK AVE NE UNIT 2108, ATLANTA, GA, 30326","Match","Exact","1000 PARK AVE NE, ATLANTA, GA, 30326",618349593,"L"
3250,"1000 PARK AVENUE STE 1207","ATLANTA","GA",30326,33.8546001300001,-84.3619757399999,250,"1000 PARK AVENUE STE 1207, ATLANTA, GA, 30326","Match","Non_Exact","1000 PARK AVE NE, ATLANTA, GA, 30326",618349593,"L"
3251,"1000 PARK RD N","BELLEFONTAINE","OH",43311,NA,NA,251,"1000 PARK RD N, BELLEFONTAINE, OH, 43311","No_Match",NA,NA,NA,NA
3252,"1000 PARKWAY BLVD","APPLETON","WI",54911,NA,NA,252,"1000 PARKWAY BLVD, APPLETON, WI, 54911","No_Match",NA,NA,NA,NA
3253,"1000 PASEO CAMARILLO STE 125","CAMARILLO","CA",93010,34.2208167590001,-119.056481269,253,"1000 PASEO CAMARILLO STE 125, CAMARILLO, CA, 93010","Match","Non_Exact","1000 PSO CAMARILLO, CAMARILLO, CA, 93010",110086540,"L"
3254,"1000 PASEO CAMARILLO STE 126","CAMARILLO","CA",93010,34.2208167590001,-119.056481269,254,"1000 PASEO CAMARILLO STE 126, CAMARILLO, CA, 93010","Match","Non_Exact","1000 PSO CAMARILLO, CAMARILLO, CA, 93010",110086540,"L"
3255,"1000 PEACHTREE IND BLVD STE 643","SUWANEE","GA",30024,NA,NA,255,"1000 PEACHTREE IND BLVD STE 643, SUWANEE, GA, 30024","No_Match",NA,NA,NA,NA
3256,"1000 PEACHTREE INDL BLVD STE 6 432","SUWANEE","GA",30024,NA,NA,256,"1000 PEACHTREE INDL BLVD STE 6 432, SUWANEE, GA, 30024","No_Match",NA,NA,NA,NA
3257,"1000 PEACHTREE INDUST BLVD S 6  224","SUWANEE","GA",30024,NA,NA,257,"1000 PEACHTREE INDUST BLVD S 6  224, SUWANEE, GA, 30024","No_Match",NA,NA,NA,NA
3258,"1000 PEACHTREE INDUSTRIAL RD STE6","SUWANNE","GA",30024,NA,NA,258,"1000 PEACHTREE INDUSTRIAL RD STE6, SUWANNE, GA, 30024","No_Match",NA,NA,NA,NA
3259,"1000 PEEK ST NW","CONYERS","GA",30012,33.668883765,-84.02048961,259,"1000 PEEK ST NW, CONYERS, GA, 30012","Match","Exact","1000 PEEK ST NW, CONYERS, GA, 30012",23740681,"L"
3260,"1000 PINEGATE DRIVE APT A9","SPARTANBURG","SC",29303,NA,NA,260,"1000 PINEGATE DRIVE APT A9, SPARTANBURG, SC, 29303","No_Match",NA,NA,NA,NA
3261,"1000 POPLAR GROVE PLACE","SUMMERVILLE","SC",29483,NA,NA,261,"1000 POPLAR GROVE PLACE, SUMMERVILLE, SC, 29483","No_Match",NA,NA,NA,NA
3262,"1000 POTOMAC STREET NW 5TH FLOOR","WASHINGTON","DC",20007,38.903178751,-77.065008732,262,"1000 POTOMAC STREET NW 5TH FLOOR, WASHINGTON, DC, 20007","Match","Exact","1000 POTOMAC ST NW, WASHINGTON, DC, 20007",76237115,"L"
3263,"1000 PRESIDENT STREET APT 1L","BROOKLYN","NY",11225,40.668999915,-73.9591068029999,263,"1000 PRESIDENT STREET APT 1L, BROOKLYN, NY, 11225","Match","Exact","1000 PRESIDENT ST, BROOKLYN, NY, 11225",59078486,"R"
3264,"1000 PROGRESS DR UNIT 1533","LIBERTY","MO",64069,NA,NA,264,"1000 PROGRESS DR UNIT 1533, LIBERTY, MO, 64069","No_Match",NA,NA,NA,NA
3265,"1000 PURPLE PRIDE PARKWAY","PHOENIXVILLE","PA",19460,NA,NA,265,"1000 PURPLE PRIDE PARKWAY, PHOENIXVILLE, PA, 19460","No_Match",NA,NA,NA,NA
3266,"1000 PURUSHA PLACE/  SUITE 314","ROMNEY","WV",26757,39.3884654180001,-78.625453169,266,"1000 PURUSHA PLACE/  SUITE 314, ROMNEY, WV, 26757","Match","Non_Exact","1000 PURUSHA PL, ROMNEY, WV, 26757",641800454,"R"
3267,"1000 QUAIL STREET STE100","NEWPORT BEACH","CA",92660,33.661849784,-117.869539166,267,"1000 QUAIL STREET STE100, NEWPORT BEACH, CA, 92660","Match","Exact","1000 QUAIL ST, NEWPORT BEACH, CA, 92660",144049233,"R"
3268,"1000 QUAYSIDE TERRACE - STE 1407","MIAMI","FL",33138,25.8737595270001,-80.171052641,268,"1000 QUAYSIDE TERRACE - STE 1407, MIAMI, FL, 33138","Match","Exact","1000 QUAYSIDE TER, MIAMI, FL, 33138",116008084,"R"
3269,"1000 QUAYSIDE TERRACE UNIT 1810","MIAMI","FL",33138,25.8737595270001,-80.171052641,269,"1000 QUAYSIDE TERRACE UNIT 1810, MIAMI, FL, 33138","Match","Exact","1000 QUAYSIDE TER, MIAMI, FL, 33138",116008084,"R"
3270,"1000 QUEEN STREET","ALEXANDRIA","VA",22314,38.807769174,-77.0498824049999,270,"1000 QUEEN STREET, ALEXANDRIA, VA, 22314","Match","Exact","1000 QUEEN ST, ALEXANDRIA, VA, 22314",75991434,"L"
3271,"1000 RANCHWAY DR  APT 80","LAREDO","TX",78045,27.5950559250001,-99.483815963,271,"1000 RANCHWAY DR  APT 80, LAREDO, TX, 78045","Match","Exact","1000 RANCHWAY DR, LAREDO, TX, 78045",624995267,"R"
3272,"1000 REED LANE","SIMPSONVILLE","KY",40067,38.2691912660001,-85.351195773,272,"1000 REED LANE, SIMPSONVILLE, KY, 40067","Match","Exact","1000 REED LN, SIMPSONVILLE, KY, 40067",635468880,"L"
3273,"1000 REXHILL COURT","APEX","NC",27502,35.7443077630001,-78.857505358,273,"1000 REXHILL COURT, APEX, NC, 27502","Match","Exact","1000 REXHILL CT, APEX, NC, 27502",208347790,"R"
3274,"1000 RIDGE HOLLOW TRL","IRVING","TX",75063,32.9304629220001,-96.961400351,274,"1000 RIDGE HOLLOW TRL, IRVING, TX, 75063","Match","Exact","1000 RIDGE HOLLOW TRL, IRVING, TX, 75063",617055263,"R"
3275,"1000 RIDGE RD","WEBSTER","NY",14580,43.2091025600001,-77.4585288759999,275,"1000 RIDGE RD, WEBSTER, NY, 14580","Match","Exact","1000 RIDGE RD, WEBSTER, NY, 14580",642749402,"L"
3276,"1000 RIVER ROAD","DRESDEN","ME",4342,44.0262919370001,-69.792971364,276,"1000 RIVER ROAD, DRESDEN, ME, 4342","Match","Exact","1000 RIVER RD, DRESDEN, ME, 04342",75297850,"R"
3277,"1000 RIVER VALLEY DRIVE","DACULA","GA",30019,34.025127449,-83.9101041609999,277,"1000 RIVER VALLEY DRIVE, DACULA, GA, 30019","Match","Exact","1000 RIVER VALLEY DR, DACULA, GA, 30019",88935085,"R"
3278,"1000 RIVERWALK DR STE 100","IDAHO FALLS","ID",83402,43.4856356560001,-112.048814645,278,"1000 RIVERWALK DR STE 100, IDAHO FALLS, ID, 83402","Match","Non_Exact","1000 RIVER WALK DR, IDAHO FALLS, ID, 83402",640005902,"L"
3279,"1000 ROCK RIDGE ROAD","CONNELLSVILLE","PA",15425,40.025070429,-79.559818537,279,"1000 ROCK RIDGE ROAD, CONNELLSVILLE, PA, 15425","Match","Non_Exact","1000 ROCKRIDGE RD, CONNELLSVILLE, PA, 15425",51153045,"L"
3280,"1000 S 17TH AVE","WAUSAU","WI",54401,44.9500218420001,-89.655442937,280,"1000 S 17TH AVE, WAUSAU, WI, 54401","Match","Exact","1000 S 17TH AVE, WAUSAU, WI, 54401",117137860,"R"
3281,"1000 S 369TH W AVE","MANNFORD","OK",74044,NA,NA,281,"1000 S 369TH W AVE, MANNFORD, OK, 74044","No_Match",NA,NA,NA,NA
3282,"1000 S 70TH ST","LINCOLN","NE",68510,40.8029697490001,-96.62502634,282,"1000 S 70TH ST, LINCOLN, NE, 68510","Match","Exact","1000 S 70TH ST, LINCOLN, NE, 68510",28298281,"L"
3283,"1000 S BROADWAY 152","DENVER","CO",80209,39.7321893720001,-104.987394996,283,"1000 S BROADWAY 152, DENVER, CO, 80209","Match","Non_Exact","1000 BROADWAY, DENVER, CO, 80203",177304794,"R"
3284,"1000 S BROADWAY UNIT 141","DENVER","CO",80209,39.7321893720001,-104.987394996,284,"1000 S BROADWAY UNIT 141, DENVER, CO, 80209","Match","Non_Exact","1000 BROADWAY, DENVER, CO, 80203",177304794,"R"
3285,"1000 S BROADWAY","DENVER","CO",80209,39.698449021,-104.987443629,285,"1000 S BROADWAY, DENVER, CO, 80209","Match","Exact","1000 S BROADWAY, DENVER, CO, 80209",640685256,"L"
3286,"1000 S CHERRY LANE","WHITESETTLEMENT","TX",76108,32.7501826050001,-97.451732286,286,"1000 S CHERRY LANE, WHITESETTLEMENT, TX, 76108","Match","Non_Exact","1000 S CHERRY LN, WHITE SETTLEMENT, TX, 76108",101877658,"R"
3287,"1000 S CLARK STREET","CHICAGO","IL",60605,41.869868825,-87.630516615,287,"1000 S CLARK STREET, CHICAGO, IL, 60605","Match","Exact","1000 S CLARK ST, CHICAGO, IL, 60605",650069332,"R"
3288,"1000 S ELMORA AVE","ELIZABETH","NJ",7202,40.653158519,-74.224821084,288,"1000 S ELMORA AVE, ELIZABETH, NJ, 7202","Match","Exact","1000 S ELMORA AVE, ELIZABETH, NJ, 07202",60578397,"L"
3289,"1000 S FAIRFIELD DR LOT 85","PENSACOLA","FL",32506,30.3966507810001,-87.316329012,289,"1000 S FAIRFIELD DR LOT 85, PENSACOLA, FL, 32506","Match","Non_Exact","1000 S FAIRFIELD DR, PENSACOLA, FL, 32506",640818185,"L"
3290,"1000 S FILLMORE ROAD","STATE COLLEGE","PA",16803,40.8547508460001,-77.872526863,290,"1000 S FILLMORE ROAD, STATE COLLEGE, PA, 16803","Match","Non_Exact","1000 FILMORE RD, STATE COLLEGE, PA, 16803",622016379,"R"
3291,"1000 S FOURTH STREET","LOUISVILLE","KY",40203,38.2388090000001,-85.759660256,291,"1000 S FOURTH STREET, LOUISVILLE, KY, 40203","Match","Exact","1000 S 4TH ST, LOUISVILLE, KY, 40203",96845750,"R"
3292,"1000 S FREMONT AVENUE UNIT 29 A10","ALHAMBRA","CA",91803,34.08368381,-118.151888975,292,"1000 S FREMONT AVENUE UNIT 29 A10, ALHAMBRA, CA, 91803","Match","Non_Exact","1000 S FREMONT AVE, ALHAMBRA, CA, 91803",141635573,"L"
3293,"1000 S GRAND AVE STE 640","LOS ANGELES","CA",90015,34.0428730030001,-118.260724845,293,"1000 S GRAND AVE STE 640, LOS ANGELES, CA, 90015","Match","Non_Exact","1000 S GRAND AVE, LOS ANGELES, CA, 90015",141618908,"L"
3294,"1000 S HAGGERTY ROAD","CANTON","MI",48188,42.3010183050001,-83.4480182519999,294,"1000 S HAGGERTY ROAD, CANTON, MI, 48188","Match","Exact","1000 HAGGERTY RD, CANTON, MI, 48188",640625329,"R"
3295,"1000 S HOPE ST 517","LOS ANGELES","CA",90015,34.0435761740001,-118.261805862,295,"1000 S HOPE ST 517, LOS ANGELES, CA, 90015","Match","Non_Exact","1000 S HOPE ST, LOS ANGELES, CA, 90015",141618902,"L"
3296,"1000 S JEFFERSON ST","HUGOTON","KS",67951,37.171702151,-101.343063937,296,"1000 S JEFFERSON ST, HUGOTON, KS, 67951","Match","Exact","1000 S JEFFERSON ST, HUGOTON, KS, 67951",167100663,"L"
3297,"1000 S MAIN ST","BALTIMORE","OH",43105,39.8367393510001,-82.605216164,297,"1000 S MAIN ST, BALTIMORE, OH, 43105","Match","Exact","1000 S MAIN ST, BALTIMORE, OH, 43105",623990449,"R"
3298,"1000 S MAIN STREET STE 210","GRAPEVINE","TX",76051,32.9310932110001,-97.0783624009999,298,"1000 S MAIN STREET STE 210, GRAPEVINE, TX, 76051","Match","Non_Exact","1000 S MAIN ST, GRAPEVINE, TX, 76051",642860238,"R"
3299,"1000 S MAIN STREET","FLORENCE","AZ",85132,NA,NA,299,"1000 S MAIN STREET, FLORENCE, AZ, 85132","Tie",NA,NA,NA,NA
3300,"1000 S MAIN STREET","TIPTON","IN",46072,NA,NA,300,"1000 S MAIN STREET, TIPTON, IN, 46072","Tie",NA,NA,NA,NA
3301,"1000 S MASON ST","APPLETON","WI",54914,44.2536242250001,-88.425726309,301,"1000 S MASON ST, APPLETON, WI, 54914","Match","Exact","1000 S MASON ST, APPLETON, WI, 54914",74885028,"L"
3302,"1000 S MEADOW RANCH LANE","DEWEY","AZ",86327,34.526950777,-112.210959305,302,"1000 S MEADOW RANCH LANE, DEWEY, AZ, 86327","Match","Exact","1000 S MEADOW RANCH LN, DEWEY, AZ, 86327",159516480,"L"
3303,"1000 S MICHIGAN ST","PLYMOUTH","IN",46563,41.33110578,-86.304487719,303,"1000 S MICHIGAN ST, PLYMOUTH, IN, 46563","Match","Exact","1000 S MICHIGAN ST, PLYMOUTH, IN, 46563",7642479,"L"
3304,"1000 S ODELL ST","BROWNSBURG","IN",46112,39.8283390710001,-86.387098393,304,"1000 S ODELL ST, BROWNSBURG, IN, 46112","Match","Exact","1000 S ODELL ST, BROWNSBURG, IN, 46112",89210437,"L"
3305,"1000 S OLD WOODWARD      STE 108","BIRMINGHAN","MI",48009,NA,NA,305,"1000 S OLD WOODWARD      STE 108, BIRMINGHAN, MI, 48009","No_Match",NA,NA,NA,NA
3306,"1000 S RACE ST","EVERMAN","TX",76140,32.618810022,-97.28712641,306,"1000 S RACE ST, EVERMAN, TX, 76140","Match","Exact","1000 S RACE ST, EVERMAN, TX, 76140",101895910,"R"
3307,"1000 S SCHOOL AVE","SARASOTA","FL",34237,27.325462837,-82.5258318689999,307,"1000 S SCHOOL AVE, SARASOTA, FL, 34237","Match","Exact","1000 S SCHOOL AVE, SARASOTA, FL, 34237",648607010,"L"
3308,"1000 S TENNESSEE","CROSSETT","AR",71635,33.1233077420001,-91.974237865,308,"1000 S TENNESSEE, CROSSETT, AR, 71635","Match","Non_Exact","1000 S TENNESSEE ST, CROSSETT, AR, 71635",31449626,"L"
3309,"1000 S VEGA ST","ALHAMBRA","CA",91801,34.0842606310001,-118.111300699,309,"1000 S VEGA ST, ALHAMBRA, CA, 91801","Match","Exact","1000 S VEGA ST, ALHAMBRA, CA, 91801",141639731,"L"
3310,"1000 SAN MARCOS STREET","AUSTIN","TX",78702,30.268926908,-97.731032781,310,"1000 SAN MARCOS STREET, AUSTIN, TX, 78702","Match","Exact","1000 SAN MARCOS ST, AUSTIN, TX, 78702",651640337,"L"
3311,"1000 SCHICK DR","BISMARCK","ND",58501,46.813785448,-100.664483172,311,"1000 SCHICK DR, BISMARCK, ND, 58501","Match","Exact","1000 SCHICK DR, BISMARCK, ND, 58501",632889100,"R"
3312,"1000 SCHOOL AVE","PANAMA CITY","FL",32404,30.1667557870001,-85.616477587,312,"1000 SCHOOL AVE, PANAMA CITY, FL, 32404","Match","Non_Exact","1000 SCHOOL AVE, PANAMA CITY, FL, 32401",7091565,"L"
3313,"1000 SE 12TH TERRACE","LEES SUMMIT","MO",64081,38.896666511,-94.348840885,313,"1000 SE 12TH TERRACE, LEES SUMMIT, MO, 64081","Match","Non_Exact","1000 SE 12TH ST, LEES SUMMIT, MO, 64081",91512421,"R"
3314,"1000 SE 160TH AVE UNIT MM318","VANCOUVER","WA",98683,45.6135093660001,-122.508143918,314,"1000 SE 160TH AVE UNIT MM318, VANCOUVER, WA, 98683","Match","Non_Exact","1000 SE 160TH AVE, VANCOUVER, WA, 98683",629041414,"L"
3315,"1000 SE ADAMS ST","IDABEL","OK",74745,33.893770531,-94.81666014,315,"1000 SE ADAMS ST, IDABEL, OK, 74745","Match","Exact","1000 SE ADAMS ST, IDABEL, OK, 74745",68710015,"L"
3316,"1000 SE BAY BLVD G239","NEWPORT","OR",97365,44.6297864380001,-124.038201013,316,"1000 SE BAY BLVD G239, NEWPORT, OR, 97365","Match","Non_Exact","1000 SE BAY BLVD, NEWPORT, OR, 97365",155954596,"L"
3317,"1000 SE GREEN OAKS BLVD","ARLINGTON","TX",76018,NA,NA,317,"1000 SE GREEN OAKS BLVD, ARLINGTON, TX, 76018","No_Match",NA,NA,NA,NA
3318,"1000 SE MONTEREY CMMNS BLVD STE 101","STUART","FL",34996,27.1931765740001,-80.221848611,318,"1000 SE MONTEREY CMMNS BLVD STE 101, STUART, FL, 34996","Match","Non_Exact","1000 SE MONTEREY COMMONS BLVD, STUART, FL, 34996",120430129,"R"
3319,"1000 SEA MOUNTAIN HIGHWAY","N MYRTLE BEACH","SC",29582,NA,NA,319,"1000 SEA MOUNTAIN HIGHWAY, N MYRTLE BEACH, SC, 29582","No_Match",NA,NA,NA,NA
3320,"1000 SHADOW BEND DR","SUGAR LAND","TX",77479,29.5492798710001,-95.663828616,320,"1000 SHADOW BEND DR, SUGAR LAND, TX, 77479","Match","Exact","1000 SHADOW BEND DR, SUGAR LAND, TX, 77479",624580410,"L"
3321,"1000 SHAMES DRIVE","WESTBURY","NY",11590,40.775462578,-73.556522399,321,"1000 SHAMES DRIVE, WESTBURY, NY, 11590","Match","Exact","1000 SHAMES DR, WESTBURY, NY, 11590",147697058,"R"
3322,"1000 SHARPE AVE","NASHVILLE","TN",37206,NA,NA,322,"1000 SHARPE AVE, NASHVILLE, TN, 37206","No_Match",NA,NA,NA,NA
3323,"1000 SHORE ROAD","CAPE ELIZABETH","ME",4107,43.6223598920001,-70.21606561,323,"1000 SHORE ROAD, CAPE ELIZABETH, ME, 4107","Match","Exact","1000 SHORE RD, CAPE ELIZABETH, ME, 04107",78072904,"L"
3324,"1000 SHOSHONE DR","LA CONNER","WA",98257,NA,NA,324,"1000 SHOSHONE DR, LA CONNER, WA, 98257","No_Match",NA,NA,NA,NA
3325,"1000 SILVERADO TRAIL NORTH","ST. HELENA","CA",94574,38.5193321360001,-122.467878983,325,"1000 SILVERADO TRAIL NORTH, ST. HELENA, CA, 94574","Match","Exact","1000 SILVERADO TRL N, SAINT HELENA, CA, 94574",640793626,"R"
3326,"1000 SNOW VALLEY DR","ZANESFIELD","OH",43360,NA,NA,326,"1000 SNOW VALLEY DR, ZANESFIELD, OH, 43360","No_Match",NA,NA,NA,NA
3327,"1000 SOUTH AVE      LL2","STATEN ISLAND","NY",10314,40.6153397630001,-74.1731249279999,327,"1000 SOUTH AVE      LL2, STATEN ISLAND, NY, 10314","Match","Exact","1000 SOUTH AVE, STATEN ISLAND, NY, 10314",647712037,"R"
3328,"1000 SOUTH BROADWAY SUITE 406","DENVER","CO",80209,39.698449021,-104.987443629,328,"1000 SOUTH BROADWAY SUITE 406, DENVER, CO, 80209","Match","Exact","1000 S BROADWAY, DENVER, CO, 80209",640685256,"L"
3329,"1000 SOUTH HOLLY STREET","DENVER","CO",80246,39.69866202,-104.921611951,329,"1000 SOUTH HOLLY STREET, DENVER, CO, 80246","Match","Exact","1000 S HOLLY ST, DENVER, CO, 80246",177340319,"L"
3330,"1000 SOUTH LEDFORD STREET","HARRISBURG","IL",62946,37.726278334,-88.548301437,330,"1000 SOUTH LEDFORD STREET, HARRISBURG, IL, 62946","Match","Exact","1000 S LEDFORD ST, HARRISBURG, IL, 62946",104099425,"R"
3331,"1000 SOUTH MAIN STREET","CROWN POINT","IN",46307,41.399765641,-87.364403715,331,"1000 SOUTH MAIN STREET, CROWN POINT, IN, 46307","Match","Exact","1000 S MAIN ST, CROWN POINT, IN, 46307",98432941,"R"
3332,"1000 SOUTH SCHOOL AVENUE","SARASOTA","FL",34237,27.325469485,-82.5258318689999,332,"1000 SOUTH SCHOOL AVENUE, SARASOTA, FL, 34237","Match","Exact","1000 S SCHOOL AVE, SARASOTA, FL, 34237",648607010,"L"
3333,"1000 ST CHRISTOPHER DRIVE","ASHLAND","KY",41101,38.5068867420001,-82.695075603,333,"1000 ST CHRISTOPHER DRIVE, ASHLAND, KY, 41101","Match","Exact","1000 SAINT CHRISTOPHER DR, ASHLAND, KY, 41101",639342432,"L"
3334,"1000 ST MICHAELS RD","MOUNT AIRY","MD",21771,39.3450345260001,-77.1045789039999,334,"1000 ST MICHAELS RD, MOUNT AIRY, MD, 21771","Match","Exact","1000 SAINT MICHAELS RD, MOUNT AIRY, MD, 21771",158951755,"R"
3335,"1000 STARK DRIVE","ALLIANCE","OH",44601,40.9001191560001,-81.1191753369999,335,"1000 STARK DRIVE, ALLIANCE, OH, 44601","Match","Exact","1000 STARK DR, ALLIANCE, OH, 44601",64696258,"L"
3336,"1000 STERLING RIDGE","COLTS NECK","NJ",7722,40.3053851080001,-74.202975432,336,"1000 STERLING RIDGE, COLTS NECK, NJ, 7722","Match","Exact","1000 STERLING RIDGE, COLTS NECK, NJ, 07722",90488610,"R"
3337,"1000 STEVENS ROAD","LYNCHBURG","VA",24501,37.3436958120001,-79.092250743,337,"1000 STEVENS ROAD, LYNCHBURG, VA, 24501","Match","Exact","1000 STEVENS RD, LYNCHBURG, VA, 24501",644908444,"L"
3338,"1000 SUNSET PARKWAY","NOVATO","CA",94949,38.0764952820001,-122.568584527,338,"1000 SUNSET PARKWAY, NOVATO, CA, 94949","Match","Exact","1000 SUNSET PKWY, NOVATO, CA, 94949",634210851,"R"
3339,"1000 SW HILLCROFT AVE","PORTLAND","OR",97225,45.5121771140001,-122.797263764,339,"1000 SW HILLCROFT AVE, PORTLAND, OR, 97225","Match","Exact","1000 SW HILLCROFT AVE, PORTLAND, OR, 97225",158186178,"L"
3340,"1000 SW PALM CITY ROAD","STUART","FL",34994,27.190727758,-80.257030521,340,"1000 SW PALM CITY ROAD, STUART, FL, 34994","Match","Exact","1000 SW PALM CITY RD, STUART, FL, 34994",120429563,"L"
3341,"1000 TATES CREEK RD","LEXINGTON","KY",40502,38.0263981250001,-84.490779516,341,"1000 TATES CREEK RD, LEXINGTON, KY, 40502","Match","Exact","1000 TATES CREEK RD, LEXINGTON, KY, 40502",31923685,"R"
3342,"1000 TATES CREEK ROAD","LEXINGTON","KY",40502,38.0263981250001,-84.490779516,342,"1000 TATES CREEK ROAD, LEXINGTON, KY, 40502","Match","Exact","1000 TATES CREEK RD, LEXINGTON, KY, 40502",31923685,"R"
3343,"1000 TAYLOR AVE","COTTAGE GROVE","OR",97424,NA,NA,343,"1000 TAYLOR AVE, COTTAGE GROVE, OR, 97424","No_Match",NA,NA,NA,NA
3344,"1000 THROCKMORTON STREET","FORT WORTH","TX",76102,32.7507995440001,-97.330691745,344,"1000 THROCKMORTON STREET, FORT WORTH, TX, 76102","Match","Exact","1000 THROCKMORTON ST, FORT WORTH, TX, 76102",101888839,"R"
3345,"1000 TIOGUE AVENUE","COVENTRY","RI",2816,41.6794345710001,-71.5779277629999,345,"1000 TIOGUE AVENUE, COVENTRY, RI, 2816","Match","Exact","1000 TIOGUE AVE, COVENTRY, RI, 02816",647192901,"L"
3346,"1000 TOWN CENTER DR STE 300","OXNARD","CA",93036,NA,NA,346,"1000 TOWN CENTER DR STE 300, OXNARD, CA, 93036","No_Match",NA,NA,NA,NA
3347,"1000 TOWN CENTER DRIVE SUITE 300","OXNARD","CA",93036,NA,NA,347,"1000 TOWN CENTER DRIVE SUITE 300, OXNARD, CA, 93036","No_Match",NA,NA,NA,NA
3348,"1000 TOWN CENTER DRIVE","OXNARD","CA",93036,NA,NA,348,"1000 TOWN CENTER DRIVE, OXNARD, CA, 93036","No_Match",NA,NA,NA,NA
3349,"1000 UNIVERSITY DRIVE EAST","COLLEGE STATION","TX",77840,30.635664203,-96.323276468,349,"1000 UNIVERSITY DRIVE EAST, COLLEGE STATION, TX, 77840","Match","Exact","1000 UNIVERSITY DR E, COLLEGE STATION, TX, 77840",640634950,"R"
3350,"1000 UNIVERSITY E DR 808","COLLEGE STATION","TX",77840,30.635664203,-96.323276468,350,"1000 UNIVERSITY E DR 808, COLLEGE STATION, TX, 77840","Match","Non_Exact","1000 UNIVERSITY DR E, COLLEGE STATION, TX, 77840",640634950,"R"
3351,"1000 URLIN AVENUE APT 506","COLUMBUS","OH",43212,39.9769187530001,-83.050621941,351,"1000 URLIN AVENUE APT 506, COLUMBUS, OH, 43212","Match","Exact","1000 URLIN AVE, COLUMBUS, OH, 43212",636561123,"L"
3352,"1000 URLIN AVENUE SUITE 1420","GRANDVIEW HEIGHTS","OH",43212,39.9769187530001,-83.050621941,352,"1000 URLIN AVENUE SUITE 1420, GRANDVIEW HEIGHTS, OH, 43212","Match","Exact","1000 URLIN AVE, GRANDVIEW HEIGHTS, OH, 43212",636561123,"L"
3353,"1000 VALLEY RIDGE BLVD 3103","LEWISVILLE","TX",75077,33.055924465,-97.01572483,353,"1000 VALLEY RIDGE BLVD 3103, LEWISVILLE, TX, 75077","Match","Exact","1000 VALLEY RIDGE BLVD, LEWISVILLE, TX, 75077",614163333,"L"
3354,"1000 VAN DYKE ST APT 601","DETROIT","MI",48214,42.353386297,-82.996311745,354,"1000 VAN DYKE ST APT 601, DETROIT, MI, 48214","Match","Exact","1000 VAN DYKE ST, DETROIT, MI, 48214",95484089,"R"
3355,"1000 VENETIAN WAY  APT 404","MIAMI","FL",33139,25.7901545570001,-80.175109382,355,"1000 VENETIAN WAY  APT 404, MIAMI, FL, 33139","Match","Non_Exact","1000 VENETIAN WAY, MIAMI BEACH, FL, 33139",116019844,"R"
3356,"1000 VETERANS MEMORIAL HIGHWAY","ROME","GA",30161,NA,NA,356,"1000 VETERANS MEMORIAL HIGHWAY, ROME, GA, 30161","No_Match",NA,NA,NA,NA
3357,"1000 VIALE PLACENZA PL","HENDERSON","NV",89011,36.0735614590001,-114.959961073,357,"1000 VIALE PLACENZA PL, HENDERSON, NV, 89011","Match","Non_Exact","1000 VIA LE PLACENZA PL, HENDERSON, NV, 89011",641510595,"L"
3358,"1000 VIRGINIA AVE","FORT PIERCE","FL",34982,27.4254058440001,-80.333016007,358,"1000 VIRGINIA AVE, FORT PIERCE, FL, 34982","Match","Exact","1000 VIRGINIA AVE, FORT PIERCE, FL, 34982",610736626,"R"
3359,"1000 W 15TH STREET","BLOOMINGTON","IN",47404,39.1764188660001,-86.543945623,359,"1000 W 15TH STREET, BLOOMINGTON, IN, 47404","Match","Exact","1000 W 15TH ST, BLOOMINGTON, IN, 47404",640796769,"R"
3360,"1000 W ADAMS ST SUITE 704","CHICAGO","IL",60607,41.8791431450001,-87.652162941,360,"1000 W ADAMS ST SUITE 704, CHICAGO, IL, 60607","Match","Non_Exact","1000 W ADAMS ST, CHICAGO, IL, 60607",111766379,"R"
3361,"1000 W CHAPALA DRIVE","TUCSON","AZ",85704,32.3445821940001,-110.98906885,361,"1000 W CHAPALA DRIVE, TUCSON, AZ, 85704","Match","Exact","1000 W CHAPALA DR, TUCSON, AZ, 85704",121164934,"R"
3362,"1000 W COLLEGE AVE STE 7","APPLETON","WI",54914,44.261897999,-88.420766683,362,"1000 W COLLEGE AVE STE 7, APPLETON, WI, 54914","Match","Non_Exact","1000 W COLLEGE AVE, APPLETON, WI, 54914",74911165,"R"
3363,"1000 W CORRAL","KINGSVILLE","TX",78363,NA,NA,363,"1000 W CORRAL, KINGSVILLE, TX, 78363","No_Match",NA,NA,NA,NA
3364,"1000 W FOOTHILL BLVD","GLENDORA","CA",91741,34.1360155620001,-117.880872179,364,"1000 W FOOTHILL BLVD, GLENDORA, CA, 91741","Match","Exact","1000 W FOOTHILL BLVD, GLENDORA, CA, 91741",141710123,"L"
3365,"1000 W GREEN STREET","BENSENVILLE","IL",60106,41.9578512370001,-87.951998932,365,"1000 W GREEN STREET, BENSENVILLE, IL, 60106","Match","Exact","1000 W GREEN ST, BENSENVILLE, IL, 60106",613006813,"L"
3366,"1000 W HILL STREET","AVON PARK","FL",33825,27.5965167580001,-81.5124481459999,366,"1000 W HILL STREET, AVON PARK, FL, 33825","Match","Exact","1000 W HILL ST, AVON PARK, FL, 33825",4660174,"L"
3367,"1000 W LOTUS AVE","ULYSSES","KS",67880,37.5864794400001,-101.369956132,367,"1000 W LOTUS AVE, ULYSSES, KS, 67880","Match","Exact","1000 W LOTUS AVE, ULYSSES, KS, 67880",145642645,"R"
3368,"1000 W MAIN STREET","BLUE SPRINGS","MO",64015,39.018346566,-94.276864071,368,"1000 W MAIN STREET, BLUE SPRINGS, MO, 64015","Match","Exact","1000 W MAIN ST, BLUE SPRINGS, MO, 64015",91474379,"L"
3369,"1000 W MOORE RD","PHARR","TX",78577,26.1755604700001,-98.202302615,369,"1000 W MOORE RD, PHARR, TX, 78577","Match","Exact","1000 W MOORE RD, PHARR, TX, 78577",71563125,"R"
3370,"1000 W PALM DR 349226","HOMESTEAD","FL",33034,NA,NA,370,"1000 W PALM DR 349226, HOMESTEAD, FL, 33034","No_Match",NA,NA,NA,NA
3371,"1000 W VALLEY RD UNIT 303","WAYNE","PA",19399,NA,NA,371,"1000 W VALLEY RD UNIT 303, WAYNE, PA, 19399","No_Match",NA,NA,NA,NA
3372,"1000 W VALLEY RD","WAYNE","PA",19399,40.071030981,-75.425419986,372,"1000 W VALLEY RD, WAYNE, PA, 19399","Match","Non_Exact","1000 W VALLEY RD, WAYNE, PA, 19087",179524254,"L"
3373,"1000 W WALLINGS ROAD SUITE B","BROADVIEW HEIGHTS","OH",44147,41.3447603700001,-81.677914105,373,"1000 W WALLINGS ROAD SUITE B, BROADVIEW HEIGHTS, OH, 44147","Match","Exact","1000 WALLINGS RD, BROADVIEW HEIGHTS, OH, 44147",61141459,"R"
3374,"1000 W WILSHIRE BLVD STE 359","OKLAHOMA CITY","OK",73116,35.5511107520001,-97.5298789999999,374,"1000 W WILSHIRE BLVD STE 359, OKLAHOMA CITY, OK, 73116","Match","Non_Exact","1000 W WILSHIRE BLVD, OKLAHOMA CITY, OK, 73116",100395125,"L"
3375,"1000 W WOOD ST","BENSENVILLE","IL",60106,41.9532542900001,-87.956992522,375,"1000 W WOOD ST, BENSENVILLE, IL, 60106","Match","Exact","1000 W WOOD ST, BENSENVILLE, IL, 60106",112543829,"L"
3376,"1000 WACO BLVD SE","PALM BAY","FL",32909,27.9674364900001,-80.643868966,376,"1000 WACO BLVD SE, PALM BAY, FL, 32909","Match","Exact","1000 WACO BLVD SE, PALM BAY, FL, 32909",93909287,"R"
3377,"1000 WALDEN CREEK TRACE  241B","SPRING HILL","TN",37174,35.745046614,-86.8949322079999,377,"1000 WALDEN CREEK TRACE  241B, SPRING HILL, TN, 37174","Match","Exact","1000 WALDEN CREEK TRCE, SPRING HILL, TN, 37174",645114930,"R"
3378,"1000 WASHBURN COURT","MONROE","NC",28110,35.0264228830001,-80.6480557689999,378,"1000 WASHBURN COURT, MONROE, NC, 28110","Match","Exact","1000 WASHBURN CT, MONROE, NC, 28110",648610904,"R"
3379,"1000 WATTERMAN STREET","MINDEN","LA",71055,32.602979109,-93.299774201,379,"1000 WATTERMAN STREET, MINDEN, LA, 71055","Match","Exact","1000 WATTERMAN ST, MINDEN, LA, 71055",73394195,"L"
3380,"1000 WEBSTER STREET 1ST FLOOR STE A","FAIRFIELD","CA",94533,38.2516186290001,-122.043463809,380,"1000 WEBSTER STREET 1ST FLOOR STE A, FAIRFIELD, CA, 94533","Match","Exact","1000 WEBSTER ST, FAIRFIELD, CA, 94533",192536844,"L"
3381,"1000 WEIGLES HILL ROAD","ELIZABETH","PA",15037,40.2563312090001,-79.8567042289999,381,"1000 WEIGLES HILL ROAD, ELIZABETH, PA, 15037","Match","Exact","1000 WEIGLES HILL RD, ELIZABETH, PA, 15037",606412332,"R"
3382,"1000 WEST 5TH STREET","EL DORADO","AR",71730,33.222136639,-92.676309939,382,"1000 WEST 5TH STREET, EL DORADO, AR, 71730","Match","Exact","1000 W 5TH ST, EL DORADO, AR, 71730",28159801,"R"
3383,"1000 WEST 8TH STREET UNIT 2002","LOS ANGELES","CA",90017,34.049558382,-118.264953613,383,"1000 WEST 8TH STREET UNIT 2002, LOS ANGELES, CA, 90017","Match","Exact","1000 W 8TH ST, LOS ANGELES, CA, 90017",142732391,"L"
3384,"1000 WEST AVE APT 1016","MIAMI BEACH","FL",33139,25.7805923230001,-80.142156428,384,"1000 WEST AVE APT 1016, MIAMI BEACH, FL, 33139","Match","Exact","1000 WEST AVE, MIAMI BEACH, FL, 33139",647885965,"L"
3385,"1000 WEST AVENUE - APT 609","MIAMI BEACH","FL",33139,25.7805923230001,-80.142156428,385,"1000 WEST AVENUE - APT 609, MIAMI BEACH, FL, 33139","Match","Exact","1000 WEST AVE, MIAMI BEACH, FL, 33139",647885965,"L"
3386,"1000 WEST AVENUE PH 29","MIAMI BEACH","FL",33139,25.7805923230001,-80.142156428,386,"1000 WEST AVENUE PH 29, MIAMI BEACH, FL, 33139","Match","Exact","1000 WEST AVE, MIAMI BEACH, FL, 33139",647885965,"L"
3387,"1000 WEST CORRAL AVE","KINGSVILLE","TX",78363,27.530638455,-97.8561025019999,387,"1000 WEST CORRAL AVE, KINGSVILLE, TX, 78363","Match","Non_Exact","1000 E CORRAL AVE, KINGSVILLE, TX, 78363",72101207,"R"
3388,"1000 WEST MCNAB ROAD SUITE 320","POMPANO BEACH","FL",33069,26.2107104080001,-80.139286773,388,"1000 WEST MCNAB ROAD SUITE 320, POMPANO BEACH, FL, 33069","Match","Non_Exact","1000 MCNAB RD, POMPANO BEACH, FL, 33069",640110601,"L"
3389,"1000 WEST UNIVERSITY DR SUITE 150","ROCHESTER","MI",48307,42.681834586,-83.145888575,389,"1000 WEST UNIVERSITY DR SUITE 150, ROCHESTER, MI, 48307","Match","Exact","1000 W UNIVERSITY DR, ROCHESTER, MI, 48307",637952673,"R"
3390,"1000 WHALEY ST 4003A","COLUMBIA","SC",29201,33.986755612,-81.030754926,390,"1000 WHALEY ST 4003A, COLUMBIA, SC, 29201","Match","Exact","1000 WHALEY ST, COLUMBIA, SC, 29201",71827740,"R"
3391,"1000 WHITE MARSH ROAD","CENTREVILLE","MD",21617,NA,NA,391,"1000 WHITE MARSH ROAD, CENTREVILLE, MD, 21617","No_Match",NA,NA,NA,NA
3392,"1000 WHITLOCK AVE  PMB 157","MARIETTA","GA",30064,33.9520668700001,-84.579397225,392,"1000 WHITLOCK AVE  PMB 157, MARIETTA, GA, 30064","Match","Non_Exact","1000 WHITLOCK AVE NW, MARIETTA, GA, 30064",17212123,"R"
3393,"1000 WHITLOCK AVE NW SUITE 320","MARIETTA","GA",30064,33.9520668700001,-84.579397225,393,"1000 WHITLOCK AVE NW SUITE 320, MARIETTA, GA, 30064","Match","Exact","1000 WHITLOCK AVE NW, MARIETTA, GA, 30064",17212123,"R"
3394,"1000 WHITLOCK AVE PO BOX 222","MARIETTA","GA",30060,NA,NA,394,"1000 WHITLOCK AVE PO BOX 222, MARIETTA, GA, 30060","No_Match",NA,NA,NA,NA
3395,"1000 WHITLOCK AVE STE 210","MARIETTA","GA",30064,33.9520668700001,-84.579397225,395,"1000 WHITLOCK AVE STE 210, MARIETTA, GA, 30064","Match","Non_Exact","1000 WHITLOCK AVE NW, MARIETTA, GA, 30064",17212123,"R"
3396,"1000 WHITLOCK AVE STE 320 PMB 186","MARIETTA","GA",30064,33.9520668700001,-84.579397225,396,"1000 WHITLOCK AVE STE 320 PMB 186, MARIETTA, GA, 30064","Match","Non_Exact","1000 WHITLOCK AVE NW, MARIETTA, GA, 30064",17212123,"R"
3397,"1000 WHITLOCK AVENUE SUITE 320-199","MARIETTA","GA",30064,33.9520668700001,-84.579397225,397,"1000 WHITLOCK AVENUE SUITE 320-199, MARIETTA, GA, 30064","Match","Non_Exact","1000 WHITLOCK AVE NW, MARIETTA, GA, 30064",17212123,"R"
3398,"1000 WHITLOCK AVENUE SUITE 320","MARIETTA","GA",30064,33.9520668700001,-84.579397225,398,"1000 WHITLOCK AVENUE SUITE 320, MARIETTA, GA, 30064","Match","Non_Exact","1000 WHITLOCK AVE NW, MARIETTA, GA, 30064",17212123,"R"
3399,"1000 WHITLOCK PMB 198","MARIETTA","GA",30064,NA,NA,399,"1000 WHITLOCK PMB 198, MARIETTA, GA, 30064","No_Match",NA,NA,NA,NA
3400,"1000 WILBRAHAM ROAD - SUITE 2","SPRINGFIELD","MA",1109,42.1149351500001,-72.527848142,400,"1000 WILBRAHAM ROAD - SUITE 2, SPRINGFIELD, MA, 1109","Match","Exact","1000 WILBRAHAM RD, SPRINGFIELD, MA, 01109",4063134,"L"
3401,"1000 WILD IRIS LANE","MOSCOW","ID",83843,46.676871351,-116.962129894,401,"1000 WILD IRIS LANE, MOSCOW, ID, 83843","Match","Exact","1000 WILD IRIS LN, MOSCOW, ID, 83843",193871003,"L"
3402,"1000 WILLOWBROOK ROAD","NEW CASTLE","PA",16101,40.9730832280001,-80.313757601,402,"1000 WILLOWBROOK ROAD, NEW CASTLE, PA, 16101","Match","Exact","1000 WILLOWBROOK RD, NEW CASTLE, PA, 16101",65196435,"R"
3403,"1000 WINSTON DRIVE","RICHMOND","TX",77469,29.5746747470001,-95.765744667,403,"1000 WINSTON DRIVE, RICHMOND, TX, 77469","Match","Exact","1000 WINSTON DR, RICHMOND, TX, 77469",78264068,"L"
3404,"1000 YORKSHIRE RD","GROSSE POINTE PARK","MI",48230,42.380529192,-82.918182047,404,"1000 YORKSHIRE RD, GROSSE POINTE PARK, MI, 48230","Match","Non_Exact","1000 YORKSHIRE, GROSSE POINTE PARK, MI, 48230",95489204,"R"
3405,"1000-A MILLS STREET","RALEIGH","NC",27608,35.810370232,-78.622831606,405,"1000-A MILLS STREET, RALEIGH, NC, 27608","Match","Exact","1000 MILLS ST, RALEIGH, NC, 27608",72621432,"R"
3406,"1000-D SAINT ANDREWS ROAD","COLUMBIA","SC",29210,34.0480447410001,-81.1115114149999,406,"1000-D SAINT ANDREWS ROAD, COLUMBIA, SC, 29210","Match","Exact","1000 SAINT ANDREWS RD, COLUMBIA, SC, 29210",604764232,"R"
3407,"10000 2243 EAST","AUSTIN","TX",78641,NA,NA,407,"10000 2243 EAST, AUSTIN, TX, 78641","No_Match",NA,NA,NA,NA
3408,"10000 BROWNSBORO ROAD NUMBER 6","LOUISVILLE","KY",40241,38.314341508,-85.563946901,408,"10000 BROWNSBORO ROAD NUMBER 6, LOUISVILLE, KY, 40241","Match","Exact","10000 BROWNSBORO RD, LOUISVILLE, KY, 40241",96885442,"R"
3409,"10000 CELTIC DRIVE SUITE 202","BATON ROUGE","LA",70809,30.418896852,-91.075765874,409,"10000 CELTIC DRIVE SUITE 202, BATON ROUGE, LA, 70809","Match","Exact","10000 CELTIC DR, BATON ROUGE, LA, 70809",92191305,"R"
3410,"10000 CENTENNIAL PARKWAY","SANDY","UT",84070,40.5688936830001,-111.895725152,410,"10000 CENTENNIAL PARKWAY, SANDY, UT, 84070","Match","Exact","10000 CENTENNIAL PKWY, SANDY, UT, 84070",609018645,"R"
3411,"10000 E 5TH AVE","AURORA","CO",80010,39.723219176,-104.872121717,411,"10000 E 5TH AVE, AURORA, CO, 80010","Match","Exact","10000 E 5TH AVE, AURORA, CO, 80010",177342871,"R"
3412,"10000 HAMMERLY BLVD APT 409","HOUSTON","TX",77080,29.812488597,-95.538813736,412,"10000 HAMMERLY BLVD APT 409, HOUSTON, TX, 77080","Match","Exact","10000 HAMMERLY BLVD, HOUSTON, TX, 77080",96639050,"R"
3413,"10000 I10 WEST SUITE 200","SAN ANTONIO","TX",78230,NA,NA,413,"10000 I10 WEST SUITE 200, SAN ANTONIO, TX, 78230","No_Match",NA,NA,NA,NA
3414,"10000 INNOVATION WAY","MIAMISBURG","OH",45342,39.6029586810001,-84.232045748,414,"10000 INNOVATION WAY, MIAMISBURG, OH, 45342","Match","Non_Exact","10000 INNOVATION DR, MIAMISBURG, OH, 45342",645849454,"R"
3415,"10000 JOPPA COURT","HENRICO","VA",23233,37.63076778,-77.57584953,415,"10000 JOPPA COURT, HENRICO, VA, 23233","Match","Exact","10000 JOPPA CT, HENRICO, VA, 23233",106666749,"R"
3416,"10000 KEITH INCH CT","SAINT LOUIS","MO",63114,38.705402318,-90.378706457,416,"10000 KEITH INCH CT, SAINT LOUIS, MO, 63114","Match","Exact","10000 KEITH INCH CT, SAINT LOUIS, MO, 63114",100130713,"L"
3417,"10000 LAKE HARDEMAN RD","MIDDLETON","TN",38052,35.1407643140001,-88.9802245229999,417,"10000 LAKE HARDEMAN RD, MIDDLETON, TN, 38052","Match","Exact","10000 LAKE HARDEMAN RD, MIDDLETON, TN, 38052",643271883,"R"
3418,"10000 LINCOLN DRIVE EAST-SUITE 201","MARLTON","NJ",8053,NA,NA,418,"10000 LINCOLN DRIVE EAST-SUITE 201, MARLTON, NJ, 8053","No_Match",NA,NA,NA,NA
3419,"10000 N 31ST AVENUE SUITE C210","PHOENIX","AZ",85051,33.5762546020001,-112.126450587,419,"10000 N 31ST AVENUE SUITE C210, PHOENIX, AZ, 85051","Match","Non_Exact","10000 N 31ST AVE, PHOENIX, AZ, 85051",128202521,"L"
3420,"10000 N SILVERBELL ROAD","TUCSON","AZ",85743,32.388200446,-111.141356235,420,"10000 N SILVERBELL ROAD, TUCSON, AZ, 85743","Match","Exact","10000 N SILVERBELL RD, TUCSON, AZ, 85743",121410201,"R"
3421,"10000 NORTH 31ST AVENUE SUITE 406D","PHOENIX","AZ",85051,33.5762546020001,-112.126450587,421,"10000 NORTH 31ST AVENUE SUITE 406D, PHOENIX, AZ, 85051","Match","Exact","10000 N 31ST AVE, PHOENIX, AZ, 85051",128202521,"L"
3422,"10000 NORTH ELDRIDGE PARKWAY","HOUSTON","TX",77065,NA,NA,422,"10000 NORTH ELDRIDGE PARKWAY, HOUSTON, TX, 77065","No_Match",NA,NA,NA,NA
3423,"10000 NW 112TH STREET","MALCOLM","NE",68402,40.9170152940001,-96.872413862,423,"10000 NW 112TH STREET, MALCOLM, NE, 68402","Match","Exact","10000 NW 112TH ST, MALCOLM, NE, 68402",28249433,"L"
3424,"10000 S KOMENSKY AVE","OAK LAWN","IL",60453,41.711182158,-87.722280272,424,"10000 S KOMENSKY AVE, OAK LAWN, IL, 60453","Match","Exact","10000 S KOMENSKY AVE, OAK LAWN, IL, 60453",111818649,"R"
3425,"10000 SEPULVEDA BLVD","MISSION HILLS","CA",91345,34.2518678060001,-118.467326214,425,"10000 SEPULVEDA BLVD, MISSION HILLS, CA, 91345","Match","Exact","10000 SEPULVEDA BLVD, MISSION HILLS, CA, 91345",141547148,"R"
3426,"10000 SW BULLDOG WAY","STUART","FL",34997,NA,NA,426,"10000 SW BULLDOG WAY, STUART, FL, 34997","No_Match",NA,NA,NA,NA
3427,"10000 TOWN CENTER AVE","COLUMBIA","MD",21044,39.2145228530001,-76.864949923,427,"10000 TOWN CENTER AVE, COLUMBIA, MD, 21044","Match","Exact","10000 TOWN CENTER AVE, COLUMBIA, MD, 21044",158967848,"L"
3428,"10000 W NATIONAL RD","NEW CARLISLE","OH",45344,39.912310711,-83.999034748,428,"10000 W NATIONAL RD, NEW CARLISLE, OH, 45344","Match","Exact","10000 W NATIONAL RD, NEW CARLISLE, OH, 45344",636709231,"L"
3429,"10000 WEST COMMERCE STREET","SAN ANTONIO","TX",78227,29.4361395380001,-98.624085524,429,"10000 WEST COMMERCE STREET, SAN ANTONIO, TX, 78227","Match","Exact","10000 W COMMERCE ST, SAN ANTONIO, TX, 78227",101507196,"L"
3430,"10000 ZIER RD","YAKIMA","WA",98908,46.574744894,-120.64145624,430,"10000 ZIER RD, YAKIMA, WA, 98908","Match","Exact","10000 ZIER RD, YAKIMA, WA, 98908",184962447,"L"
3431,"10001 BREEDEN DR","BATON ROUGE","LA",70811,30.536879206,-91.104306332,431,"10001 BREEDEN DR, BATON ROUGE, LA, 70811","Match","Exact","10001 BREEDEN DR, BATON ROUGE, LA, 70811",606192452,"L"
3432,"10001 CHESHAM DR","ORLANDO","FL",32817,28.6111510320001,-81.243968405,432,"10001 CHESHAM DR, ORLANDO, FL, 32817","Match","Exact","10001 CHESHAM DR, ORLANDO, FL, 32817",94311669,"L"
3433,"10001 DEREKWOOD LA SUITE 110","LANHAM","MD",20706,38.9494379930001,-76.832153563,433,"10001 DEREKWOOD LA SUITE 110, LANHAM, MD, 20706","Match","Exact","10001 DEREKWOOD LN, LANHAM, MD, 20706",76348356,"L"
3434,"10001 EAST CONSTABLE COURT","FAIRFAX","VA",22032,38.8121416920001,-77.2921076279999,434,"10001 EAST CONSTABLE COURT, FAIRFAX, VA, 22032","Match","Exact","10001 E CONSTABLE CT, FAIRFAX, VA, 22032",75969958,"R"
3435,"10001 FM 830 RD","WILLIS","TX",77318,30.3991853370001,-95.5162780699999,435,"10001 FM 830 RD, WILLIS, TX, 77318","Match","Non_Exact","10001 FM 830, WILLIS, TX, 77318",653858995,"L"
3436,"10001 GEORGETOWN PIKE UNIT 593","GREAT FALLS","VA",22066,38.9983828160001,-77.291110203,436,"10001 GEORGETOWN PIKE UNIT 593, GREAT FALLS, VA, 22066","Match","Exact","10001 GEORGETOWN PIKE, GREAT FALLS, VA, 22066",647343439,"L"
3437,"10001 HIGHWAY 70","LAKELAND","TN",38002,35.2631417650001,-89.728274191,437,"10001 HIGHWAY 70, LAKELAND, TN, 38002","Match","Non_Exact","10001 US HWY 70, LAKELAND, TN, 38002",618246032,"R"
3438,"10001 IMPERIAL STREET","EL PASO","TX",79924,31.8992707580001,-106.432308455,438,"10001 IMPERIAL STREET, EL PASO, TX, 79924","Match","Exact","10001 IMPERIAL ST, EL PASO, TX, 79924",189400848,"L"
3439,"10001 IRONBRIDGE ROAD","CHESTERFIELD","VA",23838,NA,NA,439,"10001 IRONBRIDGE ROAD, CHESTERFIELD, VA, 23838","No_Match",NA,NA,NA,NA
3440,"10001 LAKE FOREST BLVD SUITE 1111","NEW ORLEANS","LA",70127,30.031706037,-89.975129714,440,"10001 LAKE FOREST BLVD SUITE 1111, NEW ORLEANS, LA, 70127","Match","Exact","10001 LAKE FOREST BLVD, NEW ORLEANS, LA, 70127",191749679,"L"
3441,"10001 LAKE FOREST BLVD SUITE 509","NEW ORLEANS","LA",70127,30.031706037,-89.975129714,441,"10001 LAKE FOREST BLVD SUITE 509, NEW ORLEANS, LA, 70127","Match","Exact","10001 LAKE FOREST BLVD, NEW ORLEANS, LA, 70127",191749679,"L"
3442,"10001 N SHARY RD","MISSION","TX",78573,26.300169946,-98.270709601,442,"10001 N SHARY RD, MISSION, TX, 78573","Match","Exact","10001 N SHARY RD, MISSION, TX, 78573",643605437,"L"
3443,"10001 ROUTE 108","COLUMBIA","MD",21044,39.238145064,-76.856112121,443,"10001 ROUTE 108, COLUMBIA, MD, 21044","Match","Non_Exact","10001 STATE HWY 108, COLUMBIA, MD, 21044",158968568,"L"
3444,"10001 SCHOOL STREET","PESHASTIN","WA",98847,47.568770613,-120.602692025,444,"10001 SCHOOL STREET, PESHASTIN, WA, 98847","Match","Exact","10001 SCHOOL ST, PESHASTIN, WA, 98847",156969618,"R"
3445,"10001 W OAKLAND PARK BLVD STE 200","SUNRISE","FL",33351,26.1692680530001,-80.294080375,445,"10001 W OAKLAND PARK BLVD STE 200, SUNRISE, FL, 33351","Match","Non_Exact","10001 W OAKLAND PARK BLVD, SUNRISE, FL, 33351",611122907,"L"
3446,"10001 W OAKLAND PARK BLVD STE 203","SUNRISE","FL",33351,26.1692680530001,-80.294080375,446,"10001 W OAKLAND PARK BLVD STE 203, SUNRISE, FL, 33351","Match","Non_Exact","10001 W OAKLAND PARK BLVD, SUNRISE, FL, 33351",611122907,"L"
3447,"10001 WESTPARK DR UNIT 70","HOUSTON","TX",77042,NA,NA,447,"10001 WESTPARK DR UNIT 70, HOUSTON, TX, 77042","No_Match",NA,NA,NA,NA
3448,"10001 WILLOWDALE ROAD","LANHAM","MD",20706,38.9538563410001,-76.8344269729999,448,"10001 WILLOWDALE ROAD, LANHAM, MD, 20706","Match","Exact","10001 WILLOWDALE RD, LANHAM, MD, 20706",635445780,"R"
3449,"10002 112TH ST SW","LAKEWOOD","WA",98498,47.1559269460001,-122.570006253,449,"10002 112TH ST SW, LAKEWOOD, WA, 98498","Match","Exact","10002 112TH ST SW, LAKEWOOD, WA, 98498",184760485,"L"
3450,"10002 AURORA AVE N -36 PMB 5501","SEATTLE","WA",98133,47.701602877,-122.344575305,450,"10002 AURORA AVE N -36 PMB 5501, SEATTLE, WA, 98133","Match","Exact","10002 AURORA AVE N, SEATTLE, WA, 98133",638131859,"R"
3451,"10002 BREEDEN DR","BATON ROUGE","LA",70811,30.5366233450001,-91.104338532,451,"10002 BREEDEN DR, BATON ROUGE, LA, 70811","Match","Exact","10002 BREEDEN DR, BATON ROUGE, LA, 70811",606192452,"R"
3452,"10002 LOCKLIES DRIVE","GLEN ALLEN","VA",23060,37.654243965,-77.533036228,452,"10002 LOCKLIES DRIVE, GLEN ALLEN, VA, 23060","Match","Exact","10002 LOCKLIES DR, GLEN ALLEN, VA, 23060",106672206,"R"
3453,"10002 N 27TH ST","TAMPA","FL",33612,28.040150904,-82.428903728,453,"10002 N 27TH ST, TAMPA, FL, 33612","Match","Exact","10002 N 27TH ST, TAMPA, FL, 33612",104531427,"L"
3454,"10002 N 56TH ST","TEMPLE TERRACE","FL",33617,28.0402381930001,-82.393547397,454,"10002 N 56TH ST, TEMPLE TERRACE, FL, 33617","Match","Exact","10002 N 56TH ST, TEMPLE TER, FL, 33617",104532523,"L"
3455,"10002 PICKFAIR DR","AUSTIN","TX",78750,30.426489899,-97.809661951,455,"10002 PICKFAIR DR, AUSTIN, TX, 78750","Match","Exact","10002 PICKFAIR DR, AUSTIN, TX, 78750",63974776,"L"
3456,"10002 PIONEER MILL RD","CONCORD","NC",28025,35.2781056370001,-80.592361378,456,"10002 PIONEER MILL RD, CONCORD, NC, 28025","Match","Exact","10002 PIONEER MILL RD, CONCORD, NC, 28025",24894666,"L"
3457,"10002 ROYAL COLONY DRIVE","WAXHAS","NC",28173,34.9867069410001,-80.804759632,457,"10002 ROYAL COLONY DRIVE, WAXHAS, NC, 28173","Match","Non_Exact","10002 ROYAL COLONY DR, WAXHAW, NC, 28173",635861418,"L"
3458,"10002 SYNOTT RD","SUGARLAND","TX",77498,29.6703758790001,-95.616093913,458,"10002 SYNOTT RD, SUGARLAND, TX, 77498","Match","Non_Exact","10002 SYNOTT RD, SUGAR LAND, TX, 77498",78340629,"R"
3459,"10002 W WADDELL STREET","SELMA","NC",27576,NA,NA,459,"10002 W WADDELL STREET, SELMA, NC, 27576","No_Match",NA,NA,NA,NA
3460,"10003 COUNTRY CARRIAGE CIRCLE","RIVERVIEW","FL",33569,27.8566995580001,-82.291639371,460,"10003 COUNTRY CARRIAGE CIRCLE, RIVERVIEW, FL, 33569","Match","Exact","10003 COUNTRY CARRIAGE CIR, RIVERVIEW, FL, 33569",104600565,"R"
3461,"10003 CR 34 SUITE 3","DADEVILLE","AL",36853,NA,NA,461,"10003 CR 34 SUITE 3, DADEVILLE, AL, 36853","No_Match",NA,NA,NA,NA
3462,"10003 FOSTER AVE","BRATENAHL","OH",44108,41.5445623470001,-81.6202228499999,462,"10003 FOSTER AVE, BRATENAHL, OH, 44108","Match","Exact","10003 FOSTER AVE, BRATENAHL, OH, 44108",61112297,"L"
3463,"10003 GRAYSTONE DR","UPPER MARLBORO","MD",20772,38.757334057,-76.834741696,463,"10003 GRAYSTONE DR, UPPER MARLBORO, MD, 20772","Match","Exact","10003 GRAYSTONE DR, UPPER MARLBORO, MD, 20772",76351059,"L"
3464,"10003 GREENBELT ROAD APT 303","LANHAM","MD",20706,38.990928098,-76.831842321,464,"10003 GREENBELT ROAD APT 303, LANHAM, MD, 20706","Match","Exact","10003 GREENBELT RD, LANHAM, MD, 20706",76414577,"L"
3465,"10003 LAFORGE LANE","UPPER MARLBORO","MD",20774,38.9007294290001,-76.840380833,465,"10003 LAFORGE LANE, UPPER MARLBORO, MD, 20774","Match","Exact","10003 LAFORGE LN, UPPER MARLBORO, MD, 20774",624710223,"R"
3466,"10003 NE 65TH CIR","VANCOUVER","WA",98662,45.66925387,-122.568949724,466,"10003 NE 65TH CIR, VANCOUVER, WA, 98662","Match","Exact","10003 NE 65TH CIR, VANCOUVER, WA, 98662",158368175,"L"
3467,"10003 VICTOR DRIVE S","OLIVE BRANCH","MS",38654,34.9380288030001,-89.815036015,467,"10003 VICTOR DRIVE S, OLIVE BRANCH, MS, 38654","Match","Exact","10003 VICTOR DR S, OLIVE BRANCH, MS, 38654",91841108,"L"
3468,"10003 WEDGE WAY","MONTGOMERY VILLAGE","MD",20886,39.1768172870001,-77.207940492,468,"10003 WEDGE WAY, MONTGOMERY VILLAGE, MD, 20886","Match","Exact","10003 WEDGE WAY, MONTGOMERY VILLAGE, MD, 20886",62088745,"R"
3469,"10003 WILKINS ROAD","BAHAMA","NC",27503,36.183722018,-78.865172666,469,"10003 WILKINS ROAD, BAHAMA, NC, 27503","Match","Exact","10003 WILKINS RD, BAHAMA, NC, 27503",618109563,"L"
3470,"10004 BLUE STAR HIGHWAY","STONY CREEK","VA",23882,36.986635746,-77.393079431,470,"10004 BLUE STAR HIGHWAY, STONY CREEK, VA, 23882","Match","Exact","10004 BLUE STAR HWY, STONY CREEK, VA, 23882",168084413,"L"
3471,"10004 CORKWOOD AVE","SANTEE","CA",92071,32.8683595090001,-116.9788414,471,"10004 CORKWOOD AVE, SANTEE, CA, 92071","Match","Exact","10004 CORKWOOD AVE, SANTEE, CA, 92071",195327070,"L"
3472,"10004 DURANGO DR","DAMASCUS","MD",20872,39.268161192,-77.207839539,472,"10004 DURANGO DR, DAMASCUS, MD, 20872","Match","Exact","10004 DURANGO DR, DAMASCUS, MD, 20872",62070304,"L"
3473,"10004 LIANA LANE","RALEIGH","NC",27613,35.927872237,-78.739001909,473,"10004 LIANA LANE, RALEIGH, NC, 27613","Match","Exact","10004 LIANA LN, RALEIGH, NC, 27613",72659263,"R"
3474,"10004 NW 112TH ST","MALCOLM","NE",68402,40.917064043,-96.872414173,474,"10004 NW 112TH ST, MALCOLM, NE, 68402","Match","Exact","10004 NW 112TH ST, MALCOLM, NE, 68402",28249433,"L"
3475,"10004 SHARPTOWN RD","MARDELA SPRINGS","MD",21837,38.5366862060001,-75.711406036,475,"10004 SHARPTOWN RD, MARDELA SPRINGS, MD, 21837","Match","Exact","10004 SHARPTOWN RD, MARDELA SPRINGS, MD, 21837",614250852,"L"
3476,"10004 W KINGMAN STREET","TOLLESON","AZ",85353,33.418909591,-112.275186291,476,"10004 W KINGMAN STREET, TOLLESON, AZ, 85353","Match","Exact","10004 W KINGMAN ST, TOLLESON, AZ, 85353",243959093,"L"
3477,"10004 WURZBACH ROAD SUITE 264","SAN ANTONIO","TX",78230,29.532671991,-98.560610536,477,"10004 WURZBACH ROAD SUITE 264, SAN ANTONIO, TX, 78230","Match","Exact","10004 WURZBACH RD, SAN ANTONIO, TX, 78230",645362177,"R"
3478,"10005 ANGORA DRIVE","CHELTENHAM","MD",20623,38.7471090340001,-76.838743614,478,"10005 ANGORA DRIVE, CHELTENHAM, MD, 20623","Match","Exact","10005 ANGORA DR, CHELTENHAM, MD, 20623",76419022,"R"
3479,"10005 FREDERICK RD","ELLICOTT CITY","MD",21042,39.2774717090001,-76.8598667969999,479,"10005 FREDERICK RD, ELLICOTT CITY, MD, 21042","Match","Exact","10005 FREDERICK RD, ELLICOTT CITY, MD, 21042",158948186,"L"
3480,"10005 GREENBELT ROAD APT 103","LANHAM","MD",20706,38.9909282190001,-76.831833764,480,"10005 GREENBELT ROAD APT 103, LANHAM, MD, 20706","Match","Exact","10005 GREENBELT RD, LANHAM, MD, 20706",76414577,"L"
3481,"10005 HWY 75 N","WILLIS","TX",77378,NA,NA,481,"10005 HWY 75 N, WILLIS, TX, 77378","No_Match",NA,NA,NA,NA
3482,"10005 MESSINA POINTE WAY","TAMPA","FL",33619,27.939704669,-82.339153814,482,"10005 MESSINA POINTE WAY, TAMPA, FL, 33619","Match","Exact","10005 MESSINA POINTE WAY, TAMPA, FL, 33619",646567236,"R"
3483,"10005 MOORGATE AVENUE APT 201","SPOTSYLVANIA","VA",22553,38.235750083,-77.5393627349999,483,"10005 MOORGATE AVENUE APT 201, SPOTSYLVANIA, VA, 22553","Match","Exact","10005 MOORGATE AVE, SPOTSYLVANIA, VA, 22553",635287770,"R"
3484,"10005 PINESHADOW DR APT 101","CHARLOTTE","NC",28262,35.324534683,-80.7357954249999,484,"10005 PINESHADOW DR APT 101, CHARLOTTE, NC, 28262","Match","Exact","10005 PINESHADOW DR, CHARLOTTE, NC, 28262",70556082,"L"
3485,"10005 POLO PARK CIRCLE","WACO","TX",76712,31.469309535,-97.217199523,485,"10005 POLO PARK CIRCLE, WACO, TX, 76712","Match","Exact","10005 POLO PARK CIR, WACO, TX, 76712",146765655,"R"
3486,"10005 ROUGH RUN COURT","FAIRFAX STATION","VA",22039,38.7488871800001,-77.291084169,486,"10005 ROUGH RUN COURT, FAIRFAX STATION, VA, 22039","Match","Exact","10005 ROUGH RUN CT, FAIRFAX STATION, VA, 22039",76021646,"R"
3487,"10005 S 69TH EAST AVE","TULSA","OK",74133,NA,NA,487,"10005 S 69TH EAST AVE, TULSA, OK, 74133","No_Match",NA,NA,NA,NA
3488,"10005 S UTICA AVENUE","EVERGREEN PARK","IL",60805,41.7109522150001,-87.697402998,488,"10005 S UTICA AVENUE, EVERGREEN PARK, IL, 60805","Match","Exact","10005 S UTICA AVE, EVERGREEN PARK, IL, 60805",111821870,"L"
3489,"10005 SYRACUSE DR","SMYRNA","TN",37167,35.953398748,-86.479082912,489,"10005 SYRACUSE DR, SMYRNA, TN, 37167","Match","Exact","10005 SYRACUSE DR, SMYRNA, TN, 37167",606774788,"L"
3490,"10005 TIMBERWOOD CIRCLE","LOUISVILLE","KY",40223,38.228590092,-85.569971153,490,"10005 TIMBERWOOD CIRCLE, LOUISVILLE, KY, 40223","Match","Exact","10005 TIMBERWOOD CIR, LOUISVILLE, KY, 40223",96864535,"L"
3491,"10006 CROSS CREEK BLVD NUM 412","TAMPA","FL",33647,28.1420995,-82.333743356,491,"10006 CROSS CREEK BLVD NUM 412, TAMPA, FL, 33647","Match","Exact","10006 CROSS CREEK BLVD, TAMPA, FL, 33647",104627878,"L"
3492,"10006 CROSS CREEK BLVD NUMBER 412","TAMPA","FL",33647,28.1420995,-82.333743356,492,"10006 CROSS CREEK BLVD NUMBER 412, TAMPA, FL, 33647","Match","Exact","10006 CROSS CREEK BLVD, TAMPA, FL, 33647",104627878,"L"
3493,"10006 CROSS CREEK BLVD STE 123","TAMPA","FL",33647,28.1420995,-82.333743356,493,"10006 CROSS CREEK BLVD STE 123, TAMPA, FL, 33647","Match","Exact","10006 CROSS CREEK BLVD, TAMPA, FL, 33647",104627878,"L"
3494,"10006 MYRTLE FIELD LANE","HOUSTON","TX",77044,29.8647032210001,-95.2063554389999,494,"10006 MYRTLE FIELD LANE, HOUSTON, TX, 77044","Match","Exact","10006 MYRTLE FIELD LN, HOUSTON, TX, 77044",624581144,"L"
3495,"10006 SE MILL PLAIN BLVD","VANCOUVER","WA",98664,45.6209778360001,-122.569549626,495,"10006 SE MILL PLAIN BLVD, VANCOUVER, WA, 98664","Match","Non_Exact","10006 SE MILL PLAIN BLVD, VANCOUVER, WA, 98684",158329038,"L"
3496,"10007 ANSONBOROUGH SQUARE","HUNTERSVILLE","NC",28078,35.4102082900001,-80.862138359,496,"10007 ANSONBOROUGH SQUARE, HUNTERSVILLE, NC, 28078","Match","Exact","10007 ANSONBOROUGH SQ, HUNTERSVILLE, NC, 28078",70560381,"L"
3497,"10007 JOHN MARSHALL DR","INDIANAPOLIS","IN",46235,39.822549795,-85.9904367779999,497,"10007 JOHN MARSHALL DR, INDIANAPOLIS, IN, 46235","Match","Exact","10007 JOHN MARSHALL DR, INDIANAPOLIS, IN, 46235",108012807,"R"
3498,"10007 N 11 THE STREET","TAMPA","FL",33612,28.040175811,-82.447933851,498,"10007 N 11 THE STREET, TAMPA, FL, 33612","Match","Non_Exact","10007 N 11TH ST, TAMPA, FL, 33612",104518766,"R"
3499,"10007 N 11TH STREET","TAMPA","FL",33612,28.040175811,-82.447933851,499,"10007 N 11TH STREET, TAMPA, FL, 33612","Match","Exact","10007 N 11TH ST, TAMPA, FL, 33612",104518766,"R"
3500,"10007 RIVER ROAD","HEDGESVILLE","WV",25427,39.620123979,-78.088939243,500,"10007 RIVER ROAD, HEDGESVILLE, WV, 25427","Match","Exact","10007 RIVER RD, HEDGESVILLE, WV, 25427",627088868,"R"
