"ID","Address","City","State","Zip","lat","long","id","input_address","match_indicator","match_type","matched_address","tiger_line_id","tiger_side"
164501,"308 SW 25TH ST","OKLAHOMA CITY","OK",73109,35.439410142,-97.518354674,1,"308 SW 25TH ST, OKLAHOMA CITY, OK, 73109","Match","Exact","308 SW 25TH ST, OKLAHOMA CITY, OK, 73109",100402949,"L"
164502,"308 SW E ST","BENTONVILLE","AR",72712,36.3695574590001,-94.215055846,2,"308 SW E ST, BENTONVILLE, AR, 72712","Match","Exact","308 SW E ST, BENTONVILLE, AR, 72712",47832097,"R"
164503,"308 TEMPRANILLO WAY","LAKEWAY","TX",78738,30.3547493890001,-98.0117944089999,3,"308 TEMPRANILLO WAY, LAKEWAY, TX, 78738","Match","Exact","308 TEMPRANILLO WAY, LAKEWAY, TX, 78738",641936605,"R"
164504,"308 THROOP AVENUE","BROOKLYN","NY",11206,40.6937112250001,-73.943080762,4,"308 THROOP AVENUE, BROOKLYN, NY, 11206","Match","Exact","308 THROOP AVE, BROOKLYN, NY, 11206",59079008,"R"
164505,"308 TIGERS EYE RUN","DUNCAN","SC",29334,34.8948996620001,-82.119853796,5,"308 TIGERS EYE RUN, DUNCAN, SC, 29334","Match","Exact","308 TIGERS EYE RUN, DUNCAN, SC, 29334",648103900,"R"
164506,"308 TIMBERLINE PLACE","BRICK","NJ",8723,40.0412530620001,-74.157602603,6,"308 TIMBERLINE PLACE, BRICK, NJ, 8723","Match","Exact","308 TIMBERLINE PL, BRICK, NJ, 08723",203725340,"R"
164507,"308 TORONTO DRIVE","LAFAYETTE","LA",70507,30.280449979,-92.0133415989999,7,"308 TORONTO DRIVE, LAFAYETTE, LA, 70507","Match","Exact","308 TORONTO DR, LAFAYETTE, LA, 70507",85639816,"R"
164508,"308 TOWNSEND AVENUE","ADAIRVILLE","KY",42202,36.6707542140001,-86.854485919,8,"308 TOWNSEND AVENUE, ADAIRVILLE, KY, 42202","Match","Exact","308 TOWNSEND AVE, ADAIRVILLE, KY, 42202",15834450,"R"
164509,"308 TRAFALGAR LANE","CARY","NC",27513,35.7731087990001,-78.826233687,9,"308 TRAFALGAR LANE, CARY, NC, 27513","Match","Exact","308 TRAFALGAR LN, CARY, NC, 27513",72554804,"R"
164510,"308 TURNER ROAD SUITE J","RICHMOND","VA",23225,37.496751649,-77.536458027,10,"308 TURNER ROAD SUITE J, RICHMOND, VA, 23225","Match","Exact","308 TURNER RD, RICHMOND, VA, 23225",223164823,"R"
164511,"308 VICTORIA DRIVE","NORMAL","IL",61761,40.5148693720001,-88.962888219,11,"308 VICTORIA DRIVE, NORMAL, IL, 61761","Match","Exact","308 VICTORIA DR, NORMAL, IL, 61761",20547167,"R"
164512,"308 W 10TH STREET","SCHUYLER","NE",68661,41.4463829920001,-97.0624331929999,12,"308 W 10TH STREET, SCHUYLER, NE, 68661","Match","Exact","308 W 10TH ST, SCHUYLER, NE, 68661",136036858,"R"
164513,"308 W 12TH ST","FERRIS","TX",75125,32.527843365,-96.6667006709999,13,"308 W 12TH ST, FERRIS, TX, 75125","Match","Exact","308 W 12TH ST, FERRIS, TX, 75125",103451782,"R"
164514,"308 W 3RD ST","CHESTER","PA",19013,39.8444933640001,-75.363723132,14,"308 W 3RD ST, CHESTER, PA, 19013","Match","Exact","308 W 3RD ST, CHESTER, PA, 19013",134881941,"R"
164515,"308 W 46TH ST","NEW YORK","NY",10036,40.75995485,-73.9883241379999,15,"308 W 46TH ST, NEW YORK, NY, 10036","Match","Exact","308 W 46TH ST, NEW YORK, NY, 10036",650078430,"L"
164516,"308 W 8TH ST APT 604","KANSAS CITY","MO",64105,39.104651872,-94.586815842,16,"308 W 8TH ST APT 604, KANSAS CITY, MO, 64105","Match","Non_Exact","308 W 8TH ST, KANSAS CITY, MO, 64105",91444896,"R"
164517,"308 W 8TH ST","GRAND ISLAND","NE",68801,40.9310319630001,-98.346726658,17,"308 W 8TH ST, GRAND ISLAND, NE, 68801","Match","Exact","308 W 8TH ST, GRAND ISLAND, NE, 68801",196250414,"L"
164518,"308 W ATLANTA  AVE","VIVIAN","LA",71082,32.8790945550001,-93.9871390929999,18,"308 W ATLANTA  AVE, VIVIAN, LA, 71082","Match","Exact","308 W ATLANTA AVE, VIVIAN, LA, 71082",634956118,"R"
164519,"308 W AUSTIN ST","BROKEN ARROW","OK",74011,36.0069575640001,-95.7935965839999,19,"308 W AUSTIN ST, BROKEN ARROW, OK, 74011","Match","Exact","308 W AUSTIN ST, BROKEN ARROW, OK, 74011",166465485,"L"
164520,"308 W CHELTEN AVE","PHILADELPHIA","PA",19144,40.0300436570001,-75.1806621429999,20,"308 W CHELTEN AVE, PHILADELPHIA, PA, 19144","Match","Exact","308 W CHELTEN AVE, PHILADELPHIA, PA, 19144",131448307,"L"
164521,"308 W CRESCENT DRIVE","LAKELAND","FL",33805,28.088823522,-81.9592369,21,"308 W CRESCENT DRIVE, LAKELAND, FL, 33805","Match","Exact","308 W CRESCENT DR, LAKELAND, FL, 33805",104807877,"L"
164522,"308 W ELIZABETH ST","CLINTON","NC",28328,34.994605076,-78.325006585,22,"308 W ELIZABETH ST, CLINTON, NC, 28328","Match","Exact","308 W ELIZABETH ST, CLINTON, NC, 28328",14258794,"L"
164523,"308 W JEFFERSON ST","PITTSFIELD","IL",62363,39.609097499,-90.809092805,23,"308 W JEFFERSON ST, PITTSFIELD, IL, 62363","Match","Exact","308 W JEFFERSON ST, PITTSFIELD, IL, 62363",44719661,"L"
164524,"308 W KIBBY ST","LIMA","OH",45804,40.7302048780001,-84.108296834,24,"308 W KIBBY ST, LIMA, OH, 45804","Match","Exact","308 W KIBBY ST, LIMA, OH, 45804",35567274,"R"
164525,"308 W ROBINSON ST","GOODFIELD","IL",61742,NA,NA,25,"308 W ROBINSON ST, GOODFIELD, IL, 61742","Tie",NA,NA,NA,NA
164526,"308 W TIFT AVE","ALBANY","GA",31701,31.584602782,-84.154080914,26,"308 W TIFT AVE, ALBANY, GA, 31701","Match","Exact","308 W TIFT AVE, ALBANY, GA, 31701",84314831,"L"
164527,"308 W WILSON AVE","GLENDALE","CA",91203,34.148034678,-118.258225838,27,"308 W WILSON AVE, GLENDALE, CA, 91203","Match","Exact","308 W WILSON AVE, GLENDALE, CA, 91203",142730563,"L"
164528,"308 WALKER STREET","WINCHESTER","VA",22601,39.192633803,-78.1765744959999,28,"308 WALKER STREET, WINCHESTER, VA, 22601","Match","Exact","308 WALKER ST, WINCHESTER, VA, 22601",55578143,"R"
164529,"308 WEST ANTELOPE DRIVE APT G","LAYTON","UT",84041,41.0892079610001,-111.971505061,29,"308 WEST ANTELOPE DRIVE APT G, LAYTON, UT, 84041","Match","Exact","308 W ANTELOPE DR, LAYTON, UT, 84041",229351229,"L"
164530,"308 WEST GIBBONS STREET","LINDEN","NJ",7036,40.6315816680001,-74.2655358659999,30,"308 WEST GIBBONS STREET, LINDEN, NJ, 7036","Match","Exact","308 W GIBBONS ST, LINDEN, NJ, 07036",60575607,"R"
164531,"308 WEST MAIN ST","MONTPELIER","OH",43543,41.5864628510001,-84.610270667,31,"308 WEST MAIN ST, MONTPELIER, OH, 43543","Match","Exact","308 W MAIN ST, MONTPELIER, OH, 43543",625003909,"R"
164532,"308 WEST MAIN STREET","DURAND","IL",61024,42.436990918,-89.335396671,32,"308 WEST MAIN STREET, DURAND, IL, 61024","Match","Exact","308 W MAIN ST, DURAND, IL, 61024",49245621,"R"
164533,"308 WEST PALMYRA DRIVE","VIRGINIA BEACH","VA",23462,36.8338522930001,-76.1714205339999,33,"308 WEST PALMYRA DRIVE, VIRGINIA BEACH, VA, 23462","Match","Exact","308 W PALMYRA DR, VA BCH, VA, 23462",122262937,"R"
164534,"308 WHITNEY CHASE","STONE MOUNTAIN","GA",30088,33.7316073440001,-84.186441535,34,"308 WHITNEY CHASE, STONE MOUNTAIN, GA, 30088","Match","Exact","308 WHITNEY CHASE, STONE MOUNTAIN, GA, 30088",23413297,"R"
164535,"308 WILLIAMS PLACE","EAST DUNDEE","IL",60118,42.0947909710001,-88.271858493,35,"308 WILLIAMS PLACE, EAST DUNDEE, IL, 60118","Match","Exact","308 WILLIAMS PL, EAST DUNDEE, IL, 60118",119500734,"R"
164536,"308 WILLIAMS ST","WILLIAMSTON","SC",29697,34.6186164580001,-82.4743756839999,36,"308 WILLIAMS ST, WILLIAMSTON, SC, 29697","Match","Exact","308 WILLIAMS ST, WILLIAMSTON, SC, 29697",25460931,"R"
164537,"308 WOLFE STREET","ALEXANDRIA","VA",22314,38.8010980980001,-77.04344972,37,"308 WOLFE STREET, ALEXANDRIA, VA, 22314","Match","Exact","308 WOLFE ST, ALEXANDRIA, VA, 22314",75991634,"L"
164538,"308 WOODFERN COURT","MOUNT JULIET","TN",37122,36.2004408830001,-86.5232917229999,38,"308 WOODFERN COURT, MOUNT JULIET, TN, 37122","Match","Exact","308 WOODFERN CT, MOUNT JULIET, TN, 37122",650982216,"R"
164539,"308 WOODS RD","RUSTON","LA",71270,32.586227174,-92.669009696,39,"308 WOODS RD, RUSTON, LA, 71270","Match","Exact","308 WOODS RD, RUSTON, LA, 71270",635299433,"L"
164540,"308-L POMONA DRIVE","GREENSBORO","NC",27407,36.066466679,-79.863881939,40,"308-L POMONA DRIVE, GREENSBORO, NC, 27407","Match","Exact","308 POMONA DR, GREENSBORO, NC, 27407",131028721,"R"
164541,"3080 DREWERSBURG ROAD","WEST HARRISON","IN",47060,39.3397201440001,-84.837134253,41,"3080 DREWERSBURG ROAD, WEST HARRISON, IN, 47060","Match","Exact","3080 DREWERSBURG RD, WEST HARRISON, IN, 47060",33187502,"R"
164542,"3080 E PICKERING RD","SHELTON","WA",98584,47.254792722,-122.931282495,42,"3080 E PICKERING RD, SHELTON, WA, 98584","Match","Exact","3080 E PICKERING RD, SHELTON, WA, 98584",635520000,"L"
164543,"3080 FISHTRAP","PROSPER","TX",75078,NA,NA,43,"3080 FISHTRAP, PROSPER, TX, 75078","No_Match",NA,NA,NA,NA
164544,"3080 GRASSLAND LANE","KYLE","TX",78640,29.9431202330001,-97.8346493399999,44,"3080 GRASSLAND LANE, KYLE, TX, 78640","Match","Exact","3080 GRASSLAND LN, KYLE, TX, 78640",63845650,"R"
164545,"3080 MAIN HWY","BREAUX BRIDGE","LA",70517,30.31020088,-91.914127523,45,"3080 MAIN HWY, BREAUX BRIDGE, LA, 70517","Match","Exact","3080 MAIN HWY, BREAUX BRIDGE, LA, 70517",85833132,"L"
164546,"3080 MCCALL DR STE 6","ATLANTA","GA",30340,33.8984856370001,-84.257327384,46,"3080 MCCALL DR STE 6, ATLANTA, GA, 30340","Match","Exact","3080 MCCALL DR, ATLANTA, GA, 30340",23360909,"L"
164547,"3080 MOCKINGBIRD WAY","OSHKOSH","WI",54904,44.003253473,-88.6102182,47,"3080 MOCKINGBIRD WAY, OSHKOSH, WI, 54904","Match","Exact","3080 MOCKINGBIRD WAY, OSHKOSH, WI, 54904",74508904,"R"
164548,"3080 N CR 275 W","NORTH VERNON","IN",47265,39.029596821,-85.663218559,48,"3080 N CR 275 W, NORTH VERNON, IN, 47265","Match","Exact","3080 N CO RD 275 W, NORTH VERNON, IN, 47265",30112706,"R"
164549,"3080 NW PARK VIEW LANE","PORTLAND","OR",97229,45.5413547700001,-122.85843566,49,"3080 NW PARK VIEW LANE, PORTLAND, OR, 97229","Match","Exact","3080 NW PARK VIEW LN, PORTLAND, OR, 97229",158182309,"R"
164550,"3080 REUBEN DRIVE","RENO","NV",89502,39.487037543,-119.754373902,50,"3080 REUBEN DRIVE, RENO, NV, 89502","Match","Exact","3080 REUBEN DR, RENO, NV, 89502",107054125,"L"
164551,"3080 S FORT AVE","SPRINGFIELD","MO",65807,37.1582141750001,-93.3098620759999,51,"3080 S FORT AVE, SPRINGFIELD, MO, 65807","Match","Exact","3080 S FORT AVE, SPRINGFIELD, MO, 65807",605894823,"L"
164552,"3080 ST ROSE PKWY 1157","HENDERSON","NV",89052,NA,NA,52,"3080 ST ROSE PKWY 1157, HENDERSON, NV, 89052","No_Match",NA,NA,NA,NA
164553,"3080 WHITNEY AVENUE","MEMPHIS","TN",38128,35.2122568660001,-89.960494121,53,"3080 WHITNEY AVENUE, MEMPHIS, TN, 38128","Match","Exact","3080 WHITNEY AVE, MEMPHIS, TN, 38128",72911487,"L"
164554,"30803 DUNN RD","DENHAM SPRINGS","LA",70726,30.510330778,-90.916652662,54,"30803 DUNN RD, DENHAM SPRINGS, LA, 70726","Match","Exact","30803 DUNN RD, DENHAM SPRINGS, LA, 70726",613468896,"L"
164555,"30806 BOW BRIDGE DR","MURRIETA","CA",92563,33.553620628,-117.122360543,55,"30806 BOW BRIDGE DR, MURRIETA, CA, 92563","Match","Exact","30806 BOW BRIDGE DR, MURRIETA, CA, 92563",608999344,"R"
164556,"30807 UNION CITY BLVD","UNION CITY","CA",94587,37.5975964200001,-122.081343408,56,"30807 UNION CITY BLVD, UNION CITY, CA, 94587","Match","Exact","30807 UNION CITY BLVD, UNION CITY, CA, 94587",640548917,"R"
164557,"3081 COLUMBUS PIKE","DELAWARE","OH",43015,40.2528371170001,-83.060826613,57,"3081 COLUMBUS PIKE, DELAWARE, OH, 43015","Match","Exact","3081 COLUMBUS PIKE, DELAWARE, OH, 43015",24609871,"L"
164558,"3081 COYOTE POINT PLACE","EL PASO","TX",79938,31.786912118,-106.226792877,58,"3081 COYOTE POINT PLACE, EL PASO, TX, 79938","Match","Exact","3081 COYOTE POINT PL, EL PASO, TX, 79938",642023963,"R"
164559,"3081 FOUST DR","SPRING HILL","TN",37174,35.761215733,-86.871606888,59,"3081 FOUST DR, SPRING HILL, TN, 37174","Match","Exact","3081 FOUST DR, SPRING HILL, TN, 37174",643540559,"R"
164560,"3081 N MAIN ST APT 30","WALNUT CREEK","CA",94597,37.9305159560001,-122.060988646,60,"3081 N MAIN ST APT 30, WALNUT CREEK, CA, 94597","Match","Non_Exact","3081 N MAIN ST, WALNUT CREEK, CA, 94597",192055712,"L"
164561,"3081 ROUNDWAY DOWN LN","LEXINGTON","KY",40509,38.0205079200001,-84.405668291,61,"3081 ROUNDWAY DOWN LN, LEXINGTON, KY, 40509","Match","Exact","3081 ROUNDWAY DOWN LN, LEXINGTON, KY, 40509",31954601,"L"
164562,"3081 W OLD ANDREW JOHNSON HWY","STRAWBERRY PLAINS","TN",37871,36.0648283150001,-83.682273287,62,"3081 W OLD ANDREW JOHNSON HWY, STRAWBERRY PLAINS, TN, 37871","Match","Exact","3081 W OLD ANDREW JOHNSON HWY, STRAWBERRY PLAINS, TN, 37871",42563604,"R"
164563,"30812 NEECE RD","MIDDLEPORT","OH",45760,39.015167438,-82.081014087,63,"30812 NEECE RD, MIDDLEPORT, OH, 45760","Match","Exact","30812 NEECE RD, MIDDLEPORT, OH, 45760",101276244,"L"
164564,"30812 SOUTH COAST HIGHWAY","LAGUNA BEACH","CA",92651,33.5139086090001,-117.755211473,64,"30812 SOUTH COAST HIGHWAY, LAGUNA BEACH, CA, 92651","Match","Exact","30812 S COAST HWY, LAGUNA BEACH, CA, 92651",629802923,"L"
164565,"3082 BUTTERFIELD AVENUE","LA VERNE","CA",91750,34.1082761320001,-117.770968733,65,"3082 BUTTERFIELD AVENUE, LA VERNE, CA, 91750","Match","Exact","3082 BUTTERFIELD AVE, LA VERNE, CA, 91750",141727203,"L"
164566,"3082 KIRKWOOD DRIVE","KENNESAW","GA",30144,34.047000466,-84.6420440909999,66,"3082 KIRKWOOD DRIVE, KENNESAW, GA, 30144","Match","Exact","3082 KIRKWOOD DR, KENNESAW, GA, 30144",640538976,"L"
164567,"3082 ROWLAND AVE","OSKALOOSA","IA",52577,41.2072254930001,-92.544927236,67,"3082 ROWLAND AVE, OSKALOOSA, IA, 52577","Match","Exact","3082 ROWLAND AVE, OSKALOOSA, IA, 52577",89381662,"R"
164568,"3082 WINNIPEG ST","MENASHA","WI",54952,44.217641073,-88.363967079,68,"3082 WINNIPEG ST, MENASHA, WI, 54952","Match","Exact","3082 WINNIPEG ST, MENASHA, WI, 54952",624911101,"R"
164569,"30826 PRESTWICK AVE","SORRENTO","FL",32776,28.798544529,-81.5243198109999,69,"30826 PRESTWICK AVE, SORRENTO, FL, 32776","Match","Exact","30826 PRESTWICK AVE, SORRENTO, FL, 32776",94185415,"R"
164570,"30828 W 174TH ST","LAWSON","MO",64062,39.4070861000001,-94.207255108,70,"30828 W 174TH ST, LAWSON, MO, 64062","Match","Exact","30828 W 174TH ST, LAWSON, MO, 64062",649170021,"L"
164571,"3083 BRANDI LANE","BETHEL","OH",45106,38.983472879,-84.03986209,71,"3083 BRANDI LANE, BETHEL, OH, 45106","Match","Exact","3083 BRANDI LN, BETHEL, OH, 45106",118461771,"R"
164572,"3083 COOSA COUNTY RD 150","SYLACAUGA","AL",35150,NA,NA,72,"3083 COOSA COUNTY RD 150, SYLACAUGA, AL, 35150","No_Match",NA,NA,NA,NA
164573,"3083 COVENTRY DR","BAY CITY","MI",48706,43.6293698470001,-83.928708698,73,"3083 COVENTRY DR, BAY CITY, MI, 48706","Match","Exact","3083 COVENTRY DR, BAY CITY, MI, 48706",81147725,"L"
164574,"3083 CRAWFORDVILLE HWY","CRAWFORDVILLE","FL",32327,30.175005212,-84.3750364649999,74,"3083 CRAWFORDVILLE HWY, CRAWFORDVILLE, FL, 32327","Match","Exact","3083 CRAWFORDVILLE HWY, CRAWFORDVILLE, FL, 32327",83041353,"R"
164575,"3083 FRAMINGHAM CIRCLE","COLUMBUS","OH",43224,40.0318329840001,-82.947030535,75,"3083 FRAMINGHAM CIRCLE, COLUMBUS, OH, 43224","Match","Exact","3083 FRAMINGHAM CIR, COLUMBUS, OH, 43224",218693983,"L"
164576,"3083 HERSCHEL AVE APT 304","DALLAS","TX",75219,32.814787702,-96.816330362,76,"3083 HERSCHEL AVE APT 304, DALLAS, TX, 75219","Match","Exact","3083 HERSCHEL AVE, DALLAS, TX, 75219",102908381,"L"
164577,"3083 RASMUS CIRCLE","SAN JOSE","CA",95148,37.3251967950001,-121.780853236,77,"3083 RASMUS CIRCLE, SAN JOSE, CA, 95148","Match","Exact","3083 RASMUS CIR, SAN JOSE, CA, 95148",123174956,"R"
164578,"3083 TRAILS END","AUBREY","TX",76227,33.3013968760001,-97.079840969,78,"3083 TRAILS END, AUBREY, TX, 76227","Match","Non_Exact","3083 TRAIL'S END, AUBREY, TX, 76227",647581565,"R"
164579,"3083 WOOD ROAD","OCONTO","WI",54153,44.8281395550001,-87.912340085,79,"3083 WOOD ROAD, OCONTO, WI, 54153","Match","Exact","3083 WOOD RD, OCONTO, WI, 54153",170314359,"L"
164580,"30830 CALLE JESSICA","THOUSAND PALMS","CA",92276,33.8250267280001,-116.391070647,80,"30830 CALLE JESSICA, THOUSAND PALMS, CA, 92276","Match","Non_Exact","30830 CLL JESSICA, THOUSAND PALMS, CA, 92276",194766293,"L"
164581,"30835 COUNTY ROAD 15","LAS ANIMAS","CO",81054,38.0829761570001,-103.142601234,81,"30835 COUNTY ROAD 15, LAS ANIMAS, CO, 81054","Match","Exact","30835 CO RD 15, LAS ANIMAS, CO, 81054",138187983,"L"
164582,"30835 STONE RIDGE DRIVE APT 5101","WIXOM","MI",48393,NA,NA,82,"30835 STONE RIDGE DRIVE APT 5101, WIXOM, MI, 48393","No_Match",NA,NA,NA,NA
164583,"30838 VINES CREEK RD UNIT 3","DAGSBORO","DE",19939,38.556609902,-75.202716806,83,"30838 VINES CREEK RD UNIT 3, DAGSBORO, DE, 19939","Match","Exact","30838 VINES CREEK RD, DAGSBORO, DE, 19939",106096546,"R"
164584,"30839 SILVER PALM DR","HOMELAND","CA",92548,33.7409675370001,-117.12115467,84,"30839 SILVER PALM DR, HOMELAND, CA, 92548","Match","Exact","30839 SILVER PALM DR, HOMELAND, CA, 92548",194754154,"R"
164585,"3084 BICENTENNIAL PARKWAY","HENDERSON","NV",89044,35.9413341790001,-115.122674493,85,"3084 BICENTENNIAL PARKWAY, HENDERSON, NV, 89044","Match","Exact","3084 BICENTENNIAL PKWY, HENDERSON, NV, 89044",632849679,"R"
164586,"3084 CALAVO DRIVE","SPRING VALLEY","CA",91978,32.7344559050001,-116.963872864,86,"3084 CALAVO DRIVE, SPRING VALLEY, CA, 91978","Match","Exact","3084 CALAVO DR, SPRING VALLEY, CA, 91978",195363234,"R"
164587,"3084 DEES CIR","SEALY","TX",77474,29.778004873,-96.212506288,87,"3084 DEES CIR, SEALY, TX, 77474","Match","Non_Exact","3084 DEE'S CIR, SEALY, TX, 77474",629556602,"L"
164588,"3084 FOREST STREET","DENVER","CO",80207,39.7609137250001,-104.926990554,88,"3084 FOREST STREET, DENVER, CO, 80207","Match","Exact","3084 FOREST ST, DENVER, CO, 80207",177311633,"R"
164589,"3084 RHODODENDRON PLACE","LAKE WYLIE","SC",29710,35.0963428760001,-81.082964937,89,"3084 RHODODENDRON PLACE, LAKE WYLIE, SC, 29710","Match","Exact","3084 RHODODENDRON PL, LAKE WYLIE, SC, 29710",627602120,"R"
164590,"3084 SHORELINE DR","LEWIS CENTER","OH",43035,40.1901948440001,-82.9814251729999,90,"3084 SHORELINE DR, LEWIS CENTER, OH, 43035","Match","Exact","3084 SHORELINE DR, LEWIS CENTER, OH, 43035",649568142,"L"
164591,"3084 SOUTHCREEK DRIVE","LINCOLN","CA",95648,38.8433925840001,-121.269309915,91,"3084 SOUTHCREEK DRIVE, LINCOLN, CA, 95648","Match","Exact","3084 SOUTHCREEK DR, LINCOLN, CA, 95648",634290872,"R"
164592,"3084 STOUT ROAD","LUCAS","OH",44843,40.674373512,-82.397018142,92,"3084 STOUT ROAD, LUCAS, OH, 44843","Match","Exact","3084 STOUT RD, LUCAS, OH, 44843",207207974,"L"
164593,"30844 WESTRIDGE TERRACE","SORRENTO","FL",32776,28.798741851,-81.5644151499999,93,"30844 WESTRIDGE TERRACE, SORRENTO, FL, 32776","Match","Exact","30844 WESTRIDGE TER, SORRENTO, FL, 32776",94151075,"R"
164594,"3085 ARTHUR COURT","SANTA CLARA","CA",95051,37.3262700990001,-121.982409737,94,"3085 ARTHUR COURT, SANTA CLARA, CA, 95051","Match","Exact","3085 ARTHUR CT, SANTA CLARA, CA, 95051",122899264,"R"
164595,"3085 BUTLER RIDGE ROAD","DELTONA","FL",32738,28.8589037780001,-81.1789874409999,95,"3085 BUTLER RIDGE ROAD, DELTONA, FL, 32738","Match","Exact","3085 BUTLER RIDGE RD, DELTONA, FL, 32738",94600687,"L"
164596,"3085 E WALTON BLVD","AUBURN HILLS","MI",48326,42.6788537580001,-83.228738977,96,"3085 E WALTON BLVD, AUBURN HILLS, MI, 48326","Match","Exact","3085 E WALTON BLVD, AUBURN HILLS, MI, 48326",69708817,"L"
164597,"3085 ECLIPSE RIDGE LANE","LAS CRUCES","NM",88011,32.3477598310001,-106.746742467,97,"3085 ECLIPSE RIDGE LANE, LAS CRUCES, NM, 88011","Match","Exact","3085 ECLIPSE RIDGE LN, LAS CRUCES, NM, 88011",189574546,"R"
164598,"3085 EL PORVENIR WAY","SAN YSIDRO","CA",92173,32.562849902,-117.065325494,98,"3085 EL PORVENIR WAY, SAN YSIDRO, CA, 92173","Match","Exact","3085 EL PORVENIR WAY, SAN YSIDRO, CA, 92173",195364942,"R"
164599,"3085 ENGLISH OAK CIRCLE","STOCKTON","CA",95209,38.047165217,-121.351379153,99,"3085 ENGLISH OAK CIRCLE, STOCKTON, CA, 95209","Match","Exact","3085 ENGLISH OAK CIR, STOCKTON, CA, 95209",636410192,"R"
164600,"3085 GREENVIEW DR","CASTRO VALLEY","CA",94546,37.6912369510001,-122.064764521,100,"3085 GREENVIEW DR, CASTRO VALLEY, CA, 94546","Match","Exact","3085 GREENVIEW DR, CASTRO VALLEY, CA, 94546",125050225,"R"
164601,"3085 INGRAHAM STREET - UNIT 308","SAN DIEGO","CA",92109,32.7745148760001,-117.235135837,101,"3085 INGRAHAM STREET - UNIT 308, SAN DIEGO, CA, 92109","Match","Exact","3085 INGRAHAM ST, SAN DIEGO, CA, 92109",195303491,"R"
164602,"3085 KNOX MCRAE DRIVE","TITUSVILLE","FL",32780,28.580465518,-80.842695681,102,"3085 KNOX MCRAE DRIVE, TITUSVILLE, FL, 32780","Match","Exact","3085 KNOX MCRAE DR, TITUSVILLE, FL, 32780",93920938,"R"
164603,"3085 LISMORE CT","SANTA ROSA","CA",95135,37.3062045080001,-121.769716767,103,"3085 LISMORE CT, SANTA ROSA, CA, 95135","Match","Non_Exact","3085 LISMORE CT, SAN JOSE, CA, 95135",122918622,"L"
164604,"3085 PINE ALLEE COVE","MEMPHIS","TN",38115,35.064867201,-89.86064361,104,"3085 PINE ALLEE COVE, MEMPHIS, TN, 38115","Match","Exact","3085 PINE ALLEE COVE, MEMPHIS, TN, 38115",72928695,"R"
164605,"3085 POWELL ST","EUGENE","OR",97405,44.022368799,-123.112886865,105,"3085 POWELL ST, EUGENE, OR, 97405","Match","Exact","3085 POWELL ST, EUGENE, OR, 97405",178168662,"L"
164606,"3085 S HOBART WAY","DENVER","CO",80227,39.6569938640001,-105.060929565,106,"3085 S HOBART WAY, DENVER, CO, 80227","Match","Exact","3085 S HOBART WAY, DENVER, CO, 80227",177328651,"R"
164607,"3085 SOUTH JONES BLVD SUITE B","LAS VEGAS","NV",89146,36.133273015,-115.225043363,107,"3085 SOUTH JONES BLVD SUITE B, LAS VEGAS, NV, 89146","Match","Exact","3085 S JONES BLVD, LAS VEGAS, NV, 89146",201862803,"R"
164608,"3085 SOUTHFIELD DRIVE","COLUMBUS","OH",43207,39.9019019310001,-82.96156701,108,"3085 SOUTHFIELD DRIVE, COLUMBUS, OH, 43207","Match","Exact","3085 SOUTHFIELD DR, COLUMBUS, OH, 43207",218675339,"R"
164609,"3085 WEST 116TH STREET","CARMEL","IN",46032,39.955589053,-86.2137098109999,109,"3085 WEST 116TH STREET, CARMEL, IN, 46032","Match","Exact","3085 W 116TH ST, CARMEL, IN, 46032",29326843,"R"
164610,"30850 MURRIETA ROAD","MENIFEE","CA",92584,33.6738030180001,-117.20605056,110,"30850 MURRIETA ROAD, MENIFEE, CA, 92584","Match","Exact","30850 MURRIETA RD, MENIFEE, CA, 92584",194866548,"R"
164611,"30850 TELEGRAPH RD STE 250","BINGHAM FARMS","MI",48025,NA,NA,111,"30850 TELEGRAPH RD STE 250, BINGHAM FARMS, MI, 48025","No_Match",NA,NA,NA,NA
164612,"3086 ABERDEEN CT","MARIETTA","GA",30062,34.0292963640001,-84.461573357,112,"3086 ABERDEEN CT, MARIETTA, GA, 30062","Match","Exact","3086 ABERDEEN CT, MARIETTA, GA, 30062",17220907,"L"
164613,"3086 BAKER AVE","WELLFLEET","MA",2667,41.933822395,-70.0405729939999,113,"3086 BAKER AVE, WELLFLEET, MA, 2667","Match","Exact","3086 BAKER AVE, WELLFLEET, MA, 02667",121621235,"L"
164614,"3086 BRAY RD","VIRGINIA BEACH","VA",23452,36.858217622,-76.071779164,114,"3086 BRAY RD, VIRGINIA BEACH, VA, 23452","Match","Exact","3086 BRAY RD, VA BCH, VA, 23452",122297289,"R"
164615,"3086 FARMALL STREET","BOZEMAN","MT",59718,45.6893326970001,-111.078954469,115,"3086 FARMALL STREET, BOZEMAN, MT, 59718","Match","Exact","3086 FARMALL ST, BOZEMAN, MT, 59718",615080575,"L"
164616,"3086 HIGHWAY 26","DERIDDER","LA",70634,30.8029446150001,-93.151591025,116,"3086 HIGHWAY 26, DERIDDER, LA, 70634","Match","Non_Exact","3086 STATE RTE 26, DERIDDER, LA, 70634",88378835,"R"
164617,"3086 N FM 373","MUENSTER","TX",76252,33.698365445,-97.387061686,117,"3086 N FM 373, MUENSTER, TX, 76252","Match","Exact","3086 FM 373, MUENSTER, TX, 76252",151328273,"L"
164618,"3086 PERRIWINKLE CIRCLE","DAVIE","FL",33328,26.083121982,-80.2672152599999,118,"3086 PERRIWINKLE CIRCLE, DAVIE, FL, 33328","Match","Exact","3086 PERRIWINKLE CIR, DAVIE, FL, 33328",636368571,"L"
164619,"3086 PROCIOUS MAYSEL RD","MAYSEL","WV",25133,38.486148568,-81.134452219,119,"3086 PROCIOUS MAYSEL RD, MAYSEL, WV, 25133","Match","Exact","3086 PROCIOUS MAYSEL RD, MAYSEL, WV, 25133",49965793,"R"
164620,"3086 STONEBRIDGE DRIVE","STATE COLLEGE","PA",16801,40.7667756010001,-77.872467604,120,"3086 STONEBRIDGE DRIVE, STATE COLLEGE, PA, 16801","Match","Exact","3086 STONEBRIDGE DR, STATE COLLEGE, PA, 16801",636402620,"R"
164621,"30860 COUNTY 37","LAPORTE","MN",56461,47.1564752670001,-94.72067516,121,"30860 COUNTY 37, LAPORTE, MN, 56461","Match","Exact","30860 COUNTY 37, LAPORTE, MN, 56461",168167432,"L"
164622,"30865 KELMIN TERRACE","WESLEY CHAPEL","FL",33543,28.2245535920001,-82.306079515,122,"30865 KELMIN TERRACE, WESLEY CHAPEL, FL, 33543","Match","Exact","30865 KELMIN TER, WESLEY CHAPEL, FL, 33543",650059049,"L"
164623,"3087 COUNTY ROAD 331","CHEROKEE","TX",76832,30.9503288120001,-98.7350522849999,123,"3087 COUNTY ROAD 331, CHEROKEE, TX, 76832","Match","Exact","3087 CO RD 331, CHEROKEE, TX, 76832",183605768,"R"
164624,"3087 DIAMOND HEAD DRIVE E","CLEARWATER","FL",33761,28.0169122410001,-82.713924334,124,"3087 DIAMOND HEAD DRIVE E, CLEARWATER, FL, 33761","Match","Exact","3087 DIAMOND HEAD DR E, CLEARWATER, FL, 33761",124681735,"R"
164625,"3087 GLAZIER WAY","ANN ARBOR","MI",48105,42.2880633190001,-83.70099791,125,"3087 GLAZIER WAY, ANN ARBOR, MI, 48105","Match","Exact","3087 GLAZIER WAY, ANN ARBOR, MI, 48105",26016169,"L"
164626,"3087 N 2250 E","LAYTON","UT",84040,41.107011119,-111.922603737,126,"3087 N 2250 E, LAYTON, UT, 84040","Match","Exact","3087 N 2250 E, LAYTON, UT, 84040",229352070,"R"
164627,"3087 N COUNTY ROAD 53","MAYO","FL",32066,NA,NA,127,"3087 N COUNTY ROAD 53, MAYO, FL, 32066","No_Match",NA,NA,NA,NA
164628,"3087 SW CIRCLE STREET","PORT SAINT LUCIE","FL",34953,27.2515194710001,-80.391010115,128,"3087 SW CIRCLE STREET, PORT SAINT LUCIE, FL, 34953","Match","Exact","3087 SW CIRCLE ST, PORT ST LUCIE, FL, 34953",120138621,"R"
164629,"3087 WASHINGTON ROAD APT 4","EAST POINT","GA",30344,33.6714152980001,-84.4605714639999,129,"3087 WASHINGTON ROAD APT 4, EAST POINT, GA, 30344","Match","Exact","3087 WASHINGTON RD, EAST POINT, GA, 30344",17347325,"R"
164630,"3087 WESTWOOD ROAD","AUGUSTA","GA",30909,NA,NA,130,"3087 WESTWOOD ROAD, AUGUSTA, GA, 30909","Tie",NA,NA,NA,NA
164631,"30871 PASEO EL MARMOL","SAN JUAN CAPISTRANO","CA",92675,33.5140902420001,-117.666865848,131,"30871 PASEO EL MARMOL, SAN JUAN CAPISTRANO, CA, 92675","Match","Non_Exact","30871 PSO EL MARMOL, SAN JUAN CAPISTRANO, CA, 92675",144402748,"R"
164632,"30871 SAWGRASS LANE","WESTLAKE","OH",44145,41.443344247,-81.963352227,132,"30871 SAWGRASS LANE, WESTLAKE, OH, 44145","Match","Exact","30871 SAWGRASS LN, WESTLAKE, OH, 44145",638297458,"R"
164633,"3088 FLORA ROAD","BELVIDERE","IL",61008,42.1986149260001,-88.8417923539999,133,"3088 FLORA ROAD, BELVIDERE, IL, 61008","Match","Exact","3088 FLORA RD, BELVIDERE, IL, 61008",92165283,"L"
164634,"3088 FUJI ISLAND STREET","WEST SACRAMENTO","CA",95691,38.5414885480001,-121.575536685,134,"3088 FUJI ISLAND STREET, WEST SACRAMENTO, CA, 95691","Match","Non_Exact","3088 FIJI ISLAND ST, WEST SACRAMENTO, CA, 95691",604975050,"L"
164635,"3088 LAWTON","DETROIT","MI",48216,42.3354024990001,-83.087619956,135,"3088 LAWTON, DETROIT, MI, 48216","Match","Non_Exact","3088 LAWTON ST, DETROIT, MI, 48216",95714770,"R"
164636,"3088 MARTIN AVE","OMAHA","NE",68112,41.3233061700001,-95.960584169,136,"3088 MARTIN AVE, OMAHA, NE, 68112","Match","Exact","3088 MARTIN AVE, OMAHA, NE, 68112",116977527,"R"
164637,"3088 NEWCASTLE RD","MARION","IA",52302,42.0524595210001,-91.622496935,137,"3088 NEWCASTLE RD, MARION, IA, 52302","Match","Exact","3088 NEWCASTLE RD, MARION, IA, 52302",17043385,"L"
164638,"3088 S OLD CLIFTY ROAD","BLOOMFIELD","IN",47424,NA,NA,138,"3088 S OLD CLIFTY ROAD, BLOOMFIELD, IN, 47424","No_Match",NA,NA,NA,NA
164639,"3088 SPRING HILL PARKWAY SE UNIT C","SMYRNA","GA",30080,33.878845992,-84.474058441,139,"3088 SPRING HILL PARKWAY SE UNIT C, SMYRNA, GA, 30080","Match","Exact","3088 SPRING HILL PKWY SE, SMYRNA, GA, 30080",648389407,"R"
164640,"3088 SW FAIRMOUNT BLVD","PORTLAND","OR",97239,45.4882602340001,-122.693781262,140,"3088 SW FAIRMOUNT BLVD, PORTLAND, OR, 97239","Match","Exact","3088 SW FAIRMOUNT BLVD, PORTLAND, OR, 97239",157603951,"L"
164641,"3088 WEST 1750 SOUTH","VERNAL","UT",84078,40.4292389710001,-109.587529364,141,"3088 WEST 1750 SOUTH, VERNAL, UT, 84078","Match","Exact","3088 W 1750 S, VERNAL, UT, 84078",126143669,"R"
164642,"30882 HWY NN","BLACKBURN","MO",65321,NA,NA,142,"30882 HWY NN, BLACKBURN, MO, 65321","No_Match",NA,NA,NA,NA
164643,"30885 PARMA RD","PARMA","ID",83660,43.8208814720001,-116.934116106,143,"30885 PARMA RD, PARMA, ID, 83660","Match","Exact","30885 PARMA RD, PARMA, ID, 83660",122775115,"L"
164644,"3089 BECKET ROAD","CLEVELAND","OH",44120,41.475093455,-81.586569292,144,"3089 BECKET ROAD, CLEVELAND, OH, 44120","Match","Exact","3089 BECKET RD, CLEVELAND, OH, 44120",61163558,"L"
164645,"3089 COUNTY ROAD 37 NW","MAPLE LAKE","MN",55358,45.2460741790001,-93.954588074,145,"3089 COUNTY ROAD 37 NW, MAPLE LAKE, MN, 55358","Match","Exact","3089 CO RD 37 NW, MAPLE LAKE, MN, 55358",43988994,"R"
164646,"3089 GREENLAKE DR","DECATUR","IL",62521,39.8105757220001,-88.9061678739999,146,"3089 GREENLAKE DR, DECATUR, IL, 62521","Match","Exact","3089 GREENLAKE DR, DECATUR, IL, 62521",20750116,"R"
164647,"3089 HULL ST","RICHMOND","VA",23224,37.5085594540001,-77.4635255869999,147,"3089 HULL ST, RICHMOND, VA, 23224","Match","Exact","3089 HULL ST, RICHMOND, VA, 23224",201541557,"R"
164648,"3089 PUHALA RISE","HONOLULU","HI",96822,21.3112592140001,-157.801029224,148,"3089 PUHALA RISE, HONOLULU, HI, 96822","Match","Exact","3089 PUHALA RISE, HONOLULU, HI, 96822",203238186,"R"
164649,"3089 WOODSTONE DRIVE","LEWIS CENTER","OH",43035,40.1806234380001,-82.9795715979999,149,"3089 WOODSTONE DRIVE, LEWIS CENTER, OH, 43035","Match","Exact","3089 WOODSTONE DR, LEWIS CENTER, OH, 43035",648611090,"L"
164650,"30890 LYNDON ST","LIVONIA","MI",48154,42.390568042,-83.347828067,150,"30890 LYNDON ST, LIVONIA, MI, 48154","Match","Exact","30890 LYNDON ST, LIVONIA, MI, 48154",95426290,"R"
164651,"30893 BLANTON RD","EUGENE","OR",97405,44.0096401660001,-123.132825458,151,"30893 BLANTON RD, EUGENE, OR, 97405","Match","Exact","30893 BLANTON RD, EUGENE, OR, 97405",178206940,"L"
164652,"30895 CREPE MYRTLE DRIVE UNIT 66","MILLSBORO","DE",19966,38.595724251,-75.2121987039999,152,"30895 CREPE MYRTLE DRIVE UNIT 66, MILLSBORO, DE, 19966","Match","Exact","30895 CREPE MYRTLE DR, MILLSBORO, DE, 19966",106116096,"R"
164653,"30896 HUNTSMAN DR E","FARMINGTON HILLS","MI",48331,42.522864912,-83.4006641239999,153,"30896 HUNTSMAN DR E, FARMINGTON HILLS, MI, 48331","Match","Exact","30896 HUNTSMAN DR E, FARMINGTON HILLS, MI, 48331",69761676,"L"
164654,"309  D CHAVARRIA RD","EAGLE PASS","TX",78852,NA,NA,154,"309  D CHAVARRIA RD, EAGLE PASS, TX, 78852","No_Match",NA,NA,NA,NA
164655,"309 1/2 4TH AVENUE SW","CAMBRIDGE","MN",55008,45.5695794740001,-93.2268535009999,155,"309 1/2 4TH AVENUE SW, CAMBRIDGE, MN, 55008","Match","Exact","309 4TH AVE SW, CAMBRIDGE, MN, 55008",234898102,"L"
164656,"309 10TH ST NE","WASHINGTON","DC",20002,38.8937559570001,-76.992636671,156,"309 10TH ST NE, WASHINGTON, DC, 20002","Match","Exact","309 10TH ST NE, WASHINGTON, DC, 20002",76229997,"R"
164657,"309 10TH STREET S APT 304","ARLINGTON","VA",22202,38.8633823860001,-77.0493221529999,157,"309 10TH STREET S APT 304, ARLINGTON, VA, 22202","Match","Exact","309 10TH ST S, ARLINGTON, VA, 22202",76472449,"L"
164658,"309 111TH STREET OCEAN","MARATHON","FL",33050,24.728232174,-81.035671543,158,"309 111TH STREET OCEAN, MARATHON, FL, 33050","Match","Exact","309 111TH STREET OCEAN, MARATHON, FL, 33050",116492431,"R"
164659,"309 11TH STREET  D4","UNION CITY","NJ",7087,NA,NA,159,"309 11TH STREET  D4, UNION CITY, NJ, 7087","Tie",NA,NA,NA,NA
164660,"309 37TH AVE NE","GREAT FALLS","MT",59404,47.5394813730001,-111.308210901,160,"309 37TH AVE NE, GREAT FALLS, MT, 59404","Match","Exact","309 37TH AVE NE, GREAT FALLS, MT, 59404",202247519,"R"
164661,"309 3RD AVENUE","HAMPTON","IL",61256,41.5522892500001,-90.413164958,161,"309 3RD AVENUE, HAMPTON, IL, 61256","Match","Exact","309 3RD AVE, HAMPTON, IL, 61256",9217069,"L"
164662,"309 5TH STREET","ELLWOOD CITY","PA",16117,40.858439543,-80.287245314,162,"309 5TH STREET, ELLWOOD CITY, PA, 16117","Match","Exact","309 5TH ST, ELLWOOD CITY, PA, 16117",65182746,"L"
164663,"309 5TH STREET","WARETOWN","NJ",8758,39.772291512,-74.204252831,163,"309 5TH STREET, WARETOWN, NJ, 8758","Match","Exact","309 5TH ST, WARETOWN, NJ, 08758",203701050,"L"
164664,"309 A MONTEREY ROAD","RICHLAND","MS",39218,32.2066638220001,-90.141601381,164,"309 A MONTEREY ROAD, RICHLAND, MS, 39218","Match","Exact","309 MONTEREY RD, RICHLAND, MS, 39218",635884891,"R"
164665,"309 ALEXANDER AVENUE","BRONX","NY",10454,40.81161709,-73.924001346,165,"309 ALEXANDER AVENUE, BRONX, NY, 10454","Match","Exact","309 ALEXANDER AVE, BRONX, NY, 10454",80300389,"L"
164666,"309 ALLEN ST","CLINTON","WI",53525,42.5558070050001,-88.862662045,166,"309 ALLEN ST, CLINTON, WI, 53525","Match","Exact","309 ALLEN ST, CLINTON, WI, 53525",49851000,"R"
164667,"309 ALWOODLEY CT","ROSEVILLE","CA",95678,38.7711239400001,-121.282603942,167,"309 ALWOODLEY CT, ROSEVILLE, CA, 95678","Match","Exact","309 ALWOODLEY CT, ROSEVILLE, CA, 95678",106809543,"L"
164668,"309 AMARILLO STREET","DENTON","TX",76201,33.2164136580001,-97.142360815,168,"309 AMARILLO STREET, DENTON, TX, 76201","Match","Exact","309 AMARILLO ST, DENTON, TX, 76201",103338691,"L"
164669,"309 ANGELETTA WAY","LOUISVILLE","KY",40214,38.1335132030001,-85.771124573,169,"309 ANGELETTA WAY, LOUISVILLE, KY, 40214","Match","Exact","309 ANGELETTA WAY, LOUISVILLE, KY, 40214",96849716,"R"
164670,"309 ANGUS BLVD","WARNER ROBINS","GA",31088,32.5885232300001,-83.645358313,170,"309 ANGUS BLVD, WARNER ROBINS, GA, 31088","Match","Exact","309 ANGUS BLVD, WARNER ROBINS, GA, 31088",91258982,"R"
164671,"309 ARDENWOOD DR","LAFAYETTE","LA",70508,30.1433228400001,-92.070094276,171,"309 ARDENWOOD DR, LAFAYETTE, LA, 70508","Match","Exact","309 ARDENWOOD DR, LAFAYETTE, LA, 70508",643091326,"L"
164672,"309 ARMORY STREET","GREENSBORO","AL",36744,32.694749088,-87.585240369,172,"309 ARMORY STREET, GREENSBORO, AL, 36744","Match","Exact","309 ARMORY ST, GREENSBORO, AL, 36744",640318212,"R"
164673,"309 ARMY BLVD","SAN ANTONIO","TX",78215,29.4493795240001,-98.47200051,173,"309 ARMY BLVD, SAN ANTONIO, TX, 78215","Match","Exact","309 ARMY BLVD, SAN ANTONIO, TX, 78215",101525035,"L"
164674,"309 ASHBURY SQUARE","MEBANE","NC",27302,36.0942096810001,-79.247246494,174,"309 ASHBURY SQUARE, MEBANE, NC, 27302","Match","Exact","309 ASHBURY SQ, MEBANE, NC, 27302",638671922,"L"
164675,"309 ASHMORE DRIVE","CARL JUNCTION","MO",64834,37.1744017680001,-94.552525913,175,"309 ASHMORE DRIVE, CARL JUNCTION, MO, 64834","Match","Non_Exact","309 ASHMORE ST, CARL JUNCTION, MO, 64834",66165384,"L"
164676,"309 AVALON DRIVE","ASHLAND","OR",97520,42.243661751,-122.731040786,176,"309 AVALON DRIVE, ASHLAND, OR, 97520","Match","Exact","309 AVALON DR, ASHLAND, OR, 97520",155522605,"L"
164677,"309 AVENUE C APT 8B","NEW YORK","NY",10009,40.7306995370001,-73.9741764299999,177,"309 AVENUE C APT 8B, NEW YORK, NY, 10009","Match","Exact","309 AVE C, NEW YORK, NY, 10009",59654656,"L"
164678,"309 BAFFLE CT","SWANSBORO","NC",28584,34.6898348080001,-77.1505495489999,178,"309 BAFFLE CT, SWANSBORO, NC, 28584","Match","Exact","309 BAFFLE CT, SWANSBORO, NC, 28584",648085057,"L"
164679,"309 BANYON TREE LANE","CARY","NC",27513,35.809061087,-78.799153396,179,"309 BANYON TREE LANE, CARY, NC, 27513","Match","Exact","309 BANYON TREE LN, CARY, NC, 27513",72588659,"R"
164680,"309 BAY DRIVE","STEVENSVILLE","MD",21666,38.934067005,-76.3617348889999,180,"309 BAY DRIVE, STEVENSVILLE, MD, 21666","Match","Exact","309 BAY DR, STEVENSVILLE, MD, 21666",68051905,"R"
164681,"309 BELMONT COURT","MULLICA HILL","NJ",8062,39.722370013,-75.245455597,181,"309 BELMONT COURT, MULLICA HILL, NJ, 8062","Match","Exact","309 BELMONT CT, MULLICA HILL, NJ, 08062",614107132,"L"
164682,"309 BENTON STREET","PORT TOWNSEND","WA",98368,48.112532636,-122.764689949,182,"309 BENTON STREET, PORT TOWNSEND, WA, 98368","Match","Exact","309 BENTON ST, PORT TOWNSEND, WA, 98368",151991956,"L"
164683,"309 BLOOM PLACE","PRESCOTT","AZ",86303,34.54245331,-112.450750215,183,"309 BLOOM PLACE, PRESCOTT, AZ, 86303","Match","Exact","309 BLOOM PL, PRESCOTT, AZ, 86303",159506993,"R"
164684,"309 BLOOMFIELD AVENUE STE 2","CALDWELL","NJ",7006,40.839458972,-74.275667574,184,"309 BLOOMFIELD AVENUE STE 2, CALDWELL, NJ, 7006","Match","Exact","309 BLOOMFIELD AVE, CALDWELL, NJ, 07006",63459313,"R"
164685,"309 BLOOMFIELD AVENUE SUITE 2","CALDWELL","NJ",7006,40.839458972,-74.275667574,185,"309 BLOOMFIELD AVENUE SUITE 2, CALDWELL, NJ, 7006","Match","Exact","309 BLOOMFIELD AVE, CALDWELL, NJ, 07006",63459313,"R"
164686,"309 BLUFF AVE","LA GRANGE","IL",60525,41.8086877980001,-87.862278895,186,"309 BLUFF AVE, LA GRANGE, IL, 60525","Match","Exact","309 BLUFF AVE, LA GRANGE, IL, 60525",111790404,"L"
164687,"309 BLUFF ST","WINNEBAGO","NE",68071,42.2375000860001,-96.472369511,187,"309 BLUFF ST, WINNEBAGO, NE, 68071","Match","Exact","309 BLUFF ST, WINNEBAGO, NE, 68071",193826474,"L"
164688,"309 BONNEWITZ AVE","VAN WERT","OH",45891,40.8807866880001,-84.58700003,188,"309 BONNEWITZ AVE, VAN WERT, OH, 45891","Match","Exact","309 BONNEWITZ AVE, VAN WERT, OH, 45891",639141965,"L"
164689,"309 BORDEAUX LANE","CARY","NC",27511,35.746984657,-78.807166196,189,"309 BORDEAUX LANE, CARY, NC, 27511","Match","Exact","309 BORDEAUX LN, CARY, NC, 27511",72559258,"R"
164690,"309 BOTANY ROAD","GREENVILLE","SC",29615,34.8871494730001,-82.337951599,190,"309 BOTANY ROAD, GREENVILLE, SC, 29615","Match","Exact","309 BOTANY RD, GREENVILLE, SC, 29615",38302800,"L"
164691,"309 BRENTWOOD AVENUE","TRUSSVILLE","AL",35173,33.62925633,-86.613545029,191,"309 BRENTWOOD AVENUE, TRUSSVILLE, AL, 35173","Match","Exact","309 BRENTWOOD AVE, TRUSSVILLE, AL, 35173",81612025,"L"
164692,"309 BROADMOOR DRIVE","NASHVILLE","TN",37216,36.2305358740001,-86.74579808,192,"309 BROADMOOR DRIVE, NASHVILLE, TN, 37216","Match","Exact","309 BROADMOOR DR, NASHVILLE, TN, 37216",617927682,"R"
164693,"309 BROOKWOOD DR","DUBLIN","GA",31021,32.5555379780001,-82.944180413,193,"309 BROOKWOOD DR, DUBLIN, GA, 31021","Match","Exact","309 BROOKWOOD DR, DUBLIN, GA, 31021",100651907,"R"
164694,"309 BRUSHWOOD DR","OWINGS MILLS","MD",21117,39.4411529240001,-76.787892132,194,"309 BRUSHWOOD DR, OWINGS MILLS, MD, 21117","Match","Exact","309 BRUSHWOOD DR, OWINGS MILLS, MD, 21117",648390444,"R"
164695,"309 BUCKNER CLARK ROAD","PITTSBORO","NC",27312,35.737393651,-79.2889360619999,195,"309 BUCKNER CLARK ROAD, PITTSBORO, NC, 27312","Match","Exact","309 BUCKNER CLARK RD, PITTSBORO, NC, 27312",71379542,"L"
164696,"309 CAMPBELL AVE","ROANOKE","VA",24016,37.2715296550001,-79.945918459,196,"309 CAMPBELL AVE, ROANOKE, VA, 24016","Match","Non_Exact","309 CAMPBELL AVE SW, ROANOKE, VA, 24016",638935800,"R"
164697,"309 CAPITOL ST","FORT GIBSON","OK",74434,35.796289755,-95.239228582,197,"309 CAPITOL ST, FORT GIBSON, OK, 74434","Match","Exact","309 CAPITOL ST, FORT GIBSON, OK, 74434",91930466,"L"
164698,"309 CARAWAY DRIVE","BEAR","DE",19701,39.634975409,-75.671416662,198,"309 CARAWAY DRIVE, BEAR, DE, 19701","Match","Exact","309 CARAWAY DR, BEAR, DE, 19701",605776572,"L"
164699,"309 CEDAR CT","WINLOCK","WA",98596,46.491133674,-122.926358286,199,"309 CEDAR CT, WINLOCK, WA, 98596","Match","Exact","309 CEDAR CT, WINLOCK, WA, 98596",180752971,"R"
164700,"309 CENTRAL HEIGHTS DR","CONCORD","NC",28025,35.351568936,-80.573990382,200,"309 CENTRAL HEIGHTS DR, CONCORD, NC, 28025","Match","Exact","309 CENTRAL HEIGHTS DR, CONCORD, NC, 28025",24900916,"L"
164701,"309 CHERRY LANE","MANTECA","CA",95337,37.8014814580001,-121.231013687,201,"309 CHERRY LANE, MANTECA, CA, 95337","Match","Exact","309 CHERRY LN, MANTECA, CA, 95337",133858294,"L"
164702,"309 CHERRY WAY","BOWLING GREEN","KY",42101,36.98960379,-86.459979327,202,"309 CHERRY WAY, BOWLING GREEN, KY, 42101","Match","Exact","309 CHERRY WAY, BOWLING GREEN, KY, 42101",28035247,"L"
164703,"309 CHURCH STREET APT 107","NASHVILLE","TN",37201,36.1641877210001,-86.777815187,203,"309 CHURCH STREET APT 107, NASHVILLE, TN, 37201","Match","Exact","309 CHURCH ST, NASHVILLE, TN, 37201",97224971,"L"
164704,"309 CHURCH STREET","BETHEL PARK","PA",15102,40.33631324,-80.0451486979999,204,"309 CHURCH STREET, BETHEL PARK, PA, 15102","Match","Non_Exact","309 CHURCH RD, BETHEL PARK, PA, 15102",51657131,"L"
164705,"309 CINDY DRIVE","BUFFALO","NY",14221,42.9903136470001,-78.7862721829999,205,"309 CINDY DRIVE, BUFFALO, NY, 14221","Match","Exact","309 CINDY DR, BUFFALO, NY, 14221",48297919,"R"
164706,"309 CLAIBORNE WAY","MONROE","GA",30655,33.7643829240001,-83.7379564949999,206,"309 CLAIBORNE WAY, MONROE, GA, 30655","Match","Exact","309 CLAIBORNE WAY, MONROE, GA, 30655",77621926,"R"
164707,"309 COACH HILL DRIVE","GAFFNEY","SC",29340,35.0943226580001,-81.621372884,207,"309 COACH HILL DRIVE, GAFFNEY, SC, 29340","Match","Exact","309 COACH HILL DR, GAFFNEY, SC, 29340",18997400,"L"
164708,"309 COMMERCE AVE","MOREHEAD CITY","NC",28562,34.7289057620001,-76.748069024,208,"309 COMMERCE AVE, MOREHEAD CITY, NC, 28562","Match","Non_Exact","309 COMMERCE AVE, MOREHEAD CITY, NC, 28557",223889693,"L"
164709,"309 COPLEY ROAD","UPPER DARBY","PA",19082,39.9543161770001,-75.263096511,209,"309 COPLEY ROAD, UPPER DARBY, PA, 19082","Match","Exact","309 COPLEY RD, UPPER DARBY, PA, 19082",134878253,"L"
164710,"309 COURT AVENUE STE 811","DES MOINES","IA",50309,41.5852690560001,-93.62061227,210,"309 COURT AVENUE STE 811, DES MOINES, IA, 50309","Match","Exact","309 COURT AVE, DES MOINES, IA, 50309",65783060,"R"
164711,"309 COURT AVENUE","DES MOINES","IA",50309,41.5852690560001,-93.62061227,211,"309 COURT AVENUE, DES MOINES, IA, 50309","Match","Exact","309 COURT AVE, DES MOINES, IA, 50309",65783060,"R"
164712,"309 COURTNEY CIR","BLACKSBURG","VA",24060,37.252436377,-80.413443079,212,"309 COURTNEY CIR, BLACKSBURG, VA, 24060","Match","Exact","309 COURTNEY CIR, BLACKSBURG, VA, 24060",644741258,"L"
164713,"309 D STREET","CENTRAL CITY","NE",68826,41.1173007840001,-98.004067404,213,"309 D STREET, CENTRAL CITY, NE, 68826","Match","Exact","309 D ST, CENTRAL CITY, NE, 68826",167831313,"L"
164714,"309 DANNY LANE","NORTHVALE","NJ",7647,41.017310105,-73.9502882529999,214,"309 DANNY LANE, NORTHVALE, NJ, 7647","Match","Exact","309 DANNY LN, NORTHVALE, NJ, 07647",64369966,"L"
164715,"309 DEEP SPRINGS DR","CHITTENANGO","NY",13037,43.0418855410001,-75.845773681,215,"309 DEEP SPRINGS DR, CHITTENANGO, NY, 13037","Match","Exact","309 DEEP SPRINGS DR, CHITTENANGO, NY, 13037",46525256,"L"
164716,"309 DEER LANE","GREENSBURG","PA",15601,40.2977243010001,-79.605279062,216,"309 DEER LANE, GREENSBURG, PA, 15601","Match","Exact","309 DEER LN, GREENSBURG, PA, 15601",613075098,"L"
164717,"309 DEMOPOLIS HWY","EUTAW","AL",35462,32.8317607880001,-87.880982361,217,"309 DEMOPOLIS HWY, EUTAW, AL, 35462","Match","Exact","309 DEMOPOLIS HWY, EUTAW, AL, 35462",9643098,"R"
164718,"309 DETROIT AVENUE","MONROE","MI",48162,41.9138808220001,-83.373062066,218,"309 DETROIT AVENUE, MONROE, MI, 48162","Match","Exact","309 DETROIT AVE, MONROE, MI, 48162",40481105,"L"
164719,"309 DOBY ST","CAMDEN","SC",29020,34.271538278,-80.605579453,219,"309 DOBY ST, CAMDEN, SC, 29020","Match","Exact","309 DOBY ST, CAMDEN, SC, 29020",78470305,"R"
164720,"309 E 20TH ST","FARMINGTON","NM",87401,36.7484074010001,-108.201270803,220,"309 E 20TH ST, FARMINGTON, NM, 87401","Match","Exact","309 E 20TH ST, FARMINGTON, NM, 87401",611571131,"L"
164721,"309 E 4TH STREET","BERWICK","PA",18603,41.0582849690001,-76.2313076199999,221,"309 E 4TH STREET, BERWICK, PA, 18603","Match","Exact","309 E FOURTH ST, BERWICK, PA, 18603",59238024,"L"
164722,"309 E ALMOND DRIVE","WASHINGTON","IL",61571,40.687159702,-89.487427302,222,"309 E ALMOND DRIVE, WASHINGTON, IL, 61571","Match","Exact","309 E ALMOND DR, WASHINGTON, IL, 61571",608203654,"R"
164723,"309 E CENTERVIEW DR","CARSON","CA",90746,33.876744586,-118.271540678,223,"309 E CENTERVIEW DR, CARSON, CA, 90746","Match","Exact","309 E CENTERVIEW DR, CARSON, CA, 90746",141680065,"L"
164724,"309 E COLUMBIA ST","EVANSVILLE","IN",47711,37.9847204660001,-87.5598386729999,224,"309 E COLUMBIA ST, EVANSVILLE, IN, 47711","Match","Exact","309 E COLUMBIA ST, EVANSVILLE, IN, 47711",39782700,"R"
164725,"309 E GARRETT RUN","AUSTIN","TX",78753,NA,NA,225,"309 E GARRETT RUN, AUSTIN, TX, 78753","Tie",NA,NA,NA,NA
164726,"309 E HAWTHORNE ST","DALTON","GA",30721,34.776195972,-84.9654338239999,226,"309 E HAWTHORNE ST, DALTON, GA, 30721","Match","Exact","309 HAWTHORNE ST, DALTON, GA, 30721",57367902,"R"
164727,"309 E HILCREST UNIT 246","INGLEWOOD","CA",90301,NA,NA,227,"309 E HILCREST UNIT 246, INGLEWOOD, CA, 90301","No_Match",NA,NA,NA,NA
164728,"309 E HILLCREST        325","INGLEWOOD","CA",90301,NA,NA,228,"309 E HILLCREST        325, INGLEWOOD, CA, 90301","No_Match",NA,NA,NA,NA
164729,"309 E HILLCREST AVE SUITE 566","INGLEWOOD","CA",90301,NA,NA,229,"309 E HILLCREST AVE SUITE 566, INGLEWOOD, CA, 90301","No_Match",NA,NA,NA,NA
164730,"309 E HILLCREST BLVD  274","INGLEWOOD","CA",90301,NA,NA,230,"309 E HILLCREST BLVD  274, INGLEWOOD, CA, 90301","Tie",NA,NA,NA,NA
164731,"309 E HILLCREST BLVD 282","INGLEWOOD","CA",90301,NA,NA,231,"309 E HILLCREST BLVD 282, INGLEWOOD, CA, 90301","Tie",NA,NA,NA,NA
164732,"309 E HILLCREST BLVD 303","INGLEWOOD","CA",90301,NA,NA,232,"309 E HILLCREST BLVD 303, INGLEWOOD, CA, 90301","Tie",NA,NA,NA,NA
164733,"309 E HILLCREST BLVD 587","INGLEWOOD","CA",90301,NA,NA,233,"309 E HILLCREST BLVD 587, INGLEWOOD, CA, 90301","Tie",NA,NA,NA,NA
164734,"309 E HILLCREST BOULEVARD SUITE 562","INGLEWOOD","CA",90301,NA,NA,234,"309 E HILLCREST BOULEVARD SUITE 562, INGLEWOOD, CA, 90301","Tie",NA,NA,NA,NA
164735,"309 E LAKE ST","MINNEAPOLIS","MN",55408,44.9483451310001,-93.272226729,235,"309 E LAKE ST, MINNEAPOLIS, MN, 55408","Match","Exact","309 E LAKE ST, MINNEAPOLIS, MN, 55408",43633761,"R"
164736,"309 E LINCOLNWAY","VALPARAISO","IN",46383,41.4678009520001,-87.057045734,236,"309 E LINCOLNWAY, VALPARAISO, IN, 46383","Match","Exact","309 E LINCOLNWAY, VALPARAISO, IN, 46383",119914402,"L"
164737,"309 E MAIN ST","SALISBURY","MD",21801,38.365773414,-75.5966224859999,237,"309 E MAIN ST, SALISBURY, MD, 21801","Match","Exact","309 E MAIN ST, SALISBURY, MD, 21801",114452340,"L"
164738,"309 E MAIN STREET","KINGSTREE","SC",29556,33.665015575,-79.825348992,238,"309 E MAIN STREET, KINGSTREE, SC, 29556","Match","Exact","309 E MAIN ST, KINGSTREE, SC, 29556",29205003,"L"
164739,"309 E MANSION STREET","MARSHALL","MI",49068,42.2730245870001,-84.956093618,239,"309 E MANSION STREET, MARSHALL, MI, 49068","Match","Exact","309 E MANSION ST, MARSHALL, MI, 49068",638718534,"L"
164740,"309 E MARKET STREET","WOLCOTT","IN",47995,40.7582854240001,-87.037869056,240,"309 E MARKET STREET, WOLCOTT, IN, 47995","Match","Exact","309 E MARKET ST, WOLCOTT, IN, 47995",606948429,"R"
164741,"309 E MOBILE TERRACE","MUSTANG","OK",73064,35.4040775330001,-97.719051414,241,"309 E MOBILE TERRACE, MUSTANG, OK, 73064","Match","Exact","309 E MOBILE TER, MUSTANG, OK, 73064",614099501,"L"
164742,"309 E MOREHEAD ST APT 601","CHARLOTTE","NC",28202,NA,NA,242,"309 E MOREHEAD ST APT 601, CHARLOTTE, NC, 28202","Tie",NA,NA,NA,NA
164743,"309 E NAVASOTA","GROESBECK","TX",76642,NA,NA,243,"309 E NAVASOTA, GROESBECK, TX, 76642","Tie",NA,NA,NA,NA
164744,"309 E PLAINSMEN RD","PRAIRIE CITY","IA",50228,41.595147078,-93.233880681,244,"309 E PLAINSMEN RD, PRAIRIE CITY, IA, 50228","Match","Exact","309 PLAINSMEN RD, PRAIRIE CITY, IA, 50228",89434195,"L"
164745,"309 E RAND ROAD","ARLINGTON HEIGHTS","IL",60004,42.1166785,-87.986432296,245,"309 E RAND ROAD, ARLINGTON HEIGHTS, IL, 60004","Match","Non_Exact","309 W RAND RD, ARLINGTON HEIGHTS, IL, 60004",639797634,"R"
164746,"309 E RENNESOY DRIVE","NEWARK","IL",60541,41.5301523970001,-88.5797545089999,246,"309 E RENNESOY DRIVE, NEWARK, IL, 60541","Match","Exact","309 E RENNESOY DR, NEWARK, IL, 60541",54491461,"L"
164747,"309 E YELM AVE","YELM","WA",98597,46.9401724410001,-122.603322715,247,"309 E YELM AVE, YELM, WA, 98597","Match","Exact","309 E YELM AVE, YELM, WA, 98597",180936206,"L"
164748,"309 EAST 100 SOUTH APT 515","SALT LAKE CITY","UT",84111,40.7671828260001,-111.882102127,248,"309 EAST 100 SOUTH APT 515, SALT LAKE CITY, UT, 84111","Match","Exact","309 E 100 S, SALT LAKE CITY, UT, 84111",176141340,"L"
164749,"309 EAST 26TH STREET","HIBBING","MN",55746,47.4203868370001,-92.938858089,249,"309 EAST 26TH STREET, HIBBING, MN, 55746","Match","Exact","309 E 26TH ST, HIBBING, MN, 55746",163166752,"R"
164750,"309 EAST 4TH STREET  SUITE  1C","NEW YORK","NY",10009,40.72213872,-73.9798071669999,250,"309 EAST 4TH STREET  SUITE  1C, NEW YORK, NY, 10009","Match","Exact","309 E 4TH ST, NEW YORK, NY, 10009",59654762,"L"
164751,"309 EAST GRAND RIVER","WEBBERVILLE","MI",48892,NA,NA,251,"309 EAST GRAND RIVER, WEBBERVILLE, MI, 48892","Tie",NA,NA,NA,NA
164752,"309 EAST HACKBERRY","FAYETTE","MO",65248,39.145436273,-92.679912557,252,"309 EAST HACKBERRY, FAYETTE, MO, 65248","Match","Non_Exact","309 E HACKBERRY ST, FAYETTE, MO, 65248",23119636,"R"
164753,"309 EAST HILLCREST BOULEVARD 102","INGLEWOOD","CA",90301,33.95940778,-118.351393258,253,"309 EAST HILLCREST BOULEVARD 102, INGLEWOOD, CA, 90301","Match","Exact","309 E HILLCREST BLVD, INGLEWOOD, CA, 90301",141654476,"L"
164754,"309 EAST LINN STREET UNIT 1794","MARSHALLTOWN","IA",50158,42.046697985,-92.907764146,254,"309 EAST LINN STREET UNIT 1794, MARSHALLTOWN, IA, 50158","Match","Exact","309 E LINN ST, MARSHALLTOWN, IA, 50158",90920868,"L"
164755,"309 EAST MAIN STREET","SALISBURY","MD",21801,38.3657732710001,-75.596624662,255,"309 EAST MAIN STREET, SALISBURY, MD, 21801","Match","Exact","309 E MAIN ST, SALISBURY, MD, 21801",114452340,"L"
164756,"309 EAST MOSHOLU PKWY NORTH APT2F","BRONX","NY",10467,40.8725418020001,-73.880583009,256,"309 EAST MOSHOLU PKWY NORTH APT2F, BRONX, NY, 10467","Match","Exact","309 E MOSHOLU PKWY N, BRONX, NY, 10467",80299088,"L"
164757,"309 EAST RAND ROAD  SUITE 191","ARLINTGON HEIGHTS","IL",60004,NA,NA,257,"309 EAST RAND ROAD  SUITE 191, ARLINTGON HEIGHTS, IL, 60004","No_Match",NA,NA,NA,NA
164758,"309 EAST RAND ROAD SUITE 146","ARLINGTON HTS","IL",60004,42.116672626,-87.986423605,258,"309 EAST RAND ROAD SUITE 146, ARLINGTON HTS, IL, 60004","Match","Non_Exact","309 W RAND RD, ARLINGTON HEIGHTS, IL, 60004",639797634,"R"
164759,"309 ELDRIDGE ST","CLEARWATER","FL",33755,27.9726967670001,-82.801334622,259,"309 ELDRIDGE ST, CLEARWATER, FL, 33755","Match","Exact","309 ELDRIDGE ST, CLEARWATER, FL, 33755",124791434,"R"
164760,"309 ELM ST","MANSFIELD","TX",76063,32.564288672,-97.1395032299999,260,"309 ELM ST, MANSFIELD, TX, 76063","Match","Exact","309 ELM ST, MANSFIELD, TX, 76063",101911462,"L"
164761,"309 FIRST STREET","VINE GROVE","KY",40175,37.80575951,-85.985984559,261,"309 FIRST STREET, VINE GROVE, KY, 40175","Match","Exact","309 1ST ST, VINE GROVE, KY, 40175",34617146,"L"
164762,"309 FLEMING RD","CINCINNATI","OH",45215,39.2354254630001,-84.4863985489999,262,"309 FLEMING RD, CINCINNATI, OH, 45215","Match","Exact","309 FLEMING RD, CINCINNATI, OH, 45215",103965895,"L"
164763,"309 FRANKLIN AVE","BERLIN","MD",21811,38.3305686420001,-75.2142169589999,263,"309 FRANKLIN AVE, BERLIN, MD, 21811","Match","Exact","309 FRANKLIN AVE, BERLIN, MD, 21811",114513836,"R"
164764,"309 FULLER STREET","PHILADELPHIA","PA",19111,40.0790656840001,-75.0854472509999,264,"309 FULLER STREET, PHILADELPHIA, PA, 19111","Match","Exact","309 FULLER ST, PHILADELPHIA, PA, 19111",131414693,"L"
164765,"309 GAELIC CIRCLE","MCDONOUGH","GA",30253,33.4861032950001,-84.1866877369999,265,"309 GAELIC CIRCLE, MCDONOUGH, GA, 30253","Match","Exact","309 GAELIC CIR, MCDONOUGH, GA, 30253",23202413,"L"
164766,"309 GAYLENE CIRCLE","ANCHORAGE","AK",99504,61.2204997530001,-149.72128246,266,"309 GAYLENE CIRCLE, ANCHORAGE, AK, 99504","Match","Exact","309 GAYLENE CIR, ANCHORAGE, AK, 99504",190803322,"L"
164767,"309 GEORGE WALTONS ROAD","MOUNT SOLON","VA",22843,38.317462418,-79.1073382989999,267,"309 GEORGE WALTONS ROAD, MOUNT SOLON, VA, 22843","Match","Exact","309 GEORGE WALTONS RD, MOUNT SOLON, VA, 22843",213444398,"R"
164768,"309 GLENMORE DR","PASADENA","TX",77503,29.7076870990001,-95.162509809,268,"309 GLENMORE DR, PASADENA, TX, 77503","Match","Exact","309 GLENMORE DR, PASADENA, TX, 77503",96099747,"L"
164769,"309 GOLD STREET APT 9E","BROOKLYN","NY",11201,40.6953658790001,-73.983230232,269,"309 GOLD STREET APT 9E, BROOKLYN, NY, 11201","Match","Exact","309 GOLD ST, BROOKLYN, NY, 11201",641018512,"L"
164770,"309 GRAVES DRIVE","FOREST","VA",24551,37.370316578,-79.2450458449999,270,"309 GRAVES DRIVE, FOREST, VA, 24551","Match","Exact","309 GRAVES DR, FOREST, VA, 24551",62625087,"R"
164771,"309 GREENHOUSE ROW","SUMMERVILLE","SC",29485,32.9490707140001,-80.264390121,271,"309 GREENHOUSE ROW, SUMMERVILLE, SC, 29485","Match","Exact","309 GREENHOUSE ROW, SUMMERVILLE, SC, 29485",645290113,"L"
164772,"309 HARBOR POINT DRIVE APARTMENT 6","MT PLEASANT","SC",29464,NA,NA,272,"309 HARBOR POINT DRIVE APARTMENT 6, MT PLEASANT, SC, 29464","No_Match",NA,NA,NA,NA
164773,"309 HERMITAGE RD","GAHANNA","OH",43230,40.0121954790001,-82.889764063,273,"309 HERMITAGE RD, GAHANNA, OH, 43230","Match","Exact","309 HERMITAGE RD, GAHANNA, OH, 43230",218692204,"L"
164774,"309 HEYBERT DR","BLAIRSVILLE","PA",15717,40.438645744,-79.231297777,274,"309 HEYBERT DR, BLAIRSVILLE, PA, 15717","Match","Exact","309 HEYBERT DR, BLAIRSVILLE, PA, 15717",649926387,"R"
164775,"309 HIGH STREET","NORWOOD","NJ",7648,40.997925916,-73.956951992,275,"309 HIGH STREET, NORWOOD, NJ, 7648","Match","Exact","309 HIGH ST, NORWOOD, NJ, 07648",64370974,"L"
164776,"309 HIGHLAND STREET","LINDEN","AL",36748,32.309043979,-87.79131209,276,"309 HIGHLAND STREET, LINDEN, AL, 36748","Match","Exact","309 HIGHLAND ST, LINDEN, AL, 36748",9687887,"R"
164777,"309 HIGHWAY","RIVERTON","NJ",8077,40.0064387210001,-75.006692785,277,"309 HIGHWAY, RIVERTON, NJ, 8077","Match","Non_Exact","309 HIGHWAY AVE, RIVERTON, NJ, 08077",134025740,"R"
164778,"309 HILLCREST ROAD","RALEIGH","NC",27605,35.786184561,-78.6551183,278,"309 HILLCREST ROAD, RALEIGH, NC, 27605","Match","Exact","309 HILLCREST RD, RALEIGH, NC, 27605",72503413,"L"
164779,"309 HILLMAN DRIVE","CLARKSVILLE","TN",37040,36.57957944,-87.308848978,279,"309 HILLMAN DRIVE, CLARKSVILLE, TN, 37040","Match","Exact","309 HILLMAN DR, CLARKSVILLE, TN, 37040",31825578,"R"
164780,"309 HOLLAND LANE","ALEXANDRIA","VA",22314,38.8040526680001,-77.059576298,280,"309 HOLLAND LANE, ALEXANDRIA, VA, 22314","Match","Exact","309 HOLLAND LN, ALEXANDRIA, VA, 22314",638934511,"R"
164781,"309 HOVEY ST","LONE WOLF","OK",73655,34.992576758,-99.2531835199999,281,"309 HOVEY ST, LONE WOLF, OK, 73655","Match","Non_Exact","309 HOVEY AVE, LONE WOLF, OK, 73655",125598889,"R"
164782,"309 HULETT ST","SCHENECTADY","NY",12307,42.8065805530001,-73.93667386,282,"309 HULETT ST, SCHENECTADY, NY, 12307","Match","Exact","309 HULETT ST, SCHENECTADY, NY, 12307",18025901,"L"
164783,"309 HUMPHREY DR","SEYMOUR","TN",37865,35.8745452360001,-83.7577514549999,283,"309 HUMPHREY DR, SEYMOUR, TN, 37865","Match","Exact","309 HUMPHREY DR, SEYMOUR, TN, 37865",107539443,"L"
164784,"309 INTERAMERICANA UNIVERSITY GDNS","SAN JUAN","PR",927,NA,NA,284,"309 INTERAMERICANA UNIVERSITY GDNS, SAN JUAN, PR, 927","No_Match",NA,NA,NA,NA
164785,"309 JACKSON ST","YREKA","CA",96097,NA,NA,285,"309 JACKSON ST, YREKA, CA, 96097","No_Match",NA,NA,NA,NA
164786,"309 JEFFERSON STREET 1R","BROOKLYN","NY",11237,40.704484549,-73.926096845,286,"309 JEFFERSON STREET 1R, BROOKLYN, NY, 11237","Match","Exact","309 JEFFERSON ST, BROOKLYN, NY, 11237",59082411,"L"
164787,"309 JEFFERSON STREET","DAYTONA BEACH","FL",32114,29.210898903,-81.0344927259999,287,"309 JEFFERSON STREET, DAYTONA BEACH, FL, 32114","Match","Exact","309 JEFFERSON ST, DAYTONA BEACH, FL, 32114",94592719,"R"
164788,"309 JOSHUA TREE CT","BLYTHEWOOD","SC",29016,34.150656881,-80.972882634,288,"309 JOSHUA TREE CT, BLYTHEWOOD, SC, 29016","Match","Exact","309 JOSHUA TREE CT, BLYTHEWOOD, SC, 29016",627709760,"L"
164789,"309 KATEY ROSE LANE","EUCLID","OH",44143,41.556178211,-81.528059973,289,"309 KATEY ROSE LANE, EUCLID, OH, 44143","Match","Exact","309 KATEY ROSE LN, EUCLID, OH, 44143",61164003,"R"
164790,"309 KELL AVENUE","STATEN ISLAND","NY",10314,40.6055514880001,-74.1348894189999,290,"309 KELL AVENUE, STATEN ISLAND, NY, 10314","Match","Exact","309 KELL AVE, STATEN ISLAND, NY, 10314",59876305,"L"
164791,"309 KELLY DR","BRANCHBURG","NJ",8853,40.5326141310001,-74.7526469589999,291,"309 KELLY DR, BRANCHBURG, NJ, 8853","Match","Exact","309 KELLY DR, BRANCHBURG, NJ, 08853",60000444,"R"
164792,"309 KIRBY CT","MOUNT HOLLY","NJ",8060,40.002866241,-74.799382539,292,"309 KIRBY CT, MOUNT HOLLY, NJ, 8060","Match","Exact","309 KIRBY CT, MOUNT HOLLY, NJ, 08060",645317684,"R"
164793,"309 LAKE STREET","PENN YAN","NY",14527,42.6482878900001,-77.0618433019999,293,"309 LAKE STREET, PENN YAN, NY, 14527","Match","Exact","309 LAKE ST, PENN YAN, NY, 14527",15104558,"L"
164794,"309 LAUREN DRIVE","FAIRBURN","GA",30213,33.5373769660001,-84.5695096219999,294,"309 LAUREN DRIVE, FAIRBURN, GA, 30213","Match","Exact","309 LAUREN DR, FAIRBURN, GA, 30213",625652778,"R"
164795,"309 LINDPOINT LANE","MONROE","NC",28110,35.0019156390001,-80.630203138,295,"309 LINDPOINT LANE, MONROE, NC, 28110","Match","Non_Exact","309 LIND POINT LN, MONROE, NC, 28110",641588888,"L"
164796,"309 MAIN ST","YODER","WY",82244,NA,NA,296,"309 MAIN ST, YODER, WY, 82244","No_Match",NA,NA,NA,NA
164797,"309 MAIN STREET  PO BOX 105","SURING","WI",54174,44.9989985380001,-88.377488092,297,"309 MAIN STREET  PO BOX 105, SURING, WI, 54174","Match","Non_Exact","309 E MAIN ST, SURING, WI, 54174",170321305,"L"
164798,"309 MAIN STREET","MAXWELL","IA",50161,41.8899043480001,-93.399626869,298,"309 MAIN STREET, MAXWELL, IA, 50161","Match","Exact","309 MAIN ST, MAXWELL, IA, 50161",65944122,"R"
164799,"309 MALLARD CT","HORICON","WI",53032,43.452457673,-88.642447465,299,"309 MALLARD CT, HORICON, WI, 53032","Match","Exact","309 MALLARD CT, HORICON, WI, 53032",53529982,"R"
164800,"309 MAPLE ROAD","STORRS MANSFIELD","CT",6268,41.794856963,-72.250835534,300,"309 MAPLE ROAD, STORRS MANSFIELD, CT, 6268","Match","Exact","309 MAPLE RD, STORRS MANSFIELD, CT, 06268",628113202,"L"
164801,"309 MARK PO BOX 23","PERRIN","TX",76486,NA,NA,301,"309 MARK PO BOX 23, PERRIN, TX, 76486","No_Match",NA,NA,NA,NA
164802,"309 MEADOWCREST DRIVE","TRUCKSVILLE","PA",18708,41.3152910330001,-75.912267067,302,"309 MEADOWCREST DRIVE, TRUCKSVILLE, PA, 18708","Match","Exact","309 MEADOWCREST DR, TRUCKSVILLE, PA, 18708",635650391,"R"
164803,"309 MENGER SPGS","BOERNE","TX",78006,29.765804394,-98.728750661,303,"309 MENGER SPGS, BOERNE, TX, 78006","Match","Exact","309 MENGER SPRINGS, BOERNE, TX, 78006",605898663,"R"
164804,"309 MISTY WOODS","BERTRAM","TX",78605,30.7641528290001,-98.0688326009999,304,"309 MISTY WOODS, BERTRAM, TX, 78605","Match","Non_Exact","309 MISTY WOOD, BERTRAM, TX, 78605",146508996,"R"
164805,"309 MITCHELL ST N","BRADDOCK","ND",58524,NA,NA,305,"309 MITCHELL ST N, BRADDOCK, ND, 58524","No_Match",NA,NA,NA,NA
164806,"309 MORNINGSIDE DR","BRYANT","AR",72022,34.5974284810001,-92.5054164489999,306,"309 MORNINGSIDE DR, BRYANT, AR, 72022","Match","Exact","309 MORNINGSIDE DR, BRYANT, AR, 72022",24205603,"L"
164807,"309 MORTON STREET","STOUGHTON","MA",2072,42.114888153,-71.106064746,307,"309 MORTON STREET, STOUGHTON, MA, 2072","Match","Exact","309 MORTON ST, STOUGHTON, MA, 02072",87280391,"R"
164808,"309 MOURNING DOVE","FLORESVILLE","TX",78114,29.1613587050001,-98.160248623,308,"309 MOURNING DOVE, FLORESVILLE, TX, 78114","Match","Exact","309 MOURNING DOVE, FLORESVILLE, TX, 78114",625208829,"L"
164809,"309 N 11TH AVE","PARAGOULD","AR",72450,36.0584123200001,-90.471712017,309,"309 N 11TH AVE, PARAGOULD, AR, 72450","Match","Exact","309 N 11TH AVE, PARAGOULD, AR, 72450",606651760,"L"
164810,"309 N 2ND AVE","HUXLEY","IA",50124,41.894425422,-93.604771436,310,"309 N 2ND AVE, HUXLEY, IA, 50124","Match","Exact","309 N 2ND AVE, HUXLEY, IA, 50124",65948573,"L"
164811,"309 N 4TH ST","MURRAY","KY",42071,36.6141425960001,-88.302104091,311,"309 N 4TH ST, MURRAY, KY, 42071","Match","Exact","309 N 4TH ST, MURRAY, KY, 42071",31708958,"L"
164812,"309 N ALP","BAY CITY","MI",48706,43.6039136680001,-83.9119625819999,312,"309 N ALP, BAY CITY, MI, 48706","Match","Non_Exact","309 N ALP ST, BAY CITY, MI, 48706",81139484,"L"
164813,"309 N BIRCH STREET","KALKASKA","MI",49646,NA,NA,313,"309 N BIRCH STREET, KALKASKA, MI, 49646","No_Match",NA,NA,NA,NA
164814,"309 N CHURCH AVE UNIT 331","DYERSBURG","TN",38025,NA,NA,314,"309 N CHURCH AVE UNIT 331, DYERSBURG, TN, 38025","No_Match",NA,NA,NA,NA
164815,"309 N FIRST AVE","LAGRANGE","KY",40031,38.4104555860001,-85.379855345,315,"309 N FIRST AVE, LAGRANGE, KY, 40031","Match","Exact","309 N 1ST AVE, LAGRANGE, KY, 40031",130914055,"R"
164816,"309 N FISK","BROWNWOOD","TX",76801,31.7199637360001,-98.98087472,316,"309 N FISK, BROWNWOOD, TX, 76801","Match","Non_Exact","309 FISK AVE, BROWNWOOD, TX, 76801",129459679,"L"
164817,"309 N FORREST AVE","LOOKOUT MOUNTAIN","TN",37350,NA,NA,317,"309 N FORREST AVE, LOOKOUT MOUNTAIN, TN, 37350","No_Match",NA,NA,NA,NA
164818,"309 N HIGH STREET SUITE 12","MUNCIE","IN",47305,NA,NA,318,"309 N HIGH STREET SUITE 12, MUNCIE, IN, 47305","Tie",NA,NA,NA,NA
164819,"309 N HIGH STREET","CANAL WINCHESTER","OH",43110,39.850444979,-82.8044419679999,319,"309 N HIGH STREET, CANAL WINCHESTER, OH, 43110","Match","Exact","309 N HIGH ST, CANAL WINCHESTER, OH, 43110",641139860,"R"
164820,"309 N HILLCREST BLVD STE 274","INGLEWOOD","CA",90301,NA,NA,320,"309 N HILLCREST BLVD STE 274, INGLEWOOD, CA, 90301","Tie",NA,NA,NA,NA
164821,"309 N JEFFERSON/POB 1814","AVA","MO",65608,NA,NA,321,"309 N JEFFERSON/POB 1814, AVA, MO, 65608","No_Match",NA,NA,NA,NA
164822,"309 N MAIN STREET SUITE 2","CLOVIS","NM",88101,34.400908513,-103.205330774,322,"309 N MAIN STREET SUITE 2, CLOVIS, NM, 88101","Match","Non_Exact","309 N MAIN ST, CLOVIS, NM, 88101",163760676,"R"
164823,"309 N PARK AVE","WARREN","OH",44481,41.2391380600001,-80.81807932,323,"309 N PARK AVE, WARREN, OH, 44481","Match","Exact","309 N PARK AVE, WARREN, OH, 44481",117405659,"L"
164824,"309 N SUMNEYTOWN PIKE","NORTH WALES","PA",19454,40.2117233590001,-75.281964009,324,"309 N SUMNEYTOWN PIKE, NORTH WALES, PA, 19454","Match","Exact","309 N SUMNEYTOWN PIKE, NORTH WALES, PA, 19454",135105058,"R"
164825,"309 NE 1ST ST","WASHINGTON","IN",47501,38.6600474640001,-87.174454248,325,"309 NE 1ST ST, WASHINGTON, IN, 47501","Match","Exact","309 NE 1ST ST, WASHINGTON, IN, 47501",32078922,"L"
164826,"309 NE 208 TER","MIAMI","FL",33179,NA,NA,326,"309 NE 208 TER, MIAMI, FL, 33179","No_Match",NA,NA,NA,NA
164827,"309 NORTH 6TH AVENUE","PENSACOLA","FL",32501,30.4180915420001,-87.209139361,327,"309 NORTH 6TH AVENUE, PENSACOLA, FL, 32501","Match","Exact","309 N 6TH AVE, PENSACOLA, FL, 32501",93221677,"L"
164828,"309 NORTH 6TH STREET SUITE 6","WEST MEMPHIS","AR",73201,35.1494442950001,-90.17688608,328,"309 NORTH 6TH STREET SUITE 6, WEST MEMPHIS, AR, 73201","Match","Non_Exact","309 N 6TH ST, WEST MEMPHIS, AR, 72301",638667068,"L"
164829,"309 NORTH HIGH STREET SUITE 12","MUNCIE","IN",47305,40.195516496,-85.387620547,329,"309 NORTH HIGH STREET SUITE 12, MUNCIE, IN, 47305","Match","Exact","309 N HIGH ST, MUNCIE, IN, 47305",644927163,"L"
164830,"309 NORTH HOUSTON STREET","SCOTTSBORO","AL",35768,34.675345669,-86.037099045,330,"309 NORTH HOUSTON STREET, SCOTTSBORO, AL, 35768","Match","Exact","309 N HOUSTON ST, SCOTTSBORO, AL, 35768",58025049,"L"
164831,"309 NORTH MAIN STREET","ANDERSON","SC",29621,34.505369763,-82.6506511599999,331,"309 NORTH MAIN STREET, ANDERSON, SC, 29621","Match","Exact","309 N MAIN ST, ANDERSON, SC, 29621",25452464,"L"
164832,"309 NORTH MAIN STREET","SHERBURN","MN",56171,43.6556201330001,-94.728019833,332,"309 NORTH MAIN STREET, SHERBURN, MN, 56171","Match","Exact","309 N MAIN ST, SHERBURN, MN, 56171",9974518,"L"
164833,"309 NORTH SHORE DRIVE","SUNSET BEACH","NC",28468,NA,NA,333,"309 NORTH SHORE DRIVE, SUNSET BEACH, NC, 28468","Tie",NA,NA,NA,NA
164834,"309 NW 25TH ST","GRESHAM","OR",97030,45.5145751850001,-122.434015782,334,"309 NW 25TH ST, GRESHAM, OR, 97030","Match","Exact","309 NW 25TH ST, GRESHAM, OR, 97030",157591311,"R"
164835,"309 OAK KNOLL TERRACE","ROCKVILLE","MD",20850,39.0972237820001,-77.1889091209999,335,"309 OAK KNOLL TERRACE, ROCKVILLE, MD, 20850","Match","Exact","309 OAK KNOLL TER, ROCKVILLE, MD, 20850",617450018,"L"
164836,"309 ODOMS MILL BLVD","PONTE VEDRA BEACH","FL",32082,30.154614333,-81.387585476,336,"309 ODOMS MILL BLVD, PONTE VEDRA BEACH, FL, 32082","Match","Exact","309 ODOMS MILL BLVD, PONTE VEDRA BEACH, FL, 32082",92602588,"R"
164837,"309 OFFICE PLAZA DR","TALLAHASSEE","FL",32301,30.4452998740001,-84.2596517809999,337,"309 OFFICE PLAZA DR, TALLAHASSEE, FL, 32301","Match","Exact","309 OFFICE PLZ, TALLAHASSEE, FL, 32301",82854035,"R"
164838,"309 PALMDALE CT","HOLLY SPRINGS","NC",27540,35.6647089080001,-78.833298838,338,"309 PALMDALE CT, HOLLY SPRINGS, NC, 27540","Match","Exact","309 PALMDALE CT, HOLLY SPRINGS, NC, 27540",208374623,"L"
164839,"309 PARKWAY CIR","NORTH SALT LAKE","UT",84054,40.8259579910001,-111.905592715,339,"309 PARKWAY CIR, NORTH SALT LAKE, UT, 84054","Match","Exact","309 PARKWAY CIR, N SALT LAKE, UT, 84054",613008674,"L"
164840,"309 PLEASANT STREET NE","PRESTON","MN",55965,43.6725490920001,-92.080524044,340,"309 PLEASANT STREET NE, PRESTON, MN, 55965","Match","Exact","309 PLEASANT ST NE, PRESTON, MN, 55965",27575286,"L"
164841,"309 PLUM STREET","ELKHART","IN",46514,41.68818493,-85.987775576,341,"309 PLUM STREET, ELKHART, IN, 46514","Match","Exact","309 PLUM ST, ELKHART, IN, 46514",604672496,"L"
164842,"309 POINT AUX CHENES","LAFAYETTE","LA",70507,30.275231562,-91.985971256,342,"309 POINT AUX CHENES, LAFAYETTE, LA, 70507","Match","Non_Exact","309 POINTE AUX CHENES, LAFAYETTE, LA, 70507",85616776,"L"
164843,"309 PONTIAC AVENUE","BROOKLYN","MD",21225,39.2366466720001,-76.6073342,343,"309 PONTIAC AVENUE, BROOKLYN, MD, 21225","Match","Non_Exact","309 E PONTIAC AVE, BROOKLYN, MD, 21225",206423004,"R"
164844,"309 PRESCOTT AVENUE","EL CAJON","CA",90202,32.791576134,-116.959970787,344,"309 PRESCOTT AVENUE, EL CAJON, CA, 90202","Match","Non_Exact","309 PRESCOTT AVE, EL CAJON, CA, 92020",195329391,"L"
164845,"309 PRESCOTT AVENUE","EL CAJON","CA",92020,32.791576134,-116.959970787,345,"309 PRESCOTT AVENUE, EL CAJON, CA, 92020","Match","Exact","309 PRESCOTT AVE, EL CAJON, CA, 92020",195329391,"L"
164846,"309 PROSPECT STREET","LA JOLLA","CA",92037,32.8405483170001,-117.280094655,346,"309 PROSPECT STREET, LA JOLLA, CA, 92037","Match","Exact","309 PROSPECT ST, LA JOLLA, CA, 92037",195298253,"R"
164847,"309 PURPLE PASSION AVENUE","NO. LAS VEGAS","NV",89032,36.229092812,-115.135336128,347,"309 PURPLE PASSION AVENUE, NO. LAS VEGAS, NV, 89032","Match","Exact","309 PURPLE PASSION AVE, N LAS VEGAS, NV, 89032",636797538,"L"
164848,"309 RAILROAD STREET","ARGOS","IN",46501,41.2399467720001,-86.242975916,348,"309 RAILROAD STREET, ARGOS, IN, 46501","Match","Exact","309 RAILROAD ST, ARGOS, IN, 46501",7646374,"R"
164849,"309 RAYON DRIVE","OLD HICKORY","TN",37138,36.2706767980001,-86.666871922,349,"309 RAYON DRIVE, OLD HICKORY, TN, 37138","Match","Exact","309 RAYON DR, OLD HICKORY, TN, 37138",97183589,"L"
164850,"309 RINGLING POINT DRIVE","SARASOTA","FL",34234,27.378584473,-82.565703189,350,"309 RINGLING POINT DRIVE, SARASOTA, FL, 34234","Match","Exact","309 RINGLING POINT DR, SARASOTA, FL, 34234",16345827,"L"
164851,"309 RIVERCLIFF DRIVE","MT WASHINGTON","KY",40047,38.0103878780001,-85.57986735,351,"309 RIVERCLIFF DRIVE, MT WASHINGTON, KY, 40047","Match","Exact","309 RIVERCLIFF DR, MOUNT WASHINGTON, KY, 40047",47740600,"R"
164852,"309 ROCK CRYSTAL LANE","LAKESIDE PARK","KY",41017,39.030830807,-84.562188404,352,"309 ROCK CRYSTAL LANE, LAKESIDE PARK, KY, 41017","Match","Exact","309 ROCK CRYSTAL LN, LAKESIDE PARK, KY, 41017",103890389,"R"
164853,"309 ROOSEVELT DRIVE","CHERRY HILL","NJ",8002,39.9357062720001,-74.9998495199999,353,"309 ROOSEVELT DRIVE, CHERRY HILL, NJ, 8002","Match","Exact","309 ROOSEVELT DR, CHERRY HILL, NJ, 08002",134345644,"L"
164854,"309 ROSE HALL LN","DALLAS","GA",30132,34.015697044,-84.791184613,354,"309 ROSE HALL LN, DALLAS, GA, 30132","Match","Exact","309 ROSE HALL LN, DALLAS, GA, 30132",618939353,"L"
164855,"309 ROUNDSTONE ROCK","TYRONE","GA",30290,NA,NA,355,"309 ROUNDSTONE ROCK, TYRONE, GA, 30290","No_Match",NA,NA,NA,NA
164856,"309 ROUTE 35 APT 4H","POINT PLEASANT BEACH","NJ",8742,NA,NA,356,"309 ROUTE 35 APT 4H, POINT PLEASANT BEACH, NJ, 8742","No_Match",NA,NA,NA,NA
164857,"309 RYE ST","ROUND ROCK","TX",78664,30.5134521620001,-97.669149401,357,"309 RYE ST, ROUND ROCK, TX, 78664","Match","Exact","309 RYE ST, ROUND ROCK, TX, 78664",126423502,"R"
164858,"309 S 105TH EAST PLACE","TULSA","OK",74128,36.1579458840001,-95.859578626,358,"309 S 105TH EAST PLACE, TULSA, OK, 74128","Match","Exact","309 S 105TH EAST PL, TULSA, OK, 74128",166448866,"L"
164859,"309 S 1ST AVE","MOUNT VERNON","NY",10550,40.9045544420001,-73.831335457,359,"309 S 1ST AVE, MOUNT VERNON, NY, 10550","Match","Exact","309 S 1ST AVE, MOUNT VERNON, NY, 10550",139747547,"L"
164860,"309 S 3RD ST","YAKIMA","WA",98901,46.598963665,-120.501161965,360,"309 S 3RD ST, YAKIMA, WA, 98901","Match","Exact","309 S 3RD ST, YAKIMA, WA, 98901",184937086,"L"
164861,"309 S 4TH STREET SUITE 101","LARAMIE","WY",82070,41.3107846350001,-105.592310171,361,"309 S 4TH STREET SUITE 101, LARAMIE, WY, 82070","Match","Non_Exact","309 S 4TH ST, LARAMIE, WY, 82070",168740264,"R"
164862,"309 S BAY BLVD","ANNA MARIA","FL",34216,27.531719465,-82.7299490299999,362,"309 S BAY BLVD, ANNA MARIA, FL, 34216","Match","Exact","309 S BAY BLVD, ANNA MARIA, FL, 34216",624461476,"L"
164863,"309 S CRESTWAY ST","WICHITA","KS",67218,37.682182299,-97.285132633,363,"309 S CRESTWAY ST, WICHITA, KS, 67218","Match","Exact","309 S CRESTWAY ST, WICHITA, KS, 67218",115648347,"R"
164864,"309 S EDGEMON AVE","WINTER SPRINGS","FL",32708,28.6926100530001,-81.308684302,364,"309 S EDGEMON AVE, WINTER SPRINGS, FL, 32708","Match","Exact","309 S EDGEMON AVE, WINTER SPRINGS, FL, 32708",639255580,"R"
164865,"309 S GALENA AVE","DIXON","IL",61021,41.8415887240001,-89.4818692429999,365,"309 S GALENA AVE, DIXON, IL, 61021","Match","Exact","309 S GALENA AVE, DIXON, IL, 61021",48743704,"L"
164866,"309 S GROVE AVE","BARRINGTON","IL",60010,42.152223007,-88.133620437,366,"309 S GROVE AVE, BARRINGTON, IL, 60010","Match","Exact","309 S GROVE AVE, BARRINGTON, IL, 60010",111835400,"L"
164867,"309 S KENTUCKY","ROSWELL","NM",88203,33.390766624,-104.527217343,367,"309 S KENTUCKY, ROSWELL, NM, 88203","Match","Non_Exact","309 S KENTUCKY AVE, ROSWELL, NM, 88203",131767523,"R"
164868,"309 S MAIN STREET","DORRIS","CA",96023,41.970353618,-121.918315127,368,"309 S MAIN STREET, DORRIS, CA, 96023","Match","Non_Exact","309 N MAIN ST, DORRIS, CA, 96023",113205487,"R"
164869,"309 S MAIN STREET","JEFFERSON","WI",53549,43.0033017640001,-88.8073454619999,369,"309 S MAIN STREET, JEFFERSON, WI, 53549","Match","Exact","309 S MAIN ST, JEFFERSON, WI, 53549",53213486,"L"
164870,"309 S OAK ST","TRINIDAD","CO",81082,37.1691030120001,-104.497987387,370,"309 S OAK ST, TRINIDAD, CO, 81082","Match","Exact","309 S OAK ST, TRINIDAD, CO, 81082",112754089,"L"
164871,"309 S OLD MIDDLETOWN ROAD","MEDIA","PA",19063,39.903556012,-75.4071467269999,371,"309 S OLD MIDDLETOWN ROAD, MEDIA, PA, 19063","Match","Exact","309 S OLD MIDDLETOWN RD, MEDIA, PA, 19063",653368846,"L"
164872,"309 S WEST AVENUE SUITE 2","CROOKS","SD",57020,43.6577396550001,-96.811245274,372,"309 S WEST AVENUE SUITE 2, CROOKS, SD, 57020","Match","Non_Exact","309 S WEST AVE, CROOKS, SD, 57020",34969001,"R"
164873,"309 SAWGRASS COURT","NAPLES","FL",34110,26.2786414240001,-81.76794503,373,"309 SAWGRASS COURT, NAPLES, FL, 34110","Match","Exact","309 SAWGRASS CT, NAPLES, FL, 34110",115159963,"L"
164874,"309 SCALES ROAD","PHILIPPI","WV",26416,39.147088189,-80.118405539,374,"309 SCALES ROAD, PHILIPPI, WV, 26416","Match","Exact","309 SCALES RD, PHILIPPI, WV, 26416",625544523,"R"
164875,"309 SECOND STREET","MARIETTA","OH",45750,39.415801979,-81.455150932,375,"309 SECOND STREET, MARIETTA, OH, 45750","Match","Exact","309 2ND ST, MARIETTA, OH, 45750",45694139,"L"
164876,"309 SHELDON STREET","HUDSON","NC",28638,35.852947724,-81.5087850959999,376,"309 SHELDON STREET, HUDSON, NC, 28638","Match","Exact","309 SHELDON ST, HUDSON, NC, 28638",45859893,"R"
164877,"309 SMOKEHOUSE LANE","ALBEMARLE","NC",28001,35.355289907,-80.150290148,377,"309 SMOKEHOUSE LANE, ALBEMARLE, NC, 28001","Match","Non_Exact","309 SMOKEHOUSE, ALBEMARLE, NC, 28001",14099612,"L"
164878,"309 SNOW CREST TRAIL","DURHAM","NC",27707,35.9602425940001,-78.96518865,378,"309 SNOW CREST TRAIL, DURHAM, NC, 27707","Match","Exact","309 SNOW CREST TRL, DURHAM, NC, 27707",609057503,"L"
164879,"309 SOUTH 11TH STREET","NEWARK","NJ",7103,40.7436377870001,-74.200071662,379,"309 SOUTH 11TH STREET, NEWARK, NJ, 7103","Match","Exact","309 S 11TH ST, NEWARK, NJ, 07103",63496021,"R"
164880,"309 SOUTH OAK STREET","LA VETA","CO",81055,37.507915547,-105.011251634,380,"309 SOUTH OAK STREET, LA VETA, CO, 81055","Match","Exact","309 S OAK ST, LA VETA, CO, 81055",104314313,"R"
164881,"309 SOUTH VALLEY VIEW BLVD","LAS VEGAS","NV",89107,36.1695627930001,-115.192574231,381,"309 SOUTH VALLEY VIEW BLVD, LAS VEGAS, NV, 89107","Match","Exact","309 S VALLEY VIEW BLVD, LAS VEGAS, NV, 89107",201864584,"L"
164882,"309 SOUTHMOOR OAKS CT","CARY","NC",27518,35.696133251,-78.8036560589999,382,"309 SOUTHMOOR OAKS CT, CARY, NC, 27518","Match","Exact","309 SOUTHMOOR OAKS CT, CARY, NC, 27518",612817490,"L"
164883,"309 SQUANKUM AVE","LAKEWOOD","NJ",8701,40.101531304,-74.2084597589999,383,"309 SQUANKUM AVE, LAKEWOOD, NJ, 8701","Match","Non_Exact","309 SQUANKUM RD, LAKEWOOD, NJ, 08701",203761255,"L"
164884,"309 ST PAULS AVE","STATEN ISLAND","NY",10304,40.630599379,-74.0810546169999,384,"309 ST PAULS AVE, STATEN ISLAND, NY, 10304","Match","Exact","309 ST PAULS AVE, STATEN ISLAND, NY, 10304",59879022,"L"
164885,"309 STOCKADE","NEWCASTLE","WY",82701,43.8457928010001,-104.206538503,385,"309 STOCKADE, NEWCASTLE, WY, 82701","Match","Non_Exact","309 STOCKADE AVE, NEWCASTLE, WY, 82701",147492530,"R"
164886,"309 SUMMERVILLE DRIVE","MADISON","MS",39110,32.461338792,-90.1057924949999,386,"309 SUMMERVILLE DRIVE, MADISON, MS, 39110","Match","Exact","309 SUMMERVILLE DR, MADISON, MS, 39110",616464805,"R"
164887,"309 SUNRISE DRIVE","WEIRTON","WV",26062,40.389084993,-80.5341613269999,387,"309 SUNRISE DRIVE, WEIRTON, WV, 26062","Match","Exact","309 SUNRISE DR, WEIRTON, WV, 26062",653344616,"L"
164888,"309 SUSAN DRIVE","DWIGHT","IL",60420,41.0820108450001,-88.423015788,388,"309 SUSAN DRIVE, DWIGHT, IL, 60420","Match","Exact","309 SUSAN DR, DWIGHT, IL, 60420",22389747,"R"
164889,"309 SW 185TH WAY","PEMBROKE PINES","FL",33029,26.004565373,-80.3963968309999,389,"309 SW 185TH WAY, PEMBROKE PINES, FL, 33029","Match","Exact","309 SW 185TH WAY, PEMBROKE PINES, FL, 33029",114781195,"L"
164890,"309 TARKIO ST","CRAIG","MO",64437,40.1880925500001,-95.3741082559999,390,"309 TARKIO ST, CRAIG, MO, 64437","Match","Exact","309 TARKIO ST, CRAIG, MO, 64437",16005199,"R"
164891,"309 TEQUESTA DR","DESTIN","FL",32541,30.3922766090001,-86.4034812,391,"309 TEQUESTA DR, DESTIN, FL, 32541","Match","Exact","309 TEQUESTA DR, DESTIN, FL, 32541",74432943,"R"
164892,"309 THIRD STREET","BROWNWOOD","TX",76801,31.71259179,-98.989039184,392,"309 THIRD STREET, BROWNWOOD, TX, 76801","Match","Exact","309 3RD ST, BROWNWOOD, TX, 76801",129459848,"L"
164893,"309 TRINITY STREET","SILER CITY","NC",27344,35.73581677,-79.4643547649999,393,"309 TRINITY STREET, SILER CITY, NC, 27344","Match","Exact","309 TRINITY ST, SILER CITY, NC, 27344",71352017,"R"
164894,"309 TUCCI STREET","MCCLOUD","CA",96057,41.2585020330001,-122.138621447,394,"309 TUCCI STREET, MCCLOUD, CA, 96057","Match","Non_Exact","309 TUCCI AVE, MCCLOUD, CA, 96057",113309358,"L"
164895,"309 TULLULAH AVENUE","RIVER RIDGE","LA",70123,29.968488485,-90.229007429,395,"309 TULLULAH AVENUE, RIVER RIDGE, LA, 70123","Match","Exact","309 TULLULAH AVE, RIVER RIDGE, LA, 70123",93496222,"R"
164896,"309 US RTE 1","FRENCHVILLE","ME",4745,47.279549295,-68.387615529,396,"309 US RTE 1, FRENCHVILLE, ME, 4745","Match","Non_Exact","309 US HWY 1, FRENCHVILLE, ME, 04745",123801705,"L"
164897,"309 VICTORY ROAD","EDMOND","OK",73003,NA,NA,397,"309 VICTORY ROAD, EDMOND, OK, 73003","No_Match",NA,NA,NA,NA
164898,"309 VIEW CT","APOPKA","FL",32703,28.6824852680001,-81.4662777569999,398,"309 VIEW CT, APOPKA, FL, 32703","Match","Exact","309 VIEW CT, APOPKA, FL, 32703",94368757,"L"
164899,"309 VT ROUTE 15","JERICHO","VT",5465,44.513774143,-72.95192924,399,"309 VT ROUTE 15, JERICHO, VT, 5465","Match","Non_Exact","309 STATE RTE 15, JERICHO, VT, 05465",135857961,"L"
164900,"309 W 53RD ST APT G","DAVENPOORT","MD",52806,NA,NA,400,"309 W 53RD ST APT G, DAVENPOORT, MD, 52806","No_Match",NA,NA,NA,NA
164901,"309 W AVENUE G","TEMPLE","TX",76504,31.0904918800001,-97.346723471,401,"309 W AVENUE G, TEMPLE, TX, 76504","Match","Exact","309 W AVE G, TEMPLE, TX, 76504",146148903,"L"
164902,"309 W CHURCH STREET","SANDERSVILLE","GA",31082,32.981691396,-82.814851339,402,"309 W CHURCH STREET, SANDERSVILLE, GA, 31082","Match","Exact","309 W CHURCH ST, SANDERSVILLE, GA, 31082",16759797,"L"
164903,"309 W JEFFERSON","FRESNO","CA",93606,NA,NA,403,"309 W JEFFERSON, FRESNO, CA, 93606","No_Match",NA,NA,NA,NA
164904,"309 W JOHNSON ST APT 333","MADISON","WI",53703,43.079025877,-89.383890827,404,"309 W JOHNSON ST APT 333, MADISON, WI, 53703","Match","Non_Exact","309 E JOHNSON ST, MADISON, WI, 53703",49472279,"R"
164905,"309 W JOHNSON STREET APT 302","MADISON","WI",53703,43.079025877,-89.383890827,405,"309 W JOHNSON STREET APT 302, MADISON, WI, 53703","Match","Non_Exact","309 E JOHNSON ST, MADISON, WI, 53703",49472279,"R"
164906,"309 W MAIN ST SUITE 104","VISALIA","CA",93291,NA,NA,406,"309 W MAIN ST SUITE 104, VISALIA, CA, 93291","Tie",NA,NA,NA,NA
164907,"309 W MAIN ST","KNOXVILLE","IA",50138,41.318953224,-93.101177767,407,"309 W MAIN ST, KNOXVILLE, IA, 50138","Match","Exact","309 W MAIN ST, KNOXVILLE, IA, 50138",89478680,"L"
164908,"309 W MARTIN LUTHER KING JR BLVD","TYLER","TX",75702,32.3701922930001,-95.303207105,408,"309 W MARTIN LUTHER KING JR BLVD, TYLER, TX, 75702","Match","Exact","309 W MARTIN LUTHER KING JR BLVD, TYLER, TX, 75702",141266366,"R"
164909,"309 W MCDOWELL ROAD","JACKSON","MS",39204,32.268434563,-90.22160497,409,"309 W MCDOWELL ROAD, JACKSON, MS, 39204","Match","Exact","309 W MCDOWELL RD, JACKSON, MS, 39204",65367746,"L"
164910,"309 W PINEHURST TRAIL","DAKOTA DUNES","SD",57049,42.4941018420001,-96.49766637,410,"309 W PINEHURST TRAIL, DAKOTA DUNES, SD, 57049","Match","Exact","309 W PINEHURST TRL, DAKOTA DUNES, SD, 57049",176351738,"L"
164911,"309 W REED","MOBERLY","MO",65270,39.4197286450001,-92.4393177919999,411,"309 W REED, MOBERLY, MO, 65270","Match","Non_Exact","309 W REED ST, MOBERLY, MO, 65270",23795222,"R"
164912,"309 W UNION ST","MORGANTON","NC",28655,35.7418799390001,-81.690566514,412,"309 W UNION ST, MORGANTON, NC, 28655","Match","Exact","309 W UNION ST, MORGANTON, NC, 28655",37175709,"R"
164913,"309 W VAN DORN STREET","POLK CITY","IA",50226,NA,NA,413,"309 W VAN DORN STREET, POLK CITY, IA, 50226","Tie",NA,NA,NA,NA
164914,"309 W VAN HOESEN BLVD","PORTAGE","MI",49024,42.231907461,-85.591886911,414,"309 W VAN HOESEN BLVD, PORTAGE, MI, 49024","Match","Exact","309 W VAN HOESEN BLVD, PORTAGE, MI, 49024",12230862,"L"
164915,"309 WANONDOGER TRL","BATTLE CREEK","MI",49017,42.3667855350001,-85.138194841,415,"309 WANONDOGER TRL, BATTLE CREEK, MI, 49017","Match","Exact","309 WANONDOGER TRL, BATTLE CREEK, MI, 49017",11715497,"L"
164916,"309 WATER ST STE 114","BOERNE","TX",78006,NA,NA,416,"309 WATER ST STE 114, BOERNE, TX, 78006","No_Match",NA,NA,NA,NA
164917,"309 WAVERLY DR","MIDLAND","TX",79703,31.983981811,-102.119584757,417,"309 WAVERLY DR, MIDLAND, TX, 79703","Match","Exact","309 WAVERLY DR, MIDLAND, TX, 79703",139580348,"L"
164918,"309 WAYNE CIRCLE","DURHAM","NC",27707,35.9685116810001,-78.9085195609999,418,"309 WAYNE CIRCLE, DURHAM, NC, 27707","Match","Exact","309 WAYNE CIR, DURHAM, NC, 27707",71740782,"L"
164919,"309 WEST 10TH ST","ROME","GA",30165,34.2628115750001,-85.180037211,419,"309 WEST 10TH ST, ROME, GA, 30165","Match","Exact","309 W 10TH ST, ROME, GA, 30165",30675785,"L"
164920,"309 WEST 30TH STREET - APT 2E","NEW YORK","NY",10001,40.749862261,-73.995710764,420,"309 WEST 30TH STREET - APT 2E, NEW YORK, NY, 10001","Match","Exact","309 W 30TH ST, NEW YORK, NY, 10001",59661979,"R"
164921,"309 WEST HOMES STREET","NORMAN","OK",73069,NA,NA,421,"309 WEST HOMES STREET, NORMAN, OK, 73069","No_Match",NA,NA,NA,NA
164922,"309 WEST MAIN STREET","KNOXVILLE","IA",50138,41.3189535400001,-93.101161025,422,"309 WEST MAIN STREET, KNOXVILLE, IA, 50138","Match","Exact","309 W MAIN ST, KNOXVILLE, IA, 50138",89478680,"L"
164923,"309 WEST MAIN STREET","LEBANON","IL",62254,38.6029576650001,-89.810592521,423,"309 WEST MAIN STREET, LEBANON, IL, 62254","Match","Exact","309 W MAIN ST, LEBANON, IL, 62254",107846002,"R"
164924,"309 WEST MOUNTAIN DRIVE","GREENSBORO","NC",27406,NA,NA,424,"309 WEST MOUNTAIN DRIVE, GREENSBORO, NC, 27406","No_Match",NA,NA,NA,NA
164925,"309 WEST OPP STREET","WILMINGTON","CA",90744,33.782756261,-118.265224964,425,"309 WEST OPP STREET, WILMINGTON, CA, 90744","Match","Exact","309 W OPP ST, WILMINGTON, CA, 90744",141691270,"R"
164926,"309 WEST PULASKI ROAD","HUNTINGTON","NY",11743,40.8461269250001,-73.4350762999999,426,"309 WEST PULASKI ROAD, HUNTINGTON, NY, 11743","Match","Exact","309 W PULASKI RD, HUNTINGTON, NY, 11743",651606762,"L"
164927,"309 WEST THIRD STREET","WILLIAMSPORT","PA",17701,41.23869713,-77.006827378,427,"309 WEST THIRD STREET, WILLIAMSPORT, PA, 17701","Match","Exact","309 W 3RD ST, WILLIAMSPORT, PA, 17701",59446373,"L"
164928,"309 WILLOWBROOKE DR","BROCKPORT","NY",14420,43.2165567280001,-77.954695726,428,"309 WILLOWBROOKE DR, BROCKPORT, NY, 14420","Match","Non_Exact","309 WILLOWBROOK DR, BROCKPORT, NY, 14420",639338224,"L"
164929,"309 WILLOWDELL DRIVE","TOCCOA","GA",30577,NA,NA,429,"309 WILLOWDELL DRIVE, TOCCOA, GA, 30577","No_Match",NA,NA,NA,NA
164930,"309 WILSON AVE","BROOKLYN","NY",11237,40.6967091670001,-73.918686442,430,"309 WILSON AVE, BROOKLYN, NY, 11237","Match","Exact","309 WILSON AVE, BROOKLYN, NY, 11237",59082976,"L"
164931,"309 WINDSOR CT UNIT A","SOUTH ELGIN","IL",60177,41.9888329190001,-88.298914366,431,"309 WINDSOR CT UNIT A, SOUTH ELGIN, IL, 60177","Match","Exact","309 WINDSOR CT, SOUTH ELGIN, IL, 60177",119551097,"R"
164932,"309 WINROW DRIVE","JAMESTOWN","NC",27282,36.0053399870001,-79.926543422,432,"309 WINROW DRIVE, JAMESTOWN, NC, 27282","Match","Exact","309 WINROW DR, JAMESTOWN, NC, 27282",131072781,"L"
164933,"309 WOOD STREET","PATOKA","IN",47666,38.4031039130001,-87.5894298869999,433,"309 WOOD STREET, PATOKA, IN, 47666","Match","Exact","309 WOOD ST, PATOKA, IN, 47666",635503017,"L"
164934,"309 WOODLAKE DRIVE","BRIGHTON","MI",48116,42.5116827840001,-83.7765408499999,434,"309 WOODLAKE DRIVE, BRIGHTON, MI, 48116","Match","Exact","309 WOODLAKE DR, BRIGHTON, MI, 48116",23555691,"R"
164935,"309 YARMOUTH DR","COLUMBIA","SC",29210,34.0555540070001,-81.143085565,435,"309 YARMOUTH DR, COLUMBIA, SC, 29210","Match","Exact","309 YARMOUTH DR, COLUMBIA, SC, 29210",70049929,"R"
164936,"309 YOAKUM PARKWAY-706","ALEXANDRIA","VA",22304,38.80890636,-77.13923835,436,"309 YOAKUM PARKWAY-706, ALEXANDRIA, VA, 22304","Match","Non_Exact","309 YOAKUM PKWY, ALEXANDRIA, VA, 22304",75984990,"R"
164937,"309 YOAKUM PKWY APT 1014","ALEXANDRIA","VA",22304,38.80890636,-77.13923835,437,"309 YOAKUM PKWY APT 1014, ALEXANDRIA, VA, 22304","Match","Exact","309 YOAKUM PKWY, ALEXANDRIA, VA, 22304",75984990,"R"
164938,"309-13 ARCH STREET 305","PHILADELPHIA","PA",11906,39.9522024120001,-75.1453907809999,438,"309-13 ARCH STREET 305, PHILADELPHIA, PA, 11906","Match","Non_Exact","309 ARCH ST, PHILADELPHIA, PA, 19106",647566383,"R"
164939,"309-311 SOUTH 43RD STREET","PHILADELPHIA","PA",19104,39.9522567590001,-75.209268325,439,"309-311 SOUTH 43RD STREET, PHILADELPHIA, PA, 19104","Match","Exact","309 S 43RD ST, PHILADELPHIA, PA, 19104",131403847,"L"
164940,"309","MONROEVILLE","PA",15146,NA,NA,440,"309, MONROEVILLE, PA, 15146","No_Match",NA,NA,NA,NA
164941,"3090 42ND TERRACE SOUTHWEST","NAPLES","FL",34116,26.172484986,-81.692236559,441,"3090 42ND TERRACE SOUTHWEST, NAPLES, FL, 34116","Match","Exact","3090 42ND TER SW, NAPLES, FL, 34116",115141115,"R"
164942,"3090 ADMIRAL AVE","SAN DIEGO","CA",92123,32.7993638360001,-117.129656802,442,"3090 ADMIRAL AVE, SAN DIEGO, CA, 92123","Match","Exact","3090 ADMIRAL AVE, SAN DIEGO, CA, 92123",195321392,"L"
164943,"3090 ALT 19 N","PALM HARBOR","FL",34683,NA,NA,443,"3090 ALT 19 N, PALM HARBOR, FL, 34683","No_Match",NA,NA,NA,NA
164944,"3090 CALVERT COURT","CAMARILLO","CA",93012,34.2493639910001,-118.885850264,444,"3090 CALVERT COURT, CAMARILLO, CA, 93012","Match","Exact","3090 CALVERT CT, CAMARILLO, CA, 93012",110004603,"R"
164945,"3090 EL CERRITO PLAZA SUITE 199","EL CERRITO","CA",94530,NA,NA,445,"3090 EL CERRITO PLAZA SUITE 199, EL CERRITO, CA, 94530","No_Match",NA,NA,NA,NA
164946,"3090 FOLSOM RD","MIMS","FM",32754,NA,NA,446,"3090 FOLSOM RD, MIMS, FM, 32754","No_Match",NA,NA,NA,NA
164947,"3090 GLASCOCK ST APT 303","OAKLAND","CA",94601,37.7708051390001,-122.230902488,447,"3090 GLASCOCK ST APT 303, OAKLAND, CA, 94601","Match","Exact","3090 GLASCOCK ST, OAKLAND, CA, 94601",125006208,"L"
164948,"3090 GLASCOCK STREET APT 210","OAKLAND","CA",94601,37.7708051390001,-122.230902488,448,"3090 GLASCOCK STREET APT 210, OAKLAND, CA, 94601","Match","Exact","3090 GLASCOCK ST, OAKLAND, CA, 94601",125006208,"L"
164949,"3090 HICKORY HILL WAY","LOMA LINDA","MO",64804,36.985328951,-94.586464866,449,"3090 HICKORY HILL WAY, LOMA LINDA, MO, 64804","Match","Exact","3090 HICKORY HILL WAY, LOMA LINDA, MO, 64804",635792596,"L"
164950,"3090 HOOPERS DELIGHT RD","NEW WINDSOR","MD",21776,39.4783061480001,-77.107769718,450,"3090 HOOPERS DELIGHT RD, NEW WINDSOR, MD, 21776","Match","Exact","3090 HOOPERS DELIGHT RD, NEW WINDSOR, MD, 21776",625742711,"R"
164951,"3090 LAKE PARK DR","JONESBORO","GA",30236,33.5194115080001,-84.2916053229999,451,"3090 LAKE PARK DR, JONESBORO, GA, 30236","Match","Exact","3090 LAKE PARK DR, JONESBORO, GA, 30236",23320906,"L"
164952,"3090 LAKE PARK DRIVE","JONESBORO","GA",30236,33.5194115080001,-84.2916053229999,452,"3090 LAKE PARK DRIVE, JONESBORO, GA, 30236","Match","Exact","3090 LAKE PARK DR, JONESBORO, GA, 30236",23320906,"L"
164953,"3090 N HWY 17","MOUNT PLEASANT","SC",29466,NA,NA,453,"3090 N HWY 17, MOUNT PLEASANT, SC, 29466","Tie",NA,NA,NA,NA
164954,"3090 PAYSON WAY","WELLINGTON","FL",33414,26.6349624210001,-80.1949037269999,454,"3090 PAYSON WAY, WELLINGTON, FL, 33414","Match","Exact","3090 PAYSON WAY, WELLINGTON, FL, 33414",115583976,"L"
164955,"3090 RAILROAD ST SE","ALBANY","OR",97322,44.6128837420001,-123.09733712,455,"3090 RAILROAD ST SE, ALBANY, OR, 97322","Match","Exact","3090 RAILROAD ST SE, ALBANY, OR, 97322",156074485,"R"
164956,"3090 S DECATUR ST","DENVER","CO",80237,39.6606844410001,-105.022820165,456,"3090 S DECATUR ST, DENVER, CO, 80237","Match","Non_Exact","3090 S DECATUR ST, DENVER, CO, 80236",177329672,"L"
164957,"3090 SOUTH JAMAICA COURT SUITE 302","AURORA","CO",80014,39.6606148450001,-104.862305876,457,"3090 SOUTH JAMAICA COURT SUITE 302, AURORA, CO, 80014","Match","Exact","3090 S JAMAICA CT, AURORA, CO, 80014",177516401,"L"
164958,"3090 STATE ROUTE 59","RAVENNA","OH",44266,41.1591052590001,-81.2822619139999,458,"3090 STATE ROUTE 59, RAVENNA, OH, 44266","Match","Exact","3090 STATE RTE 59, RAVENNA, OH, 44266",635757318,"R"
164959,"3090 VOORHIES AVE 4L","BROOKLYN","NY",11235,40.588024757,-73.932823073,459,"3090 VOORHIES AVE 4L, BROOKLYN, NY, 11235","Match","Exact","3090 VOORHIES AVE, BROOKLYN, NY, 11235",59092237,"R"
164960,"30900 RANCHO VIEJO ROAD SUITE 200","SAN JUAN CAPISTRANO","CA",92675,NA,NA,460,"30900 RANCHO VIEJO ROAD SUITE 200, SAN JUAN CAPISTRANO, CA, 92675","No_Match",NA,NA,NA,NA
164961,"30900 THE HORSESHOE","WINTERS","CA",95694,38.5106271970001,-121.997597674,461,"30900 THE HORSESHOE, WINTERS, CA, 95694","Match","Exact","30900 THE HORSESHOE, WINTERS, CA, 95694",67694794,"R"
164962,"30901 BURNUP RD","BLACK RIVER","NY",13612,44.004546426,-75.7550687359999,462,"30901 BURNUP RD, BLACK RIVER, NY, 13612","Match","Exact","30901 BURNUP RD, BLACK RIVER, NY, 13612",154248155,"L"
164963,"30901 SMITHSON VALLEY ROAD","BULVERDE","TX",78163,29.753056096,-98.395598718,463,"30901 SMITHSON VALLEY ROAD, BULVERDE, TX, 78163","Match","Exact","30901 SMITHSON VALLEY RD, BULVERDE, TX, 78163",72259465,"L"
164964,"30901 WIEGMAN ROAD","HAYWARD","CA",94544,37.615514628,-122.061247643,464,"30901 WIEGMAN ROAD, HAYWARD, CA, 94544","Match","Exact","30901 WIEGMAN RD, HAYWARD, CA, 94544",650200478,"L"
164965,"30902 BUCK LN","BULVERDE","TX",78163,29.753640347,-98.444453455,465,"30902 BUCK LN, BULVERDE, TX, 78163","Match","Exact","30902 BUCK LN, BULVERDE, TX, 78163",72253362,"R"
164966,"30902 S CREEK WAY","FULSHEAR","TX",77441,29.6824651320001,-95.906806172,466,"30902 S CREEK WAY, FULSHEAR, TX, 77441","Match","Exact","30902 S CREEK WAY, FULSHEAR, TX, 77441",649816224,"R"
164967,"3091 100 AVE SW","GLADSTONE","ND",58630,46.9629028780001,-102.559352437,467,"3091 100 AVE SW, GLADSTONE, ND, 58630","Match","Exact","3091 100TH AVE SW, GLADSTONE, ND, 58630",199318537,"R"
164968,"3091 BRICKLER ROAD","SPRINGFIELD","IL",62707,39.8475419980001,-89.578045833,468,"3091 BRICKLER ROAD, SPRINGFIELD, IL, 62707","Match","Exact","3091 BRICKLER RD, SPRINGFIELD, IL, 62707",97328279,"R"
164969,"3091 COLLEG PARK DRIVE SUITE 204-23","WOODLANDS","TX",77384,NA,NA,469,"3091 COLLEG PARK DRIVE SUITE 204-23, WOODLANDS, TX, 77384","No_Match",NA,NA,NA,NA
164970,"3091 COLLEGE PARK DRIVE STE 190","THE WOODLANDS","TX",77384,NA,NA,470,"3091 COLLEGE PARK DRIVE STE 190, THE WOODLANDS, TX, 77384","No_Match",NA,NA,NA,NA
164971,"3091 COLONIAL WAY- UNIT C2","ATLANTA","GA",30341,33.8688885970001,-84.282715044,471,"3091 COLONIAL WAY- UNIT C2, ATLANTA, GA, 30341","Match","Non_Exact","3091 COLONIAL WAY, ATLANTA, GA, 30341",642647824,"L"
164972,"3091 DECATUR AVENUE","BRONX","NY",10467,40.8714589210001,-73.878198314,472,"3091 DECATUR AVENUE, BRONX, NY, 10467","Match","Exact","3091 DECATUR AVE, BRONX, NY, 10467",80299110,"L"
164973,"3091 ESPERANZA ST","RIVERSIDE","CA",92504,33.934096191,-117.397980944,473,"3091 ESPERANZA ST, RIVERSIDE, CA, 92504","Match","Exact","3091 ESPERANZA ST, RIVERSIDE, CA, 92504",194743200,"R"
164974,"3091 GREYFIELD TRACE","MARIETTA","NC",30067,NA,NA,474,"3091 GREYFIELD TRACE, MARIETTA, NC, 30067","No_Match",NA,NA,NA,NA
164975,"3091 HWY 11 NORTH","LAUREL","MS",39443,NA,NA,475,"3091 HWY 11 NORTH, LAUREL, MS, 39443","No_Match",NA,NA,NA,NA
164976,"3091 JONES ROAD","ERIEVILLE","NY",13061,42.873114969,-75.722905866,476,"3091 JONES ROAD, ERIEVILLE, NY, 13061","Match","Exact","3091 JONES RD, ERIEVILLE, NY, 13061",46524751,"L"
164977,"3091 MEYERS DR","MUSKEGON","MI",49442,43.2517587300001,-86.166277812,477,"3091 MEYERS DR, MUSKEGON, MI, 49442","Match","Exact","3091 MEYERS DR, MUSKEGON, MI, 49442",77663632,"L"
164978,"3091 NOBLE AVE","SARASOTA","FL",34234,27.3629760220001,-82.5391790909999,478,"3091 NOBLE AVE, SARASOTA, FL, 34234","Match","Exact","3091 NOBLE AVE, SARASOTA, FL, 34234",16347073,"L"
164979,"3091 NORTHRIDE LN","BONIFAY","FL",32425,30.7545636180001,-85.685442082,479,"3091 NORTHRIDE LN, BONIFAY, FL, 32425","Match","Exact","3091 NORTHRIDE LN, BONIFAY, FL, 32425",32660591,"R"
164980,"3091 PLUTO CIRCLE","NORTH FORT MYERS","FL",33903,NA,NA,480,"3091 PLUTO CIRCLE, NORTH FORT MYERS, FL, 33903","No_Match",NA,NA,NA,NA
164981,"3091 PUHALA RISE","HONOLULU","HI",96822,21.311223586,-157.800993597,481,"3091 PUHALA RISE, HONOLULU, HI, 96822","Match","Exact","3091 PUHALA RISE, HONOLULU, HI, 96822",203238186,"R"
164982,"3091 SOUTH HARMONY RD","OREGON","IL",61061,41.9743519740001,-89.412294721,482,"3091 SOUTH HARMONY RD, OREGON, IL, 61061","Match","Exact","3091 S HARMONY RD, OREGON, IL, 61061",52313506,"L"
164983,"30910 NORTH 26TH AVENUE","PHOENIX","AZ",85085,33.7648170570001,-112.114799693,483,"30910 NORTH 26TH AVENUE, PHOENIX, AZ, 85085","Match","Exact","30910 N 26TH AVE, PHOENIX, AZ, 85085",646593766,"R"
164984,"30911 BEL AIRE CIRCLE","WESTLAKE","OH",44145,41.433233468,-81.9622770079999,484,"30911 BEL AIRE CIRCLE, WESTLAKE, OH, 44145","Match","Exact","30911 BEL AIRE CIR, WESTLAKE, OH, 44145",61145020,"L"
164985,"30911 HIGH MEADOW CIRCLE","MAGNOLIA","TX",77355,NA,NA,485,"30911 HIGH MEADOW CIRCLE, MAGNOLIA, TX, 77355","Tie",NA,NA,NA,NA
164986,"3092 AVE EMILIO FAGOT","PONCE","PR",716,18.024156669,-66.599894278,486,"3092 AVE EMILIO FAGOT, PONCE, PR, 716","Match","Exact","3092 AVE EMILIO FAGOT, PONCE, PR, 00716",205163382,"L"
164987,"3092 COVERED BRIDGE LANE","DEKALB","IL",60115,41.9649575760001,-88.7435557269999,487,"3092 COVERED BRIDGE LANE, DEKALB, IL, 60115","Match","Exact","3092 COVERED BRIDGE LN, DEKALB, IL, 60115",52276457,"R"
164988,"3092 EUCLID HEIGHTS BLVD","CLEVELAND HEIGHTS","OH",44118,41.509209776,-81.569572202,488,"3092 EUCLID HEIGHTS BLVD, CLEVELAND HEIGHTS, OH, 44118","Match","Exact","3092 EUCLID HEIGHTS BLVD, CLEVELAND HEIGHTS, OH, 44118",61123231,"R"
164989,"3092 MAPLE LEAF COURT","LITTLE CANADA","MN",55109,45.0353922,-93.057387609,489,"3092 MAPLE LEAF COURT, LITTLE CANADA, MN, 55109","Match","Exact","3092 MAPLE LEAF CT, LITTLE CANADA, MN, 55109",97664857,"L"
164990,"3092 MONARCH PINE DR","PEACHTREE CORNERS","GA",30071,33.9593259800001,-84.201679357,490,"3092 MONARCH PINE DR, PEACHTREE CORNERS, GA, 30071","Match","Exact","3092 MONARCH PINE DR, PEACHTREE CORNERS, GA, 30071",88951605,"R"
164991,"3093 CHERRY STREET","BLACKSHEAR","GA",31516,NA,NA,491,"3093 CHERRY STREET, BLACKSHEAR, GA, 31516","No_Match",NA,NA,NA,NA
164992,"3093 EMERSON STREET SUITE A","PALO ALTO","CA",94306,37.4236810360001,-122.130584389,492,"3093 EMERSON STREET SUITE A, PALO ALTO, CA, 94306","Match","Exact","3093 EMERSON ST, PALO ALTO, CA, 94306",122952301,"L"
164993,"3093 HEATHSTONE COVE","GERMANTOWN","TN",38138,35.0641599200001,-89.780785775,493,"3093 HEATHSTONE COVE, GERMANTOWN, TN, 38138","Match","Exact","3093 HEATHSTONE COVE, GERMANTOWN, TN, 38138",72932866,"R"
164994,"3093 LAKELAND COURT","ARNOLD","MO",63010,38.419278235,-90.353945258,494,"3093 LAKELAND COURT, ARNOLD, MO, 63010","Match","Exact","3093 LAKELAND CT, ARNOLD, MO, 63010",62790473,"L"
164995,"3093 LASSEN STREET","WEST SACRAMENTO","CA",95691,38.5412863830001,-121.530374915,495,"3093 LASSEN STREET, WEST SACRAMENTO, CA, 95691","Match","Exact","3093 LASSEN ST, WEST SACRAMENTO, CA, 95691",627318499,"R"
164996,"3093 MEADOW VIEW AVE","LARGO","FL",33771,27.912748617,-82.75514448,496,"3093 MEADOW VIEW AVE, LARGO, FL, 33771","Match","Exact","3093 MEADOW VIEW AVE, LARGO, FL, 33771",124676732,"L"
164997,"3093 RAINTREE DRIVE","GIBSONIA","PA",15044,40.613945395,-79.9343129379999,497,"3093 RAINTREE DRIVE, GIBSONIA, PA, 15044","Match","Exact","3093 RAINTREE DR, GIBSONIA, PA, 15044",617024891,"L"
164998,"3093 SOUTHWEST BLVD","GROVE CITY","OH",43123,39.8905079720001,-83.084744483,498,"3093 SOUTHWEST BLVD, GROVE CITY, OH, 43123","Match","Exact","3093 SOUTHWEST BLVD, GROVE CITY, OH, 43123",218674920,"L"
164999,"3093 WASHINGTON RD UNIT 16","ATLANTA","GA",30344,33.671152148,-84.461516382,499,"3093 WASHINGTON RD UNIT 16, ATLANTA, GA, 30344","Match","Exact","3093 WASHINGTON RD, ATLANTA, GA, 30344",643289966,"R"
165000,"30937 RIVERTON LN","TEMECULA","CA",92591,33.5390176770001,-117.109818345,500,"30937 RIVERTON LN, TEMECULA, CA, 92591","Match","Exact","30937 RIVERTON LN, TEMECULA, CA, 92591",638573952,"R"
