"ID","Address","City","State","Zip","lat","long","id","input_address","match_indicator","match_type","matched_address","tiger_line_id","tiger_side"
288501,"770 FAILE STREE APT E","BRONX","NY",10474,40.815978468,-73.886856698,1,"770 FAILE STREE APT E, BRONX, NY, 10474","Match","Non_Exact","770 FAILE ST, BRONX, NY, 10474",80302641,"R"
288502,"770 FAIRWAY DR APT 2525","COPPELL","TX",75019,32.9542021250001,-96.9487261149999,2,"770 FAIRWAY DR APT 2525, COPPELL, TX, 75019","Match","Exact","770 FAIRWAY DR, COPPELL, TX, 75019",103003504,"R"
288503,"770 FLINTRIDGE AVE","LA CANADA","CA",91101,34.1882443820001,-118.193227839,3,"770 FLINTRIDGE AVE, LA CANADA, CA, 91101","Match","Non_Exact","770 FLINTRIDGE AVE, LA CANADA, CA, 91011",142731675,"L"
288504,"770 GEORGESVILLE RD NUM 28706","COLUMBUS","OH",43228,39.93717166,-83.113163931,4,"770 GEORGESVILLE RD NUM 28706, COLUMBUS, OH, 43228","Match","Exact","770 GEORGESVILLE RD, COLUMBUS, OH, 43228",218646049,"L"
288505,"770 GREAT ELM LANE","HIGHLAND PARK","IL",60035,42.17294867,-87.7958048629999,5,"770 GREAT ELM LANE, HIGHLAND PARK, IL, 60035","Match","Non_Exact","770 GREAT-ELM LN, HIGHLAND PARK, IL, 60035",119651732,"R"
288506,"770 HARRINGTON LAKE DRIVE NORTH","VENICE","FL",34293,27.067012321,-82.3669724119999,6,"770 HARRINGTON LAKE DRIVE NORTH, VENICE, FL, 34293","Match","Exact","770 HARRINGTON LAKE DR N, VENICE, FL, 34293",16380450,"R"
288507,"770 HIGH RIDGE ROAD","STAMFORD","CT",6905,41.0976690420001,-73.547746541,7,"770 HIGH RIDGE ROAD, STAMFORD, CT, 6905","Match","Exact","770 HIGH RIDGE RD, STAMFORD, CT, 06905",650464165,"L"
288508,"770 HOLIDAY DR","BRIGHAM CITY","UT",84302,41.5257020080001,-112.004007358,8,"770 HOLIDAY DR, BRIGHAM CITY, UT, 84302","Match","Exact","770 HOLIDAY DR, BRIGHAM CITY, UT, 84302",153904568,"L"
288509,"770 IMPERIAL DRIVE","BALDWIN","NY",11510,40.631108269,-73.611640939,9,"770 IMPERIAL DRIVE, BALDWIN, NY, 11510","Match","Exact","770 IMPERIAL DR, BALDWIN, NY, 11510",147637763,"R"
288510,"770 L  STREET SUITE 950","SACRAMENTO","CA",95814,38.578930072,-121.497520695,10,"770 L  STREET SUITE 950, SACRAMENTO, CA, 95814","Match","Exact","770 L ST, SACRAMENTO, CA, 95814",133421518,"R"
288511,"770 L STREET - SUITE 950","SACRAMENTO","CA",95814,38.578930072,-121.497520695,11,"770 L STREET - SUITE 950, SACRAMENTO, CA, 95814","Match","Exact","770 L ST, SACRAMENTO, CA, 95814",133421518,"R"
288512,"770 LEFFERTS AVE SUITE B3R","BROOKLYN","NY",11203,40.6632963550001,-73.935543889,12,"770 LEFFERTS AVE SUITE B3R, BROOKLYN, NY, 11203","Match","Exact","770 LEFFERTS AVE, BROOKLYN, NY, 11203",59079898,"R"
288513,"770 LIBERTY COMMONS DR NW","ATLANTA","GA",30314,33.75616118,-84.4142543419999,13,"770 LIBERTY COMMONS DR NW, ATLANTA, GA, 30314","Match","Exact","770 LIBERTY COMMONS DR NW, ATLANTA, GA, 30314",647324975,"L"
288514,"770 MAIN","SANFORD","CO",81151,37.2571529950001,-105.905533457,14,"770 MAIN, SANFORD, CO, 81151","Match","Non_Exact","770 MAIN ST, SANFORD, CO, 81151",104202938,"R"
288515,"770 MAPLE STREET SUITE 517","FLORENCE","OR",97439,43.9734226620001,-124.106164459,15,"770 MAPLE STREET SUITE 517, FLORENCE, OR, 97439","Match","Exact","770 MAPLE ST, FLORENCE, OR, 97439",178139434,"L"
288516,"770 MARKET ST 2012","FARMINGTON","MO",63640,37.7914879320001,-90.437687473,16,"770 MARKET ST 2012, FARMINGTON, MO, 63640","Match","Exact","770 MARKET ST, FARMINGTON, MO, 63640",62401858,"R"
288517,"770 N CHURCH RD STE G","ELMHURST","IL",60126,41.9250570130001,-87.953505066,17,"770 N CHURCH RD STE G, ELMHURST, IL, 60126","Match","Exact","770 CHURCH RD, ELMHURST, IL, 60126",112544438,"L"
288518,"770 N COTNER BLVD SUITE 410","LINCOLN","NE",68505,40.8205212120001,-96.635467625,18,"770 N COTNER BLVD SUITE 410, LINCOLN, NE, 68505","Match","Non_Exact","770 N COTNER BLVD, LINCOLN, NE, 68505",640124324,"R"
288519,"770 N COUNTRY CLUB ROAD","TUCSON","AZ",85716,32.2314503920001,-110.926713273,19,"770 N COUNTRY CLUB ROAD, TUCSON, AZ, 85716","Match","Exact","770 N COUNTRY CLUB RD, TUCSON, AZ, 85716",121174190,"R"
288520,"770 N ELDRIDGE PKWY APT 106","HOUSTON","TX",77079,29.7772283350001,-95.618281308,20,"770 N ELDRIDGE PKWY APT 106, HOUSTON, TX, 77079","Match","Non_Exact","770 N ELDRIDGE PKWY, HOUSTON, TX, 77079",96629257,"R"
288521,"770 N ELDRIDGE PKWY","HOUSTON","TX",77079,29.7772283350001,-95.618281308,21,"770 N ELDRIDGE PKWY, HOUSTON, TX, 77079","Match","Exact","770 N ELDRIDGE PKWY, HOUSTON, TX, 77079",96629257,"R"
288522,"770 N LASALLE ST   STE 400","CHICAGO","IL",60654,NA,NA,22,"770 N LASALLE ST   STE 400, CHICAGO, IL, 60654","No_Match",NA,NA,NA,NA
288523,"770 N MAIN","JOSHUA","TX",76058,32.472440555,-97.3878494429999,23,"770 N MAIN, JOSHUA, TX, 76058","Match","Non_Exact","770 N MAIN ST, JOSHUA, TX, 76058",614834189,"L"
288524,"770 NE 125TH STREET","NORTH MIAMI","FL",33161,25.8904199150001,-80.183039257,24,"770 NE 125TH STREET, NORTH MIAMI, FL, 33161","Match","Exact","770 NE 125TH ST, NORTH MIAMI, FL, 33161",116034515,"R"
288525,"770 NORTH LASALLE DR SUITE 405","CHICAGO","IL",60654,41.896328064,-87.632785493,25,"770 NORTH LASALLE DR SUITE 405, CHICAGO, IL, 60654","Match","Non_Exact","770 N LA SALLE DR, CHICAGO, IL, 60654",605074319,"L"
288526,"770 OPA LOCKA BLVD","OPA LOCKA","FL",33054,25.9000194130001,-80.249725796,26,"770 OPA LOCKA BLVD, OPA LOCKA, FL, 33054","Match","Exact","770 OPA LOCKA BLVD, OPA LOCKA, FL, 33054",116032211,"R"
288527,"770 PAWTUCKET DRIVE","WESTFIELD","IN",46074,40.0109748300001,-86.1721412539999,27,"770 PAWTUCKET DRIVE, WESTFIELD, IN, 46074","Match","Exact","770 PAWTUCKET DR, WESTFIELD, IN, 46074",29339075,"R"
288528,"770 RIVER ROAD UNIT 277","EDGEWATER","NJ",7020,40.8220755200001,-73.9764164549999,28,"770 RIVER ROAD UNIT 277, EDGEWATER, NJ, 7020","Match","Exact","770 RIVER RD, EDGEWATER, NJ, 07020",641166551,"L"
288529,"770 S 100 W","WELLSVILLE","UT",84339,41.6227757500001,-111.937631939,29,"770 S 100 W, WELLSVILLE, UT, 84339","Match","Exact","770 100 W, WELLSVILLE, UT, 84339",155096799,"R"
288530,"770 S MAPLE ST","SISTERS","OR",97759,44.2854151600001,-121.54122123,30,"770 S MAPLE ST, SISTERS, OR, 97759","Match","Exact","770 S MAPLE ST, SISTERS, OR, 97759",611085315,"L"
288531,"770 SAINT MARKS AVENUE APARTMENT 6F","BROOKLYN","NY",11216,40.6750745950001,-73.9477099229999,31,"770 SAINT MARKS AVENUE APARTMENT 6F, BROOKLYN, NY, 11216","Match","Exact","770 ST MARKS AVE, BROOKLYN, NY, 11216",59079419,"R"
288532,"770 SAINT MARKS AVENUE APT 1A","BROOKLYN","NY",11216,40.6750745950001,-73.9477099229999,32,"770 SAINT MARKS AVENUE APT 1A, BROOKLYN, NY, 11216","Match","Exact","770 ST MARKS AVE, BROOKLYN, NY, 11216",59079419,"R"
288533,"770 SALEM STREET","MALDEN","MA",2148,42.4338936820001,-71.043103537,33,"770 SALEM STREET, MALDEN, MA, 2148","Match","Exact","770 SALEM ST, MALDEN, MA, 02148",86872950,"L"
288534,"770 SE 2ND AVE B116","DEERFIELD BEACH","FL",33441,NA,NA,34,"770 SE 2ND AVE B116, DEERFIELD BEACH, FL, 33441","Tie",NA,NA,NA,NA
288535,"770 SOUTH 13 STREET-8715","BOISE","ID",83707,NA,NA,35,"770 SOUTH 13 STREET-8715, BOISE, ID, 83707","No_Match",NA,NA,NA,NA
288536,"770 SOUTH 61ST TERRACE","HOLLYWOOD","FL",33023,26.004056602,-80.209730286,36,"770 SOUTH 61ST TERRACE, HOLLYWOOD, FL, 33023","Match","Non_Exact","770 S 61ST AVE, HOLLYWOOD, FL, 33023",114732134,"R"
288537,"770 SOUTH MILITARY TRAIL SUITE N","WEST PALM BEACH","FL",33415,26.6658301900001,-80.112448979,37,"770 SOUTH MILITARY TRAIL SUITE N, WEST PALM BEACH, FL, 33415","Match","Exact","770 S MILITARY TRL, WEST PALM BEACH, FL, 33415",115272601,"L"
288538,"770 SUGAR CAMP RD","SHINNSTON","WV",26431,39.358594286,-80.228217135,38,"770 SUGAR CAMP RD, SHINNSTON, WV, 26431","Match","Exact","770 SUGAR CAMP RD, SHINNSTON, WV, 26431",605620597,"R"
288539,"770 SUNSHINE RD","TOCCOA","GA",30577,NA,NA,39,"770 SUNSHINE RD, TOCCOA, GA, 30577","No_Match",NA,NA,NA,NA
288540,"770 UNION CHURCH RD","TOWNSEND","DE",19734,39.3969401860001,-75.6385792459999,40,"770 UNION CHURCH RD, TOWNSEND, DE, 19734","Match","Exact","770 UNION CHURCH RD, TOWNSEND, DE, 19734",187280166,"R"
288541,"770 VIOLET AVENUE","COPLEY","OH",44321,NA,NA,41,"770 VIOLET AVENUE, COPLEY, OH, 44321","No_Match",NA,NA,NA,NA
288542,"770 W SAN PEDRO ST","GILBERT","AZ",85233,33.3697973640001,-111.806084255,42,"770 W SAN PEDRO ST, GILBERT, AZ, 85233","Match","Exact","770 W SAN PEDRO ST, GILBERT, AZ, 85233",128783307,"R"
288543,"770 WASHINGTON STREET SUITE 6","HOLLISTON","MA",1746,42.1997229,-71.429827915,43,"770 WASHINGTON STREET SUITE 6, HOLLISTON, MA, 1746","Match","Exact","770 WASHINGTON ST, HOLLISTON, MA, 01746",86850032,"L"
288544,"770 WEST GLADYS AVE APT 305","CHICAGO","IL",60661,41.8773234400001,-87.64678672,44,"770 WEST GLADYS AVE APT 305, CHICAGO, IL, 60661","Match","Exact","770 W GLADYS AVE, CHICAGO, IL, 60661",605844862,"R"
288545,"770 WEST STREET","LUDLOW","MA",1056,42.21440791,-72.4946994539999,45,"770 WEST STREET, LUDLOW, MA, 1056","Match","Exact","770 WEST ST, LUDLOW, MA, 01056",4025376,"R"
288546,"770 WILDCAT DRIVE","CLINTON","IN",47842,39.6883627170001,-87.413101808,46,"770 WILDCAT DRIVE, CLINTON, IN, 47842","Match","Exact","770 WILDCAT DR, CLINTON, IN, 47842",66505803,"L"
288547,"7700 129TH STREET","SEBASTIAN","FL",32958,NA,NA,47,"7700 129TH STREET, SEBASTIAN, FL, 32958","No_Match",NA,NA,NA,NA
288548,"7700 188TH LN NW","NOWTHEN","MN",55303,45.31126929,-93.461613003,48,"7700 188TH LN NW, NOWTHEN, MN, 55303","Match","Exact","7700 188TH LN NW, NOWTHEN, MN, 55303",97546268,"R"
288549,"7700 36TH AVE NORTH / 118","CRYSTAL","MN",55427,45.0218917180001,-93.377638873,49,"7700 36TH AVE NORTH / 118, CRYSTAL, MN, 55427","Match","Exact","7700 36TH AVE N, CRYSTAL, MN, 55427",43728189,"R"
288550,"7700 AMPERE AVE","NORTH HOLLYWOOD","CA",91605,34.210430957,-118.418505528,50,"7700 AMPERE AVE, NORTH HOLLYWOOD, CA, 91605","Match","Exact","7700 AMPERE AVE, N HOLLYWOOD, CA, 91605",141816936,"R"
288551,"7700 AUBURN BOULEVARD","CITRUS HEIGHT","CA",95610,38.706063397,-121.290388326,51,"7700 AUBURN BOULEVARD, CITRUS HEIGHT, CA, 95610","Match","Non_Exact","7700 AUBURN BLVD, CITRUS HEIGHTS, CA, 95610",133440265,"R"
288552,"7700 BROADWAY ST  STE 104 BOX 232","SAN ANTONIO","TX",78209,29.50052844,-98.466529929,52,"7700 BROADWAY ST  STE 104 BOX 232, SAN ANTONIO, TX, 78209","Match","Non_Exact","7700 BROADWAY, SAN ANTONIO, TX, 78209",101497895,"R"
288553,"7700 DAVIS DRIVE","SAINT LOUIS","MO",63105,38.6405866750001,-90.335412783,53,"7700 DAVIS DRIVE, SAINT LOUIS, MO, 63105","Match","Exact","7700 DAVIS DR, SAINT LOUIS, MO, 63105",100135671,"L"
288554,"7700 E ACADEMY BLVD UNIT 305","DENVER","CO",80230,39.7188683790001,-104.897204846,54,"7700 E ACADEMY BLVD UNIT 305, DENVER, CO, 80230","Match","Exact","7700 ACADEMY BLVD, DENVER, CO, 80230",177628792,"R"
288555,"7700 E EAGLE DRIVE STE 203","BIXBY","OK",74008,35.9990397080001,-95.896676704,55,"7700 E EAGLE DRIVE STE 203, BIXBY, OK, 74008","Match","Non_Exact","7700 E EAGLE DR, BIXBY, OK, 74008",166484450,"R"
288556,"7700 E PRINCESS DR UNIT 14","SCOTTSDALE","AZ",85255,33.644358239,-111.913483655,56,"7700 E PRINCESS DR UNIT 14, SCOTTSDALE, AZ, 85255","Match","Non_Exact","7700 E PRINCESS DR, SCOTTSDALE, AZ, 85255",128937551,"R"
288557,"7700 EAST ZAYANTE ROAD","FELTON","CA",95018,37.0663938020001,-122.057493328,57,"7700 EAST ZAYANTE ROAD, FELTON, CA, 95018","Match","Exact","7700 E ZAYANTE RD, FELTON, CA, 95018",637112721,"R"
288558,"7700 FALLS OF NEUSE ROAD SUITE 200","RALEIGH","NC",27615,35.889156901,-78.627476858,58,"7700 FALLS OF NEUSE ROAD SUITE 200, RALEIGH, NC, 27615","Match","Exact","7700 FALLS OF NEUSE RD, RALEIGH, NC, 27615",72538074,"R"
288559,"7700 FAYVER AVE","NORFOLK","VA",23505,36.91767838,-76.276970733,59,"7700 FAYVER AVE, NORFOLK, VA, 23505","Match","Exact","7700 FAYVER AVE, NORFOLK, VA, 23505",122132630,"R"
288560,"7700 FORSYTH BLVD SUITE 1800","SAINT LOUIS","MO",63105,38.649929409,-90.334307779,60,"7700 FORSYTH BLVD SUITE 1800, SAINT LOUIS, MO, 63105","Match","Exact","7700 FORSYTH BLVD, SAINT LOUIS, MO, 63105",617527011,"L"
288561,"7700 HUDSON CHAPEL RD","CATAWBA","NC",28609,35.6959862800001,-80.9981503019999,61,"7700 HUDSON CHAPEL RD, CATAWBA, NC, 28609","Match","Exact","7700 HUDSON CHAPEL RD, CATAWBA, NC, 28609",45932110,"L"
288562,"7700 IRVINE CENTER DR STE 750","IRVINE","CA",92618,NA,NA,62,"7700 IRVINE CENTER DR STE 750, IRVINE, CA, 92618","No_Match",NA,NA,NA,NA
288563,"7700 IRVINE CENTER DRIVE STE 750","IRVINE","CA",92618,NA,NA,63,"7700 IRVINE CENTER DRIVE STE 750, IRVINE, CA, 92618","No_Match",NA,NA,NA,NA
288564,"7700 LAMPSON AVENUE UNIT 34","GARDEN GROVE","CA",92841,33.7810699340001,-117.997369024,64,"7700 LAMPSON AVENUE UNIT 34, GARDEN GROVE, CA, 92841","Match","Exact","7700 LAMPSON AVE, GARDEN GROVE, CA, 92841",144251962,"R"
288565,"7700 LARCHWOOD LN","WOODRIDGE","IL",60517,41.7477675690001,-88.042477747,65,"7700 LARCHWOOD LN, WOODRIDGE, IL, 60517","Match","Exact","7700 LARCHWOOD LN, WOODRIDGE, IL, 60517",112539254,"R"
288566,"7700 LEESBURG PIKE SUITE 229","FALLS CHURCH","VA",22043,38.907131592,-77.209233194,66,"7700 LEESBURG PIKE SUITE 229, FALLS CHURCH, VA, 22043","Match","Exact","7700 LEESBURG PIKE, FALLS CHURCH, VA, 22043",639278891,"R"
288567,"7700 MAIN STREET SUITE 100","HOUSTON","TX",77030,29.6968615320001,-95.4124949059999,67,"7700 MAIN STREET SUITE 100, HOUSTON, TX, 77030","Match","Exact","7700 MAIN ST, HOUSTON, TX, 77030",96063993,"R"
288568,"7700 MANOR DRIVE","HARRISBURG","PA",17112,40.3396229260001,-76.7274651829999,68,"7700 MANOR DRIVE, HARRISBURG, PA, 17112","Match","Exact","7700 MANOR DR, HARRISBURG, PA, 17112",70824397,"L"
288569,"7700 N 37TH ST","TERRE HAUTE","IN",47805,39.5592775260001,-87.360010153,69,"7700 N 37TH ST, TERRE HAUTE, IN, 47805","Match","Exact","7700 N 37TH ST, TERRE HAUTE, IN, 47805",27112148,"R"
288570,"7700 N KENDALL DRIVE STE 407","MIAMI","FL",33156,25.688434176,-80.3206694089999,70,"7700 N KENDALL DRIVE STE 407, MIAMI, FL, 33156","Match","Non_Exact","7700 N KENDALL DR, MIAMI, FL, 33156",115984426,"L"
288571,"7700 N KENDALL DRIVE SUITE 607","MIAMI","FL",33156,25.688434176,-80.3206694089999,71,"7700 N KENDALL DRIVE SUITE 607, MIAMI, FL, 33156","Match","Non_Exact","7700 N KENDALL DR, MIAMI, FL, 33156",115984426,"L"
288572,"7700 NORTH KENDALL DRIVE 610","MIAMI","FL",33156,25.688434268,-80.3206619059999,72,"7700 NORTH KENDALL DRIVE 610, MIAMI, FL, 33156","Match","Exact","7700 N KENDALL DR, MIAMI, FL, 33156",115984426,"L"
288573,"7700 OLD BRANCE AVE STE E-103","CLINTON","MD",20735,NA,NA,73,"7700 OLD BRANCE AVE STE E-103, CLINTON, MD, 20735","No_Match",NA,NA,NA,NA
288574,"7700 OLD CARRIAGE COURT","SHAKOPEE","MN",55379,NA,NA,74,"7700 OLD CARRIAGE COURT, SHAKOPEE, MN, 55379","No_Match",NA,NA,NA,NA
288575,"7700 OLD RECEIVER RD","FREDERICK","MD",21702,39.444220581,-77.4674184839999,75,"7700 OLD RECEIVER RD, FREDERICK, MD, 21702","Match","Exact","7700 OLD RECEIVER RD, FREDERICK, MD, 21702",60748757,"L"
288576,"7700 PORTLAND AVENUE","WAUWATOSA","WI",53213,43.0415929540001,-88.0089123979999,76,"7700 PORTLAND AVENUE, WAUWATOSA, WI, 53213","Match","Exact","7700 PORTLAND AVE, WAUWATOSA, WI, 53213",612345243,"R"
288577,"7700 RAINIER AVE SOUTH","SEATTLE","WA",98118,47.533496416,-122.269977822,77,"7700 RAINIER AVE SOUTH, SEATTLE, WA, 98118","Match","Exact","7700 RAINIER AVE S, SEATTLE, WA, 98118",186995071,"L"
288578,"7700 S  WATSON ROAD","ARLINGTON","TX",76002,NA,NA,78,"7700 S  WATSON ROAD, ARLINGTON, TX, 76002","No_Match",NA,NA,NA,NA
288579,"7700 SANDLEWOOD DR","OKLAHOMA CITY","OK",73132,35.549141177,-97.659376408,79,"7700 SANDLEWOOD DR, OKLAHOMA CITY, OK, 73132","Match","Exact","7700 SANDLEWOOD DR, OKLAHOMA CITY, OK, 73132",100438274,"R"
288580,"7700 SECOND AVENUE SUITE 608","DETROIT","MI",48202,42.371721295,-83.0780212129999,80,"7700 SECOND AVENUE SUITE 608, DETROIT, MI, 48202","Match","Exact","7700 2ND AVE, DETROIT, MI, 48202",95475533,"R"
288581,"7700 STENTON AVENUE APT 205","Philadelphia","PA",19118,40.0743070460001,-75.191162596,81,"7700 STENTON AVENUE APT 205, Philadelphia, PA, 19118","Match","Exact","7700 STENTON AVE, PHILADELPHIA, PA, 19118",131394063,"L"
288582,"7700 SUNSET BLVD SUITE 200","LOS ANGELES","CA",90046,34.098046734,-118.357174782,82,"7700 SUNSET BLVD SUITE 200, LOS ANGELES, CA, 90046","Match","Non_Exact","7700 W SUNSET BLVD, LOS ANGELES, CA, 90046",141598352,"L"
288583,"7700 SW 173RD ST","MIAMI","FL",33157,25.610335509,-80.316327663,83,"7700 SW 173RD ST, MIAMI, FL, 33157","Match","Exact","7700 SW 173RD ST, MIAMI, FL, 33157",115987203,"L"
288584,"7700 TIMBERCREEK CRK 4","PORTAGE","MI",49024,42.2059240140001,-85.598046967,84,"7700 TIMBERCREEK CRK 4, PORTAGE, MI, 49024","Match","Non_Exact","7700 TIMBERCREEK CT, PORTAGE, MI, 49024",12230968,"R"
288585,"7700 TOPANGA CYN BLVD UNIT 702","CANOGA PARK","CA",91304,34.2099218330001,-118.605868095,85,"7700 TOPANGA CYN BLVD UNIT 702, CANOGA PARK, CA, 91304","Match","Exact","7700 TOPANGA CANYON BLVD, CANOGA PARK, CA, 91304",141533180,"R"
288586,"7700 W 750 N","SHIPSHEWANA","IN",46565,41.7487847090001,-85.5771484049999,86,"7700 W 750 N, SHIPSHEWANA, IN, 46565","Match","Exact","7700 W 750 N, SHIPSHEWANA, IN, 46565",8185289,"L"
288587,"7700 W REFLECTION ROAD","WICHITA","KS",67205,37.7266997720001,-97.431434116,87,"7700 W REFLECTION ROAD, WICHITA, KS, 67205","Match","Exact","7700 W REFLECTION RD, WICHITA, KS, 67205",115669300,"L"
288588,"7700 WALSH LANE","SMARTSVILLE","CA",95977,39.184632595,-121.31914631,88,"7700 WALSH LANE, SMARTSVILLE, CA, 95977","Match","Exact","7700 WALSH LN, SMARTSVILLE, CA, 95977",611586621,"L"
288589,"7700 WEDD ST SUITE 1100","OVERLAND PARK","KS",66204,38.9901768390001,-94.70297737,89,"7700 WEDD ST SUITE 1100, OVERLAND PARK, KS, 66204","Match","Exact","7700 WEDD ST, OVERLAND PARK, KS, 66204",91309701,"R"
288590,"7700 WEDD STREET SUIT 8","OVERLAND PARK","KS",66204,38.9901768390001,-94.70297737,90,"7700 WEDD STREET SUIT 8, OVERLAND PARK, KS, 66204","Match","Exact","7700 WEDD ST, OVERLAND PARK, KS, 66204",91309701,"R"
288591,"7700 WILLOWCHASE BLVD APT 530","HOUSTON","TX",77070,29.967969512,-95.5444279339999,91,"7700 WILLOWCHASE BLVD APT 530, HOUSTON, TX, 77070","Match","Non_Exact","7700 WILLOW CHASE BLVD, HOUSTON, TX, 77070",96658538,"L"
288592,"7700 WOODBINE DRIVE RM A","NEW ORLEANS","LA",70126,30.037422986,-90.002557909,92,"7700 WOODBINE DRIVE RM A, NEW ORLEANS, LA, 70126","Match","Exact","7700 WOODBINE DR, NEW ORLEANS, LA, 70126",191720432,"L"
288593,"7701 AIRLINE DRIVE","METARIE","LA",70003,29.97837438,-90.219329581,93,"7701 AIRLINE DRIVE, METARIE, LA, 70003","Match","Non_Exact","7701 AIRLINE DR, METAIRIE, LA, 70003",93496027,"R"
288594,"7701 AURORA AVE","URBANDALE","IA",50322,41.6365929990001,-93.7240785669999,94,"7701 AURORA AVE, URBANDALE, IA, 50322","Match","Exact","7701 AURORA AVE, URBANDALE, IA, 50322",65855978,"R"
288595,"7701 BELFAST STREET","NEW ORLEANS","LA",70125,29.95548129,-90.1148470699999,95,"7701 BELFAST STREET, NEW ORLEANS, LA, 70125","Match","Exact","7701 BELFAST ST, NEW ORLEANS, LA, 70125",191701171,"R"
288596,"7701 BERCHMAN DRIVE","HUBER HEIGHTS","OH",45424,39.8651584080001,-84.1238838259999,96,"7701 BERCHMAN DRIVE, HUBER HEIGHTS, OH, 45424","Match","Exact","7701 BERCHMAN DR, HUBER HEIGHTS, OH, 45424",143629911,"L"
288597,"7701 BOGART DRIVE","NORTH RICHLAND HILLS","TX",76180,32.8566570850001,-97.216809724,97,"7701 BOGART DRIVE, NORTH RICHLAND HILLS, TX, 76180","Match","Exact","7701 BOGART DR, NORTH RICHLAND HILLS, TX, 76180",102106696,"L"
288598,"7701 BRADLEY BLVD","BETHESDA","MD",20817,39.012215069,-77.15611475,98,"7701 BRADLEY BLVD, BETHESDA, MD, 20817","Match","Exact","7701 BRADLEY BLVD, BETHESDA, MD, 20817",614264163,"R"
288599,"7701 BRIGHTON BLVD","COMMERCE","CO",80022,39.836517062,-104.923929973,99,"7701 BRIGHTON BLVD, COMMERCE, CO, 80022","Match","Non_Exact","7701 BRIGHTON BLVD, COMMERCE CITY, CO, 80022",615495245,"L"
288600,"7701 CLAYTON ROAD","ST LOUIS","MO",63117,38.6377589300001,-90.335947042,100,"7701 CLAYTON ROAD, ST LOUIS, MO, 63117","Match","Exact","7701 CLAYTON RD, SAINT LOUIS, MO, 63117",100135676,"R"
288601,"7701 FELSPAR DRIVE","AUSTIN","TX",78739,30.191026326,-97.915569272,101,"7701 FELSPAR DRIVE, AUSTIN, TX, 78739","Match","Exact","7701 FELSPAR DR, AUSTIN, TX, 78739",624649702,"L"
288602,"7701 FORSYTH BLVD STE 900","ST LOUIS","MO",63105,38.649940138,-90.334304882,102,"7701 FORSYTH BLVD STE 900, ST LOUIS, MO, 63105","Match","Exact","7701 FORSYTH BLVD, SAINT LOUIS, MO, 63105",617527011,"R"
288603,"7701 FORSYTH BLVD SUITE 800","SAINT LOUIS","MO",63105,38.649940138,-90.334304882,103,"7701 FORSYTH BLVD SUITE 800, SAINT LOUIS, MO, 63105","Match","Exact","7701 FORSYTH BLVD, SAINT LOUIS, MO, 63105",617527011,"R"
288604,"7701 FRANCES DR","ALEXANDRIA","VA",22306,38.749592836,-77.077789437,104,"7701 FRANCES DR, ALEXANDRIA, VA, 22306","Match","Exact","7701 FRANCES DR, ALEXANDRIA, VA, 22306",75990770,"L"
288605,"7701 HEMPSTON CIRCLE","MAINEVILLE","OH",45039,39.319632359,-84.205858403,105,"7701 HEMPSTON CIRCLE, MAINEVILLE, OH, 45039","Match","Exact","7701 HEMPSTON CIR, MAINEVILLE, OH, 45039",648312728,"L"
288606,"7701 HUMIE OLIVE ROAD","APEX","NC",27502,NA,NA,106,"7701 HUMIE OLIVE ROAD, APEX, NC, 27502","No_Match",NA,NA,NA,NA
288607,"7701 KALAMAZOO AVE SE","BYRON CENTER","MI",49315,42.824305646,-85.624687109,107,"7701 KALAMAZOO AVE SE, BYRON CENTER, MI, 49315","Match","Exact","7701 KALAMAZOO AVE SE, BYRON CENTER, MI, 49315",12504003,"R"
288608,"7701 LAWNDALE LANE NORTH","MAPLE GROVE","MN",55311,45.0955234620001,-93.502146849,108,"7701 LAWNDALE LANE NORTH, MAPLE GROVE, MN, 55311","Match","Non_Exact","7701 LAWNDALE LN, MAPLE GROVE, MN, 55311",640320024,"L"
288609,"7701 LINDBERGH BLVD APT 807","PHILADELPHIA","PA",19153,39.9038277820001,-75.242543005,109,"7701 LINDBERGH BLVD APT 807, PHILADELPHIA, PA, 19153","Match","Exact","7701 LINDBERGH BLVD, PHILADELPHIA, PA, 19153",628805215,"R"
288610,"7701 LONDON COURT","AMARILLO","TX",79119,35.155012336,-101.928027172,110,"7701 LONDON COURT, AMARILLO, TX, 79119","Match","Exact","7701 LONDON CT, AMARILLO, TX, 79119",182664531,"R"
288611,"7701 MCCARRON WAY","CHARLOTTE","NC",28215,35.246927493,-80.687024677,111,"7701 MCCARRON WAY, CHARLOTTE, NC, 28215","Match","Exact","7701 MCCARRON WAY, CHARLOTTE, NC, 28215",70542892,"L"
288612,"7701 PEEBLY ROAD","NEWALLA","OK",74857,35.390236284,-97.212916964,112,"7701 PEEBLY ROAD, NEWALLA, OK, 74857","Match","Non_Exact","7701 S PEEBLY RD, NEWALLA, OK, 74857",606216263,"R"
288613,"7701 PENN BELT DRIVE","FORESTVILLE","MD",20747,38.8364104130001,-76.875723492,113,"7701 PENN BELT DRIVE, FORESTVILLE, MD, 20747","Match","Exact","7701 PENN BELT DR, FORESTVILLE, MD, 20747",76382743,"R"
288614,"7701 PO BOX","ATLANTA","GA",30357,NA,NA,114,"7701 PO BOX, ATLANTA, GA, 30357","No_Match",NA,NA,NA,NA
288615,"7701 POLARA PL","DERWOOD","MD",20855,39.1364289140001,-77.158156826,115,"7701 POLARA PL, DERWOOD, MD, 20855","Match","Exact","7701 POLARA PL, DERWOOD, MD, 20855",62105193,"L"
288616,"7701 S CHAMPLAIN AVE BSMT","CHICAGO","IL",60619,41.7547257910001,-87.608946616,116,"7701 S CHAMPLAIN AVE BSMT, CHICAGO, IL, 60619","Match","Non_Exact","7701 S CHAMPLAIN AVE, CHICAGO, IL, 60619",111772661,"L"
288617,"7701 S PEEBLY ROAD","NEWALLA","OK",74857,35.3902334140001,-97.212916964,117,"7701 S PEEBLY ROAD, NEWALLA, OK, 74857","Match","Exact","7701 S PEEBLY RD, NEWALLA, OK, 74857",606216263,"R"
288618,"7701 S SEELEY AVE","CHICAGO","IL",60620,41.753717114,-87.6744385919999,118,"7701 S SEELEY AVE, CHICAGO, IL, 60620","Match","Exact","7701 S SEELEY AVE, CHICAGO, IL, 60620",111820649,"L"
288619,"7701 SEVEN MILE LANE","BALTIMORE","MD",21208,39.379317487,-76.709206324,119,"7701 SEVEN MILE LANE, BALTIMORE, MD, 21208","Match","Exact","7701 SEVEN MILE LN, BALTIMORE, MD, 21208",191468105,"R"
288620,"7701 STILL CROSSING ROAD","CHAPEL HILL","NC",27516,35.9644650060001,-79.130419791,120,"7701 STILL CROSSING ROAD, CHAPEL HILL, NC, 27516","Match","Exact","7701 STILL CROSSING RD, CHAPEL HILL, NC, 27516",72403075,"L"
288621,"7701 SW 177 STREET","PALMETTO BAY","FL",33157,25.606537702,-80.316202877,121,"7701 SW 177 STREET, PALMETTO BAY, FL, 33157","Match","Exact","7701 SW 177TH ST, PALMETTO BAY, FL, 33157",116318525,"R"
288622,"7701 SW FRANKS COURT","LAWTON","OK",73505,34.5987216440001,-98.4877805629999,122,"7701 SW FRANKS COURT, LAWTON, OK, 73505","Match","Exact","7701 FRANKS CT, LAWTON, OK, 73505",651908802,"L"
288623,"7701 TELEGRAPH RD","ALEXANDRIA","VA",22315,38.7488753550001,-77.14251508,123,"7701 TELEGRAPH RD, ALEXANDRIA, VA, 22315","Match","Exact","7701 TELEGRAPH RD, ALEXANDRIA, VA, 22315",75985931,"L"
288624,"7701 TRAVERTINE DR   UNIT 405","BALTIMORE","MD",21209,39.387167708,-76.6883125269999,124,"7701 TRAVERTINE DR   UNIT 405, BALTIMORE, MD, 21209","Match","Non_Exact","7701 TRAVERTIME DR, BALTIMORE, MD, 21209",648409765,"R"
288625,"7701 US-51","SOUTHAVEN","MS",38671,NA,NA,125,"7701 US-51, SOUTHAVEN, MS, 38671","No_Match",NA,NA,NA,NA
288626,"7701 USTICK RD SP 59","BOISE","ID",83704,43.6339143260001,-116.278407039,126,"7701 USTICK RD SP 59, BOISE, ID, 83704","Match","Exact","7701 USTICK RD, BOISE, ID, 83704",624475523,"L"
288627,"7701 W 26TH AVENUE UNIT 2","HIALEAH","FL",33016,25.894720267,-80.3361628329999,127,"7701 W 26TH AVENUE UNIT 2, HIALEAH, FL, 33016","Match","Non_Exact","7701 W 26TH AVE, HIALEAH, FL, 33016",116024269,"R"
288628,"7701 W KATHRYN AVE","MILWAUKEE","WI",53218,43.1113450500001,-88.0076299839999,128,"7701 W KATHRYN AVE, MILWAUKEE, WI, 53218","Match","Exact","7701 W KATHRYN AVE, MILWAUKEE, WI, 53218",77726093,"L"
288629,"7701 W PARADISE LANE","PEORIA","AZ",85382,33.6350732600001,-112.224858226,129,"7701 W PARADISE LANE, PEORIA, AZ, 85382","Match","Exact","7701 W PARADISE LN, PEORIA, AZ, 85382",244031246,"L"
288630,"7701 WILSHIRE PLACE   6TH FLOOR","HOUSTON","TX",77040,29.8587972380001,-95.508387053,130,"7701 WILSHIRE PLACE   6TH FLOOR, HOUSTON, TX, 77040","Match","Non_Exact","7701 WILSHIRE PLACE DR, HOUSTON, TX, 77040",96646826,"L"
288631,"7701 WOODMONT AVE STE 1006","BETHESDA","MD",20814,38.9863648940001,-77.096572216,131,"7701 WOODMONT AVE STE 1006, BETHESDA, MD, 20814","Match","Exact","7701 WOODMONT AVE, BETHESDA, MD, 20814",62065849,"R"
288632,"7702 BRAZOS TRL","FAIRBURN","GA",30213,33.5759674390001,-84.641052783,132,"7702 BRAZOS TRL, FAIRBURN, GA, 30213","Match","Exact","7702 BRAZOS TRL, FAIRBURN, GA, 30213",629548405,"L"
288633,"7702 BURNING HILLS DR","HOUSTON","TX",77071,29.6691756450001,-95.512538453,133,"7702 BURNING HILLS DR, HOUSTON, TX, 77071","Match","Exact","7702 BURNING HILLS DR, HOUSTON, TX, 77071",96353864,"R"
288634,"7702 E DOUBLETREE RANCH RD STE 150","SCOTTSDALE","AZ",85258,33.564297384,-111.914481066,134,"7702 E DOUBLETREE RANCH RD STE 150, SCOTTSDALE, AZ, 85258","Match","Non_Exact","7702 E DOUBLETREE RANCH RD, SCOTTSDALE, AZ, 85258",128958856,"L"
288635,"7702 E DOUBLETREE RANCH RD STE 3","SCOTTSDALE","AZ",85258,33.564297384,-111.914481066,135,"7702 E DOUBLETREE RANCH RD STE 3, SCOTTSDALE, AZ, 85258","Match","Non_Exact","7702 E DOUBLETREE RANCH RD, SCOTTSDALE, AZ, 85258",128958856,"L"
288636,"7702 E DOUBLETREE RANCH RD STE 300","SCOTTSDALE","AZ",85258,33.564297384,-111.914481066,136,"7702 E DOUBLETREE RANCH RD STE 300, SCOTTSDALE, AZ, 85258","Match","Non_Exact","7702 E DOUBLETREE RANCH RD, SCOTTSDALE, AZ, 85258",128958856,"L"
288637,"7702 E DOUBLETREE RANCH RD SUITE300","SCOTTSDALE","AZ",85258,33.564297384,-111.914481066,137,"7702 E DOUBLETREE RANCH RD SUITE300, SCOTTSDALE, AZ, 85258","Match","Non_Exact","7702 E DOUBLETREE RANCH RD, SCOTTSDALE, AZ, 85258",128958856,"L"
288638,"7702 HAMILTON SPRING ROAD","BETHESDA","DC",20817,NA,NA,138,"7702 HAMILTON SPRING ROAD, BETHESDA, DC, 20817","No_Match",NA,NA,NA,NA
288639,"7702 HUNTERS POINT DR","SUGAR LAND","TX",77479,29.557761725,-95.671786194,139,"7702 HUNTERS POINT DR, SUGAR LAND, TX, 77479","Match","Exact","7702 HUNTERS POINT DR, SUGAR LAND, TX, 77479",78323908,"R"
288640,"7702 KINCHEON CT","AUSTIN","TX",78749,30.2189556440001,-97.864627749,140,"7702 KINCHEON CT, AUSTIN, TX, 78749","Match","Exact","7702 KINCHEON CT, AUSTIN, TX, 78749",63937504,"R"
288641,"7702 N 39TH AVE","PHOENIX","AZ",85051,33.5502807890001,-112.142911091,141,"7702 N 39TH AVE, PHOENIX, AZ, 85051","Match","Non_Exact","7702 N 39TH AVE, PHOENIX, AZ, 85051",128197263,"L"
288642,"7702 N MARSHFIELD AVE UNIT 2","CHICAGO","IL",60626,42.0213053040001,-87.6719019559999,142,"7702 N MARSHFIELD AVE UNIT 2, CHICAGO, IL, 60626","Match","Non_Exact","7702 N MARSHFIELD AVE, CHICAGO, IL, 60626",111745086,"L"
288643,"7702 N ROME AVE","TAMPA","FL",33604,28.0173055760001,-82.476054523,143,"7702 N ROME AVE, TAMPA, FL, 33604","Match","Non_Exact","7702 N ROME AVE, TAMPA, FL, 33604",104517940,"L"
288644,"7702 NE 145TH AVE","VANCOUVER","WA",98682,45.678024647,-122.523324994,144,"7702 NE 145TH AVE, VANCOUVER, WA, 98682","Match","Exact","7702 NE 145TH AVE, VANCOUVER, WA, 98682",158346790,"L"
288645,"7702 NE 145TH AVENUE","VANCOUVER","WA",98682,45.678024647,-122.523324994,145,"7702 NE 145TH AVENUE, VANCOUVER, WA, 98682","Match","Exact","7702 NE 145TH AVE, VANCOUVER, WA, 98682",158346790,"L"
288646,"7702 OUTERBRIDGE STREET","WESLEY CHAPEL","FL",33545,28.269595006,-82.313525026,146,"7702 OUTERBRIDGE STREET, WESLEY CHAPEL, FL, 33545","Match","Exact","7702 OUTERBRIDGE ST, WESLEY CHAPEL, FL, 33545",624654324,"L"
288647,"7702 ROUND BANK DR","HOUSTON","TX",77064,29.9071958550001,-95.511070973,147,"7702 ROUND BANK DR, HOUSTON, TX, 77064","Match","Exact","7702 ROUND BANK DR, HOUSTON, TX, 77064",96128422,"R"
288648,"7702 S 94TH E AVE","TULSA","OK",74133,36.0518721650001,-95.870877713,148,"7702 S 94TH E AVE, TULSA, OK, 74133","Match","Exact","7702 S 94TH EAST AVE, TULSA, OK, 74133",166504051,"R"
288649,"7702 SOLIMAR CIRCLE","BOCA RATON","FL",33433,26.355742051,-80.1638352259999,149,"7702 SOLIMAR CIRCLE, BOCA RATON, FL, 33433","Match","Exact","7702 SOLIMAR CIR, BOCA RATON, FL, 33433",648403697,"R"
288650,"7702 TIMBERVIEW LOOP","WESLEY CHAPEL","FL",33545,28.267582443,-82.273077068,150,"7702 TIMBERVIEW LOOP, WESLEY CHAPEL, FL, 33545","Match","Exact","7702 TIMBERVIEW LOOP, WESLEY CHAPEL, FL, 33545",640803237,"R"
288651,"7702 W US HIGHWAY 34","LOVELAND","CO",80537,40.4073499620001,-104.96309897,151,"7702 W US HIGHWAY 34, LOVELAND, CO, 80537","Match","Non_Exact","7702 US HWY 34, LOVELAND, CO, 80534",635613590,"R"
288652,"7702 WOODLAND DRIVE STE 175","INDIANAPOLIS","IN",46287,39.889385324,-86.265541442,152,"7702 WOODLAND DRIVE STE 175, INDIANAPOLIS, IN, 46287","Match","Non_Exact","7702 WOODLAND DR, INDIANAPOLIS, IN, 46278",108069454,"R"
288653,"7703 AIRPORT ROAD","MANITO","IL",61546,40.493246952,-89.778767467,153,"7703 AIRPORT ROAD, MANITO, IL, 61546","Match","Exact","7703 AIRPORT RD, MANITO, IL, 61546",608229819,"R"
288654,"7703 BRAMPTON COURT","UPPER MARLBORO","MD",20772,38.7861038680001,-76.831786295,154,"7703 BRAMPTON COURT, UPPER MARLBORO, MD, 20772","Match","Exact","7703 BRAMPTON CT, UPPER MARLBORO, MD, 20772",76416512,"R"
288655,"7703 ENON DR","ROANOKE","VA",24019,37.3527737100001,-79.9580738879999,155,"7703 ENON DR, ROANOKE, VA, 24019","Match","Exact","7703 ENON DR, ROANOKE, VA, 24019",62931180,"R"
288656,"7703 N LAMAR BLVD STE 430","AUSTIN","TX",78752,30.344202094,-97.714737553,156,"7703 N LAMAR BLVD STE 430, AUSTIN, TX, 78752","Match","Non_Exact","7703 N LAMAR BLVD, AUSTIN, TX, 78752",64094892,"R"
288657,"7703 NORTH LAMAR BLVD SUITE 650","AUSTIN","TX",78752,30.3442018870001,-97.7147377539999,157,"7703 NORTH LAMAR BLVD SUITE 650, AUSTIN, TX, 78752","Match","Exact","7703 N LAMAR BLVD, AUSTIN, TX, 78752",64094892,"R"
288658,"7703 ROSEWOOD DRIVE","PRAIRIE VILLAGE","KS",66208,38.98932617,-94.644708425,158,"7703 ROSEWOOD DRIVE, PRAIRIE VILLAGE, KS, 66208","Match","Exact","7703 ROSEWOOD DR, PRAIRIE VLG, KS, 66208",91278211,"L"
288659,"7703 SPRINGVILLE DR","HOUSTON","TX",77095,29.8926706610001,-95.654195778,159,"7703 SPRINGVILLE DR, HOUSTON, TX, 77095","Match","Exact","7703 SPRINGVILLE DR, HOUSTON, TX, 77095",96015172,"R"
288660,"7704 ARGONAUT ST","SEVERN","MD",21144,39.1294093020001,-76.704501808,160,"7704 ARGONAUT ST, SEVERN, MD, 21144","Match","Exact","7704 ARGONAUT ST, SEVERN, MD, 21144",68206006,"L"
288661,"7704 AUGUSTA RD  UNIT A","PIEDMONT","SC",29673,34.7168118550001,-82.387628088,161,"7704 AUGUSTA RD  UNIT A, PIEDMONT, SC, 29673","Match","Exact","7704 AUGUSTA RD, PIEDMONT, SC, 29673",38305944,"R"
288662,"7704 BAYSHORE DRIVE","MARGATE CITY","NJ",8402,39.3408498320001,-74.5054854909999,162,"7704 BAYSHORE DRIVE, MARGATE CITY, NJ, 8402","Match","Exact","7704 BAYSHORE DR, MARGATE CITY, NJ, 08402",202487377,"L"
288663,"7704 BROOKSIDE ROAD","RICHMOND","VA",23229,37.5881466710001,-77.543617673,163,"7704 BROOKSIDE ROAD, RICHMOND, VA, 23229","Match","Exact","7704 BROOKSIDE RD, RICHMOND, VA, 23229",106644848,"R"
288664,"7704 EASTLORNE COURT","BAKERSFIELD","CA",93309,35.3352717110001,-119.087559678,164,"7704 EASTLORNE COURT, BAKERSFIELD, CA, 93309","Match","Exact","7704 EASTLORNE CT, BAKERSFIELD, CA, 93309",109084907,"R"
288665,"7704 LIBERTY DRIVE","PLANO","TX",75025,33.082412483,-96.75080057,165,"7704 LIBERTY DRIVE, PLANO, TX, 75025","Match","Exact","7704 LIBERTY DR, PLANO, TX, 75025",123533258,"R"
288666,"7704 LITTLE RICHMOND ROAD","DAYTON","OH",45417,39.775788682,-84.324099051,166,"7704 LITTLE RICHMOND ROAD, DAYTON, OH, 45417","Match","Exact","7704 LITTLE RICHMOND RD, DAYTON, OH, 45417",143610552,"L"
288667,"7704 LOCUST LANE","FORT WASHINGTON","MD",20744,38.7825200990001,-76.962252701,167,"7704 LOCUST LANE, FORT WASHINGTON, MD, 20744","Match","Exact","7704 LOCUST LN, FT WASHINGTON, MD, 20744",647273518,"L"
288668,"7704 MCVICKER AVENUE","BURBANK","IL",60459,41.7520728320001,-87.771831449,168,"7704 MCVICKER AVENUE, BURBANK, IL, 60459","Match","Exact","7704 MCVICKER AVE, BURBANK, IL, 60459",111811457,"R"
288669,"7704 MIDDLEFIELD MEWS","CHESTERFIELD","VA",23832,37.4299097190001,-77.536087669,169,"7704 MIDDLEFIELD MEWS, CHESTERFIELD, VA, 23832","Match","Exact","7704 MIDDLEFIELD MEWS, CHESTERFIELD, VA, 23832",201565756,"R"
288670,"7704 NEWTON STREET","OVERLAND PARK","KS",66204,38.9892593710001,-94.674711652,170,"7704 NEWTON STREET, OVERLAND PARK, KS, 66204","Match","Exact","7704 NEWTON ST, OVERLAND PARK, KS, 66204",91275569,"R"
288671,"7704 RIVERVIEW BEND DR","NASHVILLE","TN",37221,36.0922619770001,-87.002006557,171,"7704 RIVERVIEW BEND DR, NASHVILLE, TN, 37221","Match","Exact","7704 RIVERVIEW BEND DR, NASHVILLE, TN, 37221",639904811,"R"
288672,"7704 STONEY HILL DRIVE","WESLEY CHAPEL","FL",33545,28.2712840890001,-82.306967823,172,"7704 STONEY HILL DRIVE, WESLEY CHAPEL, FL, 33545","Match","Exact","7704 STONEY HILL DR, WESLEY CHAPEL, FL, 33545",634073543,"L"
288673,"7704 T N SKILES RD","PONDER","TX",76259,33.1981982240001,-97.266083328,173,"7704 T N SKILES RD, PONDER, TX, 76259","Match","Exact","7704 T N SKILES RD, PONDER, TX, 76259",103414803,"L"
288674,"7704 TERRACE AVENUE SUITE 1","MIDDLETON","WI",53562,43.094658237,-89.51449948,174,"7704 TERRACE AVENUE SUITE 1, MIDDLETON, WI, 53562","Match","Exact","7704 TERRACE AVE, MIDDLETON, WI, 53562",49529415,"R"
288675,"7704 VERACRUZ AVE","EL PASO","TX",79915,31.7471244340001,-106.357867699,175,"7704 VERACRUZ AVE, EL PASO, TX, 79915","Match","Exact","7704 VERACRUZ AVE, EL PASO, TX, 79915",189347507,"R"
288676,"7705 BRUSHFIELD DR","PLANO","TX",75025,33.082183706,-96.764498706,176,"7705 BRUSHFIELD DR, PLANO, TX, 75025","Match","Exact","7705 BRUSHFIELD DR, PLANO, TX, 75025",123538030,"L"
288677,"7705 GEORGIA PEACH DRIVE STE 20205","WINTER PARK","FL",32792,28.5864905660001,-81.284799313,177,"7705 GEORGIA PEACH DRIVE STE 20205, WINTER PARK, FL, 32792","Match","Exact","7705 GEORGIA PEACH DR, WINTER PARK, FL, 32792",94389209,"R"
288678,"7705 LEGENDS WAY","CHATTANOOGA","TN",37421,35.024703989,-85.145767741,178,"7705 LEGENDS WAY, CHATTANOOGA, TN, 37421","Match","Exact","7705 LEGENDS WAY, CHATTANOOGA, TN, 37421",59335050,"L"
288679,"7705 LUNCEFORD LANE","FALLS CHURCH","VA",22043,38.9135196300001,-77.210789243,179,"7705 LUNCEFORD LANE, FALLS CHURCH, VA, 22043","Match","Exact","7705 LUNCEFORD LN, FALLS CHURCH, VA, 22043",642596924,"L"
288680,"7705 VICTORIA AVE","INGLEWOOD","CA",90305,33.9698701140001,-118.333031137,180,"7705 VICTORIA AVE, INGLEWOOD, CA, 90305","Match","Non_Exact","7705 S VICTORIA AVE, INGLEWOOD, CA, 90305",141655402,"R"
288681,"7705 WATERMAN RD","WATERMAN","IL",60556,41.742369173,-88.773583472,181,"7705 WATERMAN RD, WATERMAN, IL, 60556","Match","Exact","7705 WATERMAN RD, WATERMAN, IL, 60556",52263418,"L"
288682,"7706 CHAPEL ROAD","ELKINS PARK","PA",19027,40.067054812,-75.12841739,182,"7706 CHAPEL ROAD, ELKINS PARK, PA, 19027","Match","Exact","7706 CHAPEL RD, ELKINS PARK, PA, 19027",135094356,"L"
288683,"7706 CHELWYNDE AVE","PHILADELPHIA","PA",19153,NA,NA,183,"7706 CHELWYNDE AVE, PHILADELPHIA, PA, 19153","No_Match",NA,NA,NA,NA
288684,"7706 DILLON ST","HOUSTON","TX",77061,29.6622738230001,-95.280935326,184,"7706 DILLON ST, HOUSTON, TX, 77061","Match","Exact","7706 DILLON ST, HOUSTON, TX, 77061",96093101,"R"
288685,"7706 FONDREN","HOUSTON","TX",77074,29.6961108040001,-95.512896787,185,"7706 FONDREN, HOUSTON, TX, 77074","Match","Non_Exact","7706 FONDREN RD, HOUSTON, TX, 77074",96031334,"R"
288686,"7706 GOLDENGROVE DRIVE","SPRING","TX",77379,30.035252923,-95.540492439,186,"7706 GOLDENGROVE DRIVE, SPRING, TX, 77379","Match","Exact","7706 GOLDENGROVE DR, SPRING, TX, 77379",96555283,"R"
288687,"7706 GRAYSTONE CT","ELLICOTT CITY","MD",21043,39.2174192460001,-76.779563649,187,"7706 GRAYSTONE CT, ELLICOTT CITY, MD, 21043","Match","Exact","7706 GRAYSTONE CT, ELLICOTT CITY, MD, 21043",158933542,"R"
288688,"7706 LAKESHORE COURT","RIVERDALE","GA",30296,33.5451512400001,-84.427609144,188,"7706 LAKESHORE COURT, RIVERDALE, GA, 30296","Match","Exact","7706 LAKESHORE CT, RIVERDALE, GA, 30296",23325685,"L"
288689,"7706 OAK PARK AVE","LAKE BALBOA","CA",91406,34.2103443830001,-118.504407924,189,"7706 OAK PARK AVE, LAKE BALBOA, CA, 91406","Match","Exact","7706 OAK PARK AVE, LAKE BALBOA, CA, 91406",141544283,"R"
288690,"7706 PEBBLEBROOK DRIVE","AMARILLO","TX",79119,35.143475499,-101.92452094,190,"7706 PEBBLEBROOK DRIVE, AMARILLO, TX, 79119","Match","Exact","7706 PEBBLEBROOK DR, AMARILLO, TX, 79119",627051911,"L"
288691,"7706 PRINDLE LAKE DRIVE","CHARLOTTE","NC",28227,35.2146023980001,-80.713157113,191,"7706 PRINDLE LAKE DRIVE, CHARLOTTE, NC, 28227","Match","Exact","7706 PRINDLE LAKE DR, CHARLOTTE, NC, 28227",70536097,"R"
288692,"7706 S SAINT LAWRENCE 1ST FLOOR","CHICAGO","IL",60619,NA,NA,192,"7706 S SAINT LAWRENCE 1ST FLOOR, CHICAGO, IL, 60619","No_Match",NA,NA,NA,NA
288693,"7706 STONE ARBOR DR","SUGAR LAND","TX",77479,29.559821775,-95.670380933,193,"7706 STONE ARBOR DR, SUGAR LAND, TX, 77479","Match","Exact","7706 STONE ARBOR DR, SUGAR LAND, TX, 77479",227744417,"R"
288694,"7706 TUSCANY WOODS DRIVE","TAMPA","FL",33647,28.1018661050001,-82.3732170339999,194,"7706 TUSCANY WOODS DRIVE, TAMPA, FL, 33647","Match","Exact","7706 TUSCANY WOODS DR, TAMPA, FL, 33647",624525061,"R"
288695,"7706 WESTOVER DRIVE","ROWLETT","TX",75089,NA,NA,195,"7706 WESTOVER DRIVE, ROWLETT, TX, 75089","No_Match",NA,NA,NA,NA
288696,"7707 AUSTIN ROAD","STOCKTON","CA",95215,37.897593869,-121.183747497,196,"7707 AUSTIN ROAD, STOCKTON, CA, 95215","Match","Exact","7707 AUSTIN RD, STOCKTON, CA, 95215",133908914,"R"
288697,"7707 BAYWAY DR","BAYTOWN","TX",77520,29.7758387980001,-95.031962614,197,"7707 BAYWAY DR, BAYTOWN, TX, 77520","Match","Exact","7707 BAYWAY DR, BAYTOWN, TX, 77520",96634002,"L"
288698,"7707 CARRLEIGH PARKWAY","WEST SPRINGFIELD","VA",22152,38.784116248,-77.2108939779999,198,"7707 CARRLEIGH PARKWAY, WEST SPRINGFIELD, VA, 22152","Match","Exact","7707 CARRLEIGH PKWY, W SPRINGFIELD, VA, 22152",75976337,"L"
288699,"7707 COORS BLVD SW","ALBUQUERQUE","NM",87121,34.951340126,-106.712210715,199,"7707 COORS BLVD SW, ALBUQUERQUE, NM, 87121","Match","Exact","7707 COORS BLVD SW, ALBUQUERQUE, NM, 87121",206701077,"R"
288700,"7707 GAULT ST UNIT B","AUSTIN","TX",78757,30.348033878,-97.72000449,200,"7707 GAULT ST UNIT B, AUSTIN, TX, 78757","Match","Exact","7707 GAULT ST, AUSTIN, TX, 78757",63931206,"R"
288701,"7707 HWY 341","FORT VALLEY","GA",31030,32.511264274,-83.854737528,201,"7707 HWY 341, FORT VALLEY, GA, 31030","Match","Non_Exact","7707 US HWY 341, FORT VALLEY, GA, 31030",93719898,"R"
288702,"7707 LYMAN AVE","PASADENA","MD",21122,39.1446935010001,-76.547340193,202,"7707 LYMAN AVE, PASADENA, MD, 21122","Match","Exact","7707 LYMAN AVE, PASADENA, MD, 21122",68164711,"L"
288703,"7707 MERRILL RD UNIT 11146","JACKSONVILLE","FL",32239,30.3521860600001,-81.568576369,203,"7707 MERRILL RD UNIT 11146, JACKSONVILLE, FL, 32239","Match","Non_Exact","7707 MERRILL RD, JACKSONVILLE, FL, 32277",83904003,"L"
288704,"7707 MERRILL RD","JACKSONVILE","FL",32239,30.3521860600001,-81.568576369,204,"7707 MERRILL RD, JACKSONVILE, FL, 32239","Match","Non_Exact","7707 MERRILL RD, JACKSONVILLE, FL, 32277",83904003,"L"
288705,"7707 MERRILL ROAD 11451","JACKSONVILLE","FL",32277,30.3521860600001,-81.568576369,205,"7707 MERRILL ROAD 11451, JACKSONVILLE, FL, 32277","Match","Exact","7707 MERRILL RD, JACKSONVILLE, FL, 32277",83904003,"L"
288706,"7707 MYSTIC RIVER TERRACE","GLENN DALE","MD",20769,38.9959106810001,-76.8231692319999,206,"7707 MYSTIC RIVER TERRACE, GLENN DALE, MD, 20769","Match","Exact","7707 MYSTIC RIVER TER, GLENN DALE, MD, 20769",624074248,"R"
288707,"7707 NEW FOREST LANE","SUGAR LAND","TX",77479,29.5453057190001,-95.678197338,207,"7707 NEW FOREST LANE, SUGAR LAND, TX, 77479","Match","Exact","7707 NEW FOREST LN, SUGAR LAND, TX, 77479",635324934,"L"
288708,"7707 S IH 35 APT 1014","AUSTIN","TX",78744,NA,NA,208,"7707 S IH 35 APT 1014, AUSTIN, TX, 78744","No_Match",NA,NA,NA,NA
288709,"7707 S ORANGE AVE NO 592666","ORLANDO","FL",32809,NA,NA,209,"7707 S ORANGE AVE NO 592666, ORLANDO, FL, 32809","No_Match",NA,NA,NA,NA
288710,"7707 STOCKWELL DRIVE","FREDERICKSBURG","VA",22407,38.2783562400001,-77.598764794,210,"7707 STOCKWELL DRIVE, FREDERICKSBURG, VA, 22407","Match","Exact","7707 STOCKWELL DR, FREDERICKSBURG, VA, 22407",649987917,"R"
288711,"7707 W HANNA AVENUE","TAMPA","FL",33615,28.0041174180001,-82.567688021,211,"7707 W HANNA AVENUE, TAMPA, FL, 33615","Match","Exact","7707 W HANNA AVE, TAMPA, FL, 33615",104508544,"R"
288712,"7707","TAMPA","FL",33604,NA,NA,212,"7707, TAMPA, FL, 33604","No_Match",NA,NA,NA,NA
288713,"7708 234TH ST SW","EDMONDS","WA",98026,47.7869041660001,-122.337278461,213,"7708 234TH ST SW, EDMONDS, WA, 98026","Match","Exact","7708 234TH ST SW, EDMONDS, WA, 98026",606932207,"L"
288714,"7708 ANNANDALE MAINS COURT","ANNANDALE","VA",22003,38.834487204,-77.210947214,214,"7708 ANNANDALE MAINS COURT, ANNANDALE, VA, 22003","Match","Exact","7708 ANNANDALE MAINS CT, ANNANDALE, VA, 22003",76022758,"L"
288715,"7708 ARAPAHO STREET","MILLINGTON","TN",38053,35.336350985,-89.912286663,215,"7708 ARAPAHO STREET, MILLINGTON, TN, 38053","Match","Exact","7708 ARAPAHO ST, MILLINGTON, TN, 38053",72897692,"R"
288716,"7708 BRAUN AVENUE","LA VISTA","NE",68128,41.1795055580001,-96.030503701,216,"7708 BRAUN AVENUE, LA VISTA, NE, 68128","Match","Exact","7708 BRAUN AVE, LA VISTA, NE, 68128",28467440,"R"
288717,"7708 BROWNSVILLE AVE","DALLAS","TX",75216,32.7176445060001,-96.7502946119999,217,"7708 BROWNSVILLE AVE, DALLAS, TX, 75216","Match","Exact","7708 BROWNSVILLE AVE, DALLAS, TX, 75216",102956342,"L"
288718,"7708 BROWNWOOD DR","LOUISVILLE","KY",40218,38.1837950130001,-85.614481508,218,"7708 BROWNWOOD DR, LOUISVILLE, KY, 40218","Match","Exact","7708 BROWNWOOD DR, LOUISVILLE, KY, 40218",96860134,"R"
288719,"7708 GLEASON ROAD","HOUSTON","TX",77016,29.8634705440001,-95.28967744,219,"7708 GLEASON ROAD, HOUSTON, TX, 77016","Match","Exact","7708 GLEASON RD, HOUSTON, TX, 77016",96075656,"R"
288720,"7708 GREEN MEADOWS DRIVE","LEWIS CENTER","OH",43035,40.176671157,-83.010598085,220,"7708 GREEN MEADOWS DRIVE, LEWIS CENTER, OH, 43035","Match","Exact","7708 GREEN MEADOWS DR, LEWIS CENTER, OH, 43035",24590334,"L"
288721,"7708 HANOVER PARKWAY SUITE 104","GREENBELT","MD",20770,38.995789792,-76.872746187,221,"7708 HANOVER PARKWAY SUITE 104, GREENBELT, MD, 20770","Match","Exact","7708 HANOVER PKWY, GREENBELT, MD, 20770",76377536,"L"
288722,"7708 JOURNEYVILLE DRIVE","AUSTIN","TX",78735,30.247475036,-97.87688905,222,"7708 JOURNEYVILLE DRIVE, AUSTIN, TX, 78735","Match","Exact","7708 JOURNEYVILLE DR, AUSTIN, TX, 78735",625677462,"L"
288723,"7708 MAYWOOD CREST DR","WEST PALM BEACH","FL",33412,26.7850193960001,-80.214763604,223,"7708 MAYWOOD CREST DR, WEST PALM BEACH, FL, 33412","Match","Exact","7708 MAYWOOD CREST DR, WEST PALM BEACH, FL, 33412",646596078,"R"
288724,"7708 N POMONA AVE","KANSAS CITY","MO",64152,39.2364067080001,-94.6704190139999,224,"7708 N POMONA AVE, KANSAS CITY, MO, 64152","Match","Exact","7708 N POMONA AVE, KANSAS CITY, MO, 64152",39704061,"R"
288725,"7708 NORTH CENTRAL AVENUE","TAMPA","FL",33604,28.018134081,-82.455408854,225,"7708 NORTH CENTRAL AVENUE, TAMPA, FL, 33604","Match","Exact","7708 N CENTRAL AVE, TAMPA, FL, 33604",104519596,"L"
288726,"7708 QUEEN","DALLAS","TX",75248,NA,NA,226,"7708 QUEEN, DALLAS, TX, 75248","No_Match",NA,NA,NA,NA
288727,"7708 WEST 32ND STREET","SIOUX FALLS","SD",57106,43.5220612320001,-96.823276698,227,"7708 WEST 32ND STREET, SIOUX FALLS, SD, 57106","Match","Exact","7708 W 32ND ST, SIOUX FALLS, SD, 57106",635772067,"R"
288728,"7709 APACHE AVE NE","ALBUQUERQUE","NM",87110,35.1073979130001,-106.55851807,228,"7709 APACHE AVE NE, ALBUQUERQUE, NM, 87110","Match","Exact","7709 APACHE AVE NE, ALBUQUERQUE, NM, 87110",206717331,"L"
288729,"7709 BRIARCREST CT","IRVING","TX",75063,32.9150149980001,-96.980085855,229,"7709 BRIARCREST CT, IRVING, TX, 75063","Match","Exact","7709 BRIARCREST CT, IRVING, TX, 75063",102980381,"L"
288730,"7709 CORAL WAY","ROWLETT","TX",75088,32.8968832480001,-96.527340115,230,"7709 CORAL WAY, ROWLETT, TX, 75088","Match","Exact","7709 CORAL WAY, ROWLETT, TX, 75088",102981001,"R"
288731,"7709 DUSTY LYNX CT","LAS VEGAS","NV",89139,36.049646529,-115.208457694,231,"7709 DUSTY LYNX CT, LAS VEGAS, NV, 89139","Match","Non_Exact","7709 S DUSTY LYNX CT, LAS VEGAS, NV, 89139",624793762,"L"
288732,"7709 FERN AVE SE","SNOQUALIME","WA",98065,47.531821811,-121.880151258,232,"7709 FERN AVE SE, SNOQUALIME, WA, 98065","Match","Non_Exact","7709 FERN AVE SE, SNOQUALMIE, WA, 98065",647880493,"R"
288733,"7709 KREFELD GLEN DR 315","CHARLOTTE","NC",28227,35.1572488480001,-80.736588653,233,"7709 KREFELD GLEN DR 315, CHARLOTTE, NC, 28227","Match","Exact","7709 KREFELD GLEN DR, CHARLOTTE, NC, 28227",647251645,"L"
288734,"7709 LIGUSTRUM DR","NEW ORLEANS","LA",70126,30.0369220540001,-90.004041823,234,"7709 LIGUSTRUM DR, NEW ORLEANS, LA, 70126","Match","Exact","7709 LIGUSTRUM DR, NEW ORLEANS, LA, 70126",191720384,"R"
288735,"7709 MYRTLE SPRINGS DR","PLANO","TX",75025,33.082178087,-96.763500145,235,"7709 MYRTLE SPRINGS DR, PLANO, TX, 75025","Match","Exact","7709 MYRTLE SPRINGS DR, PLANO, TX, 75025",123538027,"R"
288736,"7709 NEW KINGS ROAD","JACKSONVILLE","FL",32219,30.3933064490001,-81.736916739,236,"7709 NEW KINGS ROAD, JACKSONVILLE, FL, 32219","Match","Exact","7709 NEW KINGS RD, JACKSONVILLE, FL, 32219",83887608,"R"
288737,"7709 RICHARD STREET","COLUMBIA","SC",29209,33.950058577,-80.951363638,237,"7709 RICHARD STREET, COLUMBIA, SC, 29209","Match","Exact","7709 RICHARD ST, COLUMBIA, SC, 29209",71829896,"R"
288738,"7709 SIERRA AZUL AVE","ALBUQUERQUE","NM",87110,35.1243442800001,-106.558290146,238,"7709 SIERRA AZUL AVE, ALBUQUERQUE, NM, 87110","Match","Non_Exact","7709 SIERRA AZUL AVE NE, ALBUQUERQUE, NM, 87110",206713657,"L"
288739,"7709 THOR DR","ANNANDALE","VA",22003,38.848394936,-77.208755862,239,"7709 THOR DR, ANNANDALE, VA, 22003","Match","Exact","7709 THOR DR, ANNANDALE, VA, 22003",75979920,"L"
288740,"7709 W OVERLAND STE 150","BOISE","ID",83709,43.5902374880001,-116.277975145,240,"7709 W OVERLAND STE 150, BOISE, ID, 83709","Match","Non_Exact","7709 OVERLAND RD, BOISE, ID, 83709",117913898,"L"
288741,"7709-B BECKETT ROAD","BROWNS SUMMIT","NC",27214,36.2151834090001,-79.73599491,241,"7709-B BECKETT ROAD, BROWNS SUMMIT, NC, 27214","Match","Exact","7709 BECKETT RD, BROWNS SUMMIT, NC, 27214",131021657,"L"
288742,"771 ALLEN AVENUE","CHESHIRE","CT",6410,41.533988461,-72.8621069829999,242,"771 ALLEN AVENUE, CHESHIRE, CT, 6410","Match","Exact","771 ALLEN AVE, CHESHIRE, CT, 06410",651701038,"R"
288743,"771 BOOTHBAY ROAD","EDGECOMB","ME",4556,43.9529361880001,-69.629128989,243,"771 BOOTHBAY ROAD, EDGECOMB, ME, 4556","Match","Exact","771 BOOTHBAY RD, EDGECOMB, ME, 04556",75300816,"L"
288744,"771 BRIAR ROAD","LANOKA HARBOR","NJ",8734,39.863641914,-74.16983627,244,"771 BRIAR ROAD, LANOKA HARBOR, NJ, 8734","Match","Exact","771 BRIAR RD, LANOKA HARBOR, NJ, 08734",203699031,"R"
288745,"771 CAMPCREEK PLACE","ROCK HILL","SC",29730,34.9292411230001,-80.964026802,245,"771 CAMPCREEK PLACE, ROCK HILL, SC, 29730","Match","Exact","771 CAMPCREEK PL, ROCK HILL, SC, 29730",628070659,"L"
288746,"771 EAST PORT HUENEME ROAD","PORT HUENEME","CA",93041,34.147606673,-119.188411701,246,"771 EAST PORT HUENEME ROAD, PORT HUENEME, CA, 93041","Match","Exact","771 E PORT HUENEME RD, PORT HUENEME, CA, 93041",110090675,"L"
288747,"771 HERITAGE LN","EAGLE LAKE","TX",77434,29.5861580320001,-96.3464176969999,247,"771 HERITAGE LN, EAGLE LAKE, TX, 77434","Match","Exact","771 HERITAGE LN, EAGLE LAKE, TX, 77434",41217037,"R"
288748,"771 HUNTERS PL","PROSPER","TX",75078,NA,NA,248,"771 HUNTERS PL, PROSPER, TX, 75078","No_Match",NA,NA,NA,NA
288749,"771 JAMACHA RD 181","EL CAJON","CA",92019,32.7860524660001,-116.927896816,249,"771 JAMACHA RD 181, EL CAJON, CA, 92019","Match","Exact","771 JAMACHA RD, EL CAJON, CA, 92019",195333837,"L"
288750,"771 JAMACHA ROAD BOX 342","EL CAJON","CA",92019,32.7860524660001,-116.927896816,250,"771 JAMACHA ROAD BOX 342, EL CAJON, CA, 92019","Match","Exact","771 JAMACHA RD, EL CAJON, CA, 92019",195333837,"L"
288751,"771 JAMACHA ROAD SUITE 107","EL CAJON","CA",92019,32.7860524660001,-116.927896816,251,"771 JAMACHA ROAD SUITE 107, EL CAJON, CA, 92019","Match","Exact","771 JAMACHA RD, EL CAJON, CA, 92019",195333837,"L"
288752,"771 JARVIS STREET","CHESHIRE","CT",6410,41.5341353700001,-72.9180833189999,252,"771 JARVIS STREET, CHESHIRE, CT, 6410","Match","Exact","771 JARVIS ST, CHESHIRE, CT, 06410",647252045,"L"
288753,"771 LAKEWOOD COURT","HIGHLAND VILLAGE","TX",75077,33.090897387,-97.068881279,253,"771 LAKEWOOD COURT, HIGHLAND VILLAGE, TX, 75077","Match","Exact","771 LAKEWOOD CT, HIGHLAND VILLAGE, TX, 75077",103406397,"L"
288754,"771 LAMBETH LANE","NEW LENOX","IL",60451,41.5396286690001,-87.996779649,254,"771 LAMBETH LANE, NEW LENOX, IL, 60451","Match","Exact","771 LAMBETH LN, NEW LENOX, IL, 60451",111580643,"R"
288755,"771 LESLIE LN","FRANKFORT","IL",60423,41.5147211240001,-87.862249343,255,"771 LESLIE LN, FRANKFORT, IL, 60423","Match","Exact","771 LESLIE LN, FRANKFORT, IL, 60423",111550148,"L"
288756,"771 LIBERTY COMMONS DR NW","ATLANTA","GA",30314,33.7561625380001,-84.4155973489999,256,"771 LIBERTY COMMONS DR NW, ATLANTA, GA, 30314","Match","Exact","771 LIBERTY COMMONS DR NW, ATLANTA, GA, 30314",636125507,"L"
288757,"771 LIBERTY ROAD","PETALUMA","CA",94952,38.264529392,-122.700818431,257,"771 LIBERTY ROAD, PETALUMA, CA, 94952","Match","Exact","771 LIBERTY RD, PETALUMA, CA, 94952",604971025,"L"
288758,"771 LOGAN STRRT APARTMENT C104","POTTSTOWN","PA",19464,40.258656403,-75.640220886,258,"771 LOGAN STRRT APARTMENT C104, POTTSTOWN, PA, 19464","Match","Non_Exact","771 LOGAN ST, POTTSTOWN, PA, 19464",135061855,"L"
288759,"771 MEADOW CLIFF DRIVE","SAINT CHARLES","MO",63303,38.7214415710001,-90.576395083,259,"771 MEADOW CLIFF DRIVE, SAINT CHARLES, MO, 63303","Match","Exact","771 MEADOW CLIFF DR, SAINT CHARLES, MO, 63303",100052259,"R"
288760,"771 POMANDER WALK","TEANECK","NJ",7666,40.8909496630001,-74.033103178,260,"771 POMANDER WALK, TEANECK, NJ, 7666","Match","Exact","771 POMANDER WALK, TEANECK, NJ, 07666",64388573,"R"
288761,"771 RUTLEDGE PIKE","BLAINE","TN",37709,36.1389246260001,-83.7142027369999,261,"771 RUTLEDGE PIKE, BLAINE, TN, 37709","Match","Non_Exact","771 OLD RUTLEDGE PIKE, BLAINE, TN, 37709",41783615,"R"
288762,"771 S KIRKMAN RD","ORLANDO","FL",32811,28.5329441260001,-81.458927865,262,"771 S KIRKMAN RD, ORLANDO, FL, 32811","Match","Exact","771 S KIRKMAN RD, ORLANDO, FL, 32811",639773547,"L"
288763,"771 SIESTA KEY TRAIL","DEERFIELD BEACH","FL",33441,26.3096595270001,-80.1129618319999,263,"771 SIESTA KEY TRAIL, DEERFIELD BEACH, FL, 33441","Match","Exact","771 SIESTA KEY TRL, DEERFIELD BEACH, FL, 33441",114750822,"L"
288764,"771 SILVER LANE OR PO BOX 304","EDGERTON","WI",53534,42.889916494,-89.023144708,264,"771 SILVER LANE OR PO BOX 304, EDGERTON, WI, 53534","Match","Exact","771 SILVER LN, EDGERTON, WI, 53534",49526511,"L"
288765,"771 SOUTH EAST AVE APT 93","VINELAND","NJ",8360,39.4741553750001,-75.017454814,265,"771 SOUTH EAST AVE APT 93, VINELAND, NJ, 8360","Match","Exact","771 S EAST AVE, VINELAND, NJ, 08360",174111424,"L"
288766,"771 SOUTHERN HIGH SCHOOL RD","GRAHAM","NC",27253,36.003259321,-79.409635671,266,"771 SOUTHERN HIGH SCHOOL RD, GRAHAM, NC, 27253","Match","Exact","771 SOUTHERN HIGH SCHOOL RD, GRAHAM, NC, 27253",608743434,"L"
288767,"771 SPRUCE AVE UNIT I","UPLAND","CA",91786,34.1029708400001,-117.669633191,267,"771 SPRUCE AVE UNIT I, UPLAND, CA, 91786","Match","Exact","771 SPRUCE AVE, UPLAND, CA, 91786",144670073,"L"
288768,"771 STUMPHOLE RD","ELLOREE","SC",29047,33.569013048,-80.519774474,268,"771 STUMPHOLE RD, ELLOREE, SC, 29047","Match","Exact","771 STUMPHOLE RD, ELLOREE, SC, 29047",71409676,"L"
288769,"771 TABERNACLE ROAD","MATHEWS","VA",23109,37.426725651,-76.31010773,269,"771 TABERNACLE ROAD, MATHEWS, VA, 23109","Match","Exact","771 TABERNACLE RD, MATHEWS, VA, 23109",640184707,"R"
288770,"771 THOMAS BOYLAND STREET","BROOKLYN","NY",11212,NA,NA,270,"771 THOMAS BOYLAND STREET, BROOKLYN, NY, 11212","No_Match",NA,NA,NA,NA
288771,"771 THOMAS S BOYLAND STREET","BROOKLYN","NY",11212,40.6616142,-73.911584363,271,"771 THOMAS S BOYLAND STREET, BROOKLYN, NY, 11212","Match","Exact","771 THOMAS S BOYLAND ST, BROOKLYN, NY, 11212",59084077,"L"
288772,"771 WEST END AVENUE 10E","NEW YORK","NY",10025,40.796249817,-73.972490593,272,"771 WEST END AVENUE 10E, NEW YORK, NY, 10025","Match","Exact","771 W END AVE, NEW YORK, NY, 10025",59656583,"L"
288773,"771 WHITE OAK GROVE ROAD NE","RINER","VA",24149,36.998970623,-80.398421776,273,"771 WHITE OAK GROVE ROAD NE, RINER, VA, 24149","Match","Exact","771 WHITE OAK GROVE RD NE, RINER, VA, 24149",649938961,"R"
288774,"7710 1ST ST SUITE SE 126I","TINKER AFB","OK",73145,NA,NA,274,"7710 1ST ST SUITE SE 126I, TINKER AFB, OK, 73145","No_Match",NA,NA,NA,NA
288775,"7710 27TH AVE NW","SEATTLE","WA",98117,47.685143537,-122.390840279,275,"7710 27TH AVE NW, SEATTLE, WA, 98117","Match","Exact","7710 27TH AVE NW, SEATTLE, WA, 98117",186658561,"R"
288776,"7710 AUTUMN TRL","SUGAR LAND","TX",77479,29.549766898,-95.672615627,276,"7710 AUTUMN TRL, SUGAR LAND, TX, 77479","Match","Exact","7710 AUTUMN TRL, SUGAR LAND, TX, 77479",642467627,"L"
288777,"7710 BROOKLYN PARK 201D","BROOKLYN PARK","MN",55443,NA,NA,277,"7710 BROOKLYN PARK 201D, BROOKLYN PARK, MN, 55443","No_Match",NA,NA,NA,NA
288778,"7710 CHERRY PARK  POB119","HOUSTON","TX",77095,29.890780964,-95.640880497,278,"7710 CHERRY PARK  POB119, HOUSTON, TX, 77095","Match","Non_Exact","7710 CHERRY PARK DR, HOUSTON, TX, 77095",233347625,"R"
288779,"7710 CHERRY PARK DR NUM T521","HOUSTON","TX",77095,29.890780964,-95.640880497,279,"7710 CHERRY PARK DR NUM T521, HOUSTON, TX, 77095","Match","Exact","7710 CHERRY PARK DR, HOUSTON, TX, 77095",233347625,"R"
288780,"7710 CHERRY PARK DR STE T100","HOUSTON","TX",77095,29.890780964,-95.640880497,280,"7710 CHERRY PARK DR STE T100, HOUSTON, TX, 77095","Match","Exact","7710 CHERRY PARK DR, HOUSTON, TX, 77095",233347625,"R"
288781,"7710 CHERRY PARK DRIVE  SUITE T 700","HOUSTON","TX",77095,29.890780964,-95.640880497,281,"7710 CHERRY PARK DRIVE  SUITE T 700, HOUSTON, TX, 77095","Match","Exact","7710 CHERRY PARK DR, HOUSTON, TX, 77095",233347625,"R"
288782,"7710 CHERRY PARK DRIVE NO T202","HOUSTON","TX",77095,29.890780964,-95.640880497,282,"7710 CHERRY PARK DRIVE NO T202, HOUSTON, TX, 77095","Match","Non_Exact","7710 CHERRY PARK DR, HOUSTON, TX, 77095",233347625,"R"
288783,"7710 CRAIN HIGHWAY","LAPLATA","MD",20646,38.502913753,-76.985152276,283,"7710 CRAIN HIGHWAY, LAPLATA, MD, 20646","Match","Non_Exact","7710 CRAIN HWY, LA PLATA, MD, 20646",25408147,"R"
288784,"7710 CRYSTAL SPRINGS CIRCLE APT 102","RALEIGH","NC",27617,35.9198027670001,-78.773984888,284,"7710 CRYSTAL SPRINGS CIRCLE APT 102, RALEIGH, NC, 27617","Match","Exact","7710 CRYSTAL SPRINGS CIR, RALEIGH, NC, 27617",646954422,"R"
288785,"7710 DAVIN PARK DR","BAKESFIELD","CA",93308,35.413110944,-119.08994234,285,"7710 DAVIN PARK DR, BAKESFIELD, CA, 93308","Match","Non_Exact","7710 DAVIN PARK DR, BAKERSFIELD, CA, 93308",109140155,"L"
288786,"7710 ENGLISH OAK CIRCLE","ELKRIDGE","MD",21075,39.179088236,-76.7781059879999,286,"7710 ENGLISH OAK CIRCLE, ELKRIDGE, MD, 21075","Match","Exact","7710 ENGLISH OAK CIR, ELKRIDGE, MD, 21075",618957931,"L"
288787,"7710 FINZEL RD","WHITEHOUSE","OH",43571,41.5036667160001,-83.7831680319999,287,"7710 FINZEL RD, WHITEHOUSE, OH, 43571","Match","Exact","7710 FINZEL RD, WHITEHOUSE, OH, 43571",648850707,"L"
288788,"7710 FROST DRIVE APT 205","MEMPHIS","TN",38125,34.995209188,-89.8068735969999,288,"7710 FROST DRIVE APT 205, MEMPHIS, TN, 38125","Match","Exact","7710 FROST DR, MEMPHIS, TN, 38125",639343012,"L"
288789,"7710 GANN RD","HIXSON","TN",37343,35.1900404040001,-85.203082907,289,"7710 GANN RD, HIXSON, TN, 37343","Match","Exact","7710 GANN RD, HIXSON, TN, 37343",59320960,"R"
288790,"7710 HARFORD ROAD","BALTIMORE","MD",21234,39.372716602,-76.5437965949999,290,"7710 HARFORD ROAD, BALTIMORE, MD, 21234","Match","Exact","7710 HARFORD RD, BALTIMORE, MD, 21234",191476962,"L"
288791,"7710 HAZARD CENTER DR STE E-525","SAN DIEGO","CA",92108,32.7708718170001,-117.156007138,291,"7710 HAZARD CENTER DR STE E-525, SAN DIEGO, CA, 92108","Match","Exact","7710 HAZARD CENTER DR, SAN DIEGO, CA, 92108",195662908,"L"
288792,"7710 HAZARD CENTER DR SUITE E 320","SAN DIEGO","CA",92108,32.7708718170001,-117.156007138,292,"7710 HAZARD CENTER DR SUITE E 320, SAN DIEGO, CA, 92108","Match","Exact","7710 HAZARD CENTER DR, SAN DIEGO, CA, 92108",195662908,"L"
288793,"7710 HAZARD CENTER DRIVE E107","SAN DIEGO","CA",92108,32.7708718170001,-117.156007138,293,"7710 HAZARD CENTER DRIVE E107, SAN DIEGO, CA, 92108","Match","Exact","7710 HAZARD CENTER DR, SAN DIEGO, CA, 92108",195662908,"L"
288794,"7710 HAZARD CENTER DRIVE SUITE E431","SAN DIEGO","CA",92108,32.7708718170001,-117.156007138,294,"7710 HAZARD CENTER DRIVE SUITE E431, SAN DIEGO, CA, 92108","Match","Exact","7710 HAZARD CENTER DR, SAN DIEGO, CA, 92108",195662908,"L"
288795,"7710 HERMITAGE DR","FREDERICKSBURG","VA",22407,38.3018257520001,-77.6005736879999,295,"7710 HERMITAGE DR, FREDERICKSBURG, VA, 22407","Match","Exact","7710 HERMITAGE DR, FREDERICKSBURG, VA, 22407",650659830,"L"
288796,"7710 KLEINGREEN LN","SPRING","TX",77379,30.011303367,-95.525961597,296,"7710 KLEINGREEN LN, SPRING, TX, 77379","Match","Exact","7710 KLEINGREEN LN, SPRING, TX, 77379",96007473,"L"
288797,"7710 LONDON TOWER LN","HOUSTON","TX",77044,NA,NA,297,"7710 LONDON TOWER LN, HOUSTON, TX, 77044","No_Match",NA,NA,NA,NA
288798,"7710 MAPLE AVENUE APT 902","TAKOMA PARK","MD",20912,38.9842495600001,-77.0046445249999,298,"7710 MAPLE AVENUE APT 902, TAKOMA PARK, MD, 20912","Match","Exact","7710 MAPLE AVE, TAKOMA PARK, MD, 20912",62069434,"L"
288799,"7710 NE VANCOUVER MALL DRIVE","VANCOUVER","WA",98662,45.657720538,-122.594083825,299,"7710 NE VANCOUVER MALL DRIVE, VANCOUVER, WA, 98662","Match","Exact","7710 NE VANCOUVER MALL DR, VANCOUVER, WA, 98662",158346112,"L"
288800,"7710 NW 71ST COURT STE 206","TAMARAC","FL",33321,26.2113632030001,-80.2531894369999,300,"7710 NW 71ST COURT STE 206, TAMARAC, FL, 33321","Match","Non_Exact","7710 NW 71ST CT, TAMARAC, FL, 33321",636773992,"R"
288801,"7710 OAKDELL WAY UNIT 402","SAN ANTONIO","TX",78204,29.5098961630001,-98.591197426,301,"7710 OAKDELL WAY UNIT 402, SAN ANTONIO, TX, 78204","Match","Non_Exact","7710 OAKDELL WAY, SAN ANTONIO, TX, 78240",611717307,"L"
288802,"7710 RICE RD","AMHERST","OH",44001,NA,NA,302,"7710 RICE RD, AMHERST, OH, 44001","No_Match",NA,NA,NA,NA
288803,"7710 RICE ROAD","AMHERST","OH",44001,NA,NA,303,"7710 RICE ROAD, AMHERST, OH, 44001","No_Match",NA,NA,NA,NA
288804,"7710 RIVERSIDE PKWY 302B","TULSA","OK",74136,36.050290811,-95.968851285,304,"7710 RIVERSIDE PKWY 302B, TULSA, OK, 74136","Match","Exact","7710 RIVERSIDE PW, TULSA, OK, 74136",648744216,"R"
288805,"7710 RYEGRASS ROAD","YAKIMA","WA",98903,46.5555367600001,-120.612707741,305,"7710 RYEGRASS ROAD, YAKIMA, WA, 98903","Match","Exact","7710 RYEGRASS RD, YAKIMA, WA, 98903",184951234,"R"
288806,"7710 S CHAPEL HILL DR","FRANKLIN","WI",53132,42.904652694,-88.045075993,306,"7710 S CHAPEL HILL DR, FRANKLIN, WI, 53132","Match","Exact","7710 S CHAPEL HILL DR, FRANKLIN, WI, 53132",77750230,"L"
288807,"7710 S LAKERIDGE","SEATTLE","WA",98178,47.50448749,-122.236062691,307,"7710 S LAKERIDGE, SEATTLE, WA, 98178","Match","Non_Exact","7710 S LAKE RIDGE DR, SEATTLE, WA, 98178",186630267,"L"
288808,"7710 SW CRYSTAL HILLS PLACE","LAWTON","OK",73505,34.608309826,-98.4865189559999,308,"7710 SW CRYSTAL HILLS PLACE, LAWTON, OK, 73505","Match","Non_Exact","7710 SW CRYSTAL HILL PL, LAWTON, OK, 73505",14997591,"L"
288809,"7710 TERRACE AVE APT 409","MIDDLETON","WI",53562,43.094650089,-89.514580168,309,"7710 TERRACE AVE APT 409, MIDDLETON, WI, 53562","Match","Exact","7710 TERRACE AVE, MIDDLETON, WI, 53562",49529415,"R"
288810,"7710-T CHERRY PARK DRIVE STE 144","HOUSTON","TX",77095,29.890780964,-95.640880497,310,"7710-T CHERRY PARK DRIVE STE 144, HOUSTON, TX, 77095","Match","Exact","7710 CHERRY PARK DR, HOUSTON, TX, 77095",233347625,"R"
288811,"7710T CHERRY PARK DRIVE 375","HOUSTON","TX",77095,29.890782202,-95.640883063,311,"7710T CHERRY PARK DRIVE 375, HOUSTON, TX, 77095","Match","Exact","7710 CHERRY PARK DR, HOUSTON, TX, 77095",233347625,"R"
288812,"7711 168TH PL SW","EDMONDS","WA",98026,47.8463623740001,-122.336255752,312,"7711 168TH PL SW, EDMONDS, WA, 98026","Match","Exact","7711 168TH PL SW, EDMONDS, WA, 98026",608930056,"R"
288813,"7711 ATLANTA HIGHWAY","MONTGOMERY","AL",36117,32.381649516,-86.160827925,313,"7711 ATLANTA HIGHWAY, MONTGOMERY, AL, 36117","Match","Exact","7711 ATLANTA HWY, MONTGOMERY, AL, 36117",1487012,"L"
288814,"7711 BONHOMME AVENUE SUITE 800","CLAYTON","MO",63105,38.64732301,-90.334922661,314,"7711 BONHOMME AVENUE SUITE 800, CLAYTON, MO, 63105","Match","Exact","7711 BONHOMME AVE, CLAYTON, MO, 63105",100135526,"R"
288815,"7711 CALLAGHAN RD 607","SAN ANTONIO","TX",78229,29.507597049,-98.555943298,315,"7711 CALLAGHAN RD 607, SAN ANTONIO, TX, 78229","Match","Exact","7711 CALLAGHAN RD, SAN ANTONIO, TX, 78229",101714532,"L"
288816,"7711 DOVETAIL LN","RICHMOND","TX",77407,29.6944772100001,-95.692829096,316,"7711 DOVETAIL LN, RICHMOND, TX, 77407","Match","Exact","7711 DOVETAIL LN, RICHMOND, TX, 77407",627292753,"R"
288817,"7711 E 111TH ST SUITE 125","TULSA","OK",74133,36.002832438,-95.893367916,317,"7711 E 111TH ST SUITE 125, TULSA, OK, 74133","Match","Non_Exact","7711 E 111TH ST, TULSA, OK, 74133",624932922,"L"
288818,"7711 FAWN TERRACE DRIVE","HOUSTON","TX",77071,29.646437044,-95.512044196,318,"7711 FAWN TERRACE DRIVE, HOUSTON, TX, 77071","Match","Exact","7711 FAWN TERRACE DR, HOUSTON, TX, 77071",96038066,"L"
288819,"7711 FERRY LAUNCH WAY APT 4303","RALEIGH","NC",27617,35.9188269150001,-78.774305735,319,"7711 FERRY LAUNCH WAY APT 4303, RALEIGH, NC, 27617","Match","Exact","7711 FERRY LAUNCH WAY, RALEIGH, NC, 27617",612829038,"L"
288820,"7711 GOODWOOD BLVD","BATON ROUGE","LA",70806,30.4423819240001,-91.1079218039999,320,"7711 GOODWOOD BLVD, BATON ROUGE, LA, 70806","Match","Exact","7711 GOODWOOD BLVD, BATON ROUGE, LA, 70806",92189655,"L"
288821,"7711 JENELLES WAY","NOTTINGHAM","MD",21236,39.3660711000001,-76.5024190779999,321,"7711 JENELLES WAY, NOTTINGHAM, MD, 21236","Match","Exact","7711 JENELLES WAY, NOTTINGHAM, MD, 21236",636791956,"R"
288822,"7711 LOUS PASTEUR DR SUITE 406","SAN ANTONIO","TX",78229,29.5092209360001,-98.56885661,322,"7711 LOUS PASTEUR DR SUITE 406, SAN ANTONIO, TX, 78229","Match","Non_Exact","7711 LOUIS PASTEUR DR, SAN ANTONIO, TX, 78229",101569048,"L"
288823,"7711 OCONNOR DRIVE APT 704","ROUND ROCK","TX",78681,30.501198491,-97.725236235,323,"7711 OCONNOR DRIVE APT 704, ROUND ROCK, TX, 78681","Match","Exact","7711 OCONNOR DR, ROUND ROCK, TX, 78681",126495529,"L"
288824,"7711 OREBO ST   STE B","HOUSTON","TX",77088,29.871124321,-95.442828318,324,"7711 OREBO ST   STE B, HOUSTON, TX, 77088","Match","Exact","7711 OREBO ST, HOUSTON, TX, 77088",96027672,"L"
288825,"7711 S PENROSE DR","GILBERT","AZ",85298,33.209843441,-111.736439813,325,"7711 S PENROSE DR, GILBERT, AZ, 85298","Match","Exact","7711 S PENROSE DR, GILBERT, AZ, 85298",646887183,"R"
288826,"7711 S RAEFORD ROAD SUITE 102-105","FAYETTEVILLE","NC",28304,35.030720382,-79.053360004,326,"7711 S RAEFORD ROAD SUITE 102-105, FAYETTEVILLE, NC, 28304","Match","Exact","7711 RAEFORD RD, FAYETTEVILLE, NC, 28304",64256946,"L"
288827,"7711 TYLER CREEK LANE","HUMBLE","TX",77396,29.930656216,-95.271623725,327,"7711 TYLER CREEK LANE, HUMBLE, TX, 77396","Match","Non_Exact","7711 TYLER CREEK CT, HUMBLE, TX, 77396",624602687,"R"
288828,"7711 W 11TH STREET DR","GREELEY","CO",80634,40.4187718100001,-104.804769065,328,"7711 W 11TH STREET DR, GREELEY, CO, 80634","Match","Exact","7711 W 11TH STREET DR, GREELEY, CO, 80634",188754600,"L"
288829,"7712 42ND DR NW","TULALIP","WA",98271,48.065653883,-122.28991723,329,"7712 42ND DR NW, TULALIP, WA, 98271","Match","Exact","7712 42ND DR NW, TULALIP, WA, 98271",187738947,"L"
288830,"7712 42ND DRIVE NW","TULALIP","WA",98271,48.065653883,-122.28991723,330,"7712 42ND DRIVE NW, TULALIP, WA, 98271","Match","Exact","7712 42ND DR NW, TULALIP, WA, 98271",187738947,"L"
288831,"7712 BRIARCREEK RD N","TALLAHASSEE","FL",32312,30.5796068540001,-84.225777388,331,"7712 BRIARCREEK RD N, TALLAHASSEE, FL, 32312","Match","Exact","7712 BRIARCREEK RD N, TALLAHASSEE, FL, 32312",82845952,"L"
288832,"7712 E GARNET LANE","SPOKANE","WA",99212,47.700722387,-117.300693149,332,"7712 E GARNET LANE, SPOKANE, WA, 99212","Match","Exact","7712 E GARNET LN, SPOKANE, WA, 99212",624948977,"L"
288833,"7712 KINGSBERRY COURT","RALEIGH","NC",27615,35.886434744,-78.645055309,333,"7712 KINGSBERRY COURT, RALEIGH, NC, 27615","Match","Exact","7712 KINGSBERRY CT, RALEIGH, NC, 27615",72496181,"R"
288834,"7712 LAKECREST DR","GREENBELT","MD",20770,NA,NA,334,"7712 LAKECREST DR, GREENBELT, MD, 20770","No_Match",NA,NA,NA,NA
288835,"7712 LONG BEACH BLVD","LONG BEACH TWP","NJ",8008,NA,NA,335,"7712 LONG BEACH BLVD, LONG BEACH TWP, NJ, 8008","No_Match",NA,NA,NA,NA
288836,"7712 MAIN STREET - SUITE 103","HOUMA","LA",70360,29.5968660550001,-90.725239566,336,"7712 MAIN STREET - SUITE 103, HOUMA, LA, 70360","Match","Exact","7712 MAIN ST, HOUMA, LA, 70360",92050964,"L"
288837,"7712 MALIA CT","CITRUS HEIGHTS","CA",95621,38.7062657930001,-121.306647795,337,"7712 MALIA CT, CITRUS HEIGHTS, CA, 95621","Match","Exact","7712 MALIA CT, CITRUS HEIGHTS, CA, 95621",133341615,"R"
288838,"7712 MANSLICK ROAD","LOUISVILLE","KY",40214,38.138791315,-85.794642112,338,"7712 MANSLICK ROAD, LOUISVILLE, KY, 40214","Match","Exact","7712 MANSLICK RD, LOUISVILLE, KY, 40214",647938852,"R"
288839,"7712 MIRAMONTE BLVD","LOS ANGELES","CA",90001,33.96949428,-118.245472354,339,"7712 MIRAMONTE BLVD, LOS ANGELES, CA, 90001","Match","Non_Exact","7712 S MIRAMONTE BLVD, LOS ANGELES, CA, 90001",141672289,"L"
288840,"7712 SE RAYMOND ST","PORTLAND","OR",97206,45.4865492070001,-122.584138416,340,"7712 SE RAYMOND ST, PORTLAND, OR, 97206","Match","Exact","7712 SE RAYMOND ST, PORTLAND, OR, 97206",638568325,"R"
288841,"7712 SHAKER MILL ROAD","LOUISVILLE","KY",40220,38.1982266900001,-85.614061366,341,"7712 SHAKER MILL ROAD, LOUISVILLE, KY, 40220","Match","Exact","7712 SHAKER MILL RD, LOUISVILLE, KY, 40220",96988764,"L"
288842,"7712 TIMBERCROSS LANE","GLEN BURNIE","MD",21060,39.1693787310001,-76.5655566089999,342,"7712 TIMBERCROSS LANE, GLEN BURNIE, MD, 21060","Match","Exact","7712 TIMBERCROSS LN, GLEN BURNIE, MD, 21060",641580795,"L"
288843,"771285","EAGLE RIVER","AK",99577,NA,NA,343,"771285, EAGLE RIVER, AK, 99577","No_Match",NA,NA,NA,NA
288844,"7713 BOGEY PLACE","GLEN ALLEN","VA",23059,37.6623944580001,-77.4429865549999,344,"7713 BOGEY PLACE, GLEN ALLEN, VA, 23059","Match","Exact","7713 BOGEY PL, GLEN ALLEN, VA, 23059",106672525,"L"
288845,"7713 CASTILLO RD","FORT WORTH","TX",76112,32.741970731,-97.1892898999999,345,"7713 CASTILLO RD, FORT WORTH, TX, 76112","Match","Exact","7713 CASTILLO RD, FORT WORTH, TX, 76112",101901347,"L"
288846,"7713 HERMITAGE DRIVE","FREDERICKSBURG","VA",22407,38.301800256,-77.600583839,346,"7713 HERMITAGE DRIVE, FREDERICKSBURG, VA, 22407","Match","Exact","7713 HERMITAGE DR, FREDERICKSBURG, VA, 22407",650659830,"R"
288847,"7713 HURON DR","GAINESVILLE","VA",20155,38.789192144,-77.611029693,347,"7713 HURON DR, GAINESVILLE, VA, 20155","Match","Exact","7713 HURON DR, GAINESVILLE, VA, 20155",76503694,"L"
288848,"7713 KILLIAN DR","ORLANDO","FL",32822,28.498695291,-81.280402937,348,"7713 KILLIAN DR, ORLANDO, FL, 32822","Match","Exact","7713 KILLIAN DR, ORLANDO, FL, 32822",94295588,"L"
288849,"7713 LEWINSVILLE RD","MCLEAN","VA",22102,38.9380462300001,-77.2115045849999,349,"7713 LEWINSVILLE RD, MCLEAN, VA, 22102","Match","Exact","7713 LEWINSVILLE RD, MCLEAN, VA, 22102",215950101,"L"
288850,"7713 LOCUST LANE","FORT WASHINGTON","MD",20744,38.782469328,-76.9622401359999,350,"7713 LOCUST LANE, FORT WASHINGTON, MD, 20744","Match","Exact","7713 LOCUST LN, FT WASHINGTON, MD, 20744",647273518,"R"
288851,"7713 N KENDALL DR SUITE 212","MIAMI","FL",33156,25.688484551,-80.318805227,351,"7713 N KENDALL DR SUITE 212, MIAMI, FL, 33156","Match","Non_Exact","7713 N KENDALL DR, MIAMI, FL, 33156",116281921,"R"
288852,"7713 NORTHFIELD LN","TINLEY PARK","IL",60487,41.5412099770001,-87.8058250349999,352,"7713 NORTHFIELD LN, TINLEY PARK, IL, 60487","Match","Exact","7713 NORTHFIELD LN, TINLEY PARK, IL, 60487",633540348,"R"
288853,"7713 ROTHERHAM DRIVE","HANOVER","MD",21076,39.15048095,-76.733495969,353,"7713 ROTHERHAM DRIVE, HANOVER, MD, 21076","Match","Exact","7713 ROTHERHAM DR, HANOVER, MD, 21076",606930518,"L"
288854,"7713 SHASTA DRIVE","MCKINNEY","TX",75071,33.2067542950001,-96.7185394429999,354,"7713 SHASTA DRIVE, MCKINNEY, TX, 75071","Match","Exact","7713 SHASTA DR, MCKINNEY, TX, 75071",619916255,"L"
288855,"7713 SW NIMBUS AVE UNIT 31","BEAVERTON","OR",97008,45.4630595300001,-122.788508828,355,"7713 SW NIMBUS AVE UNIT 31, BEAVERTON, OR, 97008","Match","Non_Exact","7713 SW NIMBUS AVE, BEAVERTON, OR, 97008",158189611,"R"
288856,"7714 138TH ST APT A","FLUSHING","NY",11367,NA,NA,356,"7714 138TH ST APT A, FLUSHING, NY, 11367","No_Match",NA,NA,NA,NA
288857,"7714 BAINBRIDGE ROAD","CHAGRIN FALLS","OH",44023,41.3856711780001,-81.366763044,357,"7714 BAINBRIDGE ROAD, CHAGRIN FALLS, OH, 44023","Match","Exact","7714 BAINBRIDGE RD, CHAGRIN FALLS, OH, 44023",623783839,"L"
288858,"7714 BLUE POINT AVE","BELTSVILLE","MD",20705,39.0657155690001,-76.872980765,358,"7714 BLUE POINT AVE, BELTSVILLE, MD, 20705","Match","Exact","7714 BLUE POINT AVE, BELTSVILLE, MD, 20705",76350258,"L"
288859,"7714 BROOKLYN BLVD STE 200D","BROOKLYN CTR","MN",55443,45.0944990830001,-93.3584791759999,359,"7714 BROOKLYN BLVD STE 200D, BROOKLYN CTR, MN, 55443","Match","Exact","7714 BROOKLYN BLVD, BROOKLYN CENTER, MN, 55443",43829000,"R"
288860,"7714 BROOKLYN BLVD SUITE 200D","BROOKLYN PARK","MN",55443,45.0944990830001,-93.3584791759999,360,"7714 BROOKLYN BLVD SUITE 200D, BROOKLYN PARK, MN, 55443","Match","Exact","7714 BROOKLYN BLVD, BROOKLYN PARK, MN, 55443",43829000,"R"
288861,"7714 CANNON ST","PITTSBURGH","PA",15218,40.4227490390001,-79.882887969,361,"7714 CANNON ST, PITTSBURGH, PA, 15218","Match","Exact","7714 CANNON ST, PITTSBURGH, PA, 15218",51654033,"R"
288862,"7714 E HAMPTON AVENUE","MESA","AZ",85209,33.3901361200001,-111.665231966,362,"7714 E HAMPTON AVENUE, MESA, AZ, 85209","Match","Exact","7714 E HAMPTON AVE, MESA, AZ, 85209",128253572,"L"
288863,"7714 GASTON DRIVE","PORT RICHEY","FL",34668,28.32908925,-82.6872703619999,363,"7714 GASTON DRIVE, PORT RICHEY, FL, 34668","Match","Exact","7714 GASTON DR, PORT RICHEY, FL, 34668",86338836,"R"
288864,"7714 GEORGETOWN PIKE","MCLEAN","VA",22102,38.95982861,-77.212960617,364,"7714 GEORGETOWN PIKE, MCLEAN, VA, 22102","Match","Exact","7714 GEORGETOWN PIKE, MCLEAN, VA, 22102",76050524,"R"
288865,"7714 GLENISTER DRIVE","SPRINGFIELD","VA",22152,38.7750053030001,-77.2109435259999,365,"7714 GLENISTER DRIVE, SPRINGFIELD, VA, 22152","Match","Exact","7714 GLENISTER DR, SPRINGFIELD, VA, 22152",75976599,"R"
288866,"7714 HIAWATHA DRIVE","HOUSTON","TX",77036,29.7064201650001,-95.521665629,366,"7714 HIAWATHA DRIVE, HOUSTON, TX, 77036","Match","Exact","7714 HIAWATHA DR, HOUSTON, TX, 77036",96031232,"R"
288867,"7714 PROSPECT AVE","KANSAS CITY","MO",64132,38.9857307130001,-94.557533263,367,"7714 PROSPECT AVE, KANSAS CITY, MO, 64132","Match","Exact","7714 PROSPECT AVE, KANSAS CITY, MO, 64132",91457100,"R"
288868,"7714 SOUTH CLYDE","CHICAGO","IL",60649,41.754910205,-87.573617704,368,"7714 SOUTH CLYDE, CHICAGO, IL, 60649","Match","Non_Exact","7714 S CLYDE AVE, CHICAGO, IL, 60649",111775652,"R"
288869,"7714 SOUTH KING DRIVE","CHICAGO","IL",60619,NA,NA,369,"7714 SOUTH KING DRIVE, CHICAGO, IL, 60619","No_Match",NA,NA,NA,NA
288870,"7714 STONEHENGE DRIVE","CINCINNATI","OH",45242,39.239534679,-84.370777436,370,"7714 STONEHENGE DRIVE, CINCINNATI, OH, 45242","Match","Exact","7714 STONEHENGE DR, CINCINNATI, OH, 45242",103938327,"R"
288871,"7714 VIA CAPRI","BURBANK","CA",91504,34.211520879,-118.339752407,371,"7714 VIA CAPRI, BURBANK, CA, 91504","Match","Exact","7714 VIA CAPRI, BURBANK, CA, 91504",142723673,"R"
288872,"7714 W BALMORAL","CHICAGO","IL",60656,41.9778481280001,-87.819850157,372,"7714 W BALMORAL, CHICAGO, IL, 60656","Match","Non_Exact","7714 W BALMORAL AVE, CHICAGO, IL, 60656",111746787,"R"
288873,"7714 W KINDELL ST","MUSKOGEE","OK",74401,NA,NA,373,"7714 W KINDELL ST, MUSKOGEE, OK, 74401","No_Match",NA,NA,NA,NA
288874,"7714 W POTOMAC AVE","MILWAUKEE","WI",53222,43.094525758,-88.009459346,374,"7714 W POTOMAC AVE, MILWAUKEE, WI, 53222","Match","Exact","7714 W POTOMAC AVE, MILWAUKEE, WI, 53222",77730255,"R"
288875,"7715 4TH AVE W","BRADENTON","FL",34209,27.497064234,-82.639254468,375,"7715 4TH AVE W, BRADENTON, FL, 34209","Match","Exact","7715 4TH AVE W, BRADENTON, FL, 34209",16231773,"L"
288876,"7715 AQUATIC DRIVE","ARVERNE","NY",11692,40.589186576,-73.8046236329999,376,"7715 AQUATIC DRIVE, ARVERNE, NY, 11692","Match","Exact","7715 AQUATIC DR, ARVERNE, NY, 11692",636026074,"L"
288877,"7715 ARAGORN LANE","CHARLOTTE","NC",28212,35.171441519,-80.726293845,377,"7715 ARAGORN LANE, CHARLOTTE, NC, 28212","Match","Exact","7715 ARAGORN LN, CHARLOTTE, NC, 28212",70589766,"L"
288878,"7715 CLARIDGE DR","HOUSTON","TX",77071,29.6613687820001,-95.511446967,378,"7715 CLARIDGE DR, HOUSTON, TX, 77071","Match","Exact","7715 CLARIDGE DR, HOUSTON, TX, 77071",96037967,"R"
288879,"7715 COLLINA LANDING TRL","RICHMOND","TX",77407,29.68969717,-95.72536361,379,"7715 COLLINA LANDING TRL, RICHMOND, TX, 77407","Match","Exact","7715 COLLINA LANDING TRL, RICHMOND, TX, 77407",648942177,"L"
288880,"7715 CRITTENDEN ST  247","PHILADELPHIA","PA",19118,40.072477131,-75.193252742,380,"7715 CRITTENDEN ST  247, PHILADELPHIA, PA, 19118","Match","Exact","7715 CRITTENDEN ST, PHILADELPHIA, PA, 19118",131440580,"R"
288881,"7715 CRITTENDEN ST SUITE 361","PHILADELPHIA","PA",19118,40.072477131,-75.193252742,381,"7715 CRITTENDEN ST SUITE 361, PHILADELPHIA, PA, 19118","Match","Exact","7715 CRITTENDEN ST, PHILADELPHIA, PA, 19118",131440580,"R"
288882,"7715 CRITTENDEN STREET","PHILADELPHIA","PA",19118,40.072477131,-75.193252742,382,"7715 CRITTENDEN STREET, PHILADELPHIA, PA, 19118","Match","Exact","7715 CRITTENDEN ST, PHILADELPHIA, PA, 19118",131440580,"R"
288883,"7715 EAST HOLMES ROAD","MEMPHIS","TN",38125,35.005968646,-89.806623808,383,"7715 EAST HOLMES ROAD, MEMPHIS, TN, 38125","Match","Exact","7715 E HOLMES RD, MEMPHIS, TN, 38125",643501186,"R"
288884,"7715 GLENBRAE STREET","HOUSTON","TX",77061,29.6670308870001,-95.2803450819999,384,"7715 GLENBRAE STREET, HOUSTON, TX, 77061","Match","Exact","7715 GLENBRAE ST, HOUSTON, TX, 77061",96093078,"L"
288885,"7715 HENNEPIN CT","HANOVER","MD",21076,39.151946706,-76.7178477319999,385,"7715 HENNEPIN CT, HANOVER, MD, 21076","Match","Exact","7715 HENNEPIN CT, HANOVER, MD, 21076",618559201,"R"
288886,"7715 LOCUST PLACE","PORT TOBACCO","MD",20677,38.498709665,-77.0075968739999,386,"7715 LOCUST PLACE, PORT TOBACCO, MD, 20677","Match","Exact","7715 LOCUST PL, PORT TOBACCO, MD, 20677",647424779,"R"
288887,"7715 N RANGELINE RD","COVINGTON","OH",45318,40.149146305,-84.378979686,387,"7715 N RANGELINE RD, COVINGTON, OH, 45318","Match","Exact","7715 RANGELINE RD, COVINGTON, OH, 45318",207644073,"L"
288888,"7715 ROYER AVE","WEST HILLS","CA",91304,34.2106713060001,-118.627768539,388,"7715 ROYER AVE, WEST HILLS, CA, 91304","Match","Exact","7715 ROYER AVE, WEST HILLS, CA, 91304",141721206,"L"
288889,"7715 SAPULPA LANE","CYPRESS","TX",77433,29.8905012230001,-95.690423919,389,"7715 SAPULPA LANE, CYPRESS, TX, 77433","Match","Exact","7715 SAPULPA LN, CYPRESS, TX, 77433",635028448,"L"
288890,"7715 TAZEWELL PIKE","CORRYTON","TN",37721,36.129879719,-83.854244288,390,"7715 TAZEWELL PIKE, CORRYTON, TN, 37721","Match","Exact","7715 TAZEWELL PIKE, CORRYTON, TN, 37721",604669310,"L"
288891,"7715 TIERRA MONTANOSA AVENUE","LAS VEGAS","NV",89179,35.988359905,-115.259536149,391,"7715 TIERRA MONTANOSA AVENUE, LAS VEGAS, NV, 89179","Match","Exact","7715 TIERRA MONTANOSA AVE, LAS VEGAS, NV, 89179",641454075,"L"
288892,"7715 TOLAND AVE","LOS ANGELES","CA",90045,33.967628672,-118.376657514,392,"7715 TOLAND AVE, LOS ANGELES, CA, 90045","Match","Exact","7715 TOLAND AVE, LOS ANGELES, CA, 90045",141579637,"R"
288893,"7715 WATERCHASE DR","MISSOURI CITY","TX",77489,29.610938542,-95.502248953,393,"7715 WATERCHASE DR, MISSOURI CITY, TX, 77489","Match","Exact","7715 WATERCHASE DR, MISSOURI CITY, TX, 77489",78270293,"R"
288894,"7715 WEXFORD COVE","SAN ANTONIO","TX",78240,29.5097399960001,-98.595081916,394,"7715 WEXFORD COVE, SAN ANTONIO, TX, 78240","Match","Exact","7715 WEXFORD COVE, SAN ANTONIO, TX, 78240",101703665,"R"
288895,"77150 CITIZENS CIRCLE","YULEE","FL",32097,NA,NA,395,"77150 CITIZENS CIRCLE, YULEE, FL, 32097","No_Match",NA,NA,NA,NA
288896,"7716 CONTOUR DR","SAINT LOUIS","MO",63121,38.71488594,-90.298271412,396,"7716 CONTOUR DR, SAINT LOUIS, MO, 63121","Match","Exact","7716 CONTOUR DR, SAINT LOUIS, MO, 63121",645519349,"L"
288897,"7716 DUCHARME AVENUE","LAS VEGAS","NV",89145,36.170231003,-115.263278512,397,"7716 DUCHARME AVENUE, LAS VEGAS, NV, 89145","Match","Exact","7716 DUCHARME AVE, LAS VEGAS, NV, 89145",201990552,"R"
288898,"7716 GRIFFIN POND CT","SPRINGFIELD","VA",22153,38.7464445200001,-77.269493085,398,"7716 GRIFFIN POND CT, SPRINGFIELD, VA, 22153","Match","Exact","7716 GRIFFIN POND CT, SPRINGFIELD, VA, 22153",76008112,"L"
288899,"7716 HANOVER PKWY APT T3","GREENBELT","MD",20770,38.9964214080001,-76.870772839,399,"7716 HANOVER PKWY APT T3, GREENBELT, MD, 20770","Match","Exact","7716 HANOVER PKWY, GREENBELT, MD, 20770",76377499,"L"
288900,"7716 LEAK LANE","CHAPEL HILL","NC",27516,35.964375729,-79.094599193,400,"7716 LEAK LANE, CHAPEL HILL, NC, 27516","Match","Exact","7716 LEAK LN, CHAPEL HILL, NC, 27516",72385734,"L"
288901,"7716 N 83 ST","OMAHA","NE",68122,41.3301169480001,-96.041590906,401,"7716 N 83 ST, OMAHA, NE, 68122","Match","Exact","7716 N 83RD ST, OMAHA, NE, 68122",117015844,"L"
288902,"7716 PATTERSON AVE","HENRICO","VA",23229,37.5935875170001,-77.545459749,402,"7716 PATTERSON AVE, HENRICO, VA, 23229","Match","Exact","7716 PATTERSON AVE, HENRICO, VA, 23229",106675994,"R"
288903,"7716 RIVERSIDE PKWY 105C","TULSA","OK",74136,36.050268483,-95.968829577,403,"7716 RIVERSIDE PKWY 105C, TULSA, OK, 74136","Match","Exact","7716 RIVERSIDE PW, TULSA, OK, 74136",648744216,"R"
288904,"7716 SW 26TH AVENUE","PORTLAND","OR",97219,45.469269393,-122.703891343,404,"7716 SW 26TH AVENUE, PORTLAND, OR, 97219","Match","Exact","7716 SW 26TH AVE, PORTLAND, OR, 97219",157500254,"L"
288905,"7716-B SOUTH RAEFORD ROAD","FAYETTEVILLE","NC",28314,35.030820067,-79.056910128,405,"7716-B SOUTH RAEFORD ROAD, FAYETTEVILLE, NC, 28314","Match","Non_Exact","7716 RAEFORD RD, FAYETTEVILLE, NC, 28314",64256947,"R"
288906,"7717 ALHAMBRA BLVD","MIRAMAR","FL",33023,25.9799442360001,-80.239102451,406,"7717 ALHAMBRA BLVD, MIRAMAR, FL, 33023","Match","Exact","7717 ALHAMBRA BLVD, MIRAMAR, FL, 33023",114734101,"R"
288907,"7717 DAN LN","KNOXVILLE","TN",37938,36.0724703320001,-83.97153407,407,"7717 DAN LN, KNOXVILLE, TN, 37938","Match","Exact","7717 DAN LN, KNOXVILLE, TN, 37938",42660676,"L"
288908,"7717 GREENSPAN AVE","DALLAS","TX",75232,32.654831788,-96.830840585,408,"7717 GREENSPAN AVE, DALLAS, TX, 75232","Match","Exact","7717 GREENSPAN AVE, DALLAS, TX, 75232",102953090,"R"
288909,"7717 LOUETTA RD - BOX 11991","SPRING","TX",77391,30.0175475510001,-95.530013794,409,"7717 LOUETTA RD - BOX 11991, SPRING, TX, 77391","Match","Non_Exact","7717 LOUETTA RD, SPRING, TX, 77379",642478145,"L"
288910,"7717 LOUETTA RD 11754","SPRING","TX",77391,30.0175475510001,-95.530013794,410,"7717 LOUETTA RD 11754, SPRING, TX, 77391","Match","Non_Exact","7717 LOUETTA RD, SPRING, TX, 77379",642478145,"L"
288911,"7717 MARYKNOLL CT","BETHESDA","MD",20817,38.9891640270001,-77.135646929,411,"7717 MARYKNOLL CT, BETHESDA, MD, 20817","Match","Non_Exact","7717 MARY KNOLL CT, BETHESDA, MD, 20817",62057583,"R"
288912,"7717 NEWMAN STREET","ARVADA","CO",80005,39.836480995,-105.118205084,412,"7717 NEWMAN STREET, ARVADA, CO, 80005","Match","Exact","7717 NEWMAN ST, ARVADA, CO, 80005",177281314,"L"
288913,"7717 ROCKWELL AVENUE","PHILADELPHIA","PA",19111,40.068833598,-75.0836145869999,413,"7717 ROCKWELL AVENUE, PHILADELPHIA, PA, 19111","Match","Exact","7717 ROCKWELL AVE, PHILADELPHIA, PA, 19111",131415443,"R"
288914,"7717 SW 50TH AVE","PORTLAND","OR",97319,NA,NA,414,"7717 SW 50TH AVE, PORTLAND, OR, 97319","No_Match",NA,NA,NA,NA
288915,"7717 WOODVIOLET CT SE","ADA","MI",49301,42.920365174,-85.4778643,415,"7717 WOODVIOLET CT SE, ADA, MI, 49301","Match","Non_Exact","7717 WOOD VIOLET CT SE, ADA, MI, 49301",12492524,"R"
288916,"7718 EIGHT WILLOWS ROAD","MISSOURI CITY","TX",77489,29.6159284230001,-95.500183626,416,"7718 EIGHT WILLOWS ROAD, MISSOURI CITY, TX, 77489","Match","Exact","7718 EIGHT WILLOWS RD, MISSOURI CITY, TX, 77489",651223244,"R"
288917,"7718 GARMAN ROAD","AUBURN","IN",46706,41.2556502990001,-85.04909502,417,"7718 GARMAN ROAD, AUBURN, IN, 46706","Match","Exact","7718 GARMAN RD, AUBURN, IN, 46706",636462566,"R"
288918,"7718 GREEN GARLAND DRIVE","SPRINGFIELD","VA",22153,38.7469572630001,-77.2452876469999,418,"7718 GREEN GARLAND DRIVE, SPRINGFIELD, VA, 22153","Match","Exact","7718 GREEN GARLAND DR, SPRINGFIELD, VA, 22153",76053865,"L"
288919,"7718 JOHN CARROLL DR","ABIENE","TX",79605,NA,NA,419,"7718 JOHN CARROLL DR, ABIENE, TX, 79605","No_Match",NA,NA,NA,NA
288920,"7718 MCPHERSON RD SUITE 5","LAREDO","TX",78045,27.574963783,-99.473508452,420,"7718 MCPHERSON RD SUITE 5, LAREDO, TX, 78045","Match","Exact","7718 MCPHERSON RD, LAREDO, TX, 78045",21668982,"L"
288921,"7718 NATURE TRAIL","COLUMBUS","GA",31904,32.5592609720001,-84.976888246,421,"7718 NATURE TRAIL, COLUMBUS, GA, 31904","Match","Exact","7718 NATURE TRL, COLUMBUS, GA, 31904",98935941,"L"
288922,"7718 RAFTER RD","FRANKTOWN","CO",80116,39.39975256,-104.742479789,422,"7718 RAFTER RD, FRANKTOWN, CO, 80116","Match","Exact","7718 RAFTER RD, FRANKTOWN, CO, 80116",130795090,"R"
288923,"7718 S DENKER AVENUE","LOS ANGELES","CA",90047,33.969837888,-118.304623786,423,"7718 S DENKER AVENUE, LOS ANGELES, CA, 90047","Match","Exact","7718 S DENKER AVE, LOS ANGELES, CA, 90047",141658894,"L"
288924,"7718 S ST UNIT 4A","LITTLE ROCK","AR",72227,34.7720906230001,-92.361072769,424,"7718 S ST UNIT 4A, LITTLE ROCK, AR, 72227","Match","Exact","7718 S ST, LITTLE ROCK, AR, 72227",83528026,"L"
288925,"7718 SENJILL CT","ORLANDO","FL",32818,28.604290685,-81.489331497,425,"7718 SENJILL CT, ORLANDO, FL, 32818","Match","Exact","7718 SENJILL CT, ORLANDO, FL, 32818",94420557,"L"
288926,"7718 US HWY 50","SHOALS","IN",47581,NA,NA,426,"7718 US HWY 50, SHOALS, IN, 47581","No_Match",NA,NA,NA,NA
288927,"7718 WIND RUN CIRCLE","INDIANAPOLIS","IN",46256,39.9020064040001,-86.03199217,427,"7718 WIND RUN CIRCLE, INDIANAPOLIS, IN, 46256","Match","Exact","7718 WIND RUN CIR, INDIANAPOLIS, IN, 46256",107996869,"R"
288928,"7719 160TH AVE","BRISTOL","WI",53104,42.564021817,-88.0013782,428,"7719 160TH AVE, BRISTOL, WI, 53104","Match","Exact","7719 160TH AVE, BRISTOL, WI, 53104",651688527,"R"
288929,"7719 BARHILL POST","SAN ANTONIO","TX",78254,29.5116628810001,-98.7114909969999,429,"7719 BARHILL POST, SAN ANTONIO, TX, 78254","Match","Exact","7719 BARHILL POST, SAN ANTONIO, TX, 78254",101744287,"L"
288930,"7719 BUTTERNUT CT","WOODRIDGE","IL",60517,41.746293881,-88.052441283,430,"7719 BUTTERNUT CT, WOODRIDGE, IL, 60517","Match","Exact","7719 BUTTERNUT CT, WOODRIDGE, IL, 60517",112539206,"L"
288931,"7719 COUNTY RD 250","CLYDE","TX",79510,32.357096916,-99.5211695199999,431,"7719 COUNTY RD 250, CLYDE, TX, 79510","Match","Exact","7719 CO RD 250, CLYDE, TX, 79510",129537984,"L"
288932,"7719 E IRONWOOD CT","SCOTTSDALE","AZ",85258,33.576094884,-111.914425748,432,"7719 E IRONWOOD CT, SCOTTSDALE, AZ, 85258","Match","Exact","7719 E IRONWOOD CT, SCOTTSDALE, AZ, 85258",128227819,"R"
288933,"7719 FULLERTON ROAD","SPRINGFIELD","VA",22153,38.7422538160001,-77.210331385,433,"7719 FULLERTON ROAD, SPRINGFIELD, VA, 22153","Match","Exact","7719 FULLERTON RD, SPRINGFIELD, VA, 22153",641081440,"R"
288934,"7719 GRAPHICS WAY STE E","LEWIS CENTER","OH",43035,40.179669131,-83.019396199,434,"7719 GRAPHICS WAY STE E, LEWIS CENTER, OH, 43035","Match","Exact","7719 GRAPHICS WAY, LEWIS CENTER, OH, 43035",24595819,"L"
288935,"7719 HANGAR LOOP DR","TAMPA","FL",33619,27.853136002,-82.493268396,435,"7719 HANGAR LOOP DR, TAMPA, FL, 33619","Match","Non_Exact","7719 HANGER LOOP DR, TAMPA, FL, 33608",104583661,"R"
288936,"7719 LUNCEFORD LN","FALLS CHURCH","VA",22043,38.9134006150001,-77.210987394,436,"7719 LUNCEFORD LN, FALLS CHURCH, VA, 22043","Match","Exact","7719 LUNCEFORD LN, FALLS CHURCH, VA, 22043",642596924,"L"
288937,"7719 N FOX POINT DR","SPOKANE","WA",99208,47.7278840220001,-117.42438981,437,"7719 N FOX POINT DR, SPOKANE, WA, 99208","Match","Exact","7719 N FOX POINT DR, SPOKANE, WA, 99208",189868620,"L"
288938,"7719 NORTH MARIBEL COURT","BATON ROUGE","LA",70812,30.4915036,-91.111380014,438,"7719 NORTH MARIBEL COURT, BATON ROUGE, LA, 70812","Match","Exact","7719 N MARIBEL CT, BATON ROUGE, LA, 70812",92188546,"L"
288939,"7719 W 11TH ST","WICHITA","KS",67212,37.7047799110001,-97.4318943659999,439,"7719 W 11TH ST, WICHITA, KS, 67212","Match","Non_Exact","7719 W 11TH ST N, WICHITA, KS, 67212",115629918,"L"
288940,"7719 WOOD HOLLOW DR 157","AUSTIN","TX",78641,30.3609204000001,-97.747735832,440,"7719 WOOD HOLLOW DR 157, AUSTIN, TX, 78641","Match","Non_Exact","7719 WOOD HOLLOW DR, AUSTIN, TX, 78731",641871365,"R"
288941,"772 BOURNE LANE","VICTOR","MT",59875,46.343540347,-114.214719602,441,"772 BOURNE LANE, VICTOR, MT, 59875","Match","Exact","772 BOURNE LN, VICTOR, MT, 59875",642187179,"R"
288942,"772 BOYLE DR","KINGSFORD","MI",49802,45.7893113100001,-88.074517688,442,"772 BOYLE DR, KINGSFORD, MI, 49802","Match","Exact","772 BOYLE DR, KINGSFORD, MI, 49802",170178104,"L"
288943,"772 CAMINO MAGNIFICO","SAN MARCOS","CA",92069,NA,NA,443,"772 CAMINO MAGNIFICO, SAN MARCOS, CA, 92069","No_Match",NA,NA,NA,NA
288944,"772 CHAMBERLAIN STREET","PLACERVILLE","CA",95667,38.7256842680001,-120.803858371,444,"772 CHAMBERLAIN STREET, PLACERVILLE, CA, 95667","Match","Exact","772 CHAMBERLAIN ST, PLACERVILLE, CA, 95667",133053204,"L"
288945,"772 DORCHESTER COURT","SMYRNA","DE",19977,39.2878256710001,-75.611427615,445,"772 DORCHESTER COURT, SMYRNA, DE, 19977","Match","Exact","772 DORCHESTER CT, SMYRNA, DE, 19977",601698667,"R"
288946,"772 E 9TH STREET","BROOKLYN","NY",11230,40.629965317,-73.96812497,446,"772 E 9TH STREET, BROOKLYN, NY, 11230","Match","Exact","772 E 9TH ST, BROOKLYN, NY, 11230",59081101,"R"
288947,"772 FOX RUN DRIVE","GENEVA","IL",60134,41.8773963200001,-88.3019821239999,447,"772 FOX RUN DRIVE, GENEVA, IL, 60134","Match","Exact","772 FOX RUN DR, GENEVA, IL, 60134",119582093,"R"
288948,"772 FOXRIDGE CENTER DR","ORANGE PARK","FL",32065,30.144907131,-81.7637491579999,448,"772 FOXRIDGE CENTER DR, ORANGE PARK, FL, 32065","Match","Exact","772 FOXRIDGE CENTER DR, ORANGE PARK, FL, 32065",606223263,"R"
288949,"772 HECK HILL ROAD","LEWISBERRY","PA",17339,40.1481705790001,-76.862768463,449,"772 HECK HILL ROAD, LEWISBERRY, PA, 17339","Match","Exact","772 HECK HILL RD, LEWISBERRY, PA, 17339",633028288,"L"
288950,"772 LOCKWOOD LN S","SALEM","OR",97302,44.8964041670001,-123.057950179,450,"772 LOCKWOOD LN S, SALEM, OR, 97302","Match","Exact","772 LOCKWOOD LN S, SALEM, OR, 97302",156249150,"L"
288951,"772 MAHONIA DRIVE","BELLINGHAM","WA",98229,48.7128168830001,-122.449456937,451,"772 MAHONIA DRIVE, BELLINGHAM, WA, 98229","Match","Exact","772 MAHONIA DR, BELLINGHAM, WA, 98229",183811431,"R"
288952,"772 MAIN STREET 273","TOOELE","UT",84074,40.5444998410001,-112.298261925,452,"772 MAIN STREET 273, TOOELE, UT, 84074","Match","Non_Exact","772 N MAIN ST, TOOELE, UT, 84074",155393796,"R"
288953,"772 MARVIN AVENUE","NORFOLK","VA",23518,36.925704475,-76.24945085,453,"772 MARVIN AVENUE, NORFOLK, VA, 23518","Match","Exact","772 MARVIN AVE, NORFOLK, VA, 23518",122145971,"L"
288954,"772 METCALF AVE","NEW YORK CITY","NY",10473,40.8197238440001,-73.870338396,454,"772 METCALF AVE, NEW YORK CITY, NY, 10473","Match","Non_Exact","772 METCALF AVE, BRONX, NY, 10473",80304905,"R"
288955,"772 MILKWEED CT","NEENAH","WI",54956,44.173521894,-88.5086783359999,455,"772 MILKWEED CT, NEENAH, WI, 54956","Match","Exact","772 MILKWEED CT, NEENAH, WI, 54956",617909130,"L"
288956,"772 OGLETHORPE ST NE","WASHINGTON","DC",20011,38.959148052,-76.995676937,456,"772 OGLETHORPE ST NE, WASHINGTON, DC, 20011","Match","Exact","772 OGLETHORPE ST NE, WASHINGTON, DC, 20011",76228019,"L"
288957,"772 RIVIERA DR","CANYON LAKE","TX",78133,29.883774682,-98.260751705,457,"772 RIVIERA DR, CANYON LAKE, TX, 78133","Match","Exact","772 RIVIERA DR, CANYON LAKE, TX, 78133",72237391,"L"
288958,"772 ROSEMONT DRIVE","PANAMA CITY","FL",32405,30.2001471730001,-85.668863298,458,"772 ROSEMONT DRIVE, PANAMA CITY, FL, 32405","Match","Exact","772 ROSEMONT DR, PANAMA CITY, FL, 32405",7028842,"R"
288959,"772 S LORETTA DR","ORANGE","CA",92869,33.775731981,-117.82531131,459,"772 S LORETTA DR, ORANGE, CA, 92869","Match","Exact","772 S LORETTA DR, ORANGE, CA, 92869",144052686,"R"
288960,"772 SPECTRUM DR","NEW BRAUNFELS","TX",78130,29.66959748,-98.038061913,460,"772 SPECTRUM DR, NEW BRAUNFELS, TX, 78130","Match","Exact","772 SPECTRUM DR, NEW BRAUNFELS, TX, 78130",641467289,"R"
288961,"772 STATE LINE RD NUM B","CALUMET CITY","IL",60409,41.61235501,-87.525147504,461,"772 STATE LINE RD NUM B, CALUMET CITY, IL, 60409","Match","Exact","772 STATE LINE RD, CALUMET CITY, IL, 60409",98416819,"R"
288962,"772 TERRY ST","ATLANTA","GA",30315,33.7335269650001,-84.3848417149999,462,"772 TERRY ST, ATLANTA, GA, 30315","Match","Non_Exact","772 TERRY ST SE, ATLANTA, GA, 30315",17346411,"L"
288963,"772 TIMBERLINE PKWY","VALPARAISO","IN",46385,41.546474672,-87.138818843,463,"772 TIMBERLINE PKWY, VALPARAISO, IN, 46385","Match","Exact","772 TIMBERLINE PKWY, VALPARAISO, IN, 46385",119919350,"L"
288964,"772 TOP NOTCH LANE","EUREKA","MO",63025,38.5096000550001,-90.652430253,464,"772 TOP NOTCH LANE, EUREKA, MO, 63025","Match","Exact","772 TOP NOTCH LN, EUREKA, MO, 63025",100185299,"R"
288965,"772 W KATHLEEN","COEUR D ALENE","ID",83815,47.7154685950001,-116.796632683,465,"772 W KATHLEEN, COEUR D ALENE, ID, 83815","Match","Non_Exact","772 W KATHLEEN AVE, COEUR D ALENE, ID, 83815",192956848,"L"
288966,"772 WATERSCAPE CT","ROCK HILL","SC",29730,34.977964908,-80.973057863,466,"772 WATERSCAPE CT, ROCK HILL, SC, 29730","Match","Exact","772 WATERSCAPE CT, ROCK HILL, SC, 29730",645272109,"R"
288967,"772 WILSON AVE","GLEN ELLYN","IL",60137,41.856630206,-88.0534952469999,467,"772 WILSON AVE, GLEN ELLYN, IL, 60137","Match","Exact","772 WILSON AVE, GLEN ELLYN, IL, 60137",112578650,"L"
288968,"7720 BEL AIRE DR APT 10","BEAVERTON","OR",97008,45.4641555050001,-122.792483761,468,"7720 BEL AIRE DR APT 10, BEAVERTON, OR, 97008","Match","Non_Exact","7720 SW BEL AIRE DR, BEAVERTON, OR, 97008",158189459,"L"
288969,"7720 COUNTY ROAD 126 SW","BYRON","MN",55920,43.935061755,-92.5904801139999,469,"7720 COUNTY ROAD 126 SW, BYRON, MN, 55920","Match","Exact","7720 CO RD 126 SW, BYRON, MN, 55920",612128260,"R"
288970,"7720 GREENBRIER ROAD","JOELTON","TN",37080,36.3480784540001,-86.872275525,470,"7720 GREENBRIER ROAD, JOELTON, TN, 37080","Match","Exact","7720 GREENBRIER RD, JOELTON, TN, 37080",97177360,"R"
288971,"7720 LONG LAKE ROAD","MOUNDS VIEW","MN",55112,45.1086483330001,-93.2089995489999,471,"7720 LONG LAKE ROAD, MOUNDS VIEW, MN, 55112","Match","Exact","7720 LONG LAKE RD, MOUNDS VIEW, MN, 55112",97633431,"L"
288972,"7720 LORRAINE AVE STE 111","STOCKTON","CA",95210,38.0204648440001,-121.283269172,472,"7720 LORRAINE AVE STE 111, STOCKTON, CA, 95210","Match","Exact","7720 LORRAINE AVE, STOCKTON, CA, 95210",133930601,"R"
288973,"7720 MALABAR TERRACE","CINCINNATI","OH",45236,39.2166072360001,-84.3621053319999,473,"7720 MALABAR TERRACE, CINCINNATI, OH, 45236","Match","Exact","7720 MALABAR TER, CINCINNATI, OH, 45236",103938931,"L"
288974,"7720 MANSFIELD ST","NEW ORLEANS","LA",70126,NA,NA,474,"7720 MANSFIELD ST, NEW ORLEANS, LA, 70126","No_Match",NA,NA,NA,NA
288975,"7720 MARKER RD","SAN DIEGO","CA",92130,32.9692833440001,-117.159294231,475,"7720 MARKER RD, SAN DIEGO, CA, 92130","Match","Exact","7720 MARKER RD, SAN DIEGO, CA, 92130",195756972,"L"
288976,"7720 MILITARY PARKWAY 271262","DALLAS","TX",75227,32.770354739,-96.687683941,476,"7720 MILITARY PARKWAY 271262, DALLAS, TX, 75227","Match","Exact","7720 MILITARY PKWY, DALLAS, TX, 75227",619147335,"R"
288977,"7720 N SILVERBELL RD","TUCSON","AZ",85743,32.3467805610001,-111.09682615,477,"7720 N SILVERBELL RD, TUCSON, AZ, 85743","Match","Exact","7720 N SILVERBELL RD, TUCSON, AZ, 85743",646164873,"R"
288978,"7720 NE HWY 99 STE D132","VANCOUVER","WA",95966,NA,NA,478,"7720 NE HWY 99 STE D132, VANCOUVER, WA, 95966","No_Match",NA,NA,NA,NA
288979,"7720 NE HWY 99 SUITE D225","VANCOUVER","WA",98665,45.6777092290001,-122.662223042,479,"7720 NE HWY 99 SUITE D225, VANCOUVER, WA, 98665","Match","Non_Exact","7720 NE HWY 99, VANCOUVER, WA, 98665",158323001,"L"
288980,"7720 OCONNOR DR  APR 3102","ROUNDROCK","TX",78681,30.499768144,-97.722884823,480,"7720 OCONNOR DR  APR 3102, ROUNDROCK, TX, 78681","Match","Non_Exact","7720 OCONNOR DR, ROUND ROCK, TX, 78681",126482604,"L"
288981,"7720 PONDEROSA PINE LANE","CHARLOTTE","NC",28215,35.2326545380001,-80.678927845,481,"7720 PONDEROSA PINE LANE, CHARLOTTE, NC, 28215","Match","Exact","7720 PONDEROSA PINE LN, CHARLOTTE, NC, 28215",614165905,"R"
288982,"7720 S BROADWAY SUITE 480","LITTLETON","CO",80122,39.577364027,-104.988373417,482,"7720 S BROADWAY SUITE 480, LITTLETON, CO, 80122","Match","Non_Exact","7720 S BROADWAY, LITTLETON, CO, 80122",639327241,"L"
288983,"7720 SE 45TH AVE","PORTLAND","OR",97206,45.467606915,-122.615935405,483,"7720 SE 45TH AVE, PORTLAND, OR, 97206","Match","Exact","7720 SE 45TH AVE, PORTLAND, OR, 97206",157548527,"L"
288984,"7720 SIPLE AVE","FAYETTEVILLE","NC",28304,35.0246974900001,-79.026019251,484,"7720 SIPLE AVE, FAYETTEVILLE, NC, 28304","Match","Exact","7720 SIPLE AVE, FAYETTEVILLE, NC, 28304",64267526,"R"
288985,"7720 SUMMERLIN BLVD","LIBERTY TWP","OH",45044,39.420779828,-84.361315721,485,"7720 SUMMERLIN BLVD, LIBERTY TWP, OH, 45044","Match","Exact","7720 SUMMERLIN BLVD, LIBERTY TOWNSHIP, OH, 45044",113820557,"R"
288986,"7720 SURREY DR","INDIANAPOLIS","IN",46227,39.6542566320001,-86.1418333,486,"7720 SURREY DR, INDIANAPOLIS, IN, 46227","Match","Exact","7720 SURREY DR, INDIANAPOLIS, IN, 46227",108008165,"R"
288987,"7720 SW 173RD STREET","PALMETTO BAY","FL",33157,25.6103272390001,-80.3165626539999,487,"7720 SW 173RD STREET, PALMETTO BAY, FL, 33157","Match","Exact","7720 SW 173RD ST, PALMETTO BAY, FL, 33157",115987203,"L"
288988,"7720 THOMAS ROAD 1608","MOBILE","AL",36695,30.679439347,-88.2238926969999,488,"7720 THOMAS ROAD 1608, MOBILE, AL, 36695","Match","Exact","7720 THOMAS RD, MOBILE, AL, 36695",61960283,"R"
288989,"7720 TRANQUILITY DRIVE","OOLTEWAH","TN",37363,35.1225289860001,-85.055030508,489,"7720 TRANQUILITY DRIVE, OOLTEWAH, TN, 37363","Match","Exact","7720 TRANQUILITY DR, OOLTEWAH, TN, 37363",618933044,"L"
288990,"7720 W QUESTA DR","PEORIA","AZ",85383,33.7062547150001,-112.225874107,490,"7720 W QUESTA DR, PEORIA, AZ, 85383","Match","Exact","7720 W QUESTA DR, PEORIA, AZ, 85383",619748313,"L"
288991,"7720 WINDWARD COURT","NEW ORLEANS","LA",70128,30.0597367330001,-89.959223595,491,"7720 WINDWARD COURT, NEW ORLEANS, LA, 70128","Match","Exact","7720 WINDWARD CT, NEW ORLEANS, LA, 70128",191720313,"L"
288992,"7721  BEACON PL NE UNIT 101","BREMERTON","WA",98311,47.632863183,-122.634929317,492,"7721  BEACON PL NE UNIT 101, BREMERTON, WA, 98311","Match","Exact","7721 BEACON PL NE, BREMERTON, WA, 98311",617959317,"L"
288993,"7721 BELMONT AVENUE","BIRMINGHAM AL","AL",35206,33.5556797080001,-86.717833892,493,"7721 BELMONT AVENUE, BIRMINGHAM AL, AL, 35206","Match","Non_Exact","7721 BELMONT AVE, BIRMINGHAM, AL, 35206",81729289,"R"
288994,"7721 BRIZA PLACIDA","SAN DIEGO","CA",92127,32.9784357070001,-117.160476262,494,"7721 BRIZA PLACIDA, SAN DIEGO, CA, 92127","Match","Exact","7721 BRIZA PLACIDA, SAN DIEGO, CA, 92127",637383660,"R"
288995,"7721 CROOKED COVE ST","KALAMAZOO","MI",49009,42.2050257280001,-85.6947612989999,495,"7721 CROOKED COVE ST, KALAMAZOO, MI, 49009","Match","Exact","7721 CROOKED COVE ST, KALAMAZOO, MI, 49009",618672141,"R"
288996,"7721 FAIRWAY DRIVE","OMAHA","NE",68152,41.328588245,-96.01040433,496,"7721 FAIRWAY DRIVE, OMAHA, NE, 68152","Match","Exact","7721 FAIRWAY DR, OMAHA, NE, 68152",116974745,"R"
288997,"7721 N 95TH AVE W","BAXTER","IA",50028,41.8273248150001,-93.176675416,497,"7721 N 95TH AVE W, BAXTER, IA, 50028","Match","Exact","7721 N 95TH AVE W, BAXTER, IA, 50028",89438458,"L"
288998,"7721 NORWICH ROAD","POWELL","TN",37849,36.0254881550001,-84.051208837,498,"7721 NORWICH ROAD, POWELL, TN, 37849","Match","Exact","7721 NORWICH RD, POWELL, TN, 37849",42634494,"L"
288999,"7721 NW 33RD STREET","DAVIE","FL",33024,26.0383933370001,-80.243101087,499,"7721 NW 33RD STREET, DAVIE, FL, 33024","Match","Non_Exact","7721 NW 33RD ST, PEMBROKE PINES, FL, 33024",114712567,"R"
289000,"7721 PARKSIDE DRIVE","LITHIA SPRINGS","GA",30122,33.764112977,-84.614295688,500,"7721 PARKSIDE DRIVE, LITHIA SPRINGS, GA, 30122","Match","Exact","7721 PARKSIDE DR, LITHIA SPGS, GA, 30122",618465573,"L"
