"ID","Address","City","State","Zip","lat","long","id","input_address","match_indicator","match_type","matched_address","tiger_line_id","tiger_side"
1,"-  13913 CHERRY CREEK DRIVE","TAMPA","FL",33618,28.080053408,-82.495379535,1,"-  13913 CHERRY CREEK DRIVE, TAMPA, FL, 33618","Match","Exact","13913 CHERRY CREEK DR, TAMPA, FL, 33618",104510787,"R"
2,"-2913","OREGON CITY","OR",97045,NA,NA,2,"-2913, OREGON CITY, OR, 97045","No_Match",NA,NA,NA,NA
3,"-8419 TUPELO DR","TAMPA","FL",33637,NA,NA,3,"-8419 TUPELO DR, TAMPA, FL, 33637","No_Match",NA,NA,NA,NA
4,"0 PRINCE STREET","ALEXANDRIA","VA",22314,NA,NA,4,"0 PRINCE STREET, ALEXANDRIA, VA, 22314","No_Match",NA,NA,NA,NA
5,"0 S 425 FLORIDA LANE","WINFIELD","IL",60190,NA,NA,5,"0 S 425 FLORIDA LANE, WINFIELD, IL, 60190","Tie",NA,NA,NA,NA
6,"0-44 PINE AVE","FAIR LAWN","NJ",7410,40.9207995260001,-74.103531672,6,"0-44 PINE AVE, FAIR LAWN, NJ, 7410","Match","Exact","0-44 PINE AVE, FAIR LAWN, NJ, 07410",64381187,"L"
7,"0-87 BLUE HILL AVE","FAIR LAWN","NJ",7410,40.9226039760001,-74.093574674,7,"0-87 BLUE HILL AVE, FAIR LAWN, NJ, 7410","Match","Exact","0-87 BLUE HILL AVE, FAIR LAWN, NJ, 07410",651700626,"R"
8,"000 SOCKEYE DR","KING SALMON","AK",99613,NA,NA,8,"000 SOCKEYE DR, KING SALMON, AK, 99613","No_Match",NA,NA,NA,NA
9,"0077 RED BARN","EDWARDS","CO",81632,39.6423676220001,-106.580241647,9,"0077 RED BARN, EDWARDS, CO, 81632","Match","Non_Exact","77 RED BARN ST, EDWARDS, CO, 81632",234547819,"L"
10,"01 APPLE MOUNTAIN RD","ESTANCIA","NM",87016,34.7996835660001,-106.257173238,10,"01 APPLE MOUNTAIN RD, ESTANCIA, NM, 87016","Match","Exact","1 APPLE MOUNTAIN RD, ESTANCIA, NM, 87016",611097771,"L"
11,"01 BERRY HILL RD","LOS LUNAS","NM",87031,34.7842411890001,-106.686973964,11,"01 BERRY HILL RD, LOS LUNAS, NM, 87031","Match","Exact","1 BERRY HILL RD, LOS LUNAS, NM, 87031",179193983,"R"
12,"010 MAC DAVIS LANE SUITE 1","LUBBOCK","TX",79401,NA,NA,12,"010 MAC DAVIS LANE SUITE 1, LUBBOCK, TX, 79401","No_Match",NA,NA,NA,NA
13,"010 MATHIS ROAD","FARMINGTON","KY",42040,36.6040829310001,-88.504928397,13,"010 MATHIS ROAD, FARMINGTON, KY, 42040","Match","Exact","10 MATHIS RD, FARMINGTON, KY, 42040",27874816,"R"
14,"0103 BLUE FLAG DRIVE","BRECKENRIDGE","CO",80424,39.461278387,-106.039046569,14,"0103 BLUE FLAG DRIVE, BRECKENRIDGE, CO, 80424","Match","Exact","103 BLUE FLAG DR, BRECKENRIDGE, CO, 80424",106054198,"L"
15,"0131 ERMINE","CARBONDALE","CO",81623,39.400276584,-107.10232414,15,"0131 ERMINE, CARBONDALE, CO, 81623","Match","Non_Exact","131 ERMINE LN, CARBONDALE, CO, 81623",644250678,"L"
16,"0175 W ST RD 120","HOWE","IN",46746,41.719014804,-85.419076567,16,"0175 W ST RD 120, HOWE, IN, 46746","Match","Exact","175 STATE RD 120, HOWE, IN, 46746",8199082,"R"
17,"01806 E US HIGHWAY 50","PIERCEVILLE","KS",67868,NA,NA,17,"01806 E US HIGHWAY 50, PIERCEVILLE, KS, 67868","No_Match",NA,NA,NA,NA
18,"01814 DREMAN AVENUE","CINCINNATI","OH",45223,39.153417264,-84.548978704,18,"01814 DREMAN AVENUE, CINCINNATI, OH, 45223","Match","Exact","1814 DREMAN AVE, CINCINNATI, OH, 45223",103922185,"R"
19,"02 INDEPENDENCE CIR","SOUTHBURY","CT",6488,41.4848067360001,-73.254441653,19,"02 INDEPENDENCE CIR, SOUTHBURY, CT, 6488","Match","Exact","2 INDEPENDENCE CIR, SOUTHBURY, CT, 06488",624765788,"L"
20,"0202 LONE PINE 5","ASPEN","CO",81611,39.194828106,-106.814991749,20,"0202 LONE PINE 5, ASPEN, CO, 81611","Match","Non_Exact","202 LONE PINE RD, ASPEN, CO, 81611",635579281,"L"
21,"023 S 9TH STREET","MIDLOTHIAN","TX",76065,NA,NA,21,"023 S 9TH STREET, MIDLOTHIAN, TX, 76065","No_Match",NA,NA,NA,NA
22,"0234 SW VERMONT ST","PORTLAND","OR",97219,45.4758334270001,-122.676145858,22,"0234 SW VERMONT ST, PORTLAND, OR, 97219","Match","Exact","234 SW VERMONT ST, PORTLAND, OR, 97219",157562288,"R"
23,"02638 COUNTY RD 20","BRYAN","OH",43506,41.4499965110001,-84.4383263569999,23,"02638 COUNTY RD 20, BRYAN, OH, 43506","Match","Exact","2638 CO RD 20, BRYAN, OH, 43506",207466253,"R"
24,"03 EAGLE DRIVE","BERNALILLO","NM",87004,35.3396988980001,-106.522965312,24,"03 EAGLE DRIVE, BERNALILLO, NM, 87004","Match","Exact","3 EAGLE DR, BERNALILLO, NM, 87004",194027716,"R"
25,"0320 SW MONTGOMERY ST NO 423","PORTLAND","OR",97201,NA,NA,25,"0320 SW MONTGOMERY ST NO 423, PORTLAND, OR, 97201","No_Match",NA,NA,NA,NA
26,"0325 SW RIVERSIDE STREET","PORTLAND","OR",97219,45.4503654750001,-122.675305999,26,"0325 SW RIVERSIDE STREET, PORTLAND, OR, 97219","Match","Exact","325 SW RIVERSIDE ST, PORTLAND, OR, 97219",157526120,"L"
27,"0339 SW TEXAS ST","PORTLAND","OR",97219,45.473695074,-122.674671355,27,"0339 SW TEXAS ST, PORTLAND, OR, 97219","Match","Exact","339 SW TEXAS ST, PORTLAND, OR, 97219",157562290,"L"
28,"04 COUNTY ROAD 1068","ABBEVILLE","MS",38601,NA,NA,28,"04 COUNTY ROAD 1068, ABBEVILLE, MS, 38601","No_Match",NA,NA,NA,NA
29,"04 E MAIN","FORT PIERRE","SD",57532,NA,NA,29,"04 E MAIN, FORT PIERRE, SD, 57532","No_Match",NA,NA,NA,NA
30,"04316 COSIER ROAD","EAST JORDAN","MI",49727,45.1649273940001,-85.0624514639999,30,"04316 COSIER ROAD, EAST JORDAN, MI, 49727","Match","Exact","4316 COSIER RD, EAST JORDAN, MI, 49727",134499988,"R"
31,"049 SW PORTER STREET","PORTLAND","OR",97201,45.5015389260001,-122.677063833,31,"049 SW PORTER STREET, PORTLAND, OR, 97201","Match","Exact","49 SW PORTER ST, PORTLAND, OR, 97201",157507873,"L"
32,"0520 RABBIT WAY","OLD SNOWMASS","CO",81654,39.266478772,-106.972062685,32,"0520 RABBIT WAY, OLD SNOWMASS, CO, 81654","Match","Non_Exact","520 RABBIT WAY, SNOWMASS, CO, 81654",105954226,"L"
33,"05200 MARION CENTER PO BOX 83","CHARLEVOIX","MI",49720,45.283080451,-85.271120646,33,"05200 MARION CENTER PO BOX 83, CHARLEVOIX, MI, 49720","Match","Non_Exact","5200 MARION CENTER RD, CHARLEVOIX, MI, 49720",134483676,"R"
34,"0524 SW DAKOTA STREET","PORTLAND","OR",97239,45.4779658640001,-122.673423899,34,"0524 SW DAKOTA STREET, PORTLAND, OR, 97239","Match","Exact","524 SW DAKOTA ST, PORTLAND, OR, 97239",157508844,"R"
35,"05471 23 1/2 STREET","GOBLES","MI",49055,42.3985899840001,-85.779096711,35,"05471 23 1/2 STREET, GOBLES, MI, 49055","Match","Exact","5471 23 1/2 ST, GOBLES, MI, 49055",34753702,"R"
36,"05675 CHURCH ROAD","BOYNE CITY","MI",49712,45.3212669800001,-85.090446802,36,"05675 CHURCH ROAD, BOYNE CITY, MI, 49712","Match","Exact","5675 CHURCH RD, BOYNE CITY, MI, 49712",134502512,"R"
37,"05770 STEPHENS ROAD","CHARLEVOIX","MI",49720,45.2897511260001,-85.10782934,37,"05770 STEPHENS ROAD, CHARLEVOIX, MI, 49720","Match","Exact","5770 STEPHENS RD, CHARLEVOIX, MI, 49720",134502292,"R"
38,"0615 SW PALATINE HILL ROAD","PORTLAND","OR",97219,45.4500824100001,-122.672570033,38,"0615 SW PALATINE HILL ROAD, PORTLAND, OR, 97219","Match","Exact","615 SW PALATINE HILL RD, PORTLAND, OR, 97219",157526132,"L"
39,"06504 CR 43","HOLYOKE","CO",80734,40.482244425,-102.263029164,39,"06504 CR 43, HOLYOKE, CO, 80734","Match","Exact","6504 CO RD 43, HOLYOKE, CO, 80734",649644155,"R"
40,"07733 EGLER ROAD","DEFIANCE","OH",43512,41.3300206760001,-84.24677237,40,"07733 EGLER ROAD, DEFIANCE, OH, 43512","Match","Exact","7733 EGLER RD, DEFIANCE, OH, 43512",6695380,"R"
41,"08860 WEST SHORE DRIVE","GRAND JUNCTION","MI",49056,42.3864972850001,-86.062498386,41,"08860 WEST SHORE DRIVE, GRAND JUNCTION, MI, 49056","Match","Exact","8860 W SHORE DR, GRAND JCT, MI, 49056",34760805,"L"
42,"09701 ST RT 107 LOT 13","MONTPELIER","OH",43543,41.58634743,-84.639380205,42,"09701 ST RT 107 LOT 13, MONTPELIER, OH, 43543","Match","Non_Exact","9701 STATE RTE 107, MONTPELIER, OH, 43543",649954610,"R"
43,"0N054 CEDAR CT","WINFIELD","IL",60190,41.873789215,-88.1428077849999,43,"0N054 CEDAR CT, WINFIELD, IL, 60190","Match","Exact","0N54 CEDAR CT, WINFIELD, IL, 60190",112594764,"R"
44,"0N080 PIERCE AVENUE","WHEATON","IL",60187,41.8742975970001,-88.128241078,44,"0N080 PIERCE AVENUE, WHEATON, IL, 60187","Match","Exact","0N80 PIERCE AVE, WHEATON, IL, 60187",635446897,"L"
45,"0N151 WINDERMERE RD UNIT 1004","WINFIELD","IL",60190,41.876316155,-88.159871876,45,"0N151 WINDERMERE RD UNIT 1004, WINFIELD, IL, 60190","Match","Exact","0N151 WINDERMERE RD, WINFIELD, IL, 60190",112579923,"R"
46,"0N325 ARMSTRONG LN","GENEVA","IL",60134,NA,NA,46,"0N325 ARMSTRONG LN, GENEVA, IL, 60134","Tie",NA,NA,NA,NA
47,"0N457 CLOOS CT","WINFIELD","IL",60190,41.880437536,-88.1501834699999,47,"0N457 CLOOS CT, WINFIELD, IL, 60190","Match","Exact","0N457 CLOOS CT, WINFIELD, IL, 60190",112521077,"L"
48,"0N560 WELLINGTON CT","GENEVA","IL",60134,41.87613371,-88.396258157,48,"0N560 WELLINGTON CT, GENEVA, IL, 60134","Match","Exact","0N560 WELLINGTON CT, GENEVA, IL, 60134",640736090,"R"
49,"0S564 BRANFORD LN","GENEVA","IL",60134,NA,NA,49,"0S564 BRANFORD LN, GENEVA, IL, 60134","No_Match",NA,NA,NA,NA
50,"1  E  CHASE  STREET  STE  209","BALTIMORE","MD",21202,39.302403321,-76.615915791,50,"1  E  CHASE  STREET  STE  209, BALTIMORE, MD, 21202","Match","Non_Exact","1 E CHASE ST, BALTIMORE, MD, 21202",642142032,"R"
51,"1 1/2 OPUS DRIVE","NEWARK","DE",19702,39.6494415240001,-75.671627674,51,"1 1/2 OPUS DRIVE, NEWARK, DE, 19702","Match","Exact","1 OPUS DR, NEWARK, DE, 19702",187281401,"R"
52,"1 55 STOLLE LANE","FLATONIA","TX",78941,NA,NA,52,"1 55 STOLLE LANE, FLATONIA, TX, 78941","No_Match",NA,NA,NA,NA
53,"1 55TH PLACE SOUTH / SUITE 202","BIRMINGHAM","AL",35211,33.539352582,-86.751135039,53,"1 55TH PLACE SOUTH / SUITE 202, BIRMINGHAM, AL, 35211","Match","Non_Exact","1 55TH PL S, BIRMINGHAM, AL, 35212",81578684,"L"
54,"1 55TH PLACE SOUTH","BIRMINGHAM","AL",35212,33.539352582,-86.751135039,54,"1 55TH PLACE SOUTH, BIRMINGHAM, AL, 35212","Match","Exact","1 55TH PL S, BIRMINGHAM, AL, 35212",81578684,"L"
55,"1 7 LEHIGH AVENUE D-1","NEWARK","NJ",7112,NA,NA,55,"1 7 LEHIGH AVENUE D-1, NEWARK, NJ, 7112","No_Match",NA,NA,NA,NA
56,"1 ABBEY DRIVE","ST. BENEDICT","OR",97373,45.0585332220001,-122.778962303,56,"1 ABBEY DRIVE, ST. BENEDICT, OR, 97373","Match","Exact","1 ABBEY DR, SAINT BENEDICT, OR, 97373",636185393,"R"
57,"1 ABBOTT ROAD UNIT 123","ELLINGTON","CT",6029,41.878445653,-72.4991647369999,57,"1 ABBOTT ROAD UNIT 123, ELLINGTON, CT, 6029","Match","Exact","1 ABBOTT RD, ELLINGTON, CT, 06029",623768566,"R"
58,"1 ABBY COURT","MORICHES","NY",11955,40.798230211,-72.821742816,58,"1 ABBY COURT, MORICHES, NY, 11955","Match","Exact","1 ABBY CT, MORICHES, NY, 11955",114273983,"R"
59,"1 ACADEMY LOOP","MINTURN","CO",81645,NA,NA,59,"1 ACADEMY LOOP, MINTURN, CO, 81645","No_Match",NA,NA,NA,NA
60,"1 ACADEMY STREET","PARIS","ME",4271,NA,NA,60,"1 ACADEMY STREET, PARIS, ME, 4271","No_Match",NA,NA,NA,NA
61,"1 ACORN LANE","PLAINVIEW","NY",11803,40.7871790950001,-73.496417919,61,"1 ACORN LANE, PLAINVIEW, NY, 11803","Match","Exact","1 ACORN LN, PLAINVIEW, NY, 11803",147641973,"L"
62,"1 ADEE DRIVE EDGEWATER PARK","BRONX","NY",10465,40.8221426540001,-73.811590515,62,"1 ADEE DRIVE EDGEWATER PARK, BRONX, NY, 10465","Match","Exact","1 ADEE DR, BRONX, NY, 10465",80307442,"L"
63,"1 ADEE DRIVE","BRONX","NY",10465,40.8221426540001,-73.811590515,63,"1 ADEE DRIVE, BRONX, NY, 10465","Match","Exact","1 ADEE DR, BRONX, NY, 10465",80307442,"L"
64,"1 AIREY COURT","JB ANDREWS","MD",20762,NA,NA,64,"1 AIREY COURT, JB ANDREWS, MD, 20762","No_Match",NA,NA,NA,NA
65,"1 AIRPORT ROAD PO BOX 96","ANITA","IA",50020,NA,NA,65,"1 AIRPORT ROAD PO BOX 96, ANITA, IA, 50020","No_Match",NA,NA,NA,NA
66,"1 AJAX DR STE 102","MADISON HEIGHTS","MI",48071,42.511373077,-83.106556008,66,"1 AJAX DR STE 102, MADISON HEIGHTS, MI, 48071","Match","Exact","1 AJAX DR, MADISON HEIGHTS, MI, 48071",69744754,"R"
67,"1 ALDEN ROAD","EAST ROCKAWAY","NY",11518,40.6433595300001,-73.673366885,67,"1 ALDEN ROAD, EAST ROCKAWAY, NY, 11518","Match","Exact","1 ALDEN RD, EAST ROCKAWAY, NY, 11518",147679764,"R"
68,"1 ALEX CT","MONROE","NJ",8831,40.357116569,-74.406104177,68,"1 ALEX CT, MONROE, NJ, 8831","Match","Exact","1 ALEX CT, MONROE, NJ, 08831",632412727,"L"
69,"1 ALEXANDER STREET  SUITE 118C","YONKERS","NY",10701,40.936018038,-73.9027351999999,69,"1 ALEXANDER STREET  SUITE 118C, YONKERS, NY, 10701","Match","Exact","1 ALEXANDER ST, YONKERS, NY, 10701",634269230,"R"
70,"1 ALEXANDER STREET APT 512","YONKERS","NY",10701,40.936018038,-73.9027351999999,70,"1 ALEXANDER STREET APT 512, YONKERS, NY, 10701","Match","Exact","1 ALEXANDER ST, YONKERS, NY, 10701",634269230,"R"
71,"1 ALFRED MILEY AVE","SHEBOYGAN FALLS","WI",53085,43.7376115590001,-87.804373616,71,"1 ALFRED MILEY AVE, SHEBOYGAN FALLS, WI, 53085","Match","Exact","1 ALFRED MILEY AVE, SHEBOYGAN FALLS, WI, 53085",624878998,"L"
72,"1 ALUMNI DRIVE","HAMPTON","NH",3842,42.932747116,-70.834883756,72,"1 ALUMNI DRIVE, HAMPTON, NH, 3842","Match","Exact","1 ALUMNI DR, HAMPTON, NH, 03842",113697392,"R"
73,"1 ALUMNI HOUSE BERKELEY CA 94572","BERKELEY","CA",94572,NA,NA,73,"1 ALUMNI HOUSE BERKELEY CA 94572, BERKELEY, CA, 94572","No_Match",NA,NA,NA,NA
74,"1 ALVIN DR","GREENVILLE","SC",29605,34.795515381,-82.386493988,74,"1 ALVIN DR, GREENVILLE, SC, 29605","Match","Exact","1 ALVIN DR, GREENVILLE, SC, 29605",38305368,"R"
75,"1 AMBIANA AVENUE","RAYMOND","ME",4071,NA,NA,75,"1 AMBIANA AVENUE, RAYMOND, ME, 4071","No_Match",NA,NA,NA,NA
76,"1 AMERICAN BLVD","EAU CLAIRE","WI",54701,44.7930522360001,-91.5336862939999,76,"1 AMERICAN BLVD, EAU CLAIRE, WI, 54701","Match","Exact","1 AMERICAN BLVD, EAU CLAIRE, WI, 54701",46066938,"R"
77,"1 AMHERST STREET E40-160","CAMBRIDGE","MA",2142,42.3610678220001,-71.0844678619999,77,"1 AMHERST STREET E40-160, CAMBRIDGE, MA, 2142","Match","Exact","1 AMHERST ST, CAMBRIDGE, MA, 02142",86871154,"R"
78,"1 AMY STREET","PROVIDENCE","RI",2906,41.825017884,-71.392335997,78,"1 AMY STREET, PROVIDENCE, RI, 2906","Match","Exact","1 AMY ST, PROVIDENCE, RI, 02906",47467682,"R"
79,"1 ANTHONY WAY","CANTON","MA",2021,42.154482875,-71.0954642679999,79,"1 ANTHONY WAY, CANTON, MA, 2021","Match","Exact","1 ANTHONY WAY, CANTON, MA, 02021",87278847,"R"
80,"1 APPIAN WAY UNIT 715-6","SOUTH SAN FRANCISCO","CA",94080,37.6431251330001,-122.450370565,80,"1 APPIAN WAY UNIT 715-6, SOUTH SAN FRANCISCO, CA, 94080","Match","Exact","1 APPIAN WAY, S SAN FRAN, CA, 94080",635506194,"L"
81,"1 ARABIAN DR","PENDLETON","IN",46064,39.9964472070001,-85.737148599,81,"1 ARABIAN DR, PENDLETON, IN, 46064","Match","Exact","1 ARABIAN DR, PENDLETON, IN, 46064",31112471,"L"
82,"1 ARABIAN DRIVE","PENDLETON","IN",46064,39.9964472070001,-85.737148599,82,"1 ARABIAN DRIVE, PENDLETON, IN, 46064","Match","Exact","1 ARABIAN DR, PENDLETON, IN, 46064",31112471,"L"
83,"1 ARBOR FIELD CT","OLD WESTBURY","NY",11568,40.779409522,-73.5693569159999,83,"1 ARBOR FIELD CT, OLD WESTBURY, NY, 11568","Match","Exact","1 ARBOR FIELD CT, OLD WESTBURY, NY, 11568",636073752,"R"
84,"1 ARCH ROAD SUITE 12","WESTFIELD","MA",1085,NA,NA,84,"1 ARCH ROAD SUITE 12, WESTFIELD, MA, 1085","No_Match",NA,NA,NA,NA
85,"1 ARLENE DRIVE","WEST LONG BRANCH","NJ",7764,40.2896072500001,-74.032519441,85,"1 ARLENE DRIVE, WEST LONG BRANCH, NJ, 7764","Match","Non_Exact","1 S ARLENE DR, W LONG BRANCH, NJ, 07764",90460807,"R"
86,"1 ASPEN DR STE 85","LOVELAND","CO",80538,40.4218190940001,-105.094445605,86,"1 ASPEN DR STE 85, LOVELAND, CO, 80538","Match","Exact","1 ASPEN DR, LOVELAND, CO, 80538",188521202,"L"
87,"1 ASPEN LANE","ACTON","MA",1720,42.516222466,-71.429484685,87,"1 ASPEN LANE, ACTON, MA, 1720","Match","Exact","1 ASPEN LN, ACTON, MA, 01720",646805091,"R"
88,"1 ASTELLAS WAY","NORTHBROOK","IL",60062,NA,NA,88,"1 ASTELLAS WAY, NORTHBROOK, IL, 60062","No_Match",NA,NA,NA,NA
89,"1 ASTER LANE","GARFIELD","NJ",7026,40.8868403060001,-74.1277749509999,89,"1 ASTER LANE, GARFIELD, NJ, 7026","Match","Exact","1 ASTER LN, GARFIELD, NJ, 07026",651699849,"R"
90,"1 AURORA GONZALEZ DR","TOLEDO","OH",43609,NA,NA,90,"1 AURORA GONZALEZ DR, TOLEDO, OH, 43609","No_Match",NA,NA,NA,NA
91,"1 AURORA L GONZALEZ DR","TOLEDO","OH",43609,41.6312702070001,-83.563097392,91,"1 AURORA L GONZALEZ DR, TOLEDO, OH, 43609","Match","Exact","1 AURORA L GONZALEZ DR, TOLEDO, OH, 43609",33939203,"L"
92,"1 AUTO ROW DRIVE SUTIE 400","BLOOMINGTON","IL",61704,40.500930763,-88.951506893,92,"1 AUTO ROW DRIVE SUTIE 400, BLOOMINGTON, IL, 61704","Match","Exact","1 AUTO ROW DR, BLOOMINGTON, IL, 61704",20564540,"L"
93,"1 AVONDALE COURT","BRIARCLIFF MANOR","NY",10510,41.127664779,-73.841108232,93,"1 AVONDALE COURT, BRIARCLIFF MANOR, NY, 10510","Match","Exact","1 AVONDALE CT, BRIARCLIFF MANOR, NY, 10510",139823955,"L"
94,"1 B CANVASSBACK COURT","BERLIN","MD",21811,38.376622814,-75.1299797409999,94,"1 B CANVASSBACK COURT, BERLIN, MD, 21811","Match","Exact","1 CANVASSBACK CT, BERLIN, MD, 21811",114525460,"L"
95,"1 B-E P O BOX 2164","ELLICOTT CITY","MD",21041,NA,NA,95,"1 B-E P O BOX 2164, ELLICOTT CITY, MD, 21041","No_Match",NA,NA,NA,NA
96,"1 BABYLON TPKE UNIT 428","ROOSEVELT","NY",11575,40.678632179,-73.5890688429999,96,"1 BABYLON TPKE UNIT 428, ROOSEVELT, NY, 11575","Match","Exact","1 BABYLON TPKE, ROOSEVELT, NY, 11575",147630686,"L"
97,"1 BAINBRIDGE DR","DALLAS","GA",30132,33.9721699510001,-84.813873842,97,"1 BAINBRIDGE DR, DALLAS, GA, 30132","Match","Exact","1 BAINBRIDGE DR, DALLAS, GA, 30132",17747475,"L"
98,"1 BARKER ST","RACINE","WI",53402,42.738101886,-87.7813408229999,98,"1 BARKER ST, RACINE, WI, 53402","Match","Exact","1 BARKER ST, RACINE, WI, 53402",625110133,"L"
99,"1 BASIL WAY APT 7","BLOOMINGTON","IL",61705,40.451885368,-89.025191621,99,"1 BASIL WAY APT 7, BLOOMINGTON, IL, 61705","Match","Exact","1 BASIL WAY, BLOOMINGTON, IL, 61705",20576880,"L"
100,"1 BATTERY PARK PLAZA FL 18","NEW YORK","NY",10004,40.7045889730001,-74.0143186669999,100,"1 BATTERY PARK PLAZA FL 18, NEW YORK, NY, 10004","Match","Non_Exact","1 BATTERY PL, NEW YORK, NY, 10004",59659606,"R"
101,"1 BATTERY PARK PLAZA","NEW YORK","NY",10004,40.7045889730001,-74.0143186669999,101,"1 BATTERY PARK PLAZA, NEW YORK, NY, 10004","Match","Non_Exact","1 BATTERY PL, NEW YORK, NY, 10004",59659606,"R"
102,"1 BATTLIN BUC BLVD","CORPUS CHRISTI","TX",78408,27.7965976720001,-97.4221371,102,"1 BATTLIN BUC BLVD, CORPUS CHRISTI, TX, 78408","Match","Exact","1 BATTLIN BUC BLVD, CORPUS CHRISTI, TX, 78408",178514741,"L"
103,"1 BAYBERRY DR","MALTA","NY",12020,42.979554959,-73.787969174,103,"1 BAYBERRY DR, MALTA, NY, 12020","Match","Exact","1 BAYBERRY DR, MALTA, NY, 12020",18815783,"L"
104,"1 BAYSPRINGS COURT","SAVANNAH","GA",31405,32.0701862380001,-81.223917161,104,"1 BAYSPRINGS COURT, SAVANNAH, GA, 31405","Match","Exact","1 BAYSPRINGS CT, SAVANNAH, GA, 31405",6194405,"L"
105,"1 BEACH DRIVE SE UNIT 2314","ST PETERSBURG","FL",33701,27.7711593860001,-82.633344704,105,"1 BEACH DRIVE SE UNIT 2314, ST PETERSBURG, FL, 33701","Match","Exact","1 BEACH DR SE, SAINT PETERSBURG, FL, 33701",124713652,"R"
106,"1 BEACON STREET 15TH FLOOR","BOSTON","MA",2108,42.3581123710001,-71.060421576,106,"1 BEACON STREET 15TH FLOOR, BOSTON, MA, 2108","Match","Exact","1 BEACON ST, BOSTON, MA, 02108",85720176,"R"
107,"1 BEAR PLACE UNIT 97126","WACO","TX",76798,NA,NA,107,"1 BEAR PLACE UNIT 97126, WACO, TX, 76798","No_Match",NA,NA,NA,NA
108,"1 BEECHWOOD LANE","KINNELON","NJ",7405,41.002087315,-74.410247995,108,"1 BEECHWOOD LANE, KINNELON, NJ, 7405","Match","Exact","1 BEECHWOOD LN, KINNELON, NJ, 07405",60426607,"R"
109,"1 BELAIRE","LAGUNA NIGUEL","CA",92677,33.5032075180001,-117.714881139,109,"1 BELAIRE, LAGUNA NIGUEL, CA, 92677","Match","Exact","1 BELAIRE, LAGUNA NIGUEL, CA, 92677",144098742,"R"
110,"1 BELL ACRES","PECOS","TX",79772,31.4166791700001,-103.520725126,110,"1 BELL ACRES, PECOS, TX, 79772","Match","Non_Exact","1 BELL ACRES ST, PECOS, TX, 79772",637612088,"L"
111,"1 BELLWOOD DRIVE","BARRINGTON","IL",60010,42.154729178,-88.179954623,111,"1 BELLWOOD DRIVE, BARRINGTON, IL, 60010","Match","Exact","1 BELLWOOD DR, BARRINGTON, IL, 60010",119700110,"L"
112,"1 BELMONT AVE   STE 519","BALA CYNWYD","PA",19004,40.004150597,-75.220819219,112,"1 BELMONT AVE   STE 519, BALA CYNWYD, PA, 19004","Match","Exact","1 BELMONT AVE, BALA CYNWYD, PA, 19004",634819551,"R"
113,"1 BENJAMIN FRANKLIN WAY","FRANKLIN","OH",45005,NA,NA,113,"1 BENJAMIN FRANKLIN WAY, FRANKLIN, OH, 45005","No_Match",NA,NA,NA,NA
114,"1 BENTLEY COURT","MANSFIELD","TX",76063,32.5928293640001,-97.104631846,114,"1 BENTLEY COURT, MANSFIELD, TX, 76063","Match","Exact","1 BENTLEY CT, MANSFIELD, TX, 76063",101962752,"L"
115,"1 BENTLEY COURT","VOORHEES","NJ",8043,39.836637647,-74.933183265,115,"1 BENTLEY COURT, VOORHEES, NJ, 8043","Match","Exact","1 BENTLEY CT, VOORHEES, NJ, 08043",134382061,"R"
116,"1 BENTON COURT","WILMINGTON","DE",19810,39.8107282720001,-75.518937267,116,"1 BENTON COURT, WILMINGTON, DE, 19810","Match","Exact","1 BENTON CT, WILMINGTON, DE, 19810",187259727,"R"
117,"1 BENTWOOD DRIVE","WESTAMPTON","NJ",8060,40.0203398240001,-74.853112873,117,"1 BENTWOOD DRIVE, WESTAMPTON, NJ, 8060","Match","Exact","1 BENTWOOD DR, WESTAMPTON, NJ, 08060",134073203,"R"
118,"1 BERGEN CO PLAZA SECOND FLOOR","HACKENSACK","NJ",7601,NA,NA,118,"1 BERGEN CO PLAZA SECOND FLOOR, HACKENSACK, NJ, 7601","No_Match",NA,NA,NA,NA
119,"1 BERKSHIRE SQUARE 309","ADAMS","MA",1220,42.6249699250001,-73.118803654,119,"1 BERKSHIRE SQUARE 309, ADAMS, MA, 1220","Match","Exact","1 BERKSHIRE SQ, ADAMS, MA, 01220",3978321,"R"
120,"1 BERLIN RD","CLEMENTON","NJ",8021,39.805586152,-74.990226274,120,"1 BERLIN RD, CLEMENTON, NJ, 8021","Match","Exact","1 BERLIN RD, CLEMENTON, NJ, 08021",134393657,"L"
121,"1 BERNARD AVE","NORWOOD","NY",13668,44.749864002,-74.9953346469999,121,"1 BERNARD AVE, NORWOOD, NY, 13668","Match","Exact","1 BERNARD AVE, NORWOOD, NY, 13668",155160855,"L"
122,"1 BERRY ST","PLAINVILLE","MA",2762,42.02314893,-71.3458349439999,122,"1 BERRY ST, PLAINVILLE, MA, 2762","Match","Exact","1 BERRY ST, PLAINVILLE, MA, 02762",87258266,"R"
123,"1 BETHANY ROAD - SUITE 80","HAZLET","NJ",7730,40.4156447020001,-74.1789260529999,123,"1 BETHANY ROAD - SUITE 80, HAZLET, NJ, 7730","Match","Exact","1 BETHANY RD, HAZLET, NJ, 07730",640005462,"L"
124,"1 BIG BLUE AVE","SOUTH WHITLEY","IN",46787,41.0831138120001,-85.6327582119999,124,"1 BIG BLUE AVE, SOUTH WHITLEY, IN, 46787","Match","Exact","1 BIG BLUE AVE, SOUTH WHITLEY, IN, 46787",6648949,"R"
125,"1 BIGELOW DRIVE","HARRISBURG","PA",17103,NA,NA,125,"1 BIGELOW DRIVE, HARRISBURG, PA, 17103","No_Match",NA,NA,NA,NA
126,"1 BIRDWOOD DRIVE","NATCHEZ","MS",39120,31.573451516,-91.367260046,126,"1 BIRDWOOD DRIVE, NATCHEZ, MS, 39120","Match","Exact","1 BIRDWOOD DR, NATCHEZ, MS, 39120",79847278,"R"
127,"1 BLACK BEAR DRIVE","CANTON","NC",28716,35.5231958520001,-82.841560127,127,"1 BLACK BEAR DRIVE, CANTON, NC, 28716","Match","Exact","1 BLACK BEAR DR, CANTON, NC, 28716",151784595,"R"
128,"1 BLACKFIELD DRIVE / 158","TIBURON","CA",94920,37.8987722160001,-122.5012943,128,"1 BLACKFIELD DRIVE / 158, TIBURON, CA, 94920","Match","Exact","1 BLACKFIELD DR, TIBURON, CA, 94920",192785798,"L"
129,"1 BLUE DOLPHIN DR","BEAUFORT","SC",29906,32.433095575,-80.750623576,129,"1 BLUE DOLPHIN DR, BEAUFORT, SC, 29906","Match","Exact","1 BLUE DOLPHIN DR, BEAUFORT, SC, 29906",87635698,"R"
130,"1 BLUE HAWK DRIVE","EXETER","NH",3833,NA,NA,130,"1 BLUE HAWK DRIVE, EXETER, NH, 3833","No_Match",NA,NA,NA,NA
131,"1 BLUE HERONS WAY","PEPPERELL","MA",1463,42.684357178,-71.6131163869999,131,"1 BLUE HERONS WAY, PEPPERELL, MA, 1463","Match","Exact","1 BLUE HERONS WAY, PEPPERELL, MA, 01463",86929085,"L"
132,"1 BLUE HILL PLAZA SUITE 1633","PEARL RIVER","NY",10965,41.0500962940001,-74.007978317,132,"1 BLUE HILL PLAZA SUITE 1633, PEARL RIVER, NY, 10965","Match","Exact","1 BLUE HILL PLZ, PEARL RIVER, NY, 10965",124626218,"R"
133,"1 BLUE SLIP APT 22R","BROOKLYN","NY",11222,40.736082411,-73.958999991,133,"1 BLUE SLIP APT 22R, BROOKLYN, NY, 11222","Match","Exact","1 BLUE SLIP, BROOKLYN, NY, 11222",650172587,"R"
134,"1 BLUE STREAK BLVD","SARATOGA SPRINGS","NY",12866,NA,NA,134,"1 BLUE STREAK BLVD, SARATOGA SPRINGS, NY, 12866","No_Match",NA,NA,NA,NA
135,"1 BON PRICE TERRACE","ST LOUIS","MO",63132,38.6693010590001,-90.362524316,135,"1 BON PRICE TERRACE, ST LOUIS, MO, 63132","Match","Exact","1 BON PRICE TER, SAINT LOUIS, MO, 63132",100193898,"R"
136,"1 BONAPARTE POINT ROAD","HOPATCONG","NJ",7843,40.9538742920001,-74.6399513009999,136,"1 BONAPARTE POINT ROAD, HOPATCONG, NJ, 7843","Match","Exact","1 BONAPARTE POINT RD, HOPATCONG, NJ, 07843",98043761,"L"
137,"1 BOSQUET CT APT Q3","SUMMERVILLE","SC",29485,32.9804947590001,-80.185370909,137,"1 BOSQUET CT APT Q3, SUMMERVILLE, SC, 29485","Match","Exact","1 BOSQUET CT, SUMMERVILLE, SC, 29485",636197928,"R"
138,"1 BOSTON PL STE 2600","BOSTON","MA",2108,NA,NA,138,"1 BOSTON PL STE 2600, BOSTON, MA, 2108","No_Match",NA,NA,NA,NA
139,"1 BOTNAY VIEW COURT EXTENSION","ASHEVILLE","NC",28805,NA,NA,139,"1 BOTNAY VIEW COURT EXTENSION, ASHEVILLE, NC, 28805","No_Match",NA,NA,NA,NA
140,"1 BOW MARKET WAY SUITE 19","SOMERVILLE","MA",2143,42.3797371590001,-71.096224693,140,"1 BOW MARKET WAY SUITE 19, SOMERVILLE, MA, 2143","Match","Non_Exact","1 BOW ST, SOMERVILLE, MA, 02143",86869437,"R"
141,"1 BOXELDER COURT","GREENSBORO","NC",27405,36.175890968,-79.6990024579999,141,"1 BOXELDER COURT, GREENSBORO, NC, 27405","Match","Exact","1 BOXELDER CT, GREENSBORO, NC, 27405",131115274,"R"
142,"1 BRAMBLEWOOD STREET","BRIDGEWAER","MA",2324,41.9767099430001,-70.927356016,142,"1 BRAMBLEWOOD STREET, BRIDGEWAER, MA, 2324","Match","Non_Exact","1 BRAMBLEWOOD ST, BRIDGEWATER, MA, 02324",87466565,"R"
143,"1 BRANDYWINE DRIVE","MORGANVILLE","NJ",7751,NA,NA,143,"1 BRANDYWINE DRIVE, MORGANVILLE, NJ, 7751","No_Match",NA,NA,NA,NA
144,"1 BRATENAHL PLACE SUITE 402","CLEVELAND","OH",44108,41.5501684990001,-81.6155185809999,144,"1 BRATENAHL PLACE SUITE 402, CLEVELAND, OH, 44108","Match","Exact","1 BRATENAHL PL, CLEVELAND, OH, 44108",624189441,"L"
145,"1 BRIDGE PLAZA NORTH SUITE 550","FORT LEE","NJ",7024,40.854708454,-73.9647800339999,145,"1 BRIDGE PLAZA NORTH SUITE 550, FORT LEE, NJ, 7024","Match","Exact","1 BRIDGE PLZ N, FORT LEE, NJ, 07024",641322298,"L"
146,"1 BRIDGE ST STE 210","PLYMOUTH","NH",3264,43.760025537,-71.687301681,146,"1 BRIDGE ST STE 210, PLYMOUTH, NH, 3264","Match","Exact","1 BRIDGE ST, PLYMOUTH, NH, 03264",145667343,"R"
147,"1 BRIDGE ST","SIDNEY","NY",13838,42.316068581,-75.392662106,147,"1 BRIDGE ST, SIDNEY, NY, 13838","Match","Exact","1 BRIDGE ST, SIDNEY, NY, 13838",41554635,"L"
148,"1 BRIDGE STREET - STE 210","PLYMOUTH","NH",3264,43.760025537,-71.687301681,148,"1 BRIDGE STREET - STE 210, PLYMOUTH, NH, 3264","Match","Exact","1 BRIDGE ST, PLYMOUTH, NH, 03264",145667343,"R"
149,"1 BRIDGE STREET - SUITE 207","PLYMOUTH","NH",3264,43.760025537,-71.687301681,149,"1 BRIDGE STREET - SUITE 207, PLYMOUTH, NH, 3264","Match","Exact","1 BRIDGE ST, PLYMOUTH, NH, 03264",145667343,"R"
150,"1 BROAD COVE RD","WEST BATH","ME",4530,43.8743181730001,-69.887984435,150,"1 BROAD COVE RD, WEST BATH, ME, 4530","Match","Exact","1 BROAD COVE RD, WEST BATH, ME, 04530",75604837,"R"
151,"1 BROADWAY 14TH FLOOR","CAMBRIDGE","MA",2142,NA,NA,151,"1 BROADWAY 14TH FLOOR, CAMBRIDGE, MA, 2142","No_Match",NA,NA,NA,NA
152,"1 BROADWAY FL 14","CAMBRIDGE","MA",2142,NA,NA,152,"1 BROADWAY FL 14, CAMBRIDGE, MA, 2142","No_Match",NA,NA,NA,NA
153,"1 BROADWAY ST","CAMBRIDGE","MA",2142,NA,NA,153,"1 BROADWAY ST, CAMBRIDGE, MA, 2142","No_Match",NA,NA,NA,NA
154,"1 BROADWAY SUITE 2","ARLINGTON","MA",2474,42.407696005,-71.135295586,154,"1 BROADWAY SUITE 2, ARLINGTON, MA, 2474","Match","Exact","1 BROADWAY, ARLINGTON, MA, 02474",87112006,"R"
155,"1 BROADWAY","ISLIP","NY",11722,40.7992963980001,-73.193401578,155,"1 BROADWAY, ISLIP, NY, 11722","Match","Non_Exact","1 BROADWAY AVE, CENTRAL ISLIP, NY, 11722",645467816,"R"
156,"1 BROOKSIDE DRIVE EAST","HARRIMAN","NY",10926,41.313275214,-74.140755822,156,"1 BROOKSIDE DRIVE EAST, HARRIMAN, NY, 10926","Match","Exact","1 BROOKSIDE DR E, HARRIMAN, NY, 10926",124446613,"R"
157,"1 BROOKSIDE DRIVE","WESTPORT","CT",6880,41.149628814,-73.352803755,157,"1 BROOKSIDE DRIVE, WESTPORT, CT, 6880","Match","Exact","1 BROOKSIDE DR, WESTPORT, CT, 06880",3238388,"L"
158,"1 BROWN ST APT 1321","PHILADELPHIA","PA",19123,39.962147271,-75.137461807,158,"1 BROWN ST APT 1321, PHILADELPHIA, PA, 19123","Match","Exact","1 BROWN ST, PHILADELPHIA, PA, 19123",131445136,"L"
159,"1 BRYANT DRIVE","SUCCASUNNA","NJ",7876,40.8617914020001,-74.642297379,159,"1 BRYANT DRIVE, SUCCASUNNA, NJ, 7876","Match","Exact","1 BRYANT DR, SUCCASUNNA, NJ, 07876",650435905,"L"
160,"1 BUCKINGHAM DRIVE","ORMOND BEACH","FL",32176,29.348507893,-81.069961931,160,"1 BUCKINGHAM DRIVE, ORMOND BEACH, FL, 32176","Match","Exact","1 BUCKINGHAM DR, ORMOND BEACH, FL, 32176",94519879,"R"
161,"1 BULLDOG BLVD","BATESVILLE","IN",47006,39.3099910500001,-85.232268453,161,"1 BULLDOG BLVD, BATESVILLE, IN, 47006","Match","Non_Exact","1 BULLDOG BLVD W, BATESVILLE, IN, 47006",33183266,"L"
162,"1 BULLDOGGER ROAD","DEWEY","OK",74029,36.8033018350001,-95.9395509569999,162,"1 BULLDOGGER ROAD, DEWEY, OK, 74029","Match","Exact","1 BULLDOGGER RD, DEWEY, OK, 74029",18715823,"R"
163,"1 BUTTERMAN PLACE","MONSEY","NY",10952,41.1276075320001,-74.068531773,163,"1 BUTTERMAN PLACE, MONSEY, NY, 10952","Match","Exact","1 BUTTERMAN PL, MONSEY, NY, 10952",618550198,"R"
164,"1 C DOORWAY","FAIRVIEW HEIGHTS","IL",62208,NA,NA,164,"1 C DOORWAY, FAIRVIEW HEIGHTS, IL, 62208","No_Match",NA,NA,NA,NA
165,"1 CAHILL CT","WINDSOR MILL","MD",21244,39.3225278800001,-76.761379174,165,"1 CAHILL CT, WINDSOR MILL, MD, 21244","Match","Exact","1 CAHILL CT, WINDSOR MILL, MD, 21244",191503361,"L"
166,"1 CALLAWAY DRIVE","DANVERS","MA",1923,42.598115738,-70.9678257099999,166,"1 CALLAWAY DRIVE, DANVERS, MA, 1923","Match","Exact","1 CALLAWAY DR, DANVERS, MA, 01923",650998782,"R"
167,"1 CALLE WASHINGTON APT 4-A","SAN JUAN","PR",907,18.454583691,-66.066221233,167,"1 CALLE WASHINGTON APT 4-A, SAN JUAN, PR, 907","Match","Non_Exact","1 CLL WASHINGTON, SAN JUAN, PR, 00907",206648736,"L"
168,"1 CAMBRIDGE DRIVE","SHORT HILLS","NJ",7078,40.7321767,-74.335873293,168,"1 CAMBRIDGE DRIVE, SHORT HILLS, NJ, 7078","Match","Exact","1 CAMBRIDGE DR, SHORT HILLS, NJ, 07078",63461200,"L"
169,"1 CANDY APPLE DR APT B5","DARTMOUTH","MA",2747,41.6379140120001,-71.0418565589999,169,"1 CANDY APPLE DR APT B5, DARTMOUTH, MA, 2747","Match","Exact","1 CANDY APPLE DR, DARTMOUTH, MA, 02747",651197305,"R"
170,"1 CANTERBURY DR","MONTCLAIR","NJ",7042,40.793083085,-74.218112984,170,"1 CANTERBURY DR, MONTCLAIR, NJ, 7042","Match","Exact","1 CANTERBURY DR, MONTCLAIR, NJ, 07042",63449837,"R"
171,"1 CANTERBURY ROAD","CHARLOTTESVILLE","VA",22903,38.0496751270001,-78.5280674479999,171,"1 CANTERBURY ROAD, CHARLOTTESVILLE, VA, 22903","Match","Exact","1 CANTERBURY RD, CHARLOTTESVILLE, VA, 22903",83400421,"L"
172,"1 CAPE MAY STREET","HARRISON","NJ",7029,40.7352020430001,-74.1552347099999,172,"1 CAPE MAY STREET, HARRISON, NJ, 7029","Match","Exact","1 CAPE MAY ST, HARRISON, NJ, 07029",624203875,"L"
173,"1 CAPRON ST APT 3D","ROCHESTER","NY",14607,43.1518413360001,-77.607079158,173,"1 CAPRON ST APT 3D, ROCHESTER, NY, 14607","Match","Exact","1 CAPRON ST, ROCHESTER, NY, 14607",652649404,"R"
174,"1 CARRIAGE CITY PLAZA","RAHWAY","NJ",7065,NA,NA,174,"1 CARRIAGE CITY PLAZA, RAHWAY, NJ, 7065","No_Match",NA,NA,NA,NA
175,"1 CARRIAGE LANE SUITE J","CHARLESTON","SC",29407,32.7972059780001,-79.997427536,175,"1 CARRIAGE LANE SUITE J, CHARLESTON, SC, 29407","Match","Exact","1 CARRIAGE LN, CHARLESTON, SC, 29407",618590742,"L"
176,"1 CARYLYNN COURT","DURHAM","NC",27703,35.9816634360001,-78.814341681,176,"1 CARYLYNN COURT, DURHAM, NC, 27703","Match","Exact","1 CARYLYNN CT, DURHAM, NC, 27703",71764453,"R"
177,"1 CEDAR ST","NEWBURGH","NY",12550,41.508269786,-74.0168464449999,177,"1 CEDAR ST, NEWBURGH, NY, 12550","Match","Exact","1 CEDAR ST, NEWBURGH, NY, 12550",124413561,"L"
178,"1 CENTER DR","FAYETTEVILLE","GA",30214,33.4422788970001,-84.4538688539999,178,"1 CENTER DR, FAYETTEVILLE, GA, 30214","Match","Exact","1 CENTER DR, FAYETTEVILLE, GA, 30214",638726072,"L"
179,"1 CENTER SQUARE","ABBOTTSTOWN","PA",17301,39.886633596,-76.984797349,179,"1 CENTER SQUARE, ABBOTTSTOWN, PA, 17301","Match","Exact","1 CENTER SQ, ABBOTTSTOWN, PA, 17301",60883180,"L"
180,"1 CENTER WOODS DR NORTH","SAGINAW","MI",48638,43.419949151,-84.014266957,180,"1 CENTER WOODS DR NORTH, SAGINAW, MI, 48638","Match","Exact","1 CENTER WOODS DR N, SAGINAW, MI, 48638",80242988,"L"
181,"1 CENTERPOINTE DRIVE SUITE 170","LA PLAMA","CA",90623,33.8597387990001,-118.030912511,181,"1 CENTERPOINTE DRIVE SUITE 170, LA PLAMA, CA, 90623","Match","Non_Exact","1 CENTERPOINTE DR, LA PALMA, CA, 90623",144094446,"R"
182,"1 CENTERPOINTE STE 400","LA PALMA","CA",90623,33.8597387990001,-118.030912511,182,"1 CENTERPOINTE STE 400, LA PALMA, CA, 90623","Match","Non_Exact","1 CENTERPOINTE DR, LA PALMA, CA, 90623",144094446,"R"
183,"1 CENTERVIEW DRIVE STE 306","GREENSBORO","NC",27407,36.0498510780001,-79.841187083,183,"1 CENTERVIEW DRIVE STE 306, GREENSBORO, NC, 27407","Match","Exact","1 CENTERVIEW DR, GREENSBORO, NC, 27407",131029840,"R"
184,"1 CENTRAL ST 3","MORAN","VA",83013,NA,NA,184,"1 CENTRAL ST 3, MORAN, VA, 83013","No_Match",NA,NA,NA,NA
185,"1 CENTRE ST FL19","NEW YORK","NY",10007,40.7124947240001,-74.0048143129999,185,"1 CENTRE ST FL19, NEW YORK, NY, 10007","Match","Exact","1 CENTRE ST, NEW YORK, NY, 10007",59660412,"L"
186,"1 CENTRE STREET ROOM 2208","NEW YORK","NY",10007,40.7124947240001,-74.0048143129999,186,"1 CENTRE STREET ROOM 2208, NEW YORK, NY, 10007","Match","Exact","1 CENTRE ST, NEW YORK, NY, 10007",59660412,"L"
187,"1 CHAPTER HOUSE RD UNIT 1175","ROUND ROCK","AZ",86547,NA,NA,187,"1 CHAPTER HOUSE RD UNIT 1175, ROUND ROCK, AZ, 86547","No_Match",NA,NA,NA,NA
188,"1 CHERRY BLOSSOM LANE","COVENTRY","RI",2816,41.6773523950001,-71.591193666,188,"1 CHERRY BLOSSOM LANE, COVENTRY, RI, 2816","Match","Exact","1 CHERRY BLOSSOM LN, COVENTRY, RI, 02816",159141283,"L"
189,"1 CHERRY LANE","WADING RIVER","NY",11792,40.9675541620001,-72.8310453719999,189,"1 CHERRY LANE, WADING RIVER, NY, 11792","Match","Exact","1 CHERRY LN, WADING RIVER, NY, 11792",643695568,"R"
190,"1 CHERRY STREET","MEDIA","PA",19063,39.924563059,-75.384055051,190,"1 CHERRY STREET, MEDIA, PA, 19063","Match","Exact","1 CHERRY ST, MEDIA, PA, 19063",134870482,"R"
191,"1 CHESTER RD","WALLINGFORD","PA",19086,NA,NA,191,"1 CHESTER RD, WALLINGFORD, PA, 19086","No_Match",NA,NA,NA,NA
192,"1 CHICK SPRINGS ROAD SUITE 211A","GREENVILLE","SC",29609,34.8660320280001,-82.380819641,192,"1 CHICK SPRINGS ROAD SUITE 211A, GREENVILLE, SC, 29609","Match","Exact","1 CHICK SPRINGS RD, GREENVILLE, SC, 29609",38299189,"L"
193,"1 CHISHOLM TRAIL RD 450","ROUND ROCK","TX",78681,NA,NA,193,"1 CHISHOLM TRAIL RD 450, ROUND ROCK, TX, 78681","No_Match",NA,NA,NA,NA
194,"1 CHISHOLM TRAIL ROAD STE 450","ROUND ROCK","TX",78665,NA,NA,194,"1 CHISHOLM TRAIL ROAD STE 450, ROUND ROCK, TX, 78665","No_Match",NA,NA,NA,NA
195,"1 CHOCTAW WAY","TALIHINA","OK",74571,NA,NA,195,"1 CHOCTAW WAY, TALIHINA, OK, 74571","No_Match",NA,NA,NA,NA
196,"1 CHRISFIELD ROAD","JOHNSON CITY","NY",13790,42.1055980260001,-75.965641144,196,"1 CHRISFIELD ROAD, JOHNSON CITY, NY, 13790","Match","Non_Exact","1 CHRISFIELD AVE, JOHNSON CITY, NY, 13790",46361699,"R"
197,"1 CHURCH ST","SOUTH HADLEY","MA",1075,42.258431644,-72.575296642,197,"1 CHURCH ST, SOUTH HADLEY, MA, 1075","Match","Exact","1 CHURCH ST, SOUTH HADLEY, MA, 01075",39852186,"R"
198,"1 CHURCHILL LANE","LEXINGTON","MA",2421,42.431338742,-71.2162830669999,198,"1 CHURCHILL LANE, LEXINGTON, MA, 2421","Match","Exact","1 CHURCHILL LN, LEXINGTON, MA, 02421",86883861,"R"
199,"1 CIDER MILL LN","HUNTINGTON","NY",11743,40.8794026680001,-73.436009725,199,"1 CIDER MILL LN, HUNTINGTON, NY, 11743","Match","Exact","1 CIDER MILL LN, HUNTINGTON, NY, 11743",114033528,"L"
200,"1 CITY BOULEVARD WEST","ORANGE","CA",92868,33.783237747,-117.895100053,200,"1 CITY BOULEVARD WEST, ORANGE, CA, 92868","Match","Exact","1 CITY BLVD W, ORANGE, CA, 92868",144414464,"L"
201,"1 CIVIC CENTER CIRCLE 2ND FL","BREA","CA",92821,33.91776808,-117.889268049,201,"1 CIVIC CENTER CIRCLE 2ND FL, BREA, CA, 92821","Match","Exact","1 CIVIC CENTER CIR, BREA, CA, 92821",631775327,"R"
202,"1 CIVITAN PL","BIRMINGHAM","AL",35213,33.5181490100001,-86.746782104,202,"1 CIVITAN PL, BIRMINGHAM, AL, 35213","Match","Exact","1 CIVITAN PL, BIRMINGHAM, AL, 35213",618694327,"R"
203,"1 CLAIRE DRIVE","NEWTOWN","PA",18940,40.237753157,-74.9057924689999,203,"1 CLAIRE DRIVE, NEWTOWN, PA, 18940","Match","Exact","1 CLAIRE DR, NEWTOWN, PA, 18940",629861714,"L"
204,"1 CLEAR SKYS COURT APT 202","BALTIMORE","ME",21209,NA,NA,204,"1 CLEAR SKYS COURT APT 202, BALTIMORE, ME, 21209","No_Match",NA,NA,NA,NA
205,"1 CLOVERBROOKE CT","POTOMAC","MD",20854,39.0733099190001,-77.2222795609999,205,"1 CLOVERBROOKE CT, POTOMAC, MD, 20854","Match","Exact","1 CLOVERBROOKE CT, POTOMAC, MD, 20854",62102984,"R"
206,"1 CLUB LN","LITTLETON","CO",80123,39.603411798,-105.035821299,206,"1 CLUB LN, LITTLETON, CO, 80123","Match","Exact","1 CLUB LN, LITTLETON, CO, 80123",177335382,"R"
207,"1 CLYM STREET","PROVIDENCE","RI",2908,41.8432174600001,-71.427541246,207,"1 CLYM STREET, PROVIDENCE, RI, 2908","Match","Exact","1 CLYM ST, PROVIDENCE, RI, 02908",47493083,"R"
208,"1 COBBLESTONE BLVD","MONROE TWP","NJ",8831,40.295337438,-74.4641944489999,208,"1 COBBLESTONE BLVD, MONROE TWP, NJ, 8831","Match","Exact","1 COBBLESTONE BLVD, MONROE TOWNSHIP, NJ, 08831",627789981,"L"
209,"1 COLLEGE CIRCLE - CFB","BANGOR","ME",4401,44.8258350630001,-68.791470445,209,"1 COLLEGE CIRCLE - CFB, BANGOR, ME, 4401","Match","Exact","1 COLLEGE CIR, BANGOR, ME, 04401",637484778,"R"
210,"1 COLLEGE PLACE","CLAREMONT","NH",3743,NA,NA,210,"1 COLLEGE PLACE, CLAREMONT, NH, 3743","No_Match",NA,NA,NA,NA
211,"1 COLLEGE STREET","WORCESTER","MA",1610,42.2361473830001,-71.811052812,211,"1 COLLEGE STREET, WORCESTER, MA, 1610","Match","Exact","1 COLLEGE ST, WORCESTER, MA, 01610",40012068,"L"
212,"1 COLONIAL DRIVE","MANCHESTER","NJ",8759,40.0057510170001,-74.297306071,212,"1 COLONIAL DRIVE, MANCHESTER, NJ, 8759","Match","Exact","1 COLONIAL DR, MANCHESTER, NJ, 08759",203792110,"R"
213,"1 COLONIAL KNOLLS","POUGHKEEPSIE","NY",12603,41.715329797,-73.859882133,213,"1 COLONIAL KNOLLS, POUGHKEEPSIE, NY, 12603","Match","Exact","1 COLONIAL KNOLLS, POUGHKEEPSIE, NY, 12603",4169072,"R"
214,"1 COLONIAL PLACE","NORWALK","CT",6851,41.116865983,-73.405411403,214,"1 COLONIAL PLACE, NORWALK, CT, 6851","Match","Exact","1 COLONIAL PL, NORWALK, CT, 06851",3287159,"R"
215,"1 COLUMBUS CENTER SUITE 600","VIRGINIA BEACH","VA",23462,36.840936148,-76.133970085,215,"1 COLUMBUS CENTER SUITE 600, VIRGINIA BEACH, VA, 23462","Match","Non_Exact","1 COLUMBUS ST, VA BCH, VA, 23462",641468900,"R"
216,"1 COLUMBUS DR","ARCHBALD","PA",18403,41.493439589,-75.5591691829999,216,"1 COLUMBUS DR, ARCHBALD, PA, 18403","Match","Exact","1 COLUMBUS DR, ARCHBALD, PA, 18403",139353453,"R"
217,"1 COLUMBUS PLACE - APT S11G","NEW YORK","NY",10019,40.7677759800001,-73.9822169569999,217,"1 COLUMBUS PLACE - APT S11G, NEW YORK, NY, 10019","Match","Non_Exact","1 COLUMBUS CIR, NEW YORK, NY, 10019",642472003,"R"
218,"1 COLUMBUS WAY PO BOX 924","BIDDEFORD","ME",4005,43.4863944910001,-70.440444842,218,"1 COLUMBUS WAY PO BOX 924, BIDDEFORD, ME, 4005","Match","Exact","1 COLUMBUS WAY, BIDDEFORD, ME, 04005",92786913,"L"
219,"1 COMET DRIVE","CHARLES CITY","IA",50616,43.061229052,-92.659211025,219,"1 COMET DRIVE, CHARLES CITY, IA, 50616","Match","Exact","1 COMET DR, CHARLES CITY, IA, 50616",7349560,"L"
220,"1 COMMERCE SQUARE","GADSDEN","AL",35901,34.009731806,-86.001172029,220,"1 COMMERCE SQUARE, GADSDEN, AL, 35901","Match","Exact","1 COMMERCE SQ, GADSDEN, AL, 35901",66794126,"R"
221,"1 COMMUNITY ROAD","MARBLEHEAD","MA",1945,42.4849126660001,-70.872040984,221,"1 COMMUNITY ROAD, MARBLEHEAD, MA, 1945","Match","Exact","1 COMMUNITY RD, MARBLEHEAD, MA, 01945",86749664,"R"
222,"1 CONCHAS CT","SANTA FE","NM",87508,35.550166645,-105.904919471,222,"1 CONCHAS CT, SANTA FE, NM, 87508","Match","Exact","1 CONCHAS CT, SANTA FE, NM, 87508",169374208,"R"
223,"1 CONCOURSE PKWY STE 800","ATLANTA","GA",30328,33.916472303,-84.3511474269999,223,"1 CONCOURSE PKWY STE 800, ATLANTA, GA, 30328","Match","Non_Exact","1 CONCOURSE PKWY NE, ATLANTA, GA, 30328",17383031,"R"
224,"1 CONGRESS ST APT B6","JERSEY CITY","NJ",7307,40.748458719,-74.039688784,224,"1 CONGRESS ST APT B6, JERSEY CITY, NJ, 7307","Match","Exact","1 CONGRESS ST, JERSEY CITY, NJ, 07307",59605350,"L"
225,"1 CONSERVATION WAY","BRUNSWICK","GA",31520,31.1232118120001,-81.480232197,225,"1 CONSERVATION WAY, BRUNSWICK, GA, 31520","Match","Exact","1 CONSERVATION WAY, BRUNSWICK, GA, 31520",9148193,"R"
226,"1 CONSTITUTION DRIVE","HUDSON","NH",3051,42.7768067370001,-71.385092464,226,"1 CONSTITUTION DRIVE, HUDSON, NH, 3051","Match","Exact","1 CONSTITUTION DR, HUDSON, NH, 03051",113577609,"R"
227,"1 CONTINENTAL DR","CENTEREACH","NY",11720,40.888294575,-73.062684954,227,"1 CONTINENTAL DR, CENTEREACH, NY, 11720","Match","Exact","1 CONTINENTAL DR, CENTEREACH, NY, 11720",114002081,"R"
228,"1 CONVENT AVENUE","NEW YORK","NY",10027,40.812758742,-73.9531176419999,228,"1 CONVENT AVENUE, NEW YORK, NY, 10027","Match","Exact","1 CONVENT AVE, NEW YORK, NY, 10027",59656041,"R"
229,"1 CONWAY VILLAGE COURT","SAINT LOUIS","MO",63141,38.6476951280001,-90.492525767,229,"1 CONWAY VILLAGE COURT, SAINT LOUIS, MO, 63141","Match","Exact","1 CONWAY VILLAGE CT, SAINT LOUIS, MO, 63141",100162653,"L"
230,"1 COOL BLOW STREET / APT 127","CHARLESTON","SC",29403,32.805850047,-79.944977427,230,"1 COOL BLOW STREET / APT 127, CHARLESTON, SC, 29403","Match","Exact","1 COOL BLOW ST, CHARLESTON, SC, 29403",108806725,"L"
231,"1 COPLEY STREET","ROXBURY","MA",2119,42.3165765910001,-71.1010006509999,231,"1 COPLEY STREET, ROXBURY, MA, 2119","Match","Exact","1 COPLEY ST, ROXBURY, MA, 02119",85699128,"R"
232,"1 CORLISS PARK","PROVIDENCE","RI",2908,41.8484167290001,-71.427637105,232,"1 CORLISS PARK, PROVIDENCE, RI, 2908","Match","Exact","1 CORLISS PRK, PROVIDENCE, RI, 02908",641914339,"L"
233,"1 CORNUCOPIA CT","MADISON","WI",53719,43.042587654,-89.5062676109999,233,"1 CORNUCOPIA CT, MADISON, WI, 53719","Match","Exact","1 CORNUCOPIA CT, MADISON, WI, 53719",49498387,"L"
234,"1 CORONADO CIR","ROSWELL","NM",88203,33.370088884,-104.532087282,234,"1 CORONADO CIR, ROSWELL, NM, 88203","Match","Exact","1 CORONADO CIR, ROSWELL, NM, 88203",131774389,"R"
235,"1 CORPORATE DRIVE","DANBURY","CT",6810,41.412956509,-73.4213513349999,235,"1 CORPORATE DRIVE, DANBURY, CT, 6810","Match","Exact","1 CORPORATE DR, DANBURY, CT, 06810",3232290,"R"
236,"1 CORTTISS ROAD","NORTH GROSVENORDALE","CT",6255,42.001303691,-71.906290444,236,"1 CORTTISS ROAD, NORTH GROSVENORDALE, CT, 6255","Match","Non_Exact","1 CORTTIS RD, NORTH GROSVENORDALE, CT, 06255",56451962,"L"
237,"1 COTSWOLD TERRACE","NEWTON","MA",2459,42.33494661,-71.191370712,237,"1 COTSWOLD TERRACE, NEWTON, MA, 2459","Match","Exact","1 COTSWOLD TER, NEWTON, MA, 02459",87084795,"R"
238,"1 COUGAR LANE","NEWPORT","NC",28570,NA,NA,238,"1 COUGAR LANE, NEWPORT, NC, 28570","No_Match",NA,NA,NA,NA
239,"1 COUNTRY CLUB BOX 4","STANSBURY PARK","UT",84074,40.6406282720001,-112.288680088,239,"1 COUNTRY CLUB BOX 4, STANSBURY PARK, UT, 84074","Match","Non_Exact","1 COUNTRY CLUB DR, STANSBURY PARK, UT, 84074",155394008,"R"
240,"1 COUNTRY CLUB DRIVE","CHARLESTON","SC",29412,32.765800041,-79.967051366,240,"1 COUNTRY CLUB DRIVE, CHARLESTON, SC, 29412","Match","Exact","1 COUNTRY CLUB DR, CHARLESTON, SC, 29412",108840576,"L"
241,"1 COUNTRY CLUB","STANSBURY PARK","UT",84074,40.6339861170001,-112.301555768,241,"1 COUNTRY CLUB, STANSBURY PARK, UT, 84074","Match","Exact","1 COUNTRY CLUB, STANSBURY PARK, UT, 84074",627309924,"R"
242,"1 COURT LANE UNIT 402","CAMBRIDGE","MD",21613,38.5719507220001,-76.0752659509999,242,"1 COURT LANE UNIT 402, CAMBRIDGE, MD, 21613","Match","Exact","1 COURT LN, CAMBRIDGE, MD, 21613",99674014,"R"
243,"1 COURT STREET SUITE 150","LEBANON","NH",3766,NA,NA,243,"1 COURT STREET SUITE 150, LEBANON, NH, 3766","No_Match",NA,NA,NA,NA
244,"1 COURTHOUSE CIRCLE DRIVE","JOURDANTON","TX",78026,NA,NA,244,"1 COURTHOUSE CIRCLE DRIVE, JOURDANTON, TX, 78026","No_Match",NA,NA,NA,NA
245,"1 COURTHOUSE LN SUITE 2","MARIETTA","OH",45750,39.415481879,-81.454944435,245,"1 COURTHOUSE LN SUITE 2, MARIETTA, OH, 45750","Match","Non_Exact","1 COURT HOUSE LN, MARIETTA, OH, 45750",45687799,"L"
246,"1 COURTHOUSE SQ ROOM 207","CARLISLE","PA",17013,NA,NA,246,"1 COURTHOUSE SQ ROOM 207, CARLISLE, PA, 17013","No_Match",NA,NA,NA,NA
247,"1 COURTHOUSE SQUARE","TUNKHANNOCK","PA",18657,NA,NA,247,"1 COURTHOUSE SQUARE, TUNKHANNOCK, PA, 18657","No_Match",NA,NA,NA,NA
248,"1 COVENTRY TERRACE","COLUMBUS","NJ",8022,40.083771271,-74.668828387,248,"1 COVENTRY TERRACE, COLUMBUS, NJ, 8022","Match","Exact","1 COVENTRY TER, COLUMBUS, NJ, 08022",617129852,"L"
249,"1 CRANBERRY HILL SUITE 103","LEXINGTON","MA",2421,NA,NA,249,"1 CRANBERRY HILL SUITE 103, LEXINGTON, MA, 2421","No_Match",NA,NA,NA,NA
250,"1 CRAVEN LANE UNIT 6400","LAWRENCEVILLE","NJ",8648,40.296146166,-74.7311541,250,"1 CRAVEN LANE UNIT 6400, LAWRENCEVILLE, NJ, 8648","Match","Exact","1 CRAVEN LN, LAWRENCEVILLE, NJ, 08648",60171332,"L"
251,"1 CREEKSIDE WAY","BURLINGTON","NJ",8016,40.0646895310001,-74.893524583,251,"1 CREEKSIDE WAY, BURLINGTON, NJ, 8016","Match","Exact","1 CREEKSIDE WAY, BURLINGTON, NJ, 08016",645316109,"L"
252,"1 CREST WAY","ABERDEEN","NJ",7747,40.422099759,-74.23171861,252,"1 CREST WAY, ABERDEEN, NJ, 7747","Match","Non_Exact","1 CREST CIR, ABERDEEN, NJ, 07747",642904749,"L"
253,"1 CRESTVIEW DR","UTICA","OH",43080,40.241871132,-82.447028824,253,"1 CRESTVIEW DR, UTICA, OH, 43080","Match","Non_Exact","1 E CRESTVIEW DR, UTICA, OH, 43080",61521341,"R"
254,"1 CRESTVIEW WAY","DOUGLAS","WY",82633,42.7390726020001,-105.425573288,254,"1 CRESTVIEW WAY, DOUGLAS, WY, 82633","Match","Exact","1 CRESTVIEW WAY, DOUGLAS, WY, 82633",146999796,"L"
255,"1 CROSS COUNTY PLAZA","WYNNE","AR",72396,NA,NA,255,"1 CROSS COUNTY PLAZA, WYNNE, AR, 72396","No_Match",NA,NA,NA,NA
256,"1 CROSS ISLAND PLAZA SUITE 224","ROSEDALE","NY",11422,NA,NA,256,"1 CROSS ISLAND PLAZA SUITE 224, ROSEDALE, NY, 11422","No_Match",NA,NA,NA,NA
257,"1 CROSSWOOD LANE","GLEN HEAD","NY",11545,40.8195697510001,-73.571410353,257,"1 CROSSWOOD LANE, GLEN HEAD, NY, 11545","Match","Exact","1 CROSSWOOD LN, GLEN HEAD, NY, 11545",147624347,"R"
258,"1 CRUSADER WAY","MANCHESTER","NH",3103,42.9647201020001,-71.4344321569999,258,"1 CRUSADER WAY, MANCHESTER, NH, 3103","Match","Exact","1 CRUSADER WAY, MANCHESTER, NH, 03103",113560476,"L"
259,"1 CRYSTAL SPRINGS CT APT B","THE HILLS","TX",78738,30.3501886990001,-97.98780085,259,"1 CRYSTAL SPRINGS CT APT B, THE HILLS, TX, 78738","Match","Exact","1 CRYSTAL SPRINGS CT, THE HILLS, TX, 78738",63923045,"R"
260,"1 CTAIG B GARIEPY AVENUE","ISLIP TERRACE","NY",11752,NA,NA,260,"1 CTAIG B GARIEPY AVENUE, ISLIP TERRACE, NY, 11752","No_Match",NA,NA,NA,NA
261,"1 CUNNINGHAM SQ LL15A ALUMNI HALL","PROVIDENCE","RI",2918,NA,NA,261,"1 CUNNINGHAM SQ LL15A ALUMNI HALL, PROVIDENCE, RI, 2918","No_Match",NA,NA,NA,NA
262,"1 CYCLOTRON RD MS 74R316C","BERKELEY","CA",94720,NA,NA,262,"1 CYCLOTRON RD MS 74R316C, BERKELEY, CA, 94720","No_Match",NA,NA,NA,NA
263,"1 CYCLOTRON RD MS74R316C","BERKELEY","CA",94720,NA,NA,263,"1 CYCLOTRON RD MS74R316C, BERKELEY, CA, 94720","No_Match",NA,NA,NA,NA
264,"1 CYCLOTRON ROAD-DONNER LAB","BERKELEY","CA",92740,NA,NA,264,"1 CYCLOTRON ROAD-DONNER LAB, BERKELEY, CA, 92740","No_Match",NA,NA,NA,NA
265,"1 CYPRESS RUN SUITE 16A","HOMOSASSA","FM",34446,NA,NA,265,"1 CYPRESS RUN SUITE 16A, HOMOSASSA, FM, 34446","No_Match",NA,NA,NA,NA
266,"1 DALTON ROAD","BRENTWOOD","NH",3833,42.9826386060001,-71.067634875,266,"1 DALTON ROAD, BRENTWOOD, NH, 3833","Match","Exact","1 DALTON RD, BRENTWOOD, NH, 03833",113713687,"L"
267,"1 DAN DRIVE","SEABROOK","SC",29940,32.5564795510001,-80.687544148,267,"1 DAN DRIVE, SEABROOK, SC, 29940","Match","Exact","1 DAN DR, SEABROOK, SC, 29940",87631317,"L"
268,"1 DEAR XING","LAKEVILLE","MA",2347,NA,NA,268,"1 DEAR XING, LAKEVILLE, MA, 2347","No_Match",NA,NA,NA,NA
269,"1 DEARBORN SQUARE SUITE 4","KANKAKEE","IL",60901,41.1195633580001,-87.8626505679999,269,"1 DEARBORN SQUARE SUITE 4, KANKAKEE, IL, 60901","Match","Exact","1 DEARBORN SQ, KANKAKEE, IL, 60901",98373267,"L"
270,"1 DEERFIELD RD","CUMBERLAND","RI",2864,41.9612252420001,-71.4392216049999,270,"1 DEERFIELD RD, CUMBERLAND, RI, 2864","Match","Exact","1 DEERFIELD RD, CUMBERLAND, RI, 02864",47453021,"R"
271,"1 DELL GLEN AVE SUITE 5","LODI","NJ",7644,40.879396872,-74.088299072,271,"1 DELL GLEN AVE SUITE 5, LODI, NJ, 7644","Match","Exact","1 DELL GLEN AVE, LODI, NJ, 07644",637788786,"L"
272,"1 DEMPSEY GLEN LANE","SIMPSONVILLE","SC",29681,34.8174789980001,-82.233247164,272,"1 DEMPSEY GLEN LANE, SIMPSONVILLE, SC, 29681","Match","Exact","1 DEMPSEY GLEN LN, SIMPSONVILLE, SC, 29681",38337552,"L"
273,"1 DENNISON COURT","GEORGETOWN","MA",1833,NA,NA,273,"1 DENNISON COURT, GEORGETOWN, MA, 1833","No_Match",NA,NA,NA,NA
274,"1 DEPOT ROAD","RAYMOND","NH",3077,43.0357166790001,-71.1821229399999,274,"1 DEPOT ROAD, RAYMOND, NH, 3077","Match","Exact","1 DEPOT RD, RAYMOND, NH, 03077",113704452,"R"
275,"1 DEPOT SQUARE","GREENVILLE","AL",36037,NA,NA,275,"1 DEPOT SQUARE, GREENVILLE, AL, 36037","No_Match",NA,NA,NA,NA
276,"1 DEPOT ST","ROLLING PRAIRIE","IN",46371,NA,NA,276,"1 DEPOT ST, ROLLING PRAIRIE, IN, 46371","Tie",NA,NA,NA,NA
277,"1 DEPOT STREET","ROMNEY","WV",26757,NA,NA,277,"1 DEPOT STREET, ROMNEY, WV, 26757","No_Match",NA,NA,NA,NA
278,"1 DERBY LN","WESTON","MA",2493,42.367136789,-71.282510985,278,"1 DERBY LN, WESTON, MA, 2493","Match","Exact","1 DERBY LN, WESTON, MA, 02493",86853175,"L"
279,"1 DEVON ROAD","MORGANTOWN","WV",26505,39.655822942,-79.973071411,279,"1 DEVON ROAD, MORGANTOWN, WV, 26505","Match","Exact","1 DEVON RD, MORGANTOWN, WV, 26505",648519126,"L"
280,"1 DIAMOND CAUSEWAY SUITE 21 BOX 289","SAVANNAH","GA",31406,31.95793682,-81.098075541,280,"1 DIAMOND CAUSEWAY SUITE 21 BOX 289, SAVANNAH, GA, 31406","Match","Exact","1 DIAMOND CSWY, SAVANNAH, GA, 31406",6197239,"R"
281,"1 DICKINSON STREET","SILVER CREEK","NY",14136,42.5340299220001,-79.163525487,281,"1 DICKINSON STREET, SILVER CREEK, NY, 14136","Match","Exact","1 DICKINSON ST, SILVER CREEK, NY, 14136",120755550,"L"
282,"1 DILLON HOLE RD","HATTIEVILLE","AR",72063,35.361362957,-92.781894891,282,"1 DILLON HOLE RD, HATTIEVILLE, AR, 72063","Match","Exact","1 DILLON HOLE RD, HATTIEVILLE, AR, 72063",635383943,"L"
283,"1 DIVISION ST","CAMBRIDGE","NY",12816,43.029207048,-73.373141575,283,"1 DIVISION ST, CAMBRIDGE, NY, 12816","Match","Exact","1 DIVISION ST, CAMBRIDGE, NY, 12816",139150821,"L"
284,"1 DIXIE DRIVE SE","BAXLEY","GA",31513,31.769197992,-82.3374095349999,284,"1 DIXIE DRIVE SE, BAXLEY, GA, 31513","Match","Non_Exact","1 DIXIE DR, BAXLEY, GA, 31513",4487308,"L"
285,"1 DOMIDION CT","MIDDLETOWN","NJ",7748,40.370441725,-74.11523056,285,"1 DOMIDION CT, MIDDLETOWN, NJ, 7748","Match","Exact","1 DOMIDION CT, MIDDLETOWN, NJ, 07748",90497172,"L"
286,"1 DOMINION DR","SAN ANTONIO","TX",78257,29.6488949170001,-98.622114465,286,"1 DOMINION DR, SAN ANTONIO, TX, 78257","Match","Exact","1 DOMINION DR, SAN ANTONIO, TX, 78257",101724522,"L"
287,"1 DONA MARTA CT","CORRALES","NM",87048,35.222739694,-106.647073027,287,"1 DONA MARTA CT, CORRALES, NM, 87048","Match","Exact","1 DONA MARTA CT, CORRALES, NM, 87048",194014965,"L"
288,"1 DONLONTON CIRCLE","CHESTERFIELD","NJ",8515,NA,NA,288,"1 DONLONTON CIRCLE, CHESTERFIELD, NJ, 8515","No_Match",NA,NA,NA,NA
289,"1 DORRANCE PLAZA","PROVIDENCE","RI",2903,41.824802237,-71.4140719549999,289,"1 DORRANCE PLAZA, PROVIDENCE, RI, 2903","Match","Non_Exact","1 DORRANCE ST, PROVIDENCE, RI, 02903",47488510,"R"
290,"1 DOVER DR","CHICAGO","AR",72204,34.721321855,-92.38876304,290,"1 DOVER DR, CHICAGO, AR, 72204","Match","Non_Exact","1 DOVER DR, LITTLE ROCK, AR, 72204",83546982,"R"
291,"1 DOVER HIGH DR","DOVER","DE",19904,NA,NA,291,"1 DOVER HIGH DR, DOVER, DE, 19904","No_Match",NA,NA,NA,NA
292,"1 DOVER HIGH DRIVE","DIVER","DE",19904,NA,NA,292,"1 DOVER HIGH DRIVE, DIVER, DE, 19904","No_Match",NA,NA,NA,NA
293,"1 DOVER HIGH DRIVE","DOVER","DE",19904,NA,NA,293,"1 DOVER HIGH DRIVE, DOVER, DE, 19904","No_Match",NA,NA,NA,NA
294,"1 DRAKE CLOSE","HILLSBOROUGH","NJ",8844,40.516811241,-74.6530618149999,294,"1 DRAKE CLOSE, HILLSBOROUGH, NJ, 8844","Match","Exact","1 DRAKE CLOSE, HILLSBOROUGH, NJ, 08844",59957294,"L"
295,"1 DUNSINANE SUITE E","NOTTINGHAM","MD",21236,39.3809955900001,-76.46611355,295,"1 DUNSINANE SUITE E, NOTTINGHAM, MD, 21236","Match","Non_Exact","1 DUNSINANE DR, NOTTINGHAM, MD, 21236",191518226,"L"
296,"1 DUNWOODY PARK S 107","ATLANTA","GA",30388,33.920982662,-84.310904307,296,"1 DUNWOODY PARK S 107, ATLANTA, GA, 30388","Match","Non_Exact","1 DUNWOODY PARK S, ATLANTA, GA, 30338",23412878,"R"
297,"1 DWIGHT DRIVE","MIDDLEFIELD","CT",6455,41.520449774,-72.7195993999999,297,"1 DWIGHT DRIVE, MIDDLEFIELD, CT, 6455","Match","Exact","1 DWIGHT DR, MIDDLEFIELD, CT, 06455",113888291,"L"
298,"1 E 33RD ST 9TH FLOOR","NEW YORK","NY",10016,40.7477241120001,-73.984912567,298,"1 E 33RD ST 9TH FLOOR, NEW YORK, NY, 10016","Match","Non_Exact","1 E 33RD ST, NEW YORK, NY, 10016",59653476,"L"
299,"1 E BROADWAY BLVD - SUITE 401","TUCSON","AZ",85701,NA,NA,299,"1 E BROADWAY BLVD - SUITE 401, TUCSON, AZ, 85701","Tie",NA,NA,NA,NA
300,"1 E CENTER ST 330","FAYETTEVILLE","AR",72701,NA,NA,300,"1 E CENTER ST 330, FAYETTEVILLE, AR, 72701","Tie",NA,NA,NA,NA
301,"1 E CENTER ST STE 270","FAYETTEVILLE","AR",72701,NA,NA,301,"1 E CENTER ST STE 270, FAYETTEVILLE, AR, 72701","Tie",NA,NA,NA,NA
302,"1 E CENTER ST SUITE 300","PROVO","UT",84606,40.2337839730001,-111.657778024,302,"1 E CENTER ST SUITE 300, PROVO, UT, 84606","Match","Non_Exact","1 E CENTER ST, PROVO, UT, 84606",652892612,"L"
303,"1 E CHASE ST SUITE 217","BALTIMORE","MD",21202,39.302403321,-76.615915791,303,"1 E CHASE ST SUITE 217, BALTIMORE, MD, 21202","Match","Non_Exact","1 E CHASE ST, BALTIMORE, MD, 21202",642142032,"R"
304,"1 E CHASE STREET 814","BALTIMORE","MD",21202,39.302403321,-76.615915791,304,"1 E CHASE STREET 814, BALTIMORE, MD, 21202","Match","Non_Exact","1 E CHASE ST, BALTIMORE, MD, 21202",642142032,"R"
305,"1 E CHASE STREET SUITE 209","PIKESVILLE","MD",21208,39.3711482210001,-76.71403909,305,"1 E CHASE STREET SUITE 209, PIKESVILLE, MD, 21208","Match","Non_Exact","1 EAST RD, PIKESVILLE, MD, 21208",191469040,"R"
306,"1 E CHASE STREET","Baltimore","MD",21215,39.302403321,-76.615915791,306,"1 E CHASE STREET, Baltimore, MD, 21215","Match","Non_Exact","1 E CHASE ST, BALTIMORE, MD, 21202",642142032,"R"
307,"1 E ERIE ST STE 525 4272","CHICAGO","IL",60661,NA,NA,307,"1 E ERIE ST STE 525 4272, CHICAGO, IL, 60661","No_Match",NA,NA,NA,NA
308,"1 E ERIE ST STE 525 PMB 4587","CHICAGO","IL",60611,41.894068496,-87.628023823,308,"1 E ERIE ST STE 525 PMB 4587, CHICAGO, IL, 60611","Match","Non_Exact","1 E ERIE ST, CHICAGO, IL, 60611",111769014,"R"
309,"1 E ERIE ST STE 525-4499","CHICAGO","IL",60611,41.894068496,-87.628023823,309,"1 E ERIE ST STE 525-4499, CHICAGO, IL, 60611","Match","Non_Exact","1 E ERIE ST, CHICAGO, IL, 60611",111769014,"R"
310,"1 E LIBERTY ST  STE 600","RENO","NV",89501,NA,NA,310,"1 E LIBERTY ST  STE 600, RENO, NV, 89501","Tie",NA,NA,NA,NA
311,"1 E MAIN ST UNIT 203","BEACON","NY",12508,NA,NA,311,"1 E MAIN ST UNIT 203, BEACON, NY, 12508","Tie",NA,NA,NA,NA
312,"1 E MAIN STREET","AMELIA","OH",45102,39.0269081800001,-84.216094033,312,"1 E MAIN STREET, AMELIA, OH, 45102","Match","Exact","1 E MAIN ST, AMELIA, OH, 45102",641734010,"L"
313,"1 E MONTANA ST","HIGHLAND PARK","MI",48203,42.4239261710001,-83.1016797469999,313,"1 E MONTANA ST, HIGHLAND PARK, MI, 48203","Match","Exact","1 E MONTANA ST, HIGHLAND PARK, MI, 48203",95462104,"L"
314,"1 E WACKER DR SUITE 510","CHICAGO","IL",60601,NA,NA,314,"1 E WACKER DR SUITE 510, CHICAGO, IL, 60601","Tie",NA,NA,NA,NA
315,"1 E WACKER DRIVE SUITE 1700","CHICAGO","IL",60601,NA,NA,315,"1 E WACKER DRIVE SUITE 1700, CHICAGO, IL, 60601","Tie",NA,NA,NA,NA
316,"1 E WILHELM ST","SCHERERVILLE","IN",46375,41.491042679,-87.4514046689999,316,"1 E WILHELM ST, SCHERERVILLE, IN, 46375","Match","Exact","1 E WILHELM ST, SCHERERVILLE, IN, 46375",98422773,"R"
317,"1 EAGLE DRIVE","ROGERS","TX",76569,30.9294836980001,-97.230525502,317,"1 EAGLE DRIVE, ROGERS, TX, 76569","Match","Exact","1 EAGLE DR, ROGERS, TX, 76569",648875555,"L"
318,"1 EAGLE HILL DRIVE","TOLLAND","CT",6084,NA,NA,318,"1 EAGLE HILL DRIVE, TOLLAND, CT, 6084","No_Match",NA,NA,NA,NA
319,"1 EAGLE VALLEY CT","BROADVIEW HEIGHTS","OH",44147,41.3219463790001,-81.645544129,319,"1 EAGLE VALLEY CT, BROADVIEW HEIGHTS, OH, 44147","Match","Exact","1 EAGLE VALLEY CT, BROADVIEW HEIGHTS, OH, 44147",61150919,"R"
320,"1 EARHART DRIVE SUITE 7","COATESVILLE","PA",19320,39.9710114540001,-75.861851918,320,"1 EARHART DRIVE SUITE 7, COATESVILLE, PA, 19320","Match","Exact","1 EARHART DR, COATESVILLE, PA, 19320",179479597,"L"
321,"1 EARHART ST UNIT 323","CAMBRIDGE","MA",2141,42.3712728560001,-71.0743048909999,321,"1 EARHART ST UNIT 323, CAMBRIDGE, MA, 2141","Match","Exact","1 EARHART ST, CAMBRIDGE, MA, 02141",624780948,"R"
322,"1 EAST 14TH STREET","SAN LEANDRO","CA",94577,NA,NA,322,"1 EAST 14TH STREET, SAN LEANDRO, CA, 94577","No_Match",NA,NA,NA,NA
323,"1 EAST 1ST STREET 213","DULUTH","MN",55802,46.7877012960001,-92.099197236,323,"1 EAST 1ST STREET 213, DULUTH, MN, 55802","Match","Exact","1 E 1ST ST, DULUTH, MN, 55802",163214398,"L"
324,"1 EAST 4TH ST  SUITE 1400","CINCINNATI","OH",45202,39.0999645110001,-84.512599425,324,"1 EAST 4TH ST  SUITE 1400, CINCINNATI, OH, 45202","Match","Exact","1 E 4TH ST, CINCINNATI, OH, 45202",103936674,"R"
325,"1 EAST 4TH STREET SUITE 1400","CINCINNATI","OH",45202,39.0999645110001,-84.512599425,325,"1 EAST 4TH STREET SUITE 1400, CINCINNATI, OH, 45202","Match","Exact","1 E 4TH ST, CINCINNATI, OH, 45202",103936674,"R"
326,"1 EAST ALLEN ST","WENTZVILLE","MO",63385,38.8114399900001,-90.852981943,326,"1 EAST ALLEN ST, WENTZVILLE, MO, 63385","Match","Exact","1 E ALLEN ST, WENTZVILLE, MO, 63385",100011694,"L"
327,"1 EAST ALLEN STREET SUITE 200","WENTZVILLE","MO",63385,38.8114399900001,-90.852981943,327,"1 EAST ALLEN STREET SUITE 200, WENTZVILLE, MO, 63385","Match","Exact","1 E ALLEN ST, WENTZVILLE, MO, 63385",100011694,"L"
328,"1 EAST BROAD ST","WESTFIELD","NJ",7090,40.6499327010001,-74.350039107,328,"1 EAST BROAD ST, WESTFIELD, NJ, 7090","Match","Exact","1 E BROAD ST, WESTFIELD, NJ, 07090",60568256,"L"
329,"1 EAST CHAPMAN STREET","ELY","MN",55731,47.9023140360001,-91.8667943569999,329,"1 EAST CHAPMAN STREET, ELY, MN, 55731","Match","Exact","1 E CHAPMAN ST, ELY, MN, 55731",163156903,"R"
330,"1 EAST ERIE ST STE 525 PMB 4116","CHICAGO","IL",60611,41.894068496,-87.628023823,330,"1 EAST ERIE ST STE 525 PMB 4116, CHICAGO, IL, 60611","Match","Exact","1 E ERIE ST, CHICAGO, IL, 60611",111769014,"R"
331,"1 EAST ERIE STE 521-4221","CHICAGO","IL",60611,41.894068496,-87.628023823,331,"1 EAST ERIE STE 521-4221, CHICAGO, IL, 60611","Match","Non_Exact","1 E ERIE ST, CHICAGO, IL, 60611",111769014,"R"
332,"1 EAST ERIE STREET SUITE 525-4767","CHICAGO","IL",60611,41.894068496,-87.628023823,332,"1 EAST ERIE STREET SUITE 525-4767, CHICAGO, IL, 60611","Match","Exact","1 E ERIE ST, CHICAGO, IL, 60611",111769014,"R"
333,"1 EAST HECKER ROAD","CENTURY","FL",32535,30.9734484030001,-87.263927178,333,"1 EAST HECKER ROAD, CENTURY, FL, 32535","Match","Exact","1 E HECKER RD, CENTURY, FL, 32535",93235076,"L"
334,"1 EAST LIBERTY 6TH FLOOR","RENO","NV",89501,39.5219291550001,-119.811049226,334,"1 EAST LIBERTY 6TH FLOOR, RENO, NV, 89501","Match","Non_Exact","1 E LIBERTY ST, RENO, NV, 89501",107045227,"L"
335,"1 EAST MAIN ST SUITE 100","ROCHESTER","NY",14614,NA,NA,335,"1 EAST MAIN ST SUITE 100, ROCHESTER, NY, 14614","No_Match",NA,NA,NA,NA
336,"1 EAST MAIN STREET  10TH FLOOR","ROCHESTER","NY",14614,NA,NA,336,"1 EAST MAIN STREET  10TH FLOOR, ROCHESTER, NY, 14614","No_Match",NA,NA,NA,NA
337,"1 EAST MARKET STREET NO 226","HYDE PARK","NY",12538,41.791506176,-73.9359227319999,337,"1 EAST MARKET STREET NO 226, HYDE PARK, NY, 12538","Match","Non_Exact","1 E MARKET ST, HYDE PARK, NY, 12538",4164068,"L"
338,"1 EAST OLIVE AVE","REDLANDS","CA",92373,34.053476588,-117.181186827,338,"1 EAST OLIVE AVE, REDLANDS, CA, 92373","Match","Exact","1 E OLIVE AVE, REDLANDS, CA, 92373",144664438,"L"
339,"1 EAST UNIVERSITY PARKWAY NUM 1009","BALTIMORE","MD",21218,39.3319769280001,-76.6171098889999,339,"1 EAST UNIVERSITY PARKWAY NUM 1009, BALTIMORE, MD, 21218","Match","Exact","1 E UNIVERSITY PKWY, BALTIMORE, MD, 21218",206435254,"L"
340,"1 EAST WACKER STE 400","CHICAGO","IL",60601,NA,NA,340,"1 EAST WACKER STE 400, CHICAGO, IL, 60601","Tie",NA,NA,NA,NA
341,"1 EDGE LN","PALM COAST","FL",32164,29.4907768210001,-81.23990817,341,"1 EDGE LN, PALM COAST, FL, 32164","Match","Exact","1 EDGE LN, PALM COAST, FL, 32164",648111423,"L"
342,"1 EDGECOMB STREET","ALBANY","NY",12209,42.645502621,-73.788995067,342,"1 EDGECOMB STREET, ALBANY, NY, 12209","Match","Exact","1 EDGECOMB ST, ALBANY, NY, 12209",18309462,"L"
343,"1 EDGERTON PARK","ROCHESTER","NY",14608,43.170367039,-77.6348143289999,343,"1 EDGERTON PARK, ROCHESTER, NY, 14608","Match","Exact","1 EDGERTON PARK, ROCHESTER, NY, 14608",14563514,"R"
344,"1 EDUCATION DRIVE","GARDEN CITY","NY",11530,NA,NA,344,"1 EDUCATION DRIVE, GARDEN CITY, NY, 11530","No_Match",NA,NA,NA,NA
345,"1 ELIZABETH PLACE","NYACK","NY",10960,41.077856636,-73.921643299,345,"1 ELIZABETH PLACE, NYACK, NY, 10960","Match","Exact","1 ELIZABETH PL, NYACK, NY, 10960",124600803,"R"
346,"1 ELIZABETH ST APT 12","RIDGEFIELD","NJ",7657,40.8266621810001,-74.006674521,346,"1 ELIZABETH ST APT 12, RIDGEFIELD, NJ, 7657","Match","Exact","1 ELIZABETH ST, RIDGEFIELD, NJ, 07657",64398691,"R"
347,"1 ELLIOTT ROAD","BROOMALL","PA",19008,39.969138226,-75.382525372,347,"1 ELLIOTT ROAD, BROOMALL, PA, 19008","Match","Non_Exact","1 ELLIOT RD, BROOMALL, PA, 19008",134898028,"R"
348,"1 ELLISH PARKWAY","SPRING VALLEY","NY",10977,41.1168868680001,-74.05650543,348,"1 ELLISH PARKWAY, SPRING VALLEY, NY, 10977","Match","Exact","1 ELLISH PKWY, SPRING VALLEY, NY, 10977",124593341,"R"
349,"1 ELMWOOD STREET","BOSTON","MA",2120,42.330390075,-71.094516082,349,"1 ELMWOOD STREET, BOSTON, MA, 2120","Match","Exact","1 ELMWOOD ST, BOSTON, MA, 02120",85724284,"R"
350,"1 EMBARCADERO CENTER NO 26101","SAN FRANCISCO","CA",94126,NA,NA,350,"1 EMBARCADERO CENTER NO 26101, SAN FRANCISCO, CA, 94126","No_Match",NA,NA,NA,NA
351,"1 EMERSON PLACE APT 17N","BOSTON","MA",2114,42.3641425610001,-71.0685241739999,351,"1 EMERSON PLACE APT 17N, BOSTON, MA, 2114","Match","Exact","1 EMERSON PL, BOSTON, MA, 02114",650137716,"L"
352,"1 ENDERS ISLAND","MYSTIC","CT",6355,NA,NA,352,"1 ENDERS ISLAND, MYSTIC, CT, 6355","No_Match",NA,NA,NA,NA
353,"1 EQUESTRIAN CT NORTH","GLEN CARBON","IL",62034,38.7671294730001,-89.96249971,353,"1 EQUESTRIAN CT NORTH, GLEN CARBON, IL, 62034","Match","Exact","1 EQUESTRIAN CT N, GLEN CARBON, IL, 62034",107717542,"L"
354,"1 ERIE STREET SUITE 525 PMB 4455","CHICAGO","IL",60611,41.894068496,-87.628023823,354,"1 ERIE STREET SUITE 525 PMB 4455, CHICAGO, IL, 60611","Match","Non_Exact","1 E ERIE ST, CHICAGO, IL, 60611",111769014,"R"
355,"1 ESPLANADE DRIVE","BARNEGAT","NJ",8005,39.766319077,-74.2685078,355,"1 ESPLANADE DRIVE, BARNEGAT, NJ, 8005","Match","Non_Exact","1 ESPLANDE DR, BARNEGAT, NJ, 08005",637465707,"R"
356,"1 ETHAN ALLEN HOMESTEAD","BURLINGTON","VT",5408,44.507884931,-73.232038216,356,"1 ETHAN ALLEN HOMESTEAD, BURLINGTON, VT, 5408","Match","Exact","1 ETHAN ALLEN HOMESTEAD, BURLINGTON, VT, 05408",135861928,"L"
357,"1 ETHEL AVENUE","HAWTHORNE","NJ",7506,NA,NA,357,"1 ETHEL AVENUE, HAWTHORNE, NJ, 7506","No_Match",NA,NA,NA,NA
358,"1 ETZE AVENUE SUITE 205","MOUNT PLEASANT","PA",15666,NA,NA,358,"1 ETZE AVENUE SUITE 205, MOUNT PLEASANT, PA, 15666","No_Match",NA,NA,NA,NA
359,"1 EVERGREEN DRIVE","RUMSON","NJ",7760,40.3732891780001,-73.991764749,359,"1 EVERGREEN DRIVE, RUMSON, NJ, 7760","Match","Exact","1 EVERGREEN DR, RUMSON, NJ, 07760",90452956,"L"
360,"1 EVERGREEN PLACE","MORRISTOWN","NJ",7960,40.8053907090001,-74.464337556,360,"1 EVERGREEN PLACE, MORRISTOWN, NJ, 7960","Match","Exact","1 EVERGREEN PL, MORRISTOWN, NJ, 07960",60465886,"L"
361,"1 EVES DR STE 109","MARLTON","NJ",8053,39.909972071,-74.9349621659999,361,"1 EVES DR STE 109, MARLTON, NJ, 8053","Match","Exact","1 EVES DR, MARLTON, NJ, 08053",134064225,"R"
362,"1 EXECUTIVE BLVD STE 110","SUFFERN","NY",10901,41.117839589,-74.1119560769999,362,"1 EXECUTIVE BLVD STE 110, SUFFERN, NY, 10901","Match","Exact","1 EXECUTIVE BLVD, SUFFERN, NY, 10901",124607331,"L"
363,"1 EXECUTIVE CT STE 4","SOUTH BARRINGTON","IL",60010,42.080435564,-88.14234905,363,"1 EXECUTIVE CT STE 4, SOUTH BARRINGTON, IL, 60010","Match","Exact","1 EXECUTIVE CT, S BARRINGTON, IL, 60010",637795280,"R"
364,"1 EXECUTIVE PARK","GRANITE CITY","IL",62040,38.7558693080001,-90.096473869,364,"1 EXECUTIVE PARK, GRANITE CITY, IL, 62040","Match","Exact","1 EXECUTIVE PARK, GRANITE CITY, IL, 62040",107719458,"L"
365,"1 FAIRPORT VILLAGE LANDING","FAIRPORT","NY",14450,NA,NA,365,"1 FAIRPORT VILLAGE LANDING, FAIRPORT, NY, 14450","No_Match",NA,NA,NA,NA
366,"1 FALCON DRIVE","COLUMBIA","SC",29204,NA,NA,366,"1 FALCON DRIVE, COLUMBIA, SC, 29204","No_Match",NA,NA,NA,NA
367,"1 FARMFIELD ST","FAIRHAVEN","MA",2719,41.63131781,-70.90219724,367,"1 FARMFIELD ST, FAIRHAVEN, MA, 2719","Match","Exact","1 FARMFIELD ST, FAIRHAVEN, MA, 02719",46755613,"R"
368,"1 FAVOR STREET","ROCHESTER","NY",14608,43.1519936820001,-77.6196992329999,368,"1 FAVOR STREET, ROCHESTER, NY, 14608","Match","Exact","1 FAVOR ST, ROCHESTER, NY, 14608",635433759,"L"
369,"1 FAWN DR","LEBANON","NJ",8833,40.5841683740001,-74.867589089,369,"1 FAWN DR, LEBANON, NJ, 8833","Match","Exact","1 FAWN DR, LEBANON, NJ, 08833",60009223,"L"
370,"1 FAWNBROOK COURT","SACRAMENTO","CA",95823,38.446618012,-121.438261957,370,"1 FAWNBROOK COURT, SACRAMENTO, CA, 95823","Match","Exact","1 FAWNBROOK CT, SACRAMENTO, CA, 95823",133380187,"L"
371,"1 FERN DR","JERICHO","NY",11753,NA,NA,371,"1 FERN DR, JERICHO, NY, 11753","Tie",NA,NA,NA,NA
372,"1 FITZWILLIAM PARK","FARMINGTON","CT",6032,41.753140224,-72.835183833,372,"1 FITZWILLIAM PARK, FARMINGTON, CT, 6032","Match","Exact","1 FITZWILLIAM PARK, FARMINGTON, CT, 06032",637223976,"L"
373,"1 FLORETTA PL UNIT 80554","RALEIGH","NC",27623,35.9050018780001,-78.748801681,373,"1 FLORETTA PL UNIT 80554, RALEIGH, NC, 27623","Match","Non_Exact","1 FLORETTA PL, RALEIGH, NC, 27617",648940617,"L"
374,"1 FORD AVE","LAKEWOOD","NJ",8701,40.0604716770001,-74.21956224,374,"1 FORD AVE, LAKEWOOD, NJ, 8701","Match","Exact","1 FORD AVE, LAKEWOOD, NJ, 08701",617764077,"L"
375,"1 FORESTRY DRIVE       102 BRAY HAL","SYRACUSE","NY",13210,43.0337914460001,-76.1391922779999,375,"1 FORESTRY DRIVE       102 BRAY HAL, SYRACUSE, NY, 13210","Match","Exact","1 FORESTRY DR, SYRACUSE, NY, 13210",46625239,"L"
376,"1 FORGE DR","MALVERN","PA",19355,40.0601065560001,-75.547131343,376,"1 FORGE DR, MALVERN, PA, 19355","Match","Exact","1 FORGE DR, MALVERN, PA, 19355",179494335,"R"
377,"1 FORREST AVENUE","RUMSON","NJ",7760,40.3767178040001,-74.00557632,377,"1 FORREST AVENUE, RUMSON, NJ, 7760","Match","Exact","1 FORREST AVE, RUMSON, NJ, 07760",90486975,"L"
378,"1 FORRESTAL HEIGHTS","BEACON","NY",12508,41.5007874340001,-73.975625656,378,"1 FORRESTAL HEIGHTS, BEACON, NY, 12508","Match","Exact","1 FORRESTAL HTS, BEACON, NY, 12508",4218153,"L"
379,"1 FRANKLIN AVE","WHITE PLAINS","NY",10601,41.0330868300001,-73.761870458,379,"1 FRANKLIN AVE, WHITE PLAINS, NY, 10601","Match","Exact","1 FRANKLIN AVE, WHITE PLAINS, NY, 10601",139741774,"L"
380,"1 FRANKLIN STREET","BOSTON","MA",2110,42.3563402550001,-71.059384592,380,"1 FRANKLIN STREET, BOSTON, MA, 2110","Match","Exact","1 FRANKLIN ST, BOSTON, MA, 02110",85709865,"R"
381,"1 FRENCHS ALLEY","SENATOBIA","MS",38668,NA,NA,381,"1 FRENCHS ALLEY, SENATOBIA, MS, 38668","No_Match",NA,NA,NA,NA
382,"1 GARDEN AVE","CARLE PLACE","NY",11514,40.748066339,-73.6052613049999,382,"1 GARDEN AVE, CARLE PLACE, NY, 11514","Match","Exact","1 GARDEN AVE, CARLE PLACE, NY, 11514",147626959,"R"
383,"1 GARDNERS LANE","ANSONIA","CT",6401,41.358608716,-73.080349392,383,"1 GARDNERS LANE, ANSONIA, CT, 6401","Match","Exact","1 GARDNERS LN, ANSONIA, CT, 06401",3734256,"R"
384,"1 GATESWAY COURT","DURHAM","NC",27707,35.969266627,-78.981349791,384,"1 GATESWAY COURT, DURHAM, NC, 27707","Match","Exact","1 GATESWAY CT, DURHAM, NC, 27707",71767080,"L"
385,"1 GEIGER LANE","WARREN","NJ",7059,40.6254492140001,-74.5042631699999,385,"1 GEIGER LANE, WARREN, NJ, 7059","Match","Exact","1 GEIGER LN, WARREN, NJ, 07059",59953138,"L"
386,"1 GILA PLACE","LAKEWOOD","NJ",8701,NA,NA,386,"1 GILA PLACE, LAKEWOOD, NJ, 8701","No_Match",NA,NA,NA,NA
387,"1 GLEDHILL DR","GALION","OH",44833,40.7297600100001,-82.804288801,387,"1 GLEDHILL DR, GALION, OH, 44833","Match","Exact","1 GLEDHILL DR, GALION, OH, 44833",12077344,"L"
388,"1 GLEN ROAD","WEST HEMPSTEAD","NY",11552,40.676337496,-73.651125371,388,"1 GLEN ROAD, WEST HEMPSTEAD, NY, 11552","Match","Exact","1 GLEN RD, W HEMPSTEAD, NY, 11552",147675470,"R"
389,"1 GLENLAKE PARKWAY SUITE 650","ATLANTA","GA",30328,33.937860319,-84.3599712069999,389,"1 GLENLAKE PARKWAY SUITE 650, ATLANTA, GA, 30328","Match","Non_Exact","1 GLENLAKE PKWY NE, ATLANTA, GA, 30328",643082587,"R"
390,"1 GLENWOOD AVENUE APT 5D","YONKERS","NY",10701,40.9502733160001,-73.89830604,390,"1 GLENWOOD AVENUE APT 5D, YONKERS, NY, 10701","Match","Exact","1 GLENWOOD AVE, YONKERS, NY, 10701",139742845,"L"
391,"1 GLOUCESTER RD APT 101","HILTONHEAD","SC",29928,32.155291838,-80.754229444,391,"1 GLOUCESTER RD APT 101, HILTONHEAD, SC, 29928","Match","Non_Exact","1 GLOUCESTER RD, HILTON HEAD, SC, 29928",87635911,"L"
392,"1 GLYNN GARTH","REISTERSTOWN","MD",21136,39.4655717420001,-76.8040580529999,392,"1 GLYNN GARTH, REISTERSTOWN, MD, 21136","Match","Exact","1 GLYNN GARTH, REISTERSTOWN, MD, 21136",191462480,"L"
393,"1 GOLDEN BEAR DR","MAHANOY CITY","PA",17948,NA,NA,393,"1 GOLDEN BEAR DR, MAHANOY CITY, PA, 17948","No_Match",NA,NA,NA,NA
394,"1 GOLF TERRACE","DAPHNE","AL",36526,30.649913165,-87.895741629,394,"1 GOLF TERRACE, DAPHNE, AL, 36526","Match","Exact","1 GOLF TER, DAPHNE, AL, 36526",647798679,"R"
395,"1 GOLF TERRANCE","DAPHNE","AL",36526,30.649913165,-87.895741629,395,"1 GOLF TERRANCE, DAPHNE, AL, 36526","Match","Non_Exact","1 GOLF TER, DAPHNE, AL, 36526",647798679,"R"
396,"1 GORHAM ISLAND STE 300","WESTPORT","CT",6880,41.143667915,-73.363317157,396,"1 GORHAM ISLAND STE 300, WESTPORT, CT, 6880","Match","Non_Exact","1 GORHAM ISLAND RD, WESTPORT, CT, 06880",3238259,"R"
397,"1 GOVERNMENT CENTER SUITE 2120","TOLEDO","OH",43604,NA,NA,397,"1 GOVERNMENT CENTER SUITE 2120, TOLEDO, OH, 43604","No_Match",NA,NA,NA,NA
398,"1 GRACE RIDGE COURT","MONKTON","MD",21111,39.584626701,-76.66311623,398,"1 GRACE RIDGE COURT, MONKTON, MD, 21111","Match","Exact","1 GRACE RIDGE CT, MONKTON, MD, 21111",191545888,"R"
399,"1 GRACE RIDGE CT","MONKTON","MD",21111,39.584626701,-76.66311623,399,"1 GRACE RIDGE CT, MONKTON, MD, 21111","Match","Exact","1 GRACE RIDGE CT, MONKTON, MD, 21111",191545888,"R"
400,"1 GRACEWOOD COURT","COVE NECK","NY",11771,40.8801159440001,-73.504334875,400,"1 GRACEWOOD COURT, COVE NECK, NY, 11771","Match","Non_Exact","1 GRACEWOOD CT, OYSTER BAY, NY, 11771",147692640,"L"
401,"1 GRAY STREET","NORTH ANDOVER","MA",1845,42.6387244800001,-71.088522272,401,"1 GRAY STREET, NORTH ANDOVER, MA, 1845","Match","Exact","1 GRAY ST, NORTH ANDOVER, MA, 01845",86673922,"R"
402,"1 GREENBRIER RD","WESTPORT","CT",6880,41.181126906,-73.344234141,402,"1 GREENBRIER RD, WESTPORT, CT, 6880","Match","Exact","1 GREENBRIER RD, WESTPORT, CT, 06880",653167872,"L"
403,"1 GREENVIEW DRIVE","WEST BRANCH","IA",52358,41.6777832600001,-91.3638120909999,403,"1 GREENVIEW DRIVE, WEST BRANCH, IA, 52358","Match","Exact","1 GREENVIEW DR, WEST BRANCH, IA, 52358",651096342,"L"
404,"1 GREENWAVE CIR","FALLON","NV",89406,NA,NA,404,"1 GREENWAVE CIR, FALLON, NV, 89406","No_Match",NA,NA,NA,NA
405,"1 GREYHOUND LANE","BOERNE","TX",78006,NA,NA,405,"1 GREYHOUND LANE, BOERNE, TX, 78006","No_Match",NA,NA,NA,NA
406,"1 GREYHOUND LN","BOERNE","TX",78006,NA,NA,406,"1 GREYHOUND LN, BOERNE, TX, 78006","No_Match",NA,NA,NA,NA
407,"1 GRUMMAN AVE 5E","NEWARK","NJ",7112,40.7011887470001,-74.212642924,407,"1 GRUMMAN AVE 5E, NEWARK, NJ, 7112","Match","Exact","1 GRUMMAN AVE, NEWARK, NJ, 07112",63466674,"R"
408,"1 H STREET PLACE","BOSTON","MA",2127,42.335788183,-71.041610039,408,"1 H STREET PLACE, BOSTON, MA, 2127","Match","Exact","1 H STREET PL, BOSTON, MA, 02127",85723145,"L"
409,"1 HAGAN DRIVE","PINE BLUFF","AR",71603,34.198176903,-92.054015869,409,"1 HAGAN DRIVE, PINE BLUFF, AR, 71603","Match","Exact","1 HAGAN DR, PINE BLUFF, AR, 71603",2553232,"R"
410,"1 HALF FALLS LANE","DUNCANNON","PA",17020,40.47473763,-76.998809479,410,"1 HALF FALLS LANE, DUNCANNON, PA, 17020","Match","Exact","1 HALF FALLS LN, DUNCANNON, PA, 17020",617446425,"L"
411,"1 HALFMOON","IRVINE","CA",92614,33.670815813,-117.81647545,411,"1 HALFMOON, IRVINE, CA, 92614","Match","Exact","1 HALFMOON, IRVINE, CA, 92614",144058656,"R"
412,"1 HALL ROAD","HAMPTON","VA",23664,37.0661427320001,-76.299666002,412,"1 HALL ROAD, HAMPTON, VA, 23664","Match","Exact","1 HALL RD, HAMPTON, VA, 23664",103760443,"L"
413,"1 HANSON PL APT 24D","BROOKLYN","NY",11243,40.6850939080001,-73.977824815,413,"1 HANSON PL APT 24D, BROOKLYN, NY, 11243","Match","Non_Exact","1 HANSON PL, BROOKLYN, NY, 11217",59077659,"L"
414,"1 HARBOR POINT RD APT 1700","STAMFORD","CT",6902,NA,NA,414,"1 HARBOR POINT RD APT 1700, STAMFORD, CT, 6902","Tie",NA,NA,NA,NA
415,"1 HARBOR SQUARE APT 627","OSSINING","NY",10562,NA,NA,415,"1 HARBOR SQUARE APT 627, OSSINING, NY, 10562","No_Match",NA,NA,NA,NA
416,"1 HARDING PLAZA","GLEN ROCK","NJ",7452,40.9609600270001,-74.128119732,416,"1 HARDING PLAZA, GLEN ROCK, NJ, 7452","Match","Exact","1 HARDING PLZ, GLEN ROCK, NJ, 07452",64414673,"L"
417,"1 HARPERS FERRY ROAD","TOMS RIVER","NJ",8753,39.9916251650001,-74.1665550989999,417,"1 HARPERS FERRY ROAD, TOMS RIVER, NJ, 8753","Match","Exact","1 HARPERS FERRY RD, TOMS RIVER, NJ, 08753",203727526,"L"
418,"1 HARPERS HOLLOW","EAST SANDWICH","MA",2537,41.716184438,-70.414682184,418,"1 HARPERS HOLLOW, EAST SANDWICH, MA, 2537","Match","Exact","1 HARPERS HOLLOW, EAST SANDWICH, MA, 02537",121554875,"L"
419,"1 HARPOON CT","WILLIAMSBURG","VA",23185,37.2112529460001,-76.6171040309999,419,"1 HARPOON CT, WILLIAMSBURG, VA, 23185","Match","Exact","1 HARPOON CT, WILLIAMSBURG, VA, 23185",103769582,"R"
420,"1 HARRY ALLAN PARK","HONEOYE FALLS","NY",14472,NA,NA,420,"1 HARRY ALLAN PARK, HONEOYE FALLS, NY, 14472","No_Match",NA,NA,NA,NA
421,"1 HARTWICK DRIVE","ONEONTA","NY",13820,42.4605186680001,-75.071202292,421,"1 HARTWICK DRIVE, ONEONTA, NY, 13820","Match","Exact","1 HARTWICK DR, ONEONTA, NY, 13820",125918666,"L"
422,"1 HARVARD STREET","BROOKLINE","MA",2445,42.3332538120001,-71.118738407,422,"1 HARVARD STREET, BROOKLINE, MA, 2445","Match","Exact","1 HARVARD ST, BROOKLINE, MA, 02445",87245372,"R"
423,"1 HASECO AVENUE","PORT CHESTER","NY",10573,41.00432885,-73.66876789,423,"1 HASECO AVENUE, PORT CHESTER, NY, 10573","Match","Exact","1 HASECO AVE, PORT CHESTER, NY, 10573",139762248,"R"
424,"1 HASSMAR RD","ENFIELD","CT",6082,42.0240374320001,-72.538875425,424,"1 HASSMAR RD, ENFIELD, CT, 6082","Match","Exact","1 HASSMAR RD, ENFIELD, CT, 06082",3480700,"L"
425,"1 HASTINGS POND ROAD","WARWICK","MA",1378,42.679335875,-72.3377423709999,425,"1 HASTINGS POND ROAD, WARWICK, MA, 1378","Match","Exact","1 HASTINGS POND RD, WARWICK, MA, 01378",39913527,"L"
426,"1 HAVEN HILL RD","RUTLAND","MA",1543,42.3821324950001,-71.934945375,426,"1 HAVEN HILL RD, RUTLAND, MA, 1543","Match","Exact","1 HAVEN HILL RD, RUTLAND, MA, 01543",40061528,"L"
427,"1 HAWTHORNE CT","BLACKWOOD","NJ",8012,39.8264107950001,-75.0763859589999,427,"1 HAWTHORNE CT, BLACKWOOD, NJ, 8012","Match","Exact","1 HAWTHORNE CT, BLACKWOOD, NJ, 08012",134379976,"L"
428,"1 HAYDEN DR","PETERSBURG","VA",23806,37.23488661,-77.419952467,428,"1 HAYDEN DR, PETERSBURG, VA, 23806","Match","Non_Exact","1 HAYDEN ST, PETERSBURG, VA, 23806",643011966,"L"
429,"1 HAYWARD FIELD","MILFORD","MA",1757,42.147407915,-71.511868925,429,"1 HAYWARD FIELD, MILFORD, MA, 1757","Match","Exact","1 HAYWARD FIELD, MILFORD, MA, 01757",40039663,"L"
430,"1 HAYWOOD STREET SUITE 401","ASHEVILLE","NC",28801,35.594632893,-82.554006159,430,"1 HAYWOOD STREET SUITE 401, ASHEVILLE, NC, 28801","Match","Exact","1 HAYWOOD ST, ASHEVILLE, NC, 28801",36845548,"R"
431,"1 HAZEL ROAD","BERKELEY","CA",94705,37.856389672,-122.246432247,431,"1 HAZEL ROAD, BERKELEY, CA, 94705","Match","Exact","1 HAZEL RD, BERKELEY, CA, 94705",606340917,"L"
432,"1 HELGER LN","L COMPTON","RI",2837,41.5227266680001,-71.170774249,432,"1 HELGER LN, L COMPTON, RI, 2837","Match","Exact","1 HELGER LN, L COMPTON, RI, 02837",47355012,"L"
433,"1 HERITAGE BLVD","PRINCETON","NJ",8540,40.3256431890001,-74.6513109539999,433,"1 HERITAGE BLVD, PRINCETON, NJ, 8540","Match","Exact","1 HERITAGE BLVD, PRINCETON, NJ, 08540",60191154,"R"
434,"1 HERITAGE CIRCLE","WARETOWN","NJ",8758,NA,NA,434,"1 HERITAGE CIRCLE, WARETOWN, NJ, 8758","No_Match",NA,NA,NA,NA
435,"1 HERITAGE PLAZA RD","WHITE SALMON","WA",98672,NA,NA,435,"1 HERITAGE PLAZA RD, WHITE SALMON, WA, 98672","No_Match",NA,NA,NA,NA
436,"1 HERMAN PARK COURT APT 167","HOUSTON","TX",77021,29.7100492440001,-95.382870426,436,"1 HERMAN PARK COURT APT 167, HOUSTON, TX, 77021","Match","Non_Exact","1 HERMANN PARK CT, HOUSTON, TX, 77021",233372397,"L"
437,"1 HERMANN MUSEUM CIRCLE DR AP E1106","HOUSTON","TX",77004,29.718632794,-95.381680095,437,"1 HERMANN MUSEUM CIRCLE DR AP E1106, HOUSTON, TX, 77004","Match","Exact","1 HERMANN MUSEUM CIRCLE DR, HOUSTON, TX, 77004",650077976,"R"
438,"1 HERMANN MUSEUM CIRCLE DR APT 3081","HOUSTON","TX",77004,29.718632794,-95.381680095,438,"1 HERMANN MUSEUM CIRCLE DR APT 3081, HOUSTON, TX, 77004","Match","Exact","1 HERMANN MUSEUM CIRCLE DR, HOUSTON, TX, 77004",650077976,"R"
439,"1 HERMANN PARK CT APT 441","HOUSTON","TX",77021,29.7100492440001,-95.382870426,439,"1 HERMANN PARK CT APT 441, HOUSTON, TX, 77021","Match","Exact","1 HERMANN PARK CT, HOUSTON, TX, 77021",233372397,"L"
440,"1 HESTER DR","DUBLIN","GA",31021,32.528793373,-82.92717601,440,"1 HESTER DR, DUBLIN, GA, 31021","Match","Exact","1 HESTER DR, DUBLIN, GA, 31021",100652857,"L"
441,"1 HI LO LANE","CONROE","TX",77303,30.356632898,-95.4638166889999,441,"1 HI LO LANE, CONROE, TX, 77303","Match","Non_Exact","1 HILO LN, CONROE, TX, 77303",79297037,"L"
442,"1 HIAWATHA CIRCLE","MADISON","WI",53711,43.043545452,-89.4494686689999,442,"1 HIAWATHA CIRCLE, MADISON, WI, 53711","Match","Exact","1 HIAWATHA CIR, MADISON, WI, 53711",49493787,"R"
443,"1 HICKORY COURT","CRANBURY","NJ",8512,40.3389577040001,-74.555463429,443,"1 HICKORY COURT, CRANBURY, NJ, 8512","Match","Exact","1 HICKORY CT, CRANBURY, NJ, 08512",60304968,"R"
444,"1 HICKORY LANE","GREENBRIER","AR",72058,35.180812051,-92.475362777,444,"1 HICKORY LANE, GREENBRIER, AR, 72058","Match","Exact","1 HICKORY LN, GREENBRIER, AR, 72058",141061787,"R"
445,"1 HIDDEN BROOK WAY","SINKING SPRING","PA",19608,40.328926842,-76.023846675,445,"1 HIDDEN BROOK WAY, SINKING SPRING, PA, 19608","Match","Exact","1 HIDDEN BROOK WAY, SINKING SPRING, PA, 19608",612457364,"R"
446,"1 HIGH POINTE RIDGE","SICKLERVILLE","NJ",8081,39.703011389,-74.915273449,446,"1 HIGH POINTE RIDGE, SICKLERVILLE, NJ, 8081","Match","Exact","1 HIGH POINTE RIDGE, SICKLERVILLE, NJ, 08081",617120320,"L"
447,"1 HIGH SCHOOL DR","MONROE","NC",28112,34.9743786650001,-80.526574854,447,"1 HIGH SCHOOL DR, MONROE, NC, 28112","Match","Exact","1 HIGH SCHOOL DR, MONROE, NC, 28112",14174569,"R"
448,"1 HIGH ST","ROCKPORT","MA",1966,42.65756322,-70.6158061529999,448,"1 HIGH ST, ROCKPORT, MA, 1966","Match","Exact","1 HIGH ST, ROCKPORT, MA, 01966",86633641,"R"
449,"1 HIGH STREET","ROCKPORT","MA",1966,42.65756322,-70.6158061529999,449,"1 HIGH STREET, ROCKPORT, MA, 1966","Match","Exact","1 HIGH ST, ROCKPORT, MA, 01966",86633641,"R"
450,"1 HILL STREET","OSSINING","NY",10562,41.1613032660001,-73.867131709,450,"1 HILL STREET, OSSINING, NY, 10562","Match","Exact","1 HILL ST, OSSINING, NY, 10562",139792979,"R"
451,"1 HILLCRESST CTR STE 312","SPRING VALLEY","NY",10977,41.130064959,-74.0381689829999,451,"1 HILLCRESST CTR STE 312, SPRING VALLEY, NY, 10977","Match","Non_Exact","1 HILLCREST AVE, SPRING VALLEY, NY, 10977",124614221,"R"
452,"1 HILLCREST CTR STE 312","SPRING VALLEY","NY",10977,41.130064959,-74.0381689829999,452,"1 HILLCREST CTR STE 312, SPRING VALLEY, NY, 10977","Match","Non_Exact","1 HILLCREST AVE, SPRING VALLEY, NY, 10977",124614221,"R"
453,"1 HILLTOP ACRES DR","LAKEVILLE","MA",2347,NA,NA,453,"1 HILLTOP ACRES DR, LAKEVILLE, MA, 2347","No_Match",NA,NA,NA,NA
454,"1 HILLTOP CIRCLE","WHIPPANY","NJ",7981,40.808809055,-74.4321762929999,454,"1 HILLTOP CIRCLE, WHIPPANY, NJ, 7981","Match","Exact","1 HILLTOP CIR, WHIPPANY, NJ, 07981",60447069,"L"
455,"1 HILLTOP RD","TIJERAS","NM",87059,34.9913337150001,-106.268884101,455,"1 HILLTOP RD, TIJERAS, NM, 87059","Match","Exact","1 HILLTOP RD, TIJERAS, NM, 87059",206747828,"L"
456,"1 HOLCOMB HILL","GALLIPOLIS","OH",45631,38.8064021700001,-82.2180831869999,456,"1 HOLCOMB HILL, GALLIPOLIS, OH, 45631","Match","Non_Exact","1 HOLCOMB HILL RD, GALLIPOLIS, OH, 45631",54945147,"L"
457,"1 HOLLY SPRINGS CIR","PORT WENTWORTH","GA",31407,32.1902054280001,-81.232545188,457,"1 HOLLY SPRINGS CIR, PORT WENTWORTH, GA, 31407","Match","Exact","1 HOLLY SPRINGS CIR, PRT WENTWORTH, GA, 31407",650187659,"R"
458,"1 HOMBOLT AVENUE","BURLINGTON","MA",1803,NA,NA,458,"1 HOMBOLT AVENUE, BURLINGTON, MA, 1803","No_Match",NA,NA,NA,NA
459,"1 HONEY LOCUST TRL","MADISON","WI",53717,43.0646557760001,-89.5058479909999,459,"1 HONEY LOCUST TRL, MADISON, WI, 53717","Match","Exact","1 HONEY LOCUST TRL, MADISON, WI, 53717",49464891,"R"
460,"1 HOOPER AVENUE","WEST ORANGE","NJ",7052,40.8025794320001,-74.264373017,460,"1 HOOPER AVENUE, WEST ORANGE, NJ, 7052","Match","Exact","1 HOOPER AVE, WEST ORANGE, NJ, 07052",63460558,"R"
461,"1 HORIZON COURT","ROCKWALL","TX",75032,32.870233641,-96.446159417,461,"1 HORIZON COURT, ROCKWALL, TX, 75032","Match","Exact","1 HORIZON CT, ROCKWALL, TX, 75032",616746321,"R"
462,"1 HORNET DRIVE","POPLARVILLE","MS",39470,30.833419113,-89.52710989,462,"1 HORNET DRIVE, POPLARVILLE, MS, 39470","Match","Exact","1 HORNET DR, POPLARVILLE, MS, 39470",111490296,"L"
463,"1 HORNET LANE","COAL GROVE","OH",45638,NA,NA,463,"1 HORNET LANE, COAL GROVE, OH, 45638","No_Match",NA,NA,NA,NA
464,"1 HOUSTON STREET","MOBILE","AL",36606,30.68645357,-88.080814134,464,"1 HOUSTON STREET, MOBILE, AL, 36606","Match","Exact","1 HOUSTON ST, MOBILE, AL, 36606",61861201,"L"
465,"1 HOVEY ROAD","LONDONDERRY","NH",3053,42.8806204530001,-71.348034446,465,"1 HOVEY ROAD, LONDONDERRY, NH, 3053","Match","Exact","1 HOVEY RD, LONDONDERRY, NH, 03053",636292467,"R"
466,"1 HOWARD DRIVE","MUTTONTOWN","NY",11791,40.8151303170001,-73.531311006,466,"1 HOWARD DRIVE, MUTTONTOWN, NY, 11791","Match","Non_Exact","1 HOWARD DR, SYOSSET, NY, 11791",147826035,"L"
467,"1 HUCKLEBERRY CT","BELLINGHAM","WA",98229,48.721146946,-122.351747043,467,"1 HUCKLEBERRY CT, BELLINGHAM, WA, 98229","Match","Exact","1 HUCKLEBERRY CT, BELLINGHAM, WA, 98229",635826922,"L"
468,"1 HUNT VALLEY DRIVE","LITHONIA","GA",30058,33.7502750080001,-84.150128084,468,"1 HUNT VALLEY DRIVE, LITHONIA, GA, 30058","Match","Exact","1 HUNT VALLEY DR, LITHONIA, GA, 30058",23388767,"R"
469,"1 HUNTINGTON QUADRANGLE STE 4S03","MELVILLE","NY",11747,40.7743927080001,-73.421057951,469,"1 HUNTINGTON QUADRANGLE STE 4S03, MELVILLE, NY, 11747","Match","Exact","1 HUNTINGTON QUADRANGLE, MELVILLE, NY, 11747",114231892,"L"
470,"1 HUNTINGTON QUADRANGLE SUITE 4C10","MELVILLE","NY",11747,40.7743927080001,-73.421057951,470,"1 HUNTINGTON QUADRANGLE SUITE 4C10, MELVILLE, NY, 11747","Match","Exact","1 HUNTINGTON QUADRANGLE, MELVILLE, NY, 11747",114231892,"L"
471,"1 HWY 114 S","SCOTTS HILL","TN",38374,35.514644063,-88.2443351539999,471,"1 HWY 114 S, SCOTTS HILL, TN, 38374","Match","Exact","1 HWY 114 S, SCOTTS HILL, TN, 38374",21231741,"L"
472,"1 INDEPENDENCE HILL","FARMINGVILLE","NY",11738,40.8443705080001,-73.014128119,472,"1 INDEPENDENCE HILL, FARMINGVILLE, NY, 11738","Match","Exact","1 INDEPENDENCE HILL, FARMINGVILLE, NY, 11738",643082572,"R"
473,"1 INDIAN AVE ATT CHRISTINE CULLIGAN","VENICE","FL",34285,27.0938458570001,-82.4402757139999,473,"1 INDIAN AVE ATT CHRISTINE CULLIGAN, VENICE, FL, 34285","Match","Exact","1 INDIAN AVE, VENICE, FL, 34285",16360673,"L"
474,"1 INDIAN AVENUE","VENICE","FL",34285,27.0938458570001,-82.4402757139999,474,"1 INDIAN AVENUE, VENICE, FL, 34285","Match","Exact","1 INDIAN AVE, VENICE, FL, 34285",16360673,"L"
475,"1 INDIAN RD","RIVERSIDE","RI",2915,41.7760005980001,-71.3580137719999,475,"1 INDIAN RD, RIVERSIDE, RI, 2915","Match","Exact","1 INDIAN RD, RIVERSIDE, RI, 02915",651690441,"R"
476,"1 INDIANA SQUARE SUITE 2050","INDIANAPOLIS","IN",46204,NA,NA,476,"1 INDIANA SQUARE SUITE 2050, INDIANAPOLIS, IN, 46204","No_Match",NA,NA,NA,NA
477,"1 INDUSTRIAL DRIVE","WINDHAM","NH",3087,42.8110343490001,-71.2531678989999,477,"1 INDUSTRIAL DRIVE, WINDHAM, NH, 3087","Match","Exact","1 INDUSTRIAL DR, WINDHAM, NH, 03087",113712254,"R"
478,"1 INDUSTRIAL WAY W BLD E STE H","EATONTOWN","NJ",7724,40.2762282300001,-74.0461440139999,478,"1 INDUSTRIAL WAY W BLD E STE H, EATONTOWN, NJ, 7724","Match","Exact","1 INDUSTRIAL WAY W, EATONTOWN, NJ, 07724",90529947,"R"
479,"1 INNOVATION WAY-SUITE 300","NEWARK","DE",19711,39.6791105250001,-75.732316079,479,"1 INNOVATION WAY-SUITE 300, NEWARK, DE, 19711","Match","Non_Exact","1 INNOVATION WAY, NEWARK, DE, 19711",617263796,"L"
480,"1 INNOVATION WAY","NEW CASTLE","DE",19720,NA,NA,480,"1 INNOVATION WAY, NEW CASTLE, DE, 19720","No_Match",NA,NA,NA,NA
481,"1 INTERNATIONAL BLVD STE 400 NO 75","MAHWAH","NJ",7495,NA,NA,481,"1 INTERNATIONAL BLVD STE 400 NO 75, MAHWAH, NJ, 7495","No_Match",NA,NA,NA,NA
482,"1 IOWA STREET","WORCESTER","MA",1602,42.2771581650001,-71.8377517549999,482,"1 IOWA STREET, WORCESTER, MA, 1602","Match","Exact","1 IOWA ST, WORCESTER, MA, 01602",40007517,"L"
483,"1 IRON BOLT CT","CATONSVILLE","MD",21228,39.301905828,-76.765866363,483,"1 IRON BOLT CT, CATONSVILLE, MD, 21228","Match","Exact","1 IRON BOLT CT, CATONSVILLE, MD, 21228",191482866,"L"
484,"1 IROQUOIS DRIVE","SARATOGA SPRINGS","NY",12866,43.084502822,-73.7631571049999,484,"1 IROQUOIS DRIVE, SARATOGA SPRINGS, NY, 12866","Match","Exact","1 IROQUOIS DR, SARATOGA SPGS, NY, 12866",18765372,"R"
485,"1 IRVING STREET","ALBANY","NY",12202,42.6488536960001,-73.7648857729999,485,"1 IRVING STREET, ALBANY, NY, 12202","Match","Exact","1 IRVING ST, ALBANY, NY, 12202",18310201,"R"
486,"1 IRWIN AVE","HERMINIE","PA",15637,40.25939176,-79.7134178429999,486,"1 IRWIN AVE, HERMINIE, PA, 15637","Match","Exact","1 IRWIN AVE, HERMINIE, PA, 15637",52968130,"L"
487,"1 ISLA BAHIA DRIVE","FORT LAUDERDALE","FL",33316,26.1099558060001,-80.1172961359999,487,"1 ISLA BAHIA DRIVE, FORT LAUDERDALE, FL, 33316","Match","Exact","1 ISLA BAHIA DR, FORT LAUDERDALE, FL, 33316",114730992,"L"
488,"1 IVY CIR","CLINTON","IL",61727,40.1420397480001,-88.968692994,488,"1 IVY CIR, CLINTON, IL, 61727","Match","Exact","1 IVY CIR, CLINTON, IL, 61727",20509202,"L"
489,"1 IVY CREST LANE","ROCKAWAY","NJ",7866,40.9270666520001,-74.47006628,489,"1 IVY CREST LANE, ROCKAWAY, NJ, 7866","Match","Exact","1 IVY CREST LN, ROCKAWAY, NJ, 07866",60470561,"L"
490,"1 IVY CREST LN","ROCKAWAY","NJ",7866,40.9270666520001,-74.47006628,490,"1 IVY CREST LN, ROCKAWAY, NJ, 7866","Match","Exact","1 IVY CREST LN, ROCKAWAY, NJ, 07866",60470561,"L"
491,"1 JACK FROST MOUNTAIN ROAD","BLAKESLEE","PA",18610,NA,NA,491,"1 JACK FROST MOUNTAIN ROAD, BLAKESLEE, PA, 18610","No_Match",NA,NA,NA,NA
492,"1 JACKSON LN","GLEN COVE","NY",11542,40.8762951320001,-73.6431042299999,492,"1 JACKSON LN, GLEN COVE, NY, 11542","Match","Exact","1 JACKSON LN, GLEN COVE, NY, 11542",147840124,"L"
493,"1 JADE DRIVE","KEY WEST","FL",33040,24.5994837170001,-81.651654964,493,"1 JADE DRIVE, KEY WEST, FL, 33040","Match","Exact","1 JADE DR, KEY WEST, FL, 33040",639075069,"R"
494,"1 JEAN WALLING CIVIC CENTER DRIVE","EAST BRUNSWICK","NJ",8816,NA,NA,494,"1 JEAN WALLING CIVIC CENTER DRIVE, EAST BRUNSWICK, NJ, 8816","No_Match",NA,NA,NA,NA
495,"1 JEFFERSON LANDING CIRCLE","PORT JEFFERSON","NY",11777,40.946811461,-73.044818982,495,"1 JEFFERSON LANDING CIRCLE, PORT JEFFERSON, NY, 11777","Match","Exact","1 JEFFERSON LANDING CIR, PORT JEFFERSON, NY, 11777",114047920,"R"
496,"1 JERVIS ROAD","YONKERS","NY",10705,40.9124245740001,-73.881639061,496,"1 JERVIS ROAD, YONKERS, NY, 10705","Match","Exact","1 JERVIS RD, YONKERS, NY, 10705",139745030,"L"
497,"1 JESSICA CT","WICHITA FALLS","TX",76310,33.855922417,-98.59120425,497,"1 JESSICA CT, WICHITA FALLS, TX, 76310","Match","Exact","1 JESSICA CT, WICHITA FALLS, TX, 76310",627726313,"L"
498,"1 JH WADE DRIVE","BOONSBORO","MD",21713,39.514487504,-77.650130045,498,"1 JH WADE DRIVE, BOONSBORO, MD, 21713","Match","Exact","1 JH WADE DR, BOONSBORO, MD, 21713",637318669,"L"
499,"1 JODI COURT","GLEN COVE","NY",11542,40.8766886780001,-73.641101405,499,"1 JODI COURT, GLEN COVE, NY, 11542","Match","Exact","1 JODI CT, GLEN COVE, NY, 11542",147686356,"R"
500,"1 JOHN J BRADY DRIVE","FRAMINGHAM","MA",1702,42.2914089120001,-71.412103046,500,"1 JOHN J BRADY DRIVE, FRAMINGHAM, MA, 1702","Match","Exact","1 JOHN J BRADY DR, FRAMINGHAM, MA, 01702",86913700,"R"
