"ID","Address","City","State","Zip","lat","long","id","input_address","match_indicator","match_type","matched_address","tiger_line_id","tiger_side"
171501,"321 NORTH MAY AVENUE","FORT SMITH","AR",72901,35.3779942620001,-94.402231779,1,"321 NORTH MAY AVENUE, FORT SMITH, AR, 72901","Match","Exact","321 N MAY AVE, FORT SMITH, AR, 72901",56103534,"L"
171502,"321 NORTH SHAWNEE TERRACE","LOUISVILLE","KS",40212,NA,NA,2,"321 NORTH SHAWNEE TERRACE, LOUISVILLE, KS, 40212","No_Match",NA,NA,NA,NA
171503,"321 NORTH WATER ST","WEST NEWTON","PA",15089,40.21776127,-79.763697899,3,"321 NORTH WATER ST, WEST NEWTON, PA, 15089","Match","Exact","321 N WATER ST, WEST NEWTON, PA, 15089",53002204,"R"
171504,"321 NW 55TH STREET","FORT LAUDERDALE","FL",33309,26.1952757540001,-80.1493285769999,4,"321 NW 55TH STREET, FORT LAUDERDALE, FL, 33309","Match","Exact","321 NW 55TH ST, FORT LAUDERDALE, FL, 33309",114718755,"R"
171505,"321 ODELL","CLEBURNE","TX",76033,32.3645459300001,-97.398585112,5,"321 ODELL, CLEBURNE, TX, 76033","Match","Non_Exact","321 ODELL ST, CLEBURNE, TX, 76033",225919525,"R"
171506,"321 OLD ASHELAND AVE","ASHEVILLE","NC",28801,35.583191345,-82.556385153,6,"321 OLD ASHELAND AVE, ASHEVILLE, NC, 28801","Match","Exact","321 OLD ASHELAND AVE, ASHEVILLE, NC, 28801",36846425,"R"
171507,"321 PACIFIC AVENUE","JERSEY CITY","NJ",7304,40.711898391,-74.0620163309999,7,"321 PACIFIC AVENUE, JERSEY CITY, NJ, 7304","Match","Exact","321 PACIFIC AVE, JERSEY CITY, NJ, 07304",59604842,"L"
171508,"321 PALMETTO ST","HOT SPRINGS","AR",71901,34.5039289960001,-93.043034881,8,"321 PALMETTO ST, HOT SPRINGS, AR, 71901","Match","Exact","321 PALMETTO ST, HOT SPRINGS, AR, 71901",22768361,"R"
171509,"321 PEACE RIDGE ROAD","HARPERS FERRY","WV",25425,39.366401873,-77.7573920039999,9,"321 PEACE RIDGE ROAD, HARPERS FERRY, WV, 25425","Match","Exact","321 PEACE RIDGE RD, HARPERS FERRY, WV, 25425",636677639,"L"
171510,"321 PETE DAVIS RD","NEWNAN","GA",30263,33.368571622,-84.87230833,10,"321 PETE DAVIS RD, NEWNAN, GA, 30263","Match","Exact","321 PETE DAVIS RD, NEWNAN, GA, 30263",9347136,"L"
171511,"321 PHELAN RD","BASTROP","TX",78602,30.1546573260001,-97.32951042,11,"321 PHELAN RD, BASTROP, TX, 78602","Match","Exact","321 PHELAN RD, BASTROP, TX, 78602",45480304,"R"
171512,"321 POST AVENUE","WESTBURY","NY",11590,40.7606502150001,-73.587741221,12,"321 POST AVENUE, WESTBURY, NY, 11590","Match","Exact","321 POST AVE, WESTBURY, NY, 11590",147624001,"L"
171513,"321 PRAIRIE DUNE WAY","ORLANDO","FL",32828,28.529264702,-81.193193601,13,"321 PRAIRIE DUNE WAY, ORLANDO, FL, 32828","Match","Exact","321 PRAIRIE DUNE WAY, ORLANDO, FL, 32828",647481637,"L"
171514,"321 REMSEN AVENUE","BROOKLYN","NY",11212,40.657374609,-73.925053192,14,"321 REMSEN AVENUE, BROOKLYN, NY, 11212","Match","Exact","321 REMSEN AVE, BROOKLYN, NY, 11212",59083656,"L"
171515,"321 RICHELIEU COURT","LOS ALTOS","CA",94022,37.3876924530001,-122.111643584,15,"321 RICHELIEU COURT, LOS ALTOS, CA, 94022","Match","Exact","321 RICHELIEU CT, LOS ALTOS, CA, 94022",122954112,"L"
171516,"321 ROLLING ROAD","SHELBYVILLE","TN",37160,35.506836971,-86.450851787,16,"321 ROLLING ROAD, SHELBYVILLE, TN, 37160","Match","Exact","321 ROLLING RD, SHELBYVILLE, TN, 37160",58855218,"R"
171517,"321 ROUTE 59 SUITE 395","TALLMAN","NY",10982,NA,NA,17,"321 ROUTE 59 SUITE 395, TALLMAN, NY, 10982","No_Match",NA,NA,NA,NA
171518,"321 ROXBURY ROAD","NEW BRITAIN","CT",6053,41.686918636,-72.776133229,18,"321 ROXBURY ROAD, NEW BRITAIN, CT, 6053","Match","Exact","321 ROXBURY RD, NEW BRITAIN, CT, 06053",3510099,"R"
171519,"321 RYERSON AVE","ELGIN","IL",60123,42.0284528650001,-88.282381314,19,"321 RYERSON AVE, ELGIN, IL, 60123","Match","Exact","321 RYERSON AVE, ELGIN, IL, 60123",119503855,"L"
171520,"321 S BROAD STREET","ELIZABETH","NJ",7202,40.6570593810001,-74.2155393419999,20,"321 S BROAD STREET, ELIZABETH, NJ, 7202","Match","Exact","321 S BROAD ST, ELIZABETH, NJ, 07202",60578507,"R"
171521,"321 S GARDEN ST","LAKE CITY","MN",55041,44.4456307940001,-92.267043714,21,"321 S GARDEN ST, LAKE CITY, MN, 55041","Match","Exact","321 S GARDEN ST, LAKE CITY, MN, 55041",31620268,"R"
171522,"321 S GAYOSO ST","NEW ORLEANS","LA",70119,29.9657339610001,-90.092241394,22,"321 S GAYOSO ST, NEW ORLEANS, LA, 70119","Match","Exact","321 S GAYOSO ST, NEW ORLEANS, LA, 70119",191707812,"R"
171523,"321 S KERR AVE UNIT 162","WILMINGTON","NC",28403,34.2337147310001,-77.887893312,23,"321 S KERR AVE UNIT 162, WILMINGTON, NC, 28403","Match","Non_Exact","321 S KERR AVE, WILMINGTON, NC, 28403",152762610,"L"
171524,"321 S LEHIGH AVE","FRACKVILLE","PA",17931,40.780568019,-76.228826495,24,"321 S LEHIGH AVE, FRACKVILLE, PA, 17931","Match","Exact","321 S LEHIGH AVE, FRACKVILLE, PA, 17931",70936238,"R"
171525,"321 S MAIN ST","JEFFERSON","WI",53549,43.0032082650001,-88.8073500899999,25,"321 S MAIN ST, JEFFERSON, WI, 53549","Match","Exact","321 S MAIN ST, JEFFERSON, WI, 53549",53213486,"L"
171526,"321 SAINT NICHOLAS AVE STE 6H","NEW YORK","NY",10027,40.811341385,-73.952180433,26,"321 SAINT NICHOLAS AVE STE 6H, NEW YORK, NY, 10027","Match","Exact","321 ST NICHOLAS AVE, NEW YORK, NY, 10027",59656087,"L"
171527,"321 SAINT NICHOLAS AVENUE SUITE 5K","NEW YORK","NY",10027,40.811341385,-73.952180433,27,"321 SAINT NICHOLAS AVENUE SUITE 5K, NEW YORK, NY, 10027","Match","Exact","321 ST NICHOLAS AVE, NEW YORK, NY, 10027",59656087,"L"
171528,"321 SERPENTINE LANE","JARRELL","TX",76537,30.79731593,-97.598060536,28,"321 SERPENTINE LANE, JARRELL, TX, 76537","Match","Exact","321 SERPENTINE LN, JARRELL, TX, 76537",648536206,"L"
171529,"321 SIERRA WAY","CEDAR HILL","TX",75104,32.612127301,-96.948937369,29,"321 SIERRA WAY, CEDAR HILL, TX, 75104","Match","Exact","321 SIERRA WAY, CEDAR HILL, TX, 75104",103174733,"L"
171530,"321 SKIDMORE RD","PLEASANT VALLEY","NY",12569,41.7086050950001,-73.760661703,30,"321 SKIDMORE RD, PLEASANT VALLEY, NY, 12569","Match","Exact","321 SKIDMORE RD, PLEASANT VALLEY, NY, 12569",4183660,"L"
171531,"321 SOUTH WHIPPLE STREET","FORT BRAGG","CA",95437,39.438688669,-123.800768385,31,"321 SOUTH WHIPPLE STREET, FORT BRAGG, CA, 95437","Match","Exact","321 S WHIPPLE ST, FORT BRAGG, CA, 95437",647674643,"L"
171532,"321 SPRUCE ST STE 201","SCRANTON","PA",18503,41.4090987370001,-75.665525616,32,"321 SPRUCE ST STE 201, SCRANTON, PA, 18503","Match","Exact","321 SPRUCE ST, SCRANTON, PA, 18503",139326991,"L"
171533,"321 SPRUCE STREET 1ST FLOOR","SCRANTON","PA",18503,41.4090987370001,-75.665525616,33,"321 SPRUCE STREET 1ST FLOOR, SCRANTON, PA, 18503","Match","Exact","321 SPRUCE ST, SCRANTON, PA, 18503",139326991,"L"
171534,"321 STONE MONUMENT DRIVE","WAKE FOREST","NC",27587,35.9572380430001,-78.52821634,34,"321 STONE MONUMENT DRIVE, WAKE FOREST, NC, 27587","Match","Exact","321 STONE MONUMENT DR, WAKE FOREST, NC, 27587",612814975,"L"
171535,"321 STRATHMORE ROAD","HAVERTOWN","PA",19083,39.9835795450001,-75.2977357239999,35,"321 STRATHMORE ROAD, HAVERTOWN, PA, 19083","Match","Exact","321 STRATHMORE RD, HAVERTOWN, PA, 19083",134875601,"R"
171536,"321 SW 128 TERRACE","NEWBERRY","FL",32669,29.6506820000001,-82.4787895109999,36,"321 SW 128 TERRACE, NEWBERRY, FL, 32669","Match","Exact","321 SW 128TH TER, NEWBERRY, FL, 32669",650088986,"L"
171537,"321 THOMAS LANE","HARRISON","OH",45030,39.265002404,-84.817591621,37,"321 THOMAS LANE, HARRISON, OH, 45030","Match","Exact","321 THOMAS LN, HARRISON, OH, 45030",103952569,"L"
171538,"321 US HIGHWAY 301","MICRO","NC",27555,35.564382337,-78.2015199579999,38,"321 US HIGHWAY 301, MICRO, NC, 27555","Match","Exact","321 US HWY 301, MICRO, NC, 27555",26526270,"L"
171539,"321 VILLAGE DRIVE","MARS","PA",16046,40.688151943,-80.042309109,39,"321 VILLAGE DRIVE, MARS, PA, 16046","Match","Exact","321 VILLAGE DR, MARS, PA, 16046",607367116,"R"
171540,"321 VINCENT RD","ROANOKE RAPIDS","NC",27870,36.4756546400001,-77.6577292809999,40,"321 VINCENT RD, ROANOKE RAPIDS, NC, 27870","Match","Exact","321 VINCENT RD, ROANOKE RAPIDS, NC, 27870",56711729,"L"
171541,"321 W 103RD ST STE A","NEW YORK","NY",10025,40.7998689940001,-73.970339563,41,"321 W 103RD ST STE A, NEW YORK, NY, 10025","Match","Non_Exact","321 W 103RD ST, NEW YORK, NY, 10025",59656551,"R"
171542,"321 W BRIAR LN","GREEN BAY","WI",54301,44.4620904970001,-88.043637815,42,"321 W BRIAR LN, GREEN BAY, WI, 54301","Match","Exact","321 W BRIAR LN, GREEN BAY, WI, 54301",148101440,"L"
171543,"321 W BROADWAY ST","BUTTE","MT",59701,46.013313705,-112.540943562,43,"321 W BROADWAY ST, BUTTE, MT, 59701","Match","Exact","321 W BROADWAY ST, BUTTE, MT, 59701",153586466,"L"
171544,"321 W HARPER RD","PORTLAND","TN",37148,36.5674210940001,-86.5799780299999,44,"321 W HARPER RD, PORTLAND, TN, 37148","Match","Exact","321 W HARPER RD, PORTLAND, TN, 37148",645573926,"L"
171545,"321 W HOLLY AVE","PITMAN","NJ",8071,39.732073116,-75.1380827149999,45,"321 W HOLLY AVE, PITMAN, NJ, 8071","Match","Exact","321 W HOLLY AVE, PITMAN, NJ, 08071",134585745,"L"
171546,"321 W HWY 64","MCCRORY","AR",72101,35.2690399730001,-91.1923552169999,46,"321 W HWY 64, MCCRORY, AR, 72101","Match","Non_Exact","321 US HWY 64, MCCRORY, AR, 72101",632680895,"L"
171547,"321 W PENNSYLVANIA AVE","DELAND","FL",32720,29.039079412,-81.308410094,47,"321 W PENNSYLVANIA AVE, DELAND, FL, 32720","Match","Exact","321 W PENNSYLVANIA AVE, DELAND, FL, 32720",645072883,"L"
171548,"321 W WOODRUFF AVE","CRESTVIEW","FL",32536,30.7571758990001,-86.572103103,48,"321 W WOODRUFF AVE, CRESTVIEW, FL, 32536","Match","Non_Exact","321 WOODRUFF AVE W, CRESTVIEW, FL, 32536",74380116,"R"
171549,"321 WALNUT CT","WHITE HOUSE","TN",37188,36.473842441,-86.656191991,49,"321 WALNUT CT, WHITE HOUSE, TN, 37188","Match","Exact","321 WALNUT CT, WHITE HOUSE, TN, 37188",97441519,"L"
171550,"321 WALNUT STREET - UNIT 465","NEWTON","MA",2460,42.3502295770001,-71.2069435779999,50,"321 WALNUT STREET - UNIT 465, NEWTON, MA, 2460","Match","Exact","321 WALNUT ST, NEWTON, MA, 02460",86864165,"R"
171551,"321 WALNUT STREET","NEWTON","MA",2460,42.3502295770001,-71.2069435779999,51,"321 WALNUT STREET, NEWTON, MA, 2460","Match","Exact","321 WALNUT ST, NEWTON, MA, 02460",86864165,"R"
171552,"321 WALTON AVENUE","SOUTH ORANGE","NJ",7079,40.741909455,-74.268676354,52,"321 WALTON AVENUE, SOUTH ORANGE, NJ, 7079","Match","Exact","321 WALTON AVE, SOUTH ORANGE, NJ, 07079",63462398,"R"
171553,"321 WASHINGTON STREET","CANNELTON","IN",47520,37.911236477,-86.744222419,53,"321 WASHINGTON STREET, CANNELTON, IN, 47520","Match","Exact","321 WASHINGTON ST, CANNELTON, IN, 47520",7683917,"R"
171554,"321 WEST 13TH STREET SUITE 4","IDAHO FALLS","ID",83402,43.4862029610001,-112.036668797,54,"321 WEST 13TH STREET SUITE 4, IDAHO FALLS, ID, 83402","Match","Exact","321 W 13TH ST, IDAHO FALLS, ID, 83402",647339630,"L"
171555,"321 WEST BROADWAY ST STE 300","MISSOULA","MT",59802,46.8730742700001,-113.997304825,55,"321 WEST BROADWAY ST STE 300, MISSOULA, MT, 59802","Match","Exact","321 W BROADWAY ST, MISSOULA, MT, 59802",205238921,"L"
171556,"321 WEST BROADWAY SUITE 300","MISSOULA","MT",59802,46.8730742700001,-113.997304825,56,"321 WEST BROADWAY SUITE 300, MISSOULA, MT, 59802","Match","Non_Exact","321 W BROADWAY ST, MISSOULA, MT, 59802",205238921,"L"
171557,"321 WEST FOURT STREET","MCNABB","IL",61335,NA,NA,57,"321 WEST FOURT STREET, MCNABB, IL, 61335","No_Match",NA,NA,NA,NA
171558,"321 WEST JONES STREET","FUQUAY VARINA","NC",27526,35.587246846,-78.8038944,58,"321 WEST JONES STREET, FUQUAY VARINA, NC, 27526","Match","Exact","321 W JONES ST, FUQUAY VARINA, NC, 27526",72491273,"L"
171559,"321 WEST MCEVILLY ROAD","MINOOKA","IL",60447,NA,NA,59,"321 WEST MCEVILLY ROAD, MINOOKA, IL, 60447","No_Match",NA,NA,NA,NA
171560,"321 WHITTLESEY","FREMONT","OH",43420,41.3440244710001,-83.122459659,60,"321 WHITTLESEY, FREMONT, OH, 43420","Match","Non_Exact","321 WHITTLESEY ST, FREMONT, OH, 43420",38670225,"R"
171561,"321 WILBRAHAM ROAD  PO BOX 333","SPRINGFIELD","MA",1101,NA,NA,61,"321 WILBRAHAM ROAD  PO BOX 333, SPRINGFIELD, MA, 1101","No_Match",NA,NA,NA,NA
171562,"321 WILLOUGHBY WAY W","MINNETONKA","MN",55305,44.977268613,-93.41956672,62,"321 WILLOUGHBY WAY W, MINNETONKA, MN, 55305","Match","Exact","321 WILLOUGHBY WAY W, MINNETONKA, MN, 55305",43853406,"R"
171563,"321 WILLOW CREEK DR","GLENN HEIGHTS","TX",75154,32.5443523710001,-96.862121614,63,"321 WILLOW CREEK DR, GLENN HEIGHTS, TX, 75154","Match","Exact","321 WILLOW CREEK DR, GLENN HEIGHTS, TX, 75154",618051197,"R"
171564,"321 WINDING CANYON WAY","ALGONQUIN","IL",60102,42.1534600260001,-88.274419306,64,"321 WINDING CANYON WAY, ALGONQUIN, IL, 60102","Match","Exact","321 WINDING CANYON WAY, ALGONQUIN, IL, 60102",119561264,"R"
171565,"321 WINDSONG WAY","WOODSTOCK","GA",30188,34.0959678090001,-84.51790003,65,"321 WINDSONG WAY, WOODSTOCK, GA, 30188","Match","Exact","321 WINDSONG WAY, WOODSTOCK, GA, 30188",617674431,"R"
171566,"321 WINDWARD PASSAGE","SLIDELL","LA",70458,30.222788059,-89.792019889,66,"321 WINDWARD PASSAGE, SLIDELL, LA, 70458","Match","Exact","321 WINDWARD PSGE, SLIDELL, LA, 70458",611027456,"R"
171567,"321 WINGS POINT ROAD","CHARLOTTE","VT",5445,44.305445734,-73.300060167,67,"321 WINGS POINT ROAD, CHARLOTTE, VT, 5445","Match","Exact","321 WINGS POINT RD, CHARLOTTE, VT, 05445",135841134,"R"
171568,"321 WOODDALE AVE","NEW CASTLE","DE",19720,39.64406925,-75.615692939,68,"321 WOODDALE AVE, NEW CASTLE, DE, 19720","Match","Non_Exact","321 WOODALE AVE, NEW CASTLE, DE, 19720",187283627,"L"
171569,"321 YALE AVE SUITE D","STRATFORD","NJ",8021,NA,NA,69,"321 YALE AVE SUITE D, STRATFORD, NJ, 8021","No_Match",NA,NA,NA,NA
171570,"321 YALE AVE","STRATFORD","NJ",8084,39.8351173400001,-75.009516143,70,"321 YALE AVE, STRATFORD, NJ, 8084","Match","Exact","321 YALE AVE, STRATFORD, NJ, 08084",134357298,"L"
171571,"321","EAST BARRE","VT",5649,NA,NA,71,"321, EAST BARRE, VT, 5649","No_Match",NA,NA,NA,NA
171572,"321","MARTINEZ","CA",94553,NA,NA,72,"321, MARTINEZ, CA, 94553","No_Match",NA,NA,NA,NA
171573,"3210 105TH ST SE","STEWARTVILLE","MN",55976,43.869894769,-92.418727912,73,"3210 105TH ST SE, STEWARTVILLE, MN, 55976","Match","Exact","3210 105TH ST SE, STEWARTVILLE, MN, 55976",612131355,"L"
171574,"3210 49TH ST","DES MOINES","IA",50310,41.6244378920001,-93.685257814,74,"3210 49TH ST, DES MOINES, IA, 50310","Match","Exact","3210 49TH ST, DES MOINES, IA, 50310",65779110,"L"
171575,"3210 4TH AVENUE","CHATTANOOGA","TN",37407,35.0062461050001,-85.285873913,75,"3210 4TH AVENUE, CHATTANOOGA, TN, 37407","Match","Exact","3210 4TH AVE, CHATTANOOGA, TN, 37407",59313475,"L"
171576,"3210 ALBERTA ST","MUNHALL","PA",15120,40.38834136,-79.903881234,76,"3210 ALBERTA ST, MUNHALL, PA, 15120","Match","Exact","3210 ALBERTA ST, MUNHALL, PA, 15120",51655127,"R"
171577,"3210 AVE H APT 6C","BROOKLYN","NY",11210,40.6317840250001,-73.945449534,77,"3210 AVE H APT 6C, BROOKLYN, NY, 11210","Match","Exact","3210 AVE H, BROOKLYN, NY, 11210",59082008,"R"
171578,"3210 AVON LN","BRADENTON","FM",34205,NA,NA,78,"3210 AVON LN, BRADENTON, FM, 34205","No_Match",NA,NA,NA,NA
171579,"3210 BOONES LANE","ELLICOTT CITY","MD",21042,39.2827438460001,-76.8679306289999,79,"3210 BOONES LANE, ELLICOTT CITY, MD, 21042","Match","Exact","3210 BOONES LN, ELLICOTT CITY, MD, 21042",619761288,"R"
171580,"3210 BRYANT AVE N","MINNEAPOLIS","MN",55412,45.013419496,-93.290525541,80,"3210 BRYANT AVE N, MINNEAPOLIS, MN, 55412","Match","Exact","3210 BRYANT AVE N, MINNEAPOLIS, MN, 55412",43622489,"R"
171581,"3210 CHASKA BLVD","CHASKA","MN",55318,44.7892057980001,-93.602151371,81,"3210 CHASKA BLVD, CHASKA, MN, 55318","Match","Exact","3210 CHASKA BLVD, CHASKA, MN, 55318",43493626,"L"
171582,"3210 CLAMOOR DR","WINSTON SALEM","NC",27127,36.010553202,-80.294193471,82,"3210 CLAMOOR DR, WINSTON SALEM, NC, 27127","Match","Exact","3210 CLAMOOR DR, WINSTON SALEM, NC, 27127",84639188,"R"
171583,"3210 COHOCTON AVE","POINT PLEASANT","NJ",8742,40.076517209,-74.08744718,83,"3210 COHOCTON AVE, POINT PLEASANT, NJ, 8742","Match","Exact","3210 COHOCTON AVE, PT PLEASANT, NJ, 08742",203745260,"R"
171584,"3210 COUNTY ROAD BB","DODGEVILLE","WI",53533,NA,NA,84,"3210 COUNTY ROAD BB, DODGEVILLE, WI, 53533","No_Match",NA,NA,NA,NA
171585,"3210 CREEK RIDGE RD","GREENSBORO","NC",27406,36.025445566,-79.833955644,85,"3210 CREEK RIDGE RD, GREENSBORO, NC, 27406","Match","Exact","3210 CREEK RIDGE RD, GREENSBORO, NC, 27406",131064582,"R"
171586,"3210 CREEKSTONE DRIVE","SUGAR LAND","TX",77479,29.568105055,-95.6317074949999,86,"3210 CREEKSTONE DRIVE, SUGAR LAND, TX, 77479","Match","Exact","3210 CREEKSTONE DR, SUGAR LAND, TX, 77479",78288425,"R"
171587,"3210 DAWLEY AVE","ORLANDO","FL",32807,28.5066918910001,-81.3454094969999,87,"3210 DAWLEY AVE, ORLANDO, FL, 32807","Match","Non_Exact","3210 DAWLEY AVE, ORLANDO, FL, 32806",94287348,"R"
171588,"3210 DEER TRAIL","BRYAN","TX",77807,30.617056538,-96.379650655,88,"3210 DEER TRAIL, BRYAN, TX, 77807","Match","Exact","3210 DEER TRL, BRYAN, TX, 77807",625308671,"L"
171589,"3210 DRURY LANE","LOS ANGELES","CA",90039,34.0992172210001,-118.271155925,89,"3210 DRURY LANE, LOS ANGELES, CA, 90039","Match","Exact","3210 DRURY LN, LOS ANGELES, CA, 90039",141610556,"R"
171590,"3210 DURHAM ROAD WILDLIFE CENTER","GUILFORD","CT",6437,41.374771857,-72.711890726,90,"3210 DURHAM ROAD WILDLIFE CENTER, GUILFORD, CT, 6437","Match","Exact","3210 DURHAM RD, GUILFORD, CT, 06437",3746168,"L"
171591,"3210 E NISBET ROAD","PHOENIX","AZ",85032,33.622633018,-112.012943465,91,"3210 E NISBET ROAD, PHOENIX, AZ, 85032","Match","Exact","3210 E NISBET RD, PHOENIX, AZ, 85032",128603821,"L"
171592,"3210 E REICHERT DRIVE","CHICAGO","IL",60417,41.4161743060001,-87.52879934,92,"3210 E REICHERT DRIVE, CHICAGO, IL, 60417","Match","Non_Exact","3210 E REICHERT DR, CRETE, IL, 60417",111562037,"R"
171593,"3210 EAST 10TH STREET NUM 8513","BLOOMINGTON","IN",47408,39.171460532,-86.495287016,93,"3210 EAST 10TH STREET NUM 8513, BLOOMINGTON, IN, 47408","Match","Exact","3210 E 10TH ST, BLOOMINGTON, IN, 47408",42323682,"R"
171594,"3210 FOX RUN RD","ALLISON PARK","PA",15101,40.564730947,-79.9287485089999,94,"3210 FOX RUN RD, ALLISON PARK, PA, 15101","Match","Exact","3210 FOX RUN RD, ALLISON PARK, PA, 15101",51609060,"R"
171595,"3210 GAMEWELL SCHOOL RD","LENOIR","NC",28645,35.872421783,-81.6005533049999,95,"3210 GAMEWELL SCHOOL RD, LENOIR, NC, 28645","Match","Exact","3210 GAMEWELL SCHOOL RD, LENOIR, NC, 28645",45847201,"R"
171596,"3210 GETWELL RD","SOUTHAVEN","MS",38672,34.90633347,-89.9368861849999,96,"3210 GETWELL RD, SOUTHAVEN, MS, 38672","Match","Exact","3210 GETWELL RD, SOUTHAVEN, MS, 38672",627907901,"L"
171597,"3210 HOMER ADKINS BLVD","JACKSONVILLE","AR",72076,34.838095325,-92.133801811,97,"3210 HOMER ADKINS BLVD, JACKSONVILLE, AR, 72076","Match","Exact","3210 HOMER ADKINS BLVD, JACKSONVILLE, AR, 72076",624536783,"L"
171598,"3210 JOHNS PLACE","PALM SPRNGS","FL",33461,26.6338877470001,-80.1028768319999,98,"3210 JOHNS PLACE, PALM SPRNGS, FL, 33461","Match","Exact","3210 JOHNS PL, PALM SPRINGS, FL, 33461",650315720,"L"
171599,"3210 MAPLE DRIVE","PLOVER","WI",54467,44.4500230420001,-89.553794779,99,"3210 MAPLE DRIVE, PLOVER, WI, 54467","Match","Exact","3210 MAPLE DR, PLOVER, WI, 54467",126810005,"L"
171600,"3210 MICHIGAN AVE 2ND FL","KANSAS CITY","MO",64109,39.0677098580001,-94.561051157,100,"3210 MICHIGAN AVE 2ND FL, KANSAS CITY, MO, 64109","Match","Exact","3210 MICHIGAN AVE, KANSAS CITY, MO, 64109",641543050,"R"
171601,"3210 N HERITAGE WAY","LAS VEGAS","NV",89121,36.142105455,-115.105222224,101,"3210 N HERITAGE WAY, LAS VEGAS, NV, 89121","Match","Exact","3210 N HERITAGE WAY, LAS VEGAS, NV, 89121",201871659,"L"
171602,"3210 N MARYLAND AVE BOLTON HALL 180","MILWAUKEE","WI",53211,43.0763011180001,-87.8828549689999,102,"3210 N MARYLAND AVE BOLTON HALL 180, MILWAUKEE, WI, 53211","Match","Non_Exact","3210 N MARYLAND AVE, MILWAUKEE, WI, 53211",77744057,"R"
171603,"3210 NE 44TH AVE","DES MOINES","IA",50317,41.6405047580001,-93.554756853,103,"3210 NE 44TH AVE, DES MOINES, IA, 50317","Match","Exact","3210 NE 44TH AVE, DES MOINES, IA, 50317",65788312,"L"
171604,"3210 NORBECK ROAD APT 313","SILVER SPRING","MD",20906,39.1124431170001,-77.0649331449999,104,"3210 NORBECK ROAD APT 313, SILVER SPRING, MD, 20906","Match","Exact","3210 NORBECK RD, SILVER SPRING, MD, 20906",650689289,"L"
171605,"3210 NORTH ROOSEVELT ST","PENSACOLA","FL",32503,30.4468698910001,-87.220082382,105,"3210 NORTH ROOSEVELT ST, PENSACOLA, FL, 32503","Match","Exact","3210 N ROOSEVELT ST, PENSACOLA, FL, 32503",636361845,"R"
171606,"3210 NORTHWEST GRAND AVENUE","PHOENIX","AZ",85017,33.489841895,-112.128171633,106,"3210 NORTHWEST GRAND AVENUE, PHOENIX, AZ, 85017","Match","Non_Exact","3210 GRAND AVE, PHOENIX, AZ, 85017",636813825,"L"
171607,"3210 NW 94TH WAYY","SUNRISE","FL",33351,NA,NA,107,"3210 NW 94TH WAYY, SUNRISE, FL, 33351","No_Match",NA,NA,NA,NA
171608,"3210 OLD HERNANDO ROAD","MEMPHIS","TN",38116,35.0616378550001,-90.024640927,108,"3210 OLD HERNANDO ROAD, MEMPHIS, TN, 38116","Match","Exact","3210 OLD HERNANDO RD, MEMPHIS, TN, 38116",638186726,"L"
171609,"3210 ORLEANS DRIVE UNIT 7","NASHVILLE","TN",37212,36.140069763,-86.8155407789999,109,"3210 ORLEANS DRIVE UNIT 7, NASHVILLE, TN, 37212","Match","Exact","3210 ORLEANS DR, NASHVILLE, TN, 37212",606383632,"R"
171610,"3210 PALANO AVE","EVANS","CO",80620,40.384523691,-104.748550377,110,"3210 PALANO AVE, EVANS, CO, 80620","Match","Exact","3210 PALANO AVE, EVANS, CO, 80620",188728262,"L"
171611,"3210 PARKER LANE","CHATTANOOGA","TN",37419,35.0261627400001,-85.365137631,111,"3210 PARKER LANE, CHATTANOOGA, TN, 37419","Match","Exact","3210 PARKER LN, CHATTANOOGA, TN, 37419",59302260,"L"
171612,"3210 POE CV UNIT B","LAGO VISTA","TX",78645,30.434142367,-98.016030508,112,"3210 POE CV UNIT B, LAGO VISTA, TX, 78645","Match","Exact","3210 POE COVE, LAGO VISTA, TX, 78645",63919782,"R"
171613,"3210 REYNOLDS ST","LAKELAND","FL",33803,28.0057457290001,-81.8912018939999,113,"3210 REYNOLDS ST, LAKELAND, FL, 33803","Match","Non_Exact","3210 REYNOLDS RD, LAKELAND, FL, 33803",104969777,"L"
171614,"3210 S MCKENZIE ST","FOLEY","AL",36535,30.367044654,-87.683298919,114,"3210 S MCKENZIE ST, FOLEY, AL, 36535","Match","Exact","3210 S MCKENZIE ST, FOLEY, AL, 36535",131713599,"L"
171615,"3210 SANTA FE TRAIL","MARIETTA","GA",30060,33.8749038460001,-84.58094987,115,"3210 SANTA FE TRAIL, MARIETTA, GA, 30060","Match","Exact","3210 SANTA FE TRL, MARIETTA, GA, 30060",17179299,"R"
171616,"3210 SCENIC WOODS DRIVE","DELTONA","FL",32725,28.9498851440001,-81.245677186,116,"3210 SCENIC WOODS DRIVE, DELTONA, FL, 32725","Match","Exact","3210 SCENIC WOODS DR, DELTONA, FL, 32725",94556738,"L"
171617,"3210 SCOUT ISLAND","KATY","TX",77494,NA,NA,117,"3210 SCOUT ISLAND, KATY, TX, 77494","No_Match",NA,NA,NA,NA
171618,"3210 SENECA TURNPIKE","CANASTOTA","NY",13032,43.0681095400001,-75.764435115,118,"3210 SENECA TURNPIKE, CANASTOTA, NY, 13032","Match","Exact","3210 SENECA TPKE, CANASTOTA, NY, 13032",46524136,"R"
171619,"3210 SEREIN MEADOWS DRIVE","SPRING","TX",77386,30.133289813,-95.3931564109999,119,"3210 SEREIN MEADOWS DRIVE, SPRING, TX, 77386","Match","Exact","3210 SEREIN MEADOWS DR, SPRING, TX, 77386",627735387,"R"
171620,"3210 SOUTH GILPIN STREET","ENGLEWOOD","CO",80113,39.6583071800001,-104.967624918,120,"3210 SOUTH GILPIN STREET, ENGLEWOOD, CO, 80113","Match","Exact","3210 S GILPIN ST, ENGLEWOOD, CO, 80113",177334212,"L"
171621,"3210 SUMMERFIELD DRIVE","INDIANAPOLIS","IN",46214,39.8130479550001,-86.284037994,121,"3210 SUMMERFIELD DRIVE, INDIANAPOLIS, IN, 46214","Match","Exact","3210 SUMMERFIELD DR, INDIANAPOLIS, IN, 46214",108035381,"L"
171622,"3210 SW 29TH STREET","ANKENY","IA",50023,41.702264902,-93.6420293849999,122,"3210 SW 29TH STREET, ANKENY, IA, 50023","Match","Exact","3210 SW 29TH ST, ANKENY, IA, 50023",640793057,"R"
171623,"3210 SW TIMBERLAKE LANE","TOPEKA","KS",66614,39.009535467,-95.754628727,123,"3210 SW TIMBERLAKE LANE, TOPEKA, KS, 66614","Match","Exact","3210 SW TIMBERLAKE LN, TOPEKA, KS, 66614",17885264,"L"
171624,"3210 SWETZER RD","LOOMIS","CA",95650,38.8352463690001,-121.191764007,124,"3210 SWETZER RD, LOOMIS, CA, 95650","Match","Exact","3210 SWETZER RD, LOOMIS, CA, 95650",106769109,"L"
171625,"3210 UPPER WYNNEWOOD PLACE","OAK HILL","VA",20171,38.8969847970001,-77.37000169,125,"3210 UPPER WYNNEWOOD PLACE, OAK HILL, VA, 20171","Match","Exact","3210 UPPER WYNNEWOOD PL, OAK HILL, VA, 20171",76024131,"R"
171626,"3210 W SAINT CATHERINE AVE","PHOENIX","AZ",85041,33.3877859630001,-112.126895848,126,"3210 W SAINT CATHERINE AVE, PHOENIX, AZ, 85041","Match","Exact","3210 W SAINT CATHERINE AVE, PHOENIX, AZ, 85041",244022219,"L"
171627,"3210 W WESTVIEW AVE","SPOKANE","WA",99208,47.7462509000001,-117.457341709,127,"3210 W WESTVIEW AVE, SPOKANE, WA, 99208","Match","Exact","3210 W WESTVIEW AVE, SPOKANE, WA, 99208",652154049,"R"
171628,"3210 WEST ADAMS BLVD  102","LOS ANGELES","CA",90018,34.0326340330001,-118.31898803,128,"3210 WEST ADAMS BLVD  102, LOS ANGELES, CA, 90018","Match","Exact","3210 W ADAMS BLVD, LOS ANGELES, CA, 90018",141605704,"L"
171629,"3210 WEST ADAMS BLVD 102","LOS ANGELES","CA",90018,34.0326340330001,-118.31898803,129,"3210 WEST ADAMS BLVD 102, LOS ANGELES, CA, 90018","Match","Exact","3210 W ADAMS BLVD, LOS ANGELES, CA, 90018",141605704,"L"
171630,"3210 WIMBERLY","AMARILLO","TX",79109,35.1796432890001,-101.864173339,130,"3210 WIMBERLY, AMARILLO, TX, 79109","Match","Non_Exact","3210 WIMBERLY RD, AMARILLO, TX, 79109",182654309,"R"
171631,"32100 TELEGRAPH RD","BINGHAM FARMS","MI",48025,NA,NA,131,"32100 TELEGRAPH RD, BINGHAM FARMS, MI, 48025","No_Match",NA,NA,NA,NA
171632,"32104 NARNIA LN","AVON","MN",56310,45.5871816850001,-94.47629255,132,"32104 NARNIA LN, AVON, MN, 56310","Match","Exact","32104 NARNIA LN, AVON, MN, 56310",107424846,"R"
171633,"32108 ALVARADO BLVD APT 123","UNION CITY","CA",94587,NA,NA,133,"32108 ALVARADO BLVD APT 123, UNION CITY, CA, 94587","No_Match",NA,NA,NA,NA
171634,"32108 ALVARADO BLVD","UNION CITY","CA",94587,NA,NA,134,"32108 ALVARADO BLVD, UNION CITY, CA, 94587","No_Match",NA,NA,NA,NA
171635,"32108 SHOREWOOD ROAD","GALENA","MD",32108,39.356870857,-75.85019642,135,"32108 SHOREWOOD ROAD, GALENA, MD, 32108","Match","Non_Exact","32108 SHOREWOOD RD, GALENA, MD, 21635",68347616,"R"
171636,"3211 53RD STREET E","PALMETTO","FL",34221,27.561487379,-82.53135675,136,"3211 53RD STREET E, PALMETTO, FL, 34221","Match","Exact","3211 53RD ST E, PALMETTO, FL, 34221",624970305,"R"
171637,"3211 6TH AVENUE SOUTH","SAINT PETERSBURG","FL",33712,27.764969749,-82.6769004609999,137,"3211 6TH AVENUE SOUTH, SAINT PETERSBURG, FL, 33712","Match","Exact","3211 6TH AVE S, SAINT PETERSBURG, FL, 33712",124705536,"R"
171638,"3211 BELL RD NE","MOSES LAKE","WA",98837,47.1343983250001,-119.238256111,138,"3211 BELL RD NE, MOSES LAKE, WA, 98837","Match","Exact","3211 BELL RD NE, MOSES LAKE, WA, 98837",157091202,"L"
171639,"3211 BELL ROAD NE","MOSES LAKE","WA",98837,47.1343983250001,-119.238256111,139,"3211 BELL ROAD NE, MOSES LAKE, WA, 98837","Match","Exact","3211 BELL RD NE, MOSES LAKE, WA, 98837",157091202,"L"
171640,"3211 BROECK POINTE CIRCLE","LOUISVILLE","KY",40241,38.2968773160001,-85.5851902269999,140,"3211 BROECK POINTE CIRCLE, LOUISVILLE, KY, 40241","Match","Exact","3211 BROECK POINTE CIR, LOUISVILLE, KY, 40241",640121185,"R"
171641,"3211 BRYD DRIVE","INDIANAPOLIS","IN",46227,NA,NA,141,"3211 BRYD DRIVE, INDIANAPOLIS, IN, 46227","No_Match",NA,NA,NA,NA
171642,"3211 CARLISLE AVE","BALTIMORE","MD",21216,39.318698322,-76.6711322949999,142,"3211 CARLISLE AVE, BALTIMORE, MD, 21216","Match","Exact","3211 CARLISLE AVE, BALTIMORE, MD, 21216",206413191,"L"
171643,"3211 CHALMERS DRIVE","WILMINGTON","NC",28409,34.1892786560001,-77.888384624,143,"3211 CHALMERS DRIVE, WILMINGTON, NC, 28409","Match","Exact","3211 CHALMERS DR, WILMINGTON, NC, 28409",152735700,"L"
171644,"3211 CHAMBERLAYNE DRIVE SUITE 102","RICHMOND","VI",23227,NA,NA,144,"3211 CHAMBERLAYNE DRIVE SUITE 102, RICHMOND, VI, 23227","No_Match",NA,NA,NA,NA
171645,"3211 CHAPEL CREEK WAY","MISSOURI CITY","TX",77459,29.494042721,-95.506261587,145,"3211 CHAPEL CREEK WAY, MISSOURI CITY, TX, 77459","Match","Exact","3211 CHAPEL CREEK WAY, MISSOURI CITY, TX, 77459",635247507,"R"
171646,"3211 CLEVELAND ST","PARIS","TX",75460,33.6579316720001,-95.517196858,146,"3211 CLEVELAND ST, PARIS, TX, 75460","Match","Exact","3211 CLEVELAND ST, PARIS, TX, 75460",63574890,"R"
171647,"3211 CORNELL AVE","BIG SPRING","TX",79720,32.253664891,-101.439587238,147,"3211 CORNELL AVE, BIG SPRING, TX, 79720","Match","Exact","3211 CORNELL AVE, BIG SPRING, TX, 79720",182873153,"L"
171648,"3211 CYPRESS RIDGE DRIVE","EADS","TN",38028,35.212355465,-89.6417766009999,148,"3211 CYPRESS RIDGE DRIVE, EADS, TN, 38028","Match","Exact","3211 CYPRESS RIDGE DR, EADS, TN, 38028",653779538,"R"
171649,"3211 DONNIE ANN RD","LOS ALAMITOS","CA",90720,33.8009768920001,-118.077194584,149,"3211 DONNIE ANN RD, LOS ALAMITOS, CA, 90720","Match","Exact","3211 DONNIE ANN RD, LOS ALAMITOS, CA, 90720",143997514,"L"
171650,"3211 ELMRIDGE DR","EVANSVILLE","IN",47711,38.0154496170001,-87.510264799,150,"3211 ELMRIDGE DR, EVANSVILLE, IN, 47711","Match","Exact","3211 ELMRIDGE DR, EVANSVILLE, IN, 47711",636636044,"R"
171651,"3211 ELMRIDGE","EVANSVILLE","IN",47711,38.0154496170001,-87.510264799,151,"3211 ELMRIDGE, EVANSVILLE, IN, 47711","Match","Non_Exact","3211 ELMRIDGE DR, EVANSVILLE, IN, 47711",636636044,"R"
171652,"3211 EVANS WAY","TWINSBURG","OH",44087,41.320666368,-81.422244415,152,"3211 EVANS WAY, TWINSBURG, OH, 44087","Match","Exact","3211 EVANS WAY, TWINSBURG, OH, 44087",637675259,"L"
171653,"3211 EVERETT STREET","SAND SPRINGS","OK",74063,36.1169235470001,-96.1219116619999,153,"3211 EVERETT STREET, SAND SPRINGS, OK, 74063","Match","Exact","3211 EVERETT ST, SAND SPRINGS, OK, 74063",166431944,"L"
171654,"3211 FALL CREEKWAY EAST","INDIANAPOLIS","IN",46205,39.83786745,-86.113252353,154,"3211 FALL CREEKWAY EAST, INDIANAPOLIS, IN, 46205","Match","Non_Exact","3211 FALL CREEKWAY E DR, INDIANAPOLIS, IN, 46205",635522441,"R"
171655,"3211 FOREST ROAD","DAVENPORT","IA",52807,41.553243862,-90.535175295,155,"3211 FOREST ROAD, DAVENPORT, IA, 52807","Match","Exact","3211 FOREST RD, DAVENPORT, IA, 52807",122709200,"R"
171656,"3211 GREENBRIAR DR","BETTENDORF","IA",52722,41.555241208,-90.507738596,156,"3211 GREENBRIAR DR, BETTENDORF, IA, 52722","Match","Non_Exact","3211 GREENBRIER DR, BETTENDORF, IA, 52722",122711166,"R"
171657,"3211 HARMONY CHURDCH RD","GAINESVILLE","GA",30507,NA,NA,157,"3211 HARMONY CHURDCH RD, GAINESVILLE, GA, 30507","No_Match",NA,NA,NA,NA
171658,"3211 HARNESS LANE","GRAYSLAKE","IL",60030,42.3165076990001,-88.064531243,158,"3211 HARNESS LANE, GRAYSLAKE, IL, 60030","Match","Exact","3211 HARNESS LN, GRAYSLAKE, IL, 60030",119726885,"L"
171659,"3211 JACKSON BOULEVARD","FORT LAUDERDALE","FL",33312,26.1071357330001,-80.188037434,159,"3211 JACKSON BOULEVARD, FORT LAUDERDALE, FL, 33312","Match","Exact","3211 JACKSON BLVD, FORT LAUDERDALE, FL, 33312",114763580,"R"
171660,"3211 JOPPA CT","ROCKINGHAM","VA",22801,38.4086750970001,-78.912738652,160,"3211 JOPPA CT, ROCKINGHAM, VA, 22801","Match","Exact","3211 JOPPA CT, ROCKINGHAM, VA, 22801",633873386,"R"
171661,"3211 KNIGHTS ROAD","BENSALEM","PA",19020,40.109260293,-74.9461881939999,161,"3211 KNIGHTS ROAD, BENSALEM, PA, 19020","Match","Exact","3211 KNIGHTS RD, BENSALEM, PA, 19020",134736865,"R"
171662,"3211 LAKE RIDGE LANE","WESTON","FL",33332,26.0778808530001,-80.401136217,162,"3211 LAKE RIDGE LANE, WESTON, FL, 33332","Match","Exact","3211 LAKE RIDGE LN, WESTON, FL, 33332",114818364,"L"
171663,"3211 LETTIE ST","AMES","IA",50014,42.0215148980001,-93.6601293159999,163,"3211 LETTIE ST, AMES, IA, 50014","Match","Exact","3211 LETTIE ST, AMES, IA, 50014",65945843,"R"
171664,"3211 LUBBOCK DRIVE","HOPE MILLS","NC",28348,34.998921753,-78.9267081629999,164,"3211 LUBBOCK DRIVE, HOPE MILLS, NC, 28348","Match","Exact","3211 LUBBOCK DR, HOPE MILLS, NC, 28348",64238419,"R"
171665,"3211 MOON BEAM CT","SNELLVILLE","GA",30039,33.8087577850001,-84.05730941,165,"3211 MOON BEAM CT, SNELLVILLE, GA, 30039","Match","Exact","3211 MOON BEAM CT, SNELLVILLE, GA, 30039",628083216,"L"
171666,"3211 MULBERRY AVENUE","MUSCATINE","IA",52761,41.444162588,-91.072533573,166,"3211 MULBERRY AVENUE, MUSCATINE, IA, 52761","Match","Exact","3211 MULBERRY AVE, MUSCATINE, IA, 52761",640630223,"R"
171667,"3211 N BLUE HERON CIRCLE","CUMMING","IA",50061,41.4853409180001,-93.747388284,167,"3211 N BLUE HERON CIRCLE, CUMMING, IA, 50061","Match","Exact","3211 N BLUE HERON CIR, CUMMING, IA, 50061",83774504,"L"
171668,"3211 NE 58TH ST","VANCOUVER","WA",98663,45.664157765,-122.63801941,168,"3211 NE 58TH ST, VANCOUVER, WA, 98663","Match","Exact","3211 NE 58TH ST, VANCOUVER, WA, 98663",158369641,"R"
171669,"3211 OLIVE ST","DENVER","CO",80207,39.762284751,-104.906956972,169,"3211 OLIVE ST, DENVER, CO, 80207","Match","Exact","3211 OLIVE ST, DENVER, CO, 80207",177313140,"L"
171670,"3211 PARK AVE 4Q","BRONX","NY",10451,40.825160189,-73.916369645,170,"3211 PARK AVE 4Q, BRONX, NY, 10451","Match","Exact","3211 PARK AVE, BRONX, NY, 10451",80300493,"L"
171671,"3211 PAYSON RD","QUINCY","IL",62305,39.897265535,-91.3645786609999,171,"3211 PAYSON RD, QUINCY, IL, 62305","Match","Exact","3211 PAYSON RD, QUINCY, IL, 62305",35066817,"R"
171672,"3211 PENNSYLVANIA AVE SE","WASHINGTON","DC",20020,38.8691640320001,-76.960083115,172,"3211 PENNSYLVANIA AVE SE, WASHINGTON, DC, 20020","Match","Exact","3211 PENNSYLVANIA AVE SE, WASHINGTON, DC, 20020",76232055,"R"
171673,"3211 PONCE DE LEON BLVD STE 200","CORAL GABLES","FL",33134,25.7424640830001,-80.258350761,173,"3211 PONCE DE LEON BLVD STE 200, CORAL GABLES, FL, 33134","Match","Exact","3211 PONCE DE LEON BLVD, CORAL GABLES, FL, 33134",116013103,"L"
171674,"3211 PONCE DE LEON BLVD STE M-2","CORAL GABLES","FL",33134,25.7424640830001,-80.258350761,174,"3211 PONCE DE LEON BLVD STE M-2, CORAL GABLES, FL, 33134","Match","Exact","3211 PONCE DE LEON BLVD, CORAL GABLES, FL, 33134",116013103,"L"
171675,"3211 PRYTANIA STREET UNIT 1","NEW ORLEANS","LA",70115,29.927651886,-90.0888331309999,175,"3211 PRYTANIA STREET UNIT 1, NEW ORLEANS, LA, 70115","Match","Exact","3211 PRYTANIA ST, NEW ORLEANS, LA, 70115",191712762,"R"
171676,"3211 S CHERRY STREET","DENVER","CO",80222,39.657965919,-104.933983331,176,"3211 S CHERRY STREET, DENVER, CO, 80222","Match","Exact","3211 S CHERRY ST, DENVER, CO, 80222",177341498,"R"
171677,"3211 S LAKE DRIVE  SUITE 113","ST FRANCIS","WI",53235,42.985354548,-87.86885635,177,"3211 S LAKE DRIVE  SUITE 113, ST FRANCIS, WI, 53235","Match","Non_Exact","3211 S LAKE DR, SAINT FRANCIS, WI, 53235",646186693,"R"
171678,"3211 SABINE POINT WAY","MISSOURI CITY","TX",77459,29.4930812640001,-95.51655442,178,"3211 SABINE POINT WAY, MISSOURI CITY, TX, 77459","Match","Exact","3211 SABINE POINT WAY, MISSOURI CITY, TX, 77459",647983447,"R"
171679,"3211 SANCHEZ ST","TAMPA","FL",33605,27.9727916910001,-82.442220774,179,"3211 SANCHEZ ST, TAMPA, FL, 33605","Match","Exact","3211 SANCHEZ ST, TAMPA, FL, 33605",104629083,"R"
171680,"3211 SEAMAN RD","GROVE CITY","OH",43123,39.879705948,-83.244402343,180,"3211 SEAMAN RD, GROVE CITY, OH, 43123","Match","Exact","3211 SEAMAN RD, GROVE CITY, OH, 43123",218640982,"R"
171681,"3211 SHANNON ROAD / SUITE 620","DURHAM","NC",27707,35.9640571310001,-78.955930001,181,"3211 SHANNON ROAD / SUITE 620, DURHAM, NC, 27707","Match","Exact","3211 SHANNON RD, DURHAM, NC, 27707",614175074,"L"
171682,"3211 SILVER SPRINGS DRIVE  UNIT 71","LOUISVILLE","KY",40220,38.200539189,-85.609872235,182,"3211 SILVER SPRINGS DRIVE  UNIT 71, LOUISVILLE, KY, 40220","Match","Exact","3211 SILVER SPRINGS DR, LOUISVILLE, KY, 40220",96884067,"L"
171683,"3211 SMOKY RIDGE","AUSTIN","TX",78730,30.336846532,-97.82162256,183,"3211 SMOKY RIDGE, AUSTIN, TX, 78730","Match","Exact","3211 SMOKY RIDGE, AUSTIN, TX, 78730",63964381,"R"
171684,"3211 STEVENS MILL RD","MATTHEWS","NC",28104,35.1081795310001,-80.6698641679999,184,"3211 STEVENS MILL RD, MATTHEWS, NC, 28104","Match","Exact","3211 STEVENS MILL RD, MATTHEWS, NC, 28104",642589794,"L"
171685,"3211 SUSAN DRIVE","SAN BRUNO","CA",94066,37.634650127,-122.4585629,185,"3211 SUSAN DRIVE, SAN BRUNO, CA, 94066","Match","Exact","3211 SUSAN DR, SAN BRUNO, CA, 94066",192371430,"L"
171686,"3211 W 125TH ST N","SEDGWICK","KS",67135,37.9122036460001,-97.380290286,186,"3211 W 125TH ST N, SEDGWICK, KS, 67135","Match","Exact","3211 W 125TH ST N, SEDGWICK, KS, 67135",115689064,"L"
171687,"3211 W COLUMBUS DR","TAMPA","FL",33607,27.9667428060001,-82.496062122,187,"3211 W COLUMBUS DR, TAMPA, FL, 33607","Match","Exact","3211 W COLUMBUS DR, TAMPA, FL, 33607",104646606,"R"
171688,"3211 WIGWAM WAY","WELLINGTON","CO",80549,40.713200853,-105.016870591,188,"3211 WIGWAM WAY, WELLINGTON, CO, 80549","Match","Exact","3211 WIGWAM WAY, WELLINGTON, CO, 80549",624242652,"L"
171689,"32111 FALL RIVER ROAD","TRABUCO CANYON","CA",92679,33.656831013,-117.571779593,189,"32111 FALL RIVER ROAD, TRABUCO CANYON, CA, 92679","Match","Exact","32111 FALL RIVER RD, TRABUCO CANYON, CA, 92679",609042220,"L"
171690,"32111 GROVE PARK DR","WALLER","TX",77484,30.0244797350001,-95.9285341459999,190,"32111 GROVE PARK DR, WALLER, TX, 77484","Match","Non_Exact","32111 GROVE PARK RD, WALLER, TX, 77484",78361778,"R"
171691,"32111 TRILBY ROAD","DADE CITY","FL",33523,28.4207250790001,-82.244994516,191,"32111 TRILBY ROAD, DADE CITY, FL, 33523","Match","Exact","32111 TRILBY RD, DADE CITY, FL, 33523",86396917,"L"
171692,"32115 GRANITE DR","TEMECULA","CA",92592,33.454396763,-117.098160819,192,"32115 GRANITE DR, TEMECULA, CA, 92592","Match","Exact","32115 GRANITE DR, TEMECULA, CA, 92592",618701326,"L"
171693,"321181","DETROIT","MI",48232,NA,NA,193,"321181, DETROIT, MI, 48232","No_Match",NA,NA,NA,NA
171694,"3212 AMBER TRAIL","DULUTH","GA",30096,33.94961146,-84.103202169,194,"3212 AMBER TRAIL, DULUTH, GA, 30096","Match","Exact","3212 AMBER TRL, DULUTH, GA, 30096",88932549,"R"
171695,"3212 ARAPAHOE PL W","SEATTLE","WA",98199,47.648782775,-122.408906604,195,"3212 ARAPAHOE PL W, SEATTLE, WA, 98199","Match","Exact","3212 ARAPAHOE PL W, SEATTLE, WA, 98199",186659102,"R"
171696,"3212 BUCKINGHAM LN","COCOA","FL",32926,28.402094635,-80.748251721,196,"3212 BUCKINGHAM LN, COCOA, FL, 32926","Match","Exact","3212 BUCKINGHAM LN, COCOA, FL, 32926",93892647,"R"
171697,"3212 Carriage Trail","Hillsborough","NC",27278,36.0444419730001,-79.055158534,197,"3212 Carriage Trail, Hillsborough, NC, 27278","Match","Exact","3212 CARRIAGE TRL, HILLSBOROUGH, NC, 27278",72410504,"R"
171698,"3212 CHARLES ST","OMAHA","NE",68131,41.2728470050001,-95.960022506,198,"3212 CHARLES ST, OMAHA, NE, 68131","Match","Exact","3212 CHARLES ST, OMAHA, NE, 68131",116980408,"R"
171699,"3212 COLONY CLUB RD APT 4","POMPANO BEACH","FL",33062,26.2406233520001,-80.08968419,199,"3212 COLONY CLUB RD APT 4, POMPANO BEACH, FL, 33062","Match","Exact","3212 COLONY CLUB RD, POMPANO BEACH, FL, 33062",114780001,"L"
171700,"3212 COVE LAKE RD","HAMPTON COVE","AL",35763,34.67379922,-86.4563086969999,200,"3212 COVE LAKE RD, HAMPTON COVE, AL, 35763","Match","Exact","3212 COVE LAKE RD, HAMPTON COVE, AL, 35763",653330695,"L"
171701,"3212 E GARNET LANE","ORANGE","CA",92869,33.7763899920001,-117.819790601,201,"3212 E GARNET LANE, ORANGE, CA, 92869","Match","Exact","3212 E GARNET LN, ORANGE, CA, 92869",144418581,"R"
171702,"3212 E GARNET LN","ORANGE","CA",92869,33.7763899920001,-117.819790601,202,"3212 E GARNET LN, ORANGE, CA, 92869","Match","Exact","3212 E GARNET LN, ORANGE, CA, 92869",144418581,"R"
171703,"3212 E NIGHTHAWK WAY","PHOENIX","AZ",85048,33.296025851,-112.013677835,203,"3212 E NIGHTHAWK WAY, PHOENIX, AZ, 85048","Match","Exact","3212 E NIGHTHAWK WAY, PHOENIX, AZ, 85048",128269260,"R"
171704,"3212 ELY AVENUE","BRONX","NY",10469,40.875235339,-73.8385111329999,204,"3212 ELY AVENUE, BRONX, NY, 10469","Match","Exact","3212 ELY AVE, BRONX, NY, 10469",80310422,"R"
171705,"3212 HAMPTON HWY SUITE C","YORKTOWN","VA",23693,37.0998845280001,-76.412229398,205,"3212 HAMPTON HWY SUITE C, YORKTOWN, VA, 23693","Match","Exact","3212 HAMPTON HWY, YORKTOWN, VA, 23693",223116011,"R"
171706,"3212 HIGHLAND AVENUE  UNIT B","SAN DIEGO","CA",92105,32.739668828,-117.098838897,206,"3212 HIGHLAND AVENUE  UNIT B, SAN DIEGO, CA, 92105","Match","Exact","3212 HIGHLAND AVE, SAN DIEGO, CA, 92105",195347462,"L"
171707,"3212 ITASKA ST","ST LOUIS","MO",63111,38.5714530720001,-90.2420751289999,207,"3212 ITASKA ST, ST LOUIS, MO, 63111","Match","Exact","3212 ITASKA ST, SAINT LOUIS, MO, 63111",107601889,"L"
171708,"3212 JAMES STREET","SYRACUSE","NY",13206,43.0690598640001,-76.101557857,208,"3212 JAMES STREET, SYRACUSE, NY, 13206","Match","Exact","3212 JAMES ST, SYRACUSE, NY, 13206",46623045,"R"
171709,"3212 LEWIS RIVER ROAD/ PO BOX 580","WOODLAND","WA",98674,45.940162839,-122.66510224,209,"3212 LEWIS RIVER ROAD/ PO BOX 580, WOODLAND, WA, 98674","Match","Non_Exact","3212 LEWIS RIVER RD, WOODLAND, WA, 98674",184518827,"L"
171710,"3212 LOMA VISTA ROAD SUITE 101","VENTURA","CA",93003,34.276069868,-119.252753548,210,"3212 LOMA VISTA ROAD SUITE 101, VENTURA, CA, 93003","Match","Exact","3212 LOMA VISTA RD, VENTURA, CA, 93003",110040544,"R"
171711,"3212 NORMINGTON DR","SACRAMENTO","CA",95833,38.625472845,-121.478173112,211,"3212 NORMINGTON DR, SACRAMENTO, CA, 95833","Match","Exact","3212 NORMINGTON DR, SACRAMENTO, CA, 95833",133320453,"R"
171712,"3212 NORTHLAKE PKWY 451051","ATLANTA","GA",30345,NA,NA,212,"3212 NORTHLAKE PKWY 451051, ATLANTA, GA, 30345","Tie",NA,NA,NA,NA
171713,"3212 OLD MILL ST","PIGEON FORGE","TN",37863,NA,NA,213,"3212 OLD MILL ST, PIGEON FORGE, TN, 37863","Tie",NA,NA,NA,NA
171714,"3212 PONTIAC ST","DENVER","CO",80207,39.7623174820001,-104.905785336,214,"3212 PONTIAC ST, DENVER, CO, 80207","Match","Exact","3212 PONTIAC ST, DENVER, CO, 80207",177313158,"R"
171715,"3212 RANDOLPH RD","MOGADORE","OH",44260,41.048379142,-81.277251932,215,"3212 RANDOLPH RD, MOGADORE, OH, 44260","Match","Exact","3212 RANDOLPH RD, MOGADORE, OH, 44260",208679234,"R"
171716,"3212 ROOSEVELT BLVD","KENNER","LA",70065,30.014046637,-90.231987859,216,"3212 ROOSEVELT BLVD, KENNER, LA, 70065","Match","Exact","3212 ROOSEVELT BLVD, KENNER, LA, 70065",93493895,"R"
171717,"3212 ROSEWEDGE WAY","LOUISVILLE","KY",40216,38.1840405680001,-85.849604271,217,"3212 ROSEWEDGE WAY, LOUISVILLE, KY, 40216","Match","Exact","3212 ROSEWEDGE WAY, LOUISVILLE, KY, 40216",96838227,"L"
171718,"3212 RUNNING DEER TRL","FRANKLIN","OH",45005,39.48756618,-84.268104554,218,"3212 RUNNING DEER TRL, FRANKLIN, OH, 45005","Match","Exact","3212 RUNNING DEER TRL, FRANKLIN, OH, 45005",633826688,"L"
171719,"3212 SAVANNAH HILLS DR","MATTHEWS","NC",28105,35.0800248940001,-80.710490657,219,"3212 SAVANNAH HILLS DR, MATTHEWS, NC, 28105","Match","Exact","3212 SAVANNAH HILLS DR, MATTHEWS, NC, 28105",216862091,"L"
171720,"3212 SECLUSION RD","LAKE ISABELLA","CA",93240,35.619433815,-118.414284285,220,"3212 SECLUSION RD, LAKE ISABELLA, CA, 93240","Match","Exact","3212 SECLUSION RD, LAKE ISABELLA, CA, 93240",109496592,"R"
171721,"3212 SHARON STREET","HOUMA","LA",70363,29.5937439040001,-90.681282352,221,"3212 SHARON STREET, HOUMA, LA, 70363","Match","Exact","3212 SHARON ST, HOUMA, LA, 70363",92051518,"L"
171722,"3212 SPEARS ROAD","NASHVILLE","TN",37207,36.2378045780001,-86.779453823,222,"3212 SPEARS ROAD, NASHVILLE, TN, 37207","Match","Exact","3212 SPEARS RD, NASHVILLE, TN, 37207",97186494,"R"
171723,"3212 TABBY DR","CLARKSVILLE","TN",37042,36.6220626100001,-87.377833186,223,"3212 TABBY DR, CLARKSVILLE, TN, 37042","Match","Exact","3212 TABBY DR, CLARKSVILLE, TN, 37042",31832690,"L"
171724,"3212 TANEY ROAD","BALTIMORE","MD",21215,39.3612877200001,-76.6880195699999,224,"3212 TANEY ROAD, BALTIMORE, MD, 21215","Match","Exact","3212 TANEY RD, BALTIMORE, MD, 21215",206464955,"R"
171725,"3212 TULIP COURT","MARRERO","LA",70072,29.8462740530001,-90.12647957,225,"3212 TULIP COURT, MARRERO, LA, 70072","Match","Exact","3212 TULIP CT, MARRERO, LA, 70072",93532345,"R"
171726,"3212 TUNA DRIVE","GAUTIER","MS",39553,30.3811687150001,-88.6621893499999,226,"3212 TUNA DRIVE, GAUTIER, MS, 39553","Match","Non_Exact","3212 TUNA RD, GAUTIER, MS, 39553",89249620,"R"
171727,"3212 W 85TH STREET UNIT 9336","INGLEWOOD","CA",90305,33.960877613,-118.327774253,227,"3212 W 85TH STREET UNIT 9336, INGLEWOOD, CA, 90305","Match","Non_Exact","3212 W 85TH ST, INGLEWOOD, CA, 90305",241242558,"L"
171728,"3212 WEST END AVE STE 500","NASHVILLE","TN",37203,36.1418632560001,-86.8163421519999,228,"3212 WEST END AVE STE 500, NASHVILLE, TN, 37203","Match","Exact","3212 W END AVE, NASHVILLE, TN, 37203",606820003,"R"
171729,"3212 WESTBURY GLEN BLVD","OKC","OK",73179,35.4328451760001,-97.684653757,229,"3212 WESTBURY GLEN BLVD, OKC, OK, 73179","Match","Non_Exact","3212 WESTBURY GLEN BLVD, OKLAHOMA CITY, OK, 73179",92564367,"L"
171730,"3212 WINDJAMMER CT","PENSACOLA","FL",32526,30.443577416,-87.322208646,230,"3212 WINDJAMMER CT, PENSACOLA, FL, 32526","Match","Exact","3212 WINDJAMMER CT, PENSACOLA, FL, 32526",93261370,"L"
171731,"3212-224 11TH AVE","EVANS","CO",80620,40.3838302390001,-104.696825242,231,"3212-224 11TH AVE, EVANS, CO, 80620","Match","Exact","3212 11TH AVE, EVANS, CO, 80620",188678327,"L"
171732,"32120 CANYON CREST COURT","WESTLAKE VILLAGE","CA",91361,34.13586493,-118.819588839,232,"32120 CANYON CREST COURT, WESTLAKE VILLAGE, CA, 91361","Match","Exact","32120 CANYON CREST CT, WESTLAKE VILLAGE, CA, 91361",141777159,"L"
171733,"32121 SYCAMORE CT","TEMECULA","CA",92592,33.462380958,-117.099111004,233,"32121 SYCAMORE CT, TEMECULA, CA, 92592","Match","Non_Exact","32121 SYCAMORE LN, TEMECULA, CA, 92592",618701583,"R"
171734,"32122 VIA BENABARRE","TEMECULA","CA",92592,33.4725632940001,-117.097305047,234,"32122 VIA BENABARRE, TEMECULA, CA, 92592","Match","Exact","32122 VIA BENABARRE, TEMECULA, CA, 92592",194880234,"R"
171735,"32124 CANYON CREST COURT","WESTLAKE VILLAGE","CA",91361,34.1358929470001,-118.8196157,235,"32124 CANYON CREST COURT, WESTLAKE VILLAGE, CA, 91361","Match","Exact","32124 CANYON CREST CT, WESTLAKE VILLAGE, CA, 91361",141777159,"L"
171736,"32127 CAMINO RABAGO","TEMECULA","CA",92592,NA,NA,236,"32127 CAMINO RABAGO, TEMECULA, CA, 92592","No_Match",NA,NA,NA,NA
171737,"3213 37TH AVE S","MINNEAPOLIS","MN",55406,44.9446799560001,-93.219112953,237,"3213 37TH AVE S, MINNEAPOLIS, MN, 55406","Match","Exact","3213 37TH AVE S, MINNEAPOLIS, MN, 55406",43640026,"L"
171738,"3213 BUENA VISTA TERR  SE","WASHINGTON","DC",20020,38.8511910990001,-76.96676923,238,"3213 BUENA VISTA TERR  SE, WASHINGTON, DC, 20020","Match","Exact","3213 BUENA VISTA TER SE, WASHINGTON, DC, 20020",76232831,"R"
171739,"3213 BURN BRAE DRIVE","DRESHER","PA",19025,40.1388144640001,-75.152127145,239,"3213 BURN BRAE DRIVE, DRESHER, PA, 19025","Match","Exact","3213 BURN BRAE DR, DRESHER, PA, 19025",135091810,"R"
171740,"3213 CACTUS HEIGHTS LN","PEARLAND","TX",77581,29.571711173,-95.271021723,240,"3213 CACTUS HEIGHTS LN, PEARLAND, TX, 77581","Match","Exact","3213 CACTUS HEIGHTS LN, PEARLAND, TX, 77581",635234445,"L"
171741,"3213 CAPEHART DRIVE","SAINT LOUIS","MO",63121,38.6930569260001,-90.2873808419999,241,"3213 CAPEHART DRIVE, SAINT LOUIS, MO, 63121","Match","Exact","3213 CAPEHART DR, SAINT LOUIS, MO, 63121",100152667,"L"
171742,"3213 CATALPA DR","SPRINGFIELD","IL",62712,39.758146041,-89.581498907,242,"3213 CATALPA DR, SPRINGFIELD, IL, 62712","Match","Exact","3213 CATALPA DR, SPRINGFIELD, IL, 62712",97355710,"R"
171743,"3213 CREEK TRACE WEST","POWDER SPRINGS","GA",30127,33.8735979510001,-84.7223023779999,243,"3213 CREEK TRACE WEST, POWDER SPRINGS, GA, 30127","Match","Exact","3213 CREEK TRCE W, POWDER SPGS, GA, 30127",614186909,"L"
171744,"3213 DRUID WAY","FLOWER MOUND","TX",75028,33.0418515980001,-97.078722973,244,"3213 DRUID WAY, FLOWER MOUND, TX, 75028","Match","Exact","3213 DRUID WAY, FLOWER MOUND, TX, 75028",103379249,"L"
171745,"3213 DUKE STREET  SUITE 682","ALEXANDRIA","VA",22314,38.8080111240001,-77.085567112,245,"3213 DUKE STREET  SUITE 682, ALEXANDRIA, VA, 22314","Match","Exact","3213 DUKE ST, ALEXANDRIA, VA, 22314",639296309,"R"
171746,"3213 DUKE STREET NO 202","ALEXANDRIA","VA",22314,38.8080111240001,-77.085567112,246,"3213 DUKE STREET NO 202, ALEXANDRIA, VA, 22314","Match","Non_Exact","3213 DUKE ST, ALEXANDRIA, VA, 22314",639296309,"R"
171747,"3213 DURANGO DR","PEARLAND","TX",77581,29.550351145,-95.270515938,247,"3213 DURANGO DR, PEARLAND, TX, 77581","Match","Exact","3213 DURANGO DR, PEARLAND, TX, 77581",614111017,"L"
171748,"3213 E 56TH ST","TULSA","OK",74105,36.082603621,-95.94204674,248,"3213 E 56TH ST, TULSA, OK, 74105","Match","Non_Exact","3213 E 56TH ST, TULSA, OK, 74105",166510785,"L"
171749,"3213 E OLD MYERS RD","BLOOMINGTON","IN",47401,39.229880759,-86.4960726589999,249,"3213 E OLD MYERS RD, BLOOMINGTON, IN, 47401","Match","Non_Exact","3213 E OLD MYERS RD, BLOOMINGTON, IN, 47408",42337723,"L"
171750,"3213 FLOWERY BRANCH RD","RALEIGH","NC",27610,35.737995776,-78.543150302,250,"3213 FLOWERY BRANCH RD, RALEIGH, NC, 27610","Match","Exact","3213 FLOWERY BRANCH RD, RALEIGH, NC, 27610",72665153,"L"
171751,"3213 HIDDEN COVE DR","PLANO","TX",75075,33.039151598,-96.75438896,251,"3213 HIDDEN COVE DR, PLANO, TX, 75075","Match","Exact","3213 HIDDEN COVE DR, PLANO, TX, 75075",642472149,"R"
171752,"3213 IH-30 404","MESQUITE","TX",75150,NA,NA,252,"3213 IH-30 404, MESQUITE, TX, 75150","No_Match",NA,NA,NA,NA
171753,"3213 KENILWORTH LANE","MONTGOMERY","IL",60538,41.7268807410001,-88.416784271,253,"3213 KENILWORTH LANE, MONTGOMERY, IL, 60538","Match","Exact","3213 KENILWORTH LN, MONTGOMERY, IL, 60538",119588187,"R"
171754,"3213 LINDMOOR DRIVE","DECATUR","GA",30033,33.8190641750001,-84.2577414799999,254,"3213 LINDMOOR DRIVE, DECATUR, GA, 30033","Match","Exact","3213 LINDMOOR DR, DECATUR, GA, 30033",23386465,"R"
171755,"3213 MAPLEWOOD AVE","LOS ANGELES","CA",90066,34.0110824120001,-118.45252189,255,"3213 MAPLEWOOD AVE, LOS ANGELES, CA, 90066","Match","Exact","3213 MAPLEWOOD AVE, LOS ANGELES, CA, 90066",141569240,"R"
171756,"3213 NC HIGHWAY 801 S","ADVANCE","NC",27006,NA,NA,256,"3213 NC HIGHWAY 801 S, ADVANCE, NC, 27006","No_Match",NA,NA,NA,NA
171757,"3213 NORTHWESTERN AVE","HUTCHINSON","KS",67502,38.0895061300001,-97.943894361,257,"3213 NORTHWESTERN AVE, HUTCHINSON, KS, 67502","Match","Exact","3213 NORTHWESTERN AVE, HUTCHINSON, KS, 67502",142933156,"L"
171758,"3213 P ST NW","WASHINGTON","DC",20007,38.9092598440001,-77.063798258,258,"3213 P ST NW, WASHINGTON, DC, 20007","Match","Exact","3213 P ST NW, WASHINGTON, DC, 20007",76224893,"R"
171759,"3213 PORTMAN AVE","CLEVELAND","OH",44109,41.427447154,-81.706739625,259,"3213 PORTMAN AVE, CLEVELAND, OH, 44109","Match","Exact","3213 PORTMAN AVE, CLEVELAND, OH, 44109",61116185,"L"
171760,"3213 SANDHILL DRIVE","FAYETTEVILLE","NC",28306,35.019528547,-78.9280405769999,260,"3213 SANDHILL DRIVE, FAYETTEVILLE, NC, 28306","Match","Exact","3213 SANDHILL DR, FAYETTEVILLE, NC, 28306",64252623,"L"
171761,"3213 SUMMERSET ROAD","WILMINGTON","DE",19810,39.819293901,-75.5334321989999,261,"3213 SUMMERSET ROAD, WILMINGTON, DE, 19810","Match","Exact","3213 SUMMERSET RD, WILMINGTON, DE, 19810",187255945,"R"
171762,"3213 TITANIC AVE","EL PASO","TX",79904,31.8529933840001,-106.459201205,262,"3213 TITANIC AVE, EL PASO, TX, 79904","Match","Exact","3213 TITANIC AVE, EL PASO, TX, 79904",189337553,"L"
171763,"3213 TWIN RIDGE DRIVE","BELTON","TX",76513,31.093943358,-97.486883451,263,"3213 TWIN RIDGE DRIVE, BELTON, TX, 76513","Match","Exact","3213 TWIN RIDGE DR, BELTON, TX, 76513",642827782,"L"
171764,"3213 W MAIN STREET SUITE 121","RAPID CITY","SD",57702,44.0821558850001,-103.263580431,264,"3213 W MAIN STREET SUITE 121, RAPID CITY, SD, 57702","Match","Non_Exact","3213 W MAIN ST, RAPID CITY, SD, 57702",205507826,"L"
171765,"3213 W MAIN SUITE 121","RAPID CITY","SD",57702,NA,NA,265,"3213 W MAIN SUITE 121, RAPID CITY, SD, 57702","No_Match",NA,NA,NA,NA
171766,"3213 W WALNUT ST","CHICAGO","IL",60624,41.88538406,-87.706889368,266,"3213 W WALNUT ST, CHICAGO, IL, 60624","Match","Exact","3213 W WALNUT ST, CHICAGO, IL, 60624",111759876,"L"
171767,"3213 W WHEELER 100","SEATTLE","WA",98199,NA,NA,267,"3213 W WHEELER 100, SEATTLE, WA, 98199","No_Match",NA,NA,NA,NA
171768,"3213 W WHEELER STREET SUITE 17","SEATTLE","WA",98199,47.6400287980001,-122.398567247,268,"3213 W WHEELER STREET SUITE 17, SEATTLE, WA, 98199","Match","Non_Exact","3213 W WHEELER ST, SEATTLE, WA, 98199",186659533,"L"
171769,"3213 W WHEELER STREET","SEATTLE","WA",98199,47.6400287980001,-122.398567247,269,"3213 W WHEELER STREET, SEATTLE, WA, 98199","Match","Exact","3213 W WHEELER ST, SEATTLE, WA, 98199",186659533,"L"
171770,"3213 WRIGHT AVE","BREMERTON","WA",98310,47.592364903,-122.620446723,270,"3213 WRIGHT AVE, BREMERTON, WA, 98310","Match","Exact","3213 WRIGHT AVE, BREMERTON, WA, 98310",187643074,"L"
171771,"32130 ANNICE LN","PINEHURST","TX",77362,30.1350304370001,-95.649317332,271,"32130 ANNICE LN, PINEHURST, TX, 77362","Match","Exact","32130 ANNICE LN, PINEHURST, TX, 77362",647664895,"L"
171772,"32134 SUNSET RIDGE RD W","COARSEGOLD","CA",93614,37.2174744700001,-119.719582032,272,"32134 SUNSET RIDGE RD W, COARSEGOLD, CA, 93614","Match","Exact","32134 SUNSET RIDGE RD W, COARSEGOLD, CA, 93614",102355959,"L"
171773,"3214 2ND AVE EAST","INTERNATIONAL FALLS","MN",56649,48.569820441,-93.396557692,273,"3214 2ND AVE EAST, INTERNATIONAL FALLS, MN, 56649","Match","Exact","3214 2ND AVE E, INTERNATIONAL FALLS, MN, 56649",176474323,"R"
171774,"3214 BARRINGTON RD","BALTIMORE","MD",21215,39.3278860620001,-76.668996942,274,"3214 BARRINGTON RD, BALTIMORE, MD, 21215","Match","Exact","3214 BARRINGTON RD, BALTIMORE, MD, 21215",206443117,"R"
171775,"3214 BEELER CT","INDIANAPOLIS","IN",46224,39.8139720950001,-86.2517767529999,275,"3214 BEELER CT, INDIANAPOLIS, IN, 46224","Match","Exact","3214 BEELER CT, INDIANAPOLIS, IN, 46224",107978255,"L"
171776,"3214 BELMONT RIVER LN","KATY","TX",77494,29.736980449,-95.833758591,276,"3214 BELMONT RIVER LN, KATY, TX, 77494","Match","Exact","3214 BELMONT RIVER LN, KATY, TX, 77494",642951036,"R"
171777,"3214 BEVERLY DRIVE","ALTOONA","PA",16601,40.5352720440001,-78.414343075,277,"3214 BEVERLY DRIVE, ALTOONA, PA, 16601","Match","Exact","3214 BEVERLY DR, ALTOONA, PA, 16601",49733876,"R"
171778,"3214 BOWLING GREEN CT","CINCINNATI","OH",45225,39.1427796670001,-84.552490344,278,"3214 BOWLING GREEN CT, CINCINNATI, OH, 45225","Match","Exact","3214 BOWLING GREEN CT, CINCINNATI, OH, 45225",103922182,"R"
171779,"3214 CHARLEMAGNE AVE","LONG BEACH","CA",90808,33.8156769980001,-118.130423645,279,"3214 CHARLEMAGNE AVE, LONG BEACH, CA, 90808","Match","Non_Exact","3214 N CHARLEMAGNE AVE, LONG BEACH, CA, 90808",141700896,"R"
171780,"3214 CLINTON STREET","FORT WORTH","TX",76106,32.803323951,-97.3550063449999,280,"3214 CLINTON STREET, FORT WORTH, TX, 76106","Match","Non_Exact","3214 CLINTON AVE, FORT WORTH, TX, 76106",101856048,"R"
171781,"3214 CONSTITUTION BLVD","CLAYSVILLE","PA",15323,40.1561931270001,-80.3724862399999,281,"3214 CONSTITUTION BLVD, CLAYSVILLE, PA, 15323","Match","Exact","3214 CONSTITUTION BLVD, CLAYSVILLE, PA, 15323",52832642,"L"
171782,"3214 COTTINGHAM CT","GREENSBORO","NC",27410,36.125410312,-79.921612598,282,"3214 COTTINGHAM CT, GREENSBORO, NC, 27410","Match","Exact","3214 COTTINGHAM CT, GREENSBORO, NC, 27410",131077461,"R"
171783,"3214 E KEARNEY ST","LAREDO","TX",78043,27.521324409,-99.4636951799999,283,"3214 E KEARNEY ST, LAREDO, TX, 78043","Match","Exact","3214 E KEARNEY ST, LAREDO, TX, 78043",21673223,"L"
171784,"3214 FELTON SPRINGS DR","SPRING","TX",77386,30.131672485,-95.393994697,284,"3214 FELTON SPRINGS DR, SPRING, TX, 77386","Match","Exact","3214 FELTON SPRINGS DR, SPRING, TX, 77386",627735396,"L"
171785,"3214 FESTUS DRIVE","AUSTIN","TX",78748,30.1649385870001,-97.8548897749999,285,"3214 FESTUS DRIVE, AUSTIN, TX, 78748","Match","Exact","3214 FESTUS DR, AUSTIN, TX, 78748",63998494,"R"
171786,"3214 GATSBY LANE","MONTGOMERY","AL",36106,32.359320331,-86.260880099,286,"3214 GATSBY LANE, MONTGOMERY, AL, 36106","Match","Exact","3214 GATSBY LN, MONTGOMERY, AL, 36106",1543995,"L"
171787,"3214 GRAND AVENUE","MIAMI","FL",33133,25.727950176,-80.245458513,287,"3214 GRAND AVENUE, MIAMI, FL, 33133","Match","Exact","3214 GRAND AVE, MIAMI, FL, 33133",116015200,"L"
171788,"3214 GRAPEVINE TRL APT 4214","COLUMBUS","GA",31903,32.42727433,-84.9440183199999,288,"3214 GRAPEVINE TRL APT 4214, COLUMBUS, GA, 31903","Match","Exact","3214 GRAPEVINE TRL, COLUMBUS, GA, 31903",651034719,"R"
171789,"3214 KILLDEER LANE","HUMBLE","TX",77396,29.956014472,-95.274162942,289,"3214 KILLDEER LANE, HUMBLE, TX, 77396","Match","Non_Exact","3214 KILDEER LN, HUMBLE, TX, 77396",624730827,"L"
171790,"3214 LAGO DE COMO PLACE","SAN JOSE","CA",95136,37.2802182930001,-121.861358716,290,"3214 LAGO DE COMO PLACE, SAN JOSE, CA, 95136","Match","Exact","3214 LAGO DE COMO PL, SAN JOSE, CA, 95136",635289188,"L"
171791,"3214 LONGFELLOW BLVD","SAINT LOUIS","MO",63104,38.6111372440001,-90.234171112,291,"3214 LONGFELLOW BLVD, SAINT LOUIS, MO, 63104","Match","Exact","3214 LONGFELLOW BLVD, SAINT LOUIS, MO, 63104",107607936,"L"
171792,"3214 LONGHORN CIRCLE","MANVEL","TX",77578,29.532922882,-95.389795463,292,"3214 LONGHORN CIRCLE, MANVEL, TX, 77578","Match","Exact","3214 LONGHORN CIR, MANVEL, TX, 77578",632055350,"R"
171793,"3214 MENAUQUET TRAIL","MICHIGAN CITY","IN",46360,41.7539750550001,-86.8351948219999,293,"3214 MENAUQUET TRAIL, MICHIGAN CITY, IN, 46360","Match","Exact","3214 MENAUQUET TRL, MICHIGAN CITY, IN, 46360",15413389,"L"
171794,"3214 MONSARRAT AVE","HONOLULU","HI",96815,21.269622939,-157.810838022,294,"3214 MONSARRAT AVE, HONOLULU, HI, 96815","Match","Exact","3214 MONSARRAT AVE, HONOLULU, HI, 96815",636129945,"L"
171795,"3214 N 42 ND STREET","MILWAUKEE","WI",53216,43.0773734210001,-87.965531567,295,"3214 N 42 ND STREET, MILWAUKEE, WI, 53216","Match","Non_Exact","3214 N 42ND ST, MILWAUKEE, WI, 53216",77732253,"R"
171796,"3214 N WINNETKA AVE","DALLAS","TX",75212,32.780628274,-96.839723888,296,"3214 N WINNETKA AVE, DALLAS, TX, 75212","Match","Exact","3214 N WINNETKA AVE, DALLAS, TX, 75212",102905268,"R"
171797,"3214 NE 95TH ST","SEATTLE","WA",98115,47.697478275,-122.292946484,297,"3214 NE 95TH ST, SEATTLE, WA, 98115","Match","Exact","3214 NE 95TH ST, SEATTLE, WA, 98115",186585960,"L"
171798,"3214 NORTH UNIVERSITY AVE 126","PROVO","UT",84604,40.2776656290001,-111.657797948,298,"3214 NORTH UNIVERSITY AVE 126, PROVO, UT, 84604","Match","Exact","3214 N UNIVERSITY AVE, PROVO, UT, 84604",134263821,"R"
171799,"3214 NORTH UNIVERSITY AVE SUITE 451","PROVO","UT",84604,40.2776656290001,-111.657797948,299,"3214 NORTH UNIVERSITY AVE SUITE 451, PROVO, UT, 84604","Match","Exact","3214 N UNIVERSITY AVE, PROVO, UT, 84604",134263821,"R"
171800,"3214 OLD FARM LANE","COMMERCE TOWNSHIP","MI",48390,42.570130609,-83.4429998369999,300,"3214 OLD FARM LANE, COMMERCE TOWNSHIP, MI, 48390","Match","Exact","3214 OLD FARM LN, COMMERCE TOWNSHIP, MI, 48390",69788959,"R"
171801,"3214 ORANGE CENTER BLVD SUITE C","ORLANDO","FL",32805,28.5317421230001,-81.416929119,301,"3214 ORANGE CENTER BLVD SUITE C, ORLANDO, FL, 32805","Match","Exact","3214 ORANGE CENTER BLVD, ORLANDO, FL, 32805",619007988,"L"
171802,"3214 PINEY GROVE RD","CHARLOTTE","NC",28212,35.1732705640001,-80.734288927,302,"3214 PINEY GROVE RD, CHARLOTTE, NC, 28212","Match","Exact","3214 PINEY GROVE RD, CHARLOTTE, NC, 28212",70494751,"R"
171803,"3214 RANCHO TIERRA CT","CAMERON PARK","CA",95682,38.6776549420001,-121.00180435,303,"3214 RANCHO TIERRA CT, CAMERON PARK, CA, 95682","Match","Exact","3214 RANCHO TIERRA CT, CAMERON PARK, CA, 95682",133073306,"L"
171804,"3214 ROCKS ROAD","JARRETTSVILLE","MD",21084,39.6205642090001,-76.4004422799999,304,"3214 ROCKS ROAD, JARRETTSVILLE, MD, 21084","Match","Exact","3214 ROCKS RD, JARRETTSVILLE, MD, 21084",191664531,"L"
171805,"3214 ROSE GROVE TERRACE","OAK HILL","VA",20171,38.8990340290001,-77.391537327,305,"3214 ROSE GROVE TERRACE, OAK HILL, VA, 20171","Match","Exact","3214 ROSE GROVE TER, OAK HILL, VA, 20171",614136224,"L"
171806,"3214 RUSSWOOD LANE","GARLAND","TX",75044,32.956766697,-96.678707362,306,"3214 RUSSWOOD LANE, GARLAND, TX, 75044","Match","Exact","3214 RUSSWOOD LN, GARLAND, TX, 75044",102916252,"L"
171807,"3214 SILVER SAND DRIVE","BATON ROUGE","LA",70816,30.42135518,-91.000924429,307,"3214 SILVER SAND DRIVE, BATON ROUGE, LA, 70816","Match","Exact","3214 SILVER SAND DR, BATON ROUGE, LA, 70816",92205050,"R"
171808,"3214 SLIDELL AVENUE","SLIDELL","LA",70458,30.2585761560001,-89.780661225,308,"3214 SLIDELL AVENUE, SLIDELL, LA, 70458","Match","Exact","3214 SLIDELL AVE, SLIDELL, LA, 70458",111249428,"R"
171809,"3214 STONEYBROOK RD","CHARLOTTE","NC",28205,35.233380176,-80.793829331,309,"3214 STONEYBROOK RD, CHARLOTTE, NC, 28205","Match","Non_Exact","3214 STONYBROOK RD, CHARLOTTE, NC, 28205",70480406,"R"
171810,"3214 TX HWY 49 W","OMAHA","TX",75571,33.0743037570001,-94.760623814,310,"3214 TX HWY 49 W, OMAHA, TX, 75571","Match","Non_Exact","3214 STATE HWY 49, OMAHA, TX, 75571",57780097,"R"
171811,"3214 W PARK ROW DR","ARLINGTON","TX",76013,32.721411549,-97.160158795,311,"3214 W PARK ROW DR, ARLINGTON, TX, 76013","Match","Exact","3214 W PARK ROW DR, ARLINGTON, TX, 76013",101904807,"L"
171812,"3214 W WELLINGTON AVE","CHICAGO","IL",60618,41.935708687,-87.708366796,312,"3214 W WELLINGTON AVE, CHICAGO, IL, 60618","Match","Exact","3214 W WELLINGTON AVE, CHICAGO, IL, 60618",605189017,"R"
171813,"3214 WESSEL ROAD","LOUISVILLE","KY",40216,38.208558343,-85.818125585,313,"3214 WESSEL ROAD, LOUISVILLE, KY, 40216","Match","Exact","3214 WESSEL RD, LOUISVILLE, KY, 40216",96837069,"R"
171814,"3214 WEST CLAREMONT STREET","PHOENIX","AZ",85017,33.5283439300001,-112.128425483,314,"3214 WEST CLAREMONT STREET, PHOENIX, AZ, 85017","Match","Exact","3214 W CLAREMONT ST, PHOENIX, AZ, 85017",128302457,"L"
171815,"3214 WHITETAIL LN","TWIN LAKE","MI",49457,43.303712492,-86.16241644,315,"3214 WHITETAIL LN, TWIN LAKE, MI, 49457","Match","Exact","3214 WHITETAIL LN, TWIN LAKE, MI, 49457",77674917,"R"
171816,"3214 WINSOME CT","LAREDO","TX",78045,27.58985876,-99.450895184,316,"3214 WINSOME CT, LAREDO, TX, 78045","Match","Exact","3214 WINSOME CT, LAREDO, TX, 78045",617549249,"L"
171817,"3214","WASHINGTON","DC",20032,NA,NA,317,"3214, WASHINGTON, DC, 20032","No_Match",NA,NA,NA,NA
171818,"32143 RD 124","VISALIA","CA",93291,36.373735391,-119.296927327,318,"32143 RD 124, VISALIA, CA, 93291","Match","Exact","32143 RD 124, VISALIA, CA, 93291",607536419,"L"
171819,"32144 AGOURA ROAD SUITE 207","WESTLAKE VILLAGE","CA",91361,34.148285953,-118.82007168,319,"32144 AGOURA ROAD SUITE 207, WESTLAKE VILLAGE, CA, 91361","Match","Exact","32144 AGOURA RD, WESTLAKE VILLAGE, CA, 91361",624561259,"L"
171820,"32145 AUGUSTA DR","AVON LAKE","OH",44012,41.4803160010001,-81.990729153,320,"32145 AUGUSTA DR, AVON LAKE, OH, 44012","Match","Exact","32145 AUGUSTA DR, AVON LAKE, OH, 44012",55420138,"R"
171821,"3215 105TH ST E","PALMETTO","FL",34221,27.608705763,-82.530920664,321,"3215 105TH ST E, PALMETTO, FL, 34221","Match","Exact","3215 105TH ST E, PALMETTO, FL, 34221",16282227,"R"
171822,"3215 176TH PL NE","ARLINGTON","WA",98223,48.1565678910001,-122.186418394,322,"3215 176TH PL NE, ARLINGTON, WA, 98223","Match","Exact","3215 176TH PL NE, ARLINGTON, WA, 98223",187740391,"L"
171823,"3215 31ST AVE SE","PUYALLUP","WA",98374,47.162487808,-122.252339065,323,"3215 31ST AVE SE, PUYALLUP, WA, 98374","Match","Non_Exact","3215 31ST PL SE, PUYALLUP, WA, 98374",184668417,"L"
171824,"3215 46TH AVE N","ST PETERSBURG","FL",33714,27.8137936250001,-82.676747445,324,"3215 46TH AVE N, ST PETERSBURG, FL, 33714","Match","Exact","3215 46TH AVE N, SAINT PETERSBURG, FL, 33714",124702123,"R"
171825,"3215 5TH ST","BOULDER","CO",80304,40.033121109,-105.290322427,325,"3215 5TH ST, BOULDER, CO, 80304","Match","Exact","3215 5TH ST, BOULDER, CO, 80304",188159159,"L"
171826,"3215 71ST AVE CT W   206","UNIVERSITY PL","WA",98466,NA,NA,326,"3215 71ST AVE CT W   206, UNIVERSITY PL, WA, 98466","No_Match",NA,NA,NA,NA
171827,"3215 ACALANES AVE","LAFAYETTE","CA",94549,37.9011106300001,-122.095041166,327,"3215 ACALANES AVE, LAFAYETTE, CA, 94549","Match","Exact","3215 ACALANES AVE, LAFAYETTE, CA, 94549",192048988,"L"
171828,"3215 ANTHONY DRIVE","ANTHONY","NM",88021,32.048428238,-106.603365517,328,"3215 ANTHONY DRIVE, ANTHONY, NM, 88021","Match","Non_Exact","3215 ANTHONY DR, ANTHONY, NM, 88024",638625138,"L"
171829,"3215 BALTIMORE BRANCH RD","HOT SPRINGS","NC",28743,35.784135152,-82.853601435,329,"3215 BALTIMORE BRANCH RD, HOT SPRINGS, NC, 28743","Match","Exact","3215 BALTIMORE BRANCH RD, HOT SPRINGS, NC, 28743",608803381,"L"
171830,"3215 BAYOU XING","SUGARLAND","TX",77479,29.574076658,-95.595730018,330,"3215 BAYOU XING, SUGARLAND, TX, 77479","Match","Non_Exact","3215 BAYOU CROSSING, SUGAR LAND, TX, 77479",78341388,"L"
171831,"3215 BURNING TREE LANE","FESTUS","MO",63028,38.2215134460001,-90.452234959,331,"3215 BURNING TREE LANE, FESTUS, MO, 63028","Match","Exact","3215 BURNING TREE LN, FESTUS, MO, 63028",607876660,"R"
171832,"3215 CALAVERAS ROAD","MILPITAS","CA",95035,37.44726067,-121.844387617,332,"3215 CALAVERAS ROAD, MILPITAS, CA, 95035","Match","Exact","3215 CALAVERAS RD, MILPITAS, CA, 95035",640543481,"R"
171833,"3215 CUMINGS STREET 4TH FLOOR","OMAHA","NE",68131,NA,NA,333,"3215 CUMINGS STREET 4TH FLOOR, OMAHA, NE, 68131","No_Match",NA,NA,NA,NA
171834,"3215 DELAWARE AVE","FORT PIERCE","FL",34947,27.4438863620001,-80.3572685239999,334,"3215 DELAWARE AVE, FORT PIERCE, FL, 34947","Match","Exact","3215 DELAWARE AVE, FORT PIERCE, FL, 34947",120147249,"L"
171835,"3215 FLEDGLING CIRCLE","WOODBRIDGE","VA",22193,38.610671133,-77.306605173,335,"3215 FLEDGLING CIRCLE, WOODBRIDGE, VA, 22193","Match","Exact","3215 FLEDGLING CIR, WOODBRIDGE, VA, 22193",646644170,"L"
171836,"3215 GRANDLAKE BLVD","KENNER","LA",70065,30.0128774450001,-90.2787991819999,336,"3215 GRANDLAKE BLVD, KENNER, LA, 70065","Match","Exact","3215 GRANDLAKE BLVD, KENNER, LA, 70065",93519278,"R"
171837,"3215 HARBOR VIEW COURT","DECATUR","GA",30034,33.6911336860001,-84.236466131,337,"3215 HARBOR VIEW COURT, DECATUR, GA, 30034","Match","Exact","3215 HARBOR VIEW CT, DECATUR, GA, 30034",23382259,"R"
171838,"3215 HULL AVE APT 1C","BRONX","NY",10467,40.874571002,-73.8761092359999,338,"3215 HULL AVE APT 1C, BRONX, NY, 10467","Match","Exact","3215 HULL AVE, BRONX, NY, 10467",80310383,"L"
171839,"3215 LAFLEUR RD","GREENWOOD","AR",72936,35.1677060590001,-94.218713889,339,"3215 LAFLEUR RD, GREENWOOD, AR, 72936","Match","Exact","3215 LAFLEUR RD, GREENWOOD, AR, 72936",642914009,"L"
171840,"3215 LAKE AVENUE","BRIDGETON","MO",63044,38.7301794480001,-90.423203861,340,"3215 LAKE AVENUE, BRIDGETON, MO, 63044","Match","Exact","3215 LAKE AVE, BRIDGETON, MO, 63044",100115611,"L"
171841,"3215 LOULU ST APT-A","HONOLULU","HI",96822,21.31991199,-157.807618931,341,"3215 LOULU ST APT-A, HONOLULU, HI, 96822","Match","Exact","3215 LOULU ST, HONOLULU, HI, 96822",203238105,"R"
171842,"3215 MAIN AVENUE","NORTHPORT","AL",35476,33.2387609420001,-87.591860896,342,"3215 MAIN AVENUE, NORTHPORT, AL, 35476","Match","Exact","3215 MAIN AVE, NORTHPORT, AL, 35476",82160333,"R"
171843,"3215 MARTIN L KING JR AVE SE","WASHINGTON","DC",20032,NA,NA,343,"3215 MARTIN L KING JR AVE SE, WASHINGTON, DC, 20032","No_Match",NA,NA,NA,NA
171844,"3215 MARTIN LUTHER KING JR AVE SE","WASHINGTON DC","DC",20032,NA,NA,344,"3215 MARTIN LUTHER KING JR AVE SE, WASHINGTON DC, DC, 20032","No_Match",NA,NA,NA,NA
171845,"3215 MARTIN LUTHER KING JR AVE SE","WASHINGTON DC","DC",20332,NA,NA,345,"3215 MARTIN LUTHER KING JR AVE SE, WASHINGTON DC, DC, 20332","No_Match",NA,NA,NA,NA
171846,"3215 MARTIN LUTHER KING JR AVE SE","WASHINGTON","DC",20032,NA,NA,346,"3215 MARTIN LUTHER KING JR AVE SE, WASHINGTON, DC, 20032","No_Match",NA,NA,NA,NA
171847,"3215 N 25TH ST","PHILADELPHIA","PA",19129,40.004505372,-75.1705426249999,347,"3215 N 25TH ST, PHILADELPHIA, PA, 19129","Match","Exact","3215 N 25TH ST, PHILADELPHIA, PA, 19129",652461707,"R"
171848,"3215 N ARIZONA AVENUE - SUITE 19","CHANDLER","AZ",85225,33.3517943100001,-111.841775118,348,"3215 N ARIZONA AVENUE - SUITE 19, CHANDLER, AZ, 85225","Match","Non_Exact","3215 N ARIZONA AVE, CHANDLER, AZ, 85225",128803715,"R"
171849,"3215 NE BROADWAY SUITE 100B","PORTLAND","OR",97232,NA,NA,349,"3215 NE BROADWAY SUITE 100B, PORTLAND, OR, 97232","No_Match",NA,NA,NA,NA
171850,"3215 NE BROADWAY SUITE 210","PORTLAND","OR",97232,NA,NA,350,"3215 NE BROADWAY SUITE 210, PORTLAND, OR, 97232","No_Match",NA,NA,NA,NA
171851,"3215 NE BROADWAY UNIT 280","PORTLAND","OR",97232,NA,NA,351,"3215 NE BROADWAY UNIT 280, PORTLAND, OR, 97232","No_Match",NA,NA,NA,NA
171852,"3215 NW 15TH AVE","GAINESVILLE","FL",32605,29.6656145160001,-82.370570277,352,"3215 NW 15TH AVE, GAINESVILLE, FL, 32605","Match","Exact","3215 NW 15TH AVE, GAINESVILLE, FL, 32605",6805097,"L"
171853,"3215 PLUM POINT DRIVE","OLIVE BRANCH","MS",38654,NA,NA,353,"3215 PLUM POINT DRIVE, OLIVE BRANCH, MS, 38654","No_Match",NA,NA,NA,NA
171854,"3215 POPLAR RIDGE DR","REX","GA",30273,33.5676005770001,-84.284569511,354,"3215 POPLAR RIDGE DR, REX, GA, 30273","Match","Exact","3215 POPLAR RIDGE DR, REX, GA, 30273",23326297,"R"
171855,"3215 RIMROCK ROAD","BILLINGS","MT",59102,45.7986501870001,-108.596621284,355,"3215 RIMROCK ROAD, BILLINGS, MT, 59102","Match","Exact","3215 RIMROCK RD, BILLINGS, MT, 59102",645329603,"R"
171856,"3215 S CORONA ST","ENGLEWOOD","CO",80113,39.6582322450001,-104.97469273,356,"3215 S CORONA ST, ENGLEWOOD, CO, 80113","Match","Exact","3215 S CORONA ST, ENGLEWOOD, CO, 80113",177333984,"R"
171857,"3215 STATE HWY 1661","GRAYSON","KY",41143,NA,NA,357,"3215 STATE HWY 1661, GRAYSON, KY, 41143","No_Match",NA,NA,NA,NA
171858,"3215 SUNNYVALE ST","DALLAS","TX",75216,32.7155127230001,-96.786938815,358,"3215 SUNNYVALE ST, DALLAS, TX, 75216","Match","Exact","3215 SUNNYVALE ST, DALLAS, TX, 75216",102951979,"L"
171859,"3215 TIMROD RD","BETHUNE S","SC",29009,34.4414660790001,-80.353492263,359,"3215 TIMROD RD, BETHUNE S, SC, 29009","Match","Non_Exact","3215 TIMROD RD, BETHUNE, SC, 29009",78467801,"L"
171860,"3215 TRAPPERS COVE TRAIL APT 2A","LANSING","MI",48910,42.686149926,-84.504895448,360,"3215 TRAPPERS COVE TRAIL APT 2A, LANSING, MI, 48910","Match","Exact","3215 TRAPPERS COVE TRL, LANSING, MI, 48910",17524668,"R"
171861,"3215 TUSCAN PARK CT","SAN JOSE","CA",95135,37.3151599220001,-121.78055932,361,"3215 TUSCAN PARK CT, SAN JOSE, CA, 95135","Match","Exact","3215 TUSCAN PARK CT, SAN JOSE, CA, 95135",123160552,"R"
171862,"3215 W KANSAS AVE","MIDLAND","TX",79701,31.997201143,-102.115744967,362,"3215 W KANSAS AVE, MIDLAND, TX, 79701","Match","Exact","3215 W KANSAS AVE, MIDLAND, TX, 79701",139580620,"L"
171863,"3215 WEST 111TH STREET","CHICAGO","IL",60655,41.691557559,-87.7013823089999,363,"3215 WEST 111TH STREET, CHICAGO, IL, 60655","Match","Exact","3215 W 111TH ST, CHICAGO, IL, 60655",605573957,"L"
171864,"3215 WINDSHIRE LANE APT 312","CHARLOTTE","NC",28273,35.1330307900001,-80.933506387,364,"3215 WINDSHIRE LANE APT 312, CHARLOTTE, NC, 28273","Match","Exact","3215 WINDSHIRE LN, CHARLOTTE, NC, 28273",647255927,"L"
171865,"3215","SALISBURY","NC",28145,NA,NA,365,"3215, SALISBURY, NC, 28145","No_Match",NA,NA,NA,NA
171866,"32150 290TH STR","HANCOCK","MN",56244,45.484681939,-95.5861024169999,366,"32150 290TH STR, HANCOCK, MN, 56244","Match","Exact","32150 290TH ST, HANCOCK, MN, 56244",165116095,"R"
171867,"32150 DORSEY RD","WESTLAND","MI",48186,42.292389084,-83.356348598,367,"32150 DORSEY RD, WESTLAND, MI, 48186","Match","Non_Exact","32150 DORSEY ST, WESTLAND, MI, 48186",95501333,"R"
171868,"32151 ELLISON WAY","FORT BRAGG","CA",95437,39.4066047310001,-123.794600692,368,"32151 ELLISON WAY, FORT BRAGG, CA, 95437","Match","Exact","32151 ELLISON WAY, FORT BRAGG, CA, 95437",67280589,"L"
171869,"32151 SW 204TH CT","HOMESTEAD","FL",33030,25.4681121250001,-80.523001823,369,"32151 SW 204TH CT, HOMESTEAD, FL, 33030","Match","Non_Exact","32151 SW 204TH AVE, HOMESTEAD, FL, 33030",631964565,"L"
171870,"32158 CAMINO CAPISTRANO SUITE 106","SAN JUAN CAPISTRANO","CA",92675,NA,NA,370,"32158 CAMINO CAPISTRANO SUITE 106, SAN JUAN CAPISTRANO, CA, 92675","No_Match",NA,NA,NA,NA
171871,"32158 CAMINO CAPISTRANO SUITE A152","SAN JUAN CAPISTRANO","CA",92675,NA,NA,371,"32158 CAMINO CAPISTRANO SUITE A152, SAN JUAN CAPISTRANO, CA, 92675","No_Match",NA,NA,NA,NA
171872,"3216 31ST AVE S","MINNEAPOLIS","MN",55406,44.9445778,-93.227074022,372,"3216 31ST AVE S, MINNEAPOLIS, MN, 55406","Match","Exact","3216 31ST AVE S, MINNEAPOLIS, MN, 55406",43639788,"R"
171873,"3216 33RD AVENUE","SAINT ANTHONY","MN",55418,45.027757111,-93.2158483169999,373,"3216 33RD AVENUE, SAINT ANTHONY, MN, 55418","Match","Non_Exact","3216 33RD AVE NE, SAINT ANTHONY, MN, 55418",43637689,"R"
171874,"3216 9TH ST","MUSKEGON","MI",49444,43.1946890500001,-86.2535212339999,374,"3216 9TH ST, MUSKEGON, MI, 49444","Match","Exact","3216 9TH ST, MUSKEGON, MI, 49444",77653331,"L"
171875,"3216 ARCHDALE DRIVE","CHARLOTTE","NC",28210,35.1454478320001,-80.850979244,375,"3216 ARCHDALE DRIVE, CHARLOTTE, NC, 28210","Match","Exact","3216 ARCHDALE DR, CHARLOTTE, NC, 28210",70487279,"R"
171876,"3216 BLUEWATER TRCE","NASHVILLE","TN",37217,36.079714385,-86.615370599,376,"3216 BLUEWATER TRCE, NASHVILLE, TN, 37217","Match","Exact","3216 BLUEWATER TRCE, NASHVILLE, TN, 37217",635465789,"R"
171877,"3216 BONUS DRIVE","COLUMBUS","OH",43232,39.9127454630001,-82.842746469,377,"3216 BONUS DRIVE, COLUMBUS, OH, 43232","Match","Exact","3216 BONUS DR, COLUMBUS, OH, 43232",218489433,"L"
171878,"3216 BOYKIN BRIDGE RD","CLINTON","NC",28328,34.963139563,-78.357636927,378,"3216 BOYKIN BRIDGE RD, CLINTON, NC, 28328","Match","Exact","3216 BOYKIN BRIDGE RD, CLINTON, NC, 28328",14261946,"L"
171879,"3216 BRAEMAR DRIVE","MEMPHIS","TN",38128,35.213629789,-89.9577320769999,379,"3216 BRAEMAR DRIVE, MEMPHIS, TN, 38128","Match","Exact","3216 BRAEMAR DR, MEMPHIS, TN, 38128",72967543,"R"
171880,"3216 BURNLEY STATION RD","BARBOURSVILLE","VA",22923,38.1818950730001,-78.386807128,380,"3216 BURNLEY STATION RD, BARBOURSVILLE, VA, 22923","Match","Exact","3216 BURNLEY STATION RD, BARBOURSVILLE, VA, 22923",221718031,"R"
171881,"3216 CLEVELAND HEIGHTS BLVD","LAKELAND","FL",33803,28.0052178650001,-81.948803461,381,"3216 CLEVELAND HEIGHTS BLVD, LAKELAND, FL, 33803","Match","Exact","3216 CLEVELAND HEIGHTS BLVD, LAKELAND, FL, 33803",104812455,"L"
171882,"3216 CONCORD ST","NEW CASTLE","PA",16105,41.0530307290001,-80.346575451,382,"3216 CONCORD ST, NEW CASTLE, PA, 16105","Match","Non_Exact","3216 CONCORD DR, NEW CASTLE, PA, 16105",65179807,"R"
171883,"3216 E BLUE RIDGE PL","CHANDLER","AZ",85249,33.237962743,-111.785989392,383,"3216 E BLUE RIDGE PL, CHANDLER, AZ, 85249","Match","Exact","3216 E BLUE RIDGE PL, CHANDLER, AZ, 85249",244002444,"L"
171884,"3216 EARLMAR DR","LOS ANGELES","CA",90064,34.0340948530001,-118.405882781,384,"3216 EARLMAR DR, LOS ANGELES, CA, 90064","Match","Exact","3216 EARLMAR DR, LOS ANGELES, CA, 90064",141573659,"L"
171885,"3216 EAST 4TH ST","TULSA","OK",74104,36.155470188,-95.942188302,385,"3216 EAST 4TH ST, TULSA, OK, 74104","Match","Exact","3216 E 4TH ST, TULSA, OK, 74104",166445829,"R"
171886,"3216 GRAY LEAF DRIVE","WILMINGTON","NE",28409,NA,NA,386,"3216 GRAY LEAF DRIVE, WILMINGTON, NE, 28409","No_Match",NA,NA,NA,NA
171887,"3216 HIGHLAND ROAD","NORTHBROOK","IL",60062,42.1076552860001,-87.8599531999999,387,"3216 HIGHLAND ROAD, NORTHBROOK, IL, 60062","Match","Exact","3216 HIGHLAND RD, NORTHBROOK, IL, 60062",112370116,"L"
171888,"3216 KING SPRINGS ROAD","SMYRNA","GA",30080,33.874472815,-84.518921339,388,"3216 KING SPRINGS ROAD, SMYRNA, GA, 30080","Match","Exact","3216 KING SPRINGS RD, SMYRNA, GA, 30080",17211009,"R"
171889,"3216 M L KING AVE","FLINT","MI",48505,43.044984777,-83.704604016,389,"3216 M L KING AVE, FLINT, MI, 48505","Match","Exact","3216 M L KING AVE, FLINT, MI, 48505",69566894,"R"
171890,"3216 MAPLE DRIVE","HUNTINGDON VALLEY","PA",19006,40.1254060370001,-75.033595759,390,"3216 MAPLE DRIVE, HUNTINGDON VALLEY, PA, 19006","Match","Non_Exact","3216 MAPLE RD, HUNTINGDON VALLEY, PA, 19006",135130722,"L"
171891,"3216 MEMPHIS AVE","NEDERLAND","TX",77627,29.96785742,-94.0125746259999,391,"3216 MEMPHIS AVE, NEDERLAND, TX, 77627","Match","Exact","3216 MEMPHIS AVE, NEDERLAND, TX, 77627",73859458,"R"
171892,"3216 N HOYNE AVENUE","CHICAGO","IL",60618,41.940273027,-87.680803952,392,"3216 N HOYNE AVENUE, CHICAGO, IL, 60618","Match","Exact","3216 N HOYNE AVE, CHICAGO, IL, 60618",605236365,"L"
171893,"3216 NASHVILLE AVENUE","NEW ORLEANS","LA",70125,29.9450008160001,-90.1112416,393,"3216 NASHVILLE AVENUE, NEW ORLEANS, LA, 70125","Match","Exact","3216 NASHVILLE AVE, NEW ORLEANS, LA, 70125",191711084,"L"
171894,"3216 NW 31ST TERRACE","OAKLAND PARK","FL",33309,26.167823958,-80.186976742,394,"3216 NW 31ST TERRACE, OAKLAND PARK, FL, 33309","Match","Non_Exact","3216 NW 31ST AVE, OAKLAND PARK, FL, 33309",640917631,"L"
171895,"3216 ROOT AVENUE","CARMICHAEL","CA",95608,38.6232565060001,-121.350639279,395,"3216 ROOT AVENUE, CARMICHAEL, CA, 95608","Match","Exact","3216 ROOT AVE, CARMICHAEL, CA, 95608",645240130,"R"
171896,"3216 ROSSELLE ST","JACKSONVILLE","FL",32205,30.319062912,-81.7100623969999,396,"3216 ROSSELLE ST, JACKSONVILLE, FL, 32205","Match","Exact","3216 ROSSELLE ST, JACKSONVILLE, FL, 32205",83894305,"L"
171897,"3216 S CAMP CT","FORT WORTH","TX",76179,32.8695490900001,-97.429080131,397,"3216 S CAMP CT, FORT WORTH, TX, 76179","Match","Exact","3216 S CAMP CT, FORT WORTH, TX, 76179",102115209,"R"
171898,"3216 S GRANADA AVE","SPRING VALLEY","CA",91977,32.737049905,-116.979057142,398,"3216 S GRANADA AVE, SPRING VALLEY, CA, 91977","Match","Exact","3216 S GRANADA AVE, SPRING VALLEY, CA, 91977",195362773,"L"
171899,"3216 SAINT PHILIP ST","NEW ORLEANS","LA",70119,29.9769181360001,-90.086391915,399,"3216 SAINT PHILIP ST, NEW ORLEANS, LA, 70119","Match","Exact","3216 SAINT PHILIP ST, NEW ORLEANS, LA, 70119",191707753,"L"
171900,"3216 SOUTH VANDECAR RD","MOUNT PLEASANT","MI",48858,43.5951505420001,-84.887711533,400,"3216 SOUTH VANDECAR RD, MOUNT PLEASANT, MI, 48858","Match","Exact","3216 S VANDECAR RD, MOUNT PLEASANT, MI, 48858",110230925,"L"
171901,"3216 SUNRISE DRIVE","GUNTERSVILLE","AL",35976,34.3230517270001,-86.328997366,401,"3216 SUNRISE DRIVE, GUNTERSVILLE, AL, 35976","Match","Exact","3216 SUNRISE DR, GUNTERSVILLE, AL, 35976",99228568,"L"
171902,"3216 W 65TH","CLEVELAND","OH",44102,41.467592041,-81.730132587,402,"3216 W 65TH, CLEVELAND, OH, 44102","Match","Non_Exact","3216 W 65TH ST, CLEVELAND, OH, 44102",61105356,"R"
171903,"3216 WALTER TRAVIS DR","SARASOTA","FL",34240,27.301855818,-82.423754682,403,"3216 WALTER TRAVIS DR, SARASOTA, FL, 34240","Match","Exact","3216 WALTER TRAVIS DR, SARASOTA, FL, 34240",16379604,"L"
171904,"3216 WEST 86TH ST","CLEVELAND","OH",44102,41.4663084630001,-81.74366689,404,"3216 WEST 86TH ST, CLEVELAND, OH, 44102","Match","Exact","3216 W 86TH ST, CLEVELAND, OH, 44102",61104899,"R"
171905,"32161 PASEO SAN ESTEBAN","TEMECULA","CA",92592,33.4636813170001,-117.097166017,405,"32161 PASEO SAN ESTEBAN, TEMECULA, CA, 92592","Match","Non_Exact","32161 PSO SAN ESTEBAN, TEMECULA, CA, 92592",194828248,"L"
171906,"3217 108TH ST SW","BYRON CENTER","MI",49315,42.7682773560001,-85.7431890029999,406,"3217 108TH ST SW, BYRON CENTER, MI, 49315","Match","Exact","3217 108TH ST SW, BYRON CENTER, MI, 49315",11448515,"L"
171907,"3217 20TH ST","ROCKFORD","IL",61109,42.2266544140001,-89.0575883079999,407,"3217 20TH ST, ROCKFORD, IL, 61109","Match","Exact","3217 20TH ST, ROCKFORD, IL, 61109",49261654,"R"
171908,"3217 85TH AVE N","BROOKLYN PARK","MN",55443,45.1088711190001,-93.321823675,408,"3217 85TH AVE N, BROOKLYN PARK, MN, 55443","Match","Exact","3217 85TH AVE N, BROOKLYN PARK, MN, 55443",640742330,"R"
171909,"3217 ALGONQUIN PARKWAY","TOLEDO","OH",43606,41.6800048650001,-83.5993116669999,409,"3217 ALGONQUIN PARKWAY, TOLEDO, OH, 43606","Match","Exact","3217 ALGONQUIN PKWY, TOLEDO, OH, 43606",33933408,"L"
171910,"3217 BAYARD STREET","BUTTE","MT",59701,45.9855634100001,-112.488614034,410,"3217 BAYARD STREET, BUTTE, MT, 59701","Match","Exact","3217 BAYARD ST, BUTTE, MT, 59701",153580892,"L"
171911,"3217 CLINTON LANE","CAMP VERDE","AZ",86322,34.5157104080001,-111.793594381,411,"3217 CLINTON LANE, CAMP VERDE, AZ, 86322","Match","Non_Exact","3217 E CLINTON LN, CAMP VERDE, AZ, 86322",159479465,"R"
171912,"3217 CONNECTICUT AVE NW 74","WASHINGTON","DC",20008,38.9327798260001,-77.056879722,412,"3217 CONNECTICUT AVE NW 74, WASHINGTON, DC, 20008","Match","Exact","3217 CONNECTICUT AVE NW, WASHINGTON, DC, 20008",76221164,"R"
171913,"3217 DECATUR AVENUE APT 1","BRONX","NY",10467,40.87431415,-73.875221111,413,"3217 DECATUR AVENUE APT 1, BRONX, NY, 10467","Match","Exact","3217 DECATUR AVE, BRONX, NY, 10467",80310459,"L"
171914,"3217 FAWNWOOD DRIVE","OCOEE","FL",34761,28.6173134270001,-81.539434628,414,"3217 FAWNWOOD DRIVE, OCOEE, FL, 34761","Match","Exact","3217 FAWNWOOD DR, OCOEE, FL, 34761",647516008,"R"
171915,"3217 GAUCHO DR","LAS VEGASNV","NV",89169,36.131354779,-115.123194151,415,"3217 GAUCHO DR, LAS VEGASNV, NV, 89169","Match","Non_Exact","3217 GAUCHO DR, LAS VEGAS, NV, 89169",201871036,"R"
171916,"3217 GLADYS AVENUE","ROSEMEAD","CA",91770,34.066328938,-118.089438371,416,"3217 GLADYS AVENUE, ROSEMEAD, CA, 91770","Match","Exact","3217 GLADYS AVE, ROSEMEAD, CA, 91770",141641250,"L"
171917,"3217 HAWKS SWOOP TRAIL","PFLUGERVILLE","TX",78660,30.481428726,-97.5623682729999,417,"3217 HAWKS SWOOP TRAIL, PFLUGERVILLE, TX, 78660","Match","Exact","3217 HAWKS SWOOP TRL, PFLUGERVILLE, TX, 78660",640309907,"L"
171918,"3217 LAMANGA DRIVE","MELBOURNE","FL",32940,28.2392172290001,-80.742335232,418,"3217 LAMANGA DRIVE, MELBOURNE, FL, 32940","Match","Exact","3217 LAMANGA DR, MELBOURNE, FL, 32940",633850472,"L"
171919,"3217 LIGON STREET","RALEIGH","NC",27695,NA,NA,419,"3217 LIGON STREET, RALEIGH, NC, 27695","No_Match",NA,NA,NA,NA
171920,"3217 LORD BALTIMORE DR","BALTIMORE","MD",21244,39.3398711780001,-76.7509562,420,"3217 LORD BALTIMORE DR, BALTIMORE, MD, 21244","Match","Exact","3217 LORD BALTIMORE DR, BALTIMORE, MD, 21244",191467440,"R"
171921,"3217 NEW TOWNE ROAD","ANTIOCH","TN",37013,36.073952304,-86.607901652,421,"3217 NEW TOWNE ROAD, ANTIOCH, TN, 37013","Match","Exact","3217 NEW TOWNE RD, ANTIOCH, TN, 37013",97200145,"R"
171922,"3217 NW 10TH TERRACE UNIT302","FORT LAUDERDALE","FL",33309,26.1677257530001,-80.156641699,422,"3217 NW 10TH TERRACE UNIT302, FORT LAUDERDALE, FL, 33309","Match","Non_Exact","3217 NW 10TH TER, FORT LAUDERDALE, FL, 33309",114780634,"L"
171923,"3217 ORIOLE AVENUE","MCALLEN","TX",78501,26.2664547250001,-98.246615208,423,"3217 ORIOLE AVENUE, MCALLEN, TX, 78501","Match","Non_Exact","3217 ORIOLE AVE, MCALLEN, TX, 78504",71529972,"L"
171924,"3217 ORIOLE AVENUE","MCALLEN","TX",78504,26.2664547250001,-98.246615208,424,"3217 ORIOLE AVENUE, MCALLEN, TX, 78504","Match","Exact","3217 ORIOLE AVE, MCALLEN, TX, 78504",71529972,"L"
171925,"3217 PHILADELPHIA ROAD","ABINGDON","MD",21009,39.457018625,-76.2833810659999,425,"3217 PHILADELPHIA ROAD, ABINGDON, MD, 21009","Match","Exact","3217 PHILADELPHIA RD, ABINGDON, MD, 21009",642687717,"R"
171926,"3217 RALEIGH DRIVE","TOLEDO","OH",43606,41.680194483,-83.608742451,426,"3217 RALEIGH DRIVE, TOLEDO, OH, 43606","Match","Exact","3217 RALEIGH DR, TOLEDO, OH, 43606",33933296,"L"
171927,"3217 RED BUD ROAD","CALHOUN","GA",30701,34.5273239250001,-84.867485132,427,"3217 RED BUD ROAD, CALHOUN, GA, 30701","Match","Non_Exact","3217 RED BUD RD NE, CALHOUN, GA, 30701",57324980,"R"
171928,"3217 SANDHILL DRIVE","FAYETTEVILLE","NC",28306,35.0195474080001,-78.928162471,428,"3217 SANDHILL DRIVE, FAYETTEVILLE, NC, 28306","Match","Exact","3217 SANDHILL DR, FAYETTEVILLE, NC, 28306",64252623,"L"
171929,"3217 SPRUCEGATE CT","SAN JOSE","CA",95148,37.3222905650001,-121.782942663,429,"3217 SPRUCEGATE CT, SAN JOSE, CA, 95148","Match","Exact","3217 SPRUCEGATE CT, SAN JOSE, CA, 95148",122918176,"L"
171930,"3217 W LISBON LANE","PHOENIX","AZ",85053,33.619631258,-112.127471936,430,"3217 W LISBON LANE, PHOENIX, AZ, 85053","Match","Exact","3217 W LISBON LN, PHOENIX, AZ, 85053",639809766,"L"
171931,"3217 ZILLAH STREET","TALLAHASSEE","FL",32305,30.4042036280001,-84.268868207,431,"3217 ZILLAH STREET, TALLAHASSEE, FL, 32305","Match","Exact","3217 ZILLAH ST, TALLAHASSEE, FL, 32305",633566676,"L"
171932,"32172 490TH STREET","KASOTA","MN",56050,44.2396983130001,-93.911878794,432,"32172 490TH STREET, KASOTA, MN, 56050","Match","Exact","32172 490TH ST, KASOTA, MN, 56050",28119778,"R"
171933,"32172 A CAMINO CAPISTRANO","SAN JUAN CAPISTRANO","CA",92675,NA,NA,433,"32172 A CAMINO CAPISTRANO, SAN JUAN CAPISTRANO, CA, 92675","No_Match",NA,NA,NA,NA
171934,"32175 DUBLIN ROAD","PRINCESS ANNE","MD",21853,38.160342857,-75.6348194839999,434,"32175 DUBLIN ROAD, PRINCESS ANNE, MD, 21853","Match","Exact","32175 DUBLIN RD, PRINCESS ANNE, MD, 21853",104140751,"R"
171935,"32178 COUNTY ROUTE 143","BLACK RIVER","NY",13612,44.0042264590001,-75.7281255139999,435,"32178 COUNTY ROUTE 143, BLACK RIVER, NY, 13612","Match","Exact","32178 CO RTE 143, BLACK RIVER, NY, 13612",640577012,"L"
171936,"3218 11TH ST","GULFPORT","MS",39501,30.3649385520001,-89.1004994369999,436,"3218 11TH ST, GULFPORT, MS, 39501","Match","Exact","3218 11TH ST, GULFPORT, MS, 39501",111433951,"R"
171937,"3218 38TH AVE S","MINNEAPOLIS","MN",55406,44.9446003790001,-93.2178494189999,437,"3218 38TH AVE S, MINNEAPOLIS, MN, 55406","Match","Exact","3218 38TH AVE S, MINNEAPOLIS, MN, 55406",43640032,"R"
171938,"3218 48TH ST","DES MOINES","IA",50310,41.6241121310001,-93.68283682,438,"3218 48TH ST, DES MOINES, IA, 50310","Match","Exact","3218 48TH ST, DES MOINES, IA, 50310",65779196,"L"
171939,"3218 CASTLE OAK AVENUE","ORLANDO","FL",32808,28.584403658,-81.459118654,439,"3218 CASTLE OAK AVENUE, ORLANDO, FL, 32808","Match","Exact","3218 CASTLE OAK AVE, ORLANDO, FL, 32808",94269968,"L"
171940,"3218 CENTRAL AVENUE NE","WASHINGTON","DC",20018,38.931174598,-76.967630575,440,"3218 CENTRAL AVENUE NE, WASHINGTON, DC, 20018","Match","Exact","3218 CENTRAL AVE NE, WASHINGTON, DC, 20018",76229258,"L"
171941,"3218 DOLORES AVENUE","WARREN","MI",48091,42.472448027,-83.073311027,441,"3218 DOLORES AVENUE, WARREN, MI, 48091","Match","Exact","3218 DOLORES AVE, WARREN, MI, 48091",110669649,"R"
171942,"3218 EAST BAY DRIVE","HOMES BEACH","FL",34217,27.4918497300001,-82.707339535,442,"3218 EAST BAY DRIVE, HOMES BEACH, FL, 34217","Match","Non_Exact","3218 E BAY DR, HOLMES BEACH, FL, 34217",16296419,"L"
171943,"3218 EAST COLONIAL DRIVE SUITE G","ORLANDO","FL",32803,28.5532485900001,-81.343458976,443,"3218 EAST COLONIAL DRIVE SUITE G, ORLANDO, FL, 32803","Match","Exact","3218 E COLONIAL DR, ORLANDO, FL, 32803",638651831,"R"
171944,"3218 ESSIE RD","HOUSTON","TX",77086,29.9132776810001,-95.469620135,444,"3218 ESSIE RD, HOUSTON, TX, 77086","Match","Exact","3218 ESSIE RD, HOUSTON, TX, 77086",96229660,"L"
171945,"3218 EUCLID HEIGHTS BLVD","CLEVELAND HTS","OH",44118,NA,NA,445,"3218 EUCLID HEIGHTS BLVD, CLEVELAND HTS, OH, 44118","No_Match",NA,NA,NA,NA
171946,"3218 GONZALES ST APT 254","AUSTIN","TX",78702,30.2587402670001,-97.705134858,446,"3218 GONZALES ST APT 254, AUSTIN, TX, 78702","Match","Exact","3218 GONZALES ST, AUSTIN, TX, 78702",63948962,"L"
171947,"3218 HAMPTON DOWNS DRIVE","MONROE","NC",28112,34.919092623,-80.509126913,447,"3218 HAMPTON DOWNS DRIVE, MONROE, NC, 28112","Match","Exact","3218 HAMPTON DOWNS DR, MONROE, NC, 28112",14185984,"R"
171948,"3218 HEALY DRIVE","NASHVILLE","TN",37207,36.2408688030001,-86.776705396,448,"3218 HEALY DRIVE, NASHVILLE, TN, 37207","Match","Exact","3218 HEALY DR, NASHVILLE, TN, 37207",97186509,"R"
171949,"3218 HEATHWOOD RD","WILMINGTON","DE",19810,39.8139413590001,-75.534539561,449,"3218 HEATHWOOD RD, WILMINGTON, DE, 19810","Match","Exact","3218 HEATHWOOD RD, WILMINGTON, DE, 19810",187255967,"L"
171950,"3218 LAKEVIEW RD","MEMPHIS","TN",38116,35.0607725090001,-90.0358891819999,450,"3218 LAKEVIEW RD, MEMPHIS, TN, 38116","Match","Exact","3218 LAKEVIEW RD, MEMPHIS, TN, 38116",72909453,"L"
171951,"3218 LEYLAND TRAIL","WOODBURY","MN",55125,44.9067032350001,-92.919572597,451,"3218 LEYLAND TRAIL, WOODBURY, MN, 55125","Match","Exact","3218 LEYLAND TRL, WOODBURY, MN, 55125",97799500,"R"
171952,"3218 NORTH ROCHESTER STREET","ARLINGTON","VA",22213,38.900194049,-77.1626731219999,452,"3218 NORTH ROCHESTER STREET, ARLINGTON, VA, 22213","Match","Exact","3218 N ROCHESTER ST, ARLINGTON, VA, 22213",76477236,"L"
171953,"3218 QUITMAN","HOUSTON","TX",77026,29.783805568,-95.337325315,453,"3218 QUITMAN, HOUSTON, TX, 77026","Match","Non_Exact","3218 QUITMAN ST, HOUSTON, TX, 77026",96069071,"R"
171954,"3218 RIMSWELL COURT","MIDLOTHIAN","VA",23112,37.447860292,-77.610081663,454,"3218 RIMSWELL COURT, MIDLOTHIAN, VA, 23112","Match","Exact","3218 RIMSWELL CT, MIDLOTHIAN, VA, 23112",625164380,"R"
171955,"3218 RIVER FOREST DRIVE","RICHMOND","TX",77406,29.6094851350001,-95.787867195,455,"3218 RIVER FOREST DRIVE, RICHMOND, TX, 77406","Match","Exact","3218 RIVER FOREST DR, RICHMOND, TX, 77406",642467243,"L"
171956,"3218 ROOT AVENUE","CARMICHAEL","CA",95608,38.6232871030001,-121.350639348,456,"3218 ROOT AVENUE, CARMICHAEL, CA, 95608","Match","Exact","3218 ROOT AVE, CARMICHAEL, CA, 95608",645240130,"R"
171957,"3218 ROSE OF SHARON RD  SUITE ROTC","DURHAM","NC",27712,36.0622587660001,-78.943900586,457,"3218 ROSE OF SHARON RD  SUITE ROTC, DURHAM, NC, 27712","Match","Exact","3218 ROSE OF SHARON RD, DURHAM, NC, 27712",640627603,"R"
171958,"3218 ROSE OF SHARON RD","DURHAM","NC",27712,36.0622587660001,-78.943900586,458,"3218 ROSE OF SHARON RD, DURHAM, NC, 27712","Match","Exact","3218 ROSE OF SHARON RD, DURHAM, NC, 27712",640627603,"R"
171959,"3218 ROSE OF SHARON ROAD","DURHAM","NC",27712,36.0622587660001,-78.943900586,459,"3218 ROSE OF SHARON ROAD, DURHAM, NC, 27712","Match","Exact","3218 ROSE OF SHARON RD, DURHAM, NC, 27712",640627603,"R"
171960,"3218 SIEBER DR","ARLINGTON","TX",76016,32.6929140250001,-97.1613834459999,460,"3218 SIEBER DR, ARLINGTON, TX, 76016","Match","Exact","3218 SIEBER DR, ARLINGTON, TX, 76016",101955951,"R"
171961,"3218 TIDEWATER DRIVE","HOUSTON","TX",77045,29.634139207,-95.4245704579999,461,"3218 TIDEWATER DRIVE, HOUSTON, TX, 77045","Match","Exact","3218 TIDEWATER DR, HOUSTON, TX, 77045",96087511,"R"
171962,"3218 YORK DR","MANSFIELD","TX",76063,32.609953881,-97.1442594229999,462,"3218 YORK DR, MANSFIELD, TX, 76063","Match","Exact","3218 YORK DR, MANSFIELD, TX, 76063",102129819,"R"
171963,"3218-W CHELTENHAM AVE NUM  20","PHILADELPHIA","PA",19150,40.0820410010001,-75.172009992,463,"3218-W CHELTENHAM AVE NUM  20, PHILADELPHIA, PA, 19150","Match","Non_Exact","3218 W CHELTENHAM AVE, PHILADELPHIA, PA, 19150",635090731,"L"
171964,"32181 BLACK WIDOW DRIVE","CONIFER","CO",80433,39.557445966,-105.369809385,464,"32181 BLACK WIDOW DRIVE, CONIFER, CO, 80433","Match","Exact","32181 BLACK WIDOW DR, CONIFER, CO, 80433",177731471,"R"
171965,"32183 OLD HIGHWAY 395","FALLBROOK","CA",92028,NA,NA,465,"32183 OLD HIGHWAY 395, FALLBROOK, CA, 92028","No_Match",NA,NA,NA,NA
171966,"3219 174TH AVE NE","REDMOND","WA",98052,47.638667275,-122.108174723,466,"3219 174TH AVE NE, REDMOND, WA, 98052","Match","Exact","3219 174TH AVE NE, REDMOND, WA, 98052",629177839,"L"
171967,"3219 AINSWORTH LANE","RICHMOND","VA",23223,37.5494540110001,-77.350058452,467,"3219 AINSWORTH LANE, RICHMOND, VA, 23223","Match","Exact","3219 AINSWORTH LN, RICHMOND, VA, 23223",624551262,"L"
171968,"3219 ALLENDALE DRIVE","BLOOMINGTON","IN",47401,39.1348089190001,-86.515919716,468,"3219 ALLENDALE DRIVE, BLOOMINGTON, IN, 47401","Match","Non_Exact","3219 E ALLENDALE DR, BLOOMINGTON, IN, 47401",42324528,"L"
171969,"3219 ARBOR RD","LAKEWOOD","CA",90712,33.8431667040001,-118.154554299,469,"3219 ARBOR RD, LAKEWOOD, CA, 90712","Match","Exact","3219 ARBOR RD, LAKEWOOD, CA, 90712",642863528,"L"
171970,"3219 BROWNSVILLE ROAD","TREVOSE","PA",19053,40.141689657,-74.984485137,470,"3219 BROWNSVILLE ROAD, TREVOSE, PA, 19053","Match","Exact","3219 BROWNSVILLE RD, TREVOSE, PA, 19053",134709745,"R"
171971,"3219 E CAMELBACK RD - STE 376","PHOENIX","AZ",85018,33.5099610130001,-112.011546352,471,"3219 E CAMELBACK RD - STE 376, PHOENIX, AZ, 85018","Match","Non_Exact","3219 E CAMELBACK RD, PHOENIX, AZ, 85018",128219503,"R"
171972,"3219 E CAMELBACK RD NO 361","PHOENIX","AZ",85018,NA,NA,472,"3219 E CAMELBACK RD NO 361, PHOENIX, AZ, 85018","No_Match",NA,NA,NA,NA
171973,"3219 E CAMELBACK ROAD SUITE 403","PHOENIX","AZ",85018,33.5099610130001,-112.011546352,473,"3219 E CAMELBACK ROAD SUITE 403, PHOENIX, AZ, 85018","Match","Non_Exact","3219 E CAMELBACK RD, PHOENIX, AZ, 85018",128219503,"R"
171974,"3219 E CHATTAROY RD","CHATTAROY","WA",99003,47.889386238,-117.364473222,474,"3219 E CHATTAROY RD, CHATTAROY, WA, 99003","Match","Exact","3219 E CHATTAROY RD, CHATTAROY, WA, 99003",189849452,"R"
171975,"3219 E KERRY LANE","PHOENIX","AZ",85050,33.6609450070001,-112.012676296,475,"3219 E KERRY LANE, PHOENIX, AZ, 85050","Match","Exact","3219 E KERRY LN, PHOENIX, AZ, 85050",243972693,"R"
171976,"3219 EAGLE WATCH DRIVE","KISSIMMEE","FL",34746,28.222353947,-81.438353515,476,"3219 EAGLE WATCH DRIVE, KISSIMMEE, FL, 34746","Match","Exact","3219 EAGLE WATCH DR, KISSIMMEE, FL, 34746",176698723,"L"
171977,"3219 EAST 137TH","CLEVELAND","OH",44120,41.4714948970001,-81.5875445139999,477,"3219 EAST 137TH, CLEVELAND, OH, 44120","Match","Non_Exact","3219 E 137TH ST, CLEVELAND, OH, 44120",642633980,"L"
171978,"3219 GREENVIEW ROAD","SOUTH CHARLESTON","WV",25309,38.312440053,-81.7924916649999,478,"3219 GREENVIEW ROAD, SOUTH CHARLESTON, WV, 25309","Match","Exact","3219 GREENVIEW RD, S CHARLESTON, WV, 25309",78671115,"L"
171979,"3219 HALEYS WAY SE CONYERS","GA","GA",30013,33.6046133070001,-83.997706073,479,"3219 HALEYS WAY SE CONYERS, GA, GA, 30013","Match","Non_Exact","3219 HALEYS WAY SE, CONYERS, GA, 30013",23745985,"L"
171980,"3219 HALLSPORT RD","WELLSVILLE","NY",14895,42.0837318050001,-77.909304713,480,"3219 HALLSPORT RD, WELLSVILLE, NY, 14895","Match","Exact","3219 HALLSPORT RD, WELLSVILLE, NY, 14895",640436095,"L"
171981,"3219 HARLSTONE DR","DULUTH","GA",30096,33.9558041870001,-84.1160286149999,481,"3219 HARLSTONE DR, DULUTH, GA, 30096","Match","Exact","3219 HARLSTONE DR, DULUTH, GA, 30096",636090280,"L"
171982,"3219 IA-24","JACKSON JUNCTION","IA",52171,43.115575805,-92.0310717139999,482,"3219 IA-24, JACKSON JUNCTION, IA, 52171","Match","Exact","3219 STATE HWY 24, JACKSON JUNCTION, IA, 52171",27516440,"R"
171983,"3219 KINGS MOUNTAIN DR","KINGWOOD","TX",77345,30.082801526,-95.189667852,483,"3219 KINGS MOUNTAIN DR, KINGWOOD, TX, 77345","Match","Exact","3219 KINGS MOUNTAIN DR, KINGWOOD, TX, 77345",96553869,"L"
171984,"3219 LANDMARK STREET SUITE 3-A","GREENVILLE","NC",27834,35.57189413,-77.387014573,484,"3219 LANDMARK STREET SUITE 3-A, GREENVILLE, NC, 27834","Match","Exact","3219 LANDMARK ST, GREENVILLE, NC, 27834",80017156,"R"
171985,"3219 MEADOWFIELD DRIVE","ARNOLD","MO",63010,38.4162112290001,-90.401234201,485,"3219 MEADOWFIELD DRIVE, ARNOLD, MO, 63010","Match","Exact","3219 MEADOWFIELD DR, ARNOLD, MO, 63010",62810274,"R"
171986,"3219 NORTH AVENUE","MILWAUKEE","WI",53216,NA,NA,486,"3219 NORTH AVENUE, MILWAUKEE, WI, 53216","No_Match",NA,NA,NA,NA
171987,"3219 NORTH AVENUE","RICHMOND","VA",23222,37.575124182,-77.432477572,487,"3219 NORTH AVENUE, RICHMOND, VA, 23222","Match","Exact","3219 NORTH AVE, RICHMOND, VA, 23222",201539602,"R"
171988,"3219 OAK ROAD","CLEVELAND HEIGHTS","OH",44118,41.5141698410001,-81.564627875,488,"3219 OAK ROAD, CLEVELAND HEIGHTS, OH, 44118","Match","Exact","3219 OAK RD, CLEVELAND HEIGHTS, OH, 44118",61123208,"L"
171989,"3219 PARKWOOD SCHOOL RD","MONROE","NC",28112,34.899844393,-80.628331886,489,"3219 PARKWOOD SCHOOL RD, MONROE, NC, 28112","Match","Exact","3219 PARKWOOD SCHOOL RD, MONROE, NC, 28112",216854007,"L"
171990,"3219 SEQUOIA AVENUE","BALTIMORE","MD",21215,39.3284631770001,-76.667609488,490,"3219 SEQUOIA AVENUE, BALTIMORE, MD, 21215","Match","Exact","3219 SEQUOIA AVE, BALTIMORE, MD, 21215",206406456,"L"
171991,"3219 SOUTH METROPOLITAN WAY","SALT LAKE CITY","UT",84109,40.7015259680001,-111.80485326,491,"3219 SOUTH METROPOLITAN WAY, SALT LAKE CITY, UT, 84109","Match","Exact","3219 S METROPOLITAN WAY, SALT LAKE CITY, UT, 84109",176094374,"L"
171992,"3219 TRIPLE MEADOW","SAN ANTONIO","TX",78263,29.3919088390001,-98.339554766,492,"3219 TRIPLE MEADOW, SAN ANTONIO, TX, 78263","Match","Exact","3219 TRIPLE MEADOW, SAN ANTONIO, TX, 78263",635868483,"L"
171993,"3219 UNIVERSITY AVE UNIT 17","COLUMBUS","GA",31907,32.4947314820001,-84.9322596279999,493,"3219 UNIVERSITY AVE UNIT 17, COLUMBUS, GA, 31907","Match","Exact","3219 UNIVERSITY AVE, COLUMBUS, GA, 31907",98940393,"L"
171994,"3219 W BELLE PLAINE AVE APT 2B","CHICAGO","IL",60618,41.955723375,-87.7090811639999,494,"3219 W BELLE PLAINE AVE APT 2B, CHICAGO, IL, 60618","Match","Non_Exact","3219 W BELLE PLAINE AVE, CHICAGO, IL, 60618",605188632,"L"
171995,"3219 WINTERCREEPER DR","LITHONIA","GA",30038,33.688819295,-84.196597073,495,"3219 WINTERCREEPER DR, LITHONIA, GA, 30038","Match","Exact","3219 WINTERCREEPER DR, LITHONIA, GA, 30038",23373032,"R"
171996,"32191 SPEARIN RD","SALISBURY","MD",21804,38.2885651120001,-75.495266412,496,"32191 SPEARIN RD, SALISBURY, MD, 21804","Match","Exact","32191 SPEARIN RD, SALISBURY, MD, 21804",114455843,"L"
171997,"32192 ELK GROVE CT","TEMECULA","CA",92592,33.461965729,-117.098296947,497,"32192 ELK GROVE CT, TEMECULA, CA, 92592","Match","Exact","32192 ELK GROVE CT, TEMECULA, CA, 92592",618701577,"L"
171998,"32197 WOODFIELD DRIVE","AVON LAKE","OH",44012,41.504376833,-81.994141332,498,"32197 WOODFIELD DRIVE, AVON LAKE, OH, 44012","Match","Exact","32197 WOODFIELD DR, AVON LAKE, OH, 44012",55422057,"R"
171999,"32199 CTY RD 33","LAKE CITY","MN",55041,44.3677103650001,-92.326302678,499,"32199 CTY RD 33, LAKE CITY, MN, 55041","Match","Exact","32199 CO RD 33, LAKE CITY, MN, 55041",31635120,"L"
172000,"322 1/2 47TH STREET NORTH","SAINT PETERSBURG","FL",33713,27.7748614120001,-82.69706996,500,"322 1/2 47TH STREET NORTH, SAINT PETERSBURG, FL, 33713","Match","Exact","322 47TH ST N, SAINT PETERSBURG, FL, 33713",124700706,"L"
