"ID","Address","City","State","Zip","lat","long","id","input_address","match_indicator","match_type","matched_address","tiger_line_id","tiger_side"
304001,"8600 W IRLO BRONSON MEMORIAL HWY","KISSIMMEE","FL",34747,28.346837065,-81.631635707,1,"8600 W IRLO BRONSON MEMORIAL HWY, KISSIMMEE, FL, 34747","Match","Exact","8600 W IRLO BRONSON MEMORIAL HWY, KISSIMMEE, FL, 34747",638654348,"R"
304002,"8600 WEST 159TH STREET SUITE 11","ORLAND PARK","IL",60462,41.6017516380001,-87.829955946,2,"8600 WEST 159TH STREET SUITE 11, ORLAND PARK, IL, 60462","Match","Exact","8600 W 159TH ST, ORLAND PARK, IL, 60462",111701309,"R"
304003,"8600 WILLIAM MOULTRIE DRIVE","NORTH CHARLESTON","SC",29420,32.934818814,-80.100012465,3,"8600 WILLIAM MOULTRIE DRIVE, NORTH CHARLESTON, SC, 29420","Match","Exact","8600 WILLIAM MOULTRIE DR, N CHARLESTON, SC, 29420",647847243,"R"
304004,"8600 WURZBACH ROAD SUITE 1000","SAN ANTONIO","TX",78240,29.521699889,-98.571683564,4,"8600 WURZBACH ROAD SUITE 1000, SAN ANTONIO, TX, 78240","Match","Exact","8600 WURZBACH RD, SAN ANTONIO, TX, 78240",101545150,"R"
304005,"8601 /12 8TH AVENUE S SUITE 9","SEATTLE","WA",98111,47.526393361,-122.322924881,5,"8601 /12 8TH AVENUE S SUITE 9, SEATTLE, WA, 98111","Match","Non_Exact","8601 8TH AVE S, SEATTLE, WA, 98108",186592426,"R"
304006,"8601 200TH AVENUE","BRISTOL","WI",53104,42.5524264910001,-88.050342187,6,"8601 200TH AVENUE, BRISTOL, WI, 53104","Match","Exact","8601 200TH AVE, BRISTOL, WI, 53104",79811996,"L"
304007,"8601 8TH AVE S","SEATTLE","WA",98108,47.526393361,-122.322924881,7,"8601 8TH AVE S, SEATTLE, WA, 98108","Match","Exact","8601 8TH AVE S, SEATTLE, WA, 98108",186592426,"R"
304008,"8601 AZALEA TRAIL","AUSTIN","TX",78759,30.37523335,-97.7426854349999,8,"8601 AZALEA TRAIL, AUSTIN, TX, 78759","Match","Exact","8601 AZALEA TRL, AUSTIN, TX, 78759",63928046,"R"
304009,"8601 COMMODITY CIRCLE","ORLANDO","FL",32819,28.4463001820001,-81.4318869429999,9,"8601 COMMODITY CIRCLE, ORLANDO, FL, 32819","Match","Exact","8601 COMMODITY CIR, ORLANDO, FL, 32819",606164550,"L"
304010,"8601 DUNWOODY PL STE 444","ATLANTA","GA",30350,33.9888696950001,-84.341431265,10,"8601 DUNWOODY PL STE 444, ATLANTA, GA, 30350","Match","Exact","8601 DUNWOODY PL, ATLANTA, GA, 30350",17354449,"R"
304011,"8601 DUNWOODY PLACE STE 336","ATLANTA","GA",30350,NA,NA,11,"8601 DUNWOODY PLACE STE 336, ATLANTA, GA, 30350","No_Match",NA,NA,NA,NA
304012,"8601 E 55TH ST S","DERBY","KS",67037,37.591790562,-97.237369219,12,"8601 E 55TH ST S, DERBY, KS, 67037","Match","Exact","8601 E 55TH ST S, DERBY, KS, 67037",115708217,"L"
304013,"8601 E B STREET","TACOMA","WA",98445,47.1800460320001,-122.428843484,13,"8601 E B STREET, TACOMA, WA, 98445","Match","Exact","8601 E B ST, TACOMA, WA, 98445",184628820,"L"
304014,"8601 EDINBROOKLYN KING","BROOKLYN PARK","MN",55443,NA,NA,14,"8601 EDINBROOKLYN KING, BROOKLYN PARK, MN, 55443","No_Match",NA,NA,NA,NA
304015,"8601 ICE HOUSE DRIVE 10304","NORTH RICHLAND HILLS","TX",76180,32.8616229310001,-97.19954447,15,"8601 ICE HOUSE DRIVE 10304, NORTH RICHLAND HILLS, TX, 76180","Match","Exact","8601 ICE HOUSE DR, NORTH RICHLAND HILLS, TX, 76180",642827640,"L"
304016,"8601 LINCOLN BOULEVARD UNIT 2414","LOS ANGELES","CA",90045,33.959682881,-118.419246844,16,"8601 LINCOLN BOULEVARD UNIT 2414, LOS ANGELES, CA, 90045","Match","Exact","8601 LINCOLN BLVD, LOS ANGELES, CA, 90045",648188234,"R"
304017,"8601 LOOP 570","WALL","TX",76957,31.374005061,-100.298694222,17,"8601 LOOP 570, WALL, TX, 76957","Match","Exact","8601 LOOP 570, WALL, TX, 76957",607992511,"L"
304018,"8601 MISSION RIDGE DRIVE","EDMOND","OK",73025,35.742920676,-97.518456857,18,"8601 MISSION RIDGE DRIVE, EDMOND, OK, 73025","Match","Non_Exact","8601 MISSION RIDGE RD, EDMOND, OK, 73025",636766029,"R"
304019,"8601 MORNINGSIDE RD","GUTHRIE","OK",73044,35.7903091920001,-97.57712768,19,"8601 MORNINGSIDE RD, GUTHRIE, OK, 73044","Match","Exact","8601 MORNINGSIDE RD, GUTHRIE, OK, 73044",618338099,"L"
304020,"8601 N FOX CROFT LANE","FOX POINT","WI",53217,43.1726647150001,-87.914017861,20,"8601 N FOX CROFT LANE, FOX POINT, WI, 53217","Match","Exact","8601 N FOX CROFT LN, FOX POINT, WI, 53217",77735096,"L"
304021,"8601 NE 89TH PLACE","KANSAS CITY","MO",64157,39.254630655,-94.4764414969999,21,"8601 NE 89TH PLACE, KANSAS CITY, MO, 64157","Match","Exact","8601 NE 89TH PL, KANSAS CITY, MO, 64157",627743142,"R"
304022,"8601 PALMETTO ST","NEW ORLEANS","LA",70118,29.969593294,-90.114269986,22,"8601 PALMETTO ST, NEW ORLEANS, LA, 70118","Match","Exact","8601 PALMETTO ST, NEW ORLEANS, LA, 70118",191700798,"R"
304023,"8601 S LOOMIS BLVD","CHICAGO","IL",60620,41.737581291,-87.658239367,23,"8601 S LOOMIS BLVD, CHICAGO, IL, 60620","Match","Exact","8601 S LOOMIS BLVD, CHICAGO, IL, 60620",604996031,"L"
304024,"8601 SE CAUSEY AVENUE","HAPPY VALLEY","OR",97086,45.4411896220001,-122.574010155,24,"8601 SE CAUSEY AVENUE, HAPPY VALLEY, OR, 97086","Match","Exact","8601 SE CAUSEY AVE, HAPPY VALLEY, OR, 97086",633303401,"L"
304025,"8601 SEASONS WAY","LANHAM","MD",20706,38.985315293,-76.857274989,25,"8601 SEASONS WAY, LANHAM, MD, 20706","Match","Exact","8601 SEASONS WAY, LANHAM, MD, 20706",76345999,"R"
304026,"8601 SIX FORKS ROAD SUITE 400","RALEIGH","NC",27615,35.897084588,-78.650301245,26,"8601 SIX FORKS ROAD SUITE 400, RALEIGH, NC, 27615","Match","Exact","8601 SIX FORKS RD, RALEIGH, NC, 27615",624109932,"L"
304027,"8601 SW 68TH CT APT 1","MIAMI","FL",33156,25.690994398,-80.305545627,27,"8601 SW 68TH CT APT 1, MIAMI, FL, 33156","Match","Non_Exact","8601 SW 68TH CT, MIAMI, FL, 33156",115985330,"L"
304028,"8601 TARTAN DR N","CICERO","NY",13039,43.185135302,-76.0890313259999,28,"8601 TARTAN DR N, CICERO, NY, 13039","Match","Exact","8601 TARTAN DR N, CICERO, NY, 13039",46581746,"R"
304029,"8601 VERTEX BLVD","AUSTIN","TX",78747,NA,NA,29,"8601 VERTEX BLVD, AUSTIN, TX, 78747","No_Match",NA,NA,NA,NA
304030,"8601 W 710 RD","HULBERT","OK",74441,35.987778844,-95.144046972,30,"8601 W 710 RD, HULBERT, OK, 74441","Match","Exact","8601 W 710 RD, HULBERT, OK, 74441",53644161,"R"
304031,"8601 W FOOTHILL DR","PEORIA","AZ",85383,33.6868570030001,-112.244251948,31,"8601 W FOOTHILL DR, PEORIA, AZ, 85383","Match","Exact","8601 W FOOTHILL DR, PEORIA, AZ, 85383",637533511,"R"
304032,"8601 WEDNESBURY LANE APT 105","HOUSTON","TX",77074,29.685862163,-95.525976185,32,"8601 WEDNESBURY LANE APT 105, HOUSTON, TX, 77074","Match","Exact","8601 WEDNESBURY LN, HOUSTON, TX, 77074",96604097,"L"
304033,"8601 WHEATFIELD WAY","ELLICOTT CITY","MD",21043,39.2454896410001,-76.811070391,33,"8601 WHEATFIELD WAY, ELLICOTT CITY, MD, 21043","Match","Exact","8601 WHEATFIELD WAY, ELLICOTT CITY, MD, 21043",158934100,"R"
304034,"8601 WOODWARD AVENUE SUITE 100","DETROIT","MI",48202,42.378853232,-83.0790809229999,34,"8601 WOODWARD AVENUE SUITE 100, DETROIT, MI, 48202","Match","Exact","8601 WOODWARD AVE, DETROIT, MI, 48202",95475487,"L"
304035,"8601 YOUNGERMAN CT UNIT 9","JACKSONVILLE","FL",32244,30.195507069,-81.751893947,35,"8601 YOUNGERMAN CT UNIT 9, JACKSONVILLE, FL, 32244","Match","Exact","8601 YOUNGERMAN CT, JACKSONVILLE, FL, 32244",83946558,"R"
304036,"8601A CIMA OAK LN","AUSTIN","TX",78759,30.3755976350001,-97.747298098,36,"8601A CIMA OAK LN, AUSTIN, TX, 78759","Match","Exact","8601 CIMA OAK LN, AUSTIN, TX, 78759",63956171,"R"
304037,"8602 144TH ST","BRIARWOOD","NY",11435,NA,NA,37,"8602 144TH ST, BRIARWOOD, NY, 11435","No_Match",NA,NA,NA,NA
304038,"8602 28TH WAY SE","OLYMPIA","WA",98513,47.020889417,-122.756488494,38,"8602 28TH WAY SE, OLYMPIA, WA, 98513","Match","Exact","8602 28TH WAY SE, OLYMPIA, WA, 98513",624796851,"L"
304039,"8602 BRIDGEPORT WAY SW","LAKEWOOD","WA",98498,NA,NA,39,"8602 BRIDGEPORT WAY SW, LAKEWOOD, WA, 98498","No_Match",NA,NA,NA,NA
304040,"8602 BRIDGEPORT WAY SW","LAKEWOOD","WA",98499,47.1793238270001,-122.518124313,40,"8602 BRIDGEPORT WAY SW, LAKEWOOD, WA, 98499","Match","Exact","8602 BRIDGEPORT WAY SW, LAKEWOOD, WA, 98499",184622681,"R"
304041,"8602 EAGLE GLEN TERRACE","FAIRFAX STATION","VA",22039,38.7267559210001,-77.278590876,41,"8602 EAGLE GLEN TERRACE, FAIRFAX STATION, VA, 22039","Match","Exact","8602 EAGLE GLEN TER, FAIRFAX STATION, VA, 22039",645973620,"R"
304042,"8602 LARK PLACE","LAUREL","MD",20724,39.1016513960001,-76.814009233,42,"8602 LARK PLACE, LAUREL, MD, 20724","Match","Exact","8602 LARK PL, LAUREL, MD, 20724",68200234,"R"
304043,"8602 LOCKWOOD PL N","INDIANAPOLIS","IN",46217,39.6409884220001,-86.164518269,43,"8602 LOCKWOOD PL N, INDIANAPOLIS, IN, 46217","Match","Non_Exact","8602 LOCKWOOD PL, INDIANAPOLIS, IN, 46217",108032095,"L"
304044,"8602 MINERAL SPRINGS LN","HUMBLE","TX",77396,29.9286443710001,-95.257357747,44,"8602 MINERAL SPRINGS LN, HUMBLE, TX, 77396","Match","Exact","8602 MINERAL SPRINGS LN, HUMBLE, TX, 77396",624603542,"R"
304045,"8602 REDSTONE HILLS DRIVE","CYPRESS","TX",77433,29.9049072710001,-95.728331983,45,"8602 REDSTONE HILLS DRIVE, CYPRESS, TX, 77433","Match","Non_Exact","8602 REDSTONE HILL DR, CYPRESS, TX, 77433",626962411,"L"
304046,"8602 SCHOFIELD AVENUE","WESTON","WI",54476,44.8984174490001,-89.5098758,46,"8602 SCHOFIELD AVENUE, WESTON, WI, 54476","Match","Exact","8602 SCHOFIELD AVE, WESTON, WI, 54476",117161538,"L"
304047,"8602 STABLE CREST BLVD","HOUSTON","TX",77024,29.7715557990001,-95.457660816,47,"8602 STABLE CREST BLVD, HOUSTON, TX, 77024","Match","Exact","8602 STABLE CREST BLVD, HOUSTON, TX, 77024",96631504,"R"
304048,"8602 STAPLES MILL RD","HENRICO","VA",23228,37.6302215260001,-77.507058629,48,"8602 STAPLES MILL RD, HENRICO, VA, 23228","Match","Exact","8602 STAPLES MILL RD, HENRICO, VA, 23228",106688595,"L"
304049,"8602 SWEET AUTUMN DRIVE","BALTIMORE","MD",21244,39.3224478500001,-76.815498474,49,"8602 SWEET AUTUMN DRIVE, BALTIMORE, MD, 21244","Match","Exact","8602 SWEET AUTUMN DR, BALTIMORE, MD, 21244",191565013,"R"
304050,"8602 WITHERS RIDGE DRIVE","RICHMOND","TX",77407,29.681097042,-95.681434458,50,"8602 WITHERS RIDGE DRIVE, RICHMOND, TX, 77407","Match","Exact","8602 WITHERS RIDGE DR, RICHMOND, TX, 77407",623688769,"L"
304051,"86023 HILL VALLEY AVE","YULEE","FL",32097,30.6531299750001,-81.5820515039999,51,"86023 HILL VALLEY AVE, YULEE, FL, 32097","Match","Exact","86023 HILL VALLEY AVE, YULEE, FL, 32097",610871992,"L"
304052,"8603 AVE P","LUBBOCK","TX",79423,33.5159052010001,-101.853047572,52,"8603 AVE P, LUBBOCK, TX, 79423","Match","Exact","8603 AVE P, LUBBOCK, TX, 79423",185328120,"R"
304053,"8603 BERRYBROOK LN","CHARLOTTE","NC",28269,35.3155722550001,-80.826154677,53,"8603 BERRYBROOK LN, CHARLOTTE, NC, 28269","Match","Exact","8603 BERRYBROOK LN, CHARLOTTE, NC, 28269",645593948,"L"
304054,"8603 CR 6935","LUBBOCK","TX",79407,33.5429072970001,-102.006710603,54,"8603 CR 6935, LUBBOCK, TX, 79407","Match","Exact","8603 CO RD 6935, LUBBOCK, TX, 79407",185269004,"R"
304055,"8603 E 116 ST","KANSAS CITY","MO",64134,38.9128632320001,-94.491554064,55,"8603 E 116 ST, KANSAS CITY, MO, 64134","Match","Exact","8603 E 116TH ST, KANSAS CITY, MO, 64134",91466564,"R"
304056,"8603 E EASTRIDGE","PRESCOTT VALLEY","AZ",86314,34.583895968,-112.317745642,56,"8603 E EASTRIDGE, PRESCOTT VALLEY, AZ, 86314","Match","Non_Exact","8603 E EASTRIDGE DR, PRESCOTT VALLEY, AZ, 86314",617924998,"R"
304057,"8603 NW 59 COURT","TAMARAC","FL",33321,26.1992737960001,-80.265979187,57,"8603 NW 59 COURT, TAMARAC, FL, 33321","Match","Exact","8603 NW 59TH CT, TAMARAC, FL, 33321",114701654,"R"
304058,"8603 POWDERHOUSE ROAD","CHEYENNE","WY",82009,41.1971308130001,-104.794537726,58,"8603 POWDERHOUSE ROAD, CHEYENNE, WY, 82009","Match","Exact","8603 POWDERHOUSE RD, CHEYENNE, WY, 82009",160177687,"R"
304059,"8603 SOLANO DR","HELOTES","TX",78023,29.5939938810001,-98.6535747949999,59,"8603 SOLANO DR, HELOTES, TX, 78023","Match","Exact","8603 SOLANO DR, HELOTES, TX, 78023",101744154,"R"
304060,"8603 W 183RD ST S","MOUNDS","OK",74047,35.898275864,-96.092661913,60,"8603 W 183RD ST S, MOUNDS, OK, 74047","Match","Exact","8603 W 183RD ST S, MOUNDS, OK, 74047",635497000,"R"
304061,"8604 ALAFIA HILLS DRIVE","PLANT CITY","FL",33567,27.8849895320001,-82.124642541,61,"8604 ALAFIA HILLS DRIVE, PLANT CITY, FL, 33567","Match","Exact","8604 ALAFIA HILLS DR, PLANT CITY, FL, 33567",625275728,"R"
304062,"8604 BRAND CT","CLINTON","MD",20735,38.770929816,-76.872097449,62,"8604 BRAND CT, CLINTON, MD, 20735","Match","Exact","8604 BRAND CT, CLINTON, MD, 20735",76320802,"L"
304063,"8604 BRANDON ST","HOUSTON","TX",77051,29.667885149,-95.3694312759999,63,"8604 BRANDON ST, HOUSTON, TX, 77051","Match","Exact","8604 BRANDON ST, HOUSTON, TX, 77051",96088723,"R"
304064,"8604 CATTAIL LANE","BAKERSFIELD","CA",93312,35.405188858,-119.097591367,64,"8604 CATTAIL LANE, BAKERSFIELD, CA, 93312","Match","Exact","8604 CATTAIL LN, BAKERSFIELD, CA, 93312",109137163,"R"
304065,"8604 CHATHAM CT","TALLAHASSEE","FL",32311,30.4168259190001,-84.1318739609999,65,"8604 CHATHAM CT, TALLAHASSEE, FL, 32311","Match","Exact","8604 CHATHAM CT, TALLAHASSEE, FL, 32311",82857827,"L"
304066,"8604 COMMERCE PARK DRIVE","SELLERSBURG","IN",47172,NA,NA,66,"8604 COMMERCE PARK DRIVE, SELLERSBURG, IN, 47172","No_Match",NA,NA,NA,NA
304067,"8604 DELEGGE ROAD","ROSEDALE","MD",21237,39.3363539900001,-76.4993466669999,67,"8604 DELEGGE ROAD, ROSEDALE, MD, 21237","Match","Exact","8604 DELEGGE RD, ROSEDALE, MD, 21237",191478704,"L"
304068,"8604 DOGWOOD CT","DOUGLASVILLE","GA",30135,33.7219110880001,-84.7486340199999,68,"8604 DOGWOOD CT, DOUGLASVILLE, GA, 30135","Match","Exact","8604 DOGWOOD CT, DOUGLASVILLE, GA, 30135",16651466,"R"
304069,"8604 E VIA DE LOS LIBROS","SCOTTSDALE","AZ",85258,33.544594945,-111.895048217,69,"8604 E VIA DE LOS LIBROS, SCOTTSDALE, AZ, 85258","Match","Exact","8604 E VIA DE LOS LIBROS, SCOTTSDALE, AZ, 85258",128228811,"L"
304070,"8604 HARFORD ROAD","BALTIMORE","MD",21234,39.3818309930001,-76.535936744,70,"8604 HARFORD ROAD, BALTIMORE, MD, 21234","Match","Exact","8604 HARFORD RD, BALTIMORE, MD, 21234",191476984,"L"
304071,"8604 HARFORD ROAD","PARKVILLE","MD",21234,39.3818309930001,-76.535936744,71,"8604 HARFORD ROAD, PARKVILLE, MD, 21234","Match","Exact","8604 HARFORD RD, PARKVILLE, MD, 21234",191476984,"L"
304072,"8604 HOLLY LANE","URBANDALE","IA",50322,41.6390478020001,-93.73690548,72,"8604 HOLLY LANE, URBANDALE, IA, 50322","Match","Exact","8604 HOLLY LN, URBANDALE, IA, 50322",65793016,"R"
304073,"8604 HWY 403","CHARLESTOWN","IN",47111,38.4460878890001,-85.6836356539999,73,"8604 HWY 403, CHARLESTOWN, IN, 47111","Match","Exact","8604 HWY 403, CHARLESTOWN, IN, 47111",641282554,"R"
304074,"8604 MARIETTA CT","FORT WORTH","TX",76123,32.6164584150001,-97.3692702659999,74,"8604 MARIETTA CT, FORT WORTH, TX, 76123","Match","Exact","8604 MARIETTA CT, FORT WORTH, TX, 76123",102125329,"R"
304075,"8604 ONYX DRIVE SW UNIT B","LAKEWOOD","WA",98498,47.185772603,-122.551606071,75,"8604 ONYX DRIVE SW UNIT B, LAKEWOOD, WA, 98498","Match","Exact","8604 ONYX DR SW, LAKEWOOD, WA, 98498",650023888,"L"
304076,"8604 PINE CT","YPSILANTI","MI",48198,42.265320945,-83.590202736,76,"8604 PINE CT, YPSILANTI, MI, 48198","Match","Exact","8604 PINE CT, YPSILANTI, MI, 48198",26021111,"R"
304077,"8604 REDWATER DRIVE","ANTELOPE","CA",95843,38.7251900300001,-121.384975504,77,"8604 REDWATER DRIVE, ANTELOPE, CA, 95843","Match","Exact","8604 REDWATER DR, ANTELOPE, CA, 95843",133371919,"R"
304078,"8604 RYAN RIDGE LOOP","MONTGOMERY","AL",36117,32.3470866220001,-86.134300465,78,"8604 RYAN RIDGE LOOP, MONTGOMERY, AL, 36117","Match","Exact","8604 RYAN RIDGE LOOP, MONTGOMERY, AL, 36117",616681770,"R"
304079,"8604 STARVIEW ST","TEMPLE","TX",76502,31.118463637,-97.43451669,79,"8604 STARVIEW ST, TEMPLE, TX, 76502","Match","Exact","8604 STARVIEW ST, TEMPLE, TX, 76502",146228943,"R"
304080,"8605 E CLIFFSIDE DR","ANAHEIM","CA",92808,33.8681003790001,-117.735405975,80,"8605 E CLIFFSIDE DR, ANAHEIM, CA, 92808","Match","Exact","8605 E CLIFFSIDE DR, ANAHEIM, CA, 92808",645539740,"L"
304081,"8605 N WINAN AVE","KANSAS CITY","MO",64153,39.250569059,-94.69705441,81,"8605 N WINAN AVE, KANSAS CITY, MO, 64153","Match","Exact","8605 N WINAN AVE, KANSAS CITY, MO, 64153",39704440,"L"
304082,"8605 ORCHARD HILL DR","PLANO","TX",75025,33.094994189,-96.741812838,82,"8605 ORCHARD HILL DR, PLANO, TX, 75025","Match","Exact","8605 ORCHARD HILL DR, PLANO, TX, 75025",123547300,"R"
304083,"8605 PIN OAK DRIVE","SPRINGFIELD","VA",22153,38.7237970830001,-77.208074671,83,"8605 PIN OAK DRIVE, SPRINGFIELD, VA, 22153","Match","Exact","8605 PIN OAK DR, SPRINGFIELD, VA, 22153",76017715,"L"
304084,"8605 PRISTINE DR NE","ALBUQUERQUE","NM",87122,35.181632517,-106.500489573,84,"8605 PRISTINE DR NE, ALBUQUERQUE, NM, 87122","Match","Exact","8605 PRISTINE DR NE, ALBUQUERQUE, NM, 87122",630142886,"L"
304085,"8605 RAPLEY GATE TERRACE","POTOMAC","MD",20854,38.996639133,-77.190899208,85,"8605 RAPLEY GATE TERRACE, POTOMAC, MD, 20854","Match","Exact","8605 RAPLEY GATE TER, POTOMAC, MD, 20854",62097895,"R"
304086,"8605 S STONY ISLAND AVENUE","CHICAGO","IL",60617,41.7385717440001,-87.58524053,86,"8605 S STONY ISLAND AVENUE, CHICAGO, IL, 60617","Match","Exact","8605 STONY ISLAND AVE, CHICAGO, IL, 60617",605550735,"L"
304087,"8605 SANTA MONICA BLVD - 41483","WEST HOLLYWOOD","CA",90069,34.0888679340001,-118.37807092,87,"8605 SANTA MONICA BLVD - 41483, WEST HOLLYWOOD, CA, 90069","Match","Exact","8605 SANTA MONICA BLVD, W HOLLYWOOD, CA, 90069",141572204,"R"
304088,"8605 SANTA MONICA BLVD 53868","WEST HOLLYWOOD","CA",90069,34.0888679340001,-118.37807092,88,"8605 SANTA MONICA BLVD 53868, WEST HOLLYWOOD, CA, 90069","Match","Exact","8605 SANTA MONICA BLVD, W HOLLYWOOD, CA, 90069",141572204,"R"
304089,"8605 SANTA MONICA BLVD NUM 39384","WEST HOLLYWOOD","CA",90069,34.0888679340001,-118.37807092,89,"8605 SANTA MONICA BLVD NUM 39384, WEST HOLLYWOOD, CA, 90069","Match","Exact","8605 SANTA MONICA BLVD, W HOLLYWOOD, CA, 90069",141572204,"R"
304090,"8605 SANTA MONICA BLVD NUM 99490","W HOLLYWOOD","CA",90069,34.0888679340001,-118.37807092,90,"8605 SANTA MONICA BLVD NUM 99490, W HOLLYWOOD, CA, 90069","Match","Exact","8605 SANTA MONICA BLVD, W HOLLYWOOD, CA, 90069",141572204,"R"
304091,"8605 W 16TH","WICHITA","KS",67212,NA,NA,91,"8605 W 16TH, WICHITA, KS, 67212","No_Match",NA,NA,NA,NA
304092,"8605 WOODLAND WALK","CHARLESTON","SC",29420,32.9282005170001,-80.117090279,92,"8605 WOODLAND WALK, CHARLESTON, SC, 29420","Match","Exact","8605 WOODLAND WALK, CHARLESTON, SC, 29420",178472046,"L"
304093,"8606 121ST ST","RICHMOND HILL","NY",11418,40.701646517,-73.829659448,93,"8606 121ST ST, RICHMOND HILL, NY, 11418","Match","Exact","8606 121ST ST, RICHMOND HILL, NY, 11418",59732888,"R"
304094,"8606 BUFFALO TRAIL","LAGO VISTA","TX",78645,30.4912838550001,-97.977369846,94,"8606 BUFFALO TRAIL, LAGO VISTA, TX, 78645","Match","Exact","8606 BUFFALO TRL, LAGO VISTA, TX, 78645",63920788,"R"
304095,"8606 CHARLESTON VALLEY DR","MASON","OH",45040,39.3136805560001,-84.3444815509999,95,"8606 CHARLESTON VALLEY DR, MASON, OH, 45040","Match","Exact","8606 CHARLESTON VALLEY DR, MASON, OH, 45040",159042028,"R"
304096,"8606 COUNTRY CLUB DRIVE","BETHESDA","MD",20817,38.985901653,-77.1818908449999,96,"8606 COUNTRY CLUB DRIVE, BETHESDA, MD, 20817","Match","Exact","8606 COUNTRY CLUB DR, BETHESDA, MD, 20817",62105808,"L"
304097,"8606 DOGWOOD CREEK COURT","RICHMOND","TX",77407,29.684048279,-95.7203279729999,97,"8606 DOGWOOD CREEK COURT, RICHMOND, TX, 77407","Match","Exact","8606 DOGWOOD CREEK CT, RICHMOND, TX, 77407",642960785,"R"
304098,"8606 GOVERNMENT DRIVE","NEW PORT RICHEY","FL",34654,28.266653782,-82.671522935,98,"8606 GOVERNMENT DRIVE, NEW PORT RICHEY, FL, 34654","Match","Exact","8606 GOVERNMENT DR, NEW PORT RICHEY, FL, 34654",638629123,"R"
304099,"8606 KLEVENVILLE RILEY ROAD","MOUNT HOREB","WI",53572,43.0292021000001,-89.6538215899999,99,"8606 KLEVENVILLE RILEY ROAD, MOUNT HOREB, WI, 53572","Match","Exact","8606 KLEVENVILLE RILEY RD, MOUNT HOREB, WI, 53572",49528694,"R"
304100,"8606 RITCHBORO ROAD","DISTRICT HEIGHTS","MD",20747,38.863632355,-76.8579790429999,100,"8606 RITCHBORO ROAD, DISTRICT HEIGHTS, MD, 20747","Match","Exact","8606 RITCHBORO RD, DISTRICT HEIGHTS, MD, 20747",642143014,"R"
304101,"8606 ROYAL MONTREAL DR","ROWLETT","TX",75089,32.9423227180001,-96.530086786,101,"8606 ROYAL MONTREAL DR, ROWLETT, TX, 75089","Match","Exact","8606 ROYAL MONTREAL DR, ROWLETT, TX, 75089",103278465,"R"
304102,"8606 SHADOWBROOK GLEN LANE","RICHMOND","TX",77407,NA,NA,102,"8606 SHADOWBROOK GLEN LANE, RICHMOND, TX, 77407","No_Match",NA,NA,NA,NA
304103,"8606 WENDY ST","CLINTON","MD",20735,38.7598482670001,-76.856982779,103,"8606 WENDY ST, CLINTON, MD, 20735","Match","Exact","8606 WENDY ST, CLINTON, MD, 20735",639600925,"L"
304104,"8607 BELL MOUNTAIN DR","AUSTIN","TX",78730,30.3766743640001,-97.8195251879999,104,"8607 BELL MOUNTAIN DR, AUSTIN, TX, 78730","Match","Exact","8607 BELL MOUNTAIN DR, AUSTIN, TX, 78730",641249611,"L"
304105,"8607 E MEADOW LANE","NEW CARLISLE","IN",46552,41.7167661550001,-86.531283527,105,"8607 E MEADOW LANE, NEW CARLISLE, IN, 46552","Match","Non_Exact","8607 MEADOW LN N, NEW CARLISLE, IN, 46552",641466827,"R"
304106,"8607 HORTON HIGHWAY","CHAPEL HILL","TN",37034,NA,NA,106,"8607 HORTON HIGHWAY, CHAPEL HILL, TN, 37034","No_Match",NA,NA,NA,NA
304107,"8607 MAGDALENA RUN","HELOTES","TX",78023,29.5874311650001,-98.652011492,107,"8607 MAGDALENA RUN, HELOTES, TX, 78023","Match","Exact","8607 MAGDALENA RUN, HELOTES, TX, 78023",101740408,"L"
304108,"8607 MINERAL RIDGE WAY","CHARLOTTE","NC",28269,35.3603979230001,-80.7964255489999,108,"8607 MINERAL RIDGE WAY, CHARLOTTE, NC, 28269","Match","Exact","8607 MINERAL RIDGE WAY, CHARLOTTE, NC, 28269",70531681,"R"
304109,"8607 N NAVARRO STREET","VICTORIA","TX",77904,28.873642057,-96.997641753,109,"8607 N NAVARRO STREET, VICTORIA, TX, 77904","Match","Exact","8607 N NAVARRO ST, VICTORIA, TX, 77904",44558169,"L"
304110,"8607 S PHILLIPS","CHICAGO","IL",60617,41.738788615,-87.564816827,110,"8607 S PHILLIPS, CHICAGO, IL, 60617","Match","Non_Exact","8607 S PHILLIPS AVE, CHICAGO, IL, 60617",111776380,"L"
304111,"8607 SE MORRISON ST","PORTLAND","OR",97216,45.5168874920001,-122.574820204,111,"8607 SE MORRISON ST, PORTLAND, OR, 97216","Match","Exact","8607 SE MORRISON ST, PORTLAND, OR, 97216",157518635,"L"
304112,"8607 TRACINEY BLVD","SAN ANTONIO","TX",78255,29.6911399030001,-98.654906381,112,"8607 TRACINEY BLVD, SAN ANTONIO, TX, 78255","Match","Exact","8607 TRACINEY BLVD, SAN ANTONIO, TX, 78255",101705945,"R"
304113,"86071 JONES RD","YULEE","FL",32097,30.6368318240001,-81.600635373,113,"86071 JONES RD, YULEE, FL, 32097","Match","Exact","86071 JONES RD, YULEE, FL, 32097",650017452,"L"
304114,"8608 58TH AVENUE THIRD FLOOR","ELMHURST","NY",11373,NA,NA,114,"8608 58TH AVENUE THIRD FLOOR, ELMHURST, NY, 11373","No_Match",NA,NA,NA,NA
304115,"8608 BREAKWATER COURT","SHERWOOD","AR",72120,34.8496376950001,-92.2083902639999,115,"8608 BREAKWATER COURT, SHERWOOD, AR, 72120","Match","Exact","8608 BREAKWATER CT, SHERWOOD, AR, 72120",618993127,"L"
304116,"8608 FLUTTERING LEAF TRAIL/307","ODENTON","MD",21113,39.068909639,-76.720667189,116,"8608 FLUTTERING LEAF TRAIL/307, ODENTON, MD, 21113","Match","Non_Exact","8608 FLUTTERING LEAF TRL, ODENTON, MD, 21113",618432597,"R"
304117,"8608 FRONTIER TRAIL","PORT RICHEY","FL",34668,28.282187494,-82.7024905329999,117,"8608 FRONTIER TRAIL, PORT RICHEY, FL, 34668","Match","Exact","8608 FRONTIER TRL, PORT RICHEY, FL, 34668",645564816,"R"
304118,"8608 LAVERNE DRIVE","ADELPHI","MD",20783,38.994830805,-76.963520395,118,"8608 LAVERNE DRIVE, ADELPHI, MD, 20783","Match","Exact","8608 LAVERNE DR, ADELPHI, MD, 20783",76303563,"L"
304119,"8608 ORCHARD COURT","ST. LOUIS","MO",63132,38.676808373,-90.35712876,119,"8608 ORCHARD COURT, ST. LOUIS, MO, 63132","Match","Exact","8608 ORCHARD CT, SAINT LOUIS, MO, 63132",100132844,"L"
304120,"8608 PRISTINE DR NE","ALBUQUERQUE","NM",87122,35.181839473,-106.500829234,120,"8608 PRISTINE DR NE, ALBUQUERQUE, NM, 87122","Match","Exact","8608 PRISTINE DR NE, ALBUQUERQUE, NM, 87122",632646409,"R"
304121,"8608 SOUTH YALE AVE UNIT 223","TULSA","OK",74136,36.039037949,-95.922450662,121,"8608 SOUTH YALE AVE UNIT 223, TULSA, OK, 74136","Match","Non_Exact","8608 S YALE AVE, TULSA, OK, 74137",642918456,"L"
304122,"8608 TUTBURY PL","MCKINNEY","TX",75070,33.156781283,-96.728057803,122,"8608 TUTBURY PL, MCKINNEY, TX, 75070","Match","Exact","8608 TUTBURY PL, MCKINNEY, TX, 75070",648983761,"L"
304123,"8608 VANDERBILT COURT APT 309","FORT WORTH","TX",76120,32.7576921040001,-97.165153577,123,"8608 VANDERBILT COURT APT 309, FORT WORTH, TX, 76120","Match","Exact","8608 VANDERBILT CT, FORT WORTH, TX, 76120",101958704,"L"
304124,"8608 WEST PINES AVENUE","LAS VEGAS","NV",89143,NA,NA,124,"8608 WEST PINES AVENUE, LAS VEGAS, NV, 89143","No_Match",NA,NA,NA,NA
304125,"8608 WOODRUFF DR SW","BYRON CENTER","MI",49315,42.8088555080001,-85.7132123379999,125,"8608 WOODRUFF DR SW, BYRON CENTER, MI, 49315","Match","Exact","8608 WOODRUFF DR SW, BYRON CENTER, MI, 49315",12485290,"L"
304126,"8608","ANTHONY","TX",79821,NA,NA,126,"8608, ANTHONY, TX, 79821","No_Match",NA,NA,NA,NA
304127,"8609 2ND AVENUE SUITE 401B","SILVER SPRING","MD",20910,38.996887337,-77.033323724,127,"8609 2ND AVENUE SUITE 401B, SILVER SPRING, MD, 20910","Match","Exact","8609 2ND AVE, SILVER SPRING, MD, 20910",62067838,"R"
304128,"8609 BURWELL ROAD","CATLETT","VA",20119,38.6758123660001,-77.6432241099999,128,"8609 BURWELL ROAD, CATLETT, VA, 20119","Match","Exact","8609 BURWELL RD, CATLETT, VA, 20119",146287889,"R"
304129,"8609 COUNTY ROAD 6920","LUBBOCK","TX",79407,33.5455571890001,-102.008061909,129,"8609 COUNTY ROAD 6920, LUBBOCK, TX, 79407","Match","Exact","8609 CO RD 6920, LUBBOCK, TX, 79407",185269016,"R"
304130,"8609 DESOTO AVE STE 142","CANOGA PARK","CA",91304,NA,NA,130,"8609 DESOTO AVE STE 142, CANOGA PARK, CA, 91304","No_Match",NA,NA,NA,NA
304131,"8609 DEVARA COURT","RICHMOND","VA",23235,37.542599749,-77.5558134189999,131,"8609 DEVARA COURT, RICHMOND, VA, 23235","Match","Exact","8609 DEVARA CT, RICHMOND, VA, 23235",624221991,"L"
304132,"8609 LYNDALE AVENUE SOUTH  105G","BLOOMINGTON","MN",55420,44.8473915070001,-93.288550686,132,"8609 LYNDALE AVENUE SOUTH  105G, BLOOMINGTON, MN, 55420","Match","Exact","8609 LYNDALE AVE S, BLOOMINGTON, MN, 55420",636267975,"L"
304133,"8609 S 42ND STREET","BELLEVUE","NE",68147,41.173314932,-95.9768451209999,133,"8609 S 42ND STREET, BELLEVUE, NE, 68147","Match","Exact","8609 S 42ND ST, BELLEVUE, NE, 68147",28501183,"L"
304134,"8609 S COTTAGE GROVE AVE","CHICAGO","IL",60619,41.73819415,-87.604856637,134,"8609 S COTTAGE GROVE AVE, CHICAGO, IL, 60619","Match","Exact","8609 S COTTAGE GROVE AVE, CHICAGO, IL, 60619",111773119,"L"
304135,"8609 S KOLIN AVENUE","CHICAGO","IL",60652,41.7362364250001,-87.7299704179999,135,"8609 S KOLIN AVENUE, CHICAGO, IL, 60652","Match","Exact","8609 S KOLIN AVE, CHICAGO, IL, 60652",605437129,"L"
304136,"8609 SATTERFIELD CT","CHARLOTTE","NC",28215,35.2575430740001,-80.683542616,136,"8609 SATTERFIELD CT, CHARLOTTE, NC, 28215","Match","Exact","8609 SATTERFIELD CT, CHARLOTTE, NC, 28215",70596990,"L"
304137,"8609 SOUTH PARNELL AVE","CHICAGO","IL",60620,41.737712242,-87.637595475,137,"8609 SOUTH PARNELL AVE, CHICAGO, IL, 60620","Match","Exact","8609 S PARNELL AVE, CHICAGO, IL, 60620",605521876,"L"
304138,"8609 W TULIP TREE DR","MUNCIE","IN",47304,40.199143969,-85.487321331,138,"8609 W TULIP TREE DR, MUNCIE, IN, 47304","Match","Exact","8609 W TULIP TREE DR, MUNCIE, IN, 47304",30832749,"L"
304139,"861 41ST AVE NE","COLUMBIA HEIGHTS","MN",55421,45.042746424,-93.2479161909999,139,"861 41ST AVE NE, COLUMBIA HEIGHTS, MN, 55421","Match","Exact","861 41ST AVE NE, COLUMBIA HEIGHTS, MN, 55421",97493567,"L"
304140,"861 46TH ST APT 2","OAKLAND","CA",94608,37.8350022920001,-122.271807573,140,"861 46TH ST APT 2, OAKLAND, CA, 94608","Match","Exact","861 46TH ST, OAKLAND, CA, 94608",606808055,"L"
304141,"861 ALA LILIKOI STREET 5","HONOLULU","HI",96818,NA,NA,141,"861 ALA LILIKOI STREET 5, HONOLULU, HI, 96818","No_Match",NA,NA,NA,NA
304142,"861 ANCHORAGE PLACE","CHULA VISTA","CA",91914,32.6550112740001,-116.957494766,142,"861 ANCHORAGE PLACE, CHULA VISTA, CA, 91914","Match","Exact","861 ANCHORAGE PL, CHULA VISTA, CA, 91914",612887013,"L"
304143,"861 BARN OWL ROAD","MARIETTA","GA",30068,33.9710061850001,-84.458827487,143,"861 BARN OWL ROAD, MARIETTA, GA, 30068","Match","Exact","861 BARN OWL RD, MARIETTA, GA, 30068",618319253,"L"
304144,"861 BIG BUCK CIRCLE","WINTER SPRINGS","FL",32708,28.68003795,-81.271513439,144,"861 BIG BUCK CIRCLE, WINTER SPRINGS, FL, 32708","Match","Exact","861 BIG BUCK CIR, WINTER SPRINGS, FL, 32708",93773009,"R"
304145,"861 BRIGHTRIDGE STREET","PITTSBURGH","PA",15214,40.461804752,-80.018572975,145,"861 BRIGHTRIDGE STREET, PITTSBURGH, PA, 15214","Match","Exact","861 BRIGHTRIDGE ST, PITTSBURGH, PA, 15214",51625784,"L"
304146,"861 BUEN TIEMPO DR","CHULA VISTA","CA",91910,32.6318678110001,-117.034956215,146,"861 BUEN TIEMPO DR, CHULA VISTA, CA, 91910","Match","Exact","861 BUEN TIEMPO DR, CHULA VISTA, CA, 91910",195363724,"L"
304147,"861 CARROLL AVE","ST. PAUL","MN",55106,NA,NA,147,"861 CARROLL AVE, ST. PAUL, MN, 55106","No_Match",NA,NA,NA,NA
304148,"861 CLOVERDALE LANE","BOLINGBROOK","IL",60440,41.687649998,-88.10452025,148,"861 CLOVERDALE LANE, BOLINGBROOK, IL, 60440","Match","Exact","861 CLOVERDALE LN, BOLINGBROOK, IL, 60440",111595511,"R"
304149,"861 DATE AVE","CHULA VISTA","CA",91911,32.619364881,-117.081265689,149,"861 DATE AVE, CHULA VISTA, CA, 91911","Match","Exact","861 DATE AVE, CHULA VISTA, CA, 91911",645484636,"L"
304150,"861 DEER HAVEN CIRCLE","PALM DESERT","CA",92211,33.754356031,-116.32322308,150,"861 DEER HAVEN CIRCLE, PALM DESERT, CA, 92211","Match","Exact","861 DEER HAVEN CIR, PALM DESERT, CA, 92211",195046244,"L"
304151,"861 DOWNING ROAD","VALLEY STREAM","NY",11580,40.6846137630001,-73.690354729,151,"861 DOWNING ROAD, VALLEY STREAM, NY, 11580","Match","Exact","861 DOWNING RD, VALLEY STREAM, NY, 11580",640607188,"R"
304152,"861 E EUCLID AVENUE","GILBERT","AZ",85297,33.269784482,-111.770663348,152,"861 E EUCLID AVENUE, GILBERT, AZ, 85297","Match","Exact","861 E EUCLID AVE, GILBERT, AZ, 85297",601663637,"R"
304153,"861 EAST DRIVE","MEMPHIS","TN",38108,NA,NA,153,"861 EAST DRIVE, MEMPHIS, TN, 38108","No_Match",NA,NA,NA,NA
304154,"861 GRIFFIN AVE","CANON CITY","CO",81212,38.4350371400001,-105.232795516,154,"861 GRIFFIN AVE, CANON CITY, CO, 81212","Match","Exact","861 GRIFFIN AVE, CANON CITY, CO, 81212",636170462,"L"
304155,"861 HANCOCK STREET APT 810","HAYWARD","CA",94544,37.639771109,-122.05496817,155,"861 HANCOCK STREET APT 810, HAYWARD, CA, 94544","Match","Exact","861 HANCOCK ST, HAYWARD, CA, 94544",125067070,"R"
304156,"861 HAROLD PLACE SUITE 301A","CHULA VISTA","CA",91914,32.653337725,-116.957896844,156,"861 HAROLD PLACE SUITE 301A, CHULA VISTA, CA, 91914","Match","Exact","861 HAROLD PL, CHULA VISTA, CA, 91914",195765464,"R"
304157,"861 HAROLD PLACE SUITE 302","CHULA VISTA","CA",91914,32.653337725,-116.957896844,157,"861 HAROLD PLACE SUITE 302, CHULA VISTA, CA, 91914","Match","Exact","861 HAROLD PL, CHULA VISTA, CA, 91914",195765464,"R"
304158,"861 HOLCOMB BRIDGE RD STE 106","ROSWELL","GA",30076,34.0287918060001,-84.336080446,158,"861 HOLCOMB BRIDGE RD STE 106, ROSWELL, GA, 30076","Match","Exact","861 HOLCOMB BRIDGE RD, ROSWELL, GA, 30076",17427234,"L"
304159,"861 HUMPHREY PLACE","CHULA VISTA","CA",91911,32.6154378250001,-117.018716325,159,"861 HUMPHREY PLACE, CHULA VISTA, CA, 91911","Match","Exact","861 HUMPHREY PL, CHULA VISTA, CA, 91911",195757606,"L"
304160,"861 JUPITER PARK DRIVE","JUPITER","FL",33458,26.925633845,-80.146450268,160,"861 JUPITER PARK DRIVE, JUPITER, FL, 33458","Match","Exact","861 JUPITER PARK DR, JUPITER, FL, 33458",644232065,"L"
304161,"861 LEGENDS VIEW DR","EUREKA","MO",63026,38.487836504,-90.658936449,161,"861 LEGENDS VIEW DR, EUREKA, MO, 63026","Match","Non_Exact","861 LEGENDS VIEW DR, EUREKA, MO, 63025",100185257,"R"
304162,"861 MAIN STREET","WILLIMANTIC","CT",6226,41.712443969,-72.215163461,162,"861 MAIN STREET, WILLIMANTIC, CT, 6226","Match","Exact","861 MAIN ST, WILLIMANTIC, CT, 06226",56441628,"R"
304163,"861 MAPLE AVE","HOMEWOOD","IL",60430,41.5669445290001,-87.638292674,163,"861 MAPLE AVE, HOMEWOOD, IL, 60430","Match","Exact","861 MAPLE AVE, HOMEWOOD, IL, 60430",638457893,"R"
304164,"861 MEMORIAL DR","GAINESVILLE","GA",30501,34.3131842390001,-83.823533287,164,"861 MEMORIAL DR, GAINESVILLE, GA, 30501","Match","Exact","861 MEMORIAL DR, GAINESVILLE, GA, 30501",98282595,"L"
304165,"861 MORSE AVE STE 100-B","WINTER PARK","FL",32789,NA,NA,165,"861 MORSE AVE STE 100-B, WINTER PARK, FL, 32789","No_Match",NA,NA,NA,NA
304166,"861 MT JACKSON ROAD","NEW CASTLE","PA",16102,40.9650926570001,-80.428506549,166,"861 MT JACKSON ROAD, NEW CASTLE, PA, 16102","Match","Exact","861 MOUNT JACKSON RD, NEW CASTLE, PA, 16102",618603424,"L"
304167,"861 N PARKVIEW DRIVE STE 200","EL SEGUNDO","CA",90245,NA,NA,167,"861 N PARKVIEW DRIVE STE 200, EL SEGUNDO, CA, 90245","No_Match",NA,NA,NA,NA
304168,"861 NANCY LYNN LN","ARNOLD","MD",21012,39.0516827210001,-76.496871163,168,"861 NANCY LYNN LN, ARNOLD, MD, 21012","Match","Exact","861 NANCY LYNN LN, ARNOLD, MD, 21012",642859222,"L"
304169,"861 NE 207 TERRACE APT 104","MIAMI","FL",33179,25.9667575710001,-80.1835222399999,169,"861 NE 207 TERRACE APT 104, MIAMI, FL, 33179","Match","Non_Exact","861 NE 207TH TER, MIAMI, FL, 33179",116246977,"L"
304170,"861 NE 209TH TER APT 206","MIAMI","FL",33179,25.9693906890001,-80.184291633,170,"861 NE 209TH TER APT 206, MIAMI, FL, 33179","Match","Non_Exact","861 NE 209TH TER, MIAMI, FL, 33179",116044082,"R"
304171,"861 NE 70TH ST","MIAMI","FL",33138,25.8397498480001,-80.178572432,171,"861 NE 70TH ST, MIAMI, FL, 33138","Match","Exact","861 NE 70TH ST, MIAMI, FL, 33138",116056350,"L"
304172,"861 OAKWOOD TERRACE DR","ANTIOCH","TN",37013,36.0730491420001,-86.6725533109999,172,"861 OAKWOOD TERRACE DR, ANTIOCH, TN, 37013","Match","Exact","861 OAKWOOD TERRACE DR, ANTIOCH, TN, 37013",97198548,"L"
304173,"861 PARK COURT UNIT C","MOUNTAIN VIEW","CA",94040,37.385441906,-122.085976015,173,"861 PARK COURT UNIT C, MOUNTAIN VIEW, CA, 94040","Match","Exact","861 PARK CT, MOUNTAIN VIEW, CA, 94040",122955307,"R"
304174,"861 PASEO TOSAMAR","CAMARILLO","CA",93012,34.2034959550001,-118.984945732,174,"861 PASEO TOSAMAR, CAMARILLO, CA, 93012","Match","Non_Exact","861 PSO TOSAMAR, CAMARILLO, CA, 93012",110038175,"L"
304175,"861 PEBBLEBANK LANE","LEAGUE CITY","TX",77573,29.5106049460001,-95.043994416,175,"861 PEBBLEBANK LANE, LEAGUE CITY, TX, 77573","Match","Exact","861 PEBBLEBANK LN, LEAGUE CITY, TX, 77573",96742619,"R"
304176,"861 PRAIRIE CHAPEL RD","CRAWFORD","TX",76638,31.5481092380001,-97.463583091,176,"861 PRAIRIE CHAPEL RD, CRAWFORD, TX, 76638","Match","Exact","861 PRAIRIE CHAPEL RD, CRAWFORD, TX, 76638",653823495,"R"
304177,"861 RETA STREET","CLARKDALE","AZ",86324,34.7511370890001,-112.057538028,177,"861 RETA STREET, CLARKDALE, AZ, 86324","Match","Exact","861 RETA ST, CLARKDALE, AZ, 86324",159502931,"L"
304178,"861 RIDGE ROAD   21","HOMEWOOD","IL",60430,41.562357896,-87.638100928,178,"861 RIDGE ROAD   21, HOMEWOOD, IL, 60430","Match","Exact","861 RIDGE RD, HOMEWOOD, IL, 60430",605642943,"R"
304179,"861 S REYNOLDS ST","LA GRANGE","TX",78945,29.9067333350001,-96.8587838129999,179,"861 S REYNOLDS ST, LA GRANGE, TX, 78945","Match","Exact","861 S REYNOLDS ST, LA GRANGE, TX, 78945",41998612,"L"
304180,"861 S WINDSOR BLVD 301","LOS ANGELES","CA",90005,34.058692438,-118.32310243,180,"861 S WINDSOR BLVD 301, LOS ANGELES, CA, 90005","Match","Non_Exact","861 S WINDSOR BLVD, LOS ANGELES, CA, 90005",141603650,"R"
304181,"861 SALISBURY ROAD NORTH","RICHMOND","IN",47374,39.8393905570001,-84.9393358459999,181,"861 SALISBURY ROAD NORTH, RICHMOND, IN, 47374","Match","Exact","861 SALISBURY RD N, RICHMOND, IN, 47374",31325923,"R"
304182,"861 SOUTH 100 WEST","TREMONTON","UT",84337,41.701467194,-112.16677794,182,"861 SOUTH 100 WEST, TREMONTON, UT, 84337","Match","Exact","861 S 100 W, TREMONTON, UT, 84337",153900694,"L"
304183,"861 SW 72ND AVENUE","PLANTATION","FL",33317,26.1095691030001,-80.243868441,183,"861 SW 72ND AVENUE, PLANTATION, FL, 33317","Match","Exact","861 SW 72ND AVE, PLANTATION, FL, 33317",114711008,"R"
304184,"861 SW 74TH TER APT 102D","NORTH LAUDERDALE","FL",33068,26.218107736,-80.2248402499999,184,"861 SW 74TH TER APT 102D, NORTH LAUDERDALE, FL, 33068","Match","Non_Exact","861 SW 74TH TER, N LAUDERDALE, FL, 33068",637644608,"R"
304185,"861 WASHINGTON AVE NO 256","CHESTERTOWN","MD",21620,39.230157934,-76.072438178,185,"861 WASHINGTON AVE NO 256, CHESTERTOWN, MD, 21620","Match","Non_Exact","861 WASHINGTON AVE, CHESTERTOWN, MD, 21620",612151121,"R"
304186,"861 YORKTOWN STREET","LANSDALE","PA",19446,40.232651855,-75.2615292949999,186,"861 YORKTOWN STREET, LANSDALE, PA, 19446","Match","Exact","861 YORKTOWN ST, LANSDALE, PA, 19446",135075310,"L"
304187,"861","WICHITA","KS",67226,NA,NA,187,"861, WICHITA, KS, 67226","No_Match",NA,NA,NA,NA
304188,"8610 115TH AVENUE EAST","PARRISH","FL",34219,NA,NA,188,"8610 115TH AVENUE EAST, PARRISH, FL, 34219","No_Match",NA,NA,NA,NA
304189,"8610 BONITA PLACE","CHEYENNE","WY",82009,41.194050067,-104.705844488,189,"8610 BONITA PLACE, CHEYENNE, WY, 82009","Match","Exact","8610 BONITA PL, CHEYENNE, WY, 82009",160148427,"L"
304190,"8610 BRADMOOR DR","BETHESDA","MD",20817,38.996559727,-77.119084266,190,"8610 BRADMOOR DR, BETHESDA, MD, 20817","Match","Exact","8610 BRADMOOR DR, BETHESDA, MD, 20817",62058373,"L"
304191,"8610 COMMERCE DR SUITE 1","EASTON","MD",21601,38.785545846,-76.0823965069999,191,"8610 COMMERCE DR SUITE 1, EASTON, MD, 21601","Match","Exact","8610 COMMERCE DR, EASTON, MD, 21601",68408210,"R"
304192,"8610 COUNTY RD 15 W","MINOT","ND",58703,48.301199663,-101.420971289,192,"8610 COUNTY RD 15 W, MINOT, ND, 58703","Match","Exact","8610 CO RD 15 W, MINOT, ND, 58703",646621368,"R"
304193,"8610 DALLASBURG ROAD","MORROW","OH",45152,39.304356399,-84.137574432,193,"8610 DALLASBURG ROAD, MORROW, OH, 45152","Match","Exact","8610 DALLASBURG RD, MORROW, OH, 45152",159045732,"R"
304194,"8610 GEREN RD","SILVER SPRING","MD",20901,38.9970178130001,-77.006530216,194,"8610 GEREN RD, SILVER SPRING, MD, 20901","Match","Exact","8610 GEREN RD, SILVER SPRING, MD, 20901",62068569,"L"
304195,"8610 GLENGARY","NEW ORLEANS","LA",70126,NA,NA,195,"8610 GLENGARY, NEW ORLEANS, LA, 70126","No_Match",NA,NA,NA,NA
304196,"8610 GRAHAM AVE","LOS ANGELES","CA",90002,33.9598701140001,-118.243046525,196,"8610 GRAHAM AVE, LOS ANGELES, CA, 90002","Match","Exact","8610 GRAHAM AVE, LOS ANGELES, CA, 90002",141672372,"L"
304197,"8610 GRAHAM AVENUE","LOS ANGELES","CA",90002,33.9598701140001,-118.243046525,197,"8610 GRAHAM AVENUE, LOS ANGELES, CA, 90002","Match","Exact","8610 GRAHAM AVE, LOS ANGELES, CA, 90002",141672372,"L"
304198,"8610 KENASAW COURT","INDIANAPOLIS","IN",46217,39.641379235,-86.1655188459999,198,"8610 KENASAW COURT, INDIANAPOLIS, IN, 46217","Match","Exact","8610 KENASAW CT, INDIANAPOLIS, IN, 46217",108032103,"R"
304199,"8610 LONICERA COURT","BRANDYWINE","MD",20613,38.692997674,-76.85638362,199,"8610 LONICERA COURT, BRANDYWINE, MD, 20613","Match","Exact","8610 LONICERA CT, BRANDYWINE, MD, 20613",76417566,"L"
304200,"8610 MEMPHIS AVE       APT A","LUBBOCK","TX",79423,33.5163477130001,-101.896385457,200,"8610 MEMPHIS AVE       APT A, LUBBOCK, TX, 79423","Match","Exact","8610 MEMPHIS AVE, LUBBOCK, TX, 79423",185252910,"R"
304201,"8610 N MULBERRY ST","TAMPA","FL",33604,28.0291151660001,-82.443706095,201,"8610 N MULBERRY ST, TAMPA, FL, 33604","Match","Exact","8610 N MULBERRY ST, TAMPA, FL, 33604",104519895,"L"
304202,"8610 NATURAL BRIDGE ROAD","SAINT LOUIS","MO",63121,38.710985658,-90.319850601,202,"8610 NATURAL BRIDGE ROAD, SAINT LOUIS, MO, 63121","Match","Exact","8610 NATURAL BRIDGE RD, SAINT LOUIS, MO, 63121",100122299,"L"
304203,"8610 S EASTERN AVE STE 17","LAS VEGAS","NV",89123,36.0310736060001,-115.118402639,203,"8610 S EASTERN AVE STE 17, LAS VEGAS, NV, 89123","Match","Non_Exact","8610 S EASTERN AVE, LAS VEGAS, NV, 89123",647519790,"L"
304204,"8610 S MANISTEE AVE","CHICAGO","IL",60617,41.738818043,-87.557535371,204,"8610 S MANISTEE AVE, CHICAGO, IL, 60617","Match","Exact","8610 S MANISTEE AVE, CHICAGO, IL, 60617",111776458,"R"
304205,"8611 95TH AVE WEST","TAYLOR RIDGE","IL",61284,41.427540155,-90.6897949,205,"8611 95TH AVE WEST, TAYLOR RIDGE, IL, 61284","Match","Exact","8611 95TH AVE W, TAYLOR RIDGE, IL, 61284",631791850,"L"
304206,"8611 CALIFORNIA AVE A","SOUTH GATE","CA",90280,33.956565207,-118.205694882,206,"8611 CALIFORNIA AVE A, SOUTH GATE, CA, 90280","Match","Exact","8611 CALIFORNIA AVE, SOUTH GATE, CA, 90280",141676338,"R"
304207,"8611 CEDAR ROAD","CHESTERLAND","OH",44026,41.5073596340001,-81.3343217789999,207,"8611 CEDAR ROAD, CHESTERLAND, OH, 44026","Match","Exact","8611 CEDAR RD, CHESTERLAND, OH, 44026",137442544,"R"
304208,"8611 CONCORD MILLS BLVD  SUITE 209","CONCORD","NC",28027,35.3742273,-80.726130306,208,"8611 CONCORD MILLS BLVD  SUITE 209, CONCORD, NC, 28027","Match","Exact","8611 CONCORD MILLS BLVD, CONCORD, NC, 28027",647178973,"L"
304209,"8611 CONCORD MILLS BLVD 352","CONCORD","NC",28027,35.3742273,-80.726130306,209,"8611 CONCORD MILLS BLVD 352, CONCORD, NC, 28027","Match","Exact","8611 CONCORD MILLS BLVD, CONCORD, NC, 28027",647178973,"L"
304210,"8611 CONCORD MILLS BLVD STE 411","CONCORD","NC",28027,35.3742273,-80.726130306,210,"8611 CONCORD MILLS BLVD STE 411, CONCORD, NC, 28027","Match","Exact","8611 CONCORD MILLS BLVD, CONCORD, NC, 28027",647178973,"L"
304211,"8611 CONCORD MILLS BLVD SUITE 161","CONCORD","NC",28027,35.3742273,-80.726130306,211,"8611 CONCORD MILLS BLVD SUITE 161, CONCORD, NC, 28027","Match","Exact","8611 CONCORD MILLS BLVD, CONCORD, NC, 28027",647178973,"L"
304212,"8611 CURRAN BLVD","NEW ORLEANS","LA",70127,30.0400540000001,-89.995712273,212,"8611 CURRAN BLVD, NEW ORLEANS, LA, 70127","Match","Non_Exact","8611 CURRAN RD, NEW ORLEANS, LA, 70127",191720605,"L"
304213,"8611 DEWEY ROAD","EMMETT","ID",83617,43.8796316940001,-116.654543575,213,"8611 DEWEY ROAD, EMMETT, ID, 83617","Match","Exact","8611 DEWEY RD, EMMETT, ID, 83617",647470518,"L"
304214,"8611 LAIDLAW ROAD","FRANKLINVILLE","NY",14737,42.3799770430001,-78.43328077,214,"8611 LAIDLAW ROAD, FRANKLINVILLE, NY, 14737","Match","Exact","8611 LAIDLAW RD, FRANKLINVILLE, NY, 14737",626695158,"L"
304215,"8611 MARYGROVE DR","DETROIT","MI",48221,42.4138832260001,-83.1560074719999,215,"8611 MARYGROVE DR, DETROIT, MI, 48221","Match","Exact","8611 MARYGROVE DR, DETROIT, MI, 48221",95425990,"L"
304216,"8611 MCHENRY STREET","VIENNA","VA",22180,38.8899884740001,-77.242212991,216,"8611 MCHENRY STREET, VIENNA, VA, 22180","Match","Exact","8611 MCHENRY ST, VIENNA, VA, 22180",639869399,"R"
304217,"8611 S JAMESTOWN AV","TULSA","OK",74137,36.038540061,-95.93729818,217,"8611 S JAMESTOWN AV, TULSA, OK, 74137","Match","Exact","8611 S JAMESTOWN AVE, TULSA, OK, 74137",166461062,"R"
304218,"8611 S SPOTTED RD","CHENEY","WA",99004,47.5748438970001,-117.519104521,218,"8611 S SPOTTED RD, CHENEY, WA, 99004","Match","Exact","8611 S SPOTTED RD, CHENEY, WA, 99004",189903807,"L"
304219,"8611 W CANTERBURY DR","PEORIA","AZ",85345,33.590686707,-112.243752138,219,"8611 W CANTERBURY DR, PEORIA, AZ, 85345","Match","Exact","8611 W CANTERBURY DR, PEORIA, AZ, 85345",128879479,"R"
304220,"8611 W CORY LN","BOISE","ID",83704,43.6275771270001,-116.289425123,220,"8611 W CORY LN, BOISE, ID, 83704","Match","Exact","8611 CORY LN, BOISE, ID, 83704",623854362,"R"
304221,"8611 W PIRATES CT","SPOKANE","WA",99224,NA,NA,221,"8611 W PIRATES CT, SPOKANE, WA, 99224","No_Match",NA,NA,NA,NA
304222,"8611 WOODVIEW DRIVE","SPRINGFIELD","VA",22153,38.7571822530001,-77.241125036,222,"8611 WOODVIEW DRIVE, SPRINGFIELD, VA, 22153","Match","Exact","8611 WOODVIEW DR, SPRINGFIELD, VA, 22153",75976827,"L"
304223,"8611C BEEKMAN PLACE","ALEXANDRIA","VA",22309,38.7242605100001,-77.125683216,223,"8611C BEEKMAN PLACE, ALEXANDRIA, VA, 22309","Match","Exact","8611 BEEKMAN PL, ALEXANDRIA, VA, 22309",76017008,"R"
304224,"8612 ANIMAS PL NW","ALBUQUERQUE","NM",87120,35.1049464980001,-106.740843913,224,"8612 ANIMAS PL NW, ALBUQUERQUE, NM, 87120","Match","Exact","8612 ANIMAS PL NW, ALBUQUERQUE, NM, 87120",625222038,"R"
304225,"8612 ATLAS VIEW DRIVE","SANTEE","CA",92071,32.83138488,-116.99295112,225,"8612 ATLAS VIEW DRIVE, SANTEE, CA, 92071","Match","Exact","8612 ATLAS VIEW DR, SANTEE, CA, 92071",635494564,"L"
304226,"8612 BAY PINES BLVD","ST PETERSBURG","FL",33709,27.8126537960001,-82.761098158,226,"8612 BAY PINES BLVD, ST PETERSBURG, FL, 33709","Match","Exact","8612 BAY PINES BLVD, SAINT PETERSBURG, FL, 33709",124752950,"L"
304227,"8612 E STATE ROAD 156","VEVAY","IN",47043,NA,NA,227,"8612 E STATE ROAD 156, VEVAY, IN, 47043","No_Match",NA,NA,NA,NA
304228,"8612 HEMLOCK WAY","BUENA PARK","CA",90620,33.843474257,-117.982600325,228,"8612 HEMLOCK WAY, BUENA PARK, CA, 90620","Match","Exact","8612 HEMLOCK WAY, BUENA PARK, CA, 90620",648657276,"R"
304229,"8612 INTERBAY BOULEVARD","TAMPA","FL",33616,27.8659362170001,-82.526318448,229,"8612 INTERBAY BOULEVARD, TAMPA, FL, 33616","Match","Exact","8612 INTERBAY BLVD, TAMPA, FL, 33616",104528278,"L"
304230,"8612 LINDEN AVE N","SEATTLE","WA",98103,47.6914249600001,-122.347205002,230,"8612 LINDEN AVE N, SEATTLE, WA, 98103","Match","Exact","8612 LINDEN AVE N, SEATTLE, WA, 98103",186579357,"R"
304231,"8612 LORRAINE DRIVE","HUNTINGTON BEACH","CA",92646,33.681360152,-117.978187101,231,"8612 LORRAINE DRIVE, HUNTINGTON BEACH, CA, 92646","Match","Exact","8612 LORRAINE DR, HUNTINGTON BEACH, CA, 92646",144020586,"R"
304232,"8612 MEADOWTOWN COURT","PICKERINGTON","OH",43147,NA,NA,232,"8612 MEADOWTOWN COURT, PICKERINGTON, OH, 43147","No_Match",NA,NA,NA,NA
304233,"8612 S 85TH CT","HICKORY HILLS","IL",60457,41.734567897,-87.831698785,233,"8612 S 85TH CT, HICKORY HILLS, IL, 60457","Match","Exact","8612 85TH CT, HICKORY HILLS, IL, 60457",111809113,"R"
304234,"8612 SANDERLING DR","MANASSAS","VA",20110,38.7503765290001,-77.4575652029999,234,"8612 SANDERLING DR, MANASSAS, VA, 20110","Match","Exact","8612 SANDERLING DR, MANASSAS, VA, 20110",76534486,"L"
304235,"8613 55TH AVE","ELMHURST","NY",11373,NA,NA,235,"8613 55TH AVE, ELMHURST, NY, 11373","No_Match",NA,NA,NA,NA
304236,"8613 CAVATINA CT","APEX","NC",27539,35.6856993420001,-78.789387861,236,"8613 CAVATINA CT, APEX, NC, 27539","Match","Exact","8613 CAVATINA CT, APEX, NC, 27539",72542942,"L"
304237,"8613 CHINABERRY DRIVE","TAMPA","FL",33637,28.0284556660001,-82.373314589,237,"8613 CHINABERRY DRIVE, TAMPA, FL, 33637","Match","Exact","8613 CHINABERRY DR, TAMPA, FL, 33637",104536059,"R"
304238,"8613 DEER TRAIL RUN","HEARNE","TX",77859,30.9467844750001,-96.600425638,238,"8613 DEER TRAIL RUN, HEARNE, TX, 77859","Match","Exact","8613 DEER TRAIL RUN, HEARNE, TX, 77859",651923976,"R"
304239,"8613 MARTIN WAY E SUITE 102","LACEY","WA",98516,47.057479103,-122.760896788,239,"8613 MARTIN WAY E SUITE 102, LACEY, WA, 98516","Match","Exact","8613 MARTIN WAY E, LACEY, WA, 98516",180974909,"R"
304240,"8613 OGLESBY AVE","JACKSONVILLE","FL",32220,30.3351972830001,-81.794625394,240,"8613 OGLESBY AVE, JACKSONVILLE, FL, 32220","Match","Non_Exact","8613 OGLESBY ST, JACKSONVILLE, FL, 32220",83925612,"L"
304241,"8613 OLD HICKORY TRAIL UNIT 1308","DALLAS","TX",75237,32.6436883810001,-96.865489084,241,"8613 OLD HICKORY TRAIL UNIT 1308, DALLAS, TX, 75237","Match","Non_Exact","8613 OLD HICKORY TRL, DALLAS, TX, 75237",650072512,"R"
304242,"8613 PILSEN RD","RANDALLSTOWN","MD",21133,39.374433261,-76.778399357,242,"8613 PILSEN RD, RANDALLSTOWN, MD, 21133","Match","Exact","8613 PILSEN RD, RANDALLSTOWN, MD, 21133",191466306,"L"
304243,"8613 WEST CHERRY STREET","BENTON","AR",72015,34.448023134,-92.58172567,243,"8613 WEST CHERRY STREET, BENTON, AR, 72015","Match","Exact","8613 W CHERRY ST, BENTON, AR, 72015",2482104,"L"
304244,"8614 E PEMBROOK DRIVE","TUCSON","AZ",85715,32.245066395,-110.80911112,244,"8614 E PEMBROOK DRIVE, TUCSON, AZ, 85715","Match","Exact","8614 E PEMBROOK DR, TUCSON, AZ, 85715",121193586,"L"
304245,"8614 FOOTHILL BLVD APT 201","SUNLAND","CA",91040,34.2597251560001,-118.320552483,245,"8614 FOOTHILL BLVD APT 201, SUNLAND, CA, 91040","Match","Exact","8614 FOOTHILL BLVD, SUNLAND, CA, 91040",141587493,"L"
304246,"8614 GAINES AVENUE","ORANGEVALE","CA",95662,38.6819799030001,-121.238731506,246,"8614 GAINES AVENUE, ORANGEVALE, CA, 95662","Match","Exact","8614 GAINES AVE, ORANGEVALE, CA, 95662",133356129,"R"
304247,"8614 HARTWOOD PL","LAUREL","MD",20704,39.102023495,-76.814449316,247,"8614 HARTWOOD PL, LAUREL, MD, 20704","Match","Non_Exact","8614 HARTWOOD PL, LAUREL, MD, 20724",68200231,"R"
304248,"8614 WEST ECHO LANE","PEORIA","AZ",85345,33.558343866,-112.245112804,248,"8614 WEST ECHO LANE, PEORIA, AZ, 85345","Match","Exact","8614 W ECHO LN, PEORIA, AZ, 85345",128416556,"L"
304249,"86142 GOODBREAD RD","YULEE","FL",32097,30.647531674,-81.6145463669999,249,"86142 GOODBREAD RD, YULEE, FL, 32097","Match","Exact","86142 GOODBREAD RD, YULEE, FL, 32097",650017512,"R"
304250,"861493","LOS ANGELES","CA",90086,NA,NA,250,"861493, LOS ANGELES, CA, 90086","No_Match",NA,NA,NA,NA
304251,"8615 336TH ST S","ROY","WA",98580,46.95236342,-122.544902189,251,"8615 336TH ST S, ROY, WA, 98580","Match","Exact","8615 336TH ST S, ROY, WA, 98580",184609514,"R"
304252,"8615 BRAUN HILL DR","SAN ANTONIO","TX",78254,29.523961914,-98.659958753,252,"8615 BRAUN HILL DR, SAN ANTONIO, TX, 78254","Match","Exact","8615 BRAUN HILL DR, SAN ANTONIO, TX, 78254",101571015,"L"
304253,"8615 CHICOT ROAD","LITTLE ROCK","AR",72209,34.6710806560001,-92.361685,253,"8615 CHICOT ROAD, LITTLE ROCK, AR, 72209","Match","Exact","8615 CHICOT RD, LITTLE ROCK, AR, 72209",83512200,"L"
304254,"8615 CHURCH LANE","RANDALLSTOWN","MD",21133,39.3661340520001,-76.777585474,254,"8615 CHURCH LANE, RANDALLSTOWN, MD, 21133","Match","Exact","8615 CHURCH LN, RANDALLSTOWN, MD, 21133",638537641,"L"
304255,"8615 COMMODITY CIR STE 11","ORLANDO","FL",32819,28.4440839700001,-81.432233977,255,"8615 COMMODITY CIR STE 11, ORLANDO, FL, 32819","Match","Exact","8615 COMMODITY CIR, ORLANDO, FL, 32819",606164550,"L"
304256,"8615 DUNMORE DRIVE","SARASOTA","FL",34231,27.224786737,-82.502354901,256,"8615 DUNMORE DRIVE, SARASOTA, FL, 34231","Match","Exact","8615 DUNMORE DR, SARASOTA, FL, 34231",16357724,"L"
304257,"8615 EAST VILLAGE AVENUE","MONTGOMERY VILLAGE","MD",20886,39.184885185,-77.175534641,257,"8615 EAST VILLAGE AVENUE, MONTGOMERY VILLAGE, MD, 20886","Match","Exact","8615 E VILLAGE AVE, MONTGOMERY VILLAGE, MD, 20886",62092379,"R"
304258,"8615 FORTE STREET","SACRAMENTO","CA",95823,38.4451768380001,-121.41836622,258,"8615 FORTE STREET, SACRAMENTO, CA, 95823","Match","Exact","8615 FORTE ST, SACRAMENTO, CA, 95823",645238159,"R"
304259,"8615 HONEYTREE BLVD 126","CANTON","MI",48187,42.3511866910001,-83.4351885739999,259,"8615 HONEYTREE BLVD 126, CANTON, MI, 48187","Match","Exact","8615 HONEYTREE BLVD, CANTON, MI, 48187",635386389,"L"
304260,"8615 LARIMORE","OMAHA","NE",68134,41.302355758,-96.0459933719999,260,"8615 LARIMORE, OMAHA, NE, 68134","Match","Non_Exact","8615 LARIMORE AVE, OMAHA, NE, 68134",116974961,"L"
304261,"8615 LYNBROOK DR","BETHESDA","MD",20814,38.9970527770001,-77.089586014,261,"8615 LYNBROOK DR, BETHESDA, MD, 20814","Match","Exact","8615 LYNBROOK DR, BETHESDA, MD, 20814",62065644,"R"
304262,"8615 MAIN ST","SORRENTO","LA",70778,30.194321508,-90.8495910359999,262,"8615 MAIN ST, SORRENTO, LA, 70778","Match","Exact","8615 MAIN ST, SORRENTO, LA, 70778",650952699,"R"
304263,"8615 MEADOWS PKWY","OMAHA","NE",68138,41.1736627770001,-96.133161999,263,"8615 MEADOWS PKWY, OMAHA, NE, 68138","Match","Exact","8615 MEADOWS PKWY, OMAHA, NE, 68138",28465585,"R"
304264,"8615 PETTY RD","CHATTANOOGA","TN",37421,35.0136321000001,-85.128160769,264,"8615 PETTY RD, CHATTANOOGA, TN, 37421","Match","Exact","8615 PETTY RD, CHATTANOOGA, TN, 37421",652142412,"L"
304265,"8615 S 134TH AVE","GOODYEAR","AZ",85338,33.36826762,-112.347152445,265,"8615 S 134TH AVE, GOODYEAR, AZ, 85338","Match","Non_Exact","8615 W 134TH AVE, GOODYEAR, AZ, 85338",627252714,"L"
304266,"8615 S STONY ISLAND AVE","CHICAGO","IL",60617,41.7383335160001,-87.585235606,266,"8615 S STONY ISLAND AVE, CHICAGO, IL, 60617","Match","Exact","8615 STONY ISLAND AVE, CHICAGO, IL, 60617",605550735,"L"
304267,"8616 BRUSHY CREEK TRL","FORT WORTH","TX",76118,32.800006383,-97.192523786,267,"8616 BRUSHY CREEK TRL, FORT WORTH, TX, 76118","Match","Exact","8616 BRUSHY CREEK TRL, FORT WORTH, TX, 76118",101919045,"R"
304268,"8616 CHERRY AVE","FONTANA","CA",92335,34.0973543280001,-117.488798525,268,"8616 CHERRY AVE, FONTANA, CA, 92335","Match","Exact","8616 CHERRY AVE, FONTANA, CA, 92335",614821168,"R"
304269,"8616 FERNWOOD LOOP SOUTH","SEMMES","AL",36575,30.7384478990001,-88.243480964,269,"8616 FERNWOOD LOOP SOUTH, SEMMES, AL, 36575","Match","Non_Exact","8616 FERNWOOD LOOP N, SEMMES, AL, 36575",640528627,"R"
304270,"8616 HICKORY PLACE","DENTON","MD",21629,38.8450475860001,-75.8357424279999,270,"8616 HICKORY PLACE, DENTON, MD, 21629","Match","Exact","8616 HICKORY PL, DENTON, MD, 21629",68303506,"R"
304271,"8616 LA TIJERA BLVD STE 502","LOS ANGELES","CA",90045,NA,NA,271,"8616 LA TIJERA BLVD STE 502, LOS ANGELES, CA, 90045","No_Match",NA,NA,NA,NA
304272,"8616 LA TIJERA BOULEVARD SUITE 404","LOS ANGELES","CA",90045,NA,NA,272,"8616 LA TIJERA BOULEVARD SUITE 404, LOS ANGELES, CA, 90045","No_Match",NA,NA,NA,NA
304273,"8616 NATIONS FORD RD","CHARLOTTE","NC",28217,35.13884282,-80.893355156,273,"8616 NATIONS FORD RD, CHARLOTTE, NC, 28217","Match","Exact","8616 NATIONS FORD RD, CHARLOTTE, NC, 28217",70486573,"R"
304274,"8616 OAK ST","NEW ORLEANS","LA",70118,29.9508792010001,-90.134147338,274,"8616 OAK ST, NEW ORLEANS, LA, 70118","Match","Exact","8616 OAK ST, NEW ORLEANS, LA, 70118",191701289,"L"
304275,"8616 PORTO BELLO AVE","NORTH PORT","FL",34287,27.0560103560001,-82.252280045,275,"8616 PORTO BELLO AVE, NORTH PORT, FL, 34287","Match","Exact","8616 PORTO BELLO AVE, NORTH PORT, FL, 34287",16410469,"R"
304276,"8616 SHADOW TRACE DR","FORT WORTH","TX",76244,32.8961356630001,-97.2817361309999,276,"8616 SHADOW TRACE DR, FORT WORTH, TX, 76244","Match","Exact","8616 SHADOW TRACE DR, FORT WORTH, TX, 76244",102105773,"R"
304277,"8616 STATE ROUTE 124","SHERMAN","IL",62684,39.927704168,-89.624345407,277,"8616 STATE ROUTE 124, SHERMAN, IL, 62684","Match","Exact","8616 STATE RTE 124, SHERMAN, IL, 62684",638704766,"R"
304278,"8616 THOURON AVENUE","PHILADELPHIA","PA",19150,40.0783015330001,-75.1806352249999,278,"8616 THOURON AVENUE, PHILADELPHIA, PA, 19150","Match","Exact","8616 THOURON AVE, PHILADELPHIA, PA, 19150",131394656,"L"
304279,"8616 TIOGAWOODS DR","SACRAMENTO","CA",95828,38.474793425,-121.385363422,279,"8616 TIOGAWOODS DR, SACRAMENTO, CA, 95828","Match","Exact","8616 TIOGAWOODS DR, SACRAMENTO, CA, 95828",133354473,"R"
304280,"8616 VENOY CT","ALEXANDRIA","VA",22309,38.723689252,-77.129412368,280,"8616 VENOY CT, ALEXANDRIA, VA, 22309","Match","Exact","8616 VENOY CT, ALEXANDRIA, VA, 22309",651707860,"R"
304281,"8616 WILLOW OAK RD","PARKVILLE","MD",21234,39.3955744450001,-76.5608952699999,281,"8616 WILLOW OAK RD, PARKVILLE, MD, 21234","Match","Exact","8616 WILLOW OAK RD, PARKVILLE, MD, 21234",191534374,"L"
304282,"861615 N HAMPTON CLUB WAY","FERNANDINA BEACH","FL",32034,30.5944434780001,-81.5564892849999,282,"861615 N HAMPTON CLUB WAY, FERNANDINA BEACH, FL, 32034","Match","Non_Exact","861615 N HAMPTON CLUB WAY, FERNANDINA BCH, FL, 32034",635498343,"L"
304283,"8617 EAST COLONIAL DRIVE","ORLANDO","FL",32826,28.5684158760001,-81.270539582,283,"8617 EAST COLONIAL DRIVE, ORLANDO, FL, 32826","Match","Non_Exact","8617 E COLONIAL DR, ORLANDO, FL, 32817",94294541,"L"
304284,"8617 SE ANTHIONE WAY","HOBE SOUND","FL",33455,27.0547076780001,-80.137980979,284,"8617 SE ANTHIONE WAY, HOBE SOUND, FL, 33455","Match","Non_Exact","8617 SE ANTHION WAY, HOBE SOUND, FL, 33455",120438733,"L"
304285,"8617 SUNBURST LANE","KNOXVILLE","TN",37922,35.8907856430001,-84.0376493639999,285,"8617 SUNBURST LANE, KNOXVILLE, TN, 37922","Match","Exact","8617 SUNBURST LN, KNOXVILLE, TN, 37922",650444001,"R"
304286,"8617 W REPUBLICAN RD","JACKSONVILLE","AR",72076,34.9414957060001,-92.2008798099999,286,"8617 W REPUBLICAN RD, JACKSONVILLE, AR, 72076","Match","Exact","8617 W REPUBLICAN RD, JACKSONVILLE, AR, 72076",83496962,"R"
304287,"86177 SHELTER ISLAND DRIVE","FERNANDINA BEACH","FL",32034,NA,NA,287,"86177 SHELTER ISLAND DRIVE, FERNANDINA BEACH, FL, 32034","No_Match",NA,NA,NA,NA
304288,"8618 CHUKAR CIRCLE","FOUNTAIN VALLEY","CA",92708,NA,NA,288,"8618 CHUKAR CIRCLE, FOUNTAIN VALLEY, CA, 92708","No_Match",NA,NA,NA,NA
304289,"8618 EDINBUROUGH LN","FORT WAYNE","IN",46819,41.006018119,-85.149749749,289,"8618 EDINBUROUGH LN, FORT WAYNE, IN, 46819","Match","Exact","8618 EDINBUROUGH LN, FORT WAYNE, IN, 46819",606531453,"R"
304290,"8618 HWY 955 E","ETHEL","LA",70730,30.7723925190001,-91.076605263,290,"8618 HWY 955 E, ETHEL, LA, 70730","Match","Non_Exact","8618 HWY 955, ETHEL, LA, 70730",75691995,"R"
304291,"8618 INGRAM LANE","AVON","IN",46123,39.78891108,-86.369137268,291,"8618 INGRAM LANE, AVON, IN, 46123","Match","Exact","8618 INGRAM LN, AVON, IN, 46123",624350095,"L"
304292,"8618 MARIPOSA STREET","THORNTON","CO",80260,39.8534828420001,-105.001305972,292,"8618 MARIPOSA STREET, THORNTON, CO, 80260","Match","Exact","8618 MARIPOSA ST, THORNTON, CO, 80260",633249352,"R"
304293,"8618 MISSION DR","ROSEMEAD","CA",91770,34.08747666,-118.081453794,293,"8618 MISSION DR, ROSEMEAD, CA, 91770","Match","Exact","8618 MISSION DR, ROSEMEAD, CA, 91770",241241039,"R"
304294,"8618 N IL HWY 148","MOUNT VERNON","IL",62864,NA,NA,294,"8618 N IL HWY 148, MOUNT VERNON, IL, 62864","No_Match",NA,NA,NA,NA
304295,"8618 SAWLEAF CT","CHARLOTTE","NC",28215,35.233140248,-80.681424923,295,"8618 SAWLEAF CT, CHARLOTTE, NC, 28215","Match","Exact","8618 SAWLEAF CT, CHARLOTTE, NC, 28215",70562040,"R"
304296,"8618 SCENIC GREEN DRIVE","HOUSTON","TX",77088,29.8799914100001,-95.458424082,296,"8618 SCENIC GREEN DRIVE, HOUSTON, TX, 77088","Match","Exact","8618 SCENIC GREEN DR, HOUSTON, TX, 77088",96130824,"L"
304297,"8618 WEST CREIGHTON PLACE","SAVANNAH","GA",31406,31.987831677,-81.100850381,297,"8618 WEST CREIGHTON PLACE, SAVANNAH, GA, 31406","Match","Exact","8618 W CREIGHTON PL, SAVANNAH, GA, 31406",6180056,"L"
304298,"8619 BARRON WOOD CIRCLE E","HOUSTON","TX",77083,29.682520159,-95.632693731,298,"8619 BARRON WOOD CIRCLE E, HOUSTON, TX, 77083","Match","Exact","8619 BARRON WOOD CIR E, HOUSTON, TX, 77083",96560109,"L"
304299,"8619 DARRINGTON DRIVE","DALLAS","TX",75249,32.659147295,-96.949312237,299,"8619 DARRINGTON DRIVE, DALLAS, TX, 75249","Match","Exact","8619 DARRINGTON DR, DALLAS, TX, 75249",619146144,"R"
304300,"8619 GRANTWOOD TRAILS COURT","ST LOUIS","MO",63123,38.5617474260001,-90.356356288,300,"8619 GRANTWOOD TRAILS COURT, ST LOUIS, MO, 63123","Match","Exact","8619 GRANTWOOD TRAILS CT, SAINT LOUIS, MO, 63123",100189349,"R"
304301,"8619 RESEDA BLVD STE 304C","NORTHRIDGE","CA",91324,34.226985923,-118.536083707,301,"8619 RESEDA BLVD STE 304C, NORTHRIDGE, CA, 91324","Match","Exact","8619 RESEDA BLVD, NORTHRIDGE, CA, 91324",141541211,"L"
304302,"8619 S 22ND STREET","PHOENIX","AZ",85042,33.368290863,-112.035900638,302,"8619 S 22ND STREET, PHOENIX, AZ, 85042","Match","Exact","8619 S 22ND ST, PHOENIX, AZ, 85042",243999926,"R"
304303,"8619 SOUTHFIELD RD","DETROIT","MI",48228,42.356287567,-83.216735495,303,"8619 SOUTHFIELD RD, DETROIT, MI, 48228","Match","Non_Exact","8619 SOUTHFIELD FWY, DETROIT, MI, 48228",95439973,"L"
304304,"86190 EVERGREEN PLACE","YULEE","FL",32097,30.616731762,-81.581364268,304,"86190 EVERGREEN PLACE, YULEE, FL, 32097","Match","Exact","86190 EVERGREEN PL, YULEE, FL, 32097",646719568,"L"
304305,"862 47TH ST SW SUITE C","WYOMING","MI",49509,42.8789258910001,-85.686426433,305,"862 47TH ST SW SUITE C, WYOMING, MI, 49509","Match","Exact","862 47TH ST SW, WYOMING, MI, 49509",12505250,"L"
304306,"862 AYRDALE RD","PHILADELPHIA","PA",19128,40.0740375710001,-75.2404504629999,306,"862 AYRDALE RD, PHILADELPHIA, PA, 19128","Match","Exact","862 AYRDALE RD, PHILADELPHIA, PA, 19128",131393089,"R"
304307,"862 BARN SWALLOW LN","MILAN","MI",48160,42.0712608310001,-83.6813982739999,307,"862 BARN SWALLOW LN, MILAN, MI, 48160","Match","Exact","862 BARN SWALLOW LN, MILAN, MI, 48160",648780441,"R"
304308,"862 BLUE SKY RDG","SNELLVILLE","GA",30078,33.892519082,-84.0467279059999,308,"862 BLUE SKY RDG, SNELLVILLE, GA, 30078","Match","Exact","862 BLUE SKY RIDGE, SNELLVILLE, GA, 30078",627619568,"R"
304309,"862 BOAR CIRCLE","FREMONT","CA",94539,37.5091745490001,-121.911992409,309,"862 BOAR CIRCLE, FREMONT, CA, 94539","Match","Exact","862 BOAR CIR, FREMONT, CA, 94539",617583439,"L"
304310,"862 BRIDLEMINE DRIVE","FUQUAY VARINA","NC",27526,35.5708017590001,-78.815142107,310,"862 BRIDLEMINE DRIVE, FUQUAY VARINA, NC, 27526","Match","Exact","862 BRIDLEMINE DR, FUQUAY VARINA, NC, 27526",627865403,"L"
304311,"862 CHAPELWOOD BLVD","INDIANAPOLIS","IN",46214,39.7769700870001,-86.294018954,311,"862 CHAPELWOOD BLVD, INDIANAPOLIS, IN, 46214","Match","Exact","862 CHAPELWOOD BLVD, INDIANAPOLIS, IN, 46214",108056865,"R"
304312,"862 DUNNING RD","NEW FRANKLIN","OH",44614,40.9131253310001,-81.566511261,312,"862 DUNNING RD, NEW FRANKLIN, OH, 44614","Match","Exact","862 DUNNING RD, NEW FRANKLIN, OH, 44614",61359274,"L"
304313,"862 E 2070 N","LEHI","UT",84043,40.413274578,-111.835718305,313,"862 E 2070 N, LEHI, UT, 84043","Match","Exact","862 E 2070 N, LEHI, UT, 84043",134264422,"R"
304314,"862 EAST 800 SOUTH","SPRINGVILLE","UT",84663,40.1547501570001,-111.59576079,314,"862 EAST 800 SOUTH, SPRINGVILLE, UT, 84663","Match","Exact","862 E 800 S, SPRINGVILLE, UT, 84663",134236248,"R"
304315,"862 EAST CHOCOLATE AVENUE","HERSHEY","PA",17033,40.292929051,-76.630992448,315,"862 EAST CHOCOLATE AVENUE, HERSHEY, PA, 17033","Match","Exact","862 E CHOCOLATE AVE, HERSHEY, PA, 17033",70827590,"R"
304316,"862 EAST STREET","ONEONTA","NY",13820,42.5154098470001,-75.0478334859999,316,"862 EAST STREET, ONEONTA, NY, 13820","Match","Exact","862 EAST ST, ONEONTA, NY, 13820",125944352,"R"
304317,"862 IVY TRACE DRIVE","BALLWIN","MO",63021,38.55973112,-90.512765738,317,"862 IVY TRACE DRIVE, BALLWIN, MO, 63021","Match","Exact","862 IVY TRCE, BALLWIN, MO, 63021",100185074,"L"
304318,"862 MCALWAY RD","CHARLOTTE","NC",28211,35.1896943240001,-80.793521657,318,"862 MCALWAY RD, CHARLOTTE, NC, 28211","Match","Exact","862 MCALWAY RD, CHARLOTTE, NC, 28211",70488989,"R"
304319,"862 NORTH MARSHFIELD AVE APT B","CHICAGO","IL",60622,41.8977827840001,-87.66856817,319,"862 NORTH MARSHFIELD AVE APT B, CHICAGO, IL, 60622","Match","Exact","862 N MARSHFIELD AVE, CHICAGO, IL, 60622",111764913,"L"
304320,"862 PARKROSE AVE","MEMPHIS","TN",38109,35.0236303550001,-90.0926889099999,320,"862 PARKROSE AVE, MEMPHIS, TN, 38109","Match","Non_Exact","862 PARKROSE RD, MEMPHIS, TN, 38109",72906708,"R"
304321,"862 PORTER ST","BEAUMONT","TX",77701,30.0649737410001,-94.086120099,321,"862 PORTER ST, BEAUMONT, TX, 77701","Match","Exact","862 PORTER ST, BEAUMONT, TX, 77701",73857367,"R"
304322,"862 QUAILWOODS DR","LOVELAND","OH",45140,39.260556681,-84.293403395,322,"862 QUAILWOODS DR, LOVELAND, OH, 45140","Match","Exact","862 QUAILWOODS DR, LOVELAND, OH, 45140",103946185,"R"
304323,"862 TERANCE AVENUE","JONESBORO","GA",30238,33.470080468,-84.3623126589999,323,"862 TERANCE AVENUE, JONESBORO, GA, 30238","Match","Exact","862 TERANCE AVE, JONESBORO, GA, 30238",23333464,"R"
304324,"862 UNION ST APT 1D","BROOKLYN","NY",11215,40.6737934770001,-73.9737468389999,324,"862 UNION ST APT 1D, BROOKLYN, NY, 11215","Match","Exact","862 UNION ST, BROOKLYN, NY, 11215",652208059,"R"
304325,"862 W SARAGOSA STREET","PHOENIX","AZ",85255,NA,NA,325,"862 W SARAGOSA STREET, PHOENIX, AZ, 85255","No_Match",NA,NA,NA,NA
304326,"862 WEST HIGH POINT DRIVE","CLAREMONT","CA",91711,34.135492013,-117.731136821,326,"862 WEST HIGH POINT DRIVE, CLAREMONT, CA, 91711","Match","Non_Exact","862 HIGHPOINT DR, CLAREMONT, CA, 91711",142790796,"L"
304327,"862","LEXINGTON","VA",24450,NA,NA,327,"862, LEXINGTON, VA, 24450","No_Match",NA,NA,NA,NA
304328,"8620 45TH PLACE","LYONS","IL",60534,41.8088257740001,-87.836222822,328,"8620 45TH PLACE, LYONS, IL, 60534","Match","Exact","8620 45TH PL, LYONS, IL, 60534",605150346,"R"
304329,"8620 BURNET ROAD  SUITE 475","AUSTIN","TX",78757,30.367861464,-97.7277009759999,329,"8620 BURNET ROAD  SUITE 475, AUSTIN, TX, 78757","Match","Exact","8620 BURNET RD, AUSTIN, TX, 78757",63930024,"L"
304330,"8620 CEDAR RIDGE DR","MIDWEST CITY","OK",73110,35.4742987440001,-97.3766815119999,330,"8620 CEDAR RIDGE DR, MIDWEST CITY, OK, 73110","Match","Exact","8620 CEDAR RIDGE DR, MIDWEST CITY, OK, 73110",100422812,"L"
304331,"8620 FRONTGATE LN","INDIANAPOLIS","IN",46256,39.8930194860001,-86.01768047,331,"8620 FRONTGATE LN, INDIANAPOLIS, IN, 46256","Match","Exact","8620 FRONTGATE LN, INDIANAPOLIS, IN, 46256",632543404,"R"
304332,"8620 HEARTLEAF RD","CHARLOTTE","NC",28227,35.219064571,-80.6575591389999,332,"8620 HEARTLEAF RD, CHARLOTTE, NC, 28227","Match","Exact","8620 HEARTLEAF RD, CHARLOTTE, NC, 28227",618147958,"R"
304333,"8620 KENLEIGH DRIVE","QUINTON","VA",23141,37.5316218620001,-77.1313089289999,333,"8620 KENLEIGH DRIVE, QUINTON, VA, 23141","Match","Exact","8620 KENLEIGH DR, QUINTON, VA, 23141",607172788,"R"
304334,"8620 LYONS STREET","DES PLAINES","IL",60016,42.049087129,-87.841215517,334,"8620 LYONS STREET, DES PLAINES, IL, 60016","Match","Exact","8620 LYONS ST, DES PLAINES, IL, 60016",111730880,"R"
304335,"8620 LYONS STREET","MORTON GROVE","IL",60016,42.049087129,-87.841215517,335,"8620 LYONS STREET, MORTON GROVE, IL, 60016","Match","Non_Exact","8620 LYONS ST, DES PLAINES, IL, 60016",111730880,"R"
304336,"8620 MABLE CREST","HOUSTON","TX",77099,29.68326476,-95.5656654209999,336,"8620 MABLE CREST, HOUSTON, TX, 77099","Match","Non_Exact","8620 MAPLECREST DR, HOUSTON, TX, 77099",96603322,"R"
304337,"8620 MAPLE AVE","GARY","IN",46403,41.6190673140001,-87.234305023,337,"8620 MAPLE AVE, GARY, IN, 46403","Match","Exact","8620 MAPLE AVE, GARY, IN, 46403",98437649,"L"
304338,"8620 MIDLAND RD","MIDLAND","GA",31820,32.574227555,-84.8109908,338,"8620 MIDLAND RD, MIDLAND, GA, 31820","Match","Exact","8620 MIDLAND RD, MIDLAND, GA, 31820",98954415,"L"
304339,"8620 MORA LANE","SAINT LOUIS","MO",63147,38.716679884,-90.2483798,339,"8620 MORA LANE, SAINT LOUIS, MO, 63147","Match","Exact","8620 MORA LN, SAINT LOUIS, MO, 63147",107591943,"R"
304340,"8620 N 14TH STREET","PHOENIX","AZ",85020,33.562303076,-112.052813091,340,"8620 N 14TH STREET, PHOENIX, AZ, 85020","Match","Exact","8620 N 14TH ST, PHOENIX, AZ, 85020",642854237,"L"
304341,"8620 N NEW BRAUNFELS SUITE 315","SAN ANTONIO","TX",78217,NA,NA,341,"8620 N NEW BRAUNFELS SUITE 315, SAN ANTONIO, TX, 78217","No_Match",NA,NA,NA,NA
304342,"8620 PLEASANT PLAINS RD","TOWSON","MD",21286,39.395396621,-76.568428049,342,"8620 PLEASANT PLAINS RD, TOWSON, MD, 21286","Match","Exact","8620 PLEASANT PLAINS RD, TOWSON, MD, 21286",191519673,"L"
304343,"8620 S OSWEGO AVE","TULSA","OK",74137,36.040530029,-95.933187802,343,"8620 S OSWEGO AVE, TULSA, OK, 74137","Match","Exact","8620 S OSWEGO AVE, TULSA, OK, 74137",166461161,"L"
304344,"8620 TRUMPETER DRIVE","INDIANAPOLIS","IN",46234,39.7988405770001,-86.3155915409999,344,"8620 TRUMPETER DRIVE, INDIANAPOLIS, IN, 46234","Match","Exact","8620 TRUMPETER DR, INDIANAPOLIS, IN, 46234",108042497,"L"
304345,"8620 WESTWOOD CENTER DR","VIENNA","VA",22182,38.9290317790001,-77.246225035,345,"8620 WESTWOOD CENTER DR, VIENNA, VA, 22182","Match","Exact","8620 WESTWOOD CENTER DR, VIENNA, VA, 22182",76024352,"R"
304346,"8621 ALGON AVENUE","PHILADELPHIA","PA",19152,40.0756739460001,-75.051215532,346,"8621 ALGON AVENUE, PHILADELPHIA, PA, 19152","Match","Exact","8621 ALGON AVE, PHILADELPHIA, PA, 19152",131431486,"R"
304347,"8621 E WRIGHTSTOWN RD","TUCSON","AZ",85715,32.2453367150001,-110.808468838,347,"8621 E WRIGHTSTOWN RD, TUCSON, AZ, 85715","Match","Exact","8621 E WRIGHTSTOWN RD, TUCSON, AZ, 85715",121183125,"L"
304348,"8621 JAYSEEL STREET","SUNLAND","CA",91040,34.265697737,-118.320364747,348,"8621 JAYSEEL STREET, SUNLAND, CA, 91040","Match","Exact","8621 JAYSEEL ST, SUNLAND, CA, 91040",642867686,"R"
304349,"8621 N VALLEY PIKE","ROCKINGHAM","VA",22802,38.539615138,-78.76839556,349,"8621 N VALLEY PIKE, ROCKINGHAM, VA, 22802","Match","Exact","8621 N VALLEY PIKE, ROCKINGHAM, VA, 22802",215307940,"L"
304350,"8621 RUTHELEN STREET","LOS ANGELES","CA",90047,33.959270245,-118.313077355,350,"8621 RUTHELEN STREET, LOS ANGELES, CA, 90047","Match","Exact","8621 RUTHELEN ST, LOS ANGELES, CA, 90047",141658663,"R"
304351,"8621 S DAMEN","CHICAGO","IL",60620,41.7369921280001,-87.672810554,351,"8621 S DAMEN, CHICAGO, IL, 60620","Match","Non_Exact","8621 S DAMEN AVE, CHICAGO, IL, 60620",604994384,"L"
304352,"8621 SW 184TH LANE","MIAMI","FL",33157,25.5979169670001,-80.331393383,352,"8621 SW 184TH LANE, MIAMI, FL, 33157","Match","Exact","8621 SW 184TH LN, MIAMI, FL, 33157",116057343,"R"
304353,"8622 COLD LAKE DRIVE","HOUSTON","TX",77088,29.8799655870001,-95.46054889,353,"8622 COLD LAKE DRIVE, HOUSTON, TX, 77088","Match","Exact","8622 COLD LAKE DR, HOUSTON, TX, 77088",96027242,"R"
304354,"8622 GANN RD","SODDY- DAISY","TN",37379,35.2155352680001,-85.198809868,354,"8622 GANN RD, SODDY- DAISY, TN, 37379","Match","Exact","8622 GANN RD, SODDY DAISY, TN, 37379",59320663,"R"
304355,"8622 HYDRA LN","SAN DIEGO","CA",92126,32.9206548860001,-117.137747408,355,"8622 HYDRA LN, SAN DIEGO, CA, 92126","Match","Exact","8622 HYDRA LN, SAN DIEGO, CA, 92126",195318754,"L"
304356,"8622 N STATE HWY 130","NEWTON","IL",62448,NA,NA,356,"8622 N STATE HWY 130, NEWTON, IL, 62448","No_Match",NA,NA,NA,NA
304357,"8622 NORTH CENTERVILLE ROAD","WILLIAMSBURG","IN",47393,39.954714833,-84.99651797,357,"8622 NORTH CENTERVILLE ROAD, WILLIAMSBURG, IN, 47393","Match","Exact","8622 N CENTERVILLE RD, WILLIAMSBURG, IN, 47393",31339166,"L"
304358,"8622 REGENT STREET","JONESBORO","GA",30238,33.520810059,-84.388172383,358,"8622 REGENT STREET, JONESBORO, GA, 30238","Match","Exact","8622 REGENT ST, JONESBORO, GA, 30238",633907187,"L"
304359,"8622 ROUTE 414","LIBERTY","PA",16930,41.5583594060001,-77.111233816,359,"8622 ROUTE 414, LIBERTY, PA, 16930","Match","Non_Exact","8622 STATE RTE 414, LIBERTY, PA, 16930",632039832,"L"
304360,"8622 RUNNING BIRD LN","MISSOURI CITY","TX",77489,29.579465902,-95.518781168,360,"8622 RUNNING BIRD LN, MISSOURI CITY, TX, 77489","Match","Exact","8622 RUNNING BIRD LN, MISSOURI CITY, TX, 77489",641117864,"L"
304361,"8622 TAHOE COURT","SYLVANIA","OH",43560,41.6645496350001,-83.7496871069999,361,"8622 TAHOE COURT, SYLVANIA, OH, 43560","Match","Exact","8622 TAHOE CT, SYLVANIA, OH, 43560",33963029,"R"
304362,"8622 WREXHAM HTS","SAN ANTONIO","TX",78254,29.5260541110001,-98.660707219,362,"8622 WREXHAM HTS, SAN ANTONIO, TX, 78254","Match","Exact","8622 WREXHAM HTS, SAN ANTONIO, TX, 78254",101570970,"R"
304363,"8623 140TH AVE NORTH","WEST PALM BEACH","FL",33412,NA,NA,363,"8623 140TH AVE NORTH, WEST PALM BEACH, FL, 33412","No_Match",NA,NA,NA,NA
304364,"8623 LOHR VALLEY ROAD","IRVING","TX",75063,32.9226660460001,-96.97102467,364,"8623 LOHR VALLEY ROAD, IRVING, TX, 75063","Match","Non_Exact","8623 LOHR VALLEY DR, IRVING, TX, 75063",617054688,"R"
304365,"8623 NOYAK CT","FERNANDINA BEACH","FL",32034,30.615186673,-81.5492932659999,365,"8623 NOYAK CT, FERNANDINA BEACH, FL, 32034","Match","Exact","8623 NOYAK CT, FERNANDINA BCH, FL, 32034",635884927,"L"
304366,"8623 RUSH AVENUE APARTMENT 601","BATON ROUGE","LA",70810,30.348384706,-91.131917793,366,"8623 RUSH AVENUE APARTMENT 601, BATON ROUGE, LA, 70810","Match","Exact","8623 RUSH AVE, BATON ROUGE, LA, 70810",635969841,"L"
304367,"8624 197TH ST CT E","SPANAWAY","WA",98387,47.0772236860001,-122.314443142,367,"8624 197TH ST CT E, SPANAWAY, WA, 98387","Match","Exact","8624 197TH STREET CT E, SPANAWAY, WA, 98387",184742891,"R"
304368,"8624 CARYWOOD COURT","MECHANICSVILLE","VA",23116,37.664305373,-77.3973632619999,368,"8624 CARYWOOD COURT, MECHANICSVILLE, VA, 23116","Match","Exact","8624 CARYWOOD CT, MECHANICSVILLE, VA, 23116",84975741,"L"
304369,"8624 CULPEPPER DR","SACRAMENTO","CA",95823,38.44464902,-121.431169329,369,"8624 CULPEPPER DR, SACRAMENTO, CA, 95823","Match","Exact","8624 CULPEPPER DR, SACRAMENTO, CA, 95823",133380093,"R"
304370,"8624 FIRE ROCK RD","LAUREL","MD",20724,39.1006433210001,-76.807358236,370,"8624 FIRE ROCK RD, LAUREL, MD, 20724","Match","Exact","8624 FIRE ROCK RD, LAUREL, MD, 20724",68200261,"R"
304371,"8624 FLOORSTONE MILL DR","JACKSONVILLE","FL",32244,30.191369342,-81.820967588,371,"8624 FLOORSTONE MILL DR, JACKSONVILLE, FL, 32244","Match","Exact","8624 FLOORSTONE MILL DR, JACKSONVILLE, FL, 32244",614101865,"R"
304372,"8624 OLD BONHOMME ROAD","SAINT LOUIS","MO",63132,38.668181508,-90.3582928229999,372,"8624 OLD BONHOMME ROAD, SAINT LOUIS, MO, 63132","Match","Exact","8624 OLD BONHOMME RD, SAINT LOUIS, MO, 63132",100132976,"L"
304373,"8624 PIPPIN RD","CINCINNATI","OH",45251,39.2277860350001,-84.572937208,373,"8624 PIPPIN RD, CINCINNATI, OH, 45251","Match","Exact","8624 PIPPIN RD, CINCINNATI, OH, 45251",103919422,"R"
304374,"8624 SAGE SHADOW DRIVE","LAKESIDE","CA",92040,32.83115587,-116.908430945,374,"8624 SAGE SHADOW DRIVE, LAKESIDE, CA, 92040","Match","Exact","8624 SAGE SHADOW DR, LAKESIDE, CA, 92040",648590992,"L"
304375,"8625 184TH ST SW","EDMONDS","WA",98026,47.8323318180001,-122.350595604,375,"8625 184TH ST SW, EDMONDS, WA, 98026","Match","Exact","8625 184TH ST SW, EDMONDS, WA, 98026",608927559,"R"
304376,"8625 22ND AVENUE SW","SEATTLE","WA",98106,47.5261545550001,-122.361829527,376,"8625 22ND AVENUE SW, SEATTLE, WA, 98106","Match","Exact","8625 22ND AVE SW, SEATTLE, WA, 98106",186591167,"R"
304377,"8625 CENTRAL PARK AVE","SKOKIE","IL",60076,42.0377361490001,-87.718202305,377,"8625 CENTRAL PARK AVE, SKOKIE, IL, 60076","Match","Exact","8625 CENTRAL PARK AVE, SKOKIE, IL, 60076",111740454,"R"
304378,"8625 CHRIS SUZANNE CIRCLE","CORDOVA","TN",38018,35.125846032,-89.7753583319999,378,"8625 CHRIS SUZANNE CIRCLE, CORDOVA, TN, 38018","Match","Exact","8625 CHRIS SUZANNE CIR, CORDOVA, TN, 38018",72954702,"R"
304379,"8625 HICKORY STREET APT 1324","FRISCO","TX",75034,33.145807136,-96.811839048,379,"8625 HICKORY STREET APT 1324, FRISCO, TX, 75034","Match","Exact","8625 HICKORY ST, FRISCO, TX, 75034",123527850,"L"
304380,"8625 KENSINGTON LN","NORTH RICHLAND HILLS","TX",76182,32.9096712730001,-97.1931682109999,380,"8625 KENSINGTON LN, NORTH RICHLAND HILLS, TX, 76182","Match","Exact","8625 KENSINGTON LN, NORTH RICHLAND HILLS, TX, 76182",102084414,"L"
304381,"8625 LAKESHORE ROAD","LEXINGTON","MI",48450,43.1792635210001,-82.5082030949999,381,"8625 LAKESHORE ROAD, LEXINGTON, MI, 48450","Match","Exact","8625 LAKESHORE RD, LEXINGTON, MI, 48450",636234704,"R"
304382,"8625 NW 2ND ST STE 116","MIAMI","FL",33126,25.771117025,-80.3355330859999,382,"8625 NW 2ND ST STE 116, MIAMI, FL, 33126","Match","Non_Exact","8625 NW 2ND ST, MIAMI, FL, 33126",640561291,"R"
304383,"8625 QUAKER BROTHERS DRIVER","ELLICOTT CITY","MD",21043,39.26142622,-76.817613346,383,"8625 QUAKER BROTHERS DRIVER, ELLICOTT CITY, MD, 21043","Match","Non_Exact","8625 QUAKER BROTHERS DR, ELLICOTT CITY, MD, 21043",158935822,"L"
304384,"8625 SERIO WAY","ELK GROVE","CA",95758,38.4449681,-121.410137103,384,"8625 SERIO WAY, ELK GROVE, CA, 95758","Match","Exact","8625 SERIO WAY, ELK GROVE, CA, 95758",133407154,"L"
304385,"8625 SOUTHAMPTON DRIVE","MIRAMAR","FL",33025,25.9781015990001,-80.2577559649999,385,"8625 SOUTHAMPTON DRIVE, MIRAMAR, FL, 33025","Match","Exact","8625 SOUTHAMPTON DR, MIRAMAR, FL, 33025",114733688,"R"
304386,"8625 STATE STREET","EAST ST LOUIS","IL",62203,NA,NA,386,"8625 STATE STREET, EAST ST LOUIS, IL, 62203","No_Match",NA,NA,NA,NA
304387,"8625 TURNSTONE SHORE LANE","RIVERVIEW","FL",33578,27.887205856,-82.353239273,387,"8625 TURNSTONE SHORE LANE, RIVERVIEW, FL, 33578","Match","Exact","8625 TURNSTONE SHORE LN, RIVERVIEW, FL, 33578",641720691,"R"
304388,"8625 WEBSTER TAVERN WAY","MANASSAS","VA",20109,38.7684404350001,-77.549087056,388,"8625 WEBSTER TAVERN WAY, MANASSAS, VA, 20109","Match","Exact","8625 WEBSTER TAVERN WAY, MANASSAS, VA, 20109",207142981,"L"
304389,"8625 WINDMILL ROAD","RANDALLSTOWN","MD",21133,39.379033688,-76.771975713,389,"8625 WINDMILL ROAD, RANDALLSTOWN, MD, 21133","Match","Exact","8625 WINDMILL RD, RANDALLSTOWN, MD, 21133",191504301,"L"
304390,"8626 COTTONWAY LANE","TAMPA","FL",33635,28.0305920110001,-82.620159191,390,"8626 COTTONWAY LANE, TAMPA, FL, 33635","Match","Exact","8626 COTTONWAY LN, TAMPA, FL, 33635",104602948,"R"
304391,"8626 FALLBROOK WAY","SACRAMENTO","CA",95826,38.555153911,-121.387705971,391,"8626 FALLBROOK WAY, SACRAMENTO, CA, 95826","Match","Exact","8626 FALLBROOK WAY, SACRAMENTO, CA, 95826",133338586,"R"
304392,"8626 HOTCHKISS DR","FRANKFORT","IL",60423,41.5139958400001,-87.825615966,392,"8626 HOTCHKISS DR, FRANKFORT, IL, 60423","Match","Exact","8626 HOTCHKISS DR, FRANKFORT, IL, 60423",111629179,"R"
304393,"8626 N 8TH ST","PHOENIX","AZ",85051,33.5633480760001,-112.063981247,393,"8626 N 8TH ST, PHOENIX, AZ, 85051","Match","Non_Exact","8626 N 8TH ST, PHOENIX, AZ, 85020",128206785,"L"
304394,"8626 SW 83RD LOOP","OCALA","FL",34481,29.103243424,-82.264206386,394,"8626 SW 83RD LOOP, OCALA, FL, 34481","Match","Exact","8626 SW 83RD LOOP, OCALA, FL, 34481",647046342,"L"
304395,"8626 TESORO DR STE 310","SAN ANTONIO","TX",78217,29.51813495,-98.4543396619999,395,"8626 TESORO DR STE 310, SAN ANTONIO, TX, 78217","Match","Exact","8626 TESORO DR, SAN ANTONIO, TX, 78217",641420558,"L"
304396,"86264 CARTESIAN POINTE DR","YULEE","FL",32097,30.614388611,-81.612738231,396,"86264 CARTESIAN POINTE DR, YULEE, FL, 32097","Match","Exact","86264 CARTESIAN POINTE DR, YULEE, FL, 32097",610867143,"R"
304397,"8627 BAY POINTE CIRCLE","INDIANAPOLIS","IN",46236,39.9145656430001,-85.938997265,397,"8627 BAY POINTE CIRCLE, INDIANAPOLIS, IN, 46236","Match","Exact","8627 BAY POINTE CIR, INDIANAPOLIS, IN, 46236",108033661,"L"
304398,"8627 CIINNAMON CREEK DRIVE","SAN ANTONIO","TX",78240,29.5224134590001,-98.57972807,398,"8627 CIINNAMON CREEK DRIVE, SAN ANTONIO, TX, 78240","Match","Non_Exact","8627 CINNAMON CREEK DR, SAN ANTONIO, TX, 78240",641655577,"L"
304399,"8627 EAGLE GLEN TERRACE","FAIRFAX STATION","VA",22039,38.7260253790001,-77.278360924,399,"8627 EAGLE GLEN TERRACE, FAIRFAX STATION, VA, 22039","Match","Exact","8627 EAGLE GLEN TER, FAIRFAX STATION, VA, 22039",645973620,"L"
304400,"8627 EAST 96TH PLACE","KANSAS CITY","MO",64134,38.949896493,-94.4882601639999,400,"8627 EAST 96TH PLACE, KANSAS CITY, MO, 64134","Match","Exact","8627 E 96TH PL, KANSAS CITY, MO, 64134",91466436,"R"
304401,"8627 ENOCH PRATT DR","ELLICOTT CITY","MD",21043,39.280276459,-76.8109681179999,401,"8627 ENOCH PRATT DR, ELLICOTT CITY, MD, 21043","Match","Exact","8627 ENOCH PRATT DR, ELLICOTT CITY, MD, 21043",647094162,"R"
304402,"8627 GANN ROAD","SODDY DAISY","TN",37379,35.217146627,-85.198114285,402,"8627 GANN ROAD, SODDY DAISY, TN, 37379","Match","Exact","8627 GANN RD, SODDY DAISY, TN, 37379",604711711,"R"
304403,"8627 HUFSMITH RD  NO 1217","TOMBALL","TX",77375,30.1314209170001,-95.5561801219999,403,"8627 HUFSMITH RD  NO 1217, TOMBALL, TX, 77375","Match","Non_Exact","8627 HUFSMITH RD, TOMBALL, TX, 77375",642114430,"R"
304404,"8627 S MARION AVE","TULSA","OK",74137,NA,NA,404,"8627 S MARION AVE, TULSA, OK, 74137","No_Match",NA,NA,NA,NA
304405,"8627 SOUTH LYNN DRIVE","PHOENIX","AZ",85042,33.36826862,-112.030132956,405,"8627 SOUTH LYNN DRIVE, PHOENIX, AZ, 85042","Match","Exact","8627 S LYNN DR, PHOENIX, AZ, 85042",128784812,"L"
304406,"8628 CIMARRON ST","LOS ANGELES","CA",90047,33.9595848970001,-118.316098211,406,"8628 CIMARRON ST, LOS ANGELES, CA, 90047","Match","Exact","8628 CIMARRON ST, LOS ANGELES, CA, 90047",141658648,"L"
304407,"8628 LOST MEADOW LANE","STOCKTON","CA",95210,38.029564775,-121.305690571,407,"8628 LOST MEADOW LANE, STOCKTON, CA, 95210","Match","Exact","8628 LOST MEADOW LN, STOCKTON, CA, 95210",133878330,"R"
304408,"8628 N 165TH E AVE","OWASSO","OK",74055,36.2797946170001,-95.788587562,408,"8628 N 165TH E AVE, OWASSO, OK, 74055","Match","Exact","8628 N 165TH EAST AVE, OWASSO, OK, 74055",612079920,"R"
304409,"8628 PAINTED HORSESHOE STREET","LAS VEGAS","NV",89131,36.3178998830001,-115.2132091,409,"8628 PAINTED HORSESHOE STREET, LAS VEGAS, NV, 89131","Match","Exact","8628 PAINTED HORSESHOE ST, LAS VEGAS, NV, 89131",632847464,"R"
304410,"8628 ROARING FORK","COLORADO SPRINGS","CO",80924,38.956642437,-104.720355625,410,"8628 ROARING FORK, COLORADO SPRINGS, CO, 80924","Match","Non_Exact","8628 ROARING FORK DR, COLORADO SPRINGS, CO, 80924",610691276,"L"
304411,"8628 S 10TH LN","PHOENIX","AZ",85041,33.3670333700001,-112.08713916,411,"8628 S 10TH LN, PHOENIX, AZ, 85041","Match","Exact","8628 S 10TH LN, PHOENIX, AZ, 85041",244018088,"L"
304412,"8628 SAN MIGUEL AVE","SOUTH GATE","CA",90280,33.956112429,-118.198698165,412,"8628 SAN MIGUEL AVE, SOUTH GATE, CA, 90280","Match","Exact","8628 SAN MIGUEL AVE, SOUTH GATE, CA, 90280",141676412,"L"
304413,"8628 SE 159TH PLACE","SUMMERFIELD","FL",34491,28.9905259600001,-82.01031535,413,"8628 SE 159TH PLACE, SUMMERFIELD, FL, 34491","Match","Exact","8628 SE 159TH PL, SUMMERFIELD, FL, 34491",116827065,"L"
304414,"8628 YORK SETTLEMENT RD","NORTH ROSE","NY",14516,43.1993144080001,-76.9728814919999,414,"8628 YORK SETTLEMENT RD, NORTH ROSE, NY, 14516","Match","Exact","8628 YORK SETTLEMENT RD, NORTH ROSE, NY, 14516",14923616,"L"
304415,"8629 120TH AVE N","WEST PALM BEACH","FL",33412,26.8034873450001,-80.2291425239999,415,"8629 120TH AVE N, WEST PALM BEACH, FL, 33412","Match","Exact","8629 120TH AVE N, WEST PALM BEACH, FL, 33412",115264081,"R"
304416,"8629 BERRYBROOK LANE","CHARLOTTE","NC",28269,35.315614838,-80.8265901349999,416,"8629 BERRYBROOK LANE, CHARLOTTE, NC, 28269","Match","Exact","8629 BERRYBROOK LN, CHARLOTTE, NC, 28269",645593948,"L"
304417,"8629 ENGLESIDE OFFICE PARK  UNIT A","ALEXANDRIA","VA",22309,NA,NA,417,"8629 ENGLESIDE OFFICE PARK  UNIT A, ALEXANDRIA, VA, 22309","No_Match",NA,NA,NA,NA
304418,"8629 S VERMONT AVE","LOS ANGELES","CA",90044,33.959165614,-118.291799151,418,"8629 S VERMONT AVE, LOS ANGELES, CA, 90044","Match","Exact","8629 S VERMONT AVE, LOS ANGELES, CA, 90044",141659978,"R"
304419,"862COUNTY LINE RD","BRYN MAWR","PA",19010,NA,NA,419,"862COUNTY LINE RD, BRYN MAWR, PA, 19010","No_Match",NA,NA,NA,NA
304420,"863  PROSPECT AVENUE","BRONX","NY",10459,40.8203765160001,-73.901337503,420,"863  PROSPECT AVENUE, BRONX, NY, 10459","Match","Exact","863 PROSPECT AVE, BRONX, NY, 10459",80302032,"L"
304421,"863 CARRIAGE LANE UNIT 5","PALATINE","IL",60074,42.1519123900001,-88.0222149049999,421,"863 CARRIAGE LANE UNIT 5, PALATINE, IL, 60074","Match","Non_Exact","863 E CARRIAGE LN, PALATINE, IL, 60074",111875981,"R"
304422,"863 EDISTO AVE","ORANGEBURG","SC",29115,33.4959210850001,-80.873903297,422,"863 EDISTO AVE, ORANGEBURG, SC, 29115","Match","Exact","863 EDISTO AVE, ORANGEBURG, SC, 29115",19217276,"L"
304423,"863 FLAT SHOALS RD SE UNIT C167","CONYERS","GA",30094,NA,NA,423,"863 FLAT SHOALS RD SE UNIT C167, CONYERS, GA, 30094","No_Match",NA,NA,NA,NA
304424,"863 FLAT SHOALS RD SUITE 160","CONYERS","GA",30094,NA,NA,424,"863 FLAT SHOALS RD SUITE 160, CONYERS, GA, 30094","No_Match",NA,NA,NA,NA
304425,"863 FLAT SHOALS ROAD SE","CONYERS","GA",30094,NA,NA,425,"863 FLAT SHOALS ROAD SE, CONYERS, GA, 30094","No_Match",NA,NA,NA,NA
304426,"863 FLAT SHOALS ROAD SUITE C244","CONYERS","GA",30094,NA,NA,426,"863 FLAT SHOALS ROAD SUITE C244, CONYERS, GA, 30094","No_Match",NA,NA,NA,NA
304427,"863 FOUNTAIN CIRCLE","REDDING","CA",96003,40.602905121,-122.343712109,427,"863 FOUNTAIN CIRCLE, REDDING, CA, 96003","Match","Exact","863 FOUNTAIN CIR, REDDING, CA, 96003",126659284,"L"
304428,"863 HAYDENS RIDGE","ELLENWOOD","GA",30294,33.641341464,-84.271341771,428,"863 HAYDENS RIDGE, ELLENWOOD, GA, 30294","Match","Exact","863 HAYDENS RIDGE, ELLENWOOD, GA, 30294",627695814,"L"
304429,"863 LAKE FOREST ROAD","CLEARWATER","FL",33765,27.9737948440001,-82.740466066,429,"863 LAKE FOREST ROAD, CLEARWATER, FL, 33765","Match","Exact","863 LAKE FOREST RD, CLEARWATER, FL, 33765",124738550,"R"
304430,"863 MADISON AVE","PATEROSN","NJ",7501,40.9113876910001,-74.1559570599999,430,"863 MADISON AVE, PATEROSN, NJ, 7501","Match","Non_Exact","863 MADISON AVE, PATERSON, NJ, 07501",65264482,"L"
304431,"863 MANZANITA AVENUE","PASADENA","CA",91103,34.1595922920001,-118.15404144,431,"863 MANZANITA AVENUE, PASADENA, CA, 91103","Match","Exact","863 MANZANITA AVE, PASADENA, CA, 91103",141627863,"L"
304432,"863 N JOHN WAY","CHANDLER","AZ",85225,33.319697885,-111.812210579,432,"863 N JOHN WAY, CHANDLER, AZ, 85225","Match","Exact","863 N JOHN WAY, CHANDLER, AZ, 85225",642858993,"R"
304433,"863 NE 30TH STREET","OAKLAND PARK","FL",33334,26.1652497690001,-80.134036405,433,"863 NE 30TH STREET, OAKLAND PARK, FL, 33334","Match","Exact","863 NE 30TH ST, OAKLAND PARK, FL, 33334",636371147,"R"
304434,"863 NORTH 26TH STREET","PHILADELPHIA","PA",19130,39.9720078060001,-75.179264534,434,"863 NORTH 26TH STREET, PHILADELPHIA, PA, 19130","Match","Exact","863 N 26TH ST, PHILADELPHIA, PA, 19130",131405397,"R"
304435,"863 NORTH ROAD SE","WARREN","OH",44484,41.227606909,-80.764269901,435,"863 NORTH ROAD SE, WARREN, OH, 44484","Match","Exact","863 NORTH RD SE, WARREN, OH, 44484",117427179,"L"
304436,"863 PLEASANT VALLEY WAY","WEST ORANGE","NJ",7052,40.7966604330001,-74.267477947,436,"863 PLEASANT VALLEY WAY, WEST ORANGE, NJ, 7052","Match","Exact","863 PLEASANT VALLEY WAY, WEST ORANGE, NJ, 07052",63477606,"R"
304437,"863 PLUMBRIDGE COURT","LITHONIA","GA",30058,33.7693261050001,-84.0852901549999,437,"863 PLUMBRIDGE COURT, LITHONIA, GA, 30058","Match","Exact","863 PLUMBRIDGE CT, LITHONIA, GA, 30058",23394923,"L"
304438,"863 PROSPECT AVENUE","BRONX","NY",10459,40.8203765160001,-73.901337503,438,"863 PROSPECT AVENUE, BRONX, NY, 10459","Match","Exact","863 PROSPECT AVE, BRONX, NY, 10459",80302032,"L"
304439,"863 RICH MOUNTAIN ROAD","FLAT ROCK","NC",28731,35.30994565,-82.341872557,439,"863 RICH MOUNTAIN ROAD, FLAT ROCK, NC, 28731","Match","Exact","863 RICH MOUNTAIN RD, FLAT ROCK, NC, 28731",641283097,"L"
304440,"863 ROCKY FOREST CV S","CORDOVA","TN",38018,35.148799237,-89.751108302,440,"863 ROCKY FOREST CV S, CORDOVA, TN, 38018","Match","Exact","863 ROCKY FOREST COVE S, CORDOVA, TN, 38018",72949196,"R"
304441,"863 SCOTT RD","CANTON","GA",30115,34.215774314,-84.4451658309999,441,"863 SCOTT RD, CANTON, GA, 30115","Match","Exact","863 SCOTT RD, CANTON, GA, 30115",68858312,"L"
304442,"863 SOUTH 20TH ST","NEWARK","NJ",7108,40.7263784520001,-74.215769295,442,"863 SOUTH 20TH ST, NEWARK, NJ, 7108","Match","Exact","863 S 20TH ST, NEWARK, NJ, 07108",63465020,"R"
304443,"863 SOUTHLAND ROAD","VENICE","FL",34293,27.0417066150001,-82.414630002,443,"863 SOUTHLAND ROAD, VENICE, FL, 34293","Match","Exact","863 SOUTHLAND RD, VENICE, FL, 34293",16363244,"L"
304444,"863 W ORCHARD LANE","LITCHFIELD","AZ",85340,33.4940819870001,-112.372888162,444,"863 W ORCHARD LANE, LITCHFIELD, AZ, 85340","Match","Non_Exact","863 W ORCHARD LN, LITCHFIELD PK, AZ, 85340",647475011,"R"
304445,"863 WEST GEDDES AVENUE","LITTLETON","CO",80120,39.5831156400001,-104.999777826,445,"863 WEST GEDDES AVENUE, LITTLETON, CO, 80120","Match","Exact","863 W GEDDES AVE, LITTLETON, CO, 80120",177336802,"R"
304446,"863-B CANTERBURY STREET","ROSLINDALE","MA",2131,42.2806069160001,-71.114506159,446,"863-B CANTERBURY STREET, ROSLINDALE, MA, 2131","Match","Exact","863 CANTERBURY ST, ROSLINDALE, MA, 02131",85704838,"R"
304447,"8630 ABRAHAM LN","KNOXVILLE","TN",37931,35.962155239,-84.111763256,447,"8630 ABRAHAM LN, KNOXVILLE, TN, 37931","Match","Exact","8630 ABRAHAM LN, KNOXVILLE, TN, 37931",604625124,"L"
304448,"8630 BURTON WAY SUITE 202","LOS ANGELES","CA",90048,34.072123425,-118.380170197,448,"8630 BURTON WAY SUITE 202, LOS ANGELES, CA, 90048","Match","Exact","8630 BURTON WAY, LOS ANGELES, CA, 90048",141572884,"L"
304449,"8630 CLIFTON","SAINT LOUIS","MO",63136,38.7228164590001,-90.260467032,449,"8630 CLIFTON, SAINT LOUIS, MO, 63136","Match","Non_Exact","8630 CLIFTON AVE, SAINT LOUIS, MO, 63136",100149684,"R"
304450,"8630 FENTON STREET  SUITE 126","SILVER SPRING","MD",20910,38.9979089400001,-77.0276319829999,450,"8630 FENTON STREET  SUITE 126, SILVER SPRING, MD, 20910","Match","Exact","8630 FENTON ST, SILVER SPRING, MD, 20910",62068083,"L"
304451,"8630 FENTON STREET 126","SILVER SPRING","MD",20910,38.9979089400001,-77.0276319829999,451,"8630 FENTON STREET 126, SILVER SPRING, MD, 20910","Match","Exact","8630 FENTON ST, SILVER SPRING, MD, 20910",62068083,"L"
304452,"8630 GRAND AVE 3B","ELMHURST","NY",11373,NA,NA,452,"8630 GRAND AVE 3B, ELMHURST, NY, 11373","No_Match",NA,NA,NA,NA
304453,"8630 OLD MAPLE LANE","HUMBLE","TX",77338,30.0167385610001,-95.292889605,453,"8630 OLD MAPLE LANE, HUMBLE, TX, 77338","Match","Exact","8630 OLD MAPLE LN, HUMBLE, TX, 77338",651838689,"R"
304454,"8630 POWDER RIDGE TRAIL","WINDERMERE","FL",34786,28.441734997,-81.5657566,454,"8630 POWDER RIDGE TRAIL, WINDERMERE, FL, 34786","Match","Exact","8630 POWDER RIDGE TRL, WINDERMERE, FL, 34786",640860866,"R"
304455,"8630 RAMONA STREET","BELLFLOWER","CA",90706,33.8729163200001,-118.148237701,455,"8630 RAMONA STREET, BELLFLOWER, CA, 90706","Match","Exact","8630 RAMONA ST, BELLFLOWER, CA, 90706",142774243,"R"
304456,"8630 SAWLEAF CT","CHARLOTTE","NC",28215,35.2331295930001,-80.6812371249999,456,"8630 SAWLEAF CT, CHARLOTTE, NC, 28215","Match","Exact","8630 SAWLEAF CT, CHARLOTTE, NC, 28215",70562041,"R"
304457,"8630 STOREY","BELDING","MI",48809,43.1109914350001,-85.262741147,457,"8630 STOREY, BELDING, MI, 48809","Match","Non_Exact","8630 STOREY RD, BELDING, MI, 48809",12152761,"R"
304458,"8630 TRONA MINE","CONVERSE","TX",78109,29.4711938030001,-98.318042863,458,"8630 TRONA MINE, CONVERSE, TX, 78109","Match","Exact","8630 TRONA MINE, CONVERSE, TX, 78109",619949314,"R"
304459,"8630 WALDRIP CIRCLE","GAINESVILLE","GA",30506,34.249557404,-83.972848798,459,"8630 WALDRIP CIRCLE, GAINESVILLE, GA, 30506","Match","Exact","8630 WALDRIP CIR, GAINESVILLE, GA, 30506",70175426,"R"
304460,"8630-M GUILFORD ROAD SUITE 406","COLUMBIA","MD",21046,39.171361715,-76.8650311379999,460,"8630-M GUILFORD ROAD SUITE 406, COLUMBIA, MD, 21046","Match","Exact","8630 GUILFORD RD, COLUMBIA, MD, 21046",158967720,"R"
304461,"8630M GUILFORD RD STE 224","COLUMBIA","MD",21046,39.1713596610001,-76.865022767,461,"8630M GUILFORD RD STE 224, COLUMBIA, MD, 21046","Match","Exact","8630 GUILFORD RD, COLUMBIA, MD, 21046",158967720,"R"
304462,"8631 218TH ST SW","EDMONDS","WA",98026,47.8014441540001,-122.350460624,462,"8631 218TH ST SW, EDMONDS, WA, 98026","Match","Exact","8631 218TH ST SW, EDMONDS, WA, 98026",648624454,"R"
304463,"8631 DECATUR RD","FORT WAYNE","IN",46816,41.0068214290001,-85.103581505,463,"8631 DECATUR RD, FORT WAYNE, IN, 46816","Match","Exact","8631 DECATUR RD, FORT WAYNE, IN, 46816",606520094,"L"
304464,"8631 ISLA VISTA VALLEY CT","LAS VEGAS","NV",89178,36.0090308900001,-115.280513218,464,"8631 ISLA VISTA VALLEY CT, LAS VEGAS, NV, 89178","Match","Non_Exact","8631 W ISLA VISTA VALLEY CT, LAS VEGAS, NV, 89178",627344297,"R"
304465,"8631 KEELER AVE","SKOKIE","IL",60076,42.03774988,-87.732682615,465,"8631 KEELER AVE, SKOKIE, IL, 60076","Match","Exact","8631 KEELER AVE, SKOKIE, IL, 60076",111739343,"R"
304466,"8631 LAGUNA RIO","SAN ANTONIO","TX",78251,29.475886905,-98.6568181169999,466,"8631 LAGUNA RIO, SAN ANTONIO, TX, 78251","Match","Exact","8631 LAGUNA RIO, SAN ANTONIO, TX, 78251",619989861,"L"
304467,"8631 PIGEON ROOST RD","OLIVE BRANCH","MS",38654,34.9694980310001,-89.837471008,467,"8631 PIGEON ROOST RD, OLIVE BRANCH, MS, 38654","Match","Exact","8631 PIGEON ROOST RD, OLIVE BRANCH, MS, 38654",91841832,"R"
304468,"8631 SONGFEST DRIVE","PICO RIVERA","CA",90660,33.956324098,-118.097726252,468,"8631 SONGFEST DRIVE, PICO RIVERA, CA, 90660","Match","Exact","8631 SONGFEST DR, PICO RIVERA, CA, 90660",141738427,"R"
304469,"8631 SPRING CREEK COURT","SPRINGFIELD","VA",22153,38.7346794860001,-77.243144765,469,"8631 SPRING CREEK COURT, SPRINGFIELD, VA, 22153","Match","Exact","8631 SPRING CREEK CT, SPRINGFIELD, VA, 22153",639872349,"R"
304470,"8631 STANMOOR DRIVE","LOS ANGELES","CA",90045,33.95939401,-118.42496203,470,"8631 STANMOOR DRIVE, LOS ANGELES, CA, 90045","Match","Exact","8631 STANMOOR DR, LOS ANGELES, CA, 90045",141578543,"R"
304471,"8631 W 3RD STREET STE 250E","LOS ANGELES","CA",90048,34.0735836600001,-118.380499205,471,"8631 W 3RD STREET STE 250E, LOS ANGELES, CA, 90048","Match","Non_Exact","8631 W 3RD ST, LOS ANGELES, CA, 90048",141572401,"R"
304472,"8631 W MARY ANN","PEORIA","AZ",85382,NA,NA,472,"8631 W MARY ANN, PEORIA, AZ, 85382","No_Match",NA,NA,NA,NA
304473,"8631 WEST 3RD STREET STE 205 EAST","LOS ANGELES","CA",90048,34.0735834490001,-118.3804437,473,"8631 WEST 3RD STREET STE 205 EAST, LOS ANGELES, CA, 90048","Match","Exact","8631 W 3RD ST, LOS ANGELES, CA, 90048",141572401,"R"
304474,"8631 WEST MARY ANN DRIVE","PEORIA","AZ",85382,33.6702459900001,-112.244811497,474,"8631 WEST MARY ANN DRIVE, PEORIA, AZ, 85382","Match","Non_Exact","8631 MARY ANN DR, PEORIA, AZ, 85382",128882613,"L"
304475,"8631 WEST THIRD STREET SUITE 900E","LOS ANGELES","CA",90048,34.0735834490001,-118.3804437,475,"8631 WEST THIRD STREET SUITE 900E, LOS ANGELES, CA, 90048","Match","Exact","8631 W 3RD ST, LOS ANGELES, CA, 90048",141572401,"R"
304476,"8632 EDGEW DR","CAPITOL HEIGHTS","MD",20743,NA,NA,476,"8632 EDGEW DR, CAPITOL HEIGHTS, MD, 20743","No_Match",NA,NA,NA,NA
304477,"8632 FREDERICKSBURG RD   STE 105","SAN ANTONIO","TX",78240,29.5215029600001,-98.573667347,477,"8632 FREDERICKSBURG RD   STE 105, SAN ANTONIO, TX, 78240","Match","Exact","8632 FREDERICKSBURG RD, SAN ANTONIO, TX, 78240",101580260,"R"
304478,"8632 NW 34TH PL APT C203","SUNRISE","FL",33351,26.168838393,-80.2652109759999,478,"8632 NW 34TH PL APT C203, SUNRISE, FL, 33351","Match","Non_Exact","8632 NW 34TH PL, SUNRISE, FL, 33351",114702290,"R"
304479,"8632 REEDY BRANCH DRIVE","JACKSONVILLE","FL",32256,30.2124882850001,-81.519584395,479,"8632 REEDY BRANCH DRIVE, JACKSONVILLE, FL, 32256","Match","Exact","8632 REEDY BRANCH DR, JACKSONVILLE, FL, 32256",83952438,"R"
304480,"8632 SANDBERRY BLVD","ORLANDO","FL",32819,28.4729995610001,-81.504422991,480,"8632 SANDBERRY BLVD, ORLANDO, FL, 32819","Match","Exact","8632 SANDBERRY BLVD, ORLANDO, FL, 32819",94272024,"R"
304481,"8632 SE LAFAYETTE ST UNIT 2","PORTLAND","OR",97266,45.4964478640001,-122.573683916,481,"8632 SE LAFAYETTE ST UNIT 2, PORTLAND, OR, 97266","Match","Non_Exact","8632 SE LAFAYETTE ST, PORTLAND, OR, 97266",157520218,"R"
304482,"8632 W 103RD ST STE B","PALOS HILLS","IL",60465,41.703719849,-87.8331840439999,482,"8632 W 103RD ST STE B, PALOS HILLS, IL, 60465","Match","Exact","8632 103RD ST, PALOS HILLS, IL, 60465",111809625,"R"
304483,"8633 CHIPPEWA RD","LODI","OH",44254,41.0767118740001,-81.998800293,483,"8633 CHIPPEWA RD, LODI, OH, 44254","Match","Exact","8633 CHIPPEWA RD, LODI, OH, 44254",58683452,"R"
304484,"8633 EDWARDS ROAD","GENESEO","IL",61254,41.4438592060001,-90.265193035,484,"8633 EDWARDS ROAD, GENESEO, IL, 61254","Match","Exact","8633 EDWARDS RD, GENESEO, IL, 61254",8918558,"L"
304485,"8633 MACARTHUR ROAD","SARANAC","MI",48881,42.911512859,-85.246046033,485,"8633 MACARTHUR ROAD, SARANAC, MI, 48881","Match","Exact","8633 MACARTHUR RD, SARANAC, MI, 48881",647565511,"R"
304486,"8633 RANSOM LANE","KENLY","NC",27542,35.641573061,-78.106728996,486,"8633 RANSOM LANE, KENLY, NC, 27542","Match","Exact","8633 RANSOM LN, KENLY, NC, 27542",26720551,"L"
304487,"8633 SANDRO RD","BLOOMINGTON","MN",55438,44.8469349380001,-93.361243738,487,"8633 SANDRO RD, BLOOMINGTON, MN, 55438","Match","Non_Exact","8633 SANDRO RD S, BLOOMINGTON, MN, 55438",43811722,"L"
304488,"8633 SW MAIN ST SUITE 400","WILSONVILLE","OR",97070,45.3020373320001,-122.766133412,488,"8633 SW MAIN ST SUITE 400, WILSONVILLE, OR, 97070","Match","Exact","8633 MAIN ST, WILSONVILLE, OR, 97070",157946475,"L"
304489,"8633 SWAN CREEK ROAD","NEWPORT","MI",48166,42.0006583160001,-83.305724362,489,"8633 SWAN CREEK ROAD, NEWPORT, MI, 48166","Match","Exact","8633 SWAN CREEK RD, NEWPORT, MI, 48166",40495941,"L"
304490,"8633 W 400 N","MICHIGAN CITY","IN",46360,41.6656935030001,-86.865324858,490,"8633 W 400 N, MICHIGAN CITY, IN, 46360","Match","Exact","8633 W 400 N, MICHIGAN CITY, IN, 46360",604792916,"L"
304491,"8634 S 51ST STREET UNIT 3","PHOENIX","AZ",85044,33.3680777800001,-111.972283012,491,"8634 S 51ST STREET UNIT 3, PHOENIX, AZ, 85044","Match","Non_Exact","8634 S 51ST ST, PHOENIX, AZ, 85044",128923656,"R"
304492,"8634 S DAMEN AVE","CHICAGO","IL",60620,41.736898963,-87.672822901,492,"8634 S DAMEN AVE, CHICAGO, IL, 60620","Match","Exact","8634 S DAMEN AVE, CHICAGO, IL, 60620",604994384,"R"
304493,"8634 SILVER LURE DRIVE","HUMBLE","TX",77346,29.9857083840001,-95.145494158,493,"8634 SILVER LURE DRIVE, HUMBLE, TX, 77346","Match","Exact","8634 SILVER LURE DR, HUMBLE, TX, 77346",96422465,"R"
304494,"8635 234TH AVE","SALEM","WI",53168,42.551252366,-88.0921999349999,494,"8635 234TH AVE, SALEM, WI, 53168","Match","Exact","8635 234TH AVE, SALEM, WI, 53168",79797388,"L"
304495,"8635 BRENTON DRIVE","EASTON","MD",21601,38.7864888460001,-76.052322343,495,"8635 BRENTON DRIVE, EASTON, MD, 21601","Match","Exact","8635 BRENTON DR, EASTON, MD, 21601",607613332,"R"
304496,"8635 CHALLENGER DRIVE","CHARLOTTE","NC",28213,35.283100179,-80.737606596,496,"8635 CHALLENGER DRIVE, CHARLOTTE, NC, 28213","Match","Exact","8635 CHALLENGER DR, CHARLOTTE, NC, 28213",70558057,"L"
304497,"8635 CHICOT RD","LITTLE ROCK","AR",72209,34.670992589,-92.3616876419999,497,"8635 CHICOT RD, LITTLE ROCK, AR, 72209","Match","Exact","8635 CHICOT RD, LITTLE ROCK, AR, 72209",83512200,"L"
304498,"8635 FM 471 S","CASTROVILLE","TX",78009,NA,NA,498,"8635 FM 471 S, CASTROVILLE, TX, 78009","No_Match",NA,NA,NA,NA
304499,"8635 HUNTFIELD ST","TAMPA","FL",33635,28.033227346,-82.599760331,499,"8635 HUNTFIELD ST, TAMPA, FL, 33635","Match","Exact","8635 HUNTFIELD ST, TAMPA, FL, 33635",104577966,"L"
304500,"8635 MORRIS RD","HILLIARD","OH",43026,39.996562629,-83.2338431699999,500,"8635 MORRIS RD, HILLIARD, OH, 43026","Match","Exact","8635 MORRIS RD, HILLIARD, OH, 43026",218689680,"R"
