"ID","Address","City","State","Zip","lat","long","id","input_address","match_indicator","match_type","matched_address","tiger_line_id","tiger_side"
208001,"4214 W WENDOVER AVE UNIT 1047","GREENSBORO","NC",27407,36.0587507450001,-79.886116312,1,"4214 W WENDOVER AVE UNIT 1047, GREENSBORO, NC, 27407","Match","Non_Exact","4214 W WENDOVER AVE, GREENSBORO, NC, 27407",131095750,"R"
208002,"4214 WEST MLK HIGHWAY 80","TUSKEGEE INSTITUTE","AL",36083,32.3985526450001,-85.7450273919999,2,"4214 WEST MLK HIGHWAY 80, TUSKEGEE INSTITUTE, AL, 36083","Match","Non_Exact","4214 W MARTIN LUTHER KING HWY, TUSKEGEE, AL, 36083",652560983,"R"
208003,"42140 BLACK HILLS PL","ALDIE","VA",20105,38.9284340930001,-77.544941907,3,"42140 BLACK HILLS PL, ALDIE, VA, 20105","Match","Exact","42140 BLACK HILLS PL, ALDIE, VA, 20105",218898637,"L"
208004,"4215 12TH AVE","SACRAMENTO","CA",95817,38.541194325,-121.457585682,4,"4215 12TH AVE, SACRAMENTO, CA, 95817","Match","Exact","4215 12TH AVE, SACRAMENTO, CA, 95817",133327210,"L"
208005,"4215 166TH ST","FLUSHING","NY",11358,NA,NA,5,"4215 166TH ST, FLUSHING, NY, 11358","No_Match",NA,NA,NA,NA
208006,"4215 28TH COURT","VERO BEACH","FL",32967,27.6697678520001,-80.414028848,6,"4215 28TH COURT, VERO BEACH, FL, 32967","Match","Exact","4215 28TH CT, VERO BEACH, FL, 32967",120304088,"L"
208007,"4215 ANNAS RETREAT 177","ST THOMAS","VI",802,NA,NA,7,"4215 ANNAS RETREAT 177, ST THOMAS, VI, 802","No_Match",NA,NA,NA,NA
208008,"4215 BLACK OAK COURT","NEW ALBANY","IN",47150,38.3588383480001,-85.812244569,8,"4215 BLACK OAK COURT, NEW ALBANY, IN, 47150","Match","Exact","4215 BLACK OAK CT, NEW ALBANY, IN, 47150",89551147,"L"
208009,"4215 CALLAWAN CT","POWDER SPRINGS","GA",30127,33.884573059,-84.678855023,9,"4215 CALLAWAN CT, POWDER SPRINGS, GA, 30127","Match","Exact","4215 CALLAWAN CT, POWDER SPGS, GA, 30127",17236638,"R"
208010,"4215 DAVID COX ROAD","CHARLOTTE","NC",28269,35.3381713210001,-80.801581986,10,"4215 DAVID COX ROAD, CHARLOTTE, NC, 28269","Match","Exact","4215 DAVID COX RD, CHARLOTTE, NC, 28269",611248859,"L"
208011,"4215 DURANT ROAD","VALRICO","FL",33596,27.908296711,-82.227521891,11,"4215 DURANT ROAD, VALRICO, FL, 33596","Match","Exact","4215 DURANT RD, VALRICO, FL, 33596",104560498,"R"
208012,"4215 E OVERLOOK DRIVE","SAN DIEGO","CA",92115,32.7531694740001,-117.069449485,12,"4215 E OVERLOOK DRIVE, SAN DIEGO, CA, 92115","Match","Exact","4215 E OVERLOOK DR, SAN DIEGO, CA, 92115",195351135,"R"
208013,"4215 EUCLID AVE","KANSAS CITY","MO",64130,39.0499294640001,-94.560839151,13,"4215 EUCLID AVE, KANSAS CITY, MO, 64130","Match","Exact","4215 EUCLID AVE, KANSAS CITY, MO, 64130",91451911,"L"
208014,"4215 J L SMITH PARKWAY STE 19 231","HIRAM","GA",30141,NA,NA,14,"4215 J L SMITH PARKWAY STE 19 231, HIRAM, GA, 30141","No_Match",NA,NA,NA,NA
208015,"4215 MCDONALD RD","CHANDLERVILLE","OH",43727,39.89260468,-81.8291767379999,15,"4215 MCDONALD RD, CHANDLERVILLE, OH, 43727","Match","Non_Exact","4215 MCDONALD RD, CHANDLERSVILLE, OH, 43727",45586889,"L"
208016,"4215 MEREDITH DRIVE","VALDOSTA","GA",31605,30.8863739510001,-83.2366362769999,16,"4215 MEREDITH DRIVE, VALDOSTA, GA, 31605","Match","Exact","4215 MEREDITH DR, VALDOSTA, GA, 31605",647606589,"L"
208017,"4215 N SUNFLOWER AVE","COVINA","CA",91724,34.090194253,-117.846430318,17,"4215 N SUNFLOWER AVE, COVINA, CA, 91724","Match","Exact","4215 N SUNFLOWER AVE, COVINA, CA, 91724",642190681,"R"
208018,"4215 NAPA OAK DR APT 203","CHARLOTTE","NC",28216,NA,NA,18,"4215 NAPA OAK DR APT 203, CHARLOTTE, NC, 28216","No_Match",NA,NA,NA,NA
208019,"4215 NC HWY 210","SMITHFIELD","NC",27577,35.501220158,-78.428493005,19,"4215 NC HWY 210, SMITHFIELD, NC, 27577","Match","Non_Exact","4215 STATE HWY 210, SMITHFIELD, NC, 27577",639652569,"L"
208020,"4215 NORTH MAJOR DRIVE APT 1610","BEAUMONT","TX",77713,30.1159690260001,-94.190123808,20,"4215 NORTH MAJOR DRIVE APT 1610, BEAUMONT, TX, 77713","Match","Exact","4215 N MAJOR DR, BEAUMONT, TX, 77713",645777925,"L"
208021,"4215 NORTH MISSION ROAD","ROSEBUSH","MI",48878,43.7027997820001,-84.767857126,21,"4215 NORTH MISSION ROAD, ROSEBUSH, MI, 48878","Match","Exact","4215 N MISSION RD, ROSEBUSH, MI, 48878",110216329,"L"
208022,"4215 S CLAIBORNE AVE","NEW ORLEANS","LA",70125,29.940568741,-90.101334029,22,"4215 S CLAIBORNE AVE, NEW ORLEANS, LA, 70125","Match","Exact","4215 S CLAIBORNE AVE, NEW ORLEANS, LA, 70125",191711508,"R"
208023,"4215 SHADY RIV","MISSOURI CITY","TX",77459,29.5594561070001,-95.570155906,23,"4215 SHADY RIV, MISSOURI CITY, TX, 77459","Match","Exact","4215 SHADY RIVER, MISSOURI CITY, TX, 77459",78335484,"L"
208024,"4215 SUZANNE DR","PALO ALTO","CA",94306,37.406768809,-122.124478946,24,"4215 SUZANNE DR, PALO ALTO, CA, 94306","Match","Exact","4215 SUZANNE DR, PALO ALTO, CA, 94306",123006937,"L"
208025,"4215 SWEDEN DR","HERMITAGE","TN",37076,36.203311813,-86.6179750969999,25,"4215 SWEDEN DR, HERMITAGE, TN, 37076","Match","Exact","4215 SWEDEN DR, HERMITAGE, TN, 37076",97199122,"R"
208026,"4215 TWO RIVERS LN","FRANKLIN","MI",37069,NA,NA,26,"4215 TWO RIVERS LN, FRANKLIN, MI, 37069","No_Match",NA,NA,NA,NA
208027,"4215 UNION SQUARE BLVD APT 430","PALM BEACH GARDENS","FL",33410,26.835661358,-80.10430645,27,"4215 UNION SQUARE BLVD APT 430, PALM BEACH GARDENS, FL, 33410","Match","Exact","4215 UNION SQUARE BLVD, PALM BEACH GARDENS, FL, 33410",115263802,"L"
208028,"4215 VIEWMONT DR","RALEIGH","NC",27610,35.7419263470001,-78.5787832139999,28,"4215 VIEWMONT DR, RALEIGH, NC, 27610","Match","Exact","4215 VIEWMONT DR, RALEIGH, NC, 27610",72654647,"R"
208029,"4215 W WESTEND AVE","CHICAGO","IL",60624,41.8832922940001,-87.731318732,29,"4215 W WESTEND AVE, CHICAGO, IL, 60624","Match","Non_Exact","4215 W WEST END AVE, CHICAGO, IL, 60624",605080441,"L"
208030,"4215 WAYSIDE STREAM LN","HOUSTON","TX",77048,29.605756564,-95.352734496,30,"4215 WAYSIDE STREAM LN, HOUSTON, TX, 77048","Match","Exact","4215 WAYSIDE STREAM LN, HOUSTON, TX, 77048",636880672,"R"
208031,"4215 WILD COUNTRY COURT","DOUGLASVILLE","GA",30135,33.7144795620001,-84.7138827809999,31,"4215 WILD COUNTRY COURT, DOUGLASVILLE, GA, 30135","Match","Exact","4215 WILD COUNTRY CT, DOUGLASVILLE, GA, 30135",619876467,"L"
208032,"4215 WIREGRASS DRIVE","FORTMILL","SC",29707,34.9629160740001,-80.811521327,32,"4215 WIREGRASS DRIVE, FORTMILL, SC, 29707","Match","Non_Exact","4215 WIREGRASS DR, FORT MILL, SC, 29707",627941319,"L"
208033,"4215 WOODMONT DRIVE","HOUSTON","TX",77045,29.635870831,-95.441614514,33,"4215 WOODMONT DRIVE, HOUSTON, TX, 77045","Match","Exact","4215 WOODMONT DR, HOUSTON, TX, 77045",96040909,"L"
208034,"4215-90 ANNAS RETREAT","CHARLOTTE AMALIE","VI",802,NA,NA,34,"4215-90 ANNAS RETREAT, CHARLOTTE AMALIE, VI, 802","No_Match",NA,NA,NA,NA
208035,"4215-H WEST WENDOVER AVENUE","GREENSBORO","NC",27407,36.058769602,-79.886047231,35,"4215-H WEST WENDOVER AVENUE, GREENSBORO, NC, 27407","Match","Exact","4215 W WENDOVER AVE, GREENSBORO, NC, 27407",131095750,"L"
208036,"42150 STARLIGHT DRIVE","COARSEGOLD","CA",93614,37.2019698280001,-119.776806467,36,"42150 STARLIGHT DRIVE, COARSEGOLD, CA, 93614","Match","Exact","42150 STARLIGHT DR, COARSEGOLD, CA, 93614",102329743,"L"
208037,"42151 WEST ARVADA COURT","MARICOPA","AZ",85138,33.0498729980001,-112.020805439,37,"42151 WEST ARVADA COURT, MARICOPA, AZ, 85138","Match","Exact","42151 W ARVADA CT, MARICOPA, AZ, 85138",627948400,"R"
208038,"42152 SILVER PUFFS DR","QUARTZ HILL","CA",93536,34.647679495,-118.256689775,38,"42152 SILVER PUFFS DR, QUARTZ HILL, CA, 93536","Match","Exact","42152 SILVER PUFFS DR, QUARTZ HILL, CA, 93536",142676437,"L"
208039,"42155 GRISBY CT","CHANTILLY","VA",20152,38.884975395,-77.54558066,39,"42155 GRISBY CT, CHANTILLY, VA, 20152","Match","Exact","42155 GRISBY CT, CHANTILLY, VA, 20152",642437198,"R"
208040,"42158 170TH STREET","DELAVAN","MN",56023,43.7318382670001,-94.024129536,40,"42158 170TH STREET, DELAVAN, MN, 56023","Match","Exact","42158 170TH ST, DELAVAN, MN, 56023",28624307,"R"
208041,"4215A GANNETT ST","SAINT LOUIS","MO",63116,38.583331593,-90.265100939,41,"4215A GANNETT ST, SAINT LOUIS, MO, 63116","Match","Exact","4215 GANNETT ST, SAINT LOUIS, MO, 63116",107600025,"R"
208042,"4216 AVIS ROAD","NEW ALBANY","OH",43054,40.0574289570001,-82.795903475,42,"4216 AVIS ROAD, NEW ALBANY, OH, 43054","Match","Exact","4216 AVIS RD, NEW ALBANY, OH, 43054",218697424,"R"
208043,"4216 BOWMAN ROAD APT F5","LITTLE ROCK","AR",72210,34.7161753190001,-92.409071242,43,"4216 BOWMAN ROAD APT F5, LITTLE ROCK, AR, 72210","Match","Exact","4216 BOWMAN RD, LITTLE ROCK, AR, 72210",642520716,"R"
208044,"4216 CHASEBROOK LANE","WAXHAW","NC",28173,34.940104261,-80.783758884,44,"4216 CHASEBROOK LANE, WAXHAW, NC, 28173","Match","Exact","4216 CHASEBROOK LN, WAXHAW, NC, 28173",645549507,"R"
208045,"4216 CHEYENNE COURT","SCHENKSVILLE","PA",18078,40.6767894340001,-75.608502764,45,"4216 CHEYENNE COURT, SCHENKSVILLE, PA, 18078","Match","Non_Exact","4216 CHEYENNE CT, SCHNECKSVILLE, PA, 18078",80793970,"R"
208046,"4216 COVENTRY GREEN CIRCLE","WILLIAMSVILLE","NY",14221,42.9593976290001,-78.691806765,46,"4216 COVENTRY GREEN CIRCLE, WILLIAMSVILLE, NY, 14221","Match","Exact","4216 COVENTRY GREEN CIR, WILLIAMSVILLE, NY, 14221",653465084,"L"
208047,"4216 CROWN KNOLL CIR","FLOWER MOUND","TX",75028,33.0435096680001,-97.092434424,47,"4216 CROWN KNOLL CIR, FLOWER MOUND, TX, 75028","Match","Exact","4216 CROWN KNOLL CIR, FLOWER MOUND, TX, 75028",103379374,"R"
208048,"4216 E WINDSOR AVE","PHOENIX","AZ",85008,33.47806668,-111.991095833,48,"4216 E WINDSOR AVE, PHOENIX, AZ, 85008","Match","Exact","4216 E WINDSOR AVE, PHOENIX, AZ, 85008",128223659,"L"
208049,"4216 EVERGREEN LANE  SUITE 124","ANNANDALE","VA",22003,38.833571433,-77.187177111,49,"4216 EVERGREEN LANE  SUITE 124, ANNANDALE, VA, 22003","Match","Exact","4216 EVERGREEN LN, ANNANDALE, VA, 22003",638227030,"R"
208050,"4216 EVERGREEN LANE STE 136","ANNANDALE","VA",22003,38.833571433,-77.187177111,50,"4216 EVERGREEN LANE STE 136, ANNANDALE, VA, 22003","Match","Exact","4216 EVERGREEN LN, ANNANDALE, VA, 22003",638227030,"R"
208051,"4216 EVERGREEN LANE SUITE 136","ANNANDALE","VA",22003,38.833571433,-77.187177111,51,"4216 EVERGREEN LANE SUITE 136, ANNANDALE, VA, 22003","Match","Exact","4216 EVERGREEN LN, ANNANDALE, VA, 22003",638227030,"R"
208052,"4216 FILTER PLANT ROAD","BELLVUE","CO",80512,40.648539774,-105.190054038,52,"4216 FILTER PLANT ROAD, BELLVUE, CO, 80512","Match","Exact","4216 FILTER PLANT RD, BELLVUE, CO, 80512",188621695,"R"
208053,"4216 FLORENCE BOULEVARD","OMAHA","NE",68110,41.2973617330001,-95.942162807,53,"4216 FLORENCE BOULEVARD, OMAHA, NE, 68110","Match","Exact","4216 FLORENCE BLVD, OMAHA, NE, 68110",116987058,"L"
208054,"4216 GRAYSON PLACE","DECATUR","GA",30030,33.7807899910001,-84.277088879,54,"4216 GRAYSON PLACE, DECATUR, GA, 30030","Match","Exact","4216 GRAYSON PL, DECATUR, GA, 30030",619382287,"L"
208055,"4216 INVERRAR DRIVE","LIVERPOOL","NY",13090,NA,NA,55,"4216 INVERRAR DRIVE, LIVERPOOL, NY, 13090","No_Match",NA,NA,NA,NA
208056,"4216 JACKSON DRIVE","HERMANTOWN","MN",55811,46.8149073960001,-92.247907767,56,"4216 JACKSON DRIVE, HERMANTOWN, MN, 55811","Match","Exact","4216 JACKSON DR, HERMANTOWN, MN, 55811",612822218,"L"
208057,"4216 KILBOURNE ROAD","COLUMBIA","SC",29206,34.002406541,-80.979104519,57,"4216 KILBOURNE ROAD, COLUMBIA, SC, 29206","Match","Exact","4216 KILBOURNE RD, COLUMBIA, SC, 29206",71824661,"R"
208058,"4216 LARCHMONT STREET","DALLAS","TX",75205,32.8432643790001,-96.80775123,58,"4216 LARCHMONT STREET, DALLAS, TX, 75205","Match","Exact","4216 LARCHMONT ST, DALLAS, TX, 75205",102906538,"R"
208059,"4216 LITTLE RD","NEW PORT RICHEY","FL",34655,28.22024917,-82.665926359,59,"4216 LITTLE RD, NEW PORT RICHEY, FL, 34655","Match","Exact","4216 LITTLE RD, NEW PORT RICHEY, FL, 34655",614275590,"L"
208060,"4216 LOCH HARBOUR LANE","RALEIGH","NC",27606,35.7654695620001,-78.712802269,60,"4216 LOCH HARBOUR LANE, RALEIGH, NC, 27606","Match","Exact","4216 LOCH HARBOUR LN, RALEIGH, NC, 27606",72618888,"R"
208061,"4216 MACCORKLE AVE SE","CHARLESTON","WV",25304,38.3244051080001,-81.5866316619999,61,"4216 MACCORKLE AVE SE, CHARLESTON, WV, 25304","Match","Exact","4216 MACCORKLE AVE SE, CHARLESTON, WV, 25304",78683598,"L"
208062,"4216 MYLAN DRIVE","RICHMOND","VA",23223,37.5720770570001,-77.3600386699999,62,"4216 MYLAN DRIVE, RICHMOND, VA, 23223","Match","Non_Exact","4216 MYLAN RD, RICHMOND, VA, 23223",106671826,"L"
208063,"4216 N TERRAVIEW DR","APPLETON","WI",54913,44.3036639360001,-88.396353821,63,"4216 N TERRAVIEW DR, APPLETON, WI, 54913","Match","Exact","4216 TERRAVIEW DR, APPLETON, WI, 54913",74921308,"L"
208064,"4216 NORTH CHURCHWAY APT 7","LOUISVILLE","KY",40207,NA,NA,64,"4216 NORTH CHURCHWAY APT 7, LOUISVILLE, KY, 40207","No_Match",NA,NA,NA,NA
208065,"4216 OAKCREST AVE","MEMPHIS","TN",38128,35.228719101,-89.922068565,65,"4216 OAKCREST AVE, MEMPHIS, TN, 38128","Match","Exact","4216 OAKCREST AVE, MEMPHIS, TN, 38128",72899069,"L"
208066,"4216 PACIFIC HWY NUM 10292","TORRANCE","CA",90505,NA,NA,66,"4216 PACIFIC HWY NUM 10292, TORRANCE, CA, 90505","No_Match",NA,NA,NA,NA
208067,"4216 PEPPERVINE TRL","GREENSBORO","NC",27455,36.136559935,-79.809691562,67,"4216 PEPPERVINE TRL, GREENSBORO, NC, 27455","Match","Exact","4216 PEPPERVINE TRL, GREENSBORO, NC, 27455",131131698,"R"
208068,"4216 S 61 AVENUE","OMAHA","NE",68117,41.2180927690001,-96.008438932,68,"4216 S 61 AVENUE, OMAHA, NE, 68117","Match","Exact","4216 S 61ST AVE, OMAHA, NE, 68117",116982125,"R"
208069,"4216 S MOONEY BLVD NUM 339","VISALIA","CA",93277,36.292239006,-119.31353705,69,"4216 S MOONEY BLVD NUM 339, VISALIA, CA, 93277","Match","Exact","4216 MOONEY BLVD, VISALIA, CA, 93277",641098106,"L"
208070,"4216 S MOONEY BLVD PMB 279","VISALIA","CA",93277,36.292239006,-119.31353705,70,"4216 S MOONEY BLVD PMB 279, VISALIA, CA, 93277","Match","Exact","4216 MOONEY BLVD, VISALIA, CA, 93277",641098106,"L"
208071,"4216 SELKIRK DR W","FORT WORTH","TX",76109,32.678811319,-97.383860096,71,"4216 SELKIRK DR W, FORT WORTH, TX, 76109","Match","Exact","4216 SELKIRK DR W, FORT WORTH, TX, 76109",101882365,"R"
208072,"4216 SOUTH MOONEY BLVD SUITE 244","VISALIA","CA",93277,36.2922517740001,-119.313537503,72,"4216 SOUTH MOONEY BLVD SUITE 244, VISALIA, CA, 93277","Match","Non_Exact","4216 MOONEY BLVD, VISALIA, CA, 93277",641098106,"L"
208073,"4216 SUTHERLAND AVE","KNOXVILLE","TN",37919,35.9411208430001,-83.988641591,73,"4216 SUTHERLAND AVE, KNOXVILLE, TN, 37919","Match","Exact","4216 SUTHERLAND AVE, KNOXVILLE, TN, 37919",645249800,"L"
208074,"4216 THE STRAND","MANHATTAN BEACH","CA",90266,33.9036301,-118.421191783,74,"4216 THE STRAND, MANHATTAN BEACH, CA, 90266","Match","Exact","4216 THE STRAND, MANHATTAN BEACH, CA, 90266",141580156,"R"
208075,"4216 WHITEHURST DR","WILMINGTON","NC",28409,34.164875329,-77.87085188,75,"4216 WHITEHURST DR, WILMINGTON, NC, 28409","Match","Exact","4216 WHITEHURST DR, WILMINGTON, NC, 28409",152749384,"R"
208076,"4216","LEESBURG","FL",34748,NA,NA,76,"4216, LEESBURG, FL, 34748","No_Match",NA,NA,NA,NA
208077,"4217 15TH AVE APT E3","BROOKLYN","NY",11204,40.636161057,-73.983754322,77,"4217 15TH AVE APT E3, BROOKLYN, NY, 11204","Match","Non_Exact","4217 15TH AVE, BROOKLYN, NY, 11219",59080662,"L"
208078,"4217 74TH STREET","URBANDALE","IA",50322,41.6369692810001,-93.720128844,78,"4217 74TH STREET, URBANDALE, IA, 50322","Match","Exact","4217 74TH ST, URBANDALE, IA, 50322",65775797,"R"
208079,"4217 APPLEGATE DR","SACRAMENTO","CA",95826,38.541419137,-121.361354243,79,"4217 APPLEGATE DR, SACRAMENTO, CA, 95826","Match","Exact","4217 APPLEGATE DR, SACRAMENTO, CA, 95826",133376970,"R"
208080,"4217 APPLEGATE DRIVE","SACRAMENTO","CA",95826,38.541419137,-121.361354243,80,"4217 APPLEGATE DRIVE, SACRAMENTO, CA, 95826","Match","Exact","4217 APPLEGATE DR, SACRAMENTO, CA, 95826",133376970,"R"
208081,"4217 BEGONIA DRIVE","BOWIE","MD",20720,38.9490233660001,-76.821584415,81,"4217 BEGONIA DRIVE, BOWIE, MD, 20720","Match","Exact","4217 BEGONIA DR, BOWIE, MD, 20720",76416065,"R"
208082,"4217 BUCKMAN ROAD","ALEXANDRIA","VA",22309,38.7328586150001,-77.1055378569999,82,"4217 BUCKMAN ROAD, ALEXANDRIA, VA, 22309","Match","Exact","4217 BUCKMAN RD, ALEXANDRIA, VA, 22309",75990146,"L"
208083,"4217 CHURCH AVE","BROOKLYN","NY",11203,40.651392393,-73.93787716,83,"4217 CHURCH AVE, BROOKLYN, NY, 11203","Match","Exact","4217 CHURCH AVE, BROOKLYN, NY, 11203",59081892,"L"
208084,"4217 EDWARD HYDE PLACE","WILMINGTON","NC",28405,34.3008201980001,-77.8834543,84,"4217 EDWARD HYDE PLACE, WILMINGTON, NC, 28405","Match","Exact","4217 EDWARD HYDE PL, WILMINGTON, NC, 28405",152742727,"R"
208085,"4217 EVERGREEN LANE","ANNANDALE","VA",22003,38.832548479,-77.1865713189999,85,"4217 EVERGREEN LANE, ANNANDALE, VA, 22003","Match","Exact","4217 EVERGREEN LN, ANNANDALE, VA, 22003",638227030,"L"
208086,"4217 GRANADA AVENUE","BALTIMORE","MD",21215,39.3351783250001,-76.687039036,86,"4217 GRANADA AVENUE, BALTIMORE, MD, 21215","Match","Exact","4217 GRANADA AVE, BALTIMORE, MD, 21215",206430791,"R"
208087,"4217 HOOHANA STREET","LIHUE","HI",96766,21.994390579,-159.352341246,87,"4217 HOOHANA STREET, LIHUE, HI, 96766","Match","Exact","4217 HOOHANA ST, LIHUE, HI, 96766",203392445,"L"
208088,"4217 LAKE STONE TRAIL","FORT WORTH","TX",76123,32.6225069910001,-97.3850528579999,88,"4217 LAKE STONE TRAIL, FORT WORTH, TX, 76123","Match","Exact","4217 LAKE STONE TRL, FORT WORTH, TX, 76123",638655783,"L"
208089,"4217 MERCED CIRCLE","ANTIOCH","CA",94531,37.9849537970001,-121.760906717,89,"4217 MERCED CIRCLE, ANTIOCH, CA, 94531","Match","Exact","4217 MERCED CIR, ANTIOCH, CA, 94531",192085345,"R"
208090,"4217 NATIVE DANCER DRIVE","B","CA",93312,35.3991429530001,-119.127096922,90,"4217 NATIVE DANCER DRIVE, B, CA, 93312","Match","Non_Exact","4217 NATIVE DANCER DR, BAKERSFIELD, CA, 93312",109148820,"R"
208091,"4217 PRELUDE STREET","RALEIGH","NC",27616,35.870320516,-78.516171468,91,"4217 PRELUDE STREET, RALEIGH, NC, 27616","Match","Exact","4217 PRELUDE ST, RALEIGH, NC, 27616",619711153,"R"
208092,"4217 PUTAH CREEK RD","WINTERS","CA",95694,38.4973748150001,-121.987972712,92,"4217 PUTAH CREEK RD, WINTERS, CA, 95694","Match","Exact","4217 PUTAH CREEK RD, WINTERS, CA, 95694",192585399,"L"
208093,"4217 RIDGEWAY CT SE APT B","RIO RANCHO","NM",87124,35.253988845,-106.651866844,93,"4217 RIDGEWAY CT SE APT B, RIO RANCHO, NM, 87124","Match","Non_Exact","4217 RIDGEWAY CT, RIO RANCHO, NM, 87124",632509205,"R"
208094,"4217 S RAYMOND AVE","LOS ANGELES","CA",90037,34.006932179,-118.298025183,94,"4217 S RAYMOND AVE, LOS ANGELES, CA, 90037","Match","Exact","4217 RAYMOND AVE, LOS ANGELES, CA, 90037",141607741,"R"
208095,"4217 STILWELL DRIVE","REX","GA",30273,33.5863177960001,-84.25643364,95,"4217 STILWELL DRIVE, REX, GA, 30273","Match","Exact","4217 STILWELL DR, REX, GA, 30273",645822451,"L"
208096,"4217 SW 20 STREET","HOLLYWOOD","FL",33023,25.9927291550001,-80.1856236409999,96,"4217 SW 20 STREET, HOLLYWOOD, FL, 33023","Match","Exact","4217 SW 20TH ST, HOLLYWOOD, FL, 33023",114735279,"R"
208097,"4217 VIEWPOINT TRAIL","ELLENWOOD","GA",30294,33.6548015430001,-84.251538736,97,"4217 VIEWPOINT TRAIL, ELLENWOOD, GA, 30294","Match","Exact","4217 VIEWPOINT TRL, ELLENWOOD, GA, 30294",23399920,"L"
208098,"4217 W WASHINGTON BLVD","CHICAGO","IL",60624,41.8819745260001,-87.731150327,98,"4217 W WASHINGTON BLVD, CHICAGO, IL, 60624","Match","Exact","4217 W WASHINGTON BLVD, CHICAGO, IL, 60624",111758559,"L"
208099,"4217 YATES ST APT H","METAIRIE","LA",70001,29.995061982,-90.177076718,99,"4217 YATES ST APT H, METAIRIE, LA, 70001","Match","Exact","4217 YATES ST, METAIRIE, LA, 70001",93533990,"R"
208100,"4217 YORK RD","SOUTH BEND","IN",46614,41.6322908490001,-86.227266618,100,"4217 YORK RD, SOUTH BEND, IN, 46614","Match","Exact","4217 YORK RD, SOUTH BEND, IN, 46614",8057943,"R"
208101,"42174 FARRAGUT COURT","NORTHVILLE","MI",48167,42.435236418,-83.461477713,101,"42174 FARRAGUT COURT, NORTHVILLE, MI, 48167","Match","Exact","42174 FARRAGUT CT, NORTHVILLE, MI, 48167",95405095,"L"
208102,"4218 4TH AVENUE SOUTH","ST PETERSBURG","FL",33711,27.7673567730001,-82.690561583,102,"4218 4TH AVENUE SOUTH, ST PETERSBURG, FL, 33711","Match","Exact","4218 4TH AVE S, SAINT PETERSBURG, FL, 33711",124700887,"L"
208103,"4218 5TH STREET","SAINT SIMONS ISLAND","GA",31522,31.148119717,-81.3706105799999,103,"4218 5TH STREET, SAINT SIMONS ISLAND, GA, 31522","Match","Exact","4218 5TH ST, ST SIMONS ISLAND, GA, 31522",9149617,"R"
208104,"4218 COMET CIR","UNION CITY","CA",94587,37.585277293,-122.066254553,104,"4218 COMET CIR, UNION CITY, CA, 94587","Match","Exact","4218 COMET CIR, UNION CITY, CA, 94587",125023444,"R"
208105,"4218 COMMERCE ST","ROWLETT","TX",75088,32.898985811,-96.567289451,105,"4218 COMMERCE ST, ROWLETT, TX, 75088","Match","Exact","4218 COMMERCE ST, ROWLETT, TX, 75088",102929616,"R"
208106,"4218 CORCORAN STREET","ALEXANDRIA","VA",22309,38.7434473170001,-77.106998537,106,"4218 CORCORAN STREET, ALEXANDRIA, VA, 22309","Match","Exact","4218 CORCORAN ST, ALEXANDRIA, VA, 22309",75990120,"R"
208107,"4218 CURTIS AVE","LOUISVILLE","KY",40213,38.1933839020001,-85.719252771,107,"4218 CURTIS AVE, LOUISVILLE, KY, 40213","Match","Exact","4218 CURTIS AVE, LOUISVILLE, KY, 40213",96850500,"R"
208108,"4218 EISENHAUER RD","SAN ANTONIO","TX",78218,29.4965461350001,-98.411340088,108,"4218 EISENHAUER RD, SAN ANTONIO, TX, 78218","Match","Exact","4218 EISENHAUER RD, SAN ANTONIO, TX, 78218",101715752,"R"
208109,"4218 GOLDCREST DR NW","OLYMPIA","WA",98502,47.0585097680001,-122.953549732,109,"4218 GOLDCREST DR NW, OLYMPIA, WA, 98502","Match","Exact","4218 GOLDCREST DR NW, OLYMPIA, WA, 98502",180968088,"R"
208110,"4218 LAUREL OAK DR","SAN ANGELO","TX",76904,31.421275961,-100.506477649,110,"4218 LAUREL OAK DR, SAN ANGELO, TX, 76904","Match","Exact","4218 LAUREL OAK DR, SAN ANGELO, TX, 76904",190680200,"L"
208111,"4218 M 32","EAST JORDAN","MI",49727,45.096291916,-85.01736078,111,"4218 M 32, EAST JORDAN, MI, 49727","Match","Non_Exact","4218 M - 32, EAST JORDAN, MI, 49727",145813895,"R"
208112,"4218 MISSISSIPPI ST APT 3","SAN DIEGO","CA",92104,32.754314245,-117.141291221,112,"4218 MISSISSIPPI ST APT 3, SAN DIEGO, CA, 92104","Match","Exact","4218 MISSISSIPPI ST, SAN DIEGO, CA, 92104",612889867,"L"
208113,"4218 OAKWOOD AVE","HUNTSVILLE","AL",35810,34.749583993,-86.632752221,113,"4218 OAKWOOD AVE, HUNTSVILLE, AL, 35810","Match","Non_Exact","4218 OAKWOOD AVE NW, HUNTSVILLE, AL, 35810",58183327,"R"
208114,"4218 ROCKY LEDGE WAY","SNELLVILLE","GA",30039,33.8421347620001,-84.079149698,114,"4218 ROCKY LEDGE WAY, SNELLVILLE, GA, 30039","Match","Exact","4218 ROCKY LEDGE WAY, SNELLVILLE, GA, 30039",88908646,"R"
208115,"4218 S FULTON AVE","TULSA","OK",74135,36.102984259,-95.913949449,115,"4218 S FULTON AVE, TULSA, OK, 74135","Match","Exact","4218 S FULTON AVE, TULSA, OK, 74135",166478826,"R"
208116,"4218 SUNNYVIEW DR","LAKELAND","FL",33813,27.947913784,-81.880019954,116,"4218 SUNNYVIEW DR, LAKELAND, FL, 33813","Match","Non_Exact","4218 SUNNY VIEW DR, LAKELAND, FL, 33813",104845652,"R"
208117,"4218 TULANE ST","DEARBORN HEIGHTS","MI",48125,42.2794591420001,-83.259167377,117,"4218 TULANE ST, DEARBORN HEIGHTS, MI, 48125","Match","Exact","4218 TULANE ST, DEARBORN HEIGHTS, MI, 48125",95436735,"R"
208118,"4218 W COUNTY ROAD 450 N","GREENCASTLE","IN",46135,39.7266668680001,-86.9226629039999,118,"4218 W COUNTY ROAD 450 N, GREENCASTLE, IN, 46135","Match","Exact","4218 W CO RD 450 N, GREENCASTLE, IN, 46135",639826629,"L"
208119,"4218 W WASHINGTON BLVD","CHICAGO","IL",60624,41.8819850200001,-87.731193456,119,"4218 W WASHINGTON BLVD, CHICAGO, IL, 60624","Match","Exact","4218 W WASHINGTON BLVD, CHICAGO, IL, 60624",111758559,"R"
208120,"4218 WINE CELLAR COURT","LOUISVILLE","KY",40272,38.120297065,-85.8361107439999,120,"4218 WINE CELLAR COURT, LOUISVILLE, KY, 40272","Match","Exact","4218 WINE CELLAR CT, LOUISVILLE, KY, 40272",96916681,"R"
208121,"4219 194TH STREET","FLUSHING","NY",11358,NA,NA,121,"4219 194TH STREET, FLUSHING, NY, 11358","No_Match",NA,NA,NA,NA
208122,"4219 BONAPARTE DRIVE","TUCKER","GA",30084,33.8752800140001,-84.215761485,122,"4219 BONAPARTE DRIVE, TUCKER, GA, 30084","Match","Exact","4219 BONAPARTE DR, TUCKER, GA, 30084",23363382,"R"
208123,"4219 BUTTERFIELD RD","HILLSIDE","IL",60162,41.8812378530001,-87.8883979079999,123,"4219 BUTTERFIELD RD, HILLSIDE, IL, 60162","Match","Exact","4219 BUTTERFIELD RD, HILLSIDE, IL, 60162",111727993,"L"
208124,"4219 CROOKS RD","TROY","MI",48098,42.5796177030001,-83.16809947,124,"4219 CROOKS RD, TROY, MI, 48098","Match","Exact","4219 CROOKS RD, TROY, MI, 48098",69736822,"L"
208125,"4219 E ADMIRAL DOYLE DR","NEW IBERIA","LA",70560,29.963271091,-91.772615378,125,"4219 E ADMIRAL DOYLE DR, NEW IBERIA, LA, 70560","Match","Exact","4219 E ADMIRAL DOYLE DR, NEW IBERIA, LA, 70560",85372116,"R"
208126,"4219 HAKES ROAD","NORTHWOOD","OH",43619,41.5911474390001,-83.451783661,126,"4219 HAKES ROAD, NORTHWOOD, OH, 43619","Match","Exact","4219 HAKES RD, NORTHWOOD, OH, 43619",38730858,"L"
208127,"4219 LAUREL RIDGE CIRCLE","WINSTON-SALEM","NC",27107,NA,NA,127,"4219 LAUREL RIDGE CIRCLE, WINSTON-SALEM, NC, 27107","No_Match",NA,NA,NA,NA
208128,"4219 LONGTREE COVE","LITTLE ROCK","AR",72212,34.7931313380001,-92.4308367849999,128,"4219 LONGTREE COVE, LITTLE ROCK, AR, 72212","Match","Exact","4219 LONGTREE COVE, LITTLE ROCK, AR, 72212",83531903,"L"
208129,"4219 LONGTREE COVE","LITTTLE ROCK","AR",72212,34.7931313380001,-92.4308367849999,129,"4219 LONGTREE COVE, LITTTLE ROCK, AR, 72212","Match","Non_Exact","4219 LONGTREE COVE, LITTLE ROCK, AR, 72212",83531903,"L"
208130,"4219 LYNDALE AVENUE SOUTH","MINNEAPOLIS","MN",55409,44.9263792300001,-93.288278184,130,"4219 LYNDALE AVENUE SOUTH, MINNEAPOLIS, MN, 55409","Match","Exact","4219 LYNDALE AVE S, MINNEAPOLIS, MN, 55409",43629052,"L"
208131,"4219 MONTGALL","KANSAS CITY","MO",64130,39.049578986,-94.552751391,131,"4219 MONTGALL, KANSAS CITY, MO, 64130","Match","Non_Exact","4219 MONTGALL AVE, KANSAS CITY, MO, 64130",91452193,"L"
208132,"4219 MONTGOMERY BLVD NE","ALBUQUERQUE","NM",87109,35.1309207840001,-106.597252659,132,"4219 MONTGOMERY BLVD NE, ALBUQUERQUE, NM, 87109","Match","Exact","4219 MONTGOMERY BLVD NE, ALBUQUERQUE, NM, 87109",645266806,"L"
208133,"4219 NOVA LANE","LAKE WORTH","FL",33462,26.577201417,-80.108216512,133,"4219 NOVA LANE, LAKE WORTH, FL, 33462","Match","Exact","4219 NOVA LN, LAKE WORTH, FL, 33462",115578097,"L"
208134,"4219 NW 75TH LANE","DORAL","FL",33178,NA,NA,134,"4219 NW 75TH LANE, DORAL, FL, 33178","No_Match",NA,NA,NA,NA
208135,"4219 OLYMPIC LN","COLUMBUS","GA",31907,32.504071249,-84.9088142589999,135,"4219 OLYMPIC LN, COLUMBUS, GA, 31907","Match","Exact","4219 OLYMPIC LN, COLUMBUS, GA, 31907",98940946,"L"
208136,"4219 PONDHILL COURT","RIVERSIDE","CA",92505,33.905975063,-117.488482458,136,"4219 PONDHILL COURT, RIVERSIDE, CA, 92505","Match","Exact","4219 PONDHILL CT, RIVERSIDE, CA, 92505",608986117,"L"
208137,"4219 QUINCY MAIE DRIVE","HENRICO","VA",23231,37.4579466920001,-77.2949042819999,137,"4219 QUINCY MAIE DRIVE, HENRICO, VA, 23231","Match","Exact","4219 QUINCY MAIE DR, HENRICO, VA, 23231",106671384,"R"
208138,"4219 RIMINI WAY","EL DORADO HILLS","CA",95762,38.6781516350001,-121.042342538,138,"4219 RIMINI WAY, EL DORADO HILLS, CA, 95762","Match","Exact","4219 RIMINI WAY, EL DORADO HILLS, CA, 95762",607157104,"R"
208139,"4219 SHADETREE CIRCLE","WINSTON SALEM","NC",27107,36.0669410180001,-80.1371400639999,139,"4219 SHADETREE CIRCLE, WINSTON SALEM, NC, 27107","Match","Exact","4219 SHADETREE CIR, WINSTON SALEM, NC, 27107",632426747,"R"
208140,"4219 SKILLMAN STREET","DALLAS","TX",75206,32.8371973640001,-96.761407594,140,"4219 SKILLMAN STREET, DALLAS, TX, 75206","Match","Exact","4219 SKILLMAN ST, DALLAS, TX, 75206",103202021,"L"
208141,"4219 SORSBY DR","HOUSTON","TX",77047,29.6289035880001,-95.3607759989999,141,"4219 SORSBY DR, HOUSTON, TX, 77047","Match","Exact","4219 SORSBY DR, HOUSTON, TX, 77047",629572463,"R"
208142,"4219 UPTON AVE N","MINNEAPOLIS","MN",55412,45.031806026,-93.314880713,142,"4219 UPTON AVE N, MINNEAPOLIS, MN, 55412","Match","Exact","4219 UPTON AVE N, MINNEAPOLIS, MN, 55412",43620807,"L"
208143,"4219 VINTON AVE","CULVER CITY","CA",90232,34.014868054,-118.397194955,143,"4219 VINTON AVE, CULVER CITY, CA, 90232","Match","Exact","4219 VINTON AVE, CULVER CITY, CA, 90232",141575356,"R"
208144,"4219 WEATHERTON PLACE","SAINT CHARLES","MO",63304,38.7476741520001,-90.601683845,144,"4219 WEATHERTON PLACE, SAINT CHARLES, MO, 63304","Match","Exact","4219 WEATHERTON PL, SAINT CHARLES, MO, 63304",100017928,"L"
208145,"4219 WINDEMERE LANE","CHARLOTTE","NC",28211,35.1791702570001,-80.7830985159999,145,"4219 WINDEMERE LANE, CHARLOTTE, NC, 28211","Match","Exact","4219 WINDEMERE LN, CHARLOTTE, NC, 28211",632934560,"L"
208146,"4219 WINNERS CIRCLE AV SE","ALBANY","OR",97322,NA,NA,146,"4219 WINNERS CIRCLE AV SE, ALBANY, OR, 97322","No_Match",NA,NA,NA,NA
208147,"42195 FRONTIER SPRING DR","CHANTILLY","VA",20152,38.918471056,-77.543777888,147,"42195 FRONTIER SPRING DR, CHANTILLY, VA, 20152","Match","Exact","42195 FRONTIER SPRING DR, CHANTILLY, VA, 20152",625223769,"L"
208148,"422 11TH AVE E C202","SEATTLE","WA",98102,47.622277292,-122.317809828,148,"422 11TH AVE E C202, SEATTLE, WA, 98102","Match","Exact","422 11TH AVE E, SEATTLE, WA, 98102",186587494,"R"
208149,"422 1ST ST APT 209","LAKEWOOD","NJ",8701,40.0908519880001,-74.217042608,149,"422 1ST ST APT 209, LAKEWOOD, NJ, 8701","Match","Exact","422 1ST ST, LAKEWOOD, NJ, 08701",203793201,"R"
208150,"422 36TH AVE","SAN FRANCISCO","CA",94121,37.7810117610001,-122.496617373,150,"422 36TH AVE, SAN FRANCISCO, CA, 94121","Match","Exact","422 36TH AVE, SAN FRANCISCO, CA, 94121",192277185,"L"
208151,"422 3RD STREET","LAKEWOOD","NJ",8701,40.0928168410001,-74.217435097,151,"422 3RD STREET, LAKEWOOD, NJ, 8701","Match","Exact","422 3RD ST, LAKEWOOD, NJ, 08701",203793197,"R"
208152,"422 8TH STREET SE","WASHINGTON","DC",20003,38.8834674570001,-76.9949641869999,152,"422 8TH STREET SE, WASHINGTON, DC, 20003","Match","Exact","422 8TH ST SE, WASHINGTON, DC, 20003",76230672,"L"
208153,"422 ARIES LANE","SAN BERNARDINO","CA",92377,34.182671214,-117.293203782,153,"422 ARIES LANE, SAN BERNARDINO, CA, 92377","Match","Non_Exact","422 ARIES LN, SAN BERNARDINO, CA, 92407",144736413,"R"
208154,"422 AVENUE B","HORSHAM","PA",19044,40.1818688210001,-75.139514531,154,"422 AVENUE B, HORSHAM, PA, 19044","Match","Exact","422 AVE B, HORSHAM, PA, 19044",135079139,"R"
208155,"422 AVENUE L","CHASE","KS",67524,38.362185212,-98.4237550299999,155,"422 AVENUE L, CHASE, KS, 67524","Match","Exact","422 AVE L, CHASE, KS, 67524",132970587,"L"
208156,"422 BONNY RIGG HILL ROAD","BECKET","MA",1223,42.254439898,-73.042706897,156,"422 BONNY RIGG HILL ROAD, BECKET, MA, 1223","Match","Exact","422 BONNY RIGG HILL RD, BECKET, MA, 01223",3938937,"L"
208157,"422 BOONE FARM RD","AHOSKIE","NC",27910,36.337090346,-77.024421719,157,"422 BOONE FARM RD, AHOSKIE, NC, 27910","Match","Exact","422 BOONE FARM RD, AHOSKIE, NC, 27910",604878337,"L"
208158,"422 BRAMBLE","MANTENO","IL",60950,41.2302798960001,-87.80420879,158,"422 BRAMBLE, MANTENO, IL, 60950","Match","Non_Exact","422 BRAMBLE ST, MANTENO, IL, 60950",98357551,"R"
208159,"422 BRIGHTON COURT","SHREVEPORT","LA",71115,32.4142585430001,-93.706893827,159,"422 BRIGHTON COURT, SHREVEPORT, LA, 71115","Match","Exact","422 BRIGHTON CT, SHREVEPORT, LA, 71115",57442084,"L"
208160,"422 BULLINGTON ROAD","CLEVELAND","TN",37311,35.103444719,-84.941727497,160,"422 BULLINGTON ROAD, CLEVELAND, TN, 37311","Match","Non_Exact","422 BULLINGTON RD SW, CLEVELAND, TN, 37311",57577471,"R"
208161,"422 CALLE CANELA","SAN DIMAS","CA",91773,34.0708526270001,-117.81235666,161,"422 CALLE CANELA, SAN DIMAS, CA, 91773","Match","Non_Exact","422 CLL CANELA, SAN DIMAS, CA, 91773",142245518,"R"
208162,"422 CANNINGS LANE","CHARLOTTE","NC",28262,35.339280925,-80.70881572,162,"422 CANNINGS LANE, CHARLOTTE, NC, 28262","Match","Exact","422 CANNINGS LN, CHARLOTTE, NC, 28262",70583645,"R"
208163,"422 CATOMA ST","PITTSBURGH","PA",15212,40.4607658730001,-80.003229526,163,"422 CATOMA ST, PITTSBURGH, PA, 15212","Match","Exact","422 CATOMA ST, PITTSBURGH, PA, 15212",51626555,"L"
208164,"422 CAVITT AVENUE","TRAFFORD","PA",15085,40.384939231,-79.760240303,164,"422 CAVITT AVENUE, TRAFFORD, PA, 15085","Match","Exact","422 CAVITT AVE, TRAFFORD, PA, 15085",52963532,"R"
208165,"422 CHAMBERS RD","SAINT LOUIS","MO",63137,38.748236993,-90.211817358,165,"422 CHAMBERS RD, SAINT LOUIS, MO, 63137","Match","Exact","422 CHAMBERS RD, SAINT LOUIS, MO, 63137",100151303,"L"
208166,"422 CHARLES AVENUE","HANOVER","PA",17331,39.7964910270001,-76.9660022469999,166,"422 CHARLES AVENUE, HANOVER, PA, 17331","Match","Exact","422 CHARLES AVE, HANOVER, PA, 17331",650337017,"L"
208167,"422 CHRISTIAN LOOP","HAVANA","FL",32333,30.5347915900001,-84.4723724689999,167,"422 CHRISTIAN LOOP, HAVANA, FL, 32333","Match","Exact","422 CHRISTIAN LOOP, HAVANA, FL, 32333",87825717,"L"
208168,"422 COLLIER CRESCENT","SUFFOLK","VA",23434,36.714064326,-76.574222145,168,"422 COLLIER CRESCENT, SUFFOLK, VA, 23434","Match","Exact","422 COLLIER CRES, SUFFOLK, VA, 23434",122233655,"L"
208169,"422 COLVIN AVE","BUFFALO","NY",14216,42.9524555250001,-78.858965107,169,"422 COLVIN AVE, BUFFALO, NY, 14216","Match","Exact","422 COLVIN AVE, BUFFALO, NY, 14216",48289486,"L"
208170,"422 CORTEZ STREET","LAPLACE","LA",70068,NA,NA,170,"422 CORTEZ STREET, LAPLACE, LA, 70068","No_Match",NA,NA,NA,NA
208171,"422 CROWN STREET","BROOKLYN","NY",11225,40.665973197,-73.945100494,171,"422 CROWN STREET, BROOKLYN, NY, 11225","Match","Exact","422 CROWN ST, BROOKLYN, NY, 11225",652212335,"R"
208172,"422 DARROW AVENUE","PLAINFIELD","NJ",7060,40.6068321610001,-74.4309580349999,172,"422 DARROW AVENUE, PLAINFIELD, NJ, 7060","Match","Exact","422 DARROW AVE, PLAINFIELD, NJ, 07060",60560223,"R"
208173,"422 DUNMORE ROAD","FAYETTEVILLE","NC",28303,35.0971736550001,-78.9855102609999,173,"422 DUNMORE ROAD, FAYETTEVILLE, NC, 28303","Match","Exact","422 DUNMORE RD, FAYETTEVILLE, NC, 28303",64251970,"R"
208174,"422 E BAY DR NE APT 2","OLYMPIA","WA",98506,47.0485401560001,-122.893192212,174,"422 E BAY DR NE APT 2, OLYMPIA, WA, 98506","Match","Non_Exact","422 E BAY DR NE, OLYMPIA, WA, 98506",636494405,"R"
208175,"422 E CEDAR CREEK PKWY SUITE A43335","KEMP","TX",75143,32.3207369450001,-96.2209604129999,175,"422 E CEDAR CREEK PKWY SUITE A43335, KEMP, TX, 75143","Match","Non_Exact","422 W CEDAR CREEK PKWY, KEMP, TX, 75143",635272921,"L"
208176,"422 E DALE ST","COLORADO SPRINGS","CO",80903,38.8449331090001,-104.816397958,176,"422 E DALE ST, COLORADO SPRINGS, CO, 80903","Match","Exact","422 E DALE ST, COLORADO SPRINGS, CO, 80903",610723969,"L"
208177,"422 E MAGNOLIA ST","ARCADIA","FL",34266,27.212701598,-81.8560394519999,177,"422 E MAGNOLIA ST, ARCADIA, FL, 34266","Match","Exact","422 E MAGNOLIA ST, ARCADIA, FL, 34266",16161976,"L"
208178,"422 E PINNER STREET","SUFFOLK","VA",23434,36.7366050740001,-76.5708079949999,178,"422 E PINNER STREET, SUFFOLK, VA, 23434","Match","Exact","422 E PINNER ST, SUFFOLK, VA, 23434",636669446,"R"
208179,"422 E RANCH ROAD","ARMAGOSA VALLEY","NV",89020,NA,NA,179,"422 E RANCH ROAD, ARMAGOSA VALLEY, NV, 89020","No_Match",NA,NA,NA,NA
208180,"422 E STREET","FAIRBURY","NE",68352,40.135438569,-97.179938807,180,"422 E STREET, FAIRBURY, NE, 68352","Match","Exact","422 E ST, FAIRBURY, NE, 68352",11134481,"R"
208181,"422 EAST BARBARITA AVENUE","GILBERT","AZ",85234,33.3630431780001,-111.781248916,181,"422 EAST BARBARITA AVENUE, GILBERT, AZ, 85234","Match","Exact","422 E BARBARITA AVE, GILBERT, AZ, 85234",128254910,"L"
208182,"422 EAST L STREET","NEWTON","NC",28658,35.6502936140001,-81.219917078,182,"422 EAST L STREET, NEWTON, NC, 28658","Match","Exact","422 E L ST, NEWTON, NC, 28658",45909919,"L"
208183,"422 EAST ST","EDMONTON","KY",42129,36.9765984650001,-85.610164851,183,"422 EAST ST, EDMONTON, KY, 42129","Match","Exact","422 EAST ST, EDMONTON, KY, 42129",69348191,"L"
208184,"422 EAST ST","PHILLIPS","NE",68865,40.898219366,-98.213109098,184,"422 EAST ST, PHILLIPS, NE, 68865","Match","Exact","422 EAST ST, PHILLIPS, NE, 68865",159710704,"R"
208185,"422 EASTRIDGE DR","LAWNDALE","NC",28090,35.5061362530001,-81.507542528,185,"422 EASTRIDGE DR, LAWNDALE, NC, 28090","Match","Exact","422 EASTRIDGE DR, LAWNDALE, NC, 28090",19326947,"R"
208186,"422 EDGEWATER DRIVE","PROSPERITY","SC",29127,34.0899452690001,-81.435879149,186,"422 EDGEWATER DRIVE, PROSPERITY, SC, 29127","Match","Exact","422 EDGEWATER DR, PROSPERITY, SC, 29127",45380006,"R"
208187,"422 FERNWOOD DRIVE","MORAGA","CA",94556,37.8456878050001,-122.122565964,187,"422 FERNWOOD DRIVE, MORAGA, CA, 94556","Match","Exact","422 FERNWOOD DR, MORAGA, CA, 94556",192091227,"R"
208188,"422 FLEMING STREET  SUITE 5","KEY WEST","FL",33040,24.5557215800001,-81.803344204,188,"422 FLEMING STREET  SUITE 5, KEY WEST, FL, 33040","Match","Exact","422 FLEMING ST, KEY WEST, FL, 33040",116475912,"R"
208189,"422 FRANKLIN STREET","RAYMOND","WA",98577,NA,NA,189,"422 FRANKLIN STREET, RAYMOND, WA, 98577","No_Match",NA,NA,NA,NA
208190,"422 HARRISON DRIVE","HOCKESSIN","DE",19707,39.7751857600001,-75.702201342,190,"422 HARRISON DRIVE, HOCKESSIN, DE, 19707","Match","Exact","422 HARRISON DR, HOCKESSIN, DE, 19707",187279849,"L"
208191,"422 HUBBARD LAKE RD","HUBBARD LAKE","MI",49747,NA,NA,191,"422 HUBBARD LAKE RD, HUBBARD LAKE, MI, 49747","No_Match",NA,NA,NA,NA
208192,"422 HUFMAN MILL RD SUITE 211","BURLINGTON","NC",27215,36.0754344310001,-79.489105751,192,"422 HUFMAN MILL RD SUITE 211, BURLINGTON, NC, 27215","Match","Non_Exact","422 HUFFMAN MILL RD, BURLINGTON, NC, 27215",71661757,"L"
208193,"422 KINGS AVENUE   PO BOX 107","THOMASTON","GA",30286,32.893102072,-84.3209046979999,193,"422 KINGS AVENUE   PO BOX 107, THOMASTON, GA, 30286","Match","Exact","422 KINGS AVE, THOMASTON, GA, 30286",647772290,"R"
208194,"422 KLEINPETER DR","THIBODAUX","LA",70301,29.771308059,-90.7848690659999,194,"422 KLEINPETER DR, THIBODAUX, LA, 70301","Match","Exact","422 KLEINPETER DR, THIBODAUX, LA, 70301",617834396,"R"
208195,"422 LAFAYETTE AVE","HAMILTON","NJ",8610,40.195982739,-74.725970723,195,"422 LAFAYETTE AVE, HAMILTON, NJ, 8610","Match","Exact","422 LAFAYETTE AVE, HAMILTON, NJ, 08610",60182699,"L"
208196,"422 LAFAYETTE AVENUE","HAMILTON","NJ",8610,40.195982739,-74.725970723,196,"422 LAFAYETTE AVENUE, HAMILTON, NJ, 8610","Match","Exact","422 LAFAYETTE AVE, HAMILTON, NJ, 08610",60182699,"L"
208197,"422 LAKESHORE DRIVE","STOCKBRIDGE","GA",30281,33.5849758100001,-84.2094229369999,197,"422 LAKESHORE DRIVE, STOCKBRIDGE, GA, 30281","Match","Exact","422 LAKESHORE DR, STOCKBRIDGE, GA, 30281",23189032,"L"
208198,"422 LANCASTER LANE NORTH","CHAMPLIN","MN",55316,45.1904298540001,-93.4064769829999,198,"422 LANCASTER LANE NORTH, CHAMPLIN, MN, 55316","Match","Exact","422 LANCASTER LN N, CHAMPLIN, MN, 55316",616394701,"L"
208199,"422 LARKFIELD CENTER  STE 130","SANTA ROSA","CA",95403,38.5010497220001,-122.751284278,199,"422 LARKFIELD CENTER  STE 130, SANTA ROSA, CA, 95403","Match","Exact","422 LARKFIELD CENTER, SANTA ROSA, CA, 95403",67527490,"L"
208200,"422 LARKFIELD CENTER 423","SANTA ROSA","CA",95403,38.5010497220001,-122.751284278,200,"422 LARKFIELD CENTER 423, SANTA ROSA, CA, 95403","Match","Exact","422 LARKFIELD CENTER, SANTA ROSA, CA, 95403",67527490,"L"
208201,"422 LARKFIELD CENTER SUITE 200","SANTA ROSA","CA",95403,38.5010497220001,-122.751284278,201,"422 LARKFIELD CENTER SUITE 200, SANTA ROSA, CA, 95403","Match","Exact","422 LARKFIELD CENTER, SANTA ROSA, CA, 95403",67527490,"L"
208202,"422 LAZY LANE","ENGELHARD","NC",27824,35.502524801,-76.002605834,202,"422 LAZY LANE, ENGELHARD, NC, 27824","Match","Exact","422 LAZY LN, ENGELHARD, NC, 27824",68017013,"L"
208203,"422 LESLIE DRIVE","EDGERTON","WI",53534,42.830276874,-89.085677571,203,"422 LESLIE DRIVE, EDGERTON, WI, 53534","Match","Exact","422 LESLIE DR, EDGERTON, WI, 53534",625072029,"R"
208204,"422 LOGAN AVE N","MINNEAPOLIS","MN",55405,44.9818738800001,-93.30324927,204,"422 LOGAN AVE N, MINNEAPOLIS, MN, 55405","Match","Exact","422 LOGAN AVE N, MINNEAPOLIS, MN, 55405",43623722,"R"
208205,"422 LOS ARBOLITOS BLVD","OCEANSIDE","CA",92058,33.2289261130001,-117.337232991,205,"422 LOS ARBOLITOS BLVD, OCEANSIDE, CA, 92058","Match","Exact","422 LOS ARBOLITOS BLVD, OCEANSIDE, CA, 92058",195723643,"R"
208206,"422 MAIN ST","PORTLAND","CT",6480,41.5837647490001,-72.6322378739999,206,"422 MAIN ST, PORTLAND, CT, 6480","Match","Exact","422 MAIN ST, PORTLAND, CT, 06480",113887551,"L"
208207,"422 MALABAR ST","LAKEWAY","TX",78734,30.3680451550001,-98.00001746,207,"422 MALABAR ST, LAKEWAY, TX, 78734","Match","Non_Exact","422 MALABAR, LAKEWAY, TX, 78734",63977738,"L"
208208,"422 MARCH DR","MANTECA","CA",95336,37.815182087,-121.212382526,208,"422 MARCH DR, MANTECA, CA, 95336","Match","Exact","422 MARCH DR, MANTECA, CA, 95336",133858868,"R"
208209,"422 MARIANO BISHOP BLVD","FALL RIVER","MA",2721,41.671969232,-71.165896409,209,"422 MARIANO BISHOP BLVD, FALL RIVER, MA, 2721","Match","Exact","422 MARIANO BISHOP BLVD, FALL RIVER, MA, 02721",46808205,"L"
208210,"422 MARSDEN ROAD","PORT ANGELES","WA",98362,48.095775174,-123.377261657,210,"422 MARSDEN ROAD, PORT ANGELES, WA, 98362","Match","Exact","422 MARSDEN RD, PORT ANGELES, WA, 98362",651389165,"L"
208211,"422 MCFALL AVE","ORLANDO","FL",32805,28.537804409,-81.3900201659999,211,"422 MCFALL AVE, ORLANDO, FL, 32805","Match","Non_Exact","422 MC FALL AVE, ORLANDO, FL, 32805",94281170,"R"
208212,"422 MILPAS ST ROOM 7","SANTA BARBARA","CA",93103,NA,NA,212,"422 MILPAS ST ROOM 7, SANTA BARBARA, CA, 93103","Tie",NA,NA,NA,NA
208213,"422 MORRIS ROAD","DIBOLL","TX",75904,31.2217896990001,-94.767477763,213,"422 MORRIS ROAD, DIBOLL, TX, 75904","Match","Non_Exact","422 MORRIS RD, DIBOLL, TX, 75941",639665768,"L"
208214,"422 MYSTIC AVE 202","SOMERVILLE","MA",2145,42.3952947280001,-71.088709229,214,"422 MYSTIC AVE 202, SOMERVILLE, MA, 2145","Match","Exact","422 MYSTIC AVE, SOMERVILLE, MA, 02145",86918021,"L"
208215,"422 N 32ND STREET","RICHMOND","VA",23223,37.5288785660001,-77.411414388,215,"422 N 32ND STREET, RICHMOND, VA, 23223","Match","Exact","422 N 32ND ST, RICHMOND, VA, 23223",201548844,"L"
208216,"422 N 4TH AVE","TUCSON","AZ",85705,32.2267842890001,-110.965562442,216,"422 N 4TH AVE, TUCSON, AZ, 85705","Match","Exact","422 N 4TH AVE, TUCSON, AZ, 85705",121170823,"R"
208217,"422 N CHESTNUT ST APT 1","AVALON","PA",15202,40.50067103,-80.065188749,217,"422 N CHESTNUT ST APT 1, AVALON, PA, 15202","Match","Non_Exact","422 N CHESTNUT ST, AVALON, PA, 15202",51619567,"R"
208218,"422 N COLONY CIRLCE","WILMINGTON","NC",28409,NA,NA,218,"422 N COLONY CIRLCE, WILMINGTON, NC, 28409","No_Match",NA,NA,NA,NA
208219,"422 N DODGE AVE","WICHITA","KS",67203,37.689197339,-97.3542434349999,219,"422 N DODGE AVE, WICHITA, KS, 67203","Match","Exact","422 N DODGE AVE, WICHITA, KS, 67203",115634805,"R"
208220,"422 N LAWLER 2","CHICAGO","IL",60644,NA,NA,220,"422 N LAWLER 2, CHICAGO, IL, 60644","No_Match",NA,NA,NA,NA
208221,"422 N SPRUCE","LITTLE ROCK","AR",72205,34.7547673930001,-92.326097338,221,"422 N SPRUCE, LITTLE ROCK, AR, 72205","Match","Non_Exact","422 N SPRUCE ST, LITTLE ROCK, AR, 72205",83505622,"L"
208222,"422 NE 146 TERRACE","MIAMI","FL",33161,25.909829288,-80.190838462,222,"422 NE 146 TERRACE, MIAMI, FL, 33161","Match","Exact","422 NE 146TH TER, MIAMI, FL, 33161",116031540,"R"
208223,"422 NW 13TH AVE 821","PORTLAND","OR",97209,45.5259624980001,-122.684246806,223,"422 NW 13TH AVE 821, PORTLAND, OR, 97209","Match","Non_Exact","422 NW 13TH AVE, PORTLAND, OR, 97209",157498903,"R"
208224,"422 OAK RUN DRIVE","RALEIGH","NC",27606,35.779919853,-78.733946535,224,"422 OAK RUN DRIVE, RALEIGH, NC, 27606","Match","Exact","422 OAK RUN DR, RALEIGH, NC, 27606",636581650,"L"
208225,"422 OCEAN VIEW AVE","GROVER BEACH","CA",93433,35.1291548400001,-120.625494919,225,"422 OCEAN VIEW AVE, GROVER BEACH, CA, 93433","Match","Exact","422 OCEAN VIEW AVE, GROVER BEACH, CA, 93433",109837649,"L"
208226,"422 OLD CTY D","SHELL LAKE","WI",54871,NA,NA,226,"422 OLD CTY D, SHELL LAKE, WI, 54871","No_Match",NA,NA,NA,NA
208227,"422 OSLOW COURT","DELAWARE","OH",43015,40.303241546,-83.1145394929999,227,"422 OSLOW COURT, DELAWARE, OH, 43015","Match","Exact","422 OSLOW CT, DELAWARE, OH, 43015",24596351,"L"
208228,"422 OVERLOOK ROAD","LAKE OZARK","MO",65049,38.215657591,-92.630540594,228,"422 OVERLOOK ROAD, LAKE OZARK, MO, 65049","Match","Exact","422 OVERLOOK RD, LAKE OZARK, MO, 65049",143099536,"L"
208229,"422 PLATEAU AVENUE 1ST FLOOR","FORT LEE","NJ",7024,40.8402829610001,-73.98228318,229,"422 PLATEAU AVENUE 1ST FLOOR, FORT LEE, NJ, 7024","Match","Exact","422 PLATEAU AVE, FORT LEE, NJ, 07024",64391951,"L"
208230,"422 PLEASANT AVENUE","PISCATAWAY","NJ",8854,40.595817911,-74.443883458,230,"422 PLEASANT AVENUE, PISCATAWAY, NJ, 8854","Match","Exact","422 PLEASANT AVE, PISCATAWAY, NJ, 08854",647270468,"R"
208231,"422 PLEASANT STREET","BOULDER","CO",80302,40.009432733,-105.28986665,231,"422 PLEASANT STREET, BOULDER, CO, 80302","Match","Exact","422 PLEASANT ST, BOULDER, CO, 80302",188159907,"R"
208232,"422 QUARTZ ROAD","LIBBY","MT",59923,48.421896863,-115.597410565,232,"422 QUARTZ ROAD, LIBBY, MT, 59923","Match","Exact","422 QUARTZ RD, LIBBY, MT, 59923",169682778,"R"
208233,"422 RIVER BEND ROAD","GREAT FALLS","VA",22066,39.007354091,-77.2656039509999,233,"422 RIVER BEND ROAD, GREAT FALLS, VA, 22066","Match","Exact","422 RIVER BEND RD, GREAT FALLS, VA, 22066",215925121,"R"
208234,"422 RIVERSIDE DR SE","SAINT CLOUD","MN",56304,45.5607395600001,-94.149229098,234,"422 RIVERSIDE DR SE, SAINT CLOUD, MN, 56304","Match","Exact","422 RIVERSIDE DR SE, SAINT CLOUD, MN, 56304",627873966,"L"
208235,"422 ROUTE 22 WEST","WHITEHOUSE STATION","NJ",8889,NA,NA,235,"422 ROUTE 22 WEST, WHITEHOUSE STATION, NJ, 8889","No_Match",NA,NA,NA,NA
208236,"422 S CHATHAM CIRCLE  SUITE H","ANAHEIM","CA",92806,33.8371192550001,-117.87260633,236,"422 S CHATHAM CIRCLE  SUITE H, ANAHEIM, CA, 92806","Match","Non_Exact","422 S CHATHAM CIR, ANAHEIM, CA, 92806",144089566,"R"
208237,"422 S JEFFERSON DAVIS PKWY","NEW ORLEANS","LA",70119,29.9670253560001,-90.0963783139999,237,"422 S JEFFERSON DAVIS PKWY, NEW ORLEANS, LA, 70119","Match","Exact","422 S JEFFERSON DAVIS PKWY, NEW ORLEANS, LA, 70119",191707618,"L"
208238,"422 S LA SALLE STREET","REDLANDS","CA",92374,34.04708952,-117.143190875,238,"422 S LA SALLE STREET, REDLANDS, CA, 92374","Match","Exact","422 S LA SALLE ST, REDLANDS, CA, 92374",144971481,"R"
208239,"422 S MAPLE ST","HARRISON","AR",72601,36.2262581680001,-93.1133451169999,239,"422 S MAPLE ST, HARRISON, AR, 72601","Match","Exact","422 S MAPLE ST, HARRISON, AR, 72601",19982748,"L"
208240,"422 S WILLOW STREET","JOLIET","IL",60436,41.515662218,-88.099228118,240,"422 S WILLOW STREET, JOLIET, IL, 60436","Match","Non_Exact","422 S WILLOW AVE, JOLIET, IL, 60436",111542338,"L"
208241,"422 SAN JUAN AVENUE","LA JUNTA","CO",81050,37.98465164,-103.54572977,241,"422 SAN JUAN AVENUE, LA JUNTA, CO, 81050","Match","Exact","422 SAN JUAN AVE, LA JUNTA, CO, 81050",112922247,"L"
208242,"422 SAPPHIRE STREET","OPELOUSAS","LA",70570,30.538722406,-92.0942356309999,242,"422 SAPPHIRE STREET, OPELOUSAS, LA, 70570","Match","Exact","422 SAPPHIRE ST, OPELOUSAS, LA, 70570",106434541,"R"
208243,"422 SEARLS","NEVADA CITY","CA",95959,39.257204013,-121.020130983,243,"422 SEARLS, NEVADA CITY, CA, 95959","Match","Non_Exact","422 SEARLS AVE, NEVADA CITY, CA, 95959",106530012,"L"
208244,"422 SHACKLEFORD ROAD","SHERIDAN","AR",72150,NA,NA,244,"422 SHACKLEFORD ROAD, SHERIDAN, AR, 72150","No_Match",NA,NA,NA,NA
208245,"422 SOUTH 14TH STREET","LA CROSSE","WI",54601,NA,NA,245,"422 SOUTH 14TH STREET, LA CROSSE, WI, 54601","No_Match",NA,NA,NA,NA
208246,"422 SPROUT BROOK RD","GARRISON","NY",10524,41.3428461020001,-73.902600277,246,"422 SPROUT BROOK RD, GARRISON, NY, 10524","Match","Exact","422 SPROUT BROOK RD, GARRISON, NY, 10524",139677449,"R"
208247,"422 ST LUKE ST","PETERSBURG","VA",23802,37.210614322,-77.405900709,247,"422 ST LUKE ST, PETERSBURG, VA, 23802","Match","Non_Exact","422 SAINT LUKE ST, PETERSBURG, VA, 23803",54151643,"L"
208248,"422 SW 12TH AVE","HOMESTEAD","FL",33030,25.4657653410001,-80.4911126709999,248,"422 SW 12TH AVE, HOMESTEAD, FL, 33030","Match","Exact","422 SW 12TH AVE, HOMESTEAD, FL, 33030",115961645,"R"
208249,"422 TATE TERRACE","KINGS MOUNTAIN","NC",28086,35.244471085,-81.3360794879999,249,"422 TATE TERRACE, KINGS MOUNTAIN, NC, 28086","Match","Exact","422 TATE TER, KINGS MOUNTAIN, NC, 28086",19338898,"L"
208250,"422 THOMAS SCHOOL RD","WINSTON SALEM","NC",27107,35.949375909,-80.194254127,250,"422 THOMAS SCHOOL RD, WINSTON SALEM, NC, 27107","Match","Exact","422 THOMAS SCHOOL RD, WINSTON SALEM, NC, 27107",604800213,"R"
208251,"422 W 10TH STREET","GRAND ISLAND","NE",68801,40.9321458200001,-98.349430903,251,"422 W 10TH STREET, GRAND ISLAND, NE, 68801","Match","Exact","422 W 10TH ST, GRAND ISLAND, NE, 68801",196268963,"L"
208252,"422 W 1600 N","CEDAR CITY","UT",84721,37.706182943,-113.068701946,252,"422 W 1600 N, CEDAR CITY, UT, 84721","Match","Exact","422 W 1600 N, CEDAR CITY, UT, 84721",165421318,"R"
208253,"422 W 8TH STREET  BOX 148","MCNABB","IL",61335,41.174808049,-89.209519595,253,"422 W 8TH STREET  BOX 148, MCNABB, IL, 61335","Match","Non_Exact","422 8TH ST, MC NABB, IL, 61335",8892571,"L"
208254,"422 W COX ST","NACOGDOCHES","TX",75964,31.601172628,-94.661816535,254,"422 W COX ST, NACOGDOCHES, TX, 75964","Match","Exact","422 W COX ST, NACOGDOCHES, TX, 75964",72435915,"L"
208255,"422 W CUMBERLAND AVENUE","KNOXVILLE","TN",37902,35.9621359700001,-83.917969683,255,"422 W CUMBERLAND AVENUE, KNOXVILLE, TN, 37902","Match","Exact","422 CUMBERLAND AVE, KNOXVILLE, TN, 37902",42620641,"L"
208256,"422 W GRANITE DRIVE","WASHINGTON","UT",84780,37.080032196,-113.516438101,256,"422 W GRANITE DRIVE, WASHINGTON, UT, 84780","Match","Exact","422 GRANITE DR, WASHINGTON, UT, 84780",607569973,"L"
208257,"422 W HAZEL CT","WICHITA","KS",67217,37.600242042,-97.3398433409999,257,"422 W HAZEL CT, WICHITA, KS, 67217","Match","Exact","422 W HAZEL CT, WICHITA, KS, 67217",115683866,"R"
208258,"422 W LAPEER ST","LANSING","MI",48933,42.739949848,-84.557298363,258,"422 W LAPEER ST, LANSING, MI, 48933","Match","Exact","422 W LAPEER ST, LANSING, MI, 48933",17498348,"R"
208259,"422 W OAKDALE DR","FORT WAYNE","IN",46807,41.0521275730001,-85.142945497,259,"422 W OAKDALE DR, FORT WAYNE, IN, 46807","Match","Exact","422 W OAKDALE DR, FORT WAYNE, IN, 46807",6382214,"R"
208260,"422 W RIVERSIDE DR APT 423","AUSTIN","TX",78704,NA,NA,260,"422 W RIVERSIDE DR APT 423, AUSTIN, TX, 78704","Tie",NA,NA,NA,NA
208261,"422 WALNUT STREET","HAPEVILLE","GA",30354,33.666312406,-84.401989755,261,"422 WALNUT STREET, HAPEVILLE, GA, 30354","Match","Exact","422 WALNUT ST, HAPEVILLE, GA, 30354",17349895,"L"
208262,"422 WARNER ST","OREGON CITY","OR",97045,45.3390173540001,-122.595555138,262,"422 WARNER ST, OREGON CITY, OR, 97045","Match","Exact","422 WARNER ST, OREGON CITY, OR, 97045",157962866,"L"
208263,"422 WELLESLEY SE","ALBUQUERQUE","NM",87106,35.0749673010001,-106.608271911,263,"422 WELLESLEY SE, ALBUQUERQUE, NM, 87106","Match","Non_Exact","422 WELLESLEY DR SE, ALBUQUERQUE, NM, 87106",206710395,"L"
208264,"422 WEST GRAND ST","ELIZABETH","NJ",7202,40.6647038030001,-74.230067191,264,"422 WEST GRAND ST, ELIZABETH, NJ, 7202","Match","Exact","422 W GRAND ST, ELIZABETH, NJ, 07202",60578113,"L"
208265,"422 WEST RIVERSIDE DRIVE 536","AUSTIN","TX",78704,30.2587335040001,-97.748486429,265,"422 WEST RIVERSIDE DRIVE 536, AUSTIN, TX, 78704","Match","Exact","422 W RIVERSIDE DR, AUSTIN, TX, 78704",63943400,"R"
208266,"422 WILEMAN DRIVE","EDGERTON","WI",53534,42.8370678220001,-89.055764344,266,"422 WILEMAN DRIVE, EDGERTON, WI, 53534","Match","Exact","422 WILEMAN DR, EDGERTON, WI, 53534",49865436,"L"
208267,"422","SUNNYVALE","CA",94085,NA,NA,267,"422, SUNNYVALE, CA, 94085","No_Match",NA,NA,NA,NA
208268,"4220 12TH AVENUE NE APT 5","SEATTLE","WA",98105,47.658710425,-122.315500639,268,"4220 12TH AVENUE NE APT 5, SEATTLE, WA, 98105","Match","Exact","4220 12TH AVE NE, SEATTLE, WA, 98105",186586926,"R"
208269,"4220 58TH ST S","FARGO","ND",58104,NA,NA,269,"4220 58TH ST S, FARGO, ND, 58104","No_Match",NA,NA,NA,NA
208270,"4220 ALEX CT","FAIRFAX","VA",22030,38.849457962,-77.337226534,270,"4220 ALEX CT, FAIRFAX, VA, 22030","Match","Exact","4220 ALEX CT, FAIRFAX, VA, 22030",635866830,"L"
208271,"4220 ANTHONY LANE","PLAINFIELD","IL",60586,41.5520579450001,-88.18664968,271,"4220 ANTHONY LANE, PLAINFIELD, IL, 60586","Match","Exact","4220 ANTHONY LN, PLAINFIELD, IL, 60586",111601930,"R"
208272,"4220 ANTLERS CT","FORT COLLINS","CO",80526,40.5282511450001,-105.134350154,272,"4220 ANTLERS CT, FORT COLLINS, CO, 80526","Match","Exact","4220 ANTLERS CT, FORT COLLINS, CO, 80526",188548706,"L"
208273,"4220 ASHCOTT LN","PLAINFIELD","IL",60586,41.5512022070001,-88.186589683,273,"4220 ASHCOTT LN, PLAINFIELD, IL, 60586","Match","Exact","4220 ASHCOTT LN, PLAINFIELD, IL, 60586",111601927,"R"
208274,"4220 BAY RUM LANE","RALEIGH","NC",27610,35.7263043140001,-78.535540043,274,"4220 BAY RUM LANE, RALEIGH, NC, 27610","Match","Exact","4220 BAY RUM LN, RALEIGH, NC, 27610",612821676,"R"
208275,"4220 CAMPBELL AVE 818","ARLINGTON","VA",22206,38.8413334520001,-77.089844821,275,"4220 CAMPBELL AVE 818, ARLINGTON, VA, 22206","Match","Exact","4220 CAMPBELL AVE, ARLINGTON, VA, 22206",645487976,"R"
208276,"4220 CAMPBELL AVE","ARLINGTON","VA",22206,38.8413334520001,-77.089844821,276,"4220 CAMPBELL AVE, ARLINGTON, VA, 22206","Match","Exact","4220 CAMPBELL AVE, ARLINGTON, VA, 22206",645487976,"R"
208277,"4220 CORTE FAVOR","SAN DIEGO","CA",92130,32.9523803450001,-117.223407057,277,"4220 CORTE FAVOR, SAN DIEGO, CA, 92130","Match","Exact","4220 CORTE FAVOR, SAN DIEGO, CA, 92130",195659082,"L"
208278,"4220 DIXIE HWY","PALM BAY","FL",32905,NA,NA,278,"4220 DIXIE HWY, PALM BAY, FL, 32905","No_Match",NA,NA,NA,NA
208279,"4220 DREUX AVENUE","NEW ORLEANS","LA",70126,30.0134063960001,-90.042323747,279,"4220 DREUX AVENUE, NEW ORLEANS, LA, 70126","Match","Exact","4220 DREUX AVE, NEW ORLEANS, LA, 70126",191735132,"R"
208280,"4220 E LOOP ROAD","HESPERIA","MI",49421,43.5809600360001,-86.172835122,280,"4220 E LOOP ROAD, HESPERIA, MI, 49421","Match","Exact","4220 E LOOP RD, HESPERIA, MI, 49421",163694273,"L"
208281,"4220 EMERSON AVENUE","DALLAS","TX",75205,32.846359342,-96.807231739,281,"4220 EMERSON AVENUE, DALLAS, TX, 75205","Match","Exact","4220 EMERSON AVE, DALLAS, TX, 75205",102906131,"R"
208282,"4220 EVANSTON AVENUE","INDIANAPOLIS","IN",46205,39.8333300520001,-86.126426893,282,"4220 EVANSTON AVENUE, INDIANAPOLIS, IN, 46205","Match","Exact","4220 EVANSTON AVE, INDIANAPOLIS, IN, 46205",107985398,"L"
208283,"4220 FLORIN ROAD SUITE 109","SACRAMENTO","CA",95823,38.496020104,-121.457797045,283,"4220 FLORIN ROAD SUITE 109, SACRAMENTO, CA, 95823","Match","Exact","4220 FLORIN RD, SACRAMENTO, CA, 95823",133404579,"R"
208284,"4220 HOLLAND DR","DES MOINES","IA",50310,41.615854126,-93.674936614,284,"4220 HOLLAND DR, DES MOINES, IA, 50310","Match","Exact","4220 HOLLAND DR, DES MOINES, IA, 50310",65817067,"L"
208285,"4220 IDLEWOOD DR","CUMMING","GA",30040,34.2361291230001,-84.2366462809999,285,"4220 IDLEWOOD DR, CUMMING, GA, 30040","Match","Exact","4220 IDLEWOOD DR, CUMMING, GA, 30040",637476657,"L"
208286,"4220 JASMINE CT","TURLOCK","CA",95382,37.532409279,-120.851584588,286,"4220 JASMINE CT, TURLOCK, CA, 95382","Match","Exact","4220 JASMINE CT, TURLOCK, CA, 95382",102627960,"L"
208287,"4220 JASON ST UNIT B","DENVER","CO",80211,39.7745473310001,-104.999384704,287,"4220 JASON ST UNIT B, DENVER, CO, 80211","Match","Exact","4220 JASON ST, DENVER, CO, 80211",177303464,"R"
208288,"4220 KISSENA BLVD STE A2","FLUSHING","NY",11355,NA,NA,288,"4220 KISSENA BLVD STE A2, FLUSHING, NY, 11355","No_Match",NA,NA,NA,NA
208289,"4220 MADISON DR","CUMMING","GA",30040,34.2255613880001,-84.2286639819999,289,"4220 MADISON DR, CUMMING, GA, 30040","Match","Exact","4220 MADISON DR, CUMMING, GA, 30040",634101071,"R"
208290,"4220 MERRICK ROAD","MASSAPEQUA","NY",11758,40.666765045,-73.4774866559999,290,"4220 MERRICK ROAD, MASSAPEQUA, NY, 11758","Match","Exact","4220 MERRICK RD, MASSAPEQUA, NY, 11758",147649207,"R"
208291,"4220 N CR 500 W","MUNCIE","IN",47304,40.2277510550001,-85.480927733,291,"4220 N CR 500 W, MUNCIE, IN, 47304","Match","Exact","4220 N CO RD 500 W, MUNCIE, IN, 47304",620038551,"L"
208292,"4220 NORTH RUSHWOOD COURT","BEL AIRE","KS",67226,37.761091965,-97.254836322,292,"4220 NORTH RUSHWOOD COURT, BEL AIRE, KS, 67226","Match","Exact","4220 N RUSHWOOD CT, BEL AIRE, KS, 67226",115670218,"L"
208293,"4220 S 4850 W","WEST VALLEY CITY","UT",84120,40.67918781,-112.006822931,293,"4220 S 4850 W, WEST VALLEY CITY, UT, 84120","Match","Exact","4220 S 4850 W, WEST VALLEY CITY, UT, 84120",176069394,"R"
208294,"4220 S MAIN ST","ACWORTH","GA",30101,34.057465506,-84.664187681,294,"4220 S MAIN ST, ACWORTH, GA, 30101","Match","Exact","4220 S MAIN ST, ACWORTH, GA, 30101",17243769,"R"
208295,"4220 SOUTH VAN BUREN PLACE","LOS ANGELES","CA",90037,34.006865873,-118.296939424,295,"4220 SOUTH VAN BUREN PLACE, LOS ANGELES, CA, 90037","Match","Non_Exact","4220 VAN BUREN PL, LOS ANGELES, CA, 90037",141607743,"L"
208296,"4220 STADIUM BLVD","JONESBORO","AR",72404,35.7912807110001,-90.6697449,296,"4220 STADIUM BLVD, JONESBORO, AR, 72404","Match","Exact","4220 STADIUM BLVD, JONESBORO, AR, 72404",46934097,"R"
208297,"4220 W ADAMS AVE","SHOW LOW","AZ",85901,34.2560029950001,-110.088478975,297,"4220 W ADAMS AVE, SHOW LOW, AZ, 85901","Match","Non_Exact","4220 W ADAMS DR, SHOW LOW, AZ, 85901",172509626,"L"
208298,"4220 W GARFIELD AVE","MILWAUKEE","WI",53208,43.059246215,-87.966278587,298,"4220 W GARFIELD AVE, MILWAUKEE, WI, 53208","Match","Exact","4220 W GARFIELD AVE, MILWAUKEE, WI, 53208",77732416,"R"
208299,"4220 W SAN ANTONIO ST","BROKEN ARROW","OK",74012,36.036480023,-95.840354781,299,"4220 W SAN ANTONIO ST, BROKEN ARROW, OK, 74012","Match","Exact","4220 W SAN ANTONIO ST, BROKEN ARROW, OK, 74012",166463606,"L"
208300,"4220 WITHEROW ROAD","WINSTON-SALEM","NC",27106,36.1459075700001,-80.317923058,300,"4220 WITHEROW ROAD, WINSTON-SALEM, NC, 27106","Match","Exact","4220 WITHEROW RD, WINSTON SALEM, NC, 27106",84603210,"R"
208301,"4220 WOODLEAF ROAD","SALISBURY","NC",28147,35.7236684800001,-80.536217285,301,"4220 WOODLEAF ROAD, SALISBURY, NC, 28147","Match","Exact","4220 WOODLEAF RD, SALISBURY, NC, 28147",25266952,"R"
208302,"42200 MARGARITA ROAD APT 1313","TEMECULA","CA",92592,33.50498781,-117.123651412,302,"42200 MARGARITA ROAD APT 1313, TEMECULA, CA, 92592","Match","Exact","42200 MARGARITA RD, TEMECULA, CA, 92592",194825492,"R"
208303,"42200 NIGHTHAWK WAY","MURRIETA","CA",92562,33.5648098550001,-117.231879183,303,"42200 NIGHTHAWK WAY, MURRIETA, CA, 92562","Match","Exact","42200 NIGHTHAWK WAY, MURRIETA, CA, 92562",638579523,"R"
208304,"42205 260TH ST","ARLINGTON","MN",55307,44.5724389540001,-94.111604578,304,"42205 260TH ST, ARLINGTON, MN, 55307","Match","Exact","42205 260TH ST, ARLINGTON, MN, 55307",37018694,"L"
208305,"4220A SE SALMON STREET","PORTLAND","OR",97215,45.51428731,-122.618875818,305,"4220A SE SALMON STREET, PORTLAND, OR, 97215","Match","Non_Exact","4220 SE SALMON ST, PORTLAND, OR, 97214",157514320,"R"
208306,"4221 47TH STREET","SAN DIEGO","CA",92115,32.7538233010001,-117.093287368,306,"4221 47TH STREET, SAN DIEGO, CA, 92115","Match","Exact","4221 47TH ST, SAN DIEGO, CA, 92115",195349932,"R"
208307,"4221 8TH AVENUE WYLAM","BIRMINGHAM","AL",35224,33.504691629,-86.9190908039999,307,"4221 8TH AVENUE WYLAM, BIRMINGHAM, AL, 35224","Match","Exact","4221 8TH AVE, BIRMINGHAM, AL, 35224",81551387,"L"
208308,"4221 ACADEMY ST","BELLINGHAM","WA",98226,48.7677938730001,-122.414418589,308,"4221 ACADEMY ST, BELLINGHAM, WA, 98226","Match","Exact","4221 ACADEMY ST, BELLINGHAM, WA, 98226",183773417,"L"
208309,"4221 ALMY ROAD 107","EVANSTON","WY",82930,41.34581661,-111.005171139,309,"4221 ALMY ROAD 107, EVANSTON, WY, 82930","Match","Exact","4221 ALMY RD 107, EVANSTON, WY, 82930",160277952,"L"
208310,"4221 ARGYLE TERRACE NW","WASHINGTON","DC",20011,38.941844057,-77.0436048179999,310,"4221 ARGYLE TERRACE NW, WASHINGTON, DC, 20011","Match","Exact","4221 ARGYLE TER NW, WASHINGTON, DC, 20011",76222224,"R"
208311,"4221 ATWOOD DR","ORLANDO","FL",32828,28.500367467,-81.1403237649999,311,"4221 ATWOOD DR, ORLANDO, FL, 32828","Match","Exact","4221 ATWOOD DR, ORLANDO, FL, 32828",94415402,"L"
208312,"4221 BEVERLY RD SW","CEDAR RAPIDS","IA",52404,41.938346451,-91.7261302329999,312,"4221 BEVERLY RD SW, CEDAR RAPIDS, IA, 52404","Match","Non_Exact","4221 BEVERLY RD, CEDAR RAPIDS, IA, 52404",17052702,"L"
208313,"4221 BUSHNELL CAMPBELL ROAD","FOWLER","OH",44481,41.3342375190001,-80.59824408,313,"4221 BUSHNELL CAMPBELL ROAD, FOWLER, OH, 44481","Match","Non_Exact","4221 BUSHNELL CAMPBELL RD, FOWLER, OH, 44418",117398247,"R"
208314,"4221 CANEBRAKE COURT","VIRGINIA BEACB","VA",23456,36.7596606130001,-76.130009106,314,"4221 CANEBRAKE COURT, VIRGINIA BEACB, VA, 23456","Match","Non_Exact","4221 CANEBRAKE CT, VIRGINIA BCH, VA, 23456",122288747,"R"
208315,"4221 CARDINAL STREET","NORTHPORT","AL",35473,33.244372803,-87.6007039849999,315,"4221 CARDINAL STREET, NORTHPORT, AL, 35473","Match","Exact","4221 CARDINAL ST, NORTHPORT, AL, 35473",82145758,"L"
208316,"4221 CASS AVE APT 1300","DETROIT","MI",48201,42.3507681450001,-83.063685284,316,"4221 CASS AVE APT 1300, DETROIT, MI, 48201","Match","Exact","4221 CASS AVE, DETROIT, MI, 48201",95477604,"L"
208317,"4221 CRUMP RD","MEMPHIS","TN",38141,35.033553322,-89.859725617,317,"4221 CRUMP RD, MEMPHIS, TN, 38141","Match","Exact","4221 CRUMP RD, MEMPHIS, TN, 38141",72928947,"R"
208318,"4221 DESERT FOX DRIVE","SPARKS","NV",89436,39.6310092570001,-119.666921439,318,"4221 DESERT FOX DRIVE, SPARKS, NV, 89436","Match","Exact","4221 DESERT FOX DR, SPARKS, NV, 89436",107120405,"L"
208319,"4221 E RAY RD","PHOENIX","AZ",85044,33.3200597680001,-111.993479533,319,"4221 E RAY RD, PHOENIX, AZ, 85044","Match","Exact","4221 E RAY RD, PHOENIX, AZ, 85044",642856930,"R"
208320,"4221 EAST MCDOWELL RD UNIT 1095","PHOENIX","AZ",85008,33.465649473,-111.990866299,320,"4221 EAST MCDOWELL RD UNIT 1095, PHOENIX, AZ, 85008","Match","Exact","4221 E MCDOWELL RD, PHOENIX, AZ, 85008",243921028,"R"
208321,"4221 EXPLORER COURT","LA MESA","CA",91941,32.755954488,-116.95001628,321,"4221 EXPLORER COURT, LA MESA, CA, 91941","Match","Exact","4221 EXPLORER CT, LA MESA, CA, 91941",195363142,"R"
208322,"4221 FM 876","WAXAHACHIE","TX",75167,32.272332771,-96.905408237,322,"4221 FM 876, WAXAHACHIE, TX, 75167","Match","Exact","4221 FM 876, WAXAHACHIE, TX, 75167",648632050,"R"
208323,"4221 GORMAN ST SE","WASHINGTON","DC",20019,38.879186571,-76.9434724389999,323,"4221 GORMAN ST SE, WASHINGTON, DC, 20019","Match","Exact","4221 GORMAN ST SE, WASHINGTON, DC, 20019",76233701,"R"
208324,"4221 HIGHWAY 136","CLINTON","IA",52732,41.898618318,-90.271355714,324,"4221 HIGHWAY 136, CLINTON, IA, 52732","Match","Non_Exact","4221 STATE HWY 136, CLINTON, IA, 52732",16816991,"L"
208325,"4221 KILN DELISLE ROAD","KILN","MS",39556,NA,NA,325,"4221 KILN DELISLE ROAD, KILN, MS, 39556","No_Match",NA,NA,NA,NA
208326,"4221 LANCASTER DR","SARASOTA","FL",34241,27.2968375190001,-82.438591579,326,"4221 LANCASTER DR, SARASOTA, FL, 34241","Match","Exact","4221 LANCASTER DR, SARASOTA, FL, 34241",16406488,"L"
208327,"4221 MATHEWSON DR NW","WASHINGTON","DC",20011,38.9415677490001,-77.0443281569999,327,"4221 MATHEWSON DR NW, WASHINGTON, DC, 20011","Match","Exact","4221 MATHEWSON DR NW, WASHINGTON, DC, 20011",76222223,"R"
208328,"4221 MICHELLE ST","TORRANCE","CA",91403,NA,NA,328,"4221 MICHELLE ST, TORRANCE, CA, 91403","No_Match",NA,NA,NA,NA
208329,"4221 N 172 ST","OMAHA","NE",68116,41.2967857670001,-96.184544353,329,"4221 N 172 ST, OMAHA, NE, 68116","Match","Exact","4221 N 172ND ST, OMAHA, NE, 68116",645493521,"R"
208330,"4221 N HIMES AVENUE","TAMPA","FL",33607,27.9780875540001,-82.50142546,330,"4221 N HIMES AVENUE, TAMPA, FL, 33607","Match","Exact","4221 N HIMES AVE, TAMPA, FL, 33607",104516156,"R"
208331,"4221 NORTH 10TH STREET","LINCOLN","NE",68521,40.8530955690001,-96.7071270329999,331,"4221 NORTH 10TH STREET, LINCOLN, NE, 68521","Match","Exact","4221 N 10TH ST, LINCOLN, NE, 68521",28252390,"L"
208332,"4221 NW 19TH STREET-SUITE 273","LAUDERHILL","FL",33311,NA,NA,332,"4221 NW 19TH STREET-SUITE 273, LAUDERHILL, FL, 33311","No_Match",NA,NA,NA,NA
208333,"4221 QUEEN ANNE AVE","LORAIN","OH",44052,41.432134412,-82.182183143,333,"4221 QUEEN ANNE AVE, LORAIN, OH, 44052","Match","Exact","4221 QUEEN ANNE AVE, LORAIN, OH, 44052",55404958,"L"
208334,"4221 RIDGELINE CIRCLE","NORMAN","OK",73072,35.267746506,-97.505187253,334,"4221 RIDGELINE CIRCLE, NORMAN, OK, 73072","Match","Exact","4221 RIDGELINE CIR, NORMAN, OK, 73072",99938341,"R"
208335,"4221 RIVERDALE RD","MEMPHIS","TN",38114,35.0338929820001,-89.831419898,335,"4221 RIVERDALE RD, MEMPHIS, TN, 38114","Match","Non_Exact","4221 RIVERDALE RD, MEMPHIS, TN, 38141",607502417,"L"
208336,"4221 RURAL AVE","BELLINGHAM","WA",98226,48.7938920830001,-122.57813381,336,"4221 RURAL AVE, BELLINGHAM, WA, 98226","Match","Exact","4221 RURAL AVE, BELLINGHAM, WA, 98226",183770736,"L"
208337,"4221 S DELAWARE ST","ENGLEWOOD","CO",80110,39.6399126040001,-104.992478999,337,"4221 S DELAWARE ST, ENGLEWOOD, CO, 80110","Match","Exact","4221 S DELAWARE ST, ENGLEWOOD, CO, 80110",177333588,"R"
208338,"4221 W 104TH TER","OVERLAND PARK","KS",66207,38.939882534,-94.633666524,338,"4221 W 104TH TER, OVERLAND PARK, KS, 66207","Match","Exact","4221 W 104TH TER, OVERLAND PARK, KS, 66207",91280305,"R"
208339,"4221 W SPRUCE ST SUITE 2420","TAMPA","FL",33607,27.9595001370001,-82.5144991019999,339,"4221 W SPRUCE ST SUITE 2420, TAMPA, FL, 33607","Match","Non_Exact","4221 W SPRUCE ST, TAMPA, FL, 33607",104515926,"R"
208340,"4221 WILSHIRE BLVD SUITE 170-16","LOS ANGELES","CA",90010,34.0617392880001,-118.319337022,340,"4221 WILSHIRE BLVD SUITE 170-16, LOS ANGELES, CA, 90010","Match","Exact","4221 WILSHIRE BLVD, LOS ANGELES, CA, 90010",141603547,"R"
208341,"4221 WILTSHIRE BLV","LOS ANGELES","CA",90010,NA,NA,341,"4221 WILTSHIRE BLV, LOS ANGELES, CA, 90010","No_Match",NA,NA,NA,NA
208342,"42210 MARBELLA STREET","QUARTZ HILL","CA",93536,34.6496064030001,-118.20647012,342,"42210 MARBELLA STREET, QUARTZ HILL, CA, 93536","Match","Exact","42210 MARBELLA ST, QUARTZ HILL, CA, 93536",141830227,"L"
208343,"42212 10TH STREET WEST","LANCASTER","CA",93534,34.6497476590001,-118.147651735,343,"42212 10TH STREET WEST, LANCASTER, CA, 93534","Match","Exact","42212 10TH ST W, LANCASTER, CA, 93534",141527101,"L"
208344,"42215 WASHINGTON STREET SUITE A 532","PALM DESERT","CA",92211,33.7415663900001,-116.303866043,344,"42215 WASHINGTON STREET SUITE A 532, PALM DESERT, CA, 92211","Match","Exact","42215 WASHINGTON ST, PALM DESERT, CA, 92211",633071089,"R"
208345,"42219 GATEWOOD STREET","FREMONT","CA",94538,37.523077899,-121.959833707,345,"42219 GATEWOOD STREET, FREMONT, CA, 94538","Match","Exact","42219 GATEWOOD ST, FREMONT, CA, 94538",125031195,"R"
208346,"4222 4TH AVENUE","BROOKLYN","NY",11232,40.6508066000001,-74.008075764,346,"4222 4TH AVENUE, BROOKLYN, NY, 11232","Match","Exact","4222 4TH AVE, BROOKLYN, NY, 11232",59094744,"R"
208347,"4222 79TH STREET","ELMHURST","NY",11373,NA,NA,347,"4222 79TH STREET, ELMHURST, NY, 11373","No_Match",NA,NA,NA,NA
208348,"4222 AQUA RIDGE DR","SAINT LOUIS","MO",63129,38.494560704,-90.312649231,348,"4222 AQUA RIDGE DR, SAINT LOUIS, MO, 63129","Match","Exact","4222 AQUA RIDGE DR, SAINT LOUIS, MO, 63129",100157924,"L"
208349,"4222 ASHBURY PARKE DR","NEWBURGH","IN",47630,37.9712415430001,-87.441134984,349,"4222 ASHBURY PARKE DR, NEWBURGH, IN, 47630","Match","Exact","4222 ASHBURY PARKE DR, NEWBURGH, IN, 47630",32216536,"L"
208350,"4222 BEXLEY BLVD","SOUTH EUCLID","OH",44121,41.5138796620001,-81.528890213,350,"4222 BEXLEY BLVD, SOUTH EUCLID, OH, 44121","Match","Exact","4222 BEXLEY BLVD, SOUTH EUCLID, OH, 44121",61125604,"R"
208351,"4222 BRECKENRIDGE DRIVE","WEST BLOOMFIELD","MI",48322,42.544723547,-83.3635704339999,351,"4222 BRECKENRIDGE DRIVE, WEST BLOOMFIELD, MI, 48322","Match","Exact","4222 BRECKENRIDGE DR, W BLOOMFIELD, MI, 48322",69761566,"L"
208352,"4222 COKESBURY ROAD","HODGES","SC",29653,34.2904292060001,-82.209036892,352,"4222 COKESBURY ROAD, HODGES, SC, 29653","Match","Exact","4222 COKESBURY RD, HODGES, SC, 29653",50802664,"R"
208353,"4222 E 200 N","LAFAYETTE","IN",47905,40.446829402,-86.823317346,353,"4222 E 200 N, LAFAYETTE, IN, 47905","Match","Exact","4222 E 200 N, LAFAYETTE, IN, 47905",27314948,"L"
208354,"4222 EL CERRITO DR","DALLAS","TX",75228,NA,NA,354,"4222 EL CERRITO DR, DALLAS, TX, 75228","No_Match",NA,NA,NA,NA
208355,"4222 ELDERWOOD DR","SEABROOK","TX",77586,29.573578737,-95.062568942,355,"4222 ELDERWOOD DR, SEABROOK, TX, 77586","Match","Exact","4222 ELDERWOOD DR, SEABROOK, TX, 77586",96147143,"R"
208356,"4222 FORTUNA CENTER PLAZA PMB 241","DUMFRIES","VA",22025,38.5968443850001,-77.332753283,356,"4222 FORTUNA CENTER PLAZA PMB 241, DUMFRIES, VA, 22025","Match","Exact","4222 FORTUNA CENTER PLZ, DUMFRIES, VA, 22025",634504430,"R"
208357,"4222 FORTUNA CENTER PLAZA STE 637","DUMFRIES","VA",22025,38.5968443850001,-77.332753283,357,"4222 FORTUNA CENTER PLAZA STE 637, DUMFRIES, VA, 22025","Match","Exact","4222 FORTUNA CENTER PLZ, DUMFRIES, VA, 22025",634504430,"R"
208358,"4222 GAUGE LINE LOOP","TAMPA","FL",33624,NA,NA,358,"4222 GAUGE LINE LOOP, TAMPA, FL, 33624","Tie",NA,NA,NA,NA
208359,"4222 GENERAL PERSHING ST","NEW ORLEANS","LA",70125,29.9502630440001,-90.10488061,359,"4222 GENERAL PERSHING ST, NEW ORLEANS, LA, 70125","Match","Exact","4222 GENERAL PERSHING ST, NEW ORLEANS, LA, 70125",191711293,"L"
208360,"4222 INVERRARY BLVD APT 4418","LAUDERHILL","FL",33319,26.1785871660001,-80.239836596,360,"4222 INVERRARY BLVD APT 4418, LAUDERHILL, FL, 33319","Match","Exact","4222 INVERRARY BLVD, LAUDERHILL, FL, 33319",114703139,"R"
208361,"4222 MAILY MEADOW LANE","KATY","TX",77450,29.728721803,-95.764940834,361,"4222 MAILY MEADOW LANE, KATY, TX, 77450","Match","Exact","4222 MAILY MEADOW LN, KATY, TX, 77450",78328791,"L"
208362,"4222 OSCEOLA ST","DENVER","CO",80212,39.7746487590001,-105.038103,362,"4222 OSCEOLA ST, DENVER, CO, 80212","Match","Exact","4222 OSCEOLA ST, DENVER, CO, 80212",177299718,"R"
208363,"4222 PINE STREET","PHILADELPHIA","PA",19104,39.951291096,-75.208218131,363,"4222 PINE STREET, PHILADELPHIA, PA, 19104","Match","Exact","4222 PINE ST, PHILADELPHIA, PA, 19104",131403860,"L"
208364,"4222 RESURRECTION DR","ANCHORAGE","AK",99504,61.183793021,-149.7289093,364,"4222 RESURRECTION DR, ANCHORAGE, AK, 99504","Match","Exact","4222 RESURRECTION DR, ANCHORAGE, AK, 99504",190806015,"L"
208365,"4222 RIVER HILLS DR","TAMPA","FM",33617,NA,NA,365,"4222 RIVER HILLS DR, TAMPA, FM, 33617","No_Match",NA,NA,NA,NA
208366,"4222 RIVERCHASE LANE","HOUSTON","TX",77014,29.9843599050001,-95.486428706,366,"4222 RIVERCHASE LANE, HOUSTON, TX, 77014","Match","Exact","4222 RIVERCHASE LN, HOUSTON, TX, 77014",96010111,"L"
208367,"4222 S HARRISON ST","MARION","IN",46953,40.5187929250001,-85.672493733,367,"4222 S HARRISON ST, MARION, IN, 46953","Match","Exact","4222 S HARRISON ST, MARION, IN, 46953",95009689,"R"
208368,"4222 STANBRIDGE AVE","LONG BEACH","CA",90808,33.8346982,-118.128392521,368,"4222 STANBRIDGE AVE, LONG BEACH, CA, 90808","Match","Exact","4222 STANBRIDGE AVE, LONG BEACH, CA, 90808",141700583,"R"
208369,"4222 TACKAWANNA STREET","PHILADELPHIA","PA",19124,40.008141209,-75.086746508,369,"4222 TACKAWANNA STREET, PHILADELPHIA, PA, 19124","Match","Exact","4222 TACKAWANNA ST, PHILADELPHIA, PA, 19124",131427829,"L"
208370,"4222 VINELAND AVENUE","NORTH HOLLYWOOD","CA",91602,34.1452969650001,-118.37054757,370,"4222 VINELAND AVENUE, NORTH HOLLYWOOD, CA, 91602","Match","Exact","4222 VINELAND AVE, N HOLLYWOOD, CA, 91602",141593311,"R"
208371,"4222 W 20TH PLACE","GARY","IN",46404,41.581361685,-87.389050357,371,"4222 W 20TH PLACE, GARY, IN, 46404","Match","Exact","4222 W 20TH PL, GARY, IN, 46404",98425099,"R"
208372,"4222 W ALLUVIAL AVE","FRESNO","CA",93722,36.841769217,-119.869149101,372,"4222 W ALLUVIAL AVE, FRESNO, CA, 93722","Match","Exact","4222 W ALLUVIAL AVE, FRESNO, CA, 93722",197642914,"R"
208373,"4223  ECHO VALLEY ROAD","GLEN ARM","MD",21057,39.4513149360001,-76.530728975,373,"4223  ECHO VALLEY ROAD, GLEN ARM, MD, 21057","Match","Exact","4223 ECHO VALLEY RD, GLEN ARM, MD, 21057",191474961,"R"
208374,"4223  W PIPELINE RD","EULESS","TX",76040,NA,NA,374,"4223  W PIPELINE RD, EULESS, TX, 76040","No_Match",NA,NA,NA,NA
208375,"4223 1/4 LINDBLADE DRIVE","LOS ANGELES","CA",90066,33.9970201680001,-118.423648165,375,"4223 1/4 LINDBLADE DRIVE, LOS ANGELES, CA, 90066","Match","Exact","4223 LINDBLADE DR, LOS ANGELES, CA, 90066",142719549,"R"
208376,"4223 ADRIATIC SEA WAY","SACRAMENTO","CA",95834,38.6478967150001,-121.543209365,376,"4223 ADRIATIC SEA WAY, SACRAMENTO, CA, 95834","Match","Exact","4223 ADRIATIC SEA WAY, SACRAMENTO, CA, 95834",618065542,"L"
208377,"4223 ATLAS AVE","OAKLAND","CA",94619,37.7972934250001,-122.188340144,377,"4223 ATLAS AVE, OAKLAND, CA, 94619","Match","Exact","4223 ATLAS AVE, OAKLAND, CA, 94619",125004740,"L"
208378,"4223 BAR HARBOR PLACE","HOLNEY","MD",20832,39.135187864,-77.081113204,378,"4223 BAR HARBOR PLACE, HOLNEY, MD, 20832","Match","Non_Exact","4223 BAR HARBOR PL, OLNEY, MD, 20832",640999473,"L"
208379,"4223 CADE ROAD","CAPAC","MI",48014,NA,NA,379,"4223 CADE ROAD, CAPAC, MI, 48014","No_Match",NA,NA,NA,NA
208380,"4223 CANYON TRAILS DRIVE","WICHITA FALLS","TX",76309,33.896396522,-98.5515498079999,380,"4223 CANYON TRAILS DRIVE, WICHITA FALLS, TX, 76309","Match","Exact","4223 CANYON TRAILS DR, WICHITA FALLS, TX, 76309",169853493,"L"
208381,"4223 DALE BLVD","WOODBRIDGE","VA",22193,38.6452772710001,-77.336950195,381,"4223 DALE BLVD, WOODBRIDGE, VA, 22193","Match","Exact","4223 DALE BLVD, WOODBRIDGE, VA, 22193",207152508,"L"
208382,"4223 EAST EMMA ST","TAMPA","FL",33610,27.9858372080001,-82.4104067439999,382,"4223 EAST EMMA ST, TAMPA, FL, 33610","Match","Exact","4223 E EMMA ST, TAMPA, FL, 33610",104534024,"R"
208383,"4223 EAST PARKWAY 218","GATLINBURG","TN",37738,35.761267837,-83.3326660659999,383,"4223 EAST PARKWAY 218, GATLINBURG, TN, 37738","Match","Exact","4223 E PKWY, GATLINBURG, TN, 37738",635752215,"L"
208384,"4223 EDGEHILL DRIVE","LOS ANGELES","CA",90008,34.0068896540001,-118.330464352,384,"4223 EDGEHILL DRIVE, LOS ANGELES, CA, 90008","Match","Exact","4223 EDGEHILL DR, LOS ANGELES, CA, 90008",642869845,"R"
208385,"4223 EVERGREEN LANE","ANNANDALE","VA",22003,38.832223635,-77.1863705819999,385,"4223 EVERGREEN LANE, ANNANDALE, VA, 22003","Match","Exact","4223 EVERGREEN LN, ANNANDALE, VA, 22003",642591632,"L"
208386,"4223 GLENCOE AVE SUITE B-130","MARINA DEL REY","CA",90292,33.98829963,-118.441296417,386,"4223 GLENCOE AVE SUITE B-130, MARINA DEL REY, CA, 90292","Match","Exact","4223 GLENCOE AVE, MARINA DEL REY, CA, 90292",648858788,"R"
208387,"4223 GLENCOE AVE SUITE C115","MARINA DEL REY","CA",90292,33.98829963,-118.441296417,387,"4223 GLENCOE AVE SUITE C115, MARINA DEL REY, CA, 90292","Match","Exact","4223 GLENCOE AVE, MARINA DEL REY, CA, 90292",648858788,"R"
208388,"4223 HUMBOLDT AVE N","MINNEAPOLIS","MN",55412,45.0319526280001,-93.29831171,388,"4223 HUMBOLDT AVE N, MINNEAPOLIS, MN, 55412","Match","Exact","4223 HUMBOLDT AVE N, MINNEAPOLIS, MN, 55412",43621852,"L"
208389,"4223 KRIS LINE DRIVE","WATERLOO","IA",50701,42.4536644,-92.398689637,389,"4223 KRIS LINE DRIVE, WATERLOO, IA, 50701","Match","Exact","4223 KRIS LINE DR, WATERLOO, IA, 50701",77251064,"L"
208390,"4223 LEIMERT BLVD  APT  1","LOS ANGELES","CA",90008,34.007528762,-118.327159352,390,"4223 LEIMERT BLVD  APT  1, LOS ANGELES, CA, 90008","Match","Non_Exact","4223 S LEIMERT BLVD, LOS ANGELES, CA, 90008",241169893,"R"
208391,"4223 LEIMERT BLVD UNIT 3","LOS ANGELES","CA",90008,34.007528762,-118.327159352,391,"4223 LEIMERT BLVD UNIT 3, LOS ANGELES, CA, 90008","Match","Non_Exact","4223 S LEIMERT BLVD, LOS ANGELES, CA, 90008",241169893,"R"
208392,"4223 LIRON AVE APT202","FORT MYERS","FL",33916,NA,NA,392,"4223 LIRON AVE APT202, FORT MYERS, FL, 33916","No_Match",NA,NA,NA,NA
208393,"4223 MAIDSTONE DRIVE","LAKE CHARLES","LA",70605,30.1797650570001,-93.2604757249999,393,"4223 MAIDSTONE DRIVE, LAKE CHARLES, LA, 70605","Match","Non_Exact","4223 MAID STONE DR, LAKE CHARLES, LA, 70605",88451244,"R"
208394,"4223 NORTHWESTERN PARKWAY","LOUISVILLE","KY",40212,38.2733254080001,-85.815871666,394,"4223 NORTHWESTERN PARKWAY, LOUISVILLE, KY, 40212","Match","Exact","4223 NORTHWESTERN PKWY, LOUISVILLE, KY, 40212",96835858,"R"
208395,"4223 PINECROFT COURT","W BLOOMFIELD","MI",48322,42.5479266500001,-83.366393552,395,"4223 PINECROFT COURT, W BLOOMFIELD, MI, 48322","Match","Exact","4223 PINECROFT CT, W BLOOMFIELD, MI, 48322",69722239,"L"
208396,"4223 S NORTON AVENUE","LOS ANGELES","CA",90008,34.007749776,-118.332421574,396,"4223 S NORTON AVENUE, LOS ANGELES, CA, 90008","Match","Exact","4223 S NORTON AVE, LOS ANGELES, CA, 90008",141602673,"R"
208397,"4223 SEBRING CT SW","CONCORD","NC",28025,35.350695042,-80.584666193,397,"4223 SEBRING CT SW, CONCORD, NC, 28025","Match","Exact","4223 SEBRING CT SW, CONCORD, NC, 28025",24920683,"L"
208398,"4223 SOCASTEE BOULEVARD","MYRTLE BEACH","SC",29588,33.6862966950001,-78.979408829,398,"4223 SOCASTEE BOULEVARD, MYRTLE BEACH, SC, 29588","Match","Exact","4223 SOCASTEE BLVD, MYRTLE BEACH, SC, 29588",29058486,"R"
208399,"4223 SOUTH CALUMET AVENUE","CHICAGO","IL",60653,41.8180352530001,-87.618379948,399,"4223 SOUTH CALUMET AVENUE, CHICAGO, IL, 60653","Match","Exact","4223 S CALUMET AVE, CHICAGO, IL, 60653",605539077,"L"
208400,"4223 THREE OAKS DRIVE","FORT WAYNE","IN",46809,41.037199754,-85.1953746899999,400,"4223 THREE OAKS DRIVE, FORT WAYNE, IN, 46809","Match","Exact","4223 THREE OAKS DR, FORT WAYNE, IN, 46809",606527684,"L"
208401,"4223 TIDEWATER","HOUSTON","TX",77045,29.633633167,-95.441357376,401,"4223 TIDEWATER, HOUSTON, TX, 77045","Match","Non_Exact","4223 TIDEWATER DR, HOUSTON, TX, 77045",96040919,"L"
208402,"4223 US HWY 220 N","SEAGROVE","NC",27341,35.503884768,-79.781032475,402,"4223 US HWY 220 N, SEAGROVE, NC, 27341","Match","Non_Exact","4223 US HWY 220, SEAGROVE, NC, 27341",20044267,"R"
208403,"4223 W LAKE ST SUITE 342","CHICAGO","IL",60624,41.885776107,-87.7313946529999,403,"4223 W LAKE ST SUITE 342, CHICAGO, IL, 60624","Match","Non_Exact","4223 W LAKE ST, CHICAGO, IL, 60624",111758549,"L"
208404,"4224 184TH STREET SW","LYNNWOOD","WA",98037,47.8320314210001,-122.290784732,404,"4224 184TH STREET SW, LYNNWOOD, WA, 98037","Match","Exact","4224 184TH ST SW, LYNNWOOD, WA, 98037",187754003,"L"
208405,"4224 185TH PLACE","COUNTRY CLUB HILLS","IL",60478,41.553927038,-87.719526554,405,"4224 185TH PLACE, COUNTRY CLUB HILLS, IL, 60478","Match","Exact","4224 185TH PL, COUNTRY CLUB HILLS, IL, 60478",618459529,"R"
208406,"4224 AMWELL DRIVE","HUNTERSVILLE","NC",28078,35.4066146590001,-80.901646609,406,"4224 AMWELL DRIVE, HUNTERSVILLE, NC, 28078","Match","Exact","4224 AMWELL DR, HUNTERSVILLE, NC, 28078",70601897,"L"
208407,"4224 BECKLEYSVILLE ROAD","HAMPSTEAD","MD",21074,39.6455659270001,-76.795802317,407,"4224 BECKLEYSVILLE ROAD, HAMPSTEAD, MD, 21074","Match","Exact","4224 BECKLEYSVILLE RD, HAMPSTEAD, MD, 21074",647298269,"R"
208408,"4224 BIRMINGHAM WAY","RALEIGH","NC",27604,35.817888972,-78.567373986,408,"4224 BIRMINGHAM WAY, RALEIGH, NC, 27604","Match","Exact","4224 BIRMINGHAM WAY, RALEIGH, NC, 27604",72605258,"R"
208409,"4224 BLUFFS LN","DURHAM","NC",27712,36.0806691870001,-78.895608996,409,"4224 BLUFFS LN, DURHAM, NC, 27712","Match","Exact","4224 BLUFFS LN, DURHAM, NC, 27712",71755241,"R"
208410,"4224 CHURCHILL ROAD","LOUISVILLE","KY",40207,38.24768708,-85.6424934309999,410,"4224 CHURCHILL ROAD, LOUISVILLE, KY, 40207","Match","Exact","4224 CHURCHILL RD, LOUISVILLE, KY, 40207",641320074,"R"
208411,"4224 DECATUR AVE N","NEW HOPE","MN",55428,45.0347513020001,-93.3924052469999,411,"4224 DECATUR AVE N, NEW HOPE, MN, 55428","Match","Exact","4224 DECATUR AVE N, NEW HOPE, MN, 55428",43823876,"R"
208412,"4224 GARLAND AVE","NOTTINGHAM","MD",21236,39.389952244,-76.4847247279999,412,"4224 GARLAND AVE, NOTTINGHAM, MD, 21236","Match","Exact","4224 GARLAND AVE, NOTTINGHAM, MD, 21236",652703246,"L"
208413,"4224 GENOA WAY","YORBA LINDA","CA",92886,33.899877045,-117.778730726,413,"4224 GENOA WAY, YORBA LINDA, CA, 92886","Match","Exact","4224 GENOA WAY, YORBA LINDA, CA, 92886",646726100,"R"
208414,"4224 GREEN ACRES DRIVE","HELENA","MT",59602,46.6338406200001,-112.065724637,414,"4224 GREEN ACRES DRIVE, HELENA, MT, 59602","Match","Exact","4224 GREEN ACRES DR, HELENA, MT, 59602",649880449,"L"
208415,"4224 LINDA LN","BALCH SPRINGS","TX",75180,32.712569542,-96.609169143,415,"4224 LINDA LN, BALCH SPRINGS, TX, 75180","Match","Exact","4224 LINDA LN, BALCH SPRINGS, TX, 75180",102964235,"L"
208416,"4224 MCADOO RIDGE RD","WELLSBURG","WV",26070,40.2458335210001,-80.548107043,416,"4224 MCADOO RIDGE RD, WELLSBURG, WV, 26070","Match","Exact","4224 MCADOO RIDGE RD, WELLSBURG, WV, 26070",641531689,"L"
208417,"4224 N HARBOR ISLE","FAYETTEVILLE","AR",72703,36.1275473900001,-94.123128886,417,"4224 N HARBOR ISLE, FAYETTEVILLE, AR, 72703","Match","Exact","4224 N HARBOR ISLE, FAYETTEVILLE, AR, 72703",617846880,"R"
208418,"4224 NE PORT DR","LEES SUMMIT","MO",64064,38.9883178220001,-94.352054185,418,"4224 NE PORT DR, LEES SUMMIT, MO, 64064","Match","Exact","4224 NE PORT DR, LEES SUMMIT, MO, 64064",91513852,"R"
208419,"4224 NE SKYLINE DRIVE","JENSEN BEACH","FL",34957,27.2564929590001,-80.232830699,419,"4224 NE SKYLINE DRIVE, JENSEN BEACH, FL, 34957","Match","Exact","4224 NE SKYLINE DR, JENSEN BEACH, FL, 34957",120399009,"L"
208420,"4224 NORTHEAST EXPRESSWAY","ATLANTA","GA",30340,NA,NA,420,"4224 NORTHEAST EXPRESSWAY, ATLANTA, GA, 30340","No_Match",NA,NA,NA,NA
208421,"4224 PHILLIPS RD SE","PORT ORCHARD","WA",98366,47.5102177360001,-122.605313232,421,"4224 PHILLIPS RD SE, PORT ORCHARD, WA, 98366","Match","Exact","4224 PHILLIPS RD SE, PORT ORCHARD, WA, 98366",187665749,"L"
208422,"4224 RIADA LANE","WILSON","WY",83014,43.509329655,-110.846368016,422,"4224 RIADA LANE, WILSON, WY, 83014","Match","Exact","4224 RIADA LN, WILSON, WY, 83014",130418739,"L"
208423,"4224 S KING DRIVE UNIT 1S","CHICAGO","IL",60653,NA,NA,423,"4224 S KING DRIVE UNIT 1S, CHICAGO, IL, 60653","No_Match",NA,NA,NA,NA
208424,"4224 S ROSEMARY","SIERRA VISTA","AZ",85650,31.4924902340001,-110.237347662,424,"4224 S ROSEMARY, SIERRA VISTA, AZ, 85650","Match","Non_Exact","4224 S ROSEMARY CT, SIERRA VISTA, AZ, 85650",121055317,"R"
208425,"4224 STONEBRIDGE DR SW APT 12","WYOMING","MI",49519,42.8880775870001,-85.730521857,425,"4224 STONEBRIDGE DR SW APT 12, WYOMING, MI, 49519","Match","Exact","4224 STONEBRIDGE DR SW, WYOMING, MI, 49519",12481097,"L"
208426,"4224 TAMARACK COURT","BOULDER","CO",80304,40.0515099850001,-105.264523507,426,"4224 TAMARACK COURT, BOULDER, CO, 80304","Match","Exact","4224 TAMARACK CT, BOULDER, CO, 80304",220752062,"L"
208427,"4224 TERRACE AVENUE","PENNSAUKEN","NJ",8109,39.944339132,-75.066932633,427,"4224 TERRACE AVENUE, PENNSAUKEN, NJ, 8109","Match","Exact","4224 TERRACE AVE, PENNSAUKEN, NJ, 08109",134343472,"R"
208428,"4224 TYLER AVE","EL MONTE","CA",91731,34.0833986150001,-118.031313808,428,"4224 TYLER AVE, EL MONTE, CA, 91731","Match","Exact","4224 TYLER AVE, EL MONTE, CA, 91731",141648998,"R"
208429,"4224 W 13TH STREET","CHICAGO","IL",60623,41.8642714870001,-87.730841739,429,"4224 W 13TH STREET, CHICAGO, IL, 60623","Match","Exact","4224 W 13TH ST, CHICAGO, IL, 60623",605040790,"R"
208430,"4224 W 8TH ST N","WICHITA","KS",67212,37.700687615,-97.392317631,430,"4224 W 8TH ST N, WICHITA, KS, 67212","Match","Exact","4224 W 8TH ST N, WICHITA, KS, 67212",115630807,"R"
208431,"4224 W LAKE STREET SUITE 342","CHICAGO","IL",60624,41.8857894970001,-87.7314365889999,431,"4224 W LAKE STREET SUITE 342, CHICAGO, IL, 60624","Match","Non_Exact","4224 W LAKE ST, CHICAGO, IL, 60624",111758549,"R"
208432,"4224 WEST 141ST STREET","SAVAGE","MN",55378,NA,NA,432,"4224 WEST 141ST STREET, SAVAGE, MN, 55378","No_Match",NA,NA,NA,NA
208433,"42241 BROKENHORN CIR","PARKER","CO",80138,39.479934364,-104.655153831,433,"42241 BROKENHORN CIR, PARKER, CO, 80138","Match","Exact","42241 BROKENHORN CIR, PARKER, CO, 80138",130880275,"R"
208434,"42245 GLASCOCK FIELD DRIVE APT 208","STERLING","VA",20166,NA,NA,434,"42245 GLASCOCK FIELD DRIVE APT 208, STERLING, VA, 20166","No_Match",NA,NA,NA,NA
208435,"4225 43RD AVENUE","VERO BEACH","FL",32967,27.671435681,-80.4339645919999,435,"4225 43RD AVENUE, VERO BEACH, FL, 32967","Match","Non_Exact","4225 43RD ST, VERO BEACH, FL, 32967",120326559,"L"
208436,"4225 67TH ST","URBANDALE","IA",50322,41.6371633470001,-93.708608762,436,"4225 67TH ST, URBANDALE, IA, 50322","Match","Exact","4225 67TH ST, URBANDALE, IA, 50322",65776042,"R"
208437,"4225 AMHERST LANE","GRAND PRAIRIE","TX",75052,32.6663166450001,-97.043794052,437,"4225 AMHERST LANE, GRAND PRAIRIE, TX, 75052","Match","Exact","4225 AMHERST LN, GRAND PRAIRIE, TX, 75052",101914284,"R"
208438,"4225 AVENUE H  TRL9","ROSENBERG","TX",77471,29.563758405,-95.78407369,438,"4225 AVENUE H  TRL9, ROSENBERG, TX, 77471","Match","Exact","4225 AVE H, ROSENBERG, TX, 77471",78339912,"L"
208439,"4225 CAMPUS DR UNIT A100 SUITE 4332","IRVINE","CA",92616,33.647897298,-117.835033163,439,"4225 CAMPUS DR UNIT A100 SUITE 4332, IRVINE, CA, 92616","Match","Exact","4225 CAMPUS DR, IRVINE, CA, 92616",609042540,"L"
208440,"4225 COLDWATER SPRINGS DRIVE","RALEIGH","NC",27616,35.8577707970001,-78.485381133,440,"4225 COLDWATER SPRINGS DRIVE, RALEIGH, NC, 27616","Match","Exact","4225 COLDWATER SPRINGS DR, RALEIGH, NC, 27616",612813879,"L"
208441,"4225 CORTEZ WAY SOUTH","SAINT PETERSBURG","FM",33712,NA,NA,441,"4225 CORTEZ WAY SOUTH, SAINT PETERSBURG, FM, 33712","No_Match",NA,NA,NA,NA
208442,"4225 CRENSHAW BOULEVARD","LOS ANGELED","CA",90008,34.0075155070001,-118.334992048,442,"4225 CRENSHAW BOULEVARD, LOS ANGELED, CA, 90008","Match","Non_Exact","4225 CRENSHAW BLVD, LOS ANGELES, CA, 90008",647536651,"R"
208443,"4225 DANBURY DRIVE","AMARILLO","TX",79109,35.165840555,-101.906485812,443,"4225 DANBURY DRIVE, AMARILLO, TX, 79109","Match","Non_Exact","4225 DANBURY ST, AMARILLO, TX, 79109",182652899,"L"
208444,"4225 DEL MAR AVE APT 402","LOS ANGELES","CA",90029,34.091690525,-118.283798144,444,"4225 DEL MAR AVE APT 402, LOS ANGELES, CA, 90029","Match","Non_Exact","4225 DEL MAR AVE, LOS ANGELES, CA, 90029",141604526,"R"
208445,"4225 EAST MEXICO AVE SUITE 904","DENVER","CO",80222,39.685703173,-104.937936831,445,"4225 EAST MEXICO AVE SUITE 904, DENVER, CO, 80222","Match","Exact","4225 E MEXICO AVE, DENVER, CO, 80222",612217556,"L"
208446,"4225 EASTLAND AVE","FORT WORTH","TX",76119,32.7066999630001,-97.2621583929999,446,"4225 EASTLAND AVE, FORT WORTH, TX, 76119","Match","Non_Exact","4225 EASTLAND ST, FORT WORTH, TX, 76119",101898637,"L"
208447,"4225 EXECUTIVE SQUARE  SUITE 600","LA JOLLA","CA",92037,32.8740030230001,-117.215438409,447,"4225 EXECUTIVE SQUARE  SUITE 600, LA JOLLA, CA, 92037","Match","Exact","4225 EXECUTIVE SQ, LA JOLLA, CA, 92037",195300508,"R"
208448,"4225 EXECUTIVE SQUARE STE 600","LA JOLLA","CA",92037,32.8740030230001,-117.215438409,448,"4225 EXECUTIVE SQUARE STE 600, LA JOLLA, CA, 92037","Match","Exact","4225 EXECUTIVE SQ, LA JOLLA, CA, 92037",195300508,"R"
208449,"4225 EXECUTIVE SQUARE SUITE 600","SAN DIEGO","CA",92037,32.8740030230001,-117.215438409,449,"4225 EXECUTIVE SQUARE SUITE 600, SAN DIEGO, CA, 92037","Match","Non_Exact","4225 EXECUTIVE SQ, LA JOLLA, CA, 92037",195300508,"R"
208450,"4225 FAROUSSE WAY","PASO ROBLES","CA",93446,NA,NA,450,"4225 FAROUSSE WAY, PASO ROBLES, CA, 93446","No_Match",NA,NA,NA,NA
208451,"4225 FIESTA WAY APT 3","OCEANSIDE","CA",92057,33.228499775,-117.313580362,451,"4225 FIESTA WAY APT 3, OCEANSIDE, CA, 92057","Match","Exact","4225 FIESTA WAY, OCEANSIDE, CA, 92057",195692564,"R"
208452,"4225 FLEUR DR","DES MOINES","IA",50321,41.5462742280001,-93.644926915,452,"4225 FLEUR DR, DES MOINES, IA, 50321","Match","Exact","4225 FLEUR DR, DES MOINES, IA, 50321",65785640,"L"
208453,"4225 H 198 OCEANSIDE BLVD","OCEANSIDE","CA",92056,33.2075573390001,-117.283611417,453,"4225 H 198 OCEANSIDE BLVD, OCEANSIDE, CA, 92056","Match","Exact","4225 OCEANSIDE BLVD, OCEANSIDE, CA, 92056",195455594,"R"
208454,"4225 HOWARD STREET","CHINO","CA",91763,34.0522233950001,-117.713063142,454,"4225 HOWARD STREET, CHINO, CA, 91763","Match","Non_Exact","4225 HOWARD ST, MONTCLAIR, CA, 91763",648259296,"R"
208455,"4225 I-20 FRONTAGE RD APT E8","VICKSBURG","MS",39183,32.345605305,-90.8429048519999,455,"4225 I-20 FRONTAGE RD APT E8, VICKSBURG, MS, 39183","Match","Exact","4225 I-20 FRONTAGE RD, VICKSBURG, MS, 39183",611046555,"L"
208456,"4225 KESSLER BOULEVARD NORTH DRIVE","INDIANAPOLIS","IN",46228,NA,NA,456,"4225 KESSLER BOULEVARD NORTH DRIVE, INDIANAPOLIS, IN, 46228","No_Match",NA,NA,NA,NA
208457,"4225 KINGSWOOD RD","CHARLOTTE","NC",28226,35.1263921440001,-80.8200855539999,457,"4225 KINGSWOOD RD, CHARLOTTE, NC, 28226","Match","Exact","4225 KINGSWOOD RD, CHARLOTTE, NC, 28226",70489603,"L"
208458,"4225 KINGSWOOD ROAD","CHARLOTTE","NC",28226,35.1263921440001,-80.8200855539999,458,"4225 KINGSWOOD ROAD, CHARLOTTE, NC, 28226","Match","Exact","4225 KINGSWOOD RD, CHARLOTTE, NC, 28226",70489603,"L"
208459,"4225 LYNCH ROAD","HOUSE SPRINGS","MO",63051,38.403574576,-90.666030232,459,"4225 LYNCH ROAD, HOUSE SPRINGS, MO, 63051","Match","Exact","4225 LYNCH RD, HOUSE SPRINGS, MO, 63051",649678804,"L"
208460,"4225 MAIN ST","JAVA VILLAGE","NY",14083,NA,NA,460,"4225 MAIN ST, JAVA VILLAGE, NY, 14083","No_Match",NA,NA,NA,NA
208461,"4225 MARTEL DR","CUMMING","GA",30040,34.2302842080001,-84.23349089,461,"4225 MARTEL DR, CUMMING, GA, 30040","Match","Exact","4225 MARTEL DR, CUMMING, GA, 30040",646163472,"R"
208462,"4225 MCDOWELL ROAD","PHOENIX","AZ",85008,33.465649473,-111.990818876,462,"4225 MCDOWELL ROAD, PHOENIX, AZ, 85008","Match","Non_Exact","4225 E MCDOWELL RD, PHOENIX, AZ, 85008",243921028,"R"
208463,"4225 MILLER RD B4 STE 244","FLINT","MI",48507,42.980211556,-83.7608634109999,463,"4225 MILLER RD B4 STE 244, FLINT, MI, 48507","Match","Exact","4225 MILLER RD, FLINT, MI, 48507",617949349,"L"
208464,"4225 MILLER RD STE 314","FLINT","MI",48507,42.980211556,-83.7608634109999,464,"4225 MILLER RD STE 314, FLINT, MI, 48507","Match","Exact","4225 MILLER RD, FLINT, MI, 48507",617949349,"L"
208465,"4225 MILLER RD SUITE 124","FLINT","MI",48507,42.980211556,-83.7608634109999,465,"4225 MILLER RD SUITE 124, FLINT, MI, 48507","Match","Exact","4225 MILLER RD, FLINT, MI, 48507",617949349,"L"
208466,"4225 MONROE ST","TOLEDO","OH",43606,41.6821271680001,-83.6071084879999,466,"4225 MONROE ST, TOLEDO, OH, 43606","Match","Exact","4225 MONROE ST, TOLEDO, OH, 43606",33933298,"L"
208467,"4225 NW 25 PLACE","LAUDERHILL","FL",33313,26.157904264,-80.2063610549999,467,"4225 NW 25 PLACE, LAUDERHILL, FL, 33313","Match","Exact","4225 NW 25TH PL, LAUDERHILL, FL, 33313",114707998,"R"
208468,"4225 OCEANSIDE BLVD H118","OCEANSIDE","CA",92056,33.2075406970001,-117.283656963,468,"4225 OCEANSIDE BLVD H118, OCEANSIDE, CA, 92056","Match","Exact","4225 OCEANSIDE BLVD, OCEANSIDE, CA, 92056",195455594,"R"
208469,"4225 OCEANSIDE BLVD SUITE H-241","OCEANSIDE","CA",92058,33.2075406970001,-117.283656963,469,"4225 OCEANSIDE BLVD SUITE H-241, OCEANSIDE, CA, 92058","Match","Non_Exact","4225 OCEANSIDE BLVD, OCEANSIDE, CA, 92056",195455594,"R"
208470,"4225 PEPPERWOOD AVENUE","LONG BEACH","CA",90808,33.834409029,-118.141368775,470,"4225 PEPPERWOOD AVENUE, LONG BEACH, CA, 90808","Match","Exact","4225 PEPPERWOOD AVE, LONG BEACH, CA, 90808",141700453,"L"
208471,"4225 PIEDMONT MESA ROAD","CLAREMONT","CA",91711,34.1183173410001,-117.743288791,471,"4225 PIEDMONT MESA ROAD, CLAREMONT, CA, 91711","Match","Exact","4225 PIEDMONT MESA RD, CLAREMONT, CA, 91711",141731714,"L"
208472,"4225 ROY AVE","MACON","GA",31206,32.787485207,-83.645852027,472,"4225 ROY AVE, MACON, GA, 31206","Match","Exact","4225 ROY AVE, MACON, GA, 31206",81064208,"R"
208473,"4225 S LAKE DRIVE","SAINT FRANCIS","WI",53235,42.9679119130001,-87.851676045,473,"4225 S LAKE DRIVE, SAINT FRANCIS, WI, 53235","Match","Exact","4225 S LAKE DR, SAINT FRANCIS, WI, 53235",77756230,"R"
208474,"4225 SAN PABLO DAM RD 4","EL SOBRANTE","CA",94803,37.9663529150001,-122.306581866,474,"4225 SAN PABLO DAM RD 4, EL SOBRANTE, CA, 94803","Match","Exact","4225 SAN PABLO DAM RD, EL SOBRANTE, CA, 94803",192042050,"L"
208475,"4225 SE ADAMS ROAD","BARTLESVILLE","OK",74006,36.7449658780001,-95.933111563,475,"4225 SE ADAMS ROAD, BARTLESVILLE, OK, 74006","Match","Exact","4225 SE ADAMS RD, BARTLESVILLE, OK, 74006",606566737,"L"
208476,"4225 SHARPTON PARK DRIVE","AUBURN","GA",30011,NA,NA,476,"4225 SHARPTON PARK DRIVE, AUBURN, GA, 30011","No_Match",NA,NA,NA,NA
208477,"4225 SHEFFIELD ST","PHILADELPHIA","PA",19136,40.037524884,-75.032223137,477,"4225 SHEFFIELD ST, PHILADELPHIA, PA, 19136","Match","Exact","4225 SHEFFIELD ST, PHILADELPHIA, PA, 19136",131435714,"L"
208478,"4225 SHOREWOOD TRAIL","MEDINA","MN",55340,45.055157799,-93.547172946,478,"4225 SHOREWOOD TRAIL, MEDINA, MN, 55340","Match","Exact","4225 SHOREWOOD TRL, MEDINA, MN, 55340",43673030,"R"
208479,"4225 SOLANO AVE 739","NAPA","CA",94558,38.3366650950001,-122.322800603,479,"4225 SOLANO AVE 739, NAPA, CA, 94558","Match","Exact","4225 SOLANO AVE, NAPA, CA, 94558",612572431,"L"
208480,"4225 SOLANO AVE NO 519","NAPA","CA",94558,38.3366650950001,-122.322800603,480,"4225 SOLANO AVE NO 519, NAPA, CA, 94558","Match","Non_Exact","4225 SOLANO AVE, NAPA, CA, 94558",612572431,"L"
208481,"4225 SOLANO AVENUE - 727","NAPA","CA",94558,38.3366650950001,-122.322800603,481,"4225 SOLANO AVENUE - 727, NAPA, CA, 94558","Match","Exact","4225 SOLANO AVE, NAPA, CA, 94558",612572431,"L"
208482,"4225 SPRING GATE DR","POWDER SPRINGS","GA",30127,33.851038395,-84.6903116239999,482,"4225 SPRING GATE DR, POWDER SPRINGS, GA, 30127","Match","Exact","4225 SPRING GATE DR, POWDER SPGS, GA, 30127",17243207,"L"
208483,"4225 STIRRUP LANE","EDMOND","OK",73034,35.6979189520001,-97.451209964,483,"4225 STIRRUP LANE, EDMOND, OK, 73034","Match","Exact","4225 STIRRUP LN, EDMOND, OK, 73034",617260577,"L"
208484,"4225 SUNRISE ROAD","INDIANAPOLIS","IN",46228,39.8323698310001,-86.206015091,484,"4225 SUNRISE ROAD, INDIANAPOLIS, IN, 46228","Match","Exact","4225 SUNRISE RD, INDIANAPOLIS, IN, 46228",107985646,"R"
208485,"4225 SW 109TH ST","SEATTLE","WA",98146,47.505347236,-122.3846571,485,"4225 SW 109TH ST, SEATTLE, WA, 98146","Match","Exact","4225 SW 109TH ST, SEATTLE, WA, 98146",186662363,"L"
208486,"4225 THOMAS COURT","SIMI VALLEY","CA",93063,34.2986414440001,-118.712467633,486,"4225 THOMAS COURT, SIMI VALLEY, CA, 93063","Match","Exact","4225 THOMAS CT, SIMI VALLEY, CA, 93063",109979217,"L"
208487,"4225 THOMAS CT","SIMI VALLEY","CA",93063,34.2986414440001,-118.712467633,487,"4225 THOMAS CT, SIMI VALLEY, CA, 93063","Match","Exact","4225 THOMAS CT, SIMI VALLEY, CA, 93063",109979217,"L"
208488,"4225 TRIMARAN DR","LAKE HAVASU CITY","AZ",86406,34.4611925350001,-114.246970712,488,"4225 TRIMARAN DR, LAKE HAVASU CITY, AZ, 86406","Match","Exact","4225 TRIMARAN DR, LAKE HAVASU CITY, AZ, 86406",190284126,"L"
208489,"4225 W RIVERS EDGE CIRCLE   NO 23","BROWN DEER","WI",53209,NA,NA,489,"4225 W RIVERS EDGE CIRCLE   NO 23, BROWN DEER, WI, 53209","No_Match",NA,NA,NA,NA
208490,"4225 WEBSTER DR","YORK","PA",17402,39.980195355,-76.625083756,490,"4225 WEBSTER DR, YORK, PA, 17402","Match","Exact","4225 WEBSTER DR, YORK, PA, 17402",88751003,"L"
208491,"42250 WHITNEY ROAD","LAGRANGE","OH",44050,41.2222838690001,-82.144386068,491,"42250 WHITNEY ROAD, LAGRANGE, OH, 44050","Match","Exact","42250 WHITNEY RD, LAGRANGE, OH, 44050",55433538,"L"
208492,"42250 YEAREGO DRIVE","STERLING HEIGHTS","MI",48314,42.6036539990001,-83.0349416829999,492,"42250 YEAREGO DRIVE, STERLING HEIGHTS, MI, 48314","Match","Exact","42250 YEAREGO DR, STERLING HEIGHTS, MI, 48314",618495344,"R"
208493,"42255 W CHAMBERS DR","MARICOPA","AZ",85138,33.080571551,-112.021551868,493,"42255 W CHAMBERS DR, MARICOPA, AZ, 85138","Match","Exact","42255 CHAMBERS DR, MARICOPA, AZ, 85138",129253797,"L"
208494,"42257 6TH STREET WEST STE 307","LANCASTER","CA",93534,34.650731341,-118.141142389,494,"42257 6TH STREET WEST STE 307, LANCASTER, CA, 93534","Match","Exact","42257 6TH ST W, LANCASTER, CA, 93534",241252447,"R"
208495,"4225H OCEANSIDE BLVD NUM 343","OCEANSIDE","CA",92056,33.2075573390001,-117.283611417,495,"4225H OCEANSIDE BLVD NUM 343, OCEANSIDE, CA, 92056","Match","Exact","4225 OCEANSIDE BLVD, OCEANSIDE, CA, 92056",195455594,"R"
208496,"4226 ARBOR GREEN WAY","NEW BERN","NC",28562,35.096196138,-77.116169064,496,"4226 ARBOR GREEN WAY, NEW BERN, NC, 28562","Match","Exact","4226 ARBOR GREEN WAY, NEW BERN, NC, 28562",651672083,"R"
208497,"4226 BAYGLEN CT","HOUSTON","TX",77068,30.0030738880001,-95.503642724,497,"4226 BAYGLEN CT, HOUSTON, TX, 77068","Match","Exact","4226 BAYGLEN CT, HOUSTON, TX, 77068",96009886,"L"
208498,"4226 BROOKSIDE OAKS","OWINGS MILLS","MD",21117,39.3870838570001,-76.793586494,498,"4226 BROOKSIDE OAKS, OWINGS MILLS, MD, 21117","Match","Exact","4226 BROOKSIDE OAKS, OWINGS MILLS, MD, 21117",633845684,"L"
208499,"4226 BURNS AVE APT 3","LOS ANGELES","CA",90029,NA,NA,499,"4226 BURNS AVE APT 3, LOS ANGELES, CA, 90029","No_Match",NA,NA,NA,NA
208500,"4226 E YUKON STREET","TAMPA","FL",33617,28.028920778,-82.4119966869999,500,"4226 E YUKON STREET, TAMPA, FL, 33617","Match","Exact","4226 E YUKON ST, TAMPA, FL, 33617",104645517,"L"
