"ID","Address","City","State","Zip","lat","long","id","input_address","match_indicator","match_type","matched_address","tiger_line_id","tiger_side"
351001,"PO BOX 501","MIDLAND PARK","NJ",7432,NA,NA,1,"PO BOX 501, MIDLAND PARK, NJ, 7432","No_Match",NA,NA,NA,NA
351002,"PO BOX 501","OAKDALE","CA",95361,NA,NA,2,"PO BOX 501, OAKDALE, CA, 95361","No_Match",NA,NA,NA,NA
351003,"PO BOX 501","PORTAGE","WI",53901,NA,NA,3,"PO BOX 501, PORTAGE, WI, 53901","No_Match",NA,NA,NA,NA
351004,"PO BOX 501","QUILCENE","WA",98376,NA,NA,4,"PO BOX 501, QUILCENE, WA, 98376","No_Match",NA,NA,NA,NA
351005,"PO BOX 501","RUTHERFORDTON","NC",28139,NA,NA,5,"PO BOX 501, RUTHERFORDTON, NC, 28139","No_Match",NA,NA,NA,NA
351006,"PO BOX 501","SARDINIA","OH",45171,NA,NA,6,"PO BOX 501, SARDINIA, OH, 45171","No_Match",NA,NA,NA,NA
351007,"PO BOX 501","SITKA","AK",99835,NA,NA,7,"PO BOX 501, SITKA, AK, 99835","No_Match",NA,NA,NA,NA
351008,"PO BOX 501","TORRANCE","CA",90508,NA,NA,8,"PO BOX 501, TORRANCE, CA, 90508","No_Match",NA,NA,NA,NA
351009,"PO BOX 501","WEEDSPORT","NY",13166,NA,NA,9,"PO BOX 501, WEEDSPORT, NY, 13166","No_Match",NA,NA,NA,NA
351010,"PO BOX 501","WESTMORLAND","CA",92281,NA,NA,10,"PO BOX 501, WESTMORLAND, CA, 92281","No_Match",NA,NA,NA,NA
351011,"PO BOX 501","WINGATE","NC",28174,NA,NA,11,"PO BOX 501, WINGATE, NC, 28174","No_Match",NA,NA,NA,NA
351012,"PO BOX 5010 NORTH POINTE DRIVE","ZANESVILLE","OH",43702,40.0129940740001,-82.0221923,12,"PO BOX 5010 NORTH POINTE DRIVE, ZANESVILLE, OH, 43702","Match","Non_Exact","5010 NORTHPOINTE DR, ZANESVILLE, OH, 43701",45609829,"L"
351013,"PO BOX 5010 PMB 135","RANCHO SANTA FE","CA",92067,NA,NA,13,"PO BOX 5010 PMB 135, RANCHO SANTA FE, CA, 92067","No_Match",NA,NA,NA,NA
351014,"PO BOX 50101","SAINT LOUIS","MO",63105,NA,NA,14,"PO BOX 50101, SAINT LOUIS, MO, 63105","No_Match",NA,NA,NA,NA
351015,"PO BOX 50102","PORTSMOUTH","VA",23703,NA,NA,15,"PO BOX 50102, PORTSMOUTH, VA, 23703","No_Match",NA,NA,NA,NA
351016,"PO BOX 5011","EDMOND","OK",73083,NA,NA,16,"PO BOX 5011, EDMOND, OK, 73083","No_Match",NA,NA,NA,NA
351017,"PO BOX 5011","LEUPP","AZ",86035,NA,NA,17,"PO BOX 5011, LEUPP, AZ, 86035","No_Match",NA,NA,NA,NA
351018,"PO BOX 5012","BERKLEY","MI",48072,NA,NA,18,"PO BOX 5012, BERKLEY, MI, 48072","No_Match",NA,NA,NA,NA
351019,"PO BOX 5012","TOMS RIVER","NJ",8754,NA,NA,19,"PO BOX 5012, TOMS RIVER, NJ, 8754","No_Match",NA,NA,NA,NA
351020,"PO BOX 501321","SAIPAN","MP",96950,NA,NA,20,"PO BOX 501321, SAIPAN, MP, 96950","No_Match",NA,NA,NA,NA
351021,"PO BOX 501383","ATLANTA","GA",30328,NA,NA,21,"PO BOX 501383, ATLANTA, GA, 30328","No_Match",NA,NA,NA,NA
351022,"PO BOX 501383","ATLANTA","GA",31150,NA,NA,22,"PO BOX 501383, ATLANTA, GA, 31150","No_Match",NA,NA,NA,NA
351023,"PO BOX 5014","BENTON CITY","WA",99320,NA,NA,23,"PO BOX 5014, BENTON CITY, WA, 99320","No_Match",NA,NA,NA,NA
351024,"PO BOX 501495","SAN DIEGO","CA",92150,NA,NA,24,"PO BOX 501495, SAN DIEGO, CA, 92150","No_Match",NA,NA,NA,NA
351025,"PO BOX 5015","MONTAIK","NY",11954,NA,NA,25,"PO BOX 5015, MONTAIK, NY, 11954","No_Match",NA,NA,NA,NA
351026,"PO BOX 501611","ATLANTA","GA",31150,NA,NA,26,"PO BOX 501611, ATLANTA, GA, 31150","No_Match",NA,NA,NA,NA
351027,"PO BOX 50162","FORT WORTH","TX",76105,NA,NA,27,"PO BOX 50162, FORT WORTH, TX, 76105","No_Match",NA,NA,NA,NA
351028,"PO BOX 50163","FORT WORTH","TX",76105,NA,NA,28,"PO BOX 50163, FORT WORTH, TX, 76105","No_Match",NA,NA,NA,NA
351029,"PO BOX 501643","SAN DIEGO","CA",92150,NA,NA,29,"PO BOX 501643, SAN DIEGO, CA, 92150","No_Match",NA,NA,NA,NA
351030,"PO BOX 5017","CAROLINA","PR",985,NA,NA,30,"PO BOX 5017, CAROLINA, PR, 985","No_Match",NA,NA,NA,NA
351031,"PO BOX 50175","MINNEAPOLIS","MN",55405,NA,NA,31,"PO BOX 50175, MINNEAPOLIS, MN, 55405","No_Match",NA,NA,NA,NA
351032,"PO BOX 50176","MYRTLE BEACH","SC",29572,NA,NA,32,"PO BOX 50176, MYRTLE BEACH, SC, 29572","No_Match",NA,NA,NA,NA
351033,"PO BOX 50176","MYRTLE BEACH","SC",29579,NA,NA,33,"PO BOX 50176, MYRTLE BEACH, SC, 29579","No_Match",NA,NA,NA,NA
351034,"PO BOX 50184","BELLEVUE","WA",98015,NA,NA,34,"PO BOX 50184, BELLEVUE, WA, 98015","No_Match",NA,NA,NA,NA
351035,"PO BOX 50187","SUMMERVILLE","SC",29485,NA,NA,35,"PO BOX 50187, SUMMERVILLE, SC, 29485","No_Match",NA,NA,NA,NA
351036,"PO BOX 501902","ATLANTA","GA",31150,NA,NA,36,"PO BOX 501902, ATLANTA, GA, 31150","No_Match",NA,NA,NA,NA
351037,"PO BOX 501955","SAN DIEGO","CA",92150,NA,NA,37,"PO BOX 501955, SAN DIEGO, CA, 92150","No_Match",NA,NA,NA,NA
351038,"PO BOX 501958","SAIPAN","MP",96950,NA,NA,38,"PO BOX 501958, SAIPAN, MP, 96950","No_Match",NA,NA,NA,NA
351039,"PO BOX 502","ASHDOWN","AR",71822,NA,NA,39,"PO BOX 502, ASHDOWN, AR, 71822","No_Match",NA,NA,NA,NA
351040,"PO BOX 502","ATHENS","MI",49011,NA,NA,40,"PO BOX 502, ATHENS, MI, 49011","No_Match",NA,NA,NA,NA
351041,"PO BOX 502","BARTONSVILLE","PA",18321,NA,NA,41,"PO BOX 502, BARTONSVILLE, PA, 18321","No_Match",NA,NA,NA,NA
351042,"PO BOX 502","BINGER","OK",73009,NA,NA,42,"PO BOX 502, BINGER, OK, 73009","No_Match",NA,NA,NA,NA
351043,"PO BOX 502","BRADENTON","FL",34206,NA,NA,43,"PO BOX 502, BRADENTON, FL, 34206","No_Match",NA,NA,NA,NA
351044,"PO BOX 502","CARPENTER","WY",82054,NA,NA,44,"PO BOX 502, CARPENTER, WY, 82054","No_Match",NA,NA,NA,NA
351045,"PO BOX 502","CENTERBURG","OH",43011,NA,NA,45,"PO BOX 502, CENTERBURG, OH, 43011","No_Match",NA,NA,NA,NA
351046,"PO BOX 502","DANIELSON","CT",6239,NA,NA,46,"PO BOX 502, DANIELSON, CT, 6239","No_Match",NA,NA,NA,NA
351047,"PO BOX 502","EDEN","NC",27289,NA,NA,47,"PO BOX 502, EDEN, NC, 27289","No_Match",NA,NA,NA,NA
351048,"PO BOX 502","GORDONSVILLE","VA",22942,NA,NA,48,"PO BOX 502, GORDONSVILLE, VA, 22942","No_Match",NA,NA,NA,NA
351049,"PO BOX 502","LEDYARD","CT",6339,NA,NA,49,"PO BOX 502, LEDYARD, CT, 6339","No_Match",NA,NA,NA,NA
351050,"PO BOX 502","MINOCQUA","WI",54548,NA,NA,50,"PO BOX 502, MINOCQUA, WI, 54548","No_Match",NA,NA,NA,NA
351051,"PO BOX 502","MONTEREY","CA",93942,NA,NA,51,"PO BOX 502, MONTEREY, CA, 93942","No_Match",NA,NA,NA,NA
351052,"PO BOX 502","MURFREESBORO","TN",37133,NA,NA,52,"PO BOX 502, MURFREESBORO, TN, 37133","No_Match",NA,NA,NA,NA
351053,"PO BOX 502","PARK CITY","MT",59063,NA,NA,53,"PO BOX 502, PARK CITY, MT, 59063","No_Match",NA,NA,NA,NA
351054,"PO BOX 502","PLYMOUTH MEETING","PA",19462,NA,NA,54,"PO BOX 502, PLYMOUTH MEETING, PA, 19462","No_Match",NA,NA,NA,NA
351055,"PO BOX 502","SARANAC","MI",48881,NA,NA,55,"PO BOX 502, SARANAC, MI, 48881","No_Match",NA,NA,NA,NA
351056,"PO BOX 502","STANHOPE","NJ",7874,NA,NA,56,"PO BOX 502, STANHOPE, NJ, 7874","No_Match",NA,NA,NA,NA
351057,"PO BOX 502","TECUMSEH","OK",74873,NA,NA,57,"PO BOX 502, TECUMSEH, OK, 74873","No_Match",NA,NA,NA,NA
351058,"PO BOX 502","VACAVILLE","CA",95696,NA,NA,58,"PO BOX 502, VACAVILLE, CA, 95696","No_Match",NA,NA,NA,NA
351059,"PO BOX 502","WEATHERFORD","TX",76086,NA,NA,59,"PO BOX 502, WEATHERFORD, TX, 76086","No_Match",NA,NA,NA,NA
351060,"PO BOX 502","WELLSVILLE","NY",14895,NA,NA,60,"PO BOX 502, WELLSVILLE, NY, 14895","No_Match",NA,NA,NA,NA
351061,"PO BOX 502","WEST GLACIER","MT",59936,NA,NA,61,"PO BOX 502, WEST GLACIER, MT, 59936","No_Match",NA,NA,NA,NA
351062,"PO BOX 502","WESTMINSTER","CO",80030,NA,NA,62,"PO BOX 502, WESTMINSTER, CO, 80030","No_Match",NA,NA,NA,NA
351063,"PO BOX 502","WINDSOR","WI",53598,NA,NA,63,"PO BOX 502, WINDSOR, WI, 53598","No_Match",NA,NA,NA,NA
351064,"PO BOX 502","WINNEMUCCA","NV",89446,NA,NA,64,"PO BOX 502, WINNEMUCCA, NV, 89446","No_Match",NA,NA,NA,NA
351065,"PO BOX 502","XENIA","OH",45385,NA,NA,65,"PO BOX 502, XENIA, OH, 45385","No_Match",NA,NA,NA,NA
351066,"PO BOX 5020","EAGLE","CO",81631,NA,NA,66,"PO BOX 5020, EAGLE, CO, 81631","No_Match",NA,NA,NA,NA
351067,"PO BOX 502020","SAIPAN","MP",96950,NA,NA,67,"PO BOX 502020, SAIPAN, MP, 96950","No_Match",NA,NA,NA,NA
351068,"PO BOX 5021","BRANDON","MS",39047,NA,NA,68,"PO BOX 5021, BRANDON, MS, 39047","No_Match",NA,NA,NA,NA
351069,"PO BOX 5021","CULVER CITY","CA",90231,NA,NA,69,"PO BOX 5021, CULVER CITY, CA, 90231","No_Match",NA,NA,NA,NA
351070,"PO BOX 50212","EUGENE","OR",97405,NA,NA,70,"PO BOX 50212, EUGENE, OR, 97405","No_Match",NA,NA,NA,NA
351071,"PO BOX 50212","MOBILE","AL",36605,NA,NA,71,"PO BOX 50212, MOBILE, AL, 36605","No_Match",NA,NA,NA,NA
351072,"PO BOX 50213","EUGENE","OR",97405,NA,NA,72,"PO BOX 50213, EUGENE, OR, 97405","No_Match",NA,NA,NA,NA
351073,"PO BOX 502174","SAN DIEGO","CA",92150,NA,NA,73,"PO BOX 502174, SAN DIEGO, CA, 92150","No_Match",NA,NA,NA,NA
351074,"PO BOX 5022","GREENE","RI",2827,NA,NA,74,"PO BOX 5022, GREENE, RI, 2827","No_Match",NA,NA,NA,NA
351075,"PO BOX 5023","BOZEMAN","MT",59771,NA,NA,75,"PO BOX 5023, BOZEMAN, MT, 59771","No_Match",NA,NA,NA,NA
351076,"PO BOX 502343","INDIANAPOLIS","IN",46250,NA,NA,76,"PO BOX 502343, INDIANAPOLIS, IN, 46250","No_Match",NA,NA,NA,NA
351077,"PO BOX 50241","INDIANAPOLIS","IN",46250,NA,NA,77,"PO BOX 50241, INDIANAPOLIS, IN, 46250","No_Match",NA,NA,NA,NA
351078,"PO BOX 5025","CHARLOTTESVILLE","VA",22905,NA,NA,78,"PO BOX 5025, CHARLOTTESVILLE, VA, 22905","No_Match",NA,NA,NA,NA
351079,"PO BOX 5025","SILVER CITY","NM",88062,NA,NA,79,"PO BOX 5025, SILVER CITY, NM, 88062","No_Match",NA,NA,NA,NA
351080,"PO BOX 50251","NEW BEDFORD","MA",2745,NA,NA,80,"PO BOX 50251, NEW BEDFORD, MA, 2745","No_Match",NA,NA,NA,NA
351081,"PO BOX 502592","CHALAN KANOA","MP",96950,NA,NA,81,"PO BOX 502592, CHALAN KANOA, MP, 96950","No_Match",NA,NA,NA,NA
351082,"PO BOX 5026","SOUTH WILLIAMSPORT","PA",17702,NA,NA,82,"PO BOX 5026, SOUTH WILLIAMSPORT, PA, 17702","No_Match",NA,NA,NA,NA
351083,"PO BOX 502676","SAIPAN","MP",96950,NA,NA,83,"PO BOX 502676, SAIPAN, MP, 96950","No_Match",NA,NA,NA,NA
351084,"PO BOX 5027","MUSEKGON","MI",49445,NA,NA,84,"PO BOX 5027, MUSEKGON, MI, 49445","No_Match",NA,NA,NA,NA
351085,"PO BOX 50274","IRVINE","CA",92619,NA,NA,85,"PO BOX 50274, IRVINE, CA, 92619","No_Match",NA,NA,NA,NA
351086,"PO BOX 50276","FORT MYERS","FL",33994,NA,NA,86,"PO BOX 50276, FORT MYERS, FL, 33994","No_Match",NA,NA,NA,NA
351087,"PO BOX 502821","INDIANAPOLIS","IN",46250,NA,NA,87,"PO BOX 502821, INDIANAPOLIS, IN, 46250","No_Match",NA,NA,NA,NA
351088,"PO BOX 502861","ATLANTA","GA",30302,NA,NA,88,"PO BOX 502861, ATLANTA, GA, 30302","No_Match",NA,NA,NA,NA
351089,"PO BOX 50291","SAN DIEGO","CA",92165,NA,NA,89,"PO BOX 50291, SAN DIEGO, CA, 92165","No_Match",NA,NA,NA,NA
351090,"PO BOX 502985","SAN DIEGO","CA",92150,NA,NA,90,"PO BOX 502985, SAN DIEGO, CA, 92150","No_Match",NA,NA,NA,NA
351091,"PO BOX 503","AUGUSTA","NJ",7822,NA,NA,91,"PO BOX 503, AUGUSTA, NJ, 7822","No_Match",NA,NA,NA,NA
351092,"PO BOX 503","BAYVIEW","ID",83803,NA,NA,92,"PO BOX 503, BAYVIEW, ID, 83803","No_Match",NA,NA,NA,NA
351093,"PO BOX 503","CLINTON","NY",13323,NA,NA,93,"PO BOX 503, CLINTON, NY, 13323","No_Match",NA,NA,NA,NA
351094,"PO BOX 503","COLDSPRING","TX",77331,NA,NA,94,"PO BOX 503, COLDSPRING, TX, 77331","No_Match",NA,NA,NA,NA
351095,"PO BOX 503","FAYETTEVILLE","AR",72702,NA,NA,95,"PO BOX 503, FAYETTEVILLE, AR, 72702","No_Match",NA,NA,NA,NA
351096,"PO BOX 503","GAITHERSBURG","MD",20884,NA,NA,96,"PO BOX 503, GAITHERSBURG, MD, 20884","No_Match",NA,NA,NA,NA
351097,"PO BOX 503","GREAT BEND","KS",67530,NA,NA,97,"PO BOX 503, GREAT BEND, KS, 67530","No_Match",NA,NA,NA,NA
351098,"PO BOX 503","HAGATNA","GU",96913,NA,NA,98,"PO BOX 503, HAGATNA, GU, 96913","No_Match",NA,NA,NA,NA
351099,"PO BOX 503","HALLETTSVILLE","TX",77964,NA,NA,99,"PO BOX 503, HALLETTSVILLE, TX, 77964","No_Match",NA,NA,NA,NA
351100,"PO BOX 503","HAMMONDSPORT","NY",14840,NA,NA,100,"PO BOX 503, HAMMONDSPORT, NY, 14840","No_Match",NA,NA,NA,NA
351101,"PO BOX 503","HARRISBURG","OR",97446,NA,NA,101,"PO BOX 503, HARRISBURG, OR, 97446","No_Match",NA,NA,NA,NA
351102,"PO BOX 503","HILLSDALE","NJ",7642,NA,NA,102,"PO BOX 503, HILLSDALE, NJ, 7642","No_Match",NA,NA,NA,NA
351103,"PO BOX 503","LACONIA","NH",3247,NA,NA,103,"PO BOX 503, LACONIA, NH, 3247","No_Match",NA,NA,NA,NA
351104,"PO BOX 503","LAUREL","MS",39441,NA,NA,104,"PO BOX 503, LAUREL, MS, 39441","No_Match",NA,NA,NA,NA
351105,"PO BOX 503","LOUISVILLE","MS",39339,NA,NA,105,"PO BOX 503, LOUISVILLE, MS, 39339","No_Match",NA,NA,NA,NA
351106,"PO BOX 503","MEDORA","ND",58645,NA,NA,106,"PO BOX 503, MEDORA, ND, 58645","No_Match",NA,NA,NA,NA
351107,"PO BOX 503","NORTHPORT","NY",11768,NA,NA,107,"PO BOX 503, NORTHPORT, NY, 11768","No_Match",NA,NA,NA,NA
351108,"PO BOX 503","PHOENICIA","NY",12464,NA,NA,108,"PO BOX 503, PHOENICIA, NY, 12464","No_Match",NA,NA,NA,NA
351109,"PO BOX 503","ROCKY POINT","NC",28457,NA,NA,109,"PO BOX 503, ROCKY POINT, NC, 28457","No_Match",NA,NA,NA,NA
351110,"PO BOX 503","SMITHTON","MO",65350,NA,NA,110,"PO BOX 503, SMITHTON, MO, 65350","No_Match",NA,NA,NA,NA
351111,"PO BOX 503","SUGAR LAND","TX",77487,NA,NA,111,"PO BOX 503, SUGAR LAND, TX, 77487","No_Match",NA,NA,NA,NA
351112,"PO BOX 503","SULLIVAN","IL",61951,NA,NA,112,"PO BOX 503, SULLIVAN, IL, 61951","No_Match",NA,NA,NA,NA
351113,"PO BOX 503","SWEENY","TX",77480,NA,NA,113,"PO BOX 503, SWEENY, TX, 77480","No_Match",NA,NA,NA,NA
351114,"PO BOX 503","TACOMA","WA",98401,NA,NA,114,"PO BOX 503, TACOMA, WA, 98401","No_Match",NA,NA,NA,NA
351115,"PO BOX 503","WACO","TX",76702,NA,NA,115,"PO BOX 503, WACO, TX, 76702","No_Match",NA,NA,NA,NA
351116,"PO BOX 50305","OXNARD","CA",93031,NA,NA,116,"PO BOX 50305, OXNARD, CA, 93031","No_Match",NA,NA,NA,NA
351117,"PO BOX 5031","FORT HOOD","TX",76544,NA,NA,117,"PO BOX 5031, FORT HOOD, TX, 76544","No_Match",NA,NA,NA,NA
351118,"PO BOX 5032","CHESAPEAKE","VA",23324,NA,NA,118,"PO BOX 5032, CHESAPEAKE, VA, 23324","No_Match",NA,NA,NA,NA
351119,"PO BOX 5032","MADISON","WI",53705,NA,NA,119,"PO BOX 5032, MADISON, WI, 53705","No_Match",NA,NA,NA,NA
351120,"PO BOX 5032","SAN JOSE","CA",95150,NA,NA,120,"PO BOX 5032, SAN JOSE, CA, 95150","No_Match",NA,NA,NA,NA
351121,"PO BOX 50320","LOS ANGELES","CA",90050,NA,NA,121,"PO BOX 50320, LOS ANGELES, CA, 90050","No_Match",NA,NA,NA,NA
351122,"PO BOX 5033","CHARLESTON","WV",25361,NA,NA,122,"PO BOX 5033, CHARLESTON, WV, 25361","No_Match",NA,NA,NA,NA
351123,"PO BOX 5033","NEW CASTLE","PA",16105,NA,NA,123,"PO BOX 5033, NEW CASTLE, PA, 16105","No_Match",NA,NA,NA,NA
351124,"PO BOX 5034","SARATOGA SPRINGS","NY",12866,NA,NA,124,"PO BOX 5034, SARATOGA SPRINGS, NY, 12866","No_Match",NA,NA,NA,NA
351125,"PO BOX 5035","AUSTIN","TX",78763,NA,NA,125,"PO BOX 5035, AUSTIN, TX, 78763","No_Match",NA,NA,NA,NA
351126,"PO BOX 503529","SAIPAN","MP",96950,NA,NA,126,"PO BOX 503529, SAIPAN, MP, 96950","No_Match",NA,NA,NA,NA
351127,"PO BOX 5036","PITTSBURGH","PA",15206,NA,NA,127,"PO BOX 5036, PITTSBURGH, PA, 15206","No_Match",NA,NA,NA,NA
351128,"PO BOX 503681","SAN DIEGO","CA",92150,NA,NA,128,"PO BOX 503681, SAN DIEGO, CA, 92150","No_Match",NA,NA,NA,NA
351129,"PO BOX 5037","MADISON","WI",53705,NA,NA,129,"PO BOX 5037, MADISON, WI, 53705","No_Match",NA,NA,NA,NA
351130,"PO BOX 50376","SAINT LOUIS","MO",63105,NA,NA,130,"PO BOX 50376, SAINT LOUIS, MO, 63105","No_Match",NA,NA,NA,NA
351131,"PO BOX 50383","FORT WORTH","TX",76105,NA,NA,131,"PO BOX 50383, FORT WORTH, TX, 76105","No_Match",NA,NA,NA,NA
351132,"PO BOX 503835","SAN DIEGO","CA",92150,NA,NA,132,"PO BOX 503835, SAN DIEGO, CA, 92150","No_Match",NA,NA,NA,NA
351133,"PO BOX 504","BIRMINGHAM","AL",35201,NA,NA,133,"PO BOX 504, BIRMINGHAM, AL, 35201","No_Match",NA,NA,NA,NA
351134,"PO BOX 504","BRIDGER","MT",59014,NA,NA,134,"PO BOX 504, BRIDGER, MT, 59014","No_Match",NA,NA,NA,NA
351135,"PO BOX 504","CEDAR CITY","UT",84721,NA,NA,135,"PO BOX 504, CEDAR CITY, UT, 84721","No_Match",NA,NA,NA,NA
351136,"PO BOX 504","CHAUMONT","NY",13693,NA,NA,136,"PO BOX 504, CHAUMONT, NY, 13693","No_Match",NA,NA,NA,NA
351137,"PO BOX 504","CONLEY","GA",30288,NA,NA,137,"PO BOX 504, CONLEY, GA, 30288","No_Match",NA,NA,NA,NA
351138,"PO BOX 504","DIVIDE","CO",80814,NA,NA,138,"PO BOX 504, DIVIDE, CO, 80814","No_Match",NA,NA,NA,NA
351139,"PO BOX 504","ELIZABETHTON","TN",37644,NA,NA,139,"PO BOX 504, ELIZABETHTON, TN, 37644","No_Match",NA,NA,NA,NA
351140,"PO BOX 504","ENNIS","TX",75120,NA,NA,140,"PO BOX 504, ENNIS, TX, 75120","No_Match",NA,NA,NA,NA
351141,"PO BOX 504","ESPANOLA","NM",87532,NA,NA,141,"PO BOX 504, ESPANOLA, NM, 87532","No_Match",NA,NA,NA,NA
351142,"PO BOX 504","INDEPENDENCE","CA",93526,NA,NA,142,"PO BOX 504, INDEPENDENCE, CA, 93526","No_Match",NA,NA,NA,NA
351143,"PO BOX 504","LAKE CITY","MI",49651,NA,NA,143,"PO BOX 504, LAKE CITY, MI, 49651","No_Match",NA,NA,NA,NA
351144,"PO BOX 504","LEXINGTON","KY",40588,NA,NA,144,"PO BOX 504, LEXINGTON, KY, 40588","No_Match",NA,NA,NA,NA
351145,"PO BOX 504","MARIETTA","OK",73448,NA,NA,145,"PO BOX 504, MARIETTA, OK, 73448","No_Match",NA,NA,NA,NA
351146,"PO BOX 504","PLENTYWOOD","MT",59254,NA,NA,146,"PO BOX 504, PLENTYWOOD, MT, 59254","No_Match",NA,NA,NA,NA
351147,"PO BOX 504","SHERRILLS FORD","NC",28673,NA,NA,147,"PO BOX 504, SHERRILLS FORD, NC, 28673","No_Match",NA,NA,NA,NA
351148,"PO BOX 504","SHINGLE SPRINGS","CA",95682,NA,NA,148,"PO BOX 504, SHINGLE SPRINGS, CA, 95682","No_Match",NA,NA,NA,NA
351149,"PO BOX 504","SOUTH BERWICK","ME",3908,NA,NA,149,"PO BOX 504, SOUTH BERWICK, ME, 3908","No_Match",NA,NA,NA,NA
351150,"PO BOX 504","SPIRIT LAKE","IA",51360,NA,NA,150,"PO BOX 504, SPIRIT LAKE, IA, 51360","No_Match",NA,NA,NA,NA
351151,"PO BOX 504","YORK","SC",29732,NA,NA,151,"PO BOX 504, YORK, SC, 29732","No_Match",NA,NA,NA,NA
351152,"PO BOX 5040","BUFFALO CREEK","CO",80425,NA,NA,152,"PO BOX 5040, BUFFALO CREEK, CO, 80425","No_Match",NA,NA,NA,NA
351153,"PO BOX 5040","MANCHESTER","NH",3108,NA,NA,153,"PO BOX 5040, MANCHESTER, NH, 3108","No_Match",NA,NA,NA,NA
351154,"PO BOX 5041","KALISPELL","MT",59903,NA,NA,154,"PO BOX 5041, KALISPELL, MT, 59903","No_Match",NA,NA,NA,NA
351155,"PO BOX 50411","MYRTLE BEACH","SC",29579,NA,NA,155,"PO BOX 50411, MYRTLE BEACH, SC, 29579","No_Match",NA,NA,NA,NA
351156,"PO BOX 5042","MARIETTA","GA",30061,NA,NA,156,"PO BOX 5042, MARIETTA, GA, 30061","No_Match",NA,NA,NA,NA
351157,"PO BOX 50422","KNOXVILLE","TN",37950,NA,NA,157,"PO BOX 50422, KNOXVILLE, TN, 37950","No_Match",NA,NA,NA,NA
351158,"PO BOX 50423","AMARILLO","TX",79159,NA,NA,158,"PO BOX 50423, AMARILLO, TX, 79159","No_Match",NA,NA,NA,NA
351159,"PO BOX 50423","PROVO","UT",84605,NA,NA,159,"PO BOX 50423, PROVO, UT, 84605","No_Match",NA,NA,NA,NA
351160,"PO BOX 5047","PINE MOUNTAIN CLUB","CA",93222,NA,NA,160,"PO BOX 5047, PINE MOUNTAIN CLUB, CA, 93222","No_Match",NA,NA,NA,NA
351161,"PO BOX 5048","BUFFALO GROVE","IL",60089,NA,NA,161,"PO BOX 5048, BUFFALO GROVE, IL, 60089","No_Match",NA,NA,NA,NA
351162,"PO BOX 505","ALBEMARLE","NC",28002,NA,NA,162,"PO BOX 505, ALBEMARLE, NC, 28002","No_Match",NA,NA,NA,NA
351163,"PO BOX 505","ATHENS","TX",75751,NA,NA,163,"PO BOX 505, ATHENS, TX, 75751","No_Match",NA,NA,NA,NA
351164,"PO BOX 505","BIG SANDY","MT",59520,NA,NA,164,"PO BOX 505, BIG SANDY, MT, 59520","No_Match",NA,NA,NA,NA
351165,"PO BOX 505","BIWABIK","MN",55708,NA,NA,165,"PO BOX 505, BIWABIK, MN, 55708","No_Match",NA,NA,NA,NA
351166,"PO BOX 505","FERNDALE","CA",95536,NA,NA,166,"PO BOX 505, FERNDALE, CA, 95536","No_Match",NA,NA,NA,NA
351167,"PO BOX 505","FLORIDA","NY",10921,NA,NA,167,"PO BOX 505, FLORIDA, NY, 10921","No_Match",NA,NA,NA,NA
351168,"PO BOX 505","LIHUE","HI",96766,NA,NA,168,"PO BOX 505, LIHUE, HI, 96766","No_Match",NA,NA,NA,NA
351169,"PO BOX 505","MOUNT POCONO","PA",18344,NA,NA,169,"PO BOX 505, MOUNT POCONO, PA, 18344","No_Match",NA,NA,NA,NA
351170,"PO BOX 505","PENN YAN","NY",14527,NA,NA,170,"PO BOX 505, PENN YAN, NY, 14527","No_Match",NA,NA,NA,NA
351171,"PO BOX 505","PRESCOTT","AR",71857,NA,NA,171,"PO BOX 505, PRESCOTT, AR, 71857","No_Match",NA,NA,NA,NA
351172,"PO BOX 505","WILTON","IA",52778,NA,NA,172,"PO BOX 505, WILTON, IA, 52778","No_Match",NA,NA,NA,NA
351173,"PO BOX 505072","SAIPAN","WA",96950,NA,NA,173,"PO BOX 505072, SAIPAN, WA, 96950","No_Match",NA,NA,NA,NA
351174,"PO BOX 5051","BELLFLOWER","CA",90707,NA,NA,174,"PO BOX 5051, BELLFLOWER, CA, 90707","No_Match",NA,NA,NA,NA
351175,"PO BOX 5051","KOKOMO","IN",46904,NA,NA,175,"PO BOX 5051, KOKOMO, IN, 46904","No_Match",NA,NA,NA,NA
351176,"PO BOX 5051","THIBODAUX","LA",70302,NA,NA,176,"PO BOX 5051, THIBODAUX, LA, 70302","No_Match",NA,NA,NA,NA
351177,"PO BOX 50516","SANTA BARBARA","CA",93150,NA,NA,177,"PO BOX 50516, SANTA BARBARA, CA, 93150","No_Match",NA,NA,NA,NA
351178,"PO BOX 50523","PHILADELPHIA","PA",19132,NA,NA,178,"PO BOX 50523, PHILADELPHIA, PA, 19132","No_Match",NA,NA,NA,NA
351179,"PO BOX 50527","KALAMAZOO","MI",49005,NA,NA,179,"PO BOX 50527, KALAMAZOO, MI, 49005","No_Match",NA,NA,NA,NA
351180,"PO BOX 5054","CULVER CITY","CA",90231,NA,NA,180,"PO BOX 5054, CULVER CITY, CA, 90231","No_Match",NA,NA,NA,NA
351181,"PO BOX 5054","LAPLACE","LA",70069,NA,NA,181,"PO BOX 5054, LAPLACE, LA, 70069","No_Match",NA,NA,NA,NA
351182,"PO BOX 5054","MONROE","LA",71211,NA,NA,182,"PO BOX 5054, MONROE, LA, 71211","No_Match",NA,NA,NA,NA
351183,"PO BOX 5054","ST. MARYS","GA",31558,NA,NA,183,"PO BOX 5054, ST. MARYS, GA, 31558","No_Match",NA,NA,NA,NA
351184,"PO BOX 50541","EUGENE","OR",97405,NA,NA,184,"PO BOX 50541, EUGENE, OR, 97405","No_Match",NA,NA,NA,NA
351185,"PO BOX 50543","IRVINE","CA",92619,NA,NA,185,"PO BOX 50543, IRVINE, CA, 92619","No_Match",NA,NA,NA,NA
351186,"PO BOX 5056","GLENDALE","AZ",85312,NA,NA,186,"PO BOX 5056, GLENDALE, AZ, 85312","No_Match",NA,NA,NA,NA
351187,"PO BOX 5056","HYATTSVILLE","MD",20782,NA,NA,187,"PO BOX 5056, HYATTSVILLE, MD, 20782","No_Match",NA,NA,NA,NA
351188,"PO BOX 505647","CHELSEA","MA",2150,NA,NA,188,"PO BOX 505647, CHELSEA, MA, 2150","No_Match",NA,NA,NA,NA
351189,"PO BOX 5058","FRISCO","TX",75035,NA,NA,189,"PO BOX 5058, FRISCO, TX, 75035","No_Match",NA,NA,NA,NA
351190,"PO BOX 5058","LARKSPUR","CA",94977,NA,NA,190,"PO BOX 5058, LARKSPUR, CA, 94977","No_Match",NA,NA,NA,NA
351191,"PO BOX 5058","PASCO","WA",99301,NA,NA,191,"PO BOX 5058, PASCO, WA, 99301","No_Match",NA,NA,NA,NA
351192,"PO BOX 5059","VINEYARD HAVEN","MA",2568,NA,NA,192,"PO BOX 5059, VINEYARD HAVEN, MA, 2568","No_Match",NA,NA,NA,NA
351193,"PO BOX 50596","PHOENIX","AZ",85076,NA,NA,193,"PO BOX 50596, PHOENIX, AZ, 85076","No_Match",NA,NA,NA,NA
351194,"PO BOX 506","AVA","MO",65608,NA,NA,194,"PO BOX 506, AVA, MO, 65608","No_Match",NA,NA,NA,NA
351195,"PO BOX 506","BRITTON","SD",57430,NA,NA,195,"PO BOX 506, BRITTON, SD, 57430","No_Match",NA,NA,NA,NA
351196,"PO BOX 506","COTTONWOOD","ID",83522,NA,NA,196,"PO BOX 506, COTTONWOOD, ID, 83522","No_Match",NA,NA,NA,NA
351197,"PO BOX 506","CROWLEY","TX",76036,NA,NA,197,"PO BOX 506, CROWLEY, TX, 76036","No_Match",NA,NA,NA,NA
351198,"PO BOX 506","ELBERTON","GA",30635,NA,NA,198,"PO BOX 506, ELBERTON, GA, 30635","No_Match",NA,NA,NA,NA
351199,"PO BOX 506","HUTTO","TX",78634,NA,NA,199,"PO BOX 506, HUTTO, TX, 78634","No_Match",NA,NA,NA,NA
351200,"PO BOX 506","LEBANON","NH",3766,NA,NA,200,"PO BOX 506, LEBANON, NH, 3766","No_Match",NA,NA,NA,NA
351201,"PO BOX 506","LOMBARD","IL",60148,NA,NA,201,"PO BOX 506, LOMBARD, IL, 60148","No_Match",NA,NA,NA,NA
351202,"PO BOX 506","MANCHESTER","TN",37355,NA,NA,202,"PO BOX 506, MANCHESTER, TN, 37355","No_Match",NA,NA,NA,NA
351203,"PO BOX 506","MEDORA","IN",47260,NA,NA,203,"PO BOX 506, MEDORA, IN, 47260","No_Match",NA,NA,NA,NA
351204,"PO BOX 506","PACKWOOD","WA",98361,NA,NA,204,"PO BOX 506, PACKWOOD, WA, 98361","No_Match",NA,NA,NA,NA
351205,"PO BOX 506","SOUR LAKE","TX",77659,NA,NA,205,"PO BOX 506, SOUR LAKE, TX, 77659","No_Match",NA,NA,NA,NA
351206,"PO BOX 506","ST CLAIR","MN",56080,NA,NA,206,"PO BOX 506, ST CLAIR, MN, 56080","No_Match",NA,NA,NA,NA
351207,"PO BOX 506","VALLEJO","CA",94590,NA,NA,207,"PO BOX 506, VALLEJO, CA, 94590","No_Match",NA,NA,NA,NA
351208,"PO BOX 50602","BILLINGS","MT",59105,NA,NA,208,"PO BOX 50602, BILLINGS, MT, 59105","No_Match",NA,NA,NA,NA
351209,"PO BOX 506028","SAIPAN","MP",96950,NA,NA,209,"PO BOX 506028, SAIPAN, MP, 96950","No_Match",NA,NA,NA,NA
351210,"PO BOX 50610","MIDWEST CITY","OK",73140,NA,NA,210,"PO BOX 50610, MIDWEST CITY, OK, 73140","No_Match",NA,NA,NA,NA
351211,"PO BOX 5062","COMPTON","CA",90224,NA,NA,211,"PO BOX 5062, COMPTON, CA, 90224","No_Match",NA,NA,NA,NA
351212,"PO BOX 5062","SOUTH WILLIAMSPORT","PA",17702,NA,NA,212,"PO BOX 5062, SOUTH WILLIAMSPORT, PA, 17702","No_Match",NA,NA,NA,NA
351213,"PO BOX 50641","FORT WORTH","TX",76105,NA,NA,213,"PO BOX 50641, FORT WORTH, TX, 76105","No_Match",NA,NA,NA,NA
351214,"PO BOX 50683","BELLEVUE","WA",98015,NA,NA,214,"PO BOX 50683, BELLEVUE, WA, 98015","No_Match",NA,NA,NA,NA
351215,"PO BOX 5069","KENDALL PARK","NJ",8824,NA,NA,215,"PO BOX 5069, KENDALL PARK, NJ, 8824","No_Match",NA,NA,NA,NA
351216,"PO BOX 507","BUENA VISTA","VA",24416,NA,NA,216,"PO BOX 507, BUENA VISTA, VA, 24416","No_Match",NA,NA,NA,NA
351217,"PO BOX 507","CAMPO","CA",91906,NA,NA,217,"PO BOX 507, CAMPO, CA, 91906","No_Match",NA,NA,NA,NA
351218,"PO BOX 507","FAULKTON","SD",57438,NA,NA,218,"PO BOX 507, FAULKTON, SD, 57438","No_Match",NA,NA,NA,NA
351219,"PO BOX 507","FRUITA","CO",81521,NA,NA,219,"PO BOX 507, FRUITA, CO, 81521","No_Match",NA,NA,NA,NA
351220,"PO BOX 507","GASTON","OR",97119,NA,NA,220,"PO BOX 507, GASTON, OR, 97119","No_Match",NA,NA,NA,NA
351221,"PO BOX 507","LILLINGTON","NC",27546,NA,NA,221,"PO BOX 507, LILLINGTON, NC, 27546","No_Match",NA,NA,NA,NA
351222,"PO BOX 507","LITTLETON","NH",3561,NA,NA,222,"PO BOX 507, LITTLETON, NH, 3561","No_Match",NA,NA,NA,NA
351223,"PO BOX 507","LUMPKIN","GA",31815,NA,NA,223,"PO BOX 507, LUMPKIN, GA, 31815","No_Match",NA,NA,NA,NA
351224,"PO BOX 507","MAYS LANDING","NJ",8330,NA,NA,224,"PO BOX 507, MAYS LANDING, NJ, 8330","No_Match",NA,NA,NA,NA
351225,"PO BOX 507","NORTH GROSVENORDALE","CT",6255,NA,NA,225,"PO BOX 507, NORTH GROSVENORDALE, CT, 6255","No_Match",NA,NA,NA,NA
351226,"PO BOX 507","PEARSALL","TX",78061,NA,NA,226,"PO BOX 507, PEARSALL, TX, 78061","No_Match",NA,NA,NA,NA
351227,"PO BOX 507","SAINT LOUIS","MO",63118,NA,NA,227,"PO BOX 507, SAINT LOUIS, MO, 63118","No_Match",NA,NA,NA,NA
351228,"PO BOX 507","SAXONBURG","PA",16056,NA,NA,228,"PO BOX 507, SAXONBURG, PA, 16056","No_Match",NA,NA,NA,NA
351229,"PO BOX 507","WEST SACRAMENTO","CA",95691,NA,NA,229,"PO BOX 507, WEST SACRAMENTO, CA, 95691","No_Match",NA,NA,NA,NA
351230,"PO BOX 50703","SANTA BARBARA","CA",93150,NA,NA,230,"PO BOX 50703, SANTA BARBARA, CA, 93150","No_Match",NA,NA,NA,NA
351231,"PO BOX 5071","BREMERTON","WA",98312,NA,NA,231,"PO BOX 5071, BREMERTON, WA, 98312","No_Match",NA,NA,NA,NA
351232,"PO BOX 5071","JACKSONVILLE","NC",28541,NA,NA,232,"PO BOX 5071, JACKSONVILLE, NC, 28541","No_Match",NA,NA,NA,NA
351233,"PO BOX 5072","BERKELEY","CA",94705,NA,NA,233,"PO BOX 5072, BERKELEY, CA, 94705","No_Match",NA,NA,NA,NA
351234,"PO BOX 5072","FALLON","NV",89407,NA,NA,234,"PO BOX 5072, FALLON, NV, 89407","No_Match",NA,NA,NA,NA
351235,"PO BOX 50724","ARLINGTON","VA",22205,NA,NA,235,"PO BOX 50724, ARLINGTON, VA, 22205","No_Match",NA,NA,NA,NA
351236,"PO BOX 5073","EDMOND","OK",73083,NA,NA,236,"PO BOX 5073, EDMOND, OK, 73083","No_Match",NA,NA,NA,NA
351237,"PO BOX 5074","BRANDON","MS",39047,NA,NA,237,"PO BOX 5074, BRANDON, MS, 39047","No_Match",NA,NA,NA,NA
351238,"PO BOX 50744","COLUMBIA","SC",29250,NA,NA,238,"PO BOX 50744, COLUMBIA, SC, 29250","No_Match",NA,NA,NA,NA
351239,"PO BOX 50747","BILLINGS","MT",59105,NA,NA,239,"PO BOX 50747, BILLINGS, MT, 59105","No_Match",NA,NA,NA,NA
351240,"PO BOX 50755","ALBUQUERQUE","NM",87181,NA,NA,240,"PO BOX 50755, ALBUQUERQUE, NM, 87181","No_Match",NA,NA,NA,NA
351241,"PO BOX 50755","COLUMBIA","SC",29250,NA,NA,241,"PO BOX 50755, COLUMBIA, SC, 29250","No_Match",NA,NA,NA,NA
351242,"PO BOX 5077","CORDELE","GA",31010,NA,NA,242,"PO BOX 5077, CORDELE, GA, 31010","No_Match",NA,NA,NA,NA
351243,"PO BOX 5078","PASCO","WA",99302,NA,NA,243,"PO BOX 5078, PASCO, WA, 99302","No_Match",NA,NA,NA,NA
351244,"PO BOX 50782","TUCSON","AZ",85703,NA,NA,244,"PO BOX 50782, TUCSON, AZ, 85703","No_Match",NA,NA,NA,NA
351245,"PO BOX 5079 ONE HARRISON PLAZA","FLORENCE","AL",35632,NA,NA,245,"PO BOX 5079 ONE HARRISON PLAZA, FLORENCE, AL, 35632","No_Match",NA,NA,NA,NA
351246,"PO BOX 508","BOWLING GREEN","VA",22427,NA,NA,246,"PO BOX 508, BOWLING GREEN, VA, 22427","No_Match",NA,NA,NA,NA
351247,"PO BOX 508","BROWNS MILLS","NJ",8015,NA,NA,247,"PO BOX 508, BROWNS MILLS, NJ, 8015","No_Match",NA,NA,NA,NA
351248,"PO BOX 508","HOHENWALD","TN",38462,NA,NA,248,"PO BOX 508, HOHENWALD, TN, 38462","No_Match",NA,NA,NA,NA
351249,"PO BOX 508","HUDSON","OH",44236,NA,NA,249,"PO BOX 508, HUDSON, OH, 44236","No_Match",NA,NA,NA,NA
351250,"PO BOX 508","MT WASHINGTON","KY",40047,NA,NA,250,"PO BOX 508, MT WASHINGTON, KY, 40047","No_Match",NA,NA,NA,NA
351251,"PO BOX 508","NAPOLEON","MI",49261,NA,NA,251,"PO BOX 508, NAPOLEON, MI, 49261","No_Match",NA,NA,NA,NA
351252,"PO BOX 508","PORTSMOUTH","OH",45662,NA,NA,252,"PO BOX 508, PORTSMOUTH, OH, 45662","No_Match",NA,NA,NA,NA
351253,"PO BOX 508","PURCHASE","NY",10577,NA,NA,253,"PO BOX 508, PURCHASE, NY, 10577","No_Match",NA,NA,NA,NA
351254,"PO BOX 508","QUANAH","TX",79252,NA,NA,254,"PO BOX 508, QUANAH, TX, 79252","No_Match",NA,NA,NA,NA
351255,"PO BOX 508","SAN JOSE","CA",95103,NA,NA,255,"PO BOX 508, SAN JOSE, CA, 95103","No_Match",NA,NA,NA,NA
351256,"PO BOX 508","TERRELL","TX",75160,NA,NA,256,"PO BOX 508, TERRELL, TX, 75160","No_Match",NA,NA,NA,NA
351257,"PO BOX 508","WELLSTON","OH",45692,NA,NA,257,"PO BOX 508, WELLSTON, OH, 45692","No_Match",NA,NA,NA,NA
351258,"PO BOX 508","WINFIELD","IL",60190,NA,NA,258,"PO BOX 508, WINFIELD, IL, 60190","No_Match",NA,NA,NA,NA
351259,"PO BOX 5081","ALEXANDRIA","LA",71307,NA,NA,259,"PO BOX 5081, ALEXANDRIA, LA, 71307","No_Match",NA,NA,NA,NA
351260,"PO BOX 5081","HILO","HI",96720,NA,NA,260,"PO BOX 5081, HILO, HI, 96720","No_Match",NA,NA,NA,NA
351261,"PO BOX 5081","KANEOHE","HI",96744,NA,NA,261,"PO BOX 5081, KANEOHE, HI, 96744","No_Match",NA,NA,NA,NA
351262,"PO BOX 5081","POLAND","OH",44514,NA,NA,262,"PO BOX 5081, POLAND, OH, 44514","No_Match",NA,NA,NA,NA
351263,"PO BOX 5081","VICTORIA","TX",77903,NA,NA,263,"PO BOX 5081, VICTORIA, TX, 77903","No_Match",NA,NA,NA,NA
351264,"PO BOX 5082","GALT","CA",95632,NA,NA,264,"PO BOX 5082, GALT, CA, 95632","No_Match",NA,NA,NA,NA
351265,"PO BOX 5082","LOUISVILLE","KY",40255,NA,NA,265,"PO BOX 5082, LOUISVILLE, KY, 40255","No_Match",NA,NA,NA,NA
351266,"PO BOX 5082","WHITE ROCK","NM",87547,NA,NA,266,"PO BOX 5082, WHITE ROCK, NM, 87547","No_Match",NA,NA,NA,NA
351267,"PO BOX 50823","MENDOTA","MN",55150,NA,NA,267,"PO BOX 50823, MENDOTA, MN, 55150","No_Match",NA,NA,NA,NA
351268,"PO BOX 5083","NAVARRE","FL",32566,NA,NA,268,"PO BOX 5083, NAVARRE, FL, 32566","No_Match",NA,NA,NA,NA
351269,"PO BOX 5084","CABOT","AR",72023,NA,NA,269,"PO BOX 5084, CABOT, AR, 72023","No_Match",NA,NA,NA,NA
351270,"PO BOX 5085","HUNTINGTON BEACH","CA",92615,NA,NA,270,"PO BOX 5085, HUNTINGTON BEACH, CA, 92615","No_Match",NA,NA,NA,NA
351271,"PO BOX 50851","COLORADO SPRINGS","CO",80949,NA,NA,271,"PO BOX 50851, COLORADO SPRINGS, CO, 80949","No_Match",NA,NA,NA,NA
351272,"PO BOX 50861","EUGENE","OR",97405,NA,NA,272,"PO BOX 50861, EUGENE, OR, 97405","No_Match",NA,NA,NA,NA
351273,"PO BOX 50874","EUGENE","OR",97405,NA,NA,273,"PO BOX 50874, EUGENE, OR, 97405","No_Match",NA,NA,NA,NA
351274,"PO BOX 50885","DENTON","TX",76206,NA,NA,274,"PO BOX 50885, DENTON, TX, 76206","No_Match",NA,NA,NA,NA
351275,"PO BOX 509","BELLE HAVEN","VA",23306,NA,NA,275,"PO BOX 509, BELLE HAVEN, VA, 23306","No_Match",NA,NA,NA,NA
351276,"PO BOX 509","CLARKSBURG","CA",95612,NA,NA,276,"PO BOX 509, CLARKSBURG, CA, 95612","No_Match",NA,NA,NA,NA
351277,"PO BOX 509","CLEARWATER","SC",29822,NA,NA,277,"PO BOX 509, CLEARWATER, SC, 29822","No_Match",NA,NA,NA,NA
351278,"PO BOX 509","DARDANELLE","AR",72834,NA,NA,278,"PO BOX 509, DARDANELLE, AR, 72834","No_Match",NA,NA,NA,NA
351279,"PO BOX 509","FARGO","ND",58107,NA,NA,279,"PO BOX 509, FARGO, ND, 58107","No_Match",NA,NA,NA,NA
351280,"PO BOX 509","LAHARPE","IL",61450,NA,NA,280,"PO BOX 509, LAHARPE, IL, 61450","No_Match",NA,NA,NA,NA
351281,"PO BOX 509","LESLIE","AR",72645,NA,NA,281,"PO BOX 509, LESLIE, AR, 72645","No_Match",NA,NA,NA,NA
351282,"PO BOX 509","MADISON","NJ",7940,NA,NA,282,"PO BOX 509, MADISON, NJ, 7940","No_Match",NA,NA,NA,NA
351283,"PO BOX 509","ROSLYN","WA",98941,NA,NA,283,"PO BOX 509, ROSLYN, WA, 98941","No_Match",NA,NA,NA,NA
351284,"PO BOX 509","WAIMEA","HI",96796,NA,NA,284,"PO BOX 509, WAIMEA, HI, 96796","No_Match",NA,NA,NA,NA
351285,"PO BOX 509","WATERVLIET","NY",12124,NA,NA,285,"PO BOX 509, WATERVLIET, NY, 12124","No_Match",NA,NA,NA,NA
351286,"PO BOX 509","WEST POINT","GA",31833,NA,NA,286,"PO BOX 509, WEST POINT, GA, 31833","No_Match",NA,NA,NA,NA
351287,"PO BOX 50902","PROVO","UT",84605,NA,NA,287,"PO BOX 50902, PROVO, UT, 84605","No_Match",NA,NA,NA,NA
351288,"PO BOX 5091","SAINT CLOUD","MN",56302,NA,NA,288,"PO BOX 5091, SAINT CLOUD, MN, 56302","No_Match",NA,NA,NA,NA
351289,"PO BOX 5092","SANTA ROSA","CA",95402,NA,NA,289,"PO BOX 5092, SANTA ROSA, CA, 95402","No_Match",NA,NA,NA,NA
351290,"PO BOX 50936","DENTON","TX",76206,NA,NA,290,"PO BOX 50936, DENTON, TX, 76206","No_Match",NA,NA,NA,NA
351291,"PO BOX 50939","OXNARD","CA",93031,NA,NA,291,"PO BOX 50939, OXNARD, CA, 93031","No_Match",NA,NA,NA,NA
351292,"PO BOX 50954","FORTH WORTH","TX",76105,NA,NA,292,"PO BOX 50954, FORTH WORTH, TX, 76105","No_Match",NA,NA,NA,NA
351293,"PO BOX 5096","VALLEJO","CA",94591,NA,NA,293,"PO BOX 5096, VALLEJO, CA, 94591","No_Match",NA,NA,NA,NA
351294,"PO BOX 5097","FORT LEE","VA",23801,NA,NA,294,"PO BOX 5097, FORT LEE, VA, 23801","No_Match",NA,NA,NA,NA
351295,"PO BOX 5097","SAN DIEGO","CA",92165,NA,NA,295,"PO BOX 5097, SAN DIEGO, CA, 92165","No_Match",NA,NA,NA,NA
351296,"PO BOX 50974","NEW BEDFORD","MA",2745,NA,NA,296,"PO BOX 50974, NEW BEDFORD, MA, 2745","No_Match",NA,NA,NA,NA
351297,"PO BOX 5098","BEAVERTON","OR",97006,NA,NA,297,"PO BOX 5098, BEAVERTON, OR, 97006","No_Match",NA,NA,NA,NA
351298,"PO BOX 5098","KINSTON","NC",28503,NA,NA,298,"PO BOX 5098, KINSTON, NC, 28503","No_Match",NA,NA,NA,NA
351299,"PO BOX 51-0361","MELBOURNE BEACH","FL",32951,NA,NA,299,"PO BOX 51-0361, MELBOURNE BEACH, FL, 32951","No_Match",NA,NA,NA,NA
351300,"PO BOX 51","APACHE","OK",73006,NA,NA,300,"PO BOX 51, APACHE, OK, 73006","No_Match",NA,NA,NA,NA
351301,"PO BOX 51","BAR MILLS","ME",4004,NA,NA,301,"PO BOX 51, BAR MILLS, ME, 4004","No_Match",NA,NA,NA,NA
351302,"PO BOX 51","BLAIR","NE",68008,NA,NA,302,"PO BOX 51, BLAIR, NE, 68008","No_Match",NA,NA,NA,NA
351303,"PO BOX 51","BURLINGHAM","NY",12722,NA,NA,303,"PO BOX 51, BURLINGHAM, NY, 12722","No_Match",NA,NA,NA,NA
351304,"PO BOX 51","BURLINGTON","CO",80807,NA,NA,304,"PO BOX 51, BURLINGTON, CO, 80807","No_Match",NA,NA,NA,NA
351305,"PO BOX 51","CEDAR PARK","TX",78630,NA,NA,305,"PO BOX 51, CEDAR PARK, TX, 78630","No_Match",NA,NA,NA,NA
351306,"PO BOX 51","COOKEVILLE","TN",38501,NA,NA,306,"PO BOX 51, COOKEVILLE, TN, 38501","No_Match",NA,NA,NA,NA
351307,"PO BOX 51","CROMONA","KY",41810,NA,NA,307,"PO BOX 51, CROMONA, KY, 41810","No_Match",NA,NA,NA,NA
351308,"PO BOX 51","CURWENSVILLE","PA",16833,NA,NA,308,"PO BOX 51, CURWENSVILLE, PA, 16833","No_Match",NA,NA,NA,NA
351309,"PO BOX 51","DAYTON","OH",45322,NA,NA,309,"PO BOX 51, DAYTON, OH, 45322","No_Match",NA,NA,NA,NA
351310,"PO BOX 51","GODWIN","NC",28344,NA,NA,310,"PO BOX 51, GODWIN, NC, 28344","No_Match",NA,NA,NA,NA
351311,"PO BOX 51","GRAHAM","NC",27253,NA,NA,311,"PO BOX 51, GRAHAM, NC, 27253","No_Match",NA,NA,NA,NA
351312,"PO BOX 51","HARDYVILLE","VA",23070,NA,NA,312,"PO BOX 51, HARDYVILLE, VA, 23070","No_Match",NA,NA,NA,NA
351313,"PO BOX 51","HAYMARKET","VA",20168,NA,NA,313,"PO BOX 51, HAYMARKET, VA, 20168","No_Match",NA,NA,NA,NA
351314,"PO BOX 51","HAYS","KS",67601,NA,NA,314,"PO BOX 51, HAYS, KS, 67601","No_Match",NA,NA,NA,NA
351315,"PO BOX 51","HOOD","CA",95639,NA,NA,315,"PO BOX 51, HOOD, CA, 95639","No_Match",NA,NA,NA,NA
351316,"PO BOX 51","KOUNTZE","TX",77625,NA,NA,316,"PO BOX 51, KOUNTZE, TX, 77625","No_Match",NA,NA,NA,NA
351317,"PO BOX 51","MARIONVILLE","MO",65705,NA,NA,317,"PO BOX 51, MARIONVILLE, MO, 65705","No_Match",NA,NA,NA,NA
351318,"PO BOX 51","MELBA","ID",83641,NA,NA,318,"PO BOX 51, MELBA, ID, 83641","No_Match",NA,NA,NA,NA
351319,"PO BOX 51","MONDOVI","WI",54755,NA,NA,319,"PO BOX 51, MONDOVI, WI, 54755","No_Match",NA,NA,NA,NA
351320,"PO BOX 51","NASHUA","IA",50658,NA,NA,320,"PO BOX 51, NASHUA, IA, 50658","No_Match",NA,NA,NA,NA
351321,"PO BOX 51","PORTAGE","MI",49081,NA,NA,321,"PO BOX 51, PORTAGE, MI, 49081","No_Match",NA,NA,NA,NA
351322,"PO BOX 51","PRAIRIE DU CHEIN","WI",53821,NA,NA,322,"PO BOX 51, PRAIRIE DU CHEIN, WI, 53821","No_Match",NA,NA,NA,NA
351323,"PO BOX 51","RATTAN","OK",74562,NA,NA,323,"PO BOX 51, RATTAN, OK, 74562","No_Match",NA,NA,NA,NA
351324,"PO BOX 51","RITTMAN","OH",44270,NA,NA,324,"PO BOX 51, RITTMAN, OH, 44270","No_Match",NA,NA,NA,NA
351325,"PO BOX 51","ROBESONIA","PA",19551,NA,NA,325,"PO BOX 51, ROBESONIA, PA, 19551","No_Match",NA,NA,NA,NA
351326,"PO BOX 51","ROCK HALL","MD",21661,NA,NA,326,"PO BOX 51, ROCK HALL, MD, 21661","No_Match",NA,NA,NA,NA
351327,"PO BOX 51","ROGERS","TX",76569,NA,NA,327,"PO BOX 51, ROGERS, TX, 76569","No_Match",NA,NA,NA,NA
351328,"PO BOX 51","SUGAR LAND","TX",77478,NA,NA,328,"PO BOX 51, SUGAR LAND, TX, 77478","No_Match",NA,NA,NA,NA
351329,"PO BOX 51","TALLAHASSEE","FL",32302,NA,NA,329,"PO BOX 51, TALLAHASSEE, FL, 32302","No_Match",NA,NA,NA,NA
351330,"PO BOX 51","TERRACE PARK","OH",45174,NA,NA,330,"PO BOX 51, TERRACE PARK, OH, 45174","No_Match",NA,NA,NA,NA
351331,"PO BOX 51","UNIONVILLE","CT",6085,NA,NA,331,"PO BOX 51, UNIONVILLE, CT, 6085","No_Match",NA,NA,NA,NA
351332,"PO BOX 51","URBANA","IL",61803,NA,NA,332,"PO BOX 51, URBANA, IL, 61803","No_Match",NA,NA,NA,NA
351333,"PO BOX 51","WILLIAMSON","GA",30292,NA,NA,333,"PO BOX 51, WILLIAMSON, GA, 30292","No_Match",NA,NA,NA,NA
351334,"PO BOX 51","WINDSOR","CT",6095,NA,NA,334,"PO BOX 51, WINDSOR, CT, 6095","No_Match",NA,NA,NA,NA
351335,"PO BOX 51","WOODBRIDGE","NJ",7095,NA,NA,335,"PO BOX 51, WOODBRIDGE, NJ, 7095","No_Match",NA,NA,NA,NA
351336,"PO BOX 51","WORTHINGTON","WV",26591,NA,NA,336,"PO BOX 51, WORTHINGTON, WV, 26591","No_Match",NA,NA,NA,NA
351337,"PO BOX 51/ 536 W BAYVIEW AVENUE","PUT-IN-BAY","OH",43456,41.6543764890001,-82.823001334,337,"PO BOX 51/ 536 W BAYVIEW AVENUE, PUT-IN-BAY, OH, 43456","Match","Exact","536 BAYVIEW AVE, PUT IN BAY, OH, 43456",44061158,"R"
351338,"PO BOX 510","ARLINGTON","WA",98223,NA,NA,338,"PO BOX 510, ARLINGTON, WA, 98223","No_Match",NA,NA,NA,NA
351339,"PO BOX 510","SPICEWOOD","TX",78669,NA,NA,339,"PO BOX 510, SPICEWOOD, TX, 78669","No_Match",NA,NA,NA,NA
351340,"PO BOX 510","STOCKTON SPRINGS","ME",4981,NA,NA,340,"PO BOX 510, STOCKTON SPRINGS, ME, 4981","No_Match",NA,NA,NA,NA
351341,"PO BOX 510","STRASBURG","VA",22657,NA,NA,341,"PO BOX 510, STRASBURG, VA, 22657","No_Match",NA,NA,NA,NA
351342,"PO BOX 510","SUGAR LOAF","NY",10981,NA,NA,342,"PO BOX 510, SUGAR LOAF, NY, 10981","No_Match",NA,NA,NA,NA
351343,"PO BOX 5100","WHITTIER","CA",90607,NA,NA,343,"PO BOX 5100, WHITTIER, CA, 90607","No_Match",NA,NA,NA,NA
351344,"PO BOX 510033","PUNTA GORDA","FL",33951,NA,NA,344,"PO BOX 510033, PUNTA GORDA, FL, 33951","No_Match",NA,NA,NA,NA
351345,"PO BOX 51006","COLORADO SPRINGS","CO",80949,NA,NA,345,"PO BOX 51006, COLORADO SPRINGS, CO, 80949","No_Match",NA,NA,NA,NA
351346,"PO BOX 510075","PUNTA GORDA","FL",33951,NA,NA,346,"PO BOX 510075, PUNTA GORDA, FL, 33951","No_Match",NA,NA,NA,NA
351347,"PO BOX 5101","TALLAHASSEE","FL",32314,NA,NA,347,"PO BOX 5101, TALLAHASSEE, FL, 32314","No_Match",NA,NA,NA,NA
351348,"PO BOX 5101","WARREN","MI",48090,NA,NA,348,"PO BOX 5101, WARREN, MI, 48090","No_Match",NA,NA,NA,NA
351349,"PO BOX 510133","LIVONIA","MI",48151,NA,NA,349,"PO BOX 510133, LIVONIA, MI, 48151","No_Match",NA,NA,NA,NA
351350,"PO BOX 5102","SOUTH WILLIAMSPORT","PA",17702,NA,NA,350,"PO BOX 5102, SOUTH WILLIAMSPORT, PA, 17702","No_Match",NA,NA,NA,NA
351351,"PO BOX 51022","SPARKS","NV",89435,NA,NA,351,"PO BOX 51022, SPARKS, NV, 89435","No_Match",NA,NA,NA,NA
351352,"PO BOX 51028","PHOENIX","AZ",85076,NA,NA,352,"PO BOX 51028, PHOENIX, AZ, 85076","No_Match",NA,NA,NA,NA
351353,"PO BOX 510287","MILWAUKEE","WI",53203,NA,NA,353,"PO BOX 510287, MILWAUKEE, WI, 53203","No_Match",NA,NA,NA,NA
351354,"PO BOX 5103","PEORIA","AZ",85381,NA,NA,354,"PO BOX 5103, PEORIA, AZ, 85381","No_Match",NA,NA,NA,NA
351355,"PO BOX 51032","EUGENE","OR",97405,NA,NA,355,"PO BOX 51032, EUGENE, OR, 97405","No_Match",NA,NA,NA,NA
351356,"PO BOX 5104","FRISCO","TX",75035,NA,NA,356,"PO BOX 5104, FRISCO, TX, 75035","No_Match",NA,NA,NA,NA
351357,"PO BOX 5104","KINGWOOD","TX",77325,NA,NA,357,"PO BOX 5104, KINGWOOD, TX, 77325","No_Match",NA,NA,NA,NA
351358,"PO BOX 5104","LANSING","IL",60438,NA,NA,358,"PO BOX 5104, LANSING, IL, 60438","No_Match",NA,NA,NA,NA
351359,"PO BOX 510492","NEW BERLIN","WI",53151,NA,NA,359,"PO BOX 510492, NEW BERLIN, WI, 53151","No_Match",NA,NA,NA,NA
351360,"PO BOX 5105","HUDSON","FL",34674,NA,NA,360,"PO BOX 5105, HUDSON, FL, 34674","No_Match",NA,NA,NA,NA
351361,"PO BOX 5108","ATLANTA","GA",30302,NA,NA,361,"PO BOX 5108, ATLANTA, GA, 30302","No_Match",NA,NA,NA,NA
351362,"PO BOX 510824","MILWAUKEE","WI",53203,NA,NA,362,"PO BOX 510824, MILWAUKEE, WI, 53203","No_Match",NA,NA,NA,NA
351363,"PO BOX 510931","MILWAUKEE","WI",53203,NA,NA,363,"PO BOX 510931, MILWAUKEE, WI, 53203","No_Match",NA,NA,NA,NA
351364,"PO BOX 511","BUCKEYE","AZ",85326,NA,NA,364,"PO BOX 511, BUCKEYE, AZ, 85326","No_Match",NA,NA,NA,NA
351365,"PO BOX 511","BUFFALO","NY",14231,NA,NA,365,"PO BOX 511, BUFFALO, NY, 14231","No_Match",NA,NA,NA,NA
351366,"PO BOX 511","COLEMAN","FL",33521,NA,NA,366,"PO BOX 511, COLEMAN, FL, 33521","No_Match",NA,NA,NA,NA
351367,"PO BOX 511","COLLINSVILLE","IL",62234,NA,NA,367,"PO BOX 511, COLLINSVILLE, IL, 62234","No_Match",NA,NA,NA,NA
351368,"PO BOX 511","COLUMBUS","MS",39703,NA,NA,368,"PO BOX 511, COLUMBUS, MS, 39703","No_Match",NA,NA,NA,NA
351369,"PO BOX 511","DOYLESTOWN","PA",18901,NA,NA,369,"PO BOX 511, DOYLESTOWN, PA, 18901","No_Match",NA,NA,NA,NA
351370,"PO BOX 511","ELDRED","PA",16731,NA,NA,370,"PO BOX 511, ELDRED, PA, 16731","No_Match",NA,NA,NA,NA
351371,"PO BOX 511","INDEPENDENCE","IA",50644,NA,NA,371,"PO BOX 511, INDEPENDENCE, IA, 50644","No_Match",NA,NA,NA,NA
351372,"PO BOX 511","IRVINE","CA",92618,NA,NA,372,"PO BOX 511, IRVINE, CA, 92618","No_Match",NA,NA,NA,NA
351373,"PO BOX 511","LE MARS","IA",51031,NA,NA,373,"PO BOX 511, LE MARS, IA, 51031","No_Match",NA,NA,NA,NA
351374,"PO BOX 511","MONTICELLO","IL",61856,NA,NA,374,"PO BOX 511, MONTICELLO, IL, 61856","No_Match",NA,NA,NA,NA
351375,"PO BOX 511","MOUNT GILEAD","OH",43338,NA,NA,375,"PO BOX 511, MOUNT GILEAD, OH, 43338","No_Match",NA,NA,NA,NA
351376,"PO BOX 511","TALLMADGE","OH",44278,NA,NA,376,"PO BOX 511, TALLMADGE, OH, 44278","No_Match",NA,NA,NA,NA
351377,"PO BOX 511","TIFFIN","IA",52340,NA,NA,377,"PO BOX 511, TIFFIN, IA, 52340","No_Match",NA,NA,NA,NA
351378,"PO BOX 511","WAILUKU","HI",96793,NA,NA,378,"PO BOX 511, WAILUKU, HI, 96793","No_Match",NA,NA,NA,NA
351379,"PO BOX 5110","SANTA MARIA","CA",93456,NA,NA,379,"PO BOX 5110, SANTA MARIA, CA, 93456","No_Match",NA,NA,NA,NA
351380,"PO BOX 51100","DURHAM","NC",27717,NA,NA,380,"PO BOX 51100, DURHAM, NC, 27717","No_Match",NA,NA,NA,NA
351381,"PO BOX 51111","FORT MYERS","FL",33994,NA,NA,381,"PO BOX 51111, FORT MYERS, FL, 33994","No_Match",NA,NA,NA,NA
351382,"PO BOX 51116","BILLINGS","MT",59105,NA,NA,382,"PO BOX 51116, BILLINGS, MT, 59105","No_Match",NA,NA,NA,NA
351383,"PO BOX 51121","SPARKS","NV",89435,NA,NA,383,"PO BOX 51121, SPARKS, NV, 89435","No_Match",NA,NA,NA,NA
351384,"PO BOX 511274","SALT LAKE CITY","UT",84151,NA,NA,384,"PO BOX 511274, SALT LAKE CITY, UT, 84151","No_Match",NA,NA,NA,NA
351385,"PO BOX 5113","CORTLAND","NY",13045,NA,NA,385,"PO BOX 5113, CORTLAND, NY, 13045","No_Match",NA,NA,NA,NA
351386,"PO BOX 5113","HUDSON","FL",34674,NA,NA,386,"PO BOX 5113, HUDSON, FL, 34674","No_Match",NA,NA,NA,NA
351387,"PO BOX 5113","SOUTH WILLIAMSPORT","PA",17702,NA,NA,387,"PO BOX 5113, SOUTH WILLIAMSPORT, PA, 17702","No_Match",NA,NA,NA,NA
351388,"PO BOX 51135","COLORADO SPRINGS","CO",80949,NA,NA,388,"PO BOX 51135, COLORADO SPRINGS, CO, 80949","No_Match",NA,NA,NA,NA
351389,"PO BOX 511394","MILWAUKEE","WI",53203,NA,NA,389,"PO BOX 511394, MILWAUKEE, WI, 53203","No_Match",NA,NA,NA,NA
351390,"PO BOX 5114","ENGLEWOOD","CO",80155,NA,NA,390,"PO BOX 5114, ENGLEWOOD, CO, 80155","No_Match",NA,NA,NA,NA
351391,"PO BOX 5114","GRANTS PASS","OR",97527,NA,NA,391,"PO BOX 5114, GRANTS PASS, OR, 97527","No_Match",NA,NA,NA,NA
351392,"PO BOX 5114","OROVILLE","CA",95965,NA,NA,392,"PO BOX 5114, OROVILLE, CA, 95965","No_Match",NA,NA,NA,NA
351393,"PO BOX 511402","MILWAUKEE","WI",53203,NA,NA,393,"PO BOX 511402, MILWAUKEE, WI, 53203","No_Match",NA,NA,NA,NA
351394,"PO BOX 51149","AMARILLO","TX",79159,NA,NA,394,"PO BOX 51149, AMARILLO, TX, 79159","No_Match",NA,NA,NA,NA
351395,"PO BOX 51149","JACKSONVILLE BEACH","FL",32240,NA,NA,395,"PO BOX 51149, JACKSONVILLE BEACH, FL, 32240","No_Match",NA,NA,NA,NA
351396,"PO BOX 5115","FLORENCE","SC",29501,NA,NA,396,"PO BOX 5115, FLORENCE, SC, 29501","No_Match",NA,NA,NA,NA
351397,"PO BOX 5115","RIVERSIDE","CA",92517,NA,NA,397,"PO BOX 5115, RIVERSIDE, CA, 92517","No_Match",NA,NA,NA,NA
351398,"PO BOX 5116","OROVILLE","CA",95966,NA,NA,398,"PO BOX 5116, OROVILLE, CA, 95966","No_Match",NA,NA,NA,NA
351399,"PO BOX 51161","KALAMAZOO","MI",49005,NA,NA,399,"PO BOX 51161, KALAMAZOO, MI, 49005","No_Match",NA,NA,NA,NA
351400,"PO BOX 51164","EUGENE","OR",97405,NA,NA,400,"PO BOX 51164, EUGENE, OR, 97405","No_Match",NA,NA,NA,NA
351401,"PO BOX 511657","GLENDALE","WI",53217,NA,NA,401,"PO BOX 511657, GLENDALE, WI, 53217","No_Match",NA,NA,NA,NA
351402,"PO BOX 51167","SPARKS","NV",89435,NA,NA,402,"PO BOX 51167, SPARKS, NV, 89435","No_Match",NA,NA,NA,NA
351403,"PO BOX 5117","CONWAY","AR",72035,NA,NA,403,"PO BOX 5117, CONWAY, AR, 72035","No_Match",NA,NA,NA,NA
351404,"PO BOX 51196","SARASOTA","FL",34232,NA,NA,404,"PO BOX 51196, SARASOTA, FL, 34232","No_Match",NA,NA,NA,NA
351405,"PO BOX 51198","BILLINGS","MT",59105,NA,NA,405,"PO BOX 51198, BILLINGS, MT, 59105","No_Match",NA,NA,NA,NA
351406,"PO BOX 512","ALEXIS","IL",61412,NA,NA,406,"PO BOX 512, ALEXIS, IL, 61412","No_Match",NA,NA,NA,NA
351407,"PO BOX 512","ARROYO HONDO","NM",87513,NA,NA,407,"PO BOX 512, ARROYO HONDO, NM, 87513","No_Match",NA,NA,NA,NA
351408,"PO BOX 512","BARRE","MA",1005,NA,NA,408,"PO BOX 512, BARRE, MA, 1005","No_Match",NA,NA,NA,NA
351409,"PO BOX 512","CASPER","WY",82602,NA,NA,409,"PO BOX 512, CASPER, WY, 82602","No_Match",NA,NA,NA,NA
351410,"PO BOX 512","CLARENCE","NY",14031,NA,NA,410,"PO BOX 512, CLARENCE, NY, 14031","No_Match",NA,NA,NA,NA
351411,"PO BOX 512","COEUR DALENE","ID",83816,NA,NA,411,"PO BOX 512, COEUR DALENE, ID, 83816","No_Match",NA,NA,NA,NA
351412,"PO BOX 512","COTUIT","MA",2635,NA,NA,412,"PO BOX 512, COTUIT, MA, 2635","No_Match",NA,NA,NA,NA
351413,"PO BOX 512","ENGLEWOOD","FL",34295,NA,NA,413,"PO BOX 512, ENGLEWOOD, FL, 34295","No_Match",NA,NA,NA,NA
351414,"PO BOX 512","GRIMES","IA",50111,NA,NA,414,"PO BOX 512, GRIMES, IA, 50111","No_Match",NA,NA,NA,NA
351415,"PO BOX 512","HINGHAM","MA",2043,NA,NA,415,"PO BOX 512, HINGHAM, MA, 2043","No_Match",NA,NA,NA,NA
351416,"PO BOX 512","LONG BEACH","WA",98631,NA,NA,416,"PO BOX 512, LONG BEACH, WA, 98631","No_Match",NA,NA,NA,NA
351417,"PO BOX 512","LOS ALAMITOS","CA",90720,NA,NA,417,"PO BOX 512, LOS ALAMITOS, CA, 90720","No_Match",NA,NA,NA,NA
351418,"PO BOX 512","MONTROSE","AL",36559,NA,NA,418,"PO BOX 512, MONTROSE, AL, 36559","No_Match",NA,NA,NA,NA
351419,"PO BOX 512","NIXA","MO",65714,NA,NA,419,"PO BOX 512, NIXA, MO, 65714","No_Match",NA,NA,NA,NA
351420,"PO BOX 512","NORTH CHICAGO","IL",60064,NA,NA,420,"PO BOX 512, NORTH CHICAGO, IL, 60064","No_Match",NA,NA,NA,NA
351421,"PO BOX 512","ORANGEBURG","SC",29116,NA,NA,421,"PO BOX 512, ORANGEBURG, SC, 29116","No_Match",NA,NA,NA,NA
351422,"PO BOX 512","SCOTTSBURG","IN",47170,NA,NA,422,"PO BOX 512, SCOTTSBURG, IN, 47170","No_Match",NA,NA,NA,NA
351423,"PO BOX 512","SUMMERTON","SC",29148,NA,NA,423,"PO BOX 512, SUMMERTON, SC, 29148","No_Match",NA,NA,NA,NA
351424,"PO BOX 512","TREYNOR","IA",51575,NA,NA,424,"PO BOX 512, TREYNOR, IA, 51575","No_Match",NA,NA,NA,NA
351425,"PO BOX 51202","PIEDMONT","SC",29673,NA,NA,425,"PO BOX 51202, PIEDMONT, SC, 29673","No_Match",NA,NA,NA,NA
351426,"PO BOX 51209","PHOENIX","AZ",85076,NA,NA,426,"PO BOX 51209, PHOENIX, AZ, 85076","No_Match",NA,NA,NA,NA
351427,"PO BOX 5121","SCOTTSDALE","AZ",85260,NA,NA,427,"PO BOX 5121, SCOTTSDALE, AZ, 85260","No_Match",NA,NA,NA,NA
351428,"PO BOX 51212","SPARKS","NV",89435,NA,NA,428,"PO BOX 51212, SPARKS, NV, 89435","No_Match",NA,NA,NA,NA
351429,"PO BOX 51213","ELEELE","HI",96705,NA,NA,429,"PO BOX 51213, ELEELE, HI, 96705","No_Match",NA,NA,NA,NA
351430,"PO BOX 512138","PUNTA GORDA","FL",33951,NA,NA,430,"PO BOX 512138, PUNTA GORDA, FL, 33951","No_Match",NA,NA,NA,NA
351431,"PO BOX 5122","HILLSIDE","NJ",7205,NA,NA,431,"PO BOX 5122, HILLSIDE, NJ, 7205","No_Match",NA,NA,NA,NA
351432,"PO BOX 5123","GRANBURY","TX",76049,NA,NA,432,"PO BOX 5123, GRANBURY, TX, 76049","No_Match",NA,NA,NA,NA
351433,"PO BOX 5123","NAPERVILLE","IL",60567,NA,NA,433,"PO BOX 5123, NAPERVILLE, IL, 60567","No_Match",NA,NA,NA,NA
351434,"PO BOX 5124","NORTH BRANCH","NJ",8876,NA,NA,434,"PO BOX 5124, NORTH BRANCH, NJ, 8876","No_Match",NA,NA,NA,NA
351435,"PO BOX 51243","EUGENE","OR",97405,NA,NA,435,"PO BOX 51243, EUGENE, OR, 97405","No_Match",NA,NA,NA,NA
351436,"PO BOX 51248","DURHAM","NC",27717,NA,NA,436,"PO BOX 51248, DURHAM, NC, 27717","No_Match",NA,NA,NA,NA
351437,"PO BOX 5125","FITZGERALD","GA",31750,NA,NA,437,"PO BOX 5125, FITZGERALD, GA, 31750","No_Match",NA,NA,NA,NA
351438,"PO BOX 51251","SARASOTA","FL",34232,NA,NA,438,"PO BOX 51251, SARASOTA, FL, 34232","No_Match",NA,NA,NA,NA
351439,"PO BOX 512553","PUNTA GORDA","FL",33951,NA,NA,439,"PO BOX 512553, PUNTA GORDA, FL, 33951","No_Match",NA,NA,NA,NA
351440,"PO BOX 5126","ASHEVILLE","NC",28813,NA,NA,440,"PO BOX 5126, ASHEVILLE, NC, 28813","No_Match",NA,NA,NA,NA
351441,"PO BOX 5126","UPPER MARLBORO","MD",20775,NA,NA,441,"PO BOX 5126, UPPER MARLBORO, MD, 20775","No_Match",NA,NA,NA,NA
351442,"PO BOX 51261","COLORADO SPRINGS","CO",80949,NA,NA,442,"PO BOX 51261, COLORADO SPRINGS, CO, 80949","No_Match",NA,NA,NA,NA
351443,"PO BOX 51266","EUGENE","OR",97405,NA,NA,443,"PO BOX 51266, EUGENE, OR, 97405","No_Match",NA,NA,NA,NA
351444,"PO BOX 5127","KINGSHILL","VI",851,NA,NA,444,"PO BOX 5127, KINGSHILL, VI, 851","No_Match",NA,NA,NA,NA
351445,"PO BOX 5128","SNOWMASS VILLAGE","CO",81615,NA,NA,445,"PO BOX 5128, SNOWMASS VILLAGE, CO, 81615","No_Match",NA,NA,NA,NA
351446,"PO BOX 51288","DENTON","TX",76205,NA,NA,446,"PO BOX 51288, DENTON, TX, 76205","No_Match",NA,NA,NA,NA
351447,"PO BOX 513","AVERILL PARK","NY",12018,NA,NA,447,"PO BOX 513, AVERILL PARK, NY, 12018","No_Match",NA,NA,NA,NA
351448,"PO BOX 513","BRATTLEBORO","VT",5302,NA,NA,448,"PO BOX 513, BRATTLEBORO, VT, 5302","No_Match",NA,NA,NA,NA
351449,"PO BOX 513","DENHAM SPRINGS","LA",70727,NA,NA,449,"PO BOX 513, DENHAM SPRINGS, LA, 70727","No_Match",NA,NA,NA,NA
351450,"PO BOX 513","FINLAND","MN",55603,NA,NA,450,"PO BOX 513, FINLAND, MN, 55603","No_Match",NA,NA,NA,NA
351451,"PO BOX 513","HOOLEHUA","HI",96729,NA,NA,451,"PO BOX 513, HOOLEHUA, HI, 96729","No_Match",NA,NA,NA,NA
351452,"PO BOX 513","LELAND","NC",28451,NA,NA,452,"PO BOX 513, LELAND, NC, 28451","No_Match",NA,NA,NA,NA
351453,"PO BOX 513","LUTZ","FL",33549,NA,NA,453,"PO BOX 513, LUTZ, FL, 33549","No_Match",NA,NA,NA,NA
351454,"PO BOX 513","LYNWOOD","CA",90262,NA,NA,454,"PO BOX 513, LYNWOOD, CA, 90262","No_Match",NA,NA,NA,NA
351455,"PO BOX 513","MISSION","KS",66201,NA,NA,455,"PO BOX 513, MISSION, KS, 66201","No_Match",NA,NA,NA,NA
351456,"PO BOX 513","MOUNT VERNON","MO",65712,NA,NA,456,"PO BOX 513, MOUNT VERNON, MO, 65712","No_Match",NA,NA,NA,NA
351457,"PO BOX 513","PHILADELPHIA","NY",13673,NA,NA,457,"PO BOX 513, PHILADELPHIA, NY, 13673","No_Match",NA,NA,NA,NA
351458,"PO BOX 513","PORTLAND","ME",4112,NA,NA,458,"PO BOX 513, PORTLAND, ME, 4112","No_Match",NA,NA,NA,NA
351459,"PO BOX 513","POTOSI","MO",63664,NA,NA,459,"PO BOX 513, POTOSI, MO, 63664","No_Match",NA,NA,NA,NA
351460,"PO BOX 513","POWDERLY","KY",42367,NA,NA,460,"PO BOX 513, POWDERLY, KY, 42367","No_Match",NA,NA,NA,NA
351461,"PO BOX 513","RANCHO SANTA FE","CA",92067,NA,NA,461,"PO BOX 513, RANCHO SANTA FE, CA, 92067","No_Match",NA,NA,NA,NA
351462,"PO BOX 513","SANDISFIELD","MA",1255,NA,NA,462,"PO BOX 513, SANDISFIELD, MA, 1255","No_Match",NA,NA,NA,NA
351463,"PO BOX 513","SCOTTSDALE","AZ",85252,NA,NA,463,"PO BOX 513, SCOTTSDALE, AZ, 85252","No_Match",NA,NA,NA,NA
351464,"PO BOX 513","SEASIDE","OR",97138,NA,NA,464,"PO BOX 513, SEASIDE, OR, 97138","No_Match",NA,NA,NA,NA
351465,"PO BOX 513","SILOAM SPRINGS","AR",72761,NA,NA,465,"PO BOX 513, SILOAM SPRINGS, AR, 72761","No_Match",NA,NA,NA,NA
351466,"PO BOX 513","SUN PRAIRIE","WI",53590,NA,NA,466,"PO BOX 513, SUN PRAIRIE, WI, 53590","No_Match",NA,NA,NA,NA
351467,"PO BOX 513","TUCSON","AZ",85741,NA,NA,467,"PO BOX 513, TUCSON, AZ, 85741","No_Match",NA,NA,NA,NA
351468,"PO BOX 513","WARRENTON","MO",63383,NA,NA,468,"PO BOX 513, WARRENTON, MO, 63383","No_Match",NA,NA,NA,NA
351469,"PO BOX 513","WENDELL","ID",83355,NA,NA,469,"PO BOX 513, WENDELL, ID, 83355","No_Match",NA,NA,NA,NA
351470,"PO BOX 513","WINTER PARK","CO",80482,NA,NA,470,"PO BOX 513, WINTER PARK, CO, 80482","No_Match",NA,NA,NA,NA
351471,"PO BOX 513","WINTHROP","WA",98862,NA,NA,471,"PO BOX 513, WINTHROP, WA, 98862","No_Match",NA,NA,NA,NA
351472,"PO BOX 51304","DENTON","TX",76206,NA,NA,472,"PO BOX 51304, DENTON, TX, 76206","No_Match",NA,NA,NA,NA
351473,"PO BOX 5131","ALAMEDA","CA",94501,NA,NA,473,"PO BOX 5131, ALAMEDA, CA, 94501","No_Match",NA,NA,NA,NA
351474,"PO BOX 5132","MADISON","WI",53705,NA,NA,474,"PO BOX 5132, MADISON, WI, 53705","No_Match",NA,NA,NA,NA
351475,"PO BOX 5132","PASADENA","TX",77508,NA,NA,475,"PO BOX 5132, PASADENA, TX, 77508","No_Match",NA,NA,NA,NA
351476,"PO BOX 5132","RENO","NV",89513,NA,NA,476,"PO BOX 5132, RENO, NV, 89513","No_Match",NA,NA,NA,NA
351477,"PO BOX 5132","VANCLEAVE","MS",39565,NA,NA,477,"PO BOX 5132, VANCLEAVE, MS, 39565","No_Match",NA,NA,NA,NA
351478,"PO BOX 51323","DURHAM","NC",27717,NA,NA,478,"PO BOX 51323, DURHAM, NC, 27717","No_Match",NA,NA,NA,NA
351479,"PO BOX 51337","WASHINGTON","DC",20091,NA,NA,479,"PO BOX 51337, WASHINGTON, DC, 20091","No_Match",NA,NA,NA,NA
351480,"PO BOX 5134","PARRIS ISLAND","SC",29905,NA,NA,480,"PO BOX 5134, PARRIS ISLAND, SC, 29905","No_Match",NA,NA,NA,NA
351481,"PO BOX 51383","LIVONIA","MI",48151,NA,NA,481,"PO BOX 51383, LIVONIA, MI, 48151","No_Match",NA,NA,NA,NA
351482,"PO BOX 51386","SUMMERVILLE","SC",29485,NA,NA,482,"PO BOX 51386, SUMMERVILLE, SC, 29485","No_Match",NA,NA,NA,NA
351483,"PO BOX 51396","PACIFIC GROVE","CA",93950,NA,NA,483,"PO BOX 51396, PACIFIC GROVE, CA, 93950","No_Match",NA,NA,NA,NA
351484,"PO BOX 514","AMSTERDAM","NY",12010,NA,NA,484,"PO BOX 514, AMSTERDAM, NY, 12010","No_Match",NA,NA,NA,NA
351485,"PO BOX 514","ANAHOLA","HI",96703,NA,NA,485,"PO BOX 514, ANAHOLA, HI, 96703","No_Match",NA,NA,NA,NA
351486,"PO BOX 514","BELTON","SC",29627,NA,NA,486,"PO BOX 514, BELTON, SC, 29627","No_Match",NA,NA,NA,NA
351487,"PO BOX 514","BEMIDJI","MN",56619,NA,NA,487,"PO BOX 514, BEMIDJI, MN, 56619","No_Match",NA,NA,NA,NA
351488,"PO BOX 514","DETROIT LAKES","MN",56502,NA,NA,488,"PO BOX 514, DETROIT LAKES, MN, 56502","No_Match",NA,NA,NA,NA
351489,"PO BOX 514","FOREST PARK","IL",60130,NA,NA,489,"PO BOX 514, FOREST PARK, IL, 60130","No_Match",NA,NA,NA,NA
351490,"PO BOX 514","FREELAND","MI",48623,NA,NA,490,"PO BOX 514, FREELAND, MI, 48623","No_Match",NA,NA,NA,NA
351491,"PO BOX 514","GAINESVILLE","TX",76241,NA,NA,491,"PO BOX 514, GAINESVILLE, TX, 76241","No_Match",NA,NA,NA,NA
351492,"PO BOX 514","HARTFORD","CT",6141,NA,NA,492,"PO BOX 514, HARTFORD, CT, 6141","No_Match",NA,NA,NA,NA
351493,"PO BOX 514","KAPAAU","HI",96755,NA,NA,493,"PO BOX 514, KAPAAU, HI, 96755","No_Match",NA,NA,NA,NA
351494,"PO BOX 514","LINTHICUM","MD",21090,NA,NA,494,"PO BOX 514, LINTHICUM, MD, 21090","No_Match",NA,NA,NA,NA
351495,"PO BOX 514","LOUDON","TN",37774,NA,NA,495,"PO BOX 514, LOUDON, TN, 37774","No_Match",NA,NA,NA,NA
351496,"PO BOX 514","MALTA","MT",59538,NA,NA,496,"PO BOX 514, MALTA, MT, 59538","No_Match",NA,NA,NA,NA
351497,"PO BOX 514","MARBLE FALLS","TX",78654,NA,NA,497,"PO BOX 514, MARBLE FALLS, TX, 78654","No_Match",NA,NA,NA,NA
351498,"PO BOX 514","NANUET","NY",10954,NA,NA,498,"PO BOX 514, NANUET, NY, 10954","No_Match",NA,NA,NA,NA
351499,"PO BOX 514","NEWPORT","WA",99156,NA,NA,499,"PO BOX 514, NEWPORT, WA, 99156","No_Match",NA,NA,NA,NA
351500,"PO BOX 514","PHILOMATH","OR",97370,NA,NA,500,"PO BOX 514, PHILOMATH, OR, 97370","No_Match",NA,NA,NA,NA
