"ID","Address","City","State","Zip","lat","long","id","input_address","match_indicator","match_type","matched_address","tiger_line_id","tiger_side"
54001,"1360 EAST 600 NORTH","BOUNTIFUL","UT",84010,40.895440896,-111.851816894,1,"1360 EAST 600 NORTH, BOUNTIFUL, UT, 84010","Match","Exact","1360 E 600 N, BOUNTIFUL, UT, 84010",229353408,"R"
54002,"1360 EAST 9TH STREET  SUITE 500","CLEVELAND","OH",44114,41.503636068,-81.689753764,2,"1360 EAST 9TH STREET  SUITE 500, CLEVELAND, OH, 44114","Match","Exact","1360 E 9TH ST, CLEVELAND, OH, 44114",61148120,"R"
54003,"1360 ELKRIDGE LANE","ALPINE","UT",84004,40.4709168810001,-111.768959232,3,"1360 ELKRIDGE LANE, ALPINE, UT, 84004","Match","Exact","1360 ELKRIDGE LN, ALPINE, UT, 84004",614670966,"R"
54004,"1360 FARRINGTON ST","ST PAUL","MN",55117,44.9821572320001,-93.113606336,4,"1360 FARRINGTON ST, ST PAUL, MN, 55117","Match","Exact","1360 FARRINGTON ST, SAINT PAUL, MN, 55117",97661384,"R"
54005,"1360 FULTON ST BOX 472913","BROOKLYN","NY",11247,40.6802119060001,-73.9463110949999,5,"1360 FULTON ST BOX 472913, BROOKLYN, NY, 11247","Match","Non_Exact","1360 FULTON ST, BROOKLYN, NY, 11216",59078932,"R"
54006,"1360 GREEN BAY ST","SAN DIEGO","CA",92154,32.571874504,-117.088381094,6,"1360 GREEN BAY ST, SAN DIEGO, CA, 92154","Match","Exact","1360 GREEN BAY ST, SAN DIEGO, CA, 92154",195357864,"R"
54007,"1360 HARBIN ROAD SW","ATLANTA","GA",30311,33.7188515880001,-84.4838598159999,7,"1360 HARBIN ROAD SW, ATLANTA, GA, 30311","Match","Exact","1360 HARBIN RD SW, ATLANTA, GA, 30311",17337517,"L"
54008,"1360 IRWINTON RD APT 6","MILLEDGEVILLE","GA",31061,33.0625170480001,-83.2255410449999,8,"1360 IRWINTON RD APT 6, MILLEDGEVILLE, GA, 31061","Match","Exact","1360 IRWINTON RD, MILLEDGEVILLE, GA, 31061",16583216,"R"
54009,"1360 LA FRANCE ST UNIT 101","ATLANTA","GA",30307,NA,NA,9,"1360 LA FRANCE ST UNIT 101, ATLANTA, GA, 30307","No_Match",NA,NA,NA,NA
54010,"1360 LAKE LOTELA DRIVE","AVON PARK","FL",33825,27.568563763,-81.4738318249999,10,"1360 LAKE LOTELA DRIVE, AVON PARK, FL, 33825","Match","Exact","1360 LAKE LOTELA DR, AVON PARK, FL, 33825",4631500,"L"
54011,"1360 MAIN STREET","GLASTONBURY","CT",6033,41.68195681,-72.599901796,11,"1360 MAIN STREET, GLASTONBURY, CT, 6033","Match","Exact","1360 MAIN ST, GLASTONBURY, CT, 06033",636265778,"L"
54012,"1360 MAPLE GROVE CIRCLE","NEW FRANKLIN","OH",44216,40.9467909320001,-81.583628285,12,"1360 MAPLE GROVE CIRCLE, NEW FRANKLIN, OH, 44216","Match","Exact","1360 MAPLE GROVE CIR, NEW FRANKLIN, OH, 44216",61389317,"L"
54013,"1360 N DEARBORN PARKWAY","CHICAGO","IL",60610,41.9071592600001,-87.630089637,13,"1360 N DEARBORN PARKWAY, CHICAGO, IL, 60610","Match","Exact","1360 N DEARBORN PKWY, CHICAGO, IL, 60610",611644673,"L"
54014,"1360 N DESOTO ST","CHANDLER","AZ",85224,33.3266133170001,-111.89186422,14,"1360 N DESOTO ST, CHANDLER, AZ, 85224","Match","Exact","1360 N DESOTO ST, CHANDLER, AZ, 85224",128326972,"R"
54015,"1360 N NEILS HANSEN LANE","LAKESIDE","AZ",85929,34.1529550380001,-109.976745561,15,"1360 N NEILS HANSEN LANE, LAKESIDE, AZ, 85929","Match","Non_Exact","1360 N NIELS HANSEN LN, LAKESIDE, AZ, 85929",172587611,"L"
54016,"1360 NEAHKAHNIE ST SE","SALEM","OR",97306,44.860254582,-123.028350396,16,"1360 NEAHKAHNIE ST SE, SALEM, OR, 97306","Match","Exact","1360 NEAHKAHNIE ST SE, SALEM, OR, 97306",156251755,"R"
54017,"1360 OCEAN PARKWAY","BROOKLYN","NY",11230,40.615562459,-73.969117721,17,"1360 OCEAN PARKWAY, BROOKLYN, NY, 11230","Match","Exact","1360 OCEAN PKWY, BROOKLYN, NY, 11230",640848345,"R"
54018,"1360 OGDEN AVENUE APT 3F","BRONX","NY",10452,40.8415721910001,-73.9247833219999,18,"1360 OGDEN AVENUE APT 3F, BRONX, NY, 10452","Match","Exact","1360 OGDEN AVE, BRONX, NY, 10452",80299406,"R"
54019,"1360 OLD WHITE OAK RD","DOVER","DE",19901,NA,NA,19,"1360 OLD WHITE OAK RD, DOVER, DE, 19901","Tie",NA,NA,NA,NA
54020,"1360 OVERLEA STREET","CLEARWATER","FL",33755,27.9795094040001,-82.780704794,20,"1360 OVERLEA STREET, CLEARWATER, FL, 33755","Match","Exact","1360 OVERLEA ST, CLEARWATER, FL, 33755",124667996,"L"
54021,"1360 PLUM VALLEY DRIVE","FRISCO","TX",75033,33.194710081,-96.878854437,21,"1360 PLUM VALLEY DRIVE, FRISCO, TX, 75033","Match","Exact","1360 PLUM VALLEY DR, FRISCO, TX, 75033",615048299,"L"
54022,"1360 PORTOLA DRIVE","SAN FRANCISCO","CA",94127,37.73984377,-122.465016335,22,"1360 PORTOLA DRIVE, SAN FRANCISCO, CA, 94127","Match","Exact","1360 PORTOLA DR, SAN FRANCISCO, CA, 94127",192299914,"R"
54023,"1360 POWERS FERRY RD STE A100","MARIETTA","GA",30067,33.9191072620001,-84.467045605,23,"1360 POWERS FERRY RD STE A100, MARIETTA, GA, 30067","Match","Exact","1360 POWERS FERRY RD, MARIETTA, GA, 30067",17253996,"R"
54024,"1360 REGENT ST SUITE 162","MADISON","WI",53715,43.0677489650001,-89.408306089,24,"1360 REGENT ST SUITE 162, MADISON, WI, 53715","Match","Exact","1360 REGENT ST, MADISON, WI, 53715",49469298,"R"
54025,"1360 ROSE STREET","BERKELEY","CA",94702,37.877630492,-122.286300182,25,"1360 ROSE STREET, BERKELEY, CA, 94702","Match","Exact","1360 ROSE ST, BERKELEY, CA, 94702",606280477,"R"
54026,"1360 S 5TH STREET SUITE 340","ST CHARLES","MO",63301,NA,NA,26,"1360 S 5TH STREET SUITE 340, ST CHARLES, MO, 63301","Tie",NA,NA,NA,NA
54027,"1360 S 5TH STREET","ST CHARLES","MO",63301,38.771176688,-90.4928008799999,27,"1360 S 5TH STREET, ST CHARLES, MO, 63301","Match","Exact","1360 S 5TH ST, SAINT CHARLES, MO, 63301",605573299,"L"
54028,"1360 S BOULDER HIGHWAY","HENDERSON","NH",89015,NA,NA,28,"1360 S BOULDER HIGHWAY, HENDERSON, NH, 89015","No_Match",NA,NA,NA,NA
54029,"1360 S BOULDER HIGHWAY","HENDERSON","NV",89015,36.0156942620001,-114.955010672,29,"1360 S BOULDER HIGHWAY, HENDERSON, NV, 89015","Match","Exact","1360 S BOULDER HWY, HENDERSON, NV, 89015",640234337,"L"
54030,"1360 S CAMELLIA COURT","CHANDLER","AZ",85286,33.286009327,-111.852361616,30,"1360 S CAMELLIA COURT, CHANDLER, AZ, 85286","Match","Exact","1360 S CAMELLIA CT, CHANDLER, AZ, 85286",128872297,"L"
54031,"1360 S DIXIE HIGHWAY   SUITE 100","CORAL GABLES","FL",33146,25.7125556760001,-80.279313558,31,"1360 S DIXIE HIGHWAY   SUITE 100, CORAL GABLES, FL, 33146","Match","Non_Exact","1360 S DIXIE HWY, CORAL GABLES, FL, 33146",116013565,"L"
54032,"1360 S FIGUEROA ST STE 362","LOS ANGELES","CA",90015,34.039600653,-118.268689707,32,"1360 S FIGUEROA ST STE 362, LOS ANGELES, CA, 90015","Match","Non_Exact","1360 S FIGUEROA ST, LOS ANGELES, CA, 90015",142457487,"L"
54033,"1360 S FIGUEROA STREET SUITE D 393","LOS ANGELES","CA",90015,34.039600653,-118.268689707,33,"1360 S FIGUEROA STREET SUITE D 393, LOS ANGELES, CA, 90015","Match","Non_Exact","1360 S FIGUEROA ST, LOS ANGELES, CA, 90015",142457487,"L"
54034,"1360 S KANSAS","WICHITA","KS",67211,37.6713729430001,-97.3150370279999,34,"1360 S KANSAS, WICHITA, KS, 67211","Match","Exact","1360 KANSAS, WICHITA, KS, 67211",115647044,"R"
54035,"1360 S YUCCA PL","CHANDLER","AZ",85286,33.2852884160001,-111.875516806,35,"1360 S YUCCA PL, CHANDLER, AZ, 85286","Match","Exact","1360 S YUCCA PL, CHANDLER, AZ, 85286",128369487,"R"
54036,"1360 SEARS ROAD","LABELLE","FL",33935,26.6464951130001,-81.415303853,36,"1360 SEARS ROAD, LABELLE, FL, 33935","Match","Exact","1360 SEARS RD, LABELLE, FL, 33935",651751464,"L"
54037,"1360 SOUTH  FIGUEROA ST - SUITE D","LOS ANGELES","CA",90015,34.0396038310001,-118.268687679,37,"1360 SOUTH  FIGUEROA ST - SUITE D, LOS ANGELES, CA, 90015","Match","Exact","1360 S FIGUEROA ST, LOS ANGELES, CA, 90015",142457487,"L"
54038,"1360 SOUTH LAUREL ST","METAIRIE","LA",70003,29.975565998,-90.2183057349999,38,"1360 SOUTH LAUREL ST, METAIRIE, LA, 70003","Match","Exact","1360 S LAUREL ST, METAIRIE, LA, 70003",93496308,"L"
54039,"1360 STAR CT - STE 317","PLANO","TX",75074,NA,NA,39,"1360 STAR CT - STE 317, PLANO, TX, 75074","No_Match",NA,NA,NA,NA
54040,"1360 SUNDIAL DRIVE","RESTON","VA",20194,38.981663692,-77.3386685359999,40,"1360 SUNDIAL DRIVE, RESTON, VA, 20194","Match","Exact","1360 SUNDIAL DR, RESTON, VA, 20194",76023220,"R"
54041,"1360 SUNNY RIDGE ROAD","MOHEGAN LAKE","NY",10547,41.319479137,-73.8378827449999,41,"1360 SUNNY RIDGE ROAD, MOHEGAN LAKE, NY, 10547","Match","Exact","1360 SUNNY RIDGE RD, MOHEGAN LAKE, NY, 10547",139771885,"R"
54042,"1360 TANYARD RD","SEWELL","NJ",8080,39.791391312,-75.125433691,42,"1360 TANYARD RD, SEWELL, NJ, 8080","Match","Exact","1360 TANYARD RD, SEWELL, NJ, 08080",648266885,"L"
54043,"1360 TURNPIKE ST","STOUGHTON","MA",2072,42.143225697,-71.076370195,43,"1360 TURNPIKE ST, STOUGHTON, MA, 2072","Match","Exact","1360 TURNPIKE ST, STOUGHTON, MA, 02072",87302978,"L"
54044,"1360 UMPQUA RD","WOODBURN","OR",97071,45.1521347120001,-122.865435799,44,"1360 UMPQUA RD, WOODBURN, OR, 97071","Match","Exact","1360 UMPQUA RD, WOODBURN, OR, 97071",156240521,"L"
54045,"1360 UNIVERSITY AVE W BOX 104-420","ST PAUL","MN",55104,44.9556946110001,-93.157738695,45,"1360 UNIVERSITY AVE W BOX 104-420, ST PAUL, MN, 55104","Match","Exact","1360 UNIVERSITY AVE W, SAINT PAUL, MN, 55104",97641629,"L"
54046,"1360 UNIVERSITY AVE W NUMBER 432","ST. PAUL","MN",55104,44.9556946110001,-93.157738695,46,"1360 UNIVERSITY AVE W NUMBER 432, ST. PAUL, MN, 55104","Match","Exact","1360 UNIVERSITY AVE W, SAINT PAUL, MN, 55104",97641629,"L"
54047,"1360 UNIVERSITY AVE W STE 104","SAINT PAUL","MN",55104,44.9556946110001,-93.157738695,47,"1360 UNIVERSITY AVE W STE 104, SAINT PAUL, MN, 55104","Match","Exact","1360 UNIVERSITY AVE W, SAINT PAUL, MN, 55104",97641629,"L"
54048,"1360 UNIVERSITY AVE W SUITE 185","SAINT PAUL","MN",55104,44.9556946110001,-93.157738695,48,"1360 UNIVERSITY AVE W SUITE 185, SAINT PAUL, MN, 55104","Match","Exact","1360 UNIVERSITY AVE W, SAINT PAUL, MN, 55104",97641629,"L"
54049,"1360 UNIVERSITY AVE W UNIT 161","SAINT PAUL","MN",55104,44.9556946110001,-93.157738695,49,"1360 UNIVERSITY AVE W UNIT 161, SAINT PAUL, MN, 55104","Match","Exact","1360 UNIVERSITY AVE W, SAINT PAUL, MN, 55104",97641629,"L"
54050,"1360 UNIVERSITY AVENUE W  STE 375","SAINT PAUL","MN",55104,44.9556946110001,-93.157738695,50,"1360 UNIVERSITY AVENUE W  STE 375, SAINT PAUL, MN, 55104","Match","Exact","1360 UNIVERSITY AVE W, SAINT PAUL, MN, 55104",97641629,"L"
54051,"1360 VALLEY VISTA DRIVE SUITE 136","DIAMOND BAR","CA",91765,33.9985182120001,-117.835732904,51,"1360 VALLEY VISTA DRIVE SUITE 136, DIAMOND BAR, CA, 91765","Match","Exact","1360 VALLEY VISTA DR, DIAMOND BAR, CA, 91765",142843486,"L"
54052,"1360 W 139TH ST UNIT F","GARDENA","CA",90247,33.9055389000001,-118.299591277,52,"1360 W 139TH ST UNIT F, GARDENA, CA, 90247","Match","Non_Exact","1360 W 139TH ST, GARDENA, CA, 90247",142754437,"L"
54053,"1360 W HARVARD AVENUE","ROSEBURG","OR",97471,43.214159018,-123.36448941,53,"1360 W HARVARD AVENUE, ROSEBURG, OR, 97471","Match","Exact","1360 W HARVARD AVE, ROSEBURG, OR, 97471",137187394,"L"
54054,"1360 WHITE HILL RD","YORKTOWN HEIGHTS","NY",10598,41.279460848,-73.827312464,54,"1360 WHITE HILL RD, YORKTOWN HEIGHTS, NY, 10598","Match","Exact","1360 WHITE HILL RD, YORKTOWN HEIGHTS, NY, 10598",139847945,"L"
54055,"1360 WHITEHILL ROAD","YORKTOWN HEIGHTS","NY",10598,41.279460848,-73.827312464,55,"1360 WHITEHILL ROAD, YORKTOWN HEIGHTS, NY, 10598","Match","Non_Exact","1360 WHITE HILL RD, YORKTOWN HEIGHTS, NY, 10598",139847945,"L"
54056,"1360 WILLIAMS STREET UNIT 307","DENVER","CO",80218,39.7377627750001,-104.965988854,56,"1360 WILLIAMS STREET UNIT 307, DENVER, CO, 80218","Match","Exact","1360 WILLIAMS ST, DENVER, CO, 80218",177306165,"R"
54057,"1360 WOODBINE ST","CLEARWATER","FL",33755,27.9811384280001,-82.780714572,57,"1360 WOODBINE ST, CLEARWATER, FL, 33755","Match","Exact","1360 WOODBINE ST, CLEARWATER, FL, 33755",124667466,"L"
54058,"13600 DAISY CIRCLE","FORT MEADE","MD",20755,NA,NA,58,"13600 DAISY CIRCLE, FORT MEADE, MD, 20755","No_Match",NA,NA,NA,NA
54059,"13600 KINGSMAN RD","DALE CITY","VA",22193,38.6586213,-77.3448722799999,59,"13600 KINGSMAN RD, DALE CITY, VA, 22193","Match","Exact","13600 KINGSMAN RD, DALE CITY, VA, 22193",651748565,"R"
54060,"13600 MICA AVE","VICTORVILLE","CA",92392,34.478390657,-117.366250576,60,"13600 MICA AVE, VICTORVILLE, CA, 92392","Match","Exact","13600 MICA AVE, VICTORVILLE, CA, 92392",144746779,"L"
54061,"13600 NAVAJO STREET","BROOMFIELD","CO",80023,39.943931379,-105.004200064,61,"13600 NAVAJO STREET, BROOMFIELD, CO, 80023","Match","Exact","13600 NAVAJO ST, BROOMFIELD, CO, 80023",641288166,"L"
54062,"13600 PAWNEE RD BLDG 7","APPLE VALLEY","CA",92308,34.4986417960001,-117.186412609,62,"13600 PAWNEE RD BLDG 7, APPLE VALLEY, CA, 92308","Match","Exact","13600 PAWNEE RD, APPLE VALLEY, CA, 92308",144750872,"L"
54063,"13600 PRAIRIE AVE","HAWTHORNE","CA",90250,33.908558988,-118.343833741,63,"13600 PRAIRIE AVE, HAWTHORNE, CA, 90250","Match","Exact","13600 PRAIRIE AVE, HAWTHORNE, CA, 90250",141657393,"L"
54064,"13600 W 8 MILE","OAK PARK","MI",48237,42.445491497,-83.181130969,64,"13600 W 8 MILE, OAK PARK, MI, 48237","Match","Non_Exact","13600 W 8 MILE RD, OAK PARK, MI, 48237",69839546,"L"
54065,"13601 32ND AVE S","TUKWILA","WA",98168,47.481527364,-122.291790142,65,"13601 32ND AVE S, TUKWILA, WA, 98168","Match","Exact","13601 32ND AVE S, TUKWILA, WA, 98168",239765765,"R"
54066,"13601 ALE HOUSE CIR  201","GERMANTOWN","MD",20874,39.1586058930001,-77.284301657,66,"13601 ALE HOUSE CIR  201, GERMANTOWN, MD, 20874","Match","Exact","13601 ALE HOUSE CIR, GERMANTOWN, MD, 20874",648056987,"R"
54067,"13601 ILLINOIS ST","WESTMINSTER","CA",92683,33.765146735,-118.001624843,67,"13601 ILLINOIS ST, WESTMINSTER, CA, 92683","Match","Exact","13601 ILLINOIS ST, WESTMINSTER, CA, 92683",144004683,"R"
54068,"13601 LONGVIEW DRIVE","HOMER GLEN","IL",60491,41.639525797,-87.990909215,68,"13601 LONGVIEW DRIVE, HOMER GLEN, IL, 60491","Match","Exact","13601 LONGVIEW DR, HOMER GLEN, IL, 60491",111554260,"R"
54069,"13601 OLD HICKORY BLVD","CANE RDIGE","TN",37013,36.0009418500001,-86.6425398649999,69,"13601 OLD HICKORY BLVD, CANE RDIGE, TN, 37013","Match","Non_Exact","13601 OLD HICKORY BLVD, CANE RIDGE, TN, 37013",650620054,"L"
54070,"13601 PARAISO RD","OCEAN SPRINGS","MS",39564,30.438976892,-88.8374110239999,70,"13601 PARAISO RD, OCEAN SPRINGS, MS, 39564","Match","Exact","13601 PARAISO RD, OCEAN SPRINGS, MS, 39564",642488202,"R"
54071,"13601 PRESTON RD SUITE W0527","DALLAS","TX",75240,32.93298507,-96.803652153,71,"13601 PRESTON RD SUITE W0527, DALLAS, TX, 75240","Match","Exact","13601 PRESTON RD, DALLAS, TX, 75240",103209716,"L"
54072,"13601 PRESTON ROAD SUITE 417W","DALLAS","TX",75240,32.93298507,-96.803652153,72,"13601 PRESTON ROAD SUITE 417W, DALLAS, TX, 75240","Match","Exact","13601 PRESTON RD, DALLAS, TX, 75240",103209716,"L"
54073,"13601 SW 34TH ST","MIAMI","FL",33175,25.7362923520001,-80.414909149,73,"13601 SW 34TH ST, MIAMI, FL, 33175","Match","Exact","13601 SW 34TH ST, MIAMI, FL, 33175",116092125,"R"
54074,"13601 W MCMILLAN RD STE 102","BOISE","ID",83713,NA,NA,74,"13601 W MCMILLAN RD STE 102, BOISE, ID, 83713","No_Match",NA,NA,NA,NA
54075,"13601 W MCMILLAN RD SUITE 102-168","BOISE","ID",83713,NA,NA,75,"13601 W MCMILLAN RD SUITE 102-168, BOISE, ID, 83713","No_Match",NA,NA,NA,NA
54076,"13602 IBBETSON AVE","BELLFLOWER","CA",90706,33.9085944760001,-118.117618304,76,"13602 IBBETSON AVE, BELLFLOWER, CA, 90706","Match","Exact","13602 IBBETSON AVE, BELLFLOWER, CA, 90706",141740287,"L"
54077,"13602 MONTEREY ROAD","DESERT HOT SPRING","CA",92240,NA,NA,77,"13602 MONTEREY ROAD, DESERT HOT SPRING, CA, 92240","No_Match",NA,NA,NA,NA
54078,"13602 SOUTH 1300 EAST","DRAPER","UT",84020,40.5041723580001,-111.853286879,78,"13602 SOUTH 1300 EAST, DRAPER, UT, 84020","Match","Exact","13602 S 1300 E, DRAPER, UT, 84020",619735901,"L"
54079,"13602","BELLFLOWER","CA",92706,NA,NA,79,"13602, BELLFLOWER, CA, 92706","No_Match",NA,NA,NA,NA
54080,"13603 BARTON MEADOW COURT","ROSHARON","TX",77583,29.5015359560001,-95.4326983729999,80,"13603 BARTON MEADOW COURT, ROSHARON, TX, 77583","Match","Exact","13603 BARTON MEADOW CT, ROSHARON, TX, 77583",614115250,"L"
54081,"13603 HIGHWAY 3235","LAROSE","LA",70373,29.5447694980001,-90.3563938409999,81,"13603 HIGHWAY 3235, LAROSE, LA, 70373","Match","Non_Exact","13603 STATE RTE 3235, LAROSE, LA, 70373",652863923,"L"
54082,"13604 E 14TH COURT","SPOKANE VALLEY","WA",99216,47.6446363330001,-117.221945106,82,"13604 E 14TH COURT, SPOKANE VALLEY, WA, 99216","Match","Exact","13604 E 14TH CT, SPOKANE VALLEY, WA, 99216",189908507,"R"
54083,"13604 FLORIS ST","HERNDON","VA",20171,38.9346656000001,-77.4177133479999,83,"13604 FLORIS ST, HERNDON, VA, 20171","Match","Exact","13604 FLORIS ST, HERNDON, VA, 20171",75954682,"R"
54084,"13604 HIDDEN CREEK ROAD","MANASSAS","VA",20112,38.6603892740001,-77.417285808,84,"13604 HIDDEN CREEK ROAD, MANASSAS, VA, 20112","Match","Exact","13604 HIDDEN CREEK RD, MANASSAS, VA, 20112",634582456,"R"
54085,"13604 MINX RD","IDA","MI",48140,41.8630724540001,-83.53299702,85,"13604 MINX RD, IDA, MI, 48140","Match","Exact","13604 MINX RD, IDA, MI, 48140",642645008,"L"
54086,"13605 CERISE UNIT 5","HAWTHORNE","CA",90250,33.9075918460001,-118.333002993,86,"13605 CERISE UNIT 5, HAWTHORNE, CA, 90250","Match","Non_Exact","13605 CERISE AVE, HAWTHORNE, CA, 90250",647644331,"R"
54087,"13605 EAGLE RIDGE DR  1711","FORT MYERS","FL",33912,26.5433957500001,-81.830741102,87,"13605 EAGLE RIDGE DR  1711, FORT MYERS, FL, 33912","Match","Exact","13605 EAGLE RIDGE DR, FORT MYERS, FL, 33912",118050281,"L"
54088,"13605 IDLEWILD DRIVE","ORLAND PARK","IL",60462,41.6430881420001,-87.841409429,88,"13605 IDLEWILD DRIVE, ORLAND PARK, IL, 60462","Match","Exact","13605 IDLEWILD DR, ORLAND PARK, IL, 60462",111813897,"R"
54089,"13605 LIGHTNING FALLS LANE","PEARLAND","TX",77584,29.5461914540001,-95.431070651,89,"13605 LIGHTNING FALLS LANE, PEARLAND, TX, 77584","Match","Exact","13605 LIGHTNING FALLS LN, PEARLAND, TX, 77584",648926377,"L"
54090,"13605 NE 48TH PL","BELLEVUE","WA",98005,47.652981993,-122.157333756,90,"13605 NE 48TH PL, BELLEVUE, WA, 98005","Match","Exact","13605 NE 48TH PL, BELLEVUE, WA, 98005",239764403,"R"
54091,"13605 NW CR 235 APT 1204","ALACHUA","FL",32615,29.78040349,-82.497562812,91,"13605 NW CR 235 APT 1204, ALACHUA, FL, 32615","Match","Exact","13605 CO RD 235, ALACHUA, FL, 32615",653164054,"L"
54092,"13605 UNDERWOOD RIVER PARKWAY","ELM GROVE","WI",53122,43.0547285640001,-88.082455317,92,"13605 UNDERWOOD RIVER PARKWAY, ELM GROVE, WI, 53122","Match","Exact","13605 UNDERWOOD RIVER PKWY, ELM GROVE, WI, 53122",53869724,"L"
54093,"13605 WEST 7TH AVENUE","GOLDEN","CO",80401,39.72715479,-105.151669411,93,"13605 WEST 7TH AVENUE, GOLDEN, CO, 80401","Match","Exact","13605 W 7TH AVE, GOLDEN, CO, 80401",177800770,"R"
54094,"13605 XAVIER LANE STE F","BROOMFIELD","CO",80023,39.9441276090001,-105.049878733,94,"13605 XAVIER LANE STE F, BROOMFIELD, CO, 80023","Match","Exact","13605 XAVIER LN, BROOMFIELD, CO, 80023",210036997,"L"
54095,"13606 HOTOMTOT DRIVE","UPPER MARLBORO","MD",20774,38.8756110320001,-76.7702168439999,95,"13606 HOTOMTOT DRIVE, UPPER MARLBORO, MD, 20774","Match","Exact","13606 HOTOMTOT DR, UPPER MARLBORO, MD, 20774",76417175,"L"
54096,"13606 POLK ST","OMAHA","NE",68137,41.1926852330001,-96.127176697,96,"13606 POLK ST, OMAHA, NE, 68137","Match","Exact","13606 POLK ST, OMAHA, NE, 68137",117018095,"R"
54097,"13606 ROSCOE BOULEBARD UNIT P-5","PANORAMA CITY","CA",92402,NA,NA,97,"13606 ROSCOE BOULEBARD UNIT P-5, PANORAMA CITY, CA, 92402","No_Match",NA,NA,NA,NA
54098,"13606 SE 51ST PL","BELLEVUE","WA",98006,47.55658126,-122.157747536,98,"13606 SE 51ST PL, BELLEVUE, WA, 98006","Match","Exact","13606 SE 51ST PL, BELLEVUE, WA, 98006",186615102,"R"
54099,"13607 BROKEN BRANCH WAY","LOUISVILLE","KY",40245,38.2928602100001,-85.502505933,99,"13607 BROKEN BRANCH WAY, LOUISVILLE, KY, 40245","Match","Exact","13607 BROKEN BRANCH WAY, LOUISVILLE, KY, 40245",96976398,"L"
54100,"13607 LA CONCHA LANE","HOUSTON","TX",77083,29.6939760380001,-95.623464997,100,"13607 LA CONCHA LANE, HOUSTON, TX, 77083","Match","Exact","13607 LA CONCHA LN, HOUSTON, TX, 77083",96035054,"R"
54101,"13607 WOOD EMBER DR","UPPER MALBORO","MD",20774,38.858532858,-76.770729444,101,"13607 WOOD EMBER DR, UPPER MALBORO, MD, 20774","Match","Non_Exact","13607 WOOD EMBER DR, UPPER MARLBORO, MD, 20774",76417050,"R"
54102,"13608 HANGAR ROAD","LAWRENCEVILLE","IL",62439,NA,NA,102,"13608 HANGAR ROAD, LAWRENCEVILLE, IL, 62439","No_Match",NA,NA,NA,NA
54103,"13608 KOEN LANE","FORT WORTH","TX",76155,32.8301856800001,-97.070313977,103,"13608 KOEN LANE, FORT WORTH, TX, 76155","Match","Exact","13608 KOEN LN, FORT WORTH, TX, 76155",619868499,"R"
54104,"13608 PINE VIEW LANE","ROCKVILLE","MD",20850,39.0786234330001,-77.2343095909999,104,"13608 PINE VIEW LANE, ROCKVILLE, MD, 20850","Match","Exact","13608 PINE VIEW LN, ROCKVILLE, MD, 20850",653270537,"R"
54105,"13609 CUSTIS STREET","WOODBRIDGE","VA",22191,38.6553253100001,-77.236670428,105,"13609 CUSTIS STREET, WOODBRIDGE, VA, 22191","Match","Exact","13609 CUSTIS ST, WOODBRIDGE, VA, 22191",207144170,"L"
54106,"13609 GREENVILLE RD","CLIFTY","KY",42216,NA,NA,106,"13609 GREENVILLE RD, CLIFTY, KY, 42216","No_Match",NA,NA,NA,NA
54107,"13609 N SUPER G LANE","KAMAS","UT",84036,NA,NA,107,"13609 N SUPER G LANE, KAMAS, UT, 84036","No_Match",NA,NA,NA,NA
54108,"13609 NORTHWEST CT","HASLET","TX",76052,32.975615899,-97.414780353,108,"13609 NORTHWEST CT, HASLET, TX, 76052","Match","Exact","13609 NORTHWEST CT, HASLET, TX, 76052",650577223,"R"
54109,"13609 VICTORY BLVD 230","VAN NUYS","CA",91401,34.186675472,-118.429238279,109,"13609 VICTORY BLVD 230, VAN NUYS, CA, 91401","Match","Exact","13609 VICTORY BLVD, VAN NUYS, CA, 91401",141561382,"R"
54110,"1361 13TH AVE S SUITE 230","JACKSONVILLE BEACH","FL",32250,30.2744674570001,-81.3999818949999,110,"1361 13TH AVE S SUITE 230, JACKSONVILLE BEACH, FL, 32250","Match","Exact","1361 13TH AVE S, JACKSONVILLE BEACH, FL, 32250",83923705,"L"
54111,"1361 1ST AVE","STARR","SC",29684,34.358168457,-82.646446676,111,"1361 1ST AVE, STARR, SC, 29684","Match","Exact","1361 FIRST AVE, STARR, SC, 29684",651787083,"R"
54112,"1361 21ST AVE","KINGSBURG","CA",93631,36.5130739910001,-119.543978118,112,"1361 21ST AVE, KINGSBURG, CA, 93631","Match","Exact","1361 21ST AVE, KINGSBURG, CA, 93631",197593335,"L"
54113,"1361 26TH AVENUE","ROCK ISLAND","IL",61201,41.4844558770001,-90.5787933509999,113,"1361 26TH AVENUE, ROCK ISLAND, IL, 61201","Match","Exact","1361 26TH AVE, ROCK ISLAND, IL, 61201",639888885,"L"
54114,"1361 48TH STREET","BROOKLYN","NY",11219,40.6348022710001,-73.99022049,114,"1361 48TH STREET, BROOKLYN, NY, 11219","Match","Exact","1361 48TH ST, BROOKLYN, NY, 11219",59080218,"L"
54115,"1361 4TH AVE","AUBURN","GA",30011,34.0127705400001,-83.825646072,115,"1361 4TH AVE, AUBURN, GA, 30011","Match","Non_Exact","1361 4 TH AVE, AUBURN, GA, 30011",77569668,"R"
54116,"1361 BEVILLE RD","S DAYTONA","FL",32119,29.1719209080001,-81.036455885,116,"1361 BEVILLE RD, S DAYTONA, FL, 32119","Match","Exact","1361 BEVILLE RD, S DAYTONA, FL, 32119",640806337,"R"
54117,"1361 BEVILLE ROAD","S DAYTONA BEACH","FL",32119,29.1719209080001,-81.036455885,117,"1361 BEVILLE ROAD, S DAYTONA BEACH, FL, 32119","Match","Exact","1361 BEVILLE RD, S DAYTONA BCH, FL, 32119",640806337,"R"
54118,"1361 BUFFALO ROCK DRIVE","OFALLON","MO",63366,38.786291471,-90.7404427449999,118,"1361 BUFFALO ROCK DRIVE, OFALLON, MO, 63366","Match","Non_Exact","1361 BUFFALO ROCK DR, O FALLON, MO, 63366",100094416,"R"
54119,"1361 CROUCH AVE","CHICO","CA",95928,39.6918082610001,-121.885149293,119,"1361 CROUCH AVE, CHICO, CA, 95928","Match","Exact","1361 CROUCH AVE, CHICO, CA, 95928",647251209,"R"
54120,"1361 DUCHAMP ROAD","BROUSSARD","LA",70518,30.1155541960001,-91.896474,120,"1361 DUCHAMP ROAD, BROUSSARD, LA, 70518","Match","Exact","1361 DUCHAMP RD, BROUSSARD, LA, 70518",85832688,"R"
54121,"1361 E 47TH STREET","LOS ANGELES","CA",90011,34.001113452,-118.250800524,121,"1361 E 47TH STREET, LOS ANGELES, CA, 90011","Match","Exact","1361 E 47TH ST, LOS ANGELES, CA, 90011",141620263,"L"
54122,"1361 E 83RD STREET","BROOKLYN","NY",11236,40.629414206,-73.902696298,122,"1361 E 83RD STREET, BROOKLYN, NY, 11236","Match","Exact","1361 E 83RD ST, BROOKLYN, NY, 11236",59086847,"L"
54123,"1361 E UNIVERSITY AVE APT 309B","LAS VEGAS","NV",89119,36.1093871950001,-115.1344157,123,"1361 E UNIVERSITY AVE APT 309B, LAS VEGAS, NV, 89119","Match","Non_Exact","1361 E UNIVERSITY AVE, LAS VEGAS, NV, 89119",201871280,"R"
54124,"1361 GRANGER AVE","LAKEWOOD","OH",44107,41.4864566000001,-81.816871609,124,"1361 GRANGER AVE, LAKEWOOD, OH, 44107","Match","Exact","1361 GRANGER AVE, LAKEWOOD, OH, 44107",61099961,"L"
54125,"1361 GURNEYVILLE ROAD","WILMINGTON","OH",45177,39.5085935070001,-83.862052698,125,"1361 GURNEYVILLE ROAD, WILMINGTON, OH, 45177","Match","Exact","1361 GURNEYVILLE RD, WILMINGTON, OH, 45177",146854158,"R"
54126,"1361 MCCLURE DRIVE","LONGMONT","CO",80504,NA,NA,126,"1361 MCCLURE DRIVE, LONGMONT, CO, 80504","No_Match",NA,NA,NA,NA
54127,"1361 MEADOW GLEN RD","MONTGOMERY","AL",36117,32.3209794300001,-86.150809572,127,"1361 MEADOW GLEN RD, MONTGOMERY, AL, 36117","Match","Exact","1361 MEADOW GLEN RD, MONTGOMERY, AL, 36117",645574828,"L"
54128,"1361 NW 88TH STREET","MIAMI","FL",33147,25.8548155830001,-80.220629887,128,"1361 NW 88TH STREET, MIAMI, FL, 33147","Match","Exact","1361 NW 88TH ST, MIAMI, FL, 33147",116003943,"R"
54129,"1361 PANCOAST ROAD","BARNEGAT","NJ",8005,39.7473978530001,-74.362823529,129,"1361 PANCOAST ROAD, BARNEGAT, NJ, 8005","Match","Exact","1361 PANCOAST RD, BARNEGAT, NJ, 08005",203705256,"R"
54130,"1361 PERALTA BLVD","FREMONT","CA",94536,37.5639806140001,-121.981590417,130,"1361 PERALTA BLVD, FREMONT, CA, 94536","Match","Exact","1361 PERALTA BLVD, FREMONT, CA, 94536",635928645,"R"
54131,"1361 QUEEN ELAINE DRIVE","CASSELBERRY","FL",32707,28.666678366,-81.308369442,131,"1361 QUEEN ELAINE DRIVE, CASSELBERRY, FL, 32707","Match","Exact","1361 QUEEN ELAINE DR, CASSELBERRY, FL, 32707",642153040,"L"
54132,"1361 RHOMTOWN ROAD","MARION","NC",28752,NA,NA,132,"1361 RHOMTOWN ROAD, MARION, NC, 28752","No_Match",NA,NA,NA,NA
54133,"1361 RIM RD","FAYETTEVILLE","NC",28314,35.0537300280001,-79.0452561279999,133,"1361 RIM RD, FAYETTEVILLE, NC, 28314","Match","Exact","1361 RIM RD, FAYETTEVILLE, NC, 28314",64239076,"R"
54134,"1361 S HIGHWAY 40","HEBER CITY","UT",84032,NA,NA,134,"1361 S HIGHWAY 40, HEBER CITY, UT, 84032","No_Match",NA,NA,NA,NA
54135,"1361 S WINCHESTER BLVD STE 206","SAN JOSE","CA",95128,37.2972433080001,-121.949923226,135,"1361 S WINCHESTER BLVD STE 206, SAN JOSE, CA, 95128","Match","Exact","1361 WINCHESTER BLVD, SAN JOSE, CA, 95128",122904670,"R"
54136,"1361 SEA WILLOW DR","MARION","TX",78124,29.4894115560001,-98.183567662,136,"1361 SEA WILLOW DR, MARION, TX, 78124","Match","Exact","1361 SEA WILLOW DR, MARION, TX, 78124",638786283,"L"
54137,"1361 SLADE AVE","COLUMBUS","OH",43235,40.0659256640001,-83.055701265,137,"1361 SLADE AVE, COLUMBUS, OH, 43235","Match","Exact","1361 SLADE AVE, COLUMBUS, OH, 43235",218685083,"L"
54138,"1361 SOUTH COUNTRY PARK DR","KAYSVILLE","UT",84037,NA,NA,138,"1361 SOUTH COUNTRY PARK DR, KAYSVILLE, UT, 84037","No_Match",NA,NA,NA,NA
54139,"1361 TEAL RD","BOX SPRINGS","GA",31801,32.5967901720001,-84.5757328239999,139,"1361 TEAL RD, BOX SPRINGS, GA, 31801","Match","Exact","1361 TEAL RD, BOX SPRINGS, GA, 31801",646192077,"L"
54140,"1361 TR 125","DUNKIRK","OH",45836,NA,NA,140,"1361 TR 125, DUNKIRK, OH, 45836","No_Match",NA,NA,NA,NA
54141,"1361 W HURON ST","WATERFORD","MI",48328,42.634823725,-83.338313807,141,"1361 W HURON ST, WATERFORD, MI, 48328","Match","Exact","1361 W HURON ST, WATERFORD, MI, 48328",69702836,"L"
54142,"1361 W MARKET ST","AKRON","OH",44313,41.105515041,-81.56061382,142,"1361 W MARKET ST, AKRON, OH, 44313","Match","Exact","1361 W MARKET ST, AKRON, OH, 44313",61339358,"R"
54143,"1361","FORT MYERS","FL",33919,NA,NA,143,"1361, FORT MYERS, FL, 33919","No_Match",NA,NA,NA,NA
54144,"13610 52ND AVE NW","GIG HARBOR","WA",98332,47.3823804690001,-122.606792326,144,"13610 52ND AVE NW, GIG HARBOR, WA, 98332","Match","Exact","13610 52ND AVE NW, GIG HARBOR, WA, 98332",184686307,"R"
54145,"13610 LETTI LANE","PFLVGERVILLE","TX",78660,30.4119580450001,-97.6489693779999,145,"13610 LETTI LANE, PFLVGERVILLE, TX, 78660","Match","Non_Exact","13610 LETTI LN, PFLUGERVILLE, TX, 78660",64001920,"L"
54146,"13610 SE 7TH ST","BELLEVUE","WA",98005,47.603577552,-122.157268983,146,"13610 SE 7TH ST, BELLEVUE, WA, 98005","Match","Exact","13610 SE 7TH ST, BELLEVUE, WA, 98005",239764603,"L"
54147,"13611 168TH ST CT E","PUYALLUP","WA",98374,47.1024175060001,-122.247940456,147,"13611 168TH ST CT E, PUYALLUP, WA, 98374","Match","Exact","13611 168TH STREET CT E, PUYALLUP, WA, 98374",627595153,"L"
54148,"13611 BREAKWATER PATH LOOP","HOUSTON","TX",77044,NA,NA,148,"13611 BREAKWATER PATH LOOP, HOUSTON, TX, 77044","No_Match",NA,NA,NA,NA
54149,"13611 DELWOOD SPRINGS LANE","HOUSTON","TX",77044,29.9590684400001,-95.163800664,149,"13611 DELWOOD SPRINGS LANE, HOUSTON, TX, 77044","Match","Exact","13611 DELWOOD SPRINGS LN, HOUSTON, TX, 77044",627682316,"L"
54150,"13611 E 104TH AVE SUITE 800-407","COMMERCE CITY","CO",80022,39.8852694330001,-104.82891006,150,"13611 E 104TH AVE SUITE 800-407, COMMERCE CITY, CO, 80022","Match","Non_Exact","13611 E 104TH AVE, COMMERCE CITY, CO, 80022",177425012,"L"
54151,"13611 JACK HTS","SAN ANTONIO","TX",78254,29.523218725,-98.763086657,151,"13611 JACK HTS, SAN ANTONIO, TX, 78254","Match","Exact","13611 JACK HTS, SAN ANTONIO, TX, 78254",645192931,"L"
54152,"13611 MONTEIGNE LN","CYPRESS","TX",77429,29.9697878640001,-95.664713233,152,"13611 MONTEIGNE LN, CYPRESS, TX, 77429","Match","Exact","13611 MONTEIGNE LN, CYPRESS, TX, 77429",638788449,"L"
54153,"13611 N TERRACE CREEK CIRCLE","HOUSTON","TX",77014,29.9752173460001,-95.485080298,153,"13611 N TERRACE CREEK CIRCLE, HOUSTON, TX, 77014","Match","Exact","13611 N TER CREEK CIR, HOUSTON, TX, 77014",96011081,"L"
54154,"13611 S DIXIE HWY BOX 109442","MIAMI","FL",33176,25.643218523,-80.3344021899999,154,"13611 S DIXIE HWY BOX 109442, MIAMI, FL, 33176","Match","Non_Exact","13611 S DIXIE HWY, MIAMI, FL, 33176",614007669,"L"
54155,"13611 S DIXIE HWY","MIAMI","FL",33176,25.643218523,-80.3344021899999,155,"13611 S DIXIE HWY, MIAMI, FL, 33176","Match","Exact","13611 S DIXIE HWY, MIAMI, FL, 33176",614007669,"L"
54156,"13611 SO DIXIE HIGHWAY  UNIT 331","MIAMI","FL",33176,25.6432239980001,-80.3343996249999,156,"13611 SO DIXIE HIGHWAY  UNIT 331, MIAMI, FL, 33176","Match","Non_Exact","13611 S DIXIE HWY, MIAMI, FL, 33176",614007669,"L"
54157,"13611 SOUTH DIXIE HIGHWAY UNIT 109","PALMETTO BAY","FL",33176,25.6432239980001,-80.3343996249999,157,"13611 SOUTH DIXIE HIGHWAY UNIT 109, PALMETTO BAY, FL, 33176","Match","Exact","13611 S DIXIE HWY, PALMETTO BAY, FL, 33176",614007669,"L"
54158,"13611 STOUT","DETROIT","MI",48223,42.3851934620001,-83.240992658,158,"13611 STOUT, DETROIT, MI, 48223","Match","Exact","13611 STOUT, DETROIT, MI, 48223",95438541,"L"
54159,"13611 TOSCA LANE","HOUSTON","TX",77079,29.7715686650001,-95.5817000439999,159,"13611 TOSCA LANE, HOUSTON, TX, 77079","Match","Exact","13611 TOSCA LN, HOUSTON, TX, 77079",96119630,"L"
54160,"13611 WENDY LN","SARATOGA","CA",95070,37.27090308,-122.010147366,160,"13611 WENDY LN, SARATOGA, CA, 95070","Match","Exact","13611 WENDY LN, SARATOGA, CA, 95070",122943251,"R"
54161,"13611 YUKON AVE APT 323","HAWTHORNE","CA",90250,33.907457359,-118.3351755,161,"13611 YUKON AVE APT 323, HAWTHORNE, CA, 90250","Match","Exact","13611 YUKON AVE, HAWTHORNE, CA, 90250",650089026,"R"
54162,"13612 KINGS COURT AVE","BATON ROUGE","LA",70810,30.3325827510001,-91.12602249,162,"13612 KINGS COURT AVE, BATON ROUGE, LA, 70810","Match","Exact","13612 KINGS COURT AVE, BATON ROUGE, LA, 70810",632762523,"L"
54163,"13612 MALENA DRIVE","TUSTIN","CA",92780,33.7653859530001,-117.823347383,163,"13612 MALENA DRIVE, TUSTIN, CA, 92780","Match","Exact","13612 MALENA DR, TUSTIN, CA, 92780",144052990,"L"
54164,"13612 ROBERT WALKER DR","DAVIDSON","NC",28036,35.474372337,-80.806923292,164,"13612 ROBERT WALKER DR, DAVIDSON, NC, 28036","Match","Exact","13612 ROBERT WALKER DR, DAVIDSON, NC, 28036",649532307,"R"
54165,"13612 RUTHERFORD ST","DETROIT","MI",48227,42.3854407700001,-83.2028634229999,165,"13612 RUTHERFORD ST, DETROIT, MI, 48227","Match","Exact","13612 RUTHERFORD ST, DETROIT, MI, 48227",95439688,"R"
54166,"13613 CLAYTON RD","CHESTERFIELD","MO",63017,38.6311023980001,-90.489471904,166,"13613 CLAYTON RD, CHESTERFIELD, MO, 63017","Match","Exact","13613 CLAYTON RD, CHESTERFIELD, MO, 63017",604495158,"R"
54167,"13613 EAST 56TH STREET","RIPLEY","OK",74062,36.0583889490001,-96.869207524,167,"13613 EAST 56TH STREET, RIPLEY, OK, 74062","Match","Exact","13613 E 56TH ST, RIPLEY, OK, 74062",166393616,"L"
54168,"13613 S SAINT LOUIS AVE","ROBBINS","IL",60472,NA,NA,168,"13613 S SAINT LOUIS AVE, ROBBINS, IL, 60472","Tie",NA,NA,NA,NA
54169,"13613 TEAL BLUFF LANE","HOUSTON","TX",77077,29.7367744790001,-95.628939673,169,"13613 TEAL BLUFF LANE, HOUSTON, TX, 77077","Match","Exact","13613 TEAL BLUFF LN, HOUSTON, TX, 77077",651938105,"L"
54170,"13614 111TH ST CT E","PUYALLUP","WA",98374,47.155035173,-122.245965522,170,"13614 111TH ST CT E, PUYALLUP, WA, 98374","Match","Exact","13614 111TH STREET CT E, PUYALLUP, WA, 98374",645842027,"L"
54171,"13614 WESTMINSTER GLEN LN","HOUSTON","TX",77049,29.8317565310001,-95.1857736379999,171,"13614 WESTMINSTER GLEN LN, HOUSTON, TX, 77049","Match","Exact","13614 WESTMINSTER GLEN LN, HOUSTON, TX, 77049",638192715,"L"
54172,"13615 2ND AVE E","BRADENTON","FL",34212,27.49671046,-82.400264159,172,"13615 2ND AVE E, BRADENTON, FL, 34212","Match","Exact","13615 2ND AVE E, BRADENTON, FL, 34212",16263831,"R"
54173,"13615 5TH AVE N","PLYMOUTH","MN",55441,44.9853439350001,-93.4528997959999,173,"13615 5TH AVE N, PLYMOUTH, MN, 55441","Match","Exact","13615 5TH AVE N, PLYMOUTH, MN, 55441",43851069,"L"
54174,"13615 86TH AVE NORTH","SEMINOLE","FL",33776,27.851043267,-82.826701083,174,"13615 86TH AVE NORTH, SEMINOLE, FL, 33776","Match","Exact","13615 86TH AVE N, SEMINOLE, FL, 33776",124690058,"R"
54175,"13615 BUTTERFLY LANE","HOUSTON","TX",77079,29.77235603,-95.581693509,175,"13615 BUTTERFLY LANE, HOUSTON, TX, 77079","Match","Exact","13615 BUTTERFLY LN, HOUSTON, TX, 77079",96299626,"L"
54176,"13615 COUNTRY LANE","TOMBALL","TX",77375,30.1157310200001,-95.626583845,176,"13615 COUNTRY LANE, TOMBALL, TX, 77375","Match","Exact","13615 COUNTRY LN, TOMBALL, TX, 77375",96165307,"L"
54177,"13615 MCKELVIE RD","WEEPING WATER","NE",68463,40.9000978540001,-96.1247322729999,177,"13615 MCKELVIE RD, WEEPING WATER, NE, 68463","Match","Exact","13615 MCKELVIE RD, WEEPING WATER, NE, 68463",10366388,"R"
54178,"13615 MICHIGAN AVE 250C","DEARBORN","MI",48126,42.3220928110001,-83.176177232,178,"13615 MICHIGAN AVE 250C, DEARBORN, MI, 48126","Match","Exact","13615 MICHIGAN AVE, DEARBORN, MI, 48126",95444085,"L"
54179,"13615 ROLLINS GREEN LN","CYPRESS","TX",77429,NA,NA,179,"13615 ROLLINS GREEN LN, CYPRESS, TX, 77429","No_Match",NA,NA,NA,NA
54180,"13615 SOUTH GENERAL SLOCUM COURT","FREDERICKSBURG","VA",22407,38.3304507300001,-77.623910023,180,"13615 SOUTH GENERAL SLOCUM COURT, FREDERICKSBURG, VA, 22407","Match","Exact","13615 S GENERAL SLOCUM CT, FREDERICKSBURG, VA, 22407",641115229,"L"
54181,"13616 BRANDI COURT","WILLIS","TX",77378,30.4193978160001,-95.351069439,181,"13616 BRANDI COURT, WILLIS, TX, 77378","Match","Exact","13616 BRANDI CT, WILLIS, TX, 77378",625296423,"R"
54182,"13616 COPPERSTONE DRIVE","VICTORVILLE","CA",92392,34.4771748650001,-117.366287123,182,"13616 COPPERSTONE DRIVE, VICTORVILLE, CA, 92392","Match","Exact","13616 COPPERSTONE DR, VICTORVILLE, CA, 92392",144742967,"R"
54183,"13616 GYPSUM DR","RANCHO CUCAMONGA","CA",91739,34.139653019,-117.508535257,183,"13616 GYPSUM DR, RANCHO CUCAMONGA, CA, 91739","Match","Exact","13616 GYPSUM DR, ETIWANDA, CA, 91739",651126190,"L"
54184,"13616 LARANJA STREET","CLERMONT","FL",34711,28.5444364460001,-81.6819588989999,184,"13616 LARANJA STREET, CLERMONT, FL, 34711","Match","Exact","13616 LARANJA ST, CLERMONT, FL, 34711",640743458,"R"
54185,"13617 57TH ROAD 1FLR","FLUSHING","NY",11355,NA,NA,185,"13617 57TH ROAD 1FLR, FLUSHING, NY, 11355","No_Match",NA,NA,NA,NA
54186,"13617 CLUBSIDE DR","TAMPA","FL",33624,28.0722950700001,-82.520029898,186,"13617 CLUBSIDE DR, TAMPA, FL, 33624","Match","Exact","13617 CLUBSIDE DR, TAMPA, FL, 33624",104510330,"L"
54187,"13617 WHISKEY HILL RD NE","HUBBARD","OR",97032,45.179898424,-122.788617692,187,"13617 WHISKEY HILL RD NE, HUBBARD, OR, 97032","Match","Exact","13617 WHISKEY HILL RD NE, HUBBARD, OR, 97032",156240314,"L"
54188,"13618 39TH AVE STE 901","FLUSHING","NY",11354,NA,NA,188,"13618 39TH AVE STE 901, FLUSHING, NY, 11354","No_Match",NA,NA,NA,NA
54189,"13618 BELLAIRE  BLVD SUITE  E3","HOUSTON","TX",77083,29.703728723,-95.625229589,189,"13618 BELLAIRE  BLVD SUITE  E3, HOUSTON, TX, 77083","Match","Exact","13618 BELLAIRE BLVD, HOUSTON, TX, 77083",96608127,"R"
54190,"13618 DETROIT AVE","LAKEWOOD","OH",44107,41.485280259,-81.786724216,190,"13618 DETROIT AVE, LAKEWOOD, OH, 44107","Match","Non_Exact","13618 DETROIT RD, LAKEWOOD, OH, 44107",61100391,"R"
54191,"13618 FAWN LANE","GRAND HAVEN","MI",49417,43.0162166860001,-86.162531669,191,"13618 FAWN LANE, GRAND HAVEN, MI, 49417","Match","Exact","13618 FAWN LN, GRAND HAVEN, MI, 49417",71098354,"L"
54192,"13619 BECKINGHAM DRIVE","HERNDON","VA",20171,38.947190011,-77.417347433,192,"13619 BECKINGHAM DRIVE, HERNDON, VA, 20171","Match","Exact","13619 BECKINGHAM DR, HERNDON, VA, 20171",76046195,"L"
54193,"13619 COLGATE WAY APT 223","SILVER SPRING","MD",20904,39.080480842,-76.9330970139999,193,"13619 COLGATE WAY APT 223, SILVER SPRING, MD, 20904","Match","Exact","13619 COLGATE WAY, SILVER SPRING, MD, 20904",642919130,"L"
54194,"13619 OSPREY FERN LANE","RIVERVIEW","FL",33569,NA,NA,194,"13619 OSPREY FERN LANE, RIVERVIEW, FL, 33569","No_Match",NA,NA,NA,NA
54195,"13619 TONNOCHY DR","HOUSTON","TX",77083,29.684324975,-95.620837825,195,"13619 TONNOCHY DR, HOUSTON, TX, 77083","Match","Exact","13619 TONNOCHY DR, HOUSTON, TX, 77083",96035083,"L"
54196,"13619 W 129TH ST","OLATHE","KS",66062,38.891953723,-94.743603266,196,"13619 W 129TH ST, OLATHE, KS, 66062","Match","Exact","13619 W 129TH ST, OLATHE, KS, 66062",91301557,"R"
54197,"13619 WILSON HILL ROAD","GEORGETOWN","DE",19947,38.70611891,-75.513943922,197,"13619 WILSON HILL ROAD, GEORGETOWN, DE, 19947","Match","Exact","13619 WILSON HILL RD, GEORGETOWN, DE, 19947",106083798,"L"
54198,"1362 1/2 S STANLEY AVE","LOS ANGELES","CA",90019,34.050974808,-118.360755994,198,"1362 1/2 S STANLEY AVE, LOS ANGELES, CA, 90019","Match","Exact","1362 S STANLEY AVE, LOS ANGELES, CA, 90019",141599240,"L"
54199,"1362 26TH AVE","SAN FRANCISCO","CA",94122,37.7620944070001,-122.484537909,199,"1362 26TH AVE, SAN FRANCISCO, CA, 94122","Match","Exact","1362 26TH AVE, SAN FRANCISCO, CA, 94122",192277433,"L"
54200,"1362 BULLOCK HOLLOW ROAD","BRISTOL","TN",37620,36.5035885560001,-82.154645106,200,"1362 BULLOCK HOLLOW ROAD, BRISTOL, TN, 37620","Match","Exact","1362 BULLOCK HOLLOW RD, BRISTOL, TN, 37620",127850053,"L"
54201,"1362 CAPE COD WAY","CONCORD","CA",94521,37.962782534,-121.99962754,201,"1362 CAPE COD WAY, CONCORD, CA, 94521","Match","Exact","1362 CAPE COD WAY, CONCORD, CA, 94521",192058243,"R"
54202,"1362 DAVID LN","FREDERICK","MD",21703,39.4149073720001,-77.4534546419999,202,"1362 DAVID LN, FREDERICK, MD, 21703","Match","Exact","1362 DAVID LN, FREDERICK, MD, 21703",60702937,"R"
54203,"1362 DOGWOOD DRIVE","JAMISON","PA",18929,40.253065513,-75.079608906,203,"1362 DOGWOOD DRIVE, JAMISON, PA, 18929","Match","Exact","1362 DOGWOOD DR, JAMISON, PA, 18929",134730763,"L"
54204,"1362 E PINE HILL AVE","WHITE CLOUD","MI",49349,43.5539086950001,-85.7676185,204,"1362 E PINE HILL AVE, WHITE CLOUD, MI, 49349","Match","Exact","1362 E PINE HILL AVE, WHITE CLOUD, MI, 49349",150216690,"R"
54205,"1362 EAST 13TH STREET","BROOKLYN","NY",11230,40.6161104180001,-73.961573958,205,"1362 EAST 13TH STREET, BROOKLYN, NY, 11230","Match","Exact","1362 E 13TH ST, BROOKLYN, NY, 11230",59089706,"R"
54206,"1362 ERICKSON ROAD","COLUMBUS","OH",43227,39.9466369780001,-82.88518809,206,"1362 ERICKSON ROAD, COLUMBUS, OH, 43227","Match","Exact","1362 ERICKSON RD, COLUMBUS, OH, 43227",135593263,"L"
54207,"1362 FARROW ROAD","MEMPHIS","TN",38116,35.0232722920001,-90.0185493609999,207,"1362 FARROW ROAD, MEMPHIS, TN, 38116","Match","Exact","1362 FARROW RD, MEMPHIS, TN, 38116",72910544,"L"
54208,"1362 LAKE FOREST CT","RESTON","VA",20194,38.985154116,-77.352897049,208,"1362 LAKE FOREST CT, RESTON, VA, 20194","Match","Exact","1362 LAKE FOREST CT, RESTON, VA, 20194",215969154,"R"
54209,"1362 MANOR PARK AVE","LAKEWOOD","OH",44107,41.4865792080001,-81.792746259,209,"1362 MANOR PARK AVE, LAKEWOOD, OH, 44107","Match","Exact","1362 MANOR PARK AVE, LAKEWOOD, OH, 44107",61100232,"R"
54210,"1362 MIRRILLION HTS","COLORADO SPRINGS","CO",80904,38.848757859,-104.853074315,210,"1362 MIRRILLION HTS, COLORADO SPRINGS, CO, 80904","Match","Exact","1362 MIRRILLION HTS, COLORADO SPRINGS, CO, 80904",105513147,"R"
54211,"1362 NORTH CITRUS STREET","LA HABRA HEIGHTS","CA",90631,NA,NA,211,"1362 NORTH CITRUS STREET, LA HABRA HEIGHTS, CA, 90631","Tie",NA,NA,NA,NA
54212,"1362 NW FRESNO AVENUE","BEND","OR",97703,44.0558229650001,-121.331193485,212,"1362 NW FRESNO AVENUE, BEND, OR, 97703","Match","Exact","1362 NW FRESNO AVE, BEND, OR, 97703",152554048,"L"
54213,"1362 PACIFIC AVE STE 217","SANTA CRUZ","CA",95060,36.9743493920001,-122.026235821,213,"1362 PACIFIC AVE STE 217, SANTA CRUZ, CA, 95060","Match","Exact","1362 PACIFIC AVE, SANTA CRUZ, CA, 95060",125506142,"R"
54214,"1362 PAULINE DR","SUNNYVALE","CA",94087,37.350925837,-122.020122625,214,"1362 PAULINE DR, SUNNYVALE, CA, 94087","Match","Exact","1362 PAULINE DR, SUNNYVALE, CA, 94087",122938651,"R"
54215,"1362 PINE STREET","PITTSBURG","CA",94565,38.0216397950001,-121.877097376,215,"1362 PINE STREET, PITTSBURG, CA, 94565","Match","Exact","1362 PINE ST, PITTSBURG, CA, 94565",192061379,"R"
54216,"1362 S 600 E","SALT LAKE CITY","UT",84105,40.7401662790001,-111.873916967,216,"1362 S 600 E, SALT LAKE CITY, UT, 84105","Match","Non_Exact","1362 S 600 E, SALT LAKE CITY, UT, 84105",176078382,"R"
54217,"1362 SASSAFRASS CIRCLE","MOUNT PLEASANT","SC",29466,32.894796279,-79.8133124089999,217,"1362 SASSAFRASS CIRCLE, MOUNT PLEASANT, SC, 29466","Match","Exact","1362 SASSAFRASS CIR, MOUNT PLEASANT, SC, 29466",108876727,"L"
54218,"1362 SILVER THORNE CT","LOGANVILLE","GA",30052,33.7540628250001,-83.8888861309999,218,"1362 SILVER THORNE CT, LOGANVILLE, GA, 30052","Match","Exact","1362 SILVER THORNE CT, LOGANVILLE, GA, 30052",618463911,"L"
54219,"1362 TRILLIUM LANE","BOWLING GREEN","KY",42104,36.918367523,-86.445783255,219,"1362 TRILLIUM LANE, BOWLING GREEN, KY, 42104","Match","Exact","1362 TRILLIUM LN, BOWLING GREEN, KY, 42104",28028657,"R"
54220,"1362 VERDE DR","BULLHEAD CITY","AZ",86442,35.1181294420001,-114.604834236,220,"1362 VERDE DR, BULLHEAD CITY, AZ, 86442","Match","Exact","1362 VERDE DR, BULLHEAD CITY, AZ, 86442",190316872,"R"
54221,"1362 VISTA HILL CT","LOS LUNAS","NM",87031,34.801772542,-106.764628407,221,"1362 VISTA HILL CT, LOS LUNAS, NM, 87031","Match","Exact","1362 VISTA HILL CT, LOS LUNAS, NM, 87031",179327365,"L"
54222,"1362 WEST STATION ST PO BOX 1812","KANKAKEE","IL",60901,41.118700204,-87.883823847,222,"1362 WEST STATION ST PO BOX 1812, KANKAKEE, IL, 60901","Match","Exact","1362 W STATION ST, KANKAKEE, IL, 60901",98355996,"L"
54223,"1362 WHITTINGHAM DR","TRACY","CA",95377,37.703560613,-121.44187171,223,"1362 WHITTINGHAM DR, TRACY, CA, 95377","Match","Exact","1362 WHITTINGHAM DR, TRACY, CA, 95377",133879490,"R"
54224,"13620 38TH AVE STE 11B","FLUSHING","NY",11354,NA,NA,224,"13620 38TH AVE STE 11B, FLUSHING, NY, 11354","No_Match",NA,NA,NA,NA
54225,"13620 E 191ST ST","NOBLESVILLE","IN",46060,40.066365127,-85.9227485179999,225,"13620 E 191ST ST, NOBLESVILLE, IN, 46060","Match","Exact","13620 E 191ST ST, NOBLESVILLE, IN, 46060",29287563,"L"
54226,"13620 SE FEDERAL HIGHWAY","HOBE SOUND","FL",33455,NA,NA,226,"13620 SE FEDERAL HIGHWAY, HOBE SOUND, FL, 33455","No_Match",NA,NA,NA,NA
54227,"13620 SW 82ND CT","PALMETTO BAY","FL",33158,25.643706331,-80.3269426749999,227,"13620 SW 82ND CT, PALMETTO BAY, FL, 33158","Match","Exact","13620 SW 82ND CT, PALMETTO BAY, FL, 33158",115986247,"R"
54228,"13620 SW BEEF BEND ROAD UNIT 98","PORTLAND","OR",97224,45.403499562,-122.818203721,228,"13620 SW BEEF BEND ROAD UNIT 98, PORTLAND, OR, 97224","Match","Non_Exact","13620 SW BEEF BEND RD, PORTLAND, OR, 97224",630377685,"L"
54229,"13621 1/2 KORNBLUM AVE","HAWTHORNE","CA",90250,33.907507466,-118.337316332,229,"13621 1/2 KORNBLUM AVE, HAWTHORNE, CA, 90250","Match","Exact","13621 KORNBLUM AVE, HAWTHORNE, CA, 90250",142752479,"R"
54230,"13621 BAYVIEW ISLE DR APT 305","ORLANDO","FL",32824,28.3715026520001,-81.370558406,230,"13621 BAYVIEW ISLE DR APT 305, ORLANDO, FL, 32824","Match","Exact","13621 BAYVIEW ISLE DR, ORLANDO, FL, 32824",634025997,"L"
54231,"13621 PERRY ST 1609","OVERLAND PARK","KS",66221,38.881374217,-94.6994002929999,231,"13621 PERRY ST 1609, OVERLAND PARK, KS, 66221","Match","Exact","13621 PERRY ST, OVERLAND PARK, KS, 66221",624790199,"R"
54232,"13621 ROOSEVELT AVENUE SUITE 201","FLUSHING","NY",11354,NA,NA,232,"13621 ROOSEVELT AVENUE SUITE 201, FLUSHING, NY, 11354","No_Match",NA,NA,NA,NA
54233,"13621 TANNER STREET","VANCLEAVE","MS",39565,30.538763014,-88.65609642,233,"13621 TANNER STREET, VANCLEAVE, MS, 39565","Match","Exact","13621 TANNER ST, VANCLEAVE, MS, 39565",89266864,"L"
54234,"13621 W SALISBURY RD","MIDLOTHIAN","VA",23113,37.5273154450001,-77.6519982029999,234,"13621 W SALISBURY RD, MIDLOTHIAN, VA, 23113","Match","Exact","13621 W SALISBURY RD, MIDLOTHIAN, VA, 23113",201586215,"L"
54235,"13622 BRIARCLIFF AVENUE","BATON ROUGE","LA",70815,30.452480135,-91.0326435649999,235,"13622 BRIARCLIFF AVENUE, BATON ROUGE, LA, 70815","Match","Exact","13622 BRIARCLIFF AVE, BATON ROUGE, LA, 70815",627178374,"R"
54236,"13622 ROYAL CT UNIT 816","CRESTWOOD","IL",60445,41.6451236350001,-87.741528334,236,"13622 ROYAL CT UNIT 816, CRESTWOOD, IL, 60445","Match","Non_Exact","13622 ROYAL CT, CRESTWOOD, IL, 60418",112203884,"R"
54237,"13622 SAN MARTIN LN","HOUSTON","TX",77083,29.695580641,-95.6243240649999,237,"13622 SAN MARTIN LN, HOUSTON, TX, 77083","Match","Exact","13622 SAN MARTIN LN, HOUSTON, TX, 77083",96035047,"L"
54238,"13623 8TH AVE SW","BURIEN","WA",98166,47.4805781090001,-122.344732198,238,"13623 8TH AVE SW, BURIEN, WA, 98166","Match","Exact","13623 8TH AVE SW, BURIEN, WA, 98166",239773356,"L"
54239,"13623 BARONS LAKE LANE","CYPRESS","TX",77429,30.0099421620001,-95.629648991,239,"13623 BARONS LAKE LANE, CYPRESS, TX, 77429","Match","Exact","13623 BARONS LAKE LN, CYPRESS, TX, 77429",627775380,"L"
54240,"13623 CHRISTIAN TYLER COURT","CHARLOTTE","NC",28278,35.1017450620001,-80.998058435,240,"13623 CHRISTIAN TYLER COURT, CHARLOTTE, NC, 28278","Match","Exact","13623 CHRISTIAN TYLER CT, CHARLOTTE, NC, 28278",70529920,"L"
54241,"13623 DYNASTY DRIVE","ALEXANDER","AR",72002,34.6235789770001,-92.429804423,241,"13623 DYNASTY DRIVE, ALEXANDER, AR, 72002","Match","Exact","13623 DYNASTY DR, ALEXANDER, AR, 72002",611520115,"R"
54242,"13623 MORGAN CREEK CT","HOUSTON","TX",77077,29.7483587200001,-95.628781435,242,"13623 MORGAN CREEK CT, HOUSTON, TX, 77077","Match","Exact","13623 MORGAN CREEK, HOUSTON, TX, 77077",637111548,"L"
54243,"13624 KINGSMAN ROAD","WOODBRIDGE","VA",22193,38.657008062,-77.346456647,243,"13624 KINGSMAN ROAD, WOODBRIDGE, VA, 22193","Match","Exact","13624 KINGSMAN RD, WOODBRIDGE, VA, 22193",76508441,"R"
54244,"13624 MIAMI STREET","OMAHA","NE",68164,41.2834006790001,-96.126348453,244,"13624 MIAMI STREET, OMAHA, NE, 68164","Match","Exact","13624 MIAMI ST, OMAHA, NE, 68164",116967615,"R"
54245,"13624 N US HWY 287","LAPORTE","CO",80535,40.759330752,-105.172829239,245,"13624 N US HWY 287, LAPORTE, CO, 80535","Match","Exact","13624 US HWY 287, LAPORTE, CO, 80535",649622722,"R"
54246,"13624 STEELE CREEK ROAD","CHARLOTTE","NC",28273,35.107786349,-80.988186048,246,"13624 STEELE CREEK ROAD, CHARLOTTE, NC, 28273","Match","Exact","13624 STEELE CREEK RD, CHARLOTTE, NC, 28273",630329698,"L"
54247,"13625 - 13TH AVE CT E","TACOMA","WA",98445,NA,NA,247,"13625 - 13TH AVE CT E, TACOMA, WA, 98445","No_Match",NA,NA,NA,NA
54248,"13625 GOLDEN RIDGE LANE","MCCORDSVILLE","IN",46055,39.9384421820001,-85.9236626589999,248,"13625 GOLDEN RIDGE LANE, MCCORDSVILLE, IN, 46055","Match","Exact","13625 GOLDEN RIDGE LN, MCCORDSVILLE, IN, 46055",29320038,"L"
54249,"13625 NEUTRON RD","DALLAS","TX",75244,32.9338367120001,-96.8349781379999,249,"13625 NEUTRON RD, DALLAS, TX, 75244","Match","Exact","13625 NEUTRON RD, DALLAS, TX, 75244",102897880,"L"
54250,"13625 NEUTRON ROAD","DALLAS","TX",75244,32.9338367120001,-96.8349781379999,250,"13625 NEUTRON ROAD, DALLAS, TX, 75244","Match","Exact","13625 NEUTRON RD, DALLAS, TX, 75244",102897880,"L"
54251,"13625 S 48TH STREET APT 1196","PHOENIX","AZ",85044,33.3216918530001,-111.979898449,251,"13625 S 48TH STREET APT 1196, PHOENIX, AZ, 85044","Match","Non_Exact","13625 S 48TH ST, PHOENIX, AZ, 85044",653304419,"L"
54252,"13625 SOUTH 48TH STREET 2103","PHOENIX","AZ",85044,33.321695431,-111.97989666,252,"13625 SOUTH 48TH STREET 2103, PHOENIX, AZ, 85044","Match","Exact","13625 S 48TH ST, PHOENIX, AZ, 85044",653304419,"L"
54253,"13625 SUNBURST ST","ARLETA","CA",91331,34.240660727,-118.43001566,253,"13625 SUNBURST ST, ARLETA, CA, 91331","Match","Exact","13625 SUNBURST ST, ARLETA, CA, 91331",141549944,"R"
54254,"13625 TULLER STREET","DETROIT","MI",48238,42.38719422,-83.146461529,254,"13625 TULLER STREET, DETROIT, MI, 48238","Match","Exact","13625 TULLER ST, DETROIT, MI, 48238",95470152,"L"
54255,"13626 BALDCYPRESS ST STE119","BOISE","ID",87313,NA,NA,255,"13626 BALDCYPRESS ST STE119, BOISE, ID, 87313","No_Match",NA,NA,NA,NA
54256,"13626 WILEYWOOD DR","HOUSTON","TX",77049,29.821739501,-95.205066747,256,"13626 WILEYWOOD DR, HOUSTON, TX, 77049","Match","Exact","13626 WILEYWOOD DR, HOUSTON, TX, 77049",96554630,"R"
54257,"13627 KINGS CANYON CT","FONTANA","CA",92336,34.1106235880001,-117.506358283,257,"13627 KINGS CANYON CT, FONTANA, CA, 92336","Match","Exact","13627 KINGS CANYON CT, FONTANA, CA, 92336",144708156,"L"
54258,"13627 N 41ST ST","PHOENIX","AZ",85032,33.610487591,-111.993080437,258,"13627 N 41ST ST, PHOENIX, AZ, 85032","Match","Exact","13627 N 41ST ST, PHOENIX, AZ, 85032",128186670,"R"
54259,"13628 GILBRIDE LN","CLARKSVILLE","MD",21029,39.220360299,-76.986640235,259,"13628 GILBRIDE LN, CLARKSVILLE, MD, 21029","Match","Exact","13628 GILBRIDE LN, CLARKSVILLE, MD, 21029",617724480,"R"
54260,"13628 SILVER CHARM CT","RIVERVIEW","FL",33579,27.7861144280001,-82.319246226,260,"13628 SILVER CHARM CT, RIVERVIEW, FL, 33579","Match","Exact","13628 SILVER CHARM CT, RIVERVIEW, FL, 33579",636093946,"L"
54261,"13628 WILLMAS ROAD","NEWTON","WI",53063,43.9422720470001,-87.857831252,261,"13628 WILLMAS ROAD, NEWTON, WI, 53063","Match","Exact","13628 WILLMAS RD, NEWTON, WI, 53063",147953521,"L"
54262,"13629 BALTIMORE AVENUE","LAUREL","MD",20707,39.076749772,-76.867550517,262,"13629 BALTIMORE AVENUE, LAUREL, MD, 20707","Match","Exact","13629 BALTIMORE AVE, LAUREL, MD, 20707",76402619,"L"
54263,"13629 NORTH POINT DRIVE","WICHITA","KS",67230,37.708303415,-97.180314564,263,"13629 NORTH POINT DRIVE, WICHITA, KS, 67230","Match","Non_Exact","13629 E NORTH POINT DR, WICHITA, KS, 67230",115676354,"R"
54264,"13629 S KIVA RD","BUCKEYE","AZ",85326,33.322813738,-112.476251388,264,"13629 S KIVA RD, BUCKEYE, AZ, 85326","Match","Exact","13629 S KIVA RD, BUCKEYE, AZ, 85326",128166614,"R"
54265,"13629 S OLD STATE ROAD","ELLENDALE","DE",19941,38.795698288,-75.429640362,265,"13629 S OLD STATE ROAD, ELLENDALE, DE, 19941","Match","Exact","13629 S OLD STATE RD, ELLENDALE, DE, 19941",106135095,"R"
54266,"1363 ABBEY PINES DRIVE","PERRIS","CA",92567,33.8395524580001,-117.196554764,266,"1363 ABBEY PINES DRIVE, PERRIS, CA, 92567","Match","Non_Exact","1363 ABBEY PINES DR, PERRIS, CA, 92571",194835449,"R"
54267,"1363 ADAGIETTO DR","HENDERSON","NV",89052,35.977129346,-115.089782757,267,"1363 ADAGIETTO DR, HENDERSON, NV, 89052","Match","Exact","1363 ADAGIETTO DR, HENDERSON, NV, 89052",201984211,"R"
54268,"1363 BUSH AVE","SAINT PAUL","MN",55106,44.9649352770001,-93.043075806,268,"1363 BUSH AVE, SAINT PAUL, MN, 55106","Match","Exact","1363 BUSH AVE, SAINT PAUL, MN, 55106",97651810,"L"
54269,"1363 CEDAR CLIFF ROAD","MARSHALL","NC",28753,35.9314572320001,-82.718824693,269,"1363 CEDAR CLIFF ROAD, MARSHALL, NC, 28753","Match","Exact","1363 CEDAR CLIFF RD, MARSHALL, NC, 28753",608909737,"L"
54270,"1363 E VALLEY RD","MONTECITO","CA",93108,34.4363825250001,-119.638331138,270,"1363 E VALLEY RD, MONTECITO, CA, 93108","Match","Exact","1363 E VALLEY RD, MONTECITO, CA, 93108",617079300,"R"
54271,"1363 EMPIRE STREET","SILVERTON","CO",81433,37.812394639,-107.662327598,271,"1363 EMPIRE STREET, SILVERTON, CO, 81433","Match","Exact","1363 EMPIRE ST, SILVERTON, CO, 81433",91651513,"L"
54272,"1363 MONTELL RD","WIMBERLEY","TX",78676,30.120865731,-98.2505018639999,272,"1363 MONTELL RD, WIMBERLEY, TX, 78676","Match","Exact","1363 MONTELL RD, WIMBERLEY, TX, 78676",63843790,"R"
54273,"1363 MULFORD RD","COLUMBUS","OH",43212,39.9798449,-83.0411158429999,273,"1363 MULFORD RD, COLUMBUS, OH, 43212","Match","Exact","1363 MULFORD RD, COLUMBUS, OH, 43212",218650856,"L"
54274,"1363 NERKA DRIVE","DILLINGHAM","AK",99576,59.046398057,-158.551893092,274,"1363 NERKA DRIVE, DILLINGHAM, AK, 99576","Match","Exact","1363 NERKA DR, DILLINGHAM, AK, 99576",625733388,"L"
54275,"1363 NORTH MAIN STREET","HARRISONBURG","VA",22802,38.462259434,-78.8517209789999,275,"1363 NORTH MAIN STREET, HARRISONBURG, VA, 22802","Match","Exact","1363 N MAIN ST, HARRISONBURG, VA, 22802",55762853,"L"
54276,"1363 PATRICIA AVE","SIMI VALLEY","CA",93065,34.269983618,-118.772707281,276,"1363 PATRICIA AVE, SIMI VALLEY, CA, 93065","Match","Exact","1363 PATRICIA AVE, SIMI VALLEY, CA, 93065",650050432,"L"
54277,"1363 PINE BRANCH RD","MOUTH OF WILSON","VA",24363,36.647324928,-81.341039752,277,"1363 PINE BRANCH RD, MOUTH OF WILSON, VA, 24363","Match","Exact","1363 PINE BRANCH RD, MOUTH OF WILSON, VA, 24363",153853821,"L"
54278,"1363 S 1100 W","LINTON","IN",47441,39.0053553320001,-87.147921297,278,"1363 S 1100 W, LINTON, IN, 47441","Match","Non_Exact","1363 CO RD 1100 W, LINTON, IN, 47441",39308155,"R"
54279,"1363 SUMMER LANE SE","ATLANTA","GA",30316,33.7159162720001,-84.3516326929999,279,"1363 SUMMER LANE SE, ATLANTA, GA, 30316","Match","Non_Exact","1363 SUMMER LANE DR SE, ATLANTA, GA, 30316",618349009,"L"
54280,"1363 TALBERT TERRACE SE","WASHINGTON","DC",20020,38.860530284,-76.990951706,280,"1363 TALBERT TERRACE SE, WASHINGTON, DC, 20020","Match","Exact","1363 TALBERT TER SE, WASHINGTON, DC, 20020",76231094,"R"
54281,"1363 UNION ST APT B","BROOKLYN","NY",11213,40.6687218100001,-73.9466617739999,281,"1363 UNION ST APT B, BROOKLYN, NY, 11213","Match","Exact","1363 UNION ST, BROOKLYN, NY, 11213",59079464,"L"
54282,"1363 VALMONT TRCE NE","MARIETTA","GA",30066,33.9999105360001,-84.5135500279999,282,"1363 VALMONT TRCE NE, MARIETTA, GA, 30066","Match","Exact","1363 VALMONT TRCE NE, MARIETTA, GA, 30066",17231842,"R"
54283,"1363 VALMONT TRCE NE","MARRIETTA","GA",30066,33.9999105360001,-84.5135500279999,283,"1363 VALMONT TRCE NE, MARRIETTA, GA, 30066","Match","Non_Exact","1363 VALMONT TRCE NE, MARIETTA, GA, 30066",17231842,"R"
54284,"1363 VIRGINIA RD","SAN MARINO","CA",91108,34.122896756,-118.126122429,284,"1363 VIRGINIA RD, SAN MARINO, CA, 91108","Match","Exact","1363 VIRGINIA RD, SAN MARINO, CA, 91108",141631348,"R"
54285,"1363 W CHICAGO AVE","CHICAGO","IL",60642,41.896156235,-87.661671638,285,"1363 W CHICAGO AVE, CHICAGO, IL, 60642","Match","Exact","1363 W CHICAGO AVE, CHICAGO, IL, 60642",111765236,"L"
54286,"1363 WELCH SCHOOL RD","COLLINSVILLE","TX",76233,33.5186730950001,-96.8874490159999,286,"1363 WELCH SCHOOL RD, COLLINSVILLE, TX, 76233","Match","Exact","1363 WELCH SCHOOL RD, COLLINSVILLE, TX, 76233",63348457,"L"
54287,"1363 WILBEC RD","MEMPHIS","TN",38117,35.094790641,-89.891239492,287,"1363 WILBEC RD, MEMPHIS, TN, 38117","Match","Exact","1363 WILBEC RD, MEMPHIS, TN, 38117",72926983,"R"
54288,"13630 LEGACY CIR","HERNDON","VA",20171,38.9491664490001,-77.4196187589999,288,"13630 LEGACY CIR, HERNDON, VA, 20171","Match","Exact","13630 LEGACY CIR, HERNDON, VA, 20171",76043669,"R"
54289,"13630 PODOCARPUS LN","ORLANDO","FL",32828,28.523936357,-81.157956338,289,"13630 PODOCARPUS LN, ORLANDO, FL, 32828","Match","Exact","13630 PODOCARPUS LN, ORLANDO, FL, 32828",650066908,"L"
54290,"13630 TWOPENNY LN","HOUSTON","TN",77015,NA,NA,290,"13630 TWOPENNY LN, HOUSTON, TN, 77015","No_Match",NA,NA,NA,NA
54291,"13630 VICKSTON LANE","HOUSTON","TX",77014,29.9746312140001,-95.4771246619999,291,"13630 VICKSTON LANE, HOUSTON, TX, 77014","Match","Exact","13630 VICKSTON LN, HOUSTON, TX, 77014",96011147,"L"
54292,"13631 41ST AVE STE 2C","FLUSHING","NY",11355,NA,NA,292,"13631 41ST AVE STE 2C, FLUSHING, NY, 11355","No_Match",NA,NA,NA,NA
54293,"13631 HARNESS SHOP CT","GAINESVILLE","VA",20155,38.775721968,-77.597193213,293,"13631 HARNESS SHOP CT, GAINESVILLE, VA, 20155","Match","Exact","13631 HARNESS SHOP CT, GAINESVILLE, VA, 20155",76520495,"R"
54294,"13631 HART DRIVE","CERRITOS","CA",90703,33.8751918360001,-118.040925612,294,"13631 HART DRIVE, CERRITOS, CA, 90703","Match","Exact","13631 HART DR, CERRITOS, CA, 90703",141754234,"L"
54295,"13631 SW CAPULET LANE","KING CITY","OR",97224,45.3993191180001,-122.816852107,295,"13631 SW CAPULET LANE, KING CITY, OR, 97224","Match","Exact","13631 SW CAPULET LN, KING CITY, OR, 97224",627464235,"L"
54296,"13632 DEXTER APT 20","DETROIT","MI",48238,42.390851395,-83.131608259,296,"13632 DEXTER APT 20, DETROIT, MI, 48238","Match","Non_Exact","13632 DEXTER AVE, DETROIT, MI, 48238",95470472,"R"
54297,"13632 POPLAR TREE RD","CHANTILLY","VA",20151,38.875147048,-77.420958598,297,"13632 POPLAR TREE RD, CHANTILLY, VA, 20151","Match","Exact","13632 POPLAR TREE RD, CHANTILLY, VA, 20151",215918722,"R"
54298,"13632 VIA CIMA BELLA","SAN DIEGO","CA",92129,32.9617422470001,-117.121505759,298,"13632 VIA CIMA BELLA, SAN DIEGO, CA, 92129","Match","Exact","13632 VIA CIMA BELLA, SAN DIEGO, CA, 92129",195318076,"L"
54299,"13633 GIORDANO ST","LA PUENTE","CA",91746,34.0536428660001,-117.980524611,299,"13633 GIORDANO ST, LA PUENTE, CA, 91746","Match","Exact","13633 GIORDANO ST, LA PUENTE, CA, 91746",141651933,"L"
54300,"13633 HAYNES AVENUE","MISHAWAKA","IN",46545,41.6749284970001,-86.131074197,300,"13633 HAYNES AVENUE, MISHAWAKA, IN, 46545","Match","Exact","13633 HAYNES AVE, MISHAWAKA, IN, 46545",8063696,"R"
54301,"13633 LYNN ST","WOODBRIDGE","VA",22191,38.6548816170001,-77.26477764,301,"13633 LYNN ST, WOODBRIDGE, VA, 22191","Match","Exact","13633 LYNN ST, WOODBRIDGE, VA, 22191",207153834,"L"
54302,"13633 PACIFIC ECHO DRIVE","CHARLOTTE","NC",28277,35.0365064270001,-80.8679067479999,302,"13633 PACIFIC ECHO DRIVE, CHARLOTTE, NC, 28277","Match","Exact","13633 PACIFIC ECHO DR, CHARLOTTE, NC, 28277",618149756,"L"
54303,"13633","WAUWATOSA","WI",53213,NA,NA,303,"13633, WAUWATOSA, WI, 53213","No_Match",NA,NA,NA,NA
54304,"13634 APPLE MOSS CT","EAST VALE","CA",92880,33.980691447,-117.581559037,304,"13634 APPLE MOSS CT, EAST VALE, CA, 92880","Match","Non_Exact","13634 APPLE MOSS CT, EASTVALE, CA, 92880",626559807,"R"
54305,"13634 EARLHAM DRIVE","WHITTIER","CA",90602,33.9763021740001,-118.030207694,305,"13634 EARLHAM DRIVE, WHITTIER, CA, 90602","Match","Exact","13634 EARLHAM DR, WHITTIER, CA, 90602",241246956,"R"
54306,"13635 CYNTHIA LN 16","POWAY","CA",92064,32.9609719210001,-117.034713949,306,"13635 CYNTHIA LN 16, POWAY, CA, 92064","Match","Exact","13635 CYNTHIA LN, POWAY, CA, 92064",195703183,"R"
54307,"13635 FIRST AVENUE","WINTER GARDEN","FL",34787,28.544553711,-81.6610790519999,307,"13635 FIRST AVENUE, WINTER GARDEN, FL, 34787","Match","Exact","13635 1ST AVE, WINTER GARDEN, FL, 34787",94143427,"R"
54308,"13635 SE EASTRIDGE ST","PORTLAND","OR",97236,45.461783444,-122.521916786,308,"13635 SE EASTRIDGE ST, PORTLAND, OR, 97236","Match","Exact","13635 SE EASTRIDGE ST, PORTLAND, OR, 97236",157556146,"L"
54309,"13635 TOPAZ LAKE","HELOTES","TX",78023,29.5715181250001,-98.662045747,309,"13635 TOPAZ LAKE, HELOTES, TX, 78023","Match","Exact","13635 TOPAZ LAKE, HELOTES, TX, 78023",619993886,"R"
54310,"13635 WALKER ROAD","KANSAS CITY","MO",64163,39.3417626630001,-94.6579055239999,310,"13635 WALKER ROAD, KANSAS CITY, MO, 64163","Match","Non_Exact","13635 NW WALKER RD, KANSAS CITY, MO, 64163",39706370,"L"
54311,"13636 N CANTERBURY DR","PHOENIX","AZ",85023,33.6104293070001,-112.074524816,311,"13636 N CANTERBURY DR, PHOENIX, AZ, 85023","Match","Exact","13636 N CANTERBURY DR, PHOENIX, AZ, 85023",128914818,"L"
54312,"13636 VENTURA BLVD  410","SHERMAN OAKS","CA",91423,34.147852738,-118.430227292,312,"13636 VENTURA BLVD  410, SHERMAN OAKS, CA, 91423","Match","Exact","13636 VENTURA BLVD, SHERMAN OAKS, CA, 91423",141562566,"L"
54313,"13636 VENTURA BLVD SUITE 272","SHERMAN OAKS","CA",91423,34.147852738,-118.430227292,313,"13636 VENTURA BLVD SUITE 272, SHERMAN OAKS, CA, 91423","Match","Exact","13636 VENTURA BLVD, SHERMAN OAKS, CA, 91423",141562566,"L"
54314,"13636 VENTURA BLVD SUITE 273","SHERMAN OAKS","CA",91423,34.147852738,-118.430227292,314,"13636 VENTURA BLVD SUITE 273, SHERMAN OAKS, CA, 91423","Match","Exact","13636 VENTURA BLVD, SHERMAN OAKS, CA, 91423",141562566,"L"
54315,"13636 VENTURA BLVD SUITE 397","SHERMAN OAKS","CA",91403,34.147852738,-118.430227292,315,"13636 VENTURA BLVD SUITE 397, SHERMAN OAKS, CA, 91403","Match","Non_Exact","13636 VENTURA BLVD, SHERMAN OAKS, CA, 91423",141562566,"L"
54316,"13636 VENTURA BLVD UNIT 178","SHERMAN OAKS","CA",91423,34.147852738,-118.430227292,316,"13636 VENTURA BLVD UNIT 178, SHERMAN OAKS, CA, 91423","Match","Exact","13636 VENTURA BLVD, SHERMAN OAKS, CA, 91423",141562566,"L"
54317,"13636 VENTURA BLVD","SHERMAN OAKS","CA",91423,34.147852738,-118.430227292,317,"13636 VENTURA BLVD, SHERMAN OAKS, CA, 91423","Match","Exact","13636 VENTURA BLVD, SHERMAN OAKS, CA, 91423",141562566,"L"
54318,"13638 BREAKWATER PATH LOOP","HOUSTON","TX",77044,29.961215881,-95.162934351,318,"13638 BREAKWATER PATH LOOP, HOUSTON, TX, 77044","Match","Non_Exact","13638 BREAKWATER PATH DR, HOUSTON, TX, 77044",635219457,"L"
54319,"13638 KLONDIKE RD","DESOTO","MO",63020,38.093009566,-90.583950659,319,"13638 KLONDIKE RD, DESOTO, MO, 63020","Match","Non_Exact","13638 KLONDIKE RD, DE SOTO, MO, 63020",62805435,"R"
54320,"13638 PYRAMID DRIVE","FARMERS BRANCH","TX",75234,32.9302190060001,-96.886337684,320,"13638 PYRAMID DRIVE, FARMERS BRANCH, TX, 75234","Match","Exact","13638 PYRAMID DR, FARMERS BRANCH, TX, 75234",102889416,"R"
54321,"13639 GREENWOOD DR","WOODBRIDGE","VA",22193,38.653260318,-77.343353473,321,"13639 GREENWOOD DR, WOODBRIDGE, VA, 22193","Match","Exact","13639 GREENWOOD DR, WOODBRIDGE, VA, 22193",207152383,"L"
54322,"1364 ATLANTIC AVE BLDG 701","DOBBINS ARB","GA",30069,NA,NA,322,"1364 ATLANTIC AVE BLDG 701, DOBBINS ARB, GA, 30069","No_Match",NA,NA,NA,NA
54323,"1364 BLUE WATER DR","FENTON","MI",48430,42.8314557580001,-83.702576614,323,"1364 BLUE WATER DR, FENTON, MI, 48430","Match","Exact","1364 BLUE WATER DR, FENTON, MI, 48430",69579721,"R"
54324,"1364 DEAUVILLE CT","SAN BERNARDINO","CA",92404,34.1662980950001,-117.258582262,324,"1364 DEAUVILLE CT, SAN BERNARDINO, CA, 92404","Match","Exact","1364 DEAUVILLE CT, SAN BERNARDINO, CA, 92404",144654356,"L"
54325,"1364 DIAMOND HILL ROAD","CUMBERLAND","RI",2864,41.9290063010001,-71.401075093,325,"1364 DIAMOND HILL ROAD, CUMBERLAND, RI, 2864","Match","Exact","1364 DIAMOND HILL RD, CUMBERLAND, RI, 02864",47490513,"L"
54326,"1364 EMERALD ST NORTHEAST","WASHINGTON","DC",20002,38.896727748,-76.986545099,326,"1364 EMERALD ST NORTHEAST, WASHINGTON, DC, 20002","Match","Exact","1364 EMERALD ST NE, WASHINGTON, DC, 20002",76230328,"L"
54327,"1364 EMERALD STREET NE","WASHINGTON","DC",20002,38.896727748,-76.986545099,327,"1364 EMERALD STREET NE, WASHINGTON, DC, 20002","Match","Exact","1364 EMERALD ST NE, WASHINGTON, DC, 20002",76230328,"L"
54328,"1364 HARDROCK PL","CASTLE ROCK","CO",80104,39.3303584120001,-104.848357491,328,"1364 HARDROCK PL, CASTLE ROCK, CO, 80104","Match","Exact","1364 HARDROCK PL, CASTLE ROCK, CO, 80104",624586997,"R"
54329,"1364 HOFFMAN DRIVE","ERIE","CO",80516,40.0373575200001,-105.063502405,329,"1364 HOFFMAN DRIVE, ERIE, CO, 80516","Match","Exact","1364 HOFFMAN DR, ERIE, CO, 80516",220751880,"R"
54330,"1364 HUDSON HILLS DR","FERGUSON","MO",63135,NA,NA,330,"1364 HUDSON HILLS DR, FERGUSON, MO, 63135","No_Match",NA,NA,NA,NA
54331,"1364 KALMIA RD NW","WASHINGTON","DC",20002,38.9849697400001,-77.0328032639999,331,"1364 KALMIA RD NW, WASHINGTON, DC, 20002","Match","Non_Exact","1364 KALMIA RD NW, WASHINGTON, DC, 20012",76221503,"L"
54332,"1364 N ARMEL DRIVE","COVINA","CA",91722,34.1039598450001,-117.902871654,332,"1364 N ARMEL DRIVE, COVINA, CA, 91722","Match","Exact","1364 N ARMEL DR, COVINA, CA, 91722",142675005,"R"
54333,"1364 NEW YORK AVENUE APT 2G","BROOKLYN","NY",11210,40.639720438,-73.945479727,333,"1364 NEW YORK AVENUE APT 2G, BROOKLYN, NY, 11210","Match","Non_Exact","1364 NEW YORK AVE, BROOKLYN, NY, 11210",59081582,"R"
54334,"1364 OLD PHELPS RD","HUNTSVILLE","TX",77340,30.705455075,-95.454888151,334,"1364 OLD PHELPS RD, HUNTSVILLE, TX, 77340","Match","Exact","1364 OLD PHELPS RD, HUNTSVILLE, TX, 77340",22205948,"L"
54335,"1364 RED CEDAR TRAIL","STONE MOUNTAIN","GA",30083,33.7536640970001,-84.207852056,335,"1364 RED CEDAR TRAIL, STONE MOUNTAIN, GA, 30083","Match","Exact","1364 RED CEDAR TRL, STONE MOUNTAIN, GA, 30083",23371971,"L"
54336,"1364 SHEFFIELD PARKWAY","MARIETTA","GA",30062,33.9848055580001,-84.4976854609999,336,"1364 SHEFFIELD PARKWAY, MARIETTA, GA, 30062","Match","Exact","1364 SHEFFIELD PKWY, MARIETTA, GA, 30062",17195777,"R"
54337,"1364 SKY HARBOR DRIVE","OLIVEHURST","CA",95961,39.096640479,-121.562313592,337,"1364 SKY HARBOR DRIVE, OLIVEHURST, CA, 95961","Match","Exact","1364 SKY HARBOR DR, OLIVEHURST, CA, 95961",106941832,"R"
54338,"1364 WHISPERING WIND LN","CORONA","CA",92881,33.842041825,-117.542445806,338,"1364 WHISPERING WIND LN, CORONA, CA, 92881","Match","Exact","1364 WHISPERING WIND LN, CORONA, CA, 92881",195077994,"L"
54339,"1364 WINDGATE DR","MANTECA","CA",95336,37.817829327,-121.239458181,339,"1364 WINDGATE DR, MANTECA, CA, 95336","Match","Exact","1364 WINDGATE DR, MANTECA, CA, 95336",133857846,"R"
54340,"1364","S DAISY LN","IN",46136,NA,NA,340,"1364, S DAISY LN, IN, 46136","No_Match",NA,NA,NA,NA
54341,"13640 W SHORE DR","MILLERSBURG","MI",49759,45.2462820060001,-84.077146026,341,"13640 W SHORE DR, MILLERSBURG, MI, 49759","Match","Exact","13640 W SHORE DR, MILLERSBURG, MI, 49759",644536528,"R"
54342,"13641 DEERING BAY DR UNIT 138","CORAL GABLES","FL",33158,25.6332795390001,-80.2903160399999,342,"13641 DEERING BAY DR UNIT 138, CORAL GABLES, FL, 33158","Match","Exact","13641 DEERING BAY DR, CORAL GABLES, FL, 33158",116281113,"L"
54343,"13641 WASHINGTON CIRCLE","OMAHA","NE",68137,41.1966381070001,-96.1257525679999,343,"13641 WASHINGTON CIRCLE, OMAHA, NE, 68137","Match","Exact","13641 WASHINGTON CIR, OMAHA, NE, 68137",116971652,"L"
54344,"13643 35TH AVE 3 FL","FLUSHING","NY",11354,NA,NA,344,"13643 35TH AVE 3 FL, FLUSHING, NY, 11354","No_Match",NA,NA,NA,NA
54345,"13643 CUESTA DEL SOL","LAKESIDE","CA",92040,32.84777416,-116.894683923,345,"13643 CUESTA DEL SOL, LAKESIDE, CA, 92040","Match","Exact","13643 CUESTA DEL SOL, LAKESIDE, CA, 92040",195697163,"R"
54346,"13643 SW 278 TERRACE","HOMESTEAD","FL",33032,25.5084446920001,-80.411064841,346,"13643 SW 278 TERRACE, HOMESTEAD, FL, 33032","Match","Exact","13643 SW 278TH TER, HOMESTEAD, FL, 33032",116298597,"R"
54347,"13644 BETHANY CHURCH RD","SMITHFIELD","VA",23430,37.0159129570001,-76.686271655,347,"13644 BETHANY CHURCH RD, SMITHFIELD, VA, 23430","Match","Exact","13644 BETHANY CHURCH RD, SMITHFIELD, VA, 23430",198638557,"L"
54348,"13644 SEWARD CIRCLE","OMAHA","NE",68154,41.2746082730001,-96.128360925,348,"13644 SEWARD CIRCLE, OMAHA, NE, 68154","Match","Exact","13644 SEWARD CIR, OMAHA, NE, 68154",116967676,"L"
54349,"13644 YARMOUTH CT APT B","WELLINGTON","FL",33414,26.645392128,-80.2635566439999,349,"13644 YARMOUTH CT APT B, WELLINGTON, FL, 33414","Match","Exact","13644 YARMOUTH CT, WELLINGTON, FL, 33414",115578666,"R"
54350,"13645 BRANDY PLACE","CHINO HILLS","CA",91709,34.005353986,-117.738464808,350,"13645 BRANDY PLACE, CHINO HILLS, CA, 91709","Match","Exact","13645 BRANDY PL, CHINO HILLS, CA, 91709",144974023,"L"
54351,"13645 BRYNWOOD RD","VICTORVILLE","CA",92392,34.498616752,-117.404351891,351,"13645 BRYNWOOD RD, VICTORVILLE, CA, 92392","Match","Non_Exact","13645 BRYNWOOD ST, VICTORVILLE, CA, 92392",640046687,"R"
54352,"13645 E COLONIAL DRIVE APT 108","ORLANDO","FL",32826,28.5654239880001,-81.1818954189999,352,"13645 E COLONIAL DRIVE APT 108, ORLANDO, FL, 32826","Match","Non_Exact","13645 E COLONIAL DR, ORLANDO, FL, 32826",94296661,"L"
54353,"13645 MURPHY RD STE 227","STAFFORD","TX",77477,29.6244796230001,-95.5648382909999,353,"13645 MURPHY RD STE 227, STAFFORD, TX, 77477","Match","Exact","13645 MURPHY RD, STAFFORD, TX, 77477",78341145,"R"
54354,"13645 PIERCE ST NE","HAM LAKE","MN",55304,45.218330505,-93.241237837,354,"13645 PIERCE ST NE, HAM LAKE, MN, 55304","Match","Exact","13645 PIERCE ST NE, HAM LAKE, MN, 55304",97509230,"L"
54355,"13646 DEXTER STREET","THORNTON","CO",80602,39.9446454160001,-104.932949922,355,"13646 DEXTER STREET, THORNTON, CO, 80602","Match","Exact","13646 DEXTER ST, THORNTON, CO, 80602",601666818,"L"
54356,"13647 DEERING BAY DRIVE NO 122","CORAL GABLES","FL",33134,NA,NA,356,"13647 DEERING BAY DRIVE NO 122, CORAL GABLES, FL, 33134","No_Match",NA,NA,NA,NA
54357,"13647 GEORGIA AVE","SILVER SPRING","TX",20906,NA,NA,357,"13647 GEORGIA AVE, SILVER SPRING, TX, 20906","No_Match",NA,NA,NA,NA
54358,"13648 REDBUD RD","CHOCTAW","OK",73020,35.459835979,-97.287580373,358,"13648 REDBUD RD, CHOCTAW, OK, 73020","Match","Non_Exact","13648 RED BUD RD, CHOCTAW, OK, 73020",646686469,"R"
54359,"1365 BERRA BLVD","TOOELE","UT",84074,40.556256708,-112.306502184,359,"1365 BERRA BLVD, TOOELE, UT, 84074","Match","Non_Exact","1365 N BERRA BLVD, TOOELE, UT, 84074",155400845,"R"
54360,"1365 BIG BUCKHEAD CHURCH ROAD","PERKINS","GA",30822,NA,NA,360,"1365 BIG BUCKHEAD CHURCH ROAD, PERKINS, GA, 30822","No_Match",NA,NA,NA,NA
54361,"1365 CARROLL ST APT 1-C","BROOKLYN","NY",11213,40.666753419,-73.942795629,361,"1365 CARROLL ST APT 1-C, BROOKLYN, NY, 11213","Match","Exact","1365 CARROLL ST, BROOKLYN, NY, 11213",59079696,"L"
54362,"1365 CONLEY RD APT D-10","CONLEY","GA",30288,33.644186635,-84.3458166999999,362,"1365 CONLEY RD APT D-10, CONLEY, GA, 30288","Match","Exact","1365 CONLEY RD, CONLEY, GA, 30288",23323876,"R"
54363,"1365 CONNECTICUT AVE NW SUITE 100","WASHINGTON","DC",20036,38.908406014,-77.042712276,363,"1365 CONNECTICUT AVE NW SUITE 100, WASHINGTON, DC, 20036","Match","Exact","1365 CONNECTICUT AVE NW, WASHINGTON, DC, 20036",649879526,"R"
54364,"1365 CRAFTON AVE APT 1041","MENTONE","CA",92359,NA,NA,364,"1365 CRAFTON AVE APT 1041, MENTONE, CA, 92359","Tie",NA,NA,NA,NA
54365,"1365 DEEP BOTTOM ROAD","WALLACE","NC",28466,34.758286422,-77.793118931,365,"1365 DEEP BOTTOM ROAD, WALLACE, NC, 28466","Match","Exact","1365 DEEP BOTTOM RD, WALLACE, NC, 28466",13415531,"R"
54366,"1365 E 9 STREET","BROOKLYN","NY",11230,40.6159599050001,-73.96545753,366,"1365 E 9 STREET, BROOKLYN, NY, 11230","Match","Exact","1365 E 9TH ST, BROOKLYN, NY, 11230",59089640,"L"
54367,"1365 EAGLECREST ROAD","SALINA","KS",67401,38.7991113420001,-97.588552003,367,"1365 EAGLECREST ROAD, SALINA, KS, 67401","Match","Non_Exact","1365 EAGLECREST AVE, SALINA, KS, 67401",625850166,"L"
54368,"1365 EAST 350 NORTH","BOUNTIFUL","UT",84010,NA,NA,368,"1365 EAST 350 NORTH, BOUNTIFUL, UT, 84010","No_Match",NA,NA,NA,NA
54369,"1365 FIDDLESTICK BLVD SUITE 202-265","FORT MYERS","FL",33912,NA,NA,369,"1365 FIDDLESTICK BLVD SUITE 202-265, FORT MYERS, FL, 33912","No_Match",NA,NA,NA,NA
54370,"1365 GATEWOOD DRIVE","AUBURN","AL",36830,32.6349430700001,-85.449380154,370,"1365 GATEWOOD DRIVE, AUBURN, AL, 36830","Match","Exact","1365 GATEWOOD DR, AUBURN, AL, 36830",1600779,"L"
54371,"1365 HIBISCUS AVE","WINTER PARK","FL",32789,28.6172306510001,-81.335130039,371,"1365 HIBISCUS AVE, WINTER PARK, FL, 32789","Match","Exact","1365 HIBISCUS AVE, WINTER PARK, FL, 32789",94418050,"L"
54372,"1365 LAWRENCE TEDDER RD","WHITEVILLE","NC",28472,34.348404342,-78.7733597279999,372,"1365 LAWRENCE TEDDER RD, WHITEVILLE, NC, 28472","Match","Exact","1365 LAWRENCE TEDDER RD, WHITEVILLE, NC, 28472",624935918,"L"
54373,"1365 LINDEN AVENUE","MACON","GA",31201,32.8331283100001,-83.650088027,373,"1365 LINDEN AVENUE, MACON, GA, 31201","Match","Exact","1365 LINDEN AVE, MACON, GA, 31201",81061426,"R"
54374,"1365 MAPLE COURT","PORT WASHINGTON","WI",53074,43.378222328,-87.896158488,374,"1365 MAPLE COURT, PORT WASHINGTON, WI, 53074","Match","Exact","1365 MAPLE CT, PORT WASHINGTON, WI, 53074",95905621,"L"
54375,"1365 MEMORIAL DRIVE","ATLANTA","GA",30317,33.7475621790001,-84.342497301,375,"1365 MEMORIAL DRIVE, ATLANTA, GA, 30317","Match","Non_Exact","1365 MEMORIAL DR SE, ATLANTA, GA, 30317",23365334,"R"
54376,"1365 MOYER ROAD","ANNAPOLIS","MD",21403,38.934367181,-76.478486354,376,"1365 MOYER ROAD, ANNAPOLIS, MD, 21403","Match","Exact","1365 MOYER RD, ANNAPOLIS, MD, 21403",68176718,"L"
54377,"1365 N 6TH ST APT 32","ALBEMARLE","NC",28001,35.3689563180001,-80.193160737,377,"1365 N 6TH ST APT 32, ALBEMARLE, NC, 28001","Match","Non_Exact","1365 N 6TH ST, ALBEMARLE, NC, 28001",14079565,"L"
54378,"1365 NE 105TH ST STE 4","MIAMI SHORES","FL",33138,25.8720706390001,-80.170679987,378,"1365 NE 105TH ST STE 4, MIAMI SHORES, FL, 33138","Match","Non_Exact","1365 NE 105TH ST, MIAMI SHORES, FL, 33138",116050436,"L"
54379,"1365 NE 111TH ST APT 4","NORTH MIAMI","FL",33161,25.878354949,-80.170495068,379,"1365 NE 111TH ST APT 4, NORTH MIAMI, FL, 33161","Match","Non_Exact","1365 NE 111TH ST, NORTH MIAMI, FL, 33161",116037923,"L"
54380,"1365 NE 31ST ST","ANKENY","IA",50021,41.75945045,-93.575575997,380,"1365 NE 31ST ST, ANKENY, IA, 50021","Match","Exact","1365 NE 31ST ST, ANKENY, IA, 50021",65863802,"R"
54381,"1365 NE BRANDI WAY APT B1004","PULLMAN","WA",99163,46.7403524960001,-117.165349596,381,"1365 NE BRANDI WAY APT B1004, PULLMAN, WA, 99163","Match","Exact","1365 BRANDI WAY, PULLMAN, WA, 99163",634220752,"L"
54382,"1365 NORTH AVE APT 6B","ELIZABETH","NJ",7208,40.681915421,-74.2116195089999,382,"1365 NORTH AVE APT 6B, ELIZABETH, NJ, 7208","Match","Exact","1365 NORTH AVE, ELIZABETH, NJ, 07208",60578577,"R"
54383,"1365 PIERCE AVENUE","NIAGARA FALLS","NY",14301,43.101737847,-79.045900908,383,"1365 PIERCE AVENUE, NIAGARA FALLS, NY, 14301","Match","Exact","1365 PIERCE AVE, NIAGARA FALLS, NY, 14301",48686112,"R"
54384,"1365 S GERMANTOWN RD","GERMANTOWN","TN",38138,35.1117575110001,-89.8023983209999,384,"1365 S GERMANTOWN RD, GERMANTOWN, TN, 38138","Match","Exact","1365 S GERMANTOWN RD, GERMANTOWN, TN, 38138",607537287,"R"
54385,"1365 SHETLAND DRIVE","ST JOHNS","FL",32259,NA,NA,385,"1365 SHETLAND DRIVE, ST JOHNS, FL, 32259","No_Match",NA,NA,NA,NA
54386,"1365 SILVER SPRINGS DRIVE","LEXINGTON","KY",40511,38.0820474930001,-84.484010042,386,"1365 SILVER SPRINGS DRIVE, LEXINGTON, KY, 40511","Match","Exact","1365 SILVER SPRINGS DR, LEXINGTON, KY, 40511",618013678,"L"
54387,"1365 SUMAC DR","LOGAN","UT",84321,41.737972245,-111.801307303,387,"1365 SUMAC DR, LOGAN, UT, 84321","Match","Exact","1365 SUMAC DR, LOGAN, UT, 84321",155095559,"L"
54388,"1365 TEAKWOOD DRIVE","TAYLORSVILLE","UT",84123,40.6747615950001,-111.931311584,388,"1365 TEAKWOOD DRIVE, TAYLORSVILLE, UT, 84123","Match","Exact","1365 TEAKWOOD DR, TAYLORSVILLE, UT, 84123",176073445,"L"
54389,"1365 TOLMAN CREEK RD","ASHLAND","OR",97520,42.1698155030001,-122.671515445,389,"1365 TOLMAN CREEK RD, ASHLAND, OR, 97520","Match","Exact","1365 TOLMAN CREEK RD, ASHLAND, OR, 97520",649910773,"L"
54390,"1365 WEST 7TH STREET APT 6H","BROOKLYN","NY",11204,40.612491264,-73.981537679,390,"1365 WEST 7TH STREET APT 6H, BROOKLYN, NY, 11204","Match","Exact","1365 W 7TH ST, BROOKLYN, NY, 11204",59089393,"L"
54391,"1365 YORK AVE  APT 18B","NEW YORK","NY",10021,40.767330557,-73.953407496,391,"1365 YORK AVE  APT 18B, NEW YORK, NY, 10021","Match","Exact","1365 YORK AVE, NEW YORK, NY, 10021",59658445,"L"
54392,"13650 CLEMSON COURT","MORENO VALLEY","CA",92555,33.921931015,-117.162483002,392,"13650 CLEMSON COURT, MORENO VALLEY, CA, 92555","Match","Exact","13650 CLEMSON CT, MORENO VALLEY, CA, 92555",194819701,"R"
54393,"13650 FIDDLESTICKS BLVD 202-218","FORT MYERS","FL",33912,26.5440252980001,-81.8042001279999,393,"13650 FIDDLESTICKS BLVD 202-218, FORT MYERS, FL, 33912","Match","Exact","13650 FIDDLESTICKS BLVD, FORT MYERS, FL, 33912",118120964,"R"
54394,"13650 HAMILTON STREET","OMAHA","NE",68154,41.273394651,-96.128073053,394,"13650 HAMILTON STREET, OMAHA, NE, 68154","Match","Exact","13650 HAMILTON ST, OMAHA, NE, 68154",621688629,"R"
54395,"13650 PHEASANT RIDGE COURT","CHELSEA","MI",48118,42.3386088400001,-84.003736734,395,"13650 PHEASANT RIDGE COURT, CHELSEA, MI, 48118","Match","Exact","13650 PHEASANT RIDGE CT, CHELSEA, MI, 48118",26049878,"R"
54396,"13650 WICKER AVE","CEDAR LAKE","IN",46303,41.3685403650001,-87.4701081119999,396,"13650 WICKER AVE, CEDAR LAKE, IN, 46303","Match","Exact","13650 WICKER AVE, CEDAR LAKE, IN, 46303",653692786,"L"
54397,"13651 HASTENBECK DR","GAINESVILLE","VA",20155,38.7892027670001,-77.59973114,397,"13651 HASTENBECK DR, GAINESVILLE, VA, 20155","Match","Exact","13651 HASTENBECK DR, GAINESVILLE, VA, 20155",634429476,"R"
54398,"13651 HOUGH ROAD","ALLENTON","MI",48002,42.9099719290001,-82.872996085,398,"13651 HOUGH ROAD, ALLENTON, MI, 48002","Match","Exact","13651 HOUGH RD, ALLENTON, MI, 48002",642515843,"R"
54399,"13651 N 32ND STREET","PHOENIX","AZ",85032,33.6110309360001,-112.01325012,399,"13651 N 32ND STREET, PHOENIX, AZ, 85032","Match","Exact","13651 N 32ND ST, PHOENIX, AZ, 85032",128915255,"R"
54400,"13651 SARATOGA SUNNYVALE ROAD","SARATOGA","CA",95070,37.2699317,-122.032056598,400,"13651 SARATOGA SUNNYVALE ROAD, SARATOGA, CA, 95070","Match","Exact","13651 SARATOGA SUNNYVALE RD, SARATOGA, CA, 95070",618175277,"R"
54401,"13653 WEST PONDEROSA COURT","WICHITA","KS",67235,37.704541105,-97.499579355,401,"13653 WEST PONDEROSA COURT, WICHITA, KS, 67235","Match","Exact","13653 W PONDEROSA CT, WICHITA, KS, 67235",632560402,"R"
54402,"13655 ROAD K","OTTAWA","OH",45875,41.0211486580001,-84.120739602,402,"13655 ROAD K, OTTAWA, OH, 45875","Match","Exact","13655 RD K, OTTAWA, OH, 45875",208942101,"R"
54403,"13655 SAN ANTONIO ROAD","ATASCADERO","CA",93422,35.43423713,-120.632925391,403,"13655 SAN ANTONIO ROAD, ATASCADERO, CA, 93422","Match","Exact","13655 SAN ANTONIO RD, ATASCADERO, CA, 93422",109796670,"R"
54404,"13656 BENT TREE CIR UNIT 104","CENTREVILLE","VA",20121,38.8371532940001,-77.419814978,404,"13656 BENT TREE CIR UNIT 104, CENTREVILLE, VA, 20121","Match","Exact","13656 BENT TREE CIR, CENTREVILLE, VA, 20121",76004171,"L"
54405,"13657 ABANA DR","CERRITOS","CA",90703,33.8737857720001,-118.040573562,405,"13657 ABANA DR, CERRITOS, CA, 90703","Match","Exact","13657 ABANA DR, CERRITOS, CA, 90703",141754264,"L"
54406,"13657 CEDAR CREEK LANE","SILVER SPRING","MD",20904,39.0801624360001,-76.973190185,406,"13657 CEDAR CREEK LANE, SILVER SPRING, MD, 20904","Match","Exact","13657 CEDAR CREEK LN, SILVER SPRING, MD, 20904",62105722,"R"
54407,"13657 JUPITER ROAD SUITE 107","DALLAS","TX",75238,32.8839281640001,-96.6831681629999,407,"13657 JUPITER ROAD SUITE 107, DALLAS, TX, 75238","Match","Exact","13657 JUPITER RD, DALLAS, TX, 75238",102917902,"R"
54408,"13659 VICTORY BLVD","VAN NUYS","CA",91401,34.186675472,-118.430256918,408,"13659 VICTORY BLVD, VAN NUYS, CA, 91401","Match","Exact","13659 VICTORY BLVD, VAN NUYS, CA, 91401",141561382,"R"
54409,"1365A DRY CREEK ROAD","HEALDSBURG","CA",95448,38.633177517,-122.897294244,409,"1365A DRY CREEK ROAD, HEALDSBURG, CA, 95448","Match","Exact","1365 DRY CREEK RD, HEALDSBURG, CA, 95448",67499095,"R"
54410,"1366 120TH RD","SENECA","KS",66538,39.7833565330001,-96.0062523839999,410,"1366 120TH RD, SENECA, KS, 66538","Match","Exact","1366 120TH RD, SENECA, KS, 66538",10209405,"R"
54411,"1366 62ND STREET","BROOKLYN","NY",11219,40.6268450530001,-73.998316286,411,"1366 62ND STREET, BROOKLYN, NY, 11219","Match","Exact","1366 62ND ST, BROOKLYN, NY, 11219",59101730,"R"
54412,"1366 CENTER AVE","JIM THORPE","PA",18229,40.8592596760001,-75.767699124,412,"1366 CENTER AVE, JIM THORPE, PA, 18229","Match","Exact","1366 CENTER AVE, JIM THORPE, PA, 18229",80619176,"L"
54413,"1366 CONIFER TRAIL","ELIZABETH","CO",80107,39.420402569,-104.637689294,413,"1366 CONIFER TRAIL, ELIZABETH, CO, 80107","Match","Exact","1366 CONIFER TRL, ELIZABETH, CO, 80107",130879407,"L"
54414,"1366 E ALEXANDER AVE","MERCED","CA",95340,37.315731058,-120.454895945,414,"1366 E ALEXANDER AVE, MERCED, CA, 95340","Match","Exact","1366 E ALEXANDER AVE, MERCED, CA, 95340",125324769,"L"
54415,"1366 EAST 114TH","CLEVELAND","OH",44105,NA,NA,415,"1366 EAST 114TH, CLEVELAND, OH, 44105","No_Match",NA,NA,NA,NA
54416,"1366 EAST 114TH","CLEVELAND","OH",44106,41.521316847,-81.605943106,416,"1366 EAST 114TH, CLEVELAND, OH, 44106","Match","Non_Exact","1366 E 114TH ST, CLEVELAND, OH, 44106",61122021,"R"
54417,"1366 HOOVER PLACE","WOODLAND","CA",95776,38.6602318110001,-121.757691801,417,"1366 HOOVER PLACE, WOODLAND, CA, 95776","Match","Exact","1366 HOOVER PL, WOODLAND, CA, 95776",67698829,"L"
54418,"1366 MCKINSEY RIDGE","LOGANVILLE","GA",30052,33.7583304020001,-83.872189259,418,"1366 MCKINSEY RIDGE, LOGANVILLE, GA, 30052","Match","Exact","1366 MCKINSEY RIDGE, LOGANVILLE, GA, 30052",618470563,"L"
54419,"1366 NAPOLI STREET","OCEANSIDE","CA",92056,33.2257284390001,-117.281776399,419,"1366 NAPOLI STREET, OCEANSIDE, CA, 92056","Match","Exact","1366 NAPOLI ST, OCEANSIDE, CA, 92056",195428087,"L"
54420,"1366 PACIFIC STREET APT 1","BROOKLYN","NY",11216,40.6774081470001,-73.94535647,420,"1366 PACIFIC STREET APT 1, BROOKLYN, NY, 11216","Match","Exact","1366 PACIFIC ST, BROOKLYN, NY, 11216",59079428,"R"
54421,"1366 ROSELY ROAD","SAINT MARYS","PA",15857,41.4279890830001,-78.520372101,421,"1366 ROSELY ROAD, SAINT MARYS, PA, 15857","Match","Exact","1366 ROSELY RD, SAINT MARYS, PA, 15857",157845554,"L"
54422,"1366 S CUMBERLAND AVE","REPUBLIC","MO",65738,37.101644935,-93.454947062,422,"1366 S CUMBERLAND AVE, REPUBLIC, MO, 65738","Match","Exact","1366 S CUMBERLAND AVE, REPUBLIC, MO, 65738",627115786,"L"
54423,"1366 SHERIDAN STREET NW","WASHINGTON","DC",20011,38.9661264220001,-77.032095882,423,"1366 SHERIDAN STREET NW, WASHINGTON, DC, 20011","Match","Exact","1366 SHERIDAN ST NW, WASHINGTON, DC, 20011",76221643,"L"
54424,"1366 SOUTH ALVARADO STREET","LOS ANGELES","CA",90007,34.045604761,-118.28373863,424,"1366 SOUTH ALVARADO STREET, LOS ANGELES, CA, 90007","Match","Non_Exact","1366 S ALVARADO ST, LOS ANGELES, CA, 90006",142457471,"L"
54425,"1366 STANFORD AVENUE","SAINT PAUL","MN",55105,44.9323982380001,-93.157999784,425,"1366 STANFORD AVENUE, SAINT PAUL, MN, 55105","Match","Exact","1366 STANFORD AVE, SAINT PAUL, MN, 55105",97645919,"L"
54426,"1366 STURGEON POINT ROAD","DERBY","NY",14047,42.6798215840001,-78.9894277939999,426,"1366 STURGEON POINT ROAD, DERBY, NY, 14047","Match","Exact","1366 STURGEON POINT RD, DERBY, NY, 14047",48338671,"L"
54427,"1366 WEST NOPAL AVENUE","MESA","AZ",85202,33.3654554180001,-111.862683576,427,"1366 WEST NOPAL AVENUE, MESA, AZ, 85202","Match","Exact","1366 W NOPAL AVE, MESA, AZ, 85202",128792386,"R"
54428,"1366 WESTERN AVE","SAINT PAUL","MN",55117,44.98210777,-93.116057815,428,"1366 WESTERN AVE, SAINT PAUL, MN, 55117","Match","Non_Exact","1366 N WESTERN AVE, SAINT PAUL, MN, 55117",97689046,"R"
54429,"13660 INNERARITY POINT ROAD","PENSACOLA","FL",32507,30.318398218,-87.428891113,429,"13660 INNERARITY POINT ROAD, PENSACOLA, FL, 32507","Match","Exact","13660 INNERARITY POINT RD, PENSACOLA, FL, 32507",93208997,"L"
54430,"13660 STANSBURY AVENUE","DETROIT","MI",48227,42.3870342980001,-83.1820477649999,430,"13660 STANSBURY AVENUE, DETROIT, MI, 48227","Match","Non_Exact","13660 STANSBURY ST, DETROIT, MI, 48227",95717316,"R"
54431,"13660 VIA VARRA RD APT 212","BROOMFIELD","CO",80020,39.9438491610001,-105.123295896,431,"13660 VIA VARRA RD APT 212, BROOMFIELD, CO, 80020","Match","Non_Exact","13660 VIA VARRA, BROOMFIELD, CO, 80020",641287526,"R"
54432,"13661 DEL PRADO DRIVE S","LARGO","FL",33774,27.8704820940001,-82.827302846,432,"13661 DEL PRADO DRIVE S, LARGO, FL, 33774","Match","Exact","13661 DEL PRADO DR S, LARGO, FL, 33774",124672913,"R"
54433,"13661 HUBBARD STREET","SYLMAR","CA",91342,34.306859123,-118.430951238,433,"13661 HUBBARD STREET, SYLMAR, CA, 91342","Match","Exact","13661 HUBBARD ST, SYLMAR, CA, 91342",640414135,"R"
54434,"13662 BUNKER HILL PLACE","CHINO","CA",91710,34.0090418240001,-117.665095105,434,"13662 BUNKER HILL PLACE, CHINO, CA, 91710","Match","Exact","13662 BUNKER HILL PL, CHINO, CA, 91710",144733911,"L"
54435,"13662 FM 421","KOUNTZE","TX",77625,30.2007228590001,-94.354992618,435,"13662 FM 421, KOUNTZE, TX, 77625","Match","Non_Exact","13662 STATE HWY 421, KOUNTZE, TX, 77625",648166148,"L"
54436,"13663 INVERNESS AVENUE NW","UNIONTOWN","OH",44685,40.9872178470001,-81.390409716,436,"13663 INVERNESS AVENUE NW, UNIONTOWN, OH, 44685","Match","Exact","13663 INVERNESS AVE NW, UNIONTOWN, OH, 44685",64690845,"L"
54437,"13664 GHOST CANYON RD","HERMOSA","WY",57744,NA,NA,437,"13664 GHOST CANYON RD, HERMOSA, WY, 57744","No_Match",NA,NA,NA,NA
54438,"13664 S SANIBEL STREET","PLAINFIELD","IL",60544,41.6332098020001,-88.2608521619999,438,"13664 S SANIBEL STREET, PLAINFIELD, IL, 60544","Match","Exact","13664 SANIBEL ST, PLAINFIELD, IL, 60544",630023335,"R"
54439,"13665 VEST LANE","VERONA","KY",41092,38.844412135,-84.631841379,439,"13665 VEST LANE, VERONA, KY, 41092","Match","Exact","13665 VEST LN, VERONA, KY, 41092",81949688,"L"
54440,"13667 SE FLORA AVE","HOBE SOUND","FL",33455,27.0378403760001,-80.149234002,440,"13667 SE FLORA AVE, HOBE SOUND, FL, 33455","Match","Exact","13667 SE FLORA AVE, HOBE SOUND, FL, 33455",120424014,"R"
54441,"13668 SANDPIPER PL","VICTORVILLE","CA",92392,34.4983221140001,-117.441489335,441,"13668 SANDPIPER PL, VICTORVILLE, CA, 92392","Match","Exact","13668 SANDPIPER PL, VICTORVILLE, CA, 92392",614842848,"L"
54442,"13669 KARAH LN","LINDALE","TX",75771,32.536688585,-95.391467408,442,"13669 KARAH LN, LINDALE, TX, 75771","Match","Exact","13669 KARAH LN, LINDALE, TX, 75771",651963798,"L"
54443,"1367 AMARYLLIS WAY","RIVERDALE","GA",30296,33.5607451820001,-84.42168222,443,"1367 AMARYLLIS WAY, RIVERDALE, GA, 30296","Match","Exact","1367 AMARYLLIS WAY, RIVERDALE, GA, 30296",23332288,"R"
54444,"1367 CHURCHILL RD","LYNDHURST","OH",44124,41.522719259,-81.485991971,444,"1367 CHURCHILL RD, LYNDHURST, OH, 44124","Match","Exact","1367 CHURCHILL RD, LYNDHURST, OH, 44124",61133762,"L"
54445,"1367 DOOLEY LN","GEARHART","OR",97138,46.0381365920001,-123.911876904,445,"1367 DOOLEY LN, GEARHART, OR, 97138","Match","Exact","1367 DOOLEY LN, GEARHART, OR, 97138",632559184,"R"
54446,"1367 E 100 S","SALT LAKE CITY","UT",84102,40.767026958,-111.851451856,446,"1367 E 100 S, SALT LAKE CITY, UT, 84102","Match","Exact","1367 E 100 S, SALT LAKE CITY, UT, 84102",176134524,"L"
54447,"1367 E TENNESSEE ST","TALLAHASSEE","FL",32308,30.4478399550001,-84.2619009699999,447,"1367 E TENNESSEE ST, TALLAHASSEE, FL, 32308","Match","Exact","1367 E TENNESSEE ST, TALLAHASSEE, FL, 32308",82889466,"R"
54448,"1367 GWERDER CT","TRACY","CA",95377,37.7425935090001,-121.476008523,448,"1367 GWERDER CT, TRACY, CA, 95377","Match","Exact","1367 GWERDER CT, TRACY, CA, 95377",133910201,"L"
54449,"1367 HARBOR VW E","HOLLYWOOD","FL",33019,25.999805065,-80.124752029,449,"1367 HARBOR VW E, HOLLYWOOD, FL, 33019","Match","Exact","1367 HARBOR VW E, HOLLYWOOD, FL, 33019",114801008,"R"
54450,"1367 HARDSCRABBLE ROAD","CADYVILLE","NY",12918,44.651145924,-73.714311285,450,"1367 HARDSCRABBLE ROAD, CADYVILLE, NY, 12918","Match","Exact","1367 HARDSCRABBLE RD, CADYVILLE, NY, 12918",647421106,"R"
54451,"1367 HILLSIDE DRIVE","SARATOGA SPRINGS","UT",84045,40.337042281,-111.92509682,451,"1367 HILLSIDE DRIVE, SARATOGA SPRINGS, UT, 84045","Match","Exact","1367 HILLSIDE DR, SARATOGA SPRINGS, UT, 84045",601223327,"L"
54452,"1367 JONES RD","RENTZ","GA",31075,32.3532914740001,-82.964591021,452,"1367 JONES RD, RENTZ, GA, 31075","Match","Exact","1367 JONES RD, RENTZ, GA, 31075",100664315,"L"
54453,"1367 LA SOLANA","ALTADENA","CA",91001,34.186966673,-118.122263649,453,"1367 LA SOLANA, ALTADENA, CA, 91001","Match","Non_Exact","1367 LA SOLANA DR, ALTADENA, CA, 91001",141628465,"L"
54454,"1367 PECAN STREET","COLORADO SPRINGS","CO",80904,38.8336364670001,-104.860449453,454,"1367 PECAN STREET, COLORADO SPRINGS, CO, 80904","Match","Exact","1367 PECAN ST, COLORADO SPRINGS, CO, 80904",610727854,"L"
54455,"1367 POLLARD DR SW","ATLANTA","GA",30311,33.718186046,-84.456436896,455,"1367 POLLARD DR SW, ATLANTA, GA, 30311","Match","Exact","1367 POLLARD DR SW, ATLANTA, GA, 30311",17340819,"R"
54456,"1367 S COUNTRY CLUB DR  UNIT 1091","MESA","AZ",85210,33.391354893,-111.840066067,456,"1367 S COUNTRY CLUB DR  UNIT 1091, MESA, AZ, 85210","Match","Non_Exact","1367 S COUNTRY CLUB DR, MESA, AZ, 85210",243919525,"L"
54457,"1367 S COUNTRY CLUB DR NO 1306","MESA","AZ",85210,NA,NA,457,"1367 S COUNTRY CLUB DR NO 1306, MESA, AZ, 85210","No_Match",NA,NA,NA,NA
54458,"1367 SINCLAIR DR","DUPONT","WA",98327,47.091572431,-122.683754343,458,"1367 SINCLAIR DR, DUPONT, WA, 98327","Match","Exact","1367 SINCLAIR DR, DUPONT, WA, 98327",625031038,"L"
54459,"1367 STATE ROUTE 130 NORTH","MORGANFIELD","KY",42437,NA,NA,459,"1367 STATE ROUTE 130 NORTH, MORGANFIELD, KY, 42437","No_Match",NA,NA,NA,NA
54460,"1367 SUN GLO DR","GRANTS PASS","OR",97527,42.424258539,-123.368700358,460,"1367 SUN GLO DR, GRANTS PASS, OR, 97527","Match","Exact","1367 SUN GLO DR, GRANTS PASS, OR, 97527",156615738,"R"
54461,"1367 WASHINGTON STREET","ANDTOVER","IA",52071,NA,NA,461,"1367 WASHINGTON STREET, ANDTOVER, IA, 52071","No_Match",NA,NA,NA,NA
54462,"13670 MONTAGUE ST","ARLETA","CA",91331,34.2340923880001,-118.429768297,462,"13670 MONTAGUE ST, ARLETA, CA, 91331","Match","Exact","13670 MONTAGUE ST, ARLETA, CA, 91331",141550043,"L"
54463,"13670 MONTAGUE STREET","ARLETA","CA",91331,34.2340923880001,-118.429768297,463,"13670 MONTAGUE STREET, ARLETA, CA, 91331","Match","Exact","13670 MONTAGUE ST, ARLETA, CA, 91331",141550043,"L"
54464,"13671 HWY 28","WHITWELL","TN",37397,35.1986812280001,-85.517581228,464,"13671 HWY 28, WHITWELL, TN, 37397","Match","Non_Exact","13671 STATE HWY 28, WHITWELL, TN, 37397",58411820,"L"
54465,"13671 KILLEBREW WAY","WINTER GARDEN","FL",34787,28.535396796,-81.597911024,465,"13671 KILLEBREW WAY, WINTER GARDEN, FL, 34787","Match","Exact","13671 KILLEBREW WAY, WINTER GARDEN, FL, 34787",645098753,"R"
54466,"13671 VETERANS MEMORIAL HWY","WINSTON","GA",30187,NA,NA,466,"13671 VETERANS MEMORIAL HWY, WINSTON, GA, 30187","No_Match",NA,NA,NA,NA
54467,"13672 BRENNAN RD","CHESANING","MI",48616,43.2204199500001,-84.248436461,467,"13672 BRENNAN RD, CHESANING, MI, 48616","Match","Exact","13672 BRENNAN RD, CHESANING, MI, 48616",80203920,"L"
54468,"13675 JACKSON ROAD","ZACHARY","LA",70791,30.6856255770001,-91.0173292539999,468,"13675 JACKSON ROAD, ZACHARY, LA, 70791","Match","Exact","13675 JACKSON RD, ZACHARY, LA, 70791",92187161,"R"
54469,"13675 PARALLEL AVE","ALPENA","MI",49707,45.2250677710001,-83.486724118,469,"13675 PARALLEL AVE, ALPENA, MI, 49707","Match","Exact","13675 PARALLEL AVE, ALPENA, MI, 49707",130762310,"R"
54470,"13676 SAWGRASS CT","CHICO","CA",95973,39.800531865,-121.887382003,470,"13676 SAWGRASS CT, CHICO, CA, 95973","Match","Exact","13676 SAWGRASS CT, CHICO, CA, 95973",68470121,"L"
54471,"13677 ROCKY RIDGE RD NW","SILVERDALE","WA",98383,47.6863616680001,-122.67450542,471,"13677 ROCKY RIDGE RD NW, SILVERDALE, WA, 98383","Match","Exact","13677 ROCKY RIDGE RD NW, SILVERDALE, WA, 98383",187639935,"L"
54472,"13677 ROOSEVELT AVE STE 301","FLUSHING","NY",11354,NA,NA,472,"13677 ROOSEVELT AVE STE 301, FLUSHING, NY, 11354","No_Match",NA,NA,NA,NA
54473,"13677 W ROCHESTER ST","BOISE","ID",83713,43.6458287630001,-116.352704258,473,"13677 W ROCHESTER ST, BOISE, ID, 83713","Match","Exact","13677 W ROCHESTER ST, BOISE, ID, 83713",117893239,"L"
54474,"13678 ATWOOD AVE","ROSEMOUNT","MN",55068,44.750419993,-93.0993118499999,474,"13678 ATWOOD AVE, ROSEMOUNT, MN, 55068","Match","Exact","13678 ATWOOD AVE, ROSEMOUNT, MN, 55068",630161499,"L"
54475,"13679 56TH PL","PLYMOUTH","MH",55446,NA,NA,475,"13679 56TH PL, PLYMOUTH, MH, 55446","No_Match",NA,NA,NA,NA
54476,"13679 56TH PL","PLYMOUTH","MN",55446,45.0560504310001,-93.45417861,476,"13679 56TH PL, PLYMOUTH, MN, 55446","Match","Non_Exact","13679 56TH PL N, PLYMOUTH, MN, 55446",650884798,"R"
54477,"13679 OAKMONT DRIVE","VICTORVILLE","CA",92395,34.501370851,-117.317381733,477,"13679 OAKMONT DRIVE, VICTORVILLE, CA, 92395","Match","Exact","13679 OAKMONT DR, VICTORVILLE, CA, 92395",144573914,"R"
54478,"1368 BING DR","SAN JOSE","CA",95129,37.298563196,-122.012879869,478,"1368 BING DR, SAN JOSE, CA, 95129","Match","Exact","1368 BING DR, SAN JOSE, CA, 95129",122941280,"L"
54479,"1368 BOYD STREET","CEDAR HILL","TX",75104,32.615761305,-96.955970732,479,"1368 BOYD STREET, CEDAR HILL, TX, 75104","Match","Exact","1368 BOYD ST, CEDAR HILL, TX, 75104",103280292,"R"
54480,"1368 BURR STREET","FAIRFIELD","CT",6824,41.1906207160001,-73.282920334,480,"1368 BURR STREET, FAIRFIELD, CT, 6824","Match","Exact","1368 BURR ST, FAIRFIELD, CT, 06824",618521647,"R"
54481,"1368 CARTER FARM LANE","IRON STATION","NC",28080,35.436227301,-81.088531498,481,"1368 CARTER FARM LANE, IRON STATION, NC, 28080","Match","Exact","1368 CARTER FARM LN, IRON STATION, NC, 28080",625201527,"R"
54482,"1368 CHARLES ST","NORTH PROVIDENCE","RI",2904,41.87533961,-71.4339526809999,482,"1368 CHARLES ST, NORTH PROVIDENCE, RI, 2904","Match","Exact","1368 CHARLES ST, N PROVIDENCE, RI, 02904",648262132,"R"
54483,"1368 CINCINNATI RD","GEORGETOWN","KY",40324,38.2472519240001,-84.567089639,483,"1368 CINCINNATI RD, GEORGETOWN, KY, 40324","Match","Exact","1368 CINCINNATI RD, GEORGETOWN, KY, 40324",637059604,"L"
54484,"1368 E 275 S","LAYTON","UT",84040,41.0561874430001,-111.940730727,484,"1368 E 275 S, LAYTON, UT, 84040","Match","Exact","1368 E 275 S, LAYTON, UT, 84040",645220078,"R"
54485,"1368 FARRINGTON ROAD","PHILADELPHIA","PA",19151,39.971367236,-75.266596836,485,"1368 FARRINGTON ROAD, PHILADELPHIA, PA, 19151","Match","Exact","1368 FARRINGTON RD, PHILADELPHIA, PA, 19151",131393046,"L"
54486,"1368 GEORGETOWN DR","CAROL STREAM","IL",60188,41.9394080340001,-88.171065375,486,"1368 GEORGETOWN DR, CAROL STREAM, IL, 60188","Match","Exact","1368 GEORGETOWN DR, CAROL STREAM, IL, 60188",112515880,"R"
54487,"1368 GRACIA DRIVE","OXNARD","CA",93030,34.2150007910001,-119.171712268,487,"1368 GRACIA DRIVE, OXNARD, CA, 93030","Match","Exact","1368 GRACIA DR, OXNARD, CA, 93030",633737338,"R"
54488,"1368 HAMPTON PARK LANE","MELBOURNE","FL",32940,28.2327654640001,-80.703978687,488,"1368 HAMPTON PARK LANE, MELBOURNE, FL, 32940","Match","Exact","1368 HAMPTON PARK LN, MELBOURNE, FL, 32940",93959081,"L"
54489,"1368 HUNT RD SW","TOWNSEND","GA",31331,NA,NA,489,"1368 HUNT RD SW, TOWNSEND, GA, 31331","No_Match",NA,NA,NA,NA
54490,"1368 HUNTERS HOLLOW CT","EUREKA","MO",63025,38.50665446,-90.651024926,490,"1368 HUNTERS HOLLOW CT, EUREKA, MO, 63025","Match","Exact","1368 HUNTERS HOLLOW CT, EUREKA, MO, 63025",100185307,"L"
54491,"1368 HWY 124","HIGH ISLAND","TX",77623,29.562124059,-94.3946278879999,491,"1368 HWY 124, HIGH ISLAND, TX, 77623","Match","Non_Exact","1368 STATE HWY 124, HIGH ISLAND, TX, 77623",96672140,"R"
54492,"1368 INDIAN SAGE RD","LANCASTER","CA",93534,34.7070351880001,-118.154535751,492,"1368 INDIAN SAGE RD, LANCASTER, CA, 93534","Match","Exact","1368 INDIAN SAGE RD, LANCASTER, CA, 93534",141525856,"L"
54493,"1368 JEFFERSON AVENUE","MEMPHIS","TN",38104,35.1414947690001,-90.0150663699999,493,"1368 JEFFERSON AVENUE, MEMPHIS, TN, 38104","Match","Exact","1368 JEFFERSON AVE, MEMPHIS, TN, 38104",72905329,"L"
54494,"1368 KENWOOD ROAD","SANTA BARBARA","CA",93109,34.410632821,-119.723956728,494,"1368 KENWOOD ROAD, SANTA BARBARA, CA, 93109","Match","Exact","1368 KENWOOD RD, SANTA BARBARA, CA, 93109",108627621,"R"
54495,"1368 METROPOLITAN AVENUE APT 6H","BRONX","NY",10462,40.8350338930001,-73.861050785,495,"1368 METROPOLITAN AVENUE APT 6H, BRONX, NY, 10462","Match","Exact","1368 METROPOLITAN AVE, BRONX, NY, 10462",80311323,"R"
54496,"1368 NE POST RD","MADISON","FL",32340,30.608023534,-83.4317423969999,496,"1368 NE POST RD, MADISON, FL, 32340","Match","Exact","1368 NE POST RD, MADISON, FL, 32340",53927456,"R"
54497,"1368 PASO ROBLES AVE","SIERRA VISTA","AZ",85635,31.541974608,-110.235825301,497,"1368 PASO ROBLES AVE, SIERRA VISTA, AZ, 85635","Match","Exact","1368 PASO ROBLES AVE, SIERRA VISTA, AZ, 85635",627602135,"R"
54498,"1368 RANDOLPH STREET NW","WASHINGTON","DC",20011,38.938673841,-77.031706797,498,"1368 RANDOLPH STREET NW, WASHINGTON, DC, 20011","Match","Exact","1368 RANDOLPH ST NW, WASHINGTON, DC, 20011",76222493,"L"
54499,"1368 S APPOMATTOX AVE","REPUBLIC","MO",65738,37.1018868370001,-93.457657137,499,"1368 S APPOMATTOX AVE, REPUBLIC, MO, 65738","Match","Exact","1368 S APPOMATTOX AVE, REPUBLIC, MO, 65738",627116089,"R"
54500,"1368 S COLT DRIVE","GILBERT","AZ",85296,33.325644631,-111.717505852,500,"1368 S COLT DRIVE, GILBERT, AZ, 85296","Match","Exact","1368 S COLT DR, GILBERT, AZ, 85296",601666902,"R"
