"ID","Address","City","State","Zip","lat","long","id","input_address","match_indicator","match_type","matched_address","tiger_line_id","tiger_side"
148501,"273 PLEASANT STREET","ELIOT","ME",3903,43.1051822360001,-70.7812392659999,1,"273 PLEASANT STREET, ELIOT, ME, 3903","Match","Exact","273 PLEASANT ST, ELIOT, ME, 03903",92759890,"L"
148502,"273 PRENTICE TRAIL","CARBONDALE","CO",81623,39.399555911,-107.086959989,2,"273 PRENTICE TRAIL, CARBONDALE, CO, 81623","Match","Non_Exact","273 PRENTICE, CARBONDALE, CO, 81623",105739176,"L"
148503,"273 RANDELL ROAD","COURTLAND","MS",38620,NA,NA,3,"273 RANDELL ROAD, COURTLAND, MS, 38620","No_Match",NA,NA,NA,NA
148504,"273 REDSTONE CIRCLE","SUISUN","CA",94585,38.2470430880001,-122.023306366,4,"273 REDSTONE CIRCLE, SUISUN, CA, 94585","Match","Non_Exact","273 REDSTONE CIR, SUISUN CITY, CA, 94585",192554145,"L"
148505,"273 RICHMOND AVENUE APT 5","BUFFALO","NY",14222,42.909926409,-78.881993571,5,"273 RICHMOND AVENUE APT 5, BUFFALO, NY, 14222","Match","Exact","273 RICHMOND AVE, BUFFALO, NY, 14222",48289245,"R"
148506,"273 RILEY WAY","ELIZABETHTOWN","KY",42701,37.6820054550001,-85.8667843599999,6,"273 RILEY WAY, ELIZABETHTOWN, KY, 42701","Match","Exact","273 RILEY WAY, ELIZABETHTOWN, KY, 42701",649059843,"L"
148507,"273 S RANCHO SANTA FE RD","SAN MARCOS","CA",92078,33.1439164280001,-117.201412516,7,"273 S RANCHO SANTA FE RD, SAN MARCOS, CA, 92078","Match","Exact","273 S RANCHO SANTA FE RD, SAN MARCOS, CA, 92078",195295041,"L"
148508,"273 SAGE ST","VALLEJO","CA",94589,38.144600172,-122.228665841,8,"273 SAGE ST, VALLEJO, CA, 94589","Match","Exact","273 SAGE ST, VALLEJO, CA, 94589",192531929,"L"
148509,"273 SEAGRAMS CT","RALEIGH","NC",27610,35.7391823660001,-78.634154983,9,"273 SEAGRAMS CT, RALEIGH, NC, 27610","Match","Exact","273 SEAGRAMS CT, RALEIGH, NC, 27610",72605799,"L"
148510,"273 SEVENTH AVE","BROOKLYN","NY",11215,40.668791033,-73.979988421,10,"273 SEVENTH AVE, BROOKLYN, NY, 11215","Match","Exact","273 7TH AVE, BROOKLYN, NY, 11215",59078154,"L"
148511,"273 SIEGEL ST","WESTBURY","NY",11590,40.7607721740001,-73.57200841,11,"273 SIEGEL ST, WESTBURY, NY, 11590","Match","Exact","273 SIEGEL ST, WESTBURY, NY, 11590",147625048,"L"
148512,"273 SOUTH PARK AVENUE","POMONA","CA",91766,34.0570973540001,-117.75447981,12,"273 SOUTH PARK AVENUE, POMONA, CA, 91766","Match","Exact","273 S PARK AVE, POMONA, CA, 91766",141733787,"R"
148513,"273 SW BECKER ROAD","PORT ST. LUCIE","FL",34953,27.2095378940001,-80.3573953819999,13,"273 SW BECKER ROAD, PORT ST. LUCIE, FL, 34953","Match","Exact","273 SW BECKER RD, PORT ST LUCIE, FL, 34953",120170436,"L"
148514,"273 SW MONTGOMERY","LAKE CITY","FL",32025,30.181558151,-82.63987392,14,"273 SW MONTGOMERY, LAKE CITY, FL, 32025","Match","Non_Exact","273 SW MONTGOMERY DR, LAKE CITY, FL, 32025",5136452,"R"
148515,"273 TANYARD CIR","ADAMSVILLE","TN",38310,35.220376565,-88.3868237189999,15,"273 TANYARD CIR, ADAMSVILLE, TN, 38310","Match","Exact","273 TANYARD CIR, ADAMSVILLE, TN, 38310",21277694,"L"
148516,"273 UPLAND ROAD","CAMBRIDGE","MA",2140,42.385225658,-71.128153195,16,"273 UPLAND ROAD, CAMBRIDGE, MA, 2140","Match","Exact","273 UPLAND RD, CAMBRIDGE, MA, 02140",86912748,"R"
148517,"273 VAN CORTLANDT AVE EAST","BRONX","NY",10467,40.8768077660001,-73.880040964,17,"273 VAN CORTLANDT AVE EAST, BRONX, NY, 10467","Match","Exact","273 VAN CORTLANDT AVE E, BRONX, NY, 10467",80297168,"L"
148518,"273 W 15TH PLACE","CHICAGO HEIGHTS","IL",60411,41.503329868,-87.6528247429999,18,"273 W 15TH PLACE, CHICAGO HEIGHTS, IL, 60411","Match","Exact","273 W 15TH PL, CHICAGO HEIGHTS, IL, 60411",111713531,"R"
148519,"273 W 290 S","IVINS","UT",84738,37.1630951380001,-113.685406597,19,"273 W 290 S, IVINS, UT, 84738","Match","Non_Exact","273 W 290 ST S, IVINS, UT, 84738",635849620,"L"
148520,"273 W PALMER ST","RAEFORD","NC",28376,34.9781534150001,-79.246206539,20,"273 W PALMER ST, RAEFORD, NC, 28376","Match","Exact","273 W PALMER ST, RAEFORD, NC, 28376",653451682,"R"
148521,"273 WALNUT STREET","COULTERVILLE","IL",62237,NA,NA,21,"273 WALNUT STREET, COULTERVILLE, IL, 62237","No_Match",NA,NA,NA,NA
148522,"273 WEST 3RD ST 3","BOSTON","MA",2127,42.3381010360001,-71.047657355,22,"273 WEST 3RD ST 3, BOSTON, MA, 2127","Match","Exact","273 W 3RD ST, BOSTON, MA, 02127",85712750,"R"
148523,"273 WESTON RD","WELLESLEY","MA",2482,42.3028223910001,-71.310273692,23,"273 WESTON RD, WELLESLEY, MA, 2482","Match","Exact","273 WESTON RD, WELLESLEY, MA, 02482",87236538,"R"
148524,"273 WESTWOOD AVE","EAST LONGMEADOW","MA",1028,42.0635951950001,-72.5289034589999,24,"273 WESTWOOD AVE, EAST LONGMEADOW, MA, 1028","Match","Exact","273 WESTWOOD AVE, E LONGMEADOW, MA, 01028",624318362,"R"
148525,"273 WILLOW STREET","BREMERTON","WA",98310,47.5855560950001,-122.636511305,25,"273 WILLOW STREET, BREMERTON, WA, 98310","Match","Exact","273 WILLOW ST, BREMERTON, WA, 98310",187641865,"R"
148526,"273","SHARON CENTER","OH",44274,NA,NA,26,"273, SHARON CENTER, OH, 44274","No_Match",NA,NA,NA,NA
148527,"2730 ARDEN WAY STE 235","SACRAMENTO","CA",95825,38.595908835,-121.397082497,27,"2730 ARDEN WAY STE 235, SACRAMENTO, CA, 95825","Match","Exact","2730 ARDEN WAY, SACRAMENTO, CA, 95825",133338002,"R"
148528,"2730 ARNOLD STREET","COLUMBUS","IN",47203,39.2538636240001,-85.8914462719999,28,"2730 ARNOLD STREET, COLUMBUS, IN, 47203","Match","Exact","2730 ARNOLD ST, COLUMBUS, IN, 47203",30978394,"R"
148529,"2730 BACK MOUNTAIN ROAD","WINCHESTER","VA",22602,39.1730871930001,-78.346856535,29,"2730 BACK MOUNTAIN ROAD, WINCHESTER, VA, 22602","Match","Exact","2730 BACK MOUNTAIN RD, WINCHESTER, VA, 22602",55608137,"L"
148530,"2730 BIENVILLE BOULEVARD","OCEAN SPRINGS","MS",39564,30.414379212,-88.7946463499999,30,"2730 BIENVILLE BOULEVARD, OCEAN SPRINGS, MS, 39564","Match","Exact","2730 BIENVILLE BLVD, OCEAN SPRINGS, MS, 39564",89273881,"R"
148531,"2730 BRESSI RANCH WAY","CARLSBAD","CA",92009,33.1245087,-117.254056446,31,"2730 BRESSI RANCH WAY, CARLSBAD, CA, 92009","Match","Exact","2730 BRESSI RANCH WAY, CARLSBAD, CA, 92009",195768238,"L"
148532,"2730 BRITTANY TRCE","MURFREESBORO","TN",37127,35.80165858,-86.3582372939999,32,"2730 BRITTANY TRCE, MURFREESBORO, TN, 37127","Match","Exact","2730 BRITTANY TRCE, MURFREESBORO, TN, 37127",59033104,"R"
148533,"2730 BROWNSBORO RD 135","LOUISVILLE","KY",40206,38.2591473480001,-85.695503386,33,"2730 BROWNSBORO RD 135, LOUISVILLE, KY, 40206","Match","Exact","2730 BROWNSBORO RD, LOUISVILLE, KY, 40206",613514074,"R"
148534,"2730 CASA GRANDE CT","MORGAN HILL","CA",95037,37.135869664,-121.602978629,34,"2730 CASA GRANDE CT, MORGAN HILL, CA, 95037","Match","Exact","2730 CASA GRANDE CT, MORGAN HILL, CA, 95037",122930112,"R"
148535,"2730 CENTENNIAL ROAD","TOLEDO","OH",43617,41.668829508,-83.7417755869999,35,"2730 CENTENNIAL ROAD, TOLEDO, OH, 43617","Match","Exact","2730 CENTENNIAL RD, TOLEDO, OH, 43617",33928355,"R"
148536,"2730 CHEYENNE AVENUE","NASHUA","IA",50658,42.9569418180001,-92.5078482339999,36,"2730 CHEYENNE AVENUE, NASHUA, IA, 50658","Match","Exact","2730 CHEYENNE AVE, NASHUA, IA, 50658",9733910,"R"
148537,"2730 E 31ST STREET","MINNEAPOLIS","MN",55406,44.9468566780001,-93.232633703,37,"2730 E 31ST STREET, MINNEAPOLIS, MN, 55406","Match","Exact","2730 E 31ST ST, MINNEAPOLIS, MN, 55406",43639725,"L"
148538,"2730 E SILVER SPRINGS BLVD UNIT 200","OCALA","FL",34470,NA,NA,38,"2730 E SILVER SPRINGS BLVD UNIT 200, OCALA, FL, 34470","No_Match",NA,NA,NA,NA
148539,"2730 FARISS ROAD","POWHATAN","VA",23139,37.5709327650001,-77.942583058,39,"2730 FARISS ROAD, POWHATAN, VA, 23139","Match","Exact","2730 FARISS RD, POWHATAN, VA, 23139",73834248,"R"
148540,"2730 FIRST AVE","HIBBING","MN",55746,47.418769673,-92.941714627,40,"2730 FIRST AVE, HIBBING, MN, 55746","Match","Exact","2730 1ST AVE, HIBBING, MN, 55746",163166807,"R"
148541,"2730 HARRIS STREET RD","KELSO","WA",98626,46.1484044250001,-122.87241722,41,"2730 HARRIS STREET RD, KELSO, WA, 98626","Match","Exact","2730 HARRIS STREET RD, KELSO, WA, 98626",184515895,"L"
148542,"2730 HISTORIC DECATUR RD SUITE 202","SAN DIEGO","CA",92106,NA,NA,42,"2730 HISTORIC DECATUR RD SUITE 202, SAN DIEGO, CA, 92106","No_Match",NA,NA,NA,NA
148543,"2730 HWY 34 E STE G 238","NEWNAN","GA",30265,NA,NA,43,"2730 HWY 34 E STE G 238, NEWNAN, GA, 30265","No_Match",NA,NA,NA,NA
148544,"2730 LAKE COVE","CEDAR HILL","TX",75104,32.5790864950001,-97.004135043,44,"2730 LAKE COVE, CEDAR HILL, TX, 75104","Match","Exact","2730 LAKE COVE, CEDAR HILL, TX, 75104",102998044,"L"
148545,"2730 LOIS STREET","PORTAGE","IN",46368,41.5711170920001,-87.1799657289999,45,"2730 LOIS STREET, PORTAGE, IN, 46368","Match","Exact","2730 LOIS ST, PORTAGE, IN, 46368",119911275,"R"
148546,"2730 MARYLAND AVE","BALTIMORE","MD",21218,39.321037946,-76.618593015,46,"2730 MARYLAND AVE, BALTIMORE, MD, 21218","Match","Exact","2730 MARYLAND AVE, BALTIMORE, MD, 21218",206464190,"L"
148547,"2730 MILVIA STREET","BERKELEY","CA",94703,37.8590296350001,-122.269363442,47,"2730 MILVIA STREET, BERKELEY, CA, 94703","Match","Exact","2730 MILVIA ST, BERKELEY, CA, 94703",124994677,"R"
148548,"2730 MT ZION ROAD","JONESBORO","GA",30236,33.5574932440001,-84.3017609999999,48,"2730 MT ZION ROAD, JONESBORO, GA, 30236","Match","Exact","2730 MOUNT ZION RD, JONESBORO, GA, 30236",632771214,"L"
148549,"2730 N 25TH STREET","MILWAUKEE","WI",53206,43.068503122,-87.9448999209999,49,"2730 N 25TH STREET, MILWAUKEE, WI, 53206","Match","Exact","2730 N 25TH ST, MILWAUKEE, WI, 53206",77738364,"R"
148550,"2730 N BERKELEY LAKE  B720 1ST FL","DULUTH","GA",30096,NA,NA,50,"2730 N BERKELEY LAKE  B720 1ST FL, DULUTH, GA, 30096","No_Match",NA,NA,NA,NA
148551,"2730 N BERKELEY LAKE RD B1200 1214","DULUTH","GA",30096,NA,NA,51,"2730 N BERKELEY LAKE RD B1200 1214, DULUTH, GA, 30096","No_Match",NA,NA,NA,NA
148552,"2730 N RICHMOND","WICHITA","KS",67204,37.7326935310001,-97.373113274,52,"2730 N RICHMOND, WICHITA, KS, 67204","Match","Non_Exact","2730 N RICHMOND AVE, WICHITA, KS, 67204",115633069,"R"
148553,"2730 N ROUGH STONE WAY","MERIDIAN","ID",83646,43.62966476,-116.418421456,53,"2730 N ROUGH STONE WAY, MERIDIAN, ID, 83646","Match","Exact","2730 N ROUGH STONE WAY, MERIDIAN, ID, 83646",117931294,"R"
148554,"2730 NORTH BERKELEY LAKE RD B1300","DULUTH","GA",30096,33.973596963,-84.157258197,54,"2730 NORTH BERKELEY LAKE RD B1300, DULUTH, GA, 30096","Match","Non_Exact","2730 N BERKELEY LAKE RD NW, DULUTH, GA, 30096",646965692,"R"
148555,"2730 NORTH BROADWAY","LOS ANGELES","CA",90031,34.0736628560001,-118.213923663,55,"2730 NORTH BROADWAY, LOS ANGELES, CA, 90031","Match","Exact","2730 N BROADWAY, LOS ANGELES, CA, 90031",141621960,"R"
148556,"2730 ROBERTSON AVENUE","PITTSBURGH","PA",15226,40.3792891890001,-80.0035784889999,56,"2730 ROBERTSON AVENUE, PITTSBURGH, PA, 15226","Match","Exact","2730 ROBERTSON AVE, PITTSBURGH, PA, 15226",51638270,"R"
148557,"2730 ROCKY CT","ATLANTA","GA",30349,33.5807698830001,-84.474138151,57,"2730 ROCKY CT, ATLANTA, GA, 30349","Match","Exact","2730 ROCKY CT, ATLANTA, GA, 30349",610226349,"L"
148558,"2730 ROMERO STREET","LAS VEGAS","NM",87701,NA,NA,58,"2730 ROMERO STREET, LAS VEGAS, NM, 87701","No_Match",NA,NA,NA,NA
148559,"2730 SULLIVAN RD","COLLEGE PARK","GA",30337,33.623353154,-84.4795638269999,59,"2730 SULLIVAN RD, COLLEGE PARK, GA, 30337","Match","Exact","2730 SULLIVAN RD, COLLEGE PARK, GA, 30337",17372849,"L"
148560,"2730 SW 3RD AVE STE 501","MIAMI","FL",33129,25.754595255,-80.209353955,60,"2730 SW 3RD AVE STE 501, MIAMI, FL, 33129","Match","Non_Exact","2730 SW 3RD AVE, MIAMI, FL, 33129",116017201,"R"
148561,"2730 SW 4 AVE","MIAMI","FL",33129,25.755890697,-80.210413923,61,"2730 SW 4 AVE, MIAMI, FL, 33129","Match","Exact","2730 SW 4TH AVE, MIAMI, FL, 33129",116017195,"R"
148562,"2730 TAYLOR STREET","PHILADELPHIA","PA",19132,39.996705852,-75.171680721,62,"2730 TAYLOR STREET, PHILADELPHIA, PA, 19132","Match","Non_Exact","2730 N TAYLOR ST, PHILADELPHIA, PA, 19132",131402559,"L"
148563,"2730 TEAL CT","REDDING","CA",96001,40.5586980310001,-122.380828061,63,"2730 TEAL CT, REDDING, CA, 96001","Match","Exact","2730 TEAL CT, REDDING, CA, 96001",126628008,"L"
148564,"2730 W 62ND PL APT 201","HIALEAH","FL",33016,25.8792165410001,-80.339089132,64,"2730 W 62ND PL APT 201, HIALEAH, FL, 33016","Match","Non_Exact","2730 W 62ND PL, HIALEAH, FL, 33016",116272965,"L"
148565,"2730 W NIGHTHAWK","CHINO VALLEY","AZ",86323,34.8201771340001,-112.494731181,65,"2730 W NIGHTHAWK, CHINO VALLEY, AZ, 86323","Match","Non_Exact","2730 W NIGHTHAWK RD, CHINO VALLEY, AZ, 86323",159543824,"L"
148566,"2730 W TRADE AVENUE  SUITE 2","MIAMI","FL",33133,25.736354039,-80.2380577609999,66,"2730 W TRADE AVENUE  SUITE 2, MIAMI, FL, 33133","Match","Non_Exact","2730 W TRADE AVE, MIAMI, FL, 33133",116014890,"L"
148567,"2730 WASHINGTON BOULEVARD STE 6267","OGDEN","UT",84401,41.215835295,-111.970584116,67,"2730 WASHINGTON BOULEVARD STE 6267, OGDEN, UT, 84401","Match","Exact","2730 WASHINGTON BLVD, OGDEN, UT, 84401",616238870,"L"
148568,"2730 WEST EDGEWOOD AVE","JACKSONVILLE","FL",32209,NA,NA,68,"2730 WEST EDGEWOOD AVE, JACKSONVILLE, FL, 32209","No_Match",NA,NA,NA,NA
148569,"2730 WEST MORSE AVE","CHICAGO","IL",60645,42.006692613,-87.698191934,69,"2730 WEST MORSE AVE, CHICAGO, IL, 60645","Match","Exact","2730 W MORSE AVE, CHICAGO, IL, 60645",111744494,"R"
148570,"2730 WESTLAKE AVE N","SEATTLE","WA",98109,47.643669478,-122.344527734,70,"2730 WESTLAKE AVE N, SEATTLE, WA, 98109","Match","Exact","2730 WESTLAKE AVE N, SEATTLE, WA, 98109",640607170,"R"
148571,"2730 WESTWIND DRIVE","ANCHORAGE","AK",99516,61.0997821770001,-149.832965059,71,"2730 WESTWIND DRIVE, ANCHORAGE, AK, 99516","Match","Non_Exact","2730 WESTWIND CIR, ANCHORAGE, AK, 99516",190799574,"R"
148572,"2730 WOOLERY DRIVE","THAYER","KS",66776,37.485001863,-95.494274499,72,"2730 WOOLERY DRIVE, THAYER, KS, 66776","Match","Exact","2730 WOOLERY DR, THAYER, KS, 66776",18428938,"R"
148573,"27301 SW 167 AVE","HOMESTEAD","FL",33031,25.512809056,-80.4613811849999,73,"27301 SW 167 AVE, HOMESTEAD, FL, 33031","Match","Exact","27301 SW 167TH AVE, HOMESTEAD, FL, 33031",115988299,"L"
148574,"27302 AFTON WAY","HOUSTON","TX",77336,30.0678227000001,-95.09056674,74,"27302 AFTON WAY, HOUSTON, TX, 77336","Match","Non_Exact","27302 AFTON WAY, HUFFMAN, TX, 77336",96050607,"R"
148575,"27303 PINEY RANCH LANE","KATY","TX",77474,29.7289163620001,-95.84313428,75,"27303 PINEY RANCH LANE, KATY, TX, 77474","Match","Non_Exact","27303 PINEY RANCH LN, KATY, TX, 77494",641052172,"R"
148576,"27305 LIVE OAK DR STE 520","CASTAIC","CA",91384,34.45332684,-118.61611648,76,"27305 LIVE OAK DR STE 520, CASTAIC, CA, 91384","Match","Non_Exact","27305 LIVE OAK RD, CASTAIC, CA, 91384",141862514,"L"
148577,"27305 VISTA AVE","PERRIS","CA",92570,33.723341754,-117.308334375,77,"27305 VISTA AVE, PERRIS, CA, 92570","Match","Exact","27305 VISTA AVE, PERRIS, CA, 92570",194706465,"L"
148578,"27308 SCHOOLCRAFT","REDFORD","MI",48239,42.3845138660001,-83.313018738,78,"27308 SCHOOLCRAFT, REDFORD, MI, 48239","Match","Exact","27308 SCHOOLCRAFT, REDFORD, MI, 48239",95427317,"R"
148579,"2731 17TH STREET - SUITE 300","DENVER","CO",80211,39.7612799930001,-105.010718668,79,"2731 17TH STREET - SUITE 300, DENVER, CO, 80211","Match","Exact","2731 17TH ST, DENVER, CO, 80211",177303540,"R"
148580,"2731 ALTAMONT DR","KLAMATH FALLS","OR",97603,42.2025284150001,-121.747426866,80,"2731 ALTAMONT DR, KLAMATH FALLS, OR, 97603","Match","Exact","2731 ALTAMONT DR, KLAMATH FALLS, OR, 97603",156659969,"R"
148581,"2731 BLACKLICK EASTERN ROAD","MILLERSPORT","OH",43046,39.89095774,-82.530990072,81,"2731 BLACKLICK EASTERN ROAD, MILLERSPORT, OH, 43046","Match","Exact","2731 BLACKLICK EASTERN RD, MILLERSPORT, OH, 43046",639884091,"L"
148582,"2731 CHELSEA DRIVE","NEW ORLEANS","LA",70131,29.9257976060001,-89.9967000359999,82,"2731 CHELSEA DRIVE, NEW ORLEANS, LA, 70131","Match","Exact","2731 CHELSEA DR, NEW ORLEANS, LA, 70131",191723388,"R"
148583,"2731 CHOICE STREET","DALLAS","TX",75215,32.7363101080001,-96.751883156,83,"2731 CHOICE STREET, DALLAS, TX, 75215","Match","Exact","2731 CHOICE ST, DALLAS, TX, 75215",102956304,"L"
148584,"2731 EAST TOWER DRIVE APT 505","CINCINANTI","OH",45238,39.1322336110001,-84.594788732,84,"2731 EAST TOWER DRIVE APT 505, CINCINANTI, OH, 45238","Match","Non_Exact","2731 E TOWER DR, CINCINNATI, OH, 45238",103965266,"L"
148585,"2731 FISHERMANS DRIVE NW","CONCORD","NC",28027,35.3792180730001,-80.687613427,85,"2731 FISHERMANS DRIVE NW, CONCORD, NC, 28027","Match","Exact","2731 FISHERMANS DR NW, CONCORD, NC, 28027",24922555,"R"
148586,"2731 FORT SUMTER COURT","AURORA","IL",60503,41.7031126970001,-88.261484689,86,"2731 FORT SUMTER COURT, AURORA, IL, 60503","Match","Exact","2731 FORT SUMTER CT, AURORA, IL, 60503",54500066,"R"
148587,"2731 HARDY INC","INGLEWOOD","CA",90305,NA,NA,87,"2731 HARDY INC, INGLEWOOD, CA, 90305","No_Match",NA,NA,NA,NA
148588,"2731 HERSEY D WILSON DRIVE","SHREVEPORT","LA",71107,32.5416046180001,-93.816375563,88,"2731 HERSEY D WILSON DRIVE, SHREVEPORT, LA, 71107","Match","Exact","2731 HERSEY D WILSON DR, SHREVEPORT, LA, 71107",57430523,"L"
148589,"2731 JUNCTION AVENUE 640485","SAN JOSE","CA",95134,37.394658328,-121.924597137,89,"2731 JUNCTION AVENUE 640485, SAN JOSE, CA, 95134","Match","Exact","2731 JUNCTION AVE, SAN JOSE, CA, 95134",645505675,"R"
148590,"2731 MANSFIELD RD SUITE B","SHREVEPORT","LA",71107,32.4858042870001,-93.770441761,90,"2731 MANSFIELD RD SUITE B, SHREVEPORT, LA, 71107","Match","Non_Exact","2731 MANSFIELD RD, SHREVEPORT, LA, 71103",57436694,"L"
148591,"2731 MARIA ST","PLEASANTON","CA",94588,37.6926209170001,-121.855073203,91,"2731 MARIA ST, PLEASANTON, CA, 94588","Match","Exact","2731 MARIA ST, PLEASANTON, CA, 94588",125072506,"R"
148592,"2731 MONTARO DRIVE","SIERRA VISTA","AZ",85650,31.49830638,-110.270455164,92,"2731 MONTARO DRIVE, SIERRA VISTA, AZ, 85650","Match","Exact","2731 MONTARO DR, SIERRA VISTA, AZ, 85650",120989191,"R"
148593,"2731 N ANDREWS AVE   B1","WILTON MANORS","FL",33311,26.1615755440001,-80.146403301,93,"2731 N ANDREWS AVE   B1, WILTON MANORS, FL, 33311","Match","Non_Exact","2731 N ANDREWS AVE, WILTON MANORS, FL, 33311",114721638,"L"
148594,"2731 N CAMPBELL AVE","CHICAGO","IL",60647,41.931212225,-87.690304285,94,"2731 N CAMPBELL AVE, CHICAGO, IL, 60647","Match","Exact","2731 N CAMPBELL AVE, CHICAGO, IL, 60647",605231296,"R"
148595,"2731 N LINCOLN AVE","CHICAGO","IL",60614,41.931383526,-87.657053392,95,"2731 N LINCOLN AVE, CHICAGO, IL, 60614","Match","Exact","2731 N LINCOLN AVE, CHICAGO, IL, 60614",111764440,"R"
148596,"2731 NE 3RD DRIVE","HOMESTEAD","FL",33033,25.472976406,-80.4374706039999,96,"2731 NE 3RD DRIVE, HOMESTEAD, FL, 33033","Match","Exact","2731 NE 3RD DR, HOMESTEAD, FL, 33033",624335025,"L"
148597,"2731 OCEAN VALLEY DRIVE","ATLANTA","GA",30349,33.5894038220001,-84.478662587,97,"2731 OCEAN VALLEY DRIVE, ATLANTA, GA, 30349","Match","Non_Exact","2731 OCEAN VALLEY RD, ATLANTA, GA, 30349",17349014,"R"
148598,"2731 RIVERSIDE DR","SAINT ALBANS","WV",25177,38.3692635690001,-81.8553890109999,98,"2731 RIVERSIDE DR, SAINT ALBANS, WV, 25177","Match","Exact","2731 RIVERSIDE DR, SAINT ALBANS, WV, 25177",647492421,"L"
148599,"2731 SOUTHSIDE DR SE","ALEXANDRIA","MN",56308,NA,NA,99,"2731 SOUTHSIDE DR SE, ALEXANDRIA, MN, 56308","No_Match",NA,NA,NA,NA
148600,"2731 TENBROECK AVENUE","BRONX","NY",10469,40.8658546390001,-73.852882017,100,"2731 TENBROECK AVENUE, BRONX, NY, 10469","Match","Exact","2731 TENBROECK AVE, BRONX, NY, 10469",80303718,"L"
148601,"2731 TERRATIM LANE","DECATUR","GA",30034,33.708338069,-84.2982181099999,101,"2731 TERRATIM LANE, DECATUR, GA, 30034","Match","Exact","2731 TERRATIM LN, DECATUR, GA, 30034",23403660,"R"
148602,"2731 WATERS EDGE DRIVE","GRAND PRAIRIE","TX",75054,32.6051141470001,-97.0506067539999,102,"2731 WATERS EDGE DRIVE, GRAND PRAIRIE, TX, 75054","Match","Exact","2731 WATERS EDGE DR, GRAND PRAIRIE, TX, 75054",618711819,"L"
148603,"2731 WEST COUNTY ROAD 650 NORTH","MIDDLETOWN","IN",47356,40.0265626510001,-85.436662459,103,"2731 WEST COUNTY ROAD 650 NORTH, MIDDLETOWN, IN, 47356","Match","Exact","2731 W CO RD 650 N, MIDDLETOWN, IN, 47356",29992546,"L"
148604,"27310 NEWPORT","WARREN","MI",48088,42.4953711690001,-82.9950451779999,104,"27310 NEWPORT, WARREN, MI, 48088","Match","Non_Exact","27310 NEWPORT DR, WARREN, MI, 48088",640453226,"R"
148605,"27311 KITCH","INKSTER","MI",48141,42.2836476210001,-83.3084818849999,105,"27311 KITCH, INKSTER, MI, 48141","Match","Non_Exact","27311 KITCH ST, INKSTER, MI, 48141",95434785,"L"
148606,"27311 PARK VISTA RD","AGOURA HILLS","CA",91301,34.1277836780001,-118.722048019,106,"27311 PARK VISTA RD, AGOURA HILLS, CA, 91301","Match","Exact","27311 PARK VISTA RD, AGOURA HILLS, CA, 91301",141815268,"R"
148607,"27314 BARRINGTON ST","MADISON HEIGHTS","MI",48071,42.4930630170001,-83.1101205959999,107,"27314 BARRINGTON ST, MADISON HEIGHTS, MI, 48071","Match","Exact","27314 BARRINGTON ST, MADISON HEIGHTS, MI, 48071",69747252,"R"
148608,"27315 JEFFERSON AVE STE J49","TEMECULA","CA",92590,33.522859645,-117.166873419,108,"27315 JEFFERSON AVE STE J49, TEMECULA, CA, 92590","Match","Exact","27315 JEFFERSON AVE, TEMECULA, CA, 92590",194848780,"L"
148609,"27317 NEAPTIDE DR","PUNTA GORDA","FL",33983,27.0087949000001,-82.0013434539999,109,"27317 NEAPTIDE DR, PUNTA GORDA, FL, 33983","Match","Exact","27317 NEAPTIDE DR, PUNTA GORDA, FL, 33983",4345709,"L"
148610,"27318 STURBRIDGE LN","WESTLAKE","OH",44145,41.4709086490001,-81.9229611329999,110,"27318 STURBRIDGE LN, WESTLAKE, OH, 44145","Match","Exact","27318 STURBRIDGE LN, WESTLAKE, OH, 44145",61148720,"R"
148611,"27318 WALDEN GULCH LANE","KATY","TX",77494,29.7239640560001,-95.8426041449999,111,"27318 WALDEN GULCH LANE, KATY, TX, 77494","Match","Exact","27318 WALDEN GULCH LN, KATY, TX, 77494",643718054,"L"
148612,"2732 BENTON BOULEVARD","KANSAS CITY","MO",64128,39.075795994,-94.54905163,112,"2732 BENTON BOULEVARD, KANSAS CITY, MO, 64128","Match","Exact","2732 BENTON BLVD, KANSAS CITY, MO, 64128",91450164,"R"
148613,"2732 BONNYBROOK DR SW","ATLANTA","GA",30311,33.694926826,-84.478316261,113,"2732 BONNYBROOK DR SW, ATLANTA, GA, 30311","Match","Exact","2732 BONNYBROOK DR SW, ATLANTA, GA, 30311",17340882,"L"
148614,"2732 CENTRAL AVE NE","WASHINGTON","DC",20018,38.927469849,-76.9632285609999,114,"2732 CENTRAL AVE NE, WASHINGTON, DC, 20018","Match","Exact","2732 CENTRAL AVE NE, WASHINGTON, DC, 20018",76229495,"L"
148615,"2732 COLCHESTER CRES","NORFOLK","VA",23504,36.8484677750001,-76.255905862,115,"2732 COLCHESTER CRES, NORFOLK, VA, 23504","Match","Exact","2732 COLCHESTER CRES, NORFOLK, VA, 23504",122137814,"L"
148616,"2732 HAMPTON PARKWAY UNIT D1","EVANSTON","IL",60201,42.0679315530001,-87.690663108,116,"2732 HAMPTON PARKWAY UNIT D1, EVANSTON, IL, 60201","Match","Exact","2732 HAMPTON PKWY, EVANSTON, IL, 60201",111742968,"L"
148617,"2732 KIMBERLY RD","TWIN FALLS","ID",83301,NA,NA,117,"2732 KIMBERLY RD, TWIN FALLS, ID, 83301","No_Match",NA,NA,NA,NA
148618,"2732 KIRKLAND DR NW","ROANOKE","VA",24017,37.3021681990001,-79.971299997,118,"2732 KIRKLAND DR NW, ROANOKE, VA, 24017","Match","Exact","2732 KIRKLAND DR NW, ROANOKE, VA, 24017",62903841,"L"
148619,"2732 MONTEVIDEO AVENUE","HOLLYWOOD","FL",33026,26.0325887230001,-80.2829039269999,119,"2732 MONTEVIDEO AVENUE, HOLLYWOOD, FL, 33026","Match","Exact","2732 MONTEVIDEO AVE, HOLLYWOOD, FL, 33026",114760843,"R"
148620,"2732 N AVERS","CHICAGO","IL",60647,41.930525227,-87.7232812249999,120,"2732 N AVERS, CHICAGO, IL, 60647","Match","Non_Exact","2732 N AVERS AVE, CHICAGO, IL, 60647",605188055,"L"
148621,"2732 NORFAIR LOOP","LITHONIA","GA",30038,33.697902868,-84.155761378,121,"2732 NORFAIR LOOP, LITHONIA, GA, 30038","Match","Exact","2732 NORFAIR LOOP, LITHONIA, GA, 30038",23414351,"L"
148622,"2732 PARK AVENUE APT 49","PETERSBURG","VA",23805,37.1952694610001,-77.37725625,122,"2732 PARK AVENUE APT 49, PETERSBURG, VA, 23805","Match","Exact","2732 PARK AVE, PETERSBURG, VA, 23805",54152556,"R"
148623,"2732 ROODS CREEK ROAD - BLDG 48","HANCOCK","NY",13783,42.051083786,-75.340228515,123,"2732 ROODS CREEK ROAD - BLDG 48, HANCOCK, NY, 13783","Match","Exact","2732 ROODS CREEK RD, HANCOCK, NY, 13783",634410924,"R"
148624,"2732 ROODS CREEK ROAD BUILDING 6","HANCOCK","NY",13783,42.051083786,-75.340228515,124,"2732 ROODS CREEK ROAD BUILDING 6, HANCOCK, NY, 13783","Match","Exact","2732 ROODS CREEK RD, HANCOCK, NY, 13783",634410924,"R"
148625,"2732 RUSSELL DRIVE","MARRERO","LA",70072,29.8296513760001,-90.10702867,125,"2732 RUSSELL DRIVE, MARRERO, LA, 70072","Match","Exact","2732 RUSSELL DR, MARRERO, LA, 70072",93510048,"R"
148626,"2732 SHETLAND LANE","AURORA","IL",60502,41.7916166190001,-88.249473456,126,"2732 SHETLAND LANE, AURORA, IL, 60502","Match","Exact","2732 SHETLAND LN, AURORA, IL, 60502",112589623,"R"
148627,"2732 SOUTH BEECH AVENUE","BROKEN ARROW","OK",74012,36.0258773,-95.817406955,127,"2732 SOUTH BEECH AVENUE, BROKEN ARROW, OK, 74012","Match","Exact","2732 S BEECH AVE, BROKEN ARROW, OK, 74012",166498630,"R"
148628,"2732 VILLAGE DR","THOMPSONS STATION","TN",37179,35.793052823,-86.8994223719999,128,"2732 VILLAGE DR, THOMPSONS STATION, TN, 37179","Match","Exact","2732 VILLAGE DR, THOMPSONS STATION, TN, 37179",73122837,"L"
148629,"2732 WAGON WHEEL DRIVE","CARROLLTON","TX",75006,32.9626024310001,-96.863263165,129,"2732 WAGON WHEEL DRIVE, CARROLLTON, TX, 75006","Match","Exact","2732 WAGON WHEEL DR, CARROLLTON, TX, 75006",102897142,"R"
148630,"2732 WHITE OAK RIVER RD","MAYSVILLE","NC",28555,34.9236961720001,-77.3446994019999,130,"2732 WHITE OAK RIVER RD, MAYSVILLE, NC, 28555","Match","Exact","2732 WHITE OAK RIVER RD, MAYSVILLE, NC, 28555",14019405,"L"
148631,"27320 ADAMS","ELMWOOD","NE",68349,40.841613071,-96.3336466,131,"27320 ADAMS, ELMWOOD, NE, 68349","Match","Non_Exact","27320 ADAMS ST, ELMWOOD, NE, 68349",10364946,"R"
148632,"27320 WEATHERSFIELD DRIVE","VALENCIA","CA",91354,34.4428080690001,-118.543206922,132,"27320 WEATHERSFIELD DRIVE, VALENCIA, CA, 91354","Match","Exact","27320 WEATHERSFIELD DR, VALENCIA, CA, 91354",141855524,"R"
148633,"27321 HAMPDEN STREET","MADISON HEIGHTS","MI",48071,42.4930321780001,-83.113596162,133,"27321 HAMPDEN STREET, MADISON HEIGHTS, MI, 48071","Match","Exact","27321 HAMPDEN ST, MADISON HEIGHTS, MI, 48071",69746943,"L"
148634,"27326 WINDING WAY","MALIBU","CA",90265,34.032414251,-118.772183005,134,"27326 WINDING WAY, MALIBU, CA, 90265","Match","Exact","27326 WINDING WAY, MALIBU, CA, 90265",627312701,"R"
148635,"27329 SWEETSPIRE TERRACE PL","MURRIETA","CA",92562,33.587247856,-117.184101672,135,"27329 SWEETSPIRE TERRACE PL, MURRIETA, CA, 92562","Match","Exact","27329 SWEETSPIRE TERRACE PL, MURRIETA, CA, 92562",633950337,"R"
148636,"27329 WELSH DR","WARREN","MI",48092,42.4937658170001,-83.0516964189999,136,"27329 WELSH DR, WARREN, MI, 48092","Match","Exact","27329 WELSH DR, WARREN, MI, 48092",110698423,"L"
148637,"2733 176TH ST","LAKE CITY","FL",32024,30.1320959120001,-82.801564329,137,"2733 176TH ST, LAKE CITY, FL, 32024","Match","Exact","2733 176TH ST, LAKE CITY, FL, 32024",41110456,"L"
148638,"2733 ACADIANA TRACE","MARRERO","LA",70072,29.8139469560001,-90.108834765,138,"2733 ACADIANA TRACE, MARRERO, LA, 70072","Match","Exact","2733 ACADIANA TRCE, MARRERO, LA, 70072",637327654,"R"
148639,"2733 BALLARD AVE","ORLANDO","FL",32833,28.506676923,-81.077618058,139,"2733 BALLARD AVE, ORLANDO, FL, 32833","Match","Exact","2733 BALLARD AVE, ORLANDO, FL, 32833",94298325,"L"
148640,"2733 BEAUCLERC ROAD","JACKSONVILLE","FL",32257,30.200901484,-81.63841353,140,"2733 BEAUCLERC ROAD, JACKSONVILLE, FL, 32257","Match","Exact","2733 BEAUCLERC RD, JACKSONVILLE, FL, 32257",83917614,"L"
148641,"2733 BEAUCLERC ROAD","JACKSONVILLE","FM",32257,NA,NA,141,"2733 BEAUCLERC ROAD, JACKSONVILLE, FM, 32257","No_Match",NA,NA,NA,NA
148642,"2733 BELMONT STREET  2ND FLOOR","HAMTRAMCK","MI",48212,42.3978510680001,-83.060575457,142,"2733 BELMONT STREET  2ND FLOOR, HAMTRAMCK, MI, 48212","Match","Exact","2733 BELMONT ST, HAMTRAMCK, MI, 48212",95465238,"L"
148643,"2733 BRIARWOOD LANE","NAZARETH","PA",18064,40.742192108,-75.341951692,143,"2733 BRIARWOOD LANE, NAZARETH, PA, 18064","Match","Exact","2733 BRIARWOOD LN, NAZARETH, PA, 18064",617442718,"L"
148644,"2733 COUNTRY CLUB BLVD","STOCKTON","CA",95204,37.9641124240001,-121.336541918,144,"2733 COUNTRY CLUB BLVD, STOCKTON, CA, 95204","Match","Exact","2733 COUNTRY CLUB BLVD, STOCKTON, CA, 95204",133847591,"R"
148645,"2733 E BATTLEFIELD 286","SPRINGFIELD","MO",65804,NA,NA,145,"2733 E BATTLEFIELD 286, SPRINGFIELD, MO, 65804","No_Match",NA,NA,NA,NA
148646,"2733 E BATTLEFIELD ROAD / 183","SPRINGFIELD","MO",65804,37.1586451960001,-93.240234895,146,"2733 E BATTLEFIELD ROAD / 183, SPRINGFIELD, MO, 65804","Match","Non_Exact","2733 E BATTLEFIELD RD, SPRINGFIELD, MO, 65804",605894316,"L"
148647,"2733 ESPLANADE AVE","NEW ORLEANS","LA",70119,29.977074665,-90.0796713669999,147,"2733 ESPLANADE AVE, NEW ORLEANS, LA, 70119","Match","Exact","2733 ESPLANADE AVE, NEW ORLEANS, LA, 70119",191709517,"R"
148648,"2733 FAIRDALE TERRACE","SILVER SPRING","MD",20905,39.0921923990001,-76.9560086079999,148,"2733 FAIRDALE TERRACE, SILVER SPRING, MD, 20905","Match","Exact","2733 FAIRDALE TER, SILVER SPRING, MD, 20905",62100750,"L"
148649,"2733 HUDSON PL","NEW ORLEANS","LA",70131,29.9256856280001,-89.9993447799999,149,"2733 HUDSON PL, NEW ORLEANS, LA, 70131","Match","Exact","2733 HUDSON PL, NEW ORLEANS, LA, 70131",191723252,"R"
148650,"2733 JUDIE ST","SULPHUR","LA",70663,30.282279642,-93.3499408769999,150,"2733 JUDIE ST, SULPHUR, LA, 70663","Match","Exact","2733 JUDIE ST, SULPHUR, LA, 70663",88441914,"L"
148651,"2733 LINDBERGH LANE","LINCOLN","CA",95648,38.9104926950001,-121.329488359,151,"2733 LINDBERGH LANE, LINCOLN, CA, 95648","Match","Exact","2733 LINDBERGH LN, LINCOLN, CA, 95648",636422146,"L"
148652,"2733 MAPLE STREET","DES MOINES","IA",50317,41.598355343,-93.564210889,152,"2733 MAPLE STREET, DES MOINES, IA, 50317","Match","Exact","2733 MAPLE ST, DES MOINES, IA, 50317",65789727,"R"
148653,"2733 N ROJO DR","HOBBS","NM",88240,32.731685886,-103.137475391,153,"2733 N ROJO DR, HOBBS, NM, 88240","Match","Exact","2733 N ROJO DR, HOBBS, NM, 88240",132018583,"R"
148654,"2733 NORTH 127TH DRIVE","AVONDALE","AZ",85392,33.4778934130001,-112.335726248,154,"2733 NORTH 127TH DRIVE, AVONDALE, AZ, 85392","Match","Exact","2733 N 127TH DR, AVONDALE, AZ, 85392",128403724,"R"
148655,"2733 NORTH POWER ROAD STE102-318","MESA","AZ",85215,33.4655346220001,-111.683941454,155,"2733 NORTH POWER ROAD STE102-318, MESA, AZ, 85215","Match","Exact","2733 N POWER RD, MESA, AZ, 85215",128330997,"L"
148656,"2733 NOTTINGHAM DRIVE","COLUMBIA","TN",38401,35.705593476,-86.987544056,156,"2733 NOTTINGHAM DRIVE, COLUMBIA, TN, 38401","Match","Exact","2733 NOTTINGHAM DR, COLUMBIA, TN, 38401",651864455,"L"
148657,"2733 OAK RIDGE CT STE 104","FORT MYERS","FL",33901,NA,NA,157,"2733 OAK RIDGE CT STE 104, FORT MYERS, FL, 33901","No_Match",NA,NA,NA,NA
148658,"2733 PEYTON RIDGE RD","LIBERTY","KY",42539,37.4200132460001,-84.95906916,158,"2733 PEYTON RIDGE RD, LIBERTY, KY, 42539","Match","Exact","2733 PEYTON RIDGE RD, LIBERTY, KY, 42539",32510342,"L"
148659,"2733 RED ARROW DR","LAS VEGAS","NV",89135,36.139653223,-115.347444589,159,"2733 RED ARROW DR, LAS VEGAS, NV, 89135","Match","Exact","2733 RED ARROW DR, LAS VEGAS, NV, 89135",201983601,"R"
148660,"2733 RIVERSIDE BLVD","SACRAMENTO","CA",95818,38.5584367650001,-121.500972105,160,"2733 RIVERSIDE BLVD, SACRAMENTO, CA, 95818","Match","Exact","2733 RIVERSIDE BLVD, SACRAMENTO, CA, 95818",133322035,"L"
148661,"2733 ROSE DRIVE SE","ROCHESTER","MN",55904,44.0021923200001,-92.422163427,161,"2733 ROSE DRIVE SE, ROCHESTER, MN, 55904","Match","Exact","2733 ROSE DR SE, ROCHESTER, MN, 55904",30573929,"L"
148662,"2733 SENECA TRAIL","DULUTH","GA",30096,33.959799031,-84.1661234009999,162,"2733 SENECA TRAIL, DULUTH, GA, 30096","Match","Non_Exact","2733 SENECA TRL NW, DULUTH, GA, 30096",88915901,"R"
148663,"2733 SERRANO RD","SAN BERNARDINO","CA",92405,NA,NA,163,"2733 SERRANO RD, SAN BERNARDINO, CA, 92405","Tie",NA,NA,NA,NA
148664,"2733 SHADYBRANCH DR","ORLANDO","FL",32822,28.5150306890001,-81.3014737519999,164,"2733 SHADYBRANCH DR, ORLANDO, FL, 32822","Match","Exact","2733 SHADYBRANCH DR, ORLANDO, FL, 32822",94294964,"L"
148665,"2733 SHERATON DRIVE STE F165","MACON","GA",31204,32.877252814,-83.664189872,165,"2733 SHERATON DRIVE STE F165, MACON, GA, 31204","Match","Exact","2733 SHERATON DR, MACON, GA, 31204",636327792,"R"
148666,"2733 SUNNY VIEW DRIVE","ILLIOPOLIS","IL",62539,39.840747994,-89.256979088,166,"2733 SUNNY VIEW DRIVE, ILLIOPOLIS, IL, 62539","Match","Exact","2733 SUNNY VIEW DR, ILLIOPOLIS, IL, 62539",652382546,"R"
148667,"2733 TROTTERS LANE","OWENSBORO","KY",42303,37.7408268930001,-87.0636286179999,167,"2733 TROTTERS LANE, OWENSBORO, KY, 42303","Match","Exact","2733 TROTTERS LN, OWENSBORO, KY, 42303",37569205,"L"
148668,"2733 US HWY 59","WAUBUN","MN",56589,47.251133102,-95.9332997339999,168,"2733 US HWY 59, WAUBUN, MN, 56589","Match","Exact","2733 US HWY 59, WAUBUN, MN, 56589",168231391,"L"
148669,"2733 W NICHOLS ST","SPRINGFIELD","MO",65803,37.219366183,-93.3312543819999,169,"2733 W NICHOLS ST, SPRINGFIELD, MO, 65803","Match","Exact","2733 W NICHOLS ST, SPRINGFIELD, MO, 65803",652554230,"R"
148670,"2733 WEST BELDEN AVENUE UNIT 410","CHICAGO","IL",60647,41.9229630240001,-87.6957611289999,170,"2733 WEST BELDEN AVENUE UNIT 410, CHICAGO, IL, 60647","Match","Exact","2733 W BELDEN AVE, CHICAGO, IL, 60647",605229186,"L"
148671,"27333 STATE ROUTE 278","MCARTHUR","OH",45651,NA,NA,171,"27333 STATE ROUTE 278, MCARTHUR, OH, 45651","No_Match",NA,NA,NA,NA
148672,"27335 STERLING SILVER","SAN ANTONIO","TX",78260,NA,NA,172,"27335 STERLING SILVER, SAN ANTONIO, TX, 78260","No_Match",NA,NA,NA,NA
148673,"2734 BERKSHIRE DRIVE","WINDER","GA",30650,33.953743989,-83.793262565,173,"2734 BERKSHIRE DRIVE, WINDER, GA, 30650","Match","Non_Exact","2734 BERKSHIRE DR, WINDER, GA, 30680",653483578,"L"
148674,"2734 BURGEN AVE NE","GRAND RAPIDS","MI",49525,43.0117357980001,-85.602533775,174,"2734 BURGEN AVE NE, GRAND RAPIDS, MI, 49525","Match","Exact","2734 BURGEN AVE NE, GRAND RAPIDS, MI, 49525",12482454,"R"
148675,"2734 E BOSTON CIRCLE","MESA","AZ",85213,33.419407613,-111.77308798,175,"2734 E BOSTON CIRCLE, MESA, AZ, 85213","Match","Non_Exact","2734 E BOSTON ST, MESA, AZ, 85213",128246637,"L"
148676,"2734 EAST 79TH STREET","CHICAGO","IL",60649,41.751855252,-87.5575289769999,176,"2734 EAST 79TH STREET, CHICAGO, IL, 60649","Match","Exact","2734 E 79TH ST, CHICAGO, IL, 60649",111776289,"L"
148677,"2734 EDGEMONT STREET","PHILADELPHIA","PA",19134,39.978545447,-75.1132850939999,177,"2734 EDGEMONT STREET, PHILADELPHIA, PA, 19134","Match","Exact","2734 EDGEMONT ST, PHILADELPHIA, PA, 19134",652463712,"L"
148678,"2734 FLORA HILLS DR","CAPE GIRARDEAU","MO",63701,37.3314861740001,-89.562359583,178,"2734 FLORA HILLS DR, CAPE GIRARDEAU, MO, 63701","Match","Exact","2734 FLORA HILLS DR, CAPE GIRARDEAU, MO, 63701",35198069,"L"
148679,"2734 HOCKING TRAIL","CANAL WINCHESTER","OH",43110,39.7748917430001,-82.771159296,179,"2734 HOCKING TRAIL, CANAL WINCHESTER, OH, 43110","Match","Exact","2734 HOCKING TRL, CANAL WINCHESTER, OH, 43110",631986156,"R"
148680,"2734 KNIGHTSBRIDGE RD","CLERMONT","FL",34711,28.494410008,-81.705299012,180,"2734 KNIGHTSBRIDGE RD, CLERMONT, FL, 34711","Match","Exact","2734 KNIGHTSBRIDGE RD, CLERMONT, FL, 34711",94213740,"L"
148681,"2734 MACON DR","SACRAMENTO","CA",95835,38.6785104790001,-121.520694346,181,"2734 MACON DR, SACRAMENTO, CA, 95835","Match","Exact","2734 MACON DR, SACRAMENTO, CA, 95835",640620065,"L"
148682,"2734 MANOOMIN PLACE","VIRGINIA BEACH","VA",23451,36.85419161,-75.98499449,182,"2734 MANOOMIN PLACE, VIRGINIA BEACH, VA, 23451","Match","Exact","2734 MANOOMIN PL, VA BCH, VA, 23451",122312456,"R"
148683,"2734 MARTINEC DR","PEARLAND","TX",77584,29.5521872900001,-95.382215501,183,"2734 MARTINEC DR, PEARLAND, TX, 77584","Match","Exact","2734 MARTINEC DR, PEARLAND, TX, 77584",116644806,"R"
148684,"2734 SPURGIN RD","MISSOULA","MT",59804,46.8596388810001,-114.046998766,184,"2734 SPURGIN RD, MISSOULA, MT, 59804","Match","Exact","2734 SPURGIN RD, MISSOULA, MT, 59804",641024029,"R"
148685,"2734 W LELAND AVE UNIT","CHICAGO","IL",60625,41.966726889,-87.696865604,185,"2734 W LELAND AVE UNIT, CHICAGO, IL, 60625","Match","Non_Exact","2734 W LELAND AVE, CHICAGO, IL, 60625",111760166,"R"
148686,"2734 WEST 44TH ST","INDIANAPOLIS","IN",46228,39.8353593850001,-86.208022464,186,"2734 WEST 44TH ST, INDIANAPOLIS, IN, 46228","Match","Exact","2734 W 44TH ST, INDIANAPOLIS, IN, 46228",107982157,"R"
148687,"2734 WHISPERING FERN CT","KINGWOOD","TX",77345,30.058651168,-95.151117502,187,"2734 WHISPERING FERN CT, KINGWOOD, TX, 77345","Match","Exact","2734 WHISPERING FERN CT, KINGWOOD, TX, 77345",96420037,"L"
148688,"2734 WOODFLOWER AVE","HENDERSON","NV",89052,35.990687274,-115.106322349,188,"2734 WOODFLOWER AVE, HENDERSON, NV, 89052","Match","Exact","2734 WOODFLOWER AVE, HENDERSON, NV, 89052",201952706,"R"
148689,"27345 COUNTY ROAD 4","NAYTAHWAUSH","MN",56566,NA,NA,189,"27345 COUNTY ROAD 4, NAYTAHWAUSH, MN, 56566","No_Match",NA,NA,NA,NA
148690,"27345 SAND CANYON ROAD","CANYON COUNTRY","CA",91387,34.405109752,-118.419773152,190,"27345 SAND CANYON ROAD, CANYON COUNTRY, CA, 91387","Match","Exact","27345 SAND CANYON RD, CANYON COUNTRY, CA, 91387",142828989,"L"
148691,"27349 EVERETT STREET","SOUTHFIELD","MI",48076,42.4913456780001,-83.206844648,191,"27349 EVERETT STREET, SOUTHFIELD, MI, 48076","Match","Exact","27349 EVERETT ST, SOUTHFIELD, MI, 48076",69739979,"L"
148692,"2735 36TH AVENUE SE","NAPLES","FL",34117,26.1651013910001,-81.550070325,192,"2735 36TH AVENUE SE, NAPLES, FL, 34117","Match","Exact","2735 36TH AVE SE, NAPLES, FL, 34117",115132375,"L"
148693,"2735 BURLWOOD DR","BILLINGS","MT",59106,45.7978863810001,-108.619993439,193,"2735 BURLWOOD DR, BILLINGS, MT, 59106","Match","Exact","2735 BURLWOOD DR, BILLINGS, MT, 59106",645329498,"R"
148694,"2735 COWLES ROAD","CHARLOTTE","NC",28208,35.214501339,-80.883167117,194,"2735 COWLES ROAD, CHARLOTTE, NC, 28208","Match","Exact","2735 COWLES RD, CHARLOTTE, NC, 28208",70484664,"L"
148695,"2735 DANE HILL ROAD","WEST CHARLESTON","VT",5872,44.8638453400001,-72.088657223,195,"2735 DANE HILL ROAD, WEST CHARLESTON, VT, 5872","Match","Exact","2735 DANE HILL RD, W CHARLESTON, VT, 05872",196769160,"R"
148696,"2735 E 45TH PL","TULSA","OK",74105,36.097916808,-95.949976346,196,"2735 E 45TH PL, TULSA, OK, 74105","Match","Exact","2735 E 45TH PL, TULSA, OK, 74105",166449839,"L"
148697,"2735 E CARRERA CT","GREEN  BAY","WI",54311,44.544713313,-87.913251266,197,"2735 E CARRERA CT, GREEN  BAY, WI, 54311","Match","Exact","2735 CARRERA CT, GREEN BAY, WI, 54311",148115694,"L"
148698,"2735 E DUST DEVIL DR","SAN TAN VALLEY","AZ",85143,33.1570226210001,-111.537330451,198,"2735 E DUST DEVIL DR, SAN TAN VALLEY, AZ, 85143","Match","Exact","2735 DUST DEVIL DR, SAN TAN VALLEY, AZ, 85143",626685047,"L"
148699,"2735 EAST BROADWAY SUITE B","ALTON","IL",62002,38.8868149460001,-90.139545578,199,"2735 EAST BROADWAY SUITE B, ALTON, IL, 62002","Match","Exact","2735 E BROADWAY, ALTON, IL, 62002",107680551,"R"
148700,"2735 HAMPTON AVE","CHARLOTTE","NC",28207,35.1885523660001,-80.8242536559999,200,"2735 HAMPTON AVE, CHARLOTTE, NC, 28207","Match","Exact","2735 HAMPTON AVE, CHARLOTTE, NC, 28207",70488239,"L"
148701,"2735 KISMET WAY","EUGENE","OR",97405,44.0286881970001,-123.135737396,201,"2735 KISMET WAY, EUGENE, OR, 97405","Match","Exact","2735 KISMET WAY, EUGENE, OR, 97405",605395504,"L"
148702,"2735 N 1250 E","NORTH LOGAN","UT",84341,41.7796121270001,-111.802998056,202,"2735 N 1250 E, NORTH LOGAN, UT, 84341","Match","Exact","2735 N 1250 E, NORTH LOGAN, UT, 84341",155090883,"L"
148703,"2735 N DUBLIN CT","WICHITA","KS",67226,37.7329507330001,-97.2437055409999,203,"2735 N DUBLIN CT, WICHITA, KS, 67226","Match","Exact","2735 N DUBLIN CT, WICHITA, KS, 67226",115661321,"R"
148704,"2735 N LINCOLN AVE APT 3N","CHICAGO","IL",60614,41.9314463600001,-87.657141079,204,"2735 N LINCOLN AVE APT 3N, CHICAGO, IL, 60614","Match","Non_Exact","2735 N LINCOLN AVE, CHICAGO, IL, 60614",111764440,"R"
148705,"2735 N WILLIAMS LAKE RD","WATERFORD","MI",48329,NA,NA,205,"2735 N WILLIAMS LAKE RD, WATERFORD, MI, 48329","No_Match",NA,NA,NA,NA
148706,"2735 RIVERCLIFF ROAD","FAYETTEVILLE","NC",28301,35.0933700900001,-78.865924572,206,"2735 RIVERCLIFF ROAD, FAYETTEVILLE, NC, 28301","Match","Exact","2735 RIVERCLIFF RD, FAYETTEVILLE, NC, 28301",64201280,"R"
148707,"2735 ROCKFORD ROAD","MCALESTER","OK",74501,NA,NA,207,"2735 ROCKFORD ROAD, MCALESTER, OK, 74501","No_Match",NA,NA,NA,NA
148708,"2735 S DUCK CIRCLE","WASILLA","AK",99654,61.5520285150001,-149.307091662,208,"2735 S DUCK CIRCLE, WASILLA, AK, 99654","Match","Exact","2735 S DUCK CIR, WASILLA, AK, 99654",646935822,"L"
148709,"2735 S SANTA BARBARA","MESA","AZ",85202,33.36620922,-111.87760557,209,"2735 S SANTA BARBARA, MESA, AZ, 85202","Match","Exact","2735 S SANTA BARBARA, MESA, AZ, 85202",128239915,"L"
148710,"2735 SE 82ND AVE","PORTLAND","OR",97220,45.502938353,-122.578688057,210,"2735 SE 82ND AVE, PORTLAND, OR, 97220","Match","Non_Exact","2735 SE 82ND AVE, PORTLAND, OR, 97266",157554701,"R"
148711,"2735 SOUTH AMES WAY","DENVER","CO",80227,39.666888923,-105.054879077,211,"2735 SOUTH AMES WAY, DENVER, CO, 80227","Match","Exact","2735 S AMES WAY, DENVER, CO, 80227",177328598,"R"
148712,"2735 STANTON WOODS DRIVE SE","CONYERS","GA",30094,33.6161154820001,-84.0266897659999,212,"2735 STANTON WOODS DRIVE SE, CONYERS, GA, 30094","Match","Exact","2735 STANTON WOODS DR SE, CONYERS, GA, 30094",23738413,"R"
148713,"2735 THREE BARS DRIVE","EAST HELENA","MT",59635,46.6024130270001,-111.785986877,213,"2735 THREE BARS DRIVE, EAST HELENA, MT, 59635","Match","Non_Exact","2735 THREE-BARS DR, EAST HELENA, MT, 59635",640600754,"R"
148714,"2735 W PEBBLE ROAD - 6-317","LAS VEGAS","NV",89123,36.0284249430001,-115.177304746,214,"2735 W PEBBLE ROAD - 6-317, LAS VEGAS, NV, 89123","Match","Non_Exact","2735 W PEBBLE RD, LAS VEGAS, NV, 89123",641124327,"L"
148715,"2735 WEST 71ST ST","CHICAGO","IL",60629,41.7645522870001,-87.691916643,215,"2735 WEST 71ST ST, CHICAGO, IL, 60629","Match","Exact","2735 W 71ST ST, CHICAGO, IL, 60629",605309838,"L"
148716,"2735 WORDEN ST","SAN DIEGO","CA",92110,32.7489158230001,-117.22546895,216,"2735 WORDEN ST, SAN DIEGO, CA, 92110","Match","Exact","2735 WORDEN ST, SAN DIEGO, CA, 92110",195339688,"R"
148717,"27350 EUCLID AVENUE APT 10409","EUCLID","OH",44132,41.5931312440001,-81.493268888,217,"27350 EUCLID AVENUE APT 10409, EUCLID, OH, 44132","Match","Exact","27350 EUCLID AVE, EUCLID, OH, 44132",61133335,"R"
148718,"27351 DEQUINDRE ROAD","MADISON HEIGHTS","MI",48071,42.4941720260001,-83.0852333839999,218,"27351 DEQUINDRE ROAD, MADISON HEIGHTS, MI, 48071","Match","Exact","27351 DEQUINDRE RD, MADISON HEIGHTS, MI, 48071",69832205,"L"
148719,"27353 LINDEN LANE","VALENCIA","CA",91354,34.439371255,-118.550144486,219,"27353 LINDEN LANE, VALENCIA, CA, 91354","Match","Exact","27353 LINDEN LN, VALENCIA, CA, 91354",141825150,"R"
148720,"27354 107TH STREET NW","ZIMMERMAN","MN",55398,45.4669824580001,-93.539936462,220,"27354 107TH STREET NW, ZIMMERMAN, MN, 55398","Match","Exact","27354 107TH ST NW, ZIMMERMAN, MN, 55398",232766264,"R"
148721,"27356 CAYMAN LANE","RAMROD KEY","FL",33042,24.651537697,-81.4059658369999,221,"27356 CAYMAN LANE, RAMROD KEY, FL, 33042","Match","Exact","27356 CAYMAN LN, RAMROD KEY, FL, 33042",116470699,"R"
148722,"27357 W ERB CT","TRACY","CA",95304,37.7072496220001,-121.401682088,222,"27357 W ERB CT, TRACY, CA, 95304","Match","Exact","27357 ERB CT, TRACY, CA, 95304",133880141,"L"
148723,"27359 NIPPERSINK ROAD","INGLESIDE","IL",60041,42.3712439810001,-88.166409647,223,"27359 NIPPERSINK ROAD, INGLESIDE, IL, 60041","Match","Non_Exact","27359 W NIPPERSINK RD, INGLESIDE, IL, 60041",119722667,"R"
148724,"2735A GOUGH STREET","SAN FRANCISCO","CA",94123,37.7984879800001,-122.427345906,224,"2735A GOUGH STREET, SAN FRANCISCO, CA, 94123","Match","Exact","2735 GOUGH ST, SAN FRANCISCO, CA, 94123",192279847,"L"
148725,"2736 ARMSTRONG AVENUE","LOS ANGELES","CA",90039,34.1055708970001,-118.265845152,225,"2736 ARMSTRONG AVENUE, LOS ANGELES, CA, 90039","Match","Exact","2736 ARMSTRONG AVE, LOS ANGELES, CA, 90039",141610535,"R"
148726,"2736 BRISCOE DR","FORT WORTH","TX",76108,32.733321947,-97.5078532319999,226,"2736 BRISCOE DR, FORT WORTH, TX, 76108","Match","Exact","2736 BRISCOE DR, FORT WORTH, TX, 76108",653237510,"R"
148727,"2736 CASTLEWOOD ROAD","COLUMBUS","OH",43209,39.9417376100001,-82.92217913,227,"2736 CASTLEWOOD ROAD, COLUMBUS, OH, 43209","Match","Exact","2736 CASTLEWOOD RD, COLUMBUS, OH, 43209",218678710,"L"
148728,"2736 KENWOOD AVE","FORT WAYNE","IN",46805,41.102754571,-85.104557659,228,"2736 KENWOOD AVE, FORT WAYNE, IN, 46805","Match","Exact","2736 KENWOOD AVE, FORT WAYNE, IN, 46805",6380255,"R"
148729,"2736 LAGUNA SECA","HENDERSON","NV",89052,35.9873712950001,-115.107299288,229,"2736 LAGUNA SECA, HENDERSON, NV, 89052","Match","Non_Exact","2736 LAGUNA SECA AVE, HENDERSON, NV, 89052",613018952,"R"
148730,"2736 LYNDALE AVE S SUITE 207","MINNEAPOLIS","MN",55408,44.953037286,-93.288067021,230,"2736 LYNDALE AVE S SUITE 207, MINNEAPOLIS, MN, 55408","Match","Exact","2736 LYNDALE AVE S, MINNEAPOLIS, MN, 55408",43624774,"R"
148731,"2736 N 49TH ST","MILWAUKEE","WI",53210,43.068669448,-87.974917666,231,"2736 N 49TH ST, MILWAUKEE, WI, 53210","Match","Exact","2736 N 49TH ST, MILWAUKEE, WI, 53210",77732024,"R"
148732,"2736 OLD UNITED STATES HIGHWAY 64","JAMESVILLE","NC",27846,35.827793881,-76.818825723,232,"2736 OLD UNITED STATES HIGHWAY 64, JAMESVILLE, NC, 27846","Match","Non_Exact","2736 US HWY 64, JAMESVILLE, NC, 27846",636969594,"R"
148733,"2736 PINE TRAIL DRIVE","LITTLE ELM","TX",75068,33.172002595,-96.888355476,233,"2736 PINE TRAIL DRIVE, LITTLE ELM, TX, 75068","Match","Exact","2736 PINE TRAIL DR, LITTLE ELM, TX, 75068",619800584,"L"
148734,"2736 QUEENSBERRY DRIVE","HUNTINGTOWN","MD",20639,38.581948907,-76.5612413649999,234,"2736 QUEENSBERRY DRIVE, HUNTINGTOWN, MD, 20639","Match","Exact","2736 QUEENSBERRY DR, HUNTINGTOWN, MD, 20639",633287079,"R"
148735,"2736 ROYAL LANE NO 29583","DALLAS","TX",75229,NA,NA,235,"2736 ROYAL LANE NO 29583, DALLAS, TX, 75229","No_Match",NA,NA,NA,NA
148736,"2736 RUDDELL ROAD SE APT B","LACEY","WA",98503,47.022863386,-122.810348728,236,"2736 RUDDELL ROAD SE APT B, LACEY, WA, 98503","Match","Exact","2736 RUDDELL RD SE, LACEY, WA, 98503",180979467,"L"
148737,"2736 S SAINT PAUL AVE","WICHITA","KS",67217,37.6444992030001,-97.375391182,237,"2736 S SAINT PAUL AVE, WICHITA, KS, 67217","Match","Non_Exact","2736 S ST PAUL ST, WICHITA, KS, 67217",115697374,"L"
148738,"2736 SIDNEY STREET","SAINT LOUIS","MO",63104,38.6061504410001,-90.226690866,238,"2736 SIDNEY STREET, SAINT LOUIS, MO, 63104","Match","Exact","2736 SIDNEY ST, SAINT LOUIS, MO, 63104",605125843,"L"
148739,"2736 STATE HIGHWAY 9","BRECKENRIDGE","MN",56553,NA,NA,239,"2736 STATE HIGHWAY 9, BRECKENRIDGE, MN, 56553","No_Match",NA,NA,NA,NA
148740,"2736 W GLADYS AVENUE","CHICAGO","IL",60612,41.8767297000001,-87.6947735639999,240,"2736 W GLADYS AVENUE, CHICAGO, IL, 60612","Match","Exact","2736 W GLADYS AVE, CHICAGO, IL, 60612",605087416,"R"
148741,"2736 W MONROE","CHICAGO","IL",60612,41.8801879320001,-87.694849038,241,"2736 W MONROE, CHICAGO, IL, 60612","Match","Non_Exact","2736 W MONROE ST, CHICAGO, IL, 60612",111766031,"R"
148742,"2736 WEST 23RD PLACE","CHICAGO","IL",60608,41.8492011650001,-87.6936320249999,242,"2736 WEST 23RD PLACE, CHICAGO, IL, 60608","Match","Exact","2736 W 23RD PL, CHICAGO, IL, 60608",605094595,"R"
148743,"2736 WESTMINSTER AVE","NORFOLK","VA",23504,36.84477989,-76.256427667,243,"2736 WESTMINSTER AVE, NORFOLK, VA, 23504","Match","Exact","2736 WESTMINSTER AVE, NORFOLK, VA, 23504",122138464,"L"
148744,"27360 KREHLING ROAD","ELBERTA","AL",36530,30.377547539,-87.558071199,244,"27360 KREHLING ROAD, ELBERTA, AL, 36530","Match","Exact","27360 KREHLING RD, ELBERTA, AL, 36530",131639792,"R"
148745,"27361 EVERGREEN LANE","MELFA","VA",23410,37.6650500050001,-75.776912147,245,"27361 EVERGREEN LANE, MELFA, VA, 23410","Match","Exact","27361 EVERGREEN LN, MELFA, VA, 23410",114576890,"R"
148746,"27361 SIERRA HWY SPACE 189","CANYON COUNTRY","CA",91351,NA,NA,246,"27361 SIERRA HWY SPACE 189, CANYON COUNTRY, CA, 91351","No_Match",NA,NA,NA,NA
148747,"27368 DARTMOUTH","MADISON HEIGHTS","MI",48071,42.4932854670001,-83.1112793309999,247,"27368 DARTMOUTH, MADISON HEIGHTS, MI, 48071","Match","Non_Exact","27368 DARTMOUTH ST, MADISON HEIGHTS, MI, 48071",69746951,"R"
148748,"2736A N 24TH PLACE","MILWAUKEE","WI",53206,43.068574933,-87.943667272,248,"2736A N 24TH PLACE, MILWAUKEE, WI, 53206","Match","Exact","2736 N 24TH PL, MILWAUKEE, WI, 53206",77738370,"R"
148749,"2737 AQUAMIST DR","DECATUR","GA",30034,33.7069292690001,-84.242536915,249,"2737 AQUAMIST DR, DECATUR, GA, 30034","Match","Exact","2737 AQUAMIST DR, DECATUR, GA, 30034",23371186,"R"
148750,"2737 AXE FACTORY ROAD","PHILADELPHIA","PA",19152,40.059490872,-75.0324057239999,250,"2737 AXE FACTORY ROAD, PHILADELPHIA, PA, 19152","Match","Exact","2737 AXE FACTORY RD, PHILADELPHIA, PA, 19152",131441345,"L"
148751,"2737 BAYOU BLEU DRIVE","MARRERO","LA",70072,29.823136391,-90.1027724639999,251,"2737 BAYOU BLEU DRIVE, MARRERO, LA, 70072","Match","Exact","2737 BAYOU BLEU DR, MARRERO, LA, 70072",631946919,"L"
148752,"2737 BURTON ROAD NW","ATLANTA","GA",30311,33.7558840680001,-84.4775767199999,252,"2737 BURTON ROAD NW, ATLANTA, GA, 30311","Match","Exact","2737 BURTON RD NW, ATLANTA, GA, 30311",17337075,"R"
148753,"2737 BUTTERCUP DR","PALMDALE","CA",93550,34.548276399,-118.07867335,253,"2737 BUTTERCUP DR, PALMDALE, CA, 93550","Match","Exact","2737 BUTTERCUP DR, PALMDALE, CA, 93550",141778716,"L"
148754,"2737 CLARENDON AVE","BELLMORE","NY",11710,40.6673027570001,-73.525322456,254,"2737 CLARENDON AVE, BELLMORE, NY, 11710","Match","Exact","2737 CLARENDON AVE, BELLMORE, NY, 11710",147637170,"L"
148755,"2737 DEVONSHIRE PL NW APT 425","WASHINGTON","DC",20008,38.931584027,-77.056602415,255,"2737 DEVONSHIRE PL NW APT 425, WASHINGTON, DC, 20008","Match","Exact","2737 DEVONSHIRE PL NW, WASHINGTON, DC, 20008",76221170,"R"
148756,"2737 DEVONSHIRE PLACE NW APT 214","WASHINGTON","DC",20008,38.931584027,-77.056602415,256,"2737 DEVONSHIRE PLACE NW APT 214, WASHINGTON, DC, 20008","Match","Exact","2737 DEVONSHIRE PL NW, WASHINGTON, DC, 20008",76221170,"R"
148757,"2737 DEVONSHIRE PLACE NW","WASHINGTON","DC",20008,38.931584027,-77.056602415,257,"2737 DEVONSHIRE PLACE NW, WASHINGTON, DC, 20008","Match","Exact","2737 DEVONSHIRE PL NW, WASHINGTON, DC, 20008",76221170,"R"
148758,"2737 FALCONBRIDGE DRIVE","CINCINNATI","OH",45238,39.137530333,-84.6305475679999,258,"2737 FALCONBRIDGE DRIVE, CINCINNATI, OH, 45238","Match","Exact","2737 FALCONBRIDGE DR, CINCINNATI, OH, 45238",652714324,"L"
148759,"2737 FRANKLIN DR STE 1624","MESQUITE","TX",75150,32.8004376220001,-96.6219785919999,259,"2737 FRANKLIN DR STE 1624, MESQUITE, TX, 75150","Match","Exact","2737 FRANKLIN DR, MESQUITE, TX, 75150",102932133,"L"
148760,"2737 JOHN PAUL DRIVE","ORLANDO","FL",32810,28.62164675,-81.4134006479999,260,"2737 JOHN PAUL DRIVE, ORLANDO, FL, 32810","Match","Exact","2737 JOHN PAUL DR, ORLANDO, FL, 32810",94425675,"R"
148761,"2737 KATE BOND RD","MEMPHIS","TN",38133,35.199986859,-89.802505362,261,"2737 KATE BOND RD, MEMPHIS, TN, 38133","Match","Exact","2737 KATE BOND RD, MEMPHIS, TN, 38133",72945311,"L"
148762,"2737 LANTERN LN","AUDUBON","PA",19403,40.1238591860001,-75.4282270319999,262,"2737 LANTERN LN, AUDUBON, PA, 19403","Match","Exact","2737 LANTERN LN, AUDUBON, PA, 19403",135104804,"R"
148763,"2737 N KIMBALL AVE UNIT 2","CHICAGO","IL",60647,41.931189524,-87.71226991,263,"2737 N KIMBALL AVE UNIT 2, CHICAGO, IL, 60647","Match","Non_Exact","2737 N KIMBALL AVE, CHICAGO, IL, 60647",111758922,"R"
148764,"2737 NW 21 ST","MIAMI","FL",33142,NA,NA,264,"2737 NW 21 ST, MIAMI, FL, 33142","No_Match",NA,NA,NA,NA
148765,"2737 NW 26TH STREET","OKLAHOMA CITY","OK",73107,35.495903879,-97.56227186,265,"2737 NW 26TH STREET, OKLAHOMA CITY, OK, 73107","Match","Exact","2737 NW 26TH ST, OKLAHOMA CITY, OK, 73107",100396606,"R"
148766,"2737 NW UPSHUR ST APT 204","PORTLAND","OR",97210,45.5360394210001,-122.70781288,266,"2737 NW UPSHUR ST APT 204, PORTLAND, OR, 97210","Match","Non_Exact","2737 NW UPSHUR ST, PORTLAND, OR, 97210",157496981,"R"
148767,"2737 REX LANE","VIRGINA BEACH","VA",23456,36.7415246800001,-76.007133741,267,"2737 REX LANE, VIRGINA BEACH, VA, 23456","Match","Non_Exact","2737 REX LN, VIRGINIA BCH, VA, 23456",640726979,"R"
148768,"2737 TIDEWATER DR","NORFOLK","VA",23509,36.8711080620001,-76.2660156649999,268,"2737 TIDEWATER DR, NORFOLK, VA, 23509","Match","Exact","2737 TIDEWATER DR, NORFOLK, VA, 23509",122123778,"L"
148769,"2737 W BASELINE RD STE 21","TEMPE","AZ",85283,33.3781855300001,-111.977270378,269,"2737 W BASELINE RD STE 21, TEMPE, AZ, 85283","Match","Non_Exact","2737 W BASELINE RD, TEMPE, AZ, 85283",638349549,"L"
148770,"2737 W CECIL AVE","DELANO","CA",93215,NA,NA,270,"2737 W CECIL AVE, DELANO, CA, 93215","No_Match",NA,NA,NA,NA
148771,"27370 BAYWAY COURT","PUNTA GORDA","FL",33980,26.990091717,-81.996740616,271,"27370 BAYWAY COURT, PUNTA GORDA, FL, 33980","Match","Non_Exact","27370 BAYWAY CT, PUNTA GORDA, FL, 33983",4289996,"L"
148772,"2738 ACTON","BERKELEY","CA",94702,37.856992775,-122.282435232,272,"2738 ACTON, BERKELEY, CA, 94702","Match","Non_Exact","2738 ACTON ST, BERKELEY, CA, 94702",124994222,"R"
148773,"2738 BARCLAY LANE","KISSIMMEE","FL",34743,28.340105882,-81.333853588,273,"2738 BARCLAY LANE, KISSIMMEE, FL, 34743","Match","Exact","2738 BARCLAY LN, KISSIMMEE, FL, 34743",624812658,"L"
148774,"2738 COUNTRY CLUB ROAD","LANETT","AL",36863,32.87399549,-85.223952646,274,"2738 COUNTRY CLUB ROAD, LANETT, AL, 36863","Match","Exact","2738 COUNTRY CLUB RD, LANETT, AL, 36863",3064279,"R"
148775,"2738 FAIR WATER DR","FORT COLLINS","CO",80524,40.6259052140001,-105.035920486,275,"2738 FAIR WATER DR, FORT COLLINS, CO, 80524","Match","Non_Exact","2738 FAIRWATER DR, FORT COLLINS, CO, 80524",617916669,"R"
148776,"2738 FORSYTH ROAD","WINTER PARK","FL",32792,28.5841262980001,-81.29460141,276,"2738 FORSYTH ROAD, WINTER PARK, FL, 32792","Match","Exact","2738 FORSYTH RD, WINTER PARK, FL, 32792",611261382,"L"
148777,"2738 KELLOGG LOOP","LIVERMORE","CA",94550,37.6691922000001,-121.724741548,277,"2738 KELLOGG LOOP, LIVERMORE, CA, 94550","Match","Exact","2738 KELLOGG LOOP, LIVERMORE, CA, 94550",606406492,"L"
148778,"2738 S DUCK CIRCLE","WASILLA","AK",99654,61.5520084760001,-149.307121357,278,"2738 S DUCK CIRCLE, WASILLA, AK, 99654","Match","Exact","2738 S DUCK CIR, WASILLA, AK, 99654",646935822,"R"
148779,"2738 SOUTH AVERS AVE","CHICAGO","IL",60623,41.8417195480001,-87.720827029,279,"2738 SOUTH AVERS AVE, CHICAGO, IL, 60623","Match","Exact","2738 S AVERS AVE, CHICAGO, IL, 60623",111799333,"R"
148780,"2738 THORNHILL DRIVE","EVANSVILLE","IN",47725,38.0996956760001,-87.513161645,280,"2738 THORNHILL DRIVE, EVANSVILLE, IN, 47725","Match","Exact","2738 THORNHILL DR, EVANSVILLE, IN, 47725",39800011,"R"
148781,"2738 W POLK ST","CHICAGO","IL",60612,41.871085603,-87.694332037,281,"2738 W POLK ST, CHICAGO, IL, 60612","Match","Exact","2738 W POLK ST, CHICAGO, IL, 60612",605026300,"R"
148782,"2738 WALNUT ST UNIT B","LOS ALAMOS","NM",87544,35.89182938,-106.306024031,282,"2738 WALNUT ST UNIT B, LOS ALAMOS, NM, 87544","Match","Exact","2738 WALNUT ST, LOS ALAMOS, NM, 87544",143754615,"R"
148783,"2738 WARDLOW AVE","SAN DIEGO","CA",92154,32.561390708,-117.074761276,283,"2738 WARDLOW AVE, SAN DIEGO, CA, 92154","Match","Exact","2738 WARDLOW AVE, SAN DIEGO, CA, 92154",195364908,"L"
148784,"27380 COOK RD APT 102","OLMSTED TOWNSHIP","OH",44138,41.384650364,-81.967998038,284,"27380 COOK RD APT 102, OLMSTED TOWNSHIP, OH, 44138","Match","Exact","27380 COOK RD, OLMSTED TWP, OH, 44138",638293115,"R"
148785,"27380 VALLEY CENTER RD","VALLEY CENTER","CA",92082,33.2082129500001,-117.033574354,285,"27380 VALLEY CENTER RD, VALLEY CENTER, CA, 92082","Match","Exact","27380 VALLEY CENTER RD, VALLEY CENTER, CA, 92082",645487724,"L"
148786,"2739 BUCKHORN DR","RANDLEMAN","NC",27317,35.7835833240001,-79.7914305849999,286,"2739 BUCKHORN DR, RANDLEMAN, NC, 27317","Match","Exact","2739 BUCKHORN DR, RANDLEMAN, NC, 27317",635841469,"L"
148787,"2739 DAYVIEW LANE","ATLANTA","GA",30331,33.678783219,-84.606790807,287,"2739 DAYVIEW LANE, ATLANTA, GA, 30331","Match","Exact","2739 DAYVIEW LN, ATLANTA, GA, 30331",625655937,"L"
148788,"2739 EASTLAND DRIVE","GRAND PRAIRIE","TX",75052,32.645967022,-97.049972541,288,"2739 EASTLAND DRIVE, GRAND PRAIRIE, TX, 75052","Match","Exact","2739 EASTLAND DR, GRAND PRAIRIE, TX, 75052",617672924,"L"
148789,"2739 ELLENDALE AVENUE","SAINT LOUIS","MO",63143,38.612108119,-90.3105990399999,289,"2739 ELLENDALE AVENUE, SAINT LOUIS, MO, 63143","Match","Exact","2739 ELLENDALE AVE, SAINT LOUIS, MO, 63143",107593604,"R"
148790,"2739 FAITH CIRCLE","PALM HARBOR","FL",34684,28.061903617,-82.733722012,290,"2739 FAITH CIRCLE, PALM HARBOR, FL, 34684","Match","Exact","2739 FAITH CIR, PALM HARBOR, FL, 34684",124679995,"R"
148791,"2739 FLOWER ST","HUNTINGTON PARK","CA",90255,33.9704439450001,-118.221341123,291,"2739 FLOWER ST, HUNTINGTON PARK, CA, 90255","Match","Exact","2739 FLOWER ST, HUNTINGTON PARK, CA, 90255",141672741,"L"
148792,"2739 GREGORY DRIVE SOUTH","BILLINGS","MT",59107,45.7992442550001,-108.584720863,292,"2739 GREGORY DRIVE SOUTH, BILLINGS, MT, 59107","Match","Non_Exact","2739 GREGORY DR S, BILLINGS, MT, 59102",181474016,"R"
148793,"2739 SINGER WOODS DRIVE","ABINGDON","MD",21009,39.4826158550001,-76.316210167,293,"2739 SINGER WOODS DRIVE, ABINGDON, MD, 21009","Match","Exact","2739 SINGER WOODS DR, ABINGDON, MD, 21009",191654740,"R"
148794,"2739 W MCMICKEN AVENUE","CINCINNATI","OH",45225,39.131444092,-84.5302921109999,294,"2739 W MCMICKEN AVENUE, CINCINNATI, OH, 45225","Match","Exact","2739 W MCMICKEN AVE, CINCINNATI, OH, 45225",103924547,"L"
148795,"2739 W TEMPLE ST","LOS ANGELES","CA",90026,34.073365547,-118.276774817,295,"2739 W TEMPLE ST, LOS ANGELES, CA, 90026","Match","Exact","2739 W TEMPLE ST, LOS ANGELES, CA, 90026",141604859,"R"
148796,"27392 CALLE ARROYO SUITE C","SAN JUAN CAPISTRANO","CA",92675,33.501587488,-117.652053345,296,"27392 CALLE ARROYO SUITE C, SAN JUAN CAPISTRANO, CA, 92675","Match","Non_Exact","27392 CLL ARROYO, SAN JUAN CAPISTRANO, CA, 92675",144074457,"L"
148797,"27393 YNEZ RD STE 164","TEMECULA","CA",92591,33.506330022,-117.150136564,297,"27393 YNEZ RD STE 164, TEMECULA, CA, 92591","Match","Exact","27393 YNEZ RD, TEMECULA, CA, 92591",609010772,"L"
148798,"27396 WHITE TAIL RD","MELFA","VA",23410,37.666780159,-75.719958644,298,"27396 WHITE TAIL RD, MELFA, VA, 23410","Match","Exact","27396 WHITE TAIL RD, MELFA, VA, 23410",640903657,"R"
148799,"274  BRANNAN STREET 5TH FLOOR","SAN FRANCISCO","CA",94107,37.782371299,-122.391421761,299,"274  BRANNAN STREET 5TH FLOOR, SAN FRANCISCO, CA, 94107","Match","Exact","274 BRANNAN ST, SAN FRANCISCO, CA, 94107",192289467,"R"
148800,"274 AMETHYST WAY","FRANKLIN PARK","NJ",8823,40.435496222,-74.5532140289999,300,"274 AMETHYST WAY, FRANKLIN PARK, NJ, 8823","Match","Exact","274 AMETHYST WAY, FRANKLIN PARK, NJ, 08823",59964905,"L"
148801,"274 ARNOLD CURRY ROAD","COLUMBIA","KY",42728,37.171260073,-85.262194892,301,"274 ARNOLD CURRY ROAD, COLUMBIA, KY, 42728","Match","Exact","274 ARNOLD CURRY RD, COLUMBIA, KY, 42728",624355925,"R"
148802,"274 ASSEMBLY STREET","WAYNESVILLE","NC",28786,35.49111262,-82.9787744019999,302,"274 ASSEMBLY STREET, WAYNESVILLE, NC, 28786","Match","Exact","274 ASSEMBLY ST, WAYNESVILLE, NC, 28786",151813676,"L"
148803,"274 CARTER STREET","ROCHESTER","NY",14621,43.181358823,-77.5914654429999,303,"274 CARTER STREET, ROCHESTER, NY, 14621","Match","Exact","274 CARTER ST, ROCHESTER, NY, 14621",14538995,"R"
148804,"274 CEDARWOOD TERRACE","ROCHESTER","NY",14609,43.1628866190001,-77.566675888,304,"274 CEDARWOOD TERRACE, ROCHESTER, NY, 14609","Match","Exact","274 CEDARWOOD TER, ROCHESTER, NY, 14609",14542057,"L"
148805,"274 CLETA COURT","BALLWIN","MO",63021,38.573780216,-90.539486131,305,"274 CLETA COURT, BALLWIN, MO, 63021","Match","Exact","274 CLETA CT, BALLWIN, MO, 63021",635060044,"R"
148806,"274 CONCORD ROAD","WAYLAND","MA",1778,NA,NA,306,"274 CONCORD ROAD, WAYLAND, MA, 1778","No_Match",NA,NA,NA,NA
148807,"274 CONCORD STREET","CRESSKILL","NJ",7626,40.9432000520001,-73.971993619,307,"274 CONCORD STREET, CRESSKILL, NJ, 7626","Match","Exact","274 CONCORD ST, CRESSKILL, NJ, 07626",64373419,"R"
148808,"274 DEER RUN DRIVE SOUTH","PONTE VEDRA BEACH","FL",32082,30.192592029,-81.370492398,308,"274 DEER RUN DRIVE SOUTH, PONTE VEDRA BEACH, FL, 32082","Match","Exact","274 DEER RUN DR S, PONTE VEDRA BEACH, FL, 32082",650398585,"R"
148809,"274 DP ROAD","LOS ALAMOS","NM",87544,35.8791641330001,-106.28718833,309,"274 DP ROAD, LOS ALAMOS, NM, 87544","Match","Exact","274 DP RD, LOS ALAMOS, NM, 87544",640238295,"L"
148810,"274 FAIRVIEW AVE","RATON","NM",87740,36.9159523640001,-104.437917775,310,"274 FAIRVIEW AVE, RATON, NM, 87740","Match","Exact","274 FAIRVIEW AVE, RATON, NM, 87740",605187293,"R"
148811,"274 GRIGGS DRIVE","PRINCETON","NJ",8540,40.3865231940001,-74.659226212,311,"274 GRIGGS DRIVE, PRINCETON, NJ, 8540","Match","Exact","274 GRIGGS DR, PRINCETON, NJ, 08540",60198334,"L"
148812,"274 HALLAM CURVE","MAHTEMEDI","MN",55115,45.052905824,-92.94899314,312,"274 HALLAM CURVE, MAHTEMEDI, MN, 55115","Match","Non_Exact","274 HALLAM CURVE, MAHTOMEDI, MN, 55115",97812086,"R"
148813,"274 HIGHWAY 138 SW","RIVERDALE","GA",30274,NA,NA,313,"274 HIGHWAY 138 SW, RIVERDALE, GA, 30274","No_Match",NA,NA,NA,NA
148814,"274 HOYT ST","BROOKLYN","NY",11217,40.681798374,-73.991050167,314,"274 HOYT ST, BROOKLYN, NY, 11217","Match","Exact","274 HOYT ST, BROOKLYN, NY, 11217",642654080,"R"
148815,"274 HWY 40","LECOMPTON","KS",66050,39.0048836760001,-95.451219555,315,"274 HWY 40, LECOMPTON, KS, 66050","Match","Non_Exact","274 US HWY 40, LECOMPTON, KS, 66050",17694773,"R"
148816,"274 IRON MOUNTAIN DRIVE","LIVERMORE","CO",80536,40.7397837080001,-105.451540198,316,"274 IRON MOUNTAIN DRIVE, LIVERMORE, CO, 80536","Match","Exact","274 IRON MOUNTAIN DR, LIVERMORE, CO, 80536",188547513,"L"
148817,"274 JEFFERSON ROAD","BOONE","NC",28607,36.2214819170001,-81.659850734,317,"274 JEFFERSON ROAD, BOONE, NC, 28607","Match","Exact","274 JEFFERSON RD, BOONE, NC, 28607",635643446,"R"
148818,"274 JUDSON AVE","SAN FRANCISCO","CA",94112,37.7283534330001,-122.448185771,318,"274 JUDSON AVE, SAN FRANCISCO, CA, 94112","Match","Exact","274 JUDSON AVE, SAN FRANCISCO, CA, 94112",192285890,"R"
148819,"274 KEITH AVENUE","AKRON","OH",44313,41.124440501,-81.586270713,319,"274 KEITH AVENUE, AKRON, OH, 44313","Match","Exact","274 KEITH AVE, AKRON, OH, 44313",61337420,"L"
148820,"274 KELLEY BLVD","NORTH ATTLEBORO","MA",2760,41.9899123450001,-71.289886068,320,"274 KELLEY BLVD, NORTH ATTLEBORO, MA, 2760","Match","Exact","274 KELLEY BLVD, NORTH ATTLEBORO, MA, 02760",46797855,"R"
148821,"274 LIBORIO DRIVE","MIDDLETOWN","DE",19709,39.4531531470001,-75.727604276,321,"274 LIBORIO DRIVE, MIDDLETOWN, DE, 19709","Match","Exact","274 LIBORIO DR, MIDDLETOWN, DE, 19709",647612343,"R"
148822,"274 MAPLEWOOD AVE","ROCHESTER","NY",14613,43.186259449,-77.629272446,322,"274 MAPLEWOOD AVE, ROCHESTER, NY, 14613","Match","Exact","274 MAPLEWOOD AVE, ROCHESTER, NY, 14613",14569896,"R"
148823,"274 N FAIRVIEW","RATON","NM",87740,36.9159549,-104.437927816,323,"274 N FAIRVIEW, RATON, NM, 87740","Match","Non_Exact","274 FAIRVIEW AVE, RATON, NM, 87740",605187293,"R"
148824,"274 N GORHAM ROAD","GORHAM","ME",4038,43.7962393980001,-70.4570895259999,324,"274 N GORHAM ROAD, GORHAM, ME, 4038","Match","Exact","274 N GORHAM RD, GORHAM, ME, 04038",632723306,"R"
148825,"274 N MAIN ST","WELLSVILLE","NY",14895,42.124384208,-77.952300239,325,"274 N MAIN ST, WELLSVILLE, NY, 14895","Match","Exact","274 N MAIN ST, WELLSVILLE, NY, 14895",82606686,"R"
148826,"274 NORTH I STREET","SAN BERNARDINO","CA",92410,34.104195852,-117.303177498,326,"274 NORTH I STREET, SAN BERNARDINO, CA, 92410","Match","Exact","274 N I ST, SAN BERNARDINO, CA, 92410",144653453,"L"
148827,"274 OAK COVE","COURTLAND","MS",38620,NA,NA,327,"274 OAK COVE, COURTLAND, MS, 38620","No_Match",NA,NA,NA,NA
148828,"274 PHILIP BRANCH ROAD","MOUNT AIRY","NC",27030,36.4169657150001,-80.698092023,328,"274 PHILIP BRANCH ROAD, MOUNT AIRY, NC, 27030","Match","Exact","274 PHILIP BRANCH RD, MOUNT AIRY, NC, 27030",154198899,"R"
148829,"274 PINEBROOK DRIVE","HYDE PARK","NY",12538,41.7531038830001,-73.9152381819999,329,"274 PINEBROOK DRIVE, HYDE PARK, NY, 12538","Match","Exact","274 PINEBROOK DR, HYDE PARK, NY, 12538",4229198,"R"
148830,"274 REDWOOD SHORES PKWY  UNIT 707","REDWOOD CITY","CA",94065,37.5208054190001,-122.252489898,330,"274 REDWOOD SHORES PKWY  UNIT 707, REDWOOD CITY, CA, 94065","Match","Exact","274 REDWOOD SHORES PKWY, REDWOOD CITY, CA, 94065",643102353,"L"
148831,"274 RIATA ROAD","TULAROSA","NM",88352,33.003695631,-106.012247256,331,"274 RIATA ROAD, TULAROSA, NM, 88352","Match","Exact","274 RIATA RD, TULAROSA, NM, 88352",636541052,"L"
148832,"274 RICHFIELD AVE","SPRINGFIELD","MI",49037,42.316640835,-85.216819755,332,"274 RICHFIELD AVE, SPRINGFIELD, MI, 49037","Match","Exact","274 RICHFIELD AVE, SPRINGFIELD, MI, 49037",624957979,"R"
148833,"274 RUSSELL STREET","WOBURN","MA",1801,42.4641659920001,-71.189152259,333,"274 RUSSELL STREET, WOBURN, MA, 1801","Match","Exact","274 RUSSELL ST, WOBURN, MA, 01801",640147847,"L"
148834,"274 S BURNETT ST 1ST FLOOR","EAST ORANGE","NJ",7018,40.7554626150001,-74.220674529,334,"274 S BURNETT ST 1ST FLOOR, EAST ORANGE, NJ, 7018","Match","Non_Exact","274 S BURNETT ST, EAST ORANGE, NJ, 07018",63450621,"L"
148835,"274 S HIGH ST","BRIDGTON","ME",4009,44.035297874,-70.708437795,335,"274 S HIGH ST, BRIDGTON, ME, 4009","Match","Exact","274 S HIGH ST, BRIDGTON, ME, 04009",635470898,"R"
148836,"274 SE 29TH ST","GRESHAM","OR",97080,45.476513335,-122.428912664,336,"274 SE 29TH ST, GRESHAM, OR, 97080","Match","Exact","274 SE 29TH ST, GRESHAM, OR, 97080",623790264,"R"
148837,"274 SEA VIEW COURT","ENCINITAS","CA",92024,33.0518515640001,-117.282668138,337,"274 SEA VIEW COURT, ENCINITAS, CA, 92024","Match","Exact","274 SEA VIEW CT, ENCINITAS, CA, 92024",195674863,"L"
148838,"274 SPARROW DRIVE","MANHASSET","NY",11030,40.7834613270001,-73.665107233,338,"274 SPARROW DRIVE, MANHASSET, NY, 11030","Match","Exact","274 SPARROW DR, MANHASSET, NY, 11030",147686167,"R"
148839,"274 STONEGATE","CADDO GAP","AR",71935,NA,NA,339,"274 STONEGATE, CADDO GAP, AR, 71935","No_Match",NA,NA,NA,NA
148840,"274 STRAWBERRY CIRCLE","CRANBERRY TOWNSHIP","PA",16066,40.6907671070001,-80.142646236,340,"274 STRAWBERRY CIRCLE, CRANBERRY TOWNSHIP, PA, 16066","Match","Exact","274 STRAWBERRY CIR, CRANBERRY TOWNSHIP, PA, 16066",624353632,"R"
148841,"274 SW 5TH COURT","DEERFIELD","FL",33441,26.310595162,-80.107148577,341,"274 SW 5TH COURT, DEERFIELD, FL, 33441","Match","Non_Exact","274 SW 5TH CT, DEERFIELD BEACH, FL, 33441",114822841,"L"
148842,"274 W CENTRAL AVE STE M","WINTER HAVEN","FL",33880,NA,NA,342,"274 W CENTRAL AVE STE M, WINTER HAVEN, FL, 33880","Tie",NA,NA,NA,NA
148843,"274 WILLOUGHBY AVENUE   APT BQ","BROOKLYN","NY",11205,40.6924963270001,-73.9601014199999,343,"274 WILLOUGHBY AVENUE   APT BQ, BROOKLYN, NY, 11205","Match","Exact","274 WILLOUGHBY AVE, BROOKLYN, NY, 11205",59077917,"R"
148844,"274","ST. ANSGAR","IA",50472,NA,NA,344,"274, ST. ANSGAR, IA, 50472","No_Match",NA,NA,NA,NA
148845,"2740 38TH AVENUE","SAN FRANCISCO","CA",94116,37.735778526,-122.49559676,345,"2740 38TH AVENUE, SAN FRANCISCO, CA, 94116","Match","Exact","2740 38TH AVE, SAN FRANCISCO, CA, 94116",192277946,"L"
148846,"2740 68TH AVE","OAKLAND","CA",94605,37.7679578130001,-122.181161682,346,"2740 68TH AVE, OAKLAND, CA, 94605","Match","Exact","2740 68TH AVE, OAKLAND, CA, 94605",125008726,"R"
148847,"2740 6TH ST CT NE","HICKORY","NC",28601,35.770997052,-81.3170367399999,347,"2740 6TH ST CT NE, HICKORY, NC, 28601","Match","Exact","2740 6TH STREET CT NE, HICKORY, NC, 28601",45944984,"L"
148848,"2740 CAROLINA AVE","REDWOOD CITY","CA",94061,37.452533143,-122.233349909,348,"2740 CAROLINA AVE, REDWOOD CITY, CA, 94061","Match","Exact","2740 CAROLINA AVE, REDWOOD CITY, CA, 94061",192362843,"R"
148849,"2740 CHURCH STREET","WHITEHAVEN","MD",21856,38.2700342270001,-75.791098844,349,"2740 CHURCH STREET, WHITEHAVEN, MD, 21856","Match","Non_Exact","2740 CHURCH ST, QUANTICO, MD, 21856",114464830,"L"
148850,"2740 CHURCHILL DRIVE","HILLSBOROUGH","CA",94010,37.5702590990001,-122.382329308,350,"2740 CHURCHILL DRIVE, HILLSBOROUGH, CA, 94010","Match","Exact","2740 CHURCHILL DR, HILLSBOROUGH, CA, 94010",192411406,"L"
148851,"2740 COLLEGE HEIGHTS RD","PRESCOTT","AZ",86301,34.59003718,-112.466700636,351,"2740 COLLEGE HEIGHTS RD, PRESCOTT, AZ, 86301","Match","Exact","2740 COLLEGE HEIGHTS RD, PRESCOTT, AZ, 86301",159507932,"R"
148852,"2740 CORINNE DR","MARRERO","LA",70072,29.833088011,-90.108732013,352,"2740 CORINNE DR, MARRERO, LA, 70072","Match","Exact","2740 CORINNE DR, MARRERO, LA, 70072",93510037,"R"
148853,"2740 CROPSEY AVE APT 13A","BROOKLYN","NY",11214,40.5873026140001,-73.9890627509999,353,"2740 CROPSEY AVE APT 13A, BROOKLYN, NY, 11214","Match","Exact","2740 CROPSEY AVE, BROOKLYN, NY, 11214",59089036,"R"
148854,"2740 DAWSON DRIVE","CHESTER","SC",29706,34.7075319630001,-81.230366278,354,"2740 DAWSON DRIVE, CHESTER, SC, 29706","Match","Exact","2740 DAWSON DR, CHESTER, SC, 29706",638850287,"L"
148855,"2740 DERBY STREET","BERKELEY","CA",94705,37.8622181220001,-122.252107785,355,"2740 DERBY STREET, BERKELEY, CA, 94705","Match","Exact","2740 DERBY ST, BERKELEY, CA, 94705",124998561,"R"
148856,"2740 DOMINION AVENUE","NORFOLK","VA",23518,36.9183849720001,-76.208500535,356,"2740 DOMINION AVENUE, NORFOLK, VA, 23518","Match","Exact","2740 DOMINION AVE, NORFOLK, VA, 23518",122141462,"L"
148857,"2740 DR CARVER RD","CHARLOTTE","NC",28208,NA,NA,357,"2740 DR CARVER RD, CHARLOTTE, NC, 28208","No_Match",NA,NA,NA,NA
148858,"2740 DUNCANVILLE ROAD APT 1426","DALLAS","TX",75211,NA,NA,358,"2740 DUNCANVILLE ROAD APT 1426, DALLAS, TX, 75211","No_Match",NA,NA,NA,NA
148859,"2740 E COLLEGE AVENUE UNIT 414","DECATUR","GA",30030,33.7749224230001,-84.2776306539999,359,"2740 E COLLEGE AVENUE UNIT 414, DECATUR, GA, 30030","Match","Non_Exact","2740 E COLLEGE AVE, DECATUR, GA, 30030",23367380,"L"
148860,"2740 E CORONA AVE","PHOENIX","AZ",85040,33.4060484020001,-112.022073979,360,"2740 E CORONA AVE, PHOENIX, AZ, 85040","Match","Exact","2740 E CORONA AVE, PHOENIX, AZ, 85040",128224396,"L"
148861,"2740 ELVYRA WAY 35","SACRAMENTO","CA",95821,38.6129246880001,-121.397924778,361,"2740 ELVYRA WAY 35, SACRAMENTO, CA, 95821","Match","Exact","2740 ELVYRA WAY, SACRAMENTO, CA, 95821",133331181,"R"
148862,"2740 ENGLISH RD","PACIFIC","MO",63069,38.464285008,-90.72564354,362,"2740 ENGLISH RD, PACIFIC, MO, 63069","Match","Exact","2740 ENGLISH RD, PACIFIC, MO, 63069",607829144,"R"
148863,"2740 ESSEX RD","PIERRE","SD",57501,44.406058667,-100.306430994,363,"2740 ESSEX RD, PIERRE, SD, 57501","Match","Exact","2740 ESSEX RD, PIERRE, SD, 57501",200332804,"R"
148864,"2740 EVERGREEN LN","EAST CHICAGO","IN",46312,41.6375943910001,-87.4382221279999,364,"2740 EVERGREEN LN, EAST CHICAGO, IN, 46312","Match","Exact","2740 EVERGREEN LN, EAST CHICAGO, IN, 46312",98440757,"L"
148865,"2740 FM 2238","SCHULENBURG","TX",78956,29.7185162870001,-97.00717006,365,"2740 FM 2238, SCHULENBURG, TX, 78956","Match","Exact","2740 FM 2238, SCHULENBURG, TX, 78956",42009601,"L"
148866,"2740 FULTON AVE SUITE 101-35","SACRAMENTO","CA",95821,38.614953454,-121.401409584,366,"2740 FULTON AVE SUITE 101-35, SACRAMENTO, CA, 95821","Match","Exact","2740 FULTON AVE, SACRAMENTO, CA, 95821",645247026,"R"
148867,"2740 FULTON AVE","SACRAMENTO","CA",95821,38.614953454,-121.401409584,367,"2740 FULTON AVE, SACRAMENTO, CA, 95821","Match","Exact","2740 FULTON AVE, SACRAMENTO, CA, 95821",645247026,"R"
148868,"2740 GEORGIA AVENUE S","ST LOUIS PARK","MN",55426,44.95418906,-93.36453527,368,"2740 GEORGIA AVENUE S, ST LOUIS PARK, MN, 55426","Match","Exact","2740 GEORGIA AVE S, SAINT LOUIS PARK, MN, 55426",43619605,"R"
148869,"2740 GREEN ASH LOOP APT 107","WOODBRIDGE","VA",22192,38.6594390020001,-77.2943701409999,369,"2740 GREEN ASH LOOP APT 107, WOODBRIDGE, VA, 22192","Match","Exact","2740 GREEN ASH LOOP, WOODBRIDGE, VA, 22192",634573682,"R"
148870,"2740 HAPPY JOE DRIVE STE 1","BETTENDORF","IA",52722,41.5490908510001,-90.494049993,370,"2740 HAPPY JOE DRIVE STE 1, BETTENDORF, IA, 52722","Match","Exact","2740 HAPPY JOE DR, BETTENDORF, IA, 52722",122711886,"L"
148871,"2740 LAUREL VALLEY LANE","ARLINGTON","TX",76006,32.780658486,-97.087709573,371,"2740 LAUREL VALLEY LANE, ARLINGTON, TX, 76006","Match","Exact","2740 LAUREL VALLEY LN, ARLINGTON, TX, 76006",101873687,"L"
148872,"2740 LEEDS LANE","CHARLOTTESVILLE","VA",22901,38.0597048750001,-78.594528569,372,"2740 LEEDS LANE, CHARLOTTESVILLE, VA, 22901","Match","Exact","2740 LEEDS LN, CHARLOTTESVILLE, VA, 22901",83401518,"L"
148873,"2740 MAEGEN CIRCLE","FORT WORTH","TX",76112,32.7402712640001,-97.1839019989999,373,"2740 MAEGEN CIRCLE, FORT WORTH, TX, 76112","Match","Exact","2740 MAEGEN CIR, FORT WORTH, TX, 76112",637604332,"R"
148874,"2740 MARION ROAD","JACKSON","MI",49201,42.1822319830001,-84.388338516,374,"2740 MARION ROAD, JACKSON, MI, 49201","Match","Exact","2740 MARION RD, JACKSON, MI, 49201",652791876,"L"
148875,"2740 MINNEHAHA AVE STE 130-7","MINNEAPOLIS","MN",55406,44.9522853600001,-93.2363039909999,375,"2740 MINNEHAHA AVE STE 130-7, MINNEAPOLIS, MN, 55406","Match","Exact","2740 MINNEHAHA AVE, MINNEAPOLIS, MN, 55406",43850645,"R"
148876,"2740 MINNEHAHA AVENUE SUITE 130","MINNEAPOLIS","MN",55406,44.9522853600001,-93.2363039909999,376,"2740 MINNEHAHA AVENUE SUITE 130, MINNEAPOLIS, MN, 55406","Match","Exact","2740 MINNEHAHA AVE, MINNEAPOLIS, MN, 55406",43850645,"R"
148877,"2740 MOSCOW AVE","HICKMAN","KY",42050,NA,NA,377,"2740 MOSCOW AVE, HICKMAN, KY, 42050","No_Match",NA,NA,NA,NA
148878,"2740 N MAYFAIR AVE SUITE I260","SPRINGFIELD","MO",65803,37.2456066460001,-93.2290904709999,378,"2740 N MAYFAIR AVE SUITE I260, SPRINGFIELD, MO, 65803","Match","Non_Exact","2740 N MAYFAIR AVE, SPRINGFIELD, MO, 65803",605862934,"R"
148879,"2740 NE 143RD PLACE","SEATTLE","WA",98125,47.7327189380001,-122.297634575,379,"2740 NE 143RD PLACE, SEATTLE, WA, 98125","Match","Exact","2740 NE 143RD PL, SEATTLE, WA, 98125",186576425,"L"
148880,"2740 NW 15TH ST","FORT LAUDERDALE","FL",33311,26.144420321,-80.179511632,380,"2740 NW 15TH ST, FORT LAUDERDALE, FL, 33311","Match","Non_Exact","2740 NW 15TH ST, FORT LAUDERDALE, FL, 33311",114720161,"L"
148881,"2740 NW 209TH TER","MIAMI GARDENS","FL",33056,25.9667787830001,-80.247886222,381,"2740 NW 209TH TER, MIAMI GARDENS, FL, 33056","Match","Exact","2740 NW 209TH TER, MIAMI GARDENS, FL, 33056",116026047,"L"
148882,"2740 PAINT DR","AUBURN","CA",95603,38.9333722380001,-121.110175346,382,"2740 PAINT DR, AUBURN, CA, 95603","Match","Exact","2740 PAINT DR, AUBURN, CA, 95603",624909354,"R"
148883,"2740 PONCE DE LEON","GRAND PRAIRIE","TX",75054,32.5888761950001,-97.0401161199999,383,"2740 PONCE DE LEON, GRAND PRAIRIE, TX, 75054","Match","Exact","2740 PONCE DE LEON, GRAND PRAIRIE, TX, 75054",617672067,"R"
148884,"2740 R STREET APT 4","LINCOLN","NE",68503,NA,NA,384,"2740 R STREET APT 4, LINCOLN, NE, 68503","No_Match",NA,NA,NA,NA
148885,"2740 SEPULVEDA BLVD","TORRANCE","CA",90505,33.8228471520001,-118.33306648,385,"2740 SEPULVEDA BLVD, TORRANCE, CA, 90505","Match","Exact","2740 SEPULVEDA BLVD, TORRANCE, CA, 90505",142845262,"L"
148886,"2740 SLEEPY HOLLOW TRL","FRISCO","TX",75033,33.167931616,-96.867725324,386,"2740 SLEEPY HOLLOW TRL, FRISCO, TX, 75033","Match","Exact","2740 SLEEPY HOLLOW TRL, FRISCO, TX, 75033",103412432,"L"
148887,"2740 SOUTH ROAD UNIT","POUGHKEEPSIE","NY",12601,41.676489937,-73.928360857,387,"2740 SOUTH ROAD UNIT, POUGHKEEPSIE, NY, 12601","Match","Exact","2740 SOUTH RD, POUGHKEEPSIE, NY, 12601",4218015,"L"
148888,"2740 SW MARTIN DOWNS BLVD SUITE 171","PALM CITY","FL",34990,27.1724462650001,-80.2906626119999,388,"2740 SW MARTIN DOWNS BLVD SUITE 171, PALM CITY, FL, 34990","Match","Non_Exact","2740 SW MARTIN DOWNS BLVD, PALM CITY, FL, 34990",619595989,"L"
148889,"2740 SW MARTIN DOWNS BLVD UNIT 310","PALM CITY","FL",34990,27.1724462650001,-80.2906626119999,389,"2740 SW MARTIN DOWNS BLVD UNIT 310, PALM CITY, FL, 34990","Match","Non_Exact","2740 SW MARTIN DOWNS BLVD, PALM CITY, FL, 34990",619595989,"L"
148890,"2740 SW MARTIN DOWNS BLVD","PALM CITY","FL",34990,27.1724462650001,-80.2906626119999,390,"2740 SW MARTIN DOWNS BLVD, PALM CITY, FL, 34990","Match","Exact","2740 SW MARTIN DOWNS BLVD, PALM CITY, FL, 34990",619595989,"L"
148891,"2740 UNION BOULEVARD","ISLIP","NY",11751,40.734179721,-73.209579601,391,"2740 UNION BOULEVARD, ISLIP, NY, 11751","Match","Exact","2740 UNION BLVD, ISLIP, NY, 11751",113997997,"R"
148892,"2740 VALLEY VIEW RD","BELLEFONTE","PA",16823,40.86832716,-77.884999696,392,"2740 VALLEY VIEW RD, BELLEFONTE, PA, 16823","Match","Exact","2740 VALLEY VIEW RD, BELLEFONTE, PA, 16823",647690193,"R"
148893,"2740 VIA VENADO","SANTA FE","NM",87505,35.6320046540001,-105.970727229,393,"2740 VIA VENADO, SANTA FE, NM, 87505","Match","Exact","2740 VIA VENADO, SANTA FE, NM, 87505",169399338,"R"
148894,"2740 W 85TH PL","CHICAGO","IL",60652,41.738559052,-87.690854104,394,"2740 W 85TH PL, CHICAGO, IL, 60652","Match","Exact","2740 W 85TH PL, CHICAGO, IL, 60652",111820299,"R"
148895,"2740 WATERS EDGE DR","GRAND PRAIRIE","TX",75054,32.6045982580001,-97.0506267659999,395,"2740 WATERS EDGE DR, GRAND PRAIRIE, TX, 75054","Match","Exact","2740 WATERS EDGE DR, GRAND PRAIRIE, TX, 75054",618711819,"R"
148896,"2740 WATERS EDGE DRIVE","GRAND PRAIRIE","TX",75054,32.6045982580001,-97.0506267659999,396,"2740 WATERS EDGE DRIVE, GRAND PRAIRIE, TX, 75054","Match","Exact","2740 WATERS EDGE DR, GRAND PRAIRIE, TX, 75054",618711819,"R"
148897,"2740 WYANDOT DRIVE","DOVER","OH",44622,40.5497291130001,-81.48598126,397,"2740 WYANDOT DRIVE, DOVER, OH, 44622","Match","Exact","2740 WYANDOT DR, DOVER, OH, 44622",44235612,"R"
148898,"27400 HAMMOCK VIEW CT","YALAHA","FL",34797,28.745459549,-81.832172166,398,"27400 HAMMOCK VIEW CT, YALAHA, FL, 34797","Match","Exact","27400 HAMMOCK VIEW CT, YALAHA, FL, 34797",94168551,"L"
148899,"27401 OAK ROAD","HENSLEY","AR",72065,34.4994693580001,-92.201417716,399,"27401 OAK ROAD, HENSLEY, AR, 72065","Match","Exact","27401 OAK RD, HENSLEY, AR, 72065",83556931,"R"
148900,"27406 BRAYDEN HILL TRAIL","KATY","TX",77494,29.746165736,-95.841228094,400,"27406 BRAYDEN HILL TRAIL, KATY, TX, 77494","Match","Exact","27406 BRAYDEN HILL TRL, KATY, TX, 77494",648705336,"R"
148901,"27408 CHURCH RD","BURLINGTON","WV",53105,NA,NA,401,"27408 CHURCH RD, BURLINGTON, WV, 53105","No_Match",NA,NA,NA,NA
148902,"27409 144TH AVE SE","KENT","WA",98042,47.3559970850001,-122.14953216,402,"27409 144TH AVE SE, KENT, WA, 98042","Match","Exact","27409 144TH AVE SE, KENT, WA, 98042",186654835,"L"
148903,"27409 ARLA ST","MORENO VALLEY","CA",92555,33.8946955010001,-117.184421868,403,"27409 ARLA ST, MORENO VALLEY, CA, 92555","Match","Non_Exact","27409 ARLA CT, MORENO VALLEY, CA, 92555",633951567,"L"
148904,"27409 ARLA STREET","MORENO VALLEY","CA",92555,33.8946955010001,-117.184421868,404,"27409 ARLA STREET, MORENO VALLEY, CA, 92555","Match","Non_Exact","27409 ARLA CT, MORENO VALLEY, CA, 92555",633951567,"L"
148905,"2741 12 MILE ROAD","BERKLEY","MI",48072,42.5031804770001,-83.186539602,405,"2741 12 MILE ROAD, BERKLEY, MI, 48072","Match","Exact","2741 12 MILE RD, BERKLEY, MI, 48072",69737818,"L"
148906,"2741 70TH AVENUE SE","MERCER ISLAND","WA",98040,47.586206352,-122.244808269,406,"2741 70TH AVENUE SE, MERCER ISLAND, WA, 98040","Match","Exact","2741 70TH AVE SE, MERCER ISLAND, WA, 98040",239764018,"R"
148907,"2741 ADAMS STREET","INDIANAPOLIS","IN",46218,39.806185966,-86.109632085,407,"2741 ADAMS STREET, INDIANAPOLIS, IN, 46218","Match","Exact","2741 ADAMS ST, INDIANAPOLIS, IN, 46218",107998753,"R"
148908,"2741 APRIL SPRINGS VIEW","CARMEL","IN",46074,39.9900101690001,-86.2091392629999,408,"2741 APRIL SPRINGS VIEW, CARMEL, IN, 46074","Match","Exact","2741 APRIL SPRINGS VW, CARMEL, IN, 46074",618464945,"L"
148909,"2741 BREVARD AVE","MONTGOMERY","AL",36109,32.389827564,-86.270373352,409,"2741 BREVARD AVE, MONTGOMERY, AL, 36109","Match","Exact","2741 BREVARD AVE, MONTGOMERY, AL, 36109",652578896,"L"
148910,"2741 CHICKORY HILL","SNELLVILLE","GA",30039,33.8296146260001,-84.043979443,410,"2741 CHICKORY HILL, SNELLVILLE, GA, 30039","Match","Exact","2741 CHICKORY HILL, SNELLVILLE, GA, 30039",88922030,"R"
148911,"2741 CHURCH ST","EAST POINT","GA",30344,33.680470332,-84.443371493,411,"2741 CHURCH ST, EAST POINT, GA, 30344","Match","Exact","2741 CHURCH ST, EAST POINT, GA, 30344",638966228,"R"
148912,"2741 FENTON AVENUE","BRONX","NY",10469,40.865789668,-73.844352595,412,"2741 FENTON AVENUE, BRONX, NY, 10469","Match","Exact","2741 FENTON AVE, BRONX, NY, 10469",80303865,"L"
148913,"2741 HAMNER AVE  212","NORCO","CA",92860,33.9216041390001,-117.559251939,413,"2741 HAMNER AVE  212, NORCO, CA, 92860","Match","Exact","2741 HAMNER AVE, NORCO, CA, 92860",639948512,"R"
148914,"2741 KATY CIRCLE","LINCOLN","NE",68506,40.7846860820001,-96.627819177,414,"2741 KATY CIRCLE, LINCOLN, NE, 68506","Match","Exact","2741 KATY CIR, LINCOLN, NE, 68506",28264993,"L"
148915,"2741 LAKE JODECO ROAD","JONESBORO","GA",30236,33.509388401,-84.30138406,415,"2741 LAKE JODECO ROAD, JONESBORO, GA, 30236","Match","Exact","2741 LAKE JODECO RD, JONESBORO, GA, 30236",640611735,"R"
148916,"2741 LEMON GROVE AVE 202","LEMON GROVE","CA",91945,32.7354539780001,-117.031389325,416,"2741 LEMON GROVE AVE 202, LEMON GROVE, CA, 91945","Match","Exact","2741 LEMON GROVE AVE, LEMON GROVE, CA, 91945",195359893,"R"
148917,"2741 MARSHALL TRAIL","ROUND ROCK","TX",78665,30.5530724400001,-97.61951828,417,"2741 MARSHALL TRAIL, ROUND ROCK, TX, 78665","Match","Exact","2741 MARSHALL TRL, ROUND ROCK, TX, 78665",641107525,"R"
148918,"2741 MAYFAIR AVENUE","CHARLOTTE","NC",28208,35.213733587,-80.90828141,418,"2741 MAYFAIR AVENUE, CHARLOTTE, NC, 28208","Match","Exact","2741 MAYFAIR AVE, CHARLOTTE, NC, 28208",70550009,"L"
148919,"2741 NC HWY 58 SOUTH","POLLOCKSVILLE","NC",28573,NA,NA,419,"2741 NC HWY 58 SOUTH, POLLOCKSVILLE, NC, 28573","No_Match",NA,NA,NA,NA
148920,"2741 NW 68TH AVENUE","GAINESVILLE","FL",32653,29.7170835380001,-82.3636351919999,420,"2741 NW 68TH AVENUE, GAINESVILLE, FL, 32653","Match","Exact","2741 NW 68 AVE, GAINESVILLE, FL, 32653",610879792,"L"
148921,"2741 OLD STAGE ROAD","YADKINVILLE","NC",27055,36.0997540490001,-80.60543718,421,"2741 OLD STAGE ROAD, YADKINVILLE, NC, 27055","Match","Exact","2741 OLD STAGE RD, YADKINVILLE, NC, 27055",84768635,"L"
148922,"2741 RYEWOOD AVE APT A","COPLEY","OH",44321,41.096001571,-81.616598841,422,"2741 RYEWOOD AVE APT A, COPLEY, OH, 44321","Match","Exact","2741 RYEWOOD AVE, COPLEY, OH, 44321",61374911,"L"
148923,"2741 SHEPHERDS GLEN","WITCHITA FALLS","TX",76308,33.849498161,-98.533426868,423,"2741 SHEPHERDS GLEN, WITCHITA FALLS, TX, 76308","Match","Non_Exact","2741 SHEPHERDS GLEN, WICHITA FALLS, TX, 76308",169858551,"R"
148924,"2741 SW 30TH AVENUE","MIAMI","FL",33133,25.7410231980001,-80.241963388,424,"2741 SW 30TH AVENUE, MIAMI, FL, 33133","Match","Non_Exact","2741 SW 30TH AVE, MIAMI, FL, 33133",116014665,"L"
148925,"2741 WEST FOND DU LAC AVENUE","MILWAUKEE","WI",53210,43.0679873500001,-87.948145025,425,"2741 WEST FOND DU LAC AVENUE, MILWAUKEE, WI, 53210","Match","Exact","2741 W FOND DU LAC AVE, MILWAUKEE, WI, 53210",77738342,"L"
148926,"2741 WINTER STREET","LOS ANGELES","CA",90033,34.048658403,-118.200691412,426,"2741 WINTER STREET, LOS ANGELES, CA, 90033","Match","Exact","2741 WINTER ST, LOS ANGELES, CA, 90033",141622882,"L"
148927,"27410 JUPITER LANDING COURT","SPRING","TX",77386,30.068539657,-95.3255294639999,427,"27410 JUPITER LANDING COURT, SPRING, TX, 77386","Match","Exact","27410 JUPITER LANDING CT, SPRING, TX, 77386",641130517,"R"
148928,"27412 S HILLOCKBURN RD","ESTACADA","OR",97023,45.214870826,-122.303269249,428,"27412 S HILLOCKBURN RD, ESTACADA, OR, 97023","Match","Exact","27412 S HILLOCKBURN RD, ESTACADA, OR, 97023",157904120,"R"
148929,"27414 N 60TH DRIVE","PHOENIX","AZ",85083,33.733599075,-112.189815001,429,"27414 N 60TH DRIVE, PHOENIX, AZ, 85083","Match","Exact","27414 N 60TH DR, PHOENIX, AZ, 85083",128863034,"L"
148930,"27414 N 66TH LN","PHOENIX","AZ",85083,33.734823115,-112.202086455,430,"27414 N 66TH LN, PHOENIX, AZ, 85083","Match","Exact","27414 N 66TH LN, PHOENIX, AZ, 85083",128862856,"L"
148931,"27415 281ST STREET SUITE A","HOLCOMBE","WI",54745,45.2416836090001,-91.107931503,431,"27415 281ST STREET SUITE A, HOLCOMBE, WI, 54745","Match","Exact","27415 281ST ST, HOLCOMBE, WI, 54745",632513912,"R"
148932,"27415 BLINKWOOD PARK","KATY","TX",77494,29.7540391810001,-95.845140457,432,"27415 BLINKWOOD PARK, KATY, TX, 77494","Match","Exact","27415 BLINKWOOD PARK, KATY, TX, 77494",641048100,"R"
148933,"2742 AVALON LOOP RD","CHARLOTTE","NC",28269,35.3051100230001,-80.798613129,433,"2742 AVALON LOOP RD, CHARLOTTE, NC, 28269","Match","Exact","2742 AVALON LOOP RD, CHARLOTTE, NC, 28269",70560480,"L"
148934,"2742 BLADES ROAD","BEAVERTON","MI",48612,43.872383439,-84.474330932,434,"2742 BLADES ROAD, BEAVERTON, MI, 48612","Match","Exact","2742 BLADES RD, BEAVERTON, MI, 48612",644921305,"R"
148935,"2742 CHILI AVE","ROCHESTER","NY",14624,43.1213739940001,-77.7122342449999,435,"2742 CHILI AVE, ROCHESTER, NY, 14624","Match","Exact","2742 CHILI AVE, ROCHESTER, NY, 14624",14530511,"R"
148936,"2742 EMBER PASS LANE","KATY","TX",77494,29.7452820440001,-95.8522127109999,436,"2742 EMBER PASS LANE, KATY, TX, 77494","Match","Exact","2742 EMBER PASS LN, KATY, TX, 77494",642953536,"L"
148937,"2742 GARRISON AVE","EVANSTON","IL",60201,42.067864668,-87.684170905,437,"2742 GARRISON AVE, EVANSTON, IL, 60201","Match","Exact","2742 GARRISON AVE, EVANSTON, IL, 60201",111743037,"L"
148938,"2742 LUKE DR","ELLENWOOD","GA",30294,33.598754947,-84.300855344,438,"2742 LUKE DR, ELLENWOOD, GA, 30294","Match","Exact","2742 LUKE DR, ELLENWOOD, GA, 30294",23336710,"L"
148939,"2742 MAIN STREET","RANGELEY","ME",4970,44.9667870100001,-70.653379999,439,"2742 MAIN STREET, RANGELEY, ME, 4970","Match","Exact","2742 MAIN ST, RANGELEY, ME, 04970",165303543,"L"
148940,"2742 SOUTH 160TH AVENUE","GOODYEAR","AZ",85338,33.4218835840001,-112.401898647,440,"2742 SOUTH 160TH AVENUE, GOODYEAR, AZ, 85338","Match","Exact","2742 S 160TH AVE, GOODYEAR, AZ, 85338",636113616,"R"
148941,"2742 SW 8 STREET SUITE 6","MIAMI","FL",33135,NA,NA,441,"2742 SW 8 STREET SUITE 6, MIAMI, FL, 33135","No_Match",NA,NA,NA,NA
148942,"2742 TAUNTON STREET","PHILADELPHIA","PA",19152,40.061860714,-75.030223911,442,"2742 TAUNTON STREET, PHILADELPHIA, PA, 19152","Match","Exact","2742 TAUNTON ST, PHILADELPHIA, PA, 19152",131441370,"R"
148943,"2742 WATERHAVEN DRIVE","CHATTANOOGA","TN",37406,35.0845780270001,-85.230716945,443,"2742 WATERHAVEN DRIVE, CHATTANOOGA, TN, 37406","Match","Exact","2742 WATERHAVEN DR, CHATTANOOGA, TN, 37406",635301055,"R"
148944,"27420 N 176TH STREET","RIO VERDE","AZ",85263,NA,NA,444,"27420 N 176TH STREET, RIO VERDE, AZ, 85263","No_Match",NA,NA,NA,NA
148945,"27420 SENECA TRAIL NORTH","RENICK","WV",24966,37.9953561670001,-80.3625224739999,445,"27420 SENECA TRAIL NORTH, RENICK, WV, 24966","Match","Exact","27420 SENECA TRL N, RENICK, WV, 24966",74759556,"R"
148946,"27421 BETANZOS","MISSION VIEJO","CA",92692,33.583581516,-117.653134823,446,"27421 BETANZOS, MISSION VIEJO, CA, 92692","Match","Exact","27421 BETANZOS, MISSION VIEJO, CA, 92692",144074192,"L"
148947,"27422 SILVER CREEK","SAN JUAN CAPISTRANO","CA",92675,33.528569884,-117.651754636,447,"27422 SILVER CREEK, SAN JUAN CAPISTRANO, CA, 92675","Match","Non_Exact","27422 SILVER CREEK DR, SAN JUAN CAPISTRANO, CA, 92675",144113794,"L"
148948,"27423 ERICKSON ROAD","EUGENE","OR",97402,43.9977690520001,-123.259113718,448,"27423 ERICKSON ROAD, EUGENE, OR, 97402","Match","Exact","27423 ERICKSON RD, EUGENE, OR, 97402",639219254,"R"
148949,"27426 CEDAR ROAD","HOT SPRINGS","SD",57747,43.4305123290001,-103.496829584,449,"27426 CEDAR ROAD, HOT SPRINGS, SD, 57747","Match","Exact","27426 CEDAR RD, HOT SPRINGS, SD, 57747",174180680,"R"
148950,"27428 PINYON STREET","MURIETTA","CA",92562,33.5909099740001,-117.181532916,450,"27428 PINYON STREET, MURIETTA, CA, 92562","Match","Non_Exact","27428 PINYON ST, MURRIETA, CA, 92562",608994473,"L"
148951,"2743 ARLINGTON AVE","BRONX","NY",10463,40.88043816,-73.915027633,451,"2743 ARLINGTON AVE, BRONX, NY, 10463","Match","Exact","2743 ARLINGTON AVE, BRONX, NY, 10463",80296101,"L"
148952,"2743 E COUNTY ROAD 725 S","PAOLI","IN",47454,38.4529594210001,-86.408026014,452,"2743 E COUNTY ROAD 725 S, PAOLI, IN, 47454","Match","Exact","2743 E CO RD 725 S, PAOLI, IN, 47454",32148555,"L"
148953,"2743 KAYNE AVE","MINDEN","NV",89423,39.03705359,-119.730931169,453,"2743 KAYNE AVE, MINDEN, NV, 89423","Match","Exact","2743 KAYNE AVE, MINDEN, NV, 89423",173754799,"R"
148954,"2743 MARL OAK DR","HIGHLAND PARK","IL",60035,42.2022615600001,-87.8235481039999,454,"2743 MARL OAK DR, HIGHLAND PARK, IL, 60035","Match","Exact","2743 MARL OAK DR, HIGHLAND PARK, IL, 60035",119678183,"R"
148955,"2743 N 20TH STREET","PHILADELPHIA","PA",19132,39.9958778590001,-75.163924487,455,"2743 N 20TH STREET, PHILADELPHIA, PA, 19132","Match","Exact","2743 N 20TH ST, PHILADELPHIA, PA, 19132",131402786,"R"
148956,"2743 NE 14TH ST","FORT LAUDERDALE","FL",33304,26.1452439190001,-80.110639393,456,"2743 NE 14TH ST, FORT LAUDERDALE, FL, 33304","Match","Exact","2743 NE 14TH ST, FORT LAUDERDALE, FL, 33304",114725838,"L"
148957,"2743 ROSEBAY LANE","BESSEMER","AL",35022,33.3032551370001,-86.9289336269999,457,"2743 ROSEBAY LANE, BESSEMER, AL, 35022","Match","Exact","2743 ROSEBAY LN, BESSEMER, AL, 35022",618048698,"R"
148958,"2743 SLOAN ST","FLINT","MI",48504,43.0243356550001,-83.7274755029999,458,"2743 SLOAN ST, FLINT, MI, 48504","Match","Exact","2743 SLOAN ST, FLINT, MI, 48504",69565051,"L"
148959,"2743 STUART DRIVE","FORT WORTH","TX",76104,32.712245189,-97.324261196,459,"2743 STUART DRIVE, FORT WORTH, TX, 76104","Match","Exact","2743 STUART DR, FORT WORTH, TX, 76104",101892034,"L"
148960,"2743 W 25TH AVE UNIT 1","DENVER","CO",80211,39.753617154,-105.021218439,460,"2743 W 25TH AVE UNIT 1, DENVER, CO, 80211","Match","Non_Exact","2743 W 25TH AVE, DENVER, CO, 80211",177301758,"R"
148961,"2743 WEST 70 ST","HIALEAH","FL",33016,25.886099485,-80.338592026,461,"2743 WEST 70 ST, HIALEAH, FL, 33016","Match","Exact","2743 W 70TH ST, HIALEAH, FL, 33016",116060534,"R"
148962,"2743","BANDERA","TX",78003,NA,NA,462,"2743, BANDERA, TX, 78003","No_Match",NA,NA,NA,NA
148963,"27430 ARLINGTON DR","SOUTHFIELD","MI",48076,42.490957683,-83.249103771,463,"27430 ARLINGTON DR, SOUTHFIELD, MI, 48076","Match","Exact","27430 ARLINGTON DR, SOUTHFIELD, MI, 48076",69738945,"R"
148964,"27430 ELDORADO PLACE","LATHRUP VILLAGE","MI",48076,42.4912365860001,-83.223335471,464,"27430 ELDORADO PLACE, LATHRUP VILLAGE, MI, 48076","Match","Exact","27430 ELDORADO PL, LATHRUP VILLAGE, MI, 48076",69739692,"R"
148965,"27430 SNOWBERRY CT","SANTA CLARITA","CA",91350,34.4335100480001,-118.497022322,465,"27430 SNOWBERRY CT, SANTA CLARITA, CA, 91350","Match","Exact","27430 SNOWBERRY CT, SANTA CLARITA, CA, 91350",648604201,"R"
148966,"27432 DORTCH AVE","BONITA SPRINGS","FL",34135,26.3395231050001,-81.773519769,466,"27432 DORTCH AVE, BONITA SPRINGS, FL, 34135","Match","Exact","27432 DORTCH AVE, BONITA SPGS, FL, 34135",118079233,"L"
148967,"27433 DAMERAU","NEW BRAUNFELS","TX",78132,29.7023673750001,-98.25628088,467,"27433 DAMERAU, NEW BRAUNFELS, TX, 78132","Match","Non_Exact","27433 DAMERAU LN, NEW BRAUNFELS, TX, 78132",651878821,"R"
148968,"27436 AVONDALE STE B","INKSTER","MI",48141,42.30444515,-83.311006677,468,"27436 AVONDALE STE B, INKSTER, MI, 48141","Match","Non_Exact","27436 AVONDALE ST, INKSTER, MI, 48141",95429829,"R"
148969,"2744 BRANTLEY DRIVE","APEX","NC",27539,35.651679904,-78.727612624,469,"2744 BRANTLEY DRIVE, APEX, NC, 27539","Match","Exact","2744 BRANTLEY DR, APEX, NC, 27539",72537209,"R"
148970,"2744 CANYON RIDGE DR","DALLAS","TX",75227,NA,NA,470,"2744 CANYON RIDGE DR, DALLAS, TX, 75227","No_Match",NA,NA,NA,NA
148971,"2744 CARAMBOLA CIR S","COCONUT CREEK","FL",33066,26.268272718,-80.175770093,471,"2744 CARAMBOLA CIR S, COCONUT CREEK, FL, 33066","Match","Exact","2744 CARAMBOLA CIR S, COCONUT CREEK, FL, 33066",648307429,"R"
148972,"2744 EAST 11TH STREET C1","OAKLAND","CA",94601,37.7782941200001,-122.233706165,472,"2744 EAST 11TH STREET C1, OAKLAND, CA, 94601","Match","Exact","2744 E 11TH ST, OAKLAND, CA, 94601",125006026,"L"
148973,"2744 LOWREY AVENUE","HONOLULU","HI",96822,21.312634202,-157.809917918,473,"2744 LOWREY AVENUE, HONOLULU, HI, 96822","Match","Exact","2744 LOWREY AVE, HONOLULU, HI, 96822",203237981,"L"
148974,"2744 MILLERS WAY DRIVE","ELLICOTT CITY","MD",21043,39.303970674,-76.809507809,474,"2744 MILLERS WAY DRIVE, ELLICOTT CITY, MD, 21043","Match","Exact","2744 MILLERS WAY DR, ELLICOTT CITY, MD, 21043",635795791,"R"
148975,"2744 N FRANCISCO AVE APT 1","CHICAGO","IL",60647,41.9314876880001,-87.700065369,475,"2744 N FRANCISCO AVE APT 1, CHICAGO, IL, 60647","Match","Non_Exact","2744 N FRANCISCO AVE, CHICAGO, IL, 60647",605207302,"L"
148976,"2744 PARKWAY COVE","LITHONIA","GA",30058,33.7151601950001,-84.119726713,476,"2744 PARKWAY COVE, LITHONIA, GA, 30058","Match","Exact","2744 PARKWAY COVE, LITHONIA, GA, 30058",619388594,"R"
148977,"2744 PYTHAGORAS CIRCLE","OCOEE","FL",34761,28.6086517300001,-81.5295364689999,477,"2744 PYTHAGORAS CIRCLE, OCOEE, FL, 34761","Match","Exact","2744 PYTHAGORAS CIR, OCOEE, FL, 34761",627201745,"R"
148978,"2744 RAINBOW FOREST DRIVE","DECATUR","GA",30034,33.7066171270001,-84.241022168,478,"2744 RAINBOW FOREST DRIVE, DECATUR, GA, 30034","Match","Exact","2744 RAINBOW FOREST DR, DECATUR, GA, 30034",23371223,"L"
148979,"2744 SPRING RAIN","MESQUITE","TX",75181,32.738243895,-96.539818695,479,"2744 SPRING RAIN, MESQUITE, TX, 75181","Match","Non_Exact","2744 SPRING RAIN DR, MESQUITE, TX, 75181",103166308,"L"
148980,"2744 SW ONAWAY AVE","PORT ST LUCIE","FL",34987,27.2861923730001,-80.430815245,480,"2744 SW ONAWAY AVE, PORT ST LUCIE, FL, 34987","Match","Exact","2744 ONAWAY AVE, PORT ST LUCIE, FL, 34987",120180375,"L"
148981,"2744 YORKMONT ROAD","CHARLOTTE","NC",28208,35.1897736540001,-80.92683068,481,"2744 YORKMONT ROAD, CHARLOTTE, NC, 28208","Match","Exact","2744 YORKMONT RD, CHARLOTTE, NC, 28208",70557488,"R"
148982,"2744","WARMINSTER","PA",18974,NA,NA,482,"2744, WARMINSTER, PA, 18974","No_Match",NA,NA,NA,NA
148983,"27440 KUYKENDAHL RD","TOMBALL","TX",77375,NA,NA,483,"27440 KUYKENDAHL RD, TOMBALL, TX, 77375","No_Match",NA,NA,NA,NA
148984,"27441 NC-125","SCOTLAND NECK","NC",27874,NA,NA,484,"27441 NC-125, SCOTLAND NECK, NC, 27874","No_Match",NA,NA,NA,NA
148985,"27445 BIG SRPINGS RANCH RD","HEMET","CA",92544,NA,NA,485,"27445 BIG SRPINGS RANCH RD, HEMET, CA, 92544","No_Match",NA,NA,NA,NA
148986,"27447 SANDTOWN ROAD","GOLDSBORO","MD",21636,39.0289954180001,-75.7483102369999,486,"27447 SANDTOWN ROAD, GOLDSBORO, MD, 21636","Match","Exact","27447 SANDTOWN RD, GOLDSBORO, MD, 21636",68309643,"L"
148987,"27447 VALLE BLUFF","BOERNE","TX",78015,29.707640762,-98.631071155,487,"27447 VALLE BLUFF, BOERNE, TX, 78015","Match","Exact","27447 VALLE BLUFF, BOERNE, TX, 78015",642213875,"R"
148988,"27448 212TH PL SE","MAPLE VALLEY","WA",98038,47.3556602400001,-122.058048956,488,"27448 212TH PL SE, MAPLE VALLEY, WA, 98038","Match","Exact","27448 212 PL SE, MAPLE VALLEY, WA, 98038",632537589,"L"
148989,"2745 58TH AVENUE SOUTH UNIT 257","SAINT PETERSBURG","FL",33712,27.715614858,-82.670034071,489,"2745 58TH AVENUE SOUTH UNIT 257, SAINT PETERSBURG, FL, 33712","Match","Exact","2745 58TH AVE S, SAINT PETERSBURG, FL, 33712",124760265,"R"
148990,"2745 8TH AVENUE APT 4D","NEW YORK","NY",10039,40.8236566040001,-73.9413252369999,490,"2745 8TH AVENUE APT 4D, NEW YORK, NY, 10039","Match","Exact","2745 8TH AVE, NEW YORK, NY, 10039",59656304,"L"
148991,"2745 ANDERSON FERRY ROAD SUITE 3","CINCINNATI","OH",45238,39.1355497370001,-84.614105576,491,"2745 ANDERSON FERRY ROAD SUITE 3, CINCINNATI, OH, 45238","Match","Exact","2745 ANDERSON FERRY RD, CINCINNATI, OH, 45238",103917325,"L"
148992,"2745 ARBOR AVENUE","CINCINNATI","OH",45209,39.1476164090001,-84.441304289,492,"2745 ARBOR AVENUE, CINCINNATI, OH, 45209","Match","Exact","2745 ARBOR AVE, CINCINNATI, OH, 45209",103930780,"R"
148993,"2745 BIRCHCREST DR APT 708","GRAND RAPIDS","MI",49506,42.913692514,-85.613718591,493,"2745 BIRCHCREST DR APT 708, GRAND RAPIDS, MI, 49506","Match","Non_Exact","2745 BIRCHCREST DR SE, GRAND RAPIDS, MI, 49506",653387589,"R"
148994,"2745 BORCHCREST DRIVE 706","GRAND RAPIDS","MI",49506,NA,NA,494,"2745 BORCHCREST DRIVE 706, GRAND RAPIDS, MI, 49506","No_Match",NA,NA,NA,NA
148995,"2745 CANOE CREEK ROAD","SAINT CLOUD","FL",34772,NA,NA,495,"2745 CANOE CREEK ROAD, SAINT CLOUD, FL, 34772","Tie",NA,NA,NA,NA
148996,"2745 CRESSET DRIVE","WINTERVILLE","NC",28590,35.521315906,-77.395296157,496,"2745 CRESSET DRIVE, WINTERVILLE, NC, 28590","Match","Exact","2745 CRESSET DR, WINTERVILLE, NC, 28590",633907591,"L"
148997,"2745 DAHLONEGA TRAIL","AUSTELL","GA",30106,33.8436330650001,-84.637557569,497,"2745 DAHLONEGA TRAIL, AUSTELL, GA, 30106","Match","Exact","2745 DAHLONEGA TRL, AUSTELL, GA, 30106",17247623,"R"
148998,"2745 DOUGLAS AVENUE","DES MOINES","IA",50310,41.629180805,-93.656511049,498,"2745 DOUGLAS AVENUE, DES MOINES, IA, 50310","Match","Exact","2745 DOUGLAS AVE, DES MOINES, IA, 50310",638754372,"R"
148999,"2745 E 31 STREET","BROWNSVILLE","TX",78520,25.899388609,-97.462338898,499,"2745 E 31 STREET, BROWNSVILLE, TX, 78520","Match","Non_Exact","2745 E 31ST ST, BROWNSVILLE, TX, 78521",89968239,"L"
149000,"2745 FIRST STREET APARTMENT 606","FORT MYERS","FL",33916,26.650841757,-81.858214652,500,"2745 FIRST STREET APARTMENT 606, FORT MYERS, FL, 33916","Match","Exact","2745 1ST ST, FORT MYERS, FL, 33916",118102505,"L"
