"ID","Address","City","State","Zip","lat","long","id","input_address","match_indicator","match_type","matched_address","tiger_line_id","tiger_side"
310001,"903 E 3RD ST","PECOS","TX",79772,31.4282938330001,-103.487336169,1,"903 E 3RD ST, PECOS, TX, 79772","Match","Exact","903 E 3RD ST, PECOS, TX, 79772",132659670,"L"
310002,"903 E 3RD ST","SAN BERNARDINO","CA",92410,NA,NA,2,"903 E 3RD ST, SAN BERNARDINO, CA, 92410","Tie",NA,NA,NA,NA
310003,"903 E BROADWAY","GOLDENDALE","WA",98620,45.8242027640001,-120.808602267,3,"903 E BROADWAY, GOLDENDALE, WA, 98620","Match","Non_Exact","903 E BROADWAY ST, GOLDENDALE, WA, 98620",175658459,"L"
310004,"903 E CENTRAL","ANDOVER","KS",67002,NA,NA,4,"903 E CENTRAL, ANDOVER, KS, 67002","No_Match",NA,NA,NA,NA
310005,"903 E CHURCH ST","SALISBURY","MD",21804,38.3724370190001,-75.5839673409999,5,"903 E CHURCH ST, SALISBURY, MD, 21804","Match","Exact","903 E CHURCH ST, SALISBURY, MD, 21804",114452040,"L"
310006,"903 E CONSTITUTION DRIVE","CHANDLER","AZ",85225,33.3223065880001,-111.826336688,6,"903 E CONSTITUTION DRIVE, CHANDLER, AZ, 85225","Match","Exact","903 E CONSTITUTION DR, CHANDLER, AZ, 85225",128782348,"R"
310007,"903 E HISTORIC COLUMBIA RIVER HWY","TROUTDALE","OR",97060,45.5370625350001,-122.38058263,7,"903 E HISTORIC COLUMBIA RIVER HWY, TROUTDALE, OR, 97060","Match","Exact","903 E HISTORIC COLUMBIA RIVER HWY, TROUTDALE, OR, 97060",157530066,"L"
310008,"903 E MAIN ST","MARSHALLTOWN","IA",50158,42.0492144340001,-92.897414684,8,"903 E MAIN ST, MARSHALLTOWN, IA, 50158","Match","Exact","903 E MAIN ST, MARSHALLTOWN, IA, 50158",90920724,"L"
310009,"903 E MONARCH ST","EAGLE","ID",83616,NA,NA,9,"903 E MONARCH ST, EAGLE, ID, 83616","Tie",NA,NA,NA,NA
310010,"903 E ROUTE 66 STE D","GLENDORA","CA",91740,NA,NA,10,"903 E ROUTE 66 STE D, GLENDORA, CA, 91740","No_Match",NA,NA,NA,NA
310011,"903 E ROUTE 66 SUITE D","GLENDORA","CA",91740,NA,NA,11,"903 E ROUTE 66 SUITE D, GLENDORA, CA, 91740","No_Match",NA,NA,NA,NA
310012,"903 E WESTCREST RD","COLBERT","WA",99005,47.817749807,-117.395293833,12,"903 E WESTCREST RD, COLBERT, WA, 99005","Match","Exact","903 E WESTCREST RD, COLBERT, WA, 99005",605686693,"L"
310013,"903 EARLY STREET","SANTA FE","NM",87505,35.6767429160001,-105.952289412,13,"903 EARLY STREET, SANTA FE, NM, 87505","Match","Exact","903 EARLY ST, SANTA FE, NM, 87505",169378601,"L"
310014,"903 EAST 37TH STREET","BROOKLYN","NY",11210,40.6346618960001,-73.941057117,14,"903 EAST 37TH STREET, BROOKLYN, NY, 11210","Match","Exact","903 E 37TH ST, BROOKLYN, NY, 11210",59081995,"L"
310015,"903 EAST CAUSEWAY BLVD","VERO BEACH","FL",32963,27.6322332,-80.356164714,15,"903 EAST CAUSEWAY BLVD, VERO BEACH, FL, 32963","Match","Exact","903 E CAUSEWAY BLVD, VERO BEACH, FL, 32963",120334382,"R"
310016,"903 EMERALD DOVE AVE","COLLEGE STATION","TX",77845,30.5711232360001,-96.28781543,16,"903 EMERALD DOVE AVE, COLLEGE STATION, TX, 77845","Match","Exact","903 EMERALD DOVE AVE, COLLEGE STATION, TX, 77845",640711403,"L"
310017,"903 FENCE LINE RD  425","ARLINGTON","TX",76001,32.645317285,-97.126218965,17,"903 FENCE LINE RD  425, ARLINGTON, TX, 76001","Match","Exact","903 FENCE LINE RD, ARLINGTON, TX, 76001",619831993,"L"
310018,"903 FENCE LINE RD APT 433","ARLINGTON","TX",76001,32.645317285,-97.126218965,18,"903 FENCE LINE RD APT 433, ARLINGTON, TX, 76001","Match","Exact","903 FENCE LINE RD, ARLINGTON, TX, 76001",619831993,"L"
310019,"903 FLEETWOOD DR  UNIT A","TUSCOLA","IL",61953,39.806922419,-88.276573899,19,"903 FLEETWOOD DR  UNIT A, TUSCOLA, IL, 61953","Match","Exact","903 FLEETWOOD DR, TUSCOLA, IL, 61953",5744599,"L"
310020,"903 FOX CREEK DR UNTI 2","WATERTOWN","WI",53098,43.209801859,-88.736517281,20,"903 FOX CREEK DR UNTI 2, WATERTOWN, WI, 53098","Match","Exact","903 FOX CREEK DR, WATERTOWN, WI, 53098",53548564,"R"
310021,"903 FRANKLIN AVENUE","BROOKLYN","NY",11225,40.6679213300001,-73.9589527369999,21,"903 FRANKLIN AVENUE, BROOKLYN, NY, 11225","Match","Exact","903 FRANKLIN AVE, BROOKLYN, NY, 11225",59078501,"L"
310022,"903 GARDEN STREET","BRISTOL","PA",19007,40.1054347030001,-74.854420711,22,"903 GARDEN STREET, BRISTOL, PA, 19007","Match","Exact","903 GARDEN ST, BRISTOL, PA, 19007",134717834,"L"
310023,"903 GEORGETOWN ST","MARION","SC",29571,34.1687632840001,-79.3917456,23,"903 GEORGETOWN ST, MARION, SC, 29571","Match","Exact","903 GEORGETOWN ST, MARION, SC, 29571",28773477,"R"
310024,"903 GLENDALE ROAD","GLENVIEW","IL",60025,42.071271192,-87.836819852,24,"903 GLENDALE ROAD, GLENVIEW, IL, 60025","Match","Exact","903 GLENDALE RD, GLENVIEW, IL, 60025",647557494,"L"
310025,"903 GRANDON AVENUE","COLUMBUS","OH",43209,39.9512886690001,-82.926718546,25,"903 GRANDON AVENUE, COLUMBUS, OH, 43209","Match","Exact","903 GRANDON AVE, COLUMBUS, OH, 43209",135591111,"R"
310026,"903 HARDAGE LANE","COLLEYVILLE","TX",76034,32.898930486,-97.154233934,26,"903 HARDAGE LANE, COLLEYVILLE, TX, 76034","Match","Exact","903 HARDAGE LN, COLLEYVILLE, TX, 76034",102090468,"L"
310027,"903 HAYNES DRIVE","MURFREESBORO","TN",37129,35.892241606,-86.399648456,27,"903 HAYNES DRIVE, MURFREESBORO, TN, 37129","Match","Exact","903 HAYNES DR, MURFREESBORO, TN, 37129",606764166,"L"
310028,"903 HAYS MILL RD APT 1309","CARROLLTON","GA",30117,33.55692587,-85.0918027,28,"903 HAYS MILL RD APT 1309, CARROLLTON, GA, 30117","Match","Exact","903 HAYS MILL RD, CARROLLTON, GA, 30117",17132406,"L"
310029,"903 HOOVER DRIVE","NORTH BRUNSWICK","NJ",8902,40.4557422570001,-74.449732234,29,"903 HOOVER DRIVE, NORTH BRUNSWICK, NJ, 8902","Match","Exact","903 HOOVER DR, N BRUNSWICK, NJ, 08902",60359675,"R"
310030,"903 HOPETOWN ROAD","CHILLICOTHE","OH",45601,NA,NA,30,"903 HOPETOWN ROAD, CHILLICOTHE, OH, 45601","No_Match",NA,NA,NA,NA
310031,"903 HUEY STREET","WILDWOOD","FL",34785,28.858158014,-82.030504505,31,"903 HUEY STREET, WILDWOOD, FL, 34785","Match","Exact","903 HUEY ST, WILDWOOD, FL, 34785",612188842,"R"
310032,"903 HUFF RD NW UNIT 4113","ATLANTA","GA",30318,33.7887014140001,-84.4176385599999,32,"903 HUFF RD NW UNIT 4113, ATLANTA, GA, 30318","Match","Exact","903 HUFF RD NW, ATLANTA, GA, 30318",17341843,"R"
310033,"903 HUFF RD NW","ATLANTA","GA",30324,33.7887014140001,-84.4176385599999,33,"903 HUFF RD NW, ATLANTA, GA, 30324","Match","Non_Exact","903 HUFF RD NW, ATLANTA, GA, 30318",17341843,"R"
310034,"903 JOSHUA ST","GREAT FALLS","MT",59405,47.5145676020001,-111.208719641,34,"903 JOSHUA ST, GREAT FALLS, MT, 59405","Match","Exact","903 JOSHUA ST, GREAT FALLS, MT, 59405",202223931,"R"
310035,"903 KEENELAND RD","FLORISSANT","MO",63034,38.8370339470001,-90.30595232,35,"903 KEENELAND RD, FLORISSANT, MO, 63034","Match","Exact","903 KEENELAND RD, FLORISSANT, MO, 63034",635921438,"L"
310036,"903 KING AVE","RAINIER","OR",97948,NA,NA,36,"903 KING AVE, RAINIER, OR, 97948","No_Match",NA,NA,NA,NA
310037,"903 LAKE LILY DRIVE APT A313","MAITLAND","FL",32751,28.620398433,-81.365558876,37,"903 LAKE LILY DRIVE APT A313, MAITLAND, FL, 32751","Match","Exact","903 LAKE LILY DR, MAITLAND, FL, 32751",645601205,"R"
310038,"903 LOGWOOD ROAD","CAPITAL HEIGHTS","MD",20743,38.8783372780001,-76.87588872,38,"903 LOGWOOD ROAD, CAPITAL HEIGHTS, MD, 20743","Match","Non_Exact","903 LOGWOOD RD, CAPITOL HGTS, MD, 20743",76318272,"R"
310039,"903 MANISTIQUE","DETROIT","MI",48215,42.3727502,-82.940206371,39,"903 MANISTIQUE, DETROIT, MI, 48215","Match","Non_Exact","903 MANISTIQUE ST, DETROIT, MI, 48215",95489040,"L"
310040,"903 MANNING ROAD","NEW BERN","NC",28562,35.1139218050001,-77.082081348,40,"903 MANNING ROAD, NEW BERN, NC, 28562","Match","Exact","903 MANNING RD, NEW BERN, NC, 28562",34126748,"L"
310041,"903 N 2ND ST","KILLEEN","TX",76541,31.1260123340001,-97.728510801,41,"903 N 2ND ST, KILLEEN, TX, 76541","Match","Exact","903 N 2ND ST, KILLEEN, TX, 76541",146139848,"L"
310042,"903 N CENTRAL AVE STE A","UPLAND","CA",91786,NA,NA,42,"903 N CENTRAL AVE STE A, UPLAND, CA, 91786","No_Match",NA,NA,NA,NA
310043,"903 N ELM ST","DENTON","TX",76201,33.2220898730001,-97.133595199,43,"903 N ELM ST, DENTON, TX, 76201","Match","Exact","903 N ELM ST, DENTON, TX, 76201",103338885,"L"
310044,"903 N NORTHWOOD AVE","COMPTON","CA",90220,33.9019069820001,-118.245713495,44,"903 N NORTHWOOD AVE, COMPTON, CA, 90220","Match","Exact","903 N NORTHWOOD AVE, COMPTON, CA, 90220",141674841,"L"
310045,"903 NANCY LANE","PLEASANTON","TX",78064,28.9507244710001,-98.5030025299999,45,"903 NANCY LANE, PLEASANTON, TX, 78064","Match","Exact","903 NANCY LN, PLEASANTON, TX, 78064",24474626,"L"
310046,"903 NATIVE RYE WAY","LEXINGTON","SC",29073,NA,NA,46,"903 NATIVE RYE WAY, LEXINGTON, SC, 29073","No_Match",NA,NA,NA,NA
310047,"903 NEW CASTLE","MIDLOTHIAN","TX",76065,NA,NA,47,"903 NEW CASTLE, MIDLOTHIAN, TX, 76065","No_Match",NA,NA,NA,NA
310048,"903 NORTH SECOND STREET  - SUITE B","EDWARDSVILLE","IL",62025,38.8168986540001,-89.963151276,48,"903 NORTH SECOND STREET  - SUITE B, EDWARDSVILLE, IL, 62025","Match","Exact","903 N 2ND ST, EDWARDSVILLE, IL, 62025",107689669,"L"
310049,"903 NORTH SECOND STREET - SUITE B","EDWARDSVILLE","IL",62025,38.8168986540001,-89.963151276,49,"903 NORTH SECOND STREET - SUITE B, EDWARDSVILLE, IL, 62025","Match","Exact","903 N 2ND ST, EDWARDSVILLE, IL, 62025",107689669,"L"
310050,"903 NW 122ND TERRACE","NEWBERRY","FL",32669,29.6612093420001,-82.473253171,50,"903 NW 122ND TERRACE, NEWBERRY, FL, 32669","Match","Exact","903 NW 122ND TER, NEWBERRY, FL, 32669",6817190,"R"
310051,"903 NW 8TH AVE","GAINESVILLE","FL",32601,29.6594231550001,-82.334094345,51,"903 NW 8TH AVE, GAINESVILLE, FL, 32601","Match","Exact","903 NW 8TH AVE, GAINESVILLE, FL, 32601",6806467,"L"
310052,"903 NW 97 AVENUE APT 107","DORAL","FL",33172,NA,NA,52,"903 NW 97 AVENUE APT 107, DORAL, FL, 33172","No_Match",NA,NA,NA,NA
310053,"903 PACIFIC AVENUE","SANTA CRUZ","CA",95060,36.9703028120001,-122.025086434,53,"903 PACIFIC AVENUE, SANTA CRUZ, CA, 95060","Match","Exact","903 PACIFIC AVE, SANTA CRUZ, CA, 95060",125506194,"L"
310054,"903 PALMER RD","COLUMBUS","OH",43212,39.976850235,-83.037110021,54,"903 PALMER RD, COLUMBUS, OH, 43212","Match","Exact","903 PALMER RD, COLUMBUS, OH, 43212",218689425,"L"
310055,"903 PARK RIDGE RD APT A9","DURHAM","NC",27713,35.9181919540001,-78.947981059,55,"903 PARK RIDGE RD APT A9, DURHAM, NC, 27713","Match","Exact","903 PARK RIDGE RD, DURHAM, NC, 27713",71768364,"R"
310056,"903 PARK TERRACE","LAKEWOOD","NJ",8701,40.1017507650001,-74.199947745,56,"903 PARK TERRACE, LAKEWOOD, NJ, 8701","Match","Exact","903 PARK TER, LAKEWOOD, NJ, 08701",203837864,"R"
310057,"903 PARROTT AVE","KINSTON","NC",28501,35.2826454130001,-77.591803377,57,"903 PARROTT AVE, KINSTON, NC, 28501","Match","Exact","903 PARROTT AVE, KINSTON, NC, 28501",13875337,"R"
310058,"903 PARTRIDGE DRIVE","REDDING","CA",96003,40.594554444,-122.34830397,58,"903 PARTRIDGE DRIVE, REDDING, CA, 96003","Match","Exact","903 PARTRIDGE DR, REDDING, CA, 96003",126660738,"L"
310059,"903 PINE STREET APT 20","SAN FRANCISCO","CA",94108,37.790871587,-122.410681573,59,"903 PINE STREET APT 20, SAN FRANCISCO, CA, 94108","Match","Exact","903 PINE ST, SAN FRANCISCO, CA, 94108",192280931,"L"
310060,"903 PROVIDENCE PL UNIT 234","PROVIDENCE","RI",2903,NA,NA,60,"903 PROVIDENCE PL UNIT 234, PROVIDENCE, RI, 2903","No_Match",NA,NA,NA,NA
310061,"903 REED AVE","AKRON","OH",44306,41.0429350380001,-81.494621679,61,"903 REED AVE, AKRON, OH, 44306","Match","Exact","903 REED AVE, AKRON, OH, 44306",61353646,"L"
310062,"903 RIGGINS STREET","PARIS","TN",38242,36.292294251,-88.338758274,62,"903 RIGGINS STREET, PARIS, TN, 38242","Match","Exact","903 RIGGINS ST, PARIS, TN, 38242",19672453,"R"
310063,"903 ROCKING SPUR CV","PFLUGERVILLE","TX",78660,30.4339237410001,-97.6345484239999,63,"903 ROCKING SPUR CV, PFLUGERVILLE, TX, 78660","Match","Exact","903 ROCKING SPUR COVE, PFLUGERVILLE, TX, 78660",63995949,"L"
310064,"903 ROSS ST","HEFLIN","AL",36264,33.6492758750001,-85.587341435,64,"903 ROSS ST, HEFLIN, AL, 36264","Match","Exact","903 ROSS ST, HEFLIN, AL, 36264",30360603,"L"
310065,"903 S ASHLAND AVE UNIT 1108","CHICAGO","IL",60607,41.870409829,-87.666396994,65,"903 S ASHLAND AVE UNIT 1108, CHICAGO, IL, 60607","Match","Non_Exact","903 S ASHLAND AVE, CHICAGO, IL, 60607",633597293,"R"
310066,"903 S FIRST ST APT 307","CHAMPAIGN","IL",61820,40.1077736980001,-88.238674498,66,"903 S FIRST ST APT 307, CHAMPAIGN, IL, 61820","Match","Non_Exact","903 S 1ST ST, CHAMPAIGN, IL, 61820",8811959,"R"
310067,"903 SHELBY SPRINGS","SPRING HILL","TN",37174,35.7269096250001,-86.9354093919999,67,"903 SHELBY SPRINGS, SPRING HILL, TN, 37174","Match","Exact","903 SHELBY SPRINGS, SPRING HILL, TN, 37174",651599224,"R"
310068,"903 SOUTH HILL STREET  APT G4","GRIFFIN","GA",30224,33.2340903520001,-84.264551383,68,"903 SOUTH HILL STREET  APT G4, GRIFFIN, GA, 30224","Match","Exact","903 S HILL ST, GRIFFIN, GA, 30224",23761461,"L"
310069,"903 STODDARD CT","MONTICELLO","IL",61856,40.0319643290001,-88.5646432729999,69,"903 STODDARD CT, MONTICELLO, IL, 61856","Match","Exact","903 STODDARD CT, MONTICELLO, IL, 61856",8553013,"L"
310070,"903 SUMMIT DRIVE","ROCK SPRINGS","WY",82901,41.6001309740001,-109.271964682,70,"903 SUMMIT DRIVE, ROCK SPRINGS, WY, 82901","Match","Exact","903 SUMMIT DR, ROCK SPRINGS, WY, 82901",642889040,"L"
310071,"903 TENTH AVE","REDWOOD CITY","CA",94063,37.4800129720001,-122.193897974,71,"903 TENTH AVE, REDWOOD CITY, CA, 94063","Match","Exact","903 10TH AVE, REDWOOD CITY, CA, 94063",192361784,"L"
310072,"903 THISTLE GREEN LANE","DUNCANVILLE","TX",75137,32.633576045,-96.926917074,72,"903 THISTLE GREEN LANE, DUNCANVILLE, TX, 75137","Match","Exact","903 THISTLE GREEN LN, DUNCANVILLE, TX, 75137",102942120,"R"
310073,"903 TREBBIANO CT","DANVILLE","CA",94506,37.7934905880001,-121.892032129,73,"903 TREBBIANO CT, DANVILLE, CA, 94506","Match","Exact","903 TREBBIANO CT, DANVILLE, CA, 94506",624638144,"L"
310074,"903 TRELLIS GATE COURT","COLLEGE STATION","TX",77845,30.561286771,-96.287140275,74,"903 TRELLIS GATE COURT, COLLEGE STATION, TX, 77845","Match","Exact","903 TRELLIS GATE CT, COLLEGE STATION, TX, 77845",617264645,"R"
310075,"903 UNION STREET WEST","JACKSONVILLE","FL",32204,NA,NA,75,"903 UNION STREET WEST, JACKSONVILLE, FL, 32204","No_Match",NA,NA,NA,NA
310076,"903 VAIL STREET","NEW BERN","NC",28560,35.0856028040001,-77.029827771,76,"903 VAIL STREET, NEW BERN, NC, 28560","Match","Exact","903 VAIL ST, NEW BERN, NC, 28560",34142826,"L"
310077,"903 VALLEY ST","ENOLA","PA",17025,40.3018249340001,-76.94750421,77,"903 VALLEY ST, ENOLA, PA, 17025","Match","Exact","903 VALLEY ST, ENOLA, PA, 17025",60953199,"R"
310078,"903 W 18TH ST N","WICHITA","KS",67203,37.7170698830001,-97.349439825,78,"903 W 18TH ST N, WICHITA, KS, 67203","Match","Exact","903 W 18TH ST N, WICHITA, KS, 67203",115634195,"L"
310079,"903 W 30TH ST","HOUSTON","TX",77018,29.8137560550001,-95.4150988229999,79,"903 W 30TH ST, HOUSTON, TX, 77018","Match","Exact","903 W 30TH ST, HOUSTON, TX, 77018",96054536,"L"
310080,"903 W 4TH STREET","PANAMA CITY","FL",32401,30.155146528,-85.648068152,80,"903 W 4TH STREET, PANAMA CITY, FL, 32401","Match","Non_Exact","903 E 4TH ST, PANAMA CITY, FL, 32401",7030850,"L"
310081,"903 W 9TH STREET","OXFORD","AL",36203,33.6032706180001,-85.857565392,81,"903 W 9TH STREET, OXFORD, AL, 36203","Match","Exact","903 W 9TH ST, OXFORD, AL, 36203",66556698,"L"
310082,"903 W LUSHER AVE","ELKHART","IN",46517,41.6668467690001,-85.980454658,82,"903 W LUSHER AVE, ELKHART, IN, 46517","Match","Exact","903 W LUSHER AVE, ELKHART, IN, 46517",604674692,"L"
310083,"903 W NORTH STREET","PONTIAC","IL",61764,40.8836452210001,-88.6399112669999,83,"903 W NORTH STREET, PONTIAC, IL, 61764","Match","Exact","903 W NORTH ST, PONTIAC, IL, 61764",22390771,"R"
310084,"903 W PARK BLVD","TAYLORVILLE","IL",62568,39.5522635470001,-89.305312529,84,"903 W PARK BLVD, TAYLORVILLE, IL, 62568","Match","Exact","903 W PARK BLVD, TAYLORVILLE, IL, 62568",99308450,"R"
310085,"903 W WRIGHTWOOD AVENUE APT 1F","CHICAGO","IL",60614,41.9290409180001,-87.651486813,85,"903 W WRIGHTWOOD AVENUE APT 1F, CHICAGO, IL, 60614","Match","Non_Exact","903 W WRIGHTWOOD AVE, CHICAGO, IL, 60614",111766994,"L"
310086,"903 WELLER AVE","LAPORTE","IN",46350,41.6121485640001,-86.7376208859999,86,"903 WELLER AVE, LAPORTE, IN, 46350","Match","Exact","903 WELLER AVE, LAPORTE, IN, 46350",15407021,"L"
310087,"903 WEST 70TH PLACE","MERRILLVILLE","IN",46410,41.492075723,-87.3488252609999,87,"903 WEST 70TH PLACE, MERRILLVILLE, IN, 46410","Match","Exact","903 W 70TH PL, MERRILLVILLE, IN, 46410",98431505,"L"
310088,"903 WEST UNION STREET","JACKSONVILLE","FL",32203,30.3346598150001,-81.66742742,88,"903 WEST UNION STREET, JACKSONVILLE, FL, 32203","Match","Non_Exact","903 W UNION ST, JACKSONVILLE, FL, 32204",83897052,"R"
310089,"903 WINHALL WAY","SILVER SPRING","MD",20904,39.0628126070001,-76.992208927,89,"903 WINHALL WAY, SILVER SPRING, MD, 20904","Match","Exact","903 WINHALL WAY, SILVER SPRING, MD, 20904",62073258,"R"
310090,"903 WINTERS COURT","BEL  AIR","MD",21014,39.5391331480001,-76.373633005,90,"903 WINTERS COURT, BEL  AIR, MD, 21014","Match","Exact","903 WINTERS CT, BEL AIR, MD, 21014",191654873,"L"
310091,"9030 E 26TH CT","TULSA","OK",74129,36.1246174670001,-95.874893602,91,"9030 E 26TH CT, TULSA, OK, 74129","Match","Exact","9030 E 26TH CT, TULSA, OK, 74129",166467398,"R"
310092,"9030 FLETCHER PARK CIR S","CORDOVA","TN",38016,35.19998529,-89.7616300989999,92,"9030 FLETCHER PARK CIR S, CORDOVA, TN, 38016","Match","Exact","9030 FLETCHER PARK CIR S, CORDOVA, TN, 38016",72965153,"L"
310093,"9030 HIGH DRIVE","LEAWOOD","KS",66206,38.9649980120001,-94.610850935,93,"9030 HIGH DRIVE, LEAWOOD, KS, 66206","Match","Exact","9030 HIGH DR, LEAWOOD, KS, 66206",91286818,"R"
310094,"9030 LORTON STATION BLVD APT 462","LORTON","VA",22079,38.7135121900001,-77.214476447,94,"9030 LORTON STATION BLVD APT 462, LORTON, VA, 22079","Match","Exact","9030 LORTON STATION BLVD, LORTON, VA, 22079",624702713,"R"
310095,"9030 MILLER ROAD","PARKER","CO",80138,39.518600507,-104.718093633,95,"9030 MILLER ROAD, PARKER, CO, 80138","Match","Exact","9030 MILLER RD, PARKER, CO, 80138",637538662,"R"
310096,"9030 N FIELDING ROAD","BAYSIDE","WI",53217,43.1805054550001,-87.8965256229999,96,"9030 N FIELDING ROAD, BAYSIDE, WI, 53217","Match","Exact","9030 N FIELDING RD, BAYSIDE, WI, 53217",77736726,"R"
310097,"9030 NORTH FREEWAY  SUITE 104C","HOUSTON","TX",77037,NA,NA,97,"9030 NORTH FREEWAY  SUITE 104C, HOUSTON, TX, 77037","No_Match",NA,NA,NA,NA
310098,"9030 NORTH FREEWAY SUITE 104C","HOUSTON","TX",77037,NA,NA,98,"9030 NORTH FREEWAY SUITE 104C, HOUSTON, TX, 77037","No_Match",NA,NA,NA,NA
310099,"9030 NORTH FREEWAY SUITE 104D","HOUSTON","TX",77037,NA,NA,99,"9030 NORTH FREEWAY SUITE 104D, HOUSTON, TX, 77037","No_Match",NA,NA,NA,NA
310100,"9030 NW 165 STREET","MIAMI LAKES","FM",33018,NA,NA,100,"9030 NW 165 STREET, MIAMI LAKES, FM, 33018","No_Match",NA,NA,NA,NA
310101,"9030 RANCHO HILLS DRIVE","GILROY","CA",95020,37.0232427980001,-121.609760476,101,"9030 RANCHO HILLS DRIVE, GILROY, CA, 95020","Match","Exact","9030 RANCHO HILLS DR, GILROY, CA, 95020",123159594,"R"
310102,"9030 SLIGO CREEK PKWY  APT1216","SILVER SPRING","MD",20901,NA,NA,102,"9030 SLIGO CREEK PKWY  APT1216, SILVER SPRING, MD, 20901","No_Match",NA,NA,NA,NA
310103,"9030 STONY POINT PARKWAY SUITE 160","RICHMOND","VA",23235,NA,NA,103,"9030 STONY POINT PARKWAY SUITE 160, RICHMOND, VA, 23235","No_Match",NA,NA,NA,NA
310104,"9030 SUNDANCE CT","DEXTER","MI",48130,42.3498107820001,-83.9113016319999,104,"9030 SUNDANCE CT, DEXTER, MI, 48130","Match","Exact","9030 SUNDANCE CT, DEXTER, MI, 48130",635876037,"L"
310105,"9030 VERBENA ROAD","OAK HILLS","CA",92344,34.4158387700001,-117.425609866,105,"9030 VERBENA ROAD, OAK HILLS, CA, 92344","Match","Exact","9030 VERBENA RD, OAK HILLS, CA, 92344",614529836,"L"
310106,"9030 W SAHARA AVE 175","LAS VEGAS","NV",89117,36.144289857,-115.293652861,106,"9030 W SAHARA AVE 175, LAS VEGAS, NV, 89117","Match","Non_Exact","9030 W SAHARA AVE, LAS VEGAS, NV, 89117",641555688,"R"
310107,"9030 WEST SAHARA AVENUE SUITE 255","LAS VEGAS","NV",89117,36.1442897700001,-115.29365029,107,"9030 WEST SAHARA AVENUE SUITE 255, LAS VEGAS, NV, 89117","Match","Exact","9030 W SAHARA AVE, LAS VEGAS, NV, 89117",641555688,"R"
310108,"9031 AYLESFORD LANE","STOCKTON","CA",95210,38.031681991,-121.282508739,108,"9031 AYLESFORD LANE, STOCKTON, CA, 95210","Match","Exact","9031 AYLESFORD LN, STOCKTON, CA, 95210",647357037,"L"
310109,"9031 EAST AMHERST DRIVE UNIT E","DENVER","CO",80231,39.664571659,-104.883240079,109,"9031 EAST AMHERST DRIVE UNIT E, DENVER, CO, 80231","Match","Exact","9031 E AMHERST DR, DENVER, CO, 80231",177343736,"L"
310110,"9031 FARNSWORTH AVE N","MINNEAPOLIS","MN",55443,45.119041467,-93.330883618,110,"9031 FARNSWORTH AVE N, MINNEAPOLIS, MN, 55443","Match","Exact","9031 FARNSWORTH AVE N, MINNEAPOLIS, MN, 55443",649638297,"R"
310111,"9031 HERSHEY STREET","ROSEMEAD","CA",91770,34.0690715850001,-118.072873633,111,"9031 HERSHEY STREET, ROSEMEAD, CA, 91770","Match","Exact","9031 HERSHEY ST, ROSEMEAD, CA, 91770",141641553,"L"
310112,"9031 MOLINERO COURT","ELK GROVE","CA",95758,38.4292905230001,-121.438261921,112,"9031 MOLINERO COURT, ELK GROVE, CA, 95758","Match","Exact","9031 MOLINERO CT, ELK GROVE, CA, 95758",133382701,"L"
310113,"9031 SE 122ND AVENUE APT 307","MIAMI","FL",33186,25.6841591240001,-80.393135988,113,"9031 SE 122ND AVENUE APT 307, MIAMI, FL, 33186","Match","Non_Exact","9031 SW 122ND AVE, MIAMI, FL, 33186",116281788,"L"
310114,"9031 SE 88TH STREET","OCALA","FL",34472,29.094695862,-82.004603618,114,"9031 SE 88TH STREET, OCALA, FL, 34472","Match","Exact","9031 SE 88TH ST, OCALA, FL, 34472",608610587,"R"
310115,"9032 HIGHWAY 451","MOREAUVILLE","LA",71355,31.060858287,-91.7900212489999,115,"9032 HIGHWAY 451, MOREAUVILLE, LA, 71355","Match","Exact","9032 HWY 451, MOREAUVILLE, LA, 71355",13145871,"R"
310116,"9032 LETHA LN","SHREVEPORT","LA",71118,32.410243586,-93.807568657,116,"9032 LETHA LN, SHREVEPORT, LA, 71118","Match","Exact","9032 LETHA LN, SHREVEPORT, LA, 71118",57452982,"R"
310117,"9032 MAPLE GROVE ROAD","WINDHAM","OH",44288,41.2374388310001,-81.04218482,117,"9032 MAPLE GROVE ROAD, WINDHAM, OH, 44288","Match","Exact","9032 MAPLE GROVE RD, WINDHAM, OH, 44288",647326289,"L"
310118,"9032 ROSEWALL CT","SPRINGFIELD","VA",22152,38.773772513,-77.256240825,118,"9032 ROSEWALL CT, SPRINGFIELD, VA, 22152","Match","Exact","9032 ROSEWALL CT, SPRINGFIELD, VA, 22152",75975640,"R"
310119,"9032 S 77TH EAST AVENUE","TULSA","OK",74133,36.0327872070001,-95.891044372,119,"9032 S 77TH EAST AVENUE, TULSA, OK, 74133","Match","Exact","9032 S 77TH EAST AVE, TULSA, OK, 74133",166462149,"R"
310120,"9032 SW 152 STREET","PALMETTO BAY","FL",33157,25.628947333,-80.339501951,120,"9032 SW 152 STREET, PALMETTO BAY, FL, 33157","Match","Exact","9032 SW 152ND ST, PALMETTO BAY, FL, 33157",115983358,"L"
310121,"9032 TECHNOLOGY DR","FISHERS","IN",46038,39.961140657,-86.0081269739999,121,"9032 TECHNOLOGY DR, FISHERS, IN, 46038","Match","Exact","9032 TECHNOLOGY DR, FISHERS, IN, 46038",650156742,"L"
310122,"9033 COLERAIN AVE","CINCINNATI","OH",45251,39.235649026,-84.5919335309999,122,"9033 COLERAIN AVE, CINCINNATI, OH, 45251","Match","Exact","9033 COLERAIN AVE, CINCINNATI, OH, 45251",103915367,"L"
310123,"9033 COTTON ROSE WAY","LAS VEGAS","NV",89134,36.202580079,-115.291997521,123,"9033 COTTON ROSE WAY, LAS VEGAS, NV, 89134","Match","Exact","9033 COTTON ROSE WAY, LAS VEGAS, NV, 89134",201904553,"L"
310124,"9033 GUILFORD ROAD","SEVILLE","OH",44273,41.027040829,-81.832493772,124,"9033 GUILFORD ROAD, SEVILLE, OH, 44273","Match","Exact","9033 GUILFORD RD, SEVILLE, OH, 44273",58677120,"L"
310125,"9033 LAKE WASHINGTON BLVD NE","BELLEVUE","WA",98004,47.6160766020001,-122.21915988,125,"9033 LAKE WASHINGTON BLVD NE, BELLEVUE, WA, 98004","Match","Exact","9033 LAKE WASHINGTON BLVD NE, BELLEVUE, WA, 98004",239763848,"R"
310126,"9033 SAYERS RD","MUNITH","MI",49259,42.366286266,-84.279971685,126,"9033 SAYERS RD, MUNITH, MI, 49259","Match","Exact","9033 SAYERS RD, MUNITH, MI, 49259",17632367,"L"
310127,"9033 WILDBERRY COURT","BOONSBORO","MH",21713,NA,NA,127,"9033 WILDBERRY COURT, BOONSBORO, MH, 21713","No_Match",NA,NA,NA,NA
310128,"9033 WOODBINE ST","BATON ROUGE","LA",70815,30.4494521020001,-91.088623474,128,"9033 WOODBINE ST, BATON ROUGE, LA, 70815","Match","Exact","9033 WOODBINE ST, BATON ROUGE, LA, 70815",92189791,"L"
310129,"9034 DAYTONIA","DALLAS","TX",75218,32.8224941190001,-96.703701812,129,"9034 DAYTONIA, DALLAS, TX, 75218","Match","Non_Exact","9034 DAYTONIA AVE, DALLAS, TX, 75218",102922762,"R"
310130,"9034 E 49TH PL","DENVER","CO",80238,39.786994399,-104.883522002,130,"9034 E 49TH PL, DENVER, CO, 80238","Match","Exact","9034 E 49TH PL, DENVER, CO, 80238",641515067,"R"
310131,"9034 LITTLE PRINCESS","ST. CROIX","VI",820,NA,NA,131,"9034 LITTLE PRINCESS, ST. CROIX, VI, 820","No_Match",NA,NA,NA,NA
310132,"9034 MAJESTY LN","RICHMOND","TX",77469,29.529232811,-95.664228467,132,"9034 MAJESTY LN, RICHMOND, TX, 77469","Match","Exact","9034 MAJESTY LN, RICHMOND, TX, 77469",643728194,"R"
310133,"9034 MOONLIT MEADOW LOOP","RIVERVIEW","FL",33578,27.880851911,-82.350027805,133,"9034 MOONLIT MEADOW LOOP, RIVERVIEW, FL, 33578","Match","Non_Exact","9034 MOONLIT MEADOWS LOOP, RIVERVIEW, FL, 33578",649938400,"L"
310134,"9034 N SEYMORE AVENUE","KANSAS CITY","MO",64153,39.2591695300001,-94.6728554759999,134,"9034 N SEYMORE AVENUE, KANSAS CITY, MO, 64153","Match","Non_Exact","9034 N SEYMOUR AVE, KANSAS CITY, MO, 64153",627113618,"R"
310135,"9034 TUMBLEWOOD DR","BAYTOWN","TX",77523,29.750688887,-94.84270399,135,"9034 TUMBLEWOOD DR, BAYTOWN, TX, 77523","Match","Exact","9034 TUMBLEWOOD DR, BAYTOWN, TX, 77523",641751214,"R"
310136,"9035 ALSANDAIR COURT","RENO","NV",89506,39.639138969,-119.858765476,136,"9035 ALSANDAIR COURT, RENO, NV, 89506","Match","Exact","9035 ALSANDAIR CT, RENO, NV, 89506",632648592,"L"
310137,"9035 DEER RUN DR N","ALLENTON","WI",53002,43.5190677750001,-88.29744883,137,"9035 DEER RUN DR N, ALLENTON, WI, 53002","Match","Non_Exact","9035 DEER RUN DR, ALLENTON, WI, 53002",617445304,"L"
310138,"9035 GREENMEADOW DR","BROOKVILLE","IN",47012,39.433011058,-84.996515485,138,"9035 GREENMEADOW DR, BROOKVILLE, IN, 47012","Match","Non_Exact","9035 GREEN MEADOW DR, BROOKVILLE, IN, 47012",33184289,"R"
310139,"9035 PARKLAND DR","YPSILANTI","MI",48197,42.1873064820001,-83.580377723,139,"9035 PARKLAND DR, YPSILANTI, MI, 48197","Match","Exact","9035 PARKLAND DR, YPSILANTI, MI, 48197",639677458,"L"
310140,"9035 TELLURIDE COVE","GERMANTOWN","TN",38138,35.050744513,-89.7608321979999,140,"9035 TELLURIDE COVE, GERMANTOWN, TN, 38138","Match","Exact","9035 TELLURIDE COVE, GERMANTOWN, TN, 38138",648212594,"R"
310141,"9035 TWELVESTONES DR","ROSWELL","GA",30022,34.0006867590001,-84.291644349,141,"9035 TWELVESTONES DR, ROSWELL, GA, 30022","Match","Non_Exact","9035 TWELVESTONES DR, ROSWELL, GA, 30076",17386700,"R"
310142,"9035 W CENTRAL AVE","WICHITA","KS",67212,37.6940343590001,-97.447354433,142,"9035 W CENTRAL AVE, WICHITA, KS, 67212","Match","Exact","9035 W CENTRAL AVE, WICHITA, KS, 67212",115629416,"L"
310143,"9035 W MORRIS ST","INDIANAPOLIS","IN",46231,39.749139331,-86.322155428,143,"9035 W MORRIS ST, INDIANAPOLIS, IN, 46231","Match","Exact","9035 W MORRIS ST, INDIANAPOLIS, IN, 46231",614139874,"L"
310144,"9035","BOISE","ID",83707,NA,NA,144,"9035, BOISE, ID, 83707","No_Match",NA,NA,NA,NA
310145,"9036 20TH STREET","STANLEY","IA",50671,42.6578933320001,-91.766061737,145,"9036 20TH STREET, STANLEY, IA, 50671","Match","Exact","9036 20TH ST, STANLEY, IA, 50671",108209719,"R"
310146,"9036 BRONSON DRIVE","POTOMAC","MD",20854,39.005715674,-77.196428864,146,"9036 BRONSON DRIVE, POTOMAC, MD, 20854","Match","Exact","9036 BRONSON DR, POTOMAC, MD, 20854",62056839,"L"
310147,"9036 CALVINE ROAD","SACRAMENTO","CA",95829,38.452591618,-121.363802437,147,"9036 CALVINE ROAD, SACRAMENTO, CA, 95829","Match","Exact","9036 CALVINE RD, SACRAMENTO, CA, 95829",642586055,"R"
310148,"9036 PARKWOOD","BELLEVILLE","MI",48111,NA,NA,148,"9036 PARKWOOD, BELLEVILLE, MI, 48111","Tie",NA,NA,NA,NA
310149,"9036 PINEY BRANCH RD APT 102","SILVER SPRING","MD",20903,39.001202348,-76.987980179,149,"9036 PINEY BRANCH RD APT 102, SILVER SPRING, MD, 20903","Match","Exact","9036 PINEY BRANCH RD, SILVER SPRING, MD, 20903",614265252,"L"
310150,"9036 SUNNYVALE DRIVE","CHANHASSEN","MN",55317,44.839801654,-93.528825268,150,"9036 SUNNYVALE DRIVE, CHANHASSEN, MN, 55317","Match","Exact","9036 SUNNYVALE DR, CHANHASSEN, MN, 55317",43502288,"R"
310151,"9036 W REMINGTON PL","LITTLETON","CO",80128,39.5640951710001,-105.099185004,151,"9036 W REMINGTON PL, LITTLETON, CO, 80128","Match","Exact","9036 W REMINGTON PL, LITTLETON, CO, 80128",177759922,"L"
310152,"9037 CASALS ST APT 1","SACRAMENTO","CA",95826,38.557166942,-121.370704176,152,"9037 CASALS ST APT 1, SACRAMENTO, CA, 95826","Match","Exact","9037 CASALS ST, SACRAMENTO, CA, 95826",133376946,"L"
310153,"9037 FIELDING ST","DETROIT","MI",48228,42.359652936,-83.2408678739999,153,"9037 FIELDING ST, DETROIT, MI, 48228","Match","Exact","9037 FIELDING ST, DETROIT, MI, 48228",95438953,"L"
310154,"9037 INDEPENDENCE AVE SUITE A2","DAPHNE","AL",36526,NA,NA,154,"9037 INDEPENDENCE AVE SUITE A2, DAPHNE, AL, 36526","No_Match",NA,NA,NA,NA
310155,"9037 RON DEN LANE","WINDERMERE","FL",34786,28.5032009190001,-81.509064909,155,"9037 RON DEN LANE, WINDERMERE, FL, 34786","Match","Exact","9037 RON DEN LN, WINDERMERE, FL, 34786",638653052,"R"
310156,"9037 WIND WARRIOR AVENUE","LAS VEGAS","NV",89143,36.3187198200001,-115.292244881,156,"9037 WIND WARRIOR AVENUE, LAS VEGAS, NV, 89143","Match","Exact","9037 WIND WARRIOR AVE, LAS VEGAS, NV, 89143",201953217,"L"
310157,"9038 DAWES XING","MCDONOUGH","GA",30252,33.3974849680001,-84.1205954,157,"9038 DAWES XING, MCDONOUGH, GA, 30252","Match","Exact","9038 DAWES CROSSING, MCDONOUGH, GA, 30252",644930000,"R"
310158,"9038 GULF COVE DR","LAKE WORTH","FL",33467,26.6130168340001,-80.188729037,158,"9038 GULF COVE DR, LAKE WORTH, FL, 33467","Match","Exact","9038 GULF COVE DR, LAKE WORTH, FL, 33467",646620325,"L"
310159,"9038 JENNI CIRCLE","JONESBORO","GA",30238,33.50922346,-84.365695094,159,"9038 JENNI CIRCLE, JONESBORO, GA, 30238","Match","Exact","9038 JENNI CIR, JONESBORO, GA, 30238",23330965,"R"
310160,"9038 N CUMBERLAND AVE","NILES","IL",60714,42.0443545580001,-87.835603869,160,"9038 N CUMBERLAND AVE, NILES, IL, 60714","Match","Exact","9038 N CUMBERLAND AVE, NILES, IL, 60714",111731004,"L"
310161,"9038 NE 141 ST","KIRKLAND","WA",98034,47.7273696770001,-122.219865948,161,"9038 NE 141 ST, KIRKLAND, WA, 98034","Match","Exact","9038 NE 141ST ST, KIRKLAND, WA, 98034",186598517,"L"
310162,"9038 S  SHARTEL AVE  APT 204","OKLAHOMA CITY","OK",73139,35.376805286,-97.523981543,162,"9038 S  SHARTEL AVE  APT 204, OKLAHOMA CITY, OK, 73139","Match","Non_Exact","9038 S SHARTEL AVE, OKLAHOMA CITY, OK, 73139",641676492,"L"
310163,"9038 S CLYDE AVE","CHICAGO","IL",60617,41.7308677440001,-87.573141381,163,"9038 S CLYDE AVE, CHICAGO, IL, 60617","Match","Exact","9038 S CLYDE AVE, CHICAGO, IL, 60617",111776110,"R"
310164,"9038 SOUTH UNIVERSITY AVENUE","CHICAGO","IL",60619,41.7304696360001,-87.59619724,164,"9038 SOUTH UNIVERSITY AVENUE, CHICAGO, IL, 60619","Match","Exact","9038 S UNIVERSITY AVE, CHICAGO, IL, 60619",605548669,"R"
310165,"9038 WONDERLAND PARK AVE","LOS ANGELES","CA",90046,34.1166010580001,-118.391508727,165,"9038 WONDERLAND PARK AVE, LOS ANGELES, CA, 90046","Match","Non_Exact","9038 W WONDERLAND PARK AVE, LOS ANGELES, CA, 90046",141566214,"L"
310166,"9039 BENNETT LAKE RD","FENTON","MI",48430,42.7767403340001,-83.7848832129999,166,"9039 BENNETT LAKE RD, FENTON, MI, 48430","Match","Exact","9039 BENNETT LAKE RD, FENTON, MI, 48430",23574225,"L"
310167,"9039 BROADMOOR BEND","SAN ANTONIO","TX",78251,29.4443189880001,-98.675407588,167,"9039 BROADMOOR BEND, SAN ANTONIO, TX, 78251","Match","Exact","9039 BROADMOOR BEND, SAN ANTONIO, TX, 78251",619937944,"L"
310168,"9039 KNIGHT AVE","DES PLAINES","IL",60016,42.044286841,-87.844160399,168,"9039 KNIGHT AVE, DES PLAINES, IL, 60016","Match","Exact","9039 KNIGHT AVE, DES PLAINES, IL, 60016",112386421,"R"
310169,"9039 QUAIL CREEK DRIVE","TAMPA","FL",33647,28.129155301,-82.3494336059999,169,"9039 QUAIL CREEK DRIVE, TAMPA, FL, 33647","Match","Exact","9039 QUAIL CREEK DR, TAMPA, FL, 33647",104566996,"R"
310170,"9039 SLIGO CREEK PARKWAY APT 1709","SILVER SPRING","MD",20901,39.003251103,-77.013812152,170,"9039 SLIGO CREEK PARKWAY APT 1709, SILVER SPRING, MD, 20901","Match","Exact","9039 SLIGO CREEK PKWY, SILVER SPRING, MD, 20901",62108590,"R"
310171,"903A SE 7TH ST","LEES SUMMIT","MO",64063,38.9057911960001,-94.360591504,171,"903A SE 7TH ST, LEES SUMMIT, MO, 64063","Match","Exact","903 SE 7TH ST, LEES SUMMIT, MO, 64063",91478851,"L"
310172,"904 6TH STREET","HOLLY HILL","FL",32117,29.2299954060001,-81.0506599399999,172,"904 6TH STREET, HOLLY HILL, FL, 32117","Match","Exact","904 6TH ST, HOLLY HILL, FL, 32117",94522671,"R"
310173,"904 81ST STREET","LINO LAKES","MN",55014,45.1991011100001,-93.0971299129999,173,"904 81ST STREET, LINO LAKES, MN, 55014","Match","Exact","904 81ST ST, LINO LAKES, MN, 55014",97492341,"R"
310174,"904 8TH AVE SE","AUSTIN","MN",55912,43.6593923720001,-92.963930761,174,"904 8TH AVE SE, AUSTIN, MN, 55912","Match","Exact","904 8TH AVE SE, AUSTIN, MN, 55912",27623068,"R"
310175,"904 9TH ST SE","WASECA","MN",56093,44.070530213,-93.49518319,175,"904 9TH ST SE, WASECA, MN, 56093","Match","Exact","904 9TH ST SE, WASECA, MN, 56093",28726953,"R"
310176,"904 AIRPORT RD S","JASPER","AL",35501,33.8429522550001,-87.271870929,176,"904 AIRPORT RD S, JASPER, AL, 35501","Match","Exact","904 AIRPORT RD S, JASPER, AL, 35501",120568864,"L"
310177,"904 ALTAVIA","HAZELWOOD","CA",63042,NA,NA,177,"904 ALTAVIA, HAZELWOOD, CA, 63042","No_Match",NA,NA,NA,NA
310178,"904 AMARILLO STREET","PLAINVIEW","TX",79072,34.189259167,-101.736856696,178,"904 AMARILLO STREET, PLAINVIEW, TX, 79072","Match","Exact","904 AMARILLO ST, PLAINVIEW, TX, 79072",185696579,"R"
310179,"904 ARBOR CREEK WAY","NASHVILLE","TN",37217,36.1327989530001,-86.69815535,179,"904 ARBOR CREEK WAY, NASHVILLE, TN, 37217","Match","Exact","904 ARBOR CREEK WAY, NASHVILLE, TN, 37217",606819485,"L"
310180,"904 ARTHUR AVE","PANAMA CITY","FL",32401,30.166656415,-85.695303558,180,"904 ARTHUR AVE, PANAMA CITY, FL, 32401","Match","Exact","904 ARTHUR AVE, PANAMA CITY, FL, 32401",7028562,"R"
310181,"904 AUTUMN ROAD SUITE 500","LITTLE ROCK","AR",72211,NA,NA,181,"904 AUTUMN ROAD SUITE 500, LITTLE ROCK, AR, 72211","No_Match",NA,NA,NA,NA
310182,"904 BEGONIA DR","SAN LEANDRO","CA",94578,37.7012192020001,-122.133860627,182,"904 BEGONIA DR, SAN LEANDRO, CA, 94578","Match","Exact","904 BEGONIA DR, SAN LEANDRO, CA, 94578",125013631,"R"
310183,"904 BOWIE ST","AMARILLO","TX",79102,35.207067281,-101.856789682,183,"904 BOWIE ST, AMARILLO, TX, 79102","Match","Non_Exact","904 S BOWIE ST, AMARILLO, TX, 79102",648398770,"R"
310184,"904 CAPITAL AVE","BELLEVUE","MI",49021,NA,NA,184,"904 CAPITAL AVE, BELLEVUE, MI, 49021","No_Match",NA,NA,NA,NA
310185,"904 CHOCTAW DRIVE","VICKSBURG","MS",39180,32.393501832,-90.786650585,185,"904 CHOCTAW DRIVE, VICKSBURG, MS, 39180","Match","Non_Exact","904 CHOCTAW DR, VICKSBURG, MS, 39183",71290453,"R"
310186,"904 CLARA STREET","RULEVILLE","MS",38771,33.7283451440001,-90.5406864509999,186,"904 CLARA STREET, RULEVILLE, MS, 38771","Match","Exact","904 CLARA ST, RULEVILLE, MS, 38771",2728532,"L"
310187,"904 COUNTRY PLACE ROAD","ASHEBORO","NC",27203,35.736441368,-79.776310107,187,"904 COUNTRY PLACE ROAD, ASHEBORO, NC, 27203","Match","Exact","904 COUNTRY PLACE RD, ASHEBORO, NC, 27203",20405366,"R"
310188,"904 COUNTY ROAD D WEST APT 225","NEW BRIGHTON","MN",55112,NA,NA,188,"904 COUNTY ROAD D WEST APT 225, NEW BRIGHTON, MN, 55112","No_Match",NA,NA,NA,NA
310189,"904 CRISTANOS DRIVE","BERNALILLO","NM",87004,35.311063861,-106.577481981,189,"904 CRISTANOS DRIVE, BERNALILLO, NM, 87004","Match","Exact","904 CRISTANOS DR, BERNALILLO, NM, 87004",625698806,"L"
310190,"904 CROFOOT AVENUE SW","BUFFALO","MN",55313,45.1394390580001,-93.941168411,190,"904 CROFOOT AVENUE SW, BUFFALO, MN, 55313","Match","Exact","904 CROFOOT AVE SW, BUFFALO, MN, 55313",44012518,"R"
310191,"904 DAWNLIGHT DRIVE","DENTON","TX",76210,33.147710267,-97.125145918,191,"904 DAWNLIGHT DRIVE, DENTON, TX, 76210","Match","Exact","904 DAWNLIGHT DR, DENTON, TX, 76210",218077930,"L"
310192,"904 E 11TH AVE","POST FALLS","ID",83854,47.718822807,-116.935073961,192,"904 E 11TH AVE, POST FALLS, ID, 83854","Match","Exact","904 E 11TH AVE, POST FALLS, ID, 83854",192923045,"R"
310193,"904 E HAMLINE","GARDEN CITY","KS",67846,37.9826762910001,-100.861989937,193,"904 E HAMLINE, GARDEN CITY, KS, 67846","Match","Non_Exact","904 E HAMLINE ST, GARDEN CITY, KS, 67846",145421379,"L"
310194,"904 E HOWE SPRINGS RD","FLORENCE","SC",29505,34.134468004,-79.7544658909999,194,"904 E HOWE SPRINGS RD, FLORENCE, SC, 29505","Match","Exact","904 E HOWE SPRINGS RD, FLORENCE, SC, 29505",28885668,"R"
310195,"904 E KINGS HIGHWAY","SHREVEPORT","LA",71118,NA,NA,195,"904 E KINGS HIGHWAY, SHREVEPORT, LA, 71118","Tie",NA,NA,NA,NA
310196,"904 E MEADOWMERE LANE","AUSTIN","TX",78758,30.369781915,-97.697215257,196,"904 E MEADOWMERE LANE, AUSTIN, TX, 78758","Match","Exact","904 E MEADOWMERE LN, AUSTIN, TX, 78758",63930771,"R"
310197,"904 EAST END RD","NEWTON","NJ",7860,41.0608415190001,-74.813532429,197,"904 EAST END RD, NEWTON, NJ, 7860","Match","Exact","904 E END RD, NEWTON, NJ, 07860",98043386,"R"
310198,"904 EAST LIVE OAK STREET","AUSTIN","TX",78704,30.238907457,-97.746241696,198,"904 EAST LIVE OAK STREET, AUSTIN, TX, 78704","Match","Exact","904 E LIVE OAK ST, AUSTIN, TX, 78704",63945116,"L"
310199,"904 EMBER COURT","STOCKBRIDGE","GA",30281,33.518533135,-84.2589081409999,199,"904 EMBER COURT, STOCKBRIDGE, GA, 30281","Match","Exact","904 EMBER CT, STOCKBRIDGE, GA, 30281",23213314,"R"
310200,"904 ERICH RD","RICHMOND","VA",23225,37.5168992910001,-77.5013086439999,200,"904 ERICH RD, RICHMOND, VA, 23225","Match","Exact","904 ERICH RD, RICHMOND, VA, 23225",201536633,"L"
310201,"904 FLOWER AVE","PANAMA CITY","FL",32401,30.1658469430001,-85.689697968,201,"904 FLOWER AVE, PANAMA CITY, FL, 32401","Match","Exact","904 FLOWER AVE, PANAMA CITY, FL, 32401",7028603,"R"
310202,"904 GLEN COVE","MADISON","MS",39110,32.5178290710001,-90.152468448,202,"904 GLEN COVE, MADISON, MS, 39110","Match","Exact","904 GLEN COVE, MADISON, MS, 39110",636446381,"L"
310203,"904 GOLDENROD STREET","ESCONDIDO","CA",92027,33.1455865500001,-117.05837131,203,"904 GOLDENROD STREET, ESCONDIDO, CA, 92027","Match","Exact","904 GOLDENROD ST, ESCONDIDO, CA, 92027",195312920,"R"
310204,"904 HILLCREST DR","CHILDRESS","TX",79201,34.4384773090001,-100.208502571,204,"904 HILLCREST DR, CHILDRESS, TX, 79201","Match","Exact","904 HILLCREST DR, CHILDRESS, TX, 79201",164409255,"R"
310205,"904 LELA LANE","CHESAPEAKE","VA",23322,36.707288857,-76.2030282269999,205,"904 LELA LANE, CHESAPEAKE, VA, 23322","Match","Exact","904 LELA LN, CHESAPEAKE, VA, 23322",121774379,"R"
310206,"904 LENAPE LAKE RAOD","LIVINGSTON MANOR","NY",12758,41.818989306,-74.850136619,206,"904 LENAPE LAKE RAOD, LIVINGSTON MANOR, NY, 12758","Match","Non_Exact","904 LENAPE LAKE RD, LIVINGSTON MANOR, NY, 12758",129000010,"L"
310207,"904 LONGMEADOW LANE","DESOTO","TX",75115,32.604421874,-96.877669783,207,"904 LONGMEADOW LANE, DESOTO, TX, 75115","Match","Exact","904 LONGMEADOW LN, DESOTO, TX, 75115",102994471,"R"
310208,"904 MABEL AVE","SALISBURY","MD",21804,38.3749299990001,-75.584679067,208,"904 MABEL AVE, SALISBURY, MD, 21804","Match","Exact","904 MABEL AVE, SALISBURY, MD, 21804",114451931,"R"
310209,"904 MAE WAY","BRENHAM","TX",77833,30.158028931,-96.386939086,209,"904 MAE WAY, BRENHAM, TX, 77833","Match","Exact","904 MAE WAY, BRENHAM, TX, 77833",39234998,"R"
310210,"904 MARLBOROUGH AVENUE","ABSECON","NJ",8201,39.4366268680001,-74.511713723,210,"904 MARLBOROUGH AVENUE, ABSECON, NJ, 8201","Match","Exact","904 MARLBOROUGH AVE, ABSECON, NJ, 08201",202484865,"R"
310211,"904 MASON TOWN ROAD","NEWPORT","NC",28570,34.7997842980001,-76.896240221,211,"904 MASON TOWN ROAD, NEWPORT, NC, 28570","Match","Exact","904 MASON TOWN RD, NEWPORT, NC, 28570",223879030,"L"
310212,"904 MATAGORDA LANE","LAS VEGAS","NV",89133,36.181525628,-115.270594115,212,"904 MATAGORDA LANE, LAS VEGAS, NV, 89133","Match","Non_Exact","904 MATAGORDA LN, LAS VEGAS, NV, 89128",201904914,"R"
310213,"904 MENUSA COURT","SANTA MARIA","CA",93458,34.9309405670001,-120.447403182,213,"904 MENUSA COURT, SANTA MARIA, CA, 93458","Match","Exact","904 MENUSA CT, SANTA MARIA, CA, 93458",616216682,"R"
310214,"904 MERCHANTS WALK SW","HUNTSVILLE","AL",35801,NA,NA,214,"904 MERCHANTS WALK SW, HUNTSVILLE, AL, 35801","No_Match",NA,NA,NA,NA
310215,"904 MICHIGAN AVENUE","EVANSTON","IL",60202,42.0340894730001,-87.673352834,215,"904 MICHIGAN AVENUE, EVANSTON, IL, 60202","Match","Exact","904 MICHIGAN AVE, EVANSTON, IL, 60202",111743846,"L"
310216,"904 MISTY GLEN LANE","DALLAS","TX",75232,32.6852316440001,-96.838146889,216,"904 MISTY GLEN LANE, DALLAS, TX, 75232","Match","Exact","904 MISTY GLEN LN, DALLAS, TX, 75232",102948234,"L"
310217,"904 MLK BLVD SW","ATLANTA","GA",30314,33.754713098,-84.4170616659999,217,"904 MLK BLVD SW, ATLANTA, GA, 30314","Match","Non_Exact","904 MARTIN LUTHER KING JR DR SW, ATLANTA, GA, 30314",17342496,"L"
310218,"904 MORRIS AVENUE","BRONX","NY",10451,40.826426257,-73.917979804,218,"904 MORRIS AVENUE, BRONX, NY, 10451","Match","Exact","904 MORRIS AVE, BRONX, NY, 10451",80300459,"R"
310219,"904 N 26TH STREET","RICHMOND","VA",23223,37.5364087310001,-77.412804982,219,"904 N 26TH STREET, RICHMOND, VA, 23223","Match","Exact","904 N 26TH ST, RICHMOND, VA, 23223",201548479,"L"
310220,"904 N 4TH ST","CLINTON","MO",64735,38.3791644900001,-93.770330766,220,"904 N 4TH ST, CLINTON, MO, 64735","Match","Exact","904 N 4TH ST, CLINTON, MO, 64735",44941712,"R"
310221,"904 N 4TH STREET","YAKIMA","WA",98901,46.6144197420001,-120.506586716,221,"904 N 4TH STREET, YAKIMA, WA, 98901","Match","Exact","904 N 4TH ST, YAKIMA, WA, 98901",629080454,"L"
310222,"904 N FIRST ST","ENFIELD","IL",62835,38.106602611,-88.3367972839999,222,"904 N FIRST ST, ENFIELD, IL, 62835","Match","Exact","904 N 1ST ST, ENFIELD, IL, 62835",38220638,"R"
310223,"904 N LA BREA AVE SUITE 5","INGLEWOOD","CA",90302,33.9747607530001,-118.357627957,223,"904 N LA BREA AVE SUITE 5, INGLEWOOD, CA, 90302","Match","Non_Exact","904 N LA BREA AVE, INGLEWOOD, CA, 90302",141653900,"R"
310224,"904 N MAIN ST","MISHAWAKA","IN",46545,41.669339468,-86.181323482,224,"904 N MAIN ST, MISHAWAKA, IN, 46545","Match","Exact","904 N MAIN ST, MISHAWAKA, IN, 46545",8085779,"R"
310225,"904 N MINNESOTA ST","NEW ULM","MN",56073,44.322251454,-94.467394123,225,"904 N MINNESOTA ST, NEW ULM, MN, 56073","Match","Exact","904 N MINNESOTA ST, NEW ULM, MN, 56073",28568661,"R"
310226,"904 N MURRAY 202","COLORADO SPRINGS","CO",80915,NA,NA,226,"904 N MURRAY 202, COLORADO SPRINGS, CO, 80915","No_Match",NA,NA,NA,NA
310227,"904 N ROOSEVELT","BLOOMINGTON","IL",61701,40.4868062360001,-88.996841192,227,"904 N ROOSEVELT, BLOOMINGTON, IL, 61701","Match","Non_Exact","904 N ROOSEVELT AVE, BLOOMINGTON, IL, 61701",20545528,"L"
310228,"904 NORTH BARKSDALE STREET","MEMPHIS","TN",38107,35.16208061,-89.993562868,228,"904 NORTH BARKSDALE STREET, MEMPHIS, TN, 38107","Match","Exact","904 N BARKSDALE ST, MEMPHIS, TN, 38107",607416490,"R"
310229,"904 NORTH MAIN STREET","ANDERSON","SC",29621,34.5110950650001,-82.652013918,229,"904 NORTH MAIN STREET, ANDERSON, SC, 29621","Match","Exact","904 N MAIN ST, ANDERSON, SC, 29621",25451259,"R"
310230,"904 OAKLANE DRIVE","ORANGEBURG","SC",29115,33.4632942200001,-80.802800346,230,"904 OAKLANE DRIVE, ORANGEBURG, SC, 29115","Match","Exact","904 OAKLANE DR, ORANGEBURG, SC, 29115",605528916,"L"
310231,"904 PEACH STREET","NEW BADEN","IL",62265,38.542134978,-89.690809352,231,"904 PEACH STREET, NEW BADEN, IL, 62265","Match","Non_Exact","904 PEACH LN, NEW BADEN, IL, 62265",604822125,"L"
310232,"904 PEMBROKE AVENUE","LANSDOWNE","PA",19050,39.9434775300001,-75.2583434159999,232,"904 PEMBROKE AVENUE, LANSDOWNE, PA, 19050","Match","Exact","904 PEMBROKE AVE, LANSDOWNE, PA, 19050",134878524,"R"
310233,"904 PIT ROAD","ANTIGO","WI",54409,45.1237411340001,-89.144043101,233,"904 PIT ROAD, ANTIGO, WI, 54409","Match","Exact","904 PIT RD, ANTIGO, WI, 54409",196403165,"L"
310234,"904 PLAYERS CIRCLE","SUMMERVILLE","SC",29485,32.9451053660001,-80.2280033169999,234,"904 PLAYERS CIRCLE, SUMMERVILLE, SC, 29485","Match","Exact","904 PLAYERS CIR, SUMMERVILLE, SC, 29485",178472279,"R"
310235,"904 PRAIRIE PATH LN","JOLIET","IL",60436,41.505747813,-88.1550862449999,235,"904 PRAIRIE PATH LN, JOLIET, IL, 60436","Match","Exact","904 PRAIRIE PATH LN, JOLIET, IL, 60436",111614595,"R"
310236,"904 REVEILLE RD","FORT WORTH","TX",76108,32.7463180240001,-97.498364765,236,"904 REVEILLE RD, FORT WORTH, TX, 76108","Match","Exact","904 REVEILLE RD, FORT WORTH, TX, 76108",619865199,"R"
310237,"904 ROYAL AVE B","LEXINGTON","KY",40505,38.042725723,-84.470010493,237,"904 ROYAL AVE B, LEXINGTON, KY, 40505","Match","Exact","904 ROYAL AVE, LEXINGTON, KY, 40505",31926018,"R"
310238,"904 S 102ND ST","SEATTLE","WA",98168,47.51210795,-122.321018308,238,"904 S 102ND ST, SEATTLE, WA, 98168","Match","Exact","904 S 102ND ST, SEATTLE, WA, 98168",186624278,"L"
310239,"904 S 10TH ST","GOSHEN","IN",46526,41.575292501,-85.824802897,239,"904 S 10TH ST, GOSHEN, IN, 46526","Match","Exact","904 S 10TH ST, GOSHEN, IN, 46526",604686108,"L"
310240,"904 S 12TH AVE","EDINBURG","TX",78539,26.2931388310001,-98.162663199,240,"904 S 12TH AVE, EDINBURG, TX, 78539","Match","Exact","904 S 12TH AVE, EDINBURG, TX, 78539",71496480,"L"
310241,"904 S 30TH AVE","YAKIMA","WA",98902,46.588631332,-120.548765306,241,"904 S 30TH AVE, YAKIMA, WA, 98902","Match","Exact","904 S 30TH AVE, YAKIMA, WA, 98902",184935457,"R"
310242,"904 SAINT CHARLES AVE APT 6","ATLANTA","GA",30306,33.775427489,-84.35758464,242,"904 SAINT CHARLES AVE APT 6, ATLANTA, GA, 30306","Match","Non_Exact","904 ST CHARLES AVE NE, ATLANTA, GA, 30306",17357077,"L"
310243,"904 SCOTCH PINE CT","SANDSTON","VA",23150,37.5224464660001,-77.293188297,243,"904 SCOTCH PINE CT, SANDSTON, VA, 23150","Match","Exact","904 SCOTCH PINE CT, SANDSTON, VA, 23150",106691714,"R"
310244,"904 SEDGEFIELD ST","DURHAM","NC",27705,36.0118743790001,-78.9170432779999,244,"904 SEDGEFIELD ST, DURHAM, NC, 27705","Match","Exact","904 SEDGEFIELD ST, DURHAM, NC, 27705",71739076,"R"
310245,"904 SHETLAND COURT","CHADDS FORD","PA",19317,39.8468294900001,-75.64128741,245,"904 SHETLAND COURT, CHADDS FORD, PA, 19317","Match","Exact","904 SHETLAND CT, CHADDS FORD, PA, 19317",179519926,"L"
310246,"904 SILVER SPUR ROAD - SUITE 220","ROLLING HILLS ESTATE","CA",90274,33.7700821010001,-118.36643538,246,"904 SILVER SPUR ROAD - SUITE 220, ROLLING HILLS ESTATE, CA, 90274","Match","Non_Exact","904 SILVER SPUR RD, ROLLING HILLS, CA, 90274",647621026,"L"
310247,"904 SILVER SPUR ROAD NUM 655","ROLLING HILLS ESTATE","CA",90274,33.7700821010001,-118.36643538,247,"904 SILVER SPUR ROAD NUM 655, ROLLING HILLS ESTATE, CA, 90274","Match","Non_Exact","904 SILVER SPUR RD, ROLLING HILLS, CA, 90274",647621026,"L"
310248,"904 SNOWFALL SPUR","AKRON","OH",44313,41.1393424870001,-81.541291394,248,"904 SNOWFALL SPUR, AKRON, OH, 44313","Match","Non_Exact","904 SNOWFALL SPR, AKRON, OH, 44313",61338836,"L"
310249,"904 SOUTH STREET","LAFAYETTE","IN",47901,40.4173520050001,-86.886626356,249,"904 SOUTH STREET, LAFAYETTE, IN, 47901","Match","Exact","904 SOUTH ST, LAFAYETTE, IN, 47901",639702882,"L"
310250,"904 STONEHAM DR","WEST CHESTER","PA",19382,39.962928183,-75.507958839,250,"904 STONEHAM DR, WEST CHESTER, PA, 19382","Match","Exact","904 STONEHAM DR, WEST CHESTER, PA, 19382",179514894,"L"
310251,"904 SUSSEX COVE","CIBOLO","TX",78108,29.607521607,-98.22292592,251,"904 SUSSEX COVE, CIBOLO, TX, 78108","Match","Exact","904 SUSSEX COVE, CIBOLO, TX, 78108",646505483,"R"
310252,"904 SW 163RD STREET","LEE'S SUMMIT","MO",64082,NA,NA,252,"904 SW 163RD STREET, LEE'S SUMMIT, MO, 64082","No_Match",NA,NA,NA,NA
310253,"904 TARA DR","BURLESON","TX",76028,32.52596844,-97.293192397,253,"904 TARA DR, BURLESON, TX, 76028","Match","Exact","904 TARA DR, BURLESON, TX, 76028",625041432,"L"
310254,"904 UNION ST APT 4A","BROOKLYN","NY",11215,40.6729860980001,-73.971661457,254,"904 UNION ST APT 4A, BROOKLYN, NY, 11215","Match","Exact","904 UNION ST, BROOKLYN, NY, 11215",652206605,"R"
310255,"904 W 11TH ST","YANKTON","SD",57078,42.879796594,-97.405114385,255,"904 W 11TH ST, YANKTON, SD, 57078","Match","Exact","904 W 11TH ST, YANKTON, SD, 57078",172837054,"R"
310256,"904 W KENOSHA ST","BROKEN ARROW","OK",74012,36.0609645530001,-95.802897429,256,"904 W KENOSHA ST, BROKEN ARROW, OK, 74012","Match","Exact","904 W KENOSHA ST, BROKEN ARROW, OK, 74012",166510515,"L"
310257,"904 WASHINGTON ST","LEAD","SD",57754,44.357525841,-103.751950243,257,"904 WASHINGTON ST, LEAD, SD, 57754","Match","Exact","904 WASHINGTON ST, LEAD, SD, 57754",193374484,"L"
310258,"904 WATERVIEW DRIVE","CEDAR HILL","TX",75104,32.585299191,-96.921717503,258,"904 WATERVIEW DRIVE, CEDAR HILL, TX, 75104","Match","Exact","904 WATERVIEW DR, CEDAR HILL, TX, 75104",102998053,"R"
310259,"904 WEST 11TH AVENUE","STILLWATER","OK",74074,36.1103379360001,-97.069523255,259,"904 WEST 11TH AVENUE, STILLWATER, OK, 74074","Match","Exact","904 W 11TH AVE, STILLWATER, OK, 74074",166360560,"R"
310260,"904 WEST 730 NORTH CIRCLE","SAINT GEORGE","UT",84770,37.120863607,-113.602587196,260,"904 WEST 730 NORTH CIRCLE, SAINT GEORGE, UT, 84770","Match","Exact","904 W 730 NORTH CIR, SAINT GEORGE, UT, 84770",166178373,"L"
310261,"904 WEST MAPLE STREET","CLYDE","OH",43410,41.296456957,-82.99428209,261,"904 WEST MAPLE STREET, CLYDE, OH, 43410","Match","Exact","904 W MAPLE ST, CLYDE, OH, 43410",38678192,"L"
310262,"904 WHITMAN DR","TURNERSVILLE","NJ",8012,39.743379749,-75.032377971,262,"904 WHITMAN DR, TURNERSVILLE, NJ, 8012","Match","Exact","904 WHITMAN DR, TURNERSVILLE, NJ, 08012",134587542,"L"
310263,"904 WYNNDALE RD","TERRY","MS",39170,32.109060877,-90.282015781,263,"904 WYNNDALE RD, TERRY, MS, 39170","Match","Exact","904 WYNNDALE RD, TERRY, MS, 39170",635251499,"L"
310264,"904 YOUNGS FARM ROAD","CEDARTOWN","GA",30125,33.9409541160001,-85.2394333349999,264,"904 YOUNGS FARM ROAD, CEDARTOWN, GA, 30125","Match","Exact","904 YOUNGS FARM RD, CEDARTOWN, GA, 30125",647317435,"R"
310265,"904","MERCER ISLAND","WA",98040,NA,NA,265,"904, MERCER ISLAND, WA, 98040","No_Match",NA,NA,NA,NA
310266,"9040 40TH STREET NW","MILAN","MN",56262,45.0794936350001,-95.784523447,266,"9040 40TH STREET NW, MILAN, MN, 56262","Match","Exact","9040 40TH ST NW, MILAN, MN, 56262",36682918,"L"
310267,"9040 BRELAND DR","TAMPA","FL",33626,28.064564945,-82.588661782,267,"9040 BRELAND DR, TAMPA, FL, 33626","Match","Exact","9040 BRELAND DR, TAMPA, FL, 33626",104614550,"L"
310268,"9040 BRENTWOOD BLVD STE B","BRENTWOOD","CA",94513,37.920217651,-121.685743978,268,"9040 BRENTWOOD BLVD STE B, BRENTWOOD, CA, 94513","Match","Exact","9040 BRENTWOOD BLVD, BRENTWOOD, CA, 94513",192111457,"L"
310269,"9040 MARL BRANCH COURT","MECHANICSVILLE","VA",23116,37.69526768,-77.4072992169999,269,"9040 MARL BRANCH COURT, MECHANICSVILLE, VA, 23116","Match","Exact","9040 MARL BRANCH CT, MECHANICSVILLE, VA, 23116",84968321,"L"
310270,"9040 N IROQUOIS RD","BAYSIDE","WI",53217,43.1806660870001,-87.911974404,270,"9040 N IROQUOIS RD, BAYSIDE, WI, 53217","Match","Exact","9040 N IROQUOIS RD, BAYSIDE, WI, 53217",77735064,"R"
310271,"9040 S VINCENNES AVE","CHICAGO","IL",60620,41.7297531680001,-87.647567827,271,"9040 S VINCENNES AVE, CHICAGO, IL, 60620","Match","Exact","9040 S VINCENNES AVE, CHICAGO, IL, 60620",111831773,"R"
310272,"9040 STINSON BEACH WAY","ELK GROVE","CA",95758,38.427256474,-121.450281424,272,"9040 STINSON BEACH WAY, ELK GROVE, CA, 95758","Match","Exact","9040 STINSON BEACH WAY, ELK GROVE, CA, 95758",133403379,"R"
310273,"9040 TOWN CENTER PARKWAY","BRADENTON","FL",34202,27.3949245630001,-82.447304475,273,"9040 TOWN CENTER PARKWAY, BRADENTON, FL, 34202","Match","Exact","9040 TOWN CENTER PKWY, BRADENTON, FL, 34202",16284050,"R"
310274,"9040 TOWN CENTER PARKWAY","LAKEWOOD RANCH","FL",34202,27.3949245630001,-82.447304475,274,"9040 TOWN CENTER PARKWAY, LAKEWOOD RANCH, FL, 34202","Match","Exact","9040 TOWN CENTER PKWY, LAKEWOOD RCH, FL, 34202",16284050,"R"
310275,"9040 TURNBERRY CIRCLE","LINCOLN","NE",68526,40.7587844980001,-96.596233684,275,"9040 TURNBERRY CIRCLE, LINCOLN, NE, 68526","Match","Exact","9040 TURNBERRY CIR, LINCOLN, NE, 68526",28299643,"L"
310276,"9041 152ND AVE","ELMHURST","NY",11373,NA,NA,276,"9041 152ND AVE, ELMHURST, NY, 11373","No_Match",NA,NA,NA,NA
310277,"9041 COMMONWEALTH ROAD","BENTONVILLE","AR",72712,36.464768668,-94.1790014159999,277,"9041 COMMONWEALTH ROAD, BENTONVILLE, AR, 72712","Match","Exact","9041 COMMONWEALTH RD, BENTONVILLE, AR, 72712",647882140,"R"
310278,"9041 COVINA STREET","SAN DIEGO","CA",92126,32.9040324330001,-117.129898214,278,"9041 COVINA STREET, SAN DIEGO, CA, 92126","Match","Exact","9041 COVINA ST, SAN DIEGO, CA, 92126",640049000,"R"
310279,"9041 RALPH STREET","ROSEMEAD","CA",91770,34.07784474,-118.071581466,279,"9041 RALPH STREET, ROSEMEAD, CA, 91770","Match","Exact","9041 RALPH ST, ROSEMEAD, CA, 91770",142739745,"L"
310280,"9041 WEST MOUNT DRIVE","ROCKY MOUNT","NC",27803,35.9174314750001,-77.855442833,280,"9041 WEST MOUNT DRIVE, ROCKY MOUNT, NC, 27803","Match","Exact","9041 W MOUNT DR, ROCKY MOUNT, NC, 27803",90400217,"R"
310281,"9042 ECHO STREET","EL PASO","TX",79904,31.868599325,-106.451610837,281,"9042 ECHO STREET, EL PASO, TX, 79904","Match","Exact","9042 ECHO ST, EL PASO, TX, 79904",189337464,"R"
310282,"9042 SW 142ND AVE - SUITE 218","MIAMI","FL",33186,25.68294509,-80.423975319,282,"9042 SW 142ND AVE - SUITE 218, MIAMI, FL, 33186","Match","Non_Exact","9042 SW 142ND AVE, MIAMI, FL, 33186",641623829,"R"
310283,"9042 W COUNTY ROAD 350 N","MULBERRY","IN",46058,40.3374492230001,-86.671854367,283,"9042 W COUNTY ROAD 350 N, MULBERRY, IN, 46058","Match","Exact","9042 W CO RD 350 N, MULBERRY, IN, 46058",634459754,"R"
310284,"9043 HOLLYBROOK LN S","GERMANTOWN","TN",38138,35.0579418680001,-89.7618012999999,284,"9043 HOLLYBROOK LN S, GERMANTOWN, TN, 38138","Match","Exact","9043 HOLLYBROOK LN S, GERMANTOWN, TN, 38138",614335726,"R"
310285,"9043 LONGMONT","DALLAS","TX",75238,32.8700903540001,-96.7082448899999,285,"9043 LONGMONT, DALLAS, TX, 75238","Match","Non_Exact","9043 LONGMONT DR, DALLAS, TX, 75238",102921960,"L"
310286,"9044 CHURCH STREET","TWINSBURG","OH",44087,41.312664533,-81.44166212,286,"9044 CHURCH STREET, TWINSBURG, OH, 44087","Match","Exact","9044 CHURCH ST, TWINSBURG, OH, 44087",61364039,"L"
310287,"9044 ESTATE STRAWBERRY","CHRISTIANSTED","VI",820,NA,NA,287,"9044 ESTATE STRAWBERRY, CHRISTIANSTED, VI, 820","No_Match",NA,NA,NA,NA
310288,"9044 HUNTWOOD LANE","RIVERDALE","GA",30274,33.5088484350001,-84.399204415,288,"9044 HUNTWOOD LANE, RIVERDALE, GA, 30274","Match","Exact","9044 HUNTWOOD LN, RIVERDALE, GA, 30274",23313875,"L"
310289,"9044 SHADY VISTA COURT","ELK GROVE","CA",95624,NA,NA,289,"9044 SHADY VISTA COURT, ELK GROVE, CA, 95624","No_Match",NA,NA,NA,NA
310290,"9044 SOUTHLAND RD","MANTECA","CA",95337,37.8192766440001,-121.187934808,290,"9044 SOUTHLAND RD, MANTECA, CA, 95337","Match","Non_Exact","9044 SOUTHLAND RD, MANTECA, CA, 95336",133882949,"R"
310291,"9044 W 167TH STREET","ORLAND HILLS","IL",60487,NA,NA,291,"9044 W 167TH STREET, ORLAND HILLS, IL, 60487","Tie",NA,NA,NA,NA
310292,"9045 ANCESTOR DR","ELK GROVE","CA",95758,38.4280661450001,-121.413478224,292,"9045 ANCESTOR DR, ELK GROVE, CA, 95758","Match","Exact","9045 ANCESTOR DR, ELK GROVE, CA, 95758",133386709,"L"
310293,"9045 JEFFERSON HWY","RIVER RIDGE","LA",70123,29.947861244,-90.213617837,293,"9045 JEFFERSON HWY, RIVER RIDGE, LA, 70123","Match","Exact","9045 JEFFERSON HWY, RIVER RIDGE, LA, 70123",93557157,"R"
310294,"9045 LA FORTANA BLVD STE 105","BOCA RATON","FL",33434,NA,NA,294,"9045 LA FORTANA BLVD STE 105, BOCA RATON, FL, 33434","No_Match",NA,NA,NA,NA
310295,"9045 NW MURDOCK STREET","PORTLAND","OR",97229,45.544036083,-122.76982549,295,"9045 NW MURDOCK STREET, PORTLAND, OR, 97229","Match","Exact","9045 NW MURDOCK ST, PORTLAND, OR, 97229",157591636,"R"
310296,"9045 S LOOMIS","CHICAGO","IL",60620,41.7295578540001,-87.658016257,296,"9045 S LOOMIS, CHICAGO, IL, 60620","Match","Non_Exact","9045 S LOOMIS ST, CHICAGO, IL, 60620",111821604,"L"
310297,"9046 LANTANA DR","CORONA","CA",92883,33.7910619720001,-117.501261154,297,"9046 LANTANA DR, CORONA, CA, 92883","Match","Exact","9046 LANTANA DR, CORONA, CA, 92883",194850848,"L"
310298,"9046 S JUSTINE STREET UNIT 1","CHICAGO","IL",60620,41.729475607,-87.661668306,298,"9046 S JUSTINE STREET UNIT 1, CHICAGO, IL, 60620","Match","Non_Exact","9046 S JUSTINE ST, CHICAGO, IL, 60620",111821537,"R"
310299,"9047 51ST AVENUE 2FL","ELMHURST","NY",11373,NA,NA,299,"9047 51ST AVENUE 2FL, ELMHURST, NY, 11373","No_Match",NA,NA,NA,NA
310300,"9047 S 220 EAST","SANDY","UT",84070,40.5872643230001,-111.884029847,300,"9047 S 220 EAST, SANDY, UT, 84070","Match","Exact","9047 S 220 E, SANDY, UT, 84070",176086549,"L"
310301,"9047 THE LANE","NAPLES","FL",34109,26.2609391120001,-81.7582878109999,301,"9047 THE LANE, NAPLES, FL, 34109","Match","Exact","9047 THE LANE, NAPLES, FL, 34109",115164703,"R"
310302,"9048 BELVOIR DRIVE","BIRMINGHAM","AL",35206,33.5873504790001,-86.718511308,302,"9048 BELVOIR DRIVE, BIRMINGHAM, AL, 35206","Match","Exact","9048 BELVOIR DR, BIRMINGHAM, AL, 35206",81567394,"L"
310303,"9048 HERRING COVE AVE","LAS VEGAS","NV",89178,36.018952653,-115.28989912,303,"9048 HERRING COVE AVE, LAS VEGAS, NV, 89178","Match","Non_Exact","9048 W HERRING COVE AVE, LAS VEGAS, NV, 89178",627567266,"L"
310304,"9048 HOWELLS FERRY RD","SEMMES","AL",36575,30.730475896,-88.255948995,304,"9048 HOWELLS FERRY RD, SEMMES, AL, 36575","Match","Exact","9048 HOWELLS FERRY RD, SEMMES, AL, 36575",61915152,"R"
310305,"9048 ORCHARD VALLEY ROAD","WEST BEND","WI",53090,43.5185033590001,-88.090374393,305,"9048 ORCHARD VALLEY ROAD, WEST BEND, WI, 53090","Match","Exact","9048 ORCHARD VALLEY RD, WEST BEND, WI, 53090",79555331,"R"
310306,"9049 ANDROMEDA DR","BURKE","VA",22015,38.782640395,-77.2594676909999,306,"9049 ANDROMEDA DR, BURKE, VA, 22015","Match","Exact","9049 ANDROMEDA DR, BURKE, VA, 22015",75975574,"L"
310307,"9049 CRYSTAL LAKE DRIVE","INDIANAPOLIS","IN",46240,39.9191686550001,-86.0914690289999,307,"9049 CRYSTAL LAKE DRIVE, INDIANAPOLIS, IN, 46240","Match","Exact","9049 CRYSTAL LAKE DR, INDIANAPOLIS, IN, 46240",108069013,"R"
310308,"9049 S ELIZABETH","CHICAGO","IL",60620,41.729545225,-87.654358673,308,"9049 S ELIZABETH, CHICAGO, IL, 60620","Match","Non_Exact","9049 S ELIZABETH ST, CHICAGO, IL, 60620",111831634,"L"
310309,"905 1/2 CALUMET AVE","VALPARAISO","IN",46383,41.4762773090001,-87.056495769,309,"905 1/2 CALUMET AVE, VALPARAISO, IN, 46383","Match","Non_Exact","905 N CALUMET AVE, VALPARAISO, IN, 46383",119913745,"L"
310310,"905 10TH ST","MUKILTEO","WA",98275,47.9409240740001,-122.298377764,310,"905 10TH ST, MUKILTEO, WA, 98275","Match","Exact","905 10TH ST, MUKILTEO, WA, 98275",187739341,"R"
310311,"905 14TH STREET","LAKEWOOD","NJ",8701,40.103786988,-74.2255493169999,311,"905 14TH STREET, LAKEWOOD, NJ, 8701","Match","Exact","905 14TH ST, LAKEWOOD, NJ, 08701",636226105,"L"
310312,"905 18TH STREET","SEAGRAVES","TX",79359,32.9504905800001,-102.569270747,312,"905 18TH STREET, SEAGRAVES, TX, 79359","Match","Exact","905 18TH ST, SEAGRAVES, TX, 79359",139487438,"L"
310313,"905 25TH ST NE","CANTON","OH",44714,40.8240000230001,-81.363097631,313,"905 25TH ST NE, CANTON, OH, 44714","Match","Exact","905 25TH ST NE, CANTON, OH, 44714",64679358,"L"
310314,"905 4TH AVENUE EXT","FARMVILLE","VA",23901,NA,NA,314,"905 4TH AVENUE EXT, FARMVILLE, VA, 23901","No_Match",NA,NA,NA,NA
310315,"905 ALDEN ROAD","ABERDEEN","WA",98520,46.981847456,-123.833781796,315,"905 ALDEN ROAD, ABERDEEN, WA, 98520","Match","Exact","905 ALDEN RD, ABERDEEN, WA, 98520",180581633,"R"
310316,"905 AMBER DR","NORCROSS","GA",30071,33.9364076530001,-84.1887059269999,316,"905 AMBER DR, NORCROSS, GA, 30071","Match","Exact","905 AMBER DR, NORCROSS, GA, 30071",88941408,"R"
310317,"905 ANGELAS CT","CALIFORNIA","MO",65018,NA,NA,317,"905 ANGELAS CT, CALIFORNIA, MO, 65018","No_Match",NA,NA,NA,NA
310318,"905 ANN COURT","BELLEVILLE","WI",53508,42.8740255820001,-89.538021773,318,"905 ANN COURT, BELLEVILLE, WI, 53508","Match","Exact","905 ANN CT, BELLEVILLE, WI, 53508",49497104,"L"
310319,"905 AUGUSTANA WAY","FAIRVIEW HEIGHTS","IL",62208,38.576763939,-89.972111242,319,"905 AUGUSTANA WAY, FAIRVIEW HEIGHTS, IL, 62208","Match","Exact","905 AUGUSTANA WAY, FAIRVIEW HTS, IL, 62208",635625411,"L"
310320,"905 AVE N NW","CHILDRESS","TX",79201,34.437489129,-100.209456153,320,"905 AVE N NW, CHILDRESS, TX, 79201","Match","Exact","905 AVE N NW, CHILDRESS, TX, 79201",164409279,"L"
310321,"905 AVIS DRAIVE","EL CERRITO","CA",94530,37.91262197,-122.298216463,321,"905 AVIS DRAIVE, EL CERRITO, CA, 94530","Match","Non_Exact","905 AVIS DR, EL CERRITO, CA, 94530",192043874,"L"
310322,"905 AYERS","MEMPHIS","TN",38107,35.164800174,-90.0272067179999,322,"905 AYERS, MEMPHIS, TN, 38107","Match","Non_Exact","905 AYERS ST, MEMPHIS, TN, 38107",72904151,"L"
310323,"905 BALFOUR ROAD","WEST MEMPHIS","AR",72301,35.1637335670001,-90.205198673,323,"905 BALFOUR ROAD, WEST MEMPHIS, AR, 72301","Match","Exact","905 BALFOUR RD, WEST MEMPHIS, AR, 72301",69371954,"L"
310324,"905 BARNES DRIVE","WATERFORD","WI",53185,NA,NA,324,"905 BARNES DRIVE, WATERFORD, WI, 53185","No_Match",NA,NA,NA,NA
310325,"905 BASIL ROAD","SWANSEA","SC",29160,33.725405944,-81.0375051239999,325,"905 BASIL ROAD, SWANSEA, SC, 29160","Match","Exact","905 BASIL RD, SWANSEA, SC, 29160",70045083,"R"
310326,"905 BATTLEFIELD TRAIL","CHATTANOOGA","TN",37409,35.00781484,-85.339100103,326,"905 BATTLEFIELD TRAIL, CHATTANOOGA, TN, 37409","Match","Exact","905 BATTLEFIELD TRL, CHATTANOOGA, TN, 37409",59311930,"L"
310327,"905 BERKSHIRE ROAD","ANN ARBOR","MI",48104,42.2706619510001,-83.720163785,327,"905 BERKSHIRE ROAD, ANN ARBOR, MI, 48104","Match","Exact","905 BERKSHIRE RD, ANN ARBOR, MI, 48104",26015365,"L"
310328,"905 BEVERLY DRIVE","FLORENCE","SC",29501,34.182411599,-79.7866220929999,328,"905 BEVERLY DRIVE, FLORENCE, SC, 29501","Match","Exact","905 BEVERLY DR, FLORENCE, SC, 29501",28878112,"R"
310329,"905 BLUE STORE RD","FORSYTH","GA",31029,33.074614673,-83.880724153,329,"905 BLUE STORE RD, FORSYTH, GA, 31029","Match","Exact","905 BLUE STORE RD, FORSYTH, GA, 31029",632662765,"R"
310330,"905 BLUFFVIEW ELEMENTARY","DUPO","IL",62239,38.515972542,-90.204651637,330,"905 BLUFFVIEW ELEMENTARY, DUPO, IL, 62239","Match","Non_Exact","905 BLUFFVIEW ELEMENTARY LN, DUPO, IL, 62239",107935440,"R"
310331,"905 BRICKELL BAY DR 1831","MIAMI","FL",33131,25.7644275160001,-80.189855296,331,"905 BRICKELL BAY DR 1831, MIAMI, FL, 33131","Match","Exact","905 BRICKELL BAY DR, MIAMI, FL, 33131",624579706,"L"
310332,"905 BROADWAY AVE","BREMERTON","WA",98337,47.5698969210001,-122.634270916,332,"905 BROADWAY AVE, BREMERTON, WA, 98337","Match","Exact","905 BROADWAY AVE, BREMERTON, WA, 98337",187642018,"L"
310333,"905 BUFFALO STREET","JOHNSON CITY","TN",37604,36.312534633,-82.350768198,333,"905 BUFFALO STREET, JOHNSON CITY, TN, 37604","Match","Exact","905 BUFFALO ST, JOHNSON CITY, TN, 37604",127937177,"L"
310334,"905 CALLE LIMON","AUSTIN","TX",78702,30.259391927,-97.6960746669999,334,"905 CALLE LIMON, AUSTIN, TX, 78702","Match","Non_Exact","905 CLL LIMON, AUSTIN, TX, 78702",63948169,"R"
310335,"905 CARDENAS DR NE","ALBUQUERQUE","NM",87108,35.086147694,-106.580082561,335,"905 CARDENAS DR NE, ALBUQUERQUE, NM, 87108","Match","Exact","905 CARDENAS DR NE, ALBUQUERQUE, NM, 87108",206716647,"L"
310336,"905 CARLYON AVE SE","OLYMPIA","WA",98501,47.0208909790001,-122.889922321,336,"905 CARLYON AVE SE, OLYMPIA, WA, 98501","Match","Exact","905 CARLYON AVE SE, OLYMPIA, WA, 98501",180964483,"R"
310337,"905 CATERPILLAR LANE","CANTONMENT","FL",32533,30.5759437300001,-87.259909923,337,"905 CATERPILLAR LANE, CANTONMENT, FL, 32533","Match","Exact","905 CATERPILLAR LN, CANTONMENT, FL, 32533",93281491,"R"
310338,"905 CATHERINE ST","RICHMOND","VA",23220,37.5525629270001,-77.4475339269999,338,"905 CATHERINE ST, RICHMOND, VA, 23220","Match","Non_Exact","905 W CATHERINE ST, RICHMOND, VA, 23220",201539040,"L"
310339,"905 CENTRAL AVE","UNION CITY","NJ",7087,40.758994925,-74.0413308619999,339,"905 CENTRAL AVE, UNION CITY, NJ, 7087","Match","Exact","905 CENTRAL AVE, UNION CITY, NJ, 07087",59597869,"L"
310340,"905 CHAMBERS ROAD","YORK","PA",17402,39.9503074520001,-76.662987405,340,"905 CHAMBERS ROAD, YORK, PA, 17402","Match","Exact","905 CHAMBERS RD, YORK, PA, 17402",88752974,"L"
310341,"905 CHARING CROSS","CAVE SPRINGS","AR",72718,36.2770478520001,-94.216717273,341,"905 CHARING CROSS, CAVE SPRINGS, AR, 72718","Match","Exact","905 CHARING CROSS, CAVE SPRINGS, AR, 72718",616216629,"R"
310342,"905 CHIPPEWA LANE","WILMETTE","IL",60091,42.0796866270001,-87.7398377059999,342,"905 CHIPPEWA LANE, WILMETTE, IL, 60091","Match","Exact","905 CHIPPEWA LN, WILMETTE, IL, 60091",111738712,"L"
310343,"905 CHURCH ST","DECATUR","TX",76234,NA,NA,343,"905 CHURCH ST, DECATUR, TX, 76234","Tie",NA,NA,NA,NA
310344,"905 CLEVELAND ST","DENTON","TX",76201,33.2062901250001,-97.1378849389999,344,"905 CLEVELAND ST, DENTON, TX, 76201","Match","Exact","905 CLEVELAND ST, DENTON, TX, 76201",103339089,"L"
310345,"905 COACHWAY","ANNAPOLIS","MD",21401,39.0182922860001,-76.5497160149999,345,"905 COACHWAY, ANNAPOLIS, MD, 21401","Match","Exact","905 COACHWAY, ANNAPOLIS, MD, 21401",68168617,"L"
310346,"905 COLUMBIA AVE","PALMYRA","NJ",8065,40.0005114430001,-75.0158353309999,346,"905 COLUMBIA AVE, PALMYRA, NJ, 8065","Match","Exact","905 COLUMBIA AVE, PALMYRA, NJ, 08065",134025086,"R"
310347,"905 COTATI TER UNIT 5","SUNNYVALE","CA",94085,NA,NA,347,"905 COTATI TER UNIT 5, SUNNYVALE, CA, 94085","No_Match",NA,NA,NA,NA
310348,"905 COUNTY ROAD 2311","TEXARKANA","TX",75503,NA,NA,348,"905 COUNTY ROAD 2311, TEXARKANA, TX, 75503","No_Match",NA,NA,NA,NA
310349,"905 CRISTELLE JEAN DR","RUSKIN","FL",33570,27.724615209,-82.414444213,349,"905 CRISTELLE JEAN DR, RUSKIN, FL, 33570","Match","Exact","905 CRISTELLE JEAN DR, RUSKIN, FL, 33570",625715451,"R"
310350,"905 CYPRESS STATION I14","HOUSTON","TX",77090,30.027192601,-95.441294704,350,"905 CYPRESS STATION I14, HOUSTON, TX, 77090","Match","Non_Exact","905 CYPRESS STATION DR, HOUSTON, TX, 77090",641789502,"L"
310351,"905 DAVIS AVE","CORNING","IA",50841,40.9909898540001,-94.734385435,351,"905 DAVIS AVE, CORNING, IA, 50841","Match","Exact","905 DAVIS AVE, CORNING, IA, 50841",638290075,"L"
310352,"905 DEAN WAY","FORT MYERS","FL",33919,26.5690227480001,-81.900547295,352,"905 DEAN WAY, FORT MYERS, FL, 33919","Match","Exact","905 DEAN WAY, FORT MYERS, FL, 33919",118025465,"L"
310353,"905 DOUGLAS STREET","SHELBY","MS",38774,33.951436008,-90.759728851,353,"905 DOUGLAS STREET, SHELBY, MS, 38774","Match","Non_Exact","905 N DOUGLAS ST, SHELBY, MS, 38774",836995,"R"
310354,"905 E 118TH TER","KANSAS CITY","MO",64131,38.9125023930001,-94.582478081,354,"905 E 118TH TER, KANSAS CITY, MO, 64131","Match","Exact","905 E 118TH TER, KANSAS CITY, MO, 64131",91491576,"R"
310355,"905 E 13TH AVE","DENVER","CO",80218,39.7368736380001,-104.976280781,355,"905 E 13TH AVE, DENVER, CO, 80218","Match","Exact","905 E 13TH AVE, DENVER, CO, 80218",613292882,"L"
310356,"905 E 90TH ST","LOS ANGELES","CA",90002,33.954725339,-118.258345797,356,"905 E 90TH ST, LOS ANGELES, CA, 90002","Match","Exact","905 E 90TH ST, LOS ANGELES, CA, 90002",141671342,"L"
310357,"905 E DANBURY DRIVE","DESOTO","TX",75115,32.5759468100001,-96.8776562469999,357,"905 E DANBURY DRIVE, DESOTO, TX, 75115","Match","Exact","905 DANBURY DR, DESOTO, TX, 75115",627984332,"R"
310358,"905 E JACKIE ROBINSON DRIVE","DURHAM","NC",27701,NA,NA,358,"905 E JACKIE ROBINSON DRIVE, DURHAM, NC, 27701","No_Match",NA,NA,NA,NA
310359,"905 E JACKIE ROBINSON DRIVE","DURHAM","NC",27707,NA,NA,359,"905 E JACKIE ROBINSON DRIVE, DURHAM, NC, 27707","No_Match",NA,NA,NA,NA
310360,"905 E RIVER ST","ANDERSON","SC",29624,34.4974699210001,-82.638669227,360,"905 E RIVER ST, ANDERSON, SC, 29624","Match","Exact","905 E RIVER ST, ANDERSON, SC, 29624",639312436,"L"
310361,"905 E SUMMERLINE STREET","BARTOW","FL",33830,27.8959986720001,-81.83420532,361,"905 E SUMMERLINE STREET, BARTOW, FL, 33830","Match","Non_Exact","905 E SUMMERLIN ST, BARTOW, FL, 33830",104820963,"R"
310362,"905 EAST 226TH STREET","BRONX","NY",10466,40.8865862550001,-73.853995428,362,"905 EAST 226TH STREET, BRONX, NY, 10466","Match","Exact","905 E 226TH ST, BRONX, NY, 10466",80297622,"L"
310363,"905 EAST ANDRE AVE","MT PLEASANT","MI",48858,43.609040167,-84.766220838,363,"905 EAST ANDRE AVE, MT PLEASANT, MI, 48858","Match","Exact","905 E ANDRE AVE, MOUNT PLEASANT, MI, 48858",110217646,"L"
310364,"905 EAST LAFAYETTE STREET","DOTHAN","AL",36301,31.219211393,-85.380200492,364,"905 EAST LAFAYETTE STREET, DOTHAN, AL, 36301","Match","Exact","905 E LAFAYETTE ST, DOTHAN, AL, 36301",101215812,"L"
310365,"905 EASTERN AVE","ROCKY MOUNT","NC",27801,35.936212932,-77.78367144,365,"905 EASTERN AVE, ROCKY MOUNT, NC, 27801","Match","Exact","905 EASTERN AVE, ROCKY MOUNT, NC, 27801",90176209,"L"
310366,"905 EDENBRIDGE HALL","FLORENCE","SC",29501,34.1721315670001,-79.8433303479999,366,"905 EDENBRIDGE HALL, FLORENCE, SC, 29501","Match","Non_Exact","905 S EDENBRIDGE HALL, FLORENCE, SC, 29501",623909914,"L"
310367,"905 FAIRBANKS CIR","DUNCANVILLE","TX",75137,32.644984041,-96.885204398,367,"905 FAIRBANKS CIR, DUNCANVILLE, TX, 75137","Match","Exact","905 FAIRBANKS CIR, DUNCANVILLE, TX, 75137",102990565,"L"
310368,"905 FAIRWAY LANE SE","IOWA CITY","IA",52240,41.6498309350001,-91.471830181,368,"905 FAIRWAY LANE SE, IOWA CITY, IA, 52240","Match","Exact","905 FAIRWAY LN SE, IOWA CITY, IA, 52240",638312719,"L"
310369,"905 FALLSCROFT WAY","LUTHERVILLE","MD",21093,39.443477655,-76.6799366389999,369,"905 FALLSCROFT WAY, LUTHERVILLE, MD, 21093","Match","Exact","905 FALLSCROFT WAY, LUTHERVILLE, MD, 21093",647285551,"L"
310370,"905 GARFIELD STREET","JACKSONVILLE","FL",32209,30.3348421040001,-81.7041691269999,370,"905 GARFIELD STREET, JACKSONVILLE, FL, 32209","Match","Exact","905 GARFIELD ST, JACKSONVILLE, FL, 32209",83894180,"R"
310371,"905 HARBOR LANDING","ROSWELL","GA",30076,34.0090680000001,-84.316864655,371,"905 HARBOR LANDING, ROSWELL, GA, 30076","Match","Exact","905 HARBOR LNDG, ROSWELL, GA, 30076",17418343,"L"
310372,"905 HARRISON ST SUITE 101","ALLENTOWN","PA",18103,40.593628923,-75.472252434,372,"905 HARRISON ST SUITE 101, ALLENTOWN, PA, 18103","Match","Exact","905 HARRISON ST, ALLENTOWN, PA, 18103",80770318,"R"
310373,"905 HARRISON STREET","ALLENTOWN","PA",18103,40.593628923,-75.472252434,373,"905 HARRISON STREET, ALLENTOWN, PA, 18103","Match","Exact","905 HARRISON ST, ALLENTOWN, PA, 18103",80770318,"R"
310374,"905 HOMEWOOD POINT APT 208","COLORADO SPRINGS","CO",80903,38.8326713060001,-104.807742818,374,"905 HOMEWOOD POINT APT 208, COLORADO SPRINGS, CO, 80903","Match","Exact","905 HOMEWOOD PT, COLORADO SPRINGS, CO, 80903",636091851,"L"
310375,"905 INDIANA AVENUE","LEMOYNE","PA",17043,40.245809921,-76.906843836,375,"905 INDIANA AVENUE, LEMOYNE, PA, 17043","Match","Exact","905 INDIANA AVE, LEMOYNE, PA, 17043",647963376,"R"
310376,"905 JOLIET STREET SUITE 201","DYER","IN",46311,41.4925681570001,-87.505439901,376,"905 JOLIET STREET SUITE 201, DYER, IN, 46311","Match","Exact","905 JOLIET ST, DYER, IN, 46311",639415984,"L"
310377,"905 KENT DRIVE","DOTHAN","AL",36303,31.2327537730001,-85.4334009469999,377,"905 KENT DRIVE, DOTHAN, AL, 36303","Match","Exact","905 KENT DR, DOTHAN, AL, 36303",101212676,"L"
310378,"905 KESWICH COURT","MADISON","MS",39110,32.467218991,-90.100159488,378,"905 KESWICH COURT, MADISON, MS, 39110","Match","Exact","905 KESWICH CT, MADISON, MS, 39110",632718028,"R"
310379,"905 LAKE LILY DRIVE C241","MAITLAND","FL",32751,28.6204061390001,-81.3655985949999,379,"905 LAKE LILY DRIVE C241, MAITLAND, FL, 32751","Match","Exact","905 LAKE LILY DR, MAITLAND, FL, 32751",645601205,"R"
310380,"905 LASSEN STREET","VALLEJO","CA",94591,38.108502452,-122.226524167,380,"905 LASSEN STREET, VALLEJO, CA, 94591","Match","Exact","905 LASSEN ST, VALLEJO, CA, 94591",192528472,"L"
310381,"905 LESSEL DRIVE","JACKSONVILLE","AR",72076,34.8820010850001,-92.119562087,381,"905 LESSEL DRIVE, JACKSONVILLE, AR, 72076","Match","Exact","905 LESSEL DR, JACKSONVILLE, AR, 72076",83533726,"R"
310382,"905 LICHTE DRIVE","MAZOMANIE","WI",53560,43.165223209,-89.806885182,382,"905 LICHTE DRIVE, MAZOMANIE, WI, 53560","Match","Exact","905 LICHTE DR, MAZOMANIE, WI, 53560",49496168,"L"
310383,"905 LINCOLN ST SE","BONDURANT","IA",50035,41.6952221540001,-93.4603342679999,383,"905 LINCOLN ST SE, BONDURANT, IA, 50035","Match","Exact","905 LINCOLN ST SE, BONDURANT, IA, 50035",65802076,"L"
310384,"905 LORELEI DRIVE","ZION","IL",60099,42.478305864,-87.8697312479999,384,"905 LORELEI DRIVE, ZION, IL, 60099","Match","Exact","905 LORELEI DR, ZION, IL, 60099",119625495,"L"
310385,"905 LYNN ST","TIPTON","IA",52772,41.774476663,-91.129797491,385,"905 LYNN ST, TIPTON, IA, 52772","Match","Exact","905 LYNN ST, TIPTON, IA, 52772",16713548,"L"
310386,"905 MAIN STREET","WILLIMANTIC","CT",6226,41.712623959,-72.216050842,386,"905 MAIN STREET, WILLIMANTIC, CT, 6226","Match","Exact","905 MAIN ST, WILLIMANTIC, CT, 06226",56441624,"R"
310387,"905 MOLINE ST","AURORA","CO",80010,39.729602497,-104.854739793,387,"905 MOLINE ST, AURORA, CO, 80010","Match","Exact","905 MOLINE ST, AURORA, CO, 80010",177353409,"L"
310388,"905 N BROADWAY","FERGUS FALLS","MN",56537,46.291879576,-96.084222562,388,"905 N BROADWAY, FERGUS FALLS, MN, 56537","Match","Exact","905 N BROADWAY, FERGUS FALLS, MN, 56537",168288563,"L"
310389,"905 N CONWAY AVE","MISSION","TX",78572,26.21504658,-98.3258901359999,389,"905 N CONWAY AVE, MISSION, TX, 78572","Match","Exact","905 N CONWAY AVE, MISSION, TX, 78572",634010822,"L"
310390,"905 N GRANITE DRIVE","PAYSON","AZ",85541,34.2535576710001,-111.314338143,390,"905 N GRANITE DRIVE, PAYSON, AZ, 85541","Match","Exact","905 N GRANITE DR, PAYSON, AZ, 85541",159321849,"R"
310391,"905 N HAMPTON DR","DAVENPORT","FL",33897,28.3094843690001,-81.6721901069999,391,"905 N HAMPTON DR, DAVENPORT, FL, 33897","Match","Exact","905 N HAMPTON DR, DAVENPORT, FL, 33897",104938803,"L"
310392,"905 N HWY 69","HUXLEY","IA",50124,NA,NA,392,"905 N HWY 69, HUXLEY, IA, 50124","No_Match",NA,NA,NA,NA
310393,"905 N MAIN STREET","NAPERVILLE","IL",60563,41.7858711820001,-88.148589839,393,"905 N MAIN STREET, NAPERVILLE, IL, 60563","Match","Exact","905 N MAIN ST, NAPERVILLE, IL, 60563",112528541,"L"
310394,"905 N OAKWOOD","ENID","OK",73703,36.405392066,-97.925868027,394,"905 N OAKWOOD, ENID, OK, 73703","Match","Non_Exact","905 N OAKWOOD RD, ENID, OK, 73703",606382129,"R"
310395,"905 N PRICE LANE","CLINTON","MO",64735,38.3787421980001,-93.757717876,395,"905 N PRICE LANE, CLINTON, MO, 64735","Match","Exact","905 PRICE LN, CLINTON, MO, 64735",44950617,"L"
310396,"905 NC HWY 581 NORTH","GOLDSBORO","NC",27530,35.402670447,-78.067666946,396,"905 NC HWY 581 NORTH, GOLDSBORO, NC, 27530","Match","Non_Exact","905 STATE HWY 581 S, GOLDSBORO, NC, 27530",14414824,"L"
310397,"905 NE 209 STREET APT 202","MIAMI","FL",33179,25.9687828150001,-80.183691806,397,"905 NE 209 STREET APT 202, MIAMI, FL, 33179","Match","Non_Exact","905 NE 209TH ST, MIAMI, FL, 33179",116312105,"L"
310398,"905 NOLAN BLVD","MADISON","AL",35758,34.7078390500001,-86.728106161,398,"905 NOLAN BLVD, MADISON, AL, 35758","Match","Exact","905 NOLAN BLVD, MADISON, AL, 35758",58113800,"R"
310399,"905 NORTH CLAY AVENUE","JACKSONVILLE","IL",62650,39.7428696320001,-90.22439903,399,"905 NORTH CLAY AVENUE, JACKSONVILLE, IL, 62650","Match","Exact","905 N CLAY AVE, JACKSONVILLE, IL, 62650",81431819,"L"
310400,"905 NUECES STREET","AUSTIN","TX",78701,30.2725547430001,-97.7473439779999,400,"905 NUECES STREET, AUSTIN, TX, 78701","Match","Exact","905 NUECES ST, AUSTIN, TX, 78701",63943272,"R"
310401,"905 NW 192ND TERRACE","EDMOND","OK",73012,35.6674727070001,-97.5312111059999,401,"905 NW 192ND TERRACE, EDMOND, OK, 73012","Match","Non_Exact","905 NW 192ND ST, EDMOND, OK, 73012",627760306,"R"
310402,"905 OVILLA OAKS DRIVE","OVILLA","TX",75154,32.510760395,-96.884050482,402,"905 OVILLA OAKS DRIVE, OVILLA, TX, 75154","Match","Exact","905 OVILLA OAKS DR, OVILLA, TX, 75154",103473720,"L"
310403,"905 PARK AVENUE EAST","LADYSMITH","WI",54848,45.4709456090001,-91.0904588659999,403,"905 PARK AVENUE EAST, LADYSMITH, WI, 54848","Match","Exact","905 PARK AVE E, LADYSMITH, WI, 54848",126538921,"L"
310404,"905 PARK AVENUE EAST","LADYSMTIH","WI",54848,45.4709456090001,-91.0904588659999,404,"905 PARK AVENUE EAST, LADYSMTIH, WI, 54848","Match","Non_Exact","905 PARK AVE E, LADYSMITH, WI, 54848",126538921,"L"
310405,"905 PAULETTE DR","DEERPARK","TX",77536,29.6874329020001,-95.11543994,405,"905 PAULETTE DR, DEERPARK, TX, 77536","Match","Non_Exact","905 PAULETTE DR, DEER PARK, TX, 77536",96106303,"R"
310406,"905 PEBBLESTONE STONE DRIVE","DURHAM","NC",27703,36.0093721490001,-78.80573015,406,"905 PEBBLESTONE STONE DRIVE, DURHAM, NC, 27703","Match","Non_Exact","905 PEBBLESTONE DR, DURHAM, NC, 27703",71785664,"L"
310407,"905 PENNSYLVANIA AVENUE","LYNN HAVEN","FL",32444,30.2451323170001,-85.6474871089999,407,"905 PENNSYLVANIA AVENUE, LYNN HAVEN, FL, 32444","Match","Exact","905 PENNSYLVANIA AVE, LYNN HAVEN, FL, 32444",7027319,"L"
310408,"905 PINKSTON STREET","GRANDVIEW","MO",64030,38.8862097620001,-94.5348923079999,408,"905 PINKSTON STREET, GRANDVIEW, MO, 64030","Match","Exact","905 PINKSTON ST, GRANDVIEW, MO, 64030",91477002,"R"
310409,"905 POQUOSON CROSSING","CHESAPEAKE","VA",23320,36.7472117550001,-76.207796603,409,"905 POQUOSON CROSSING, CHESAPEAKE, VA, 23320","Match","Exact","905 POQUOSON CROSSING, CHESAPEAKE, VA, 23320",121794489,"R"
310410,"905 PRINCESS ANNE STREET","FREDERICKSBURG","VA",22401,38.3024340420001,-77.460099812,410,"905 PRINCESS ANNE STREET, FREDERICKSBURG, VA, 22401","Match","Exact","905 PRINCESS ANNE ST, FREDERICKSBURG, VA, 22401",647931970,"R"
310411,"905 RED DEER DRIVE","EULESS","TX",76039,32.849290436,-97.0676763449999,411,"905 RED DEER DRIVE, EULESS, TX, 76039","Match","Exact","905 RED DEER DR, EULESS, TX, 76039",650155257,"L"
310412,"905 ROBINBROOK LN","WAXHAW","NC",28173,35.013867491,-80.792472139,412,"905 ROBINBROOK LN, WAXHAW, NC, 28173","Match","Exact","905 ROBINBROOK LN, WAXHAW, NC, 28173",14198358,"R"
310413,"905 ROSEBUD AVE","TWIN LAKES","WI",53181,42.524292502,-88.2647483439999,413,"905 ROSEBUD AVE, TWIN LAKES, WI, 53181","Match","Exact","905 ROSEBUD AVE, TWIN LAKES, WI, 53181",636696784,"L"
310414,"905 ROWLEY ST","WALKER","IA",52352,42.286655728,-91.774849678,414,"905 ROWLEY ST, WALKER, IA, 52352","Match","Exact","905 ROWLEY ST, WALKER, IA, 52352",17010721,"L"
310415,"905 ROYAL OAK DRIVE","ST MARYS","OH",45885,40.5480008960001,-84.412811571,415,"905 ROYAL OAK DRIVE, ST MARYS, OH, 45885","Match","Exact","905 ROYAL OAK DR, SAINT MARYS, OH, 45885",36420400,"L"
310416,"905 S BOSTWICK","CHARLOTTE","MI",48813,NA,NA,416,"905 S BOSTWICK, CHARLOTTE, MI, 48813","No_Match",NA,NA,NA,NA
310417,"905 S GOODWIN AVE 450 BEVIER HALL","URBANA","IL",61801,NA,NA,417,"905 S GOODWIN AVE 450 BEVIER HALL, URBANA, IL, 61801","Tie",NA,NA,NA,NA
310418,"905 S MELODY LANE","TEMPE","AZ",85281,33.4214662800001,-111.905457165,418,"905 S MELODY LANE, TEMPE, AZ, 85281","Match","Exact","905 S MELODY LN, TEMPE, AZ, 85281",128349398,"L"
310419,"905 S PRAIRIE AVENUE SUITE B","INGLEWOOD","CA",90301,33.952362877,-118.34393956,419,"905 S PRAIRIE AVENUE SUITE B, INGLEWOOD, CA, 90301","Match","Non_Exact","905 S PRAIRIE AVE, INGLEWOOD, CA, 90301",241242550,"R"
310420,"905 SHAMROCK LANE","WATERTOWN","WI",53094,43.1823908050001,-88.7524184069999,420,"905 SHAMROCK LANE, WATERTOWN, WI, 53094","Match","Exact","905 SHAMROCK LN, WATERTOWN, WI, 53094",53251096,"R"
310421,"905 SHEEHY DRIVE","HORSHAM","PA",19044,40.199689386,-75.1719163349999,421,"905 SHEEHY DRIVE, HORSHAM, PA, 19044","Match","Exact","905 SHEEHY DR, HORSHAM, PA, 19044",135130237,"R"
310422,"905 SHELBY LANE","LEWISVILLE","TX",75056,33.0637708260001,-96.9137676,422,"905 SHELBY LANE, LEWISVILLE, TX, 75056","Match","Exact","905 SHELBY LN, LEWISVILLE, TX, 75056",614165548,"L"
310423,"905 SHOO FLY RD","NEW BERN","NC",28560,35.1930649120001,-77.0219473619999,423,"905 SHOO FLY RD, NEW BERN, NC, 28560","Match","Exact","905 SHOO FLY RD, NEW BERN, NC, 28560",34152762,"L"
310424,"905 SOUTH PIKE STREET","SHELBYVILLE","IN",46176,39.517154781,-85.774854496,424,"905 SOUTH PIKE STREET, SHELBYVILLE, IN, 46176","Match","Exact","905 S PIKE ST, SHELBYVILLE, IN, 46176",33228841,"L"
310425,"905 SOUTHWIND CT","MURRELLS INLET","SC",29576,33.5913568770001,-79.0024771609999,425,"905 SOUTHWIND CT, MURRELLS INLET, SC, 29576","Match","Exact","905 SOUTHWIND CT, MURRELLS INLET, SC, 29576",29072883,"L"
310426,"905 SPRING STREET - B","PLACERVILLE","CA",95667,38.731873088,-120.803103812,426,"905 SPRING STREET - B, PLACERVILLE, CA, 95667","Match","Exact","905 SPRING ST, PLACERVILLE, CA, 95667",133025695,"L"
310427,"905 STEWART ST","ATLANTA","TX",75551,33.1297004730001,-94.1691601479999,427,"905 STEWART ST, ATLANTA, TX, 75551","Match","Exact","905 STEWART ST, ATLANTA, TX, 75551",57052580,"R"
310428,"905 SUBURBAN AVE","MADERA","CA",93637,36.963324039,-120.10054283,428,"905 SUBURBAN AVE, MADERA, CA, 93637","Match","Exact","905 SUBURBAN AVE, MADERA, CA, 93637",102358118,"L"
310429,"905 SUMMERCHASE DR","DULUTH","GA",30096,33.991064555,-84.171591297,429,"905 SUMMERCHASE DR, DULUTH, GA, 30096","Match","Exact","905 SUMMERCHASE DR, DULUTH, GA, 30096",88941330,"R"
310430,"905 SUNSET RD W","BRENTWOOD","TN",37027,36.003235067,-86.7391492799999,430,"905 SUNSET RD W, BRENTWOOD, TN, 37027","Match","Non_Exact","905 SUNSET RD, BRENTWOOD, TN, 37027",634037704,"L"
310431,"905 SUTHERLAND DR","SAINT ALBANS","WV",25177,38.375185666,-81.8247660929999,431,"905 SUTHERLAND DR, SAINT ALBANS, WV, 25177","Match","Exact","905 SUTHERLAND DR, SAINT ALBANS, WV, 25177",78583784,"R"
310432,"905 SW 11TH TERRACE","DELRAY BEACH","FL",33444,26.447979097,-80.085066556,432,"905 SW 11TH TERRACE, DELRAY BEACH, FL, 33444","Match","Exact","905 SW 11TH TER, DELRAY BEACH, FL, 33444",115291123,"L"
310433,"905 SW 15 STREET","POMPANO BEACH","FL",33060,26.2107767840001,-80.135926953,433,"905 SW 15 STREET, POMPANO BEACH, FL, 33060","Match","Exact","905 SW 15TH ST, POMPANO BEACH, FL, 33060",640881515,"R"
310434,"905 SW 9TH TERRACE","FORT LAUDERDALE","FL",33315,26.1107127940001,-80.154164378,434,"905 SW 9TH TERRACE, FORT LAUDERDALE, FL, 33315","Match","Exact","905 SW 9TH TER, FORT LAUDERDALE, FL, 33315",114727069,"R"
310435,"905 SWINGING BRIDGE ROAD","OLD HICKORY","TN",37138,36.283183912,-86.676819474,435,"905 SWINGING BRIDGE ROAD, OLD HICKORY, TN, 37138","Match","Exact","905 SWINGING BRIDGE RD, OLD HICKORY, TN, 37138",97219972,"R"
310436,"905 TINTON AVENUE APT 9E","BRONX","NY",10456,40.8213751640001,-73.9036844679999,436,"905 TINTON AVENUE APT 9E, BRONX, NY, 10456","Match","Exact","905 TINTON AVE, BRONX, NY, 10456",80302018,"L"
310437,"905 TWIN HILLS DR","BANNING","CA",92220,33.9191503800001,-116.932143863,437,"905 TWIN HILLS DR, BANNING, CA, 92220","Match","Exact","905 TWIN HILLS DR, BANNING, CA, 92220",195046459,"R"
310438,"905 TWIN PINES DRIVE","MADISON","WI",53704,43.1100797880001,-89.293468742,438,"905 TWIN PINES DRIVE, MADISON, WI, 53704","Match","Exact","905 TWIN PINES DR, MADISON, WI, 53704",49499433,"L"
310439,"905 UNIVERSITY DR","PONTIAC","MI",48342,42.6529979220001,-83.265543741,439,"905 UNIVERSITY DR, PONTIAC, MI, 48342","Match","Exact","905 UNIVERSITY DR, PONTIAC, MI, 48342",69705176,"L"
310440,"905 VANDERBILT DRIVE","NORMAL","IL",61761,40.5278640990001,-88.974159765,440,"905 VANDERBILT DRIVE, NORMAL, IL, 61761","Match","Exact","905 VANDERBILT DR, NORMAL, IL, 61761",20577556,"L"
310441,"905 VENTURA WAY","MILL VALLEY","CA",94941,37.8873390360001,-122.537165841,441,"905 VENTURA WAY, MILL VALLEY, CA, 94941","Match","Exact","905 VENTURA WAY, MILL VALLEY, CA, 94941",605774969,"L"
310442,"905 VIA AVENIDA","MESQUITE","TX",75150,32.8276852290001,-96.609618811,442,"905 VIA AVENIDA, MESQUITE, TX, 75150","Match","Exact","905 VIA AVENIDA, MESQUITE, TX, 75150",102933040,"R"
310443,"905 VISTA VERDE WAY","BAKERSFIELD","CA",93309,35.348437593,-119.083203297,443,"905 VISTA VERDE WAY, BAKERSFIELD, CA, 93309","Match","Exact","905 VISTA VERDE WAY, BAKERSFIELD, CA, 93309",109084850,"R"
310444,"905 W 86TH STREET","CHICAGO","IL",60620,41.7378432680001,-87.64659525,444,"905 W 86TH STREET, CHICAGO, IL, 60620","Match","Exact","905 W 86TH ST, CHICAGO, IL, 60620",605521970,"L"
310445,"905 W ACADEMY","MAIZE","KS",67101,NA,NA,445,"905 W ACADEMY, MAIZE, KS, 67101","No_Match",NA,NA,NA,NA
310446,"905 W BROADWAY ST","LOOGOOTEE","IN",47553,38.6667745240001,-86.917885325,446,"905 W BROADWAY ST, LOOGOOTEE, IN, 47553","Match","Exact","905 W BROADWAY ST, LOOGOOTEE, IN, 47553",32108043,"R"
310447,"905 W DECATUR STREET","BROKEN ARROW","OK",74011,35.981471852,-95.799477718,447,"905 W DECATUR STREET, BROKEN ARROW, OK, 74011","Match","Exact","905 W DECATUR ST, BROKEN ARROW, OK, 74011",166465040,"R"
310448,"905 W EISENHOWER CIRCLE SUITE 108","ANN ARBOR","MI",48103,NA,NA,448,"905 W EISENHOWER CIRCLE SUITE 108, ANN ARBOR, MI, 48103","No_Match",NA,NA,NA,NA
310449,"905 W ELEVEN MILE","MADISON HEIGHTS","MI",48071,42.490606459,-83.1148086329999,449,"905 W ELEVEN MILE, MADISON HEIGHTS, MI, 48071","Match","Non_Exact","905 W 11 MILE RD, MADISON HEIGHTS, MI, 48071",69806874,"R"
310450,"905 W LILY CACHE LANE","BOLINGBROOK","IL",60440,41.6900636670001,-88.107437324,450,"905 W LILY CACHE LANE, BOLINGBROOK, IL, 60440","Match","Exact","905 LILY CACHE LN, BOLINGBROOK, IL, 60440",111583056,"L"
310451,"905 W MAIN STREET","GRAND LEDGE","MI",48837,42.761504315,-84.755095039,451,"905 W MAIN STREET, GRAND LEDGE, MI, 48837","Match","Exact","905 W MAIN ST, GRAND LEDGE, MI, 48837",624676486,"R"
310452,"905 W MIDDLEFIELD RD APT 966","MOUNTAIN VIEW","CA",94043,NA,NA,452,"905 W MIDDLEFIELD RD APT 966, MOUNTAIN VIEW, CA, 94043","Tie",NA,NA,NA,NA
310453,"905 W PALMER ST","ABINGDON","IL",61410,40.802537735,-90.413871477,453,"905 W PALMER ST, ABINGDON, IL, 61410","Match","Exact","905 W PALMER ST, ABINGDON, IL, 61410",9044219,"L"
310454,"905 W POPLAR STREET","COMPTON","CA",90220,33.900008341,-118.240193308,454,"905 W POPLAR STREET, COMPTON, CA, 90220","Match","Exact","905 W POPLAR ST, COMPTON, CA, 90220",141674912,"R"
310455,"905 WATERTON AVE","MYRTLE BEACH","SC",29579,33.7340158210001,-78.886438515,455,"905 WATERTON AVE, MYRTLE BEACH, SC, 29579","Match","Exact","905 WATERTON AVE, MYRTLE BEACH, SC, 29579",631828471,"R"
310456,"905 WEST 18TH STREET","PORTALES","NM",88130,34.171296365,-103.342021288,456,"905 WEST 18TH STREET, PORTALES, NM, 88130","Match","Exact","905 W 18TH ST, PORTALES, NM, 88130",163904038,"L"
310457,"905 WEST 2325 SOUTH","PERRY","UT",84302,41.4682480590001,-112.03588,457,"905 WEST 2325 SOUTH, PERRY, UT, 84302","Match","Exact","905 W 2325 S, PERRY, UT, 84302",624276102,"L"
310458,"905 WEST DADE 56","LOCKWOOD","MO",65682,NA,NA,458,"905 WEST DADE 56, LOCKWOOD, MO, 65682","No_Match",NA,NA,NA,NA
310459,"905 WEST EDGEWOOD DRIVE","FRIENDSWOOD","TX",77546,29.522627895,-95.217870311,459,"905 WEST EDGEWOOD DRIVE, FRIENDSWOOD, TX, 77546","Match","Exact","905 W EDGEWOOD DR, FRIENDSWOOD, TX, 77546",96681491,"L"
310460,"905 WEST EISENHOWER SUITE 108","ANN ARBOR","MI",48103,NA,NA,460,"905 WEST EISENHOWER SUITE 108, ANN ARBOR, MI, 48103","No_Match",NA,NA,NA,NA
310461,"905 WEST THORNBURGH STREET","WEST PLAINS","MO",65775,36.7375614630001,-91.861117373,461,"905 WEST THORNBURGH STREET, WEST PLAINS, MO, 65775","Match","Exact","905 W THORNBURGH ST, WEST PLAINS, MO, 65775",627116405,"L"
310462,"905 WHITE DOVE DRIVE","ARLINGTON","TX",76017,32.6525692270001,-97.121332179,462,"905 WHITE DOVE DRIVE, ARLINGTON, TX, 76017","Match","Exact","905 WHITE DOVE DR, ARLINGTON, TX, 76017",102115083,"L"
310463,"905 WILDFLOWER RIDGE ROAD","WAKE FOREST","NC",27587,35.979570116,-78.492435313,463,"905 WILDFLOWER RIDGE ROAD, WAKE FOREST, NC, 27587","Match","Exact","905 WILDFLOWER RIDGE RD, WAKE FOREST, NC, 27587",642408127,"R"
310464,"905 WIND RIVER ST SE","ALBUQUERQUE","NM",87123,35.0603151820001,-106.519038266,464,"905 WIND RIVER ST SE, ALBUQUERQUE, NM, 87123","Match","Exact","905 WIND RIVER ST SE, ALBUQUERQUE, NM, 87123",206742850,"L"
310465,"905 WIND RIVER STREET SE","ALBUQUERQUE","NM",87123,35.0603151820001,-106.519038266,465,"905 WIND RIVER STREET SE, ALBUQUERQUE, NM, 87123","Match","Exact","905 WIND RIVER ST SE, ALBUQUERQUE, NM, 87123",206742850,"L"
310466,"905 WREN SCHOOL RD","PIEDMONT","SC",29673,34.7214185720001,-82.543562129,466,"905 WREN SCHOOL RD, PIEDMONT, SC, 29673","Match","Exact","905 WREN SCHOOL RD, PIEDMONT, SC, 29673",25475715,"L"
310467,"9050 160TH LANE NW","RAMSEY","MN",55303,45.2619924030001,-93.49636864,467,"9050 160TH LANE NW, RAMSEY, MN, 55303","Match","Exact","9050 160TH LN NW, RAMSEY, MN, 55303",97512012,"R"
310468,"9050 CHURCH STREET","TWINSBURG","OH",44087,41.312678593,-81.441633999,468,"9050 CHURCH STREET, TWINSBURG, OH, 44087","Match","Exact","9050 CHURCH ST, TWINSBURG, OH, 44087",61364039,"L"
310469,"9050 IRON HORSE LANE 119","PIKESVILLE","MD",21208,39.395250994,-76.7492495289999,469,"9050 IRON HORSE LANE 119, PIKESVILLE, MD, 21208","Match","Exact","9050 IRON HORSE LN, PIKESVILLE, MD, 21208",640098967,"R"
310470,"9050 KEATON CREEK DR","VILLA RICA","GA",30180,33.695346602,-84.871934262,470,"9050 KEATON CREEK DR, VILLA RICA, GA, 30180","Match","Exact","9050 KEATON CREEK DR, VILLA RICA, GA, 30180",619515713,"R"
310471,"9050 KRAFT AVE","CALEDONIA","MI",49316,42.800283951,-85.5267811099999,471,"9050 KRAFT AVE, CALEDONIA, MI, 49316","Match","Non_Exact","9050 KRAFT AVE SE, CALEDONIA, MI, 49316",650576307,"L"
310472,"9050 MARKVILLE DR APT 434","DALLAS","TX",75243,32.913574253,-96.747770552,472,"9050 MARKVILLE DR APT 434, DALLAS, TX, 75243","Match","Exact","9050 MARKVILLE DR, DALLAS, TX, 75243",103247836,"R"
310473,"9050 MCNOUN RD","WINCHESTER","OH",45697,38.888844147,-83.748285454,473,"9050 MCNOUN RD, WINCHESTER, OH, 45697","Match","Exact","9050 MCNOUN RD, WINCHESTER, OH, 45697",606301776,"R"
310474,"9050 PINES BLVD SUITE 383","PEMBROKE PINES","FL",33029,NA,NA,474,"9050 PINES BLVD SUITE 383, PEMBROKE PINES, FL, 33029","No_Match",NA,NA,NA,NA
310475,"9050 S RICHMOND AVE","EVERGREEN PARK","IL",60805,41.728976254,-87.695889624,475,"9050 S RICHMOND AVE, EVERGREEN PARK, IL, 60805","Match","Non_Exact","9050 S RICHMOND ST, EVERGREEN PARK, IL, 60805",111820139,"R"
310476,"9050 SEWARD PARK AVE BOX 44","SEATTE","WA",98118,47.5220674130001,-122.264435842,476,"9050 SEWARD PARK AVE BOX 44, SEATTE, WA, 98118","Match","Non_Exact","9050 SEWARD PARK AVE S, SEATTLE, WA, 98118",186998205,"L"
310477,"9050 VICINO DRIVE","ELK GROVE","CA",95758,38.4293822720001,-121.426788403,477,"9050 VICINO DRIVE, ELK GROVE, CA, 95758","Match","Exact","9050 VICINO DR, ELK GROVE, CA, 95758",133382497,"R"
310478,"9051 CATTARAUGUS AVENUE APT 3","LOS ANGELES","CA",90034,34.0350837730001,-118.390210859,478,"9051 CATTARAUGUS AVENUE APT 3, LOS ANGELES, CA, 90034","Match","Exact","9051 CATTARAUGUS AVE, LOS ANGELES, CA, 90034",141574673,"R"
310479,"9051 MANSFIELD RD BLD E STE 2","SHREVEPORT","LA",71118,32.407868744,-93.798383223,479,"9051 MANSFIELD RD BLD E STE 2, SHREVEPORT, LA, 71118","Match","Exact","9051 MANSFIELD RD, SHREVEPORT, LA, 71118",57487817,"L"
310480,"9051 MANSFIELD ROAD BLDG B SUITE 5","SHREVEPORT","LA",71118,32.407868744,-93.798383223,480,"9051 MANSFIELD ROAD BLDG B SUITE 5, SHREVEPORT, LA, 71118","Match","Exact","9051 MANSFIELD RD, SHREVEPORT, LA, 71118",57487817,"L"
310481,"9051 N 72ND DR","PEORIA","AZ",85345,33.567709021,-112.215340324,481,"9051 N 72ND DR, PEORIA, AZ, 85345","Match","Exact","9051 N 72ND DR, PEORIA, AZ, 85345",128192051,"R"
310482,"9051 OASIS AVE","WESTMINSTER","CA",92683,33.75636889,-117.971073284,482,"9051 OASIS AVE, WESTMINSTER, CA, 92683","Match","Exact","9051 OASIS AVE, WESTMINSTER, CA, 92683",144016641,"L"
310483,"9051 RANDOLPH CIRCLE","BEALETON","VA",22712,38.5883238810001,-77.7738157209999,483,"9051 RANDOLPH CIRCLE, BEALETON, VA, 22712","Match","Exact","9051 RANDOLPH CIR, BEALETON, VA, 22712",650626993,"R"
310484,"9051 RED BRANCH RD STE N","COLUMBIA","MD",21045,39.229263373,-76.8181843249999,484,"9051 RED BRANCH RD STE N, COLUMBIA, MD, 21045","Match","Exact","9051 RED BRANCH RD, COLUMBIA, MD, 21045",158962092,"L"
310485,"9051 SHADY ELM LANE","OLMSTED TOWNSHIP","OH",44138,41.3618384690001,-81.94178955,485,"9051 SHADY ELM LANE, OLMSTED TOWNSHIP, OH, 44138","Match","Exact","9051 SHADY ELM LN, OLMSTED TWP, OH, 44138",651580352,"L"
310486,"9051 WATSON RD STE 331","SAINT LOUIS","MO",63126,NA,NA,486,"9051 WATSON RD STE 331, SAINT LOUIS, MO, 63126","No_Match",NA,NA,NA,NA
310487,"9052 140TH AVE SE","NEWCASTLE","WA",98059,47.5204684920001,-122.154020248,487,"9052 140TH AVE SE, NEWCASTLE, WA, 98059","Match","Exact","9052 140TH AVE SE, NEWCASTLE, WA, 98059",187054439,"R"
310488,"9052 BIG PLANTATION AVE","LAS VEGAS","NV",89143,36.3171925730001,-115.293511538,488,"9052 BIG PLANTATION AVE, LAS VEGAS, NV, 89143","Match","Exact","9052 BIG PLANTATION AVE, LAS VEGAS, NV, 89143",613020695,"R"
310489,"9053 ESTATE THOMAS STE 101","ST THOMAS","VI",802,NA,NA,489,"9053 ESTATE THOMAS STE 101, ST THOMAS, VI, 802","No_Match",NA,NA,NA,NA
310490,"9053 ESTATE THOMAS SUITE 101","ST THOMAS","VI",802,NA,NA,490,"9053 ESTATE THOMAS SUITE 101, ST THOMAS, VI, 802","No_Match",NA,NA,NA,NA
310491,"9053 ESTATE THOMAS SUITE 101","ST. THOMAS","VI",802,NA,NA,491,"9053 ESTATE THOMAS SUITE 101, ST. THOMAS, VI, 802","No_Match",NA,NA,NA,NA
310492,"9053 ESTATE THOMAS SUITE 103","SAINT THOMAS","VI",802,NA,NA,492,"9053 ESTATE THOMAS SUITE 103, SAINT THOMAS, VI, 802","No_Match",NA,NA,NA,NA
310493,"9053 OLD HIGHWAY 52","WESTMORELANDT","TN",37186,36.534756546,-86.18588936,493,"9053 OLD HIGHWAY 52, WESTMORELANDT, TN, 37186","Match","Non_Exact","9053 OLD HWY 52, WESTMORELAND, TN, 37186",636642878,"L"
310494,"9053 STATE ROAD Y","DITTMER","MO",63023,NA,NA,494,"9053 STATE ROAD Y, DITTMER, MO, 63023","No_Match",NA,NA,NA,NA
310495,"9054 TRUMPS HILL ROAD","UPPER MARLBORO","MD",20772,38.764610266,-76.802258678,495,"9054 TRUMPS HILL ROAD, UPPER MARLBORO, MD, 20772","Match","Exact","9054 TRUMPS HILL RD, UPPER MARLBORO, MD, 20772",648109051,"L"
310496,"9054 WILVERNE","WINDHAM","OH",44288,41.2384597600001,-81.037417552,496,"9054 WILVERNE, WINDHAM, OH, 44288","Match","Non_Exact","9054 WILVERNE DR, WINDHAM, OH, 44288",137520528,"R"
310497,"9055 16TH PLACE  UNIT C","VERO BEACH","FL",32966,27.6336568900001,-80.513006288,497,"9055 16TH PLACE  UNIT C, VERO BEACH, FL, 32966","Match","Exact","9055 16TH PL, VERO BEACH, FL, 32966",120316955,"R"
310498,"9055 BABER DRIVE","MANASSAS","VA",20112,38.7023690520001,-77.4716911199999,498,"9055 BABER DRIVE, MANASSAS, VA, 20112","Match","Exact","9055 BABER DR, MANASSAS, VA, 20112",76518251,"R"
310499,"9055 LAKEVIEW DRIVE","OLMSTED FALLS","OH",44138,41.359763844,-81.93141767,499,"9055 LAKEVIEW DRIVE, OLMSTED FALLS, OH, 44138","Match","Non_Exact","9055 LAKE VIEW DR, OLMSTED FALLS, OH, 44138",61152425,"R"
310500,"9055 NW 44TH COURT","CORAL SPRINGS","FL",33231,26.2844415430001,-80.24637891,500,"9055 NW 44TH COURT, CORAL SPRINGS, FL, 33231","Match","Non_Exact","9055 NW 44TH CT, CORAL SPRINGS, FL, 33065",114772630,"L"
