"ID","Address","City","State","Zip","lat","long","id","input_address","match_indicator","match_type","matched_address","tiger_line_id","tiger_side"
135001,"2437 BAY AREA BLVD STE 347","HOUSTON","TX",77058,NA,NA,1,"2437 BAY AREA BLVD STE 347, HOUSTON, TX, 77058","No_Match",NA,NA,NA,NA
135002,"2437 CALEDONIA DRIVE","WINSTON-SALEM","NC",27105,36.119183992,-80.2127335659999,2,"2437 CALEDONIA DRIVE, WINSTON-SALEM, NC, 27105","Match","Non_Exact","2437 CALEDONIA DR NE, WINSTON SALEM, NC, 27105",84612630,"L"
135003,"2437 CHAMA AVE","LOVELAND","CO",80538,40.4172700980001,-105.102261895,3,"2437 CHAMA AVE, LOVELAND, CO, 80538","Match","Exact","2437 CHAMA AVE, LOVELAND, CO, 80538",188520567,"L"
135004,"2437 CHANNING DR","GRAND PRAIRIE","TX",75052,32.667532791,-97.038765532,4,"2437 CHANNING DR, GRAND PRAIRIE, TX, 75052","Match","Exact","2437 CHANNING DR, GRAND PRAIRIE, TX, 75052",101914291,"R"
135005,"2437 EAST 30TH STREET","LUBBOCK","TX",79403,33.5671260190001,-101.808248722,5,"2437 EAST 30TH STREET, LUBBOCK, TX, 79403","Match","Non_Exact","2437 E 30TH ST, LUBBOCK, TX, 79404",185257557,"L"
135006,"2437 FOLKSTONE WAY","BEDFORD","TX",76021,32.843725792,-97.12445794,6,"2437 FOLKSTONE WAY, BEDFORD, TX, 76021","Match","Exact","2437 FOLKSTONE WAY, BEDFORD, TX, 76021",102110449,"L"
135007,"2437 IVEY CREST CIRCLE","TUCKER","GA",30084,33.8570046670001,-84.2044323379999,7,"2437 IVEY CREST CIRCLE, TUCKER, GA, 30084","Match","Exact","2437 IVEY CREST CIR, TUCKER, GA, 30084",636751540,"R"
135008,"2437 KEAGY ROAD","SALEM","VA",24153,37.2605015990001,-80.041946823,8,"2437 KEAGY ROAD, SALEM, VA, 24153","Match","Exact","2437 KEAGY RD, SALEM, VA, 24153",62959631,"L"
135009,"2437 NORTH FAIRFIELD AVENUE","CHICAGO","IL",60647,41.925864032,-87.696220204,9,"2437 NORTH FAIRFIELD AVENUE, CHICAGO, IL, 60647","Match","Exact","2437 N FAIRFIELD AVE, CHICAGO, IL, 60647",605188319,"R"
135010,"2437 NORTHEAST INDIAN CIRCLE","LEES SUMMIT","MO",64086,NA,NA,10,"2437 NORTHEAST INDIAN CIRCLE, LEES SUMMIT, MO, 64086","No_Match",NA,NA,NA,NA
135011,"2437 S BROAD ST","PHILADELPHIA","PA",19147,39.92014822,-75.1705410119999,11,"2437 S BROAD ST, PHILADELPHIA, PA, 19147","Match","Non_Exact","2437 S BROAD ST, PHILADELPHIA, PA, 19148",131456424,"L"
135012,"2437 SHETLAND DR","HIGHLAND VLG","TX",75077,33.0826484950001,-97.0759450319999,12,"2437 SHETLAND DR, HIGHLAND VLG, TX, 75077","Match","Exact","2437 SHETLAND DR, HIGHLAND VILLAGE, TX, 75077",103413025,"L"
135013,"2437 SOUTH BLVD APT 8","HOUSTON","TX",77098,29.726400546,-95.415859251,13,"2437 SOUTH BLVD APT 8, HOUSTON, TX, 77098","Match","Exact","2437 SOUTH BLVD, HOUSTON, TX, 77098",96063254,"L"
135014,"2437 SOUTH CR 700 WEST","ROCKPORT","IN",47635,37.851066233,-87.18815059,14,"2437 SOUTH CR 700 WEST, ROCKPORT, IN, 47635","Match","Exact","2437 S CO RD 700 W, ROCKPORT, IN, 47635",7986999,"L"
135015,"24375 LAFAYETTE CIR","SOUTHFIELD","MI",48075,42.4665722600001,-83.230251037,15,"24375 LAFAYETTE CIR, SOUTHFIELD, MI, 48075","Match","Exact","24375 LAFAYETTE CIR, SOUTHFIELD, MI, 48075",69836835,"L"
135016,"24375 WIDGEON PLACE UNIT 42","SAINT MICHAELS","MD",21663,38.804633182,-76.2311085489999,16,"24375 WIDGEON PLACE UNIT 42, SAINT MICHAELS, MD, 21663","Match","Exact","24375 WIDGEON PL, SAINT MICHAELS, MD, 21663",68377505,"L"
135017,"24379 VIRGINIA GOLD LANE","ALDIE","VA",20105,38.942936489,-77.587979019,17,"24379 VIRGINIA GOLD LANE, ALDIE, VA, 20105","Match","Exact","24379 VIRGINIA GOLD LN, ALDIE, VA, 20105",648248005,"L"
135018,"2438 101ST LN NE","BELLEVUE","WA",98004,47.63223694,-122.205654298,18,"2438 101ST LN NE, BELLEVUE, WA, 98004","Match","Exact","2438 101ST LN NE, BELLEVUE, WA, 98004",650644350,"R"
135019,"2438 4TH AVE W","SEATTLE","WA",98119,47.6405748060001,-122.362253355,19,"2438 4TH AVE W, SEATTLE, WA, 98119","Match","Exact","2438 4TH AVE W, SEATTLE, WA, 98119",186581274,"R"
135020,"2438 ARDEN VILLAGE DR","COLUMBIA","TN",38401,35.706653702,-86.980174454,20,"2438 ARDEN VILLAGE DR, COLUMBIA, TN, 38401","Match","Exact","2438 ARDEN VILLAGE DR, COLUMBIA, TN, 38401",639351595,"R"
135021,"2438 BOYLAN ROAD","BOZEMAN","MT",59715,45.7055326540001,-111.001556049,21,"2438 BOYLAN ROAD, BOZEMAN, MT, 59715","Match","Exact","2438 BOYLAN RD, BOZEMAN, MT, 59715",641194916,"R"
135022,"2438 BROKEN ELM DRIVE","RICHMOND","TX",77406,29.6165661150001,-95.7240282339999,22,"2438 BROKEN ELM DRIVE, RICHMOND, TX, 77406","Match","Exact","2438 BROKEN ELM DR, RICHMOND, TX, 77406",78264803,"R"
135023,"2438 BROOKSIDE LANE","YORK","PA",17402,39.965609457,-76.677956998,23,"2438 BROOKSIDE LANE, YORK, PA, 17402","Match","Exact","2438 BROOKSIDE LN, YORK, PA, 17402",88733408,"R"
135024,"2438 CARON LANE","FALLS CHURCH","VA",22043,38.8919421250001,-77.205236864,24,"2438 CARON LANE, FALLS CHURCH, VA, 22043","Match","Exact","2438 CARON LN, FALLS CHURCH, VA, 22043",75978227,"R"
135025,"2438 E CHIPMAN RD","PHOENIX","AZ",85040,33.4023578640001,-112.028689156,25,"2438 E CHIPMAN RD, PHOENIX, AZ, 85040","Match","Exact","2438 E CHIPMAN RD, PHOENIX, AZ, 85040",128216285,"L"
135026,"2438 GEORGETOWN CIRCLE","AURORA","IL",60503,41.7119326230001,-88.25178779,26,"2438 GEORGETOWN CIRCLE, AURORA, IL, 60503","Match","Exact","2438 GEORGETOWN CIR, AURORA, IL, 60503",111626424,"R"
135027,"2438 NW JEAN LANE","PORTLAND","OR",97229,NA,NA,27,"2438 NW JEAN LANE, PORTLAND, OR, 97229","No_Match",NA,NA,NA,NA
135028,"2438 ROSEBERRY LANE","GRAYSON","GA",30017,33.8713922800001,-83.971120707,28,"2438 ROSEBERRY LANE, GRAYSON, GA, 30017","Match","Exact","2438 ROSEBERRY LN, GRAYSON, GA, 30017",88920012,"L"
135029,"2438 S TACOMA ST","KENNEWICK","WA",99337,46.185868989,-119.146432562,29,"2438 S TACOMA ST, KENNEWICK, WA, 99337","Match","Exact","2438 S TACOMA ST, KENNEWICK, WA, 99337",174991913,"R"
135030,"2438 SOUTH CHESTNUT PLACE","CHANDLER","AZ",85286,33.268776438,-111.870104643,30,"2438 SOUTH CHESTNUT PLACE, CHANDLER, AZ, 85286","Match","Exact","2438 S CHESTNUT PL, CHANDLER, AZ, 85286",128967922,"L"
135031,"2438 SUMMER MEADOW COURT","CHARLOTTE","NC",28216,35.3244934510001,-80.896666046,31,"2438 SUMMER MEADOW COURT, CHARLOTTE, NC, 28216","Match","Exact","2438 SUMMER MEADOW CT, CHARLOTTE, NC, 28216",70555467,"L"
135032,"2438 SYCAMORE STREET","EASTON","PA",18042,40.6794734270001,-75.244031026,32,"2438 SYCAMORE STREET, EASTON, PA, 18042","Match","Exact","2438 SYCAMORE ST, EASTON, PA, 18042",136881797,"L"
135033,"2438 W 157TH ST","HARVEY","IL",60426,41.6045809710001,-87.675631192,33,"2438 W 157TH ST, HARVEY, IL, 60426","Match","Exact","2438 W 157TH ST, HARVEY, IL, 60426",111705346,"L"
135034,"2438 W 18TH ST","WILMINGTON","DE",19806,39.763191148,-75.5713162439999,34,"2438 W 18TH ST, WILMINGTON, DE, 19806","Match","Exact","2438 W 18TH ST, WILMINGTON, DE, 19806",187254618,"L"
135035,"24385 LEMON B ROAD","SLAUGHTER","LA",70777,30.706369566,-91.1012164379999,35,"24385 LEMON B ROAD, SLAUGHTER, LA, 70777","Match","Exact","24385 LEMON B RD, SLAUGHTER, LA, 70777",92185724,"L"
135036,"2439 BONNER","FERNDALE","MI",48220,42.4662890070001,-83.120358282,36,"2439 BONNER, FERNDALE, MI, 48220","Match","Non_Exact","2439 BONNER ST, FERNDALE, MI, 48220",69747576,"L"
135037,"2439 CABIN HILL ROAD","INDIANAPOLIS","IN",46229,39.803755891,-85.945203079,37,"2439 CABIN HILL ROAD, INDIANAPOLIS, IN, 46229","Match","Exact","2439 CABIN HILL RD, INDIANAPOLIS, IN, 46229",627017626,"R"
135038,"2439 DEER CREEK ROAD","WESTON","FM",33327,NA,NA,38,"2439 DEER CREEK ROAD, WESTON, FM, 33327","No_Match",NA,NA,NA,NA
135039,"2439 EAST LAFAYETTE AVE","BALTIMORE","MD",21213,39.3111069340001,-76.5835722479999,39,"2439 EAST LAFAYETTE AVE, BALTIMORE, MD, 21213","Match","Exact","2439 E LAFAYETTE AVE, BALTIMORE, MD, 21213",206423563,"R"
135040,"2439 MANHATTAN BLVD   STE 301","HARVEY","LA",70058,29.877325549,-90.04932489,40,"2439 MANHATTAN BLVD   STE 301, HARVEY, LA, 70058","Match","Exact","2439 MANHATTAN BLVD, HARVEY, LA, 70058",93543325,"R"
135041,"2439 MANHATTAN BLVD  STE 308","HARVEY","LA",70058,29.877325549,-90.04932489,41,"2439 MANHATTAN BLVD  STE 308, HARVEY, LA, 70058","Match","Exact","2439 MANHATTAN BLVD, HARVEY, LA, 70058",93543325,"R"
135042,"2439 MANHATTAN BLVD STE 301","HARVEY","LA",70058,29.877325549,-90.04932489,42,"2439 MANHATTAN BLVD STE 301, HARVEY, LA, 70058","Match","Exact","2439 MANHATTAN BLVD, HARVEY, LA, 70058",93543325,"R"
135043,"2439 MCDOWELL ROAD","BRIDGEVILLE","DE",19933,38.726629089,-75.706270046,43,"2439 MCDOWELL ROAD, BRIDGEVILLE, DE, 19933","Match","Exact","2439 MCDOWELL RD, BRIDGEVILLE, DE, 19933",106082763,"L"
135044,"2439 MITFORD COURT","DACULA","GA",30019,33.963091128,-83.903946283,44,"2439 MITFORD COURT, DACULA, GA, 30019","Match","Exact","2439 MITFORD CT, DACULA, GA, 30019",634065178,"R"
135045,"2439 N TALBOTT ST","INDIANAPOLIS","IN",46205,39.80187204,-86.154307076,45,"2439 N TALBOTT ST, INDIANAPOLIS, IN, 46205","Match","Exact","2439 N TALBOTT ST, INDIANAPOLIS, IN, 46205",107989658,"R"
135046,"2439 N VEL R PHILLIPS AVE","MILWAUKEE","WI",53212,NA,NA,46,"2439 N VEL R PHILLIPS AVE, MILWAUKEE, WI, 53212","No_Match",NA,NA,NA,NA
135047,"2439 NE CORNSILK DR","LEE","FL",32059,NA,NA,47,"2439 NE CORNSILK DR, LEE, FL, 32059","No_Match",NA,NA,NA,NA
135048,"2439 PALMER AVE","NEW ORLEANS","LA",70118,29.939964092,-90.116000774,48,"2439 PALMER AVE, NEW ORLEANS, LA, 70118","Match","Exact","2439 PALMER AVE, NEW ORLEANS, LA, 70118",191702049,"R"
135049,"2439 S 2ND ST","WACO","TX",76706,31.5396565180001,-97.105765003,49,"2439 S 2ND ST, WACO, TX, 76706","Match","Exact","2439 S 2ND ST, WACO, TX, 76706",146738972,"R"
135050,"2439 VAUGHN AVE","DELTONA","FL",32725,28.9317976900001,-81.2388405739999,50,"2439 VAUGHN AVE, DELTONA, FL, 32725","Match","Exact","2439 VAUGHN AVE, DELTONA, FL, 32725",94592018,"R"
135051,"24391 WILDERNESS TRL","OLMSTED FALLS","OH",44138,41.3640758710001,-81.8919304459999,51,"24391 WILDERNESS TRL, OLMSTED FALLS, OH, 44138","Match","Exact","24391 WILDERNESS TRL, OLMSTED FALLS, OH, 44138",61157382,"L"
135052,"24395 GREENFIELD","SOUTHFIELD","MI",48075,42.47015392,-83.201575153,52,"24395 GREENFIELD, SOUTHFIELD, MI, 48075","Match","Non_Exact","24395 GREENFIELD RD, SOUTHFIELD, MI, 48075",69815717,"L"
135053,"24399 HWY 190","KROTZ SPRINGS","LA",70750,NA,NA,53,"24399 HWY 190, KROTZ SPRINGS, LA, 70750","No_Match",NA,NA,NA,NA
135054,"243BAY AREA BOULEVARD SUITE 228","HOUSTON","TX",77058,NA,NA,54,"243BAY AREA BOULEVARD SUITE 228, HOUSTON, TX, 77058","No_Match",NA,NA,NA,NA
135055,"244 12TH ST SW","GORDO","AL",35466,33.3183264420001,-87.916261318,55,"244 12TH ST SW, GORDO, AL, 35466","Match","Exact","244 12TH ST SW, GORDO, AL, 35466",620409,"R"
135056,"244 2ND AVE NORTH","ST PETERSBURG","FL",33701,27.7735339820001,-82.636269221,56,"244 2ND AVE NORTH, ST PETERSBURG, FL, 33701","Match","Exact","244 2ND AVE N, SAINT PETERSBURG, FL, 33701",124708208,"L"
135057,"244 4TH AVENUE NORTH","BAYPORT","MN",55003,45.020787797,-92.7798308069999,57,"244 4TH AVENUE NORTH, BAYPORT, MN, 55003","Match","Exact","244 4TH AVE N, BAYPORT, MN, 55003",97794688,"L"
135058,"244 5TH AVE STE 2234","NEW YORK","NY",10001,40.7445494030001,-73.9874009119999,58,"244 5TH AVE STE 2234, NEW YORK, NY, 10001","Match","Exact","244 5TH AVE, NEW YORK, NY, 10001",59653461,"L"
135059,"244 5TH AVE STE 2636","NEW YORK","NY",10001,40.7445494030001,-73.9874009119999,59,"244 5TH AVE STE 2636, NEW YORK, NY, 10001","Match","Exact","244 5TH AVE, NEW YORK, NY, 10001",59653461,"L"
135060,"244 5TH AVE STE E55","NEW YORK","NY",10001,40.7445494030001,-73.9874009119999,60,"244 5TH AVE STE E55, NEW YORK, NY, 10001","Match","Exact","244 5TH AVE, NEW YORK, NY, 10001",59653461,"L"
135061,"244 5TH AVE SUIT H219","NEW YORK","NY",10001,40.7445494030001,-73.9874009119999,61,"244 5TH AVE SUIT H219, NEW YORK, NY, 10001","Match","Exact","244 5TH AVE, NEW YORK, NY, 10001",59653461,"L"
135062,"244 5TH AVE SUITE 2281","NEW YORK","NY",10001,40.7445494030001,-73.9874009119999,62,"244 5TH AVE SUITE 2281, NEW YORK, NY, 10001","Match","Exact","244 5TH AVE, NEW YORK, NY, 10001",59653461,"L"
135063,"244 5TH AVE SUITE A254","NEW YORK","NY",10001,40.7445494030001,-73.9874009119999,63,"244 5TH AVE SUITE A254, NEW YORK, NY, 10001","Match","Exact","244 5TH AVE, NEW YORK, NY, 10001",59653461,"L"
135064,"244 5TH AVENUE - 2028","NEW YORK","NY",10001,40.7445494030001,-73.9874009119999,64,"244 5TH AVENUE - 2028, NEW YORK, NY, 10001","Match","Exact","244 5TH AVE, NEW YORK, NY, 10001",59653461,"L"
135065,"244 5TH AVENUE C-140","NEW YORK","NY",10001,40.7445494030001,-73.9874009119999,65,"244 5TH AVENUE C-140, NEW YORK, NY, 10001","Match","Exact","244 5TH AVE, NEW YORK, NY, 10001",59653461,"L"
135066,"244 5TH AVENUE SUITE C-16","NEW YORK","NY",10001,40.7445494030001,-73.9874009119999,66,"244 5TH AVENUE SUITE C-16, NEW YORK, NY, 10001","Match","Exact","244 5TH AVE, NEW YORK, NY, 10001",59653461,"L"
135067,"244 5TH AVENUE SUITE C-232","NEW YORK","NY",10001,40.7445494030001,-73.9874009119999,67,"244 5TH AVENUE SUITE C-232, NEW YORK, NY, 10001","Match","Exact","244 5TH AVE, NEW YORK, NY, 10001",59653461,"L"
135068,"244 5TH AVENUE SUITE D245","NEW YORK","NY",10001,40.7445494030001,-73.9874009119999,68,"244 5TH AVENUE SUITE D245, NEW YORK, NY, 10001","Match","Exact","244 5TH AVE, NEW YORK, NY, 10001",59653461,"L"
135069,"244 ACORN DRIVE","MIDDLETOWN","DE",19709,39.498838725,-75.630574087,69,"244 ACORN DRIVE, MIDDLETOWN, DE, 19709","Match","Exact","244 ACORN DR, MIDDLETOWN, DE, 19709",187248492,"R"
135070,"244 AMHERT AVENUE","KENSINGTON","CA",94708,NA,NA,70,"244 AMHERT AVENUE, KENSINGTON, CA, 94708","No_Match",NA,NA,NA,NA
135071,"244 B AND M LANE","LYNCHBURG","TN",37352,NA,NA,71,"244 B AND M LANE, LYNCHBURG, TN, 37352","No_Match",NA,NA,NA,NA
135072,"244 BISCAYNE BLVD APT 301","MIAMI","FL",33132,NA,NA,72,"244 BISCAYNE BLVD APT 301, MIAMI, FL, 33132","No_Match",NA,NA,NA,NA
135073,"244 BOND STREET BASEMENT","BROOKLYN","NY",11217,40.6822696340001,-73.988009829,73,"244 BOND STREET BASEMENT, BROOKLYN, NY, 11217","Match","Exact","244 BOND ST, BROOKLYN, NY, 11217",59075393,"R"
135074,"244 CAMPHOR AVE","FREMONT","CA",94539,37.475528093,-121.919532168,74,"244 CAMPHOR AVE, FREMONT, CA, 94539","Match","Exact","244 CAMPHOR AVE, FREMONT, CA, 94539",125058186,"R"
135075,"244 CAPE AUGUST PLACE","BELMONT","NC",28012,35.1564768110001,-81.037187003,75,"244 CAPE AUGUST PLACE, BELMONT, NC, 28012","Match","Exact","244 CAPE AUGUST PL, BELMONT, NC, 28012",649750749,"R"
135076,"244 CEDAR RIDGE DRIVE","LONDON","KY",40744,37.080616611,-83.924354482,76,"244 CEDAR RIDGE DRIVE, LONDON, KY, 40744","Match","Exact","244 CEDAR RIDGE DR, LONDON, KY, 40744",98737112,"L"
135077,"244 CHESLEY LN","LILLINGTON","NC",27546,35.442852826,-78.8101037929999,77,"244 CHESLEY LN, LILLINGTON, NC, 27546","Match","Exact","244 CHESLEY LN, LILLINGTON, NC, 27546",71956757,"R"
135078,"244 CHILDSDALE NE STE B","ROCKFORD","MI",49341,43.1127060630001,-85.570478113,78,"244 CHILDSDALE NE STE B, ROCKFORD, MI, 49341","Match","Non_Exact","244 CHILDSDALE AVE NE, ROCKFORD, MI, 49341",12510628,"R"
135079,"244 CLAY LICK ROAD","SALVISA","KY",40372,37.9491881110001,-84.851871202,79,"244 CLAY LICK ROAD, SALVISA, KY, 40372","Match","Exact","244 CLAY LICK RD, SALVISA, KY, 40372",32613840,"L"
135080,"244 CONCORD LANE","CAROL STREAM","IL",60188,41.89845411,-88.090799298,80,"244 CONCORD LANE, CAROL STREAM, IL, 60188","Match","Exact","244 CONCORD LN, CAROL STREAM, IL, 60188",112680724,"R"
135081,"244 CONVEY COURT","YORK","SC",29745,NA,NA,81,"244 CONVEY COURT, YORK, SC, 29745","No_Match",NA,NA,NA,NA
135082,"244 COUNTY STREET","ATTLEBORO","MA",2703,41.935621923,-71.2974544699999,82,"244 COUNTY STREET, ATTLEBORO, MA, 2703","Match","Exact","244 COUNTY ST, ATTLEBORO, MA, 02703",46781487,"R"
135083,"244 CREEKSIDE DRIVE","BOZEMAN","MT",59718,45.724811763,-111.139757962,83,"244 CREEKSIDE DRIVE, BOZEMAN, MT, 59718","Match","Exact","244 CREEKSIDE DR, BOZEMAN, MT, 59718",163528646,"R"
135084,"244 DEERWALK PL","NEWBURY PARK","CA",91320,34.1824190300001,-118.930688548,84,"244 DEERWALK PL, NEWBURY PARK, CA, 91320","Match","Exact","244 DEERWALK PL, NEWBURY PARK, CA, 91320",109969047,"R"
135085,"244 E 6TH ST","OSWEGO","NY",13126,43.449329365,-76.49732246,85,"244 E 6TH ST, OSWEGO, NY, 13126","Match","Exact","244 E 6TH ST, OSWEGO, NY, 13126",57804680,"L"
135086,"244 E BROADWAY ST","WINCHESTER","KY",40391,NA,NA,86,"244 E BROADWAY ST, WINCHESTER, KY, 40391","Tie",NA,NA,NA,NA
135087,"244 E DEL AMO BLVD UNIT B","LONG BEACH","CA",90805,NA,NA,87,"244 E DEL AMO BLVD UNIT B, LONG BEACH, CA, 90805","No_Match",NA,NA,NA,NA
135088,"244 E KELSEY AVENUE","SALT LAKE CITY","UT",84111,40.7434665850001,-111.884017838,88,"244 E KELSEY AVENUE, SALT LAKE CITY, UT, 84111","Match","Exact","244 E KELSEY AVE, SALT LAKE CITY, UT, 84111",176078192,"R"
135089,"244 E NEVADA STREET  APT 8","LONG BEACH","CA",90806,33.801653908,-118.190570747,89,"244 E NEVADA STREET  APT 8, LONG BEACH, CA, 90806","Match","Non_Exact","244 E NEVADA ST, LONG BEACH, CA, 90806",141686870,"R"
135090,"244 E UNION BLVD","BETHLEHEM","PA",18018,40.624929604,-75.3717196059999,90,"244 E UNION BLVD, BETHLEHEM, PA, 18018","Match","Exact","244 E UNION BLVD, BETHLEHEM, PA, 18018",136885078,"R"
135091,"244 ERVING JACOBS RD","PORT ANGELES","WA",98362,48.0833373520001,-123.295991576,91,"244 ERVING JACOBS RD, PORT ANGELES, WA, 98362","Match","Exact","244 ERVING JACOBS RD, PORT ANGELES, WA, 98362",150866545,"R"
135092,"244 FAIR OAKS COURT","MEBANE","NC",27302,NA,NA,92,"244 FAIR OAKS COURT, MEBANE, NC, 27302","No_Match",NA,NA,NA,NA
135093,"244 FAIRBANK ROAD","RIVERSIDE","IL",60546,41.820932799,-87.824346216,93,"244 FAIRBANK ROAD, RIVERSIDE, IL, 60546","Match","Exact","244 FAIRBANK RD, RIVERSIDE, IL, 60546",111793091,"R"
135094,"244 FIFTH AVE   STE 2774","NEW YORK","NY",10001,40.7445494030001,-73.9874009119999,94,"244 FIFTH AVE   STE 2774, NEW YORK, NY, 10001","Match","Exact","244 5TH AVE, NEW YORK, NY, 10001",59653461,"L"
135095,"244 FIFTH AVE STE 200","NEW YORK","NY",10001,40.7445494030001,-73.9874009119999,95,"244 FIFTH AVE STE 200, NEW YORK, NY, 10001","Match","Exact","244 5TH AVE, NEW YORK, NY, 10001",59653461,"L"
135096,"244 FIFTH AVE STE 2966","NEW YORK CITY","NY",10001,40.7445494030001,-73.9874009119999,96,"244 FIFTH AVE STE 2966, NEW YORK CITY, NY, 10001","Match","Exact","244 5TH AVE, NEW YORK, NY, 10001",59653461,"L"
135097,"244 FIFTH AVE SUITE 1507","NEW YORK","NY",10001,40.7445494030001,-73.9874009119999,97,"244 FIFTH AVE SUITE 1507, NEW YORK, NY, 10001","Match","Exact","244 5TH AVE, NEW YORK, NY, 10001",59653461,"L"
135098,"244 FIFTH AVE SUITE P215","NEW YORK","NY",10001,40.7445494030001,-73.9874009119999,98,"244 FIFTH AVE SUITE P215, NEW YORK, NY, 10001","Match","Exact","244 5TH AVE, NEW YORK, NY, 10001",59653461,"L"
135099,"244 FIFTH AVE SUITE S289","NEW YORK","NY",10001,40.7445494030001,-73.9874009119999,99,"244 FIFTH AVE SUITE S289, NEW YORK, NY, 10001","Match","Exact","244 5TH AVE, NEW YORK, NY, 10001",59653461,"L"
135100,"244 FIFTH AVENUE  SUITE H292","NEW YORK","NY",10001,40.7445494030001,-73.9874009119999,100,"244 FIFTH AVENUE  SUITE H292, NEW YORK, NY, 10001","Match","Exact","244 5TH AVE, NEW YORK, NY, 10001",59653461,"L"
135101,"244 FIFTH AVENUE 2496","NEW YORK","NY",10001,40.7445494030001,-73.9874009119999,101,"244 FIFTH AVENUE 2496, NEW YORK, NY, 10001","Match","Exact","244 5TH AVE, NEW YORK, NY, 10001",59653461,"L"
135102,"244 FIFTH AVENUE P287","NEW YORK","NY",10001,40.7445494030001,-73.9874009119999,102,"244 FIFTH AVENUE P287, NEW YORK, NY, 10001","Match","Exact","244 5TH AVE, NEW YORK, NY, 10001",59653461,"L"
135103,"244 FIFTH AVENUE SUITE 230","NEW YORK","NY",10001,40.7445494030001,-73.9874009119999,103,"244 FIFTH AVENUE SUITE 230, NEW YORK, NY, 10001","Match","Exact","244 5TH AVE, NEW YORK, NY, 10001",59653461,"L"
135104,"244 FIFTH AVENUE SUITE 2343","NEW YORK","NY",10001,40.7445494030001,-73.9874009119999,104,"244 FIFTH AVENUE SUITE 2343, NEW YORK, NY, 10001","Match","Exact","244 5TH AVE, NEW YORK, NY, 10001",59653461,"L"
135105,"244 FIFTH AVENUE SUITE 2517","NEW YORK","NY",10001,40.7445494030001,-73.9874009119999,105,"244 FIFTH AVENUE SUITE 2517, NEW YORK, NY, 10001","Match","Exact","244 5TH AVE, NEW YORK, NY, 10001",59653461,"L"
135106,"244 FIFTH AVENUE SUITE A295","NEW YORK","NY",10001,40.7445494030001,-73.9874009119999,106,"244 FIFTH AVENUE SUITE A295, NEW YORK, NY, 10001","Match","Exact","244 5TH AVE, NEW YORK, NY, 10001",59653461,"L"
135107,"244 FIFTH AVENUE SUITE C230","NEW YORK","NY",10001,40.7445494030001,-73.9874009119999,107,"244 FIFTH AVENUE SUITE C230, NEW YORK, NY, 10001","Match","Exact","244 5TH AVE, NEW YORK, NY, 10001",59653461,"L"
135108,"244 FIFTH AVENUE SUITE H231","NEW YORK","NY",10001,40.7445494030001,-73.9874009119999,108,"244 FIFTH AVENUE SUITE H231, NEW YORK, NY, 10001","Match","Exact","244 5TH AVE, NEW YORK, NY, 10001",59653461,"L"
135109,"244 FIFTH AVENUE SUITE K203","NEW YORK","NY",10001,40.7445494030001,-73.9874009119999,109,"244 FIFTH AVENUE SUITE K203, NEW YORK, NY, 10001","Match","Exact","244 5TH AVE, NEW YORK, NY, 10001",59653461,"L"
135110,"244 FIFTH AVENUE SUITE N-270","NEW YORK","NY",10001,40.7445494030001,-73.9874009119999,110,"244 FIFTH AVENUE SUITE N-270, NEW YORK, NY, 10001","Match","Exact","244 5TH AVE, NEW YORK, NY, 10001",59653461,"L"
135111,"244 FIFTH AVENUE SUITE N263","NEW YORK","NY",10001,40.7445494030001,-73.9874009119999,111,"244 FIFTH AVENUE SUITE N263, NEW YORK, NY, 10001","Match","Exact","244 5TH AVE, NEW YORK, NY, 10001",59653461,"L"
135112,"244 FIFTH AVENUE SUITE R273","NEW YORK","NY",10001,40.7445494030001,-73.9874009119999,112,"244 FIFTH AVENUE SUITE R273, NEW YORK, NY, 10001","Match","Exact","244 5TH AVE, NEW YORK, NY, 10001",59653461,"L"
135113,"244 FIFTH AVENUE SUITE T241","NEW YORK","NY",10001,40.7445494030001,-73.9874009119999,113,"244 FIFTH AVENUE SUITE T241, NEW YORK, NY, 10001","Match","Exact","244 5TH AVE, NEW YORK, NY, 10001",59653461,"L"
135114,"244 FIFTH AVENUE T271","NEW YORK","NY",10001,40.7445494030001,-73.9874009119999,114,"244 FIFTH AVENUE T271, NEW YORK, NY, 10001","Match","Exact","244 5TH AVE, NEW YORK, NY, 10001",59653461,"L"
135115,"244 FIFTH AVENUE","NEW YORK","NY",10001,40.7445494030001,-73.9874009119999,115,"244 FIFTH AVENUE, NEW YORK, NY, 10001","Match","Exact","244 5TH AVE, NEW YORK, NY, 10001",59653461,"L"
135116,"244 GENESEE ST","AUBURN","NY",13021,42.925051823,-76.579427413,116,"244 GENESEE ST, AUBURN, NY, 13021","Match","Exact","244 GENESEE ST, AUBURN, NY, 13021",33497054,"R"
135117,"244 GOODWIN CREST DRIVE SUITE 120","HOMEWOOD","AL",35209,33.4713578990001,-86.832683415,117,"244 GOODWIN CREST DRIVE SUITE 120, HOMEWOOD, AL, 35209","Match","Exact","244 GOODWIN CREST DR, HOMEWOOD, AL, 35209",81642862,"L"
135118,"244 GRANDVIEW DRIVE","FORT MITCHELL","KY",41017,39.051469184,-84.567264069,118,"244 GRANDVIEW DRIVE, FORT MITCHELL, KY, 41017","Match","Exact","244 GRANDVIEW DR, FORT MITCHELL, KY, 41017",103893617,"R"
135119,"244 GROVE ST","KINGSTON","MA",2364,42.0038037780001,-70.788684847,119,"244 GROVE ST, KINGSTON, MA, 2364","Match","Exact","244 GROVE ST, KINGSTON, MA, 02364",616675127,"L"
135120,"244 HORSESHOE DR","LAKE WAYNOKA","OH",45154,38.929092853,-83.77379919,120,"244 HORSESHOE DR, LAKE WAYNOKA, OH, 45154","Match","Non_Exact","244 HORSE SHOE DR, LAKE WAYNOKA, OH, 45171",100967218,"R"
135121,"244 INCLINE DRIVE","COLFAX","CA",95713,39.0790858510001,-120.956740024,121,"244 INCLINE DRIVE, COLFAX, CA, 95713","Match","Exact","244 INCLINE DR, COLFAX, CA, 95713",106803990,"L"
135122,"244 IROQUOIS ROAD","HILLSIDE","IL",60162,41.8749608640001,-87.901314782,122,"244 IROQUOIS ROAD, HILLSIDE, IL, 60162","Match","Exact","244 IROQUOIS RD, HILLSIDE, IL, 60162",111874130,"L"
135123,"244 KENNEDY DRIVE APARTMENT 604","MALDEN","MA",2148,42.4364544000001,-71.033139191,123,"244 KENNEDY DRIVE APARTMENT 604, MALDEN, MA, 2148","Match","Exact","244 KENNEDY DR, MALDEN, MA, 02148",650124059,"L"
135124,"244 KENTUCKY AVENUE","PASADENA","MD",21122,39.0991889110001,-76.4780800939999,124,"244 KENTUCKY AVENUE, PASADENA, MD, 21122","Match","Exact","244 KENTUCKY AVE, PASADENA, MD, 21122",68211373,"R"
135125,"244 LAKE JOY ROAD","PERRY","GA",31069,32.4924541120001,-83.701467704,125,"244 LAKE JOY ROAD, PERRY, GA, 31069","Match","Exact","244 LAKE JOY RD, PERRY, GA, 31069",91228116,"R"
135126,"244 LISBON ST - APT 112","LISBON","ME",4250,NA,NA,126,"244 LISBON ST - APT 112, LISBON, ME, 4250","No_Match",NA,NA,NA,NA
135127,"244 LOCHAVEN DRIVE","NEWPORT NEWS","VA",23602,37.104902672,-76.468514742,127,"244 LOCHAVEN DRIVE, NEWPORT NEWS, VA, 23602","Match","Exact","244 LOCHAVEN DR, NEWPORT NEWS, VA, 23602",225656412,"L"
135128,"244 LYTTLETON LANE","MADISON HEIGHTS","VA",24572,37.4382046320001,-79.12931307,128,"244 LYTTLETON LANE, MADISON HEIGHTS, VA, 24572","Match","Exact","244 LYTTLETON LN, MADISON HEIGHTS, VA, 24572",159116958,"R"
135129,"244 MADISON AVE SUITE 501","NEW YORK","NY",10016,40.7501654270001,-73.9812173619999,129,"244 MADISON AVE SUITE 501, NEW YORK, NY, 10016","Match","Exact","244 MADISON AVE, NEW YORK, NY, 10016",59654384,"L"
135130,"244 MADISON AVE SUITE 5150","NEW YORK","NY",10016,40.7501654270001,-73.9812173619999,130,"244 MADISON AVE SUITE 5150, NEW YORK, NY, 10016","Match","Exact","244 MADISON AVE, NEW YORK, NY, 10016",59654384,"L"
135131,"244 MADISON AVE UPH","NEW YORK","NY",10016,40.7501654270001,-73.9812173619999,131,"244 MADISON AVE UPH, NEW YORK, NY, 10016","Match","Exact","244 MADISON AVE, NEW YORK, NY, 10016",59654384,"L"
135132,"244 MADISON AVENUE  SUITE 419","NEW YORK","NY",10016,40.7501654270001,-73.9812173619999,132,"244 MADISON AVENUE  SUITE 419, NEW YORK, NY, 10016","Match","Exact","244 MADISON AVE, NEW YORK, NY, 10016",59654384,"L"
135133,"244 MADISON AVENUE 172","NEW YORK","NY",10016,40.7501654270001,-73.9812173619999,133,"244 MADISON AVENUE 172, NEW YORK, NY, 10016","Match","Exact","244 MADISON AVE, NEW YORK, NY, 10016",59654384,"L"
135134,"244 MADISON AVENUE SUITE 1469","NEW YORK","NY",10016,40.7501654270001,-73.9812173619999,134,"244 MADISON AVENUE SUITE 1469, NEW YORK, NY, 10016","Match","Exact","244 MADISON AVE, NEW YORK, NY, 10016",59654384,"L"
135135,"244 MADISON AVENUE SUITE 297","NEW YORK","NY",10016,40.7501654270001,-73.9812173619999,135,"244 MADISON AVENUE SUITE 297, NEW YORK, NY, 10016","Match","Exact","244 MADISON AVE, NEW YORK, NY, 10016",59654384,"L"
135136,"244 MAIN STREET APT 201","EPPING","NH",3042,43.0448169160001,-71.07274262,136,"244 MAIN STREET APT 201, EPPING, NH, 3042","Match","Exact","244 MAIN ST, EPPING, NH, 03042",113714458,"L"
135137,"244 MANOR BLVD","TRENTON","NJ",6820,NA,NA,137,"244 MANOR BLVD, TRENTON, NJ, 6820","No_Match",NA,NA,NA,NA
135138,"244 MCLEOD ST","MERRITT ISLAND","FL",32953,28.3602727690001,-80.7012661049999,138,"244 MCLEOD ST, MERRITT ISLAND, FL, 32953","Match","Non_Exact","244 MC LEOD ST, MERRITT ISLAND, FL, 32953",93894862,"R"
135139,"244 MCLEOD STREET","MERRITT ISLAND","FL",32953,28.3602727690001,-80.7012661049999,139,"244 MCLEOD STREET, MERRITT ISLAND, FL, 32953","Match","Non_Exact","244 MC LEOD ST, MERRITT ISLAND, FL, 32953",93894862,"R"
135140,"244 MIDDLESEX RD","COLUMBIA","SC",29210,34.0475039020001,-81.141792268,140,"244 MIDDLESEX RD, COLUMBIA, SC, 29210","Match","Exact","244 MIDDLESEX RD, COLUMBIA, SC, 29210",70049954,"R"
135141,"244 MISTY GARDEN STREET","HENDERSON","NV",89012,36.0217709130001,-115.062991337,141,"244 MISTY GARDEN STREET, HENDERSON, NV, 89012","Match","Exact","244 MISTY GARDEN ST, HENDERSON, NV, 89012",201936550,"L"
135142,"244 MYRTLE AVE","BUFFALO","NY",14204,42.8786435280001,-78.860930867,142,"244 MYRTLE AVE, BUFFALO, NY, 14204","Match","Exact","244 MYRTLE AVE, BUFFALO, NY, 14204",48291646,"L"
135143,"244 N 14TH ST","SAN JOSE","CA",95112,37.3461325120001,-121.879861756,143,"244 N 14TH ST, SAN JOSE, CA, 95112","Match","Exact","244 N 14TH ST, SAN JOSE, CA, 95112",122908590,"R"
135144,"244 N ALAMO DR","VACAVILLE","CA",95688,NA,NA,144,"244 N ALAMO DR, VACAVILLE, CA, 95688","Tie",NA,NA,NA,NA
135145,"244 N BROADWAY","TURLOCK","CA",95380,NA,NA,145,"244 N BROADWAY, TURLOCK, CA, 95380","Tie",NA,NA,NA,NA
135146,"244 N SYCAMORE ST APT 5","PETERSBURG","VA",23803,NA,NA,146,"244 N SYCAMORE ST APT 5, PETERSBURG, VA, 23803","Tie",NA,NA,NA,NA
135147,"244 NAUBUC AVENUE","EAST HARTFORD","CT",6118,41.7269009550001,-72.6273138559999,147,"244 NAUBUC AVENUE, EAST HARTFORD, CT, 6118","Match","Exact","244 NAUBUC AVE, EAST HARTFORD, CT, 06118",3517716,"L"
135148,"244 NEW YORK AVE APT 4L","BROOKLYN","NY",11216,40.6719704770001,-73.947524745,148,"244 NEW YORK AVE APT 4L, BROOKLYN, NY, 11216","Match","Non_Exact","244 NEW YORK AVE, BROOKLYN, NY, 11216",59079440,"R"
135149,"244 NORTH MAIN STREET APT 11A","SPRING VALLEY","NY",10977,41.124301141,-74.041345969,149,"244 NORTH MAIN STREET APT 11A, SPRING VALLEY, NY, 10977","Match","Exact","244 N MAIN ST, SPRING VALLEY, NY, 10977",653717276,"R"
135150,"244 NW 72ND TERR APT 510","MIAMI","FL",33150,25.8413063560001,-80.201115933,150,"244 NW 72ND TERR APT 510, MIAMI, FL, 33150","Match","Non_Exact","244 NW 72ND TER, MIAMI, FL, 33150",116006311,"L"
135151,"244 ONTARIO STREET SUITE 201","COHOES","NY",12047,42.7741877230001,-73.6978049849999,151,"244 ONTARIO STREET SUITE 201, COHOES, NY, 12047","Match","Exact","244 ONTARIO ST, COHOES, NY, 12047",625498111,"L"
135152,"244 OVERLOOK PARK LANE","LAWRENCEVILLE","GA",30043,34.0389675640001,-83.998636892,152,"244 OVERLOOK PARK LANE, LAWRENCEVILLE, GA, 30043","Match","Exact","244 OVERLOOK PARK LN, LAWRENCEVILLE, GA, 30043",624938218,"L"
135153,"244 RIVER STREET","CAMBRIDGE","MA",2139,42.3628063290001,-71.1119122009999,153,"244 RIVER STREET, CAMBRIDGE, MA, 2139","Match","Exact","244 RIVER ST, CAMBRIDGE, MA, 02139",635530575,"L"
135154,"244 ROY GREEN RD","LONGVIEW","TX",75602,32.509191265,-94.6090102269999,154,"244 ROY GREEN RD, LONGVIEW, TX, 75602","Match","Exact","244 ROY GREEN RD, LONGVIEW, TX, 75602",648213607,"L"
135155,"244 S BROADWAY AVE","SALM","OH",44460,40.899240139,-80.8553220969999,155,"244 S BROADWAY AVE, SALM, OH, 44460","Match","Non_Exact","244 S BROADWAY AVE, SALEM, OH, 44460",606695800,"L"
135156,"244 S HICKORY","BARTLETT","IL",60103,41.991138646,-88.187395924,156,"244 S HICKORY, BARTLETT, IL, 60103","Match","Non_Exact","244 S HICKORY AVE, BARTLETT, IL, 60103",112384421,"R"
135157,"244 SALEM DRIVE","DEKALB","IL",60115,41.9163368500001,-88.76427847,157,"244 SALEM DRIVE, DEKALB, IL, 60115","Match","Exact","244 SALEM DR, DEKALB, IL, 60115",52272386,"R"
135158,"244 SIENA GARDENS CIRCLE","GOTHA","FL",34734,28.5426113010001,-81.5116428859999,158,"244 SIENA GARDENS CIRCLE, GOTHA, FL, 34734","Match","Exact","244 SIENA GARDENS CIR, GOTHA, FL, 34734",626950034,"R"
135159,"244 SPRING ST","DECATUR","GA",30030,33.7562493120001,-84.3022203309999,159,"244 SPRING ST, DECATUR, GA, 30030","Match","Exact","244 SPRING ST, DECATUR, GA, 30030",23366845,"L"
135160,"244 STEINER AVE","REXBURG","ID",83440,43.820284477,-111.79396518,160,"244 STEINER AVE, REXBURG, ID, 83440","Match","Exact","244 STEINER AVE, REXBURG, ID, 83440",119091960,"R"
135161,"244 SUMMER ST","SOMERVILLE","MA",2143,42.3897573030001,-71.1125950799999,161,"244 SUMMER ST, SOMERVILLE, MA, 2143","Match","Exact","244 SUMMER ST, SOMERVILLE, MA, 02143",86868344,"L"
135162,"244 VISTA DEL MAR LN","WATSONVILLE","CA",95076,36.91237277,-121.774554942,162,"244 VISTA DEL MAR LN, WATSONVILLE, CA, 95076","Match","Exact","244 VISTA DEL MAR LN, WATSONVILLE, CA, 95076",605960305,"R"
135163,"244 W DUANE AVE","SUNNYVALE","CA",94085,37.3914400680001,-122.027425706,163,"244 W DUANE AVE, SUNNYVALE, CA, 94085","Match","Exact","244 W DUANE AVE, SUNNYVALE, CA, 94085",122956947,"L"
135164,"244 WALNUT AVE","BOGOTA","NJ",7603,40.8698100710001,-74.022998118,164,"244 WALNUT AVE, BOGOTA, NJ, 7603","Match","Exact","244 WALNUT AVE, BOGOTA, NJ, 07603",64397610,"R"
135165,"244 WASHINGTON STREET UNIT 2207","NORTH EASTON","MA",2356,42.071197742,-71.08752114,165,"244 WASHINGTON STREET UNIT 2207, NORTH EASTON, MA, 2356","Match","Exact","244 WASHINGTON ST, NORTH EASTON, MA, 02356",645273006,"L"
135166,"244 WAUNITA WAY","SACRAMENTO","CA",95838,38.646256631,-121.462295759,166,"244 WAUNITA WAY, SACRAMENTO, CA, 95838","Match","Exact","244 WAUNITA WAY, SACRAMENTO, CA, 95838",133320708,"R"
135167,"244 WEST 108TH STREET","CHICAGO","IL",60628,41.6979823990001,-87.629410988,167,"244 WEST 108TH STREET, CHICAGO, IL, 60628","Match","Exact","244 W 108TH ST, CHICAGO, IL, 60628",605580922,"R"
135168,"244 WEST 149ST APT 2C","NEW YORK","NY",10039,NA,NA,168,"244 WEST 149ST APT 2C, NEW YORK, NY, 10039","No_Match",NA,NA,NA,NA
135169,"244 WEST FORK RD","CASCADE","VA",24069,36.640222292,-79.617079941,169,"244 WEST FORK RD, CASCADE, VA, 24069","Match","Exact","244 W FORK RD, CASCADE, VA, 24069",56602259,"L"
135170,"244 WEST KELSO APT3","TUCSON","AZ",85405,NA,NA,170,"244 WEST KELSO APT3, TUCSON, AZ, 85405","No_Match",NA,NA,NA,NA
135171,"244 WEST LOCUST AVENUE","EDISON","NJ",8820,40.600003735,-74.3434581019999,171,"244 WEST LOCUST AVENUE, EDISON, NJ, 8820","Match","Exact","244 W LOCUST AVE, EDISON, NJ, 08820",60271666,"R"
135172,"244 WEST MICHIGAN AVENUE","JACKSON","MI",49201,42.247462123,-84.4106329539999,172,"244 WEST MICHIGAN AVENUE, JACKSON, MI, 49201","Match","Exact","244 W MICHIGAN AVE, JACKSON, MI, 49201",17616829,"R"
135173,"244 WEYBOSSET STREET","PROVIDENCE","RI",2903,41.821091532,-71.412904206,173,"244 WEYBOSSET STREET, PROVIDENCE, RI, 2903","Match","Exact","244 WEYBOSSET ST, PROVIDENCE, RI, 02903",47465879,"L"
135174,"244 WINDSOR AVENUE","WESTFIELD","NJ",7090,40.6483722510001,-74.335387424,174,"244 WINDSOR AVENUE, WESTFIELD, NJ, 7090","Match","Exact","244 WINDSOR AVE, WESTFIELD, NJ, 07090",60573741,"R"
135175,"244 WINTERBERRY ROAD","GALAX","VA",24333,36.700249946,-80.868825511,175,"244 WINTERBERRY ROAD, GALAX, VA, 24333","Match","Exact","244 WINTERBERRY RD, GALAX, VA, 24333",153828757,"R"
135176,"244 WONDERVIEW ROAD","CATAWISSA","PA",17820,NA,NA,176,"244 WONDERVIEW ROAD, CATAWISSA, PA, 17820","No_Match",NA,NA,NA,NA
135177,"244 WOODLANE LANE","HOBART","IL",46342,NA,NA,177,"244 WOODLANE LANE, HOBART, IL, 46342","No_Match",NA,NA,NA,NA
135178,"244 WOODLANE LANE","HOBART","IN",46342,NA,NA,178,"244 WOODLANE LANE, HOBART, IN, 46342","No_Match",NA,NA,NA,NA
135179,"244-02 JERICHO TPKE GROUND FLOOR","FLORAL PARK","NY",11001,NA,NA,179,"244-02 JERICHO TPKE GROUND FLOOR, FLORAL PARK, NY, 11001","Tie",NA,NA,NA,NA
135180,"244-06 138TH AVENUE","ROSEDALE","NY",11422,40.667091063,-73.733256602,180,"244-06 138TH AVENUE, ROSEDALE, NY, 11422","Match","Exact","244-6 138TH AVE, ROSEDALE, NY, 11422",59721726,"R"
135181,"244-21 149TH AVE","ROSEDALE","NY",11422,40.6526718060001,-73.73985956,181,"244-21 149TH AVE, ROSEDALE, NY, 11422","Match","Exact","244-21 149TH AVE, ROSEDALE, NY, 11422",635482898,"L"
135182,"244-2900 DELK ROAD SUITE 700","MARIETTA","GA",30067,NA,NA,182,"244-2900 DELK ROAD SUITE 700, MARIETTA, GA, 30067","No_Match",NA,NA,NA,NA
135183,"244-97 61ST AVE 3FL","LITTLE NECK","NY",11362,40.7564694160001,-73.7335517349999,183,"244-97 61ST AVE 3FL, LITTLE NECK, NY, 11362","Match","Exact","244-97 61ST AVE, LITTLE NECK, NY, 11362",59704277,"L"
135184,"244","OWINGS MILLS","MD",21117,NA,NA,184,"244, OWINGS MILLS, MD, 21117","No_Match",NA,NA,NA,NA
135185,"2440 16TH STREET STE 305","SAN FRANCISCO","CA",94118,37.765589527,-122.410894872,185,"2440 16TH STREET STE 305, SAN FRANCISCO, CA, 94118","Match","Non_Exact","2440 16TH ST, SAN FRANCISCO, CA, 94103",192287674,"R"
135186,"2440 79TH AVE","PHILADELPHIA","PA",19150,40.072168108,-75.1590553899999,186,"2440 79TH AVE, PHILADELPHIA, PA, 19150","Match","Exact","2440 79TH AVE, PHILADELPHIA, PA, 19150",131412896,"L"
135187,"2440 ACKERMAN ROAD","SAN ANTONIO","TX",78219,29.4506239500001,-98.3812093289999,187,"2440 ACKERMAN ROAD, SAN ANTONIO, TX, 78219","Match","Exact","2440 ACKERMAN RD, SAN ANTONIO, TX, 78219",640622791,"R"
135188,"2440 BOGGY CREEK RD","KISSIMMEE","FL",34744,28.3109259140001,-81.34584697,188,"2440 BOGGY CREEK RD, KISSIMMEE, FL, 34744","Match","Exact","2440 BOGGY CREEK RD, KISSIMMEE, FL, 34744",633969372,"R"
135189,"2440 CAMINO RAMON STE 111","SAN RAMON","CA",94583,NA,NA,189,"2440 CAMINO RAMON STE 111, SAN RAMON, CA, 94583","No_Match",NA,NA,NA,NA
135190,"2440 CAMINO RAMON STE 140","SAN RAMON","CA",94583,NA,NA,190,"2440 CAMINO RAMON STE 140, SAN RAMON, CA, 94583","No_Match",NA,NA,NA,NA
135191,"2440 CAMPUS SHORE DRIVE - UNIT 105","RALEIGH","NC",27606,35.767821783,-78.681823338,191,"2440 CAMPUS SHORE DRIVE - UNIT 105, RALEIGH, NC, 27606","Match","Exact","2440 CAMPUS SHORE DR, RALEIGH, NC, 27606",612816987,"L"
135192,"2440 CARDINAL DRIVE APT 20","SAN DIEGO","CA",92123,32.7878232850001,-117.157261409,192,"2440 CARDINAL DRIVE APT 20, SAN DIEGO, CA, 92123","Match","Exact","2440 CARDINAL DR, SAN DIEGO, CA, 92123",195306743,"L"
135193,"2440 DRUID HILL AVENUE","BALTIMORE","MD",21217,39.3123283030001,-76.6401642019999,193,"2440 DRUID HILL AVENUE, BALTIMORE, MD, 21217","Match","Exact","2440 DRUID HILL AVE, BALTIMORE, MD, 21217",206416112,"L"
135194,"2440 E TUDOR RD BOX 184","ANCHORAGE","AK",99507,61.1808311450001,-149.833722187,194,"2440 E TUDOR RD BOX 184, ANCHORAGE, AK, 99507","Match","Non_Exact","2440 E TUDOR RD, ANCHORAGE, AK, 99507",190800154,"R"
135195,"2440 E TUDOR RD PMB 896","ANCHORAGE","AK",99507,61.1808311450001,-149.833722187,195,"2440 E TUDOR RD PMB 896, ANCHORAGE, AK, 99507","Match","Non_Exact","2440 E TUDOR RD, ANCHORAGE, AK, 99507",190800154,"R"
135196,"2440 E TUDOR RD STE 966","ANCHORAGE","AK",99507,61.1808311450001,-149.833722187,196,"2440 E TUDOR RD STE 966, ANCHORAGE, AK, 99507","Match","Non_Exact","2440 E TUDOR RD, ANCHORAGE, AK, 99507",190800154,"R"
135197,"2440 E WHITTEN STREET","CHANDLER","AZ",85225,33.2970631360001,-111.799667848,197,"2440 E WHITTEN STREET, CHANDLER, AZ, 85225","Match","Exact","2440 E WHITTEN ST, CHANDLER, AZ, 85225",128812508,"L"
135198,"2440 EAGLES EYRIE CT  SUITE 5","LOUISVILLE","KY",40206,38.2580432020001,-85.6997050579999,198,"2440 EAGLES EYRIE CT  SUITE 5, LOUISVILLE, KY, 40206","Match","Exact","2440 EAGLES EYRIE CT, LOUISVILLE, KY, 40206",96851510,"L"
135199,"2440 EAST 21ST STREET","OAKLAND","CA",94601,37.787073482,-122.229031482,199,"2440 EAST 21ST STREET, OAKLAND, CA, 94601","Match","Exact","2440 E 21ST ST, OAKLAND, CA, 94601",125002734,"L"
135200,"2440 HARRIET AVE S","MINNEAPOLIS","MN",55405,44.9583520420001,-93.285491445,200,"2440 HARRIET AVE S, MINNEAPOLIS, MN, 55405","Match","Exact","2440 HARRIET AVE S, MINNEAPOLIS, MN, 55405",43632218,"R"
135201,"2440 HOLY CROSS ROAD","LORETTO","KY",40037,37.6683906860001,-85.40747014,201,"2440 HOLY CROSS ROAD, LORETTO, KY, 40037","Match","Exact","2440 HOLY CROSS RD, LORETTO, KY, 40037",32586743,"R"
135202,"2440 HUNTER AVENUE","BRONX","NY",10475,NA,NA,202,"2440 HUNTER AVENUE, BRONX, NY, 10475","Tie",NA,NA,NA,NA
135203,"2440 HURON TRAIL","MUSKEGON","MI",49445,43.286705511,-86.1817171769999,203,"2440 HURON TRAIL, MUSKEGON, MI, 49445","Match","Exact","2440 HURON TRL, MUSKEGON, MI, 49445",633201211,"L"
135204,"2440 HWY 95 STE B","BULLHEAD CITY","AZ",86442,35.097165896,-114.598040347,204,"2440 HWY 95 STE B, BULLHEAD CITY, AZ, 86442","Match","Non_Exact","2440 STATE RTE 95, BULLHEAD CITY, AZ, 86442",614050165,"R"
135205,"2440 KENSIGNTON AVE","PHILADELPHIA","PA",19125,NA,NA,205,"2440 KENSIGNTON AVE, PHILADELPHIA, PA, 19125","No_Match",NA,NA,NA,NA
135206,"2440 LAKEBEND DR","FRISCO","TX",75068,33.1903063010001,-96.89477224,206,"2440 LAKEBEND DR, FRISCO, TX, 75068","Match","Non_Exact","2440 LAKEBEND DR, OAK POINT, TX, 75068",639409385,"R"
135207,"2440 M ST NW SUITE 318","WASHINGTON","DC",20037,38.9052546730001,-77.052205331,207,"2440 M ST NW SUITE 318, WASHINGTON, DC, 20037","Match","Exact","2440 M ST NW, WASHINGTON, DC, 20037",76225225,"L"
135208,"2440 MARIMONT LANE","LANCASTER","TX",75134,32.622709555,-96.80374599,208,"2440 MARIMONT LANE, LANCASTER, TX, 75134","Match","Exact","2440 MARIMONT LN, LANCASTER, TX, 75134",103174942,"L"
135209,"2440 MUIRFIELD WAY","GILROY","CA",95020,37.0053559900001,-121.614319601,209,"2440 MUIRFIELD WAY, GILROY, CA, 95020","Match","Exact","2440 MUIRFIELD WAY, GILROY, CA, 95020",618186591,"L"
135210,"2440 N 19TH STREET","MILWAUKEE","WI",53206,43.0630782960001,-87.936311043,210,"2440 N 19TH STREET, MILWAUKEE, WI, 53206","Match","Exact","2440 N 19TH ST, MILWAUKEE, WI, 53206",77738520,"R"
135211,"2440 N 24TH STREET","PHILADELPHIA","PA",19132,39.9925239950001,-75.171531911,211,"2440 N 24TH STREET, PHILADELPHIA, PA, 19132","Match","Exact","2440 N 24TH ST, PHILADELPHIA, PA, 19132",131402644,"L"
135212,"2440 N HARDING ST","INDIANAPOLIS","IN",46208,39.801778352,-86.187584078,212,"2440 N HARDING ST, INDIANAPOLIS, IN, 46208","Match","Exact","2440 N HARDING ST, INDIANAPOLIS, IN, 46208",107986582,"L"
135213,"2440 NOBLE RD 203","CLEVELAND HTS","OH",44121,41.5339932620001,-81.547654494,213,"2440 NOBLE RD 203, CLEVELAND HTS, OH, 44121","Match","Exact","2440 NOBLE RD, CLEVELAND HEIGHTS, OH, 44121",61124272,"R"
135214,"2440 NW NORTH ALBANY RD","ALBANY","OR",97321,NA,NA,214,"2440 NW NORTH ALBANY RD, ALBANY, OR, 97321","No_Match",NA,NA,NA,NA
135215,"2440 OAKDALE STREET","HOUSTON","TX",77004,29.7200313290001,-95.375387683,215,"2440 OAKDALE STREET, HOUSTON, TX, 77004","Match","Exact","2440 OAKDALE ST, HOUSTON, TX, 77004",96072202,"R"
135216,"2440 PLEASANTDALE ROAD SUITE 200","DORAVILLE","GA",30340,33.9159109760001,-84.244259654,216,"2440 PLEASANTDALE ROAD SUITE 200, DORAVILLE, GA, 30340","Match","Exact","2440 PLEASANTDALE RD, DORAVILLE, GA, 30340",88883746,"L"
135217,"2440 PROSPECT DR","UPLAND","CA",91784,34.153974637,-117.645598432,217,"2440 PROSPECT DR, UPLAND, CA, 91784","Match","Exact","2440 PROSPECT DR, UPLAND, CA, 91784",645528801,"L"
135218,"2440 RAM CROSSING WAY","HENDERSON","NV",89074,36.038858276,-115.088865478,218,"2440 RAM CROSSING WAY, HENDERSON, NV, 89074","Match","Exact","2440 RAM CROSSING WAY, HENDERSON, NV, 89074",201910438,"R"
135219,"2440 RIVER RD","BAINBRIDGE","PA",17502,40.11798435,-76.6979585349999,219,"2440 RIVER RD, BAINBRIDGE, PA, 17502","Match","Exact","2440 RIVER RD, BAINBRIDGE, PA, 17502",179716567,"L"
135220,"2440 SANDY PLAINS RD BLDG 3 STE 110","MARIETTA","GA",30066,34.0181713900001,-84.491394352,220,"2440 SANDY PLAINS RD BLDG 3 STE 110, MARIETTA, GA, 30066","Match","Exact","2440 SANDY PLAINS RD, MARIETTA, GA, 30066",652698497,"R"
135221,"2440 SOUTH OAKLEY UNIT 1R","CHICAGO","IL",60608,41.8471091710001,-87.683061837,221,"2440 SOUTH OAKLEY UNIT 1R, CHICAGO, IL, 60608","Match","Non_Exact","2440 S OAKLEY AVE, CHICAGO, IL, 60608",616886362,"R"
135222,"2440 SOUTH SANDUSKY AVE","TULSA","OK",74114,36.1281611630001,-95.92748005,222,"2440 SOUTH SANDUSKY AVE, TULSA, OK, 74114","Match","Exact","2440 S SANDUSKY AVE, TULSA, OK, 74114",166449589,"R"
135223,"2440 SUMMIT DR","ESCONDIDO","CA",92025,33.0986741400001,-117.043382511,223,"2440 SUMMIT DR, ESCONDIDO, CA, 92025","Match","Exact","2440 SUMMIT DR, ESCONDIDO, CA, 92025",195710015,"L"
135224,"2440 TEXAS PARKWAY - STE 120","MISSOURI CITY","TX",77489,29.592818058,-95.526611967,224,"2440 TEXAS PARKWAY - STE 120, MISSOURI CITY, TX, 77489","Match","Exact","2440 TEXAS PKWY, MISSOURI CITY, TX, 77489",78274525,"L"
135225,"2440 TEXAS PARKWAY - SUITE 120","MISSOURI CITY","TX",77489,29.592818058,-95.526611967,225,"2440 TEXAS PARKWAY - SUITE 120, MISSOURI CITY, TX, 77489","Match","Exact","2440 TEXAS PKWY, MISSOURI CITY, TX, 77489",78274525,"L"
135226,"2440 TEXAS PARKWAY SUITE 335","MISSOURI CITY","TX",77489,29.592818058,-95.526611967,226,"2440 TEXAS PARKWAY SUITE 335, MISSOURI CITY, TX, 77489","Match","Exact","2440 TEXAS PKWY, MISSOURI CITY, TX, 77489",78274525,"L"
135227,"2440 TRAFALGAR DR","ORLANDO","FL",32837,28.4021110940001,-81.411633189,227,"2440 TRAFALGAR DR, ORLANDO, FL, 32837","Match","Exact","2440 TRAFALGAR DR, ORLANDO, FL, 32837",94290392,"R"
135228,"2440 VIRGINIA AVE NW APT D1109","WASHINGTON","DC",20037,38.8980934210001,-77.0520187659999,228,"2440 VIRGINIA AVE NW APT D1109, WASHINGTON, DC, 20037","Match","Exact","2440 VIRGINIA AVE NW, WASHINGTON, DC, 20037",638314240,"R"
135229,"2440 W MCMICKEN AVE","CINCINNATI","OH",45214,39.127175822,-84.531551291,229,"2440 W MCMICKEN AVE, CINCINNATI, OH, 45214","Match","Exact","2440 W MCMICKEN AVE, CINCINNATI, OH, 45214",103923093,"R"
135230,"2440 W SHAW AVE","FRESNO","CA",93711,36.8083053060001,-119.836321378,230,"2440 W SHAW AVE, FRESNO, CA, 93711","Match","Exact","2440 W SHAW AVE, FRESNO, CA, 93711",197613009,"R"
135231,"2440 WEST CUMBERLAND STREET","PHILADELPHIA","PA",19132,39.9930300280001,-75.1721121159999,231,"2440 WEST CUMBERLAND STREET, PHILADELPHIA, PA, 19132","Match","Exact","2440 W CUMBERLAND ST, PHILADELPHIA, PA, 19132",131402634,"L"
135232,"2440 WEST PINE STREET","MOUNT AIRY","NC",27030,36.503935045,-80.6730316319999,232,"2440 WEST PINE STREET, MOUNT AIRY, NC, 27030","Match","Exact","2440 W PINE ST, MOUNT AIRY, NC, 27030",154184205,"R"
135233,"2440 WINDING RIDGE RD","ODENTON","MD",21113,39.068603281,-76.7125743779999,233,"2440 WINDING RIDGE RD, ODENTON, MD, 21113","Match","Exact","2440 WINDING RIDGE RD, ODENTON, MD, 21113",68215039,"R"
135234,"2440","MENLO PARK","CA",94025,NA,NA,234,"2440, MENLO PARK, CA, 94025","No_Match",NA,NA,NA,NA
135235,"24400 SW 124 AVENUE","MIAMI","FL",33032,25.541588872,-80.392380776,235,"24400 SW 124 AVENUE, MIAMI, FL, 33032","Match","Non_Exact","24400 SW 124TH AVE, NARANJA, FL, 33032",116279166,"R"
135236,"24401 CARMAN LN","MORENO VALLEY","CA",92551,33.88880104,-117.236777891,236,"24401 CARMAN LN, MORENO VALLEY, CA, 92551","Match","Exact","24401 CARMAN LN, MORENO VALLEY, CA, 92551",194856362,"L"
135237,"24401 EDGEBROOK DRIVE","HAYWARD","CA",94541,37.671944969,-122.059409491,237,"24401 EDGEBROOK DRIVE, HAYWARD, CA, 94541","Match","Exact","24401 EDGEBROOK DR, HAYWARD, CA, 94541",606269297,"L"
135238,"24403 SE TIGER MOUNTAIN RD","ISSAQUAH","WA",98027,47.47505442,-122.015150458,238,"24403 SE TIGER MOUNTAIN RD, ISSAQUAH, WA, 98027","Match","Exact","24403 SE TIGER MOUNTAIN RD, ISSAQUAH, WA, 98027",640605323,"L"
135239,"24405 BUCHANAN COURT 1924","FARMINGTON HILLS","MI",48335,42.4711869670001,-83.410836293,239,"24405 BUCHANAN COURT 1924, FARMINGTON HILLS, MI, 48335","Match","Exact","24405 BUCHANAN CT, FARMINGTON HILLS, MI, 48335",631810807,"L"
135240,"24405 SAN LUIS AVENUE","CARMEL","CA",93923,36.567682797,-121.915922223,240,"24405 SAN LUIS AVENUE, CARMEL, CA, 93923","Match","Exact","24405 SAN LUIS AVE, CARMEL, CA, 93923",196814122,"L"
135241,"24407 SOAPSTONE LANE","SPRING","TX",77373,30.10940643,-95.43288878,241,"24407 SOAPSTONE LANE, SPRING, TX, 77373","Match","Exact","24407 SOAPSTONE LN, SPRING, TX, 77373",627726539,"L"
135242,"24407 SW 6TH PLACE","NEWBERRY","FL",32669,29.6423466740001,-82.600546627,242,"24407 SW 6TH PLACE, NEWBERRY, FL, 32669","Match","Exact","24407 SW 6TH PL, NEWBERRY, FL, 32669",629926247,"L"
135243,"2441 11TH AVE S","MINNEAPOLIS","MN",55404,44.9583697510001,-93.25870628,243,"2441 11TH AVE S, MINNEAPOLIS, MN, 55404","Match","Exact","2441 11TH AVE S, MINNEAPOLIS, MN, 55404",43633321,"L"
135244,"2441 CARDINAL DR 13","SAN DIEGO","CA",92123,32.7887064390001,-117.158528503,244,"2441 CARDINAL DR 13, SAN DIEGO, CA, 92123","Match","Exact","2441 CARDINAL DR, SAN DIEGO, CA, 92123",195306602,"R"
135245,"2441 CROWN POINTE BLVD","SUAMICO","WI",54173,44.6066256070001,-88.024749948,245,"2441 CROWN POINTE BLVD, SUAMICO, WI, 54173","Match","Exact","2441 CROWN POINTE BLVD, SUAMICO, WI, 54173",148117056,"R"
135246,"2441 DEN STREET","ST. AUGUSTINE","FL",32092,29.9691634380001,-81.5197906719999,246,"2441 DEN STREET, ST. AUGUSTINE, FL, 32092","Match","Exact","2441 DEN ST, SAINT AUGUSTINE, FL, 32092",92622377,"R"
135247,"2441 E K AVENUE","VISALIA","CA",93292,36.305603408,-119.265138523,247,"2441 E K AVENUE, VISALIA, CA, 93292","Match","Non_Exact","2441 E K RD, VISALIA, CA, 93292",202782486,"R"
135248,"2441 FOURTH STREET NW","WASHINGTON DC","DC",20059,38.9222870790001,-77.018318004,248,"2441 FOURTH STREET NW, WASHINGTON DC, DC, 20059","Match","Exact","2441 4TH ST NW, WASHINGTON, DC, 20059",76224386,"R"
135249,"2441 GA HWY 313","SYLVESTER","GA",31791,31.57256469,-83.854282057,249,"2441 GA HWY 313, SYLVESTER, GA, 31791","Match","Non_Exact","2441 STATE RTE 313, SYLVESTER, GA, 31791",612169212,"L"
135250,"2441 HOBOKEN CREEK RD","GREENWOOD","CA",95635,38.9246699450001,-120.922693441,250,"2441 HOBOKEN CREEK RD, GREENWOOD, CA, 95635","Match","Exact","2441 HOBOKEN CREEK RD, GREENWOOD, CA, 95635",133043115,"R"
135251,"2441 HONOLULU AVENUE SUITE 142","MONTROSE","CA",91020,34.207124536,-118.232572853,251,"2441 HONOLULU AVENUE SUITE 142, MONTROSE, CA, 91020","Match","Exact","2441 HONOLULU AVE, MONTROSE, CA, 91020",141590329,"R"
135252,"2441 LITTLE ROAD","TRINITY","FL",34655,NA,NA,252,"2441 LITTLE ROAD, TRINITY, FL, 34655","No_Match",NA,NA,NA,NA
135253,"2441 MACNAUGHTEN ST","NORTH CANTON","OH",44720,NA,NA,253,"2441 MACNAUGHTEN ST, NORTH CANTON, OH, 44720","No_Match",NA,NA,NA,NA
135254,"2441 MANZ STREET","MUSKEGON","MI",49444,43.2078286980001,-86.2333496379999,254,"2441 MANZ STREET, MUSKEGON, MI, 49444","Match","Exact","2441 MANZ ST, MUSKEGON, MI, 49444",77653926,"R"
135255,"2441 MASON VILLAGE","COLUMBUS","OH",43232,39.922894478,-82.895627641,255,"2441 MASON VILLAGE, COLUMBUS, OH, 43232","Match","Non_Exact","2441 MASON VILLAGE CT, COLUMBUS, OH, 43232",218676944,"R"
135256,"2441 N BARNWALL COURT","TUCSON","AZ",85749,32.2519238470001,-110.743297524,256,"2441 N BARNWALL COURT, TUCSON, AZ, 85749","Match","Exact","2441 N BARNWALL CT, TUCSON, AZ, 85749",623725029,"L"
135257,"2441 N COTTONWOOD LOOP","WASILLA","AK",99654,NA,NA,257,"2441 N COTTONWOOD LOOP, WASILLA, AK, 99654","Tie",NA,NA,NA,NA
135258,"2441 NW 93 AVE SUITE 101","MIAMI","FL",33172,25.7959065310001,-80.346583541,258,"2441 NW 93 AVE SUITE 101, MIAMI, FL, 33172","Match","Non_Exact","2441 NW 93RD AVE, MIAMI, FL, 33172",115970383,"L"
135259,"2441 ORANDEWOOD PL","SIMI VALLEY","CA",93065,NA,NA,259,"2441 ORANDEWOOD PL, SIMI VALLEY, CA, 93065","No_Match",NA,NA,NA,NA
135260,"2441 PENBROOKE AVE","SANTA ROSA","CA",95403,38.477796396,-122.758997736,260,"2441 PENBROOKE AVE, SANTA ROSA, CA, 95403","Match","Exact","2441 PENBROOKE AVE, SANTA ROSA, CA, 95403",67516507,"R"
135261,"2441 PROFESSIONAL PKWY","SANTA MARIA","CA",93455,34.915598609,-120.438483199,261,"2441 PROFESSIONAL PKWY, SANTA MARIA, CA, 93455","Match","Exact","2441 PROFESSIONAL PKWY, SANTA MARIA, CA, 93455",108662997,"R"
135262,"2441 PROSPECT CHURCH RD","MOORESBORO","NC",28114,35.2060385400001,-81.737459724,262,"2441 PROSPECT CHURCH RD, MOORESBORO, NC, 28114","Match","Exact","2441 PROSPECT CHURCH RD, MOORESBORO, NC, 28114",19322680,"R"
135263,"2441 REDCOACH LANE","LA HABRA","CA",90631,33.9186092840001,-117.973740964,263,"2441 REDCOACH LANE, LA HABRA, CA, 90631","Match","Exact","2441 REDCOACH LN, LA HABRA, CA, 90631",143997998,"R"
135264,"2441 ROBERTS RIDGE RD","MOUNDSVILLE","WV",26041,39.879735306,-80.758941823,264,"2441 ROBERTS RIDGE RD, MOUNDSVILLE, WV, 26041","Match","Exact","2441 ROBERTS RIDGE RD, MOUNDSVILLE, WV, 26041",38081422,"L"
135265,"2441 SOUTH BARONETTE COURT","DECATUR","IL",62521,39.811435809,-88.8953724799999,265,"2441 SOUTH BARONETTE COURT, DECATUR, IL, 62521","Match","Exact","2441 S BARONETTE CT, DECATUR, IL, 62521",20750330,"R"
135266,"2441 ST HELENA AVE","BEAUMONT","TX",77703,30.1006664650001,-94.117501894,266,"2441 ST HELENA AVE, BEAUMONT, TX, 77703","Match","Non_Exact","2441 ST HELENA ST, BEAUMONT, TX, 77703",647787513,"L"
135267,"2441 STATE HWY ZZ","BILLINGS","MO",65610,37.061561173,-93.431360034,267,"2441 STATE HWY ZZ, BILLINGS, MO, 65610","Match","Exact","2441 STATE HWY ZZ, BILLINGS, MO, 65610",99830042,"R"
135268,"2441 SW 82ND AVE STE 102","DAVIE","FL",33324,26.089929763,-80.257002417,268,"2441 SW 82ND AVE STE 102, DAVIE, FL, 33324","Match","Non_Exact","2441 SW 82ND AVE, DAVIE, FL, 33324",645594710,"R"
135269,"2441 SW WASHINGTON ST","PORT ST LUCIE","FL",34952,27.27107306,-80.399640909,269,"2441 SW WASHINGTON ST, PORT ST LUCIE, FL, 34952","Match","Non_Exact","2441 SW WASHINGTON ST, PORT SAINT LUCIE, FL, 34953",120138283,"R"
135270,"2441 TOM LANE RD","BENTON","KY",42025,NA,NA,270,"2441 TOM LANE RD, BENTON, KY, 42025","No_Match",NA,NA,NA,NA
135271,"2441 TOUR EDITION DR","HENDERSON","NV",89074,36.0358435430001,-115.0936201,271,"2441 TOUR EDITION DR, HENDERSON, NV, 89074","Match","Exact","2441 TOUR EDITION DR, HENDERSON, NV, 89074",201910420,"L"
135272,"2441 TYLER WAY","SALEM","VA",24153,37.270694807,-80.064341524,272,"2441 TYLER WAY, SALEM, VA, 24153","Match","Exact","2441 TYLER WAY, SALEM, VA, 24153",646488787,"L"
135273,"2441-A ROUTE 22 WEST","UNION","NJ",7083,NA,NA,273,"2441-A ROUTE 22 WEST, UNION, NJ, 7083","No_Match",NA,NA,NA,NA
135274,"2441-Q OLD FORK PKWY 331","MURFREESBORO","TN",37128,NA,NA,274,"2441-Q OLD FORK PKWY 331, MURFREESBORO, TN, 37128","No_Match",NA,NA,NA,NA
135275,"24410 AVENIDA DE MARCIA","YORBA LINDA","CA",92887,33.8811069990001,-117.726500662,275,"24410 AVENIDA DE MARCIA, YORBA LINDA, CA, 92887","Match","Exact","24410 AVE DE MARCIA, YORBA LINDA, CA, 92887",144126744,"R"
135276,"24411 FERROCARRIL","MISSION VIEJO","CA",92691,33.607946241,-117.676623654,276,"24411 FERROCARRIL, MISSION VIEJO, CA, 92691","Match","Exact","24411 FERROCARRIL, MISSION VIEJO, CA, 92691",144065288,"R"
135277,"24411 TREVINO DRIVE  UNIT A-9","VALENCIA","CA",91355,34.3881502880001,-118.56147562,277,"24411 TREVINO DRIVE  UNIT A-9, VALENCIA, CA, 91355","Match","Non_Exact","24411 W TREVINO DR, VALENCIA, CA, 91355",241238916,"L"
135278,"24412 VOLTARA CT","CALABASAS","CA",91302,34.144348065,-118.661895509,278,"24412 VOLTARA CT, CALABASAS, CA, 91302","Match","Exact","24412 VOLTARA CT, CALABASAS, CA, 91302",141798266,"R"
135279,"24413 UTE TRAIL ROAD","CEDAREDGE","CO",81413,38.95209113,-107.905732611,279,"24413 UTE TRAIL ROAD, CEDAREDGE, CO, 81413","Match","Exact","24413 UTE TRAIL RD, CEDAREDGE, CO, 81413",634697524,"L"
135280,"24414 UNIVERSITY AVE SP 108","LOMA LINDA","CA",92354,34.0520207480001,-117.272106999,280,"24414 UNIVERSITY AVE SP 108, LOMA LINDA, CA, 92354","Match","Exact","24414 UNIVERSITY AVE, LOMA LINDA, CA, 92354",636687543,"L"
135281,"24416 MARBELLA AVENUE","CARSON","CA",90745,33.803892691,-118.270612564,281,"24416 MARBELLA AVENUE, CARSON, CA, 90745","Match","Exact","24416 MARBELLA AVE, CARSON, CA, 90745",141681866,"L"
135282,"24417 WASATCH COURT","CORONA","CA",92883,33.7647015360001,-117.482155898,282,"24417 WASATCH COURT, CORONA, CA, 92883","Match","Exact","24417 WASATCH CT, CORONA, CA, 92883",608997821,"L"
135283,"24418 BERRY AVE","WARREN","MI",48089,42.4744016930001,-82.971298062,283,"24418 BERRY AVE, WARREN, MI, 48089","Match","Exact","24418 BERRY AVE, WARREN, MI, 48089",110678086,"R"
135284,"24418 COUNTY ROAD 16","ELKHART","IN",46516,41.6725821700001,-85.934789657,284,"24418 COUNTY ROAD 16, ELKHART, IN, 46516","Match","Exact","24418 CO RD 16, ELKHART, IN, 46516",639396527,"L"
135285,"2441Q OLD FORT PKWY SU 383","MURFREESBORO","TN",37128,35.8450039320001,-86.448090846,285,"2441Q OLD FORT PKWY SU 383, MURFREESBORO, TN, 37128","Match","Exact","2441 OLD FORT PKWY, MURFREESBORO, TN, 37128",59042392,"R"
135286,"2442 1ST AVE N","BILLINGS","MT",59101,45.7842356900001,-108.501392356,286,"2442 1ST AVE N, BILLINGS, MT, 59101","Match","Exact","2442 1ST AVE N, BILLINGS, MT, 59101",181477777,"L"
135287,"2442 23RD STREET NORTH SUITE 19","ST PETERSBURG","FL",33713,27.7952357390001,-82.6639884209999,287,"2442 23RD STREET NORTH SUITE 19, ST PETERSBURG, FL, 33713","Match","Exact","2442 23RD ST N, SAINT PETERSBURG, FL, 33713",124748490,"R"
135288,"2442 AIRWAYS RD","NESBIT","MS",38651,34.8976687970001,-89.990504319,288,"2442 AIRWAYS RD, NESBIT, MS, 38651","Match","Exact","2442 AIRWAYS RD, NESBIT, MS, 38651",91847440,"L"
135289,"2442 CLIFTON SPRINGS MANOR","DECATUR","GA",30034,33.689283032,-84.289527474,289,"2442 CLIFTON SPRINGS MANOR, DECATUR, GA, 30034","Match","Exact","2442 CLIFTON SPRINGS MANOR, DECATUR, GA, 30034",23369134,"L"
135290,"2442 FM 1107","STOCKDALE","TX",78160,29.2555102920001,-97.919512724,290,"2442 FM 1107, STOCKDALE, TX, 78160","Match","Exact","2442 FM 1107, STOCKDALE, TX, 78160",54894168,"R"
135291,"2442 GOLF DRIVE","CINCINNATI","OH",45239,39.2153673710001,-84.572352257,291,"2442 GOLF DRIVE, CINCINNATI, OH, 45239","Match","Exact","2442 GOLF DR, CINCINNATI, OH, 45239",103968287,"L"
135292,"2442 NETHERHALL CV","GERMANTOWN","TN",38139,35.082037848,-89.759968342,292,"2442 NETHERHALL CV, GERMANTOWN, TN, 38139","Match","Exact","2442 NETHERHALL COVE, GERMANTOWN, TN, 38139",72941988,"L"
135293,"2442 NW MARKET ST SUITE 621","SEATTLE","WA",98107,47.6686790900001,-122.388256258,293,"2442 NW MARKET ST SUITE 621, SEATTLE, WA, 98107","Match","Non_Exact","2442 NW MARKET ST, SEATTLE, WA, 98107",186658769,"R"
135294,"2442 PASADENA AVENUE  APT 5","LONG BEACH","CA",90806,33.8015504410001,-118.18717513,294,"2442 PASADENA AVENUE  APT 5, LONG BEACH, CA, 90806","Match","Non_Exact","2442 N PASADENA AVE, LONG BEACH, CA, 90806",141686880,"R"
135295,"2442 RIM OAK","SAN ANTONIO","TX",78232,29.598853606,-98.45428048,295,"2442 RIM OAK, SAN ANTONIO, TX, 78232","Match","Exact","2442 RIM OAK, SAN ANTONIO, TX, 78232",101566674,"L"
135296,"2442 S STN MTN LITHONIA RD SUITE K","LITHONIA","GA",30058,33.7342137570001,-84.11458694,296,"2442 S STN MTN LITHONIA RD SUITE K, LITHONIA, GA, 30058","Match","Non_Exact","2442 S STONE MTN LITHONIA RD, LITHONIA, GA, 30058",23404409,"L"
135297,"2442 SADDLEBROOK DRIVE","GOOCHLAND","VA",23063,37.7069198070001,-77.899028097,297,"2442 SADDLEBROOK DRIVE, GOOCHLAND, VA, 23063","Match","Exact","2442 SADDLEBROOK DR, GOOCHLAND, VA, 23063",633055480,"L"
135298,"2442 SANDALWOOD DR","EL CENTRO","CA",92243,32.7823422500001,-115.583668195,298,"2442 SANDALWOOD DR, EL CENTRO, CA, 92243","Match","Exact","2442 SANDALWOOD DR, EL CENTRO, CA, 92243",194542222,"R"
135299,"2442 SOUTH RIDGE AVENUE","BULLHEAD CITY","AZ",86429,35.1756090540001,-114.550715104,299,"2442 SOUTH RIDGE AVENUE, BULLHEAD CITY, AZ, 86429","Match","Exact","2442 S RIDGE AVE, BULLHEAD CITY, AZ, 86429",190342593,"L"
135300,"2442 TARBET DR","MEMPHIS","TN",38119,35.0818393230001,-89.8567236759999,300,"2442 TARBET DR, MEMPHIS, TN, 38119","Match","Exact","2442 TARBET DR, MEMPHIS, TN, 38119",72968379,"L"
135301,"24420 34TH AVE COURT EAST","SPANAWAY","WA",98387,47.0340973290001,-122.383665007,301,"24420 34TH AVE COURT EAST, SPANAWAY, WA, 98387","Match","Exact","24420 34TH AVENUE CT E, SPANAWAY, WA, 98387",184638042,"L"
135302,"24420 GRATIOT","EASTPOINTE","TX",48021,NA,NA,302,"24420 GRATIOT, EASTPOINTE, TX, 48021","No_Match",NA,NA,NA,NA
135303,"24420 IRONWOOD AVE","MORENO VALLEY","CA",92557,33.9466537590001,-117.236510363,303,"24420 IRONWOOD AVE, MORENO VALLEY, CA, 92557","Match","Exact","24420 IRONWOOD AVE, MORENO VALLEY, CA, 92557",194790480,"L"
135304,"24422 CHESTNUT STREET","NEWHALL","CA",91321,34.3797855550001,-118.531316178,304,"24422 CHESTNUT STREET, NEWHALL, CA, 91321","Match","Exact","24422 CHESTNUT ST, NEWHALL, CA, 91321",241247680,"L"
135305,"24426 CAMPION DRIVE","PLAINFIELD","IL",60585,NA,NA,305,"24426 CAMPION DRIVE, PLAINFIELD, IL, 60585","No_Match",NA,NA,NA,NA
135306,"24426 MEADOWBRIDGE DR","CLINTON TOWNSHIP","MI",48035,42.563951929,-82.865953804,306,"24426 MEADOWBRIDGE DR, CLINTON TOWNSHIP, MI, 48035","Match","Exact","24426 MEADOWBRIDGE DR, CLINTON TOWNSHIP, MI, 48035",110683272,"L"
135307,"24428 STALLION CT","MURRIETA","CA",92562,33.5588880500001,-117.221041988,307,"24428 STALLION CT, MURRIETA, CA, 92562","Match","Exact","24428 STALLION CT, MURRIETA, CA, 92562",194842299,"L"
135308,"2443 CAIN CIRCLE","DACULA","GA",30019,34.0653165640001,-83.9292757159999,308,"2443 CAIN CIRCLE, DACULA, GA, 30019","Match","Exact","2443 CAIN CIR, DACULA, GA, 30019",645880883,"L"
135309,"2443 CHAROLAIS DRIVE","FORT COLLINS","CO",80526,40.5566696750001,-105.122022616,309,"2443 CHAROLAIS DRIVE, FORT COLLINS, CO, 80526","Match","Exact","2443 CHAROLAIS DR, FORT COLLINS, CO, 80526",188580199,"L"
135310,"2443 DAKOTA ROCK DR","RUSKIN","FL",33570,27.6897421410001,-82.426504257,310,"2443 DAKOTA ROCK DR, RUSKIN, FL, 33570","Match","Exact","2443 DAKOTA ROCK DR, RUSKIN, FL, 33570",625641095,"R"
135311,"2443 ECON CIRCLE","ORLANDO","FL",32817,28.5775829090001,-81.257005597,311,"2443 ECON CIRCLE, ORLANDO, FL, 32817","Match","Exact","2443 ECON CIR, ORLANDO, FL, 32817",635628488,"R"
135312,"2443 FAIR OAKS BOULEVARD 135","SACRAMENTO","CA",95825,38.5742734510001,-121.404829318,312,"2443 FAIR OAKS BOULEVARD 135, SACRAMENTO, CA, 95825","Match","Exact","2443 FAIR OAKS BLVD, SACRAMENTO, CA, 95825",648184813,"L"
135313,"2443 FILLMORE ST 380 STE 6159","SAN FRANCISCO","CA",94115,37.7919789050001,-122.43446359,313,"2443 FILLMORE ST 380 STE 6159, SAN FRANCISCO, CA, 94115","Match","Exact","2443 FILLMORE ST, SAN FRANCISCO, CA, 94115",192279699,"L"
135314,"2443 FILLMORE ST 380-3357","SAN FRANCISCO","CA",94115,37.7919789050001,-122.43446359,314,"2443 FILLMORE ST 380-3357, SAN FRANCISCO, CA, 94115","Match","Exact","2443 FILLMORE ST, SAN FRANCISCO, CA, 94115",192279699,"L"
135315,"2443 FILLMORE ST 380-7791","SAN FRANCISCO","CA",94115,37.7919789050001,-122.43446359,315,"2443 FILLMORE ST 380-7791, SAN FRANCISCO, CA, 94115","Match","Exact","2443 FILLMORE ST, SAN FRANCISCO, CA, 94115",192279699,"L"
135316,"2443 FILLMORE ST NUM 380-1310","SAN FRANCISCO","CA",94115,37.7919789050001,-122.43446359,316,"2443 FILLMORE ST NUM 380-1310, SAN FRANCISCO, CA, 94115","Match","Exact","2443 FILLMORE ST, SAN FRANCISCO, CA, 94115",192279699,"L"
135317,"2443 FILLMORE ST STE 380-6278","SAN FRANCISCO","CA",94115,37.7919789050001,-122.43446359,317,"2443 FILLMORE ST STE 380-6278, SAN FRANCISCO, CA, 94115","Match","Exact","2443 FILLMORE ST, SAN FRANCISCO, CA, 94115",192279699,"L"
135318,"2443 FILLMORE STREET  NO 259","SAN FRANCISCO","CA",94115,37.7919789050001,-122.43446359,318,"2443 FILLMORE STREET  NO 259, SAN FRANCISCO, CA, 94115","Match","Non_Exact","2443 FILLMORE ST, SAN FRANCISCO, CA, 94115",192279699,"L"
135319,"2443 FILLMORE STREET 380 STE 6159","SAN FRANCISCO","CA",94115,37.7919789050001,-122.43446359,319,"2443 FILLMORE STREET 380 STE 6159, SAN FRANCISCO, CA, 94115","Match","Exact","2443 FILLMORE ST, SAN FRANCISCO, CA, 94115",192279699,"L"
135320,"2443 FILLMORE STREET 380-2677","SAN FRANCISCO","CA",94115,37.7919789050001,-122.43446359,320,"2443 FILLMORE STREET 380-2677, SAN FRANCISCO, CA, 94115","Match","Exact","2443 FILLMORE ST, SAN FRANCISCO, CA, 94115",192279699,"L"
135321,"2443 FILLMORE STREET NUM 297","SAN FRANCISCO","CA",94115,37.7919789050001,-122.43446359,321,"2443 FILLMORE STREET NUM 297, SAN FRANCISCO, CA, 94115","Match","Exact","2443 FILLMORE ST, SAN FRANCISCO, CA, 94115",192279699,"L"
135322,"2443 FIRST STREET","FORT MYERS","FL",33901,26.645076553,-81.868558464,322,"2443 FIRST STREET, FORT MYERS, FL, 33901","Match","Exact","2443 FIRST ST, FORT MYERS, FL, 33901",118021304,"L"
135323,"2443 FM 1488 NUM 602","CONROE","TX",77384,30.2313386550001,-95.499967608,323,"2443 FM 1488 NUM 602, CONROE, TX, 77384","Match","Non_Exact","2443 FM 1488 RD, CONROE, TX, 77384",641271138,"R"
135324,"2443 FM 1488 RD APT 3202","CONROE","TX",77384,30.2313386550001,-95.499967608,324,"2443 FM 1488 RD APT 3202, CONROE, TX, 77384","Match","Exact","2443 FM 1488 RD, CONROE, TX, 77384",641271138,"R"
135325,"2443 FRANKLIN DRIVE","EAST PETERSBURG","PA",17520,40.106825676,-76.351921835,325,"2443 FRANKLIN DRIVE, EAST PETERSBURG, PA, 17520","Match","Exact","2443 FRANKLIN DR, E PETERSBURG, PA, 17520",625319233,"L"
135326,"2443 GARFIELD AVENUE","DES MOINES","IA",50317,41.602744681,-93.572132131,326,"2443 GARFIELD AVENUE, DES MOINES, IA, 50317","Match","Exact","2443 GARFIELD AVE, DES MOINES, IA, 50317",65788812,"R"
135327,"2443 GLENGARRY RD","JACKSON","MI",49203,42.2292492130001,-84.45640743,327,"2443 GLENGARRY RD, JACKSON, MI, 49203","Match","Non_Exact","2443 GLENNGARRY RD, JACKSON, MI, 49203",17627760,"L"
135328,"2443 KENT AVENUE","FORT MYERS","FL",33907,26.553417725,-81.8579372579999,328,"2443 KENT AVENUE, FORT MYERS, FL, 33907","Match","Exact","2443 KENT AVE, FORT MYERS, FL, 33907",118026941,"L"
135329,"2443 LORRAINE DR","CAHOKIA","IL",62206,38.553057159,-90.1223783629999,329,"2443 LORRAINE DR, CAHOKIA, IL, 62206","Match","Exact","2443 LORRAINE DR, CAHOKIA, IL, 62206",107833442,"L"
135330,"2443 LYNN ROAD SUITE 130","RALEIGH","NC",27612,35.8732162850001,-78.681785813,330,"2443 LYNN ROAD SUITE 130, RALEIGH, NC, 27612","Match","Exact","2443 LYNN RD, RALEIGH, NC, 27612",72604412,"R"
135331,"2443 MARKET ST","EAST ST LOUIS","IL",62207,38.600257437,-90.142821839,331,"2443 MARKET ST, EAST ST LOUIS, IL, 62207","Match","Exact","2443 MARKET ST, E SAINT LOUIS, IL, 62207",107832642,"L"
135332,"2443 MCCOY ROAD","BEAR","DE",19701,39.557762988,-75.676838527,332,"2443 MCCOY ROAD, BEAR, DE, 19701","Match","Exact","2443 MCCOY RD, BEAR, DE, 19701",187284135,"L"
135333,"2443 N DERRICK","WICHITA","KS",67219,37.728024432,-97.3000602879999,333,"2443 N DERRICK, WICHITA, KS, 67219","Match","Non_Exact","2443 N DERRICK ST, WICHITA, KS, 67219",115637293,"L"
135334,"2443 PINKSTON RIVER ROAD","WADESBORO","NC",28170,35.041373912,-80.055518488,334,"2443 PINKSTON RIVER ROAD, WADESBORO, NC, 28170","Match","Exact","2443 PINKSTON RIVER RD, WADESBORO, NC, 28170",651692259,"L"
135335,"2443 S 43RD ST APT 206","MILWAUKEE","WI",53219,42.99957979,-87.967769527,335,"2443 S 43RD ST APT 206, MILWAUKEE, WI, 53219","Match","Non_Exact","2443 S 43RD ST, MILWAUKEE, WI, 53219",77768941,"R"
135336,"2443 S UNIVERSITY BLVD 132","DENVER","CO",80210,39.672217022,-104.959393041,336,"2443 S UNIVERSITY BLVD 132, DENVER, CO, 80210","Match","Non_Exact","2443 S UNIVERSITY BLVD, DENVER, CO, 80210",177340555,"R"
135337,"2443 SOUTH UNIVERSITY BLVD  SUITE 2","DENVER","CO",80210,39.6722306200001,-104.959393041,337,"2443 SOUTH UNIVERSITY BLVD  SUITE 2, DENVER, CO, 80210","Match","Exact","2443 S UNIVERSITY BLVD, DENVER, CO, 80210",177340555,"R"
135338,"2443 TURNBERRY DRIVE","CINCINNATI","OH",45244,39.0994195750001,-84.3488635959999,338,"2443 TURNBERRY DRIVE, CINCINNATI, OH, 45244","Match","Exact","2443 TURNBERRY DR, CINCINNATI, OH, 45244",103955849,"L"
135339,"2443 W 60TH PL","DAVENPORT","IA",52806,41.582818387,-90.613324741,339,"2443 W 60TH PL, DAVENPORT, IA, 52806","Match","Exact","2443 W 60TH PL, DAVENPORT, IA, 52806",647613649,"R"
135340,"2443 W BEVERLY BLVD","MONTEBELLO","CA",90640,34.021332822,-118.127053305,340,"2443 W BEVERLY BLVD, MONTEBELLO, CA, 90640","Match","Exact","2443 W BEVERLY BLVD, MONTEBELLO, CA, 90640",647544526,"L"
135341,"24431 CAMP SITE ROAD","SAN ANTONIO","TX",78264,29.1634156010001,-98.4412024,341,"24431 CAMP SITE ROAD, SAN ANTONIO, TX, 78264","Match","Exact","24431 CAMP SITE RD, SAN ANTONIO, TX, 78264",101554564,"L"
135342,"24431 JACARTE DR","MURRIETA","CA",92562,33.587007585,-117.193802319,342,"24431 JACARTE DR, MURRIETA, CA, 92562","Match","Exact","24431 JACARTE DR, MURRIETA, CA, 92562",637404831,"R"
135343,"24432 MUIRLANDS BLVD STE 111","LAKE FOREST","CA",92630,33.6263837970001,-117.701594184,343,"24432 MUIRLANDS BLVD STE 111, LAKE FOREST, CA, 92630","Match","Exact","24432 MUIRLANDS BLVD, LAKE FOREST, CA, 92630",629881894,"R"
135344,"24435 SAMOSET","SOUTHFIELD","MI",48034,NA,NA,344,"24435 SAMOSET, SOUTHFIELD, MI, 48034","No_Match",NA,NA,NA,NA
135345,"24435 SPLIT ROCK FLS","TOMBALL","TX",77375,30.115607267,-95.56154785,345,"24435 SPLIT ROCK FLS, TOMBALL, TX, 77375","Match","Exact","24435 SPLIT ROCK FALLS, TOMBALL, TX, 77375",642093343,"L"
135346,"2444 38TH ST NW","CANTON","OH",44709,40.8415257710001,-81.399143747,346,"2444 38TH ST NW, CANTON, OH, 44709","Match","Exact","2444 38TH ST NW, CANTON, OH, 44709",64677145,"L"
135347,"2444 CALENDULA RD","LEXINGTON","KY",40511,38.092230928,-84.530337564,347,"2444 CALENDULA RD, LEXINGTON, KY, 40511","Match","Exact","2444 CALENDULA RD, LEXINGTON, KY, 40511",634864386,"R"
135348,"2444 CENTRAL PARK DR","SIERRA VISTA","AZ",85635,31.5286878540001,-110.273858908,348,"2444 CENTRAL PARK DR, SIERRA VISTA, AZ, 85635","Match","Exact","2444 CENTRAL PARK DR, SIERRA VISTA, AZ, 85635",120988381,"R"
135349,"2444 CHARLESTON ST","HOUSTON TX","TX",77021,29.709851343,-95.379519118,349,"2444 CHARLESTON ST, HOUSTON TX, TX, 77021","Match","Non_Exact","2444 CHARLESTON ST, HOUSTON, TX, 77021",96072156,"R"
135350,"2444 CORNING AVENUE SUITE 103","FORTH WASHINGTON","MD",20744,38.807699133,-76.965566692,350,"2444 CORNING AVENUE SUITE 103, FORTH WASHINGTON, MD, 20744","Match","Exact","2444 CORNING AVE, FT WASHINGTON, MD, 20744",76391900,"L"
135351,"2444 FLORAL AVE","CHICO","CA",95926,39.7598116360001,-121.829271859,351,"2444 FLORAL AVE, CHICO, CA, 95926","Match","Exact","2444 FLORAL AVE, CHICO, CA, 95926",650830423,"R"
135352,"2444 FOREST GROVE AVE SW","WYOMING","MI",49519,42.919936229,-85.723782856,352,"2444 FOREST GROVE AVE SW, WYOMING, MI, 49519","Match","Exact","2444 FOREST GROVE AVE SW, WYOMING, MI, 49519",12454053,"L"
135353,"2444 GREENMOUNT AVENUE","BALTIMORE","MD",21218,39.3172824820001,-76.609483902,353,"2444 GREENMOUNT AVENUE, BALTIMORE, MD, 21218","Match","Exact","2444 GREENMOUNT AVE, BALTIMORE, MD, 21218",206419065,"L"
135354,"2444 NORTHERN OAK DRIVE","BRASELTON","GA",30517,34.108439505,-83.845105211,354,"2444 NORTHERN OAK DRIVE, BRASELTON, GA, 30517","Match","Exact","2444 NORTHERN OAK DR, BRASELTON, GA, 30517",628052712,"R"
135355,"2444 S 9TH AVE","BROADVIEW","IL",60155,41.8598000280001,-87.843106994,355,"2444 S 9TH AVE, BROADVIEW, IL, 60155","Match","Exact","2444 S 9TH AVE, BROADVIEW, IL, 60155",111791318,"R"
135356,"2444 SAND DOLLAR CT","SUAMICO","WI",54313,44.6070324140001,-88.09686965,356,"2444 SAND DOLLAR CT, SUAMICO, WI, 54313","Match","Exact","2444 SAND DOLLAR CT, SUAMICO, WI, 54313",148095387,"R"
135357,"2444 TENOR LANE","ALPHARETTA","GA",30009,34.053506874,-84.299178055,357,"2444 TENOR LANE, ALPHARETTA, GA, 30009","Match","Exact","2444 TENOR LN, ALPHARETTA, GA, 30009",650686192,"L"
135358,"2444 TIMES BLVD STE 236M","HOUSTON","TX",77005,29.7166754780001,-95.415731293,358,"2444 TIMES BLVD STE 236M, HOUSTON, TX, 77005","Match","Exact","2444 TIMES BLVD, HOUSTON, TX, 77005",96063823,"R"
135359,"2444 TIMES STE  236M","HOUSTON","TX",77005,29.7166754780001,-95.415731293,359,"2444 TIMES STE  236M, HOUSTON, TX, 77005","Match","Non_Exact","2444 TIMES BLVD, HOUSTON, TX, 77005",96063823,"R"
135360,"2444 W MONTROSE AVE","CHICAGO","IL",60618,41.96131007,-87.6902222639999,360,"2444 W MONTROSE AVE, CHICAGO, IL, 60618","Match","Exact","2444 W MONTROSE AVE, CHICAGO, IL, 60618",111760427,"R"
135361,"2444 WASHINGTON BLVD","OGDEN","UT",84401,41.221797968,-111.970452599,361,"2444 WASHINGTON BLVD, OGDEN, UT, 84401","Match","Exact","2444 WASHINGTON BLVD, OGDEN, UT, 84401",155697166,"L"
135362,"24444 CAVENDISH AVE E","NOVI","MI",48375,42.4694930900001,-83.480427624,362,"24444 CAVENDISH AVE E, NOVI, MI, 48375","Match","Exact","24444 CAVENDISH AVE E, NOVI, MI, 48375",627699352,"L"
135363,"24448 PINETOWN ROAD","PRESTON","MD",21655,38.798565968,-75.857235625,363,"24448 PINETOWN ROAD, PRESTON, MD, 21655","Match","Exact","24448 PINETOWN RD, PRESTON, MD, 21655",68298761,"R"
135364,"2445 100TH AVE NE","TOLNA","ND",58380,47.7658278700001,-98.439921957,364,"2445 100TH AVE NE, TOLNA, ND, 58380","Match","Exact","2445 100TH AVE NE, TOLNA, ND, 58380",171702505,"L"
135365,"2445 CARDENAS DRIVE NE","ALBUQUERQUE","NM",87110,35.10631764,-106.579842142,365,"2445 CARDENAS DRIVE NE, ALBUQUERQUE, NM, 87110","Match","Exact","2445 CARDENAS DR NE, ALBUQUERQUE, NM, 87110",206716014,"L"
135366,"2445 CONSUELO LN NW","ALBUQUERQUE","NM",87104,35.0982515690001,-106.67282386,366,"2445 CONSUELO LN NW, ALBUQUERQUE, NM, 87104","Match","Exact","2445 CONSUELO LN NW, ALBUQUERQUE, NM, 87104",206705663,"R"
135367,"2445 GEORGE AVE SUITE 4","SAN ANTONIO","TX",78236,NA,NA,367,"2445 GEORGE AVE SUITE 4, SAN ANTONIO, TX, 78236","No_Match",NA,NA,NA,NA
135368,"2445 LAKE TER","EAST POINT","GA",30344,33.6888598850001,-84.4686192779999,368,"2445 LAKE TER, EAST POINT, GA, 30344","Match","Exact","2445 LAKE TER, EAST POINT, GA, 30344",17347128,"L"
135369,"2445 MILL STREET","WINTERVILLE","NC",28590,35.5339735840001,-77.40336552,369,"2445 MILL STREET, WINTERVILLE, NC, 28590","Match","Exact","2445 MILL ST, WINTERVILLE, NC, 28590",80009897,"R"
135370,"2445 N 91ST STREET","WAUWATOSA","WI",53226,43.063132683,-88.026244595,370,"2445 N 91ST STREET, WAUWATOSA, WI, 53226","Match","Exact","2445 N 91ST ST, WAUWATOSA, WI, 53226",77728361,"L"
135371,"2445 N BOOTH STREET","MILWAUKEE","WI",53212,43.0628779050001,-87.9041195789999,371,"2445 N BOOTH STREET, MILWAUKEE, WI, 53212","Match","Exact","2445 N BOOTH ST, MILWAUKEE, WI, 53212",77743539,"L"
135372,"2445 N CHERYL DRIVE","JACKSON","MS",39211,32.359087871,-90.122495504,372,"2445 N CHERYL DRIVE, JACKSON, MS, 39211","Match","Exact","2445 N CHERYL DR, JACKSON, MS, 39211",65361658,"R"
135373,"2445 OAK HILLS DRIVE","LAYTON","UT",84040,41.0652630980001,-111.919734648,373,"2445 OAK HILLS DRIVE, LAYTON, UT, 84040","Match","Exact","2445 OAK HILLS DR, LAYTON, UT, 84040",636158229,"L"
135374,"2445 ORO DAM BLVD","OROVILLE","CA",95966,39.5055766510001,-121.547252356,374,"2445 ORO DAM BLVD, OROVILLE, CA, 95966","Match","Non_Exact","2445 ORO DAM BLVD E, OROVILLE, CA, 95966",68421799,"R"
135375,"2445 PARADISE LANE","LOS OSOS","CA",93402,35.2962054390001,-120.795611924,375,"2445 PARADISE LANE, LOS OSOS, CA, 93402","Match","Exact","2445 PARADISE LN, LOS OSOS, CA, 93402",109817013,"L"
135376,"2445 PEPPERTREE LANE","RIVERSIDE","CA",92506,33.926934793,-117.384842051,376,"2445 PEPPERTREE LANE, RIVERSIDE, CA, 92506","Match","Exact","2445 PEPPERTREE LN, RIVERSIDE, CA, 92506",194743459,"R"
135377,"2445 ROSENDALE ROAD","SCHENECTADY","NY",12309,42.7962003870001,-73.8667908419999,377,"2445 ROSENDALE ROAD, SCHENECTADY, NY, 12309","Match","Exact","2445 ROSENDALE RD, SCHENECTADY, NY, 12309",623976261,"L"
135378,"2445 SPRING STREET - 3905","WOODRIDGE","IL",60517,41.7393715680001,-88.042747091,378,"2445 SPRING STREET - 3905, WOODRIDGE, IL, 60517","Match","Exact","2445 SPRING ST, WOODRIDGE, IL, 60517",112539384,"R"
135379,"2445 SUMMERLAND DRIVE","DECATUR","GA",30032,33.717519607,-84.290874565,379,"2445 SUMMERLAND DRIVE, DECATUR, GA, 30032","Match","Exact","2445 SUMMERLAND DR, DECATUR, GA, 30032",23368421,"R"
135380,"2445 SW 22ND AVE STE 102","DELRAY BEACH","FL",33445,26.432640894,-80.097290733,380,"2445 SW 22ND AVE STE 102, DELRAY BEACH, FL, 33445","Match","Non_Exact","2445 SW 22ND AVE, DELRAY BEACH, FL, 33445",651263343,"L"
135381,"2445 TEMPLE JOHNSON ROAD","SNELLVILLE","GA",30078,33.826762156,-83.9950578689999,381,"2445 TEMPLE JOHNSON ROAD, SNELLVILLE, GA, 30078","Match","Exact","2445 TEMPLE JOHNSON RD, SNELLVILLE, GA, 30078",88948367,"R"
135382,"2445 WEST 64TH PLACE","MERRILLVILLE","IN",46410,41.5013981750001,-87.367551479,382,"2445 WEST 64TH PLACE, MERRILLVILLE, IN, 46410","Match","Exact","2445 W 64TH PL, MERRILLVILLE, IN, 46410",98431208,"L"
135383,"2445 WIETHOFF","INKSTER","MI",48141,42.29410756,-83.3069841349999,383,"2445 WIETHOFF, INKSTER, MI, 48141","Match","Non_Exact","2445 WIETHOFF CT, INKSTER, MI, 48141",95705629,"L"
135384,"24450 EVERGREEN RD STE 207","SOUTHFIELD","MI",48075,42.468831922,-83.240273434,384,"24450 EVERGREEN RD STE 207, SOUTHFIELD, MI, 48075","Match","Exact","24450 EVERGREEN RD, SOUTHFIELD, MI, 48075",69739099,"R"
135385,"24451 PRESTON CT","LAKE ELSINORE","CA",92532,33.667511045,-117.268894963,385,"24451 PRESTON CT, LAKE ELSINORE, CA, 92532","Match","Exact","24451 PRESTON CT, LAKE ELSINORE, CA, 92532",650831567,"R"
135386,"24452 BLACKFOOT DR","Lake Forest","CA",92630,33.6291670860001,-117.702324349,386,"24452 BLACKFOOT DR, Lake Forest, CA, 92630","Match","Exact","24452 BLACKFOOT DR, LAKE FOREST, CA, 92630",144063781,"R"
135387,"24452 BLACKFOOT DRIVE","LAKE FOREST","CA",92630,33.6291670860001,-117.702324349,387,"24452 BLACKFOOT DRIVE, LAKE FOREST, CA, 92630","Match","Exact","24452 BLACKFOOT DR, LAKE FOREST, CA, 92630",144063781,"R"
135388,"24453 90TH AVENUE","BELLROSE","NY",11426,NA,NA,388,"24453 90TH AVENUE, BELLROSE, NY, 11426","No_Match",NA,NA,NA,NA
135389,"24453 JOHN ADAMS DRIVE","PLAINFIELD","IL",60544,41.6157190070001,-88.213635477,389,"24453 JOHN ADAMS DRIVE, PLAINFIELD, IL, 60544","Match","Exact","24453 JOHN ADAMS DR, PLAINFIELD, IL, 60544",641432551,"R"
135390,"2446  OAK MILL DR","KISSIMMEE","FL",34744,28.312864953,-81.373458463,390,"2446  OAK MILL DR, KISSIMMEE, FL, 34744","Match","Exact","2446 OAK MILL DR, KISSIMMEE, FL, 34744",176695043,"L"
135391,"2446 APPLETON DR","INDIANAPOLIS","IN",46227,39.648044686,-86.1194181279999,391,"2446 APPLETON DR, INDIANAPOLIS, IN, 46227","Match","Exact","2446 APPLETON DR, INDIANAPOLIS, IN, 46227",108066265,"L"
135392,"2446 BURR OAK AVENUE","BLUE ISLAND","IL",60643,41.662714577,-87.6818258489999,392,"2446 BURR OAK AVENUE, BLUE ISLAND, IL, 60643","Match","Non_Exact","2446 BURR OAK AVE, BLUE ISLAND, IL, 60406",111825713,"R"
135393,"2446 BURR OAK-2W","BLUE ISLAND","IL",60406,NA,NA,393,"2446 BURR OAK-2W, BLUE ISLAND, IL, 60406","No_Match",NA,NA,NA,NA
135394,"2446 CAMP AVE","NORTH BELLMORE","NY",11710,40.6748262070001,-73.541922211,394,"2446 CAMP AVE, NORTH BELLMORE, NY, 11710","Match","Exact","2446 CAMP AVE, N BELLMORE, NY, 11710",147636741,"R"
135395,"2446 CENTRAL AVENUE","SARASOTA","FL",34234,27.3583223910001,-82.542826802,395,"2446 CENTRAL AVENUE, SARASOTA, FL, 34234","Match","Exact","2446 CENTRAL AVE, SARASOTA, FL, 34234",624970369,"R"
135396,"2446 EDGEWOOD DRIVE","LOCUST GROVE","VA",22508,38.3667281940001,-77.7616111259999,396,"2446 EDGEWOOD DRIVE, LOCUST GROVE, VA, 22508","Match","Exact","2446 EDGEWOOD DR, LOCUST GROVE, VA, 22508",616748774,"L"
135397,"2446 HOBBS RD","LOUISVILLE","TN",37777,35.816388907,-84.003275123,397,"2446 HOBBS RD, LOUISVILLE, TN, 37777","Match","Exact","2446 HOBBS RD, LOUISVILLE, TN, 37777",636670183,"L"
135398,"2446 MOJAVE DRIVE","BRENTWOOD","CA",94513,37.9529894230001,-121.740867805,398,"2446 MOJAVE DRIVE, BRENTWOOD, CA, 94513","Match","Exact","2446 MOJAVE DR, BRENTWOOD, CA, 94513",627229892,"R"
135399,"2446 OLIVE AVENUE","LA CRESCENTA","CA",91214,34.23719379,-118.231706813,399,"2446 OLIVE AVENUE, LA CRESCENTA, CA, 91214","Match","Exact","2446 OLIVE AVE, LA CRESCENTA, CA, 91214",141589637,"L"
135400,"2446 RS COUNTY ROAD 1325","EMORY","TX",75440,32.8041751550001,-95.8593463129999,400,"2446 RS COUNTY ROAD 1325, EMORY, TX, 75440","Match","Exact","2446 RS COUNTY ROAD 1325, EMORY, TX, 75440",651891096,"L"
135401,"2446 S 34TH STREET","MILWAUKEE","WI",53215,43.0003528230001,-87.956769961,401,"2446 S 34TH STREET, MILWAUKEE, WI, 53215","Match","Exact","2446 S 34TH ST, MILWAUKEE, WI, 53215",77750621,"L"
135402,"2446 STIEBER ST","WESTLAND","MI",48186,42.2910123940001,-83.379988705,402,"2446 STIEBER ST, WESTLAND, MI, 48186","Match","Exact","2446 STIEBER ST, WESTLAND, MI, 48186",95414321,"R"
135403,"2446 UNIVERSITY AVE APT 2D","BRONX","NY",10468,40.86412728,-73.904060112,403,"2446 UNIVERSITY AVE APT 2D, BRONX, NY, 10468","Match","Exact","2446 UNIVERSITY AVE, BRONX, NY, 10468",80298594,"R"
135404,"2446 WOOD POINTE DR","HOLIDAY","FL",34691,28.1941235200001,-82.77072464,404,"2446 WOOD POINTE DR, HOLIDAY, FL, 34691","Match","Exact","2446 WOOD POINTE DR, HOLIDAY, FL, 34691",624584487,"L"
135405,"2446","VACAVILLE","CA",95696,NA,NA,405,"2446, VACAVILLE, CA, 95696","No_Match",NA,NA,NA,NA
135406,"24460 MALIBU ROAD","MALIBU","CA",90265,34.0302618440001,-118.707981305,406,"24460 MALIBU ROAD, MALIBU, CA, 90265","Match","Exact","24460 MALIBU RD, MALIBU, CA, 90265",142838252,"R"
135407,"24461 COUNTY ROAD EW","WARRENS","WI",54666,NA,NA,407,"24461 COUNTY ROAD EW, WARRENS, WI, 54666","No_Match",NA,NA,NA,NA
135408,"24462 LAWRENCE 2160","MARIONVILLE","MO",65705,37.039470855,-93.619658708,408,"24462 LAWRENCE 2160, MARIONVILLE, MO, 65705","Match","Exact","24462 LAWRENCE 2160, MARIONVILLE, MO, 65705",99876060,"L"
135409,"24465 RICHFIELD LOOP","COUNCIL BLUFFS","IA",51503,41.26949811,-95.716188696,409,"24465 RICHFIELD LOOP, COUNCIL BLUFFS, IA, 51503","Match","Exact","24465 RICHFIELD LOOP, COUNCIL BLUFFS, IA, 51503",43912588,"R"
135410,"24466 S FRONTAGE RD LOT 43","HYDRO","OK",73048,35.535925014,-98.636901511,410,"24466 S FRONTAGE RD LOT 43, HYDRO, OK, 73048","Match","Exact","24466 FRONTAGE RD, HYDRO, OK, 73048",150575095,"L"
135411,"2447 CEDARLINE LOOP BOX 569","STOCKTON","UT",84071,40.440736153,-112.420667734,411,"2447 CEDARLINE LOOP BOX 569, STOCKTON, UT, 84071","Match","Non_Exact","2447 CEDAR LINE LOOP, STOCKTON, UT, 84071",653298178,"R"
135412,"2447 DOUGLAS AVE","DELRAY BEACH","FL",33444,26.4439164680001,-80.080421682,412,"2447 DOUGLAS AVE, DELRAY BEACH, FL, 33444","Match","Exact","2447 DOUGLAS AVE, DELRAY BEACH, FL, 33444",638632850,"R"
135413,"2447 E 17TH AVE","SPOKANE","WA",99223,47.6402133610001,-117.37469821,413,"2447 E 17TH AVE, SPOKANE, WA, 99223","Match","Exact","2447 E 17TH AVE, SPOKANE, WA, 99223",608773854,"L"
135414,"2447 E 7TH STREET","TEMPE","AZ",85281,33.422681771,-111.885928606,414,"2447 E 7TH STREET, TEMPE, AZ, 85281","Match","Exact","2447 E 7TH ST, TEMPE, AZ, 85281",647732614,"L"
135415,"2447 GRAYS FERRY AVE","PHILADELPHIA","PA",19146,39.9425590010001,-75.183980216,415,"2447 GRAYS FERRY AVE, PHILADELPHIA, PA, 19146","Match","Exact","2447 GRAYS FERRY AVE, PHILADELPHIA, PA, 19146",131406923,"L"
135416,"2447 LAHARPE STREET","NEW ORLEANS","LA",70119,29.9771057030001,-90.074001225,416,"2447 LAHARPE STREET, NEW ORLEANS, LA, 70119","Match","Exact","2447 LAHARPE ST, NEW ORLEANS, LA, 70119",191709564,"R"
135417,"2447 MERCHANT STREET","FREDERICK","MD",21701,39.453698004,-77.3854025539999,417,"2447 MERCHANT STREET, FREDERICK, MD, 21701","Match","Exact","2447 MERCHANT ST, FREDERICK, MD, 21701",60698033,"R"
135418,"2447 MONTROSE STREET","PHILADELPHIA","PA",19146,39.9416429560001,-75.1836167179999,418,"2447 MONTROSE STREET, PHILADELPHIA, PA, 19146","Match","Exact","2447 MONTROSE ST, PHILADELPHIA, PA, 19146",131406917,"R"
135419,"2447 N 27TH STREET","PHILADELPHIA","PA",19132,39.993064815,-75.176311657,419,"2447 N 27TH STREET, PHILADELPHIA, PA, 19132","Match","Exact","2447 N 27TH ST, PHILADELPHIA, PA, 19132",131402179,"R"
135420,"2447 N 48TH STREET","MILWAUKEE","WI",53212,43.06334158,-87.973773941,420,"2447 N 48TH STREET, MILWAUKEE, WI, 53212","Match","Non_Exact","2447 N 48TH ST, MILWAUKEE, WI, 53210",77732319,"L"
135421,"2447 PACIFIC COAST HIGHWAY 2ND FL","HERMOSA BEACH","CA",90254,33.871821821,-118.395031603,421,"2447 PACIFIC COAST HIGHWAY 2ND FL, HERMOSA BEACH, CA, 90254","Match","Exact","2447 PACIFIC COAST HWY, HERMOSA BEACH, CA, 90254",141582619,"L"
135422,"2447 PACIFIC COAST HIGHWAY","HERMOSA BEACH","CA",90254,33.871821821,-118.395031603,422,"2447 PACIFIC COAST HIGHWAY, HERMOSA BEACH, CA, 90254","Match","Exact","2447 PACIFIC COAST HWY, HERMOSA BEACH, CA, 90254",141582619,"L"
135423,"2447 ROBINS LN SE","SALEM","OR",97306,44.864601743,-123.011587646,423,"2447 ROBINS LN SE, SALEM, OR, 97306","Match","Exact","2447 ROBINS LN SE, SALEM, OR, 97306",647640706,"L"
135424,"2447 S PRAIRIE AVE","PUEBLO","CO",81005,38.2269403380001,-104.643588326,424,"2447 S PRAIRIE AVE, PUEBLO, CO, 81005","Match","Exact","2447 S PRAIRIE AVE, PUEBLO, CO, 81005",105026696,"R"
135425,"2447 SNYDER STREET","PITTSBURGH","PA",15214,40.466670719,-80.020170099,425,"2447 SNYDER STREET, PITTSBURGH, PA, 15214","Match","Exact","2447 SNYDER ST, PITTSBURGH, PA, 15214",51625684,"L"
135426,"2447 TIFFIN AVENUE NUMBER 170","FINDLAY","OH",45840,41.0554141590001,-83.5956985,426,"2447 TIFFIN AVENUE NUMBER 170, FINDLAY, OH, 45840","Match","Exact","2447 TIFFIN AVE, FINDLAY, OH, 45840",36478933,"R"
135427,"2447 US HIGHWAY 12","WOODVILLE","WI",54028,44.9612420120001,-92.3091376359999,427,"2447 US HIGHWAY 12, WOODVILLE, WI, 54028","Match","Exact","2447 US HWY 12, WOODVILLE, WI, 54028",110900166,"L"
135428,"2447 VISTAVIA RD","NORTH CHARLESTON","SC",29406,32.9623170770001,-80.055696231,428,"2447 VISTAVIA RD, NORTH CHARLESTON, SC, 29406","Match","Exact","2447 VISTAVIA RD, N CHARLESTON, SC, 29406",108851793,"L"
135429,"2447 VISTAVIA ROAD","NORTH CHARLESTON","SC",29406,32.9623170770001,-80.055696231,429,"2447 VISTAVIA ROAD, NORTH CHARLESTON, SC, 29406","Match","Exact","2447 VISTAVIA RD, N CHARLESTON, SC, 29406",108851793,"L"
135430,"2447 W 24TH ST","CHICAGO","IL",60608,41.848374989,-87.686932874,430,"2447 W 24TH ST, CHICAGO, IL, 60608","Match","Exact","2447 W 24TH ST, CHICAGO, IL, 60608",605099598,"L"
135431,"2447 WELLBORN CREEK COURT","LITHONIA","GA",30058,33.727721511,-84.1557841219999,431,"2447 WELLBORN CREEK COURT, LITHONIA, GA, 30058","Match","Exact","2447 WELLBORN CREEK CT, LITHONIA, GA, 30058",23404136,"R"
135432,"2447 WOOD LANE","LAKE HAVASU CITY","AZ",86406,34.465365293,-114.311436249,432,"2447 WOOD LANE, LAKE HAVASU CITY, AZ, 86406","Match","Exact","2447 WOOD LN, LAKE HAVASU CITY, AZ, 86406",190282755,"L"
135433,"24471 QUARTER HORSE DRIVE","SONORA","CA",95370,38.066250784,-120.26958411,433,"24471 QUARTER HORSE DRIVE, SONORA, CA, 95370","Match","Exact","24471 QUARTER HORSE DR, SONORA, CA, 95370",101383807,"R"
135434,"24474 26 MILE ROAD - APT 2","MACOMB","MI",48042,42.7179857670001,-82.865799379,434,"24474 26 MILE ROAD - APT 2, MACOMB, MI, 48042","Match","Exact","24474 26 MILE RD, MACOMB, MI, 48042",110662917,"R"
135435,"24474 VALLE DEL ORO UNIT 201","SANTA CLARITA","CA",91321,34.377740954,-118.508648434,435,"24474 VALLE DEL ORO UNIT 201, SANTA CLARITA, CA, 91321","Match","Exact","24474 VALLE DEL ORO, SANTA CLARITA, CA, 91321",241107101,"R"
135436,"24479 E 800 N RD","FAIRBURY","IL",61739,40.7448261220001,-88.4595708959999,436,"24479 E 800 N RD, FAIRBURY, IL, 61739","Match","Exact","24479 E 800 N RD, FAIRBURY, IL, 61739",649899150,"L"
135437,"2448 144TH LANE NE","HAM LAKE","MN",55304,45.2325278110001,-93.208677243,437,"2448 144TH LANE NE, HAM LAKE, MN, 55304","Match","Exact","2448 144TH LN NE, HAM LAKE, MN, 55304",97536951,"L"
135438,"2448 APRIL SOUND LN","FRISCO","TX",75033,33.1682177980001,-96.87022899,438,"2448 APRIL SOUND LN, FRISCO, TX, 75033","Match","Exact","2448 APRIL SOUND LN, FRISCO, TX, 75033",103412442,"L"
135439,"2448 BROADWAY SUITE D","GARY","IN",46407,41.574124667,-87.336790217,439,"2448 BROADWAY SUITE D, GARY, IN, 46407","Match","Exact","2448 BROADWAY, GARY, IN, 46407",98426940,"R"
135440,"2448 BROADWAY","GARY","IN",46407,41.574124667,-87.336790217,440,"2448 BROADWAY, GARY, IN, 46407","Match","Exact","2448 BROADWAY, GARY, IN, 46407",98426940,"R"
135441,"2448 CARMATHEN RD","CHARLOTTE","NC",28269,35.3193096270001,-80.785516634,441,"2448 CARMATHEN RD, CHARLOTTE, NC, 28269","Match","Exact","2448 CARMATHEN RD, CHARLOTTE, NC, 28269",70583091,"R"
135442,"2448 CLAY ST","DENVER","CO",80211,39.7529996650001,-105.020511167,442,"2448 CLAY ST, DENVER, CO, 80211","Match","Exact","2448 CLAY ST, DENVER, CO, 80211",177301772,"R"
135443,"2448 CLOVER CREST DRIVE","CINCINNATI","OH",45239,39.213207031,-84.572623494,443,"2448 CLOVER CREST DRIVE, CINCINNATI, OH, 45239","Match","Exact","2448 CLOVER CREST DR, CINCINNATI, OH, 45239",103968292,"R"
135444,"2448 DESIRE AVE","ROWLAND HEIGHTS","CA",91748,33.975854273,-117.892150308,444,"2448 DESIRE AVE, ROWLAND HEIGHTS, CA, 91748","Match","Exact","2448 DESIRE AVE, ROWLAND HEIGHTS, CA, 91748",142801545,"L"
135445,"2448 EAST 81 STREET SUITE 600","TULSA","OK",74137,36.046409112,-95.956057421,445,"2448 EAST 81 STREET SUITE 600, TULSA, OK, 74137","Match","Exact","2448 E 81ST ST, TULSA, OK, 74137",166444789,"R"
135446,"2448 EAST AUTUMN WAY","MERIDIAN","ID",83642,43.6019851720001,-116.363550063,446,"2448 EAST AUTUMN WAY, MERIDIAN, ID, 83642","Match","Exact","2448 E AUTUMN WAY, MERIDIAN, ID, 83642",117855367,"R"
135447,"2448 GARFIELD AVE","KANSAS CITY","MO",64127,39.081465157,-94.558149353,447,"2448 GARFIELD AVE, KANSAS CITY, MO, 64127","Match","Exact","2448 GARFIELD AVE, KANSAS CITY, MO, 64127",91449704,"R"
135448,"2448 HADLOW LANE","ATLANTA","GA",30339,33.8322301580001,-84.482922269,448,"2448 HADLOW LANE, ATLANTA, GA, 30339","Match","Non_Exact","2448 HADLOW LN SE, ATLANTA, GA, 30339",642999516,"L"
135449,"2448 HEAVNER RD","LINCOLNTON","NC",28092,35.459961439,-81.209059558,449,"2448 HEAVNER RD, LINCOLNTON, NC, 28092","Match","Exact","2448 HEAVNER RD, LINCOLNTON, NC, 28092",69536130,"L"
135450,"2448 HOLLY LN","FLINT","TX",75762,32.2007959800001,-95.323195006,450,"2448 HOLLY LN, FLINT, TX, 75762","Match","Exact","2448 HOLLY LN, FLINT, TX, 75762",141274904,"L"
135451,"2448 N VILLERE STREET","NEW ORLEANS","LA",70117,29.9719497950001,-90.0510341899999,451,"2448 N VILLERE STREET, NEW ORLEANS, LA, 70117","Match","Exact","2448 N VILLERE ST, NEW ORLEANS, LA, 70117",191716605,"R"
135452,"2448 SHEPHERD DRIVE NW","HUNTSVILLE","AL",35810,34.7883922560001,-86.596207183,452,"2448 SHEPHERD DRIVE NW, HUNTSVILLE, AL, 35810","Match","Exact","2448 SHEPHERD DR NW, HUNTSVILLE, AL, 35810",58115848,"R"
135453,"2448 SHERWOOD DRIVE","VENTURA","CA",93001,34.2813034910001,-119.261662344,453,"2448 SHERWOOD DRIVE, VENTURA, CA, 93001","Match","Exact","2448 SHERWOOD DR, VENTURA, CA, 93001",110025820,"R"
135454,"2448 STATE ROUTE 83","MILLERSBURG","OH",44654,40.4797876710001,-81.8971304519999,454,"2448 STATE ROUTE 83, MILLERSBURG, OH, 44654","Match","Exact","2448 STATE RTE 83, MILLERSBURG, OH, 44654",615177938,"R"
135455,"2448 TEASLEY STREET","LA CRESCENTA","CA",91214,34.232509216,-118.231879801,455,"2448 TEASLEY STREET, LA CRESCENTA, CA, 91214","Match","Exact","2448 TEASLEY ST, LA CRESCENTA, CA, 91214",141589750,"L"
135456,"2448 WEST 29TH ST","ORLANDO","FL",32805,28.5125462280001,-81.4090683639999,456,"2448 WEST 29TH ST, ORLANDO, FL, 32805","Match","Non_Exact","2448 29TH ST, ORLANDO, FL, 32805",94274623,"L"
135457,"2448 WHISPERING PINES BLVD","NAVARRE","FL",32566,30.422602387,-86.822724987,457,"2448 WHISPERING PINES BLVD, NAVARRE, FL, 32566","Match","Exact","2448 WHISPERING PINES BLVD, NAVARRE, FL, 32566",617983523,"R"
135458,"2448 WHITE MOUNTAIN HIGHWAY","NORTH CONWAY","NH",3860,NA,NA,458,"2448 WHITE MOUNTAIN HIGHWAY, NORTH CONWAY, NH, 3860","No_Match",NA,NA,NA,NA
135459,"24480 BROWNLEAF DR","SAN ANTONIO","TX",78264,29.1602592420001,-98.472873631,459,"24480 BROWNLEAF DR, SAN ANTONIO, TX, 78264","Match","Exact","24480 BROWNLEAF DR, SAN ANTONIO, TX, 78264",101554508,"L"
135460,"24485 COUNTY ROAD 5","ELBERT","CO",80106,39.22192943,-104.644217747,460,"24485 COUNTY ROAD 5, ELBERT, CO, 80106","Match","Exact","24485 CO RD 5, ELBERT, CO, 80106",130876282,"L"
135461,"24486 EAST CANYON DRIVE","AURORA","CO",80016,39.5735024910001,-104.703651146,461,"24486 EAST CANYON DRIVE, AURORA, CO, 80016","Match","Exact","24486 E CANYON DR, AURORA, CO, 80016",645233592,"R"
135462,"2449 119TH STREET","BLUE ISLAND","IL",60406,41.6772681780001,-87.682802797,462,"2449 119TH STREET, BLUE ISLAND, IL, 60406","Match","Exact","2449 119TH ST, BLUE ISLAND, IL, 60406",605577331,"L"
135463,"2449 CRYSTAL RIDGE RD","HENRICO","VA",23233,37.6253738460001,-77.6277414159999,463,"2449 CRYSTAL RIDGE RD, HENRICO, VA, 23233","Match","Exact","2449 CRYSTAL RIDGE RD, HENRICO, VA, 23233",106665517,"R"
135464,"2449 DEER CREEK BLVD","SAINT CLOUD","FL",34772,28.186561915,-81.301299585,464,"2449 DEER CREEK BLVD, SAINT CLOUD, FL, 34772","Match","Exact","2449 DEER CREEK BLVD, SAINT CLOUD, FL, 34772",638652159,"L"
135465,"2449 DOC HOLLIDAY DRIVE","PARK CITY","UT",84060,40.6673915470001,-111.49036035,465,"2449 DOC HOLLIDAY DRIVE, PARK CITY, UT, 84060","Match","Non_Exact","2449 DOC HOLIDAY DR, PARK CITY, UT, 84060",160626219,"R"
135466,"2449 DOLPHIN DRIVE","MAPLEWOOD","MN",55119,44.9803711210001,-92.99772561,466,"2449 DOLPHIN DRIVE, MAPLEWOOD, MN, 55119","Match","Exact","2449 DOLPHIN DR, MAPLEWOOD, MN, 55119",97653851,"L"
135467,"2449 DRESDEN DRIVE","ATLANTA","GA",30341,33.8701387450001,-84.291520758,467,"2449 DRESDEN DRIVE, ATLANTA, GA, 30341","Match","Exact","2449 DRESDEN DR, ATLANTA, GA, 30341",23359260,"R"
135468,"2449 E 81ST ST APT 2","CHICAGO","IL",60617,41.7481202050001,-87.564048875,468,"2449 E 81ST ST APT 2, CHICAGO, IL, 60617","Match","Non_Exact","2449 E 81ST ST, CHICAGO, IL, 60617",605558925,"R"
135469,"2449 HIGHLAND AVENUE","N","CA",91950,32.6638627660001,-117.093138039,469,"2449 HIGHLAND AVENUE, N, CA, 91950","Match","Non_Exact","2449 HIGHLAND AVE, NATIONAL CITY, CA, 91950",195355405,"L"
135470,"2449 HIGHWAY 92","OSKALOOSA","IA",52577,41.296316248,-92.593470909,470,"2449 HIGHWAY 92, OSKALOOSA, IA, 52577","Match","Non_Exact","2449 STATE HWY 92, OSKALOOSA, IA, 52577",624199221,"L"
135471,"2449 IGLEHEART ROAD","AKRON","OH",44312,40.9973532720001,-81.44268497,471,"2449 IGLEHEART ROAD, AKRON, OH, 44312","Match","Exact","2449 IGLEHEART RD, AKRON, OH, 44312",61358521,"L"
135472,"2449 IRISH WAY","ROSCOMMON","MI",48653,44.534113367,-84.5628898909999,472,"2449 IRISH WAY, ROSCOMMON, MI, 48653","Match","Exact","2449 IRISH WAY, ROSCOMMON, MI, 48653",174468422,"R"
135473,"2449 LAKESIDE DRIVE","HIGHLAND","MI",48356,42.6625571170001,-83.575174561,473,"2449 LAKESIDE DRIVE, HIGHLAND, MI, 48356","Match","Non_Exact","2449 LAKESIDE, HIGHLAND, MI, 48356",69813193,"R"
135474,"2449 OLDE BRIDGE LANE","LEXINGTON","KY",40513,37.9976475550001,-84.588763147,474,"2449 OLDE BRIDGE LANE, LEXINGTON, KY, 40513","Match","Exact","2449 OLDE BRIDGE LN, LEXINGTON, KY, 40513",637422064,"R"
135475,"2449 OMEGA DR NE","GRAND RAPIDS","MI",49525,43.0476744540001,-85.60762046,475,"2449 OMEGA DR NE, GRAND RAPIDS, MI, 49525","Match","Exact","2449 OMEGA DR NE, GRAND RAPIDS, MI, 49525",12482697,"L"
135476,"2449 POLK ST","EUGENE","OR",97405,44.032317892,-123.112242756,476,"2449 POLK ST, EUGENE, OR, 97405","Match","Exact","2449 POLK ST, EUGENE, OR, 97405",178166230,"L"
135477,"2449 S LULU AVE","WICHITA","KS",67216,37.64888438,-97.3213013659999,477,"2449 S LULU AVE, WICHITA, KS, 67216","Match","Non_Exact","2449 LULU ST, WICHITA, KS, 67216",115647475,"R"
135478,"2449 SOUTH FLORA COURT","LAKEWOOD","CO",80228,39.6718616040001,-105.161137799,478,"2449 SOUTH FLORA COURT, LAKEWOOD, CO, 80228","Match","Exact","2449 S FLORA CT, LAKEWOOD, CO, 80228",177735218,"L"
135479,"2449 TOLLIVER DRIVE","ELLLENWOOD","GA",30294,33.6680464090001,-84.287135049,479,"2449 TOLLIVER DRIVE, ELLLENWOOD, GA, 30294","Match","Non_Exact","2449 TOLLIVER DR, ELLENWOOD, GA, 30294",645266001,"L"
135480,"2449 W 12TH ST","DALLAS","TX",75211,32.7412721850001,-96.857901662,480,"2449 W 12TH ST, DALLAS, TX, 75211","Match","Exact","2449 W 12TH ST, DALLAS, TX, 75211",103195183,"R"
135481,"2449 WYNSLEY WAY","TUCKER","GA",30084,33.8563338020001,-84.2017630139999,481,"2449 WYNSLEY WAY, TUCKER, GA, 30084","Match","Exact","2449 WYNSLEY WAY, TUCKER, GA, 30084",619386058,"R"
135482,"24490 S MACARTHUR DR","TRACY","CA",95376,NA,NA,482,"24490 S MACARTHUR DR, TRACY, CA, 95376","No_Match",NA,NA,NA,NA
135483,"245 169TH AVE NE","BELLEVUE","WA",98008,47.6122361490001,-122.115370704,483,"245 169TH AVE NE, BELLEVUE, WA, 98008","Match","Exact","245 169TH AVE NE, BELLEVUE, WA, 98008",648636293,"L"
135484,"245 39 147TH ROAD","ROSEDALE","NY",11422,NA,NA,484,"245 39 147TH ROAD, ROSEDALE, NY, 11422","No_Match",NA,NA,NA,NA
135485,"245 5TH AVE","NEW YORK","NY",10016,40.7445010320001,-73.987419772,485,"245 5TH AVE, NEW YORK, NY, 10016","Match","Exact","245 5TH AVE, NEW YORK, NY, 10016",59653461,"R"
135486,"245 8TH AVE 149","NEW YORK","NY",10011,40.744892142,-73.998788125,486,"245 8TH AVE 149, NEW YORK, NY, 10011","Match","Exact","245 8TH AVE, NEW YORK, NY, 10011",59653307,"L"
135487,"245 8TH AVENUE SUITE 230","NEW YORK CITY","NJ",10011,NA,NA,487,"245 8TH AVENUE SUITE 230, NEW YORK CITY, NJ, 10011","No_Match",NA,NA,NA,NA
135488,"245 ABBOTT RD","BUFFALO","NY",14220,42.8545690940001,-78.820918702,488,"245 ABBOTT RD, BUFFALO, NY, 14220","Match","Exact","245 ABBOTT RD, BUFFALO, NY, 14220",48301735,"R"
135489,"245 AMAL DR SW 1009","ATLANTA","GA",30315,33.7071479740001,-84.3954729119999,489,"245 AMAL DR SW 1009, ATLANTA, GA, 30315","Match","Exact","245 AMAL DR SW, ATLANTA, GA, 30315",642625913,"R"
135490,"245 AMAL DRIVE APT 4004","ATLANTA","GA",30315,33.7071479740001,-84.3954729119999,490,"245 AMAL DRIVE APT 4004, ATLANTA, GA, 30315","Match","Non_Exact","245 AMAL DR SW, ATLANTA, GA, 30315",642625913,"R"
135491,"245 ANDREA DRIVE","ROCKAWAY","NJ",8666,NA,NA,491,"245 ANDREA DRIVE, ROCKAWAY, NJ, 8666","No_Match",NA,NA,NA,NA
135492,"245 ARBOLADA DRIVE","ARCADIA","CA",91006,34.152552015,-118.041345444,492,"245 ARBOLADA DRIVE, ARCADIA, CA, 91006","Match","Exact","245 ARBOLADA DR, ARCADIA, CA, 91006",141643898,"R"
135493,"245 ATWOOD STREET","CORYDON","IN",47112,38.206058096,-86.122535086,493,"245 ATWOOD STREET, CORYDON, IN, 47112","Match","Exact","245 ATWOOD ST, CORYDON, IN, 47112",34809136,"L"
135494,"245 AUSTIN BLVD","EDINBURG","TX",78539,26.2834086190001,-98.169901507,494,"245 AUSTIN BLVD, EDINBURG, TX, 78539","Match","Non_Exact","245 W AUSTIN BLVD, EDINBURG, TX, 78539",71496684,"R"
135495,"245 AVENUE 64","PASADENA","CA",91105,34.136711011,-118.17670222,495,"245 AVENUE 64, PASADENA, CA, 91105","Match","Exact","245 AVE 64, PASADENA, CA, 91105",141614720,"R"
135496,"245 BARRETT HILL ROAD","MAHOPAC","NY",10541,41.4119556030001,-73.765445278,496,"245 BARRETT HILL ROAD, MAHOPAC, NY, 10541","Match","Exact","245 BARRETT HILL RD, MAHOPAC, NY, 10541",139712320,"L"
135497,"245 BENNETT AVENUE APT 3B","NEW YORK","NY",10040,40.858260914,-73.932898689,497,"245 BENNETT AVENUE APT 3B, NEW YORK, NY, 10040","Match","Exact","245 BENNETT AVE, NEW YORK, NY, 10040",630470975,"R"
135498,"245 BLACKTHORN DR","GILBERT","SC",29054,33.9043464600001,-81.3493734259999,498,"245 BLACKTHORN DR, GILBERT, SC, 29054","Match","Exact","245 BLACKTHORN DR, GILBERT, SC, 29054",641133581,"L"
135499,"245 BLEECKER STREET","GLOVERSVILLE","NY",12078,43.0594178430001,-74.3469306809999,499,"245 BLEECKER STREET, GLOVERSVILLE, NY, 12078","Match","Exact","245 BLEECKER ST, GLOVERSVILLE, NY, 12078",153638098,"L"
135500,"245 BOSTON ST","GUILFORD","CT",6437,41.2857433180001,-72.672090634,500,"245 BOSTON ST, GUILFORD, CT, 6437","Match","Exact","245 BOSTON ST, GUILFORD, CT, 06437",3755206,"R"
