"ID","Address","City","State","Zip","lat","long","id","input_address","match_indicator","match_type","matched_address","tiger_line_id","tiger_side"
12001,"10430 SW 207 ST","CUTLER BAY","FM",33189,NA,NA,1,"10430 SW 207 ST, CUTLER BAY, FM, 33189","No_Match",NA,NA,NA,NA
12002,"10430 THREE RIVERS ROAD","GULFPORT","MS",39503,30.438929762,-89.0829552769999,2,"10430 THREE RIVERS ROAD, GULFPORT, MS, 39503","Match","Exact","10430 THREE RIVERS RD, GULFPORT, MS, 39503",648300677,"R"
12003,"10431 AMBERWOOD CIRCLE","FOUNTAIN VALLEY","CA",92708,33.708482948,-117.947508489,3,"10431 AMBERWOOD CIRCLE, FOUNTAIN VALLEY, CA, 92708","Match","Exact","10431 AMBERWOOD CIR, FOUNTAIN VALLEY, CA, 92708",144038300,"L"
12004,"10431 AVENIDA MAGNIFICA","SAN DIEGO","CA",92131,32.9140533890001,-117.072835149,4,"10431 AVENIDA MAGNIFICA, SAN DIEGO, CA, 92131","Match","Exact","10431 AVE MAGNIFICA, SAN DIEGO, CA, 92131",195320317,"R"
12005,"10431 BALES AVE","KANSAS CITY","MO",64137,38.937165156,-94.549968571,5,"10431 BALES AVE, KANSAS CITY, MO, 64137","Match","Exact","10431 BALES AVE, KANSAS CITY, MO, 64137",91457706,"L"
12006,"10431 CR 2180/PO BOX 1237","WHITEHOUSE","TX",75791,NA,NA,6,"10431 CR 2180/PO BOX 1237, WHITEHOUSE, TX, 75791","No_Match",NA,NA,NA,NA
12007,"10431 CYPRESS LAKES PRESERVE DRIVE","LAKE WORTH","FL",33449,NA,NA,7,"10431 CYPRESS LAKES PRESERVE DRIVE, LAKE WORTH, FL, 33449","No_Match",NA,NA,NA,NA
12008,"10431 GATEWAY DR","CINCINNATI","OH",45242,39.248849383,-84.312797578,8,"10431 GATEWAY DR, CINCINNATI, OH, 45242","Match","Exact","10431 GATEWAY DR, CINCINNATI, OH, 45242",103938678,"L"
12009,"10431 JEROME ST","VILLA PARK","CA",92861,33.8114346720001,-117.811725241,9,"10431 JEROME ST, VILLA PARK, CA, 92861","Match","Exact","10431 JEROME ST, VILLA PARK, CA, 92861",144412920,"R"
12010,"10431 K","OKLAHOMA CITY","OK",73165,NA,NA,10,"10431 K, OKLAHOMA CITY, OK, 73165","No_Match",NA,NA,NA,NA
12011,"10431 OVIATT LANE","TWINSBURG","OH",44087,41.347552336,-81.430025964,11,"10431 OVIATT LANE, TWINSBURG, OH, 44087","Match","Exact","10431 OVIATT LN, TWINSBURG, OH, 44087",61370867,"R"
12012,"10431 PARLIAMENT AVE","GARDEN GROVE","CA",92840,33.798229871,-117.951079817,12,"10431 PARLIAMENT AVE, GARDEN GROVE, CA, 92840","Match","Exact","10431 PARLIAMENT AVE, GARDEN GROVE, CA, 92840",144024284,"L"
12013,"10431 S KING DRIVE","CHICAGO","IL",60628,NA,NA,13,"10431 S KING DRIVE, CHICAGO, IL, 60628","No_Match",NA,NA,NA,NA
12014,"10431 TIGER RUN","LITTLETON","CO",80124,39.5261952610001,-104.910882456,14,"10431 TIGER RUN, LITTLETON, CO, 80124","Match","Exact","10431 TIGER RUN, LITTLETON, CO, 80124",130819596,"L"
12015,"10431 WALNUT DR","KANSAS","MO",64114,38.9383659480001,-94.59159612,15,"10431 WALNUT DR, KANSAS, MO, 64114","Match","Non_Exact","10431 WALNUT DR, KANSAS CITY, MO, 64114",91456052,"L"
12016,"10432 BALLS FORD ROAD SUITE 300","MANASSAS","VA",20109,38.8009240800001,-77.509531672,16,"10432 BALLS FORD ROAD SUITE 300, MANASSAS, VA, 20109","Match","Exact","10432 BALLS FORD RD, MANASSAS, VA, 20109",207155502,"R"
12017,"10432 NORTH WILLOW RIDGE COURT","FRESNO","CA",93730,36.8871020300001,-119.750704555,17,"10432 NORTH WILLOW RIDGE COURT, FRESNO, CA, 93730","Match","Exact","10432 N WILLOW RIDGE CT, FRESNO, CA, 93730",197621428,"R"
12018,"10432 OWEN DRIVE","ORLAND PARK","IL",60467,41.5630450080001,-87.872488296,18,"10432 OWEN DRIVE, ORLAND PARK, IL, 60467","Match","Exact","10432 OWEN DR, ORLAND PARK, IL, 60467",111872135,"L"
12019,"10432 QUIET BAY COURT","CHARLOTTE","NC",28278,35.1631547210001,-81.0016354969999,19,"10432 QUIET BAY COURT, CHARLOTTE, NC, 28278","Match","Exact","10432 QUIET BAY CT, CHARLOTTE, NC, 28278",70529947,"L"
12020,"10432 S CLAREMONT AVENUE - APT 2","CHICAGO","IL",60643,41.7039055270001,-87.680336013,20,"10432 S CLAREMONT AVENUE - APT 2, CHICAGO, IL, 60643","Match","Non_Exact","10432 S CLAREMONT AVE, CHICAGO, IL, 60643",111822195,"R"
12021,"10433 SW 26TH STREET","DAVIE","FL",33324,26.0856371130001,-80.286903657,21,"10433 SW 26TH STREET, DAVIE, FL, 33324","Match","Exact","10433 SW 26TH ST, DAVIE, FL, 33324",114776633,"R"
12022,"10434 BALES","KANSAS CITY","MO",64137,38.9370735320001,-94.54998914,22,"10434 BALES, KANSAS CITY, MO, 64137","Match","Non_Exact","10434 BALES AVE, KANSAS CITY, MO, 64137",91457706,"R"
12023,"10434 BLUE BEECH LANE","FORT MYERS","FL",33913,NA,NA,23,"10434 BLUE BEECH LANE, FORT MYERS, FL, 33913","No_Match",NA,NA,NA,NA
12024,"10434 CHERISE WAY","STOCKTON","CA",95209,38.0505736310001,-121.315971868,24,"10434 CHERISE WAY, STOCKTON, CA, 95209","Match","Exact","10434 CHERISE WAY, STOCKTON, CA, 95209",630318752,"L"
12025,"10434 COUNTY ROAD 250","DURANGO","CO",81301,37.4294084370001,-107.799594243,25,"10434 COUNTY ROAD 250, DURANGO, CO, 81301","Match","Exact","10434 CO RD 250, DURANGO, CO, 81301",91708915,"R"
12026,"10434 IRMA AVENUE","TUJUNGA","CA",91042,34.2591084810001,-118.300775964,26,"10434 IRMA AVENUE, TUJUNGA, CA, 91042","Match","Exact","10434 IRMA AVE, TUJUNGA, CA, 91042",141587882,"R"
12027,"10434 N 43RD STREET","PHOENIX","AZ",85028,33.5822151470001,-111.988981567,27,"10434 N 43RD STREET, PHOENIX, AZ, 85028","Match","Non_Exact","10434 N 43RD ST, PHOENIX, AZ, 85028",653305532,"R"
12028,"10434 SW 21 TER","MIAMI","FL",33165,25.749177892,-80.364481693,28,"10434 SW 21 TER, MIAMI, FL, 33165","Match","Non_Exact","10434 SW 21ST TER, MIAMI, FL, 33165",115971566,"L"
12029,"10434 W 83RD AVE","ARVADA","CO",80005,39.8493079570001,-105.114890144,29,"10434 W 83RD AVE, ARVADA, CO, 80005","Match","Exact","10434 W 83RD AVE, ARVADA, CO, 80005",177800202,"L"
12030,"10434 WYTON DRIVE","LOS ANGELES","CA",90024,34.0731315730001,-118.432804994,30,"10434 WYTON DRIVE, LOS ANGELES, CA, 90024","Match","Exact","10434 WYTON DR, LOS ANGELES, CA, 90024",141567478,"L"
12031,"10435 212TH STREET","QUEENS VILLAGE","NY",11429,NA,NA,31,"10435 212TH STREET, QUEENS VILLAGE, NY, 11429","No_Match",NA,NA,NA,NA
12032,"10435 GAITSIDE","KIRTLAND","OH",44094,41.5864694460001,-81.3217298069999,32,"10435 GAITSIDE, KIRTLAND, OH, 44094","Match","Non_Exact","10435 GAITSIDE TL, KIRTLAND, OH, 44094",624377717,"R"
12033,"10435 NEWHOME AVE SUITE 1","SUNLAND","CA",91040,34.2588572810001,-118.322321325,33,"10435 NEWHOME AVE SUITE 1, SUNLAND, CA, 91040","Match","Exact","10435 NEWHOME AVE, SUNLAND, CA, 91040",141587494,"L"
12034,"10435 PENNIMAN DRIVE","CHARDON","OH",44024,41.589680801,-81.165759722,34,"10435 PENNIMAN DRIVE, CHARDON, OH, 44024","Match","Exact","10435 PENNIMAN DR, CHARDON, OH, 44024",137440192,"L"
12035,"10435 PINEVILLE AVENUE","CUPERTINO","CA",95014,37.316320026,-122.018730282,35,"10435 PINEVILLE AVENUE, CUPERTINO, CA, 95014","Match","Exact","10435 PINEVILLE AVE, CUPERTINO, CA, 95014",122940603,"R"
12036,"10436 OLD EAGLE RIVER LN","MCKINNEY","TX",75072,33.195869718,-96.759305051,36,"10436 OLD EAGLE RIVER LN, MCKINNEY, TX, 75072","Match","Exact","10436 OLD EAGLE RIVER LN, MCKINNEY, TX, 75072",642945622,"L"
12037,"10436 SOUTH PEORIA STREET","CHICAGO","IL",60643,41.7043696320001,-87.645192488,37,"10436 SOUTH PEORIA STREET, CHICAGO, IL, 60643","Match","Exact","10436 S PEORIA ST, CHICAGO, IL, 60643",111832793,"R"
12038,"10436 SOUTHWEST HIGHWAY","CHICAGO RIDGE","IL",60415,NA,NA,38,"10436 SOUTHWEST HIGHWAY, CHICAGO RIDGE, IL, 60415","No_Match",NA,NA,NA,NA
12039,"10437 CHANTRY LANE","FRISCO","TX",75035,33.1751287180001,-96.789360228,39,"10437 CHANTRY LANE, FRISCO, TX, 75035","Match","Exact","10437 CHANTRY LN, FRISCO, TX, 75035",618092287,"R"
12040,"10437 MACARTHUR WAY","CONVERSE","TX",78109,29.500350838,-98.2806264609999,40,"10437 MACARTHUR WAY, CONVERSE, TX, 78109","Match","Exact","10437 MACARTHUR WAY, CONVERSE, TX, 78109",645211832,"L"
12041,"10437 REYMOUTH AVENUE","RANCHO CORDOVA","CA",95670,38.578320454,-121.302144137,41,"10437 REYMOUTH AVENUE, RANCHO CORDOVA, CA, 95670","Match","Exact","10437 REYMOUTH AVE, RANCHO CORDOVA, CA, 95670",133348554,"R"
12042,"10438 LAZY VALLEY RD","PENN VALLEY","CA",95946,39.1980779850001,-121.16920731,42,"10438 LAZY VALLEY RD, PENN VALLEY, CA, 95946","Match","Exact","10438 LAZY VALLEY RD, PENN VALLEY, CA, 95946",106532018,"L"
12043,"10438 MT STERLING RD","FLEMINGSBURG","KY",41041,38.2884629490001,-83.803894477,43,"10438 MT STERLING RD, FLEMINGSBURG, KY, 41041","Match","Exact","10438 MT STERLING RD, FLEMINGSBURG, KY, 41041",54407502,"R"
12044,"10438 N CHURCH DR UNIT 210","CLEVELAND","OH",44130,41.3816332210001,-81.7585603859999,44,"10438 N CHURCH DR UNIT 210, CLEVELAND, OH, 44130","Match","Non_Exact","10438 N CHURCH DR, CLEVELAND, OH, 44130",61106831,"R"
12045,"10438 VILLANOVA ROAD","JACKSONVILLE","FL",32218,30.424728454,-81.6807414099999,45,"10438 VILLANOVA ROAD, JACKSONVILLE, FL, 32218","Match","Exact","10438 VILLANOVA RD, JACKSONVILLE, FL, 32218",83890544,"L"
12046,"10439 BERE ISLAND DRIVE","CHARLOTTE","NC",28278,35.1597421120001,-80.983251377,46,"10439 BERE ISLAND DRIVE, CHARLOTTE, NC, 28278","Match","Non_Exact","10439 BERE ISLAND RD, CHARLOTTE, NC, 28278",635657763,"L"
12047,"10439 ELDORA AVE","SUNLAND","CA",91040,34.2586018870001,-118.314863658,47,"10439 ELDORA AVE, SUNLAND, CA, 91040","Match","Exact","10439 ELDORA AVE, SUNLAND, CA, 91040",141587580,"L"
12048,"10439 S 51ST STREET","PHOENIX","AZ",85044,33.3516688170001,-111.973954424,48,"10439 S 51ST STREET, PHOENIX, AZ, 85044","Match","Exact","10439 S 51ST ST, PHOENIX, AZ, 85044",128923701,"L"
12049,"10439 S AVE","NEW HARTFORD","IA",50660,42.549848094,-92.672997827,49,"10439 S AVE, NEW HARTFORD, IA, 50660","Match","Exact","10439 S AVE, NEW HARTFORD, IA, 50660",77408590,"L"
12050,"10439 SEACLIFF LN","N CHESTERFIELD","VA",23236,37.457013299,-77.5864787209999,50,"10439 SEACLIFF LN, N CHESTERFIELD, VA, 23236","Match","Exact","10439 SEACLIFF LN, NORTH CHESTERFIELD, VA, 23236",201543543,"L"
12051,"1044 10TH ST NE","MASSILLON","OH",44646,40.809152215,-81.513445831,51,"1044 10TH ST NE, MASSILLON, OH, 44646","Match","Exact","1044 10TH ST NE, MASSILLON, OH, 44646",64668728,"R"
12052,"1044 34TH AVE N","ST PETERSBURG","FL",33704,27.802982899,-82.6491949489999,52,"1044 34TH AVE N, ST PETERSBURG, FL, 33704","Match","Exact","1044 34TH AVE N, SAINT PETERSBURG, FL, 33704",124704338,"L"
12053,"1044 34TH AVENUE","ST PETERSBURG","FL",33704,27.802982899,-82.6491949489999,53,"1044 34TH AVENUE, ST PETERSBURG, FL, 33704","Match","Non_Exact","1044 34TH AVE N, SAINT PETERSBURG, FL, 33704",124704338,"L"
12054,"1044 410TH AVENUE","MILES","IA",52064,42.0238158990001,-90.296629574,54,"1044 410TH AVENUE, MILES, IA, 52064","Match","Exact","1044 410TH AVE, MILES, IA, 52064",16812752,"L"
12055,"1044 5TH STREET","BREMERTON","WA",98337,47.5665773330001,-122.633626166,55,"1044 5TH STREET, BREMERTON, WA, 98337","Match","Exact","1044 5TH ST, BREMERTON, WA, 98337",187642011,"R"
12056,"1044 ABBOTT ST","HENDERSON","NC",27536,36.335309755,-78.4253061049999,56,"1044 ABBOTT ST, HENDERSON, NC, 27536","Match","Exact","1044 ABBOTT ST, HENDERSON, NC, 27536",90273424,"L"
12057,"1044 ALEXANDER ST","HOUSTON","TX",77008,29.7895434210001,-95.407936601,57,"1044 ALEXANDER ST, HOUSTON, TX, 77008","Match","Exact","1044 ALEXANDER ST, HOUSTON, TX, 77008",96060943,"R"
12058,"1044 ALMOND DRIVE","PHOENIXVILLE","PA",19460,40.1454990070001,-75.516080324,58,"1044 ALMOND DRIVE, PHOENIXVILLE, PA, 19460","Match","Non_Exact","1044 ALMOND, PHOENIXVILLE, PA, 19460",617721050,"R"
12059,"1044 AZLEN LN","CHALFONT","PA",18914,40.3227867000001,-75.233033747,59,"1044 AZLEN LN, CHALFONT, PA, 18914","Match","Exact","1044 AZLEN LN, CHALFONT, PA, 18914",624326665,"R"
12060,"1044 BENDER RIDGE DRIVE","MORRISVILLE","NC",27560,35.8316680900001,-78.863840286,60,"1044 BENDER RIDGE DRIVE, MORRISVILLE, NC, 27560","Match","Exact","1044 BENDER RIDGE DR, MORRISVILLE, NC, 27560",648792915,"R"
12061,"1044 BLAIRFIELD DR","ANTIOCH","TN",37013,36.0218763930001,-86.6459964379999,61,"1044 BLAIRFIELD DR, ANTIOCH, TN, 37013","Match","Exact","1044 BLAIRFIELD DR, ANTIOCH, TN, 37013",97229133,"L"
12062,"1044 BURLYWOOD DR","DALLAS","TX",75217,32.72954137,-96.643582467,62,"1044 BURLYWOOD DR, DALLAS, TX, 75217","Match","Exact","1044 BURLYWOOD DR, DALLAS, TX, 75217",102961851,"R"
12063,"1044 BUSHKILL CENTER RD","NAZARETH","PA",18064,40.795945875,-75.3263376629999,63,"1044 BUSHKILL CENTER RD, NAZARETH, PA, 18064","Match","Exact","1044 BUSHKILL CENTER RD, NAZARETH, PA, 18064",637563357,"R"
12064,"1044 BUTTE FALLS HIGHWAY","EAGLE POINT","OR",97524,42.5331653150001,-122.793334942,64,"1044 BUTTE FALLS HIGHWAY, EAGLE POINT, OR, 97524","Match","Exact","1044 BUTTE FALLS HWY, EAGLE POINT, OR, 97524",635448734,"R"
12065,"1044 CALLE DE ALCALA","ESCONDIDO","CA",92025,33.069675144,-117.048057124,65,"1044 CALLE DE ALCALA, ESCONDIDO, CA, 92025","Match","Non_Exact","1044 CLL DE ALCALA, ESCONDIDO, CA, 92025",195432222,"L"
12066,"1044 CLAIBORNE AVE","JACKSON","MS",39209,32.3036337230001,-90.223466964,66,"1044 CLAIBORNE AVE, JACKSON, MS, 39209","Match","Exact","1044 CLAIBORNE AVE, JACKSON, MS, 39209",65367242,"L"
12067,"1044 Eglon Court","Merrick","NY",11566,40.695347429,-73.567315674,67,"1044 Eglon Court, Merrick, NY, 11566","Match","Exact","1044 EGLON CT, MERRICK, NY, 11566",147634328,"R"
12068,"1044 ELMWOOD AVENUE","EVANSTON","IL",60202,42.036623374,-87.683683348,68,"1044 ELMWOOD AVENUE, EVANSTON, IL, 60202","Match","Exact","1044 ELMWOOD AVE, EVANSTON, IL, 60202",111743692,"L"
12069,"1044 ESPLANADE PKWY","SAN MARCOS","TX",78666,29.808259536,-97.988508725,69,"1044 ESPLANADE PKWY, SAN MARCOS, TX, 78666","Match","Non_Exact","1044 ESPLANDE PKWY, SAN MARCOS, TX, 78666",649116961,"R"
12070,"1044 FOSTER RD","YANCEYVILLE","NC",27379,36.426415665,-79.3809825979999,70,"1044 FOSTER RD, YANCEYVILLE, NC, 27379","Match","Exact","1044 FOSTER RD, YANCEYVILLE, NC, 27379",636860876,"R"
12071,"1044 HAVENWOOD DRIVE","EAGLE POINT","OR",97524,42.4840334940001,-122.801417514,71,"1044 HAVENWOOD DRIVE, EAGLE POINT, OR, 97524","Match","Exact","1044 HAVENWOOD DR, EAGLE POINT, OR, 97524",155601651,"R"
12072,"1044 HURON RD","ARNAUDVILLE","LA",70512,30.372401853,-91.895903569,72,"1044 HURON RD, ARNAUDVILLE, LA, 70512","Match","Exact","1044 HURON RD, ARNAUDVILLE, LA, 70512",85843864,"R"
12073,"1044 JACKSON FELTS ROAD","JOELTON","TN",37080,36.3346656530001,-86.945667412,73,"1044 JACKSON FELTS ROAD, JOELTON, TN, 37080","Match","Exact","1044 JACKSON FELTS RD, JOELTON, TN, 37080",72881363,"R"
12074,"1044 LEGACY WALK DR","WOODSTOCK","GA",30189,34.104065265,-84.5564527779999,74,"1044 LEGACY WALK DR, WOODSTOCK, GA, 30189","Match","Exact","1044 LEGACY WALK, WOODSTOCK, GA, 30189",68863372,"R"
12075,"1044 MAIN STREET STE 600","KANSAS CITY","MO",64105,39.1009666580001,-94.583166951,75,"1044 MAIN STREET STE 600, KANSAS CITY, MO, 64105","Match","Exact","1044 MAIN ST, KANSAS CITY, MO, 64105",91445165,"R"
12076,"1044 MIDDLEFIELD RD","REDWOOD CITY","CA",94063,37.4841285750001,-122.226969417,76,"1044 MIDDLEFIELD RD, REDWOOD CITY, CA, 94063","Match","Exact","1044 MIDDLEFIELD RD, REDWOOD CITY, CA, 94063",192361316,"R"
12077,"1044 MONROE STREET","JACKSON","MS",39202,32.310998387,-90.170397506,77,"1044 MONROE STREET, JACKSON, MS, 39202","Match","Exact","1044 MONROE ST, JACKSON, MS, 39202",65371338,"R"
12078,"1044 MORRIS PARK AVE","BRONX","NY",10461,40.848755727,-73.854791238,78,"1044 MORRIS PARK AVE, BRONX, NY, 10461","Match","Exact","1044 MORRIS PARK AVE, BRONX, NY, 10461",652210011,"R"
12079,"1044 N 115TH STREET SUITE 500","OMAHA","NE",68154,41.2702099150001,-96.0935570509999,79,"1044 N 115TH STREET SUITE 500, OMAHA, NE, 68154","Match","Non_Exact","1044 N 115TH ST, OMAHA, NE, 68154",116997870,"L"
12080,"1044 N HARRISON","POCATELLO","ID",83204,42.8698824090001,-112.457830013,80,"1044 N HARRISON, POCATELLO, ID, 83204","Match","Non_Exact","1044 N HARRISON AVE, POCATELLO, ID, 83204",204351369,"R"
12081,"1044 N MAIN STREET","BRISTOL","NH",3222,43.6167161880001,-71.735240647,81,"1044 N MAIN STREET, BRISTOL, NH, 3222","Match","Exact","1044 N MAIN ST, BRISTOL, NH, 03222",145687485,"R"
12082,"1044 N ST PAUL","WITCHITA","KS",67203,37.7027193160001,-97.375920653,82,"1044 N ST PAUL, WITCHITA, KS, 67203","Match","Non_Exact","1044 N SAINT PAUL ST, WICHITA, KS, 67203",115633554,"R"
12083,"1044 NORWOOD PARK BLVD APT 1108","AUSTIN","TX",78753,30.3398032150001,-97.693247395,83,"1044 NORWOOD PARK BLVD APT 1108, AUSTIN, TX, 78753","Match","Exact","1044 NORWOOD PARK BLVD, AUSTIN, TX, 78753",64123786,"L"
12084,"1044 PO BOX","CHESAPEAKE","VA",23328,NA,NA,84,"1044 PO BOX, CHESAPEAKE, VA, 23328","No_Match",NA,NA,NA,NA
12085,"1044 RUNAWAY DRIVE","PENNSBURG","PA",18073,40.3927961420001,-75.485773433,85,"1044 RUNAWAY DRIVE, PENNSBURG, PA, 18073","Match","Exact","1044 RUNAWAY DR, PENNSBURG, PA, 18073",605654762,"R"
12086,"1044 S SECO PL","TUCSON","AZ",85710,32.2087151160001,-110.807287045,86,"1044 S SECO PL, TUCSON, AZ, 85710","Match","Exact","1044 S SECO PL, TUCSON, AZ, 85710",121183688,"R"
12087,"1044 SPRUCE STREET UNIT 38","RIVERSIDE","CA",92507,33.9902028560001,-117.333723065,87,"1044 SPRUCE STREET UNIT 38, RIVERSIDE, CA, 92507","Match","Exact","1044 SPRUCE ST, RIVERSIDE, CA, 92507",609008500,"L"
12088,"1044 SUGAR HILL ROAD","WALLINGFORD","VT",5773,NA,NA,88,"1044 SUGAR HILL ROAD, WALLINGFORD, VT, 5773","No_Match",NA,NA,NA,NA
12089,"1044 SUMMERBROOKE DR","TALLAHASSEE","FL",32312,30.5760325250001,-84.2606559559999,89,"1044 SUMMERBROOKE DR, TALLAHASSEE, FL, 32312","Match","Exact","1044 SUMMERBROOKE DR, TALLAHASSEE, FL, 32312",82877223,"L"
12090,"1044 SUMMERMIST CT","SAN JOSE","CA",95122,37.3188241440001,-121.842370909,90,"1044 SUMMERMIST CT, SAN JOSE, CA, 95122","Match","Exact","1044 SUMMERMIST CT, SAN JOSE, CA, 95122",122973509,"R"
12091,"1044 SWEETBRIAR RD","ORLANDO","FL",32806,28.500724335,-81.3652220069999,91,"1044 SWEETBRIAR RD, ORLANDO, FL, 32806","Match","Exact","1044 SWEETBRIAR RD, ORLANDO, FL, 32806",94358791,"R"
12092,"1044 TOWNSEND STREET","DETROIT","MI",48214,42.352026784,-83.0005679559999,92,"1044 TOWNSEND STREET, DETROIT, MI, 48214","Match","Exact","1044 TOWNSEND ST, DETROIT, MI, 48214",95484124,"R"
12093,"1044 W 21ST ST","UPLAND","CA",91784,34.1396559450001,-117.666075686,93,"1044 W 21ST ST, UPLAND, CA, 91784","Match","Exact","1044 W 21ST ST, UPLAND, CA, 91784",144669382,"L"
12094,"1044 WEST 46TH STREET","LOS ANGELES","CA",90037,34.001636788,-118.292534642,94,"1044 WEST 46TH STREET, LOS ANGELES, CA, 90037","Match","Exact","1044 W 46TH ST, LOS ANGELES, CA, 90037",141607871,"L"
12095,"1044 WEST KEMPER RD","CINCINNATI","OH",45240,39.2896652650001,-84.516607742,95,"1044 WEST KEMPER RD, CINCINNATI, OH, 45240","Match","Exact","1044 W KEMPER RD, CINCINNATI, OH, 45240",103943383,"R"
12096,"1044 WILLIAMSON CIRCLE","PONTIAC","MI",48340,42.669168106,-83.254167835,96,"1044 WILLIAMSON CIRCLE, PONTIAC, MI, 48340","Match","Exact","1044 WILLIAMSON CIR, PONTIAC, MI, 48340",69824880,"R"
12097,"10440 ARVILLE ST","LAS VEGAS","NV",89141,35.9998006000001,-115.198765202,97,"10440 ARVILLE ST, LAS VEGAS, NV, 89141","Match","Exact","10440 ARVILLE ST, LAS VEGAS, NV, 89141",201925002,"L"
12098,"10440 BLACK MOUNTAIN RD","SAN DIEGO","CA",92126,32.9090585110001,-117.124220483,98,"10440 BLACK MOUNTAIN RD, SAN DIEGO, CA, 92126","Match","Exact","10440 BLACK MOUNTAIN RD, SAN DIEGO, CA, 92126",195723808,"L"
12099,"10440 CANTERBURY STREET","WESTCHESTER","IL",60463,41.855399171,-87.883523005,99,"10440 CANTERBURY STREET, WESTCHESTER, IL, 60463","Match","Non_Exact","10440 CANTERBURY ST, WESTCHESTER, IL, 60154",111788599,"R"
12100,"10440 DEERWOOD ROAD 1320","HOUSTON","TX",77042,29.7584415380001,-95.560299313,100,"10440 DEERWOOD ROAD 1320, HOUSTON, TX, 77042","Match","Exact","10440 DEERWOOD RD, HOUSTON, TX, 77042",96624254,"L"
12101,"10440 FORESTER PLACE","LONGMONT","CO",80504,40.1548883500001,-104.986818648,101,"10440 FORESTER PLACE, LONGMONT, CO, 80504","Match","Exact","10440 FORESTER PL, LONGMONT, CO, 80504",188752475,"R"
12102,"10440 HOLLAND WAY","WESTMINSTER","CO",80021,39.8837853960001,-105.103609218,102,"10440 HOLLAND WAY, WESTMINSTER, CO, 80021","Match","Exact","10440 HOLLAND WAY, WESTMINSTER, CO, 80021",629299016,"R"
12103,"10440 HOOPER ROAD","BATON ROUGE","LA",70818,30.540244951,-91.07015377,103,"10440 HOOPER ROAD, BATON ROUGE, LA, 70818","Match","Exact","10440 HOOPER RD, BATON ROUGE, LA, 70818",92186997,"R"
12104,"10440 INDIAN CREEK RD S","INDIANAPOLIS","IN",46259,39.674886487,-85.9808948369999,104,"10440 INDIAN CREEK RD S, INDIANAPOLIS, IN, 46259","Match","Exact","10440 INDIAN CREEK RD S, INDIANAPOLIS, IN, 46259",108013918,"L"
12105,"10440 INTERNATIONAL BLVD","OAKLAND","CA",94603,37.739648452,-122.166895584,105,"10440 INTERNATIONAL BLVD, OAKLAND, CA, 94603","Match","Exact","10440 INTERNATIONAL BLVD, OAKLAND, CA, 94603",125009813,"L"
12106,"10440 MIHELA AVE","LAS VEGAS","NV",89129,36.230193371,-115.323748947,106,"10440 MIHELA AVE, LAS VEGAS, NV, 89129","Match","Exact","10440 MIHELA AVE, LAS VEGAS, NV, 89129",612990238,"R"
12107,"10440 N CENTRAL EXPY STE 800","DALLAS","TX",75231,32.8888498700001,-96.7693044869999,107,"10440 N CENTRAL EXPY STE 800, DALLAS, TX, 75231","Match","Non_Exact","10440 N CENTRAL EXPY, DALLAS, TX, 75231",649828881,"R"
12108,"10440 OLD FRANKLIN TURNPIKE","UNION HALL","VA",24176,36.9937847890001,-79.708745829,108,"10440 OLD FRANKLIN TURNPIKE, UNION HALL, VA, 24176","Match","Exact","10440 OLD FRANKLIN TPKE, UNION HALL, VA, 24176",56392792,"R"
12109,"10440 S DE ANZA BLVD NUM D4","CUPERTINO","CA",95014,37.327909854,-122.032358223,109,"10440 S DE ANZA BLVD NUM D4, CUPERTINO, CA, 95014","Match","Non_Exact","10440 N DE ANZA BLVD, CUPERTINO, CA, 95014",123003721,"L"
12110,"10440 S DE ANZA BLVD STE D4","CUPERTINO","CA",95014,37.327909854,-122.032358223,110,"10440 S DE ANZA BLVD STE D4, CUPERTINO, CA, 95014","Match","Non_Exact","10440 N DE ANZA BLVD, CUPERTINO, CA, 95014",123003721,"L"
12111,"10440 SOUTH DR   APT  2803","HOUSTON","TX",77099,29.667145502,-95.562322406,111,"10440 SOUTH DR   APT  2803, HOUSTON, TX, 77099","Match","Exact","10440 SOUTH DR, HOUSTON, TX, 77099",96598250,"R"
12112,"10440 W DEAN ROAD","MILWAUKEE","WI",53224,43.170255318,-88.041355661,112,"10440 W DEAN ROAD, MILWAUKEE, WI, 53224","Match","Exact","10440 W DEAN RD, MILWAUKEE, WI, 53224",77757318,"L"
12113,"10441 BOSAHAN CT","CARMEL","IN",46032,39.9363185070001,-86.2244267729999,113,"10441 BOSAHAN CT, CARMEL, IN, 46032","Match","Exact","10441 BOSAHAN CT, CARMEL, IN, 46032",29311590,"L"
12114,"10441 MADISON ST","OMAHA","NE",68127,41.1929599270001,-96.077488864,114,"10441 MADISON ST, OMAHA, NE, 68127","Match","Exact","10441 MADISON ST, OMAHA, NE, 68127",116974102,"R"
12115,"10441 N SCOTTSDALE ROAD","SCOTTSDALE","AZ",85253,33.5811651290001,-111.926000891,115,"10441 N SCOTTSDALE ROAD, SCOTTSDALE, AZ, 85253","Match","Exact","10441 N SCOTTSDALE RD, SCOTTSDALE, AZ, 85253",128221280,"R"
12116,"10441 PALOMINO","EL PASO","TX",79924,31.91731208,-106.404555103,116,"10441 PALOMINO, EL PASO, TX, 79924","Match","Non_Exact","10441 PALOMINO ST, EL PASO, TX, 79924",189338612,"L"
12117,"10441 PRATHER LN","TUSTIN","CA",92782,33.765052289,-117.761921454,117,"10441 PRATHER LN, TUSTIN, CA, 92782","Match","Exact","10441 PRATHER LN, TUSTIN, CA, 92782",144127418,"R"
12118,"10441 RACETRACK ROAD UNIT 3","BERLIN","MD",21811,38.3596422310001,-75.1688641009999,118,"10441 RACETRACK ROAD UNIT 3, BERLIN, MD, 21811","Match","Exact","10441 RACETRACK RD, BERLIN, MD, 21811",114542518,"L"
12119,"10441 STANFORD AVE UNIT 2313","GARDEN GROVE","CA",92842,33.777726226,-117.950867253,119,"10441 STANFORD AVE UNIT 2313, GARDEN GROVE, CA, 92842","Match","Non_Exact","10441 STANFORD AVE, GARDEN GROVE, CA, 92840",144035243,"L"
12120,"10441 STANFORD AVE","GARDEN GROVE","CA",92842,33.777726226,-117.950867253,120,"10441 STANFORD AVE, GARDEN GROVE, CA, 92842","Match","Non_Exact","10441 STANFORD AVE, GARDEN GROVE, CA, 92840",144035243,"L"
12121,"10441 STANFORD AVENUE","GARDEN GROVE","CA",92842,33.777726226,-117.950867253,121,"10441 STANFORD AVENUE, GARDEN GROVE, CA, 92842","Match","Non_Exact","10441 STANFORD AVE, GARDEN GROVE, CA, 92840",144035243,"L"
12122,"10441 SW 155 CT  ROOM 924","MIAMI","FL",33196,25.6689988460001,-80.447216321,122,"10441 SW 155 CT  ROOM 924, MIAMI, FL, 33196","Match","Non_Exact","10441 SW 155TH CT, MIAMI, FL, 33196",116065310,"L"
12123,"10442 BUNCOMBE","BETHANY","LA",71007,32.3742831000001,-94.013459156,123,"10442 BUNCOMBE, BETHANY, LA, 71007","Match","Non_Exact","10442 BUNCOMB RD, BETHANY, LA, 71007",624502958,"L"
12124,"10442 JUNIPER BREEZE DR","FISHERS","IN",46038,39.996624448,-85.983051541,124,"10442 JUNIPER BREEZE DR, FISHERS, IN, 46038","Match","Exact","10442 JUNIPER BREEZE DR, FISHERS, IN, 46038",29343531,"L"
12125,"10442 SPAULDING LANE","STOCKTON","CA",95219,38.0516820820001,-121.380643447,125,"10442 SPAULDING LANE, STOCKTON, CA, 95219","Match","Exact","10442 SPAULDING LN, STOCKTON, CA, 95219",133930704,"R"
12126,"10442 SPENCER CT","UPPER MARLBORO","MD",20774,NA,NA,126,"10442 SPENCER CT, UPPER MARLBORO, MD, 20774","No_Match",NA,NA,NA,NA
12127,"10442 WOODMAN AVE","MISSION HILLS","CA",91345,34.2599564820001,-118.454240747,127,"10442 WOODMAN AVE, MISSION HILLS, CA, 91345","Match","Exact","10442 WOODMAN AVE, MISSION HILLS, CA, 91345",141547387,"R"
12128,"10443 HUNTERS HAVEN BLVD","RIVERVIEW","FL",33578,27.818566907,-82.3390900959999,128,"10443 HUNTERS HAVEN BLVD, RIVERVIEW, FL, 33578","Match","Exact","10443 HUNTERS HAVEN BLVD, RIVERVIEW, FL, 33578",104673861,"R"
12129,"10443 MUIR WOODS AVE","STOCKTON","CA",95209,38.0496377700001,-121.34578406,129,"10443 MUIR WOODS AVE, STOCKTON, CA, 95209","Match","Exact","10443 MUIR WOODS AVE, STOCKTON, CA, 95209",133877981,"R"
12130,"10443 REDMOND DRIVE","CORDOVA","TN",38016,35.1643257280001,-89.714044071,130,"10443 REDMOND DRIVE, CORDOVA, TN, 38016","Match","Exact","10443 REDMOND DR, CORDOVA, TN, 38016",612564074,"R"
12131,"10444 7TH AVE SW","SEATTLE","WA",98146,47.5090005500001,-122.343252536,131,"10444 7TH AVE SW, SEATTLE, WA, 98146","Match","Exact","10444 7TH AVE SW, SEATTLE, WA, 98146",186623974,"L"
12132,"10444 LOWER RIDGE RD","LONGMONT","CO",80504,40.1549934220001,-104.985684993,132,"10444 LOWER RIDGE RD, LONGMONT, CO, 80504","Match","Exact","10444 LOWER RIDGE RD, LONGMONT, CO, 80504",188754400,"L"
12133,"10444 N RED PINE LN","HAYWARD","WI",54843,46.010364329,-91.443325633,133,"10444 N RED PINE LN, HAYWARD, WI, 54843","Match","Exact","10444 N RED PINE LN, HAYWARD, WI, 54843",194433768,"L"
12134,"10444 N US421","CLINTON","NC",28328,NA,NA,134,"10444 N US421, CLINTON, NC, 28328","No_Match",NA,NA,NA,NA
12135,"10444 WALNUT DRIVE","KANSAS CITY","MO",64114,38.9379337880001,-94.59164476,135,"10444 WALNUT DRIVE, KANSAS CITY, MO, 64114","Match","Exact","10444 WALNUT DR, KANSAS CITY, MO, 64114",91456055,"R"
12136,"10445 BEACH ST","BELLFLOWER","CA",90706,33.877505936,-118.111949557,136,"10445 BEACH ST, BELLFLOWER, CA, 90706","Match","Exact","10445 BEACH ST, BELLFLOWER, CA, 90706",141742716,"L"
12137,"10445 BEACH STREET","BELLFLOWER","CA",90706,33.877505936,-118.111949557,137,"10445 BEACH STREET, BELLFLOWER, CA, 90706","Match","Exact","10445 BEACH ST, BELLFLOWER, CA, 90706",141742716,"L"
12138,"10445 CAROLINA WILLOW DR","FORT MYERS","FL",33913,26.579488042,-81.7805111229999,138,"10445 CAROLINA WILLOW DR, FORT MYERS, FL, 33913","Match","Exact","10445 CAROLINA WILLOW DR, FORT MYERS, FL, 33913",638636989,"R"
12139,"10445 GREENS CROSSING BLVD 131","HOUSTON","TX",77038,29.916793408,-95.4189733329999,139,"10445 GREENS CROSSING BLVD 131, HOUSTON, TX, 77038","Match","Exact","10445 GREENS CROSSING BLVD, HOUSTON, TX, 77038",96653843,"L"
12140,"10445 GREENS CROSSING BLVD APT127","HOUSTON","TX",77038,29.916793408,-95.4189733329999,140,"10445 GREENS CROSSING BLVD APT127, HOUSTON, TX, 77038","Match","Exact","10445 GREENS CROSSING BLVD, HOUSTON, TX, 77038",96653843,"L"
12141,"10445 MCCORMICK RD","UTICA","KY",42376,NA,NA,141,"10445 MCCORMICK RD, UTICA, KY, 42376","No_Match",NA,NA,NA,NA
12142,"10445 SW CANTERBURY LANE","TIGARD","OR",97224,45.4146201900001,-122.78423687,142,"10445 SW CANTERBURY LANE, TIGARD, OR, 97224","Match","Exact","10445 SW CANTERBURY LN, TIGARD, OR, 97224",605222233,"R"
12143,"10446 S CORLISS AVE","CHICAGO","IL",60628,41.7044635710001,-87.603929409,143,"10446 S CORLISS AVE, CHICAGO, IL, 60628","Match","Exact","10446 S CORLISS AVE, CHICAGO, IL, 60628",111773682,"R"
12144,"10446 W YUMA ST","TOLLESON","AZ",85043,33.4332594730001,-112.284619145,144,"10446 W YUMA ST, TOLLESON, AZ, 85043","Match","Non_Exact","10446 W YUMA ST, TOLLESON, AZ, 85353",646790031,"L"
12145,"10447 SORRENTO RD SUITE 100 PMB 76","PENSACOLA","FL",32507,30.3592526240001,-87.36196194,145,"10447 SORRENTO RD SUITE 100 PMB 76, PENSACOLA, FL, 32507","Match","Exact","10447 SORRENTO RD, PENSACOLA, FL, 32507",93280563,"R"
12146,"10448 37TH DR APT 4D","CORONA","NY",11368,NA,NA,146,"10448 37TH DR APT 4D, CORONA, NY, 11368","No_Match",NA,NA,NA,NA
12147,"10448 BRYNMORE DRIVE","NORTH CHESTERFIELD","VA",23237,37.375001497,-77.476478368,147,"10448 BRYNMORE DRIVE, NORTH CHESTERFIELD, VA, 23237","Match","Exact","10448 BRYNMORE DR, NORTH CHESTERFIELD, VA, 23237",616586710,"R"
12148,"10448 CLAUDIA AVE","SANTEE","CA",92071,32.8499858060001,-116.970411594,148,"10448 CLAUDIA AVE, SANTEE, CA, 92071","Match","Exact","10448 CLAUDIA AVE, SANTEE, CA, 92071",195752052,"L"
12149,"10448 MARKBY COURT","WHITE PLAINS","MD",20695,38.6142189980001,-76.958795605,149,"10448 MARKBY COURT, WHITE PLAINS, MD, 20695","Match","Exact","10448 MARKBY CT, WHITE PLAINS, MD, 20695",614118261,"R"
12150,"10448 S 43RD AVE","LAVEEN","AZ",85339,33.351419128,-112.151864167,150,"10448 S 43RD AVE, LAVEEN, AZ, 85339","Match","Exact","10448 S 43RD AVE, LAVEEN, AZ, 85339",128333685,"R"
12151,"10448 S 43RD AVENUE","LAVEEN","AZ",85339,33.351419128,-112.151864167,151,"10448 S 43RD AVENUE, LAVEEN, AZ, 85339","Match","Exact","10448 S 43RD AVE, LAVEEN, AZ, 85339",128333685,"R"
12152,"10449 MIDWEST INDUSTRIAL DRIVE","ST LOUIS","MO",63132,38.6878045230001,-90.3902514599999,152,"10449 MIDWEST INDUSTRIAL DRIVE, ST LOUIS, MO, 63132","Match","Exact","10449 MIDWEST INDUSTRIAL DR, SAINT LOUIS, MO, 63132",100130652,"R"
12153,"10449 STOKESHILL COURT","PINEVILLE","NC",28134,35.0743272350001,-80.8884428969999,153,"10449 STOKESHILL COURT, PINEVILLE, NC, 28134","Match","Exact","10449 STOKESHILL CT, PINEVILLE, NC, 28134",70589959,"L"
12154,"10449 WHITE GRANITE DRIVE-85","OAKTON","VA",22124,NA,NA,154,"10449 WHITE GRANITE DRIVE-85, OAKTON, VA, 22124","Tie",NA,NA,NA,NA
12155,"10449 WHITE GRANITE DRIVE","OAKTON","VA",22124,38.874226632,-77.3052837289999,155,"10449 WHITE GRANITE DRIVE, OAKTON, VA, 22124","Match","Exact","10449 WHITE GRANITE DR, OAKTON, VA, 22124",76026148,"R"
12156,"1045 10TH STREET APT 805","MIAMI BEACH","FL",33139,NA,NA,156,"1045 10TH STREET APT 805, MIAMI BEACH, FL, 33139","No_Match",NA,NA,NA,NA
12157,"1045 30TH STREET","NEWPORT NEWS","VA",23607,36.988902389,-76.4123294039999,157,"1045 30TH STREET, NEWPORT NEWS, VA, 23607","Match","Exact","1045 30TH ST, NEWPORT NEWS, VA, 23607",103746574,"L"
12158,"1045 35TH STREET","WEST P BEACH","FL",33407,26.74524059,-80.066536282,158,"1045 35TH STREET, WEST P BEACH, FL, 33407","Match","Non_Exact","1045 35TH ST, RIVIERA BEACH, FL, 33407",115277184,"R"
12159,"1045 74TH STREET","CEDAR RAPIDS","IA",52402,42.0513188370001,-91.649453476,159,"1045 74TH STREET, CEDAR RAPIDS, IA, 52402","Match","Non_Exact","1045 74TH ST NE, CEDAR RAPIDS, IA, 52402",650311562,"R"
12160,"1045 ALAHAKI STREET","KAILUA","HI",96734,21.3740824290001,-157.732887865,160,"1045 ALAHAKI STREET, KAILUA, HI, 96734","Match","Exact","1045 ALAHAKI ST, KAILUA, HI, 96734",203240425,"L"
12161,"1045 ANTHONY DRIVE","VINELAND","NJ",8360,39.469490448,-75.0472229819999,161,"1045 ANTHONY DRIVE, VINELAND, NJ, 8360","Match","Exact","1045 ANTHONY DR, VINELAND, NJ, 08360",174111171,"L"
12162,"1045 BETHEL AVE","SANGER","CA",93657,36.7016259060001,-119.574347728,162,"1045 BETHEL AVE, SANGER, CA, 93657","Match","Exact","1045 BETHEL AVE, SANGER, CA, 93657",197621089,"R"
12163,"1045 BIG OAK RANCH RD","FALLBROOK","CA",92028,33.3384092420001,-117.23781147,163,"1045 BIG OAK RANCH RD, FALLBROOK, CA, 92028","Match","Exact","1045 BIG OAK RANCH RD, FALLBROOK, CA, 92028",612888983,"R"
12164,"1045 CAPRINE LANE","GOODVIEW","VA",24095,37.250556492,-79.7421935579999,164,"1045 CAPRINE LANE, GOODVIEW, VA, 24095","Match","Exact","1045 CAPRINE LN, GOODVIEW, VA, 24095",62632099,"R"
12165,"1045 CASCADE ST R","MESQUITE","TX",75149,32.7751320260001,-96.6113406169999,165,"1045 CASCADE ST R, MESQUITE, TX, 75149","Match","Exact","1045 CASCADE ST, MESQUITE, TX, 75149",647917727,"L"
12166,"1045 CENTER RIDGE ROAD","COLLIERVILLE","TN",38017,35.016384406,-89.691452429,166,"1045 CENTER RIDGE ROAD, COLLIERVILLE, TN, 38017","Match","Exact","1045 CENTER RIDGE RD, COLLIERVILLE, TN, 38017",72971262,"R"
12167,"1045 CONEY ISLAND AVENUE","BROOKLYN","NY",11230,40.6321436370001,-73.9667251239999,167,"1045 CONEY ISLAND AVENUE, BROOKLYN, NY, 11230","Match","Exact","1045 CONEY ISLAND AVE, BROOKLYN, NY, 11230",59081123,"L"
12168,"1045 COUNTY ROAD 17","WAHOO","NE",68066,41.1535152450001,-96.6213117349999,168,"1045 COUNTY ROAD 17, WAHOO, NE, 68066","Match","Exact","1045 CO RD 17, WAHOO, NE, 68066",28536038,"L"
12169,"1045 COUNTY ROAD 380","CENTRE","AL",35960,34.1136985970001,-85.6391005679999,169,"1045 COUNTY ROAD 380, CENTRE, AL, 35960","Match","Exact","1045 CO RD 380, CENTRE, AL, 35960",30240328,"L"
12170,"1045 CROOKED OAKS LANE","SEABROOK ISLAND","SC",29455,32.572135529,-80.1767256909999,170,"1045 CROOKED OAKS LANE, SEABROOK ISLAND, SC, 29455","Match","Non_Exact","1045 CROOKED OAK LN, SEABROOK ISLAND, SC, 29455",108897802,"R"
12171,"1045 DRY CREEK RD","ELIZABETHTON","TN",37643,36.247445526,-82.254532549,171,"1045 DRY CREEK RD, ELIZABETHTON, TN, 37643","Match","Exact","1045 DRY CREEK RD, ELIZABETHTON, TN, 37643",43050339,"L"
12172,"1045 E 2700 S","SALT LAKE CITY","UT",84106,40.712686116,-111.861075323,172,"1045 E 2700 S, SALT LAKE CITY, UT, 84106","Match","Exact","1045 E 2700 S, SALT LAKE CITY, UT, 84106",638533368,"L"
12173,"1045 E SAN MARCELO BLVD","BROWNSVILLE","TX",78526,25.960308567,-97.491569327,173,"1045 E SAN MARCELO BLVD, BROWNSVILLE, TX, 78526","Match","Exact","1045 E SAN MARCELO BLVD, BROWNSVILLE, TX, 78526",89963466,"L"
12174,"1045 E VALLEY BLVD STE  A211","SAN GABRIEL","CA",91776,34.080371938,-118.085622583,174,"1045 E VALLEY BLVD STE  A211, SAN GABRIEL, CA, 91776","Match","Exact","1045 VALLEY BLVD, SAN GABRIEL, CA, 91776",142739537,"L"
12175,"1045 EAGLEMONT DRIVE","WHITTIER","CA",90601,34.03591858,-118.005342475,175,"1045 EAGLEMONT DRIVE, WHITTIER, CA, 90601","Match","Exact","1045 EAGLEMONT DR, WHITTIER, CA, 90601",141652361,"R"
12176,"1045 EAST 29 STREET","BROOKLYN","NY",11210,40.625575413,-73.947657694,176,"1045 EAST 29 STREET, BROOKLYN, NY, 11210","Match","Exact","1045 E 29TH ST, BROOKLYN, NY, 11210",59097932,"L"
12177,"1045 ELLIS WAY","FORNEY","TX",75126,32.7337072190001,-96.450366558,177,"1045 ELLIS WAY, FORNEY, TX, 75126","Match","Exact","1045 ELLIS WAY, FORNEY, TX, 75126",649981968,"L"
12178,"1045 FLAGTREE LANE","PIKESVILLE","MD",21208,39.3664291060001,-76.742354301,178,"1045 FLAGTREE LANE, PIKESVILLE, MD, 21208","Match","Exact","1045 FLAGTREE LN, PIKESVILLE, MD, 21208",191468205,"R"
12179,"1045 GARDEN OF THE GODS ROAD 120 D","COLORADO SPRINGS","CO",80907,38.8965898710001,-104.841234227,179,"1045 GARDEN OF THE GODS ROAD 120 D, COLORADO SPRINGS, CO, 80907","Match","Non_Exact","1045 W GARDEN OF THE GODS RD, COLORADO SPRINGS, CO, 80907",611723939,"L"
12180,"1045 GEORGETOWN ROAD SUITE A-1","LEXINGTON","KY",40511,38.077876098,-84.5072740639999,180,"1045 GEORGETOWN ROAD SUITE A-1, LEXINGTON, KY, 40511","Match","Exact","1045 GEORGETOWN RD, LEXINGTON, KY, 40511",613083703,"L"
12181,"1045 GROVE PARK CIRCLE","BOYNTON BEACH","FL",33436,26.566705917,-80.106990121,181,"1045 GROVE PARK CIRCLE, BOYNTON BEACH, FL, 33436","Match","Exact","1045 GROVE PARK CIR, BOYNTON BEACH, FL, 33436",639344631,"L"
12182,"1045 HUDSON STREET","MEMPHIS","TN",38112,35.1607785640001,-89.954151709,182,"1045 HUDSON STREET, MEMPHIS, TN, 38112","Match","Exact","1045 HUDSON ST, MEMPHIS, TN, 38112",72915221,"L"
12183,"1045 JACKSON ST NW","GRAND RAPIDS","MI",49504,42.968207917,-85.694018871,183,"1045 JACKSON ST NW, GRAND RAPIDS, MI, 49504","Match","Exact","1045 JACKSON ST NW, GRAND RAPIDS, MI, 49504",12456201,"R"
12184,"1045 JEFF TUTTLE DRIVE","SAN ANDREAS","CA",95249,NA,NA,184,"1045 JEFF TUTTLE DRIVE, SAN ANDREAS, CA, 95249","No_Match",NA,NA,NA,NA
12185,"1045 JEFF TUTTLE RD","SAN ANDREAS","CA",95249,NA,NA,185,"1045 JEFF TUTTLE RD, SAN ANDREAS, CA, 95249","No_Match",NA,NA,NA,NA
12186,"1045 LAPLATA DRIVE","KERNERSVILLE","NC",27284,NA,NA,186,"1045 LAPLATA DRIVE, KERNERSVILLE, NC, 27284","No_Match",NA,NA,NA,NA
12187,"1045 MADISON 206","FREDERICKTOWN","MO",63645,NA,NA,187,"1045 MADISON 206, FREDERICKTOWN, MO, 63645","No_Match",NA,NA,NA,NA
12188,"1045 MAIN STREET","CORVALLIS","MT",59828,46.3147234320001,-114.115468075,188,"1045 MAIN STREET, CORVALLIS, MT, 59828","Match","Exact","1045 MAIN ST, CORVALLIS, MT, 59828",153517600,"L"
12189,"1045 MUIR WOODS AVE","STOCKTON","CA",95209,NA,NA,189,"1045 MUIR WOODS AVE, STOCKTON, CA, 95209","No_Match",NA,NA,NA,NA
12190,"1045 N BRISTOL CT","WICHITA","KS",67206,37.702578429,-97.20571531,190,"1045 N BRISTOL CT, WICHITA, KS, 67206","Match","Exact","1045 N BRISTOL CT, WICHITA, KS, 67206",624581330,"L"
12191,"1045 N ELDORADO STE 11","STOCKOTN","CA",95202,NA,NA,191,"1045 N ELDORADO STE 11, STOCKOTN, CA, 95202","No_Match",NA,NA,NA,NA
12192,"1045 N FOREST RD","WILLIAMSVILLE","NY",14221,42.98463966,-78.7641065829999,192,"1045 N FOREST RD, WILLIAMSVILLE, NY, 14221","Match","Exact","1045 N FOREST RD, WILLIAMSVILLE, NY, 14221",48298309,"R"
12193,"1045 N KINGS ROAD UNIT 110","WEST HOLLYWOOD","CA",90069,34.0896999820001,-118.371737702,193,"1045 N KINGS ROAD UNIT 110, WEST HOLLYWOOD, CA, 90069","Match","Non_Exact","1045 N KINGS RD, W HOLLYWOOD, CA, 90069",241240237,"L"
12194,"1045 N SACRAMENTO AVE APT 216","CHICAGO","IL",60622,41.9005045170001,-87.701744886,194,"1045 N SACRAMENTO AVE APT 216, CHICAGO, IL, 60622","Match","Non_Exact","1045 N SACRAMENTO AVE, CHICAGO, IL, 60622",111763350,"R"
12195,"1045 N WILLIAM AVE","FREMONT","NE",68025,41.4384841130001,-96.470897282,195,"1045 N WILLIAM AVE, FREMONT, NE, 68025","Match","Exact","1045 N WILLIAM AVE, FREMONT, NE, 68025",136314734,"L"
12196,"1045 NE 174TH ST","MIAMI","FL",33162,25.9355896020001,-80.179267314,196,"1045 NE 174TH ST, MIAMI, FL, 33162","Match","Exact","1045 NE 174TH ST, MIAMI, FL, 33162",116035418,"L"
12197,"1045 NOME","AKRON","OH",44320,41.0808629100001,-81.5705942069999,197,"1045 NOME, AKRON, OH, 44320","Match","Non_Exact","1045 NOME AVE, AKRON, OH, 44320",61338526,"L"
12198,"1045 NORTH 7TH","MINNEAPOLIS","MN",55411,44.9887010190001,-93.289857478,198,"1045 NORTH 7TH, MINNEAPOLIS, MN, 55411","Match","Non_Exact","1045 N 7TH ST, MINNEAPOLIS, MN, 55411",43624035,"L"
12199,"1045 NORTH KINGS ROAD APT 103","WEST HOLLYWOOD","CA",90069,34.0896854170001,-118.371737854,199,"1045 NORTH KINGS ROAD APT 103, WEST HOLLYWOOD, CA, 90069","Match","Exact","1045 N KINGS RD, W HOLLYWOOD, CA, 90069",241240237,"L"
12200,"1045 NORTH WEST END BLVD LOT 45","QUAKERTOWN","PA",18951,40.4195240820001,-75.3450750769999,200,"1045 NORTH WEST END BLVD LOT 45, QUAKERTOWN, PA, 18951","Match","Non_Exact","1045 S WEST END BLVD, QUAKERTOWN, PA, 18951",134696917,"L"
12201,"1045 NW 115 ST","MIAMI","FL",33168,25.8799274140001,-80.215373546,201,"1045 NW 115 ST, MIAMI, FL, 33168","Match","Exact","1045 NW 115TH ST, MIAMI, FL, 33168",116033768,"R"
12202,"1045 PRATT BLVD","LABELLE","FL",33935,NA,NA,202,"1045 PRATT BLVD, LABELLE, FL, 33935","No_Match",NA,NA,NA,NA
12203,"1045 PROVINCIAL CIRCLE UNIT D","MT PLEASANT","SC",29464,32.797811068,-79.8869348389999,203,"1045 PROVINCIAL CIRCLE UNIT D, MT PLEASANT, SC, 29464","Match","Exact","1045 PROVINCIAL CIR, MOUNT PLEASANT, SC, 29464",605675952,"L"
12204,"1045 RADFORD ST","CHRISITIANSBURG","VA",24073,37.1273540930001,-80.428627128,204,"1045 RADFORD ST, CHRISITIANSBURG, VA, 24073","Match","Non_Exact","1045 RADFORD ST, CHRISTIANSBURG, VA, 24073",649996574,"L"
12205,"1045 REUNION PLACE SW","ATLANTA","GA",30331,33.724757649,-84.528603248,205,"1045 REUNION PLACE SW, ATLANTA, GA, 30331","Match","Exact","1045 REUNION PL SW, ATLANTA, GA, 30331",643378545,"R"
12206,"1045 RICHMOND ROAD","STATEN ISLAND","NY",10304,40.600941563,-74.092755702,206,"1045 RICHMOND ROAD, STATEN ISLAND, NY, 10304","Match","Exact","1045 RICHMOND RD, STATEN ISLAND, NY, 10304",59868458,"R"
12207,"1045 RIVER ROCK","NEW BRAUNFELS","TX",78130,29.6914437680001,-98.088308298,207,"1045 RIVER ROCK, NEW BRAUNFELS, TX, 78130","Match","Exact","1045 RIVER ROCK, NEW BRAUNFELS, TX, 78130",72253706,"R"
12208,"1045 S FLAGLER AVENUE APT 716","POMPANO BEACH","FL",33060,26.2165119970001,-80.129221635,208,"1045 S FLAGLER AVENUE APT 716, POMPANO BEACH, FL, 33060","Match","Non_Exact","1045 S FLAGLER AVE, POMPANO BEACH, FL, 33060",114694834,"R"
12209,"1045 S MAIN ST","LAS CRUCES","NM",88005,32.301954698,-106.777892941,209,"1045 S MAIN ST, LAS CRUCES, NM, 88005","Match","Exact","1045 S MAIN ST, LAS CRUCES, NM, 88005",616324136,"R"
12210,"1045 S MEADOW ST","MOSCOW","ID",83843,46.725999593,-116.975698653,210,"1045 S MEADOW ST, MOSCOW, ID, 83843","Match","Exact","1045 S MEADOW ST, MOSCOW, ID, 83843",193850570,"L"
12211,"1045 S SAN JOSE ST APT 224","MESA","AZ",85202,NA,NA,211,"1045 S SAN JOSE ST APT 224, MESA, AZ, 85202","No_Match",NA,NA,NA,NA
12212,"1045 SHILOH TRAIL","CHINA SPRING","TX",76633,31.659375303,-97.342549203,212,"1045 SHILOH TRAIL, CHINA SPRING, TX, 76633","Match","Exact","1045 SHILOH TRL, CHINA SPRING, TX, 76633",146730577,"L"
12213,"1045 SNEED RD W","FRANKLIN","TN",37069,36.0285697030001,-86.913732406,213,"1045 SNEED RD W, FRANKLIN, TN, 37069","Match","Exact","1045 SNEED RD W, FRANKLIN, TN, 37069",635826115,"R"
12214,"1045 TULLMORE DR","ROSWELL","GA",30075,34.0075964530001,-84.376623227,214,"1045 TULLMORE DR, ROSWELL, GA, 30075","Match","Exact","1045 TULLMORE DR, ROSWELL, GA, 30075",17373401,"L"
12215,"1045 US HWY 331 SOUTH STE H","DEFUNIAK SPRINGS","FL",32435,NA,NA,215,"1045 US HWY 331 SOUTH STE H, DEFUNIAK SPRINGS, FL, 32435","No_Match",NA,NA,NA,NA
12216,"1045 W MAPLE","FAYETTEVILLE","AR",72701,36.0703319250001,-94.174922784,216,"1045 W MAPLE, FAYETTEVILLE, AR, 72701","Match","Non_Exact","1045 W MAPLE ST, FAYETTEVILLE, AR, 72701",49045375,"L"
12217,"1045 W RIVER ST","KANKAKEE","IL",60901,41.1149212030001,-87.87973931,217,"1045 W RIVER ST, KANKAKEE, IL, 60901","Match","Exact","1045 W RIVER ST, KANKAKEE, IL, 60901",98356041,"R"
12218,"1045 WALKER AVENUE SE","ATLANTA","GA",30316,33.727702267,-84.359515512,218,"1045 WALKER AVENUE SE, ATLANTA, GA, 30316","Match","Exact","1045 WALKER AVE SE, ATLANTA, GA, 30316",17358371,"R"
12219,"1045 WEST HILL ROAD","GATES MILLS","OH",44040,41.533639534,-81.420051498,219,"1045 WEST HILL ROAD, GATES MILLS, OH, 44040","Match","Non_Exact","1045 W HILL DR, GATES MILLS, OH, 44040",638754364,"L"
12220,"10450 72ND AVENUE","PLEASANT PRARIE","WI",53158,42.5204410870001,-87.8944310959999,220,"10450 72ND AVENUE, PLEASANT PRARIE, WI, 53158","Match","Exact","10450 72ND AVE, PLEASANT PRAIRIE, WI, 53158",605368729,"R"
12221,"10450 E  RIGGS RD    STE 113","SUN LAKES","AZ",85248,33.2183805280001,-111.855914581,221,"10450 E  RIGGS RD    STE 113, SUN LAKES, AZ, 85248","Match","Non_Exact","10450 E RIGGS RD, SUN LAKES, AZ, 85248",128826103,"L"
12222,"10450 MOULIN AVE NE","ALLIANCE","OH",44601,40.922714022,-81.182484468,222,"10450 MOULIN AVE NE, ALLIANCE, OH, 44601","Match","Exact","10450 MOULIN AVE NE, ALLIANCE, OH, 44601",64721974,"R"
12223,"10450 SW 178TH AVENUE","MIAMI","FL",33196,25.666393729,-80.4842599469999,223,"10450 SW 178TH AVENUE, MIAMI, FL, 33196","Match","Exact","10450 SW 178TH AVE, MIAMI, FL, 33196",631997025,"R"
12224,"10450 TURKEY LAKE RD UNIT 690232","ORLANDO","FL",32869,28.418613237,-81.475798152,224,"10450 TURKEY LAKE RD UNIT 690232, ORLANDO, FL, 32869","Match","Non_Exact","10450 TURKEY LAKE RD, ORLANDO, FL, 32819",646569484,"L"
12225,"10451 HUFFMEISTER RD APT 1408","HOUSTON","TX",77065,29.92812788,-95.628809086,225,"10451 HUFFMEISTER RD APT 1408, HOUSTON, TX, 77065","Match","Exact","10451 HUFFMEISTER RD, HOUSTON, TX, 77065",642107678,"R"
12226,"10451 PROVIDENCE DR APT 802","DES MOINES","IA",50131,41.674707031,-93.762157942,226,"10451 PROVIDENCE DR APT 802, DES MOINES, IA, 50131","Match","Non_Exact","10451 PROVIDENCE DR, URBANDALE, IA, 50131",627389346,"R"
12227,"10451 S  600 E - 92","ROANOKE","IN",46783,41.0134156180001,-85.3747384769999,227,"10451 S  600 E - 92, ROANOKE, IN, 46783","Match","Non_Exact","10451 S 600 E-92, ROANOKE, IN, 46783",6647463,"L"
12228,"10451 S HALE AVE  1A","CHICAGO","IL",60643,41.7035869150001,-87.668962666,228,"10451 S HALE AVE  1A, CHICAGO, IL, 60643","Match","Non_Exact","10451 S HALE AVE, CHICAGO, IL, 60643",604992653,"L"
12229,"10451 SE 220 RD","TALIHINA","OK",74571,NA,NA,229,"10451 SE 220 RD, TALIHINA, OK, 74571","No_Match",NA,NA,NA,NA
12230,"10451 TWIN RIVERS ROAD SUITE 104","COLUMBIA","MD",21044,39.2207195180001,-76.874114127,230,"10451 TWIN RIVERS ROAD SUITE 104, COLUMBIA, MD, 21044","Match","Exact","10451 TWIN RIVERS RD, COLUMBIA, MD, 21044",158960897,"L"
12231,"10452 ALBERT ROAD","OLIVE BRANCH","MS",38654,34.9749403590001,-89.805265317,231,"10452 ALBERT ROAD, OLIVE BRANCH, MS, 38654","Match","Exact","10452 ALBERT RD, OLIVE BRANCH, MS, 38654",91838280,"L"
12232,"10452 STATE HWY 34 P O BOX 115","SCURRY","TX",75158,32.496512056,-96.401701077,232,"10452 STATE HWY 34 P O BOX 115, SCURRY, TX, 75158","Match","Exact","10452 STATE HWY 34, SCURRY, TX, 75158",123757176,"L"
12233,"10452 SW 20TH ST","MIRAMAR","FL",33025,25.9913703880001,-80.286323081,233,"10452 SW 20TH ST, MIRAMAR, FL, 33025","Match","Exact","10452 SW 20TH ST, MIRAMAR, FL, 33025",114778291,"L"
12234,"10452 WHITE PRINCESS AVE","LAS VEGAS","NV",89166,36.306035233,-115.324090159,234,"10452 WHITE PRINCESS AVE, LAS VEGAS, NV, 89166","Match","Non_Exact","10452 W WHITE PRINCESS AVE, LAS VEGAS, NV, 89166",627162336,"R"
12235,"10453 ARTESIA BLVD 29B","BELLFLOWER","CA",90706,33.87289307,-118.111133555,235,"10453 ARTESIA BLVD 29B, BELLFLOWER, CA, 90706","Match","Exact","10453 ARTESIA BLVD, BELLFLOWER, CA, 90706",142795385,"L"
12236,"10453 ELLIMAN ROAD","MANTUA","OH",44255,41.275077842,-81.3135807799999,236,"10453 ELLIMAN ROAD, MANTUA, OH, 44255","Match","Exact","10453 ELLIMAN RD, MANTUA, OH, 44255",208681747,"L"
12237,"10453 GLORY AVE","TUJUNGA","CA",91042,34.259030931,-118.280898413,237,"10453 GLORY AVE, TUJUNGA, CA, 91042","Match","Exact","10453 GLORY AVE, TUJUNGA, CA, 91042",641580745,"L"
12238,"10453 GLORY AVE","TUJUNGA","CA",91045,34.259030931,-118.280898413,238,"10453 GLORY AVE, TUJUNGA, CA, 91045","Match","Non_Exact","10453 GLORY AVE, TUJUNGA, CA, 91042",641580745,"L"
12239,"10453 KARDWRIGHT COURT","MONTGOMERY VILLAGE","MD",20886,39.1699806870001,-77.2158970569999,239,"10453 KARDWRIGHT COURT, MONTGOMERY VILLAGE, MD, 20886","Match","Exact","10453 KARDWRIGHT CT, MONTGOMERY VILLAGE, MD, 20886",62047075,"R"
12240,"10453 RALEIGH LAGRANGE RD","EADS","TN",38028,35.1187200800001,-89.714527504,240,"10453 RALEIGH LAGRANGE RD, EADS, TN, 38028","Match","Non_Exact","10453 RALEIGH LAGRANGE RD E, EADS, TN, 38028",637060570,"R"
12241,"10455 ARMSTRONG ST","FAIRFAX","VA",22030,38.841413319,-77.30742901,241,"10455 ARMSTRONG ST, FAIRFAX, VA, 22030","Match","Exact","10455 ARMSTRONG ST, FAIRFAX, VA, 22030",637694669,"R"
12242,"10455 COUNTY LINE ROAD","SPRING HILL","FL",34609,28.433811646,-82.543570565,242,"10455 COUNTY LINE ROAD, SPRING HILL, FL, 34609","Match","Exact","10455 COUNTY LINE RD, SPRING HILL, FL, 34609",85450689,"R"
12243,"10455 FALLS ROAD","LUTHERVILLE","MD",21093,39.409999966,-76.6677099519999,243,"10455 FALLS ROAD, LUTHERVILLE, MD, 21093","Match","Exact","10455 FALLS RD, LUTHERVILLE, MD, 21093",191541484,"R"
12244,"10455 MAGNOLIA BLVD 311","NORTH HOLLYWOOD","CA",91601,34.1649158220001,-118.358655006,244,"10455 MAGNOLIA BLVD 311, NORTH HOLLYWOOD, CA, 91601","Match","Exact","10455 MAGNOLIA BLVD, N HOLLYWOOD, CA, 91601",141592020,"R"
12245,"10455 N CENTRAL EXPRESSWAY STE 109","DALLAS","TX",75231,32.666724152,-96.723825146,245,"10455 N CENTRAL EXPRESSWAY STE 109, DALLAS, TX, 75231","Match","Non_Exact","10455 CENTRAL EXPY, DALLAS, TX, 75241",619774064,"R"
12246,"10455 SW 146TH TER","MIAMI","FL",33176,25.633320677,-80.363773483,246,"10455 SW 146TH TER, MIAMI, FL, 33176","Match","Exact","10455 SW 146TH TER, MIAMI, FL, 33176",115982097,"R"
12247,"10456 7TH AVE SW","SEATTLE","WA",98146,47.5089379300001,-122.343249566,247,"10456 7TH AVE SW, SEATTLE, WA, 98146","Match","Exact","10456 7TH AVE SW, SEATTLE, WA, 98146",186623974,"L"
12248,"10456 W FREMONT PL","LITTLETON","CO",80127,39.5855137990001,-105.115904889,248,"10456 W FREMONT PL, LITTLETON, CO, 80127","Match","Exact","10456 W FREMONT PL, LITTLETON, CO, 80127",177322872,"L"
12249,"10457 BRIARBEND DR SUITE 1","ST LOUIS","MO",63146,38.6763505010001,-90.40984807,249,"10457 BRIARBEND DR SUITE 1, ST LOUIS, MO, 63146","Match","Exact","10457 BRIARBEND DR, SAINT LOUIS, MO, 63146",604465974,"R"
12250,"10458 HELENE AVE","NAPERVILLE","IL",60564,41.692754032,-88.2084313289999,250,"10458 HELENE AVE, NAPERVILLE, IL, 60564","Match","Non_Exact","10458 S HELENE AVE, NAPERVILLE, IL, 60564",600839318,"R"
12251,"10458 WESTOVER","DETROIT","MI",48204,42.352428639,-83.1631876289999,251,"10458 WESTOVER, DETROIT, MI, 48204","Match","Non_Exact","10458 WESTOVER ST, DETROIT, MI, 48204",95443261,"R"
12252,"1046 253RD STREET UNIT A","HARBOR CITY","CA",90710,33.7947132250001,-118.294764806,252,"1046 253RD STREET UNIT A, HARBOR CITY, CA, 90710","Match","Non_Exact","1046 W 253RD ST, HARBOR CITY, CA, 90710",141670030,"L"
12253,"1046 37TH STREET","SACRAMENTO","CA",95816,38.57002706,-121.457165828,253,"1046 37TH STREET, SACRAMENTO, CA, 95816","Match","Exact","1046 37TH ST, SACRAMENTO, CA, 95816",133325425,"R"
12254,"1046 ANNAPOLIS ROAD","GAMBRILLS","MD",21054,39.0771458310001,-76.683611459,254,"1046 ANNAPOLIS ROAD, GAMBRILLS, MD, 21054","Match","Exact","1046 ANNAPOLIS RD, GAMBRILLS, MD, 21054",635579983,"R"
12255,"1046 BLUFF CITY ROAD","SOMERVILLE","AL",35670,34.503040992,-86.793372088,255,"1046 BLUFF CITY ROAD, SOMERVILLE, AL, 35670","Match","Exact","1046 BLUFF CITY RD, SOMERVILLE, AL, 35670",635533748,"L"
12256,"1046 BRATTON ROAD","NEW ALBANY","MS",38652,34.4821543670001,-89.044176106,256,"1046 BRATTON ROAD, NEW ALBANY, MS, 38652","Match","Exact","1046 BRATTON RD, NEW ALBANY, MS, 38652",605042579,"R"
12257,"1046 BUCHANAN STREET NE","WASHINGTON","DC",20017,38.9462826280001,-76.991981192,257,"1046 BUCHANAN STREET NE, WASHINGTON, DC, 20017","Match","Exact","1046 BUCHANAN ST NE, WASHINGTON, DC, 20017",76228270,"L"
12258,"1046 CHASE ROAD","CORNELIA","GA",30531,34.525233476,-83.51517683,258,"1046 CHASE ROAD, CORNELIA, GA, 30531","Match","Exact","1046 CHASE RD, CORNELIA, GA, 30531",634193946,"R"
12259,"1046 DEKALB ST REAR","NORRISTOWN","PA",19401,40.0994864470001,-75.351674915,259,"1046 DEKALB ST REAR, NORRISTOWN, PA, 19401","Match","Non_Exact","1046 DEKALB ST, NORRISTOWN, PA, 19405",135105510,"R"
12260,"1046 DIXON BLVD","COCOA","FL",32922,28.3732945630001,-80.743613518,260,"1046 DIXON BLVD, COCOA, FL, 32922","Match","Exact","1046 DIXON BLVD, COCOA, FL, 32922",93892859,"R"
12261,"1046 DONALDSON WAY","AMERICAN CANYON","CA",94503,38.178570703,-122.262794082,261,"1046 DONALDSON WAY, AMERICAN CANYON, CA, 94503","Match","Exact","1046 DONALDSON WAY, AMERICAN CANYON, CA, 94503",67426604,"R"
12262,"1046 E BRANDON BLVD","BRANDON","FL",33510,27.9377428980001,-82.268182391,262,"1046 E BRANDON BLVD, BRANDON, FL, 33510","Match","Non_Exact","1046 E BRANDON BLVD, BRANDON, FL, 33511",633392972,"L"
12263,"1046 E CABANA CIRCLE 7","MEMPHIS","TN",38107,35.1654758550001,-89.987868727,263,"1046 E CABANA CIRCLE 7, MEMPHIS, TN, 38107","Match","Non_Exact","1046 E CABANA CIR, MEMPHIS, TN, 38107",72912166,"R"
12264,"1046 EAST 85TH STREET","BROOKLYN","NY",11236,40.6353580580001,-73.906834293,264,"1046 EAST 85TH STREET, BROOKLYN, NY, 11236","Match","Exact","1046 E 85TH ST, BROOKLYN, NY, 11236",59086482,"R"
12265,"1046 EDGEMONT TERRACE","MORGANTON","NC",28655,35.682231249,-81.695223528,265,"1046 EDGEMONT TERRACE, MORGANTON, NC, 28655","Match","Exact","1046 EDGEMONT TER, MORGANTON, NC, 28655",37184358,"L"
12266,"1046 GREENBRIAR TRAIL","CEDAR HILL","TX",75104,32.6082479350001,-96.9203650319999,266,"1046 GREENBRIAR TRAIL, CEDAR HILL, TX, 75104","Match","Exact","1046 GREENBRIAR TRL, CEDAR HILL, TX, 75104",616706226,"L"
12267,"1046 HIGHWAY 3043","OPELOUSAS","LA",70570,30.557553881,-92.109673766,267,"1046 HIGHWAY 3043, OPELOUSAS, LA, 70570","Match","Non_Exact","1046 STATE RTE 3043, OPELOUSAS, LA, 70570",106454077,"R"
12268,"1046 HOWE RD","KENT","OH",44240,41.117635111,-81.3560272729999,268,"1046 HOWE RD, KENT, OH, 44240","Match","Non_Exact","1046 E HOWE RD, KENT, OH, 44240",137537146,"R"
12269,"1046 JEFFERSON AVENUE","BROOKLYN","NY",11221,40.687703437,-73.9168285109999,269,"1046 JEFFERSON AVENUE, BROOKLYN, NY, 11221","Match","Exact","1046 JEFFERSON AVE, BROOKLYN, NY, 11221",59083130,"R"
12270,"1046 LITTLE SORREL DRIVE","CALERA","AL",35040,33.167387752,-86.789105701,270,"1046 LITTLE SORREL DRIVE, CALERA, AL, 35040","Match","Exact","1046 LITTLE SORREL DR, CALERA, AL, 35040",618096378,"R"
12271,"1046 MANNING DR","FREDERICKSBURG","VA",22405,38.342430329,-77.457931313,271,"1046 MANNING DR, FREDERICKSBURG, VA, 22405","Match","Exact","1046 MANNING DR, FREDERICKSBURG, VA, 22405",25556521,"R"
12272,"1046 N 2ND","MERKEL","TX",79536,32.47165376,-100.01185521,272,"1046 N 2ND, MERKEL, TX, 79536","Match","Non_Exact","1046 N 2ND ST, MERKEL, TX, 79536",129952849,"R"
12273,"1046 N PARKSIDE AVE","CHICAGO","IL",60651,41.899583024,-87.7667799989999,273,"1046 N PARKSIDE AVE, CHICAGO, IL, 60651","Match","Exact","1046 N PARKSIDE AVE, CHICAGO, IL, 60651",605048567,"L"
12274,"1046 N PLEASANT VIEW RD 105","MIDDLETON","WI",53562,43.081070599,-89.5367225639999,274,"1046 N PLEASANT VIEW RD 105, MIDDLETON, WI, 53562","Match","Exact","1046 PLEASANT VIEW RD, MIDDLETON, WI, 53562",49541856,"R"
12275,"1046 NORTH  CENTRAL PARK","CHICAGO","IL",60651,NA,NA,275,"1046 NORTH  CENTRAL PARK, CHICAGO, IL, 60651","Tie",NA,NA,NA,NA
12276,"1046 NORTH PALESTINE DRIVE","RAYMOND","MS",39154,32.2496763300001,-90.4189990259999,276,"1046 NORTH PALESTINE DRIVE, RAYMOND, MS, 39154","Match","Exact","1046 N PALESTINE DR, RAYMOND, MS, 39154",65355100,"R"
12277,"1046 NW 54TH STREET","MIAMI","FL",33127,25.824785724,-80.2131586579999,277,"1046 NW 54TH STREET, MIAMI, FL, 33127","Match","Exact","1046 NW 54TH ST, MIAMI, FL, 33127",116005449,"L"
12278,"1046 PENNSYLVANIA AVE","SAN DIEGO","CA",92103,32.7453654610001,-117.154763509,278,"1046 PENNSYLVANIA AVE, SAN DIEGO, CA, 92103","Match","Exact","1046 PENNSYLVANIA AVE, SAN DIEGO, CA, 92103",195756310,"L"
12279,"1046 PHIL ONEIL DRIVE","CHARLOTTE","NC",28215,35.245121376,-80.7728016739999,279,"1046 PHIL ONEIL DRIVE, CHARLOTTE, NC, 28215","Match","Non_Exact","1046 PHIL ONEIL, CHARLOTTE, NC, 28215",70580713,"R"
12280,"1046 PLAZA DR SUITE A","KISSIMEE","FL",34743,28.3224257750001,-81.338402602,280,"1046 PLAZA DR SUITE A, KISSIMEE, FL, 34743","Match","Non_Exact","1046 PLAZA DR, KISSIMMEE, FL, 34743",176681535,"L"
12281,"1046 PLAZA DRIVE SUITE A","KISSIMMEE","FL",34743,28.3224257750001,-81.338402602,281,"1046 PLAZA DRIVE SUITE A, KISSIMMEE, FL, 34743","Match","Exact","1046 PLAZA DR, KISSIMMEE, FL, 34743",176681535,"L"
12282,"1046 PRINCETON DR UNIT 115","MARINA DEL REY","CA",90292,33.9859286710001,-118.4466611,282,"1046 PRINCETON DR UNIT 115, MARINA DEL REY, CA, 90292","Match","Exact","1046 PRINCETON DR, MARINA DEL REY, CA, 90292",650087589,"R"
12283,"1046 RABON POND DRIVE","COLUMBIA","SC",29223,34.0987422970001,-80.929689049,283,"1046 RABON POND DRIVE, COLUMBIA, SC, 29223","Match","Exact","1046 RABON POND DR, COLUMBIA, SC, 29223",641627614,"R"
12284,"1046 RANGPUR COURT","SUNNYVALE","CA",94087,37.360587826,-122.042439284,284,"1046 RANGPUR COURT, SUNNYVALE, CA, 94087","Match","Exact","1046 RANGPUR CT, SUNNYVALE, CA, 94087",122937332,"L"
12285,"1046 S LEWIS LN","CAMP VERDE","AZ",86322,34.5540626440001,-111.868843075,285,"1046 S LEWIS LN, CAMP VERDE, AZ, 86322","Match","Exact","1046 S LEWIS LN, CAMP VERDE, AZ, 86322",159536372,"L"
12286,"1046 SAINT ANNS DRIVE","RICHMOND","VA",23225,NA,NA,286,"1046 SAINT ANNS DRIVE, RICHMOND, VA, 23225","No_Match",NA,NA,NA,NA
12287,"1046 SW 2ND AVE","ONTARIO","OR",97914,44.0268545530001,-116.976812642,287,"1046 SW 2ND AVE, ONTARIO, OR, 97914","Match","Exact","1046 SW 2ND AVE, ONTARIO, OR, 97914",138642418,"L"
12288,"1046 WILSHIRE DR","FORT MYERS","FL",33919,26.567355333,-81.897615586,288,"1046 WILSHIRE DR, FORT MYERS, FL, 33919","Match","Exact","1046 WILSHIRE DR, FORT MYERS, FL, 33919",118025522,"R"
12289,"10460 BIRCHWOOD DRIVE","BATON ROUGE","LA",70807,30.5403067930001,-91.179287672,289,"10460 BIRCHWOOD DRIVE, BATON ROUGE, LA, 70807","Match","Exact","10460 BIRCHWOOD DR, BATON ROUGE, LA, 70807",92178424,"R"
12290,"10460 CRANCHESTER WAY","ALPHARETTA","GA",30022,34.039662734,-84.2530874509999,290,"10460 CRANCHESTER WAY, ALPHARETTA, GA, 30022","Match","Exact","10460 CRANCHESTER WAY, ALPHARETTA, GA, 30022",17377554,"L"
12291,"10460 FRANKSTOWN ROAD","PITTSBURGH","PA",15235,40.4612892150001,-79.84562469,291,"10460 FRANKSTOWN ROAD, PITTSBURGH, PA, 15235","Match","Exact","10460 FRANKSTOWN RD, PITTSBURGH, PA, 15235",607610067,"R"
12292,"10460 GLENVIEW AVE","CUPERTINO","CA",95014,37.3159535120001,-122.021822552,292,"10460 GLENVIEW AVE, CUPERTINO, CA, 95014","Match","Exact","10460 GLENVIEW AVE, CUPERTINO, CA, 95014",122940560,"L"
12293,"10460 HWY 17","OAK GROVE","LA",71263,NA,NA,293,"10460 HWY 17, OAK GROVE, LA, 71263","No_Match",NA,NA,NA,NA
12294,"10460 TREVISO PLACE","MONTGOMERY","AL",36117,32.380392445,-86.124931089,294,"10460 TREVISO PLACE, MONTGOMERY, AL, 36117","Match","Exact","10460 TREVISO PL, MONTGOMERY, AL, 36117",629011889,"L"
12295,"10461 BUCKSHIRE LANE","INDIANAPOLIS","IN",46234,39.7840316400001,-86.336686809,295,"10461 BUCKSHIRE LANE, INDIANAPOLIS, IN, 46234","Match","Exact","10461 BUCKSHIRE LN, INDIANAPOLIS, IN, 46234",89236600,"L"
12296,"10461 S HOOVER STREET","LOS ANGELES","CA",90044,33.9413201990001,-118.286947146,296,"10461 S HOOVER STREET, LOS ANGELES, CA, 90044","Match","Exact","10461 S HOOVER ST, LOS ANGELES, CA, 90044",141661517,"R"
12297,"10461 SAVANNAH AVENUE","ST. LOUIS","MO",63131,38.645677306,-90.409202841,297,"10461 SAVANNAH AVENUE, ST. LOUIS, MO, 63131","Match","Exact","10461 SAVANNAH AVE, SAINT LOUIS, MO, 63131",100131365,"R"
12298,"10461 TEXAS HIGHWAY","MANY","LA",71449,31.495496351,-93.630448169,298,"10461 TEXAS HIGHWAY, MANY, LA, 71449","Match","Exact","10461 TEXAS HWY, MANY, LA, 71449",67771702,"R"
12299,"10462 LAKE SHORE DRIVE","FENTON","MI",48430,42.753608093,-83.7477140249999,299,"10462 LAKE SHORE DRIVE, FENTON, MI, 48430","Match","Exact","10462 LAKE SHORE DR, FENTON, MI, 48430",23575715,"L"
12300,"10463 BOYLSTON COURT APT 2F","ST LOUIS","MO",63114,38.710943495,-90.3886837639999,300,"10463 BOYLSTON COURT APT 2F, ST LOUIS, MO, 63114","Match","Exact","10463 BOYLSTON CT, SAINT LOUIS, MO, 63114",100118328,"R"
12301,"10463 GRAHAM CT","VENTURA","CA",93004,34.2774775090001,-119.157512989,301,"10463 GRAHAM CT, VENTURA, CA, 93004","Match","Exact","10463 GRAHAM CT, VENTURA, CA, 93004",110032849,"L"
12302,"10463 ORCHARD PARK DRIVE W","INDIANAPOLIS","IN",46280,39.9397914250001,-86.1355205409999,302,"10463 ORCHARD PARK DRIVE W, INDIANAPOLIS, IN, 46280","Match","Exact","10463 ORCHARD PARK DR W, INDIANAPOLIS, IN, 46280",29294872,"L"
12303,"10465 RICARDO RD","CLIVE","IA",50325,41.603895988,-93.761930862,303,"10465 RICARDO RD, CLIVE, IA, 50325","Match","Exact","10465 RICARDO RD, CLIVE, IA, 50325",65774840,"R"
12304,"10465 SAN FERNANDO AVENUE","CUPERTINO","CA",95014,37.316262227,-122.059453247,304,"10465 SAN FERNANDO AVENUE, CUPERTINO, CA, 95014","Match","Exact","10465 SAN FERNANDO AVE, CUPERTINO, CA, 95014",123007366,"R"
12305,"10466 ANSON AVENUE","CUPERTINO","CA",95014,37.3294837290001,-122.049828014,305,"10466 ANSON AVENUE, CUPERTINO, CA, 95014","Match","Exact","10466 ANSON AVE, CUPERTINO, CA, 95014",122984124,"L"
12306,"10466 BUENA VISTA DRIVE","WAYNESBORO","PA",17268,39.7347106930001,-77.546722482,306,"10466 BUENA VISTA DRIVE, WAYNESBORO, PA, 17268","Match","Exact","10466 BUENA VISTA DR, WAYNESBORO, PA, 17268",60097700,"R"
12307,"10466 RATCLIFFE TRL","MANASSAS","VA",20110,38.740611545,-77.509877275,307,"10466 RATCLIFFE TRL, MANASSAS, VA, 20110","Match","Exact","10466 RATCLIFFE TRL, MANASSAS, VA, 20110",651729252,"R"
12308,"10467 MARKBY COURT","WHITE PLAINS","MD",20695,38.6139057,-76.95764058,308,"10467 MARKBY COURT, WHITE PLAINS, MD, 20695","Match","Exact","10467 MARKBY CT, WHITE PLAINS, MD, 20695",614118250,"L"
12309,"10468 BARKENTINE","BAINBRIDGE ISLAND","WA",98110,NA,NA,309,"10468 BARKENTINE, BAINBRIDGE ISLAND, WA, 98110","No_Match",NA,NA,NA,NA
12310,"10469 WILL ALLMAN","SARDINIA","OH",45171,38.925807241,-83.798222649,310,"10469 WILL ALLMAN, SARDINIA, OH, 45171","Match","Non_Exact","10469 WILL ALLMAN RD, SARDINIA, OH, 45171",606298935,"L"
12311,"1047 CENTRAL AVE","ST PETERSBURG","FL",33705,27.7711563550001,-82.648801794,311,"1047 CENTRAL AVE, ST PETERSBURG, FL, 33705","Match","Exact","1047 CENTRAL AVE, SAINT PETERSBURG, FL, 33705",124708037,"R"
12312,"1047 CHRIS COURT","ROCK HILL","SC",29732,35.014295782,-81.0944502089999,312,"1047 CHRIS COURT, ROCK HILL, SC, 29732","Match","Exact","1047 CHRIS CT, ROCK HILL, SC, 29732",19789857,"L"
12313,"1047 GLADYS ST","LEHIGH ACRES","FL",33974,26.55563118,-81.582448717,313,"1047 GLADYS ST, LEHIGH ACRES, FL, 33974","Match","Exact","1047 GLADYS ST, LEHIGH ACRES, FL, 33974",118130297,"L"
12314,"1047 GOLDEN GATE CT","ROCK HILL","SC",29732,34.937907884,-81.11870225,314,"1047 GOLDEN GATE CT, ROCK HILL, SC, 29732","Match","Exact","1047 GOLDEN GATE CT, ROCK HILL, SC, 29732",618817427,"R"
12315,"1047 GOSS CT","WENTZVILLE","MO",63385,38.7881042980001,-90.850504788,315,"1047 GOSS CT, WENTZVILLE, MO, 63385","Match","Exact","1047 GOSS CT, WENTZVILLE, MO, 63385",100101698,"L"
12316,"1047 HARGUS AVENUE","VALLEJO","CA",94591,38.0945755540001,-122.216877059,316,"1047 HARGUS AVENUE, VALLEJO, CA, 94591","Match","Exact","1047 HARGUS AVE, VALLEJO, CA, 94591",192564737,"R"
12317,"1047 LAKE AVE","ASHTABULA","OH",44004,41.8903436300001,-80.805393854,317,"1047 LAKE AVE, ASHTABULA, OH, 44004","Match","Exact","1047 LAKE AVE, ASHTABULA, OH, 44004",117307723,"L"
12318,"1047 LEXINGTON ST","CHUBBUCK","ID",83202,42.9224457820001,-112.489385567,318,"1047 LEXINGTON ST, CHUBBUCK, ID, 83202","Match","Exact","1047 LEXINGTON ST, CHUBBUCK, ID, 83202",204357753,"L"
12319,"1047 LINCOLN WAY","SAN FRANCISCO","CA",94122,37.7657580750001,-122.469084855,319,"1047 LINCOLN WAY, SAN FRANCISCO, CA, 94122","Match","Exact","1047 LINCOLN WAY, SAN FRANCISCO, CA, 94122",192301040,"L"
12320,"1047 MISSISSIPPI BOULEVARD","MEMPHIS","TN",38126,35.1186001200001,-90.038268395,320,"1047 MISSISSIPPI BOULEVARD, MEMPHIS, TN, 38126","Match","Exact","1047 MISSISSIPPI BLVD, MEMPHIS, TN, 38126",72907700,"R"
12321,"1047 N PEACE HAVEN ROAD","WINSTON SALEM","NC",27104,36.107168625,-80.326511217,321,"1047 N PEACE HAVEN ROAD, WINSTON SALEM, NC, 27104","Match","Non_Exact","1047 PEACE HAVEN RD N, WINSTON SALEM, NC, 27104",84603486,"R"
12322,"1047 NW 31 AVE","POMPANO BEACH","FL",33069,26.2323595280001,-80.16562111,322,"1047 NW 31 AVE, POMPANO BEACH, FL, 33069","Match","Exact","1047 NW 31ST AVE, POMPANO BEACH, FL, 33069",114774909,"L"
12323,"1047 PADDINGTON TERRACE","LAKE MARY","WA",32746,NA,NA,323,"1047 PADDINGTON TERRACE, LAKE MARY, WA, 32746","No_Match",NA,NA,NA,NA
12324,"1047 PARK GATE PLACE","STONE MOUNTAIN","GA",30083,33.809043026,-84.1959102659999,324,"1047 PARK GATE PLACE, STONE MOUNTAIN, GA, 30083","Match","Exact","1047 PARK GATE PL, STONE MOUNTAIN, GA, 30083",23399139,"R"
12325,"1047 PEBBLE BEACH DRIVE","CLAYTON","CA",94517,37.940919405,-121.917303742,325,"1047 PEBBLE BEACH DRIVE, CLAYTON, CA, 94517","Match","Exact","1047 PEBBLE BEACH DR, CLAYTON, CA, 94517",192094684,"R"
12326,"1047 PRINCESS GATE BLVD","WINTER PARK","FL",32792,NA,NA,326,"1047 PRINCESS GATE BLVD, WINTER PARK, FL, 32792","No_Match",NA,NA,NA,NA
12327,"1047 R S MARCUM ROAD","ONEIDA","TN",37841,36.5099445810001,-84.561070749,327,"1047 R S MARCUM ROAD, ONEIDA, TN, 37841","Match","Exact","1047 R S MARCUM RD, ONEIDA, TN, 37841",636649398,"L"
12328,"1047 REDDING DR","TROY","MI",48098,42.5860348210001,-83.169342808,328,"1047 REDDING DR, TROY, MI, 48098","Match","Exact","1047 REDDING DR, TROY, MI, 48098",69787324,"L"
12329,"1047 ROGERS AVENUE UNIT 3","BROOKLYN","NY",11226,40.644556918,-73.9518029879999,329,"1047 ROGERS AVENUE UNIT 3, BROOKLYN, NY, 11226","Match","Exact","1047 ROGERS AVE, BROOKLYN, NY, 11226",59081451,"L"
12330,"1047 SENTINAL OAKS DR","CLOVER","SC",29710,35.15207493,-81.096771222,330,"1047 SENTINAL OAKS DR, CLOVER, SC, 29710","Match","Non_Exact","1047 SENTINAL OAK DR, CLOVER, SC, 29710",646493552,"R"
12331,"1047 THORNBURY CT","GERVAIS","OR",97026,45.106572661,-122.887460095,331,"1047 THORNBURY CT, GERVAIS, OR, 97026","Match","Exact","1047 THORNBURY CT, GERVAIS, OR, 97026",640191287,"R"
12332,"1047 WAYBURN ST","GROSSE POINTE PARK","MI",48230,42.377544302,-82.9401348929999,332,"1047 WAYBURN ST, GROSSE POINTE PARK, MI, 48230","Match","Non_Exact","1047 WAYBURN, GROSSE POINTE PARK, MI, 48230",95489013,"L"
12333,"1047 WEST FOREST AVE","DECATUR","IL",65222,39.8370188390001,-88.970988473,333,"1047 WEST FOREST AVE, DECATUR, IL, 65222","Match","Non_Exact","1047 W FOREST AVE, DECATUR, IL, 62522",20746079,"L"
12334,"1047 WEST SHANKMAN CIRCLE","MEMPHIS","TN",38108,35.164824669,-89.9820004969999,334,"1047 WEST SHANKMAN CIRCLE, MEMPHIS, TN, 38108","Match","Exact","1047 W SHANKMAN CIR, MEMPHIS, TN, 38108",72950946,"L"
12335,"10470 LONGVIEW AVE","ATWATER","CA",95301,37.35306418,-120.677001015,335,"10470 LONGVIEW AVE, ATWATER, CA, 95301","Match","Exact","10470 LONGVIEW AVE, ATWATER, CA, 95301",125278070,"R"
12336,"10470 MATTOAX LN","AMELIA COURT HOUSE","VA",23002,37.418835604,-77.8574172,336,"10470 MATTOAX LN, AMELIA COURT HOUSE, VA, 23002","Match","Exact","10470 MATTOAX LN, AMELIA COURT HOUSE, VA, 23002",223038298,"L"
12337,"10470 RIVERSIDE DR 101","TOLUCA LAKE","CA",91602,34.1521979940001,-118.358761553,337,"10470 RIVERSIDE DR 101, TOLUCA LAKE, CA, 91602","Match","Exact","10470 RIVERSIDE DR, TOLUCA LAKE, CA, 91602",141592177,"L"
12338,"10470 STURBRIDGE RD","BLOOMINGTON","IL",61705,40.434940146,-88.8787302119999,338,"10470 STURBRIDGE RD, BLOOMINGTON, IL, 61705","Match","Exact","10470 STURBRIDGE RD, BLOOMINGTON, IL, 61705",625081838,"L"
12339,"10471 COUNTY ROAD 466","PRINCETON","TX",75407,33.2343774350001,-96.451869919,339,"10471 COUNTY ROAD 466, PRINCETON, TX, 75407","Match","Exact","10471 CO RD 466, PRINCETON, TX, 75407",210505847,"L"
12340,"10471 YOSEMITE DRIVE","MONTCLAIR","CA",91763,34.0645109210001,-117.705574035,340,"10471 YOSEMITE DRIVE, MONTCLAIR, CA, 91763","Match","Exact","10471 YOSEMITE DR, MONTCLAIR, CA, 91763",144671373,"R"
12341,"10472 BROADVIEW PLACE","SANTA ANA","CA",92705,33.7765610960001,-117.781230549,341,"10472 BROADVIEW PLACE, SANTA ANA, CA, 92705","Match","Exact","10472 BROADVIEW PL, SANTA ANA, CA, 92705",609054909,"L"
12342,"10472 EAST PARIS SE","CALEDONIA","MI",49316,42.7748921950001,-85.565283193,342,"10472 EAST PARIS SE, CALEDONIA, MI, 49316","Match","Non_Exact","10472 E PARIS AVE SE, CALEDONIA, MI, 49316",627275296,"L"
12343,"10472 HOPLAND STREET","BELLFLOWER","CA",90706,33.892313012,-118.111011182,343,"10472 HOPLAND STREET, BELLFLOWER, CA, 90706","Match","Exact","10472 HOPLAND ST, BELLFLOWER, CA, 90706",141742593,"R"
12344,"10472 MORNING GLORY AVE","FOUNTAIN VALLEY","CA",92708,33.7312055080001,-117.94674412,344,"10472 MORNING GLORY AVE, FOUNTAIN VALLEY, CA, 92708","Match","Exact","10472 MORNING GLORY AVE, FOUNTAIN VALLEY, CA, 92708",609058829,"R"
12345,"10473 OLD STATE ROAD","CHARDON","OH",44024,41.5883829910001,-81.132796324,345,"10473 OLD STATE ROAD, CHARDON, OH, 44024","Match","Exact","10473 OLD STATE RD, CHARDON, OH, 44024",653482524,"L"
12346,"10474 BEAR TRACK RD","BOONEVILLE","AR",72927,NA,NA,346,"10474 BEAR TRACK RD, BOONEVILLE, AR, 72927","No_Match",NA,NA,NA,NA
12347,"10474 LAVANDE DR","ORLANDO","FL",32836,28.4268298010001,-81.5321881369999,347,"10474 LAVANDE DR, ORLANDO, FL, 32836","Match","Exact","10474 LAVANDE DR, ORLANDO, FL, 32836",640862720,"L"
12348,"10474 MAPLETON RD","SHIPPENSBURG","PA",17257,40.0488320740001,-77.554978975,348,"10474 MAPLETON RD, SHIPPENSBURG, PA, 17257","Match","Exact","10474 MAPLETON RD, SHIPPENSBURG, PA, 17257",605478625,"L"
12349,"10474 W 38TH AVE","WHEAT RIDGE","CO",80033,39.7692786100001,-105.115282298,349,"10474 W 38TH AVE, WHEAT RIDGE, CO, 80033","Match","Exact","10474 W 38TH AVE, WHEAT RIDGE, CO, 80033",177289309,"L"
12350,"10474 WINESAP AVENUE","CHERRY VALLEY","CA",92223,33.9693477710001,-116.955232841,350,"10474 WINESAP AVENUE, CHERRY VALLEY, CA, 92223","Match","Exact","10474 WINESAP AVE, CHERRY VALLEY, CA, 92223",608989540,"L"
12351,"10475  SINCLAIR AVENUE","DALLAS","TX",75218,32.8504604230001,-96.699980757,351,"10475  SINCLAIR AVENUE, DALLAS, TX, 75218","Match","Exact","10475 SINCLAIR AVE, DALLAS, TX, 75218",102922343,"L"
12352,"10475 114TH AVE","LARGO","FL",33773,27.8760110970001,-82.78406297,352,"10475 114TH AVE, LARGO, FL, 33773","Match","Non_Exact","10475 114TH AVE N, LARGO, FL, 33773",124677935,"R"
12353,"10475 CENTURION PARKWAY N SUITE 304","JACKSONVILLE","FL",32256,30.246761527,-81.543714392,353,"10475 CENTURION PARKWAY N SUITE 304, JACKSONVILLE, FL, 32256","Match","Exact","10475 CENTURION PKWY N, JACKSONVILLE, FL, 32256",83967095,"R"
12354,"10475 CROSSPOINT BLVD STE 250","INDIANAPOLIS","IN",46256,NA,NA,354,"10475 CROSSPOINT BLVD STE 250, INDIANAPOLIS, IN, 46256","No_Match",NA,NA,NA,NA
12355,"10475 CROSSPOINT BLVD","FISHERS","IN",46256,NA,NA,355,"10475 CROSSPOINT BLVD, FISHERS, IN, 46256","No_Match",NA,NA,NA,NA
12356,"10475 SW 160 STREET","MIAMI","FL",33157,25.620722782,-80.3632706619999,356,"10475 SW 160 STREET, MIAMI, FL, 33157","Match","Exact","10475 SW 160TH ST, MIAMI, FL, 33157",115982579,"R"
12357,"10477 MUCKSAW ROAD","PLYMOUTH","IN",46563,NA,NA,357,"10477 MUCKSAW ROAD, PLYMOUTH, IN, 46563","No_Match",NA,NA,NA,NA
12358,"10477 SW RIVERWOOD LN","TIGARD","OR",97224,45.4001190760001,-122.784872909,358,"10477 SW RIVERWOOD LN, TIGARD, OR, 97224","Match","Exact","10477 SW RIVERWOOD LN, TIGARD, OR, 97224",158230774,"R"
12359,"10478 LIV 2308","CHILLICOTHE","MO",64601,39.8086471820001,-93.587127914,359,"10478 LIV 2308, CHILLICOTHE, MO, 64601","Match","Exact","10478 LIV 2308, CHILLICOTHE, MO, 64601",18108219,"L"
12360,"10479 BECKAVILLE AVE","LAS VEGAS","NV",89129,36.2393554810001,-115.326687173,360,"10479 BECKAVILLE AVE, LAS VEGAS, NV, 89129","Match","Exact","10479 BECKAVILLE AVE, LAS VEGAS, NV, 89129",202002565,"L"
12361,"1048 130TH AVE","CASTALIA","IA",52133,43.0892562120001,-91.654845595,361,"1048 130TH AVE, CASTALIA, IA, 52133","Match","Exact","1048 130TH AVE, CASTALIA, IA, 52133",27521681,"R"
12362,"1048 19TH AVENUE NORTH","SAINT PETERSBURG","FL",33704,27.7897341090001,-82.648848711,362,"1048 19TH AVENUE NORTH, SAINT PETERSBURG, FL, 33704","Match","Exact","1048 19TH AVE N, SAINT PETERSBURG, FL, 33704",124706611,"L"
12363,"1048 AHMEEK STREET","MOHAWK","MI",49950,NA,NA,363,"1048 AHMEEK STREET, MOHAWK, MI, 49950","No_Match",NA,NA,NA,NA
12364,"1048 AMADOR AVE","SEASIDE","CA",93955,36.6069018700001,-121.843959505,364,"1048 AMADOR AVE, SEASIDE, CA, 93955","Match","Exact","1048 AMADOR AVE, SEASIDE, CA, 93955",196821069,"R"
12365,"1048 AUDRY DRIVE","DAYTONA BEACH","FL",32114,29.22156676,-81.066407726,365,"1048 AUDRY DRIVE, DAYTONA BEACH, FL, 32114","Match","Non_Exact","1048 AUDREY DR, DAYTONA BEACH, FL, 32117",94522478,"L"
12366,"1048 AURORA AVE","SAINT PAUL","MN",55104,44.954821957,-93.144296249,366,"1048 AURORA AVE, SAINT PAUL, MN, 55104","Match","Exact","1048 AURORA AVE, SAINT PAUL, MN, 55104",97661342,"L"
12367,"1048 B SAGAMORE PKWY W  NUMBER 36","WEST LAFAYETTE","IN",47906,40.4534009760001,-86.9201549649999,367,"1048 B SAGAMORE PKWY W  NUMBER 36, WEST LAFAYETTE, IN, 47906","Match","Exact","1048 SAGAMORE PKWY W, W LAFAYETTE, IN, 47906",604835835,"R"
12368,"1048 BOYINGTON DR BLDG 1048","FORT WORTH","TX",76127,NA,NA,368,"1048 BOYINGTON DR BLDG 1048, FORT WORTH, TX, 76127","No_Match",NA,NA,NA,NA
12369,"1048 CENTER DRIVE","RICHMOND","KY",40475,37.731150246,-84.270098506,369,"1048 CENTER DRIVE, RICHMOND, KY, 40475","Match","Exact","1048 CENTER DR, RICHMOND, KY, 40475",32026801,"L"
12370,"1048 DESTIN AVE","FOLEY","AL",36535,30.375204297,-87.70343058,370,"1048 DESTIN AVE, FOLEY, AL, 36535","Match","Exact","1048 DESTIN AVE, FOLEY, AL, 36535",618486070,"R"
12371,"1048 E 180TH ST APT 3J","BRONX","NY",10460,40.842576524,-73.878027327,371,"1048 E 180TH ST APT 3J, BRONX, NY, 10460","Match","Non_Exact","1048 E 180TH ST, BRONX, NY, 10460",80311081,"R"
12372,"1048 E OCEAN VIEW AVE","NORFOLK","VA",23503,36.9467560690001,-76.239763319,372,"1048 E OCEAN VIEW AVE, NORFOLK, VA, 23503","Match","Exact","1048 E OCEAN VIEW AVE, NORFOLK, VA, 23503",639822849,"L"
12373,"1048 FLAGTREE LANE","PIKESVILLE","MD",21208,39.3668637150001,-76.7424584189999,373,"1048 FLAGTREE LANE, PIKESVILLE, MD, 21208","Match","Exact","1048 FLAGTREE LN, PIKESVILLE, MD, 21208",191468175,"L"
12374,"1048 FLAT SHOALS RD APT 1501","ATLANTA","GA",30349,33.604003843,-84.424003698,374,"1048 FLAT SHOALS RD APT 1501, ATLANTA, GA, 30349","Match","Exact","1048 FLAT SHOALS RD, ATLANTA, GA, 30349",624592183,"R"
12375,"1048 GRETA LANE","VILLE PLATTE","LA",70586,30.6932344480001,-92.3429421449999,375,"1048 GRETA LANE, VILLE PLATTE, LA, 70586","Match","Exact","1048 GRETA LN, VILLE PLATTE, LA, 70586",13191299,"L"
12376,"1048 HEARTH LANE SW","CONCORD","NC",28025,35.3446108050001,-80.5935439369999,376,"1048 HEARTH LANE SW, CONCORD, NC, 28025","Match","Exact","1048 HEARTH LN SW, CONCORD, NC, 28025",635646524,"R"
12377,"1048 INCA LANE","WOODSTOCK","GA",30188,34.1204174040001,-84.486913073,377,"1048 INCA LANE, WOODSTOCK, GA, 30188","Match","Exact","1048 INCA LN, WOODSTOCK, GA, 30188",68848450,"R"
12378,"1048 IRVINE AVENUE STE 978","NEWPORT BEACH","CA",92660,33.62894757,-117.908171333,378,"1048 IRVINE AVENUE STE 978, NEWPORT BEACH, CA, 92660","Match","Exact","1048 IRVINE AVE, NEWPORT BEACH, CA, 92660",144049456,"R"
12379,"1048 JOSELYNN DR","GASTONIA","NC",28054,35.287493979,-81.123428378,379,"1048 JOSELYNN DR, GASTONIA, NC, 28054","Match","Exact","1048 JOSELYNN DR, GASTONIA, NC, 28054",649750550,"L"
12380,"1048 KING WAY","BREINIGSVILLE","PA",18031,40.547585536,-75.623344631,380,"1048 KING WAY, BREINIGSVILLE, PA, 18031","Match","Exact","1048 KING WAY, BREINIGSVILLE, PA, 18031",649889570,"L"
12381,"1048 LAKEVIEW AVE","JAMESTOWN","NY",14701,42.116231584,-79.2367903529999,381,"1048 LAKEVIEW AVE, JAMESTOWN, NY, 14701","Match","Exact","1048 LAKEVIEW AVE, JAMESTOWN, NY, 14701",120752200,"R"
12382,"1048 LANCASHIRE DRIVE","XENIA","OH",45385,39.7164823300001,-83.991824369,382,"1048 LANCASHIRE DRIVE, XENIA, OH, 45385","Match","Exact","1048 LANCASHIRE DR, XENIA, OH, 45385",651500761,"L"
12383,"1048 LAUREL AVE","SPRINGFIELD","OR",97478,44.034389828,-122.974020237,383,"1048 LAUREL AVE, SPRINGFIELD, OR, 97478","Match","Exact","1048 LAUREL AVE, SPRINGFIELD, OR, 97478",178197150,"R"
12384,"1048 LEONARD LANE","LOUISVILLE","CO",80027,39.982321015,-105.130055491,384,"1048 LEONARD LANE, LOUISVILLE, CO, 80027","Match","Exact","1048 LEONARD LN, LOUISVILLE, CO, 80027",650714614,"R"
12385,"1048 MALLARD POINTE DRIVE","CEDAR HILL","TX",75104,32.5758507480001,-97.0220846449999,385,"1048 MALLARD POINTE DRIVE, CEDAR HILL, TX, 75104","Match","Exact","1048 MALLARD POINTE DR, CEDAR HILL, TX, 75104",103000858,"L"
12386,"1048 MILLS ST","RALEIGH","NC",27608,35.8114626660001,-78.6217008209999,386,"1048 MILLS ST, RALEIGH, NC, 27608","Match","Exact","1048 MILLS ST, RALEIGH, NC, 27608",72621432,"R"
12387,"1048 NICK RAHALL GREENWAY","FAYETTEVILLE","WV",25840,NA,NA,387,"1048 NICK RAHALL GREENWAY, FAYETTEVILLE, WV, 25840","No_Match",NA,NA,NA,NA
12388,"1048 NORTH AHERN DRIVE","LA PUENTE","CA",91746,34.0614405760001,-117.980580698,388,"1048 NORTH AHERN DRIVE, LA PUENTE, CA, 91746","Match","Exact","1048 N AHERN DR, LA PUENTE, CA, 91746",142690098,"R"
12389,"1048 PIONEER DR","DELTONA","FL",32725,28.884256925,-81.245103628,389,"1048 PIONEER DR, DELTONA, FL, 32725","Match","Exact","1048 PIONEER DR, DELTONA, FL, 32725",94503659,"L"
12390,"1048 PORPHYRY","BUTTE","MT",59701,NA,NA,390,"1048 PORPHYRY, BUTTE, MT, 59701","No_Match",NA,NA,NA,NA
12391,"1048 POST HORN RUN","LAWRENCEVILLE","GA",30045,33.9138805470001,-83.9924139679999,391,"1048 POST HORN RUN, LAWRENCEVILLE, GA, 30045","Match","Exact","1048 POST HORN RUN, LAWRENCEVILLE, GA, 30045",88932520,"L"
12392,"1048 R ROAD","MACK","CO",81525,39.265947855,-108.856718318,392,"1048 R ROAD, MACK, CO, 81525","Match","Exact","1048 R RD, MACK, CO, 81525",122422030,"R"
12393,"1048 REDFISH ST","BAYOU VISTA","TX",77563,29.322478915,-94.93917894,393,"1048 REDFISH ST, BAYOU VISTA, TX, 77563","Match","Exact","1048 REDFISH ST, BAYOU VISTA, TX, 77563",635394942,"R"
12394,"1048 SCHWERIN ST","DALY CITY","CA",94014,37.7003080970001,-122.415928593,394,"1048 SCHWERIN ST, DALY CITY, CA, 94014","Match","Exact","1048 SCHWERIN ST, DALY CITY, CA, 94014",192393432,"R"
12395,"1048 SMITH MANOR BLVD","WEST ORANGE","NJ",7052,40.8003562170001,-74.243364629,395,"1048 SMITH MANOR BLVD, WEST ORANGE, NJ, 7052","Match","Exact","1048 SMITH MANOR BLVD, WEST ORANGE, NJ, 07052",617271513,"R"
12396,"1048 STEBONDALE ROAD","COLUMBIA","SC",29203,34.0513338530001,-81.030055921,396,"1048 STEBONDALE ROAD, COLUMBIA, SC, 29203","Match","Exact","1048 STEBONDALE RD, COLUMBIA, SC, 29203",71818926,"L"
12397,"1048 SW 113TH TERRACE","PEMBROKE PINES","FL",33025,25.9988277630001,-80.297806172,397,"1048 SW 113TH TERRACE, PEMBROKE PINES, FL, 33025","Match","Exact","1048 SW 113TH TER, PEMBROKE PINES, FL, 33025",114753627,"R"
12398,"1048 UNION STREET APT 4A","BROOKLYN","NY",11225,40.6695733540001,-73.957298974,398,"1048 UNION STREET APT 4A, BROOKLYN, NY, 11225","Match","Exact","1048 UNION ST, BROOKLYN, NY, 11225",59078494,"R"
12399,"1048 UNION STREET","BROOKLYN","NY",11225,40.6695733540001,-73.957298974,399,"1048 UNION STREET, BROOKLYN, NY, 11225","Match","Exact","1048 UNION ST, BROOKLYN, NY, 11225",59078494,"R"
12400,"1048 W 37TH ST SUITE 102","CHICAGO","IL",60609,NA,NA,400,"1048 W 37TH ST SUITE 102, CHICAGO, IL, 60609","No_Match",NA,NA,NA,NA
12401,"1048 W SPUR CT","GILBERT","AZ",85233,33.3459576970001,-111.812388858,401,"1048 W SPUR CT, GILBERT, AZ, 85233","Match","Non_Exact","1048 SPUR AVE, GILBERT, AZ, 85233",128868860,"L"
12402,"1048 WEST BROADWAY","WOODMERE","NY",11598,40.6361458010001,-73.709438801,402,"1048 WEST BROADWAY, WOODMERE, NY, 11598","Match","Exact","1048 W BROADWAY, WOODMERE, NY, 11598",147677805,"L"
12403,"10480 BLUFF ROAD","EDEN PRAIRIE","MN",55347,44.8158604880001,-93.409982624,403,"10480 BLUFF ROAD, EDEN PRAIRIE, MN, 55347","Match","Exact","10480 BLUFF RD, EDEN PRAIRIE, MN, 55347",636265884,"R"
12404,"10480 BONITA ST","DETROIT","MI",48224,42.413745179,-82.9597113999999,404,"10480 BONITA ST, DETROIT, MI, 48224","Match","Exact","10480 BONITA ST, DETROIT, MI, 48224",95469469,"R"
12405,"10480 STAUDT ROAD","UNION CITY","OH",45390,40.220811214,-84.746828678,405,"10480 STAUDT ROAD, UNION CITY, OH, 45390","Match","Exact","10480 STAUDT RD, UNION CITY, OH, 45390",54565081,"L"
12406,"10480 W LUPINE ST","BOISE","ID",83704,43.6243549540001,-116.312739887,406,"10480 W LUPINE ST, BOISE, ID, 83704","Match","Exact","10480 W LUPINE ST, BOISE, ID, 83704",117856732,"R"
12407,"10481 H O ALLISON ROAD","BAXTER","TN",38544,36.021380922,-85.6659772529999,407,"10481 H O ALLISON ROAD, BAXTER, TN, 38544","Match","Exact","10481 H O ALLISON RD, BAXTER, TN, 38544",635465294,"L"
12408,"10482 BALTIMORE AVENUE SUITE 145","BELTSVILLE","MD",20705,39.027267136,-76.91846077,408,"10482 BALTIMORE AVENUE SUITE 145, BELTSVILLE, MD, 20705","Match","Exact","10482 BALTIMORE AVE, BELTSVILLE, MD, 20705",639242623,"L"
12409,"10482 POWELL ROAD","HOLLAND PATENT","NY",13354,43.2271236510001,-75.187333181,409,"10482 POWELL ROAD, HOLLAND PATENT, NY, 13354","Match","Exact","10482 POWELL RD, HOLLAND PATENT, NY, 13354",171525615,"R"
12410,"10482 TAM O SHANTER ROAD","PENSACOLA","FL",32514,30.5496901130001,-87.230717925,410,"10482 TAM O SHANTER ROAD, PENSACOLA, FL, 32514","Match","Exact","10482 TAM O SHANTER RD, PENSACOLA, FL, 32514",93235506,"R"
12411,"10482 TATAS PLACE","ESCONDIDO","CA",92026,33.1837095440001,-117.102292394,411,"10482 TATAS PLACE, ESCONDIDO, CA, 92026","Match","Exact","10482 TATAS PL, ESCONDIDO, CA, 92026",195730885,"L"
12412,"10483 MAY CHAPEL ROAD","LAWRENCEVILLE","IL",62439,NA,NA,412,"10483 MAY CHAPEL ROAD, LAWRENCEVILLE, IL, 62439","No_Match",NA,NA,NA,NA
12413,"10483 NAMIR DR","IRVINGTON","AL",36544,NA,NA,413,"10483 NAMIR DR, IRVINGTON, AL, 36544","No_Match",NA,NA,NA,NA
12414,"10483 SLEEPYS HOLLOW LN","PETERSBURG","PA",16669,40.653160611,-77.907009107,414,"10483 SLEEPYS HOLLOW LN, PETERSBURG, PA, 16669","Match","Non_Exact","10483 SLEEPY'S HOLLOW LN, PETERSBURG, PA, 16669",50602119,"R"
12415,"10484 250TH AVE","WELDON","IA",50264,40.8930705610001,-93.7293639059999,415,"10484 250TH AVE, WELDON, IA, 50264","Match","Exact","10484 250TH AVE, WELDON, IA, 50264",75274169,"L"
12416,"10484 N ST RD 13","ELWOOD","IN",46036,40.255056935,-85.8421114719999,416,"10484 N ST RD 13, ELWOOD, IN, 46036","Match","Exact","10484 STATE RD 13, ELWOOD, IN, 46036",651414362,"R"
12417,"10485 EVENING VIEW DR","FORT WORTH","TX",76131,32.9205832970001,-97.371784428,417,"10485 EVENING VIEW DR, FORT WORTH, TX, 76131","Match","Exact","10485 EVENING VIEW DR, FORT WORTH, TX, 76131",619871177,"L"
12418,"10485 NE 6TH ST APT 2228","BELLEVUE","WA",98004,47.6155627530001,-122.200128146,418,"10485 NE 6TH ST APT 2228, BELLEVUE, WA, 98004","Match","Non_Exact","10485 NE 6TH ST, BELLEVUE, WA, 98004",186607412,"R"
12419,"10485 NW 7 AVENUE","MIAMI","FL",33150,25.870857906,-80.2099858239999,419,"10485 NW 7 AVENUE, MIAMI, FL, 33150","Match","Exact","10485 NW 7TH AVE, MIAMI, FL, 33150",116002892,"R"
12420,"10485 RIDGE CREST DR","BON AQUA","TN",37025,NA,NA,420,"10485 RIDGE CREST DR, BON AQUA, TN, 37025","No_Match",NA,NA,NA,NA
12421,"10485 WASHINGTON ST","BYESVILLE","OH",43723,39.9731458470001,-81.547389047,421,"10485 WASHINGTON ST, BYESVILLE, OH, 43723","Match","Exact","10485 WASHINGTON ST, BYESVILLE, OH, 43723",37641774,"R"
12422,"10487 LUCAYA DR","TAMPA","FL",33647,28.153416683,-82.308852249,422,"10487 LUCAYA DR, TAMPA, FL, 33647","Match","Exact","10487 LUCAYA DR, TAMPA, FL, 33647",104643371,"L"
12423,"10487 STARLING TRAIL","HAMPTON","GA",30228,33.468240667,-84.3457379869999,423,"10487 STARLING TRAIL, HAMPTON, GA, 30228","Match","Exact","10487 STARLING TRL, HAMPTON, GA, 30228",23331024,"L"
12424,"10488 BALSA ST","RANCHO CUCAMONGA","CA",91730,34.1169344470001,-117.576564815,424,"10488 BALSA ST, RANCHO CUCAMONGA, CA, 91730","Match","Exact","10488 BALSA ST, RANCHO CUCAMONGA, CA, 91730",144636209,"L"
12425,"10488 BARTLETT DRIVE","FRISCO","TX",75035,33.183527983,-96.79173889,425,"10488 BARTLETT DRIVE, FRISCO, TX, 75035","Match","Exact","10488 BARTLETT DR, FRISCO, TX, 75035",615051154,"L"
12426,"10489 KELOWNA VIEW","COLORADO SPRINGS","CO",80908,38.9836766020001,-104.776445447,426,"10489 KELOWNA VIEW, COLORADO SPRINGS, CO, 80908","Match","Exact","10489 KELOWNA VW, COLORADO SPRINGS, CO, 80908",652072018,"R"
12427,"1049 - 38 STREET","BROOKLYN","NY",11219,NA,NA,427,"1049 - 38 STREET, BROOKLYN, NY, 11219","No_Match",NA,NA,NA,NA
12428,"1049 5TH AVE APT M10","NEW YORK","NY",10028,40.7814753330001,-73.96044843,428,"1049 5TH AVE APT M10, NEW YORK, NY, 10028","Match","Exact","1049 5TH AVE, NEW YORK, NY, 10028",59656971,"R"
12429,"1049 BUCK CIRCLE","MCCOMB","MS",39648,NA,NA,429,"1049 BUCK CIRCLE, MCCOMB, MS, 39648","No_Match",NA,NA,NA,NA
12430,"1049 CARLTON DR","BENTLEYVILLE","PA",15314,40.1368381440001,-80.009065295,430,"1049 CARLTON DR, BENTLEYVILLE, PA, 15314","Match","Exact","1049 CARLTON DR, BENTLEYVILLE, PA, 15314",52835405,"R"
12431,"1049 COLUMBIA ST","CATHLAMET","WA",98612,46.1947477620001,-123.369531333,431,"1049 COLUMBIA ST, CATHLAMET, WA, 98612","Match","Exact","1049 COLUMBIA ST, CATHLAMET, WA, 98612",176294892,"L"
12432,"1049 E SANTA CLARA ST","SAN JOSE","CA",95116,37.346079908,-121.869718696,432,"1049 E SANTA CLARA ST, SAN JOSE, CA, 95116","Match","Exact","1049 E SANTA CLARA ST, SAN JOSE, CA, 95116",122908925,"L"
12433,"1049 EAST 1453RD LANE","QUINCY","IL",62305,39.912785881,-91.2399357469999,433,"1049 EAST 1453RD LANE, QUINCY, IL, 62305","Match","Exact","1049 E 1453RD LN, QUINCY, IL, 62305",623920105,"L"
12434,"1049 ECTOR CHASE NW","KENNESAW","GA",30152,33.9800477100001,-84.612541517,434,"1049 ECTOR CHASE NW, KENNESAW, GA, 30152","Match","Exact","1049 ECTOR CHASE NW, KENNESAW, GA, 30152",17234354,"R"
12435,"1049 EL MONTE AVE STE C 660","MOUNTAIN VIEW","CA",94040,37.3891001120001,-122.095963912,435,"1049 EL MONTE AVE STE C 660, MOUNTAIN VIEW, CA, 94040","Match","Non_Exact","1049 N EL MONTE AVE, MOUNTAIN VIEW, CA, 94040",618165145,"L"
12436,"1049 EL MONTE AVE STE C PMB 138","MOUNTAIN VIEW","CA",94040,37.3891001120001,-122.095963912,436,"1049 EL MONTE AVE STE C PMB 138, MOUNTAIN VIEW, CA, 94040","Match","Non_Exact","1049 N EL MONTE AVE, MOUNTAIN VIEW, CA, 94040",618165145,"L"
12437,"1049 ELM LANE APARTMENT 2","CARPINTERIA","CA",93013,34.4000417020001,-119.518774533,437,"1049 ELM LANE APARTMENT 2, CARPINTERIA, CA, 93013","Match","Exact","1049 ELM LN, CARPINTERIA, CA, 93013",108608168,"L"
12438,"1049 ELMER DRIVE","ARBUCKLE","CA",95912,39.016312342,-122.072088384,438,"1049 ELMER DRIVE, ARBUCKLE, CA, 95912","Match","Exact","1049 ELMER DR, ARBUCKLE, CA, 95912",627869657,"L"
12439,"1049 EUCLID ST","ST PAUL","MN",55106,44.9549701190001,-93.056331057,439,"1049 EUCLID ST, ST PAUL, MN, 55106","Match","Non_Exact","1049 E EUCLID ST, SAINT PAUL, MN, 55106",97651045,"L"
12440,"1049 FIRST STREET","CHAPPELL","NE",69129,41.0915626660001,-102.467477407,440,"1049 FIRST STREET, CHAPPELL, NE, 69129","Match","Exact","1049 1ST ST, CHAPPELL, NE, 69129",136494834,"L"
12441,"1049 FOGARTY LANE","CAINHOY","SC",29492,32.9299828210001,-79.830960048,441,"1049 FOGARTY LANE, CAINHOY, SC, 29492","Match","Exact","1049 FOGARTY LN, CAINHOY, SC, 29492",647146463,"L"
12442,"1049 FRALEY STREET","SALISBURY","NC",28146,35.579584583,-80.464563211,442,"1049 FRALEY STREET, SALISBURY, NC, 28146","Match","Exact","1049 FRALEY ST, SALISBURY, NC, 28146",25278778,"R"
12443,"1049 GOLDEN LAKES BLVD 121","ROYAL PALM BEACH","FL",33411,26.695085582,-80.165896529,443,"1049 GOLDEN LAKES BLVD 121, ROYAL PALM BEACH, FL, 33411","Match","Exact","1049 GOLDEN LAKES BLVD, ROYAL PALM BEACH, FL, 33411",115268751,"L"
12444,"1049 GRANT AVE","LOVELAND","CO",80537,40.4030838250001,-105.079131214,444,"1049 GRANT AVE, LOVELAND, CO, 80537","Match","Exact","1049 GRANT AVE, LOVELAND, CO, 80537",188486556,"L"
12445,"1049 GRIMMETT","SHREVEPORT","LA",71107,32.5306595370001,-93.759288189,445,"1049 GRIMMETT, SHREVEPORT, LA, 71107","Match","Non_Exact","1049 GRIMMETT DR, SHREVEPORT, LA, 71107",57434225,"L"
12446,"1049 HAVENHURST DR 314","WEST HOLLYWOOD","CA",90046,34.0897128570001,-118.366980633,446,"1049 HAVENHURST DR 314, WEST HOLLYWOOD, CA, 90046","Match","Non_Exact","1049 N HAVENHURST DR, W HOLLYWOOD, CA, 90046",241240243,"L"
12447,"1049 HAVENHURST DR 316","WEST HOLLYWOOD","CA",90046,34.0897128570001,-118.366980633,447,"1049 HAVENHURST DR 316, WEST HOLLYWOOD, CA, 90046","Match","Non_Exact","1049 N HAVENHURST DR, W HOLLYWOOD, CA, 90046",241240243,"L"
12448,"1049 HAVENHURST UNIT 183","WEST HOLLYWOOD","CA",90046,NA,NA,448,"1049 HAVENHURST UNIT 183, WEST HOLLYWOOD, CA, 90046","No_Match",NA,NA,NA,NA
12449,"1049 HILLVIEW DRIVE","HENDERSONVILLE","TN",37075,36.346822409,-86.5722578639999,449,"1049 HILLVIEW DRIVE, HENDERSONVILLE, TN, 37075","Match","Exact","1049 HILLVIEW DR, HENDERSONVILLE, TN, 37075",29795176,"L"
12450,"1049 MAIN STREET NUMBER 5 BOX 30024","WORCESTER","MA",1603,42.2458781230001,-71.830371693,450,"1049 MAIN STREET NUMBER 5 BOX 30024, WORCESTER, MA, 1603","Match","Exact","1049 MAIN ST, WORCESTER, MA, 01603",40109151,"L"
12451,"1049 MAIN STREET","WINDSOR","CO",80550,40.479761588,-104.914867794,451,"1049 MAIN STREET, WINDSOR, CO, 80550","Match","Exact","1049 MAIN ST, WINDSOR, CO, 80550",188741724,"R"
12452,"1049 MARY AVE","CUPERTINO","CA",95014,NA,NA,452,"1049 MARY AVE, CUPERTINO, CA, 95014","No_Match",NA,NA,NA,NA
12453,"1049 MILL DR","MARIETTA","GA",30062,33.974890638,-84.5013661679999,453,"1049 MILL DR, MARIETTA, GA, 30062","Match","Non_Exact","1049 MILL DR NE, MARIETTA, GA, 30062",17200840,"L"
12454,"1049 N TENDERFOOT LN","PUEBLO WEST","CO",81007,38.3738065910001,-104.651862136,454,"1049 N TENDERFOOT LN, PUEBLO WEST, CO, 81007","Match","Exact","1049 TENDERFOOT LN, PUEBLO WEST, CO, 81007",105103573,"R"
12455,"1049 NORTHRIDGE RD","COLUMBUSCOLUMBUS","OH",43224,40.0412969010001,-82.987531546,455,"1049 NORTHRIDGE RD, COLUMBUSCOLUMBUS, OH, 43224","Match","Non_Exact","1049 NORTHRIDGE RD, COLUMBUS, OH, 43224",218693922,"R"
12456,"1049 OAK ST","MARTINVILLE","VA",24112,36.6770467750001,-79.8802193399999,456,"1049 OAK ST, MARTINVILLE, VA, 24112","Match","Non_Exact","1049 OAK ST, MARTINSVILLE, VA, 24112",55515231,"R"
12457,"1049 ORANGE WOODS BLVD","ROCKLEDGE","FL",32955,28.3079573370001,-80.746823663,457,"1049 ORANGE WOODS BLVD, ROCKLEDGE, FL, 32955","Match","Exact","1049 ORANGE WOODS BLVD, ROCKLEDGE, FL, 32955",93927792,"R"
12458,"1049 PALMER AVENUE PO BOX 9438","NISKAYUNA","NY",12309,42.8047229530001,-73.899667598,458,"1049 PALMER AVENUE PO BOX 9438, NISKAYUNA, NY, 12309","Match","Exact","1049 PALMER AVE, NISKAYUNA, NY, 12309",18029703,"L"
12459,"1049 PINE AVENUE","UNION","NJ",7083,40.6986536360001,-74.2712084679999,459,"1049 PINE AVENUE, UNION, NJ, 7083","Match","Exact","1049 PINE AVE, UNION, NJ, 07083",60571815,"R"
12460,"1049 PINEY FOREST ROAD","DANVILLE","VA",24540,36.622410917,-79.4045220739999,460,"1049 PINEY FOREST ROAD, DANVILLE, VA, 24540","Match","Exact","1049 PINEY FOREST RD, DANVILLE, VA, 24540",56588854,"L"
12461,"1049 POWERS FERRY RD SE 1306","MARIETTA","GA",30067,33.924390687,-84.4690996429999,461,"1049 POWERS FERRY RD SE 1306, MARIETTA, GA, 30067","Match","Exact","1049 POWERS FERRY RD SE, MARIETTA, GA, 30067",647796908,"L"
12462,"1049 POWERS FERRY RD STE 1408","MARIETTA","GA",30067,33.924390687,-84.4690996429999,462,"1049 POWERS FERRY RD STE 1408, MARIETTA, GA, 30067","Match","Exact","1049 POWERS FERRY RD, MARIETTA, GA, 30067",647796908,"L"
12463,"1049 REGAL MANOR LN","FORT MILL","SC",29715,35.053531402,-80.916011113,463,"1049 REGAL MANOR LN, FORT MILL, SC, 29715","Match","Exact","1049 REGAL MANOR LN, FORT MILL, SC, 29715",646615888,"L"
12464,"1049 RICHMOND ROAD NORTH STE 1","BEREA","KY",40403,NA,NA,464,"1049 RICHMOND ROAD NORTH STE 1, BEREA, KY, 40403","No_Match",NA,NA,NA,NA
12465,"1049 S SCHODACK RD","CASTLETON","NY",12033,42.500382621,-73.706077497,465,"1049 S SCHODACK RD, CASTLETON, NY, 12033","Match","Exact","1049 S SCHODACK RD, CASTLETON, NY, 12033",35734630,"R"
12466,"1049 SEENA AVE","LOS ALTOS","CA",94024,37.364161811,-122.092015513,466,"1049 SEENA AVE, LOS ALTOS, CA, 94024","Match","Exact","1049 SEENA AVE, LOS ALTOS, CA, 94024",122934422,"L"
12467,"1049 STANDPIPE RD","HAYNESVILLE","LA",71038,32.8764483250001,-93.121849251,467,"1049 STANDPIPE RD, HAYNESVILLE, LA, 71038","Match","Exact","1049 STANDPIPE RD, HAYNESVILLE, LA, 71038",647793771,"L"
12468,"1049 STATE ROUTE 93 NW","SUGARCREEK","OH",44681,40.498523934,-81.661697094,468,"1049 STATE ROUTE 93 NW, SUGARCREEK, OH, 44681","Match","Non_Exact","1049 STATE RTE 93, SUGARCREEK, OH, 44681",647706007,"R"
12469,"1049 STRATFORD ROAD","MEMPHIS","TN",38122,35.1598564940001,-89.905866458,469,"1049 STRATFORD ROAD, MEMPHIS, TN, 38122","Match","Exact","1049 STRATFORD RD, MEMPHIS, TN, 38122",72924646,"L"
12470,"1049 TURNPIKE STREET","NORTH ANDOVER","MA",1845,42.65434521,-71.099945014,470,"1049 TURNPIKE STREET, NORTH ANDOVER, MA, 1845","Match","Exact","1049 TURNPIKE ST, NORTH ANDOVER, MA, 01845",86713245,"R"
12471,"1049 UDALL ROAD","BAY SHORE","NY",11706,40.738816855,-73.295279071,471,"1049 UDALL ROAD, BAY SHORE, NY, 11706","Match","Exact","1049 UDALL RD, BAY SHORE, NY, 11706",113993274,"L"
12472,"1049 W GRAND RIVER AVE","WILLIAMSTON","MI",48895,42.687712306,-84.299161569,472,"1049 W GRAND RIVER AVE, WILLIAMSTON, MI, 48895","Match","Exact","1049 W GRAND RIVER AVE, WILLIAMSTON, MI, 48895",17511746,"L"
12473,"1049 W ROCHELLE RD","IRVING","TX",75062,32.844222986,-96.958300695,473,"1049 W ROCHELLE RD, IRVING, TX, 75062","Match","Exact","1049 W ROCHELLE RD, IRVING, TX, 75062",635379678,"R"
12474,"1049 WEST 5TH AVENUE SUITE 104","ANCHORAGE","AK",99501,61.217567801,-149.902665445,474,"1049 WEST 5TH AVENUE SUITE 104, ANCHORAGE, AK, 99501","Match","Exact","1049 W 5TH AVE, ANCHORAGE, AK, 99501",190796582,"R"
12475,"10490 RIVER EDGE TRAIL","SALINE","MI",48176,42.1288534220001,-83.769479834,475,"10490 RIVER EDGE TRAIL, SALINE, MI, 48176","Match","Non_Exact","10490 RIVER EDGE RD, SALINE, MI, 48176",633751652,"R"
12476,"10491 OKEECHOBE ROAD","FORT PIERCE","FL",34945,27.4063377740001,-80.4308160159999,476,"10491 OKEECHOBE ROAD, FORT PIERCE, FL, 34945","Match","Non_Exact","10491 OKEECHOBEE RD, FORT PIERCE, FL, 34945",610734964,"R"
12477,"10491 SIX MILE CYPRESS PARKWAY 280","FORT MYERS","FL",33966,NA,NA,477,"10491 SIX MILE CYPRESS PARKWAY 280, FORT MYERS, FL, 33966","No_Match",NA,NA,NA,NA
12478,"10491","BOYNTON BEACH","FL",33437,NA,NA,478,"10491, BOYNTON BEACH, FL, 33437","No_Match",NA,NA,NA,NA
12479,"10493 BREASHERS LN","DARDANELLE","AR",72834,NA,NA,479,"10493 BREASHERS LN, DARDANELLE, AR, 72834","No_Match",NA,NA,NA,NA
12480,"10493 TRAILMONT LANE","CORDOVA","TN",38016,35.1615180220001,-89.712935298,480,"10493 TRAILMONT LANE, CORDOVA, TN, 38016","Match","Exact","10493 TRAILMONT LN, CORDOVA, TN, 38016",72976028,"R"
12481,"10494 ABBERLEY LN","FRISCO","TX",75033,33.165849042,-96.850948094,481,"10494 ABBERLEY LN, FRISCO, TX, 75033","Match","Exact","10494 ABBERLEY LN, FRISCO, TX, 75033",615066682,"R"
12482,"10495 AUDIE BROOK COURT","SPRING HILL","FL",34608,28.450670084,-82.5450403949999,482,"10495 AUDIE BROOK COURT, SPRING HILL, FL, 34608","Match","Non_Exact","10495 AUDIE BROOK DR, SPRING HILL, FL, 34608",85446158,"L"
12483,"10495 DEMPSTER AVENUE","CUPERTINO","CA",95014,37.329339927,-122.056187938,483,"10495 DEMPSTER AVENUE, CUPERTINO, CA, 95014","Match","Exact","10495 DEMPSTER AVE, CUPERTINO, CA, 95014",122937745,"L"
12484,"10495 WINDSOR PARK DRIVE","JOHNS CREEK","GA",30022,34.037766946,-84.2207094939999,484,"10495 WINDSOR PARK DRIVE, JOHNS CREEK, GA, 30022","Match","Exact","10495 WINDSOR PARK DR, JOHNS CREEK, GA, 30022",17381354,"R"
12485,"10495 WYOMING AVE","CHISAGO CITY","MN",55013,45.3720925260001,-92.8938368139999,485,"10495 WYOMING AVE, CHISAGO CITY, MN, 55013","Match","Exact","10495 WYOMING AVE, CHISAGO CITY, MN, 55013",649044528,"L"
12486,"10497 ANSON AVE","CUPERTINO","CA",95014,37.3297597960001,-122.049835344,486,"10497 ANSON AVE, CUPERTINO, CA, 95014","Match","Exact","10497 ANSON AVE, CUPERTINO, CA, 95014",122984124,"R"
12487,"10497 ASHLOCK LANE","SAN DIEGO","CA",92131,32.9308081990001,-117.104579425,487,"10497 ASHLOCK LANE, SAN DIEGO, CA, 92131","Match","Exact","10497 ASHLOCK LN, SAN DIEGO, CA, 92131",612873318,"R"
12488,"10497 NW 320TH AVENUE","NORTH PLAINS","OR",97133,45.5958079960001,-123.006549595,488,"10497 NW 320TH AVENUE, NORTH PLAINS, OR, 97133","Match","Exact","10497 NW 320TH AVE, NORTH PLAINS, OR, 97133",631642042,"R"
12489,"10499 N COLLEGE AVENUE","INDIANAPOLIS","IN",46280,39.9399302210001,-86.145924081,489,"10499 N COLLEGE AVENUE, INDIANAPOLIS, IN, 46280","Match","Non_Exact","10499 COLLEGE AVE N, INDIANAPOLIS, IN, 46280",29329345,"L"
12490,"10499 PEARL WAY","NORTHGLENN","CO",80233,39.886549759,-104.979309185,490,"10499 PEARL WAY, NORTHGLENN, CO, 80233","Match","Exact","10499 PEARL WAY, NORTHGLENN, CO, 80233",177295702,"L"
12491,"104A DUNCAN AVE","WILMINGTON","DE",19803,39.8013988700001,-75.546944723,491,"104A DUNCAN AVE, WILMINGTON, DE, 19803","Match","Exact","104 DUNCAN AVE, WILMINGTON, DE, 19803",187256154,"R"
12492,"104A FRANKLIN AVE  SUITE 189","SPARTANBURG","SC",29301,34.937255969,-82.0022241569999,492,"104A FRANKLIN AVE  SUITE 189, SPARTANBURG, SC, 29301","Match","Exact","104 FRANKLIN AVE, SPARTANBURG, SC, 29301",19508413,"R"
12493,"104R NC 54 NO 262","CARRBORO","NC",27510,35.9172729380001,-79.0939361219999,493,"104R NC 54 NO 262, CARRBORO, NC, 27510","Match","Non_Exact","104 STATE HWY 54, CARRBORO, NC, 27510",641062343,"L"
12494,"105  E CRANDALL AVE - STE B","HARRISON","AR",72601,36.238170972,-93.106500381,494,"105  E CRANDALL AVE - STE B, HARRISON, AR, 72601","Match","Non_Exact","105 E CRANDALL AVE, HARRISON, AR, 72601",19982295,"R"
12495,"105 / 107 S MAIN STREET","OPP","AL",36467,31.282514464,-86.255740487,495,"105 / 107 S MAIN STREET, OPP, AL, 36467","Match","Exact","107 S MAIN ST, OPP, AL, 36467",1854603,"L"
12496,"105 10TH ST","COLONIAL BEACH","VA",22443,38.2646368380001,-76.9733592009999,496,"105 10TH ST, COLONIAL BEACH, VA, 22443","Match","Exact","105 10TH ST, COLONIAL BCH, VA, 22443",22162715,"L"
12497,"105 13TH STREET 4A","HOBOKEN","NJ",7030,40.752340835,-74.026462564,497,"105 13TH STREET 4A, HOBOKEN, NJ, 7030","Match","Exact","105 13TH ST, HOBOKEN, NJ, 07030",59600258,"L"
12498,"105 16TH STREET APT 2","BROOKLYN","NY",11215,40.666470917,-73.9929168579999,498,"105 16TH STREET APT 2, BROOKLYN, NY, 11215","Match","Exact","105 16TH ST, BROOKLYN, NY, 11215",59075622,"L"
12499,"105 3RD AVE","ANDALUSIA","AL",36420,31.3089443320001,-86.470908417,499,"105 3RD AVE, ANDALUSIA, AL, 36420","Match","Exact","105 3RD AVE, ANDALUSIA, AL, 36420",1853110,"L"
12500,"105 4TH AVE APT 503","MURFREESBORO","TN",37130,35.8428585520001,-86.371048324,500,"105 4TH AVE APT 503, MURFREESBORO, TN, 37130","Match","Exact","105 4TH AVE, MURFREESBORO, TN, 37130",59015824,"R"
