"ID","Address","City","State","Zip","lat","long","id","input_address","match_indicator","match_type","matched_address","tiger_line_id","tiger_side"
214001,"4403 15TH AVENUE    SUITE  354","BROOKLYN","NY",11219,40.6351105800001,-73.984846123,1,"4403 15TH AVENUE    SUITE  354, BROOKLYN, NY, 11219","Match","Exact","4403 15TH AVE, BROOKLYN, NY, 11219",59080315,"L"
214002,"4403 15TH AVENUE 182","BROOKLYN","NY",11219,40.6351105800001,-73.984846123,2,"4403 15TH AVENUE 182, BROOKLYN, NY, 11219","Match","Exact","4403 15TH AVE, BROOKLYN, NY, 11219",59080315,"L"
214003,"4403 23RD PARKWAY UNIT 101","TEMPLE HILLS","MD",20748,NA,NA,3,"4403 23RD PARKWAY UNIT 101, TEMPLE HILLS, MD, 20748","No_Match",NA,NA,NA,NA
214004,"4403 ARCON LN NW","ROCHESTER","MN",55901,44.087125375,-92.529712936,4,"4403 ARCON LN NW, ROCHESTER, MN, 55901","Match","Exact","4403 ARCON LN NW, ROCHESTER, MN, 55901",30573349,"L"
214005,"4403 EDGEMORE RD","GREENSBORO","NC",27455,36.136143502,-79.794732938,5,"4403 EDGEMORE RD, GREENSBORO, NC, 27455","Match","Exact","4403 EDGEMORE RD, GREENSBORO, NC, 27455",131030262,"L"
214006,"4403 GAIL BLVD","MELBOURNE","FL",32904,28.0711777230001,-80.648883742,6,"4403 GAIL BLVD, MELBOURNE, FL, 32904","Match","Exact","4403 GAIL BLVD, MELBOURNE, FL, 32904",93903285,"L"
214007,"4403 HARBINGER DR","MESQUITE","TX",75150,32.824741906,-96.617466555,7,"4403 HARBINGER DR, MESQUITE, TX, 75150","Match","Exact","4403 HARBINGER DR, MESQUITE, TX, 75150",103201203,"L"
214008,"4403 HICKORY COURT","BRANDON","FL",33511,27.874733393,-82.2833538899999,8,"4403 HICKORY COURT, BRANDON, FL, 33511","Match","Exact","4403 HICKORY CT, BRANDON, FL, 33511",104544248,"R"
214009,"4403 HOLMEHURST WAY","BOWIE","MD",20720,38.9489047180001,-76.8034074619999,9,"4403 HOLMEHURST WAY, BOWIE, MD, 20720","Match","Non_Exact","4403 HOLMEHURST WAY W, BOWIE, MD, 20720",76398495,"L"
214010,"4403 LOST FOREST RD","SARASOTA","FL",34235,27.3676812680001,-82.4955387269999,10,"4403 LOST FOREST RD, SARASOTA, FL, 34235","Match","Exact","4403 LOST FOREST RD, SARASOTA, FL, 34235",16350004,"L"
214011,"4403 MURWICK DRIVE","ARLINGTON","TX",76016,32.6788655830001,-97.1830265089999,11,"4403 MURWICK DRIVE, ARLINGTON, TX, 76016","Match","Exact","4403 MURWICK DR, ARLINGTON, TX, 76016",102175258,"L"
214012,"4403 NORTH 129TH DRIVE","LITCHFIELD PARK","AZ",85340,33.4987581620001,-112.337461473,12,"4403 NORTH 129TH DRIVE, LITCHFIELD PARK, AZ, 85340","Match","Exact","4403 N 129TH DR, LITCHFIELD PARK, AZ, 85340",128858492,"R"
214013,"4403 NORTH 30TH STREET","TAMPA","FL",33610,27.9851608270001,-82.426467583,13,"4403 NORTH 30TH STREET, TAMPA, FL, 33610","Match","Exact","4403 N 30TH ST, TAMPA, FL, 33610",104533423,"R"
214014,"4403 OLD CHAPEL HILL ROAD","DURHAM","NC",27707,35.9460013,-78.971818143,14,"4403 OLD CHAPEL HILL ROAD, DURHAM, NC, 27707","Match","Exact","4403 OLD CHAPEL HILL RD, DURHAM, NC, 27707",618112731,"L"
214015,"4403 RAINIER STREET APT 112","IRVING","TX",75062,32.840941779,-97.011364368,15,"4403 RAINIER STREET APT 112, IRVING, TX, 75062","Match","Exact","4403 RAINIER ST, IRVING, TX, 75062",653854527,"L"
214016,"4403 S CALUMET AVE","CHICAGO","IL",60653,41.814623501,-87.618288107,16,"4403 S CALUMET AVE, CHICAGO, IL, 60653","Match","Exact","4403 S CALUMET AVE, CHICAGO, IL, 60653",111770609,"L"
214017,"4403 S KENT STREET","KENNEWICK","WA",99337,46.1696596800001,-119.133404321,17,"4403 S KENT STREET, KENNEWICK, WA, 99337","Match","Exact","4403 S KENT ST, KENNEWICK, WA, 99337",174993468,"L"
214018,"4403 SILVERBROOK LANE A301","OWINGS MILLS","MD",21117,39.4025952320001,-76.80270088,18,"4403 SILVERBROOK LANE A301, OWINGS MILLS, MD, 21117","Match","Exact","4403 SILVERBROOK LN, OWINGS MILLS, MD, 21117",191550762,"L"
214019,"4403 ST CLAIR","CLEVELAND","OH",44103,41.5177716590001,-81.661456599,19,"4403 ST CLAIR, CLEVELAND, OH, 44103","Match","Non_Exact","4403 SAINT CLAIR AVE, CLEVELAND, OH, 44103",61112546,"L"
214020,"4403 SUN VALLEY BLVD","EAST POINT","GA",30344,33.6359946590001,-84.4891227959999,20,"4403 SUN VALLEY BLVD, EAST POINT, GA, 30344","Match","Exact","4403 SUN VALLEY BLVD, EAST POINT, GA, 30344",17339129,"R"
214021,"4403 URBANA DRIVE 103","ORLANDO","FL",32837,28.3656745810001,-81.430306515,21,"4403 URBANA DRIVE 103, ORLANDO, FL, 32837","Match","Exact","4403 URBANA DR, ORLANDO, FL, 32837",640887250,"R"
214022,"4403 WEST LAWRENCE AVENUE SUITE 202","CHICAGO","IL",60030,41.9681292860001,-87.738039267,22,"4403 WEST LAWRENCE AVENUE SUITE 202, CHICAGO, IL, 60030","Match","Non_Exact","4403 W LAWRENCE AVE, CHICAGO, IL, 60630",111755341,"L"
214023,"4403 WEST LAWRENCE AVENUE SUITE 202","CHICAGO","IL",60630,41.9681292860001,-87.738039267,23,"4403 WEST LAWRENCE AVENUE SUITE 202, CHICAGO, IL, 60630","Match","Exact","4403 W LAWRENCE AVE, CHICAGO, IL, 60630",111755341,"L"
214024,"4403 WORTH STREET","DALLAS","TX",75246,32.794294183,-96.7722017419999,24,"4403 WORTH STREET, DALLAS, TX, 75246","Match","Exact","4403 WORTH ST, DALLAS, TX, 75246",102911186,"L"
214025,"4404 58TH DRIVE NE","MARYSVILLE","WA",98270,48.035420157,-122.151746517,25,"4404 58TH DRIVE NE, MARYSVILLE, WA, 98270","Match","Exact","4404 58TH DR NE, MARYSVILLE, WA, 98270",608938583,"L"
214026,"4404 76TH ST SW","MUKILTEO","WA",98275,47.9293289920001,-122.294390711,26,"4404 76TH ST SW, MUKILTEO, WA, 98275","Match","Exact","4404 76TH ST SW, MUKILTEO, WA, 98275",187739443,"L"
214027,"4404 BARDSDALE DR","PALMHARBOR","FL",34685,28.1158228890001,-82.699688265,27,"4404 BARDSDALE DR, PALMHARBOR, FL, 34685","Match","Non_Exact","4404 BARDSDALE DR, PALM HARBOR, FL, 34685",124733618,"L"
214028,"4404 BIRDSONG LANE","PLANO","TX",75093,33.0303585390001,-96.7795407309999,28,"4404 BIRDSONG LANE, PLANO, TX, 75093","Match","Exact","4404 BIRDSONG LN, PLANO, TX, 75093",123483934,"R"
214029,"4404 CHRISELLA RD E","EDGEWOOD","WA",98372,47.217602995,-122.290075146,29,"4404 CHRISELLA RD E, EDGEWOOD, WA, 98372","Match","Exact","4404 CHRISELLA RD E, EDGEWOOD, WA, 98372",184632885,"L"
214030,"4404 CROSSGATE ST","CHAMPAIGN","IL",61822,40.09102348,-88.318606995,30,"4404 CROSSGATE ST, CHAMPAIGN, IL, 61822","Match","Non_Exact","4404 CROSSGATE DR, CHAMPAIGN, IL, 61822",8832859,"R"
214031,"4404 DEEP CREEK BLVD","PORTSMOUTH","VA",23702,36.8024577040001,-76.3299130519999,31,"4404 DEEP CREEK BLVD, PORTSMOUTH, VA, 23702","Match","Exact","4404 DEEP CREEK BLVD, PORTSMOUTH, VA, 23702",122196971,"R"
214032,"4404 DEVON LAKE ROAD","INDIANAPOLIS","IN",46226,39.8350634060001,-86.094054929,32,"4404 DEVON LAKE ROAD, INDIANAPOLIS, IN, 46226","Match","Exact","4404 DEVON LAKE RD, INDIANAPOLIS, IN, 46226",107996095,"L"
214033,"4404 DURANCE DRIVE","MODESTO","CA",95356,37.702941014,-121.023220508,33,"4404 DURANCE DRIVE, MODESTO, CA, 95356","Match","Exact","4404 DURANCE DR, MODESTO, CA, 95356",102633606,"R"
214034,"4404 ENGLE RIDGE DRIVE","FORT WAYNE","IN",46804,41.045624343,-85.1982538829999,34,"4404 ENGLE RIDGE DRIVE, FORT WAYNE, IN, 46804","Match","Non_Exact","4404 ENGLE RD, FORT WAYNE, IN, 46804",646570125,"R"
214035,"4404 GRAY WOLF WAY","GREENSBORO","NC",27406,35.995900615,-79.8125457469999,35,"4404 GRAY WOLF WAY, GREENSBORO, NC, 27406","Match","Exact","4404 GRAY WOLF WAY, GREENSBORO, NC, 27406",628849092,"L"
214036,"4404 HARRISON ST","KANSAS CITY","MO",64110,39.04694196,-94.573843325,36,"4404 HARRISON ST, KANSAS CITY, MO, 64110","Match","Exact","4404 HARRISON ST, KANSAS CITY, MO, 64110",91447908,"R"
214037,"4404 HARVARD","LAWRENCE","KS",66049,38.96610393,-95.2962473969999,37,"4404 HARVARD, LAWRENCE, KS, 66049","Match","Non_Exact","4404 HARVARD RD, LAWRENCE, KS, 66049",17691512,"L"
214038,"4404 HERITAGE DRIVE","LAWRENCE","KS",66047,38.949970003,-95.297933605,38,"4404 HERITAGE DRIVE, LAWRENCE, KS, 66047","Match","Exact","4404 HERITAGE DR, LAWRENCE, KS, 66047",17691006,"L"
214039,"4404 HOWELL PLACE","NASHVILLE","TN",37205,36.099137532,-86.852085307,39,"4404 HOWELL PLACE, NASHVILLE, TN, 37205","Match","Exact","4404 HOWELL PL, NASHVILLE, TN, 37205",97180873,"R"
214040,"4404 IRONWOOD LANE","CHAMPAIGN","IL",61822,40.088235797,-88.317705319,40,"4404 IRONWOOD LANE, CHAMPAIGN, IL, 61822","Match","Exact","4404 IRONWOOD LN, CHAMPAIGN, IL, 61822",8827966,"R"
214041,"4404 LANDRUM AVE","DALLAS","TX",75216,32.7016021530001,-96.779616661,41,"4404 LANDRUM AVE, DALLAS, TX, 75216","Match","Exact","4404 LANDRUM AVE, DALLAS, TX, 75216",102952235,"L"
214042,"4404 LAWRENCEVILLE ROAD","LOGANVILLE","GA",30052,33.8405510440001,-83.895059846,42,"4404 LAWRENCEVILLE ROAD, LOGANVILLE, GA, 30052","Match","Exact","4404 LAWRENCEVILLE RD, LOGANVILLE, GA, 30052",77629996,"R"
214043,"4404 MAJOR LORING WAY","RALEIGH","NC",27616,35.8360880930001,-78.5606970159999,43,"4404 MAJOR LORING WAY, RALEIGH, NC, 27616","Match","Exact","4404 MAJOR LORING WAY, RALEIGH, NC, 27616",72617150,"R"
214044,"4404 MCGIRTS BLVD","JACKSONVILLE","FL",32210,30.2728458500001,-81.712855582,44,"4404 MCGIRTS BLVD, JACKSONVILLE, FL, 32210","Match","Exact","4404 MCGIRTS BLVD, JACKSONVILLE, FL, 32210",83913741,"R"
214045,"4404 N LINCOLN AVE SUITE 297","CHICAGO","IL",60618,NA,NA,45,"4404 N LINCOLN AVE SUITE 297, CHICAGO, IL, 60618","No_Match",NA,NA,NA,NA
214046,"4404 NE 11TH AVENUE","FORT LAUDERDALE","FL",33334,26.183054339,-80.1324000069999,46,"4404 NE 11TH AVENUE, FORT LAUDERDALE, FL, 33334","Match","Non_Exact","4404 NE 11TH AVE, FORT LAUDERDALE, FL, 33334",640884958,"R"
214047,"4404 PALO VERDE ROAD","IRVINE","CA",92617,33.6430322260001,-117.834187963,47,"4404 PALO VERDE ROAD, IRVINE, CA, 92617","Match","Exact","4404 PALO VERDE RD, IRVINE, CA, 92617",608140452,"R"
214048,"4404 RIB MOUNTAIN DRIVE SUITE 143","WAUSAU","WI",54401,NA,NA,48,"4404 RIB MOUNTAIN DRIVE SUITE 143, WAUSAU, WI, 54401","No_Match",NA,NA,NA,NA
214049,"4404 ROSES RUN","AIKEN","SC",29803,33.5235531750001,-81.709705157,49,"4404 ROSES RUN, AIKEN, SC, 29803","Match","Exact","4404 ROSES RUN, AIKEN, SC, 29803",65031501,"L"
214050,"4404 S FLORIDA AVE STE 1","LAKELAND","FL",33813,27.9839258980001,-81.956710685,50,"4404 S FLORIDA AVE STE 1, LAKELAND, FL, 33813","Match","Non_Exact","4404 S FLORIDA AVE, LAKELAND, FL, 33813",651850259,"R"
214051,"4404 S FLORIDA AVE SUITE 1","LAKELAND","FL",33813,27.9839258980001,-81.956710685,51,"4404 S FLORIDA AVE SUITE 1, LAKELAND, FL, 33813","Match","Non_Exact","4404 S FLORIDA AVE, LAKELAND, FL, 33813",651850259,"R"
214052,"4404 S KING DR APT 3","CHICAGO","IL",60653,NA,NA,52,"4404 S KING DR APT 3, CHICAGO, IL, 60653","No_Match",NA,NA,NA,NA
214053,"4404 S SHERMAN AVE","FREMONT","MI",49412,43.475017801,-85.858483314,53,"4404 S SHERMAN AVE, FREMONT, MI, 49412","Match","Exact","4404 SHERMAN AVE, FREMONT, MI, 49412",150225395,"R"
214054,"4404 SILVER LANE","OWINGS MILLS","MD",21117,NA,NA,54,"4404 SILVER LANE, OWINGS MILLS, MD, 21117","No_Match",NA,NA,NA,NA
214055,"4404 WOOD RIVER DRIVE","FAIRBANKS","AK",99709,64.847215835,-147.844639123,55,"4404 WOOD RIVER DRIVE, FAIRBANKS, AK, 99709","Match","Exact","4404 WOOD RIVER DR, FAIRBANKS, AK, 99709",605309127,"R"
214056,"44043 HARDWOOD AVENUE","LANCASTER","CA",93534,34.6829595930001,-118.144372412,56,"44043 HARDWOOD AVENUE, LANCASTER, CA, 93534","Match","Exact","44043 HARDWOOD AVE, LANCASTER, CA, 93534",141526772,"L"
214057,"44045 MARGARITA ROAD SUITE 203","TEMECULA","CA",92592,33.483402717,-117.102623713,57,"44045 MARGARITA ROAD SUITE 203, TEMECULA, CA, 92592","Match","Exact","44045 MARGARITA RD, TEMECULA, CA, 92592",194858638,"L"
214058,"44046 PALMLANE","LANCASTER","CA",93535,NA,NA,58,"44046 PALMLANE, LANCASTER, CA, 93535","No_Match",NA,NA,NA,NA
214059,"4405 188TH ST NE","ARLINGTON","WA",98223,48.1669146720001,-122.170301077,59,"4405 188TH ST NE, ARLINGTON, WA, 98223","Match","Exact","4405 188TH ST NE, ARLINGTON, WA, 98223",635749286,"L"
214060,"4405 31ST AVE","KENOSHA","WI",53144,42.5963062230001,-87.846931076,60,"4405 31ST AVE, KENOSHA, WI, 53144","Match","Exact","4405 31ST AVE, KENOSHA, WI, 53144",79799425,"L"
214061,"4405 BEAVER CREST DRIVE","DES MOINES","IA",50310,41.6185502880001,-93.6780833179999,61,"4405 BEAVER CREST DRIVE, DES MOINES, IA, 50310","Match","Exact","4405 BEAVER CREST DR, DES MOINES, IA, 50310",65779687,"R"
214062,"4405 BONNIE AVE","SPRINGDALE","AR",72762,36.1648861730001,-94.180855911,62,"4405 BONNIE AVE, SPRINGDALE, AR, 72762","Match","Exact","4405 BONNIE AVE, SPRINGDALE, AR, 72762",49062054,"R"
214063,"4405 CAVITT MILL COURT","ELLENWOOD","GA",30294,33.645641217,-84.236346192,63,"4405 CAVITT MILL COURT, ELLENWOOD, GA, 30294","Match","Exact","4405 CAVITT MILL CT, ELLENWOOD, GA, 30294",619387914,"R"
214064,"4405 CREEKCROSSING DRIVE","LOUISVILLE","KY",40241,38.311999486,-85.589992101,64,"4405 CREEKCROSSING DRIVE, LOUISVILLE, KY, 40241","Match","Exact","4405 CREEKCROSSING DR, LOUISVILLE, KY, 40241",96882465,"L"
214065,"4405 CYPRESS CREEK DRIVE","PONTE VEDRA","FL",32082,30.2142108210001,-81.3953996509999,65,"4405 CYPRESS CREEK DRIVE, PONTE VEDRA, FL, 32082","Match","Exact","4405 CYPRESS CREEK DR, PONTE VEDRA, FL, 32082",92635434,"L"
214066,"4405 E LEXINGTON CIRCLE","SIOUX FALLS","SD",57103,43.5266490020001,-96.673350511,66,"4405 E LEXINGTON CIRCLE, SIOUX FALLS, SD, 57103","Match","Exact","4405 E LEXINGTON CIR, SIOUX FALLS, SD, 57103",34975064,"R"
214067,"4405 E SCRANTON ST","SIOUX FALLS","SD",57103,43.560134738,-96.673555656,67,"4405 E SCRANTON ST, SIOUX FALLS, SD, 57103","Match","Exact","4405 E SCRANTON ST, SIOUX FALLS, SD, 57103",34981804,"L"
214068,"4405 HIGHCREST RD","ROCKFORD","IL",61107,42.2854614870001,-89.030711255,68,"4405 HIGHCREST RD, ROCKFORD, IL, 61107","Match","Exact","4405 HIGHCREST RD, ROCKFORD, IL, 61107",49291330,"R"
214069,"4405 HIGHLAND AVE","BROOKLYN","NY",11224,40.5791402350001,-74.008377958,69,"4405 HIGHLAND AVE, BROOKLYN, NY, 11224","Match","Exact","4405 HIGHLAND AVE, BROOKLYN, NY, 11224",59088734,"R"
214070,"4405 HIGHLAND AVENUE","BROOKLYN","NY",11224,40.5791402350001,-74.008377958,70,"4405 HIGHLAND AVENUE, BROOKLYN, NY, 11224","Match","Exact","4405 HIGHLAND AVE, BROOKLYN, NY, 11224",59088734,"R"
214071,"4405 INTERNATIONAL CT G7","BERRIEN SPRINGS","MI",49103,41.960056734,-86.3525080809999,71,"4405 INTERNATIONAL CT G7, BERRIEN SPRINGS, MI, 49103","Match","Exact","4405 INTERNATIONAL CT, BERRIEN SPRINGS, MI, 49103",635511846,"L"
214072,"4405 INTERNATIONAL CT UNIT G7","BERRIEN SPRINGS","MI",49103,41.960056734,-86.3525080809999,72,"4405 INTERNATIONAL CT UNIT G7, BERRIEN SPRINGS, MI, 49103","Match","Exact","4405 INTERNATIONAL CT, BERRIEN SPRINGS, MI, 49103",635511846,"L"
214073,"4405 LARGO ROAD","UPPER MARLBORO","MD",20772,38.8296756120001,-76.751698316,73,"4405 LARGO ROAD, UPPER MARLBORO, MD, 20772","Match","Exact","4405 LARGO RD, UPPER MARLBORO, MD, 20772",639592211,"R"
214074,"4405 MALL BLVD  SUITE 320","UNIION CITY","GA",30291,33.5745853190001,-84.527303865,74,"4405 MALL BLVD  SUITE 320, UNIION CITY, GA, 30291","Match","Non_Exact","4405 MALL BLVD, UNION CITY, GA, 30291",17410700,"L"
214075,"4405 MALL BLVD STE 518","UNION CITY","GA",30291,33.5745853190001,-84.527303865,75,"4405 MALL BLVD STE 518, UNION CITY, GA, 30291","Match","Exact","4405 MALL BLVD, UNION CITY, GA, 30291",17410700,"L"
214076,"4405 MALL BLVD UNIT 510","UNION CITY","GA",30291,33.5745853190001,-84.527303865,76,"4405 MALL BLVD UNIT 510, UNION CITY, GA, 30291","Match","Exact","4405 MALL BLVD, UNION CITY, GA, 30291",17410700,"L"
214077,"4405 MALL BOULEVARD SUITE 310","UNION CITY","GA",30291,33.5745853190001,-84.527303865,77,"4405 MALL BOULEVARD SUITE 310, UNION CITY, GA, 30291","Match","Exact","4405 MALL BLVD, UNION CITY, GA, 30291",17410700,"L"
214078,"4405 N GALLOWAY ROAD","LAKELAND","FL",33810,28.097640541,-82.0066188769999,78,"4405 N GALLOWAY ROAD, LAKELAND, FL, 33810","Match","Exact","4405 N GALLOWAY RD, LAKELAND, FL, 33810",619495478,"R"
214079,"4405 N MAIN ST","DAYTON","OH",45405,39.8070104600001,-84.2232998329999,79,"4405 N MAIN ST, DAYTON, OH, 45405","Match","Exact","4405 MAIN ST, DAYTON, OH, 45405",143565790,"L"
214080,"4405 NORTH MAIZE ROAD","MAIZE","KS",67101,37.7610881630001,-97.4630127359999,80,"4405 NORTH MAIZE ROAD, MAIZE, KS, 67101","Match","Exact","4405 N MAIZE RD, MAIZE, KS, 67101",653243127,"R"
214081,"4405 RAINIER AVENUE SOUTH","SEATTLE","WA",98118,47.564104813,-122.288199526,81,"4405 RAINIER AVENUE SOUTH, SEATTLE, WA, 98118","Match","Exact","4405 RAINIER AVE S, SEATTLE, WA, 98118",186595913,"R"
214082,"4405 RISINGHILL ROAD","ALTADENA","CA",91001,34.2124404790001,-118.162268875,82,"4405 RISINGHILL ROAD, ALTADENA, CA, 91001","Match","Non_Exact","4405 RISING HILL RD, ALTADENA, CA, 91001",642869019,"L"
214083,"4405 ROBIN HOOD CIRCLE","BRYAN","TX",77803,30.715645452,-96.388539553,83,"4405 ROBIN HOOD CIRCLE, BRYAN, TX, 77803","Match","Non_Exact","4405 ROBINHOOD CIR, BRYAN, TX, 77803",21811813,"R"
214084,"4405 ROYAL LYTHAM DR","COLUMBIA","MO",65203,38.90426131,-92.3604648789999,84,"4405 ROYAL LYTHAM DR, COLUMBIA, MO, 65203","Match","Exact","4405 ROYAL LYTHAM DR, COLUMBIA, MO, 65203",23494099,"R"
214085,"4405 SCENIC DRIVE","COLUMBUS","OH",43214,40.0500833340001,-83.028846634,85,"4405 SCENIC DRIVE, COLUMBUS, OH, 43214","Match","Exact","4405 SCENIC DR, COLUMBUS, OH, 43214",218693418,"L"
214086,"4405 SHELLY ROAD","LIVONIA","NY",14487,42.805128553,-77.660208719,86,"4405 SHELLY ROAD, LIVONIA, NY, 14487","Match","Exact","4405 SHELLY RD, LIVONIA, NY, 14487",14475735,"R"
214087,"4405 SHENANDOAH ST","DALLAS","TX",75205,32.840679698,-96.811566694,87,"4405 SHENANDOAH ST, DALLAS, TX, 75205","Match","Exact","4405 SHENANDOAH ST, DALLAS, TX, 75205",102906451,"L"
214088,"4405 SOUTH BERKELEY AVENUE","CHICAGO","IL",60653,41.814857476,-87.6005798579999,88,"4405 SOUTH BERKELEY AVENUE, CHICAGO, IL, 60653","Match","Exact","4405 S BERKELEY AVE, CHICAGO, IL, 60653",111771483,"L"
214089,"4405 SPRENKLE LAN","RICHMOND","VA",23228,37.6201784790001,-77.51067223,89,"4405 SPRENKLE LAN, RICHMOND, VA, 23228","Match","Non_Exact","4405 SPRENKLE LN, RICHMOND, VA, 23228",106676948,"L"
214090,"4405 TOTTENHAM COURT","ARLINGTON","TX",76016,32.677898462,-97.187022957,90,"4405 TOTTENHAM COURT, ARLINGTON, TX, 76016","Match","Exact","4405 TOTTENHAM CT, ARLINGTON, TX, 76016",101902636,"R"
214091,"4405 W 128TH ST","LEAWOOD","KS",66209,38.896377676,-94.6360905129999,91,"4405 W 128TH ST, LEAWOOD, KS, 66209","Match","Exact","4405 W 128TH ST, LEAWOOD, KS, 66209",91289591,"L"
214092,"4405 W HWY 38","MALAD","ID",83252,NA,NA,92,"4405 W HWY 38, MALAD, ID, 83252","No_Match",NA,NA,NA,NA
214093,"4405 W QUINCY ST","BROKEN ARROW","OK",74012,36.0379562090001,-95.843426114,93,"4405 W QUINCY ST, BROKEN ARROW, OK, 74012","Match","Exact","4405 W QUINCY ST, BROKEN ARROW, OK, 74012",166502219,"R"
214094,"4405 W STREET NW","WASHINGTON","DC",20007,38.919179528,-77.0867731989999,94,"4405 W STREET NW, WASHINGTON, DC, 20007","Match","Exact","4405 W ST NW, WASHINGTON, DC, 20007",76220180,"R"
214095,"4405 WILDWOOD CIRCLE","GRANBURY","TX",76049,32.413460747,-97.7061960189999,95,"4405 WILDWOOD CIRCLE, GRANBURY, TX, 76049","Match","Exact","4405 WILDWOOD CIR, GRANBURY, TX, 76049",158791551,"R"
214096,"4405 WOLF POND ROAD","MONROE","NC",28112,34.8978946770001,-80.540517555,96,"4405 WOLF POND ROAD, MONROE, NC, 28112","Match","Exact","4405 WOLF POND RD, MONROE, NC, 28112",14175581,"R"
214097,"4405 WW QUINCY ST","BROKEN ARROW","OK",74012,36.0379560960001,-95.8433949399999,97,"4405 WW QUINCY ST, BROKEN ARROW, OK, 74012","Match","Non_Exact","4405 W QUINCY ST, BROKEN ARROW, OK, 74012",166502219,"R"
214098,"44053 31ST ST WEST","LANCASTER","CA",93536,34.6832286690001,-118.186265932,98,"44053 31ST ST WEST, LANCASTER, CA, 93536","Match","Exact","44053 31ST ST W, LANCASTER, CA, 93536",141777610,"R"
214099,"44055 W 91ST ST S","DRUMRIGHT","OK",74030,36.0320187240001,-96.4843913189999,99,"44055 W 91ST ST S, DRUMRIGHT, OK, 74030","Match","Exact","44055 W 91ST ST S, DRUMRIGHT, OK, 74030",165860620,"R"
214100,"4406 ALICE ROAD","CENTER POINT","IA",52213,42.183987141,-91.696080539,100,"4406 ALICE ROAD, CENTER POINT, IA, 52213","Match","Exact","4406 ALICE RD, CENTER POINT, IA, 52213",17012720,"L"
214101,"4406 ALLEN ST","HOUSTON","TX",77007,29.772354831,-95.405169519,101,"4406 ALLEN ST, HOUSTON, TX, 77007","Match","Exact","4406 ALLEN ST, HOUSTON, TX, 77007",96061781,"R"
214102,"4406 BEARBERRY AVE","BAYTOWN","TX",77521,NA,NA,102,"4406 BEARBERRY AVE, BAYTOWN, TX, 77521","No_Match",NA,NA,NA,NA
214103,"4406 BROADHURST DRIVE","COLUMBUS","OH",43213,39.968011935,-82.882312617,103,"4406 BROADHURST DRIVE, COLUMBUS, OH, 43213","Match","Exact","4406 BROADHURST DR, COLUMBUS, OH, 43213",218649789,"L"
214104,"4406 COBBLERS LN","DALLAS","TX",75287,32.9911540370001,-96.833159753,104,"4406 COBBLERS LN, DALLAS, TX, 75287","Match","Exact","4406 COBBLERS LN, DALLAS, TX, 75287",210476001,"R"
214105,"4406 FAYETTE DRIVE","BRISTOL","PA",19007,40.1100093270001,-74.8684941939999,105,"4406 FAYETTE DRIVE, BRISTOL, PA, 19007","Match","Exact","4406 FAYETTE DR, BRISTOL, PA, 19007",134717028,"R"
214106,"4406 GARRISON BLVD","BALTIMORE","MD",21215,39.3367203450001,-76.684759591,106,"4406 GARRISON BLVD, BALTIMORE, MD, 21215","Match","Exact","4406 GARRISON BLVD, BALTIMORE, MD, 21215",206464812,"L"
214107,"4406 GLISTENING SPRINGS","ROWLETT","TX",75088,NA,NA,107,"4406 GLISTENING SPRINGS, ROWLETT, TX, 75088","No_Match",NA,NA,NA,NA
214108,"4406 GRAND POINT","HOLLAND","MI",49424,42.8495220410001,-86.128452957,108,"4406 GRAND POINT, HOLLAND, MI, 49424","Match","Exact","4406 GRAND PT, HOLLAND, MI, 49424",648817758,"L"
214109,"4406 HAMPSTEAD","SAN ANTONIO","TX",78220,29.404386479,-98.408818877,109,"4406 HAMPSTEAD, SAN ANTONIO, TX, 78220","Match","Exact","4406 HAMPSTEAD, SAN ANTONIO, TX, 78220",101532540,"R"
214110,"4406 JAN COOLEY DRIVE","PANAMA CITY","FL",32408,NA,NA,110,"4406 JAN COOLEY DRIVE, PANAMA CITY, FL, 32408","No_Match",NA,NA,NA,NA
214111,"4406 MEADOWCROFT ROAD","GREENSBORO","NC",27406,35.9958386760001,-79.8058436329999,111,"4406 MEADOWCROFT ROAD, GREENSBORO, NC, 27406","Match","Exact","4406 MEADOWCROFT RD, GREENSBORO, NC, 27406",131088000,"R"
214112,"4406 MEDALLION DR","SILVER SPRING","MD",20904,39.070045527,-76.93181335,112,"4406 MEDALLION DR, SILVER SPRING, MD, 20904","Match","Exact","4406 MEDALLION DR, SILVER SPRING, MD, 20904",639597120,"L"
214113,"4406 N LYMAN AVE","CHARTER OAKS","CA",91724,34.0930251770001,-117.849919998,113,"4406 N LYMAN AVE, CHARTER OAKS, CA, 91724","Match","Non_Exact","4406 N LYMAN AVE, COVINA, CA, 91724",142788919,"R"
214114,"4406 OCEAN BEACH HWY","LONGVIEW","WA",98632,46.161955253,-122.996338898,114,"4406 OCEAN BEACH HWY, LONGVIEW, WA, 98632","Match","Exact","4406 OCEAN BEACH HWY, LONGVIEW, WA, 98632",614232569,"R"
214115,"4406 OPELOUSAS STREET","LAKE CHARLES","LA",70615,30.2422867220001,-93.153631852,115,"4406 OPELOUSAS STREET, LAKE CHARLES, LA, 70615","Match","Exact","4406 OPELOUSAS ST, LAKE CHARLES, LA, 70615",88440332,"R"
214116,"4406 ORIENT RD","TAMPA","FL",33610,27.9855490140001,-82.3730617579999,116,"4406 ORIENT RD, TAMPA, FL, 33610","Match","Exact","4406 ORIENT RD, TAMPA, FL, 33610",104536753,"L"
214117,"4406 PRESERVE DRIVE APT 101","MELBOURNE","FL",32934,28.1830900580001,-80.674996476,117,"4406 PRESERVE DRIVE APT 101, MELBOURNE, FL, 32934","Match","Exact","4406 PRESERVE DR, MELBOURNE, FL, 32934",629915085,"R"
214118,"4406 RASPBERRY RD","WILMINGTON","NC",28405,34.2799973050001,-77.871551402,118,"4406 RASPBERRY RD, WILMINGTON, NC, 28405","Match","Exact","4406 RASPBERRY RD, WILMINGTON, NC, 28405",152734039,"R"
214119,"4406 S CALUMET","CHICAGO","IL",60653,41.8145598610001,-87.618301407,119,"4406 S CALUMET, CHICAGO, IL, 60653","Match","Non_Exact","4406 S CALUMET AVE, CHICAGO, IL, 60653",111770609,"R"
214120,"4406 TERRA SUMMIT RD","SAN ANTONIO","TX",78233,29.542398097,-98.408963034,120,"4406 TERRA SUMMIT RD, SAN ANTONIO, TX, 78233","Match","Exact","4406 TERRA SUMMIT RD, SAN ANTONIO, TX, 78233",638591428,"R"
214121,"4406 TIMBERLAKE DR","LOUISVILLE","TN",37777,35.8422470890001,-83.975104211,121,"4406 TIMBERLAKE DR, LOUISVILLE, TN, 37777","Match","Exact","4406 TIMBERLAKE DR, LOUISVILLE, TN, 37777",89830173,"R"
214122,"4406 W THUNDERWOOD CIRCLE","FRESNO","TX",77545,29.522884601,-95.482738147,122,"4406 W THUNDERWOOD CIRCLE, FRESNO, TX, 77545","Match","Exact","4406 W THUNDERWOOD CIR, FRESNO, TX, 77545",78347564,"L"
214123,"4406 WINDFLOWER WAY","BOWIE","MD",20720,38.950732476,-76.823703431,123,"4406 WINDFLOWER WAY, BOWIE, MD, 20720","Match","Exact","4406 WINDFLOWER WAY, BOWIE, MD, 20720",638665250,"L"
214124,"4406 WINDSOCK LN","BROOKSHIRE","TX",77423,29.8387862020001,-95.9513803949999,124,"4406 WINDSOCK LN, BROOKSHIRE, TX, 77423","Match","Non_Exact","4406 WIND SOCK RD, BROOKSHIRE, TX, 77423",78354691,"R"
214125,"44060 CAMINO LA VANDA","LA QUINTA","CA",92253,NA,NA,125,"44060 CAMINO LA VANDA, LA QUINTA, CA, 92253","No_Match",NA,NA,NA,NA
214126,"44060 E 96TH AVE","BENNETT","CO",80102,39.868556513,-104.471357411,126,"44060 E 96TH AVE, BENNETT, CO, 80102","Match","Exact","44060 E 96TH AVE, BENNETT, CO, 80102",627411491,"L"
214127,"440624 E 190 RD","BLUEJACKET","OK",74333,NA,NA,127,"440624 E 190 RD, BLUEJACKET, OK, 74333","No_Match",NA,NA,NA,NA
214128,"44065 ARBORDALE DRIVE","HAMMOND","LA",70403,30.495088136,-90.433045717,128,"44065 ARBORDALE DRIVE, HAMMOND, LA, 70403","Match","Exact","44065 ARBORDALE DR, HAMMOND, LA, 70403",75754970,"L"
214129,"4407 100TH ST","LUBBOCK","TX",79424,33.5027012570001,-101.907610226,129,"4407 100TH ST, LUBBOCK, TX, 79424","Match","Exact","4407 100TH ST, LUBBOCK, TX, 79424",643085838,"R"
214130,"4407 30TH AVE E","BRADENTON","FL",34208,27.4730676500001,-82.506372831,130,"4407 30TH AVE E, BRADENTON, FL, 34208","Match","Exact","4407 30TH AVE E, BRADENTON, FL, 34208",16259415,"L"
214131,"4407 7TH STREET","WASHINGTON","DC",20017,38.942830761,-76.996304648,131,"4407 7TH STREET, WASHINGTON, DC, 20017","Match","Non_Exact","4407 7TH ST NE, WASHINGTON, DC, 20017",639577168,"L"
214132,"4407 BELLVIEW WAY","ROCKTON","IL",61072,42.453536043,-89.031070087,132,"4407 BELLVIEW WAY, ROCKTON, IL, 61072","Match","Exact","4407 BELLVIEW WAY, ROCKTON, IL, 61072",49296848,"L"
214133,"4407 BLACKBERRY RD","MELISSA","TX",75454,33.307991697,-96.539225885,133,"4407 BLACKBERRY RD, MELISSA, TX, 75454","Match","Exact","4407 BLACKBERRY RD, MELISSA, TX, 75454",616586942,"L"
214134,"4407 BLUE CEDAR COURT","SPRING","TX",77386,30.079826972,-95.346195285,134,"4407 BLUE CEDAR COURT, SPRING, TX, 77386","Match","Exact","4407 BLUE CEDAR CT, SPRING, TX, 77386",614123610,"L"
214135,"4407 BRAESIDE CT","LANHAM","MD",20706,38.950514136,-76.853346368,135,"4407 BRAESIDE CT, LANHAM, MD, 20706","Match","Exact","4407 BRAESIDE CT, LANHAM, MD, 20706",76309727,"R"
214136,"4407 BUENA VISTA LANE","HOLIDAY","FL",34691,28.184746961,-82.741408499,136,"4407 BUENA VISTA LANE, HOLIDAY, FL, 34691","Match","Exact","4407 BUENA VISTA LN, HOLIDAY, FL, 34691",636388878,"L"
214137,"4407 CANAL STREET","NEW ORLEANS","LA",70119,29.9770639010001,-90.1041780799999,137,"4407 CANAL STREET, NEW ORLEANS, LA, 70119","Match","Exact","4407 CANAL ST, NEW ORLEANS, LA, 70119",191706764,"R"
214138,"4407 CLONTS RD","APISON","TN",37302,35.007246965,-85.014620809,138,"4407 CLONTS RD, APISON, TN, 37302","Match","Exact","4407 CLONTS RD, APISON, TN, 37302",653260620,"R"
214139,"4407 COLE AVENUE UNIT G","DALLAS","TX",75205,32.82011613,-96.790552057,139,"4407 COLE AVENUE UNIT G, DALLAS, TX, 75205","Match","Exact","4407 COLE AVE, DALLAS, TX, 75205",102907888,"L"
214140,"4407 DELRAY RD","MONTGOMERY","AL",36116,32.318378372,-86.292403324,140,"4407 DELRAY RD, MONTGOMERY, AL, 36116","Match","Exact","4407 DELRAY RD, MONTGOMERY, AL, 36116",1475922,"L"
214141,"4407 E 14TH AVE","SPOAKNAE VALLEY","WA",99212,47.644529639,-117.345188639,141,"4407 E 14TH AVE, SPOAKNAE VALLEY, WA, 99212","Match","Non_Exact","4407 E 14TH AVE, SPOKANE VALLEY, WA, 99212",639907153,"L"
214142,"4407 E DOUGLAS","WICHITA","KS",67218,NA,NA,142,"4407 E DOUGLAS, WICHITA, KS, 67218","No_Match",NA,NA,NA,NA
214143,"4407 E LAKE CIR S","CENTENNIAL","CO",80121,39.605274066,-104.935107517,143,"4407 E LAKE CIR S, CENTENNIAL, CO, 80121","Match","Exact","4407 E LAKE CIR S, CENTENNIAL, CO, 80121",177345228,"L"
214144,"4407 EXPOSITION BLVD","LOS ANGELES","CA",90016,34.0239239310001,-118.344056588,144,"4407 EXPOSITION BLVD, LOS ANGELES, CA, 90016","Match","Exact","4407 EXPOSITION BLVD, LOS ANGELES, CA, 90016",141601844,"R"
214145,"4407 FONTENELLE BLVD","OMAHA","NE",68134,41.2986093740001,-95.980243294,145,"4407 FONTENELLE BLVD, OMAHA, NE, 68134","Match","Non_Exact","4407 FONTENELLE BLVD, OMAHA, NE, 68104",116999364,"R"
214146,"4407 HALIK ROAD BUILDING C","PEARLAND","TX",77581,29.577037069,-95.286839823,146,"4407 HALIK ROAD BUILDING C, PEARLAND, TX, 77581","Match","Non_Exact","4407 HALIK ST, PEARLAND, TX, 77581",116568607,"L"
214147,"4407 LANCEFIELD LANE","BOWIE","MD",20720,38.9532670150001,-76.792226849,147,"4407 LANCEFIELD LANE, BOWIE, MD, 20720","Match","Exact","4407 LANCEFIELD LN, BOWIE, MD, 20720",76416155,"L"
214148,"4407 MONTEREY OAKS SUITE 130","AUSTIN","TX",78749,30.229400926,-97.834613991,148,"4407 MONTEREY OAKS SUITE 130, AUSTIN, TX, 78749","Match","Non_Exact","4407 MONTEREY OAKS BLVD, AUSTIN, TX, 78749",651657333,"L"
214149,"4407 N HAMMOND","BETHANY","OK",73008,35.516336731,-97.623387672,149,"4407 N HAMMOND, BETHANY, OK, 73008","Match","Non_Exact","4407 N HAMMOND AVE, BETHANY, OK, 73008",100390259,"L"
214150,"4407 OLLIE RD","LAKELAND","FL",33810,28.0586345790001,-82.035716851,150,"4407 OLLIE RD, LAKELAND, FL, 33810","Match","Exact","4407 OLLIE RD, LAKELAND, FL, 33810",104852781,"R"
214151,"4407 PLYMOUTH ROCK TRAIL EAST","SOUTHSIDE","AL",35907,33.911295689,-85.9976832199999,151,"4407 PLYMOUTH ROCK TRAIL EAST, SOUTHSIDE, AL, 35907","Match","Exact","4407 PLYMOUTH ROCK TRL E, SOUTHSIDE, AL, 35907",66774795,"L"
214152,"4407 S BUFFALO ST","ORCHARD PARK","NY",14127,42.763094778,-78.744095493,152,"4407 S BUFFALO ST, ORCHARD PARK, NY, 14127","Match","Exact","4407 S BUFFALO ST, ORCHARD PARK, NY, 14127",645418494,"L"
214153,"4407 SULLIVAN STREET","COLUMBIA","MO",65202,38.9966250410001,-92.335777827,153,"4407 SULLIVAN STREET, COLUMBIA, MO, 65202","Match","Exact","4407 SULLIVAN ST, COLUMBIA, MO, 65202",637444324,"L"
214154,"4407 SWEETBRIAR CT","CONCORD","CA",94521,37.9528084930001,-121.983734773,154,"4407 SWEETBRIAR CT, CONCORD, CA, 94521","Match","Exact","4407 SWEETBRIAR CT, CONCORD, CA, 94521",192058910,"L"
214155,"4407 TYSON AVENUE","PHILADELPHIA","PA",19135,40.0299075680001,-75.043485194,155,"4407 TYSON AVENUE, PHILADELPHIA, PA, 19135","Match","Exact","4407 TYSON AVE, PHILADELPHIA, PA, 19135",131435329,"L"
214156,"4407 ZAHIR COURT","IRVING","TX",75061,32.832658414,-97.0133232749999,156,"4407 ZAHIR COURT, IRVING, TX, 75061","Match","Exact","4407 ZAHIR CT, IRVING, TX, 75061",650169275,"R"
214157,"4408 AVENUE M","BROOKLYN","NY",11234,40.6210056740001,-73.932773993,157,"4408 AVENUE M, BROOKLYN, NY, 11234","Match","Exact","4408 AVE M, BROOKLYN, NY, 11234",59092311,"R"
214158,"4408 BENTON STREET NE","CEDAR RAPIDS","IA",52402,42.0232378760001,-91.659108837,158,"4408 BENTON STREET NE, CEDAR RAPIDS, IA, 52402","Match","Exact","4408 BENTON ST NE, CEDAR RAPIDS, IA, 52402",17020255,"R"
214159,"4408 BUENA VIDA CT","CARLSBAD","NM",88220,32.3647026290001,-104.213522683,159,"4408 BUENA VIDA CT, CARLSBAD, NM, 88220","Match","Exact","4408 BUENA VIDA CT, CARLSBAD, NM, 88220",131228823,"R"
214160,"4408 CAPITOL COURT","CONCORD","CA",94518,37.94938734,-121.997694823,160,"4408 CAPITOL COURT, CONCORD, CA, 94518","Match","Exact","4408 CAPITOL CT, CONCORD, CA, 94518",192058560,"R"
214161,"4408 CASTLEFORD COURT","WHITE PLAINS","MH",20695,NA,NA,161,"4408 CASTLEFORD COURT, WHITE PLAINS, MH, 20695","No_Match",NA,NA,NA,NA
214162,"4408 CHAPARRAL WAY","FAIR OAKS","CA",95628,NA,NA,162,"4408 CHAPARRAL WAY, FAIR OAKS, CA, 95628","No_Match",NA,NA,NA,NA
214163,"4408 COATSBRIDGE DRIVE SE","OWENS CROSS ROADS","AL",35763,34.623479377,-86.491677307,163,"4408 COATSBRIDGE DRIVE SE, OWENS CROSS ROADS, AL, 35763","Match","Exact","4408 COATSBRIDGE DR SE, OWENS CROSS ROADS, AL, 35763",648167908,"L"
214164,"4408 DELRIDGE WAY SW","SEATTLE","WA",98106,47.5635049750001,-122.363336685,164,"4408 DELRIDGE WAY SW, SEATTLE, WA, 98106","Match","Exact","4408 DELRIDGE WAY SW, SEATTLE, WA, 98106",186589053,"L"
214165,"4408 GRAY HERON LANE","ORANGE PARK","FL",32065,30.150029212,-81.860738988,165,"4408 GRAY HERON LANE, ORANGE PARK, FL, 32065","Match","Exact","4408 GRAY HERON LN, ORANGE PARK, FL, 32065",606223608,"L"
214166,"4408 HARDY STREET","HOUSTON","TX",77009,29.8001452720001,-95.352338228,166,"4408 HARDY STREET, HOUSTON, TX, 77009","Match","Exact","4408 HARDY ST, HOUSTON, TX, 77009",96059342,"R"
214167,"4408 HENDERSON STREET","GREENVILLE","TX",75401,33.125512116,-96.1016463569999,167,"4408 HENDERSON STREET, GREENVILLE, TX, 75401","Match","Exact","4408 HENDERSON ST, GREENVILLE, TX, 75401",42835688,"L"
214168,"4408 MARTINS WAY SUITE F","ORLANDO","FL",32808,28.5987478320001,-81.436834693,168,"4408 MARTINS WAY SUITE F, ORLANDO, FL, 32808","Match","Exact","4408 MARTINS WAY, ORLANDO, FL, 32808",94303938,"L"
214169,"4408 N BRANCH AVE","TAMPA","FL",33603,27.985256088,-82.457268997,169,"4408 N BRANCH AVE, TAMPA, FL, 33603","Match","Exact","4408 N BRANCH AVE, TAMPA, FL, 33603",104522288,"L"
214170,"4408 N KNOXVILLE 2C","PEORIA","IL",61614,NA,NA,170,"4408 N KNOXVILLE 2C, PEORIA, IL, 61614","No_Match",NA,NA,NA,NA
214171,"4408 OASIS HILL AVE","NORTH LAS VEGAS","NV",89085,36.3079628250001,-115.200399496,171,"4408 OASIS HILL AVE, NORTH LAS VEGAS, NV, 89085","Match","Exact","4408 OASIS HILL AVE, N LAS VEGAS, NV, 89085",636834190,"R"
214172,"4408 OLD ROAD 37","LAKELAND","FL",33813,27.985278237,-81.960922247,172,"4408 OLD ROAD 37, LAKELAND, FL, 33813","Match","Exact","4408 OLD RD 37, LAKELAND, FL, 33813",104812363,"L"
214173,"4408 PASEO BLVD","KANSAS CITY","MO",64110,39.0466698000001,-94.568035878,173,"4408 PASEO BLVD, KANSAS CITY, MO, 64110","Match","Exact","4408 PASEO BLVD, KANSAS CITY, MO, 64110",91448015,"R"
214174,"4408 SAINT ANDREWS CIR","LAS VEGAS","NV",89107,36.17951957,-115.199912058,174,"4408 SAINT ANDREWS CIR, LAS VEGAS, NV, 89107","Match","Exact","4408 ST ANDREWS CIR, LAS VEGAS, NV, 89107",201860995,"R"
214175,"4408 SANTO TOMAS DRIVE UNIT C","LOS ANGELES","CA",90008,34.0115379000001,-118.348926313,175,"4408 SANTO TOMAS DRIVE UNIT C, LOS ANGELES, CA, 90008","Match","Exact","4408 SANTO TOMAS DR, LOS ANGELES, CA, 90008",141602294,"L"
214176,"4408 SILVER VALLEY DR","COLUMBIA","MO",65203,38.9073690590001,-92.398715835,176,"4408 SILVER VALLEY DR, COLUMBIA, MO, 65203","Match","Exact","4408 SILVER VALLEY DR, COLUMBIA, MO, 65203",627685039,"L"
214177,"4408 SMILING HILLS COURT","CLEBURNE","TX",76031,32.4491213530001,-97.311120366,177,"4408 SMILING HILLS COURT, CLEBURNE, TX, 76031","Match","Exact","4408 SMILING HILLS CT, CLEBURNE, TX, 76031",103542569,"R"
214178,"4408 SOUTHWESTERN BLVD","DALLAS","TX",75225,32.8569375500001,-96.810588345,178,"4408 SOUTHWESTERN BLVD, DALLAS, TX, 75225","Match","Exact","4408 SOUTHWESTERN BLVD, DALLAS, TX, 75225",102906051,"R"
214179,"4408 SPRINGHURST DR","PLANO","TX",75074,33.037481819,-96.643408863,179,"4408 SPRINGHURST DR, PLANO, TX, 75074","Match","Exact","4408 SPRINGHURST DR, PLANO, TX, 75074",646824222,"R"
214180,"4408 TRUXEL ROAD APT 25","SACRAMENTO","CA",95834,38.649960439,-121.509861187,180,"4408 TRUXEL ROAD APT 25, SACRAMENTO, CA, 95834","Match","Exact","4408 TRUXEL RD, SACRAMENTO, CA, 95834",618062572,"L"
214181,"4408 WESTMINISTER DRIVE","DALLAS","TX",75038,32.864700365,-96.979475017,181,"4408 WESTMINISTER DRIVE, DALLAS, TX, 75038","Match","Non_Exact","4408 WESTMINISTER DR, IRVING, TX, 75038",102886298,"R"
214182,"4408 WESTMINISTER DRIVE","IRVING","TX",75038,32.864700365,-96.979475017,182,"4408 WESTMINISTER DRIVE, IRVING, TX, 75038","Match","Exact","4408 WESTMINISTER DR, IRVING, TX, 75038",102886298,"R"
214183,"4409 31ST AVENUE SOUTH","MINNEAPOLIS","MN",55406,44.922992148,-93.227033661,183,"4409 31ST AVENUE SOUTH, MINNEAPOLIS, MN, 55406","Match","Exact","4409 31ST AVE S, MINNEAPOLIS, MN, 55406",43640335,"L"
214184,"4409 51ST STREET","DES MOINES","IA",50310,41.6384831710001,-93.6884522239999,184,"4409 51ST STREET, DES MOINES, IA, 50310","Match","Exact","4409 51ST ST, DES MOINES, IA, 50310",65856158,"R"
214185,"4409 71ST ST","LUBBOCK","TX",79424,33.5288616920001,-101.907083611,185,"4409 71ST ST, LUBBOCK, TX, 79424","Match","Exact","4409 71ST ST, LUBBOCK, TX, 79424",185263066,"R"
214186,"4409 ARBORWOOD TRAIL","FORT WORTH","TX",76123,32.6067219350001,-97.38930361,186,"4409 ARBORWOOD TRAIL, FORT WORTH, TX, 76123","Match","Exact","4409 ARBORWOOD TRL, FORT WORTH, TX, 76123",102190216,"L"
214187,"4409 B CARONDELET STREET","NEW ORLEANS","LA",70115,29.927549737,-90.102452963,187,"4409 B CARONDELET STREET, NEW ORLEANS, LA, 70115","Match","Exact","4409 CARONDELET ST, NEW ORLEANS, LA, 70115",191711858,"R"
214188,"4409 BAKE AVE APT A","GREENSBORO","NC",27407,NA,NA,188,"4409 BAKE AVE APT A, GREENSBORO, NC, 27407","No_Match",NA,NA,NA,NA
214189,"4409 ELDORADO DRIVE","PLANO","TX",75093,33.023155381,-96.779518541,189,"4409 ELDORADO DRIVE, PLANO, TX, 75093","Match","Exact","4409 ELDORADO DR, PLANO, TX, 75093",123484624,"L"
214190,"4409 FAIRVIEW RIDGE LANE","APEX","NC",27539,35.6589786660001,-78.755493749,190,"4409 FAIRVIEW RIDGE LANE, APEX, NC, 27539","Match","Exact","4409 FAIRVIEW RIDGE LN, APEX, NC, 27539",612821993,"L"
214191,"4409 FOREST HILLS DR","CHARLOTTE","NC",28226,35.0992095130001,-80.8287159129999,191,"4409 FOREST HILLS DR, CHARLOTTE, NC, 28226","Match","Exact","4409 FOREST HILLS DR, CHARLOTTE, NC, 28226",70490924,"R"
214192,"4409 HIGHVIEW AVE","BALTIMORE","MD",21229,39.2637519040001,-76.69257305,192,"4409 HIGHVIEW AVE, BALTIMORE, MD, 21229","Match","Exact","4409 HIGHVIEW AVE, BALTIMORE, MD, 21229",191485816,"L"
214193,"4409 HOFFNER AVE STE 136","ORLANDO","FL",32812,28.480554586,-81.331583521,193,"4409 HOFFNER AVE STE 136, ORLANDO, FL, 32812","Match","Exact","4409 HOFFNER AVE, ORLANDO, FL, 32812",637646698,"L"
214194,"4409 HOFFNERAV STE 244","ORLANDO","FL",32812,NA,NA,194,"4409 HOFFNERAV STE 244, ORLANDO, FL, 32812","No_Match",NA,NA,NA,NA
214195,"4409 HOLMEHURST WAY","BOWIE","MD",20720,38.9489608710001,-76.80350487,195,"4409 HOLMEHURST WAY, BOWIE, MD, 20720","Match","Non_Exact","4409 HOLMEHURST WAY W, BOWIE, MD, 20720",76398495,"L"
214196,"4409 HORSESHOE CT","DECATUR","GA",30034,33.692591657,-84.207806669,196,"4409 HORSESHOE CT, DECATUR, GA, 30034","Match","Exact","4409 HORSESHOE CT, DECATUR, GA, 30034",23382231,"R"
214197,"4409 KEMPER AVE","CINCINNATI","OH",45217,39.1643172570001,-84.494320446,197,"4409 KEMPER AVE, CINCINNATI, OH, 45217","Match","Exact","4409 KEMPER AVE, CINCINNATI, OH, 45217",103925363,"L"
214198,"4409 LEONE CIR","MANHATTAN","KS",66503,39.1670691940001,-96.629517157,198,"4409 LEONE CIR, MANHATTAN, KS, 66503","Match","Exact","4409 LEONE CIR, MANHATTAN, KS, 66503",627551668,"R"
214199,"4409 MIDDLETON PL","LISLE","IL",60532,41.8053753140001,-88.0742770419999,199,"4409 MIDDLETON PL, LISLE, IL, 60532","Match","Exact","4409 MIDDLETON PL, LISLE, IL, 60532",112674448,"R"
214200,"4409 MILESTRIP RD STE 231","BLASDELL","NY",14085,42.789543527,-78.819740364,200,"4409 MILESTRIP RD STE 231, BLASDELL, NY, 14085","Match","Non_Exact","4409 MILESTRIP RD, BLASDELL, NY, 14219",48309412,"R"
214201,"4409 NW VALLEY VIEW RD","BLUE SPRINGS","MO",64015,39.0313642510001,-94.315321608,201,"4409 NW VALLEY VIEW RD, BLUE SPRINGS, MO, 64015","Match","Exact","4409 NW VALLEY VIEW RD, BLUE SPRINGS, MO, 64015",91471671,"L"
214202,"4409 PEDRO CARATINI PERLA DEL SUR","PONCE","PR",717,NA,NA,202,"4409 PEDRO CARATINI PERLA DEL SUR, PONCE, PR, 717","No_Match",NA,NA,NA,NA
214203,"4409 PENNYDALE DRIVE","GREENSBORO","NC",27407,36.039347584,-79.8680893759999,203,"4409 PENNYDALE DRIVE, GREENSBORO, NC, 27407","Match","Exact","4409 PENNYDALE DR, GREENSBORO, NC, 27407",131044693,"L"
214204,"4409 POTTS RD","LOUISVILLE","KY",40299,38.17797949,-85.503043411,204,"4409 POTTS RD, LOUISVILLE, KY, 40299","Match","Exact","4409 POTTS RD, LOUISVILLE, KY, 40299",96867870,"L"
214205,"4409 PRESTON HWY","LOUISVILLE","KY",40213,38.184599877,-85.722833619,205,"4409 PRESTON HWY, LOUISVILLE, KY, 40213","Match","Exact","4409 PRESTON HWY, LOUISVILLE, KY, 40213",649441772,"L"
214206,"4409 RAWLEY","HOUSTON","TX",77020,29.778994637,-95.3263346859999,206,"4409 RAWLEY, HOUSTON, TX, 77020","Match","Non_Exact","4409 RAWLEY ST, HOUSTON, TX, 77020",96079074,"L"
214207,"4409 REDGATE ROAD","NORCROSS","GA",30093,33.9279650620001,-84.145683386,207,"4409 REDGATE ROAD, NORCROSS, GA, 30093","Match","Exact","4409 REDGATE RD, NORCROSS, GA, 30093",88893977,"L"
214208,"4409 SALTILLO ST","WOODLAND HILLS","CA",91364,34.14992598,-118.594547121,208,"4409 SALTILLO ST, WOODLAND HILLS, CA, 91364","Match","Exact","4409 SALTILLO ST, WOODLAND HILLS, CA, 91364",241252908,"L"
214209,"4409 SENTRY STREET","COLUMBUS","GA",31907,32.4475450940001,-84.918670746,209,"4409 SENTRY STREET, COLUMBUS, GA, 31907","Match","Exact","4409 SENTRY ST, COLUMBUS, GA, 31907",98943067,"L"
214210,"4409 TRUMBULL DRIVE","BAKERSFIELD","CA",93314,35.3155288570001,-119.092882411,210,"4409 TRUMBULL DRIVE, BAKERSFIELD, CA, 93314","Match","Non_Exact","4409 TRUMBULL DR, BAKERSFIELD, CA, 93311",109572213,"R"
214211,"4409 W ADAMS BLVD","LOS ANGELES","CA",90016,34.0325841530001,-118.335405869,211,"4409 W ADAMS BLVD, LOS ANGELES, CA, 90016","Match","Exact","4409 W ADAMS BLVD, LOS ANGELES, CA, 90016",141602106,"R"
214212,"4409 WEST FRANKLIN ROAD","BOISE","ID",83705,43.6022144780001,-116.236656063,212,"4409 WEST FRANKLIN ROAD, BOISE, ID, 83705","Match","Non_Exact","4409 FRANKLIN RD, BOISE, ID, 83705",117863254,"L"
214213,"4409B CARONDELET STREET","NEW ORLEANS","LA",70115,29.927549737,-90.102452963,213,"4409B CARONDELET STREET, NEW ORLEANS, LA, 70115","Match","Exact","4409 CARONDELET ST, NEW ORLEANS, LA, 70115",191711858,"R"
214214,"441 33RD STREET NORTH 1114","ST PETERSBURG","FL",33713,27.7765240000001,-82.678152402,214,"441 33RD STREET NORTH 1114, ST PETERSBURG, FL, 33713","Match","Exact","441 33RD ST N, SAINT PETERSBURG, FL, 33713",124793574,"R"
214215,"441 3RD AVENUE - APT 4R","NEW YORK","NY",10016,40.7435425300001,-73.979702758,215,"441 3RD AVENUE - APT 4R, NEW YORK, NY, 10016","Match","Exact","441 3RD AVE, NEW YORK, NY, 10016",59654445,"R"
214216,"441 4TH ST","WASHINGTON","DC",20001,38.8953346760001,-77.016171674,216,"441 4TH ST, WASHINGTON, DC, 20001","Match","Non_Exact","441 4TH ST NW, WASHINGTON, DC, 20001",76226668,"R"
214217,"441 7TH ST","IMPERIAL BEACH","CA",91932,32.589612822,-117.117960323,217,"441 7TH ST, IMPERIAL BEACH, CA, 91932","Match","Exact","441 7TH ST, IMPERIAL BEACH, CA, 91932",195354818,"L"
214218,"441 ALAMEDA AVENUE","HALF MOON BAY","CA",94019,37.494314676,-122.458738286,218,"441 ALAMEDA AVENUE, HALF MOON BAY, CA, 94019","Match","Exact","441 ALAMEDA AVE, HALF MOON BAY, CA, 94019",192411632,"L"
214219,"441 B WHITE PINE DR","LAUREL PARK","NC",28739,35.3140659900001,-82.484601353,219,"441 B WHITE PINE DR, LAUREL PARK, NC, 28739","Match","Exact","441 WHITE PINE DR, LAUREL PARK, NC, 28739",152256736,"L"
214220,"441 BISCAYNE DRIVE","WILMINGTON","NC",28411,34.277827786,-77.795183309,220,"441 BISCAYNE DRIVE, WILMINGTON, NC, 28411","Match","Exact","441 BISCAYNE DR, WILMINGTON, NC, 28411",152736661,"L"
214221,"441 BOLTON STREET","MARLBOROUGH","MA",1752,42.3626175650001,-71.5531784359999,221,"441 BOLTON STREET, MARLBOROUGH, MA, 1752","Match","Exact","441 BOLTON ST, MARLBOROUGH, MA, 01752",87141168,"L"
214222,"441 CARLISLE DRIVE   SUITE A","HERNDON","VA",20170,38.9664638890001,-77.368948788,222,"441 CARLISLE DRIVE   SUITE A, HERNDON, VA, 20170","Match","Exact","441 CARLISLE DR, HERNDON, VA, 20170",638155944,"L"
214223,"441 CARSON AVE","DEPTFORD","NJ",8096,39.8394170760001,-75.136889481,223,"441 CARSON AVE, DEPTFORD, NJ, 8096","Match","Exact","441 CARSON AVE, DEPTFORD, NJ, 08096",134583618,"R"
214224,"441 CENTRAL PARK AVE 114","SCARSDALE","NY",10583,41.0068565970001,-73.810644989,224,"441 CENTRAL PARK AVE 114, SCARSDALE, NY, 10583","Match","Exact","441 CENTRAL PARK AVE, SCARSDALE, NY, 10583",139802854,"L"
214225,"441 CENTRAL PARK AVE UNIT 353","SCARSDALE","NY",10583,41.0068565970001,-73.810644989,225,"441 CENTRAL PARK AVE UNIT 353, SCARSDALE, NY, 10583","Match","Exact","441 CENTRAL PARK AVE, SCARSDALE, NY, 10583",139802854,"L"
214226,"441 CENTRAL PARK AVENUE 686","HARTSDALE","NY",10530,NA,NA,226,"441 CENTRAL PARK AVENUE 686, HARTSDALE, NY, 10530","No_Match",NA,NA,NA,NA
214227,"441 CHESTNUT AVE","SAN BRUNO","CA",94066,37.6185233470001,-122.418460027,227,"441 CHESTNUT AVE, SAN BRUNO, CA, 94066","Match","Exact","441 CHESTNUT AVE, SAN BRUNO, CA, 94066",192373955,"L"
214228,"441 CLUBHOUSE ROAD","CRESCENT","OK",73028,NA,NA,228,"441 CLUBHOUSE ROAD, CRESCENT, OK, 73028","No_Match",NA,NA,NA,NA
214229,"441 CONVENT AVENUE SUITE 4D","NEW YORK","NY",10031,40.827297093,-73.944280369,229,"441 CONVENT AVENUE SUITE 4D, NEW YORK, NY, 10031","Match","Exact","441 CONVENT AVE, NEW YORK, NY, 10031",59656214,"R"
214230,"441 COUNTRY CLUB RD YORK COL CAREER","YORK","PA",17403,39.945678064,-76.7284418679999,230,"441 COUNTRY CLUB RD YORK COL CAREER, YORK, PA, 17403","Match","Exact","441 COUNTRY CLUB RD, YORK, PA, 17403",628808116,"R"
214231,"441 E CARSON STREET SUITE J","CARSON","CA",90745,NA,NA,231,"441 E CARSON STREET SUITE J, CARSON, CA, 90745","Tie",NA,NA,NA,NA
214232,"441 E MARKET ST","CELINA","OH",45822,40.5490930760001,-84.5658105539999,232,"441 E MARKET ST, CELINA, OH, 45822","Match","Exact","441 E MARKET ST, CELINA, OH, 45822",615613656,"R"
214233,"441 EAST PLYMOUTH STREET","LONG BEACH","CA",90805,33.853339453,-118.187335877,233,"441 EAST PLYMOUTH STREET, LONG BEACH, CA, 90805","Match","Exact","441 E PLYMOUTH ST, LONG BEACH, CA, 90805",141684400,"L"
214234,"441 EAST TROPICAL WAY","PLANTATION","FL",33317,26.114604812,-80.2347713789999,234,"441 EAST TROPICAL WAY, PLANTATION, FL, 33317","Match","Exact","441 E TROPICAL WAY, PLANTATION, FL, 33317",114705180,"R"
214235,"441 ELI RD","LITTLE CANADA","MN",55117,45.0253157540001,-93.083650645,235,"441 ELI RD, LITTLE CANADA, MN, 55117","Match","Exact","441 ELI RD, LITTLE CANADA, MN, 55117",97649411,"L"
214236,"441 ELM AVENUE","HERSHEY","PA",17033,40.2751206780001,-76.653335474,236,"441 ELM AVENUE, HERSHEY, PA, 17033","Match","Exact","441 ELM AVE, HERSHEY, PA, 17033",70827234,"L"
214237,"441 FM 2821 RD E","HUNTSVILLE","TX",77320,30.742039924,-95.542712762,237,"441 FM 2821 RD E, HUNTSVILLE, TX, 77320","Match","Exact","441 FM 2821 RD E, HUNTSVILLE, TX, 77320",22196129,"R"
214238,"441 FOREST ROAD","MILLEDGEVILLE","GA",31061,33.09732052,-83.239529707,238,"441 FOREST ROAD, MILLEDGEVILLE, GA, 31061","Match","Exact","441 FOREST RD, MILLEDGEVILLE, GA, 31061",16582586,"L"
214239,"441 GARFIELD","WISCONSIN RAPIDS","WI",54494,44.387201562,-89.823970355,239,"441 GARFIELD, WISCONSIN RAPIDS, WI, 54494","Match","Non_Exact","441 GARFIELD ST, WISCONSIN RAPIDS, WI, 54494",51294338,"R"
214240,"441 GARRISON PLACE","VIRGINIA BEACH","VA",23452,36.825349653,-76.085204092,240,"441 GARRISON PLACE, VIRGINIA BEACH, VA, 23452","Match","Exact","441 GARRISON PL, VA BCH, VA, 23452",122267451,"R"
214241,"441 HASTINGS AVENUE","PORT TOWNSEND","WA",98368,48.12006145,-122.782185924,241,"441 HASTINGS AVENUE, PORT TOWNSEND, WA, 98368","Match","Exact","441 HASTINGS AVE, PORT TOWNSEND, WA, 98368",151991618,"L"
214242,"441 HAWTHORNE ROAD","LINTHICUM","MD",21090,39.203375383,-76.65977531,242,"441 HAWTHORNE ROAD, LINTHICUM, MD, 21090","Match","Exact","441 HAWTHORNE RD, LINTHICUM, MD, 21090",68155178,"L"
214243,"441 HORIZON DRIVE","EDISON","NJ",8817,40.5028628210001,-74.375938912,243,"441 HORIZON DRIVE, EDISON, NJ, 8817","Match","Exact","441 HORIZON DR, EDISON, NJ, 08817",60268549,"L"
214244,"441 JUNCTION CROSSING DRIVE","COLUMBUS","OH",43213,39.989570019,-82.832369859,244,"441 JUNCTION CROSSING DRIVE, COLUMBUS, OH, 43213","Match","Exact","441 JUNCTION CROSSING DR, COLUMBUS, OH, 43213",646933816,"R"
214245,"441 KEEBLER ROAD","KING OF PRUSSIA","PA",19406,40.100463846,-75.381621792,245,"441 KEEBLER ROAD, KING OF PRUSSIA, PA, 19406","Match","Exact","441 KEEBLER RD, KING OF PRUSSIA, PA, 19406",135070784,"R"
214246,"441 KENNEDY RD","LEEDS","MA",1053,42.352870528,-72.719384256,246,"441 KENNEDY RD, LEEDS, MA, 1053","Match","Exact","441 KENNEDY RD, LEEDS, MA, 01053",39872227,"R"
214247,"441 LA FLORESTA DR","BREA","CA",92823,33.9110850430001,-117.84808811,247,"441 LA FLORESTA DR, BREA, CA, 92823","Match","Exact","441 LA FLORESTA DR, BREA, CA, 92823",642191814,"R"
214248,"441 LAKE BOULEVARD","LINDENWOLD","NJ",8021,39.816290173,-75.009222612,248,"441 LAKE BOULEVARD, LINDENWOLD, NJ, 8021","Match","Exact","441 LAKE BLVD, LINDENWOLD, NJ, 08021",134360339,"R"
214249,"441 LAKE SHORE DRIVE","SUNSET BEACH","NC",28468,33.8851280260001,-78.521490504,249,"441 LAKE SHORE DRIVE, SUNSET BEACH, NC, 28468","Match","Exact","441 LAKE SHORE DR, SUNSET BEACH, NC, 28468",640626691,"L"
214250,"441 LANE 12","THERMOPOLIS","WY",82443,43.6046016600001,-108.238242721,250,"441 LANE 12, THERMOPOLIS, WY, 82443","Match","Non_Exact","441 LN 12, THERMOPOLIS, WY, 82443",607292972,"R"
214251,"441 MINOLA DRIVE","MIAMI SPRINGS","FL",33166,25.8128424660001,-80.275550233,251,"441 MINOLA DRIVE, MIAMI SPRINGS, FL, 33166","Match","Exact","441 MINOLA DR, MIAMI SPRINGS, FL, 33166",115999969,"L"
214252,"441 MITCHELL ROAD","PUT-IN-BAY","OH",43456,41.6488666230001,-82.827914108,252,"441 MITCHELL ROAD, PUT-IN-BAY, OH, 43456","Match","Exact","441 MITCHELL RD, PUT IN BAY, OH, 43456",44072724,"L"
214253,"441 MONTVIEW PL","PITTSBURGH","PA",15221,40.4348925800001,-79.878897804,253,"441 MONTVIEW PL, PITTSBURGH, PA, 15221","Match","Exact","441 MONTVIEW PL, PITTSBURGH, PA, 15221",51816831,"L"
214254,"441 N COUNTRY LANE","FOND DU LAC","WI",54935,43.7900973180001,-88.405558753,254,"441 N COUNTRY LANE, FOND DU LAC, WI, 54935","Match","Exact","441 COUNTRY LN, FOND DU LAC, WI, 54935",74858878,"R"
214255,"441 N GRAND AVE    SUITE 7","NOGALES","AZ",85621,31.339798892,-110.939199218,255,"441 N GRAND AVE    SUITE 7, NOGALES, AZ, 85621","Match","Non_Exact","441 N GRAND AVE, NOGALES, AZ, 85621",120861848,"L"
214256,"441 N HARBOR CITY BLVD - C18","MELBOURNE","FL",32935,28.1157408180001,-80.6221883599999,256,"441 N HARBOR CITY BLVD - C18, MELBOURNE, FL, 32935","Match","Non_Exact","441 N HARBOR CITY BLVD, MELBOURNE, FL, 32935",93955280,"R"
214257,"441 N OCOSTA ST  PO BOX 1997","WESTPORT","WA",98595,46.889757882,-124.105442139,257,"441 N OCOSTA ST  PO BOX 1997, WESTPORT, WA, 98595","Match","Non_Exact","441 N OCOSTA ST, WESTPORT, WA, 98595",648534883,"R"
214258,"441 N RENSSELAER","GRIFFITH","IN",46319,NA,NA,258,"441 N RENSSELAER, GRIFFITH, IN, 46319","Tie",NA,NA,NA,NA
214259,"441 NE 115 STREET","MIAMI","FL",33161,25.880487553,-80.189289773,259,"441 NE 115 STREET, MIAMI, FL, 33161","Match","Non_Exact","441 NE 115TH ST, MIAMI, FL, 33161",116034679,"L"
214260,"441 NE 52ND ST","MIAMI","FL",33137,25.8236784650001,-80.185940576,260,"441 NE 52ND ST, MIAMI, FL, 33137","Match","Exact","441 NE 52ND ST, MIAMI, FL, 33137",116007835,"L"
214261,"441 NE 52ND STREET","MIAMI","FL",33137,25.8236784650001,-80.185940576,261,"441 NE 52ND STREET, MIAMI, FL, 33137","Match","Exact","441 NE 52ND ST, MIAMI, FL, 33137",116007835,"L"
214262,"441 NEPTUNE DRIVE NE","PALM BAY","FL",32907,28.017073103,-80.660299649,262,"441 NEPTUNE DRIVE NE, PALM BAY, FL, 32907","Match","Non_Exact","441 NEPTUNE DR, PALM BAY, FL, 32907",93907273,"L"
214263,"441 NEW KARNER ROAD","ALBANY","NY",12205,42.7340067370001,-73.847891034,263,"441 NEW KARNER ROAD, ALBANY, NY, 12205","Match","Exact","441 NEW KARNER RD, ALBANY, NY, 12205",18302833,"R"
214264,"441 NORTH LEE ST","ALEXANDRIA","VA",22314,38.808266858,-77.040630414,264,"441 NORTH LEE ST, ALEXANDRIA, VA, 22314","Match","Exact","441 N LEE ST, ALEXANDRIA, VA, 22314",75991767,"R"
214265,"441 NORTH POINSETT HIGHWAY","TRAVELERS REST","SC",29690,34.9744106700001,-82.4310718959999,265,"441 NORTH POINSETT HIGHWAY, TRAVELERS REST, SC, 29690","Match","Exact","441 N POINSETT HWY, TRAVELERS REST, SC, 29690",38297028,"L"
214266,"441 NORTHCLIFF CT","ORANGE PARK","FL",32065,30.1863862600001,-81.8113718289999,266,"441 NORTHCLIFF CT, ORANGE PARK, FL, 32065","Match","Exact","441 NORTHCLIFF CT, ORANGE PARK, FL, 32065",83836324,"L"
214267,"441 OAKDALE AVE","TOLEDO","OH",43605,41.6217542750001,-83.5231917359999,267,"441 OAKDALE AVE, TOLEDO, OH, 43605","Match","Exact","441 OAKDALE AVE, TOLEDO, OH, 43605",33945821,"L"
214268,"441 OCEAN AVE APT 5K","BROOKLYN","NY",11226,40.651952995,-73.961356865,268,"441 OCEAN AVE APT 5K, BROOKLYN, NY, 11226","Match","Exact","441 OCEAN AVE, BROOKLYN, NY, 11226",59080951,"L"
214269,"441 PFISTER RD","JACKSON","NJ",8527,40.1644700470001,-74.2741381869999,269,"441 PFISTER RD, JACKSON, NJ, 8527","Match","Exact","441 PFISTER RD, JACKSON, NJ, 08527",203717029,"L"
214270,"441 PINELLAS STREET","BIRMINGHAM","AL",35206,33.5736190850001,-86.6982250139999,270,"441 PINELLAS STREET, BIRMINGHAM, AL, 35206","Match","Exact","441 PINELLAS ST, BIRMINGHAM, AL, 35206",81672580,"R"
214271,"441 PLEADES PLACE","ERIE","CO",80516,40.0497006940001,-105.032667465,271,"441 PLEADES PLACE, ERIE, CO, 80516","Match","Exact","441 PLEADES PL, ERIE, CO, 80516",645924290,"R"
214272,"441 POPPY AVENUE","MACON","GA",31204,32.8271180840001,-83.666985618,272,"441 POPPY AVENUE, MACON, GA, 31204","Match","Exact","441 POPPY AVE, MACON, GA, 31204",81059733,"R"
214273,"441 PRATT STREET","BUFFALO","NY",14204,42.8924236930001,-78.860345267,273,"441 PRATT STREET, BUFFALO, NY, 14204","Match","Exact","441 PRATT ST, BUFFALO, NY, 14204",48290976,"R"
214274,"441 RADCLIFFE STREET","WYCOFF","NJ",7481,40.981044678,-74.147722228,274,"441 RADCLIFFE STREET, WYCOFF, NJ, 7481","Match","Non_Exact","441 RADCLIFFE ST, WYCKOFF, NJ, 07481",64404802,"L"
214275,"441 S 1100 W","FARMINGTON","UT",84025,40.9739770740001,-111.911395959,275,"441 S 1100 W, FARMINGTON, UT, 84025","Match","Exact","441 S 1100 W, FARMINGTON, UT, 84025",619730778,"L"
214276,"441 S CRAIG PLACE","LOMBARD","IL",60148,41.8796573230001,-88.012474625,276,"441 S CRAIG PLACE, LOMBARD, IL, 60148","Match","Exact","441 S CRAIG PL, LOMBARD, IL, 60148",112524841,"L"
214277,"441 S MAPLE UNIT 78","MESA","AZ",85206,33.4061743460001,-111.748121422,277,"441 S MAPLE UNIT 78, MESA, AZ, 85206","Match","Non_Exact","441 S MAPLE, MESA, AZ, 85206",128249052,"L"
214278,"441 S PINE ST","CANBY","OR",97013,45.261316562,-122.680405643,278,"441 S PINE ST, CANBY, OR, 97013","Match","Exact","441 S PINE ST, CANBY, OR, 97013",639779060,"L"
214279,"441 S STATE ROAD 7 SUITE 15","MARGATE","FL",33068,NA,NA,279,"441 S STATE ROAD 7 SUITE 15, MARGATE, FL, 33068","No_Match",NA,NA,NA,NA
214280,"441 SALEM AVE APT A","WOODBURY","NJ",8096,39.8325307650001,-75.158251062,280,"441 SALEM AVE APT A, WOODBURY, NJ, 8096","Match","Exact","441 SALEM AVE, WOODBURY, NJ, 08096",134612214,"R"
214281,"441 SANTA ANNA DR","PALM SPRINGS","FL",33461,26.6417362460001,-80.098278158,281,"441 SANTA ANNA DR, PALM SPRINGS, FL, 33461","Match","Exact","441 SANTA ANNA DR, PALM SPRINGS, FL, 33461",115541401,"R"
214282,"441 SE 58TH PLACE","PORTLAND","OR",97215,NA,NA,282,"441 SE 58TH PLACE, PORTLAND, OR, 97215","No_Match",NA,NA,NA,NA
214283,"441 SECOND STREET SOUTH","WISCONSIN RAPIDS","WI",54494,44.389743675,-89.8268760079999,283,"441 SECOND STREET SOUTH, WISCONSIN RAPIDS, WI, 54494","Match","Exact","441 2ND ST S, WISCONSIN RAPIDS, WI, 54494",51285933,"R"
214284,"441 SLOAN CREEK PARKWAY","FAIRVIEW","TX",75069,33.148621043,-96.631545725,284,"441 SLOAN CREEK PARKWAY, FAIRVIEW, TX, 75069","Match","Exact","441 SLOAN CREEK PKWY, FAIRVIEW, TX, 75069",601176191,"R"
214285,"441 SLOAN DR","CORONA","CA",92879,33.892418895,-117.511353437,285,"441 SLOAN DR, CORONA, CA, 92879","Match","Exact","441 SLOAN DR, CORONA, CA, 92879",194793234,"L"
214286,"441 SOUTH BEVERLY DRIVE SUITE 2","BEVERLY HILLS","CA",90212,34.058861048,-118.39800931,286,"441 SOUTH BEVERLY DRIVE SUITE 2, BEVERLY HILLS, CA, 90212","Match","Exact","441 S BEVERLY DR, BEVERLY HILLS, CA, 90212",142719147,"R"
214287,"441 SPRING HOLLOW DRIVE","MIDDLETOWN","DE",19709,39.4691638740001,-75.704274626,287,"441 SPRING HOLLOW DRIVE, MIDDLETOWN, DE, 19709","Match","Exact","441 SPRING HOLLOW DR, MIDDLETOWN, DE, 19709",648962305,"R"
214288,"441 STONEMONT WAY","STANLEY","NC",28164,35.437273616,-80.9919197689999,288,"441 STONEMONT WAY, STANLEY, NC, 28164","Match","Exact","441 STONEMONT WAY, STANLEY, NC, 28164",69539081,"R"
214289,"441 TOMLINSON ROAD G1","PHILADELPHIA","PA",19116,40.1156594780001,-75.027900506,289,"441 TOMLINSON ROAD G1, PHILADELPHIA, PA, 19116","Match","Exact","441 TOMLINSON RD, PHILADELPHIA, PA, 19116",649366133,"L"
214290,"441 TYLER DRIVE","HERMITAGE","TN",37076,36.198856305,-86.612479945,290,"441 TYLER DRIVE, HERMITAGE, TN, 37076","Match","Exact","441 TYLER DR, HERMITAGE, TN, 37076",97199160,"L"
214291,"441 VIA CASITAS APT 12","GREEBRAE","CA",94904,37.9468725680001,-122.530770271,291,"441 VIA CASITAS APT 12, GREEBRAE, CA, 94904","Match","Non_Exact","441 VIA CASITAS, GREENBRAE, CA, 94904",629148157,"L"
214292,"441 VINCENT ST","CEDAR HILL","TX",75104,32.58365078,-96.93742503,292,"441 VINCENT ST, CEDAR HILL, TX, 75104","Match","Exact","441 VINCENT ST, CEDAR HILL, TX, 75104",102997881,"R"
214293,"441 W 400 S","PROVO","UT",84601,40.228392108,-111.666478701,293,"441 W 400 S, PROVO, UT, 84601","Match","Exact","441 W 400 S, PROVO, UT, 84601",134209359,"L"
214294,"441 W ADAMS ST","ORLEANS","IN",47452,38.6648085570001,-86.4577318779999,294,"441 W ADAMS ST, ORLEANS, IN, 47452","Match","Exact","441 W ADAMS ST, ORLEANS, IN, 47452",32138977,"R"
214295,"441 W BAGLEY ROAD","BEREA","OH",44017,41.372202718,-81.86847062,295,"441 W BAGLEY ROAD, BEREA, OH, 44017","Match","Exact","441 W BAGLEY RD, BEREA, OH, 44017",61099458,"L"
214296,"441 W BONNER RD","WAUCONDA","IL",60084,42.2775911790001,-88.154348479,296,"441 W BONNER RD, WAUCONDA, IL, 60084","Match","Exact","441 W BONNER RD, WAUCONDA, IL, 60084",119695300,"L"
214297,"441 W DEARBORN STREET","ENGLEWOOD","FL",34223,26.96220794,-82.361967933,297,"441 W DEARBORN STREET, ENGLEWOOD, FL, 34223","Match","Exact","441 W DEARBORN ST, ENGLEWOOD, FL, 34223",636396820,"L"
214298,"441 W LEXINGTON ST","MINDEN","NE",68959,40.4929770730001,-98.9558110999999,298,"441 W LEXINGTON ST, MINDEN, NE, 68959","Match","Exact","441 W LEXINGTON ST, MINDEN, NE, 68959",138101720,"L"
214299,"441 W PLUMB LANE","RENO","NV",89509,39.5055818290001,-119.814171127,299,"441 W PLUMB LANE, RENO, NV, 89509","Match","Exact","441 W PLUMB LN, RENO, NV, 89509",647899573,"R"
214300,"441 WALNUT CREEK DR","STOCKBRIDGE","GA",30281,33.4724199240001,-84.230403988,300,"441 WALNUT CREEK DR, STOCKBRIDGE, GA, 30281","Match","Exact","441 WALNUT CREEK DR, STOCKBRIDGE, GA, 30281",23196058,"R"
214301,"441 WEATHERSFIELD AVE","ALTAMONTE SPRINGS","FL",32714,28.6558276110001,-81.407265619,301,"441 WEATHERSFIELD AVE, ALTAMONTE SPRINGS, FL, 32714","Match","Exact","441 WEATHERSFIELD AVE, ALTAMONTE SPRINGS, FL, 32714",93763160,"R"
214302,"441 WELSHWOOD DRIVE APT 116G","NASHVILLE","TN",37211,36.082911756,-86.73169282,302,"441 WELSHWOOD DRIVE APT 116G, NASHVILLE, TN, 37211","Match","Exact","441 WELSHWOOD DR, NASHVILLE, TN, 37211",639347656,"R"
214303,"441 WELSHWOOD DRIVE","NASHVILLE","TN",37211,36.082911756,-86.73169282,303,"441 WELSHWOOD DRIVE, NASHVILLE, TN, 37211","Match","Exact","441 WELSHWOOD DR, NASHVILLE, TN, 37211",639347656,"R"
214304,"441 WEST 12300 SOUTH SUITE 106","DRAPER","UT",84020,40.5268215660001,-111.903660833,304,"441 WEST 12300 SOUTH SUITE 106, DRAPER, UT, 84020","Match","Exact","441 W 12300 S, DRAPER, UT, 84020",176153475,"L"
214305,"441 WEST LEXINGTON ST","MINDEN","NE",68959,40.492977045,-98.955802515,305,"441 WEST LEXINGTON ST, MINDEN, NE, 68959","Match","Exact","441 W LEXINGTON ST, MINDEN, NE, 68959",138101720,"L"
214306,"441 WEST WILLIAMS STREET","APEX","NC",27502,35.7302953130001,-78.8594487789999,306,"441 WEST WILLIAMS STREET, APEX, NC, 27502","Match","Exact","441 W WILLIAMS ST, APEX, NC, 27502",208377611,"L"
214307,"441 WILLIAMS RD","SALINAS","CA",93905,36.678067888,-121.609804228,307,"441 WILLIAMS RD, SALINAS, CA, 93905","Match","Exact","441 WILLIAMS RD, SALINAS, CA, 93905",196824453,"L"
214308,"441 YESHIVA LANE APT 3B","BALTIMORE","MD",21208,39.387820676,-76.752646222,308,"441 YESHIVA LANE APT 3B, BALTIMORE, MD, 21208","Match","Exact","441 YESHIVA LN, BALTIMORE, MD, 21208",191570014,"L"
214309,"441-C EAST CLEMMONSVILLE ROAD","WINSTON-SALEM","NC",27107,36.049389396,-80.228554237,309,"441-C EAST CLEMMONSVILLE ROAD, WINSTON-SALEM, NC, 27107","Match","Exact","441 E CLEMMONSVILLE RD, WINSTON SALEM, NC, 27107",84639318,"L"
214310,"4410 39TH STREET","BRENTWOOD","MD",20722,38.944366883,-76.955396965,310,"4410 39TH STREET, BRENTWOOD, MD, 20722","Match","Exact","4410 39TH ST, BRENTWOOD, MD, 20722",76304588,"L"
214311,"4410 BRAEBURN DR","FAIRFAX","VA",22032,38.8273281360001,-77.2617018399999,311,"4410 BRAEBURN DR, FAIRFAX, VA, 22032","Match","Exact","4410 BRAEBURN DR, FAIRFAX, VA, 22032",75970515,"R"
214312,"4410 CADMIUM DR","CUMMING","GA",30040,34.2159573650001,-84.234528153,312,"4410 CADMIUM DR, CUMMING, GA, 30040","Match","Exact","4410 CADMIUM DR, CUMMING, GA, 30040",637538932,"R"
214313,"4410 CAMERINO ST","LAKEWOOD","CA",90712,33.8547977700001,-118.139921225,313,"4410 CAMERINO ST, LAKEWOOD, CA, 90712","Match","Exact","4410 CAMERINO ST, LAKEWOOD, CA, 90712",141699667,"R"
214314,"4410 CHESTNUT STREET","CAMP HILL","PA",17011,40.235667129,-76.957849487,314,"4410 CHESTNUT STREET, CAMP HILL, PA, 17011","Match","Exact","4410 CHESTNUT ST, CAMP HILL, PA, 17011",60943120,"L"
214315,"4410 E INDEPENDENCE BLVD","CHARLOTTE","NC",28205,35.195466778,-80.767003869,315,"4410 E INDEPENDENCE BLVD, CHARLOTTE, NC, 28205","Match","Exact","4410 E INDEPENDENCE BLVD, CHARLOTTE, NC, 28205",70492307,"R"
214316,"4410 HANOVER DR","GARLAND","TX",75042,32.9218774770001,-96.6983713069999,316,"4410 HANOVER DR, GARLAND, TX, 75042","Match","Exact","4410 HANOVER DR, GARLAND, TX, 75042",103208712,"L"
214317,"4410 LAMONT ST","SAN DIEGO","CA",92109,32.7993166690001,-117.234822369,317,"4410 LAMONT ST, SAN DIEGO, CA, 92109","Match","Exact","4410 LAMONT ST, SAN DIEGO, CA, 92109",612858316,"L"
214318,"4410 LAUREL TWIG COURT","CHARLOTTE","NC",28215,35.242748385,-80.643307513,318,"4410 LAUREL TWIG COURT, CHARLOTTE, NC, 28215","Match","Exact","4410 LAUREL TWIG CT, CHARLOTTE, NC, 28215",70518156,"L"
214319,"4410 LINDEN DRIVE","MIDLAND","MI",48640,43.6380718140001,-84.248141205,319,"4410 LINDEN DRIVE, MIDLAND, MI, 48640","Match","Exact","4410 LINDEN DR, MIDLAND, MI, 48640",81193080,"R"
214320,"4410 LOS ANGELES STREET","HOUSTON","TX",77026,29.800648865,-95.32712681,320,"4410 LOS ANGELES STREET, HOUSTON, TX, 77026","Match","Exact","4410 LOS ANGELES ST, HOUSTON, TX, 77026",96636823,"R"
214321,"4410 LOWER APALACHEE ROAD","MADISON","GA",30650,33.6791209370001,-83.4206640419999,321,"4410 LOWER APALACHEE ROAD, MADISON, GA, 30650","Match","Exact","4410 LOWER APALACHEE RD, MADISON, GA, 30650",637386453,"L"
214322,"4410 MAGNOLIA ST","BEAUMONT","TX",77703,30.1222283820001,-94.116672938,322,"4410 MAGNOLIA ST, BEAUMONT, TX, 77703","Match","Exact","4410 MAGNOLIA ST, BEAUMONT, TX, 77703",73850680,"R"
214323,"4410 MASSACHUSETTS AVE NW STE 399","WASHINGTON","DC",20014,38.9388785150001,-77.087224675,323,"4410 MASSACHUSETTS AVE NW STE 399, WASHINGTON, DC, 20014","Match","Non_Exact","4410 MASSACHUSETTS AVE NW, WASHINGTON, DC, 20016",636882334,"L"
214324,"4410 N 36TH ST","OMAHA","NE",68111,41.2987156450001,-95.9661776139999,324,"4410 N 36TH ST, OMAHA, NE, 68111","Match","Exact","4410 N 36TH ST, OMAHA, NE, 68111",636296619,"L"
214325,"4410 N 76TH ST","MILWAUKEE","WI",53218,43.0975235610001,-88.007077271,325,"4410 N 76TH ST, MILWAUKEE, WI, 53218","Match","Exact","4410 N 76TH ST, MILWAUKEE, WI, 53218",77730179,"R"
214326,"4410 NE 65TH AVE","PORTLAND","OR",97218,45.554728401,-122.596261435,326,"4410 NE 65TH AVE, PORTLAND, OR, 97218","Match","Exact","4410 NE 65TH AVE, PORTLAND, OR, 97218",157512592,"R"
214327,"4410 NORTH OJAI ROAD","SANTA PAULA","CA",93060,34.386481502,-119.071962842,327,"4410 NORTH OJAI ROAD, SANTA PAULA, CA, 93060","Match","Non_Exact","4410 OJAI RD, SANTA PAULA, CA, 93060",110023411,"R"
214328,"4410 PINE DRIVE","BENTON","AR",72019,34.6347996170001,-92.5029902379999,328,"4410 PINE DRIVE, BENTON, AR, 72019","Match","Exact","4410 PINE DR, BENTON, AR, 72019",24189737,"R"
214329,"4410 POLO GROUNDS COURT","SPRING","TX",77389,NA,NA,329,"4410 POLO GROUNDS COURT, SPRING, TX, 77389","No_Match",NA,NA,NA,NA
214330,"4410 PROSPECT AVE","LOS ANGELES","CA",90027,34.101791179,-118.286003246,330,"4410 PROSPECT AVE, LOS ANGELES, CA, 90027","Match","Exact","4410 PROSPECT AVE, LOS ANGELES, CA, 90027",141597624,"L"
214331,"4410 REGALWOOD TERR","BURTONSVILLE","MD",20866,39.0998535260001,-76.919393755,331,"4410 REGALWOOD TERR, BURTONSVILLE, MD, 20866","Match","Exact","4410 REGALWOOD TER, BURTONSVILLE, MD, 20866",62105214,"R"
214332,"4410 SE WOODSTOCK BLVD SUITE 250","PORTLAND","OR",97206,45.479171256,-122.615561539,332,"4410 SE WOODSTOCK BLVD SUITE 250, PORTLAND, OR, 97206","Match","Non_Exact","4410 SE WOODSTOCK BLVD, PORTLAND, OR, 97206",157515369,"R"
214333,"4410 STAMP ROAD","TEMPLE HILLS","MD",20748,38.8274732630001,-76.9437233039999,333,"4410 STAMP ROAD, TEMPLE HILLS, MD, 20748","Match","Exact","4410 STAMP RD, TEMPLE HILLS, MD, 20748",76358665,"L"
214334,"4410 W UNION HILLS DR STE 7-187","GLENDALE","AZ",85308,33.654600299,-112.154217347,334,"4410 W UNION HILLS DR STE 7-187, GLENDALE, AZ, 85308","Match","Non_Exact","4410 W UNION HILLS DR, GLENDALE, AZ, 85308",128913703,"R"
214335,"44100 CRESTVIEW RD STE A","COLUMBIANA","OH",44408,40.842203306,-80.667569519,335,"44100 CRESTVIEW RD STE A, COLUMBIANA, OH, 44408","Match","Exact","44100 CRESTVIEW RD, COLUMBIANA, OH, 44408",647817606,"R"
214336,"44103 WEST OSTER DRIVE","MARICOPA","AZ",85138,33.061317086,-112.041757145,336,"44103 WEST OSTER DRIVE, MARICOPA, AZ, 85138","Match","Non_Exact","44103 OSTER DR, MARICOPA, AZ, 85138",639759204,"R"
214337,"44105 QUARTER STREET","LANCASTER","CA",93536,34.6838817820001,-118.218365326,337,"44105 QUARTER STREET, LANCASTER, CA, 93536","Match","Exact","44105 QUARTER ST, LANCASTER, CA, 93536",627015534,"R"
214338,"44106 W KRAMER LANE","MARICOPA","AZ",85138,33.0662957230001,-112.041851786,338,"44106 W KRAMER LANE, MARICOPA, AZ, 85138","Match","Exact","44106 KRAMER LN, MARICOPA, AZ, 85138",129255422,"L"
214339,"441094 E 320 RD","VINITA","OK",74301,36.5532372550001,-95.145768448,339,"441094 E 320 RD, VINITA, OK, 74301","Match","Exact","441094 E 320 RD, VINITA, OK, 74301",611948128,"L"
214340,"4410A VERMONT DR","DOVER","DE",19901,39.1050107040001,-75.503228773,340,"4410A VERMONT DR, DOVER, DE, 19901","Match","Exact","4410 VERMONT DR, DOVER, DE, 19901",68091972,"R"
214341,"4411 34TH AVENUE","MOLINE","IL",61265,41.478798112,-90.473614907,341,"4411 34TH AVENUE, MOLINE, IL, 61265","Match","Exact","4411 34TH AVE, MOLINE, IL, 61265",9225216,"L"
214342,"4411 41ST STREET","BRENTWOOD","MD",20722,38.9417176310001,-76.9509639459999,342,"4411 41ST STREET, BRENTWOOD, MD, 20722","Match","Exact","4411 41ST ST, BRENTWOOD, MD, 20722",76306012,"R"
214343,"4411 BEE RIDGE RD 172","SARASOTA","FL",34233,NA,NA,343,"4411 BEE RIDGE RD 172, SARASOTA, FL, 34233","No_Match",NA,NA,NA,NA
214344,"4411 BEE RIDGE RD","SARASOTA","FL",34233,27.2987421980001,-82.4803732829999,344,"4411 BEE RIDGE RD, SARASOTA, FL, 34233","Match","Exact","4411 BEE RIDGE RD, SARASOTA, FL, 34233",16356061,"L"
214345,"4411 CHATEAU ROAD","ORLANDO","FL",32808,28.573655027,-81.438594413,345,"4411 CHATEAU ROAD, ORLANDO, FL, 32808","Match","Exact","4411 CHATEAU RD, ORLANDO, FL, 32808",94330835,"R"
214346,"4411 CHERRY STREET","WINSTON-SALEM","NC",27105,36.148700191,-80.264841078,346,"4411 CHERRY STREET, WINSTON-SALEM, NC, 27105","Match","Non_Exact","4411 N CHERRY ST, WINSTON SALEM, NC, 27105",84688515,"R"
214347,"4411 CHURCH AVE APT 5K","BROOKLYN","NY",11203,40.651485726,-73.9360138499999,347,"4411 CHURCH AVE APT 5K, BROOKLYN, NY, 11203","Match","Exact","4411 CHURCH AVE, BROOKLYN, NY, 11203",59081907,"L"
214348,"4411 CLAYBROOKE DRIVE","LOTHIAN","MD",20711,38.842534093,-76.640442857,348,"4411 CLAYBROOKE DRIVE, LOTHIAN, MD, 20711","Match","Exact","4411 CLAYBROOKE DR, LOTHIAN, MD, 20711",68216130,"L"
214349,"4411 COUGAR LN","MAYWOOD","MO",63454,39.9441129530001,-91.6351309039999,349,"4411 COUGAR LN, MAYWOOD, MO, 63454","Match","Exact","4411 COUGAR LN, MAYWOOD, MO, 63454",35343115,"L"
214350,"4411 COXEYVILLE RD","COLUMBIA","IL",62236,38.386714452,-90.15783984,350,"4411 COXEYVILLE RD, COLUMBIA, IL, 62236","Match","Exact","4411 COXEYVILLE RD, COLUMBIA, IL, 62236",116448867,"L"
214351,"4411 E SORREL AVE","SPOKANE","WA",99217,47.757299926,-117.345938001,351,"4411 E SORREL AVE, SPOKANE, WA, 99217","Match","Exact","4411 E SORREL AVE, SPOKANE, WA, 99217",189915085,"R"
214352,"4411 EAST 72ND PLACE","TULSA","OK",74136,36.058194326,-95.924893302,352,"4411 EAST 72ND PLACE, TULSA, OK, 74136","Match","Exact","4411 E 72ND PL, TULSA, OK, 74136",166451863,"L"
214353,"4411 FOX FARM RD","MISSOULA","MT",59802,46.9053073010001,-113.968626255,353,"4411 FOX FARM RD, MISSOULA, MT, 59802","Match","Exact","4411 FOX FARM RD, MISSOULA, MT, 59802",205236129,"L"
214354,"4411 GALVESTON AVE","DICKINSON","TX",77539,29.4606845530001,-95.0425680289999,354,"4411 GALVESTON AVE, DICKINSON, TX, 77539","Match","Exact","4411 GALVESTON AVE, DICKINSON, TX, 77539",96674403,"L"
214355,"4411 HARBOR LAKES PARKWAY","FAIRBURN","GA",30213,NA,NA,355,"4411 HARBOR LAKES PARKWAY, FAIRBURN, GA, 30213","No_Match",NA,NA,NA,NA
214356,"4411 HILLVIEW WAY","MISSOULA","MT",59801,46.8293215080001,-114.020659755,356,"4411 HILLVIEW WAY, MISSOULA, MT, 59801","Match","Non_Exact","4411 HILLVIEW WAY, MISSOULA, MT, 59803",205278542,"R"
214357,"4411 HOLBROOK ROAD","RANDALLSTOWN","MD",21133,39.3921300160001,-76.850082669,357,"4411 HOLBROOK ROAD, RANDALLSTOWN, MD, 21133","Match","Exact","4411 HOLBROOK RD, RANDALLSTOWN, MD, 21133",624989184,"R"
214358,"4411 JAY COURT","MCALLEN","TX",78504,NA,NA,358,"4411 JAY COURT, MCALLEN, TX, 78504","Tie",NA,NA,NA,NA
214359,"4411 JIM BRANCH RD","KISSIMMEE","FL",34744,28.341650728,-81.263558076,359,"4411 JIM BRANCH RD, KISSIMMEE, FL, 34744","Match","Exact","4411 JIM BRANCH RD, KISSIMMEE, FL, 34744",640858144,"L"
214360,"4411 LUCILLE AVE","SOUTH EUCLID","OH",44121,41.527787512,-81.521344044,360,"4411 LUCILLE AVE, SOUTH EUCLID, OH, 44121","Match","Non_Exact","4411 LUCILLE RD, SOUTH EUCLID, OH, 44121",61124836,"L"
214361,"4411 MCLEOD NE SUITE A-2","ALBUQUERQUE","NM",87109,35.1389149340001,-106.59775845,361,"4411 MCLEOD NE SUITE A-2, ALBUQUERQUE, NM, 87109","Match","Non_Exact","4411 MCLEOD RD NE, ALBUQUERQUE, NM, 87109",206712367,"L"
214362,"4411 MORNINGSIDE ROAD","EDINA","MN",55416,44.9234342490001,-93.3386495029999,362,"4411 MORNINGSIDE ROAD, EDINA, MN, 55416","Match","Exact","4411 MORNINGSIDE RD, EDINA, MN, 55416",650107722,"L"
214363,"4411 PARK BLVD SUITE 203","SAN DIEGO","CA",92116,32.7579008800001,-117.14624815,363,"4411 PARK BLVD SUITE 203, SAN DIEGO, CA, 92116","Match","Exact","4411 PARK BLVD, SAN DIEGO, CA, 92116",612889969,"R"
214364,"4411 ROCKDALE LANE","UPPER MALBORO","MD",20772,38.82852525,-76.791372225,364,"4411 ROCKDALE LANE, UPPER MALBORO, MD, 20772","Match","Non_Exact","4411 ROCKDALE LN, UPPER MARLBORO, MD, 20772",76346977,"L"
214365,"4411 S KESSLER FREDERICK RD","WEST MILTON","OH",45383,39.9748115360001,-84.28684007,365,"4411 S KESSLER FREDERICK RD, WEST MILTON, OH, 45383","Match","Exact","4411 S KESSLER FREDERICK RD, WEST MILTON, OH, 45383",135324610,"R"
214366,"4411 S TABLERIDGE WAY","BOISE","ID",83716,43.562210366,-116.162650999,366,"4411 S TABLERIDGE WAY, BOISE, ID, 83716","Match","Exact","4411 S TABLERIDGE WAY, BOISE, ID, 83716",117973708,"R"
214367,"4411 SAVIERS ROAD","OXNARD","CA",93033,34.160135993,-119.177699128,367,"4411 SAVIERS ROAD, OXNARD, CA, 93033","Match","Exact","4411 SAVIERS RD, OXNARD, CA, 93033",625708239,"R"
214368,"4411 SEASHORE DRIVE","NEWPORT BEACH","CA",92663,33.620226464,-117.939262832,368,"4411 SEASHORE DRIVE, NEWPORT BEACH, CA, 92663","Match","Exact","4411 SEASHORE DR, NEWPORT BEACH, CA, 92663",609073069,"L"
214369,"4411 SKILLMAN ST","DALLAS","TX",75206,32.8403677470001,-96.761395485,369,"4411 SKILLMAN ST, DALLAS, TX, 75206","Match","Exact","4411 SKILLMAN ST, DALLAS, TX, 75206",102918412,"L"
214370,"4411 STONEHENGE RD","TAMPA","FL",33624,28.094438301,-82.51816408,370,"4411 STONEHENGE RD, TAMPA, FL, 33624","Match","Exact","4411 STONEHENGE RD, TAMPA, FL, 33624",104569716,"L"
214371,"4411 TENNESSEE AVE","CHATTANOOGA","TN",37409,35.001471951,-85.3276194709999,371,"4411 TENNESSEE AVE, CHATTANOOGA, TN, 37409","Match","Exact","4411 TENNESSEE AVE, CHATTANOOGA, TN, 37409",59312199,"R"
214372,"4411 VISTA GLEN CT","MANSFIELD","TX",76063,32.5755664910001,-97.066086781,372,"4411 VISTA GLEN CT, MANSFIELD, TX, 76063","Match","Exact","4411 VISTA GLEN CT, MANSFIELD, TX, 76063",618507195,"L"
214373,"4411 W LAWN AVE","TAMPA","FL",33611,27.9011875690001,-82.5205819,373,"4411 W LAWN AVE, TAMPA, FL, 33611","Match","Exact","4411 W LAWN AVE, TAMPA, FL, 33611",104527744,"R"
214374,"4411 WILLOW CREST LN","MANVEL","TX",77578,29.52985274,-95.39608112,374,"4411 WILLOW CREST LN, MANVEL, TX, 77578","Match","Exact","4411 WILLOW CREST LN, MANVEL, TX, 77578",651869820,"L"
214375,"44113 DATE AVE","LANCASTER","CA",93534,34.684722261,-118.139721606,375,"44113 DATE AVE, LANCASTER, CA, 93534","Match","Exact","44113 DATE AVE, LANCASTER, CA, 93534",141526780,"L"
214376,"44117 51ST STREET WEST","LANCASTER","CA",93536,NA,NA,376,"44117 51ST STREET WEST, LANCASTER, CA, 93536","No_Match",NA,NA,NA,NA
214377,"44117 SUNVIEW COURT","LANCASTER","CA",93535,34.6841772920001,-118.098237632,377,"44117 SUNVIEW COURT, LANCASTER, CA, 93535","Match","Exact","44117 SUNVIEW CT, LANCASTER, CA, 93535",141833043,"R"
214378,"4412 14TH STREET","LUBBOCK","TX",79416,33.5838764810001,-101.907093618,378,"4412 14TH STREET, LUBBOCK, TX, 79416","Match","Exact","4412 14TH ST, LUBBOCK, TX, 79416",185251047,"R"
214379,"4412 ARBORWOOD TRL","FORT WORTH","TX",76123,32.6067333120001,-97.389369532,379,"4412 ARBORWOOD TRL, FORT WORTH, TX, 76123","Match","Exact","4412 ARBORWOOD TRL, FORT WORTH, TX, 76123",102190216,"R"
214380,"4412 BEECHWOOD STREET","JACKSON","MS",39212,32.257831719,-90.290140136,380,"4412 BEECHWOOD STREET, JACKSON, MS, 39212","Match","Exact","4412 BEECHWOOD ST, JACKSON, MS, 39212",65364929,"R"
214381,"4412 BRITTANY TRAIL DR","CHAMPAIGN","IL",61822,40.0933869290001,-88.319564735,381,"4412 BRITTANY TRAIL DR, CHAMPAIGN, IL, 61822","Match","Exact","4412 BRITTANY TRAIL DR, CHAMPAIGN, IL, 61822",8847420,"R"
214382,"4412 BROTHERSVILLE RD","HEPHZIBAH","GA",30815,33.312975722,-82.097057091,382,"4412 BROTHERSVILLE RD, HEPHZIBAH, GA, 30815","Match","Exact","4412 BROTHERSVILLE RD, HEPHZIBAH, GA, 30815",55657410,"L"
214383,"4412 CHARLEMONT AVE","WOODLAND HILLS","CA",91364,34.1482524350001,-118.621942403,383,"4412 CHARLEMONT AVE, WOODLAND HILLS, CA, 91364","Match","Exact","4412 CHARLEMONT AVE, WOODLAND HILLS, CA, 91364",141535837,"R"
214384,"4412 COLE AVENUE APT C","DALLAS","TX",75205,32.820196851,-96.7904950669999,384,"4412 COLE AVENUE APT C, DALLAS, TX, 75205","Match","Exact","4412 COLE AVE, DALLAS, TX, 75205",102907888,"R"
214385,"4412 E MULBERRY 107","FORT COLLINS","CO",80524,NA,NA,385,"4412 E MULBERRY 107, FORT COLLINS, CO, 80524","No_Match",NA,NA,NA,NA
214386,"4412 EAGLE LANDING COURT","DE PERE","WI",54115,44.3453469570001,-88.141639932,386,"4412 EAGLE LANDING COURT, DE PERE, WI, 54115","Match","Exact","4412 EAGLE LANDING CT, DE PERE, WI, 54115",640737272,"R"
214387,"4412 FALLS BRIDGE DRIVE APT D","BALTIMORE","MD",21211,39.3420395160001,-76.645635177,387,"4412 FALLS BRIDGE DRIVE APT D, BALTIMORE, MD, 21211","Match","Exact","4412 FALLS BRIDGE DR, BALTIMORE, MD, 21211",206432664,"R"
214388,"4412 FIR STREET","GUADALUPE","CA",93434,34.9624607530001,-120.567842061,388,"4412 FIR STREET, GUADALUPE, CA, 93434","Match","Exact","4412 FIR ST, GUADALUPE, CA, 93434",108578454,"L"
214389,"4412 FOREST PARK DRIVE","JACKSON","MS",39211,32.353127085,-90.1390042259999,389,"4412 FOREST PARK DRIVE, JACKSON, MS, 39211","Match","Exact","4412 FOREST PARK DR, JACKSON, MS, 39211",65373361,"R"
214390,"4412 FULTON ST","RICHMOND","VA",23231,37.5197969930001,-77.4084878739999,390,"4412 FULTON ST, RICHMOND, VA, 23231","Match","Exact","4412 FULTON ST, RICHMOND, VA, 23231",201597695,"R"
214391,"4412 LAKE AVE","WILMINGTON","NC",28403,34.206973492,-77.890696544,391,"4412 LAKE AVE, WILMINGTON, NC, 28403","Match","Exact","4412 LAKE AVE, WILMINGTON, NC, 28403",636190809,"R"
214392,"4412 LANCELOT DR","NEW ORLEANS","LA",70127,30.015270339,-89.9846807449999,392,"4412 LANCELOT DR, NEW ORLEANS, LA, 70127","Match","Exact","4412 LANCELOT DR, NEW ORLEANS, LA, 70127",191721149,"L"
214393,"4412 LANDMARK RD","GROVEPORT","OH",43125,39.869087812,-82.8884968789999,393,"4412 LANDMARK RD, GROVEPORT, OH, 43125","Match","Exact","4412 LANDMARK RD, GROVEPORT, OH, 43125",218484178,"R"
214394,"4412 LIBERTY PKWY","SAVANNAH","GA",31405,32.046800176,-81.1383442109999,394,"4412 LIBERTY PKWY, SAVANNAH, GA, 31405","Match","Exact","4412 LIBERTY PKWY, SAVANNAH, GA, 31405",6172266,"L"
214395,"4412 LILY POND RD","ALBANY","GA",31721,NA,NA,395,"4412 LILY POND RD, ALBANY, GA, 31721","No_Match",NA,NA,NA,NA
214396,"4412 MORGAN AVE","LOS ANGELES","CA",90011,34.0036929710001,-118.24535476,396,"4412 MORGAN AVE, LOS ANGELES, CA, 90011","Match","Exact","4412 MORGAN AVE, LOS ANGELES, CA, 90011",141621282,"L"
214397,"4412 OLIVER STREET","HYATTSVILLE","MD",20781,38.961074599,-76.941438583,397,"4412 OLIVER STREET, HYATTSVILLE, MD, 20781","Match","Exact","4412 OLIVER ST, HYATTSVILLE, MD, 20781",646490926,"L"
214398,"4412 RANCHO LARGO NW","ALBUQUERQUE","NM",87120,35.1756904480001,-106.685843079,398,"4412 RANCHO LARGO NW, ALBUQUERQUE, NM, 87120","Match","Non_Exact","4412 RANCHO LARGO RD NW, ALBUQUERQUE, NM, 87120",206744468,"R"
214399,"4412 S ALASKA ST","TACOMA","WA",98418,47.217218954,-122.458179954,399,"4412 S ALASKA ST, TACOMA, WA, 98418","Match","Exact","4412 S ALASKA ST, TACOMA, WA, 98418",184625138,"R"
214400,"4412 SPICEWOOD SPRINGS ROAD STE 703","AUSTIN","TX",78759,30.375602847,-97.762005264,400,"4412 SPICEWOOD SPRINGS ROAD STE 703, AUSTIN, TX, 78759","Match","Exact","4412 SPICEWOOD SPRINGS RD, AUSTIN, TX, 78759",625223060,"R"
214401,"4412 W SYLVAN RAMBLE ST","TAMPA","FL",33609,27.936179467,-82.5199935209999,401,"4412 W SYLVAN RAMBLE ST, TAMPA, FL, 33609","Match","Exact","4412 W SYLVAN RAMBLE ST, TAMPA, FL, 33609",104525020,"L"
214402,"4412 WASHINGTON BLVD","WILMINGTON","DE",19802,NA,NA,402,"4412 WASHINGTON BLVD, WILMINGTON, DE, 19802","No_Match",NA,NA,NA,NA
214403,"44120 FENNER AVENUE","LANCASTER","CA",93536,34.684796933,-118.175317244,403,"44120 FENNER AVENUE, LANCASTER, CA, 93536","Match","Exact","44120 FENNER AVE, LANCASTER, CA, 93536",141522763,"R"
214404,"44121 HARRY BYRD HIGHWAY STE 180","ASHBURN","VA",20147,NA,NA,404,"44121 HARRY BYRD HIGHWAY STE 180, ASHBURN, VA, 20147","No_Match",NA,NA,NA,NA
214405,"44121 HARRY BYRD HWY SUITE 180","ASHBYRN","VA",20147,NA,NA,405,"44121 HARRY BYRD HWY SUITE 180, ASHBYRN, VA, 20147","No_Match",NA,NA,NA,NA
214406,"44121 HARRY BYRD HWY SUTIE 180","ASHBURN","VA",20147,NA,NA,406,"44121 HARRY BYRD HWY SUTIE 180, ASHBURN, VA, 20147","No_Match",NA,NA,NA,NA
214407,"44122 NC HWY 8","NEW LONDON","NC",28127,NA,NA,407,"44122 NC HWY 8, NEW LONDON, NC, 28127","No_Match",NA,NA,NA,NA
214408,"44123 W 47TH ST","LANCASTER","CA",93536,34.6844773240001,-118.214656214,408,"44123 W 47TH ST, LANCASTER, CA, 93536","Match","Non_Exact","44123 47TH ST W, LANCASTER, CA, 93536",627015511,"L"
214409,"44125 COTTISFORD ST","NORTHVILLE","MI",48167,42.457825567,-83.4803029559999,409,"44125 COTTISFORD ST, NORTHVILLE, MI, 48167","Match","Exact","44125 COTTISFORD ST, NORTHVILLE, MI, 48167",69774832,"L"
214410,"44125 WOODRIDGE PARKWAY SUITE 220","LEESBURG","VA",20176,39.0770062770001,-77.471405444,410,"44125 WOODRIDGE PARKWAY SUITE 220, LEESBURG, VA, 20176","Match","Exact","44125 WOODRIDGE PKWY, LEESBURG, VA, 20176",62341516,"L"
214411,"4413  OLIVE TREE CIR","LAS VEGAS","NV",89129,36.2411273230001,-115.25501162,411,"4413  OLIVE TREE CIR, LAS VEGAS, NV, 89129","Match","Exact","4413 OLIVE TREE CIR, LAS VEGAS, NV, 89129",201906817,"L"
214412,"4413 ARTHUR DR","NEW ORLEANS","LA",70127,30.015399804,-89.983928584,412,"4413 ARTHUR DR, NEW ORLEANS, LA, 70127","Match","Exact","4413 ARTHUR DR, NEW ORLEANS, LA, 70127",191721649,"R"
214413,"4413 BERRENDO DRIVE","SACRAMENTO","CA",95864,38.591016004,-121.361743573,413,"4413 BERRENDO DRIVE, SACRAMENTO, CA, 95864","Match","Exact","4413 BERRENDO DR, SACRAMENTO, CA, 95864",133339124,"L"
214414,"4413 BRETZ DR","RICHTON PARK","IL",60471,41.480639739,-87.724518379,414,"4413 BRETZ DR, RICHTON PARK, IL, 60471","Match","Exact","4413 BRETZ DR, RICHTON PARK, IL, 60471",111708478,"R"
214415,"4413 EAST PAGES LANE","LOUISVILLE","KY",40272,38.1252016550001,-85.842664939,415,"4413 EAST PAGES LANE, LOUISVILLE, KY, 40272","Match","Exact","4413 E PAGES LN, LOUISVILLE, KY, 40272",618509909,"R"
214416,"4413 FAIRLAKE DR","Garland","TX",75043,32.8652569160001,-96.583978324,416,"4413 FAIRLAKE DR, Garland, TX, 75043","Match","Exact","4413 FAIRLAKE DR, GARLAND, TX, 75043",103169681,"L"
214417,"4413 FAIRLAKE DR","GARLAND","TX",75043,32.8652569160001,-96.583978324,417,"4413 FAIRLAKE DR, GARLAND, TX, 75043","Match","Exact","4413 FAIRLAKE DR, GARLAND, TX, 75043",103169681,"L"
214418,"4413 FOX MEADOWS LANE","MANSFIELD","TX",76063,32.5515641430001,-97.0655884189999,418,"4413 FOX MEADOWS LANE, MANSFIELD, TX, 76063","Match","Exact","4413 FOX MEADOWS LN, MANSFIELD, TX, 76063",647897823,"L"
214419,"4413 FRONT DR","BRYANT","AR",72019,34.634971421,-92.5096753019999,419,"4413 FRONT DR, BRYANT, AR, 72019","Match","Exact","4413 FRONT DR, BRYANT, AR, 72019",24189735,"L"
214420,"4413 GIBSON COVE PLACE","VIRGINIA BEACH","VA",23456,36.762186249,-76.142333471,420,"4413 GIBSON COVE PLACE, VIRGINIA BEACH, VA, 23456","Match","Exact","4413 GIBSON COVE PL, VA BCH, VA, 23456",643386907,"R"
214421,"4413 LAKEVILLE CT","VIRGINIA BEACH","VA",23456,36.7903210480001,-76.1270544879999,421,"4413 LAKEVILLE CT, VIRGINIA BEACH, VA, 23456","Match","Exact","4413 LAKEVILLE CT, VA BCH, VA, 23456",122311337,"L"
214422,"4413 NORTH SHILOH ROAD","GARLAND","TX",75044,32.9569305200001,-96.665465469,422,"4413 NORTH SHILOH ROAD, GARLAND, TX, 75044","Match","Exact","4413 N SHILOH RD, GARLAND, TX, 75044",102925482,"L"
214423,"4413 REVERE DRIVE","VIRGINIA BEACH","VA",23456,36.7956960230001,-76.130660339,423,"4413 REVERE DRIVE, VIRGINIA BEACH, VA, 23456","Match","Exact","4413 REVERE DR, VA BCH, VA, 23456",122267682,"L"
214424,"4413 SNOWY RIDGE TR","WINDSOR","WI",53598,43.211949313,-89.337888113,424,"4413 SNOWY RIDGE TR, WINDSOR, WI, 53598","Match","Exact","4413 SNOWY RIDGE TRL, WINDSOR, WI, 53598",625113449,"R"
214425,"4413 SNOWY RIDGE TRAIL","WINDSOR","WI",53598,43.211949313,-89.337888113,425,"4413 SNOWY RIDGE TRAIL, WINDSOR, WI, 53598","Match","Exact","4413 SNOWY RIDGE TRL, WINDSOR, WI, 53598",625113449,"R"
214426,"4413 SOLEMN POINT LANE","CHARLOTTE","NC",28216,35.347941221,-80.9520639529999,426,"4413 SOLEMN POINT LANE, CHARLOTTE, NC, 28216","Match","Exact","4413 SOLEMN POINT LN, CHARLOTTE, NC, 28216",70546011,"L"
214427,"4413 WEST MISSION LANE","GLENDALE","AZ",85302,33.5690223870001,-112.154788753,427,"4413 WEST MISSION LANE, GLENDALE, AZ, 85302","Match","Exact","4413 W MISSION LN, GLENDALE, AZ, 85302",128195855,"L"
214428,"44131 MAYFIELD ROAD - UP","SOUTH EUCLID","OH",44121,NA,NA,428,"44131 MAYFIELD ROAD - UP, SOUTH EUCLID, OH, 44121","No_Match",NA,NA,NA,NA
214429,"44133 2ND ST E","LANCASTER","CA",93535,34.684309134,-118.128240607,429,"44133 2ND ST E, LANCASTER, CA, 93535","Match","Exact","44133 2ND ST E, LANCASTER, CA, 93535",141526892,"L"
214430,"4414 47TH AVENUE B1","WOODSIDE","NY",11377,NA,NA,430,"4414 47TH AVENUE B1, WOODSIDE, NY, 11377","No_Match",NA,NA,NA,NA
214431,"4414 ALCOTT CV","MEMPHIS","TN",38125,35.028055728,-89.8210623269999,431,"4414 ALCOTT CV, MEMPHIS, TN, 38125","Match","Exact","4414 ALCOTT COVE, MEMPHIS, TN, 38125",72942568,"R"
214432,"4414 BINNSVILLE RD","SCOOBA","MS",39358,32.873005133,-88.420001857,432,"4414 BINNSVILLE RD, SCOOBA, MS, 39358","Match","Exact","4414 BINNSVILLE RD, SCOOBA, MS, 39358",607682618,"R"
214433,"4414 CAMARGO RD","MT STERLING","KY",40353,37.993909559,-83.887213434,433,"4414 CAMARGO RD, MT STERLING, KY, 40353","Match","Exact","4414 CAMARGO RD, MT STERLING, KY, 40353",32036076,"L"
214434,"4414 CHERRY HILL DRIVE","OKEMOS","MI",48864,42.7090161880001,-84.405999956,434,"4414 CHERRY HILL DRIVE, OKEMOS, MI, 48864","Match","Exact","4414 CHERRY HILL DR, OKEMOS, MI, 48864",17506206,"R"
214435,"4414 COLONIAL AVE","NORTHWOODS","MO",63121,38.7045659090001,-90.284889124,435,"4414 COLONIAL AVE, NORTHWOODS, MO, 63121","Match","Non_Exact","4414 COLONIAL AVE, NORWOOD COURT, MO, 63121",100152560,"R"
214436,"4414 CROWN POINT DR","MORGANTOWN","WV",26508,39.691935947,-79.87447422,436,"4414 CROWN POINT DR, MORGANTOWN, WV, 26508","Match","Exact","4414 CROWN POINT DR, MORGANTOWN, WV, 26508",50761117,"R"
214437,"4414 DESERT CLIFF CT","KATY","TX",77494,29.724622401,-95.815737052,437,"4414 DESERT CLIFF CT, KATY, TX, 77494","Match","Exact","4414 DESERT CLIFF CT, KATY, TX, 77494",633673143,"R"
214438,"4414 DODGE AVENUE","FORT WAYNE","IN",46815,41.09973724,-85.083787844,438,"4414 DODGE AVENUE, FORT WAYNE, IN, 46815","Match","Exact","4414 DODGE AVE, FORT WAYNE, IN, 46815",6385263,"R"
214439,"4414 EASTWOOD DR 6201","BATAVIA","OH",45103,39.0868434710001,-84.243740711,439,"4414 EASTWOOD DR 6201, BATAVIA, OH, 45103","Match","Exact","4414 EASTWOOD DR, BATAVIA, OH, 45103",650039927,"L"
214440,"4414 ETHLAND AVE","BALTIMORE","MD",21207,39.3248291880001,-76.694410539,440,"4414 ETHLAND AVE, BALTIMORE, MD, 21207","Match","Exact","4414 ETHLAND AVE, BALTIMORE, MD, 21207",206405238,"R"
214441,"4414 GATEWAY DR","MONROEVILLE","PA",15146,40.458550362,-79.756321363,441,"4414 GATEWAY DR, MONROEVILLE, PA, 15146","Match","Exact","4414 GATEWAY DR, MONROEVILLE, PA, 15146",51676435,"R"
214442,"4414 HORSESHOE CIRCLE","ANTIOCH","CA",94531,37.974989728,-121.756130467,442,"4414 HORSESHOE CIRCLE, ANTIOCH, CA, 94531","Match","Exact","4414 HORSESHOE CIR, ANTIOCH, CA, 94531",192085369,"R"
214443,"4414 LEESVILLE ROAD","LYNCH STATION","VA",24571,37.1661556780001,-79.359407339,443,"4414 LEESVILLE ROAD, LYNCH STATION, VA, 24571","Match","Exact","4414 LEESVILLE RD, LYNCH STATION, VA, 24571",644914478,"L"
214444,"4414 M-65","OSCODA","MI",48750,NA,NA,444,"4414 M-65, OSCODA, MI, 48750","No_Match",NA,NA,NA,NA
214445,"4414 MARLBOROUGH DR","HOUSTON","TX",77092,29.818040012,-95.455126681,445,"4414 MARLBOROUGH DR, HOUSTON, TX, 77092","Match","Exact","4414 MARLBOROUGH DR, HOUSTON, TX, 77092",96028946,"R"
214446,"4414 MARLBOROUGH DRIVE","HOUSTON","TX",77092,29.818040012,-95.455126681,446,"4414 MARLBOROUGH DRIVE, HOUSTON, TX, 77092","Match","Exact","4414 MARLBOROUGH DR, HOUSTON, TX, 77092",96028946,"R"
214447,"4414 NE KILLINGSWORTH SUITE 1","PORTLAND","OR",97218,NA,NA,447,"4414 NE KILLINGSWORTH SUITE 1, PORTLAND, OR, 97218","No_Match",NA,NA,NA,NA
214448,"4414 NORTHROP TERRACE","TAMPA","FL",33618,28.050796894,-82.514568405,448,"4414 NORTHROP TERRACE, TAMPA, FL, 33618","Match","Exact","4414 NORTHROP TER, TAMPA, FL, 33618",104513890,"L"
214449,"4414 PARK BREEZE DR","FRESNO","TX",77545,29.522395255,-95.467024121,449,"4414 PARK BREEZE DR, FRESNO, TX, 77545","Match","Exact","4414 PARK BREEZE DR, FRESNO, TX, 77545",627678319,"R"
214450,"4414 TROPICAL DR","PANAMA CITY","FL",32404,30.284375095,-85.588549136,450,"4414 TROPICAL DR, PANAMA CITY, FL, 32404","Match","Exact","4414 TROPICAL DR, PANAMA CITY, FL, 32404",7068520,"R"
214451,"4414 W 171ST STREET","CLEVELAND","OH",44135,41.4348135390001,-81.816378754,451,"4414 W 171ST STREET, CLEVELAND, OH, 44135","Match","Exact","4414 W 171ST ST, CLEVELAND, OH, 44135",61102374,"R"
214452,"4414 WEST 194TH STREET","CLEVELAND","OH",44135,41.435416785,-81.836613825,452,"4414 WEST 194TH STREET, CLEVELAND, OH, 44135","Match","Exact","4414 W 194TH ST, CLEVELAND, OH, 44135",61098994,"R"
214453,"44141 165TH ST","FLORENCE","SD",57235,NA,NA,453,"44141 165TH ST, FLORENCE, SD, 57235","No_Match",NA,NA,NA,NA
214454,"44143 ELM AVE","LANCASTER","CA",93534,34.6846634820001,-118.140677677,454,"44143 ELM AVE, LANCASTER, CA, 93534","Match","Exact","44143 ELM AVE, LANCASTER, CA, 93534",141526777,"L"
214455,"44146 37TH ST W","LANCASTER","CA",93536,34.684996251,-118.196929399,455,"44146 37TH ST W, LANCASTER, CA, 93536","Match","Exact","44146 37TH ST W, LANCASTER, CA, 93536",141840523,"L"
214456,"44148 W BUCKHORN TRAIL","MARICOPA","AZ",85138,33.0488982750001,-112.041746902,456,"44148 W BUCKHORN TRAIL, MARICOPA, AZ, 85138","Match","Exact","44148 W BUCKHORN TRL, MARICOPA, AZ, 85138",606698495,"R"
214457,"4415  EAGLE  CT","WALDORF","MD",20603,38.627160986,-76.930498305,457,"4415  EAGLE  CT, WALDORF, MD, 20603","Match","Exact","4415 EAGLE CT, WALDORF, MD, 20603",25405438,"R"
214458,"4415 160TH ST","URBANDALE","IA",50323,41.641455341,-93.8389894599999,458,"4415 160TH ST, URBANDALE, IA, 50323","Match","Exact","4415 160TH ST, URBANDALE, IA, 50323",640576199,"R"
214459,"4415 18TH AVENUE W","BRADENTON","FL",34209,27.4838006520001,-82.605303788,459,"4415 18TH AVENUE W, BRADENTON, FL, 34209","Match","Exact","4415 18TH AVE W, BRADENTON, FL, 34209",16257744,"L"
214460,"4415 5TH STREET NW","WASHINGTON","DC",20011,38.944409482,-77.019306786,460,"4415 5TH STREET NW, WASHINGTON, DC, 20011","Match","Exact","4415 5TH ST NW, WASHINGTON, DC, 20011",76223612,"R"
214461,"4415 7TH AVENUE SOUTH","BIRMINGHAM","AL",35222,33.5234351990001,-86.766183402,461,"4415 7TH AVENUE SOUTH, BIRMINGHAM, AL, 35222","Match","Exact","4415 7TH AVE S, BIRMINGHAM, AL, 35222",81579538,"R"
214462,"4415 ASPEN HILLS CIR","BETTENDORF","IA",52722,41.567030964,-90.493654019,462,"4415 ASPEN HILLS CIR, BETTENDORF, IA, 52722","Match","Exact","4415 ASPEN HILLS CIR, BETTENDORF, IA, 52722",122717098,"L"
214463,"4415 BERKELEY LANE","IOWA CITY","IA",52245,41.6569062840001,-91.470909412,463,"4415 BERKELEY LANE, IOWA CITY, IA, 52245","Match","Exact","4415 BERKELEY LN, IOWA CITY, IA, 52245",635618922,"R"
214464,"4415 BIRDIE CT","MINT HILL","NC",28227,35.1569988320001,-80.6839940959999,464,"4415 BIRDIE CT, MINT HILL, NC, 28227","Match","Exact","4415 BIRDIE CT, MINT HILL, NC, 28227",70575320,"L"
214465,"4415 BOONSBORO RD","LYNCHBURG","VA",24503,37.444500465,-79.208212289,465,"4415 BOONSBORO RD, LYNCHBURG, VA, 24503","Match","Exact","4415 BOONSBORO RD, LYNCHBURG, VA, 24503",62622787,"L"
214466,"4415 CELEBRATION DRIVE","ATLANTA","GA",30331,33.7230484740001,-84.526046714,466,"4415 CELEBRATION DRIVE, ATLANTA, GA, 30331","Match","Non_Exact","4415 CELEBRATION DR SW, ATLANTA, GA, 30331",17397991,"R"
214467,"4415 CENTERVIEW","SAN ANTONIO","TX",78228,29.4877985050001,-98.569088434,467,"4415 CENTERVIEW, SAN ANTONIO, TX, 78228","Match","Non_Exact","4415 CENTERVIEW DR, SAN ANTONIO, TX, 78228",101509871,"R"
214468,"4415 CHIPPEWA DR","BOULDER","CO",80303,39.996287782,-105.238508316,468,"4415 CHIPPEWA DR, BOULDER, CO, 80303","Match","Exact","4415 CHIPPEWA DR, BOULDER, CO, 80303",188163384,"L"
214469,"4415 DURSTON ROAD","BOZEMAN","MT",59718,45.6857662630001,-111.095473625,469,"4415 DURSTON ROAD, BOZEMAN, MT, 59718","Match","Exact","4415 DURSTON RD, BOZEMAN, MT, 59718",647693797,"R"
214470,"4415 FERN AVENUE","SHREVEPORT","LA",71106,32.461120244,-93.735087032,470,"4415 FERN AVENUE, SHREVEPORT, LA, 71106","Match","Non_Exact","4415 FERN AVE, SHREVEPORT, LA, 71105",57438333,"L"
214471,"4415 HIGHLAND AVE","CHARLOTTE","NC",28269,35.279674841,-80.832581444,471,"4415 HIGHLAND AVE, CHARLOTTE, NC, 28269","Match","Exact","4415 HIGHLAND AVE, CHARLOTTE, NC, 28269",70478243,"L"
214472,"4415 INDIGO DR","KILLEEN","TX",76542,31.0704759750001,-97.7190003859999,472,"4415 INDIGO DR, KILLEEN, TX, 76542","Match","Exact","4415 INDIGO DR, KILLEEN, TX, 76542",146228380,"R"
214473,"4415 LA PORTALADA DR","CARLSBAD","CA",92010,33.1576501870001,-117.314510689,473,"4415 LA PORTALADA DR, CARLSBAD, CA, 92010","Match","Exact","4415 LA PORTALADA DR, CARLSBAD, CA, 92010",195291103,"R"
214474,"4415 N 129TH DRIVE","LITCHFIELD PARK","AZ",85340,33.4988236040001,-112.337441055,474,"4415 N 129TH DRIVE, LITCHFIELD PARK, AZ, 85340","Match","Exact","4415 N 129TH DR, LITCHFIELD PARK, AZ, 85340",128858492,"R"
214475,"4415 OCONNELL ST","ROCKFORD","IL",61109,42.2296534550001,-89.029745437,475,"4415 OCONNELL ST, ROCKFORD, IL, 61109","Match","Exact","4415 OCONNELL ST, ROCKFORD, IL, 61109",49276760,"R"
214476,"4415 PIAZZA","FORT WAYNE","IN",46804,41.043722469,-85.232384194,476,"4415 PIAZZA, FORT WAYNE, IN, 46804","Match","Non_Exact","4415 PIAZZA CIR, FORT WAYNE, IN, 46804",6411347,"R"
214477,"4415 PURVES ST","LONG ISLAND CITY","NY",11101,40.747164626,-73.9412684929999,477,"4415 PURVES ST, LONG ISLAND CITY, NY, 11101","Match","Exact","4415 PURVES ST, LONG ISLAND CITY, NY, 11101",59692120,"L"
214478,"4415 S IOWA AVE","SAINT FRANCIS","WI",53235,42.9639588150001,-87.884471321,478,"4415 S IOWA AVE, SAINT FRANCIS, WI, 53235","Match","Exact","4415 S IOWA AVE, SAINT FRANCIS, WI, 53235",77754624,"R"
214479,"4415 SHAVER 2008","PASADENA","TX",77504,NA,NA,479,"4415 SHAVER 2008, PASADENA, TX, 77504","No_Match",NA,NA,NA,NA
214480,"4415 SHORES DRIVE STE 200","METAIRIE","LA",70006,30.016988127,-90.189076673,480,"4415 SHORES DRIVE STE 200, METAIRIE, LA, 70006","Match","Exact","4415 SHORES DR, METAIRIE, LA, 70006",93497226,"R"
214481,"4415 ST ANDREWS ST","HOWELL","MI",48843,42.5360560730001,-83.867523115,481,"4415 ST ANDREWS ST, HOWELL, MI, 48843","Match","Exact","4415 SAINT ANDREWS ST, HOWELL, MI, 48843",23585712,"R"
214482,"4415 SURFWOOD ST","GAYLORD","MI",49735,44.9683269010001,-84.6999242799999,482,"4415 SURFWOOD ST, GAYLORD, MI, 49735","Match","Exact","4415 SURFWOOD ST, GAYLORD, MI, 49735",171776251,"L"
214483,"4415 TJ KELLY DRIVE","HEPZIBAH","GA",30815,33.360545055,-82.088410153,483,"4415 TJ KELLY DRIVE, HEPZIBAH, GA, 30815","Match","Non_Exact","4415 T J KELLY DR, HEPHZIBAH, GA, 30815",625169406,"L"
214484,"4415 UPPER BEAR RIVER ROAD","FERNDALE","CA",95536,40.4614839830001,-124.302727775,484,"4415 UPPER BEAR RIVER ROAD, FERNDALE, CA, 95536","Match","Exact","4415 UPPER BEAR RIVER RD, FERNDALE, CA, 95536",112978047,"R"
214485,"4415 W HARRISON STE 540","HILLSIDE","IL",60162,NA,NA,485,"4415 W HARRISON STE 540, HILLSIDE, IL, 60162","No_Match",NA,NA,NA,NA
214486,"4415 W MADISON PL","BROKEN ARROW","OK",74012,36.0638390550001,-95.842852541,486,"4415 W MADISON PL, BROKEN ARROW, OK, 74012","Match","Exact","4415 W MADISON PL, BROKEN ARROW, OK, 74012",166491526,"R"
214487,"4415 WEST HARRISON STREET","HILLSIDE","IL",60162,41.870166252,-87.893654655,487,"4415 WEST HARRISON STREET, HILLSIDE, IL, 60162","Match","Non_Exact","4415 HARRISON ST, HILLSIDE, IL, 60162",111787784,"L"
214488,"4415 WHITTLE SPRINGS 11","KNOXVILLE","TN",37917,36.014689753,-83.919031119,488,"4415 WHITTLE SPRINGS 11, KNOXVILLE, TN, 37917","Match","Non_Exact","4415 WHITTLE SPRINGS RD, KNOXVILLE, TN, 37917",42617776,"L"
214489,"4415-C CONSTITUTION LANE 106","MARIANNA","FL",32488,30.7741017700001,-85.2288992109999,489,"4415-C CONSTITUTION LANE 106, MARIANNA, FL, 32488","Match","Non_Exact","4415 CONSTITUTION LN, MARIANNA, FL, 32448",7204323,"R"
214490,"44153 80TH STREET","COLOMA","MI",49038,42.2556909260001,-86.320689134,490,"44153 80TH STREET, COLOMA, MI, 49038","Match","Exact","44153 80TH ST, COLOMA, MI, 49038",34749034,"R"
214491,"44156 AZALEA COURT","CALIFORNIA","MD",20619,38.3003434560001,-76.5483445089999,491,"44156 AZALEA COURT, CALIFORNIA, MD, 20619","Match","Exact","44156 AZALEA CT, CALIFORNIA, MD, 20619",624776992,"L"
214492,"44156 HOOD RD","HAMMOND","LA",70403,30.4903673530001,-90.5248422829999,492,"44156 HOOD RD, HAMMOND, LA, 70403","Match","Exact","44156 HOOD RD, HAMMOND, LA, 70403",75763159,"R"
214493,"4416 69TH AVE CT W","UNIVERSITY PLACE","WA",98466,47.21709515,-122.530074741,493,"4416 69TH AVE CT W, UNIVERSITY PLACE, WA, 98466","Match","Exact","4416 69TH AVENUE CT W, UNIVERSITY PLACE, WA, 98466",184619382,"R"
214494,"4416 BISHOP ST","DETROIT","MI",48224,42.4009223080001,-82.930502324,494,"4416 BISHOP ST, DETROIT, MI, 48224","Match","Exact","4416 BISHOP ST, DETROIT, MI, 48224",95487277,"R"
214495,"4416 BURCHDALE ST","DAYTON","OH",45440,39.680257393,-84.115659184,495,"4416 BURCHDALE ST, DAYTON, OH, 45440","Match","Exact","4416 BURCHDALE ST, DAYTON, OH, 45440",642836933,"L"
214496,"4416 CHATEAU RD","ORLANDO","FL",32803,28.5736464940001,-81.437840609,496,"4416 CHATEAU RD, ORLANDO, FL, 32803","Match","Non_Exact","4416 CHATEAU RD, ORLANDO, FL, 32808",94330835,"L"
214497,"4416 DURANCE DRIVE","MODESTO","CA",95356,37.703012545,-121.023222162,497,"4416 DURANCE DRIVE, MODESTO, CA, 95356","Match","Exact","4416 DURANCE DR, MODESTO, CA, 95356",102633606,"R"
214498,"4416 EAST ENROSE CIR","MESA","AZ",85205,33.431503455,-111.739674695,498,"4416 EAST ENROSE CIR, MESA, AZ, 85205","Match","Exact","4416 E ENROSE CIR, MESA, AZ, 85205",128378788,"R"
214499,"4416 EMERALD DRIVE","CARROLLTON","TX",75010,33.034415774,-96.878816344,499,"4416 EMERALD DRIVE, CARROLLTON, TX, 75010","Match","Exact","4416 EMERALD DR, CARROLLTON, TX, 75010",103407523,"L"
214500,"4416 ETHAN ALLEN HIGHWAY","SAINT ALBANS","VT",5478,NA,NA,500,"4416 ETHAN ALLEN HIGHWAY, SAINT ALBANS, VT, 5478","No_Match",NA,NA,NA,NA
