"ID","Address","City","State","Zip","lat","long","id","input_address","match_indicator","match_type","matched_address","tiger_line_id","tiger_side"
91001,"1805 AQUARENA SPRINGS DR APT 1613","SAN MARCOS","TX",78666,29.89124395,-97.907896427,1,"1805 AQUARENA SPRINGS DR APT 1613, SAN MARCOS, TX, 78666","Match","Exact","1805 AQUARENA SPRINGS DR, SAN MARCOS, TX, 78666",649557301,"L"
91002,"1805 AZALEA DR","BLACKSBURG","VA",24060,37.2641442680001,-80.447796691,2,"1805 AZALEA DR, BLACKSBURG, VA, 24060","Match","Exact","1805 AZALEA DR, BLACKSBURG, VA, 24060",73634433,"L"
91003,"1805 BALLAD DR","OKLAHOMA CITY","OK",73130,35.4463557660001,-97.361467426,3,"1805 BALLAD DR, OKLAHOMA CITY, OK, 73130","Match","Exact","1805 BALLAD DR, OKLAHOMA CITY, OK, 73130",100422726,"L"
91004,"1805 BELLGROVE ST","LAKELAND","FL",33805,28.0690862860001,-81.9843404699999,4,"1805 BELLGROVE ST, LAKELAND, FL, 33805","Match","Exact","1805 BELLGROVE ST, LAKELAND, FL, 33805",651847819,"R"
91005,"1805 BIRCHFIELD CT","KINGSPORT","TN",37660,NA,NA,5,"1805 BIRCHFIELD CT, KINGSPORT, TN, 37660","No_Match",NA,NA,NA,NA
91006,"1805 BLADENSBURG RD NE","WASHINGTON","DC",20002,38.9142867630001,-76.974801816,6,"1805 BLADENSBURG RD NE, WASHINGTON, DC, 20002","Match","Exact","1805 BLADENSBURG RD NE, WASHINGTON, DC, 20002",638242811,"L"
91007,"1805 BOTHWELL STREET","GREENSBORO","NC",27401,36.0481949470001,-79.767137296,7,"1805 BOTHWELL STREET, GREENSBORO, NC, 27401","Match","Exact","1805 BOTHWELL ST, GREENSBORO, NC, 27401",131071258,"L"
91008,"1805 BUR OAK DRIVE","LIBERTY","MI",64068,NA,NA,8,"1805 BUR OAK DRIVE, LIBERTY, MI, 64068","No_Match",NA,NA,NA,NA
91009,"1805 BUR OAK DRIVE","LIBERTY","MO",64068,39.219942422,-94.457271572,9,"1805 BUR OAK DRIVE, LIBERTY, MO, 64068","Match","Exact","1805 BUR OAK DR, LIBERTY, MO, 64068",618166729,"L"
91010,"1805 BURNTWOOD DRIVE DR E","MOBILE","AL",36609,NA,NA,10,"1805 BURNTWOOD DRIVE DR E, MOBILE, AL, 36609","Tie",NA,NA,NA,NA
91011,"1805 CAPRON","HOUSTON","TX",77020,29.7780406590001,-95.333124426,11,"1805 CAPRON, HOUSTON, TX, 77020","Match","Non_Exact","1805 CAPRON ST, HOUSTON, TX, 77020",96078869,"L"
91012,"1805 CLEMSON RD 290051","COLUMBIA","SC",29229,34.1427948950001,-80.89802659,12,"1805 CLEMSON RD 290051, COLUMBIA, SC, 29229","Match","Exact","1805 CLEMSON RD, COLUMBIA, SC, 29229",71844131,"R"
91013,"1805 CLEMSON RD 292392","COLUMBIA","SC",29229,34.1427948950001,-80.89802659,13,"1805 CLEMSON RD 292392, COLUMBIA, SC, 29229","Match","Exact","1805 CLEMSON RD, COLUMBIA, SC, 29229",71844131,"R"
91014,"1805 CLINTON AVE 4B","BRONX","NY",10457,40.842240534,-73.892561669,14,"1805 CLINTON AVE 4B, BRONX, NY, 10457","Match","Exact","1805 CLINTON AVE, BRONX, NY, 10457",80301703,"L"
91015,"1805 CR SE 3285","MOUNT VERON","TX",75457,NA,NA,15,"1805 CR SE 3285, MOUNT VERON, TX, 75457","No_Match",NA,NA,NA,NA
91016,"1805 DALHOUSIE COURT B2","PARKVILLE","MD",21234,39.3840677310001,-76.557539984,16,"1805 DALHOUSIE COURT B2, PARKVILLE, MD, 21234","Match","Exact","1805 DALHOUSIE CT, PARKVILLE, MD, 21234",639104911,"R"
91017,"1805 DALHOUSIE CT APT B4","BALTIMORE","MD",21234,39.3840677310001,-76.557539984,17,"1805 DALHOUSIE CT APT B4, BALTIMORE, MD, 21234","Match","Exact","1805 DALHOUSIE CT, BALTIMORE, MD, 21234",639104911,"R"
91018,"1805 DEER MEADOWS DR","WAXHAW","NC",28173,34.968570926,-80.73247371,18,"1805 DEER MEADOWS DR, WAXHAW, NC, 28173","Match","Exact","1805 DEER MEADOWS DR, WAXHAW, NC, 28173",641588986,"L"
91019,"1805 DRY WILLOW CT","HOUSTON","TX",77089,29.5750664290001,-95.243194854,19,"1805 DRY WILLOW CT, HOUSTON, TX, 77089","Match","Exact","1805 DRY WILLOW CT, HOUSTON, TX, 77089",641844121,"R"
91020,"1805 DUQUESNE AVE","MCKEESPORT","PA",15132,40.3399964270001,-79.845416885,20,"1805 DUQUESNE AVE, MCKEESPORT, PA, 15132","Match","Non_Exact","1805 DUQUESNE ST, MCKEESPORT, PA, 15132",51678247,"L"
91021,"1805 E EDGEWOOD ROAD","SIOUX FALLS","SD",57103,43.5107044390001,-96.703388105,21,"1805 E EDGEWOOD ROAD, SIOUX FALLS, SD, 57103","Match","Exact","1805 E EDGEWOOD RD, SIOUX FALLS, SD, 57103",640215588,"R"
91022,"1805 E GRANT ST","ORLANDO","FL",32806,28.51678875,-81.3560104109999,22,"1805 E GRANT ST, ORLANDO, FL, 32806","Match","Exact","1805 E GRANT ST, ORLANDO, FL, 32806",94389857,"L"
91023,"1805 ELM ST","CINCINNATI","OH",45202,39.1153111040001,-84.519907969,23,"1805 ELM ST, CINCINNATI, OH, 45202","Match","Exact","1805 ELM ST, CINCINNATI, OH, 45202",103935341,"L"
91024,"1805 ELM STREET","CINCINNATI","OH",45202,39.1153111040001,-84.519907969,24,"1805 ELM STREET, CINCINNATI, OH, 45202","Match","Exact","1805 ELM ST, CINCINNATI, OH, 45202",103935341,"L"
91025,"1805 FAIRBANKS DR","PRINCETON","TX",75407,33.1950576180001,-96.537903144,25,"1805 FAIRBANKS DR, PRINCETON, TX, 75407","Match","Exact","1805 FAIRBANKS DR, PRINCETON, TX, 75407",210516491,"R"
91026,"1805 FERRELL MEADOWS DRIVE","ZEBULON","NC",27597,35.8698029180001,-78.331317137,26,"1805 FERRELL MEADOWS DRIVE, ZEBULON, NC, 27597","Match","Exact","1805 FERRELL MEADOWS DR, ZEBULON, NC, 27597",612827081,"L"
91027,"1805 FREEDOM WAY","MANITOWOC","WI",54220,NA,NA,27,"1805 FREEDOM WAY, MANITOWOC, WI, 54220","No_Match",NA,NA,NA,NA
91028,"1805 GLENDA DRIVE","LITTLE ROCK","AR",72205,34.738428266,-92.382233716,28,"1805 GLENDA DRIVE, LITTLE ROCK, AR, 72205","Match","Exact","1805 GLENDA DR, LITTLE ROCK, AR, 72205",83501277,"L"
91029,"1805 GLENVIEW DRIVE","LAS VEGAS","NV",89134,36.1926948510001,-115.297034881,29,"1805 GLENVIEW DRIVE, LAS VEGAS, NV, 89134","Match","Exact","1805 GLENVIEW DR, LAS VEGAS, NV, 89134",201923983,"R"
91030,"1805 GRAND AVENUE APARTMENT B","SANTA BARBARA","CA",93103,34.4361892800001,-119.705323688,30,"1805 GRAND AVENUE APARTMENT B, SANTA BARBARA, CA, 93103","Match","Exact","1805 GRAND AVE, SANTA BARBARA, CA, 93103",108604327,"L"
91031,"1805 GREENBEND DR","ARLINGTON","TX",76018,32.6710133170001,-97.080782378,31,"1805 GREENBEND DR, ARLINGTON, TX, 76018","Match","Exact","1805 GREENBEND DR, ARLINGTON, TX, 76018",101930997,"R"
91032,"1805 HESSIAN DR","WILLIAMSTOWN","NJ",8094,39.674046999,-75.0473475759999,32,"1805 HESSIAN DR, WILLIAMSTOWN, NJ, 8094","Match","Exact","1805 HESSIAN DR, WILLIAMSTOWN, NJ, 08094",625238517,"L"
91033,"1805 HIGHWAY BOULEVARD","SPENCER","IA",51301,43.1559744130001,-95.1465454469999,33,"1805 HIGHWAY BOULEVARD, SPENCER, IA, 51301","Match","Exact","1805 HIGHWAY BLVD, SPENCER, IA, 51301",82785681,"L"
91034,"1805 JANIE STREET","BILLINGS","MT",59105,45.8292861470001,-108.439717537,34,"1805 JANIE STREET, BILLINGS, MT, 59105","Match","Exact","1805 JANIE ST, BILLINGS, MT, 59105",181480260,"R"
91035,"1805 JEPHSON LANE","ALVIN","TX",77511,29.408340799,-95.2386319829999,35,"1805 JEPHSON LANE, ALVIN, TX, 77511","Match","Exact","1805 JEPHSON LN, ALVIN, TX, 77511",116585431,"R"
91036,"1805 LA CABRA DR SE","ALBUQUERQUE","NM",87123,35.04509462,-106.481261823,36,"1805 LA CABRA DR SE, ALBUQUERQUE, NM, 87123","Match","Exact","1805 LA CABRA DR SE, ALBUQUERQUE, NM, 87123",206750773,"R"
91037,"1805 LAKE RD","GREENBRIER","TN",37073,36.399808938,-86.7640452099999,37,"1805 LAKE RD, GREENBRIER, TN, 37073","Match","Exact","1805 LAKE RD, GREENBRIER, TN, 37073",97181388,"L"
91038,"1805 LAUREL CREEK DR","LAWRENCEVILLE","GA",30043,34.0068515150001,-84.004323609,38,"1805 LAUREL CREEK DR, LAWRENCEVILLE, GA, 30043","Match","Exact","1805 LAUREL CREEK DR, LAWRENCEVILLE, GA, 30043",88921425,"R"
91039,"1805 LAUREL CREEK DRIVE","LAWRENCEVILLE","GA",30043,34.0068515150001,-84.004323609,39,"1805 LAUREL CREEK DRIVE, LAWRENCEVILLE, GA, 30043","Match","Exact","1805 LAUREL CREEK DR, LAWRENCEVILLE, GA, 30043",88921425,"R"
91040,"1805 LIBERTY OAKS BLVD","CEDAR PARK","TX",78613,30.489812704,-97.816886235,40,"1805 LIBERTY OAKS BLVD, CEDAR PARK, TX, 78613","Match","Exact","1805 LIBERTY OAKS BLVD, CEDAR PARK, TX, 78613",617957569,"R"
91041,"1805 LINVILLE PASS","FORT WAYNE","IN",46845,41.2060317400001,-85.11907034,41,"1805 LINVILLE PASS, FORT WAYNE, IN, 46845","Match","Exact","1805 LINVILLE PASS, FORT WAYNE, IN, 46845",606494739,"L"
91042,"1805 LOGUE ROAD","MYAKKA CITY","FL",34251,27.4841363630001,-82.1538273639999,42,"1805 LOGUE ROAD, MYAKKA CITY, FL, 34251","Match","Exact","1805 LOGUE RD, MYAKKA CITY, FL, 34251",635513100,"L"
91043,"1805 MARYSOL TRL","CEDAR PARK","TX",78613,30.516468167,-97.855097147,43,"1805 MARYSOL TRL, CEDAR PARK, TX, 78613","Match","Exact","1805 MARYSOL TRL, CEDAR PARK, TX, 78613",126472138,"R"
91044,"1805 MONUMENT AVENUE SUITE 315","RICHMOND","VA",23220,37.5539704870001,-77.460650275,44,"1805 MONUMENT AVENUE SUITE 315, RICHMOND, VA, 23220","Match","Exact","1805 MONUMENT AVE, RICHMOND, VA, 23220",638282251,"R"
91045,"1805 N 25TH ST","EAST ST LOUIS","IL",62204,38.6347554170001,-90.12136472,45,"1805 N 25TH ST, EAST ST LOUIS, IL, 62204","Match","Exact","1805 N 25TH ST, E SAINT LOUIS, IL, 62204",107830640,"L"
91046,"1805 N 32ND PL","MOUNT VERNON","WA",98273,48.4369590320001,-122.299310042,46,"1805 N 32ND PL, MOUNT VERNON, WA, 98273","Match","Exact","1805 N 32ND PL, MOUNT VERNON, WA, 98273",183652304,"R"
91047,"1805 N AUSTIN AVE","CHICAGO","IL",60639,41.9130591690001,-87.775339817,47,"1805 N AUSTIN AVE, CHICAGO, IL, 60639","Match","Exact","1805 N AUSTIN AVE, CHICAGO, IL, 60639",111753321,"R"
91048,"1805 N KINGSLEY DR 102","LOS ANGELES","CA",90027,34.104019341,-118.303511415,48,"1805 N KINGSLEY DR 102, LOS ANGELES, CA, 90027","Match","Non_Exact","1805 N KINGSLEY DR, LOS ANGELES, CA, 90027",629806332,"L"
91049,"1805 N PONDEROSA ST","CANBY","OR",97013,45.2767209040001,-122.678639079,49,"1805 N PONDEROSA ST, CANBY, OR, 97013","Match","Exact","1805 N PONDEROSA ST, CANBY, OR, 97013",624847243,"R"
91050,"1805 NORTH PAYSON STREET","BALTIMORE","MD",21217,39.3088624760001,-76.6498668139999,50,"1805 NORTH PAYSON STREET, BALTIMORE, MD, 21217","Match","Exact","1805 N PAYSON ST, BALTIMORE, MD, 21217",206414449,"R"
91051,"1805 OLYMPIA CT","FAYETTEVILLE","NC",28301,35.0864504990001,-78.889900269,51,"1805 OLYMPIA CT, FAYETTEVILLE, NC, 28301","Match","Exact","1805 OLYMPIA CT, FAYETTEVILLE, NC, 28301",64200843,"L"
91052,"1805 PEARL ST","AUSTIN","TX",78701,30.282339295,-97.747531451,52,"1805 PEARL ST, AUSTIN, TX, 78701","Match","Exact","1805 PEARL ST, AUSTIN, TX, 78701",63943187,"R"
91053,"1805 PEARL ST","CARROLLTON","TX",75006,32.9561276470001,-96.894581584,53,"1805 PEARL ST, CARROLLTON, TX, 75006","Match","Exact","1805 PEARL ST, CARROLLTON, TX, 75006",102889031,"L"
91054,"1805 PEARL STREET","SANDUSKY","OH",44870,41.438524155,-82.721138657,54,"1805 PEARL STREET, SANDUSKY, OH, 44870","Match","Exact","1805 PEARL ST, SANDUSKY, OH, 44870",55325011,"L"
91055,"1805 PINEHURST LANE APT 9106","MESQUITE","TX",75150,32.841495062,-96.636328883,55,"1805 PINEHURST LANE APT 9106, MESQUITE, TX, 75150","Match","Exact","1805 PINEHURST LN, MESQUITE, TX, 75150",653216445,"R"
91056,"1805 PLATTE RD SUITE 113","RIVERSIDE","MO",64150,39.1675280260001,-94.601776725,56,"1805 PLATTE RD SUITE 113, RIVERSIDE, MO, 64150","Match","Non_Exact","1805 NW PLATTE RD, RIVERSIDE, MO, 64150",625560841,"L"
91057,"1805 PLEASANT HILL RD","MULBERRY","AR",72947,35.5216996520001,-94.049387408,57,"1805 PLEASANT HILL RD, MULBERRY, AR, 72947","Match","Exact","1805 PLEASANT HILL RD, MULBERRY, AR, 72947",53483872,"L"
91058,"1805 PONTOTOC TRACE APT C","HARKER HEIGHTS","TX",76548,31.059291161,-97.631329454,58,"1805 PONTOTOC TRACE APT C, HARKER HEIGHTS, TX, 76548","Match","Exact","1805 PONTOTOC TRCE, HARKER HEIGHTS, TX, 76548",146182626,"L"
91059,"1805 PURDY AVE","MIAMI BEACH","FL",33139,25.7937198500001,-80.144391204,59,"1805 PURDY AVE, MIAMI BEACH, FL, 33139","Match","Exact","1805 PURDY AVE, MIAMI BEACH, FL, 33139",116020113,"R"
91060,"1805 QUIVERS KEEP","CHESAPEAKE","VA",23321,36.8080390060001,-76.4319381879999,60,"1805 QUIVERS KEEP, CHESAPEAKE, VA, 23321","Match","Exact","1805 QUIVERS KEEP, CHESAPEAKE, VA, 23321",635390021,"R"
91061,"1805 S 133RD ST","OMAHA","NE",68144,41.242435508,-96.120366189,61,"1805 S 133RD ST, OMAHA, NE, 68144","Match","Exact","1805 S 133RD ST, OMAHA, NE, 68144",116970453,"L"
91062,"1805 S LIVE OAK PKWY","WILMINGTON","NC",28403,34.2137470420001,-77.911692296,62,"1805 S LIVE OAK PKWY, WILMINGTON, NC, 28403","Match","Exact","1805 S LIVE OAK PKWY, WILMINGTON, NC, 28403",152733413,"L"
91063,"1805 S ROOSEVELT ST","BOISE","ID",83705,43.587083729,-116.233612413,63,"1805 S ROOSEVELT ST, BOISE, ID, 83705","Match","Exact","1805 S ROOSEVELT ST, BOISE, ID, 83705",117863685,"R"
91064,"1805 S WEST AVE","FREEPORT","IL",61032,42.279193514,-89.631599329,64,"1805 S WEST AVE, FREEPORT, IL, 61032","Match","Exact","1805 S WEST AVE, FREEPORT, IL, 61032",32702298,"R"
91065,"1805 SAPLING DR","OFALLON","MO",63366,38.8367338040001,-90.685801693,65,"1805 SAPLING DR, OFALLON, MO, 63366","Match","Non_Exact","1805 SAPLING DR, O FALLON, MO, 63366",100058069,"R"
91066,"1805 SARA CT","NORTH LIBERTY","IA",52317,41.724088975,-91.603966115,66,"1805 SARA CT, NORTH LIBERTY, IA, 52317","Match","Exact","1805 SARA CT, NORTH LIBERTY, IA, 52317",625017664,"R"
91067,"1805 SHACKLEFORD CT STE 100","NORCROSS","GA",30093,NA,NA,67,"1805 SHACKLEFORD CT STE 100, NORCROSS, GA, 30093","No_Match",NA,NA,NA,NA
91068,"1805 SHARPE RD","GREENSBORO","NC",27406,36.0454907450001,-79.744398367,68,"1805 SHARPE RD, GREENSBORO, NC, 27406","Match","Exact","1805 SHARPE RD, GREENSBORO, NC, 27406",131091907,"L"
91069,"1805 SKYLAND TERRACE NE","ATLANTA","GA",30319,33.860888817,-84.313745022,69,"1805 SKYLAND TERRACE NE, ATLANTA, GA, 30319","Match","Exact","1805 SKYLAND TER NE, ATLANTA, GA, 30319",23358945,"R"
91070,"1805 THE OAKS","CLARKSTON","GA",30021,NA,NA,70,"1805 THE OAKS, CLARKSTON, GA, 30021","No_Match",NA,NA,NA,NA
91071,"1805 TIMBERBROOK DR","STEPHENVILLE","TX",76401,32.231831954,-98.153664568,71,"1805 TIMBERBROOK DR, STEPHENVILLE, TX, 76401","Match","Exact","1805 TIMBERBROOK DR, STEPHENVILLE, TX, 76401",158537299,"L"
91072,"1805 TOBIAS DRIVE SE","WASHINGTON","DC",20020,38.8500182070001,-76.979551912,72,"1805 TOBIAS DRIVE SE, WASHINGTON, DC, 20020","Match","Exact","1805 TOBIAS DR SE, WASHINGTON, DC, 20020",624368084,"L"
91073,"1805 TOUCH GOLD CT","ROWLETT","TX",75088,32.880163671,-96.577947824,73,"1805 TOUCH GOLD CT, ROWLETT, TX, 75088","Match","Exact","1805 TOUCH GOLD CT, ROWLETT, TX, 75088",103171605,"R"
91074,"1805 TULIP STREET NW","WASHINGTON","DC",20012,38.993800746,-77.040891073,74,"1805 TULIP STREET NW, WASHINGTON, DC, 20012","Match","Exact","1805 TULIP ST NW, WASHINGTON, DC, 20012",76221327,"R"
91075,"1805 VAL VERDE LANE","DELANO","CA",93215,35.7697794690001,-119.231459816,75,"1805 VAL VERDE LANE, DELANO, CA, 93215","Match","Exact","1805 VAL VERDE LN, DELANO, CA, 93215",109450124,"R"
91076,"1805 W AVE K STE 203B","LANCASTER","CA",93534,NA,NA,76,"1805 W AVE K STE 203B, LANCASTER, CA, 93534","No_Match",NA,NA,NA,NA
91077,"1805 W AVE K STE 203F","LANCASTER","CA",93534,NA,NA,77,"1805 W AVE K STE 203F, LANCASTER, CA, 93534","No_Match",NA,NA,NA,NA
91078,"1805 W COLLEGE","SPOKANE","WA",99201,47.6634470910001,-117.438004601,78,"1805 W COLLEGE, SPOKANE, WA, 99201","Match","Non_Exact","1805 W COLLEGE AVE, SPOKANE, WA, 99201",189875827,"L"
91079,"1805 W VIRGINIA AVE NE","WASHINGTON","DC",20002,38.910831262,-76.9853394419999,79,"1805 W VIRGINIA AVE NE, WASHINGTON, DC, 20002","Match","Exact","1805 WEST VIRGINIA AVE NE, WASHINGTON, DC, 20002",76230178,"R"
91080,"1805 WARREN AVENUE","CHEYENNE","WY",82001,41.1354433750001,-104.814254976,80,"1805 WARREN AVENUE, CHEYENNE, WY, 82001","Match","Exact","1805 WARREN AVE, CHEYENNE, WY, 82001",160149832,"R"
91081,"1805 WESLEY AVENUE","EVANSTON","IL",60201,42.0505295450001,-87.691937481,81,"1805 WESLEY AVENUE, EVANSTON, IL, 60201","Match","Exact","1805 WESLEY AVE, EVANSTON, IL, 60201",111743395,"R"
91082,"1805 WOODMILL STREET","CHESAPEAKE","VA",23320,36.7603438520001,-76.1985757959999,82,"1805 WOODMILL STREET, CHESAPEAKE, VA, 23320","Match","Exact","1805 WOODMILL ST, CHESAPEAKE, VA, 23320",635390080,"L"
91083,"18050 GREENLAWN","DETROIT","MI",48221,42.4230076810001,-83.1514879969999,83,"18050 GREENLAWN, DETROIT, MI, 48221","Match","Non_Exact","18050 GREENLAWN ST, DETROIT, MI, 48221",95425628,"R"
91084,"18051 BISCAYNE BLVD UNIT 1001-1","AVENTURA","FL",33160,25.9449230710001,-80.147668117,84,"18051 BISCAYNE BLVD UNIT 1001-1, AVENTURA, FL, 33160","Match","Exact","18051 BISCAYNE BLVD, AVENTURA, FL, 33160",651140633,"R"
91085,"18051 FAIRFIELD RD","RUSSELL","KS",67665,38.7983265330001,-98.942065101,85,"18051 FAIRFIELD RD, RUSSELL, KS, 67665","Match","Exact","18051 FAIRFIELD RD, RUSSELL, KS, 67665",640137518,"L"
91086,"18051 JAVA ISLE DRIVE","TAMPA","FL",33647,28.141563944,-82.2993734789999,86,"18051 JAVA ISLE DRIVE, TAMPA, FL, 33647","Match","Exact","18051 JAVA ISLE DR, TAMPA, FL, 33647",104673092,"R"
91087,"18051 LOS ANGELES AVE","HOMEWOOD","IL",60430,41.5614075120001,-87.685184371,87,"18051 LOS ANGELES AVE, HOMEWOOD, IL, 60430","Match","Exact","18051 LOS ANGELES AVE, HOMEWOOD, IL, 60430",111709006,"L"
91088,"18051 OVERTON DRIVE","BOONVILLE","MO",65233,38.94389834,-92.573809462,88,"18051 OVERTON DRIVE, BOONVILLE, MO, 65233","Match","Exact","18051 OVERTON DR, BOONVILLE, MO, 65233",606239182,"R"
91089,"18051 TEKLANIKA DR","EAGLE RIVER","AK",99577,61.3188424670001,-149.545571188,89,"18051 TEKLANIKA DR, EAGLE RIVER, AK, 99577","Match","Exact","18051 TEKLANIKA DR, EAGLE RIVER, AK, 99577",190807905,"L"
91090,"18052 GREEN VALLEY RD","CEDARREDGE","CO",81413,38.916760654,-107.957508751,90,"18052 GREEN VALLEY RD, CEDARREDGE, CO, 81413","Match","Non_Exact","18052 GREEN VALLEY RD, CEDAREDGE, CO, 81413",642494877,"R"
91091,"18053 ROSELAWN ST","DETROIT","MI",48221,42.423010397,-83.1527177299999,91,"18053 ROSELAWN ST, DETROIT, MI, 48221","Match","Exact","18053 ROSELAWN ST, DETROIT, MI, 48221",95425615,"L"
91092,"18054 BEE CANYON RD","DULZURA","CA",91917,32.6157827960001,-116.763427411,92,"18054 BEE CANYON RD, DULZURA, CA, 91917","Match","Exact","18054 BEE CANYON RD, DULZURA, CA, 91917",651636971,"L"
91093,"18055 BUSHARD ST","FOUNTAIN VALLEY","CA",92708,33.700187187,-117.962916068,93,"18055 BUSHARD ST, FOUNTAIN VALLEY, CA, 92708","Match","Exact","18055 BUSHARD ST, FOUNTAIN VALLEY, CA, 92708",653206582,"R"
91094,"18055 CARLOS POINT","COLORADO SPRINGS","CO",80928,NA,NA,94,"18055 CARLOS POINT, COLORADO SPRINGS, CO, 80928","No_Match",NA,NA,NA,NA
91095,"18057 ROBERTS LANE","WINONA","MO",65588,36.996643781,-91.3304356639999,95,"18057 ROBERTS LANE, WINONA, MO, 65588","Match","Exact","18057 ROBERTS LN, WINONA, MO, 65588",81989303,"R"
91096,"18057 SW 148 AVE RD","MIAMI","FL",33187,25.5988926480001,-80.431999972,96,"18057 SW 148 AVE RD, MIAMI, FL, 33187","Match","Exact","18057 SW 148TH AVENUE RD, MIAMI, FL, 33187",116095572,"L"
91097,"1805N ROSWELL RD APT 44C","MARIETTA","GA",27405,33.956125838,-84.5021103619999,97,"1805N ROSWELL RD APT 44C, MARIETTA, GA, 27405","Match","Non_Exact","1805 ROSWELL RD, MARIETTA, GA, 30062",624942937,"R"
91098,"1806 AMARGOSA","PALMDALE","CA",93551,34.592969017,-118.162222648,98,"1806 AMARGOSA, PALMDALE, CA, 93551","Match","Non_Exact","1806 AMARGOSA DR, PALMDALE, CA, 93551",241222717,"R"
91099,"1806 ARROWHEAD DR","BELOIT","WI",53511,42.5214688880001,-89.008680328,99,"1806 ARROWHEAD DR, BELOIT, WI, 53511","Match","Exact","1806 ARROWHEAD DR, BELOIT, WI, 53511",49858039,"L"
91100,"1806 BABBLING BRK NW","ACWORTH","GA",30102,34.0699709030001,-84.600232773,100,"1806 BABBLING BRK NW, ACWORTH, GA, 30102","Match","Exact","1806 BABBLING BRK NW, ACWORTH, GA, 30102",17223680,"R"
91101,"1806 BALLINA LANE","MCHENRY","IL",60050,42.3032578130001,-88.322786935,101,"1806 BALLINA LANE, MCHENRY, IL, 60050","Match","Exact","1806 BALLINA LN, MCHENRY, IL, 60050",633554367,"R"
91102,"1806 BERKELEY WAY  SUITE 9","BERKELEY","CA",94703,37.872210131,-122.275095231,102,"1806 BERKELEY WAY  SUITE 9, BERKELEY, CA, 94703","Match","Exact","1806 BERKELEY WAY, BERKELEY, CA, 94703",124993938,"R"
91103,"1806 BOONE TRAIL","LOUISVILLE","KY",40245,38.262706307,-85.461417878,103,"1806 BOONE TRAIL, LOUISVILLE, KY, 40245","Match","Exact","1806 BOONE TRL, LOUISVILLE, KY, 40245",618511336,"R"
91104,"1806 BOONES LICK ROAD UNIT B","SAINT CHARLES","MO",63301,38.775216872,-90.5076124559999,104,"1806 BOONES LICK ROAD UNIT B, SAINT CHARLES, MO, 63301","Match","Exact","1806 BOONES LICK RD, SAINT CHARLES, MO, 63301",641641926,"R"
91105,"1806 BY WOODS LANE","STEVENSON","MD",21153,39.427959172,-76.7127604189999,105,"1806 BY WOODS LANE, STEVENSON, MD, 21153","Match","Exact","1806 BY WOODS LN, STEVENSON, MD, 21153",647308329,"R"
91106,"1806 CARNATION DRIVE","DURHAM","NC",27703,35.9334304500001,-78.824070029,106,"1806 CARNATION DRIVE, DURHAM, NC, 27703","Match","Exact","1806 CARNATION DR, DURHAM, NC, 27703",71766766,"R"
91107,"1806 COYOTE PL","BRANDON","FL",33511,27.906503276,-82.32627781,107,"1806 COYOTE PL, BRANDON, FL, 33511","Match","Exact","1806 COYOTE PL, BRANDON, FL, 33511",104564444,"R"
91108,"1806 CURRY LANE","TWINSBURG","OH",44087,41.2842618230001,-81.450207652,108,"1806 CURRY LANE, TWINSBURG, OH, 44087","Match","Exact","1806 CURRY LN, TWINSBURG, OH, 44087",623907652,"L"
91109,"1806 D ST  NE SUITE 200A","WASHINGTON","DC",20001,NA,NA,109,"1806 D ST  NE SUITE 200A, WASHINGTON, DC, 20001","No_Match",NA,NA,NA,NA
91110,"1806 E 500 S","SHARPSVILLE","IN",46068,40.4047798300001,-86.091640814,110,"1806 E 500 S, SHARPSVILLE, IN, 46068","Match","Exact","1806 E 500 S, SHARPSVILLE, IN, 46068",652681821,"L"
91111,"1806 E ALTA VISTA RD","PHOENIX","AZ",85042,33.3890191420001,-112.042622865,111,"1806 E ALTA VISTA RD, PHOENIX, AZ, 85042","Match","Exact","1806 E ALTA VISTA RD, PHOENIX, AZ, 85042",128323884,"L"
91112,"1806 E FIR ST","SEATTLE","WA",98122,47.6026756530001,-122.308793361,112,"1806 E FIR ST, SEATTLE, WA, 98122","Match","Exact","1806 E FIR ST, SEATTLE, WA, 98122",186592881,"L"
91113,"1806 FLAMINGO LN","HARLINGEN","TX",78550,26.2097810830001,-97.68556354,113,"1806 FLAMINGO LN, HARLINGEN, TX, 78550","Match","Exact","1806 FLAMINGO LN, HARLINGEN, TX, 78550",89956873,"L"
91114,"1806 GARRETT ROAD","UPPER DARBY","PA",19082,NA,NA,114,"1806 GARRETT ROAD, UPPER DARBY, PA, 19082","No_Match",NA,NA,NA,NA
91115,"1806 GRANEMORE STREET","LAS VEGAS","NV",89135,36.153011468,-115.341802841,115,"1806 GRANEMORE STREET, LAS VEGAS, NV, 89135","Match","Exact","1806 GRANEMORE ST, LAS VEGAS, NV, 89135",641104857,"R"
91116,"1806 GRESHAM RD","LOUISVILLE","KY",40205,38.215985969,-85.6949654489999,116,"1806 GRESHAM RD, LOUISVILLE, KY, 40205","Match","Exact","1806 GRESHAM RD, LOUISVILLE, KY, 40205",96853153,"R"
91117,"1806 HAMILTON PLACE","STEUBENVILLE","OH",43952,40.3723861300001,-80.634502886,117,"1806 HAMILTON PLACE, STEUBENVILLE, OH, 43952","Match","Exact","1806 HAMILTON PL, STEUBENVILLE, OH, 43952",37800949,"L"
91118,"1806 JAMES SLAUGHTER RD APT 110","FUQUAY VARINA","NC",27526,35.6065570120001,-78.802944606,118,"1806 JAMES SLAUGHTER RD APT 110, FUQUAY VARINA, NC, 27526","Match","Exact","1806 JAMES SLAUGHTER RD, FUQUAY VARINA, NC, 27526",648796333,"R"
91119,"1806 LINCOLN BLVD","SANTA MONICA","CA",90404,NA,NA,119,"1806 LINCOLN BLVD, SANTA MONICA, CA, 90404","No_Match",NA,NA,NA,NA
91120,"1806 MANOR DRIVE  APT A","UNION","NJ",7083,40.7114429040001,-74.249223968,120,"1806 MANOR DRIVE  APT A, UNION, NJ, 7083","Match","Exact","1806 MANOR DR, UNION, NJ, 07083",60605543,"L"
91121,"1806 MENTOR AVE","DALLAS","TX",75216,32.6929044080001,-96.797144637,121,"1806 MENTOR AVE, DALLAS, TX, 75216","Match","Exact","1806 MENTOR AVE, DALLAS, TX, 75216",103172315,"R"
91122,"1806 MERRITT DRIVE","GREENSBORO","NC",27407,36.0483532980001,-79.8563030299999,122,"1806 MERRITT DRIVE, GREENSBORO, NC, 27407","Match","Exact","1806 MERRITT DR, GREENSBORO, NC, 27407",131029103,"R"
91123,"1806 MILTON DR","CHEYENNE","WV",82001,NA,NA,123,"1806 MILTON DR, CHEYENNE, WV, 82001","No_Match",NA,NA,NA,NA
91124,"1806 N DEWEY ST","AUBURN","IN",46706,41.382749932,-85.0349974279999,124,"1806 N DEWEY ST, AUBURN, IN, 46706","Match","Exact","1806 N DEWEY ST, AUBURN, IN, 46706",6523582,"L"
91125,"1806 N FLAMINGO RD STE 280","PEMBROKE PINES","FL",33028,26.0290049230001,-80.3125903609999,125,"1806 N FLAMINGO RD STE 280, PEMBROKE PINES, FL, 33028","Match","Non_Exact","1806 N FLAMINGO RD, PEMBROKE PINES, FL, 33028",637639831,"R"
91126,"1806 N FLAMINGO RD SUITE 300","PEMBROKE PINES","FL",33028,26.0290049230001,-80.3125903609999,126,"1806 N FLAMINGO RD SUITE 300, PEMBROKE PINES, FL, 33028","Match","Non_Exact","1806 N FLAMINGO RD, PEMBROKE PINES, FL, 33028",637639831,"R"
91127,"1806 N HARRISON BLVD","BOISE","ID",83702,43.6347470320001,-116.208289413,127,"1806 N HARRISON BLVD, BOISE, ID, 83702","Match","Exact","1806 HARRISON BLVD, BOISE, ID, 83702",117859739,"R"
91128,"1806 N ROCKWELL AVE APT 127","BETHANY","OK",73008,35.4875937690001,-97.6366317919999,128,"1806 N ROCKWELL AVE APT 127, BETHANY, OK, 73008","Match","Non_Exact","1806 N ROCKWELL AVE, BETHANY, OK, 73008",606162673,"R"
91129,"1806 N TELEGRAPH","DEARBORN","MI",48128,NA,NA,129,"1806 N TELEGRAPH, DEARBORN, MI, 48128","No_Match",NA,NA,NA,NA
91130,"1806 NW 32ND AVE UNIT B","PORTLAND","OR",97210,45.5352944970001,-122.714644825,130,"1806 NW 32ND AVE UNIT B, PORTLAND, OR, 97210","Match","Non_Exact","1806 NW 32ND AVE, PORTLAND, OR, 97210",157496926,"R"
91131,"1806 OAK HILL LANE","RICHMOND","VA",23223,37.5646494860001,-77.400526599,131,"1806 OAK HILL LANE, RICHMOND, VA, 23223","Match","Exact","1806 OAK HILL LN, RICHMOND, VA, 23223",106649852,"L"
91132,"1806 OAKCREST DRIVE","MARION","AL",36756,32.612599597,-87.3317755909999,132,"1806 OAKCREST DRIVE, MARION, AL, 36756","Match","Exact","1806 OAKCREST DR, MARION, AL, 36756",28060346,"R"
91133,"1806 OAKLAWN STREET","SUGAR LAND","TX",77498,29.647525612,-95.621342011,133,"1806 OAKLAWN STREET, SUGAR LAND, TX, 77498","Match","Exact","1806 OAKLAWN ST, SUGAR LAND, TX, 77498",78333435,"L"
91134,"1806 PEER DR","HOUSTON","TX",77043,29.8047356440001,-95.54792201,134,"1806 PEER DR, HOUSTON, TX, 77043","Match","Exact","1806 PEER DR, HOUSTON, TX, 77043",96019931,"R"
91135,"1806 PLANTERS WALK","GREENVILLE","NC",27858,35.5751513020001,-77.341605242,135,"1806 PLANTERS WALK, GREENVILLE, NC, 27858","Match","Exact","1806 PLANTERS WALK, GREENVILLE, NC, 27858",80017549,"R"
91136,"1806 QUINCY ST","PLAINVIEW","TX",79072,34.1997898980001,-101.724683142,136,"1806 QUINCY ST, PLAINVIEW, TX, 79072","Match","Exact","1806 QUINCY ST, PLAINVIEW, TX, 79072",185695959,"R"
91137,"1806 ROAN CROSSING","SAN ANTONIO","TX",78259,29.638440426,-98.4461540839999,137,"1806 ROAN CROSSING, SAN ANTONIO, TX, 78259","Match","Exact","1806 ROAN CROSSING, SAN ANTONIO, TX, 78259",101587569,"L"
91138,"1806 S  ALPINE RD","ROCKFORD","IL",61108,NA,NA,138,"1806 S  ALPINE RD, ROCKFORD, IL, 61108","No_Match",NA,NA,NA,NA
91139,"1806 S COTTAGE GROVE AVE  APT 310","URBANA","IL",61801,40.0961629710001,-88.194841916,139,"1806 S COTTAGE GROVE AVE  APT 310, URBANA, IL, 61801","Match","Non_Exact","1806 S COTTAGE GROVE AVE, URBANA, IL, 61801",8825281,"R"
91140,"1806 SOUTH MAIN STREET","HOPKINSVILLE","KY",42240,36.8594931550001,-87.492985943,140,"1806 SOUTH MAIN STREET, HOPKINSVILLE, KY, 42240","Match","Exact","1806 S MAIN ST, HOPKINSVILLE, KY, 42240",11289969,"R"
91141,"1806 SUMMIT AVE SUITE 300 STOP 322","RICHMOND","VA",23230,37.5690456460001,-77.468727055,141,"1806 SUMMIT AVE SUITE 300 STOP 322, RICHMOND, VA, 23230","Match","Exact","1806 SUMMIT AVE, RICHMOND, VA, 23230",201535532,"L"
91142,"1806 SW 4TH AVE","CAPE CORAL","FL",33991,26.61931055,-81.981987045,142,"1806 SW 4TH AVE, CAPE CORAL, FL, 33991","Match","Exact","1806 SW 4TH AVE, CAPE CORAL, FL, 33991",118011809,"R"
91143,"1806 SW MONROE","LAWTON","OK",73501,34.591363175,-98.415593572,143,"1806 SW MONROE, LAWTON, OK, 73501","Match","Non_Exact","1806 SW MONROE AVE, LAWTON, OK, 73501",14995024,"L"
91144,"1806 UNIVERSITY DR NW","HUNTSVILLE","AL",35801,34.74090886,-86.597407419,144,"1806 UNIVERSITY DR NW, HUNTSVILLE, AL, 35801","Match","Exact","1806 UNIVERSITY DR NW, HUNTSVILLE, AL, 35801",58211263,"L"
91145,"1806 VILLAGE DRIVE","BREWSTER","NY",10509,41.4039191350001,-73.604192202,145,"1806 VILLAGE DRIVE, BREWSTER, NY, 10509","Match","Exact","1806 VILLAGE DR, BREWSTER, NY, 10509",139682530,"L"
91146,"1806 VINTON STREET","OMAHA","NE",68108,41.233429567,-95.939989585,146,"1806 VINTON STREET, OMAHA, NE, 68108","Match","Exact","1806 VINTON ST, OMAHA, NE, 68108",116989010,"R"
91147,"1806 WEST LARSON ST","KNOXVILLE","IA",50138,41.328422027,-93.116567297,147,"1806 WEST LARSON ST, KNOXVILLE, IA, 50138","Match","Exact","1806 W LARSON ST, KNOXVILLE, IA, 50138",639145626,"R"
91148,"1806 WEST PARMER LANE","AUSTIN","TX",78727,30.4134892430001,-97.690906169,148,"1806 WEST PARMER LANE, AUSTIN, TX, 78727","Match","Exact","1806 W PARMER LN, AUSTIN, TX, 78727",63927167,"R"
91149,"1806 WOODS EDGE DRIVE","LEESBURG","VA",20176,39.120488015,-77.526146463,149,"1806 WOODS EDGE DRIVE, LEESBURG, VA, 20176","Match","Non_Exact","1806 WOODS EDGE DR NE, LEESBURG, VA, 20176",62355889,"R"
91150,"1806","DEARBORN","MI",48128,NA,NA,150,"1806, DEARBORN, MI, 48128","No_Match",NA,NA,NA,NA
91151,"18060 N 3RD ST","PHOENIX","AZ",85022,33.6505951280001,-112.070217101,151,"18060 N 3RD ST, PHOENIX, AZ, 85022","Match","Exact","18060 N 3RD ST, PHOENIX, AZ, 85022",128182299,"R"
91152,"18061 NW 27TH AVE","MIAMI GARDEN","FL",33056,25.9388313380001,-80.245204063,152,"18061 NW 27TH AVE, MIAMI GARDEN, FL, 33056","Match","Non_Exact","18061 NW 27TH AVE, MIAMI GARDENS, FL, 33056",639263032,"R"
91153,"18062 ALSEA HIGHWAY","ALSEA","OR",97324,44.3822200390001,-123.637428117,153,"18062 ALSEA HIGHWAY, ALSEA, OR, 97324","Match","Exact","18062 ALSEA HWY, ALSEA, OR, 97324",155860673,"R"
91154,"18062 FM 529  SUITE 175","CYPRESS","TX",77433,29.880070479,-95.6871005959999,154,"18062 FM 529  SUITE 175, CYPRESS, TX, 77433","Match","Non_Exact","18062 FM 529, CYPRESS, TX, 77433",649116919,"L"
91155,"18062 FM 529 RD PMB 251","CYPRESS","TX",77433,NA,NA,155,"18062 FM 529 RD PMB 251, CYPRESS, TX, 77433","No_Match",NA,NA,NA,NA
91156,"18062 FM 529 RD STE 238","CYPRESS","TX",77433,NA,NA,156,"18062 FM 529 RD STE 238, CYPRESS, TX, 77433","No_Match",NA,NA,NA,NA
91157,"18062 IRVINE BLVD STE 102","TUSTIN","CA",92780,NA,NA,157,"18062 IRVINE BLVD STE 102, TUSTIN, CA, 92780","No_Match",NA,NA,NA,NA
91158,"18062 ROBINWOOD DRIVE","SAUCIER","MS",39574,30.5549367570001,-89.139283108,158,"18062 ROBINWOOD DRIVE, SAUCIER, MS, 39574","Match","Exact","18062 ROBINWOOD DR, SAUCIER, MS, 39574",111414934,"R"
91159,"18063 DEER FOREST RD","GEORGETOWN","DE",19947,38.7367118060001,-75.440878998,159,"18063 DEER FOREST RD, GEORGETOWN, DE, 19947","Match","Exact","18063 DEER FOREST RD, GEORGETOWN, DE, 19947",106134113,"L"
91160,"18064 FROG LEVEL RD","RUTHER GLEN","VA",22546,37.8581382740001,-77.332343026,160,"18064 FROG LEVEL RD, RUTHER GLEN, VA, 22546","Match","Exact","18064 FROG LEVEL RD, RUTHER GLEN, VA, 22546",649959792,"R"
91161,"18065 SADDLEWOOD ROAD","MONUMENT","CO",80132,39.0940335240001,-104.787410794,161,"18065 SADDLEWOOD ROAD, MONUMENT, CO, 80132","Match","Exact","18065 SADDLEWOOD RD, MONUMENT, CO, 80132",653313598,"L"
91162,"18066 ARDMORE","DETROIT","MI",48235,42.422515681,-83.184951968,162,"18066 ARDMORE, DETROIT, MI, 48235","Match","Non_Exact","18066 ARDMORE ST, DETROIT, MI, 48235",95424423,"R"
91163,"18066 JAMES COUZENS HWY","DETROIT","MI",48235,42.422821491,-83.177660338,163,"18066 JAMES COUZENS HWY, DETROIT, MI, 48235","Match","Non_Exact","18066 JAMES COUZENS FWY, DETROIT, MI, 48235",95424512,"R"
91164,"18066 TROON TRL","MACOMB","MI",48042,42.7132703600001,-82.945810883,164,"18066 TROON TRL, MACOMB, MI, 48042","Match","Exact","18066 TROON TRL, MACOMB, MI, 48042",617073017,"R"
91165,"18069 HIGHWAY 169","COSBY","MO",64436,NA,NA,165,"18069 HIGHWAY 169, COSBY, MO, 64436","No_Match",NA,NA,NA,NA
91166,"1807 2ND AVENUE EAST","PALMETTO","FL",34221,27.529541706,-82.5626028459999,166,"1807 2ND AVENUE EAST, PALMETTO, FL, 34221","Match","Exact","1807 2ND AVE E, PALMETTO, FL, 34221",16243390,"L"
91167,"1807 9TH AVE SW","OLYMPIA","WA",98502,47.03985256,-122.923582035,167,"1807 9TH AVE SW, OLYMPIA, WA, 98502","Match","Exact","1807 9TH AVE SW, OLYMPIA, WA, 98502",180943482,"L"
91168,"1807 ANITA DRIVE","AUSTIN","TX",78704,30.2539677410001,-97.770248527,168,"1807 ANITA DRIVE, AUSTIN, TX, 78704","Match","Exact","1807 ANITA DR, AUSTIN, TX, 78704",63943804,"L"
91169,"1807 ASHBOROUGH CIRCLE APT B","MARIETTA","GA",30067,33.9251039500001,-84.4998459349999,169,"1807 ASHBOROUGH CIRCLE APT B, MARIETTA, GA, 30067","Match","Exact","1807 ASHBOROUGH CIR, MARIETTA, GA, 30067",17267825,"L"
91170,"1807 BLACK MAPLE PLACE","OCOEE","FL",34761,28.6127281730001,-81.5293081039999,170,"1807 BLACK MAPLE PLACE, OCOEE, FL, 34761","Match","Exact","1807 BLACK MAPLE PL, OCOEE, FL, 34761",652367955,"L"
91171,"1807 BROOKNEAL HWY","RUSTBURG","VA",24599,37.2486055200001,-79.117432665,171,"1807 BROOKNEAL HWY, RUSTBURG, VA, 24599","Match","Non_Exact","1807 BROOKNEAL HWY, RUSTBURG, VA, 24588",647593218,"L"
91172,"1807 COMMERCE STREET","YORKTOWN HEIGHTS","NY",10598,41.271215141,-73.7803847599999,172,"1807 COMMERCE STREET, YORKTOWN HEIGHTS, NY, 10598","Match","Exact","1807 COMMERCE ST, YORKTOWN HEIGHTS, NY, 10598",139728051,"L"
91173,"1807 DALY ROAD","ALEXANDER","AR",72002,34.642884436,-92.47165674,173,"1807 DALY ROAD, ALEXANDER, AR, 72002","Match","Non_Exact","1807 DALEY RD, ALEXANDER, AR, 72002",24225233,"R"
91174,"1807 DERRILL DR","DECATUR","GA",30032,33.738618677,-84.25906606,174,"1807 DERRILL DR, DECATUR, GA, 30032","Match","Exact","1807 DERRILL DR, DECATUR, GA, 30032",23370565,"R"
91175,"1807 EAST GRAND AVE","TOWER CITY","PA",17980,40.592052934,-76.533844169,175,"1807 EAST GRAND AVE, TOWER CITY, PA, 17980","Match","Exact","1807 E GRAND AVE, TOWER CITY, PA, 17980",70950646,"L"
91176,"1807 FRUTTETO CT","RICHMOND","TX",77406,NA,NA,176,"1807 FRUTTETO CT, RICHMOND, TX, 77406","No_Match",NA,NA,NA,NA
91177,"1807 GATEWAY PLACE","RANCHO MISSION VIEJO","CA",92694,33.5177898650001,-117.618168635,177,"1807 GATEWAY PLACE, RANCHO MISSION VIEJO, CA, 92694","Match","Exact","1807 GATEWAY PL, RANCHO MISSION VIEJO, CA, 92694",648217777,"L"
91178,"1807 GREENLAND DRIVE","MURFREESBORO","TN",37130,35.853778946,-86.3607451949999,178,"1807 GREENLAND DRIVE, MURFREESBORO, TN, 37130","Match","Exact","1807 GREENLAND DR, MURFREESBORO, TN, 37130",631012771,"R"
91179,"1807 HADLEY ST","HOUSTON","TX",77003,29.7430552860001,-95.365613859,179,"1807 HADLEY ST, HOUSTON, TX, 77003","Match","Exact","1807 HADLEY ST, HOUSTON, TX, 77003",96071643,"L"
91180,"1807 JOYCE CT","LITTLE ROCK","AR",72204,34.735614422,-92.345459018,180,"1807 JOYCE CT, LITTLE ROCK, AR, 72204","Match","Exact","1807 JOYCE CT, LITTLE ROCK, AR, 72204",83550885,"R"
91181,"1807 JT LUTHER DR APT 735","FORT WORTH","TX",76115,NA,NA,181,"1807 JT LUTHER DR APT 735, FORT WORTH, TX, 76115","No_Match",NA,NA,NA,NA
91182,"1807 LAKE CYPRESS DRIVE","SAFETY HARBOR","FL",34695,27.9994802190001,-82.7073594779999,182,"1807 LAKE CYPRESS DRIVE, SAFETY HARBOR, FL, 34695","Match","Exact","1807 LAKE CYPRESS DR, SAFETY HARBOR, FL, 34695",124683795,"L"
91183,"1807 LEANN LN","IRVING","TX",75061,32.831796696,-97.012547483,183,"1807 LEANN LN, IRVING, TX, 75061","Match","Exact","1807 LEANN LN, IRVING, TX, 75061",651036720,"L"
91184,"1807 MAJESTIC DR","OREFIELD","PA",18069,40.6076481220001,-75.58394734,184,"1807 MAJESTIC DR, OREFIELD, PA, 18069","Match","Exact","1807 MAJESTIC DR, OREFIELD, PA, 18069",617261548,"R"
91185,"1807 MARKET BLVD PMB 210","HASTINGS","MN",55033,44.737229572,-92.892482872,185,"1807 MARKET BLVD PMB 210, HASTINGS, MN, 55033","Match","Exact","1807 MARKET BLVD, HASTINGS, MN, 55033",617906609,"L"
91186,"1807 MARKET BLVD STE 323","HASTINGS","MN",55033,44.737229572,-92.892482872,186,"1807 MARKET BLVD STE 323, HASTINGS, MN, 55033","Match","Exact","1807 MARKET BLVD, HASTINGS, MN, 55033",617906609,"L"
91187,"1807 MEMORIAL DRIVE","ATLANTA","GA",30317,33.747413668,-84.328278272,187,"1807 MEMORIAL DRIVE, ATLANTA, GA, 30317","Match","Non_Exact","1807 MEMORIAL DR SE, ATLANTA, GA, 30317",23365609,"R"
91188,"1807 MOORE RD","YAKIMA","WA",98908,46.5692093850001,-120.667502794,188,"1807 MOORE RD, YAKIMA, WA, 98908","Match","Non_Exact","1807 S MOORE RD, YAKIMA, WA, 98908",649718203,"L"
91189,"1807 N DANVILLE ST","ARLINGTON","VA",22201,38.893819567,-77.092881903,189,"1807 N DANVILLE ST, ARLINGTON, VA, 22201","Match","Exact","1807 N DANVILLE ST, ARLINGTON, VA, 22201",76469648,"R"
91190,"1807 N VAN NESS AVE","LOS ANGELES","CA",90028,34.1039682200001,-118.315811724,190,"1807 N VAN NESS AVE, LOS ANGELES, CA, 90028","Match","Exact","1807 N VAN NESS AVE, LOS ANGELES, CA, 90028",141597149,"L"
91191,"1807 NE 164TH STREET","N. MIAMI BEACH","FL",33162,25.9270509030001,-80.16376425,191,"1807 NE 164TH STREET, N. MIAMI BEACH, FL, 33162","Match","Exact","1807 NE 164TH ST, N MIAMI BEACH, FL, 33162",116036321,"L"
91192,"1807 NORTH HURON RIVER DRIVE","YPSILANTI","MI",48197,42.257935241,-83.6412291779999,192,"1807 NORTH HURON RIVER DRIVE, YPSILANTI, MI, 48197","Match","Exact","1807 N HURON RIVER DR, YPSILANTI, MI, 48197",638893419,"L"
91193,"1807 NORTHBORNE AVENUE","BALTIMORE","MD",21239,39.3539738760001,-76.582059874,193,"1807 NORTHBORNE AVENUE, BALTIMORE, MD, 21239","Match","Non_Exact","1807 NORTHBOURNE RD, BALTIMORE, MD, 21239",206409701,"R"
91194,"1807 PINECREST ST","BURLINGTON","NC",27215,36.0778889100001,-79.456949301,194,"1807 PINECREST ST, BURLINGTON, NC, 27215","Match","Exact","1807 PINECREST ST, BURLINGTON, NC, 27215",71663518,"R"
91195,"1807 RAEMONT WAY","NORTH VERNON","IN",47265,39.0347203480001,-85.695142461,195,"1807 RAEMONT WAY, NORTH VERNON, IN, 47265","Match","Exact","1807 RAEMONT WAY, NORTH VERNON, IN, 47265",30112740,"R"
91196,"1807 READING COURT","MOUNT AIRY","MD",21771,39.367668274,-77.1323836669999,196,"1807 READING COURT, MOUNT AIRY, MD, 21771","Match","Exact","1807 READING CT, MOUNT AIRY, MD, 21771",608452394,"L"
91197,"1807 ROSEMONT BOULEVARD","DAYTON","OH",45420,39.7407274180001,-84.142504566,197,"1807 ROSEMONT BOULEVARD, DAYTON, OH, 45420","Match","Exact","1807 ROSEMONT BLVD, DAYTON, OH, 45420",143576080,"R"
91198,"1807 ROSS AVENUE SUITE 325","DALLAS","TX",75201,32.7862138340001,-96.800103316,198,"1807 ROSS AVENUE SUITE 325, DALLAS, TX, 75201","Match","Exact","1807 ROSS AVE, DALLAS, TX, 75201",102909946,"L"
91199,"1807 ROYAL FERN CT","HOUSTON","TX",77062,29.5825620970001,-95.128233839,199,"1807 ROYAL FERN CT, HOUSTON, TX, 77062","Match","Exact","1807 ROYAL FERN CT, HOUSTON, TX, 77062",96545539,"R"
91200,"1807 S 10TH AVE","ARCADIA","CA",91006,34.1191702520001,-118.012361831,200,"1807 S 10TH AVE, ARCADIA, CA, 91006","Match","Exact","1807 S 10TH AVE, ARCADIA, CA, 91006",650196624,"R"
91201,"1807 S NEIL ST","CHAMPAIGN","IL",61820,40.094333497,-88.245218919,201,"1807 S NEIL ST, CHAMPAIGN, IL, 61820","Match","Exact","1807 S NEIL ST, CHAMPAIGN, IL, 61820",8833434,"R"
91202,"1807 S NEIL STREET","CHAMPAIGN","IL",61820,40.094333497,-88.245218919,202,"1807 S NEIL STREET, CHAMPAIGN, IL, 61820","Match","Exact","1807 S NEIL ST, CHAMPAIGN, IL, 61820",8833434,"R"
91203,"1807 S TAYLOR ST","PHILADELPHIA","PA",19145,39.930114121,-75.18629738,203,"1807 S TAYLOR ST, PHILADELPHIA, PA, 19145","Match","Exact","1807 S TAYLOR ST, PHILADELPHIA, PA, 19145",131410768,"L"
91204,"1807 S WASHINGTON - 110-324","NAPERVILLE","IL",60565,NA,NA,204,"1807 S WASHINGTON - 110-324, NAPERVILLE, IL, 60565","No_Match",NA,NA,NA,NA
91205,"1807 SANTA CLARA AVE STE A","ALAMEDA","CA",94501,37.77068595,-122.254105345,205,"1807 SANTA CLARA AVE STE A, ALAMEDA, CA, 94501","Match","Exact","1807 SANTA CLARA AVE, ALAMEDA, CA, 94501",606410161,"L"
91206,"1807 SEBASTIAN DR","BURLINGAME","CA",94010,37.582810067,-122.396354137,206,"1807 SEBASTIAN DR, BURLINGAME, CA, 94010","Match","Exact","1807 SEBASTIAN DR, BURLINGAME, CA, 94010",192374876,"L"
91207,"1807 SLAUGHTER ROAD SUITE B","MADISON","AL",35758,34.753374222,-86.714362793,207,"1807 SLAUGHTER ROAD SUITE B, MADISON, AL, 35758","Match","Exact","1807 SLAUGHTER RD, MADISON, AL, 35758",645583780,"L"
91208,"1807 SPREADING BOUGH LN","RICHMOND","TX",77406,29.6211391580001,-95.7501538929999,208,"1807 SPREADING BOUGH LN, RICHMOND, TX, 77406","Match","Exact","1807 SPREADING BOUGH LN, RICHMOND, TX, 77406",629585082,"R"
91209,"1807 STONEY RIDGE ROAD","WEST BRANCH","MI",48661,44.386357629,-84.207105449,209,"1807 STONEY RIDGE ROAD, WEST BRANCH, MI, 48661","Match","Exact","1807 STONEY RIDGE RD, WEST BRANCH, MI, 48661",161355257,"L"
91210,"1807 TENNESSEE ST","VALLEJO","CA",94590,38.1097417610001,-122.236187844,210,"1807 TENNESSEE ST, VALLEJO, CA, 94590","Match","Exact","1807 TENNESSEE ST, VALLEJO, CA, 94590",192528004,"R"
91211,"1807 THOMPSON CROSSING DR","RICHMOND","TX",77406,29.6302678330001,-95.735016957,211,"1807 THOMPSON CROSSING DR, RICHMOND, TX, 77406","Match","Exact","1807 THOMPSON CROSSING DR, RICHMOND, TX, 77406",78281570,"L"
91212,"1807 TULLAMORE AVE APT 4","BLOOMINGTON","IL",61704,40.4559131010001,-88.9145629449999,212,"1807 TULLAMORE AVE APT 4, BLOOMINGTON, IL, 61704","Match","Exact","1807 TULLAMORE AVE, BLOOMINGTON, IL, 61704",648332473,"R"
91213,"1807 W  DIEHL RD SUITE 105","NAPERVILLE","IL",60563,41.799047709,-88.207719717,213,"1807 W  DIEHL RD SUITE 105, NAPERVILLE, IL, 60563","Match","Exact","1807 DIEHL RD, NAPERVILLE, IL, 60563",639894092,"L"
91214,"1807 WARREN DRIVE","CLARKSVILLE","TN",37040,36.553634915,-87.340703251,214,"1807 WARREN DRIVE, CLARKSVILLE, TN, 37040","Match","Exact","1807 WARREN DR, CLARKSVILLE, TN, 37040",31827691,"L"
91215,"1807 WEST MARKET STREET","GREENSBORO","NC",27403,36.0738513540001,-79.817083996,215,"1807 WEST MARKET STREET, GREENSBORO, NC, 27403","Match","Exact","1807 W MARKET ST, GREENSBORO, NC, 27403",131114600,"L"
91216,"1807 WILLOW OAK DRIVE","WEXFORD","PA",15090,40.6147216420001,-80.079083425,216,"1807 WILLOW OAK DRIVE, WEXFORD, PA, 15090","Match","Exact","1807 WILLOW OAK DR, WEXFORD, PA, 15090",51714672,"L"
91217,"1807-C WEST PARK ROW","ARLINGTON","TX",76013,32.7212729890001,-97.13534013,217,"1807-C WEST PARK ROW, ARLINGTON, TX, 76013","Match","Non_Exact","1807 W PARK ROW DR, ARLINGTON, TX, 76013",101905740,"R"
91218,"18070 CHERRY STREET","HESPERIA","CA",92345,34.4304193830001,-117.268999743,218,"18070 CHERRY STREET, HESPERIA, CA, 92345","Match","Exact","18070 CHERRY ST, HESPERIA, CA, 92345",144589387,"L"
91219,"18070 S TAMIAMI TRAIL STE 11","FORT MYERS","FL",33908,26.4767599460001,-81.837699189,219,"18070 S TAMIAMI TRAIL STE 11, FORT MYERS, FL, 33908","Match","Non_Exact","18070 S TAMIAMI TRL, FORT MYERS, FL, 33908",638080149,"L"
91220,"18071 AZALEA DR","BROWNSTOWN","MI",48173,42.080909692,-83.2223250819999,220,"18071 AZALEA DR, BROWNSTOWN, MI, 48173","Match","Exact","18071 AZALEA DR, BROWNSTOWN, MI, 48173",95691619,"R"
91221,"18071 LAKE WORTH BLVD","PORT CHARLOTTE","FL",33948,26.96648924,-82.153876526,221,"18071 LAKE WORTH BLVD, PORT CHARLOTTE, FL, 33948","Match","Exact","18071 LAKE WORTH BLVD, PORT CHARLOTTE, FL, 33948",4299975,"L"
91222,"18072 MANCHESTER RD STE 162","WILDWOOD","MO",63038,38.572747017,-90.687053361,222,"18072 MANCHESTER RD STE 162, WILDWOOD, MO, 63038","Match","Exact","18072 MANCHESTER RD, WILDWOOD, MO, 63038",628730509,"L"
91223,"180733 N 2820","COMANCHE","OK",73529,NA,NA,223,"180733 N 2820, COMANCHE, OK, 73529","No_Match",NA,NA,NA,NA
91224,"18074 JONES STREET","ELKHORN","NE",68022,41.2525152870001,-96.198619161,224,"18074 JONES STREET, ELKHORN, NE, 68022","Match","Exact","18074 JONES ST, ELKHORN, NE, 68022",117036646,"R"
91225,"18075 VENTURA BLVD STE 124","ENCINO","CA",91316,34.1651864290001,-118.526440569,225,"18075 VENTURA BLVD STE 124, ENCINO, CA, 91316","Match","Exact","18075 VENTURA BLVD, ENCINO, CA, 91316",141555844,"R"
91226,"18077 ASTOR DR","FAYETTEVILLE","AR",72704,36.134417953,-94.279097205,226,"18077 ASTOR DR, FAYETTEVILLE, AR, 72704","Match","Exact","18077 ASTOR DR, FAYETTEVILLE, AR, 72704",641626799,"R"
91227,"18077 N VICKI RD","RATHDRUM","ID",83858,47.83605443,-116.817446956,227,"18077 N VICKI RD, RATHDRUM, ID, 83858","Match","Exact","18077 N VICKI RD, RATHDRUM, ID, 83858",192898100,"L"
91228,"18079 MOOK ROAD","SAEGERTOWN","PA",16433,41.7230267620001,-80.165013755,228,"18079 MOOK ROAD, SAEGERTOWN, PA, 16433","Match","Exact","18079 MOOK RD, SAEGERTOWN, PA, 16433",98570736,"L"
91229,"1808 12TH AVE","MOLINE","IL",61265,41.500423821,-90.509295245,229,"1808 12TH AVE, MOLINE, IL, 61265","Match","Exact","1808 12TH AVE, MOLINE, IL, 61265",639887631,"R"
91230,"1808 14TH AVE","TUSCALOOSA","AL",35401,33.195682371,-87.555671133,230,"1808 14TH AVE, TUSCALOOSA, AL, 35401","Match","Exact","1808 14TH AVE, TUSCALOOSA, AL, 35401",82214351,"R"
91231,"1808 4TH ST","MERIDIAN","MS",39301,32.3655479600001,-88.69587172,231,"1808 4TH ST, MERIDIAN, MS, 39301","Match","Exact","1808 4TH ST, MERIDIAN, MS, 39301",195415,"L"
91232,"1808 61ST AVE","CHEVERLY","MD",20785,38.9138726130001,-76.9125158369999,232,"1808 61ST AVE, CHEVERLY, MD, 20785","Match","Exact","1808 61ST AVE, CHEVERLY, MD, 20785",76307818,"L"
91233,"1808 ANGELIQUE DRIVE","DECATUR","GA",30033,33.83441271,-84.293491618,233,"1808 ANGELIQUE DRIVE, DECATUR, GA, 30033","Match","Exact","1808 ANGELIQUE DR, DECATUR, GA, 30033",23360154,"L"
91234,"1808 ARABIAN AVE","NAPERVILLE","IL",60565,41.7438027200001,-88.092378066,234,"1808 ARABIAN AVE, NAPERVILLE, IL, 60565","Match","Exact","1808 ARABIAN AVE, NAPERVILLE, IL, 60565",112568402,"R"
91235,"1808 ASTON AVE SUITE 230","CARLSBAD","CA",92008,33.1320884520001,-117.29136142,235,"1808 ASTON AVE SUITE 230, CARLSBAD, CA, 92008","Match","Exact","1808 ASTON AVE, CARLSBAD, CA, 92008",195419278,"R"
91236,"1808 ATHENA DR","LANCASTER","TX",75134,32.6049121880001,-96.798048708,236,"1808 ATHENA DR, LANCASTER, TX, 75134","Match","Exact","1808 ATHENA DR, LANCASTER, TX, 75134",619082560,"R"
91237,"1808 BANNACK DR","BILLINGS","MT",59105,45.831475454,-108.447057211,237,"1808 BANNACK DR, BILLINGS, MT, 59105","Match","Exact","1808 BANNACK DR, BILLINGS, MT, 59105",181478358,"L"
91238,"1808 BARCLAY FOREST COURT","WENTZVILLE","MO",63385,38.849848686,-90.878059774,238,"1808 BARCLAY FOREST COURT, WENTZVILLE, MO, 63385","Match","Exact","1808 BARCLAY FOREST CT, WENTZVILLE, MO, 63385",645711287,"L"
91239,"1808 BATH AVE APT 2","BROOKLYN","NY",11214,40.6037072250001,-74.0058467009999,239,"1808 BATH AVE APT 2, BROOKLYN, NY, 11214","Match","Exact","1808 BATH AVE, BROOKLYN, NY, 11214",59088138,"R"
91240,"1808 BAYNARD COURT NW","ACWORTH","GA",30102,34.0711591780001,-84.603174349,240,"1808 BAYNARD COURT NW, ACWORTH, GA, 30102","Match","Non_Exact","1808 BAYNARD CT, ACWORTH, GA, 30102",17214305,"R"
91241,"1808 BROOKCLIFF DRIVE","GREENSBORO","NC",27408,36.1164387650001,-79.845041963,241,"1808 BROOKCLIFF DRIVE, GREENSBORO, NC, 27408","Match","Exact","1808 BROOKCLIFF DR, GREENSBORO, NC, 27408",131027972,"R"
91242,"1808 CASPIAN LANE","COLLEYVILLE","TX",76034,32.9136343550001,-97.14012545,242,"1808 CASPIAN LANE, COLLEYVILLE, TX, 76034","Match","Exact","1808 CASPIAN LN, COLLEYVILLE, TX, 76034",102145772,"L"
91243,"1808 CLEGG ST","HOWE","TX",75459,33.522436193,-96.6242161329999,243,"1808 CLEGG ST, HOWE, TX, 75459","Match","Exact","1808 CLEGG ST, HOWE, TX, 75459",651003771,"R"
91244,"1808 CROSS CIRCLE","HOOVER","AL",35244,33.337510459,-86.8980120859999,244,"1808 CROSS CIRCLE, HOOVER, AL, 35244","Match","Exact","1808 CROSS CIR, HOOVER, AL, 35244",81669490,"R"
91245,"1808 CRYSTAL LANE LOOP SE","PUYALLUP","WA",98372,47.173967664,-122.241339962,245,"1808 CRYSTAL LANE LOOP SE, PUYALLUP, WA, 98372","Match","Exact","1808 CRYSTAL LANE LOOP SE, PUYALLUP, WA, 98372",184678135,"R"
91246,"1808 E ORLEANS ST","PHILADELPHIA","PA",19134,39.993517685,-75.118078947,246,"1808 E ORLEANS ST, PHILADELPHIA, PA, 19134","Match","Exact","1808 E ORLEANS ST, PHILADELPHIA, PA, 19134",131421199,"R"
91247,"1808 EAST 27TH STREES","CHATTANOOGA","TN",37407,35.014116362,-85.288013742,247,"1808 EAST 27TH STREES, CHATTANOOGA, TN, 37407","Match","Non_Exact","1808 E 27TH ST, CHATTANOOGA, TN, 37407",59313058,"R"
91248,"1808 EAST STREET","BLACK EARTH","WI",53515,43.1328946420001,-89.745500803,248,"1808 EAST STREET, BLACK EARTH, WI, 53515","Match","Exact","1808 EAST ST, BLACK EARTH, WI, 53515",49458725,"L"
91249,"1808 ELIZABETH AVE","CHESAPEAKE","VA",23324,36.799284298,-76.260290216,249,"1808 ELIZABETH AVE, CHESAPEAKE, VA, 23324","Match","Non_Exact","1808 ELIZABETH ST, CHESAPEAKE, VA, 23324",121788203,"R"
91250,"1808 F AVENUE","NATIONAL CITY","CA",91950,32.668801789,-117.097355261,250,"1808 F AVENUE, NATIONAL CITY, CA, 91950","Match","Exact","1808 F AVE, NATIONAL CITY, CA, 91950",195349856,"R"
91251,"1808 FOREST GLEN WAY","ST AUGUSTINE","FL",32092,30.040852477,-81.4999323879999,251,"1808 FOREST GLEN WAY, ST AUGUSTINE, FL, 32092","Match","Exact","1808 FOREST GLEN WAY, SAINT AUGUSTINE, FL, 32092",639681201,"R"
91252,"1808 FRONT STREET","SLIDELL","LA",70458,30.27844549,-89.78233798,252,"1808 FRONT STREET, SLIDELL, LA, 70458","Match","Exact","1808 FRONT ST, SLIDELL, LA, 70458",639186086,"R"
91253,"1808 GENERAL OGDEN STREET","NEW ORLEANS","LA",70118,29.957075215,-90.1317710709999,253,"1808 GENERAL OGDEN STREET, NEW ORLEANS, LA, 70118","Match","Exact","1808 GENERAL OGDEN ST, NEW ORLEANS, LA, 70118",191700394,"L"
91254,"1808 GLENSIDE DR","GREENSBORO","NC",27405,36.134564244,-79.767480636,254,"1808 GLENSIDE DR, GREENSBORO, NC, 27405","Match","Exact","1808 GLENSIDE DR, GREENSBORO, NC, 27405",623949485,"R"
91255,"1808 GLENVIEW DRIVE","LAS VEGAS","NV",89134,36.1927626620001,-115.296991243,255,"1808 GLENVIEW DRIVE, LAS VEGAS, NV, 89134","Match","Exact","1808 GLENVIEW DR, LAS VEGAS, NV, 89134",201923983,"L"
91256,"1808 GREY FRIARS CHASE","VIRGINIA BEACH","VA",23456,36.785392926,-76.132931876,256,"1808 GREY FRIARS CHASE, VIRGINIA BEACH, VA, 23456","Match","Exact","1808 GREY FRIARS CHASE, VA BCH, VA, 23456",122300656,"R"
91257,"1808 HAWK VIEW DRIVE","ENCINITAS","CA",92024,33.081754775,-117.282658617,257,"1808 HAWK VIEW DRIVE, ENCINITAS, CA, 92024","Match","Exact","1808 HAWK VIEW DR, ENCINITAS, CA, 92024",195674521,"L"
91258,"1808 HENSON COURT","SHAWNEE","OK",74804,35.352804416,-96.900369891,258,"1808 HENSON COURT, SHAWNEE, OK, 74804","Match","Exact","1808 HENSON CT, SHAWNEE, OK, 74804",100599118,"L"
91259,"1808 LAKE TAWAKONI DRIVE","ALLEN","TX",75002,33.088051229,-96.622104559,259,"1808 LAKE TAWAKONI DRIVE, ALLEN, TX, 75002","Match","Exact","1808 LAKE TAWAKONI DR, ALLEN, TX, 75002",123567446,"L"
91260,"1808 LOWER SASSAFRAS PKWY","JASPER","GA",30143,34.523634444,-84.3171077329999,260,"1808 LOWER SASSAFRAS PKWY, JASPER, GA, 30143","Match","Non_Exact","1808 LOWER SASSAFRAS RD, JASPER, GA, 30143",70160359,"R"
91261,"1808 LYNNWOOD DR","BURLINGTON","NC",27215,36.065521501,-79.458964615,261,"1808 LYNNWOOD DR, BURLINGTON, NC, 27215","Match","Exact","1808 LYNNWOOD DR, BURLINGTON, NC, 27215",71663848,"L"
91262,"1808 MERIADOC RD","TALLAHASSEE","FL",32303,30.466061327,-84.328444986,262,"1808 MERIADOC RD, TALLAHASSEE, FL, 32303","Match","Exact","1808 MERIADOC RD, TALLAHASSEE, FL, 32303",82847578,"L"
91263,"1808 MIDDLE SOUND LOOP ROAD","WILMINGTON","NC",28411,34.264210484,-77.777344989,263,"1808 MIDDLE SOUND LOOP ROAD, WILMINGTON, NC, 28411","Match","Exact","1808 MIDDLE SOUND LOOP RD, WILMINGTON, NC, 28411",616289475,"R"
91264,"1808 MONTGOMERY AVENUE","VILLANOVA","PA",19085,40.045904707,-75.33582534,264,"1808 MONTGOMERY AVENUE, VILLANOVA, PA, 19085","Match","Exact","1808 MONTGOMERY AVE, VILLANOVA, PA, 19085",135124192,"L"
91265,"1808 MORNING DOVE","AUBREY","TX",76227,33.2245320100001,-96.932379109,265,"1808 MORNING DOVE, AUBREY, TX, 76227","Match","Non_Exact","1808 MORNING DOVE DR, AUBREY, TX, 76227",629559669,"R"
91266,"1808 N ARLINGTON HEIGHTS RD","ARLINGTON HEIGHTS","IL",60004,42.1090786730001,-87.980426431,266,"1808 N ARLINGTON HEIGHTS RD, ARLINGTON HEIGHTS, IL, 60004","Match","Exact","1808 N ARLINGTON HEIGHTS RD, ARLINGTON HEIGHTS, IL, 60004",605613953,"R"
91267,"1808 NORMAN INGRAM AVE","PLANT CITY","FL",33567,27.9490022900001,-82.091818481,267,"1808 NORMAN INGRAM AVE, PLANT CITY, FL, 33567","Match","Exact","1808 NORMAN INGRAM AVE, PLANT CITY, FL, 33567",104593991,"L"
91268,"1808 OLD MEADOW ROAD APT 618","MCLEAN","VA",22102,38.9167891720001,-77.2141704539999,268,"1808 OLD MEADOW ROAD APT 618, MCLEAN, VA, 22102","Match","Non_Exact","1808 OLD MEADOW RD, MCLEAN, VA, 22102",611917624,"R"
91269,"1808 OVERBROOK DR","ARLINGTON","TX",76014,32.69558963,-97.082747422,269,"1808 OVERBROOK DR, ARLINGTON, TX, 76014","Match","Exact","1808 OVERBROOK DR, ARLINGTON, TX, 76014",101910215,"R"
91270,"1808 POPLAR STREET","ANDERSON","IN",46012,40.13301434,-85.676486355,270,"1808 POPLAR STREET, ANDERSON, IN, 46012","Match","Exact","1808 POPLAR ST, ANDERSON, IN, 46012",31113976,"R"
91271,"1808 RICHARDS PLACE","UPLAND","CA",91784,34.1308930320001,-117.631001243,271,"1808 RICHARDS PLACE, UPLAND, CA, 91784","Match","Exact","1808 RICHARDS PL, UPLAND, CA, 91784",614821735,"R"
91272,"1808 RIDGE ROAD","FORKED RIVER","NJ",8731,39.849754347,-74.214971232,272,"1808 RIDGE ROAD, FORKED RIVER, NJ, 8731","Match","Exact","1808 RIDGE RD, FORKED RIVER, NJ, 08731",203699527,"R"
91273,"1808 S 119TH E AVE","TULSA","OK",74128,36.136358494,-95.844598666,273,"1808 S 119TH E AVE, TULSA, OK, 74128","Match","Exact","1808 S 119TH EAST AVE, TULSA, OK, 74128",166456764,"R"
91274,"1808 S 91ST ST","TACOMA","WA",98444,47.1747860420001,-122.461284626,274,"1808 S 91ST ST, TACOMA, WA, 98444","Match","Exact","1808 S 91ST ST, TACOMA, WA, 98444",184628056,"L"
91275,"1808 S GOOD LATIMER EXPY","DALLAS","TX",75226,32.77532797,-96.78135058,275,"1808 S GOOD LATIMER EXPY, DALLAS, TX, 75226","Match","Exact","1808 S GOOD LATIMER EXPY, DALLAS, TX, 75226",102911987,"L"
91276,"1808 S GOODLATIMER EXPY","DALLAS","TX",75226,32.77532797,-96.78135058,276,"1808 S GOODLATIMER EXPY, DALLAS, TX, 75226","Match","Non_Exact","1808 S GOOD LATIMER EXPY, DALLAS, TX, 75226",102911987,"L"
91277,"1808 SAMPSON ST","HOUSTON","TX",77003,29.7388204270001,-95.348902548,277,"1808 SAMPSON ST, HOUSTON, TX, 77003","Match","Exact","1808 SAMPSON ST, HOUSTON, TX, 77003",96073056,"R"
91278,"1808 SCENIC DRIVE 107","MODESTO","CA",95355,37.6515162490001,-120.96589221,278,"1808 SCENIC DRIVE 107, MODESTO, CA, 95355","Match","Exact","1808 SCENIC DR, MODESTO, CA, 95355",102618256,"R"
91279,"1808 SHELDON DR","NEWARK","DE",19711,NA,NA,279,"1808 SHELDON DR, NEWARK, DE, 19711","No_Match",NA,NA,NA,NA
91280,"1808 SIXTH STREET","BERKELEY","CA",94710,37.870385877,-122.298530538,280,"1808 SIXTH STREET, BERKELEY, CA, 94710","Match","Exact","1808 6TH ST, BERKELEY, CA, 94710",635729329,"R"
91281,"1808 SOLVANG MILL DR","LAS VEGAS","NV",89135,36.153061924,-115.338339836,281,"1808 SOLVANG MILL DR, LAS VEGAS, NV, 89135","Match","Exact","1808 SOLVANG MILL DR, LAS VEGAS, NV, 89135",641472513,"R"
91282,"1808 SOUTH 30TH STREET","PHILADELPHIA","PA",19145,39.931222717,-75.1949758819999,282,"1808 SOUTH 30TH STREET, PHILADELPHIA, PA, 19145","Match","Exact","1808 S 30TH ST, PHILADELPHIA, PA, 19145",647563868,"R"
91283,"1808 SOUTH WALNUT STREET","SPRINGFIELD","IL",62704,39.7812720000001,-89.664133233,283,"1808 SOUTH WALNUT STREET, SPRINGFIELD, IL, 62704","Match","Exact","1808 S WALNUT ST, SPRINGFIELD, IL, 62704",97322948,"L"
91284,"1808 SPEYER LANE UNIT B","REDONDO BEACH","CA",90278,33.862404912,-118.380813529,284,"1808 SPEYER LANE UNIT B, REDONDO BEACH, CA, 90278","Match","Exact","1808 SPEYER LN, REDONDO BEACH, CA, 90278",141583762,"R"
91285,"1808 SUMMER BREEZE DR NW","ALBUQUERQUE","NM",87120,35.1021973690001,-106.742357778,285,"1808 SUMMER BREEZE DR NW, ALBUQUERQUE, NM, 87120","Match","Exact","1808 SUMMER BREEZE DR NW, ALBUQUERQUE, NM, 87120",638540941,"R"
91286,"1808 TIMBER LANE","LAS  VEGAS","NV",89108,36.190580896,-115.219077883,286,"1808 TIMBER LANE, LAS  VEGAS, NV, 89108","Match","Exact","1808 TIMBER LN, LAS VEGAS, NV, 89108",201860554,"L"
91287,"1808 VERONA RD","HENRICO","VA",23229,37.6165374560001,-77.5710073779999,287,"1808 VERONA RD, HENRICO, VA, 23229","Match","Exact","1808 VERONA RD, HENRICO, VA, 23229",106643093,"L"
91288,"1808 W CHICAGO AVE APT 2R","CHICAGO","IL",60622,41.895993301,-87.6725360739999,288,"1808 W CHICAGO AVE APT 2R, CHICAGO, IL, 60622","Match","Non_Exact","1808 W CHICAGO AVE, CHICAGO, IL, 60622",111764791,"R"
91289,"1808 W COLLEGE AVE","SPOKANE","WA",99201,47.66345735,-117.438097779,289,"1808 W COLLEGE AVE, SPOKANE, WA, 99201","Match","Exact","1808 W COLLEGE AVE, SPOKANE, WA, 99201",189875827,"R"
91290,"1808 W MOUNTAIN STREET","GLENDALE","CA",91201,34.1831198400001,-118.2808527,290,"1808 W MOUNTAIN STREET, GLENDALE, CA, 91201","Match","Exact","1808 W MOUNTAIN ST, GLENDALE, CA, 91201",141596183,"L"
91291,"1808 WEST ERIE STREET","CHICAGO","IL",60622,41.8932591440001,-87.672521385,291,"1808 WEST ERIE STREET, CHICAGO, IL, 60622","Match","Exact","1808 W ERIE ST, CHICAGO, IL, 60622",605044166,"R"
91292,"18080 CRENSHAW BLVD UNIT 7417","TORRANCE","CA",90504,33.8665786920001,-118.326449178,292,"18080 CRENSHAW BLVD UNIT 7417, TORRANCE, CA, 90504","Match","Exact","18080 CRENSHAW BLVD, TORRANCE, CA, 90504",141664540,"L"
91293,"18080 ST JOSEPH WAY","COVINGTON","LA",70435,NA,NA,293,"18080 ST JOSEPH WAY, COVINGTON, LA, 70435","Tie",NA,NA,NA,NA
91294,"18081 MIDWAY RD APT 1533","DALLAS","TX",75287,32.996619933,-96.843956082,294,"18081 MIDWAY RD APT 1533, DALLAS, TX, 75287","Match","Exact","18081 MIDWAY RD, DALLAS, TX, 75287",651172722,"L"
91295,"18081 UPPERLAKE CIRCLE","HUNTINGTON BEACH","CA",92648,33.6997552670001,-118.012145569,295,"18081 UPPERLAKE CIRCLE, HUNTINGTON BEACH, CA, 92648","Match","Exact","18081 UPPERLAKE CIR, HUNTINGTON BEACH, CA, 92648",144262535,"R"
91296,"18082","DETROIT","MI",48234,NA,NA,296,"18082, DETROIT, MI, 48234","No_Match",NA,NA,NA,NA
91297,"18086 N US HWY 45","EFFINGHAM","IL",62401,39.1736157760001,-88.520541995,297,"18086 N US HWY 45, EFFINGHAM, IL, 62401","Match","Exact","18086 US HWY 45, EFFINGHAM, IL, 62401",636389976,"R"
91298,"1809 23RD AVENUE","GREELEY","CO",80634,40.41078952,-104.715920601,298,"1809 23RD AVENUE, GREELEY, CO, 80634","Match","Exact","1809 23RD AVE, GREELEY, CO, 80634",635645305,"R"
91299,"1809 2ND ST SOUTH","ST PETERSBURG","FL",33785,27.7525154750001,-82.6354185439999,299,"1809 2ND ST SOUTH, ST PETERSBURG, FL, 33785","Match","Non_Exact","1809 2ND ST S, SAINT PETERSBURG, FL, 33705",124713766,"R"
91300,"1809 ADEE AVE APT 2","BRONX","NY",10469,40.870951054,-73.837916201,300,"1809 ADEE AVE APT 2, BRONX, NY, 10469","Match","Exact","1809 ADEE AVE, BRONX, NY, 10469",80303967,"L"
91301,"1809 ALBEMARLE ROAD APT B36","BROOKLYN","NJ",11226,NA,NA,301,"1809 ALBEMARLE ROAD APT B36, BROOKLYN, NJ, 11226","No_Match",NA,NA,NA,NA
91302,"1809 ALBEMARLE ROAD SUITE B36","BROOKLYN","NY",11226,40.6470318040001,-73.9624741169999,302,"1809 ALBEMARLE ROAD SUITE B36, BROOKLYN, NY, 11226","Match","Exact","1809 ALBEMARLE RD, BROOKLYN, NY, 11226",59080971,"L"
91303,"1809 ALBERMARLE ROAD","BROOKLYN","NY",11226,NA,NA,303,"1809 ALBERMARLE ROAD, BROOKLYN, NY, 11226","No_Match",NA,NA,NA,NA
91304,"1809 ASHBOROUGH CIRCLE SE","MARIETTA","GA",30067,NA,NA,304,"1809 ASHBOROUGH CIRCLE SE, MARIETTA, GA, 30067","Tie",NA,NA,NA,NA
91305,"1809 BLAKE ST STE 207","DENVER","CO",80202,39.7525586530001,-104.996569197,305,"1809 BLAKE ST STE 207, DENVER, CO, 80202","Match","Exact","1809 BLAKE ST, DENVER, CO, 80202",177304365,"L"
91306,"1809 BLOOMINGDALE ROAD","QUEENSTOWN","MD",21658,38.99276825,-76.099118844,306,"1809 BLOOMINGDALE ROAD, QUEENSTOWN, MD, 21658","Match","Exact","1809 BLOOMINGDALE RD, QUEENSTOWN, MD, 21658",68053935,"L"
91307,"1809 BONITA BLUFF COURT","RUSKIN","FL",33570,27.7221941880001,-82.45628448,307,"1809 BONITA BLUFF COURT, RUSKIN, FL, 33570","Match","Exact","1809 BONITA BLUFF CT, RUSKIN, FL, 33570",629640244,"R"
91308,"1809 CAROL SUE AVE SUITE E","TERRYTOWN","LA",70056,29.899968502,-90.037401188,308,"1809 CAROL SUE AVE SUITE E, TERRYTOWN, LA, 70056","Match","Exact","1809 CAROL SUE AVE, TERRYTOWN, LA, 70056",93510839,"L"
91309,"1809 CORBY BLVD","SOUTH BEND","IN",46617,41.6873891480001,-86.222140564,309,"1809 CORBY BLVD, SOUTH BEND, IN, 46617","Match","Exact","1809 CORBY BLVD, SOUTH BEND, IN, 46617",8054952,"L"
91310,"1809 CORNELL AVE N","LEHIGH ACRES","FL",33971,26.6328678730001,-81.715253465,310,"1809 CORNELL AVE N, LEHIGH ACRES, FL, 33971","Match","Exact","1809 CORNELL AVE N, LEHIGH ACRES, FL, 33971",118058703,"R"
91311,"1809 COURT STREET","RICHMOND","VA",23228,37.616126025,-77.466400108,311,"1809 COURT STREET, RICHMOND, VA, 23228","Match","Exact","1809 COURT ST, RICHMOND, VA, 23228",106647865,"L"
91312,"1809 COVINGTON WOODS LN","LAKE ORION","MI",48360,42.7544162880001,-83.259266984,312,"1809 COVINGTON WOODS LN, LAKE ORION, MI, 48360","Match","Exact","1809 COVINGTON WOODS LN, LAKE ORION, MI, 48360",618095443,"L"
91313,"1809 DAVIS AVE","COEUR D ALENE","ID",83815,47.7061968940001,-116.760500553,313,"1809 DAVIS AVE, COEUR D ALENE, ID, 83815","Match","Non_Exact","1809 E DAVIS AVE, COEUR D ALENE, ID, 83815",192956572,"R"
91314,"1809 E 13TH STREET SUITE 100","TULSA","OK",74104,36.1442426250001,-95.966175737,314,"1809 E 13TH STREET SUITE 100, TULSA, OK, 74104","Match","Non_Exact","1809 E 13TH ST, TULSA, OK, 74104",166442709,"L"
91315,"1809 E ALABAMA ST","PLANT CITY","FL",33563,28.011180213,-82.1068368429999,315,"1809 E ALABAMA ST, PLANT CITY, FL, 33563","Match","Exact","1809 E ALABAMA ST, PLANT CITY, FL, 33563",104503906,"R"
91316,"1809 E BROADWAY STREET SUITE 206","OVIEDO","FL",32765,NA,NA,316,"1809 E BROADWAY STREET SUITE 206, OVIEDO, FL, 32765","Tie",NA,NA,NA,NA
91317,"1809 E KELSEY DR","STILLWATER","OK",74075,36.1265426260001,-97.0361986939999,317,"1809 E KELSEY DR, STILLWATER, OK, 74075","Match","Exact","1809 E KELSEY DR, STILLWATER, OK, 74075",166385055,"L"
91318,"1809 EAST 71ST STREET SUITE 103","CHICAGO","IL",60649,41.766026272,-87.5808851629999,318,"1809 EAST 71ST STREET SUITE 103, CHICAGO, IL, 60649","Match","Exact","1809 E 71ST ST, CHICAGO, IL, 60649",641753704,"L"
91319,"1809 EAST 71ST","CHICAGO","IL",60649,NA,NA,319,"1809 EAST 71ST, CHICAGO, IL, 60649","Tie",NA,NA,NA,NA
91320,"1809 EAST BAGEND STREET","SALT LAKE CITY","UT",84106,40.700382092,-111.839533292,320,"1809 EAST BAGEND STREET, SALT LAKE CITY, UT, 84106","Match","Non_Exact","1809 BAGEND ST, SALT LAKE CITY, UT, 84106",176135778,"R"
91321,"1809 EAST BROADWAY","OVIEDO","FL",32765,28.6632252970001,-81.1821119969999,321,"1809 EAST BROADWAY, OVIEDO, FL, 32765","Match","Non_Exact","1809 E BROADWAY ST, OVIEDO, FL, 32765",635938207,"R"
91322,"1809 FARMINGTON ROAD","ROCKY MT","NC",27801,35.9598313280001,-77.75733561,322,"1809 FARMINGTON ROAD, ROCKY MT, NC, 27801","Match","Exact","1809 FARMINGTON RD, ROCKY MOUNT, NC, 27801",90175738,"R"
91323,"1809 FAST FILLY AVE","PFLUGERVILLE","TX",78660,30.4910290190001,-97.575389822,323,"1809 FAST FILLY AVE, PFLUGERVILLE, TX, 78660","Match","Exact","1809 FAST FILLY AVE, PFLUGERVILLE, TX, 78660",63983463,"R"
91324,"1809 FLATIRON AVE","IOWA CITY","IA",52240,41.6378319880001,-91.510034465,324,"1809 FLATIRON AVE, IOWA CITY, IA, 52240","Match","Exact","1809 FLATIRON AVE, IOWA CITY, IA, 52240",84496434,"R"
91325,"1809 FLOWER DRIVE","PALM BEACH GARDENS","FL",33410,26.8791537590001,-80.0969199529999,325,"1809 FLOWER DRIVE, PALM BEACH GARDENS, FL, 33410","Match","Exact","1809 FLOWER DR, PALM BEACH GARDENS, FL, 33410",115544545,"R"
91326,"1809 FRANKLIN ST N","DEARBORN","MI",48128,NA,NA,326,"1809 FRANKLIN ST N, DEARBORN, MI, 48128","No_Match",NA,NA,NA,NA
91327,"1809 FRENCH CREEK ROAD","TAMPA","FL",33613,28.0718375820001,-82.439751868,327,"1809 FRENCH CREEK ROAD, TAMPA, FL, 33613","Match","Exact","1809 FRENCH CREEK RD, TAMPA, FL, 33613",104512453,"R"
91328,"1809 FULLERS OAK LOOP","WINTER GARDEN","FL",34787,28.5909479330001,-81.564318617,328,"1809 FULLERS OAK LOOP, WINTER GARDEN, FL, 34787","Match","Exact","1809 FULLERS OAK LOOP, WINTER GARDEN, FL, 34787",649052224,"R"
91329,"1809 FUST AVE","LOUISVILLE","KY",40216,38.2157683770001,-85.7959658839999,329,"1809 FUST AVE, LOUISVILLE, KY, 40216","Match","Exact","1809 FUST AVE, LOUISVILLE, KY, 40216",96893393,"R"
91330,"1809 GLENPARK DR","SILVER SPRING","MD",20902,39.035595662,-77.0390403,330,"1809 GLENPARK DR, SILVER SPRING, MD, 20902","Match","Exact","1809 GLENPARK DR, SILVER SPRING, MD, 20902",62064233,"R"
91331,"1809 GUM ROAD","WOODBINE","MD",21797,39.3667673320001,-77.05880357,331,"1809 GUM ROAD, WOODBINE, MD, 21797","Match","Exact","1809 GUM RD, WOODBINE, MD, 21797",209391036,"L"
91332,"1809 HIGHLAND AVENUE","WAUKESHA","WI",53186,43.025553132,-88.2128004739999,332,"1809 HIGHLAND AVENUE, WAUKESHA, WI, 53186","Match","Exact","1809 HIGHLAND AVE, WAUKESHA, WI, 53186",53812468,"R"
91333,"1809 HOLLISTER ST","HOUSTON","TX",77080,29.803252876,-95.5065275439999,333,"1809 HOLLISTER ST, HOUSTON, TX, 77080","Match","Exact","1809 HOLLISTER ST, HOUSTON, TX, 77080",96635716,"L"
91334,"1809 HONEYCREEK COMMONS","CONYERS","GA",30013,33.5927112630001,-84.012883575,334,"1809 HONEYCREEK COMMONS, CONYERS, GA, 30013","Match","Non_Exact","1809 HONEY CREEK CMNS SE, CONYERS, GA, 30013",645519159,"R"
91335,"1809 HUNTINGTON STREET A","HUNTINGTON BEACH","CA",92648,33.6731664530001,-117.995169542,335,"1809 HUNTINGTON STREET A, HUNTINGTON BEACH, CA, 92648","Match","Exact","1809 HUNTINGTON ST, HUNTINGTON BEACH, CA, 92648",144019804,"L"
91336,"1809 IVORY GULL DRIVE","MOREHEAD CITY","NC",28557,34.74669206,-76.719789267,336,"1809 IVORY GULL DRIVE, MOREHEAD CITY, NC, 28557","Match","Exact","1809 IVORY GULL DR, MOREHEAD CITY, NC, 28557",644127284,"L"
91337,"1809 JOYCE STREET","GREENSBORO","NC",27405,36.099671012,-79.760113539,337,"1809 JOYCE STREET, GREENSBORO, NC, 27405","Match","Exact","1809 JOYCE ST, GREENSBORO, NC, 27405",131034776,"L"
91338,"1809 LAKEWOOD DRIVE SOUTH","ST. PETERSBURG","FL",33712,27.721174309,-82.657327903,338,"1809 LAKEWOOD DRIVE SOUTH, ST. PETERSBURG, FL, 33712","Match","Exact","1809 LAKEWOOD DR S, SAINT PETERSBURG, FL, 33712",124711231,"R"
91339,"1809 LEAD MINE RD","AUSTINVILLE","VA",24312,36.849744894,-80.858796132,339,"1809 LEAD MINE RD, AUSTINVILLE, VA, 24312","Match","Exact","1809 LEAD MINE RD, AUSTINVILLE, VA, 24312",47654221,"L"
91340,"1809 MARKET ST","BAYTOWN","TX",77520,29.7317500720001,-94.9855238759999,340,"1809 MARKET ST, BAYTOWN, TX, 77520","Match","Exact","1809 MARKET ST, BAYTOWN, TX, 77520",96156443,"R"
91341,"1809 MARKET STREET","BAYTOWN","TX",77520,29.7317500720001,-94.9855238759999,341,"1809 MARKET STREET, BAYTOWN, TX, 77520","Match","Exact","1809 MARKET ST, BAYTOWN, TX, 77520",96156443,"R"
91342,"1809 MONTAUK WAY","DESOTO","TX",75115,32.609101508,-96.90468243,342,"1809 MONTAUK WAY, DESOTO, TX, 75115","Match","Exact","1809 MONTAUK WAY, DESOTO, TX, 75115",629574252,"L"
91343,"1809 MOSSBERG DRIVE","SUMTER","SC",29150,33.9718951880001,-80.408015018,343,"1809 MOSSBERG DRIVE, SUMTER, SC, 29150","Match","Exact","1809 MOSSBERG DR, SUMTER, SC, 29150",647245695,"R"
91344,"1809 MULLIGAN CT","WENTZVILLE","MO",63385,38.8144522220001,-90.889904472,344,"1809 MULLIGAN CT, WENTZVILLE, MO, 63385","Match","Exact","1809 MULLIGAN CT, WENTZVILLE, MO, 63385",100067048,"R"
91345,"1809 N CHAPARRAL ST","CORPUS CHRISTI","TX",78401,27.808507213,-97.3956765839999,345,"1809 N CHAPARRAL ST, CORPUS CHRISTI, TX, 78401","Match","Exact","1809 N CHAPARRAL ST, CORPUS CHRISTI, TX, 78401",178514265,"L"
91346,"1809 N EVERGREEN ST","CHANDLER","AZ",85225,33.3339554520001,-111.854069299,346,"1809 N EVERGREEN ST, CHANDLER, AZ, 85225","Match","Exact","1809 N EVERGREEN ST, CHANDLER, AZ, 85225",128242265,"R"
91347,"1809 N MANNHEIM RD","STONE PARK","IL",60165,NA,NA,347,"1809 N MANNHEIM RD, STONE PARK, IL, 60165","Tie",NA,NA,NA,NA
91348,"1809 N SALISBURY STREET","WEST LAFAYETTE","IN",47906,40.443742623,-86.9131898809999,348,"1809 N SALISBURY STREET, WEST LAFAYETTE, IN, 47906","Match","Exact","1809 N SALISBURY ST, W LAFAYETTE, IN, 47906",615711472,"L"
91349,"1809 N WASHINGTON STREET","WILMINGTON","DE",19802,39.7539121930001,-75.545571265,349,"1809 N WASHINGTON STREET, WILMINGTON, DE, 19802","Match","Exact","1809 N WASHINGTON ST, WILMINGTON, DE, 19802",187258829,"L"
91350,"1809 N WISCONSIN ST","MITCHELL","SD",57301,43.727227198,-98.032698076,350,"1809 N WISCONSIN ST, MITCHELL, SD, 57301","Match","Exact","1809 N WISCONSIN ST, MITCHELL, SD, 57301",200661560,"L"
91351,"1809 NEW YORK AVENUE","BROOKLYN","NY",11210,40.627935983,-73.944169207,351,"1809 NEW YORK AVENUE, BROOKLYN, NY, 11210","Match","Exact","1809 NEW YORK AVE, BROOKLYN, NY, 11210",59082025,"L"
91352,"1809 ORETHA CASTLE HALEY BLVD","NEW ORLEANS","LA",70113,29.9389936430001,-90.080867312,352,"1809 ORETHA CASTLE HALEY BLVD, NEW ORLEANS, LA, 70113","Match","Exact","1809 ORETHA CASTLE HALEY BLVD, NEW ORLEANS, LA, 70113",191713950,"R"
91353,"1809 PALOS VERDES DRIVE WEST","PALOS VERDES ESTATES","CA",90274,33.780603736,-118.415263021,353,"1809 PALOS VERDES DRIVE WEST, PALOS VERDES ESTATES, CA, 90274","Match","Exact","1809 PALOS VERDES DR W, PALOS VERDES ESTATES, CA, 90274",142722665,"R"
91354,"1809 PINEDALE DR","RALEIGH","NC",27603,35.699690366,-78.670064166,354,"1809 PINEDALE DR, RALEIGH, NC, 27603","Match","Exact","1809 PINEDALE DR, RALEIGH, NC, 27603",72504411,"L"
91355,"1809 PORTLAND DR","PORTLAND","TX",78374,27.889387802,-97.322782917,355,"1809 PORTLAND DR, PORTLAND, TX, 78374","Match","Exact","1809 PORTLAND DR, PORTLAND, TX, 78374",36325132,"R"
91356,"1809 POWERS ROAD","WOODSTOCK","IL",60098,42.3367925740001,-88.434360179,356,"1809 POWERS ROAD, WOODSTOCK, IL, 60098","Match","Exact","1809 POWERS RD, WOODSTOCK, IL, 60098",627550058,"R"
91357,"1809 QUIETT LANE","MITCHELL","SD",57301,43.7077005530001,-97.9988352559999,357,"1809 QUIETT LANE, MITCHELL, SD, 57301","Match","Exact","1809 QUIETT LN, MITCHELL, SD, 57301",200665326,"R"
91358,"1809 RIVER ROAD","FORT VALLEY","GA",31030,32.5460009650001,-83.905490254,358,"1809 RIVER ROAD, FORT VALLEY, GA, 31030","Match","Exact","1809 RIVER RD, FORT VALLEY, GA, 31030",647751310,"R"
91359,"1809 RIVERCHASE DRIVE UNIT 361061","HOOVER","AL",35236,33.3735932070001,-86.810522683,359,"1809 RIVERCHASE DRIVE UNIT 361061, HOOVER, AL, 35236","Match","Non_Exact","1809 RIVERCHASE DR, HOOVER, AL, 35244",81589483,"L"
91360,"1809 RIVERVIEW CIRCLE","SCOTTSBORO","AL",35769,34.640209041,-86.02718168,360,"1809 RIVERVIEW CIRCLE, SCOTTSBORO, AL, 35769","Match","Exact","1809 RIVERVIEW CIR, SCOTTSBORO, AL, 35769",58047203,"R"
91361,"1809 ROSEWELL DR","ROCK HILL","NC",29732,NA,NA,361,"1809 ROSEWELL DR, ROCK HILL, NC, 29732","No_Match",NA,NA,NA,NA
91362,"1809 RUSTICA DRIVE","DURHAM","NC",27713,35.946863942,-78.881956455,362,"1809 RUSTICA DRIVE, DURHAM, NC, 27713","Match","Exact","1809 RUSTICA DR, DURHAM, NC, 27713",648140231,"L"
91363,"1809 S 22ND STREET","LOUISVILLE","KY",40210,38.2248598310001,-85.79447387,363,"1809 S 22ND STREET, LOUISVILLE, KY, 40210","Match","Exact","1809 S 22ND ST, LOUISVILLE, KY, 40210",96868180,"L"
91364,"1809 SABRE ST","HAYWARD","CA",94545,37.6565672890001,-122.130777789,364,"1809 SABRE ST, HAYWARD, CA, 94545","Match","Exact","1809 SABRE ST, HAYWARD, CA, 94545",125019651,"R"
91365,"1809 SOUTH HOSMER STREET","TACOMA","WA",98405,47.2437929320001,-122.461526883,365,"1809 SOUTH HOSMER STREET, TACOMA, WA, 98405","Match","Exact","1809 S HOSMER ST, TACOMA, WA, 98405",184624418,"L"
91366,"1809 SOUTH WHITTLE AVE","OLNEY","IL",62450,38.707637135,-88.084834303,366,"1809 SOUTH WHITTLE AVE, OLNEY, IL, 62450","Match","Exact","1809 S WHITTLE AVE, OLNEY, IL, 62450",653855798,"L"
91367,"1809 STUBBEMAN AVENUE","NORMAN","OK",73069,35.243777675,-97.4499981549999,367,"1809 STUBBEMAN AVENUE, NORMAN, OK, 73069","Match","Exact","1809 STUBBEMAN AVE, NORMAN, OK, 73069",649820412,"R"
91368,"1809 SW OPEN VIEW DR","PORT SAINT LUCIE","FL",34953,27.23537773,-80.4041168209999,368,"1809 SW OPEN VIEW DR, PORT SAINT LUCIE, FL, 34953","Match","Exact","1809 SW OPEN VIEW DR, PORT ST LUCIE, FL, 34953",120143120,"L"
91369,"1809 TILLETSON PLACE","WOODBRIDGE","VA",22191,38.623847921,-77.269597059,369,"1809 TILLETSON PLACE, WOODBRIDGE, VA, 22191","Match","Exact","1809 TILLETSON PL, WOODBRIDGE, VA, 22191",76514156,"L"
91370,"1809 W BOND ST","DENISON","TX",75020,33.7620759280001,-96.561653447,370,"1809 W BOND ST, DENISON, TX, 75020","Match","Exact","1809 W BOND ST, DENISON, TX, 75020",63352837,"L"
91371,"1809 W CRAWFORD ST","WICHITA","KS",67217,37.6478277150001,-97.36064758,371,"1809 W CRAWFORD ST, WICHITA, KS, 67217","Match","Exact","1809 CRAWFORD ST, WICHITA, KS, 67217",115644435,"L"
91372,"1809 WEHRLI RD","NAPERVILLE","IL",60565,41.7377605560001,-88.101736478,372,"1809 WEHRLI RD, NAPERVILLE, IL, 60565","Match","Exact","1809 WEHRLI RD, NAPERVILLE, IL, 60565",639892343,"R"
91373,"1809 WENTWORTH DRIVE","CANTON","MI",48188,42.290168829,-83.490371658,373,"1809 WENTWORTH DRIVE, CANTON, MI, 48188","Match","Exact","1809 WENTWORTH DR, CANTON, MI, 48188",95689540,"L"
91374,"1809 WEST MAIN STREET SUITE 201","RICHMOND","VA",23220,37.5483942860001,-77.463576389,374,"1809 WEST MAIN STREET SUITE 201, RICHMOND, VA, 23220","Match","Exact","1809 W MAIN ST, RICHMOND, VA, 23220",201538691,"L"
91375,"1809 WORDSWORTH","SAINT PAUL","MN",55116,NA,NA,375,"1809 WORDSWORTH, SAINT PAUL, MN, 55116","No_Match",NA,NA,NA,NA
91376,"1809","PFLUGERVILLE","TX",78691,NA,NA,376,"1809, PFLUGERVILLE, TX, 78691","No_Match",NA,NA,NA,NA
91377,"18091 OHIO ST","DETROIT","MI",48221,42.42325558,-83.156314751,377,"18091 OHIO ST, DETROIT, MI, 48221","Match","Exact","18091 OHIO ST, DETROIT, MI, 48221",95425560,"L"
91378,"18091 RANDALL AVE","FONTANA","CA",92335,34.084949298,-117.409845276,378,"18091 RANDALL AVE, FONTANA, CA, 92335","Match","Exact","18091 RANDALL AVE, FONTANA, CA, 92335",144646011,"R"
91379,"18093 MESCAL ST","ROWLAND HEIGHTS","CA",91748,33.976963444,-117.912697673,379,"18093 MESCAL ST, ROWLAND HEIGHTS, CA, 91748","Match","Exact","18093 MESCAL ST, ROWLAND HEIGHTS, CA, 91748",141757140,"L"
91380,"18094 GLADSTONE BLVD NORTH","MAPLE GROVE","MN",55311,45.1260291400001,-93.51043158,380,"18094 GLADSTONE BLVD NORTH, MAPLE GROVE, MN, 55311","Match","Non_Exact","18094 GLADSTONE BLVD, MAPLE GROVE, MN, 55311",43865012,"L"
91381,"18095 NORTH COYOTE LAKES PARKWAY","SURPRISE","AZ",85378,33.6490218920001,-112.311311183,381,"18095 NORTH COYOTE LAKES PARKWAY, SURPRISE, AZ, 85378","Match","Exact","18095 N COYOTE LAKES PKWY, SURPRISE, AZ, 85378",647720087,"L"
91382,"18096 HWY 99","WELSH","LA",70591,30.2935671750001,-92.825988809,382,"18096 HWY 99, WELSH, LA, 70591","Match","Exact","18096 HWY 99, WELSH, LA, 70591",88219321,"R"
91383,"180A EAST CAMERON AVENUE","CHAPEL HILL","NC",27514,35.911156041,-79.053121371,383,"180A EAST CAMERON AVENUE, CHAPEL HILL, NC, 27514","Match","Exact","180 E CAMERON AVE, CHAPEL HILL, NC, 27514",72424706,"R"
91384,"180A ECKFORD STREET","BROOKLYN","NY",11222,40.7254564560001,-73.9497098209999,384,"180A ECKFORD STREET, BROOKLYN, NY, 11222","Match","Exact","180 ECKFORD ST, BROOKLYN, NY, 11222",59076498,"R"
91385,"180A PHEASANT STREET","MANCHESTER","NJ",8759,40.038385098,-74.293477025,385,"180A PHEASANT STREET, MANCHESTER, NJ, 8759","Match","Exact","180 PHEASANT ST, MANCHESTER, NJ, 08759",203791208,"R"
91386,"181 290TH STREET","WEST BRANCH","IA",52358,41.67131971,-91.331769457,386,"181 290TH STREET, WEST BRANCH, IA, 52358","Match","Exact","181 290TH ST, WEST BRANCH, IA, 52358",647340442,"R"
91387,"181 ALEXANDER AVENUE","HARTSDALE","NY",10530,41.025154716,-73.791133805,387,"181 ALEXANDER AVENUE, HARTSDALE, NY, 10530","Match","Exact","181 ALEXANDER AVE, HARTSDALE, NY, 10530",139802699,"L"
91388,"181 BEACON STREET-APT 1","CLINTON","MA",1510,42.412066657,-71.6845976019999,388,"181 BEACON STREET-APT 1, CLINTON, MA, 1510","Match","Non_Exact","181 BEACON ST, CLINTON, MA, 01510",40097109,"L"
91389,"181 BURLINGTON AVENUE","PATERSON","NJ",7502,40.916186108,-74.200328929,389,"181 BURLINGTON AVENUE, PATERSON, NJ, 7502","Match","Exact","181 BURLINGTON AVE, PATERSON, NJ, 07502",65260449,"L"
91390,"181 CENTRAL ST","STONEHAM","MA",2180,42.4890588480001,-71.098967752,390,"181 CENTRAL ST, STONEHAM, MA, 2180","Match","Exact","181 CENTRAL ST, STONEHAM, MA, 02180",86856431,"R"
91391,"181 CHIMNEY CREEK ROAD","SOQUEL","CA",95073,37.022863021,-121.9621068,391,"181 CHIMNEY CREEK ROAD, SOQUEL, CA, 95073","Match","Exact","181 CHIMNEY CREEK RD, SOQUEL, CA, 95073",125529188,"L"
91392,"181 CIRCLE DRIVE","FAIRMONT","WV",26554,39.478109793,-80.1706164029999,392,"181 CIRCLE DRIVE, FAIRMONT, WV, 26554","Match","Exact","181 CIRCLE DR, FAIRMONT, WV, 26554",51429266,"L"
91393,"181 CITATION DRIVE","HENRIETTA","NY",14467,43.042726514,-77.609723027,393,"181 CITATION DRIVE, HENRIETTA, NY, 14467","Match","Exact","181 CITATION DR, HENRIETTA, NY, 14467",14544535,"R"
91394,"181 CLEARVIEW STREET","BEAVER FALLS","PA",15010,40.785790644,-80.353789411,394,"181 CLEARVIEW STREET, BEAVER FALLS, PA, 15010","Match","Exact","181 CLEARVIEW ST, BEAVER FALLS, PA, 15010",52555624,"L"
91395,"181 CLINTON DR","STONEWALL","LA",71078,NA,NA,395,"181 CLINTON DR, STONEWALL, LA, 71078","No_Match",NA,NA,NA,NA
91396,"181 COLLINS LN","LEXINGTON","KY",40503,38.0124048980001,-84.5182776359999,396,"181 COLLINS LN, LEXINGTON, KY, 40503","Match","Exact","181 COLLINS LN, LEXINGTON, KY, 40503",643108159,"L"
91397,"181 CORSTEN ROAD","PLEASANT HILL","CA",94523,NA,NA,397,"181 CORSTEN ROAD, PLEASANT HILL, CA, 94523","No_Match",NA,NA,NA,NA
91398,"181 CR 683","HOLLY POND","AL",35083,34.1680519990001,-86.58788486,398,"181 CR 683, HOLLY POND, AL, 35083","Match","Exact","181 CO RD 683, HOLLY POND, AL, 35083",130224668,"R"
91399,"181 DURHAM LOOP","HOT SPRINGS","AR",71913,34.4489154720001,-93.1369637669999,399,"181 DURHAM LOOP, HOT SPRINGS, AR, 71913","Match","Exact","181 DURHAM LOOP, HOT SPRINGS, AR, 71913",637226505,"L"
91400,"181 E 90TH ST APT 22C","NEW YORK","NY",10128,40.781601704,-73.952615483,400,"181 E 90TH ST APT 22C, NEW YORK, NY, 10128","Match","Non_Exact","181 E 90TH ST, NEW YORK, NY, 10128",59657875,"L"
91401,"181 EAST EVANS STREET BTC 006","FLORENCE","SC",29501,34.1971718890001,-79.764211457,401,"181 EAST EVANS STREET BTC 006, FLORENCE, SC, 29501","Match","Non_Exact","181 E EVANS ST, FLORENCE, SC, 29506",651045200,"L"
91402,"181 EAST REED AVE SUITE 401","ALEXANDRIA","VA",22305,38.837030714,-77.0524584619999,402,"181 EAST REED AVE SUITE 401, ALEXANDRIA, VA, 22305","Match","Exact","181 E REED AVE, ALEXANDRIA, VA, 22305",638933949,"R"
91403,"181 ELLERSLIE PARK BLVD","LEXINGTON","KY",40515,37.9838798860001,-84.430149558,403,"181 ELLERSLIE PARK BLVD, LEXINGTON, KY, 40515","Match","Exact","181 ELLERSLIE PARK BLVD, LEXINGTON, KY, 40515",618017219,"R"
91404,"181 EMERSON DRIVE","PALM BAY","FL",32907,28.032151561,-80.703872251,404,"181 EMERSON DRIVE, PALM BAY, FL, 32907","Match","Non_Exact","181 EMERSON DR NW, PALM BAY, FL, 32907",93932861,"R"
91405,"181 ERIE STREET  SUITE 12 CT","JERSEY CITY","NJ",7302,40.728572978,-74.043269604,405,"181 ERIE STREET  SUITE 12 CT, JERSEY CITY, NJ, 7302","Match","Exact","181 ERIE ST, JERSEY CITY, NJ, 07302",59606146,"L"
91406,"181 FARM GATE LANE","BOLINGBROOK","IL",60440,41.694858233,-88.1203550289999,406,"181 FARM GATE LANE, BOLINGBROOK, IL, 60440","Match","Exact","181 FARM GATE LN, BOLINGBROOK, IL, 60440",111534508,"L"
91407,"181 FRIENDSHIP ROAD EXT","CHATHAM","VA",24531,36.852767575,-79.398949896,407,"181 FRIENDSHIP ROAD EXT, CHATHAM, VA, 24531","Match","Non_Exact","181 FRIENDSHIP RD EXD, CHATHAM, VA, 24531",56621478,"R"
91408,"181 GRAND AVE STE 235","SOUTHLAKE","TX",76092,32.9420790550001,-97.130737209,408,"181 GRAND AVE STE 235, SOUTHLAKE, TX, 76092","Match","Exact","181 GRAND AVE, SOUTHLAKE, TX, 76092",102108107,"R"
91409,"181 HAMILTON AVENUE","NEW ROCHELLE","NY",10801,40.9236087530001,-73.779861712,409,"181 HAMILTON AVENUE, NEW ROCHELLE, NY, 10801","Match","Exact","181 HAMILTON AVE, NEW ROCHELLE, NY, 10801",139750193,"R"
91410,"181 HARRY S TRUMAN PARKWAY STE 200","ANNAPOLIS","MD",21401,NA,NA,410,"181 HARRY S TRUMAN PARKWAY STE 200, ANNAPOLIS, MD, 21401","No_Match",NA,NA,NA,NA
91411,"181 HARTMAN CIRCLE NE","FRIDLEY","MN",55432,45.0923374390001,-93.2763036489999,411,"181 HARTMAN CIRCLE NE, FRIDLEY, MN, 55432","Match","Exact","181 HARTMAN CIR NE, FRIDLEY, MN, 55432",97550330,"R"
91412,"181 HILLSIDE AVENUE","PISCATAWAY","NJ",8854,40.535237662,-74.491350083,412,"181 HILLSIDE AVENUE, PISCATAWAY, NJ, 8854","Match","Exact","181 HILLSIDE AVE, PISCATAWAY, NJ, 08854",60290301,"R"
91413,"181 HUTCHINSON AVE","WINGDALE","NY",12594,41.6334603770001,-73.5702065419999,413,"181 HUTCHINSON AVE, WINGDALE, NY, 12594","Match","Exact","181 HUTCHINSON AVE, WINGDALE, NY, 12594",4192366,"R"
91414,"181 J HOWARD BLVD","MOUNT ARLINGTON","NJ",7856,40.9121925250001,-74.636062679,414,"181 J HOWARD BLVD, MOUNT ARLINGTON, NJ, 7856","Match","Exact","181 HOWARD BLVD, MOUNT ARLINGTON, NJ, 07856",642909253,"L"
91415,"181 KIWI CT","RIO RICO","AZ",85648,31.5196918340001,-111.005876852,415,"181 KIWI CT, RIO RICO, AZ, 85648","Match","Exact","181 KIWI CT, RIO RICO, AZ, 85648",120892399,"L"
91416,"181 LANDING AVENUE","SMITHTOWN","NY",11787,40.860934034,-73.196362886,416,"181 LANDING AVENUE, SMITHTOWN, NY, 11787","Match","Exact","181 LANDING AVE, SMITHTOWN, NY, 11787",113986173,"L"
91417,"181 LEATHERWOOD DR","LONDON","KY",40741,37.153974722,-84.057812502,417,"181 LEATHERWOOD DR, LONDON, KY, 40741","Match","Exact","181 LEATHERWOOD DR, LONDON, KY, 40741",624448605,"L"
91418,"181 LEATHERWOOD DRIVE","LONDON","KY",40741,37.153974722,-84.057812502,418,"181 LEATHERWOOD DRIVE, LONDON, KY, 40741","Match","Exact","181 LEATHERWOOD DR, LONDON, KY, 40741",624448605,"L"
91419,"181 LEDGE HILL ROAD","GUILFORD","CT",6437,41.3685816380001,-72.727480814,419,"181 LEDGE HILL ROAD, GUILFORD, CT, 6437","Match","Exact","181 LEDGE HILL RD, GUILFORD, CT, 06437",635591469,"R"
91420,"181 LEFFERTS AVENUE","BROOKLYN","NY",11225,40.662085856,-73.955257806,420,"181 LEFFERTS AVENUE, BROOKLYN, NY, 11225","Match","Exact","181 LEFFERTS AVE, BROOKLYN, NY, 11225",59079504,"L"
91421,"181 LIGHTHOUSE COVE LOOP","CAROLINA SHORES","NC",28467,33.909281021,-78.559444813,421,"181 LIGHTHOUSE COVE LOOP, CAROLINA SHORES, NC, 28467","Match","Exact","181 LIGHTHOUSE COVE LOOP, CAROLINA SHORES, NC, 28467",638032430,"R"
91422,"181 LIMBAUGH VALLEY DR","MCDONOUGH","GA",30252,33.530421774,-84.056744295,422,"181 LIMBAUGH VALLEY DR, MCDONOUGH, GA, 30252","Match","Exact","181 LIMBAUGH VALLEY DR, MCDONOUGH, GA, 30252",619913691,"L"
91423,"181 LITTLE BRIDGE LANE","GLADE VALLEY","NC",28627,36.4144926760001,-81.004133877,423,"181 LITTLE BRIDGE LANE, GLADE VALLEY, NC, 28627","Match","Exact","181 LITTLE BRIDGE LN, GLADE VALLEY, NC, 28627",154014028,"L"
91424,"181 MAIN ST FL 1","HACKETTSTOWN","NJ",7840,40.85333681,-74.828630967,424,"181 MAIN ST FL 1, HACKETTSTOWN, NJ, 7840","Match","Exact","181 MAIN ST, HACKETTSTOWN, NJ, 07840",98092217,"R"
91425,"181 MAIN ST","FREEPORT","ME",4032,43.861617596,-70.100568923,425,"181 MAIN ST, FREEPORT, ME, 4032","Match","Exact","181 MAIN ST, FREEPORT, ME, 04032",78046696,"L"
91426,"181 MAIN ST","NORWAY","ME",4268,44.2103186670001,-70.53355271,426,"181 MAIN ST, NORWAY, ME, 4268","Match","Exact","181 MAIN ST, NORWAY, ME, 04268",619414330,"R"
91427,"181 MARGARET AVE","SAN FRANCISCO","CA",94112,37.7164046300001,-122.453445015,427,"181 MARGARET AVE, SAN FRANCISCO, CA, 94112","Match","Exact","181 MARGARET AVE, SAN FRANCISCO, CA, 94112",192285948,"L"
91428,"181 MARKWOOD DR","BEDFORD","PA",15522,40.0348103580001,-78.524374259,428,"181 MARKWOOD DR, BEDFORD, PA, 15522","Match","Exact","181 MARKWOOD DR, BEDFORD, PA, 15522",50152576,"L"
91429,"181 MCKINLEY AVE NORTH","BATTLE CREEK","MI",49017,42.3292951020001,-85.166544335,429,"181 MCKINLEY AVE NORTH, BATTLE CREEK, MI, 49017","Match","Exact","181 MCKINLEY AVE N, BATTLE CREEK, MI, 49017",11714730,"L"
91430,"181 MISSOURI AVENUE","BAY SHORE","NY",11706,40.747788217,-73.238544484,430,"181 MISSOURI AVENUE, BAY SHORE, NY, 11706","Match","Exact","181 MISSOURI AVE, BAY SHORE, NY, 11706",114053595,"L"
91431,"181 MOSCOW SPRINGS PLAZA","MOSCOW MILLS","MO",63362,NA,NA,431,"181 MOSCOW SPRINGS PLAZA, MOSCOW MILLS, MO, 63362","No_Match",NA,NA,NA,NA
91432,"181 N 200 E","LOGAN","UT",84321,41.734771703,-111.829680633,432,"181 N 200 E, LOGAN, UT, 84321","Match","Exact","181 N 200 E, LOGAN, UT, 84321",155094071,"L"
91433,"181 N BAY LN UNIT 4","PORT LUDLOW","WA",98365,NA,NA,433,"181 N BAY LN UNIT 4, PORT LUDLOW, WA, 98365","Tie",NA,NA,NA,NA
91434,"181 N ELKHART AVE APT 718","ELKHART","IN",46515,NA,NA,434,"181 N ELKHART AVE APT 718, ELKHART, IN, 46515","No_Match",NA,NA,NA,NA
91435,"181 N FAIRVIEW ST","NAZARETH","PA",18064,40.7450256290001,-75.3041146469999,435,"181 N FAIRVIEW ST, NAZARETH, PA, 18064","Match","Exact","181 N FAIRVIEW ST, NAZARETH, PA, 18064",136908721,"R"
91436,"181 N GRANT ST STE 212","CANBY","OR",97013,NA,NA,436,"181 N GRANT ST STE 212, CANBY, OR, 97013","Tie",NA,NA,NA,NA
91437,"181 N MANSFIELD AVE","LOS ANGELES","CA",90036,34.0746835480001,-118.340783188,437,"181 N MANSFIELD AVE, LOS ANGELES, CA, 90036","Match","Exact","181 N MANSFIELD AVE, LOS ANGELES, CA, 90036",141599672,"L"
91438,"181 N SALTAIR AVE","LOS ANGELES","CA",90049,34.063726892,-118.475050228,438,"181 N SALTAIR AVE, LOS ANGELES, CA, 90049","Match","Exact","181 N SALTAIR AVE, LOS ANGELES, CA, 90049",142452825,"L"
91439,"181 NANCI KAREN DRIVE","WARWICK","RI",2886,41.68627379,-71.467766513,439,"181 NANCI KAREN DRIVE, WARWICK, RI, 2886","Match","Exact","181 NANCI KAREN DR, WARWICK, RI, 02886",159163382,"R"
91440,"181 NE 82ND ST  STE 100","MIAMI","FL",33181,25.867072767,-80.1217214919999,440,"181 NE 82ND ST  STE 100, MIAMI, FL, 33181","Match","Non_Exact","181 82ND ST, MIAMI, FL, 33141",116289420,"R"
91441,"181 NEIL ST","SARANAC LAKE","NY",12983,44.3287227770001,-74.137385963,441,"181 NEIL ST, SARANAC LAKE, NY, 12983","Match","Exact","181 NEIL ST, SARANAC LAKE, NY, 12983",173825796,"L"
91442,"181 NEWTON ST","NEW BEDFORD","MA",2740,41.637980903,-70.940320345,442,"181 NEWTON ST, NEW BEDFORD, MA, 2740","Match","Exact","181 NEWTON ST, NEW BEDFORD, MA, 02740",46752071,"L"
91443,"181 NORTH COUNTY ROAD 7","BASCOM","OH",44809,NA,NA,443,"181 NORTH COUNTY ROAD 7, BASCOM, OH, 44809","No_Match",NA,NA,NA,NA
91444,"181 OLD LEAD MINE VALLEY RD SW","CLEVELAND","TN",37311,NA,NA,444,"181 OLD LEAD MINE VALLEY RD SW, CLEVELAND, TN, 37311","Tie",NA,NA,NA,NA
91445,"181 OPAL LAKE DR","KYLE","TX",78640,29.999863143,-97.84678415,445,"181 OPAL LAKE DR, KYLE, TX, 78640","Match","Exact","181 OPAL LAKE DR, KYLE, TX, 78640",634080705,"L"
91446,"181 POWERS ST APT 1R","BROOKLYN","NY",11211,40.7124505690001,-73.943331383,446,"181 POWERS ST APT 1R, BROOKLYN, NY, 11211","Match","Exact","181 POWERS ST, BROOKLYN, NY, 11211",59077194,"L"
91447,"181 PROMENADE STREET","POMONA","CA",91767,34.0850579560001,-117.752632859,447,"181 PROMENADE STREET, POMONA, CA, 91767","Match","Exact","181 PROMENADE ST, POMONA, CA, 91767",650618637,"L"
91448,"181 RAYNER CIRCLE","SPRING BRANCH","TX",78070,29.9096131160001,-98.3721373819999,448,"181 RAYNER CIRCLE, SPRING BRANCH, TX, 78070","Match","Exact","181 RAYNER CIR, SPRING BRANCH, TX, 78070",72278718,"L"
91449,"181 REA AVE STE 202","EL CAJON","CA",92020,32.7956867820001,-116.960676041,449,"181 REA AVE STE 202, EL CAJON, CA, 92020","Match","Exact","181 REA AVE, EL CAJON, CA, 92020",195329050,"R"
91450,"181 REA AVE SUITE 202","EL CAJON","CA",92020,32.7956867820001,-116.960676041,450,"181 REA AVE SUITE 202, EL CAJON, CA, 92020","Match","Exact","181 REA AVE, EL CAJON, CA, 92020",195329050,"R"
91451,"181 RIVER RIDGE CIRCLE SOUTH","BURNSVILLE","MN",55337,44.7773541070001,-93.282923743,451,"181 RIVER RIDGE CIRCLE SOUTH, BURNSVILLE, MN, 55337","Match","Exact","181 RIVER RIDGE CIR S, BURNSVILLE, MN, 55337",37903977,"L"
91452,"181 ROLLINGWOOD ST","WILLIAMSVILLE","NY",14221,43.0088131730001,-78.718783103,452,"181 ROLLINGWOOD ST, WILLIAMSVILLE, NY, 14221","Match","Exact","181 ROLLINGWOOD ST, WILLIAMSVILLE, NY, 14221",48285653,"R"
91453,"181 RYERSON AVE","MANORVILLE","NY",11949,40.8566703330001,-72.810717381,453,"181 RYERSON AVE, MANORVILLE, NY, 11949","Match","Exact","181 RYERSON AVE, MANORVILLE, NY, 11949",642663376,"R"
91454,"181 S C STREET   PO BOX 1317","BUCKLEY","WA",98321,47.1617523210001,-122.023897089,454,"181 S C STREET   PO BOX 1317, BUCKLEY, WA, 98321","Match","Exact","181 C ST, BUCKLEY, WA, 98321",613805842,"R"
91455,"181 S OLD SPRINGS ROAD 2ND FL","ANAHEIM","CA",92808,33.8639914950001,-117.741947782,455,"181 S OLD SPRINGS ROAD 2ND FL, ANAHEIM, CA, 92808","Match","Non_Exact","181 S OLD SPRINGS RD, ANAHEIM, CA, 92808",144125492,"R"
91456,"181 SAGAMORE STREET","SAN FRANCISCO","CA",94112,37.711388862,-122.458176004,456,"181 SAGAMORE STREET, SAN FRANCISCO, CA, 94112","Match","Exact","181 SAGAMORE ST, SAN FRANCISCO, CA, 94112",192285714,"L"
91457,"181 SALEM RD","SCHWENKSVILLE","PA",19473,40.2473928640001,-75.4589929969999,457,"181 SALEM RD, SCHWENKSVILLE, PA, 19473","Match","Exact","181 SALEM RD, SCHWENKSVILLE, PA, 19473",605641629,"L"
91458,"181 SALEM ROAD","WESTBURY","NY",11590,40.7633459510001,-73.5943734809999,458,"181 SALEM ROAD, WESTBURY, NY, 11590","Match","Exact","181 SALEM RD, WESTBURY, NY, 11590",147692075,"L"
91459,"181 SCHOOL STREET","NORTHFIELD","MA",1360,42.696793821,-72.43764465,459,"181 SCHOOL STREET, NORTHFIELD, MA, 1360","Match","Exact","181 SCHOOL ST, NORTHFIELD, MA, 01360",39941082,"R"
91460,"181 SEAGLASS DRIVE","MELBOURNE BEACH","FL",32951,27.978055898,-80.515253999,460,"181 SEAGLASS DRIVE, MELBOURNE BEACH, FL, 32951","Match","Exact","181 SEAGLASS DR, MELBOURNE BCH, FL, 32951",93937698,"L"
91461,"181 SECOND AVE SUITE 600","SAN MATEO","CA",94401,37.565549887,-122.324305212,461,"181 SECOND AVE SUITE 600, SAN MATEO, CA, 94401","Match","Exact","181 2ND AVE, SAN MATEO, CA, 94401",192377882,"L"
91462,"181 SHARON TURNPIKE","GOSHEN","CT",6756,41.831141153,-73.237795733,462,"181 SHARON TURNPIKE, GOSHEN, CT, 6756","Match","Exact","181 SHARON TPKE, GOSHEN, CT, 06756",637501074,"R"
91463,"181 SHERWOOD LANE","FAIRMOUNT","GA",30139,34.417127393,-84.694474574,463,"181 SHERWOOD LANE, FAIRMOUNT, GA, 30139","Match","Exact","181 SHERWOOD LN, FAIRMOUNT, GA, 30139",634081249,"R"
91464,"181 SIMSBURY ROAD","WEST HARTFORD","CT",6117,41.8015636110001,-72.736549424,464,"181 SIMSBURY ROAD, WEST HARTFORD, CT, 6117","Match","Exact","181 SIMSBURY RD, WEST HARTFORD, CT, 06117",3485988,"L"
91465,"181 SOUTH FRANKLIN AVENUE SUITE 607","VALLEY STREAM","NY",11581,40.6601078570001,-73.703680801,465,"181 SOUTH FRANKLIN AVENUE SUITE 607, VALLEY STREAM, NY, 11581","Match","Exact","181 S FRANKLIN AVE, VALLEY STREAM, NY, 11581",638238599,"L"
91466,"181 SOUTH GRAHAM STREET","WILLOW PARK","TX",76401,NA,NA,466,"181 SOUTH GRAHAM STREET, WILLOW PARK, TX, 76401","No_Match",NA,NA,NA,NA
91467,"181 SOUTH MAIN AVE","ALBANY","NY",12208,42.658030458,-73.7959923349999,467,"181 SOUTH MAIN AVE, ALBANY, NY, 12208","Match","Exact","181 S MAIN AVE, ALBANY, NY, 12208",18352185,"R"
91468,"181 SOUTH ST","SEAGROVE","NC",27341,35.5394349490001,-79.7773002,468,"181 SOUTH ST, SEAGROVE, NC, 27341","Match","Exact","181 SOUTH ST, SEAGROVE, NC, 27341",20411827,"R"
91469,"181 STATE STREET","NEW LONDON","CT",6320,41.3546735190001,-72.096404547,469,"181 STATE STREET, NEW LONDON, CT, 6320","Match","Exact","181 STATE ST, NEW LONDON, CT, 06320",56851105,"R"
91470,"181 TANGLEWOOD DRIVE","HAMDEN","CT",6518,41.396686291,-72.90651574,470,"181 TANGLEWOOD DRIVE, HAMDEN, CT, 6518","Match","Exact","181 TANGLEWOOD DR, HAMDEN, CT, 06518",3711829,"R"
91471,"181 THOMPSON STREET","NEW YORK","NY",10012,40.7278849,-74.000138192,471,"181 THOMPSON STREET, NEW YORK, NY, 10012","Match","Exact","181 THOMPSON ST, NEW YORK, NY, 10012",59660268,"L"
91472,"181 TREE FARM ROAD","ST. GEORGE","SC",29477,33.2073844110001,-80.5481774799999,472,"181 TREE FARM ROAD, ST. GEORGE, SC, 29477","Match","Exact","181 TREE FARM RD, SAINT GEORGE, SC, 29477",645286146,"L"
91473,"181 W NORTH","EAGLE HARBOR","MI",49950,47.4581145330001,-88.1619002319999,473,"181 W NORTH, EAGLE HARBOR, MI, 49950","Match","Non_Exact","181 W NORTH ST, EAGLE HARBOR, MI, 49950",182007613,"R"
91474,"181 WEDNESDAY HILL RD","LEE","NH",3861,43.116748844,-70.972470884,474,"181 WEDNESDAY HILL RD, LEE, NH, 3861","Match","Exact","181 WEDNESDAY HILL RD, LEE, NH, 03861",117812810,"R"
91475,"181 WENTWORTH AVE","GLENCOE","IL",60022,42.125966125,-87.7454350419999,475,"181 WENTWORTH AVE, GLENCOE, IL, 60022","Match","Exact","181 WENTWORTH AVE, GLENCOE, IL, 60022",111840623,"R"
91476,"181 WEST 6TH STREET","SHELBY","MI",49455,43.6160785000001,-86.3688451689999,476,"181 WEST 6TH STREET, SHELBY, MI, 49455","Match","Exact","181 W 6TH ST, SHELBY, MI, 49455",163693230,"L"
91477,"181 WEST GRADY AVENUE","LYONS","GA",30436,32.2014925010001,-82.323811048,477,"181 WEST GRADY AVENUE, LYONS, GA, 30436","Match","Exact","181 W GRADY AVE, LYONS, GA, 30436",4771459,"R"
91478,"181 WEST PIEDMONT STREET","KEYSER","WV",26726,39.442108208,-78.980778936,478,"181 WEST PIEDMONT STREET, KEYSER, WV, 26726","Match","Exact","181 W PIEDMONT ST, KEYSER, WV, 26726",74306556,"L"
91479,"181 WHITE MOSS DRIVE","MARSTONS MILLS","MA",2648,41.6806594180001,-70.4373559799999,479,"181 WHITE MOSS DRIVE, MARSTONS MILLS, MA, 2648","Match","Exact","181 WHITE MOSS DR, MARSTONS MILLS, MA, 02648",121634109,"R"
91480,"181 WIND CHIME COURT SUITE 101","RALEIGH","NC",27615,35.8751050180001,-78.642477378,480,"181 WIND CHIME COURT SUITE 101, RALEIGH, NC, 27615","Match","Exact","181 WIND CHIME CT, RALEIGH, NC, 27615",72663530,"L"
91481,"181 WINTHROP RD","PITTSBORO","NC",27312,35.813380624,-79.1575335059999,481,"181 WINTHROP RD, PITTSBORO, NC, 27312","Match","Exact","181 WINTHROP RD, PITTSBORO, NC, 27312",71379769,"L"
91482,"181 WOOD FOREST DRIVE","BUMPASS","VA",23024,37.921189036,-77.757087354,482,"181 WOOD FOREST DRIVE, BUMPASS, VA, 23024","Match","Exact","181 WOOD FOREST DR, BUMPASS, VA, 23024",84951173,"L"
91483,"181 WOODVALE COURT","VALLEJO","CA",94590,38.112600732,-122.219535056,483,"181 WOODVALE COURT, VALLEJO, CA, 94590","Match","Non_Exact","181 WOODVALE CT, VALLEJO, CA, 94591",192528546,"L"
91484,"181","WHITE SALMON","WA",98672,NA,NA,484,"181, WHITE SALMON, WA, 98672","No_Match",NA,NA,NA,NA
91485,"1810 16TH STREET","WASHINGTON DC","DC",20009,38.914391815,-77.036511752,485,"1810 16TH STREET, WASHINGTON DC, DC, 20009","Match","Non_Exact","1810 16TH ST NW, WASHINGTON, DC, 20009",76223186,"L"
91486,"1810 3D AVE SOUTH","JASPER","AL",35501,NA,NA,486,"1810 3D AVE SOUTH, JASPER, AL, 35501","No_Match",NA,NA,NA,NA
91487,"1810 3RD AVE E","HIBBING","MN",55746,47.4300866310001,-92.939575093,487,"1810 3RD AVE E, HIBBING, MN, 55746","Match","Exact","1810 3RD AVE E, HIBBING, MN, 55746",163166471,"R"
91488,"1810 3RD AVE S APT C","MINNEAPOLIS","MN",55404,44.965009502,-93.272802337,488,"1810 3RD AVE S APT C, MINNEAPOLIS, MN, 55404","Match","Exact","1810 3RD AVE S, MINNEAPOLIS, MN, 55404",635872096,"R"
91489,"1810 3RD AVENUE - A12C","NEW YORK","NY",10029,40.7880203350001,-73.947274157,489,"1810 3RD AVENUE - A12C, NEW YORK, NY, 10029","Match","Exact","1810 3RD AVE, NEW YORK, NY, 10029",59657932,"L"
91490,"1810 4TH AVE W","PALMETTO","FL",34221,27.5297310340001,-82.5671841559999,490,"1810 4TH AVE W, PALMETTO, FL, 34221","Match","Exact","1810 4TH AVE W, PALMETTO, FL, 34221",16243283,"R"
91491,"1810 7TH ST NW","NEW BRIGHTON","MN",55112,45.061021479,-93.210189617,491,"1810 7TH ST NW, NEW BRIGHTON, MN, 55112","Match","Exact","1810 7TH ST NW, NEW BRIGHTON, MN, 55112",97634075,"R"
91492,"1810 AUTUMNDALE DR","GRAPEVINE","TX",76051,32.8853607340001,-97.0921413189999,492,"1810 AUTUMNDALE DR, GRAPEVINE, TX, 76051","Match","Non_Exact","1810 AUTUMNDALE, GRAPEVINE, TX, 76051",102092074,"L"
91493,"1810 AVENUE B","BILLINGS","MT",59102,45.7850773220001,-108.562177403,493,"1810 AVENUE B, BILLINGS, MT, 59102","Match","Exact","1810 AVE B, BILLINGS, MT, 59102",181474879,"L"
91494,"1810 BERKELEY WAY APT 8","BERKELEY","CA",94703,37.8722198880001,-122.275019343,494,"1810 BERKELEY WAY APT 8, BERKELEY, CA, 94703","Match","Exact","1810 BERKELEY WAY, BERKELEY, CA, 94703",124993938,"R"
91495,"1810 BOURNEMOUTH RD","GROSSE POINTE WOODS","MI",48236,42.4226987590001,-82.915066635,495,"1810 BOURNEMOUTH RD, GROSSE POINTE WOODS, MI, 48236","Match","Exact","1810 BOURNEMOUTH RD, GROSSE POINTE WOODS, MI, 48236",95487750,"R"
91496,"1810 CAPITAL AVE","CHEYENNE","WY",82001,41.1346484470001,-104.816539614,496,"1810 CAPITAL AVE, CHEYENNE, WY, 82001","Match","Non_Exact","1810 CAPITOL AVE, CHEYENNE, WY, 82001",160149814,"L"
91497,"1810 CLUB LAKES PKWY","LAWRENCEVILLE","GA",30044,33.9383114390001,-84.113854459,497,"1810 CLUB LAKES PKWY, LAWRENCEVILLE, GA, 30044","Match","Exact","1810 CLUB LAKES PKWY, LAWRENCEVILLE, GA, 30044",608742368,"L"
91498,"1810 CLUB RD","CHARLOTTE","NC",28205,35.2225713,-80.800424603,498,"1810 CLUB RD, CHARLOTTE, NC, 28205","Match","Exact","1810 CLUB RD, CHARLOTTE, NC, 28205",70488608,"R"
91499,"1810 COMMERCE ST  APT 309","DALLAS","TX",75201,32.780530055,-96.796024857,499,"1810 COMMERCE ST  APT 309, DALLAS, TX, 75201","Match","Exact","1810 COMMERCE ST, DALLAS, TX, 75201",102910250,"R"
91500,"1810 COMMERCE STREET   SUITE 710","DALLAS","TX",75201,32.780530055,-96.796024857,500,"1810 COMMERCE STREET   SUITE 710, DALLAS, TX, 75201","Match","Exact","1810 COMMERCE ST, DALLAS, TX, 75201",102910250,"R"
