"ID","Address","City","State","Zip","lat","long","id","input_address","match_indicator","match_type","matched_address","tiger_line_id","tiger_side"
277501,"709 1ST AVE SE","RONAN","MT",59864,47.5229638970001,-114.095725824,1,"709 1ST AVE SE, RONAN, MT, 59864","Match","Exact","709 1ST AVE SE, RONAN, MT, 59864",206890982,"L"
277502,"709 23RD AVE S","MINNEAPOLIS","MN",55454,44.965768741,-93.23930104,2,"709 23RD AVE S, MINNEAPOLIS, MN, 55454","Match","Exact","709 23RD AVE S, MINNEAPOLIS, MN, 55454",43637178,"L"
277503,"709 3RD AVE SW","CEDAR RAPIDS","IA",52404,41.971878003,-91.679669476,3,"709 3RD AVE SW, CEDAR RAPIDS, IA, 52404","Match","Exact","709 3RD AVE SW, CEDAR RAPIDS, IA, 52404",17025204,"L"
277504,"709 91ST STREET","NIAGARA FALLS","NY",14304,43.0815016190001,-78.9579581259999,4,"709 91ST STREET, NIAGARA FALLS, NY, 14304","Match","Exact","709 91ST ST, NIAGARA FALLS, NY, 14304",48687824,"R"
277505,"709 9TH STREET","BAY CITY","MI",48708,43.5937108160001,-83.883956456,5,"709 9TH STREET, BAY CITY, MI, 48708","Match","Exact","709 9TH ST, BAY CITY, MI, 48708",81147771,"L"
277506,"709 AL HWY 205","BOAZ","AL",35956,34.184406134,-86.158661766,6,"709 AL HWY 205, BOAZ, AL, 35956","Match","Non_Exact","709 AL HIGHWAY 205, BOAZ, AL, 35956",66760835,"R"
277507,"709 ANDREWS DRIVE","LONGWOOD","FL",32750,28.6906492680001,-81.379436292,7,"709 ANDREWS DRIVE, LONGWOOD, FL, 32750","Match","Exact","709 ANDREWS DR, LONGWOOD, FL, 32750",93737072,"L"
277508,"709 ARENDELL STREET","MOREHEAD CITY","NC",28557,34.7211321190001,-76.711386347,8,"709 ARENDELL STREET, MOREHEAD CITY, NC, 28557","Match","Exact","709 ARENDELL ST, MOREHEAD CITY, NC, 28557",33912033,"L"
277509,"709 ASHFORD LANE","WYLIE","TX",75098,33.026990181,-96.550921193,9,"709 ASHFORD LANE, WYLIE, TX, 75098","Match","Exact","709 ASHFORD LN, WYLIE, TX, 75098",616528285,"L"
277510,"709 AVENUE I","GREENWOOD","MS",38930,33.5115881510001,-90.170787871,10,"709 AVENUE I, GREENWOOD, MS, 38930","Match","Exact","709 AVE I, GREENWOOD, MS, 38930",1048893,"R"
277511,"709 AVON ST","BURLINGTON","NC",27215,36.0824329180001,-79.437480825,11,"709 AVON ST, BURLINGTON, NC, 27215","Match","Non_Exact","709 AVON AVE, BURLINGTON, NC, 27215",71663805,"R"
277512,"709 AZTEC PLACE","BOULDER CITY","NV",89005,35.9742829240001,-114.838170759,12,"709 AZTEC PLACE, BOULDER CITY, NV, 89005","Match","Exact","709 AZTEC PL, BOULDER CITY, NV, 89005",201831026,"R"
277513,"709 BALBOA AVENUE","CAPITOL HEIGHTS","MD",20743,38.8813577190001,-76.9217477349999,13,"709 BALBOA AVENUE, CAPITOL HEIGHTS, MD, 20743","Match","Exact","709 BALBOA AVE, CAPITOL HEIGHTS, MD, 20743",76313466,"R"
277514,"709 BALTIMORE BLVD","SEA GIRT","NJ",8750,40.1345928440001,-74.0429773769999,14,"709 BALTIMORE BLVD, SEA GIRT, NJ, 8750","Match","Exact","709 BALTIMORE BLVD, SEA GIRT, NJ, 08750",90467629,"R"
277515,"709 BAYBERRY LN","NASHVILLE","NC",27856,35.9605220080001,-77.9424785159999,15,"709 BAYBERRY LN, NASHVILLE, NC, 27856","Match","Non_Exact","709 BAYBERRY CT, NASHVILLE, NC, 27856",90398855,"L"
277516,"709 BOB WHITE CIRCLE","EUDORA","KS",66025,38.9236941820001,-95.090344558,16,"709 BOB WHITE CIRCLE, EUDORA, KS, 66025","Match","Non_Exact","709 BOBWHITE CIR, EUDORA, KS, 66025",640192213,"L"
277517,"709 BODEGA BAY DR","KELLER","TX",76248,32.942644418,-97.238276914,17,"709 BODEGA BAY DR, KELLER, TX, 76248","Match","Exact","709 BODEGA BAY DR, KELLER, TX, 76248",101929457,"R"
277518,"709 BRIGHT MEADOW WAY","GAITHERSBURG","MD",20878,39.1157418440001,-77.231810579,18,"709 BRIGHT MEADOW WAY, GAITHERSBURG, MD, 20878","Match","Non_Exact","709 BRIGHT MEADOW LN, GAITHERSBURG, MD, 20878",62103795,"L"
277519,"709 BRISTLEWOOD DR","MCKINNEY","TX",75070,33.1968224350001,-96.7224071159999,19,"709 BRISTLEWOOD DR, MCKINNEY, TX, 75070","Match","Non_Exact","709 BRISTLEWOOD DR, MCKINNEY, TX, 75072",210519046,"L"
277520,"709 BROOK MEADOW CT","VIRGINIA BEACH","VA",23462,36.8631429920001,-76.16726643,20,"709 BROOK MEADOW CT, VIRGINIA BEACH, VA, 23462","Match","Exact","709 BROOK MEADOW CT, VA BCH, VA, 23462",122258904,"L"
277521,"709 BRUTON DRIVE","GIBSONIA","PA",15044,40.6205951810001,-79.9250111919999,21,"709 BRUTON DRIVE, GIBSONIA, PA, 15044","Match","Exact","709 BRUTON DR, GIBSONIA, PA, 15044",648681171,"L"
277522,"709 BURNS ST","MANSFIELD","OH",44903,40.7728810260001,-82.540277223,22,"709 BURNS ST, MANSFIELD, OH, 44903","Match","Exact","709 BURNS ST, MANSFIELD, OH, 44903",207223052,"L"
277523,"709 CASTLE OAK COURT","ARLINGTON","TX",76012,32.743876743,-97.142473799,23,"709 CASTLE OAK COURT, ARLINGTON, TX, 76012","Match","Exact","709 CASTLE OAK CT, ARLINGTON, TX, 76012",101905112,"R"
277524,"709 CENTRAL AVE NW","ALBUQUERQUE","NM",87102,35.085057351,-106.655366701,24,"709 CENTRAL AVE NW, ALBUQUERQUE, NM, 87102","Match","Exact","709 CENTRAL AVE NW, ALBUQUERQUE, NM, 87102",206706502,"R"
277525,"709 CIRCLE TRACE ROAD","MONROE","NC",28110,34.9993561680001,-80.659081199,25,"709 CIRCLE TRACE ROAD, MONROE, NC, 28110","Match","Exact","709 CIRCLE TRACE RD, MONROE, NC, 28110",14225625,"R"
277526,"709 CLEMONS ST","BELLMORE","NY",11710,40.675952185,-73.52803141,26,"709 CLEMONS ST, BELLMORE, NY, 11710","Match","Exact","709 CLEMONS ST, BELLMORE, NY, 11710",147637063,"L"
277527,"709 COLONIAL PARK BLVD","AUSTIN","TX",78745,30.2090837550001,-97.762212504,27,"709 COLONIAL PARK BLVD, AUSTIN, TX, 78745","Match","Exact","709 COLONIAL PARK BLVD, AUSTIN, TX, 78745",629627449,"L"
277528,"709 CONCORD ROAD","TALLAHASSEE","FL",32308,30.4489540820001,-84.2401060459999,28,"709 CONCORD ROAD, TALLAHASSEE, FL, 32308","Match","Exact","709 CONCORD RD, TALLAHASSEE, FL, 32308",82866425,"R"
277529,"709 CONKLIN ROAD","BINGHAMTON","NY",13903,42.09935821,-75.853887653,29,"709 CONKLIN ROAD, BINGHAMTON, NY, 13903","Match","Exact","709 CONKLIN RD, BINGHAMTON, NY, 13903",640450257,"L"
277530,"709 COURTENAY DR NE","ATLANTA","GA",30306,33.7894758310001,-84.363864452,30,"709 COURTENAY DR NE, ATLANTA, GA, 30306","Match","Exact","709 COURTENAY DR NE, ATLANTA, GA, 30306",618350606,"R"
277531,"709 COVE PLACE","LONGVIEW","TX",75604,32.514165452,-94.77615946,31,"709 COVE PLACE, LONGVIEW, TX, 75604","Match","Exact","709 COVE PL, LONGVIEW, TX, 75604",624825846,"R"
277532,"709 CR 3673","QUEEN CITY","TX",75572,NA,NA,32,"709 CR 3673, QUEEN CITY, TX, 75572","No_Match",NA,NA,NA,NA
277533,"709 CREEK RD","MEHOOPANY","PA",18629,41.543339615,-76.1039546969999,33,"709 CREEK RD, MEHOOPANY, PA, 18629","Match","Exact","709 CREEK RD, MEHOOPANY, PA, 18629",612269149,"L"
277534,"709 CRESTMONT TRAIL DR","MISSOURI CITY","TX",77489,NA,NA,34,"709 CRESTMONT TRAIL DR, MISSOURI CITY, TX, 77489","No_Match",NA,NA,NA,NA
277535,"709 CROWNE DRIVE","BIRMINGHAM","AL",35224,33.5052425540001,-86.9286307419999,35,"709 CROWNE DRIVE, BIRMINGHAM, AL, 35224","Match","Exact","709 CROWNE DR, BIRMINGHAM, AL, 35224",81648671,"R"
277536,"709 DEBRA COURT","GREENVILLE","NC",27858,35.5694482120001,-77.298064782,36,"709 DEBRA COURT, GREENVILLE, NC, 27858","Match","Exact","709 DEBRA CT, GREENVILLE, NC, 27858",80033992,"R"
277537,"709 DRYDEN DRIVE","BALTIMORE","MD",21229,39.296314227,-76.698214492,37,"709 DRYDEN DRIVE, BALTIMORE, MD, 21229","Match","Exact","709 DRYDEN DR, BALTIMORE, MD, 21229",206412648,"R"
277538,"709 E 660 S","FERDINAND","IN",47532,38.2834342080001,-86.89512935,38,"709 E 660 S, FERDINAND, IN, 47532","Match","Exact","709 E 660 S, FERDINAND, IN, 47532",7886199,"R"
277539,"709 E 7TH STREET","YORK","NE",68467,40.867952308,-97.584480245,39,"709 E 7TH STREET, YORK, NE, 68467","Match","Exact","709 E 7TH ST, YORK, NE, 68467",150344837,"L"
277540,"709 E DEKALB RD","DEKALB JUNCTION","NY",13630,44.483649751,-75.303855104,40,"709 E DEKALB RD, DEKALB JUNCTION, NY, 13630","Match","Non_Exact","709 E DEKALB RD, DE KALB JUNCTION, NY, 13630",155221455,"L"
277541,"709 E HALE LAKE RD","WARRENSBURG","MO",64093,38.7452747,-93.726960961,41,"709 E HALE LAKE RD, WARRENSBURG, MO, 64093","Match","Exact","709 E HALE LAKE RD, WARRENSBURG, MO, 64093",95371983,"R"
277542,"709 E IVINSON STREET APT 31","LARAMIE","WY",82070,NA,NA,42,"709 E IVINSON STREET APT 31, LARAMIE, WY, 82070","No_Match",NA,NA,NA,NA
277543,"709 E KREZDORN STREET","SEGUIN","TX",78155,29.5758384430001,-97.958016314,43,"709 E KREZDORN STREET, SEGUIN, TX, 78155","Match","Exact","709 E KREZDORN ST, SEGUIN, TX, 78155",54828046,"R"
277544,"709 E SUMMIT AV","FERGUS FALLS","MN",56537,46.285587702,-96.065169783,44,"709 E SUMMIT AV, FERGUS FALLS, MN, 56537","Match","Exact","709 E SUMMIT AVE, FERGUS FALLS, MN, 56537",168288742,"R"
277545,"709 E WILKINS ST","LEAGUE CITY","TX",77573,29.5100888710001,-95.088413015,45,"709 E WILKINS ST, LEAGUE CITY, TX, 77573","Match","Exact","709 E WILKINS ST, LEAGUE CITY, TX, 77573",96682528,"R"
277546,"709 E WILLIAMSBURG MNR","ARLINGTON","TX",76014,32.7010269460001,-97.1009476149999,46,"709 E WILLIAMSBURG MNR, ARLINGTON, TX, 76014","Match","Exact","709 E WILLIAMSBURG MANOR, ARLINGTON, TX, 76014",101909869,"L"
277547,"709 EAST 52 STREET","BROOKLYN","NY",11203,40.6430542690001,-73.92749185,47,"709 EAST 52 STREET, BROOKLYN, NY, 11203","Match","Exact","709 E 52ND ST, BROOKLYN, NY, 11203",59085803,"L"
277548,"709 EAST 7TH STREET","YORK","NE",68467,40.867952314,-97.5844838,48,"709 EAST 7TH STREET, YORK, NE, 68467","Match","Exact","709 E 7TH ST, YORK, NE, 68467",150344837,"L"
277549,"709 EAST NAVARRO","DELEON","TX",76444,32.116098234,-98.5285951719999,49,"709 EAST NAVARRO, DELEON, TX, 76444","Match","Non_Exact","709 E NAVARRO ST, DE LEON, TX, 76444",158647704,"R"
277550,"709 EMERALD WOOD DR","AUSTIN","TX",78745,30.213404101,-97.780166508,50,"709 EMERALD WOOD DR, AUSTIN, TX, 78745","Match","Exact","709 EMERALD WOOD DR, AUSTIN, TX, 78745",63944233,"L"
277551,"709 EMERSON ST NE","WASHINGTON","DC",20017,38.950042083,-76.9965701,51,"709 EMERSON ST NE, WASHINGTON, DC, 20017","Match","Exact","709 EMERSON ST NE, WASHINGTON, DC, 20017",76228160,"R"
277552,"709 ERIN CRESCENT STREET","RICHMOND","VA",23231,37.5168491330001,-77.408172166,52,"709 ERIN CRESCENT STREET, RICHMOND, VA, 23231","Match","Exact","709 ERIN CRESCENT ST, RICHMOND, VA, 23231",201555869,"R"
277553,"709 FANNIN LANE","MANSFIELD","TX",76063,32.5748350640001,-97.07301124,53,"709 FANNIN LANE, MANSFIELD, TX, 76063","Match","Exact","709 FANNIN LN, MANSFIELD, TX, 76063",102118170,"R"
277554,"709 FDR DR SUITE 1C","NEW YORK","NY",10009,NA,NA,54,"709 FDR DR SUITE 1C, NEW YORK, NY, 10009","No_Match",NA,NA,NA,NA
277555,"709 FLINTRIDGE DRIVE","SANTA ANA","CA",92704,33.737857155,-117.935627115,55,"709 FLINTRIDGE DRIVE, SANTA ANA, CA, 92704","Match","Non_Exact","709 S FLINTRIDGE DR, SANTA ANA, CA, 92704",631772621,"L"
277556,"709 FLOWING MEADOW DRIVE","HENDERSON","NV",89014,36.0664190100001,-115.056203557,56,"709 FLOWING MEADOW DRIVE, HENDERSON, NV, 89014","Match","Exact","709 FLOWING MEADOW DR, HENDERSON, NV, 89014",641500144,"L"
277557,"709 FOX RIDGE DRIVE","BRENTWOOD","TN",37027,36.037030257,-86.7752765829999,57,"709 FOX RIDGE DRIVE, BRENTWOOD, TN, 37027","Match","Exact","709 FOX RIDGE DR, BRENTWOOD, TN, 37027",629968055,"L"
277558,"709 FRANKLIN STREET","CLARKSVILLE","TN",37040,36.5293372730001,-87.350907767,58,"709 FRANKLIN STREET, CLARKSVILLE, TN, 37040","Match","Exact","709 FRANKLIN ST, CLARKSVILLE, TN, 37040",31815166,"L"
277559,"709 FRISCO AVE","CLINTON","OK",73601,35.5143891800001,-98.968589046,59,"709 FRISCO AVE, CLINTON, OK, 73601","Match","Exact","709 FRISCO AVE, CLINTON, OK, 73601",150572449,"R"
277560,"709 GAZELLE WAY","KISSIMMEE","FL",34759,28.118730563,-81.460396405,60,"709 GAZELLE WAY, KISSIMMEE, FL, 34759","Match","Exact","709 GAZELLE WAY, KISSIMMEE, FL, 34759",104806004,"R"
277561,"709 GORSUCH AVE","BALTIMORE","MD",21211,39.327126095,-76.606270179,61,"709 GORSUCH AVE, BALTIMORE, MD, 21211","Match","Non_Exact","709 GORSUCH AVE, BALTIMORE, MD, 21218",636216697,"R"
277562,"709 GRACE ST","ELGIN","IL",60120,42.021667903,-88.270508041,62,"709 GRACE ST, ELGIN, IL, 60120","Match","Exact","709 GRACE ST, ELGIN, IL, 60120",119504202,"L"
277563,"709 HIGH STREET","FARMVILLE","VA",23901,37.301019528,-78.400631473,63,"709 HIGH STREET, FARMVILLE, VA, 23901","Match","Exact","709 HIGH ST, FARMVILLE, VA, 23901",635801990,"R"
277564,"709 HIGHSPIRE ROAD","GLENMOORE","PA",19343,40.0618330390001,-75.796371678,64,"709 HIGHSPIRE ROAD, GLENMOORE, PA, 19343","Match","Exact","709 HIGHSPIRE RD, GLENMOORE, PA, 19343",179524301,"L"
277565,"709 HOLDING RIDGE COURT","WAKE FOREST","NC",27587,35.969201393,-78.528928099,65,"709 HOLDING RIDGE COURT, WAKE FOREST, NC, 27587","Match","Exact","709 HOLDING RIDGE CT, WAKE FOREST, NC, 27587",612821255,"L"
277566,"709 HOLLAND SQUARE","WEST READING","PA",19611,40.3344664110001,-75.952512531,66,"709 HOLLAND SQUARE, WEST READING, PA, 19611","Match","Exact","709 HOLLAND SQ, WEST READING, PA, 19611",80444001,"R"
277567,"709 JACKSON AVE","MAGNOLIA","NJ",8049,39.85370363,-75.0459239959999,67,"709 JACKSON AVE, MAGNOLIA, NJ, 8049","Match","Exact","709 JACKSON AVE, MAGNOLIA, NJ, 08049",134356003,"R"
277568,"709 JACKSON HOLLOW RD","MOUNT JULIET","TN",37122,36.196076782,-86.547774166,68,"709 JACKSON HOLLOW RD, MOUNT JULIET, TN, 37122","Match","Exact","709 JACKSON HOLLOW RD, MOUNT JULIET, TN, 37122",89701164,"R"
277569,"709 KAYLORS MDW","LOCUST GROVE","GA",30248,33.347754218,-84.091028993,69,"709 KAYLORS MDW, LOCUST GROVE, GA, 30248","Match","Exact","709 KAYLORS MEADOW, LOCUST GROVE, GA, 30248",618488622,"R"
277570,"709 KENMORE AVENUE","SOUTH ORANGE","NJ",7079,40.749617964,-74.235974778,70,"709 KENMORE AVENUE, SOUTH ORANGE, NJ, 7079","Match","Exact","709 KENMORE AVE, SOUTH ORANGE, NJ, 07079",63476791,"L"
277571,"709 KRAMER ROAD","LILLINGTON","NC",27546,35.3136985300001,-78.9795973559999,71,"709 KRAMER ROAD, LILLINGTON, NC, 27546","Match","Exact","709 KRAMER RD, LILLINGTON, NC, 27546",71976905,"R"
277572,"709 LAKECREST DRIVE","MOORE","OK",73170,35.3430170140001,-97.520594495,72,"709 LAKECREST DRIVE, MOORE, OK, 73170","Match","Exact","709 LAKECREST DR, MOORE, OK, 73170",99905273,"L"
277573,"709 LOMAS BLVD NW","ALBUQUERQUE","NM",87102,NA,NA,73,"709 LOMAS BLVD NW, ALBUQUERQUE, NM, 87102","Tie",NA,NA,NA,NA
277574,"709 LORILLARD AVE","UNION BEACH","NJ",7735,40.4451973290001,-74.165830563,74,"709 LORILLARD AVE, UNION BEACH, NJ, 7735","Match","Exact","709 LORILLARD AVE, UNION BEACH, NJ, 07735",90475272,"L"
277575,"709 LOVELADY ROAD NE","VALDESE","NC",28690,NA,NA,75,"709 LOVELADY ROAD NE, VALDESE, NC, 28690","No_Match",NA,NA,NA,NA
277576,"709 MACDONALD AVE","BELLPORT","NY",11713,40.7791945290001,-72.9540948969999,76,"709 MACDONALD AVE, BELLPORT, NY, 11713","Match","Exact","709 MACDONALD AVE, BELLPORT, NY, 11713",114014280,"L"
277577,"709 MADISON AVE SUITE 307","TOLEDO","OH",43604,41.652867373,-83.537996993,77,"709 MADISON AVE SUITE 307, TOLEDO, OH, 43604","Match","Exact","709 MADISON AVE, TOLEDO, OH, 43604",33943820,"L"
277578,"709 MAIN ST","TABOR","IA",51653,40.898998271,-95.6714002589999,78,"709 MAIN ST, TABOR, IA, 51653","Match","Exact","709 MAIN ST, TABOR, IA, 51653",9904111,"L"
277579,"709 MAIN STREET","HUNTLAND","TN",37345,35.0495843050001,-86.269609208,79,"709 MAIN STREET, HUNTLAND, TN, 37345","Match","Exact","709 MAIN ST, HUNTLAND, TN, 37345",57965024,"R"
277580,"709 MAPLE STREET","TYNDALL","SD",57066,42.9842905620001,-97.861205994,80,"709 MAPLE STREET, TYNDALL, SD, 57066","Match","Exact","709 MAPLE ST, TYNDALL, SD, 57066",172918835,"L"
277581,"709 MARKET STREET STE 1","KNOXVILLE","TN",37902,35.9629243200001,-83.918209312,81,"709 MARKET STREET STE 1, KNOXVILLE, TN, 37902","Match","Non_Exact","709 MARKET ST SW, KNOXVILLE, TN, 37902",42620632,"R"
277582,"709 MATCH POINT DRIVE APT 201","VIRGINIA","VA",23462,36.81888323,-76.1197530919999,82,"709 MATCH POINT DRIVE APT 201, VIRGINIA, VA, 23462","Match","Non_Exact","709 MATCH POINT DR, VAB, VA, 23462",122296640,"R"
277583,"709 MAYFAIR PLACE","ROCK HILL","SC",29730,34.8773966050001,-81.061846079,83,"709 MAYFAIR PLACE, ROCK HILL, SC, 29730","Match","Exact","709 MAYFAIR PL, ROCK HILL, SC, 29730",19818679,"L"
277584,"709 MCLEAN AVENUE","PT PLEASANT BEACH","NJ",8742,40.0937013320001,-74.05191817,84,"709 MCLEAN AVENUE, PT PLEASANT BEACH, NJ, 8742","Match","Exact","709 MCLEAN AVE, PT PLEASANT BEACH, NJ, 08742",203734458,"R"
277585,"709 MEADOWS DRIVE","KEESLER AFB","MS",39534,NA,NA,85,"709 MEADOWS DRIVE, KEESLER AFB, MS, 39534","No_Match",NA,NA,NA,NA
277586,"709 N 17TH AVE","ARCADIA","FL",34266,27.2228231190001,-81.840663079,86,"709 N 17TH AVE, ARCADIA, FL, 34266","Match","Exact","709 N 17TH AVE, ARCADIA, FL, 34266",16167719,"L"
277587,"709 N 74TH TERRACE","KANSAS CITY","KS",66112,39.111362157,-94.7532878059999,87,"709 N 74TH TERRACE, KANSAS CITY, KS, 66112","Match","Exact","709 N 74TH TER, KANSAS CITY, KS, 66112",91137424,"R"
277588,"709 N HILL STREET SUITE 18","LOS ANGELES","CA",90012,34.061056788,-118.240353418,88,"709 N HILL STREET SUITE 18, LOS ANGELES, CA, 90012","Match","Non_Exact","709 N HILL ST, LOS ANGELES, CA, 90012",141618010,"L"
277589,"709 N KNISS","LUVERNE","MN",56156,43.662037363,-96.212654987,89,"709 N KNISS, LUVERNE, MN, 56156","Match","Non_Exact","709 N KNISS AVE, LUVERNE, MN, 56156",30494897,"L"
277590,"709 N LEE AVE","ODESSA","TX",79761,31.849738609,-102.372004217,90,"709 N LEE AVE, ODESSA, TX, 79761","Match","Exact","709 N LEE AVE, ODESSA, TX, 79761",139430382,"L"
277591,"709 N POWERLINE RD","POMPANO BEACH","FL",33069,NA,NA,91,"709 N POWERLINE RD, POMPANO BEACH, FL, 33069","No_Match",NA,NA,NA,NA
277592,"709 NE 20TH","OKLAHOMA CITY","OK",73105,35.4901862830001,-97.500590761,92,"709 NE 20TH, OKLAHOMA CITY, OK, 73105","Match","Non_Exact","709 NE 20TH ST, OKLAHOMA CITY, OK, 73105",100401414,"L"
277593,"709 NEAPOLITAN WAY","NAPLES","FL",34103,26.202832954,-81.80364488,93,"709 NEAPOLITAN WAY, NAPLES, FL, 34103","Match","Exact","709 NEAPOLITAN WAY, NAPLES, FL, 34103",115137545,"L"
277594,"709 OLD FIELDS ARCH","CHESAPEAKE","VA",23320,36.7440691520001,-76.212658399,94,"709 OLD FIELDS ARCH, CHESAPEAKE, VA, 23320","Match","Exact","709 OLD FIELDS ARCH, CHESAPEAKE, VA, 23320",624304499,"L"
277595,"709 PADDINGTON PLACE","BRANDON","FL",33510,27.965315361,-82.297571239,95,"709 PADDINGTON PLACE, BRANDON, FL, 33510","Match","Exact","709 PADDINGTON PL, BRANDON, FL, 33510",104555723,"L"
277596,"709 PALMER COURT 2","MAMARONECK","NY",10543,40.9458845010001,-73.743569698,96,"709 PALMER COURT 2, MAMARONECK, NY, 10543","Match","Exact","709 PALMER CT, MAMARONECK, NY, 10543",139755080,"L"
277597,"709 PARK AVE","SPRING LAKE HEIGHTS","NJ",7762,40.1467045200001,-74.041575544,97,"709 PARK AVE, SPRING LAKE HEIGHTS, NJ, 7762","Match","Non_Exact","709 PARK AVE, SPRING LAKE, NJ, 07762",90459318,"L"
277598,"709 PARK FOREST DRIVE","GERLAND","TX",75042,32.919409558,-96.702241119,98,"709 PARK FOREST DRIVE, GERLAND, TX, 75042","Match","Non_Exact","709 PARK FOREST DR, GARLAND, TX, 75042",102917194,"L"
277599,"709 PEARL STREET","BIRDSBORO","PA",19508,40.2602437400001,-75.8213337609999,99,"709 PEARL STREET, BIRDSBORO, PA, 19508","Match","Exact","709 PEARL ST, BIRDSBORO, PA, 19508",80439461,"L"
277600,"709 PINE","PLEASANT HILL","MO",64080,38.7839976010001,-94.267602664,100,"709 PINE, PLEASANT HILL, MO, 64080","Match","Non_Exact","709 PINE ST, PLEASANT HILL, MO, 64080",100909405,"L"
277601,"709 RANTOUL LANE","LAKE MARY","FL",32746,28.7792659880001,-81.323132051,101,"709 RANTOUL LANE, LAKE MARY, FL, 32746","Match","Exact","709 RANTOUL LN, LAKE MARY, FL, 32746",93790541,"R"
277602,"709 RED DEVIL LANE","RUSSELL","KY",41169,38.5103454380001,-82.708054757,102,"709 RED DEVIL LANE, RUSSELL, KY, 41169","Match","Exact","709 RED DEVIL LN, RUSSELL, KY, 41169",650298704,"L"
277603,"709 REDEVIL LANE","RUSSELL","KY",41169,NA,NA,103,"709 REDEVIL LANE, RUSSELL, KY, 41169","No_Match",NA,NA,NA,NA
277604,"709 RISDON DRIVE","FERGUSON","MO",63135,38.755812846,-90.3038842,104,"709 RISDON DRIVE, FERGUSON, MO, 63135","Match","Exact","709 RISDON DR, FERGUSON, MO, 63135",100145876,"L"
277605,"709 RIVER FORK RD","WETUMPKA","AL",36092,32.591644683,-86.219919589,105,"709 RIVER FORK RD, WETUMPKA, AL, 36092","Match","Exact","709 RIVER FORK RD, WETUMPKA, AL, 36092",1395829,"L"
277606,"709 RODEO DRIVE","CHEYENNE","WY",82009,41.1861703480001,-104.841731992,106,"709 RODEO DRIVE, CHEYENNE, WY, 82009","Match","Non_Exact","709 RODEO AVE, CHEYENNE, WY, 82009",160163653,"R"
277607,"709 S 123RD DR","AVONDALE","AZ",85323,33.4394711030001,-112.324338263,107,"709 S 123RD DR, AVONDALE, AZ, 85323","Match","Exact","709 S 123RD DR, AVONDALE, AZ, 85323",128848220,"R"
277608,"709 S AMERICAN ST APT 2F","PHILADELPHIA","PA",19147,39.940157642,-75.146986226,108,"709 S AMERICAN ST APT 2F, PHILADELPHIA, PA, 19147","Match","Non_Exact","709 S AMERICAN ST, PHILADELPHIA, PA, 19147",642122514,"L"
277609,"709 S HILLPARK DRIVE","HOLLAND","OH",43528,41.62795399,-83.6955263899999,109,"709 S HILLPARK DRIVE, HOLLAND, OH, 43528","Match","Non_Exact","709 S HILL PARK DR, HOLLAND, OH, 43528",33962526,"L"
277610,"709 S ORLANDO AVE  UNIT A","COCOA BEACH","FL",32931,28.3056307630001,-80.609713175,110,"709 S ORLANDO AVE  UNIT A, COCOA BEACH, FL, 32931","Match","Non_Exact","709 S ORLANDO AVE, COCOA BEACH, FL, 32931",93899605,"L"
277611,"709 S SPRING VALLEY RD","JUNCTION CITY","KS",66441,39.01682685,-96.8724227439999,111,"709 S SPRING VALLEY RD, JUNCTION CITY, KS, 66441","Match","Exact","709 S SPRING VALLEY RD, JUNCTION CITY, KS, 66441",635247801,"R"
277612,"709 S TAFT ST","KENNEWICK","WA",99336,46.2013829050001,-119.213250374,112,"709 S TAFT ST, KENNEWICK, WA, 99336","Match","Exact","709 S TAFT ST, KENNEWICK, WA, 99336",174990073,"L"
277613,"709 SANFORD AVENUE","NEWARK","NJ",7106,40.7378277020001,-74.235849128,113,"709 SANFORD AVENUE, NEWARK, NJ, 7106","Match","Exact","709 SANFORD AVE, NEWARK, NJ, 07106",63463982,"R"
277614,"709 SE 5TH CT","ANKENY","IA",50021,41.7259994120001,-93.590418867,114,"709 SE 5TH CT, ANKENY, IA, 50021","Match","Exact","709 SE 5TH CT, ANKENY, IA, 50021",640239407,"R"
277615,"709 SHADOWFIELD CT","CHEASAPEAKE","VA",23322,36.699757671,-76.2485607949999,115,"709 SHADOWFIELD CT, CHEASAPEAKE, VA, 23322","Match","Non_Exact","709 SHADOWFIELD CT, CHESAPEAKE, VA, 23322",121773750,"R"
277616,"709 SHAMROCK LANE","PISMO BEACH","CA",93449,35.138899952,-120.616258735,116,"709 SHAMROCK LANE, PISMO BEACH, CA, 93449","Match","Exact","709 SHAMROCK LN, PISMO BEACH, CA, 93449",109759955,"R"
277617,"709 SHARPSTONE BEND ROAD","STOCKBRIDGE","GA",30281,33.5289857230001,-84.225260347,117,"709 SHARPSTONE BEND ROAD, STOCKBRIDGE, GA, 30281","Match","Non_Exact","709 SHARPSTONE BD, STOCKBRIDGE, GA, 30281",617922414,"L"
277618,"709 SMITH ST","AMORY","MS",38821,33.9756183480001,-88.4680201689999,118,"709 SMITH ST, AMORY, MS, 38821","Match","Exact","709 SMITH ST, AMORY, MS, 38821",611746428,"L"
277619,"709 SOUTH ADAMS STREET","QUINCY","FL",32351,30.577014885,-84.5758613199999,119,"709 SOUTH ADAMS STREET, QUINCY, FL, 32351","Match","Exact","709 S ADAMS ST, QUINCY, FL, 32351",87816836,"R"
277620,"709 SOUTH CLYMAR AVE","COMPTON","CA",90220,33.8884726960001,-118.258027264,120,"709 SOUTH CLYMAR AVE, COMPTON, CA, 90220","Match","Exact","709 S CLYMAR AVE, COMPTON, CA, 90220",141680145,"R"
277621,"709 SOUTH CLYMAR","COMPTON","CA",90220,33.8884726960001,-118.258027264,121,"709 SOUTH CLYMAR, COMPTON, CA, 90220","Match","Non_Exact","709 S CLYMAR AVE, COMPTON, CA, 90220",141680145,"R"
277622,"709 SOUTH NEBRASKA","SAN JUAN","TX",78577,NA,NA,122,"709 SOUTH NEBRASKA, SAN JUAN, TX, 78577","No_Match",NA,NA,NA,NA
277623,"709 SOUTH WEST STREET","KEMPTON","IN",46049,40.283171081,-86.231744619,123,"709 SOUTH WEST STREET, KEMPTON, IN, 46049","Match","Exact","709 S WEST ST, KEMPTON, IN, 46049",29421531,"R"
277624,"709 SPELLMAN DR","FLINT","MI",48503,43.0307755810001,-83.692313638,124,"709 SPELLMAN DR, FLINT, MI, 48503","Match","Non_Exact","709 SPELMAN DR, FLINT, MI, 48503",617481407,"L"
277625,"709 STILLMEADOW LANE","MIDLAND","MI",48642,43.6479541960001,-84.21931195,125,"709 STILLMEADOW LANE, MIDLAND, MI, 48642","Match","Non_Exact","709 STILLMEADOW DR, MIDLAND, MI, 48642",81202367,"L"
277626,"709 TERRY DRIVE","WINCHESTER","KY",40391,37.9795479750001,-84.207407957,126,"709 TERRY DRIVE, WINCHESTER, KY, 40391","Match","Exact","709 TERRY DR, WINCHESTER, KY, 40391",31793062,"R"
277627,"709 TOLA COURT","HYATTSVILLE","MD",20785,38.9007476990001,-76.880817205,127,"709 TOLA COURT, HYATTSVILLE, MD, 20785","Match","Exact","709 TOLA CT, HYATTSVILLE, MD, 20785",76347752,"R"
277628,"709 W BRIARCLIFF RD","BOLINGBROOK","IL",60440,41.698072901,-88.099602856,128,"709 W BRIARCLIFF RD, BOLINGBROOK, IL, 60440","Match","Exact","709 W BRIARCLIFF RD, BOLINGBROOK, IL, 60440",111623953,"R"
277629,"709 W COLLEGE ST","FALLBROOK","CA",92028,33.379365367,-117.258139322,129,"709 W COLLEGE ST, FALLBROOK, CA, 92028","Match","Exact","709 W COLLEGE ST, FALLBROOK, CA, 92028",195283202,"R"
277630,"709 W LARKIN","ATHENS","TX",75751,32.2070323940001,-95.868754087,130,"709 W LARKIN, ATHENS, TX, 75751","Match","Non_Exact","709 W LARKIN ST, ATHENS, TX, 75751",125804031,"L"
277631,"709 W SACRAMENTO ST","ALTADENA","CA",91001,34.189395297,-118.165281649,131,"709 W SACRAMENTO ST, ALTADENA, CA, 91001","Match","Exact","709 SACRAMENTO ST, ALTADENA, CA, 91001",141626969,"R"
277632,"709 WASHINGTON AVE","LORAIN","OH",44052,41.462768006,-82.179127308,132,"709 WASHINGTON AVE, LORAIN, OH, 44052","Match","Exact","709 WASHINGTON AVE, LORAIN, OH, 44052",55448939,"L"
277633,"709 WELLS AVE","ATHENS","PA",18810,41.971393875,-76.518965689,133,"709 WELLS AVE, ATHENS, PA, 18810","Match","Exact","709 WELLS AVE, ATHENS, PA, 18810",176956982,"L"
277634,"709 WEST COUNTRY CLUB ROAD","CHICKASHA","OK",73018,35.015042694,-97.940613562,134,"709 WEST COUNTRY CLUB ROAD, CHICKASHA, OK, 73018","Match","Exact","709 W COUNTRY CLUB RD, CHICKASHA, OK, 73018",15242813,"L"
277635,"709 WESTSIDE DRIVE","NEWTON","NC",28658,35.6487356230001,-81.230771235,135,"709 WESTSIDE DRIVE, NEWTON, NC, 28658","Match","Exact","709 WESTSIDE DR, NEWTON, NC, 28658",45909391,"L"
277636,"709 WINDY WAY UNIT 107","NEWPORT NEWS","VA",23602,37.1199489200001,-76.518786357,136,"709 WINDY WAY UNIT 107, NEWPORT NEWS, VA, 23602","Match","Exact","709 WINDY WAY, NEWPORT NEWS, VA, 23602",643032114,"L"
277637,"709 WOODROW STREET PMB 205","COLUMBIA","CA",29205,NA,NA,137,"709 WOODROW STREET PMB 205, COLUMBIA, CA, 29205","No_Match",NA,NA,NA,NA
277638,"709 WOODSTONE CT FAYETTEVILLE NC","FAYETTEVILLE","NC",28311,35.1049504640001,-78.90436704,138,"709 WOODSTONE CT FAYETTEVILLE NC, FAYETTEVILLE, NC, 28311","Match","Exact","709 WOODSTONE CT, FAYETTEVILLE, NC, 28311",64216697,"L"
277639,"709-26 STREET","VIRGINIA BEACH","VA",23451,NA,NA,139,"709-26 STREET, VIRGINIA BEACH, VA, 23451","No_Match",NA,NA,NA,NA
277640,"7090 77TH STREET","VERO BEACH","FL",32967,27.7339261220001,-80.4715363139999,140,"7090 77TH STREET, VERO BEACH, FL, 32967","Match","Exact","7090 77TH ST, VERO BEACH, FL, 32967",611126426,"R"
277641,"7090 ARBOR PKWY  APT 1430","DOUGLASVILLE","GA",30135,33.7228691980001,-84.750625891,141,"7090 ARBOR PKWY  APT 1430, DOUGLASVILLE, GA, 30135","Match","Exact","7090 ARBOR PKWY, DOUGLASVILLE, GA, 30135",647283836,"R"
277642,"7090 FIELDING STREET","YPSILANTI","MI",48197,42.1865790040001,-83.5749621369999,142,"7090 FIELDING STREET, YPSILANTI, MI, 48197","Match","Non_Exact","7090 FIELDING DR, YPSILANTI, MI, 48197",619257337,"R"
277643,"7090 HAWAII KAI DR 77","HONOLULU","HI",96825,21.290494214,-157.7003697,143,"7090 HAWAII KAI DR 77, HONOLULU, HI, 96825","Match","Exact","7090 HAWAII KAI DR, HONOLULU, HI, 96825",203244181,"L"
277644,"7090 MARSH WREN STREET","CARLSBAD","CA",92011,33.103199159,-117.300160484,144,"7090 MARSH WREN STREET, CARLSBAD, CA, 92011","Match","Exact","7090 MARSH WREN ST, CARLSBAD, CA, 92011",612852741,"L"
277645,"7090 N ORACLE RD STE 178-203","TUCSON","AZ",85704,32.3358831830001,-110.977325126,145,"7090 N ORACLE RD STE 178-203, TUCSON, AZ, 85704","Match","Non_Exact","7090 N ORACLE RD, TUCSON, AZ, 85704",121165093,"R"
277646,"7090 RIMROCK","IDAHO FALLS","ID",83401,43.480368642,-111.892924155,146,"7090 RIMROCK, IDAHO FALLS, ID, 83401","Match","Non_Exact","7090 RIMROCK RD, IDAHO FALLS, ID, 83401",119127891,"R"
277647,"7090 STATE ROUTE 514","BIG PRAIRIE","OH",44611,40.613495442,-82.0986515,147,"7090 STATE ROUTE 514, BIG PRAIRIE, OH, 44611","Match","Exact","7090 STATE RTE 514, BIG PRAIRIE, OH, 44611",647679895,"R"
277648,"7090 VIDA LANE","JACKSONVILLE","FL",32222,30.218664989,-81.8100803949999,148,"7090 VIDA LANE, JACKSONVILLE, FL, 32222","Match","Exact","7090 VIDA LN, JACKSONVILLE, FL, 32222",83973281,"R"
277649,"7091 GRESHAM CT W","FREDERICK","MD",21703,39.3878367820001,-77.4209843959999,149,"7091 GRESHAM CT W, FREDERICK, MD, 21703","Match","Exact","7091 GRESHAM CT W, FREDERICK, MD, 21703",604958907,"L"
277650,"7091 JUANA DR","MILLINGTON","TN",38053,35.3194054300001,-89.898664144,150,"7091 JUANA DR, MILLINGTON, TN, 38053","Match","Exact","7091 JUANA DR, MILLINGTON, TN, 38053",72899931,"L"
277651,"7091 MAPLEWOOD COVE","OLIVE BRANCH","MS",38654,34.9630928610001,-89.860466876,151,"7091 MAPLEWOOD COVE, OLIVE BRANCH, MS, 38654","Match","Exact","7091 MAPLEWOOD COVE, OLIVE BRANCH, MS, 38654",91825856,"L"
277652,"7091 SOUTHFACE WAY","AUSTELL","GA",30168,33.77951489,-84.574014539,152,"7091 SOUTHFACE WAY, AUSTELL, GA, 30168","Match","Exact","7091 SOUTHFACE WAY, AUSTELL, GA, 30168",618321679,"L"
277653,"7091 W CRAIG RD 104","LAS VEGAS","NV",89129,NA,NA,153,"7091 W CRAIG RD 104, LAS VEGAS, NV, 89129","No_Match",NA,NA,NA,NA
277654,"7091","COLORADO SPRINGS","CO",80923,NA,NA,154,"7091, COLORADO SPRINGS, CO, 80923","No_Match",NA,NA,NA,NA
277655,"7092 LARKSPUR LANE","MIDDLETOWN","OH",45044,39.3722604220001,-84.353690376,155,"7092 LARKSPUR LANE, MIDDLETOWN, OH, 45044","Match","Exact","7092 LARKSPUR LN, MIDDLETOWN, OH, 45044",618103047,"L"
277656,"7092 NAILS FERRY RD","BAXLEY","GA",31513,31.8741102500001,-82.413101893,156,"7092 NAILS FERRY RD, BAXLEY, GA, 31513","Match","Exact","7092 NAILS FERRY RD, BAXLEY, GA, 31513",4488726,"R"
277657,"7092 ORCHARD PATH DRIVE","CLEMMONS","NC",27012,36.0083814930001,-80.355635213,157,"7092 ORCHARD PATH DRIVE, CLEMMONS, NC, 27012","Match","Exact","7092 ORCHARD PATH DR, CLEMMONS, NC, 27012",84684395,"L"
277658,"7092 PLACIDA ROAD","CAPE HAZE","FL",33946,26.8703653790001,-82.3088320209999,158,"7092 PLACIDA ROAD, CAPE HAZE, FL, 33946","Match","Exact","7092 PLACIDA RD, CAPE HAZE, FL, 33946",610492385,"L"
277659,"7092 RIVER ROAD","FLUSHING","MI",48433,43.0467689660001,-83.811162554,159,"7092 RIVER ROAD, FLUSHING, MI, 48433","Match","Exact","7092 RIVER RD, FLUSHING, MI, 48433",69607044,"R"
277660,"7092 SCHMEID ROAD","LAKEVIEW","MI",48850,43.4598436030001,-85.2251836359999,160,"7092 SCHMEID ROAD, LAKEVIEW, MI, 48850","Match","Exact","7092 SCHMEID RD, LAKEVIEW, MI, 48850",635599774,"R"
277661,"7092 STRATH RD","RICHMOND","VA",23231,37.4711521670001,-77.349306639,161,"7092 STRATH RD, RICHMOND, VA, 23231","Match","Exact","7092 STRATH RD, RICHMOND, VA, 23231",106652995,"R"
277662,"7092 STRATH ROAD","RICHMOND","VA",23231,37.4711521670001,-77.349306639,162,"7092 STRATH ROAD, RICHMOND, VA, 23231","Match","Exact","7092 STRATH RD, RICHMOND, VA, 23231",106652995,"R"
277663,"7093 FORREST AVENUE","PHILADELPHIA","PA",19138,40.062766158,-75.153454486,163,"7093 FORREST AVENUE, PHILADELPHIA, PA, 19138","Match","Exact","7093 FORREST AVE, PHILADELPHIA, PA, 19138",131413233,"R"
277664,"7093 HAMPTON WAY","STANTON","CA",90680,33.799509803,-118.010288956,164,"7093 HAMPTON WAY, STANTON, CA, 90680","Match","Exact","7093 HAMPTON WAY, STANTON, CA, 90680",639054186,"L"
277665,"7094 PTREE IND BLVD BLDG 1 STE 140","PEACHTREE CORNERS","GA",30071,NA,NA,165,"7094 PTREE IND BLVD BLDG 1 STE 140, PEACHTREE CORNERS, GA, 30071","No_Match",NA,NA,NA,NA
277666,"70946 W HIGHWAY 198","COALINGA","CA",93210,36.191471247,-120.707351936,166,"70946 W HIGHWAY 198, COALINGA, CA, 93210","Match","Non_Exact","70946 STATE RTE 198, COALINGA, CA, 93210",196780839,"L"
277667,"7095 GLENRISGE DRIVE NE","ATLANTA","GA",30328,NA,NA,167,"7095 GLENRISGE DRIVE NE, ATLANTA, GA, 30328","No_Match",NA,NA,NA,NA
277668,"7095 HOLLYWOOD BLVD SUITE 634","LOS ANGELES","CA",90028,34.1016062050001,-118.344727792,168,"7095 HOLLYWOOD BLVD SUITE 634, LOS ANGELES, CA, 90028","Match","Exact","7095 HOLLYWOOD BLVD, LOS ANGELES, CA, 90028",141594471,"R"
277669,"7095 PRADO DRIVE APT 1","FOUNTAIN","CO",80817,38.7285036980001,-104.726405661,169,"7095 PRADO DRIVE APT 1, FOUNTAIN, CO, 80817","Match","Exact","7095 PRADO DR, FOUNTAIN, CO, 80817",105525072,"L"
277670,"7095 ROLLING HILLS DRIVE","HUDSONVILLE","MI",49426,42.898162805,-85.856637618,170,"7095 ROLLING HILLS DRIVE, HUDSONVILLE, MI, 49426","Match","Exact","7095 ROLLING HILLS DR, HUDSONVILLE, MI, 49426",651888117,"R"
277671,"7095 WINDING WAY","CINCINNATI","OH",45236,39.197568215,-84.410209158,171,"7095 WINDING WAY, CINCINNATI, OH, 45236","Match","Exact","7095 WINDING WAY, CINCINNATI, OH, 45236",103931584,"L"
277672,"7096 BIG STONE BEACH ROAD","MILFORD","DE",19963,38.948026376,-75.420162352,172,"7096 BIG STONE BEACH ROAD, MILFORD, DE, 19963","Match","Exact","7096 BIG STONE BEACH RD, MILFORD, DE, 19963",642371620,"L"
277673,"7096 ELLIOTT ROAD","LAKE CHARLES","LA",70605,30.1352369410001,-93.26596333,173,"7096 ELLIOTT ROAD, LAKE CHARLES, LA, 70605","Match","Exact","7096 ELLIOTT RD, LAKE CHARLES, LA, 70605",88453706,"R"
277674,"7096 SAINT IVES CT","JACKSONVILLE","FL",32244,30.2192100010001,-81.749524127,174,"7096 SAINT IVES CT, JACKSONVILLE, FL, 32244","Match","Exact","7096 ST IVES CT, JACKSONVILLE, FL, 32244",623855192,"L"
277675,"7096 SUNDANCE LOOP","CHEYENNE","WY",82009,41.2001594550001,-104.730782794,175,"7096 SUNDANCE LOOP, CHEYENNE, WY, 82009","Match","Exact","7096 SUNDANCE LOOP, CHEYENNE, WY, 82009",604965771,"L"
277676,"7096 WAKEFIELD RD P O BOX 254","HIRAM","OH",44234,41.3094205830001,-81.137283339,176,"7096 WAKEFIELD RD P O BOX 254, HIRAM, OH, 44234","Match","Exact","7096 WAKEFIELD RD, HIRAM, OH, 44234",641179713,"R"
277677,"7097 GEORGES WAY","MORROW","GA",30260,33.557954302,-84.3428885989999,177,"7097 GEORGES WAY, MORROW, GA, 30260","Match","Exact","7097 GEORGES WAY, MORROW, GA, 30260",632324921,"L"
277678,"7097 LANCELEAF DRIVE","COLLEGE GROVE","TN",37406,35.824378687,-86.679717141,178,"7097 LANCELEAF DRIVE, COLLEGE GROVE, TN, 37406","Match","Non_Exact","7097 LANCELEAF DR, COLLEGE GROVE, TN, 37046",648038184,"R"
277679,"7097 SAINT VRAIN RD","LONGMONT","CO",80503,NA,NA,179,"7097 SAINT VRAIN RD, LONGMONT, CO, 80503","Tie",NA,NA,NA,NA
277680,"7098 INDIAN COVE ROAD","TWENTYNINE PALMS","CA",92277,34.1242632340001,-116.155151659,180,"7098 INDIAN COVE ROAD, TWENTYNINE PALMS, CA, 92277","Match","Exact","7098 INDIAN COVE RD, TWENTYNINE PALMS, CA, 92277",144632768,"L"
277681,"7099 BLUEBIRD DRIVE","GARDEN CITY","ID",83714,43.672512963,-116.278019883,181,"7099 BLUEBIRD DRIVE, GARDEN CITY, ID, 83714","Match","Exact","7099 BLUEBIRD DR, GARDEN CITY, ID, 83714",117891474,"R"
277682,"7099 E MORNING DOVE LANE","SAN TAN VALLEY","AZ",85143,33.1532067840001,-111.490322326,182,"7099 E MORNING DOVE LANE, SAN TAN VALLEY, AZ, 85143","Match","Exact","7099 E MORNING DOVE LN, SAN TAN VALLEY, AZ, 85143",645224645,"R"
277683,"7099 LOCUST STREET","UPPER DARBY","PA",19082,39.9556509010001,-75.261250218,183,"7099 LOCUST STREET, UPPER DARBY, PA, 19082","Match","Exact","7099 LOCUST ST, UPPER DARBY, PA, 19082",134878262,"R"
277684,"7099 N HUALAPAI WAY 1193","LAS VEGAS","NV",89166,36.2910501480001,-115.31491579,184,"7099 N HUALAPAI WAY 1193, LAS VEGAS, NV, 89166","Match","Non_Exact","7099 N HUALAPAI WAY, LAS VEGAS, NV, 89166",627162226,"R"
277685,"7099 SALLIER ROAD","SULPHUR","LA",70665,30.1382915780001,-93.361158599,185,"7099 SALLIER ROAD, SULPHUR, LA, 70665","Match","Exact","7099 SALLIER RD, SULPHUR, LA, 70665",88446607,"L"
277686,"7099 SPRING MILL ROAD","INDIANAPOLIS","IN",46260,39.8818129210001,-86.165017908,186,"7099 SPRING MILL ROAD, INDIANAPOLIS, IN, 46260","Match","Exact","7099 SPRING MILL RD, INDIANAPOLIS, IN, 46260",107983671,"R"
277687,"7099 TOWN FOREST AVE","LAS VEGAS","NV",89179,35.995939589,-115.247601624,187,"7099 TOWN FOREST AVE, LAS VEGAS, NV, 89179","Match","Exact","7099 TOWN FOREST AVE, LAS VEGAS, NV, 89179",641454713,"L"
277688,"709A S 2ND AVE","GALLOWAY","NJ",8205,NA,NA,188,"709A S 2ND AVE, GALLOWAY, NJ, 8205","Tie",NA,NA,NA,NA
277689,"709B E 119TH AVE","TAMPA","FL",33612,28.056110588,-82.453993236,189,"709B E 119TH AVE, TAMPA, FL, 33612","Match","Exact","709 E 119TH AVE, TAMPA, FL, 33612",104518445,"R"
277690,"70A GREENWICH AVENUE SUITE 373","NEW YORK","NY",10011,40.736516969,-74.001055575,190,"70A GREENWICH AVENUE SUITE 373, NEW YORK, NY, 10011","Match","Exact","70 GREENWICH AVE, NEW YORK, NY, 10011",59659978,"R"
277691,"70A MANOR DRIVE","GREAT NECK","NY",11020,40.7827857880001,-73.7130223739999,191,"70A MANOR DRIVE, GREAT NECK, NY, 11020","Match","Exact","70 MANOR DR, GREAT NECK, NY, 11020",147689589,"R"
277692,"71 A CAMBRIDGE TERRACE","HACKEN","IN",46229,NA,NA,192,"71 A CAMBRIDGE TERRACE, HACKEN, IN, 46229","No_Match",NA,NA,NA,NA
277693,"71 ALLEN STREET SUITE 401","RUTLAND","VT",5701,43.5973946030001,-72.963836613,193,"71 ALLEN STREET SUITE 401, RUTLAND, VT, 5701","Match","Exact","71 ALLEN ST, RUTLAND, VT, 05701",640524621,"L"
277694,"71 AMHERST STREET","NASHUA","NH",3064,42.767408629,-71.4739655979999,194,"71 AMHERST STREET, NASHUA, NH, 3064","Match","Exact","71 AMHERST ST, NASHUA, NH, 03064",113536591,"R"
277695,"71 ASHLAND AVENUE","CARLISLE","PA",17013,40.2002319640001,-77.178796747,195,"71 ASHLAND AVENUE, CARLISLE, PA, 17013","Match","Exact","71 ASHLAND AVE, CARLISLE, PA, 17013",61016929,"L"
277696,"71 AUDUBON LN","SHELTON","CT",6484,41.2989332920001,-73.078282278,196,"71 AUDUBON LN, SHELTON, CT, 6484","Match","Exact","71 AUDUBON LN, SHELTON, CT, 06484",3285758,"R"
277697,"71 BALLENGER LN","PALMYRA","VA",22963,37.917800856,-78.2351980719999,197,"71 BALLENGER LN, PALMYRA, VA, 22963","Match","Exact","71 BALLENGER LN, PALMYRA, VA, 22963",73786391,"L"
277698,"71 BENMORE DRIVE","HAYWARD","CA",94542,37.652910127,-122.009117145,198,"71 BENMORE DRIVE, HAYWARD, CA, 94542","Match","Exact","71 BENMORE DR, HAYWARD, CA, 94542",640773532,"L"
277699,"71 BENTWOOD DR UNIT 8","WATERBURY","CT",6705,41.5503317930001,-72.9749671449999,199,"71 BENTWOOD DR UNIT 8, WATERBURY, CT, 6705","Match","Exact","71 BENTWOOD DR, WATERBURY, CT, 06705",3757550,"R"
277700,"71 BLAKE AVE","WATSONVILLE","CA",95076,36.9892082760001,-121.811771707,200,"71 BLAKE AVE, WATSONVILLE, CA, 95076","Match","Exact","71 BLAKE AVE, WATSONVILLE, CA, 95076",125520701,"L"
277701,"71 BLOSSOM RD","WINDHAM","NH",3087,42.8084553250001,-71.3177661029999,201,"71 BLOSSOM RD, WINDHAM, NH, 3087","Match","Exact","71 BLOSSOM RD, WINDHAM, NH, 03087",113695707,"L"
277702,"71 BRIDGE STREET","MEDFIELD","MA",2052,42.1888181910001,-71.326640896,202,"71 BRIDGE STREET, MEDFIELD, MA, 2052","Match","Exact","71 BRIDGE ST, MEDFIELD, MA, 02052",87237402,"L"
277703,"71 BRISTOL OAK CIR","THE WOODLANDS","TX",77382,30.2133714570001,-95.516764068,203,"71 BRISTOL OAK CIR, THE WOODLANDS, TX, 77382","Match","Non_Exact","71 S BRISTOL OAK CIR, THE WOODLANDS, TX, 77382",79318762,"L"
277704,"71 BROADWAY   SUITE 184","NEW YORK","NY",10006,40.7074020950001,-74.011996332,204,"71 BROADWAY   SUITE 184, NEW YORK, NY, 10006","Match","Exact","71 BROADWAY, NEW YORK, NY, 10006",59659652,"L"
277705,"71 BROADWAY 19I","NEW YORK","NY",10006,40.7074020950001,-74.011996332,205,"71 BROADWAY 19I, NEW YORK, NY, 10006","Match","Exact","71 BROADWAY, NEW YORK, NY, 10006",59659652,"L"
277706,"71 BROADWAY","DOBBS FERRY","NY",10522,41.0060256610001,-73.8795408189999,206,"71 BROADWAY, DOBBS FERRY, NY, 10522","Match","Exact","71 BROADWAY, DOBBS FERRY, NY, 10522",634932946,"L"
277707,"71 BRUNSWICK STREET VOORHEES HALL","NEW BRUNSWICK","NJ",8901,NA,NA,207,"71 BRUNSWICK STREET VOORHEES HALL, NEW BRUNSWICK, NJ, 8901","No_Match",NA,NA,NA,NA
277708,"71 CALLOWHILL ROAD","CHALFONT","PA",18914,40.3090296190001,-75.204679815,208,"71 CALLOWHILL ROAD, CHALFONT, PA, 18914","Match","Exact","71 CALLOWHILL RD, CHALFONT, PA, 18914",134782049,"L"
277709,"71 CARRIAGE HIGHLANDS CT","HENDERSONVILLE","NC",28791,35.3473219540001,-82.5084233649999,209,"71 CARRIAGE HIGHLANDS CT, HENDERSONVILLE, NC, 28791","Match","Exact","71 CARRIAGE HIGHLANDS CT, HENDERSONVILLE, NC, 28791",152318846,"L"
277710,"71 CASTLEGATE DRIVE","SEYMOUR","MO",65746,37.1312407680001,-92.717915967,210,"71 CASTLEGATE DRIVE, SEYMOUR, MO, 65746","Match","Exact","71 CASTLEGATE DR, SEYMOUR, MO, 65746",26631470,"L"
277711,"71 CHANNING ROAD","BELMONT","MA",2478,42.3965494240001,-71.172472222,211,"71 CHANNING ROAD, BELMONT, MA, 2478","Match","Exact","71 CHANNING RD, BELMONT, MA, 02478",86885776,"R"
277712,"71 CHURCH ST APT 2A","LENOX","MA",1240,42.357889556,-73.282833293,212,"71 CHURCH ST APT 2A, LENOX, MA, 1240","Match","Exact","71 CHURCH ST, LENOX, MA, 01240",3924783,"L"
277713,"71 CHURCH ST","MANASQUAN","NJ",8736,40.1239947600001,-74.0559859529999,213,"71 CHURCH ST, MANASQUAN, NJ, 8736","Match","Exact","71 CHURCH ST, MANASQUAN, NJ, 08736",90467501,"L"
277714,"71 CLARK ST UNIT 329","TRENTON","NJ",8611,40.2122198530001,-74.754214034,214,"71 CLARK ST UNIT 329, TRENTON, NJ, 8611","Match","Exact","71 CLARK ST, TRENTON, NJ, 08611",60225081,"R"
277715,"71 COLONIAL DRIVE","FAIRFIELD","CT",6824,41.142036643,-73.2422962269999,215,"71 COLONIAL DRIVE, FAIRFIELD, CT, 6824","Match","Exact","71 COLONIAL DR, FAIRFIELD, CT, 06824",618524666,"L"
277716,"71 COLUMBIA PL","MOUNT VERNON","NY",10552,40.9271017290001,-73.822809665,216,"71 COLUMBIA PL, MOUNT VERNON, NY, 10552","Match","Exact","71 COLUMBIA PL, MOUNT VERNON, NY, 10552",139748572,"R"
277717,"71 COLUMBIA ST APT 14D","NEW YORK","NY",10002,NA,NA,217,"71 COLUMBIA ST APT 14D, NEW YORK, NY, 10002","Tie",NA,NA,NA,NA
277718,"71 COMMERCIAL STREET - 190","BOSTON","MA",2109,42.361675061,-71.052863265,218,"71 COMMERCIAL STREET - 190, BOSTON, MA, 2109","Match","Exact","71 COMMERCIAL ST, BOSTON, MA, 02109",85710157,"R"
277719,"71 CONVENT AVENUE","NEW YORK","NY",10027,40.8153032720001,-73.9529338569999,219,"71 CONVENT AVENUE, NEW YORK, NY, 10027","Match","Exact","71 CONVENT AVE, NEW YORK, NY, 10027",59656036,"R"
277720,"71 COUNTY ROAD 645","SANDYSTON","NJ",7826,41.237832611,-74.8037411559999,220,"71 COUNTY ROAD 645, SANDYSTON, NJ, 7826","Match","Exact","71 CO RD 645, SANDYSTON, NJ, 07826",98030934,"L"
277721,"71 COWARDLY LION DRIVE SUITE B","HEDGESVILLE","WV",25427,NA,NA,221,"71 COWARDLY LION DRIVE SUITE B, HEDGESVILLE, WV, 25427","No_Match",NA,NA,NA,NA
277722,"71 DALE DR","PORTSMOUTH","VA",23704,36.822222131,-76.327969781,222,"71 DALE DR, PORTSMOUTH, VA, 23704","Match","Exact","71 DALE DR, PORTSMOUTH, VA, 23704",122200416,"R"
277723,"71 DENNA PL","ALPHARETTA","GA",30009,34.085144733,-84.289084397,223,"71 DENNA PL, ALPHARETTA, GA, 30009","Match","Exact","71 DENNA PL, ALPHARETTA, GA, 30009",17428342,"L"
277724,"71 DEWEY AVENUE","MECHANICVILLE","NY",12118,42.896020433,-73.69575659,224,"71 DEWEY AVENUE, MECHANICVILLE, NY, 12118","Match","Exact","71 DEWEY AVE, MECHANICVILLE, NY, 12118",18770834,"R"
277725,"71 DORSET STREET","SPRINGFIELD","MA",1108,42.0871956300001,-72.542843932,225,"71 DORSET STREET, SPRINGFIELD, MA, 1108","Match","Exact","71 DORSET ST, SPRINGFIELD, MA, 01108",4036840,"L"
277726,"71 DULAMO ROAD","SAINT HELENA ISLAND","SC",29920,32.4050996490001,-80.546712891,226,"71 DULAMO ROAD, SAINT HELENA ISLAND, SC, 29920","Match","Exact","71 DULAMO RD, SAINT HELENA ISLAND, SC, 29920",612414340,"L"
277727,"71 DUTCH HOLLOW DRIVE","ORANGEBURG","NY",10962,41.048925694,-73.957378886,227,"71 DUTCH HOLLOW DRIVE, ORANGEBURG, NY, 10962","Match","Exact","71 DUTCH HOLLOW DR, ORANGEBURG, NY, 10962",124628017,"L"
277728,"71 E COMMERCIAL ST POBOX 503","WILLITS","CA",95490,NA,NA,228,"71 E COMMERCIAL ST POBOX 503, WILLITS, CA, 95490","Tie",NA,NA,NA,NA
277729,"71 E MAIN STREET","ARCADE","NY",14009,42.535010695,-78.414886017,229,"71 E MAIN STREET, ARCADE, NY, 14009","Match","Exact","71 E MAIN ST, ARCADE, NY, 14009",48879181,"R"
277730,"71 EAST HITE COURT","SCHENECTADY","NY",12303,42.7192265630001,-73.930958371,230,"71 EAST HITE COURT, SCHENECTADY, NY, 12303","Match","Exact","71 E HITE CT, SCHENECTADY, NY, 12303",18329525,"L"
277731,"71 EMERSON AVENUE","BEREA","OH",44017,41.38558528,-81.855785532,231,"71 EMERSON AVENUE, BEREA, OH, 44017","Match","Exact","71 EMERSON AVE, BEREA, OH, 44017",61099427,"L"
277732,"71 EVERGREEN LANE","MAPLECREST","NY",12454,42.2893598430001,-74.188577045,232,"71 EVERGREEN LANE, MAPLECREST, NY, 12454","Match","Exact","71 EVERGREEN LN, MAPLECREST, NY, 12454",624302037,"L"
277733,"71 FAIRFIELD ROAD","GREENWICH","CT",6830,41.0460636450001,-73.609328789,233,"71 FAIRFIELD ROAD, GREENWICH, CT, 6830","Match","Exact","71 FAIRFIELD RD, GREENWICH, CT, 06830",3243478,"L"
277734,"71 FIREHOUSE LANE  -  PO BOX 123","RED FEATHER LAKES","CO",80545,40.8018805410001,-105.589289075,234,"71 FIREHOUSE LANE  -  PO BOX 123, RED FEATHER LAKES, CO, 80545","Match","Non_Exact","71 FIRE HOUSE LN, RED FEATHER LAKES, CO, 80545",188474536,"R"
277735,"71 FORGE HILL RD","GLEN GARDNER","NJ",8826,40.7243569620001,-74.938831815,235,"71 FORGE HILL RD, GLEN GARDNER, NJ, 8826","Match","Exact","71 FORGE HILL RD, GLEN GARDNER, NJ, 08826",617271887,"R"
277736,"71 FULLER STREET","MIDDLEBORO","MA",2346,41.9263088610001,-70.8628227359999,236,"71 FULLER STREET, MIDDLEBORO, MA, 2346","Match","Exact","71 FULLER ST, MIDDLEBORO, MA, 02346",624257176,"L"
277737,"71 GLENDALE PARK","ROCHESTER","NY",14613,43.176051247,-77.6350960889999,237,"71 GLENDALE PARK, ROCHESTER, NY, 14613","Match","Exact","71 GLENDALE PARK, ROCHESTER, NY, 14613",14532055,"L"
277738,"71 GOLDEN SCROLL CIR","SPRING","TX",77382,30.1881350940001,-95.550022445,238,"71 GOLDEN SCROLL CIR, SPRING, TX, 77382","Match","Exact","71 GOLDEN SCROLL CIR, SPRING, TX, 77382",79340515,"L"
277739,"71 GOLDFINCE CIR","PHOENIXVILLE","PA",19460,NA,NA,239,"71 GOLDFINCE CIR, PHOENIXVILLE, PA, 19460","No_Match",NA,NA,NA,NA
277740,"71 GOSHEN ROAD","WINTERPORT","ME",4496,44.6457055060001,-68.929693534,240,"71 GOSHEN ROAD, WINTERPORT, ME, 4496","Match","Exact","71 GOSHEN RD, WINTERPORT, ME, 04496",75636703,"R"
277741,"71 GREEN STREET","BRATTLEBORO","VT",5301,42.8522984270001,-72.561333625,241,"71 GREEN STREET, BRATTLEBORO, VT, 5301","Match","Exact","71 GREEN ST, BRATTLEBORO, VT, 05301",636497760,"L"
277742,"71 GROVEVIEW AVE","BLUFFTON","SC",29910,32.2199834910001,-80.9810912849999,242,"71 GROVEVIEW AVE, BLUFFTON, SC, 29910","Match","Exact","71 GROVEVIEW AVE, BLUFFTON, SC, 29910",646075681,"R"
277743,"71 HACKENSACK STREET","WOOD RIDGE","NJ",7075,40.8432667440001,-74.0874758689999,243,"71 HACKENSACK STREET, WOOD RIDGE, NJ, 7075","Match","Exact","71 HACKENSACK ST, WOOD RIDGE, NJ, 07075",64395159,"L"
277744,"71 HAWKS VW","DAHLONEGA","GA",30533,34.492061875,-83.974240709,244,"71 HAWKS VW, DAHLONEGA, GA, 30533","Match","Exact","71 HAWKS VW, DAHLONEGA, GA, 30533",632155256,"L"
277745,"71 HICKORY POINTE DR","ACWORTH","GA",30101,34.048987417,-84.7761520559999,245,"71 HICKORY POINTE DR, ACWORTH, GA, 30101","Match","Exact","71 HICKORY POINTE DR, ACWORTH, GA, 30101",645834366,"L"
277746,"71 HILLCREST AVENUE","TRENTON","NJ",8618,40.2395900830001,-74.787587128,246,"71 HILLCREST AVENUE, TRENTON, NJ, 8618","Match","Exact","71 HILLCREST AVE, TRENTON, NJ, 08618",60225686,"L"
277747,"71 HOPE ROAD","NEW BLOOMFIELD","PA",17068,40.427114859,-77.223252792,247,"71 HOPE ROAD, NEW BLOOMFIELD, PA, 17068","Match","Exact","71 HOPE RD, NEW BLOOMFIELD, PA, 17068",61057125,"R"
277748,"71 HOWARD ST APT 5312","ATLANTA","GA",30317,NA,NA,248,"71 HOWARD ST APT 5312, ATLANTA, GA, 30317","Tie",NA,NA,NA,NA
277749,"71 HUDSON STREET","NEW YORK","NY",10013,40.7181929290001,-74.008902764,249,"71 HUDSON STREET, NEW YORK, NY, 10013","Match","Exact","71 HUDSON ST, NEW YORK, NY, 10013",59660179,"L"
277750,"71 INDIGO LANE","SPERRYVILLE","VA",22740,38.6753690530001,-78.2040828889999,250,"71 INDIGO LANE, SPERRYVILLE, VA, 22740","Match","Exact","71 INDIGO LN, SPERRYVILLE, VA, 22740",29943622,"R"
277751,"71 ISLAND RD","MILLIS","MA",2054,42.180586851,-71.3601364209999,251,"71 ISLAND RD, MILLIS, MA, 2054","Match","Exact","71 ISLAND RD, MILLIS, MA, 02054",87277145,"R"
277752,"71 JENNIFER DRIVE","MOUNT UNION","PA",17066,40.374279153,-77.85055892,252,"71 JENNIFER DRIVE, MOUNT UNION, PA, 17066","Match","Exact","71 JENNIFER DR, MOUNT UNION, PA, 17066",640456956,"L"
277753,"71 KRESTVIEW LANE","GOLDEN","CO",80401,39.716705464,-105.26074178,253,"71 KRESTVIEW LANE, GOLDEN, CO, 80401","Match","Exact","71 KRESTVIEW LN, GOLDEN, CO, 80401",177390248,"L"
277754,"71 LANCASTER COURT","RICHMOND HILL","GA",31324,31.9375255640001,-81.317177368,254,"71 LANCASTER COURT, RICHMOND HILL, GA, 31324","Match","Exact","71 LANCASTER CT, RICHMOND HILL, GA, 31324",618917056,"R"
277755,"71 LEGION PARKWAY  SUITE 3","BROCKTON","MA",2301,42.084135143,-71.02032908,255,"71 LEGION PARKWAY  SUITE 3, BROCKTON, MA, 2301","Match","Exact","71 LEGION PKWY, BROCKTON, MA, 02301",87482701,"R"
277756,"71 LEGION PARKWAY STE 26","BROCKTON","MA",2301,42.084135143,-71.02032908,256,"71 LEGION PARKWAY STE 26, BROCKTON, MA, 2301","Match","Exact","71 LEGION PKWY, BROCKTON, MA, 02301",87482701,"R"
277757,"71 LEGION PARKWAY SUITE 15","BROCKTON","MA",2301,42.084135143,-71.02032908,257,"71 LEGION PARKWAY SUITE 15, BROCKTON, MA, 2301","Match","Exact","71 LEGION PKWY, BROCKTON, MA, 02301",87482701,"R"
277758,"71 LEGION PARKWAY SUITE 16","BROCKTON","MA",2301,42.084135143,-71.02032908,258,"71 LEGION PARKWAY SUITE 16, BROCKTON, MA, 2301","Match","Exact","71 LEGION PKWY, BROCKTON, MA, 02301",87482701,"R"
277759,"71 LEGION PARKWAY SUITE 20","BROCKTON","MA",2301,42.084135143,-71.02032908,259,"71 LEGION PARKWAY SUITE 20, BROCKTON, MA, 2301","Match","Exact","71 LEGION PKWY, BROCKTON, MA, 02301",87482701,"R"
277760,"71 LINCOLN AVE","NEW ROCHELLE","NY",10801,40.917110386,-73.789918841,260,"71 LINCOLN AVE, NEW ROCHELLE, NY, 10801","Match","Exact","71 LINCOLN AVE, NEW ROCHELLE, NY, 10801",139842780,"R"
277761,"71 LINDEN ST STE 202B","LYNN","MA",1905,42.4592963010001,-70.973312794,261,"71 LINDEN ST STE 202B, LYNN, MA, 1905","Match","Exact","71 LINDEN ST, LYNN, MA, 01905",86638276,"R"
277762,"71 LIVINGSTON RD","FLETCHER","NC",28732,NA,NA,262,"71 LIVINGSTON RD, FLETCHER, NC, 28732","Tie",NA,NA,NA,NA
277763,"71 LORNA LANE","TONAWANDA","NY",14150,43.015300645,-78.8387937589999,263,"71 LORNA LANE, TONAWANDA, NY, 14150","Match","Exact","71 LORNA LN, TONAWANDA, NY, 14150",48284609,"R"
277764,"71 LYELL AVENUE","SPENCERPORT","NY",14559,43.1890549030001,-77.793342208,264,"71 LYELL AVENUE, SPENCERPORT, NY, 14559","Match","Exact","71 LYELL AVE, SPENCERPORT, NY, 14559",14576720,"L"
277765,"71 MACEY LANE","PLATTSBURGH","NY",12901,44.660278131,-73.5031827999999,265,"71 MACEY LANE, PLATTSBURGH, NY, 12901","Match","Exact","71 MACEY LN, PLATTSBURGH, NY, 12901",136097786,"L"
277766,"71 MAIN STREET","PEABODY","MA",1960,42.5245432350001,-70.924203602,266,"71 MAIN STREET, PEABODY, MA, 1960","Match","Exact","71 MAIN ST, PEABODY, MA, 01960",86640752,"R"
277767,"71 MANOR DRIVE","RAMSEY","NJ",7446,41.0702417580001,-74.15743005,267,"71 MANOR DRIVE, RAMSEY, NJ, 7446","Match","Exact","71 MANOR DR, RAMSEY, NJ, 07446",639666547,"R"
277768,"71 MCKENNEY ROAD","CLINTON","ME",4927,44.6681231270001,-69.5294246129999,268,"71 MCKENNEY ROAD, CLINTON, ME, 4927","Match","Exact","71 MCKENNEY RD, CLINTON, ME, 04927",75462535,"R"
277769,"71 MIANTONOMI AVE","MIDDLETOWN","RI",2842,41.5056663870001,-71.29885574,269,"71 MIANTONOMI AVE, MIDDLETOWN, RI, 2842","Match","Exact","71 MIANTONOMI AVE, MIDDLETOWN, RI, 02842",47362658,"R"
277770,"71 MIDDLESEX ROAD APT 2","WALTHAM","MA",2452,42.380212364,-71.225071418,270,"71 MIDDLESEX ROAD APT 2, WALTHAM, MA, 2452","Match","Exact","71 MIDDLESEX RD, WALTHAM, MA, 02452",87112150,"R"
277771,"71 MILDRED LANE","FORD","NJ",8863,40.541607017,-74.313856082,271,"71 MILDRED LANE, FORD, NJ, 8863","Match","Non_Exact","71 MILDRED LN, FORDS, NJ, 08863",60279115,"L"
277772,"71 MITCHELL DRIVE","OAKLAND","MD",21550,39.418766578,-79.396416406,272,"71 MITCHELL DRIVE, OAKLAND, MD, 21550","Match","Exact","71 MITCHELL DR, OAKLAND, MD, 21550",74181834,"R"
277773,"71 MONMOUTH ST","BROOKLINE","MA",2446,42.344918412,-71.1073483289999,273,"71 MONMOUTH ST, BROOKLINE, MA, 2446","Match","Exact","71 MONMOUTH ST, BROOKLINE, MA, 02446",642609758,"R"
277774,"71 N EDGEMON AVE","WINTER SPRINGS","FL",32708,28.7001079230001,-81.309770473,274,"71 N EDGEMON AVE, WINTER SPRINGS, FL, 32708","Match","Exact","71 N EDGEMON AVE, WINTER SPRINGS, FL, 32708",93739170,"R"
277775,"71 N HANOVER ST","POTTSTOWN","PA",19464,40.24711849,-75.650126665,275,"71 N HANOVER ST, POTTSTOWN, PA, 19464","Match","Exact","71 N HANOVER ST, POTTSTOWN, PA, 19464",135114395,"L"
277776,"71 N INDUSTRIAL PARK DRIVE","COALMONT","TN",37301,NA,NA,276,"71 N INDUSTRIAL PARK DRIVE, COALMONT, TN, 37301","No_Match",NA,NA,NA,NA
277777,"71 NE 183RD TERRACE","MIAMI","FL",33179,25.943497902,-80.1996767799999,277,"71 NE 183RD TERRACE, MIAMI, FL, 33179","Match","Exact","71 NE 183RD TER, MIAMI, FL, 33179",116030581,"L"
277778,"71 NIMS ROAD","KEENE","NH",3431,42.958665931,-72.245575538,278,"71 NIMS ROAD, KEENE, NH, 3431","Match","Exact","71 NIMS RD, KEENE, NH, 03431",124079321,"L"
277779,"71 NORSEMAN DRIVE","SOUTH DENNIS","MA",2660,41.701687044,-70.166063018,279,"71 NORSEMAN DRIVE, SOUTH DENNIS, MA, 2660","Match","Exact","71 NORSEMAN DR, SOUTH DENNIS, MA, 02660",121566796,"R"
277780,"71 NORTH 4TH STREET","HAMBURG","PA",19526,40.55645222,-75.9828431829999,280,"71 NORTH 4TH STREET, HAMBURG, PA, 19526","Match","Exact","71 N 4TH ST, HAMBURG, PA, 19526",80365186,"R"
277781,"71 NORTH CHESTNUT","JEFFERSON","OH",44047,41.740068711,-80.7694678839999,281,"71 NORTH CHESTNUT, JEFFERSON, OH, 44047","Match","Non_Exact","71 N CHESTNUT ST, JEFFERSON, OH, 44047",117318370,"L"
277782,"71 NORTH UNION STREET","SPARTA","ME",49345,NA,NA,282,"71 NORTH UNION STREET, SPARTA, ME, 49345","No_Match",NA,NA,NA,NA
277783,"71 NW 130TH ST","TRENTON","FL",32693,29.518557168,-82.774239442,283,"71 NW 130TH ST, TRENTON, FL, 32693","Match","Exact","71 NW 130TH ST, TRENTON, FL, 32693",612313532,"R"
277784,"71 OAKTON DRIVE","ATCO","NJ",8004,NA,NA,284,"71 OAKTON DRIVE, ATCO, NJ, 8004","No_Match",NA,NA,NA,NA
277785,"71 OAKWOOD BLVD","POUGHKEEPSIE","NY",12603,41.6832827420001,-73.913630597,285,"71 OAKWOOD BLVD, POUGHKEEPSIE, NY, 12603","Match","Exact","71 OAKWOOD BLVD, POUGHKEEPSIE, NY, 12603",4168405,"L"
277786,"71 OLD NECK ROAD SOUTH","CENTER MORICHES","NY",11934,40.7820141240001,-72.8079737209999,286,"71 OLD NECK ROAD SOUTH, CENTER MORICHES, NY, 11934","Match","Exact","71 OLD NECK RD S, CENTER MORICHES, NY, 11934",114021439,"L"
277787,"71 OLD SCHUYLERVILLE ROAD","SARATOGA SPRINGS","NY",12866,43.0896710050001,-73.7293139659999,287,"71 OLD SCHUYLERVILLE ROAD, SARATOGA SPRINGS, NY, 12866","Match","Exact","71 OLD SCHUYLERVILLE RD, SARATOGA SPGS, NY, 12866",624705033,"L"
277788,"71 OLIVE STREET","ASHLAND","MA",1721,42.2411524570001,-71.4771263769999,288,"71 OLIVE STREET, ASHLAND, MA, 1721","Match","Exact","71 OLIVE ST, ASHLAND, MA, 01721",87098736,"L"
277789,"71 PALISADE ROAD","ELIZABETH","NJ",7208,40.6671933530001,-74.241939004,289,"71 PALISADE ROAD, ELIZABETH, NJ, 7208","Match","Exact","71 PALISADE RD, ELIZABETH, NJ, 07208",60576720,"R"
277790,"71 PALOMA HEIGHTS APT 102","COLORADO SPRINGS","CO",80921,39.0309744750001,-104.828315081,290,"71 PALOMA HEIGHTS APT 102, COLORADO SPRINGS, CO, 80921","Match","Exact","71 PALOMA HTS, COLORADO SPRINGS, CO, 80921",625136190,"R"
277791,"71 PARKER LANE","RICHMOND HILL","GA",31324,31.9615749710001,-81.3215282319999,291,"71 PARKER LANE, RICHMOND HILL, GA, 31324","Match","Exact","71 PARKER LN, RICHMOND HILL, GA, 31324",632402192,"R"
277792,"71 PARTRIDGE DRIVE","ESSEX","VT",5452,44.493158636,-73.05539979,292,"71 PARTRIDGE DRIVE, ESSEX, VT, 5452","Match","Non_Exact","71 PARTRIDGE DR, ESSEX JCT, VT, 05452",624528270,"R"
277793,"71 PETER PARLEY ROAD","BOSTON","MA",2130,42.3103054100001,-71.099158774,293,"71 PETER PARLEY ROAD, BOSTON, MA, 2130","Match","Exact","71 PETER PARLEY RD, BOSTON, MA, 02130",85699858,"R"
277794,"71 PINE LN","WATCHUNG","NJ",7069,40.641855433,-74.4558138959999,294,"71 PINE LN, WATCHUNG, NJ, 7069","Match","Exact","71 PINE LN, WATCHUNG, NJ, 07069",59948536,"L"
277795,"71 PORTLAND STREET","NEW BEDFORD","MA",2744,41.598874053,-70.9063241269999,295,"71 PORTLAND STREET, NEW BEDFORD, MA, 2744","Match","Exact","71 PORTLAND ST, NEW BEDFORD, MA, 02744",46756244,"R"
277796,"71 PROSPECT ST","BLOOMFIELD","NJ",7003,40.7834418140001,-74.2046560159999,296,"71 PROSPECT ST, BLOOMFIELD, NJ, 7003","Match","Exact","71 PROSPECT ST, BLOOMFIELD, NJ, 07003",63450958,"R"
277797,"71 REHDER ROAD","ROUNDUP","MT",59072,46.306909938,-108.472565187,297,"71 REHDER ROAD, ROUNDUP, MT, 59072","Match","Exact","71 REHDER RD, ROUNDUP, MT, 59072",170788451,"L"
277798,"71 REUNION","IRVINE","CA",92603,33.6494262640001,-117.771671688,298,"71 REUNION, IRVINE, CA, 92603","Match","Exact","71 REUNION, IRVINE, CA, 92603",627444034,"R"
277799,"71 S BRISTOL OAK CIRCLE","THE WOODLANDS","TX",77382,30.2133714570001,-95.516764068,299,"71 S BRISTOL OAK CIRCLE, THE WOODLANDS, TX, 77382","Match","Exact","71 S BRISTOL OAK CIR, THE WOODLANDS, TX, 77382",79318762,"L"
277800,"71 S CENTRAL AVE","OVIEDO","FL",32765,28.6668313120001,-81.208393477,300,"71 S CENTRAL AVE, OVIEDO, FL, 32765","Match","Exact","71 S CENTRAL AVE, OVIEDO, FL, 32765",93746721,"L"
277801,"71 S LA SENDA","LAGUNA BEACH","CA",92651,NA,NA,301,"71 S LA SENDA, LAGUNA BEACH, CA, 92651","Tie",NA,NA,NA,NA
277802,"71 S MAIN ST","PITTSTON","PA",18640,NA,NA,302,"71 S MAIN ST, PITTSTON, PA, 18640","Tie",NA,NA,NA,NA
277803,"71 S WINSOME PATH CIRCLE","THE WOODLANDS","TX",77382,NA,NA,303,"71 S WINSOME PATH CIRCLE, THE WOODLANDS, TX, 77382","Tie",NA,NA,NA,NA
277804,"71 SAN JUAN AVE","ALAMOSA","CO",81101,37.472965452,-105.867142103,304,"71 SAN JUAN AVE, ALAMOSA, CO, 81101","Match","Exact","71 SAN JUAN AVE, ALAMOSA, CO, 81101",104175865,"L"
277805,"71 SCHULMAN VESELAK RD","EAST HADDAM","CT",6423,41.481867159,-72.3887631969999,305,"71 SCHULMAN VESELAK RD, EAST HADDAM, CT, 6423","Match","Exact","71 SCHULMAN VESELAK RD, EAST HADDAM, CT, 06423",113900659,"L"
277806,"71 SCHUYLKILL STREET","CRESSONA","PA",17929,40.627263611,-76.189417475,306,"71 SCHUYLKILL STREET, CRESSONA, PA, 17929","Match","Exact","71 SCHUYLKILL ST, CRESSONA, PA, 17929",70945692,"R"
277807,"71 SE CLEMATIS AVE","SHELTON","WA",98584,47.1671888860001,-123.071603976,307,"71 SE CLEMATIS AVE, SHELTON, WA, 98584","Match","Exact","71 SE CLEMATIS AVE, SHELTON, WA, 98584",180853999,"L"
277808,"71 SEQUATCHEE RD","PIKEVILLE","TN",37367,35.5976903110001,-85.1941840229999,308,"71 SEQUATCHEE RD, PIKEVILLE, TN, 37367","Match","Non_Exact","71 SEQUATCHIE RD, PIKEVILLE, TN, 37367",612056555,"L"
277809,"71 SHAWSWICK SCHOOL ROAD","BEDFORD","IN",47421,NA,NA,309,"71 SHAWSWICK SCHOOL ROAD, BEDFORD, IN, 47421","No_Match",NA,NA,NA,NA
277810,"71 SINCLAIR AVE","MANCHESTER","NH",3104,43.0031777950001,-71.3953302469999,310,"71 SINCLAIR AVE, MANCHESTER, NH, 3104","Match","Exact","71 SINCLAIR AVE, MANCHESTER, NH, 03104",113585657,"R"
277811,"71 SMULL AVE","CALDWELL","NJ",7006,40.8435872860001,-74.271130559,311,"71 SMULL AVE, CALDWELL, NJ, 7006","Match","Exact","71 SMULL AVE, CALDWELL, NJ, 07006",63495342,"L"
277812,"71 SMYRNA CENTER ROAD","SMYRNA","ME",4780,46.1473457290001,-68.0634745739999,312,"71 SMYRNA CENTER ROAD, SMYRNA, ME, 4780","Match","Non_Exact","71 SMYRNA CENTER RD, SMYRNA MILLS, ME, 04780",640094718,"R"
277813,"71 SNYDER AVENUE","TOWER CITY","PA",17980,40.589178367,-76.536308328,313,"71 SNYDER AVENUE, TOWER CITY, PA, 17980","Match","Exact","71 SNYDER AVE, TOWER CITY, PA, 17980",70950827,"L"
277814,"71 SOLDIERS LN","BERRYVILLE","VA",22611,39.214831164,-77.95826025,314,"71 SOLDIERS LN, BERRYVILLE, VA, 22611","Match","Exact","71 SOLDIERS LN, BERRYVILLE, VA, 22611",223513305,"R"
277815,"71 SONNETTE ROAD BOX 121","BROADUS","MT",59317,45.4250870400001,-105.806826431,315,"71 SONNETTE ROAD BOX 121, BROADUS, MT, 59317","Match","Exact","71 SONNETTE RD, BROADUS, MT, 59317",610423323,"R"
277816,"71 SOUND VIEW LANE","NEW CANAAN","CT",6840,41.1859001010001,-73.4932152009999,316,"71 SOUND VIEW LANE, NEW CANAAN, CT, 6840","Match","Non_Exact","71 SOUNDVIEW LN, NEW CANAAN, CT, 06840",3258142,"R"
277817,"71 SOUTH ROAD","WHITE PLAINS","NY",10603,41.053293373,-73.782381389,317,"71 SOUTH ROAD, WHITE PLAINS, NY, 10603","Match","Exact","71 SOUTH RD, WHITE PLAINS, NY, 10603",639238052,"R"
277818,"71 SPRUCE STREET","WATERTOWN","MA",2472,42.3673025950001,-71.170860131,318,"71 SPRUCE STREET, WATERTOWN, MA, 2472","Match","Exact","71 SPRUCE ST, WATERTOWN, MA, 02472",86865413,"R"
277819,"71 SPRUCEWOOD","ALISO VIEJO","CA",92656,33.580103708,-117.742019158,319,"71 SPRUCEWOOD, ALISO VIEJO, CA, 92656","Match","Exact","71 SPRUCEWOOD, ALISO VIEJO, CA, 92656",653190750,"R"
277820,"71 STONECUTTER ROAD","LEVITTOWN","NY",11756,40.7427437750001,-73.507523567,320,"71 STONECUTTER ROAD, LEVITTOWN, NY, 11756","Match","Exact","71 STONECUTTER RD, LEVITTOWN, NY, 11756",147644365,"L"
277821,"71 SULLIVAN STREET APT 3-D","NEW YORK","NY",10012,40.7249658540001,-74.003608027,321,"71 SULLIVAN STREET APT 3-D, NEW YORK, NY, 10012","Match","Exact","71 SULLIVAN ST, NEW YORK, NY, 10012",59664827,"R"
277822,"71 SULLIVAN STREET","BROOKLYN","NY",11231,40.677530097,-74.01182441,322,"71 SULLIVAN STREET, BROOKLYN, NY, 11231","Match","Exact","71 SULLIVAN ST, BROOKLYN, NY, 11231",59093510,"L"
277823,"71 SUNSET COVE","IRVINE","CA",92602,33.739360177,-117.761861684,323,"71 SUNSET COVE, IRVINE, CA, 92602","Match","Exact","71 SUNSET COVE, IRVINE, CA, 92602",649290974,"R"
277824,"71 TABB AVE","PISCATAWAY","NJ",8854,40.5728246470001,-74.4563498919999,324,"71 TABB AVE, PISCATAWAY, NJ, 8854","Match","Exact","71 TABB AVE, PISCATAWAY, NJ, 08854",60260134,"L"
277825,"71 TANGLEWOOD DR","LAKE OSWEGO","OR",97035,45.4283021300001,-122.709029588,325,"71 TANGLEWOOD DR, LAKE OSWEGO, OR, 97035","Match","Exact","71 TANGLEWOOD DR, LAKE OSWEGO, OR, 97035",157909324,"L"
277826,"71 TANNER STREET APARTMENT 3","PROVIDENCE","RI",2907,41.810602213,-71.417167691,326,"71 TANNER STREET APARTMENT 3, PROVIDENCE, RI, 2907","Match","Exact","71 TANNER ST, PROVIDENCE, RI, 02907",47466166,"R"
277827,"71 THIRD AVENUE","BURLINGTON","MA",1803,42.4886005500001,-71.225704579,327,"71 THIRD AVENUE, BURLINGTON, MA, 1803","Match","Exact","71 3RD AVE, BURLINGTON, MA, 01803",86881705,"L"
277828,"71 TREMONT STREET","CAMBRIDGE","MA",2139,42.3725072550001,-71.0974954659999,328,"71 TREMONT STREET, CAMBRIDGE, MA, 2139","Match","Exact","71 TREMONT ST, CAMBRIDGE, MA, 02139",86869413,"L"
277829,"71 UNION PLACE","LYNBROOK","NY",11563,40.6522358230001,-73.67478648,329,"71 UNION PLACE, LYNBROOK, NY, 11563","Match","Exact","71 UNION PL, LYNBROOK, NY, 11563",147675147,"L"
277830,"71 VANDERWATER AVENUE","FLORAL PARK","NY",11001,40.7133046070001,-73.705091005,330,"71 VANDERWATER AVENUE, FLORAL PARK, NY, 11001","Match","Exact","71 VANDERWATER AVE, FLORAL PARK, NY, 11001",147665358,"L"
277831,"71 VINEYARD PLACE","GRIFFIN","GA",30224,NA,NA,331,"71 VINEYARD PLACE, GRIFFIN, GA, 30224","No_Match",NA,NA,NA,NA
277832,"71 VIRGINIA AVENUE","LONG BEACH","NY",11561,40.5867800030001,-73.6925605929999,332,"71 VIRGINIA AVENUE, LONG BEACH, NY, 11561","Match","Exact","71 VIRGINIA AVE, LONG BEACH, NY, 11561",147679396,"L"
277833,"71 W 23RD ST BOX H5","NEW YORK","NY",10010,NA,NA,333,"71 W 23RD ST BOX H5, NEW YORK, NY, 10010","Tie",NA,NA,NA,NA
277834,"71 W FIFTH ST","NEW CASTLE","DE",19720,39.6597556,-75.56770111,334,"71 W FIFTH ST, NEW CASTLE, DE, 19720","Match","Exact","71 W 5TH ST, NEW CASTLE, DE, 19720",187270665,"L"
277835,"71 W HUBBARD ST APT 3109","CHICAGO","IL",60654,41.8900246010001,-87.6303637519999,335,"71 W HUBBARD ST APT 3109, CHICAGO, IL, 60654","Match","Non_Exact","71 W HUBBARD ST, CHICAGO, IL, 60654",111768679,"L"
277836,"71 W PLAZA DEL LAGO","ISLAMORADA","FL",33036,24.8601102640001,-80.731906447,336,"71 W PLAZA DEL LAGO, ISLAMORADA, FL, 33036","Match","Non_Exact","71 WEST-PLAZA DEL LAGO, ISLAMORADA, FL, 33036",116468515,"R"
277837,"71 WALNUT STE 110","ROCHESTER","MI",48307,42.6773389800001,-83.1352460799999,337,"71 WALNUT STE 110, ROCHESTER, MI, 48307","Match","Non_Exact","71 WALNUT BLVD, ROCHESTER, MI, 48307",69713382,"L"
277838,"71 WALNUT STREET","UNIONVILLE","CT",6085,41.7551643480001,-72.876870793,338,"71 WALNUT STREET, UNIONVILLE, CT, 6085","Match","Exact","71 WALNUT ST, UNIONVILLE, CT, 06085",636113892,"L"
277839,"71 WALPOLE STREET","DOVER","MA",2030,42.226248078,-71.270828848,339,"71 WALPOLE STREET, DOVER, MA, 2030","Match","Exact","71 WALPOLE ST, DOVER, MA, 02030",87238101,"R"
277840,"71 WASHIINGTON STREET","RENO","NV",89503,39.5231703150001,-119.821784084,340,"71 WASHIINGTON STREET, RENO, NV, 89503","Match","Non_Exact","71 WASHINGTON ST, RENO, NV, 89503",107044740,"L"
277841,"71 WASHINGTON STREET SUITE 33A","SALEM","MA",1907,NA,NA,341,"71 WASHINGTON STREET SUITE 33A, SALEM, MA, 1907","No_Match",NA,NA,NA,NA
277842,"71 WASHINGTON STREET","SALEM","MA",1970,42.522232219,-70.895790872,342,"71 WASHINGTON STREET, SALEM, MA, 1970","Match","Exact","71 WASHINGTON ST, SALEM, MA, 01970",86671475,"L"
277843,"71 WEST 23RD ST NUM4K","NEW YORK","NY",10010,40.7424738240001,-73.9917663319999,343,"71 WEST 23RD ST NUM4K, NEW YORK, NY, 10010","Match","Exact","71 W 23RD ST, NEW YORK, NY, 10010",59653411,"R"
277844,"71 WEST 23RD ST SUITE 1628","NEW YORK","NY",10010,40.7424738240001,-73.9917663319999,344,"71 WEST 23RD ST SUITE 1628, NEW YORK, NY, 10010","Match","Exact","71 W 23RD ST, NEW YORK, NY, 10010",59653411,"R"
277845,"71 WESTMONT ST","WEST HARTFORD","CT",6117,41.771178627,-72.76939341,345,"71 WESTMONT ST, WEST HARTFORD, CT, 6117","Match","Exact","71 WESTMONT ST, WEST HARTFORD, CT, 06117",3493133,"L"
277846,"71 WHIPPLE AVE","LACONIA","NH",3246,43.5279914500001,-71.477451058,346,"71 WHIPPLE AVE, LACONIA, NH, 3246","Match","Exact","71 WHIPPLE AVE, LACONIA, NH, 03246",145495824,"L"
277847,"71 WHITE TAIL LN","LANCASTER","MA",1523,42.4291757890001,-71.7032655629999,347,"71 WHITE TAIL LN, LANCASTER, MA, 1523","Match","Exact","71 WHITE TAIL LN, LANCASTER, MA, 01523",40066826,"R"
277848,"71 WINDMILL TRAIL","DEL RIO","TX",78840,29.4251329140001,-100.923174059,348,"71 WINDMILL TRAIL, DEL RIO, TX, 78840","Match","Exact","71 WINDMILL TRL, DEL RIO, TX, 78840",173584667,"L"
277849,"71 WINNER AVE","COLUMBUS","OH",43203,39.967650431,-82.9661298199999,349,"71 WINNER AVE, COLUMBUS, OH, 43203","Match","Exact","71 WINNER AVE, COLUMBUS, OH, 43203",135581255,"L"
277850,"71 WOOD GREEN DRIVE","WENDELL","NC",27591,35.7880676010001,-78.358982044,350,"71 WOOD GREEN DRIVE, WENDELL, NC, 27591","Match","Exact","71 WOOD GREEN DR, WENDELL, NC, 27591",641566934,"L"
277851,"71 YALE ST","SPRINGFIELD","MA",1109,42.118390807,-72.56761004,351,"71 YALE ST, SPRINGFIELD, MA, 1109","Match","Exact","71 YALE ST, SPRINGFIELD, MA, 01109",4035554,"R"
277852,"71-13 MANSE STREET","FOREST HILLS","NY",11375,40.7118718250001,-73.849526399,352,"71-13 MANSE STREET, FOREST HILLS, NY, 11375","Match","Exact","71-13 MANSE ST, FOREST HILLS, NY, 11375",59706250,"L"
277853,"71-35 SUTTON  PL  3FL","FRESH MEADOWS","NY",11365,40.729569885,-73.8081489159999,353,"71-35 SUTTON  PL  3FL, FRESH MEADOWS, NY, 11365","Match","Exact","71-35 SUTTON PL, FRESH MEADOWS, NY, 11365",59740371,"L"
277854,"71-40 112ST APT 406","FOREST HILLS","NY",11375,NA,NA,354,"71-40 112ST APT 406, FOREST HILLS, NY, 11375","No_Match",NA,NA,NA,NA
277855,"71-45 160TH STREET 5A","FRESH MEADOWS","NY",11365,40.729232374,-73.8091092289999,355,"71-45 160TH STREET 5A, FRESH MEADOWS, NY, 11365","Match","Exact","71-45 160TH ST, FRESH MEADOWS, NY, 11365",59736961,"L"
277856,"71","ROYAL OAK","MI",48073,NA,NA,356,"71, ROYAL OAK, MI, 48073","No_Match",NA,NA,NA,NA
277857,"710  E MAIN STREET","ENDA","TX",77957,28.981668852,-96.6393006979999,357,"710  E MAIN STREET, ENDA, TX, 77957","Match","Non_Exact","710 E MAIN ST, EDNA, TX, 77957",42116193,"L"
277858,"710 12TH STREET SOURTH","ARLINGTON","VA",22202,38.8628993510001,-77.0585107429999,358,"710 12TH STREET SOURTH, ARLINGTON, VA, 22202","Match","Non_Exact","710 12TH ST S, ARLINGTON, VA, 22202",76473727,"L"
277859,"710 34TH AVE S","SAINT PETERSBURG","FL",33705,27.737629122,-82.643067753,359,"710 34TH AVE S, SAINT PETERSBURG, FL, 33705","Match","Exact","710 34TH AVE S, SAINT PETERSBURG, FL, 33705",653872991,"L"
277860,"710 3RD ST","BROOKINGS","OR",97415,42.0590136440001,-124.293158277,360,"710 3RD ST, BROOKINGS, OR, 97415","Match","Exact","710 3RD ST, BROOKINGS, OR, 97415",137129943,"R"
277861,"710 4-H ROAD","LANSING","KS",66043,NA,NA,361,"710 4-H ROAD, LANSING, KS, 66043","No_Match",NA,NA,NA,NA
277862,"710 40TH AVE NE","COLUMBIA HEIGHT","MN",55421,45.0409665710001,-93.252236233,362,"710 40TH AVE NE, COLUMBIA HEIGHT, MN, 55421","Match","Non_Exact","710 40TH AVE NE, COLUMBIA HEIGHTS, MN, 55421",97488279,"R"
277863,"710 5TH ST N","ST PETERSBURG","FL",33701,27.7796373830001,-82.6405963239999,363,"710 5TH ST N, ST PETERSBURG, FL, 33701","Match","Exact","710 5TH ST N, SAINT PETERSBURG, FL, 33701",124707261,"L"
277864,"710 6TH STREET","RUPERT","ID",83350,42.6175490320001,-113.67663234,364,"710 6TH STREET, RUPERT, ID, 83350","Match","Exact","710 6TH ST, RUPERT, ID, 83350",105168808,"R"
277865,"710 7TH STREET","BALDWIN","MI",49304,43.895291032,-85.852886111,365,"710 7TH STREET, BALDWIN, MI, 49304","Match","Exact","710 7TH ST, BALDWIN, MI, 49304",150181277,"R"
277866,"710 AEROVISTA PLACE SUITE B","SAN LUIS OBISPO","CA",93401,35.2424034380001,-120.641206796,366,"710 AEROVISTA PLACE SUITE B, SAN LUIS OBISPO, CA, 93401","Match","Non_Exact","710 AEROVISTA PARK, SAN LUIS OBISPO, CA, 93401",109789635,"R"
277867,"710 ALMONASTER RD","YOUNGSVILLE","LA",70592,30.0873772890001,-91.986956779,367,"710 ALMONASTER RD, YOUNGSVILLE, LA, 70592","Match","Exact","710 ALMONASTER RD, YOUNGSVILLE, LA, 70592",640616541,"R"
277868,"710 ARGYLE AVE","FLOSSMOOR","IL",60422,41.5496115080001,-87.6786577829999,368,"710 ARGYLE AVE, FLOSSMOOR, IL, 60422","Match","Exact","710 ARGYLE AVE, FLOSSMOOR, IL, 60422",111709480,"R"
277869,"710 ARTHUR WOLFE RD","DUBLIN","GA",31021,32.5399148010001,-83.012481024,369,"710 ARTHUR WOLFE RD, DUBLIN, GA, 31021","Match","Exact","710 ARTHUR WOLFE RD, DUBLIN, GA, 31021",100650449,"L"
277870,"710 BALSAM ST","POCATELLO","ID",83201,42.890157693,-112.462319986,370,"710 BALSAM ST, POCATELLO, ID, 83201","Match","Exact","710 BALSAM ST, POCATELLO, ID, 83201",204350618,"R"
277871,"710 BARD DR","GARLAND","TX",75040,32.905460347,-96.613356572,371,"710 BARD DR, GARLAND, TX, 75040","Match","Exact","710 BARD DR, GARLAND, TX, 75040",103169636,"R"
277872,"710 BENNETT ST","SANFORD","NC",27330,35.4897102740001,-79.1845387719999,372,"710 BENNETT ST, SANFORD, NC, 27330","Match","Exact","710 BENNETT ST, SANFORD, NC, 27330",72061900,"R"
277873,"710 BENTON RD","BOSSIER CITY","LA",71111,32.525155442,-93.717278898,373,"710 BENTON RD, BOSSIER CITY, LA, 71111","Match","Exact","710 BENTON RD, BOSSIER CITY, LA, 71111",108508381,"R"
277874,"710 BIG BEND RD","BARBOURSVILLE","WV",25504,38.3717664490001,-82.262406958,374,"710 BIG BEND RD, BARBOURSVILLE, WV, 25504","Match","Exact","710 BIG BEND RD, BARBOURSVILLE, WV, 25504",101314278,"L"
277875,"710 BLUE RIDGE WAY","DAVIE","FL",33325,26.1108509700001,-80.34091434,375,"710 BLUE RIDGE WAY, DAVIE, FL, 33325","Match","Exact","710 BLUE RIDGE WAY, DAVIE, FL, 33325",114766292,"R"
277876,"710 BRAINERD ROAD","EXTON","PA",19341,40.0501528120001,-75.621024935,376,"710 BRAINERD ROAD, EXTON, PA, 19341","Match","Exact","710 BRAINERD RD, EXTON, PA, 19341",179513617,"R"
277877,"710 BROADWAY","VINELAND","NJ",8360,39.499465173,-75.020200491,377,"710 BROADWAY, VINELAND, NJ, 8360","Match","Non_Exact","710 BROADWAY ST, VINELAND, NJ, 08360",174110747,"L"
277878,"710 BROOK VALLEY LANE","DALLAS","TX",75232,32.681978042,-96.836238882,378,"710 BROOK VALLEY LANE, DALLAS, TX, 75232","Match","Exact","710 BROOK VALLEY LN, DALLAS, TX, 75232",102948253,"L"
277879,"710 BROOKSIDE AVENUE STE 7","REDLANDS","CA",92373,34.0523080240001,-117.191240894,379,"710 BROOKSIDE AVENUE STE 7, REDLANDS, CA, 92373","Match","Exact","710 BROOKSIDE AVE, REDLANDS, CA, 92373",144664141,"R"
277880,"710 BROWN STREET","LAFAYETTE","IN",47901,40.421878522,-86.889181763,380,"710 BROWN STREET, LAFAYETTE, IN, 47901","Match","Exact","710 BROWN ST, LAFAYETTE, IN, 47901",27306141,"L"
277881,"710 BRUCE CT","MADISON","WI",53705,43.073751918,-89.448750661,381,"710 BRUCE CT, MADISON, WI, 53705","Match","Exact","710 BRUCE CT, MADISON, WI, 53705",49467343,"L"
277882,"710 BURNS AVENUE","FLOSSMOOR","IL",60422,41.54933771,-87.681836389,382,"710 BURNS AVENUE, FLOSSMOOR, IL, 60422","Match","Exact","710 BURNS AVE, FLOSSMOOR, IL, 60422",111709051,"R"
277883,"710 CARLTON POINTE WAY","PALMETTO","GA",30268,33.5288243480001,-84.68357636,383,"710 CARLTON POINTE WAY, PALMETTO, GA, 30268","Match","Exact","710 CARLTON POINTE WAY, PALMETTO, GA, 30268",636770626,"R"
277884,"710 CARRIAGE HILL APT 6","IOWA CITY","IA",52246,41.6517390610001,-91.550567972,384,"710 CARRIAGE HILL APT 6, IOWA CITY, IA, 52246","Match","Exact","710 CARRIAGE HILL, IOWA CITY, IA, 52246",84494614,"L"
277885,"710 CHESTNUT RIDGE RD","SPRING VALLEY","NY",10977,41.0888647130001,-74.052185586,385,"710 CHESTNUT RIDGE RD, SPRING VALLEY, NY, 10977","Match","Exact","710 CHESTNUT RIDGE RD, SPRING VALLEY, NY, 10977",124627503,"L"
277886,"710 CHURCH STREET SUITE B","LOCKPORT","LA",70374,NA,NA,386,"710 CHURCH STREET SUITE B, LOCKPORT, LA, 70374","No_Match",NA,NA,NA,NA
277887,"710 CR 1350 N","SULLIVAN","IL",61951,39.601049684,-88.677192113,387,"710 CR 1350 N, SULLIVAN, IL, 61951","Match","Non_Exact","710 CO RD 1350N, SULLIVAN, IL, 61951",5817549,"R"
277888,"710 CREEKWOOD DR","WEST BEND","WI",53095,43.414208956,-88.153366735,388,"710 CREEKWOOD DR, WEST BEND, WI, 53095","Match","Exact","710 CREEKWOOD DR, WEST BEND, WI, 53095",79576568,"L"
277889,"710 DACULA RD UNIT 4A-220","DACULA","GA",30019,34.0015149020001,-83.910992579,389,"710 DACULA RD UNIT 4A-220, DACULA, GA, 30019","Match","Exact","710 DACULA RD, DACULA, GA, 30019",651221508,"L"
277890,"710 DACULA ROAD STE 4A","DACULA","GA",30019,34.0015149020001,-83.910992579,390,"710 DACULA ROAD STE 4A, DACULA, GA, 30019","Match","Exact","710 DACULA RD, DACULA, GA, 30019",651221508,"L"
277891,"710 DAKOTA STREET","BENKELMAN","NE",69021,NA,NA,391,"710 DAKOTA STREET, BENKELMAN, NE, 69021","No_Match",NA,NA,NA,NA
277892,"710 DAVIS AVENUE","CORNING","IA",50841,40.98918666,-94.734381156,392,"710 DAVIS AVENUE, CORNING, IA, 50841","Match","Exact","710 DAVIS AVE, CORNING, IA, 50841",61701794,"R"
277893,"710 DEAD CAT ALLEY","WOODLAND","CA",95695,38.6781135000001,-121.771666033,393,"710 DEAD CAT ALLEY, WOODLAND, CA, 95695","Match","Exact","710 DEAD CAT ALY, WOODLAND, CA, 95695",67690309,"R"
277894,"710 DELANEY WAY","VERSAILLES","KY",40383,37.976984773,-84.707388657,394,"710 DELANEY WAY, VERSAILLES, KY, 40383","Match","Exact","710 DELANEY WAY, VERSAILLES, KY, 40383",38499029,"R"
277895,"710 DELEAN WAY","FRUITA","CO",81521,39.169915142,-108.726038544,395,"710 DELEAN WAY, FRUITA, CO, 81521","Match","Exact","710 DELEAN WAY, FRUITA, CO, 81521",122469448,"R"
277896,"710 DORCHESTER ROAD","BALTIMORE","MD",21229,39.27132399,-76.693607711,396,"710 DORCHESTER ROAD, BALTIMORE, MD, 21229","Match","Exact","710 DORCHESTER RD, BALTIMORE, MD, 21229",206413556,"R"
277897,"710 DUNCANVILLE CT","CAMPBELL","CA",95008,37.285639443,-121.936406237,397,"710 DUNCANVILLE CT, CAMPBELL, CA, 95008","Match","Exact","710 DUNCANVILLE CT, CAMPBELL, CA, 95008",650122122,"L"
277898,"710 E 19TH AVE","CORDELE","GA",31015,NA,NA,398,"710 E 19TH AVE, CORDELE, GA, 31015","Tie",NA,NA,NA,NA
277899,"710 E 47TH ST STE 203W","CHICAGO","IL",60653,41.8095145550001,-87.608473214,399,"710 E 47TH ST STE 203W, CHICAGO, IL, 60653","Match","Non_Exact","710 E 47TH ST, CHICAGO, IL, 60653",111770954,"L"
277900,"710 E 83RD STREET","CHICAGO","IL",60619,41.7439407680001,-87.606926744,400,"710 E 83RD STREET, CHICAGO, IL, 60619","Match","Exact","710 E 83RD ST, CHICAGO, IL, 60619",111773008,"L"
277901,"710 E COMMERCIAL AVE","MONTEREY","TN",38574,36.141894054,-85.261424894,401,"710 E COMMERCIAL AVE, MONTEREY, TN, 38574","Match","Exact","710 E COMMERCIAL AVE, MONTEREY, TN, 38574",25145106,"R"
277902,"710 E CYPRESS STREET","COMPTON","CA",90221,33.890549666,-118.215533458,402,"710 E CYPRESS STREET, COMPTON, CA, 90221","Match","Exact","710 E CYPRESS ST, COMPTON, CA, 90221",142767523,"R"
277903,"710 E GARFIELD ST ROOM 278","LARAMIE","WY",82070,NA,NA,403,"710 E GARFIELD ST ROOM 278, LARAMIE, WY, 82070","Tie",NA,NA,NA,NA
277904,"710 E GOLDEN AVENUE","PLACENTIA","CA",92870,33.9038396190001,-117.854743328,404,"710 E GOLDEN AVENUE, PLACENTIA, CA, 92870","Match","Exact","710 GOLDEN AVE, PLACENTIA, CA, 92870",143994286,"R"
277905,"710 E GRAND RIVER AVENUE","HOWELL","MI",48843,42.604658564,-83.9227245499999,405,"710 E GRAND RIVER AVENUE, HOWELL, MI, 48843","Match","Exact","710 E GRAND RIVER AVE, HOWELL, MI, 48843",23542353,"R"
277906,"710 E HARVARD ROAD","BURBANK","CA",91501,34.191192852,-118.308228056,406,"710 E HARVARD ROAD, BURBANK, CA, 91501","Match","Exact","710 E HARVARD RD, BURBANK, CA, 91501",624525203,"R"
277907,"710 E MADISON ST","PLATTEVILLE","WI",53818,42.7402878670001,-90.466566805,407,"710 E MADISON ST, PLATTEVILLE, WI, 53818","Match","Exact","710 E MADISON ST, PLATTEVILLE, WI, 53818",32755091,"R"
277908,"710 E MAIN AVENUE STE 1","ROBSTOWN","TX",78380,NA,NA,408,"710 E MAIN AVENUE STE 1, ROBSTOWN, TX, 78380","Tie",NA,NA,NA,NA
277909,"710 E MAIN ST STE A","BARTOW","FL",33830,NA,NA,409,"710 E MAIN ST STE A, BARTOW, FL, 33830","Tie",NA,NA,NA,NA
277910,"710 E MAIN STREET","CARBONDALE","IL",62901,37.7282543420001,-89.203913558,410,"710 E MAIN STREET, CARBONDALE, IL, 62901","Match","Exact","710 E MAIN ST, CARBONDALE, IL, 62901",95122505,"L"
277911,"710 E MARKET ST","SALINAS","CA",93905,36.67651161,-121.631450436,411,"710 E MARKET ST, SALINAS, CA, 93905","Match","Exact","710 E MARKET ST, SALINAS, CA, 93905",196823878,"R"
277912,"710 E OGDEN AVE  SUITE 360","NAPERVILLE","IL",60563,41.7861343970001,-88.136202354,412,"710 E OGDEN AVE  SUITE 360, NAPERVILLE, IL, 60563","Match","Non_Exact","710 E OGDEN AVE, NAPERVILLE, IL, 60563",112528886,"R"
277913,"710 E ST SUITE 100","EUREKA","CA",95501,40.799982454,-124.166592466,413,"710 E ST SUITE 100, EUREKA, CA, 95501","Match","Exact","710 E ST, EUREKA, CA, 95501",112989259,"L"
277914,"710 EAST 6TH STREET","ERIE","PA",16507,42.135273683,-80.06949234,414,"710 EAST 6TH STREET, ERIE, PA, 16507","Match","Exact","710 E 6TH ST, ERIE, PA, 16507",117497165,"L"
277915,"710 EAST FRANKLIN STREET","LIMA","OH",45804,40.7283045350001,-84.095092816,415,"710 EAST FRANKLIN STREET, LIMA, OH, 45804","Match","Non_Exact","710 FRANKLIN ST, LIMA, OH, 45804",209535305,"R"
277916,"710 FAIRVIEW AVE","SUNNYSIDE","WA",98944,46.3346946460001,-120.011505978,416,"710 FAIRVIEW AVE, SUNNYSIDE, WA, 98944","Match","Exact","710 FAIRVIEW AVE, SUNNYSIDE, WA, 98944",184970655,"R"
277917,"710 FIELDSTONE CT","INVERNESS","IL",60010,42.1254023290001,-88.135291442,417,"710 FIELDSTONE CT, INVERNESS, IL, 60010","Match","Exact","710 FIELDSTONE CT, INVERNESS, IL, 60010",112378143,"R"
277918,"710 FIRST AVENUE","ROCK RAPIDS","IA",51246,43.431870062,-96.1742062169999,418,"710 FIRST AVENUE, ROCK RAPIDS, IA, 51246","Match","Exact","710 1ST AVE, ROCK RAPIDS, IA, 51246",30198652,"L"
277919,"710 FLOOD ST","WICHITA FALLS","TX",76301,33.9152196570001,-98.4772364729999,419,"710 FLOOD ST, WICHITA FALLS, TX, 76301","Match","Exact","710 FLOOD ST, WICHITA FALLS, TX, 76301",169844943,"L"
277920,"710 FOX RIDGE DRIVE","BRENTWOOD","TN",37027,36.03703783,-86.7752944,420,"710 FOX RIDGE DRIVE, BRENTWOOD, TN, 37027","Match","Exact","710 FOX RIDGE DR, BRENTWOOD, TN, 37027",629968055,"L"
277921,"710 GEORGE STREET","PEN ARGYL","PA",18072,40.8649489360001,-75.262146592,421,"710 GEORGE STREET, PEN ARGYL, PA, 18072","Match","Exact","710 GEORGE ST, PEN ARGYL, PA, 18072",136906192,"R"
277922,"710 GEORGIA AVE UNIT 21","STATESBORO","GA",30458,32.4192547000001,-81.7733781649999,422,"710 GEORGIA AVE UNIT 21, STATESBORO, GA, 30458","Match","Exact","710 GEORGIA AVE, STATESBORO, GA, 30458",6124805,"L"
277923,"710 GIUFFRIAS AVE","METAIRIE","LA",70001,29.980734828,-90.1731259699999,423,"710 GIUFFRIAS AVE, METAIRIE, LA, 70001","Match","Exact","710 GIUFFRIAS AVE, METAIRIE, LA, 70001",93500726,"L"
277924,"710 GREEN ACRES DRIVE","WIMBERLEY","TX",78676,29.996296924,-98.1112967129999,424,"710 GREEN ACRES DRIVE, WIMBERLEY, TX, 78676","Match","Exact","710 GREEN ACRES DR, WIMBERLEY, TX, 78676",640630271,"L"
277925,"710 GREENVILLE PIKE","HAZEL GREEN","AL",35750,34.961537805,-86.518432742,425,"710 GREENVILLE PIKE, HAZEL GREEN, AL, 35750","Match","Exact","710 GREENVILLE PIKE, HAZEL GREEN, AL, 35750",58207777,"L"
277926,"710 HAMILTON STREET","REDWOOD CITY","CA",94063,37.4873090470001,-122.230170249,426,"710 HAMILTON STREET, REDWOOD CITY, CA, 94063","Match","Exact","710 HAMILTON ST, REDWOOD CITY, CA, 94063",192361142,"R"
277927,"710 HARPER RD","KERRVILLE","TX",78028,30.071545976,-99.152831598,427,"710 HARPER RD, KERRVILLE, TX, 78028","Match","Exact","710 HARPER RD, KERRVILLE, TX, 78028",176887054,"L"
277928,"710 HART LN","NASHVILLE","TN",37216,36.2171807280001,-86.7413555689999,428,"710 HART LN, NASHVILLE, TN, 37216","Match","Exact","710 HART LN, NASHVILLE, TN, 37216",97187264,"R"
277929,"710 HARVEST BLUFF DRIVE","ROSHARON","TX",77583,29.4627380480001,-95.46531845,429,"710 HARVEST BLUFF DRIVE, ROSHARON, TX, 77583","Match","Exact","710 HARVEST BLUFF DR, ROSHARON, TX, 77583",648705148,"R"
277930,"710 HARWICK ROAD","WAYNE","PA",19087,40.064929535,-75.4099929019999,430,"710 HARWICK ROAD, WAYNE, PA, 19087","Match","Exact","710 HARWICK RD, WAYNE, PA, 19087",179513321,"L"
277931,"710 HATTON HILL COURT","AUSTIN","TX",78725,NA,NA,431,"710 HATTON HILL COURT, AUSTIN, TX, 78725","No_Match",NA,NA,NA,NA
277932,"710 HEIDT STREET","COLUMBIA","SC",29205,33.9989574520001,-81.012336287,432,"710 HEIDT STREET, COLUMBIA, SC, 29205","Match","Exact","710 HEIDT ST, COLUMBIA, SC, 29205",71821813,"R"
277933,"710 HERMANN ROAD","NORTH BRUNSWICK","NJ",8902,40.4673133810001,-74.457947858,433,"710 HERMANN ROAD, NORTH BRUNSWICK, NJ, 8902","Match","Exact","710 HERMANN RD, N BRUNSWICK, NJ, 08902",60318232,"L"
277934,"710 HICKORY CREEK CT","METAMORA","IL",61548,40.7814765730001,-89.479969044,434,"710 HICKORY CREEK CT, METAMORA, IL, 61548","Match","Exact","710 HICKORY CREEK CT, METAMORA, IL, 61548",9008394,"L"
277935,"710 HIGHWAY 58 SOUTH","SNOW HILL","NC",28580,35.4364873010001,-77.649684265,435,"710 HIGHWAY 58 SOUTH, SNOW HILL, NC, 28580","Match","Exact","710 HWY 58 S, SNOW HILL, NC, 28580",635634883,"L"
277936,"710 HOLDER RD","FARMERVILLE","LA",71241,32.7646135530001,-92.388822805,436,"710 HOLDER RD, FARMERVILLE, LA, 71241","Match","Exact","710 HOLDER RD, FARMERVILLE, LA, 71241",611015215,"L"
277937,"710 HOMOCHITTO CAMPOUT ROAD SE","MEADVILLE","MS",39653,NA,NA,437,"710 HOMOCHITTO CAMPOUT ROAD SE, MEADVILLE, MS, 39653","No_Match",NA,NA,NA,NA
277938,"710 HOWARD AVE","CARSON","CA",90746,33.8586982780001,-118.262502261,438,"710 HOWARD AVE, CARSON, CA, 90746","Match","Exact","710 HOWARD AVE, CARSON, CA, 90746",142651908,"L"
277939,"710 HUEY ST","ABBEVILLE","LA",70510,29.9652796670001,-92.1237759109999,439,"710 HUEY ST, ABBEVILLE, LA, 70510","Match","Exact","710 HUEY ST, ABBEVILLE, LA, 70510",85964770,"L"
277940,"710 HWY 35 SO","ST CROIX FALL","WI",54024,NA,NA,440,"710 HWY 35 SO, ST CROIX FALL, WI, 54024","No_Match",NA,NA,NA,NA
277941,"710 HWY 51 BYPASS WEST PMB 555","DYERSBURG","TN",38024,NA,NA,441,"710 HWY 51 BYPASS WEST PMB 555, DYERSBURG, TN, 38024","No_Match",NA,NA,NA,NA
277942,"710 INDIGO STREET","SAN ANTONIO","TX",78216,29.537925522,-98.5041942129999,442,"710 INDIGO STREET, SAN ANTONIO, TX, 78216","Match","Exact","710 INDIGO ST, SAN ANTONIO, TX, 78216",101496584,"L"
277943,"710 IONA TERRACE","CAPITOL HEIGHTS","MD",20743,38.8782726920001,-76.887502882,443,"710 IONA TERRACE, CAPITOL HEIGHTS, MD, 20743","Match","Exact","710 IONA TER, CAPITOL HEIGHTS, MD, 20743",76318055,"L"
277944,"710 ISSAC STREET","COLUMBIA","SC",29203,34.0668290730001,-80.995549313,444,"710 ISSAC STREET, COLUMBIA, SC, 29203","Match","Non_Exact","710 ISAAC ST, COLUMBIA, SC, 29203",71822788,"L"
277945,"710 KATHRON AVE","CUYAHOGA FALLS","OH",44221,41.153402638,-81.4729832,445,"710 KATHRON AVE, CUYAHOGA FALLS, OH, 44221","Match","Exact","710 KATHRON AVE, CUYAHOGA FALLS, OH, 44221",61348731,"R"
277946,"710 KENNOLIA DRIVE DR SW","ATLANTA","GA",30310,33.735779655,-84.448969393,446,"710 KENNOLIA DRIVE DR SW, ATLANTA, GA, 30310","Match","Non_Exact","710 KENNOLIA DR SW, ATLANTA, GA, 30310",17341082,"L"
277947,"710 KINGSBRIDGE WAY","BUFFALO GROVE","IL",60089,42.178654814,-87.974114933,447,"710 KINGSBRIDGE WAY, BUFFALO GROVE, IL, 60089","Match","Exact","710 KINGSBRIDGE WAY, BUFFALO GROVE, IL, 60089",119681287,"R"
277948,"710 KIRKPATRICK ST","SYRACUSE","NY",13208,43.0701428130001,-76.152639187,448,"710 KIRKPATRICK ST, SYRACUSE, NY, 13208","Match","Exact","710 KIRKPATRICK ST, SYRACUSE, NY, 13208",46569256,"R"
277949,"710 LAMAR ST SUITE 440","WICHTA FALLS","TX",76301,33.9120948230001,-98.493861607,449,"710 LAMAR ST SUITE 440, WICHTA FALLS, TX, 76301","Match","Non_Exact","710 LAMAR ST, WICHITA FALLS, TX, 76301",169844245,"R"
277950,"710 LAWRENCE EXPRESSWAY 148","SANTA CLARA","CA",95051,NA,NA,450,"710 LAWRENCE EXPRESSWAY 148, SANTA CLARA, CA, 95051","No_Match",NA,NA,NA,NA
277951,"710 LITTLE RABBIT","AZTEC","NM",87410,36.823525266,-107.977588149,451,"710 LITTLE RABBIT, AZTEC, NM, 87410","Match","Non_Exact","710 LITTLE RABBIT DR, AZTEC, NM, 87410",127485562,"L"
277952,"710 LONE PINE WAY","VERONA","WI",53593,43.003260971,-89.5434402989999,452,"710 LONE PINE WAY, VERONA, WI, 53593","Match","Exact","710 LONE PINE WAY, VERONA, WI, 53593",647213298,"R"
277953,"710 MABRY RD","ATLANTA","GA",30328,33.947297936,-84.3627340099999,453,"710 MABRY RD, ATLANTA, GA, 30328","Match","Non_Exact","710 MABRY RD NE, ATLANTA, GA, 30328",17361242,"L"
277954,"710 MADISON AVE","REDWOOD CITY","CA",94061,37.4771035730001,-122.23456608,454,"710 MADISON AVE, REDWOOD CITY, CA, 94061","Match","Exact","710 MADISON AVE, REDWOOD CITY, CA, 94061",192362567,"R"
277955,"710 MAIN ST","MURRAY","KY",42071,36.6106398640001,-88.30629442,455,"710 MAIN ST, MURRAY, KY, 42071","Match","Exact","710 MAIN ST, MURRAY, KY, 42071",31709010,"L"
277956,"710 MAIN STREET","MURRAY","KY",42071,36.6106398640001,-88.30629442,456,"710 MAIN STREET, MURRAY, KY, 42071","Match","Exact","710 MAIN ST, MURRAY, KY, 42071",31709010,"L"
277957,"710 MAIN STREET","PALACIOS","TX",77465,NA,NA,457,"710 MAIN STREET, PALACIOS, TX, 77465","No_Match",NA,NA,NA,NA
277958,"710 MARKET STREET","POCOMOKE CITY","MD",21851,38.07095522,-75.5619353499999,458,"710 MARKET STREET, POCOMOKE CITY, MD, 21851","Match","Exact","710 MARKET ST, POCOMOKE CITY, MD, 21851",114541537,"L"
277959,"710 MARTHA STREET","MANTECA","CA",95337,37.7911776490001,-121.224978478,459,"710 MARTHA STREET, MANTECA, CA, 95337","Match","Exact","710 MARTHA ST, MANTECA, CA, 95337",133858674,"L"
277960,"710 MARTIN LUTHER KING AVE","CAIRO","IL",62914,NA,NA,460,"710 MARTIN LUTHER KING AVE, CAIRO, IL, 62914","No_Match",NA,NA,NA,NA
277961,"710 MEADOWSONG CIRCLE","LAWRENCEVILLE","GA",30043,33.9795621320001,-84.031974452,461,"710 MEADOWSONG CIRCLE, LAWRENCEVILLE, GA, 30043","Match","Exact","710 MEADOWSONG CIR, LAWRENCEVILLE, GA, 30043",88921146,"R"
277962,"710 MEARS ST","CHADRON","NE",69337,42.82461146,-103.005709051,462,"710 MEARS ST, CHADRON, NE, 69337","Match","Exact","710 MEARS ST, CHADRON, NE, 69337",164249638,"R"
277963,"710 MICHIGAN AVENUE SUITE 9","MIAMI BEACH","FL",33139,25.777210338,-80.13837642,463,"710 MICHIGAN AVENUE SUITE 9, MIAMI BEACH, FL, 33139","Match","Exact","710 MICHIGAN AVE, MIAMI BEACH, FL, 33139",116020691,"L"
277964,"710 MILITARY CUTOFF ROAD SUITE 250","WILMINGTON","NC",28405,34.2489388880001,-77.8269500119999,464,"710 MILITARY CUTOFF ROAD SUITE 250, WILMINGTON, NC, 28405","Match","Exact","710 MILITARY CUTOFF RD, WILMINGTON, NC, 28405",152752253,"L"
277965,"710 MINNEQUA AVE","PUEBLO","CO",81004,38.233232494,-104.618850686,465,"710 MINNEQUA AVE, PUEBLO, CO, 81004","Match","Exact","710 MINNEQUA AVE, PUEBLO, CO, 81004",105067805,"L"
277966,"710 N 5TH ST","READING","PA",19601,40.3465654980001,-75.927564307,466,"710 N 5TH ST, READING, PA, 19601","Match","Exact","710 N FIFTH ST, READING, PA, 19601",80444852,"L"
277967,"710 N 9TH ST","ELGIN","OR",97827,45.571636692,-117.918412331,467,"710 N 9TH ST, ELGIN, OR, 97827","Match","Non_Exact","710 N 9TH AVE, ELGIN, OR, 97827",138849727,"R"
277968,"710 N CLAIBORNE STREET","CHALMETTE","LA",70043,29.9495601040001,-89.968510612,468,"710 N CLAIBORNE STREET, CHALMETTE, LA, 70043","Match","Exact","710 N CLAIBORNE ST, CHALMETTE, LA, 70043",111186937,"L"
277969,"710 NE 3RD ST","NEWPORT","OR",97365,44.638179705,-124.044512279,469,"710 NE 3RD ST, NEWPORT, OR, 97365","Match","Exact","710 NE 3RD ST, NEWPORT, OR, 97365",155931013,"R"
277970,"710 NEPTUNE AVE","OXON HILL","MD",20745,38.818361473,-76.9968984609999,470,"710 NEPTUNE AVE, OXON HILL, MD, 20745","Match","Exact","710 NEPTUNE AVE, OXON HILL, MD, 20745",76311960,"L"
277971,"710 NEW YORK AVE","ABSECON","NJ",8201,39.435739062,-74.5018128959999,471,"710 NEW YORK AVE, ABSECON, NJ, 8201","Match","Exact","710 NEW YORK AVE, ABSECON, NJ, 08201",202510321,"R"
277972,"710 NORTH AVENUE","PITTSBURGH","PA",15221,40.445139619,-79.883441476,472,"710 NORTH AVENUE, PITTSBURGH, PA, 15221","Match","Exact","710 NORTH AVE, PITTSBURGH, PA, 15221",51653712,"R"
277973,"710 NORTH D STREET","SAN BERNARDINO","CA",92401,34.112369286,-117.291920523,473,"710 NORTH D STREET, SAN BERNARDINO, CA, 92401","Match","Exact","710 N D ST, SAN BERNARDINO, CA, 92401",144655355,"L"
277974,"710 NORTH EXPRESS STREET","PARIS","AR",72855,NA,NA,474,"710 NORTH EXPRESS STREET, PARIS, AR, 72855","No_Match",NA,NA,NA,NA
277975,"710 NORTH WASHINGTON STREET","AFTON","WY",83110,42.7444175690001,-110.933294418,475,"710 NORTH WASHINGTON STREET, AFTON, WY, 83110","Match","Exact","710 N WASHINGTON ST, AFTON, WY, 83110",611011193,"L"
277976,"710 OLD HOLLOW ROAD","NORTH FERRISBURGH","VT",5473,44.259319932,-73.2145054709999,476,"710 OLD HOLLOW ROAD, NORTH FERRISBURGH, VT, 5473","Match","Exact","710 OLD HOLLOW RD, N FERRISBURGH, VT, 05473",136459069,"R"
277977,"710 PARK AVE","HAINSPORT","NJ",8036,NA,NA,477,"710 PARK AVE, HAINSPORT, NJ, 8036","No_Match",NA,NA,NA,NA
277978,"710 PARK LANE","DECATUR","GA",30033,33.7979246100001,-84.302663584,478,"710 PARK LANE, DECATUR, GA, 30033","Match","Exact","710 PARK LN, DECATUR, GA, 30033",23360073,"L"
277979,"710 PARKER PLACE","ATLANTA","GA",30349,33.6597510670001,-84.6229551549999,479,"710 PARKER PLACE, ATLANTA, GA, 30349","Match","Exact","710 PARKER PL, ATLANTA, GA, 30349",625655447,"R"
277980,"710 PARKSIDE AVENUE","BUFFALO","NY",14216,42.9490109340001,-78.8493932709999,480,"710 PARKSIDE AVENUE, BUFFALO, NY, 14216","Match","Exact","710 PARKSIDE AVE, BUFFALO, NY, 14216",48347524,"L"
277981,"710 PEACHTREE STREET NE 1103","ATLANTA","GA",30308,33.774038337,-84.384740778,481,"710 PEACHTREE STREET NE 1103, ATLANTA, GA, 30308","Match","Non_Exact","710 PEACHTREE ST, ATLANTA, GA, 30308",17343615,"L"
277982,"710 PEACHTREE STREET NE 1731","ATLANTA","GA",30308,33.774038337,-84.384740778,482,"710 PEACHTREE STREET NE 1731, ATLANTA, GA, 30308","Match","Non_Exact","710 PEACHTREE ST, ATLANTA, GA, 30308",17343615,"L"
277983,"710 PROSPECT AVENUE NORTH","KENT","WA",98031,47.386974884,-122.224508833,483,"710 PROSPECT AVENUE NORTH, KENT, WA, 98031","Match","Exact","710 PROSPECT AVE N, KENT, WA, 98031",186634556,"R"
277984,"710 RED DEVIL LANE","RUSSELL","KY",41169,38.5103295920001,-82.708080734,484,"710 RED DEVIL LANE, RUSSELL, KY, 41169","Match","Exact","710 RED DEVIL LN, RUSSELL, KY, 41169",650298704,"R"
277985,"710 RENSSELAER AVENUE","OGDENSBURG","NY",13669,44.689019973,-75.505902008,485,"710 RENSSELAER AVENUE, OGDENSBURG, NY, 13669","Match","Exact","710 RENSSELAER AVE, OGDENSBURG, NY, 13669",155176673,"R"
277986,"710 RIDGE RD","WILMETTE","IL",60091,42.076803189,-87.722542776,486,"710 RIDGE RD, WILMETTE, IL, 60091","Match","Exact","710 RIDGE RD, WILMETTE, IL, 60091",639788619,"R"
277987,"710 RIDGECREST LANE","ROCKY POINT","NC",28457,34.3796557970001,-77.931593482,487,"710 RIDGECREST LANE, ROCKY POINT, NC, 28457","Match","Exact","710 RIDGECREST LN, ROCKY POINT, NC, 28457",627149933,"R"
277988,"710 ROLLING DUNES","HUTCHINSON","KS",67502,38.1425571620001,-97.918102554,488,"710 ROLLING DUNES, HUTCHINSON, KS, 67502","Match","Non_Exact","710 ROLLING DUNES RD, HUTCHINSON, KS, 67502",142932008,"R"
277989,"710 ROY ST","HOUSTON","TX",77007,29.7683434420001,-95.4124486379999,489,"710 ROY ST, HOUSTON, TX, 77007","Match","Exact","710 ROY ST, HOUSTON, TX, 77007",96060692,"R"
277990,"710 S 17TH ST","NEWARK","NJ",7103,40.7309868560001,-74.211081626,490,"710 S 17TH ST, NEWARK, NJ, 7103","Match","Exact","710 S 17TH ST, NEWARK, NJ, 07103",63465487,"L"
277991,"710 S 3RD ST APT 210","MILWAUKEE","WI",53204,43.02404377,-87.914026964,491,"710 S 3RD ST APT 210, MILWAUKEE, WI, 53204","Match","Non_Exact","710 S 3RD ST, MILWAUKEE, WI, 53204",77742504,"L"
277992,"710 S CLINTON STREET 3B","DENVER","CO",80247,39.7046586750001,-104.876158625,492,"710 S CLINTON STREET 3B, DENVER, CO, 80247","Match","Non_Exact","710 S CLINTON ST, DENVER, CO, 80247",612878011,"L"
277993,"710 S EARLING AVE","MILES CITY","MT",59301,46.401693579,-105.829113141,493,"710 S EARLING AVE, MILES CITY, MT, 59301","Match","Exact","710 S EARLING AVE, MILES CITY, MT, 59301",150397747,"R"
277994,"710 S EDGEFIELD AVENUE","DALLAS","TX",75208,32.738885893,-96.84419049,494,"710 S EDGEFIELD AVENUE, DALLAS, TX, 75208","Match","Exact","710 S EDGEFIELD AVE, DALLAS, TX, 75208",102946380,"L"
277995,"710 S FM 55","ITALY","TX",76651,32.192352268,-96.781137096,495,"710 S FM 55, ITALY, TX, 76651","Match","Exact","710 FM 55, ITALY, TX, 76651",648770603,"L"
277996,"710 S IDAHO ROAD","LIBERTY LAKE","WA",99019,47.650821066,-117.046111312,496,"710 S IDAHO ROAD, LIBERTY LAKE, WA, 99019","Match","Exact","710 S IDAHO RD, LIBERTY LAKE, WA, 99019",189892157,"R"
277997,"710 S MAIN ST RM 649","HARRISON","VA",22801,NA,NA,497,"710 S MAIN ST RM 649, HARRISON, VA, 22801","No_Match",NA,NA,NA,NA
277998,"710 S MYRTLE AVE STE 645","MONROVIA","CA",91016,34.144668219,-118.000937973,498,"710 S MYRTLE AVE STE 645, MONROVIA, CA, 91016","Match","Non_Exact","710 S MYRTLE AVE, MONROVIA, CA, 91016",142743645,"L"
277999,"710 S MYRTLE AVENUE - UNIT 284","MONROVIA","CA",91016,34.144668219,-118.000937973,499,"710 S MYRTLE AVENUE - UNIT 284, MONROVIA, CA, 91016","Match","Non_Exact","710 S MYRTLE AVE, MONROVIA, CA, 91016",142743645,"L"
278000,"710 S SAN PEDRO","LAS CRUCES","NM",88001,32.305008319,-106.773884761,500,"710 S SAN PEDRO, LAS CRUCES, NM, 88001","Match","Non_Exact","710 S SAN PEDRO ST, LAS CRUCES, NM, 88001",189545365,"R"
