"ID","Address","City","State","Zip","lat","long","id","input_address","match_indicator","match_type","matched_address","tiger_line_id","tiger_side"
181501,"3460 N PACIFIC AVE","CHICAGO","IL",60634,41.942307504,-87.826525289,1,"3460 N PACIFIC AVE, CHICAGO, IL, 60634","Match","Exact","3460 N PACIFIC AVE, CHICAGO, IL, 60634",111747204,"L"
181502,"3460 N STATE ROAD 32","KAMAS","UT",84036,NA,NA,2,"3460 N STATE ROAD 32, KAMAS, UT, 84036","No_Match",NA,NA,NA,NA
181503,"3460 NE RALPH POWELL ROAD","LEES SUMMIT","MO",64064,38.9741755100001,-94.358620999,3,"3460 NE RALPH POWELL ROAD, LEES SUMMIT, MO, 64064","Match","Exact","3460 NE RALPH POWELL RD, LEES SUMMIT, MO, 64064",648269349,"R"
181504,"3460 ORWOOD RD","BRENTWOOD","CA",94513,NA,NA,4,"3460 ORWOOD RD, BRENTWOOD, CA, 94513","No_Match",NA,NA,NA,NA
181505,"3460 S  3600 W","WEST VALLEY CITY","UT",84119,40.6980817570001,-111.977089929,5,"3460 S  3600 W, WEST VALLEY CITY, UT, 84119","Match","Exact","3460 3600 W, WEST VALLEY CITY, UT, 84119",652893530,"R"
181506,"3460 S 400 W","KOKOMO","IN",46902,40.42599448,-86.203077949,6,"3460 S 400 W, KOKOMO, IN, 46902","Match","Non_Exact","3460 CO RD S 400 W, KOKOMO, IN, 46902",27285434,"L"
181507,"3460 S LELAND STREET","SAN PEDRO","CA",90731,33.7163734230001,-118.302268144,7,"3460 S LELAND STREET, SAN PEDRO, CA, 90731","Match","Exact","3460 S LELAND ST, SAN PEDRO, CA, 90731",141690444,"L"
181508,"3460 W LAWRENCE","CHICAGO","IL",60625,41.9683899730001,-87.715150337,8,"3460 W LAWRENCE, CHICAGO, IL, 60625","Match","Non_Exact","3460 W LAWRENCE AVE, CHICAGO, IL, 60625",111756527,"R"
181509,"3460 W MORGAN RD","TUCSON","AZ",85745,32.261536133,-111.039590163,9,"3460 W MORGAN RD, TUCSON, AZ, 85745","Match","Exact","3460 W MORGAN RD, TUCSON, AZ, 85745",121228824,"R"
181510,"3460 W SONOMA AVE","STOCKTON","CA",95204,37.965973326,-121.349860004,10,"3460 W SONOMA AVE, STOCKTON, CA, 95204","Match","Exact","3460 W SONOMA AVE, STOCKTON, CA, 95204",133843278,"L"
181511,"34600 BAINBRIDGE RD","N RIDGEVILLE","OH",44039,41.385188569,-82.0021543029999,11,"34600 BAINBRIDGE RD, N RIDGEVILLE, OH, 44039","Match","Exact","34600 BAINBRIDGE RD, N RIDGEVILLE, OH, 44039",55425533,"R"
181512,"34600 BAINBRIDGE ROAD","NORTH RIDGEVILLE","OH",44039,41.385188569,-82.0021543029999,12,"34600 BAINBRIDGE ROAD, NORTH RIDGEVILLE, OH, 44039","Match","Exact","34600 BAINBRIDGE RD, N RIDGEVILLE, OH, 44039",55425533,"R"
181513,"34600 W LANE","OYSTERVILLE","WA",98641,46.5511749360001,-124.041095921,13,"34600 W LANE, OYSTERVILLE, WA, 98641","Match","Non_Exact","34600 W LN, OYSTERVILLE, WA, 98641",176014379,"R"
181514,"34600 WEST JEFFERSON AVE","ROCKWOOD","MI",48173,42.0553003650001,-83.212768763,14,"34600 WEST JEFFERSON AVE, ROCKWOOD, MI, 48173","Match","Exact","34600 W JEFFERSON AVE, ROCKWOOD, MI, 48173",95460212,"R"
181515,"34603 PLUMLEY RD","CATHEDRAL CITY","CA",92234,33.795987111,-116.449383062,15,"34603 PLUMLEY RD, CATHEDRAL CITY, CA, 92234","Match","Exact","34603 PLUMLEY RD, CATHEDRAL CITY, CA, 92234",651005001,"R"
181516,"34604 HIDDEN PINE DR","FRASER","MI",48026,42.5507138740001,-82.9659876429999,16,"34604 HIDDEN PINE DR, FRASER, MI, 48026","Match","Exact","34604 HIDDEN PINE DR, FRASER, MI, 48026",642576138,"R"
181517,"34607 FIELDING CT","FREMONT","CA",94555,37.5693017030001,-122.040389072,17,"34607 FIELDING CT, FREMONT, CA, 94555","Match","Exact","34607 FIELDING CT, FREMONT, CA, 94555",125026877,"R"
181518,"3461 CAMAK DR","AUGUSTA","GA",30909,33.4599596800001,-82.094613227,18,"3461 CAMAK DR, AUGUSTA, GA, 30909","Match","Exact","3461 CAMAK DR, AUGUSTA, GA, 30909",640040131,"L"
181519,"3461 FLORIDA AVE","MIAMI","FL",33133,25.728501678,-80.2492795209999,19,"3461 FLORIDA AVE, MIAMI, FL, 33133","Match","Exact","3461 FLORIDA AVE, MIAMI, FL, 33133",116014571,"R"
181520,"3461 FOOTHILL DR","PROVO","UT",84604,40.280258889,-111.637763837,20,"3461 FOOTHILL DR, PROVO, UT, 84604","Match","Exact","3461 FOOTHILL DR, PROVO, UT, 84604",134208388,"L"
181521,"3461 HULBERTON RD","HOLLEY","NY",14470,43.2506755960001,-78.066146478,21,"3461 HULBERTON RD, HOLLEY, NY, 14470","Match","Exact","3461 HULBERTON RD, HOLLEY, NY, 14470",48808836,"R"
181522,"3461 LOWER GLADES ROAD","YORK","PA",17406,40.0129935860001,-76.6785989269999,22,"3461 LOWER GLADES ROAD, YORK, PA, 17406","Match","Exact","3461 LOWER GLADES RD, YORK, PA, 17406",611413060,"R"
181523,"3461 MYNA LANE","MIAMISBURG","OH",45342,39.5922835200001,-84.2566231389999,23,"3461 MYNA LANE, MIAMISBURG, OH, 45342","Match","Exact","3461 MYNA LN, MIAMISBURG, OH, 45342",624759147,"L"
181524,"3461 PREBLE CREEK PARKWAY","BROOMFIELD","CO",80023,NA,NA,24,"3461 PREBLE CREEK PARKWAY, BROOMFIELD, CO, 80023","No_Match",NA,NA,NA,NA
181525,"3461 PRECISION DRIVE","FORT COLLINS","CO",80528,40.5179223120001,-105.013930104,25,"3461 PRECISION DRIVE, FORT COLLINS, CO, 80528","Match","Exact","3461 PRECISION DR, FORT COLLINS, CO, 80528",188585214,"R"
181526,"3461 SE 120 ST","RAGO","KS",67142,37.4721524550001,-98.0539394199999,26,"3461 SE 120 ST, RAGO, KS, 67142","Match","Exact","3461 SE 120 ST, RAGO, KS, 67142",160963223,"L"
181527,"3461 SIBLEY LN","LAFAYETTE","IN",47909,40.3754811910001,-86.8931557559999,27,"3461 SIBLEY LN, LAFAYETTE, IN, 47909","Match","Exact","3461 SIBLEY LN, LAFAYETTE, IN, 47909",27317310,"L"
181528,"3461 SOUTH 3200 WEST","WEST VALLEY CITY","UT",84119,40.697427147,-111.967527851,28,"3461 SOUTH 3200 WEST, WEST VALLEY CITY, UT, 84119","Match","Non_Exact","3461 S 3200 W, S SALT LAKE, UT, 84119",634428564,"L"
181529,"3461 SUMMERHILL DR","MONTGOMERY","AL",36111,32.336476073,-86.247163346,29,"3461 SUMMERHILL DR, MONTGOMERY, AL, 36111","Match","Exact","3461 SUMMERHILL DR, MONTGOMERY, AL, 36111",1488836,"R"
181530,"3461 WINDLESHORE WAY","SANFORD","FL",32773,28.7660535580001,-81.276148339,30,"3461 WINDLESHORE WAY, SANFORD, FL, 32773","Match","Exact","3461 WINDLESHORE WAY, SANFORD, FL, 32773",615336798,"L"
181531,"34618 8TH AVE SW","FEDERAL WAY","WA",98023,47.2913398310001,-122.344922364,31,"34618 8TH AVE SW, FEDERAL WAY, WA, 98023","Match","Exact","34618 8TH AVE SW, FEDERAL WAY, WA, 98023",239775248,"R"
181532,"3462 3RD AVENUE APT 11F","BRONX","NY",10456,40.8296703350001,-73.906461806,32,"3462 3RD AVENUE APT 11F, BRONX, NY, 10456","Match","Exact","3462 3RD AVE, BRONX, NY, 10456",80301930,"R"
181533,"3462 CABERNET SHORES DR","FULSHEAR","TX",77441,NA,NA,33,"3462 CABERNET SHORES DR, FULSHEAR, TX, 77441","No_Match",NA,NA,NA,NA
181534,"3462 E RIOPELLE AVE","GILBERT","AZ",85298,33.2265932450001,-111.714559268,34,"3462 E RIOPELLE AVE, GILBERT, AZ, 85298","Match","Exact","3462 RIOPELLE AVE, GILBERT, AZ, 85298",128874839,"L"
181535,"3462 HINES VALLEY ROAD","LENOIR CITY","TN",37771,35.832403464,-84.308402729,35,"3462 HINES VALLEY ROAD, LENOIR CITY, TN, 37771","Match","Exact","3462 HINES VALLEY RD, LENOIR CITY, TN, 37771",610243077,"L"
181536,"3462 N MOUNTAIN VIEW DR","SAN DIEGO","CA",92116,32.7714500430001,-117.118122691,36,"3462 N MOUNTAIN VIEW DR, SAN DIEGO, CA, 92116","Match","Exact","3462 N MOUNTAIN VIEW DR, SAN DIEGO, CA, 92116",612871850,"L"
181537,"3462 NE 12TH TERRACE","OAKLAND PARK","FL",33334,26.1708144670001,-80.130412936,37,"3462 NE 12TH TERRACE, OAKLAND PARK, FL, 33334","Match","Exact","3462 NE 12TH TER, OAKLAND PARK, FL, 33334",114765780,"R"
181538,"3462 VAN MUNCHING HALL","COLLEGE PARK","MD",20742,NA,NA,38,"3462 VAN MUNCHING HALL, COLLEGE PARK, MD, 20742","No_Match",NA,NA,NA,NA
181539,"34620 9TH AVE S","FEDERAL WAY","WA",98003,47.291681592,-122.32295497,39,"34620 9TH AVE S, FEDERAL WAY, WA, 98003","Match","Exact","34620 9TH AVE S, FEDERAL WAY, WA, 98003",239768060,"L"
181540,"34620 BAINBRIDGE RD","NORTH RIDGEVILLE","OH",44039,41.385189258,-82.002411346,40,"34620 BAINBRIDGE RD, NORTH RIDGEVILLE, OH, 44039","Match","Exact","34620 BAINBRIDGE RD, N RIDGEVILLE, OH, 44039",55425533,"R"
181541,"34625 ANCHOR DRIVE","FREMONT","CA",94555,37.5738516380001,-122.035430269,41,"34625 ANCHOR DRIVE, FREMONT, CA, 94555","Match","Exact","34625 ANCHOR DR, FREMONT, CA, 94555",125026905,"R"
181542,"34625 W KLONDYKE RD","WILLCOX","AZ",85643,NA,NA,42,"34625 W KLONDYKE RD, WILLCOX, AZ, 85643","No_Match",NA,NA,NA,NA
181543,"34627 SARAH BETH LN","LIVONIA","MI",48152,42.4388753010001,-83.3876569,43,"34627 SARAH BETH LN, LIVONIA, MI, 48152","Match","Non_Exact","34627 SARAH BETH, LIVONIA, MI, 48152",617660733,"L"
181544,"3463 GOODE RD","GOODE","VA",24556,37.3267016240001,-79.387050184,44,"3463 GOODE RD, GOODE, VA, 24556","Match","Exact","3463 GOODE RD, GOODE, VA, 24556",62676333,"R"
181545,"3463 KNIGHTS ACADEMY ROAD","VALDOSTA","GA",31605,30.8970162040001,-83.258741479,45,"3463 KNIGHTS ACADEMY ROAD, VALDOSTA, GA, 31605","Match","Exact","3463 KNIGHTS ACADEMY RD, VALDOSTA, GA, 31605",87735523,"L"
181546,"3463 NW CREST DRIVE","CORVALLIS","OR",97330,44.583040297,-123.289523146,46,"3463 NW CREST DRIVE, CORVALLIS, OR, 97330","Match","Exact","3463 NW CREST DR, CORVALLIS, OR, 97330",155861999,"L"
181547,"3463 STATE STREET NO 182","SANTA BARBARA","CA",93105,34.4404056130001,-119.738538591,47,"3463 STATE STREET NO 182, SANTA BARBARA, CA, 93105","Match","Non_Exact","3463 STATE ST, SANTA BARBARA, CA, 93105",108603499,"L"
181548,"3463 SW BINFORD WAY","GRESHAM","OR",97080,45.472231519,-122.459903471,48,"3463 SW BINFORD WAY, GRESHAM, OR, 97080","Match","Exact","3463 SW BINFORD WAY, GRESHAM, OR, 97080",157604266,"R"
181549,"3463 WEST 76TH AVE","WESTMINSTER","CO",80030,39.8345408210001,-105.031551234,49,"3463 WEST 76TH AVE, WESTMINSTER, CO, 80030","Match","Exact","3463 W 76TH AVE, WESTMINSTER, CO, 80030",177294447,"R"
181550,"3463 WOODPATH DRIVE","FLORISSANT","MO",63031,38.834844724,-90.3186145079999,50,"3463 WOODPATH DRIVE, FLORISSANT, MO, 63031","Match","Exact","3463 WOODPATH DR, FLORISSANT, MO, 63031",100116355,"L"
181551,"34634 BAY CROSSING BLVD UNIT 4","LEWES","DE",19958,NA,NA,51,"34634 BAY CROSSING BLVD UNIT 4, LEWES, DE, 19958","No_Match",NA,NA,NA,NA
181552,"3464 CARBONDALE RD","PALMYRA","TN",37142,NA,NA,52,"3464 CARBONDALE RD, PALMYRA, TN, 37142","No_Match",NA,NA,NA,NA
181553,"3464 GOODE ROAD","GOODE","VA",24556,37.326755867,-79.3871338929999,53,"3464 GOODE ROAD, GOODE, VA, 24556","Match","Exact","3464 GOODE RD, GOODE, VA, 24556",62676333,"L"
181554,"3464 HARRINGTON DRIVE","ELLICOTT CITY","MD",21042,39.2760855720001,-76.8373599459999,54,"3464 HARRINGTON DRIVE, ELLICOTT CITY, MD, 21042","Match","Exact","3464 HARRINGTON DR, ELLICOTT CITY, MD, 21042",647294489,"R"
181555,"3464 MOUNT CARMEL ROAD","CINCINNATI","OH",45244,39.119890882,-84.3086072139999,55,"3464 MOUNT CARMEL ROAD, CINCINNATI, OH, 45244","Match","Exact","3464 MOUNT CARMEL RD, CINCINNATI, OH, 45244",103940252,"R"
181556,"3464 N KNIGHTS WAY","PRESCOTT VALLEY","AZ",86314,34.5930836060001,-112.356970973,56,"3464 N KNIGHTS WAY, PRESCOTT VALLEY, AZ, 86314","Match","Exact","3464 N KNIGHTS WAY, PRESCOTT VALLEY, AZ, 86314",159460810,"L"
181557,"3464 W  3800 SOUTH","WEST VALLEY CITY","UT",84119,40.6893778250001,-111.973942508,57,"3464 W  3800 SOUTH, WEST VALLEY CITY, UT, 84119","Match","Exact","3464 W 3800 S, WEST VALLEY CITY, UT, 84119",176070208,"R"
181558,"3464 WOODBAUGH DR","CHESAPEAKE","VA",23321,36.859729427,-76.4195101459999,58,"3464 WOODBAUGH DR, CHESAPEAKE, VA, 23321","Match","Exact","3464 WOODBAUGH DR, CHESAPEAKE, VA, 23321",121767654,"L"
181559,"34640 FLORENCE","WESTLAND","MI",48185,42.3136846630001,-83.38128392,59,"34640 FLORENCE, WESTLAND, MI, 48185","Match","Non_Exact","34640 FLORENCE ST, WESTLAND, MI, 48185",95414137,"R"
181560,"34641","LOUISVILLE","KY",40232,NA,NA,60,"34641, LOUISVILLE, KY, 40232","No_Match",NA,NA,NA,NA
181561,"34645 BELLA VISTA DR","YUCAIPA","CA",92399,NA,NA,61,"34645 BELLA VISTA DR, YUCAIPA, CA, 92399","No_Match",NA,NA,NA,NA
181562,"346482 EAST 930 RD","CHANDLER","OK",74834,35.6662670060001,-96.832786488,62,"346482 EAST 930 RD, CHANDLER, OK, 74834","Match","Exact","346482 E 930 RD, CHANDLER, OK, 74834",649049362,"R"
181563,"3465 ALFRED ROAD","NORTH PORT","FL",34286,27.0876713230001,-82.184056176,63,"3465 ALFRED ROAD, NORTH PORT, FL, 34286","Match","Exact","3465 ALFRED RD, NORTH PORT, FL, 34286",16339044,"L"
181564,"3465 BRODERICK ST","SAN FRANCISCO","CA",94123,37.802213926,-122.44501653,64,"3465 BRODERICK ST, SAN FRANCISCO, CA, 94123","Match","Exact","3465 BRODERICK ST, SAN FRANCISCO, CA, 94123",192279402,"L"
181565,"3465 CANEY CREEK","CUMMING","GA",30041,34.093503739,-84.191482229,65,"3465 CANEY CREEK, CUMMING, GA, 30041","Match","Non_Exact","3465 CANEY CREEK LN, CUMMING, GA, 30041",634101557,"L"
181566,"3465 CHESTERFIELD DRIVE","PERRIS","CA",92571,33.8351298590001,-117.206038855,66,"3465 CHESTERFIELD DRIVE, PERRIS, CA, 92571","Match","Exact","3465 CHESTERFIELD DR, PERRIS, CA, 92571",195090378,"R"
181567,"3465 DOMI-FITZ CT","ORLANDO","FL",32805,28.540997932,-81.420951687,67,"3465 DOMI-FITZ CT, ORLANDO, FL, 32805","Match","Non_Exact","3465 DOMI FITZ CT, ORLANDO, FL, 32805",94273568,"R"
181568,"3465 GREEN RD SUITE 2B","BEACHWOOD","OH",44122,41.465285921,-81.516504169,68,"3465 GREEN RD SUITE 2B, BEACHWOOD, OH, 44122","Match","Exact","3465 GREEN RD, BEACHWOOD, OH, 44122",61143755,"L"
181569,"3465 LAKE DRIVE SE","GRAND RAPIDS","MI",49546,42.9378188800001,-85.583352114,69,"3465 LAKE DRIVE SE, GRAND RAPIDS, MI, 49546","Match","Exact","3465 LAKE DR SE, GRAND RAPIDS, MI, 49546",12472769,"L"
181570,"3465 LOCHWOOD DR K45","FORT COLLINS","CO",80525,40.540868403,-105.048821039,70,"3465 LOCHWOOD DR K45, FORT COLLINS, CO, 80525","Match","Exact","3465 LOCHWOOD DR, FORT COLLINS, CO, 80525",609037675,"R"
181571,"3465 MAEBERT ROAD","MIMS","FL",32754,28.7300476500001,-80.8562272249999,71,"3465 MAEBERT ROAD, MIMS, FL, 32754","Match","Exact","3465 MAEBERT RD, MIMS, FL, 32754",601722596,"R"
181572,"3465 N CRAMER ST","MILWAUKEE","WI",53211,43.0810419650001,-87.886467104,72,"3465 N CRAMER ST, MILWAUKEE, WI, 53211","Match","Exact","3465 N CRAMER ST, MILWAUKEE, WI, 53211",77743690,"L"
181573,"3465 N PINES WAY","WILSON","WY",83014,NA,NA,73,"3465 N PINES WAY, WILSON, WY, 83014","Tie",NA,NA,NA,NA
181574,"3465 NE 36TH AVE","PORTLAND","OR",97212,45.5479150530001,-122.626087415,74,"3465 NE 36TH AVE, PORTLAND, OR, 97212","Match","Exact","3465 NE 36TH AVE, PORTLAND, OR, 97212",157506532,"L"
181575,"3465 NW 138TH STREET","SMITHVILLE","MO",64089,NA,NA,75,"3465 NW 138TH STREET, SMITHVILLE, MO, 64089","No_Match",NA,NA,NA,NA
181576,"3465 NW 2ND AVE","MIAMI","FL",33127,25.8093102920001,-80.199359536,76,"3465 NW 2ND AVE, MIAMI, FL, 33127","Match","Exact","3465 NW 2ND AVE, MIAMI, FL, 33127",116007488,"R"
181577,"3465 PATTERSON DR","ALPHARETTA","GA",30022,NA,NA,77,"3465 PATTERSON DR, ALPHARETTA, GA, 30022","No_Match",NA,NA,NA,NA
181578,"3465 PHILLIPS HWY 816","JACKSONVILLE","FL",32207,30.2915978820001,-81.636935431,78,"3465 PHILLIPS HWY 816, JACKSONVILLE, FL, 32207","Match","Non_Exact","3465 PHILIPS HWY, JACKSONVILLE, FL, 32207",83915914,"L"
181579,"3465 S ARLINGTON RD STE E 212","AKRON","OH",44312,40.9763828810001,-81.4932904349999,79,"3465 S ARLINGTON RD STE E 212, AKRON, OH, 44312","Match","Non_Exact","3465 S ARLINGTON RD, AKRON, OH, 44312",61387728,"L"
181580,"3465 S DEL MAR CT","FLAGSTAFF","AZ",86005,35.152463997,-111.636568593,80,"3465 S DEL MAR CT, FLAGSTAFF, AZ, 86005","Match","Exact","3465 S DEL MAR CT, FLAGSTAFF, AZ, 86005",189147979,"L"
181581,"3465 S GAYLORD CT APT B231","ENGLEWOOD","CO",80113,39.653751512,-104.960992594,81,"3465 S GAYLORD CT APT B231, ENGLEWOOD, CO, 80113","Match","Non_Exact","3465 S GAYLORD CT, ENGLEWOOD, CO, 80113",645238414,"R"
181582,"3465 S GREENE STREET","FARMVILLE","NC",27828,35.593117239,-77.585583146,82,"3465 S GREENE STREET, FARMVILLE, NC, 27828","Match","Non_Exact","3465 S GREEN ST, FARMVILLE, NC, 27828",80041055,"R"
181583,"3465 S SWAN DRIVE","GILBERT","AZ",85297,33.287989333,-111.691541666,83,"3465 S SWAN DRIVE, GILBERT, AZ, 85297","Match","Exact","3465 S SWAN DR, GILBERT, AZ, 85297",601671300,"R"
181584,"3465 SHERR AVE SE","CANTON","OH",44707,40.756048924,-81.341584715,84,"3465 SHERR AVE SE, CANTON, OH, 44707","Match","Exact","3465 SHERR AVE SE, CANTON, OH, 44707",64686167,"R"
181585,"3465 SLEEPY HILL OAKS STREET","LAKELAND","FL",33810,28.090268403,-82.0131994289999,85,"3465 SLEEPY HILL OAKS STREET, LAKELAND, FL, 33810","Match","Exact","3465 SLEEPY HILL OAKS ST, LAKELAND, FL, 33810",618500663,"R"
181586,"3465 SUTTERS POND RUN NW","KENNESAW","GA",30152,NA,NA,86,"3465 SUTTERS POND RUN NW, KENNESAW, GA, 30152","No_Match",NA,NA,NA,NA
181587,"3465 TOD AVE NW","WARREN","OH",44485,41.2622491270001,-80.848924397,87,"3465 TOD AVE NW, WARREN, OH, 44485","Match","Exact","3465 TOD AVE NW, WARREN, OH, 44485",117403949,"L"
181588,"3465 TORRANCE BLVD STE C","TORRANCE","CA",90503,33.837570296,-118.346301542,88,"3465 TORRANCE BLVD STE C, TORRANCE, CA, 90503","Match","Exact","3465 TORRANCE BLVD, TORRANCE, CA, 90503",641497726,"R"
181589,"3465 TORRANCE BLVD STE N","TORRANCE","CA",90503,33.837570296,-118.346301542,89,"3465 TORRANCE BLVD STE N, TORRANCE, CA, 90503","Match","Exact","3465 TORRANCE BLVD, TORRANCE, CA, 90503",641497726,"R"
181590,"34650 MELINZ PARKWAY","EASTLAKE","OH",44095,41.636473714,-81.442746845,90,"34650 MELINZ PARKWAY, EASTLAKE, OH, 44095","Match","Exact","34650 MELINZ PKWY, EASTLAKE, OH, 44095",137460239,"R"
181591,"34658 CAMINO CAPISTRANO","CAPISTRANO BEACH","CA",92624,NA,NA,91,"34658 CAMINO CAPISTRANO, CAPISTRANO BEACH, CA, 92624","No_Match",NA,NA,NA,NA
181592,"3466 125TH AVE","ALLEGAN","MI",49010,42.6013129990001,-85.885336443,92,"3466 125TH AVE, ALLEGAN, MI, 49010","Match","Exact","3466 125TH AVE, ALLEGAN, MI, 49010",11417924,"R"
181593,"3466 BOLTON AVENUE","COLUMBUS","OH",43227,39.9496104880001,-82.904065708,93,"3466 BOLTON AVENUE, COLUMBUS, OH, 43227","Match","Exact","3466 BOLTON AVE, COLUMBUS, OH, 43227",218678763,"L"
181594,"3466 HENDERSON RESERVE","ATLANTA","GA",30341,33.879055755,-84.24710999,94,"3466 HENDERSON RESERVE, ATLANTA, GA, 30341","Match","Exact","3466 HENDERSON RESERVE, ATLANTA, GA, 30341",23401274,"L"
181595,"3466 IVY PLACE","WAYZATA","MN",55391,44.9238948400001,-93.611868562,95,"3466 IVY PLACE, WAYZATA, MN, 55391","Match","Exact","3466 IVY PL, WAYZATA, MN, 55391",43818401,"R"
181596,"3466 KIVETON DRIVE","NORCROSS","GA",30092,33.9560722790001,-84.2366154649999,96,"3466 KIVETON DRIVE, NORCROSS, GA, 30092","Match","Exact","3466 KIVETON DR, NORCROSS, GA, 30092",624954272,"R"
181597,"3466 N ACE LANE","LEHI","UT",84043,40.4306331390001,-111.846569045,97,"3466 N ACE LANE, LEHI, UT, 84043","Match","Non_Exact","3468 N ACE LN, LEHI, UT, 84043",651943277,"R"
181598,"3466 PROGRESS DRIVE SUITE 200","BENSALEM","PA",19020,40.084667573,-74.928326826,98,"3466 PROGRESS DRIVE SUITE 200, BENSALEM, PA, 19020","Match","Exact","3466 PROGRESS DR, BENSALEM, PA, 19020",134775076,"L"
181599,"3466 ROCKWOOD AVE","MEMPHIS","TN",38122,35.165857621,-89.944854931,99,"3466 ROCKWOOD AVE, MEMPHIS, TN, 38122","Match","Exact","3466 ROCKWOOD AVE, MEMPHIS, TN, 38122",72915179,"L"
181600,"3466 TAMPA ST","PHILADELPHIA","PA",19134,40.0012102850001,-75.1175329069999,100,"3466 TAMPA ST, PHILADELPHIA, PA, 19134","Match","Exact","3466 TAMPA ST, PHILADELPHIA, PA, 19134",131421010,"L"
181601,"3467 14TH STREET NW UNIT 2","WASHINGTON","DC",20010,38.934160488,-77.032722984,101,"3467 14TH STREET NW UNIT 2, WASHINGTON, DC, 20010","Match","Exact","3467 14TH ST NW, WASHINGTON, DC, 20010",76222963,"R"
181602,"3467 9 1/2 MILE RD","BURLINGTON","MI",49029,42.123127578,-85.10946559,102,"3467 9 1/2 MILE RD, BURLINGTON, MI, 49029","Match","Exact","3467 9 1/2 MILE RD, BURLINGTON, MI, 49029",11710457,"L"
181603,"3467 EASTCHESTER RD SUITE 3E","BRONX","NY",10169,40.878122939,-73.8469649259999,103,"3467 EASTCHESTER RD SUITE 3E, BRONX, NY, 10169","Match","Non_Exact","3467 EASTCHESTER RD, BRONX, NY, 10469",80298011,"L"
181604,"3467 GOLDEN VALLEY LANE","BARLETT","TN",38133,35.219707299,-89.7859126229999,104,"3467 GOLDEN VALLEY LANE, BARLETT, TN, 38133","Match","Non_Exact","3467 GOLDEN VALLEY LN, BARTLETT, TN, 38133",617979072,"L"
181605,"3467 GOLDEN VALLEY LANE","BARTLETT","TN",38133,35.219707299,-89.7859126229999,105,"3467 GOLDEN VALLEY LANE, BARTLETT, TN, 38133","Match","Exact","3467 GOLDEN VALLEY LN, BARTLETT, TN, 38133",617979072,"L"
181606,"3467 MILITARY ROAD","COLUMBUS","MS",39705,33.534030194,-88.393260652,106,"3467 MILITARY ROAD, COLUMBUS, MS, 39705","Match","Exact","3467 MILITARY RD, COLUMBUS, MS, 39705",639857185,"L"
181607,"3467 N VERANO CT","CHANDLER","AZ",85224,33.3560738190001,-111.86398795,107,"3467 N VERANO CT, CHANDLER, AZ, 85224","Match","Exact","3467 N VERANO CT, CHANDLER, AZ, 85224",128331607,"R"
181608,"3467 PALACE COURT","PENNSAUKEN","NJ",8109,39.9641004440001,-75.021786592,108,"3467 PALACE COURT, PENNSAUKEN, NJ, 8109","Match","Exact","3467 PALACE CT, PENNSAUKEN, NJ, 08109",134420622,"L"
181609,"3467 RED ARROW DR","LEBANON","OR",97355,44.5088700330001,-122.906579353,109,"3467 RED ARROW DR, LEBANON, OR, 97355","Match","Exact","3467 RED ARROW DR, LEBANON, OR, 97355",636675076,"L"
181610,"3467 RED ROSE DRIVE","ENCINO","CA",91436,34.134261859,-118.487858271,110,"3467 RED ROSE DRIVE, ENCINO, CA, 91436","Match","Exact","3467 RED ROSE DR, ENCINO, CA, 91436",141557025,"L"
181611,"3467 ROLSTON ROAD","FENTON","MI",48430,42.8306762560001,-83.7467423319999,111,"3467 ROLSTON ROAD, FENTON, MI, 48430","Match","Exact","3467 ROLSTON RD, FENTON, MI, 48430",69598464,"R"
181612,"3467 SWANSEE RIDGE","SUN PRAIRIE","WI",53590,43.1909790180001,-89.266669386,112,"3467 SWANSEE RIDGE, SUN PRAIRIE, WI, 53590","Match","Exact","3467 SWANSEE RIDGE, SUN PRAIRIE, WI, 53590",49478402,"L"
181613,"3467 THIRD AVE","BRONX","NY",10456,40.829952227,-73.906348871,113,"3467 THIRD AVE, BRONX, NY, 10456","Match","Exact","3467 3RD AVE, BRONX, NY, 10456",80301930,"L"
181614,"34670 HIGHWAY 200","SIDNEY","MT",59270,47.6889837300001,-104.238487985,114,"34670 HIGHWAY 200, SIDNEY, MT, 59270","Match","Non_Exact","34670 STATE HWY 200, SIDNEY, MT, 59270",634393069,"R"
181615,"3468 AUGUSTA STREET","ATLANTA","GA",30349,33.605860454,-84.5021895199999,115,"3468 AUGUSTA STREET, ATLANTA, GA, 30349","Match","Exact","3468 AUGUSTA ST, ATLANTA, GA, 30349",629829250,"L"
181616,"3468 CEDER VALLEY CT SE","SMYRNA","GA",30080,33.8655801580001,-84.504044909,116,"3468 CEDER VALLEY CT SE, SMYRNA, GA, 30080","Match","Non_Exact","3468 CEDAR VALLEY CT, SMYRNA, GA, 30080",17207276,"R"
181617,"3468 COVENTRY DR","VESTAVIA","AL",35243,33.4372193990001,-86.764446436,117,"3468 COVENTRY DR, VESTAVIA, AL, 35243","Match","Exact","3468 COVENTRY DR, VESTAVIA, AL, 35243",81629832,"R"
181618,"3468 DAFFODIL CRESCENT","VIRGINIA BEACH","VA",23453,36.8021041440001,-76.09356503,118,"3468 DAFFODIL CRESCENT, VIRGINIA BEACH, VA, 23453","Match","Exact","3468 DAFFODIL CRES, VIRGINIA BCH, VA, 23453",122268536,"R"
181619,"3468 N FULTON AVE","HAPEVILLE","GA",30354,33.659511191,-84.4084160529999,119,"3468 N FULTON AVE, HAPEVILLE, GA, 30354","Match","Exact","3468 N FULTON AVE, HAPEVILLE, GA, 30354",17349711,"L"
181620,"3468 PASTURE LANE","VIRGINIA BEACH","VA",23453,36.795207471,-76.084080376,120,"3468 PASTURE LANE, VIRGINIA BEACH, VA, 23453","Match","Exact","3468 PASTURE LN, VIRGINIA BCH, VA, 23453",122312042,"L"
181621,"34680 TEAL COMMON","FREMONT","CA",94555,37.56611072,-122.045448213,121,"34680 TEAL COMMON, FREMONT, CA, 94555","Match","Exact","34680 TEAL CMN, FREMONT, CA, 94555",125042269,"L"
181622,"34682 FM 803","LOS FRESNOS","TX",78566,NA,NA,122,"34682 FM 803, LOS FRESNOS, TX, 78566","No_Match",NA,NA,NA,NA
181623,"3469 BEULAH RD","COLUMBUS","OH",43224,40.035662668,-82.9945263709999,123,"3469 BEULAH RD, COLUMBUS, OH, 43224","Match","Exact","3469 BEULAH RD, COLUMBUS, OH, 43224",218657046,"L"
181624,"3469 EAST 118TH STREET","CLEVELAND","OH",44120,41.4646650500001,-81.600648346,124,"3469 EAST 118TH STREET, CLEVELAND, OH, 44120","Match","Exact","3469 E 118TH ST, CLEVELAND, OH, 44120",61126259,"L"
181625,"3469 HUNTERS RIDGE","WOODLAWN","TN",37191,36.500753161,-87.532172673,125,"3469 HUNTERS RIDGE, WOODLAWN, TN, 37191","Match","Exact","3469 HUNTERS RIDGE, WOODLAWN, TN, 37191",31835554,"L"
181626,"3469 LAWRENCEVILLE HIGHWAY","TUCKER","GA",30084,33.84033164,-84.234778982,126,"3469 LAWRENCEVILLE HIGHWAY, TUCKER, GA, 30084","Match","Exact","3469 LAWRENCEVILLE HWY, TUCKER, GA, 30084",649443283,"R"
181627,"3469 MANASSAS DRIVE","EDWARDSVILLE","IL",62025,38.7842467460001,-89.930674927,127,"3469 MANASSAS DRIVE, EDWARDSVILLE, IL, 62025","Match","Exact","3469 MANASSAS DR, EDWARDSVILLE, IL, 62025",107740699,"R"
181628,"3469 MEADOWLANE CIR SW","ATLANTA","GA",30331,33.6928932920001,-84.5026673089999,128,"3469 MEADOWLANE CIR SW, ATLANTA, GA, 30331","Match","Exact","3469 MEADOWLANE CIR SW, ATLANTA, GA, 30331",17337582,"R"
181629,"3469 NORTH EDISON STREET","ARLINGTON","VA",22207,38.9103555840001,-77.142560584,129,"3469 NORTH EDISON STREET, ARLINGTON, VA, 22207","Match","Exact","3469 N EDISON ST, ARLINGTON, VA, 22207",76466840,"R"
181630,"3469 S HOLMES ROAD","SALINA","KS",67401,38.7739813250001,-97.557548249,130,"3469 S HOLMES ROAD, SALINA, KS, 67401","Match","Exact","3469 S HOLMES RD, SALINA, KS, 67401",196687511,"R"
181631,"3469 WASATCH RANGE LOOP","PENSACOLA","FL",32526,30.484395809,-87.3132670959999,131,"3469 WASATCH RANGE LOOP, PENSACOLA, FL, 32526","Match","Exact","3469 WASATCH RANGE LOOP, PENSACOLA, FL, 32526",617456790,"L"
181632,"34690 N HAPPY JACK DRIVE","QUEEN CREEK","AZ",85142,NA,NA,132,"34690 N HAPPY JACK DRIVE, QUEEN CREEK, AZ, 85142","Tie",NA,NA,NA,NA
181633,"34691 S 586 RD","JAY","OK",74346,36.516320916,-94.828354954,133,"34691 S 586 RD, JAY, OK, 74346","Match","Exact","34691 S 586 RD, JAY, OK, 74346",613659454,"L"
181634,"34695 OAK PL","DAGSBORO","DE",19939,38.581522406,-75.14638501,134,"34695 OAK PL, DAGSBORO, DE, 19939","Match","Exact","34695 OAK PL, DAGSBORO, DE, 19939",106097214,"R"
181635,"34699 YALE DRIVE","YUCAIPA","CA",92399,34.044678816,-117.049749354,135,"34699 YALE DRIVE, YUCAIPA, CA, 92399","Match","Exact","34699 YALE DR, YUCAIPA, CA, 92399",638616743,"L"
181636,"346B MAIN ST","PLAISTOW","NH",3865,42.8757589250001,-71.124731636,136,"346B MAIN ST, PLAISTOW, NH, 3865","Match","Exact","346 MAIN ST, PLAISTOW, NH, 03865",631707796,"L"
181637,"347 5TH AVENUE 1402 361","NEW YORK","NY",10016,40.74819777,-73.984726763,137,"347 5TH AVENUE 1402 361, NEW YORK, NY, 10016","Match","Exact","347 5TH AVE, NEW YORK, NY, 10016",59653473,"R"
181638,"347 6TH AVENUE APT 4","HUNTINGTON","WV",25701,38.4164573,-82.452141979,138,"347 6TH AVENUE APT 4, HUNTINGTON, WV, 25701","Match","Exact","347 6TH AVE, HUNTINGTON, WV, 25701",101317363,"R"
181639,"347 AVENUE A","PORT ALLEN","LA",70767,30.4516279150001,-91.20365264,139,"347 AVENUE A, PORT ALLEN, LA, 70767","Match","Exact","347 AVE A, PORT ALLEN, LA, 70767",92296918,"L"
181640,"347 BABLER ROAD","ST LOUIS","MO",63141,38.6493838800001,-90.495162443,140,"347 BABLER ROAD, ST LOUIS, MO, 63141","Match","Exact","347 BABLER RD, SAINT LOUIS, MO, 63141",604491742,"R"
181641,"347 BEECHWOOD DRIVE","GRANTS PASS","OR",97526,42.435387554,-123.400621745,141,"347 BEECHWOOD DRIVE, GRANTS PASS, OR, 97526","Match","Exact","347 BEECHWOOD DR, GRANTS PASS, OR, 97526",156585645,"R"
181642,"347 BENSON MANOR CIR SE","SMYRNA","GA",30082,33.895428544,-84.5431990709999,142,"347 BENSON MANOR CIR SE, SMYRNA, GA, 30082","Match","Exact","347 BENSON MANOR CIR SE, SMYRNA, GA, 30082",624689638,"L"
181643,"347 BRIDGE ROAD","AUBURNTOWN","TN",37016,35.9521636270001,-86.086291369,143,"347 BRIDGE ROAD, AUBURNTOWN, TN, 37016","Match","Exact","347 BRIDGE RD, AUBURNTOWN, TN, 37016",625375796,"R"
181644,"347 CANTERBURY COURT","HINSDALE","IL",60521,41.8150715720001,-87.9355526159999,144,"347 CANTERBURY COURT, HINSDALE, IL, 60521","Match","Exact","347 CANTERBURY CT, HINSDALE, IL, 60521",112549340,"R"
181645,"347 CHERRY HILL DRIVE","ELLISVILLE","MO",63011,38.6059403400001,-90.571216103,145,"347 CHERRY HILL DRIVE, ELLISVILLE, MO, 63011","Match","Exact","347 CHERRY HILL DR, ELLISVILLE, MO, 63011",100197424,"R"
181646,"347 COVERED BRIDGE PLACE","SMYRNA","GA",30082,33.857581543,-84.566013497,146,"347 COVERED BRIDGE PLACE, SMYRNA, GA, 30082","Match","Exact","347 COVERED BRIDGE PL, SMYRNA, GA, 30082",17197314,"L"
181647,"347 DANIEL AVENUE","WESTLAND","MI",48186,42.3089607740001,-83.3681652769999,147,"347 DANIEL AVENUE, WESTLAND, MI, 48186","Match","Exact","347 DANIEL AVE, WESTLAND, MI, 48186",95693653,"R"
181648,"347 DEER CREEK DR","BOERNE","TX",78006,29.8009258160001,-98.70461495,148,"347 DEER CREEK DR, BOERNE, TX, 78006","Match","Exact","347 DEER CREEK DR, BOERNE, TX, 78006",638588836,"R"
181649,"347 E 4TH STREET","TUCSON","AZ",85705,32.230349055,-110.966101412,149,"347 E 4TH STREET, TUCSON, AZ, 85705","Match","Exact","347 E 4TH ST, TUCSON, AZ, 85705",121170812,"L"
181650,"347 E HIGH","MANCHESTER","NH",3108,NA,NA,150,"347 E HIGH, MANCHESTER, NH, 3108","No_Match",NA,NA,NA,NA
181651,"347 E SOUTH ST","ELMHURST","IL",60126,41.884416967,-87.928197036,151,"347 E SOUTH ST, ELMHURST, IL, 60126","Match","Exact","347 SOUTH ST, ELMHURST, IL, 60126",112693770,"L"
181652,"347 EAST PENN AVENUE","ROBESONIA","PA",19551,40.350238274,-76.1299766229999,152,"347 EAST PENN AVENUE, ROBESONIA, PA, 19551","Match","Exact","347 E PENN AVE, ROBESONIA, PA, 19551",80390885,"R"
181653,"347 FIFTH AVE STE 1506","NEW YORK","NY",10016,40.74819777,-73.984726763,153,"347 FIFTH AVE STE 1506, NEW YORK, NY, 10016","Match","Exact","347 5TH AVE, NEW YORK, NY, 10016",59653473,"R"
181654,"347 FIFTH AVENUE SUITE 1402","NEW YORK","NY",10016,40.74819777,-73.984726763,154,"347 FIFTH AVENUE SUITE 1402, NEW YORK, NY, 10016","Match","Exact","347 5TH AVE, NEW YORK, NY, 10016",59653473,"R"
181655,"347 FIFTH AVEUE SUITE 1402-702","NEW YORK","NY",10016,40.74819777,-73.984726763,155,"347 FIFTH AVEUE SUITE 1402-702, NEW YORK, NY, 10016","Match","Non_Exact","347 5TH AVE, NEW YORK, NY, 10016",59653473,"R"
181656,"347 FIRST STREET","LOS ALTOS","CA",94022,37.376339188,-122.116522164,156,"347 FIRST STREET, LOS ALTOS, CA, 94022","Match","Exact","347 1ST ST, LOS ALTOS, CA, 94022",614033306,"L"
181657,"347 FRANKLIN ST","BLOOMFIELD","NJ",7003,40.7911812070001,-74.194426517,157,"347 FRANKLIN ST, BLOOMFIELD, NJ, 7003","Match","Exact","347 FRANKLIN ST, BLOOMFIELD, NJ, 07003",63479912,"R"
181658,"347 GELLERT BLVD STE J","DALY CITY","CA",94015,37.6638207510001,-122.469224363,158,"347 GELLERT BLVD STE J, DALY CITY, CA, 94015","Match","Exact","347 GELLERT BLVD, DALY CITY, CA, 94015",637969733,"L"
181659,"347 GREEN ST","NORTHBOROUGH","MA",1532,42.348299378,-71.6736060969999,159,"347 GREEN ST, NORTHBOROUGH, MA, 1532","Match","Exact","347 GREEN ST, NORTHBOROUGH, MA, 01532",40092747,"R"
181660,"347 GREENACRES BLVD","BOSSIER CITY","LA",71111,32.566381812,-93.716944058,160,"347 GREENACRES BLVD, BOSSIER CITY, LA, 71111","Match","Exact","347 GREENACRES BLVD, BOSSIER CITY, LA, 71111",108535622,"L"
181661,"347 HILLIARD DRIVE","FAYETTEVILLE","NC",28311,35.1181517410001,-78.8904086539999,161,"347 HILLIARD DRIVE, FAYETTEVILLE, NC, 28311","Match","Exact","347 HILLIARD DR, FAYETTEVILLE, NC, 28311",64223145,"L"
181662,"347 HILLSIDE DRIVE","NEW CUMBERLAND","PA",17070,40.221256344,-76.8718107669999,162,"347 HILLSIDE DRIVE, NEW CUMBERLAND, PA, 17070","Match","Exact","347 HILLSIDE DR, NEW CUMBERLAND, PA, 17070",60945574,"R"
181663,"347 HOMELAND SOUTHWAY 3B","BALTIMORE","MD",21212,39.3517961810001,-76.613385206,163,"347 HOMELAND SOUTHWAY 3B, BALTIMORE, MD, 21212","Match","Exact","347 HOMELAND SOUTHWAY, BALTIMORE, MD, 21212",206430721,"L"
181664,"347 HORIZON CIRCLE","GRASS VALLEY","CA",95945,39.240076564,-121.059851279,164,"347 HORIZON CIRCLE, GRASS VALLEY, CA, 95945","Match","Exact","347 HORIZON CIR, GRASS VALLEY, CA, 95945",106547408,"R"
181665,"347 LANDEN CIRCLE","BYHALIA","MS",38611,34.9505134120001,-89.66528902,165,"347 LANDEN CIRCLE, BYHALIA, MS, 38611","Match","Exact","347 LANDEN CIR, BYHALIA, MS, 38611",608007377,"R"
181666,"347 LOCKERBY LANE","WILMINGTON","NC",28411,34.26771273,-77.811450661,166,"347 LOCKERBY LANE, WILMINGTON, NC, 28411","Match","Exact","347 LOCKERBY LN, WILMINGTON, NC, 28411",610113338,"R"
181667,"347 MAIN STREET  PO BOX 859","MADISON","WV",25130,38.0645356420001,-81.821898413,167,"347 MAIN STREET  PO BOX 859, MADISON, WV, 25130","Match","Exact","347 MAIN ST, MADISON, WV, 25130",629135832,"L"
181668,"347 MAPLE STREET","W HEMPSTEAD","NY",11552,40.690563212,-73.652648273,168,"347 MAPLE STREET, W HEMPSTEAD, NY, 11552","Match","Exact","347 MAPLE ST, W HEMPSTEAD, NY, 11552",147674669,"L"
181669,"347 MAPLE STREET","WEST HEMPSTEAD","NY",11552,40.690563212,-73.652648273,169,"347 MAPLE STREET, WEST HEMPSTEAD, NY, 11552","Match","Exact","347 MAPLE ST, W HEMPSTEAD, NY, 11552",147674669,"L"
181670,"347 MILL ROCK ROAD","HAMDEN","CT",6517,41.339420714,-72.9248925699999,170,"347 MILL ROCK ROAD, HAMDEN, CT, 6517","Match","Exact","347 MILL ROCK RD, HAMDEN, CT, 06517",3699664,"R"
181671,"347 MT ANTHONY RD","BENNINGTON","VT",5201,NA,NA,171,"347 MT ANTHONY RD, BENNINGTON, VT, 5201","No_Match",NA,NA,NA,NA
181672,"347 N 8TH ST","ALLENTOWN","PA",18102,40.6068483350001,-75.476033698,172,"347 N 8TH ST, ALLENTOWN, PA, 18102","Match","Exact","347 N 8TH ST, ALLENTOWN, PA, 18102",80768679,"R"
181673,"347 N PRAIRIE AVENUE","BRADLEY","IL",60915,41.146155202,-87.869933202,173,"347 N PRAIRIE AVENUE, BRADLEY, IL, 60915","Match","Exact","347 N PRAIRIE AVE, BRADLEY, IL, 60915",98355680,"L"
181674,"347 N VOLUSIA AVE","ORANGE CITY","FL",32763,28.9509959640001,-81.298862962,174,"347 N VOLUSIA AVE, ORANGE CITY, FL, 32763","Match","Exact","347 N VOLUSIA AVE, ORANGE CITY, FL, 32763",94597101,"R"
181675,"347 NORFOLK DRIVE","PACIFICA","CA",94044,37.65030204,-122.481553211,175,"347 NORFOLK DRIVE, PACIFICA, CA, 94044","Match","Exact","347 NORFOLK DR, PACIFICA, CA, 94044",192369371,"L"
181676,"347 PLAINFIELD AVE STE 103","EDISON","NJ",8817,40.517820756,-74.4080376329999,176,"347 PLAINFIELD AVE STE 103, EDISON, NJ, 8817","Match","Exact","347 PLAINFIELD AVE, EDISON, NJ, 08817",60265875,"R"
181677,"347 PURVIS AVE","BREMEN","OH",43107,39.7059690230001,-82.4305444729999,177,"347 PURVIS AVE, BREMEN, OH, 43107","Match","Exact","347 PURVIS AVE, BREMEN, OH, 43107",37225162,"L"
181678,"347 S 160 E","IVINS","UT",84738,37.1626061200001,-113.67568068,178,"347 S 160 E, IVINS, UT, 84738","Match","Exact","347 S 160 E, IVINS, UT, 84738",166196329,"L"
181679,"347 S 400 E","SALT LAKE CITY","UT",84111,40.7617825240001,-111.879626813,179,"347 S 400 E, SALT LAKE CITY, UT, 84111","Match","Exact","347 S 400 E, SALT LAKE CITY, UT, 84111",176067645,"L"
181680,"347 S 400 EAST","SALT LAKE CITY","UT",84111,40.7617825240001,-111.879626813,180,"347 S 400 EAST, SALT LAKE CITY, UT, 84111","Match","Exact","347 S 400 E, SALT LAKE CITY, UT, 84111",176067645,"L"
181681,"347 SOUTH PINE DRIVE","BAILEY","CO",80421,39.447588034,-105.476674688,181,"347 SOUTH PINE DRIVE, BAILEY, CO, 80421","Match","Exact","347 S PINE DR, BAILEY, CO, 80421",108452297,"R"
181682,"347 STARLING DR","MONTICELLO","GA",31064,33.3810991820001,-83.840953981,182,"347 STARLING DR, MONTICELLO, GA, 31064","Match","Exact","347 STARLING DR, MONTICELLO, GA, 31064",66624786,"R"
181683,"347 STONE MILL DRIVE","BRUNSWICK","GA",31520,31.202002474,-81.488228464,183,"347 STONE MILL DRIVE, BRUNSWICK, GA, 31520","Match","Non_Exact","347 STONEMILL DR, BRUNSWICK, GA, 31520",636108191,"L"
181684,"347 TAYLOR AVENUE","BELLEVUE","KY",41073,39.103174354,-84.4811413749999,184,"347 TAYLOR AVENUE, BELLEVUE, KY, 41073","Match","Exact","347 TAYLOR AVE, BELLEVUE, KY, 41073",104447192,"L"
181685,"347 VICTORIA LIGHTS LN","BROUSSARD","LA",70518,30.120788781,-91.961553064,185,"347 VICTORIA LIGHTS LN, BROUSSARD, LA, 70518","Match","Exact","347 VICTORIA LIGHTS LN, BROUSSARD, LA, 70518",648162434,"L"
181686,"347 WAGNER WAY","NEW MARKET","MN",55054,44.570818822,-93.360746284,186,"347 WAGNER WAY, NEW MARKET, MN, 55054","Match","Exact","347 WAGNER WAY, NEW MARKET, MN, 55054",38154099,"L"
181687,"347 WEST 110TH PLACE","CHICAGO","IL",60628,41.6942945600001,-87.63208881,187,"347 WEST 110TH PLACE, CHICAGO, IL, 60628","Match","Non_Exact","347 W 110TH ST, CHICAGO, IL, 60628",605580810,"L"
181688,"347 WEST FRANCES ST","JACKSONVILLE","NC",28546,34.744449181,-77.3650849479999,188,"347 WEST FRANCES ST, JACKSONVILLE, NC, 28546","Match","Exact","347 W FRANCES ST, JACKSONVILLE, NC, 28546",14020606,"L"
181689,"3470 ANGEL DR","SAGINAW","MI",48601,43.3730120180001,-83.9101066649999,189,"3470 ANGEL DR, SAGINAW, MI, 48601","Match","Exact","3470 ANGEL DR, SAGINAW, MI, 48601",80216917,"L"
181690,"3470 E RUSSELL RD STE 257","LAS VEGAS","NV",89120,36.0862533870001,-115.099616286,190,"3470 E RUSSELL RD STE 257, LAS VEGAS, NV, 89120","Match","Non_Exact","3470 E RUSSELL RD, LAS VEGAS, NV, 89120",201873188,"L"
181691,"3470 EAST COAST AVE APT 2007","MIAMI","FL",33137,NA,NA,191,"3470 EAST COAST AVE APT 2007, MIAMI, FL, 33137","No_Match",NA,NA,NA,NA
181692,"3470 ELAINE AVE","LINCOLNTON","NC",28092,35.5359725750001,-81.1359308259999,192,"3470 ELAINE AVE, LINCOLNTON, NC, 28092","Match","Exact","3470 ELAINE AVE, LINCOLNTON, NC, 28092",69534435,"R"
181693,"3470 ELLINGTON WAY","ATLANTA","GA",30349,33.6602438730001,-84.623100022,193,"3470 ELLINGTON WAY, ATLANTA, GA, 30349","Match","Exact","3470 ELLINGTON WAY, ATLANTA, GA, 30349",643417817,"R"
181694,"3470 FORT AVENUE","LYNCHBURG","VA",24501,37.392183145,-79.170190206,194,"3470 FORT AVENUE, LYNCHBURG, VA, 24501","Match","Exact","3470 FORT AVE, LYNCHBURG, VA, 24501",62740051,"L"
181695,"3470 MCCLURE BRIDGE RD - UNIT 1721","DULUTH","GA",30096,34.003959303,-84.15843817,195,"3470 MCCLURE BRIDGE RD - UNIT 1721, DULUTH, GA, 30096","Match","Exact","3470 MCCLURE BRIDGE RD, DULUTH, GA, 30096",88952958,"L"
181696,"3470 MCCLURE BRIDGE RD UNIT 2825","DULUTH","GA",30096,34.003959303,-84.15843817,196,"3470 MCCLURE BRIDGE RD UNIT 2825, DULUTH, GA, 30096","Match","Exact","3470 MCCLURE BRIDGE RD, DULUTH, GA, 30096",88952958,"L"
181697,"3470 MCCLURE BRIDGE RD UNIT 3065","DULUTH","GA",30096,34.003959303,-84.15843817,197,"3470 MCCLURE BRIDGE RD UNIT 3065, DULUTH, GA, 30096","Match","Exact","3470 MCCLURE BRIDGE RD, DULUTH, GA, 30096",88952958,"L"
181698,"3470 MCCLURE BRIDGE RD","DULUTH","GA",30096,34.003959303,-84.15843817,198,"3470 MCCLURE BRIDGE RD, DULUTH, GA, 30096","Match","Exact","3470 MCCLURE BRIDGE RD, DULUTH, GA, 30096",88952958,"L"
181699,"3470 OLNEY LAYTONSVILLE RD STE 234","OLNEY","MD",20832,39.1541625,-77.068753606,199,"3470 OLNEY LAYTONSVILLE RD STE 234, OLNEY, MD, 20832","Match","Exact","3470 OLNEY LAYTONSVILLE RD, OLNEY, MD, 20832",638658466,"R"
181700,"3470 S REDONDO BLVD","LOS ANGELES","CA",90016,34.0240830340001,-118.359281506,200,"3470 S REDONDO BLVD, LOS ANGELES, CA, 90016","Match","Exact","3470 S REDONDO BLVD, LOS ANGELES, CA, 90016",141601195,"L"
181701,"3470 SURREY ROAD","HUNTINGDON VALLEY","PA",19006,40.1414598690001,-75.046139132,201,"3470 SURREY ROAD, HUNTINGDON VALLEY, PA, 19006","Match","Exact","3470 SURREY RD, HUNTINGDON VALLEY, PA, 19006",135081252,"L"
181702,"3470 TABITHA CT","MELBOURNE","FL",32934,28.1645852780001,-80.6738742379999,202,"3470 TABITHA CT, MELBOURNE, FL, 32934","Match","Exact","3470 TABITHA CT, MELBOURNE, FL, 32934",647557999,"R"
181703,"3470 THAMESFORD RD","FAYETTEVILLE","NC",28311,35.111496399,-78.89090004,203,"3470 THAMESFORD RD, FAYETTEVILLE, NC, 28311","Match","Exact","3470 THAMESFORD RD, FAYETTEVILLE, NC, 28311",64200600,"L"
181704,"3470 W CAREFREE CIR","COLORADO SPRINGS","CO",80917,NA,NA,204,"3470 W CAREFREE CIR, COLORADO SPRINGS, CO, 80917","Tie",NA,NA,NA,NA
181705,"3470 WILSHIRE BLVD 644","LOS ANGELES","CA",90010,34.0617428940001,-118.299715016,205,"3470 WILSHIRE BLVD 644, LOS ANGELES, CA, 90010","Match","Exact","3470 WILSHIRE BLVD, LOS ANGELES, CA, 90010",141603914,"L"
181706,"3470 WILSHIRE BLVD STE 310","LOS ANGELES","CA",90010,34.0617428940001,-118.299715016,206,"3470 WILSHIRE BLVD STE 310, LOS ANGELES, CA, 90010","Match","Exact","3470 WILSHIRE BLVD, LOS ANGELES, CA, 90010",141603914,"L"
181707,"34700 WOLF TRAIL RD","WISTER","OK",74966,NA,NA,207,"34700 WOLF TRAIL RD, WISTER, OK, 74966","No_Match",NA,NA,NA,NA
181708,"3471 CHARLES STREET","COTTONWOOD","CA",96022,40.388246187,-122.32147751,208,"3471 CHARLES STREET, COTTONWOOD, CA, 96022","Match","Exact","3471 CHARLES ST, COTTONWOOD, CA, 96022",126619435,"R"
181709,"3471 CREEKVIEW DR","REX","GA",30273,33.582860725,-84.276746626,209,"3471 CREEKVIEW DR, REX, GA, 30273","Match","Exact","3471 CREEKVIEW DR, REX, GA, 30273",627394234,"L"
181710,"3471 DUCKABUSH RD","BRINNON","WA",98320,47.679550976,-122.98778207,210,"3471 DUCKABUSH RD, BRINNON, WA, 98320","Match","Exact","3471 DUCKABUSH RD, BRINNON, WA, 98320",151997148,"L"
181711,"3471 KNICKERBOCKER RD STE 410","SAN ANGELO","TX",76904,31.4203738100001,-100.469724605,211,"3471 KNICKERBOCKER RD STE 410, SAN ANGELO, TX, 76904","Match","Non_Exact","3471 KNICKERBOCKER RD, SAN ANGELO, TX, 76903",190680900,"R"
181712,"3471 MONTANA STREET","SAINT LOUIS","MO",63118,38.5834964900001,-90.2426682299999,212,"3471 MONTANA STREET, SAINT LOUIS, MO, 63118","Match","Exact","3471 MONTANA ST, SAINT LOUIS, MO, 63118",605134937,"R"
181713,"3471 N FEDERAL HWY SUITE 207","FORT LAUDERDALE","FL",33306,26.169478273,-80.11862337,213,"3471 N FEDERAL HWY SUITE 207, FORT LAUDERDALE, FL, 33306","Match","Non_Exact","3471 N FEDERAL HWY, FORT LAUDERDALE, FL, 33306",114724550,"L"
181714,"3471 RIDGESTONE CIRCLE","WOODBURY","MN",55129,44.900683029,-92.878651759,214,"3471 RIDGESTONE CIRCLE, WOODBURY, MN, 55129","Match","Exact","3471 RIDGESTONE CIR, WOODBURY, MN, 55129",641696954,"R"
181715,"3471 RIVERVIEW CHASE WAY","ELLENWOOD","GA",30294,33.6663739410001,-84.248619843,215,"3471 RIVERVIEW CHASE WAY, ELLENWOOD, GA, 30294","Match","Exact","3471 RIVERVIEW CHASE WAY, ELLENWOOD, GA, 30294",23395445,"L"
181716,"3471 WEST 5TH STREET SUITE 105","LOS ANGELES","CA",90020,34.065417074,-118.29492783,216,"3471 WEST 5TH STREET SUITE 105, LOS ANGELES, CA, 90020","Match","Exact","3471 W 5TH ST, LOS ANGELES, CA, 90020",141604933,"R"
181717,"3472 5TH PLACE","VERO BEACH","FL",32968,27.612205739,-80.421536642,217,"3472 5TH PLACE, VERO BEACH, FL, 32968","Match","Exact","3472 5TH PL, VERO BEACH, FL, 32968",610929273,"R"
181718,"3472 KING BRADFORD DR   APT D","BATON ROUGE","LA",70816,30.4208802570001,-91.008023179,218,"3472 KING BRADFORD DR   APT D, BATON ROUGE, LA, 70816","Match","Exact","3472 KING BRADFORD DR, BATON ROUGE, LA, 70816",92210530,"R"
181719,"3472 MONTE MORO","KINGMAN","AZ",86401,NA,NA,219,"3472 MONTE MORO, KINGMAN, AZ, 86401","Tie",NA,NA,NA,NA
181720,"3472 NEWBERRY TRL","DECATUR","GA",30034,33.7013544930001,-84.24945138,220,"3472 NEWBERRY TRL, DECATUR, GA, 30034","Match","Exact","3472 NEWBERRY TRL, DECATUR, GA, 30034",23383634,"L"
181721,"3472 OLD MEIER RD","MADISON","WI",53718,NA,NA,221,"3472 OLD MEIER RD, MADISON, WI, 53718","Tie",NA,NA,NA,NA
181722,"3472 RED ROSE DR","ENCINO","CA",91436,34.1346087270001,-118.488045148,222,"3472 RED ROSE DR, ENCINO, CA, 91436","Match","Exact","3472 RED ROSE DR, ENCINO, CA, 91436",141557025,"R"
181723,"3472 RESEARCH PARKWAY STE 104-195","COLORADO SPRINGS","CO",80920,NA,NA,223,"3472 RESEARCH PARKWAY STE 104-195, COLORADO SPRINGS, CO, 80920","No_Match",NA,NA,NA,NA
181724,"3472 RESEARCH PARKWAY SUITE 104-405","COLORADO SPRINGS","CO",80920,NA,NA,224,"3472 RESEARCH PARKWAY SUITE 104-405, COLORADO SPRINGS, CO, 80920","No_Match",NA,NA,NA,NA
181725,"3473 BEVIS","CINCINNATI","OH",45207,39.1408863660001,-84.465461943,225,"3473 BEVIS, CINCINNATI, OH, 45207","Match","Non_Exact","3473 BEVIS AVE, CINCINNATI, OH, 45207",103930263,"L"
181726,"3473 EAST CODY AVENUE","GILBERT","AZ",85234,33.3685632510001,-111.716309202,226,"3473 EAST CODY AVENUE, GILBERT, AZ, 85234","Match","Exact","3473 E CODY AVE, GILBERT, AZ, 85234",128866170,"R"
181727,"3473 FINCHWOOD","CLOVIS","CA",93619,36.8183741710001,-119.643796826,227,"3473 FINCHWOOD, CLOVIS, CA, 93619","Match","Exact","3473 FINCHWOOD, CLOVIS, CA, 93619",651275973,"R"
181728,"3473 S DR MARTIN LUTHER KING DR 302","CHICAGO","IL",60616,41.8316638650001,-87.6169637799999,228,"3473 S DR MARTIN LUTHER KING DR 302, CHICAGO, IL, 60616","Match","Non_Exact","3473 S DR MARTIN LUTHER KING JR DR, CHICAGO, IL, 60616",605498333,"L"
181729,"3473 S KING DR NUM 190","CHICAGO","IL",60616,NA,NA,229,"3473 S KING DR NUM 190, CHICAGO, IL, 60616","No_Match",NA,NA,NA,NA
181730,"3473 S KING DR SUITE 489","CHICAGO","IL",60616,NA,NA,230,"3473 S KING DR SUITE 489, CHICAGO, IL, 60616","No_Match",NA,NA,NA,NA
181731,"3473 S KING DRIVE APT 504","CHICAGO","IL",60616,NA,NA,231,"3473 S KING DRIVE APT 504, CHICAGO, IL, 60616","No_Match",NA,NA,NA,NA
181732,"3473 S KING DRIVE SUITE 531","CHICAGO","IL",60653,NA,NA,232,"3473 S KING DRIVE SUITE 531, CHICAGO, IL, 60653","No_Match",NA,NA,NA,NA
181733,"3473 SOUTH KING DRIVE  SUITE 512","CHICAGO","IL",60616,NA,NA,233,"3473 SOUTH KING DRIVE  SUITE 512, CHICAGO, IL, 60616","No_Match",NA,NA,NA,NA
181734,"3473 STATE HWY 60","JACKSON","WI",53037,43.3244397080001,-88.20782166,234,"3473 STATE HWY 60, JACKSON, WI, 53037","Match","Exact","3473 STATE HWY 60, JACKSON, WI, 53037",79558181,"R"
181735,"3473 STATE RD 60","JACKSON","WI",53037,NA,NA,235,"3473 STATE RD 60, JACKSON, WI, 53037","No_Match",NA,NA,NA,NA
181736,"3473 WALNUT RIDGE","ATLANTA","GA",30349,33.661893564,-84.585895895,236,"3473 WALNUT RIDGE, ATLANTA, GA, 30349","Match","Exact","3473 WALNUT RIDGE, ATLANTA, GA, 30349",643421877,"L"
181737,"34737 ACTON CANYON ROAD","ACTON","CA",93510,34.511140992,-118.170128231,237,"34737 ACTON CANYON ROAD, ACTON, CA, 93510","Match","Exact","34737 ACTON CANYON RD, ACTON, CA, 93510",642191110,"L"
181738,"3474 ALAEIDON PKWY STE 200","OKEMOS","MI",48864,42.6827859090001,-84.4268605949999,238,"3474 ALAEIDON PKWY STE 200, OKEMOS, MI, 48864","Match","Non_Exact","3474 ALAIEDON PKWY, OKEMOS, MI, 48864",17521613,"L"
181739,"3474 BRASILIA DRIVE","BROWNSVILLE","TX",78526,25.961866694,-97.479686099,239,"3474 BRASILIA DRIVE, BROWNSVILLE, TX, 78526","Match","Non_Exact","3474 BRASILIA, BROWNSVILLE, TX, 78526",635390275,"L"
181740,"3474 HAMLIN SQUARE","ATLANTA","GA",30331,33.6615814740001,-84.555286468,240,"3474 HAMLIN SQUARE, ATLANTA, GA, 30331","Match","Exact","3474 HAMLIN SQ, ATLANTA, GA, 30331",634083642,"L"
181741,"3474 MT ELLIOTT ST","DETROIT","MI",48207,42.3599218320001,-83.020696753,241,"3474 MT ELLIOTT ST, DETROIT, MI, 48207","Match","Exact","3474 MOUNT ELLIOTT ST, DETROIT, MI, 48207",95482858,"R"
181742,"3474 RIVERLAND ROAD","FT. LAUDERDALE","FL",33312,26.0918933560001,-80.1922343419999,242,"3474 RIVERLAND ROAD, FT. LAUDERDALE, FL, 33312","Match","Exact","3474 RIVERLAND RD, FORT LAUDERDALE, FL, 33312",114763579,"L"
181743,"34741 WELLS CREEK COURT","FRONTENAC","MN",55026,44.499815132,-92.336845623,243,"34741 WELLS CREEK COURT, FRONTENAC, MN, 55026","Match","Exact","34741 WELLS CREEK CT, FRONTENAC, MN, 55026",31568022,"L"
181744,"34749 HARDWOOD DRIVE","NORTH RIDGEVILLE","OH",44039,41.3602956460001,-82.003249403,244,"34749 HARDWOOD DRIVE, NORTH RIDGEVILLE, OH, 44039","Match","Exact","34749 HARDWOOD DR, N RIDGEVILLE, OH, 44039",618162296,"R"
181745,"3475 BRAINERD RD SUITE A","CHATTANOOGA","TN",37411,35.0257884550001,-85.2493035529999,245,"3475 BRAINERD RD SUITE A, CHATTANOOGA, TN, 37411","Match","Exact","3475 BRAINERD RD, CHATTANOOGA, TN, 37411",59309854,"L"
181746,"3475 CLAREMONT STREET","HEMET","CA",92545,33.7668149040001,-117.008543982,246,"3475 CLAREMONT STREET, HEMET, CA, 92545","Match","Exact","3475 CLAREMONT ST, HEMET, CA, 92545",609001074,"L"
181747,"3475 COUNTY ROAD 230","FULTON","MO",65251,38.9305584520001,-92.04768749,247,"3475 COUNTY ROAD 230, FULTON, MO, 65251","Match","Exact","3475 CO RD 230, FULTON, MO, 65251",34381553,"R"
181748,"3475 FRONT ST","CLIFTON","CO",81520,39.0973558200001,-108.409011204,248,"3475 FRONT ST, CLIFTON, CO, 81520","Match","Exact","3475 FRONT ST, CLIFTON, CO, 81520",122436785,"R"
181749,"3475 HIGHWAY 3226","DERIDDER","LA",70634,30.8537050520001,-93.35337443,249,"3475 HIGHWAY 3226, DERIDDER, LA, 70634","Match","Non_Exact","3475 STATE RTE 3226, DERIDDER, LA, 70634",651018182,"R"
181750,"3475 LENOX ROAD NE","ATLANTA","GA",30326,33.8488639770001,-84.3607802929999,250,"3475 LENOX ROAD NE, ATLANTA, GA, 30326","Match","Non_Exact","3475 LENOX RD, ATLANTA, GA, 30326",17355635,"R"
181751,"3475 N COUNTRY CLUB VISTA CIRCLE","TUCSON","AZ",85750,32.270414041,-110.861558554,251,"3475 N COUNTRY CLUB VISTA CIRCLE, TUCSON, AZ, 85750","Match","Exact","3475 N COUNTRY CLUB VISTA CI, TUCSON, AZ, 85750",618211100,"L"
181752,"3475 NW 30TH STREET APT 402","LAUDERDALE LAKES","FL",33311,NA,NA,252,"3475 NW 30TH STREET APT 402, LAUDERDALE LAKES, FL, 33311","No_Match",NA,NA,NA,NA
181753,"3475 OAK VALLEY RD NE APT 2020","ATLANTA","GA",30326,NA,NA,253,"3475 OAK VALLEY RD NE APT 2020, ATLANTA, GA, 30326","No_Match",NA,NA,NA,NA
181754,"3475 PIEDMONT ROAD","ATLANTA","GA",30305,33.847554674,-84.37330012,254,"3475 PIEDMONT ROAD, ATLANTA, GA, 30305","Match","Non_Exact","3475 PIEDMONT RD NE, ATLANTA, GA, 30305",618356305,"R"
181755,"3475 PIKEVIEW ROAD","FORT MILL","SC",29715,35.0825261250001,-80.926298574,255,"3475 PIKEVIEW ROAD, FORT MILL, SC, 29715","Match","Exact","3475 PIKEVIEW RD, FORT MILL, SC, 29715",19812578,"L"
181756,"3475 PINE FOREST RD","CANTONMENT","FL",32533,30.5466936030001,-87.312528648,256,"3475 PINE FOREST RD, CANTONMENT, FL, 32533","Match","Exact","3475 PINE FOREST RD, CANTONMENT, FL, 32533",93306301,"L"
181757,"3475 RIDGEFORD DR","WESTLAKE VILLAGE","CA",91361,34.1356660980001,-118.81417141,257,"3475 RIDGEFORD DR, WESTLAKE VILLAGE, CA, 91361","Match","Exact","3475 RIDGEFORD DR, WESTLAKE VILLAGE, CA, 91361",141719563,"L"
181758,"3475 WINNERS CIR","CANFIELD","OH",44406,41.004690537,-80.7142205169999,258,"3475 WINNERS CIR, CANFIELD, OH, 44406","Match","Exact","3475 WINNERS CIR, CANFIELD, OH, 44406",64608451,"L"
181759,"34750 KLONDIKE DR","UNION CITY","CA",94587,37.5875864590001,-122.006943864,259,"34750 KLONDIKE DR, UNION CITY, CA, 94587","Match","Exact","34750 KLONDIKE DR, UNION CITY, CA, 94587",606086519,"R"
181760,"3476 HORN LAKE ROAD","MEMPHIS","TN",38109,35.053548001,-90.068709428,260,"3476 HORN LAKE ROAD, MEMPHIS, TN, 38109","Match","Exact","3476 HORN LAKE RD, MEMPHIS, TN, 38109",607463156,"L"
181761,"3476 MCCORKLE RD","MEMPHIS","TN",38116,35.0536282530001,-90.038707915,261,"3476 MCCORKLE RD, MEMPHIS, TN, 38116","Match","Exact","3476 MCCORKLE RD, MEMPHIS, TN, 38116",647252654,"L"
181762,"3476 NORTH SHERWOOD DRIVE APT B1","BATON ROUGE","LA",70814,NA,NA,262,"3476 NORTH SHERWOOD DRIVE APT B1, BATON ROUGE, LA, 70814","No_Match",NA,NA,NA,NA
181763,"3476 WENTWORTH CIRCLE WEST","JACKSONVILLE","FL",32277,30.3623969550001,-81.599004532,263,"3476 WENTWORTH CIRCLE WEST, JACKSONVILLE, FL, 32277","Match","Exact","3476 WENTWORTH CIR W, JACKSONVILLE, FL, 32277",83952016,"R"
181764,"34764 DOANNE VALLEY ROAD","PALOMAR MOUNTAIN","CA",92060,33.3400858530001,-116.904773272,264,"34764 DOANNE VALLEY ROAD, PALOMAR MOUNTAIN, CA, 92060","Match","Non_Exact","34764 DOANE VALLEY RD, PALOMAR MOUNTAIN, CA, 92060",195310111,"L"
181765,"3477 CHELAN DRIVE","WEST LINN","OR",97068,45.360742873,-122.644508417,265,"3477 CHELAN DRIVE, WEST LINN, OR, 97068","Match","Exact","3477 CHELAN DR, WEST LINN, OR, 97068",157961643,"L"
181766,"3477 CORPORATE PKWY STE 100","CENTER VALLEY","PA",18034,40.5552869700001,-75.41949841,266,"3477 CORPORATE PKWY STE 100, CENTER VALLEY, PA, 18034","Match","Exact","3477 CORPORATE PKWY, CENTER VALLEY, PA, 18034",649890806,"R"
181767,"3477 FM 229","CROCKETT","TX",75835,31.357435717,-95.5253950809999,267,"3477 FM 229, CROCKETT, TX, 75835","Match","Exact","3477 FM 229, CROCKETT, TX, 75835",22002317,"L"
181768,"3477 GREENVILLE DR","LEWIS CENTER","OH",43035,40.2222444110001,-82.987039642,268,"3477 GREENVILLE DR, LEWIS CENTER, OH, 43035","Match","Exact","3477 GREENVILLE DR, LEWIS CENTER, OH, 43035",24597503,"R"
181769,"3477 LILY WAY APT 407","SAN JOSE","CA",95134,37.402643771,-121.944382287,269,"3477 LILY WAY APT 407, SAN JOSE, CA, 95134","Match","Exact","3477 LILY WAY, SAN JOSE, CA, 95134",646649349,"R"
181770,"3477 ONYX PARKWAY","ROCKFORD","IL",61102,42.213817362,-89.1059349239999,270,"3477 ONYX PARKWAY, ROCKFORD, IL, 61102","Match","Exact","3477 ONYX PKWY, ROCKFORD, IL, 61102",49254138,"R"
181771,"3477 SQUIRE LN","PLACERVILLE","CA",95667,38.7251658750001,-120.731750891,271,"3477 SQUIRE LN, PLACERVILLE, CA, 95667","Match","Exact","3477 SQUIRE LN, PLACERVILLE, CA, 95667",607163463,"R"
181772,"34770 DEQUINDRE RD","STERLING HEIGHTS","MI",48310,42.548030076,-83.0880291189999,272,"34770 DEQUINDRE RD, STERLING HEIGHTS, MI, 48310","Match","Exact","34770 DEQUINDRE RD, STERLING HEIGHTS, MI, 48310",635625947,"R"
181773,"34778 HICKORY LANE","WILDOMAR","CA",92595,33.6159578040001,-117.281449277,273,"34778 HICKORY LANE, WILDOMAR, CA, 92595","Match","Exact","34778 HICKORY LN, WILDOMAR, CA, 92595",194843097,"R"
181774,"3478 E 62ND ST","KANSAS CITY","MO",64130,39.013672227,-94.543342836,274,"3478 E 62ND ST, KANSAS CITY, MO, 64130","Match","Exact","3478 E 62ND ST, KANSAS CITY, MO, 64130",91456825,"L"
181775,"3478 GOLFSIDE DR","HUDSONVILLE","MI",49426,42.860331354,-85.867535496,275,"3478 GOLFSIDE DR, HUDSONVILLE, MI, 49426","Match","Exact","3478 GOLFSIDE DR, HUDSONVILLE, MI, 49426",71089762,"R"
181776,"3478 HACKAMORE DRIVE","HAYWARD","CA",94541,37.669903634,-122.041970593,276,"3478 HACKAMORE DRIVE, HAYWARD, CA, 94541","Match","Exact","3478 HACKAMORE DR, HAYWARD, CA, 94541",125074271,"L"
181777,"3478 HONEYCOMB DRIVE SE","CONYERS","GA",30094,33.5917003910001,-84.0330015759999,277,"3478 HONEYCOMB DRIVE SE, CONYERS, GA, 30094","Match","Exact","3478 HONEYCOMB DR SE, CONYERS, GA, 30094",640433132,"L"
181778,"3478 LANTERN BAY DRIVE","JUPITER","FL",33477,26.919002839,-80.086238302,278,"3478 LANTERN BAY DRIVE, JUPITER, FL, 33477","Match","Exact","3478 LANTERN BAY DR, JUPITER, FL, 33477",115581902,"L"
181779,"3478 SITIO BAYA","CARLSBAD","CA",92009,33.0756209630001,-117.230599129,279,"3478 SITIO BAYA, CARLSBAD, CA, 92009","Match","Exact","3478 SITIO BAYA, CARLSBAD, CA, 92009",195403845,"L"
181780,"3478 SOUTH COZY RIVER PLACE 410","SALT LAKE CITY","UT",84119,40.6969399980001,-111.926468812,280,"3478 SOUTH COZY RIVER PLACE 410, SALT LAKE CITY, UT, 84119","Match","Exact","3478 S COZY RIVER PL, SALT LAKE CITY, UT, 84119",611647707,"R"
181781,"3478 STALLING COURT","COLUMBUS","OH",43204,39.9493316100001,-83.09223524,281,"3478 STALLING COURT, COLUMBUS, OH, 43204","Match","Exact","3478 STALLING CT, COLUMBUS, OH, 43204",218646138,"L"
181782,"34780 SW 188TH ROAD","FLORIDA CITY","FL",33034,25.444186373,-80.4963767739999,282,"34780 SW 188TH ROAD, FLORIDA CITY, FL, 33034","Match","Exact","34780 SW 188TH RD, FLORIDA CITY, FL, 33034",115962130,"L"
181783,"34789 TRYONVILLE ROAD","TOWNVILLE","PA",16360,41.681965774,-79.854243707,283,"34789 TRYONVILLE ROAD, TOWNVILLE, PA, 16360","Match","Exact","34789 TRYONVILLE RD, TOWNVILLE, PA, 16360",98561881,"R"
181784,"3479 BROOKLYN AVE","PORT CHARLOTTE","FL",33952,26.97921516,-82.084119299,284,"3479 BROOKLYN AVE, PORT CHARLOTTE, FL, 33952","Match","Exact","3479 BROOKLYN AVE, PORT CHARLOTTE, FL, 33952",4305476,"L"
181785,"3479 DOGWOOD PASS","LITHONIA","GA",30038,33.682083644,-84.087016708,285,"3479 DOGWOOD PASS, LITHONIA, GA, 30038","Match","Exact","3479 DOGWOOD PASS, LITHONIA, GA, 30038",619380005,"R"
181786,"3479 HUNTINGTON TERRACE","CRETE","IL",60417,41.467068877,-87.613437676,286,"3479 HUNTINGTON TERRACE, CRETE, IL, 60417","Match","Exact","3479 HUNTINGTON TER, CRETE, IL, 60417",111553496,"L"
181787,"3479 S FEDERAL HWY","BOYNTON BEACH","FL",33435,26.494921618,-80.062093493,287,"3479 S FEDERAL HWY, BOYNTON BEACH, FL, 33435","Match","Exact","3479 S FEDERAL HWY, BOYNTON BEACH, FL, 33435",642539551,"L"
181788,"34797 HIGHWAY 58","EUGENE","OR",97405,43.98575227,-122.978599036,288,"34797 HIGHWAY 58, EUGENE, OR, 97405","Match","Non_Exact","34797 STATE HWY 58, EUGENE, OR, 97405",638577767,"R"
181789,"34798 LA HIGHWAY 1019","DENHAM SPRINGS","LA",70706,30.5727178130001,-90.960542183,289,"34798 LA HIGHWAY 1019, DENHAM SPRINGS, LA, 70706","Match","Exact","34798 LA HIGHWAY 1019, DENHAM SPRINGS, LA, 70706",613681388,"R"
181790,"34798 SEAVY LOOP ROAD","EUGENE","OR",97405,44.0045267450001,-122.998820425,290,"34798 SEAVY LOOP ROAD, EUGENE, OR, 97405","Match","Non_Exact","34798 SEAVEY LOOP RD, EUGENE, OR, 97405",178176377,"R"
181791,"347G MATAWAN ROAD","MATAWAN","NJ",7747,40.4304833400001,-74.25038044,291,"347G MATAWAN ROAD, MATAWAN, NJ, 7747","Match","Exact","347 MATAWAN RD, MATAWAN, NJ, 07747",642134061,"L"
181792,"348 60TH ST","BROOKLYN","NY",11220,40.641390008,-74.019288886,292,"348 60TH ST, BROOKLYN, NY, 11220","Match","Exact","348 60TH ST, BROOKLYN, NY, 11220",641028396,"R"
181793,"348 ALPINE DR","PAGOSA SPRINGS","CO",81147,37.334216203,-106.946523354,293,"348 ALPINE DR, PAGOSA SPRINGS, CO, 81147","Match","Exact","348 ALPINE DR, PAGOSA SPRINGS, CO, 81147",635525101,"R"
181794,"348 ALTO AVEC LN","HENDERSON","NV",89011,NA,NA,294,"348 ALTO AVEC LN, HENDERSON, NV, 89011","No_Match",NA,NA,NA,NA
181795,"348 ALVES LANE","NEW BRAUNFELS","TX",78130,29.7041955500001,-98.07166521,295,"348 ALVES LANE, NEW BRAUNFELS, TX, 78130","Match","Exact","348 ALVES LN, NEW BRAUNFELS, TX, 78130",649337356,"R"
181796,"348 AMBER LANE","NEVADA","TX",75173,33.04410627,-96.385579446,296,"348 AMBER LANE, NEVADA, TX, 75173","Match","Exact","348 AMBER LN, NEVADA, TX, 75173",649006450,"L"
181797,"348 BAHIA VISTA DR","INDIAN ROCKS BEACH","FL",33785,27.888574959,-82.845357543,297,"348 BAHIA VISTA DR, INDIAN ROCKS BEACH, FL, 33785","Match","Exact","348 BAHIA VISTA DR, INDIAN ROCKS BEACH, FL, 33785",124663352,"L"
181798,"348 CALLE UBEDA","SAN JUAN","PR",923,18.417691694,-66.041190828,298,"348 CALLE UBEDA, SAN JUAN, PR, 923","Match","Non_Exact","348 CLL UBEDA, SAN JUAN, PR, 00923",206610513,"L"
181799,"348 CASTLE CIR","CAROL STREAM","IL",60188,41.906756439,-88.129156831,299,"348 CASTLE CIR, CAROL STREAM, IL, 60188","Match","Exact","348 CASTLE CIR, CAROL STREAM, IL, 60188",650305113,"R"
181800,"348 CHURCHILL LANE","GURNEE","IL",60031,42.364635166,-87.956399958,300,"348 CHURCHILL LANE, GURNEE, IL, 60031","Match","Exact","348 CHURCHILL LN, GURNEE, IL, 60031",119675893,"L"
181801,"348 CLAYTON ST","GRAND PRAIRIE","TX",75052,32.6659344510001,-97.005149871,301,"348 CLAYTON ST, GRAND PRAIRIE, TX, 75052","Match","Exact","348 CLAYTON ST, GRAND PRAIRIE, TX, 75052",102998289,"R"
181802,"348 CONGLING CIRCLE","GROVETOWN","GA",30813,33.4563320190001,-82.240409668,302,"348 CONGLING CIRCLE, GROVETOWN, GA, 30813","Match","Exact","348 CONGLING CIR, GROVETOWN, GA, 30813",640751337,"L"
181803,"348 COPPER CREST","NEW BRAUNFELS","TX",78132,29.744974594,-98.25718218,303,"348 COPPER CREST, NEW BRAUNFELS, TX, 78132","Match","Exact","348 COPPER CRST, NEW BRAUNFELS, TX, 78132",641470081,"R"
181804,"348 COUNTY RTE 56","NEW HAMPTON","NY",10958,41.4063727980001,-74.432874823,304,"348 COUNTY RTE 56, NEW HAMPTON, NY, 10958","Match","Exact","348 CO RTE 56, NEW HAMPTON, NY, 10958",124389045,"L"
181805,"348 DAGUE FARM DRIVE","COATESVILLE","PA",19320,39.988138835,-75.842278859,305,"348 DAGUE FARM DRIVE, COATESVILLE, PA, 19320","Match","Exact","348 DAGUE FARM DR, COATESVILLE, PA, 19320",645871745,"L"
181806,"348 E  MAIN ST","LEXINGTON","KY",40507,38.042444134,-84.492604826,306,"348 E  MAIN ST, LEXINGTON, KY, 40507","Match","Exact","348 E MAIN ST, LEXINGTON, KY, 40507",31921872,"R"
181807,"348 E MAIN ST","LEXINGTON","KY",40507,38.042444134,-84.492604826,307,"348 E MAIN ST, LEXINGTON, KY, 40507","Match","Exact","348 E MAIN ST, LEXINGTON, KY, 40507",31921872,"R"
181808,"348 EAST 11TH STREET","JACKSONVILLE","FL",32206,30.349865795,-81.648277121,308,"348 EAST 11TH STREET, JACKSONVILLE, FL, 32206","Match","Exact","348 E 11TH ST, JACKSONVILLE, FL, 32206",83899175,"R"
181809,"348 FOURTH STREET","LYNDHURST","NJ",7071,40.803956602,-74.120763124,309,"348 FOURTH STREET, LYNDHURST, NJ, 7071","Match","Exact","348 4TH ST, LYNDHURST, NJ, 07071",64416336,"R"
181810,"348 GOLDEN MAPLE DRIVE","VIRGINIA BEACH","VA",23452,36.832973931,-76.0815179049999,310,"348 GOLDEN MAPLE DRIVE, VIRGINIA BEACH, VA, 23452","Match","Exact","348 GOLDEN MAPLE DR, VA BCH, VA, 23452",122282917,"R"
181811,"348 HATCH DRIVE","FOSTER CITY","CA",94404,37.5666389880001,-122.274551972,311,"348 HATCH DRIVE, FOSTER CITY, CA, 94404","Match","Exact","348 HATCH DR, FOSTER CITY, CA, 94404",192380300,"R"
181812,"348 HIGH KNOLLS LN","DEEP GAP","NC",28618,36.2082248310001,-81.509327857,312,"348 HIGH KNOLLS LN, DEEP GAP, NC, 28618","Match","Exact","348 HIGH KNOLLS LN, DEEP GAP, NC, 28618",234436489,"R"
181813,"348 INDUSTRIAL AVE","MORRISTOWN","TN",37813,36.2435200350001,-83.2076690929999,313,"348 INDUSTRIAL AVE, MORRISTOWN, TN, 37813","Match","Exact","348 INDUSTRIAL AVE, MORRISTOWN, TN, 37813",42218790,"R"
181814,"348 IRISH RD PO BOX 819","SCOTTSVILLE","VA",24590,37.808119554,-78.5124481459999,314,"348 IRISH RD PO BOX 819, SCOTTSVILLE, VA, 24590","Match","Exact","348 IRISH RD, SCOTTSVILLE, VA, 24590",83381384,"R"
181815,"348 JACKSON AVE","SEWARD","NE",68434,40.9087409750001,-97.096079636,315,"348 JACKSON AVE, SEWARD, NE, 68434","Match","Exact","348 JACKSON AVE, SEWARD, NE, 68434",39456691,"R"
181816,"348 JEFFERSON AVE APT 55","CANANDAIGUA","NY",14424,42.8860623690001,-77.272020547,316,"348 JEFFERSON AVE APT 55, CANANDAIGUA, NY, 14424","Match","Exact","348 JEFFERSON AVE, CANANDAIGUA, NY, 14424",13471842,"L"
181817,"348 LEEWARD CIR","AZLE","TX",76020,32.897118543,-97.515528645,317,"348 LEEWARD CIR, AZLE, TX, 76020","Match","Exact","348 LEEWARD CIR, AZLE, TX, 76020",102144721,"R"
181818,"348 LENOX ST","DETROIT","MI",48215,42.3613151810001,-82.945382293,318,"348 LENOX ST, DETROIT, MI, 48215","Match","Exact","348 LENOX ST, DETROIT, MI, 48215",95486110,"R"
181819,"348 LIVE OAKS DR","MILBROOK","AL",36054,NA,NA,319,"348 LIVE OAKS DR, MILBROOK, AL, 36054","No_Match",NA,NA,NA,NA
181820,"348 MAIN ST","LATROBE","PA",15650,40.3169918570001,-79.3837557379999,320,"348 MAIN ST, LATROBE, PA, 15650","Match","Exact","348 MAIN ST, LATROBE, PA, 15650",52946618,"L"
181821,"348 MILLSTONE BROOK RD","SOUTHAMPTON","NY",11968,40.911771781,-72.43572676,321,"348 MILLSTONE BROOK RD, SOUTHAMPTON, NY, 11968","Match","Exact","348 MILLSTONE BROOK RD, SOUTHAMPTON, NY, 11968",114028781,"R"
181822,"348 MONROE ST","HIGBEE","MO",65257,39.3076467720001,-92.50804334,322,"348 MONROE ST, HIGBEE, MO, 65257","Match","Exact","348 MONROE ST, HIGBEE, MO, 65257",23805751,"R"
181823,"348 MULBERRY DR","DANVILLE","IN",46122,39.7578313550001,-86.5196973879999,323,"348 MULBERRY DR, DANVILLE, IN, 46122","Match","Non_Exact","348 MULBERRY ST, DANVILLE, IN, 46122",89196607,"R"
181824,"348 N GREEN ST","WICHITA","KS",67214,37.690920369,-97.30641594,324,"348 N GREEN ST, WICHITA, KS, 67214","Match","Exact","348 N GREEN ST, WICHITA, KS, 67214",115637206,"R"
181825,"348 PENNIMAN","BAXLEY","GA",31513,31.783941816,-82.3549929229999,325,"348 PENNIMAN, BAXLEY, GA, 31513","Match","Non_Exact","348 PENNIMAN ST, BAXLEY, GA, 31513",639890971,"R"
181826,"348 PHILLIPS RD","LEXA","AR",72355,NA,NA,326,"348 PHILLIPS RD, LEXA, AR, 72355","No_Match",NA,NA,NA,NA
181827,"348 PINE CREEK ROAD","KEMPTON","PA",19529,40.6160378860001,-75.889707651,327,"348 PINE CREEK ROAD, KEMPTON, PA, 19529","Match","Exact","348 PINE CREEK RD, KEMPTON, PA, 19529",80365312,"L"
181828,"348 PINNACLE DRIVE","LAKE FOREST","CA",92630,33.6689857700001,-117.655568035,328,"348 PINNACLE DRIVE, LAKE FOREST, CA, 92630","Match","Exact","348 PINNACLE DR, LAKE FOREST, CA, 92630",651217019,"R"
181829,"348 RTE 376","HOPEWELL JUNCTION","NY",12533,41.5749668340001,-73.8072477759999,329,"348 RTE 376, HOPEWELL JUNCTION, NY, 12533","Match","Non_Exact","348 STATE RTE 376, HOPEWELL JCT, NY, 12533",648142097,"R"
181830,"348 RUNYON AVE","MIDDLESEX","NJ",8846,40.5839028990001,-74.480160779,330,"348 RUNYON AVE, MIDDLESEX, NJ, 8846","Match","Exact","348 RUNYON AVE, MIDDLESEX, NJ, 08846",60259033,"L"
181831,"348 S 1575 WEST","LEHI","UT",84043,40.384215849,-111.874899581,331,"348 S 1575 WEST, LEHI, UT, 84043","Match","Exact","348 S 1575 W, LEHI, UT, 84043",134253951,"L"
181832,"348 S ORCHARD ST","ORMOND BEACH","FL",32174,29.2701963750001,-81.0628831069999,332,"348 S ORCHARD ST, ORMOND BEACH, FL, 32174","Match","Exact","348 S ORCHARD ST, ORMOND BEACH, FL, 32174",94521526,"R"
181833,"348 S WAVERLY RD","HOLLAND","MI",49423,42.784620725,-86.077581376,333,"348 S WAVERLY RD, HOLLAND, MI, 49423","Match","Exact","348 S WAVERLY RD, HOLLAND, MI, 49423",647169842,"L"
181834,"348 SOUTH MAIN STREET","WELLINGTON","OH",44090,41.1617613490001,-82.217688715,334,"348 SOUTH MAIN STREET, WELLINGTON, OH, 44090","Match","Exact","348 S MAIN ST, WELLINGTON, OH, 44090",55412542,"L"
181835,"348 SOUTHWICKS DR","STREAMWOOD","IL",60107,NA,NA,335,"348 SOUTHWICKS DR, STREAMWOOD, IL, 60107","No_Match",NA,NA,NA,NA
181836,"348 STAFFORD AVE","BOZEMAN","MT",59718,45.6821061530001,-111.102489735,336,"348 STAFFORD AVE, BOZEMAN, MT, 59718","Match","Exact","348 STAFFORD AVE, BOZEMAN, MT, 59718",649796070,"R"
181837,"348 THOMPSON CREEK MALL SUITE 353","STEVENSVILLE","MD",21666,38.9759873250001,-76.31423072,337,"348 THOMPSON CREEK MALL SUITE 353, STEVENSVILLE, MD, 21666","Match","Exact","348 THOMPSON CREEK MALL, STEVENSVILLE, MD, 21666",68051620,"R"
181838,"348 TUDOR COURT","GLENCOE","IL",60022,42.1348941300001,-87.759393874,338,"348 TUDOR COURT, GLENCOE, IL, 60022","Match","Exact","348 TUDOR CT, GLENCOE, IL, 60022",111840441,"L"
181839,"348 VALLETTE STREET","NEW ORLEANS","LA",70114,29.9527091680001,-90.048927288,339,"348 VALLETTE STREET, NEW ORLEANS, LA, 70114","Match","Exact","348 VALLETTE ST, NEW ORLEANS, LA, 70114",191716919,"L"
181840,"348 VALLEY RD","WEST GROVE","PA",19390,NA,NA,340,"348 VALLEY RD, WEST GROVE, PA, 19390","No_Match",NA,NA,NA,NA
181841,"348 W 57TH STREET NO 455","NEW YORK","NY",10019,NA,NA,341,"348 W 57TH STREET NO 455, NEW YORK, NY, 10019","No_Match",NA,NA,NA,NA
181842,"348 W 7TH STREET 1","LONG BEACH","CA",90813,NA,NA,342,"348 W 7TH STREET 1, LONG BEACH, CA, 90813","Tie",NA,NA,NA,NA
181843,"348 W NORMAN AVE","ARCADIA","CA",91007,34.120581558,-118.043645516,343,"348 W NORMAN AVE, ARCADIA, CA, 91007","Match","Exact","348 W NORMAN AVE, ARCADIA, CA, 91007",141645354,"L"
181844,"348 WATER STREET","BOLIVAR","OH",44612,40.6498685010001,-81.457390747,344,"348 WATER STREET, BOLIVAR, OH, 44612","Match","Non_Exact","348 WATER ST SW, BOLIVAR, OH, 44612",44239702,"L"
181845,"348 WEST 47TH STREET APT 4B","NEW YORK","NY",10036,40.760993737,-73.988872608,345,"348 WEST 47TH STREET APT 4B, NEW YORK, NY, 10036","Match","Exact","348 W 47TH ST, NEW YORK, NY, 10036",59655218,"L"
181846,"348 WEST 79TH STREET","SHREVEPORT","LA",71106,32.4327001,-93.761971842,346,"348 WEST 79TH STREET, SHREVEPORT, LA, 71106","Match","Exact","348 W 79TH ST, SHREVEPORT, LA, 71106",57481918,"R"
181847,"348 WEST MAIN STREET","FRANKLIN","IN",46131,NA,NA,347,"348 WEST MAIN STREET, FRANKLIN, IN, 46131","Tie",NA,NA,NA,NA
181848,"348 WHITNEY BAY","WINDSOR","CO",80550,40.459769715,-104.890189496,348,"348 WHITNEY BAY, WINDSOR, CO, 80550","Match","Exact","348 WHITNEY BAY, WINDSOR, CO, 80550",188718751,"R"
181849,"348-A CHRIS COLLINS ROAD","SAWYERVILLE","AL",36776,32.7376969800001,-87.700910591,349,"348-A CHRIS COLLINS ROAD, SAWYERVILLE, AL, 36776","Match","Exact","348 CHRIS COLLINS RD, SAWYERVILLE, AL, 36776",38994724,"L"
181850,"348","FORD CITY","PA",16226,NA,NA,350,"348, FORD CITY, PA, 16226","No_Match",NA,NA,NA,NA
181851,"348","NAPOLEON","OH",43545,NA,NA,351,"348, NAPOLEON, OH, 43545","No_Match",NA,NA,NA,NA
181852,"3480 33RD AVENUE NORTH UNIT 52","SAINT PETERSBURG","FL",33713,27.801911966,-82.681299004,352,"3480 33RD AVENUE NORTH UNIT 52, SAINT PETERSBURG, FL, 33713","Match","Exact","3480 33RD AVE N, SAINT PETERSBURG, FL, 33713",124702120,"L"
181853,"3480 AMHURST PKWY","ATLANTA","GA",30349,33.663746309,-84.621276066,353,"3480 AMHURST PKWY, ATLANTA, GA, 30349","Match","Exact","3480 AMHURST PKWY, ATLANTA, GA, 30349",644630070,"L"
181854,"3480 BROWNING DRIVE","TUPELO","MS",38801,NA,NA,354,"3480 BROWNING DRIVE, TUPELO, MS, 38801","No_Match",NA,NA,NA,NA
181855,"3480 COMMODORE COURT","WEST PALM BEACH","FL",33411,26.727376549,-80.144853757,355,"3480 COMMODORE COURT, WEST PALM BEACH, FL, 33411","Match","Exact","3480 COMMODORE CT, WEST PALM BEACH, FL, 33411",115572453,"R"
181856,"3480 EAST STREET","HARTLAND","MI",48353,NA,NA,356,"3480 EAST STREET, HARTLAND, MI, 48353","No_Match",NA,NA,NA,NA
181857,"3480 EISENHOWER CIR SE","ATLANTA","GA",30354,33.6592122550001,-84.358553313,357,"3480 EISENHOWER CIR SE, ATLANTA, GA, 30354","Match","Exact","3480 EISENHOWER CIR SE, ATLANTA, GA, 30354",17359017,"L"
181858,"3480 GOLFVIEW DR APT 1113","EAGAN","MN",55123,44.8312833910001,-93.146335489,358,"3480 GOLFVIEW DR APT 1113, EAGAN, MN, 55123","Match","Exact","3480 GOLFVIEW DR, EAGAN, MN, 55123",37909087,"L"
181859,"3480 HIDDEN CANYON RD","ROANOKE","TX",76262,32.981149476,-97.287115435,359,"3480 HIDDEN CANYON RD, ROANOKE, TX, 76262","Match","Exact","3480 HIDDEN CANYON RD, ROANOKE, TX, 76262",102118941,"R"
181860,"3480 HILLSDALE COURT","ASHEBORO","NC",27205,35.7310515390001,-79.921341109,360,"3480 HILLSDALE COURT, ASHEBORO, NC, 27205","Match","Exact","3480 HILLSDALE CT, ASHEBORO, NC, 27205",653493968,"R"
181861,"3480 HOLY CROSS ROAD","LORETTO","KY",40037,37.6777821480001,-85.405961309,361,"3480 HOLY CROSS ROAD, LORETTO, KY, 40037","Match","Exact","3480 HOLY CROSS RD, LORETTO, KY, 40037",637544607,"R"
181862,"3480 KINGS POINT ROAD","MINNETRISTA","MN",55331,44.9146456350001,-93.697084175,362,"3480 KINGS POINT ROAD, MINNETRISTA, MN, 55331","Match","Exact","3480 KINGS POINT RD, MINNETRISTA, MN, 55331",650863334,"L"
181863,"3480 KIRBY RD","MEMPHIS","TN",38115,35.053618966,-89.846555015,363,"3480 KIRBY RD, MEMPHIS, TN, 38115","Match","Exact","3480 KIRBY RD, MEMPHIS, TN, 38115",607465212,"L"
181864,"3480 MOLINO ROAD","MOLINO","FL",32577,30.717684886,-87.382969723,364,"3480 MOLINO ROAD, MOLINO, FL, 32577","Match","Exact","3480 MOLINO RD, MOLINO, FL, 32577",93206438,"R"
181865,"3480 NW 18TH ST","LAUDERHILL","FL",33311,26.148815567,-80.1950255209999,365,"3480 NW 18TH ST, LAUDERHILL, FL, 33311","Match","Exact","3480 NW 18TH ST, LAUDERHILL, FL, 33311",114709095,"L"
181866,"3480 QUINNRIDGE DRIVE","SNELLVILLE","GA",30039,33.8221587640001,-84.03829225,366,"3480 QUINNRIDGE DRIVE, SNELLVILLE, GA, 30039","Match","Non_Exact","3480 QUINN RIDGE DR, SNELLVILLE, GA, 30039",88940273,"L"
181867,"3480 S CARRIER PKWY STE 185","GRAND PRAIRIE","TX",75052,32.685803874,-97.0128577949999,367,"3480 S CARRIER PKWY STE 185, GRAND PRAIRIE, TX, 75052","Match","Non_Exact","3480 S CARRIER PKWY, GRAND PRAIRIE, TX, 75052",103174227,"R"
181868,"3480 SHILOH ROAD","MIDLOTHIAN","TX",76065,32.524220814,-96.9533841529999,368,"3480 SHILOH ROAD, MIDLOTHIAN, TX, 76065","Match","Exact","3480 SHILOH RD, MIDLOTHIAN, TX, 76065",648699911,"L"
181869,"3480 SIMON CHAPEL ROAD","SARDIS","MS",38666,34.478347338,-89.778364369,369,"3480 SIMON CHAPEL ROAD, SARDIS, MS, 38666","Match","Exact","3480 SIMON CHAPEL RD, SARDIS, MS, 38666",80090572,"R"
181870,"3480 W 38TH AVE","DENVER","CO",80211,39.7694963700001,-105.03339071,370,"3480 W 38TH AVE, DENVER, CO, 80211","Match","Exact","3480 W 38TH AVE, DENVER, CO, 80211",177300655,"L"
181871,"3480 W ROSS DRIVER","CHANDLER","AZ",85226,NA,NA,371,"3480 W ROSS DRIVER, CHANDLER, AZ, 85226","No_Match",NA,NA,NA,NA
181872,"3480 WALLTINE RD","FERNDALE","WA",98248,48.8266010720001,-122.670281683,372,"3480 WALLTINE RD, FERNDALE, WA, 98248","Match","Exact","3480 WALLTINE RD, FERNDALE, WA, 98248",625041843,"R"
181873,"3480 WORSHAM SPRINGS RD","GREENBRIER","TN",37073,NA,NA,373,"3480 WORSHAM SPRINGS RD, GREENBRIER, TN, 37073","No_Match",NA,NA,NA,NA
181874,"348000 E 5300 RD","PAWNEE","OK",74058,NA,NA,374,"348000 E 5300 RD, PAWNEE, OK, 74058","No_Match",NA,NA,NA,NA
181875,"34801 ROW RIVER RD","COTTAGE GROVE","OR",97424,NA,NA,375,"34801 ROW RIVER RD, COTTAGE GROVE, OR, 97424","No_Match",NA,NA,NA,NA
181876,"3481 BROWN ROAD","ELLENSBURG","WA",98926,46.9779127990001,-120.580289108,376,"3481 BROWN ROAD, ELLENSBURG, WA, 98926","Match","Exact","3481 BROWN RD, ELLENSBURG, WA, 98926",157225949,"L"
181877,"3481 BUSINESS 220","BEDFORD","PA",15522,NA,NA,377,"3481 BUSINESS 220, BEDFORD, PA, 15522","No_Match",NA,NA,NA,NA
181878,"3481 CERES DRIVE","SALT LAKE CITY","UT",84124,40.6808427560001,-111.795883828,378,"3481 CERES DRIVE, SALT LAKE CITY, UT, 84124","Match","Non_Exact","3481 E CERES DR, SALT LAKE CITY, UT, 84124",176095112,"L"
181879,"3481 JOUSHUA DRIVE","MILTON","WI",53563,42.7480423220001,-88.975251946,379,"3481 JOUSHUA DRIVE, MILTON, WI, 53563","Match","Non_Exact","3481 JOSHUA DR, MILTON, WI, 53563",617256551,"L"
181880,"3481 LAKESIDE DR NE APT 1007","ATLANTA","GA",30326,33.849299193,-84.358175729,380,"3481 LAKESIDE DR NE APT 1007, ATLANTA, GA, 30326","Match","Exact","3481 LAKESIDE DR NE, ATLANTA, GA, 30326",647343849,"R"
181881,"3481 LAKESIDE DRIVE NE APT 1907","ATLANTA","GA",30326,33.849299193,-84.358175729,381,"3481 LAKESIDE DRIVE NE APT 1907, ATLANTA, GA, 30326","Match","Exact","3481 LAKESIDE DR NE, ATLANTA, GA, 30326",647343849,"R"
181882,"3481 LAKESIDE DRIVE NE SUITE TS5","ATLANTA","GA",30326,33.849299193,-84.358175729,382,"3481 LAKESIDE DRIVE NE SUITE TS5, ATLANTA, GA, 30326","Match","Exact","3481 LAKESIDE DR NE, ATLANTA, GA, 30326",647343849,"R"
181883,"3481 S MURLO WAY","MERIDIAN","ID",83642,43.5734572210001,-116.375827149,383,"3481 S MURLO WAY, MERIDIAN, ID, 83642","Match","Exact","3481 S MURLO WAY, MERIDIAN, ID, 83642",617936759,"R"
181884,"3481 STARBIRD DRIVE","OCOEE","FL",34761,28.6196540490001,-81.540163717,384,"3481 STARBIRD DRIVE, OCOEE, FL, 34761","Match","Exact","3481 STARBIRD DR, OCOEE, FL, 34761",94412373,"L"
181885,"3481 US HWY 220 ALT N","SEAGROVE","NC",27341,35.477672225,-79.77755281,385,"3481 US HWY 220 ALT N, SEAGROVE, NC, 27341","Match","Exact","3481 US HWY 220 ALT N, SEAGROVE, NC, 27341",20045845,"L"
181886,"3482 AIRFIELD DR W","LAKELAND","FL",33811,27.994154333,-82.015710164,386,"3482 AIRFIELD DR W, LAKELAND, FL, 33811","Match","Exact","3482 AIRFIELD DR W, LAKELAND, FL, 33811",633999767,"R"
181887,"3482 AIRFIELD DRIVE WEST","LAKELAND","FL",33811,27.994154333,-82.015710164,387,"3482 AIRFIELD DRIVE WEST, LAKELAND, FL, 33811","Match","Exact","3482 AIRFIELD DR W, LAKELAND, FL, 33811",633999767,"R"
181888,"3482 BARCA STREET","CAMARILLO","CA",93010,34.232204236,-119.021897527,388,"3482 BARCA STREET, CAMARILLO, CA, 93010","Match","Non_Exact","3482 E BARCA ST, CAMARILLO, CA, 93010",110049028,"R"
181889,"3482 HAMLIN SQUARE SW","ATLANTA","GA",30331,33.661548983,-84.555312305,389,"3482 HAMLIN SQUARE SW, ATLANTA, GA, 30331","Match","Non_Exact","3482 HAMLIN SQ, ATLANTA, GA, 30331",634083642,"L"
181890,"3482 KEITH BRIDGE RD STE 342","CUMMING","GA",30041,34.2598531240001,-84.070923667,390,"3482 KEITH BRIDGE RD STE 342, CUMMING, GA, 30041","Match","Exact","3482 KEITH BRIDGE RD, CUMMING, GA, 30041",70176294,"R"
181891,"3482 KINGS RIDGE RD","MITCHELL","IN",47446,38.7635533550001,-86.6191115889999,391,"3482 KINGS RIDGE RD, MITCHELL, IN, 47446","Match","Exact","3482 KINGS RIDGE RD, MITCHELL, IN, 47446",650798881,"R"
181892,"3482 NW 10TH STREET","OCALA","FL",34475,29.1972698050001,-82.180849021,392,"3482 NW 10TH STREET, OCALA, FL, 34475","Match","Exact","3482 NW 10TH ST, OCALA, FL, 34475",638039308,"L"
181893,"3482 WEST CANNON CREEK CIRCLE","WEST VALLEY CITY","UT",84119,40.702864742,-111.974047843,393,"3482 WEST CANNON CREEK CIRCLE, WEST VALLEY CITY, UT, 84119","Match","Non_Exact","3482 CANNON CREEK CIR, WEST VALLEY CITY, UT, 84119",176128321,"R"
181894,"3482 WESTPORT COURT","CINCINNATI","OH",45248,39.1532131220001,-84.656179702,394,"3482 WESTPORT COURT, CINCINNATI, OH, 45248","Match","Exact","3482 WESTPORT CT, CINCINNATI, OH, 45248",103915883,"L"
181895,"3482 WORTHINGTON OAKS DR","ORANGE PARK","FL",32065,30.1859607260001,-81.822080474,395,"3482 WORTHINGTON OAKS DR, ORANGE PARK, FL, 32065","Match","Exact","3482 WORTHINGTON OAKS DR, ORANGE PARK, FL, 32065",606232733,"L"
181896,"34822 GLADSTONE DR","FREMONT","CA",94555,37.5768242550001,-122.029423723,396,"34822 GLADSTONE DR, FREMONT, CA, 94555","Match","Non_Exact","34822 GLADSTONE PL, FREMONT, CA, 94555",125027497,"L"
181897,"3483 FM 982","PRINCETON","TX",75407,NA,NA,397,"3483 FM 982, PRINCETON, TX, 75407","No_Match",NA,NA,NA,NA
181898,"3483 FULLER ROAD","EMMETT","ID",83617,43.9044972360001,-116.435140311,398,"3483 FULLER ROAD, EMMETT, ID, 83617","Match","Exact","3483 FULLER RD, EMMETT, ID, 83617",647476203,"L"
181899,"3483 KING EDWARD WAY","BEAVERCREEK","OH",45431,39.764452911,-84.062003723,399,"3483 KING EDWARD WAY, BEAVERCREEK, OH, 45431","Match","Exact","3483 KING EDWARD WAY, BEAVERCREEK, OH, 45431",143412668,"R"
181900,"3483 MELROSE DRIVE","COLUMBUS","GA",31906,32.4737738360001,-84.942371221,400,"3483 MELROSE DRIVE, COLUMBUS, GA, 31906","Match","Exact","3483 MELROSE DR, COLUMBUS, GA, 31906",98939300,"L"
181901,"3483 TAMARACK DRIVE","SHARPSVILLE","PA",16150,41.2812850540001,-80.485316182,401,"3483 TAMARACK DRIVE, SHARPSVILLE, PA, 16150","Match","Exact","3483 TAMARACK DR, SHARPSVILLE, PA, 16150",605361205,"L"
181902,"34831 AUBERRY ROAD","AUBERRY","CA",93602,37.088685969,-119.475727833,402,"34831 AUBERRY ROAD, AUBERRY, CA, 93602","Match","Exact","34831 AUBERRY RD, AUBERRY, CA, 93602",627807300,"L"
181903,"34832 MARSH GLEN CT","ZEPHYRHILLS","FL",33541,28.2439527990001,-82.24085644,403,"34832 MARSH GLEN CT, ZEPHYRHILLS, FL, 33541","Match","Exact","34832 MARSH GLEN CT, ZEPHYRHILLS, FL, 33541",627028779,"L"
181904,"3484 AIRPORT RD","PORTAGE","IN",46368,41.56327909,-87.1635006879999,404,"3484 AIRPORT RD, PORTAGE, IN, 46368","Match","Exact","3484 AIRPORT RD, PORTAGE, IN, 46368",119930424,"L"
181905,"3484 E MICHAEL ST","INVERNESS","FL",34453,28.8610373970001,-82.376613988,405,"3484 E MICHAEL ST, INVERNESS, FL, 34453","Match","Exact","3484 E MICHAEL ST, INVERNESS, FL, 34453",86201324,"L"
181906,"3484 SPAULDING RD","WEST JORDAN","UT",84088,40.6075933270001,-111.9747117,406,"3484 SPAULDING RD, WEST JORDAN, UT, 84088","Match","Exact","3484 SPAULDING RD, WEST JORDAN, UT, 84088",176114756,"R"
181907,"3484 WESTHAM LANE","TOANO","VA",23168,37.400868809,-76.798324696,407,"3484 WESTHAM LANE, TOANO, VA, 23168","Match","Exact","3484 WESTHAM LN, TOANO, VA, 23168",645660693,"L"
181908,"34840 BUNKER HILL","FARMINGTON HILLS","MI",48331,42.4997045320001,-83.395016471,408,"34840 BUNKER HILL, FARMINGTON HILLS, MI, 48331","Match","Non_Exact","34840 BUNKER HILL DR, FARMINGTON HILLS, MI, 48331",69722639,"L"
181909,"34841 MOUND RD 286","STERLING HEIGHTS","MI",48310,42.549231838,-83.048526997,409,"34841 MOUND RD 286, STERLING HEIGHTS, MI, 48310","Match","Exact","34841 MOUND RD, STERLING HEIGHTS, MI, 48310",110738383,"R"
181910,"3485 BOXELDER PL","COLUMBUS","OH",43221,40.0256623510001,-83.0971343159999,410,"3485 BOXELDER PL, COLUMBUS, OH, 43221","Match","Exact","3485 BOXELDER PL, COLUMBUS, OH, 43221",135611244,"L"
181911,"3485 DAFFODIL NW","GRAND RAPIDS","MI",49534,NA,NA,411,"3485 DAFFODIL NW, GRAND RAPIDS, MI, 49534","No_Match",NA,NA,NA,NA
181912,"3485 E PINE AVE","FRESNO","CA",93703,36.7622899630001,-119.766168356,412,"3485 E PINE AVE, FRESNO, CA, 93703","Match","Exact","3485 E PINE AVE, FRESNO, CA, 93703",197576153,"L"
181913,"3485 ENVIRON BLVD - C-106","LAUDERHILL","FL",33319,26.1667147970001,-80.241475071,413,"3485 ENVIRON BLVD - C-106, LAUDERHILL, FL, 33319","Match","Exact","3485 ENVIRON BLVD, LAUDERHILL, FL, 33319",652503095,"L"
181914,"3485 LEACH DR","SUMTER","SC",29154,33.899039397,-80.4284186249999,414,"3485 LEACH DR, SUMTER, SC, 29154","Match","Exact","3485 LEACH DR, SUMTER, SC, 29154",202666454,"R"
181915,"3485 LEWISTON ROAD","WEST SACRAMENTO","NC",27407,NA,NA,415,"3485 LEWISTON ROAD, WEST SACRAMENTO, NC, 27407","No_Match",NA,NA,NA,NA
181916,"3485 MISTY CREEK DR","ERLANGER","KY",41018,38.9982333820001,-84.5760533059999,416,"3485 MISTY CREEK DR, ERLANGER, KY, 41018","Match","Exact","3485 MISTY CREEK DR, ERLANGER, KY, 41018",103877790,"L"
181917,"3485 MORGAN DR","MACON","GA",31204,32.846956226,-83.682112925,417,"3485 MORGAN DR, MACON, GA, 31204","Match","Exact","3485 MORGAN DR, MACON, GA, 31204",81058867,"R"
181918,"3485 PARK RIDGE RD","SEDALIA","CO",80135,39.327169553,-104.952067447,418,"3485 PARK RIDGE RD, SEDALIA, CO, 80135","Match","Exact","3485 PARK RIDGE RD, SEDALIA, CO, 80135",130846838,"R"
181919,"3485 PROMENADE PLACE 108","WALDORF","MD",20603,38.6148855230001,-76.935216918,419,"3485 PROMENADE PLACE 108, WALDORF, MD, 20603","Match","Exact","3485 PROMENADE PL, WALDORF, MD, 20603",650799492,"L"
181920,"3485 RHODES AVE","MEMPHIS","TN",38111,35.0992137980001,-89.945866718,420,"3485 RHODES AVE, MEMPHIS, TN, 38111","Match","Exact","3485 RHODES AVE, MEMPHIS, TN, 38111",72919722,"R"
181921,"3485 SHARF ROAD","DELPHOS","OH",45833,40.786616069,-84.378344681,421,"3485 SHARF ROAD, DELPHOS, OH, 45833","Match","Exact","3485 SHARF RD, DELPHOS, OH, 45833",209549021,"L"
181922,"3485 UNIVERSITY AVE SUITE B","RIVERSIDE","CA",92501,33.9807595460001,-117.371909362,422,"3485 UNIVERSITY AVE SUITE B, RIVERSIDE, CA, 92501","Match","Exact","3485 UNIVERSITY AVE, RIVERSIDE, CA, 92501",194742102,"R"
181923,"3485 W COLDWATER RD","MOUNT MORRIS","MI",48458,43.090018925,-83.751276471,423,"3485 W COLDWATER RD, MOUNT MORRIS, MI, 48458","Match","Exact","3485 COLDWATER RD, MOUNT MORRIS, MI, 48458",633509945,"L"
181924,"3485 W SHAW AVE STE 101","FRESNO","CA",93711,36.808266825,-119.85553201,424,"3485 W SHAW AVE STE 101, FRESNO, CA, 93711","Match","Non_Exact","3485 W SHAW AVE, FRESNO, CA, 93711",197567664,"L"
181925,"3486 LINDENOAKS DRIVE","SAN JOSE","CA",95117,37.3116132220001,-121.959171862,425,"3486 LINDENOAKS DRIVE, SAN JOSE, CA, 95117","Match","Exact","3486 LINDENOAKS DR, SAN JOSE, CA, 95117",639675033,"L"
181926,"3486 SAILER RD","MOUNT VERNON","IN",47620,37.986885166,-87.845139648,426,"3486 SAILER RD, MOUNT VERNON, IN, 47620","Match","Exact","3486 SAILER RD, MOUNT VERNON, IN, 47620",39737121,"R"
181927,"34864 MISSION BLVD APT 201","UNION CITY","CA",94587,37.5904851240001,-122.00234613,427,"34864 MISSION BLVD APT 201, UNION CITY, CA, 94587","Match","Exact","34864 MISSION BLVD, UNION CITY, CA, 94587",649952143,"L"
181928,"3487 BROAD STREET","DEXTER","MI",48130,42.3400215390001,-83.884316392,428,"3487 BROAD STREET, DEXTER, MI, 48130","Match","Exact","3487 BROAD ST, DEXTER, MI, 48130",26010606,"L"
181929,"3487 COUNTY ROAD 3459","HALEYVILLE","AL",35565,34.2334592130001,-87.543493999,429,"3487 COUNTY ROAD 3459, HALEYVILLE, AL, 35565","Match","Exact","3487 CO RD 3459, HALEYVILLE, AL, 35565",141397245,"L"
181930,"3487 JOPPA MILL ROAD","BEDFORD","VA",24523,37.2638634050001,-79.591039821,430,"3487 JOPPA MILL ROAD, BEDFORD, VA, 24523","Match","Exact","3487 JOPPA MILL RD, BEDFORD, VA, 24523",228432023,"L"
181931,"3487 KENNEDY","JERSEY CITY","NJ",7307,NA,NA,431,"3487 KENNEDY, JERSEY CITY, NJ, 7307","No_Match",NA,NA,NA,NA
181932,"3487 SUMMERLIN PARKWAY","LITHIA SPRINGS","CA",30122,NA,NA,432,"3487 SUMMERLIN PARKWAY, LITHIA SPRINGS, CA, 30122","No_Match",NA,NA,NA,NA
181933,"3487 TALBERT CIR","ROCHESTER HILLS","MI",48307,42.6311475730001,-83.116693523,433,"3487 TALBERT CIR, ROCHESTER HILLS, MI, 48307","Match","Exact","3487 TALBERT CIR, ROCHESTER HILLS, MI, 48307",617973104,"R"
181934,"3487 UMATILLA LANE SW","ATLANTA","GA",30331,33.66165391,-84.547393873,434,"3487 UMATILLA LANE SW, ATLANTA, GA, 30331","Match","Non_Exact","3487 UMATILLA LN, ATLANTA, GA, 30331",624703392,"L"
181935,"34871 WILLIAMS LN","HEMPSTEAD","TX",77445,30.0855351540001,-95.964444053,435,"34871 WILLIAMS LN, HEMPSTEAD, TX, 77445","Match","Exact","34871 WILLIAMS LN, HEMPSTEAD, TX, 77445",78362341,"R"
181936,"3488 BARKWOOD DR","PACE","FL",32571,30.62529034,-87.1748020589999,436,"3488 BARKWOOD DR, PACE, FL, 32571","Match","Exact","3488 BARKWOOD DR, PACE, FL, 32571",74567212,"L"
181937,"3488 BROOKLYN DR","CANTON","MI",48188,42.2794277880001,-83.521136579,437,"3488 BROOKLYN DR, CANTON, MI, 48188","Match","Exact","3488 BROOKLYN DR, CANTON, MI, 48188",95725959,"L"
181938,"3488 E ARMSTRONG LANE","TUCSON","AZ",85739,32.495365147,-110.917837403,438,"3488 E ARMSTRONG LANE, TUCSON, AZ, 85739","Match","Exact","3488 E ARMSTRONG LN, TUCSON, AZ, 85739",121385124,"R"
181939,"3488 EAGLE NEST DRIVE","CRETE","IL",60417,41.467957751,-87.5787503769999,439,"3488 EAGLE NEST DRIVE, CRETE, IL, 60417","Match","Exact","3488 EAGLE NEST DR, CRETE, IL, 60417",607942574,"R"
181940,"3488 MEADOWLARK DR","DECATUR","IL",62526,39.888997805,-88.9107283179999,440,"3488 MEADOWLARK DR, DECATUR, IL, 62526","Match","Non_Exact","3488 N MEADOWLARK DR, DECATUR, IL, 62526",20747682,"R"
181941,"3488 S DUPONT BLVD","SMYRNA","DE",19977,39.2548518130001,-75.5863772769999,441,"3488 S DUPONT BLVD, SMYRNA, DE, 19977","Match","Exact","3488 S DUPONT BLVD, SMYRNA, DE, 19977",68103142,"L"
181942,"3488 S HAWK DR","SARATOGA SPRINGS","UT",84045,40.298698222,-111.886545939,442,"3488 S HAWK DR, SARATOGA SPRINGS, UT, 84045","Match","Exact","3488 HAWK DR, SARATOGA SPRINGS, UT, 84045",601265466,"R"
181943,"3488 SAND HILL ROAD","HINESTON","LA",71438,31.079588437,-92.861178522,443,"3488 SAND HILL ROAD, HINESTON, LA, 71438","Match","Exact","3488 SAND HILL RD, HINESTON, LA, 71438",13582058,"R"
181944,"3488 WARBLER DRIVE","DECATUR","GA",30034,33.691087205,-84.245975997,444,"3488 WARBLER DRIVE, DECATUR, GA, 30034","Match","Exact","3488 WARBLER DR, DECATUR, GA, 30034",23371266,"L"
181945,"34881 EBERLEIN","FRASER","MI",48026,42.5522600100001,-82.96809187,445,"34881 EBERLEIN, FRASER, MI, 48026","Match","Non_Exact","34881 EBERLEIN DR, FRASER, MI, 48026",110706962,"R"
181946,"34888 11TH ST UNIT 417","UNION CITY","CA",94587,37.5921191790001,-122.017076707,446,"34888 11TH ST UNIT 417, UNION CITY, CA, 94587","Match","Exact","34888 11TH ST, UNION CITY, CA, 94587",638567436,"R"
181947,"34889 WINCHESTER PL","FREMONT","CA",94555,37.5777995930001,-122.02729635,447,"34889 WINCHESTER PL, FREMONT, CA, 94555","Match","Exact","34889 WINCHESTER PL, FREMONT, CA, 94555",125040128,"R"
181948,"3489 DEVON PINES","KESWICK","MD",22947,NA,NA,448,"3489 DEVON PINES, KESWICK, MD, 22947","No_Match",NA,NA,NA,NA
181949,"3489 E 600 N","ANDERSON","IN",46012,40.1939303240001,-85.605046473,449,"3489 E 600 N, ANDERSON, IN, 46012","Match","Exact","3489 E 600 N, ANDERSON, IN, 46012",31117288,"R"
181950,"3489 FOXFIELD CIRCLE","PERKIOMENVILLE","PA",18074,40.3047178670001,-75.4918563269999,450,"3489 FOXFIELD CIRCLE, PERKIOMENVILLE, PA, 18074","Match","Exact","3489 FOXFIELD CIR, PERKIOMENVILLE, PA, 18074",135115810,"L"
181951,"3489 LADY MARGARET LN","TUCKER","GA",30084,33.860089384,-84.2459988259999,451,"3489 LADY MARGARET LN, TUCKER, GA, 30084","Match","Exact","3489 LADY MARGARET LN, TUCKER, GA, 30084",23361754,"R"
181952,"3489 NATHAN DRIVE","ANDERSON","CA",96007,40.4584124630001,-122.304517874,452,"3489 NATHAN DRIVE, ANDERSON, CA, 96007","Match","Exact","3489 NATHAN DR, ANDERSON, CA, 96007",628551886,"L"
181953,"34890 OLD STAGE ROAD","DELMAR","DE",19940,38.489694575,-75.540736258,453,"34890 OLD STAGE ROAD, DELMAR, DE, 19940","Match","Exact","34890 OLD STAGE RD, DELMAR, DE, 19940",106074143,"L"
181954,"34896 STAR LN","FRANKFORD","DE",19945,38.5196636800001,-75.144407523,454,"34896 STAR LN, FRANKFORD, DE, 19945","Match","Exact","34896 STAR LN, FRANKFORD, DE, 19945",623833320,"R"
181955,"349 3RD STREET","JERSEY CITY","NJ",7302,40.7237805940001,-74.050428959,455,"349 3RD STREET, JERSEY CITY, NJ, 7302","Match","Exact","349 3RD ST, JERSEY CITY, NJ, 07302",59605898,"L"
181956,"349 ATWOOD DR","LEXINGTON","KY",40515,37.960748418,-84.52752789,456,"349 ATWOOD DR, LEXINGTON, KY, 40515","Match","Exact","349 ATWOOD DR, LEXINGTON, KY, 40515",31924828,"L"
181957,"349 B CENTRAL PARK AVE B","SCARSDALE","NY",10583,41.0083029630001,-73.809529814,457,"349 B CENTRAL PARK AVE B, SCARSDALE, NY, 10583","Match","Exact","349 CENTRAL PARK AVE, SCARSDALE, NY, 10583",139802855,"L"
181958,"349 BARTLEY RD","DAYTONA BEACH","FL",32114,29.208149184,-81.0416154449999,458,"349 BARTLEY RD, DAYTONA BEACH, FL, 32114","Match","Exact","349 BARTLEY RD, DAYTONA BEACH, FL, 32114",94524626,"R"
181959,"349 BUSHY HEAD RD","CHERRY LOG","GA",30522,34.8486394440001,-84.410296124,459,"349 BUSHY HEAD RD, CHERRY LOG, GA, 30522","Match","Exact","349 BUSHY HEAD RD, CHERRY LOG, GA, 30522",635528331,"L"
181960,"349 CEMETERY ST","HUGHESVILLE","PA",17737,41.2407868870001,-76.7320666909999,460,"349 CEMETERY ST, HUGHESVILLE, PA, 17737","Match","Exact","349 CEMETERY ST, HUGHESVILLE, PA, 17737",59479187,"L"
181961,"349 CEMETERY STREET","HUGHESVILLE","PA",17737,41.2407868870001,-76.7320666909999,461,"349 CEMETERY STREET, HUGHESVILLE, PA, 17737","Match","Exact","349 CEMETERY ST, HUGHESVILLE, PA, 17737",59479187,"L"
181962,"349 CENTERVILLE ROAD BLDG 6","WARWICK","RI",2886,41.6976610360001,-71.472877518,462,"349 CENTERVILLE ROAD BLDG 6, WARWICK, RI, 2886","Match","Exact","349 CENTERVILLE RD, WARWICK, RI, 02886",159163059,"R"
181963,"349 CHESTERVILLE AVE","CARDINGTON","OH",43315,40.496300632,-82.886384839,463,"349 CHESTERVILLE AVE, CARDINGTON, OH, 43315","Match","Exact","349 CHESTERVILLE AVE, CARDINGTON, OH, 43315",12750409,"L"
181964,"349 CO RD 350N","SIGEL","IL",62462,NA,NA,464,"349 CO RD 350N, SIGEL, IL, 62462","No_Match",NA,NA,NA,NA
181965,"349 COCONUT CIRCLE","WESTON","FL",33326,26.1151875240001,-80.4002009439999,465,"349 COCONUT CIRCLE, WESTON, FL, 33326","Match","Exact","349 COCONUT CIR, WESTON, FL, 33326",114782599,"R"
181966,"349 COUNTRY LANE","PITTSBORO","NC",27312,35.7353207730001,-79.079577495,466,"349 COUNTRY LANE, PITTSBORO, NC, 27312","Match","Exact","349 COUNTRY LN, PITTSBORO, NC, 27312",71379686,"L"
181967,"349 COUNTY RD 273","SHUBUTA","MS",39360,31.940871499,-88.783404409,467,"349 COUNTY RD 273, SHUBUTA, MS, 39360","Match","Exact","349 CO RD 273, SHUBUTA, MS, 39360",612377883,"L"
181968,"349 DECATUR STREET SE /SUITE L","ATLANTA","GA",30312,33.7499463070001,-84.378119011,468,"349 DECATUR STREET SE /SUITE L, ATLANTA, GA, 30312","Match","Exact","349 DECATUR ST SE, ATLANTA, GA, 30312",17357357,"R"
181969,"349 DEER CREEK RD","SAXONBURG","PA",16056,40.7075760590001,-79.859582941,469,"349 DEER CREEK RD, SAXONBURG, PA, 16056","Match","Exact","349 DEER CREEK RD, SAXONBURG, PA, 16056",52673707,"R"
181970,"349 DONOHOE ROAD","GREENSBURG","PA",15601,40.3135057160001,-79.4895659969999,470,"349 DONOHOE ROAD, GREENSBURG, PA, 15601","Match","Exact","349 DONOHOE RD, GREENSBURG, PA, 15601",625079995,"L"
181971,"349 DORSEY AVE","MORGANTOWN","WV",26501,39.6207227370001,-79.9626189099999,471,"349 DORSEY AVE, MORGANTOWN, WV, 26501","Match","Exact","349 DORSEY AVE, MORGANTOWN, WV, 26501",50746535,"R"
181972,"349 E 49TH ST APT 1K","NEW YORK","NY",10017,40.753753686,-73.9677915079999,472,"349 E 49TH ST APT 1K, NEW YORK, NY, 10017","Match","Non_Exact","349 E 49TH ST, NEW YORK, NY, 10017",59658725,"L"
181973,"349 E 82ND STREET APT 3R","NEW YORK","NY",10028,40.774797807,-73.952437572,473,"349 E 82ND STREET APT 3R, NEW YORK, NY, 10028","Match","Non_Exact","349 E 82ND ST, NEW YORK, NY, 10028",59658299,"L"
181974,"349 E AZURE CIR","DRAPER","UT",84020,NA,NA,474,"349 E AZURE CIR, DRAPER, UT, 84020","Tie",NA,NA,NA,NA
181975,"349 E MAIN ST","TWIN LAKES","WI",53181,42.5319643290001,-88.249748354,475,"349 E MAIN ST, TWIN LAKES, WI, 53181","Match","Exact","349 E MAIN ST, TWIN LAKES, WI, 53181",79811100,"R"
181976,"349 FIRETHORN DRIVE","ROHNERT PARK","CA",94928,38.3690148960001,-122.702152101,476,"349 FIRETHORN DRIVE, ROHNERT PARK, CA, 94928","Match","Exact","349 FIRETHORN DR, ROHNERT PARK, CA, 94928",67471874,"R"
181977,"349 FREDERICK CIR","HASTINGS","MN",55033,44.7103105630001,-92.856363619,477,"349 FREDERICK CIR, HASTINGS, MN, 55033","Match","Exact","349 FREDERICK CIR, HASTINGS, MN, 55033",642240610,"R"
181978,"349 GLENBROOK DRIVE","LENOIR CITY","TN",37771,35.8020136420001,-84.292137087,478,"349 GLENBROOK DRIVE, LENOIR CITY, TN, 37771","Match","Exact","349 GLENBROOK DR, LENOIR CITY, TN, 37771",627598269,"R"
181979,"349 GREEN BAY RD","WASHINGTON ISLAND","WI",54246,45.3411644180001,-86.953282571,479,"349 GREEN BAY RD, WASHINGTON ISLAND, WI, 54246","Match","Exact","349 GREEN BAY RD, WASHINGTON ISLAND, WI, 54246",640621175,"L"
181980,"349 GREENE ST SUITE B","AUGUSTA","GA",30901,33.4698585720001,-81.9560061559999,480,"349 GREENE ST SUITE B, AUGUSTA, GA, 30901","Match","Exact","349 GREENE ST, AUGUSTA, GA, 30901",55641664,"R"
181981,"349 GREENFIELD ROAD","BRIDGEWATER","NJ",8807,40.5959829860001,-74.6200092449999,481,"349 GREENFIELD ROAD, BRIDGEWATER, NJ, 8807","Match","Exact","349 GREENFIELD RD, BRIDGEWATER, NJ, 08807",59999089,"L"
181982,"349 HADDON AVENUE","COLLINGSWOOD","NJ",8108,39.919768219,-75.0794194489999,482,"349 HADDON AVENUE, COLLINGSWOOD, NJ, 8108","Match","Exact","349 HADDON AVE, COLLINGSWOOD, NJ, 08108",134349473,"L"
181983,"349 HODGE ROAD","PERRY","GA",31069,32.3566905440001,-83.8066362069999,483,"349 HODGE ROAD, PERRY, GA, 31069","Match","Exact","349 HODGE RD, PERRY, GA, 31069",91217667,"L"
181984,"349 HOLMES BLVD NW","FORT WALTON BEACH","FL",32548,30.420282711,-86.6375247569999,484,"349 HOLMES BLVD NW, FORT WALTON BEACH, FL, 32548","Match","Exact","349 HOLMES BLVD NW, FORT WALTON BEACH, FL, 32548",74389403,"R"
181985,"349 HOPPER ROAD","GLEASON","TN",38229,36.2145317650001,-88.698465391,485,"349 HOPPER ROAD, GLEASON, TN, 38229","Match","Exact","349 HOPPER RD, GLEASON, TN, 38229",40890361,"R"
181986,"349 HOURGLASS LN","BALDWINSVILLE","NY",13027,43.1763819270001,-76.3548528759999,486,"349 HOURGLASS LN, BALDWINSVILLE, NY, 13027","Match","Exact","349 HOURGLASS LN, BALDWINSVILLE, NY, 13027",46625245,"R"
181987,"349 ILCHESTER AVE","BALTIMORE","MD",21218,39.3227814360001,-76.612188254,487,"349 ILCHESTER AVE, BALTIMORE, MD, 21218","Match","Exact","349 ILCHESTER AVE, BALTIMORE, MD, 21218",206408986,"R"
181988,"349 KENSINGTON","BRANDON","FL",33511,NA,NA,488,"349 KENSINGTON, BRANDON, FL, 33511","No_Match",NA,NA,NA,NA
181989,"349 KHYBER COURT SE","SALEM","OR",97306,44.8812180050001,-123.053302561,489,"349 KHYBER COURT SE, SALEM, OR, 97306","Match","Exact","349 KHYBER CT SE, SALEM, OR, 97306",156277981,"L"
181990,"349 LIBERTY DR","ACWORTH","GA",30102,34.088619911,-84.621266552,490,"349 LIBERTY DR, ACWORTH, GA, 30102","Match","Non_Exact","349 LIBERTY ST, ACWORTH, GA, 30102",642054520,"L"
181991,"349 LINCOLN HALL ROAD","ELIZABETH","PA",15037,40.2792831360001,-79.824419657,491,"349 LINCOLN HALL ROAD, ELIZABETH, PA, 15037","Match","Exact","349 LINCOLN HALL RD, ELIZABETH, PA, 15037",636375523,"L"
181992,"349 LONSDALE AVE 1","PAWTUCKET","RI",2860,41.877479427,-71.3997635059999,492,"349 LONSDALE AVE 1, PAWTUCKET, RI, 2860","Match","Exact","349 LONSDALE AVE, PAWTUCKET, RI, 02860",47462849,"R"
181993,"349 MANOR RIDGE DRIVE NW","ATLANTA","GA",30305,33.823692169,-84.3995210049999,493,"349 MANOR RIDGE DRIVE NW, ATLANTA, GA, 30305","Match","Exact","349 MANOR RIDGE DR NW, ATLANTA, GA, 30305",619859488,"R"
181994,"349 MATTHEWS ESTATES RD","MATTHEWS","NC",28105,35.11075334,-80.722727885,494,"349 MATTHEWS ESTATES RD, MATTHEWS, NC, 28105","Match","Exact","349 MATTHEWS ESTATES RD, MATTHEWS, NC, 28105",70539085,"R"
181995,"349 MCCLAIN RD","KINGSPORT","TN",37660,36.587641273,-82.427896953,495,"349 MCCLAIN RD, KINGSPORT, TN, 37660","Match","Exact","349 MCCLAIN RD, KINGSPORT, TN, 37660",127855724,"L"
181996,"349 MUNICIPAL DR","SACRAMENTO","CA",95838,38.653939044,-121.459446344,496,"349 MUNICIPAL DR, SACRAMENTO, CA, 95838","Match","Exact","349 MUNICIPAL DR, SACRAMENTO, CA, 95838",133380613,"L"
181997,"349 N ARROYO DRIVE","SAN GABRIEL","CA",91775,34.1079739100001,-118.114744199,497,"349 N ARROYO DRIVE, SAN GABRIEL, CA, 91775","Match","Exact","349 N ARROYO DR, SAN GABRIEL, CA, 91775",142256211,"L"
181998,"349 N CENTER STREET","ELKINS","AR",72727,36.0043653280001,-94.008715395,498,"349 N CENTER STREET, ELKINS, AR, 72727","Match","Exact","349 N CENTER ST, ELKINS, AR, 72727",635783949,"R"
181999,"349 OAK DRIVE","NEW CUMBERLAND","PA",17070,40.1972577880001,-76.858193957,499,"349 OAK DRIVE, NEW CUMBERLAND, PA, 17070","Match","Exact","349 OAK DR, NEW CUMBERLAND, PA, 17070",646976228,"R"
182000,"349 ORCHARD LN","SYCAMORE","IL",60178,41.97772782,-88.69007869,500,"349 ORCHARD LN, SYCAMORE, IL, 60178","Match","Exact","349 ORCHARD LN, SYCAMORE, IL, 60178",52258853,"R"
