"ID","Address","City","State","Zip","lat","long","id","input_address","match_indicator","match_type","matched_address","tiger_line_id","tiger_side"
317501,"950 VIA KACHESS RD","EASTON","WA",98925,47.3248463780001,-121.257137,1,"950 VIA KACHESS RD, EASTON, WA, 98925","Match","Exact","950 VIA KACHESS RD, EASTON, WA, 98925",624780123,"R"
317502,"950 W  PEACHTREE ST NW","ATLANTA","GA",30309,33.780271622,-84.3873278839999,2,"950 W  PEACHTREE ST NW, ATLANTA, GA, 30309","Match","Exact","950 W PEACHTREE ST NW, ATLANTA, GA, 30309",17343466,"L"
317503,"950 W BANNOCK STREET  SUITE 1100","BOISE","ID",83702,43.618064195,-116.203790813,3,"950 W BANNOCK STREET  SUITE 1100, BOISE, ID, 83702","Match","Non_Exact","950 W BANNOCK ST, BOISE, ID, 83702",117864717,"R"
317504,"950 W JOHN CARPENTER FWY STE 102","IRVING","TX",75039,32.8881479820001,-96.959410167,4,"950 W JOHN CARPENTER FWY STE 102, IRVING, TX, 75039","Match","Non_Exact","950 W JOHN CARPENTER FWY, IRVING, TX, 75039",102983015,"L"
317505,"950 W NORTH ST","MARSHALL","MO",65340,39.1211582920001,-93.210812264,5,"950 W NORTH ST, MARSHALL, MO, 65340","Match","Exact","950 W NORTH ST, MARSHALL, MO, 65340",21036702,"L"
317506,"950 W SIERRA MADRE AVE APT 504","AZUSA","CA",91702,NA,NA,6,"950 W SIERRA MADRE AVE APT 504, AZUSA, CA, 91702","No_Match",NA,NA,NA,NA
317507,"950 WAILUPE DR","WAILUKU","HI",96793,20.9096406410001,-156.497846202,7,"950 WAILUPE DR, WAILUKU, HI, 96793","Match","Exact","950 WAILUPE DR, WAILUKU, HI, 96793",85081139,"R"
317508,"950 WALKER RD","WAYNESVILLE","NC",28786,35.45503066,-83.078834617,8,"950 WALKER RD, WAYNESVILLE, NC, 28786","Match","Exact","950 WALKER RD, WAYNESVILLE, NC, 28786",151838017,"R"
317509,"950 WALNUT BOTTOM ROAD STE15 NO 227","CARLISLE","PA",17015,40.188552859,-77.2058902859999,9,"950 WALNUT BOTTOM ROAD STE15 NO 227, CARLISLE, PA, 17015","Match","Non_Exact","950 WALNUT BOTTOM RD, CARLISLE, PA, 17013",60981603,"R"
317510,"950 WASHINGTON BLVD 100","OAK PARK","IL",60302,41.8814949550001,-87.799249598,10,"950 WASHINGTON BLVD 100, OAK PARK, IL, 60302","Match","Exact","950 WASHINGTON BLVD, OAK PARK, IL, 60302",616787811,"R"
317511,"950 WEST 13TH STREET SUITE 1","RIVIERA BEACH","FL",33404,26.7736396280001,-80.067480884,11,"950 WEST 13TH STREET SUITE 1, RIVIERA BEACH, FL, 33404","Match","Exact","950 W 13TH ST, RIVIERA BEACH, FL, 33404",115581707,"R"
317512,"950 WEST FAIRWAY DRIVE","LANCASTER","PA",17603,40.027733916,-76.364642357,12,"950 WEST FAIRWAY DRIVE, LANCASTER, PA, 17603","Match","Exact","950 W FAIRWAY DR, LANCASTER, PA, 17603",179663153,"R"
317513,"950 WHITE POND ROAD","LEESBURG","GA",31763,31.6589703830001,-84.079256722,13,"950 WHITE POND ROAD, LEESBURG, GA, 31763","Match","Exact","950 WHITE POND RD, LEESBURG, GA, 31763",124574683,"L"
317514,"950 WILLOWLEAF DR APT 2006","SAN JOSE","CA",95128,37.3095471980001,-121.923161596,14,"950 WILLOWLEAF DR APT 2006, SAN JOSE, CA, 95128","Match","Exact","950 WILLOWLEAF DR, SAN JOSE, CA, 95128",122973373,"R"
317515,"950 WINCHESTER DRIVE","WESTMINSTER","MD",21157,39.5479654580001,-76.995002176,15,"950 WINCHESTER DRIVE, WESTMINSTER, MD, 21157","Match","Exact","950 WINCHESTER DR, WESTMINSTER, MD, 21157",61787971,"R"
317516,"950-23 BLANDING BLVD PMB 192","ORANGE PARK","FL",32065,30.138301443,-81.7736850319999,16,"950-23 BLANDING BLVD PMB 192, ORANGE PARK, FL, 32065","Match","Exact","950 BLANDING BLVD, ORANGE PARK, FL, 32065",636070547,"L"
317517,"950-23 BLANDING BLVD","ORANGE PARK","FL",32065,30.138301443,-81.7736850319999,17,"950-23 BLANDING BLVD, ORANGE PARK, FL, 32065","Match","Exact","950 BLANDING BLVD, ORANGE PARK, FL, 32065",636070547,"L"
317518,"9500 126TH STREET WEST","ANDALUSIA","IL",61232,41.4245968060001,-90.743747522,18,"9500 126TH STREET WEST, ANDALUSIA, IL, 61232","Match","Exact","9500 126TH ST W, ANDALUSIA, IL, 61232",624127705,"R"
317519,"9500 53RD ST","JURUPA VALLEY","CA",92509,33.990905647,-117.491626933,19,"9500 53RD ST, JURUPA VALLEY, CA, 92509","Match","Exact","9500 53RD ST, JURUPA VALLEY, CA, 92509",194735665,"L"
317520,"9500 ANNAPOLIS ROAD STE B2","LANHAM","MD",20706,38.9651752990001,-76.8437145359999,20,"9500 ANNAPOLIS ROAD STE B2, LANHAM, MD, 20706","Match","Exact","9500 ANNAPOLIS RD, LANHAM, MD, 20706",639591519,"L"
317521,"9500 ARENA DRIVE SUITE 104","LARGO","MD",20774,38.9038395330001,-76.841459614,21,"9500 ARENA DRIVE SUITE 104, LARGO, MD, 20774","Match","Exact","9500 ARENA DR, LARGO, MD, 20774",76367372,"R"
317522,"9500 ARENA DRIVE SUITE 460","LARGO","MD",20774,38.9038395330001,-76.841459614,22,"9500 ARENA DRIVE SUITE 460, LARGO, MD, 20774","Match","Exact","9500 ARENA DR, LARGO, MD, 20774",76367372,"R"
317523,"9500 ARENA DRIVE SUITE SUITE 105","LARGO","MD",20772,38.9038395330001,-76.841459614,23,"9500 ARENA DRIVE SUITE SUITE 105, LARGO, MD, 20772","Match","Non_Exact","9500 ARENA DR, LARGO, MD, 20774",76367372,"R"
317524,"9500 BOLTON ESTATES ROAD","MILLINGTON","TN",38053,35.3371632390001,-89.746256386,24,"9500 BOLTON ESTATES ROAD, MILLINGTON, TN, 38053","Match","Exact","9500 BOLTON ESTATES RD, MILLINGTON, TN, 38053",72975758,"L"
317525,"9500 BRIMHALL ROAD STE 701","BAKERSFIELD","CA",93312,35.368729855,-119.108004352,25,"9500 BRIMHALL ROAD STE 701, BAKERSFIELD, CA, 93312","Match","Non_Exact","9500 BRIMHALL RD, BAKERSFIELD, CA, 93308",109573958,"L"
317526,"9500 CIVIC CENTER DR","THORNTON","CO",80229,39.8690104400001,-104.984251541,26,"9500 CIVIC CENTER DR, THORNTON, CO, 80229","Match","Exact","9500 CIVIC CENTER DR, THORNTON, CO, 80229",177437518,"R"
317527,"9500 COMMUNITY HOUSE RD","CHARLOTTE","NC",28227,35.035115004,-80.824783157,27,"9500 COMMUNITY HOUSE RD, CHARLOTTE, NC, 28227","Match","Non_Exact","9500 COMMUNITY HOUSE RD, CHARLOTTE, NC, 28277",612219259,"R"
317528,"9500 E IRONWOOD SQUARE DR STE 201","SCOTTSDALE","AZ",85258,33.577840909,-111.877133052,28,"9500 E IRONWOOD SQUARE DR STE 201, SCOTTSDALE, AZ, 85258","Match","Non_Exact","9500 E IRONWOOD SQUARE DR, SCOTTSDALE, AZ, 85258",243972912,"L"
317529,"9500 EMMETT RD UNIT 100","GLEN ALLEN","VA",23060,37.6528477800001,-77.5561022489999,29,"9500 EMMETT RD UNIT 100, GLEN ALLEN, VA, 23060","Match","Exact","9500 EMMETT RD, GLEN ALLEN, VA, 23060",106643530,"R"
317530,"9500 EUCLID AVE MALL CODE EB9","CLEVLEAND","OH",44106,NA,NA,30,"9500 EUCLID AVE MALL CODE EB9, CLEVLEAND, OH, 44106","No_Match",NA,NA,NA,NA
317531,"9500 FEATHER GRASS LANE STE 120-310","FORT WORTH","TX",76177,NA,NA,31,"9500 FEATHER GRASS LANE STE 120-310, FORT WORTH, TX, 76177","No_Match",NA,NA,NA,NA
317532,"9500 GILLMAN DR  MC429","LA JOLLA","CA",92093,NA,NA,32,"9500 GILLMAN DR  MC429, LA JOLLA, CA, 92093","No_Match",NA,NA,NA,NA
317533,"9500 GILMAN DRIVE","LA JOLLA","CA",92093,NA,NA,33,"9500 GILMAN DRIVE, LA JOLLA, CA, 92093","No_Match",NA,NA,NA,NA
317534,"9500 GUERNSEY CT","CHARLOTTE","NC",28213,35.2954437810001,-80.713896569,34,"9500 GUERNSEY CT, CHARLOTTE, NC, 28213","Match","Exact","9500 GUERNSEY CT, CHARLOTTE, NC, 28213",70541264,"L"
317535,"9500 HILLWOOD DRIVE  STE 112","LAS VEGAS","NV",89134,36.1878242510001,-115.304464182,35,"9500 HILLWOOD DRIVE  STE 112, LAS VEGAS, NV, 89134","Match","Exact","9500 HILLWOOD DR, LAS VEGAS, NV, 89134",201914966,"R"
317536,"9500 JUG ST NW","PATASKALA","OH",43062,NA,NA,36,"9500 JUG ST NW, PATASKALA, OH, 43062","No_Match",NA,NA,NA,NA
317537,"9500 KNOLLCREST BLVD","JOHNS CREEK","GA",30022,34.010505315,-84.210514571,37,"9500 KNOLLCREST BLVD, JOHNS CREEK, GA, 30022","Match","Exact","9500 KNOLLCREST BLVD, JOHNS CREEK, GA, 30022",17375760,"L"
317538,"9500 MCNEIL DR","AUSTIN","TX",78750,NA,NA,38,"9500 MCNEIL DR, AUSTIN, TX, 78750","No_Match",NA,NA,NA,NA
317539,"9500 MCNEIL DRIVE","AUSTIN","TX",78750,NA,NA,39,"9500 MCNEIL DRIVE, AUSTIN, TX, 78750","No_Match",NA,NA,NA,NA
317540,"9500 MEDICAL CENTER DRIVE S460A","LARGO","MD",20774,NA,NA,40,"9500 MEDICAL CENTER DRIVE S460A, LARGO, MD, 20774","No_Match",NA,NA,NA,NA
317541,"9500 MEDICAL CENTER DRIVE STE 230E","UPPER MARLBORO","MD",20774,NA,NA,41,"9500 MEDICAL CENTER DRIVE STE 230E, UPPER MARLBORO, MD, 20774","No_Match",NA,NA,NA,NA
317542,"9500 MEDICAL CENTER DRIVE SUITE 460","LARGO","MD",20774,NA,NA,42,"9500 MEDICAL CENTER DRIVE SUITE 460, LARGO, MD, 20774","No_Match",NA,NA,NA,NA
317543,"9500 MEDLOCK BRIDGE RD","JOHNS CREEK","GA",30097,34.011403461,-84.192121512,43,"9500 MEDLOCK BRIDGE RD, JOHNS CREEK, GA, 30097","Match","Exact","9500 MEDLOCK BRIDGE RD, JOHNS CREEK, GA, 30097",642698879,"L"
317544,"9500 NORFOLK STREET","GLEN ALLEN","VA",23060,NA,NA,44,"9500 NORFOLK STREET, GLEN ALLEN, VA, 23060","No_Match",NA,NA,NA,NA
317545,"9500 OCEAN HWY W","CALABASH","NC",28467,33.91899513,-78.5783956399999,45,"9500 OCEAN HWY W, CALABASH, NC, 28467","Match","Exact","9500 OCEAN HWY W, CALABASH, NC, 28467",640627019,"L"
317546,"9500 ORMSBY STATION RD SUITE 200","LOUISVILLE","KY",40223,38.2642505220001,-85.575597935,46,"9500 ORMSBY STATION RD SUITE 200, LOUISVILLE, KY, 40223","Match","Exact","9500 ORMSBY STATION RD, LOUISVILLE, KY, 40223",96877394,"L"
317547,"9500 PENNSYLVANIA AVE","UPPER MARLBORO","MD",20772,38.820115532,-76.846553252,47,"9500 PENNSYLVANIA AVE, UPPER MARLBORO, MD, 20772","Match","Exact","9500 PENNSYLVANIA AVE, UPPER MARLBORO, MD, 20772",637903965,"R"
317548,"9500 RAY WHITE RD STE 200","FORT WORTH","TX",76244,NA,NA,48,"9500 RAY WHITE RD STE 200, FORT WORTH, TX, 76244","No_Match",NA,NA,NA,NA
317549,"9500 RAY WHITE RD SUITE 200","FORT WORTH","TX",76244,NA,NA,49,"9500 RAY WHITE RD SUITE 200, FORT WORTH, TX, 76244","No_Match",NA,NA,NA,NA
317550,"9500 ROOSEVELT WAY NE SUITE 301","SEATTLE","WA",98115,47.6977248630001,-122.317575194,50,"9500 ROOSEVELT WAY NE SUITE 301, SEATTLE, WA, 98115","Match","Exact","9500 ROOSEVELT WAY NE, SEATTLE, WA, 98115",186584592,"R"
317551,"9500 SOUTH 500 EAST STE 205","SANDY","UT",84070,40.5794469900001,-111.905517284,51,"9500 SOUTH 500 EAST STE 205, SANDY, UT, 84070","Match","Non_Exact","9500 S 500 W, SANDY, UT, 84070",637522071,"R"
317552,"9500 SOUTH BROWN ROAD","CHARDON","OH",44024,41.6126908370001,-81.183412362,52,"9500 SOUTH BROWN ROAD, CHARDON, OH, 44024","Match","Exact","9500 S BROWN RD, CHARDON, OH, 44024",624372537,"R"
317553,"9500 SW 3RD ST APT A212","BOCA RATON","FL",33428,26.3443290810001,-80.1939923199999,53,"9500 SW 3RD ST APT A212, BOCA RATON, FL, 33428","Match","Non_Exact","9500 SW 3RD ST, BOCA RATON, FL, 33428",115573914,"R"
317554,"9500 SW 73RD AVE","PINECREST","FL",33156,25.6823739390001,-80.312585105,54,"9500 SW 73RD AVE, PINECREST, FL, 33156","Match","Exact","9500 SW 73RD AVE, PINECREST, FL, 33156",623945412,"R"
317555,"9500 SW 92ND STREET","MIAMI","FL",33176,25.6838991270001,-80.349269955,55,"9500 SW 92ND STREET, MIAMI, FL, 33176","Match","Exact","9500 SW 92ND ST, MIAMI, FL, 33176",115980625,"L"
317556,"9500 W 144TH PL BOX 11","ORLAND PARK","IL",60462,41.627674632,-87.850302416,56,"9500 W 144TH PL BOX 11, ORLAND PARK, IL, 60462","Match","Non_Exact","9500 W 144TH PL, ORLAND PARK, IL, 60462",641236486,"L"
317557,"9500 W CAPITOL DR APT1","WAUWATOSA","WI",53222,43.08975314,-88.031580471,57,"9500 W CAPITOL DR APT1, WAUWATOSA, WI, 53222","Match","Non_Exact","9500 W CAPITOL DR, WAUWATOSA, WI, 53222",77727801,"R"
317558,"9500 WREN LANE","EAGLE RIVER","AK",99577,61.3066526700001,-149.502239906,58,"9500 WREN LANE, EAGLE RIVER, AK, 99577","Match","Non_Exact","9500 WREN CIR, EAGLE RIVER, AK, 99577",190793455,"L"
317559,"9501 ARLINGTON EXPRESSWAY","JACKSONVILLE","FL",32225,30.321824527,-81.548418163,59,"9501 ARLINGTON EXPRESSWAY, JACKSONVILLE, FL, 32225","Match","Non_Exact","9501 ARLINGTON EXPY, JACKSONVILLE, FL, 32211",83969781,"L"
317560,"9501 CENTRAL AVENUE","INDIANAPOLIS","IN",46240,39.9253819260001,-86.150672534,60,"9501 CENTRAL AVENUE, INDIANAPOLIS, IN, 46240","Match","Exact","9501 CENTRAL AVE, INDIANAPOLIS, IN, 46240",107982817,"R"
317561,"9501 CERRITOS AVE  202","ANAHEIM","CA",92804,33.810409996,-117.967475092,61,"9501 CERRITOS AVE  202, ANAHEIM, CA, 92804","Match","Exact","9501 CERRITOS AVE, ANAHEIM, CA, 92804",144251097,"L"
317562,"9501 CERRITOS AVE STE202","ANAHEIM","CA",92804,33.810409996,-117.967475092,62,"9501 CERRITOS AVE STE202, ANAHEIM, CA, 92804","Match","Exact","9501 CERRITOS AVE, ANAHEIM, CA, 92804",144251097,"L"
317563,"9501 E 86TH ST","INDIANAPOLIS","IN",46256,39.912545821,-86.000883781,63,"9501 E 86TH ST, INDIANAPOLIS, IN, 46256","Match","Exact","9501 E 86TH ST, INDIANAPOLIS, IN, 46256",108020078,"R"
317564,"9501 E LEMON AVE","TEMPLE CITY","CA",91780,34.1171268080001,-118.06516238,64,"9501 E LEMON AVE, TEMPLE CITY, CA, 91780","Match","Exact","9501 LEMON AVE, TEMPLE CITY, CA, 91780",241241365,"L"
317565,"9501 FLUSHING QUAIL RD STE 10","BAKERSFIELD","CA",93312,35.386174774,-119.107779086,65,"9501 FLUSHING QUAIL RD STE 10, BAKERSFIELD, CA, 93312","Match","Exact","9501 FLUSHING QUAIL RD, BAKERSFIELD, CA, 93312",109526910,"L"
317566,"9501 GARDENIA DRIVE","PLAIN CITY","OH",43064,NA,NA,66,"9501 GARDENIA DRIVE, PLAIN CITY, OH, 43064","No_Match",NA,NA,NA,NA
317567,"9501 HWY 5  P O BOX 64","GROVESPRING","MO",65662,37.4035386130001,-92.6013243949999,67,"9501 HWY 5  P O BOX 64, GROVESPRING, MO, 65662","Match","Non_Exact","9501 STATE HWY 5, GROVESPRING, MO, 65662",26677527,"L"
317568,"9501 LA SALLE BLVD","DETROIT","MI",48206,42.376802323,-83.107354102,68,"9501 LA SALLE BLVD, DETROIT, MI, 48206","Match","Exact","9501 LA SALLE BLVD, DETROIT, MI, 48206",95704525,"L"
317569,"9501 MENCHACA RD STE B210","AUSTIN","TX",78748,NA,NA,69,"9501 MENCHACA RD STE B210, AUSTIN, TX, 78748","No_Match",NA,NA,NA,NA
317570,"9501 N 137TH EAST CT","OWASSO","OK",74055,NA,NA,70,"9501 N 137TH EAST CT, OWASSO, OK, 74055","No_Match",NA,NA,NA,NA
317571,"9501 N FM 620 APT 12108","AUSTIN","TX",78726,30.432856133,-97.841332365,71,"9501 N FM 620 APT 12108, AUSTIN, TX, 78726","Match","Exact","9501 FM 620, AUSTIN, TX, 78726",649359186,"R"
317572,"9501 SATELLITE BLVD SUITE 105","ORLANDO","FL",32837,28.4209115400001,-81.4013108569999,72,"9501 SATELLITE BLVD SUITE 105, ORLANDO, FL, 32837","Match","Exact","9501 SATELLITE BLVD, ORLANDO, FL, 32837",94339526,"L"
317573,"9501 SUNSET DRIVE UNIT 6","STONE HARBOR","NJ",8247,39.0567272860001,-74.763281358,73,"9501 SUNSET DRIVE UNIT 6, STONE HARBOR, NJ, 8247","Match","Exact","9501 SUNSET DR, STONE HARBOR, NJ, 08247",174357574,"L"
317574,"9501 SW 27TH ST","OKLAHOMA CITY","OK",73128,35.437333047,-97.68322292,74,"9501 SW 27TH ST, OKLAHOMA CITY, OK, 73128","Match","Exact","9501 SW 27TH ST, OKLAHOMA CITY, OK, 73128",641685427,"L"
317575,"9501 W DEVON AVE STE 400","ROSEMONT","IL",60018,41.9957785060001,-87.862041758,75,"9501 W DEVON AVE STE 400, ROSEMONT, IL, 60018","Match","Exact","9501 DEVON AVE, ROSEMONT, IL, 60018",111860424,"L"
317576,"9501 WOODLAND RIDGE DR","TEMPLE TERRACE","FL",33637,28.038461349,-82.364070211,76,"9501 WOODLAND RIDGE DR, TEMPLE TERRACE, FL, 33637","Match","Exact","9501 WOODLAND RIDGE DR, TEMPLE TER, FL, 33637",104570052,"L"
317577,"9501 WOODPECKER ROAD","CHESTERFIELD","VA",22838,37.333334689,-77.5533287009999,77,"9501 WOODPECKER ROAD, CHESTERFIELD, VA, 22838","Match","Non_Exact","9501 WOODPECKER RD, CHESTERFIELD, VA, 23838",201576979,"R"
317578,"9501 WOODPECKER ROAD","CHESTERFIELD","VA",23838,37.333334689,-77.5533287009999,78,"9501 WOODPECKER ROAD, CHESTERFIELD, VA, 23838","Match","Exact","9501 WOODPECKER RD, CHESTERFIELD, VA, 23838",201576979,"R"
317579,"9502 14TH AVE NW","SEATTLE","WA",98117,47.698185505,-122.374099256,79,"9502 14TH AVE NW, SEATTLE, WA, 98117","Match","Exact","9502 14TH AVE NW, SEATTLE, WA, 98117",186577266,"R"
317580,"9502 BRIANS RUN","HELOTES","TX",78023,29.570366817,-98.670085009,80,"9502 BRIANS RUN, HELOTES, TX, 78023","Match","Exact","9502 BRIANS RUN, HELOTES, TX, 78023",101585226,"L"
317581,"9502 TEMPLETON AVE SE","SNOQUALMIE","WA",98065,47.515366445,-121.873496014,81,"9502 TEMPLETON AVE SE, SNOQUALMIE, WA, 98065","Match","Exact","9502 TEMPLETON AVE SE, SNOQUALMIE, WA, 98065",617981242,"L"
317582,"9502 TREVORS COURT","LAKESIDE","CA",92040,32.8523080570001,-116.903616653,82,"9502 TREVORS COURT, LAKESIDE, CA, 92040","Match","Exact","9502 TREVORS CT, LAKESIDE, CA, 92040",195378351,"R"
317583,"9502 WARD PLACE","URBANA","NY",21704,NA,NA,83,"9502 WARD PLACE, URBANA, NY, 21704","No_Match",NA,NA,NA,NA
317584,"9502","HIGHLANDS RANCH","CO",80129,NA,NA,84,"9502, HIGHLANDS RANCH, CO, 80129","No_Match",NA,NA,NA,NA
317585,"9503 BENT BROOK DRIVE","INDIANAPOLIS","IN",46250,39.9252674590001,-86.0625489509999,85,"9503 BENT BROOK DRIVE, INDIANAPOLIS, IN, 46250","Match","Exact","9503 BENT BROOK DR, INDIANAPOLIS, IN, 46250",107996326,"L"
317586,"9503 CHESAPEAKE DRIVE","NORTH ROYALTON","OH",44133,41.3403111590001,-81.756848656,86,"9503 CHESAPEAKE DRIVE, NORTH ROYALTON, OH, 44133","Match","Exact","9503 CHESAPEAKE DR, N ROYALTON, OH, 44133",61132713,"L"
317587,"9503 CLOVERIDGE DRIVE STE 4323","BENBROOK","TX",72126,32.6735436320001,-97.472798892,87,"9503 CLOVERIDGE DRIVE STE 4323, BENBROOK, TX, 72126","Match","Non_Exact","9503 CLOVERIDGE DR, BENBROOK, TX, 76126",616466221,"L"
317588,"9503 JOWETT PLACE","SUGAR LAND","TX",77498,29.6750695440001,-95.660511465,88,"9503 JOWETT PLACE, SUGAR LAND, TX, 77498","Match","Exact","9503 JOWETT PL, SUGAR LAND, TX, 77498",624718843,"R"
317589,"9503 MARYLAND COVE","SHERWOOD","AR",72120,34.8407090200001,-92.2201635709999,89,"9503 MARYLAND COVE, SHERWOOD, AR, 72120","Match","Exact","9503 MARYLAND COVE, SHERWOOD, AR, 72120",83497750,"L"
317590,"9503 QUAIL POINTE LN","FAIRFAX STATION","VA",22039,38.725758184,-77.2733706659999,90,"9503 QUAIL POINTE LN, FAIRFAX STATION, VA, 22039","Match","Exact","9503 QUAIL POINTE LN, FAIRFAX STATION, VA, 22039",76006488,"L"
317591,"9503 SHARPSBURG PIKE","HAGERSTOWN","MD",21740,39.575646641,-77.726238425,91,"9503 SHARPSBURG PIKE, HAGERSTOWN, MD, 21740","Match","Exact","9503 SHARPSBURG PIKE, HAGERSTOWN, MD, 21740",612170524,"R"
317592,"9503 STATE RD APT 107","PHILADELPHIA","PA",19114,40.0513916030001,-74.985399657,92,"9503 STATE RD APT 107, PHILADELPHIA, PA, 19114","Match","Exact","9503 STATE RD, PHILADELPHIA, PA, 19114",652672321,"R"
317593,"9504 BEECHNUT DR","AUSTIN","TX",78748,30.17616845,-97.818303172,93,"9504 BEECHNUT DR, AUSTIN, TX, 78748","Match","Exact","9504 BEECHNUT DR, AUSTIN, TX, 78748",640896531,"L"
317594,"9504 CYPRESS HARBOR DRIVE","GIBSONTON","FL",33534,27.842118827,-82.349693601,94,"9504 CYPRESS HARBOR DRIVE, GIBSONTON, FL, 33534","Match","Exact","9504 CYPRESS HARBOR DR, GIBSONTON, FL, 33534",104664955,"L"
317595,"9504 FITZGERALD CT","UPPER MARLBORO","MD",20772,38.7588072020001,-76.786079543,95,"9504 FITZGERALD CT, UPPER MARLBORO, MD, 20772","Match","Exact","9504 FITZGERALD CT, UPPER MARLBORO, MD, 20772",634527928,"L"
317596,"9504 IH 35 N SUITE 205","SAN ANTONIO","TX",78233,NA,NA,96,"9504 IH 35 N SUITE 205, SAN ANTONIO, TX, 78233","No_Match",NA,NA,NA,NA
317597,"9504 MAJI DR","HENRICO","VA",23228,37.6442373300001,-77.468123689,97,"9504 MAJI DR, HENRICO, VA, 23228","Match","Exact","9504 MAJI DR, HENRICO, VA, 23228",632535707,"L"
317598,"9504 MEADOW ROAD SW","LAKEWOOD","WA",98499,47.171412032,-122.526261235,98,"9504 MEADOW ROAD SW, LAKEWOOD, WA, 98499","Match","Exact","9504 MEADOW RD SW, LAKEWOOD, WA, 98499",184621707,"R"
317599,"9504 N PUMPKINVINE RD","FAIRLAND","IN",46126,39.661758778,-85.91933726,99,"9504 N PUMPKINVINE RD, FAIRLAND, IN, 46126","Match","Exact","9504 N PUMPKINVINE RD, FAIRLAND, IN, 46126",33231701,"L"
317600,"9504 REBA AVE SW","ALBUQUERQUE","NM",87121,35.0533964900001,-106.737374562,100,"9504 REBA AVE SW, ALBUQUERQUE, NM, 87121","Match","Exact","9504 REBA AVE SW, ALBUQUERQUE, NM, 87121",636710135,"L"
317601,"9504 SCOTTVILLE CT","LAS VEGAS","NV",89148,36.091437211,-115.299833627,101,"9504 SCOTTVILLE CT, LAS VEGAS, NV, 89148","Match","Exact","9504 SCOTTVILLE CT, LAS VEGAS, NV, 89148",201992947,"R"
317602,"9504 SNYDER MILL CT","MONTGOMERY VILLAGE","MD",20886,39.1968564040001,-77.193397615,102,"9504 SNYDER MILL CT, MONTGOMERY VILLAGE, MD, 20886","Match","Exact","9504 SNYDER MILL CT, MONTGOMERY VILLAGE, MD, 20886",62080143,"L"
317603,"9504 SO HAMILTON","CHICAGO","IL",60643,NA,NA,103,"9504 SO HAMILTON, CHICAGO, IL, 60643","No_Match",NA,NA,NA,NA
317604,"9504 SUNDANCE DRIVE","BRIDGEVILLE","PA",15017,40.3207092690001,-80.1392600999999,104,"9504 SUNDANCE DRIVE, BRIDGEVILLE, PA, 15017","Match","Exact","9504 SUNDANCE DR, BRIDGEVILLE, PA, 15017",648721783,"R"
317605,"9504 SUNNYVIEW CT","PEARLAND","TX",77584,29.565441021,-95.366533693,105,"9504 SUNNYVIEW CT, PEARLAND, TX, 77584","Match","Exact","9504 SUNNYVIEW CT, PEARLAND, TX, 77584",116616989,"R"
317606,"9504 TRAVERSE WAY","FORT WASHINGTON","MD",20744,38.757677583,-77.009988172,106,"9504 TRAVERSE WAY, FORT WASHINGTON, MD, 20744","Match","Exact","9504 TRAVERSE WAY, FT WASHINGTON, MD, 20744",76335936,"L"
317607,"9504 TREGARON PLACE","BURKE","VA",22015,38.8075964340001,-77.273250607,107,"9504 TREGARON PLACE, BURKE, VA, 22015","Match","Exact","9504 TREGARON PL, BURKE, VA, 22015",75974126,"L"
317608,"9504 W 116TH STREET","OVERLAND PARK","KS",66210,38.9184409900001,-94.69155703,108,"9504 W 116TH STREET, OVERLAND PARK, KS, 66210","Match","Exact","9504 W 116TH ST, OVERLAND PARK, KS, 66210",91277533,"R"
317609,"9504 WAREHAM DR","BAKERSFIELD","CA",93313,35.268261845,-119.068187398,109,"9504 WAREHAM DR, BAKERSFIELD, CA, 93313","Match","Exact","9504 WAREHAM DR, BAKERSFIELD, CA, 93313",648094764,"L"
317610,"9504 WOODLAND RIDGE DRIVE","TAMPA","FL",33637,28.0385343510001,-82.364078714,110,"9504 WOODLAND RIDGE DRIVE, TAMPA, FL, 33637","Match","Exact","9504 WOODLAND RIDGE DR, TAMPA, FL, 33637",104570052,"R"
317611,"9505 COTTON GUM ROAD","CHARLOTTE","NC",28227,35.228294819,-80.662370584,111,"9505 COTTON GUM ROAD, CHARLOTTE, NC, 28227","Match","Exact","9505 COTTON GUM RD, CHARLOTTE, NC, 28227",618149234,"L"
317612,"9505 CUTLERS TRACE","DAYTON","OH",45458,39.6058666260001,-84.1149108069999,112,"9505 CUTLERS TRACE, DAYTON, OH, 45458","Match","Exact","9505 CUTLERS TRCE, DAYTON, OH, 45458",143592415,"R"
317613,"9505 E 47TH ST","KANSAS CITY","KS",64133,NA,NA,113,"9505 E 47TH ST, KANSAS CITY, KS, 64133","No_Match",NA,NA,NA,NA
317614,"9505 FALCONS FIRE DR","MCKINNEY","TX",75070,33.194124625,-96.7434356639999,114,"9505 FALCONS FIRE DR, MCKINNEY, TX, 75070","Match","Non_Exact","9505 FALCONS FIRE DR, MCKINNEY, TX, 75072",639641040,"L"
317615,"9505 FAREWELL RD","COLUMBIA","MD",21045,39.1988422590001,-76.841096787,115,"9505 FAREWELL RD, COLUMBIA, MD, 21045","Match","Exact","9505 FAREWELL RD, COLUMBIA, MD, 21045",158925739,"L"
317616,"9505 HIERBA ROAD","AGUA DULCE","CA",91390,34.52534746,-118.299079264,116,"9505 HIERBA ROAD, AGUA DULCE, CA, 91390","Match","Exact","9505 HIERBA RD, AGUA DULCE, CA, 91390",649793666,"L"
317617,"9505 HULL STREET RD","NORTH CHESTERFIELD","VA",23236,37.4468164900001,-77.5706021299999,117,"9505 HULL STREET RD, NORTH CHESTERFIELD, VA, 23236","Match","Exact","9505 HULL STREET RD, NORTH CHESTERFIELD, VA, 23236",223166552,"L"
317618,"9505 N CLAYTON PLACE","MARANA","AZ",85653,32.378956073,-111.244513317,118,"9505 N CLAYTON PLACE, MARANA, AZ, 85653","Match","Exact","9505 N CLAYTON PL, MARANA, AZ, 85653",121232848,"L"
317619,"9505 QUEENSWOOD DRIVE","AUSTIN","TX",78748,30.1809758090001,-97.830454587,119,"9505 QUEENSWOOD DRIVE, AUSTIN, TX, 78748","Match","Exact","9505 QUEENSWOOD DR, AUSTIN, TX, 78748",63940176,"L"
317620,"9505 S W 33RD STREET","OKLAHOMA CITY","OK",73179,35.429990451,-97.682673235,120,"9505 S W 33RD STREET, OKLAHOMA CITY, OK, 73179","Match","Exact","9505 SW 33RD ST, OKLAHOMA CITY, OK, 73179",632886899,"L"
317621,"9505 SE PLOVER DRIVE","HAPPY VALLEY","OR",97086,45.4539285490001,-122.518576692,121,"9505 SE PLOVER DRIVE, HAPPY VALLEY, OR, 97086","Match","Exact","9505 SE PLOVER DR, HAPPY VALLEY, OR, 97086",157947515,"R"
317622,"9505 SW DOCK STREET","VASHION","WA",98070,47.3698409310001,-122.455134985,122,"9505 SW DOCK STREET, VASHION, WA, 98070","Match","Non_Exact","9505 SW DOCK ST, VASHON, WA, 98070",186702450,"L"
317623,"9505 THOROUGHBRED LANE","COLORADO SPRINGS","CO",80908,39.0975217370001,-104.652217279,123,"9505 THOROUGHBRED LANE, COLORADO SPRINGS, CO, 80908","Match","Exact","9505 THOROUGHBRED LN, COLORADO SPRINGS, CO, 80908",647965320,"R"
317624,"9505 VELVETLEAF CIRCLE","SAN RAMON","CA",94582,37.7680713660001,-121.932836657,124,"9505 VELVETLEAF CIRCLE, SAN RAMON, CA, 94582","Match","Exact","9505 VELVETLEAF CIR, SAN RAMON, CA, 94582",192115492,"R"
317625,"9505 W 32ND AVE","WHEAT RIDGE","CO",80033,39.762050118,-105.103602098,125,"9505 W 32ND AVE, WHEAT RIDGE, CO, 80033","Match","Exact","9505 W 32ND AVE, WHEAT RIDGE, CO, 80033",177289420,"R"
317626,"9505 WATERFORD OAKS BLVD","WINTER HAVEN","FL",33884,27.970800018,-81.670027638,126,"9505 WATERFORD OAKS BLVD, WINTER HAVEN, FL, 33884","Match","Exact","9505 WATERFORD OAKS BLVD, WINTER HAVEN, FL, 33884",104927146,"R"
317627,"9505 WINONA ST SW","LAKEWOOD","WA",98498,47.146767256,-122.562677001,127,"9505 WINONA ST SW, LAKEWOOD, WA, 98498","Match","Exact","9505 WINONA ST SW, LAKEWOOD, WA, 98498",184621887,"R"
317628,"9505 YELLOWSTONE ROAD","WACO","TX",76712,31.4843977530001,-97.220505316,128,"9505 YELLOWSTONE ROAD, WACO, TX, 76712","Match","Non_Exact","9505 YELLOW STONE RD, WACO, TX, 76712",146763000,"L"
317629,"9506 13TH BAY STREET UNIT B","NORFOLK","VA",23518,36.9285151670001,-76.203153791,129,"9506 13TH BAY STREET UNIT B, NORFOLK, VA, 23518","Match","Exact","9506 13TH BAY ST, NORFOLK, VA, 23518",122125401,"R"
317630,"9506 AMBERJACK DRIVE","TEXAS CITY","TX",77591,29.4058676660001,-95.016422405,130,"9506 AMBERJACK DRIVE, TEXAS CITY, TX, 77591","Match","Exact","9506 AMBERJACK DR, TEXAS CITY, TX, 77591",96742106,"L"
317631,"9506 NEWBERRY DR","AUSTIN","TX",78729,30.4569568530001,-97.783435821,131,"9506 NEWBERRY DR, AUSTIN, TX, 78729","Match","Exact","9506 NEWBERRY DR, AUSTIN, TX, 78729",126431782,"R"
317632,"9506 S RACINE AVE","CHICAGO","IL",60643,41.721060032,-87.652943799,132,"9506 S RACINE AVE, CHICAGO, IL, 60643","Match","Exact","9506 S RACINE AVE, CHICAGO, IL, 60643",638646346,"R"
317633,"9506 WAHADA","SAN ANTONIO","TX",78217,29.526362165,-98.447465732,133,"9506 WAHADA, SAN ANTONIO, TX, 78217","Match","Non_Exact","9506 WAHADA AVE, SAN ANTONIO, TX, 78217",101498943,"R"
317634,"9506 YOLANDA AVE","NORTHRIDGE","CA",91324,34.2430763130001,-118.540452121,134,"9506 YOLANDA AVE, NORTHRIDGE, CA, 91324","Match","Exact","9506 YOLANDA AVE, NORTHRIDGE, CA, 91324",141541074,"R"
317635,"95062 CHESWICK OAKS DRIVE","FERNANDINA BEACH","FL",32034,30.5912185760001,-81.5320339359999,135,"95062 CHESWICK OAKS DRIVE, FERNANDINA BEACH, FL, 32034","Match","Exact","95062 CHESWICK OAKS DR, FERNANDINA BCH, FL, 32034",646723648,"R"
317636,"950691","LAKE MARY","FL",32795,NA,NA,136,"950691, LAKE MARY, FL, 32795","No_Match",NA,NA,NA,NA
317637,"9507 43RD AVENUE 1FL","ELMHURST","NY",11373,NA,NA,137,"9507 43RD AVENUE 1FL, ELMHURST, NY, 11373","No_Match",NA,NA,NA,NA
317638,"9507 76TH STREET","OZONE PARK","NY",11416,NA,NA,138,"9507 76TH STREET, OZONE PARK, NY, 11416","No_Match",NA,NA,NA,NA
317639,"9507 APPIN FALLS DR","SPRING","TX",77379,30.002061763,-95.550475833,139,"9507 APPIN FALLS DR, SPRING, TX, 77379","Match","Exact","9507 APPIN FALLS DR, SPRING, TX, 77379",96165498,"R"
317640,"9507 ARMLEY AVENUE","WHITTIER","CA",90603,33.9474544400001,-118.019468316,140,"9507 ARMLEY AVENUE, WHITTIER, CA, 90603","Match","Exact","9507 ARMLEY AVE, WHITTIER, CA, 90603",141748716,"R"
317641,"9507 BECHTEL CT","CLINTON","MD",20735,38.758748822,-76.8511709049999,141,"9507 BECHTEL CT, CLINTON, MD, 20735","Match","Exact","9507 BECHTEL CT, CLINTON, MD, 20735",623937234,"R"
317642,"9507 CEDAR GLEN CT","RANCHO CUCAMONGA","CA",91730,34.0810319650001,-117.594821165,142,"9507 CEDAR GLEN CT, RANCHO CUCAMONGA, CA, 91730","Match","Exact","9507 CEDAR GLEN CT, RANCHO CUCAMONGA, CA, 91730",144980063,"R"
317643,"9507 EAST HEANEY CIRCLE","SANTEE","CA",92071,32.8495366340001,-116.998730019,143,"9507 EAST HEANEY CIRCLE, SANTEE, CA, 92071","Match","Exact","9507 E HEANEY CIR, SANTEE, CA, 92071",195324962,"R"
317644,"9507 ELM AVE SE","SNOQUALMIE","WA",98065,NA,NA,144,"9507 ELM AVE SE, SNOQUALMIE, WA, 98065","No_Match",NA,NA,NA,NA
317645,"9507 HULL STREET ROAD E-1","N CHESTERFIELD","VA",23236,37.446807876,-77.570630108,145,"9507 HULL STREET ROAD E-1, N CHESTERFIELD, VA, 23236","Match","Non_Exact","9507 HULL STREET RD, NORTH CHESTERFIELD, VA, 23236",223166552,"L"
317646,"9507 HULL STREET STE G5","CHESTERFIELD","VA",23112,NA,NA,146,"9507 HULL STREET STE G5, CHESTERFIELD, VA, 23112","No_Match",NA,NA,NA,NA
317647,"9507 MACARTHUR BOULEVARD","OAKLAND","CA",94605,37.752025143,-122.16008454,147,"9507 MACARTHUR BOULEVARD, OAKLAND, CA, 94605","Match","Exact","9507 MACARTHUR BLVD, OAKLAND, CA, 94605",634221767,"R"
317648,"9507 MARSHALL POINT","SAN ANTONIO","TX",78240,29.529655888,-98.62937636,148,"9507 MARSHALL POINT, SAN ANTONIO, TX, 78240","Match","Exact","9507 MARSHALL PT, SAN ANTONIO, TX, 78240",101576750,"L"
317649,"9507 NW 87TH TERRACE","KANSAS CITY","MO",64153,39.252072679,-94.6904459359999,149,"9507 NW 87TH TERRACE, KANSAS CITY, MO, 64153","Match","Non_Exact","9507 NW 87TH TER, KANSAS CITY, MO, 64153",39704354,"L"
317650,"9507 SW 160 ST SUITE 250","MIAMI","FL",33157,25.6201821270001,-80.348258358,150,"9507 SW 160 ST SUITE 250, MIAMI, FL, 33157","Match","Non_Exact","9507 SW 160TH ST, MIAMI, FL, 33157",115983520,"R"
317651,"9507 TOLKEN WAY","SUGAR LAND","TX",77498,29.6749760060001,-95.661369522,151,"9507 TOLKEN WAY, SUGAR LAND, TX, 77498","Match","Exact","9507 TOLKEN WAY, SUGAR LAND, TX, 77498",624718836,"R"
317652,"9508 3RD PLACE","LORTON","VA",22079,38.700546753,-77.230926756,152,"9508 3RD PLACE, LORTON, VA, 22079","Match","Exact","9508 THIRD PL, LORTON, VA, 22079",76051861,"R"
317653,"9508 CHRISTINA JOY PLACE","DUBLIN","CA",94568,37.7028707420001,-121.982355775,153,"9508 CHRISTINA JOY PLACE, DUBLIN, CA, 94568","Match","Exact","9508 CHRISTINA JOY PL, DUBLIN, CA, 94568",640798077,"R"
317654,"9508 DONA ROWENA NE","ALBUQUERQUE","NM",87111,35.1325962600001,-106.536456203,154,"9508 DONA ROWENA NE, ALBUQUERQUE, NM, 87111","Match","Non_Exact","9508 DONA ROWENA AVE NE, ALBUQUERQUE, NM, 87111",206714540,"R"
317655,"9508 MADISON AVE","SOUTH GATE","CA",90280,33.9491130440001,-118.214247931,155,"9508 MADISON AVE, SOUTH GATE, CA, 90280","Match","Exact","9508 MADISON AVE, SOUTH GATE, CA, 90280",141676201,"L"
317656,"9508 RHYTHM RD","MIDWEST CITY","OK",73130,35.443367864,-97.362034732,156,"9508 RHYTHM RD, MIDWEST CITY, OK, 73130","Match","Exact","9508 RHYTHM RD, MIDWEST CITY, OK, 73130",100416757,"R"
317657,"9508 S DANIEL STREET","TERRE HAUTE","IN",47802,39.351889671,-87.291283917,157,"9508 S DANIEL STREET, TERRE HAUTE, IN, 47802","Match","Exact","9508 S DANIEL ST, TERRE HAUTE, IN, 47802",27131782,"L"
317658,"9508 SPOTSWOOD TRAIL","MCGAHEYSVILLE","VA",22840,NA,NA,158,"9508 SPOTSWOOD TRAIL, MCGAHEYSVILLE, VA, 22840","No_Match",NA,NA,NA,NA
317659,"9508 WILLOW RIDGE DRIVE","GLEN ALLEN","VA",23060,37.6446142790001,-77.52251792,159,"9508 WILLOW RIDGE DRIVE, GLEN ALLEN, VA, 23060","Match","Exact","9508 WILLOW RIDGE DR, GLEN ALLEN, VA, 23060",106664223,"R"
317660,"9509 CONEY ISLAND CIRCLE","ELK GROVE","CA",95758,38.409260789,-121.476493882,160,"9509 CONEY ISLAND CIRCLE, ELK GROVE, CA, 95758","Match","Exact","9509 CONEY ISLAND CIR, ELK GROVE, CA, 95758",629429353,"R"
317661,"9509 GARRETT PARK PL","BRENTWOOD","TN",37027,35.9396785210001,-86.747331443,161,"9509 GARRETT PARK PL, BRENTWOOD, TN, 37027","Match","Exact","9509 GARRETT PARK PL, BRENTWOOD, TN, 37027",640824019,"L"
317662,"9509 GARRETT PARK PLACE","BRENTWOOD","TN",37027,35.9396785210001,-86.747331443,162,"9509 GARRETT PARK PLACE, BRENTWOOD, TN, 37027","Match","Exact","9509 GARRETT PARK PL, BRENTWOOD, TN, 37027",640824019,"L"
317663,"9509 GERMANTOWN","PHILADEPHIA","PA",19118,40.0844170190001,-75.2254868699999,163,"9509 GERMANTOWN, PHILADEPHIA, PA, 19118","Match","Non_Exact","9509 GERMANTOWN AVE, PHILADELPHIA, PA, 19118",131393386,"R"
317664,"9509 MOSS FARM LANE","DALLAS","TX",75243,32.895969098,-96.738872393,164,"9509 MOSS FARM LANE, DALLAS, TX, 75243","Match","Exact","9509 MOSS FARM LN, DALLAS, TX, 75243",103206993,"R"
317665,"9509 PEMBERTON CRESCENT DRIVE","HOUSTON","TX",77025,29.681526687,-95.426043826,165,"9509 PEMBERTON CRESCENT DRIVE, HOUSTON, TX, 77025","Match","Exact","9509 PEMBERTON CRESCENT DR, HOUSTON, TX, 77025",623878234,"L"
317666,"9509 SAULS ROAD","RALEIGH","NC",27603,35.619430224,-78.6389350549999,166,"9509 SAULS ROAD, RALEIGH, NC, 27603","Match","Exact","9509 SAULS RD, RALEIGH, NC, 27603",208376746,"R"
317667,"9509 TITAN PARK CIR","LITTLETON","CO",80125,39.501133619,-105.018534774,167,"9509 TITAN PARK CIR, LITTLETON, CO, 80125","Match","Exact","9509 TITAN PARK CIR, LITTLETON, CO, 80125",130801625,"L"
317668,"9509 WALKING SPIRIT COURT","LAS VEGAS","NV",89129,36.2282466930001,-115.30245538,168,"9509 WALKING SPIRIT COURT, LAS VEGAS, NV, 89129","Match","Exact","9509 WALKING SPIRIT CT, LAS VEGAS, NV, 89129",612692885,"L"
317669,"9509 WATKINS RD","GAITHERSBURG","MD",20882,39.2340309590001,-77.19661192,169,"9509 WATKINS RD, GAITHERSBURG, MD, 20882","Match","Exact","9509 WATKINS RD, GAITHERSBURG, MD, 20882",62132305,"R"
317670,"9509 WOLFE RD","CALEDONIA","MS",39740,NA,NA,170,"9509 WOLFE RD, CALEDONIA, MS, 39740","No_Match",NA,NA,NA,NA
317671,"951 20TH STREET-13322","DENVER","CO",80201,NA,NA,171,"951 20TH STREET-13322, DENVER, CO, 80201","No_Match",NA,NA,NA,NA
317672,"951 BAFFY AVE","LANDISVILLE","PA",17538,40.074256791,-76.415593332,172,"951 BAFFY AVE, LANDISVILLE, PA, 17538","Match","Exact","951 BAFFY AVE, LANDISVILLE, PA, 17538",179680195,"L"
317673,"951 BATTERSEA RD","HEMET","CA",92543,33.763526197,-116.973402769,173,"951 BATTERSEA RD, HEMET, CA, 92543","Match","Exact","951 BATTERSEA RD, HEMET, CA, 92543",194877262,"L"
317674,"951 BELLVIEW ROAD","MCLEAN","VA",22102,38.961798726,-77.236357074,174,"951 BELLVIEW ROAD, MCLEAN, VA, 22102","Match","Exact","951 BELLVIEW RD, MCLEAN, VA, 22102",653501244,"L"
317675,"951 CHESTNUT HILLS PARKWAY","FORT WAYNE","IN",46814,NA,NA,175,"951 CHESTNUT HILLS PARKWAY, FORT WAYNE, IN, 46814","No_Match",NA,NA,NA,NA
317676,"951 CHUNG KING ROAD","LOS ANGELES","CA",90012,34.065801014,-118.238636265,176,"951 CHUNG KING ROAD, LOS ANGELES, CA, 90012","Match","Exact","951 CHUNG KING RD, LOS ANGELES, CA, 90012",638756964,"R"
317677,"951 COUNTY ROAD 347","DUBLIN","TX",76446,31.9623744250001,-98.3430296939999,177,"951 COUNTY ROAD 347, DUBLIN, TX, 76446","Match","Exact","951 CO RD 347, DUBLIN, TX, 76446",158640015,"R"
317678,"951 E 4TH AVE","HIALEAH","FL",33010,25.830649212,-80.273602335,178,"951 E 4TH AVE, HIALEAH, FL, 33010","Match","Exact","951 E 4TH AVE, HIALEAH, FL, 33010",115999255,"R"
317679,"951 E BOSTON POST RD","MAMARONECK","NY",10543,40.9537285010001,-73.722283996,179,"951 E BOSTON POST RD, MAMARONECK, NY, 10543","Match","Exact","951 E BOSTON POST RD, MAMARONECK, NY, 10543",139810584,"R"
317680,"951 E CALLE DEL NORTE","CHANDLER","AZ",85225,33.329365081,-111.825272908,180,"951 E CALLE DEL NORTE, CHANDLER, AZ, 85225","Match","Non_Exact","951 E CLL DEL NORTE, CHANDLER, AZ, 85225",128243349,"R"
317681,"951 E STATE HWY 276","WEST TAWAKONI","TX",75474,32.9102271030001,-96.15118367,181,"951 E STATE HWY 276, WEST TAWAKONI, TX, 75474","Match","Exact","951 STATE HWY 276, WEST TAWAKONI, TX, 75474",646443099,"L"
317682,"951 ELIZA MORRIS ST","MADISON","GA",30650,NA,NA,182,"951 ELIZA MORRIS ST, MADISON, GA, 30650","No_Match",NA,NA,NA,NA
317683,"951 FAWN CREEK CT NE","PIEDMONT","OK",73078,35.6474546260001,-97.713034649,183,"951 FAWN CREEK CT NE, PIEDMONT, OK, 73078","Match","Non_Exact","951 FAWN CREEK CT, PIEDMONT, OK, 73078",650568403,"R"
317684,"951 FELL STREET 725","BALTIMORE","MD",21231,39.280725272,-76.589535482,184,"951 FELL STREET 725, BALTIMORE, MD, 21231","Match","Exact","951 FELL ST, BALTIMORE, MD, 21231",206424937,"L"
317685,"951 FELL STREET SUITE 502","BALTIMORE","MD",21231,39.280725272,-76.589535482,185,"951 FELL STREET SUITE 502, BALTIMORE, MD, 21231","Match","Exact","951 FELL ST, BALTIMORE, MD, 21231",206424937,"L"
317686,"951 FRONT AVENUE","ST. PAUL","MN",55103,44.9702032480001,-93.140233332,186,"951 FRONT AVENUE, ST. PAUL, MN, 55103","Match","Exact","951 FRONT AVE, SAINT PAUL, MN, 55103",97642303,"R"
317687,"951 GOVERNORS COURT","MOUNT PLEASANT","SC",29464,32.8409738120001,-79.844564422,187,"951 GOVERNORS COURT, MOUNT PLEASANT, SC, 29464","Match","Exact","951 GOVERNORS CT, MOUNT PLEASANT, SC, 29464",108808890,"L"
317688,"951 GOVERNORS COURT","MT PLEASANT","SC",29464,32.8409738120001,-79.844564422,188,"951 GOVERNORS COURT, MT PLEASANT, SC, 29464","Match","Exact","951 GOVERNORS CT, MOUNT PLEASANT, SC, 29464",108808890,"L"
317689,"951 GRANVILLE AVE APT 103","LOS ANGELES","CA",90049,34.0511810190001,-118.465785256,189,"951 GRANVILLE AVE APT 103, LOS ANGELES, CA, 90049","Match","Exact","951 GRANVILLE AVE, LOS ANGELES, CA, 90049",141566947,"R"
317690,"951 HOPE STREET","MADISON","WV",25130,38.0427025720001,-81.804136208,190,"951 HOPE STREET, MADISON, WV, 25130","Match","Exact","951 HOPE ST, MADISON, WV, 25130",78553888,"R"
317691,"951 LIBERTY AVE","MOUNT DORA","FL",32757,28.7941493480001,-81.6353810159999,191,"951 LIBERTY AVE, MOUNT DORA, FL, 32757","Match","Exact","951 LIBERTY AVE, MOUNT DORA, FL, 32757",94113656,"L"
317692,"951 LOMBRANO","SAN ANTONIO","TX",78207,29.4425669120001,-98.521790322,192,"951 LOMBRANO, SAN ANTONIO, TX, 78207","Match","Non_Exact","951 LOMBRANO ST, SAN ANTONIO, TX, 78207",101514295,"R"
317693,"951 LOWRY AVE NE UNIT 312","MINNEAPOLIS","MN",55418,45.0131653010001,-93.247079823,193,"951 LOWRY AVE NE UNIT 312, MINNEAPOLIS, MN, 55418","Match","Exact","951 LOWRY AVE NE, MINNEAPOLIS, MN, 55418",43636237,"L"
317694,"951 MARTIN DR","ELGIN","IL",60120,42.052080614,-88.255289889,194,"951 MARTIN DR, ELGIN, IL, 60120","Match","Exact","951 MARTIN DR, ELGIN, IL, 60120",112384052,"R"
317695,"951 MIDDLE STREET","SULLIVANS ISLAND","SC",29482,32.7625436340001,-79.861821433,195,"951 MIDDLE STREET, SULLIVANS ISLAND, SC, 29482","Match","Exact","951 MIDDLE ST, SULLIVANS ISLAND, SC, 29482",108814112,"R"
317696,"951 MYRTLE AVENUE","ALBANY","NY",12203,42.6664009830001,-73.796790883,196,"951 MYRTLE AVENUE, ALBANY, NY, 12203","Match","Exact","951 MYRTLE AVE, ALBANY, NY, 12203",18359002,"L"
317697,"951 NEW YORK AVENUE","BROOKLYN","NY",11203,40.650078195,-73.946571857,197,"951 NEW YORK AVENUE, BROOKLYN, NY, 11203","Match","Exact","951 NEW YORK AVE, BROOKLYN, NY, 11203",652212453,"L"
317698,"951 NORTH POPLAR ST","CASPER","WY",82601,42.860038762,-106.332652356,198,"951 NORTH POPLAR ST, CASPER, WY, 82601","Match","Exact","951 N POPLAR ST, CASPER, WY, 82601",647309247,"R"
317699,"951 NORTH POPLAR STREET","CASPER","WY",82601,42.860038762,-106.332652356,199,"951 NORTH POPLAR STREET, CASPER, WY, 82601","Match","Exact","951 N POPLAR ST, CASPER, WY, 82601",647309247,"R"
317700,"951 OAK STREET","NORTH AURORA","IL",60543,41.807691957,-88.348366808,200,"951 OAK STREET, NORTH AURORA, IL, 60543","Match","Non_Exact","951 OAK ST, NORTH AURORA, IL, 60542",119583699,"L"
317701,"951 OVILLA RD","WAXAHACHIE","TX",75167,32.4400075990001,-96.873611581,201,"951 OVILLA RD, WAXAHACHIE, TX, 75167","Match","Exact","951 OVILLA RD, WAXAHACHIE, TX, 75167",608355367,"L"
317702,"951 PALM DR","COLTON","CA",92324,34.0768080650001,-117.311817051,202,"951 PALM DR, COLTON, CA, 92324","Match","Non_Exact","951 E PALM DR, COLTON, CA, 92324",144657772,"L"
317703,"951 RAMBIN ROAD","STONEWALL","LA",71078,32.2690775070001,-93.849325404,203,"951 RAMBIN ROAD, STONEWALL, LA, 71078","Match","Exact","951 RAMBIN RD, STONEWALL, LA, 71078",67664165,"R"
317704,"951 RESERVE DR STE 150","ROSEVILLE","CA",95678,38.7644198620001,-121.270775297,204,"951 RESERVE DR STE 150, ROSEVILLE, CA, 95678","Match","Exact","951 RESERVE DR, ROSEVILLE, CA, 95678",608083707,"L"
317705,"951 RESERVE DRIVE STE 100","ROSEVILLE","CA",95678,38.7644198620001,-121.270775297,205,"951 RESERVE DRIVE STE 100, ROSEVILLE, CA, 95678","Match","Exact","951 RESERVE DR, ROSEVILLE, CA, 95678",608083707,"L"
317706,"951 ROEDEER DRIVE","CLARKSVILLE,","TN",37042,36.574516741,-87.3803127639999,206,"951 ROEDEER DRIVE, CLARKSVILLE,, TN, 37042","Match","Exact","951 ROEDEER DR, CLARKSVILLE, TN, 37042",639669447,"L"
317707,"951 S CADY MALL SS 330","TEMPE","AZ",85287,NA,NA,207,"951 S CADY MALL SS 330, TEMPE, AZ, 85287","No_Match",NA,NA,NA,NA
317708,"951 S FERDON BLVD","CRESTVIEW","FL",32536,30.750558847,-86.5638058,208,"951 S FERDON BLVD, CRESTVIEW, FL, 32536","Match","Exact","951 S FERDON BLVD, CRESTVIEW, FL, 32536",639597416,"R"
317709,"951 STADIUM COURT","JONESBORO","GA",30236,33.5500406360001,-84.359420756,209,"951 STADIUM COURT, JONESBORO, GA, 30236","Match","Exact","951 STADIUM CT, JONESBORO, GA, 30236",624990001,"L"
317710,"951 STAFFORD ROAD","FALL RIVER","MA",2721,41.6761579980001,-71.1545829309999,210,"951 STAFFORD ROAD, FALL RIVER, MA, 2721","Match","Exact","951 STAFFORD RD, FALL RIVER, MA, 02721",46772130,"R"
317711,"951 STATE ROUTE 157","OIL CITY","PA",16301,41.39496425,-79.642751549,211,"951 STATE ROUTE 157, OIL CITY, PA, 16301","Match","Exact","951 STATE RTE 157, OIL CITY, PA, 16301",634307669,"R"
317712,"951 SW 87TH AVENUE SUITE B","MIAMI","FL",33174,25.76011778,-80.336099742,212,"951 SW 87TH AVENUE SUITE B, MIAMI, FL, 33174","Match","Non_Exact","951 SW 87TH AVE, MIAMI, FL, 33174",653216421,"L"
317713,"951 SW 96TH AVE","PEMBROKE PINES","FL",33025,26.0002745530001,-80.2726309719999,213,"951 SW 96TH AVE, PEMBROKE PINES, FL, 33025","Match","Exact","951 SW 96TH AVE, PEMBROKE PINES, FL, 33025",114770381,"L"
317714,"951 THOUSAND OAKS DRIVE","VIRGINIA BEACH","VA",23454,36.8588059950001,-76.030435896,214,"951 THOUSAND OAKS DRIVE, VIRGINIA BEACH, VA, 23454","Match","Exact","951 THOUSAND OAKS DR, VIRGINIA BCH, VA, 23454",122297576,"R"
317715,"951 TRANSPORT DRIVE","VALPARAISO","IN",46383,41.4598658200001,-87.0163539389999,215,"951 TRANSPORT DRIVE, VALPARAISO, IN, 46383","Match","Exact","951 TRANSPORT DR, VALPARAISO, IN, 46383",645495897,"L"
317716,"951 VARIAN WAY","PALO ALTO","CA",94304,37.438081805,-122.181301931,216,"951 VARIAN WAY, PALO ALTO, CA, 94304","Match","Exact","951 VARIAN WAY, PALO ALTO, CA, 94304",624699971,"L"
317717,"951 W BRECKENRIDGE AVE","GILBERT","AZ",85233,33.3621399830001,-111.810200349,217,"951 W BRECKENRIDGE AVE, GILBERT, AZ, 85233","Match","Exact","951 W BRECKENRIDGE AVE, GILBERT, AZ, 85233",128783258,"L"
317718,"951 W GOLF RD","SCHAUMBURG","IL",60194,42.0483639500001,-88.1012888069999,218,"951 W GOLF RD, SCHAUMBURG, IL, 60194","Match","Exact","951 GOLF RD, SCHAUMBURG, IL, 60194",605616517,"R"
317719,"951 W PIPELINE RD STE 110","HURST","TX",76053,32.823649485,-97.192409084,219,"951 W PIPELINE RD STE 110, HURST, TX, 76053","Match","Non_Exact","951 W PIPELINE RD, HURST, TX, 76053",101865801,"L"
317720,"951 WEST NORTH BEND D8","CINCINNATI","OH",45224,39.201460007,-84.522584352,220,"951 WEST NORTH BEND D8, CINCINNATI, OH, 45224","Match","Non_Exact","951 W NORTH BEND RD, CINCINNATI, OH, 45224",640628132,"L"
317721,"9510 20TH AVE NE","SEATTLE","WA",98115,47.697661984,-122.306806345,221,"9510 20TH AVE NE, SEATTLE, WA, 98115","Match","Exact","9510 20TH AVE NE, SEATTLE, WA, 98115",647915153,"R"
317722,"9510 ASHBURY PLACE","FREDERICK","MD",21701,39.4096519990001,-77.336202863,222,"9510 ASHBURY PLACE, FREDERICK, MD, 21701","Match","Exact","9510 ASHBURY PL, FREDERICK, MD, 21701",60704159,"R"
317723,"9510 BIRDWATCH LANE","CHARLOTTE","NC",28214,35.3108879070001,-80.972927075,223,"9510 BIRDWATCH LANE, CHARLOTTE, NC, 28214","Match","Non_Exact","9510 BIRD WATCH LN, CHARLOTTE, NC, 28214",70543340,"L"
317724,"9510 CORKSCREW PALMS CIR SUITE 1","ESTERO","FL",33928,26.431219368,-81.796482419,224,"9510 CORKSCREW PALMS CIR SUITE 1, ESTERO, FL, 33928","Match","Non_Exact","9510 CORKSCREW RD, ESTERO, FL, 33928",642657512,"R"
317725,"9510 ELK GROVE FLORIN RD","ELK GROVE","CA",95624,38.4133868000001,-121.371566929,225,"9510 ELK GROVE FLORIN RD, ELK GROVE, CA, 95624","Match","Exact","9510 ELK GROVE FLORIN RD, ELK GROVE, CA, 95624",133354886,"R"
317726,"9510 ELK GROVE FLORIN ROAD RM 111","ELK GROVE","CA",95624,NA,NA,226,"9510 ELK GROVE FLORIN ROAD RM 111, ELK GROVE, CA, 95624","No_Match",NA,NA,NA,NA
317727,"9510 GOLD DUST","SAN ANTONIO","TX",78245,29.430070701,-98.6716095359999,227,"9510 GOLD DUST, SAN ANTONIO, TX, 78245","Match","Non_Exact","9510 GOLD DUST DR, SAN ANTONIO, TX, 78245",101505649,"R"
317728,"9510 HEARTSTONE LANE","ROCKWALL","TX",75087,32.913396001,-96.509424657,228,"9510 HEARTSTONE LANE, ROCKWALL, TX, 75087","Match","Exact","9510 HEARTSTONE LN, ROCKWALL, TX, 75087",123788906,"R"
317729,"9510 KISSEL RD","ZIONSVILLE","IN",46077,39.922639518,-86.32139103,229,"9510 KISSEL RD, ZIONSVILLE, IN, 46077","Match","Exact","9510 KISSEL RD, ZIONSVILLE, IN, 46077",108067897,"L"
317730,"9510 MARY GENEVA LANE","OWINGS MILLS","MD",21117,NA,NA,230,"9510 MARY GENEVA LANE, OWINGS MILLS, MD, 21117","No_Match",NA,NA,NA,NA
317731,"9510 PUDDLE DUCK ROAD  APT 207","CHARLOTTE","NC",28262,35.333028809,-80.7379352469999,231,"9510 PUDDLE DUCK ROAD  APT 207, CHARLOTTE, NC, 28262","Match","Exact","9510 PUDDLE DUCK RD, CHARLOTTE, NC, 28262",618153323,"R"
317732,"9510 STONEY HARBOR DRIVE","FT WASHINGTON","MD",20744,38.758879151,-76.951100852,232,"9510 STONEY HARBOR DRIVE, FT WASHINGTON, MD, 20744","Match","Exact","9510 STONEY HARBOR DR, FT WASHINGTON, MD, 20744",645476111,"L"
317733,"9510 TRUSCOTT COURT","PROSPECT","KY",40059,NA,NA,233,"9510 TRUSCOTT COURT, PROSPECT, KY, 40059","No_Match",NA,NA,NA,NA
317734,"9510 W 160TH TERRACE","OVERLAND PARK","KS",66085,38.837797693,-94.6991250359999,234,"9510 W 160TH TERRACE, OVERLAND PARK, KS, 66085","Match","Exact","9510 W 160TH TER, OVERLAND PARK, KS, 66085",626270910,"R"
317735,"9511 4TH AVE","BROOKLYN","NY",11209,40.615264188,-74.031560855,235,"9511 4TH AVE, BROOKLYN, NY, 11209","Match","Exact","9511 4TH AVE, BROOKLYN, NY, 11209",59087514,"R"
317736,"9511 ANGOLA COURT STE 209","INDIANAPOLIS","IN",46268,39.925123989,-86.223753716,236,"9511 ANGOLA COURT STE 209, INDIANAPOLIS, IN, 46268","Match","Exact","9511 ANGOLA CT, INDIANAPOLIS, IN, 46268",107975617,"L"
317737,"9511 CHEF MENTEUR HWY SUITE 109 209","NEW ORLEANS","LA",70127,30.016795014,-89.975338896,237,"9511 CHEF MENTEUR HWY SUITE 109 209, NEW ORLEANS, LA, 70127","Match","Exact","9511 CHEF MENTEUR HWY, NEW ORLEANS, LA, 70127",191743756,"L"
317738,"9511 FOXCROFT AVE","CLINTON","MD",20735,38.7570987020001,-76.876182656,238,"9511 FOXCROFT AVE, CLINTON, MD, 20735","Match","Exact","9511 FOXCROFT AVE, CLINTON, MD, 20735",76332108,"L"
317739,"9511 GRANDVILLE PLACE","BLOOMINGTON","IL",61705,40.4217601190001,-88.903272805,239,"9511 GRANDVILLE PLACE, BLOOMINGTON, IL, 61705","Match","Exact","9511 GRANDVILLE PL, BLOOMINGTON, IL, 61705",20567571,"L"
317740,"9511 HACKBERRY STREET","HIGHLANDS RANCH","CO",80126,NA,NA,240,"9511 HACKBERRY STREET, HIGHLANDS RANCH, CO, 80126","No_Match",NA,NA,NA,NA
317741,"9511 MOODY PARK CIRCLE","OVERLAND PARK","KS",66212,38.956386953,-94.7010699259999,241,"9511 MOODY PARK CIRCLE, OVERLAND PARK, KS, 66212","Match","Exact","9511 MOODY PARK CIR, OVERLAND PARK, KS, 66212",91276445,"L"
317742,"9511 PERRIN BEITEL RD APT 205","SAN ANTONIO","TX",78217,29.5265713160001,-98.4110438449999,242,"9511 PERRIN BEITEL RD APT 205, SAN ANTONIO, TX, 78217","Match","Exact","9511 PERRIN BEITEL RD, SAN ANTONIO, TX, 78217",650135637,"L"
317743,"9511 TORRESDALE AVE","PHILADELPHIA","PA",19144,40.053669745,-74.995084579,243,"9511 TORRESDALE AVE, PHILADELPHIA, PA, 19144","Match","Non_Exact","9511 TORRESDALE AVE, PHILADELPHIA, PA, 19114",131434396,"R"
317744,"9511 WAMBLE RD","OAKDALE","CA",95361,37.7771005170001,-120.775156825,244,"9511 WAMBLE RD, OAKDALE, CA, 95361","Match","Exact","9511 WAMBLE RD, OAKDALE, CA, 95361",102588880,"L"
317745,"9512 CHOLLA CACTUS TRAIL","FORT WORTH","TX",76177,32.914368375,-97.336060475,245,"9512 CHOLLA CACTUS TRAIL, FORT WORTH, TX, 76177","Match","Exact","9512 CHOLLA CACTUS TRL, FORT WORTH, TX, 76177",619868681,"R"
317746,"9512 NW 8TH CIRCLE","PLANTATION","FL",33324,26.132776914,-80.2761004609999,246,"9512 NW 8TH CIRCLE, PLANTATION, FL, 33324","Match","Exact","9512 NW 8TH CIR, PLANTATION, FL, 33324",611226800,"L"
317747,"9513 5TH PLACE","LORTON","VA",22079,38.697162743,-77.234280575,247,"9513 5TH PLACE, LORTON, VA, 22079","Match","Exact","9513 FIFTH PL, LORTON, VA, 22079",619944496,"L"
317748,"9513 ASIMOV WAY","SACTRAMENTO","CA",95829,38.4639190230001,-121.343457569,248,"9513 ASIMOV WAY, SACTRAMENTO, CA, 95829","Match","Non_Exact","9513 ASIMOV WAY, SACRAMENTO, CA, 95829",133405721,"R"
317749,"9513 BRANT LANE","GLEN ALLEN","VA",23060,37.654439498,-77.4525375809999,249,"9513 BRANT LANE, GLEN ALLEN, VA, 23060","Match","Exact","9513 BRANT LN, GLEN ALLEN, VA, 23060",106671150,"R"
317750,"9513 BUSINESS CENTER DR STE D","RANCHO CUCAMONGA","CA",91730,34.098779522,-117.597346788,250,"9513 BUSINESS CENTER DR STE D, RANCHO CUCAMONGA, CA, 91730","Match","Non_Exact","9513 BUS CENTER DR, RANCHO CUCAMONGA, CA, 91730",144637187,"R"
317751,"9513 EASTPOINTE CIRCLE","BIRMINGHAM","AL",35217,33.5931696690001,-86.7369171449999,251,"9513 EASTPOINTE CIRCLE, BIRMINGHAM, AL, 35217","Match","Exact","9513 EASTPOINTE CIR, BIRMINGHAM, AL, 35217",81645757,"R"
317752,"9513 ELGINWAY","BRENTWOOD","TN",37027,NA,NA,252,"9513 ELGINWAY, BRENTWOOD, TN, 37027","No_Match",NA,NA,NA,NA
317753,"9513 LYTHAM DR","SHREVPORT","LA",71129,32.395597272,-93.8511236799999,253,"9513 LYTHAM DR, SHREVPORT, LA, 71129","Match","Non_Exact","9513 LYTHAM DR, SHREVEPORT, LA, 71129",57462756,"L"
317754,"9513 NW 80TH ST","TAMARAC","FL",33321,26.2220384340001,-80.2776926029999,254,"9513 NW 80TH ST, TAMARAC, FL, 33321","Match","Exact","9513 NW 80TH ST, TAMARAC, FL, 33321",114690929,"R"
317755,"9513 OAKDALE","CHATSWORTH","CA",91311,34.2429554880001,-118.566888105,255,"9513 OAKDALE, CHATSWORTH, CA, 91311","Match","Non_Exact","9513 OAKDALE AVE, CHATSWORTH, CA, 91311",141540096,"L"
317756,"9513 PAMPLONA ROAD","COLUMBIA","MD",21045,39.206049652,-76.842622263,256,"9513 PAMPLONA ROAD, COLUMBIA, MD, 21045","Match","Exact","9513 PAMPLONA RD, COLUMBIA, MD, 21045",158925634,"L"
317757,"9513 PIN OAK DR","SILVER SPRING","MD",20910,39.011700187,-77.032386418,257,"9513 PIN OAK DR, SILVER SPRING, MD, 20910","Match","Exact","9513 PIN OAK DR, SILVER SPRING, MD, 20910",62067741,"R"
317758,"9513 SOUTHMILL DR","GLEN ALLEN","VA",23060,37.664701322,-77.5534251449999,258,"9513 SOUTHMILL DR, GLEN ALLEN, VA, 23060","Match","Exact","9513 SOUTHMILL DR, GLEN ALLEN, VA, 23060",106663688,"R"
317759,"9513 VERLAINE CT","LAS VEGAS","NV",89145,36.1676205690001,-115.302710598,259,"9513 VERLAINE CT, LAS VEGAS, NV, 89145","Match","Exact","9513 VERLAINE CT, LAS VEGAS, NV, 89145",201967160,"R"
317760,"9514 N CARLOTTA LN","MILWAUKEE","WI",53223,43.190520474,-87.98016281,260,"9514 N CARLOTTA LN, MILWAUKEE, WI, 53223","Match","Exact","9514 N CARLOTTA LN, MILWAUKEE, WI, 53223",77768335,"R"
317761,"9514 SOUTHERN BELLE DR/PO BOX 103","HILLSBORO","MO",63050,38.2581881420001,-90.600584611,261,"9514 SOUTHERN BELLE DR/PO BOX 103, HILLSBORO, MO, 63050","Match","Non_Exact","9514 SOUTHERN BELLE DR, HILLSBORO, MO, 63050",62764067,"R"
317762,"95140 VENTURES COURT","FERNANDINA BEACH","FL",32034,30.607518052,-81.509656944,262,"95140 VENTURES COURT, FERNANDINA BEACH, FL, 32034","Match","Exact","95140 VENTURES CT, FERNANDINA BCH, FL, 32034",631829656,"R"
317763,"95141 GLADIOLUS PL","FERNANDINA BEACH","FL",32034,30.5896025320001,-81.53690784,263,"95141 GLADIOLUS PL, FERNANDINA BEACH, FL, 32034","Match","Exact","95141 GLADIOLUS PL, FERNANDINA BCH, FL, 32034",646724064,"L"
317764,"9515 E 24TH ST","INDIANAPOLIS","IN",46229,39.8023422540001,-85.999406912,264,"9515 E 24TH ST, INDIANAPOLIS, IN, 46229","Match","Exact","9515 E 24TH ST, INDIANAPOLIS, IN, 46229",108012651,"R"
317765,"9515 KELVIN LN UNIT 2116","SCHILLER PARK","IL",60176,41.9665271370001,-87.865560204,265,"9515 KELVIN LN UNIT 2116, SCHILLER PARK, IL, 60176","Match","Exact","9515 KELVIN LN, SCHILLER PARK, IL, 60176",111725301,"L"
317766,"9515 LONGFORD WAY","PARKER","CO",80134,39.544910816,-104.80570302,266,"9515 LONGFORD WAY, PARKER, CO, 80134","Match","Exact","9515 LONGFORD WAY, PARKER, CO, 80134",130842810,"R"
317767,"9515 SW 60 COURT","PINECREST","FL",33156,25.6829899740001,-80.291854646,267,"9515 SW 60 COURT, PINECREST, FL, 33156","Match","Exact","9515 SW 60TH CT, PINECREST, FL, 33156",115985731,"L"
317768,"9515 SYCAMORE GROVE","UPPER MARLBORO","MD",20772,38.827648326,-76.8444596969999,268,"9515 SYCAMORE GROVE, UPPER MARLBORO, MD, 20772","Match","Exact","9515 SYCAMORE GROVE, UPPER MARLBORO, MD, 20772",648105220,"R"
317769,"9515 TAVIA COVE","AUSTIN","TX",78733,30.3447680800001,-97.854858125,269,"9515 TAVIA COVE, AUSTIN, TX, 78733","Match","Exact","9515 TAVIA COVE, AUSTIN, TX, 78733",64006123,"L"
317770,"9515 W 51ST AVENUE","ARVADA","CO",80002,39.7899275030001,-105.103252688,270,"9515 W 51ST AVENUE, ARVADA, CO, 80002","Match","Exact","9515 W 51ST AVE, ARVADA, CO, 80002",177287741,"R"
317771,"9515 WEST BROADWAY ST SUITE 101","PEARLAND","TX",77584,29.5567967550001,-95.367561036,271,"9515 WEST BROADWAY ST SUITE 101, PEARLAND, TX, 77584","Match","Non_Exact","9515 BROADWAY ST, PEARLAND, TX, 77584",649887144,"L"
317772,"9516  347TH ST S","ROY","WA",98580,46.94227554,-122.557011149,272,"9516  347TH ST S, ROY, WA, 98580","Match","Exact","9516 347TH ST S, ROY, WA, 98580",184754141,"L"
317773,"9516 AFTON GROVE","CORDOVA","TN",38018,35.153740317,-89.747694484,273,"9516 AFTON GROVE, CORDOVA, TN, 38018","Match","Non_Exact","9516 AFTON GROVE RD, CORDOVA, TN, 38018",611502291,"L"
317774,"9516 CATALINA COVE CIRCLE","LAS VEGAS","NV",89147,36.119382957,-115.299570348,274,"9516 CATALINA COVE CIRCLE, LAS VEGAS, NV, 89147","Match","Exact","9516 CATALINA COVE CIR, LAS VEGAS, NV, 89147",201932745,"R"
317775,"9516 CINNAMON DR","SHREVEPORT","LA",71118,32.3950343590001,-93.8006270399999,275,"9516 CINNAMON DR, SHREVEPORT, LA, 71118","Match","Exact","9516 CINNAMON DR, SHREVEPORT, LA, 71118",57464235,"R"
317776,"9516 DRURY DRIVE","AVON","IN",46123,39.7887486060001,-86.3521268699999,276,"9516 DRURY DRIVE, AVON, IN, 46123","Match","Exact","9516 DRURY DR, AVON, IN, 46123",650820242,"L"
317777,"9516 FERNHILL AVENUE","PARMA","OH",44129,41.41231566,-81.750619265,277,"9516 FERNHILL AVENUE, PARMA, OH, 44129","Match","Exact","9516 FERNHILL AVE, PARMA, OH, 44129",61106576,"R"
317778,"9516 NW 87TH TERRACE","KANSAS CITY","MO",64153,39.2521165900001,-94.690501322,278,"9516 NW 87TH TERRACE, KANSAS CITY, MO, 64153","Match","Exact","9516 NW 87TH TER, KANSAS CITY, MO, 64153",39704354,"R"
317779,"9516 ROSSPORT WAY","ELK GROVE","CA",95624,38.412006852,-121.342606571,279,"9516 ROSSPORT WAY, ELK GROVE, CA, 95624","Match","Exact","9516 ROSSPORT WAY, ELK GROVE, CA, 95624",133405145,"R"
317780,"9516 STONEY HARBOR DRIVE","FT WASHINGTON","MD",20744,38.7587938120001,-76.95100698,280,"9516 STONEY HARBOR DRIVE, FT WASHINGTON, MD, 20744","Match","Exact","9516 STONEY HARBOR DR, FT WASHINGTON, MD, 20744",645476111,"L"
317781,"9516 W GARFIELD STREET","TOLLESON","AZ",85353,33.456161781,-112.265626856,281,"9516 W GARFIELD STREET, TOLLESON, AZ, 85353","Match","Exact","9516 W GARFIELD ST, TOLLESON, AZ, 85353",128264662,"R"
317782,"9517 18TH AVE NW","SEATTLE","WA",98117,47.6983829580001,-122.37914559,282,"9517 18TH AVE NW, SEATTLE, WA, 98117","Match","Exact","9517 18TH AVE NW, SEATTLE, WA, 98117",186658507,"L"
317783,"9517 LAKESIDE DR","YPSILANTI","MI",48197,42.2031782600001,-83.571208376,283,"9517 LAKESIDE DR, YPSILANTI, MI, 48197","Match","Exact","9517 LAKESIDE DR, YPSILANTI, MI, 48197",618971726,"R"
317784,"9517 MANNING AVE","KANSAS CITY","MO",64134,38.9506106630001,-94.478310693,284,"9517 MANNING AVE, KANSAS CITY, MO, 64134","Match","Exact","9517 MANNING AVE, KANSAS CITY, MO, 64134",91466433,"L"
317785,"9517 ROE AVENUE","OVERLAND PARK","KS",66207,38.9563203910001,-94.639093153,285,"9517 ROE AVENUE, OVERLAND PARK, KS, 66207","Match","Exact","9517 ROE AVE, OVERLAND PARK, KS, 66207",91280164,"L"
317786,"9517 SPRING MEADE LANE","GERMANTOWN","TN",38139,35.090210353,-89.745710886,286,"9517 SPRING MEADE LANE, GERMANTOWN, TN, 38139","Match","Exact","9517 SPRING MEADE LN, GERMANTOWN, TN, 38139",72941808,"R"
317787,"9518 EMNORA LANE","HOUSTON","TX",77080,29.8152088000001,-95.528049733,287,"9518 EMNORA LANE, HOUSTON, TX, 77080","Match","Exact","9518 EMNORA LN, HOUSTON, TX, 77080",96025694,"R"
317788,"9518 GARRETT DR","ROWLETT","TX",75089,32.944024389,-96.529050856,288,"9518 GARRETT DR, ROWLETT, TX, 75089","Match","Exact","9518 GARRETT DR, ROWLETT, TX, 75089",624902525,"L"
317789,"9518 MIRANDA CT","FAIRFAX","VA",22031,38.868899142,-77.2750722919999,289,"9518 MIRANDA CT, FAIRFAX, VA, 22031","Match","Exact","9518 MIRANDA CT, FAIRFAX, VA, 22031",75969095,"R"
317790,"9518 S SPAULDING AVE","EVERGREEN PARK","IL",60805,41.719877873,-87.704256834,290,"9518 S SPAULDING AVE, EVERGREEN PARK, IL, 60805","Match","Exact","9518 SPAULDING AVE, EVERGREEN PARK, IL, 60805",605477177,"R"
317791,"9518 TOPRIDGE DRIVE APT 13","AUSTIN","TX",78750,30.434531441,-97.797914379,291,"9518 TOPRIDGE DRIVE APT 13, AUSTIN, TX, 78750","Match","Exact","9518 TOPRIDGE DR, AUSTIN, TX, 78750",63924532,"R"
317792,"9518 WOLF POINT","SAN ANTONIO","TX",78251,29.442601369,-98.674732806,292,"9518 WOLF POINT, SAN ANTONIO, TX, 78251","Match","Exact","9518 WOLF PT, SAN ANTONIO, TX, 78251",619937898,"R"
317793,"9519 1 2 PARK ST","BELLFLOWER","CA",90706,NA,NA,293,"9519 1 2 PARK ST, BELLFLOWER, CA, 90706","No_Match",NA,NA,NA,NA
317794,"9519 32ND AVE NE","SEATTLE","WA",98115,47.697688951,-122.293278837,294,"9519 32ND AVE NE, SEATTLE, WA, 98115","Match","Exact","9519 32ND AVE NE, SEATTLE, WA, 98115",186584972,"L"
317795,"9519 BROCKET DR","MIDLOTHIAN","VA",23112,37.380431242,-77.653782624,295,"9519 BROCKET DR, MIDLOTHIAN, VA, 23112","Match","Exact","9519 BROCKET DR, MIDLOTHIAN, VA, 23112",644494288,"L"
317796,"9519 COUNTY VIEW ROAD","DALLAS","TX",75249,32.6359367000001,-96.95232886,296,"9519 COUNTY VIEW ROAD, DALLAS, TX, 75249","Match","Exact","9519 COUNTY VIEW RD, DALLAS, TX, 75249",638654927,"R"
317797,"9519 DANIEL FRENCH STREET","LORTON","VA",22079,38.6970614790001,-77.217821795,297,"9519 DANIEL FRENCH STREET, LORTON, VA, 22079","Match","Exact","9519 DANIEL FRENCH ST, LORTON, VA, 22079",619526107,"R"
317798,"9519 FOREST LANE","DALLAS","TX",75315,32.909256494,-96.727976263,298,"9519 FOREST LANE, DALLAS, TX, 75315","Match","Non_Exact","9519 FOREST LN, DALLAS, TX, 75243",651664847,"L"
317799,"9519 LOW GROUND ROAD","EMPORIA","VA",23847,36.589786083,-77.4174740349999,299,"9519 LOW GROUND ROAD, EMPORIA, VA, 23847","Match","Exact","9519 LOW GROUND RD, EMPORIA, VA, 23847",54238346,"L"
317800,"9519 MAYWOOD AVE","KANSAS CITY","MO",64134,38.9494395250001,-94.4625586179999,300,"9519 MAYWOOD AVE, KANSAS CITY, MO, 64134","Match","Exact","9519 MAYWOOD AVE, KANSAS CITY, MO, 64134",91467526,"L"
317801,"9519 MISTRY ARBOR WAY","CHARLOTTE","NC",28269,NA,NA,301,"9519 MISTRY ARBOR WAY, CHARLOTTE, NC, 28269","No_Match",NA,NA,NA,NA
317802,"9519 SILVER CROWN","SAN ANTONIO","TX",78254,29.54017852,-98.670567621,302,"9519 SILVER CROWN, SAN ANTONIO, TX, 78254","Match","Exact","9519 SILVER CROWN, SAN ANTONIO, TX, 78254",101589342,"R"
317803,"952 ALDERSIDE STREET","JACKSONVILLE","FL",32208,30.378617757,-81.670310582,303,"952 ALDERSIDE STREET, JACKSONVILLE, FL, 32208","Match","Exact","952 ALDERSIDE ST, JACKSONVILLE, FL, 32208",83893147,"L"
317804,"952 E 10TH ST","DOUGLAS","AZ",85607,31.3444864790001,-109.547584475,304,"952 E 10TH ST, DOUGLAS, AZ, 85607","Match","Exact","952 10TH ST, DOUGLAS, AZ, 85607",120910565,"R"
317805,"952 E INCA ST","MESA","AZ",85203,33.4445690530001,-111.810029202,305,"952 E INCA ST, MESA, AZ, 85203","Match","Exact","952 E INCA ST, MESA, AZ, 85203",128792864,"R"
317806,"952 E LINCOLN LANE","GARDNER","KS",66030,38.8136867700001,-94.904621898,306,"952 E LINCOLN LANE, GARDNER, KS, 66030","Match","Exact","952 E LINCOLN LN, GARDNER, KS, 66030",633081711,"R"
317807,"952 EAST 98TH STREET","BROOKLYN","NY",11236,40.647847746,-73.903825352,307,"952 EAST 98TH STREET, BROOKLYN, NY, 11236","Match","Exact","952 E 98TH ST, BROOKLYN, NY, 11236",59086597,"R"
317808,"952 EAST WHITE PINE WAY","SANDY","UT",84094,40.609038115,-111.864387893,308,"952 EAST WHITE PINE WAY, SANDY, UT, 84094","Match","Exact","952 E WHITE PINE WAY, SANDY, UT, 84094",176152561,"L"
317809,"952 GOLD HOUSE ROAD W PMB 604","WHITSETT","NC",27377,36.064577711,-79.6052843319999,309,"952 GOLD HOUSE ROAD W PMB 604, WHITSETT, NC, 27377","Match","Non_Exact","952 GOLF HOUSE RD W, WHITSETT, NC, 27377",131079656,"R"
317810,"952 GOLFHOUSE RD PMB 215","WHITSETT","NC",27377,NA,NA,310,"952 GOLFHOUSE RD PMB 215, WHITSETT, NC, 27377","Tie",NA,NA,NA,NA
317811,"952 GOSS ROAD","CINCINNATI","OH",45229,39.1465376850001,-84.4828867049999,311,"952 GOSS ROAD, CINCINNATI, OH, 45229","Match","Exact","952 GOSS RD, CINCINNATI, OH, 45229",103925663,"R"
317812,"952 HWY 65N","MARSHALL","AR",72650,NA,NA,312,"952 HWY 65N, MARSHALL, AR, 72650","No_Match",NA,NA,NA,NA
317813,"952 KENNEDY CIRCLE","MORRISTOWN","TN",37813,36.199378231,-83.301493104,313,"952 KENNEDY CIRCLE, MORRISTOWN, TN, 37813","Match","Exact","952 KENNEDY CIR, MORRISTOWN, TN, 37813",606972642,"L"
317814,"952 MONTOUR BLVD","DANVILLE","PA",17821,40.959792152,-76.57710614,314,"952 MONTOUR BLVD, DANVILLE, PA, 17821","Match","Exact","952 MONTOUR BLVD, DANVILLE, PA, 17821",629876669,"L"
317815,"952 N WESTRIDGE DRIVE","SAINT GEORGE","UT",84770,37.1247238170001,-113.616133871,315,"952 N WESTRIDGE DRIVE, SAINT GEORGE, UT, 84770","Match","Exact","952 WESTRIDGE DR, SAINT GEORGE, UT, 84770",635510861,"R"
317816,"952 NORTHERN BOULEVARD","BALDWIN","NY",11510,40.631503663,-73.603220167,316,"952 NORTHERN BOULEVARD, BALDWIN, NY, 11510","Match","Exact","952 NORTHERN BLVD, BALDWIN, NY, 11510",147638048,"R"
317817,"952 REDWOOD","WILSON","OK",73463,34.172829962,-97.425736192,317,"952 REDWOOD, WILSON, OK, 73463","Match","Non_Exact","952 REDWOOD ST, WILSON, OK, 73463",14854079,"R"
317818,"952 SCHOOL STREET BOX 266","NAPA","CA",94559,38.296875383,-122.289120786,318,"952 SCHOOL STREET BOX 266, NAPA, CA, 94559","Match","Exact","952 SCHOOL ST, NAPA, CA, 94559",67416942,"R"
317819,"952 SCHOOL STREET SUITE 280","NAPA","CA",94559,38.296875383,-122.289120786,319,"952 SCHOOL STREET SUITE 280, NAPA, CA, 94559","Match","Exact","952 SCHOOL ST, NAPA, CA, 94559",67416942,"R"
317820,"952 SENATE STREET","COSTA MESA","CA",92627,33.654571311,-117.93820613,320,"952 SENATE STREET, COSTA MESA, CA, 92627","Match","Exact","952 SENATE ST, COSTA MESA, CA, 92627",144046037,"R"
317821,"952 ST MARKS AVE APT A3","BROOKLYN","NY",11213,40.674708245,-73.941047176,321,"952 ST MARKS AVE APT A3, BROOKLYN, NY, 11213","Match","Exact","952 ST MARKS AVE, BROOKLYN, NY, 11213",59079665,"R"
317822,"952 TURNER AVE","SHELBY","MT",59474,48.5152154670001,-111.859768287,322,"952 TURNER AVE, SHELBY, MT, 59474","Match","Exact","952 TURNER AVE, SHELBY, MT, 59474",204293712,"R"
317823,"952 W KENSINGTON RD APT 2","LOS ANGELES","CA",90026,34.0737417820001,-118.255469175,323,"952 W KENSINGTON RD APT 2, LOS ANGELES, CA, 90026","Match","Non_Exact","952 W KENSINGTON RD, LOS ANGELES, CA, 90026",141616314,"R"
317824,"952 YAGERS ROAD","LURAY","VA",22835,38.6784047730001,-78.468589257,324,"952 YAGERS ROAD, LURAY, VA, 22835","Match","Exact","952 YAGERS RD, LURAY, VA, 22835",29924637,"L"
317825,"9520 BERGER ROAD SUITE 204","COLUMBIA","MD",21046,39.173751059,-76.842358879,325,"9520 BERGER ROAD SUITE 204, COLUMBIA, MD, 21046","Match","Exact","9520 BERGER RD, COLUMBIA, MD, 21046",158969545,"R"
317826,"9520 BERGER ROAD","COLUMBIA","MD",21046,39.173751059,-76.842358879,326,"9520 BERGER ROAD, COLUMBIA, MD, 21046","Match","Exact","9520 BERGER RD, COLUMBIA, MD, 21046",158969545,"R"
317827,"9520 FREDERICK ROAD","ORANGE","TX",77632,30.170815239,-93.902857743,327,"9520 FREDERICK ROAD, ORANGE, TX, 77632","Match","Exact","9520 FREDERICK RD, ORANGE, TX, 77632",74004998,"R"
317828,"9520 HICKORY HILL DRIVE","FREDERICKSBURG","VA",22408,38.21993896,-77.4676207429999,328,"9520 HICKORY HILL DRIVE, FREDERICKSBURG, VA, 22408","Match","Exact","9520 HICKORY HILL DR, FREDERICKSBURG, VA, 22408",639945492,"L"
317829,"9520 KOSTNER","SKOKIE","IL",60076,42.054033836,-87.7371692039999,329,"9520 KOSTNER, SKOKIE, IL, 60076","Match","Non_Exact","9520 KOSTNER AVE, SKOKIE, IL, 60076",605246202,"L"
317830,"9520 RICHMOND HIGHWAY","LORTON","VA",22079,38.7009429780001,-77.210491629,330,"9520 RICHMOND HIGHWAY, LORTON, VA, 22079","Match","Exact","9520 RICHMOND HWY, LORTON, VA, 22079",76051932,"R"
317831,"9520 ROOSEVELT WAY NE","SEATTLE","WA",98115,47.6978806050001,-122.317580018,331,"9520 ROOSEVELT WAY NE, SEATTLE, WA, 98115","Match","Exact","9520 ROOSEVELT WAY NE, SEATTLE, WA, 98115",186584592,"R"
317832,"9520 SANTA PAULA DRIVE","FORT WORTH","TX",76116,32.725953206,-97.484444082,332,"9520 SANTA PAULA DRIVE, FORT WORTH, TX, 76116","Match","Exact","9520 SANTA PAULA DR, FORT WORTH, TX, 76116",101876156,"R"
317833,"9520 SW TERWILLIGER","PORTLAND","OR",97219,NA,NA,333,"9520 SW TERWILLIGER, PORTLAND, OR, 97219","No_Match",NA,NA,NA,NA
317834,"9520 VIKING DRIVE","EDEN PRAIRIE","MN",55344,44.8600207420001,-93.399447642,334,"9520 VIKING DRIVE, EDEN PRAIRIE, MN, 55344","Match","Exact","9520 VIKING DR, EDEN PRAIRIE, MN, 55344",43856671,"L"
317835,"9520 WEST 133RD AVENUE","CEDAR LAKE","IN",46303,41.3772847650001,-87.449829612,335,"9520 WEST 133RD AVENUE, CEDAR LAKE, IN, 46303","Match","Exact","9520 W 133RD AVE, CEDAR LAKE, IN, 46303",98431730,"L"
317836,"9521  COLDWATER RD","FLUSHING","MI",48433,43.088898111,-83.869749381,336,"9521  COLDWATER RD, FLUSHING, MI, 48433","Match","Exact","9521 COLDWATER RD, FLUSHING, MI, 48433",642553773,"R"
317837,"9521 B RIVERSIDE PKWY","TULSA","OK",74137,36.029157384,-95.952165802,337,"9521 B RIVERSIDE PKWY, TULSA, OK, 74137","Match","Exact","9521 RIVERSIDE PKWY, TULSA, OK, 74137",653423855,"L"
317838,"9521 BRINK RD","GAITHERSBURG","MD",20882,39.200217503,-77.196493888,338,"9521 BRINK RD, GAITHERSBURG, MD, 20882","Match","Exact","9521 BRINK RD, GAITHERSBURG, MD, 20882",62110712,"L"
317839,"9521 BROOKLINE AVENUE","BATON ROUGE","LA",70809,30.4282503100001,-91.082203453,339,"9521 BROOKLINE AVENUE, BATON ROUGE, LA, 70809","Match","Exact","9521 BROOKLINE AVE, BATON ROUGE, LA, 70809",92210659,"L"
317840,"9521 CENTERWOOD DRIVE","RALEIGH","NC",27617,35.915029099,-78.80127664,340,"9521 CENTERWOOD DRIVE, RALEIGH, NC, 27617","Match","Exact","9521 CENTERWOOD DR, RALEIGH, NC, 27617",634096082,"L"
317841,"9521 COLDWATER RD","FLUSHING","MI",48433,43.088898111,-83.869749381,341,"9521 COLDWATER RD, FLUSHING, MI, 48433","Match","Exact","9521 COLDWATER RD, FLUSHING, MI, 48433",642553773,"R"
317842,"9521 GLENNSADE AVENUE","BATON ROUGE","LA",70814,30.479896432,-91.081985607,342,"9521 GLENNSADE AVENUE, BATON ROUGE, LA, 70814","Match","Exact","9521 GLENNSADE AVE, BATON ROUGE, LA, 70814",92209053,"L"
317843,"9521 HIGHLAND DRIVE","PERRINTON","MI",48871,43.153719186,-84.68192845,343,"9521 HIGHLAND DRIVE, PERRINTON, MI, 48871","Match","Exact","9521 HIGHLAND DR, PERRINTON, MI, 48871",80165562,"R"
317844,"9521 LAKESHORE BLVD","MENTOR","OH",44060,41.7277822290001,-81.296798886,344,"9521 LAKESHORE BLVD, MENTOR, OH, 44060","Match","Exact","9521 LAKESHORE BLVD, MENTOR, OH, 44060",651469703,"L"
317845,"9521 S STORNOWAY CIRCLE","SOUTH JORDAN","UT",84009,40.578258841,-112.004465108,345,"9521 S STORNOWAY CIRCLE, SOUTH JORDAN, UT, 84009","Match","Exact","9521 STORNOWAY CIR, SOUTH JORDAN, UT, 84009",176074382,"L"
317846,"9521 SHELLIE RD SUITE 13","JACKSONVILLE","FL",32257,30.2054566950001,-81.5942728699999,346,"9521 SHELLIE RD SUITE 13, JACKSONVILLE, FL, 32257","Match","Exact","9521 SHELLIE RD, JACKSONVILLE, FL, 32257",83990206,"L"
317847,"9521 SWEET BAY LN","WESTWEGO","LA",70094,29.9439836130001,-90.250721266,347,"9521 SWEET BAY LN, WESTWEGO, LA, 70094","Match","Non_Exact","9521 SWEETBAY LN, WESTWEGO, LA, 70094",624252597,"L"
317848,"9521 TILLEY ROAD S","OLYMPIA","WA",98512,46.9486493090001,-122.907863091,348,"9521 TILLEY ROAD S, OLYMPIA, WA, 98512","Match","Non_Exact","9521 TILLEY RD SE, OLYMPIA, WA, 98512",180954081,"L"
317849,"9521 W 118TH TER APT 4","OVERLAND PARK","KS",66210,38.913451745,-94.6918842809999,349,"9521 W 118TH TER APT 4, OVERLAND PARK, KS, 66210","Match","Non_Exact","9521 W 118TH TER, OVERLAND PARK, KS, 66210",91291689,"R"
317850,"9521B RIVERSIDE PKWY  NUM 253","TULSA","OK",74137,36.029157384,-95.952165802,350,"9521B RIVERSIDE PKWY  NUM 253, TULSA, OK, 74137","Match","Exact","9521 RIVERSIDE PKWY, TULSA, OK, 74137",653423855,"L"
317851,"9522 GLENDOWN LANE","HOUSTON","TX",77070,29.957518131,-95.562401156,351,"9522 GLENDOWN LANE, HOUSTON, TX, 77070","Match","Exact","9522 GLENDOWN LN, HOUSTON, TX, 77070",627726969,"L"
317852,"9522 INDIAN PIPE LANE","PROSPECT","KY",40059,38.3265028590001,-85.5635903479999,352,"9522 INDIAN PIPE LANE, PROSPECT, KY, 40059","Match","Exact","9522 INDIAN PIPE LN, PROSPECT, KY, 40059",641783598,"R"
317853,"9522 NEW WATERFORD CV","DELRAY BEACH","FL",33446,26.441624759,-80.197404532,353,"9522 NEW WATERFORD CV, DELRAY BEACH, FL, 33446","Match","Exact","9522 NEW WATERFORD COVE, DELRAY BEACH, FL, 33446",115570548,"L"
317854,"9522 VIEWSIDE DRIVE","DALLAS","TX",75231,32.8912737900001,-96.7388903729999,354,"9522 VIEWSIDE DRIVE, DALLAS, TX, 75231","Match","Exact","9522 VIEWSIDE DR, DALLAS, TX, 75231",102914960,"R"
317855,"9522 W CORONADO DR","BATON ROUGE","LA",70815,30.46759122,-91.080850211,355,"9522 W CORONADO DR, BATON ROUGE, LA, 70815","Match","Exact","9522 W CORONADO DR, BATON ROUGE, LA, 70815",92190301,"R"
317856,"9523 MEADOWS FARM DRIVE","OWINGS MILLS","MD",21117,39.4063581870001,-76.806207108,356,"9523 MEADOWS FARM DRIVE, OWINGS MILLS, MD, 21117","Match","Non_Exact","9523 MEADOWS FARMS DR, OWINGS MILLS, MD, 21117",647297844,"R"
317857,"9524 BRIGANTINE COURT","INDIANAPOLIS","IN",46256,39.9263810570001,-85.974046619,357,"9524 BRIGANTINE COURT, INDIANAPOLIS, IN, 46256","Match","Exact","9524 BRIGANTINE CT, INDIANAPOLIS, IN, 46256",108011152,"L"
317858,"9524 CAILLER DRIVE","LENEXA","KS",66220,38.955714679,-94.8236118029999,358,"9524 CAILLER DRIVE, LENEXA, KS, 66220","Match","Exact","9524 CAILLER DR, LENEXA, KS, 66220",91315148,"R"
317859,"9524 E 81ST STREET SUITE B-1588","TULSA","OK",74133,36.046389133,-95.885162887,359,"9524 E 81ST STREET SUITE B-1588, TULSA, OK, 74133","Match","Non_Exact","9524 E 81ST ST, TULSA, OK, 74133",166494689,"R"
317860,"9524 E SILENT HILLS PL","LONE TREE","CO",80124,39.5431108830001,-104.877378237,360,"9524 E SILENT HILLS PL, LONE TREE, CO, 80124","Match","Exact","9524 E SILENT HILLS PL, LONE TREE, CO, 80124",617966664,"L"
317861,"9524 EBY ST","OVERLAND PARK","KS",66212,38.955220986,-94.6904419969999,361,"9524 EBY ST, OVERLAND PARK, KS, 66212","Match","Exact","9524 EBY ST, OVERLAND PARK, KS, 66212",91276953,"R"
317862,"9524 EBY STREET","OVERLAND PARK","KS",66212,38.955220986,-94.6904419969999,362,"9524 EBY STREET, OVERLAND PARK, KS, 66212","Match","Exact","9524 EBY ST, OVERLAND PARK, KS, 66212",91276953,"R"
317863,"9524 ESCONDIDO CANYON ROAD","AGUA DULCE","CA",91390,34.490078651,-118.300893247,363,"9524 ESCONDIDO CANYON ROAD, AGUA DULCE, CA, 91390","Match","Exact","9524 ESCONDIDO CANYON RD, AGUA DULCE, CA, 91390",241238527,"R"
317864,"9524 S 89TH AVE","PALOS HILLS","IL",60465,NA,NA,364,"9524 S 89TH AVE, PALOS HILLS, IL, 60465","Tie",NA,NA,NA,NA
317865,"9524 W CAMELBACK ROAD 130 NO 390","GLENDALE","AZ",85305,NA,NA,365,"9524 W CAMELBACK ROAD 130 NO 390, GLENDALE, AZ, 85305","No_Match",NA,NA,NA,NA
317866,"9524 W CAMELBACK ROAD SUITE 130-344","GLENDALE","AZ",85305,NA,NA,366,"9524 W CAMELBACK ROAD SUITE 130-344, GLENDALE, AZ, 85305","No_Match",NA,NA,NA,NA
317867,"9524 WOODLIEF ROAD","WAKE FOREST","NC",27587,36.048115432,-78.627047346,367,"9524 WOODLIEF ROAD, WAKE FOREST, NC, 27587","Match","Exact","9524 WOODLIEF RD, WAKE FOREST, NC, 27587",650036804,"R"
317868,"95244 ARBOR LANE","FERNANDINA BEACH","FL",32034,30.5702299160001,-81.503446869,368,"95244 ARBOR LANE, FERNANDINA BEACH, FL, 32034","Match","Exact","95244 ARBOR LN, FERNANDINA BCH, FL, 32034",648489312,"R"
317869,"9525 BERGER ROAD SUITE P","COLUMBIA","MD",21046,39.174124691,-76.841667722,369,"9525 BERGER ROAD SUITE P, COLUMBIA, MD, 21046","Match","Exact","9525 BERGER RD, COLUMBIA, MD, 21046",158968637,"L"
317870,"9525 CARGO AVENUE NE","ALBUQUERQUE","NM",87109,35.16717722,-106.536251336,370,"9525 CARGO AVENUE NE, ALBUQUERQUE, NM, 87109","Match","Exact","9525 CARGO AVE NE, ALBUQUERQUE, NM, 87109",206729079,"L"
317871,"9525 DONNA DRIVE","BATON ROUGE","LA",70815,30.451300299,-91.082784375,371,"9525 DONNA DRIVE, BATON ROUGE, LA, 70815","Match","Exact","9525 DONNA DR, BATON ROUGE, LA, 70815",92189744,"L"
317872,"9525 ELMBROOKE BLVD","BRENTWOOD","TN",37027,35.986362817,-86.7394982769999,372,"9525 ELMBROOKE BLVD, BRENTWOOD, TN, 37027","Match","Non_Exact","9525 ELMBROOK BLVD, BRENTWOOD, TN, 37027",634036615,"R"
317873,"9525 FOREST GLEN DR","LINCOLN","NE",68526,40.75043305,-96.5914303759999,373,"9525 FOREST GLEN DR, LINCOLN, NE, 68526","Match","Exact","9525 FOREST GLEN DR, LINCOLN, NE, 68526",28298774,"R"
317874,"9525 GORDON BERNARD COVE","BARTLETT","TN",38133,35.224452125,-89.745309574,374,"9525 GORDON BERNARD COVE, BARTLETT, TN, 38133","Match","Exact","9525 GORDON BERNARD COVE, BARTLETT, TN, 38133",72956645,"R"
317875,"9525 HOLBROOK DRIVE","ORLANDO","FL",32817,28.607778952,-81.253523598,375,"9525 HOLBROOK DRIVE, ORLANDO, FL, 32817","Match","Exact","9525 HOLBROOK DR, ORLANDO, FL, 32817",94331557,"L"
317876,"9525 KILIMANJARO RD","COLUMBIA","MD",21045,39.206287101,-76.844318546,376,"9525 KILIMANJARO RD, COLUMBIA, MD, 21045","Match","Exact","9525 KILIMANJARO RD, COLUMBIA, MD, 21045",158965171,"L"
317877,"9525 NW 49TH CT","CORAL SPRINGS","FL",33067,26.290350677,-80.25085667,377,"9525 NW 49TH CT, CORAL SPRINGS, FL, 33067","Match","Non_Exact","9525 NW 49TH CT, CORAL SPRINGS, FL, 33076",114774059,"L"
317878,"9525 PASEO TEMPORADA","SAN DIEGO","CA",92129,32.9618259980001,-117.120678115,378,"9525 PASEO TEMPORADA, SAN DIEGO, CA, 92129","Match","Non_Exact","9525 PSO TEMPORADA, SAN DIEGO, CA, 92129",195318461,"R"
317879,"9525 S 79TH AVE STE 205","HICKORY HILLS","IL",60457,41.718307839,-87.8154518649999,379,"9525 S 79TH AVE STE 205, HICKORY HILLS, IL, 60457","Match","Non_Exact","9525 S 79TH AVE, HICKORY HILLS, IL, 60457",111810023,"L"
317880,"9525 WINSTON AVE","URBANDALE","IA",50322,41.6346532580001,-93.749773327,380,"9525 WINSTON AVE, URBANDALE, IA, 50322","Match","Exact","9525 WINSTON AVE, URBANDALE, IA, 50322",65801227,"R"
317881,"9525 YELLOW DOLL DRIVE","OWINGS MILLS","MD",21117,39.3859081680001,-76.8027099829999,381,"9525 YELLOW DOLL DRIVE, OWINGS MILLS, MD, 21117","Match","Exact","9525 YELLOW DOLL DR, OWINGS MILLS, MD, 21117",191501774,"L"
317882,"9526 ARGYLE FOREST BLVD B2 465","JACKSONVILLE","FL",32222,30.1957766250001,-81.82577642,382,"9526 ARGYLE FOREST BLVD B2 465, JACKSONVILLE, FL, 32222","Match","Exact","9526 ARGYLE FOREST BLVD, JACKSONVILLE, FL, 32222",650505291,"L"
317883,"9526 ARGYLE FOREST BLVD STE B2 345","JACKSONVILLE","FL",32222,30.1957766250001,-81.82577642,383,"9526 ARGYLE FOREST BLVD STE B2 345, JACKSONVILLE, FL, 32222","Match","Exact","9526 ARGYLE FOREST BLVD, JACKSONVILLE, FL, 32222",650505291,"L"
317884,"9526 ARGYLE FOREST BLVD STE B2 439","JACKSONVILLE","FL",32222,30.1957766250001,-81.82577642,384,"9526 ARGYLE FOREST BLVD STE B2 439, JACKSONVILLE, FL, 32222","Match","Exact","9526 ARGYLE FOREST BLVD, JACKSONVILLE, FL, 32222",650505291,"L"
317885,"9526 ARGYLE FOREST BLVD STE B2-373","JACKSONVILLE","FL",32222,30.1957766250001,-81.82577642,385,"9526 ARGYLE FOREST BLVD STE B2-373, JACKSONVILLE, FL, 32222","Match","Exact","9526 ARGYLE FOREST BLVD, JACKSONVILLE, FL, 32222",650505291,"L"
317886,"9526 ARGYLE FOREST BLVD SUITE B2","JACKSONVILLE","FL",32222,30.1957766250001,-81.82577642,386,"9526 ARGYLE FOREST BLVD SUITE B2, JACKSONVILLE, FL, 32222","Match","Exact","9526 ARGYLE FOREST BLVD, JACKSONVILLE, FL, 32222",650505291,"L"
317887,"9526 INDIAN LAKE ROAD","BYESVILLE","OH",43723,39.9471006100001,-81.566443696,387,"9526 INDIAN LAKE ROAD, BYESVILLE, OH, 43723","Match","Exact","9526 INDIAN LAKE RD, BYESVILLE, OH, 43723",37655363,"R"
317888,"9526 STARGAZE AVE","SAN DIEGO","CA",92129,32.971807632,-117.126058397,388,"9526 STARGAZE AVE, SAN DIEGO, CA, 92129","Match","Exact","9526 STARGAZE AVE, SAN DIEGO, CA, 92129",195659651,"L"
317889,"9526 W MANHATTAN MONEE ROAD","FRANKFORT","IL",60423,41.42605783,-87.8418170469999,389,"9526 W MANHATTAN MONEE ROAD, FRANKFORT, IL, 60423","Match","Non_Exact","9526 W MANHATTAN-MONEE RD, FRANKFORT, IL, 60423",111551561,"L"
317890,"9526-B2 ARGYLE FOREST BLVD STE 364","JACKSONVILLE","FL",32222,NA,NA,390,"9526-B2 ARGYLE FOREST BLVD STE 364, JACKSONVILLE, FL, 32222","No_Match",NA,NA,NA,NA
317891,"9527 DANIEL FRENCH STREET","LORTON","VA",22079,38.696883816,-77.217488375,391,"9527 DANIEL FRENCH STREET, LORTON, VA, 22079","Match","Exact","9527 DANIEL FRENCH ST, LORTON, VA, 22079",619526106,"R"
317892,"9527 DEVERS WAY APT G","INDIANAPOLIS","IN",46216,39.8602230270001,-86.000063543,392,"9527 DEVERS WAY APT G, INDIANAPOLIS, IN, 46216","Match","Exact","9527 DEVERS WAY, INDIANAPOLIS, IN, 46216",108058711,"R"
317893,"9527 HEATHER SPRING DR","HENRICO","VA",23238,37.6146857040001,-77.58339333,393,"9527 HEATHER SPRING DR, HENRICO, VA, 23238","Match","Exact","9527 HEATHER SPRING DR, HENRICO, VA, 23238",106657862,"L"
317894,"9527 PRINCE WILLIAM COURT","BRIGHTON","MI",48114,42.5491270700001,-83.762764352,394,"9527 PRINCE WILLIAM COURT, BRIGHTON, MI, 48114","Match","Exact","9527 PRINCE WILLIAM CT, BRIGHTON, MI, 48114",23564368,"R"
317895,"9527 WHITEHEART DR","FREDERICKSBURG","VA",22407,38.2190152690001,-77.515474131,395,"9527 WHITEHEART DR, FREDERICKSBURG, VA, 22407","Match","Exact","9527 WHITEHEART DR, FREDERICKSBURG, VA, 22407",615791321,"L"
317896,"9528 APACHE AVE NE","ALBUQUERQUE","NM",87112,35.1060891220001,-106.538683199,396,"9528 APACHE AVE NE, ALBUQUERQUE, NM, 87112","Match","Exact","9528 APACHE AVE NE, ALBUQUERQUE, NM, 87112",206719274,"R"
317897,"9528 GRAPEFRUIT AVE","HESPERIA","CA",92345,34.4239563200001,-117.266543906,397,"9528 GRAPEFRUIT AVE, HESPERIA, CA, 92345","Match","Exact","9528 GRAPEFRUIT AVE, HESPERIA, CA, 92345",144589616,"L"
317898,"9528 SCENIC SUNSET DR","LAS VEGAS","NV",89117,36.150450198,-115.30315419,398,"9528 SCENIC SUNSET DR, LAS VEGAS, NV, 89117","Match","Exact","9528 SCENIC SUNSET DR, LAS VEGAS, NV, 89117",201901434,"R"
317899,"9529 20TH STREET","FORT RIPLEY","MN",56449,46.1860925660001,-94.1995157169999,399,"9529 20TH STREET, FORT RIPLEY, MN, 56449","Match","Exact","9529 20TH ST, FORT RIPLEY, MN, 56449",611825987,"R"
317900,"9529 BIG TIMBER DR","ELK GROVE","CA",95758,38.4117630870001,-121.400202252,400,"9529 BIG TIMBER DR, ELK GROVE, CA, 95758","Match","Exact","9529 BIG TIMBER DR, ELK GROVE, CA, 95758",133382354,"R"
317901,"9529 BIG VIEW DR","AUSTIN","TX",78730,30.3616975360001,-97.856990835,401,"9529 BIG VIEW DR, AUSTIN, TX, 78730","Match","Exact","9529 BIG VIEW DR, AUSTIN, TX, 78730",64001878,"R"
317902,"9529 EAST KEMPER ROAD","LOVELAND","OH",45140,39.2543825280001,-84.303339313,402,"9529 EAST KEMPER ROAD, LOVELAND, OH, 45140","Match","Exact","9529 E KEMPER RD, LOVELAND, OH, 45140",650357572,"R"
317903,"9529 ERIE DRIVE","SAINT LOUIS","MO",63123,38.546150615,-90.3170746709999,403,"9529 ERIE DRIVE, SAINT LOUIS, MO, 63123","Match","Exact","9529 ERIE DR, SAINT LOUIS, MO, 63123",100143043,"R"
317904,"9529 FOLSOM BLVD STE D","SACRAMENTO","CA",95827,38.5690583430001,-121.34327209,404,"9529 FOLSOM BLVD STE D, SACRAMENTO, CA, 95827","Match","Exact","9529 FOLSOM BLVD, SACRAMENTO, CA, 95827",133375653,"L"
317905,"9529 GALECREST DRIVE","CINCINNATI","OH",45231,39.23973054,-84.5065249369999,405,"9529 GALECREST DRIVE, CINCINNATI, OH, 45231","Match","Exact","9529 GALECREST DR, CINCINNATI, OH, 45231",103949112,"L"
317906,"9529 JESSICA DRIVE","WINDSOR","CA",95492,38.5598671180001,-122.808505167,406,"9529 JESSICA DRIVE, WINDSOR, CA, 95492","Match","Exact","9529 JESSICA DR, WINDSOR, CA, 95492",67512174,"L"
317907,"9529 KEELER AVE","SKOKIE","IL",60076,42.0540208680001,-87.7323161039999,407,"9529 KEELER AVE, SKOKIE, IL, 60076","Match","Exact","9529 KEELER AVE, SKOKIE, IL, 60076",111739204,"R"
317908,"9529 SOUTHLAKE DR","SPOTSYLVANIA","VA",22551,38.195944486,-77.666456177,408,"9529 SOUTHLAKE DR, SPOTSYLVANIA, VA, 22551","Match","Exact","9529 SOUTHLAKE DR, SPOTSYLVANIA, VA, 22551",228798490,"R"
317909,"952B FRANKLIN AVE","NEWARK","NJ",7107,40.7823105190001,-74.1749018,409,"952B FRANKLIN AVE, NEWARK, NJ, 7107","Match","Exact","952 FRANKLIN AVE, NEWARK, NJ, 07107",63474615,"L"
317910,"953 4TH ST PL SE","HICKORY","NC",28602,NA,NA,410,"953 4TH ST PL SE, HICKORY, NC, 28602","No_Match",NA,NA,NA,NA
317911,"953 5TH ST UNIT 5","SANTA MONICA","CA",90403,34.023265892,-118.501280031,411,"953 5TH ST UNIT 5, SANTA MONICA, CA, 90403","Match","Exact","953 5TH ST, SANTA MONICA, CA, 90403",141559057,"L"
317912,"953 ASHBY CIRCLE NW","ATLANTA","GA",30314,33.7624766800001,-84.418472427,412,"953 ASHBY CIRCLE NW, ATLANTA, GA, 30314","Match","Exact","953 ASHBY CIR NW, ATLANTA, GA, 30314",17342452,"L"
317913,"953 ASPEN ROAD","NEW CARLISLE","OH",45344,39.88026074,-84.0304642789999,413,"953 ASPEN ROAD, NEW CARLISLE, OH, 45344","Match","Non_Exact","953 W ASPEN RD, NEW CARLISLE, OH, 45344",135013635,"R"
317914,"953 AVERY WAY","VIRGINIA BEACH","VA",23464,36.767783238,-76.177751569,414,"953 AVERY WAY, VIRGINIA BEACH, VA, 23464","Match","Exact","953 AVERY WAY, VA BCH, VA, 23464",625041062,"L"
317915,"953 BRUNSWICK RD","CLVELAND HEIGHTS","OH",44112,41.5339737900001,-81.564540907,415,"953 BRUNSWICK RD, CLVELAND HEIGHTS, OH, 44112","Match","Non_Exact","953 BRUNSWICK RD, CLEVELAND HEIGHTS, OH, 44112",61121876,"L"
317916,"953 CANTON STREET","ROSWELL","GA",30075,34.0246797180001,-84.361499999,416,"953 CANTON STREET, ROSWELL, GA, 30075","Match","Exact","953 CANTON ST, ROSWELL, GA, 30075",617969011,"R"
317917,"953 CAPITOL DR","HOBART","IN",46342,41.508453563,-87.247441868,417,"953 CAPITOL DR, HOBART, IN, 46342","Match","Exact","953 CAPITOL DR, HOBART, IN, 46342",647747977,"R"
317918,"953 COLLEGE STATION ROAD","ATHENS","GA",30602,33.9328099160001,-83.3607037789999,418,"953 COLLEGE STATION ROAD, ATHENS, GA, 30602","Match","Non_Exact","953 COLLEGE STATION RD, ATHENS, GA, 30605",646532820,"L"
317919,"953 DANBY ROAD - ITHACA COLLEGE","ITHACA","NY",14850,42.420986784,-76.5012839409999,419,"953 DANBY ROAD - ITHACA COLLEGE, ITHACA, NY, 14850","Match","Exact","953 DANBY RD, ITHACA, NY, 14850",18861921,"R"
317920,"953 E 128 ST","CLEVELAND","OH",44108,41.5315577010001,-81.594273799,420,"953 E 128 ST, CLEVELAND, OH, 44108","Match","Exact","953 E 128TH ST, CLEVELAND, OH, 44108",61120725,"L"
317921,"953 E CROSSWIND WAY","DRAPER","UT",84020,40.509292798,-111.864200502,421,"953 E CROSSWIND WAY, DRAPER, UT, 84020","Match","Exact","953 CROSSWIND WAY, DRAPER, UT, 84020",604585286,"L"
317922,"953 E SAHARA AVE K7 203","LAS VEGAS","NV",89104,36.1439566490001,-115.141206844,422,"953 E SAHARA AVE K7 203, LAS VEGAS, NV, 89104","Match","Non_Exact","953 E SAHARA AVE, LAS VEGAS, NV, 89104",635959242,"R"
317923,"953 E SAHARASUITE D-19","LAS VEGAS","NV",89109,NA,NA,423,"953 E SAHARASUITE D-19, LAS VEGAS, NV, 89109","No_Match",NA,NA,NA,NA
317924,"953 ENGLISH TOWN LANE APT 201","WINTER SPRINGS","FL",32708,28.650742972,-81.278520939,424,"953 ENGLISH TOWN LANE APT 201, WINTER SPRINGS, FL, 32708","Match","Exact","953 ENGLISH TOWN LN, WINTER SPRINGS, FL, 32708",93792218,"L"
317925,"953 EVERGREEN","MOLINE","KS",67353,37.3743518970001,-96.36642803,425,"953 EVERGREEN, MOLINE, KS, 67353","Match","Exact","953 EVERGREEN, MOLINE, KS, 67353",18274401,"L"
317926,"953 HIGH STREET","VICTOR","NY",14564,42.991529073,-77.418637304,426,"953 HIGH STREET, VICTOR, NY, 14564","Match","Exact","953 HIGH ST, VICTOR, NY, 14564",605732368,"L"
317927,"953 LINCOLN RD","MULLICA HILL","NJ",8062,39.66917719,-75.22681352,427,"953 LINCOLN RD, MULLICA HILL, NJ, 8062","Match","Exact","953 LINCOLN RD, MULLICA HILL, NJ, 08062",643172666,"R"
317928,"953 MEGAN LANE","WILLARD","MO",65781,37.2809799230001,-93.405634992,428,"953 MEGAN LANE, WILLARD, MO, 65781","Match","Exact","953 MEGAN LN, WILLARD, MO, 65781",635741477,"R"
317929,"953 MOCKINGBIRD LANE","PLYMOUTH","WI",53073,43.737678047,-87.9681607429999,429,"953 MOCKINGBIRD LANE, PLYMOUTH, WI, 53073","Match","Exact","953 MOCKINGBIRD LN, PLYMOUTH, WI, 53073",625276549,"R"
317930,"953 MONTCLAIR AVENUE","ROCKINGHAM","NC",28379,34.961598958,-79.746846815,430,"953 MONTCLAIR AVENUE, ROCKINGHAM, NC, 28379","Match","Exact","953 MONTCLAIR AVE, ROCKINGHAM, NC, 28379",13922553,"L"
317931,"953 MUER","TROY","MI",48084,42.5683331280001,-83.164753723,431,"953 MUER, TROY, MI, 48084","Match","Non_Exact","953 MUER DR, TROY, MI, 48084",69736945,"L"
317932,"953 N MC CUE ST LOT 209","LARAMIE","WY",82072,41.3207454380001,-105.609745588,432,"953 N MC CUE ST LOT 209, LARAMIE, WY, 82072","Match","Non_Exact","953 N MCCUE ST, LARAMIE, WY, 82072",168753887,"L"
317933,"953 NE JENSEN BEACH BLVD","JENSEN BEACH","FL",34957,27.2451007110001,-80.239546987,433,"953 NE JENSEN BEACH BLVD, JENSEN BEACH, FL, 34957","Match","Exact","953 NE JENSEN BEACH BLVD, JENSEN BEACH, FL, 34957",120400885,"R"
317934,"953 PARKWOOD DR","CLEVELAND","OH",44108,41.5317647410001,-81.610224712,434,"953 PARKWOOD DR, CLEVELAND, OH, 44108","Match","Exact","953 PARKWOOD DR, CLEVELAND, OH, 44108",61120359,"L"
317935,"953 PIPER ST","CAVE SPRINGS","AR",72718,36.250605023,-94.221274097,435,"953 PIPER ST, CAVE SPRINGS, AR, 72718","Match","Exact","953 PIPER ST, CAVE SPRINGS, AR, 72718",619905208,"R"
317936,"953 RANCHVIEW CIRCLE","CARSON CITY","NV",89705,39.084046051,-119.773768621,436,"953 RANCHVIEW CIRCLE, CARSON CITY, NV, 89705","Match","Exact","953 RANCHVIEW CIR, CARSON CITY, NV, 89705",173753829,"L"
317937,"953 RIVER RD","TOSTON","MT",59643,46.217021921,-111.513730109,437,"953 RIVER RD, TOSTON, MT, 59643","Match","Exact","953 RIVER RD, TOSTON, MT, 59643",166655983,"L"
317938,"953 ROCK HILL LN","WHEELING","WV",26003,39.9729992370001,-80.6833253,438,"953 ROCK HILL LN, WHEELING, WV, 26003","Match","Exact","953 ROCK HILL, WHEELING, WV, 26003",38081513,"R"
317939,"953 S ALMIRA AVE","GILBERT","AZ",85296,33.3331308910001,-111.705640594,439,"953 S ALMIRA AVE, GILBERT, AZ, 85296","Match","Exact","953 S ALMIRA AVE, GILBERT, AZ, 85296",601662672,"L"
317940,"953 S MCCRARY ST","WOODBURY","TN",37190,35.814322217,-86.065750646,440,"953 S MCCRARY ST, WOODBURY, TN, 37190","Match","Exact","953 S MCCRARY ST, WOODBURY, TN, 37190",647811302,"R"
317941,"953 S POTOMAC ST","WAYNESBORO","PA",17268,39.7414756760001,-77.5932882499999,441,"953 S POTOMAC ST, WAYNESBORO, PA, 17268","Match","Exact","953 S POTOMAC ST, WAYNESBORO, PA, 17268",605536049,"R"
317942,"953 S WASHINGTON ST","DENVER","CO",80209,39.6993146200001,-104.979250942,442,"953 S WASHINGTON ST, DENVER, CO, 80209","Match","Exact","953 S WASHINGTON ST, DENVER, CO, 80209",177332151,"R"
317943,"953 STONE CROP RD","HALLSTEAD","PA",18822,41.93037116,-75.808047903,443,"953 STONE CROP RD, HALLSTEAD, PA, 18822","Match","Exact","953 STONE CROP RD, HALLSTEAD, PA, 18822",612243152,"L"
317944,"953 THOMAS CIR","PORTSMOUTH","VA",23704,36.8313550030001,-76.3091005589999,444,"953 THOMAS CIR, PORTSMOUTH, VA, 23704","Match","Exact","953 THOMAS CIR, PORTSMOUTH, VA, 23704",122199762,"L"
317945,"953 TRESTLE GLEN WAY","SACRAMENTO","CA",95831,38.506754662,-121.524918013,445,"953 TRESTLE GLEN WAY, SACRAMENTO, CA, 95831","Match","Exact","953 TRESTLE GLEN WAY, SACRAMENTO, CA, 95831",133322362,"L"
317946,"953 VIA DEL MESA","HEMET","CA",92543,33.7305556800001,-116.981777971,446,"953 VIA DEL MESA, HEMET, CA, 92543","Match","Exact","953 VIA DEL MESA, HEMET, CA, 92543",194756851,"R"
317947,"953 W EMERSON ST","SEATTLE","WA",98119,47.652922108,-122.370510158,447,"953 W EMERSON ST, SEATTLE, WA, 98119","Match","Exact","953 W EMERSON ST, SEATTLE, WA, 98119",647816701,"L"
317948,"953 WEST 700 NORTH SUITE 105","LOGAN","UT",84341,41.7444258450001,-111.858300265,448,"953 WEST 700 NORTH SUITE 105, LOGAN, UT, 84341","Match","Non_Exact","953 W 700 N, LOGAN, UT, 84321",611287834,"R"
317949,"953 WESTON-ANDOVER ROAD","ANDOVER","VT",5143,43.2779534420001,-72.6995412269999,449,"953 WESTON-ANDOVER ROAD, ANDOVER, VT, 5143","Match","Non_Exact","953 WESTON ANDOVER RD, ANDOVER, VT, 05143",139253426,"L"
317950,"953 WOODLAND CIR","ANNAPOLIS","MD",21409,39.033020041,-76.439773069,450,"953 WOODLAND CIR, ANNAPOLIS, MD, 21409","Match","Exact","953 WOODLAND CIR, ANNAPOLIS, MD, 21409",68175311,"R"
317951,"9530 BLOOMFIELD AVE","CYPRESS","CA",90630,33.8235622930001,-118.063267406,451,"9530 BLOOMFIELD AVE, CYPRESS, CA, 90630","Match","Exact","9530 BLOOMFIELD AVE, CYPRESS, CA, 90630",642866467,"R"
317952,"9530 COMSTOCK MEADOWS DRIVE","HOUSTON","TX",77095,29.916992011,-95.683963953,452,"9530 COMSTOCK MEADOWS DRIVE, HOUSTON, TX, 77095","Match","Exact","9530 COMSTOCK MEADOWS DR, HOUSTON, TX, 77095",636903729,"L"
317953,"9530 HAGEMAN RD STE B 239","BAKERSFIELD","CA",93312,35.3980680110001,-119.108331967,453,"9530 HAGEMAN RD STE B 239, BAKERSFIELD, CA, 93312","Match","Exact","9530 HAGEMAN RD, BAKERSFIELD, CA, 93312",109511007,"L"
317954,"9530 HALSEY ST APT 212","LENEXA","KS",66215,38.9559284800001,-94.725464565,454,"9530 HALSEY ST APT 212, LENEXA, KS, 66215","Match","Exact","9530 HALSEY ST, LENEXA, KS, 66215",91271603,"R"
317955,"9530 NW 5TH CT","MIAMI","FL",33150,25.8627474910001,-80.20669857,455,"9530 NW 5TH CT, MIAMI, FL, 33150","Match","Non_Exact","9530 NW 5TH CT, MIAMI, FL, 33150",116003105,"L"
317956,"9530 W DIABLO DR","LAS VEGAS","NV",89148,36.0888838380001,-115.300267822,456,"9530 W DIABLO DR, LAS VEGAS, NV, 89148","Match","Exact","9530 W DIABLO DR, LAS VEGAS, NV, 89148",201975463,"L"
317957,"9531 170TH ST W","LAKEVILLE","MN",55044,44.7034803880001,-93.258942867,457,"9531 170TH ST W, LAKEVILLE, MN, 55044","Match","Exact","9531 170TH ST W, LAKEVILLE, MN, 55044",37921328,"R"
317958,"9531 BOND RD","ELK GROVE","CA",95624,38.423633324,-121.342326764,458,"9531 BOND RD, ELK GROVE, CA, 95624","Match","Exact","9531 BOND RD, ELK GROVE, CA, 95624",133449178,"L"
317959,"9531 COUNTY ROAD 37","BLAIR","NE",68008,41.514126682,-96.097973512,459,"9531 COUNTY ROAD 37, BLAIR, NE, 68008","Match","Exact","9531 CO RD 37, BLAIR, NE, 68008",176772910,"L"
317960,"9531 EVESHAM ROAD","JACKSOVILLE","FL",32208,30.4103149320001,-81.728865014,460,"9531 EVESHAM ROAD, JACKSOVILLE, FL, 32208","Match","Non_Exact","9531 EVESHAM RD, JACKSONVILLE, FL, 32208",83887528,"R"
317961,"9531 HANBERRY BLVD","CHARLOTTE","NC",28213,NA,NA,461,"9531 HANBERRY BLVD, CHARLOTTE, NC, 28213","Tie",NA,NA,NA,NA
317962,"9531 S CONGRESS STREET","NEW MARKET","VA",22844,38.6444047200001,-78.673964763,462,"9531 S CONGRESS STREET, NEW MARKET, VA, 22844","Match","Exact","9531 S CONGRESS ST, NEW MARKET, VA, 22844",55932380,"L"
317963,"9531 STROELITZ ST","NEW ORLEANS","LA",70118,29.974951251,-90.122562753,463,"9531 STROELITZ ST, NEW ORLEANS, LA, 70118","Match","Exact","9531 STROELITZ ST, NEW ORLEANS, LA, 70118",191732599,"R"
317964,"9531WINDSWEPT LN","HOUSTON","TX",77063,NA,NA,464,"9531WINDSWEPT LN, HOUSTON, TX, 77063","No_Match",NA,NA,NA,NA
317965,"9532 BALFOUR CIRCLE","IOLA","TX",77861,NA,NA,465,"9532 BALFOUR CIRCLE, IOLA, TX, 77861","No_Match",NA,NA,NA,NA
317966,"9532 CRYSTAL SPRING DRIVE","FORT WAYNE","IN",46804,41.042665637,-85.267499432,466,"9532 CRYSTAL SPRING DRIVE, FORT WAYNE, IN, 46804","Match","Exact","9532 CRYSTAL SPRING DR, FORT WAYNE, IN, 46804",6373583,"R"
317967,"9532 GRIFFIN ROAD","COOPER CITY","FL",33328,26.064166131,-80.275038411,467,"9532 GRIFFIN ROAD, COOPER CITY, FL, 33328","Match","Exact","9532 GRIFFIN RD, COOPER CITY, FL, 33328",114710758,"L"
317968,"9532 GROVE SIDE LANE","CHARLOTTE","NC",28262,35.317321538,-80.746559587,468,"9532 GROVE SIDE LANE, CHARLOTTE, NC, 28262","Match","Exact","9532 GROVE SIDE LN, CHARLOTTE, NC, 28262",70539645,"R"
317969,"9532 W 116TH STREET","OVERLAND PARK","KS",66210,38.9184362680001,-94.69194426,469,"9532 W 116TH STREET, OVERLAND PARK, KS, 66210","Match","Exact","9532 W 116TH ST, OVERLAND PARK, KS, 66210",91277533,"R"
317970,"9533 ASHVILLE DRIVE","HOUSTON","TX",77051,29.6528329720001,-95.3718573199999,470,"9533 ASHVILLE DRIVE, HOUSTON, TX, 77051","Match","Exact","9533 ASHVILLE DR, HOUSTON, TX, 77051",96088878,"L"
317971,"9533 BOY LAKE DRIVE NW","REMER","MN",56672,NA,NA,471,"9533 BOY LAKE DRIVE NW, REMER, MN, 56672","No_Match",NA,NA,NA,NA
317972,"9533 DISTRICT LINE RD","BURLINGTON","WA",98233,48.506909023,-122.291492098,472,"9533 DISTRICT LINE RD, BURLINGTON, WA, 98233","Match","Exact","9533 DISTRICT LINE RD, BURLINGTON, WA, 98233",183643246,"R"
317973,"9533 WICKHAM WAY","ORLANDO","FL",32836,28.4279407170001,-81.5051800959999,473,"9533 WICKHAM WAY, ORLANDO, FL, 32836","Match","Exact","9533 WICKHAM WAY, ORLANDO, FL, 32836",94337124,"R"
317974,"9534 104TH STREET 2FL","OZONE PARK","NY",11416,NA,NA,474,"9534 104TH STREET 2FL, OZONE PARK, NY, 11416","No_Match",NA,NA,NA,NA
317975,"9534 VELVET LEAF CIR","SAN RAMON","CA",94582,37.7676112680001,-121.934110043,475,"9534 VELVET LEAF CIR, SAN RAMON, CA, 94582","Match","Non_Exact","9534 VELVETLEAF CIR, SAN RAMON, CA, 94582",192115491,"L"
317976,"9535 AMBER CIRCLE","KALAMAZOO","MI",49009,42.2937898370001,-85.736871368,476,"9535 AMBER CIRCLE, KALAMAZOO, MI, 49009","Match","Exact","9535 AMBER CIR, KALAMAZOO, MI, 49009",12258508,"R"
317977,"9535 B ST","OAKLAND","CA",94603,37.744455477,-122.175133674,477,"9535 B ST, OAKLAND, CA, 94603","Match","Exact","9535 B ST, OAKLAND, CA, 94603",125009654,"R"
317978,"9535 BAY FRONT DRIVE APT 305","NORFOLK","VA",23518,NA,NA,478,"9535 BAY FRONT DRIVE APT 305, NORFOLK, VA, 23518","No_Match",NA,NA,NA,NA
317979,"9535 BIRCH RUN","BRIGHTON","MI",48114,42.570963942,-83.7606973319999,479,"9535 BIRCH RUN, BRIGHTON, MI, 48114","Match","Exact","9535 BIRCH RUN, BRIGHTON, MI, 48114",23575824,"L"
317980,"9535 E PARKER RD","PARKER","CO",80138,39.522050548,-104.70858842,480,"9535 E PARKER RD, PARKER, CO, 80138","Match","Exact","9535 E PARKER RD, PARKER, CO, 80138",130843381,"L"
317981,"9535 FOREST LANE     SUITE 201","DALLAS","TX",75243,NA,NA,481,"9535 FOREST LANE     SUITE 201, DALLAS, TX, 75243","No_Match",NA,NA,NA,NA
317982,"9535 FOREST LANE SUITE 101-B","DALLAS","TX",75243,NA,NA,482,"9535 FOREST LANE SUITE 101-B, DALLAS, TX, 75243","No_Match",NA,NA,NA,NA
317983,"9535 FOREST LN SUITE 271","DALLAS","TX",75243,32.909314092,-96.72767652,483,"9535 FOREST LN SUITE 271, DALLAS, TX, 75243","Match","Exact","9535 FOREST LN, DALLAS, TX, 75243",651664847,"L"
317984,"9535 FORT KING ROAD","DADE CITY","FL",33525,28.2978962130001,-82.2042635989999,484,"9535 FORT KING ROAD, DADE CITY, FL, 33525","Match","Exact","9535 FORT KING RD, DADE CITY, FL, 33525",635537013,"L"
317985,"9535 FRANKFORT RD","HOLLAND","OH",43528,41.6442459610001,-83.770984423,485,"9535 FRANKFORT RD, HOLLAND, OH, 43528","Match","Exact","9535 FRANKFORT RD, HOLLAND, OH, 43528",33925345,"R"
317986,"9535 LASBURY DRIVE","HOUSTON","TX",77083,29.677344014,-95.6657097619999,486,"9535 LASBURY DRIVE, HOUSTON, TX, 77083","Match","Exact","9535 LASBURY DR, HOUSTON, TX, 77083",78334716,"L"
317987,"9535 RIDGECREST DRIVE","ZEELAND","MI",49464,42.7953660000001,-86.016732067,487,"9535 RIDGECREST DRIVE, ZEELAND, MI, 49464","Match","Exact","9535 RIDGECREST DR, ZEELAND, MI, 49464",71111555,"L"
317988,"9535 SOLOMON DR","FORT WORTH","TX",76108,32.7301552640001,-97.4852106979999,488,"9535 SOLOMON DR, FORT WORTH, TX, 76108","Match","Exact","9535 SOLOMON DR, FORT WORTH, TX, 76108",619864967,"R"
317989,"9535 SYLVAN STILL ROAD","LAUREL","MD",20707,39.12085739,-76.844446975,489,"9535 SYLVAN STILL ROAD, LAUREL, MD, 20707","Match","Non_Exact","9535 SYLVAN STILL RD, LAUREL, MD, 20723",158930633,"R"
317990,"9536 E FAIRBROOK ST","MESA","AZ",85207,33.4358721130001,-111.62521403,490,"9536 E FAIRBROOK ST, MESA, AZ, 85207","Match","Exact","9536 E FAIRBROOK ST, MESA, AZ, 85207",128380131,"R"
317991,"9536 MOUNTAIN LAKE DR","OOLTEWAH","TN",37363,NA,NA,491,"9536 MOUNTAIN LAKE DR, OOLTEWAH, TN, 37363","Tie",NA,NA,NA,NA
317992,"9537 EAST ASHFORD DRIVE","TUCSON","AZ",85747,32.1076782430001,-110.788912905,492,"9537 EAST ASHFORD DRIVE, TUCSON, AZ, 85747","Match","Exact","9537 E ASHFORD DR, TUCSON, AZ, 85747",121191497,"L"
317993,"9537 PLUM HILL CHURCH RD","NASHVILLE","IL",62263,38.356225528,-89.508947394,493,"9537 PLUM HILL CHURCH RD, NASHVILLE, IL, 62263","Match","Exact","9537 PLUM HILL CHURCH RD, NASHVILLE, IL, 62263",93156545,"L"
317994,"9537 S TRIPP AVENUE","OAK LAWN","IL",60453,41.719328643,-87.727394616,494,"9537 S TRIPP AVENUE, OAK LAWN, IL, 60453","Match","Exact","9537 TRIPP AVE, OAK LAWN, IL, 60453",605436906,"L"
317995,"9537 W KEYSER DR","PEORIA","AZ",85383,33.739062319,-112.266000195,495,"9537 W KEYSER DR, PEORIA, AZ, 85383","Match","Exact","9537 KEYSER DR, PEORIA, AZ, 85383",128881106,"R"
317996,"9538 18TH BAY STREET","NORFOLK","VA",23518,NA,NA,496,"9538 18TH BAY STREET, NORFOLK, VA, 23518","No_Match",NA,NA,NA,NA
317997,"9538 BRAUN RD","SAN ANTONIO","TX",78254,29.532059589,-98.671969507,497,"9538 BRAUN RD, SAN ANTONIO, TX, 78254","Match","Exact","9538 BRAUN RD, SAN ANTONIO, TX, 78254",640623284,"L"
317998,"9539 E IMPALA","MESA","AZ",85209,33.3833858580001,-111.625230367,498,"9539 E IMPALA, MESA, AZ, 85209","Match","Non_Exact","9539 E IMPALA AVE, MESA, AZ, 85209",128786872,"R"
317999,"9539 PRAIRIE AVE APT 21","HIGHLAND","IN",46322,41.5396437570001,-87.475714258,499,"9539 PRAIRIE AVE APT 21, HIGHLAND, IN, 46322","Match","Exact","9539 PRAIRIE AVE, HIGHLAND, IN, 46322",637357818,"L"
318000,"953A E 217TH STREET  SUITE 1","BRONX","NY",10468,40.879916397,-73.8564926779999,500,"953A E 217TH STREET  SUITE 1, BRONX, NY, 10468","Match","Non_Exact","953 E 217TH ST, BRONX, NY, 10469",80297329,"L"
