"ID","Address","City","State","Zip","lat","long","id","input_address","match_indicator","match_type","matched_address","tiger_line_id","tiger_side"
15501,"107 HOOMALU PL","HILO","HI",96720,19.6767084090001,-155.092443465,1,"107 HOOMALU PL, HILO, HI, 96720","Match","Exact","107 HOOMALU PL, HILO, HI, 96720",203000227,"R"
15502,"107 HUCKLEBERRY DRIVE","LA PLATA","MD",20646,38.5347954100001,-76.9607583229999,2,"107 HUCKLEBERRY DRIVE, LA PLATA, MD, 20646","Match","Exact","107 HUCKLEBERRY DR, LA PLATA, MD, 20646",636217303,"R"
15503,"107 INVERNESS DRIVE","GEORGETOWN","KY",40324,38.219766168,-84.583011873,3,"107 INVERNESS DRIVE, GEORGETOWN, KY, 40324","Match","Exact","107 INVERNESS DR, GEORGETOWN, KY, 40324",631709440,"L"
15504,"107 JARRETT LANE","EL CAJON","CA",92021,32.8079304890001,-116.863880379,4,"107 JARRETT LANE, EL CAJON, CA, 92021","Match","Exact","107 JARRETT LN, EL CAJON, CA, 92021",195334807,"R"
15505,"107 JASPER COURT","NORRISTOWN","PA",19403,40.1641147620001,-75.3267847499999,5,"107 JASPER COURT, NORRISTOWN, PA, 19403","Match","Exact","107 JASPER CT, NORRISTOWN, PA, 19403",616532170,"R"
15506,"107 JEFFERSON STREET APT 2","HOBOKEN","NJ",7030,40.738893778,-74.038185293,6,"107 JEFFERSON STREET APT 2, HOBOKEN, NJ, 7030","Match","Exact","107 JEFFERSON ST, HOBOKEN, NJ, 07030",59605584,"R"
15507,"107 JONES ST","CHAPEL HILL","NC",27514,35.918039433,-79.038231842,7,"107 JONES ST, CHAPEL HILL, NC, 27514","Match","Exact","107 JONES ST, CHAPEL HILL, NC, 27514",72380315,"R"
15508,"107 KACHINA","IRVINE","CA",92618,33.7027942940001,-117.714517882,8,"107 KACHINA, IRVINE, CA, 92618","Match","Exact","107 KACHINA, IRVINE, CA, 92618",650713475,"L"
15509,"107 KANSAS CITY RD","RUIDOSO","NM",88345,33.3514427800001,-105.661126508,9,"107 KANSAS CITY RD, RUIDOSO, NM, 88345","Match","Exact","107 KANSAS CITY RD, RUIDOSO, NM, 88345",169161783,"R"
15510,"107 KAUFMAN ST","WAXAHACHIE","TX",75165,32.384931791,-96.845071764,10,"107 KAUFMAN ST, WAXAHACHIE, TX, 75165","Match","Exact","107 KAUFMAN ST, WAXAHACHIE, TX, 75165",103481553,"R"
15511,"107 KAY LANE","CARROLLTON","GA",30117,33.601096919,-85.0616022519999,11,"107 KAY LANE, CARROLLTON, GA, 30117","Match","Exact","107 KAY LN, CARROLLTON, GA, 30117",17113415,"R"
15512,"107 KELLY PLACE STE 102","HIGH POINT","NC",27260,35.973541993,-80.0175652679999,12,"107 KELLY PLACE STE 102, HIGH POINT, NC, 27260","Match","Non_Exact","107 KELLY PL, HIGH POINT, NC, 27262",131038837,"L"
15513,"107 KERRY STREET","BALDWIN","LA",70514,29.8431325540001,-91.5443015129999,13,"107 KERRY STREET, BALDWIN, LA, 70514","Match","Exact","107 KERRY ST, BALDWIN, LA, 70514",85882307,"L"
15514,"107 KILLDEER RD","ROGERS","AR",72756,36.3985900110001,-94.1124318509999,14,"107 KILLDEER RD, ROGERS, AR, 72756","Match","Non_Exact","107 KILDEER RD, ROGERS, AR, 72756",47864771,"R"
15515,"107 KIMBROOK DR","GREENWOOD","SC",29649,34.197142985,-82.187924284,15,"107 KIMBROOK DR, GREENWOOD, SC, 29649","Match","Exact","107 KIMBROOK DR, GREENWOOD, SC, 29649",50806697,"L"
15516,"107 KIMMIE RD","CHERAW","SC",29520,34.644576032,-79.8839833649999,16,"107 KIMMIE RD, CHERAW, SC, 29520","Match","Non_Exact","107 KIMMIE DR, CHERAW, SC, 29520",14332720,"R"
15517,"107 KING WILLIAM ROAD","RALEIGH","NC",27610,35.7795936300001,-78.5941841699999,17,"107 KING WILLIAM ROAD, RALEIGH, NC, 27610","Match","Exact","107 KING WILLIAM RD, RALEIGH, NC, 27610",208351289,"L"
15518,"107 KNEUPPER ST","CONVERSE","TX",78109,29.5170884520001,-98.313072527,18,"107 KNEUPPER ST, CONVERSE, TX, 78109","Match","Non_Exact","107 KNEUPPER RD, CONVERSE, TX, 78109",101504559,"L"
15519,"107 LACLAIRE DR APT D","WARNER ROBINS","GA",31088,NA,NA,19,"107 LACLAIRE DR APT D, WARNER ROBINS, GA, 31088","No_Match",NA,NA,NA,NA
15520,"107 LAKE CAROLYN DR","LULING","LA",70070,29.896533505,-90.350953126,20,"107 LAKE CAROLYN DR, LULING, LA, 70070","Match","Exact","107 LAKE CAROLYN DR, LULING, LA, 70070",649871501,"R"
15521,"107 LAKE RD","SLEEPY HOLLOW","NY",10591,41.0902609010001,-73.838043778,21,"107 LAKE RD, SLEEPY HOLLOW, NY, 10591","Match","Exact","107 LAKE RD, SLEEPY HOLLOW, NY, 10591",645846169,"R"
15522,"107 LAMAR LANE","HOSCHTON","GA",30549,34.1335466290001,-83.70558424,22,"107 LAMAR LANE, HOSCHTON, GA, 30549","Match","Non_Exact","107 LAMAR LN, HOSCHTON, GA, 30548",619846083,"R"
15523,"107 LARSON LANE STE 300A","ALEDO","TX",76008,32.685066992,-97.6020211589999,23,"107 LARSON LANE STE 300A, ALEDO, TX, 76008","Match","Exact","107 LARSON LN, ALEDO, TX, 76008",627677141,"R"
15524,"107 LAURENCE COURT","WILLINGBORO","NJ",8046,40.0406396160001,-74.9119617229999,24,"107 LAURENCE COURT, WILLINGBORO, NJ, 8046","Match","Exact","107 LAURENCE CT, WILLINGBORO, NJ, 08046",650971995,"L"
15525,"107 LAURENE COURT","WILLINGBORO","NJ",8046,NA,NA,25,"107 LAURENE COURT, WILLINGBORO, NJ, 8046","No_Match",NA,NA,NA,NA
15526,"107 LAURYN ST","NATCHITOCHES","LA",71457,31.7766052650001,-93.075397846,26,"107 LAURYN ST, NATCHITOCHES, LA, 71457","Match","Exact","107 LAURYN ST, NATCHITOCHES, LA, 71457",636180988,"L"
15527,"107 LAYTON STREET SUITE A","DODGE CITY","KS",67801,37.776315169,-100.017785791,27,"107 LAYTON STREET SUITE A, DODGE CITY, KS, 67801","Match","Exact","107 LAYTON ST, DODGE CITY, KS, 67801",206558669,"R"
15528,"107 LEE HILL ROAD","PIERR","SD",57501,44.3825229400001,-100.36754736,28,"107 LEE HILL ROAD, PIERR, SD, 57501","Match","Non_Exact","107 LEE HILL RD, PIERRE, SD, 57501",200332140,"R"
15529,"107 LICKSKILLET LN","BLUE RIDGE","GA",30513,34.917025026,-84.4288586869999,29,"107 LICKSKILLET LN, BLUE RIDGE, GA, 30513","Match","Exact","107 LICKSKILLET LN, BLUE RIDGE, GA, 30513",57160748,"R"
15530,"107 LINDA DRIVE","MONROE","LA",71203,32.529480232,-91.9886751609999,30,"107 LINDA DRIVE, MONROE, LA, 71203","Match","Exact","107 LINDA DR, MONROE, LA, 71203",161090002,"L"
15531,"107 LINDSEYS CV","SAN ANTONIO","TX",78258,29.6595449050001,-98.497064042,31,"107 LINDSEYS CV, SAN ANTONIO, TX, 78258","Match","Exact","107 LINDSEYS COVE, SAN ANTONIO, TX, 78258",625673446,"L"
15532,"107 LOCUST ST","CHILLICOTHE","MO",64601,39.78815926,-93.5524141719999,32,"107 LOCUST ST, CHILLICOTHE, MO, 64601","Match","Exact","107 LOCUST ST, CHILLICOTHE, MO, 64601",18107368,"R"
15533,"107 LODGES LANE","BALA CYNWYD","PA",19004,40.009301393,-75.2401109259999,33,"107 LODGES LANE, BALA CYNWYD, PA, 19004","Match","Exact","107 LODGES LN, BALA CYNWYD, PA, 19004",135091174,"R"
15534,"107 LOKOMSKI RD","HOOKSTOWN","PA",15050,40.5655435950001,-80.4694820399999,34,"107 LOKOMSKI RD, HOOKSTOWN, PA, 15050","Match","Exact","107 LOKOMSKI RD, HOOKSTOWN, PA, 15050",52552754,"R"
15535,"107 LONE STAR","SAN ANTONIO","TX",78204,29.4047746460001,-98.5023808729999,35,"107 LONE STAR, SAN ANTONIO, TX, 78204","Match","Non_Exact","107 LONE STAR BLVD, SAN ANTONIO, TX, 78204",101526774,"L"
15536,"107 LYMAN PLACE","WEST PALM BEACH","FL",33409,26.713437384,-80.088854971,36,"107 LYMAN PLACE, WEST PALM BEACH, FL, 33409","Match","Exact","107 LYMAN PL, WEST PALM BEACH, FL, 33409",115271734,"R"
15537,"107 MAIN ST","DAYTON","TN",37321,35.490790401,-85.010599546,37,"107 MAIN ST, DAYTON, TN, 37321","Match","Non_Exact","107 MAIN AVE, DAYTON, TN, 37321",612097033,"L"
15538,"107 MAIN STREET PO BOX 273","SLICKVILLE","PA",15684,40.4599672300001,-79.5229229129999,38,"107 MAIN STREET PO BOX 273, SLICKVILLE, PA, 15684","Match","Exact","107 MAIN ST, SLICKVILLE, PA, 15684",624262537,"R"
15539,"107 MAIN STREET","HINGHAM","MA",2043,42.240605799,-70.886304893,39,"107 MAIN STREET, HINGHAM, MA, 2043","Match","Exact","107 MAIN ST, HINGHAM, MA, 02043",87478643,"R"
15540,"107 MAIN STREET","SANDPOINT","ID",83864,48.274813297,-116.547897421,40,"107 MAIN STREET, SANDPOINT, ID, 83864","Match","Exact","107 MAIN ST, SANDPOINT, ID, 83864",169476289,"L"
15541,"107 MAIN STREET","WINDSOR","NY",13865,42.077070582,-75.640005252,41,"107 MAIN STREET, WINDSOR, NY, 13865","Match","Exact","107 MAIN ST, WINDSOR, NY, 13865",46332341,"L"
15542,"107 MAPLE AVENUE","MILFORD","DE",19963,38.909893137,-75.430859534,42,"107 MAPLE AVENUE, MILFORD, DE, 19963","Match","Non_Exact","107 S MAPLE AVE, MILFORD, DE, 19963",106076878,"R"
15543,"107 MAPLE STREET","HAHNVILLE","LA",70057,29.977314698,-90.410883509,43,"107 MAPLE STREET, HAHNVILLE, LA, 70057","Match","Exact","107 MAPLE ST, HAHNVILLE, LA, 70057",93619859,"L"
15544,"107 MARDEN COURT SE","SMYRNA","GA",30082,33.8533234930001,-84.513075065,44,"107 MARDEN COURT SE, SMYRNA, GA, 30082","Match","Non_Exact","107 MARDEN CT, SMYRNA, GA, 30082",17251260,"R"
15545,"107 MARSTON ROAD","LEOMA","TN",38468,35.1453306980001,-87.3244187449999,45,"107 MARSTON ROAD, LEOMA, TN, 38468","Match","Exact","107 MARSTON RD, LEOMA, TN, 38468",26825834,"R"
15546,"107 MARTHA TER","PORTSMOUTH","NH",3801,43.031780505,-70.808472678,46,"107 MARTHA TER, PORTSMOUTH, NH, 3801","Match","Exact","107 MARTHA TER, PORTSMOUTH, NH, 03801",113719527,"R"
15547,"107 MARTIN LUTHER KING JR DR","SYLVANIA","GA",30467,32.7516209140001,-81.6335010029999,47,"107 MARTIN LUTHER KING JR DR, SYLVANIA, GA, 30467","Match","Exact","107 MARTIN LUTHER KING JR DR, SYLVANIA, GA, 30467",18072742,"L"
15548,"107 MAYFAIR CIRCLE","SANFORD","FL",32771,28.788500578,-81.286365147,48,"107 MAYFAIR CIRCLE, SANFORD, FL, 32771","Match","Exact","107 MAYFAIR CIR, SANFORD, FL, 32771",93749411,"R"
15549,"107 MAYFAIR DRIVE","BELLA VISTA","AR",72715,36.4562875450001,-94.267458742,49,"107 MAYFAIR DRIVE, BELLA VISTA, AR, 72715","Match","Exact","107 MAYFAIR DR, BELLA VISTA, AR, 72715",47878544,"L"
15550,"107 MC HUGH STREET","STEELE","AL",35987,33.9416619460001,-86.2036644359999,50,"107 MC HUGH STREET, STEELE, AL, 35987","Match","Non_Exact","107 MCHUGH ST, STEELE, AL, 35987",66869524,"L"
15551,"107 MCARTHUR DRIVE","TROY","IL",62294,38.7418904310001,-89.927013355,51,"107 MCARTHUR DRIVE, TROY, IL, 62294","Match","Exact","107 MCARTHUR DR, TROY, IL, 62294",107770709,"R"
15552,"107 MCCARTHA DRIVE","COLUMBUS","GA",31907,32.444726793,-84.918872412,52,"107 MCCARTHA DRIVE, COLUMBUS, GA, 31907","Match","Exact","107 MCCARTHA DR, COLUMBUS, GA, 31907",98943071,"L"
15553,"107 MEADOW DR","SENECA","SC",29678,34.6695680350001,-82.923470047,53,"107 MEADOW DR, SENECA, SC, 29678","Match","Exact","107 MEADOW DR, SENECA, SC, 29678",25645292,"L"
15554,"107 MEADOW DRIVE","YPSILANTI","MI",48197,NA,NA,54,"107 MEADOW DRIVE, YPSILANTI, MI, 48197","No_Match",NA,NA,NA,NA
15555,"107 MEADOW POINT DR","MONETA","VA",24121,37.140484385,-79.65133113,55,"107 MEADOW POINT DR, MONETA, VA, 24121","Match","Exact","107 MEADOW POINT DR, MONETA, VA, 24121",636667526,"R"
15556,"107 MEADOW STREET","SPARTANBURG","SC",29307,34.9714633730001,-81.889010319,56,"107 MEADOW STREET, SPARTANBURG, SC, 29307","Match","Exact","107 MEADOW ST, SPARTANBURG, SC, 29307",19470824,"L"
15557,"107 MEADOW WAY","CONVERSE","TX",78109,29.523100738,-98.316064962,57,"107 MEADOW WAY, CONVERSE, TX, 78109","Match","Exact","107 MEADOW WAY, CONVERSE, TX, 78109",101504390,"L"
15558,"107 MELODY CIRCLE","CEDAR HILL","TX",75104,32.593567836,-96.9247539739999,58,"107 MELODY CIRCLE, CEDAR HILL, TX, 75104","Match","Exact","107 MELODY CIR, CEDAR HILL, TX, 75104",623856450,"R"
15559,"107 METKER TRAIL SUITE A","STANFORD","KY",40484,NA,NA,59,"107 METKER TRAIL SUITE A, STANFORD, KY, 40484","No_Match",NA,NA,NA,NA
15560,"107 MISTY GLEN DRIVE","MADISON","AL",35757,34.7917249540001,-86.728102634,60,"107 MISTY GLEN DRIVE, MADISON, AL, 35757","Match","Exact","107 MISTY GLEN DR, MADISON, AL, 35757",633491518,"L"
15561,"107 MITCHELL ST","NEW BOSTON","TX",75570,33.4454712240001,-94.4177987739999,61,"107 MITCHELL ST, NEW BOSTON, TX, 75570","Match","Non_Exact","107 S MITCHELL ST, NEW BOSTON, TX, 75570",57660405,"L"
15562,"107 MOUNT VISTA DRIVE","SIDNEY","ME",4330,44.407407409,-69.79317639,62,"107 MOUNT VISTA DRIVE, SIDNEY, ME, 4330","Match","Exact","107 MOUNT VISTA DR, SIDNEY, ME, 04330",75477214,"R"
15563,"107 MOUNTAIN VIEW LANE","MADISON","AL",35758,34.733880576,-86.748767003,63,"107 MOUNTAIN VIEW LANE, MADISON, AL, 35758","Match","Exact","107 MOUNTAIN VIEW LN, MADISON, AL, 35758",58146267,"L"
15564,"107 N 11TH STREET SUITE 634","TAMPA","FL",33602,NA,NA,64,"107 N 11TH STREET SUITE 634, TAMPA, FL, 33602","Tie",NA,NA,NA,NA
15565,"107 N 1ST AVE","NEW BERN","NC",28560,35.1339740770001,-77.069141019,65,"107 N 1ST AVE, NEW BERN, NC, 28560","Match","Exact","107 N 1ST AVE, NEW BERN, NC, 28560",34153602,"R"
15566,"107 N 5TH ST RM 239","DOUGLAS","WY",82633,NA,NA,66,"107 N 5TH ST RM 239, DOUGLAS, WY, 82633","Tie",NA,NA,NA,NA
15567,"107 N CAREY STREET SUITE 3","BALTIMORE","MD",21223,NA,NA,67,"107 N CAREY STREET SUITE 3, BALTIMORE, MD, 21223","Tie",NA,NA,NA,NA
15568,"107 N COOK STREET - 647","PORTLAND","OR",97227,45.5467870320001,-122.667355614,68,"107 N COOK STREET - 647, PORTLAND, OR, 97227","Match","Non_Exact","107 N COOK ST, PORTLAND, OR, 97227",157503723,"R"
15569,"107 N CORTEZ ST SUITE 105","PRESCOTT","AZ",86301,34.5421428990001,-112.468696362,69,"107 N CORTEZ ST SUITE 105, PRESCOTT, AZ, 86301","Match","Non_Exact","107 N CORTEZ ST, PRESCOTT, AZ, 86301",159457080,"R"
15570,"107 N CRENSHAW AVE","RICHMOND","VA",23221,37.5571143180001,-77.483757074,70,"107 N CRENSHAW AVE, RICHMOND, VA, 23221","Match","Exact","107 N CRENSHAW AVE, RICHMOND, VA, 23221",201535336,"R"
15571,"107 N GRANT STREET","CRAWFORDSVILLE","IA",52621,41.2141238290001,-91.5364734899999,71,"107 N GRANT STREET, CRAWFORDSVILLE, IA, 52621","Match","Exact","107 N GRANT ST, CRAWFORDSVILLE, IA, 52621",84185539,"L"
15572,"107 N JACKSON ST SUITE B","KAUFMAN","TX",75142,NA,NA,72,"107 N JACKSON ST SUITE B, KAUFMAN, TX, 75142","Tie",NA,NA,NA,NA
15573,"107 N LAKEPOINTE DR","LAFAYETTE","LA",70506,30.1875913210001,-92.096623597,73,"107 N LAKEPOINTE DR, LAFAYETTE, LA, 70506","Match","Exact","107 N LAKEPOINTE DR, LAFAYETTE, LA, 70506",85637035,"R"
15574,"107 N MAIN ST","YERINGTON","NV",89447,38.9890662510001,-119.163197329,74,"107 N MAIN ST, YERINGTON, NV, 89447","Match","Exact","107 N MAIN ST, YERINGTON, NV, 89447",140343324,"L"
15575,"107 N MAIN STREET PO BOX 28","CLYDE","OH",43410,NA,NA,75,"107 N MAIN STREET PO BOX 28, CLYDE, OH, 43410","Tie",NA,NA,NA,NA
15576,"107 N OCEAN AVENUE","FREEPORT","NY",11520,40.660732572,-73.587818015,76,"107 N OCEAN AVENUE, FREEPORT, NY, 11520","Match","Exact","107 N OCEAN AVE, FREEPORT, NY, 11520",147631301,"L"
15577,"107 N PHILLIPS ROAD","LANETT","AL",36863,32.8624774620001,-85.2213029,77,"107 N PHILLIPS ROAD, LANETT, AL, 36863","Match","Exact","107 PHILLIPS RD, LANETT, AL, 36863",3063762,"R"
15578,"107 N REINO RD UNIT 101","NEWBURY PARK","CA",91320,NA,NA,78,"107 N REINO RD UNIT 101, NEWBURY PARK, CA, 91320","No_Match",NA,NA,NA,NA
15579,"107 N REINO ROAD SUITE 271","NEWBURK PARK","CA",91320,NA,NA,79,"107 N REINO ROAD SUITE 271, NEWBURK PARK, CA, 91320","No_Match",NA,NA,NA,NA
15580,"107 N SHERMAN ST","DENVER","CO",80203,39.718478255,-104.985005094,80,"107 N SHERMAN ST, DENVER, CO, 80203","Match","Exact","107 SHERMAN ST, DENVER, CO, 80203",177331457,"L"
15581,"107 N WEST STREET","DOVER","DE",19904,39.161462853,-75.533705372,81,"107 N WEST STREET, DOVER, DE, 19904","Match","Exact","107 N WEST ST, DOVER, DE, 19904",68088227,"R"
15582,"107 NEW YORK AVE","SOUTH PORTLAND","ME",4106,43.617546528,-70.315378272,82,"107 NEW YORK AVE, SOUTH PORTLAND, ME, 4106","Match","Exact","107 NEW YORK AVE, SOUTH PORTLAND, ME, 04106",78029878,"L"
15583,"107 NEWKIRK STREET","CLAYTON","NJ",8312,39.6573325420001,-75.0810166539999,83,"107 NEWKIRK STREET, CLAYTON, NJ, 8312","Match","Exact","107 NEWKIRK ST, CLAYTON, NJ, 08312",134607139,"L"
15584,"107 NORTH BEACH ROAD","HOBE SOUND","FL",33455,27.080416692,-80.122012248,84,"107 NORTH BEACH ROAD, HOBE SOUND, FL, 33455","Match","Exact","107 N BEACH RD, HOBE SOUND, FL, 33455",120413402,"R"
15585,"107 NORTH COLLEGE WEST","DENHAM SPRINGS","LA",70726,NA,NA,85,"107 NORTH COLLEGE WEST, DENHAM SPRINGS, LA, 70726","No_Match",NA,NA,NA,NA
15586,"107 NORTH GREENWOOD AVENUE SUITE L","TULSA","OK",74120,36.159916541,-95.986126234,86,"107 NORTH GREENWOOD AVENUE SUITE L, TULSA, OK, 74120","Match","Exact","107 N GREENWOOD AVE, TULSA, OK, 74120",166437774,"R"
15587,"107 NORTH MAIN STREET PO BOX 28","CLYDE","OH",43410,41.305632598,-82.9748579019999,87,"107 NORTH MAIN STREET PO BOX 28, CLYDE, OH, 43410","Match","Exact","107 N MAIN ST, CLYDE, OH, 43410",38673089,"L"
15588,"107 NORTH MAIN STREET","CLYDE","OH",43410,41.305632598,-82.9748579019999,88,"107 NORTH MAIN STREET, CLYDE, OH, 43410","Match","Exact","107 N MAIN ST, CLYDE, OH, 43410",38673089,"L"
15589,"107 NORTH MAIN STREET","ROCHESTER","NH",3867,43.3053464540001,-70.9794936869999,89,"107 NORTH MAIN STREET, ROCHESTER, NH, 3867","Match","Exact","107 N MAIN ST, ROCHESTER, NH, 03867",117803711,"R"
15590,"107 NORTH MAIN STREET","STANDISH","MI",48658,43.9828806990001,-83.959730098,90,"107 NORTH MAIN STREET, STANDISH, MI, 48658","Match","Exact","107 N MAIN ST, STANDISH, MI, 48658",160913255,"L"
15591,"107 NORTH MAPLE STREET","MURFREESBORO","TN",37130,35.846477114,-86.392586891,91,"107 NORTH MAPLE STREET, MURFREESBORO, TN, 37130","Match","Exact","107 N MAPLE ST, MURFREESBORO, TN, 37130",59014004,"L"
15592,"107 NORTH PARKWAY","HUEYTOWN","AL",35023,NA,NA,92,"107 NORTH PARKWAY, HUEYTOWN, AL, 35023","No_Match",NA,NA,NA,NA
15593,"107 NORTH REINO ROAD 155","NEWBURY PARK","CA",91320,NA,NA,93,"107 NORTH REINO ROAD 155, NEWBURY PARK, CA, 91320","No_Match",NA,NA,NA,NA
15594,"107 NORTH STATE STREET","CONCORD","NH",3301,43.210162864,-71.540587648,94,"107 NORTH STATE STREET, CONCORD, NH, 3301","Match","Exact","107 N STATE ST, CONCORD, NH, 03301",117716462,"L"
15595,"107 NORTH STREET","PLYMOUTH","CT",6782,41.6806805640001,-73.052192808,95,"107 NORTH STREET, PLYMOUTH, CT, 6782","Match","Exact","107 NORTH ST, PLYMOUTH, CT, 06782",625110413,"L"
15596,"107 NW 5TH AVENUE","OKEECHOBEE","FL",34972,27.2438922490001,-80.83451652,96,"107 NW 5TH AVENUE, OKEECHOBEE, FL, 34972","Match","Exact","107 NW 5TH AVE, OKEECHOBEE, FL, 34972",4925200,"L"
15597,"107 OAK VIEW PL","SANFORD","FL",32773,28.7625129480001,-81.304109184,97,"107 OAK VIEW PL, SANFORD, FL, 32773","Match","Exact","107 OAK VIEW PL, SANFORD, FL, 32773",93781445,"L"
15598,"107 OLD COURT RD","BALTIMORE","MD",21208,39.37800192,-76.720244878,98,"107 OLD COURT RD, BALTIMORE, MD, 21208","Match","Exact","107 OLD COURT RD, BALTIMORE, MD, 21208",191468035,"R"
15599,"107 OLD CROSSING LANE","ANNAPOLIS","MD",21401,38.9938698290001,-76.497838358,99,"107 OLD CROSSING LANE, ANNAPOLIS, MD, 21401","Match","Exact","107 OLD CROSSING LN, ANNAPOLIS, MD, 21401",68172486,"L"
15600,"107 OLD HARBOR ROAD","KNIFE RIVER","MN",55609,46.942754065,-91.785875058,100,"107 OLD HARBOR ROAD, KNIFE RIVER, MN, 55609","Match","Exact","107 OLD HARBOR RD, KNIFE RIVER, MN, 55609",194228275,"R"
15601,"107 OLD LANCASTER RD","DEVON","PA",19333,40.0497835740001,-75.421320001,101,"107 OLD LANCASTER RD, DEVON, PA, 19333","Match","Exact","107 OLD LANCASTER RD, DEVON, PA, 19333",179499336,"R"
15602,"107 ONYX LANE","KNIGHTDALE","NC",27545,35.8146618330001,-78.464612786,102,"107 ONYX LANE, KNIGHTDALE, NC, 27545","Match","Exact","107 ONYX LN, KNIGHTDALE, NC, 27545",72630689,"R"
15603,"107 OTTER POND LN","SAYLORSBURG","PA",18353,NA,NA,103,"107 OTTER POND LN, SAYLORSBURG, PA, 18353","No_Match",NA,NA,NA,NA
15604,"107 PANORAMA DRIVE","BENICIA","CA",94510,38.075792597,-122.15604287,104,"107 PANORAMA DRIVE, BENICIA, CA, 94510","Match","Exact","107 PANORAMA DR, BENICIA, CA, 94510",650941335,"L"
15605,"107 PATRA DRIVE","MADISON","AL",35758,34.739151812,-86.751795839,105,"107 PATRA DRIVE, MADISON, AL, 35758","Match","Exact","107 PATRA DR, MADISON, AL, 35758",58137193,"L"
15606,"107 PATTERSON ST","FORT MILL","SC",29715,35.001713592,-80.9410701959999,106,"107 PATTERSON ST, FORT MILL, SC, 29715","Match","Exact","107 PATTERSON ST, FORT MILL, SC, 29715",19823050,"R"
15607,"107 PAYTON DANIELS ROAD","ROSEBORO","NC",28382,35.1351029210001,-78.510353015,107,"107 PAYTON DANIELS ROAD, ROSEBORO, NC, 28382","Match","Exact","107 PAYTON DANIELS RD, ROSEBORO, NC, 28382",636547401,"R"
15608,"107 PEBBLE COURT","BEREA","OH",44017,41.3758579030001,-81.884461245,108,"107 PEBBLE COURT, BEREA, OH, 44017","Match","Exact","107 PEBBLE CT, BEREA, OH, 44017",638289402,"L"
15609,"107 PENNINGTON DRIVE","DARLINGTON","PA",16115,NA,NA,109,"107 PENNINGTON DRIVE, DARLINGTON, PA, 16115","No_Match",NA,NA,NA,NA
15610,"107 PENNSYLVANIA AVENUE","DOWAGIAC","MI",49047,41.983619359,-86.1090484809999,110,"107 PENNSYLVANIA AVENUE, DOWAGIAC, MI, 49047","Match","Exact","107 PENNSYLVANIA AVE, DOWAGIAC, MI, 49047",22571511,"R"
15611,"107 PHILIP DRIVE","PRINCETON","NJ",8540,40.3531097210001,-74.629733833,111,"107 PHILIP DRIVE, PRINCETON, NJ, 8540","Match","Exact","107 PHILIP DR, PRINCETON, NJ, 08540",60171184,"R"
15612,"107 PICA LN","CARBONDALE","CO",81623,39.401852053,-107.102858597,112,"107 PICA LN, CARBONDALE, CO, 81623","Match","Exact","107 PICA LN, CARBONDALE, CO, 81623",105737020,"L"
15613,"107 PINE BROOK ROAD","MONVTILLE","NJ",7045,NA,NA,113,"107 PINE BROOK ROAD, MONVTILLE, NJ, 7045","No_Match",NA,NA,NA,NA
15614,"107 PINECREST DRIVE","ANNAPOLIS","MD",21403,38.935700168,-76.496581576,114,"107 PINECREST DRIVE, ANNAPOLIS, MD, 21403","Match","Exact","107 PINECREST DR, ANNAPOLIS, MD, 21403",68173830,"L"
15615,"107 PINEHURST GREEN WAY","GREENVILLE","SC",29609,34.9193043490001,-82.3471673829999,115,"107 PINEHURST GREEN WAY, GREENVILLE, SC, 29609","Match","Exact","107 PINEHURST GREEN WAY, GREENVILLE, SC, 29609",38336874,"L"
15616,"107 PLANO DRIVE","DURHAM","NC",27703,35.9558008920001,-78.818959637,116,"107 PLANO DRIVE, DURHAM, NC, 27703","Match","Exact","107 PLANO DR, DURHAM, NC, 27703",641639636,"R"
15617,"107 POLK RD 154","HATFIELD","AR",71945,34.523491119,-94.4501138209999,117,"107 POLK RD 154, HATFIELD, AR, 71945","Match","Exact","107 POLK ROAD 154, HATFIELD, AR, 71945",34504274,"R"
15618,"107 PRESIDIO COURT APT 105","SCHAUMBURG","IL",60195,42.0519926810001,-88.082030365,118,"107 PRESIDIO COURT APT 105, SCHAUMBURG, IL, 60195","Match","Exact","107 PRESIDIO CT, SCHAUMBURG, IL, 60195",111840817,"L"
15619,"107 PRICES SWITCH ROAD","VERNON","NJ",7462,41.2410397250001,-74.4608487849999,119,"107 PRICES SWITCH ROAD, VERNON, NJ, 7462","Match","Exact","107 PRICES SWITCH RD, VERNON, NJ, 07462",98018344,"R"
15620,"107 PRINCESS AVE","ANDERSON","SC",29621,34.4781112250001,-82.605373054,120,"107 PRINCESS AVE, ANDERSON, SC, 29621","Match","Exact","107 PRINCESS AVE, ANDERSON, SC, 29621",25491879,"R"
15621,"107 PROFESSIONAL PLAZA","HELENA","AR",72342,34.5175212070001,-90.634350777,121,"107 PROFESSIONAL PLAZA, HELENA, AR, 72342","Match","Exact","107 PROFESSIONAL PLZ, HELENA, AR, 72342",645719578,"R"
15622,"107 RANDY ROAD","WAXAHACHIE","TX",75165,32.4757246660001,-96.802198941,122,"107 RANDY ROAD, WAXAHACHIE, TX, 75165","Match","Non_Exact","107 RANDY, WAXAHACHIE, TX, 75165",103481516,"R"
15623,"107 REED HILL ROAD","JACKSONVILLE","VT",5342,42.7988587230001,-72.816667278,123,"107 REED HILL ROAD, JACKSONVILLE, VT, 5342","Match","Exact","107 REED HILL RD, JACKSONVILLE, VT, 05342",171112526,"R"
15624,"107 REEDER POINT ROAD","FAIR PLAY","SC",29643,34.50226106,-83.0495832409999,124,"107 REEDER POINT ROAD, FAIR PLAY, SC, 29643","Match","Exact","107 REEDER POINT RD, FAIR PLAY, SC, 29643",25664015,"L"
15625,"107 REID AVE","PASSAIC","NJ",7055,40.84860895,-74.132767929,125,"107 REID AVE, PASSAIC, NJ, 7055","Match","Exact","107 REID AVE, PASSAIC, NJ, 07055",65277185,"L"
15626,"107 RIDGEWOOD PLACE","STATEN ISLAND","NY",10301,40.632821215,-74.098167159,126,"107 RIDGEWOOD PLACE, STATEN ISLAND, NY, 10301","Match","Exact","107 RIDGEWOOD PL, STATEN ISLAND, NY, 10301",59878610,"L"
15627,"107 RIVER VALLEY TRAIL","KATHLEEN","GA",31047,32.5412685960001,-83.714472652,127,"107 RIVER VALLEY TRAIL, KATHLEEN, GA, 31047","Match","Exact","107 RIVER VALLEY TRL, KATHLEEN, GA, 31047",91260846,"R"
15628,"107 ROCKAWAY","LYNN","MA",1902,42.4703916600001,-70.946423795,128,"107 ROCKAWAY, LYNN, MA, 1902","Match","Non_Exact","107 ROCKAWAY ST, LYNN, MA, 01902",86645199,"R"
15629,"107 ROYAL ST SW NUM B","LEESBURG","VA",20175,39.1140230670001,-77.5670391049999,129,"107 ROYAL ST SW NUM B, LEESBURG, VA, 20175","Match","Exact","107 ROYAL ST SW, LEESBURG, VA, 20175",62323958,"L"
15630,"107 RUTLAND CIRCLE","LAGRANGE","GA",30241,33.0508272390001,-85.012890952,130,"107 RUTLAND CIRCLE, LAGRANGE, GA, 30241","Match","Exact","107 RUTLAND CIR, LAGRANGE, GA, 30241",1759310,"L"
15631,"107 S 1470 E STE 303","SAINT GEORGE","UT",84790,37.1048277990001,-113.55240353,131,"107 S 1470 E STE 303, SAINT GEORGE, UT, 84790","Match","Non_Exact","107 S 1470 E, SAINT GEORGE, UT, 84790",653209711,"L"
15632,"107 S 55TH ST","OMAHA","NE",68132,41.2590821150001,-95.9985367,132,"107 S 55TH ST, OMAHA, NE, 68132","Match","Exact","107 S 55TH ST, OMAHA, NE, 68132",117009860,"L"
15633,"107 S FAIR OAKS AVE UNIT 112","PASADENA","CA",91105,34.143794455,-118.15045454,133,"107 S FAIR OAKS AVE UNIT 112, PASADENA, CA, 91105","Match","Non_Exact","107 S FAIR OAKS AVE, PASADENA, CA, 91105",141629516,"R"
15634,"107 S GRAND AVE","EVANSVILLE","IN",47713,37.9763538300001,-87.549161643,134,"107 S GRAND AVE, EVANSVILLE, IN, 47713","Match","Exact","107 S GRAND AVE, EVANSVILLE, IN, 47713",39785159,"R"
15635,"107 S H ST","LOMPOC","CA",93436,34.6388001080001,-120.457973691,135,"107 S H ST, LOMPOC, CA, 93436","Match","Exact","107 S H ST, LOMPOC, CA, 93436",108670959,"R"
15636,"107 S LHS DR","LUMBERTON","TX",77657,30.2512940020001,-94.214039459,136,"107 S LHS DR, LUMBERTON, TX, 77657","Match","Exact","107 S LHS DR, LUMBERTON, TX, 77657",642468166,"L"
15637,"107 S MAIN ST","MOUNT CARROLL","IL",61053,42.0981569510001,-89.9788208099999,137,"107 S MAIN ST, MOUNT CARROLL, IL, 61053","Match","Exact","107 S MAIN ST, MOUNT CARROLL, IL, 61053",27679480,"L"
15638,"107 S MOODY STREET","VICTORIA","TX",77901,28.800017231,-97.0090514459999,138,"107 S MOODY STREET, VICTORIA, TX, 77901","Match","Exact","107 S MOODY ST, VICTORIA, TX, 77901",44559418,"R"
15639,"107 S NOTTAWA ST SUITE B","STURGIS","MI",49091,NA,NA,139,"107 S NOTTAWA ST SUITE B, STURGIS, MI, 49091","Tie",NA,NA,NA,NA
15640,"107 S NOTTAWA ST","STURGIS","MI",49091,41.797856589,-85.4186589559999,140,"107 S NOTTAWA ST, STURGIS, MI, 49091","Match","Exact","107 S NOTTAWA ST, STURGIS, MI, 49091",15318578,"L"
15641,"107 S POLLARD STREET","VINTON","VA",24179,37.2807991240001,-79.897352053,141,"107 S POLLARD STREET, VINTON, VA, 24179","Match","Exact","107 S POLLARD ST, VINTON, VA, 24179",62906598,"R"
15642,"107 S RIDGE RD W","CONNEAUT","OH",44030,41.8999801360001,-80.5821420629999,142,"107 S RIDGE RD W, CONNEAUT, OH, 44030","Match","Exact","107 S RIDGE RD W, CONNEAUT, OH, 44030",117310417,"R"
15643,"107 S SHELBY STREET","BLACKSBURG","SC",29702,35.1205911910001,-81.515323941,143,"107 S SHELBY STREET, BLACKSBURG, SC, 29702","Match","Exact","107 S SHELBY ST, BLACKSBURG, SC, 29702",18991078,"R"
15644,"107 S SHORE DR","FOREST LAKE","MN",55025,45.2740018150001,-92.9826281109999,144,"107 S SHORE DR, FOREST LAKE, MN, 55025","Match","Exact","107 S SHORE DR, FOREST LAKE, MN, 55025",97816582,"L"
15645,"107 S STATE ST SUITE 300","MONTICELLO","IL",61856,NA,NA,145,"107 S STATE ST SUITE 300, MONTICELLO, IL, 61856","Tie",NA,NA,NA,NA
15646,"107 S STATE","MONTICELLO","IL",61856,40.025294113,-88.5719127899999,146,"107 S STATE, MONTICELLO, IL, 61856","Match","Non_Exact","107 S STATE ST, MONTICELLO, IL, 61856",8553208,"R"
15647,"107 S TOWER AVE","CENTRALIA","WA",98531,46.71609469,-122.954384357,147,"107 S TOWER AVE, CENTRALIA, WA, 98531","Match","Exact","107 S TOWER AVE, CENTRALIA, WA, 98531",180709082,"L"
15648,"107 S TRADE STREET","AMITY","OR",97101,45.1196311510001,-123.206081785,148,"107 S TRADE STREET, AMITY, OR, 97101","Match","Exact","107 S TRADE ST, AMITY, OR, 97101",156498472,"R"
15649,"107 S URBAN ST","THOMASVILLE","NC",27360,35.8888382820001,-80.115587542,149,"107 S URBAN ST, THOMASVILLE, NC, 27360","Match","Exact","107 S URBAN ST, THOMASVILLE, NC, 27360",635483959,"L"
15650,"107 S WASHINGTON AVENUE","COOKEVILLE","TN",38506,36.160481169,-85.499374991,150,"107 S WASHINGTON AVENUE, COOKEVILLE, TN, 38506","Match","Non_Exact","107 S WASHINGTON AVE, COOKEVILLE, TN, 38501",647285240,"L"
15651,"107 S WEST ST STE 154","ALEXANDRIA","VA",22314,NA,NA,151,"107 S WEST ST STE 154, ALEXANDRIA, VA, 22314","Tie",NA,NA,NA,NA
15652,"107 S WEST ST SUITE 932","ALEXANDRIA","VA",22314,NA,NA,152,"107 S WEST ST SUITE 932, ALEXANDRIA, VA, 22314","Tie",NA,NA,NA,NA
15653,"107 SAGAMORE STREET","SAN FRANCISCO","CA",94112,37.711386847,-122.456015619,153,"107 SAGAMORE STREET, SAN FRANCISCO, CA, 94112","Match","Exact","107 SAGAMORE ST, SAN FRANCISCO, CA, 94112",640927639,"L"
15654,"107 SE SHORES CT","LEES SUMMIT","MO",64064,38.954816597,-94.267261693,154,"107 SE SHORES CT, LEES SUMMIT, MO, 64064","Match","Exact","107 SE SHORES CT, LEES SUMMIT, MO, 64064",618448829,"L"
15655,"107 SETTLERS LANDING ROAD","SUFFOLK","VA",23435,36.876779922,-76.4886275119999,155,"107 SETTLERS LANDING ROAD, SUFFOLK, VA, 23435","Match","Exact","107 SETTLERS LANDING RD, SUFFOLK, VA, 23435",122231045,"L"
15656,"107 SHADY GROVE","GEORGETOWN","TX",78633,30.7118809150001,-97.7585552,156,"107 SHADY GROVE, GEORGETOWN, TX, 78633","Match","Exact","107 SHADY GROVE, GEORGETOWN, TX, 78633",126478167,"L"
15657,"107 SHERFIELD COURT","ELIZABETHTOWN","PA",17022,40.163870441,-76.5852029009999,157,"107 SHERFIELD COURT, ELIZABETHTOWN, PA, 17022","Match","Exact","107 SHERFIELD CT, ELIZABETHTOWN, PA, 17022",179688146,"L"
15658,"107 SHERIDAN ST NE","WASHINGTON","DC",20011,38.9664105160001,-77.00618423,158,"107 SHERIDAN ST NE, WASHINGTON, DC, 20011","Match","Exact","107 SHERIDAN ST NE, WASHINGTON, DC, 20011",76227959,"R"
15659,"107 SHERMAN OAKS DRIVE","COXS CREEK","KY",40013,37.8871985230001,-85.530808357,159,"107 SHERMAN OAKS DRIVE, COXS CREEK, KY, 40013","Match","Exact","107 SHERMAN OAKS DR, COXS CREEK, KY, 40013",35154959,"R"
15660,"107 SILVER LAKE RD","ST SIMONS ISLAND","GA",31522,31.1805706000001,-81.376651307,160,"107 SILVER LAKE RD, ST SIMONS ISLAND, GA, 31522","Match","Exact","107 SILVER LAKE RD, ST SIMONS ISLAND, GA, 31522",211211233,"L"
15661,"107 SIR BARTON CT","BUSH","LA",70431,30.5905755850001,-89.978361051,161,"107 SIR BARTON CT, BUSH, LA, 70431","Match","Exact","107 SIR BARTON CT, BUSH, LA, 70431",111296233,"R"
15662,"107 SLATE RUN","DOUGLASSVILLE","PA",19518,40.2704586290001,-75.754254079,162,"107 SLATE RUN, DOUGLASSVILLE, PA, 19518","Match","Exact","107 SLATE RUN, DOUGLASSVILLE, PA, 19518",80434242,"R"
15663,"107 SMOKEY WOOD DRIVE","PITTSBURGH","PA",15218,40.424162084,-79.876164311,163,"107 SMOKEY WOOD DRIVE, PITTSBURGH, PA, 15218","Match","Exact","107 SMOKEY WOOD DR, PITTSBURGH, PA, 15218",51693276,"R"
15664,"107 SOUTH 2ND STREET","MANKATO","MN",56001,44.1667184020001,-94.001571223,164,"107 SOUTH 2ND STREET, MANKATO, MN, 56001","Match","Exact","107 S 2ND ST, MANKATO, MN, 56001",28096625,"R"
15665,"107 SOUTH MARION STREET","CARDINGTON","OH",43315,40.500389641,-82.894280021,165,"107 SOUTH MARION STREET, CARDINGTON, OH, 43315","Match","Exact","107 S MARION ST, CARDINGTON, OH, 43315",12749878,"L"
15666,"107 SOUTH NOTTAWA STREET","STURGIS","MI",49091,41.798015053,-85.4186625739999,166,"107 SOUTH NOTTAWA STREET, STURGIS, MI, 49091","Match","Exact","107 S NOTTAWA ST, STURGIS, MI, 49091",15318578,"L"
15667,"107 SOUTH PARK STREET","DAHLONEGA","GA",30533,34.531616871,-83.983282656,167,"107 SOUTH PARK STREET, DAHLONEGA, GA, 30533","Match","Exact","107 S PARK ST, DAHLONEGA, GA, 30533",101114670,"R"
15668,"107 SPAULDING DRIVE","SCOTTSBURG","IN",47170,38.6852220320001,-85.804153231,168,"107 SPAULDING DRIVE, SCOTTSBURG, IN, 47170","Match","Exact","107 SPAULDING DR, SCOTTSBURG, IN, 47170",31605998,"L"
15669,"107 SPYGLASS DRIVE","BLUE BELL","PA",19422,40.175099232,-75.288736414,169,"107 SPYGLASS DRIVE, BLUE BELL, PA, 19422","Match","Exact","107 SPYGLASS DR, BLUE BELL, PA, 19422",135108597,"L"
15670,"107 STAN AVENUE","NEW STANTON","PA",15672,40.2189189900001,-79.606746468,170,"107 STAN AVENUE, NEW STANTON, PA, 15672","Match","Exact","107 STAN AVE, NEW STANTON, PA, 15672",52974276,"R"
15671,"107 STATE ST","MEDFORD","WI",54451,45.137126406,-90.344757349,171,"107 STATE ST, MEDFORD, WI, 54451","Match","Non_Exact","107 W STATE ST, MEDFORD, WI, 54451",607306653,"L"
15672,"107 STONELEIGH ROAD","WATERTOWN","MA",2472,42.3713904140001,-71.168185154,172,"107 STONELEIGH ROAD, WATERTOWN, MA, 2472","Match","Exact","107 STONELEIGH RD, WATERTOWN, MA, 02472",86864830,"R"
15673,"107 STRAITS HAVEN ROAD","BEAUFORT","NC",28516,34.728041804,-76.570782309,173,"107 STRAITS HAVEN ROAD, BEAUFORT, NC, 28516","Match","Exact","107 STRAITS HAVEN RD, BEAUFORT, NC, 28516",33886251,"L"
15674,"107 STRONGWOOD ROAD","OWINGS MILLS","MD",21117,39.430438377,-76.807838572,174,"107 STRONGWOOD ROAD, OWINGS MILLS, MD, 21117","Match","Exact","107 STRONGWOOD RD, OWINGS MILLS, MD, 21117",191462780,"L"
15675,"107 SUFFOLK STREET SUITE 213 A","NEW YORK","NY",10002,40.7191767310001,-73.985998106,175,"107 SUFFOLK STREET SUITE 213 A, NEW YORK, NY, 10002","Match","Exact","107 SUFFOLK ST, NEW YORK, NY, 10002",59654146,"L"
15676,"107 SUR ASHFORF AVE","GUAYAMA","PR",784,NA,NA,176,"107 SUR ASHFORF AVE, GUAYAMA, PR, 784","No_Match",NA,NA,NA,NA
15677,"107 SUZANNE STREET","BOGALUSA","LA",70427,30.7640924730001,-89.880314093,177,"107 SUZANNE STREET, BOGALUSA, LA, 70427","Match","Exact","107 SUZANNE ST, BOGALUSA, LA, 70427",82460358,"L"
15678,"107 SW 1 STREET","DANIA","FL",33004,26.0504661780001,-80.14526316,178,"107 SW 1 STREET, DANIA, FL, 33004","Match","Exact","107 SW 1ST ST, DANIA, FL, 33004",114729960,"L"
15679,"107 SW 1ST STREET SUITE 102","ENTERPRISE","OR",97828,NA,NA,179,"107 SW 1ST STREET SUITE 102, ENTERPRISE, OR, 97828","Tie",NA,NA,NA,NA
15680,"107 SW 7 CT","POMPANO BEACH","FL",33060,26.2202996560001,-80.123995752,180,"107 SW 7 CT, POMPANO BEACH, FL, 33060","Match","Exact","107 SW 7TH CT, POMPANO BEACH, FL, 33060",640875026,"L"
15681,"107 TANNER COURT","TARBORO","NC",27886,35.8773921260001,-77.5782496209999,181,"107 TANNER COURT, TARBORO, NC, 27886","Match","Exact","107 TANNER CT, TARBORO, NC, 27886",90189526,"L"
15682,"107 TECHNOLOGY PARKWAY","PEACHTREE CORNERS","GA",30092,33.9650428030001,-84.217869556,182,"107 TECHNOLOGY PARKWAY, PEACHTREE CORNERS, GA, 30092","Match","Non_Exact","107 TECHNOLOGY PKWY NW, PEACHTREE CORNERS, GA, 30092",88883913,"R"
15683,"107 TELFAIR PLACE","ATHENS","GA",30606,33.93798516,-83.4378957709999,183,"107 TELFAIR PLACE, ATHENS, GA, 30606","Match","Exact","107 TELFAIR PL, ATHENS, GA, 30606",4807295,"L"
15684,"107 TERRACE VIEW DRIVE","ITHACA","NY",14850,42.428218874,-76.4679611289999,184,"107 TERRACE VIEW DRIVE, ITHACA, NY, 14850","Match","Exact","107 TERRACE VIEW DR, ITHACA, NY, 14850",18864495,"R"
15685,"107 TGT","PORTLAND","TN",37148,NA,NA,185,"107 TGT, PORTLAND, TN, 37148","No_Match",NA,NA,NA,NA
15686,"107 THUNDERBIRD DRIVE","HARVEST","AL",35749,34.8477903630001,-86.715301782,186,"107 THUNDERBIRD DRIVE, HARVEST, AL, 35749","Match","Exact","107 THUNDERBIRD DR, HARVEST, AL, 35749",58193985,"L"
15687,"107 TRADEWYND DR STE B","LYNCHBURG","VA",24502,37.3570876360001,-79.240682331,187,"107 TRADEWYND DR STE B, LYNCHBURG, VA, 24502","Match","Exact","107 TRADEWYND DR, LYNCHBURG, VA, 24502",62737150,"R"
15688,"107 TREASURE HUNT TRAIL","BLUE EYE","MO",65611,NA,NA,188,"107 TREASURE HUNT TRAIL, BLUE EYE, MO, 65611","No_Match",NA,NA,NA,NA
15689,"107 TREES OF AVALON PARKWAY","MCDONOUGH","GA",30253,33.4167392470001,-84.17468703,189,"107 TREES OF AVALON PARKWAY, MCDONOUGH, GA, 30253","Match","Exact","107 TREES OF AVALON PKWY, MCDONOUGH, GA, 30253",648330554,"R"
15690,"107 TRIBAL ROAD","LOUISVILLE","KY",40207,38.274154819,-85.66323919,190,"107 TRIBAL ROAD, LOUISVILLE, KY, 40207","Match","Exact","107 TRIBAL RD, LOUISVILLE, KY, 40207",621656847,"L"
15691,"107 VALERA WAY","OCEANSIDE","CA",92057,33.228497535,-117.314036828,191,"107 VALERA WAY, OCEANSIDE, CA, 92057","Match","Exact","107 VALERA WAY, OCEANSIDE, CA, 92057",195458790,"R"
15692,"107 VAN CORTLANDT PK AVE APT 6B","YONKERS","NY",10701,40.9283307970001,-73.889359841,192,"107 VAN CORTLANDT PK AVE APT 6B, YONKERS, NY, 10701","Match","Exact","107 VAN CORTLANDT PARK AVE, YONKERS, NY, 10701",139844838,"R"
15693,"107 VERPLANK STREET","BUFFALO","NY",14208,NA,NA,193,"107 VERPLANK STREET, BUFFALO, NY, 14208","No_Match",NA,NA,NA,NA
15694,"107 VETERANS DRIVE","KILL DEVIL HILLS","NC",27948,36.008896163,-75.664443201,194,"107 VETERANS DRIVE, KILL DEVIL HILLS, NC, 27948","Match","Exact","107 VETERANS DR, KILL DEVIL HILLS, NC, 27948",81322236,"L"
15695,"107 VIA DEL PINAR","MONTEREY","CA",93940,36.5933406080001,-121.90727786,195,"107 VIA DEL PINAR, MONTEREY, CA, 93940","Match","Exact","107 VIA DEL PINAR, MONTEREY, CA, 93940",196855859,"L"
15696,"107 VINTAGE OAKS CT","ANGLETON","TX",77515,29.1113959470001,-95.407767153,196,"107 VINTAGE OAKS CT, ANGLETON, TX, 77515","Match","Exact","107 VINTAGE OAKS CT, ANGLETON, TX, 77515",641827594,"L"
15697,"107 VISTA DRIVE","CLEMSON","SC",29631,34.698306529,-82.80337853,197,"107 VISTA DRIVE, CLEMSON, SC, 29631","Match","Exact","107 VISTA DR, CLEMSON, SC, 29631",26163624,"L"
15698,"107 VIXENHILL DRIVE","JESUP","GA",31546,31.5786830710001,-81.899159576,198,"107 VIXENHILL DRIVE, JESUP, GA, 31546","Match","Exact","107 VIXENHILL DR, JESUP, GA, 31546",627302386,"L"
15699,"107 W 126TH STREET APT 2","NEW YORK","NY",10027,40.8086125140001,-73.945363834,199,"107 W 126TH STREET APT 2, NEW YORK, NY, 10027","Match","Non_Exact","107 W 126TH ST, NEW YORK, NY, 10027",59656185,"R"
15700,"107 W 3RD STREET","SUGAR GROVE","OH",43155,39.6269916890001,-82.54906288,200,"107 W 3RD STREET, SUGAR GROVE, OH, 43155","Match","Exact","107 3RD ST, SUGAR GROVE, OH, 43155",37223268,"R"
15701,"107 W AMBASSADOR BEND","THE WOODLANDS","TX",77382,30.194760263,-95.578191383,201,"107 W AMBASSADOR BEND, THE WOODLANDS, TX, 77382","Match","Exact","107 W AMBASSADOR BEND, THE WOODLANDS, TX, 77382",625660349,"L"
15702,"107 W AUSTIN ST","MARSHALL","TX",75670,32.5458794190001,-94.367435733,202,"107 W AUSTIN ST, MARSHALL, TX, 75670","Match","Exact","107 W AUSTIN ST, MARSHALL, TX, 75670",141174180,"R"
15703,"107 W COLUMBUS ST","PICKERINGTON","OH",43147,39.8842093740001,-82.7567107529999,203,"107 W COLUMBUS ST, PICKERINGTON, OH, 43147","Match","Exact","107 W COLUMBUS ST, PICKERINGTON, OH, 43147",37227763,"L"
15704,"107 W ELLAVILLE ST","ANDERSONVILLE","GA",31711,32.195997791,-84.1401549569999,204,"107 W ELLAVILLE ST, ANDERSONVILLE, GA, 31711","Match","Exact","107 W ELLAVILLE ST, ANDERSONVILLE, GA, 31711",30737361,"L"
15705,"107 W FIRST ST","MT MORRIS","IL",61054,42.0514642460001,-89.43566684,205,"107 W FIRST ST, MT MORRIS, IL, 61054","Match","Exact","107 W 1ST ST, MOUNT MORRIS, IL, 61054",52318925,"L"
15706,"107 W GARFIELD AVE","SAN JUAN","TX",78589,26.2155495480001,-98.152384974,206,"107 W GARFIELD AVE, SAN JUAN, TX, 78589","Match","Non_Exact","107 GARFIELD ST, SAN JUAN, TX, 78589",71525668,"R"
15707,"107 W GEER ST","DURHAM","NC",27701,36.0038076370001,-78.894808026,207,"107 W GEER ST, DURHAM, NC, 27701","Match","Exact","107 W GEER ST, DURHAM, NC, 27701",71741624,"L"
15708,"107 W HENSON AVE","SPRINGDALE","AR",72764,36.144905421,-94.1354277679999,208,"107 W HENSON AVE, SPRINGDALE, AR, 72764","Match","Exact","107 W HENSON AVE, SPRINGDALE, AR, 72764",49053368,"L"
15709,"107 W HOUSTON ST","GARRETT","IN",46738,41.3483872730001,-85.1363295789999,209,"107 W HOUSTON ST, GARRETT, IN, 46738","Match","Exact","107 W HOUSTON ST, GARRETT, IN, 46738",606646415,"L"
15710,"107 W LOCUST ST SUITE 111","BOONVILLE","IN",47601,NA,NA,210,"107 W LOCUST ST SUITE 111, BOONVILLE, IN, 47601","Tie",NA,NA,NA,NA
15711,"107 W LYTLE STREET","MURFREESBORO","TN",37130,35.8480986000001,-86.391232294,211,"107 W LYTLE STREET, MURFREESBORO, TN, 37130","Match","Exact","107 W LYTLE ST, MURFREESBORO, TN, 37130",59013927,"L"
15712,"107 W MAIN ST","SMITHVILLE","MO",64089,39.387109953,-94.581036017,212,"107 W MAIN ST, SMITHVILLE, MO, 64089","Match","Exact","107 W MAIN ST, SMITHVILLE, MO, 64089",89749713,"L"
15713,"107 W MESQUITE ST","GILBERT","AZ",85233,33.3445409920001,-111.792139789,213,"107 W MESQUITE ST, GILBERT, AZ, 85233","Match","Exact","107 W MESQUITE ST, GILBERT, AZ, 85233",128926456,"L"
15714,"107 W NEWTON ST","RICE LAKE","WI",54868,45.5025390160001,-91.736353003,214,"107 W NEWTON ST, RICE LAKE, WI, 54868","Match","Exact","107 W NEWTON ST, RICE LAKE, WI, 54868",126297216,"R"
15715,"107 W ORBISON ST","BARNEVELD","WI",53507,43.014624321,-89.8959505449999,215,"107 W ORBISON ST, BARNEVELD, WI, 53507","Match","Exact","107 W ORBISON ST, BARNEVELD, WI, 53507",615323352,"R"
15716,"107 W ORCHARD AVE","INDIANOLA","IA",50125,41.3761325360001,-93.56097683,216,"107 W ORCHARD AVE, INDIANOLA, IA, 50125","Match","Exact","107 W ORCHARD AVE, INDIANOLA, IA, 50125",83769882,"R"
15717,"107 W PINE ST","COCHRANTON","PA",16314,41.51882771,-80.0490199179999,217,"107 W PINE ST, COCHRANTON, PA, 16314","Match","Exact","107 W PINE ST, COCHRANTON, PA, 16314",98591922,"R"
15718,"107 W QUAIL RIDGE RD","OXFORD","NC",27565,36.3133416580001,-78.605152491,218,"107 W QUAIL RIDGE RD, OXFORD, NC, 27565","Match","Non_Exact","107 E QUAIL RIDGE RD, OXFORD, NC, 27565",77102648,"L"
15719,"107 W SUNKIST ST","ONTARIO","CA",91762,34.057903305,-117.65132644,219,"107 W SUNKIST ST, ONTARIO, CA, 91762","Match","Exact","107 W SUNKIST ST, ONTARIO, CA, 91762",636202992,"L"
15720,"107 W WALLACE AVE","NEW CASTLE","PA",16101,41.0064712920001,-80.349056414,220,"107 W WALLACE AVE, NEW CASTLE, PA, 16101","Match","Exact","107 W WALLACE AVE, NEW CASTLE, PA, 16101",65180250,"R"
15721,"107 W WASHINGTON STREET","WASHINGTON","IA",52353,41.2983597750001,-91.6918133519999,221,"107 W WASHINGTON STREET, WASHINGTON, IA, 52353","Match","Non_Exact","107 W WASHINGTON BLVD, WASHINGTON, IA, 52353",84182404,"L"
15722,"107 WALKBRIDGE WAY","CHAPIN","SC",29036,34.133761513,-81.343688195,222,"107 WALKBRIDGE WAY, CHAPIN, SC, 29036","Match","Exact","107 WALKBRIDGE WAY, CHAPIN, SC, 29036",635336903,"L"
15723,"107 WATER STREET","CHARDON","OH",44024,41.580948232,-81.2045304389999,223,"107 WATER STREET, CHARDON, OH, 44024","Match","Exact","107 WATER ST, CHARDON, OH, 44024",137434431,"R"
15724,"107 WATERSFIELD RD","LELAND","NC",28451,34.217215948,-78.051161236,224,"107 WATERSFIELD RD, LELAND, NC, 28451","Match","Exact","107 WATERSFIELD RD, LELAND, NC, 28451",625648376,"L"
15725,"107 WELLESLEY LANE","MOORESVILLE","NC",28115,35.605810552,-80.7838587419999,225,"107 WELLESLEY LANE, MOORESVILLE, NC, 28115","Match","Exact","107 WELLESLEY LN, MOORESVILLE, NC, 28115",635246312,"L"
15726,"107 WEST 135TH STREET","NEW YORK","NY",10030,40.81444444,-73.941637891,226,"107 WEST 135TH STREET, NEW YORK, NY, 10030","Match","Exact","107 W 135TH ST, NEW YORK, NY, 10030",652208126,"R"
15727,"107 WEST 5TH AVE","TALLAHASSEE","FL",32303,30.454705609,-84.282054253,227,"107 WEST 5TH AVE, TALLAHASSEE, FL, 32303","Match","Exact","107 W 5TH AVE, TALLAHASSEE, FL, 32303",82850520,"L"
15728,"107 WEST 86TH STREET 3H","NEW YORK","NY",10024,40.7866516380001,-73.972542715,228,"107 WEST 86TH STREET 3H, NEW YORK, NY, 10024","Match","Exact","107 W 86TH ST, NEW YORK, NY, 10024",59656716,"R"
15729,"107 WEST DEER PARK","GAITHERSBURG","MD",20877,39.13412534,-77.204004748,229,"107 WEST DEER PARK, GAITHERSBURG, MD, 20877","Match","Non_Exact","107 W DEER PARK RD, GAITHERSBURG, MD, 20877",62140762,"L"
15730,"107 WEST END DRIVE","MANHEIM","PA",17545,40.1703831680001,-76.383842726,230,"107 WEST END DRIVE, MANHEIM, PA, 17545","Match","Exact","107 W END DR, MANHEIM, PA, 17545",179654859,"L"
15731,"107 WEST EXCHANGE STREET","SYCAMORE","IL",60178,41.9896448330001,-88.684446314,231,"107 WEST EXCHANGE STREET, SYCAMORE, IL, 60178","Match","Exact","107 W EXCHANGE ST, SYCAMORE, IL, 60178",52258565,"R"
15732,"107 WEST FIRST STREET","JANESVILLE","MN",56048,44.116203802,-93.708357574,232,"107 WEST FIRST STREET, JANESVILLE, MN, 56048","Match","Exact","107 W 1ST ST, JANESVILLE, MN, 56048",28729087,"L"
15733,"107 WEST MADISON AVE","CLIFTON HEIGHTS","PA",19018,39.9258220350001,-75.2956415739999,233,"107 WEST MADISON AVE, CLIFTON HEIGHTS, PA, 19018","Match","Exact","107 W MADISON AVE, CLIFTON HEIGHTS, PA, 19018",134883285,"R"
15734,"107 WEST MAIN ST","SMITHVILLE","MO",64089,39.3871099400001,-94.581034406,234,"107 WEST MAIN ST, SMITHVILLE, MO, 64089","Match","Exact","107 W MAIN ST, SMITHVILLE, MO, 64089",89749713,"L"
15735,"107 WEST MAIN STREET","WILLIAMSBURG","OH",45176,39.0529815850001,-84.051092168,235,"107 WEST MAIN STREET, WILLIAMSBURG, OH, 45176","Match","Exact","107 W MAIN ST, WILLIAMSBURG, OH, 45176",118451358,"R"
15736,"107 WEST PASSAGE","COLUMBIA","SC",29212,34.0804389150001,-81.14463067,236,"107 WEST PASSAGE, COLUMBIA, SC, 29212","Match","Non_Exact","107 WEST CT, COLUMBIA, SC, 29212",71837141,"L"
15737,"107 WEST QUAIL RIDGE RD","OXFORD","NC",27565,36.3133416580001,-78.605152491,237,"107 WEST QUAIL RIDGE RD, OXFORD, NC, 27565","Match","Non_Exact","107 E QUAIL RIDGE RD, OXFORD, NC, 27565",77102648,"L"
15738,"107 WEST STREET SUITE 807","ALEXANDRIA","VA",22314,NA,NA,238,"107 WEST STREET SUITE 807, ALEXANDRIA, VA, 22314","Tie",NA,NA,NA,NA
15739,"107 WEST US-2","WAKEFIELD","MI",49968,NA,NA,239,"107 WEST US-2, WAKEFIELD, MI, 49968","No_Match",NA,NA,NA,NA
15740,"107 WEST WALWORTH STREET","ELKHORN","WI",53121,42.6718696090001,-88.545002488,240,"107 WEST WALWORTH STREET, ELKHORN, WI, 53121","Match","Exact","107 W WALWORTH ST, ELKHORN, WI, 53121",53665721,"R"
15741,"107 WESTON PLACE","ASHEVILLE","NC",28803,35.4880202480001,-82.4883276429999,241,"107 WESTON PLACE, ASHEVILLE, NC, 28803","Match","Exact","107 WESTON PL, ASHEVILLE, NC, 28803",36876499,"R"
15742,"107 WILLOW OAKS ROAD","RICHMOND","VA",23238,37.5965241170001,-77.684558763,242,"107 WILLOW OAKS ROAD, RICHMOND, VA, 23238","Match","Exact","107 WILLOW OAKS RD, RICHMOND, VA, 23238",210330479,"L"
15743,"107 WILLOW POND ROAD","UNICOI","TN",37692,36.236156017,-82.310500699,243,"107 WILLOW POND ROAD, UNICOI, TN, 37692","Match","Exact","107 WILLOW POND RD, UNICOI, TN, 37692",41141602,"L"
15744,"107 WILLOWGATE DRIVE","BONAIRE","GA",31005,32.552328,-83.64546985,244,"107 WILLOWGATE DRIVE, BONAIRE, GA, 31005","Match","Exact","107 WILLOWGATE DR, BONAIRE, GA, 31005",91228456,"R"
15745,"107 WINDLAKE CT","WEST MONROE","LA",71291,32.5596626270001,-92.234795509,245,"107 WINDLAKE CT, WEST MONROE, LA, 71291","Match","Exact","107 WINDLAKE CT, WEST MONROE, LA, 71291",627208068,"L"
15746,"107 WITTENHAM COURT","SAN RAMON","CA",94583,37.7428209600001,-121.99291825,246,"107 WITTENHAM COURT, SAN RAMON, CA, 94583","Match","Non_Exact","107 WHITTENHAM CT, SAN RAMON, CA, 94583",638569065,"L"
15747,"107 WOODBINE","LONGVIEW","TX",75601,32.5254425690001,-94.7443603409999,247,"107 WOODBINE, LONGVIEW, TX, 75601","Match","Non_Exact","107 WOODBINE PL, LONGVIEW, TX, 75601",630364844,"R"
15748,"107 ZAIDE LN","BOZEMAN","MT",59718,45.661189554,-111.153547825,248,"107 ZAIDE LN, BOZEMAN, MT, 59718","Match","Exact","107 ZAIDE LN, BOZEMAN, MT, 59718",624272284,"R"
15749,"107-08 173RD STREET","JAMAICA","NY",11433,40.7005603910001,-73.783152206,249,"107-08 173RD STREET, JAMAICA, NY, 11433","Match","Exact","107-8 173RD ST, JAMAICA, NY, 11433",59714775,"R"
15750,"107-10 SHORE FRONT PARKWAY APT 9H","ROCKAWAY PARK","NY",11694,40.580492602,-73.827679614,250,"107-10 SHORE FRONT PARKWAY APT 9H, ROCKAWAY PARK, NY, 11694","Match","Exact","107-10 SHORE FRONT PKWY, ROCKAWAY PARK, NY, 11694",611863806,"R"
15751,"107-20 142 STREET","JAMAICA","NY",11435,40.689157874,-73.806701956,251,"107-20 142 STREET, JAMAICA, NY, 11435","Match","Exact","107-20 142ND ST, JAMAICA, NY, 11435",59713447,"R"
15752,"107-23 71ST RD STE 191","FOREST HILLS","NY",11375,40.7200890930001,-73.8434718939999,252,"107-23 71ST RD STE 191, FOREST HILLS, NY, 11375","Match","Exact","107-23 71ST RD, FOREST HILLS, NY, 11375",59706175,"L"
15753,"107-34 157TH STREET","JAMAICA","NY",11433,40.6957600160001,-73.796234206,253,"107-34 157TH STREET, JAMAICA, NY, 11433","Match","Exact","107-34 157TH ST, JAMAICA, NY, 11433",59714322,"R"
15754,"107-51 GUY R BREWER BLVD","JAMAICA","NY",11433,40.6973509850001,-73.79180626,254,"107-51 GUY R BREWER BLVD, JAMAICA, NY, 11433","Match","Exact","107-51 GUY R BREWER BLVD, JAMAICA, NY, 11433",59714318,"L"
15755,"107","LOUISVILE","KY",40207,NA,NA,255,"107, LOUISVILE, KY, 40207","No_Match",NA,NA,NA,NA
15756,"1070 20TH AVE NE","NAPLES","FL",34120,26.2665325140001,-81.5878210499999,256,"1070 20TH AVE NE, NAPLES, FL, 34120","Match","Exact","1070 20TH AVE NE, NAPLES, FL, 34120",115128914,"R"
15757,"1070 BARBER TER NW","GRAND RAPIDS","MI",49504,42.9846212050001,-85.740153451,257,"1070 BARBER TER NW, GRAND RAPIDS, MI, 49504","Match","Exact","1070 BARBER TER NW, GRAND RAPIDS, MI, 49504",12453049,"R"
15758,"1070 BROAD STREET","PROVIDENCE","RI",2905,41.7964144420001,-71.4124254989999,258,"1070 BROAD STREET, PROVIDENCE, RI, 2905","Match","Exact","1070 BROAD ST, PROVIDENCE, RI, 02905",47467056,"L"
15759,"1070 CAMBRIDGE DR","WABASH","IN",46992,40.8108748590001,-85.8385819069999,259,"1070 CAMBRIDGE DR, WABASH, IN, 46992","Match","Exact","1070 CAMBRIDGE DR, WABASH, IN, 46992",15535954,"L"
15760,"1070 CARMACK RD","COLUMBUS","OH",43210,40.004959081,-83.040767893,260,"1070 CARMACK RD, COLUMBUS, OH, 43210","Match","Exact","1070 CARMACK RD, COLUMBUS, OH, 43210",218690233,"R"
15761,"1070 CONKLIN RD","JONESBOROUGH","TN",37659,36.202018262,-82.5337646849999,261,"1070 CONKLIN RD, JONESBOROUGH, TN, 37659","Match","Exact","1070 CONKLIN RD, JONESBOROUGH, TN, 37659",127942912,"R"
15762,"1070 COUNTY ROAD 122","QUITMAN","MS",39355,32.014578424,-88.805399399,262,"1070 COUNTY ROAD 122, QUITMAN, MS, 39355","Match","Exact","1070 CO RD 122, QUITMAN, MS, 39355",2683545,"L"
15763,"1070 COURIER PLACE 201","SMYRNA","TN",37167,35.932293605,-86.53201667,263,"1070 COURIER PLACE 201, SMYRNA, TN, 37167","Match","Exact","1070 COURIER PL, SMYRNA, TN, 37167",59034303,"R"
15764,"1070 CURB CHAIN LANE","WINDSOR","SC",29856,NA,NA,264,"1070 CURB CHAIN LANE, WINDSOR, SC, 29856","No_Match",NA,NA,NA,NA
15765,"1070 DRY FORK RD","DANVILLE","KY",40422,37.6697731560001,-84.9057140849999,265,"1070 DRY FORK RD, DANVILLE, KY, 40422","Match","Exact","1070 DRY FORK RD, DANVILLE, KY, 40422",32478546,"R"
15766,"1070 EAST 73RD ST STE 2","BROOKLYN","NY",11234,40.6280453700001,-73.916446497,266,"1070 EAST 73RD ST STE 2, BROOKLYN, NY, 11234","Match","Exact","1070 E 73RD ST, BROOKLYN, NY, 11234",59100075,"R"
15767,"1070 EAST COLLEGE PARKWAY","ANNAPOLIS","MD",21409,39.021269299,-76.4185742399999,267,"1070 EAST COLLEGE PARKWAY, ANNAPOLIS, MD, 21409","Match","Exact","1070 E COLLEGE PKWY, ANNAPOLIS, MD, 21409",68215555,"L"
15768,"1070 EAST FM 544","WYLIE","TX",75098,33.0075871980001,-96.5549034749999,268,"1070 EAST FM 544, WYLIE, TX, 75098","Match","Non_Exact","1070 FM 544, WYLIE, TX, 75098",647660274,"L"
15769,"1070 EBERLY WAY","LEMONT FURNACE","PA",15456,39.9376345570001,-79.6652599449999,269,"1070 EBERLY WAY, LEMONT FURNACE, PA, 15456","Match","Exact","1070 EBERLY WAY, LEMONT FURNACE, PA, 15456",613519744,"R"
15770,"1070 ELM ST","MACON","GA",31201,32.828880617,-83.645367112,270,"1070 ELM ST, MACON, GA, 31201","Match","Exact","1070 ELM ST, MACON, GA, 31201",81061930,"L"
15771,"1070 FOXRIDGE CT","SUMTER","SC",29150,33.950051724,-80.401145258,271,"1070 FOXRIDGE CT, SUMTER, SC, 29150","Match","Exact","1070 FOXRIDGE CT, SUMTER, SC, 29150",202689380,"L"
15772,"1070 GBI STREET","GRUNDY","VA",24614,37.282438601,-82.104570758,272,"1070 GBI STREET, GRUNDY, VA, 24614","Match","Exact","1070 GBI ST, GRUNDY, VA, 24614",74095328,"R"
15773,"1070 GOVERNMENT STREET","MOBILE","AL",36604,30.6844685230001,-88.0595407929999,273,"1070 GOVERNMENT STREET, MOBILE, AL, 36604","Match","Exact","1070 GOVERNMENT ST, MOBILE, AL, 36604",61867485,"R"
15774,"1070 GREAT OAKS DR","LAWRENCEVILLE","GA",30045,33.9122662940001,-83.986388205,274,"1070 GREAT OAKS DR, LAWRENCEVILLE, GA, 30045","Match","Exact","1070 GREAT OAKS DR, LAWRENCEVILLE, GA, 30045",88950564,"R"
15775,"1070 HARMONY LANE","CLERMONT","FL",34711,28.5119835960001,-81.73492643,275,"1070 HARMONY LANE, CLERMONT, FL, 34711","Match","Exact","1070 HARMONY LN, CLERMONT, FL, 34711",640083727,"L"
15776,"1070 HARRIS RD","ADAMSVILLE","TN",38310,35.267447105,-88.327745135,276,"1070 HARRIS RD, ADAMSVILLE, TN, 38310","Match","Exact","1070 HARRIS RD, ADAMSVILLE, TN, 38310",21183597,"L"
15777,"1070 HAYSLOPE DRIVE","KNOXVILLE","TN",37919,35.9156929390001,-84.025266926,277,"1070 HAYSLOPE DRIVE, KNOXVILLE, TN, 37919","Match","Exact","1070 HAYSLOPE DR, KNOXVILLE, TN, 37919",42629217,"R"
15778,"1070 HERNDON ROAD","LAWRENCEBURG","KY",40342,38.062020868,-84.950021061,278,"1070 HERNDON ROAD, LAWRENCEBURG, KY, 40342","Match","Exact","1070 HERNDON RD, LAWRENCEBURG, KY, 40342",43458174,"R"
15779,"1070 HICKORY CURVE","WATERTOWN","MN",55388,44.9688627580001,-93.832125752,279,"1070 HICKORY CURVE, WATERTOWN, MN, 55388","Match","Exact","1070 HICKORY CURVE, WATERTOWN, MN, 55388",633558997,"L"
15780,"1070 HIDDEN VALLEY CT","MC GREGOR","TX",76657,31.49492916,-97.3033729699999,280,"1070 HIDDEN VALLEY CT, MC GREGOR, TX, 76657","Match","Exact","1070 HIDDEN VALLEY CT, MC GREGOR, TX, 76657",146766436,"R"
15781,"1070 HIGHWAY 64 NW","RAMSEY","IN",47166,NA,NA,281,"1070 HIGHWAY 64 NW, RAMSEY, IN, 47166","No_Match",NA,NA,NA,NA
15782,"1070 LIBBY COURT","DAYTONA BEACH","FL",32117,29.217393197,-81.0696816829999,282,"1070 LIBBY COURT, DAYTONA BEACH, FL, 32117","Match","Non_Exact","1070 N LIBBY CT, DAYTONA BEACH, FL, 32117",94522523,"L"
15783,"1070 LUMEN RD NW","MINERVA","OH",44657,40.6896026360001,-81.11173588,283,"1070 LUMEN RD NW, MINERVA, OH, 44657","Match","Exact","1070 LUMEN RD NW, MINERVA, OH, 44657",44185430,"R"
15784,"1070 MARINA VILLAGE PARKWAY STE 206","ALAMEDA","CA",94501,37.7856862780001,-122.272203259,284,"1070 MARINA VILLAGE PARKWAY STE 206, ALAMEDA, CA, 94501","Match","Exact","1070 MARINA VILLAGE PKWY, ALAMEDA, CA, 94501",125065429,"L"
15785,"1070 MIDDLE COUNTRY RD SUITE 7-243","SELDON","NY",11784,40.8633166390001,-73.051386226,285,"1070 MIDDLE COUNTRY RD SUITE 7-243, SELDON, NY, 11784","Match","Non_Exact","1070 MIDDLE COUNTRY RD, SELDEN, NY, 11784",114076816,"L"
15786,"1070 MONA DRIVE","UNIVERSITY CITY","MO",63130,38.6682557030001,-90.338382971,286,"1070 MONA DRIVE, UNIVERSITY CITY, MO, 63130","Match","Exact","1070 MONA DR, UNIVERSITY CITY, MO, 63130",100133952,"R"
15787,"1070 MONTGOMERY RD  STE 2205","ALTAMONTE SPRINGS","FM",32773,NA,NA,287,"1070 MONTGOMERY RD  STE 2205, ALTAMONTE SPRINGS, FM, 32773","No_Match",NA,NA,NA,NA
15788,"1070 MONTGOMERY ROAD 2270","ALTAMONTE SPRINGS","FL",32714,28.6862403550001,-81.4026809599999,288,"1070 MONTGOMERY ROAD 2270, ALTAMONTE SPRINGS, FL, 32714","Match","Exact","1070 MONTGOMERY RD, ALTAMONTE SPRINGS, FL, 32714",93755178,"L"
15789,"1070 NOBLE VINES DRIVE APT4","CLARKSTON","GA",30021,33.814960162,-84.245221575,289,"1070 NOBLE VINES DRIVE APT4, CLARKSTON, GA, 30021","Match","Exact","1070 NOBLE VINES DR, CLARKSTON, GA, 30021",23362999,"R"
15790,"1070 RIDEN ROAD","MADISON","GA",30650,33.691692453,-83.534305446,290,"1070 RIDEN ROAD, MADISON, GA, 30650","Match","Exact","1070 RIDEN RD, MADISON, GA, 30650",611075367,"L"
15791,"1070 S LA BREA AVE","LOS ANGELES","CA",90019,34.05571158,-118.344502447,291,"1070 S LA BREA AVE, LOS ANGELES, CA, 90019","Match","Exact","1070 S LA BREA AVE, LOS ANGELES, CA, 90019",141600185,"L"
15792,"1070 SONOMA LANE","AURORA","IL",60502,41.818155533,-88.289830455,292,"1070 SONOMA LANE, AURORA, IL, 60502","Match","Exact","1070 SONOMA LN, AURORA, IL, 60502",119547840,"L"
15793,"1070 SOUTH BEDFORD APT 304","LOS ANGELES","CA",90035,NA,NA,293,"1070 SOUTH BEDFORD APT 304, LOS ANGELES, CA, 90035","Tie",NA,NA,NA,NA
15794,"1070 STATLER RD","COLUMBIA","SC",29210,34.036992169,-81.095110828,294,"1070 STATLER RD, COLUMBIA, SC, 29210","Match","Exact","1070 STATLER RD, COLUMBIA, SC, 29210",604797358,"R"
15795,"1070 SW 19TH ST","BOCA RATON","FL",33486,26.331186689,-80.106758242,295,"1070 SW 19TH ST, BOCA RATON, FL, 33486","Match","Exact","1070 SW 19TH ST, BOCA RATON, FL, 33486",115302831,"L"
15796,"1070 SYBILLE CREEK RD","WHEATLAND","WY",82201,41.934715065,-105.059974889,296,"1070 SYBILLE CREEK RD, WHEATLAND, WY, 82201","Match","Exact","1070 SYBILLE CREEK RD, WHEATLAND, WY, 82201",606895967,"L"
15797,"1070 TUNNEL ROAD STE 10 275","ASHEVILLE","NC",28805,35.5873824,-82.491898243,297,"1070 TUNNEL ROAD STE 10 275, ASHEVILLE, NC, 28805","Match","Exact","1070 TUNNEL RD, ASHEVILLE, NC, 28805",645367206,"L"
15798,"1070 U AVE","NEVADA","IA",50201,42.0309069470001,-93.445062316,298,"1070 U AVE, NEVADA, IA, 50201","Match","Exact","1070 U AVE, NEVADA, IA, 50201",65943229,"L"
15799,"1070 VENTURACCI LN","FALLON","NV",89406,39.4911868190001,-118.785627337,299,"1070 VENTURACCI LN, FALLON, NV, 89406","Match","Exact","1070 VENTURACCI LN, FALLON, NV, 89406",139979375,"R"
15800,"1070 VIRGINIA AVE","GRANDVIEW HEIGHTS","OH",43212,39.980514527,-83.0375632659999,300,"1070 VIRGINIA AVE, GRANDVIEW HEIGHTS, OH, 43212","Match","Exact","1070 VIRGINIA AVE, GRANDVIEW HEIGHTS, OH, 43212",218689423,"R"
15801,"1070 VISTA POINTE CIR","SAN RAMON","CA",94582,37.7726105410001,-121.948728329,301,"1070 VISTA POINTE CIR, SAN RAMON, CA, 94582","Match","Exact","1070 VISTA POINTE CIR, SAN RAMON, CA, 94582",192093517,"L"
15802,"1070 VZ CR 4917","BEN WHEELER","TX",75754,NA,NA,302,"1070 VZ CR 4917, BEN WHEELER, TX, 75754","No_Match",NA,NA,NA,NA
15803,"1070 W HORIZON RIDGE PKWY STE 111","HENDERSON","NV",89012,36.021932958,-115.031849909,303,"1070 W HORIZON RIDGE PKWY STE 111, HENDERSON, NV, 89012","Match","Non_Exact","1070 W HORIZON RIDGE PKWY, HENDERSON, NV, 89012",624581706,"L"
15804,"1070 W HORIZON RIDGE ST 111","HENDERSON","NV",89002,NA,NA,304,"1070 W HORIZON RIDGE ST 111, HENDERSON, NV, 89002","No_Match",NA,NA,NA,NA
15805,"1070 W HORIZON RIDGE ST 111","HENDERSON","NV",89012,NA,NA,305,"1070 W HORIZON RIDGE ST 111, HENDERSON, NV, 89012","No_Match",NA,NA,NA,NA
15806,"1070 W HORIZON RIDGE STE 111","HENDERSON","NV",89005,NA,NA,306,"1070 W HORIZON RIDGE STE 111, HENDERSON, NV, 89005","No_Match",NA,NA,NA,NA
15807,"1070 W HORIZON RIDGE STE 111","HENDERSON","NV",89012,NA,NA,307,"1070 W HORIZON RIDGE STE 111, HENDERSON, NV, 89012","No_Match",NA,NA,NA,NA
15808,"1070 W HORIZON RIDGE STE 111","HENDERSON","NV",89148,NA,NA,308,"1070 W HORIZON RIDGE STE 111, HENDERSON, NV, 89148","No_Match",NA,NA,NA,NA
15809,"1070 YELLOWSTONE ROAD","CLEVELAND HEIGHTS","OH",44121,41.531160216,-81.549660941,309,"1070 YELLOWSTONE ROAD, CLEVELAND HEIGHTS, OH, 44121","Match","Exact","1070 YELLOWSTONE RD, CLEVELAND HEIGHTS, OH, 44121",61124164,"R"
15810,"10700 BAILEY DRIVE 10700 BAILEY DR","CHELTENHAM","MD",20623,38.7417835630001,-76.8213769239999,310,"10700 BAILEY DRIVE 10700 BAILEY DR, CHELTENHAM, MD, 20623","Match","Exact","10700 BAILEY DR, CHELTENHAM, MD, 20623",76331270,"L"
15811,"10700 BEACH BLVD UNIT 19424","JACKSONVILLE","FL",32246,30.2867658420001,-81.53874709,311,"10700 BEACH BLVD UNIT 19424, JACKSONVILLE, FL, 32246","Match","Exact","10700 BEACH BLVD, JACKSONVILLE, FL, 32246",83989468,"R"
15812,"10700 BROOKWOOD AVE","UPPR MARLBORO","MD",20772,38.7612908190001,-76.8297222479999,312,"10700 BROOKWOOD AVE, UPPR MARLBORO, MD, 20772","Match","Exact","10700 BROOKWOOD AVE, UPPR MARLBORO, MD, 20772",76321432,"L"
15813,"10700 CITY CENTER BLVD APT 1105","PEMBROKE PINES","FL",33025,NA,NA,313,"10700 CITY CENTER BLVD APT 1105, PEMBROKE PINES, FL, 33025","No_Match",NA,NA,NA,NA
15814,"10700 CITY CENTER BLVD SUITE 5245","PEMBROKE PINES","FL",33025,NA,NA,314,"10700 CITY CENTER BLVD SUITE 5245, PEMBROKE PINES, FL, 33025","No_Match",NA,NA,NA,NA
15815,"10700 E EVANS AVE","AURORA","CO",80014,39.678393412,-104.863618189,315,"10700 E EVANS AVE, AURORA, CO, 80014","Match","Exact","10700 E EVANS AVE, AURORA, CO, 80014",177344378,"R"
15816,"10700 HAMPSHIRE AVE S 320","BLOOMINGTON","MN",55438,44.809808176,-93.368490728,316,"10700 HAMPSHIRE AVE S 320, BLOOMINGTON, MN, 55438","Match","Exact","10700 HAMPSHIRE AVE S, BLOOMINGTON, MN, 55438",640652384,"R"
15817,"10700 LEEWARD LANE","KNOXVILLE","TN",37934,35.88856164,-84.133603799,317,"10700 LEEWARD LANE, KNOXVILLE, TN, 37934","Match","Exact","10700 LEEWARD LN, KNOXVILLE, TN, 37934",42610859,"L"
15818,"10700 LEGACY DR","FRISCO","TX",75034,33.1669579410001,-96.8489843139999,318,"10700 LEGACY DR, FRISCO, TX, 75034","Match","Non_Exact","10700 LEGACY DR, FRISCO, TX, 75033",615064932,"R"
15819,"10700 LEGACY DRIVE","FRISCO","TX",75033,33.1669579410001,-96.8489843139999,319,"10700 LEGACY DRIVE, FRISCO, TX, 75033","Match","Exact","10700 LEGACY DR, FRISCO, TX, 75033",615064932,"R"
15820,"10700 MCMICHAEL LN SW","ALBUQUERQUE","NM",87121,35.030624296,-106.749557869,320,"10700 MCMICHAEL LN SW, ALBUQUERQUE, NM, 87121","Match","Exact","10700 MCMICHAEL LN SW, ALBUQUERQUE, NM, 87121",636710676,"L"
15821,"10700 N 85TH AVENUE UNIT 2131","PEORIA","AZ",85385,NA,NA,321,"10700 N 85TH AVENUE UNIT 2131, PEORIA, AZ, 85385","No_Match",NA,NA,NA,NA
15822,"10700 N RODNEY PARHAM RD SUITE C-6A","LITTLE ROCK","AR",72212,34.7701604260001,-92.392837195,322,"10700 N RODNEY PARHAM RD SUITE C-6A, LITTLE ROCK, AR, 72212","Match","Non_Exact","10700 N RODNEY PARHAM RD, LITTLE ROCK, AR, 72212",83500235,"R"
15823,"10700 RED BARN LANE","POTOMAC","HI",20854,NA,NA,323,"10700 RED BARN LANE, POTOMAC, HI, 20854","No_Match",NA,NA,NA,NA
15824,"10700 RICHMOND AVE SUITE 107","HOUSTON","TX",77042,29.7277998000001,-95.563300172,324,"10700 RICHMOND AVE SUITE 107, HOUSTON, TX, 77042","Match","Exact","10700 RICHMOND AVE, HOUSTON, TX, 77042",96613234,"R"
15825,"10700 RICHMOND AVE SUITE 143","HOUSTON","TX",77042,29.7277998000001,-95.563300172,325,"10700 RICHMOND AVE SUITE 143, HOUSTON, TX, 77042","Match","Exact","10700 RICHMOND AVE, HOUSTON, TX, 77042",96613234,"R"
15826,"10700 RICHMOND AVENUE SUITE 143","HOUSTON","TX",77042,29.7277998000001,-95.563300172,326,"10700 RICHMOND AVENUE SUITE 143, HOUSTON, TX, 77042","Match","Exact","10700 RICHMOND AVE, HOUSTON, TX, 77042",96613234,"R"
15827,"10700 RICHMOND AVENUE SUITE 265","HOUSTON","TX",77042,29.7277998000001,-95.563300172,327,"10700 RICHMOND AVENUE SUITE 265, HOUSTON, TX, 77042","Match","Exact","10700 RICHMOND AVE, HOUSTON, TX, 77042",96613234,"R"
15828,"10700 ROBERT LN","CHAGRIN FALLS","OH",44023,41.39300848,-81.258635403,328,"10700 ROBERT LN, CHAGRIN FALLS, OH, 44023","Match","Exact","10700 ROBERT LN, CHAGRIN FALLS, OH, 44023",137440651,"L"
15829,"10700 S 120TH ST","BENNET","NE",68317,40.7050007010001,-96.558823395,329,"10700 S 120TH ST, BENNET, NE, 68317","Match","Exact","10700 S 120TH ST, BENNET, NE, 68317",640632563,"L"
15830,"10700 SILVER LINDEN CT","CLINTON","MD",20735,38.742675676,-76.88975592,330,"10700 SILVER LINDEN CT, CLINTON, MD, 20735","Match","Exact","10700 SILVER LINDEN CT, CLINTON, MD, 20735",624427951,"L"
15831,"10700 STAPLES MILL RD","GLEN ALLEN","VA",23060,37.667999867,-77.532701861,331,"10700 STAPLES MILL RD, GLEN ALLEN, VA, 23060","Match","Exact","10700 STAPLES MILL RD, GLEN ALLEN, VA, 23060",106690859,"L"
15832,"10700 STATE ROAD 70 EAST","OKEECHOBEE","FL",34972,NA,NA,332,"10700 STATE ROAD 70 EAST, OKEECHOBEE, FL, 34972","No_Match",NA,NA,NA,NA
15833,"10701 AYRSHIRE DRIVE","TAMPA","FL",33626,28.0564870360001,-82.616243902,333,"10701 AYRSHIRE DRIVE, TAMPA, FL, 33626","Match","Exact","10701 AYRSHIRE DR, TAMPA, FL, 33626",104619365,"L"
15834,"10701 BASELINE ROAD","LITTLE ROCK","AR",72209,34.6706010770001,-92.394968482,334,"10701 BASELINE ROAD, LITTLE ROCK, AR, 72209","Match","Exact","10701 BASELINE RD, LITTLE ROCK, AR, 72209",83559353,"L"
15835,"10701 BOWER AVENUE","WILLIAMSPORT","MD",21795,39.609080534,-77.773471246,335,"10701 BOWER AVENUE, WILLIAMSPORT, MD, 21795","Match","Exact","10701 BOWER AVE, WILLIAMSPORT, MD, 21795",647264352,"R"
15836,"10701 CASTLETON TURN","UPPR MARLBORO","MD",20774,38.891017746,-76.819579738,336,"10701 CASTLETON TURN, UPPR MARLBORO, MD, 20774","Match","Exact","10701 CASTLETON TURN, UPPR MARLBORO, MD, 20774",635445776,"L"
15837,"10701 CORPORATE DRIVE STE 340-104","STAFFORD","TX",77477,29.6330831600001,-95.594138236,337,"10701 CORPORATE DRIVE STE 340-104, STAFFORD, TX, 77477","Match","Exact","10701 CORPORATE DR, STAFFORD, TX, 77477",78329928,"R"
15838,"10701 CR 1200","MALAKOFF","TX",75148,32.0874216,-95.964056713,338,"10701 CR 1200, MALAKOFF, TX, 75148","Match","Exact","10701 CO RD 1200, MALAKOFF, TX, 75148",125828636,"R"
15839,"10701 HAMILTON AVENUE SUITE 190","TORRANCE","CA",90502,NA,NA,339,"10701 HAMILTON AVENUE SUITE 190, TORRANCE, CA, 90502","No_Match",NA,NA,NA,NA
15840,"10701 JACKSON AVE","LYNWOOD","CA",90262,33.934411583,-118.18888064,340,"10701 JACKSON AVE, LYNWOOD, CA, 90262","Match","Exact","10701 JACKSON AVE, LYNWOOD, CA, 90262",141678918,"R"
15841,"10701 MANY OAKS DR","FORT WORTH","TX",76140,32.601442213,-97.2930629859999,341,"10701 MANY OAKS DR, FORT WORTH, TX, 76140","Match","Exact","10701 MANY OAKS DR, FORT WORTH, TX, 76140",102120413,"L"
15842,"10701 S EASTERN AVE APT1626","HENDERSON","NV",89052,35.998284491,-115.103589545,342,"10701 S EASTERN AVE APT1626, HENDERSON, NV, 89052","Match","Non_Exact","10701 S EASTERN AVE, HENDERSON, NV, 89052",201991629,"R"
15843,"10701 S EASTERN SUITE 914","HENDERSON","NV",89052,NA,NA,343,"10701 S EASTERN SUITE 914, HENDERSON, NV, 89052","No_Match",NA,NA,NA,NA
15844,"10701 S INTERSTATE 35 APT 411","AUSTIN","TX",78747,NA,NA,344,"10701 S INTERSTATE 35 APT 411, AUSTIN, TX, 78747","No_Match",NA,NA,NA,NA
15845,"10701 SPRING RUN ROAD","CHESTERFIELD","VA",23832,37.3632709290001,-77.594375468,345,"10701 SPRING RUN ROAD, CHESTERFIELD, VA, 23832","Match","Exact","10701 SPRING RUN RD, CHESTERFIELD, VA, 23832",201578533,"R"
15846,"10701 SW 216TH STREET","MIAMI","FL",33170,25.5664661660001,-80.364229053,346,"10701 SW 216TH STREET, MIAMI, FL, 33170","Match","Exact","10701 SW 216TH ST, MIAMI, FL, 33170",115995131,"R"
15847,"10701 TWILIGHT VISTA","AUSTIN","TX",78736,30.2350468450001,-97.941305788,347,"10701 TWILIGHT VISTA, AUSTIN, TX, 78736","Match","Exact","10701 TWILIGHT VIS, AUSTIN, TX, 78736",63978454,"L"
15848,"10701 UNIVERSITY AVE","LUBBOCK","TX",79423,33.497280388,-101.870304391,348,"10701 UNIVERSITY AVE, LUBBOCK, TX, 79423","Match","Exact","10701 UNIVERSITY AVE, LUBBOCK, TX, 79423",185332187,"R"
15849,"10701 WILLOW DRIVE","NEW ORLEANS","IA",70131,NA,NA,349,"10701 WILLOW DRIVE, NEW ORLEANS, IA, 70131","No_Match",NA,NA,NA,NA
15850,"10702 AKRON AVE","LUBBOCK","TX",79423,33.496963308,-101.873304874,350,"10702 AKRON AVE, LUBBOCK, TX, 79423","Match","Exact","10702 AKRON AVE, LUBBOCK, TX, 79423",185310875,"R"
15851,"10702 ALICANTE WAY","RANCHO CORDOVA","CA",95670,38.596807384,-121.289266851,351,"10702 ALICANTE WAY, RANCHO CORDOVA, CA, 95670","Match","Exact","10702 ALICANTE WAY, RANCHO CORDOVA, CA, 95670",133348949,"R"
15852,"10702 BALLANTINE STREET","HOUSTON","TX",77075,29.6101177210001,-95.2776543369999,352,"10702 BALLANTINE STREET, HOUSTON, TX, 77075","Match","Exact","10702 BALLANTINE ST, HOUSTON, TX, 77075",644872855,"R"
15853,"10702 BIG PINEY DR","OMAHA","AR",72662,36.4163918840001,-93.211485535,353,"10702 BIG PINEY DR, OMAHA, AR, 72662","Match","Exact","10702 BIG PINEY DR, OMAHA, AR, 72662",627481768,"L"
15854,"10702 EAST BOUNDARY ROAD","ELK","WA",99009,48.046195589,-117.270846166,354,"10702 EAST BOUNDARY ROAD, ELK, WA, 99009","Match","Exact","10702 E BOUNDARY RD, ELK, WA, 99009",169919284,"L"
15855,"10702 GLENWILD ROAD","SILVER SPRING","MD",20901,39.0307910010001,-77.01080037,355,"10702 GLENWILD ROAD, SILVER SPRING, MD, 20901","Match","Exact","10702 GLENWILD RD, SILVER SPRING, MD, 20901",642722836,"L"
15856,"10702 NORMAN AVENUE","FAIRFAX","VA",22030,38.8642356450001,-77.314994139,356,"10702 NORMAN AVENUE, FAIRFAX, VA, 22030","Match","Exact","10702 NORMAN AVE, FAIRFAX, VA, 22030",75966007,"R"
15857,"10702 NW 77TH ST","MEDLEY","FL",33178,NA,NA,357,"10702 NW 77TH ST, MEDLEY, FL, 33178","No_Match",NA,NA,NA,NA
15858,"10702 W 17 MILE RD","RUDYARD","MI",49780,46.2595852380001,-84.585903921,358,"10702 W 17 MILE RD, RUDYARD, MI, 49780","Match","Exact","10702 W 17 MILE RD, RUDYARD, MI, 49780",130565834,"L"
15859,"10702 WARREN DRIVE","LITTLE ROCK","AR",72209,34.652651834,-92.354238808,359,"10702 WARREN DRIVE, LITTLE ROCK, AR, 72209","Match","Exact","10702 WARREN DR, LITTLE ROCK, AR, 72209",83513127,"R"
15860,"10703 BLOSSOM LANE","SILVER SPRING","MD",20903,39.0309281190001,-76.9865664879999,360,"10703 BLOSSOM LANE, SILVER SPRING, MD, 20903","Match","Exact","10703 BLOSSOM LN, SILVER SPRING, MD, 20903",62073601,"R"
15861,"10703 BLOSSOM LN","SILVER SPRING","MD",20903,39.0309281190001,-76.9865664879999,361,"10703 BLOSSOM LN, SILVER SPRING, MD, 20903","Match","Exact","10703 BLOSSOM LN, SILVER SPRING, MD, 20903",62073601,"R"
15862,"10703 COGSWELL PL","FAIRFAX STATION","VA",22039,38.7668956140001,-77.317402438,362,"10703 COGSWELL PL, FAIRFAX STATION, VA, 22039","Match","Exact","10703 COGSWELL PL, FAIRFAX STATION, VA, 22039",75967794,"L"
15863,"10703 GAYTON RD","HENRICO","VA",23238,37.6091893550001,-77.610155372,363,"10703 GAYTON RD, HENRICO, VA, 23238","Match","Exact","10703 GAYTON RD, HENRICO, VA, 23238",106675210,"L"
15864,"10703 MAPLE STREET","FAIRFAX","VA",22030,38.8436136970001,-77.315719053,364,"10703 MAPLE STREET, FAIRFAX, VA, 22030","Match","Exact","10703 MAPLE ST, FAIRFAX, VA, 22030",75966622,"L"
15865,"10703 N MACARTHUR BLVD APT 306","IRVING","TX",75063,32.948485163,-96.957171619,365,"10703 N MACARTHUR BLVD APT 306, IRVING, TX, 75063","Match","Non_Exact","10703 N MACARTHUR BLVD, IRVING, TX, 75063",103209195,"R"
15866,"10703 REGENT SQUARE DRIVE","ORLANDO","FL",32825,28.541837571,-81.2410747709999,366,"10703 REGENT SQUARE DRIVE, ORLANDO, FL, 32825","Match","Exact","10703 REGENT SQUARE DR, ORLANDO, FL, 32825",646569898,"L"
15867,"10703 SILVER SHIELD WAY","TOMBALL","TX",77375,NA,NA,367,"10703 SILVER SHIELD WAY, TOMBALL, TX, 77375","No_Match",NA,NA,NA,NA
15868,"10703 STONER DRIVE","FREDERICKSBURG","VA",22408,38.2505521100001,-77.494868923,368,"10703 STONER DRIVE, FREDERICKSBURG, VA, 22408","Match","Exact","10703 STONER DR, FREDERICKSBURG, VA, 22408",641114902,"R"
15869,"10703 TEMPO LAKE DR SE","OLYMPIA","WA",98513,46.9323121150001,-122.803743802,369,"10703 TEMPO LAKE DR SE, OLYMPIA, WA, 98513","Match","Exact","10703 TEMPO LAKE DR SE, OLYMPIA, WA, 98513",180955901,"L"
15870,"10703 W GRETNA ROAD","SANDY LEVEL","VA",24161,36.956270928,-79.538765699,370,"10703 W GRETNA ROAD, SANDY LEVEL, VA, 24161","Match","Exact","10703 W GRETNA RD, SANDY LEVEL, VA, 24161",56627592,"R"
15871,"10703 WEST RD","HARRISON","OH",45030,39.246468554,-84.7963840579999,371,"10703 WEST RD, HARRISON, OH, 45030","Match","Exact","10703 WEST RD, HARRISON, OH, 45030",103949384,"L"
15872,"10703 WINCHELSEA DR","AUSTIN","TX",78750,30.4371156,-97.812996278,372,"10703 WINCHELSEA DR, AUSTIN, TX, 78750","Match","Exact","10703 WINCHELSEA DR, AUSTIN, TX, 78750",63980431,"L"
15873,"10704 COURTHOUSE ROAD STE 200","FREDERICKSBURG","VA",22407,38.2481975170001,-77.512053376,373,"10704 COURTHOUSE ROAD STE 200, FREDERICKSBURG, VA, 22407","Match","Exact","10704 COURTHOUSE RD, FREDERICKSBURG, VA, 22407",85018070,"L"
15874,"10704 KESWICK ST","GARRETT PARK","MD",20896,39.031314858,-77.090736412,374,"10704 KESWICK ST, GARRETT PARK, MD, 20896","Match","Exact","10704 KESWICK ST, GARRETT PARK, MD, 20896",62061436,"L"
15875,"10704 LAKE RALPH DRIVE","CLERMONT","FL",34711,28.5039743230001,-81.764185173,375,"10704 LAKE RALPH DRIVE, CLERMONT, FL, 34711","Match","Exact","10704 LAKE RALPH DR, CLERMONT, FL, 34711",94161145,"R"
15876,"10704 NASHVILLE DRIVE","FRISCO","TX",75035,33.1166478310001,-96.786477154,376,"10704 NASHVILLE DRIVE, FRISCO, TX, 75035","Match","Exact","10704 NASHVILLE DR, FRISCO, TX, 75035",123527454,"L"
15877,"10704 PALMYRA CIRCLE","INDIANAPOLIS","IN",46239,39.7659982810001,-85.977212605,377,"10704 PALMYRA CIRCLE, INDIANAPOLIS, IN, 46239","Match","Exact","10704 PALMYRA CIR, INDIANAPOLIS, IN, 46239",108030383,"L"
15878,"10704 SOUTH 212TH STREET","GRETNA","NE",68028,41.1526331410001,-96.249002283,378,"10704 SOUTH 212TH STREET, GRETNA, NE, 68028","Match","Exact","10704 S 212TH ST, GRETNA, NE, 68028",624437006,"L"
15879,"10704 SOUTH STONE GATE CIRCLE","SANDY","UT",84092,40.556952961,-111.827867407,379,"10704 SOUTH STONE GATE CIRCLE, SANDY, UT, 84092","Match","Non_Exact","10704 STONE GATE CIR, SANDY, UT, 84092",176149731,"L"
15880,"10704 TIMBERLANE AVENUE","BATON ROUGE","LA",70811,30.5458285990001,-91.119067968,380,"10704 TIMBERLANE AVENUE, BATON ROUGE, LA, 70811","Match","Exact","10704 TIMBERLANE AVE, BATON ROUGE, LA, 70811",92186405,"R"
15881,"10705 ANGLO HILL RD","COCKEYSVILLE","MD",21030,39.4784503490001,-76.6048166479999,381,"10705 ANGLO HILL RD, COCKEYSVILLE, MD, 21030","Match","Exact","10705 ANGLO HILL RD, COCKEYSVILLE, MD, 21030",191470275,"R"
15882,"10705 COTTER STREET","OAKLAND","CA",94605,37.7559137470001,-122.123792444,382,"10705 COTTER STREET, OAKLAND, CA, 94605","Match","Exact","10705 COTTER ST, OAKLAND, CA, 94605",125011838,"R"
15883,"10705 FRANCIS DRIVE","SILVER SPRING","MD",20902,39.0311597260001,-77.039416508,383,"10705 FRANCIS DRIVE, SILVER SPRING, MD, 20902","Match","Exact","10705 FRANCIS DR, SILVER SPRING, MD, 20902",62064261,"R"
15884,"10705 HEATHERLEIGH DRIVE","CHELTENHAM","MD",20623,38.7427468170001,-76.8235668409999,384,"10705 HEATHERLEIGH DRIVE, CHELTENHAM, MD, 20623","Match","Exact","10705 HEATHERLEIGH DR, CHELTENHAM, MD, 20623",76385604,"L"
15885,"10705 LAUREL VISTA WAY","TAMPA","FL",33647,28.165374897,-82.305015012,385,"10705 LAUREL VISTA WAY, TAMPA, FL, 33647","Match","Non_Exact","10705 LAUREL VISTA DR, TAMPA, FL, 33647",641602769,"R"
15886,"10705 NORTHGATE ST","CULVER CITY","CA",90230,34.0007113340001,-118.387893505,386,"10705 NORTHGATE ST, CULVER CITY, CA, 90230","Match","Exact","10705 NORTHGATE ST, CULVER CITY, CA, 90230",142720245,"R"
15887,"10705 PINTAIL PLACE","JONESBORO","GA",30238,33.4613650960001,-84.338691279,387,"10705 PINTAIL PLACE, JONESBORO, GA, 30238","Match","Exact","10705 PINTAIL PL, JONESBORO, GA, 30238",23318415,"R"
15888,"10705 S STATE HWY 34","SCURRY","TX",75158,32.493323398,-96.4049835769999,388,"10705 S STATE HWY 34, SCURRY, TX, 75158","Match","Exact","10705 STATE HWY 34, SCURRY, TX, 75158",123756762,"R"
15889,"10705 TORRANCE DRIVE","SILVER SPRING","MD",20902,39.031696358,-77.052858649,389,"10705 TORRANCE DRIVE, SILVER SPRING, MD, 20902","Match","Exact","10705 TORRANCE DR, SILVER SPRING, MD, 20902",62063903,"R"
15890,"10706 227TH AVE E","BUCKLEY","WA",98321,NA,NA,390,"10706 227TH AVE E, BUCKLEY, WA, 98321","No_Match",NA,NA,NA,NA
15891,"10706 E 76TH ST","TULSA","OK",74133,36.0540487700001,-95.856610342,391,"10706 E 76TH ST, TULSA, OK, 74133","Match","Exact","10706 E 76TH ST, TULSA, OK, 74133",166489421,"R"
15892,"10706 MORGAN CREEK DR","CHARLOTTE","NC",28273,35.1447761380001,-80.9750988229999,392,"10706 MORGAN CREEK DR, CHARLOTTE, NC, 28273","Match","Exact","10706 MORGAN CREEK DR, CHARLOTTE, NC, 28273",618151310,"R"
15893,"10707 192ND ST CT E","GRAHAM","WA",98338,47.0814291070001,-122.285677901,393,"10707 192ND ST CT E, GRAHAM, WA, 98338","Match","Exact","10707 192ND STREET CT E, GRAHAM, WA, 98338",184696318,"L"
15894,"10707 BESSIE HEIGHTS RD","ORANGE","TX",77630,30.0509481130001,-93.910746837,394,"10707 BESSIE HEIGHTS RD, ORANGE, TX, 77630","Match","Exact","10707 BESSIE HEIGHTS RD, ORANGE, TX, 77630",74020029,"L"
15895,"10707 BUSINESS 21","HILLSBORO","MO",63050,NA,NA,395,"10707 BUSINESS 21, HILLSBORO, MO, 63050","No_Match",NA,NA,NA,NA
15896,"10707 CAMARILLO STREET APT 102","TOLUCA LAKE","CA",91602,34.157663945,-118.363950977,396,"10707 CAMARILLO STREET APT 102, TOLUCA LAKE, CA, 91602","Match","Exact","10707 CAMARILLO ST, TOLUCA LAKE, CA, 91602",141591904,"R"
15897,"10707 CECILIA STREET","DOWNEY","CA",90241,33.932019628,-118.10452609,397,"10707 CECILIA STREET, DOWNEY, CA, 90241","Match","Exact","10707 CECILIA ST, DOWNEY, CA, 90241",141740102,"L"
15898,"10707 INDUSTRIPLEX BLVD APT 2","BATON ROUGE","LA",70809,30.3911240630001,-91.0657713369999,398,"10707 INDUSTRIPLEX BLVD APT 2, BATON ROUGE, LA, 70809","Match","Exact","10707 INDUSTRIPLEX BLVD, BATON ROUGE, LA, 70809",606201112,"R"
15899,"10707 MASON ROAD","CYPRESS","TX",77433,NA,NA,399,"10707 MASON ROAD, CYPRESS, TX, 77433","No_Match",NA,NA,NA,NA
15900,"10707 MOORPARK ST","NORTH HOLLYWOOD","CA",91602,34.1503793810001,-118.363922015,400,"10707 MOORPARK ST, NORTH HOLLYWOOD, CA, 91602","Match","Exact","10707 MOORPARK ST, N HOLLYWOOD, CA, 91602",141591923,"R"
15901,"10707 NIXON ROAD","TAMPA","FL",33624,28.0548608390001,-82.532536576,401,"10707 NIXON ROAD, TAMPA, FL, 33624","Match","Exact","10707 NIXON RD, TAMPA, FL, 33624",104628574,"L"
15902,"10707 OLD BLUE LN","SAN ANTONIO","TX",78230,29.538874031,-98.5485708579999,402,"10707 OLD BLUE LN, SAN ANTONIO, TX, 78230","Match","Exact","10707 OLD BLUE LN, SAN ANTONIO, TX, 78230",101569592,"L"
15903,"10707 S GESSNER RD","HOUSTON","TX",77071,29.664358683,-95.5280890399999,403,"10707 S GESSNER RD, HOUSTON, TX, 77071","Match","Non_Exact","10707 S GESSNER DR, HOUSTON, TX, 77071",96130122,"R"
15904,"10707 W 162ND ST","OVERLAND PARK","KS",66221,38.836974701,-94.7099985249999,404,"10707 W 162ND ST, OVERLAND PARK, KS, 66221","Match","Exact","10707 W 162ND ST, OVERLAND PARK, KS, 66221",648742453,"R"
15905,"10708 ALLIANCE DRIVE","ST. LOUIS","MO",63136,38.7670432670001,-90.273085556,405,"10708 ALLIANCE DRIVE, ST. LOUIS, MO, 63136","Match","Exact","10708 ALLIANCE DR, SAINT LOUIS, MO, 63136",100145649,"R"
15906,"10708 E 43RD ST","KANSAS CITY","MO",64133,39.0444432100001,-94.454386568,406,"10708 E 43RD ST, KANSAS CITY, MO, 64133","Match","Exact","10708 E 43RD ST, KANSAS CITY, MO, 64133",91527299,"L"
15907,"10708 HWY AA","NEOSHO","MO",64850,NA,NA,407,"10708 HWY AA, NEOSHO, MO, 64850","No_Match",NA,NA,NA,NA
15908,"10708 INSIDE LOOP","ORLANDO","FL",32825,28.5275646700001,-81.236719541,408,"10708 INSIDE LOOP, ORLANDO, FL, 32825","Match","Exact","10708 INSIDE LOOP, ORLANDO, FL, 32825",94340679,"R"
15909,"10708 N SR 5","LIGONIER","IN",46767,41.5053004480001,-85.577771223,409,"10708 N SR 5, LIGONIER, IN, 46767","Match","Exact","10708 STATE RD 5, LIGONIER, IN, 46767",6577704,"R"
15910,"10708 NORTHGATE STREET","CULVER CITY","CA",90230,34.0007024880001,-118.387909711,410,"10708 NORTHGATE STREET, CULVER CITY, CA, 90230","Match","Exact","10708 NORTHGATE ST, CULVER CITY, CA, 90230",142720245,"L"
15911,"10708 NW 38TH STREET","YUKON","OK",73099,35.5091125180001,-97.709332895,411,"10708 NW 38TH STREET, YUKON, OK, 73099","Match","Non_Exact","10708 NW 38TH TER, YUKON, OK, 73099",92566349,"L"
15912,"10708 S VINCENNES AVE","CHICAGO","IL",60643,41.699173989,-87.6588437569999,412,"10708 S VINCENNES AVE, CHICAGO, IL, 60643","Match","Exact","10708 S VINCENNES AVE, CHICAGO, IL, 60643",616786086,"R"
15913,"10708 W 129TH ST","OVERLAND PARK","KS",66213,38.892498602,-94.709962121,413,"10708 W 129TH ST, OVERLAND PARK, KS, 66213","Match","Exact","10708 W 129TH ST, OVERLAND PARK, KS, 66213",91305136,"L"
15914,"10708 WATER OAKS DR","DALLAS","TX",75201,32.751372991,-96.643054094,414,"10708 WATER OAKS DR, DALLAS, TX, 75201","Match","Non_Exact","10708 WATER OAKS DR, DALLAS, TX, 75227",102972080,"R"
15915,"10709 BEGONIA LN","BOWIE","MD",20720,38.9489159170001,-76.8220338849999,415,"10709 BEGONIA LN, BOWIE, MD, 20720","Match","Exact","10709 BEGONIA LN, BOWIE, MD, 20720",76416063,"L"
15916,"10709 CARROL LANE","NORTHGLENN","CO",80233,39.89113165,-104.981080953,416,"10709 CARROL LANE, NORTHGLENN, CO, 80233","Match","Exact","10709 CARROL LN, NORTHGLENN, CO, 80233",177295627,"L"
15917,"10709 DESERT LAWN DRIVE","CALIMESA","CA",92320,33.9655685540001,-117.031578068,417,"10709 DESERT LAWN DRIVE, CALIMESA, CA, 92320","Match","Exact","10709 DESERT LAWN DR, CALIMESA, CA, 92320",651055932,"R"
15918,"10709 GLENLUCE AVENUE","CHARLOTTE","NC",28213,35.3013030390001,-80.6823703759999,418,"10709 GLENLUCE AVENUE, CHARLOTTE, NC, 28213","Match","Exact","10709 GLENLUCE AVE, CHARLOTTE, NC, 28213",649738099,"L"
15919,"10709 LEAFWOOD LANE","AUSTIN","TX",78750,30.428944604,-97.797184642,419,"10709 LEAFWOOD LANE, AUSTIN, TX, 78750","Match","Exact","10709 LEAFWOOD LN, AUSTIN, TX, 78750",63924577,"R"
15920,"10709 N FLORA AVE","KANSAS CITY","MO",64155,39.2879007500001,-94.561050628,420,"10709 N FLORA AVE, KANSAS CITY, MO, 64155","Match","Exact","10709 N FLORA AVE, KANSAS CITY, MO, 64155",624906677,"R"
15921,"10709 NE 46TH ST","KIRKLAND","WA",98033,47.6513590860001,-122.197321513,421,"10709 NE 46TH ST, KIRKLAND, WA, 98033","Match","Exact","10709 NE 46TH ST, KIRKLAND, WA, 98033",186604672,"R"
15922,"10709 PERRIN CIRCLE","SPOTSYLVANIA","VA",22551,38.2654340120001,-77.70694593,422,"10709 PERRIN CIRCLE, SPOTSYLVANIA, VA, 22551","Match","Exact","10709 PERRIN CIR, SPOTSYLVANIA, VA, 22551",85017253,"L"
15923,"10709 PROMENADE TER","MCKINNEY","TX",75072,33.201475165,-96.7632438539999,423,"10709 PROMENADE TER, MCKINNEY, TX, 75072","Match","Exact","10709 PROMENADE TER, MCKINNEY, TX, 75072",648984551,"L"
15924,"10709 S AVE F","CHICAGO","IL",60617,41.7006241280001,-87.5304414299999,424,"10709 S AVE F, CHICAGO, IL, 60617","Match","Exact","10709 S AVE F, CHICAGO, IL, 60617",111782492,"L"
15925,"1071 55TH ST","BROOKLYN","NY",11219,40.634706732,-74.0006312799999,425,"1071 55TH ST, BROOKLYN, NY, 11219","Match","Exact","1071 55TH ST, BROOKLYN, NY, 11219",59094949,"L"
15926,"1071 BELL AVE","SACRAMENTO","CA",95838,38.6474851300001,-121.441466789,426,"1071 BELL AVE, SACRAMENTO, CA, 95838","Match","Exact","1071 BELL AVE, SACRAMENTO, CA, 95838",133329505,"L"
15927,"1071 BERKSHIRE E","DEERFIELD BEACH","FL",33442,26.3109500910001,-80.131938546,427,"1071 BERKSHIRE E, DEERFIELD BEACH, FL, 33442","Match","Exact","1071 BERKSHIRE E, DEERFIELD BEACH, FL, 33442",114788399,"R"
15928,"1071 CANDLELIGH BOULEVARD APT B21","BROOKSVILLE","FL",34601,NA,NA,428,"1071 CANDLELIGH BOULEVARD APT B21, BROOKSVILLE, FL, 34601","No_Match",NA,NA,NA,NA
15929,"1071 CHEYENNE TRAIL","WINTER SPRINGS","FL",32708,28.6980560060001,-81.2691665999999,429,"1071 CHEYENNE TRAIL, WINTER SPRINGS, FL, 32708","Match","Exact","1071 CHEYENNE TRL, WINTER SPRINGS, FL, 32708",651767853,"L"
15930,"1071 COUNTY ROAD 10 SUITE 210","SPRING LAKE PARK","MN",55432,45.123007623,-93.245506715,430,"1071 COUNTY ROAD 10 SUITE 210, SPRING LAKE PARK, MN, 55432","Match","Exact","1071 CO RD 10, SPRING LAKE PARK, MN, 55432",97544465,"R"
15931,"1071 DONEGAN ROAD  LOT 775","LARGO","FL",33771,NA,NA,431,"1071 DONEGAN ROAD  LOT 775, LARGO, FL, 33771","No_Match",NA,NA,NA,NA
15932,"1071 E 100 S UNIT C-4","SAINT GEORGE","UT",84770,NA,NA,432,"1071 E 100 S UNIT C-4, SAINT GEORGE, UT, 84770","No_Match",NA,NA,NA,NA
15933,"1071 EAST LANDIS AVENUE SUITE 3","VINELAND","NJ",8360,39.485365189,-75.008637499,433,"1071 EAST LANDIS AVENUE SUITE 3, VINELAND, NJ, 8360","Match","Exact","1071 E LANDIS AVE, VINELAND, NJ, 08360",174111125,"R"
15934,"1071 FAIRDELL DR","HUMMELSTOWN","PA",17036,40.234816918,-76.6955800549999,434,"1071 FAIRDELL DR, HUMMELSTOWN, PA, 17036","Match","Exact","1071 FAIRDELL DR, HUMMELSTOWN, PA, 17036",608429611,"R"
15935,"1071 GREENFIELD AVE","GREEN BAY","WI",54313,NA,NA,435,"1071 GREENFIELD AVE, GREEN BAY, WI, 54313","No_Match",NA,NA,NA,NA
15936,"1071 JOSHUA LANE","ALTAMONT","NY",12009,42.690954994,-74.0411063559999,436,"1071 JOSHUA LANE, ALTAMONT, NY, 12009","Match","Exact","1071 JOSHUA LN, ALTAMONT, NY, 12009",18364189,"R"
15937,"1071 LOWER PINDELL ROAD","LOTHIAN","MD",20711,38.7666945560001,-76.6726594529999,437,"1071 LOWER PINDELL ROAD, LOTHIAN, MD, 20711","Match","Exact","1071 LOWER PINDELL RD, LOTHIAN, MD, 20711",617905288,"L"
15938,"1071 NW 122ND TERR","PEMBROKE PINES","FL",33026,26.015751644,-80.3097264359999,438,"1071 NW 122ND TERR, PEMBROKE PINES, FL, 33026","Match","Exact","1071 NW 122ND TER, PEMBROKE PINES, FL, 33026",114770121,"L"
15939,"1071 OAK PLAINS ROAD","CLARKSVILLE","TN",37043,36.4329632610001,-87.164764594,439,"1071 OAK PLAINS ROAD, CLARKSVILLE, TN, 37043","Match","Exact","1071 OAK PLAINS RD, CLARKSVILLE, TN, 37043",645097259,"R"
15940,"1071 OXFORD ROAD","ATLANTA","GA",30306,33.7854041090001,-84.335526224,440,"1071 OXFORD ROAD, ATLANTA, GA, 30306","Match","Non_Exact","1071 OXFORD RD NE, ATLANTA, GA, 30306",23386604,"R"
15941,"1071 PARKVIEW BOULEVARD","PITTSBURGH","PA",15217,40.4220769080001,-79.912134707,441,"1071 PARKVIEW BOULEVARD, PITTSBURGH, PA, 15217","Match","Exact","1071 PARKVIEW BLVD, PITTSBURGH, PA, 15217",629095485,"R"
15942,"1071 POST ROAD EAST SUITE 201","WESTPORT","CT",6880,41.138970285,-73.327416377,442,"1071 POST ROAD EAST SUITE 201, WESTPORT, CT, 6880","Match","Exact","1071 POST RD E, WESTPORT, CT, 06880",3238893,"L"
15943,"1071 PRESIDENT AVE PO BOX 9412","FALL RIVER","MA",2720,41.7134742060001,-71.1376185079999,443,"1071 PRESIDENT AVE PO BOX 9412, FALL RIVER, MA, 2720","Match","Exact","1071 PRESIDENT AVE, FALL RIVER, MA, 02720",46794890,"R"
15944,"1071 ROUND TOP LANE","CASTLE ROCK","CO",80108,39.4469684740001,-104.867363588,444,"1071 ROUND TOP LANE, CASTLE ROCK, CO, 80108","Match","Exact","1071 ROUND TOP LN, CASTLE ROCK, CO, 80108",130793887,"L"
15945,"1071 S BROADWAY ST","FOREST CITY","NC",28043,35.3077700150001,-81.858568342,445,"1071 S BROADWAY ST, FOREST CITY, NC, 28043","Match","Exact","1071 S BROADWAY ST, FOREST CITY, NC, 28043",19390155,"R"
15946,"1071 S DEE ANN AVENUE","FRESNO","CA",93727,36.7284837170001,-119.667119497,446,"1071 S DEE ANN AVENUE, FRESNO, CA, 93727","Match","Exact","1071 S DEE ANN AVE, FRESNO, CA, 93727",627013850,"L"
15947,"1071 SAINT GALLEN AVE W","MOBILE","AL",36608,NA,NA,447,"1071 SAINT GALLEN AVE W, MOBILE, AL, 36608","No_Match",NA,NA,NA,NA
15948,"1071 SCARLETT LN","BAUXITE","AR",72011,34.5280081340001,-92.461281701,448,"1071 SCARLETT LN, BAUXITE, AR, 72011","Match","Exact","1071 SCARLETT LN, BAUXITE, AR, 72011",24224448,"R"
15949,"1071 SE BUTTONWOOD CIRCLE","STUART","FL",34997,27.12569474,-80.2398839589999,449,"1071 SE BUTTONWOOD CIRCLE, STUART, FL, 34997","Match","Exact","1071 BUTTONWOOD CIR, STUART, FL, 34997",120435405,"L"
15950,"1071 SOUTHERN ARTERY APT 203","QUINCY","MA",2169,42.24128711,-70.983850823,450,"1071 SOUTHERN ARTERY APT 203, QUINCY, MA, 2169","Match","Exact","1071 SOUTHERN ARTERY, QUINCY, MA, 02169",87296070,"R"
15951,"1071 STATE ROUTE 143","RAVENA","NY",12143,42.467669981,-73.8771806939999,451,"1071 STATE ROUTE 143, RAVENA, NY, 12143","Match","Exact","1071 STATE RTE 143, RAVENA, NY, 12143",18359448,"L"
15952,"1071 TURNER WARNELL RD","ARLINGTON","TX",76001,32.6139996250001,-97.155663666,452,"1071 TURNER WARNELL RD, ARLINGTON, TX, 76001","Match","Exact","1071 TURNER WARNELL RD, ARLINGTON, TX, 76001",618452364,"L"
15953,"1071 VICTORIA LANE NE","LELAND","NC",28451,34.2568919570001,-78.0258263329999,453,"1071 VICTORIA LANE NE, LELAND, NC, 28451","Match","Exact","1071 VICTORIA LN NE, LELAND, NC, 28451",627426044,"R"
15954,"1071 W 15TH ST UNIT 110","CHICAGO","IL",60608,41.8616517460001,-87.6531295729999,454,"1071 W 15TH ST UNIT 110, CHICAGO, IL, 60608","Match","Non_Exact","1071 W 15TH ST, CHICAGO, IL, 60608",111827405,"L"
15955,"1071 W ANTELOPE CREEK WAY","ORO VALLEY","AZ",85737,NA,NA,455,"1071 W ANTELOPE CREEK WAY, ORO VALLEY, AZ, 85737","Tie",NA,NA,NA,NA
15956,"1071 W KIRK PL","SAN ANTONIO","TX",78226,29.3979124690001,-98.5419092239999,456,"1071 W KIRK PL, SAN ANTONIO, TX, 78226","Match","Exact","1071 KIRK PL, SAN ANTONIO, TX, 78226",101685787,"R"
15957,"1071 WATERBIRD WAY","SANTA CLARA","CA",95051,37.345303313,-121.998667223,457,"1071 WATERBIRD WAY, SANTA CLARA, CA, 95051","Match","Exact","1071 WATERBIRD WAY, SANTA CLARA, CA, 95051",122898122,"L"
15958,"1071 WEST JAMAICA ROAD","JAMAICA","VT",5343,43.067395751,-72.8568824509999,458,"1071 WEST JAMAICA ROAD, JAMAICA, VT, 5343","Match","Exact","1071 W JAMAICA RD, JAMAICA, VT, 05343",171099702,"L"
15959,"1071 WYNN CIRCLE","LIVERMORE","CA",94550,37.6817417080001,-121.736604398,459,"1071 WYNN CIRCLE, LIVERMORE, CA, 94550","Match","Exact","1071 WYNN CIR, LIVERMORE, CA, 94550",125064409,"R"
15960,"1071 XAVIER","FLORENCE","KS",66851,38.2220168530001,-96.931962782,460,"1071 XAVIER, FLORENCE, KS, 66851","Match","Exact","1071 XAVIER, FLORENCE, KS, 66851",120693920,"L"
15961,"1071","GRAHAM","TX",76450,NA,NA,461,"1071, GRAHAM, TX, 76450","No_Match",NA,NA,NA,NA
15962,"10710 140TH AVE NE","REDMOND","WA",98053,NA,NA,462,"10710 140TH AVE NE, REDMOND, WA, 98053","No_Match",NA,NA,NA,NA
15963,"10710 BAILEY DRIVE","CHELTENHAM","MD",20623,38.74184489,-76.821188734,463,"10710 BAILEY DRIVE, CHELTENHAM, MD, 20623","Match","Exact","10710 BAILEY DR, CHELTENHAM, MD, 20623",76331270,"L"
15964,"10710 BALTIMORE AVENUE","BELTSVILLE","MD",20705,39.0304140470001,-76.913917993,464,"10710 BALTIMORE AVENUE, BELTSVILLE, MD, 20705","Match","Exact","10710 BALTIMORE AVE, BELTSVILLE, MD, 20705",76364769,"L"
15965,"10710 E WRENWOOD LANE","CLOVIS","CA",93619,36.8174164280001,-119.597201304,465,"10710 E WRENWOOD LANE, CLOVIS, CA, 93619","Match","Non_Exact","10710 WRENWOOD AVE, CLOVIS, CA, 93619",197590199,"L"
15966,"10710 FRISCO STREET","FRISCO","TX",75034,NA,NA,466,"10710 FRISCO STREET, FRISCO, TX, 75034","No_Match",NA,NA,NA,NA
15967,"10710 KINNEIL RD","NEW ORLEANS","LA",70127,30.04366234,-89.973909835,467,"10710 KINNEIL RD, NEW ORLEANS, LA, 70127","Match","Exact","10710 KINNEIL RD, NEW ORLEANS, LA, 70127",191721364,"R"
15968,"10710 NE 38TH AVE","VANCOUVER","WA",98686,45.6985194220001,-122.632871478,468,"10710 NE 38TH AVE, VANCOUVER, WA, 98686","Match","Exact","10710 NE 38TH AVE, VANCOUVER, WA, 98686",158323183,"R"
15969,"10710 NW 215TH LANE ROAD","MICANOPY","FL",32667,29.46741583,-82.3000480489999,469,"10710 NW 215TH LANE ROAD, MICANOPY, FL, 32667","Match","Exact","10710 NW 215TH LANE RD, MICANOPY, FL, 32667",648387400,"R"
15970,"10710 NW 66 ST APT 405","MIAMI","FL",33178,25.833495434,-80.380922386,470,"10710 NW 66 ST APT 405, MIAMI, FL, 33178","Match","Non_Exact","10710 NW 66TH ST, MIAMI, FL, 33178",116087904,"L"
15971,"10710 PINKNEY LN","AUSTIN","TX",78739,NA,NA,471,"10710 PINKNEY LN, AUSTIN, TX, 78739","No_Match",NA,NA,NA,NA
15972,"10710 S HOLLEY ST","JENKS","OK",74037,36.008170315,-95.982855539,472,"10710 S HOLLEY ST, JENKS, OK, 74037","Match","Non_Exact","10710 S HOLLEY ST W, JENKS, OK, 74037",641525167,"L"
15973,"10710 S SAM HOUSTON PKWY W STE 100","HOUSTON","TX",77031,29.6428112300001,-95.5368748769999,473,"10710 S SAM HOUSTON PKWY W STE 100, HOUSTON, TX, 77031","Match","Non_Exact","10710 SAM HOUSTON PKWY, HOUSTON, TX, 77031",96595238,"L"
15974,"10710 WESTMINSTER BLVD","WESTMINSTER","CO",80020,39.8910226630001,-105.06992154,474,"10710 WESTMINSTER BLVD, WESTMINSTER, CO, 80020","Match","Exact","10710 WESTMINSTER BLVD, WESTMINSTER, CO, 80020",177784632,"R"
15975,"10711 CEDAR STREET","OMAHA","NE",68124,41.2404499690001,-96.079839054,475,"10711 CEDAR STREET, OMAHA, NE, 68124","Match","Exact","10711 CEDAR ST, OMAHA, NE, 68124",652353160,"L"
15976,"10711 E 121ST STREET","FISHERS","IN",46037,39.9645240300001,-85.976749501,476,"10711 E 121ST STREET, FISHERS, IN, 46037","Match","Exact","10711 E 121ST ST, FISHERS, IN, 46037",642778171,"R"
15977,"10711 SOUTH CHAMPLAIN AVENUE","CHICAGO","IL",60628,41.699623145,-87.6073385019999,477,"10711 SOUTH CHAMPLAIN AVENUE, CHICAGO, IL, 60628","Match","Exact","10711 S CHAMPLAIN AVE, CHICAGO, IL, 60628",605518419,"L"
15978,"10712 62ND AVE S","SEATTLE","WA",98178,47.504127639,-122.255959254,478,"10712 62ND AVE S, SEATTLE, WA, 98178","Match","Exact","10712 62ND AVE S, SEATTLE, WA, 98178",186629525,"L"
15979,"10712 BAMBOO ROD CIRCLE","RIVERVIEW","FL",33569,27.8395550480001,-82.268711307,479,"10712 BAMBOO ROD CIRCLE, RIVERVIEW, FL, 33569","Match","Exact","10712 BAMBOO ROD CIR, RIVERVIEW, FL, 33569",624857049,"R"
15980,"10712 BRISTOL TER","KANSAS CITY","MO",64134,38.929741903,-94.496568829,480,"10712 BRISTOL TER, KANSAS CITY, MO, 64134","Match","Exact","10712 BRISTOL TER, KANSAS CITY, MO, 64134",91466187,"R"
15981,"10712 CHESTNUT ST","LOS ALAMITOS","CA",90720,33.807135826,-118.073124345,481,"10712 CHESTNUT ST, LOS ALAMITOS, CA, 90720","Match","Exact","10712 CHESTNUT ST, LOS ALAMITOS, CA, 90720",143997451,"L"
15982,"10712 E HOPE DR","SCOTTSDALE","AZ",85259,33.586699245,-111.849288972,482,"10712 E HOPE DR, SCOTTSDALE, AZ, 85259","Match","Exact","10712 E HOPE DR, SCOTTSDALE, AZ, 85259",128190032,"L"
15983,"10712 FIRST COURT","MOKENA","IL",60448,41.535786914,-87.878254265,483,"10712 FIRST COURT, MOKENA, IL, 60448","Match","Exact","10712 1ST CT, MOKENA, IL, 60448",111589305,"L"
15984,"10712 GREENWICH LANE","WELLINGTON","FL",33414,26.643137374,-80.214411747,484,"10712 GREENWICH LANE, WELLINGTON, FL, 33414","Match","Exact","10712 GREENWICH LN, WELLINGTON, FL, 33414",115572244,"L"
15985,"10712 HINTON WAY","MANASSAS","VA",20112,38.7224095330001,-77.4639634009999,485,"10712 HINTON WAY, MANASSAS, VA, 20112","Match","Exact","10712 HINTON WAY, MANASSAS, VA, 20112",651744230,"L"
15986,"10712 LINEBERRY LANE","FRISCO","TX",75035,33.1776105270001,-96.786973922,486,"10712 LINEBERRY LANE, FRISCO, TX, 75035","Match","Non_Exact","10712 LINE BERRY LN, FRISCO, TX, 75035",647681622,"L"
15987,"10712 MILES AVE","CLEVELAND","OH",44105,41.4451419420001,-81.609911088,487,"10712 MILES AVE, CLEVELAND, OH, 44105","Match","Exact","10712 MILES AVE, CLEVELAND, OH, 44105",61162955,"L"
15988,"10712 PRUETT LN","GLEN ALLEN","VA",23059,37.67337231,-77.46789906,488,"10712 PRUETT LN, GLEN ALLEN, VA, 23059","Match","Non_Exact","10712 PRUITT LN, GLEN ALLEN, VA, 23059",106672671,"R"
15989,"10712 S STATE","CHICAGO","IL",60628,41.6995353520001,-87.623308326,489,"10712 S STATE, CHICAGO, IL, 60628","Match","Non_Exact","10712 S STATE ST, CHICAGO, IL, 60628",111773694,"R"
15990,"10712 WINDSOR PL","ORLANDO","FL",32821,28.4115710930001,-81.450029668,490,"10712 WINDSOR PL, ORLANDO, FL, 32821","Match","Exact","10712 WINDSOR PL, ORLANDO, FL, 32821",94290057,"R"
15991,"10713 EVANWOOD DRIVE","LOUISVILLE","KY",40228,38.1042201880001,-85.6112756489999,491,"10713 EVANWOOD DRIVE, LOUISVILLE, KY, 40228","Match","Exact","10713 EVANWOOD DR, LOUISVILLE, KY, 40228",618513801,"L"
15992,"10713 MONTGOMERY DR","MANASSAS","VA",20111,38.721926157,-77.4394015569999,492,"10713 MONTGOMERY DR, MANASSAS, VA, 20111","Match","Exact","10713 MONTGOMERY DR, MANASSAS, VA, 20111",76506272,"L"
15993,"10713 NORTH STRAHORN ROAD","HAYDEN","ID",83835,47.7686155710001,-116.765055523,493,"10713 NORTH STRAHORN ROAD, HAYDEN, ID, 83835","Match","Exact","10713 N STRAHORN RD, HAYDEN, ID, 83835",643357377,"L"
15994,"10713 TIDEWATER TRAIL","FREDERICKSBURG","VA",22408,38.251418345,-77.4249349679999,494,"10713 TIDEWATER TRAIL, FREDERICKSBURG, VA, 22408","Match","Exact","10713 TIDEWATER TRL, FREDERICKSBURG, VA, 22408",85030360,"R"
15995,"10713 WEATHER TOP COURT","LAS VEGAS","NV",89135,36.1392761920001,-115.32659471,495,"10713 WEATHER TOP COURT, LAS VEGAS, NV, 89135","Match","Exact","10713 WEATHER TOP CT, LAS VEGAS, NV, 89135",201997759,"L"
15996,"10714 71ST ROAD 1ST FLOOR","FOREST HILLS","NY",11375,NA,NA,496,"10714 71ST ROAD 1ST FLOOR, FOREST HILLS, NY, 11375","No_Match",NA,NA,NA,NA
15997,"10714 BUCKINGHAM CIRCLE","HAMPTON","GA",30228,33.464018437,-84.345563455,497,"10714 BUCKINGHAM CIRCLE, HAMPTON, GA, 30228","Match","Exact","10714 BUCKINGHAM CIR, HAMPTON, GA, 30228",23327048,"R"
15998,"10714 GAZELLE CLIFF","SAN ANTONIO","TX",78245,29.4241512080001,-98.703005591,498,"10714 GAZELLE CLIFF, SAN ANTONIO, TX, 78245","Match","Exact","10714 GAZELLE CLIFF, SAN ANTONIO, TX, 78245",619939236,"R"
15999,"10714 GOLDFISH CIR","ORLANDO","FL",32825,28.5405102080001,-81.229103159,499,"10714 GOLDFISH CIR, ORLANDO, FL, 32825","Match","Exact","10714 GOLDFISH CIR, ORLANDO, FL, 32825",94396919,"R"
16000,"10714 N HWY 110","VAN","TX",75790,32.557609266,-95.639135655,500,"10714 N HWY 110, VAN, TX, 75790","Match","Non_Exact","10714 STATE HWY 110, VAN, TX, 75790",651639897,"L"
