"ID","Address","City","State","Zip","lat","long","id","input_address","match_indicator","match_type","matched_address","tiger_line_id","tiger_side"
320001,"974 PINEY GROVE ROAD","SOMERSET","KY",42501,37.1111323650001,-84.5150944979999,1,"974 PINEY GROVE ROAD, SOMERSET, KY, 42501","Match","Exact","974 PINEY GROVE RD, SOMERSET, KY, 42501",39097592,"R"
320002,"974 ROBINSON AVENUE","BARBERTON","OH",44203,41.0104916220001,-81.558897571,2,"974 ROBINSON AVENUE, BARBERTON, OH, 44203","Match","Exact","974 ROBINSON AVE, BARBERTON, OH, 44203",61345609,"L"
320003,"974 SAINT NICHOLAS AVENUE APT 1E","NEW YORK","NY",10032,40.833887449,-73.9403071149999,3,"974 SAINT NICHOLAS AVENUE APT 1E, NEW YORK, NY, 10032","Match","Exact","974 ST NICHOLAS AVE, NEW YORK, NY, 10032",59655777,"R"
320004,"974 SHERWOOD","EUGENE","OR",97401,44.0765580550001,-123.104220071,4,"974 SHERWOOD, EUGENE, OR, 97401","Match","Non_Exact","974 SHERWOOD PL, EUGENE, OR, 97401",178166256,"L"
320005,"974 SOUTHLAND DR","TOOELE","UT",84074,40.5121162790001,-112.315498684,5,"974 SOUTHLAND DR, TOOELE, UT, 84074","Match","Exact","974 SOUTHLAND DR, TOOELE, UT, 84074",636696377,"R"
320006,"974 STANDLEY RD","DEFIANCE","OH",43512,41.2680622070001,-84.3390592929999,6,"974 STANDLEY RD, DEFIANCE, OH, 43512","Match","Exact","974 STANDLEY RD, DEFIANCE, OH, 43512",6677849,"L"
320007,"974 SUNRISE HWY","WEST BABYLON","NY",11704,40.7167547390001,-73.318932714,7,"974 SUNRISE HWY, WEST BABYLON, NY, 11704","Match","Exact","974 SUNRISE HWY, WEST BABYLON, NY, 11704",638599834,"R"
320008,"974 SW WORCESTER LANE","PORT SAINT LUCIE","FL",34953,27.269144887,-80.378127343,8,"974 SW WORCESTER LANE, PORT SAINT LUCIE, FL, 34953","Match","Exact","974 SW WORCESTER LN, PORT ST LUCIE, FL, 34953",120166806,"L"
320009,"974 W 600 S","PROVO","UT",84601,NA,NA,9,"974 W 600 S, PROVO, UT, 84601","No_Match",NA,NA,NA,NA
320010,"974 W CUYLER AVE APT 1","CHICAGO","IL",60613,41.9554348820001,-87.654014713,10,"974 W CUYLER AVE APT 1, CHICAGO, IL, 60613","Match","Non_Exact","974 W CUYLER AVE, CHICAGO, IL, 60613",605201154,"R"
320011,"974 WAREHOUSE RD -  APT 30312","ORLANDO","FL",32803,28.557668721,-81.344871693,11,"974 WAREHOUSE RD -  APT 30312, ORLANDO, FL, 32803","Match","Exact","974 WAREHOUSE RD, ORLANDO, FL, 32803",606126463,"L"
320012,"9740 ADAMO DRIVE","TAMPA","FL",33619,27.9482124030001,-82.3437751179999,12,"9740 ADAMO DRIVE, TAMPA, FL, 33619","Match","Exact","9740 ADAMO DR, TAMPA, FL, 33619",104561930,"L"
320013,"9740 HARBIN CT","ELLICOTT CITY","MD",21042,39.2976541090001,-76.847471008,13,"9740 HARBIN CT, ELLICOTT CITY, MD, 21042","Match","Exact","9740 HARBIN CT, ELLICOTT CITY, MD, 21042",614149075,"R"
320014,"9740 S TORRENCE AVE","CHICAGO","IL",60617,41.7182623620001,-87.559816208,14,"9740 S TORRENCE AVE, CHICAGO, IL, 60617","Match","Exact","9740 S TORRENCE AVE, CHICAGO, IL, 60617",111777285,"R"
320015,"9740 TIBBE ROAD","WINCHESTER","OH",45697,38.9475312870001,-83.717262767,15,"9740 TIBBE ROAD, WINCHESTER, OH, 45697","Match","Exact","9740 TIBBE RD, WINCHESTER, OH, 45697",100969056,"L"
320016,"9740 UPPER BOX ELDER ROAD","BOX ELDER","MT",59521,NA,NA,16,"9740 UPPER BOX ELDER ROAD, BOX ELDER, MT, 59521","No_Match",NA,NA,NA,NA
320017,"9741 ABERDEEN ROAD","ABERDEEN","NC",28315,35.084375392,-79.365181653,17,"9741 ABERDEEN ROAD, ABERDEEN, NC, 28315","Match","Exact","9741 ABERDEEN RD, ABERDEEN, NC, 28315",76194469,"L"
320018,"9741 GRAND AVE S APT 308","BLOOMINGTON","MN",55420,44.8271447500001,-93.2851758,18,"9741 GRAND AVE S APT 308, BLOOMINGTON, MN, 55420","Match","Exact","9741 GRAND AVE S, BLOOMINGTON, MN, 55420",43662119,"L"
320019,"9741 GRAND AVENUE APT 308","MINNEAPOLIS","MN",55402,NA,NA,19,"9741 GRAND AVENUE APT 308, MINNEAPOLIS, MN, 55402","No_Match",NA,NA,NA,NA
320020,"9741 INDEPENDENCE AVENUE","CHATSWORTH","CA",91311,34.2472586330001,-118.590740104,20,"9741 INDEPENDENCE AVENUE, CHATSWORTH, CA, 91311","Match","Exact","9741 INDEPENDENCE AVE, CHATSWORTH, CA, 91311",141532993,"L"
320021,"9741 MEADOWLAKE DRIVE","HARRISON","OH",45030,39.2989365770001,-84.7658940319999,21,"9741 MEADOWLAKE DRIVE, HARRISON, OH, 45030","Match","Exact","9741 MEADOWLAKE DR, HARRISON, OH, 45030",624405542,"L"
320022,"9741 TIDAL COURT","HUNTERSVILLE","NC",28078,35.3824390360001,-80.913495932,22,"9741 TIDAL COURT, HUNTERSVILLE, NC, 28078","Match","Exact","9741 TIDAL CT, HUNTERSVILLE, NC, 28078",70560173,"R"
320023,"9742 REESE FARM ROAD","OWINGS MILLS","MD",21117,39.409973474,-76.8146412039999,23,"9742 REESE FARM ROAD, OWINGS MILLS, MD, 21117","Match","Exact","9742 REESE FARM RD, OWINGS MILLS, MD, 21117",637502872,"R"
320024,"9743 NEWHAVEN LOOP","ANCHORAGE","AK",99507,61.132021455,-149.843957599,24,"9743 NEWHAVEN LOOP, ANCHORAGE, AK, 99507","Match","Exact","9743 NEWHAVEN LOOP, ANCHORAGE, AK, 99507",651622053,"L"
320025,"9743 S WOOD STREET","CHICAGO","IL",60643,41.7166262210001,-87.667305826,25,"9743 S WOOD STREET, CHICAGO, IL, 60643","Match","Exact","9743 S WOOD ST, CHICAGO, IL, 60643",112049148,"L"
320026,"9743 SEEKER ST","HOUSTON","TX",77078,29.854599772,-95.272998544,26,"9743 SEEKER ST, HOUSTON, TX, 77078","Match","Exact","9743 SEEKER ST, HOUSTON, TX, 77078",96077544,"L"
320027,"9743 TURNER LANE","BRENTWOOD","TN",37027,35.9866882380001,-86.712281516,27,"9743 TURNER LANE, BRENTWOOD, TN, 37027","Match","Exact","9743 TURNER LN, BRENTWOOD, TN, 37027",630172952,"R"
320028,"9744 S VANVLISSINGEN RD","CHICAGO","IL",60617,41.718009544,-87.5765088749999,28,"9744 S VANVLISSINGEN RD, CHICAGO, IL, 60617","Match","Non_Exact","9744 S VAN VLISSINGEN RD, CHICAGO, IL, 60617",111777011,"R"
320029,"9745 229TH LANE NE","REDMOND","WA",98053,47.6867539940001,-122.035072997,29,"9745 229TH LANE NE, REDMOND, WA, 98053","Match","Exact","9745 229TH LN NE, REDMOND, WA, 98053",639722004,"L"
320030,"9745 BIG CREEK CIRCLE","MORENO VALLEY","CA",92557,33.9789708650001,-117.271269874,30,"9745 BIG CREEK CIRCLE, MORENO VALLEY, CA, 92557","Match","Exact","9745 BIG CREEK CIR, MORENO VALLEY, CA, 92557",194820134,"R"
320031,"9745 E PASEO JUAN TABO","TUCSON","AZ",85747,32.0993353050001,-110.784739299,31,"9745 E PASEO JUAN TABO, TUCSON, AZ, 85747","Match","Non_Exact","9745 E PSO JUAN TABO, TUCSON, AZ, 85747",121387202,"R"
320032,"9745 GOOD LUCK ROAD SUITE 5","LANHAM","MD",20706,38.9842415250001,-76.841029352,32,"9745 GOOD LUCK ROAD SUITE 5, LANHAM, MD, 20706","Match","Exact","9745 GOOD LUCK RD, LANHAM, MD, 20706",76310259,"R"
320033,"9745 LURLINE AVE","CHATSWORTH","CA",91311,34.2471493100001,-118.58418166,33,"9745 LURLINE AVE, CHATSWORTH, CA, 91311","Match","Exact","9745 LURLINE AVE, CHATSWORTH, CA, 91311",141533021,"L"
320034,"9745 MUIRKIRK ROAD","LAUREL","MD",20708,39.064298824,-76.840645536,34,"9745 MUIRKIRK ROAD, LAUREL, MD, 20708","Match","Exact","9745 MUIRKIRK RD, LAUREL, MD, 20708",76339895,"L"
320035,"9745 PATTONSVILLE RD","JACKSON","OH",45640,39.0145202,-82.470439815,35,"9745 PATTONSVILLE RD, JACKSON, OH, 45640","Match","Exact","9745 PATTONSVILLE RD, JACKSON, OH, 45640",54774948,"R"
320036,"9745 S KARLOV AVENUE APT 510","OAK LAWN","IL",60453,41.7157134460001,-87.72362538,36,"9745 S KARLOV AVENUE APT 510, OAK LAWN, IL, 60453","Match","Exact","9745 KARLOV AVE, OAK LAWN, IL, 60453",112221866,"L"
320037,"9745 STARR ROAD","WINDSOR","CA",95492,38.553698899,-122.826076732,37,"9745 STARR ROAD, WINDSOR, CA, 95492","Match","Exact","9745 STARR RD, WINDSOR, CA, 95492",67463489,"R"
320038,"9746 GONDA DRIVE","ERIE","PA",16509,42.0692971230001,-79.951630757,38,"9746 GONDA DRIVE, ERIE, PA, 16509","Match","Exact","9746 GONDA DR, ERIE, PA, 16509",117501347,"R"
320039,"9746 S VINCENNES AVE UNIT 202","CHICAGO","IL",60643,41.7166709850001,-87.652364064,39,"9746 S VINCENNES AVE UNIT 202, CHICAGO, IL, 60643","Match","Non_Exact","9746 S VINCENNES AVE, CHICAGO, IL, 60643",111832488,"R"
320040,"9747 BROOKDALE DRIVE","NEW PORT RICHEY","FL",34655,28.246060146,-82.6532138169999,40,"9747 BROOKDALE DRIVE, NEW PORT RICHEY, FL, 34655","Match","Exact","9747 BROOKDALE DR, NEW PORT RICHEY, FL, 34655",629905467,"R"
320041,"9747 SCENIC HWY","PENSACOLA","FL",32514,30.535909804,-87.192698991,41,"9747 SCENIC HWY, PENSACOLA, FL, 32514","Match","Exact","9747 SCENIC HWY, PENSACOLA, FL, 32514",93238231,"L"
320042,"9747 SHORE ROAD APT C1","BROOKLYN","NY",11209,NA,NA,42,"9747 SHORE ROAD APT C1, BROOKLYN, NY, 11209","No_Match",NA,NA,NA,NA
320043,"9747 SINNARD AVE","LIVE OAK","CA",95953,39.2724665710001,-121.649514471,43,"9747 SINNARD AVE, LIVE OAK, CA, 95953","Match","Exact","9747 SINNARD AVE, LIVE OAK, CA, 95953",68570199,"R"
320044,"9748 EASTRIDGE DR","EL PASO","TX",79925,31.768042462,-106.354819206,44,"9748 EASTRIDGE DR, EL PASO, TX, 79925","Match","Exact","9748 EASTRIDGE DR, EL PASO, TX, 79925",189396778,"R"
320045,"9748 FOLEY BLVD NW","COON RAPIDS","MN",55433,45.147090726,-93.277825386,45,"9748 FOLEY BLVD NW, COON RAPIDS, MN, 55433","Match","Non_Exact","9748 FOLEY BLVD, COON RAPIDS, MN, 55433",97530081,"L"
320046,"9748 MANCHESTER ROAD","SAINT LOUIS","MO",63119,38.607655654,-90.3715279899999,46,"9748 MANCHESTER ROAD, SAINT LOUIS, MO, 63119","Match","Exact","9748 MANCHESTER RD, SAINT LOUIS, MO, 63119",100132278,"L"
320047,"9748 SOUTH LUELLA","CHICAGO","IL",60617,41.7174592380001,-87.568837968,47,"9748 SOUTH LUELLA, CHICAGO, IL, 60617","Match","Non_Exact","9748 S LUELLA AVE, CHICAGO, IL, 60617",111777116,"R"
320048,"9748 VARIEL AVE","CHATSWORTH","CA",91311,34.2473817100001,-118.592916811,48,"9748 VARIEL AVE, CHATSWORTH, CA, 91311","Match","Exact","9748 VARIEL AVE, CHATSWORTH, CA, 91311",141532894,"R"
320049,"9749 BIGHORN ISLAND AVE","LAS VEGAS","NV",89148,36.095865786,-115.304495687,49,"9749 BIGHORN ISLAND AVE, LAS VEGAS, NV, 89148","Match","Exact","9749 BIGHORN ISLAND AVE, LAS VEGAS, NV, 89148",201992961,"L"
320050,"9749 MONTAGUE STREET","TAMPA","FL",33626,28.040035211,-82.59699582,50,"9749 MONTAGUE STREET, TAMPA, FL, 33626","Match","Exact","9749 MONTAGUE ST, TAMPA, FL, 33626",104670727,"R"
320051,"9749 RIGGS STREET","OVERLAND PARK","KS",66212,38.9519857810001,-94.661386318,51,"9749 RIGGS STREET, OVERLAND PARK, KS, 66212","Match","Exact","9749 RIGGS ST, OVERLAND PARK, KS, 66212",91279637,"L"
320052,"975 A DETROIT AVE","CONCORD","CA",94518,37.952045549,-122.027735341,52,"975 A DETROIT AVE, CONCORD, CA, 94518","Match","Exact","975 DETROIT AVE, CONCORD, CA, 94518",192055340,"L"
320053,"975 BASCOM MALL","MADISON","WI",53706,43.075004037,-89.403330357,53,"975 BASCOM MALL, MADISON, WI, 53706","Match","Non_Exact","975 BASCOM ML, MADISON, WI, 53706",49506390,"R"
320054,"975 CASTRO STREET","SAN LEANDRO","CA",94577,37.7159100530001,-122.161289558,54,"975 CASTRO STREET, SAN LEANDRO, CA, 94577","Match","Exact","975 CASTRO ST, SAN LEANDRO, CA, 94577",125012156,"L"
320055,"975 COUNTY ROUTE 1","FORT COVINGTON","NY",12937,44.982132447,-74.509116676,55,"975 COUNTY ROUTE 1, FORT COVINGTON, NY, 12937","Match","Non_Exact","975 CO RD 1, FORT COVINGTON, NY, 12937",173814823,"L"
320056,"975 CREOLA AXIS LOOP ROAD NORTH","AXIS","AL",36505,30.9320699150001,-88.019072706,56,"975 CREOLA AXIS LOOP ROAD NORTH, AXIS, AL, 36505","Match","Exact","975 CREOLA AXIS LOOP RD N, AXIS, AL, 36505",61935022,"L"
320057,"975 E MCMILLAN ST","CINCINNATI","OH",45206,39.125814517,-84.488330322,57,"975 E MCMILLAN ST, CINCINNATI, OH, 45206","Match","Exact","975 E MCMILLAN ST, CINCINNATI, OH, 45206",103926362,"R"
320058,"975 EDGEWOOD DRIVE","FORT MEADE","FL",33841,27.7635981120001,-81.784606458,58,"975 EDGEWOOD DRIVE, FORT MEADE, FL, 33841","Match","Non_Exact","975 EDGEWOOD DR N, FORT MEADE, FL, 33841",104872924,"L"
320059,"975 ELSINORE DR","PALO ALTO","CA",94303,37.444033215,-122.128666991,59,"975 ELSINORE DR, PALO ALTO, CA, 94303","Match","Exact","975 ELSINORE DR, PALO ALTO, CA, 94303",122951159,"L"
320060,"975 ENGLEWOOD DR","LAKE OSWEGO","OR",97034,45.435215944,-122.687148108,60,"975 ENGLEWOOD DR, LAKE OSWEGO, OR, 97034","Match","Exact","975 ENGLEWOOD DR, LAKE OSWEGO, OR, 97034",157526071,"R"
320061,"975 FOSSIL CREEK RD","FLORISSANT","CO",80816,38.9899159010001,-105.269516494,61,"975 FOSSIL CREEK RD, FLORISSANT, CO, 80816","Match","Exact","975 FOSSIL CREEK RD, FLORISSANT, CO, 80816",605749119,"L"
320062,"975 GAGE DR","SAN DIEGO","CA",92106,32.7212265920001,-117.239703149,62,"975 GAGE DR, SAN DIEGO, CA, 92106","Match","Exact","975 GAGE DR, SAN DIEGO, CA, 92106",612888909,"R"
320063,"975 GOLDEN GATE DRIVE","NAPA","CA",94558,38.280090812,-122.300565717,63,"975 GOLDEN GATE DRIVE, NAPA, CA, 94558","Match","Exact","975 GOLDEN GATE DR, NAPA, CA, 94558",635482100,"R"
320064,"975 GREEN ST","PORTSMOUTH","VA",23704,36.8318965390001,-76.3052467649999,64,"975 GREEN ST, PORTSMOUTH, VA, 23704","Match","Exact","975 GREEN ST, PORTSMOUTH, VA, 23704",122197539,"R"
320065,"975 HILLARY LANE","LAWRENCEVILLE","GA",30043,33.985494997,-84.041459731,65,"975 HILLARY LANE, LAWRENCEVILLE, GA, 30043","Match","Exact","975 HILLARY LN, LAWRENCEVILLE, GA, 30043",628061721,"R"
320066,"975 HILLSIDE AVE","PLAINFIELD","NJ",7060,40.6154926610001,-74.405024662,66,"975 HILLSIDE AVE, PLAINFIELD, NJ, 7060","Match","Exact","975 HILLSIDE AVE, PLAINFIELD, NJ, 07060",60560743,"L"
320067,"975 HOPE AVENUE","JORDAN","MN",55352,44.6515823180001,-93.634294046,67,"975 HOPE AVENUE, JORDAN, MN, 55352","Match","Exact","975 HOPE AVE, JORDAN, MN, 55352",606968515,"R"
320068,"975 INDIAN LAKE ROAD","DAYTONA BEACH","FL",32124,29.1561358010001,-81.152575736,68,"975 INDIAN LAKE ROAD, DAYTONA BEACH, FL, 32124","Match","Exact","975 INDIAN LAKE RD, DAYTONA BEACH, FL, 32124",648008660,"R"
320069,"975 JACKSON ST APT 4","SAN","CA",94133,37.7954740650001,-122.410984007,69,"975 JACKSON ST APT 4, SAN, CA, 94133","Match","Non_Exact","975 JACKSON ST, SAN FRANCISCO, CA, 94133",192280803,"L"
320070,"975 JOHNSON FERRY RD SUITE 360","ATLANTA","GA",30342,33.9078235050001,-84.355543756,70,"975 JOHNSON FERRY RD SUITE 360, ATLANTA, GA, 30342","Match","Exact","975 JOHNSON FERRY RD, ATLANTA, GA, 30342",17417149,"R"
320071,"975 LITTLE LEHIGH DRIVE","EMMAUS","PA",18049,40.539945516,-75.5178132729999,71,"975 LITTLE LEHIGH DRIVE, EMMAUS, PA, 18049","Match","Exact","975 LITTLE LEHIGH DR, EMMAUS, PA, 18049",80766255,"R"
320072,"975 LOCHMOOR DRIVE","HIGH RIDGE","MO",63049,NA,NA,72,"975 LOCHMOOR DRIVE, HIGH RIDGE, MO, 63049","No_Match",NA,NA,NA,NA
320073,"975 MASS AVE APT 108","ARLINGTON","MA",2476,42.4191459350001,-71.167509138,73,"975 MASS AVE APT 108, ARLINGTON, MA, 2476","Match","Exact","975 MASSACHUSETTS AVE, ARLINGTON, MA, 02476",87111455,"R"
320074,"975 MCNATT RD","LINEVILLE","AL",36266,33.33582016,-85.938421912,74,"975 MCNATT RD, LINEVILLE, AL, 36266","Match","Exact","975 MCNATT RD, LINEVILLE, AL, 36266",98186463,"L"
320075,"975 MILL RD STE 204  MANOR HOUSE","BRYN MAWR","PA",19010,40.0059523790001,-75.3439104679999,75,"975 MILL RD STE 204  MANOR HOUSE, BRYN MAWR, PA, 19010","Match","Exact","975 MILL RD, BRYN MAWR, PA, 19010",633139897,"L"
320076,"975 MORRISON DRIVE","CHARLESTON","SC",29403,32.8065880440001,-79.942292293,76,"975 MORRISON DRIVE, CHARLESTON, SC, 29403","Match","Exact","975 MORRISON DR, CHARLESTON, SC, 29403",108806685,"L"
320077,"975 MOUNT VERNON ROAD","NEWARK","OH",43055,40.083053174,-82.4172254489999,77,"975 MOUNT VERNON ROAD, NEWARK, OH, 43055","Match","Exact","975 MOUNT VERNON RD, NEWARK, OH, 43055",61554455,"L"
320078,"975 N MENTOR AVE","PASADENA","CA",91104,34.162784668,-118.131006349,78,"975 N MENTOR AVE, PASADENA, CA, 91104","Match","Exact","975 N MENTOR AVE, PASADENA, CA, 91104",141628869,"L"
320079,"975 OAK STREET SUITE 1050","EUGENE","OR",97401,NA,NA,79,"975 OAK STREET SUITE 1050, EUGENE, OR, 97401","No_Match",NA,NA,NA,NA
320080,"975 OAK STREET SUITE 800","EUGENE","OR",97401,NA,NA,80,"975 OAK STREET SUITE 800, EUGENE, OR, 97401","No_Match",NA,NA,NA,NA
320081,"975 RICHVALE LN","HOUSTON","TX",77062,29.5629325100001,-95.131446432,81,"975 RICHVALE LN, HOUSTON, TX, 77062","Match","Exact","975 RICHVALE LN, HOUSTON, TX, 77062",96114806,"L"
320082,"975 RIDGE DRIVE","CONCORD","CA",94518,37.9602395640001,-122.019422149,82,"975 RIDGE DRIVE, CONCORD, CA, 94518","Match","Exact","975 RIDGE DR, CONCORD, CA, 94518",607784807,"L"
320083,"975 S STATE ST","CLEARFIELD","UT",84015,41.1000274410001,-112.011858541,83,"975 S STATE ST, CLEARFIELD, UT, 84015","Match","Exact","975 STATE ST, CLEARFIELD, UT, 84015",635818347,"L"
320084,"975 SAINT MARKS CHUCH ROAD","CHERRYVILLE","NC",28021,35.373103261,-81.321868159,84,"975 SAINT MARKS CHUCH ROAD, CHERRYVILLE, NC, 28021","Match","Non_Exact","975 SAINT MARKS CHURCH RD, CHERRYVILLE, NC, 28021",70439256,"L"
320085,"975 SEVEN HILLS DR 3325","HENDERSON","NV",89052,35.9928995290001,-115.120799223,85,"975 SEVEN HILLS DR 3325, HENDERSON, NV, 89052","Match","Exact","975 SEVEN HILLS DR, HENDERSON, NV, 89052",201996347,"R"
320086,"975 STAGHORN TRAIL","NICHOLSON","GA",30565,34.1171064970001,-83.45562201,86,"975 STAGHORN TRAIL, NICHOLSON, GA, 30565","Match","Exact","975 STAGHORN TRL, NICHOLSON, GA, 30565",619814778,"L"
320087,"975 TINTON AVENUE APT 2A","BRONNX","NM",10456,NA,NA,87,"975 TINTON AVENUE APT 2A, BRONNX, NM, 10456","No_Match",NA,NA,NA,NA
320088,"975 TREASURE HILLS DR","MADERA","CA",93636,NA,NA,88,"975 TREASURE HILLS DR, MADERA, CA, 93636","No_Match",NA,NA,NA,NA
320089,"975 TYRONE ROAD","MORGANTOWN","WV",26508,39.63267381,-79.868354552,89,"975 TYRONE ROAD, MORGANTOWN, WV, 26508","Match","Exact","975 TYRONE RD, MORGANTOWN, WV, 26508",637337700,"R"
320090,"975 W ALISAL STREET STE B","SALINAS","CA",93901,36.667663084,-121.67483869,90,"975 W ALISAL STREET STE B, SALINAS, CA, 93901","Match","Non_Exact","975 W ALISAL ST, SALINAS, CA, 93901",196819540,"L"
320091,"975 WASHINGTON BLVD","BUSHNELL","IL",61422,40.5594661690001,-90.50976296,91,"975 WASHINGTON BLVD, BUSHNELL, IL, 61422","Match","Exact","975 WASHINGTON BLVD, BUSHNELL, IL, 61422",5366126,"L"
320092,"975 WYNNBROOK LANE","JONESBORO","GA",30238,33.493915089,-84.359751,92,"975 WYNNBROOK LANE, JONESBORO, GA, 30238","Match","Exact","975 WYNNBROOK LN, JONESBORO, GA, 30238",632558800,"L"
320093,"9750 CRESCENT PK CIRCLE UNIT 133","ORLAND PARK","IL",60462,41.6318509010001,-87.856725726,93,"9750 CRESCENT PK CIRCLE UNIT 133, ORLAND PARK, IL, 60462","Match","Exact","9750 CRESCENT PARK CIR, ORLAND PARK, IL, 60462",649600660,"R"
320094,"9750 HAITIAN DRIVE","CUTLER BAY","FL",33189,25.5775088030001,-80.34952148,94,"9750 HAITIAN DRIVE, CUTLER BAY, FL, 33189","Match","Exact","9750 HAITIAN DR, CUTLER BAY, FL, 33189",115995525,"L"
320095,"9750 NW 17TH ST","DORAL","FL",33172,NA,NA,95,"9750 NW 17TH ST, DORAL, FL, 33172","No_Match",NA,NA,NA,NA
320096,"9750 VALLEY WAY","HAYDEN","ID",83835,47.7605285240001,-116.818087633,96,"9750 VALLEY WAY, HAYDEN, ID, 83835","Match","Non_Exact","9750 N VALLEY WAY, HAYDEN, ID, 83835",192898039,"R"
320097,"9750 W 36TH AVE","WHEAT RIDGE","CO",80033,39.7667593350001,-105.106681271,97,"9750 W 36TH AVE, WHEAT RIDGE, CO, 80033","Match","Exact","9750 W 36TH AVE, WHEAT RIDGE, CO, 80033",177289341,"L"
320098,"9751 LA TIERRA CIRLCE","FOUNTAIN VALLEY","CA",92708,NA,NA,98,"9751 LA TIERRA CIRLCE, FOUNTAIN VALLEY, CA, 92708","No_Match",NA,NA,NA,NA
320099,"9751 W 44TH AVE STE 101","WHEAT RIDGE","CO",80033,39.778125722,-105.106529262,99,"9751 W 44TH AVE STE 101, WHEAT RIDGE, CO, 80033","Match","Non_Exact","9751 W 44TH AVE, WHEAT RIDGE, CO, 80033",177289266,"R"
320100,"97511 FRANKLIN RIDGE","CHAPEL HILL","NC",27517,35.846864397,-79.056698146,100,"97511 FRANKLIN RIDGE, CHAPEL HILL, NC, 27517","Match","Exact","97511 FRANKLIN RIDGE, CHAPEL HILL, NC, 27517",71357201,"L"
320101,"9752 BROOKLYNS WAY S","SEMMES","AL",36575,30.760959631,-88.272941954,101,"9752 BROOKLYNS WAY S, SEMMES, AL, 36575","Match","Exact","9752 BROOKLYNS WAY S, SEMMES, AL, 36575",61967071,"R"
320102,"9752 PALI AVENUE","TUJUNGA","CA",91042,34.2443970910001,-118.26993869,102,"9752 PALI AVENUE, TUJUNGA, CA, 91042","Match","Exact","9752 PALI AVE, TUJUNGA, CA, 91042",142724072,"R"
320103,"9753 COUNTY ROAD 74-82","PEYTON","CO",80831,NA,NA,103,"9753 COUNTY ROAD 74-82, PEYTON, CO, 80831","No_Match",NA,NA,NA,NA
320104,"9753 DUNCAN LAKE AVENUE","CALEDONIA","MI",49316,42.784501988,-85.521578411,104,"9753 DUNCAN LAKE AVENUE, CALEDONIA, MI, 49316","Match","Non_Exact","9753 DUNCAN LAKE AVE SE, CALEDONIA, MI, 49316",12496423,"R"
320105,"9753 HIRSCH ROAD","SANTEE","CA",92071,32.8558468160001,-116.995669128,105,"9753 HIRSCH ROAD, SANTEE, CA, 92071","Match","Exact","9753 HIRSCH RD, SANTEE, CA, 92071",195324930,"R"
320106,"9753 NW 5TH COURT","CORAL SPRINGS","FL",33071,26.237046724,-80.2571854,106,"9753 NW 5TH COURT, CORAL SPRINGS, FL, 33071","Match","Non_Exact","9753 NW 5TH CT, CORAL SPRINGS, FL, 33071",114691112,"L"
320107,"9753 W OLYMPIC BLVD","BEVERLY HILLS","CA",90212,34.0597147670001,-118.408454559,107,"9753 W OLYMPIC BLVD, BEVERLY HILLS, CA, 90212","Match","Exact","9753 W OLYMPIC BLVD, BEVERLY HILLS, CA, 90212",635012838,"R"
320108,"97530 FRANKLIN RIDGE","CHAPEL HILL","NC",27517,35.8470381340001,-79.056381557,108,"97530 FRANKLIN RIDGE, CHAPEL HILL, NC, 27517","Match","Exact","97530 FRANKLIN RIDGE, CHAPEL HILL, NC, 27517",71357201,"R"
320109,"9754 E PERSHING AVE","SCOTTSDALE","AZ",85260,33.6059468500001,-111.869956098,109,"9754 E PERSHING AVE, SCOTTSDALE, AZ, 85260","Match","Exact","9754 E PERSHING AVE, SCOTTSDALE, AZ, 85260",128189883,"L"
320110,"9754 GLEN OWEN DR","ST LOUIS","MO",63136,38.7456991500001,-90.2687447919999,110,"9754 GLEN OWEN DR, ST LOUIS, MO, 63136","Match","Exact","9754 GLEN OWEN DR, SAINT LOUIS, MO, 63136",100147111,"R"
320111,"9754 PENN AVE N","MINNEAPOLIS","MN",55444,45.131777114,-93.3124211479999,111,"9754 PENN AVE N, MINNEAPOLIS, MN, 55444","Match","Exact","9754 PENN AVE N, MINNEAPOLIS, MN, 55444",43838337,"L"
320112,"9754 W KIMBERLY WAY","PEORIA","AZ",85382,33.6554859600001,-112.270415465,112,"9754 W KIMBERLY WAY, PEORIA, AZ, 85382","Match","Exact","9754 W KIMBERLY WAY, PEORIA, AZ, 85382",128164219,"L"
320113,"9755 GOOD LUCK RD","LANHAM","MD",20706,38.9842688360001,-76.8409846599999,113,"9755 GOOD LUCK RD, LANHAM, MD, 20706","Match","Exact","9755 GOOD LUCK RD, LANHAM, MD, 20706",76310259,"R"
320114,"9755 SCYENE ROAD   SUITE 4115","DALLAS","TX",75227,32.7623556500001,-96.6515986799999,114,"9755 SCYENE ROAD   SUITE 4115, DALLAS, TX, 75227","Match","Exact","9755 SCYENE RD, DALLAS, TX, 75227",103227731,"L"
320115,"9755 SW BARNES ROAD - SUITE 560","PORTLAND","OR",97225,45.5105201630001,-122.776539075,115,"9755 SW BARNES ROAD - SUITE 560, PORTLAND, OR, 97225","Match","Non_Exact","9755 SW BARNES RD, PORTLAND, OR, 97225",642182692,"R"
320116,"9755 WOLF RIVER BLVD","GERMANTOWN","TN",38139,35.0952445120001,-89.739895968,116,"9755 WOLF RIVER BLVD, GERMANTOWN, TN, 38139","Match","Exact","9755 WOLF RIVER BLVD, GERMANTOWN, TN, 38139",639854260,"R"
320117,"9756 FERDER RD","MAYBEE","MI",48159,42.0136387680001,-83.528061432,117,"9756 FERDER RD, MAYBEE, MI, 48159","Match","Exact","9756 FERDER RD, MAYBEE, MI, 48159",40496334,"L"
320118,"9756 GNAGI DRIVE","LAKE CITY","PA",16423,42.0257890990001,-80.332258305,118,"9756 GNAGI DRIVE, LAKE CITY, PA, 16423","Match","Exact","9756 GNAGI DR, LAKE CITY, PA, 16423",117509700,"R"
320119,"9756 NORTHERN DANCER DR","LAS VEGAS","NV",89117,36.152605097,-115.310042265,119,"9756 NORTHERN DANCER DR, LAS VEGAS, NV, 89117","Match","Exact","9756 NORTHERN DANCER DR, LAS VEGAS, NV, 89117",201901472,"R"
320120,"9757 FRANKFORT ROAD","HOLLAND","OH",43528,41.644193224,-83.775572602,120,"9757 FRANKFORT ROAD, HOLLAND, OH, 43528","Match","Exact","9757 FRANKFORT RD, HOLLAND, OH, 43528",33925345,"R"
320121,"9759 1/2 LEMONA AVE","NORTH HILLS","CA",91343,34.247575693,-118.458741248,121,"9759 1/2 LEMONA AVE, NORTH HILLS, CA, 91343","Match","Exact","9759 LEMONA AVE, NORTH HILLS, CA, 91343",141548996,"L"
320122,"9759 135TH WAY","SEMINOLE","FL",33776,27.861389784,-82.826567226,122,"9759 135TH WAY, SEMINOLE, FL, 33776","Match","Exact","9759 135TH WAY, SEMINOLE, FL, 33776",124673003,"R"
320123,"9759 SIESTA KEY DRIVE","PORTAGE","MI",49002,42.175905238,-85.574096885,123,"9759 SIESTA KEY DRIVE, PORTAGE, MI, 49002","Match","Exact","9759 SIESTA KEY, PORTAGE, MI, 49002",12259213,"L"
320124,"9759 SUNGLOW ST","PICO RIVERA","CA",90660,33.9575871280001,-118.094045291,124,"9759 SUNGLOW ST, PICO RIVERA, CA, 90660","Match","Exact","9759 SUNGLOW ST, PICO RIVERA, CA, 90660",141738446,"L"
320125,"9759 TULLAMOOR DR","ST LOUIS","MO",63136,38.7457350380001,-90.2662333599999,125,"9759 TULLAMOOR DR, ST LOUIS, MO, 63136","Match","Exact","9759 TULLAMOOR DR, SAINT LOUIS, MO, 63136",100147116,"L"
320126,"976 23RD AVE","OAKLAND","CA",94606,37.7787878820001,-122.236704443,126,"976 23RD AVE, OAKLAND, CA, 94606","Match","Exact","976 23RD AVE, OAKLAND, CA, 94606",125005938,"R"
320127,"976 ALFORD AVENUE","HOOVER","AL",35226,33.4272624130001,-86.835189859,127,"976 ALFORD AVENUE, HOOVER, AL, 35226","Match","Exact","976 ALFORD AVE, HOOVER, AL, 35226",647574952,"L"
320128,"976 BARCLAY CIRCLE","ROCHESTER HILLS","MI",48307,NA,NA,128,"976 BARCLAY CIRCLE, ROCHESTER HILLS, MI, 48307","No_Match",NA,NA,NA,NA
320129,"976 CHATFIELD DRIVE","JAMESTOWN","NC",27282,35.97289913,-79.937323428,129,"976 CHATFIELD DRIVE, JAMESTOWN, NC, 27282","Match","Exact","976 CHATFIELD DR, JAMESTOWN, NC, 27282",131098327,"R"
320130,"976 E 2250 NORTH RD","MONTICELLO","IL",67856,40.1196666770001,-88.559984948,130,"976 E 2250 NORTH RD, MONTICELLO, IL, 67856","Match","Non_Exact","976 E 2250 NORTH RD, MONTICELLO, IL, 61856",8556590,"L"
320131,"976 EAST 32ND STREET","BROOKLYN","NY",11210,40.6276293880001,-73.9450751689999,131,"976 EAST 32ND STREET, BROOKLYN, NY, 11210","Match","Exact","976 E 32ND ST, BROOKLYN, NY, 11210",59081803,"R"
320132,"976 EAST APPLE GATE","CINCINNATI","OH",45245,39.075056655,-84.262984881,132,"976 EAST APPLE GATE, CINCINNATI, OH, 45245","Match","Non_Exact","976 E APPLEGATE, CINCINNATI, OH, 45245",619525301,"L"
320133,"976 EAST JACKSON STREET","RIALTO","CA",92376,34.1199775010001,-117.351290686,133,"976 EAST JACKSON STREET, RIALTO, CA, 92376","Match","Exact","976 E JACKSON ST, RIALTO, CA, 92376",144700488,"L"
320134,"976 FALK COURT","NEKOOSA","WI",54457,44.215846594,-89.772065825,134,"976 FALK COURT, NEKOOSA, WI, 54457","Match","Exact","976 FALK CT, NEKOOSA, WI, 54457",73278986,"L"
320135,"976 FULTON ST","BROOKLYN","NY",11238,40.682493197,-73.9621772629999,135,"976 FULTON ST, BROOKLYN, NY, 11238","Match","Exact","976 FULTON ST, BROOKLYN, NY, 11238",59078052,"R"
320136,"976 HASSELL AVENUE","LAS VEGAS","NV",89106,36.197516939,-115.154972902,136,"976 HASSELL AVENUE, LAS VEGAS, NV, 89106","Match","Exact","976 HASSELL AVE, LAS VEGAS, NV, 89106",201865168,"R"
320137,"976 LEXINGTON ST UNIT 5507","WALTHAM","MA",2452,42.4062682090001,-71.234116093,137,"976 LEXINGTON ST UNIT 5507, WALTHAM, MA, 2452","Match","Exact","976 LEXINGTON ST, WALTHAM, MA, 02452",87080809,"L"
320138,"976 MOUNTAIN CITY HWY STE 100","ELKO","NV",89801,40.82788945,-115.777217512,138,"976 MOUNTAIN CITY HWY STE 100, ELKO, NV, 89801","Match","Exact","976 MOUNTAIN CITY HWY, ELKO, NV, 89801",647488998,"R"
320139,"976 N MAIN ST","PEARSON","GA",31642,31.284580148,-82.855922267,139,"976 N MAIN ST, PEARSON, GA, 31642","Match","Non_Exact","976 S MAIN ST, PEARSON, GA, 31642",639671802,"L"
320140,"976 NW THIRD","PRINEVILLE","OR",97754,44.3027439200001,-120.860615893,140,"976 NW THIRD, PRINEVILLE, OR, 97754","Match","Non_Exact","976 NW 3RD ST, PRINEVILLE, OR, 97754",640127463,"R"
320141,"976 OAKLAND HILLS AVE","MIDDLEBURG","FL",32068,NA,NA,141,"976 OAKLAND HILLS AVE, MIDDLEBURG, FL, 32068","No_Match",NA,NA,NA,NA
320142,"976 PARK GATE PLACE","STONE MOUNTAIN","GA",30083,33.8094067640001,-84.1969473089999,142,"976 PARK GATE PLACE, STONE MOUNTAIN, GA, 30083","Match","Exact","976 PARK GATE PL, STONE MOUNTAIN, GA, 30083",23399139,"L"
320143,"976 RUTGERS COURT","ALLEN","TX",75002,33.086565169,-96.655390214,143,"976 RUTGERS COURT, ALLEN, TX, 75002","Match","Exact","976 RUTGERS CT, ALLEN, TX, 75002",210524052,"R"
320144,"976 S FOREST MALL","TEMPE","AZ",85281,33.417145528,-111.936611301,144,"976 S FOREST MALL, TEMPE, AZ, 85281","Match","Non_Exact","976 S FOREST AVE, TEMPE, AZ, 85281",128227212,"R"
320145,"976 SPRUCE STREET","POTTSTOWN","PA",19464,40.261559886,-75.6334091049999,145,"976 SPRUCE STREET, POTTSTOWN, PA, 19464","Match","Exact","976 SPRUCE ST, POTTSTOWN, PA, 19464",135062213,"R"
320146,"976 UPPER CHURCH STREET","GILBERTVILLE","MA",1031,42.3364956500001,-72.1911302899999,146,"976 UPPER CHURCH STREET, GILBERTVILLE, MA, 1031","Match","Exact","976 UPPER CHURCH ST, GILBERTVILLE, MA, 01031",40070724,"R"
320147,"976 VILLA GRAN WAY","FENTON","MO",63026,38.527909601,-90.468193801,147,"976 VILLA GRAN WAY, FENTON, MO, 63026","Match","Exact","976 VILLA GRAN WAY, FENTON, MO, 63026",100161964,"R"
320148,"976 W ALISAL ST APT 27","SALINAS","CA",93901,36.6675488070001,-121.674996538,148,"976 W ALISAL ST APT 27, SALINAS, CA, 93901","Match","Non_Exact","976 W ALISAL ST, SALINAS, CA, 93901",196819540,"R"
320149,"9760 DINWIDDIE COURT","CENTERVILLE","OH",45458,39.605335928,-84.202368634,149,"9760 DINWIDDIE COURT, CENTERVILLE, OH, 45458","Match","Exact","9760 DINWIDDIE CT, CENTERVILLE, OH, 45458",143610005,"L"
320150,"9760 FAIRVIEW RD","IRON RIVER","WI",54847,46.6471380950001,-91.368416724,150,"9760 FAIRVIEW RD, IRON RIVER, WI, 54847","Match","Exact","9760 FAIRVIEW RD, IRON RIVER, WI, 54847",194291273,"L"
320151,"9760 NW 160TH STREET","REDDICK","FL",32686,29.379115691,-82.2854056959999,151,"9760 NW 160TH STREET, REDDICK, FL, 32686","Match","Exact","9760 NW 160TH ST, REDDICK, FL, 32686",116815628,"R"
320152,"9760 S GREENWOOD AVE","CHICAGO","IL",60628,41.7174522440001,-87.5970613869999,152,"9760 S GREENWOOD AVE, CHICAGO, IL, 60628","Match","Exact","9760 S GREENWOOD AVE, CHICAGO, IL, 60628",111776592,"R"
320153,"9760 SE 41ST ST","MERCER ISLAND","WA",98040,47.5736068790001,-122.209858941,153,"9760 SE 41ST ST, MERCER ISLAND, WA, 98040","Match","Exact","9760 SE 41ST ST, MERCER ISLAND, WA, 98040",186607748,"L"
320154,"9760 VIA DE LA AMISTAD","SAN DIEGO","CA",92154,32.5528689720001,-116.934556696,154,"9760 VIA DE LA AMISTAD, SAN DIEGO, CA, 92154","Match","Exact","9760 VIA DE LA AMISTAD, SAN DIEGO, CA, 92154",195675197,"L"
320155,"9761 CALENDULA AVENUE","WESTMINSTER","CA",92683,33.736433015,-117.958963605,155,"9761 CALENDULA AVENUE, WESTMINSTER, CA, 92683","Match","Exact","9761 CALENDULA AVE, WESTMINSTER, CA, 92683",144037416,"L"
320156,"9761 INNISBROOK BLVD","CARMEL","IN",46032,39.9322250070001,-86.221480844,156,"9761 INNISBROOK BLVD, CARMEL, IN, 46032","Match","Exact","9761 INNISBROOK BLVD, CARMEL, IN, 46032",29327208,"R"
320157,"9762 BLOSSOM HILL DRIVE","HUNTERSVILLE","NC",28078,35.4105065040001,-80.863900138,157,"9762 BLOSSOM HILL DRIVE, HUNTERSVILLE, NC, 28078","Match","Exact","9762 BLOSSOM HILL DR, HUNTERSVILLE, NC, 28078",70558944,"L"
320158,"9762 KERN AVENUE","GARDEN GROVE","CA",92844,33.7533346340001,-117.958652737,158,"9762 KERN AVENUE, GARDEN GROVE, CA, 92844","Match","Exact","9762 KERN AVE, GARDEN GROVE, CA, 92844",144035740,"R"
320159,"9762 S VANDERPOEL AVE","CHICAGO","IL",60643,41.7167173920001,-87.665803237,159,"9762 S VANDERPOEL AVE, CHICAGO, IL, 60643","Match","Exact","9762 S VANDERPOEL AVE, CHICAGO, IL, 60643",642123585,"R"
320160,"9762 SILVERTRAIL LANE","ELK GROVE","CA",95624,38.4188376180001,-121.331458766,160,"9762 SILVERTRAIL LANE, ELK GROVE, CA, 95624","Match","Exact","9762 SILVERTRAIL LN, ELK GROVE, CA, 95624",133405647,"R"
320161,"9763 AUDELIA RD APT 2202","DALLAS","TX",75238,32.880044232,-96.717963302,161,"9763 AUDELIA RD APT 2202, DALLAS, TX, 75238","Match","Exact","9763 AUDELIA RD, DALLAS, TX, 75238",648228329,"L"
320162,"9763 AUDELIA RD STE 1202","DALLAS","TX",75238,32.880044232,-96.717963302,162,"9763 AUDELIA RD STE 1202, DALLAS, TX, 75238","Match","Exact","9763 AUDELIA RD, DALLAS, TX, 75238",648228329,"L"
320163,"9763 BLUEWATER HWY","LOWELL","MI",49331,42.934541214,-85.267887725,163,"9763 BLUEWATER HWY, LOWELL, MI, 49331","Match","Exact","9763 BLUEWATER HWY, LOWELL, MI, 49331",12155699,"L"
320164,"9763 BONANZA CREEK AVE","LAS VEGAS","NV",89148,36.064950863,-115.30520057,164,"9763 BONANZA CREEK AVE, LAS VEGAS, NV, 89148","Match","Exact","9763 BONANZA CREEK AVE, LAS VEGAS, NV, 89148",627235006,"L"
320165,"9763 CUPOLA LANE","EDEN PRAIRIE","MN",55347,44.826289155,-93.479193256,165,"9763 CUPOLA LANE, EDEN PRAIRIE, MN, 55347","Match","Exact","9763 CUPOLA LN, EDEN PRAIRIE, MN, 55347",624628095,"R"
320166,"9763 IVEY RIDGE CIRCLE","JONESBORO","GA",30238,33.4906046740001,-84.359087742,166,"9763 IVEY RIDGE CIRCLE, JONESBORO, GA, 30238","Match","Exact","9763 IVEY RIDGE CIR, JONESBORO, GA, 30238",636109417,"L"
320167,"9763 MASON AVENUE","CHATSWORTH","CA",91311,34.247899708,-118.579808955,167,"9763 MASON AVENUE, CHATSWORTH, CA, 91311","Match","Exact","9763 MASON AVE, CHATSWORTH, CA, 91311",141539810,"L"
320168,"9763 NW 37TH STREET","SUNRISE","FL",33351,26.1719373540001,-80.2819395389999,168,"9763 NW 37TH STREET, SUNRISE, FL, 33351","Match","Exact","9763 NW 37TH ST, SUNRISE, FL, 33351",114752086,"L"
320169,"9764 ALEUTIAN STREET","LAS VEGAS","NV",89178,36.011026353,-115.274962116,169,"9764 ALEUTIAN STREET, LAS VEGAS, NV, 89178","Match","Exact","9764 ALEUTIAN ST, LAS VEGAS, NV, 89178",641427136,"R"
320170,"9764 AMARANTH DRIVE","FORT WORTH","TX",76177,32.916789291,-97.336337703,170,"9764 AMARANTH DRIVE, FORT WORTH, TX, 76177","Match","Exact","9764 AMARANTH DR, FORT WORTH, TX, 76177",648626312,"R"
320171,"9764 LAKEWOOD DR","ZIONSVILLE","IN",46077,39.978244815,-86.28246125,171,"9764 LAKEWOOD DR, ZIONSVILLE, IN, 46077","Match","Exact","9764 LAKEWOOD DR, ZIONSVILLE, IN, 46077",29256836,"L"
320172,"9765 HELMSLEY CIR","MONTGOMERY","AL",36117,32.322395842,-86.1372105459999,172,"9765 HELMSLEY CIR, MONTGOMERY, AL, 36117","Match","Exact","9765 HELMSLEY CIR, MONTGOMERY, AL, 36117",616678080,"R"
320173,"9765 OTSEGO ST","DETROIT","MI",48204,42.371774583,-83.125649191,173,"9765 OTSEGO ST, DETROIT, MI, 48204","Match","Exact","9765 OTSEGO ST, DETROIT, MI, 48204",95470695,"L"
320174,"9765 S WOOD ST","CHICAGO","IL",60643,41.716075432,-87.667290969,174,"9765 S WOOD ST, CHICAGO, IL, 60643","Match","Non_Exact","9765 S WOOD ST, CHICAGO, IL, 60643",112049148,"L"
320175,"9765 SHADOW ISLAND DR","SUNLAND","CA",91040,34.250084164,-118.343712178,175,"9765 SHADOW ISLAND DR, SUNLAND, CA, 91040","Match","Exact","9765 SHADOW ISLAND DR, SUNLAND, CA, 91040",141587093,"R"
320176,"9765 W SHELTERWOOD DR","BOISE","ID",83709,43.5377306680001,-116.303380433,176,"9765 W SHELTERWOOD DR, BOISE, ID, 83709","Match","Exact","9765 W SHELTERWOOD DR, BOISE, ID, 83709",617936452,"L"
320177,"9766 KAMENA CIRCLE","BOYNTON BEACH","FL",33436,26.5309987690001,-80.1049526049999,177,"9766 KAMENA CIRCLE, BOYNTON BEACH, FL, 33436","Match","Exact","9766 KAMENA CIR, BOYNTON BEACH, FL, 33436",115577124,"R"
320178,"9766 POPLAR AVE","FONTANA","CA",92335,34.076097922,-117.462434425,178,"9766 POPLAR AVE, FONTANA, CA, 92335","Match","Exact","9766 POPLAR AVE, FONTANA, CA, 92335",144731532,"R"
320179,"9766 W FRIEND PLACE","LITTLETON","CO",80128,39.572509579,-105.107630831,179,"9766 W FRIEND PLACE, LITTLETON, CO, 80128","Match","Exact","9766 W FRIEND PL, LITTLETON, CO, 80128",177324709,"L"
320180,"9767 BEAUCLERC TERRACE","JACKSONVILLE","FL",32257,30.2029296580001,-81.627712991,180,"9767 BEAUCLERC TERRACE, JACKSONVILLE, FL, 32257","Match","Exact","9767 BEAUCLERC TER, JACKSONVILLE, FL, 32257",83917674,"L"
320181,"9767 N 91ST ST STE B102","SCOTTSDALE","AZ",85258,33.574643263,-111.882961436,181,"9767 N 91ST ST STE B102, SCOTTSDALE, AZ, 85258","Match","Non_Exact","9767 N 91ST ST, SCOTTSDALE, AZ, 85258",128931792,"L"
320182,"9767 N STATE ROAD 39","ROSSVILLE","IN",46065,40.427276342,-86.601719837,182,"9767 N STATE ROAD 39, ROSSVILLE, IN, 46065","Match","Exact","9767 STATE RD 39, ROSSVILLE, IN, 46065",640205093,"R"
320183,"9767 PAGEWOOD LN UNIT 512","HOUSTON","TX",77042,29.725357097,-95.5409310049999,183,"9767 PAGEWOOD LN UNIT 512, HOUSTON, TX, 77042","Match","Exact","9767 PAGEWOOD LN, HOUSTON, TX, 77042",96613898,"L"
320184,"9767 QUINN COURT","WELLINGTON","FL",33414,26.637770453,-80.1998158379999,184,"9767 QUINN COURT, WELLINGTON, FL, 33414","Match","Exact","9767 QUINN CT, WELLINGTON, FL, 33414",115584005,"R"
320185,"9767 S INGLESIDE AVE","CHICAGO","IL",60628,41.7172844090001,-87.600668426,185,"9767 S INGLESIDE AVE, CHICAGO, IL, 60628","Match","Exact","9767 S INGLESIDE AVE, CHICAGO, IL, 60628",111776576,"L"
320186,"9768 GOTHA ROAD","GOTHA","FL",34734,NA,NA,186,"9768 GOTHA ROAD, GOTHA, FL, 34734","No_Match",NA,NA,NA,NA
320187,"9768 MICHAELS WAY","ELLICOTT CITY","MD",21042,39.2897696530001,-76.850504858,187,"9768 MICHAELS WAY, ELLICOTT CITY, MD, 21042","Match","Exact","9768 MICHAELS WAY, ELLICOTT CITY, MD, 21042",158923086,"R"
320188,"9768 N STATE ROAD 9","MORRISTOWN","IN",46161,39.666334674,-85.7731083579999,188,"9768 N STATE ROAD 9, MORRISTOWN, IN, 46161","Match","Non_Exact","9768 N STATE RD 9, MORRISTOWN, IN, 46161",33231874,"R"
320189,"9768 SIMONDS ROAD","CORFU","NY",14036,42.9404955970001,-78.33849269,189,"9768 SIMONDS ROAD, CORFU, NY, 14036","Match","Exact","9768 SIMONDS RD, CORFU, NY, 14036",48149140,"L"
320190,"9768 WILDERNESS BATTLE CIRCLE","SAINT LOUIS","MO",63123,38.5455357440001,-90.349476453,190,"9768 WILDERNESS BATTLE CIRCLE, SAINT LOUIS, MO, 63123","Match","Exact","9768 WILDERNESS BATTLE CIR, SAINT LOUIS, MO, 63123",648215751,"L"
320191,"9769 N BRIDGE STREET","EAGLE MOUNTAIN","UT",84005,40.3880675080001,-111.980375606,191,"9769 N BRIDGE STREET, EAGLE MOUNTAIN, UT, 84005","Match","Exact","9769 N BRIDGE ST, EAGLE MOUNTAIN, UT, 84005",651923495,"L"
320192,"977 198TH CT NE","EAST BETHEL","MN",55011,45.328383199,-93.2475069669999,192,"977 198TH CT NE, EAST BETHEL, MN, 55011","Match","Exact","977 198TH CT NE, EAST BETHEL, MN, 55011",617250770,"R"
320193,"977 5TH ST E","ST PAUL","MN",55106,NA,NA,193,"977 5TH ST E, ST PAUL, MN, 55106","No_Match",NA,NA,NA,NA
320194,"977 AIRPORT SERVICE RD","NASHVILLE","TN",37214,NA,NA,194,"977 AIRPORT SERVICE RD, NASHVILLE, TN, 37214","No_Match",NA,NA,NA,NA
320195,"977 ALLENE AVENUE","ATLANTA","GA",30310,33.728059736,-84.4136286309999,195,"977 ALLENE AVENUE, ATLANTA, GA, 30310","Match","Non_Exact","977 ALLENE AVE SW, ATLANTA, GA, 30310",17345280,"R"
320196,"977 ARDEN STREET","PENSACOLA","FL",32504,30.498187209,-87.216548619,196,"977 ARDEN STREET, PENSACOLA, FL, 32504","Match","Exact","977 ARDEN ST, PENSACOLA, FL, 32504",93218319,"R"
320197,"977 BLUEBIRD CT","HARTFORD","WI",53027,43.338967064,-88.3952491219999,197,"977 BLUEBIRD CT, HARTFORD, WI, 53027","Match","Exact","977 BLUEBIRD CT, HARTFORD, WI, 53027",79575686,"R"
320198,"977 CABOT AVE","UNION","NJ",7083,40.6743289890001,-74.242532619,198,"977 CABOT AVE, UNION, NJ, 7083","Match","Exact","977 CABOT AVE, UNION, NJ, 07083",60576656,"R"
320199,"977 CARDELINA LANE","HENDERSON","NV",89052,35.994666792,-115.105534092,199,"977 CARDELINA LANE, HENDERSON, NV, 89052","Match","Exact","977 CARDELINA LN, HENDERSON, NV, 89052",201984010,"R"
320200,"977 CORDELIA ST","NORTH BRUNSWICK","NJ",8902,40.4469650520001,-74.4964996589999,200,"977 CORDELIA ST, NORTH BRUNSWICK, NJ, 8902","Match","Exact","977 CORDELIA ST, N BRUNSWICK, NJ, 08902",60327660,"R"
320201,"977 DURHAM WAY","STOCKBRIDGE","GA",30281,33.5217454310001,-84.2517318009999,201,"977 DURHAM WAY, STOCKBRIDGE, GA, 30281","Match","Exact","977 DURHAM WAY, STOCKBRIDGE, GA, 30281",633274756,"L"
320202,"977 E ST  PO BOX 1596","WILLIAMS","CA",95987,NA,NA,202,"977 E ST  PO BOX 1596, WILLIAMS, CA, 95987","No_Match",NA,NA,NA,NA
320203,"977 FRISIAN DR","FORT COLLINS","CO",80524,40.5758273210001,-104.988324998,203,"977 FRISIAN DR, FORT COLLINS, CO, 80524","Match","Exact","977 FRISIAN DR, FORT COLLINS, CO, 80524",188597820,"R"
320204,"977 HARTFORD TURNPIKE","WATERFORD","CT",6385,41.3879980350001,-72.159856142,204,"977 HARTFORD TURNPIKE, WATERFORD, CT, 6385","Match","Exact","977 HARTFORD TPKE, WATERFORD, CT, 06385",611669029,"L"
320205,"977 KING STREET","CHARLESTON","SC",29403,32.8025498850001,-79.950883615,205,"977 KING STREET, CHARLESTON, SC, 29403","Match","Exact","977 KING ST, CHARLESTON, SC, 29403",108806210,"L"
320206,"977 LIMEKILN ROAD","NEW CUMBERLAND","PA",17070,40.19989595,-76.916481053,206,"977 LIMEKILN ROAD, NEW CUMBERLAND, PA, 17070","Match","Exact","977 LIMEKILN RD, NEW CUMBERLAND, PA, 17070",88737238,"R"
320207,"977 MEADOW RIDGE DR","MADISON","GA",30650,33.5843097010001,-83.462655533,207,"977 MEADOW RIDGE DR, MADISON, GA, 30650","Match","Exact","977 MEADOW RIDGE DR, MADISON, GA, 30650",77597192,"R"
320208,"977 POPLAR SPRINGS ROAD NW","DALTON","GA",30720,34.8344901770001,-84.992641459,208,"977 POPLAR SPRINGS ROAD NW, DALTON, GA, 30720","Match","Non_Exact","977 POPULAR SPRINGS RD NW, DALTON, GA, 30720",639910336,"L"
320209,"977 SAUSALITO STREET","GROVER BEACH","CA",93433,35.1115462060001,-120.610719732,209,"977 SAUSALITO STREET, GROVER BEACH, CA, 93433","Match","Exact","977 SAUSALITO ST, GROVER BEACH, CA, 93433",651092339,"L"
320210,"977 SEMINOLE TRL PMB 283","CHARLOTTESVILLE","VA",22901,38.0637738140001,-78.489899456,210,"977 SEMINOLE TRL PMB 283, CHARLOTTESVILLE, VA, 22901","Match","Exact","977 SEMINOLE TRL, CHARLOTTESVILLE, VA, 22901",635294545,"R"
320211,"977 SEMINOLE TRL PMB 320","CHARLOTTESVILLE","VA",22901,38.0637738140001,-78.489899456,211,"977 SEMINOLE TRL PMB 320, CHARLOTTESVILLE, VA, 22901","Match","Exact","977 SEMINOLE TRL, CHARLOTTESVILLE, VA, 22901",635294545,"R"
320212,"977 SENIOR BAND ROAD","DRAPER","UT",84020,40.494135494,-111.863247264,212,"977 SENIOR BAND ROAD, DRAPER, UT, 84020","Match","Exact","977 SENIOR BAND RD, DRAPER, UT, 84020",176132150,"L"
320213,"977 SHADOW HILL DRIVE","MARTINEZ","CA",94553,38.00188666,-122.083314092,213,"977 SHADOW HILL DRIVE, MARTINEZ, CA, 94553","Match","Exact","977 SHADOW HILL DR, MARTINEZ, CA, 94553",623980438,"L"
320214,"977 SHOREACRES DRIVE","FAIRMONT","MN",56031,43.6356100140001,-94.470392408,214,"977 SHOREACRES DRIVE, FAIRMONT, MN, 56031","Match","Exact","977 SHOREACRES DR, FAIRMONT, MN, 56031",9976548,"R"
320215,"977 SPARKLING LIGHT ST","HENDERSON","NV",89052,35.9922954080001,-115.11277044,215,"977 SPARKLING LIGHT ST, HENDERSON, NV, 89052","Match","Exact","977 SPARKLING LIGHT ST, HENDERSON, NV, 89052",637252546,"R"
320216,"977 W SAN BERNARDINO ROAD SUITE 113","COVINA","CA",91722,34.0889384010001,-117.909196918,216,"977 W SAN BERNARDINO ROAD SUITE 113, COVINA, CA, 91722","Match","Non_Exact","977 W SAN BERNARDINO RD, COVINA, CA, 91722",241245698,"R"
320217,"977 WALLACE AVENUE","BALDWIN","NY",11510,40.6711994660001,-73.603580543,217,"977 WALLACE AVENUE, BALDWIN, NY, 11510","Match","Exact","977 WALLACE AVE, BALDWIN, NY, 11510",147630027,"L"
320218,"977 WIND RIVER WAY","KAYSVILLE","UT",84037,41.018466183,-111.925642565,218,"977 WIND RIVER WAY, KAYSVILLE, UT, 84037","Match","Exact","977 WIND RIVER WAY, KAYSVILLE, UT, 84037",642842926,"L"
320219,"977 WINDSOR STREET EAST","SALT LAKE CITY","UT",84105,40.7476018950001,-111.866747095,219,"977 WINDSOR STREET EAST, SALT LAKE CITY, UT, 84105","Match","Non_Exact","977 WINDSOR ST, SALT LAKE CITY, UT, 84105",176080324,"L"
320220,"977-A NORTHSIDE DRIVE","STATESBORO","GA",30458,32.444969122,-81.769581153,220,"977-A NORTHSIDE DRIVE, STATESBORO, GA, 30458","Match","Non_Exact","977 NORTHSIDE DR E, STATESBORO, GA, 30458",6115386,"L"
320221,"977","LANHAM","MD",20706,NA,NA,221,"977, LANHAM, MD, 20706","No_Match",NA,NA,NA,NA
320222,"9770 BURGESS ROAD","CHARLEVOIX","MI",49720,45.346646734,-85.158742044,222,"9770 BURGESS ROAD, CHARLEVOIX, MI, 49720","Match","Exact","9770 BURGESS RD, CHARLEVOIX, MI, 49720",134502554,"R"
320223,"9770 E LANGELL VALLEY RD","BONANZA","OR",97623,42.1367562460001,-121.277105655,223,"9770 E LANGELL VALLEY RD, BONANZA, OR, 97623","Match","Non_Exact","9770 E LANGELL VALLEY RD, BONANZA, OR, 97623",614576192,"L"
320224,"9770 GABLE DRIVE","EDEN PRAIRIE","MN",55347,44.826538886,-93.47728232,224,"9770 GABLE DRIVE, EDEN PRAIRIE, MN, 55347","Match","Exact","9770 GABLE DR, EDEN PRAIRIE, MN, 55347",641292557,"L"
320225,"9770 PATUXENT WOODS DR SUITE 329","COLUMBIA","MD",21046,39.1782494130001,-76.849123844,225,"9770 PATUXENT WOODS DR SUITE 329, COLUMBIA, MD, 21046","Match","Exact","9770 PATUXENT WOODS DR, COLUMBIA, MD, 21046",158967725,"R"
320226,"9770 S MILITARY TRAIL B4-251","BOYNTON BEACH","FL",33436,26.530871959,-80.1227426089999,226,"9770 S MILITARY TRAIL B4-251, BOYNTON BEACH, FL, 33436","Match","Non_Exact","9770 S MILITARY TRL, BOYNTON BEACH, FL, 33436",646932262,"R"
320227,"9770 SOUTH CHARLESTON PIKE","SOUTH CHARLESTON","OH",45368,39.8490739170001,-83.635320705,227,"9770 SOUTH CHARLESTON PIKE, SOUTH CHARLESTON, OH, 45368","Match","Exact","9770 S CHARLESTON PIKE, S CHARLESTON, OH, 45368",653479201,"L"
320228,"9770 SW HEATHER LN","BEAVERTON","OR",97008,45.467649196,-122.77726802,228,"9770 SW HEATHER LN, BEAVERTON, OR, 97008","Match","Exact","9770 SW HEATHER LN, BEAVERTON, OR, 97008",639786796,"L"
320229,"9771 OLD HIGHWAY 46","BON AQUA","TN",37025,35.9566362420001,-87.326544331,229,"9771 OLD HIGHWAY 46, BON AQUA, TN, 37025","Match","Non_Exact","9771 OLD STATE HWY 46, BON AQUA, TN, 37025",26771768,"L"
320230,"9771 VERDE MAR DR","HUNTINGTON BEACH","CA",92646,33.651074169,-117.957067625,230,"9771 VERDE MAR DR, HUNTINGTON BEACH, CA, 92646","Match","Exact","9771 VERDE MAR DR, HUNTINGTON BEACH, CA, 92646",639052778,"L"
320231,"9774 SUMMIT POINT DRIVE","MIAMISBURG","OH",45342,NA,NA,231,"9774 SUMMIT POINT DRIVE, MIAMISBURG, OH, 45342","No_Match",NA,NA,NA,NA
320232,"9775 BROCKS GAP RD","FULKS RUN","VA",22830,38.643977696,-78.884288066,232,"9775 BROCKS GAP RD, FULKS RUN, VA, 22830","Match","Exact","9775 BROCKS GAP RD, FULKS RUN, VA, 22830",55734825,"R"
320233,"9775 FRANK RD","GERMANTOWN","TN",38139,35.069751072,-89.736926393,233,"9775 FRANK RD, GERMANTOWN, TN, 38139","Match","Exact","9775 FRANK RD, GERMANTOWN, TN, 38139",72973397,"L"
320234,"9775 LAFORET DR","EDEN PRAIRIE","MN",55347,44.8267078110001,-93.501573762,234,"9775 LAFORET DR, EDEN PRAIRIE, MN, 55347","Match","Exact","9775 LAFORET DR, EDEN PRAIRIE, MN, 55347",43857864,"R"
320235,"9775 LAFORET DR","EDEN PRARIE","MN",55347,44.8267078110001,-93.501573762,235,"9775 LAFORET DR, EDEN PRARIE, MN, 55347","Match","Exact","9775 LAFORET DR, EDEN PRAIRIE, MN, 55347",43857864,"R"
320236,"9776 BONITA BEACH ROAD SE SUITE 102","BONITA SPRINGS","FL",34135,26.3309615810001,-81.792057915,236,"9776 BONITA BEACH ROAD SE SUITE 102, BONITA SPRINGS, FL, 34135","Match","Exact","9776 BONITA BEACH RD SE, BONITA SPGS, FL, 34135",118130914,"L"
320237,"9777 CR 459","ANSON","TX",79501,32.6650176250001,-99.9531478389999,237,"9777 CR 459, ANSON, TX, 79501","Match","Exact","9777 CO RD 459, ANSON, TX, 79501",185572291,"R"
320238,"9777 DORSETT LANE","EDEN PRAIRIE","MN",55347,44.8255160040001,-93.3997759219999,238,"9777 DORSETT LANE, EDEN PRAIRIE, MN, 55347","Match","Non_Exact","9777 DORSET LN, EDEN PRAIRIE, MN, 55347",624732667,"R"
320239,"9777 HALLS FERRY ROAD","ST LOUIS","MO",63136,38.7394443430001,-90.250859018,239,"9777 HALLS FERRY ROAD, ST LOUIS, MO, 63136","Match","Exact","9777 HALLS FERRY RD, SAINT LOUIS, MO, 63136",100149489,"L"
320240,"9777 HARWIN DR SUITE 509","HOUSTON","TX",77036,29.717821686,-95.533169503,240,"9777 HARWIN DR SUITE 509, HOUSTON, TX, 77036","Match","Exact","9777 HARWIN DR, HOUSTON, TX, 77036",96613966,"L"
320241,"9777 LYNNS RD SW","ETNA","OH",43062,39.9522202250001,-82.6957044119999,241,"9777 LYNNS RD SW, ETNA, OH, 43062","Match","Exact","9777 LYNNS RD SW, ETNA, OH, 43062",647875415,"R"
320242,"9777 SEAACA STREET","DOWNEY","CA",90241,33.9218935320001,-118.112364594,242,"9777 SEAACA STREET, DOWNEY, CA, 90241","Match","Exact","9777 SEAACA ST, DOWNEY, CA, 90241",142661702,"R"
320243,"9777 VIA DE LA AMISTAD","SAN DIEGO","CA",92154,32.5527935850001,-116.930927688,243,"9777 VIA DE LA AMISTAD, SAN DIEGO, CA, 92154","Match","Exact","9777 VIA DE LA AMISTAD, SAN DIEGO, CA, 92154",195675197,"R"
320244,"9777 WILSHIRE BLVD SUITE 904","BEVERLY HILLS","CA",90212,34.067082301,-118.409043599,244,"9777 WILSHIRE BLVD SUITE 904, BEVERLY HILLS, CA, 90212","Match","Exact","9777 WILSHIRE BLVD, BEVERLY HILLS, CA, 90212",141571517,"R"
320245,"9779 CLEARLAKE LANE","DENHAM SPRINGS","LA",70726,30.462545418,-90.92433068,245,"9779 CLEARLAKE LANE, DENHAM SPRINGS, LA, 70726","Match","Non_Exact","9779 CLEAR LAKE LN, DENHAM SPRINGS, LA, 70726",646577718,"L"
320246,"9779 CUPOLA LANE","EDEN PRAIRIE","MI",55347,NA,NA,246,"9779 CUPOLA LANE, EDEN PRAIRIE, MI, 55347","No_Match",NA,NA,NA,NA
320247,"9779 GAYLORD PARKWAY UNIT 362","FRISCO","TX",75035,33.1052344130001,-96.79517139,247,"9779 GAYLORD PARKWAY UNIT 362, FRISCO, TX, 75035","Match","Exact","9779 GAYLORD PKWY, FRISCO, TX, 75035",651663159,"R"
320248,"9779 GREEN PARK INDUSTRIAL DRIVE","SAINT LOUIS","MO",63123,38.526420957,-90.3323570759999,248,"9779 GREEN PARK INDUSTRIAL DRIVE, SAINT LOUIS, MO, 63123","Match","Exact","9779 GREEN PARK INDUSTRIAL DR, SAINT LOUIS, MO, 63123",100195891,"R"
320249,"9779 SUMMER GROVE WAY W","JACKSONVILLE","FL",32257,NA,NA,249,"9779 SUMMER GROVE WAY W, JACKSONVILLE, FL, 32257","No_Match",NA,NA,NA,NA
320250,"978 ALPINE DR","JASPER","GA",30143,NA,NA,250,"978 ALPINE DR, JASPER, GA, 30143","No_Match",NA,NA,NA,NA
320251,"978 BEECHWOOD RD","COLUMBUS","OH",43227,39.9533994240001,-82.89445002,251,"978 BEECHWOOD RD, COLUMBUS, OH, 43227","Match","Exact","978 BEECHWOOD RD, COLUMBUS, OH, 43227",633587399,"L"
320252,"978 CIMARRON RD","FRISCO","TX",75036,33.1390667840001,-96.882619413,252,"978 CIMARRON RD, FRISCO, TX, 75036","Match","Exact","978 CIMARRON RD, FRISCO, TX, 75036",648086890,"L"
320253,"978 COTTONWOOD LANE","HAMPTON","GA",30228,33.4481479770001,-84.3143552829999,253,"978 COTTONWOOD LANE, HAMPTON, GA, 30228","Match","Exact","978 COTTONWOOD LN, HAMPTON, GA, 30228",23329306,"R"
320254,"978 FOXTAIL CT","FRANKLIN","IN",46131,39.4694835660001,-86.069946382,254,"978 FOXTAIL CT, FRANKLIN, IN, 46131","Match","Exact","978 FOXTAIL CT, FRANKLIN, IN, 46131",114659243,"L"
320255,"978 FRONT AVENUE","ST. PAUL","MN",55103,44.9701972390001,-93.1423908529999,255,"978 FRONT AVENUE, ST. PAUL, MN, 55103","Match","Exact","978 FRONT AVE, SAINT PAUL, MN, 55103",97642280,"L"
320256,"978 GILMORE AVENUE","WINONA","MN",55987,44.0485584910001,-91.663555147,256,"978 GILMORE AVENUE, WINONA, MN, 55987","Match","Exact","978 GILMORE AVE, WINONA, MN, 55987",31662842,"R"
320257,"978 HARRISON AVE","BLAINE","WA",98230,48.990887474,-122.746388173,257,"978 HARRISON AVE, BLAINE, WA, 98230","Match","Exact","978 HARRISON AVE, BLAINE, WA, 98230",183757990,"R"
320258,"978 LA MESA TER","SUNNYVALE","CA",94086,37.385800639,-122.043245961,258,"978 LA MESA TER, SUNNYVALE, CA, 94086","Match","Exact","978 LA MESA TER, SUNNYVALE, CA, 94086",618166148,"L"
320259,"978 LEITH AVE","SANTA CLARA","CA",95054,37.3883468000001,-121.95069406,259,"978 LEITH AVE, SANTA CLARA, CA, 95054","Match","Exact","978 LEITH AVE, SANTA CLARA, CA, 95054",122959327,"L"
320260,"978 MAHLE DRIVE","REYNOLDSBURG","OH",43068,39.970745548,-82.7597414529999,260,"978 MAHLE DRIVE, REYNOLDSBURG, OH, 43068","Match","Exact","978 MAHLE DR, REYNOLDSBURG, OH, 43068",61519458,"L"
320261,"978 MAIN ST APT D1","HACKENSACK","NJ",7601,40.9100576500001,-74.040073916,261,"978 MAIN ST APT D1, HACKENSACK, NJ, 7601","Match","Exact","978 MAIN ST, HACKENSACK, NJ, 07601",64384673,"R"
320262,"978 MAIN ST","ELIOT","ME",3903,43.1150664400001,-70.792270601,262,"978 MAIN ST, ELIOT, ME, 3903","Match","Exact","978 MAIN ST, ELIOT, ME, 03903",651215631,"R"
320263,"978 NORTH AVENUE NE SUITE 301","ATLANTA","GA",30306,NA,NA,263,"978 NORTH AVENUE NE SUITE 301, ATLANTA, GA, 30306","No_Match",NA,NA,NA,NA
320264,"978 OLD CHINQUAPIN ROAD","BUELAVILLE","NC",28518,34.8809520120001,-77.772455453,264,"978 OLD CHINQUAPIN ROAD, BUELAVILLE, NC, 28518","Match","Non_Exact","978 OLD CHINQUAPIN RD, BEULAVILLE, NC, 28518",13413660,"L"
320265,"978 RAMBLEWOOD DRIVE","CORAL SPRINGS","FL",33071,26.242574883,-80.239241407,265,"978 RAMBLEWOOD DRIVE, CORAL SPRINGS, FL, 33071","Match","Exact","978 RAMBLEWOOD DR, CORAL SPRINGS, FL, 33071",114691393,"L"
320266,"978 SHAW ROAD","CARTHAGE","NC",28327,35.306621938,-79.3233744039999,266,"978 SHAW ROAD, CARTHAGE, NC, 28327","Match","Exact","978 SHAW RD, CARTHAGE, NC, 28327",20345360,"L"
320267,"978 SOUTH GOODMAN ST","ROCHESTER","NY",14620,NA,NA,267,"978 SOUTH GOODMAN ST, ROCHESTER, NY, 14620","No_Match",NA,NA,NA,NA
320268,"978 SPRINGFIELD ST APARTMENT C","UPLAND","CA",91786,34.108694773,-117.665091185,268,"978 SPRINGFIELD ST APARTMENT C, UPLAND, CA, 91786","Match","Non_Exact","978 W SPRINGFIELD ST, UPLAND, CA, 91786",144670064,"L"
320269,"978 UNIVERSITY FOREST DRIVE","CONWAY","SC",29526,33.814614401,-79.005679444,269,"978 UNIVERSITY FOREST DRIVE, CONWAY, SC, 29526","Match","Exact","978 UNIVERSITY FOREST DR, CONWAY, SC, 29526",639639747,"R"
320270,"978 WIN WAY","EAGLE POINT","OR",97524,42.484227139,-122.805586048,270,"978 WIN WAY, EAGLE POINT, OR, 97524","Match","Exact","978 WIN WAY, EAGLE POINT, OR, 97524",637422988,"L"
320271,"9780 E INDIGO STREET SUITE 202","PALMETTO BAY","FL",33157,25.6027364550001,-80.3497584,271,"9780 E INDIGO STREET SUITE 202, PALMETTO BAY, FL, 33157","Match","Non_Exact","9780 E INDIGO ST, PALMETTO BAY, FL, 33157",115983790,"L"
320272,"9780 N 56TH STREET SUITE B","TEMPLE TERRACE","FL",33617,28.0378729810001,-82.3934498629999,272,"9780 N 56TH STREET SUITE B, TEMPLE TERRACE, FL, 33617","Match","Non_Exact","9780 N 56TH ST, TEMPLE TER, FL, 33617",104606989,"L"
320273,"9780 N 56TH STREET SUITE C","TEMPLE TERRACE","FL",33617,28.0378729810001,-82.3934498629999,273,"9780 N 56TH STREET SUITE C, TEMPLE TERRACE, FL, 33617","Match","Non_Exact","9780 N 56TH ST, TEMPLE TER, FL, 33617",104606989,"L"
320274,"9780A LUNDY LANE WEST","THEODORE","AL",36582,30.4893645760001,-88.177236175,274,"9780A LUNDY LANE WEST, THEODORE, AL, 36582","Match","Exact","9780 LUNDY LN W, THEODORE, AL, 36582",61961171,"L"
320275,"9781 CUNNINGHAM RD","JACKSONVILLE","FL",32246,30.3111031880001,-81.555552636,275,"9781 CUNNINGHAM RD, JACKSONVILLE, FL, 32246","Match","Exact","9781 CUNNINGHAM RD, JACKSONVILLE, FL, 32246",647405000,"L"
320276,"9781 INDEPENDENCE WAY","WESTMINSTER","CO",80021,39.8742844390001,-105.103742901,276,"9781 INDEPENDENCE WAY, WESTMINSTER, CO, 80021","Match","Exact","9781 INDEPENDENCE WAY, WESTMINSTER, CO, 80021",177282106,"R"
320277,"9781 MAIN ST","STANWOOD","MI",49346,43.5651472810001,-85.282643105,277,"9781 MAIN ST, STANWOOD, MI, 49346","Match","Exact","9781 MAIN ST, STANWOOD, MI, 49346",110521358,"R"
320278,"9781 PYRAMID COURT UNIT 2-318","ENGLEWOOD","CO",80112,39.5393252760001,-104.865440581,278,"9781 PYRAMID COURT UNIT 2-318, ENGLEWOOD, CO, 80112","Match","Exact","9781 PYRAMID CT, ENGLEWOOD, CO, 80112",130801465,"L"
320279,"9782 E FLATHORN DR","SCOTTSDALE","AZ",85255,33.671427098,-111.872445876,279,"9782 E FLATHORN DR, SCOTTSDALE, AZ, 85255","Match","Exact","9782 E FLATHORN DR, SCOTTSDALE, AZ, 85255",128599727,"R"
320280,"9782 LEBANON CHURCH RD","CLARENDON","NC",28432,34.096500894,-78.7173890399999,280,"9782 LEBANON CHURCH RD, CLARENDON, NC, 28432","Match","Exact","9782 LEBANON CHURCH RD, CLARENDON, NC, 28432",64145426,"L"
320281,"9782 RAINIER CIR","HUNTINGTON BEACH","CA",92646,33.671166214,-117.958138169,281,"9782 RAINIER CIR, HUNTINGTON BEACH, CA, 92646","Match","Exact","9782 RAINIER CIR, HUNTINGTON BEACH, CA, 92646",144044697,"R"
320282,"9782 SANTIAGO BL","VILLA PARK","CA",92861,NA,NA,282,"9782 SANTIAGO BL, VILLA PARK, CA, 92861","No_Match",NA,NA,NA,NA
320283,"9783 ALBERTON LN","ALPHARETTA","GA",30022,34.0202545430001,-84.1948747759999,283,"9783 ALBERTON LN, ALPHARETTA, GA, 30022","Match","Exact","9783 ALBERTON LN, ALPHARETTA, GA, 30022",647337486,"R"
320284,"9783 E 116 ST 23491","FISHERS","IN",46037,NA,NA,284,"9783 E 116 ST 23491, FISHERS, IN, 46037","No_Match",NA,NA,NA,NA
320285,"9783 E 116TH ST PMB 3329","FISHERS","IN",46037,NA,NA,285,"9783 E 116TH ST PMB 3329, FISHERS, IN, 46037","No_Match",NA,NA,NA,NA
320286,"9783 HERONS NEST CT  APT 308","LAKE WORTH","FL",33467,26.5986737150001,-80.201548504,286,"9783 HERONS NEST CT  APT 308, LAKE WORTH, FL, 33467","Match","Exact","9783 HERONS NEST CT, LAKE WORTH, FL, 33467",646620457,"R"
320287,"9784 E OGLETHORPE HWY SUITE C","MIDWAY","GA",31320,31.799470607,-81.4477267789999,287,"9784 E OGLETHORPE HWY SUITE C, MIDWAY, GA, 31320","Match","Non_Exact","9784 E OGLETHORPE HWY, MIDWAY, GA, 31320",628077933,"L"
320288,"9784 LAKE POINT COURT","JONESBORO","GA",30236,33.4885936680001,-84.327152387,288,"9784 LAKE POINT COURT, JONESBORO, GA, 30236","Match","Exact","9784 LAKE POINT CT, JONESBORO, GA, 30236",23317468,"L"
320289,"9785 COUNTY ROAD 3","KIRK","CO",80824,39.6125010760001,-102.615583097,289,"9785 COUNTY ROAD 3, KIRK, CO, 80824","Match","Exact","9785 CO RD 3, KIRK, CO, 80824",161463392,"L"
320290,"9788 COLINADE DRIVE","LONE TREE","CO",80124,39.539055558,-104.890334445,290,"9788 COLINADE DRIVE, LONE TREE, CO, 80124","Match","Exact","9788 COLINADE DR, LONE TREE, CO, 80124",130815355,"L"
320291,"9788 SE JEANS RD","ARCADIA","FL",34266,27.0824082830001,-81.7685830039999,291,"9788 SE JEANS RD, ARCADIA, FL, 34266","Match","Non_Exact","9788 SE JEAN'S RD, ARCADIA, FL, 34266",651014409,"L"
320292,"9789 ALMERIA AVE","FONTANA","CA",92235,34.075387193,-117.459815084,292,"9789 ALMERIA AVE, FONTANA, CA, 92235","Match","Non_Exact","9789 ALMERIA AVE, FONTANA, CA, 92335",144641733,"L"
320293,"9789 CHARLOTTE HIGHWAY SUITE 400-27","FORT MILL","PA",29707,NA,NA,293,"9789 CHARLOTTE HIGHWAY SUITE 400-27, FORT MILL, PA, 29707","No_Match",NA,NA,NA,NA
320294,"979 23RD STREET","RICHMOND","CA",94804,37.946858993,-122.347450143,294,"979 23RD STREET, RICHMOND, CA, 94804","Match","Exact","979 23RD ST, RICHMOND, CA, 94804",192039086,"L"
320295,"979 ALTA VISTA DRIVE","ALTADENA","CA",91001,34.1960749250001,-118.130050753,295,"979 ALTA VISTA DRIVE, ALTADENA, CA, 91001","Match","Exact","979 ALTA VISTA DR, ALTADENA, CA, 91001",141628301,"L"
320296,"979 ASHLAND WAY","LELAND","NC",28451,34.264449831,-78.0679069129999,296,"979 ASHLAND WAY, LELAND, NC, 28451","Match","Exact","979 ASHLAND WAY, LELAND, NC, 28451",632042892,"L"
320297,"979 BIDWELL AVENUE","SUNNYVALE","CA",94086,37.3815948440001,-122.044384597,297,"979 BIDWELL AVENUE, SUNNYVALE, CA, 94086","Match","Exact","979 BIDWELL AVE, SUNNYVALE, CA, 94086",122956558,"R"
320298,"979 CARDINAL HILL RD","LOYSVILLE","PA",17047,40.3694229440001,-77.4705148899999,298,"979 CARDINAL HILL RD, LOYSVILLE, PA, 17047","Match","Exact","979 CARDINAL HILL RD, LOYSVILLE, PA, 17047",61068473,"R"
320299,"979 E FIFTH AVE","COLUMBUS","OH",43201,39.986012728,-82.9784490219999,299,"979 E FIFTH AVE, COLUMBUS, OH, 43201","Match","Exact","979 E 5TH AVE, COLUMBUS, OH, 43201",135579368,"R"
320300,"979 EAST 5TH AVENUE","COLUMBUS","OH",43201,39.986012728,-82.9784490219999,300,"979 EAST 5TH AVENUE, COLUMBUS, OH, 43201","Match","Exact","979 E 5TH AVE, COLUMBUS, OH, 43201",135579368,"R"
320301,"979 FARMINGTON AVENUE","FARMINGTON","CT",6032,41.738278742,-72.843964337,301,"979 FARMINGTON AVENUE, FARMINGTON, CT, 6032","Match","Exact","979 FARMINGTON AVE, FARMINGTON, CT, 06032",635488917,"L"
320302,"979 FOLSOM ROAD","LOXAHATCHEE","FL",33470,26.6912554030001,-80.246513691,302,"979 FOLSOM ROAD, LOXAHATCHEE, FL, 33470","Match","Exact","979 FOLSOM RD, LOXAHATCHEE, FL, 33470",115264895,"R"
320303,"979 GWAY","FOX ISLAND","WA",98333,47.253656343,-122.618878179,303,"979 GWAY, FOX ISLAND, WA, 98333","Match","Non_Exact","979 GWAY DR, FOX ISLAND, WA, 98333",653502356,"L"
320304,"979 HANK AARON DR","ATLANTA","GA",30315,33.7274286620001,-84.388010989,304,"979 HANK AARON DR, ATLANTA, GA, 30315","Match","Non_Exact","979 HANK AARON DR SE, ATLANTA, GA, 30315",17346402,"R"
320305,"979 NEW HAVEN RD","HULETT","WY",82720,44.7235364430001,-104.690566928,305,"979 NEW HAVEN RD, HULETT, WY, 82720","Match","Exact","979 NEW HAVEN RD, HULETT, WY, 82720",147173644,"L"
320306,"979 NORTH MAIN STREET","ROCKFORD","IL",61103,42.2811438900001,-89.084874051,306,"979 NORTH MAIN STREET, ROCKFORD, IL, 61103","Match","Exact","979 N MAIN ST, ROCKFORD, IL, 61103",49258467,"R"
320307,"979 NOVEMBER DR","CUPERTINO","CA",95014,37.3113935710001,-122.047234835,307,"979 NOVEMBER DR, CUPERTINO, CA, 95014","Match","Exact","979 NOVEMBER DR, CUPERTINO, CA, 95014",123013810,"R"
320308,"979 SOUTH JAMES ROAD","COLUMBUS","OH",43227,39.950621106,-82.915361773,308,"979 SOUTH JAMES ROAD, COLUMBUS, OH, 43227","Match","Exact","979 S JAMES RD, COLUMBUS, OH, 43227",135591664,"R"
320309,"979 TORREY HILL DRIVE","COLUMBUS","OH",43228,39.9339917130001,-83.103766035,309,"979 TORREY HILL DRIVE, COLUMBUS, OH, 43228","Match","Exact","979 TORREY HILL DR, COLUMBUS, OH, 43228",218677783,"R"
320310,"979 ULSTER HEIGHTS RD","ELLENVILLE","NY",12428,41.7639100230001,-74.458021937,310,"979 ULSTER HEIGHTS RD, ELLENVILLE, NY, 12428","Match","Exact","979 ULSTER HEIGHTS RD, ELLENVILLE, NY, 12428",41867205,"L"
320311,"979 W MILL BEND","KENNESAW","GA",30152,33.9787612390001,-84.675974009,311,"979 W MILL BEND, KENNESAW, GA, 30152","Match","Exact","979 W MILL BEND, KENNESAW, GA, 30152",17226305,"R"
320312,"979 WASHINGTON SQUARE MALL","WASHINGTON","NC",27889,35.5543032890001,-77.057757479,312,"979 WASHINGTON SQUARE MALL, WASHINGTON, NC, 27889","Match","Non_Exact","979 WASHINGTON ST, WASHINGTON, NC, 27889",67953118,"R"
320313,"979 WOODLAND PARKWAY SUITE 101 -116","SAN MARCOS","CA",92069,33.1562451620001,-117.129658924,313,"979 WOODLAND PARKWAY SUITE 101 -116, SAN MARCOS, CA, 92069","Match","Exact","979 WOODLAND PKWY, SAN MARCOS, CA, 92069",195458670,"R"
320314,"9790 TROY LANE NORTH","MAPLE GROVE","MN",55311,45.133238851,-93.5124963229999,314,"9790 TROY LANE NORTH, MAPLE GROVE, MN, 55311","Match","Exact","9790 TROY LN N, MAPLE GROVE, MN, 55311",43676089,"R"
320315,"9790 WEST HILL DRIVE","CANFIELD","OH",44406,NA,NA,315,"9790 WEST HILL DRIVE, CANFIELD, OH, 44406","No_Match",NA,NA,NA,NA
320316,"9791 ARROW ROUTE","RANCHO CUCAMONGA","CA",91730,34.099312356,-117.592047588,316,"9791 ARROW ROUTE, RANCHO CUCAMONGA, CA, 91730","Match","Exact","9791 ARROW RTE, RANCHO CUCAMONGA, CA, 91730",144637308,"R"
320317,"9791 RIO GRANDE ST","VENTURA","CA",93004,34.268278615,-119.162278274,317,"9791 RIO GRANDE ST, VENTURA, CA, 93004","Match","Exact","9791 RIO GRANDE ST, VENTURA, CA, 93004",110089246,"L"
320318,"9792 BAINS ROAD","SAINT FRANCISVILLE","LA",70775,30.827409575,-91.376847923,318,"9792 BAINS ROAD, SAINT FRANCISVILLE, LA, 70775","Match","Exact","9792 BAINS RD, SAINT FRANCISVILLE, LA, 70775",84900650,"R"
320319,"9792 BLOOMHILL DR","HOLLY","MI",48442,42.739627694,-83.632737492,319,"9792 BLOOMHILL DR, HOLLY, MI, 48442","Match","Non_Exact","9792 BLOOM HILL DR, HOLLY, MI, 48442",69686727,"L"
320320,"9792 EDMONDS WAY 267","EDMONDS","WA",98020,47.7905099640001,-122.364242287,320,"9792 EDMONDS WAY 267, EDMONDS, WA, 98020","Match","Exact","9792 EDMONDS WAY, EDMONDS, WA, 98020",615541458,"L"
320321,"9792 EDMONDS WAY SUITE 161","EDMONDS","WA",98020,47.7905099640001,-122.364242287,321,"9792 EDMONDS WAY SUITE 161, EDMONDS, WA, 98020","Match","Exact","9792 EDMONDS WAY, EDMONDS, WA, 98020",615541458,"L"
320322,"9792 EDMONDS WAY UNIT 253","EDMONDS","WA",98020,47.7905099640001,-122.364242287,322,"9792 EDMONDS WAY UNIT 253, EDMONDS, WA, 98020","Match","Exact","9792 EDMONDS WAY, EDMONDS, WA, 98020",615541458,"L"
320323,"9792 LEE STREET","CYPRESS","CA",90630,33.8197637440001,-118.027585459,323,"9792 LEE STREET, CYPRESS, CA, 90630","Match","Exact","9792 LEE ST, CYPRESS, CA, 90630",143999954,"L"
320324,"9792 TAMPICO CHASE","FISHERS","IL",46040,NA,NA,324,"9792 TAMPICO CHASE, FISHERS, IL, 46040","No_Match",NA,NA,NA,NA
320325,"9793 NW 41ST STREET BOX 1004","DORAL","FL",33178,25.8116599000001,-80.355578517,325,"9793 NW 41ST STREET BOX 1004, DORAL, FL, 33178","Match","Non_Exact","9793 NW 41ST ST, DORAL, FL, 33178",640558509,"R"
320326,"9793 NW CR 239","LAKE BUTLER","FL",32054,30.0200933040001,-82.4671480109999,326,"9793 NW CR 239, LAKE BUTLER, FL, 32054","Match","Exact","9793 CO RD 239, LAKE BUTLER, FL, 32054",6786736,"L"
320327,"9793 OLD TILE FACTORY ROAD","VAN WERT","OH",45891,40.865974894,-84.6334199039999,327,"9793 OLD TILE FACTORY ROAD, VAN WERT, OH, 45891","Match","Exact","9793 OLD TILE FACTORY RD, VAN WERT, OH, 45891",635799816,"L"
320328,"9794 CERRA VISTA STREET","APPLE VALLEY","CA",92308,34.4279109190001,-117.159433938,328,"9794 CERRA VISTA STREET, APPLE VALLEY, CA, 92308","Match","Exact","9794 CERRA VISTA ST, APPLE VALLEY, CA, 92308",647991600,"L"
320329,"9794 CLAYTON ROAD","SAINT LOUIS","MO",63124,38.638379371,-90.3898526359999,329,"9794 CLAYTON ROAD, SAINT LOUIS, MO, 63124","Match","Exact","9794 CLAYTON RD, SAINT LOUIS, MO, 63124",604494913,"L"
320330,"9794 HIGHWAY 142","NEWBORN","GA",30056,NA,NA,330,"9794 HIGHWAY 142, NEWBORN, GA, 30056","No_Match",NA,NA,NA,NA
320331,"9794 IRIS STREET","WESTMINSTER","CO",80021,39.8742776070001,-105.104978092,331,"9794 IRIS STREET, WESTMINSTER, CO, 80021","Match","Exact","9794 IRIS ST, WESTMINSTER, CO, 80021",177282070,"R"
320332,"9794 OLD HAWN RD","HUNTINGDON","PA",16652,40.5764322260001,-77.95214262,332,"9794 OLD HAWN RD, HUNTINGDON, PA, 16652","Match","Exact","9794 OLD HAWN RD, HUNTINGDON, PA, 16652",636621892,"L"
320333,"9795 SAVONA WINDS DRIVE","DELRAY BEACH","FL",33446,26.444729685,-80.202668202,333,"9795 SAVONA WINDS DRIVE, DELRAY BEACH, FL, 33446","Match","Exact","9795 SAVONA WINDS DR, DELRAY BEACH, FL, 33446",653179674,"R"
320334,"9795 W BEACH ROSE CT","LASVEGAS","NV",89148,36.0746010410001,-115.306762907,334,"9795 W BEACH ROSE CT, LASVEGAS, NV, 89148","Match","Non_Exact","9795 BEACH ROSE CT, LAS VEGAS, NV, 89148",612986430,"L"
320335,"97961 PAYNE ROAD","BROOKINGS","OR",97415,42.056407236,-124.259714214,335,"97961 PAYNE ROAD, BROOKINGS, OR, 97415","Match","Exact","97961 PAYNE RD, BROOKINGS, OR, 97415",642918363,"L"
320336,"9797 E SAN SALVADOR DRIVE","SCOTTSDALE","AZ",85258,33.571201698,-111.870254023,336,"9797 E SAN SALVADOR DRIVE, SCOTTSDALE, AZ, 85258","Match","Exact","9797 E SAN SALVADOR DR, SCOTTSDALE, AZ, 85258",128230362,"R"
320337,"9797 OAK CREST RD","ORLANDO","FL",32829,28.4950599200001,-81.249834042,337,"9797 OAK CREST RD, ORLANDO, FL, 32829","Match","Non_Exact","9797 OAKCREST RD, ORLANDO, FL, 32829",606058130,"L"
320338,"9797 SW 40TH STREET","MIAMI","FL",33165,25.7326580170001,-80.353908135,338,"9797 SW 40TH STREET, MIAMI, FL, 33165","Match","Non_Exact","9797 SW 40TH ST, MIAMI, FL, 33165",115973044,"R"
320339,"9798 GAULDING","BEAUMONT","TX",77705,29.939690812,-94.226812541,339,"9798 GAULDING, BEAUMONT, TX, 77705","Match","Non_Exact","9798 GAULDING RD, BEAUMONT, TX, 77705",626697803,"R"
320340,"98 -05 67TH AVE APT 4E","REGO PARK","NY",11374,NA,NA,340,"98 -05 67TH AVE APT 4E, REGO PARK, NY, 11374","Tie",NA,NA,NA,NA
320341,"98 2ND ST","BONITA SPRINGS","FL",34134,26.328650372,-81.82376987,341,"98 2ND ST, BONITA SPRINGS, FL, 34134","Match","Exact","98 2ND ST, BONITA SPGS, FL, 34134",115136314,"R"
320342,"98 4TH STREET SUITE 100","BROOKLYN","NY",11231,40.676925596,-73.993586181,342,"98 4TH STREET SUITE 100, BROOKLYN, NY, 11231","Match","Exact","98 4TH ST, BROOKLYN, NY, 11231",59075546,"R"
320343,"98 4TH STREET SUITE 414","BROOKLYN","NY",11231,40.676925596,-73.993586181,343,"98 4TH STREET SUITE 414, BROOKLYN, NY, 11231","Match","Exact","98 4TH ST, BROOKLYN, NY, 11231",59075546,"R"
320344,"98 5TH AVE","BROOKLYN","NY",11217,40.6800741170001,-73.977990494,344,"98 5TH AVE, BROOKLYN, NY, 11217","Match","Exact","98 5TH AVE, BROOKLYN, NY, 11217",59077635,"R"
320345,"98 ACRES COURT","LYNCHBURG","VA",24502,37.3497875370001,-79.2456244589999,345,"98 ACRES COURT, LYNCHBURG, VA, 24502","Match","Exact","98 ACRES CT, LYNCHBURG, VA, 24502",62737047,"R"
320346,"98 ALGONQUIN AVENUE","LINCOLN PARK","NJ",7035,40.9131042290001,-74.287197024,346,"98 ALGONQUIN AVENUE, LINCOLN PARK, NJ, 7035","Match","Exact","98 ALGONQUIN AVE, LINCOLN PARK, NJ, 07035",60429375,"R"
320347,"98 ALTON DRIVE","EAST THETFORD","VT",5043,43.8262733670001,-72.2048047069999,347,"98 ALTON DRIVE, EAST THETFORD, VT, 5043","Match","Non_Exact","98 ALTON, EAST THETFORD, VT, 05043",181154806,"R"
320348,"98 ANDERSON AVE","ATLANTA","GA",30314,NA,NA,348,"98 ANDERSON AVE, ATLANTA, GA, 30314","Tie",NA,NA,NA,NA
320349,"98 ANTIGUA CT","CORONADO","CA",92118,32.6239464770001,-117.132887494,349,"98 ANTIGUA CT, CORONADO, CA, 92118","Match","Exact","98 ANTIGUA CT, CORONADO, CA, 92118",195709626,"R"
320350,"98 ARNOLD RD","PELHAM","MA",1002,42.3651976570001,-72.460037327,350,"98 ARNOLD RD, PELHAM, MA, 1002","Match","Exact","98 ARNOLD RD, PELHAM, MA, 01002",39857880,"R"
320351,"98 ATWATER TERRACE","SPRINGFIELD","MA",1107,42.1247996980001,-72.6064382769999,351,"98 ATWATER TERRACE, SPRINGFIELD, MA, 1107","Match","Exact","98 ATWATER TER, SPRINGFIELD, MA, 01107",4032940,"L"
320352,"98 AUTUMN DRIVE","TAPPAN","NY",10983,41.026885996,-73.939981234,352,"98 AUTUMN DRIVE, TAPPAN, NY, 10983","Match","Exact","98 AUTUMN DR, TAPPAN, NY, 10983",124603190,"L"
320353,"98 BRADBURN ST","ROCHESTER","NY",14619,43.134192994,-77.6419492429999,353,"98 BRADBURN ST, ROCHESTER, NY, 14619","Match","Exact","98 BRADBURN ST, ROCHESTER, NY, 14619",14533282,"R"
320354,"98 BRETT ROAD","PISCATAWAY","NJ",8854,40.5182156000001,-74.4559801299999,354,"98 BRETT ROAD, PISCATAWAY, NJ, 8854","Match","Exact","98 BRETT RD, PISCATAWAY, NJ, 08854",641738131,"R"
320355,"98 BROOKHAVEN AV","FLANDERS","NY",11901,40.904585538,-72.629177077,355,"98 BROOKHAVEN AV, FLANDERS, NY, 11901","Match","Exact","98 BROOKHAVEN AVE, FLANDERS, NY, 11901",114025004,"L"
320356,"98 BROOKHAVEN AVENUE","FLANDERS","NY",11901,40.904585538,-72.629177077,356,"98 BROOKHAVEN AVENUE, FLANDERS, NY, 11901","Match","Exact","98 BROOKHAVEN AVE, FLANDERS, NY, 11901",114025004,"L"
320357,"98 BYRON NELSON CIRCLE","ETTERS","PA",17319,40.15534905,-76.778711747,357,"98 BYRON NELSON CIRCLE, ETTERS, PA, 17319","Match","Exact","98 BYRON NELSON CIR, ETTERS, PA, 17319",88745061,"L"
320358,"98 CAMINO CERRITOS","EDGEWOOD","NM",87015,NA,NA,358,"98 CAMINO CERRITOS, EDGEWOOD, NM, 87015","No_Match",NA,NA,NA,NA
320359,"98 CATHERINE STREET","BEACON","NY",12508,41.5032417800001,-73.970032083,359,"98 CATHERINE STREET, BEACON, NY, 12508","Match","Exact","98 CATHERINE ST, BEACON, NY, 12508",4162169,"L"
320360,"98 CEDAR STREET UNIT 7","WAKEFIELD","MA",1880,42.4993264870001,-71.078975323,360,"98 CEDAR STREET UNIT 7, WAKEFIELD, MA, 1880","Match","Exact","98 CEDAR ST, WAKEFIELD, MA, 01880",86917621,"L"
320361,"98 CENTRAL AVE","STANFORD","MT",59479,47.0730931690001,-110.140785943,361,"98 CENTRAL AVE, STANFORD, MT, 59479","Match","Exact","98 CENTRAL AVE, STANFORD, MT, 59479",170732079,"L"
320362,"98 COUNTY RD 307","FLORESVILLE","TX",78114,29.219211235,-98.06934037,362,"98 COUNTY RD 307, FLORESVILLE, TX, 78114","Match","Exact","98 CO RD 307, FLORESVILLE, TX, 78114",54880043,"R"
320363,"98 CR N9025","CONCHO","AZ",85924,NA,NA,363,"98 CR N9025, CONCHO, AZ, 85924","No_Match",NA,NA,NA,NA
320364,"98 CULLUM AVE","RICHLAND","WA",99352,46.2634056270001,-119.27961565,364,"98 CULLUM AVE, RICHLAND, WA, 99352","Match","Exact","98 CULLUM AVE, RICHLAND, WA, 99352",174988531,"R"
320365,"98 CUTTER MILL RD - SUITE 390N","GREAT NECK","NY",11021,NA,NA,365,"98 CUTTER MILL RD - SUITE 390N, GREAT NECK, NY, 11021","No_Match",NA,NA,NA,NA
320366,"98 CUTTERMILL RD STE 342","GREAT NECK","NY",11201,NA,NA,366,"98 CUTTERMILL RD STE 342, GREAT NECK, NY, 11201","No_Match",NA,NA,NA,NA
320367,"98 DAVID AVE","CHEEKTOWAGA","NY",14225,42.918064863,-78.790679441,367,"98 DAVID AVE, CHEEKTOWAGA, NY, 14225","Match","Exact","98 DAVID AVE, CHEEKTOWAGA, NY, 14225",48299261,"L"
320368,"98 DISCOVERY","IRVINE","CA",92618,33.664254548,-117.75733726,368,"98 DISCOVERY, IRVINE, CA, 92618","Match","Exact","98 DISCOVERY, IRVINE, CA, 92618",144405520,"L"
320369,"98 DORA STREET","STAMFORD","CT",6902,41.0522453500001,-73.5080057919999,369,"98 DORA STREET, STAMFORD, CT, 6902","Match","Exact","98 DORA ST, STAMFORD, CT, 06902",3247181,"L"
320370,"98 DUNCAN AVE","CORNWALL HUDSON","NY",12520,41.4387866010001,-74.019591576,370,"98 DUNCAN AVE, CORNWALL HUDSON, NY, 12520","Match","Non_Exact","98 DUNCAN AVE, CORNWALL HDSN, NY, 12520",124469922,"L"
320371,"98 E 100 S","VALPARAISO","IN",46383,41.419790323,-86.998688983,371,"98 E 100 S, VALPARAISO, IN, 46383","Match","Exact","98 E 100 S, VALPARAISO, IN, 46383",119915966,"R"
320372,"98 E CORNELL AVE","PONTIAC","MI",48340,42.6656917380001,-83.296638141,372,"98 E CORNELL AVE, PONTIAC, MI, 48340","Match","Exact","98 E CORNELL AVE, PONTIAC, MI, 48340",69704580,"R"
320373,"98 E JEFFERSON STREET","JEFFERSON","OH",44047,41.7383309860001,-80.764559601,373,"98 E JEFFERSON STREET, JEFFERSON, OH, 44047","Match","Exact","98 E JEFFERSON ST, JEFFERSON, OH, 44047",117335590,"R"
320374,"98 EAST NORTH STREET","GREENFIELD","IN",46140,39.786219837,-85.768098881,374,"98 EAST NORTH STREET, GREENFIELD, IN, 46140","Match","Exact","98 E NORTH ST, GREENFIELD, IN, 46140",31072779,"L"
320375,"98 ELFIN LANE","CHARLOTTE","VT",5445,44.3127365220001,-73.2290873169999,375,"98 ELFIN LANE, CHARLOTTE, VT, 5445","Match","Exact","98 ELFIN LN, CHARLOTTE, VT, 05445",626114797,"L"
320376,"98 FISHER STREET - UNIT 3","NORTH ATTLEBORO","MA",2760,41.9862132260001,-71.327342216,376,"98 FISHER STREET - UNIT 3, NORTH ATTLEBORO, MA, 2760","Match","Exact","98 FISHER ST, NORTH ATTLEBORO, MA, 02760",46745105,"L"
320377,"98 FRENCH AVENUE","BROCKTON","MA",2301,42.064512962,-71.020618624,377,"98 FRENCH AVENUE, BROCKTON, MA, 2301","Match","Exact","98 FRENCH AVE, BROCKTON, MA, 02301",87444228,"L"
320378,"98 FRONTIER","TRABUCO CANYON","CA",92679,33.595645099,-117.593492449,378,"98 FRONTIER, TRABUCO CANYON, CA, 92679","Match","Non_Exact","98 FRONTIER ST, TRABUCO CANYON, CA, 92679",144406003,"R"
320379,"98 GARDEN CITY AVENUE","POINT LOOKOUT","NY",11569,40.5894065200001,-73.580846188,379,"98 GARDEN CITY AVENUE, POINT LOOKOUT, NY, 11569","Match","Exact","98 GARDEN CITY AVE, POINT LOOKOUT, NY, 11569",147638920,"L"
320380,"98 GROVES WOOD CT","COLUMBIA","SC",29212,34.1211401520001,-81.149047857,380,"98 GROVES WOOD CT, COLUMBIA, SC, 29212","Match","Exact","98 GROVES WOOD CT, COLUMBIA, SC, 29212",71854636,"L"
320381,"98 HAMILTON PARK","COLUMBUS","OH",43203,39.9666442610001,-82.9815908749999,381,"98 HAMILTON PARK, COLUMBUS, OH, 43203","Match","Non_Exact","98 HAMILTON AVE, COLUMBUS, OH, 43203",641122671,"R"
320382,"98 HILLSIDE STREET","SAUNDERSTOWN","RI",2874,41.5257580900001,-71.420623271,382,"98 HILLSIDE STREET, SAUNDERSTOWN, RI, 2874","Match","Exact","98 HILLSIDE ST, SAUNDERSTOWN, RI, 02874",58917548,"L"
320383,"98 HINCKLEY STREET","FLORENCE","MA",1062,42.326852128,-72.6617017689999,383,"98 HINCKLEY STREET, FLORENCE, MA, 1062","Match","Exact","98 HINCKLEY ST, FLORENCE, MA, 01062",39849018,"L"
320384,"98 IRVING STREET","MIDLAND PARK","NJ",7432,40.9980161510001,-74.147458252,384,"98 IRVING STREET, MIDLAND PARK, NJ, 7432","Match","Exact","98 IRVING ST, MIDLAND PARK, NJ, 07432",64425424,"R"
320385,"98 JERRYS ROAD","RINGTOWN","PA",17967,40.836038568,-76.231637123,385,"98 JERRYS ROAD, RINGTOWN, PA, 17967","Match","Exact","98 JERRYS RD, RINGTOWN, PA, 17967",70975929,"L"
320386,"98 JOHNSON RD","MEAD","OK",73449,34.0065608900001,-96.565017575,386,"98 JOHNSON RD, MEAD, OK, 73449","Match","Exact","98 JOHNSON RD, MEAD, OK, 73449",62485326,"L"
320387,"98 JOSEES RIDGE TRAIL","PITTSBORO","NC",27312,NA,NA,387,"98 JOSEES RIDGE TRAIL, PITTSBORO, NC, 27312","No_Match",NA,NA,NA,NA
320388,"98 KAY STREET","NEWPORT","RI",2840,41.4949285110001,-71.303142216,388,"98 KAY STREET, NEWPORT, RI, 2840","Match","Exact","98 KAY ST, NEWPORT, RI, 02840",47349519,"L"
320389,"98 KING GEORGE QUAY","CHESAPEAKE","VA",23325,36.794091979,-76.243932817,389,"98 KING GEORGE QUAY, CHESAPEAKE, VA, 23325","Match","Exact","98 KING GEORGE QUAY, CHESAPEAKE, VA, 23325",121776056,"L"
320390,"98 LESLIE ST","EDISON","NJ",8817,40.5069452180001,-74.416895631,390,"98 LESLIE ST, EDISON, NJ, 8817","Match","Exact","98 LESLIE ST, EDISON, NJ, 08817",60265916,"R"
320391,"98 MADISON ST","ISELIN","NJ",8830,40.57576177,-74.315174154,391,"98 MADISON ST, ISELIN, NJ, 8830","Match","Exact","98 MADISON ST, ISELIN, NJ, 08830",60274091,"R"
320392,"98 MAIN ST","JEFFERSON","CO",80456,39.3761804050001,-105.800391171,392,"98 MAIN ST, JEFFERSON, CO, 80456","Match","Exact","98 MAIN ST, JEFFERSON, CO, 80456",108427953,"R"
320393,"98 MAIN STREET","VAN HORNE","IA",52346,NA,NA,393,"98 MAIN STREET, VAN HORNE, IA, 52346","No_Match",NA,NA,NA,NA
320394,"98 MAIN STREET","WINTHROP","ME",4364,NA,NA,394,"98 MAIN STREET, WINTHROP, ME, 4364","No_Match",NA,NA,NA,NA
320395,"98 MARION AVE BOX 421","ST JOHNSBURY","VT",5819,44.417564381,-72.0116195809999,395,"98 MARION AVE BOX 421, ST JOHNSBURY, VT, 5819","Match","Exact","98 MARION AVE, SAINT JOHNSBURY, VT, 05819",181079589,"R"
320396,"98 MORNING GLORY LANE","KALISPELL","MT",59901,48.192182507,-114.405679715,396,"98 MORNING GLORY LANE, KALISPELL, MT, 59901","Match","Exact","98 MORNING GLORY LN, KALISPELL, MT, 59901",204187088,"L"
320397,"98 N 224TH AVE","BUCKEYE","AZ",85326,33.448323778,-112.533123657,397,"98 N 224TH AVE, BUCKEYE, AZ, 85326","Match","Exact","98 N 224TH AVE, BUCKEYE, AZ, 85326",243944556,"L"
320398,"98 N BROAD ST","HILLSDALE","MI",49242,41.922746611,-84.632063884,398,"98 N BROAD ST, HILLSDALE, MI, 49242","Match","Exact","98 N BROAD ST, HILLSDALE, MI, 49242",8291463,"L"
320399,"98 NORTH STREET","JOHNSON CITY","NY",13790,42.120189736,-75.954960635,399,"98 NORTH STREET, JOHNSON CITY, NY, 13790","Match","Exact","98 NORTH ST, JOHNSON CITY, NY, 13790",46340616,"L"
320400,"98 NORTHBOUND GRATIOT UNIT 27","MOUNT CLEMENS","MI",48043,42.5915832110001,-82.879342294,400,"98 NORTHBOUND GRATIOT UNIT 27, MOUNT CLEMENS, MI, 48043","Match","Non_Exact","98 NORTHBOUND GRATIOT AVE, MOUNT CLEMENS, MI, 48043",110682784,"L"
320401,"98 NORTHWOOD DRIVE","HAGERSTOWN","IN",47346,39.9170921200001,-85.158876113,401,"98 NORTHWOOD DRIVE, HAGERSTOWN, IN, 47346","Match","Exact","98 NORTHWOOD DR, HAGERSTOWN, IN, 47346",31328749,"R"
320402,"98 OAK STREET APT 1809","LINDENWOLD","NJ",8021,39.814049197,-74.9864569969999,402,"98 OAK STREET APT 1809, LINDENWOLD, NJ, 8021","Match","Exact","98 OAK ST, LINDENWOLD, NJ, 08021",134361548,"L"
320403,"98 OLD POST RD","KITTERY","ME",3904,43.0912965370001,-70.7537799959999,403,"98 OLD POST RD, KITTERY, ME, 3904","Match","Exact","98 OLD POST RD, KITTERY, ME, 03904",92760186,"R"
320404,"98 OMEGA DR","LAWRENCEVILLE","GA",30044,33.911048067,-84.095635006,404,"98 OMEGA DR, LAWRENCEVILLE, GA, 30044","Match","Exact","98 OMEGA DR, LAWRENCEVILLE, GA, 30044",88937300,"L"
320405,"98 PARK AVENUE","PATERSON","NJ",7501,40.9153055990001,-74.162469523,405,"98 PARK AVENUE, PATERSON, NJ, 7501","Match","Exact","98 PARK AVE, PATERSON, NJ, 07501",65263534,"R"
320406,"98 PINE STREET","SWAMPSCOTT","MA",1907,42.4730480860001,-70.923087556,406,"98 PINE STREET, SWAMPSCOTT, MA, 1907","Match","Exact","98 PINE ST, SWAMPSCOTT, MA, 01907",86646457,"L"
320407,"98 PITMAN ROAD","WARWICK","RI",2886,41.69865637,-71.4845213629999,407,"98 PITMAN ROAD, WARWICK, RI, 2886","Match","Exact","98 PITMAN RD, WARWICK, RI, 02886",159155851,"R"
320408,"98 PROVIDENCE PLANTATION CIR","COLUMBIA","SC",29203,34.129178068,-80.94696493,408,"98 PROVIDENCE PLANTATION CIR, COLUMBIA, SC, 29203","Match","Exact","98 PROVIDENCE PLANTATION CIR, COLUMBIA, SC, 29203",604760661,"R"
320409,"98 QUEENS AVENUE","ELMONT","NY",11003,40.691245924,-73.705256198,409,"98 QUEENS AVENUE, ELMONT, NY, 11003","Match","Exact","98 QUEENS AVE, ELMONT, NY, 11003",147667973,"R"
320410,"98 RIVER DRIVE","TITUSVILLE","NJ",8560,40.3032710570001,-74.875833445,410,"98 RIVER DRIVE, TITUSVILLE, NJ, 8560","Match","Exact","98 RIVER DR, TITUSVILLE, NJ, 08560",60196520,"R"
320411,"98 ROCK ISLAND ROAD","QUINCY","MA",2169,42.2651306390001,-70.9544314349999,411,"98 ROCK ISLAND ROAD, QUINCY, MA, 2169","Match","Exact","98 ROCK ISLAND RD, QUINCY, MA, 02169",87252018,"L"
320412,"98 RUTGERS AVENUE","BRIDGETON","NJ",8302,39.414656301,-75.240528705,412,"98 RUTGERS AVENUE, BRIDGETON, NJ, 8302","Match","Exact","98 RUTGERS AVE, BRIDGETON, NJ, 08302",174108748,"L"
320413,"98 SAN JACINTO BLVD SUITE 1100","AUSTIN","TX",78701,30.2626718940001,-97.742114382,413,"98 SAN JACINTO BLVD SUITE 1100, AUSTIN, TX, 78701","Match","Exact","98 SAN JACINTO BLVD, AUSTIN, TX, 78701",63943501,"L"
320414,"98 SAND BAR LN","DETROIT","MI",48214,42.3586518720001,-82.962517201,414,"98 SAND BAR LN, DETROIT, MI, 48214","Match","Exact","98 SAND BAR LN, DETROIT, MI, 48214",631751983,"R"
320415,"98 SAND SPRING ROAD","MORRISTOWN","NJ",7960,40.7597727780001,-74.502531205,415,"98 SAND SPRING ROAD, MORRISTOWN, NJ, 7960","Match","Exact","98 SAND SPRING RD, MORRISTOWN, NJ, 07960",60455617,"L"
320416,"98 SAVANNAH PARKWAY","DEERFIELD","WI",53531,43.0549728170001,-89.0850844729999,416,"98 SAVANNAH PARKWAY, DEERFIELD, WI, 53531","Match","Exact","98 SAVANNAH PKWY, DEERFIELD, WI, 53531",640849784,"L"
320417,"98 SCHOOL ST","NORTH SMITHFIELD","RI",2896,41.9990747030001,-71.568708702,417,"98 SCHOOL ST, NORTH SMITHFIELD, RI, 2896","Match","Exact","98 SCHOOL ST, NORTH SMITHFIELD, RI, 02896",646769331,"L"
320418,"98 SHAKER MOUNTAIN ROAD","HUNTINGTON","VT",5462,44.2854559410001,-72.9672773569999,418,"98 SHAKER MOUNTAIN ROAD, HUNTINGTON, VT, 5462","Match","Exact","98 SHAKER MOUNTAIN RD, HUNTINGTON, VT, 05462",135854939,"L"
320419,"98 SILO CIR","RIVERSIDE","CT",6878,41.0506354710001,-73.581411298,419,"98 SILO CIR, RIVERSIDE, CT, 6878","Match","Exact","98 SILO CIR, RIVERSIDE, CT, 06878",624418697,"R"
320420,"98 SONNYBROOK LANE","KEYSER","WV",26726,NA,NA,420,"98 SONNYBROOK LANE, KEYSER, WV, 26726","No_Match",NA,NA,NA,NA
320421,"98 SOUTH ENOLA DRIVE","ENOLA","PA",17025,40.287440227,-76.93289463,421,"98 SOUTH ENOLA DRIVE, ENOLA, PA, 17025","Match","Exact","98 S ENOLA DR, ENOLA, PA, 17025",60941407,"L"
320422,"98 SOUTH GARLAND ST","LAKEWOOD","CO",80226,39.715683573,-105.101595974,422,"98 SOUTH GARLAND ST, LAKEWOOD, CO, 80226","Match","Exact","98 S GARLAND ST, LAKEWOOD, CO, 80226",177318996,"L"
320423,"98 SPRING STREET","SWANTON","VT",5488,44.930745357,-73.119613799,423,"98 SPRING STREET, SWANTON, VT, 5488","Match","Exact","98 SPRING ST, SWANTON, VT, 05488",136523040,"R"
320424,"98 STAMFORD AVENUE","STAMFORD","CT",6902,41.029640188,-73.526785278,424,"98 STAMFORD AVENUE, STAMFORD, CT, 6902","Match","Exact","98 STAMFORD AVE, STAMFORD, CT, 06902",3246089,"L"
320425,"98 STONEWOOD LANE","YELLVILLE","AR",72687,NA,NA,425,"98 STONEWOOD LANE, YELLVILLE, AR, 72687","No_Match",NA,NA,NA,NA
320426,"98 STRAWBERRY ST","LISBON","CT",6351,41.6178012560001,-71.9992717869999,426,"98 STRAWBERRY ST, LISBON, CT, 6351","Match","Exact","98 STRAWBERRY ST, LISBON, CT, 06351",56870332,"L"
320427,"98 SUGARCAMP LN","STUARTS DRAFT","VA",24477,37.996994489,-79.033522101,427,"98 SUGARCAMP LN, STUARTS DRAFT, VA, 24477","Match","Exact","98 SUGARCAMP LN, STUARTS DRAFT, VA, 24477",98827234,"L"
320428,"98 TARKILN ROAD","JASPER","TN",37347,35.095740694,-85.624738646,428,"98 TARKILN ROAD, JASPER, TN, 37347","Match","Exact","98 TARKILN RD, JASPER, TN, 37347",607386097,"R"
320429,"98 TAYLOR DRIVE","CAMPTON","NH",3223,43.8594141300001,-71.598102979,429,"98 TAYLOR DRIVE, CAMPTON, NH, 3223","Match","Exact","98 TAYLOR DR, CAMPTON, NH, 03223",627053890,"L"
320430,"98 TERRACE DRIVE APT 9","EDINBORO","PA",16412,41.868759169,-80.129214253,430,"98 TERRACE DRIVE APT 9, EDINBORO, PA, 16412","Match","Exact","98 TERRACE DR, EDINBORO, PA, 16412",117515056,"R"
320431,"98 UNION STREET","FREEPORT","NY",11520,40.668877122,-73.58106982,431,"98 UNION STREET, FREEPORT, NY, 11520","Match","Exact","98 UNION ST, FREEPORT, NY, 11520",147631443,"R"
320432,"98 VAN BUREN RD","VOORHEES","NJ",8043,39.847203796,-74.995449277,432,"98 VAN BUREN RD, VOORHEES, NJ, 8043","Match","Exact","98 VAN BUREN RD, VOORHEES, NJ, 08043",134370122,"L"
320433,"98 VAUGHN AVE","NEW ROCHELLE","NY",10801,40.916878464,-73.80156478,433,"98 VAUGHN AVE, NEW ROCHELLE, NY, 10801","Match","Exact","98 VAUGHN AVE, NEW ROCHELLE, NY, 10801",634582173,"L"
320434,"98 VERNON ST APT 208","OAKLAND","CA",94610,37.8130488400001,-122.259377984,434,"98 VERNON ST APT 208, OAKLAND, CA, 94610","Match","Exact","98 VERNON ST, OAKLAND, CA, 94610",125000477,"R"
320435,"98 VERNON ST","OAKLAND","CA",94610,37.8130488400001,-122.259377984,435,"98 VERNON ST, OAKLAND, CA, 94610","Match","Exact","98 VERNON ST, OAKLAND, CA, 94610",125000477,"R"
320436,"98 W 200 N","GUNNISON","UT",84634,NA,NA,436,"98 W 200 N, GUNNISON, UT, 84634","Tie",NA,NA,NA,NA
320437,"98 WALRAVEN DRIVE SUITE 2B","TEANECK","NJ",7666,40.9009948820001,-74.003484059,437,"98 WALRAVEN DRIVE SUITE 2B, TEANECK, NJ, 7666","Match","Exact","98 WALRAVEN DR, TEANECK, NJ, 07666",64389407,"L"
320438,"98 WAMOGO ROAD","LITCHFIELD","CT",6759,41.726720807,-73.224613572,438,"98 WAMOGO ROAD, LITCHFIELD, CT, 6759","Match","Exact","98 WAMOGO RD, LITCHFIELD, CT, 06759",611467749,"R"
320439,"98 WEST SALORI COURT","WEBSTER","NY",14580,43.21536983,-77.425278265,439,"98 WEST SALORI COURT, WEBSTER, NY, 14580","Match","Non_Exact","98 SALORI CT, WEBSTER, NY, 14580",649170390,"R"
320440,"98 WILDWOOD DRIVE","MOULTONBOROUGH","NH",3254,43.649840049,-71.349147721,440,"98 WILDWOOD DRIVE, MOULTONBOROUGH, NH, 3254","Match","Exact","98 WILDWOOD DR, MOULTONBOROUGH, NH, 03254",145605956,"L"
320441,"98-01 67TH AVE SUITE 6G","REGO PARK","NY",11374,40.7236659430001,-73.8558228209999,441,"98-01 67TH AVE SUITE 6G, REGO PARK, NY, 11374","Match","Exact","98-01 67TH AVE, REGO PARK, NY, 11374",59740288,"L"
320442,"98-025 HEKAHA ST STE 10","AIEA","HI",96701,21.3844984680001,-157.951597975,442,"98-025 HEKAHA ST STE 10, AIEA, HI, 96701","Match","Exact","98-25 HEKAHA ST, AIEA, HI, 96701",635955687,"L"
320443,"98-084 KAMEHAMEHA HWY SUITE 3B","AIEA","HI",96701,21.3840012370001,-157.947255758,443,"98-084 KAMEHAMEHA HWY SUITE 3B, AIEA, HI, 96701","Match","Exact","98-84 KAMEHAMEHA HWY, AIEA, HI, 96701",203257928,"L"
320444,"98-1014 PALULA WAY","AIEA","HI",96701,21.3951074940001,-157.923417833,444,"98-1014 PALULA WAY, AIEA, HI, 96701","Match","Exact","98-1014 PALULA WAY, AIEA, HI, 96701",203257933,"L"
320445,"98-1158 KAONOHI ST","AIEA","HI",96701,21.3969561480001,-157.920475832,445,"98-1158 KAONOHI ST, AIEA, HI, 96701","Match","Exact","98-1158 KAONOHI ST, AIEA, HI, 96701",203231248,"L"
320446,"98-1214 ALOLUA STREET","AIEA","HI",96701,21.393128862,-157.91710314,446,"98-1214 ALOLUA STREET, AIEA, HI, 96701","Match","Exact","98-1214 ALOLUA ST, AIEA, HI, 96701",203231253,"L"
320447,"98-1230 MOANALUA RD","AIEA","HI",96701,21.3811236810001,-157.934181317,447,"98-1230 MOANALUA RD, AIEA, HI, 96701","Match","Exact","98-1230 MOANALUA RD, AIEA, HI, 96701",203230606,"L"
320448,"98-1268 KAAHUMANU STREET 202 B","PEARLCITY","HI",96782,21.389080203,-157.953486215,448,"98-1268 KAAHUMANU STREET 202 B, PEARLCITY, HI, 96782","Match","Non_Exact","98-1268 KAAHUMANU ST, PEARL CITY, HI, 96782",203229620,"L"
320449,"98-138 HILA PL NUM MB021","PEARL CITY","HI",96782,21.3879414030001,-157.954819472,449,"98-138 HILA PL NUM MB021, PEARL CITY, HI, 96782","Match","Exact","98-138 HILA PL, PEARL CITY, HI, 96782",203229624,"L"
320450,"98-15 HORACE HARDING EXPWY STE 3D","CORONA","NY",11368,40.7353980140001,-73.860801123,450,"98-15 HORACE HARDING EXPWY STE 3D, CORONA, NY, 11368","Match","Exact","98-15 HORACE HARDING EXPY, CORONA, NY, 11368",650061960,"L"
320451,"98-1807 IPUALA PLACE","AIEA","HI",96701,21.4072772760001,-157.944499256,451,"98-1807 IPUALA PLACE, AIEA, HI, 96701","Match","Exact","98-1807 IPUALA PL, AIEA, HI, 96701",203228882,"L"
320452,"98-1861 KAAHUMANU STREET      APT A","AIEA","HI",96701,21.4108721650001,-157.945284825,452,"98-1861 KAAHUMANU STREET      APT A, AIEA, HI, 96701","Match","Exact","98-1861 KAAHUMANU ST, AIEA, HI, 96701",641585663,"R"
320453,"98-19 64TH AVE - APT 2F","REGO PARK","NY",11374,40.7304532410001,-73.8579846979999,453,"98-19 64TH AVE - APT 2F, REGO PARK, NY, 11374","Match","Exact","98-19 64TH AVE, REGO PARK, NY, 11374",59705022,"L"
320454,"98-32 57 AVENUE APT 12C","CORONA","NY",11368,40.7379301080001,-73.86149578,454,"98-32 57 AVENUE APT 12C, CORONA, NY, 11368","Match","Exact","98-32 57TH AVE, CORONA, NY, 11368",650061821,"R"
320455,"98-40 57TH AVENUE APARTMENT 11-D","CORONA","NY",11368,40.7381223530001,-73.860874197,455,"98-40 57TH AVENUE APARTMENT 11-D, CORONA, NY, 11368","Match","Exact","98-40 57TH AVE, CORONA, NY, 11368",650061819,"R"
320456,"98-563 KAIMU LOOP","AIEA","HI",96701,21.382003755,-157.935406779,456,"98-563 KAIMU LOOP, AIEA, HI, 96701","Match","Exact","98 KAIMU LOOP, AIEA, HI, 96701",203230601,"R"
320457,"98-611 NOHOALII ST","AIEA","HI",96701,21.3997303620001,-157.94185809,457,"98-611 NOHOALII ST, AIEA, HI, 96701","Match","Exact","98-611 NOHOALII ST, AIEA, HI, 96701",203228948,"R"
320458,"98-774 KAONOHI APT B","AIEA","HI",96701,21.396235416,-157.931063378,458,"98-774 KAONOHI APT B, AIEA, HI, 96701","Match","Non_Exact","98-774 KAONOHI ST, AIEA, HI, 96701",648750029,"L"
320459,"98-80 QUEENS BOULEVARD SUITE LL2","REGO PARK","NY",11374,40.7274833770001,-73.855741015,459,"98-80 QUEENS BOULEVARD SUITE LL2, REGO PARK, NY, 11374","Match","Exact","98-80 QUEENS BLVD, REGO PARK, NY, 11374",640938833,"R"
320460,"98-812 KAHAEA PL","AIEA","HI",96701,21.4037364710001,-157.933991038,460,"98-812 KAHAEA PL, AIEA, HI, 96701","Match","Exact","98-812 KAHAEA PL, AIEA, HI, 96701",203229009,"L"
320461,"98-820 MOANALUA RD UNIT 15-1/720","AIEA","HI",96701,21.390741889,-157.949936145,461,"98-820 MOANALUA RD UNIT 15-1/720, AIEA, HI, 96701","Match","Exact","98-820 MOANALUA RD, AIEA, HI, 96701",607815270,"L"
320462,"98","OWINGS MILLS","MD",21117,NA,NA,462,"98, OWINGS MILLS, MD, 21117","No_Match",NA,NA,NA,NA
320463,"980 7TH STREET","ARCATA","CA",95521,NA,NA,463,"980 7TH STREET, ARCATA, CA, 95521","No_Match",NA,NA,NA,NA
320464,"980 8TH AVENUE","CUMBERLAND","WI",54829,45.5277273950001,-92.031529074,464,"980 8TH AVENUE, CUMBERLAND, WI, 54829","Match","Exact","980 8TH AVE, CUMBERLAND, WI, 54829",126292551,"R"
320465,"980 AMERICAN PACIFIC DR STE 107","HENDERSON","NV",89014,36.0419024030001,-115.028771881,465,"980 AMERICAN PACIFIC DR STE 107, HENDERSON, NV, 89014","Match","Exact","980 AMERICAN PACIFIC DR, HENDERSON, NV, 89014",201911483,"R"
320466,"980 BIRMINGHAM RD  SUITE 501-345","MILTON","GA",30004,34.1658816670001,-84.330647149,466,"980 BIRMINGHAM RD  SUITE 501-345, MILTON, GA, 30004","Match","Exact","980 BIRMINGHAM RD, MILTON, GA, 30004",17421808,"L"
320467,"980 BIRMINGHAM RD SUITE 501-355","MILTON","GA",30004,34.1658816670001,-84.330647149,467,"980 BIRMINGHAM RD SUITE 501-355, MILTON, GA, 30004","Match","Exact","980 BIRMINGHAM RD, MILTON, GA, 30004",17421808,"L"
320468,"980 CARTERS GROVE TRAIL","JOHNS CREEK","GA",30022,34.037227692,-84.194932662,468,"980 CARTERS GROVE TRAIL, JOHNS CREEK, GA, 30022","Match","Exact","980 CARTERS GROVE TRL, JOHNS CREEK, GA, 30022",634886006,"L"
320469,"980 CLEMSON AVE","FAIRVIEW HEIGHTS","IL",62208,38.573426539,-89.967349699,469,"980 CLEMSON AVE, FAIRVIEW HEIGHTS, IL, 62208","Match","Exact","980 CLEMSON AVE, FAIRVIEW HTS, IL, 62208",107912732,"L"
320470,"980 CTY RD W T-33","FREMONT","NE",68025,NA,NA,470,"980 CTY RD W T-33, FREMONT, NE, 68025","No_Match",NA,NA,NA,NA
320471,"980 HOPE STREET FL 2","STAMFORD","CT",6907,41.0923473720001,-73.5180597299999,471,"980 HOPE STREET FL 2, STAMFORD, CT, 6907","Match","Exact","980 HOPE ST, STAMFORD, CT, 06907",3246359,"L"
320472,"980 JONATHAN CIR","ELIZABETH","CO",80107,39.252948803,-104.645389323,472,"980 JONATHAN CIR, ELIZABETH, CO, 80107","Match","Exact","980 JONATHAN CIR, ELIZABETH, CO, 80107",130882081,"L"
320473,"980 KING STREET","CHAPPAQUA","NY",10514,41.13420426,-73.7500253709999,473,"980 KING STREET, CHAPPAQUA, NY, 10514","Match","Exact","980 KING ST, CHAPPAQUA, NY, 10514",139774093,"L"
320474,"980 KLEIN COURT","WAUKESHA","WI",53186,43.0217201200001,-88.184302192,474,"980 KLEIN COURT, WAUKESHA, WI, 53186","Match","Exact","980 KLEIN CT, WAUKESHA, WI, 53186",53845130,"L"
320475,"980 KLEIN CT","WAUKESHA","WI",53186,43.0217201200001,-88.184302192,475,"980 KLEIN CT, WAUKESHA, WI, 53186","Match","Exact","980 KLEIN CT, WAUKESHA, WI, 53186",53845130,"L"
320476,"980 LAUREL LANE","PITTSGROVE","NJ",8318,39.50694014,-75.156918079,476,"980 LAUREL LANE, PITTSGROVE, NJ, 8318","Match","Exact","980 LAUREL LN, PITTSGROVE, NJ, 08318",642898538,"R"
320477,"980 MORROW MOUNTAIN RD","SOMERVILLE","AL",35670,34.42612009,-86.630921031,477,"980 MORROW MOUNTAIN RD, SOMERVILLE, AL, 35670","Match","Exact","980 MORROW MOUNTAIN RD, SOMERVILLE, AL, 35670",97126305,"R"
320478,"980 MT PLEASANT CHURCH RD","MANSON","NC",27553,36.471212112,-78.342108158,478,"980 MT PLEASANT CHURCH RD, MANSON, NC, 27553","Match","Exact","980 MOUNT PLEASANT CHURCH RD, MANSON, NC, 27553",90281652,"R"
320479,"980 N FEDERAL HIGHWAY SUITE 110","BOCA RATON","FL",33432,NA,NA,479,"980 N FEDERAL HIGHWAY SUITE 110, BOCA RATON, FL, 33432","Tie",NA,NA,NA,NA
320480,"980 N JEFFERSON ST","JACKSONVILLE","FL",32209,NA,NA,480,"980 N JEFFERSON ST, JACKSONVILLE, FL, 32209","Tie",NA,NA,NA,NA
320481,"980 N MICHIGAN AVE STE 1400","CHICAGO","IL",60611,41.9006245790001,-87.624209822,481,"980 N MICHIGAN AVE STE 1400, CHICAGO, IL, 60611","Match","Non_Exact","980 N MICHIGAN AVE, CHICAGO, IL, 60611",605268173,"L"
320482,"980 N MICHIGAN AVENUE SUITE 1330","CHICAGO","IL",60611,41.9006245790001,-87.624209822,482,"980 N MICHIGAN AVENUE SUITE 1330, CHICAGO, IL, 60611","Match","Non_Exact","980 N MICHIGAN AVE, CHICAGO, IL, 60611",605268173,"L"
320483,"980 NOBLE CHAMPION WAY","BARTONVILLE","TX",76226,33.096935123,-97.141469068,483,"980 NOBLE CHAMPION WAY, BARTONVILLE, TX, 76226","Match","Non_Exact","980 NOBLE CHAMPIONS WAY, BARTONVILLE, TX, 76226",637611784,"R"
320484,"980 OAKHAVEN DRIVE","ROSWELL","GA",30075,34.0811161600001,-84.39033032,484,"980 OAKHAVEN DRIVE, ROSWELL, GA, 30075","Match","Exact","980 OAKHAVEN DR, ROSWELL, GA, 30075",17331755,"L"
320485,"980 PONCE DE LEON AVE","ATLANTA","GA",30306,33.7738308400001,-84.356068497,485,"980 PONCE DE LEON AVE, ATLANTA, GA, 30306","Match","Non_Exact","980 PONCE DE LEON AVE NE, ATLANTA, GA, 30306",17357067,"L"
320486,"980 REED ROAD SUITE C","DARTMOUTH","MA",2747,41.664440789,-71.035306939,486,"980 REED ROAD SUITE C, DARTMOUTH, MA, 2747","Match","Exact","980 REED RD, DARTMOUTH, MA, 02747",46783840,"R"
320487,"980 RIDGE AVE","PITTSBURGH","PA",15202,40.509954742,-80.068337378,487,"980 RIDGE AVE, PITTSBURGH, PA, 15202","Match","Exact","980 RIDGE AVE, PITTSBURGH, PA, 15202",51701172,"L"
320488,"980 RIVERSIDE DR","NORTH GROSVENORDALE","CT",6255,41.9885979640001,-71.8969110049999,488,"980 RIVERSIDE DR, NORTH GROSVENORDALE, CT, 6255","Match","Exact","980 RIVERSIDE DR, NORTH GROSVENORDALE, CT, 06255",56445310,"L"
320489,"980 ROOSEVELT UNIT 210","IRVINE","CA",92620,NA,NA,489,"980 ROOSEVELT UNIT 210, IRVINE, CA, 92620","No_Match",NA,NA,NA,NA
320490,"980 S BYRNE RD","TOLEDO","OH",43609,41.6221481360001,-83.625859846,490,"980 S BYRNE RD, TOLEDO, OH, 43609","Match","Exact","980 S BYRNE RD, TOLEDO, OH, 43609",33952680,"R"
320491,"980 S HOBART BLVD","LOS ANGELES","CA",90006,34.0546839450001,-118.305313474,491,"980 S HOBART BLVD, LOS ANGELES, CA, 90006","Match","Exact","980 S HOBART BLVD, LOS ANGELES, CA, 90006",141603966,"L"
320492,"980 S LAKE SYBELIA DRIVE","MAITLAND","FL",32751,28.6246965340001,-81.374907101,492,"980 S LAKE SYBELIA DRIVE, MAITLAND, FL, 32751","Match","Exact","980 S LAKE SYBELIA DR, MAITLAND, FL, 32751",639777329,"L"
320493,"980 S MENLO AVE APT 103","LOS ANGELES","CA",90006,34.0529712840001,-118.290344554,493,"980 S MENLO AVE APT 103, LOS ANGELES, CA, 90006","Match","Non_Exact","980 S MENLO AVE, LOS ANGELES, CA, 90006",141605132,"L"
320494,"980 SE DOGWOOD LA","OAK GROVE","OR",97267,45.4159034690001,-122.652689703,494,"980 SE DOGWOOD LA, OAK GROVE, OR, 97267","Match","Exact","980 SE DOGWOOD LN, OAK GROVE, OR, 97267",157945013,"R"
320495,"980 SW 67 AVE","POMPANO","FL",33068,26.2167514610001,-80.216510881,495,"980 SW 67 AVE, POMPANO, FL, 33068","Match","Non_Exact","980 SW 67TH AVE, POMPANO BEACH, FL, 33068",114692881,"L"
320496,"980 TEXTILE ROAD","SPARTANBURG","SC",29301,NA,NA,496,"980 TEXTILE ROAD, SPARTANBURG, SC, 29301","No_Match",NA,NA,NA,NA
320497,"980 TODD PREIS DR","NASHVILLE","TN",37221,36.0729145220001,-86.950404659,497,"980 TODD PREIS DR, NASHVILLE, TN, 37221","Match","Exact","980 TODD PREIS DR, NASHVILLE, TN, 37221",624793146,"L"
320498,"980 VERNIER RD","GROSSE POINTE WOODS","MI",48236,42.439849786,-82.891418093,498,"980 VERNIER RD, GROSSE POINTE WOODS, MI, 48236","Match","Exact","980 VERNIER RD, GROSSE POINTE WOODS, MI, 48236",95721047,"R"
320499,"980 W 79TH PLACE","HIALEAH","FL",33014,25.895023168,-80.303436128,499,"980 W 79TH PLACE, HIALEAH, FL, 33014","Match","Exact","980 W 79TH PL, HIALEAH, FL, 33014",116059256,"L"
320500,"980 WALTHER BLVD APT 2125","LAWRENCEVILLE","GA",30043,33.9727933980001,-84.008714588,500,"980 WALTHER BLVD APT 2125, LAWRENCEVILLE, GA, 30043","Match","Exact","980 WALTHER BLVD, LAWRENCEVILLE, GA, 30043",647942314,"R"
