"ID","Address","City","State","Zip","lat","long","id","input_address","match_indicator","match_type","matched_address","tiger_line_id","tiger_side"
43501,"12641 NS 3530","SEMINOLE","OK",74868,35.1859528200001,-96.722727243,1,"12641 NS 3530, SEMINOLE, OK, 74868","Match","Non_Exact","12641 NS 3530 RD, SEMINOLE, OK, 74868",607548030,"L"
43502,"12641 SUNNYMEADOWS BLVD","MORENO VALLEY","CA",92553,33.93838713,-117.255416381,2,"12641 SUNNYMEADOWS BLVD, MORENO VALLEY, CA, 92553","Match","Non_Exact","12641 SUNNYMEADOWS DR, MORENO VALLEY, CA, 92553",194747570,"R"
43503,"12642 DARLENEN ST","UPPER MARLBORO","MD",20774,38.89576385,-76.7850238249999,3,"12642 DARLENEN ST, UPPER MARLBORO, MD, 20774","Match","Exact","12642 DARLENEN ST, UPPER MARLBORO, MD, 20774",76322356,"L"
43504,"12642 FOUNDATION ROAD","CROTON","OH",43013,40.245207184,-82.7262077459999,4,"12642 FOUNDATION ROAD, CROTON, OH, 43013","Match","Exact","12642 FOUNDATION RD, CROTON, OH, 43013",61540261,"R"
43505,"12643 GREEN GARDEN WAY","CHESTER","VA",23836,37.3558530510001,-77.352437889,5,"12643 GREEN GARDEN WAY, CHESTER, VA, 23836","Match","Exact","12643 GREEN GARDEN WAY, CHESTER, VA, 23836",201565423,"L"
43506,"12643 JOHNSON ST NE","BLAINE","MN",55434,45.199811702,-93.237376496,6,"12643 JOHNSON ST NE, BLAINE, MN, 55434","Match","Exact","12643 JOHNSON ST NE, BLAINE, MN, 55434",97505871,"R"
43507,"12643 SWEET HILL ROAD","POLK CITY","FL",33868,28.2272846390001,-81.72295188,7,"12643 SWEET HILL ROAD, POLK CITY, FL, 33868","Match","Exact","12643 SWEET HILL RD, POLK CITY, FL, 33868",628982899,"R"
43508,"12644 GREY EAGLE CT SUITE 23","GERMANTOWN","MD",20874,39.1687464660001,-77.2634493039999,8,"12644 GREY EAGLE CT SUITE 23, GERMANTOWN, MD, 20874","Match","Exact","12644 GREY EAGLE CT, GERMANTOWN, MD, 20874",62084381,"R"
43509,"12645 ALBROOK DRIVE 5112","DENVER","CO",80239,39.780919758,-104.842207879,9,"12645 ALBROOK DRIVE 5112, DENVER, CO, 80239","Match","Exact","12645 ALBROOK DR, DENVER, CO, 80239",606026372,"L"
43510,"12645 BLUE EAGLE WAY","JACKSONVILLE","FL",32225,30.3449542550001,-81.480998386,10,"12645 BLUE EAGLE WAY, JACKSONVILLE, FL, 32225","Match","Exact","12645 BLUE EAGLE WAY, JACKSONVILLE, FL, 32225",83957751,"L"
43511,"12645 CRESTHAVEN DRIVE","GROVELAND","CA",95321,37.852382623,-120.185729437,11,"12645 CRESTHAVEN DRIVE, GROVELAND, CA, 95321","Match","Exact","12645 CRESTHAVEN DR, GROVELAND, CA, 95321",101378833,"R"
43512,"12645 HIGHWAY BB","MONETT","MO",65708,NA,NA,12,"12645 HIGHWAY BB, MONETT, MO, 65708","No_Match",NA,NA,NA,NA
43513,"12645 MEMORIAL DRIVE SUITE F-1","HOUSTON","TX",77024,29.7669093430001,-95.557430113,13,"12645 MEMORIAL DRIVE SUITE F-1, HOUSTON, TX, 77024","Match","Exact","12645 MEMORIAL DR, HOUSTON, TX, 77024",641932921,"L"
43514,"12645 SOUTH CHURCHILL WAY","STRONGSVILLE","OH",44149,41.322957262,-81.875301178,14,"12645 SOUTH CHURCHILL WAY, STRONGSVILLE, OH, 44149","Match","Exact","12645 S CHURCHILL WAY, STRONGSVILLE, OH, 44149",624735423,"L"
43515,"12646 E AMERICAN","DEL REY","CA",93616,36.6631909430001,-119.563850396,15,"12646 E AMERICAN, DEL REY, CA, 93616","Match","Non_Exact","12646 E AMERICAN AVE, DEL REY, CA, 93616",197591219,"L"
43516,"12647 SAI BABA","HOUSTON","TX",77038,29.914595912,-95.453183815,16,"12647 SAI BABA, HOUSTON, TX, 77038","Match","Non_Exact","12647 SAIBABA DR, HOUSTON, TX, 77038",642086213,"R"
43517,"12648 BROGDON LANE APT 1","BATON ROUGE","LA",70816,30.4045884290001,-91.040031569,17,"12648 BROGDON LANE APT 1, BATON ROUGE, LA, 70816","Match","Exact","12648 BROGDON LN, BATON ROUGE, LA, 70816",92197141,"L"
43518,"12648 FLOWER CREST COURT","FLORISSANT","MO",63033,38.807554677,-90.234140951,18,"12648 FLOWER CREST COURT, FLORISSANT, MO, 63033","Match","Exact","12648 FLOWER CREST CT, FLORISSANT, MO, 63033",100148422,"L"
43519,"12648 GREY EAGLE CT APT 14","GERMANTOWN","MD",20874,39.168769029,-77.263471866,19,"12648 GREY EAGLE CT APT 14, GERMANTOWN, MD, 20874","Match","Exact","12648 GREY EAGLE CT, GERMANTOWN, MD, 20874",62084381,"R"
43520,"12648 PARK AVE","WINDERMERE","FL",34786,28.4957959170001,-81.5700811629999,20,"12648 PARK AVE, WINDERMERE, FL, 34786","Match","Exact","12648 PARK AVE, WINDERMERE, FL, 34786",94367209,"L"
43521,"12649 WINFIELD SCOTT BLVD","ORLANDO","FL",32837,28.3802759060001,-81.4295229099999,21,"12649 WINFIELD SCOTT BLVD, ORLANDO, FL, 32837","Match","Exact","12649 WINFIELD SCOTT BLVD, ORLANDO, FL, 32837",632039000,"L"
43522,"1265 BASSETT AVENUE","LOUISVILLE","KY",40204,38.238995565,-85.7109926209999,22,"1265 BASSETT AVENUE, LOUISVILLE, KY, 40204","Match","Exact","1265 BASSETT AVE, LOUISVILLE, KY, 40204",618500860,"L"
43523,"1265 BRITTANY DRIVE APARTMENT F","FLORENCE","SC",29501,34.1699780750001,-79.833419455,23,"1265 BRITTANY DRIVE APARTMENT F, FLORENCE, SC, 29501","Match","Exact","1265 BRITTANY DR, FLORENCE, SC, 29501",619599907,"R"
43524,"1265 CEDAR AVE","PROVO","UT",84604,40.2534803090001,-111.637525719,24,"1265 CEDAR AVE, PROVO, UT, 84604","Match","Exact","1265 CEDAR AVE, PROVO, UT, 84604",134208575,"L"
43525,"1265 CREEK RD","IRASBURG","VT",5845,NA,NA,25,"1265 CREEK RD, IRASBURG, VT, 5845","No_Match",NA,NA,NA,NA
43526,"1265 E FAYETTE ST","BALTIMORE","MD",21202,39.2923374280001,-76.6003758639999,26,"1265 E FAYETTE ST, BALTIMORE, MD, 21202","Match","Exact","1265 E FAYETTE ST, BALTIMORE, MD, 21202",206421597,"R"
43527,"1265 FINCH LANE","GREEN BAY","WI",54313,44.4758934710001,-88.096290104,27,"1265 FINCH LANE, GREEN BAY, WI, 54313","Match","Exact","1265 FINCH LN, GREEN BAY, WI, 54313",148109239,"R"
43528,"1265 GEORGIA HIGHWAY 98 WEST","DANIELSVILLE","GA",30633,NA,NA,28,"1265 GEORGIA HIGHWAY 98 WEST, DANIELSVILLE, GA, 30633","No_Match",NA,NA,NA,NA
43529,"1265 GREEN HOLLY DRIVE","ANNAPOLIS","MD",21409,39.037946047,-76.456735588,29,"1265 GREEN HOLLY DRIVE, ANNAPOLIS, MD, 21409","Match","Exact","1265 GREEN HOLLY DR, ANNAPOLIS, MD, 21409",68174912,"L"
43530,"1265 HIALEIAH CT","LEXINGTON","KY",45017,37.9774122540001,-84.481591696,30,"1265 HIALEIAH CT, LEXINGTON, KY, 45017","Match","Non_Exact","1265 HIALEIAH CT, LEXINGTON, KY, 40517",31925156,"L"
43531,"1265 HOLMGROVE DR","SAN MARCOS","CA",92078,33.1034196100001,-117.181291843,31,"1265 HOLMGROVE DR, SAN MARCOS, CA, 92078","Match","Exact","1265 HOLMGROVE DR, SAN MARCOS, CA, 92078",625648058,"R"
43532,"1265 JEFFERSON STREET","PACIFIC","MO",63069,38.471720212,-90.7542821169999,32,"1265 JEFFERSON STREET, PACIFIC, MO, 63069","Match","Exact","1265 JEFFERSON ST, PACIFIC, MO, 63069",648059726,"L"
43533,"1265 LAIRD AVENUE","SALT LAKE CITY","UM",84105,NA,NA,33,"1265 LAIRD AVENUE, SALT LAKE CITY, UM, 84105","No_Match",NA,NA,NA,NA
43534,"1265 LYDIA ST","LOUISVILLE","KY",40217,38.2214911660001,-85.73375391,34,"1265 LYDIA ST, LOUISVILLE, KY, 40217","Match","Exact","1265 LYDIA ST, LOUISVILLE, KY, 40217",96847182,"L"
43535,"1265 MAYAPAN RD","LA HABRA HEIGHTS","CA",90631,33.9477426190001,-117.941750141,35,"1265 MAYAPAN RD, LA HABRA HEIGHTS, CA, 90631","Match","Exact","1265 MAYAPAN RD, LA HABRA HEIGHTS, CA, 90631",649824013,"L"
43536,"1265 MIDDLE RD","DRESEN","ME",4342,44.0315656510001,-69.758783771,36,"1265 MIDDLE RD, DRESEN, ME, 4342","Match","Non_Exact","1265 MIDDLE RD, DRESDEN, ME, 04342",612844638,"L"
43537,"1265 N FITZGERALD AVE UNIT E","RIALTO","CA",92376,34.1228791360001,-117.393380829,37,"1265 N FITZGERALD AVE UNIT E, RIALTO, CA, 92376","Match","Non_Exact","1265 N FITZGERALD AVE, RIALTO, CA, 92376",144731638,"L"
43538,"1265 OLMSTEAD AVENUE APT I-R","BRONX","NY",10462,40.8333862470001,-73.854539245,38,"1265 OLMSTEAD AVENUE APT I-R, BRONX, NY, 10462","Match","Exact","1265 OLMSTEAD AVE, BRONX, NY, 10462",80305486,"L"
43539,"1265 PIONEER LANE","GENTRY","AR",72734,NA,NA,39,"1265 PIONEER LANE, GENTRY, AR, 72734","No_Match",NA,NA,NA,NA
43540,"1265 QUEENS ISLAND COURT","JACKSONVILLE","FL",32225,30.3462107140001,-81.453256267,40,"1265 QUEENS ISLAND COURT, JACKSONVILLE, FL, 32225","Match","Exact","1265 QUEENS ISLAND CT, JACKSONVILLE, FL, 32225",83950097,"R"
43541,"1265 ROCKY LANE BLDG 114","CORAOPOLIS","PA",15108,NA,NA,41,"1265 ROCKY LANE BLDG 114, CORAOPOLIS, PA, 15108","No_Match",NA,NA,NA,NA
43542,"1265 S MAIN ST SUITE 305A","SEATTLE","WA",98144,47.599999503,-122.315553455,42,"1265 S MAIN ST SUITE 305A, SEATTLE, WA, 98144","Match","Non_Exact","1265 S MAIN ST, SEATTLE, WA, 98144",647887241,"R"
43543,"1265 S MEMORIAL DRIVE","PRATTVILLE","AL",36067,32.448463342,-86.43983889,43,"1265 S MEMORIAL DRIVE, PRATTVILLE, AL, 36067","Match","Exact","1265 S MEMORIAL DR, PRATTVILLE, AL, 36067",640547294,"L"
43544,"1265 STATE STREET 253","EL CENTRO","CA",92243,32.7917448260001,-115.566175111,44,"1265 STATE STREET 253, EL CENTRO, CA, 92243","Match","Non_Exact","1265 W STATE ST, EL CENTRO, CA, 92243",194495807,"R"
43545,"1265 UTICA AVE","BROOKLYN","NY",11203,40.6416062220001,-73.929289328,45,"1265 UTICA AVE, BROOKLYN, NY, 11203","Match","Exact","1265 UTICA AVE, BROOKLYN, NY, 11203",59085807,"L"
43546,"1265 VIGO RD","CHILLICOTHE","OH",45601,39.214753171,-82.806008978,46,"1265 VIGO RD, CHILLICOTHE, OH, 45601","Match","Exact","1265 VIGO RD, CHILLICOTHE, OH, 45601",37485902,"L"
43547,"1265 WESTFIELD DRIVE","MAUMEE","OH",43537,41.578105448,-83.652221921,47,"1265 WESTFIELD DRIVE, MAUMEE, OH, 43537","Match","Exact","1265 WESTFIELD DR, MAUMEE, OH, 43537",33936124,"L"
43548,"1265 WITTMER RD","MANSFIELD","OH",44903,40.724131851,-82.626697376,48,"1265 WITTMER RD, MANSFIELD, OH, 44903","Match","Exact","1265 WITTMER RD, MANSFIELD, OH, 44903",207231263,"L"
43549,"12650 BROOKE LN","UPPER MARLBORO","MD",20772,38.8325330910001,-76.787112344,49,"12650 BROOKE LN, UPPER MARLBORO, MD, 20772","Match","Exact","12650 BROOKE LN, UPPER MARLBORO, MD, 20772",76346791,"L"
43550,"12650 CERROMAR CT","CARMEL","IN",46033,39.9733560080001,-86.064802489,50,"12650 CERROMAR CT, CARMEL, IN, 46033","Match","Exact","12650 CERROMAR CT, CARMEL, IN, 46033",29325463,"L"
43551,"12650 N BEACH ST 114 PMB 8","FORT WORTH","TX",76244,32.9549357080001,-97.28122281,51,"12650 N BEACH ST 114 PMB 8, FORT WORTH, TX, 76244","Match","Non_Exact","12650 N BEACH ST, FORT WORTH, TX, 76244",629624949,"R"
43552,"12650 N BEACH ST STE 114 NO 13","KELLER","TX",76244,32.9549357080001,-97.28122281,52,"12650 N BEACH ST STE 114 NO 13, KELLER, TX, 76244","Match","Non_Exact","12650 N BEACH ST, KELLER, TX, 76244",629624949,"R"
43553,"12650 N BEACH ST STE 114 PMB53","FORT WORTH","TX",76244,32.9549357080001,-97.28122281,53,"12650 N BEACH ST STE 114 PMB53, FORT WORTH, TX, 76244","Match","Non_Exact","12650 N BEACH ST, FORT WORTH, TX, 76244",629624949,"R"
43554,"12650 N BEACH ST SUITE 114 BOX 81","FORT WORTH","TX",76244,32.9549357080001,-97.28122281,54,"12650 N BEACH ST SUITE 114 BOX 81, FORT WORTH, TX, 76244","Match","Non_Exact","12650 N BEACH ST, FORT WORTH, TX, 76244",629624949,"R"
43555,"12650 NW 83RD LANE","OCALA","FL",34482,29.275156112,-82.327831614,55,"12650 NW 83RD LANE, OCALA, FL, 34482","Match","Exact","12650 NW 83RD LN, OCALA, FL, 34482",116802310,"R"
43556,"12650 W 64TH AVE UNIT E SUITE 302","ARVADA","CO",80004,NA,NA,56,"12650 W 64TH AVE UNIT E SUITE 302, ARVADA, CO, 80004","No_Match",NA,NA,NA,NA
43557,"12650 W 64TH AVE UNIT E195","ARVADA","CO",80004,NA,NA,57,"12650 W 64TH AVE UNIT E195, ARVADA, CO, 80004","No_Match",NA,NA,NA,NA
43558,"12651 GATEWAY DRIVE","NEOSHO","MO",64850,36.885205075,-94.413301078,58,"12651 GATEWAY DRIVE, NEOSHO, MO, 64850","Match","Exact","12651 GATEWAY DR, NEOSHO, MO, 64850",649947256,"R"
43559,"12651 MCGREGOR BLVD STE 2-203","FORT MYERS","FL",33919,26.560133555,-81.9091300589999,59,"12651 MCGREGOR BLVD STE 2-203, FORT MYERS, FL, 33919","Match","Exact","12651 MCGREGOR BLVD, FORT MYERS, FL, 33919",635835193,"L"
43560,"12651 N YEARLING CIR","HAYDEN","ID",83835,47.7860432470001,-116.751865842,60,"12651 N YEARLING CIR, HAYDEN, ID, 83835","Match","Exact","12651 N YEARLING CIR, HAYDEN, ID, 83835",192956967,"R"
43561,"12651 N YEARLING CIRCLE","HAYDEN","ID",83835,47.7860432470001,-116.751865842,61,"12651 N YEARLING CIRCLE, HAYDEN, ID, 83835","Match","Exact","12651 N YEARLING CIR, HAYDEN, ID, 83835",192956967,"R"
43562,"12651 OROHAVEN LANE","POWAY","CA",92064,32.957715622,-117.056882583,62,"12651 OROHAVEN LANE, POWAY, CA, 92064","Match","Exact","12651 OROHAVEN LN, POWAY, CA, 92064",195319850,"R"
43563,"12651 S 70TH RD","DONIPHAN","NE",68832,40.748093929,-98.473586548,63,"12651 S 70TH RD, DONIPHAN, NE, 68832","Match","Exact","12651 S 70TH RD, DONIPHAN, NE, 68832",196273230,"R"
43564,"12651 W SUNRISE BLVD STE 102","SUNRISE","FL",33326,NA,NA,64,"12651 W SUNRISE BLVD STE 102, SUNRISE, FL, 33326","No_Match",NA,NA,NA,NA
43565,"12652 61ST LANE NORTH","WEST PALM BEACH","FL",33412,26.7672220790001,-80.2411401809999,65,"12652 61ST LANE NORTH, WEST PALM BEACH, FL, 33412","Match","Exact","12652 61ST LN N, WEST PALM BEACH, FL, 33412",115347580,"R"
43566,"12653 ARLEY DR","WINDERMERE","FL",34786,28.4625723820001,-81.5697605669999,66,"12653 ARLEY DR, WINDERMERE, FL, 34786","Match","Exact","12653 ARLEY DR, WINDERMERE, FL, 34786",617825649,"L"
43567,"12653 CALIFA ST","VALLEY VILLAGE","CA",91607,34.1775583680001,-118.408377269,67,"12653 CALIFA ST, VALLEY VILLAGE, CA, 91607","Match","Exact","12653 CALIFA ST, VALLEY VLG, CA, 91607",141563295,"R"
43568,"12653 DEER GRASS COURT","MOORPARK","CA",93021,34.29945494,-118.88741849,68,"12653 DEER GRASS COURT, MOORPARK, CA, 93021","Match","Non_Exact","12653 DEER GRASS PL, MOORPARK, CA, 93021",645688237,"R"
43569,"12653 S CREST DR","OLATHE","KS",66061,38.8986885830001,-94.830681149,69,"12653 S CREST DR, OLATHE, KS, 66061","Match","Exact","12653 S CREST DR, OLATHE, KS, 66061",91311699,"L"
43570,"12654 WHITE BLUFF ROAD","HUDSON","FL",34669,28.340880616,-82.588071466,70,"12654 WHITE BLUFF ROAD, HUDSON, FL, 34669","Match","Exact","12654 WHITE BLUFF RD, HUDSON, FL, 34669",638629299,"L"
43571,"12654 WOMAN HOLLERING RD","SCHERTZ","TX",78154,29.510548993,-98.232660047,71,"12654 WOMAN HOLLERING RD, SCHERTZ, TX, 78154","Match","Exact","12654 WOMAN HOLLERING RD, SCHERTZ, TX, 78154",101699369,"R"
43572,"12655 HIGHWAY 67 W","BUTLER","TN",37640,NA,NA,72,"12655 HIGHWAY 67 W, BUTLER, TN, 37640","No_Match",NA,NA,NA,NA
43573,"12655 KUYKENDAHL RD 1106","HOUSTON","TX",77090,30.007126698,-95.463704201,73,"12655 KUYKENDAHL RD 1106, HOUSTON, TX, 77090","Match","Exact","12655 KUYKENDAHL RD, HOUSTON, TX, 77090",96576823,"R"
43574,"12655 MT PLEASANT RD","JACKSONVILLE","FL",32225,30.3791752670001,-81.495350819,74,"12655 MT PLEASANT RD, JACKSONVILLE, FL, 32225","Match","Exact","12655 MT PLEASANT RD, JACKSONVILLE, FL, 32225",83906015,"L"
43575,"12655 N CENTRAL EXPY STE 1016","DALLAS","TX",75243,NA,NA,75,"12655 N CENTRAL EXPY STE 1016, DALLAS, TX, 75243","No_Match",NA,NA,NA,NA
43576,"12655 NE 1ST AVE","NORTH MIAMI","FL",33161,25.8908768590001,-80.1962832789999,76,"12655 NE 1ST AVE, NORTH MIAMI, FL, 33161","Match","Exact","12655 NE 1ST AVE, NORTH MIAMI, FL, 33161",116034100,"R"
43577,"12655 OLIVE BOULEVARD SUITE 310","SAINT LOUIS","MO",63141,38.6782160670001,-90.468986349,77,"12655 OLIVE BOULEVARD SUITE 310, SAINT LOUIS, MO, 63141","Match","Exact","12655 OLIVE BLVD, SAINT LOUIS, MO, 63141",604465942,"R"
43578,"12655 SUNSET DRIVE","ESCONDIDO","CA",92025,33.067420284,-117.067175556,78,"12655 SUNSET DRIVE, ESCONDIDO, CA, 92025","Match","Exact","12655 SUNSET DR, ESCONDIDO, CA, 92025",195709551,"R"
43579,"12655 SW CENTER ST STE 410","BEAVERTON","OR",97005,45.4936549020001,-122.80645931,79,"12655 SW CENTER ST STE 410, BEAVERTON, OR, 97005","Match","Non_Exact","12655 SW CENTER ST, BEAVERTON, OR, 97005",158207831,"R"
43580,"12655 WHITTINGTON DRIVE UNIT 440516","HOUSTON","TX",77244,29.7462439440001,-95.6047637,80,"12655 WHITTINGTON DRIVE UNIT 440516, HOUSTON, TX, 77244","Match","Non_Exact","12655 WHITTINGTON DR, HOUSTON, TX, 77077",96618874,"L"
43581,"12656 181ST ROAD","LIVE OAK","FL",32060,30.219924135,-83.1227280539999,81,"12656 181ST ROAD, LIVE OAK, FL, 32060","Match","Exact","12656 181ST RD, LIVE OAK, FL, 32060",41100436,"R"
43582,"12656 ASHGLEN DR N","JACKSONVILLE","FL",32224,30.2768577530001,-81.491089302,82,"12656 ASHGLEN DR N, JACKSONVILLE, FL, 32224","Match","Exact","12656 ASHGLEN DR N, JACKSONVILLE, FL, 32224",623707364,"R"
43583,"12656 CRABTREE FALLS DRIVE","BRISTOW","VA",20136,38.761605086,-77.564718109,83,"12656 CRABTREE FALLS DRIVE, BRISTOW, VA, 20136","Match","Exact","12656 CRABTREE FALLS DR, BRISTOW, VA, 20136",619921674,"L"
43584,"12656 EL EVADO ROAD","VICTORVILLE","CA",92392,34.4802764190001,-117.346804074,84,"12656 EL EVADO ROAD, VICTORVILLE, CA, 92392","Match","Exact","12656 EL EVADO RD, VICTORVILLE, CA, 92392",145228081,"R"
43585,"12656 KENT ROAD","NORWOOD","LA",70761,30.982040763,-90.975484297,85,"12656 KENT ROAD, NORWOOD, LA, 70761","Match","Exact","12656 KENT RD, NORWOOD, LA, 70761",75692289,"L"
43586,"12657 ALCOSTA BLVD SUITE 400","SAN RAMON","CA",94583,37.7721118380001,-121.957724595,86,"12657 ALCOSTA BLVD SUITE 400, SAN RAMON, CA, 94583","Match","Exact","12657 ALCOSTA BLVD, SAN RAMON, CA, 94583",647672226,"L"
43587,"12657 BRISTOL AVENUE","BATON ROUGE","LA",70815,30.4435297260001,-91.041865258,87,"12657 BRISTOL AVENUE, BATON ROUGE, LA, 70815","Match","Exact","12657 BRISTOL AVE, BATON ROUGE, LA, 70815",92191838,"L"
43588,"12657 CHESHIRE STREET","NORWALK","CA",90650,33.891049519,-118.062387943,88,"12657 CHESHIRE STREET, NORWALK, CA, 90650","Match","Exact","12657 CHESHIRE ST, NORWALK, CA, 90650",141753178,"L"
43589,"12658 US HWY 212","NISLAND","SD",57762,NA,NA,89,"12658 US HWY 212, NISLAND, SD, 57762","No_Match",NA,NA,NA,NA
43590,"1266 BEAUMONT AVENUE","TEANECK","NJ",7666,40.8965527920001,-74.003591904,90,"1266 BEAUMONT AVENUE, TEANECK, NJ, 7666","Match","Exact","1266 BEAUMONT AVE, TEANECK, NJ, 07666",64389421,"L"
43591,"1266 BELLE VIEW ROAD APT 302","WOODBRIDGE","VA",22191,38.647344209,-77.255617324,91,"1266 BELLE VIEW ROAD APT 302, WOODBRIDGE, VA, 22191","Match","Exact","1266 BELLE VIEW RD, WOODBRIDGE, VA, 22191",76529911,"L"
43592,"1266 BERGEN ST APT 2","BROOKLYN","NY",11213,40.675726544,-73.943203586,92,"1266 BERGEN ST APT 2, BROOKLYN, NY, 11213","Match","Exact","1266 BERGEN ST, BROOKLYN, NY, 11213",634254784,"R"
43593,"1266 COLBY AVE","ROCK HILL","NC",29732,NA,NA,93,"1266 COLBY AVE, ROCK HILL, NC, 29732","No_Match",NA,NA,NA,NA
43594,"1266 E MAIN STREET SUITE 700R","STAMFORD","CT",6902,NA,NA,94,"1266 E MAIN STREET SUITE 700R, STAMFORD, CT, 6902","Tie",NA,NA,NA,NA
43595,"1266 EAST MAIN STREET SUITE 700R","STAMFORD","CT",6902,41.0586466890001,-73.512117605,95,"1266 EAST MAIN STREET SUITE 700R, STAMFORD, CT, 6902","Match","Exact","1266 E MAIN ST, STAMFORD, CT, 06902",3246955,"L"
43596,"1266 ELLISTON CT","CROWN POINT","IN",46307,41.433085309,-87.3818511059999,96,"1266 ELLISTON CT, CROWN POINT, IN, 46307","Match","Exact","1266 ELLISTON CT, CROWN POINT, IN, 46307",98454367,"L"
43597,"1266 INDIANOLA AVENUE APT A","COLUMBUS","OH",43201,39.9886751240001,-83.003343187,97,"1266 INDIANOLA AVENUE APT A, COLUMBUS, OH, 43201","Match","Exact","1266 INDIANOLA AVE, COLUMBUS, OH, 43201",135574000,"R"
43598,"1266 MULLET LAKE PARK RD","GENEVA","FL",32732,28.7687416100001,-81.1497162589999,98,"1266 MULLET LAKE PARK RD, GENEVA, FL, 32732","Match","Exact","1266 MULLET LAKE PARK RD, GENEVA, FL, 32732",93747740,"L"
43599,"1266 ORION CT","MERCED","CA",95348,37.337348202,-120.494358256,99,"1266 ORION CT, MERCED, CA, 95348","Match","Exact","1266 ORION CT, MERCED, CA, 95348",125325804,"L"
43600,"1266 PARTRIDGE RD","DE PERE","WI",54115,44.349995318,-88.119261081,100,"1266 PARTRIDGE RD, DE PERE, WI, 54115","Match","Exact","1266 PARTRIDGE RD, DE PERE, WI, 54115",148089926,"R"
43601,"1266 PERSIMMON PL","BETHLEHEM","GA",30620,NA,NA,101,"1266 PERSIMMON PL, BETHLEHEM, GA, 30620","No_Match",NA,NA,NA,NA
43602,"1266 SAN CARLOS AVE","CONCORD","CA",94518,37.969242235,-122.026057689,102,"1266 SAN CARLOS AVE, CONCORD, CA, 94518","Match","Exact","1266 SAN CARLOS AVE, CONCORD, CA, 94518",192054797,"R"
43603,"1266 SE BLUESTEM RD","EL DORADO","KS",67042,37.806535308,-96.789341231,103,"1266 SE BLUESTEM RD, EL DORADO, KS, 67042","Match","Exact","1266 SE BLUESTEM RD, EL DORADO, KS, 67042",32267102,"L"
43604,"1266 SHELTER ROCK RD","ORLANDO","FL",32835,28.5260308650001,-81.4976494649999,104,"1266 SHELTER ROCK RD, ORLANDO, FL, 32835","Match","Exact","1266 SHELTER ROCK RD, ORLANDO, FL, 32835",647461046,"R"
43605,"1266 SLEEPY HOLLOW RD","POWDER SPRINGS","GA",30127,33.8049319850001,-84.7259324079999,105,"1266 SLEEPY HOLLOW RD, POWDER SPRINGS, GA, 30127","Match","Exact","1266 SLEEPY HOLLOW RD, POWDER SPGS, GA, 30127",642893101,"L"
43606,"1266 SOUTH ELIZABETH ST","DENVER","CO",80210,39.693601212,-104.955816134,106,"1266 SOUTH ELIZABETH ST, DENVER, CO, 80210","Match","Exact","1266 S ELIZABETH ST, DENVER, CO, 80210",177338819,"L"
43607,"1266 SOUTH VINE STREET","DENVER","CO",80210,39.693605226,-104.962890105,107,"1266 SOUTH VINE STREET, DENVER, CO, 80210","Match","Exact","1266 S VINE ST, DENVER, CO, 80210",177332525,"L"
43608,"1266 STATE ROUTE 314 N","MANSFIELD","OH",44903,NA,NA,108,"1266 STATE ROUTE 314 N, MANSFIELD, OH, 44903","No_Match",NA,NA,NA,NA
43609,"1266 SW 115 WAY","DAVIE","FL",33325,26.103703823,-80.302662159,109,"1266 SW 115 WAY, DAVIE, FL, 33325","Match","Exact","1266 SW 115TH WAY, DAVIE, FL, 33325",114699661,"L"
43610,"1266 SW TOPEKA BLVD","TOPEKA","KS",66612,39.0432150450001,-95.682830709,110,"1266 SW TOPEKA BLVD, TOPEKA, KS, 66612","Match","Exact","1266 TOPEKA BLVD, TOPEKA, KS, 66612",17889064,"L"
43611,"1266 TOWNSHIP RD","ALTAMONT","NY",12084,42.7006851530001,-74.0889232,111,"1266 TOWNSHIP RD, ALTAMONT, NY, 12084","Match","Non_Exact","1266 TOWNSHIP RD, ALTAMONT, NY, 12009",18300298,"L"
43612,"1266 TRAILWOOD SOUTH","HOPKINS","MN",55343,44.9088227460001,-93.415980613,112,"1266 TRAILWOOD SOUTH, HOPKINS, MN, 55343","Match","Exact","1266 TRAILWOOD S, HOPKINS, MN, 55343",43827160,"L"
43613,"1266 W BARSTOW","FRESNO","CA",93711,36.815597381,-119.814332799,113,"1266 W BARSTOW, FRESNO, CA, 93711","Match","Non_Exact","1266 W BARSTOW AVE, FRESNO, CA, 93711",197567623,"R"
43614,"1266 W PACES FERRY RD NUM 227","ATLANTA","GA",30327,NA,NA,114,"1266 W PACES FERRY RD NUM 227, ATLANTA, GA, 30327","No_Match",NA,NA,NA,NA
43615,"1266 W PACES FERRY RD NW STE 177","ATLANTA","GA",30327,33.8492989150001,-84.429164745,115,"1266 W PACES FERRY RD NW STE 177, ATLANTA, GA, 30327","Match","Non_Exact","1266 W PACES FERRY RD NW, ATLANTA, GA, 30327",17334325,"L"
43616,"1266 W PACES FERRY RD STE 613","ATLANTA","GA",30327,NA,NA,116,"1266 W PACES FERRY RD STE 613, ATLANTA, GA, 30327","No_Match",NA,NA,NA,NA
43617,"1266 W PACES FERRY ROAD NUM 137","ATLANTA","GA",30327,NA,NA,117,"1266 W PACES FERRY ROAD NUM 137, ATLANTA, GA, 30327","No_Match",NA,NA,NA,NA
43618,"1266 W PACES FERRY ROAD NW","ATLANTA","GA",30327,33.8492989150001,-84.429164745,118,"1266 W PACES FERRY ROAD NW, ATLANTA, GA, 30327","Match","Non_Exact","1266 W PACES FERRY RD NW, ATLANTA, GA, 30327",17334325,"L"
43619,"1266 W PACES FERRY ROAD SUITE 318","ATLANTA","GA",30327,NA,NA,119,"1266 W PACES FERRY ROAD SUITE 318, ATLANTA, GA, 30327","No_Match",NA,NA,NA,NA
43620,"1266 WEST PACES FERRY RD SUITE 460","ATLANTA","GA",30327,33.8493078130001,-84.429135414,120,"1266 WEST PACES FERRY RD SUITE 460, ATLANTA, GA, 30327","Match","Non_Exact","1266 W PACES FERRY RD NW, ATLANTA, GA, 30327",17334325,"L"
43621,"1266 WHISPERING PINES DR","SAINT LOUIS","MO",63146,38.681637677,-90.4662084509999,121,"1266 WHISPERING PINES DR, SAINT LOUIS, MO, 63146","Match","Exact","1266 WHISPERING PINES DR, SAINT LOUIS, MO, 63146",645120701,"R"
43622,"12660 BAY AVE","EULESS","TX",76040,32.8194826590001,-97.0899734129999,122,"12660 BAY AVE, EULESS, TX, 76040","Match","Exact","12660 BAY AVE, EULESS, TX, 76040",619867953,"R"
43623,"12660 COIT RD SUITE 150","DALLAS","TX",75251,NA,NA,123,"12660 COIT RD SUITE 150, DALLAS, TX, 75251","No_Match",NA,NA,NA,NA
43624,"12660 HODGSON AVE","CEDAR KEY","FL",32625,29.1435846690001,-83.0520944469999,124,"12660 HODGSON AVE, CEDAR KEY, FL, 32625","Match","Exact","12660 HODGSON AVE, CEDAR KEY, FL, 32625",43328400,"L"
43625,"12660 N  OVERBROOK DR","PLATTE CITY","MO",64079,39.3226357720001,-94.7883809579999,125,"12660 N  OVERBROOK DR, PLATTE CITY, MO, 64079","Match","Exact","12660 N OVERBROOK DR, PLATTE CITY, MO, 64079",617270662,"R"
43626,"12660 Q STREET","OMAHA","NE",68137,41.2051953480001,-96.111532529,126,"12660 Q STREET, OMAHA, NE, 68137","Match","Exact","12660 Q ST, OMAHA, NE, 68137",117021381,"R"
43627,"12660 SANDPIPER DR 70","HOUSTON","TX",77035,29.639117399,-95.503141738,127,"12660 SANDPIPER DR 70, HOUSTON, TX, 77035","Match","Exact","12660 SANDPIPER DR, HOUSTON, TX, 77035",96595553,"R"
43628,"12660 SANDPIPER DR STE 43","HOUSTON","TX",77035,29.639117399,-95.503141738,128,"12660 SANDPIPER DR STE 43, HOUSTON, TX, 77035","Match","Exact","12660 SANDPIPER DR, HOUSTON, TX, 77035",96595553,"R"
43629,"12660 SW LAKE RD","DAVIE","FL",33325,26.1046809900001,-80.317225476,129,"12660 SW LAKE RD, DAVIE, FL, 33325","Match","Exact","12660 LAKE RD, DAVIE, FL, 33325",114699396,"L"
43630,"12660 W ARMSTRONG RD","BROOKVILLE","KS",67425,38.8564794850001,-97.890127962,130,"12660 W ARMSTRONG RD, BROOKVILLE, KS, 67425","Match","Exact","12660 W ARMSTRONG RD, BROOKVILLE, KS, 67425",196681829,"R"
43631,"12661 ANITA PL","OREGON CITY","OR",97045,45.3254457400001,-122.610605562,131,"12661 ANITA PL, OREGON CITY, OR, 97045","Match","Exact","12661 ANITA PL, OREGON CITY, OR, 97045",640615012,"R"
43632,"12661 PEACHWOOD COURT","POWAY","CA",92064,32.981197604,-117.058470879,132,"12661 PEACHWOOD COURT, POWAY, CA, 92064","Match","Exact","12661 PEACHWOOD CT, POWAY, CA, 92064",195374137,"L"
43633,"12661 SHADY LANE","PURCELLVILLE","VA",20132,39.2659201750001,-77.749779414,133,"12661 SHADY LANE, PURCELLVILLE, VA, 20132","Match","Exact","12661 SHADY LN, PURCELLVILLE, VA, 20132",62317565,"L"
43634,"12661 VICTORY LAKES LOOP","BRISTOW","VA",20136,38.7632387250001,-77.566576529,134,"12661 VICTORY LAKES LOOP, BRISTOW, VA, 20136","Match","Exact","12661 VICTORY LAKES LOOP, BRISTOW, VA, 20136",647922035,"L"
43635,"12662 HWY BB","VERSAILLES","MO",65084,38.497252765,-92.920336931,135,"12662 HWY BB, VERSAILLES, MO, 65084","Match","Exact","12662 HWY BB, VERSAILLES, MO, 65084",612238827,"L"
43636,"12662 OLD WICK CIRCLE","SAN ANTONIO","TX",78230,29.554717624,-98.5587512019999,136,"12662 OLD WICK CIRCLE, SAN ANTONIO, TX, 78230","Match","Exact","12662 OLD WICK CIR, SAN ANTONIO, TX, 78230",101492198,"R"
43637,"12662","SCOTTSDALE","AZ",85267,NA,NA,137,"12662, SCOTTSDALE, AZ, 85267","No_Match",NA,NA,NA,NA
43638,"12663 ROCK SCHOOL ROAD","SKIATOOK","OK",74070,36.261537764,-96.133854629,138,"12663 ROCK SCHOOL ROAD, SKIATOOK, OK, 74070","Match","Exact","12663 ROCK SCHOOL RD, SKIATOOK, OK, 74070",82384699,"L"
43639,"12665 FLATWOOD CREEK DR","GIBSONTON","FL",33534,27.810139469,-82.350821464,139,"12665 FLATWOOD CREEK DR, GIBSONTON, FL, 33534","Match","Exact","12665 FLATWOOD CREEK DR, GIBSONTON, FL, 33534",646619199,"R"
43640,"12665 KESTREL STREET","SAN DIEGO","CA",92129,32.9484384720001,-117.121700618,140,"12665 KESTREL STREET, SAN DIEGO, CA, 92129","Match","Exact","12665 KESTREL ST, SAN DIEGO, CA, 92129",195653410,"R"
43641,"12665 N ARBOR WAY","PLATTE CITY","MO",64079,39.322603884,-94.7870744369999,141,"12665 N ARBOR WAY, PLATTE CITY, MO, 64079","Match","Exact","12665 N ARBOR WAY, PLATTE CITY, MO, 64079",617270652,"R"
43642,"12665 VILLAGE LANE APT 4430","PLAYA VISTA","CA",90094,33.977561456,-118.415140451,142,"12665 VILLAGE LANE APT 4430, PLAYA VISTA, CA, 90094","Match","Exact","12665 VILLAGE LN, PLAYA VISTA, CA, 90094",648175936,"L"
43643,"12667 82ND LANE N","WEST PALM BEACH","FL",33412,26.7994177050001,-80.239658036,143,"12667 82ND LANE N, WEST PALM BEACH, FL, 33412","Match","Exact","12667 82ND LN N, WEST PALM BEACH, FL, 33412",115548631,"R"
43644,"12668 CHAPMAN AVE UNIT 2102","GARDEN GROVE","CA",92840,33.7887738490001,-117.913308564,144,"12668 CHAPMAN AVE UNIT 2102, GARDEN GROVE, CA, 92840","Match","Non_Exact","12668 W CHAPMAN AVE, GARDEN GROVE, CA, 92840",630326517,"R"
43645,"12668 CHAPMAN AVE UNIT 2104","GARDEN GROVE","CA",92840,33.7887738490001,-117.913308564,145,"12668 CHAPMAN AVE UNIT 2104, GARDEN GROVE, CA, 92840","Match","Non_Exact","12668 W CHAPMAN AVE, GARDEN GROVE, CA, 92840",630326517,"R"
43646,"12668 INA DRIVE","WALKER","LA",70785,30.4806230390001,-90.87626547,146,"12668 INA DRIVE, WALKER, LA, 70785","Match","Exact","12668 INA DR, WALKER, LA, 70785",115084846,"R"
43647,"12669 MEREDITH AVENUE","OMAHA","NE",68164,41.300095576,-96.112806141,147,"12669 MEREDITH AVENUE, OMAHA, NE, 68164","Match","Exact","12669 MEREDITH AVE, OMAHA, NE, 68164",117011740,"L"
43648,"12669 VIEWPOINT LANE","BURLESON","TX",76028,NA,NA,148,"12669 VIEWPOINT LANE, BURLESON, TX, 76028","No_Match",NA,NA,NA,NA
43649,"12669 W WARREN AVE","LAKEWOOD","CO",80228,39.6765898450001,-105.137334512,149,"12669 W WARREN AVE, LAKEWOOD, CO, 80228","Match","Exact","12669 W WARREN AVE, LAKEWOOD, CO, 80228",177318339,"R"
43650,"1267 ALVARADO AVENUE","PACIFICA","CA",94044,37.5849919080001,-122.485384754,150,"1267 ALVARADO AVENUE, PACIFICA, CA, 94044","Match","Exact","1267 ALVARADO AVE, PACIFICA, CA, 94044",192369965,"L"
43651,"1267 AUWAE ROAD","HILO","HI",96720,19.6786804230001,-155.044170718,151,"1267 AUWAE ROAD, HILO, HI, 96720","Match","Exact","1267 AUWAE RD, HILO, HI, 96720",614315585,"L"
43652,"1267 CARROLL STREET","BROOKLYN","NY",11213,40.666953834,-73.946429479,152,"1267 CARROLL STREET, BROOKLYN, NY, 11213","Match","Exact","1267 CARROLL ST, BROOKLYN, NY, 11213",59079468,"L"
43653,"1267 ENTERPRISE WAY SUITE B","HUNTSIVLLE","AL",35806,34.737077443,-86.678063718,153,"1267 ENTERPRISE WAY SUITE B, HUNTSIVLLE, AL, 35806","Match","Non_Exact","1267 ENTERPRISE WAY NW, HUNTSVILLE, AL, 35806",236741304,"L"
43654,"1267 FOGG PIKE","MT STERLING","KY",40353,38.0387589050001,-83.967987444,154,"1267 FOGG PIKE, MT STERLING, KY, 40353","Match","Exact","1267 FOGG PIKE, MT STERLING, KY, 40353",32034017,"L"
43655,"1267 GALWAY STREET","PLACENTIA","CA",92870,33.8847005470001,-117.852618718,155,"1267 GALWAY STREET, PLACENTIA, CA, 92870","Match","Exact","1267 GALWAY ST, PLACENTIA, CA, 92870",143995422,"L"
43656,"1267 HAVEMEYER AVENUE","BRONX","NY",10462,40.8340117720001,-73.848372513,156,"1267 HAVEMEYER AVENUE, BRONX, NY, 10462","Match","Exact","1267 HAVEMEYER AVE, BRONX, NY, 10462",80305632,"L"
43657,"1267 HIGHFIELD DR","LAWRENCEVILLE","GA",30043,34.001137832,-83.9568472619999,157,"1267 HIGHFIELD DR, LAWRENCEVILLE, GA, 30043","Match","Non_Exact","1267 HIGHFIELD DR NE, LAWRENCEVILLE, GA, 30043",88919025,"R"
43658,"1267 HYGEAN RUN ROAD","WEST PORTSMOUTH","OH",45663,38.7560165510001,-83.050303454,158,"1267 HYGEAN RUN ROAD, WEST PORTSMOUTH, OH, 45663","Match","Exact","1267 HYGEAN RUN RD, W PORTSMOUTH, OH, 45663",55106137,"L"
43659,"1267 MAIN STREET","PITTSTON","PA",18640,41.3121657190001,-75.8105918529999,159,"1267 MAIN STREET, PITTSTON, PA, 18640","Match","Exact","1267 MAIN ST, PITTSTON, PA, 18640",604521687,"L"
43660,"1267 MT CARMEL CHURCH LANE","CANTON","GA",30114,34.2318089340001,-84.596855648,160,"1267 MT CARMEL CHURCH LANE, CANTON, GA, 30114","Match","Exact","1267 MOUNT CARMEL CHURCH LN, CANTON, GA, 30114",642590206,"R"
43661,"1267 N GRANITE REEF RD","SCOTTSDALE","AZ",85257,33.461903325,-111.900530355,161,"1267 N GRANITE REEF RD, SCOTTSDALE, AZ, 85257","Match","Exact","1267 N GRANITE REEF RD, SCOTTSDALE, AZ, 85257",128922712,"R"
43662,"1267 ORCHARD STREET","MONROE","OR",97456,44.313848835,-123.305984839,162,"1267 ORCHARD STREET, MONROE, OR, 97456","Match","Exact","1267 ORCHARD ST, MONROE, OR, 97456",155861336,"L"
43663,"1267 RAGEN ROAD SE","PALM BAY","FL",32909,27.937193069,-80.636802697,163,"1267 RAGEN ROAD SE, PALM BAY, FL, 32909","Match","Exact","1267 RAGEN RD SE, PALM BAY, FL, 32909",93956956,"L"
43664,"1267 SEROTA PLACE","PHILADELPHIA","PA",19115,40.0946518870001,-75.034592475,164,"1267 SEROTA PLACE, PHILADELPHIA, PA, 19115","Match","Exact","1267 SEROTA PL, PHILADELPHIA, PA, 19115",645573956,"L"
43665,"1267 STATE STREET","BOWLING GREEN","KY",42101,36.9890025080001,-86.446328926,165,"1267 STATE STREET, BOWLING GREEN, KY, 42101","Match","Exact","1267 STATE ST, BOWLING GREEN, KY, 42101",28021388,"L"
43666,"1267 TINMOUTH RD","DANBY","VT",5739,43.3717220360001,-73.044621991,166,"1267 TINMOUTH RD, DANBY, VT, 5739","Match","Exact","1267 TINMOUTH RD, DANBY, VT, 05739",138942171,"L"
43667,"1267 VISTA RIDGE WAY   APT 102","KNOXVILLE","TN",37909,35.9480070480001,-84.032577391,167,"1267 VISTA RIDGE WAY   APT 102, KNOXVILLE, TN, 37909","Match","Exact","1267 VISTA RIDGE WAY, KNOXVILLE, TN, 37909",42669792,"L"
43668,"1267 W 32ND ST","HOLLAND","MI",49423,42.7682380470001,-86.1606203329999,168,"1267 W 32ND ST, HOLLAND, MI, 49423","Match","Exact","1267 W 32ND ST, HOLLAND, MI, 49423",11421278,"L"
43669,"1267 W 9TH STREET STE 275","CLEVELAND","OH",44113,41.499451047,-81.7009519229999,169,"1267 W 9TH STREET STE 275, CLEVELAND, OH, 44113","Match","Non_Exact","1267 W 9TH ST, CLEVELAND, OH, 44113",61108932,"L"
43670,"1267 WEST WOODS RD","HAMDEN","CT",6518,41.4207470910001,-72.9462213419999,170,"1267 WEST WOODS RD, HAMDEN, CT, 6518","Match","Exact","1267 W WOODS RD, HAMDEN, CT, 06518",627250709,"R"
43671,"1267 WEST WOODS ROAD","HAMDEN","CT",6518,41.4207470910001,-72.9462213419999,171,"1267 WEST WOODS ROAD, HAMDEN, CT, 6518","Match","Exact","1267 W WOODS RD, HAMDEN, CT, 06518",627250709,"R"
43672,"1267 WILLIS ST  STE 200","REDDING","CA",96001,40.5848922270001,-122.400857955,172,"1267 WILLIS ST  STE 200, REDDING, CA, 96001","Match","Exact","1267 WILLIS ST, REDDING, CA, 96001",126684680,"L"
43673,"1267 WILLIS ST 200","REDDING","CA",96001,40.5848922270001,-122.400857955,173,"1267 WILLIS ST 200, REDDING, CA, 96001","Match","Exact","1267 WILLIS ST, REDDING, CA, 96001",126684680,"L"
43674,"1267 WILLIS ST STE 200","REDDING","CA",96001,40.5848922270001,-122.400857955,174,"1267 WILLIS ST STE 200, REDDING, CA, 96001","Match","Exact","1267 WILLIS ST, REDDING, CA, 96001",126684680,"L"
43675,"1267 WILLIS ST SUITE 200","REDDING","CA",96001,40.5848922270001,-122.400857955,175,"1267 WILLIS ST SUITE 200, REDDING, CA, 96001","Match","Exact","1267 WILLIS ST, REDDING, CA, 96001",126684680,"L"
43676,"1267 WILLIS ST","REDDING","CA",96001,40.5848922270001,-122.400857955,176,"1267 WILLIS ST, REDDING, CA, 96001","Match","Exact","1267 WILLIS ST, REDDING, CA, 96001",126684680,"L"
43677,"1267 WILLIS STREET   SUITE 200","REDDING","CA",96001,40.5848922270001,-122.400857955,177,"1267 WILLIS STREET   SUITE 200, REDDING, CA, 96001","Match","Exact","1267 WILLIS ST, REDDING, CA, 96001",126684680,"L"
43678,"1267 WILLIS STREET 200","REDDING","CA",96001,40.5848922270001,-122.400857955,178,"1267 WILLIS STREET 200, REDDING, CA, 96001","Match","Exact","1267 WILLIS ST, REDDING, CA, 96001",126684680,"L"
43679,"1267 WILLIS STREET STE 200","REDDING","CA",96001,40.5848922270001,-122.400857955,179,"1267 WILLIS STREET STE 200, REDDING, CA, 96001","Match","Exact","1267 WILLIS ST, REDDING, CA, 96001",126684680,"L"
43680,"1267 WILLIS STREET SUITE 200","REDDING","CA",90008,40.5848922270001,-122.400857955,180,"1267 WILLIS STREET SUITE 200, REDDING, CA, 90008","Match","Non_Exact","1267 WILLIS ST, REDDING, CA, 96001",126684680,"L"
43681,"1267 WILLIS STREET SUITE 200","REDDING","CA",92563,40.5848922270001,-122.400857955,181,"1267 WILLIS STREET SUITE 200, REDDING, CA, 92563","Match","Non_Exact","1267 WILLIS ST, REDDING, CA, 96001",126684680,"L"
43682,"1267 WILLIS STREET SUITE 200","Redding","CA",96001,40.5848922270001,-122.400857955,182,"1267 WILLIS STREET SUITE 200, Redding, CA, 96001","Match","Exact","1267 WILLIS ST, REDDING, CA, 96001",126684680,"L"
43683,"1267 WILLIS STREET SUITE 200","REDDING","CA",96001,40.5848922270001,-122.400857955,183,"1267 WILLIS STREET SUITE 200, REDDING, CA, 96001","Match","Exact","1267 WILLIS ST, REDDING, CA, 96001",126684680,"L"
43684,"1267 WILLIS STREET SUITE 250","REDDING","CA",96001,40.5848922270001,-122.400857955,184,"1267 WILLIS STREET SUITE 250, REDDING, CA, 96001","Match","Exact","1267 WILLIS ST, REDDING, CA, 96001",126684680,"L"
43685,"12670 HIGH BLUFF DRIVE","SAN DIEGO","CA",92130,32.9502082170001,-117.239243062,185,"12670 HIGH BLUFF DRIVE, SAN DIEGO, CA, 92130","Match","Exact","12670 HIGH BLUFF DR, SAN DIEGO, CA, 92130",195689433,"L"
43686,"12670 SANDALWOOD DR","FLORISSANT","MO",63033,38.790056409,-90.277082029,186,"12670 SANDALWOOD DR, FLORISSANT, MO, 63033","Match","Exact","12670 SANDALWOOD DR, FLORISSANT, MO, 63033",100145413,"R"
43687,"12670 SEACOAST PL","PLAYA VISTA","CA",90094,33.9763044690001,-118.41343262,187,"12670 SEACOAST PL, PLAYA VISTA, CA, 90094","Match","Exact","12670 SEACOAST PL, PLAYA VISTA, CA, 90094",648485826,"L"
43688,"12670 SEACOAST PLACE","PLAYA VISTA","CA",90292,33.9763044690001,-118.41343262,188,"12670 SEACOAST PLACE, PLAYA VISTA, CA, 90292","Match","Non_Exact","12670 SEACOAST PL, PLAYA VISTA, CA, 90094",648485826,"L"
43689,"12671 N 143RD LN","SURPRISE","AZ",85379,33.5989722840001,-112.369226828,189,"12671 N 143RD LN, SURPRISE, AZ, 85379","Match","Exact","12671 N 143RD LN, SURPRISE, AZ, 85379",646789756,"R"
43690,"12671 WOODDUCK ROAD","OKAWVILLE","IL",62271,38.403627768,-89.5788347229999,190,"12671 WOODDUCK ROAD, OKAWVILLE, IL, 62271","Match","Exact","12671 WOODDUCK RD, OKAWVILLE, IL, 62271",93166364,"L"
43691,"12672 HUNGARIAN ST","EASTVALE","CA",92880,33.9676152600001,-117.560422745,191,"12672 HUNGARIAN ST, EASTVALE, CA, 92880","Match","Exact","12672 HUNGARIAN ST, EASTVALE, CA, 92880",624976610,"L"
43692,"12672 LIMONITE AVENUE 3E-118","EASTVALE","CA",92880,33.9753638220001,-117.56035507,192,"12672 LIMONITE AVENUE 3E-118, EASTVALE, CA, 92880","Match","Exact","12672 LIMONITE AVE, EASTVALE, CA, 92880",194731038,"L"
43693,"12672 LIMONITE AVENUE SUITE 3E-422","EASTVALE","CA",92880,33.9753638220001,-117.56035507,193,"12672 LIMONITE AVENUE SUITE 3E-422, EASTVALE, CA, 92880","Match","Exact","12672 LIMONITE AVE, EASTVALE, CA, 92880",194731038,"L"
43694,"12672 LIMONITE STE 3E PMB 119","CORONA","CA",92880,33.9753638220001,-117.56035507,194,"12672 LIMONITE STE 3E PMB 119, CORONA, CA, 92880","Match","Non_Exact","12672 LIMONITE AVE, CORONA, CA, 92880",194731038,"L"
43695,"12672 MEMORIAL WAY APT  2046","MORENO VALLEY","CA",92557,33.9336105100001,-117.27231701,195,"12672 MEMORIAL WAY APT  2046, MORENO VALLEY, CA, 92557","Match","Non_Exact","12672 MEMORIAL WAY, MORENO VALLEY, CA, 92553",194800218,"R"
43696,"12673 TALLOW HILL LN","ST LOUIS","MO",63146,38.6852113030001,-90.4639141549999,196,"12673 TALLOW HILL LN, ST LOUIS, MO, 63146","Match","Exact","12673 TALLOW HILL LN, SAINT LOUIS, MO, 63146",100124072,"R"
43697,"12677 BURNS ROAD","CALIFORNIA","KY",41007,38.8611277420001,-84.3614913329999,197,"12677 BURNS ROAD, CALIFORNIA, KY, 41007","Match","Exact","12677 BURNS RD, CALIFORNIA, KY, 41007",210241295,"R"
43698,"12677 HONORS DRIVE","CARMEL","IN",46033,39.973730291,-86.066341087,198,"12677 HONORS DRIVE, CARMEL, IN, 46033","Match","Exact","12677 HONORS DR, CARMEL, IN, 46033",29343598,"R"
43699,"12678 HIGHWAY 45 S","LINCOLN","AR",72744,NA,NA,199,"12678 HIGHWAY 45 S, LINCOLN, AR, 72744","No_Match",NA,NA,NA,NA
43700,"12679 LONGTIN","SOUTHGATE","MI",48195,42.215363172,-83.1948598229999,200,"12679 LONGTIN, SOUTHGATE, MI, 48195","Match","Non_Exact","12679 LONGTIN ST, SOUTHGATE, MI, 48195",95451198,"L"
43701,"1268 ARROWOOD DRIVE","PITTSBURGH","PA",15243,40.3670306560001,-80.069008046,201,"1268 ARROWOOD DRIVE, PITTSBURGH, PA, 15243","Match","Exact","1268 ARROWOOD DR, PITTSBURGH, PA, 15243",629109890,"R"
43702,"1268 ASH TREE COVE","SALT LAKE CITY","UT",84106,40.6946598710001,-111.854548194,202,"1268 ASH TREE COVE, SALT LAKE CITY, UT, 84106","Match","Non_Exact","1268 E ASH TREE COVE, SALT LAKE CITY, UT, 84106",624052622,"L"
43703,"1268 BEECHER AVE","GALESBURG","IL",61401,40.962893222,-90.359568892,203,"1268 BEECHER AVE, GALESBURG, IL, 61401","Match","Exact","1268 BEECHER AVE, GALESBURG, IL, 61401",9039478,"L"
43704,"1268 BROADWAY STE 211","SAUGUS","MA",1906,42.454974979,-71.023510114,204,"1268 BROADWAY STE 211, SAUGUS, MA, 1906","Match","Exact","1268 BROADWAY, SAUGUS, MA, 01906",636244084,"R"
43705,"1268 DAVID AVE","HENDERSON","NC",27536,36.3273597560001,-78.433970272,205,"1268 DAVID AVE, HENDERSON, NC, 27536","Match","Exact","1268 DAVID AVE, HENDERSON, NC, 27536",90271133,"R"
43706,"1268 ELDERWOOD AVENUE","COLUMBUS","OH",43227,39.947805744,-82.89101146,206,"1268 ELDERWOOD AVENUE, COLUMBUS, OH, 43227","Match","Exact","1268 ELDERWOOD AVE, COLUMBUS, OH, 43227",218678815,"L"
43707,"1268 FELLS CHURCH ROAD","BELLE VERNON","PA",15012,40.1791340510001,-79.8231409159999,207,"1268 FELLS CHURCH ROAD, BELLE VERNON, PA, 15012","Match","Exact","1268 FELLS CHURCH RD, BELLE VERNON, PA, 15012",52965222,"R"
43708,"1268 GIVERNY COURT NW","CONCORD","NC",28027,35.3984339890001,-80.6374069569999,208,"1268 GIVERNY COURT NW, CONCORD, NC, 28027","Match","Exact","1268 GIVERNY CT NW, CONCORD, NC, 28027",24929363,"L"
43709,"1268 GRAND AVE","SAN DIEGO","CA",92109,32.7965224710001,-117.246386388,209,"1268 GRAND AVE, SAN DIEGO, CA, 92109","Match","Exact","1268 GRAND AVE, SAN DIEGO, CA, 92109",195302945,"L"
43710,"1268 HARTFORD DR","FOREST GROVE","OR",97116,45.537288635,-123.125335944,210,"1268 HARTFORD DR, FOREST GROVE, OR, 97116","Match","Exact","1268 HARTFORD DR, FOREST GROVE, OR, 97116",627568327,"L"
43711,"1268 HOLLAND","ROCK HILL","SC",29732,34.934066665,-81.126744435,211,"1268 HOLLAND, ROCK HILL, SC, 29732","Match","Non_Exact","1268 HOLLAND RD, ROCK HILL, SC, 29732",19814613,"R"
43712,"1268 LAPALOMA","MEMPHIS","TN",38128,NA,NA,212,"1268 LAPALOMA, MEMPHIS, TN, 38128","No_Match",NA,NA,NA,NA
43713,"1268 LEWISBURG ROAD","CABOT","AR",72023,NA,NA,213,"1268 LEWISBURG ROAD, CABOT, AR, 72023","No_Match",NA,NA,NA,NA
43714,"1268 NEBRASKA STREET","VALLEJO","CA",94590,38.1133496250001,-122.235496791,214,"1268 NEBRASKA STREET, VALLEJO, CA, 94590","Match","Exact","1268 NEBRASKA ST, VALLEJO, CA, 94590",192527953,"L"
43715,"1268 NORTH CERRITOS AVENUE","HANFORD","CA",93230,36.338345685,-119.676621444,215,"1268 NORTH CERRITOS AVENUE, HANFORD, CA, 93230","Match","Exact","1268 N CERRITOS AVE, HANFORD, CA, 93230",646341059,"R"
43716,"1268 NW 111TH STREET","MIAMI","FL",33168,NA,NA,216,"1268 NW 111TH STREET, MIAMI, FL, 33168","No_Match",NA,NA,NA,NA
43717,"1268 OLD HICKORY RD","MEMPHIS","TN",38116,35.049455617,-90.021385105,217,"1268 OLD HICKORY RD, MEMPHIS, TN, 38116","Match","Exact","1268 OLD HICKORY RD, MEMPHIS, TN, 38116",72909990,"L"
43718,"1268 QUAKER RIDGE DRIVE","ARNOLD","MD",21012,39.0402107420001,-76.466910916,218,"1268 QUAKER RIDGE DRIVE, ARNOLD, MD, 21012","Match","Exact","1268 QUAKER RIDGE DR, ARNOLD, MD, 21012",649462985,"R"
43719,"1268 S COLLEGE MALL RD APT D4","BLOOMINGTON","IN",47401,39.1526762230001,-86.497672311,219,"1268 S COLLEGE MALL RD APT D4, BLOOMINGTON, IN, 47401","Match","Non_Exact","1268 S COLLEGE MALL RD, BLOOMINGTON, IN, 47401",636633388,"R"
43720,"1268 STATE ROUTE 58","MAYFIELD","KY",42066,NA,NA,220,"1268 STATE ROUTE 58, MAYFIELD, KY, 42066","No_Match",NA,NA,NA,NA
43721,"1268 W 74TH ST","CHICAGO","IL",60636,41.759567352,-87.656350862,221,"1268 W 74TH ST, CHICAGO, IL, 60636","Match","Exact","1268 W 74TH ST, CHICAGO, IL, 60636",604997826,"R"
43722,"1268 YOUNG STREET SUITE 302","HONOLULU","HI",96814,21.3000144980001,-157.841735127,222,"1268 YOUNG STREET SUITE 302, HONOLULU, HI, 96814","Match","Exact","1268 YOUNG ST, HONOLULU, HI, 96814",203237376,"L"
43723,"1268 ZANDER AVE SE","PALM BAY","FL",32909,27.966052581,-80.6414453909999,223,"1268 ZANDER AVE SE, PALM BAY, FL, 32909","Match","Exact","1268 ZANDER AVE SE, PALM BAY, FL, 32909",93909299,"R"
43724,"12680 HG TRUEMAN ROAD","LUSBY","MD",20657,NA,NA,224,"12680 HG TRUEMAN ROAD, LUSBY, MD, 20657","No_Match",NA,NA,NA,NA
43725,"12680 SW 144 TERRACE","MIAMI","FL",33185,NA,NA,225,"12680 SW 144 TERRACE, MIAMI, FL, 33185","No_Match",NA,NA,NA,NA
43726,"12680 W LAKE HOUSTON PARKWAY","HOUSTON","TX",77044,29.8957110010001,-95.202195358,226,"12680 W LAKE HOUSTON PARKWAY, HOUSTON, TX, 77044","Match","Non_Exact","12680 N LAKE HOUSTON PKWY, HOUSTON, TX, 77044",96586648,"R"
43727,"12680 W LAKE HOUSTON PKWY 510","HOUSTON","TX",77044,29.8957110010001,-95.202195358,227,"12680 W LAKE HOUSTON PKWY 510, HOUSTON, TX, 77044","Match","Non_Exact","12680 N LAKE HOUSTON PKWY, HOUSTON, TX, 77044",96586648,"R"
43728,"12680 W LAKE HOUSTON SUITE 510 169","HOUSTON","TX",77044,NA,NA,228,"12680 W LAKE HOUSTON SUITE 510 169, HOUSTON, TX, 77044","No_Match",NA,NA,NA,NA
43729,"12680 WEST LAKE HOUSTON PARKWAY","HOUSTON","TX",77044,29.895710964,-95.202195977,229,"12680 WEST LAKE HOUSTON PARKWAY, HOUSTON, TX, 77044","Match","Non_Exact","12680 N LAKE HOUSTON PKWY, HOUSTON, TX, 77044",96586648,"R"
43730,"12681 HERON RIDGE DR","FAIRFAX","VA",22030,38.845523502,-77.3804453879999,230,"12681 HERON RIDGE DR, FAIRFAX, VA, 22030","Match","Exact","12681 HERON RIDGE DR, FAIRFAX, VA, 22030",614145859,"R"
43731,"12681 RUSTLER RIDGE","LUSBY","MD",20657,NA,NA,231,"12681 RUSTLER RIDGE, LUSBY, MD, 20657","No_Match",NA,NA,NA,NA
43732,"12682 KAGEL CANYON ROAD","SYLMAR","CA",91342,34.298143811,-118.375911302,232,"12682 KAGEL CANYON ROAD, SYLMAR, CA, 91342","Match","Exact","12682 KAGEL CANYON RD, SYLMAR, CA, 91342",142836394,"R"
43733,"12682 PLEASANT PL","GARDEN GROVE","CA",92841,33.7789258280001,-117.962251135,233,"12682 PLEASANT PL, GARDEN GROVE, CA, 92841","Match","Exact","12682 PLEASANT PL, GARDEN GROVE, CA, 92841",144034952,"L"
43734,"12683 ALFA ROMEO WAY","FRISCO","TX",75033,33.1838541650001,-96.8780091419999,234,"12683 ALFA ROMEO WAY, FRISCO, TX, 75033","Match","Exact","12683 ALFA ROMEO WAY, FRISCO, TX, 75033",103417469,"R"
43735,"12683 HAMNER ACRES RD","NORTHPORT","AL",35473,33.2770053410001,-87.54864467,235,"12683 HAMNER ACRES RD, NORTHPORT, AL, 35473","Match","Exact","12683 HAMNER ACRES RD, NORTHPORT, AL, 35473",82200565,"R"
43736,"12684 BROAD ST","PATASKALA","OH",43062,39.994502088,-82.726757118,236,"12684 BROAD ST, PATASKALA, OH, 43062","Match","Non_Exact","12684 BROAD ST SW, PATASKALA, OH, 43062",61541550,"L"
43737,"12685 DORSETT RD - NUMBER 172","MARYLAND HEIGHTS","MO",63043,38.7145346070001,-90.457326294,237,"12685 DORSETT RD - NUMBER 172, MARYLAND HEIGHTS, MO, 63043","Match","Exact","12685 DORSETT RD, MARYLAND HEIGHTS, MO, 63043",604465345,"R"
43738,"12685 DORSETT ROAD SUITE 165","MARYLAND HEIGHTS","MO",63043,38.7145346070001,-90.457326294,238,"12685 DORSETT ROAD SUITE 165, MARYLAND HEIGHTS, MO, 63043","Match","Exact","12685 DORSETT RD, MARYLAND HEIGHTS, MO, 63043",604465345,"R"
43739,"12686 N SUNRISE SHADOW DR","MARANA","AZ",85658,32.4374219600001,-111.065450556,239,"12686 N SUNRISE SHADOW DR, MARANA, AZ, 85658","Match","Exact","12686 N SUNRISE SHADOW DR, MARANA, AZ, 85658",641023769,"R"
43740,"12686 RIVERVIEW","DETROIT","MI",48223,42.37981732,-83.27331013,240,"12686 RIVERVIEW, DETROIT, MI, 48223","Match","Non_Exact","12686 RIVERVIEW ST, DETROIT, MI, 48223",95431062,"R"
43741,"12688 CASTLE HILL DRIVE","BATON ROUGE","LA",70814,30.4956011530001,-91.0444710639999,241,"12688 CASTLE HILL DRIVE, BATON ROUGE, LA, 70814","Match","Exact","12688 CASTLE HILL DR, BATON ROUGE, LA, 70814",92190581,"R"
43742,"12688 CHAPMAN AVENUE UNIT 3211","GARDEN GROVE","CA",92840,33.78876566,-117.913166201,242,"12688 CHAPMAN AVENUE UNIT 3211, GARDEN GROVE, CA, 92840","Match","Non_Exact","12688 W CHAPMAN AVE, GARDEN GROVE, CA, 92840",630326517,"R"
43743,"12688 LAWRENCE 2050","MILLER","MO",65707,37.205893399,-93.829422426,243,"12688 LAWRENCE 2050, MILLER, MO, 65707","Match","Exact","12688 LAWRENCE 2050, MILLER, MO, 65707",99879878,"R"
43744,"12688 TORREY BLUFF DRIVE 199","SAN DIEGO","CA",92130,32.953963007,-117.226975135,244,"12688 TORREY BLUFF DRIVE 199, SAN DIEGO, CA, 92130","Match","Exact","12688 TORREY BLUFF DR, SAN DIEGO, CA, 92130",195674626,"R"
43745,"12689 S MONTANA AVE","YUMA","AZ",85367,32.644377305,-114.403767894,245,"12689 S MONTANA AVE, YUMA, AZ, 85367","Match","Exact","12689 S MONTANA AVE, YUMA, AZ, 85367",129633150,"L"
43746,"1269 1ST STREET SUITE 8","SARASOTA","FM",34236,NA,NA,246,"1269 1ST STREET SUITE 8, SARASOTA, FM, 34236","No_Match",NA,NA,NA,NA
43747,"1269 ARMACOST RD","SAN DIEGO","CA",92114,32.719525708,-117.038146896,247,"1269 ARMACOST RD, SAN DIEGO, CA, 92114","Match","Exact","1269 ARMACOST RD, SAN DIEGO, CA, 92114",195359798,"R"
43748,"1269 CEDAR GROVE RD SW","SUPPLY","NC",28462,33.9580666250001,-78.2898179699999,248,"1269 CEDAR GROVE RD SW, SUPPLY, NC, 28462","Match","Exact","1269 CEDAR GROVE RD SW, SUPPLY, NC, 28462",153140122,"R"
43749,"1269 HALTER LANE","LITHONIA","GA",30058,33.7553970550001,-84.1327402919999,249,"1269 HALTER LANE, LITHONIA, GA, 30058","Match","Exact","1269 HALTER LN, LITHONIA, GA, 30058",23383146,"L"
43750,"1269 LORRAINE DRIVE","SALT LAKE CITY","UT",84106,40.6956858290001,-111.855004226,250,"1269 LORRAINE DRIVE, SALT LAKE CITY, UT, 84106","Match","Non_Exact","1269 E LORRAINE DR, SALT LAKE CITY, UT, 84106",176082723,"L"
43751,"1269 LSU COLLEGE OF ENGINEERING","BATON ROUGE","LA",70803,NA,NA,251,"1269 LSU COLLEGE OF ENGINEERING, BATON ROUGE, LA, 70803","No_Match",NA,NA,NA,NA
43752,"1269 MALLARD LANE","HOFFMAN ESTATES","IL",60192,42.0485437460001,-88.215275372,252,"1269 MALLARD LANE, HOFFMAN ESTATES, IL, 60192","Match","Exact","1269 MALLARD LN, HOFFMAN EST, IL, 60192",112387047,"R"
43753,"1269 OLD CHEROKEE ROAD","LEXINGTON","SC",29072,34.006086318,-81.274067131,253,"1269 OLD CHEROKEE ROAD, LEXINGTON, SC, 29072","Match","Exact","1269 OLD CHEROKEE RD, LEXINGTON, SC, 29072",647001150,"R"
43754,"1269 OWEN PL NE","WASHINGTON","DC",20002,38.9052266200001,-76.9860643709999,254,"1269 OWEN PL NE, WASHINGTON, DC, 20002","Match","Exact","1269 OWEN PL NE, WASHINGTON, DC, 20002",76230112,"R"
43755,"1269 OZETA TERRACE","WEST HOLLYWOOD","CA",90069,34.0932720120001,-118.385041218,255,"1269 OZETA TERRACE, WEST HOLLYWOOD, CA, 90069","Match","Exact","1269 OZETA TER, W HOLLYWOOD, CA, 90069",642869336,"L"
43756,"1269 PINEGLEN DR","RIVERDALE","GA",30296,33.5949923380001,-84.4313987099999,256,"1269 PINEGLEN DR, RIVERDALE, GA, 30296","Match","Exact","1269 PINEGLEN DR, RIVERDALE, GA, 30296",23311421,"R"
43757,"1269 S ORANGE DR UNIT 2","LOS ANGELES","CA",90019,34.0517447890001,-118.345565843,257,"1269 S ORANGE DR UNIT 2, LOS ANGELES, CA, 90019","Match","Non_Exact","1269 S ORANGE DR, LOS ANGELES, CA, 90019",141600218,"R"
43758,"1269 SUPPLEE LANE","GULPH MILLS","PA",19428,40.063076466,-75.336176611,258,"1269 SUPPLEE LANE, GULPH MILLS, PA, 19428","Match","Exact","1269 SUPPLEE LN, GULPH MILLS, PA, 19428",135084365,"L"
43759,"1269 TREEFERN DR","VIRGINIA BEACH","VA",23451,36.8061086980001,-75.9905293749999,259,"1269 TREEFERN DR, VIRGINIA BEACH, VA, 23451","Match","Exact","1269 TREEFERN DR, VA BCH, VA, 23451",122271701,"L"
43760,"12690 HWY 45 ALT","CRAWFORD","MS",39743,NA,NA,260,"12690 HWY 45 ALT, CRAWFORD, MS, 39743","No_Match",NA,NA,NA,NA
43761,"12690 NW 10TH AVENUE","NORTH MIAMI","FL",33168,NA,NA,261,"12690 NW 10TH AVENUE, NORTH MIAMI, FL, 33168","No_Match",NA,NA,NA,NA
43762,"12690 OVERLOOK MOUNTAIN DRIVE","CHARLOTTE","NC",28216,35.3477958140001,-80.9516035359999,262,"12690 OVERLOOK MOUNTAIN DRIVE, CHARLOTTE, NC, 28216","Match","Exact","12690 OVERLOOK MOUNTAIN DR, CHARLOTTE, NC, 28216",70546013,"R"
43763,"12690 PROMISE ROAD","FISHERS","IN",46038,39.976009343,-85.970687184,263,"12690 PROMISE ROAD, FISHERS, IN, 46038","Match","Exact","12690 PROMISE RD, FISHERS, IN, 46038",647912143,"L"
43764,"12690 SPRINGBROOK DRIVE UNIT C","SAN DIEGO","CA",92128,32.9459061640001,-117.083999828,264,"12690 SPRINGBROOK DRIVE UNIT C, SAN DIEGO, CA, 92128","Match","Exact","12690 SPRINGBROOK DR, SAN DIEGO, CA, 92128",195660265,"L"
43765,"12690 W FLOWER ST","AVONDALE","AZ",85392,33.4868434640001,-112.332473989,265,"12690 W FLOWER ST, AVONDALE, AZ, 85392","Match","Exact","12690 W FLOWER ST, AVONDALE, AZ, 85392",647710701,"R"
43766,"12691 CR 2922","EUSTACE","TX",75124,NA,NA,266,"12691 CR 2922, EUSTACE, TX, 75124","No_Match",NA,NA,NA,NA
43767,"12691 E CEDAR AVE","AURORA","CO",80012,39.712502123,-104.836916291,267,"12691 E CEDAR AVE, AURORA, CO, 80012","Match","Exact","12691 E CEDAR AVE, AURORA, CO, 80012",177353765,"L"
43768,"12692 NUTWOOD ST STE F","GARDEN GROVE","CA",92840,33.780191517,-117.94976991,268,"12692 NUTWOOD ST STE F, GARDEN GROVE, CA, 92840","Match","Exact","12692 NUTWOOD ST, GARDEN GROVE, CA, 92840",144035153,"L"
43769,"12692 ORANGE BLVD","WEST PALM BEACH","FL",33412,26.780359601,-80.241057548,269,"12692 ORANGE BLVD, WEST PALM BEACH, FL, 33412","Match","Exact","12692 ORANGE BLVD, WEST PALM BEACH, FL, 33412",115347555,"L"
43770,"12692 W TYLER TRAIL","PEORIA","AZ",85383,33.765089694,-112.334236028,270,"12692 W TYLER TRAIL, PEORIA, AZ, 85383","Match","Exact","12692 W TYLER TRL, PEORIA, AZ, 85383",619118087,"R"
43771,"12693 SOUTH WILEY AVE","YUMA","AZ",85365,NA,NA,271,"12693 SOUTH WILEY AVE, YUMA, AZ, 85365","No_Match",NA,NA,NA,NA
43772,"12696 6450 RD","MONTROSE","CO",81401,38.507872407,-107.885060627,272,"12696 6450 RD, MONTROSE, CO, 81401","Match","Exact","12696 6450 RD, MONTROSE, CO, 81401",635483498,"R"
43773,"12696 LA CRESTA DRIVE","LOS ALTOS HILLS","CA",94022,37.3780011810001,-122.14306042,273,"12696 LA CRESTA DRIVE, LOS ALTOS HILLS, CA, 94022","Match","Exact","12696 LA CRESTA DR, LOS ALTOS HILLS, CA, 94022",618167807,"R"
43774,"12696 W 50 S","COLUMBUS","IN",47201,39.190033181,-86.0603125599999,274,"12696 W 50 S, COLUMBUS, IN, 47201","Match","Exact","12696 W 50 S, COLUMBUS, IN, 47201",606518345,"L"
43775,"12698 NEW ROAD","WAKARUSA","IN",46573,41.5648421280001,-86.111919945,275,"12698 NEW ROAD, WAKARUSA, IN, 46573","Match","Exact","12698 NEW RD, WAKARUSA, IN, 46573",8069725,"L"
43776,"12699 SW 80TH STREET","DUNNELLON","FL",34432,29.1067478480001,-82.329861487,276,"12699 SW 80TH STREET, DUNNELLON, FL, 34432","Match","Exact","12699 SW 80TH ST, DUNNELLON, FL, 34432",636477932,"L"
43777,"126A LOWELL LANE","MONROE","NJ",8831,40.3374104530001,-74.4669844209999,277,"126A LOWELL LANE, MONROE, NJ, 8831","Match","Exact","126 LOWELL LN, MONROE, NJ, 08831",60256515,"R"
43778,"126B INDUSTRIAL PARKWAY","SARALAND","AL",36571,30.7951815490001,-88.07386156,278,"126B INDUSTRIAL PARKWAY, SARALAND, AL, 36571","Match","Exact","126 INDUSTRIAL PKWY, SARALAND, AL, 36571",61985459,"L"
43779,"126SOUTH CHURCH STREET","MORTONS GAP","KY",42440,NA,NA,279,"126SOUTH CHURCH STREET, MORTONS GAP, KY, 42440","No_Match",NA,NA,NA,NA
43780,"127 12TH AVENUE NORTH","JACKSONVILLE BEACH","FL",32250,30.3005437370001,-81.392287498,280,"127 12TH AVENUE NORTH, JACKSONVILLE BEACH, FL, 32250","Match","Exact","127 12TH AVE N, JACKSONVILLE BEACH, FL, 32250",83923450,"R"
43781,"127 18TH ST NW","CANTON","OH",44703,40.818319263,-81.369673581,281,"127 18TH ST NW, CANTON, OH, 44703","Match","Exact","127 18TH ST NW, CANTON, OH, 44703",635654946,"R"
43782,"127 1ST AVE SOUTH","JACKSONVILLE BEACH","FL",32250,30.2874847030001,-81.3896404929999,282,"127 1ST AVE SOUTH, JACKSONVILLE BEACH, FL, 32250","Match","Exact","127 1ST AVE S, JACKSONVILLE BEACH, FL, 32250",83923603,"R"
43783,"127 5TH STREET","PINE RIVER","MN",56474,46.719760283,-94.39845536,283,"127 5TH STREET, PINE RIVER, MN, 56474","Match","Exact","127 5TH ST, PINE RIVER, MN, 56474",162738555,"R"
43784,"127 A AZALEA DRIVE","EGLIN AFB","FL",32542,NA,NA,284,"127 A AZALEA DRIVE, EGLIN AFB, FL, 32542","No_Match",NA,NA,NA,NA
43785,"127 A WEST MAIN STREET","CARTERSVILLE","GA",30120,34.1633644610001,-84.8021611569999,285,"127 A WEST MAIN STREET, CARTERSVILLE, GA, 30120","Match","Exact","127 W MAIN ST, CARTERSVILLE, GA, 30120",30445505,"L"
43786,"127 ADELPHI AVE","HARRISON","NY",10528,40.971760229,-73.721473848,286,"127 ADELPHI AVE, HARRISON, NY, 10528","Match","Exact","127 ADELPHI AVE, HARRISON, NY, 10528",139755813,"R"
43787,"127 ALBANY STREET","CAZENOVIA","NY",13035,42.9298855960001,-75.850969801,287,"127 ALBANY STREET, CAZENOVIA, NY, 13035","Match","Exact","127 ALBANY ST, CAZENOVIA, NY, 13035",46497372,"R"
43788,"127 ANDERSON STREET SUITE 101","PITTSBURGH","PA",15212,40.448437196,-80.0005791249999,288,"127 ANDERSON STREET SUITE 101, PITTSBURGH, PA, 15212","Match","Exact","127 ANDERSON ST, PITTSBURGH, PA, 15212",51627077,"L"
43789,"127 ANNETTE ST","LANCASTER","TX",75146,32.5922028620001,-96.773937008,289,"127 ANNETTE ST, LANCASTER, TX, 75146","Match","Exact","127 ANNETTE ST, LANCASTER, TX, 75146",103187433,"R"
43790,"127 APPLESEED ROAD","SUDBURY","VT",5733,43.7607956200001,-73.1858604289999,290,"127 APPLESEED ROAD, SUDBURY, VT, 5733","Match","Exact","127 APPLESEED RD, SUDBURY, VT, 05733",634493288,"L"
43791,"127 ARLINGTON DR","CAMERON","NC",28326,35.2602509760001,-79.036251379,291,"127 ARLINGTON DR, CAMERON, NC, 28326","Match","Exact","127 ARLINGTON DR, CAMERON, NC, 28326",71981062,"R"
43792,"127 ARMSTRONG AVE","DUMAS","TX",79029,35.8662355070001,-101.954682447,292,"127 ARMSTRONG AVE, DUMAS, TX, 79029","Match","Exact","127 ARMSTRONG AVE, DUMAS, TX, 79029",164659680,"L"
43793,"127 BEDFORD AVE 2ND FLOOR","BROOKLYN","NY",11211,40.7194459230001,-73.955982075,293,"127 BEDFORD AVE 2ND FLOOR, BROOKLYN, NY, 11211","Match","Exact","127 BEDFORD AVE, BROOKLYN, NY, 11211",59076439,"L"
43794,"127 BERKELEY SQUARE","BERKELEY","CA",94704,37.8718994480001,-122.267768212,294,"127 BERKELEY SQUARE, BERKELEY, CA, 94704","Match","Exact","127 BERKELEY SQ, BERKELEY, CA, 94704",124994032,"L"
43795,"127 BINHAM HEIGHTS","SHAVANO PARK","TX",78249,29.58108227,-98.566179521,295,"127 BINHAM HEIGHTS, SHAVANO PARK, TX, 78249","Match","Exact","127 BINHAM HTS, SHAVANO PARK, TX, 78249",101704291,"R"
43796,"127 BIRCH STREET","PEABODY","MA",1960,42.566179166,-71.0264497869999,296,"127 BIRCH STREET, PEABODY, MA, 1960","Match","Exact","127 BIRCH ST, PEABODY, MA, 01960",86655302,"R"
43797,"127 BLAKE ROAD","MAYBROOK","NY",12543,41.4976582950001,-74.2142579109999,297,"127 BLAKE ROAD, MAYBROOK, NY, 12543","Match","Exact","127 BLAKE RD, MAYBROOK, NY, 12543",124423589,"R"
43798,"127 BOSTON RD","PALMER","MA",1069,42.1550344570001,-72.269870308,298,"127 BOSTON RD, PALMER, MA, 1069","Match","Exact","127 BOSTON RD, PALMER, MA, 01069",4060590,"L"
43799,"127 BOSTON ROCK ROAD","MELROSE","MA",2176,42.447867554,-71.063648373,299,"127 BOSTON ROCK ROAD, MELROSE, MA, 2176","Match","Exact","127 BOSTON ROCK RD, MELROSE, MA, 02176",86857878,"R"
43800,"127 BREEZEWOOD DRIVE","COLONIAL BEACH","VA",22443,38.200473969,-76.962041171,300,"127 BREEZEWOOD DRIVE, COLONIAL BEACH, VA, 22443","Match","Exact","127 BREEZEWOOD DR, COLONIAL BCH, VA, 22443",22163345,"L"
43801,"127 BROADWAY ST","SONORA","KY",42776,37.524095538,-85.8953035919999,301,"127 BROADWAY ST, SONORA, KY, 42776","Match","Exact","127 BROADWAY ST, SONORA, KY, 42776",34624904,"L"
43802,"127 BROOK ST","PLYMPTON","MA",2367,41.955500984,-70.786997056,302,"127 BROOK ST, PLYMPTON, MA, 2367","Match","Exact","127 BROOK ST, PLYMPTON, MA, 02367",87486987,"L"
43803,"127 BROOKLYN AVENUE","PORT CLINTON","OH",43452,41.5160583900001,-82.94244188,303,"127 BROOKLYN AVENUE, PORT CLINTON, OH, 43452","Match","Non_Exact","127 BROOKLYN ST, PORT CLINTON, OH, 43452",44075841,"L"
43804,"127 BROYLES DRIVE SE","PALM BAY","FL",32909,27.9384683490001,-80.669769053,304,"127 BROYLES DRIVE SE, PALM BAY, FL, 32909","Match","Exact","127 BROYLES DR SE, PALM BAY, FL, 32909",627951276,"R"
43805,"127 CARLTON AVENUE      SUITE 4","JERSEY CITY","NJ",7306,40.744560522,-74.060095411,305,"127 CARLTON AVENUE      SUITE 4, JERSEY CITY, NJ, 7306","Match","Exact","127 CARLTON AVE, JERSEY CITY, NJ, 07306",59603826,"L"
43806,"127 CENTRAL AVE","ROCKDALE","IL",60436,41.5055763610001,-88.112124969,306,"127 CENTRAL AVE, ROCKDALE, IL, 60436","Match","Exact","127 CENTRAL AVE, ROCKDALE, IL, 60436",111542181,"L"
43807,"127 CENTRAL AVENUE","LAWRENCE","NY",11559,40.611866349,-73.740633701,307,"127 CENTRAL AVENUE, LAWRENCE, NY, 11559","Match","Exact","127 CENTRAL AVE, LAWRENCE, NY, 11559",147657476,"R"
43808,"127 CHEDA LANE","NOVATO","CA",94947,38.0779477740001,-122.552798103,308,"127 CHEDA LANE, NOVATO, CA, 94947","Match","Exact","127 CHEDA LN, NOVATO, CA, 94947",192773126,"L"
43809,"127 CHEDA LANE","NOVATONO","CA",94947,38.0779477740001,-122.552798103,309,"127 CHEDA LANE, NOVATONO, CA, 94947","Match","Non_Exact","127 CHEDA LN, NOVATO, CA, 94947",192773126,"L"
43810,"127 CHERRY ST","EUFAULA","AL",36027,31.8956181500001,-85.14639922,310,"127 CHERRY ST, EUFAULA, AL, 36027","Match","Exact","127 CHERRY ST, EUFAULA, AL, 36027",69076232,"R"
43811,"127 CHERRY STREET","MOUNT CARMEL","TN",37645,36.5465922970001,-82.658453766,311,"127 CHERRY STREET, MOUNT CARMEL, TN, 37645","Match","Exact","127 CHERRY ST, MOUNT CARMEL, TN, 37645",42415613,"R"
43812,"127 CLEMSON DRIVE","OAK RIDGE","TN",37830,36.019718568,-84.215218699,312,"127 CLEMSON DRIVE, OAK RIDGE, TN, 37830","Match","Exact","127 CLEMSON DR, OAK RIDGE, TN, 37830",90132641,"L"
43813,"127 COCONUT ROW","TAVERNIER","FL",33070,25.004530559,-80.520307358,313,"127 COCONUT ROW, TAVERNIER, FL, 33070","Match","Exact","127 COCONUT ROW, TAVERNIER, FL, 33070",116483023,"R"
43814,"127 COLLEGE STREET","MOUNTAIN CITY","TN",37683,36.4755520570001,-81.8040134399999,314,"127 COLLEGE STREET, MOUNTAIN CITY, TN, 37683","Match","Exact","127 COLLEGE ST, MOUNTAIN CITY, TN, 37683",52074915,"L"
43815,"127 COLORADO STREET","CARRABELLE","FL",32322,29.875567076,-84.60615332,315,"127 COLORADO STREET, CARRABELLE, FL, 32322","Match","Exact","127 COLORADO ST, CARRABELLE, FL, 32322",74334482,"R"
43816,"127 CRYSTAL CREEK","HATTIESBURG","MS",39402,31.2954190410001,-89.45838878,316,"127 CRYSTAL CREEK, HATTIESBURG, MS, 39402","Match","Non_Exact","127 CRYSTAL CREEK RD, HATTIESBURG, MS, 39402",497366,"R"
43817,"127 CUSHNOC ROAD","VASSALBORO","ME",4989,44.3920580980001,-69.718293515,317,"127 CUSHNOC ROAD, VASSALBORO, ME, 4989","Match","Exact","127 CUSHNOC RD, VASSALBORO, ME, 04989",648339256,"R"
43818,"127 DALLAVIA CT","MORRISVILLE","NC",27560,35.809986382,-78.842573664,318,"127 DALLAVIA CT, MORRISVILLE, NC, 27560","Match","Exact","127 DALLAVIA CT, MORRISVILLE, NC, 27560",72588004,"L"
43819,"127 DAYWOOD DRIVE","MONROE","LA",71203,32.544675349,-91.9849486859999,319,"127 DAYWOOD DRIVE, MONROE, LA, 71203","Match","Exact","127 DAYWOOD DR, MONROE, LA, 71203",161097660,"L"
43820,"127 DORNING ROAD","HARVEST","AL",35749,34.8452776440001,-86.750316331,320,"127 DORNING ROAD, HARVEST, AL, 35749","Match","Exact","127 DORNING RD, HARVEST, AL, 35749",635612611,"L"
43821,"127 DUCLOS LANE","EDISON","NJ",8817,40.504982682,-74.411490494,321,"127 DUCLOS LANE, EDISON, NJ, 8817","Match","Exact","127 DUCLOS LN, EDISON, NJ, 08817",60266103,"R"
43822,"127 E 5TH ST","ROXANA","IL",62084,38.844435622,-90.0781613619999,322,"127 E 5TH ST, ROXANA, IL, 62084","Match","Exact","127 E 5TH ST, ROXANA, IL, 62084",107686330,"R"
43823,"127 E 8TH STREET","LEADVILLE","CO",80461,39.250556041,-106.291821536,323,"127 E 8TH STREET, LEADVILLE, CO, 80461","Match","Exact","127 E 8TH ST, LEADVILLE, CO, 80461",105935514,"R"
43824,"127 E BASELINE ROAD","SAN DIMAS","CA",91773,34.1211671660001,-117.805933123,324,"127 E BASELINE ROAD, SAN DIMAS, CA, 91773","Match","Exact","127 E BASELINE RD, SAN DIMAS, CA, 91773",142788241,"L"
43825,"127 E BROAD STREET","SOUDERTON","PA",18964,40.309939098,-75.319938808,325,"127 E BROAD STREET, SOUDERTON, PA, 18964","Match","Exact","127 E BROAD ST, SOUDERTON, PA, 18964",605637346,"R"
43826,"127 E CLINTON STREET","ROME","GA",30165,NA,NA,326,"127 E CLINTON STREET, ROME, GA, 30165","Tie",NA,NA,NA,NA
43827,"127 E GORDON STREET","LONG BEACH","CA",90805,33.8649801920001,-118.1994678,327,"127 E GORDON STREET, LONG BEACH, CA, 90805","Match","Exact","127 E GORDON ST, LONG BEACH, CA, 90805",141683344,"L"
43828,"127 E JACKSON ST","MONROE","IN",46772,40.744108903,-84.93822391,328,"127 E JACKSON ST, MONROE, IN, 46772","Match","Exact","127 E JACKSON ST, MONROE, IN, 46772",6486351,"L"
43829,"127 E JOSEPH ST POBOX 324","CAPE VINCENT","NY",13618,44.1262048950001,-76.337229539,329,"127 E JOSEPH ST POBOX 324, CAPE VINCENT, NY, 13618","Match","Exact","127 JOSEPH ST, CAPE VINCENT, NY, 13618",154227782,"L"
43830,"127 E MAIN ST","HAVANA","IL",62644,40.3001065390001,-90.0613199159999,330,"127 E MAIN ST, HAVANA, IL, 62644","Match","Non_Exact","127 W MAIN ST, HAVANA, IL, 62644",37765522,"L"
43831,"127 E MAIN STREET","CORDELL","OK",73632,35.2912867090001,-98.9904609069999,331,"127 E MAIN STREET, CORDELL, OK, 73632","Match","Non_Exact","127 W MAIN ST, CORDELL, OK, 73632",152067786,"R"
43832,"127 E OAK STREET ROOM 108","JUNEAU","WI",53039,43.406962451,-88.703618475,332,"127 E OAK STREET ROOM 108, JUNEAU, WI, 53039","Match","Non_Exact","127 E OAK ST, JUNEAU, WI, 53039",53529517,"R"
43833,"127 E STREET","MARSHALL","MN",56258,44.4412045330001,-95.7782523449999,333,"127 E STREET, MARSHALL, MN, 56258","Match","Exact","127 E ST, MARSHALL, MN, 56258",38515373,"L"
43834,"127 E WASHINGTON ST","PORT WASHINGTON","WI",53074,43.389409464,-87.8703999419999,334,"127 E WASHINGTON ST, PORT WASHINGTON, WI, 53074","Match","Exact","127 E WASHINGTON ST, PORT WASHINGTON, WI, 53074",95902487,"L"
43835,"127 EASLEY ROAD","PITTSBURGH","PA",15237,40.527258988,-79.990145383,335,"127 EASLEY ROAD, PITTSBURGH, PA, 15237","Match","Exact","127 EASLEY RD, PITTSBURGH, PA, 15237",51624638,"L"
43836,"127 EAST 1ST STREET SUITE 4 EAST","PORT ANGELES","WA",98362,48.1187918970001,-123.432941376,336,"127 EAST 1ST STREET SUITE 4 EAST, PORT ANGELES, WA, 98362","Match","Exact","127 E 1ST ST, PORT ANGELES, WA, 98362",150848534,"R"
43837,"127 EAST 30TH STREET-APT 14A","NEW YORK","NY",10016,40.744018092,-73.981865899,337,"127 EAST 30TH STREET-APT 14A, NEW YORK, NY, 10016","Match","Non_Exact","127 E 30TH ST, NEW YORK, NY, 10016",59654408,"L"
43838,"127 EAST 38TH STREET GROUND FLOOR B","BROOKLYN","NY",11203,40.654196122,-73.942207386,338,"127 EAST 38TH STREET GROUND FLOOR B, BROOKLYN, NY, 11203","Match","Exact","127 E 38TH ST, BROOKLYN, NY, 11203",59079848,"L"
43839,"127 EAST BEAU STREET","WASHINGTON","PA",15301,40.1713469970001,-80.24240027,339,"127 EAST BEAU STREET, WASHINGTON, PA, 15301","Match","Exact","127 E BEAU ST, WASHINGTON, PA, 15301",52803395,"L"
43840,"127 EAST CENTER ST","MEDINA","NY",14103,43.2204159730001,-78.385992385,340,"127 EAST CENTER ST, MEDINA, NY, 14103","Match","Exact","127 E CENTER ST, MEDINA, NY, 14103",48803568,"L"
43841,"127 EAST FIRST STREET  BOX 133","PERRY","MI",48872,42.8240831260001,-84.218334835,341,"127 EAST FIRST STREET  BOX 133, PERRY, MI, 48872","Match","Exact","127 E 1ST ST, PERRY, MI, 48872",23651948,"R"
43842,"127 EAST LINCOLN AVE","MCDONALD","PA",15057,40.3691656620001,-80.2342221439999,342,"127 EAST LINCOLN AVE, MCDONALD, PA, 15057","Match","Non_Exact","127 E LINCOLN AVE, MC DONALD, PA, 15057",52799524,"L"
43843,"127 EAST MAIN STREET","BERGENFIELD","NJ",7621,40.928139049,-73.991262294,343,"127 EAST MAIN STREET, BERGENFIELD, NJ, 7621","Match","Exact","127 E MAIN ST, BERGENFIELD, NJ, 07621",64372336,"L"
43844,"127 EAST OAK STREET","JUNEAU","WI",53039,43.406962451,-88.7036373619999,344,"127 EAST OAK STREET, JUNEAU, WI, 53039","Match","Exact","127 E OAK ST, JUNEAU, WI, 53039",53529517,"R"
43845,"127 EAST SPRING VALLEY AVE","MAYWOOD","NJ",7607,40.9101546000001,-74.053912365,345,"127 EAST SPRING VALLEY AVE, MAYWOOD, NJ, 7607","Match","Exact","127 E SPRING VALLEY AVE, MAYWOOD, NJ, 07607",64384330,"L"
43846,"127 EAST WELLS STREET","MILWAUKEE","WI",53202,43.040744589,-87.911006151,346,"127 EAST WELLS STREET, MILWAUKEE, WI, 53202","Match","Exact","127 E WELLS ST, MILWAUKEE, WI, 53202",639918093,"R"
43847,"127 EASTWOOD CT","SAN JOSE","CA",95116,37.3538277220001,-121.860273079,347,"127 EASTWOOD CT, SAN JOSE, CA, 95116","Match","Exact","127 EASTWOOD CT, SAN JOSE, CA, 95116",122908545,"L"
43848,"127 EBENEZER CHURCH ROAD","RISING SUN","MD",21911,39.6302239930001,-76.007569814,348,"127 EBENEZER CHURCH ROAD, RISING SUN, MD, 21911","Match","Exact","127 EBENEZER CHURCH RD, RISING SUN, MD, 21911",187387265,"L"
43849,"127 ECHOLS WAY","ACWORTH","GA",30101,34.033571727,-84.773066839,349,"127 ECHOLS WAY, ACWORTH, GA, 30101","Match","Exact","127 ECHOLS WAY, ACWORTH, GA, 30101",645832365,"L"
43850,"127 EDGEBROOK DRIVE","ARDMORE","AL",35739,34.958838461,-86.7773075809999,350,"127 EDGEBROOK DRIVE, ARDMORE, AL, 35739","Match","Exact","127 EDGEBROOK DR, ARDMORE, AL, 35739",58206910,"R"
43851,"127 EDGECOMBE AVENUE APT 1B","NEW YORK","NY",10030,40.8207842570001,-73.945229022,351,"127 EDGECOMBE AVENUE APT 1B, NEW YORK, NY, 10030","Match","Exact","127 EDGECOMBE AVE, NEW YORK, NY, 10030",59655992,"L"
43852,"127 ERIE STREET","LANCASTER","NY",14086,42.906008426,-78.663939237,352,"127 ERIE STREET, LANCASTER, NY, 14086","Match","Exact","127 ERIE ST, LANCASTER, NY, 14086",48307168,"R"
43853,"127 F ST STE 209","BRUNSWICK","GA",31520,31.1498581760001,-81.498125702,353,"127 F ST STE 209, BRUNSWICK, GA, 31520","Match","Exact","127 F ST, BRUNSWICK, GA, 31520",9142866,"L"
43854,"127 FAIRFAX COURT","PHOENIXVILLE","PA",19460,40.1068975430001,-75.5353855829999,354,"127 FAIRFAX COURT, PHOENIXVILLE, PA, 19460","Match","Exact","127 FAIRFAX CT, PHOENIXVILLE, PA, 19460",625281972,"R"
43855,"127 FAIRMOUNT TERRACE","FAIRFIELD","CT",6825,41.196407358,-73.221461448,355,"127 FAIRMOUNT TERRACE, FAIRFIELD, CT, 6825","Match","Exact","127 FAIRMOUNT TER, FAIRFIELD, CT, 06825",3221148,"L"
43856,"127 FAIRVIEW AVE","VERONA","NJ",7044,40.8421501560001,-74.248143483,356,"127 FAIRVIEW AVE, VERONA, NJ, 7044","Match","Exact","127 FAIRVIEW AVE, VERONA, NJ, 07044",63472768,"R"
43857,"127 FAIRVIEW RD","CLARK","NJ",7066,40.613079041,-74.3184751439999,357,"127 FAIRVIEW RD, CLARK, NJ, 7066","Match","Exact","127 FAIRVIEW RD, CLARK, NJ, 07066",60561621,"L"
43858,"127 FAIRWAY DRIVE","EAST HANOVER","NJ",7936,40.815214806,-74.348356033,358,"127 FAIRWAY DRIVE, EAST HANOVER, NJ, 7936","Match","Exact","127 FAIRWAY DR, EAST HANOVER, NJ, 07936",60448638,"R"
43859,"127 FARRIS LANE","SMITHVILLE","TX",78957,29.988262165,-97.300655932,359,"127 FARRIS LANE, SMITHVILLE, TX, 78957","Match","Exact","127 FARRIS LN, SMITHVILLE, TX, 78957",45489759,"R"
43860,"127 FIELDS POND DRIVE","MADISON","AL",35756,34.588238469,-86.737531745,360,"127 FIELDS POND DRIVE, MADISON, AL, 35756","Match","Exact","127 FIELDS POND DR, MADISON, AL, 35756",625032862,"L"
43861,"127 FLEETWOOD DRIVE","VICKSBURG","MS",39180,32.2441102240001,-90.907242523,361,"127 FLEETWOOD DRIVE, VICKSBURG, MS, 39180","Match","Exact","127 FLEETWOOD DR, VICKSBURG, MS, 39180",71306251,"R"
43862,"127 FORBES AVENUE","TONAWANDA","NY",14150,43.019857648,-78.8262230349999,362,"127 FORBES AVENUE, TONAWANDA, NY, 14150","Match","Exact","127 FORBES AVE, TONAWANDA, NY, 14150",48348918,"R"
43863,"127 FOXWOOD ROAD","WEST NYACK","NY",10994,41.090248892,-73.9832450649999,363,"127 FOXWOOD ROAD, WEST NYACK, NY, 10994","Match","Exact","127 FOXWOOD RD, WEST NYACK, NY, 10994",124611125,"L"
43864,"127 FRANKLIN ST","PENN YAN","NY",14572,42.65929364,-77.045586885,364,"127 FRANKLIN ST, PENN YAN, NY, 14572","Match","Non_Exact","127 FRANKLIN ST, PENN YAN, NY, 14527",15104043,"L"
43865,"127 FRONT STREET","IUKA","MS",38852,NA,NA,365,"127 FRONT STREET, IUKA, MS, 38852","Tie",NA,NA,NA,NA
43866,"127 GANNETT ROAD","MOORESVILLE","NC",28117,35.550442553,-80.904914888,366,"127 GANNETT ROAD, MOORESVILLE, NC, 28117","Match","Exact","127 GANNETT RD, MOORESVILLE, NC, 28117",46022559,"R"
43867,"127 GERMANTOWN ROAD","MILAN","TN",38358,35.947458177,-88.810943282,367,"127 GERMANTOWN ROAD, MILAN, TN, 38358","Match","Exact","127 GERMANTOWN RD, MILAN, TN, 38358",639551915,"L"
43868,"127 GLENBROOK RD","FREEHOLD","NJ",7728,40.27992685,-74.231150575,368,"127 GLENBROOK RD, FREEHOLD, NJ, 7728","Match","Exact","127 GLENBROOK RD, FREEHOLD, NJ, 07728",90449420,"L"
43869,"127 GREEN STREET","SOUDERTON","PA",18964,40.3095923440001,-75.3276199489999,369,"127 GREEN STREET, SOUDERTON, PA, 18964","Match","Exact","127 GREEN ST, SOUDERTON, PA, 18964",135132003,"L"
43870,"127 HALL DR S","MONTGOMERY","TX",77316,30.2634414560001,-95.738805138,370,"127 HALL DR S, MONTGOMERY, TX, 77316","Match","Exact","127 HALL DR S, MONTGOMERY, TX, 77316",79337036,"L"
43871,"127 HARPERS WAY","FREDERICK","MD",21702,39.4630478820001,-77.4112574329999,371,"127 HARPERS WAY, FREDERICK, MD, 21702","Match","Exact","127 HARPERS WAY, FREDERICK, MD, 21702",60706664,"R"
43872,"127 HARTFORD AVE","WETHERSFIELD","CT",6109,41.716565964,-72.657603821,372,"127 HARTFORD AVE, WETHERSFIELD, CT, 6109","Match","Exact","127 HARTFORD AVE, WETHERSFIELD, CT, 06109",3517035,"L"
43873,"127 HARTFORD AVENUE","WETHERSFIELD","CT",6109,41.716565964,-72.657603821,373,"127 HARTFORD AVENUE, WETHERSFIELD, CT, 6109","Match","Exact","127 HARTFORD AVE, WETHERSFIELD, CT, 06109",3517035,"L"
43874,"127 HEWETT ROAD","WYNCOTE","PA",19095,40.09396408,-75.143817289,374,"127 HEWETT ROAD, WYNCOTE, PA, 19095","Match","Exact","127 HEWETT RD, WYNCOTE, PA, 19095",135092701,"R"
43875,"127 HIGHFIELD ROAD","SUFFOLK","VA",23434,36.7737178720001,-76.567596034,375,"127 HIGHFIELD ROAD, SUFFOLK, VA, 23434","Match","Exact","127 HIGHFIELD RD, SUFFOLK, VA, 23434",637326144,"L"
43876,"127 HILLTOP DRIVE","GETTYSBURG","SD",57442,45.010200502,-99.963803325,376,"127 HILLTOP DRIVE, GETTYSBURG, SD, 57442","Match","Exact","127 HILLTOP DR, GETTYSBURG, SD, 57442",198465744,"R"
43877,"127 HOOD ST","WINOOSKI","VT",5404,NA,NA,377,"127 HOOD ST, WINOOSKI, VT, 5404","No_Match",NA,NA,NA,NA
43878,"127 HOPE CANYON ROAD PO BOX 1136","MAGDALENA","NM",87825,34.068761984,-107.236646034,378,"127 HOPE CANYON ROAD PO BOX 1136, MAGDALENA, NM, 87825","Match","Non_Exact","127 HOP CANYON RD, MAGDALENA, NM, 87825",608076478,"L"
43879,"127 HORIZON TRL","BLUFFTON","SC",29910,32.2417203200001,-80.999242422,379,"127 HORIZON TRL, BLUFFTON, SC, 29910","Match","Exact","127 HORIZON TRL, BLUFFTON, SC, 29910",650193602,"L"
43880,"127 HYDE WAY","DALLAS","GA",30157,33.951994337,-84.744955066,380,"127 HYDE WAY, DALLAS, GA, 30157","Match","Exact","127 HYDE WAY, DALLAS, GA, 30157",17749621,"R"
43881,"127 IDLEWILDE RD","SEVERNA PARK","MD",21146,39.0916178570001,-76.5775354199999,381,"127 IDLEWILDE RD, SEVERNA PARK, MD, 21146","Match","Non_Exact","127 IDLEWILD RD, SEVERNA PARK, MD, 21146",68186838,"R"
43882,"127 JEFFERSON AVE","BUFFALO","NY",14210,42.8785876360001,-78.854467396,382,"127 JEFFERSON AVE, BUFFALO, NY, 14210","Match","Exact","127 JEFFERSON AVE, BUFFALO, NY, 14210",48291802,"R"
43883,"127 JOHN GLENN AVE","NATCHEZ","MS",39120,31.5429385250001,-91.36976243,383,"127 JOHN GLENN AVE, NATCHEZ, MS, 39120","Match","Exact","127 JOHN GLENN AVE, NATCHEZ, MS, 39120",610789494,"R"
43884,"127 KAMM AVENUE","SOUTH RIVER","NJ",8882,40.440714062,-74.373923555,384,"127 KAMM AVENUE, SOUTH RIVER, NJ, 8882","Match","Exact","127 KAMM AVE, SOUTH RIVER, NJ, 08882",60362490,"R"
43885,"127 KENT STREET","BROOKLYN","NY",11222,40.730774598,-73.9558546819999,385,"127 KENT STREET, BROOKLYN, NY, 11222","Match","Exact","127 KENT ST, BROOKLYN, NY, 11222",59076273,"L"
43886,"127 KING STREET","NORTHAMPTON","MA",1060,42.3232417290001,-72.6323596999999,386,"127 KING STREET, NORTHAMPTON, MA, 1060","Match","Exact","127 KING ST, NORTHAMPTON, MA, 01060",39849669,"R"
43887,"127 KOOL SPRINGS DR","SHEPHERDSVILLE","KY",40165,37.9393153520001,-85.68163004,387,"127 KOOL SPRINGS DR, SHEPHERDSVILLE, KY, 40165","Match","Exact","127 KOOL SPRINGS DR, SHEPHERDSVILLE, KY, 40165",645998873,"L"
43888,"127 LAFAYETTE STREET","HOT SPRINGS","AR",71901,34.5069511670001,-93.041661145,388,"127 LAFAYETTE STREET, HOT SPRINGS, AR, 71901","Match","Exact","127 LAFAYETTE ST, HOT SPRINGS, AR, 71901",635385336,"L"
43889,"127 LAMPLIGHTER DRIVE","MORGANTOWN","WV",26508,39.642460934,-79.873833463,389,"127 LAMPLIGHTER DRIVE, MORGANTOWN, WV, 26508","Match","Exact","127 LAMPLIGHTER DR, MORGANTOWN, WV, 26508",50764856,"R"
43890,"127 LEE ROAD 2122","OPELIKA","AL",36804,32.5378772710001,-85.354790506,390,"127 LEE ROAD 2122, OPELIKA, AL, 36804","Match","Exact","127 LEE ROAD 2122, OPELIKA, AL, 36804",615025070,"R"
43891,"127 LEXINGTON DRIVE","EAST PEORIA","IL",61611,40.699391167,-89.5153545539999,391,"127 LEXINGTON DRIVE, EAST PEORIA, IL, 61611","Match","Exact","127 LEXINGTON DR, EAST PEORIA, IL, 61611",22516967,"R"
43892,"127 LIBERTY AVENUE","PORT JEFFERSON","NY",11777,40.9399461580001,-73.067761242,392,"127 LIBERTY AVENUE, PORT JEFFERSON, NY, 11777","Match","Exact","127 LIBERTY AVE, PORT JEFFERSON, NY, 11777",643702762,"L"
43893,"127 LINCOLN ROAD","LINCOLN","MA",1773,42.4155846530001,-71.322452197,393,"127 LINCOLN ROAD, LINCOLN, MA, 1773","Match","Exact","127 LINCOLN RD, LINCOLN, MA, 01773",87139977,"R"
43894,"127 LIPMAN STREET","SUMMERVILLE","SC",29483,33.0127232040001,-80.2027122919999,394,"127 LIPMAN STREET, SUMMERVILLE, SC, 29483","Match","Exact","127 LIPMAN ST, SUMMERVILLE, SC, 29483",178464857,"L"
43895,"127 LONG MEADOW DR","ROCHESTER","NY",14621,43.1979099710001,-77.606963751,395,"127 LONG MEADOW DR, ROCHESTER, NY, 14621","Match","Exact","127 LONG MEADOW DR, ROCHESTER, NY, 14621",14537550,"L"
43896,"127 LORISH ROAD","MCKEES ROCKS","PA",15136,40.454123537,-80.1097419659999,396,"127 LORISH ROAD, MCKEES ROCKS, PA, 15136","Match","Non_Exact","127 LORISH RD, MC KEES ROCKS, PA, 15136",51925751,"R"
43897,"127 MAGNOLIA DR","EAST PALATKA","FL",32131,29.683374843,-81.624156141,397,"127 MAGNOLIA DR, EAST PALATKA, FL, 32131","Match","Exact","127 MAGNOLIA DR, EAST PALATKA, FL, 32131",639071094,"R"
43898,"127 MAPLE AVE","RED BANK","NJ",7701,40.346614736,-74.0686183559999,398,"127 MAPLE AVE, RED BANK, NJ, 7701","Match","Exact","127 MAPLE AVE, RED BANK, NJ, 07701",90452233,"L"
43899,"127 MARTIN LUTHER KING BLVD","BOSTON","MA",2119,42.321050692,-71.0909742589999,399,"127 MARTIN LUTHER KING BLVD, BOSTON, MA, 2119","Match","Exact","127 MARTIN LUTHER KING BLVD, BOSTON, MA, 02119",85739865,"R"
43900,"127 MARTIN LUTHER KING BLVD","ROXBURY","MA",2119,42.321050692,-71.0909742589999,400,"127 MARTIN LUTHER KING BLVD, ROXBURY, MA, 2119","Match","Exact","127 MARTIN LUTHER KING BLVD, ROXBURY, MA, 02119",85739865,"R"
43901,"127 MASHELL AVE N PBM 12","EATONVILLE","WA",98328,NA,NA,401,"127 MASHELL AVE N PBM 12, EATONVILLE, WA, 98328","Tie",NA,NA,NA,NA
43902,"127 MASHELL AVE N PMB 13","EATONVILLE","WA",98328,NA,NA,402,"127 MASHELL AVE N PMB 13, EATONVILLE, WA, 98328","Tie",NA,NA,NA,NA
43903,"127 MATHER ST","HARTFORD","CT",6120,41.779641767,-72.681939099,403,"127 MATHER ST, HARTFORD, CT, 6120","Match","Exact","127 MATHER ST, HARTFORD, CT, 06120",3489126,"L"
43904,"127 MEMORIAL PARKWAY","ATLANTIC HIGHLANDS","NJ",7716,40.4036750970001,-74.030557561,404,"127 MEMORIAL PARKWAY, ATLANTIC HIGHLANDS, NJ, 7716","Match","Exact","127 MEMORIAL PKWY, ATLANTIC HIGHLANDS, NJ, 07716",90571765,"L"
43905,"127 MERRIAM STREET","BRIDGEPORT","CT",6604,41.1950509660001,-73.191532488,405,"127 MERRIAM STREET, BRIDGEPORT, CT, 6604","Match","Exact","127 MERRIAM ST, BRIDGEPORT, CT, 06604",3223601,"L"
43906,"127 MIDDLE LANE","BEAUFORT","NC",28516,34.7520962450001,-76.5193237079999,406,"127 MIDDLE LANE, BEAUFORT, NC, 28516","Match","Exact","127 MIDDLE LN, BEAUFORT, NC, 28516",33889971,"L"
43907,"127 MOUNTAIN PKWY","GREEN BROOK","NJ",8812,40.5916705660001,-74.492031883,407,"127 MOUNTAIN PKWY, GREEN BROOK, NJ, 8812","Match","Exact","127 MOUNTAIN PKWY, GREEN BROOK, NJ, 08812",59941346,"L"
43908,"127 N 2ND STREET","HAMILTON","OH",45011,39.4013624890001,-84.561115253,408,"127 N 2ND STREET, HAMILTON, OH, 45011","Match","Exact","127 N 2ND ST, HAMILTON, OH, 45011",113789386,"L"
43909,"127 N 3RD ST","HAMPTON","NE",68843,40.8786817530001,-97.8859226609999,409,"127 N 3RD ST, HAMPTON, NE, 68843","Match","Exact","127 N 3RD ST, HAMPTON, NE, 68843",159708809,"R"
43910,"127 N 6TH AVE","MORTON","IL",61550,40.60718122,-89.455054159,410,"127 N 6TH AVE, MORTON, IL, 61550","Match","Exact","127 N 6TH AVE, MORTON, IL, 61550",608215311,"L"
43911,"127 N CORTEZ","PRESCOTT","AZ",86301,34.5424805860001,-112.468690047,411,"127 N CORTEZ, PRESCOTT, AZ, 86301","Match","Non_Exact","127 N CORTEZ ST, PRESCOTT, AZ, 86301",159457080,"R"
43912,"127 N CROMWELL DR","MOORESVILLE","NC",28115,35.5789735600001,-80.7901669189999,412,"127 N CROMWELL DR, MOORESVILLE, NC, 28115","Match","Exact","127 N CROMWELL DR, MOORESVILLE, NC, 28115",635007040,"L"
43913,"127 N FOWLER STREET","MEADE","KS",67864,37.285666903,-100.340007598,413,"127 N FOWLER STREET, MEADE, KS, 67864","Match","Exact","127 N FOWLER ST, MEADE, KS, 67864",160013288,"L"
43914,"127 N HIGGINS AVE SUITE 301","MISSOULA","MT",59802,NA,NA,414,"127 N HIGGINS AVE SUITE 301, MISSOULA, MT, 59802","Tie",NA,NA,NA,NA
43915,"127 N L STREET APT C","LAKE WORTH","FL",33460,NA,NA,415,"127 N L STREET APT C, LAKE WORTH, FL, 33460","Tie",NA,NA,NA,NA
43916,"127 N MADISON AVE  SUITE 302","PASADENA","CA",91101,NA,NA,416,"127 N MADISON AVE  SUITE 302, PASADENA, CA, 91101","Tie",NA,NA,NA,NA
43917,"127 N MAIN STREET","HENDERSON","KY",42420,37.8398532140001,-87.59221588,417,"127 N MAIN STREET, HENDERSON, KY, 42420","Match","Exact","127 N MAIN ST, HENDERSON, KY, 42420",57917341,"L"
43918,"127 N MICHIGAN ST","SOUTH BEND","IN",46601,41.6767944750001,-86.250375113,418,"127 N MICHIGAN ST, SOUTH BEND, IN, 46601","Match","Exact","127 N MICHIGAN ST, SOUTH BEND, IN, 46601",8054258,"L"
43919,"127 N MILL STREET","WAUPUN","WI",53963,43.6345197910001,-88.731043637,419,"127 N MILL STREET, WAUPUN, WI, 53963","Match","Exact","127 N MILL ST, WAUPUN, WI, 53963",74817951,"R"
43920,"127 N SANTA RITA AVENUE","TUCSON","AZ",85719,32.2233884440001,-110.953233372,420,"127 N SANTA RITA AVENUE, TUCSON, AZ, 85719","Match","Exact","127 N SANTA RITA AVE, TUCSON, AZ, 85719",121171413,"L"
43921,"127 N ST LOUIS ST","ELWOOD","IL",60421,41.4064132450001,-88.107630419,421,"127 N ST LOUIS ST, ELWOOD, IL, 60421","Match","Exact","127 N SAINT LOUIS ST, ELWOOD, IL, 60421",111543813,"R"
43922,"127 NATIONAL ST","SANTA CRUZ","CA",95060,36.954643015,-122.032847051,422,"127 NATIONAL ST, SANTA CRUZ, CA, 95060","Match","Exact","127 NATIONAL ST, SANTA CRUZ, CA, 95060",125508582,"L"
43923,"127 NEWMAN STREET","METUCHEN","NJ",8840,40.532856624,-74.3688726409999,423,"127 NEWMAN STREET, METUCHEN, NJ, 8840","Match","Exact","127 NEWMAN ST, METUCHEN, NJ, 08840",60277433,"R"
43924,"127 NOEL DR","CENTEREACH","NY",11720,40.8622808550001,-73.08807475,424,"127 NOEL DR, CENTEREACH, NY, 11720","Match","Exact","127 NOEL DR, CENTEREACH, NY, 11720",114001806,"L"
43925,"127 NORTH BERKLEY","KALAMAZOOO","MI",49006,42.2925571110001,-85.611108416,425,"127 NORTH BERKLEY, KALAMAZOOO, MI, 49006","Match","Non_Exact","127 N BERKLEY ST, KALAMAZOO, MI, 49006",12223891,"L"
43926,"127 NORTH HART STREET","PRINCETON","IN",47670,38.3555544720001,-87.568761637,426,"127 NORTH HART STREET, PRINCETON, IN, 47670","Match","Exact","127 N HART ST, PRINCETON, IN, 47670",36372413,"L"
43927,"127 NORTH HIGGINS AVENUE SUITE 203","MISSOULA","MT",59802,46.8704151800001,-113.995085583,427,"127 NORTH HIGGINS AVENUE SUITE 203, MISSOULA, MT, 59802","Match","Exact","127 N HIGGINS AVE, MISSOULA, MT, 59802",205239418,"L"
43928,"127 NORTH RIVER WILDERNESS RD","DELRAY","WV",26714,NA,NA,428,"127 NORTH RIVER WILDERNESS RD, DELRAY, WV, 26714","No_Match",NA,NA,NA,NA
43929,"127 NORWICH DR","GULF BREEZE","FL",32561,30.3585803930001,-87.1825710259999,429,"127 NORWICH DR, GULF BREEZE, FL, 32561","Match","Exact","127 NORWICH DR, GULF BREEZE, FL, 32561",74569134,"R"
43930,"127 NUECES ST","LOCKHART","TX",78644,29.884526717,-97.676953925,430,"127 NUECES ST, LOCKHART, TX, 78644","Match","Non_Exact","127 N NUECES ST, LOCKHART, TX, 78644",45530998,"L"
43931,"127 OAK HILL RD","LUCEDALE","MS",39452,NA,NA,431,"127 OAK HILL RD, LUCEDALE, MS, 39452","Tie",NA,NA,NA,NA
43932,"127 OAK ST","FREDERIC","WI",54837,45.6593200180001,-92.466454674,432,"127 OAK ST, FREDERIC, WI, 54837","Match","Exact","127 OAK ST, FREDERIC, WI, 54837",110833271,"L"
43933,"127 OLD FARM RD","RICHMOND","KY",40475,37.7588228170001,-84.3391279689999,433,"127 OLD FARM RD, RICHMOND, KY, 40475","Match","Exact","127 OLD FARM RD, RICHMOND, KY, 40475",31995247,"L"
43934,"127 OLD HARTFORD RD","COLCHESTER","CT",6415,41.579524802,-72.3427881229999,434,"127 OLD HARTFORD RD, COLCHESTER, CT, 6415","Match","Exact","127 OLD HARTFORD RD, COLCHESTER, CT, 06415",650896389,"L"
43935,"127 OLIVE AVE","NEW ALBANY","IN",47150,38.298994808,-85.832738674,435,"127 OLIVE AVE, NEW ALBANY, IN, 47150","Match","Exact","127 OLIVE AVE, NEW ALBANY, IN, 47150",89545276,"L"
43936,"127 PADDLEWHEEL DR","NEW RICHMOND","OH",45157,38.971191049,-84.27951102,436,"127 PADDLEWHEEL DR, NEW RICHMOND, OH, 45157","Match","Exact","127 PADDLEWHEEL DR, NEW RICHMOND, OH, 45157",619532627,"L"
43937,"127 PARK AVENUE SUITE 100","EAST HARTFORD","CT",6108,41.779937854,-72.630373219,437,"127 PARK AVENUE SUITE 100, EAST HARTFORD, CT, 6108","Match","Exact","127 PARK AVE, EAST HARTFORD, CT, 06108",3490170,"R"
43938,"127 PARK PL","HIGHLAND PARK","NJ",8904,40.4972523760001,-74.431930015,438,"127 PARK PL, HIGHLAND PARK, NJ, 8904","Match","Exact","127 PARK PL, HIGHLAND PARK, NJ, 08904",60266819,"L"
43939,"127 PATTON LANE","CLINTON","PA",15026,40.5115699950001,-80.3632850339999,439,"127 PATTON LANE, CLINTON, PA, 15026","Match","Exact","127 PATTON LN, CLINTON, PA, 15026",52572779,"L"
43940,"127 PENNSYLVANIA AVE","OTTUMWA","IA",52501,41.027483003,-92.407795667,440,"127 PENNSYLVANIA AVE, OTTUMWA, IA, 52501","Match","Exact","127 PENNSYLVANIA AVE, OTTUMWA, IA, 52501",89629954,"L"
43941,"127 PETTIPAUG RD","WESTBROOK","CT",6498,41.3080942570001,-72.43572606,441,"127 PETTIPAUG RD, WESTBROOK, CT, 6498","Match","Exact","127 PETTIPAUG RD, WESTBROOK, CT, 06498",113877545,"R"
43942,"127 PHANTOM DR","TONEY","AL",35773,34.893856505,-86.641045214,442,"127 PHANTOM DR, TONEY, AL, 35773","Match","Exact","127 PHANTOM DR, TONEY, AL, 35773",58200427,"L"
43943,"127 PINE LK","SOUR LAKE","TX",77659,30.1689890390001,-94.320408487,443,"127 PINE LK, SOUR LAKE, TX, 77659","Match","Exact","127 PINE LAKE, SOUR LAKE, TX, 77659",23982651,"R"
43944,"127 PINE STREET","GLENWOOD CITY","WI",54013,45.057797242,-92.171893686,444,"127 PINE STREET, GLENWOOD CITY, WI, 54013","Match","Exact","127 PINE ST, GLENWOOD CITY, WI, 54013",110907061,"L"
43945,"127 PLANTATION GATE CV","CORDOVA","TN",38018,35.1244973020001,-89.770040233,445,"127 PLANTATION GATE CV, CORDOVA, TN, 38018","Match","Exact","127 PLANTATION GATE COVE, CORDOVA, TN, 38018",72947565,"R"
43946,"127 PLEASANT STREEET","HOT SPRINGS","AR",71901,34.508656423,-93.0495316669999,446,"127 PLEASANT STREEET, HOT SPRINGS, AR, 71901","Match","Non_Exact","127 PLEASANT ST, HOT SPRINGS, AR, 71901",22744485,"R"
43947,"127 PLEASANT STREET","HOT SPRINGS","AR",71902,34.508656423,-93.0495316669999,447,"127 PLEASANT STREET, HOT SPRINGS, AR, 71902","Match","Non_Exact","127 PLEASANT ST, HOT SPRINGS, AR, 71901",22744485,"R"
43948,"127 PLYMOUTH RD","HILLSDALE","NJ",7642,41.008828475,-74.0642299089999,448,"127 PLYMOUTH RD, HILLSDALE, NJ, 7642","Match","Exact","127 PLYMOUTH RD, HILLSDALE, NJ, 07642",64414510,"R"
43949,"127 PROSPECT STREET","ASHLAND","MA",1721,42.240696718,-71.449409305,449,"127 PROSPECT STREET, ASHLAND, MA, 1721","Match","Exact","127 PROSPECT ST, ASHLAND, MA, 01721",86849217,"R"
43950,"127 PUBLIC SQUARE SUITE 2700","CLEVELAND","OH",44114,41.500452356,-81.694012871,450,"127 PUBLIC SQUARE SUITE 2700, CLEVELAND, OH, 44114","Match","Exact","127 PUBLIC SQ, CLEVELAND, OH, 44114",61109025,"L"
43951,"127 PUTNAM ROAD","HOLDEN","MA",1520,42.3309480180001,-71.856966598,451,"127 PUTNAM ROAD, HOLDEN, MA, 1520","Match","Exact","127 PUTNAM RD, HOLDEN, MA, 01520",40057806,"R"
43952,"127 REDINGTON STREET","SWAMPSCOTT","MA",1907,42.470712,-70.9121148799999,452,"127 REDINGTON STREET, SWAMPSCOTT, MA, 1907","Match","Exact","127 REDINGTON ST, SWAMPSCOTT, MA, 01907",86646625,"R"
43953,"127 REDWOOD DRIVE","WASHINGTON","PA",15301,40.091460177,-80.198500515,453,"127 REDWOOD DRIVE, WASHINGTON, PA, 15301","Match","Exact","127 REDWOOD DR, WASHINGTON, PA, 15301",52830852,"L"
43954,"127 REEDY CREEK DR","FROSTPROOF","FL",33843,27.711160509,-81.475790909,454,"127 REEDY CREEK DR, FROSTPROOF, FL, 33843","Match","Exact","127 REEDY CREEK DR, FROSTPROOF, FL, 33843",104844274,"L"
43955,"127 REGIONAL ROAD","WHITEFIELD","NH",3598,NA,NA,455,"127 REGIONAL ROAD, WHITEFIELD, NH, 3598","No_Match",NA,NA,NA,NA
43956,"127 RICHLAND COURT","GALLATIN","TN",37066,36.38814418,-86.429866311,456,"127 RICHLAND COURT, GALLATIN, TN, 37066","Match","Exact","127 RICHLAND CT, GALLATIN, TN, 37066",29784389,"R"
43957,"127 RIDGEWOOD ROAD","HUNTINGTON","WV",25701,38.403137552,-82.441165126,457,"127 RIDGEWOOD ROAD, HUNTINGTON, WV, 25701","Match","Exact","127 RIDGEWOOD RD, HUNTINGTON, WV, 25701",101317836,"L"
43958,"127 RIVERBANK DRIVE","ROEBLING","NJ",8554,40.11640305,-74.786530184,458,"127 RIVERBANK DRIVE, ROEBLING, NJ, 8554","Match","Exact","127 RIVERBANK DR, ROEBLING, NJ, 08554",134065035,"R"
43959,"127 RIVINGTON STREET","NEW YORK","NY",10002,40.7196486660001,-73.986947922,459,"127 RIVINGTON STREET, NEW YORK, NY, 10002","Match","Exact","127 RIVINGTON ST, NEW YORK, NY, 10002",59654122,"R"
43960,"127 ROLLINGWOOD DR","DUBLIN","GA",31021,32.5602561430001,-82.9117788679999,460,"127 ROLLINGWOOD DR, DUBLIN, GA, 31021","Match","Exact","127 ROLLINGWOOD DR, DUBLIN, GA, 31021",642615119,"R"
43961,"127 ROSEMONT PL","BOSSIER CITY","LA",71112,32.450712862,-93.6663641119999,461,"127 ROSEMONT PL, BOSSIER CITY, LA, 71112","Match","Exact","127 ROSEMONT PL, BOSSIER CITY, LA, 71112",108535391,"R"
43962,"127 RUES LANE","EAST BRUNSWICK","NJ",8816,40.419828517,-74.386708417,462,"127 RUES LANE, EAST BRUNSWICK, NJ, 8816","Match","Exact","127 RUES LN, E BRUNSWICK, NJ, 08816",60270715,"L"
43963,"127 S 800 E APT 22","SALT LAKE CITY","UT",84102,NA,NA,463,"127 S 800 E APT 22, SALT LAKE CITY, UT, 84102","No_Match",NA,NA,NA,NA
43964,"127 S COURT ST","LURAY","VA",22835,38.6634350150001,-78.464602182,464,"127 S COURT ST, LURAY, VA, 22835","Match","Exact","127 S COURT ST, LURAY, VA, 22835",29907780,"R"
43965,"127 S LINCOLN ST","ORANGE","CA",92866,33.78731385,-117.837894548,465,"127 S LINCOLN ST, ORANGE, CA, 92866","Match","Exact","127 S LINCOLN ST, ORANGE, CA, 92866",144051512,"L"
43966,"127 S MAIN ST","BUTLER","PA",16001,40.8603504660001,-79.8951333219999,466,"127 S MAIN ST, BUTLER, PA, 16001","Match","Exact","127 S MAIN ST, BUTLER, PA, 16001",628102943,"L"
43967,"127 S MAIN ST","PAULLINA","IA",51046,42.978763035,-95.687710518,467,"127 S MAIN ST, PAULLINA, IA, 51046","Match","Exact","127 S MAIN ST, PAULLINA, IA, 51046",39344565,"R"
43968,"127 S MAIN ST","WASHINGTON","IL",61571,40.701952498,-89.406900836,468,"127 S MAIN ST, WASHINGTON, IL, 61571","Match","Exact","127 S MAIN ST, WASHINGTON, IL, 61571",22502766,"L"
43969,"127 S MAIN STREET","BUTLER","PA",16001,40.8603504660001,-79.8951333219999,469,"127 S MAIN STREET, BUTLER, PA, 16001","Match","Exact","127 S MAIN ST, BUTLER, PA, 16001",628102943,"L"
43970,"127 SADDLE RD E3 PO BOX 6264","KETCHUM","ID",83340,43.692723813,-114.361869597,470,"127 SADDLE RD E3 PO BOX 6264, KETCHUM, ID, 83340","Match","Exact","127 SADDLE RD, KETCHUM, ID, 83340",105227801,"L"
43971,"127 SANDY HOLLOW ROAD","NORTHPORT","NY",11768,40.8793090280001,-73.35236759,471,"127 SANDY HOLLOW ROAD, NORTHPORT, NY, 11768","Match","Exact","127 SANDY HOLLOW RD, NORTHPORT, NY, 11768",634802672,"L"
43972,"127 SCARBORO DRIVE","YORK","PA",17403,39.942364007,-76.7135600729999,472,"127 SCARBORO DRIVE, YORK, PA, 17403","Match","Exact","127 SCARBORO DR, YORK, PA, 17403",88732653,"L"
43973,"127 SCHOOLHOUSE DR","HEMINGWAY","SC",29554,33.6787755560001,-79.3540619569999,473,"127 SCHOOLHOUSE DR, HEMINGWAY, SC, 29554","Match","Exact","127 SCHOOLHOUSE DR, HEMINGWAY, SC, 29554",640448994,"L"
43974,"127 SHADOW LAWN ST","PALATKA","FL",32177,29.6602093320001,-81.663335191,474,"127 SHADOW LAWN ST, PALATKA, FL, 32177","Match","Exact","127 SHADOW LAWN ST, PALATKA, FL, 32177",86072258,"L"
43975,"127 SHALE RIDGE DRIVE","EAST STROUDSBURG","PA",18302,41.0667930000001,-75.0776087799999,475,"127 SHALE RIDGE DRIVE, EAST STROUDSBURG, PA, 18302","Match","Exact","127 SHALE RIDGE DR, E STROUDSBURG, PA, 18302",136787405,"L"
43976,"127 SHERIDAN CT","MOORESVILLE","NC",28115,35.579370795,-80.7895473139999,476,"127 SHERIDAN CT, MOORESVILLE, NC, 28115","Match","Exact","127 SHERIDAN CT, MOORESVILLE, NC, 28115",635007086,"L"
43977,"127 SHOPE ROAD","ASHEVILLE","NC",28805,35.6431730310001,-82.479148988,477,"127 SHOPE ROAD, ASHEVILLE, NC, 28805","Match","Exact","127 SHOPE RD, ASHEVILLE, NC, 28805",645364170,"R"
43978,"127 SMITH AVE","GARDEN CITY","GA",31408,32.1189986200001,-81.160199298,478,"127 SMITH AVE, GARDEN CITY, GA, 31408","Match","Exact","127 SMITH AVE, GARDEN CITY, GA, 31408",6168641,"L"
43979,"127 SOUTH 8TH STREET","EASTON","PA",18042,40.6887393390001,-75.219433597,479,"127 SOUTH 8TH STREET, EASTON, PA, 18042","Match","Exact","127 S 8TH ST, EASTON, PA, 18042",136882986,"R"
43980,"127 SOUTH DRIVE","FAIRHOPE","AL",36532,NA,NA,480,"127 SOUTH DRIVE, FAIRHOPE, AL, 36532","No_Match",NA,NA,NA,NA
43981,"127 SOUTH MCLEAN BOULEVARD","SOUTH ELGIN","IL",60177,41.994259056,-88.316377716,481,"127 SOUTH MCLEAN BOULEVARD, SOUTH ELGIN, IL, 60177","Match","Exact","127 S MCLEAN BLVD, SOUTH ELGIN, IL, 60177",119556510,"R"
43982,"127 SOUTH PINE AVENUE","ALBANY","NY",12208,42.663415512,-73.797500267,482,"127 SOUTH PINE AVENUE, ALBANY, NY, 12208","Match","Exact","127 S PINE AVE, ALBANY, NY, 12208",18308529,"L"
43983,"127 SOUTH VERDUGO ROAD","GLENDALE","CA",91205,34.145293672,-118.234766008,483,"127 SOUTH VERDUGO ROAD, GLENDALE, CA, 91205","Match","Exact","127 S VERDUGO RD, GLENDALE, CA, 91205",141611102,"R"
43984,"127 SPRING MEADOWS DR","SUMMERVILLE","SC",29485,32.9755403520001,-80.161231142,484,"127 SPRING MEADOWS DR, SUMMERVILLE, SC, 29485","Match","Exact","127 SPRING MEADOWS DR, SUMMERVILLE, SC, 29485",647837845,"L"
43985,"127 SPRINGFIELD AVENUE","MORGANTOWN","WV",26505,NA,NA,485,"127 SPRINGFIELD AVENUE, MORGANTOWN, WV, 26505","No_Match",NA,NA,NA,NA
43986,"127 SPRINGHILL DR","BARDSTOWN","KY",40004,37.8037887900001,-85.443659157,486,"127 SPRINGHILL DR, BARDSTOWN, KY, 40004","Match","Exact","127 SPRINGHILL DR, BARDSTOWN, KY, 40004",35148202,"R"
43987,"127 SPRINGSIDE AVE","GEORGETOWN","KY",40324,38.208145954,-84.574731566,487,"127 SPRINGSIDE AVE, GEORGETOWN, KY, 40324","Match","Exact","127 SPRINGSIDE AVE, GEORGETOWN, KY, 40324",41239548,"R"
43988,"127 STONEBRIDGE DR","GASTON","SC",29053,33.8843477610001,-81.09414552,488,"127 STONEBRIDGE DR, GASTON, SC, 29053","Match","Non_Exact","127 STONE BRIDGE DR, GASTON, SC, 29053",70073072,"L"
43989,"127 SUMMER BREEZE RD","MANSON","WA",98831,47.8843135810001,-120.122332688,489,"127 SUMMER BREEZE RD, MANSON, WA, 98831","Match","Exact","127 SUMMER BREEZE RD, MANSON, WA, 98831",605719162,"R"
43990,"127 TAELOR RD","KALISPELL","MT",59901,48.242685484,-114.347447561,490,"127 TAELOR RD, KALISPELL, MT, 59901","Match","Exact","127 TAELOR RD, KALISPELL, MT, 59901",633178527,"R"
43991,"127 TALBOTT DR","BOWLING GREEN","KY",42103,37.0034057300001,-86.4055157,491,"127 TALBOTT DR, BOWLING GREEN, KY, 42103","Match","Exact","127 TALBOTT DR, BOWLING GREEN, KY, 42103",28013434,"R"
43992,"127 UNION MT WASHINGTON","CHRISTIANSTED","VI",820,NA,NA,492,"127 UNION MT WASHINGTON, CHRISTIANSTED, VI, 820","No_Match",NA,NA,NA,NA
43993,"127 VALENZA LOOP","NORTH VENICE","FL",34275,27.140616186,-82.3680298089999,493,"127 VALENZA LOOP, NORTH VENICE, FL, 34275","Match","Exact","127 VALENZA LOOP, NORTH VENICE, FL, 34275",16456205,"L"
43994,"127 VETERANS LN","LEESVILLE","LA",71446,31.065511244,-93.252742739,494,"127 VETERANS LN, LEESVILLE, LA, 71446","Match","Exact","127 VETERANS LN, LEESVILLE, LA, 71446",13556283,"R"
43995,"127 VILLAGE COMMON","FISHKILL","NY",12524,41.5374726740001,-73.897987303,495,"127 VILLAGE COMMON, FISHKILL, NY, 12524","Match","Exact","127 VILLAGE CMN, FISHKILL, NY, 12524",4163367,"R"
43996,"127 W 23RD ST","HOLLAND","MI",49423,42.7766716400001,-86.112785894,496,"127 W 23RD ST, HOLLAND, MI, 49423","Match","Exact","127 W 23RD ST, HOLLAND, MI, 49423",71077849,"R"
43997,"127 W 79TH ST APT 10A","NEW YORK","NY",10024,40.7826841900001,-73.977200297,497,"127 W 79TH ST APT 10A, NEW YORK, NY, 10024","Match","Non_Exact","127 W 79TH ST, NEW YORK, NY, 10024",650073091,"R"
43998,"127 W FAIRBANKS AVE STE 202","WINTER PARK","FL",32789,NA,NA,498,"127 W FAIRBANKS AVE STE 202, WINTER PARK, FL, 32789","Tie",NA,NA,NA,NA
43999,"127 W FAIRBANKS AVE STE 520","WINTER PARK","FL",32789,NA,NA,499,"127 W FAIRBANKS AVE STE 520, WINTER PARK, FL, 32789","Tie",NA,NA,NA,NA
44000,"127 W FAIRBANKS AVE SUITE 288","WINTER PARK","FL",32789,NA,NA,500,"127 W FAIRBANKS AVE SUITE 288, WINTER PARK, FL, 32789","Tie",NA,NA,NA,NA
