"ID","Address","City","State","Zip","lat","long","id","input_address","match_indicator","match_type","matched_address","tiger_line_id","tiger_side"
211001,"4305 PEACOCK PLACE","RALEIGH","NC",27616,35.8476546790001,-78.496599722,1,"4305 PEACOCK PLACE, RALEIGH, NC, 27616","Match","Exact","4305 PEACOCK PL, RALEIGH, NC, 27616",72638314,"L"
211002,"4305 QUINCY STREET","ST LOUIS","MO",63116,38.56528487,-90.278215991,2,"4305 QUINCY STREET, ST LOUIS, MO, 63116","Match","Exact","4305 QUINCY ST, SAINT LOUIS, MO, 63116",107600246,"R"
211003,"4305 RARITAN STREET","DENVER","CO",80211,39.7754570600001,-105.008779641,3,"4305 RARITAN STREET, DENVER, CO, 80211","Match","Exact","4305 RARITAN ST, DENVER, CO, 80211",177303316,"L"
211004,"4305 RUSKIN ROAD","WILMINGTON","DE",19802,39.764030575,-75.5222251719999,4,"4305 RUSKIN ROAD, WILMINGTON, DE, 19802","Match","Exact","4305 RUSKIN RD, WILMINGTON, DE, 19802",187258732,"L"
211005,"4305 S SHRANK COURT","INDEPENDENCE","MO",64055,39.041685536,-94.37888228,5,"4305 S SHRANK COURT, INDEPENDENCE, MO, 64055","Match","Exact","4305 S SHRANK CT, INDEPENDENCE, MO, 64055",91500271,"L"
211006,"4305 SE TROTTER DRIVE","LEES SUMMIT","MO",64082,38.841681415,-94.365715324,6,"4305 SE TROTTER DRIVE, LEES SUMMIT, MO, 64082","Match","Exact","4305 SE TROTTER DR, LEES SUMMIT, MO, 64082",633576736,"R"
211007,"4305 SHIPYARD BLVD","WILMINGTON","NC",28403,34.199011087,-77.891658502,7,"4305 SHIPYARD BLVD, WILMINGTON, NC, 28403","Match","Exact","4305 SHIPYARD BLVD, WILMINGTON, NC, 28403",152760903,"L"
211008,"4305 SLICE DR","COLORADO SPRINGS","CO",80922,38.8919426670001,-104.702861686,8,"4305 SLICE DR, COLORADO SPRINGS, CO, 80922","Match","Exact","4305 SLICE DR, COLORADO SPRINGS, CO, 80922",105575958,"L"
211009,"4305 SOUTH VALIANT COURT","ANNANDALE","VA",22003,38.830678193,-77.231596203,9,"4305 SOUTH VALIANT COURT, ANNANDALE, VA, 22003","Match","Exact","4305 S VALIANT CT, ANNANDALE, VA, 22003",75973197,"L"
211010,"4305 SUMMERSUN DRIVE","NEW PORT RICHEY","FL",34652,28.2220107110001,-82.741941229,10,"4305 SUMMERSUN DRIVE, NEW PORT RICHEY, FL, 34652","Match","Exact","4305 SUMMERSUN DR, NEW PORT RICHEY, FL, 34652",86362903,"L"
211011,"4305 UNION ROAD","BUFFALO","NY",14225,42.931373433,-78.754137016,11,"4305 UNION ROAD, BUFFALO, NY, 14225","Match","Exact","4305 UNION RD, BUFFALO, NY, 14225",48336436,"R"
211012,"4305 XANTHUS LN N","PLYMOUTH","MN",55446,45.035089295,-93.516900027,12,"4305 XANTHUS LN N, PLYMOUTH, MN, 55446","Match","Exact","4305 XANTHUS LN N, PLYMOUTH, MN, 55446",650886012,"R"
211013,"43053 DEERHORN ROAD","SPRINGFIELD","OR",97478,44.105680985,-122.667983625,13,"43053 DEERHORN ROAD, SPRINGFIELD, OR, 97478","Match","Exact","43053 DEERHORN RD, SPRINGFIELD, OR, 97478",178136367,"L"
211014,"4305PENHURST AVENUE","BALTIMORE","MD",21215,NA,NA,14,"4305PENHURST AVENUE, BALTIMORE, MD, 21215","No_Match",NA,NA,NA,NA
211015,"4306 ALBA LN","BUFORD","GA",30519,34.1102019200001,-83.974390447,15,"4306 ALBA LN, BUFORD, GA, 30519","Match","Exact","4306 ALBA LN, BUFORD, GA, 30519",648020026,"L"
211016,"4306 BELVIEU AVENUE","BALTIMORE","MD",21215,39.3397306360001,-76.692302308,16,"4306 BELVIEU AVENUE, BALTIMORE, MD, 21215","Match","Exact","4306 BELVIEU AVE, BALTIMORE, MD, 21215",206405081,"R"
211017,"4306 CENTERGATE ST","SAN ANTONIO","TX",78217,29.520511222,-98.409185908,17,"4306 CENTERGATE ST, SAN ANTONIO, TX, 78217","Match","Exact","4306 CENTERGATE ST, SAN ANTONIO, TX, 78217",101499811,"R"
211018,"4306 COLVILLE COURT","HOPE MILLS","NC",28348,34.9729894440001,-78.9213882619999,18,"4306 COLVILLE COURT, HOPE MILLS, NC, 28348","Match","Exact","4306 COLVILLE CT, HOPE MILLS, NC, 28348",648636461,"R"
211019,"4306 COOK AVENUE","SAINT LOUIS","MO",63113,38.6522971000001,-90.245077644,19,"4306 COOK AVENUE, SAINT LOUIS, MO, 63113","Match","Exact","4306 COOK AVE, SAINT LOUIS, MO, 63113",107596796,"L"
211020,"4306 COOK AVENUE","ST LOUIS","MO",63113,38.6522971000001,-90.245077644,20,"4306 COOK AVENUE, ST LOUIS, MO, 63113","Match","Exact","4306 COOK AVE, SAINT LOUIS, MO, 63113",107596796,"L"
211021,"4306 FM 482 NUMBER 110","NEW BRAUNFELS","TX",78130,NA,NA,21,"4306 FM 482 NUMBER 110, NEW BRAUNFELS, TX, 78130","No_Match",NA,NA,NA,NA
211022,"4306 GYPSY LN","COLLEGEVILLE","PA",19426,40.2095204620001,-75.445602707,22,"4306 GYPSY LN, COLLEGEVILLE, PA, 19426","Match","Exact","4306 GYPSY LN, COLLEGEVILLE, PA, 19426",135109030,"R"
211023,"4306 LAKESHORE XING NE","ATLANTA","GA",30324,33.815954785,-84.3648335669999,23,"4306 LAKESHORE XING NE, ATLANTA, GA, 30324","Match","Exact","4306 LAKESHORE CROSSING NE, ATLANTA, GA, 30324",17382113,"L"
211024,"4306 LANDOVER DR","JACKSONVILLE","FL",32207,30.275366809,-81.653172103,24,"4306 LANDOVER DR, JACKSONVILLE, FL, 32207","Match","Exact","4306 LANDOVER DR, JACKSONVILLE, FL, 32207",83915484,"R"
211025,"4306 LAS PALMAS DR","AUSTIN","TX",78759,30.4063510730001,-97.734903313,25,"4306 LAS PALMAS DR, AUSTIN, TX, 78759","Match","Exact","4306 LAS PALMAS DR, AUSTIN, TX, 78759",63929739,"R"
211026,"4306 MAGNOLIA RD","MELISSA","TX",75454,33.3062044280001,-96.544550396,26,"4306 MAGNOLIA RD, MELISSA, TX, 75454","Match","Exact","4306 MAGNOLIA RD, MELISSA, TX, 75454",642933811,"R"
211027,"4306 MARIONET ST","ALEXANDRIA","VA",22312,38.830044286,-77.159774613,27,"4306 MARIONET ST, ALEXANDRIA, VA, 22312","Match","Exact","4306 MARIONET ST, ALEXANDRIA, VA, 22312",75981239,"R"
211028,"4306 MARTHA AVE","BRONX","NY",10470,40.899010285,-73.865046475,28,"4306 MARTHA AVE, BRONX, NY, 10470","Match","Exact","4306 MARTHA AVE, BRONX, NY, 10470",80296880,"R"
211029,"4306 N SHALLOWFORD RD  SUITE 2403","ATLANTA","GA",30341,33.918475367,-84.30434093,29,"4306 N SHALLOWFORD RD  SUITE 2403, ATLANTA, GA, 30341","Match","Non_Exact","4306 N SHALLOWFORD RD, ATLANTA, GA, 30341",23356999,"L"
211030,"4306 N SHALLOWFORD RD APT 1206","ATLANTA","GA",30341,33.918475367,-84.30434093,30,"4306 N SHALLOWFORD RD APT 1206, ATLANTA, GA, 30341","Match","Non_Exact","4306 N SHALLOWFORD RD, ATLANTA, GA, 30341",23356999,"L"
211031,"4306 N SHALLOWFORD ROAD APT 2444","ATLANTA","GA",30341,33.918475367,-84.30434093,31,"4306 N SHALLOWFORD ROAD APT 2444, ATLANTA, GA, 30341","Match","Non_Exact","4306 N SHALLOWFORD RD, ATLANTA, GA, 30341",23356999,"L"
211032,"4306 NE 30TH AVE","PORTLAND","OR",97211,45.554430477,-122.634866138,32,"4306 NE 30TH AVE, PORTLAND, OR, 97211","Match","Exact","4306 NE 30TH AVE, PORTLAND, OR, 97211",157506170,"R"
211033,"4306 NOTTAWAY PLACE","MATTHEWS","NC",28105,NA,NA,33,"4306 NOTTAWAY PLACE, MATTHEWS, NC, 28105","Tie",NA,NA,NA,NA
211034,"4306 NW 4TH STREET","ANKENY","IA",50023,41.7352991700001,-93.657077774,34,"4306 NW 4TH STREET, ANKENY, IA, 50023","Match","Exact","4306 NW 4TH ST, ANKENY, IA, 50023",65814511,"L"
211035,"4306 PANNILL DR APT G","SAN ANTONIO","TX",78229,NA,NA,35,"4306 PANNILL DR APT G, SAN ANTONIO, TX, 78229","No_Match",NA,NA,NA,NA
211036,"4306 RAMSEY ST","CORPUS CHRISTI","TX",78415,27.746364036,-97.414518845,36,"4306 RAMSEY ST, CORPUS CHRISTI, TX, 78415","Match","Exact","4306 RAMSEY ST, CORPUS CHRISTI, TX, 78415",178518491,"L"
211037,"4306 RIDGECREST DRIVE","SUITLAND","MD",20746,38.8318137900001,-76.898501257,37,"4306 RIDGECREST DRIVE, SUITLAND, MD, 20746","Match","Exact","4306 RIDGECREST DR, SUITLAND, MD, 20746",76353418,"L"
211038,"4306 ROYAL BANYAN WAY APT 10","LAKE WORTH","FL",33461,26.6138764140001,-80.108989658,38,"4306 ROYAL BANYAN WAY APT 10, LAKE WORTH, FL, 33461","Match","Exact","4306 ROYAL BANYAN WAY, LAKE WORTH, FL, 33461",115311606,"L"
211039,"4306 SANCTUARY HILLS COURT","SPRING","TX",77388,30.0550339260001,-95.486111578,39,"4306 SANCTUARY HILLS COURT, SPRING, TX, 77388","Match","Exact","4306 SANCTUARY HILLS CT, SPRING, TX, 77388",645008865,"R"
211040,"4306 SANCTUARY HILLS CT","SPRING","TX",77388,30.0550339260001,-95.486111578,40,"4306 SANCTUARY HILLS CT, SPRING, TX, 77388","Match","Exact","4306 SANCTUARY HILLS CT, SPRING, TX, 77388",645008865,"R"
211041,"4306 WATERWAY DR","LAKE WORTH","FL",33461,26.6040964910001,-80.110644301,41,"4306 WATERWAY DR, LAKE WORTH, FL, 33461","Match","Exact","4306 WATERWAY DR, LAKE WORTH, FL, 33461",115505347,"L"
211042,"4306 YOAKUM BLVD SUITE 560","HOUSTON","TX",77006,29.7342420750001,-95.3925080229999,42,"4306 YOAKUM BLVD SUITE 560, HOUSTON, TX, 77006","Match","Exact","4306 YOAKUM BLVD, HOUSTON, TX, 77006",96064725,"R"
211043,"43063 CASTLEBAR STREET","SOUTH RIDING","VA",20152,38.906097844,-77.513601507,43,"43063 CASTLEBAR STREET, SOUTH RIDING, VA, 20152","Match","Exact","43063 CASTLEBAR ST, SOUTH RIDING, VA, 20152",627258617,"L"
211044,"43064 BATTERY POINT PLACE","LEESBURG","VA",20176,39.088797786,-77.511044904,44,"43064 BATTERY POINT PLACE, LEESBURG, VA, 20176","Match","Exact","43064 BATTERY POINT PL, LEESBURG, VA, 20176",62368303,"L"
211045,"43066 SHERBROOKE TERRACE","LEESBURG","VA",20176,39.096891794,-77.510815336,45,"43066 SHERBROOKE TERRACE, LEESBURG, VA, 20176","Match","Exact","43066 SHERBROOKE TER, LEESBURG, VA, 20176",62346297,"L"
211046,"43068 SYCAMORE BEND AVE","GONZALES","LA",70737,30.237624516,-90.8846411549999,46,"43068 SYCAMORE BEND AVE, GONZALES, LA, 70737","Match","Exact","43068 SYCAMORE BEND AVE, GONZALES, LA, 70737",115045552,"L"
211047,"4307 BOWLING BROOKE COURT","UPPER MARLBORO","MD",20772,38.8313470860001,-76.786047519,47,"4307 BOWLING BROOKE COURT, UPPER MARLBORO, MD, 20772","Match","Exact","4307 BOWLING BROOKE CT, UPPER MARLBORO, MD, 20772",76351270,"R"
211048,"4307 BOWLING BROOKE CT","UPPER MARLBORO","MD",20772,38.8313470860001,-76.786047519,48,"4307 BOWLING BROOKE CT, UPPER MARLBORO, MD, 20772","Match","Exact","4307 BOWLING BROOKE CT, UPPER MARLBORO, MD, 20772",76351270,"R"
211049,"4307 BROOKSIDE DR","RAPID CITY","SD",57702,44.0796152830001,-103.289869747,49,"4307 BROOKSIDE DR, RAPID CITY, SD, 57702","Match","Exact","4307 BROOKSIDE DR, RAPID CITY, SD, 57702",205506653,"L"
211050,"4307 BROWN BLVD","LA GRANGE","KY",40031,38.384783487,-85.441258625,50,"4307 BROWN BLVD, LA GRANGE, KY, 40031","Match","Exact","4307 BROWN BLVD, LA GRANGE, KY, 40031",635417144,"R"
211051,"4307 DOVER PL","LAS VEGAS","NV",89107,36.161867252,-115.198595588,51,"4307 DOVER PL, LAS VEGAS, NV, 89107","Match","Exact","4307 DOVER PL, LAS VEGAS, NV, 89107",201864552,"L"
211052,"4307 EAST PALMERSTONE ST","COMPTON","CA",90221,33.904417175,-118.196667763,52,"4307 EAST PALMERSTONE ST, COMPTON, CA, 90221","Match","Exact","4307 E PALMERSTONE ST, COMPTON, CA, 90221",141679522,"L"
211053,"4307 EDGEHILL COURT","RALEIGH","NC",27612,35.840699236,-78.667403787,53,"4307 EDGEHILL COURT, RALEIGH, NC, 27612","Match","Exact","4307 EDGEHILL CT, RALEIGH, NC, 27612",72496448,"R"
211054,"4307 GARROW","HOUSTON","TX",77003,29.7459927580001,-95.332322795,54,"4307 GARROW, HOUSTON, TX, 77003","Match","Non_Exact","4307 GARROW ST, HOUSTON, TX, 77003",96081490,"L"
211055,"4307 HOLLYGROVE ST","NEW ORLEANS","LA",70118,29.975588283,-90.113449009,55,"4307 HOLLYGROVE ST, NEW ORLEANS, LA, 70118","Match","Exact","4307 HOLLYGROVE ST, NEW ORLEANS, LA, 70118",191700712,"R"
211056,"4307 HOLT ST","BELLAIRE","TX",77401,29.692149381,-95.44768529,56,"4307 HOLT ST, BELLAIRE, TX, 77401","Match","Exact","4307 HOLT ST, BELLAIRE, TX, 77401",96131934,"L"
211057,"4307 KINGSMILL CT","WESLEY CHAPEL","FL",33543,28.219417671,-82.306752317,57,"4307 KINGSMILL CT, WESLEY CHAPEL, FL, 33543","Match","Exact","4307 KINGSMILL CT, WESLEY CHAPEL, FL, 33543",618494236,"L"
211058,"4307 LAKE KEMP COURT","RICHMOND","TX",77406,29.655023784,-95.7331905629999,58,"4307 LAKE KEMP COURT, RICHMOND, TX, 77406","Match","Exact","4307 LAKE KEMP CT, RICHMOND, TX, 77406",638591034,"L"
211059,"4307 MOONBEAM DR","COLORADO SPRINGS","CO",80916,38.7877632500001,-104.749801695,59,"4307 MOONBEAM DR, COLORADO SPRINGS, CO, 80916","Match","Exact","4307 MOONBEAM DR, COLORADO SPRINGS, CO, 80916",105524029,"L"
211060,"4307 N 10TH STREET STE A-6","MCALLEN","TX",78504,26.241529644,-98.223550115,60,"4307 N 10TH STREET STE A-6, MCALLEN, TX, 78504","Match","Non_Exact","4307 N 10TH ST, MCALLEN, TX, 78504",607631276,"L"
211061,"4307 N COMMERCIAL AVENUE","PORTLAND","OR",97217,45.5547197600001,-122.671209586,61,"4307 N COMMERCIAL AVENUE, PORTLAND, OR, 97217","Match","Exact","4307 N COMMERCIAL AVE, PORTLAND, OR, 97217",157503380,"L"
211062,"4307 NEW POST ROAD","JACKSON","MS",39212,32.2503746740001,-90.3001080129999,62,"4307 NEW POST ROAD, JACKSON, MS, 39212","Match","Exact","4307 NEW POST RD, JACKSON, MS, 39212",65367875,"L"
211063,"4307 RUNABOUT LANE","FAIRFAX","VA",22030,38.8532754170001,-77.352011333,63,"4307 RUNABOUT LANE, FAIRFAX, VA, 22030","Match","Exact","4307 RUNABOUT LN, FAIRFAX, VA, 22030",76027470,"L"
211064,"4307 SAN JOAQUIN PLZ","NEWPORT BEACH","CA",92660,33.6235206040001,-117.877104858,64,"4307 SAN JOAQUIN PLZ, NEWPORT BEACH, CA, 92660","Match","Exact","4307 SAN JOAQUIN PLZ, NEWPORT BEACH, CA, 92660",651856174,"R"
211065,"4307 SCHAEFER ROAD","DEARBORN","MI",48126,42.319685873,-83.175865707,65,"4307 SCHAEFER ROAD, DEARBORN, MI, 48126","Match","Exact","4307 SCHAEFER RD, DEARBORN, MI, 48126",642521816,"L"
211066,"4307 SOUTH MAIN","STAFFORD","TX",77477,29.6253330380001,-95.578111859,66,"4307 SOUTH MAIN, STAFFORD, TX, 77477","Match","Non_Exact","4307 S MAIN ST, STAFFORD, TX, 77477",78347654,"R"
211067,"4307 SUNRISE RD","ST PAUL","MN",55122,44.799891329,-93.202885097,67,"4307 SUNRISE RD, ST PAUL, MN, 55122","Match","Exact","4307 SUNRISE RD, SAINT PAUL, MN, 55122",37905132,"R"
211068,"4307 TONKAWA ST","PASADENA","TX",77504,29.648818396,-95.178233125,68,"4307 TONKAWA ST, PASADENA, TX, 77504","Match","Exact","4307 TONKAWA ST, PASADENA, TX, 77504",96105320,"L"
211069,"4307 VICKSBURG ST","SAN ANTONIO","TX",78220,29.403194969,-98.409872884,69,"4307 VICKSBURG ST, SAN ANTONIO, TX, 78220","Match","Non_Exact","4307 VICKSBURG, SAN ANTONIO, TX, 78220",101685307,"R"
211070,"4307 WRIGHTSVILLE","WILMINGTON","NC",28403,34.215503928,-77.889710812,70,"4307 WRIGHTSVILLE, WILMINGTON, NC, 28403","Match","Non_Exact","4307 WRIGHTSVILLE AVE, WILMINGTON, NC, 28403",152733767,"L"
211071,"43071 DOCK SIDE CT","PRAIRIEVILLE","LA",70769,30.3336835490001,-90.944164275,71,"43071 DOCK SIDE CT, PRAIRIEVILLE, LA, 70769","Match","Non_Exact","43071 DOCKSIDE CT, PRAIRIEVILLE, LA, 70769",625169362,"L"
211072,"4308 AYRSHIRE CT","NAPERVILLE","IL",60564,NA,NA,72,"4308 AYRSHIRE CT, NAPERVILLE, IL, 60564","No_Match",NA,NA,NA,NA
211073,"4308 DUNMORE DR","WINTER HAVEN","FL",33884,27.9425271000001,-81.661063089,73,"4308 DUNMORE DR, WINTER HAVEN, FL, 33884","Match","Exact","4308 DUNMORE DR, WINTER HAVEN, FL, 33884",635808246,"R"
211074,"4308 FIG TREE WOODS","SAN ANTONIO","TX",78249,29.577394665,-98.569436719,74,"4308 FIG TREE WOODS, SAN ANTONIO, TX, 78249","Match","Exact","4308 FIG TREE WOODS, SAN ANTONIO, TX, 78249",101490932,"R"
211075,"4308 FOX TROTTER DR","RICHMOND","VA",23223,37.570905618,-77.357081648,75,"4308 FOX TROTTER DR, RICHMOND, VA, 23223","Match","Exact","4308 FOX TROTTER DR, RICHMOND, VA, 23223",636818303,"L"
211076,"4308 GEARY BLVD 302","SAN FRANCISCO","CA",94118,37.7810435740001,-122.465516265,76,"4308 GEARY BLVD 302, SAN FRANCISCO, CA, 94118","Match","Exact","4308 GEARY BLVD, SAN FRANCISCO, CA, 94118",192281811,"R"
211077,"4308 GREEN LEAF DR","DODGEVILLE","WI",53533,42.996278536,-90.1425618219999,77,"4308 GREEN LEAF DR, DODGEVILLE, WI, 53533","Match","Exact","4308 GREEN LEAF DR, DODGEVILLE, WI, 53533",614932869,"R"
211078,"4308 GRIMES AVE N","ROBBINSDALE","MN",55422,45.033728249,-93.33020693,78,"4308 GRIMES AVE N, ROBBINSDALE, MN, 55422","Match","Exact","4308 GRIMES AVE N, ROBBINSDALE, MN, 55422",43620523,"R"
211079,"4308 JACKSON STREET","FORT WORTH","TX",76119,32.7012554930001,-97.280722783,79,"4308 JACKSON STREET, FORT WORTH, TX, 76119","Match","Exact","4308 JACKSON ST, FORT WORTH, TX, 76119",101893306,"R"
211080,"4308 LAVACA DRIVE","PLANO","TX",75074,33.0335897900001,-96.64427051,80,"4308 LAVACA DRIVE, PLANO, TX, 75074","Match","Exact","4308 LAVACA DR, PLANO, TX, 75074",123496155,"L"
211081,"4308 LILLIAN ST  UNIT A","HOUSTON","TX",77007,29.769504883,-95.4040930199999,81,"4308 LILLIAN ST  UNIT A, HOUSTON, TX, 77007","Match","Exact","4308 LILLIAN ST, HOUSTON, TX, 77007",96061871,"R"
211082,"4308 MAIZE DR","PLANO","TX",75093,33.0349661330001,-96.777362598,82,"4308 MAIZE DR, PLANO, TX, 75093","Match","Exact","4308 MAIZE DR, PLANO, TX, 75093",123558484,"R"
211083,"4308 PAGE DRIVE","METAIRIE","LA",70003,30.0164289640001,-90.205752433,83,"4308 PAGE DRIVE, METAIRIE, LA, 70003","Match","Exact","4308 PAGE DR, METAIRIE, LA, 70003",93496868,"L"
211084,"4308 POPLAR STREET","BATON ROUGE","LA",70808,30.4167818130001,-91.146227014,84,"4308 POPLAR STREET, BATON ROUGE, LA, 70808","Match","Exact","4308 POPLAR ST, BATON ROUGE, LA, 70808",92184863,"R"
211085,"4308 S WHITBY CT","TAYLORSVILLE","UT",84123,40.6775203820001,-111.926905247,85,"4308 S WHITBY CT, TAYLORSVILLE, UT, 84123","Match","Exact","4308 WHITBY CT, TAYLORSVILLE, UT, 84123",176103853,"R"
211086,"4308 SE 12TH","DEL CITY","OK",73115,35.4526618360001,-97.4407641,86,"4308 SE 12TH, DEL CITY, OK, 73115","Match","Non_Exact","4308 SE 12TH ST, DEL CITY, OK, 73115",606178916,"R"
211087,"4308 SINGLETARY RD","ALVIN","TX",77511,29.394835851,-95.1723833679999,87,"4308 SINGLETARY RD, ALVIN, TX, 77511","Match","Exact","4308 SINGLETARY RD, ALVIN, TX, 77511",650910658,"R"
211088,"4308 SOUTH BRADEN AVENUE","TULSA","OK",74135,36.100646974,-95.9200191309999,88,"4308 SOUTH BRADEN AVENUE, TULSA, OK, 74135","Match","Exact","4308 S BRADEN AVE, TULSA, OK, 74135",166450799,"R"
211089,"4308 STYLERS MILL XING","WILLIAMSBURG","VA",23188,37.2763174890001,-76.7702813239999,89,"4308 STYLERS MILL XING, WILLIAMSBURG, VA, 23188","Match","Exact","4308 STYLERS MILL CROSSING, WILLIAMSBURG, VA, 23188",103785566,"L"
211090,"4308 TEETER TOTTER CIRCLE","COLORADO SPRINGS","CO",80917,38.8824787790001,-104.746766481,90,"4308 TEETER TOTTER CIRCLE, COLORADO SPRINGS, CO, 80917","Match","Exact","4308 TEETER TOTTER CIR, COLORADO SPRINGS, CO, 80917",610711791,"L"
211091,"4308 TYLERSVILLE ROAD","WEST CHESTER","OH",45011,39.3613791710001,-84.476643138,91,"4308 TYLERSVILLE ROAD, WEST CHESTER, OH, 45011","Match","Exact","4308 TYLERSVILLE RD, WEST CHESTER, OH, 45011",652706409,"L"
211092,"4308 VILLA WOOD CIR","ROCKFORD","IL",61107,42.2813771790001,-89.033453744,92,"4308 VILLA WOOD CIR, ROCKFORD, IL, 61107","Match","Exact","4308 VILLA WOOD CIR, ROCKFORD, IL, 61107",49262091,"L"
211093,"4308 W 59TH STREET","CHICAGO","IL",60629,41.7858674830001,-87.730479722,93,"4308 W 59TH STREET, CHICAGO, IL, 60629","Match","Exact","4308 W 59TH ST, CHICAGO, IL, 60629",111800972,"R"
211094,"43083 PEACOCK MARKET PLZ STE 180","SOUTH RIDING","VA",20152,38.914914808,-77.5130273949999,94,"43083 PEACOCK MARKET PLZ STE 180, SOUTH RIDING, VA, 20152","Match","Exact","43083 PEACOCK MARKET PLZ, SOUTH RIDING, VA, 20152",62354715,"L"
211095,"43083 VIA MORAGA","FREMONT","CA",94539,37.5292153190001,-121.935477255,95,"43083 VIA MORAGA, FREMONT, CA, 94539","Match","Exact","43083 VIA MORAGA, FREMONT, CA, 94539",125034185,"R"
211096,"43086 SUNSET LN","AINSWORTH","NE",69210,NA,NA,96,"43086 SUNSET LN, AINSWORTH, NE, 69210","No_Match",NA,NA,NA,NA
211097,"43087 CLAREMORRIS WAY","CHANTILLY","VA",20152,38.904673599,-77.512448513,97,"43087 CLAREMORRIS WAY, CHANTILLY, VA, 20152","Match","Exact","43087 CLAREMORRIS WAY, CHANTILLY, VA, 20152",630390966,"L"
211098,"43088 CONTINENTAL DR","FREMONT","CA",94538,37.5190547490001,-121.95148298,98,"43088 CONTINENTAL DR, FREMONT, CA, 94538","Match","Exact","43088 CONTINENTAL DR, FREMONT, CA, 94538",125050853,"L"
211099,"4309 19TH ST NE","WASHINGTON","DC",20018,38.941953648,-76.9783036169999,99,"4309 19TH ST NE, WASHINGTON, DC, 20018","Match","Exact","4309 19TH ST NE, WASHINGTON, DC, 20018",76229045,"R"
211100,"4309 22ND STREET NW","WASHINGTON","DC",20018,38.941963398,-76.974172278,100,"4309 22ND STREET NW, WASHINGTON, DC, 20018","Match","Non_Exact","4309 22ND ST NE, WASHINGTON, DC, 20018",76229082,"R"
211101,"4309 BROWNDALE AVE","ST LOUIS PARK","MN",55424,44.9229365140001,-93.344613621,101,"4309 BROWNDALE AVE, ST LOUIS PARK, MN, 55424","Match","Exact","4309 BROWNDALE AVE, SAINT LOUIS PARK, MN, 55424",43626385,"L"
211102,"4309 CHERWAY COURT","GRANDVILLE","MI",49418,42.886508007,-85.765536601,102,"4309 CHERWAY COURT, GRANDVILLE, MI, 49418","Match","Non_Exact","4309 CHERWAY CT SW, GRANDVILLE, MI, 49418",12482332,"R"
211103,"4309 CRELIN PLACE","LANHAM","MD",20706,38.947977587,-76.85331139,103,"4309 CRELIN PLACE, LANHAM, MD, 20706","Match","Exact","4309 CRELIN PL, LANHAM, MD, 20706",76309777,"R"
211104,"4309 DAVIS ROAD","LAKE WORTH","FL",33461,26.6132325680001,-80.0974140609999,104,"4309 DAVIS ROAD, LAKE WORTH, FL, 33461","Match","Exact","4309 DAVIS RD, LAKE WORTH, FL, 33461",653194430,"R"
211105,"4309 DEHAVEN DR","WICHITA FALLS","TX",76302,33.8686309720001,-98.499839348,105,"4309 DEHAVEN DR, WICHITA FALLS, TX, 76302","Match","Exact","4309 DEHAVEN DR, WICHITA FALLS, TX, 76302",169846147,"L"
211106,"4309 EAGLE DRIVE","MANSFIELD","TX",76063,32.551722969,-97.067678141,106,"4309 EAGLE DRIVE, MANSFIELD, TX, 76063","Match","Exact","4309 EAGLE DR, MANSFIELD, TX, 76063",618500611,"L"
211107,"4309 EDWARD ROAD","WEST PALM BEACH","FL",33406,26.6566388590001,-80.110238379,107,"4309 EDWARD ROAD, WEST PALM BEACH, FL, 33406","Match","Exact","4309 EDWARD RD, WEST PALM BEACH, FL, 33406",115272688,"R"
211108,"4309 HONEY VISTA CIRCLE","TAMPA","FL",33624,28.1101700130001,-82.516994484,108,"4309 HONEY VISTA CIRCLE, TAMPA, FL, 33624","Match","Exact","4309 HONEY VISTA CIR, TAMPA, FL, 33624",104509612,"R"
211109,"4309 KINGSFIELD DRIVE","PARRISH","FL",34219,27.553176292,-82.428501207,109,"4309 KINGSFIELD DRIVE, PARRISH, FL, 34219","Match","Exact","4309 KINGSFIELD DR, PARRISH, FL, 34219",16289333,"L"
211110,"4309 LAS COLINAS LN","NORMAN","OK",73072,35.255090077,-97.505657593,110,"4309 LAS COLINAS LN, NORMAN, OK, 73072","Match","Exact","4309 LAS COLINAS LN, NORMAN, OK, 73072",648832509,"L"
211111,"4309 LAWRENCE ST","COLMAR MANOR","MD",20722,38.9349401280001,-76.9430130969999,111,"4309 LAWRENCE ST, COLMAR MANOR, MD, 20722","Match","Exact","4309 LAWRENCE ST, COLMAR MANOR, MD, 20722",76306587,"R"
211112,"4309 LINGLESTOWN ROAD","HARRISBURG","PA",17112,40.3360822120001,-76.8253594299999,112,"4309 LINGLESTOWN ROAD, HARRISBURG, PA, 17112","Match","Exact","4309 LINGLESTOWN RD, HARRISBURG, PA, 17112",70840851,"R"
211113,"4309 LOCH RAVEN BLVD","BALTIMORE","MD",21218,39.3433991970001,-76.592404761,113,"4309 LOCH RAVEN BLVD, BALTIMORE, MD, 21218","Match","Exact","4309 LOCH RAVEN BLVD, BALTIMORE, MD, 21218",206433880,"L"
211114,"4309 MEMORIAL DRIVE","DECATUR","GA",30032,33.7748745710001,-84.247072373,114,"4309 MEMORIAL DRIVE, DECATUR, GA, 30032","Match","Exact","4309 MEMORIAL DR, DECATUR, GA, 30032",638953488,"R"
211115,"4309 N 111TH ST","KANSAS CITY","KS",66109,39.1658713370001,-94.835787002,115,"4309 N 111TH ST, KANSAS CITY, KS, 66109","Match","Exact","4309 N 111TH ST, KANSAS CITY, KS, 66109",619587236,"R"
211116,"4309 QUAIL HOLLOW RD","FORT WORTH","TX",76133,32.6444548900001,-97.387051035,116,"4309 QUAIL HOLLOW RD, FORT WORTH, TX, 76133","Match","Exact","4309 QUAIL HOLLOW RD, FORT WORTH, TX, 76133",101961332,"L"
211117,"4309 SMITH CAMPGROUND RD","ELIZABETH","IN",47117,38.1152208190001,-86.0416374929999,117,"4309 SMITH CAMPGROUND RD, ELIZABETH, IN, 47117","Match","Non_Exact","4309 SMITH CAMPGROUND RD SE, ELIZABETH, IN, 47117",34813310,"R"
211118,"4309 SPRINGHURST DR","PLANO","TX",75074,33.037142987,-96.6448787749999,118,"4309 SPRINGHURST DR, PLANO, TX, 75074","Match","Exact","4309 SPRINGHURST DR, PLANO, TX, 75074",646824221,"L"
211119,"4309 STRODTMAN PLACE","ST. LOUIS","MO",63107,38.6674342630001,-90.207806891,119,"4309 STRODTMAN PLACE, ST. LOUIS, MO, 63107","Match","Exact","4309 STRODTMAN PL, SAINT LOUIS, MO, 63107",107603418,"L"
211120,"4309 TEE PEE DRIVE","CHATTANOOGA","TN",37406,35.0749172270001,-85.211978185,120,"4309 TEE PEE DRIVE, CHATTANOOGA, TN, 37406","Match","Exact","4309 TEE PEE DR, CHATTANOOGA, TN, 37406",59310349,"L"
211121,"4309 TREVOR STREET","NORTH CHARLESTON","SC",29420,32.9280682610001,-80.0974976489999,121,"4309 TREVOR STREET, NORTH CHARLESTON, SC, 29420","Match","Exact","4309 TREVOR ST, N CHARLESTON, SC, 29420",178473700,"R"
211122,"4309 TWINLEAF DRIVE","CROWLEY","TX",76036,32.592428904,-97.386078691,122,"4309 TWINLEAF DRIVE, CROWLEY, TX, 76036","Match","Exact","4309 TWINLEAF DR, CROWLEY, TX, 76036",619865379,"L"
211123,"4309 UGSTAD ROAD","HERMANTOWN","MN",55811,46.8225298720001,-92.238378972,123,"4309 UGSTAD ROAD, HERMANTOWN, MN, 55811","Match","Exact","4309 UGSTAD RD, HERMANTOWN, MN, 55811",163236392,"L"
211124,"4309 W NASSAU STREET","TAMPA","FL",33607,27.9536644670001,-82.516225978,124,"4309 W NASSAU STREET, TAMPA, FL, 33607","Match","Exact","4309 W NASSAU ST, TAMPA, FL, 33607",104524775,"R"
211125,"4309 W ST KATERI DR","LAVEEN","AZ",85339,33.385294136,-112.151893331,125,"4309 W ST KATERI DR, LAVEEN, AZ, 85339","Match","Exact","4309 W ST KATERI DR, LAVEEN, AZ, 85339",128865252,"L"
211126,"4309 W WEST END","CHICAGO","IL",60624,41.8832674390001,-87.733566729,126,"4309 W WEST END, CHICAGO, IL, 60624","Match","Non_Exact","4309 W WEST END AVE, CHICAGO, IL, 60624",605080266,"L"
211127,"4309 WINDLASS COURT","RALEIGH","NC",27616,35.8412873820001,-78.5659904029999,127,"4309 WINDLASS COURT, RALEIGH, NC, 27616","Match","Exact","4309 WINDLASS CT, RALEIGH, NC, 27616",208349319,"L"
211128,"4309 ZAMORANO STREET","DONNA","TX",78537,26.196338579,-98.02899897,128,"4309 ZAMORANO STREET, DONNA, TX, 78537","Match","Exact","4309 ZAMORANO ST, DONNA, TX, 78537",607648257,"L"
211129,"431 10TH AVE","SEASIDE","OR",97138,46.000258688,-123.924429652,129,"431 10TH AVE, SEASIDE, OR, 97138","Match","Exact","431 10TH AVE, SEASIDE, OR, 97138",159233047,"L"
211130,"431 22ND AVE NE","NAPLES","FL",34120,26.270036195,-81.5996463069999,130,"431 22ND AVE NE, NAPLES, FL, 34120","Match","Exact","431 22ND AVE NE, NAPLES, FL, 34120",115128899,"L"
211131,"431 28TH ST STE 103","DES MOINES","IA",50312,NA,NA,131,"431 28TH ST STE 103, DES MOINES, IA, 50312","No_Match",NA,NA,NA,NA
211132,"431 2ND ST NW","ORTONVILLE","MN",56278,45.3082820070001,-96.448488719,132,"431 2ND ST NW, ORTONVILLE, MN, 56278","Match","Exact","431 SECOND ST NW, ORTONVILLE, MN, 56278",165010142,"L"
211133,"431 ANITA DRIVE","BARTLETT","IL",60103,41.9857449260001,-88.176067328,133,"431 ANITA DRIVE, BARTLETT, IL, 60103","Match","Exact","431 ANITA DR, BARTLETT, IL, 60103",112576698,"R"
211134,"431 ANNABERG LANE","MONROE","NC",28110,34.9998537110001,-80.6351653199999,134,"431 ANNABERG LANE, MONROE, NC, 28110","Match","Exact","431 ANNABERG LN, MONROE, NC, 28110",615580928,"R"
211135,"431 APPLEGATE CT","LINTHICUM","MD",21090,39.198123572,-76.6624618659999,135,"431 APPLEGATE CT, LINTHICUM, MD, 21090","Match","Exact","431 APPLEGATE CT, LINTHICUM, MD, 21090",68194136,"L"
211136,"431 ARBOR DRIVE","MARS","PA",16046,40.6854870930001,-80.0540677179999,136,"431 ARBOR DRIVE, MARS, PA, 16046","Match","Exact","431 ARBOR DR, MARS, PA, 16046",52687462,"R"
211137,"431 ARMSTRONG DRIVE","PLACENTIA","CA",92870,33.8920723200001,-117.871071874,137,"431 ARMSTRONG DRIVE, PLACENTIA, CA, 92870","Match","Exact","431 ARMSTRONG DR, PLACENTIA, CA, 92870",144119048,"R"
211138,"431 BALD ROCK ROAD","OXFORD","GA",30054,33.6600701630001,-83.924103428,138,"431 BALD ROCK ROAD, OXFORD, GA, 30054","Match","Exact","431 BALD ROCK RD, OXFORD, GA, 30054",23626273,"R"
211139,"431 BEACH 136TH STREET","BELLE HARBOR","NY",11694,40.576512372,-73.855220824,139,"431 BEACH 136TH STREET, BELLE HARBOR, NY, 11694","Match","Exact","431 BEACH 136TH ST, BELLE HARBOR, NY, 11694",59709218,"L"
211140,"431 BEAUMONT PARK CIRCLE","BLYTHEWOOD","SC",29016,34.172661847,-80.9338848309999,140,"431 BEAUMONT PARK CIRCLE, BLYTHEWOOD, SC, 29016","Match","Exact","431 BEAUMONT PARK CIR, BLYTHEWOOD, SC, 29016",627657801,"R"
211141,"431 BEAVER STREET","BEAVER","PA",15009,40.698827511,-80.303434481,141,"431 BEAVER STREET, BEAVER, PA, 15009","Match","Exact","431 BEAVER ST, BEAVER, PA, 15009",52561836,"L"
211142,"431 BROOK AVENUE APT 2","BRONX","NY",10454,40.812146479,-73.9165697669999,142,"431 BROOK AVENUE APT 2, BRONX, NY, 10454","Match","Exact","431 BROOK AVE, BRONX, NY, 10454",80300781,"L"
211143,"431 BROOKS LANE","HOT SPRINGS","AR",71909,34.62786851,-93.010462381,143,"431 BROOKS LANE, HOT SPRINGS, AR, 71909","Match","Exact","431 BROOKS LN, HOT SPRINGS, AR, 71909",22739416,"L"
211144,"431 CAMINO SAN CLEMENTE","SAN CLEMENTE","CA",92672,NA,NA,144,"431 CAMINO SAN CLEMENTE, SAN CLEMENTE, CA, 92672","No_Match",NA,NA,NA,NA
211145,"431 CANTERBURY DRIVE","MARTINSBURG","WV",25403,39.536648988,-77.95393541,145,"431 CANTERBURY DRIVE, MARTINSBURG, WV, 25403","Match","Exact","431 CANTERBURY DR, MARTINSBURG, WV, 25403",632558007,"L"
211146,"431 CARRIAGE DR APT 2C","WEST CHICAGO","IL",60185,41.8607741230001,-88.1983834599999,146,"431 CARRIAGE DR APT 2C, WEST CHICAGO, IL, 60185","Match","Exact","431 CARRIAGE DR, WEST CHICAGO, IL, 60185",112733230,"L"
211147,"431 CARSON OAKS LANE","SANTA ROSA BEACH","FL",32459,30.3944167080001,-86.306906498,147,"431 CARSON OAKS LANE, SANTA ROSA BEACH, FL, 32459","Match","Exact","431 CARSON OAKS LN, SANTA ROSA BEACH, FL, 32459",650953358,"L"
211148,"431 CARY WOODS CIRCLE","CARY","IL",60013,42.1991274220001,-88.2387293309999,148,"431 CARY WOODS CIRCLE, CARY, IL, 60013","Match","Exact","431 CARY WOODS CIR, CARY, IL, 60013",119872198,"R"
211149,"431 CASWELL RD","FREEVILLE","NY",13068,42.5263350970001,-76.3758414059999,149,"431 CASWELL RD, FREEVILLE, NY, 13068","Match","Exact","431 CASWELL RD, FREEVILLE, NY, 13068",18864573,"R"
211150,"431 CIRCLEVIEW DR N","HURST","TX",76054,32.8444844200001,-97.175456047,150,"431 CIRCLEVIEW DR N, HURST, TX, 76054","Match","Exact","431 CIRCLEVIEW DR N, HURST, TX, 76054",101869767,"L"
211151,"431 CONRAD STREET","MONTGOMERY","AL",36110,32.42797353,-86.288950832,151,"431 CONRAD STREET, MONTGOMERY, AL, 36110","Match","Exact","431 CONRAD ST, MONTGOMERY, AL, 36110",1468312,"L"
211152,"431 CROCKETT STREET","LAWRENCEBURG","TN",38464,35.2359662690001,-87.3289491639999,152,"431 CROCKETT STREET, LAWRENCEBURG, TN, 38464","Match","Exact","431 CROCKETT ST, LAWRENCEBURG, TN, 38464",26825051,"L"
211153,"431 DEER RUN RD","AUBURN","AL",36832,32.613626497,-85.527870249,153,"431 DEER RUN RD, AUBURN, AL, 36832","Match","Exact","431 DEER RUN RD, AUBURN, AL, 36832",1568799,"L"
211154,"431 E MAIN STREET","GAS CITY","IN",46933,40.4879011520001,-85.6082120849999,154,"431 E MAIN STREET, GAS CITY, IN, 46933","Match","Exact","431 E MAIN ST, GAS CITY, IN, 46933",95011410,"L"
211155,"431 E SECOND ST","WEST JEFFERSON","NC",28694,36.4043772970001,-81.490044156,155,"431 E SECOND ST, WEST JEFFERSON, NC, 28694","Match","Exact","431 E 2ND ST, W JEFFERSON, NC, 28694",154032004,"L"
211156,"431 EAST 12TH STREET UNIT 5B","NEW YORK","NY",10009,40.729711895,-73.982789338,156,"431 EAST 12TH STREET UNIT 5B, NEW YORK, NY, 10009","Match","Exact","431 E 12TH ST, NEW YORK, NY, 10009",59654596,"L"
211157,"431 EAST ELM AVENUE","MONROE","MI",48162,41.916440127,-83.390236301,157,"431 EAST ELM AVENUE, MONROE, MI, 48162","Match","Exact","431 E ELM AVE, MONROE, MI, 48162",40477302,"R"
211158,"431 FICUS TREE DRIVE","LANTANA","FL",33462,26.5657017250001,-80.063015853,158,"431 FICUS TREE DRIVE, LANTANA, FL, 33462","Match","Exact","431 FICUS TREE DR, LANTANA, FL, 33462",115577886,"L"
211159,"431 HOUSTON ROAD","AMBLER","PA",19002,40.1646595130001,-75.232314199,159,"431 HOUSTON ROAD, AMBLER, PA, 19002","Match","Exact","431 HOUSTON RD, AMBLER, PA, 19002",135077354,"L"
211160,"431 HWY 1000 LOT C","BELLE ROSE","LA",70341,30.032315215,-91.076599861,160,"431 HWY 1000 LOT C, BELLE ROSE, LA, 70341","Match","Non_Exact","431 HWY 1000, BELLE ROSE, LA, 70341",85515910,"L"
211161,"431 JANES AVE UNIT 201","BOLINGBROOK","IL",60440,41.7114810640001,-88.039388539,161,"431 JANES AVE UNIT 201, BOLINGBROOK, IL, 60440","Match","Exact","431 JANES AVE, BOLINGBROOK, IL, 60440",617578696,"L"
211162,"431 JEFFERIES AVE","ALBANY","GA",31701,31.5595853180001,-84.1570106739999,162,"431 JEFFERIES AVE, ALBANY, GA, 31701","Match","Exact","431 JEFFERIES AVE, ALBANY, GA, 31701",84315246,"R"
211163,"431 KINGS HWY","SHREVEPORT","LA",71104,NA,NA,163,"431 KINGS HWY, SHREVEPORT, LA, 71104","Tie",NA,NA,NA,NA
211164,"431 LAKELAND PARK CIRCLE","MART","TX",76664,31.556828615,-96.9082679859999,164,"431 LAKELAND PARK CIRCLE, MART, TX, 76664","Match","Exact","431 LAKELAND PARK CIR, MART, TX, 76664",146771094,"R"
211165,"431 LEANING OAK LANE","SOMERVILLE","TX",77879,30.317850601,-96.637687146,165,"431 LEANING OAK LANE, SOMERVILLE, TX, 77879","Match","Exact","431 LEANING OAK LN, SOMERVILLE, TX, 77879",24802832,"L"
211166,"431 LETENDRE","PORT EDWARDS","WI",54469,44.3438978250001,-89.864595174,166,"431 LETENDRE, PORT EDWARDS, WI, 54469","Match","Non_Exact","431 LETENDRE AVE, PORT EDWARDS, WI, 54469",51290727,"L"
211167,"431 LINCOLN AVENUE","WYCKOFF","NJ",7481,40.981309265,-74.1437323979999,167,"431 LINCOLN AVENUE, WYCKOFF, NJ, 7481","Match","Exact","431 LINCOLN AVE, WYCKOFF, NJ, 07481",64404867,"L"
211168,"431 LINCOLN","WAMEGO","KS",66547,39.201275222,-96.305004347,168,"431 LINCOLN, WAMEGO, KS, 66547","Match","Non_Exact","431 LINCOLN ST, WAMEGO, KS, 66547",22293344,"L"
211169,"431 LINDEN AVENUE","YORK","PA",17404,39.965172614,-76.7430173499999,169,"431 LINDEN AVENUE, YORK, PA, 17404","Match","Exact","431 LINDEN AVE, YORK, PA, 17404",88730088,"R"
211170,"431 LISTRAC DR","MOORE","SC",29369,34.8950775760001,-81.968838897,170,"431 LISTRAC DR, MOORE, SC, 29369","Match","Exact","431 LISTRAC DR, MOORE, SC, 29369",619835244,"L"
211171,"431 LORNA SQUARE","BIRMINGHAM","AL",35216,33.3965690750001,-86.802938615,171,"431 LORNA SQUARE, BIRMINGHAM, AL, 35216","Match","Exact","431 LORNA SQ, BIRMINGHAM, AL, 35216",81651725,"R"
211172,"431 MAGA CARTA RD","FLORENCE","SC",29501,34.190366087,-79.873250728,172,"431 MAGA CARTA RD, FLORENCE, SC, 29501","Match","Non_Exact","431 MAGNA CARTA RD, FLORENCE, SC, 29501",28888939,"L"
211173,"431 MARION ROAD APT 103","OSHKOSH","WI",54901,44.016926298,-88.544449082,173,"431 MARION ROAD APT 103, OSHKOSH, WI, 54901","Match","Exact","431 MARION RD, OSHKOSH, WI, 54901",640634018,"L"
211174,"431 MARTIN LUTHER KING BLVD","MALVERN","AR",72104,34.3712954430001,-92.82148048,174,"431 MARTIN LUTHER KING BLVD, MALVERN, AR, 72104","Match","Exact","431 MARTIN LUTHER KING BLVD, MALVERN, AR, 72104",639021436,"R"
211175,"431 N FONDA","LA HABRA","CA",90631,33.9351396910001,-117.929142077,175,"431 N FONDA, LA HABRA, CA, 90631","Match","Non_Exact","431 N FONDA ST, LA HABRA, CA, 90631",144005996,"L"
211176,"431 N FREDERICK AVE STE 207B","GAITHERSBURG","MD",20877,39.1355039200001,-77.1917374239999,176,"431 N FREDERICK AVE STE 207B, GAITHERSBURG, MD, 20877","Match","Non_Exact","431 S FREDERICK AVE, GAITHERSBURG, MD, 20877",637462596,"L"
211177,"431 N PARK ST","PUXICO","MO",63960,36.9550455250001,-90.162044883,177,"431 N PARK ST, PUXICO, MO, 63960","Match","Exact","431 N PARK ST, PUXICO, MO, 63960",636261351,"L"
211178,"431 N PHILLIPS AVE STE 301","SIOUX FALLS","SD",57104,NA,NA,178,"431 N PHILLIPS AVE STE 301, SIOUX FALLS, SD, 57104","Tie",NA,NA,NA,NA
211179,"431 NAHUA STREET APT 702","HONOLULU","HI",96815,21.2794889520001,-157.825212914,179,"431 NAHUA STREET APT 702, HONOLULU, HI, 96815","Match","Exact","431 NAHUA ST, HONOLULU, HI, 96815",203241917,"R"
211180,"431 NORTH MAIN ST/ STE 203","FREEPORT","NY",11520,40.670808579,-73.588040586,180,"431 NORTH MAIN ST/ STE 203, FREEPORT, NY, 11520","Match","Non_Exact","431 N MAIN ST, FREEPORT, NY, 11520",147631167,"L"
211181,"431 OCALA DR APT 717","NASHVILLE","TN",37211,36.05082968,-86.717716762,181,"431 OCALA DR APT 717, NASHVILLE, TN, 37211","Match","Exact","431 OCALA DR, NASHVILLE, TN, 37211",97219158,"R"
211182,"431 OREGON STREET","HIAWATHA","KS",66434,39.852936921,-95.5326761759999,182,"431 OREGON STREET, HIAWATHA, KS, 66434","Match","Exact","431 OREGON ST, HIAWATHA, KS, 66434",9768663,"L"
211183,"431 PIKES PEAK LANE","FLORISSANT","CO",80816,38.9818294190001,-105.28641867,183,"431 PIKES PEAK LANE, FLORISSANT, CO, 80816","Match","Exact","431 PIKES PEAK LN, FLORISSANT, CO, 80816",605750026,"L"
211184,"431 PRESCOTT DR","CHESTER SPRGS","PA",19425,40.092966097,-75.702625939,184,"431 PRESCOTT DR, CHESTER SPRGS, PA, 19425","Match","Exact","431 PRESCOTT DR, CHESTER SPRINGS, PA, 19425",179557128,"R"
211185,"431 REVELL PT W","COLLIERVILLE","TN",38017,35.051708089,-89.671428271,185,"431 REVELL PT W, COLLIERVILLE, TN, 38017","Match","Exact","431 REVELL PT W, COLLIERVILLE, TN, 38017",72951205,"R"
211186,"431 RIVERCREST","HAYWARD","CA",94544,37.62083735,-122.039053219,186,"431 RIVERCREST, HAYWARD, CA, 94544","Match","Non_Exact","431 RIVERCREST LN, HAYWARD, CA, 94544",125024743,"R"
211187,"431 S 6TH ST","LAS VEGAS","NV",89101,36.1648619590001,-115.14204657,187,"431 S 6TH ST, LAS VEGAS, NV, 89101","Match","Exact","431 S 6TH ST, LAS VEGAS, NV, 89101",201867557,"L"
211188,"431 S 7TH ST SUITE 2500","MINNEAPOLIS","MN",55415,44.974376127,-93.266314221,188,"431 S 7TH ST SUITE 2500, MINNEAPOLIS, MN, 55415","Match","Non_Exact","431 7TH ST S, MINNEAPOLIS, MN, 55415",43632462,"R"
211189,"431 S BURNSIDE AVE 10B","LOS ANGELES","CA",90036,34.0668574150001,-118.351368721,189,"431 S BURNSIDE AVE 10B, LOS ANGELES, CA, 90036","Match","Non_Exact","431 S BURNSIDE AVE, LOS ANGELES, CA, 90036",141599169,"R"
211190,"431 S LEWIS ST UNIT A","MONROE","WA",98272,47.8516248280001,-121.970824342,190,"431 S LEWIS ST UNIT A, MONROE, WA, 98272","Match","Non_Exact","431 S LEWIS ST, MONROE, WA, 98272",636496593,"R"
211191,"431 S RIVERSIDE DR","NEPTUNE","NJ",7753,40.1868308310001,-74.045200167,191,"431 S RIVERSIDE DR, NEPTUNE, NJ, 7753","Match","Exact","431 S RIVERSIDE DR, NEPTUNE, NJ, 07753",90481941,"R"
211192,"431 S THIRD STREET","BOONVILLE","IN",47601,38.0466859800001,-87.274434876,192,"431 S THIRD STREET, BOONVILLE, IN, 47601","Match","Exact","431 S 3RD ST, BOONVILLE, IN, 47601",32206819,"L"
211193,"431 SANTA FE AVE","RICHMOND","CA",94801,37.925544191,-122.388056001,193,"431 SANTA FE AVE, RICHMOND, CA, 94801","Match","Exact","431 SANTA FE AVE, RICHMOND, CA, 94801",192037290,"L"
211194,"431 SOUTH 36TH STREET","OMAHA","NE",68131,41.2564885460001,-95.9661243579999,194,"431 SOUTH 36TH STREET, OMAHA, NE, 68131","Match","Exact","431 S 36TH ST, OMAHA, NE, 68131",116984262,"L"
211195,"431 SOUTH 6TH STREET","LAS VEGAS","NV",89101,36.164868192,-115.142042522,195,"431 SOUTH 6TH STREET, LAS VEGAS, NV, 89101","Match","Exact","431 S 6TH ST, LAS VEGAS, NV, 89101",201867557,"L"
211196,"431 SOUTH 9TH STREET","PADUCAH","KY",42003,37.080759701,-88.602115133,196,"431 SOUTH 9TH STREET, PADUCAH, KY, 42003","Match","Exact","431 S 9TH ST, PADUCAH, KY, 42003",8397032,"L"
211197,"431 SOUTH THIRD STREET","ELKHART","IN",46516,41.6831976810001,-85.974704209,197,"431 SOUTH THIRD STREET, ELKHART, IN, 46516","Match","Exact","431 S 3RD ST, ELKHART, IN, 46516",604672921,"R"
211198,"431 SOUTHRIDGE WAY","IRVING","TX",75063,32.920339443,-96.951553013,198,"431 SOUTHRIDGE WAY, IRVING, TX, 75063","Match","Exact","431 SOUTHRIDGE WAY, IRVING, TX, 75063",103271813,"L"
211199,"431 SUMMERSET LN NE","ATLANTA","GA",30328,33.951470107,-84.3554722219999,199,"431 SUMMERSET LN NE, ATLANTA, GA, 30328","Match","Exact","431 SUMMERSET LN NE, ATLANTA, GA, 30328",17397936,"R"
211200,"431 SUTTON AVE","FORT WAYNE","IN",46804,41.0810638820001,-85.2134322759999,200,"431 SUTTON AVE, FORT WAYNE, IN, 46804","Match","Non_Exact","431 SUTTON DR, FORT WAYNE, IN, 46804",6396127,"L"
211201,"431 THRIFT ROAD","MALIBU","CA",90265,34.092659283,-118.807182459,201,"431 THRIFT ROAD, MALIBU, CA, 90265","Match","Exact","431 THRIFT RD, MALIBU, CA, 90265",141720091,"L"
211202,"431 TIMBER RIDGE","KERRVILLE","TX",78028,30.076475084,-99.172012272,202,"431 TIMBER RIDGE, KERRVILLE, TX, 78028","Match","Non_Exact","431 TIMBER RIDGE RD, KERRVILLE, TX, 78028",176886874,"R"
211203,"431 TIMBERLAND DR","BURNSVILLE","MN",55337,44.761354356,-93.285121977,203,"431 TIMBERLAND DR, BURNSVILLE, MN, 55337","Match","Exact","431 TIMBERLAND DR, BURNSVILLE, MN, 55337",37904051,"R"
211204,"431 VANIER DRIVE","NEWARK","DE",19711,39.6994605530001,-75.739751325,204,"431 VANIER DRIVE, NEWARK, DE, 19711","Match","Exact","431 VANIER DR, NEWARK, DE, 19711",187285022,"R"
211205,"431 W  WINTERGREEN RD  10108","DESOTO","TX",75115,32.618597815,-96.86424192,205,"431 W  WINTERGREEN RD  10108, DESOTO, TX, 75115","Match","Exact","431 WINTERGREEN RD, DESOTO, TX, 75115",102952838,"R"
211206,"431 W 37TH ST NO 9A","NEW YORK","NY",10018,NA,NA,206,"431 W 37TH ST NO 9A, NEW YORK, NY, 10018","No_Match",NA,NA,NA,NA
211207,"431 W 45TH ST","MANHATTAN","NY",10036,40.760908355,-73.992520767,207,"431 W 45TH ST, MANHATTAN, NY, 10036","Match","Non_Exact","431 W 45TH ST, NEW YORK, NY, 10036",647138765,"R"
211208,"431 W 6TH AVE","COLUMBUS","OH",43201,39.9885231440001,-83.016946289,208,"431 W 6TH AVE, COLUMBUS, OH, 43201","Match","Exact","431 W 6TH AVE, COLUMBUS, OH, 43201",218650974,"L"
211209,"431 W 93RD STREET","LOS ANGELES","CA",90003,33.951910974,-118.2813982,209,"431 W 93RD STREET, LOS ANGELES, CA, 90003","Match","Exact","431 W 93RD ST, LOS ANGELES, CA, 90003",141660363,"R"
211210,"431 W BEMIS ROAD","SALINE","MI",48176,NA,NA,210,"431 W BEMIS ROAD, SALINE, MI, 48176","No_Match",NA,NA,NA,NA
211211,"431 W BRYANT","SPRINGFIELD","MO",65810,NA,NA,211,"431 W BRYANT, SPRINGFIELD, MO, 65810","No_Match",NA,NA,NA,NA
211212,"431 W CENTER ST","WHITEWATER","WI",53190,42.8331543130001,-88.736366501,212,"431 W CENTER ST, WHITEWATER, WI, 53190","Match","Exact","431 W CENTER ST, WHITEWATER, WI, 53190",53663459,"R"
211213,"431 W FRANKLIN STREET SUITE 415","CHAPEL HILL","NC",27516,35.9106067050001,-79.0623600069999,213,"431 W FRANKLIN STREET SUITE 415, CHAPEL HILL, NC, 27516","Match","Non_Exact","431 W FRANKLIN ST, CHAPEL HILL, NC, 27516",72378831,"R"
211214,"431 W MORTON STREET","OAKLAND CITY","IN",47660,38.333837126,-87.3512704299999,214,"431 W MORTON STREET, OAKLAND CITY, IN, 47660","Match","Exact","431 W MORTON ST, OAKLAND CITY, IN, 47660",36374960,"L"
211215,"431 W WINNECONNA PKWY","CHICAGO","IL",60620,41.752411463,-87.635313453,215,"431 W WINNECONNA PKWY, CHICAGO, IL, 60620","Match","Exact","431 W WINNECONNA PKWY, CHICAGO, IL, 60620",111831948,"L"
211216,"431 W WINTERGREEN RD 30101","DESOTO","TX",75115,32.618597815,-96.86424192,216,"431 W WINTERGREEN RD 30101, DESOTO, TX, 75115","Match","Exact","431 WINTERGREEN RD, DESOTO, TX, 75115",102952838,"R"
211217,"431 WASHINGTON AVENUE","BELLEVILLE","NJ",7109,40.795011447,-74.1494747359999,217,"431 WASHINGTON AVENUE, BELLEVILLE, NJ, 7109","Match","Exact","431 WASHINGTON AVE, BELLEVILLE, NJ, 07109",63455677,"L"
211218,"431 WEST CHERRY ST","HOLYOKE","MA",1040,42.2078112900001,-72.655856512,218,"431 WEST CHERRY ST, HOLYOKE, MA, 1040","Match","Exact","431 W CHERRY ST, HOLYOKE, MA, 01040",4050934,"R"
211219,"431 WILLIAMS ROAD","PHILADELPHIA","TN",37846,35.693145003,-84.575607952,219,"431 WILLIAMS ROAD, PHILADELPHIA, TN, 37846","Match","Exact","431 WILLIAMS RD, PHILADELPHIA, TN, 37846",605808800,"R"
211220,"431 WINTER PINE DR","FINDLAY","OH",45840,41.0420569670001,-83.591932737,220,"431 WINTER PINE DR, FINDLAY, OH, 45840","Match","Exact","431 WINTER PINE DR, FINDLAY, OH, 45840",36476091,"R"
211221,"431 ZELKOVA STREET","YORK","SC",29745,NA,NA,221,"431 ZELKOVA STREET, YORK, SC, 29745","No_Match",NA,NA,NA,NA
211222,"4310 16TH AVE","BROOKLYN","NY",11204,40.634307252,-73.982115659,222,"4310 16TH AVE, BROOKLYN, NY, 11204","Match","Exact","4310 16TH AVE, BROOKLYN, NY, 11204",59080672,"R"
211223,"4310 236TH ST SW APT X308","MOUNTLAKE TERRACE","WA",98043,47.7849449710001,-122.289870364,223,"4310 236TH ST SW APT X308, MOUNTLAKE TERRACE, WA, 98043","Match","Exact","4310 236TH ST SW, MOUNTLAKE TERRACE, WA, 98043",608922141,"R"
211224,"4310 26TH AVE","SACRAMENTO","CA",95820,38.528602445,-121.456128136,224,"4310 26TH AVE, SACRAMENTO, CA, 95820","Match","Exact","4310 26TH AVE, SACRAMENTO, CA, 95820",133327377,"R"
211225,"4310 APPLEBY SAND ROAD","NACOGDOCHES","TX",75961,NA,NA,225,"4310 APPLEBY SAND ROAD, NACOGDOCHES, TX, 75961","No_Match",NA,NA,NA,NA
211226,"4310 BECK DRIVE","MAUMEE","OH",43537,41.5620080960001,-83.6767382909999,226,"4310 BECK DRIVE, MAUMEE, OH, 43537","Match","Exact","4310 BECK DR, MAUMEE, OH, 43537",33940267,"R"
211227,"4310 BROWN LA","MADISON","WI",53704,43.141967197,-89.398792268,227,"4310 BROWN LA, MADISON, WI, 53704","Match","Exact","4310 BROWN LN, MADISON, WI, 53704",49497868,"L"
211228,"4310 CRAVENS CREEK ROAD SW","ROANOKE","VA",24018,37.2607451530001,-80.022078462,228,"4310 CRAVENS CREEK ROAD SW, ROANOKE, VA, 24018","Match","Exact","4310 CRAVENS CREEK RD SW, ROANOKE, VA, 24018",62938873,"L"
211229,"4310 CRENSHAW BLVD","LOS ANGELES","CA",90008,34.005156577,-118.333598909,229,"4310 CRENSHAW BLVD, LOS ANGELES, CA, 90008","Match","Exact","4310 CRENSHAW BLVD, LOS ANGELES, CA, 90008",141602669,"L"
211230,"4310 CRESTWOOD BLVD","NEW PORT RICHEY","FL",34653,28.2217685370001,-82.702072867,230,"4310 CRESTWOOD BLVD, NEW PORT RICHEY, FL, 34653","Match","Exact","4310 CRESTWOOD BLVD, NEW PORT RICHEY, FL, 34653",86351243,"R"
211231,"4310 DELL RANGE BLVD 100","CHEYENNE","WY",82009,41.1599901380001,-104.758547469,231,"4310 DELL RANGE BLVD 100, CHEYENNE, WY, 82009","Match","Exact","4310 DELL RANGE BLVD, CHEYENNE, WY, 82009",160151831,"L"
211232,"4310 DORSET ROAD","RICHMOND","VA",23234,37.461269326,-77.474230534,232,"4310 DORSET ROAD, RICHMOND, VA, 23234","Match","Exact","4310 DORSET RD, RICHMOND, VA, 23234",201554505,"R"
211233,"4310 EAST HINES STREET","FARMVILLE","NC",27828,NA,NA,233,"4310 EAST HINES STREET, FARMVILLE, NC, 27828","Tie",NA,NA,NA,NA
211234,"4310 FLINT HILL DR 204","OWINGS MILLS","MD",21117,39.4017866140001,-76.803942389,234,"4310 FLINT HILL DR 204, OWINGS MILLS, MD, 21117","Match","Exact","4310 FLINT HILL DR, OWINGS MILLS, MD, 21117",191500941,"R"
211235,"4310 FLORIDA AVE","KENNER","LA",70065,30.034750063,-90.2391404969999,235,"4310 FLORIDA AVE, KENNER, LA, 70065","Match","Exact","4310 FLORIDA AVE, KENNER, LA, 70065",93493381,"R"
211236,"4310 HOLLOWAY DRIVE","HOUSTON","TX",77047,29.6446145570001,-95.359487047,236,"4310 HOLLOWAY DRIVE, HOUSTON, TX, 77047","Match","Exact","4310 HOLLOWAY DR, HOUSTON, TX, 77047",96090390,"R"
211237,"4310 HOLLOWAY","HOUSTON","TX",77047,29.6446145570001,-95.359487047,237,"4310 HOLLOWAY, HOUSTON, TX, 77047","Match","Non_Exact","4310 HOLLOWAY DR, HOUSTON, TX, 77047",96090390,"R"
211238,"4310 HUSSEY DRIVE","CARMICHAEL","CA",95608,38.641614329,-121.297910985,238,"4310 HUSSEY DRIVE, CARMICHAEL, CA, 95608","Match","Exact","4310 HUSSEY DR, CARMICHAEL, CA, 95608",634220308,"R"
211239,"4310 MADISON AVENUE","KANSAS CITY","MO",64111,39.0493653080001,-94.5970154619999,239,"4310 MADISON AVENUE, KANSAS CITY, MO, 64111","Match","Exact","4310 MADISON AVE, KANSAS CITY, MO, 64111",638643075,"R"
211240,"4310 MAGNOLIA GREEN LANE APT 104","RALEIGH","NC",27604,NA,NA,240,"4310 MAGNOLIA GREEN LANE APT 104, RALEIGH, NC, 27604","Tie",NA,NA,NA,NA
211241,"4310 MALLOW ST","HOUSTON","TX",77051,29.6597735290001,-95.364030439,241,"4310 MALLOW ST, HOUSTON, TX, 77051","Match","Exact","4310 MALLOW ST, HOUSTON, TX, 77051",96088863,"R"
211242,"4310 MILE 10","MERCEDES","TX",78570,NA,NA,242,"4310 MILE 10, MERCEDES, TX, 78570","No_Match",NA,NA,NA,NA
211243,"4310 NORTH MELVINA AVENUE","CHICAGO","IL",60634,41.9583891770001,-87.78185588,243,"4310 NORTH MELVINA AVENUE, CHICAGO, IL, 60634","Match","Exact","4310 N MELVINA AVE, CHICAGO, IL, 60634",639804109,"L"
211244,"4310 NW 121ST CIRCLE","VANCOUVER","WA",98685,45.708691372,-122.715379823,244,"4310 NW 121ST CIRCLE, VANCOUVER, WA, 98685","Match","Exact","4310 NW 121ST CIR, VANCOUVER, WA, 98685",624944670,"R"
211245,"4310 PABLO OAKS CT","JACKSONVILLE","FL",32224,30.267484145,-81.440314031,245,"4310 PABLO OAKS CT, JACKSONVILLE, FL, 32224","Match","Exact","4310 PABLO OAKS CT, JACKSONVILLE, FL, 32224",83960286,"L"
211246,"4310 PARALLEL PARKWAY","KANSAS CITY","KS",66104,39.1285164280001,-94.6798898609999,246,"4310 PARALLEL PARKWAY, KANSAS CITY, KS, 66104","Match","Exact","4310 PARALLEL PKWY, KANSAS CITY, KS, 66104",652353625,"R"
211247,"4310 PRINCE WILLIAM PARKWAY SUITE 3","PRINCE WILLAIM","VA",22192,38.677735253,-77.34797717,247,"4310 PRINCE WILLIAM PARKWAY SUITE 3, PRINCE WILLAIM, VA, 22192","Match","Non_Exact","4310 PRINCE WILLIAM PKWY, PRINCE WILLIAM, VA, 22192",636658544,"R"
211248,"4310 PRYTANIA ST","NEW ORLEANS","LA",70115,29.9250975940001,-90.100808754,248,"4310 PRYTANIA ST, NEW ORLEANS, LA, 70115","Match","Exact","4310 PRYTANIA ST, NEW ORLEANS, LA, 70115",191713005,"L"
211249,"4310 RED EAGLE PASS LANE","MANVEL","TX",77578,29.520786527,-95.377168056,249,"4310 RED EAGLE PASS LANE, MANVEL, TX, 77578","Match","Exact","4310 RED EAGLE PASS LN, MANVEL, TX, 77578",641828399,"L"
211250,"4310 RHETT BUTLER CT","HUNTINGTOWN","MD",20639,38.6234486430001,-76.608625377,250,"4310 RHETT BUTLER CT, HUNTINGTOWN, MD, 20639","Match","Exact","4310 RHETT BUTLER CT, HUNTINGTOWN, MD, 20639",78169152,"L"
211251,"4310 RYAN STREET","LAKE CHARLES","LA",70605,30.179905267,-93.218571595,251,"4310 RYAN STREET, LAKE CHARLES, LA, 70605","Match","Exact","4310 RYAN ST, LAKE CHARLES, LA, 70605",637841771,"R"
211252,"4310 SIENNA TERRACE SUITE 2A","HIGH POINT","NC",27265,36.0586362930001,-79.9593236759999,252,"4310 SIENNA TERRACE SUITE 2A, HIGH POINT, NC, 27265","Match","Exact","4310 SIENNA TER, HIGH POINT, NC, 27265",646488019,"L"
211253,"4310 TRADEWINDS DR STE 300","OXNARD","CA",93035,34.190085432,-119.229431621,253,"4310 TRADEWINDS DR STE 300, OXNARD, CA, 93035","Match","Exact","4310 TRADEWINDS DR, OXNARD, CA, 93035",617498307,"R"
211254,"4310 TROY LANE","DALTON","GA",30721,34.7546307310001,-84.886316865,254,"4310 TROY LANE, DALTON, GA, 30721","Match","Non_Exact","4310 TROY LN SE, DALTON, GA, 30721",57383233,"R"
211255,"4310 UNION STREET","NORTH CHILI","NY",14514,43.047240421,-77.79560799,255,"4310 UNION STREET, NORTH CHILI, NY, 14514","Match","Exact","4310 UNION ST, NORTH CHILI, NY, 14514",14571820,"L"
211256,"4310 W 161ST STREET","LAWNDALE","CA",90260,33.88450528,-118.349937822,256,"4310 W 161ST STREET, LAWNDALE, CA, 90260","Match","Exact","4310 161ST ST, LAWNDALE, CA, 90260",141663118,"L"
211257,"4310 WATERFORD VALLEY DR 1421","DURHAM","NC",27713,35.9071385570001,-78.9095799999999,257,"4310 WATERFORD VALLEY DR 1421, DURHAM, NC, 27713","Match","Exact","4310 WATERFORD VALLEY DR, DURHAM, NC, 27713",609051321,"L"
211258,"43100 PALM ROYALE DRIVE APT 527","LA QUINTA","CA",92253,33.7347008250001,-116.301438178,258,"43100 PALM ROYALE DRIVE APT 527, LA QUINTA, CA, 92253","Match","Exact","43100 PALM ROYALE DR, LA QUINTA, CA, 92253",618685852,"R"
211259,"43104 165TH STREET","GARDEN CTIY","SD",57236,44.992747712,-97.5778130579999,259,"43104 165TH STREET, GARDEN CTIY, SD, 57236","Match","Non_Exact","43104 165TH ST, GARDEN CITY, SD, 57236",201146978,"R"
211260,"43106 STARR STREET","FREMONT","CA",94539,37.535940162,-121.924552218,260,"43106 STARR STREET, FREMONT, CA, 94539","Match","Exact","43106 STARR ST, FREMONT, CA, 94539",606067547,"L"
211261,"4311 100TH AVENUE EAST","PARRISH","FL",34219,27.55199328,-82.462287668,261,"4311 100TH AVENUE EAST, PARRISH, FL, 34219","Match","Exact","4311 100TH AVE E, PARRISH, FL, 34219",16229300,"L"
211262,"4311 18TH STREET NW","WASHINGTON","DC",20011,38.943116881,-77.041265244,262,"4311 18TH STREET NW, WASHINGTON, DC, 20011","Match","Exact","4311 18TH ST NW, WASHINGTON, DC, 20011",76237697,"R"
211263,"4311 23RD PARKWAY APT 405","TEMPLE HILLS","MD",20748,NA,NA,263,"4311 23RD PARKWAY APT 405, TEMPLE HILLS, MD, 20748","No_Match",NA,NA,NA,NA
211264,"4311 BLOSSOM ST","HOUSTON","TX",77401,29.7675995550001,-95.404243552,264,"4311 BLOSSOM ST, HOUSTON, TX, 77401","Match","Non_Exact","4311 BLOSSOM ST, HOUSTON, TX, 77007",96061888,"L"
211265,"4311 BRICKWOOD LANE","MEMPHIS","TN",38128,35.2437390790001,-89.9098834759999,265,"4311 BRICKWOOD LANE, MEMPHIS, TN, 38128","Match","Exact","4311 BRICKWOOD LN, MEMPHIS, TN, 38128",72953030,"R"
211266,"4311 CAMPBELL LANE","BIRMINGHAM","AL",35207,33.569155692,-86.83085959,266,"4311 CAMPBELL LANE, BIRMINGHAM, AL, 35207","Match","Exact","4311 CAMPBELL LN, BIRMINGHAM, AL, 35207",81571742,"R"
211267,"4311 CHESTNUT STREET APT 701","PHILADELPHIA","PA",19104,39.956434302,-75.2086541909999,267,"4311 CHESTNUT STREET APT 701, PHILADELPHIA, PA, 19104","Match","Exact","4311 CHESTNUT ST, PHILADELPHIA, PA, 19104",131403785,"R"
211268,"4311 CONSOLIDATION AVE","BELLINGHAM","WA",98229,48.7354296710001,-122.45997589,268,"4311 CONSOLIDATION AVE, BELLINGHAM, WA, 98229","Match","Exact","4311 CONSOLIDATION AVE, BELLINGHAM, WA, 98229",183785630,"L"
211269,"4311 CYPRESS GROVE LN","HOUSTON","TX",77088,29.8654303220001,-95.467925994,269,"4311 CYPRESS GROVE LN, HOUSTON, TX, 77088","Match","Exact","4311 CYPRESS GROVE LN, HOUSTON, TX, 77088",96027080,"L"
211270,"4311 DAHILL PL","ALEXANDRIA","VA",22312,38.8295577650001,-77.1406017049999,270,"4311 DAHILL PL, ALEXANDRIA, VA, 22312","Match","Exact","4311 DAHILL PL, ALEXANDRIA, VA, 22312",76015567,"L"
211271,"4311 GRAND AVE","OMAHA","NE",68111,41.3031881200001,-95.978337428,271,"4311 GRAND AVE, OMAHA, NE, 68111","Match","Exact","4311 GRAND AVE, OMAHA, NE, 68111",116978173,"L"
211272,"4311 HICKORY WOOD LANE","DORAVILLE","GA",30360,33.9215895020001,-84.2714727269999,272,"4311 HICKORY WOOD LANE, DORAVILLE, GA, 30360","Match","Exact","4311 HICKORY WOOD LN, DORAVILLE, GA, 30360",23360723,"R"
211273,"4311 IVY RUN","ELLENWOOD","GA",30294,33.6527339630001,-84.225953299,273,"4311 IVY RUN, ELLENWOOD, GA, 30294","Match","Exact","4311 IVY RUN, ELLENWOOD, GA, 30294",642648008,"R"
211274,"4311 JACKSON STREET","OSHKOSH","WI",54901,44.0791449340001,-88.543536354,274,"4311 JACKSON STREET, OSHKOSH, WI, 54901","Match","Exact","4311 JACKSON ST, OSHKOSH, WI, 54901",637810122,"L"
211275,"4311 KING STREET","PORTSMOUTH","VA",23707,36.833248015,-76.3563977969999,275,"4311 KING STREET, PORTSMOUTH, VA, 23707","Match","Exact","4311 KING ST, PORTSMOUTH, VA, 23707",122191994,"L"
211276,"4311 MARAVILLA LANE","RICHMOND","TX",77406,29.6464408890001,-95.7772825709999,276,"4311 MARAVILLA LANE, RICHMOND, TX, 77406","Match","Exact","4311 MARAVILLA LN, RICHMOND, TX, 77406",647984491,"R"
211277,"4311 NW 23RD COURT","LAUDERHILL","FL",33313,26.1558386790001,-80.206936484,277,"4311 NW 23RD COURT, LAUDERHILL, FL, 33313","Match","Exact","4311 NW 23RD CT, LAUDERHILL, FL, 33313",114708036,"R"
211278,"4311 OTTER STREET","PHILADELPHIA","PA",19104,39.9708546200001,-75.210565015,278,"4311 OTTER STREET, PHILADELPHIA, PA, 19104","Match","Exact","4311 OTTER ST, PHILADELPHIA, PA, 19104",131403046,"R"
211279,"4311 PERSHING ST","NORTON","OH",44203,41.0164506290001,-81.66353732,279,"4311 PERSHING ST, NORTON, OH, 44203","Match","Exact","4311 PERSHING ST, NORTON, OH, 44203",61362728,"L"
211280,"4311 PIPER GLENN","CHARLOTTE","NC",28277,35.0734711420001,-80.808485967,280,"4311 PIPER GLENN, CHARLOTTE, NC, 28277","Match","Non_Exact","4311 PIPER GLEN DR, CHARLOTTE, NC, 28277",70517798,"R"
211281,"4311 PLANTATION PASS DRIVE","HUMBLE","TX",77346,29.9819041960001,-95.210469335,281,"4311 PLANTATION PASS DRIVE, HUMBLE, TX, 77346","Match","Exact","4311 PLANTATION PASS DR, HUMBLE, TX, 77346",96563579,"L"
211282,"4311 RUSSELL AVE N","MINNEAPOLIS","MN",55412,45.0337296450001,-93.3110725939999,282,"4311 RUSSELL AVE N, MINNEAPOLIS, MN, 55412","Match","Exact","4311 RUSSELL AVE N, MINNEAPOLIS, MN, 55412",43621567,"L"
211283,"4311 SCHOOL HOUSE COMMONS  210","HARRISBURG","NC",28075,35.3212508820001,-80.650316538,283,"4311 SCHOOL HOUSE COMMONS  210, HARRISBURG, NC, 28075","Match","Exact","4311 SCHOOL HOUSE CMNS, HARRISBURG, NC, 28075",642252495,"L"
211284,"4311 SCHOOL HOUSE COMMONS STE 133","HARRISBURG","NC",28075,35.3212508820001,-80.650316538,284,"4311 SCHOOL HOUSE COMMONS STE 133, HARRISBURG, NC, 28075","Match","Exact","4311 SCHOOL HOUSE CMNS, HARRISBURG, NC, 28075",642252495,"L"
211285,"4311 SCHOOLHOUSE COMMONS 129","4311","NC",28075,35.3212508820001,-80.650316538,285,"4311 SCHOOLHOUSE COMMONS 129, 4311, NC, 28075","Match","Non_Exact","4311 SCHOOL HOUSE CMNS, HARRISBURG, NC, 28075",642252495,"L"
211286,"4311 SCHOOLHOUSE COMMONS PO BOX 215","HARRISBUG","NC",28075,35.3212508820001,-80.650316538,286,"4311 SCHOOLHOUSE COMMONS PO BOX 215, HARRISBUG, NC, 28075","Match","Non_Exact","4311 SCHOOL HOUSE CMNS, HARRISBURG, NC, 28075",642252495,"L"
211287,"4311 ST MARTINS","CHEVIOT","OH",45211,39.1535488800001,-84.62273986,287,"4311 ST MARTINS, CHEVIOT, OH, 45211","Match","Non_Exact","4311 ST MARTINS PL, CHEVIOT, OH, 45211",103916824,"L"
211288,"4311 TELFAIR BLVD SUITE 403","SUITLAND","MD",20746,38.8303916360001,-76.911942219,288,"4311 TELFAIR BLVD SUITE 403, SUITLAND, MD, 20746","Match","Exact","4311 TELFAIR BLVD, SUITLAND, MD, 20746",638664849,"L"
211289,"4311 TRIAS STREET","SAN DIEGO","CA",92103,32.7541467830001,-117.18805818,289,"4311 TRIAS STREET, SAN DIEGO, CA, 92103","Match","Exact","4311 TRIAS ST, SAN DIEGO, CA, 92103",195341602,"R"
211290,"4311 W ROSECRANS AVE APT D","HAWTHORNE","CA",90250,33.9019132450001,-118.35002037,290,"4311 W ROSECRANS AVE APT D, HAWTHORNE, CA, 90250","Match","Non_Exact","4311 W ROSECRANS AVE, HAWTHORNE, CA, 90250",141657465,"R"
211291,"4311 WHIPPOORWILL CIRCLE","MISSOURI CITY","TX",77459,29.5771437500001,-95.572939912,291,"4311 WHIPPOORWILL CIRCLE, MISSOURI CITY, TX, 77459","Match","Exact","4311 WHIPPOORWILL CIR, MISSOURI CITY, TX, 77459",78295254,"L"
211292,"4311 WHITWORTH STREET","DALLAS","TX",75227,32.774831534,-96.6907872739999,292,"4311 WHITWORTH STREET, DALLAS, TX, 75227","Match","Exact","4311 WHITWORTH ST, DALLAS, TX, 75227",102924971,"L"
211293,"4311 WICKERFIELD","ST. LOUIS","MO",63128,38.5121538160001,-90.347178785,293,"4311 WICKERFIELD, ST. LOUIS, MO, 63128","Match","Non_Exact","4311 WICKERFIELD DR, SAINT LOUIS, MO, 63128",100142737,"R"
211294,"4311 WILKENS AVENUE APT A","BALTIMORE","MD",21229,39.266456492,-76.6935688569999,294,"4311 WILKENS AVENUE APT A, BALTIMORE, MD, 21229","Match","Exact","4311 WILKENS AVE, BALTIMORE, MD, 21229",191573671,"R"
211295,"4311 WILSHIRE BLVD 530A","LOS ANGELES","CA",90010,34.061793811,-118.321773931,295,"4311 WILSHIRE BLVD 530A, LOS ANGELES, CA, 90010","Match","Exact","4311 WILSHIRE BLVD, LOS ANGELES, CA, 90010",141603534,"R"
211296,"4311 WILSHIRE BLVD STE 315","LOS ANGELES","CA",90010,34.061793811,-118.321773931,296,"4311 WILSHIRE BLVD STE 315, LOS ANGELES, CA, 90010","Match","Exact","4311 WILSHIRE BLVD, LOS ANGELES, CA, 90010",141603534,"R"
211297,"4311 WILSHIRE BLVD SUITE 315","LOS ANGELES","CA",90010,34.061793811,-118.321773931,297,"4311 WILSHIRE BLVD SUITE 315, LOS ANGELES, CA, 90010","Match","Exact","4311 WILSHIRE BLVD, LOS ANGELES, CA, 90010",141603534,"R"
211298,"4311 WILSON AVENUE","SIGNAL MOUNTAIN","TN",37377,NA,NA,298,"4311 WILSON AVENUE, SIGNAL MOUNTAIN, TN, 37377","No_Match",NA,NA,NA,NA
211299,"43112 JOHN MOSBY HIGHWAY","CHANTILLY","VA",20152,38.9268192800001,-77.512024498,299,"43112 JOHN MOSBY HIGHWAY, CHANTILLY, VA, 20152","Match","Exact","43112 JOHN MOSBY HWY, CHANTILLY, VA, 20152",218965673,"L"
211300,"4312 ARTESIA DRIVE","PASCO","WA",99301,46.2740235810001,-119.14646425,300,"4312 ARTESIA DRIVE, PASCO, WA, 99301","Match","Exact","4312 ARTESIA DR, PASCO, WA, 99301",629038914,"L"
211301,"4312 CEDAR VALLEY DRIVE","PLANO","TX",75024,33.076845968,-96.776480261,301,"4312 CEDAR VALLEY DRIVE, PLANO, TX, 75024","Match","Exact","4312 CEDAR VALLEY DR, PLANO, TX, 75024",123531063,"R"
211302,"4312 DIAMOND TERRACE","WESTON","FL",33331,26.0645796210001,-80.373540124,302,"4312 DIAMOND TERRACE, WESTON, FL, 33331","Match","Exact","4312 DIAMOND TER, WESTON, FL, 33331",114782371,"L"
211303,"4312 GLEN ESTE WITHAMSVILLE RD","CINCINNATI","OH",45245,39.088591486,-84.267773005,303,"4312 GLEN ESTE WITHAMSVILLE RD, CINCINNATI, OH, 45245","Match","Exact","4312 GLEN ESTE WITHAMSVILLE RD, CINCINNATI, OH, 45245",118446885,"R"
211304,"4312 GLENESTE-WITHAMSVILLE RD","CINCINNATI","OH",45245,39.088591486,-84.267773005,304,"4312 GLENESTE-WITHAMSVILLE RD, CINCINNATI, OH, 45245","Match","Non_Exact","4312 GLEN ESTE WITHAMSVILLE RD, CINCINNATI, OH, 45245",118446885,"R"
211305,"4312 GROVE AVE","CINCINNATI","OH",45227,39.150677441,-84.3731184219999,305,"4312 GROVE AVE, CINCINNATI, OH, 45227","Match","Exact","4312 GROVE AVE, CINCINNATI, OH, 45227",103954994,"R"
211306,"4312 LAKE AVE","LOCKPORT","NY",14094,43.2028644320001,-78.675059232,306,"4312 LAKE AVE, LOCKPORT, NY, 14094","Match","Exact","4312 LAKE AVE, LOCKPORT, NY, 14094",48695408,"R"
211307,"4312 LAKE UNDERHILL ROAD APT D","ORLANDO","FL",32803,28.537273935,-81.3324697749999,307,"4312 LAKE UNDERHILL ROAD APT D, ORLANDO, FL, 32803","Match","Exact","4312 LAKE UNDERHILL RD, ORLANDO, FL, 32803",606126044,"R"
211308,"4312 MATT DRIVE","KILLEEN","TX",76549,31.0986386180001,-97.790705942,308,"4312 MATT DRIVE, KILLEEN, TX, 76549","Match","Exact","4312 MATT DR, KILLEEN, TX, 76549",146228950,"L"
211309,"4312 MCNAIR ROAD","TARBORO","NC",27886,35.8826225930001,-77.5870806349999,309,"4312 MCNAIR ROAD, TARBORO, NC, 27886","Match","Exact","4312 MCNAIR RD, TARBORO, NC, 27886",627426534,"L"
211310,"4312 NE BLUE JAY CIRCLE","LEES SUMMIT","MO",64064,38.991310062,-94.348598302,310,"4312 NE BLUE JAY CIRCLE, LEES SUMMIT, MO, 64064","Match","Exact","4312 NE BLUE JAY CIR, LEES SUMMIT, MO, 64064",91503245,"R"
211311,"4312 OAK KNOLL DRIVE","PLANO","TX",75093,33.039101767,-96.777259493,311,"4312 OAK KNOLL DRIVE, PLANO, TX, 75093","Match","Exact","4312 OAK KNOLL DR, PLANO, TX, 75093",123558490,"L"
211312,"4312 PITTS AVENUE","CINCINNATI","OH",45223,39.1657308490001,-84.5449497609999,312,"4312 PITTS AVENUE, CINCINNATI, OH, 45223","Match","Exact","4312 PITTS AVE, CINCINNATI, OH, 45223",103965322,"R"
211313,"4312 RHAME RD","COLUMBIA","SC",29229,34.1431911550001,-80.8779396159999,313,"4312 RHAME RD, COLUMBIA, SC, 29229","Match","Exact","4312 RHAME RD, COLUMBIA, SC, 29229",604759224,"R"
211314,"4312 RHAME ROAD","COLUMBIA","SC",29229,34.1431911550001,-80.8779396159999,314,"4312 RHAME ROAD, COLUMBIA, SC, 29229","Match","Exact","4312 RHAME RD, COLUMBIA, SC, 29229",604759224,"R"
211315,"4312 S CENTRAL AVE","PHOENIX","AZ",85040,33.4075157660001,-112.073354005,315,"4312 S CENTRAL AVE, PHOENIX, AZ, 85040","Match","Exact","4312 S CENTRAL AVE, PHOENIX, AZ, 85040",128215284,"R"
211316,"4312 S DIVISION AVENUE SUITE E","KENTWOOD","MI",49548,42.885662681,-85.664782899,316,"4312 S DIVISION AVENUE SUITE E, KENTWOOD, MI, 49548","Match","Non_Exact","4312 S DIVISION AVE, KENTWOOD, MI, 49548",12505260,"L"
211317,"4312 S SAINT LAWRENCE AVE UNIT 2","CHICAGO","IL",60653,41.816079702,-87.6116285849999,317,"4312 S SAINT LAWRENCE AVE UNIT 2, CHICAGO, IL, 60653","Match","Non_Exact","4312 S SAINT LAWRENCE AVE, CHICAGO, IL, 60653",605590899,"R"
211318,"4312 SANCTUARY BLUFF LANE","LOUISVILLE","KY",40241,38.310691036,-85.623049107,318,"4312 SANCTUARY BLUFF LANE, LOUISVILLE, KY, 40241","Match","Exact","4312 SANCTUARY BLUFF LN, LOUISVILLE, KY, 40241",624254417,"R"
211319,"4312 SE 40TH ST","NORMAN","OK",73071,35.299300628,-97.425527857,319,"4312 SE 40TH ST, NORMAN, OK, 73071","Match","Exact","4312 SE 40TH ST, NORMAN, OK, 73071",641687919,"R"
211320,"4312 SHAMROCK DRIVE","ATLANTA","GA",30349,33.635016794,-84.5958896389999,320,"4312 SHAMROCK DRIVE, ATLANTA, GA, 30349","Match","Exact","4312 SHAMROCK DR, ATLANTA, GA, 30349",643406366,"R"
211321,"4312 SUNNYBROOK DR","NASHVILLE","TN",37205,36.10153417,-86.846167908,321,"4312 SUNNYBROOK DR, NASHVILLE, TN, 37205","Match","Exact","4312 SUNNYBROOK DR, NASHVILLE, TN, 37205",97180871,"R"
211322,"4312 VALENTINE ST","FORT WORTH","TX",76107,32.726307085,-97.3815667919999,322,"4312 VALENTINE ST, FORT WORTH, TX, 76107","Match","Exact","4312 VALENTINE ST, FORT WORTH, TX, 76107",101884225,"R"
211323,"4312 WEST FRANKLIN ST","RICHMOND","VA",23221,37.569126995,-77.4911711779999,323,"4312 WEST FRANKLIN ST, RICHMOND, VA, 23221","Match","Exact","4312 W FRANKLIN ST, RICHMOND, VA, 23221",201534625,"R"
211324,"4312 WILDBRIAR LANE","MANSFIELD","TX",76063,32.583670462,-97.067498477,324,"4312 WILDBRIAR LANE, MANSFIELD, TX, 76063","Match","Exact","4312 WILDBRIAR LN, MANSFIELD, TX, 76063",619824602,"R"
211325,"43120 UTICA ROAD STE 200","STERLING HEIGHTS","MI",48314,42.6102483930001,-83.030777535,325,"43120 UTICA ROAD STE 200, STERLING HEIGHTS, MI, 48314","Match","Exact","43120 UTICA RD, STERLING HEIGHTS, MI, 48314",110659553,"R"
211326,"4313 18TH AVE","BROOKLYN","NY",11218,40.631175624,-73.9762473,326,"4313 18TH AVE, BROOKLYN, NY, 11218","Match","Exact","4313 18TH AVE, BROOKLYN, NY, 11218",642654328,"L"
211327,"4313 AVE CONSTANCIA","PONCE","PR",716,17.9844069390001,-66.608813535,327,"4313 AVE CONSTANCIA, PONCE, PR, 716","Match","Exact","4313 AVE CONSTANCIA, PONCE, PR, 00716",624997375,"L"
211328,"4313 FALLSTONE PL","MONTCLAIR","VA",22025,38.6115266960001,-77.339564057,328,"4313 FALLSTONE PL, MONTCLAIR, VA, 22025","Match","Exact","4313 FALLSTONE PL, MONTCLAIR, VA, 22025",76517155,"L"
211329,"4313 FRUITWOOD COURT","BOWIE","MD",20720,38.9485753920001,-76.812681036,329,"4313 FRUITWOOD COURT, BOWIE, MD, 20720","Match","Exact","4313 FRUITWOOD CT, BOWIE, MD, 20720",76311003,"R"
211330,"4313 HOLLY ORCHARD CT","HIGH POINT","NC",28265,36.047394834,-79.993928613,330,"4313 HOLLY ORCHARD CT, HIGH POINT, NC, 28265","Match","Non_Exact","4313 HOLLY ORCHARD CT, HIGH POINT, NC, 27265",619937011,"R"
211331,"4313 KANDRA COURT","ORLANDO","FL",32812,28.471587411,-81.331929193,331,"4313 KANDRA COURT, ORLANDO, FL, 32812","Match","Exact","4313 KANDRA CT, ORLANDO, FL, 32812",94287870,"L"
211332,"4313 KOLB AVENUE","BALTIMORE","MD",21206,39.352649909,-76.5288482129999,332,"4313 KOLB AVENUE, BALTIMORE, MD, 21206","Match","Exact","4313 KOLB AVE, BALTIMORE, MD, 21206",191477804,"R"
211333,"4313 LAKE ST","LAKE CHARLES","LA",70605,30.1793513600001,-93.232364573,333,"4313 LAKE ST, LAKE CHARLES, LA, 70605","Match","Exact","4313 LAKE ST, LAKE CHARLES, LA, 70605",88438213,"L"
211334,"4313 MARKHAM STREET","ANNANDALE","VA",22003,38.8307207780001,-77.1999516609999,334,"4313 MARKHAM STREET, ANNANDALE, VA, 22003","Match","Exact","4313 MARKHAM ST, ANNANDALE, VA, 22003",75980384,"L"
211335,"4313 NEW HAMPSHIRE DRIVE","HARRISBURG","PA",17112,40.3465117650001,-76.8253497809999,335,"4313 NEW HAMPSHIRE DRIVE, HARRISBURG, PA, 17112","Match","Exact","4313 NEW HAMPSHIRE DR, HARRISBURG, PA, 17112",70830928,"L"
211336,"4313 OAK WOOD CT","DUBLIN","OH",43016,40.1193942690001,-83.105022079,336,"4313 OAK WOOD CT, DUBLIN, OH, 43016","Match","Exact","4313 OAK WOOD CT, DUBLIN, OH, 43016",641091724,"L"
211337,"4313 PALMYRA STREET","NEW ORLEANS","LA",70119,29.9746638710001,-90.104917139,337,"4313 PALMYRA STREET, NEW ORLEANS, LA, 70119","Match","Exact","4313 PALMYRA ST, NEW ORLEANS, LA, 70119",191706770,"R"
211338,"4313 S COUNTY ROAD 49","SLOCOMB","AL",36375,31.0938830920001,-85.515401982,338,"4313 S COUNTY ROAD 49, SLOCOMB, AL, 36375","Match","Exact","4313 S CO RD 49, SLOCOMB, AL, 36375",651702465,"R"
211339,"4313 S REDBUD AVE","BROKEN ARROW","OK",74011,36.009202336,-95.8112813,339,"4313 S REDBUD AVE, BROKEN ARROW, OK, 74011","Match","Exact","4313 S REDBUD AVE, BROKEN ARROW, OK, 74011",166489881,"R"
211340,"4313 S TRIBBEY TRAIL","SIOUX FALLS","SD",57106,43.5071710140001,-96.829278298,340,"4313 S TRIBBEY TRAIL, SIOUX FALLS, SD, 57106","Match","Exact","4313 S TRIBBEY TRL, SIOUX FALLS, SD, 57106",641547500,"L"
211341,"4313 SARATOGA ST","OMAHA","NE",68111,41.304062312,-95.978371128,341,"4313 SARATOGA ST, OMAHA, NE, 68111","Match","Exact","4313 SARATOGA ST, OMAHA, NE, 68111",116978170,"L"
211342,"4313 SEBRING WALK","DECATUR","GA",30034,33.6969259570001,-84.211653607,342,"4313 SEBRING WALK, DECATUR, GA, 30034","Match","Exact","4313 SEBRING WALK, DECATUR, GA, 30034",23383320,"R"
211343,"4313 SOUTH 6115 WEST","WEST VALLEY CITY","UT",84128,40.676999735,-112.037139028,343,"4313 SOUTH 6115 WEST, WEST VALLEY CITY, UT, 84128","Match","Exact","4313 S 6115 W, WEST VALLEY CITY, UT, 84128",176104017,"L"
211344,"4313 SOUTH REDBUD AVENUE","BROKEN ARROW","OK",74011,36.009202336,-95.8112813,344,"4313 SOUTH REDBUD AVENUE, BROKEN ARROW, OK, 74011","Match","Exact","4313 S REDBUD AVE, BROKEN ARROW, OK, 74011",166489881,"R"
211345,"4313 SREVE AVE","SAINT LOUIS","MO",63115,NA,NA,345,"4313 SREVE AVE, SAINT LOUIS, MO, 63115","No_Match",NA,NA,NA,NA
211346,"4313 VICARS CHASE","AUSTELL","GA",30106,33.8496767670001,-84.6181179769999,346,"4313 VICARS CHASE, AUSTELL, GA, 30106","Match","Exact","4313 VICARS CHASE, AUSTELL, GA, 30106",17218473,"L"
211347,"4313 YOLANDA DR","CORPUS CHRISTI","TX",78416,27.756669754,-97.442411974,347,"4313 YOLANDA DR, CORPUS CHRISTI, TX, 78416","Match","Exact","4313 YOLANDA DR, CORPUS CHRISTI, TX, 78416",178513712,"R"
211348,"4314 CAMRY DRIVE","COOKEVILLE","TN",38501,36.193555406,-85.5911483249999,348,"4314 CAMRY DRIVE, COOKEVILLE, TN, 38501","Match","Exact","4314 CAMRY DR, COOKEVILLE, TN, 38501",624732050,"L"
211349,"4314 FORDHAM RD","BALTIMORE","MD",21229,39.2689948760001,-76.693626545,349,"4314 FORDHAM RD, BALTIMORE, MD, 21229","Match","Exact","4314 FORDHAM RD, BALTIMORE, MD, 21229",191485761,"R"
211350,"4314 LEWIS STREET","GULFPORT","MS",39501,30.3613426310001,-89.114217515,350,"4314 LEWIS STREET, GULFPORT, MS, 39501","Match","Exact","4314 LEWIS ST, GULFPORT, MS, 39501",111378620,"R"
211351,"4314 N LIDGERWOOD","SPOKANE","WA",99207,47.697038122,-117.405978099,351,"4314 N LIDGERWOOD, SPOKANE, WA, 99207","Match","Non_Exact","4314 N LIDGERWOOD ST, SPOKANE, WA, 99207",189874612,"R"
211352,"4314 PROSPECT AVENUE","KANSAS CITY","MO",64130,39.047996847,-94.553983965,352,"4314 PROSPECT AVENUE, KANSAS CITY, MO, 64130","Match","Exact","4314 PROSPECT AVE, KANSAS CITY, MO, 64130",91451994,"R"
211353,"4314 S NICOLET ROAD","SAULT STE MARIE","MI",49783,46.4436090950001,-84.274156562,353,"4314 S NICOLET ROAD, SAULT STE MARIE, MI, 49783","Match","Non_Exact","4314 S NICOLET RD, SAULT SAINTE MARIE, MI, 49783",130573221,"L"
211354,"4314 S VERNON AVE","CHICAGO","IL",60653,41.816019716,-87.615252062,354,"4314 S VERNON AVE, CHICAGO, IL, 60653","Match","Exact","4314 S VERNON AVE, CHICAGO, IL, 60653",111770831,"L"
211355,"4314 SCOTLAND STREET","HOUSTON","TX",77007,29.7639561130001,-95.403746011,355,"4314 SCOTLAND STREET, HOUSTON, TX, 77007","Match","Exact","4314 SCOTLAND ST, HOUSTON, TX, 77007",96552376,"R"
211356,"4314 STADIUM BOULEVARD","JONESBORO","AR",72404,35.7904160680001,-90.669755214,356,"4314 STADIUM BOULEVARD, JONESBORO, AR, 72404","Match","Exact","4314 STADIUM BLVD, JONESBORO, AR, 72404",46934096,"R"
211357,"4314 SW 12 STREET","MIAMI","FL",33134,25.760688782,-80.265604402,357,"4314 SW 12 STREET, MIAMI, FL, 33134","Match","Exact","4314 SW 12TH ST, MIAMI, FL, 33134",116010589,"L"
211358,"4314 SW 70TH TERRACE UNIT D","GAINESVILLE","FL",32608,29.6148789050001,-82.4178899889999,358,"4314 SW 70TH TERRACE UNIT D, GAINESVILLE, FL, 32608","Match","Non_Exact","4314 SW 70TH TER, GAINESVILLE, FL, 32608",6833955,"L"
211359,"4314 THORNAPPLE HILLS CT","RICHMOND","TX",77406,29.6541030490001,-95.723581704,359,"4314 THORNAPPLE HILLS CT, RICHMOND, TX, 77406","Match","Exact","4314 THORNAPPLE HILLS CT, RICHMOND, TX, 77406",648704925,"R"
211360,"4314 THURMAN LN","LOUISVILLE","TN",37777,35.7961416430001,-84.112799928,360,"4314 THURMAN LN, LOUISVILLE, TN, 37777","Match","Exact","4314 THURMAN LN, LOUISVILLE, TN, 37777",89826894,"R"
211361,"4314 UNIVERSITY DRIVE","CHARLOTTE","NC",28209,35.182246305,-80.868413897,361,"4314 UNIVERSITY DRIVE, CHARLOTTE, NC, 28209","Match","Exact","4314 UNIVERSITY DR, CHARLOTTE, NC, 28209",70485933,"R"
211362,"4314 VAUGHAN STREET","AUSTIN","TX",78723,30.2946599140001,-97.697575912,362,"4314 VAUGHAN STREET, AUSTIN, TX, 78723","Match","Exact","4314 VAUGHAN ST, AUSTIN, TX, 78723",648999848,"L"
211363,"4314 W 6TH STREET","DULUTH","MN",55807,46.7506378300001,-92.158649762,363,"4314 W 6TH STREET, DULUTH, MN, 55807","Match","Exact","4314 W 6TH ST, DULUTH, MN, 55807",163213039,"L"
211364,"43140 MALLOCH PLACE","LEESBURG","VA",20176,39.0992541580001,-77.507608476,364,"43140 MALLOCH PLACE, LEESBURG, VA, 20176","Match","Exact","43140 MALLOCH PL, LEESBURG, VA, 20176",62341534,"L"
211365,"4315  CHURCH STREET SUITE D","ZACHARY","LA",70791,30.6504405640001,-91.158627392,365,"4315  CHURCH STREET SUITE D, ZACHARY, LA, 70791","Match","Exact","4315 CHURCH ST, ZACHARY, LA, 70791",92177080,"L"
211366,"4315 BARKER AVE","OMAHA","NE",68105,41.250213585,-95.978009752,366,"4315 BARKER AVE, OMAHA, NE, 68105","Match","Exact","4315 BARKER AVE, OMAHA, NE, 68105",116983632,"L"
211367,"4315 BAYOU VISTA DR","HOUSTON","TX",77091,29.8451419510001,-95.451690501,367,"4315 BAYOU VISTA DR, HOUSTON, TX, 77091","Match","Exact","4315 BAYOU VISTA DR, HOUSTON, TX, 77091",96028603,"L"
211368,"4315 BRAINERD RD","CHATTANOOGA","TN",37411,35.0159143440001,-85.2352894269999,368,"4315 BRAINERD RD, CHATTANOOGA, TN, 37411","Match","Exact","4315 BRAINERD RD, CHATTANOOGA, TN, 37411",59314751,"L"
211369,"4315 CABALLO WAY","CHICO","CA",95973,39.787617728,-121.875020922,369,"4315 CABALLO WAY, CHICO, CA, 95973","Match","Exact","4315 CABALLO WAY, CHICO, CA, 95973",68425928,"L"
211370,"4315 DON TOMASO DR 28","LOS ANGELES","CA",90008,34.0050066210001,-118.348179835,370,"4315 DON TOMASO DR 28, LOS ANGELES, CA, 90008","Match","Exact","4315 DON TOMASO DR, LOS ANGELES, CA, 90008",642863688,"R"
211371,"4315 DONHAM RD","PINE BLUFF","AR",71603,34.085410064,-92.045606871,371,"4315 DONHAM RD, PINE BLUFF, AR, 71603","Match","Exact","4315 DONHAM RD, PINE BLUFF, AR, 71603",2564974,"L"
211372,"4315 E CLINTON AVE","FRESNO","CA",93703,36.7723273140001,-119.753006144,372,"4315 E CLINTON AVE, FRESNO, CA, 93703","Match","Exact","4315 E CLINTON AVE, FRESNO, CA, 93703",197577508,"L"
211373,"4315 E THUNDERBIRD RD 107","PHEONIX","AZ",85032,33.611729688,-111.987878426,373,"4315 E THUNDERBIRD RD 107, PHEONIX, AZ, 85032","Match","Non_Exact","4315 E THUNDERBIRD RD, PHOENIX, AZ, 85032",128186868,"R"
211374,"4315 GALLATIN ST","HYATTSVILLE","MD",20781,38.9526136160001,-76.942473989,374,"4315 GALLATIN ST, HYATTSVILLE, MD, 20781","Match","Exact","4315 GALLATIN ST, HYATTSVILLE, MD, 20781",638958763,"R"
211375,"4315 JED WAY","CUMMING","GA",30040,34.275421658,-84.123317173,375,"4315 JED WAY, CUMMING, GA, 30040","Match","Exact","4315 JED WAY, CUMMING, GA, 30040",636523892,"L"
211376,"4315 LEXINGTON ROAD APT 6I","ATHENS","GA",30605,33.9342016520001,-83.313808594,376,"4315 LEXINGTON ROAD APT 6I, ATHENS, GA, 30605","Match","Exact","4315 LEXINGTON RD, ATHENS, GA, 30605",4804446,"L"
211377,"4315 LYONS AVE","HOUSTON","TX",77020,29.776138051,-95.326844791,377,"4315 LYONS AVE, HOUSTON, TX, 77020","Match","Exact","4315 LYONS AVE, HOUSTON, TX, 77020",96079061,"L"
211378,"4315 MEADOW CREST DRIVE","CHAPEL HILL","NC",27516,35.9530520000001,-79.195786109,378,"4315 MEADOW CREST DRIVE, CHAPEL HILL, NC, 27516","Match","Exact","4315 MEADOW CREST DR, CHAPEL HILL, NC, 27516",72404762,"R"
211379,"4315 MELROSE AVENUE","LOS ANGELES","CA",90029,34.0835935010001,-118.294617144,379,"4315 MELROSE AVENUE, LOS ANGELES, CA, 90029","Match","Exact","4315 MELROSE AVE, LOS ANGELES, CA, 90029",141604286,"R"
211380,"4315 N MERIDIAN AVE 1403","MIAMI BEACH","FL",33140,25.8163588460001,-80.132687462,380,"4315 N MERIDIAN AVE 1403, MIAMI BEACH, FL, 33140","Match","Exact","4315 MERIDIAN AVE, MIAMI BEACH, FL, 33140",116008941,"R"
211381,"4315 OLDWYCK DR","JANESVILLE","WI",53546,42.686619749,-88.958512852,381,"4315 OLDWYCK DR, JANESVILLE, WI, 53546","Match","Exact","4315 OLDWYCK DR, JANESVILLE, WI, 53546",49864635,"L"
211382,"4315 ORCHARD AVENUE SUITE 53","PASCAGOULA","MS",39581,30.368015955,-88.5188052519999,382,"4315 ORCHARD AVENUE SUITE 53, PASCAGOULA, MS, 39581","Match","Exact","4315 ORCHARD AVE, PASCAGOULA, MS, 39581",647761300,"L"
211383,"4315 PIEDMONT AVE 302","OAKLAND","CA",94611,37.8292416730001,-122.2487809,383,"4315 PIEDMONT AVE 302, OAKLAND, CA, 94611","Match","Exact","4315 PIEDMONT AVE, OAKLAND, CA, 94611",125000599,"L"
211384,"4315 PLEASANT GROVE ROAD","MOSCOW","MS",38057,NA,NA,384,"4315 PLEASANT GROVE ROAD, MOSCOW, MS, 38057","No_Match",NA,NA,NA,NA
211385,"4315 RINGER RD","SAINT LOUIS","MO",63129,38.49423095,-90.3176384179999,385,"4315 RINGER RD, SAINT LOUIS, MO, 63129","Match","Exact","4315 RINGER RD, SAINT LOUIS, MO, 63129",100157428,"R"
211386,"4315 RINGER RD","ST LOUIS","MO",63129,38.49423095,-90.3176384179999,386,"4315 RINGER RD, ST LOUIS, MO, 63129","Match","Exact","4315 RINGER RD, SAINT LOUIS, MO, 63129",100157428,"R"
211387,"4315 RIVERSTONE SHOALS","ELLENWOOD","GA",30294,33.6514786550001,-84.1879990209999,387,"4315 RIVERSTONE SHOALS, ELLENWOOD, GA, 30294","Match","Non_Exact","4315 RIVERSTONE SHOALS DR, ELLENWOOD, GA, 30294",23399455,"L"
211388,"4315 S INDIANA AVE","CHICAGO","IL",60653,41.8157099140001,-87.6213745589999,388,"4315 S INDIANA AVE, CHICAGO, IL, 60653","Match","Exact","4315 S INDIANA AVE, CHICAGO, IL, 60653",111770587,"L"
211389,"4315 S PRAIRIE","CHICAGO","IL",60653,41.816222054,-87.6197712169999,389,"4315 S PRAIRIE, CHICAGO, IL, 60653","Match","Non_Exact","4315 S PRAIRIE AVE, CHICAGO, IL, 60653",111770591,"L"
211390,"4315 SOUTH HOLLY STREET","SEATTLE","WA",98118,47.542436325,-122.279421845,390,"4315 SOUTH HOLLY STREET, SEATTLE, WA, 98118","Match","Exact","4315 S HOLLY ST, SEATTLE, WA, 98118",186596519,"R"
211391,"4315 STONE MOUNTAIN DRIVE","CHINO HILLS","CA",91709,33.954301242,-117.709856615,391,"4315 STONE MOUNTAIN DRIVE, CHINO HILLS, CA, 91709","Match","Exact","4315 STONE MOUNTAIN DR, CHINO HILLS, CA, 91709",144968448,"L"
211392,"4315 TRANQUILITY DRIVE","HIGHLAND BEACH","FL",33487,26.399146235,-80.067280266,392,"4315 TRANQUILITY DRIVE, HIGHLAND BEACH, FL, 33487","Match","Exact","4315 TRANQUILITY DR, HIGHLAND BEACH, FL, 33487",115299245,"L"
211393,"4315 W 133RD AVE","CROWN POINT","IN",46307,41.376742242,-87.384633916,393,"4315 W 133RD AVE, CROWN POINT, IN, 46307","Match","Exact","4315 W 133RD AVE, CROWN POINT, IN, 46307",652598171,"L"
211394,"4315 W 145TH ST UNIT 12","LAWNDALE","CA",90260,33.900129862,-118.351018349,394,"4315 W 145TH ST UNIT 12, LAWNDALE, CA, 90260","Match","Non_Exact","4315 W 145TH ST, LAWNDALE, CA, 90260",241242679,"R"
211395,"4315 W NEPTUNE STREET","TAMPA","FL",33629,27.93029245,-82.516577029,395,"4315 W NEPTUNE STREET, TAMPA, FL, 33629","Match","Exact","4315 W NEPTUNE ST, TAMPA, FL, 33629",104525061,"R"
211396,"4315 WEST MARKET STREET","YORK","PA",17408,39.930430561,-76.815550278,396,"4315 WEST MARKET STREET, YORK, PA, 17408","Match","Exact","4315 W MARKET ST, YORK, PA, 17408",638031411,"R"
211397,"4315 WHISPERING BEND CV N","MEMPHIS","TN",38125,35.0300715230001,-89.789762122,397,"4315 WHISPERING BEND CV N, MEMPHIS, TN, 38125","Match","Exact","4315 WHISPERING BEND COVE N, MEMPHIS, TN, 38125",72952887,"L"
211398,"4315 WICKHAM AVENUE","BRONX","NY",10466,40.8962310840001,-73.8497170319999,398,"4315 WICKHAM AVENUE, BRONX, NY, 10466","Match","Exact","4315 WICKHAM AVE, BRONX, NY, 10466",80297466,"L"
211399,"4315 WIND DANCER","TYLER","TX",75706,NA,NA,399,"4315 WIND DANCER, TYLER, TX, 75706","No_Match",NA,NA,NA,NA
211400,"4315 YALE ST OFC C","HOUSTON","TX",77018,29.8271822080001,-95.399713492,400,"4315 YALE ST OFC C, HOUSTON, TX, 77018","Match","Exact","4315 YALE ST, HOUSTON, TX, 77018",96054838,"L"
211401,"4315 ZOE LANE","COLUMBIA","MO",65201,38.9004140930001,-92.311404362,401,"4315 ZOE LANE, COLUMBIA, MO, 65201","Match","Exact","4315 ZOE LN, COLUMBIA, MO, 65201",624907262,"L"
211402,"43150 BROADLANDS VILL CTR BOX 134","ASHBURN","VA",20148,NA,NA,402,"43150 BROADLANDS VILL CTR BOX 134, ASHBURN, VA, 20148","No_Match",NA,NA,NA,NA
211403,"43151 DALCOMA SUITE 1","CL","MI",48038,NA,NA,403,"43151 DALCOMA SUITE 1, CL, MI, 48038","No_Match",NA,NA,NA,NA
211404,"43155 MAIN STREET STE 2210E","NOVI","MI",48375,42.47814226,-83.472756542,404,"43155 MAIN STREET STE 2210E, NOVI, MI, 48375","Match","Exact","43155 MAIN ST, NOVI, MI, 48375",69808210,"L"
211405,"43155 MAIN STREET SUITE 2300AA","NOVI","MI",48375,42.47814226,-83.472756542,405,"43155 MAIN STREET SUITE 2300AA, NOVI, MI, 48375","Match","Exact","43155 MAIN ST, NOVI, MI, 48375",69808210,"L"
211406,"4316 25TH STREET","MERIDIAN","MS",39307,32.383872463,-88.721652908,406,"4316 25TH STREET, MERIDIAN, MS, 39307","Match","Exact","4316 25TH ST, MERIDIAN, MS, 39307",191527,"L"
211407,"4316 BULL CREEK RD  APT 209","AUSTIN","TX",78731,30.3176176060001,-97.755150226,407,"4316 BULL CREEK RD  APT 209, AUSTIN, TX, 78731","Match","Exact","4316 BULL CREEK RD, AUSTIN, TX, 78731",650115406,"L"
211408,"4316 COMPANEROS WAY","AUSTIN","TX",78749,30.195219405,-97.857451323,408,"4316 COMPANEROS WAY, AUSTIN, TX, 78749","Match","Exact","4316 COMPANEROS WAY, AUSTIN, TX, 78749",63993842,"R"
211409,"4316 DANA STREET","BALTMORE","MD",21229,39.2850238020001,-76.6882557009999,409,"4316 DANA STREET, BALTMORE, MD, 21229","Match","Non_Exact","4316 DANA ST, BALTIMORE, MD, 21229",206432389,"R"
211410,"4316 EDGIN AVE","LOUISVILLE","KY",40216,38.1856943610001,-85.829308197,410,"4316 EDGIN AVE, LOUISVILLE, KY, 40216","Match","Exact","4316 EDGIN AVE, LOUISVILLE, KY, 40216",96838962,"R"
211411,"4316 ONTARIO STREET","AMES","IA",50014,42.034574004,-93.677323078,411,"4316 ONTARIO STREET, AMES, IA, 50014","Match","Exact","4316 ONTARIO ST, AMES, IA, 50014",635853798,"L"
211412,"4316 S 49TH ST","LINCOLN","NE",68516,40.7694228670001,-96.652634717,412,"4316 S 49TH ST, LINCOLN, NE, 68516","Match","Exact","4316 S 49TH ST, LINCOLN, NE, 68516",28260826,"L"
211413,"4316 SHEFFIELD STREET","PHILADELPHIA","PA",19136,40.03715011,-75.0320035939999,413,"4316 SHEFFIELD STREET, PHILADELPHIA, PA, 19136","Match","Exact","4316 SHEFFIELD ST, PHILADELPHIA, PA, 19136",131435714,"R"
211414,"4316 SPARTA RD SE","CRAWFORDVILLE","GA",30631,33.465298504,-82.8807958629999,414,"4316 SPARTA RD SE, CRAWFORDVILLE, GA, 30631","Match","Exact","4316 SPARTA RD SE, CRAWFORDVILLE, GA, 30631",16693557,"R"
211415,"4316 THATCH AVENUE","BAKERSFIELD","CA",93311,35.308968882,-119.049726202,415,"4316 THATCH AVENUE, BAKERSFIELD, CA, 93311","Match","Non_Exact","4316 THATCH AVE, BAKERSFIELD, CA, 93313",109091804,"L"
211416,"4316 W LANDING DRIVE","CHESAPEAKE","VA",23322,NA,NA,416,"4316 W LANDING DRIVE, CHESAPEAKE, VA, 23322","No_Match",NA,NA,NA,NA
211417,"4316 W ROBIN LANE","TAMPA","FL",33609,27.940349123,-82.516546392,417,"4316 W ROBIN LANE, TAMPA, FL, 33609","Match","Exact","4316 W ROBIN LN, TAMPA, FL, 33609",104525004,"L"
211418,"4316 WYOMING ST","SAINT LOUIS","MO",63116,38.600809041,-90.262383732,418,"4316 WYOMING ST, SAINT LOUIS, MO, 63116","Match","Exact","4316 WYOMING ST, SAINT LOUIS, MO, 63116",605128489,"L"
211419,"43160 OSGOOD ROAD","FREMONT","CA",94359,37.5203839330001,-121.946541793,419,"43160 OSGOOD ROAD, FREMONT, CA, 94359","Match","Non_Exact","43160 OSGOOD RD, FREMONT, CA, 94539",125081524,"R"
211420,"43164 COUNTY ROAD 112","SAUK CENTRE","MN",56378,45.7491788740001,-94.940276087,420,"43164 COUNTY ROAD 112, SAUK CENTRE, MN, 56378","Match","Exact","43164 CO RD 112, SAUK CENTRE, MN, 56378",107450742,"R"
211421,"43165 HADLEY CT","CANTON","MI",48188,42.2892633010001,-83.465685416,421,"43165 HADLEY CT, CANTON, MI, 48188","Match","Exact","43165 HADLEY CT, CANTON, MI, 48188",95409803,"L"
211422,"4317 68TH AVE NORTH","PINELLAS PARK","FL",33781,27.833778689,-82.692261516,422,"4317 68TH AVE NORTH, PINELLAS PARK, FL, 33781","Match","Exact","4317 68TH AVE N, PINELLAS PARK, FL, 33781",124697091,"R"
211423,"4317 BEACH DR E","PORT ORCHARD","WA",98366,47.57329199,-122.580943186,423,"4317 BEACH DR E, PORT ORCHARD, WA, 98366","Match","Exact","4317 BEACH DR E, PORT ORCHARD, WA, 98366",187664603,"R"
211424,"4317 CALLE DE NUBES","LAS CRUCES","NM",88012,32.3893671490001,-106.725663282,424,"4317 CALLE DE NUBES, LAS CRUCES, NM, 88012","Match","Non_Exact","4317 CLL DE NUBES, LAS CRUCES, NM, 88012",612713660,"R"
211425,"4317 DEGNAN BLVD","LOS ANGELES","CA",90008,34.0056035550001,-118.331458835,425,"4317 DEGNAN BLVD, LOS ANGELES, CA, 90008","Match","Exact","4317 DEGNAN BLVD, LOS ANGELES, CA, 90008",141602684,"R"
211426,"4317 DYER STREET","EL PASO","TX",79930,31.81495375,-106.444679574,426,"4317 DYER STREET, EL PASO, TX, 79930","Match","Exact","4317 DYER ST, EL PASO, TX, 79930",189374978,"L"
211427,"4317 HARTLAND WAY","RANCHO CORDOVA","CA",95742,38.546228822,-121.228524079,427,"4317 HARTLAND WAY, RANCHO CORDOVA, CA, 95742","Match","Exact","4317 HARTLAND WAY, RANCHO CORDOVA, CA, 95742",624660410,"L"
211428,"4317 JASMINE LN","MANSFIELD","TX",76063,32.557612104,-97.069135551,428,"4317 JASMINE LN, MANSFIELD, TX, 76063","Match","Exact","4317 JASMINE LN, MANSFIELD, TX, 76063",618507579,"L"
211429,"4317 LONE ROCK CT","PLANO","TX",75024,33.08514996,-96.776465404,429,"4317 LONE ROCK CT, PLANO, TX, 75024","Match","Exact","4317 LONE ROCK CT, PLANO, TX, 75024",123530699,"L"
211430,"4317 MOCKINGBIRD LN","DALLAS","TX",75205,32.8367248820001,-96.8090730329999,430,"4317 MOCKINGBIRD LN, DALLAS, TX, 75205","Match","Non_Exact","4317 MOCKINGBIRD PKWY, DALLAS, TX, 75205",102906597,"L"
211431,"4317 POPLAR DRIVE","PLOVER","WI",54467,44.4175510320001,-89.544832211,431,"4317 POPLAR DRIVE, PLOVER, WI, 54467","Match","Exact","4317 POPLAR DR, PLOVER, WI, 54467",126799119,"L"
211432,"4317 PRINCESS","NASHVILLE","TN",37218,36.2174556750001,-86.8618521289999,432,"4317 PRINCESS, NASHVILLE, TN, 37218","Match","Non_Exact","4317 PRINCESS LN, NASHVILLE, TN, 37218",97206874,"R"
211433,"4317 PRINCETON AVE","MIDLAND","TX",79703,31.9989168870001,-102.133055457,433,"4317 PRINCETON AVE, MIDLAND, TX, 79703","Match","Exact","4317 PRINCETON AVE, MIDLAND, TX, 79703",139579916,"L"
211434,"4317 ROBINSON ROAD BOX 59051","JACKSON","MS",39284,NA,NA,434,"4317 ROBINSON ROAD BOX 59051, JACKSON, MS, 39284","No_Match",NA,NA,NA,NA
211435,"4317 ROSEBRIAR WAY","FORT WORTH","TX",76244,32.9202796440001,-97.292949547,435,"4317 ROSEBRIAR WAY, FORT WORTH, TX, 76244","Match","Exact","4317 ROSEBRIAR WAY, FORT WORTH, TX, 76244",637606403,"L"
211436,"4317 S CAMBRIDGE ST","INDPEPENDENCE","MO",64055,39.0419611950001,-94.4107183,436,"4317 S CAMBRIDGE ST, INDPEPENDENCE, MO, 64055","Match","Non_Exact","4317 CAMBRIDGE ST, INDEPENDENCE, MO, 64055",91470292,"L"
211437,"4317 SEQUOIA DR","OAKLEY","CA",94561,37.9885148280001,-121.725937002,437,"4317 SEQUOIA DR, OAKLEY, CA, 94561","Match","Exact","4317 SEQUOIA DR, OAKLEY, CA, 94561",192082683,"R"
211438,"4317 SIR WALTER RD","OLNEY","MD",20832,39.1423267930001,-77.086377801,438,"4317 SIR WALTER RD, OLNEY, MD, 20832","Match","Exact","4317 SIR WALTER RD, OLNEY, MD, 20832",62084817,"R"
211439,"4317 SIR WALTER ROAD","OLNEY","MD",20832,39.1423267930001,-77.086377801,439,"4317 SIR WALTER ROAD, OLNEY, MD, 20832","Match","Exact","4317 SIR WALTER RD, OLNEY, MD, 20832",62084817,"R"
211440,"4317 THORP","KELLER","TX",76244,32.9194872900001,-97.292425515,440,"4317 THORP, KELLER, TX, 76244","Match","Non_Exact","4317 THORP LN, KELLER, TX, 76244",619870381,"L"
211441,"4317 THORPE","KELLER","TX",76244,32.9194872900001,-97.292425515,441,"4317 THORPE, KELLER, TX, 76244","Match","Non_Exact","4317 THORP LN, KELLER, TX, 76244",619870381,"L"
211442,"4317 WEST 6TH STREET","LAWRENCE","KS",66049,38.971529827,-95.290974749,442,"4317 WEST 6TH STREET, LAWRENCE, KS, 66049","Match","Exact","4317 W 6TH ST, LAWRENCE, KS, 66049",616184358,"L"
211443,"4317 YELLOWLEAF DRIVE","FORT WORTH","TX",76133,32.6303224870001,-97.38816926,443,"4317 YELLOWLEAF DRIVE, FORT WORTH, TX, 76133","Match","Exact","4317 YELLOWLEAF DR, FORT WORTH, TX, 76133",101883333,"R"
211444,"43172 COUNTY ROAD 1","RICE","MN",56367,45.748277111,-94.2650140269999,444,"43172 COUNTY ROAD 1, RICE, MN, 56367","Match","Exact","43172 CO RD 1, RICE, MN, 56367",107434331,"R"
211445,"43177 KATAMA SQ","CHANTILLY","VA",20152,38.9124327150001,-77.509083349,445,"43177 KATAMA SQ, CHANTILLY, VA, 20152","Match","Exact","43177 KATAMA SQ, CHANTILLY, VA, 20152",62338021,"R"
211446,"4318 22ND ST NE","WASHINGTON","DC",20018,38.942060955,-76.9741842559999,446,"4318 22ND ST NE, WASHINGTON, DC, 20018","Match","Exact","4318 22ND ST NE, WASHINGTON, DC, 20018",76229082,"L"
211447,"4318 COLEBROOK RD","CHARLOTTE","NC",28215,35.2391584260001,-80.749636408,447,"4318 COLEBROOK RD, CHARLOTTE, NC, 28215","Match","Exact","4318 COLEBROOK RD, CHARLOTTE, NC, 28215",70482088,"R"
211448,"4318 D  STREET  SE","WASHINGTON","DC",20019,38.884895386,-76.9432031549999,448,"4318 D  STREET  SE, WASHINGTON, DC, 20019","Match","Exact","4318 D ST SE, WASHINGTON, DC, 20019",76233668,"L"
211449,"4318 E BERNAU AVE","GREENSBORO","NC",27407,36.0363357150001,-79.872731846,449,"4318 E BERNAU AVE, GREENSBORO, NC, 27407","Match","Exact","4318 BERNAU AVE, GREENSBORO, NC, 27407",131043709,"R"
211450,"4318 E SAINT ANNE AVE","PHOENIX","AZ",85042,33.388040834,-111.989229165,450,"4318 E SAINT ANNE AVE, PHOENIX, AZ, 85042","Match","Exact","4318 E SAINT ANNE AVE, PHOENIX, AZ, 85042",128224881,"L"
211451,"4318 HERMAN RD SE","OLYMPIA","WA",98501,47.01433136,-122.841540762,451,"4318 HERMAN RD SE, OLYMPIA, WA, 98501","Match","Exact","4318 HERMAN RD SE, OLYMPIA, WA, 98501",647780327,"R"
211452,"4318 HILLSIDE COURT","NEW TRIPOLI","PA",18066,40.6334231370001,-75.695707103,452,"4318 HILLSIDE COURT, NEW TRIPOLI, PA, 18066","Match","Exact","4318 HILLSIDE CT, NEW TRIPOLI, PA, 18066",80791399,"L"
211453,"4318 KATONAH AVENUE","BRONX","NY",10470,40.899252942,-73.8674942599999,453,"4318 KATONAH AVENUE, BRONX, NY, 10470","Match","Exact","4318 KATONAH AVE, BRONX, NY, 10470",80296848,"R"
211454,"4318 MAGAZINE STREET","NEW ORLEANS","LA",70115,29.920878169,-90.1004482289999,454,"4318 MAGAZINE STREET, NEW ORLEANS, LA, 70115","Match","Exact","4318 MAGAZINE ST, NEW ORLEANS, LA, 70115",191713030,"L"
211455,"4318 MARBLE ARCH WAY","FLOWERY BRANCH","GA",30542,34.2022110250001,-83.842628516,455,"4318 MARBLE ARCH WAY, FLOWERY BRANCH, GA, 30542","Match","Exact","4318 MARBLE ARCH WAY, FLOWERY BR, GA, 30542",618455572,"R"
211456,"4318 MARYMONT SPRINGS BLVD","MURFREESBORO","TN",37128,35.824597736,-86.477417437,456,"4318 MARYMONT SPRINGS BLVD, MURFREESBORO, TN, 37128","Match","Exact","4318 MARYMONT SPRINGS BLVD, MURFREESBORO, TN, 37128",617751968,"R"
211457,"4318 MURPHY DR NW","GIG HARBOR","WA",98335,47.302454287,-122.59806986,457,"4318 MURPHY DR NW, GIG HARBOR, WA, 98335","Match","Exact","4318 MURPHY DR NW, GIG HARBOR, WA, 98335",184642553,"R"
211458,"4318 NORTH 13TH AVENUE","PHOENIX","AZ",85013,33.498685779,-112.089103953,458,"4318 NORTH 13TH AVENUE, PHOENIX, AZ, 85013","Match","Exact","4318 N 13TH AVE, PHOENIX, AZ, 85013",128206127,"L"
211459,"4318 NORTH SHERIDAN ROAD APT 1B","CHICAGO","IL",60613,41.959999043,-87.6547068799999,459,"4318 NORTH SHERIDAN ROAD APT 1B, CHICAGO, IL, 60613","Match","Exact","4318 N SHERIDAN RD, CHICAGO, IL, 60613",111761680,"L"
211460,"4318 NOTTAWAY PLACE DR","MATTHEWS","NC",28105,NA,NA,460,"4318 NOTTAWAY PLACE DR, MATTHEWS, NC, 28105","Tie",NA,NA,NA,NA
211461,"4318 PARKSIDE DR","BALTIMORE","MD",21206,39.326169861,-76.563815715,461,"4318 PARKSIDE DR, BALTIMORE, MD, 21206","Match","Exact","4318 PARKSIDE DR, BALTIMORE, MD, 21206",206411376,"L"
211462,"4318 RADCLIFFE DRIVE","PALM HARBOR","FL",34685,28.1133723400001,-82.7155442609999,462,"4318 RADCLIFFE DRIVE, PALM HARBOR, FL, 34685","Match","Exact","4318 RADCLIFFE DR, PALM HARBOR, FL, 34685",124772152,"L"
211463,"4318 ROAMING BREEZE ROAD","N LAS VEGAS","NV",89031,36.254619829,-115.199017864,463,"4318 ROAMING BREEZE ROAD, N LAS VEGAS, NV, 89031","Match","Non_Exact","4318 ROAMING BREEZE, N LAS VEGAS, NV, 89031",201908644,"R"
211464,"4318 S ARDEN CT","TAYLORSVILLE","UT",84123,40.677486436,-111.929071708,464,"4318 S ARDEN CT, TAYLORSVILLE, UT, 84123","Match","Exact","4318 S ARDEN CT, TAYLORSVILLE, UT, 84123",176103861,"L"
211465,"4318 SIEGEL STREET","HOUSTON","TX",77009,29.799136312,-95.366594471,465,"4318 SIEGEL STREET, HOUSTON, TX, 77009","Match","Exact","4318 SIEGEL ST, HOUSTON, TX, 77009",96058460,"R"
211466,"4318 SUPERIOR AVE","CHEYENNE","WY",82009,41.1569990880001,-104.755525605,466,"4318 SUPERIOR AVE, CHEYENNE, WY, 82009","Match","Non_Exact","4318 SUPERIOR AVE, CHEYENNE, WY, 82001",160152576,"L"
211467,"4318 W 136TH STREET UNIT B","HAWTHORNE","CA",90250,33.90859684,-118.35001856,467,"4318 W 136TH STREET UNIT B, HAWTHORNE, CA, 90250","Match","Non_Exact","4318 W 136TH ST, HAWTHORNE, CA, 90250",638700057,"L"
211468,"4318 W 25TH AVENUE","GARY","IN",46404,41.5733953530001,-87.3904695269999,468,"4318 W 25TH AVENUE, GARY, IN, 46404","Match","Exact","4318 W 25TH AVE, GARY, IN, 46404",98429930,"R"
211469,"4318 W SUMMERDALE AVE","CHICAGO","CO",60630,NA,NA,469,"4318 W SUMMERDALE AVE, CHICAGO, CO, 60630","No_Match",NA,NA,NA,NA
211470,"4319 -13TH AVENUE SUITE 302","BROOKLYN","NY",11219,NA,NA,470,"4319 -13TH AVENUE SUITE 302, BROOKLYN, NY, 11219","No_Match",NA,NA,NA,NA
211471,"4319 CAMBRIDGE AVE","EL PASO","TX",79903,31.7927784130001,-106.440052601,471,"4319 CAMBRIDGE AVE, EL PASO, TX, 79903","Match","Exact","4319 CAMBRIDGE AVE, EL PASO, TX, 79903",189344214,"L"
211472,"4319 CONNER COURT","SAN DIEGO","CA",92117,32.819644209,-117.22073724,472,"4319 CONNER COURT, SAN DIEGO, CA, 92117","Match","Exact","4319 CONNER CT, SAN DIEGO, CA, 92117",195302458,"R"
211473,"4319 E VASSAR AVE","VISALIA","CA",93292,36.313177852,-119.245094983,473,"4319 E VASSAR AVE, VISALIA, CA, 93292","Match","Exact","4319 E VASSAR AVE, VISALIA, CA, 93292",607602094,"R"
211474,"4319 E WESCOTT DRIVE","PHOENIX","AZ",85050,33.6592266640001,-111.988564329,474,"4319 E WESCOTT DRIVE, PHOENIX, AZ, 85050","Match","Exact","4319 E WESCOTT DR, PHOENIX, AZ, 85050",128875388,"R"
211475,"4319 HULMEVILLE ROAD","BENSALEM","PA",19020,40.1133598370001,-74.9336233339999,475,"4319 HULMEVILLE ROAD, BENSALEM, PA, 19020","Match","Exact","4319 HULMEVILLE RD, BENSALEM, PA, 19020",647090399,"R"
211476,"4319 MARCUS AVE","ST LOUIS CITY","MO",63115,38.679947527,-90.238433243,476,"4319 MARCUS AVE, ST LOUIS CITY, MO, 63115","Match","Non_Exact","4319 MARCUS AVE, SAINT LOUIS, MO, 63115",647679818,"L"
211477,"4319 MARKET STREET UNIT B","YOUNGSTOWN","OH",44512,41.055711409,-80.662783672,477,"4319 MARKET STREET UNIT B, YOUNGSTOWN, OH, 44512","Match","Exact","4319 MARKET ST, YOUNGSTOWN, OH, 44512",64598675,"L"
211478,"4319 N MOZART 1S","CHICAGO","IL",60618,NA,NA,478,"4319 N MOZART 1S, CHICAGO, IL, 60618","No_Match",NA,NA,NA,NA
211479,"4319 NE COURTNEY DR","LEES SUMMIT","MO",64064,38.9904008880001,-94.366533971,479,"4319 NE COURTNEY DR, LEES SUMMIT, MO, 64064","Match","Exact","4319 NE COURTNEY DR, LEES SUMMIT, MO, 64064",91503107,"R"
211480,"4319 NORTH 76TH STREET SUITE 02","MILWAUKEE","WI",53222,43.095819518,-88.007129123,480,"4319 NORTH 76TH STREET SUITE 02, MILWAUKEE, WI, 53222","Match","Exact","4319 N 76TH ST, MILWAUKEE, WI, 53222",77730271,"L"
211481,"4319 NORTH 76TH STREET SUITE 10","MIWAUKEE","WI",53222,43.095819518,-88.007129123,481,"4319 NORTH 76TH STREET SUITE 10, MIWAUKEE, WI, 53222","Match","Non_Exact","4319 N 76TH ST, MILWAUKEE, WI, 53222",77730271,"L"
211482,"4319 NW 115TH AVE","CORAL SPRINGS","FL",33065,26.284449796,-80.280829807,482,"4319 NW 115TH AVE, CORAL SPRINGS, FL, 33065","Match","Exact","4319 NW 115TH AVE, CORAL SPRINGS, FL, 33065",114689691,"R"
211483,"4319 OLD NORCROSS RD","DULUTH","GA",30096,33.9553473620001,-84.1614226999999,483,"4319 OLD NORCROSS RD, DULUTH, GA, 30096","Match","Exact","4319 OLD NORCROSS RD, DULUTH, GA, 30096",88951630,"R"
211484,"4319 OVERLAND PKWY","TOLEDO","OH",43612,41.696770423,-83.575211306,484,"4319 OVERLAND PKWY, TOLEDO, OH, 43612","Match","Exact","4319 OVERLAND PKWY, TOLEDO, OH, 43612",33934146,"L"
211485,"4319 ROBERTON AVE","BALTIMORE","MD",21206,39.324568454,-76.556013492,485,"4319 ROBERTON AVE, BALTIMORE, MD, 21206","Match","Exact","4319 ROBERTON AVE, BALTIMORE, MD, 21206",206449425,"R"
211486,"4319 ROSEMEAD PARKWAY APT 1012","DALLAS","TX",75287,NA,NA,486,"4319 ROSEMEAD PARKWAY APT 1012, DALLAS, TX, 75287","No_Match",NA,NA,NA,NA
211487,"4319 S NATIONAL AVE 111","SPRINGFIELD","MO",65810,NA,NA,487,"4319 S NATIONAL AVE 111, SPRINGFIELD, MO, 65810","No_Match",NA,NA,NA,NA
211488,"4319 S NATIONAL AVE NUM 212","SPRINGFIELD","MO",65810,NA,NA,488,"4319 S NATIONAL AVE NUM 212, SPRINGFIELD, MO, 65810","No_Match",NA,NA,NA,NA
211489,"4319 SAUNDERSVILLE RD","OLD HICKORY","TN",37217,36.2288697870001,-86.590764823,489,"4319 SAUNDERSVILLE RD, OLD HICKORY, TN, 37217","Match","Non_Exact","4319 SAUNDERSVILLE RD, OLD HICKORY, TN, 37138",636664314,"L"
211490,"4319 SILVA AVE","PALO ALTO","CA",94306,37.4085661450001,-122.114354054,490,"4319 SILVA AVE, PALO ALTO, CA, 94306","Match","Exact","4319 SILVA AVE, PALO ALTO, CA, 94306",122952754,"L"
211491,"4319 SOUTH 59TH DRIVE","PHOENIX","AZ",85043,33.409075622,-112.187160674,491,"4319 SOUTH 59TH DRIVE, PHOENIX, AZ, 85043","Match","Exact","4319 S 59TH DR, PHOENIX, AZ, 85043",128865078,"L"
211492,"4319 SOUTH NATIONAL AVENUE 211","SPRINGFIELD","MO",65810,NA,NA,492,"4319 SOUTH NATIONAL AVENUE 211, SPRINGFIELD, MO, 65810","No_Match",NA,NA,NA,NA
211493,"4319 STAGHORN LN","FRIENDSWOOD","TX",77546,29.5002217680001,-95.156599236,493,"4319 STAGHORN LN, FRIENDSWOOD, TX, 77546","Match","Exact","4319 STAGHORN LN, FRIENDSWOOD, TX, 77546",625721581,"R"
211494,"4319 TERRACE PINES DR","KINGWOOD","TX",77345,30.0627671570001,-95.1718225769999,494,"4319 TERRACE PINES DR, KINGWOOD, TX, 77345","Match","Exact","4319 TERRACE PINES DR, KINGWOOD, TX, 77345",96566866,"L"
211495,"4319 TWIN VALLEY ROAD  SUITE 15","MIDDLETON","WI",53562,NA,NA,495,"4319 TWIN VALLEY ROAD  SUITE 15, MIDDLETON, WI, 53562","No_Match",NA,NA,NA,NA
211496,"4319 W CLARA LANE PMB 119","MUNCIE","IN",47304,40.218580591,-85.437125217,496,"4319 W CLARA LANE PMB 119, MUNCIE, IN, 47304","Match","Non_Exact","4319 W CLARA LN, MUNCIE, IN, 47304",30848365,"L"
211497,"4319 WEST BUNK HOUSE ROAD","TUCSON","AZ",85746,32.352244763,-111.058027769,497,"4319 WEST BUNK HOUSE ROAD, TUCSON, AZ, 85746","Match","Non_Exact","4319 W BUNK HOUSE RD, TUCSON, AZ, 85741",121158477,"R"
211498,"43193 WHITTIER AVENUE","HEMET","CA",92544,33.73694765,-116.907314546,498,"43193 WHITTIER AVENUE, HEMET, CA, 92544","Match","Exact","43193 WHITTIER AVE, HEMET, CA, 92544",194803342,"L"
211499,"43195 OWEN PARK WAY","SOUTH RIDING","VA",20152,38.9137828200001,-77.508528251,499,"43195 OWEN PARK WAY, SOUTH RIDING, VA, 20152","Match","Exact","43195 OWEN PARK WAY, SOUTH RIDING, VA, 20152",62340093,"R"
211500,"43198 PARKERS RIDGE DR","LEESBURG","VA",20176,39.1015448580001,-77.504790311,500,"43198 PARKERS RIDGE DR, LEESBURG, VA, 20176","Match","Exact","43198 PARKERS RIDGE DR, LEESBURG, VA, 20176",62335700,"L"
