"ID","Address","City","State","Zip","lat","long","id","input_address","match_indicator","match_type","matched_address","tiger_line_id","tiger_side"
179001,"340 INYO ST","BAKERSFIELD","CA",93305,35.3721355430001,-118.999619889,1,"340 INYO ST, BAKERSFIELD, CA, 93305","Match","Exact","340 INYO ST, BAKERSFIELD, CA, 93305",640632773,"L"
179002,"340 ISTHMUS WAY - 56","OCEANSIDE","CA",92058,33.2051709020001,-117.367767446,2,"340 ISTHMUS WAY - 56, OCEANSIDE, CA, 92058","Match","Exact","340 ISTHMUS WAY, OCEANSIDE, CA, 92058",195447653,"L"
179003,"340 JACKSON AVE","SCOTCH PLAINS","NJ",7076,40.646958447,-74.4044852389999,3,"340 JACKSON AVE, SCOTCH PLAINS, NJ, 7076","Match","Exact","340 JACKSON AVE, SCOTCH PLAINS, NJ, 07076",60603661,"R"
179004,"340 JONES RD","VESTAL","NY",13850,42.064189249,-76.0459816809999,4,"340 JONES RD, VESTAL, NY, 13850","Match","Exact","340 JONES RD, VESTAL, NY, 13850",46373478,"R"
179005,"340 KINGS ROAD","MADISON HEIGHTS","VA",24572,37.451411426,-79.1422060799999,5,"340 KINGS ROAD, MADISON HEIGHTS, VA, 24572","Match","Exact","340 KINGS RD, MADISON HEIGHTS, VA, 24572",159122713,"R"
179006,"340 KINGSTON CIR","RICHMOND HILL","GA",31324,31.8597413050001,-81.266907449,6,"340 KINGSTON CIR, RICHMOND HILL, GA, 31324","Match","Exact","340 KINGSTON CIR, RICHMOND HILL, GA, 31324",628033575,"R"
179007,"340 KITTS HUMMOCK ROAD","DOVER","DE",19901,39.1035862310001,-75.4459941069999,7,"340 KITTS HUMMOCK ROAD, DOVER, DE, 19901","Match","Exact","340 KITTS HUMMOCK RD, DOVER, DE, 19901",68094463,"L"
179008,"340 LARKDALE ROW","WAUCONDA","IL",60084,42.2638706010001,-88.156946438,8,"340 LARKDALE ROW, WAUCONDA, IL, 60084","Match","Exact","340 LARKDALE ROW, WAUCONDA, IL, 60084",119632633,"R"
179009,"340 LASSO CT","ROSEVILLE","CA",95747,38.803533085,-121.350012796,9,"340 LASSO CT, ROSEVILLE, CA, 95747","Match","Exact","340 LASSO CT, ROSEVILLE, CA, 95747",645089627,"L"
179010,"340 LINEBERRY RD","VIRGINIA BEACH","VA",23452,36.829728883,-76.085515205,10,"340 LINEBERRY RD, VIRGINIA BEACH, VA, 23452","Match","Exact","340 LINEBERRY RD, VA BCH, VA, 23452",122267440,"L"
179011,"340 LOWELL STREET","WAKEFIELD","MA",1880,42.5184987060001,-71.066908933,11,"340 LOWELL STREET, WAKEFIELD, MA, 1880","Match","Exact","340 LOWELL ST, WAKEFIELD, MA, 01880",86903637,"L"
179012,"340 MAIN STREET SUITE 229","WORCESTER","MA",1608,42.2655371880001,-71.801313796,12,"340 MAIN STREET SUITE 229, WORCESTER, MA, 1608","Match","Exact","340 MAIN ST, WORCESTER, MA, 01608",40010367,"R"
179013,"340 MAIN STREET","PAINTSVILLE","KY",41240,37.8137205790001,-82.8073415379999,13,"340 MAIN STREET, PAINTSVILLE, KY, 41240","Match","Exact","340 MAIN ST, PAINTSVILLE, KY, 41240",33659816,"R"
179014,"340 MAIN STREET","WORCEST","MA",1608,42.2655371880001,-71.801313796,14,"340 MAIN STREET, WORCEST, MA, 1608","Match","Non_Exact","340 MAIN ST, WORCESTER, MA, 01608",40010367,"R"
179015,"340 MARSHALLS COVE","MILTON","GA",30004,34.140333717,-84.349604541,15,"340 MARSHALLS COVE, MILTON, GA, 30004","Match","Exact","340 MARSHALLS COVE, MILTON, GA, 30004",623711176,"R"
179016,"340 MCGRUDER ROAD","SAWYERVILLE","AL",36776,32.8030809730001,-87.7784180529999,16,"340 MCGRUDER ROAD, SAWYERVILLE, AL, 36776","Match","Exact","340 MCGRUDER RD, SAWYERVILLE, AL, 36776",653331915,"L"
179017,"340 MIDDLEFIELD ST","MIDDLETOWN","CT",6457,41.5454076670001,-72.681509514,17,"340 MIDDLEFIELD ST, MIDDLETOWN, CT, 6457","Match","Exact","340 MIDDLEFIELD ST, MIDDLETOWN, CT, 06457",113888802,"L"
179018,"340 MILES AVE","ORCUTT","CA",93455,34.895048597,-120.432761762,18,"340 MILES AVE, ORCUTT, CA, 93455","Match","Exact","340 MILES AVE, ORCUTT, CA, 93455",108596631,"R"
179019,"340 MILLER ROAD","GETZVILLE","NY",14068,43.0331845010001,-78.7529851739999,19,"340 MILLER ROAD, GETZVILLE, NY, 14068","Match","Exact","340 MILLER RD, GETZVILLE, NY, 14068",639749173,"L"
179020,"340 N 12TH STREET SUITE 303","PHILADELPHIA","PA",19107,NA,NA,20,"340 N 12TH STREET SUITE 303, PHILADELPHIA, PA, 19107","Tie",NA,NA,NA,NA
179021,"340 N COLLIER ST","COQUILLE","OR",97423,43.177273696,-124.185800387,21,"340 N COLLIER ST, COQUILLE, OR, 97423","Match","Exact","340 N COLLIER ST, COQUILLE, OR, 97423",136991075,"R"
179022,"340 N DEARBORN AVE SUITE 219","KANKAKEE","IL",60901,NA,NA,22,"340 N DEARBORN AVE SUITE 219, KANKAKEE, IL, 60901","Tie",NA,NA,NA,NA
179023,"340 N MAIN STREET SUITE 209","PLYMOUTH","MI",48170,NA,NA,23,"340 N MAIN STREET SUITE 209, PLYMOUTH, MI, 48170","Tie",NA,NA,NA,NA
179024,"340 N PLEASANT VALLEY RD SUITE 2073","WINCHESTER","VA",22601,NA,NA,24,"340 N PLEASANT VALLEY RD SUITE 2073, WINCHESTER, VA, 22601","Tie",NA,NA,NA,NA
179025,"340 N SAM HOUSTON PARKWAY STE 234","HOUSTON","TX",77060,29.939491317,-95.399678518,25,"340 N SAM HOUSTON PARKWAY STE 234, HOUSTON, TX, 77060","Match","Exact","340 SAM HOUSTON PKWY, HOUSTON, TX, 77060",638180071,"R"
179026,"340 N SAM HOUSTON PARKWAY","HOUSTON","TX",77060,29.939499541,-95.3997133029999,26,"340 N SAM HOUSTON PARKWAY, HOUSTON, TX, 77060","Match","Exact","340 SAM HOUSTON PKWY, HOUSTON, TX, 77060",638180071,"R"
179027,"340 N SAM HOUSTON PKWY E SUITE A258","HOUSTON","TX",77060,29.939491317,-95.399678518,27,"340 N SAM HOUSTON PKWY E SUITE A258, HOUSTON, TX, 77060","Match","Non_Exact","340 SAM HOUSTON PKWY, HOUSTON, TX, 77060",638180071,"R"
179028,"340 N VINE ST","DESHLER","OH",43516,41.2121701140001,-83.903627656,28,"340 N VINE ST, DESHLER, OH, 43516","Match","Exact","340 N VINE ST, DESHLER, OH, 43516",33784081,"R"
179029,"340 N WESTLAKE BLVD STE 210","WESTLAKE VILLAGE","CA",91362,NA,NA,29,"340 N WESTLAKE BLVD STE 210, WESTLAKE VILLAGE, CA, 91362","No_Match",NA,NA,NA,NA
179030,"340 N WESTLAKE BLVD SUITE 150","WESTLAKE VILLAGE","CA",91362,NA,NA,30,"340 N WESTLAKE BLVD SUITE 150, WESTLAKE VILLAGE, CA, 91362","No_Match",NA,NA,NA,NA
179031,"340 NEALS CREEK ROAD   POB 457","BAYBORO","NC",28515,35.1377291840001,-76.783402176,31,"340 NEALS CREEK ROAD   POB 457, BAYBORO, NC, 28515","Match","Exact","340 NEALS CREEK RD, BAYBORO, NC, 28515",67923296,"L"
179032,"340 NINTH STREET","EUREKA","MT",59917,NA,NA,32,"340 NINTH STREET, EUREKA, MT, 59917","No_Match",NA,NA,NA,NA
179033,"340 NORTH AUSTIN","BAZINE","KS",67516,NA,NA,33,"340 NORTH AUSTIN, BAZINE, KS, 67516","No_Match",NA,NA,NA,NA
179034,"340 NORTH AVE","CRANFORD","NJ",7016,NA,NA,34,"340 NORTH AVE, CRANFORD, NJ, 7016","Tie",NA,NA,NA,NA
179035,"340 NORTH LANSDOWNE AVENUE","LANSDOWNE","PA",19050,39.950181555,-75.2807246149999,35,"340 NORTH LANSDOWNE AVENUE, LANSDOWNE, PA, 19050","Match","Exact","340 N LANSDOWNE AVE, LANSDOWNE, PA, 19050",652458000,"L"
179036,"340 NORTH MADISON AVENUE","LOS ANGELES","CA",90004,34.076925391,-118.289148257,36,"340 NORTH MADISON AVENUE, LOS ANGELES, CA, 90004","Match","Exact","340 N MADISON AVE, LOS ANGELES, CA, 90004",141604401,"R"
179037,"340 NORTH MAIN STREET","NATICK","MA",1760,42.314929803,-71.361844344,37,"340 NORTH MAIN STREET, NATICK, MA, 1760","Match","Exact","340 N MAIN ST, NATICK, MA, 01760",86851960,"L"
179038,"340 NORTH PROSPECTORS ROAD","DIAMOND BAR","CA",91765,34.0259652610001,-117.81707917,38,"340 NORTH PROSPECTORS ROAD, DIAMOND BAR, CA, 91765","Match","Exact","340 N PROSPECTORS RD, DIAMOND BAR, CA, 91765",141728970,"R"
179039,"340 NW 23RD PL","MIAMI","FL",33125,25.7762287800001,-80.234653139,39,"340 NW 23RD PL, MIAMI, FL, 33125","Match","Non_Exact","340 NW 23RD PL, MIAMI, FL, 33125",640561559,"L"
179040,"340 NW 4TH COURT","DEERFIELD BEACH","FL",33441,26.3231987200001,-80.108715887,40,"340 NW 4TH COURT, DEERFIELD BEACH, FL, 33441","Match","Non_Exact","340 NW 4TH CT, DEERFIELD BEACH, FL, 33441",114739807,"R"
179041,"340 OAK STREET","MADISONVILLE","KY",42431,37.320755606,-87.5061380449999,41,"340 OAK STREET, MADISONVILLE, KY, 42431","Match","Exact","340 OAK ST, MADISONVILLE, KY, 42431",11502416,"L"
179042,"340 OCEAN DRIVE","JUNO BEACH","FL",33408,26.8724611540001,-80.052564106,42,"340 OCEAN DRIVE, JUNO BEACH, FL, 33408","Match","Exact","340 OCEAN DR, JUNO BEACH, FL, 33408",115274763,"R"
179043,"340 OFFICE CT","FAIRVIEW HEIGHTS","IL",62208,38.6033443310001,-89.979844595,43,"340 OFFICE CT, FAIRVIEW HEIGHTS, IL, 62208","Match","Exact","340 OFFICE CT, FAIRVIEW HTS, IL, 62208",648045706,"R"
179044,"340 ORANGE DRIVE","LAUREL","MS",39443,31.630995323,-89.062589691,44,"340 ORANGE DRIVE, LAUREL, MS, 39443","Match","Exact","340 ORANGE DR, LAUREL, MS, 39443",611076337,"R"
179045,"340 PINE HILL LANE","BOONES MILL","VA",24065,37.098023315,-79.9856685189999,45,"340 PINE HILL LANE, BOONES MILL, VA, 24065","Match","Exact","340 PINE HILL LN, BOONES MILL, VA, 24065",647353524,"R"
179046,"340 PLENMAR DRIVE","SHEPHERDSVILLE","KY",40165,37.9202864440001,-85.6753365169999,46,"340 PLENMAR DRIVE, SHEPHERDSVILLE, KY, 40165","Match","Exact","340 PLENMAR DR, SHEPHERDSVILLE, KY, 40165",47742024,"L"
179047,"340 PROSPECT PL","ALPHARETTA","GA",30005,NA,NA,47,"340 PROSPECT PL, ALPHARETTA, GA, 30005","No_Match",NA,NA,NA,NA
179048,"340 QUARRY RD","FANCY GAP","VA",24328,36.6809792350001,-80.621591226,48,"340 QUARRY RD, FANCY GAP, VA, 24328","Match","Non_Exact","340 QUARREY RD, FANCY GAP, VA, 24328",653478777,"R"
179049,"340 RIGSBY STREET","LA HABRA","CA",90631,33.934663291,-117.973636979,49,"340 RIGSBY STREET, LA HABRA, CA, 90631","Match","Exact","340 RIGSBY ST, LA HABRA, CA, 90631",143997704,"R"
179050,"340 ROBINSON LANE","WILMINGTON","DE",19805,39.7325469420001,-75.577137125,50,"340 ROBINSON LANE, WILMINGTON, DE, 19805","Match","Exact","340 ROBINSON LN, WILMINGTON, DE, 19805",187255388,"R"
179051,"340 ROSEWOOD AVENUE SUITE J","CAMARILLO","CA",93010,34.2206269760001,-119.06158298,51,"340 ROSEWOOD AVENUE SUITE J, CAMARILLO, CA, 93010","Match","Exact","340 ROSEWOOD AVE, CAMARILLO, CA, 93010",109960137,"R"
179052,"340 ROYAL POINCIANA WAY STE 317 176","PALM BEACH","FL",33480,26.7181460250001,-80.043330284,52,"340 ROYAL POINCIANA WAY STE 317 176, PALM BEACH, FL, 33480","Match","Exact","340 ROYAL POINCIANA WAY, PALM BEACH, FL, 33480",115279677,"L"
179053,"340 ROYAL POINCIANA WAY STE 317-127","PALM BEACH","FL",33480,26.7181460250001,-80.043330284,53,"340 ROYAL POINCIANA WAY STE 317-127, PALM BEACH, FL, 33480","Match","Exact","340 ROYAL POINCIANA WAY, PALM BEACH, FL, 33480",115279677,"L"
179054,"340 ROYAL POINCIANA WAY STE 317-191","PALM BEACH","FL",33480,26.7181460250001,-80.043330284,54,"340 ROYAL POINCIANA WAY STE 317-191, PALM BEACH, FL, 33480","Match","Exact","340 ROYAL POINCIANA WAY, PALM BEACH, FL, 33480",115279677,"L"
179055,"340 S 4TH STREET","AURORA","IL",60505,41.7495915200001,-88.3139106579999,55,"340 S 4TH STREET, AURORA, IL, 60505","Match","Exact","340 S 4TH ST, AURORA, IL, 60505",119516148,"L"
179056,"340 S BEACH STREET SUITE 140","DAYTONA BEACH","FL",32114,29.207519984,-81.017129976,56,"340 S BEACH STREET SUITE 140, DAYTONA BEACH, FL, 32114","Match","Non_Exact","340 S BEACH ST, DAYTONA BEACH, FL, 32114",639870248,"R"
179057,"340 S CLOVERDALE AVENUE APT 303","LOS ANGELES","CA",90036,34.068084588,-118.346157792,57,"340 S CLOVERDALE AVENUE APT 303, LOS ANGELES, CA, 90036","Match","Non_Exact","340 S CLOVERDALE AVE, LOS ANGELES, CA, 90036",141600036,"L"
179058,"340 S LEMON AVE  NUM 2667","WALNUT","CA",91789,34.0194121910001,-117.865390166,58,"340 S LEMON AVE  NUM 2667, WALNUT, CA, 91789","Match","Exact","340 LEMON AVE, WALNUT, CA, 91789",241246087,"R"
179059,"340 S LEMON AVE - 7303","WALNUT","CA",91789,34.0194121910001,-117.865390166,59,"340 S LEMON AVE - 7303, WALNUT, CA, 91789","Match","Exact","340 LEMON AVE, WALNUT, CA, 91789",241246087,"R"
179060,"340 S LEMON AVE / 9159","WALNUT","CA",91789,34.0194121910001,-117.865390166,60,"340 S LEMON AVE / 9159, WALNUT, CA, 91789","Match","Exact","340 LEMON AVE, WALNUT, CA, 91789",241246087,"R"
179061,"340 S LEMON AVE 1437","WALNUT","CA",91789,34.0194121910001,-117.865390166,61,"340 S LEMON AVE 1437, WALNUT, CA, 91789","Match","Exact","340 LEMON AVE, WALNUT, CA, 91789",241246087,"R"
179062,"340 S LEMON AVE 2069","WALNUT","CA",91789,34.0194121910001,-117.865390166,62,"340 S LEMON AVE 2069, WALNUT, CA, 91789","Match","Exact","340 LEMON AVE, WALNUT, CA, 91789",241246087,"R"
179063,"340 S LEMON AVE 6333","WALNUT","CA",91789,34.0194121910001,-117.865390166,63,"340 S LEMON AVE 6333, WALNUT, CA, 91789","Match","Exact","340 LEMON AVE, WALNUT, CA, 91789",241246087,"R"
179064,"340 S LEMON AVE 9119","WALNUT","CA",91789,34.0194121910001,-117.865390166,64,"340 S LEMON AVE 9119, WALNUT, CA, 91789","Match","Exact","340 LEMON AVE, WALNUT, CA, 91789",241246087,"R"
179065,"340 S LEMON AVE 9511","WALNUT","CA",91789,34.0194121910001,-117.865390166,65,"340 S LEMON AVE 9511, WALNUT, CA, 91789","Match","Exact","340 LEMON AVE, WALNUT, CA, 91789",241246087,"R"
179066,"340 S LEMON AVE 9595","WALNUT","CA",91789,34.0194121910001,-117.865390166,66,"340 S LEMON AVE 9595, WALNUT, CA, 91789","Match","Exact","340 LEMON AVE, WALNUT, CA, 91789",241246087,"R"
179067,"340 S LEMON AVE NO 7442","WALNUT","CA",91789,34.0194121910001,-117.865390166,67,"340 S LEMON AVE NO 7442, WALNUT, CA, 91789","Match","Non_Exact","340 LEMON AVE, WALNUT, CA, 91789",241246087,"R"
179068,"340 S LEMON AVE NUM 3265","WALNUT","CA",91789,34.0194121910001,-117.865390166,68,"340 S LEMON AVE NUM 3265, WALNUT, CA, 91789","Match","Exact","340 LEMON AVE, WALNUT, CA, 91789",241246087,"R"
179069,"340 S LEMON AVE NUM 6071","WALNUT","CA",91798,34.0194121910001,-117.865390166,69,"340 S LEMON AVE NUM 6071, WALNUT, CA, 91798","Match","Non_Exact","340 LEMON AVE, WALNUT, CA, 91789",241246087,"R"
179070,"340 S LEMON AVE NUM 7222","WALNUT","CA",91789,34.0194121910001,-117.865390166,70,"340 S LEMON AVE NUM 7222, WALNUT, CA, 91789","Match","Exact","340 LEMON AVE, WALNUT, CA, 91789",241246087,"R"
179071,"340 S LEMON AVE NUM 9334","WALNUT","CA",91789,34.0194121910001,-117.865390166,71,"340 S LEMON AVE NUM 9334, WALNUT, CA, 91789","Match","Exact","340 LEMON AVE, WALNUT, CA, 91789",241246087,"R"
179072,"340 S LEMON AVE NUMBER 1531","WALNUT","CA",91789,34.0194121910001,-117.865390166,72,"340 S LEMON AVE NUMBER 1531, WALNUT, CA, 91789","Match","Exact","340 LEMON AVE, WALNUT, CA, 91789",241246087,"R"
179073,"340 S LEMON AVE NUMBER 4089","WALNUT","CA",91789,34.0194121910001,-117.865390166,73,"340 S LEMON AVE NUMBER 4089, WALNUT, CA, 91789","Match","Exact","340 LEMON AVE, WALNUT, CA, 91789",241246087,"R"
179074,"340 S LEMON AVE STE 1077","WALNUT","CA",91789,34.0194121910001,-117.865390166,74,"340 S LEMON AVE STE 1077, WALNUT, CA, 91789","Match","Exact","340 LEMON AVE, WALNUT, CA, 91789",241246087,"R"
179075,"340 S LEMON AVE STE 1514","WALNUT","CA",91789,34.0194121910001,-117.865390166,75,"340 S LEMON AVE STE 1514, WALNUT, CA, 91789","Match","Exact","340 LEMON AVE, WALNUT, CA, 91789",241246087,"R"
179076,"340 S LEMON AVE STE 6870","WALNUT","CA",91789,34.0194121910001,-117.865390166,76,"340 S LEMON AVE STE 6870, WALNUT, CA, 91789","Match","Exact","340 LEMON AVE, WALNUT, CA, 91789",241246087,"R"
179077,"340 S LEMON AVE STE 9330","WALNUT","CA",91789,34.0194121910001,-117.865390166,77,"340 S LEMON AVE STE 9330, WALNUT, CA, 91789","Match","Exact","340 LEMON AVE, WALNUT, CA, 91789",241246087,"R"
179078,"340 S LEMON AVE SUITE 2220","WALNUT","CA",91789,34.0194121910001,-117.865390166,78,"340 S LEMON AVE SUITE 2220, WALNUT, CA, 91789","Match","Exact","340 LEMON AVE, WALNUT, CA, 91789",241246087,"R"
179079,"340 S LEMON AVE UNIT 7879","WALNUT","CA",91789,34.0194121910001,-117.865390166,79,"340 S LEMON AVE UNIT 7879, WALNUT, CA, 91789","Match","Exact","340 LEMON AVE, WALNUT, CA, 91789",241246087,"R"
179080,"340 S LEMON AVE","WALNUT","CA",91789,34.0194244910001,-117.865396091,80,"340 S LEMON AVE, WALNUT, CA, 91789","Match","Exact","340 LEMON AVE, WALNUT, CA, 91789",241246087,"R"
179081,"340 S LEMON AVENUE - UNIT 2073","WALNUT","CA",91789,34.0194121910001,-117.865390166,81,"340 S LEMON AVENUE - UNIT 2073, WALNUT, CA, 91789","Match","Exact","340 LEMON AVE, WALNUT, CA, 91789",241246087,"R"
179082,"340 S LEMON AVENUE 2925","WALNUT","CA",91789,34.0194121910001,-117.865390166,82,"340 S LEMON AVENUE 2925, WALNUT, CA, 91789","Match","Exact","340 LEMON AVE, WALNUT, CA, 91789",241246087,"R"
179083,"340 S LOCKBURN ST","INDIANAPOLIS","IN",46241,39.7607829890001,-86.2283185169999,83,"340 S LOCKBURN ST, INDIANAPOLIS, IN, 46241","Match","Exact","340 S LOCKBURN ST, INDIANAPOLIS, IN, 46241",107980442,"R"
179084,"340 S MAIN ST","FREELAND","MI",48623,NA,NA,84,"340 S MAIN ST, FREELAND, MI, 48623","No_Match",NA,NA,NA,NA
179085,"340 S OCEAN BLVD","DELRAY BEACH","FL",33483,26.4687356900001,-80.057136121,85,"340 S OCEAN BLVD, DELRAY BEACH, FL, 33483","Match","Non_Exact","340 N OCEAN BLVD, DELRAY BEACH, FL, 33483",614290966,"L"
179086,"340 S OSTRANDER RD","EAST AURORA","NY",14052,NA,NA,86,"340 S OSTRANDER RD, EAST AURORA, NY, 14052","No_Match",NA,NA,NA,NA
179087,"340 S WAGGONER RD","REYNOLDSBURG","OH",43068,39.984400787,-82.7912885,87,"340 S WAGGONER RD, REYNOLDSBURG, OH, 43068","Match","Exact","340 WAGGONER RD, REYNOLDSBURG, OH, 43068",135618915,"L"
179088,"340 SAM HOUSTON PKWY E   SUITE A262","HOUSTON","TX",77060,NA,NA,88,"340 SAM HOUSTON PKWY E   SUITE A262, HOUSTON, TX, 77060","No_Match",NA,NA,NA,NA
179089,"340 SAN MARCUS DR","VALLEJO","CA",94590,38.0890565440001,-122.236960643,89,"340 SAN MARCUS DR, VALLEJO, CA, 94590","Match","Exact","340 SAN MARCUS DR, VALLEJO, CA, 94590",192529514,"L"
179090,"340 SAPPHIRE BEND","RIVERDALE","GA",30296,33.5577893110001,-84.471961914,90,"340 SAPPHIRE BEND, RIVERDALE, GA, 30296","Match","Exact","340 SAPPHIRE BEND, RIVERDALE, GA, 30296",625040945,"R"
179091,"340 SE 3RD ST","MIAMI","FL",33131,25.771738962,-80.18843005,91,"340 SE 3RD ST, MIAMI, FL, 33131","Match","Exact","340 SE 3RD ST, MIAMI, FL, 33131",650146947,"R"
179092,"340 SE HIGH STREET","MITCHELL","OR",97750,44.565374483,-120.147779998,92,"340 SE HIGH STREET, MITCHELL, OR, 97750","Match","Exact","340 SE HIGH ST, MITCHELL, OR, 97750",153314947,"R"
179093,"340 SKENES AVENUE","HENDERSON","NC",27536,36.3091219020001,-78.403741571,93,"340 SKENES AVENUE, HENDERSON, NC, 27536","Match","Exact","340 SKENES AVE, HENDERSON, NC, 27536",90271803,"L"
179094,"340 SNOW POND ROAD","OAKLAND","ME",4963,44.515719157,-69.74900337,94,"340 SNOW POND ROAD, OAKLAND, ME, 4963","Match","Exact","340 SNOW POND RD, OAKLAND, ME, 04963",75486545,"R"
179095,"340 SOKOKIS TRAIL","WATERBORO","ME",4030,43.5859749900001,-70.703443857,95,"340 SOKOKIS TRAIL, WATERBORO, ME, 4030","Match","Non_Exact","340 SOKOKIS TRL, EAST WATERBORO, ME, 04030",92785849,"L"
179096,"340 SOUTH 3RD STREET SUITE C5","BROOKLYN","NY",11211,40.7092687900001,-73.953642668,96,"340 SOUTH 3RD STREET SUITE C5, BROOKLYN, NY, 11211","Match","Exact","340 S 3RD ST, BROOKLYN, NY, 11211",59076748,"R"
179097,"340 SOUTH LEMON AVE UNIT 6026","WALNUT","CA",91789,34.0194244910001,-117.865396091,97,"340 SOUTH LEMON AVE UNIT 6026, WALNUT, CA, 91789","Match","Non_Exact","340 LEMON AVE, WALNUT, CA, 91789",241246087,"R"
179098,"340 SOUTH LEMON AVENUE UNIT 1494","WALNUT","CA",91789,34.0194244910001,-117.865396091,98,"340 SOUTH LEMON AVENUE UNIT 1494, WALNUT, CA, 91789","Match","Non_Exact","340 LEMON AVE, WALNUT, CA, 91789",241246087,"R"
179099,"340 SOUTH STATE ROAD","BRIARCLIFF MANOR","NY",10510,41.1345012020001,-73.8194821879999,99,"340 SOUTH STATE ROAD, BRIARCLIFF MANOR, NY, 10510","Match","Exact","340 S STATE RD, BRIARCLIFF MANOR, NY, 10510",139840686,"L"
179100,"340 SPENCER LANE","BOSQUE FARMS","NM",87068,34.8475151970001,-106.68623344,100,"340 SPENCER LANE, BOSQUE FARMS, NM, 87068","Match","Exact","340 SPENCER LN, BOSQUE FARMS, NM, 87068",611874441,"R"
179101,"340 STALLINGS ROAD","MILLEDGEVILLE","GA",31061,33.1060625150001,-83.411756326,101,"340 STALLINGS ROAD, MILLEDGEVILLE, GA, 31061","Match","Non_Exact","340 STALLINGS RD NW, MILLEDGEVILLE, GA, 31061",16593127,"R"
179102,"340 SYLVAN DR 340 SYLVAN DR","GOLETA","CA",93117,34.445291282,-119.823134296,102,"340 SYLVAN DR 340 SYLVAN DR, GOLETA, CA, 93117","Match","Exact","340 SYLVAN DR, GOLETA, CA, 93117",108601424,"R"
179103,"340 TAYLOR ST","TALENT","OR",97540,42.2353688810001,-122.773658802,103,"340 TAYLOR ST, TALENT, OR, 97540","Match","Exact","340 TAYLOR ST, TALENT, OR, 97540",155521232,"L"
179104,"340 TURNBERRY PLACE SUITE I","ST PETERS","MO",63376,NA,NA,104,"340 TURNBERRY PLACE SUITE I, ST PETERS, MO, 63376","No_Match",NA,NA,NA,NA
179105,"340 UNITED WAY APT A 14","DOVER","DE",19904,39.1584465990001,-75.514992895,105,"340 UNITED WAY APT A 14, DOVER, DE, 19904","Match","Non_Exact","340 UNITED WAY, DOVER, DE, 19901",641075054,"R"
179106,"340 VALLEY SPRING ROAD","COLUMBIA","SC",29223,34.1156836690001,-80.894825063,106,"340 VALLEY SPRING ROAD, COLUMBIA, SC, 29223","Match","Exact","340 VALLEY SPRINGS RD, COLUMBIA, SC, 29223",71826796,"R"
179107,"340 VETERAN HILL ROAD","HORSEHEADS","NY",14845,42.2070603550001,-76.7843337909999,107,"340 VETERAN HILL ROAD, HORSEHEADS, NY, 14845","Match","Exact","340 VETERAN HILL RD, HORSEHEADS, NY, 14845",18554267,"L"
179108,"340 VICTORIA LANE","STOCKBRIDGE","GA",30281,33.49743224,-84.250879456,108,"340 VICTORIA LANE, STOCKBRIDGE, GA, 30281","Match","Exact","340 VICTORIA LN, STOCKBRIDGE, GA, 30281",23202560,"R"
179109,"340 W 85TH ST","NEW YORK","NY",10024,40.7887640110001,-73.979702635,109,"340 W 85TH ST, NEW YORK, NY, 10024","Match","Exact","340 W 85TH ST, NEW YORK, NY, 10024",611170510,"L"
179110,"340 W DIVERSEY PARKWAY UNIT 1717","CHICAGO","IL",60657,41.9329298960001,-87.638884838,110,"340 W DIVERSEY PARKWAY UNIT 1717, CHICAGO, IL, 60657","Match","Non_Exact","340 W DIVERSEY PKWY, CHICAGO, IL, 60657",111766921,"R"
179111,"340 W HIGHLAND DR","LAKELAND","FL",33813,27.9857934610001,-81.959251719,111,"340 W HIGHLAND DR, LAKELAND, FL, 33813","Match","Exact","340 W HIGHLAND DR, LAKELAND, FL, 33813",104888842,"L"
179112,"340 W HWY 276","WEST TAWAKONI","TX",75474,NA,NA,112,"340 W HWY 276, WEST TAWAKONI, TX, 75474","No_Match",NA,NA,NA,NA
179113,"340 W QUARRY STREET","DEERFIELD","WI",53531,43.0482154520001,-89.082548235,113,"340 W QUARRY STREET, DEERFIELD, WI, 53531","Match","Exact","340 W QUARRY ST, DEERFIELD, WI, 53531",49557813,"R"
179114,"340 W WICKENBURG WAY STE A PMB 64","WICKENBURG","AZ",85390,NA,NA,114,"340 W WICKENBURG WAY STE A PMB 64, WICKENBURG, AZ, 85390","Tie",NA,NA,NA,NA
179115,"340 WEST 28TH STREET APT 7J","NEW YORK","NY",10001,40.7493474400001,-73.99740135,115,"340 WEST 28TH STREET APT 7J, NEW YORK, NY, 10001","Match","Exact","340 W 28TH ST, NEW YORK, NY, 10001",610199410,"L"
179116,"340 WEST 87TH STREET APT 5A","NEW YORK","NY",10025,40.790004917,-73.978424686,116,"340 WEST 87TH STREET APT 5A, NEW YORK, NY, 10025","Match","Non_Exact","340 W 87TH ST, NEW YORK, NY, 10024",650153294,"L"
179117,"340 WEST BUTLER DRIVE","CHAFONT","PA",18914,40.2744040150001,-75.219520723,117,"340 WEST BUTLER DRIVE, CHAFONT, PA, 18914","Match","Non_Exact","340 W BUTLER AVE, CHALFONT, PA, 18914",134700565,"L"
179118,"340 WEST BUTTERFIELD ROAD SUITE 2A","EL","IL",60126,41.8657648940001,-87.9491366409999,118,"340 WEST BUTTERFIELD ROAD SUITE 2A, EL, IL, 60126","Match","Non_Exact","340 W BUTTERFIELD RD, ELMHURST, IL, 60126",639231651,"R"
179119,"340 WEST KING STREET","ABBOTTSTOWN","PA",17301,39.885018587,-76.990318396,119,"340 WEST KING STREET, ABBOTTSTOWN, PA, 17301","Match","Exact","340 W KING ST, ABBOTTSTOWN, PA, 17301",60855425,"R"
179120,"340 WEST PINES DRIVE","MONTGOMERY","TX",77356,30.4248374370001,-95.652516638,120,"340 WEST PINES DRIVE, MONTGOMERY, TX, 77356","Match","Exact","340 W PINES DR, MONTGOMERY, TX, 77356",625401762,"L"
179121,"340 WILDWOOD LAKE COURT","SUWANEE","GA",30024,34.0062821990001,-84.0302349249999,121,"340 WILDWOOD LAKE COURT, SUWANEE, GA, 30024","Match","Exact","340 WILDWOOD LAKE CT, SUWANEE, GA, 30024",88918311,"L"
179122,"340 WOODMERE CREEK LN","BIRMINGHAM","AL",35226,33.4316626950001,-86.8148385919999,122,"340 WOODMERE CREEK LN, BIRMINGHAM, AL, 35226","Match","Exact","340 WOODMERE CREEK LN, BIRMINGHAM, AL, 35226",624091722,"L"
179123,"3400 13TH ST SE","MINOT","ND",58701,48.2280911350001,-101.274038766,123,"3400 13TH ST SE, MINOT, ND, 58701","Match","Exact","3400 13TH ST SE, MINOT, ND, 58701",200521870,"L"
179124,"3400 1ST STREET N SUITE 404","ST CLOUD","MN",56303,45.5550157580001,-94.199680969,124,"3400 1ST STREET N SUITE 404, ST CLOUD, MN, 56303","Match","Exact","3400 1ST ST N, SAINT CLOUD, MN, 56303",107414409,"L"
179125,"3400 25TH STREET S APT 27","ARLINGTON","VA",22206,38.847255331,-77.083977868,125,"3400 25TH STREET S APT 27, ARLINGTON, VA, 22206","Match","Exact","3400 25TH ST S, ARLINGTON, VA, 22206",76471818,"L"
179126,"3400 33RD PLACE NORTH","BIRMINGHAM","AL",35207,33.558985971,-86.799113056,126,"3400 33RD PLACE NORTH, BIRMINGHAM, AL, 35207","Match","Exact","3400 33RD PL N, BIRMINGHAM, AL, 35207",81728311,"L"
179127,"3400 3RD AVE SOUTH","MINNEAPOLIS","MN",55408,44.941218314,-93.272764819,127,"3400 3RD AVE SOUTH, MINNEAPOLIS, MN, 55408","Match","Exact","3400 3RD AVE S, MINNEAPOLIS, MN, 55408",43633799,"R"
179128,"3400 ALEXANDER AVE","ANCHORAGE","AK",99508,61.203213878,-149.817396973,128,"3400 ALEXANDER AVE, ANCHORAGE, AK, 99508","Match","Exact","3400 ALEXANDER AVE, ANCHORAGE, AK, 99508",190799598,"R"
179129,"3400 AVENUE H 2ND FLOOR","ROSENBERG","TX",77471,29.558816812,-95.792016089,129,"3400 AVENUE H 2ND FLOOR, ROSENBERG, TX, 77471","Match","Exact","3400 AVE H, ROSENBERG, TX, 77471",78339893,"R"
179130,"3400 AVENUE OF THE ARTS B408","COSTA MESA","CA",92626,33.691329598,-117.880976931,130,"3400 AVENUE OF THE ARTS B408, COSTA MESA, CA, 92626","Match","Exact","3400 AVE OF THE ARTS, COSTA MESA, CA, 92626",609061865,"L"
179131,"3400 BELIN CT","RALEIGH","NC",27616,35.873141973,-78.504180638,131,"3400 BELIN CT, RALEIGH, NC, 27616","Match","Exact","3400 BELIN CT, RALEIGH, NC, 27616",72601687,"L"
179132,"3400 BENITEAU STREET","DETROIT","MI",48214,42.376000693,-82.978060113,132,"3400 BENITEAU STREET, DETROIT, MI, 48214","Match","Exact","3400 BENITEAU ST, DETROIT, MI, 48214",95485041,"R"
179133,"3400 BROADWAY","GARY","IN",46408,41.5565703880001,-87.336550404,133,"3400 BROADWAY, GARY, IN, 46408","Match","Exact","3400 BROADWAY, GARY, IN, 46408",98433361,"R"
179134,"3400 BRONCO RD","LAFAYETTE","GA",30728,34.6625688170001,-85.334537606,134,"3400 BRONCO RD, LAFAYETTE, GA, 30728","Match","Non_Exact","3400 BRONCO RD, LA FAYETTE, GA, 30728",66731052,"R"
179135,"3400 BRYANS POINT ROAD","ACCOKEEK","MD",20607,NA,NA,135,"3400 BRYANS POINT ROAD, ACCOKEEK, MD, 20607","No_Match",NA,NA,NA,NA
179136,"3400 CALGART AVE","BISMARCK","ND",58503,NA,NA,136,"3400 CALGART AVE, BISMARCK, ND, 58503","No_Match",NA,NA,NA,NA
179137,"3400 CALGARY AVE","BISMARCK","ND",58503,NA,NA,137,"3400 CALGARY AVE, BISMARCK, ND, 58503","No_Match",NA,NA,NA,NA
179138,"3400 CALGARY AVENUE","BISMARCK","ND",58503,NA,NA,138,"3400 CALGARY AVENUE, BISMARCK, ND, 58503","No_Match",NA,NA,NA,NA
179139,"3400 CEDAR AVE S","IMINNEAPOLIS","MN",55407,44.9411927850001,-93.2473788679999,139,"3400 CEDAR AVE S, IMINNEAPOLIS, MN, 55407","Match","Non_Exact","3400 CEDAR AVE S, MINNEAPOLIS, MN, 55407",43639051,"R"
179140,"3400 CHAPEL HILL ROAD","DOUGLASVILLE","GA",30135,33.713857886,-84.721497345,140,"3400 CHAPEL HILL ROAD, DOUGLASVILLE, GA, 30135","Match","Exact","3400 CHAPEL HILL RD, DOUGLASVILLE, GA, 30135",618700067,"L"
179141,"3400 CHURCH ROAD","GREEN BAY","WI",54311,44.5532199630001,-87.909383326,141,"3400 CHURCH ROAD, GREEN BAY, WI, 54311","Match","Exact","3400 CHURCH RD, GREEN BAY, WI, 54311",148116818,"R"
179142,"3400 COIT ROAD BOX 261641","PLANO","TX",75026,33.043016063,-96.770063636,142,"3400 COIT ROAD BOX 261641, PLANO, TX, 75026","Match","Non_Exact","3400 COIT RD, PLANO, TX, 75023",210488934,"R"
179143,"3400 COIT ROAD","PLANO","TX",75026,33.043016063,-96.770063636,143,"3400 COIT ROAD, PLANO, TX, 75026","Match","Non_Exact","3400 COIT RD, PLANO, TX, 75023",210488934,"R"
179144,"3400 COMMUNITY DR","MCKINNEY","TX",75071,33.229876753,-96.640547624,144,"3400 COMMUNITY DR, MCKINNEY, TX, 75071","Match","Non_Exact","3400 COMMUNITY AVE, MCKINNEY, TX, 75071",627723082,"L"
179145,"3400 COTTAGE WAT STE G2 4768","SACRAMENTO","CA",95825,38.603177746,-121.384881495,145,"3400 COTTAGE WAT STE G2 4768, SACRAMENTO, CA, 95825","Match","Non_Exact","3400 COTTAGE WAY, SACRAMENTO, CA, 95825",133402720,"R"
179146,"3400 COTTAGE WAY  SUITE G2 2064","SACRAMENTO","CA",95825,38.603177746,-121.384881495,146,"3400 COTTAGE WAY  SUITE G2 2064, SACRAMENTO, CA, 95825","Match","Exact","3400 COTTAGE WAY, SACRAMENTO, CA, 95825",133402720,"R"
179147,"3400 COTTAGE WAY STE G2 -280","SACRAMENTO","CA",95825,38.603177746,-121.384881495,147,"3400 COTTAGE WAY STE G2 -280, SACRAMENTO, CA, 95825","Match","Exact","3400 COTTAGE WAY, SACRAMENTO, CA, 95825",133402720,"R"
179148,"3400 COTTAGE WAY STE G2 1556","SACRAMENTO","CA",95825,38.603177746,-121.384881495,148,"3400 COTTAGE WAY STE G2 1556, SACRAMENTO, CA, 95825","Match","Exact","3400 COTTAGE WAY, SACRAMENTO, CA, 95825",133402720,"R"
179149,"3400 COTTAGE WAY STE G2 1692","SACRAMENTO","CA",95825,38.603177746,-121.384881495,149,"3400 COTTAGE WAY STE G2 1692, SACRAMENTO, CA, 95825","Match","Exact","3400 COTTAGE WAY, SACRAMENTO, CA, 95825",133402720,"R"
179150,"3400 COTTAGE WAY STE G2 2482","SACRAMENTO","CA",95825,38.603177746,-121.384881495,150,"3400 COTTAGE WAY STE G2 2482, SACRAMENTO, CA, 95825","Match","Exact","3400 COTTAGE WAY, SACRAMENTO, CA, 95825",133402720,"R"
179151,"3400 COTTAGE WAY STE G2 3396","SACRAMENTO","CA",95825,38.603177746,-121.384881495,151,"3400 COTTAGE WAY STE G2 3396, SACRAMENTO, CA, 95825","Match","Exact","3400 COTTAGE WAY, SACRAMENTO, CA, 95825",133402720,"R"
179152,"3400 COTTAGE WAY STE G2 540","SACRAMENTO","CA",95825,38.603177746,-121.384881495,152,"3400 COTTAGE WAY STE G2 540, SACRAMENTO, CA, 95825","Match","Exact","3400 COTTAGE WAY, SACRAMENTO, CA, 95825",133402720,"R"
179153,"3400 COTTAGE WAY STE G2 7339","SACRAMENTO","CA",95825,38.603177746,-121.384881495,153,"3400 COTTAGE WAY STE G2 7339, SACRAMENTO, CA, 95825","Match","Exact","3400 COTTAGE WAY, SACRAMENTO, CA, 95825",133402720,"R"
179154,"3400 COTTAGE WAY STE G2 7511","SACRAMENTO","CA",95825,38.603177746,-121.384881495,154,"3400 COTTAGE WAY STE G2 7511, SACRAMENTO, CA, 95825","Match","Exact","3400 COTTAGE WAY, SACRAMENTO, CA, 95825",133402720,"R"
179155,"3400 COTTAGE WAY STE G2 BOX 676","SACRAMENTO","CA",95825,38.603177746,-121.384881495,155,"3400 COTTAGE WAY STE G2 BOX 676, SACRAMENTO, CA, 95825","Match","Exact","3400 COTTAGE WAY, SACRAMENTO, CA, 95825",133402720,"R"
179156,"3400 COTTAGE WAY STE G2-2038","SACRAMENTO","CA",95825,38.603177746,-121.384881495,156,"3400 COTTAGE WAY STE G2-2038, SACRAMENTO, CA, 95825","Match","Exact","3400 COTTAGE WAY, SACRAMENTO, CA, 95825",133402720,"R"
179157,"3400 COTTAGE WAY STE G2-4886","SACRAMENTO","CA",95825,38.603177746,-121.384881495,157,"3400 COTTAGE WAY STE G2-4886, SACRAMENTO, CA, 95825","Match","Exact","3400 COTTAGE WAY, SACRAMENTO, CA, 95825",133402720,"R"
179158,"3400 COTTAGE WAY SUITE G2 4596","SACRAMENTO","CA",95825,38.603177746,-121.384881495,158,"3400 COTTAGE WAY SUITE G2 4596, SACRAMENTO, CA, 95825","Match","Exact","3400 COTTAGE WAY, SACRAMENTO, CA, 95825",133402720,"R"
179159,"3400 COTTAGE WAY SUITE G2 5437","SACRAMENTO","CA",95825,38.603177746,-121.384881495,159,"3400 COTTAGE WAY SUITE G2 5437, SACRAMENTO, CA, 95825","Match","Exact","3400 COTTAGE WAY, SACRAMENTO, CA, 95825",133402720,"R"
179160,"3400 CRAIG DR SUITE 2026","MCKINNEY","TX",75070,33.168100673,-96.6448975,160,"3400 CRAIG DR SUITE 2026, MCKINNEY, TX, 75070","Match","Exact","3400 CRAIG DR, MCKINNEY, TX, 75070",616491138,"R"
179161,"3400 CRAIG DRIVE APT 424","MCKINNEY","TX",75070,33.168100673,-96.6448975,161,"3400 CRAIG DRIVE APT 424, MCKINNEY, TX, 75070","Match","Exact","3400 CRAIG DR, MCKINNEY, TX, 75070",616491138,"R"
179162,"3400 DANIELLE WAY","SUWANEE","GA",30024,34.022961007,-84.0899620119999,162,"3400 DANIELLE WAY, SUWANEE, GA, 30024","Match","Exact","3400 DANIELLE WAY, SUWANEE, GA, 30024",88943737,"R"
179163,"3400 DEER CREEK TRAIL","RICHFIELD","OH",44286,41.263691963,-81.647899848,163,"3400 DEER CREEK TRAIL, RICHFIELD, OH, 44286","Match","Exact","3400 DEER CREEK TRL, RICHFIELD, OH, 44286",61387860,"L"
179164,"3400 DUPONT AVE S","MINNEAPOLIS","MN",55408,44.9411828670001,-93.293267811,164,"3400 DUPONT AVE S, MINNEAPOLIS, MN, 55408","Match","Exact","3400 DUPONT AVE S, MINNEAPOLIS, MN, 55408",43628628,"R"
179165,"3400 E 2ND ST","BENICIA","CA",94510,38.0729193110001,-122.145988355,165,"3400 E 2ND ST, BENICIA, CA, 94510","Match","Exact","3400 E 2ND ST, BENICIA, CA, 94510",192567715,"R"
179166,"3400 E BAYAUD AVE STE 290","DENVER","CO",80209,39.7146527960001,-104.947170767,166,"3400 E BAYAUD AVE STE 290, DENVER, CO, 80209","Match","Non_Exact","3400 E BAYAUD AVE, DENVER, CO, 80209",612833833,"R"
179167,"3400 E CALGARY AVE","BISMARCK","ND",58503,NA,NA,167,"3400 E CALGARY AVE, BISMARCK, ND, 58503","No_Match",NA,NA,NA,NA
179168,"3400 E CALGARY AVENUE","BISMARCK","ND",58503,NA,NA,168,"3400 E CALGARY AVENUE, BISMARCK, ND, 58503","No_Match",NA,NA,NA,NA
179169,"3400 E LAKE ST STE 100","MINNEAPOLIS","MN",55406,44.9483718540001,-93.222839967,169,"3400 E LAKE ST STE 100, MINNEAPOLIS, MN, 55406","Match","Non_Exact","3400 E LAKE ST, MINNEAPOLIS, MN, 55406",43639986,"L"
179170,"3400 EAST VALLEY CENTER ROAD","ESCONDIDO","CA",92025,NA,NA,170,"3400 EAST VALLEY CENTER ROAD, ESCONDIDO, CA, 92025","No_Match",NA,NA,NA,NA
179171,"3400 ELSA AVE","WALDORF","MD",20603,38.6200604680001,-77.026505647,171,"3400 ELSA AVE, WALDORF, MD, 20603","Match","Exact","3400 ELSA AVE, WALDORF, MD, 20603",25428418,"R"
179172,"3400 ERIE","EUREKA","CA",95501,40.7842045020001,-124.128244883,172,"3400 ERIE, EUREKA, CA, 95501","Match","Non_Exact","3400 ERIE ST, EUREKA, CA, 95501",112990105,"L"
179173,"3400 FIRST STREET N SUITE 400","SAINT CLOUD","MN",56303,45.5550157580001,-94.199680969,173,"3400 FIRST STREET N SUITE 400, SAINT CLOUD, MN, 56303","Match","Exact","3400 1ST ST N, SAINT CLOUD, MN, 56303",107414409,"L"
179174,"3400 FOLSOM BLVD","SACRAMENTO","CA",95816,38.566934684,-121.463509794,174,"3400 FOLSOM BLVD, SACRAMENTO, CA, 95816","Match","Exact","3400 FOLSOM BLVD, SACRAMENTO, CA, 95816",133420476,"R"
179175,"3400 GALT OCEAN DRIVE 1501 SOUTH B","FORT LAUDERDALE","FL",33308,26.169334189,-80.099401283,175,"3400 GALT OCEAN DRIVE 1501 SOUTH B, FORT LAUDERDALE, FL, 33308","Match","Exact","3400 GALT OCEAN DR, FORT LAUDERDALE, FL, 33308",650080519,"R"
179176,"3400 GE DRIVE","TYLER","TX",75701,32.3113320890001,-95.267716287,176,"3400 GE DRIVE, TYLER, TX, 75701","Match","Non_Exact","3400 G E DR, TYLER, TX, 75701",141273976,"L"
179177,"3400 H ST APT 9","SACRAMENTO","CA",95816,38.573873549,-121.460072756,177,"3400 H ST APT 9, SACRAMENTO, CA, 95816","Match","Exact","3400 H ST, SACRAMENTO, CA, 95816",133325074,"R"
179178,"3400 HARWELL LAKE RD","WEATHERFORD","TX",76088,32.8663869420001,-97.859268023,178,"3400 HARWELL LAKE RD, WEATHERFORD, TX, 76088","Match","Exact","3400 HARWELL LAKE RD, WEATHERFORD, TX, 76088",103576743,"R"
179179,"3400 HIGHWAY 293 N","KENNESAW","GA",30144,NA,NA,179,"3400 HIGHWAY 293 N, KENNESAW, GA, 30144","No_Match",NA,NA,NA,NA
179180,"3400 HUNTERS CREEK BLVD","ORLANDO","FL",32837,28.353509681,-81.423029925,180,"3400 HUNTERS CREEK BLVD, ORLANDO, FL, 32837","Match","Non_Exact","3400 HUNTER'S CREEK BLVD, ORLANDO, FL, 32837",94338553,"L"
179181,"3400 JEFFERSON AVENUE SE","GRAND RAPIDS","MI",49548,42.9024264060001,-85.66134225,181,"3400 JEFFERSON AVENUE SE, GRAND RAPIDS, MI, 49548","Match","Exact","3400 JEFFERSON AVE SE, GRAND RAPIDS, MI, 49548",12463769,"L"
179182,"3400 KENT AVE APT F201","METAIRIE","LA",70006,30.0070826910001,-90.197745449,182,"3400 KENT AVE APT F201, METAIRIE, LA, 70006","Match","Exact","3400 KENT AVE, METAIRIE, LA, 70006",93537889,"L"
179183,"3400 KOHR BLVD","COLUMBUS","OH",43224,40.0379276080001,-82.947313331,183,"3400 KOHR BLVD, COLUMBUS, OH, 43224","Match","Exact","3400 KOHR BLVD, COLUMBUS, OH, 43224",218684450,"R"
179184,"3400 LAMBKIN WAY","FORT COLLINS","CO",80525,40.541046253,-105.038724206,184,"3400 LAMBKIN WAY, FORT COLLINS, CO, 80525","Match","Exact","3400 LAMBKIN WAY, FORT COLLINS, CO, 80525",617915039,"L"
179185,"3400 LENOX COURT","GREENSBORO","NC",27408,36.1182164190001,-79.8174096819999,185,"3400 LENOX COURT, GREENSBORO, NC, 27408","Match","Exact","3400 LENOX CT, GREENSBORO, NC, 27408",131030328,"R"
179186,"3400 MACARTHUR BLVD SUITE 221","OAKLAND","CA",94602,NA,NA,186,"3400 MACARTHUR BLVD SUITE 221, OAKLAND, CA, 94602","No_Match",NA,NA,NA,NA
179187,"3400 MACARTHUR DRIVE","WACO","TX",76708,31.5686244560001,-97.185462146,187,"3400 MACARTHUR DRIVE, WACO, TX, 76708","Match","Exact","3400 MACARTHUR DR, WACO, TX, 76708",146732633,"L"
179188,"3400 MALONE DR UNIT 315","ATLANTA","GA",30341,33.8900508030001,-84.307848516,188,"3400 MALONE DR UNIT 315, ATLANTA, GA, 30341","Match","Exact","3400 MALONE DR, ATLANTA, GA, 30341",23358758,"L"
179189,"3400 MARGARITA AVENUE","OAKLAND","CA",94605,37.757681205,-122.152193342,189,"3400 MARGARITA AVENUE, OAKLAND, CA, 94605","Match","Exact","3400 MARGARITA AVE, OAKLAND, CA, 94605",125011398,"R"
179190,"3400 MASSIEVILLE RD","CHILLICOTHE","OH",45601,39.2835178020001,-82.950625133,190,"3400 MASSIEVILLE RD, CHILLICOTHE, OH, 45601","Match","Exact","3400 MASSIEVILLE RD, CHILLICOTHE, OH, 45601",37482578,"R"
179191,"3400 MCCLURE BRIDGE ROAD SUITE D402","DULUTH","GA",30096,34.004296529,-84.157245817,191,"3400 MCCLURE BRIDGE ROAD SUITE D402, DULUTH, GA, 30096","Match","Exact","3400 MCCLURE BRIDGE RD, DULUTH, GA, 30096",88952958,"L"
179192,"3400 MCMILLEN RD APT 7308","WYLIE","TX",75098,33.0331896370001,-96.5903778969999,192,"3400 MCMILLEN RD APT 7308, WYLIE, TX, 75098","Match","Exact","3400 MCMILLEN RD, WYLIE, TX, 75098",649128721,"R"
179193,"3400 MILAM LANE  313","LEXINGTON","KY",40502,37.9932018600001,-84.4928548829999,193,"3400 MILAM LANE  313, LEXINGTON, KY, 40502","Match","Exact","3400 MILAM LN, LEXINGTON, KY, 40502",31924128,"L"
179194,"3400 MIRROR","AMARILLO","TX",79107,NA,NA,194,"3400 MIRROR, AMARILLO, TX, 79107","No_Match",NA,NA,NA,NA
179195,"3400 MONTROSE BLVD APT 1916","HOUSTON","TX",77006,29.742288269,-95.391223237,195,"3400 MONTROSE BLVD APT 1916, HOUSTON, TX, 77006","Match","Exact","3400 MONTROSE BLVD, HOUSTON, TX, 77006",96064592,"R"
179196,"3400 MOSS STREET","LAFAYETTE","LA",70507,30.263988569,-92.00792792,196,"3400 MOSS STREET, LAFAYETTE, LA, 70507","Match","Exact","3400 MOSS ST, LAFAYETTE, LA, 70507",85613977,"R"
179197,"3400 N 128TH STREET","KANSAS CITY","KS",66109,39.1493492290001,-94.8752378629999,197,"3400 N 128TH STREET, KANSAS CITY, KS, 66109","Match","Exact","3400 N 128TH ST, KANSAS CITY, KS, 66109",633160358,"L"
179198,"3400 N CHARLES STR 237 KRIEGER HALL","BALTIMORE","MD",21218,NA,NA,198,"3400 N CHARLES STR 237 KRIEGER HALL, BALTIMORE, MD, 21218","No_Match",NA,NA,NA,NA
179199,"3400 N DYSART ROAD","AVONDALE","AZ",85392,NA,NA,199,"3400 N DYSART ROAD, AVONDALE, AZ, 85392","No_Match",NA,NA,NA,NA
179200,"3400 NATHERLY DRIVE","PENSACOLA","FL",32526,30.561622286,-87.381629795,200,"3400 NATHERLY DRIVE, PENSACOLA, FL, 32526","Match","Exact","3400 NATHERLY DR, PENSACOLA, FL, 32526",617456955,"R"
179201,"3400 NE 1ST AVENUE","POMPANO BEACH","FL",33064,26.272583076,-80.123038719,201,"3400 NE 1ST AVENUE, POMPANO BEACH, FL, 33064","Match","Exact","3400 NE 1ST AVE, POMPANO BEACH, FL, 33064",114742388,"R"
179202,"3400 NE 66TH AVE","VANCOUVER","WA",98661,45.6461239170001,-122.604568688,202,"3400 NE 66TH AVE, VANCOUVER, WA, 98661","Match","Exact","3400 NE 66TH AVE, VANCOUVER, WA, 98661",636869580,"L"
179203,"3400 NEIMAN RD","PLANO","TX",75025,33.0880175570001,-96.7582277879999,203,"3400 NEIMAN RD, PLANO, TX, 75025","Match","Exact","3400 NEIMAN RD, PLANO, TX, 75025",123547248,"R"
179204,"3400 NORMAN STREET","BALTIMORE","MD",21213,39.326833069,-76.5794562579999,204,"3400 NORMAN STREET, BALTIMORE, MD, 21213","Match","Non_Exact","3400 NORMAN AVE, BALTIMORE, MD, 21213",206410384,"L"
179205,"3400 NW 36TH STREET","OKLAHOMA CITY","OK",73112,NA,NA,205,"3400 NW 36TH STREET, OKLAHOMA CITY, OK, 73112","No_Match",NA,NA,NA,NA
179206,"3400 NW 7 AVE","MIAMI","FL",33127,25.8082977890001,-80.207478808,206,"3400 NW 7 AVE, MIAMI, FL, 33127","Match","Exact","3400 NW 7TH AVE, MIAMI, FL, 33127",116005954,"L"
179207,"3400 NW 9 AVENUE SUITE A","OAKLAND PARK","FL",33309,26.1695735060001,-80.154537896,207,"3400 NW 9 AVENUE SUITE A, OAKLAND PARK, FL, 33309","Match","Non_Exact","3400 NW 9TH AVE, OAKLAND PARK, FL, 33309",114718529,"R"
179208,"3400 OHARA RD SW","HUNTSVILLE","AL",35801,34.699450159,-86.5770021869999,208,"3400 OHARA RD SW, HUNTSVILLE, AL, 35801","Match","Exact","3400 OHARA RD SW, HUNTSVILLE, AL, 35801",58121166,"R"
179209,"3400 OLD 41 HIGHWAY NORTH","KENNESAW","GA",30144,34.0377626870001,-84.647519625,209,"3400 OLD 41 HIGHWAY NORTH, KENNESAW, GA, 30144","Match","Non_Exact","3400 OLD 41 HWY NW, KENNESAW, GA, 30144",649203778,"R"
179210,"3400 OLD 41 HWY NORTH","KENNESAW","GA",30144,34.0377626870001,-84.647519625,210,"3400 OLD 41 HWY NORTH, KENNESAW, GA, 30144","Match","Non_Exact","3400 OLD 41 HWY NW, KENNESAW, GA, 30144",649203778,"R"
179211,"3400 OLD BAINBRIDGE RD APT 302","TALLAHASSEE","FL",32303,30.4953607080001,-84.330641379,211,"3400 OLD BAINBRIDGE RD APT 302, TALLAHASSEE, FL, 32303","Match","Non_Exact","3400 OLD BAINBRIDGE RD, TALLAHASSEE, FL, 32303",633947033,"L"
179212,"3400 OLD HIGHWAY 41","KENNESAW","GA",30144,NA,NA,212,"3400 OLD HIGHWAY 41, KENNESAW, GA, 30144","No_Match",NA,NA,NA,NA
179213,"3400 OLD HWY 41","KENNESAW","GA",30144,NA,NA,213,"3400 OLD HWY 41, KENNESAW, GA, 30144","No_Match",NA,NA,NA,NA
179214,"3400 OLD LANTERN COURT","MIAMISBURG","OH",45342,39.62133183,-84.214433248,214,"3400 OLD LANTERN COURT, MIAMISBURG, OH, 45342","Match","Exact","3400 OLD LANTERN CT, MIAMISBURG, OH, 45342",143604565,"R"
179215,"3400 OLD SUMMERVILLE ROAD","ARMUCHEE","GA",30105,34.38837821,-85.1799758069999,215,"3400 OLD SUMMERVILLE ROAD, ARMUCHEE, GA, 30105","Match","Exact","3400 OLD SUMMERVILLE RD, ARMUCHEE, GA, 30105",30670095,"R"
179216,"3400 OVERBEY DR","REYNOLDSBURG","OH",43068,NA,NA,216,"3400 OVERBEY DR, REYNOLDSBURG, OH, 43068","No_Match",NA,NA,NA,NA
179217,"3400 PALM LAKE DR","LITTLE ELM","TX",75068,33.1965714510001,-96.894034167,217,"3400 PALM LAKE DR, LITTLE ELM, TX, 75068","Match","Exact","3400 PALM LAKE DR, LITTLE ELM, TX, 75068",647012819,"L"
179218,"3400 PAMPAS DRIVE","MYRTLE BEACH","SC",29577,33.661852959,-78.9367500449999,218,"3400 PAMPAS DRIVE, MYRTLE BEACH, SC, 29577","Match","Exact","3400 PAMPAS DR, MYRTLE BEACH, SC, 29577",618473612,"L"
179219,"3400 PANAMA LANE STE F197","BAKERSFIELD","CA",93313,35.295903432,-119.040034853,219,"3400 PANAMA LANE STE F197, BAKERSFIELD, CA, 93313","Match","Exact","3400 PANAMA LN, BAKERSFIELD, CA, 93313",109092005,"R"
179220,"3400 POND VILLAGE LN","CARY","NC",27518,35.7072746970001,-78.797105082,220,"3400 POND VILLAGE LN, CARY, NC, 27518","Match","Exact","3400 POND VILLAGE LN, CARY, NC, 27518",634097194,"R"
179221,"3400 RICHMOND LANE APT I","BLACKSBURG","VA",24060,37.2143900290001,-80.451282898,221,"3400 RICHMOND LANE APT I, BLACKSBURG, VA, 24060","Match","Exact","3400 RICHMOND LN, BLACKSBURG, VA, 24060",73629588,"L"
179222,"3400 RIVERMONT AVENUE","LYNCHBURG","VA",24503,37.4392842190001,-79.189791546,222,"3400 RIVERMONT AVENUE, LYNCHBURG, VA, 24503","Match","Exact","3400 RIVERMONT AVE, LYNCHBURG, VA, 24503",641113552,"R"
179223,"3400 ROSEDALE ROAD","BALTIMORE","MD",21215,39.323190267,-76.667522968,223,"3400 ROSEDALE ROAD, BALTIMORE, MD, 21215","Match","Exact","3400 ROSEDALE RD, BALTIMORE, MD, 21215",206406496,"L"
179224,"3400 S CENTRAL AVE","LOS ANGELES","CA",90011,34.012713224,-118.256499357,224,"3400 S CENTRAL AVE, LOS ANGELES, CA, 90011","Match","Non_Exact","3400 S CENTRAL AVE, LOS ANGELES, CA, 90011",141620027,"L"
179225,"3400 S CITYVIEW","PONCA CITY","OK",74604,NA,NA,225,"3400 S CITYVIEW, PONCA CITY, OK, 74604","No_Match",NA,NA,NA,NA
179226,"3400 S CLAIBORNE AVE STE C","NEW ORLEANS","LA",70125,29.940791093,-90.097647017,226,"3400 S CLAIBORNE AVE STE C, NEW ORLEANS, LA, 70125","Match","Non_Exact","3400 S CLAIBORNE AVE, NEW ORLEANS, LA, 70125",647536114,"L"
179227,"3400 S FITZHUGH AVENUE","DALLAS","TX",75210,32.7720127110001,-96.757161065,227,"3400 S FITZHUGH AVENUE, DALLAS, TX, 75210","Match","Exact","3400 S FITZHUGH AVE, DALLAS, TX, 75210",103198528,"R"
179228,"3400 S LOWELL BLVD APT 11-303","DENVER","CO",80236,39.7650153770001,-105.034604568,228,"3400 S LOWELL BLVD APT 11-303, DENVER, CO, 80236","Match","Non_Exact","3400 LOWELL BLVD, DENVER, CO, 80211",177300799,"R"
179229,"3400 S STONEGATE CIRCLE APT 205","NEW BERLIN","WI",53151,42.9862347750001,-88.0799743009999,229,"3400 S STONEGATE CIRCLE APT 205, NEW BERLIN, WI, 53151","Match","Non_Exact","3400 S STONEGATE CIR, NEW BERLIN, WI, 53151",632574350,"L"
179230,"3400 SHORELINE DRIVE APT 720","AUSTIN","TX",78728,30.4544558060001,-97.683710424,230,"3400 SHORELINE DRIVE APT 720, AUSTIN, TX, 78728","Match","Exact","3400 SHORELINE DR, AUSTIN, TX, 78728",620886458,"R"
179231,"3400 SILICA","SYLVANIA","OH",43560,41.678098462,-83.735887579,231,"3400 SILICA, SYLVANIA, OH, 43560","Match","Non_Exact","3400 SILICA RD, SYLVANIA, OH, 43560",633558949,"R"
179232,"3400 SOUTH FITZHUGH","DALLAS","TX",75210,32.7720127110001,-96.757161065,232,"3400 SOUTH FITZHUGH, DALLAS, TX, 75210","Match","Non_Exact","3400 S FITZHUGH AVE, DALLAS, TX, 75210",103198528,"R"
179233,"3400 SOUTH MAIN STREET   F5","SANTA ANA","CA",92707,33.70256879,-117.868155552,233,"3400 SOUTH MAIN STREET   F5, SANTA ANA, CA, 92707","Match","Exact","3400 S MAIN ST, SANTA ANA, CA, 92707",609061160,"R"
179234,"3400 SPARROW DRIVE","MOORE","OK",73165,35.3062472920001,-97.436566677,234,"3400 SPARROW DRIVE, MOORE, OK, 73165","Match","Exact","3400 SPARROW DR, MOORE, OK, 73165",618157463,"L"
179235,"3400 SPRUCE STREET WHITE 2","PHILADELPHIA","PA",19104,39.9504700690001,-75.192806205,235,"3400 SPRUCE STREET WHITE 2, PHILADELPHIA, PA, 19104","Match","Exact","3400 SPRUCE ST, PHILADELPHIA, PA, 19104",131404335,"L"
179236,"3400 STATION BOULEVARD","BROOKSVILLE","FL",34604,28.4846237950001,-82.429591397,236,"3400 STATION BOULEVARD, BROOKSVILLE, FL, 34604","Match","Exact","3400 STATION BLVD, BROOKSVILLE, FL, 34604",85464686,"R"
179237,"3400 STOCK RD","MONROE","GA",30656,33.862403989,-83.786430082,237,"3400 STOCK RD, MONROE, GA, 30656","Match","Exact","3400 STOCK RD, MONROE, GA, 30656",618470780,"L"
179238,"3400 STOCKWELL STREET","LINCOLN","NE",68506,40.7753833960001,-96.6717137699999,238,"3400 STOCKWELL STREET, LINCOLN, NE, 68506","Match","Exact","3400 STOCKWELL ST, LINCOLN, NE, 68506",28256357,"L"
179239,"3400 STRATFORD ROAD NE /1403","ATLANTA","GA",30326,33.849091178,-84.366675043,239,"3400 STRATFORD ROAD NE /1403, ATLANTA, GA, 30326","Match","Exact","3400 STRATFORD RD NE, ATLANTA, GA, 30326",650072436,"L"
179240,"3400 STRATFORD ROAD","RICHMOND","VA",23225,37.544532949,-77.5407885129999,240,"3400 STRATFORD ROAD, RICHMOND, VA, 23225","Match","Exact","3400 STRATFORD RD, RICHMOND, VA, 23225",610885054,"L"
179241,"3400 SW 27TH AVE  SUITE 403","MIAMI","FL",33133,25.7302157450001,-80.237443049,241,"3400 SW 27TH AVE  SUITE 403, MIAMI, FL, 33133","Match","Non_Exact","3400 SW 27TH AVE, MIAMI, FL, 33133",116014960,"R"
179242,"3400 SW 27TH AVE APT 1001","MIAMI","FL",33133,25.7302157450001,-80.237443049,242,"3400 SW 27TH AVE APT 1001, MIAMI, FL, 33133","Match","Non_Exact","3400 SW 27TH AVE, MIAMI, FL, 33133",116014960,"R"
179243,"3400 SWEETSER COURT","PICKERINGTON","OH",43147,39.915049842,-82.8026556579999,243,"3400 SWEETSER COURT, PICKERINGTON, OH, 43147","Match","Exact","3400 SWEETSER CT, PICKERINGTON, OH, 43147",37238582,"L"
179244,"3400 TARKIO ROAD","PLANO","TX",75074,33.043123839,-96.693762142,244,"3400 TARKIO ROAD, PLANO, TX, 75074","Match","Exact","3400 TARKIO RD, PLANO, TX, 75074",123489095,"R"
179245,"3400 TRAVERA PL","CENTRALIA","WA",98531,46.7389964020001,-122.996503166,245,"3400 TRAVERA PL, CENTRALIA, WA, 98531","Match","Exact","3400 TRAVERA PL, CENTRALIA, WA, 98531",180710353,"R"
179246,"3400 VICKERY RD","SYRACUSE","NY",13212,43.107229729,-76.159308226,246,"3400 VICKERY RD, SYRACUSE, NY, 13212","Match","Exact","3400 VICKERY RD, SYRACUSE, NY, 13212",46591364,"R"
179247,"3400 VIRGINIA AVENUE","BALTIMORE","MD",21215,39.341765717,-76.672403727,247,"3400 VIRGINIA AVENUE, BALTIMORE, MD, 21215","Match","Exact","3400 VIRGINIA AVE, BALTIMORE, MD, 21215",206405516,"R"
179248,"3400 W  NORTH COUNTY LINE RD","FARWELL","MI",48622,NA,NA,248,"3400 W  NORTH COUNTY LINE RD, FARWELL, MI, 48622","Tie",NA,NA,NA,NA
179249,"3400 W 111TH ST NUMBER 484","CHICAGO","IL",60655,NA,NA,249,"3400 W 111TH ST NUMBER 484, CHICAGO, IL, 60655","No_Match",NA,NA,NA,NA
179250,"3400 W 111TH ST PMB 314","CHICAGO","IL",60655,NA,NA,250,"3400 W 111TH ST PMB 314, CHICAGO, IL, 60655","No_Match",NA,NA,NA,NA
179251,"3400 W 111TH STREET 350","CHICAGO","IL",60655,NA,NA,251,"3400 W 111TH STREET 350, CHICAGO, IL, 60655","No_Match",NA,NA,NA,NA
179252,"3400 W 111TH STREET PO BOX 320","CHICAGO","IL",60655,NA,NA,252,"3400 W 111TH STREET PO BOX 320, CHICAGO, IL, 60655","No_Match",NA,NA,NA,NA
179253,"3400 W 6TH STREET 4TH FLOOR","LOS ANGELES","CA",90020,34.063590994,-118.295464096,253,"3400 W 6TH STREET 4TH FLOOR, LOS ANGELES, CA, 90020","Match","Non_Exact","3400 W 6TH ST, LOS ANGELES, CA, 90020",141604937,"L"
179254,"3400 W MARSHALL AVE SUITE 428","LONGVIEW","TX",75604,32.506878978,-94.7910704129999,254,"3400 W MARSHALL AVE SUITE 428, LONGVIEW, TX, 75604","Match","Non_Exact","3400 W MARSHALL AVE, LONGVIEW, TX, 75604",141108367,"L"
179255,"3400 W ORANGE GROVE ROAD","TUCSON","AZ",85741,32.32323016,-111.037490096,255,"3400 W ORANGE GROVE ROAD, TUCSON, AZ, 85741","Match","Exact","3400 W ORANGE GROVE RD, TUCSON, AZ, 85741",121408106,"R"
179256,"3400 W STONEGATE BLVD -STE 101-2202","ARLINGTON HEIGHTS","IL",60005,42.0895562310001,-88.024014945,256,"3400 W STONEGATE BLVD -STE 101-2202, ARLINGTON HEIGHTS, IL, 60005","Match","Non_Exact","3400 W STONEGATE BLVD, ARLINGTON HEIGHTS, IL, 60005",648221314,"L"
179257,"3400 WELLBROOK DRIVE","LOGANVILLE","GA",30052,33.85876297,-83.937670052,257,"3400 WELLBROOK DRIVE, LOGANVILLE, GA, 30052","Match","Exact","3400 WELLBROOK DR, LOGANVILLE, GA, 30052",627670374,"R"
179258,"3400 WEST 111 STREET 473","CHICAGO","IL",60655,41.691501255,-87.705637715,258,"3400 WEST 111 STREET 473, CHICAGO, IL, 60655","Match","Exact","3400 W 111TH ST, CHICAGO, IL, 60655",111819279,"R"
179259,"3400 WEST 111TH STREET - 417","CHICAGO","IL",60655,41.691501255,-87.705637715,259,"3400 WEST 111TH STREET - 417, CHICAGO, IL, 60655","Match","Exact","3400 W 111TH ST, CHICAGO, IL, 60655",111819279,"R"
179260,"3400 WEST 69TH STREET","MISSION HILLS","KS",66208,39.0052392470001,-94.6244753409999,260,"3400 WEST 69TH STREET, MISSION HILLS, KS, 66208","Match","Exact","3400 W 69TH ST, MISSION HILLS, KS, 66208",91298343,"R"
179261,"3400 WINDMILL RD","MOORE","OK",73165,35.3079928380001,-97.4364512449999,261,"3400 WINDMILL RD, MOORE, OK, 73165","Match","Exact","3400 WINDMILL RD, MOORE, OK, 73165",618094506,"L"
179262,"3400 WOODLAND AVENUE","KANSAS CITY","KS",66104,NA,NA,262,"3400 WOODLAND AVENUE, KANSAS CITY, KS, 66104","No_Match",NA,NA,NA,NA
179263,"3400 WOODLAND AVENUE","KANSAS CITY","MO",64109,39.0646025030001,-94.5623794859999,263,"3400 WOODLAND AVENUE, KANSAS CITY, MO, 64109","Match","Exact","3400 WOODLAND AVE, KANSAS CITY, MO, 64109",91451744,"R"
179264,"3400-1834 CRAIG DRIVE","MCKINNEY","TX",75070,33.168100673,-96.6448975,264,"3400-1834 CRAIG DRIVE, MCKINNEY, TX, 75070","Match","Exact","3400 CRAIG DR, MCKINNEY, TX, 75070",616491138,"R"
179265,"34001 23 MILE RD","CHESTERFIELD","MI",48047,42.675683034,-82.7671652499999,265,"34001 23 MILE RD, CHESTERFIELD, MI, 48047","Match","Exact","34001 23 MILE RD, CHESTERFIELD, MI, 48047",110666642,"L"
179266,"34001 STELLWAGEN","WAYNE","MI",48184,42.270347062,-83.373419847,266,"34001 STELLWAGEN, WAYNE, MI, 48184","Match","Non_Exact","34001 STELLWAGEN ST, WAYNE, MI, 48184",95417075,"L"
179267,"340091 DAYTON XENIA RD","45434","OH",45431,NA,NA,267,"340091 DAYTON XENIA RD, 45434, OH, 45431","No_Match",NA,NA,NA,NA
179268,"3401 12TH STREET NW SUITE 4520","WASHINGTON","DC",20017,38.9316314710001,-76.9909159119999,268,"3401 12TH STREET NW SUITE 4520, WASHINGTON, DC, 20017","Match","Non_Exact","3401 12TH ST NE, WASHINGTON, DC, 20017",76228722,"R"
179269,"3401 17TH AVE","EVANS","CO",80620,40.380811367,-104.706290899,269,"3401 17TH AVE, EVANS, CO, 80620","Match","Exact","3401 17TH AVE, EVANS, CO, 80620",653313823,"R"
179270,"3401 4TH ST SE","WASHINGTON","DC",20032,38.8402380690001,-77.000577971,270,"3401 4TH ST SE, WASHINGTON, DC, 20032","Match","Exact","3401 4TH ST SE, WASHINGTON, DC, 20032",640270048,"R"
179271,"3401 A CESAR CHAVEZ STREET SUITE C","SAN FRANCISCO","CA",94110,37.7481039680001,-122.418416052,271,"3401 A CESAR CHAVEZ STREET SUITE C, SAN FRANCISCO, CA, 94110","Match","Exact","3401 CESAR CHAVEZ ST, SAN FRANCISCO, CA, 94110",192300240,"L"
179272,"3401 AUNTIE STONE STREET","FORT COLLINS","CO",80526,40.53988495,-105.119465835,272,"3401 AUNTIE STONE STREET, FORT COLLINS, CO, 80526","Match","Exact","3401 AUNTIE STONE ST, FORT COLLINS, CO, 80526",188547706,"R"
179273,"3401 AVENUE VILLANDRY","DELRAY BEACH","FL",33445,26.472438788,-80.108258323,273,"3401 AVENUE VILLANDRY, DELRAY BEACH, FL, 33445","Match","Exact","3401 AVE VILLANDRY, DELRAY BEACH, FL, 33445",115324644,"L"
179274,"3401 BARFIELD DRIVE","CHARLOTTE","NC",28217,35.2016093140001,-80.885171692,274,"3401 BARFIELD DRIVE, CHARLOTTE, NC, 28217","Match","Exact","3401 BARFIELD DR, CHARLOTTE, NC, 28217",70577164,"L"
179275,"3401 BELLAIRE PARK COURT","FORT WORTH","TX",76109,32.70056372,-97.37854621,275,"3401 BELLAIRE PARK COURT, FORT WORTH, TX, 76109","Match","Exact","3401 BELLAIRE PARK CT, FORT WORTH, TX, 76109",102128619,"L"
179276,"3401 BLUEGRASS DRIVE","PLANO","TX",75074,33.061479068,-96.666952129,276,"3401 BLUEGRASS DRIVE, PLANO, TX, 75074","Match","Exact","3401 BLUEGRASS DR, PLANO, TX, 75074",123567707,"L"
179277,"3401 CANAL STREET","NEW ORLEANS","LA",70119,29.9703746230001,-90.0942467039999,277,"3401 CANAL STREET, NEW ORLEANS, LA, 70119","Match","Exact","3401 CANAL ST, NEW ORLEANS, LA, 70119",191707627,"R"
179278,"3401 CARAMBOLA CIRCLE SOUTH","COCONUT CREEK","FL",33066,26.2673240830001,-80.185150543,278,"3401 CARAMBOLA CIRCLE SOUTH, COCONUT CREEK, FL, 33066","Match","Exact","3401 CARAMBOLA CIR S, COCONUT CREEK, FL, 33066",114738694,"L"
179279,"3401 CHEROKEE DR","MADISON","WI",53711,NA,NA,279,"3401 CHEROKEE DR, MADISON, WI, 53711","No_Match",NA,NA,NA,NA
179280,"3401 CLEVELAND AVE STE 7","SANTA ROSA","CA",95403,38.474703936,-122.732250405,280,"3401 CLEVELAND AVE STE 7, SANTA ROSA, CA, 95403","Match","Exact","3401 CLEVELAND AVE, SANTA ROSA, CA, 95403",67467203,"L"
179281,"3401 CORDER STREET","HOUSTON","TX",77004,29.6904063280001,-95.377474317,281,"3401 CORDER STREET, HOUSTON, TX, 77004","Match","Non_Exact","3401 CORDER ST, HOUSTON, TX, 77021",624592259,"R"
179282,"3401 CREST DR","ROCKLIN","CA",95677,NA,NA,282,"3401 CREST DR, ROCKLIN, CA, 95677","No_Match",NA,NA,NA,NA
179283,"3401 CROSSBRANCH COURT","PEARALND","TX",77581,29.5794723220001,-95.2735888729999,283,"3401 CROSSBRANCH COURT, PEARALND, TX, 77581","Match","Non_Exact","3401 CROSSBRANCH CT, PEARLAND, TX, 77581",116644618,"R"
179284,"3401 DATO AVENUE","HIGHLAND PARK","IL",60035,42.2142834300001,-87.8214821619999,284,"3401 DATO AVENUE, HIGHLAND PARK, IL, 60035","Match","Exact","3401 DATO AVE, HIGHLAND PARK, IL, 60035",119648024,"R"
179285,"3401 DAY STAR COVE","AUSTIN","TX",78746,30.329850617,-97.802665723,285,"3401 DAY STAR COVE, AUSTIN, TX, 78746","Match","Exact","3401 DAY STAR COVE, AUSTIN, TX, 78746",64007874,"L"
179286,"3401 DUTCH FLAT CT","MODESTO","CA",95354,37.64387909,-120.931731515,286,"3401 DUTCH FLAT CT, MODESTO, CA, 95354","Match","Exact","3401 DUTCH FLAT CT, MODESTO, CA, 95354",102622263,"R"
179287,"3401 E BROMLEY LN","BRIGHTON","CO",80601,39.972346579,-104.7828434,287,"3401 E BROMLEY LN, BRIGHTON, CO, 80601","Match","Exact","3401 E BROMLEY LN, BRIGHTON, CO, 80601",629175639,"L"
179288,"3401 E SPRING ST","SEATTLE","WA",98122,47.6116163350001,-122.289253994,288,"3401 E SPRING ST, SEATTLE, WA, 98122","Match","Exact","3401 E SPRING ST, SEATTLE, WA, 98122",186594401,"R"
179289,"3401 E WILDS RD","TUCSON","AZ",85739,32.4745088820001,-110.920777104,289,"3401 E WILDS RD, TUCSON, AZ, 85739","Match","Exact","3401 E WILDS RD, TUCSON, AZ, 85739",638279050,"L"
179290,"3401 ENTERPRISE PARKWAY SUITE 300","BEACHWOOD","OH",44122,41.467265221,-81.494663472,290,"3401 ENTERPRISE PARKWAY SUITE 300, BEACHWOOD, OH, 44122","Match","Exact","3401 ENTERPRISE PKWY, BEACHWOOD, OH, 44122",616913104,"R"
179291,"3401 FORESTWAY CT","ARLINGTON","TX",76001,32.6280472,-97.163140319,291,"3401 FORESTWAY CT, ARLINGTON, TX, 76001","Match","Exact","3401 FORESTWAY CT, ARLINGTON, TX, 76001",101930433,"L"
179292,"3401 FROW AVENUE","COCONUT GROVE","FL",33133,25.7292404190001,-80.2484598089999,292,"3401 FROW AVENUE, COCONUT GROVE, FL, 33133","Match","Exact","3401 FROW AVE, COCONUT GROVE, FL, 33133",116014568,"R"
179293,"3401 GILBERT ST","DETROIT","MI",48210,42.3256810570001,-83.11812774,293,"3401 GILBERT ST, DETROIT, MI, 48210","Match","Exact","3401 GILBERT ST, DETROIT, MI, 48210",95473924,"L"
179294,"3401 GRANDE VISTA DR UNIT 395","NEWBURY PARK","CA",91319,34.1934084820001,-118.946189,294,"3401 GRANDE VISTA DR UNIT 395, NEWBURY PARK, CA, 91319","Match","Non_Exact","3401 GRANDE VISTA DR, NEWBURY PARK, CA, 91320",110049456,"R"
179295,"3401 GRATIOT AVENUE","FLINT","MI",48503,43.0090689510001,-83.730422877,295,"3401 GRATIOT AVENUE, FLINT, MI, 48503","Match","Exact","3401 GRATIOT AVE, FLINT, MI, 48503",69565121,"L"
179296,"3401 HARGROVE ST","MADISON","WI",53714,43.0934284510001,-89.33159741,296,"3401 HARGROVE ST, MADISON, WI, 53714","Match","Exact","3401 HARGROVE ST, MADISON, WI, 53714",49474356,"R"
179297,"3401 HILTON WOODS DRIVE","COLUMBUS","GA",31906,32.4966021660001,-84.9456082359999,297,"3401 HILTON WOODS DRIVE, COLUMBUS, GA, 31906","Match","Exact","3401 HILTON WOODS DR, COLUMBUS, GA, 31906",98938792,"L"
179298,"3401 HUNTERS RIDGE","WILLIAMSBURG","VA",23188,37.256321153,-76.769154941,298,"3401 HUNTERS RIDGE, WILLIAMSBURG, VA, 23188","Match","Non_Exact","3401 HUNTER'S RIDGE, WILLIAMSBURG, VA, 23188",103773643,"R"
179299,"3401 IMPERATOR LANE UNIT103","LOUISVILLE","KY",40245,38.283752774,-85.500416532,299,"3401 IMPERATOR LANE UNIT103, LOUISVILLE, KY, 40245","Match","Exact","3401 IMPERATOR LN, LOUISVILLE, KY, 40245",628837517,"R"
179300,"3401 INDEPENDENCE AVENUE","KANSAS CITY","MO",64124,39.1059955310001,-94.5415338129999,300,"3401 INDEPENDENCE AVENUE, KANSAS CITY, MO, 64124","Match","Exact","3401 INDEPENDENCE AVE, KANSAS CITY, MO, 64124",91449304,"R"
179301,"3401 JACKSON ROAD","PINSON","AL",35126,33.708099937,-86.715207735,301,"3401 JACKSON ROAD, PINSON, AL, 35126","Match","Exact","3401 JACKSON RD, PINSON, AL, 35126",81690344,"L"
179302,"3401 JONES BLVD","EASTON","PA",18045,40.670218495,-75.260963421,302,"3401 JONES BLVD, EASTON, PA, 18045","Match","Exact","3401 JONES BLVD, EASTON, PA, 18045",136881923,"R"
179303,"3401 LANTERN VIEW LANE","SCOTTDALE","GA",30079,33.7927362940001,-84.249923178,303,"3401 LANTERN VIEW LANE, SCOTTDALE, GA, 30079","Match","Exact","3401 LANTERN VIEW LN, SCOTTDALE, GA, 30079",642375856,"R"
179304,"3401 LEE PARKWAY  UNIT  103","DALLAS","TX",75219,NA,NA,304,"3401 LEE PARKWAY  UNIT  103, DALLAS, TX, 75219","No_Match",NA,NA,NA,NA
179305,"3401 LEE PKWY","DALLAS","TX",75219,32.8092552570001,-96.8045192169999,305,"3401 LEE PKWY, DALLAS, TX, 75219","Match","Exact","3401 LEE PKWY, DALLAS, TX, 75219",648442083,"L"
179306,"3401 MANDERES PL","SPRINGDALE","MD",20774,38.93597035,-76.840872508,306,"3401 MANDERES PL, SPRINGDALE, MD, 20774","Match","Exact","3401 MANDERES PL, SPRINGDALE, MD, 20774",76331656,"R"
179307,"3401 MASON DIXON HWY","GARRETT","PA",15542,39.8491892170001,-79.0535589099999,307,"3401 MASON DIXON HWY, GARRETT, PA, 15542","Match","Exact","3401 MASON DIXON HWY, GARRETT, PA, 15542",642762392,"R"
179308,"3401 MONA ST","HUTCHINSON","KS",67502,38.0911572420001,-97.95774433,308,"3401 MONA ST, HUTCHINSON, KS, 67502","Match","Exact","3401 MONA ST, HUTCHINSON, KS, 67502",142933132,"L"
179309,"3401 N 12TH AVENUE","PENSACOLA","FL",32503,30.447408157,-87.208010202,309,"3401 N 12TH AVENUE, PENSACOLA, FL, 32503","Match","Exact","3401 N 12TH AVE, PENSACOLA, FL, 32503",93220644,"L"
179310,"3401 N MUELLER","BETHANY","OK",73008,35.5051219960001,-97.632205121,310,"3401 N MUELLER, BETHANY, OK, 73008","Match","Non_Exact","3401 N MUELLER AVE, BETHANY, OK, 73008",100390421,"L"
179311,"3401 N SUTTER ST","STOCKTON","CA",95204,37.9817473000001,-121.295741822,311,"3401 N SUTTER ST, STOCKTON, CA, 95204","Match","Exact","3401 N SUTTER ST, STOCKTON, CA, 95204",133848390,"L"
179312,"3401 NE 10TH STREET","OKLAHOMA CITY","OK",73117,35.478659674,-97.4500686539999,312,"3401 NE 10TH STREET, OKLAHOMA CITY, OK, 73117","Match","Exact","3401 NE 10TH ST, OKLAHOMA CITY, OK, 73117",100413023,"L"
179313,"3401 NW 128TH STREET","VANCOUVER","WA",98685,45.7139583750001,-122.706150775,313,"3401 NW 128TH STREET, VANCOUVER, WA, 98685","Match","Exact","3401 NW 128TH ST, VANCOUVER, WA, 98685",158320604,"L"
179314,"3401 NW 34TH ST","GAINESVILLE","FL",32605,29.6845572870001,-82.3723444679999,314,"3401 NW 34TH ST, GAINESVILLE, FL, 32605","Match","Exact","3401 NW 34TH ST, GAINESVILLE, FL, 32605",6804750,"R"
179315,"3401 NW 43RD AVENUE","LAUDERDALE LAKES","FL",33319,26.1678534000001,-80.2061969759999,315,"3401 NW 43RD AVENUE, LAUDERDALE LAKES, FL, 33319","Match","Exact","3401 NW 43RD AVE, LAUDERDALE LAKES, FL, 33319",114706539,"L"
179316,"3401 OLIVIA DR","WYLIE","TX",75098,33.0170722830001,-96.591983612,316,"3401 OLIVIA DR, WYLIE, TX, 75098","Match","Exact","3401 OLIVIA DR, WYLIE, TX, 75098",123562106,"R"
179317,"3401 OLYPHANT AVE","SCRANTON","PA",18509,NA,NA,317,"3401 OLYPHANT AVE, SCRANTON, PA, 18509","No_Match",NA,NA,NA,NA
179318,"3401 PANTHER PRIDE DRIVE","DUMFRIES","VA",22026,NA,NA,318,"3401 PANTHER PRIDE DRIVE, DUMFRIES, VA, 22026","No_Match",NA,NA,NA,NA
179319,"3401 PIN OAK LN","BEDFORD","TX",76021,32.863036886,-97.11839854,319,"3401 PIN OAK LN, BEDFORD, TX, 76021","Match","Exact","3401 PIN OAK LN, BEDFORD, TX, 76021",101941266,"R"
179320,"3401 PIONEER ROAD","ORLANDO","FL",32808,28.58540013,-81.46369872,320,"3401 PIONEER ROAD, ORLANDO, FL, 32808","Match","Exact","3401 PIONEER RD, ORLANDO, FL, 32808",94388495,"R"
179321,"3401 POBST DR","KETTERING","OH",45420,39.694345233,-84.121962907,321,"3401 POBST DR, KETTERING, OH, 45420","Match","Exact","3401 POBST DR, KETTERING, OH, 45420",143583337,"R"
179322,"3401 POTOMAC AVENUE","DALLAS","TX",75205,32.8376739340001,-96.7872028689999,322,"3401 POTOMAC AVENUE, DALLAS, TX, 75205","Match","Exact","3401 POTOMAC AVE, DALLAS, TX, 75205",102907703,"L"
179323,"3401 QUEBEC STREET SUITE 9350","DENVER","CO",80207,39.7647476550001,-104.903442355,323,"3401 QUEBEC STREET SUITE 9350, DENVER, CO, 80207","Match","Exact","3401 QUEBEC ST, DENVER, CO, 80207",177313160,"L"
179324,"3401 QUEBEC STREET","DENVER","CO",80207,39.7647476550001,-104.903442355,324,"3401 QUEBEC STREET, DENVER, CO, 80207","Match","Exact","3401 QUEBEC ST, DENVER, CO, 80207",177313160,"L"
179325,"3401 RICHMOND PARKWAY","WOODBURY","MN",55129,44.899248958,-92.896651392,325,"3401 RICHMOND PARKWAY, WOODBURY, MN, 55129","Match","Exact","3401 RICHMOND PKWY, WOODBURY, MN, 55129",97807434,"R"
179326,"3401 ROBEY TERRACE APT 101","SILVER SPRING","MD",20904,39.083000541,-76.93855228,326,"3401 ROBEY TERRACE APT 101, SILVER SPRING, MD, 20904","Match","Exact","3401 ROBEY TER, SILVER SPRING, MD, 20904",62074427,"R"
179327,"3401 ROY RICHARD DR","SCHERTZ","TX",78154,29.585200286,-98.2670422369999,327,"3401 ROY RICHARD DR, SCHERTZ, TX, 78154","Match","Exact","3401 ROY RICHARD DR, SCHERTZ, TX, 78154",54836763,"R"
179328,"3401 ROYAL VISTA BLVD A100","ROUND ROCK","TX",78681,30.546376068,-97.756056899,328,"3401 ROYAL VISTA BLVD A100, ROUND ROCK, TX, 78681","Match","Exact","3401 ROYAL VISTA BLVD, ROUND ROCK, TX, 78681",126496692,"R"
179329,"3401 S CRISSEY RD","MONCLOVA","OH",43542,41.5788125970001,-83.761274556,329,"3401 S CRISSEY RD, MONCLOVA, OH, 43542","Match","Exact","3401 S CRISSEY RD, MONCLOVA, OH, 43542",33928546,"R"
179330,"3401 S MAIN STREET UNIT A","SANTA ANA","CA",92707,33.703057201,-117.868115559,330,"3401 S MAIN STREET UNIT A, SANTA ANA, CA, 92707","Match","Non_Exact","3401 S MAIN ST, SANTA ANA, CA, 92707",144044252,"L"
179331,"3401 SAMMY DAVIS JR DRIVE","LAS VEGAS","NV",89109,NA,NA,331,"3401 SAMMY DAVIS JR DRIVE, LAS VEGAS, NV, 89109","No_Match",NA,NA,NA,NA
179332,"3401 SE 39TH TERRACE","TOPEKA","KS",66609,38.996414729,-95.6197923079999,332,"3401 SE 39TH TERRACE, TOPEKA, KS, 66609","Match","Exact","3401 SE 39TH TER, TOPEKA, KS, 66609",642887584,"R"
179333,"3401 SHOMA DRIVE","ROYAL PALM BEACH","FL",33414,26.673398573,-80.205413259,333,"3401 SHOMA DRIVE, ROYAL PALM BEACH, FL, 33414","Match","Exact","3401 SHOMA DR, ROYAL PALM BEACH, FL, 33414",640943901,"L"
179334,"3401 SIRIUS AVE STE 3","LAS VEGAS","NV",89102,36.13363508,-115.185839951,334,"3401 SIRIUS AVE STE 3, LAS VEGAS, NV, 89102","Match","Non_Exact","3401 W SIRIUS AVE, LAS VEGAS, NV, 89102",201869387,"L"
179335,"3401 SOUTH HILL ST","AMARILLO","TX",79103,35.178240223,-101.792565984,335,"3401 SOUTH HILL ST, AMARILLO, TX, 79103","Match","Exact","3401 S HILL ST, AMARILLO, TX, 79103",182660897,"R"
179336,"3401 SOUTHSIDE BOULEVARD","JACKSONVILLE","FL",32246,30.28066354,-81.559274419,336,"3401 SOUTHSIDE BOULEVARD, JACKSONVILLE, FL, 32246","Match","Non_Exact","3401 SOUTHSIDE BLVD, JACKSONVILLE, FL, 32216",83920443,"R"
179337,"3401 SWANSON DRIVE","PLANO","TX",75025,33.072479276,-96.7591326689999,337,"3401 SWANSON DRIVE, PLANO, TX, 75025","Match","Exact","3401 SWANSON DR, PLANO, TX, 75025",123485918,"L"
179338,"3401 TIMBER RIDGE TRAIL","MCKINNEY","TX",75071,33.235713171,-96.647553165,338,"3401 TIMBER RIDGE TRAIL, MCKINNEY, TX, 75071","Match","Exact","3401 TIMBER RIDGE TRL, MCKINNEY, TX, 75071",614153680,"L"
179339,"3401 US HWY 259 APT 231","LONGVIEW","TX",75605,32.558897733,-94.731238691,339,"3401 US HWY 259 APT 231, LONGVIEW, TX, 75605","Match","Non_Exact","3401 US HWY 259, LONGVIEW, TX, 75605",141108996,"L"
179340,"3401 VIA DOLCE SUITE 806","MARINA DEL REY","CA",90292,33.9799523990001,-118.462515411,340,"3401 VIA DOLCE SUITE 806, MARINA DEL REY, CA, 90292","Match","Exact","3401 VIA DOLCE, MARINA DEL REY, CA, 90292",650064803,"R"
179341,"3401 VINTON ST","HOPEWELL","VA",23860,37.303936204,-77.31802484,341,"3401 VINTON ST, HOPEWELL, VA, 23860","Match","Exact","3401 VINTON ST, HOPEWELL, VA, 23860",54195084,"L"
179342,"3401 W BROWARD BLVD","FORT LAUDERDALE","FL",33311,NA,NA,342,"3401 W BROWARD BLVD, FORT LAUDERDALE, FL, 33311","No_Match",NA,NA,NA,NA
179343,"3401 W GILBERT AVE","MUNCIE","IN",47304,NA,NA,343,"3401 W GILBERT AVE, MUNCIE, IN, 47304","No_Match",NA,NA,NA,NA
179344,"3401 W NORTH STREET","ST BERNICE","IN",47875,NA,NA,344,"3401 W NORTH STREET, ST BERNICE, IN, 47875","No_Match",NA,NA,NA,NA
179345,"3401 W PARMER LN 2212","AUSTIN","TX",78727,30.422877547,-97.709375403,345,"3401 W PARMER LN 2212, AUSTIN, TX, 78727","Match","Non_Exact","3401 W PARMER LN, AUSTIN, TX, 78727",64109550,"L"
179346,"3401 W WILLIAMS DR","PHOENIX","AZ",85027,33.6911839810001,-112.133126707,346,"3401 W WILLIAMS DR, PHOENIX, AZ, 85027","Match","Exact","3401 W WILLIAMS DR, PHOENIX, AZ, 85027",128843628,"L"
179347,"3401 WALNUT STREET 400A","PHILADELPHIA","PA",19104,39.952844946,-75.192310724,347,"3401 WALNUT STREET 400A, PHILADELPHIA, PA, 19104","Match","Exact","3401 WALNUT ST, PHILADELPHIA, PA, 19104",131404332,"R"
179348,"3401 WALTON AVENUE","FORT WORTH","TX",76133,32.6629089960001,-97.36357928,348,"3401 WALTON AVENUE, FORT WORTH, TX, 76133","Match","Exact","3401 WALTON AVE, FORT WORTH, TX, 76133",101893734,"L"
179349,"3401 WEMBLEY CT","RALEIGH","NC",27607,35.819948002,-78.695650485,349,"3401 WEMBLEY CT, RALEIGH, NC, 27607","Match","Exact","3401 WEMBLEY CT, RALEIGH, NC, 27607",72500298,"L"
179350,"3401 WESTBERRY SQUARE","JOPLIN","MO",64804,37.0538111480001,-94.55576684,350,"3401 WESTBERRY SQUARE, JOPLIN, MO, 64804","Match","Non_Exact","3401 WESTBERRY SQ W, JOPLIN, MO, 64804",635792859,"R"
179351,"3401 WOODBINE BLVD","TYLER","TX",75701,32.3113910860001,-95.2817231349999,351,"3401 WOODBINE BLVD, TYLER, TX, 75701","Match","Exact","3401 WOODBINE BLVD, TYLER, TX, 75701",141306711,"R"
179352,"3401 WOODMAN DR STE 12","KETTERING","OH",45429,39.695480022,-84.126938176,352,"3401 WOODMAN DR STE 12, KETTERING, OH, 45429","Match","Exact","3401 WOODMAN DR, KETTERING, OH, 45429",143583318,"R"
179353,"34011 AUDRAIN ROAD 716","MARTINSBURG","MO",65264,39.1338083300001,-91.667924112,353,"34011 AUDRAIN ROAD 716, MARTINSBURG, MO, 65264","Match","Exact","34011 AUDRAIN ROAD 716, MARTINSBURG, MO, 65264",34307470,"R"
179354,"34011 N TANGLEWOOD TRAIL","CAVE CREEK","AZ",85331,33.7937536760001,-111.977146403,354,"34011 N TANGLEWOOD TRAIL, CAVE CREEK, AZ, 85331","Match","Exact","34011 TANGLEWOOD TRL, CAVE CREEK, AZ, 85331",128581869,"R"
179355,"340148","TAMPA","FL",33694,NA,NA,355,"340148, TAMPA, FL, 33694","No_Match",NA,NA,NA,NA
179356,"34016 OAKLAND STREET","FARMINGTON HILLS","MI",48335,42.465749053,-83.383209649,356,"34016 OAKLAND STREET, FARMINGTON HILLS, MI, 48335","Match","Exact","34016 OAKLAND ST, FARMINGTON HILLS, MI, 48335",69795527,"R"
179357,"3402 17TH AVE N","BIRMINGHAM","AL",35234,33.5416569400001,-86.798138375,357,"3402 17TH AVE N, BIRMINGHAM, AL, 35234","Match","Exact","3402 17TH AVE N, BIRMINGHAM, AL, 35234",81725601,"L"
179358,"3402 21ST AVE NORTH","ARLINGTON","VA",22207,38.8974445010001,-77.10207117,358,"3402 21ST AVE NORTH, ARLINGTON, VA, 22207","Match","Exact","3402 21ST AVE N, ARLINGTON, VA, 22207",76469416,"L"
179359,"3402 45 STREET","KENOSHA","WI",53144,42.59554789,-87.850898684,359,"3402 45 STREET, KENOSHA, WI, 53144","Match","Exact","3402 45TH ST, KENOSHA, WI, 53144",627574219,"R"
179360,"3402 ALTAMONT ROAD SOUTH","BIRMINGHAM","AL",35205,33.504469494,-86.775327658,360,"3402 ALTAMONT ROAD SOUTH, BIRMINGHAM, AL, 35205","Match","Exact","3402 ALTAMONT RD S, BIRMINGHAM, AL, 35205",636445687,"L"
179361,"3402 BARKLEY WOODS RD","BALTIMORE","MD",21244,39.346548564,-76.751445256,361,"3402 BARKLEY WOODS RD, BALTIMORE, MD, 21244","Match","Exact","3402 BARKLEY WOODS RD, BALTIMORE, MD, 21244",191507627,"R"
179362,"3402 BOBOLINK ST","VICTORIA","TX",77901,28.7984621480001,-96.967774435,362,"3402 BOBOLINK ST, VICTORIA, TX, 77901","Match","Exact","3402 BOBOLINK ST, VICTORIA, TX, 77901",44579275,"L"
179363,"3402 CANNES CT","HAZEL CREST","IL",60429,41.5584744130001,-87.6990825889999,363,"3402 CANNES CT, HAZEL CREST, IL, 60429","Match","Exact","3402 CANNES CT, HAZEL CREST, IL, 60429",111708782,"R"
179364,"3402 DELEUIL AVENUE","TAMPA","FL",33610,27.998293473,-82.42222506,364,"3402 DELEUIL AVENUE, TAMPA, FL, 33610","Match","Exact","3402 DELEUIL AVE, TAMPA, FL, 33610",104533296,"L"
179365,"3402 GOODWIN ROAD","MANITOWOC","WI",54220,44.1387266720001,-87.690219099,365,"3402 GOODWIN ROAD, MANITOWOC, WI, 54220","Match","Exact","3402 GOODWIN RD, MANITOWOC, WI, 54220",147963621,"R"
179366,"3402 GOSHEN VALLEY ROAD","ROGERSVILLE","TN",37857,36.4105603580001,-82.827213757,366,"3402 GOSHEN VALLEY ROAD, ROGERSVILLE, TN, 37857","Match","Exact","3402 GOSHEN VALLEY RD, ROGERSVILLE, TN, 37857",42413244,"L"
179367,"3402 HABERSHAM CLUB DRIVE","CUMMING","GA",30041,34.1745163510001,-84.1115960549999,367,"3402 HABERSHAM CLUB DRIVE, CUMMING, GA, 30041","Match","Exact","3402 HABERSHAM CLUB DR, CUMMING, GA, 30041",70197726,"L"
179368,"3402 JUNEBERRY WAY","MURFREESBORO","TN",37128,35.849155228,-86.458432533,368,"3402 JUNEBERRY WAY, MURFREESBORO, TN, 37128","Match","Exact","3402 JUNEBERRY WAY, MURFREESBORO, TN, 37128",606769979,"R"
179369,"3402 KELSEY STREET","SAN DIEGO","CA",92124,32.807500857,-117.109684881,369,"3402 KELSEY STREET, SAN DIEGO, CA, 92124","Match","Exact","3402 KELSEY ST, SAN DIEGO, CA, 92124",195321780,"L"
179370,"3402 LIBERTY BLVD","SOUTH GATE","CA",90280,33.9603267630001,-118.207582141,370,"3402 LIBERTY BLVD, SOUTH GATE, CA, 90280","Match","Exact","3402 LIBERTY BLVD, SOUTH GATE, CA, 90280",141676259,"R"
179371,"3402 MARS COURT / SUITE111","TRACY","CA",95377,37.7064045400001,-121.426622404,371,"3402 MARS COURT / SUITE111, TRACY, CA, 95377","Match","Exact","3402 MARS CT, TRACY, CA, 95377",133915965,"L"
179372,"3402 MILLBROOK PLACE","MIDLAND","TX",79707,32.0211658310001,-102.130490728,372,"3402 MILLBROOK PLACE, MIDLAND, TX, 79707","Match","Exact","3402 MILLBROOK PL, MIDLAND, TX, 79707",139578750,"R"
179373,"3402 NORTH 11TH STREET","MILWAUKEE","WI",53206,43.0803275740001,-87.9248677419999,373,"3402 NORTH 11TH STREET, MILWAUKEE, WI, 53206","Match","Exact","3402 N 11TH ST, MILWAUKEE, WI, 53206",77739127,"R"
179374,"3402 PORTLAND AVE NO 2","MINNEAPOLIS","MN",55407,44.9412039430001,-93.267656718,374,"3402 PORTLAND AVE NO 2, MINNEAPOLIS, MN, 55407","Match","Non_Exact","3402 PORTLAND AVE S, MINNEAPOLIS, MN, 55407",43633826,"R"
179375,"3402 SUGAR MAPLE LN","VERONA","WI",53593,43.039028644,-89.557609401,375,"3402 SUGAR MAPLE LN, VERONA, WI, 53593","Match","Exact","3402 SUGAR MAPLE LN, VERONA, WI, 53593",626240830,"R"
179376,"3402 W 226TH ST","TORRANCE","CA",90505,33.822575935,-118.344703196,376,"3402 W 226TH ST, TORRANCE, CA, 90505","Match","Exact","3402 W 226TH ST, TORRANCE, CA, 90505",141665682,"L"
179377,"3402 WARREN RD","PEARLAND","TX",77584,29.5276637710001,-95.278222278,377,"3402 WARREN RD, PEARLAND, TX, 77584","Match","Exact","3402 WARREN RD, PEARLAND, TX, 77584",116647032,"R"
179378,"3402 WICKERSHAM LN","HOUSTON","TX",77027,29.743424852,-95.4303362479999,378,"3402 WICKERSHAM LN, HOUSTON, TX, 77027","Match","Exact","3402 WICKERSHAM LN, HOUSTON, TX, 77027",96062753,"R"
179379,"34020 170TH AVE SE","AUBURN","WA",98092,47.2971726320001,-122.115414957,379,"34020 170TH AVE SE, AUBURN, WA, 98092","Match","Exact","34020 170TH AVE SE, AUBURN, WA, 98092",186935829,"R"
179380,"34020 CHARLOTTE DR","STERLING HEIGHTS","MI",48312,42.546122338,-82.978708075,380,"34020 CHARLOTTE DR, STERLING HEIGHTS, MI, 48312","Match","Exact","34020 CHARLOTTE DR, STERLING HEIGHTS, MI, 48312",110707677,"R"
179381,"34029 SCHOOLCRAFT ROAD","LIVONIA","MI",48150,42.3820338510001,-83.3796384029999,381,"34029 SCHOOLCRAFT ROAD, LIVONIA, MI, 48150","Match","Exact","34029 SCHOOLCRAFT RD, LIVONIA, MI, 48150",95412905,"L"
179382,"3403 10TH STREET SUITE 300","RIVERSIDE","CA",92501,33.978447599,-117.372406697,382,"3403 10TH STREET SUITE 300, RIVERSIDE, CA, 92501","Match","Exact","3403 10TH ST, RIVERSIDE, CA, 92501",194742112,"R"
179383,"3403 194TH STREET","HOMEWOOD","IL",60430,41.5370606860001,-87.69479897,383,"3403 194TH STREET, HOMEWOOD, IL, 60430","Match","Exact","3403 194TH ST, HOMEWOOD, IL, 60430",111709111,"L"
179384,"3403 CESFORD GRANGE","KESWICK","VA",22947,37.990088013,-78.378047044,384,"3403 CESFORD GRANGE, KESWICK, VA, 22947","Match","Exact","3403 CESFORD GRANGE, KESWICK, VA, 22947",83375571,"R"
179385,"3403 E MAIN LOT 1504","MESA","AZ",85213,NA,NA,385,"3403 E MAIN LOT 1504, MESA, AZ, 85213","No_Match",NA,NA,NA,NA
179386,"3403 EAST GALLOWAY DRIVE","RICHFIELD","OH",44286,41.2284603150001,-81.612709571,386,"3403 EAST GALLOWAY DRIVE, RICHFIELD, OH, 44286","Match","Exact","3403 E GALLOWAY DR, RICHFIELD, OH, 44286",61384474,"R"
179387,"3403 FOSTER AVE APT 6G","BROOKLYN","NY",11210,40.638875883,-73.944054346,387,"3403 FOSTER AVE APT 6G, BROOKLYN, NY, 11210","Match","Exact","3403 FOSTER AVE, BROOKLYN, NY, 11210",611732164,"L"
179388,"3403 GALT OCEAN DRIVE","FORT LAUDERDALE","FL",33308,26.170079688,-80.099147774,388,"3403 GALT OCEAN DRIVE, FORT LAUDERDALE, FL, 33308","Match","Exact","3403 GALT OCEAN DR, FORT LAUDERDALE, FL, 33308",650080475,"L"
179389,"3403 HINES CIRCLE","ANCHORAGE","AK",99516,61.094712004,-149.818404328,389,"3403 HINES CIRCLE, ANCHORAGE, AK, 99516","Match","Exact","3403 HINES CIR, ANCHORAGE, AK, 99516",605184668,"L"
179390,"3403 KERRY PL","AUGUSTA","GA",30909,33.481047829,-82.066294377,390,"3403 KERRY PL, AUGUSTA, GA, 30909","Match","Exact","3403 KERRY PL, AUGUSTA, GA, 30909",55635276,"R"
179391,"3403 MCKINNEY AVE","DALLAS","TX",75204,32.80507679,-96.798855128,391,"3403 MCKINNEY AVE, DALLAS, TX, 75204","Match","Exact","3403 MCKINNEY AVE, DALLAS, TX, 75204",102909164,"L"
179392,"3403 MOSS SIDE AVENUE","RICHMOND","VA",23222,37.5782349400001,-77.4409514869999,392,"3403 MOSS SIDE AVENUE, RICHMOND, VA, 23222","Match","Exact","3403 MOSS SIDE AVE, RICHMOND, VA, 23222",201538447,"R"
179393,"3403 NEW ORLEANS STREET","NEW ORLEANS","LA",70122,29.9918968810001,-90.0669464329999,393,"3403 NEW ORLEANS STREET, NEW ORLEANS, LA, 70122","Match","Exact","3403 NEW ORLEANS ST, NEW ORLEANS, LA, 70122",191708917,"R"
179394,"3403 S MANOR DRIVE","LANSING","IL",60438,41.5505825700001,-87.534207383,394,"3403 S MANOR DRIVE, LANSING, IL, 60438","Match","Exact","3403 S MANOR DR, LANSING, IL, 60438",111786703,"R"
179395,"3403 SEVEN MILE LN","BALTIMORE","MD",21208,39.3705882360001,-76.70484678,395,"3403 SEVEN MILE LN, BALTIMORE, MD, 21208","Match","Exact","3403 SEVEN MILE LN, BALTIMORE, MD, 21208",206403902,"L"
179396,"3403 SOUTH PERKINS AVE","MEMPHIS","TN",38118,35.055933715,-89.907074515,396,"3403 SOUTH PERKINS AVE, MEMPHIS, TN, 38118","Match","Non_Exact","3403 S PERKINS RD, MEMPHIS, TN, 38118",72927864,"R"
179397,"3403 SOUTHERN AVE","BALTIMORE","MD",21214,39.3423963010001,-76.5634133139999,397,"3403 SOUTHERN AVE, BALTIMORE, MD, 21214","Match","Exact","3403 SOUTHERN AVE, BALTIMORE, MD, 21214",206411172,"R"
179398,"3403 STEAMBOAT ISLAND RD NW 337","OLYMPIA","WA",98502,47.079664634,-123.020486102,398,"3403 STEAMBOAT ISLAND RD NW 337, OLYMPIA, WA, 98502","Match","Exact","3403 STEAMBOAT ISLAND RD NW, OLYMPIA, WA, 98502",642491998,"L"
179399,"3403 STRATHMORE AVE","BALTIMORE","MD",21215,39.360858895,-76.6926362249999,399,"3403 STRATHMORE AVE, BALTIMORE, MD, 21215","Match","Non_Exact","3403 W STRATHMORE AVE, BALTIMORE, MD, 21215",206465094,"L"
179400,"3403 SUMMER AVE","MEMPHIS","TN",38122,35.149412494,-89.947341493,400,"3403 SUMMER AVE, MEMPHIS, TN, 38122","Match","Exact","3403 SUMMER AVE, MEMPHIS, TN, 38122",72915511,"R"
179401,"3403 TEA ROSE DR","EL DORADO HILLS","CA",95762,38.6806354670001,-121.008370872,401,"3403 TEA ROSE DR, EL DORADO HILLS, CA, 95762","Match","Exact","3403 TEA ROSE DR, EL DORADO HILLS, CA, 95762",133063098,"L"
179402,"3403 VILLAGE PARK LANE","ATLANTA","GA",30331,33.663734795,-84.5252753139999,402,"3403 VILLAGE PARK LANE, ATLANTA, GA, 30331","Match","Non_Exact","3403 VILLAGE PARK LN SW, ATLANTA, GA, 30331",618350056,"R"
179403,"3403 W 56TH","CLEVELAND","OH",44102,41.461591609,-81.725179415,403,"3403 W 56TH, CLEVELAND, OH, 44102","Match","Non_Exact","3403 W 56TH ST, CLEVELAND, OH, 44102",61105582,"L"
179404,"3403 W LAWRENCE AVE","CHICAGO","IL",60625,41.9683956060001,-87.7135454099999,404,"3403 W LAWRENCE AVE, CHICAGO, IL, 60625","Match","Exact","3403 W LAWRENCE AVE, CHICAGO, IL, 60625",111756536,"L"
179405,"3403 W T C JESTER BLVD STE 354","HOUSTON","TX",77018,29.8173004220001,-95.446067635,405,"3403 W T C JESTER BLVD STE 354, HOUSTON, TX, 77018","Match","Non_Exact","3403 W T C JESTER BLVD, HOUSTON, TX, 77018",96639730,"L"
179406,"3403 WESSYNTON WAY","ALEXANDRIA","VA",22309,38.718368964,-77.090434693,406,"3403 WESSYNTON WAY, ALEXANDRIA, VA, 22309","Match","Exact","3403 WESSYNTON WAY, ALEXANDRIA, VA, 22309",76053192,"L"
179407,"3403 WINNETKA RD","GLENVIEW","IL",60026,42.0948528500001,-87.8424361899999,407,"3403 WINNETKA RD, GLENVIEW, IL, 60026","Match","Exact","3403 WINNETKA RD, GLENVIEW, IL, 60026",111728694,"R"
179408,"34031 MORRIS RANCH RD","MOUNTAIN CENTER","CA",92561,33.617443312,-116.626436199,408,"34031 MORRIS RANCH RD, MOUNTAIN CENTER, CA, 92561","Match","Exact","34031 MORRIS RANCH RD, MOUNTAIN CENTER, CA, 92561",194697026,"L"
179409,"34031 WALNUT LN","CRESWELL","OR",97426,43.94688725,-123.005029742,409,"34031 WALNUT LN, CRESWELL, OR, 97426","Match","Exact","34031 WALNUT LN, CRESWELL, OR, 97426",178197074,"L"
179410,"34034 N 43RD STREET","CAVE CREEK","AZ",85331,33.7951393870001,-111.98897488,410,"34034 N 43RD STREET, CAVE CREEK, AZ, 85331","Match","Exact","34034 N 43RD ST, CAVE CREEK, AZ, 85331",243926235,"R"
179411,"34037 WOODLAND CIRCLE RIDGE MANOR","DADE CITY","FL",33523,28.511153252,-82.185302039,411,"34037 WOODLAND CIRCLE RIDGE MANOR, DADE CITY, FL, 33523","Match","Exact","34037 WOODLAND CIR, DADE CITY, FL, 33523",85453327,"R"
179412,"3404 20TH ST","WASHINGON","DC",20018,38.9322434850001,-76.976225503,412,"3404 20TH ST, WASHINGON, DC, 20018","Match","Non_Exact","3404 20TH ST NE, WASHINGTON, DC, 20018",76229136,"L"
179413,"3404 2ND AVE NORTH APT 2","BILLINGS","MT",59101,45.779319582,-108.51410833,413,"3404 2ND AVE NORTH APT 2, BILLINGS, MT, 59101","Match","Exact","3404 2ND AVE N, BILLINGS, MT, 59101",181477420,"L"
179414,"3404 57TH STREET","WOODSIDE","NY",11377,NA,NA,414,"3404 57TH STREET, WOODSIDE, NY, 11377","No_Match",NA,NA,NA,NA
179415,"3404 87TH ST","LUBBOCK","TX",79423,33.515288565,-101.888202575,415,"3404 87TH ST, LUBBOCK, TX, 79423","Match","Exact","3404 87TH ST, LUBBOCK, TX, 79423",185255894,"R"
179416,"3404 93RD STREET","LUBBOCK","TX",79423,33.5101674270001,-101.888306414,416,"3404 93RD STREET, LUBBOCK, TX, 79423","Match","Exact","3404 93RD ST, LUBBOCK, TX, 79423",185260305,"L"
179417,"3404 ANITA DRIVE","MCKINNEY","TX",75070,33.168701598,-96.70240771,417,"3404 ANITA DRIVE, MCKINNEY, TX, 75070","Match","Exact","3404 ANITA DR, MCKINNEY, TX, 75070",210482985,"L"
179418,"3404 AVE S","FORT PIERCE","FL",34947,27.4675664230001,-80.359098527,418,"3404 AVE S, FORT PIERCE, FL, 34947","Match","Exact","3404 AVENUE S, FORT PIERCE, FL, 34947",120146478,"R"
179419,"3404 BARBOUR LANE","LOUISVILLE","KY",40241,38.297609245,-85.603774352,419,"3404 BARBOUR LANE, LOUISVILLE, KY, 40241","Match","Exact","3404 BARBOUR LN, LOUISVILLE, KY, 40241",96862335,"L"
179420,"3404 BRADFIELD DR","CLARKSVILLE","TN",37042,36.6373106450001,-87.389409359,420,"3404 BRADFIELD DR, CLARKSVILLE, TN, 37042","Match","Exact","3404 BRADFIELD DR, CLARKSVILLE, TN, 37042",635052153,"R"
179421,"3404 BRADFIELD STREET","CLARKSVILLE","TN",37042,36.6373106450001,-87.389409359,421,"3404 BRADFIELD STREET, CLARKSVILLE, TN, 37042","Match","Non_Exact","3404 BRADFIELD DR, CLARKSVILLE, TN, 37042",635052153,"R"
179422,"3404 BRISTOL CT","CAMERON PARK","CA",95682,38.692529972,-120.995105303,422,"3404 BRISTOL CT, CAMERON PARK, CA, 95682","Match","Exact","3404 BRISTOL CT, CAMERON PARK, CA, 95682",133075702,"L"
179423,"3404 BRUSH CREEK DR","WEATHERFORD","TX",76087,32.7674894840001,-97.6961641619999,423,"3404 BRUSH CREEK DR, WEATHERFORD, TX, 76087","Match","Exact","3404 BRUSH CREEK DR, WEATHERFORD, TX, 76087",625073684,"L"
179424,"3404 BRYANT ST","PALO ALTO","CA",94306,37.421460532,-122.123717866,424,"3404 BRYANT ST, PALO ALTO, CA, 94306","Match","Exact","3404 BRYANT ST, PALO ALTO, CA, 94306",122952519,"R"
179425,"3404 COVALL CIRCLE","ATLANTA","GA",30349,33.662275692,-84.5613364499999,425,"3404 COVALL CIRCLE, ATLANTA, GA, 30349","Match","Non_Exact","3404 COVALL DR, ATLANTA, GA, 30349",624704041,"L"
179426,"3404 DEEDS ROAD","GRANVILLE","OH",43023,40.010743211,-82.5602350729999,426,"3404 DEEDS ROAD, GRANVILLE, OH, 43023","Match","Exact","3404 DEEDS RD, GRANVILLE, OH, 43023",61561980,"R"
179427,"3404 EDGMONT AVE UNIT 318","BROOKHAVEN","PA",19015,39.8701130530001,-75.384047172,427,"3404 EDGMONT AVE UNIT 318, BROOKHAVEN, PA, 19015","Match","Exact","3404 EDGMONT AVE, BROOKHAVEN, PA, 19015",649314711,"L"
179428,"3404 ELGIN AVE","BALTIMORE","MD",21216,39.3131178940001,-76.674541452,428,"3404 ELGIN AVE, BALTIMORE, MD, 21216","Match","Exact","3404 ELGIN AVE, BALTIMORE, MD, 21216",206442111,"R"
179429,"3404 FILLMORE STREET","RIVERSIDE","CA",92503,33.8931613980001,-117.478644485,429,"3404 FILLMORE STREET, RIVERSIDE, CA, 92503","Match","Exact","3404 FILLMORE ST, RIVERSIDE, CA, 92503",194738162,"L"
179430,"3404 FIRESIDE DR","FLOWER MOUND","TX",75028,33.0316881260001,-97.0529523819999,430,"3404 FIRESIDE DR, FLOWER MOUND, TX, 75028","Match","Exact","3404 FIRESIDE DR, FLOWER MOUND, TX, 75028",103376757,"L"
179431,"3404 FORSYTHE PL","GODFREY","IL",62035,38.93469915,-90.19378997,431,"3404 FORSYTHE PL, GODFREY, IL, 62035","Match","Non_Exact","3404 FORSYTH PL, GODFREY, IL, 62035",107677627,"L"
179432,"3404 JESTER COURT","PEARLAND","TX",77581,NA,NA,432,"3404 JESTER COURT, PEARLAND, TX, 77581","No_Match",NA,NA,NA,NA
179433,"3404 MCKINLEY STREET","DEARBORN","MI",48124,42.2866158590001,-83.253732672,433,"3404 MCKINLEY STREET, DEARBORN, MI, 48124","Match","Exact","3404 MCKINLEY ST, DEARBORN, MI, 48124",95436767,"R"
179434,"3404 MELONY HILL LANE","PEARLAND","TX",77584,29.546147209,-95.412862979,434,"3404 MELONY HILL LANE, PEARLAND, TX, 77584","Match","Non_Exact","3404 MELLONY HILL LN, PEARLAND, TX, 77584",641831119,"R"
179435,"3404 MIDDLE CREEK ROAD","ELIZABETHTOWN","KY",42701,37.6603648400001,-85.7600056639999,435,"3404 MIDDLE CREEK ROAD, ELIZABETHTOWN, KY, 42701","Match","Exact","3404 MIDDLE CREEK RD, ELIZABETHTOWN, KY, 42701",34638487,"R"
179436,"3404 N AVON AVE","TAMPA","FL",33603,27.9746890260001,-82.456114537,436,"3404 N AVON AVE, TAMPA, FL, 33603","Match","Exact","3404 N AVON AVE, TAMPA, FL, 33603",104522990,"L"
179437,"3404 N MAIZE ROAD","WICHITA","KS",67205,37.745919938,-97.462834991,437,"3404 N MAIZE ROAD, WICHITA, KS, 67205","Match","Exact","3404 N MAIZE RD, WICHITA, KS, 67205",649188544,"R"
179438,"3404 NEWTON AVE N","MINNEAPOLIS","MN",55412,45.017036132,-93.305724735,438,"3404 NEWTON AVE N, MINNEAPOLIS, MN, 55412","Match","Exact","3404 NEWTON AVE N, MINNEAPOLIS, MN, 55412",43622050,"R"
179439,"3404 NORMANDY ROAD","GREENSBORO","NC",27408,36.1170790910001,-79.81729792,439,"3404 NORMANDY ROAD, GREENSBORO, NC, 27408","Match","Exact","3404 NORMANDY RD, GREENSBORO, NC, 27408",131030330,"R"
179440,"3404 PLEASANT AVENUE SOUTH","MINNEAPOLIS","MN",55408,44.9411256130001,-93.2830640509999,440,"3404 PLEASANT AVENUE SOUTH, MINNEAPOLIS, MN, 55408","Match","Exact","3404 PLEASANT AVE S, MINNEAPOLIS, MN, 55408",43633508,"R"
179441,"3404 RIALTO AVE","EVANS","CO",80620,40.382096914,-104.749322981,441,"3404 RIALTO AVE, EVANS, CO, 80620","Match","Exact","3404 RIALTO AVE, EVANS, CO, 80620",188728364,"L"
179442,"3404 RODMAN STREET NW","WASHINGTON","DC",20008,38.93908387,-77.067577983,442,"3404 RODMAN STREET NW, WASHINGTON, DC, 20008","Match","Exact","3404 RODMAN ST NW, WASHINGTON, DC, 20008",632575875,"L"
179443,"3404 S 28TH ST","FORT SMITH","AR",72901,35.350408196,-94.4039703349999,443,"3404 S 28TH ST, FORT SMITH, AR, 72901","Match","Exact","3404 S 28TH ST, FORT SMITH, AR, 72901",56104060,"R"
179444,"3404 SCOTTISH TRACE","LEXINGTON","KY",40509,38.0243321080001,-84.396232352,444,"3404 SCOTTISH TRACE, LEXINGTON, KY, 40509","Match","Exact","3404 SCOTTISH TRCE, LEXINGTON, KY, 40509",635631734,"L"
179445,"3404 STOCKER STREET     APT 4","LOS ANGELES","CA",90008,34.0083993870001,-118.331663427,445,"3404 STOCKER STREET     APT 4, LOS ANGELES, CA, 90008","Match","Exact","3404 STOCKER ST, LOS ANGELES, CA, 90008",142729230,"L"
179446,"3404 TAFT","SAINT LOUIS","MO",63111,38.574639742,-90.243394956,446,"3404 TAFT, SAINT LOUIS, MO, 63111","Match","Non_Exact","3404 TAFT AVE, SAINT LOUIS, MO, 63111",605139766,"L"
179447,"3404 TERRY CIR","MOUNTAIN BROOK","AL",35223,33.5092587230001,-86.6936244889999,447,"3404 TERRY CIR, MOUNTAIN BROOK, AL, 35223","Match","Exact","3404 TERRY CIR, MOUNTAIN BRK, AL, 35223",81721477,"R"
179448,"3404 VIBURNUM DRIVE","WYLIE","TX",75098,33.0146992460001,-96.591869386,448,"3404 VIBURNUM DRIVE, WYLIE, TX, 75098","Match","Exact","3404 VIBURNUM DR, WYLIE, TX, 75098",123562131,"R"
179449,"3404 VILLAGE PARK LN SW","ATLANTA","GA",30331,33.6636651860001,-84.52524054,449,"3404 VILLAGE PARK LN SW, ATLANTA, GA, 30331","Match","Exact","3404 VILLAGE PARK LN SW, ATLANTA, GA, 30331",618350056,"L"
179450,"3404 WEMBLY PL N APT B","WILSON","NC",27896,35.765830973,-77.933668821,450,"3404 WEMBLY PL N APT B, WILSON, NC, 27896","Match","Non_Exact","3404 WEMBLY PL, WILSON, NC, 27896",26728897,"R"
179451,"3404 WESTMINSTER WAY","NAZARETH","PA",18064,40.7294178400001,-75.379718564,451,"3404 WESTMINSTER WAY, NAZARETH, PA, 18064","Match","Exact","3404 WESTMINSTER WAY, NAZARETH, PA, 18064",629618862,"R"
179452,"3404 YORK LANE","CINCINNATI","OH",45215,39.2154915900001,-84.480198752,452,"3404 YORK LANE, CINCINNATI, OH, 45215","Match","Exact","3404 YORK LN, CINCINNATI, OH, 45215",103923678,"R"
179453,"34041 CALLITA DR","DANA POINT","CA",92629,33.4686151080001,-117.693314265,453,"34041 CALLITA DR, DANA POINT, CA, 92629","Match","Exact","34041 CALLITA DR, DANA POINT, CA, 92629",647291018,"R"
179454,"34041 SYLVESTER DR","FREMONT","CA",94555,37.5814909600001,-122.03984155,454,"34041 SYLVESTER DR, FREMONT, CA, 94555","Match","Exact","34041 SYLVESTER DR, FREMONT, CA, 94555",125025338,"R"
179455,"34042 AURELIO","DANA POINT","CA",92629,33.4687060420001,-117.692836186,455,"34042 AURELIO, DANA POINT, CA, 92629","Match","Non_Exact","34042 AURELIO DR, DANA POINT, CA, 92629",647291045,"L"
179456,"34045 FREDERICK LN","FREMONT","CA",94555,37.5699219320001,-122.052787608,456,"34045 FREDERICK LN, FREMONT, CA, 94555","Match","Exact","34045 FREDERICK LN, FREMONT, CA, 94555",125041989,"R"
179457,"34045 YUCAIPA BLVD STE 106","YUCAIPA","CA",92399,34.0339135310001,-117.061916414,457,"34045 YUCAIPA BLVD STE 106, YUCAIPA, CA, 92399","Match","Exact","34045 YUCAIPA BLVD, YUCAIPA, CA, 92399",144667532,"R"
179458,"34047 HAMPTON ROAD","EUGENE","OR",97405,NA,NA,458,"34047 HAMPTON ROAD, EUGENE, OR, 97405","No_Match",NA,NA,NA,NA
179459,"34047 WILLIAMSBURG CT","STERLING HEIGHTS","MI",48312,42.5448080670001,-83.0238028919999,459,"34047 WILLIAMSBURG CT, STERLING HEIGHTS, MI, 48312","Match","Exact","34047 WILLIAMSBURG CT, STERLING HEIGHTS, MI, 48312",110672160,"R"
179460,"3405 15TH AVE S APT 4","MINNEAPOLIS","MN",55407,44.9411464460001,-93.253717792,460,"3405 15TH AVE S APT 4, MINNEAPOLIS, MN, 55407","Match","Exact","3405 15TH AVE S, MINNEAPOLIS, MN, 55407",43634744,"L"
179461,"3405 220TH ST E","FARIBAULT","MN",55021,44.268843492,-93.235259804,461,"3405 220TH ST E, FARIBAULT, MN, 55021","Match","Exact","3405 220TH ST E, FARIBAULT, MN, 55021",37319753,"R"
179462,"3405 71ST STREET APT 2B","JACKSON HEIGHTS","NY",11372,NA,NA,462,"3405 71ST STREET APT 2B, JACKSON HEIGHTS, NY, 11372","No_Match",NA,NA,NA,NA
179463,"3405 BLUEBERRY CLIMBER AVE","NORTH LAS VEGAS","NV",89031,36.271462372,-115.185832543,463,"3405 BLUEBERRY CLIMBER AVE, NORTH LAS VEGAS, NV, 89031","Match","Exact","3405 BLUEBERRY CLIMBER AVE, N LAS VEGAS, NV, 89031",627628628,"R"
179464,"3405 BROADWAY APT 2A","NEW YORK","NY",10031,40.822189488,-73.9535573219999,464,"3405 BROADWAY APT 2A, NEW YORK, NY, 10031","Match","Exact","3405 BROADWAY, NEW YORK, NY, 10031",59655880,"L"
179465,"3405 BROWN STREET","JAMESTOWN","NY",14701,42.116386576,-79.283647225,465,"3405 BROWN STREET, JAMESTOWN, NY, 14701","Match","Exact","3405 BROWN ST, JAMESTOWN, NY, 14701",636422401,"R"
179466,"3405 CAPTAIN LADD CT","ROUND ROCK","TX",78665,30.5370327900001,-97.6114861409999,466,"3405 CAPTAIN LADD CT, ROUND ROCK, TX, 78665","Match","Exact","3405 CAPTAIN LADD CT, ROUND ROCK, TX, 78665",126510969,"R"
179467,"3405 CASCADES BLVD","TEXARKANA","TX",75503,NA,NA,467,"3405 CASCADES BLVD, TEXARKANA, TX, 75503","No_Match",NA,NA,NA,NA
179468,"3405 CHICAGO AVE","MINNEAPOLIS","MN",55407,44.941157355,-93.262552878,468,"3405 CHICAGO AVE, MINNEAPOLIS, MN, 55407","Match","Non_Exact","3405 CHICAGO AVE S, MINNEAPOLIS, MN, 55407",43633904,"L"
179469,"3405 COUNTY ROAD 31","GALION","OH",44833,40.698312925,-82.852818246,469,"3405 COUNTY ROAD 31, GALION, OH, 44833","Match","Exact","3405 CO RD 31, GALION, OH, 44833",12746608,"L"
179470,"3405 DEER RUN DRIVE","DANVILLE","IL",61834,NA,NA,470,"3405 DEER RUN DRIVE, DANVILLE, IL, 61834","No_Match",NA,NA,NA,NA
179471,"3405 DOSS STREET","COPPERAS COVE","TX",76522,31.132207124,-97.945385194,471,"3405 DOSS STREET, COPPERAS COVE, TX, 76522","Match","Exact","3405 DOSS ST, COPPERAS COVE, TX, 76522",643013766,"R"
179472,"3405 EAST GENESEE STREET","SAGINAW","MI",48601,43.401913275,-83.913139964,472,"3405 EAST GENESEE STREET, SAGINAW, MI, 48601","Match","Non_Exact","3405 E GENESEE AVE, SAGINAW, MI, 48601",80216573,"R"
179473,"3405 EDWARDS DRIVE","PLANO","TX",75025,33.1024312440001,-96.7580046799999,473,"3405 EDWARDS DRIVE, PLANO, TX, 75025","Match","Exact","3405 EDWARDS DR, PLANO, TX, 75025",123556716,"L"
179474,"3405 GARLAND","PLAINVIEW","TX",79072,34.2076041450001,-101.745520819,474,"3405 GARLAND, PLAINVIEW, TX, 79072","Match","Non_Exact","3405 GARLAND ST, PLAINVIEW, TX, 79072",185695788,"L"
179475,"3405 HALLMARK DRIVE SE","MARIETTA","GA",30067,33.925214172,-84.453225894,475,"3405 HALLMARK DRIVE SE, MARIETTA, GA, 30067","Match","Non_Exact","3405 HALLMARK DR, MARIETTA, GA, 30067",17183737,"L"
179476,"3405 HARVEST GROVE LANE SE","CONYERS","GA",30013,33.6420886560001,-83.995693569,476,"3405 HARVEST GROVE LANE SE, CONYERS, GA, 30013","Match","Non_Exact","3405 HARVEST GROVE LN, CONYERS, GA, 30013",23752956,"L"
179477,"3405 HATCHER ST","FORT WORTH","TX",76119,32.7118478580001,-97.258248537,477,"3405 HATCHER ST, FORT WORTH, TX, 76119","Match","Exact","3405 HATCHER ST, FORT WORTH, TX, 76119",101898659,"L"
179478,"3405 HEADENS BRIDGE RD","BEDFORD","VA",24523,37.196910228,-79.5061195279999,478,"3405 HEADENS BRIDGE RD, BEDFORD, VA, 24523","Match","Exact","3405 HEADENS BRIDGE RD, BEDFORD, VA, 24523",228437924,"L"
179479,"3405 HERITAGE OAKS DRIVE","HILLIARD","OH",43026,40.02010247,-83.1725702049999,479,"3405 HERITAGE OAKS DRIVE, HILLIARD, OH, 43026","Match","Exact","3405 HERITAGE OAKS DR, HILLIARD, OH, 43026",218698830,"R"
179480,"3405 HIGHLAND DRIVE","CARLSBAD","CA",92008,33.1612805620001,-117.334607984,480,"3405 HIGHLAND DRIVE, CARLSBAD, CA, 92008","Match","Exact","3405 HIGHLAND DR, CARLSBAD, CA, 92008",195290635,"R"
179481,"3405 JACKSON STREET","BELLWOOD","IL",60104,41.8744198420001,-87.87493346,481,"3405 JACKSON STREET, BELLWOOD, IL, 60104","Match","Exact","3405 JACKSON ST, BELLWOOD, IL, 60104",111788166,"R"
179482,"3405 LAKEVIEW DR","UNION CITY","TN",38261,36.447693626,-89.093229853,482,"3405 LAKEVIEW DR, UNION CITY, TN, 38261","Match","Exact","3405 LAKEVIEW DR, UNION CITY, TN, 38261",30895594,"R"
179483,"3405 LELANI WAY","ACCOKEEK","MD",20607,38.694305295,-76.950227941,483,"3405 LELANI WAY, ACCOKEEK, MD, 20607","Match","Exact","3405 LELANI WAY, ACCOKEEK, MD, 20607",648162202,"L"
179484,"3405 MARYMOUNT DR","DENTON","TX",76210,33.1587661570001,-97.094831331,484,"3405 MARYMOUNT DR, DENTON, TX, 76210","Match","Exact","3405 MARYMOUNT DR, DENTON, TX, 76210",218076463,"L"
179485,"3405 MARYMOUNT DRIVE","DENTON","TX",76210,33.1587661570001,-97.094831331,485,"3405 MARYMOUNT DRIVE, DENTON, TX, 76210","Match","Exact","3405 MARYMOUNT DR, DENTON, TX, 76210",218076463,"L"
179486,"3405 MYRICA ST","TAMPA","FL",33619,27.9746753580001,-82.3692931159999,486,"3405 MYRICA ST, TAMPA, FL, 33619","Match","Exact","3405 MYRICA ST, TAMPA, FL, 33619",104536971,"R"
179487,"3405 N DOWNING ST STE D","DENVER","CO",80205,39.764623127,-104.973342637,487,"3405 N DOWNING ST STE D, DENVER, CO, 80205","Match","Exact","3405 DOWNING ST, DENVER, CO, 80205",177305069,"L"
179488,"3405 N HIGLEY RD","MESA","AZ",85215,33.474914304,-111.71847303,488,"3405 N HIGLEY RD, MESA, AZ, 85215","Match","Exact","3405 N HIGLEY RD, MESA, AZ, 85215",646790487,"R"
179489,"3405 N QUINTANA DR","FLAGSTAFF","AZ",86001,NA,NA,489,"3405 N QUINTANA DR, FLAGSTAFF, AZ, 86001","Tie",NA,NA,NA,NA
179490,"3405 N SHORE ROAD","HADLEY","NY",12835,43.3171189380001,-73.916622408,490,"3405 N SHORE ROAD, HADLEY, NY, 12835","Match","Exact","3405 N SHORE RD, HADLEY, NY, 12835",18760623,"R"
179491,"3405 NEWKIRK AVENUE APT 4A","BROOKLYN","NY",11203,40.6402411980001,-73.9444420409999,491,"3405 NEWKIRK AVENUE APT 4A, BROOKLYN, NY, 11203","Match","Exact","3405 NEWKIRK AVE, BROOKLYN, NY, 11203",59081862,"L"
179492,"3405 NORTH S STREET","PENSACOLA","FL",32505,30.447535031,-87.245124746,492,"3405 NORTH S STREET, PENSACOLA, FL, 32505","Match","Exact","3405 N S ST, PENSACOLA, FL, 32505",93214541,"L"
179493,"3405 OXFORD OAK STREET","HOUSTON","TX",77082,29.724946033,-95.603091969,493,"3405 OXFORD OAK STREET, HOUSTON, TX, 77082","Match","Exact","3405 OXFORD OAK ST, HOUSTON, TX, 77082",645138003,"R"
179494,"3405 PARK HILL DR","GREENSBORO","NC",27410,36.137493055,-79.9310532109999,494,"3405 PARK HILL DR, GREENSBORO, NC, 27410","Match","Exact","3405 PARK HILL DR, GREENSBORO, NC, 27410",131082565,"L"
179495,"3405 PARKSIDE DRIVE","PEARLAND","TX",77584,29.5443987310001,-95.305317294,495,"3405 PARKSIDE DRIVE, PEARLAND, TX, 77584","Match","Exact","3405 PARKSIDE DR, PEARLAND, TX, 77584",116648074,"L"
179496,"3405 POWDERHORN CIR","RAPID CITY","SD",57702,44.0528845600001,-103.297272236,496,"3405 POWDERHORN CIR, RAPID CITY, SD, 57702","Match","Exact","3405 POWDERHORN CIR, RAPID CITY, SD, 57702",638536477,"R"
179497,"3405 RACQUET LANE","PALMDALE","CA",93551,34.616962119,-118.190207959,497,"3405 RACQUET LANE, PALMDALE, CA, 93551","Match","Exact","3405 RACQUET LN, PALMDALE, CA, 93551",142695253,"R"
179498,"3405 S 336TH ST","FEDERAL WAY","WA",98001,47.300599983,-122.289616806,498,"3405 S 336TH ST, FEDERAL WAY, WA, 98001","Match","Exact","3405 S 336TH ST, FEDERAL WAY, WA, 98001",640606567,"R"
179499,"3405 S BROWNS LAKE DR UNIT 3","BURLINGTON","WI",53105,42.6915064680001,-88.250235617,499,"3405 S BROWNS LAKE DR UNIT 3, BURLINGTON, WI, 53105","Match","Non_Exact","3405 S BROWNS LAKE DR, BURLINGTON, WI, 53105",77935723,"R"
179500,"3405 S KILKENNY DR","CRYSTAL LAKE","IL",60014,42.237887334,-88.2657595639999,500,"3405 S KILKENNY DR, CRYSTAL LAKE, IL, 60014","Match","Exact","3405 S KILKENNY DR, CRYSTAL LAKE, IL, 60014",119823589,"L"
