"ID","Address","City","State","Zip","lat","long","id","input_address","match_indicator","match_type","matched_address","tiger_line_id","tiger_side"
152501,"2831 ST ROSE PARKWAY SUITE 200","HENDERSON","NV",89052,NA,NA,1,"2831 ST ROSE PARKWAY SUITE 200, HENDERSON, NV, 89052","No_Match",NA,NA,NA,NA
152502,"2831 W LAWRENCE AVE","CHICAGO","IL",60625,41.968520982,-87.699881166,2,"2831 W LAWRENCE AVE, CHICAGO, IL, 60625","Match","Exact","2831 W LAWRENCE AVE, CHICAGO, IL, 60625",643192436,"L"
152503,"2831 WEST 1ST STREET","SANTA ANA","CA",92703,NA,NA,3,"2831 WEST 1ST STREET, SANTA ANA, CA, 92703","No_Match",NA,NA,NA,NA
152504,"2831 WEST TENTH STREET","CHESTER","PA",19013,39.836518132,-75.397041494,4,"2831 WEST TENTH STREET, CHESTER, PA, 19013","Match","Exact","2831 W 10TH ST, CHESTER, PA, 19013",134889262,"L"
152505,"2831 WILD TAMARIND BLVD","ORLANDO","FL",32828,28.5162852,-81.157033072,5,"2831 WILD TAMARIND BLVD, ORLANDO, FL, 32828","Match","Exact","2831 WILD TAMARIND BLVD, ORLANDO, FL, 32828",631013820,"R"
152506,"28310 52ND AVE S","AUBURN","WA",98001,47.3479546450001,-122.269172262,6,"28310 52ND AVE S, AUBURN, WA, 98001","Match","Exact","28310 52ND AVE S, AUBURN, WA, 98001",645592888,"R"
152507,"28310 ROADSIDE DR STE 251","AGOURA","CA",91301,34.142841579,-118.744519697,7,"28310 ROADSIDE DR STE 251, AGOURA, CA, 91301","Match","Exact","28310 ROADSIDE DR, AGOURA, CA, 91301",241246000,"L"
152508,"28313 N 112TH WAY","SCOTTSDALE","AZ",85262,33.7430915800001,-111.838224079,8,"28313 N 112TH WAY, SCOTTSDALE, AZ, 85262","Match","Exact","28313 N 112TH WAY, SCOTTSDALE, AZ, 85262",128587310,"L"
152509,"28315 PEPER HOLLOW LANE","SPRING","TX",77386,30.102185304,-95.388808051,9,"28315 PEPER HOLLOW LANE, SPRING, TX, 77386","Match","Exact","28315 PEPER HOLLOW LN, SPRING, TX, 77386",614124654,"L"
152510,"2832 CAPE HOPE WAY","LAS VEGAS","NV",89121,36.121339517,-115.111776153,10,"2832 CAPE HOPE WAY, LAS VEGAS, NV, 89121","Match","Exact","2832 CAPE HOPE WAY, LAS VEGAS, NV, 89121",201872187,"L"
152511,"2832 EADS AVE","ST. LOUIS","MO",63104,38.61721091,-90.2258717129999,11,"2832 EADS AVE, ST. LOUIS, MO, 63104","Match","Exact","2832 EADS AVE, SAINT LOUIS, MO, 63104",107598526,"L"
152512,"2832 FAIRVIEW RD","CAMP HILL","PA",17011,40.255568097,-76.935697553,12,"2832 FAIRVIEW RD, CAMP HILL, PA, 17011","Match","Exact","2832 FAIRVIEW RD, CAMP HILL, PA, 17011",647884924,"R"
152513,"2832 LEELAND ST","HOUSTON","TX",77003,29.7429935660001,-95.352738369,13,"2832 LEELAND ST, HOUSTON, TX, 77003","Match","Exact","2832 LEELAND ST, HOUSTON, TX, 77003",96072912,"R"
152514,"2832 LIVE OAK PARK RD","FALLBROOK","CA",92028,33.383335108,-117.202221751,14,"2832 LIVE OAK PARK RD, FALLBROOK, CA, 92028","Match","Exact","2832 LIVE OAK PARK RD, FALLBROOK, CA, 92028",195711513,"L"
152515,"2832 LOFTVIEW SQUARE","ATLANTA","GA",30339,33.8723047410001,-84.47138402,15,"2832 LOFTVIEW SQUARE, ATLANTA, GA, 30339","Match","Exact","2832 LOFTVIEW SQ, ATLANTA, GA, 30339",636715295,"R"
152516,"2832 MYRTLE AVENUE NE","WASHINGTON","DC",20018,38.9313713020001,-76.9662496559999,16,"2832 MYRTLE AVENUE NE, WASHINGTON, DC, 20018","Match","Exact","2832 MYRTLE AVE NE, WASHINGTON, DC, 20018",76229478,"L"
152517,"2832 N 70TH AVENUE","OMAHA","NE",68104,41.2842715900001,-96.021502507,17,"2832 N 70TH AVENUE, OMAHA, NE, 68104","Match","Exact","2832 N 70TH AVE, OMAHA, NE, 68104",116976072,"L"
152518,"2832 N UNIVERSITY DR","CORAL SPRINGS","FL",33065,26.2657526130001,-80.250141705,18,"2832 N UNIVERSITY DR, CORAL SPRINGS, FL, 33065","Match","Exact","2832 N UNIVERSITY DR, CORAL SPRINGS, FL, 33065",636775542,"L"
152519,"2832 NORTH KINGS ROAD","VIRGINIA BEACH","VA",23452,36.8465477280001,-76.067607138,19,"2832 NORTH KINGS ROAD, VIRGINIA BEACH, VA, 23452","Match","Exact","2832 N KINGS RD, VA BCH, VA, 23452",122297322,"R"
152520,"2832 NW 170TH COURT","EDMOND","OK",73012,35.644597252,-97.566007468,20,"2832 NW 170TH COURT, EDMOND, OK, 73012","Match","Exact","2832 NW 170TH CT, EDMOND, OK, 73012",606076804,"L"
152521,"2832 NW 55TH AVENUE APT 1D","LAUDERHILL","FL",33313,26.163457126,-80.223617835,21,"2832 NW 55TH AVENUE APT 1D, LAUDERHILL, FL, 33313","Match","Non_Exact","2832 NW 55TH AVE, LAUDERHILL, FL, 33313",653185968,"L"
152522,"2832 OAK GLEN COURT","GRAND PRAIRIE","TX",75052,32.6236712410001,-97.0600707,22,"2832 OAK GLEN COURT, GRAND PRAIRIE, TX, 75052","Match","Exact","2832 OAK GLEN CT, GRAND PRAIRIE, TX, 75052",102187824,"R"
152523,"2832 POLELINE AVE","POST FALLS","ID",83854,NA,NA,23,"2832 POLELINE AVE, POST FALLS, ID, 83854","Tie",NA,NA,NA,NA
152524,"2832 RIVERSIDE AVE","JACKSONVILLE","FL",32205,30.3056670560001,-81.6951053889999,24,"2832 RIVERSIDE AVE, JACKSONVILLE, FL, 32205","Match","Exact","2832 RIVERSIDE AVE, JACKSONVILLE, FL, 32205",83913647,"L"
152525,"2832 ROCKBRIDGE DRIVE","HIGHLANDS RANCH","CO",80129,39.5546968530001,-105.023974244,25,"2832 ROCKBRIDGE DRIVE, HIGHLANDS RANCH, CO, 80129","Match","Exact","2832 ROCKBRIDGE DR, HIGHLANDS RANCH, CO, 80129",130835087,"R"
152526,"2832 SOUTH 8200 WEST","MAGNA","UT",84044,40.7085899740001,-112.087841913,26,"2832 SOUTH 8200 WEST, MAGNA, UT, 84044","Match","Exact","2832 S 8200 W, MAGNA, UT, 84044",612456975,"R"
152527,"2832 STATE ROUTE 59","RAVENNA","OH",44266,41.1584139350001,-81.294383524,27,"2832 STATE ROUTE 59, RAVENNA, OH, 44266","Match","Exact","2832 STATE RTE 59, RAVENNA, OH, 44266",635757565,"R"
152528,"2832 SUNSET AVE","WAUKEGAN","IL",60087,42.3920323300001,-87.871197434,28,"2832 SUNSET AVE, WAUKEGAN, IL, 60087","Match","Exact","2832 SUNSET AVE, WAUKEGAN, IL, 60087",119627022,"R"
152529,"2832 SUNSETRIDGE CT","DELTONA","FL",32725,28.9510239360001,-81.239399716,29,"2832 SUNSETRIDGE CT, DELTONA, FL, 32725","Match","Non_Exact","2832 SUNSET RIDGE CT, DELTONA, FL, 32725",94556936,"R"
152530,"2832 TULIPAN LOOP SE","RIO RANCHO","NM",87124,35.221500786,-106.682785071,30,"2832 TULIPAN LOOP SE, RIO RANCHO, NM, 87124","Match","Exact","2832 TULIPAN LOOP SE, RIO RANCHO, NM, 87124",629766640,"L"
152531,"2832 W TOUHY","CHICAGO","IL",60645,42.0120457260001,-87.700981945,31,"2832 W TOUHY, CHICAGO, IL, 60645","Match","Non_Exact","2832 W TOUHY AVE, CHICAGO, IL, 60645",632177987,"R"
152532,"2832 WAGNER DRIVE","BURLINGTON","NC",27215,36.0729900100001,-79.4849722829999,32,"2832 WAGNER DRIVE, BURLINGTON, NC, 27215","Match","Exact","2832 WAGNER DR, BURLINGTON, NC, 27215",71673585,"L"
152533,"2833 13TH AVE SOUTH SUITE 121","MINNEAPOLIS","MN",55407,44.9513801030001,-93.256264556,33,"2833 13TH AVE SOUTH SUITE 121, MINNEAPOLIS, MN, 55407","Match","Exact","2833 13TH AVE S, MINNEAPOLIS, MN, 55407",43785008,"L"
152534,"2833 ALABAMA AVE SE SUITE 30259","WASHINGTON","DC",20030,38.859824942,-76.967097498,34,"2833 ALABAMA AVE SE SUITE 30259, WASHINGTON, DC, 20030","Match","Non_Exact","2833 ALABAMA AVE SE, WASHINGTON, DC, 20020",76232782,"R"
152535,"2833 ALABAMA AVE SE SUITE 30259","WASHINGTON","DC",20032,38.859824942,-76.967097498,35,"2833 ALABAMA AVE SE SUITE 30259, WASHINGTON, DC, 20032","Match","Non_Exact","2833 ALABAMA AVE SE, WASHINGTON, DC, 20020",76232782,"R"
152536,"2833 ALABAMA AVENUE","WASHINGTON","DC",2302,NA,NA,36,"2833 ALABAMA AVENUE, WASHINGTON, DC, 2302","No_Match",NA,NA,NA,NA
152537,"2833 E MALLORY ST","MESA","AZ",85213,33.460654558,-111.769476891,37,"2833 E MALLORY ST, MESA, AZ, 85213","Match","Exact","2833 E MALLORY ST, MESA, AZ, 85213",638562237,"L"
152538,"2833 EAGLE EYE COURT","KISSIMMEE","FL",34746,28.257466535,-81.430756286,38,"2833 EAGLE EYE COURT, KISSIMMEE, FL, 34746","Match","Exact","2833 EAGLE EYE CT, KISSIMMEE, FL, 34746",176702154,"L"
152539,"2833 GRANDEUR AVENUE","ALTADENA","CO",91101,NA,NA,39,"2833 GRANDEUR AVENUE, ALTADENA, CO, 91101","No_Match",NA,NA,NA,NA
152540,"2833 HAZEL GROVE LANE","OVIEDO","FL",32766,28.629508851,-81.1448855,40,"2833 HAZEL GROVE LANE, OVIEDO, FL, 32766","Match","Exact","2833 HAZEL GROVE LN, OVIEDO, FL, 32766",627426324,"L"
152541,"2833 HORSEMANS RIDGE DRIVE","CLAYTON","NC",27520,35.62543534,-78.463498592,41,"2833 HORSEMANS RIDGE DRIVE, CLAYTON, NC, 27520","Match","Exact","2833 HORSEMANS RIDGE DR, CLAYTON, NC, 27520",26556499,"R"
152542,"2833 MEADOW WOOD CIR","ANCHORAGE","AK",99516,61.1154771390001,-149.829813724,42,"2833 MEADOW WOOD CIR, ANCHORAGE, AK, 99516","Match","Exact","2833 MEADOW WOOD CIR, ANCHORAGE, AK, 99516",190820275,"L"
152543,"2833 MEADOWMONT LANE","FAYETTEVILLE","NC",28306,34.9834263390001,-79.008537269,43,"2833 MEADOWMONT LANE, FAYETTEVILLE, NC, 28306","Match","Exact","2833 MEADOWMONT LN, FAYETTEVILLE, NC, 28306",64262117,"L"
152544,"2833 MONTICELLO DRIVE","WINSTON SALEM","NC",27106,36.121650769,-80.290314149,44,"2833 MONTICELLO DRIVE, WINSTON SALEM, NC, 27106","Match","Exact","2833 MONTICELLO DR, WINSTON SALEM, NC, 27106",84603902,"R"
152545,"2833 MOSSWOOD DRIVE","LODI","CA",95242,38.1443725770001,-121.312438885,45,"2833 MOSSWOOD DRIVE, LODI, CA, 95242","Match","Exact","2833 MOSSWOOD DR, LODI, CA, 95242",133887775,"L"
152546,"2833 N 14TH ST","ST LOUIS","MO",63107,38.6516085160001,-90.197823114,46,"2833 N 14TH ST, ST LOUIS, MO, 63107","Match","Exact","2833 N 14TH ST, SAINT LOUIS, MO, 63107",107604610,"L"
152547,"2833 NIHI ST","HONOLULU","HI",96819,21.3474781680001,-157.856459242,47,"2833 NIHI ST, HONOLULU, HI, 96819","Match","Exact","2833 NIHI ST, HONOLULU, HI, 96819",203234360,"R"
152548,"2833 NW 91ST AVE APT 104","CORAL SPRINGS","FL",33065,26.2653757210001,-80.247484443,48,"2833 NW 91ST AVE APT 104, CORAL SPRINGS, FL, 33065","Match","Non_Exact","2833 NW 91ST AVE, CORAL SPRINGS, FL, 33065",635617541,"L"
152549,"2833 PEBBLE BEACH DRIV","FLAGSTAFF","AZ",86004,35.2062533810001,-111.584880117,49,"2833 PEBBLE BEACH DRIV, FLAGSTAFF, AZ, 86004","Match","Non_Exact","2833 N PEBBLE BEACH DR, FLAGSTAFF, AZ, 86004",648112920,"L"
152550,"2833 RIO VISTA DR","EMPORIA","KS",66801,38.4306357830001,-96.200467186,50,"2833 RIO VISTA DR, EMPORIA, KS, 66801","Match","Exact","2833 RIO VISTA DR, EMPORIA, KS, 66801",10957295,"L"
152551,"2833 RIVIERA BLVD","MALAGA","WA",98828,47.36353115,-120.226658591,51,"2833 RIVIERA BLVD, MALAGA, WA, 98828","Match","Exact","2833 RIVIERA BLVD, MALAGA, WA, 98828",156977306,"R"
152552,"2833 SMITH AVE STE 223","BALTIMORE","MD",21209,39.375497296,-76.6968683699999,52,"2833 SMITH AVE STE 223, BALTIMORE, MD, 21209","Match","Exact","2833 SMITH AVE, BALTIMORE, MD, 21209",651575874,"L"
152553,"2833 SMITH AVE STE 351","BALTIMORE","MD",21209,39.375497296,-76.6968683699999,53,"2833 SMITH AVE STE 351, BALTIMORE, MD, 21209","Match","Exact","2833 SMITH AVE, BALTIMORE, MD, 21209",651575874,"L"
152554,"2833 SMITH AVENUE STE 268","BALTIMORE","MD",21209,39.375497296,-76.6968683699999,54,"2833 SMITH AVENUE STE 268, BALTIMORE, MD, 21209","Match","Exact","2833 SMITH AVE, BALTIMORE, MD, 21209",651575874,"L"
152555,"2833 TENNESSEE STREET","VALLEJO","CA",94591,38.1091031670001,-122.214906453,55,"2833 TENNESSEE STREET, VALLEJO, CA, 94591","Match","Exact","2833 TENNESSEE ST, VALLEJO, CA, 94591",192528846,"R"
152556,"2833 THISTLEBERRY COURT","HERNDON","VA",20171,38.928109055,-77.4067913,56,"2833 THISTLEBERRY COURT, HERNDON, VA, 20171","Match","Exact","2833 THISTLEBERRY CT, HERNDON, VA, 20171",215979026,"L"
152557,"2833 VILLA CIRCLE","NORFOLK","VA",23504,36.874405713,-76.274816765,57,"2833 VILLA CIRCLE, NORFOLK, VA, 23504","Match","Exact","2833 VILLA CIR, NORFOLK, VA, 23504",122137396,"L"
152558,"28331 466TH AVENUE","LENNOX","SD",57039,43.2817617470001,-96.88604195,58,"28331 466TH AVENUE, LENNOX, SD, 57039","Match","Exact","28331 466TH AVE, LENNOX, SD, 57039",176324152,"L"
152559,"28331 NE 112TH AVE","BATTLE GROUND","WA",98604,45.8271113650001,-122.558255934,59,"28331 NE 112TH AVE, BATTLE GROUND, WA, 98604","Match","Exact","28331 NE 112TH AVE, BATTLE GROUND, WA, 98604",649028728,"R"
152560,"28339 FISHER RD","MILTON","DE",19968,38.7271841020001,-75.2531721,60,"28339 FISHER RD, MILTON, DE, 19968","Match","Exact","28339 FISHER RD, MILTON, DE, 19968",106108842,"R"
152561,"28339 FISHER ROAD","MILTON","DE",19968,38.7271841020001,-75.2531721,61,"28339 FISHER ROAD, MILTON, DE, 19968","Match","Exact","28339 FISHER RD, MILTON, DE, 19968",106108842,"R"
152562,"2834 ALLESANDRA CT","LANCASTER","CA",93535,34.694416479,-118.078302717,62,"2834 ALLESANDRA CT, LANCASTER, CA, 93535","Match","Non_Exact","2834 ALLESSANDRA CT, LANCASTER, CA, 93535",630803978,"R"
152563,"2834 ANZA ST","SAN FRANCISCO","CA",94121,37.778446993,-122.47856407,63,"2834 ANZA ST, SAN FRANCISCO, CA, 94121","Match","Exact","2834 ANZA ST, SAN FRANCISCO, CA, 94121",192277504,"R"
152564,"2834 ANZA STREET","SAN FRANCISCO","CA",94121,37.778446993,-122.47856407,64,"2834 ANZA STREET, SAN FRANCISCO, CA, 94121","Match","Exact","2834 ANZA ST, SAN FRANCISCO, CA, 94121",192277504,"R"
152565,"2834 AQUADUCT STREET","CHARLESTON","SC",29414,32.8364868150001,-80.080178986,65,"2834 AQUADUCT STREET, CHARLESTON, SC, 29414","Match","Exact","2834 AQUADUCT ST, CHARLESTON, SC, 29414",108796600,"R"
152566,"2834 BRUNSWICK DRIVE","CLARKSVILLE","TN",37043,36.506982974,-87.2437021819999,66,"2834 BRUNSWICK DRIVE, CLARKSVILLE, TN, 37043","Match","Exact","2834 BRUNSWICK DR, CLARKSVILLE, TN, 37043",651981729,"L"
152567,"2834 CEDAR GLADE DR","NAPERVILLE","IL",60564,41.713778533,-88.202161522,67,"2834 CEDAR GLADE DR, NAPERVILLE, IL, 60564","Match","Non_Exact","2834 CEDAR GLADE RD, NAPERVILLE, IL, 60564",111593239,"L"
152568,"2834 CYNTHIA ROAD - A","PALMER","TX",75152,32.4882825440001,-96.7137556389999,68,"2834 CYNTHIA ROAD - A, PALMER, TX, 75152","Match","Non_Exact","2834 CYNTHIA, PALMER, TX, 75152",651345735,"L"
152569,"2834 E 118TH ST","CLEVELAND","OH",44120,41.480340391,-81.600977923,69,"2834 E 118TH ST, CLEVELAND, OH, 44120","Match","Exact","2834 E 118TH ST, CLEVELAND, OH, 44120",61122730,"R"
152570,"2834 E 47TH ST","TULSA","OK",74105,36.095215549,-95.947857884,70,"2834 E 47TH ST, TULSA, OK, 74105","Match","Exact","2834 E 47TH ST, TULSA, OK, 74105",166451045,"R"
152571,"2834 E 4TH STREET","TUCSON","AZ",85716,32.230525363,-110.930543082,71,"2834 E 4TH STREET, TUCSON, AZ, 85716","Match","Exact","2834 E 4TH ST, TUCSON, AZ, 85716",121174165,"R"
152572,"2834 HAMNER AVE STE 234","NORCO","CA",92860,33.9222669810001,-117.55916421,72,"2834 HAMNER AVE STE 234, NORCO, CA, 92860","Match","Exact","2834 HAMNER AVE, NORCO, CA, 92860",639948512,"L"
152573,"2834 HARRISON STREET","KANSAS CITY","MO",64109,39.0754180660001,-94.572361488,73,"2834 HARRISON STREET, KANSAS CITY, MO, 64109","Match","Exact","2834 HARRISON ST, KANSAS CITY, MO, 64109",91446403,"R"
152574,"2834 KAIMUKI AVE APT 3","HONOLULU","HI",96816,21.2867454990001,-157.814547516,74,"2834 KAIMUKI AVE APT 3, HONOLULU, HI, 96816","Match","Exact","2834 KAIMUKI AVE, HONOLULU, HI, 96816",652961246,"L"
152575,"2834 KAYE DRIVE","THOMPSONS STATION","TN",37179,35.777669857,-86.892286482,75,"2834 KAYE DRIVE, THOMPSONS STATION, TN, 37179","Match","Exact","2834 KAYE DR, THOMPSONS STATION, TN, 37179",634037574,"R"
152576,"2834 LIBWOOD AVE","N CHESTERFIELD","VA",23237,37.4193732520001,-77.441984356,76,"2834 LIBWOOD AVE, N CHESTERFIELD, VA, 23237","Match","Exact","2834 LIBWOOD AVE, NORTH CHESTERFIELD, VA, 23237",201547622,"R"
152577,"2834 NE 50TH AVE","PORTLAND","OR",97213,45.5432151200001,-122.611684516,77,"2834 NE 50TH AVE, PORTLAND, OR, 97213","Match","Exact","2834 NE 50TH AVE, PORTLAND, OR, 97213",157511368,"R"
152578,"2834 NW 31ST TER","GAINESVILLE","FL",32605,29.6783869760001,-82.368672777,78,"2834 NW 31ST TER, GAINESVILLE, FL, 32605","Match","Exact","2834 NW 31ST TER, GAINESVILLE, FL, 32605",6804840,"L"
152579,"2834 R STREET SE SUITE 6","WASHINGTON","DC",20020,38.8694824450001,-76.966530947,79,"2834 R STREET SE SUITE 6, WASHINGTON, DC, 20020","Match","Exact","2834 R ST SE, WASHINGTON, DC, 20020",76231844,"L"
152580,"2834 S FAIRVIEW","SANTA ANA","CA",92704,33.709717541,-117.90789587,80,"2834 S FAIRVIEW, SANTA ANA, CA, 92704","Match","Non_Exact","2834 S FAIRVIEW ST, SANTA ANA, CA, 92704",609059672,"R"
152581,"2834 STAFFORD DR","MARKHAM","IL",60428,41.5940004830001,-87.685727621,81,"2834 STAFFORD DR, MARKHAM, IL, 60428","Match","Exact","2834 STAFFORD DR, MARKHAM, IL, 60428",111705025,"R"
152582,"2834 TWP RD 25","ADA","OH",45810,40.7796672200001,-83.86153753,82,"2834 TWP RD 25, ADA, OH, 45810","Match","Exact","2834 TWP RD 25, ADA, OH, 45810",36519944,"R"
152583,"2834 UPTON STREET SOUTH","GULFPORT","FL",33711,27.741692158,-82.698021475,83,"2834 UPTON STREET SOUTH, GULFPORT, FL, 33711","Match","Exact","2834 UPTON ST S, GULFPORT, FL, 33711",124709238,"L"
152584,"2834 W CHASE AVE","CHICAGO","IL",60645,42.013864009,-87.700954853,84,"2834 W CHASE AVE, CHICAGO, IL, 60645","Match","Exact","2834 W CHASE AVE, CHICAGO, IL, 60645",605265353,"R"
152585,"2834","ABBEVILLE","SC",29620,NA,NA,85,"2834, ABBEVILLE, SC, 29620","No_Match",NA,NA,NA,NA
152586,"28345 STREAMWOOD DR","BEECHER","IL",60401,41.375665913,-87.654899794,86,"28345 STREAMWOOD DR, BEECHER, IL, 60401","Match","Exact","28345 STREAMWOOD DR, BEECHER, IL, 60401",636322045,"L"
152587,"2835 245TH ST","AINSWORTH","IA",52201,41.3013381170001,-91.592420068,87,"2835 245TH ST, AINSWORTH, IA, 52201","Match","Exact","2835 245TH ST, AINSWORTH, IA, 52201",639138966,"L"
152588,"2835 CLAXTON DAIRY RD","DUBLIN","GA",31021,NA,NA,88,"2835 CLAXTON DAIRY RD, DUBLIN, GA, 31021","No_Match",NA,NA,NA,NA
152589,"2835 EAST SOUTHERN HILLS BLVD","SPRINGFIELD","MO",65804,37.1715047430001,-93.238751703,89,"2835 EAST SOUTHERN HILLS BLVD, SPRINGFIELD, MO, 65804","Match","Exact","2835 E SOUTHERN HILLS BLVD, SPRINGFIELD, MO, 65804",76679773,"L"
152590,"2835 ELEANOR AVE","LOUISVILLE","KY",40205,38.215811801,-85.679181306,90,"2835 ELEANOR AVE, LOUISVILLE, KY, 40205","Match","Exact","2835 ELEANOR AVE, LOUISVILLE, KY, 40205",96853804,"L"
152591,"2835 FURNACE JCT","RAVENNA","KY",40472,37.7430112330001,-83.8711792139999,91,"2835 FURNACE JCT, RAVENNA, KY, 40472","Match","Non_Exact","2835 FURNACE JUNCTION RD, RAVENNA, KY, 40472",31899876,"L"
152592,"2835 HAYNES RD","PULASKI","VA",24301,37.0460344000001,-80.813836436,92,"2835 HAYNES RD, PULASKI, VA, 24301","Match","Exact","2835 HAYNES RD, PULASKI, VA, 24301",47022702,"L"
152593,"2835 JUDAH STREET","SAN FRANCISCO","CA",94122,37.7610178740001,-122.492392729,93,"2835 JUDAH STREET, SAN FRANCISCO, CA, 94122","Match","Exact","2835 JUDAH ST, SAN FRANCISCO, CA, 94122",192277390,"L"
152594,"2835 KIMBERLEY RD","ANN ARBOR","MI",48104,42.2476584080001,-83.716445485,94,"2835 KIMBERLEY RD, ANN ARBOR, MI, 48104","Match","Non_Exact","2835 KIMBERLY RD, ANN ARBOR, MI, 48104",26044497,"L"
152595,"2835 MONTICELLO DR","HOUSTON","TX",77045,29.6364268040001,-95.41603135,95,"2835 MONTICELLO DR, HOUSTON, TX, 77045","Match","Exact","2835 MONTICELLO DR, HOUSTON, TX, 77045",96087627,"L"
152596,"2835 N SHEFFIELD SUITE 404","CHICAGO","IL",60657,NA,NA,96,"2835 N SHEFFIELD SUITE 404, CHICAGO, IL, 60657","No_Match",NA,NA,NA,NA
152597,"2835 NE 7TH ST APT B","OCALA","FL",34470,29.193374035,-82.0982809339999,97,"2835 NE 7TH ST APT B, OCALA, FL, 34470","Match","Non_Exact","2835 NE 7TH ST, OCALA, FL, 34470",116841251,"L"
152598,"2835 NORTHRIDGE DRIVE NO 4","PORTAGE","WI",53901,43.5653017930001,-89.476265595,98,"2835 NORTHRIDGE DRIVE NO 4, PORTAGE, WI, 53901","Match","Non_Exact","2835 NORTHRIDGE DR, PORTAGE, WI, 53901",73365631,"L"
152599,"2835 OTIS STREET NE","WASHINGTON","DC",20018,38.9350789040001,-76.9671444379999,99,"2835 OTIS STREET NE, WASHINGTON, DC, 20018","Match","Exact","2835 OTIS ST NE, WASHINGTON, DC, 20018",76229248,"R"
152600,"2835 PLANTATION WOOD LANE","MISSOURI CITY","TX",77459,29.560751109,-95.54803093,100,"2835 PLANTATION WOOD LANE, MISSOURI CITY, TX, 77459","Match","Exact","2835 PLANTATION WOOD LN, MISSOURI CITY, TX, 77459",78269679,"L"
152601,"2835 REGENT STREET","BERKELEY","CA",94705,37.8587258370001,-122.256977933,101,"2835 REGENT STREET, BERKELEY, CA, 94705","Match","Exact","2835 REGENT ST, BERKELEY, CA, 94705",124998736,"L"
152602,"2835 SANBORN AVENUE","LA CRESCENTA","CA",91214,34.22598091,-118.241388033,102,"2835 SANBORN AVENUE, LA CRESCENTA, CA, 91214","Match","Exact","2835 SANBORN AVE, LA CRESCENTA, CA, 91214",141589860,"R"
152603,"2835 SPRINGHAVEN PL","MACUNGIE","PA",18062,40.5299105180001,-75.557338911,103,"2835 SPRINGHAVEN PL, MACUNGIE, PA, 18062","Match","Exact","2835 SPRINGHAVEN PL, MACUNGIE, PA, 18062",627525346,"L"
152604,"2835 TEE ROAD SW","ATLANTA","GA",30311,33.750645897,-84.480876231,104,"2835 TEE ROAD SW, ATLANTA, GA, 30311","Match","Exact","2835 TEE RD SW, ATLANTA, GA, 30311",17337108,"R"
152605,"2835 W FRENCH PL","SAN ANTONIO","TX",78228,29.4531545840001,-98.540266292,105,"2835 W FRENCH PL, SAN ANTONIO, TX, 78228","Match","Exact","2835 W FRENCH PL, SAN ANTONIO, TX, 78228",101512616,"R"
152606,"2835 WESTRIDGE RD","RIVERSIDE","CA",92506,33.941891243,-117.37503879,106,"2835 WESTRIDGE RD, RIVERSIDE, CA, 92506","Match","Exact","2835 WESTRIDGE RD, RIVERSIDE, CA, 92506",194789419,"L"
152607,"2835 WILSON COMMON","FREMONT","CA",94538,37.540620645,-121.959142774,107,"2835 WILSON COMMON, FREMONT, CA, 94538","Match","Exact","2835 WILSON CMN, FREMONT, CA, 94538",125033276,"R"
152608,"2835 ZELDA ROAD SUITE 10","MONTGOMERY","AL",36106,32.3602316220001,-86.265141301,108,"2835 ZELDA ROAD SUITE 10, MONTGOMERY, AL, 36106","Match","Exact","2835 ZELDA RD, MONTGOMERY, AL, 36106",1511726,"L"
152609,"28351 AGOURA ROAD STE C","AGOURA HILLS","CA",91301,34.1412806320001,-118.744649994,109,"28351 AGOURA ROAD STE C, AGOURA HILLS, CA, 91301","Match","Exact","28351 AGOURA RD, AGOURA HILLS, CA, 91301",142042075,"R"
152610,"28351 SENECA ST","FLAT ROCK","MI",48134,42.098141889,-83.289721238,110,"28351 SENECA ST, FLAT ROCK, MI, 48134","Match","Exact","28351 SENECA ST, FLAT ROCK, MI, 48134",95505404,"L"
152611,"28353 US HWY 169","ONAMIA","MN",56359,45.9558875280001,-93.6625459589999,111,"28353 US HWY 169, ONAMIA, MN, 56359","Match","Exact","28353 US HWY 169, ONAMIA, MN, 56359",163069091,"L"
152612,"28354 WILDWOOD TRAIL","FARMINGTON HILLS","MI",48336,42.477180559,-83.329873176,112,"28354 WILDWOOD TRAIL, FARMINGTON HILLS, MI, 48336","Match","Exact","28354 WILDWOOD TRL, FARMINGTON HILLS, MI, 48336",69777437,"R"
152613,"28355 CALEX DRIVE","SANTA CLARITA","CA",91354,34.4640234280001,-118.54874682,113,"28355 CALEX DRIVE, SANTA CLARITA, CA, 91354","Match","Exact","28355 CALEX DR, SANTA CLARITA, CA, 91354",141857646,"L"
152614,"28355 MURCIA ST","HAYWARD","CA",94544,37.6207486010001,-122.075647774,114,"28355 MURCIA ST, HAYWARD, CA, 94544","Match","Exact","28355 MURCIA ST, HAYWARD, CA, 94544",125022590,"R"
152615,"28358 MERRIDY AVE","HIGHLAND","CA",92346,34.1149245030001,-117.18548084,115,"28358 MERRIDY AVE, HIGHLAND, CA, 92346","Match","Exact","28358 MERRIDY AVE, HIGHLAND, CA, 92346",640045200,"L"
152616,"2836 BEATY CT","FORT WORTH","TX",76112,32.7391140980001,-97.2136729009999,116,"2836 BEATY CT, FORT WORTH, TX, 76112","Match","Exact","2836 BEATY CT, FORT WORTH, TX, 76112",102175210,"R"
152617,"2836 BERRY WAY","SCHERTZ","TX",78154,29.582058363,-98.269278637,117,"2836 BERRY WAY, SCHERTZ, TX, 78154","Match","Exact","2836 BERRY WAY, SCHERTZ, TX, 78154",54838556,"R"
152618,"2836 BLUFFS CT","MCKINNEY","TX",75071,33.227783776,-96.6495435099999,118,"2836 BLUFFS CT, MCKINNEY, TX, 75071","Match","Exact","2836 BLUFFS CT, MCKINNEY, TX, 75071",627908266,"R"
152619,"2836 CHAPEL CREEK","LAMBERTVILLE","MI",48144,41.7621480110001,-83.612178716,119,"2836 CHAPEL CREEK, LAMBERTVILLE, MI, 48144","Match","Non_Exact","2836 CHAPEL CREEK DR, LAMBERTVILLE, MI, 48144",40506402,"R"
152620,"2836 COUNCIL OAK DRIVE","SOUTH BEND","IN",46628,41.7146829700001,-86.2894713589999,120,"2836 COUNCIL OAK DRIVE, SOUTH BEND, IN, 46628","Match","Exact","2836 COUNCIL OAK DR, SOUTH BEND, IN, 46628",8052119,"L"
152621,"2836 E DURBAN RD","SANDY","UT",84093,40.581657663,-111.811394415,121,"2836 E DURBAN RD, SANDY, UT, 84093","Match","Exact","2836 E DURBAN RD, SANDY, UT, 84093",635616074,"R"
152622,"2836 FILBERT ST","ANTIOCH","CA",94509,38.000014176,-121.767501251,122,"2836 FILBERT ST, ANTIOCH, CA, 94509","Match","Exact","2836 FILBERT ST, ANTIOCH, CA, 94509",192099028,"R"
152623,"2836 HILLVIEW LANE","LANCASTER","TX",75134,32.622201218,-96.784018972,123,"2836 HILLVIEW LANE, LANCASTER, TX, 75134","Match","Exact","2836 HILLVIEW LN, LANCASTER, TX, 75134",619527352,"L"
152624,"2836 LANDING WAY","MARIETTA","GA",30066,34.0543220000001,-84.468579244,124,"2836 LANDING WAY, MARIETTA, GA, 30066","Match","Exact","2836 LANDING WAY, MARIETTA, GA, 30066",17204176,"L"
152625,"2836 MYRTLE STREET","OAKLAND","CA",94608,37.819726761,-122.277925696,125,"2836 MYRTLE STREET, OAKLAND, CA, 94608","Match","Exact","2836 MYRTLE ST, OAKLAND, CA, 94608",124996357,"R"
152626,"2836 N 22ND ST","PHILADELPHIA","PA",19132,39.997790068,-75.167092902,126,"2836 N 22ND ST, PHILADELPHIA, PA, 19132","Match","Exact","2836 N 22ND ST, PHILADELPHIA, PA, 19132",131402728,"L"
152627,"2836 N VERDUGO RD","GLENDALE","CA",91208,34.1882555490001,-118.225891352,127,"2836 N VERDUGO RD, GLENDALE, CA, 91208","Match","Exact","2836 N VERDUGO RD, GLENDALE, CA, 91208",142048192,"R"
152628,"2836 OAK CREST DR","GRAND PRAIRIE","TX",75052,32.6371086240001,-97.055782515,128,"2836 OAK CREST DR, GRAND PRAIRIE, TX, 75052","Match","Exact","2836 OAK CREST DR, GRAND PRAIRIE, TX, 75052",647859996,"L"
152629,"2836 STATE HIGHWAY 14 N","CERILLOS","NM",87010,NA,NA,129,"2836 STATE HIGHWAY 14 N, CERILLOS, NM, 87010","No_Match",NA,NA,NA,NA
152630,"2836 TRARES ROAD","MOGADORE","OH",44260,41.045191824,-81.2912699079999,130,"2836 TRARES ROAD, MOGADORE, OH, 44260","Match","Exact","2836 TRARES RD, MOGADORE, OH, 44260",137519693,"R"
152631,"2836 WEST PICO BLVD","LOS ANGELES","CA",90006,34.047218957,-118.300951891,131,"2836 WEST PICO BLVD, LOS ANGELES, CA, 90006","Match","Exact","2836 W PICO BLVD, LOS ANGELES, CA, 90006",142729628,"L"
152632,"2836 WHITEVIEW DR","ACWORTH","GA",30101,34.0691262170001,-84.6322670879999,132,"2836 WHITEVIEW DR, ACWORTH, GA, 30101","Match","Non_Exact","2836 WHITEVIEW DR NW, ACWORTH, GA, 30101",644946118,"R"
152633,"28360 ORCHID COURT","PLYMOUTH","MN",56438,46.200348766,-94.773936717,133,"28360 ORCHID COURT, PLYMOUTH, MN, 56438","Match","Non_Exact","28360 ORCHID CT, BROWERVILLE, MN, 56438",648198812,"L"
152634,"28363 CONNIE CT","CANYON COUNTRY","CA",91387,34.424824545,-118.429255517,134,"28363 CONNIE CT, CANYON COUNTRY, CA, 91387","Match","Exact","28363 CONNIE CT, CANYON COUNTRY, CA, 91387",141520603,"R"
152635,"28364 S WESTERN AVE 65","PALOS VERDES","CA",90275,33.7628337150001,-118.311630637,135,"28364 S WESTERN AVE 65, PALOS VERDES, CA, 90275","Match","Non_Exact","28364 S WESTERN AVE, PALOS VERDES ESTATES, CA, 90275",647582186,"L"
152636,"28364 S WESTERN AVENUE SUITE 462","RANCHO PALOS VERDES","CA",90275,33.7628337150001,-118.311630637,136,"28364 S WESTERN AVENUE SUITE 462, RANCHO PALOS VERDES, CA, 90275","Match","Non_Exact","28364 S WESTERN AVE, RANCHO PALOS VERDES, CA, 90275",647582186,"L"
152637,"28364 STANSFIELD LANE","SANTA CLARITA","CA",91350,34.4433912100001,-118.480354261,137,"28364 STANSFIELD LANE, SANTA CLARITA, CA, 91350","Match","Exact","28364 STANSFIELD LN, SANTA CLARITA, CA, 91350",641538323,"R"
152638,"28367 NANTICOKE AVE","MILLSBORO","DE",19966,38.5980476280001,-75.1824698999999,138,"28367 NANTICOKE AVE, MILLSBORO, DE, 19966","Match","Exact","28367 NANTICOKE AVE, MILLSBORO, DE, 19966",106096929,"R"
152639,"28368 CONSTELLATION RD UNIT 340 B","VALENCIA","CA",91355,34.452219502,-118.576810731,139,"28368 CONSTELLATION RD UNIT 340 B, VALENCIA, CA, 91355","Match","Exact","28368 CONSTELLATION RD, VALENCIA, CA, 91355",641543226,"R"
152640,"28369 RIVER CREST DR","SOUTHFIELD","MI",48034,42.495558944,-83.273505851,140,"28369 RIVER CREST DR, SOUTHFIELD, MI, 48034","Match","Exact","28369 RIVER CREST DR, SOUTHFIELD, MI, 48034",69732306,"L"
152641,"2837 171ST","HAMMOND","IN",46323,41.584665855,-87.459959256,141,"2837 171ST, HAMMOND, IN, 46323","Match","Non_Exact","2837 171ST ST, HAMMOND, IN, 46323",98420146,"L"
152642,"2837 BORDER AVE","JOSHUA TREE","CA",92252,34.2011517390001,-116.29927186,142,"2837 BORDER AVE, JOSHUA TREE, CA, 92252","Match","Exact","2837 BORDER AVE, JOSHUA TREE, CA, 92252",144618826,"R"
152643,"2837 BUTTERFLY LANDING DR","LAND O LAKES","FL",34638,28.1990810990001,-82.528573481,143,"2837 BUTTERFLY LANDING DR, LAND O LAKES, FL, 34638","Match","Exact","2837 BUTTERFLY LANDING DR, LAND O LAKES, FL, 34638",619683758,"L"
152644,"2837 CASTIGLIONE STREET","NEW ORLEANS","LA",70119,29.9848294390001,-90.073924424,144,"2837 CASTIGLIONE STREET, NEW ORLEANS, LA, 70119","Match","Exact","2837 CASTIGLIONE ST, NEW ORLEANS, LA, 70119",191708671,"R"
152645,"2837 GRIGGSTOWN RD","CALVERT CITY","KY",42029,36.9400335130001,-88.4014928619999,145,"2837 GRIGGSTOWN RD, CALVERT CITY, KY, 42029","Match","Exact","2837 GRIGGSTOWN RD, CALVERT CITY, KY, 42029",99501936,"L"
152646,"2837 LINCOLN CT","NATIONAL CITY","CA",91950,32.6630193550001,-117.083640794,146,"2837 LINCOLN CT, NATIONAL CITY, CA, 91950","Match","Exact","2837 LINCOLN CT, NATIONAL CITY, CA, 91950",195355490,"L"
152647,"2837 MAYFAIR AVENUE","HENDERSON","NV",89074,36.0427711140001,-115.112570281,147,"2837 MAYFAIR AVENUE, HENDERSON, NV, 89074","Match","Exact","2837 MAYFAIR AVE, HENDERSON, NV, 89074",201915962,"R"
152648,"2837 N 24TH PL","MILWAUKEE","WI",53206,43.0704062080001,-87.943653954,148,"2837 N 24TH PL, MILWAUKEE, WI, 53206","Match","Exact","2837 N 24TH PL, MILWAUKEE, WI, 53206",77738366,"L"
152649,"2837 POWDER MILL RD","ADELPHI","MD",20783,39.0283640550001,-76.961172757,149,"2837 POWDER MILL RD, ADELPHI, MD, 20783","Match","Exact","2837 POWDER MILL RD, ADELPHI, MD, 20783",639594708,"R"
152650,"2837 SCHAEFER CIRCLE","APPLETON","WI",54915,44.237947879,-88.3652360149999,150,"2837 SCHAEFER CIRCLE, APPLETON, WI, 54915","Match","Exact","2837 SCHAEFER CIR, APPLETON, WI, 54915",74805188,"R"
152651,"2837 SHANE DRIVE","RICHMOND","CA",94806,37.9705594490001,-122.333519407,151,"2837 SHANE DRIVE, RICHMOND, CA, 94806","Match","Exact","2837 SHANE DR, RICHMOND, CA, 94806",192039319,"L"
152652,"28371 BRODIAEA AVE","MORENO VALLEY","CA",92555,33.913745443,-117.167452043,152,"28371 BRODIAEA AVE, MORENO VALLEY, CA, 92555","Match","Exact","28371 BRODIAEA AVE, MORENO VALLEY, CA, 92555",608990693,"R"
152653,"28373 MIDLAND TRL","HICO","WV",25854,38.0914725440001,-80.9874424929999,153,"28373 MIDLAND TRL, HICO, WV, 25854","Match","Exact","28373 MIDLAND TRL, HICO, WV, 25854",75062842,"R"
152654,"2838 28TH ST NW","WASHINGTON","DC",20008,38.9277153370001,-77.056450394,154,"2838 28TH ST NW, WASHINGTON, DC, 20008","Match","Exact","2838 28TH ST NW, WASHINGTON, DC, 20008",76221195,"L"
152655,"2838 29TH ST FL 2","ASTORIA","NY",11102,NA,NA,155,"2838 29TH ST FL 2, ASTORIA, NY, 11102","No_Match",NA,NA,NA,NA
152656,"2838 ANDREW AVE","PASCAGOULA","MS",39567,30.3823545810001,-88.5339930169999,156,"2838 ANDREW AVE, PASCAGOULA, MS, 39567","Match","Exact","2838 ANDREW AVE, PASCAGOULA, MS, 39567",89271021,"L"
152657,"2838 CASTY COURT","SANGER","CA",93657,NA,NA,157,"2838 CASTY COURT, SANGER, CA, 93657","No_Match",NA,NA,NA,NA
152658,"2838 COOLIDGE HWY STE 101","BERKLEY","MI",48072,NA,NA,158,"2838 COOLIDGE HWY STE 101, BERKLEY, MI, 48072","No_Match",NA,NA,NA,NA
152659,"2838 FARRAGUT RD 125","SAN DIEGO","CA",92106,32.733280162,-117.218462755,159,"2838 FARRAGUT RD 125, SAN DIEGO, CA, 92106","Match","Exact","2838 FARRAGUT RD, SAN DIEGO, CA, 92106",195650872,"R"
152660,"2838 GREENWOOD ACRES DRIVE","DEKALB","IL",60115,41.9625457240001,-88.728577214,160,"2838 GREENWOOD ACRES DRIVE, DEKALB, IL, 60115","Match","Exact","2838 GREENWOOD ACRES DR, DEKALB, IL, 60115",52276396,"L"
152661,"2838 HARTFORD STREET SE UNIT 301","WASHINGTON","DC",20020,38.8544579140001,-76.9680609019999,161,"2838 HARTFORD STREET SE UNIT 301, WASHINGTON, DC, 20020","Match","Exact","2838 HARTFORD ST SE, WASHINGTON, DC, 20020",647587520,"L"
152662,"2838 LAKE BLVD","NORTH SAINT PAUL","MN",55109,45.0273064030001,-92.993332342,162,"2838 LAKE BLVD, NORTH SAINT PAUL, MN, 55109","Match","Exact","2838 LAKE BLVD, N SAINT PAUL, MN, 55109",97671559,"R"
152663,"2838 MAPLETON AVE","NORFOLK","VA",23504,36.853747098,-76.254323154,163,"2838 MAPLETON AVE, NORFOLK, VA, 23504","Match","Exact","2838 MAPLETON AVE, NORFOLK, VA, 23504",122129046,"L"
152664,"2838 RUFFNER RD","BIRMINGHAM","AL",35210,33.5839637990001,-86.6618256899999,164,"2838 RUFFNER RD, BIRMINGHAM, AL, 35210","Match","Exact","2838 RUFFNER RD, BIRMINGHAM, AL, 35210",651076624,"L"
152665,"28383 TASCA DR","BONITA SPRINGS","FL",34135,26.323647377,-81.787184316,165,"28383 TASCA DR, BONITA SPRINGS, FL, 34135","Match","Exact","28383 TASCA DR, BONITA SPGS, FL, 34135",636402672,"R"
152666,"28384 FRANKLIN RD","SOUTHFIELD","MI",48034,NA,NA,166,"28384 FRANKLIN RD, SOUTHFIELD, MI, 48034","No_Match",NA,NA,NA,NA
152667,"28386 FRANKLIN RD","SOUTHFIELD","MI",48034,NA,NA,167,"28386 FRANKLIN RD, SOUTHFIELD, MI, 48034","No_Match",NA,NA,NA,NA
152668,"28388 REDWING AVE","SHAFER","MN",55074,45.3604266400001,-92.748337427,168,"28388 REDWING AVE, SHAFER, MN, 55074","Match","Exact","28388 REDWING AVE, SHAFER, MN, 55074",97568612,"L"
152669,"2839 BATESTOWN RD","OAKWOOD","IL",61858,40.1172273390001,-87.7142432749999,169,"2839 BATESTOWN RD, OAKWOOD, IL, 61858","Match","Exact","2839 BATESTOWN RD, OAKWOOD, IL, 61858",612026191,"L"
152670,"2839 CAMINO SERBAL","CARLSBAD","CA",92009,NA,NA,170,"2839 CAMINO SERBAL, CARLSBAD, CA, 92009","No_Match",NA,NA,NA,NA
152671,"2839 CHEROKEE","SAINT LOUIS","MO",63118,38.594029237,-90.2313801779999,171,"2839 CHEROKEE, SAINT LOUIS, MO, 63118","Match","Non_Exact","2839 CHEROKEE ST, SAINT LOUIS, MO, 63118",107602310,"R"
152672,"2839 EKOM BEACH RD","LAURENS","SC",29360,34.4516060810001,-82.0961926419999,172,"2839 EKOM BEACH RD, LAURENS, SC, 29360","Match","Exact","2839 EKOM BEACH RD, LAURENS, SC, 29360",44444700,"R"
152673,"2839 FALCON RIDGE DRIVE","SPARKS","NV",89436,39.5967083620001,-119.69133795,173,"2839 FALCON RIDGE DRIVE, SPARKS, NV, 89436","Match","Exact","2839 FALCON RIDGE DR, SPARKS, NV, 89436",107101930,"R"
152674,"2839 FREDERICK AVENUE","BALTIMORE","MD",21223,39.2796432010001,-76.663583347,174,"2839 FREDERICK AVENUE, BALTIMORE, MD, 21223","Match","Exact","2839 FREDERICK AVE, BALTIMORE, MD, 21223",206414991,"L"
152675,"2839 GOODMAN RIDGE DR","MISSOURI CITY","TX",77459,29.547132413,-95.505813797,175,"2839 GOODMAN RIDGE DR, MISSOURI CITY, TX, 77459","Match","Exact","2839 GOODMAN RIDGE DR, MISSOURI CITY, TX, 77459",624576962,"L"
152676,"2839 JAMESTOWN GUNNERSVILLE RD","JAMESTOWN","OH",45335,39.5907529260001,-83.759327062,176,"2839 JAMESTOWN GUNNERSVILLE RD, JAMESTOWN, OH, 45335","Match","Exact","2839 JAMESTOWN GUNNERSVILLE RD, JAMESTOWN, OH, 45335",143382280,"L"
152677,"2839 N BELLOWOOD STREET","WICHITA","KS",67205,37.734360209,-97.44784978,177,"2839 N BELLOWOOD STREET, WICHITA, KS, 67205","Match","Non_Exact","2839 N BELLWOOD ST, WICHITA, KS, 67205",115674464,"L"
152678,"2839 RIDGE RD","INDIAN TRAIL","NC",28079,35.089837587,-80.567818766,178,"2839 RIDGE RD, INDIAN TRAIL, NC, 28079","Match","Exact","2839 RIDGE RD, INDIAN TRAIL, NC, 28079",14181322,"L"
152679,"2839 S LINDEN","WICHITA","KS",67210,NA,NA,179,"2839 S LINDEN, WICHITA, KS, 67210","Tie",NA,NA,NA,NA
152680,"2839 SAIL BREEZE WAY","KISSIMMEE","FL",34744,28.3309918910001,-81.265710923,180,"2839 SAIL BREEZE WAY, KISSIMMEE, FL, 34744","Match","Exact","2839 SAIL BREEZE WAY, KISSIMMEE, FL, 34744",646544534,"L"
152681,"2839 SOLANO DEL SOL DR NE","RIO RANCHO","NM",87144,35.3042478460001,-106.698497219,181,"2839 SOLANO DEL SOL DR NE, RIO RANCHO, NM, 87144","Match","Non_Exact","2839 SOLANO DEL SOL NE, RIO RANCHO, NM, 87144",611360359,"R"
152682,"2839 SW 83RD TER","MIRAMAR","FL",33025,25.984079078,-80.253073948,182,"2839 SW 83RD TER, MIRAMAR, FL, 33025","Match","Exact","2839 SW 83RD TER, MIRAMAR, FL, 33025",617658943,"L"
152683,"2839 SW BERKSHIRE DR","TOPEKA","KS",66614,39.014689837,-95.803917338,183,"2839 SW BERKSHIRE DR, TOPEKA, KS, 66614","Match","Exact","2839 BERKSHIRE DR, TOPEKA, KS, 66614",17902741,"R"
152684,"2839 W TOPAZ DRIVE","FAYETTEVILLE","AR",72704,36.1058189,-94.19975333,184,"2839 W TOPAZ DRIVE, FAYETTEVILLE, AR, 72704","Match","Exact","2839 W TOPAZ DR, FAYETTEVILLE, AR, 72704",612968260,"L"
152685,"2839 WATERFALL WAY","WESTLAKE","OH",44145,41.448558738,-81.967483221,185,"2839 WATERFALL WAY, WESTLAKE, OH, 44145","Match","Exact","2839 WATERFALL WAY, WESTLAKE, OH, 44145",617257701,"R"
152686,"28390 MAYFAIR DR","VALENCIA","CA",91354,34.464416214,-118.543864216,186,"28390 MAYFAIR DR, VALENCIA, CA, 91354","Match","Exact","28390 MAYFAIR DR, VALENCIA, CA, 91354",142832445,"L"
152687,"28393 EAST BURNETT ROAD","ISLAND LAKE","IL",60042,42.2848856150001,-88.1806911149999,187,"28393 EAST BURNETT ROAD, ISLAND LAKE, IL, 60042","Match","Exact","28393 E BURNETT RD, ISLAND LAKE, IL, 60042",649747884,"R"
152688,"284 ARIEL DR","LEESBURG","VA",20176,39.118747661,-77.5576561089999,188,"284 ARIEL DR, LEESBURG, VA, 20176","Match","Non_Exact","284 ARIEL DR NE, LEESBURG, VA, 20176",62357058,"L"
152689,"284 BEAUFORT AVENUE","LIVINGSTON","NJ",7039,40.8097092670001,-74.334839446,189,"284 BEAUFORT AVENUE, LIVINGSTON, NJ, 7039","Match","Exact","284 BEAUFORT AVE, LIVINGSTON, NJ, 07039",63482021,"R"
152690,"284 CAMPBELL DRIVE","HARTWELL","GA",30643,34.349619121,-82.924386243,190,"284 CAMPBELL DRIVE, HARTWELL, GA, 30643","Match","Exact","284 CAMPBELL DR, HARTWELL, GA, 30643",618347102,"L"
152691,"284 CEDAR ROAD","MULLICA HILL","NJ",8062,39.7404274460001,-75.1991560549999,191,"284 CEDAR ROAD, MULLICA HILL, NJ, 8062","Match","Exact","284 CEDAR RD, MULLICA HILL, NJ, 08062",134605492,"R"
152692,"284 CHERRY AVENUE APT 1","LONG BEACH","CA",90802,33.768768391,-118.167637258,192,"284 CHERRY AVENUE APT 1, LONG BEACH, CA, 90802","Match","Exact","284 CHERRY AVE, LONG BEACH, CA, 90802",141701337,"R"
152693,"284 CINNAMON WAY","CLEMMONS","NC",27012,35.9856069690001,-80.292111833,193,"284 CINNAMON WAY, CLEMMONS, NC, 27012","Match","Exact","284 CINNAMON WAY, CLEMMONS, NC, 27012",617911144,"R"
152694,"284 COUNTY ROAD 32 SOUTH","BELLEFONTAINE","OH",43311,40.358839163,-83.792692319,194,"284 COUNTY ROAD 32 SOUTH, BELLEFONTAINE, OH, 43311","Match","Exact","284 CO RD 32 S, BELLEFONTAINE, OH, 43311",647397636,"L"
152695,"284 EAGLE CREST COURT","KALISPELL","MT",59901,48.184618142,-114.367584346,195,"284 EAGLE CREST COURT, KALISPELL, MT, 59901","Match","Exact","284 EAGLE CREST CT, KALISPELL, MT, 59901",614099746,"L"
152696,"284 GANSEVOORT BLVD","STATEN ISLAND","NY",10314,40.6051037710001,-74.126759119,196,"284 GANSEVOORT BLVD, STATEN ISLAND, NY, 10314","Match","Exact","284 GANSEVOORT BLVD, STATEN ISLAND, NY, 10314",59876427,"R"
152697,"284 HIGHLANDS LANE","MARTINEZ","GA",30907,33.531315557,-82.0668858179999,197,"284 HIGHLANDS LANE, MARTINEZ, GA, 30907","Match","Non_Exact","284 HIGHLANDS CT, MARTINEZ, GA, 30907",55376756,"R"
152698,"284 HIGHLINE RD","LAKE OZARK","MO",65049,38.1994625620001,-92.651469295,198,"284 HIGHLINE RD, LAKE OZARK, MO, 65049","Match","Exact","284 HIGHLINE RD, LAKE OZARK, MO, 65049",22841470,"L"
152699,"284 HURST RD NE","PALM BAY","FL",32907,28.0145289430001,-80.665452757,199,"284 HURST RD NE, PALM BAY, FL, 32907","Match","Exact","284 HURST RD NE, PALM BAY, FL, 32907",93907264,"R"
152700,"284 LA SERENA WAY","SONOMA","CA",95476,38.282910557,-122.47174654,200,"284 LA SERENA WAY, SONOMA, CA, 95476","Match","Exact","284 LA SERENA WAY, SONOMA, CA, 95476",67481734,"R"
152701,"284 LARCHWOOD DR","LARGO","FL",33770,27.9138053410001,-82.8136268919999,201,"284 LARCHWOOD DR, LARGO, FL, 33770","Match","Exact","284 LARCHWOOD DR, LARGO, FL, 33770",124671413,"R"
152702,"284 LASSEN AVE","MOUNTAIN VIEW","CA",94043,37.4074944280001,-122.101922157,202,"284 LASSEN AVE, MOUNTAIN VIEW, CA, 94043","Match","Exact","284 LASSEN AVE, MOUNTAIN VIEW, CA, 94043",122953747,"L"
152703,"284 LONG VIEW LANE","KENNETT SQUARE","PA",19348,39.87567856,-75.694233977,203,"284 LONG VIEW LANE, KENNETT SQUARE, PA, 19348","Match","Non_Exact","284 LONGVIEW LN, KENNETT SQUARE, PA, 19348",179523960,"L"
152704,"284 LYNNBANK ESTATES RD","KITTRELL","NC",27544,36.232002326,-78.471370201,204,"284 LYNNBANK ESTATES RD, KITTRELL, NC, 27544","Match","Exact","284 LYNNBANK ESTATES RD, KITTRELL, NC, 27544",90277300,"L"
152705,"284 MALIBU CIR","GREENACRES","FL",33413,26.660187835,-80.146902228,205,"284 MALIBU CIR, GREENACRES, FL, 33413","Match","Exact","284 MALIBU CIR, GREENACRES, FL, 33413",650067368,"R"
152706,"284 MARITIME STREET","HENDERSON","NV",89074,36.0483267970001,-115.05047843,206,"284 MARITIME STREET, HENDERSON, NV, 89074","Match","Exact","284 MARITIME ST, HENDERSON, NV, 89074",201921492,"R"
152707,"284 MONCREST DR","CLARKSVILLE","TN",37042,36.595858332,-87.404729193,207,"284 MONCREST DR, CLARKSVILLE, TN, 37042","Match","Exact","284 MONCREST DR, CLARKSVILLE, TN, 37042",31832855,"R"
152708,"284 N GLASSELL ST","ORANGE","CA",92866,33.791163585,-117.853092752,208,"284 N GLASSELL ST, ORANGE, CA, 92866","Match","Exact","284 N GLASSELL ST, ORANGE, CA, 92866",144051143,"L"
152709,"284 NEW YORK AVE","BKLYN","NY",11216,NA,NA,209,"284 NEW YORK AVE, BKLYN, NY, 11216","No_Match",NA,NA,NA,NA
152710,"284 PACIFIC STREET APT 1","BROOKLYN","NY",11201,40.6878611810001,-73.989288345,210,"284 PACIFIC STREET APT 1, BROOKLYN, NY, 11201","Match","Exact","284 PACIFIC ST, BROOKLYN, NY, 11201",652209668,"R"
152711,"284 RAINBOW DR","PAGOSA SPRINGS","CO",81147,37.2757392300001,-107.038747154,211,"284 RAINBOW DR, PAGOSA SPRINGS, CO, 81147","Match","Exact","284 RAINBOW DR, PAGOSA SPRINGS, CO, 81147",650898323,"L"
152712,"284 RIVER VALLEY DRIVE","CHESTERFIELD","MO",63017,NA,NA,212,"284 RIVER VALLEY DRIVE, CHESTERFIELD, MO, 63017","No_Match",NA,NA,NA,NA
152713,"284 ROUTE 11","SUNAPEE","NH",3782,43.3783222120001,-72.106330257,213,"284 ROUTE 11, SUNAPEE, NH, 3782","Match","Non_Exact","284 STATE RTE 11, SUNAPEE, NH, 03782",124344079,"R"
152714,"284 S HARNEY STREET","CAMILLA","FL",31730,NA,NA,214,"284 S HARNEY STREET, CAMILLA, FL, 31730","No_Match",NA,NA,NA,NA
152715,"284 SECOND STREET","VANCEBURG","KY",41179,NA,NA,215,"284 SECOND STREET, VANCEBURG, KY, 41179","No_Match",NA,NA,NA,NA
152716,"284 SEIGEL ST APT 2C","BROOKLYN","NY",11206,40.7055463400001,-73.9340158049999,216,"284 SEIGEL ST APT 2C, BROOKLYN, NY, 11206","Match","Exact","284 SEIGEL ST, BROOKLYN, NY, 11206",59077389,"R"
152717,"284 SHEPARD AVENUE","HAMDEN","CT",6514,41.3829237620001,-72.9208608879999,217,"284 SHEPARD AVENUE, HAMDEN, CT, 6514","Match","Exact","284 SHEPARD AVE, HAMDEN, CT, 06514",3711610,"L"
152718,"284 SMITH FARM RD","LUFKIN","TX",75904,31.3137638310001,-94.85488725,218,"284 SMITH FARM RD, LUFKIN, TX, 75904","Match","Exact","284 SMITH FARM RD, LUFKIN, TX, 75904",636399375,"L"
152719,"284 SOUTH MAIN STREET SUITE 1200","ALPHARETTA","GA",30009,34.068225098,-84.30057305,219,"284 SOUTH MAIN STREET SUITE 1200, ALPHARETTA, GA, 30009","Match","Exact","284 S MAIN ST, ALPHARETTA, GA, 30009",17352925,"L"
152720,"284 SPRING ST UNIT 303","SAINT PAUL","MN",55102,44.939104673,-93.101982559,220,"284 SPRING ST UNIT 303, SAINT PAUL, MN, 55102","Match","Exact","284 SPRING ST, SAINT PAUL, MN, 55102",647900863,"L"
152721,"284 SUGAR RUN LANE","TOWANDA","PA",18848,41.788362077,-76.540085178,221,"284 SUGAR RUN LANE, TOWANDA, PA, 18848","Match","Exact","284 SUGAR RUN LN, TOWANDA, PA, 18848",176974255,"R"
152722,"284 TURKEY HILL RD","RANDOLPH CTR","VT",5061,43.975674257,-72.5941828759999,222,"284 TURKEY HILL RD, RANDOLPH CTR, VT, 5061","Match","Exact","284 TURKEY HILL RD, RANDOLPH CENTER, VT, 05061",653259984,"L"
152723,"284 VISTA RIDGE DR","DELAWARE","OH",43015,40.238610119,-83.040632019,223,"284 VISTA RIDGE DR, DELAWARE, OH, 43015","Match","Exact","284 VISTA RIDGE DR, DELAWARE, OH, 43015",640602611,"R"
152724,"284 WALKERS MILL RD","BETHEL","ME",4217,44.4177764450001,-70.764715285,224,"284 WALKERS MILL RD, BETHEL, ME, 4217","Match","Non_Exact","284 WALKERS MILLS RD, BETHEL, ME, 04217",92681195,"L"
152725,"284 WALLTOWN RD","GRAMPIAN","PA",16838,40.968864942,-78.621482661,225,"284 WALLTOWN RD, GRAMPIAN, PA, 16838","Match","Exact","284 WALLTOWN RD, GRAMPIAN, PA, 16838",50493932,"L"
152726,"284 WEST END STREET  APARTMENT 4B","NEW YORK","NY",10023,40.7807333820001,-73.9837905759999,226,"284 WEST END STREET  APARTMENT 4B, NEW YORK, NY, 10023","Match","Non_Exact","284 W END AVE, NEW YORK, NY, 10023",59655001,"R"
152727,"284 WEST PALISADE AVE APT 1W","ENGLEWOOD","NJ",7631,40.8999847110001,-73.985481739,227,"284 WEST PALISADE AVE APT 1W, ENGLEWOOD, NJ, 7631","Match","Exact","284 W PALISADE AVE, ENGLEWOOD, NJ, 07631",64372879,"L"
152728,"284 WHITE STREET","LEXINGTON","TN",38351,35.6566805300001,-88.388861216,228,"284 WHITE STREET, LEXINGTON, TN, 38351","Match","Exact","284 WHITE ST, LEXINGTON, TN, 38351",21224469,"R"
152729,"284 WOODVILLE ROAD","FALMOUTH","ME",4105,43.7588713800001,-70.259490775,229,"284 WOODVILLE ROAD, FALMOUTH, ME, 4105","Match","Exact","284 WOODVILLE RD, FALMOUTH, ME, 04105",616704267,"R"
152730,"284 WYOMING AVENUE","KINGSTON","PA",18704,NA,NA,230,"284 WYOMING AVENUE, KINGSTON, PA, 18704","No_Match",NA,NA,NA,NA
152731,"284","NEWTON FALLS","OH",44444,NA,NA,231,"284, NEWTON FALLS, OH, 44444","No_Match",NA,NA,NA,NA
152732,"2840 134TH AVE NE","BELLEVUE","WA",98005,47.636315881,-122.162102108,232,"2840 134TH AVE NE, BELLEVUE, WA, 98005","Match","Exact","2840 134TH AVE NE, BELLEVUE, WA, 98005",187032721,"R"
152733,"2840 28TH STREET","BIRCHWOOD","WI",54817,45.614669371,-91.573484788,233,"2840 28TH STREET, BIRCHWOOD, WI, 54817","Match","Exact","2840 28TH ST, BIRCHWOOD, WI, 54817",126291441,"L"
152734,"2840 BOUDINOT AVE","CINCINNATI","OH",45238,39.135595385,-84.604766357,234,"2840 BOUDINOT AVE, CINCINNATI, OH, 45238","Match","Exact","2840 BOUDINOT AVE, CINCINNATI, OH, 45238",103917785,"R"
152735,"2840 BRISTOL LANE","LODI","CA",95242,38.1484076790001,-121.311282267,235,"2840 BRISTOL LANE, LODI, CA, 95242","Match","Exact","2840 BRISTOL LN, LODI, CA, 95242",133884121,"R"
152736,"2840 CAVELL AVENUE SOUTH","ST. LOUIS PARK","MN",55426,44.9515589700001,-93.392006809,236,"2840 CAVELL AVENUE SOUTH, ST. LOUIS PARK, MN, 55426","Match","Exact","2840 CAVELL AVE S, SAINT LOUIS PARK, MN, 55426",43612255,"R"
152737,"2840 CHAMBERS BAY DR","STEILACOOM","WA",98388,47.1824792300001,-122.580314481,237,"2840 CHAMBERS BAY DR, STEILACOOM, WA, 98388","Match","Exact","2840 CHAMBERS BAY DR, STEILACOOM, WA, 98388",184680497,"R"
152738,"2840 CHAMPA STREET","DENVER","CO",80205,39.758125212,-104.978920954,238,"2840 CHAMPA STREET, DENVER, CO, 80205","Match","Exact","2840 CHAMPA ST, DENVER, CO, 80205",177305089,"R"
152739,"2840 EAST 28TH STREET","ERIE","PA",16510,42.132596488,-80.010925433,239,"2840 EAST 28TH STREET, ERIE, PA, 16510","Match","Exact","2840 E 28TH ST, ERIE, PA, 16510",117499665,"L"
152740,"2840 EAST 51ST STREET SUITE 205","TULSA","OK",74105,36.0898037960001,-95.947405362,240,"2840 EAST 51ST STREET SUITE 205, TULSA, OK, 74105","Match","Exact","2840 E 51ST ST, TULSA, OK, 74105",166510795,"R"
152741,"2840 EASTLAKE AVE EAST APT 202","SEATTLE","WA",98102,47.646225138,-122.325399815,241,"2840 EASTLAKE AVE EAST APT 202, SEATTLE, WA, 98102","Match","Exact","2840 EASTLAKE AVE E, SEATTLE, WA, 98102",186583506,"R"
152742,"2840 FRASER STREET","GRAND RAPIDS","MN",55744,47.228314927,-93.482593994,242,"2840 FRASER STREET, GRAND RAPIDS, MN, 55744","Match","Exact","2840 FRASER ST, GRAND RAPIDS, MN, 55744",611755108,"R"
152743,"2840 GREEN MILLS RD","COLUMBIA","TN",38401,NA,NA,243,"2840 GREEN MILLS RD, COLUMBIA, TN, 38401","No_Match",NA,NA,NA,NA
152744,"2840 IRONWOOD DR","GRAND PRAIRIE","TX",75052,32.668691541,-97.054078994,244,"2840 IRONWOOD DR, GRAND PRAIRIE, TX, 75052","Match","Exact","2840 IRONWOOD DR, GRAND PRAIRIE, TX, 75052",101930870,"L"
152745,"2840 KALAMA RIVER RD","KALAMA","WA",98625,46.0361848090001,-122.752670468,245,"2840 KALAMA RIVER RD, KALAMA, WA, 98625","Match","Exact","2840 KALAMA RIVER RD, KALAMA, WA, 98625",184504466,"R"
152746,"2840 N HIGHLANDS BLVD","AVON PARK","FL",33825,NA,NA,246,"2840 N HIGHLANDS BLVD, AVON PARK, FL, 33825","No_Match",NA,NA,NA,NA
152747,"2840 N MULLIGAN AVE","CHICAGO","IL",60634,41.9320782190001,-87.784514227,247,"2840 N MULLIGAN AVE, CHICAGO, IL, 60634","Match","Exact","2840 N MULLIGAN AVE, CHICAGO, IL, 60634",605202814,"L"
152748,"2840 N STOWELL AVE","MILWAUKEE","WI",53211,43.0700221450001,-87.879264846,248,"2840 N STOWELL AVE, MILWAUKEE, WI, 53211","Match","Exact","2840 N STOWELL AVE, MILWAUKEE, WI, 53211",77744189,"R"
152749,"2840 NORTH EAST 135TH STREET","ANTHONY","FL",32617,NA,NA,249,"2840 NORTH EAST 135TH STREET, ANTHONY, FL, 32617","No_Match",NA,NA,NA,NA
152750,"2840 NW 152 TERRACE","OPA LOCKA","FL",33054,25.9131235720001,-80.2468121049999,250,"2840 NW 152 TERRACE, OPA LOCKA, FL, 33054","Match","Exact","2840 NW 152ND TER, OPA LOCKA, FL, 33054",116028418,"L"
152751,"2840 NW 152ND TERRACE","MIAMI","FL",33054,25.9131235720001,-80.2468121049999,251,"2840 NW 152ND TERRACE, MIAMI, FL, 33054","Match","Non_Exact","2840 NW 152ND TER, MIAMI GARDENS, FL, 33054",116028418,"L"
152752,"2840 PEACHTREE ROAD NW 502","ATLANTA","GA",30305,33.831876064,-84.385156023,252,"2840 PEACHTREE ROAD NW 502, ATLANTA, GA, 30305","Match","Non_Exact","2840 PEACHTREE ST NW, ATLANTA, GA, 30305",650071434,"L"
152753,"2840 PINE ROAD - UNIT F","HUNTINGDON VALLEY","PA",19006,40.1223305010001,-75.044404018,253,"2840 PINE ROAD - UNIT F, HUNTINGDON VALLEY, PA, 19006","Match","Exact","2840 PINE RD, HUNTINGDON VALLEY, PA, 19006",135096668,"L"
152754,"2840 PORTER ST SW","GRANDVILLE","MI",49418,42.92107309,-85.736123225,254,"2840 PORTER ST SW, GRANDVILLE, MI, 49418","Match","Exact","2840 PORTER ST SW, GRANDVILLE, MI, 49418",12501853,"L"
152755,"2840 PYTHAGORAS CIR","OCOEE","FL",34761,28.6071547600001,-81.5280892649999,255,"2840 PYTHAGORAS CIR, OCOEE, FL, 34761","Match","Exact","2840 PYTHAGORAS CIR, OCOEE, FL, 34761",627201745,"R"
152756,"2840 RIGGORY RIDGE ROAD","CHARLOTTESVILLE","VA",22911,38.0829946360001,-78.402013633,256,"2840 RIGGORY RIDGE ROAD, CHARLOTTESVILLE, VA, 22911","Match","Exact","2840 RIGGORY RIDGE RD, CHARLOTTESVILLE, VA, 22911",83403831,"L"
152757,"2840 ROBINSON PL SE NUMBER 302","WASHINGTON","DC",20020,38.8512621950001,-76.987404867,257,"2840 ROBINSON PL SE NUMBER 302, WASHINGTON, DC, 20020","Match","Exact","2840 ROBINSON PL SE, WASHINGTON, DC, 20020",76232424,"L"
152758,"2840 ROBINSON ST","JACKSON","MS",39202,32.3055226130001,-90.2315425319999,258,"2840 ROBINSON ST, JACKSON, MS, 39202","Match","Non_Exact","2840 ROBINSON ST, JACKSON, MS, 39209",65367108,"R"
152759,"2840 SHETLAND DRIVE","WINSTON SALEM","NC",27127,36.014792093,-80.29580355,259,"2840 SHETLAND DRIVE, WINSTON SALEM, NC, 27127","Match","Exact","2840 SHETLAND DR, WINSTON SALEM, NC, 27127",615647592,"L"
152760,"2840 SOUTH PARCO AVE","ONTARIO","CA",91761,34.0221467100001,-117.624014149,260,"2840 SOUTH PARCO AVE, ONTARIO, CA, 91761","Match","Exact","2840 S PARCO AVE, ONTARIO, CA, 91761",144636911,"R"
152761,"2840 SOUTH PARK ROAD STE 202","HALLANDALE BEACH","FL",33009,25.9854551780001,-80.170820654,261,"2840 SOUTH PARK ROAD STE 202, HALLANDALE BEACH, FL, 33009","Match","Exact","2840 S PARK RD, HALLANDALE BEACH, FL, 33009",608968930,"R"
152762,"2840 US HIGHWAY 131 S","CADILLAC","MI",49601,NA,NA,262,"2840 US HIGHWAY 131 S, CADILLAC, MI, 49601","No_Match",NA,NA,NA,NA
152763,"2840 VIA CONTESSA","HENDERSON","NV",89044,36.036560782,-115.109572326,263,"2840 VIA CONTESSA, HENDERSON, NV, 89044","Match","Non_Exact","2840 CONTESSA, HENDERSON, NV, 89074",201882297,"R"
152764,"2840 W CLARKSTON RD","LAKE ORION","MI",48362,42.765738578,-83.300394599,264,"2840 W CLARKSTON RD, LAKE ORION, MI, 48362","Match","Exact","2840 W CLARKSTON RD, LAKE ORION, MI, 48362",69700524,"L"
152765,"2840 WALNUT CREEK RD","MACON","GA",31211,32.8687520980001,-83.599824782,265,"2840 WALNUT CREEK RD, MACON, GA, 31211","Match","Exact","2840 WALNUT CREEK RD, MACON, GA, 31211",81064371,"L"
152766,"2840 WARM SPRINGS RD APT W4","COLUMBUS","GA",31904,32.5037409110001,-84.950841951,266,"2840 WARM SPRINGS RD APT W4, COLUMBUS, GA, 31904","Match","Exact","2840 WARM SPRINGS RD, COLUMBUS, GA, 31904",98953675,"R"
152767,"2840 WEST ALLRED CIRCLE","TAYLORSVILLE","UT",84129,40.6549566140001,-111.960742742,267,"2840 WEST ALLRED CIRCLE, TAYLORSVILLE, UT, 84129","Match","Non_Exact","2840 ALLRED CIR, TAYLORSVILLE, UT, 84129",176072795,"L"
152768,"2840 WEST BAY DR NUMBER 141","BELLEAIR BLUFFS","FL",33770,27.916822089,-82.8185526199999,268,"2840 WEST BAY DR NUMBER 141, BELLEAIR BLUFFS, FL, 33770","Match","Exact","2840 W BAY DR, BELLEAIR BLUFFS, FL, 33770",647891527,"L"
152769,"2840 WEST BAY DRIVE SUITE 304","BELLEAIR BLUFFS","FL",33770,27.916822089,-82.8185526199999,269,"2840 WEST BAY DRIVE SUITE 304, BELLEAIR BLUFFS, FL, 33770","Match","Exact","2840 W BAY DR, BELLEAIR BLUFFS, FL, 33770",647891527,"L"
152770,"2840 WEST FOX CHASE CIRCLE","DOYLESTOWN","PA",18902,40.326885621,-75.0696441699999,270,"2840 WEST FOX CHASE CIRCLE, DOYLESTOWN, PA, 18902","Match","Exact","2840 W FOX CHASE CIR, DOYLESTOWN, PA, 18902",134730246,"L"
152771,"2840 WILDERNESS PLACE","BOULDER","CO",80301,40.026038715,-105.248657452,271,"2840 WILDERNESS PLACE, BOULDER, CO, 80301","Match","Exact","2840 WILDERNESS PL, BOULDER, CO, 80301",188162407,"L"
152772,"2840 WINEBERRY","CONWAY","AR",72034,35.062327512,-92.47172015,272,"2840 WINEBERRY, CONWAY, AR, 72034","Match","Exact","2840 WINEBERRY, CONWAY, AR, 72034",141073403,"L"
152773,"2840 WISCONSIN 32","KRAKOW","WI",54137,44.7781790270001,-88.251769397,273,"2840 WISCONSIN 32, KRAKOW, WI, 54137","Match","Exact","2840 STATE HWY 32, KRAKOW, WI, 54137",612052392,"R"
152774,"2840 WOOD HOLLOW LN","OVIEDO","FL",32766,28.6302474820001,-81.1448764519999,274,"2840 WOOD HOLLOW LN, OVIEDO, FL, 32766","Match","Exact","2840 WOOD HOLLOW LN, OVIEDO, FL, 32766",605411952,"R"
152775,"28400 RIDGE RD","MT AIRY","MD",21771,39.322970786,-77.197255804,275,"28400 RIDGE RD, MT AIRY, MD, 21771","Match","Exact","28400 RIDGE RD, MOUNT AIRY, MD, 21771",632807477,"L"
152776,"28400 RUEHLE ST","SAINT CLAIR SHORES","MI",48081,42.501939685,-82.9050669819999,276,"28400 RUEHLE ST, SAINT CLAIR SHORES, MI, 48081","Match","Exact","28400 RUEHLE ST, SAINT CLAIR SHORES, MI, 48081",110682414,"R"
152777,"28401 SW 167TH AVENUE","HOMESTEAD","FL",33030,25.5027822640001,-80.461269161,277,"28401 SW 167TH AVENUE, HOMESTEAD, FL, 33030","Match","Exact","28401 SW 167TH AVE, HOMESTEAD, FL, 33030",115988350,"L"
152778,"28402 SW 129 PLACE","HOMESTEAD","FL",33033,25.503407802,-80.401449944,278,"28402 SW 129 PLACE, HOMESTEAD, FL, 33033","Match","Exact","28402 SW 129TH PL, HOMESTEAD, FL, 33033",624442635,"L"
152779,"28402 VIA PASITO","SAN JUAN CAPISTRANO","CA",92675,33.486612409,-117.640373637,279,"28402 VIA PASITO, SAN JUAN CAPISTRANO, CA, 92675","Match","Exact","28402 VIA PASITO, SAN JUAN CAPISTRANO, CA, 92675",640195654,"L"
152780,"28404 ALGER BLVD","MADISON HEIGHTS","MI",48071,42.5013886130001,-83.108090034,280,"28404 ALGER BLVD, MADISON HEIGHTS, MI, 48071","Match","Non_Exact","28404 ALGER ST, MADISON HEIGHTS, MI, 48071",69745002,"R"
152781,"28404 ALGER BLVD","MADISON HTS","MI",48071,42.5013886130001,-83.108090034,281,"28404 ALGER BLVD, MADISON HTS, MI, 48071","Match","Non_Exact","28404 ALGER ST, MADISON HEIGHTS, MI, 48071",69745002,"R"
152782,"28409 NORTH 21ST AVENUE","PHOENIX","AZ",85085,33.742050448,-112.103279215,282,"28409 NORTH 21ST AVENUE, PHOENIX, AZ, 85085","Match","Exact","28409 N 21ST AVE, PHOENIX, AZ, 85085",648274548,"R"
152783,"2841 24TH STREET","TUSCALOOSA","AL",35401,33.1908110270001,-87.5719611069999,283,"2841 24TH STREET, TUSCALOOSA, AL, 35401","Match","Exact","2841 24TH ST, TUSCALOOSA, AL, 35401",82207668,"L"
152784,"2841 ANAHEIM STREET","ESCONDIDO","CA",92025,33.084591602,-117.039466273,284,"2841 ANAHEIM STREET, ESCONDIDO, CA, 92025","Match","Exact","2841 ANAHEIM ST, ESCONDIDO, CA, 92025",195317146,"R"
152785,"2841 BARITE DRIVE","LAKE HAVASU CITY","AZ",86404,34.5192206850001,-114.322932699,285,"2841 BARITE DRIVE, LAKE HAVASU CITY, AZ, 86404","Match","Exact","2841 BARITE DR, LAKE HAVASU CITY, AZ, 86404",190278442,"L"
152786,"2841 BOARDWALK DRIVE","ANN ARBOR","MI",48108,42.2510908770001,-83.7357633779999,286,"2841 BOARDWALK DRIVE, ANN ARBOR, MI, 48108","Match","Non_Exact","2841 BOARDWALK DR, ANN ARBOR, MI, 48104",26046794,"L"
152787,"2841 BROWNSVILLE ROAD","MOUNT VERNON","IL",62864,38.285517989,-88.907110398,287,"2841 BROWNSVILLE ROAD, MOUNT VERNON, IL, 62864","Match","Non_Exact","2841 N BROWNSVILLE RD, MOUNT VERNON, IL, 62864",92883587,"L"
152788,"2841 BRYANT AVENUE SOUTH","MINNEAPOLIS","MN",55408,44.951258259,-93.2906214069999,288,"2841 BRYANT AVENUE SOUTH, MINNEAPOLIS, MN, 55408","Match","Exact","2841 BRYANT AVE S, MINNEAPOLIS, MN, 55408",43784868,"L"
152789,"2841 CONGAREE RD","GADSDEN","SC",29052,33.8505486610001,-80.764534122,289,"2841 CONGAREE RD, GADSDEN, SC, 29052","Match","Exact","2841 CONGAREE RD, GADSDEN, SC, 29052",71813927,"R"
152790,"2841 EDWARDS STREET","MANHATTAN","KS",66502,39.2155425190001,-96.6084643409999,290,"2841 EDWARDS STREET, MANHATTAN, KS, 66502","Match","Exact","2841 EDWARDS ST, MANHATTAN, KS, 66502",27793593,"L"
152791,"2841 EDWARDS STREET","MANHATTAN","KS",66503,39.2155425190001,-96.6084643409999,291,"2841 EDWARDS STREET, MANHATTAN, KS, 66503","Match","Non_Exact","2841 EDWARDS ST, MANHATTAN, KS, 66502",27793593,"L"
152792,"2841 HUGUENOT SPRINGS ROAD","MIDLOTHIAN","VA",23113,37.55959439,-77.700470861,292,"2841 HUGUENOT SPRINGS ROAD, MIDLOTHIAN, VA, 23113","Match","Exact","2841 HUGUENOT SPRINGS RD, MIDLOTHIAN, VA, 23113",73829471,"L"
152793,"2841 LOGAN STREET","NASHVILLE","TN",37211,36.112303276,-86.7416925699999,293,"2841 LOGAN STREET, NASHVILLE, TN, 37211","Match","Exact","2841 LOGAN ST, NASHVILLE, TN, 37211",97192928,"R"
152794,"2841 LOVE LANE","FRIENDSWOOD","TX",77546,29.473339922,-95.2235230479999,294,"2841 LOVE LANE, FRIENDSWOOD, TX, 77546","Match","Exact","2841 LOVE LN, FRIENDSWOOD, TX, 77546",96707694,"R"
152795,"2841 MERLE AVENUE","MODESTO","CA",95355,37.670804296,-120.942473297,295,"2841 MERLE AVENUE, MODESTO, CA, 95355","Match","Exact","2841 MERLE AVE, MODESTO, CA, 95355",102610746,"L"
152796,"2841 MONMOUTH RD","WRIGHTSTOWN","NJ",8562,40.06023086,-74.633794393,296,"2841 MONMOUTH RD, WRIGHTSTOWN, NJ, 8562","Match","Exact","2841 MONMOUTH RD, WRIGHTSTOWN, NJ, 08562",134042450,"L"
152797,"2841 MOUNTAIN CREST ROAD","JONESVILLE","NC",28642,36.196266263,-80.815346074,297,"2841 MOUNTAIN CREST ROAD, JONESVILLE, NC, 28642","Match","Exact","2841 MOUNTAIN CREST RD, JONESVILLE, NC, 28642",84771047,"L"
152798,"2841 N SILVER CREEK DR","PALMER","AK",99645,61.610617577,-149.218211401,298,"2841 N SILVER CREEK DR, PALMER, AK, 99645","Match","Exact","2841 N SILVER CREEK DR, PALMER, AK, 99645",611935760,"R"
152799,"2841 N WHIPPLE ST","CHICAGO","IL",60618,41.9328979430001,-87.703765156,299,"2841 N WHIPPLE ST, CHICAGO, IL, 60618","Match","Exact","2841 N WHIPPLE ST, CHICAGO, IL, 60618",605214927,"R"
152800,"2841 S 710 W","PRICE","UT",84501,39.559257443,-110.829339269,300,"2841 S 710 W, PRICE, UT, 84501","Match","Exact","2841 710 W, PRICE, UT, 84501",132831243,"R"
152801,"2841 TIERRA DRIVE 106","LINCOLN","NE",68516,40.76366575,-96.680987522,301,"2841 TIERRA DRIVE 106, LINCOLN, NE, 68516","Match","Exact","2841 TIERRA DR, LINCOLN, NE, 68516",28284843,"R"
152802,"2841 WENDELL AVE","LIMA","OH",45805,40.734811768,-84.15454089,302,"2841 WENDELL AVE, LIMA, OH, 45805","Match","Exact","2841 WENDELL AVE, LIMA, OH, 45805",35565454,"L"
152803,"2841 WILDER ROAD","METAMORA","MI",48455,42.9774240610001,-83.2414193019999,303,"2841 WILDER ROAD, METAMORA, MI, 48455","Match","Exact","2841 WILDER RD, METAMORA, MI, 48455",110469378,"L"
152804,"2841 YELLOW CREEK RD","AKRON","OH",44333,41.1578966960001,-81.608511602,304,"2841 YELLOW CREEK RD, AKRON, OH, 44333","Match","Exact","2841 YELLOW CREEK RD, AKRON, OH, 44333",623950688,"R"
152805,"28411 KNICKERBOCKER RD","BAY VILLAGE","OH",44140,41.4782974680001,-81.9335438109999,305,"28411 KNICKERBOCKER RD, BAY VILLAGE, OH, 44140","Match","Exact","28411 KNICKERBOCKER RD, BAY VILLAGE, OH, 44140",61137619,"L"
152806,"28413 N 65TH STREET","CAVE CREEK","AZ",85331,33.7430909830001,-111.941105943,306,"28413 N 65TH STREET, CAVE CREEK, AZ, 85331","Match","Exact","28413 N 65TH ST, CAVE CREEK, AZ, 85331",624486360,"L"
152807,"28414 PORTSMOUTH DRIVE","MENIFEE","CA",92586,33.7076924950001,-117.212651817,307,"28414 PORTSMOUTH DRIVE, MENIFEE, CA, 92586","Match","Exact","28414 PORTSMOUTH DR, MENIFEE, CA, 92586",194710841,"R"
152808,"28416 LONGFELLOW LANE","ALBANY","LA",70711,30.480313579,-90.583314937,308,"28416 LONGFELLOW LANE, ALBANY, LA, 70711","Match","Exact","28416 LONGFELLOW LN, ALBANY, LA, 70711",646567798,"L"
152809,"2842 32ND AVE S","SEATTLE","WA",98144,47.5778695860001,-122.291914019,309,"2842 32ND AVE S, SEATTLE, WA, 98144","Match","Exact","2842 32ND AVE S, SEATTLE, WA, 98144",239763007,"L"
152810,"2842 ARTHUR AVENUE","CAMDEN","NJ",8105,39.954527737,-75.08983698,310,"2842 ARTHUR AVENUE, CAMDEN, NJ, 8105","Match","Exact","2842 ARTHUR AVE, CAMDEN, NJ, 08105",134342100,"R"
152811,"2842 CENTREVILLE AVE","BELLEVILLE","IL",62269,38.4916288320001,-90.0225152039999,311,"2842 CENTREVILLE AVE, BELLEVILLE, IL, 62269","Match","Non_Exact","2842 CENTREVILLE AVE, BELLEVILLE, IL, 62226",107933856,"L"
152812,"2842 FAIRBURN RD SW","ATLANTA","GA",30331,33.6763730480001,-84.517804957,312,"2842 FAIRBURN RD SW, ATLANTA, GA, 30331","Match","Exact","2842 FAIRBURN RD SW, ATLANTA, GA, 30331",618349431,"L"
152813,"2842 FRONT ST","CASTLE ROCK","CO",80104,39.400224725,-104.860232353,313,"2842 FRONT ST, CASTLE ROCK, CO, 80104","Match","Exact","2842 FRONT ST, CASTLE ROCK, CO, 80104",606340116,"R"
152814,"2842 GLADIOLUS LANE","DALLAS","TN",75233,NA,NA,314,"2842 GLADIOLUS LANE, DALLAS, TN, 75233","No_Match",NA,NA,NA,NA
152815,"2842 GLADIOLUS LANE","DALLAS","TX",75233,32.6945029610001,-96.866543411,315,"2842 GLADIOLUS LANE, DALLAS, TX, 75233","Match","Exact","2842 GLADIOLUS LN, DALLAS, TX, 75233",102947233,"L"
152816,"2842 LARK RISE","ROCKFORD","IL",61114,42.3020236940001,-88.982870941,316,"2842 LARK RISE, ROCKFORD, IL, 61114","Match","Exact","2842 LARK RISE, ROCKFORD, IL, 61114",49291143,"R"
152817,"2842 MAIN STREET SUITE 134","GLASTONBURY","CT",6033,41.720252971,-72.6143889379999,317,"2842 MAIN STREET SUITE 134, GLASTONBURY, CT, 6033","Match","Exact","2842 MAIN ST, GLASTONBURY, CT, 06033",3496493,"R"
152818,"2842 MAIN STREET UNIT 305","GLASTONBURY","CT",6033,41.720252971,-72.6143889379999,318,"2842 MAIN STREET UNIT 305, GLASTONBURY, CT, 6033","Match","Exact","2842 MAIN ST, GLASTONBURY, CT, 06033",3496493,"R"
152819,"2842 MERLOT DR SW","ALBUQUERQUE","NM",87121,35.034552128,-106.743754054,319,"2842 MERLOT DR SW, ALBUQUERQUE, NM, 87121","Match","Exact","2842 MERLOT DR SW, ALBUQUERQUE, NM, 87121",615076030,"L"
152820,"2842 OSPREY COVE PL 101","KISSIMMEE","FL",34746,28.2589151990001,-81.4290834769999,320,"2842 OSPREY COVE PL 101, KISSIMMEE, FL, 34746","Match","Exact","2842 OSPREY COVE PL, KISSIMMEE, FL, 34746",638981869,"R"
152821,"2842 SIERRA CANYON WAY","HACIENDA HEIGHTS","CA",91745,33.9817073790001,-117.956543432,321,"2842 SIERRA CANYON WAY, HACIENDA HEIGHTS, CA, 91745","Match","Exact","2842 SIERRA CANYON WAY, HACIENDA HTS, CA, 91745",142800810,"L"
152822,"2842 VIRGINIA AVENUE","HURRICAN","WV",25526,38.433638983,-82.022433741,322,"2842 VIRGINIA AVENUE, HURRICAN, WV, 25526","Match","Non_Exact","2842 VIRGINIA AVE, HURRICANE, WV, 25526",130528748,"L"
152823,"2842 WEST 24TH STREET","BROOKLYN","NY",11224,40.577218574,-73.9913802949999,323,"2842 WEST 24TH STREET, BROOKLYN, NY, 11224","Match","Exact","2842 W 24TH ST, BROOKLYN, NY, 11224",59089028,"R"
152824,"28422 CONSTELLATION ROAD 215","VALENCIA","CA",91355,34.4529271550001,-118.577167247,324,"28422 CONSTELLATION ROAD 215, VALENCIA, CA, 91355","Match","Exact","28422 CONSTELLATION RD, VALENCIA, CA, 91355",641543226,"R"
152825,"28425 N BLACK CANYON HWY 3037","PHOENIX","AZ",85085,33.7414569160001,-112.123094984,325,"28425 N BLACK CANYON HWY 3037, PHOENIX, AZ, 85085","Match","Non_Exact","28425 N BLACK CANYON HWY, PHOENIX, AZ, 85085",128422882,"L"
152826,"28426 VIA NANDINA","LAGUNA NIGUEL","CA",92677,33.550109041,-117.700804197,326,"28426 VIA NANDINA, LAGUNA NIGUEL, CA, 92677","Match","Exact","28426 VIA NANDINA, LAGUNA NIGUEL, CA, 92677",144120168,"L"
152827,"2843 11TH STREET","RIVERSIDE","CA",92507,33.9741632970001,-117.365894438,327,"2843 11TH STREET, RIVERSIDE, CA, 92507","Match","Exact","2843 11TH ST, RIVERSIDE, CA, 92507",194742310,"R"
152828,"2843 27TH STREET S","FARGO","ND",58103,46.8379936490001,-96.823724361,328,"2843 27TH STREET S, FARGO, ND, 58103","Match","Exact","2843 27TH ST S, FARGO, ND, 58103",151462184,"L"
152829,"2843 54TH STREET N","ST PETERSBURG","FL",33710,27.797511877,-82.707388016,329,"2843 54TH STREET N, ST PETERSBURG, FL, 33710","Match","Exact","2843 54TH ST N, SAINT PETERSBURG, FL, 33710",124699327,"R"
152830,"2843 ASHWOOD RD","COLUMBIA","TN",38401,35.58384003,-87.166077128,330,"2843 ASHWOOD RD, COLUMBIA, TN, 38401","Match","Exact","2843 ASHWOOD RD, COLUMBIA, TN, 38401",649994068,"L"
152831,"2843 E GRAND RIVER 216","EAST LANSING","MI",48823,NA,NA,331,"2843 E GRAND RIVER 216, EAST LANSING, MI, 48823","No_Match",NA,NA,NA,NA
152832,"2843 E STATE BLVD","FORT WAYNE","IN",46805,NA,NA,332,"2843 E STATE BLVD, FORT WAYNE, IN, 46805","No_Match",NA,NA,NA,NA
152833,"2843 EAST GRAND RIVER AVE STE 221","EAST LANSING","MI",48823,NA,NA,333,"2843 EAST GRAND RIVER AVE STE 221, EAST LANSING, MI, 48823","No_Match",NA,NA,NA,NA
152834,"2843 EAST GRAND RIVER DRIVE STE 176","EAST LANSING","MI",48823,NA,NA,334,"2843 EAST GRAND RIVER DRIVE STE 176, EAST LANSING, MI, 48823","No_Match",NA,NA,NA,NA
152835,"2843 MIRA VISTA LN","ROCKWALL","TX",75032,32.889073814,-96.479221882,335,"2843 MIRA VISTA LN, ROCKWALL, TX, 75032","Match","Exact","2843 MIRA VISTA LN, ROCKWALL, TX, 75032",123784959,"R"
152836,"2843 N APPLE AVENUE","RIALTO","CA",92377,34.1497569810001,-117.3936226,336,"2843 N APPLE AVENUE, RIALTO, CA, 92377","Match","Exact","2843 N APPLE AVE, RIALTO, CA, 92377",144643111,"L"
152837,"2843 S BAYSHORE DR P1-D","MIAMI","FL",33133,25.7279474650001,-80.238333848,337,"2843 S BAYSHORE DR P1-D, MIAMI, FL, 33133","Match","Non_Exact","2843 S BAYSHORE DR, MIAMI, FL, 33133",647854885,"R"
152838,"2843 S COCONINO VISTA","TUCSON","AZ",85713,32.1885572410001,-110.933884735,338,"2843 S COCONINO VISTA, TUCSON, AZ, 85713","Match","Exact","2843 S COCONINO VIS, TUCSON, AZ, 85713",121176083,"L"
152839,"2843 SIKES LANE","TWINSBURG","OH",44087,41.333597013,-81.42926958,339,"2843 SIKES LANE, TWINSBURG, OH, 44087","Match","Exact","2843 SIKES LN, TWINSBURG, OH, 44087",61377948,"R"
152840,"2843 TALIMORE CT","MARIETTA","GA",30066,34.034910116,-84.470222527,340,"2843 TALIMORE CT, MARIETTA, GA, 30066","Match","Exact","2843 TALIMORE CT, MARIETTA, GA, 30066",17230879,"L"
152841,"2843 TINDALL STREET","INDIANAPOLIS","IN",46203,39.725409325,-86.129553984,341,"2843 TINDALL STREET, INDIANAPOLIS, IN, 46203","Match","Exact","2843 TINDALL ST, INDIANAPOLIS, IN, 46203",108007053,"L"
152842,"2843 VIA FLORENTINE ST","HENDERSON","NV",89074,36.0463531510001,-115.113612163,342,"2843 VIA FLORENTINE ST, HENDERSON, NV, 89074","Match","Exact","2843 VIA FLORENTINE ST, HENDERSON, NV, 89074",201910575,"L"
152843,"2843 W 15250 S","BLUFFDALE","UT",84065,40.4742036850001,-111.960329108,343,"2843 W 15250 S, BLUFFDALE, UT, 84065","Match","Exact","2843 W 15250 S, BLUFFDALE, UT, 84065",609019233,"L"
152844,"28436 SUNSET ROAD","VALLEY CENTER","CA",92082,33.230937576,-116.979982909,344,"28436 SUNSET ROAD, VALLEY CENTER, CA, 92082","Match","Exact","28436 SUNSET RD, VALLEY CENTER, CA, 92082",195397977,"L"
152845,"28436 TAMARACK LANE","SANTA CLARITA","CA",91390,34.4613384520001,-118.53059113,345,"28436 TAMARACK LANE, SANTA CLARITA, CA, 91390","Match","Exact","28436 TAMARACK LN, SANTA CLARITA, CA, 91390",142823619,"R"
152846,"2843B DIVISION AVE","CLEVELAND","OH",44113,41.4923596,-81.711474935,346,"2843B DIVISION AVE, CLEVELAND, OH, 44113","Match","Exact","2843 DIVISION AVE, CLEVELAND, OH, 44113",61160054,"L"
152847,"2844 ANITA CIRCLE","BATON ROUGE","LA",70805,30.4756198760001,-91.1227013829999,347,"2844 ANITA CIRCLE, BATON ROUGE, LA, 70805","Match","Exact","2844 ANITA CIR, BATON ROUGE, LA, 70805",92202690,"R"
152848,"2844 B KENNEDY AVE","GRAND JUNCTION","CO",81501,NA,NA,348,"2844 B KENNEDY AVE, GRAND JUNCTION, CO, 81501","Tie",NA,NA,NA,NA
152849,"2844 CRAVENRIDGE DRIVE","BROOKHAVEN","GA",30319,33.871217217,-84.3205558239999,349,"2844 CRAVENRIDGE DRIVE, BROOKHAVEN, GA, 30319","Match","Non_Exact","2844 CRAVENRIDGE DR NE, BROOKHAVEN, GA, 30319",23358699,"L"
152850,"2844 GOOSE GAP ROAD","SEVIERVILLE","TN",37876,35.7887977340001,-83.626811168,350,"2844 GOOSE GAP ROAD, SEVIERVILLE, TN, 37876","Match","Exact","2844 GOOSE GAP RD, SEVIERVILLE, TN, 37876",635465860,"L"
152851,"2844 GUNN CT","REDDING","CA",96001,40.516238758,-122.369219502,351,"2844 GUNN CT, REDDING, CA, 96001","Match","Exact","2844 GUNN CT, REDDING, CA, 96001",126660009,"L"
152852,"2844 LIVERNOIS AVE NUMBER 99172","TROY","MI",48099,NA,NA,352,"2844 LIVERNOIS AVE NUMBER 99172, TROY, MI, 48099","No_Match",NA,NA,NA,NA
152853,"2844 LIVERNOIS ROAD BOX 775","TROY","MI",48099,42.560231232,-83.1475462929999,353,"2844 LIVERNOIS ROAD BOX 775, TROY, MI, 48099","Match","Non_Exact","2844 LIVERNOIS RD, TROY, MI, 48083",642870420,"R"
152854,"2844 LIVERNOIS ROAD- NUMBER 393","TROY","MI",48099,NA,NA,354,"2844 LIVERNOIS ROAD- NUMBER 393, TROY, MI, 48099","No_Match",NA,NA,NA,NA
152855,"2844 SAINT JOHNS AVE","LANCASTER","TX",75146,32.5988178740001,-96.812949112,355,"2844 SAINT JOHNS AVE, LANCASTER, TX, 75146","Match","Exact","2844 SAINT JOHNS AVE, LANCASTER, TX, 75146",103169040,"L"
152856,"2844 SALTER COURT","ORLANDO","FL",32818,28.5821404590001,-81.481659876,356,"2844 SALTER COURT, ORLANDO, FL, 32818","Match","Exact","2844 SALTER CT, ORLANDO, FL, 32818",94303875,"L"
152857,"2844 SANTEZ DRIVE","POMONA","CA",91768,34.0560776880001,-117.807179739,357,"2844 SANTEZ DRIVE, POMONA, CA, 91768","Match","Exact","2844 SANTEZ DR, POMONA, CA, 91768",141729348,"L"
152858,"2844 SUMMIT STREET SUITE 204","OAKLAND","CA",94609,37.817008001,-122.264831619,358,"2844 SUMMIT STREET SUITE 204, OAKLAND, CA, 94609","Match","Exact","2844 SUMMIT ST, OAKLAND, CA, 94609",125000282,"R"
152859,"2844 VALLEY HEART DR NW","ATLANTA","GA",30318,33.7629206080001,-84.48049459,359,"2844 VALLEY HEART DR NW, ATLANTA, GA, 30318","Match","Exact","2844 VALLEY HEART DR NW, ATLANTA, GA, 30318",17337056,"L"
152860,"2844 VISTA ACEDERA","CARLSBAD","CA",92009,33.0755289260001,-117.251960456,360,"2844 VISTA ACEDERA, CARLSBAD, CA, 92009","Match","Exact","2844 VIS ACEDERA, CARLSBAD, CA, 92009",195455944,"R"
152861,"2844 W FIREBROOK RD","TUCSON","AZ",85741,32.31106262,-111.02772315,361,"2844 W FIREBROOK RD, TUCSON, AZ, 85741","Match","Exact","2844 W FIREBROOK RD, TUCSON, AZ, 85741",121384552,"R"
152862,"2844 W JARVIS AVE","CHICAGO","IL",60645,42.015674996,-87.701074177,362,"2844 W JARVIS AVE, CHICAGO, IL, 60645","Match","Exact","2844 W JARVIS AVE, CHICAGO, IL, 60645",605264964,"R"
152863,"2844 W ROOSEVELT ROAD","CHICAGO","IL",60612,41.8665002760001,-87.6974399819999,363,"2844 W ROOSEVELT ROAD, CHICAGO, IL, 60612","Match","Exact","2844 W ROOSEVELT RD, CHICAGO, IL, 60612",111801563,"R"
152864,"2844 W SHERWIN AVE - UPPER ROOM","CHICAGO","IL",60645,42.0147721120001,-87.7009585019999,364,"2844 W SHERWIN AVE - UPPER ROOM, CHICAGO, IL, 60645","Match","Non_Exact","2844 W SHERWIN AVE, CHICAGO, IL, 60645",605265348,"R"
152865,"2844 W SHERWIN AVE","CHICAGO","IL",60645,42.0147721120001,-87.7009585019999,365,"2844 W SHERWIN AVE, CHICAGO, IL, 60645","Match","Exact","2844 W SHERWIN AVE, CHICAGO, IL, 60645",605265348,"R"
152866,"2844 WILLIAMS STREET","EUREKA","CA",95501,40.7823181040001,-124.166826933,366,"2844 WILLIAMS STREET, EUREKA, CA, 95501","Match","Exact","2844 WILLIAMS ST, EUREKA, CA, 95501",112990274,"L"
152867,"2844 YOJOA PLACE","HACIENDA HEIGHTS","CA",91745,33.9856334070001,-117.967464815,367,"2844 YOJOA PLACE, HACIENDA HEIGHTS, CA, 91745","Match","Exact","2844 YOJOA PL, HACIENDA HTS, CA, 91745",141751078,"L"
152868,"28441 BOTORRIA","MISSION VEIJO","CA",92692,NA,NA,368,"28441 BOTORRIA, MISSION VEIJO, CA, 92692","No_Match",NA,NA,NA,NA
152869,"28441 OFALLON MILLS DR","SPRING","TX",77386,30.1064730570001,-95.383233885,369,"28441 OFALLON MILLS DR, SPRING, TX, 77386","Match","Exact","28441 OFALLON MILLS DR, SPRING, TX, 77386",651258815,"L"
152870,"28443 15TH AVE S","FEDERAL WAY","WA",98003,47.34663669,-122.314824825,370,"28443 15TH AVE S, FEDERAL WAY, WA, 98003","Match","Exact","28443 15TH AVE S, FEDERAL WAY, WA, 98003",186649606,"R"
152871,"2845 33RD STREET APT 2F","ASTORIA","NY",11102,NA,NA,371,"2845 33RD STREET APT 2F, ASTORIA, NY, 11102","No_Match",NA,NA,NA,NA
152872,"2845 35TH STREET","SACRAMENTO","CA",95817,38.5508911750001,-121.468771457,372,"2845 35TH STREET, SACRAMENTO, CA, 95817","Match","Exact","2845 35TH ST, SACRAMENTO, CA, 95817",133420641,"L"
152873,"2845 BATTLEFIELD MEMORIAL HWY","BEREA","KY",40403,37.6483877740001,-84.2388447289999,373,"2845 BATTLEFIELD MEMORIAL HWY, BEREA, KY, 40403","Match","Exact","2845 BATTLEFIELD MEMORIAL HWY, BEREA, KY, 40403",32006849,"R"
152874,"2845 BLOOMINGTON AVE APT 406","MINNEAPOLIS","MN",55407,44.951216984,-93.252460548,374,"2845 BLOOMINGTON AVE APT 406, MINNEAPOLIS, MN, 55407","Match","Non_Exact","2845 BLOOMINGTON AVE S, MINNEAPOLIS, MN, 55407",43756030,"L"
152875,"2845 BLOOMINGTON AVE APT 408","MINNEAPOLIS","MN",55407,44.951216984,-93.252460548,375,"2845 BLOOMINGTON AVE APT 408, MINNEAPOLIS, MN, 55407","Match","Non_Exact","2845 BLOOMINGTON AVE S, MINNEAPOLIS, MN, 55407",43756030,"L"
152876,"2845 CAMBRIDGE","DETROIT","MI",48221,42.4341165640001,-83.132005335,376,"2845 CAMBRIDGE, DETROIT, MI, 48221","Match","Non_Exact","2845 CAMBRIDGE AVE, DETROIT, MI, 48221",95461095,"L"
152877,"2845 CHAPMAN STREET","OAKLAND","CA",94601,37.774148371,-122.234772209,377,"2845 CHAPMAN STREET, OAKLAND, CA, 94601","Match","Exact","2845 CHAPMAN ST, OAKLAND, CA, 94601",652210793,"R"
152878,"2845 FLINT AVENUE","ROCKINGHAM","VA",22801,38.4483891850001,-78.9166014529999,378,"2845 FLINT AVENUE, ROCKINGHAM, VA, 22801","Match","Exact","2845 FLINT AVE, ROCKINGHAM, VA, 22801",55752944,"R"
152879,"2845 FM 731","BURLESON","TX",76028,32.4809721600001,-97.339469136,379,"2845 FM 731, BURLESON, TX, 76028","Match","Exact","2845 FM 731, BURLESON, TX, 76028",103531412,"R"
152880,"2845 GLADE ROAD","LOVELAND","CO",80538,40.4214376900001,-105.172133237,380,"2845 GLADE ROAD, LOVELAND, CO, 80538","Match","Exact","2845 GLADE RD, LOVELAND, CO, 80538",629294234,"L"
152881,"2845 INDEPENDENCE ST","CAPE GIRARDEAU","MO",63703,37.3081100300001,-89.565070299,381,"2845 INDEPENDENCE ST, CAPE GIRARDEAU, MO, 63703","Match","Exact","2845 INDEPENDENCE ST, CAPE GIRARDEAU, MO, 63703",35182686,"L"
152882,"2845 LA BREA DR","SAINT CHARLES","MO",63303,38.756023057,-90.557980307,382,"2845 LA BREA DR, SAINT CHARLES, MO, 63303","Match","Exact","2845 LA BREA DR, SAINT CHARLES, MO, 63303",635620312,"R"
152883,"2845 LOTUS PARK","SCHERTZ","TX",78154,29.587377831,-98.2553414129999,383,"2845 LOTUS PARK, SCHERTZ, TX, 78154","Match","Exact","2845 LOTUS PARK, SCHERTZ, TX, 78154",54856371,"R"
152884,"2845 MANOR COURT","SNELLVILLE","GA",30078,33.860371297,-84.0364164279999,384,"2845 MANOR COURT, SNELLVILLE, GA, 30078","Match","Exact","2845 MANOR CT, SNELLVILLE, GA, 30078",88889976,"R"
152885,"2845 MITCHELL","SAINT JOSEPH","MO",64507,39.755261886,-94.822786612,385,"2845 MITCHELL, SAINT JOSEPH, MO, 64507","Match","Non_Exact","2845 MITCHELL AVE, SAINT JOSEPH, MO, 64507",15976164,"L"
152886,"2845 NETTIE ST","BUTTE","MT",59701,45.990355116,-112.495289791,386,"2845 NETTIE ST, BUTTE, MT, 59701","Match","Exact","2845 NETTIE ST, BUTTE, MT, 59701",153580777,"R"
152887,"2845 OSLIN CREEK ROAD","GOODE","VA",24556,37.4407402950001,-79.423490978,387,"2845 OSLIN CREEK ROAD, GOODE, VA, 24556","Match","Exact","2845 OSLIN CREEK RD, GOODE, VA, 24556",228431299,"R"
152888,"2845 POST ROAD","WARWICK","RI",2886,41.707462477,-71.4516330599999,388,"2845 POST ROAD, WARWICK, RI, 2886","Match","Exact","2845 POST RD, WARWICK, RI, 02886",159147010,"R"
152889,"2845 SPANISH BAY DRIVE","DALLAS","TX",75253,32.6684045550001,-96.618244789,389,"2845 SPANISH BAY DRIVE, DALLAS, TX, 75253","Match","Non_Exact","2845 SPANISH BAY LN, DALLAS, TX, 75253",619139453,"R"
152890,"2845 STADIUM VIEW DR","FT WORTH","TX",76118,32.7982562170001,-97.176628132,390,"2845 STADIUM VIEW DR, FT WORTH, TX, 76118","Match","Exact","2845 STADIUM VIEW DR, FORT WORTH, TX, 76118",652074896,"R"
152891,"2845 SUMMER OAKS DR","BARTLETT","TN",38134,35.20282645,-89.843042339,391,"2845 SUMMER OAKS DR, BARTLETT, TN, 38134","Match","Exact","2845 SUMMER OAKS DR, BARTLETT, TN, 38134",607404512,"R"
152892,"2845 SUMMER OAKS DRIVE","BARTLETT","TN",38134,35.20282645,-89.843042339,392,"2845 SUMMER OAKS DRIVE, BARTLETT, TN, 38134","Match","Exact","2845 SUMMER OAKS DR, BARTLETT, TN, 38134",607404512,"R"
152893,"2845 TRAVIS AVE","FORT WORTH","TX",76110,32.710508519,-97.332939053,393,"2845 TRAVIS AVE, FORT WORTH, TX, 76110","Match","Exact","2845 TRAVIS AVE, FORT WORTH, TX, 76110",101887526,"L"
152894,"2845 VALENCIA WAY SOUTH","ST PETERSBURG","FL",33705,27.742933835,-82.645854228,394,"2845 VALENCIA WAY SOUTH, ST PETERSBURG, FL, 33705","Match","Exact","2845 VALENCIA WAY S, SAINT PETERSBURG, FL, 33705",124710840,"R"
152895,"2845 WAIALAE AVE  113","HONOLULU","HI",96826,21.2900168040001,-157.814376651,395,"2845 WAIALAE AVE  113, HONOLULU, HI, 96826","Match","Exact","2845 WAIALAE AVE, HONOLULU, HI, 96826",607827420,"R"
152896,"2845 WASHINGTON BOULEVARD","ST LOUIS","MO",63103,38.6360874160001,-90.2184924759999,396,"2845 WASHINGTON BOULEVARD, ST LOUIS, MO, 63103","Match","Non_Exact","2845 WASHINGTON AVE, SAINT LOUIS, MO, 63103",107598102,"R"
152897,"2845 WEST ELK AVENUE","DUNCAN","OK",73533,NA,NA,397,"2845 WEST ELK AVENUE, DUNCAN, OK, 73533","No_Match",NA,NA,NA,NA
152898,"2845 WESTCHESTER CIR","PEARLAND","TX",77584,29.5552937080001,-95.332227487,398,"2845 WESTCHESTER CIR, PEARLAND, TX, 77584","Match","Exact","2845 WESTCHESTER CIR, PEARLAND, TX, 77584",116648824,"R"
152899,"2845 WESTCHESTER CIRCLE","PEARLAND","TX",77584,29.5552937080001,-95.332227487,399,"2845 WESTCHESTER CIRCLE, PEARLAND, TX, 77584","Match","Exact","2845 WESTCHESTER CIR, PEARLAND, TX, 77584",116648824,"R"
152900,"2845 WILLOW SPRINGS","BULVERDE","TX",78163,29.802206761,-98.497673784,400,"2845 WILLOW SPRINGS, BULVERDE, TX, 78163","Match","Exact","2845 WILLOW SPRINGS, BULVERDE, TX, 78163",72239848,"L"
152901,"2845-A BROOKDALE DRIVE","BROOKLYN PARK","MN",55445,45.096583465,-93.318838799,401,"2845-A BROOKDALE DRIVE, BROOKLYN PARK, MN, 55445","Match","Non_Exact","2845 BROOKDALE DR, BROOKLYN PARK, MN, 55444",43829720,"L"
152902,"28450 DRIVER AVE","AGOURA HILLS","CA",91301,34.1493616160001,-118.746141683,402,"28450 DRIVER AVE, AGOURA HILLS, CA, 91301","Match","Exact","28450 DRIVER AVE, AGOURA HILLS, CA, 91301",142786275,"R"
152903,"28451 LORENTE","MISSION VIEJO","CA",92692,33.613313088,-117.634468856,403,"28451 LORENTE, MISSION VIEJO, CA, 92692","Match","Exact","28451 LORENTE, MISSION VIEJO, CA, 92692",144067271,"R"
152904,"28453 ALMONA WAY","VALLEY CENTER","CA",92082,33.2342139560001,-117.005518685,404,"28453 ALMONA WAY, VALLEY CENTER, CA, 92082","Match","Exact","28453 ALMONA WAY, VALLEY CENTER, CA, 92082",195385504,"R"
152905,"2845B NORTH ARMISTEAD AVENUE","HAMPTON","VA",23666,37.0684094740001,-76.384945965,405,"2845B NORTH ARMISTEAD AVENUE, HAMPTON, VA, 23666","Match","Exact","2845 N ARMISTEAD AVE, HAMPTON, VA, 23666",639269795,"L"
152906,"2846 BAKER STREET","SAN FRANCISCO","CA",94123,37.7973659830001,-122.445711391,406,"2846 BAKER STREET, SAN FRANCISCO, CA, 94123","Match","Exact","2846 BAKER ST, SAN FRANCISCO, CA, 94123",192279540,"R"
152907,"2846 BELAIR PL NE","WASHINGTON","DC",20018,38.927065693,-76.972155167,407,"2846 BELAIR PL NE, WASHINGTON, DC, 20018","Match","Exact","2846 BELAIR PL NE, WASHINGTON, DC, 20018",76229207,"L"
152908,"2846 BELLINI DRIVE","HENDERSON","NV",89052,35.984813638,-115.116477864,408,"2846 BELLINI DRIVE, HENDERSON, NV, 89052","Match","Exact","2846 BELLINI DR, HENDERSON, NV, 89052",201991688,"R"
152909,"2846 CAMBRIDGE DRIVE","SAN JOSE","CA",95125,37.279252296,-121.883008629,409,"2846 CAMBRIDGE DRIVE, SAN JOSE, CA, 95125","Match","Exact","2846 CAMBRIDGE DR, SAN JOSE, CA, 95125",122910535,"L"
152910,"2846 CAZADERO DRIVE","CARLSBAD","CA",92009,33.10613361,-117.242536173,410,"2846 CAZADERO DRIVE, CARLSBAD, CA, 92009","Match","Exact","2846 CAZADERO DR, CARLSBAD, CA, 92009",195295213,"L"
152911,"2846 FALLBROOK LN","SAN DIEGO","CA",92117,32.7919589470001,-117.201298868,411,"2846 FALLBROOK LN, SAN DIEGO, CA, 92117","Match","Exact","2846 FALLBROOK LN, SAN DIEGO, CA, 92117",639048865,"L"
152912,"2846 GRAND VIEW CT","GRAND JUNCTION","CO",81501,39.089435645,-108.524912065,412,"2846 GRAND VIEW CT, GRAND JUNCTION, CO, 81501","Match","Exact","2846 GRAND VIEW CT, GRAND JCT, CO, 81501",122463777,"R"
152913,"2846 HWY 14","MADRID","NM",87010,35.405500767,-106.153716661,413,"2846 HWY 14, MADRID, NM, 87010","Match","Non_Exact","2846 STATE HWY 14, MADRID, NM, 87010",169413418,"R"
152914,"2846 JUBAN AVE","BATON ROUGE","LA",70805,30.4756345590001,-91.121624083,414,"2846 JUBAN AVE, BATON ROUGE, LA, 70805","Match","Exact","2846 JUBAN AVE, BATON ROUGE, LA, 70805",92188788,"R"
152915,"2846 MANOR COURT","SNELLVILLE","GA",30078,33.860345124,-84.0364465279999,415,"2846 MANOR COURT, SNELLVILLE, GA, 30078","Match","Exact","2846 MANOR CT, SNELLVILLE, GA, 30078",88889976,"L"
152916,"2846 NW 8TH ROAD","FORT LAUDERDALE","FL",33311,NA,NA,416,"2846 NW 8TH ROAD, FORT LAUDERDALE, FL, 33311","No_Match",NA,NA,NA,NA
152917,"2846 S BECKLEY","DALLAS","TX",75224,32.7119713800001,-96.822961144,417,"2846 S BECKLEY, DALLAS, TX, 75224","Match","Non_Exact","2846 S BECKLEY AVE, DALLAS, TX, 75224",102948034,"L"
152918,"2846 STATE ROUTE 30","SPECULATOR","NY",12164,43.4975169260001,-74.3612321269999,418,"2846 STATE ROUTE 30, SPECULATOR, NY, 12164","Match","Exact","2846 STATE RTE 30, SPECULATOR, NY, 12164",638547170,"R"
152919,"2846 VETERANS MEMORIAL HWY","AUSTELL","GA",30168,NA,NA,419,"2846 VETERANS MEMORIAL HWY, AUSTELL, GA, 30168","No_Match",NA,NA,NA,NA
152920,"2846 WOODBRIDGE AVENUE","SCHENECTADY","NY",12306,42.7940230140001,-73.979178756,420,"2846 WOODBRIDGE AVENUE, SCHENECTADY, NY, 12306","Match","Exact","2846 WOODBRIDGE AVE, SCHENECTADY, NY, 12306",18026877,"L"
152921,"28462 WOODLAND TRAIL","NEW PRAGUE","MN",56071,44.535651688,-93.5394269509999,421,"28462 WOODLAND TRAIL, NEW PRAGUE, MN, 56071","Match","Exact","28462 WOODLAND TRL, NEW PRAGUE, MN, 56071",28654565,"L"
152922,"28465 US HIGHWAY 19 NORTH SUITE 200","CLEARWATER","FL",33761,28.030087678,-82.738161996,422,"28465 US HIGHWAY 19 NORTH SUITE 200, CLEARWATER, FL, 33761","Match","Non_Exact","28465 US HWY 19 N, CLEARWATER, FL, 33761",124681259,"R"
152923,"2847 BOB-O-LINK DRIVE","MACON","GA",31206,32.7949873420001,-83.7105995539999,423,"2847 BOB-O-LINK DRIVE, MACON, GA, 31206","Match","Non_Exact","2847 BOB O LINK DR, MACON, GA, 31206",81069531,"R"
152924,"2847 BOGART LANE","COLUMBUS","OH",43207,39.8846275720001,-82.91957351,424,"2847 BOGART LANE, COLUMBUS, OH, 43207","Match","Exact","2847 BOGART LN, COLUMBUS, OH, 43207",135752053,"R"
152925,"2847 BURTON RD NW","ATLANTA","GA",30311,33.75591596,-84.480364378,425,"2847 BURTON RD NW, ATLANTA, GA, 30311","Match","Exact","2847 BURTON RD NW, ATLANTA, GA, 30311",17337075,"R"
152926,"2847 EAST 31ST STREET","ERIE","PA",16510,42.1304483770001,-80.009310362,426,"2847 EAST 31ST STREET, ERIE, PA, 16510","Match","Exact","2847 E 31ST ST, ERIE, PA, 16510",117499709,"R"
152927,"2847 INGALLS ST","SAN FRANCISCO","CA",94124,37.7213034440001,-122.391004317,427,"2847 INGALLS ST, SAN FRANCISCO, CA, 94124","Match","Exact","2847 INGALLS ST, SAN FRANCISCO, CA, 94124",192291040,"L"
152928,"2847 JACK NICKLAUS WAY","SHALIMAR","FL",32579,30.432239307,-86.559857558,428,"2847 JACK NICKLAUS WAY, SHALIMAR, FL, 32579","Match","Exact","2847 JACK NICKLAUS WAY, SHALIMAR, FL, 32579",74410402,"R"
152929,"2847 JORDAN OAKS LANE","DECATUR","GA",30033,NA,NA,429,"2847 JORDAN OAKS LANE, DECATUR, GA, 30033","No_Match",NA,NA,NA,NA
152930,"2847 LEIALOHA PLACE","HAIKU","HI",96708,20.8986138970001,-156.308959359,430,"2847 LEIALOHA PLACE, HAIKU, HI, 96708","Match","Exact","2847 LEIALOHA PL, HAIKU, HI, 96708",85087042,"R"
152931,"2847 MOORINGS PKWY","SNELLVILLE","GA",30039,33.810428216,-84.0756568049999,431,"2847 MOORINGS PKWY, SNELLVILLE, GA, 30039","Match","Exact","2847 MOORINGS PKWY, SNELLVILLE, GA, 30039",88937312,"L"
152932,"2847 NW 61ST ST","SEATTLE","WA",98107,47.6729673930001,-122.393715128,432,"2847 NW 61ST ST, SEATTLE, WA, 98107","Match","Exact","2847 NW 61ST ST, SEATTLE, WA, 98107",186658261,"L"
152933,"2847 PARK STREET NORTH","ST. PETERSBURG","FL",33710,27.797888476,-82.75386771,433,"2847 PARK STREET NORTH, ST. PETERSBURG, FL, 33710","Match","Exact","2847 PARK ST N, SAINT PETERSBURG, FL, 33710",124693705,"R"
152934,"2847 PEPPERDINE DRIVE","HE","GA",30815,33.379954395,-82.105993588,434,"2847 PEPPERDINE DRIVE, HE, GA, 30815","Match","Non_Exact","2847 PEPPERDINE DR, HEPHZIBAH, GA, 30815",55647058,"R"
152935,"2847 S MAIN STREET","KENNESAW","GA",30144,34.022951978,-84.615243214,435,"2847 S MAIN STREET, KENNESAW, GA, 30144","Match","Exact","2847 S MAIN ST, KENNESAW, GA, 30144",645371207,"L"
152936,"2847 SOUTH MAIN STREET","KENNESAW","GA",30144,34.022949791,-84.6152430349999,436,"2847 SOUTH MAIN STREET, KENNESAW, GA, 30144","Match","Exact","2847 S MAIN ST, KENNESAW, GA, 30144",645371207,"L"
152937,"2847 STRATTON BLVD","SAINT AUGUSTINE","FL",32084,29.920915543,-81.3891439669999,437,"2847 STRATTON BLVD, SAINT AUGUSTINE, FL, 32084","Match","Exact","2847 STRATTON BLVD, SAINT AUGUSTINE, FL, 32084",637574485,"L"
152938,"2847 VETERANS MEMORIAL HWY UNIT 418","AUSTELL","GA",30168,NA,NA,438,"2847 VETERANS MEMORIAL HWY UNIT 418, AUSTELL, GA, 30168","No_Match",NA,NA,NA,NA
152939,"2847 VETERANS MEMORIAL HWY UNIT1353","AUSTELL","GA",30168,NA,NA,439,"2847 VETERANS MEMORIAL HWY UNIT1353, AUSTELL, GA, 30168","No_Match",NA,NA,NA,NA
152940,"2847 VETERANS MEMORIAL HWY UNIT1414","AUSTELL","GA",30168,NA,NA,440,"2847 VETERANS MEMORIAL HWY UNIT1414, AUSTELL, GA, 30168","No_Match",NA,NA,NA,NA
152941,"2847 VETERANS MEMORIAL STE 1493","AUSTELL","GA",30168,NA,NA,441,"2847 VETERANS MEMORIAL STE 1493, AUSTELL, GA, 30168","No_Match",NA,NA,NA,NA
152942,"2847 W 39TH ST","CHICAGO","IL",60623,NA,NA,442,"2847 W 39TH ST, CHICAGO, IL, 60623","No_Match",NA,NA,NA,NA
152943,"2847 W WINSTON ROAD","ROTHBURY","MI",49452,43.5069469910001,-86.349299034,443,"2847 W WINSTON ROAD, ROTHBURY, MI, 49452","Match","Exact","2847 W WINSTON RD, ROTHBURY, MI, 49452",163693573,"L"
152944,"28470 E 129 ST S","COWETA","OK",74429,35.9758362630001,-95.658895794,444,"28470 E 129 ST S, COWETA, OK, 74429","Match","Non_Exact","28470 E 129TH ST, COWETA, OK, 74429",83173401,"R"
152945,"28475 GREENFIELD RD SUITE 200","SOUTHFIELD","MI",48076,42.4990979,-83.20291058,445,"28475 GREENFIELD RD SUITE 200, SOUTHFIELD, MI, 48076","Match","Exact","28475 GREENFIELD RD, SOUTHFIELD, MI, 48076",69736262,"L"
152946,"28475 GREENFIELD ROAD 113 PMB 1362","SOUTHFIELD","MI",48076,42.4990979,-83.20291058,446,"28475 GREENFIELD ROAD 113 PMB 1362, SOUTHFIELD, MI, 48076","Match","Exact","28475 GREENFIELD RD, SOUTHFIELD, MI, 48076",69736262,"L"
152947,"28475 GREENFIELD ROAD","SOUTHFIELD","MI",48076,42.4990979,-83.20291058,447,"28475 GREENFIELD ROAD, SOUTHFIELD, MI, 48076","Match","Exact","28475 GREENFIELD RD, SOUTHFIELD, MI, 48076",69736262,"L"
152948,"2848 14TH ST W","WEST FARGO","ND",58078,46.837315705,-96.924175142,448,"2848 14TH ST W, WEST FARGO, ND, 58078","Match","Exact","2848 14TH ST W, WEST FARGO, ND, 58078",646548226,"L"
152949,"2848 ALEXANDER CRES","FLOSSMOOR","IL",60466,41.5330046770001,-87.686448022,449,"2848 ALEXANDER CRES, FLOSSMOOR, IL, 60466","Match","Non_Exact","2848 ALEXANDER CRES, FLOSSMOOR, IL, 60422",605674849,"L"
152950,"2848 AUGUSTA WAY","SANTA ANA","CA",92706,33.7761024330001,-117.885419742,450,"2848 AUGUSTA WAY, SANTA ANA, CA, 92706","Match","Exact","2848 AUGUSTA WAY, SANTA ANA, CA, 92706",144257075,"R"
152951,"2848 BELLEGLADE COURT SE","GRAND RAPIDS","MI",49546,42.918908071,-85.59744643,451,"2848 BELLEGLADE COURT SE, GRAND RAPIDS, MI, 49546","Match","Exact","2848 BELLEGLADE CT SE, GRAND RAPIDS, MI, 49546",12472334,"R"
152952,"2848 CHESFIELD DRIVE","COLUMBUS","OH",43204,39.9278527610001,-83.072853483,452,"2848 CHESFIELD DRIVE, COLUMBUS, OH, 43204","Match","Exact","2848 CHESFIELD DR, COLUMBUS, OH, 43204",218676277,"R"
152953,"2848 EAGLE VIEW PL NW","CONCORD","NC",28027,35.371994096,-80.674839816,453,"2848 EAGLE VIEW PL NW, CONCORD, NC, 28027","Match","Exact","2848 EAGLE VIEW PL NW, CONCORD, NC, 28027",24913357,"R"
152954,"2848 ELM STREET","CAYCE","SC",29033,33.9583630120001,-81.060822034,454,"2848 ELM STREET, CAYCE, SC, 29033","Match","Exact","2848 ELM ST, CAYCE, SC, 29033",70056760,"R"
152955,"2848 HIDEAWAY RD","FAIRFAX","VA",22031,38.876743246,-77.260445218,455,"2848 HIDEAWAY RD, FAIRFAX, VA, 22031","Match","Exact","2848 HIDEAWAY RD, FAIRFAX, VA, 22031",641086600,"R"
152956,"2848 HIGHWAY 26 EAST","DELIGHT","AR",71940,NA,NA,456,"2848 HIGHWAY 26 EAST, DELIGHT, AR, 71940","No_Match",NA,NA,NA,NA
152957,"2848 HYLAN BLVD APT B28","STATEN ISLAND","NY",10306,40.5635871790001,-74.11668195,457,"2848 HYLAN BLVD APT B28, STATEN ISLAND, NY, 10306","Match","Exact","2848 HYLAN BLVD, STATEN ISLAND, NY, 10306",59867896,"L"
152958,"2848 JACKSON AVE","TRACY","CA",95377,37.7354733980001,-121.468839835,458,"2848 JACKSON AVE, TRACY, CA, 95377","Match","Exact","2848 JACKSON AVE, TRACY, CA, 95377",133917346,"L"
152959,"2848 LEE STREET","DALLAS","TX",75206,32.8165927000001,-96.78705581,459,"2848 LEE STREET, DALLAS, TX, 75206","Match","Exact","2848 LEE ST, DALLAS, TX, 75206",102910385,"R"
152960,"2848 MYRTLE AVE NE","WASHINGTON","DC",20018,38.9315328320001,-76.965820745,460,"2848 MYRTLE AVE NE, WASHINGTON, DC, 20018","Match","Exact","2848 MYRTLE AVE NE, WASHINGTON, DC, 20018",76229478,"L"
152961,"2848 OLD PEACHTREE ROAD","DACULA","GA",30019,34.0139375470001,-83.931768768,461,"2848 OLD PEACHTREE ROAD, DACULA, GA, 30019","Match","Exact","2848 OLD PEACHTREE RD, DACULA, GA, 30019",633130489,"R"
152962,"2848 PLEASANT AVE  208","MINNEAPOLIS","MN",55408,44.9513538420001,-93.282995576,462,"2848 PLEASANT AVE  208, MINNEAPOLIS, MN, 55408","Match","Non_Exact","2848 PLEASANT AVE S, MINNEAPOLIS, MN, 55408",43633452,"R"
152963,"2848 PLEASANT AVE S APT 324","MINNEAPOLIS","MN",55408,44.9513538420001,-93.282995576,463,"2848 PLEASANT AVE S APT 324, MINNEAPOLIS, MN, 55408","Match","Exact","2848 PLEASANT AVE S, MINNEAPOLIS, MN, 55408",43633452,"R"
152964,"2848 PLEASANT AVENUE 226","MINNEAPOLIS","MN",55408,44.9513538420001,-93.282995576,464,"2848 PLEASANT AVENUE 226, MINNEAPOLIS, MN, 55408","Match","Non_Exact","2848 PLEASANT AVE S, MINNEAPOLIS, MN, 55408",43633452,"R"
152965,"2848 PLEASANT RD SUITE 116","FORT MILL","SC",29708,35.062005969,-80.962994699,465,"2848 PLEASANT RD SUITE 116, FORT MILL, SC, 29708","Match","Exact","2848 PLEASANT RD, FORT MILL, SC, 29708",651546978,"R"
152966,"2848 WELLBOURNE DR","CARROLLTON","TX",75006,32.9754043190001,-96.856826779,466,"2848 WELLBOURNE DR, CARROLLTON, TX, 75006","Match","Exact","2848 WELLBOURNE DR, CARROLLTON, TX, 75006",646537160,"R"
152967,"2848 WILDWOOD DR","BRUNSWICK","GA",31520,31.1747162460001,-81.479139258,467,"2848 WILDWOOD DR, BRUNSWICK, GA, 31520","Match","Exact","2848 WILDWOOD DR, BRUNSWICK, GA, 31520",9133985,"L"
152968,"2848","BENTONVILLE","AR",72712,NA,NA,468,"2848, BENTONVILLE, AR, 72712","No_Match",NA,NA,NA,NA
152969,"28484 PLEASANT BAY LOOP","WESLEY CHAPEL","FL",33543,28.2067248070001,-82.345861607,469,"28484 PLEASANT BAY LOOP, WESLEY CHAPEL, FL, 33543","Match","Exact","28484 PLEASANT BAY LOOP, WESLEY CHAPEL, FL, 33543",651781522,"R"
152970,"28484 WCR 76","EATON","CO",80615,40.5370895890001,-104.510226977,470,"28484 WCR 76, EATON, CO, 80615","Match","Non_Exact","28484 CO RD 76, EATON, CO, 80615",188687646,"L"
152971,"2849 APPALACHEE TRAIL","MARIANNA","FL",32446,30.7730201310001,-85.167012481,471,"2849 APPALACHEE TRAIL, MARIANNA, FL, 32446","Match","Exact","2849 APPALACHEE TRL, MARIANNA, FL, 32446",7203559,"L"
152972,"2849 BUCKWHEAT ROAD","MARIETTA","NY",13110,42.9090190640001,-76.241433883,472,"2849 BUCKWHEAT ROAD, MARIETTA, NY, 13110","Match","Exact","2849 BUCKWHEAT RD, MARIETTA, NY, 13110",46590821,"L"
152973,"2849 EASTLAKE AVE E UNIT 318","SEATTLE","WA",98102,47.6463014560001,-122.325359133,473,"2849 EASTLAKE AVE E UNIT 318, SEATTLE, WA, 98102","Match","Exact","2849 EASTLAKE AVE E, SEATTLE, WA, 98102",186583506,"L"
152974,"2849 FERBER DR","COLORADO SPRINGS","CO",80916,38.7915732370001,-104.74952444,474,"2849 FERBER DR, COLORADO SPRINGS, CO, 80916","Match","Exact","2849 FERBER DR, COLORADO SPRINGS, CO, 80916",610746789,"L"
152975,"2849 KENFORD RD","WATERFORD","MI",48329,42.678877963,-83.425399614,475,"2849 KENFORD RD, WATERFORD, MI, 48329","Match","Exact","2849 KENFORD RD, WATERFORD, MI, 48329",69694482,"L"
152976,"2849 OLIVEWOOD LN","VALLEJO","CA",94591,38.162063533,-122.186557169,476,"2849 OLIVEWOOD LN, VALLEJO, CA, 94591","Match","Exact","2849 OLIVEWOOD LN, VALLEJO, CA, 94591",192558615,"L"
152977,"2849 PINWOOD DR","NORTON","OH",44203,41.030122383,-81.628862558,477,"2849 PINWOOD DR, NORTON, OH, 44203","Match","Exact","2849 PINWOOD DR, NORTON, OH, 44203",61388972,"R"
152978,"2849 S 8650 W","MAGNA","UT",84044,40.7083423030001,-112.09851369,478,"2849 S 8650 W, MAGNA, UT, 84044","Match","Exact","2849 S 8650 W, MAGNA, UT, 84044",176062773,"L"
152979,"2849 SEA VIEW PARKWAY","ALAMEDA","CA",94502,37.747371399,-122.247522302,479,"2849 SEA VIEW PARKWAY, ALAMEDA, CA, 94502","Match","Exact","2849 SEA VIEW PKWY, ALAMEDA, CA, 94502",125005587,"L"
152980,"2849 TIMBER KNOLL DR","VALRICO","FL",33596,27.9011146080001,-82.254690695,480,"2849 TIMBER KNOLL DR, VALRICO, FL, 33596","Match","Exact","2849 TIMBER KNOLL DR, VALRICO, FL, 33596",104564339,"R"
152981,"2849 W WEBSTER CT","ANTHEM","AZ",85086,33.8526007230001,-112.121855925,481,"2849 W WEBSTER CT, ANTHEM, AZ, 85086","Match","Exact","2849 W WEBSTER CT, ANTHEM, AZ, 85086",128856483,"L"
152982,"28491 UTICA RD","ROSEVILLE","MI",48066,42.5059203370001,-82.934016954,482,"28491 UTICA RD, ROSEVILLE, MI, 48066","Match","Exact","28491 UTICA RD, ROSEVILLE, MI, 48066",110681368,"L"
152983,"28492 MAY RD","SPLENDORA","TX",77372,30.2250014740001,-95.120075215,483,"28492 MAY RD, SPLENDORA, TX, 77372","Match","Exact","28492 MAY RD, SPLENDORA, TX, 77372",647672994,"R"
152984,"28498 RD 24 T2","MATTAWA","WA",99349,NA,NA,484,"28498 RD 24 T2, MATTAWA, WA, 99349","No_Match",NA,NA,NA,NA
152985,"284C E LAKE MEAD PKWY 260","HENDERSON","NV",89015,36.0363979580001,-114.991740289,485,"284C E LAKE MEAD PKWY 260, HENDERSON, NV, 89015","Match","Non_Exact","284 W LAKE MEAD PKWY, HENDERSON, NV, 89015",639313481,"R"
152986,"285 3RD ST UNIT 304","CAMBRIDGE","MA",2142,NA,NA,486,"285 3RD ST UNIT 304, CAMBRIDGE, MA, 2142","No_Match",NA,NA,NA,NA
152987,"285 5TH AVENUE SUITE 426","BROOKLYN","NY",11215,40.673781805,-73.982449491,487,"285 5TH AVENUE SUITE 426, BROOKLYN, NY, 11215","Match","Exact","285 5TH AVE, BROOKLYN, NY, 11215",59078101,"L"
152988,"285 AGATE ST","LAGUNA BEACH","CA",92651,33.530029965,-117.77138698,488,"285 AGATE ST, LAGUNA BEACH, CA, 92651","Match","Exact","285 AGATE ST, LAGUNA BEACH, CA, 92651",629797675,"R"
152989,"285 AMBERGATE DRIVE","YOUNGSVILLE","NC",27596,36.0687242710001,-78.4500535029999,489,"285 AMBERGATE DRIVE, YOUNGSVILLE, NC, 27596","Match","Exact","285 AMBERGATE DR, YOUNGSVILLE, NC, 27596",629151791,"R"
152990,"285 AMMERSEE LAKES DRIVE","MONTEVALLO","AL",35115,33.145922652,-86.817230566,490,"285 AMMERSEE LAKES DRIVE, MONTEVALLO, AL, 35115","Match","Exact","285 AMMERSEE LAKES DR, MONTEVALLO, AL, 35115",640814428,"L"
152991,"285 AYCRIGG AVENUE SUITE 14-A","PASSAIC","NJ",7055,40.854099981,-74.132608701,491,"285 AYCRIGG AVENUE SUITE 14-A, PASSAIC, NJ, 7055","Match","Exact","285 AYCRIGG AVE, PASSAIC, NJ, 07055",65252339,"L"
152992,"285 BARTHE DRIVE","PASADENA","CA",91103,34.1600809660001,-118.155860399,492,"285 BARTHE DRIVE, PASADENA, CA, 91103","Match","Exact","285 BARTHE DR, PASADENA, CA, 91103",142254577,"R"
152993,"285 BELHAVEN STREET","GREENVILLE","MS",38701,33.4079596990001,-91.018815887,493,"285 BELHAVEN STREET, GREENVILLE, MS, 38701","Match","Non_Exact","285 BELHAVEN ST, GREENVILLE, MS, 38703",1153733,"R"
152994,"285 BERENGER WALK","WELLINGTON","FL",33414,26.6682889200001,-80.21817046,494,"285 BERENGER WALK, WELLINGTON, FL, 33414","Match","Exact","285 BERENGER WALK, WELLINGTON, FL, 33414",647714751,"R"
152995,"285 BRIDGE STREET","SAN LUIS OBISPO","CA",93401,35.2676964950001,-120.666122578,495,"285 BRIDGE STREET, SAN LUIS OBISPO, CA, 93401","Match","Exact","285 BRIDGE ST, SAN LUIS OBISPO, CA, 93401",109733832,"R"
152996,"285 BRITTANY LANE","SALINE","MI",48176,42.1618451900001,-83.7209286469999,496,"285 BRITTANY LANE, SALINE, MI, 48176","Match","Exact","285 BRITTANY LN, SALINE, MI, 48176",619246412,"L"
152997,"285 BROADCAST AVENUE","LAS VEGAS","NV",89183,36.007818093,-115.159942619,497,"285 BROADCAST AVENUE, LAS VEGAS, NV, 89183","Match","Exact","285 BROADCAST AVE, LAS VEGAS, NV, 89183",201953591,"L"
152998,"285 BUSTER GOODE ROAD","WEST POINT","MS",39773,NA,NA,498,"285 BUSTER GOODE ROAD, WEST POINT, MS, 39773","No_Match",NA,NA,NA,NA
152999,"285 CAMPBELL RANCH RUN","GENEVA","FL",32732,28.707108062,-81.117001977,499,"285 CAMPBELL RANCH RUN, GENEVA, FL, 32732","Match","Exact","285 CAMPBELL RANCH RUN, GENEVA, FL, 32732",93779878,"L"
153000,"285 CARROLLTON ST","TEMPLE","GA",30179,33.7288862130001,-85.0286269759999,500,"285 CARROLLTON ST, TEMPLE, GA, 30179","Match","Non_Exact","285 CARROLLTON HWY, TEMPLE, GA, 30179",17110754,"L"
