"ID","Address","City","State","Zip","lat","long","id","input_address","match_indicator","match_type","matched_address","tiger_line_id","tiger_side"
38001,"12194 CELESTIA DRIVE","BURLINGTON","IA",52601,40.8583736090001,-91.163605828,1,"12194 CELESTIA DRIVE, BURLINGTON, IA, 52601","Match","Exact","12194 CELESTIA DR, BURLINGTON, IA, 52601",5545872,"R"
38002,"12194 HAZELMOOR CT","JACKSONVILLE","FL",32258,30.151624967,-81.5320279599999,2,"12194 HAZELMOOR CT, JACKSONVILLE, FL, 32258","Match","Exact","12194 HAZELMOOR CT, JACKSONVILLE, FL, 32258",630312551,"L"
38003,"12194 US HWY 301 SOUTH NBR 118","RIVERVIEW","FL",33578,NA,NA,3,"12194 US HWY 301 SOUTH NBR 118, RIVERVIEW, FL, 33578","No_Match",NA,NA,NA,NA
38004,"12195 BRUSHFIELD LANE","FISHERS","IN",46037,39.9353463800001,-85.9513224409999,4,"12195 BRUSHFIELD LANE, FISHERS, IN, 46037","Match","Exact","12195 BRUSHFIELD LN, FISHERS, IN, 46037",29327910,"L"
38005,"12195 OLD HIGHWAY 80 WEST","MERIDIAN","MS",39307,32.329370796,-88.86734115,5,"12195 OLD HIGHWAY 80 WEST, MERIDIAN, MS, 39307","Match","Exact","12195 OLD HWY 80 W, MERIDIAN, MS, 39307",193785,"R"
38006,"12197 E METCALF AVE","MOMENCE","IL",60954,41.1693805640001,-87.638307415,6,"12197 E METCALF AVE, MOMENCE, IL, 60954","Match","Exact","12197 E METCALF AVE, MOMENCE, IL, 60954",98348589,"L"
38007,"12197 HENLEY RD","ROCKVILLE","VA",23146,37.738864719,-77.675667859,7,"12197 HENLEY RD, ROCKVILLE, VA, 23146","Match","Exact","12197 HENLEY RD, ROCKVILLE, VA, 23146",84986016,"L"
38008,"12198 CAITHNESS CIRCLE","BRISTOW","VA",20136,38.739381388,-77.559762123,8,"12198 CAITHNESS CIRCLE, BRISTOW, VA, 20136","Match","Exact","12198 CAITHNESS CIR, BRISTOW, VA, 20136",207161671,"R"
38009,"12198 GOLDENCHAIN CT","HERNDON","VA",20171,38.89840595,-77.368267428,9,"12198 GOLDENCHAIN CT, HERNDON, VA, 20171","Match","Exact","12198 GOLDENCHAIN CT, HERNDON, VA, 20171",76024135,"L"
38010,"12198 MAIZE DR","NOBLESVILLE","IN",46060,39.99496745,-85.949207515,10,"12198 MAIZE DR, NOBLESVILLE, IN, 46060","Match","Exact","12198 MAIZE DR, NOBLESVILLE, IN, 46060",231603507,"R"
38011,"12199 FM 858","BEN WHEELER","TX",75754,32.416388286,-95.790305642,11,"12199 FM 858, BEN WHEELER, TX, 75754","Match","Exact","12199 FM 858, BEN WHEELER, TX, 75754",42935539,"L"
38012,"12199 HEATHERSTONE PLACE","CARMEL","IN",46033,39.965127506,-86.0890386519999,12,"12199 HEATHERSTONE PLACE, CARMEL, IN, 46033","Match","Exact","12199 HEATHERSTONE PL, CARMEL, IN, 46033",639696346,"R"
38013,"12199 HIGHWAY 49 STE 400","GULFPORT","MS",39503,30.4623054570001,-89.104060639,13,"12199 HIGHWAY 49 STE 400, GULFPORT, MS, 39503","Match","Non_Exact","12199 OLD HWY 49, GULFPORT, MS, 39503",111412591,"L"
38014,"121A DURWOOD RD","KNOXVILLE","TN",37922,35.8997509480001,-84.1230744599999,14,"121A DURWOOD RD, KNOXVILLE, TN, 37922","Match","Exact","121 DURWOOD RD, KNOXVILLE, TN, 37922",623806998,"R"
38015,"121A ELLINGTON ST","DORCHESTER","MA",2121,42.3013917490001,-71.081540944,15,"121A ELLINGTON ST, DORCHESTER, MA, 2121","Match","Exact","121 ELLINGTON ST, DORCHESTER, MA, 02121",85701661,"R"
38016,"121SW PORT ST LUCIE BLVD","PORT ST LUCIE","FL",34984,27.2735974030001,-80.345172594,16,"121SW PORT ST LUCIE BLVD, PORT ST LUCIE, FL, 34984","Match","Non_Exact","121 SW PORT ST LUCIE BLVD, PORT ST LUCIE, FL, 34984",120152999,"R"
38017,"122 12TH STREET ATTN WALLACE HORNE","PRINCETON","WV",24740,37.363215118,-81.110747166,17,"122 12TH STREET ATTN WALLACE HORNE, PRINCETON, WV, 24740","Match","Exact","122 12TH ST, PRINCETON, WV, 24740",47706533,"L"
38018,"122 17TH ST S","LA CROSSE","WI",54601,43.811279551,-91.230988248,18,"122 17TH ST S, LA CROSSE, WI, 54601","Match","Exact","122 17TH ST S, LA CROSSE, WI, 54601",51012844,"R"
38019,"122 21ST ST NW","BARBERTON","OH",44203,41.0130406640001,-81.626439531,19,"122 21ST ST NW, BARBERTON, OH, 44203","Match","Exact","122 21ST ST NW, BARBERTON, OH, 44203",639290235,"L"
38020,"122 2ND AVENUE","NEW YORK","NY",10003,40.7282047750001,-73.987948627,20,"122 2ND AVENUE, NEW YORK, NY, 10003","Match","Exact","122 2ND AVE, NEW YORK, NY, 10003",59654043,"R"
38021,"122 3RD ST","FORT COLLINS","CO",80524,40.5892809150001,-105.064878458,21,"122 3RD ST, FORT COLLINS, CO, 80524","Match","Exact","122 3RD ST, FORT COLLINS, CO, 80524",635775019,"R"
38022,"122 6TH ST","LAKE OSWEGO","OR",97034,45.417311833,-122.670683074,22,"122 6TH ST, LAKE OSWEGO, OR, 97034","Match","Exact","122 6TH ST, LAKE OSWEGO, OR, 97034",157912240,"L"
38023,"122 ADGER STREET","SHREVEPORT","LA",71105,32.472397964,-93.714926871,23,"122 ADGER STREET, SHREVEPORT, LA, 71105","Match","Exact","122 ADGER ST, SHREVEPORT, LA, 71105",57438859,"R"
38024,"122 ALGONQUIN TRAIL","ASHLAND","MA",1721,42.2486962290001,-71.4346091419999,24,"122 ALGONQUIN TRAIL, ASHLAND, MA, 1721","Match","Exact","122 ALGONQUIN TRL, ASHLAND, MA, 01721",87156397,"R"
38025,"122 AMESBURY ROAD","KENSINGTON","NH",3833,42.929119927,-70.944043463,25,"122 AMESBURY ROAD, KENSINGTON, NH, 3833","Match","Exact","122 AMESBURY RD, KENSINGTON, NH, 03833",113706800,"L"
38026,"122 AMSTERDAM AVENUE","NEW YORK","NY",10023,40.774320968,-73.984766291,26,"122 AMSTERDAM AVENUE, NEW YORK, NY, 10023","Match","Exact","122 AMSTERDAM AVE, NEW YORK, NY, 10023",59655108,"L"
38027,"122 ASHLAND PLACE  15M","BROOKLYN","NY",11201,40.692384858,-73.9790179629999,27,"122 ASHLAND PLACE  15M, BROOKLYN, NY, 11201","Match","Exact","122 ASHLAND PL, BROOKLYN, NY, 11201",650072157,"R"
38028,"122 ASHMALINE LANE","OXFORD","AL",36203,33.5924877360001,-85.8129032159999,28,"122 ASHMALINE LANE, OXFORD, AL, 36203","Match","Exact","122 ASHMALINE LN, OXFORD, AL, 36203",617303200,"R"
38029,"122 AUBUCHON RD","TROY","MO",63379,38.9770054210001,-91.086917821,29,"122 AUBUCHON RD, TROY, MO, 63379","Match","Exact","122 AUBUCHON RD, TROY, MO, 63379",44841266,"R"
38030,"122 BARRINGTON PARKWAY","STOCKBRIDGE","GA",30281,33.5276708810001,-84.159297577,30,"122 BARRINGTON PARKWAY, STOCKBRIDGE, GA, 30281","Match","Exact","122 BARRINGTON PKWY, STOCKBRIDGE, GA, 30281",619946896,"R"
38031,"122 BEDFORD WAY","BSKERSFIELD","CA",93308,35.4290352800001,-119.020140929,31,"122 BEDFORD WAY, BSKERSFIELD, CA, 93308","Match","Non_Exact","122 BEDFORD WAY, BAKERSFIELD, CA, 93308",109500066,"L"
38032,"122 BEECH STREET","PIKEVILLE","KY",41501,37.49516492,-82.5343892129999,32,"122 BEECH STREET, PIKEVILLE, KY, 41501","Match","Exact","122 BEECH ST, PIKEVILLE, KY, 41501",40394823,"L"
38033,"122 BEECHER DR","GUYTON","GA",31312,32.390456369,-81.384081958,33,"122 BEECHER DR, GUYTON, GA, 31312","Match","Exact","122 BEECHER DR, GUYTON, GA, 31312",653465292,"R"
38034,"122 BENEFIT STREET APARTMENT 4","PROVIDENCE","RI",2903,41.8298996410001,-71.4086944759999,34,"122 BENEFIT STREET APARTMENT 4, PROVIDENCE, RI, 2903","Match","Exact","122 BENEFIT ST, PROVIDENCE, RI, 02903",47466255,"R"
38035,"122 BILLINGSLEY LN","ISLANDTON","SC",29929,32.960091386,-80.8938782819999,35,"122 BILLINGSLEY LN, ISLANDTON, SC, 29929","Match","Exact","122 BILLINGSLEY LN, ISLANDTON, SC, 29929",19169680,"R"
38036,"122 BOOTH ROAD","CHAPEL HILL","NC",27516,35.8602678710001,-79.084848718,36,"122 BOOTH ROAD, CHAPEL HILL, NC, 27516","Match","Exact","122 BOOTH RD, CHAPEL HILL, NC, 27516",635451399,"R"
38037,"122 BOYDS CREEK HWY","SEYMOUR","TN",37865,35.8710243080001,-83.756127807,37,"122 BOYDS CREEK HWY, SEYMOUR, TN, 37865","Match","Exact","122 BOYDS CREEK HWY, SEYMOUR, TN, 37865",635465959,"L"
38038,"122 BRACEBRIDGE ROAD","RIVERSIDE","CA",92506,33.9200171460001,-117.33067642,38,"122 BRACEBRIDGE ROAD, RIVERSIDE, CA, 92506","Match","Exact","122 BRACEBRIDGE RD, RIVERSIDE, CA, 92506",194801122,"R"
38039,"122 BRAGG ST","NEW ORLEANS","LA",70124,30.0077851190001,-90.1141440329999,39,"122 BRAGG ST, NEW ORLEANS, LA, 70124","Match","Exact","122 BRAGG ST, NEW ORLEANS, LA, 70124",191699847,"R"
38040,"122 BREVOORT RD","COLUMBUS","OH",43214,40.036269427,-83.0142746349999,40,"122 BREVOORT RD, COLUMBUS, OH, 43214","Match","Exact","122 BREVOORT RD, COLUMBUS, OH, 43214",218693684,"L"
38041,"122 BRICK KILN RD","FOX ISLAND","WA",98333,47.2670396410001,-122.660968832,41,"122 BRICK KILN RD, FOX ISLAND, WA, 98333","Match","Exact","122 BRICK KILN RD, FOX ISLAND, WA, 98333",184617146,"L"
38042,"122 BURNING BUSH LN","CLARKS HILL","SC",29821,33.6798800710001,-82.177387117,42,"122 BURNING BUSH LN, CLARKS HILL, SC, 29821","Match","Exact","122 BURNING BUSH LN, CLARKS HILL, SC, 29821",604891966,"R"
38043,"122 BUTLER LOOP ROAD","STEVENSON","WA",98648,45.6161562440001,-122.049915898,43,"122 BUTLER LOOP ROAD, STEVENSON, WA, 98648","Match","Exact","122 BUTLER LOOP RD, STEVENSON, WA, 98648",636493015,"R"
38044,"122 BUTTLES AVE","COLUMBUS","OH",43215,39.977308555,-83.006916035,44,"122 BUTTLES AVE, COLUMBUS, OH, 43215","Match","Exact","122 BUTTLES AVE, COLUMBUS, OH, 43215",218651098,"R"
38045,"122 C ST NW SUITE 510","WASHINGTON","DC",20001,38.8935610140001,-77.012539696,45,"122 C ST NW SUITE 510, WASHINGTON, DC, 20001","Match","Exact","122 C ST NW, WASHINGTON, DC, 20001",649879447,"L"
38046,"122 CALISTOGA RD  NUM 190","SANTA ROSA","CA",95409,38.4662645560001,-122.653498296,46,"122 CALISTOGA RD  NUM 190, SANTA ROSA, CA, 95409","Match","Exact","122 CALISTOGA RD, SANTA ROSA, CA, 95409",67474277,"R"
38047,"122 CALISTOGA RD 144","SANTA ROSA","CA",95409,38.4662645560001,-122.653498296,47,"122 CALISTOGA RD 144, SANTA ROSA, CA, 95409","Match","Exact","122 CALISTOGA RD, SANTA ROSA, CA, 95409",67474277,"R"
38048,"122 CALYPSO LANE","LEAGUE CITY","TX",77573,29.5381709640001,-95.06796495,48,"122 CALYPSO LANE, LEAGUE CITY, TX, 77573","Match","Exact","122 CALYPSO LN, LEAGUE CITY, TX, 77573",96742977,"L"
38049,"122 CANTERBURY COURT","NOTTINGHAM","PA",19362,39.7477066970001,-76.093926863,49,"122 CANTERBURY COURT, NOTTINGHAM, PA, 19362","Match","Exact","122 CANTERBURY CT, NOTTINGHAM, PA, 19362",179705691,"R"
38050,"122 CARDAMON COURT","COLUMBIA","SC",29203,34.046836392,-81.012652953,50,"122 CARDAMON COURT, COLUMBIA, SC, 29203","Match","Exact","122 CARDAMON CT, COLUMBIA, SC, 29203",71865657,"R"
38051,"122 CARDINAL CIRCLE","WILLIAMSBURG","PA",16693,40.4650709650001,-78.192311173,51,"122 CARDINAL CIRCLE, WILLIAMSBURG, PA, 16693","Match","Exact","122 CARDINAL CIR, WILLIAMSBURG, PA, 16693",49724714,"L"
38052,"122 CAROL LANE","RED OAK","TX",75154,32.4991189150001,-96.788568083,52,"122 CAROL LANE, RED OAK, TX, 75154","Match","Exact","122 CAROL LN, RED OAK, TX, 75154",632488313,"R"
38053,"122 CARONDELET COURT","BOSSIER CITY","LA",71111,32.559787886,-93.718706821,53,"122 CARONDELET COURT, BOSSIER CITY, LA, 71111","Match","Non_Exact","122 CARONDELET, BOSSIER CITY, LA, 71111",632772309,"R"
38054,"122 CASTLEBURY CT","COPPELL","TX",75019,32.9689732750001,-96.982403249,54,"122 CASTLEBURY CT, COPPELL, TX, 75019","Match","Exact","122 CASTLEBURY CT, COPPELL, TX, 75019",103175252,"L"
38055,"122 CECIL LANE","ROCKINGHAM","NC",28379,NA,NA,55,"122 CECIL LANE, ROCKINGHAM, NC, 28379","No_Match",NA,NA,NA,NA
38056,"122 CHANCELLORS DRIVE","SUMMERVILLE","SC",29485,32.951460959,-80.231579009,56,"122 CHANCELLORS DRIVE, SUMMERVILLE, SC, 29485","Match","Exact","122 CHANCELLORS DR, SUMMERVILLE, SC, 29485",614147046,"R"
38057,"122 CHARLES STREET","SOMERSET","NJ",8873,40.5025819300001,-74.526935137,57,"122 CHARLES STREET, SOMERSET, NJ, 8873","Match","Exact","122 CHARLES ST, SOMERSET, NJ, 08873",628741980,"L"
38058,"122 CHATHAM LODGE LANE","STATE ROAD","NC",28676,36.2987781890001,-80.861004828,58,"122 CHATHAM LODGE LANE, STATE ROAD, NC, 28676","Match","Exact","122 CHATHAM LODGE LN, STATE ROAD, NC, 28676",154163366,"L"
38059,"122 CHESTNUT ST","TOMS RIVER","NJ",8753,39.972785016,-74.196568821,59,"122 CHESTNUT ST, TOMS RIVER, NJ, 8753","Match","Exact","122 CHESTNUT ST, TOMS RIVER, NJ, 08753",203804079,"L"
38060,"122 CHINQUAPIN CIRCLE","COLUMBIA","SC",29212,34.0790818740001,-81.136116536,60,"122 CHINQUAPIN CIRCLE, COLUMBIA, SC, 29212","Match","Exact","122 CHINQUAPIN CIR, COLUMBIA, SC, 29212",71854514,"R"
38061,"122 CHISHOLM TRAIL","VICTORIA","TX",77904,NA,NA,61,"122 CHISHOLM TRAIL, VICTORIA, TX, 77904","No_Match",NA,NA,NA,NA
38062,"122 CITRUS RIDGE DR","PONTE VERDA","FL",32081,30.1010931230001,-81.45221077,62,"122 CITRUS RIDGE DR, PONTE VERDA, FL, 32081","Match","Non_Exact","122 CITRUS RIDGE DR, PONTE VEDRA, FL, 32081",646560202,"R"
38063,"122 CIVIC CENTER DRIVE SUITE 206","VISTA","CA",92084,NA,NA,63,"122 CIVIC CENTER DRIVE SUITE 206, VISTA, CA, 92084","No_Match",NA,NA,NA,NA
38064,"122 CLEVELAND AVE SUITE B","ATLANTA","GA",30315,NA,NA,64,"122 CLEVELAND AVE SUITE B, ATLANTA, GA, 30315","Tie",NA,NA,NA,NA
38065,"122 COLUMBIA AVENUE","MANSFIELD","OH",44903,40.7554207260001,-82.521511985,65,"122 COLUMBIA AVENUE, MANSFIELD, OH, 44903","Match","Exact","122 COLUMBIA AVE, MANSFIELD, OH, 44903",12833381,"R"
38066,"122 CONCEPCION RD","BARRIGADA","GU",96913,13.4626317130001,144.800189689,66,"122 CONCEPCION RD, BARRIGADA, GU, 96913","Match","Exact","122 CONCEPCION RD, BARRIGADA, GU, 96913",648286495,"L"
38067,"122 COTTAGE STREET","PONTIAC","MI",48342,42.630678066,-83.285244884,67,"122 COTTAGE STREET, PONTIAC, MI, 48342","Match","Exact","122 COTTAGE ST, PONTIAC, MI, 48342",69705885,"R"
38068,"122 COUNTRY CLUB DRIVE","MANHASSET","NY",11030,40.7906326070001,-73.6825024569999,68,"122 COUNTRY CLUB DRIVE, MANHASSET, NY, 11030","Match","Exact","122 COUNTRY CLUB DR, MANHASSET, NY, 11030",147661019,"R"
38069,"122 COUNTRY CLUB LANE","BELLEVILLE","IL",62223,38.568036555,-90.0558942219999,69,"122 COUNTRY CLUB LANE, BELLEVILLE, IL, 62223","Match","Exact","122 COUNTRY CLUB LN, BELLEVILLE, IL, 62223",107930425,"R"
38070,"122 CREEKVIEW DRIVE","PARADISE","PA",17562,40.006708212,-76.127322477,70,"122 CREEKVIEW DRIVE, PARADISE, PA, 17562","Match","Exact","122 CREEKVIEW DR, PARADISE, PA, 17562",625300008,"R"
38071,"122 CUFF AVE","SPRINGFIELD","MA",1104,42.129764859,-72.568456222,71,"122 CUFF AVE, SPRINGFIELD, MA, 1104","Match","Exact","122 CUFF AVE, SPRINGFIELD, MA, 01104",4023902,"L"
38072,"122 DEER MEADOWS CT","BALLWIN","MO",63011,38.6012104870001,-90.529899276,72,"122 DEER MEADOWS CT, BALLWIN, MO, 63011","Match","Exact","122 DEER MEADOWS CT, BALLWIN, MO, 63011",100179608,"R"
38073,"122 DOWNERS PLACE SUITE 101","AURORA","IL",60506,NA,NA,73,"122 DOWNERS PLACE SUITE 101, AURORA, IL, 60506","No_Match",NA,NA,NA,NA
38074,"122 E 35TH ST","CHICAGO","IL",60616,41.8310525150001,-87.623069828,74,"122 E 35TH ST, CHICAGO, IL, 60616","Match","Exact","122 E 35TH ST, CHICAGO, IL, 60616",605538158,"L"
38075,"122 E 57TH ST SUITE 4R","ASTORIA","NY",11102,NA,NA,75,"122 E 57TH ST SUITE 4R, ASTORIA, NY, 11102","No_Match",NA,NA,NA,NA
38076,"122 E BRANDON ST","LONGVIEW","TX",75604,32.5111927660001,-94.794510637,76,"122 E BRANDON ST, LONGVIEW, TX, 75604","Match","Exact","122 E BRANDON ST, LONGVIEW, TX, 75604",141116435,"R"
38077,"122 E BROADWAY AVE","FAIRFIELD","IA",52556,41.007587508,-91.9621002059999,77,"122 E BROADWAY AVE, FAIRFIELD, IA, 52556","Match","Exact","122 E BROADWAY AVE, FAIRFIELD, IA, 52556",84418352,"L"
38078,"122 E CHELTENHAM AVE","PHILADELPHIA","PA",19120,40.049919204,-75.1164375339999,78,"122 E CHELTENHAM AVE, PHILADELPHIA, PA, 19120","Match","Exact","122 CHELTENHAM AVE, PHILADELPHIA, PA, 19120",131414471,"R"
38079,"122 E CHURCH STREET APT 201","GRAND PRAIRIE","TX",75050,NA,NA,79,"122 E CHURCH STREET APT 201, GRAND PRAIRIE, TX, 75050","Tie",NA,NA,NA,NA
38080,"122 E FIRST AVE","SALT LAKE CITY","UT",84103,40.7705485660001,-111.885930668,80,"122 E FIRST AVE, SALT LAKE CITY, UT, 84103","Match","Exact","122 E 1ST AVE, SALT LAKE CITY, UT, 84103",650146852,"R"
38081,"122 E FLORAL AVE","PORTLAND","IN",47371,40.421019281,-84.9768814029999,81,"122 E FLORAL AVE, PORTLAND, IN, 47371","Match","Exact","122 E FLORAL AVE, PORTLAND, IN, 47371",45039729,"R"
38082,"122 E GENESEE ST","FAYETTEVILLE","NY",13066,43.029351569,-76.010187923,82,"122 E GENESEE ST, FAYETTEVILLE, NY, 13066","Match","Exact","122 E GENESEE ST, FAYETTEVILLE, NY, 13066",46576470,"R"
38083,"122 E GILMAN ST LL","MADISON","WI",53703,NA,NA,83,"122 E GILMAN ST LL, MADISON, WI, 53703","Tie",NA,NA,NA,NA
38084,"122 E MAPLEWOOD AVE","DAYTON","OH",45405,39.7920516290001,-84.212054152,84,"122 E MAPLEWOOD AVE, DAYTON, OH, 45405","Match","Exact","122 E MAPLEWOOD AVE, DAYTON, OH, 45405",143568623,"R"
38085,"122 E MARION ST","ABERDEEN","WA",98520,46.9687598580001,-123.791729316,85,"122 E MARION ST, ABERDEEN, WA, 98520","Match","Exact","122 E MARION ST, ABERDEEN, WA, 98520",180582482,"R"
38086,"122 E PATRICK ST PMB 104","FREDERICK","MD",21701,NA,NA,86,"122 E PATRICK ST PMB 104, FREDERICK, MD, 21701","Tie",NA,NA,NA,NA
38087,"122 E WASHINGTON","EFFINGHAM","IL",62401,39.122200703,-88.541699108,87,"122 E WASHINGTON, EFFINGHAM, IL, 62401","Match","Non_Exact","122 E WASHINGTON AVE, EFFINGHAM, IL, 62401",94761174,"R"
38088,"122 EAST 42ND STREET - SUITE 1520","NEW YORK","NY",10168,40.751559796,-73.976340906,88,"122 EAST 42ND STREET - SUITE 1520, NEW YORK, NY, 10168","Match","Non_Exact","122 E 42ND ST, NEW YORK, NY, 10017",59658687,"R"
38089,"122 EAST 42ND STREET SUITE 2515","NEW YORK","NY",10168,40.751559796,-73.976340906,89,"122 EAST 42ND STREET SUITE 2515, NEW YORK, NY, 10168","Match","Non_Exact","122 E 42ND ST, NEW YORK, NY, 10017",59658687,"R"
38090,"122 EAST 42ND STREET SUITE 4900","NEW YORK","NY",10168,40.751559796,-73.976340906,90,"122 EAST 42ND STREET SUITE 4900, NEW YORK, NY, 10168","Match","Non_Exact","122 E 42ND ST, NEW YORK, NY, 10017",59658687,"R"
38091,"122 EAST 55TH STREET FLOOR 2","NEW YORK","NY",10022,40.7598019390001,-73.9705020599999,91,"122 EAST 55TH STREET FLOOR 2, NEW YORK, NY, 10022","Match","Exact","122 E 55TH ST, NEW YORK, NY, 10022",59657248,"R"
38092,"122 EAST HIGH STREET SUITE 200","MOUNT VERNON","OH",43050,40.3935155290001,-82.48332305,92,"122 EAST HIGH STREET SUITE 200, MOUNT VERNON, OH, 43050","Match","Exact","122 E HIGH ST, MOUNT VERNON, OH, 43050",24655703,"R"
38093,"122 EAST MAIN STREET 275","LAKELAND","FL",33801,28.0441308260001,-81.9569418249999,93,"122 EAST MAIN STREET 275, LAKELAND, FL, 33801","Match","Exact","122 E MAIN ST, LAKELAND, FL, 33801",104810604,"L"
38094,"122 EAST MAIN STREET SUITE 201","BEDFORD","VA",24523,37.334366915,-79.523199991,94,"122 EAST MAIN STREET SUITE 201, BEDFORD, VA, 24523","Match","Exact","122 E MAIN ST, BEDFORD, VA, 24523",62633685,"L"
38095,"122 EAST MAIN STREET","LAKELAND","FL",33801,28.0441308260001,-81.9569418249999,95,"122 EAST MAIN STREET, LAKELAND, FL, 33801","Match","Exact","122 E MAIN ST, LAKELAND, FL, 33801",104810604,"L"
38096,"122 EAST MAIN STREET","LOUDONVILLE","OH",44842,40.635564179,-82.23247054,96,"122 EAST MAIN STREET, LOUDONVILLE, OH, 44842","Match","Exact","122 E MAIN ST, LOUDONVILLE, OH, 44842",638672912,"L"
38097,"122 EAST MYRTLE","ANGLETON","TX",77515,29.1655093530001,-95.431438987,97,"122 EAST MYRTLE, ANGLETON, TX, 77515","Match","Non_Exact","122 E MYRTLE ST, ANGLETON, TX, 77515",116578352,"R"
38098,"122 EAST PATRICK STREET NUM 4","FREDERICK","MD",21701,39.414035762,-77.4086965069999,98,"122 EAST PATRICK STREET NUM 4, FREDERICK, MD, 21701","Match","Exact","122 E PATRICK ST, FREDERICK, MD, 21701",60671067,"L"
38099,"122 EAST STATE STREET","NEW CASTLE","PA",16146,NA,NA,99,"122 EAST STATE STREET, NEW CASTLE, PA, 16146","Tie",NA,NA,NA,NA
38100,"122 ECHO LANE","CENTREVILLE","MD",21617,39.07671234,-75.9562008679999,100,"122 ECHO LANE, CENTREVILLE, MD, 21617","Match","Exact","122 ECHO LN, CENTREVILLE, MD, 21617",607198682,"R"
38101,"122 EDGE HILL ROAD","WILMINGTON","NC",28403,34.218395522,-77.8310711239999,101,"122 EDGE HILL ROAD, WILMINGTON, NC, 28403","Match","Non_Exact","122 EDGEHILL RD, WILMINGTON, NC, 28403",152738191,"R"
38102,"122 ELDER","GRANT","MI",49327,NA,NA,102,"122 ELDER, GRANT, MI, 49327","No_Match",NA,NA,NA,NA
38103,"122 ELM SQ N","LAKELAND","FL",33813,27.952309654,-81.958502341,103,"122 ELM SQ N, LAKELAND, FL, 33813","Match","Exact","122 ELM SQ N, LAKELAND, FL, 33813",104813987,"L"
38104,"122 ELY AVE","WEST SPRINGFIELD","MA",1089,42.108661736,-72.6569152179999,104,"122 ELY AVE, WEST SPRINGFIELD, MA, 1089","Match","Exact","122 ELY AVE, W SPRINGFIELD, MA, 01089",4032168,"R"
38105,"122 EMERY MILLS ROAD","SHAPLEIGH","ME",4076,43.4972572940001,-70.851762347,105,"122 EMERY MILLS ROAD, SHAPLEIGH, ME, 4076","Match","Exact","122 EMERY MILLS RD, SHAPLEIGH, ME, 04076",647567164,"R"
38106,"122 EMLEN AVE","LAWNSIDE","NJ",8045,NA,NA,106,"122 EMLEN AVE, LAWNSIDE, NJ, 8045","Tie",NA,NA,NA,NA
38107,"122 FAIRVIEW CIR","MIDDLE ISLAND","NY",11953,40.8807022780001,-72.939687222,107,"122 FAIRVIEW CIR, MIDDLE ISLAND, NY, 11953","Match","Exact","122 FAIRVIEW CIR, MIDDLE ISLAND, NY, 11953",114072852,"R"
38108,"122 FAIRWAY DR","NICHOLASVILLE","KY",40356,37.890636424,-84.593675086,108,"122 FAIRWAY DR, NICHOLASVILLE, KY, 40356","Match","Exact","122 FAIRWAY DR, NICHOLASVILLE, KY, 40356",38463320,"R"
38109,"122 FARRAGUT AVE","VALLEJO","CA",94590,38.112303479,-122.264480769,109,"122 FARRAGUT AVE, VALLEJO, CA, 94590","Match","Exact","122 FARRAGUT AVE, VALLEJO, CA, 94590",192527220,"L"
38110,"122 FLAGSTAFF WAY","BUFFALO","WY",82834,44.358279135,-106.673091853,110,"122 FLAGSTAFF WAY, BUFFALO, WY, 82834","Match","Exact","122 FLAGSTAFF WAY, BUFFALO, WY, 82834",619939437,"L"
38111,"122 FOREST HILLS CIR","GUNTER","TX",75058,33.4738582800001,-96.697913193,111,"122 FOREST HILLS CIR, GUNTER, TX, 75058","Match","Exact","122 FOREST HILLS CIR, GUNTER, TX, 75058",606394700,"R"
38112,"122 FORT GREENE PLACE APT 2","BROOKLYN","NY",11217,NA,NA,112,"122 FORT GREENE PLACE APT 2, BROOKLYN, NY, 11217","No_Match",NA,NA,NA,NA
38113,"122 FOURSOME LN","CARL JUNCTION","MO",64834,37.1608930420001,-94.538931841,113,"122 FOURSOME LN, CARL JUNCTION, MO, 64834","Match","Exact","122 FOURSOME LN, CARL JUNCTION, MO, 64834",66145892,"R"
38114,"122 FRANKLIN PL","ROSELLE PARK","NJ",7204,40.6642129430001,-74.2688555889999,114,"122 FRANKLIN PL, ROSELLE PARK, NJ, 7204","Match","Exact","122 FRANKLIN PL, ROSELLE PARK, NJ, 07204",624259405,"L"
38115,"122 FROG HOLLOW ROAD","OXFORD","PA",19363,39.786453329,-75.949423796,115,"122 FROG HOLLOW ROAD, OXFORD, PA, 19363","Match","Exact","122 FROG HOLLOW RD, OXFORD, PA, 19363",179482691,"R"
38116,"122 FYCKE LN","TEANECK","NJ",7666,40.878143177,-74.005324043,116,"122 FYCKE LN, TEANECK, NJ, 7666","Match","Exact","122 FYCKE LN, TEANECK, NJ, 07666",64389677,"R"
38117,"122 GILBERT ROAD","SHIPPENSBURG","PA",17257,40.0445009310001,-77.459338014,117,"122 GILBERT ROAD, SHIPPENSBURG, PA, 17257","Match","Exact","122 GILBERT RD, SHIPPENSBURG, PA, 17257",647924731,"L"
38118,"122 GLENWOOD AVE","JERSEY CITY","NJ",7306,40.7282065090001,-74.072532842,118,"122 GLENWOOD AVE, JERSEY CITY, NJ, 7306","Match","Exact","122 GLENWOOD AVE, JERSEY CITY, NJ, 07306",637781342,"R"
38119,"122 GLORY RIDGE PLACE","KEARNEYSVILLE","WV",25430,NA,NA,119,"122 GLORY RIDGE PLACE, KEARNEYSVILLE, WV, 25430","No_Match",NA,NA,NA,NA
38120,"122 GRANBY ST  STE2","NORFOLK","VA",23510,36.8468787950001,-76.292067144,120,"122 GRANBY ST  STE2, NORFOLK, VA, 23510","Match","Exact","122 GRANBY ST, NORFOLK, VA, 23510",122127423,"R"
38121,"122 GRANDE VIEW LANE","ALABASTER","AL",35114,33.202432818,-86.850968474,121,"122 GRANDE VIEW LANE, ALABASTER, AL, 35114","Match","Exact","122 GRANDE VIEW LN, ALABASTER, AL, 35114",82098896,"R"
38122,"122 GRANITE STREET","LEOMINSTER","MA",1453,42.5336909810001,-71.7795962009999,122,"122 GRANITE STREET, LEOMINSTER, MA, 1453","Match","Exact","122 GRANITE ST, LEOMINSTER, MA, 01453",40029936,"L"
38123,"122 GRAVES ROAD","CURLEW","WA",99118,48.9160350490001,-118.633100675,123,"122 GRAVES ROAD, CURLEW, WA, 99118","Match","Exact","122 GRAVES RD, CURLEW, WA, 99118",174586638,"L"
38124,"122 GREEN MEADOW LANE","STATESVILLE","NC",28625,35.83634865,-80.845830978,124,"122 GREEN MEADOW LANE, STATESVILLE, NC, 28625","Match","Exact","122 GREEN MEADOW LN, STATESVILLE, NC, 28625",46007872,"R"
38125,"122 GREENFIELD ROAD","FRONT ROYAL","VA",22630,38.9034647020001,-78.12898117,125,"122 GREENFIELD ROAD, FRONT ROYAL, VA, 22630","Match","Exact","122 GREENFIELD RD, FRONT ROYAL, VA, 22630",159091821,"L"
38126,"122 GREY FOX COURT","STREAMWOOD","IL",60107,42.0232236100001,-88.2111999539999,126,"122 GREY FOX COURT, STREAMWOOD, IL, 60107","Match","Exact","122 GREY FOX CT, STREAMWOOD, IL, 60107",651174404,"R"
38127,"122 GROVE ST APT A","NORTHAMPTON","MA",1060,42.307911974,-72.648384098,127,"122 GROVE ST APT A, NORTHAMPTON, MA, 1060","Match","Exact","122 GROVE ST, NORTHAMPTON, MA, 01060",39867593,"L"
38128,"122 HARTWELL TERRACE","MASON","MI",48854,42.5695855600001,-84.44754134,128,"122 HARTWELL TERRACE, MASON, MI, 48854","Match","Exact","122 HARTWELL TER, MASON, MI, 48854",17516494,"L"
38129,"122 HEMLOCK CT","GREENWOOD","SC",29649,34.224858542,-82.1778600279999,129,"122 HEMLOCK CT, GREENWOOD, SC, 29649","Match","Exact","122 HEMLOCK CT, GREENWOOD, SC, 29649",50819331,"R"
38130,"122 HEMPHILL ROAD","WINLOCK","WA",98596,46.5080147310001,-122.921599614,130,"122 HEMPHILL ROAD, WINLOCK, WA, 98596","Match","Exact","122 HEMPHILL RD, WINLOCK, WA, 98596",180715745,"R"
38131,"122 HERON RD","EAST HARTFORD","CT",6118,41.7392652660001,-72.587205264,131,"122 HERON RD, EAST HARTFORD, CT, 6118","Match","Exact","122 HERON RD, EAST HARTFORD, CT, 06118",3497263,"R"
38132,"122 HERRICK STREET","ALBION","NY",14411,43.2442235440001,-78.189251108,132,"122 HERRICK STREET, ALBION, NY, 14411","Match","Exact","122 HERRICK ST, ALBION, NY, 14411",48805021,"L"
38133,"122 HIGHLAND AVENUE","JERSEY CITY","NJ",7306,40.7290109620001,-74.071796922,133,"122 HIGHLAND AVENUE, JERSEY CITY, NJ, 7306","Match","Exact","122 HIGHLAND AVE, JERSEY CITY, NJ, 07306",59603768,"R"
38134,"122 HILLBROOK DRIVE","SPARTANBURG","SC",29307,34.9655608350001,-81.880753114,134,"122 HILLBROOK DRIVE, SPARTANBURG, SC, 29307","Match","Exact","122 HILLBROOK DR, SPARTANBURG, SC, 29307",19471740,"R"
38135,"122 HOLLYWOOD BLVD","MARKSVILLE","LA",71351,31.228907701,-91.966343275,135,"122 HOLLYWOOD BLVD, MARKSVILLE, LA, 71351","Match","Exact","122 HOLLYWOOD BLVD, MARKSVILLE, LA, 71351",636248725,"L"
38136,"122 HUB AVENUE","SAN ANTONIO","TX",78220,29.4161033340001,-98.439400687,136,"122 HUB AVENUE, SAN ANTONIO, TX, 78220","Match","Exact","122 HUB AVE, SAN ANTONIO, TX, 78220",101531194,"R"
38137,"122 HUNNS LAKE ROAD","STANFORDVILLE","NY",12581,41.87633372,-73.69026839,137,"122 HUNNS LAKE ROAD, STANFORDVILLE, NY, 12581","Match","Exact","122 HUNNS LAKE RD, STANFORDVILLE, NY, 12581",636533324,"R"
38138,"122 IOTA ST","BELLE CHASSE","LA",70037,29.825203548,-90.006618684,138,"122 IOTA ST, BELLE CHASSE, LA, 70037","Match","Exact","122 IOTA ST, BELLE CHASSE, LA, 70037",191939704,"L"
38139,"122 J W LN","RAYNE","LA",70578,30.2427070250001,-92.229052031,139,"122 J W LN, RAYNE, LA, 70578","Match","Exact","122 J W LN, RAYNE, LA, 70578",88308409,"R"
38140,"122 JEFFERSON STREET PO BOX 14","LIBERTYVILLE","IA",52567,40.9576350500001,-92.048483802,140,"122 JEFFERSON STREET PO BOX 14, LIBERTYVILLE, IA, 52567","Match","Exact","122 JEFFERSON ST, LIBERTYVILLE, IA, 52567",84422855,"L"
38141,"122 JORGENSEN RD","ONALASKA","WA",98570,46.57628341,-122.691671667,141,"122 JORGENSEN RD, ONALASKA, WA, 98570","Match","Exact","122 JORGENSEN RD, ONALASKA, WA, 98570",180733729,"L"
38142,"122 KELSEY AVE","SALT LAKE CITY","UT",84111,40.743675619,-111.887444876,142,"122 KELSEY AVE, SALT LAKE CITY, UT, 84111","Match","Exact","122 KELSEY AVE, SALT LAKE CITY, UT, 84111",176078163,"R"
38143,"122 KIRKLAND DRIVE","STOW","MA",1775,42.4563974330001,-71.5357065699999,143,"122 KIRKLAND DRIVE, STOW, MA, 1775","Match","Exact","122 KIRKLAND DR, STOW, MA, 01775",86900607,"L"
38144,"122 KYLERS CORNER ROAD","KERSEY","PA",15846,41.316759076,-78.639464703,144,"122 KYLERS CORNER ROAD, KERSEY, PA, 15846","Match","Exact","122 KYLERS CORNER RD, KERSEY, PA, 15846",157852864,"L"
38145,"122 LAKE ROAD","BALLSTON LAKE","NY",12019,42.943847271,-73.852874573,145,"122 LAKE ROAD, BALLSTON LAKE, NY, 12019","Match","Exact","122 LAKE RD, BALLSTON LAKE, NY, 12019",617271879,"L"
38146,"122 LAKE SHORE DRIVE","BENSON","NC",27504,35.3943711520001,-78.5522586179999,146,"122 LAKE SHORE DRIVE, BENSON, NC, 27504","Match","Exact","122 LAKE SHORE DR, BENSON, NC, 27504",26555113,"R"
38147,"122 LAKESHORE DR STE 732","NORTH PALM BEACH","FL",33408,26.8315160610001,-80.056973893,147,"122 LAKESHORE DR STE 732, NORTH PALM BEACH, FL, 33408","Match","Exact","122 LAKESHORE DR, NORTH PALM BEACH, FL, 33408",653195203,"L"
38148,"122 LAUREL RIDGE LN","MURPHY","NC",28906,35.057099281,-83.983112723,148,"122 LAUREL RIDGE LN, MURPHY, NC, 28906","Match","Exact","122 LAUREL RIDGE, MURPHY, NC, 28906",35851021,"L"
38149,"122 LEE PARKWAY DR SUITE105","CHATTANOOGA","TN",37421,35.0747029360001,-85.2344919769999,149,"122 LEE PARKWAY DR SUITE105, CHATTANOOGA, TN, 37421","Match","Non_Exact","122 PARKWAY DR, CHATTANOOGA, TN, 37406",59310097,"L"
38150,"122 LEWIS RD","LINCOLN","ND",58504,46.7680879000001,-100.697327092,150,"122 LEWIS RD, LINCOLN, ND, 58504","Match","Exact","122 LEWIS RD, LINCOLN, ND, 58504",198883350,"L"
38151,"122 LINCOLN STREET","HOT SPRINGS","AR",71901,34.498196073,-93.044994378,151,"122 LINCOLN STREET, HOT SPRINGS, AR, 71901","Match","Exact","122 LINCOLN ST, HOT SPRINGS, AR, 71901",22732699,"L"
38152,"122 LITCHFIELD RD  STE 2","HARWINTON","CT",6791,41.7694390870001,-73.071867579,152,"122 LITCHFIELD RD  STE 2, HARWINTON, CT, 6791","Match","Exact","122 LITCHFIELD RD, HARWINTON, CT, 06791",3121138,"L"
38153,"122 LITTLE RANCH CIRCLE","OAKLEY","CA",94561,37.9748476950001,-121.704413403,153,"122 LITTLE RANCH CIRCLE, OAKLEY, CA, 94561","Match","Exact","122 LITTLE RANCH CIR, OAKLEY, CA, 94561",629630186,"L"
38154,"122 LITTLEBROOK RD","JOSHUA","TX",76058,32.4659816130001,-97.370038307,154,"122 LITTLEBROOK RD, JOSHUA, TX, 76058","Match","Exact","122 LITTLEBROOK RD, JOSHUA, TX, 76058",103517098,"R"
38155,"122 LOCUST LANE","IRVINGTON","NY",10533,41.03282977,-73.862795939,155,"122 LOCUST LANE, IRVINGTON, NY, 10533","Match","Exact","122 LOCUST LN, IRVINGTON, NY, 10533",139840364,"L"
38156,"122 LONG COULEE RD","HOLMEN","WI",54636,43.9654220510001,-91.2566795989999,156,"122 LONG COULEE RD, HOLMEN, WI, 54636","Match","Exact","122 LONG COULEE RD, HOLMEN, WI, 54636",51009061,"R"
38157,"122 LONG HALL","CLEMSON","SC",29631,NA,NA,157,"122 LONG HALL, CLEMSON, SC, 29631","No_Match",NA,NA,NA,NA
38158,"122 LUDLOW ST 1J","NEWARK","NJ",7114,40.689783828,-74.2052360609999,158,"122 LUDLOW ST 1J, NEWARK, NJ, 7114","Match","Exact","122 LUDLOW ST, NEWARK, NJ, 07114",63466728,"L"
38159,"122 LURENE DRIVE","FREMONT","CA",94539,37.5250740910001,-121.918750781,159,"122 LURENE DRIVE, FREMONT, CA, 94539","Match","Exact","122 LURENE DR, FREMONT, CA, 94539",650339538,"L"
38160,"122 MACKAY DRIVE","BRUNSWICK","GA",31525,31.2709529700001,-81.431317688,160,"122 MACKAY DRIVE, BRUNSWICK, GA, 31525","Match","Exact","122 MACKAY DR, BRUNSWICK, GA, 31525",635620719,"L"
38161,"122 MADISON PLACE","ADAIRSVILLE","GA",30103,34.3802781680001,-84.931166482,161,"122 MADISON PLACE, ADAIRSVILLE, GA, 30103","Match","Exact","122 MADISON PL, ADAIRSVILLE, GA, 30103",627717055,"R"
38162,"122 MAIN ST","VELVA","ND",58790,48.0576709330001,-100.929268033,162,"122 MAIN ST, VELVA, ND, 58790","Match","Exact","122 MAIN ST, VELVA, ND, 58790",199842790,"L"
38163,"122 MANTON AVENUE SUITE 611 BOX 8","PROVIDENCE","RI",2909,41.819888206,-71.446650257,163,"122 MANTON AVENUE SUITE 611 BOX 8, PROVIDENCE, RI, 2909","Match","Exact","122 MANTON AVE, PROVIDENCE, RI, 02909",47460321,"L"
38164,"122 MAPLE STREET","MARIETTA","OH",45750,39.411372987,-81.458857536,164,"122 MAPLE STREET, MARIETTA, OH, 45750","Match","Exact","122 MAPLE ST, MARIETTA, OH, 45750",45681406,"L"
38165,"122 MARIAN WAY","SEQUIM","WA",98382,48.098942342,-123.114603068,165,"122 MARIAN WAY, SEQUIM, WA, 98382","Match","Exact","122 MARIAN WAY, SEQUIM, WA, 98382",150873289,"R"
38166,"122 MARY LANE","SCOTTSBLUFF","NE",69361,41.8577016850001,-103.641628511,166,"122 MARY LANE, SCOTTSBLUFF, NE, 69361","Match","Exact","122 MARY LN, SCOTTSBLUFF, NE, 69361",160060373,"R"
38167,"122 MCKENZIE COURT","MURFREESBORO","TN",37129,35.9803082400001,-86.4042177169999,167,"122 MCKENZIE COURT, MURFREESBORO, TN, 37129","Match","Exact","122 MCKENZIE CT, MURFREESBORO, TN, 37129",606764527,"R"
38168,"122 MCKINLEY STREET","LAKE PLACID","NY",12946,44.280315957,-73.986506772,168,"122 MCKINLEY STREET, LAKE PLACID, NY, 12946","Match","Exact","122 MCKINLEY ST, LAKE PLACID, NY, 12946",136268211,"R"
38169,"122 MILL STREET SUITE 3","CINCINNATI","OH",45215,39.224382452,-84.4511982619999,169,"122 MILL STREET SUITE 3, CINCINNATI, OH, 45215","Match","Exact","122 MILL ST, CINCINNATI, OH, 45215",103927249,"L"
38170,"122 MINDY DR","WAYNESBORO","TN",38485,35.3438912990001,-87.7268985059999,170,"122 MINDY DR, WAYNESBORO, TN, 38485","Match","Non_Exact","122 MINDY RD, WAYNESBORO, TN, 38485",22993642,"L"
38171,"122 MINNESOTA ST","OTTUMWA","IA",52501,41.0015216470001,-92.432467106,171,"122 MINNESOTA ST, OTTUMWA, IA, 52501","Match","Exact","122 MINNESOTA ST, OTTUMWA, IA, 52501",89615973,"R"
38172,"122 MORRIS STREET","REVERE","MA",2151,42.4468748800001,-71.0226419099999,172,"122 MORRIS STREET, REVERE, MA, 2151","Match","Exact","122 MORRIS ST, REVERE, MA, 02151",85706262,"L"
38173,"122 MOUNT VIEW AVENUE","MCMINNVILLE","TN",37110,35.691887427,-85.755893667,173,"122 MOUNT VIEW AVENUE, MCMINNVILLE, TN, 37110","Match","Exact","122 MOUNT VIEW AVE, MCMINNVILLE, TN, 37110",81350794,"L"
38174,"122 MOURNING DOVE LANE","DOVER","DE",19901,39.1833307860001,-75.487502438,174,"122 MOURNING DOVE LANE, DOVER, DE, 19901","Match","Exact","122 MOURNING DOVE LN, DOVER, DE, 19901",68103164,"L"
38175,"122 MURRAY ST","WATSONTOWN","PA",17777,41.0822940520001,-76.85692985,175,"122 MURRAY ST, WATSONTOWN, PA, 17777","Match","Exact","122 MURRAY ST, WATSONTOWN, PA, 17777",48052845,"L"
38176,"122 MUSSELMAN ROAD","FREDERICKSBURG","VA",22405,38.33393743,-77.495409653,176,"122 MUSSELMAN ROAD, FREDERICKSBURG, VA, 22405","Match","Exact","122 MUSSELMAN RD, FREDERICKSBURG, VA, 22405",641116385,"L"
38177,"122 MUTE SWAN PLACE","NEWARK","DE",19711,39.7318243460001,-75.725619552,177,"122 MUTE SWAN PLACE, NEWARK, DE, 19711","Match","Exact","122 MUTE SWAN PL, NEWARK, DE, 19711",187285250,"R"
38178,"122 N 4TH STREET","SANTA PAULA","CA",93060,34.3516660240001,-119.069676542,178,"122 N 4TH STREET, SANTA PAULA, CA, 93060","Match","Exact","122 N 4TH ST, SANTA PAULA, CA, 93060",647328513,"L"
38179,"122 N BRAGG STREET","PERRYVILLE","KY",40468,37.6520855160001,-84.949440158,179,"122 N BRAGG STREET, PERRYVILLE, KY, 40468","Match","Exact","122 N BRAGG ST, PERRYVILLE, KY, 40468",32478359,"R"
38180,"122 N BREARLY ST","MADISON","WI",53703,43.0845777800001,-89.372929509,180,"122 N BREARLY ST, MADISON, WI, 53703","Match","Exact","122 N BREARLY ST, MADISON, WI, 53703",49472182,"L"
38181,"122 N CORTEZ ST SUITE 107","PRESCOTT","AZ",86301,34.542413207,-112.46870453,181,"122 N CORTEZ ST SUITE 107, PRESCOTT, AZ, 86301","Match","Non_Exact","122 N CORTEZ ST, PRESCOTT, AZ, 86301",159457080,"L"
38182,"122 N CROCKETT ST","GRANBURY","TX",76048,32.44245525,-97.7864923339999,182,"122 N CROCKETT ST, GRANBURY, TX, 76048","Match","Exact","122 N CROCKETT ST, GRANBURY, TX, 76048",158789161,"R"
38183,"122 N CROFT AVE APT 5","LOS ANGELES","CA",90048,NA,NA,183,"122 N CROFT AVE APT 5, LOS ANGELES, CA, 90048","Tie",NA,NA,NA,NA
38184,"122 N DOUGLAS","ELLSWORTH","KS",67439,38.729297043,-98.231131273,184,"122 N DOUGLAS, ELLSWORTH, KS, 67439","Match","Non_Exact","122 N DOUGLAS AVE, ELLSWORTH, KS, 67439",132868296,"L"
38185,"122 N JOHNSON ST","PONTIAC","MI",48341,42.639388905,-83.308992396,185,"122 N JOHNSON ST, PONTIAC, MI, 48341","Match","Non_Exact","122 N JOHNSON AVE, PONTIAC, MI, 48341",640603678,"R"
38186,"122 N JULIA ST","MOBILE","AL",36604,30.690691185,-88.0678310169999,186,"122 N JULIA ST, MOBILE, AL, 36604","Match","Non_Exact","122 JULIA ST N, MOBILE, AL, 36604",61906590,"R"
38187,"122 N MAIN ST","MISHAWAKA","IN",46544,41.6613853690001,-86.180628487,187,"122 N MAIN ST, MISHAWAKA, IN, 46544","Match","Exact","122 N MAIN ST, MISHAWAKA, IN, 46544",636458736,"R"
38188,"122 N MCLEAN","LINCOLN","IL",62656,40.1462990950001,-89.361262008,188,"122 N MCLEAN, LINCOLN, IL, 62656","Match","Non_Exact","122 N MCLEAN ST, LINCOLN, IL, 62656",22446284,"R"
38189,"122 N MONROE ST","BROOKFIELD","MO",64628,39.7873577400001,-93.0693742019999,189,"122 N MONROE ST, BROOKFIELD, MO, 64628","Match","Exact","122 N MONROE ST, BROOKFIELD, MO, 64628",25594936,"R"
38190,"122 N O CONNELL AVE","SPRINGFIELD","MN",56087,44.2402450480001,-94.977628298,190,"122 N O CONNELL AVE, SPRINGFIELD, MN, 56087","Match","Non_Exact","122 N O'CONNELL AVE, SPRINGFIELD, MN, 56087",28570251,"L"
38191,"122 N UPPER ST","LEXINGTON","KY",40507,38.048477002,-84.496031925,191,"122 N UPPER ST, LEXINGTON, KY, 40507","Match","Exact","122 N UPPER ST, LEXINGTON, KY, 40507",31921776,"R"
38192,"122 N VALE STREET C","JEFFERSON","TX",75657,NA,NA,192,"122 N VALE STREET C, JEFFERSON, TX, 75657","Tie",NA,NA,NA,NA
38193,"122 N VINCENT STREET","BALTIMORE","MD",21223,39.2903344170001,-76.643217997,193,"122 N VINCENT STREET, BALTIMORE, MD, 21223","Match","Exact","122 N VINCENT ST, BALTIMORE, MD, 21223",206417450,"L"
38194,"122 N YORK RD","HATBORO","PA",19040,40.1801944950001,-75.105382392,194,"122 N YORK RD, HATBORO, PA, 19040","Match","Exact","122 N YORK RD, HATBORO, PA, 19040",135080356,"R"
38195,"122 NAVAHO TRAIL","HUNTSVILLE","AL",35806,34.7766351970001,-86.692311424,195,"122 NAVAHO TRAIL, HUNTSVILLE, AL, 35806","Match","Exact","122 NAVAHO TRL, HUNTSVILLE, AL, 35806",58136609,"R"
38196,"122 NE 78TH STREET","MIAMI","FL",33138,25.84639953,-80.194763388,196,"122 NE 78TH STREET, MIAMI, FL, 33138","Match","Exact","122 NE 78TH ST, MIAMI, FL, 33138",116288709,"R"
38197,"122 NORTH MAIN STREE SUITE A","EL DORADO SPRINGS","MO",64744,37.8770591210001,-94.0215705529999,197,"122 NORTH MAIN STREE SUITE A, EL DORADO SPRINGS, MO, 64744","Match","Non_Exact","122 N MAIN ST, EL DORADO SPRINGS, MO, 64744",44897801,"L"
38198,"122 NORTH MAIN STREET","FREDERICKTOWN","MO",63645,37.560399273,-90.294427958,198,"122 NORTH MAIN STREET, FREDERICKTOWN, MO, 63645","Match","Exact","122 N MAIN ST, FREDERICKTOWN, MO, 63645",35281428,"L"
38199,"122 NORTH WASHINGTON AVENUE","GREENVILLE","SC",29611,34.8385609630001,-82.4425736009999,199,"122 NORTH WASHINGTON AVENUE, GREENVILLE, SC, 29611","Match","Exact","122 N WASHINGTON AVE, GREENVILLE, SC, 29611",38296668,"R"
38200,"122 NW 17TH PLACE","MIAMI","FL",33125,25.774838157,-80.224383672,200,"122 NW 17TH PLACE, MIAMI, FL, 33125","Match","Exact","122 NW 17TH PL, MIAMI, FL, 33125",116016343,"L"
38201,"122 OLD LARGO ROAD","LARGO","MD",20708,38.8965738150001,-76.829862167,201,"122 OLD LARGO ROAD, LARGO, MD, 20708","Match","Non_Exact","122 OLD LARGO RD, LARGO, MD, 20774",76381544,"R"
38202,"122 OWEN AVE","LANSDOWNE","PA",19050,39.94242912,-75.2749227849999,202,"122 OWEN AVE, LANSDOWNE, PA, 19050","Match","Exact","122 OWEN AVE, LANSDOWNE, PA, 19050",134877894,"L"
38203,"122 PARK STREET UNIT 2","MEDFORD","MA",2155,42.4187688700001,-71.0987307039999,203,"122 PARK STREET UNIT 2, MEDFORD, MA, 2155","Match","Exact","122 PARK ST, MEDFORD, MA, 02155",86859189,"L"
38204,"122 PARKWAY DRIVE","FAIRBURN","GA",30213,33.588090048,-84.598901145,204,"122 PARKWAY DRIVE, FAIRBURN, GA, 30213","Match","Exact","122 PARKWAY DR, FAIRBURN, GA, 30213",627548725,"L"
38205,"122 PENDERBROOK CT","STEPHENS CITY","VA",22655,39.102114413,-78.164763079,205,"122 PENDERBROOK CT, STEPHENS CITY, VA, 22655","Match","Exact","122 PENDERBROOK CT, STEPHENS CITY, VA, 22655",617909111,"R"
38206,"122 PIPEMAKERS CIRCLE SUITE 202","POOLER","GA",31322,32.129657787,-81.25285243,206,"122 PIPEMAKERS CIRCLE SUITE 202, POOLER, GA, 31322","Match","Exact","122 PIPEMAKERS CIR, POOLER, GA, 31322",634593264,"R"
38207,"122 PLANE ST   APT 4B","BOONTON","NJ",7005,40.90428289,-74.410187037,207,"122 PLANE ST   APT 4B, BOONTON, NJ, 7005","Match","Exact","122 PLANE ST, BOONTON, NJ, 07005",60494550,"L"
38208,"122 PROFESSIONAL PARK","BECKLEY","WV",25801,37.7947749750001,-81.172326809,208,"122 PROFESSIONAL PARK, BECKLEY, WV, 25801","Match","Exact","122 PROFESSIONAL PARK, BECKLEY, WV, 25801",78825685,"R"
38209,"122 PROSPECT STREET - APARTMENT 1","ROSELLE","NJ",7203,40.66224206,-74.245170886,209,"122 PROSPECT STREET - APARTMENT 1, ROSELLE, NJ, 7203","Match","Exact","122 PROSPECT ST, ROSELLE, NJ, 07203",60576791,"R"
38210,"122 PUBLIC SQUARE NORTH","SHELBYVILLE","TN",37160,35.483460101,-86.460192306,210,"122 PUBLIC SQUARE NORTH, SHELBYVILLE, TN, 37160","Match","Exact","122 PUBLIC SQ N, SHELBYVILLE, TN, 37160",58850099,"L"
38211,"122 RADFORD STREET","STATEN ISLAND","NY",10314,40.5907213150001,-74.161735914,211,"122 RADFORD STREET, STATEN ISLAND, NY, 10314","Match","Exact","122 RADFORD ST, STATEN ISLAND, NY, 10314",59883434,"R"
38212,"122 REGENCY ROAD","MOORESVILLE","NC",28117,35.5741420030001,-80.886154161,212,"122 REGENCY ROAD, MOORESVILLE, NC, 28117","Match","Exact","122 REGENCY RD, MOORESVILLE, NC, 28117",45991146,"L"
38213,"122 RIDGE ROAD","CHOCOWINITY","NC",27817,35.502250684,-77.048738073,213,"122 RIDGE ROAD, CHOCOWINITY, NC, 27817","Match","Exact","122 RIDGE RD, CHOCOWINITY, NC, 27817",67962026,"R"
38214,"122 ROCKPORT DR","MCDONOUGH","GA",30253,33.5140107010001,-84.181959348,214,"122 ROCKPORT DR, MCDONOUGH, GA, 30253","Match","Exact","122 ROCKPORT DR, MCDONOUGH, GA, 30253",23202983,"R"
38215,"122 ROUND PRAIRIE RD","HUNTSVILLE","TX",77320,30.8522640620001,-95.765235352,215,"122 ROUND PRAIRIE RD, HUNTSVILLE, TX, 77320","Match","Exact","122 ROUND PRAIRIE RD, HUNTSVILLE, TX, 77320",22211143,"L"
38216,"122 ROUTE 139 PO BOX 92","LINCOLNDALE","NY",10540,NA,NA,216,"122 ROUTE 139 PO BOX 92, LINCOLNDALE, NY, 10540","No_Match",NA,NA,NA,NA
38217,"122 S CHESTNUT ST","KIMBALL","NE",69145,NA,NA,217,"122 S CHESTNUT ST, KIMBALL, NE, 69145","Tie",NA,NA,NA,NA
38218,"122 S DIVISION ST","SALISBURY","MD",21801,38.365323,-75.6006576729999,218,"122 S DIVISION ST, SALISBURY, MD, 21801","Match","Exact","122 S DIVISION ST, SALISBURY, MD, 21801",114452372,"L"
38219,"122 S HOPKINS ST","SAYRE","PA",18840,41.9818618640001,-76.5249332189999,219,"122 S HOPKINS ST, SAYRE, PA, 18840","Match","Exact","122 S HOPKINS ST, SAYRE, PA, 18840",176972667,"L"
38220,"122 S MAIN ST","ENTERPRISE","AL",36330,31.3109347170001,-85.851092232,220,"122 S MAIN ST, ENTERPRISE, AL, 36330","Match","Exact","122 S MAIN ST, ENTERPRISE, AL, 36330",99549746,"R"
38221,"122 S MAIN STREET","BENTONVILLE","AR",72712,36.372068734,-94.208859984,221,"122 S MAIN STREET, BENTONVILLE, AR, 72712","Match","Exact","122 S MAIN ST, BENTONVILLE, AR, 72712",47832159,"R"
38222,"122 S MAIN STREET","FIRTH","ID",83236,NA,NA,222,"122 S MAIN STREET, FIRTH, ID, 83236","No_Match",NA,NA,NA,NA
38223,"122 S MERIDIAN STREET","WINCHESTER","IN",47394,40.172281845,-84.9824969479999,223,"122 S MERIDIAN STREET, WINCHESTER, IN, 47394","Match","Exact","122 S MERIDIAN ST, WINCHESTER, IN, 47394",31210430,"L"
38224,"122 S MICHIGAN AVE SUITE 1220","CHICAGO","IL",60603,41.8799279580001,-87.624437082,224,"122 S MICHIGAN AVE SUITE 1220, CHICAGO, IL, 60603","Match","Non_Exact","122 S MICHIGAN AVE, CHICAGO, IL, 60603",637917112,"R"
38225,"122 S PENNELL ROAD","MEDAI","PA",19063,39.90470559,-75.440073954,225,"122 S PENNELL ROAD, MEDAI, PA, 19063","Match","Non_Exact","122 S PENNELL RD, MEDIA, PA, 19063",651217712,"R"
38226,"122 S TERRACE AVE","COLUMBUS","OH",43204,39.9525738730001,-83.066546479,226,"122 S TERRACE AVE, COLUMBUS, OH, 43204","Match","Exact","122 S TERRACE AVE, COLUMBUS, OH, 43204",135567132,"L"
38227,"122 S WALNUT STREET","ARTHUR","IL",61911,39.716640989,-88.473468775,227,"122 S WALNUT STREET, ARTHUR, IL, 61911","Match","Exact","122 S WALNUT ST, ARTHUR, IL, 61911",5817188,"R"
38228,"122 SALLY LANE","BROWNSVILLE","TX",78526,25.975288462,-97.442801373,228,"122 SALLY LANE, BROWNSVILLE, TX, 78526","Match","Exact","122 SALLY LN, BROWNSVILLE, TX, 78526",89981888,"R"
38229,"122 SARATOGA BLVD WEST","ROYAL PALM BEACH","FL",33411,26.7269400660001,-80.242263653,229,"122 SARATOGA BLVD WEST, ROYAL PALM BEACH, FL, 33411","Match","Exact","122 SARATOGA BLVD W, ROYAL PALM BEACH, FL, 33411",115349856,"R"
38230,"122 SCARBOROUGH ST","LAKE PROVIDENCE","LA",71254,32.803969355,-91.171369119,230,"122 SCARBOROUGH ST, LAKE PROVIDENCE, LA, 71254","Match","Exact","122 SCARBOROUGH ST, LAKE PROVIDENCE, LA, 71254",71147571,"R"
38231,"122 SEAN CIR","COVENTRY","CT",6238,NA,NA,231,"122 SEAN CIR, COVENTRY, CT, 6238","No_Match",NA,NA,NA,NA
38232,"122 SEAN CIRCLE","COVENTRY","CT",6238,NA,NA,232,"122 SEAN CIRCLE, COVENTRY, CT, 6238","No_Match",NA,NA,NA,NA
38233,"122 SEWALL ROAD","BRIDGETON","NJ",8302,39.4555140030001,-75.2604478929999,233,"122 SEWALL ROAD, BRIDGETON, NJ, 8302","Match","Exact","122 SEWALL RD, BRIDGETON, NJ, 08302",174107376,"R"
38234,"122 SHADY HEIGHTS ESTS ROAD","CHILDERSBURG","AL",35044,33.323406311,-86.296428593,234,"122 SHADY HEIGHTS ESTS ROAD, CHILDERSBURG, AL, 35044","Match","Non_Exact","122 SHADY HEIGHTS EST, CHILDERSBURG, AL, 35044",66985588,"L"
38235,"122 SHININGFIELD CT","BALTIMORE","MD",21220,39.35608768,-76.435744001,235,"122 SHININGFIELD CT, BALTIMORE, MD, 21220","Match","Exact","122 SHININGFIELD CT, BALTIMORE, MD, 21220",650514614,"R"
38236,"122 SIDNEY DRIVE","MT STERLING","KY",40353,38.0646013690001,-83.939307055,236,"122 SIDNEY DRIVE, MT STERLING, KY, 40353","Match","Exact","122 SIDNEY DR, MT STERLING, KY, 40353",32034191,"R"
38237,"122 SMOKEHOUSE FARMS DRIVE","GREENVILLE","FL",32331,30.5764394390001,-83.716285349,237,"122 SMOKEHOUSE FARMS DRIVE, GREENVILLE, FL, 32331","Match","Exact","122 SMOKEHOUSE FARMS DR, GREENVILLE, FL, 32331",633564008,"L"
38238,"122 SOUTH CENTRAL","EUREKA","MO",63025,38.5027023260001,-90.627974004,238,"122 SOUTH CENTRAL, EUREKA, MO, 63025","Match","Non_Exact","122 S CENTRAL AVE, EUREKA, MO, 63025",618222213,"L"
38239,"122 SOUTH LINN STREET","IOWA CITY","IA",52240,41.6598010050001,-91.5316395469999,239,"122 SOUTH LINN STREET, IOWA CITY, IA, 52240","Match","Exact","122 S LINN ST, IOWA CITY, IA, 52240",84495486,"L"
38240,"122 SOUTH MATLACK STREET","WEST CHESTER","PA",19382,39.959897975,-75.60071981,240,"122 SOUTH MATLACK STREET, WEST CHESTER, PA, 19382","Match","Exact","122 S MATLACK ST, WEST CHESTER, PA, 19382",179490854,"R"
38241,"122 SOUTH MIAMI AVE","MIAMI","FL",33130,25.773231933,-80.1935894549999,241,"122 SOUTH MIAMI AVE, MIAMI, FL, 33130","Match","Exact","122 S MIAMI AVE, MIAMI, FL, 33130",116018411,"R"
38242,"122 SOUTH OAKLAND STREET","GASTONIA","NC",28052,35.263384446,-81.180053937,242,"122 SOUTH OAKLAND STREET, GASTONIA, NC, 28052","Match","Exact","122 S OAKLAND ST, GASTONIA, NC, 28052",70379337,"L"
38243,"122 SOUTHWIND DRIVE","KATHLEEN","GA",31047,32.53003098,-83.654909872,243,"122 SOUTHWIND DRIVE, KATHLEEN, GA, 31047","Match","Exact","122 SOUTHWIND DR, KATHLEEN, GA, 31047",647588250,"R"
38244,"122 STABLEWOOD CT","BOERNE","TX",78006,29.7542097640001,-98.7116341129999,244,"122 STABLEWOOD CT, BOERNE, TX, 78006","Match","Exact","122 STABLEWOOD CT, BOERNE, TX, 78006",651859173,"L"
38245,"122 STATE SCHOOL RD","WARWICK","NY",10990,41.2727338810001,-74.302778007,245,"122 STATE SCHOOL RD, WARWICK, NY, 10990","Match","Exact","122 STATE SCHOOL RD, WARWICK, NY, 10990",124462341,"R"
38246,"122 STEAMBOAT WAY","PISCATAWAY","NJ",8854,40.572996672,-74.4400264659999,246,"122 STEAMBOAT WAY, PISCATAWAY, NJ, 8854","Match","Exact","122 STEAMBOAT WAY, PISCATAWAY, NJ, 08854",641733663,"L"
38247,"122 STEWART AVE","BECKLEY","WV",25801,37.7833811960001,-81.200068814,247,"122 STEWART AVE, BECKLEY, WV, 25801","Match","Exact","122 STEWART AVE, BECKLEY, WV, 25801",78817363,"L"
38248,"122 STRATHMOOR DRIVE","BERKELEY","CA",94705,37.862283103,-122.226168784,248,"122 STRATHMOOR DRIVE, BERKELEY, CA, 94705","Match","Exact","122 STRATHMOOR DR, BERKELEY, CA, 94705",124999878,"L"
38249,"122 SUMMIT AVENUE","SAINT LOUIS","MO",63119,38.593718462,-90.340934621,249,"122 SUMMIT AVENUE, SAINT LOUIS, MO, 63119","Match","Exact","122 SUMMIT AVE, SAINT LOUIS, MO, 63119",100141119,"R"
38250,"122 SUNNY KNOLLS LN","SCHOHARIE","NY",12157,42.675369028,-74.350309656,250,"122 SUNNY KNOLLS LN, SCHOHARIE, NY, 12157","Match","Exact","122 SUNNY KNOLLS LN, SCHOHARIE, NY, 12157",635642718,"R"
38251,"122 SURREY CIRCLE","TIFTON","GA",31793,31.4191764400001,-83.528542095,251,"122 SURREY CIRCLE, TIFTON, GA, 31793","Match","Exact","122 SURREY CIR, TIFTON, GA, 31793",641775582,"L"
38252,"122 SUZANNE DR","SHREVEPORT","LA",71115,32.42327864,-93.700408234,252,"122 SUZANNE DR, SHREVEPORT, LA, 71115","Match","Exact","122 SUZANNE DR, SHREVEPORT, LA, 71115",57442037,"R"
38253,"122 SW 4TH AVE","BOYNTON BEACH","FL",33435,26.523704928,-80.06436359,253,"122 SW 4TH AVE, BOYNTON BEACH, FL, 33435","Match","Exact","122 SW 4TH AVE, BOYNTON BEACH, FL, 33435",115296111,"L"
38254,"122 THIRD AVENUE N W","WASECA","MN",56093,44.0794773470001,-93.5081705859999,254,"122 THIRD AVENUE N W, WASECA, MN, 56093","Match","Exact","122 3RD AVE NW, WASECA, MN, 56093",28729559,"R"
38255,"122 TIMBERLANE","SAN ANTONIO","TX",78209,29.4878197520001,-98.431685945,255,"122 TIMBERLANE, SAN ANTONIO, TX, 78209","Match","Non_Exact","122 TIMBERLANE DR, SAN ANTONIO, TX, 78209",101530195,"R"
38256,"122 TORREY ROAD","WAKEFIELD","RI",2879,41.466844543,-71.45809637,256,"122 TORREY ROAD, WAKEFIELD, RI, 2879","Match","Exact","122 TORREY RD, WAKEFIELD, RI, 02879",58906470,"R"
38257,"122 TOWER RD","FLAT TOP","WV",25841,37.589896842,-81.108364291,257,"122 TOWER RD, FLAT TOP, WV, 25841","Match","Exact","122 TOWER RD, FLAT TOP, WV, 25841",47702280,"R"
38258,"122 TREEHAVEN STREET","GAITHERSBURG","MD",20878,39.120458935,-77.242670289,258,"122 TREEHAVEN STREET, GAITHERSBURG, MD, 20878","Match","Exact","122 TREEHAVEN ST, GAITHERSBURG, MD, 20878",62092787,"R"
38259,"122 UNION SQUARE DRIVE","NEW HOPE","PA",18938,NA,NA,259,"122 UNION SQUARE DRIVE, NEW HOPE, PA, 18938","No_Match",NA,NA,NA,NA
38260,"122 W 131 STREET APT 3","NEW YORK","NY",10027,40.8125020680001,-73.944972965,260,"122 W 131 STREET APT 3, NEW YORK, NY, 10027","Match","Non_Exact","122 W 131ST ST, NEW YORK, NY, 10027",642471982,"L"
38261,"122 W 155TH PL","HARVEY","IL",60426,41.6071795390001,-87.6641676149999,261,"122 W 155TH PL, HARVEY, IL, 60426","Match","Exact","122 W 155TH PL, HARVEY, IL, 60426",605648715,"L"
38262,"122 W 8TH STREET","ANDERSON","IN",46016,40.1078942560001,-85.680878191,262,"122 W 8TH STREET, ANDERSON, IN, 46016","Match","Exact","122 W 8TH ST, ANDERSON, IN, 46016",31114223,"R"
38263,"122 W BALL RD","ANAHEIM","CA",92805,33.8180729970001,-117.909180709,263,"122 W BALL RD, ANAHEIM, CA, 92805","Match","Exact","122 W BALL RD, ANAHEIM, CA, 92805",144027220,"L"
38264,"122 W CAMERON STREET","CULPEPER","VA",22701,38.474184006,-77.996703038,264,"122 W CAMERON STREET, CULPEPER, VA, 22701","Match","Exact","122 W CAMERON ST, CULPEPER, VA, 22701",638813932,"R"
38265,"122 W COLLEGE STREET","SCIO","OH",43988,NA,NA,265,"122 W COLLEGE STREET, SCIO, OH, 43988","Tie",NA,NA,NA,NA
38266,"122 W HIGH ST","ELIZABETHTOWN","PA",17022,40.1507842830001,-76.607812912,266,"122 W HIGH ST, ELIZABETHTOWN, PA, 17022","Match","Exact","122 W HIGH ST, ELIZABETHTOWN, PA, 17022",179685907,"R"
38267,"122 W MAIN ST","LARIMORE","ND",58251,47.9056998770001,-97.624181617,267,"122 W MAIN ST, LARIMORE, ND, 58251","Match","Exact","122 W MAIN ST, LARIMORE, ND, 58251",171285453,"L"
38268,"122 W POINT TRL","WOODSTOCK","GA",30189,34.117796325,-84.556791663,268,"122 W POINT TRL, WOODSTOCK, GA, 30189","Match","Exact","122 W POINT TRL, WOODSTOCK, GA, 30189",635521718,"R"
38269,"122 W RIDGE CIR","MAYER","MN",55360,44.8856125950001,-93.8845868769999,269,"122 W RIDGE CIR, MAYER, MN, 55360","Match","Exact","122 W RIDGE CIR, MAYER, MN, 55360",43500501,"L"
38270,"122 W SPRING","MARQUETTE","MI",49855,46.541687821,-87.394026917,270,"122 W SPRING, MARQUETTE, MI, 49855","Match","Non_Exact","122 W SPRING ST, MARQUETTE, MI, 49855",642514562,"R"
38271,"122 WAGLEY LN","OPELOUSAS","LA",70570,30.558217126,-92.071680288,271,"122 WAGLEY LN, OPELOUSAS, LA, 70570","Match","Exact","122 WAGLEY LN, OPELOUSAS, LA, 70570",106451499,"L"
38272,"122 WASHINGTON ST","CANAL WINCHESTER","OH",43110,39.8401677690001,-82.808916358,272,"122 WASHINGTON ST, CANAL WINCHESTER, OH, 43110","Match","Exact","122 WASHINGTON ST, CANAL WINCHESTER, OH, 43110",218639588,"R"
38273,"122 WEBSTER AVENUE","LAKE RONKONKOMA","NY",11779,40.84651067,-73.1004765769999,273,"122 WEBSTER AVENUE, LAKE RONKONKOMA, NY, 11779","Match","Exact","122 WEBSTER AVE, LAKE RONKONKOMA, NY, 11779",647311341,"R"
38274,"122 WELLINGTON CIRCLE","OAK RIDGE","TN",37830,36.018123389,-84.292425456,274,"122 WELLINGTON CIRCLE, OAK RIDGE, TN, 37830","Match","Exact","122 WELLINGTON CIR, OAK RIDGE, TN, 37830",90128219,"L"
38275,"122 WESLEY LN","COATESVILLE","PA",19320,39.986523977,-75.837029881,275,"122 WESLEY LN, COATESVILLE, PA, 19320","Match","Exact","122 WESLEY LN, COATESVILLE, PA, 19320",179558128,"L"
38276,"122 WEST 228TH ST","BRONX","NY",10463,40.876644798,-73.908497483,276,"122 WEST 228TH ST, BRONX, NY, 10463","Match","Exact","122 W 228TH ST, BRONX, NY, 10463",59654944,"L"
38277,"122 WEST 4TH STREET","LIMA","OH",45804,40.7167771360001,-84.1066051449999,277,"122 WEST 4TH STREET, LIMA, OH, 45804","Match","Exact","122 W 4TH ST, LIMA, OH, 45804",209547955,"R"
38278,"122 WEST MILTON AVENUE","RAHWAY","NJ",7065,40.606267976,-74.279983822,278,"122 WEST MILTON AVENUE, RAHWAY, NJ, 7065","Match","Exact","122 W MILTON AVE, RAHWAY, NJ, 07065",60562459,"L"
38279,"122 WEST STREET 4I","BROOKLYN","NY",11222,40.731087175,-73.959457071,279,"122 WEST STREET 4I, BROOKLYN, NY, 11222","Match","Exact","122 WEST ST, BROOKLYN, NY, 11222",59075873,"R"
38280,"122 WEST VERNON AVE","WAKE FOREST","NC",27587,35.973823113,-78.515261375,280,"122 WEST VERNON AVE, WAKE FOREST, NC, 27587","Match","Exact","122 W VERNON AVE, WAKE FOREST, NC, 27587",208375948,"R"
38281,"122 WESTERN AVE BOX 127","LOWELL","MA",1851,42.6401670970001,-71.3196541189999,281,"122 WESTERN AVE BOX 127, LOWELL, MA, 1851","Match","Exact","122 WESTERN AVE, LOWELL, MA, 01851",87173555,"L"
38282,"122 WESTON COURT","BLUFFTON","SC",29910,32.2581641040001,-80.955792839,282,"122 WESTON COURT, BLUFFTON, SC, 29910","Match","Exact","122 WESTON CT, BLUFFTON, SC, 29910",638642602,"R"
38283,"122 WEXFORD CT","DEPTFORD","NJ",8096,39.817364555,-75.1114606,283,"122 WEXFORD CT, DEPTFORD, NJ, 8096","Match","Exact","122 WEXFORD CT, DEPTFORD, NJ, 08096",134585437,"R"
38284,"122 WHITAKER ROAD","ROCKY MOUNT","NY",27801,NA,NA,284,"122 WHITAKER ROAD, ROCKY MOUNT, NY, 27801","No_Match",NA,NA,NA,NA
38285,"122 WINFIELD SCHOOL RD","FAIRMONT","WV",26554,39.4808322910001,-80.083495434,285,"122 WINFIELD SCHOOL RD, FAIRMONT, WV, 26554","Match","Exact","122 WINFIELD SCHOOL RD, FAIRMONT, WV, 26554",51463247,"R"
38286,"122 WINFIELD SCHOOL ROAD","FAIRMONT","WV",26554,39.4808322910001,-80.083495434,286,"122 WINFIELD SCHOOL ROAD, FAIRMONT, WV, 26554","Match","Exact","122 WINFIELD SCHOOL RD, FAIRMONT, WV, 26554",51463247,"R"
38287,"122 WINTERBELL DRIVE","MOORESVILLE","NC",28115,35.608683183,-80.7783134539999,287,"122 WINTERBELL DRIVE, MOORESVILLE, NC, 28115","Match","Exact","122 WINTERBELL DR, MOORESVILLE, NC, 28115",46032635,"R"
38288,"122 WISCONSIN AVE","EAST DUBUQUE","IL",61025,42.4924809140001,-90.642413574,288,"122 WISCONSIN AVE, EAST DUBUQUE, IL, 61025","Match","Exact","122 WISCONSIN AVE, EAST DUBUQUE, IL, 61025",27736376,"R"
38289,"122 WOLF DR","ALLENTOWN","PA",18104,40.575139409,-75.579640699,289,"122 WOLF DR, ALLENTOWN, PA, 18104","Match","Exact","122 WOLF DR, ALLENTOWN, PA, 18104",80787160,"L"
38290,"122 WOODLAND AVENUE","LEXINGTON","KY",40502,38.0386429610001,-84.49016632,290,"122 WOODLAND AVENUE, LEXINGTON, KY, 40502","Match","Exact","122 WOODLAND AVE, LEXINGTON, KY, 40502",652742375,"L"
38291,"122 YANCEY STREET","LAKESIDE PARK","KY",41017,39.029475312,-84.568730121,291,"122 YANCEY STREET, LAKESIDE PARK, KY, 41017","Match","Non_Exact","122 YANCEY LN, LAKESIDE PARK, KY, 41017",103875218,"R"
38292,"122 ZUCKERMAN AVE APT B","FORT BENNING","GA",31905,32.355712388,-84.953603462,292,"122 ZUCKERMAN AVE APT B, FORT BENNING, GA, 31905","Match","Exact","122 ZUCKERMAN AVE, FORT BENNING, GA, 31905",76776161,"R"
38293,"122-15 BEACH CHANNEL DRIVE","ROCKAWAY PARK","NY",11694,40.5814892540001,-73.8443262069999,293,"122-15 BEACH CHANNEL DRIVE, ROCKAWAY PARK, NY, 11694","Match","Exact","122-15 BEACH CHANNEL DR, ROCKAWAY PARK, NY, 11694",59709424,"L"
38294,"122-22 103 AVE","RICHMOND HILL","NY",11419,40.688619089,-73.822648208,294,"122-22 103 AVE, RICHMOND HILL, NY, 11419","Match","Non_Exact","122 103RD AVE, SOUTH RICHMOND HILL, NY, 11419",59712881,"R"
38295,"122-7 CRESTVIEW TERRACE","BRIDGEPORT","WV",26330,39.303090626,-80.266332388,295,"122-7 CRESTVIEW TERRACE, BRIDGEPORT, WV, 26330","Match","Exact","122 CRESTVIEW TER, BRIDGEPORT, WV, 26330",624259732,"R"
38296,"122-A OLIVE BRANCH DRIVE","YOUNGSVILLE","LA",70592,30.1393767600001,-92.0164858749999,296,"122-A OLIVE BRANCH DRIVE, YOUNGSVILLE, LA, 70592","Match","Exact","122 OLIVE BRANCH DR, YOUNGSVILLE, LA, 70592",85638550,"R"
38297,"122","HONAUNAU","HI",96726,NA,NA,297,"122, HONAUNAU, HI, 96726","No_Match",NA,NA,NA,NA
38298,"122","LOS ALAMITOS","CA",90720,NA,NA,298,"122, LOS ALAMITOS, CA, 90720","No_Match",NA,NA,NA,NA
38299,"1220 16TH AVENUE","BLOOMER","WI",54724,45.100720983,-91.487846903,299,"1220 16TH AVENUE, BLOOMER, WI, 54724","Match","Exact","1220 16TH AVE, BLOOMER, WI, 54724",78917883,"L"
38300,"1220 16TH ST S","BIRMINGHAM","AL",35205,33.4961298260001,-86.8015547269999,300,"1220 16TH ST S, BIRMINGHAM, AL, 35205","Match","Exact","1220 16TH ST S, BIRMINGHAM, AL, 35205",81576611,"R"
38301,"1220 39TH STREET","DOWNERS GROVE","IL",60515,41.8167202830001,-88.015787126,301,"1220 39TH STREET, DOWNERS GROVE, IL, 60515","Match","Exact","1220 39TH ST, DOWNERS GROVE, IL, 60515",112702304,"R"
38302,"1220 6TH STREET","MANHATTAN BEACH","CA",90266,33.8828002120001,-118.393280631,302,"1220 6TH STREET, MANHATTAN BEACH, CA, 90266","Match","Exact","1220 6TH ST, MANHATTAN BEACH, CA, 90266",141582488,"R"
38303,"1220 9TH STREET","SACRAMENTO","CA",95814,38.5783295350001,-121.495828631,303,"1220 9TH STREET, SACRAMENTO, CA, 95814","Match","Exact","1220 9TH ST, SACRAMENTO, CA, 95814",133421582,"R"
38304,"1220 ACREDALE DRIVE","FLORISSANT","MO",63033,38.773979669,-90.297624201,304,"1220 ACREDALE DRIVE, FLORISSANT, MO, 63033","Match","Exact","1220 ACREDALE DR, FLORISSANT, MO, 63033",100145074,"R"
38305,"1220 AIRWAY BLVD","EL PASO","TX",79925,31.782443834,-106.394453333,305,"1220 AIRWAY BLVD, EL PASO, TX, 79925","Match","Exact","1220 AIRWAY BLVD, EL PASO, TX, 79925",189422195,"R"
38306,"1220 AMBLE LANE","CLEARWATER","FL",33755,27.9785850700001,-82.7642172339999,306,"1220 AMBLE LANE, CLEARWATER, FL, 33755","Match","Exact","1220 AMBLE LN, CLEARWATER, FL, 33755",124669417,"L"
38307,"1220 APPLECROSS DRIVE","NASHVILLE","TN",37220,36.0552468760001,-86.7506067739999,307,"1220 APPLECROSS DRIVE, NASHVILLE, TN, 37220","Match","Exact","1220 APPLECROSS DR, NASHVILLE, TN, 37220",97221246,"R"
38308,"1220 ARIANNA ST NW","GRAND RAPIDS","MI",49504,42.988268255,-85.698529422,308,"1220 ARIANNA ST NW, GRAND RAPIDS, MI, 49504","Match","Exact","1220 ARIANNA ST NW, GRAND RAPIDS, MI, 49504",12455486,"L"
38309,"1220 ARKWOOD AVENUE","COLUMBUS","OH",43227,39.9481654800001,-82.896084289,309,"1220 ARKWOOD AVENUE, COLUMBUS, OH, 43227","Match","Exact","1220 ARKWOOD AVE, COLUMBUS, OH, 43227",218647508,"L"
38310,"1220 BASIN BROOK DR","NORTH LAS VEGAS","NV",89032,36.2223196040001,-115.158839113,310,"1220 BASIN BROOK DR, NORTH LAS VEGAS, NV, 89032","Match","Exact","1220 BASIN BROOK DR, N LAS VEGAS, NV, 89032",201916142,"R"
38311,"1220 BATON DRIVE","DELTONA","FL",32725,28.9047060670001,-81.2399442029999,311,"1220 BATON DRIVE, DELTONA, FL, 32725","Match","Exact","1220 BATON DR, DELTONA, FL, 32725",94502706,"R"
38312,"1220 BLAIR MILL ROAD 601","SILVER SPRING","MD",20910,38.9900099050001,-77.029757449,312,"1220 BLAIR MILL ROAD 601, SILVER SPRING, MD, 20910","Match","Exact","1220 BLAIR MILL RD, SILVER SPRING, MD, 20910",630443981,"L"
38313,"1220 BLAIRFIELD DRIVE","ANTIOCH","TN",37013,36.0211883480001,-86.6529854939999,313,"1220 BLAIRFIELD DRIVE, ANTIOCH, TN, 37013","Match","Exact","1220 BLAIRFIELD DR, ANTIOCH, TN, 37013",624799854,"R"
38314,"1220 BROAD STREET","GREENWOOD","MS",38930,33.5112845090001,-90.160284896,314,"1220 BROAD STREET, GREENWOOD, MS, 38930","Match","Exact","1220 BROAD ST, GREENWOOD, MS, 38930",1048876,"L"
38315,"1220 BROOKFIELD DRIVE","LONGMONT","CO",80501,40.141090336,-105.110716944,315,"1220 BROOKFIELD DRIVE, LONGMONT, CO, 80501","Match","Exact","1220 BROOKFIELD DR, LONGMONT, CO, 80501",188223061,"R"
38316,"1220 BUCKINGHAM DRIVE","FAIRBURN","GA",30213,33.5626767410001,-84.609412952,316,"1220 BUCKINGHAM DRIVE, FAIRBURN, GA, 30213","Match","Exact","1220 BUCKINGHAM DR, FAIRBURN, GA, 30213",637372717,"L"
38317,"1220 CADILLAC DRIVE","DAYTONA BEACH","FL",32117,29.22414071,-81.063896778,317,"1220 CADILLAC DRIVE, DAYTONA BEACH, FL, 32117","Match","Exact","1220 CADILLAC DR, DAYTONA BEACH, FL, 32117",94522492,"L"
38318,"1220 CALIFORNIA AVENUE","JOLIET","IL",60432,41.547798738,-88.0557739769999,318,"1220 CALIFORNIA AVENUE, JOLIET, IL, 60432","Match","Exact","1220 CALIFORNIA AVE, JOLIET, IL, 60432",111545881,"R"
38319,"1220 CENTRAL AVE","NEBRASKA CITY","NE",68410,40.676693184,-95.8605112339999,319,"1220 CENTRAL AVE, NEBRASKA CITY, NE, 68410","Match","Exact","1220 CENTRAL AVE, NEBRASKA CITY, NE, 68410",10394798,"R"
38320,"1220 CHOPSEY HILL RD","BRIDGEPORT","CT",6606,41.217705822,-73.202455985,320,"1220 CHOPSEY HILL RD, BRIDGEPORT, CT, 6606","Match","Exact","1220 CHOPSEY HILL RD, BRIDGEPORT, CT, 06606",624243292,"R"
38321,"1220 CLARK ST","LANSING","MI",48906,42.7470121750001,-84.5321923229999,321,"1220 CLARK ST, LANSING, MI, 48906","Match","Exact","1220 CLARK ST, LANSING, MI, 48906",17499485,"R"
38322,"1220 COLORADO AVE","LYNN HAVEN","FL",32444,30.2400902320001,-85.6362038459999,322,"1220 COLORADO AVE, LYNN HAVEN, FL, 32444","Match","Exact","1220 COLORADO AVE, LYNN HAVEN, FL, 32444",7027518,"R"
38323,"1220 CRENSHAW BLVD","LOS ANGELES","CA",90019,34.0499780420001,-118.325529983,323,"1220 CRENSHAW BLVD, LOS ANGELES, CA, 90019","Match","Exact","1220 CRENSHAW BLVD, LOS ANGELES, CA, 90019",141603676,"L"
38324,"1220 DAMICO DR","CHICAGO HEIGHTS","IL",60411,41.508930579,-87.662352343,324,"1220 DAMICO DR, CHICAGO HEIGHTS, IL, 60411","Match","Exact","1220 DAMICO DR, CHICAGO HEIGHTS, IL, 60411",111711165,"R"
38325,"1220 DELMONT DRIVE","RICHARDSON","TX",75080,32.9492134180001,-96.760016846,325,"1220 DELMONT DRIVE, RICHARDSON, TX, 75080","Match","Exact","1220 DELMONT DR, RICHARDSON, TX, 75080",627516739,"R"
38326,"1220 E 16TH AVENUE UNIT 13","ANCHORAGE","AK",99501,61.2061845750001,-149.86028101,326,"1220 E 16TH AVENUE UNIT 13, ANCHORAGE, AK, 99501","Match","Non_Exact","1220 E 16TH AVE, ANCHORAGE, AK, 99501",190798932,"R"
38327,"1220 E 58TH STREET","SAVANNAH","GA",31404,32.036608474,-81.088173544,327,"1220 E 58TH STREET, SAVANNAH, GA, 31404","Match","Exact","1220 E 58TH ST, SAVANNAH, GA, 31404",6178437,"L"
38328,"1220 E CALDWELL ST","COMPTON","CA",90221,33.8849759820001,-118.208504777,328,"1220 E CALDWELL ST, COMPTON, CA, 90221","Match","Exact","1220 E CALDWELL ST, COMPTON, CA, 90221",141682864,"R"
38329,"1220 E KIEST BLVD","DALLAS","TX",75216,32.7064448190001,-96.806155544,329,"1220 E KIEST BLVD, DALLAS, TX, 75216","Match","Exact","1220 E KIEST BLVD, DALLAS, TX, 75216",103221439,"L"
38330,"1220 E NORTHSIDE DR STE 170","JACKSON","MS",39211,32.355800565,-90.1505671529999,330,"1220 E NORTHSIDE DR STE 170, JACKSON, MS, 39211","Match","Non_Exact","1220 E NORTHSIDE DR, JACKSON, MS, 39211",65373292,"L"
38331,"1220 EAST BRYAN STREET","DOUGLAS","GA",31533,31.506012293,-82.8377283249999,331,"1220 EAST BRYAN STREET, DOUGLAS, GA, 31533","Match","Exact","1220 E BRYAN ST, DOUGLAS, GA, 31533",6928538,"L"
38332,"1220 EAST LINCOLN HIGHWAY","COATESVILLE","PA",19320,39.9869194870001,-75.8010786959999,332,"1220 EAST LINCOLN HIGHWAY, COATESVILLE, PA, 19320","Match","Exact","1220 E LINCOLN HWY, COATESVILLE, PA, 19320",179481488,"R"
38333,"1220 EAST NORTHSIDE DR STE 170/133","JACKSON","MS",39211,32.355800463,-90.150577405,333,"1220 EAST NORTHSIDE DR STE 170/133, JACKSON, MS, 39211","Match","Exact","1220 E NORTHSIDE DR, JACKSON, MS, 39211",65373292,"L"
38334,"1220 EVANS ROAD","AIKEN","SC",29803,33.534143316,-81.734753744,334,"1220 EVANS ROAD, AIKEN, SC, 29803","Match","Exact","1220 EVANS RD, AIKEN, SC, 29803",64991129,"R"
38335,"1220 FERNSIDE DRIVE","LA CANADA FLINTRIDGE","CA",91011,34.209532632,-118.205109179,335,"1220 FERNSIDE DRIVE, LA CANADA FLINTRIDGE, CA, 91011","Match","Exact","1220 FERNSIDE DR, LA CANADA, CA, 91011",141590857,"L"
38336,"1220 FIRST AVE NE MARQUIS HALL 208","CEDAR RAPIDS","IA",52402,NA,NA,336,"1220 FIRST AVE NE MARQUIS HALL 208, CEDAR RAPIDS, IA, 52402","No_Match",NA,NA,NA,NA
38337,"1220 FOGG PIKE","MOUNT STERLING","KY",40353,38.0389694840001,-83.967600154,337,"1220 FOGG PIKE, MOUNT STERLING, KY, 40353","Match","Exact","1220 FOGG PIKE, MT STERLING, KY, 40353",32034017,"R"
38338,"1220 FORT BRAGG ROAD SUITE 200B","FAYETTEVILLE","NC",28305,35.0570055750001,-78.8997058909999,338,"1220 FORT BRAGG ROAD SUITE 200B, FAYETTEVILLE, NC, 28305","Match","Exact","1220 FORT BRAGG RD, FAYETTEVILLE, NC, 28305",64200163,"R"
38339,"1220 FOXPOINT","BRANDON","MS",39047,32.3909138670001,-89.9776470899999,339,"1220 FOXPOINT, BRANDON, MS, 39047","Match","Exact","1220 FOXPOINT, BRANDON, MS, 39047",605250009,"R"
38340,"1220 FRIED MEAT RIDGE ROAD","KEYSER","WV",26726,39.3921966300001,-78.9349252819999,340,"1220 FRIED MEAT RIDGE ROAD, KEYSER, WV, 26726","Match","Exact","1220 FRIED MEAT RIDGE RD, KEYSER, WV, 26726",611606146,"L"
38341,"1220 FUNSTON AVENUE","PACIFIC GROVE","CA",93950,36.6004174770001,-121.93052916,341,"1220 FUNSTON AVENUE, PACIFIC GROVE, CA, 93950","Match","Exact","1220 FUNSTON AVE, PACIFIC GROVE, CA, 93950",196813652,"R"
38342,"1220 G AIRPORT FREEWAY 529","BEDFORD","TX",76022,32.838801593,-97.150545847,342,"1220 G AIRPORT FREEWAY 529, BEDFORD, TX, 76022","Match","Exact","1220 AIRPORT FWY, BEDFORD, TX, 76022",102082993,"R"
38343,"1220 GRACE HADAWAY LANE","LAWRENCEVILLE","GA",30043,34.0049395240001,-83.9631211019999,343,"1220 GRACE HADAWAY LANE, LAWRENCEVILLE, GA, 30043","Match","Non_Exact","1220 GRACE HADAWAY LN NE, LAWRENCEVILLE, GA, 30043",88918985,"L"
38344,"1220 GRANGER DRIVE","ALLEN","TX",75013,NA,NA,344,"1220 GRANGER DRIVE, ALLEN, TX, 75013","No_Match",NA,NA,NA,NA
38345,"1220 GREEN STREET","SELMA","AL",36703,32.41638241,-87.019954817,345,"1220 GREEN STREET, SELMA, AL, 36703","Match","Exact","1220 GREEN ST, SELMA, AL, 36703",1283705,"R"
38346,"1220 HIGHLAND AVENUE NUM 721","DUARTE","CA",91010,34.1393968040001,-117.966601151,346,"1220 HIGHLAND AVENUE NUM 721, DUARTE, CA, 91010","Match","Exact","1220 HIGHLAND AVE, DUARTE, CA, 91010",142843811,"L"
38347,"1220 INDIAN CREEK RD","HOOD RIVER","OR",97031,45.6857963900001,-121.54284257,347,"1220 INDIAN CREEK RD, HOOD RIVER, OR, 97031","Match","Exact","1220 INDIAN CREEK RD, HOOD RIVER, OR, 97031",158139690,"L"
38348,"1220 INDIAN CREEK ROAD","HOOD RIVER","OR",97031,45.6857963900001,-121.54284257,348,"1220 INDIAN CREEK ROAD, HOOD RIVER, OR, 97031","Match","Exact","1220 INDIAN CREEK RD, HOOD RIVER, OR, 97031",158139690,"L"
38349,"1220 INNES AVE APT 2","LOS ANGELES","CA",90026,34.071387058,-118.249288351,349,"1220 INNES AVE APT 2, LOS ANGELES, CA, 90026","Match","Exact","1220 INNES AVE, LOS ANGELES, CA, 90026",638619215,"L"
38350,"1220 IRIS LANE","GRAFTON","WI",53024,43.3633304270001,-87.950396165,350,"1220 IRIS LANE, GRAFTON, WI, 53024","Match","Non_Exact","1220 S IRIS LN, GRAFTON, WI, 53024",95911532,"L"
38351,"1220 JAMES FARM RD","HICKORY","NC",28602,35.655617835,-81.325935323,351,"1220 JAMES FARM RD, HICKORY, NC, 28602","Match","Exact","1220 JAMES FARM RD, HICKORY, NC, 28602",45951136,"R"
38352,"1220 JEFFRIES LN","HUSTONVILLE","KY",40437,37.499440458,-84.7978418869999,352,"1220 JEFFRIES LN, HUSTONVILLE, KY, 40437","Match","Exact","1220 JEFFRIES LN, HUSTONVILLE, KY, 40437",32560393,"R"
38353,"1220 JEPSEN AVE","CORCORAN","CA",93212,36.096661639,-119.56262948,353,"1220 JEPSEN AVE, CORCORAN, CA, 93212","Match","Exact","1220 JEPSEN AVE, CORCORAN, CA, 93212",197969076,"R"
38354,"1220 JOANNE LN","CHAMPAIGN","IL",61821,40.1314515670001,-88.266494242,354,"1220 JOANNE LN, CHAMPAIGN, IL, 61821","Match","Exact","1220 JOANNE LN, CHAMPAIGN, IL, 61821",8808826,"R"
38355,"1220 L ST NW SUITE 100 465","WASHINGTON","DC",20005,38.90373298,-77.028471096,355,"1220 L ST NW SUITE 100 465, WASHINGTON, DC, 20005","Match","Exact","1220 L ST NW, WASHINGTON, DC, 20005",76226124,"L"
38356,"1220 L STREET NW NUMBER 100265","WASHINGTON","DC",20005,38.90373298,-77.028471096,356,"1220 L STREET NW NUMBER 100265, WASHINGTON, DC, 20005","Match","Exact","1220 L ST NW, WASHINGTON, DC, 20005",76226124,"L"
38357,"1220 L STREET NW SUITE 100-111","WASHINGTON","DC",20005,38.90373298,-77.028471096,357,"1220 L STREET NW SUITE 100-111, WASHINGTON, DC, 20005","Match","Exact","1220 L ST NW, WASHINGTON, DC, 20005",76226124,"L"
38358,"1220 L STREET NW SUITE 100-181","WASHINGTON","DC",20005,38.90373298,-77.028471096,358,"1220 L STREET NW SUITE 100-181, WASHINGTON, DC, 20005","Match","Exact","1220 L ST NW, WASHINGTON, DC, 20005",76226124,"L"
38359,"1220 LAUDERDALE PL","LA CROSSE","WI",54603,43.8697625790001,-91.2384238349999,359,"1220 LAUDERDALE PL, LA CROSSE, WI, 54603","Match","Exact","1220 LAUDERDALE PL, LA CROSSE, WI, 54603",51017413,"R"
38360,"1220 LEXHAM DRIVE","MARIETTA","GA",30068,33.9807152650001,-84.411969498,360,"1220 LEXHAM DRIVE, MARIETTA, GA, 30068","Match","Exact","1220 LEXHAM DR, MARIETTA, GA, 30068",17216204,"R"
38361,"1220 LILLY ST","CEDAR RAPIDS","IA",52403,41.9751470800001,-91.570987491,361,"1220 LILLY ST, CEDAR RAPIDS, IA, 52403","Match","Exact","1220 LILLY ST, CEDAR RAPIDS, IA, 52403",17028157,"L"
38362,"1220 LINCOLN WAY EAST","MASSILLON","OH",44646,40.8002878730001,-81.508411138,362,"1220 LINCOLN WAY EAST, MASSILLON, OH, 44646","Match","Exact","1220 LINCOLN WAY E, MASSILLON, OH, 44646",64704355,"L"
38363,"1220 MAIN STREET / SUITE 400","VANCOUVER","WA",98660,45.6304854520001,-122.67159084,363,"1220 MAIN STREET / SUITE 400, VANCOUVER, WA, 98660","Match","Exact","1220 MAIN ST, VANCOUVER, WA, 98660",158325698,"L"
38364,"1220 MAPLETON AVE","BOULDER","CO",80304,40.0209897980001,-105.280673013,364,"1220 MAPLETON AVE, BOULDER, CO, 80304","Match","Non_Exact","1220 MAPLETON AVE, BOULDER, CO, 80302",188159679,"R"
38365,"1220 MARSHALL GRAVES ROAD","YANCEYVILLE","NC",27379,36.337015261,-79.376302838,365,"1220 MARSHALL GRAVES ROAD, YANCEYVILLE, NC, 27379","Match","Exact","1220 MARSHALL GRAVES RD, YANCEYVILLE, NC, 27379",636858529,"L"
38366,"1220 MARTIN ST","LAKEPORT","CA",95453,39.040396537,-122.927184159,366,"1220 MARTIN ST, LAKEPORT, CA, 95453","Match","Exact","1220 MARTIN ST, LAKEPORT, CA, 95453",67029229,"R"
38367,"1220 MECASLIN ST NW","ATLANTA","GA",30318,33.78763502,-84.3998146759999,367,"1220 MECASLIN ST NW, ATLANTA, GA, 30318","Match","Exact","1220 MECASLIN ST NW, ATLANTA, GA, 30318",17343143,"L"
38368,"1220 MINNIE BOX 1","DAVENPORT","IA",52802,41.5065171370001,-90.6243187699999,368,"1220 MINNIE BOX 1, DAVENPORT, IA, 52802","Match","Non_Exact","1220 MINNIE AVE, DAVENPORT, IA, 52802",122705294,"R"
38369,"1220 MITCHELL DRIVE","MECHANICSBURG","PA",17050,40.210280251,-77.030074578,369,"1220 MITCHELL DRIVE, MECHANICSBURG, PA, 17050","Match","Exact","1220 MITCHELL DR, MECHANICSBURG, PA, 17050",652459982,"R"
38370,"1220 MONROE STREET","GRETNA","LA",70053,29.9269881120001,-90.051001179,370,"1220 MONROE STREET, GRETNA, LA, 70053","Match","Exact","1220 MONROE ST, GRETNA, LA, 70053",93507168,"L"
38371,"1220 MONTEREY ST","HOLLISTER","CA",95023,36.8416961610001,-121.404228343,371,"1220 MONTEREY ST, HOLLISTER, CA, 95023","Match","Exact","1220 MONTEREY ST, HOLLISTER, CA, 95023",125436017,"L"
38372,"1220 N 2ND AVE","NASHVILLE","TN",37208,36.1771677040001,-86.7848028399999,372,"1220 N 2ND AVE, NASHVILLE, TN, 37208","Match","Non_Exact","1220 2ND AVE N, NASHVILLE, TN, 37208",97185653,"R"
38373,"1220 NEOSHO STREET","EMPORIA","KS",66801,38.4126354650001,-96.186383825,373,"1220 NEOSHO STREET, EMPORIA, KS, 66801","Match","Exact","1220 NEOSHO ST, EMPORIA, KS, 66801",10957752,"R"
38374,"1220 NIKOLE CT","RALEIGH","NC",27612,35.8724474110001,-78.655392365,374,"1220 NIKOLE CT, RALEIGH, NC, 27612","Match","Exact","1220 NIKOLE CT, RALEIGH, NC, 27612",72496112,"L"
38375,"1220 NORMANDY ROAD","ROYAL OAK","MI",48073,42.5258368130001,-83.15899418,375,"1220 NORMANDY ROAD, ROYAL OAK, MI, 48073","Match","Exact","1220 NORMANDY RD, ROYAL OAK, MI, 48073",69820538,"R"
38376,"1220 NORTH BRAZOS STREET SUITE 4A","WHITNEY","TX",76692,NA,NA,376,"1220 NORTH BRAZOS STREET SUITE 4A, WHITNEY, TX, 76692","No_Match",NA,NA,NA,NA
38377,"1220 OAKSIDE LANE","GLENDALE","CA",91208,34.208262405,-118.239759021,377,"1220 OAKSIDE LANE, GLENDALE, CA, 91208","Match","Exact","1220 OAKSIDE LN, GLENDALE, CA, 91208",141590047,"R"
38378,"1220 ORCHARD LANE","ENNIS","TX",75119,32.2986272260001,-96.584535918,378,"1220 ORCHARD LANE, ENNIS, TX, 75119","Match","Exact","1220 ORCHARD LN, ENNIS, TX, 75119",651350945,"R"
38379,"1220 PALOMINO LANE","SAN MARCOS","TX",78666,29.9123245930001,-97.971238939,379,"1220 PALOMINO LANE, SAN MARCOS, TX, 78666","Match","Exact","1220 PALOMINO LN, SAN MARCOS, TX, 78666",648331555,"R"
38380,"1220 PARAMOUNT COURT","HEPHZIBAH","GA",30815,33.319205443,-81.9847673199999,380,"1220 PARAMOUNT COURT, HEPHZIBAH, GA, 30815","Match","Exact","1220 PARAMOUNT CT, HEPHZIBAH, GA, 30815",604939673,"R"
38381,"1220 PARK AVENUE ROOM SR7","NEW YORK","NY",10128,40.786693991,-73.95243434,381,"1220 PARK AVENUE ROOM SR7, NEW YORK, NY, 10128","Match","Exact","1220 PARK AVE, NEW YORK, NY, 10128",652210371,"R"
38382,"1220 PARK NEWPORT STE 102","NEWPORT BEACH","CA",92660,33.626509776,-117.879727331,382,"1220 PARK NEWPORT STE 102, NEWPORT BEACH, CA, 92660","Match","Exact","1220 PARK NEWPORT, NEWPORT BEACH, CA, 92660",144050200,"R"
38383,"1220 PAUL RUSSELL ROAD","TALLAHASSEE","FL",32301,30.405364417,-84.2633408569999,383,"1220 PAUL RUSSELL ROAD, TALLAHASSEE, FL, 32301","Match","Exact","1220 PAUL RUSSELL RD, TALLAHASSEE, FL, 32301",649975207,"L"
38384,"1220 PONDCYPRESS DRIVE","CONLEY","GA",30288,NA,NA,384,"1220 PONDCYPRESS DRIVE, CONLEY, GA, 30288","No_Match",NA,NA,NA,NA
38385,"1220 PORTMOOR WAY","WINTER GARDEN","FL",34787,28.524116943,-81.61772294,385,"1220 PORTMOOR WAY, WINTER GARDEN, FL, 34787","Match","Exact","1220 PORTMOOR WAY, WINTER GARDEN, FL, 34787",94409139,"R"
38386,"1220 PRESCOTT LANE","PINGREE GROVE","IL",60140,42.099386597,-88.435787965,386,"1220 PRESCOTT LANE, PINGREE GROVE, IL, 60140","Match","Exact","1220 PRESCOTT LN, PINGREE GROVE, IL, 60140",650376051,"L"
38387,"1220 PRIMROSE CT","DESOTO","TX",75115,32.612141137,-96.899557531,387,"1220 PRIMROSE CT, DESOTO, TX, 75115","Match","Non_Exact","1220 PRIMROSE LN, DESOTO, TX, 75115",627730756,"L"
38388,"1220 RAHWAY AVE","AVENEL","NJ",7001,40.583210428,-74.2676380569999,388,"1220 RAHWAY AVE, AVENEL, NJ, 7001","Match","Exact","1220 RAHWAY AVE, AVENEL, NJ, 07001",60274964,"R"
38389,"1220 RAYBURN AVE","GUNTERSVILLE","AL",35976,34.3499793410001,-86.302880396,389,"1220 RAYBURN AVE, GUNTERSVILLE, AL, 35976","Match","Exact","1220 RAYBURN AVE, GUNTERSVILLE, AL, 35976",99228307,"L"
38390,"1220 RETREAT LANE","WINSTON-SALEM","NC",27106,36.1226931680001,-80.313246336,390,"1220 RETREAT LANE, WINSTON-SALEM, NC, 27106","Match","Exact","1220 RETREAT LN, WINSTON SALEM, NC, 27106",84603317,"L"
38391,"1220 ROSECRANS ST NUMBER 243","SAN DIEGO","CA",92106,32.7228252310001,-117.23072789,391,"1220 ROSECRANS ST NUMBER 243, SAN DIEGO, CA, 92106","Match","Exact","1220 ROSECRANS ST, SAN DIEGO, CA, 92106",195340390,"L"
38392,"1220 ROSECRANS ST","SAN DIEGO","CA",92106,32.7228252310001,-117.23072789,392,"1220 ROSECRANS ST, SAN DIEGO, CA, 92106","Match","Exact","1220 ROSECRANS ST, SAN DIEGO, CA, 92106",195340390,"L"
38393,"1220 ROSECRANS STREET - 302","SAN DIEGO","CA",92106,32.7228252310001,-117.23072789,393,"1220 ROSECRANS STREET - 302, SAN DIEGO, CA, 92106","Match","Exact","1220 ROSECRANS ST, SAN DIEGO, CA, 92106",195340390,"L"
38394,"1220 ROSECRANS STREET","SAN DIEGO","CA",92106,32.7228252310001,-117.23072789,394,"1220 ROSECRANS STREET, SAN DIEGO, CA, 92106","Match","Exact","1220 ROSECRANS ST, SAN DIEGO, CA, 92106",195340390,"L"
38395,"1220 S  HIGH SCHOOL RD","INDIANAPOLIS","IN",46241,39.7495781980001,-86.269880492,395,"1220 S  HIGH SCHOOL RD, INDIANAPOLIS, IN, 46241","Match","Exact","1220 S HIGH SCHOOL RD, INDIANAPOLIS, IN, 46241",107979671,"R"
38396,"1220 S ALMA SCHOOL RD SUITE 204","MESA","AZ",85210,33.3925438000001,-111.857286562,396,"1220 S ALMA SCHOOL RD SUITE 204, MESA, AZ, 85210","Match","Non_Exact","1220 S ALMA SCHOOL RD, MESA, AZ, 85210",128234699,"R"
38397,"1220 S DALE MABRY HWY SUITE 202","TAMPA","FL",33629,27.931767844,-82.505804451,397,"1220 S DALE MABRY HWY SUITE 202, TAMPA, FL, 33629","Match","Non_Exact","1220 S DALE MABRY HWY, TAMPA, FL, 33629",104526225,"L"
38398,"1220 S KEDVALE AVE","CHICAGO","IL",60623,41.865457652,-87.7288215899999,398,"1220 S KEDVALE AVE, CHICAGO, IL, 60623","Match","Exact","1220 S KEDVALE AVE, CHICAGO, IL, 60623",605088115,"R"
38399,"1220 S RAINTREE PLACE","SPRINGFIELD","MO",65809,37.190206093,-93.224352122,399,"1220 S RAINTREE PLACE, SPRINGFIELD, MO, 65809","Match","Exact","1220 S RAINTREE PL, SPRINGFIELD, MO, 65809",76700366,"R"
38400,"1220 S STONEACRE AVENUE","COMPTON","CA",90221,33.8859552160001,-118.195297382,400,"1220 S STONEACRE AVENUE, COMPTON, CA, 90221","Match","Exact","1220 S STONEACRE AVE, COMPTON, CA, 90221",141683482,"L"
38401,"1220 S TRACY AVE","BOZEMAN","MT",59715,45.6663854490001,-111.036003789,401,"1220 S TRACY AVE, BOZEMAN, MT, 59715","Match","Exact","1220 S TRACY AVE, BOZEMAN, MT, 59715",163509099,"L"
38402,"1220 SE 282ND AVENUE","GRESHAM","OR",97080,45.487904804,-122.372711261,402,"1220 SE 282ND AVENUE, GRESHAM, OR, 97080","Match","Exact","1220 SE 282ND AVE, GRESHAM, OR, 97080",157531232,"L"
38403,"1220 SEA GRAPE CIRCLE","DELRAY BEACH","FL",33445,26.4770432770001,-80.11106117,403,"1220 SEA GRAPE CIRCLE, DELRAY BEACH, FL, 33445","Match","Exact","1220 SEA GRAPE CIR, DELRAY BEACH, FL, 33445",644287367,"R"
38404,"1220 SHAKESPEARE AVE 6AN","BRONX","NY",10452,40.8375048550001,-73.923276661,404,"1220 SHAKESPEARE AVE 6AN, BRONX, NY, 10452","Match","Exact","1220 SHAKESPEARE AVE, BRONX, NY, 10452",80299457,"R"
38405,"1220 SKEAWOOD DR","MARION","OH",43302,40.5786415050001,-83.096350533,405,"1220 SKEAWOOD DR, MARION, OH, 43302","Match","Exact","1220 SKEAWOOD DR, MARION, OH, 43302",12710394,"L"
38406,"1220 SOUTHMORE BLVD","HOUSTON","TX",77004,29.7273484040001,-95.385502886,406,"1220 SOUTHMORE BLVD, HOUSTON, TX, 77004","Match","Exact","1220 SOUTHMORE BLVD, HOUSTON, TX, 77004",96071183,"R"
38407,"1220 STATLER BEND","PFLUGERVILLE","TX",78660,30.4791032630001,-97.634654048,407,"1220 STATLER BEND, PFLUGERVILLE, TX, 78660","Match","Non_Exact","1220 STATLER BEND DR, PFLUGERVILLE, TX, 78660",64029287,"L"
38408,"1220 SW MORRISON ST SUITE 920","PORTLAND","OR",97205,45.5206180440001,-122.684411116,408,"1220 SW MORRISON ST SUITE 920, PORTLAND, OR, 97205","Match","Non_Exact","1220 SW MORRISON ST, PORTLAND, OR, 97205",157499018,"L"
38409,"1220 TIMBER DR EAST 1007","GARNER","NC",27529,35.6834875750001,-78.5735950819999,409,"1220 TIMBER DR EAST 1007, GARNER, NC, 27529","Match","Exact","1220 TIMBER DR E, GARNER, NC, 27529",642086716,"R"
38410,"1220 TIMBER TRACE DR","WESLEY CHAPEL","FL",33543,28.174772756,-82.336171194,410,"1220 TIMBER TRACE DR, WESLEY CHAPEL, FL, 33543","Match","Exact","1220 TIMBER TRACE DR, WESLEY CHAPEL, FL, 33543",86385570,"L"
38411,"1220 TROPEZ CIRCLE","ORLANDO","FL",32856,NA,NA,411,"1220 TROPEZ CIRCLE, ORLANDO, FL, 32856","No_Match",NA,NA,NA,NA
38412,"1220 TROUP AVENUE","KANSAS CITY","KS",66104,39.1271532040001,-94.6421456479999,412,"1220 TROUP AVENUE, KANSAS CITY, KS, 66104","Match","Exact","1220 TROUP AVE, KANSAS CITY, KS, 66104",91136056,"R"
38413,"1220 VALLEY VIEW STREET","GREENSBORO","NC",27405,36.0921338250001,-79.740224768,413,"1220 VALLEY VIEW STREET, GREENSBORO, NC, 27405","Match","Exact","1220 VALLEY VIEW ST, GREENSBORO, NC, 27405",131036354,"R"
38414,"1220 W CROCKER ST","SULPHUR","LA",70663,30.2293587820001,-93.381112038,414,"1220 W CROCKER ST, SULPHUR, LA, 70663","Match","Exact","1220 W CROCKER ST, SULPHUR, LA, 70663",88431604,"L"
38415,"1220 W DALLAS STREET","CANTON","TX",75103,32.5632577370001,-95.875193945,415,"1220 W DALLAS STREET, CANTON, TX, 75103","Match","Exact","1220 W DALLAS ST, CANTON, TX, 75103",637988154,"R"
38416,"1220 W GLENOAKS BLVD UNIT 201","GLENDALE","CA",91201,34.165640253,-118.282281642,416,"1220 W GLENOAKS BLVD UNIT 201, GLENDALE, CA, 91201","Match","Non_Exact","1220 W GLENOAKS BLVD, GLENDALE, CA, 91201",141596544,"L"
38417,"1220 W INDIAN TRL APT 6","AURORA","IL",60506,NA,NA,417,"1220 W INDIAN TRL APT 6, AURORA, IL, 60506","No_Match",NA,NA,NA,NA
38418,"1220 W ORANGEBURG AVE","MODESTO","CA",95350,37.6639847490001,-121.010203162,418,"1220 W ORANGEBURG AVE, MODESTO, CA, 95350","Match","Exact","1220 W ORANGEBURG AVE, MODESTO, CA, 95350",102603101,"L"
38419,"1220 W ROBIDOUX ST","WILMINGTON","CA",90744,33.7877239520001,-118.278307788,419,"1220 W ROBIDOUX ST, WILMINGTON, CA, 90744","Match","Exact","1220 W ROBIDOUX ST, WILMINGTON, CA, 90744",141689270,"L"
38420,"1220 W SAN YSIDRO BLVD  APARTMENT 7","SAN YSIDRO","CA",92173,32.5633360960001,-117.067470379,420,"1220 W SAN YSIDRO BLVD  APARTMENT 7, SAN YSIDRO, CA, 92173","Match","Non_Exact","1220 W SAN YSIDRO BLVD, SAN YSIDRO, CA, 92173",637657051,"R"
38421,"1220 W TRINITY MILLS RD STE 100","CARROLLTON","TX",75006,32.9826357000001,-96.912805593,421,"1220 W TRINITY MILLS RD STE 100, CARROLLTON, TX, 75006","Match","Non_Exact","1220 W TRINITY MILLS RD, CARROLLTON, TX, 75006",103255378,"R"
38422,"1220 WINOKA ROAD","COLLIERVILLE","TN",38017,35.0119603740001,-89.686800057,422,"1220 WINOKA ROAD, COLLIERVILLE, TN, 38017","Match","Exact","1220 WINOKA RD, COLLIERVILLE, TN, 38017",72974631,"R"
38423,"1220 WOODWARD AVE","ATHENS","TN",37303,35.4565329690001,-84.5830557639999,423,"1220 WOODWARD AVE, ATHENS, TN, 37303","Match","Exact","1220 WOODWARD AVE, ATHENS, TN, 37303",88544344,"L"
38424,"1220 ZANES DRIVE","PLUMAS LAKE","CA",95961,NA,NA,424,"1220 ZANES DRIVE, PLUMAS LAKE, CA, 95961","No_Match",NA,NA,NA,NA
38425,"1220-G AIRPORT FREEWAY 471","BEDFORD","TX",76022,32.8388023860001,-97.150547605,425,"1220-G AIRPORT FREEWAY 471, BEDFORD, TX, 76022","Match","Exact","1220 AIRPORT FWY, BEDFORD, TX, 76022",102082993,"R"
38426,"1220-G AIRPORT FREEWAY SUITE 405","BEDFORD","TX",76022,32.8388023860001,-97.150547605,426,"1220-G AIRPORT FREEWAY SUITE 405, BEDFORD, TX, 76022","Match","Exact","1220 AIRPORT FWY, BEDFORD, TX, 76022",102082993,"R"
38427,"12200 BURKE BLVD","OMAHA","NE",68154,41.2602856620001,-96.108938971,427,"12200 BURKE BLVD, OMAHA, NE, 68154","Match","Exact","12200 BURKE BLVD, OMAHA, NE, 68154",117024274,"L"
38428,"12200 EMELITA ST  APT B","NORTH HOLLYWOOD","CA",91607,34.1762923140001,-118.399180304,428,"12200 EMELITA ST  APT B, NORTH HOLLYWOOD, CA, 91607","Match","Exact","12200 EMELITA ST, N HOLLYWOOD, CA, 91607",141564173,"L"
38429,"12200 FAIRHIL RD","CLVELAND","OH",44120,41.4929678940001,-81.59790383,429,"12200 FAIRHIL RD, CLVELAND, OH, 44120","Match","Non_Exact","12200 FAIRHILL RD, CLEVELAND, OH, 44120",61122585,"R"
38430,"12200 FAIRHILL AVENUE","CLEVELAND","OH",44120,41.4929678940001,-81.59790383,430,"12200 FAIRHILL AVENUE, CLEVELAND, OH, 44120","Match","Non_Exact","12200 FAIRHILL RD, CLEVELAND, OH, 44120",61122585,"R"
38431,"12200 FAIRHILL RD","CLEVELAND","OH",44120,41.4929678940001,-81.59790383,431,"12200 FAIRHILL RD, CLEVELAND, OH, 44120","Match","Exact","12200 FAIRHILL RD, CLEVELAND, OH, 44120",61122585,"R"
38432,"12200 GREENFIELD","DETROIT","MI",48227,42.376459218,-83.19769538,432,"12200 GREENFIELD, DETROIT, MI, 48227","Match","Non_Exact","12200 GREENFIELD RD, DETROIT, MI, 48227",95441545,"R"
38433,"12200 MARION LN W","MINNETONKA","MN",55305,44.97251528,-93.436293182,433,"12200 MARION LN W, MINNETONKA, MN, 55305","Match","Exact","12200 MARION LN W, MINNETONKA, MN, 55305",43824435,"R"
38434,"12200 MONTECITO RD F105","SEAL BEACH","CA",90740,33.7853124230001,-118.076172875,434,"12200 MONTECITO RD F105, SEAL BEACH, CA, 90740","Match","Exact","12200 MONTECITO RD, SEAL BEACH, CA, 90740",144002822,"L"
38435,"12200 TOWERING ELM","SAN ANTONIO","TX",78247,29.563005135,-98.434904788,435,"12200 TOWERING ELM, SAN ANTONIO, TX, 78247","Match","Exact","12200 TOWERING ELM, SAN ANTONIO, TX, 78247",101581350,"L"
38436,"12200 VALLEYBROOK DRIVE","RICHMOND","VA",23233,37.651168066,-77.6320006459999,436,"12200 VALLEYBROOK DRIVE, RICHMOND, VA, 23233","Match","Exact","12200 VALLEYBROOK DR, RICHMOND, VA, 23233",106665260,"L"
38437,"12200 W FOREST HILL BLVD","WEST PALM BEACH","FL",33414,26.655403919,-80.236899266,437,"12200 W FOREST HILL BLVD, WEST PALM BEACH, FL, 33414","Match","Exact","12200 FOREST HILL BLVD, WEST PALM BEACH, FL, 33414",115499479,"R"
38438,"12200 W M179 HWY","WAYLAND","MI",49348,NA,NA,438,"12200 W M179 HWY, WAYLAND, MI, 49348","No_Match",NA,NA,NA,NA
38439,"12200B AIRPORT ROAD","JACKSON","CA",95642,NA,NA,439,"12200B AIRPORT ROAD, JACKSON, CA, 95642","No_Match",NA,NA,NA,NA
38440,"12201 175TH STREET WEST","LAKEVILLE","MN",55044,44.695898485,-93.3124705829999,440,"12201 175TH STREET WEST, LAKEVILLE, MN, 55044","Match","Exact","12201 175TH ST W, LAKEVILLE, MN, 55044",37903768,"L"
38441,"12201 ABERDEEN ROAD","LEAWOOD","KS",66209,38.907373068,-94.6199431969999,441,"12201 ABERDEEN ROAD, LEAWOOD, KS, 66209","Match","Exact","12201 ABERDEEN RD, LEAWOOD, KS, 66209",91285599,"L"
38442,"12201 ARMITAGE AVE NW","MONTICELLO","MN",55362,45.328126845,-93.906985838,442,"12201 ARMITAGE AVE NW, MONTICELLO, MN, 55362","Match","Exact","12201 ARMITAGE AVE NW, MONTICELLO, MN, 55362",44013624,"L"
38443,"12201 BEAR PLZ","BURLESON","TX",76028,32.580330045,-97.314097322,443,"12201 BEAR PLZ, BURLESON, TX, 76028","Match","Exact","12201 BEAR PLZ, BURLESON, TX, 76028",643299773,"L"
38444,"12201 CHAMPLIN DRIVE","CHAMPLIN","MN",55316,45.1746220200001,-93.393652128,444,"12201 CHAMPLIN DRIVE, CHAMPLIN, MN, 55316","Match","Exact","12201 CHAMPLIN DR, CHAMPLIN, MN, 55316",43850142,"R"
38445,"12201 CONRAD ROAD","AUSTIN","TX",78727,30.425434081,-97.747601443,445,"12201 CONRAD ROAD, AUSTIN, TX, 78727","Match","Exact","12201 CONRAD RD, AUSTIN, TX, 78727",64003765,"R"
38446,"12201 E 56TH ST","KANSAS CITY","MO",64133,39.0204241490001,-94.437926727,446,"12201 E 56TH ST, KANSAS CITY, MO, 64133","Match","Exact","12201 E 56TH ST, KANSAS CITY, MO, 64133",91463780,"R"
38447,"12201 E ARAPAHOE RD STE B11","CENTENNIAL","CO",80112,39.5950753110001,-104.84655283,447,"12201 E ARAPAHOE RD STE B11, CENTENNIAL, CO, 80112","Match","Non_Exact","12201 E ARAPAHOE RD, CENTENNIAL, CO, 80112",177359107,"L"
38448,"12201 HAMBRIGHT ROAD","HUNTERSVILLE","NC",28078,35.377366082,-80.8356527189999,448,"12201 HAMBRIGHT ROAD, HUNTERSVILLE, NC, 28078","Match","Exact","12201 HAMBRIGHT RD, HUNTERSVILLE, NC, 28078",640628800,"L"
38449,"12201 MERIT DR STE 1000","DALLAS","TX",75251,NA,NA,449,"12201 MERIT DR STE 1000, DALLAS, TX, 75251","No_Match",NA,NA,NA,NA
38450,"12201 SW 128TH CT STE 105","MIAMI","FL",33186,NA,NA,450,"12201 SW 128TH CT STE 105, MIAMI, FL, 33186","No_Match",NA,NA,NA,NA
38451,"12201 W BURLEIGH ST  SUITE 14","WAUWATOSA","WI",53222,43.074473036,-88.065306697,451,"12201 W BURLEIGH ST  SUITE 14, WAUWATOSA, WI, 53222","Match","Non_Exact","12201 W BURLEIGH ST, WAUWATOSA, WI, 53222",77760775,"L"
38452,"12201/2 EAST1ST STREET A","DULUTH","MN",55805,NA,NA,452,"12201/2 EAST1ST STREET A, DULUTH, MN, 55805","No_Match",NA,NA,NA,NA
38453,"12202 BREMERTON WAY","LOS ANGELES","CA",90061,33.921380866,-118.274884862,453,"12202 BREMERTON WAY, LOS ANGELES, CA, 90061","Match","Exact","12202 BREMERTON WAY, LOS ANGELES, CA, 90061",141662196,"L"
38454,"12202 E RIVER RUN DR","MONT BELVIEU","TX",77523,29.864194065,-94.8527624069999,454,"12202 E RIVER RUN DR, MONT BELVIEU, TX, 77523","Match","Exact","12202 E RIVER RUN DR, MONT BELVIEU, TX, 77523",95962698,"L"
38455,"12202 NORTHLEDGE DR","LIVE OAK","TX",78233,29.5504021850001,-98.339667821,455,"12202 NORTHLEDGE DR, LIVE OAK, TX, 78233","Match","Exact","12202 NORTHLEDGE DR, LIVE OAK, TX, 78233",101503411,"R"
38456,"12203 CALM FEATHER DRIVE","HOUSTON","TX",77048,NA,NA,456,"12203 CALM FEATHER DRIVE, HOUSTON, TX, 77048","No_Match",NA,NA,NA,NA
38457,"12203 JACOBS POND","SAN ANTONIO","TX",78253,29.4390643030001,-98.73484666,457,"12203 JACOBS POND, SAN ANTONIO, TX, 78253","Match","Exact","12203 JACOBS POND, SAN ANTONIO, TX, 78253",619947415,"L"
38458,"12203 SANTA GERTRUDES AVE UNIT 22","LA MIRADA","CA",90638,33.9205088640001,-117.994370629,458,"12203 SANTA GERTRUDES AVE UNIT 22, LA MIRADA, CA, 90638","Match","Exact","12203 SANTA GERTRUDES AVE, LA MIRADA, CA, 90638",649823493,"R"
38459,"12203 STRINGHAM CT","DETROIT","MI",48213,42.39022879,-82.9759899489999,459,"12203 STRINGHAM CT, DETROIT, MI, 48213","Match","Exact","12203 STRINGHAM CT, DETROIT, MI, 48213",95511055,"L"
38460,"12203 SW 129TH COURT","MIAMI","FL",33186,NA,NA,460,"12203 SW 129TH COURT, MIAMI, FL, 33186","No_Match",NA,NA,NA,NA
38461,"12203 VIA INCA DRIVE","EL PASO","TX",79936,31.741787005,-106.274411129,461,"12203 VIA INCA DRIVE, EL PASO, TX, 79936","Match","Exact","12203 VIA INCA DR, EL PASO, TX, 79936",618948553,"L"
38462,"12204 BRIDGEHEAD PLACE","GLEN ALLEN","VA",23059,37.689760698,-77.625446799,462,"12204 BRIDGEHEAD PLACE, GLEN ALLEN, VA, 23059","Match","Exact","12204 BRIDGEHEAD PL, GLEN ALLEN, VA, 23059",106669775,"R"
38463,"12204 DULCIE COURT","LOUISVILLE","KY",40229,38.0690105200001,-85.680444068,463,"12204 DULCIE COURT, LOUISVILLE, KY, 40229","Match","Exact","12204 DULCIE CT, LOUISVILLE, KY, 40229",47743062,"L"
38464,"12204 EAST 40TH STREET - SOUTH","INDEPENDENCE","MO",64052,39.0495723330001,-94.435794656,464,"12204 EAST 40TH STREET - SOUTH, INDEPENDENCE, MO, 64052","Match","Non_Exact","12204 E 40TH ST S, INDEPENDENCE, MO, 64052",91463909,"L"
38465,"12204 LIVINGSTON RD","FORT WASHINGTON","MD",20744,38.7227746560001,-76.9871481439999,465,"12204 LIVINGSTON RD, FORT WASHINGTON, MD, 20744","Match","Exact","12204 LIVINGSTON RD, FT WASHINGTON, MD, 20744",76387932,"L"
38466,"12204 SHARPVIEW DRIVE","HOUSTON","TX",77072,29.6998816550001,-95.594211353,466,"12204 SHARPVIEW DRIVE, HOUSTON, TX, 77072","Match","Exact","12204 SHARPVIEW DR, HOUSTON, TX, 77072",96608266,"R"
38467,"12205 44TH AVENUE EAST","BRADENTON","FL",34211,NA,NA,467,"12205 44TH AVENUE EAST, BRADENTON, FL, 34211","No_Match",NA,NA,NA,NA
38468,"12205 DANVILLE DRIVE","RANCHO CUCAMONGA","CA",91739,34.1494366900001,-117.538540064,468,"12205 DANVILLE DRIVE, RANCHO CUCAMONGA, CA, 91739","Match","Exact","12205 DANVILLE DR, ETIWANDA, CA, 91739",614814109,"R"
38469,"12205 FINGERBOARD RD","MONROVIA","MD",21770,39.3397990440001,-77.2378021659999,469,"12205 FINGERBOARD RD, MONROVIA, MD, 21770","Match","Exact","12205 FINGERBOARD RD, MONROVIA, MD, 21770",614259937,"R"
38470,"12205 KEMP MILL ROAD","SILVER SPRING","MD",20902,39.0563228400001,-77.023415093,470,"12205 KEMP MILL ROAD, SILVER SPRING, MD, 20902","Match","Exact","12205 KEMP MILL RD, SILVER SPRING, MD, 20902",62078043,"R"
38471,"12205 NE 140TH STREET","KIRKLAND","WA",98034,47.72610258,-122.177464833,471,"12205 NE 140TH STREET, KIRKLAND, WA, 98034","Match","Exact","12205 NE 140TH ST, KIRKLAND, WA, 98034",648609681,"L"
38472,"12205 S WESTERN AVE APT 321","OKLAHOMA CITY","OK",73170,35.346681937,-97.5299587219999,472,"12205 S WESTERN AVE APT 321, OKLAHOMA CITY, OK, 73170","Match","Non_Exact","12205 S WESTERN AVE, OKLAHOMA CITY, OK, 73170",650179943,"R"
38473,"12205 WAYCROSS DRIVE","RICHMOND","VA",23233,37.6464865730001,-77.6197074199999,473,"12205 WAYCROSS DRIVE, RICHMOND, VA, 23233","Match","Exact","12205 WAYCROSS DR, RICHMOND, VA, 23233",106665359,"L"
38474,"12206 112TH AVENUE","GRAND HAVEN","MI",49417,42.9900478330001,-86.0642994359999,474,"12206 112TH AVENUE, GRAND HAVEN, MI, 49417","Match","Exact","12206 112TH AVE, GRAND HAVEN, MI, 49417",642646595,"R"
38475,"12206 GRANDVIEW AVE","WHEATON","MD",20902,39.055555656,-77.05169739,475,"12206 GRANDVIEW AVE, WHEATON, MD, 20902","Match","Exact","12206 GRANDVIEW AVE, WHEATON, MD, 20902",62063615,"L"
38476,"12206 SE 288TH PLACE","AUBURN","WA",98092,47.3430547030001,-122.175912755,476,"12206 SE 288TH PLACE, AUBURN, WA, 98092","Match","Exact","12206 SE 288TH PL, AUBURN, WA, 98092",186654401,"L"
38477,"12207 150TH AVE","INDIANOLA","IA",50125,41.3459532900001,-93.5203636859999,477,"12207 150TH AVE, INDIANOLA, IA, 50125","Match","Exact","12207 150TH AVE, INDIANOLA, IA, 50125",83764174,"L"
38478,"12207 CENTRAL AVE","CHINO","CA",91710,34.032282971,-117.689435002,478,"12207 CENTRAL AVE, CHINO, CA, 91710","Match","Exact","12207 CENTRAL AVE, CHINO, CA, 91710",144672987,"L"
38479,"12207 LOG CABIN LANE","LOUISVILLE","KY",40223,38.2584431270001,-85.529807541,479,"12207 LOG CABIN LANE, LOUISVILLE, KY, 40223","Match","Exact","12207 LOG CABIN LN, LOUISVILLE, KY, 40223",96865483,"L"
38480,"12207 POTTS PLANTATION CIRCLE","CORNELIUS","NC",28031,NA,NA,480,"12207 POTTS PLANTATION CIRCLE, CORNELIUS, NC, 28031","No_Match",NA,NA,NA,NA
38481,"12207 SE CTY HWY 484","BELLEVIEW","FL",34420,29.0449490730001,-82.061854867,481,"12207 SE CTY HWY 484, BELLEVIEW, FL, 34420","Match","Non_Exact","12207 CO RD 484, BELLEVIEW, FL, 34420",635625741,"R"
38482,"12207 TALLOWTREE CT","INDIANAPOLIS","IN",46236,39.897903381,-85.948904194,482,"12207 TALLOWTREE CT, INDIANAPOLIS, IN, 46236","Match","Exact","12207 TALLOWTREE CT, INDIANAPOLIS, IN, 46236",108033195,"R"
38483,"12208  PARK HEIGHTS AVE","OWINGS MILL","MD",21117,39.4606560720001,-76.7542817789999,483,"12208  PARK HEIGHTS AVE, OWINGS MILL, MD, 21117","Match","Non_Exact","12208 PARK HEIGHTS AVE, OWINGS MILLS, MD, 21117",191501441,"L"
38484,"12208 BUCKSKIN TRAIL","POWAY","CA",92064,32.943554869,-117.063869877,484,"12208 BUCKSKIN TRAIL, POWAY, CA, 92064","Match","Exact","12208 BUCKSKIN TRL, POWAY, CA, 92064",195320084,"L"
38485,"12208 COUNTRY MANOR CT","SAINT LOUIS","MO",63141,38.6701664870001,-90.4534057,485,"12208 COUNTRY MANOR CT, SAINT LOUIS, MO, 63141","Match","Exact","12208 COUNTRY MANOR CT, SAINT LOUIS, MO, 63141",100124489,"L"
38486,"12209 EASTERN AVENUE","MIDDLE RIVER","MD",21220,39.354538807,-76.375307128,486,"12209 EASTERN AVENUE, MIDDLE RIVER, MD, 21220","Match","Exact","12209 EASTERN AVE, MIDDLE RIVER, MD, 21220",629318486,"R"
38487,"12209 HUNTERTON ST","UPPER MARLBORO","MD",20774,38.8975105000001,-76.794895637,487,"12209 HUNTERTON ST, UPPER MARLBORO, MD, 20774","Match","Exact","12209 HUNTERTON ST, UPPER MARLBORO, MD, 20774",76322315,"R"
38488,"12209 JENNELL DRIVE","BRISTOW","VA",20136,NA,NA,488,"12209 JENNELL DRIVE, BRISTOW, VA, 20136","No_Match",NA,NA,NA,NA
38489,"12209 LAWYERS RD","MINT HILL","NC",28227,35.163889758,-80.649828449,489,"12209 LAWYERS RD, MINT HILL, NC, 28227","Match","Exact","12209 LAWYERS RD, MINT HILL, NC, 28227",641599958,"L"
38490,"12209 PARK DRIVE","COOPER CITY","FL",33026,26.040036726,-80.3108854659999,490,"12209 PARK DRIVE, COOPER CITY, FL, 33026","Match","Non_Exact","12209 PARK DR, HOLLYWOOD, FL, 33026",114700148,"L"
38491,"12209 SAINT PETER CT  APT L","GERMANTOWN","MD",20874,39.163228385,-77.251065935,491,"12209 SAINT PETER CT  APT L, GERMANTOWN, MD, 20874","Match","Exact","12209 SAINT PETER CT, GERMANTOWN, MD, 20874",642985330,"R"
38492,"1221  NW 179 STREET","MIAMI","FL",33169,25.938194143,-80.2215199,492,"1221  NW 179 STREET, MIAMI, FL, 33169","Match","Exact","1221 NW 179TH ST, MIAMI, FL, 33169",116029456,"R"
38493,"1221 10TH STREET NW","CLEVELAND","TN",37311,35.1719449180001,-84.88692482,493,"1221 10TH STREET NW, CLEVELAND, TN, 37311","Match","Exact","1221 10TH ST NW, CLEVELAND, TN, 37311",642960674,"L"
38494,"1221 113TH ST SW UNIT 13","EVERETT","WA",98204,47.89535707,-122.250792501,494,"1221 113TH ST SW UNIT 13, EVERETT, WA, 98204","Match","Exact","1221 113TH ST SW, EVERETT, WA, 98204",187812111,"R"
38495,"1221 12TH AVENEU","LEWISTON","ID",83501,NA,NA,495,"1221 12TH AVENEU, LEWISTON, ID, 83501","Tie",NA,NA,NA,NA
38496,"1221 132ND PLACE","KNOXVILLE","IA",50138,41.3456385850001,-93.096298098,496,"1221 132ND PLACE, KNOXVILLE, IA, 50138","Match","Exact","1221 132ND PL, KNOXVILLE, IA, 50138",89487482,"R"
38497,"1221 40TH STREET APT 309","EMERYVILLE","CA",94608,37.83035167,-122.283509034,497,"1221 40TH STREET APT 309, EMERYVILLE, CA, 94608","Match","Exact","1221 40TH ST, EMERYVILLE, CA, 94608",125063808,"L"
38498,"1221 5TH AVENUE","PHILLIPSBURG","NJ",8865,40.6616567670001,-75.154351231,498,"1221 5TH AVENUE, PHILLIPSBURG, NJ, 8865","Match","Exact","1221 5TH AVE, PHILLIPSBURG, NJ, 08865",98088799,"R"
38499,"1221 6TH AVE/WHITE AND CASE LLP","NEW YORK","NY",10020,NA,NA,499,"1221 6TH AVE/WHITE AND CASE LLP, NEW YORK, NY, 10020","No_Match",NA,NA,NA,NA
38500,"1221 A MASTERS LANE","GREENVILLE","NC",27834,35.555134728,-77.438627109,500,"1221 A MASTERS LANE, GREENVILLE, NC, 27834","Match","Exact","1221 MASTERS LN, GREENVILLE, NC, 27834",80048375,"R"
