"ID","Address","City","State","Zip","lat","long","id","input_address","match_indicator","match_type","matched_address","tiger_line_id","tiger_side"
112001,"209 INDIAN HILLS RD","BROOKINGS","SD",57006,44.2919615430001,-96.8076960179999,1,"209 INDIAN HILLS RD, BROOKINGS, SD, 57006","Match","Exact","209 INDIAN HILLS RD, BROOKINGS, SD, 57006",635566148,"L"
112002,"209 IROQUOIS ST","RONKONKOMA","NY",11779,40.8225750020001,-73.139718379,2,"209 IROQUOIS ST, RONKONKOMA, NY, 11779","Match","Exact","209 IROQUOIS ST, RONKONKOMA, NY, 11779",113991967,"L"
112003,"209 ITAN DRIVE","YUTAN","NE",68073,41.2455828450001,-96.3917290479999,3,"209 ITAN DRIVE, YUTAN, NE, 68073","Match","Exact","209 ITAN DR, YUTAN, NE, 68073",634167630,"R"
112004,"209 IVY ST","NEWARK","NJ",7106,40.7385103610001,-74.242582023,4,"209 IVY ST, NEWARK, NJ, 7106","Match","Exact","209 IVY ST, NEWARK, NJ, 07106",63463452,"R"
112005,"209 JANE BRIGGS AVE","LEXINGTON","KY",40509,37.9793182180001,-84.414235904,5,"209 JANE BRIGGS AVE, LEXINGTON, KY, 40509","Match","Exact","209 JANE BRIGGS AVE, LEXINGTON, KY, 40509",640083835,"L"
112006,"209 JASTRAM","PROVIDENCE","RI",2908,41.841216559,-71.443271118,6,"209 JASTRAM, PROVIDENCE, RI, 2908","Match","Non_Exact","209 JASTRAM ST, PROVIDENCE, RI, 02908",47458038,"R"
112007,"209 JESSICA DRIVE","SAINT JACOB","IL",62281,38.7231991510001,-89.76973029,7,"209 JESSICA DRIVE, SAINT JACOB, IL, 62281","Match","Exact","209 JESSICA DR, SAINT JACOB, IL, 62281",107738671,"L"
112008,"209 JOHN STREET","STURGIS","MI",49091,41.80001487,-85.420399176,8,"209 JOHN STREET, STURGIS, MI, 49091","Match","Exact","209 JOHN ST, STURGIS, MI, 49091",15318495,"L"
112009,"209 KALAMATH STREET UNIT 1","DENVER","CO",80223,39.7195916850001,-105.000186862,9,"209 KALAMATH STREET UNIT 1, DENVER, CO, 80223","Match","Exact","209 KALAMATH ST, DENVER, CO, 80223",646601875,"L"
112010,"209 KINGSPORT DRIVE","SCHAUMBURG","IL",60193,42.0106003920001,-88.0741991519999,10,"209 KINGSPORT DRIVE, SCHAUMBURG, IL, 60193","Match","Exact","209 KINGSPORT DR, SCHAUMBURG, IL, 60193",111695172,"R"
112011,"209 KINGSTON AVE","FLORAL PARK","NY",11001,40.715227274,-73.699529324,11,"209 KINGSTON AVE, FLORAL PARK, NY, 11001","Match","Exact","209 KINGSTON AVE, FLORAL PARK, NY, 11001",147692892,"R"
112012,"209 KNAPP ROAD","DUMMERSTON","VT",5301,42.921785518,-72.554355432,12,"209 KNAPP ROAD, DUMMERSTON, VT, 5301","Match","Non_Exact","209 KNAPP RD E, DUMMERSTON, VT, 05301",171107802,"L"
112013,"209 KOLDUS BUILDING 1233 TAMU","COLLEGE STATION","TX",77483,NA,NA,13,"209 KOLDUS BUILDING 1233 TAMU, COLLEGE STATION, TX, 77483","No_Match",NA,NA,NA,NA
112014,"209 LAKE AVENUE","YONKERS","NY",10703,40.9459115180001,-73.883172692,14,"209 LAKE AVENUE, YONKERS, NY, 10703","Match","Exact","209 LAKE AVE, YONKERS, NY, 10703",139743331,"L"
112015,"209 LAKEVIEW DRIVE","WHISPERING PINES","NC",28327,35.268748729,-79.3835990869999,15,"209 LAKEVIEW DRIVE, WHISPERING PINES, NC, 28327","Match","Exact","209 LAKEVIEW DR, WHISPERING PINES, NC, 28327",638436172,"R"
112016,"209 LAUREL ST","LONGMEADOW","MA",1106,42.0646596500001,-72.573545785,16,"209 LAUREL ST, LONGMEADOW, MA, 1106","Match","Exact","209 LAUREL ST, LONGMEADOW, MA, 01106",651687115,"L"
112017,"209 LEMONWOOD DRIVE","CASTLE HILLS","TX",78213,29.521629966,-98.5212480549999,17,"209 LEMONWOOD DRIVE, CASTLE HILLS, TX, 78213","Match","Exact","209 LEMONWOOD DR, CASTLE HILLS, TX, 78213",101494017,"R"
112018,"209 LEVENTIS LANE","LEXINGTON","SC",29072,33.986498753,-81.206582638,18,"209 LEVENTIS LANE, LEXINGTON, SC, 29072","Match","Exact","209 LEVENTIS LN, LEXINGTON, SC, 29072",70084861,"R"
112019,"209 LEWIS HALL","BOZEMAN","MT",59717,NA,NA,19,"209 LEWIS HALL, BOZEMAN, MT, 59717","No_Match",NA,NA,NA,NA
112020,"209 LEXINGTON BLVD","BETHEL","CT",6801,NA,NA,20,"209 LEXINGTON BLVD, BETHEL, CT, 6801","No_Match",NA,NA,NA,NA
112021,"209 LISA DRIVE","GANSEVOORT","NY",12831,43.255112753,-73.6887962,21,"209 LISA DRIVE, GANSEVOORT, NY, 12831","Match","Exact","209 LISA DR, GANSEVOORT, NY, 12831",640542973,"R"
112022,"209 LOCUST ST","ROBERTS","IL",60962,NA,NA,22,"209 LOCUST ST, ROBERTS, IL, 60962","Tie",NA,NA,NA,NA
112023,"209 LOMA LINDA LANE","BORGER","TX",79007,35.6391316730001,-101.450097613,23,"209 LOMA LINDA LANE, BORGER, TX, 79007","Match","Exact","209 LOMA LINDA LN, BORGER, TX, 79007",616145449,"L"
112024,"209 LONG HOLLOW RD","WARFORDSBURG","PA",17267,39.764429314,-78.191560609,24,"209 LONG HOLLOW RD, WARFORDSBURG, PA, 17267","Match","Exact","209 LONG HOLLOW RD, WARFORDSBURG, PA, 17267",61028019,"L"
112025,"209 LOOKOUT POINT","COMFORT","TX",78013,30.049485372,-98.9296540669999,25,"209 LOOKOUT POINT, COMFORT, TX, 78013","Match","Exact","209 LOOKOUT PT, COMFORT, TX, 78013",176922163,"R"
112026,"209 LUND ST","TAOS","NM",87571,36.4117921180001,-105.572622562,26,"209 LUND ST, TAOS, NM, 87571","Match","Exact","209 LUND ST, TAOS, NM, 87571",159933458,"R"
112027,"209 M L KING PARKWAY W","LIVINGSTON","AL",35470,NA,NA,27,"209 M L KING PARKWAY W, LIVINGSTON, AL, 35470","No_Match",NA,NA,NA,NA
112028,"209 M L KING PARKWAY","LIVINGSTON","AL",35470,NA,NA,28,"209 M L KING PARKWAY, LIVINGSTON, AL, 35470","No_Match",NA,NA,NA,NA
112029,"209 MACARTHUR","PORTAGEVILLE","MO",63873,36.4255489390001,-89.706488946,29,"209 MACARTHUR, PORTAGEVILLE, MO, 63873","Match","Non_Exact","209 MACARTHUR AVE, PORTAGEVILLE, MO, 63873",647890882,"L"
112030,"209 MADISON STREET 1A","BROOKLYN","NY",11216,40.684670608,-73.9510722749999,30,"209 MADISON STREET 1A, BROOKLYN, NY, 11216","Match","Exact","209 MADISON ST, BROOKLYN, NY, 11216",59078898,"L"
112031,"209 MAGIC LANE","SUNNYVALE","TX",75182,32.796724554,-96.5832736849999,31,"209 MAGIC LANE, SUNNYVALE, TX, 75182","Match","Exact","209 MAGIC LN, SUNNYVALE, TX, 75182",635763411,"L"
112032,"209 MAGNOLIA STREET","DARLINGTON","SC",29532,34.2867233900001,-79.868163669,32,"209 MAGNOLIA STREET, DARLINGTON, SC, 29532","Match","Exact","209 MAGNOLIA ST, DARLINGTON, SC, 29532",78402307,"R"
112033,"209 MAIN ST","PILOT GROVE","MO",65276,NA,NA,33,"209 MAIN ST, PILOT GROVE, MO, 65276","No_Match",NA,NA,NA,NA
112034,"209 MAIN STREET SOUTH PO BOX 19","LE SUEUR","MN",56058,NA,NA,34,"209 MAIN STREET SOUTH PO BOX 19, LE SUEUR, MN, 56058","No_Match",NA,NA,NA,NA
112035,"209 MALCOLM X BLVD","BROOKLYN","NY",11221,40.685902211,-73.9296393549999,35,"209 MALCOLM X BLVD, BROOKLYN, NY, 11221","Match","Exact","209 MALCOLM X BLVD, BROOKLYN, NY, 11221",59082745,"L"
112036,"209 MAPLE ST","ELSBERRY","MO",63343,39.1853947170001,-90.790494111,36,"209 MAPLE ST, ELSBERRY, MO, 63343","Match","Exact","209 MAPLE ST, ELSBERRY, MO, 63343",44872582,"L"
112037,"209 MARIE RD","WEST CHESTER","PA",19382,39.96994706,-75.5310382489999,37,"209 MARIE RD, WEST CHESTER, PA, 19382","Match","Non_Exact","209 MARIE RD, WEST CHESTER, PA, 19380",179517443,"L"
112038,"209 MARINA DRIVE","CLARKSVILLE","AR",72830,35.435680566,-93.46661782,38,"209 MARINA DRIVE, CLARKSVILLE, AR, 72830","Match","Exact","209 MARINA DR, CLARKSVILLE, AR, 72830",73519383,"L"
112039,"209 MAYFIELD ROAD","CLINTON","KY",42031,36.659030063,-88.97802451,39,"209 MAYFIELD ROAD, CLINTON, KY, 42031","Match","Exact","209 MAYFIELD RD, CLINTON, KY, 42031",27910711,"L"
112040,"209 MCCONNELL COURT","LYONS","CO",80540,40.2166358740001,-105.262240972,40,"209 MCCONNELL COURT, LYONS, CO, 80540","Match","Exact","209 MCCONNELL CT, LYONS, CO, 80540",627308713,"L"
112041,"209 MEADOW CREST DRIVE","WEST COLUMBIA","SC",29172,33.920710393,-81.098630584,41,"209 MEADOW CREST DRIVE, WEST COLUMBIA, SC, 29172","Match","Exact","209 MEADOW CREST DR, WEST COLUMBIA, SC, 29172",70073778,"L"
112042,"209 MEADOWCREEK DRIVE","COLUMBIA","SC",29203,34.082995688,-81.006774346,42,"209 MEADOWCREEK DRIVE, COLUMBIA, SC, 29203","Match","Non_Exact","209 MEADOW CREEK DR, COLUMBIA, SC, 29203",71819157,"L"
112043,"209 MERCEDES CT","EAST STROUDSBURG","PA",18301,41.041851476,-75.243258845,43,"209 MERCEDES CT, EAST STROUDSBURG, PA, 18301","Match","Exact","209 MERCEDES CT, E STROUDSBURG, PA, 18301",136759950,"R"
112044,"209 MERCHANTS AVENUE","FORT ATKINSON","WI",53538,42.9267098350001,-88.835722827,44,"209 MERCHANTS AVENUE, FORT ATKINSON, WI, 53538","Match","Exact","209 MERCHANTS AVE, FORT ATKINSON, WI, 53538",53216409,"R"
112045,"209 MEREDITH PLACE","LYNCHBURG","VA",24503,37.447310139,-79.2397030239999,45,"209 MEREDITH PLACE, LYNCHBURG, VA, 24503","Match","Exact","209 MEREDITH PL, LYNCHBURG, VA, 24503",62735841,"L"
112046,"209 MONROE STREET APT 218","ROCKVILLE","MD",20850,39.0805680240001,-77.15007832,46,"209 MONROE STREET APT 218, ROCKVILLE, MD, 20850","Match","Exact","209 MONROE ST, ROCKVILLE, MD, 20850",62119643,"R"
112047,"209 MORSE AVE APT 3","SUNNYVALE","CA",94086,37.3807656230001,-122.023357434,47,"209 MORSE AVE APT 3, SUNNYVALE, CA, 94086","Match","Exact","209 MORSE AVE, SUNNYVALE, CA, 94086",123180926,"L"
112048,"209 MORTON LANE","WINTER SPRINGS","FL",32078,28.67825809,-81.2946299669999,48,"209 MORTON LANE, WINTER SPRINGS, FL, 32078","Match","Non_Exact","209 MORTON LN, WINTER SPRINGS, FL, 32708",93740133,"R"
112049,"209 MOUNTAIN VISTA BOULEVARD","CANTON","GA",30115,34.2149396350001,-84.472677908,49,"209 MOUNTAIN VISTA BOULEVARD, CANTON, GA, 30115","Match","Exact","209 MOUNTAIN VISTA BLVD, CANTON, GA, 30115",628074740,"R"
112050,"209 N 19TH STREET UNIT 21","RICHMOND","VA",23223,37.534210108,-77.424936486,50,"209 N 19TH STREET UNIT 21, RICHMOND, VA, 23223","Match","Non_Exact","209 N 19TH ST, RICHMOND, VA, 23223",201541125,"R"
112051,"209 N 20TH ST  SUITE 145","BIRMINGHAM","AL",35203,33.5136829200001,-86.9002390049999,51,"209 N 20TH ST  SUITE 145, BIRMINGHAM, AL, 35203","Match","Non_Exact","209 20TH ST, BIRMINGHAM, AL, 35218",647568722,"R"
112052,"209 N 20TH ST","ESTHERVILLE","IA",51334,43.403448064,-94.816172599,52,"209 N 20TH ST, ESTHERVILLE, IA, 51334","Match","Exact","209 N 20TH ST, ESTHERVILLE, IA, 51334",9585691,"R"
112053,"209 N 2ND ST","ST MARYS","KS",66536,39.193063576,-96.064519487,53,"209 N 2ND ST, ST MARYS, KS, 66536","Match","Exact","209 N 2ND ST, SAINT MARYS, KS, 66536",22310823,"R"
112054,"209 N 4TH STREET","HUGO","OK",74743,34.0108990630001,-95.5086641889999,54,"209 N 4TH STREET, HUGO, OK, 74743","Match","Exact","209 N 4TH ST, HUGO, OK, 74743",63159052,"L"
112055,"209 N 7TH STREET","LEAVENWORTH","KS",66048,39.319468478,-94.918840076,55,"209 N 7TH STREET, LEAVENWORTH, KS, 66048","Match","Exact","209 N 7TH ST, LEAVENWORTH, KS, 66048",91401850,"L"
112056,"209 N AVALON ST","MEMPHIS","TN",38112,35.1449438270001,-90.006916673,56,"209 N AVALON ST, MEMPHIS, TN, 38112","Match","Exact","209 N AVALON ST, MEMPHIS, TN, 38112",72912255,"L"
112057,"209 N LUKEN ST","NORTH JUDSON","IN",46366,NA,NA,57,"209 N LUKEN ST, NORTH JUDSON, IN, 46366","No_Match",NA,NA,NA,NA
112058,"209 N MAIN","POCAHONTAS","IA",50574,42.7345584830001,-94.6689108,58,"209 N MAIN, POCAHONTAS, IA, 50574","Match","Non_Exact","209 N MAIN ST, POCAHONTAS, IA, 50574",77475302,"L"
112059,"209 N NORTON ST","CORUNNA","MI",48817,42.981286072,-84.123376623,59,"209 N NORTON ST, CORUNNA, MI, 48817","Match","Exact","209 N NORTON ST, CORUNNA, MI, 48817",23649274,"L"
112060,"209 NE 12TH AVENUE","OCALA","FL",34470,29.1885940060001,-82.123724295,60,"209 NE 12TH AVENUE, OCALA, FL, 34470","Match","Non_Exact","209 NE 12TH AVE, OCALA, FL, 34470",116728181,"R"
112061,"209 NE 36 AVE","OCALA","FL",34470,NA,NA,61,"209 NE 36 AVE, OCALA, FL, 34470","No_Match",NA,NA,NA,NA
112062,"209 NE 36TH AVE","OCALA","FL",34470,NA,NA,62,"209 NE 36TH AVE, OCALA, FL, 34470","No_Match",NA,NA,NA,NA
112063,"209 NESBIT PLACE","MADISON","MS",39110,32.4594996110001,-90.1517661399999,63,"209 NESBIT PLACE, MADISON, MS, 39110","Match","Exact","209 NESBIT PL, MADISON, MS, 39110",152488866,"L"
112064,"209 NEW BROOK STREET","BRISTOL","PA",19007,40.1009846440001,-74.8455828319999,64,"209 NEW BROOK STREET, BRISTOL, PA, 19007","Match","Exact","209 NEW BROOK ST, BRISTOL, PA, 19007",134718048,"L"
112065,"209 NEW VERMONT ROAD","BOLTON LANDING","NY",12814,43.6117538390001,-73.694257664,65,"209 NEW VERMONT ROAD, BOLTON LANDING, NY, 12814","Match","Exact","209 NEW VERMONT RD, BOLTON LANDING, NY, 12814",635607516,"L"
112066,"209 NOLAN STREET","ALBANY","KY",42602,36.6949208140001,-85.132817931,66,"209 NOLAN STREET, ALBANY, KY, 42602","Match","Exact","209 NOLAN ST, ALBANY, KY, 42602",635909252,"R"
112067,"209 NORTH ELM STREET","LUMBERTON","NC",28358,34.6182064560001,-79.008591947,67,"209 NORTH ELM STREET, LUMBERTON, NC, 28358","Match","Exact","209 N ELM ST, LUMBERTON, NC, 28358",608093974,"L"
112068,"209 NORTH HARRISON STREET","STOUGHTON","WI",53589,42.9195647710001,-89.229404892,68,"209 NORTH HARRISON STREET, STOUGHTON, WI, 53589","Match","Exact","209 N HARRISON ST, STOUGHTON, WI, 53589",49481462,"R"
112069,"209 NORTH MAIN STREET","ADRIAN","MI",49221,41.9005625880001,-84.035497881,69,"209 NORTH MAIN STREET, ADRIAN, MI, 49221","Match","Exact","209 N MAIN ST, ADRIAN, MI, 49221",25942939,"L"
112070,"209 NORTH MITCHELL STREET","BRACEVILLE","IL",60407,41.226357147,-88.264222396,70,"209 NORTH MITCHELL STREET, BRACEVILLE, IL, 60407","Match","Exact","209 N MITCHELL ST, BRACEVILLE, IL, 60407",54461662,"R"
112071,"209 NORTH SPRUCE STREET","NAZARETH","PA",18064,40.745972475,-75.3107077559999,71,"209 NORTH SPRUCE STREET, NAZARETH, PA, 18064","Match","Exact","209 N SPRUCE ST, NAZARETH, PA, 18064",136877826,"L"
112072,"209 NW 10TH STREET","REDMOND","OR",97756,44.277546296,-121.178569743,72,"209 NW 10TH STREET, REDMOND, OR, 97756","Match","Exact","209 NW 10TH ST, REDMOND, OR, 97756",152546928,"L"
112073,"209 OAK HOLLOW LN","RED OAK","TX",75154,32.5235138420001,-96.804226854,73,"209 OAK HOLLOW LN, RED OAK, TX, 75154","Match","Exact","209 OAK HOLLOW LN, RED OAK, TX, 75154",616590141,"L"
112074,"209 OAK RIDGE ROAD","OAK RIDGE","NJ",7438,NA,NA,74,"209 OAK RIDGE ROAD, OAK RIDGE, NJ, 7438","Tie",NA,NA,NA,NA
112075,"209 OE ST","KIHEI","HI",96753,20.777535917,-156.447971234,75,"209 OE ST, KIHEI, HI, 96753","Match","Exact","209 OE ST, KIHEI, HI, 96753",85093645,"R"
112076,"209 OLD MILL ROAD","HARRISON","MT",59735,45.7059832080001,-111.752818854,76,"209 OLD MILL ROAD, HARRISON, MT, 59735","Match","Exact","209 OLD MILL RD, HARRISON, MT, 59735",646806068,"R"
112077,"209 OLD SUDLOW LAKE RD","NORTH AUGUSTA","SC",29841,NA,NA,77,"209 OLD SUDLOW LAKE RD, NORTH AUGUSTA, SC, 29841","Tie",NA,NA,NA,NA
112078,"209 OLD WOOLEN MILL LN","LEXINGTON","KY",40511,38.0831193110001,-84.557038011,78,"209 OLD WOOLEN MILL LN, LEXINGTON, KY, 40511","Match","Exact","209 OLD WOOLEN MILL LN, LEXINGTON, KY, 40511",612300619,"R"
112079,"209 ORCHARD PLACE","CHARLESTON","WV",25302,38.3846515610001,-81.6069627259999,79,"209 ORCHARD PLACE, CHARLESTON, WV, 25302","Match","Exact","209 ORCHARD PL, CHARLESTON, WV, 25302",78594820,"L"
112080,"209 PACIFIC AVE","SHAFTER","CA",93263,35.5003662940001,-119.275608276,80,"209 PACIFIC AVE, SHAFTER, CA, 93263","Match","Exact","209 PACIFIC AVE, SHAFTER, CA, 93263",109009193,"L"
112081,"209 PARK AVE","CARMICHAELS","PA",15320,39.882267852,-79.9626093109999,81,"209 PARK AVE, CARMICHAELS, PA, 15320","Match","Exact","209 PARK AVE, CARMICHAELS, PA, 15320",51379196,"L"
112082,"209 PARK AVENUE","CARMICHAELS","PA",15320,39.882267852,-79.9626093109999,82,"209 PARK AVENUE, CARMICHAELS, PA, 15320","Match","Exact","209 PARK AVE, CARMICHAELS, PA, 15320",51379196,"L"
112083,"209 PARKWAY LANE","CANNON FALLS","MN",55009,44.518570675,-92.8967281819999,83,"209 PARKWAY LANE, CANNON FALLS, MN, 55009","Match","Exact","209 PARKWAY LN, CANNON FALLS, MN, 55009",647217793,"R"
112084,"209 PENNSYLVANIA AVE","BANGOR","PA",18013,40.868888467,-75.208219464,84,"209 PENNSYLVANIA AVE, BANGOR, PA, 18013","Match","Exact","209 PENNSYLVANIA AVE, BANGOR, PA, 18013",136870947,"R"
112085,"209 PINE WILLOW CT","FRIENDSWOOD","TX",77546,29.5225023520001,-95.215373232,85,"209 PINE WILLOW CT, FRIENDSWOOD, TX, 77546","Match","Exact","209 PINE WILLOW CT, FRIENDSWOOD, TX, 77546",96681496,"L"
112086,"209 PORTER ST","SILVERTON","OR",97381,44.9998661180001,-122.779823115,86,"209 PORTER ST, SILVERTON, OR, 97381","Match","Exact","209 PORTER ST, SILVERTON, OR, 97381",156271939,"R"
112087,"209 PRAIRIE HEN LANE","HAMPTON","GA",30228,33.4451719460001,-84.288976708,87,"209 PRAIRIE HEN LANE, HAMPTON, GA, 30228","Match","Exact","209 PRAIRIE HEN LN, HAMPTON, GA, 30228",619934207,"R"
112088,"209 PRAIRIE VERBENA DR","KYLE","TX",78640,30.025707987,-97.837098364,88,"209 PRAIRIE VERBENA DR, KYLE, TX, 78640","Match","Exact","209 PRAIRIE VERBENA DR, KYLE, TX, 78640",632723524,"R"
112089,"209 PRESIDENTIAL DR C","GREENVILLE","DE",19807,39.772862102,-75.5979515769999,89,"209 PRESIDENTIAL DR C, GREENVILLE, DE, 19807","Match","Exact","209 PRESIDENTIAL DR, GREENVILLE, DE, 19807",187253976,"R"
112090,"209 PRESQUE ISLE DRIVE","HOUMA","LA",70363,29.5726055810001,-90.653503362,90,"209 PRESQUE ISLE DRIVE, HOUMA, LA, 70363","Match","Exact","209 PRESQUE ISLE DR, HOUMA, LA, 70363",92071543,"L"
112091,"209 PROSPECT STREET","EAST ORANGE","NJ",7017,40.772224346,-74.21199569,91,"209 PROSPECT STREET, EAST ORANGE, NJ, 7017","Match","Exact","209 PROSPECT ST, EAST ORANGE, NJ, 07017",63472052,"L"
112092,"209 PUDDIN RIDGE RD","MOYOCK","NC",27958,36.518145415,-76.179195756,92,"209 PUDDIN RIDGE RD, MOYOCK, NC, 27958","Match","Exact","209 PUDDIN RIDGE RD, MOYOCK, NC, 27958",640407415,"R"
112093,"209 QUARRY ROAD","MUNCY","PA",17756,41.195695131,-76.781960294,93,"209 QUARRY ROAD, MUNCY, PA, 17756","Match","Exact","209 QUARRY RD, MUNCY, PA, 17756",636472250,"L"
112094,"209 RADBURN ROAD","PHILADELPHIA","PA",19115,40.105264929,-75.053895105,94,"209 RADBURN ROAD, PHILADELPHIA, PA, 19115","Match","Exact","209 RADBURN RD, PHILADELPHIA, PA, 19115",131430211,"L"
112095,"209 RAMBLEWOOD DR","MOUNT OLIVE","NC",28365,35.237389937,-78.062461175,95,"209 RAMBLEWOOD DR, MOUNT OLIVE, NC, 28365","Match","Exact","209 RAMBLEWOOD DR, MOUNT OLIVE, NC, 28365",14410530,"R"
112096,"209 RAMSLAND STREET PO BOX 45","BUFFALO","SD",57720,NA,NA,96,"209 RAMSLAND STREET PO BOX 45, BUFFALO, SD, 57720","No_Match",NA,NA,NA,NA
112097,"209 RAVENSHILL WAY","DELAND","FL",32724,28.9822012070001,-81.257428659,97,"209 RAVENSHILL WAY, DELAND, FL, 32724","Match","Exact","209 RAVENSHILL WAY, DELAND, FL, 32724",612317641,"L"
112098,"209 REPUBLIC ROAD","BATAVIA","IL",60510,41.8524109250001,-88.320332577,98,"209 REPUBLIC ROAD, BATAVIA, IL, 60510","Match","Exact","209 REPUBLIC RD, BATAVIA, IL, 60510",119542471,"L"
112099,"209 RICHLAND AVE","LAFAYETTE","LA",70508,30.171651878,-92.041216401,99,"209 RICHLAND AVE, LAFAYETTE, LA, 70508","Match","Exact","209 RICHLAND AVE, LAFAYETTE, LA, 70508",85632768,"R"
112100,"209 RIVER PLACE W","GATESVILLE","TX",76528,31.411056994,-97.729500265,100,"209 RIVER PLACE W, GATESVILLE, TX, 76528","Match","Exact","209 RIVER PL W, GATESVILLE, TX, 76528",146577170,"R"
112101,"209 RODMAN RD","NORFOLK","VA",23503,36.9381928540001,-76.268507309,101,"209 RODMAN RD, NORFOLK, VA, 23503","Match","Exact","209 RODMAN RD, NORFOLK, VA, 23503",122136064,"L"
112102,"209 RONALDSBY DRIVE","CARY","NC",27511,35.7444007170001,-78.783586427,102,"209 RONALDSBY DRIVE, CARY, NC, 27511","Match","Exact","209 RONALDSBY DR, CARY, NC, 27511",72558816,"R"
112103,"209 ROSE STREET EXT","EAST HAVEN","CT",6513,NA,NA,103,"209 ROSE STREET EXT, EAST HAVEN, CT, 6513","No_Match",NA,NA,NA,NA
112104,"209 ROXBOROUGH ROAD","ROCHESTER","NY",14619,43.141258764,-77.65657155,104,"209 ROXBOROUGH ROAD, ROCHESTER, NY, 14619","Match","Exact","209 ROXBOROUGH RD, ROCHESTER, NY, 14619",14532834,"L"
112105,"209 RUGGLES LOOP","TEMPLE","TX",76501,31.1228626660001,-97.325818683,105,"209 RUGGLES LOOP, TEMPLE, TX, 76501","Match","Exact","209 RUGGLES LOOP, TEMPLE, TX, 76501",146227750,"R"
112106,"209 RUN VALLEY RD","CONESTOGA","PA",17516,39.9432807260001,-76.3463520559999,106,"209 RUN VALLEY RD, CONESTOGA, PA, 17516","Match","Exact","209 VALLEY RD, CONESTOGA, PA, 17516",640641622,"L"
112107,"209 RUTTER AVE","EARLINGTON","KY",42410,37.2775951360001,-87.511954749,107,"209 RUTTER AVE, EARLINGTON, KY, 42410","Match","Exact","209 RUTTER AVE, EARLINGTON, KY, 42410",11502661,"L"
112108,"209 S 8TH STREET","ASHTON","ID",83420,NA,NA,108,"209 S 8TH STREET, ASHTON, ID, 83420","No_Match",NA,NA,NA,NA
112109,"209 S CLEVELAND PK DR","SPARTANBURD","SC",29303,34.9630419550001,-81.9501967899999,109,"209 S CLEVELAND PK DR, SPARTANBURD, SC, 29303","Match","Non_Exact","209 S CLEVELAND PARK DR, SPARTANBURG, SC, 29303",19467378,"L"
112110,"209 S CLYDE AVE","KISSIMMEE","FL",34741,28.289758443,-81.4132271829999,110,"209 S CLYDE AVE, KISSIMMEE, FL, 34741","Match","Exact","209 S CLYDE AVE, KISSIMMEE, FL, 34741",176656520,"L"
112111,"209 S EXETER ST","BALTIMORE","MD",21202,39.2875966770001,-76.60131638,111,"209 S EXETER ST, BALTIMORE, MD, 21202","Match","Exact","209 S EXETER ST, BALTIMORE, MD, 21202",206421707,"L"
112112,"209 S HUMPHREYS ST","FLAGSTAFF","AZ",86001,35.1952938950001,-111.652506608,112,"209 S HUMPHREYS ST, FLAGSTAFF, AZ, 86001","Match","Exact","209 S HUMPHREYS ST, FLAGSTAFF, AZ, 86001",188861094,"L"
112113,"209 S LONG STREET UNIT 766","EAST SPENCER","NC",28039,35.683344694,-80.434185035,113,"209 S LONG STREET UNIT 766, EAST SPENCER, NC, 28039","Match","Non_Exact","209 S LONG ST, EAST SPENCER, NC, 28039",25270421,"R"
112114,"209 S MACDADE BLVD APT L","GLENOLDEN","PA",19036,39.9024231750001,-75.2979217609999,114,"209 S MACDADE BLVD APT L, GLENOLDEN, PA, 19036","Match","Exact","209 MACDADE BLVD, GLENOLDEN, PA, 19036",649900612,"L"
112115,"209 S MAIN STREET","SUMMERVILLE","SC",29483,33.018262501,-80.1763515809999,115,"209 S MAIN STREET, SUMMERVILLE, SC, 29483","Match","Exact","209 S MAIN ST, SUMMERVILLE, SC, 29483",178459922,"R"
112116,"209 S MAIN","STOCKPORT","IA",52651,NA,NA,116,"209 S MAIN, STOCKPORT, IA, 52651","No_Match",NA,NA,NA,NA
112117,"209 S OLIVER DR","AZTEC","NM",87410,36.8244782300001,-108.020753496,117,"209 S OLIVER DR, AZTEC, NM, 87410","Match","Exact","209 S OLIVER DR, AZTEC, NM, 87410",611550528,"L"
112118,"209 S ROSE ST","PHOENIX","OR",97535,42.2711987220001,-122.817441945,118,"209 S ROSE ST, PHOENIX, OR, 97535","Match","Exact","209 S ROSE ST, PHOENIX, OR, 97535",155516127,"R"
112119,"209 SAGE LANE 2F","PETERSBURG","VA",23805,37.1782304650001,-77.3706869329999,119,"209 SAGE LANE 2F, PETERSBURG, VA, 23805","Match","Exact","209 SAGE LN, PETERSBURG, VA, 23805",636053198,"R"
112120,"209 SAN REMO CIRCLE","EDGEWATER","FL",32141,28.9465478660001,-80.88562827,120,"209 SAN REMO CIRCLE, EDGEWATER, FL, 32141","Match","Exact","209 SAN REMO CIR, EDGEWATER, FL, 32141",94597171,"L"
112121,"209 SANDBAR CIRCLE APT2B","GREENSBORO","NC",27406,35.998715867,-79.794007143,121,"209 SANDBAR CIRCLE APT2B, GREENSBORO, NC, 27406","Match","Exact","209 SANDBAR CIR, GREENSBORO, NC, 27406",646504047,"L"
112122,"209 SAPPHIRE RD","NEW SMYRNA BEACH","FL",32169,29.0458948360001,-80.902831772,122,"209 SAPPHIRE RD, NEW SMYRNA BEACH, FL, 32169","Match","Exact","209 SAPPHIRE RD, NEW SMYRNA BEACH, FL, 32169",94531761,"R"
112123,"209 SCOTT AVENUE","GREEN FOREST","AR",72638,36.3362323650001,-93.434508866,123,"209 SCOTT AVENUE, GREEN FOREST, AR, 72638","Match","Exact","209 SCOTT AVE, GREEN FOREST, AR, 72638",20074779,"R"
112124,"209 SE 5TH AVE","DELRAY BEACH","FL",33483,26.4577359900001,-80.067958,124,"209 SE 5TH AVE, DELRAY BEACH, FL, 33483","Match","Exact","209 SE 5TH AVE, DELRAY BEACH, FL, 33483",115298223,"L"
112125,"209 SEACREST BLVD","LEAGUE CITY","TX",77573,29.508024864,-95.03587239,125,"209 SEACREST BLVD, LEAGUE CITY, TX, 77573","Match","Exact","209 SEACREST BLVD, LEAGUE CITY, TX, 77573",638022504,"R"
112126,"209 SECOND AVE EAST","ONEONTA","AL",35121,33.9456459250001,-86.476370192,126,"209 SECOND AVE EAST, ONEONTA, AL, 35121","Match","Exact","209 2ND AVE E, ONEONTA, AL, 35121",99067146,"R"
112127,"209 SEMPLE STREET","MODESTO","CA",95354,37.646719766,-120.990281069,127,"209 SEMPLE STREET, MODESTO, CA, 95354","Match","Exact","209 SEMPLE ST, MODESTO, CA, 95354",102604751,"L"
112128,"209 SEWICKLEY AVENUE","HERMINIE","PA",15637,40.2635580350001,-79.716154907,128,"209 SEWICKLEY AVENUE, HERMINIE, PA, 15637","Match","Exact","209 SEWICKLEY AVE, HERMINIE, PA, 15637",52968078,"L"
112129,"209 SHADYBROOK DRIVE","LANGHORNE","PA",19047,40.2207528060001,-74.887281158,129,"209 SHADYBROOK DRIVE, LANGHORNE, PA, 19047","Match","Non_Exact","209 SHADY BROOK DR, LANGHORNE, PA, 19047",627071766,"R"
112130,"209 SHAWNEE TRAIL","GEORGETOWN","KY",40324,38.201035211,-84.565474615,130,"209 SHAWNEE TRAIL, GEORGETOWN, KY, 40324","Match","Exact","209 SHAWNEE TRL, GEORGETOWN, KY, 40324",41232318,"R"
112131,"209 SHERWOOD PL NW","LENOIR","NC",28645,35.9115104690001,-81.5470018459999,131,"209 SHERWOOD PL NW, LENOIR, NC, 28645","Match","Exact","209 SHERWOOD PL NW, LENOIR, NC, 28645",45845085,"L"
112132,"209 SILVERADO STREET","BOLINGBROOK","IL",60490,41.693340296,-88.147261777,132,"209 SILVERADO STREET, BOLINGBROOK, IL, 60490","Match","Exact","209 SILVERADO ST, BOLINGBROOK, IL, 60490",111583179,"R"
112133,"209 SLADE DRIVE","LONGWOOD","FL",32750,28.701577983,-81.3696245739999,133,"209 SLADE DRIVE, LONGWOOD, FL, 32750","Match","Exact","209 SLADE DR, LONGWOOD, FL, 32750",647533018,"L"
112134,"209 SNOW BIRD DRIVE","HAMPTON","GA",30228,33.461282091,-84.273313964,134,"209 SNOW BIRD DRIVE, HAMPTON, GA, 30228","Match","Exact","209 SNOW BIRD DR, HAMPTON, GA, 30228",648227820,"L"
112135,"209 SOUTH 5TH STREET","NASHVILLE","TN",37206,36.171766742,-86.76470183,135,"209 SOUTH 5TH STREET, NASHVILLE, TN, 37206","Match","Exact","209 S 5TH ST, NASHVILLE, TN, 37206",606393569,"L"
112136,"209 SOUTH LAKE STREET NUM F","LEESBURG","FL",34748,28.809872694,-81.866916736,136,"209 SOUTH LAKE STREET NUM F, LEESBURG, FL, 34748","Match","Exact","209 S LAKE ST, LEESBURG, FL, 34748",94099444,"L"
112137,"209 SOUTH LASALLE SUITE 800","CHICAGO","IL",60604,41.87913632,-87.6322743219999,137,"209 SOUTH LASALLE SUITE 800, CHICAGO, IL, 60604","Match","Non_Exact","209 S LA SALLE ST, CHICAGO, IL, 60604",111769557,"L"
112138,"209 SOUTH MAPLE AVENUE","GREENSBURG","PA",15601,40.3013693500001,-79.542817623,138,"209 SOUTH MAPLE AVENUE, GREENSBURG, PA, 15601","Match","Exact","209 S MAPLE AVE, GREENSBURG, PA, 15601",52975596,"L"
112139,"209 SOUTH MIDLAND STREET","GOLDSMITH","TX",79741,31.9796760520001,-102.613136672,139,"209 SOUTH MIDLAND STREET, GOLDSMITH, TX, 79741","Match","Non_Exact","209 MIDLAND ST, GOLDSMITH, TX, 79741",139421403,"L"
112140,"209 SOUTH ROAD","CHAPEL HILL","NC",27599,35.909344129,-79.048462518,140,"209 SOUTH ROAD, CHAPEL HILL, NC, 27599","Match","Non_Exact","209 SOUTH RD, CHAPEL HILL, NC, 27514",72380382,"L"
112141,"209 SOUTH SHILOH AVENUE","CONWAY","MO",65632,37.502304791,-92.83316156,141,"209 SOUTH SHILOH AVENUE, CONWAY, MO, 65632","Match","Exact","209 S SHILOH AVE, CONWAY, MO, 65632",26120009,"L"
112142,"209 SOUTH STEPHANIE ST B116","HENDERSON","NV",89012,36.0206190280001,-115.04732613,142,"209 SOUTH STEPHANIE ST B116, HENDERSON, NV, 89012","Match","Exact","209 S STEPHANIE ST, HENDERSON, NV, 89012",201956143,"L"
112143,"209 SOUTH WILLIAMS","MOBERLY","MO",65270,39.417509769,-92.439221522,143,"209 SOUTH WILLIAMS, MOBERLY, MO, 65270","Match","Non_Exact","209 S WILLIAMS ST, MOBERLY, MO, 65270",23795348,"L"
112144,"209 SPRING CREEK RD","BARRINGTON HILLS","IL",60010,42.168739547,-88.2231960459999,144,"209 SPRING CREEK RD, BARRINGTON HILLS, IL, 60010","Match","Non_Exact","209 SPRING CREEK RD, BARRINGTON, IL, 60010",119849409,"R"
112145,"209 SPRINGVIEW DR","GRAY","TN",37615,NA,NA,145,"209 SPRINGVIEW DR, GRAY, TN, 37615","No_Match",NA,NA,NA,NA
112146,"209 STEPHENS AVE","NATCHITOCHES","LA",71457,31.7592856140001,-93.083047337,146,"209 STEPHENS AVE, NATCHITOCHES, LA, 71457","Match","Exact","209 STEPHENS AVE, NATCHITOCHES, LA, 71457",13364300,"L"
112147,"209 STEVENS AVE","BUFFALO","NY",14215,42.9197745110001,-78.825365902,147,"209 STEVENS AVE, BUFFALO, NY, 14215","Match","Exact","209 STEVENS AVE, BUFFALO, NY, 14215",48296676,"R"
112148,"209 STONEBURG DR","DUSON","LA",70529,30.185677953,-92.1703379209999,148,"209 STONEBURG DR, DUSON, LA, 70529","Match","Exact","209 STONEBURG DR, DUSON, LA, 70529",643271861,"R"
112149,"209 STONEDALE WAY","ANTIOCH","TN",37013,36.0478328450001,-86.615261392,149,"209 STONEDALE WAY, ANTIOCH, TN, 37013","Match","Exact","209 STONEDALE WAY, ANTIOCH, TN, 37013",97229370,"L"
112150,"209 SUNNY MEADE LANE","MADISON","WI",53713,43.0419924450001,-89.385802347,150,"209 SUNNY MEADE LANE, MADISON, WI, 53713","Match","Exact","209 SUNNY MEADE LN, MADISON, WI, 53713",49473604,"L"
112151,"209 SW 4TH ST","ANDREWS","TX",79714,32.316496731,-102.55095409,151,"209 SW 4TH ST, ANDREWS, TX, 79714","Match","Exact","209 SW 4TH ST, ANDREWS, TX, 79714",139077023,"R"
112152,"209 SW F STREET","BENTONVILLE","AR",72712,36.371249194,-94.216860017,152,"209 SW F STREET, BENTONVILLE, AR, 72712","Match","Exact","209 SW F ST, BENTONVILLE, AR, 72712",47832084,"L"
112153,"209 SWEET AVENUE","BUFFALO","NY",14212,42.8957530770001,-78.8335620409999,153,"209 SWEET AVENUE, BUFFALO, NY, 14212","Match","Exact","209 SWEET AVE, BUFFALO, NY, 14212",48300616,"R"
112154,"209 TAFT STREET SW","ATLANTA","GA",30315,33.7104771850001,-84.396077156,154,"209 TAFT STREET SW, ATLANTA, GA, 30315","Match","Exact","209 TAFT ST SW, ATLANTA, GA, 30315",17346731,"R"
112155,"209 THREE TRACK MOUNTAIN ROAD","WARNERVILLE","NY",12187,42.637885452,-74.49970293,155,"209 THREE TRACK MOUNTAIN ROAD, WARNERVILLE, NY, 12187","Match","Exact","209 THREE TRACK MOUNTAIN RD, WARNERVILLE, NY, 12187",635893119,"L"
112156,"209 TOPEKA COURT","STOCKBRIDGE","GA",30281,33.543885129,-84.1428389499999,156,"209 TOPEKA COURT, STOCKBRIDGE, GA, 30281","Match","Exact","209 TOPEKA CT, STOCKBRIDGE, GA, 30281",619916595,"R"
112157,"209 TROJAN TERRACE","HOT SPRINGS","AR",71913,34.471803188,-93.071237407,157,"209 TROJAN TERRACE, HOT SPRINGS, AR, 71913","Match","Exact","209 TROJAN TER, HOT SPRINGS, AR, 71913",22735682,"R"
112158,"209 TURNSTONE ROAD","STOCKBRIDGE","GA",30281,33.505987985,-84.248019187,158,"209 TURNSTONE ROAD, STOCKBRIDGE, GA, 30281","Match","Exact","209 TURNSTONE RD, STOCKBRIDGE, GA, 30281",629879233,"R"
112159,"209 TYSON DRIVE","FALLS CHURCH","VA",22046,38.8795424900001,-77.161322562,159,"209 TYSON DRIVE, FALLS CHURCH, VA, 22046","Match","Exact","209 TYSON DR, FALLS CHURCH, VA, 22046",624917796,"L"
112160,"209 UNION ST PO BOX 261","PARAGON","IN",46166,39.3951928720001,-86.5611408509999,160,"209 UNION ST PO BOX 261, PARAGON, IN, 46166","Match","Exact","209 UNION ST, PARAGON, IN, 46166",634512429,"L"
112161,"209 UNIT STREET","PROVIDENCE","RI",2909,41.830838424,-71.454596013,161,"209 UNIT STREET, PROVIDENCE, RI, 2909","Match","Exact","209 UNIT ST, PROVIDENCE, RI, 02909",47459189,"R"
112162,"209 VARSITY DRIVE","ORTONVILLE","MI",48462,42.8451636880001,-83.4478792,162,"209 VARSITY DRIVE, ORTONVILLE, MI, 48462","Match","Exact","209 VARSITY DR, ORTONVILLE, MI, 48462",69813226,"L"
112163,"209 VERNON STREET","ROSEVILLE","CA",95678,38.74976567,-121.283006491,163,"209 VERNON STREET, ROSEVILLE, CA, 95678","Match","Exact","209 VERNON ST, ROSEVILLE, CA, 95678",624909293,"L"
112164,"209 VIA COLORIN","PALOS VERDES ESTATES","CA",90274,33.8015423480001,-118.360719827,164,"209 VIA COLORIN, PALOS VERDES ESTATES, CA, 90274","Match","Exact","209 VIA COLORIN, PALOS VERDES ESTATES, CA, 90274",141665462,"R"
112165,"209 W 1ST STREET","SUMNER","IA",50674,NA,NA,165,"209 W 1ST STREET, SUMNER, IA, 50674","Tie",NA,NA,NA,NA
112166,"209 W 2ND ST SUITE 321","FORT WORTH","TX",76102,NA,NA,166,"209 W 2ND ST SUITE 321, FORT WORTH, TX, 76102","Tie",NA,NA,NA,NA
112167,"209 W 3RD AVE","COLUMBUS","OH",43201,39.983619785,-83.010713561,167,"209 W 3RD AVE, COLUMBUS, OH, 43201","Match","Exact","209 W 3RD AVE, COLUMBUS, OH, 43201",135575284,"L"
112168,"209 W 3RD STREET","KENNEDALE","TX",76060,32.6470537590001,-97.222692884,168,"209 W 3RD STREET, KENNEDALE, TX, 76060","Match","Exact","209 W 3RD ST, KENNEDALE, TX, 76060",102120457,"R"
112169,"209 W CANNON ST","LAFAYETTE","CO",80026,39.996248226,-105.091933289,169,"209 W CANNON ST, LAFAYETTE, CO, 80026","Match","Exact","209 W CANNON ST, LAFAYETTE, CO, 80026",188167022,"R"
112170,"209 W FOWLER","MEDICINE LODGE","KS",67104,37.2757824780001,-98.581564393,170,"209 W FOWLER, MEDICINE LODGE, KS, 67104","Match","Non_Exact","209 W FOWLER AVE, MEDICINE LODGE, KS, 67104",160737167,"L"
112171,"209 W G AVE","NORTH LITTLE ROCK","AR",72116,34.7891701670001,-92.261818783,171,"209 W G AVE, NORTH LITTLE ROCK, AR, 72116","Match","Exact","209 W G AVE, N LITTLE ROCK, AR, 72116",83568744,"R"
112172,"209 W MAIN ST STE 107","GRAND PRAIRIE","TX",75050,NA,NA,172,"209 W MAIN ST STE 107, GRAND PRAIRIE, TX, 75050","Tie",NA,NA,NA,NA
112173,"209 W MAIN STREET","ADA","OK",74820,34.774504694,-96.676726539,173,"209 W MAIN STREET, ADA, OK, 74820","Match","Non_Exact","209 E MAIN ST, ADA, OK, 74820",58486603,"L"
112174,"209 W MECHANIC ST","FROSTBURG","MD",21532,39.6614151590001,-78.933298571,174,"209 W MECHANIC ST, FROSTBURG, MD, 21532","Match","Exact","209 W MECHANIC ST, FROSTBURG, MD, 21532",123309216,"R"
112175,"209 W PEARL ST 100","POMONA","CA",91768,34.0645658810001,-117.752936909,175,"209 W PEARL ST 100, POMONA, CA, 91768","Match","Non_Exact","209 W PEARL ST, POMONA, CA, 91768",141733698,"R"
112176,"209 W TRISH KNIGHT ST","WEST PLAINS","MO",65775,36.729661435,-91.853813198,176,"209 W TRISH KNIGHT ST, WEST PLAINS, MO, 65775","Match","Exact","209 W TRISH KNIGHT ST, WEST PLAINS, MO, 65775",33313741,"R"
112177,"209 WALCOTT WAY","CARY","NC",27519,35.810705478,-78.8578474399999,177,"209 WALCOTT WAY, CARY, NC, 27519","Match","Exact","209 WALCOTT WAY, CARY, NC, 27519",72614930,"L"
112178,"209 WALKER HOLLOW ROAD","FLINTSTONE","GA",30725,34.8840961330001,-85.350532643,178,"209 WALKER HOLLOW ROAD, FLINTSTONE, GA, 30725","Match","Exact","209 WALKER HOLLOW RD, FLINTSTONE, GA, 30725",637419706,"L"
112179,"209 WALNUT STREET","NEWPORT","AR",72112,35.6052977620001,-91.2826334869999,179,"209 WALNUT STREET, NEWPORT, AR, 72112","Match","Exact","209 WALNUT ST, NEWPORT, AR, 72112",69426130,"L"
112180,"209 WASHINGTON AVE","CHATHAM","NJ",7928,40.7302061010001,-74.395715119,180,"209 WASHINGTON AVE, CHATHAM, NJ, 7928","Match","Exact","209 WASHINGTON AVE, CHATHAM, NJ, 07928",60450311,"L"
112181,"209 WEST 1ST HIGH ST","CENTRAL CITY","CO",80427,39.802124303,-105.51391932,181,"209 WEST 1ST HIGH ST, CENTRAL CITY, CO, 80427","Match","Exact","209 W 1ST HIGH ST, CENTRAL CITY, CO, 80427",186480995,"R"
112182,"209 WEST 21ST STREET","WILMINGTON","DE",19802,39.754284157,-75.5422893269999,182,"209 WEST 21ST STREET, WILMINGTON, DE, 19802","Match","Exact","209 W 21ST ST, WILMINGTON, DE, 19802",187258839,"R"
112183,"209 WEST 2ND STREET BOX 190","FORT WORTH","TX",76102,32.7553299740001,-97.332894749,183,"209 WEST 2ND STREET BOX 190, FORT WORTH, TX, 76102","Match","Exact","209 W 2ND ST, FORT WORTH, TX, 76102",101884693,"L"
112184,"209 WEST BEAUREGARD AVE","SAN ANGELO","TX",76903,31.461334224,-100.440622144,184,"209 WEST BEAUREGARD AVE, SAN ANGELO, TX, 76903","Match","Exact","209 W BEAUREGARD AVE, SAN ANGELO, TX, 76903",190682825,"L"
112185,"209 WEST CALDER WAY","STATE COLLEGE","PA",16801,40.7931348760001,-77.862371616,185,"209 WEST CALDER WAY, STATE COLLEGE, PA, 16801","Match","Exact","209 W CALDER WAY, STATE COLLEGE, PA, 16801",50398480,"R"
112186,"209 WEST MAIN STREET","WESTFIELD","IN",46074,40.042727219,-86.129818811,186,"209 WEST MAIN STREET, WESTFIELD, IN, 46074","Match","Exact","209 W MAIN ST, WESTFIELD, IN, 46074",650440034,"R"
112187,"209 WEST PIKE STREET","JACKSON CENTER","OH",45334,40.439768509,-84.041966295,187,"209 WEST PIKE STREET, JACKSON CENTER, OH, 45334","Match","Exact","209 W PIKE ST, JACKSON CENTER, OH, 45334",636565709,"L"
112188,"209 WEST PINE STREET","GOLDSBORO","NC",27530,35.379699755,-78.000590957,188,"209 WEST PINE STREET, GOLDSBORO, NC, 27530","Match","Exact","209 W PINE ST, GOLDSBORO, NC, 27530",14403355,"R"
112189,"209 WEST WOODLAND AVE","YOUNGSTOWN","OH",44502,41.0937697680001,-80.6581056269999,189,"209 WEST WOODLAND AVE, YOUNGSTOWN, OH, 44502","Match","Exact","209 W WOODLAND AVE, YOUNGSTOWN, OH, 44502",64595397,"L"
112190,"209 WESTWOOD DR","TALLAHASSEE","FL",32304,30.4626188940001,-84.320611017,190,"209 WESTWOOD DR, TALLAHASSEE, FL, 32304","Match","Exact","209 WESTWOOD DR, TALLAHASSEE, FL, 32304",618798672,"L"
112191,"209 WHITEHALL AVE","GEORGETOWN","SC",29440,33.3062346,-79.2998608899999,191,"209 WHITEHALL AVE, GEORGETOWN, SC, 29440","Match","Exact","209 WHITEHALL AVE, GEORGETOWN, SC, 29440",29004252,"R"
112192,"209 WILLIAM DUFFIE ROAD","COLUMBIA","SC",29203,34.1257449070001,-81.0000220009999,192,"209 WILLIAM DUFFIE ROAD, COLUMBIA, SC, 29203","Match","Exact","209 WILLIAM DUFFIE RD, COLUMBIA, SC, 29203",71837725,"R"
112193,"209 WINDMILL ST","PROVIDENCE","RI",2904,41.859517618,-71.417696575,193,"209 WINDMILL ST, PROVIDENCE, RI, 2904","Match","Exact","209 WINDMILL ST, PROVIDENCE, RI, 02904",645437056,"R"
112194,"209 WOODGROVE DR","MADISON","AL",35758,NA,NA,194,"209 WOODGROVE DR, MADISON, AL, 35758","No_Match",NA,NA,NA,NA
112195,"209 WOODRIDGE BLVD","MANDEVILLE","LA",70471,30.4023808950001,-90.121095971,195,"209 WOODRIDGE BLVD, MANDEVILLE, LA, 70471","Match","Exact","209 WOODRIDGE BLVD, MANDEVILLE, LA, 70471",639184311,"R"
112196,"209 WOODSCAPE DRIVE","ALBANY","NY",12203,42.673746656,-73.8374601099999,196,"209 WOODSCAPE DRIVE, ALBANY, NY, 12203","Match","Exact","209 WOODSCAPE DR, ALBANY, NY, 12203",18324516,"R"
112197,"209 WOODVALE STREET","HOUSTON","TX",77012,29.7248062570001,-95.287472935,197,"209 WOODVALE STREET, HOUSTON, TX, 77012","Match","Exact","209 WOODVALE ST, HOUSTON, TX, 77012",96083637,"L"
112198,"209 YARNALL STREET","CHESTER","PA",19013,39.8353610200001,-75.3816946809999,198,"209 YARNALL STREET, CHESTER, PA, 19013","Match","Exact","209 YARNALL ST, CHESTER, PA, 19013",134890135,"R"
112199,"209 YORK STREET","BROOKLYN","NY",11201,40.7013520620001,-73.982533799,199,"209 YORK STREET, BROOKLYN, NY, 11201","Match","Exact","209 YORK ST, BROOKLYN, NY, 11201",59077402,"L"
112200,"209-20 JAMAICA AVE - PO BOX 28011","QUEENS VILLAGE","NY",11428,NA,NA,200,"209-20 JAMAICA AVE - PO BOX 28011, QUEENS VILLAGE, NY, 11428","No_Match",NA,NA,NA,NA
112201,"209-33 3C  26TH AVENUE","BAYSIDE","NY",11360,NA,NA,201,"209-33 3C  26TH AVENUE, BAYSIDE, NY, 11360","No_Match",NA,NA,NA,NA
112202,"2090 69TH AVE S","ST PETERSBURG","FL",33712,27.7055283340001,-82.660439308,202,"2090 69TH AVE S, ST PETERSBURG, FL, 33712","Match","Exact","2090 69TH AVE S, SAINT PETERSBURG, FL, 33712",124711369,"L"
112203,"2090 ALKIRE ST","GOLDEN","CO",80401,39.7484828720001,-105.147520653,203,"2090 ALKIRE ST, GOLDEN, CO, 80401","Match","Exact","2090 ALKIRE ST, GOLDEN, CO, 80401",177285776,"R"
112204,"2090 ARTHUR ST","EUGENE","OR",97405,44.0367706390001,-123.124187149,204,"2090 ARTHUR ST, EUGENE, OR, 97405","Match","Exact","2090 ARTHUR ST, EUGENE, OR, 97405",178166139,"R"
112205,"2090 BAKER RD 304-125","KENNESAW","GA",30144,34.0503150770001,-84.6129071619999,205,"2090 BAKER RD 304-125, KENNESAW, GA, 30144","Match","Exact","2090 BAKER RD, KENNESAW, GA, 30144",17241473,"R"
112206,"2090 BROADWAY ST - SUITE A","BEUAMONT","TX",77701,30.0848658030001,-94.116656271,206,"2090 BROADWAY ST - SUITE A, BEUAMONT, TX, 77701","Match","Non_Exact","2090 BROADWAY ST, BEAUMONT, TX, 77701",73854089,"R"
112207,"2090 CORMORANT LANE","SUAMICO","WI",54313,44.626632552,-88.0678828649999,207,"2090 CORMORANT LANE, SUAMICO, WI, 54313","Match","Exact","2090 CORMORANT LN, SUAMICO, WI, 54313",148117104,"R"
112208,"2090 DEL LAGO CIR NW","KENNESAW","GA",30152,34.0010633480001,-84.609013814,208,"2090 DEL LAGO CIR NW, KENNESAW, GA, 30152","Match","Non_Exact","2090 DEL LAGO CIR, KENNESAW, GA, 30152",637529138,"L"
112209,"2090 HIGHWAY 157 NBLDG 200","MANSFIELD","TX",76063,32.6056799830001,-97.1437015669999,209,"2090 HIGHWAY 157 NBLDG 200, MANSFIELD, TX, 76063","Match","Non_Exact","2090 HWY 157 N, MANSFIELD, TX, 76063",648550897,"R"
112210,"2090 HONEYWELL AVENUE","BRONX","NY",10460,40.844669013,-73.882687161,210,"2090 HONEYWELL AVENUE, BRONX, NY, 10460","Match","Exact","2090 HONEYWELL AVE, BRONX, NY, 10460",80301686,"R"
112211,"2090 LAND RD","JAMISON","PA",18929,40.2544285640001,-75.097566608,211,"2090 LAND RD, JAMISON, PA, 18929","Match","Exact","2090 LAND RD, JAMISON, PA, 18929",134750379,"L"
112212,"2090 LAWRENCEVILLE SUWANEE RD STE A","SUWANEE","GA",30024,34.0018625490001,-84.040124955,212,"2090 LAWRENCEVILLE SUWANEE RD STE A, SUWANEE, GA, 30024","Match","Exact","2090 LAWRENCEVILLE SUWANEE RD, SUWANEE, GA, 30024",638649910,"R"
112213,"2090 LAWRENCEVILLE","SUWANEE","GA",30024,NA,NA,213,"2090 LAWRENCEVILLE, SUWANEE, GA, 30024","No_Match",NA,NA,NA,NA
112214,"2090 MARTINHO AVE","TULARE","CA",93274,36.2237239090001,-119.376016451,214,"2090 MARTINHO AVE, TULARE, CA, 93274","Match","Exact","2090 MARTINHO AVE, TULARE, CA, 93274",202816557,"R"
112215,"2090 PALMBAY RD","PALMBAY","FL",32905,28.0350014740001,-80.612080416,215,"2090 PALMBAY RD, PALMBAY, FL, 32905","Match","Non_Exact","2090 PALM BAY RD NE, PALM BAY, FL, 32905",93924875,"L"
112216,"2090 ROYAL CT","MOHAVE VALLEY","AZ",86440,34.911888365,-114.576019918,216,"2090 ROYAL CT, MOHAVE VALLEY, AZ, 86440","Match","Non_Exact","2090 E ROYAL CT, MOHAVE VALLEY, AZ, 86440",624903841,"L"
112217,"2090 S QUINTERO STREET","AURORA","CO",80013,39.6778117420001,-104.786696914,217,"2090 S QUINTERO STREET, AURORA, CO, 80013","Match","Exact","2090 S QUINTERO ST, AURORA, CO, 80013",177357416,"L"
112218,"2090 SE WILLOWBROOK DR","WAUKEE","IA",50263,NA,NA,218,"2090 SE WILLOWBROOK DR, WAUKEE, IA, 50263","No_Match",NA,NA,NA,NA
112219,"2090 STATE RT 5","UTICA","NY",13502,43.1044181400001,-75.162779873,219,"2090 STATE RT 5, UTICA, NY, 13502","Match","Exact","2090 STATE RTE 5, UTICA, NY, 13502",153739709,"R"
112220,"2090 THREE RIVERS BLVD","POPLAR BLUFF","MO",63901,36.7777084640001,-90.431796439,220,"2090 THREE RIVERS BLVD, POPLAR BLUFF, MO, 63901","Match","Exact","2090 THREE RIVERS BLVD, POPLAR BLUFF, MO, 63901",47415697,"R"
112221,"2090 TUCKER INDUSTRIAL RD SUITE A8","TUCKER","GA",30084,33.8437188140001,-84.2033086169999,221,"2090 TUCKER INDUSTRIAL RD SUITE A8, TUCKER, GA, 30084","Match","Exact","2090 TUCKER INDUSTRIAL RD, TUCKER, GA, 30084",23363711,"L"
112222,"2090 TUSSAHAW CROSSING","MCDONOUGH","GA",30252,33.4236095790001,-84.13477869,222,"2090 TUSSAHAW CROSSING, MCDONOUGH, GA, 30252","Match","Exact","2090 TUSSAHAW CROSSING, MCDONOUGH, GA, 30252",629894068,"R"
112223,"2090 WENTWORTH STREET","HOUSTON","TX",77004,29.726134626,-95.37597633,223,"2090 WENTWORTH STREET, HOUSTON, TX, 77004","Match","Exact","2090 WENTWORTH ST, HOUSTON, TX, 77004",96584330,"R"
112224,"2090 WOODS CROSSING DR","COLUMBIA","MO",65202,NA,NA,224,"2090 WOODS CROSSING DR, COLUMBIA, MO, 65202","No_Match",NA,NA,NA,NA
112225,"20900 FM 1093 ROAD APT 14104","RICHMOND","TX",77407,NA,NA,225,"20900 FM 1093 ROAD APT 14104, RICHMOND, TX, 77407","No_Match",NA,NA,NA,NA
112226,"20900 GLADIOLA ST NW","CEDAR","MN",55011,45.348254341,-93.3408666939999,226,"20900 GLADIOLA ST NW, CEDAR, MN, 55011","Match","Exact","20900 GLADIOLA ST NW, CEDAR, MN, 55011",97528876,"L"
112227,"20900 HAVANT WAY","PFLUGERVILLE","TX",78660,30.4869341260001,-97.568629474,227,"20900 HAVANT WAY, PFLUGERVILLE, TX, 78660","Match","Exact","20900 HAVANT WAY, PFLUGERVILLE, TX, 78660",623925698,"L"
112228,"20900 NE 30TH AVENUE SUITE 400","AVENTURA","FL",33180,25.9691235280001,-80.1417546119999,228,"20900 NE 30TH AVENUE SUITE 400, AVENTURA, FL, 33180","Match","Non_Exact","20900 NE 30TH AVE, AVENTURA, FL, 33180",116255540,"L"
112229,"20900 W HAMILTON ST","BUCKEYE","AZ",85396,33.4782242640001,-112.508951774,229,"20900 W HAMILTON ST, BUCKEYE, AZ, 85396","Match","Exact","20900 W HAMILTON ST, BUCKEYE, AZ, 85396",627861042,"R"
112230,"20900","HAYWARD","CA",94545,NA,NA,230,"20900, HAYWARD, CA, 94545","No_Match",NA,NA,NA,NA
112231,"20901 CORINTH ROAD","OLYMPIA FIELDS","IL",60461,41.5095584970001,-87.683334838,231,"20901 CORINTH ROAD, OLYMPIA FIELDS, IL, 60461","Match","Exact","20901 CORINTH RD, OLYMPIA FIELDS, IL, 60461",111710447,"L"
112232,"20902 67TH AVE NE 370","ARLINGTON","WA",98223,48.1852107820001,-122.136702235,232,"20902 67TH AVE NE 370, ARLINGTON, WA, 98223","Match","Exact","20902 67TH AVE NE, ARLINGTON, WA, 98223",187822287,"R"
112233,"20902 67TH AVE NE PMB 380","ARLINGTON","WA",98223,48.1852107820001,-122.136702235,233,"20902 67TH AVE NE PMB 380, ARLINGTON, WA, 98223","Match","Exact","20902 67TH AVE NE, ARLINGTON, WA, 98223",187822287,"R"
112234,"20902 DEAUVILLE DRIVE","SPRING","TX",77388,30.065635677,-95.470006637,234,"20902 DEAUVILLE DRIVE, SPRING, TX, 77388","Match","Exact","20902 DEAUVILLE DR, SPRING, TX, 77388",96170207,"L"
112235,"20902 EAST CRESTLINE CIRCLE","CENTENNIAL","CO",80015,39.6181235270001,-104.744344558,235,"20902 EAST CRESTLINE CIRCLE, CENTENNIAL, CO, 80015","Match","Exact","20902 E CRESTLINE CIR, CENTENNIAL, CO, 80015",177405116,"L"
112236,"20902 HANFORD DRIVE","CUPERTINO","CA",95014,37.328007088,-122.038904534,236,"20902 HANFORD DRIVE, CUPERTINO, CA, 95014","Match","Exact","20902 HANFORD DR, CUPERTINO, CA, 95014",122938137,"L"
112237,"20904 CONCORD GREEN DRIVE E","BOCA RATON","FL",33433,26.3660626980001,-80.177980751,237,"20904 CONCORD GREEN DRIVE E, BOCA RATON, FL, 33433","Match","Exact","20904 CONCORD GREEN DR E, BOCA RATON, FL, 33433",115574899,"L"
112238,"20905 70TH AVE W","EDMONDS","WA",98026,47.8090883420001,-122.327431474,238,"20905 70TH AVE W, EDMONDS, WA, 98026","Match","Exact","20905 70TH AVE W, EDMONDS, WA, 98026",187794131,"L"
112239,"20905 HOT SPRINGS ROAD","SKY VALLEY","CA",92241,33.9030640300001,-116.35371807,239,"20905 HOT SPRINGS ROAD, SKY VALLEY, CA, 92241","Match","Non_Exact","20905 HOT SPRINGS RD, DESERT HOT SPRINGS, CA, 92241",638572062,"L"
112240,"20906 MISSION BLVD","HAYYWARD","CA",94541,37.684023751,-122.098519735,240,"20906 MISSION BLVD, HAYYWARD, CA, 94541","Match","Non_Exact","20906 MISSION BLVD, HAYWARD, CA, 94541",125014863,"L"
112241,"20906 PEARL HARVEST","SAN ANTONIO","TX",78259,29.6353644440001,-98.404693394,241,"20906 PEARL HARVEST, SAN ANTONIO, TX, 78259","Match","Exact","20906 PEARL HARVEST, SAN ANTONIO, TX, 78259",619987147,"L"
112242,"20906 REFUGE CREEK DRIVE","CYPRESS","TX",77433,30.0322383970001,-95.749621382,242,"20906 REFUGE CREEK DRIVE, CYPRESS, TX, 77433","Match","Exact","20906 REFUGE CREEK, CYPRESS, TX, 77433",638594127,"R"
112243,"20906","LOUISVILLE","KY",40250,NA,NA,243,"20906, LOUISVILLE, KY, 40250","No_Match",NA,NA,NA,NA
112244,"20907 MAPLE VILLAGE DRIVE","CYPRESS","TX",77433,29.997370317,-95.7453932,244,"20907 MAPLE VILLAGE DRIVE, CYPRESS, TX, 77433","Match","Exact","20907 MAPLE VILLAGE DR, CYPRESS, TX, 77433",96161634,"L"
112245,"20909 E 51ST PLACE","DENVER","CO",80249,39.7897960220001,-104.744759406,245,"20909 E 51ST PLACE, DENVER, CO, 80249","Match","Exact","20909 E 51ST PL, DENVER, CO, 80249",617525859,"L"
112246,"20909 JONATHAN DRIVE","STRONGSVILLE","OH",44149,41.3434119410001,-81.857871476,246,"20909 JONATHAN DRIVE, STRONGSVILLE, OH, 44149","Match","Exact","20909 JONATHAN DR, STRONGSVILLE, OH, 44149",61131046,"R"
112247,"20909 KINGFISH TER","CUTLER BAY","FL",33189,25.57272478,-80.34646771,247,"20909 KINGFISH TER, CUTLER BAY, FL, 33189","Match","Exact","20909 KINGFISH TER, CUTLER BAY, FL, 33189",116086360,"L"
112248,"20909 PARTHENIA STREET APT 14","CANOGA PARK","CA",91304,34.228208948,-118.588844828,248,"20909 PARTHENIA STREET APT 14, CANOGA PARK, CA, 91304","Match","Exact","20909 PARTHENIA ST, CANOGA PARK, CA, 91304",141533064,"R"
112249,"20909 SE MAIN","GRESHAM","OR",97030,45.5140488210001,-122.448392122,249,"20909 SE MAIN, GRESHAM, OR, 97030","Match","Non_Exact","20909 SE MAIN DR, GRESHAM, OR, 97030",157528057,"L"
112250,"20909 W 96TH TER","LENEXA","KS",66220,38.952611694,-94.827655673,250,"20909 W 96TH TER, LENEXA, KS, 66220","Match","Exact","20909 W 96TH TER, LENEXA, KS, 66220",91315047,"L"
112251,"2090A HWY 317 422","SUWANEE","GA",30024,NA,NA,251,"2090A HWY 317 422, SUWANEE, GA, 30024","No_Match",NA,NA,NA,NA
112252,"2091 23RD ST W","LARGO","FM",33774,NA,NA,252,"2091 23RD ST W, LARGO, FM, 33774","No_Match",NA,NA,NA,NA
112253,"2091 23RD STREET SW","LARGO","FL",33774,27.8978657050001,-82.81098429,253,"2091 23RD STREET SW, LARGO, FL, 33774","Match","Exact","2091 23RD ST SW, LARGO, FL, 33774",124673192,"L"
112254,"2091 FM 600","HASKELL","TX",79521,33.105293385,-99.6964500399999,254,"2091 FM 600, HASKELL, TX, 79521","Match","Exact","2091 FM 600, HASKELL, TX, 79521",185492055,"R"
112255,"2091 GREENS CROSSING ROAD","CASSVILLE","NY",13318,42.9611841400001,-75.27706074,255,"2091 GREENS CROSSING ROAD, CASSVILLE, NY, 13318","Match","Exact","2091 GREENS CROSSING RD, CASSVILLE, NY, 13318",171579918,"L"
112256,"2091 N 4TH STREET","COLUMBUS","OH",43201,40.0060200790001,-82.998324757,256,"2091 N 4TH STREET, COLUMBUS, OH, 43201","Match","Exact","2091 N 4TH ST, COLUMBUS, OH, 43201",218681964,"L"
112257,"2091 NW 190 AVE","PEMBROKE PINES","FL",33029,26.0209255440001,-80.4017297349999,257,"2091 NW 190 AVE, PEMBROKE PINES, FL, 33029","Match","Exact","2091 NW 190TH AVE, PEMBROKE PINES, FL, 33029",114781510,"R"
112258,"2091 RIO VISTA DRIVE","FALLBROOK","CA",92028,33.308579874,-117.213892505,258,"2091 RIO VISTA DRIVE, FALLBROOK, CA, 92028","Match","Exact","2091 RIO VISTA DR, FALLBROOK, CA, 92028",195287416,"R"
112259,"2091 SOUTH RONALD REAGAN BLVD","ALTAMONTE SPRINGS","FL",32701,28.670662301,-81.356535661,259,"2091 SOUTH RONALD REAGAN BLVD, ALTAMONTE SPRINGS, FL, 32701","Match","Exact","2091 S RONALD REAGAN BLVD, ALTAMONTE SPRINGS, FL, 32701",93743252,"L"
112260,"2091 VAUGHAN RD","BENTON","MS",39039,32.7999491910001,-90.174590434,260,"2091 VAUGHAN RD, BENTON, MS, 39039","Match","Exact","2091 VAUGHAN RD, BENTON, MS, 39039",152204409,"L"
112261,"2091 WEST RIVERVIEW STREET","DECATUR","IL",62522,39.8356633980001,-88.991203259,261,"2091 WEST RIVERVIEW STREET, DECATUR, IL, 62522","Match","Exact","2091 W RIVERVIEW ST, DECATUR, IL, 62522",20758871,"L"
112262,"20910 12TH AVE W","LYNNWOOD","WA",98036,47.8086266010001,-122.249449941,262,"20910 12TH AVE W, LYNNWOOD, WA, 98036","Match","Exact","20910 12TH AVE W, LYNNWOOD, WA, 98036",608923927,"L"
112263,"20910 FOXWOOD GLEN LN","HUMBLE","TX",77338,30.024044673,-95.314374086,263,"20910 FOXWOOD GLEN LN, HUMBLE, TX, 77338","Match","Exact","20910 FOXWOOD GLEN LN, HUMBLE, TX, 77338",633572196,"L"
112264,"20911 EARL STREET SUITE 260","TORRANCE","CA",90503,33.840342783,-118.358021992,264,"20911 EARL STREET SUITE 260, TORRANCE, CA, 90503","Match","Exact","20911 EARL ST, TORRANCE, CA, 90503",241243167,"R"
112265,"20912 W 53RD ST","SHAWNEE","KS",66218,39.0321863360001,-94.828906197,265,"20912 W 53RD ST, SHAWNEE, KS, 66218","Match","Exact","20912 W 53RD ST, SHAWNEE, KS, 66218",91356565,"L"
112266,"20913 SW WILLAPA CT","TUALATIN","OR",97062,45.368552519,-122.774548541,266,"20913 SW WILLAPA CT, TUALATIN, OR, 97062","Match","Exact","20913 SW WILLAPA CT, TUALATIN, OR, 97062",158192951,"R"
112267,"20914 BAKE PARKWAY SUITE 106","LAKE FOREST","CA",92630,33.658786605,-117.699819915,267,"20914 BAKE PARKWAY SUITE 106, LAKE FOREST, CA, 92630","Match","Exact","20914 BAKE PKWY, LAKE FOREST, CA, 92630",609042273,"R"
112268,"20916 AVENIDA AMAPOLA","LAKE FOREST","CA",92630,33.659357168,-117.690915471,268,"20916 AVENIDA AMAPOLA, LAKE FOREST, CA, 92630","Match","Exact","20916 AVE AMAPOLA, LAKE FOREST, CA, 92630",144111640,"R"
112269,"20917 STREIT RD","HARVARD","IL",60033,42.3856980910001,-88.600569552,269,"20917 STREIT RD, HARVARD, IL, 60033","Match","Exact","20917 STREIT RD, HARVARD, IL, 60033",635509835,"R"
112270,"20918 E US HIGHWAY 24 - GARAGE","CRYSTOLA","CO",80863,NA,NA,270,"20918 E US HIGHWAY 24 - GARAGE, CRYSTOLA, CO, 80863","No_Match",NA,NA,NA,NA
112271,"20919 BIRNAMWOOD BLVD 1016","HUMBLE","TX",77338,30.014731813,-95.3636034359999,271,"20919 BIRNAMWOOD BLVD 1016, HUMBLE, TX, 77338","Match","Exact","20919 BIRNAMWOOD BLVD, HUMBLE, TX, 77338",645209355,"L"
112272,"20919 BIRNANWOOD APT 1112","HUMBLE","TX",77338,30.014731813,-95.3636034359999,272,"20919 BIRNANWOOD APT 1112, HUMBLE, TX, 77338","Match","Non_Exact","20919 BIRNAMWOOD BLVD, HUMBLE, TX, 77338",645209355,"L"
112273,"2092 BISHOP DRIVE","CHARLESTON","SC",29414,32.821971836,-80.0514338799999,273,"2092 BISHOP DRIVE, CHARLESTON, SC, 29414","Match","Exact","2092 BISHOP DR, CHARLESTON, SC, 29414",647151288,"R"
112274,"2092 BRECONRIDGE DR","MARIETTA","GA",30064,33.913502658,-84.6134466779999,274,"2092 BRECONRIDGE DR, MARIETTA, GA, 30064","Match","Exact","2092 BRECONRIDGE DR, MARIETTA, GA, 30064",17217616,"R"
112275,"2092 CHURCH RD","HARLEYSVILLE","PA",19438,40.303083954,-75.4490826799999,275,"2092 CHURCH RD, HARLEYSVILLE, PA, 19438","Match","Exact","2092 CHURCH RD, HARLEYSVILLE, PA, 19438",135066487,"L"
112276,"2092 DAVIS BRIDGE RD","PARKTON","NC",28371,34.9372422530001,-79.042136654,276,"2092 DAVIS BRIDGE RD, PARKTON, NC, 28371","Match","Exact","2092 DAVIS BRIDGE RD, PARKTON, NC, 28371",608094835,"R"
112277,"2092 FAIRVIEW BLVD","FAIRVIEW","TN",37062,35.98053586,-87.123175889,277,"2092 FAIRVIEW BLVD, FAIRVIEW, TN, 37062","Match","Exact","2092 FAIRVIEW BLVD, FAIRVIEW, TN, 37062",648361728,"L"
112278,"2092 FAIRWAYS LN","ROSEVILLE","MN",55113,45.0044749150001,-93.199446098,278,"2092 FAIRWAYS LN, ROSEVILLE, MN, 55113","Match","Exact","2092 FAIRWAYS LN, ROSEVILLE, MN, 55113",97666717,"R"
112279,"2092 GOLD HILL RD","FORTMILLS","SC",29708,35.0556600520001,-81.005360089,279,"2092 GOLD HILL RD, FORTMILLS, SC, 29708","Match","Non_Exact","2092 GOLD HILL RD, FORT MILL, SC, 29708",652251356,"R"
112280,"2092 LIBERTYVILLE ROAD","FAIRFIELD","IA",52556,40.9883373640001,-91.969395096,280,"2092 LIBERTYVILLE ROAD, FAIRFIELD, IA, 52556","Match","Exact","2092 LIBERTYVILLE RD, FAIRFIELD, IA, 52556",616254564,"R"
112281,"2092 LONG RIFLE RIDGE RD","NEBO","NC",28761,35.755712293,-81.911045166,281,"2092 LONG RIFLE RIDGE RD, NEBO, NC, 28761","Match","Exact","2092 LONG RIFLE RIDGE RD, NEBO, NC, 28761",642247763,"R"
112282,"2092 MANGO GLEN","VISTA","CA",92084,33.2101611360001,-117.200248916,282,"2092 MANGO GLEN, VISTA, CA, 92084","Match","Exact","2092 MANGO GLEN, VISTA, CA, 92084",195752467,"L"
112283,"2092 RODMAN BLVD","GALLATIN","TN",37066,36.360538515,-86.483555049,283,"2092 RODMAN BLVD, GALLATIN, TN, 37066","Match","Exact","2092 RODMAN BLVD, GALLATIN, TN, 37066",635425082,"L"
112284,"2092 SCENIC HWY SUITE A","SNELLVILLE","GA",30078,33.8655992400001,-84.016626388,284,"2092 SCENIC HWY SUITE A, SNELLVILLE, GA, 30078","Match","Exact","2092 SCENIC HWY, SNELLVILLE, GA, 30078",638059250,"R"
112285,"2092 SIX MILE ROAD","CRYSTAL SPRINGS","MS",39059,NA,NA,285,"2092 SIX MILE ROAD, CRYSTAL SPRINGS, MS, 39059","No_Match",NA,NA,NA,NA
112286,"2092 W QUEENS WAY","HANFORD","CA",93230,36.346165855,-119.680309683,286,"2092 W QUEENS WAY, HANFORD, CA, 93230","Match","Exact","2092 W QUEENS WAY, HANFORD, CA, 93230",619911245,"R"
112287,"20920  68TH STREET","SOUTH HAVEN","MI",49090,42.3427251260001,-86.206710259,287,"20920  68TH STREET, SOUTH HAVEN, MI, 49090","Match","Exact","20920 68TH ST, SOUTH HAVEN, MI, 49090",34749684,"L"
112288,"20921 44TH AVE W F-304","LYNNWOOD","WA",98036,47.8089740950001,-122.292293581,288,"20921 44TH AVE W F-304, LYNNWOOD, WA, 98036","Match","Exact","20921 44TH AVE W, LYNNWOOD, WA, 98036",649041329,"L"
112289,"20922 SOUTHSHIP CT","HOUSTON","TX",77073,29.9972763370001,-95.410966365,289,"20922 SOUTHSHIP CT, HOUSTON, TX, 77073","Match","Exact","20922 SOUTHSHIP CT, HOUSTON, TX, 77073",630544477,"R"
112290,"20923 IVYMOUNT TERR","ASHBURN","VA",20147,39.0381130980001,-77.508200599,290,"20923 IVYMOUNT TERR, ASHBURN, VA, 20147","Match","Exact","20923 IVYMOUNT TER, ASHBURN, VA, 20147",62337444,"L"
112291,"20923 W BLOOMFIELD DR","PLAINFIELD","IL",60544,41.625647717,-88.126488133,291,"20923 W BLOOMFIELD DR, PLAINFIELD, IL, 60544","Match","Exact","20923 BLOOMFIELD DR, PLAINFIELD, IL, 60544",111608942,"L"
112292,"20924 OUTER DR","DEARBOR","MI",48124,42.2930116040001,-83.251818831,292,"20924 OUTER DR, DEARBOR, MI, 48124","Match","Non_Exact","20924 W OUTER DR, DEARBORN, MI, 48124",95727061,"R"
112293,"20925 HOLIDAY AVENUE","LAKEVILLE","MN",55044,44.646409944,-93.2387217089999,293,"20925 HOLIDAY AVENUE, LAKEVILLE, MN, 55044","Match","Exact","20925 HOLIDAY AVE, LAKEVILLE, MN, 55044",642329713,"L"
112294,"20925 PROFESSIONAL PLAZA SUITE 230","ASHBURN","VA",20147,39.037094585,-77.504178812,294,"20925 PROFESSIONAL PLAZA SUITE 230, ASHBURN, VA, 20147","Match","Exact","20925 PROFESSIONAL PLZ, ASHBURN, VA, 20147",218951857,"R"
112295,"20927 CALHOUN RD","MONROE","WA",98272,47.8610027990001,-121.950638487,295,"20927 CALHOUN RD, MONROE, WA, 98272","Match","Exact","20927 CALHOUN RD, MONROE, WA, 98272",635560781,"L"
112296,"20927 NORWALK BOULEVARD","LAKEWOOD","CA",90715,33.8395369300001,-118.072057948,296,"20927 NORWALK BOULEVARD, LAKEWOOD, CA, 90715","Match","Exact","20927 NORWALK BLVD, LAKEWOOD, CA, 90715",642863505,"R"
112297,"20927 TWISTED LEAF DR","CYPRESS","TX",77433,30.0094816280001,-95.750036569,297,"20927 TWISTED LEAF DR, CYPRESS, TX, 77433","Match","Exact","20927 TWISTED LEAF DR, CYPRESS, TX, 77433",638593798,"R"
112298,"20929 HAWTHORNE BLVD","TORRANCE","CA",90503,NA,NA,298,"20929 HAWTHORNE BLVD, TORRANCE, CA, 90503","No_Match",NA,NA,NA,NA
112299,"20929 VENTURA BLVD 47-447","WOODLAND HILLS","CA",91364,34.166475301,-118.589152254,299,"20929 VENTURA BLVD 47-447, WOODLAND HILLS, CA, 91364","Match","Exact","20929 VENTURA BLVD, WOODLAND HILLS, CA, 91364",141535671,"R"
112300,"20929 VENTURA BLVD STE 47 426","WOODLAND HILLS","CA",91364,34.166475301,-118.589152254,300,"20929 VENTURA BLVD STE 47 426, WOODLAND HILLS, CA, 91364","Match","Exact","20929 VENTURA BLVD, WOODLAND HILLS, CA, 91364",141535671,"R"
112301,"20929 VENTURA BLVD SUITE 47-118","WOODLAND HILLS","CA",91364,34.166475301,-118.589152254,301,"20929 VENTURA BLVD SUITE 47-118, WOODLAND HILLS, CA, 91364","Match","Exact","20929 VENTURA BLVD, WOODLAND HILLS, CA, 91364",141535671,"R"
112302,"2093 BETSY ROSS CT","ATWATER","CA",95301,37.342430801,-120.620193184,302,"2093 BETSY ROSS CT, ATWATER, CA, 95301","Match","Exact","2093 BETSY ROSS CT, ATWATER, CA, 95301",614116478,"L"
112303,"2093 GA HWY 42 N SUITE E","JENKINSBURG","GA",30234,NA,NA,303,"2093 GA HWY 42 N SUITE E, JENKINSBURG, GA, 30234","No_Match",NA,NA,NA,NA
112304,"2093 LINCOLNSHIRE DR","MARRERO","LA",70072,29.8746066480001,-90.1247228999999,304,"2093 LINCOLNSHIRE DR, MARRERO, LA, 70072","Match","Exact","2093 LINCOLNSHIRE DR, MARRERO, LA, 70072",93505976,"L"
112305,"2093 NEBELA DR","ATWATER","CA",95301,37.356974961,-120.569464376,305,"2093 NEBELA DR, ATWATER, CA, 95301","Match","Exact","2093 NEBELA DR, ATWATER, CA, 95301",640829803,"L"
112306,"2093 PALMETTO LAKE DRIVE","NAVARRE","FL",32566,30.4073986240001,-86.8279479989999,306,"2093 PALMETTO LAKE DRIVE, NAVARRE, FL, 32566","Match","Exact","2093 PALMETTO LAKE DR, NAVARRE, FL, 32566",617983576,"R"
112307,"2093 PHILADELPHIA 1708","CLAYMONT","DE",19703,39.789057348,-75.473526632,307,"2093 PHILADELPHIA 1708, CLAYMONT, DE, 19703","Match","Non_Exact","2093 PHILADELPHIA PIKE, CLAYMONT, DE, 19703",187261217,"L"
112308,"2093 PHILADELPHIA PIKE  STE1259","CLAYMONT","DE",19703,39.789057348,-75.473526632,308,"2093 PHILADELPHIA PIKE  STE1259, CLAYMONT, DE, 19703","Match","Exact","2093 PHILADELPHIA PIKE, CLAYMONT, DE, 19703",187261217,"L"
112309,"2093 PHILADELPHIA PIKE 1566","CLAYMONT","DE",19703,39.789057348,-75.473526632,309,"2093 PHILADELPHIA PIKE 1566, CLAYMONT, DE, 19703","Match","Exact","2093 PHILADELPHIA PIKE, CLAYMONT, DE, 19703",187261217,"L"
112310,"2093 PHILADELPHIA PIKE 2101","CLAYMONT","DE",19703,39.789057348,-75.473526632,310,"2093 PHILADELPHIA PIKE 2101, CLAYMONT, DE, 19703","Match","Exact","2093 PHILADELPHIA PIKE, CLAYMONT, DE, 19703",187261217,"L"
112311,"2093 PHILADELPHIA PIKE ROOM 3216","CLAYMONT","DE",19703,39.789057348,-75.473526632,311,"2093 PHILADELPHIA PIKE ROOM 3216, CLAYMONT, DE, 19703","Match","Exact","2093 PHILADELPHIA PIKE, CLAYMONT, DE, 19703",187261217,"L"
112312,"2093 PHILADELPHIA PIKE","CLAYMONT","DE",19703,39.789057348,-75.473526632,312,"2093 PHILADELPHIA PIKE, CLAYMONT, DE, 19703","Match","Exact","2093 PHILADELPHIA PIKE, CLAYMONT, DE, 19703",187261217,"L"
112313,"2093 RIVERWATER LN","FAYETTEVILLE","AR",72703,36.0986467550001,-94.0251990469999,313,"2093 RIVERWATER LN, FAYETTEVILLE, AR, 72703","Match","Exact","2093 RIVERWATER LN, FAYETTEVILLE, AR, 72703",641626814,"R"
112314,"2093 STANCIL POINT DRIVE","DACULA","GA",30019,34.0667745750001,-83.9193028349999,314,"2093 STANCIL POINT DRIVE, DACULA, GA, 30019","Match","Exact","2093 STANCIL POINT DR, DACULA, GA, 30019",627527389,"L"
112315,"2093 SUEDE STREET","SIMI VALLEY","CA",93063,34.2734796980001,-118.672494568,315,"2093 SUEDE STREET, SIMI VALLEY, CA, 93063","Match","Exact","2093 SUEDE ST, SIMI VALLEY, CA, 93063",109980373,"L"
112316,"2093 TIMMERMAN RD","MYRTLE BEACH","SC",29588,33.656552133,-79.056409907,316,"2093 TIMMERMAN RD, MYRTLE BEACH, SC, 29588","Match","Exact","2093 TIMMERMAN RD, MYRTLE BEACH, SC, 29588",630489862,"L"
112317,"2093 UNION MILL ROAD","NICHOLASVILLE","KY",40356,37.8930307910001,-84.5186924819999,317,"2093 UNION MILL ROAD, NICHOLASVILLE, KY, 40356","Match","Exact","2093 UNION MILL RD, NICHOLASVILLE, KY, 40356",635549280,"L"
112318,"2093 USEPPA OAKS LANE","THE VILLAGES","FL",32163,28.8629216850001,-82.0056139329999,318,"2093 USEPPA OAKS LANE, THE VILLAGES, FL, 32163","Match","Exact","2093 USEPPA OAKS LN, THE VILLAGES, FL, 32163",641364585,"R"
112319,"20930 CLAY LANDING LANE","KATY","TX",77449,29.829566592,-95.737771497,319,"20930 CLAY LANDING LANE, KATY, TX, 77449","Match","Exact","20930 CLAY LANDING LN, KATY, TX, 77449",624812746,"L"
112320,"20930 N 2810 RD","KINGFISHER","OK",73750,35.87242336,-97.994792263,320,"20930 N 2810 RD, KINGFISHER, OK, 73750","Match","Non_Exact","20930 N2810 RD, KINGFISHER, OK, 73750",121919204,"L"
112321,"209303 E BRYSON BROWN RD","KENNEWICK","WA",99337,46.183407281,-119.060979657,321,"209303 E BRYSON BROWN RD, KENNEWICK, WA, 99337","Match","Exact","209303 E BRYSON BROWN RD, KENNEWICK, WA, 99337",174996984,"R"
112322,"20931 LAKEVIEW CIRCLE","CORNELIUS","NC",28031,35.50036649,-80.891318116,322,"20931 LAKEVIEW CIRCLE, CORNELIUS, NC, 28031","Match","Exact","20931 LAKEVIEW CIR, CORNELIUS, NC, 28031",70515638,"R"
112323,"20932 BIG CANYON ROAD","MIDDLETOWN","CA",95461,38.7569186470001,-122.614995565,323,"20932 BIG CANYON ROAD, MIDDLETOWN, CA, 95461","Match","Exact","20932 BIG CANYON RD, MIDDLETOWN, CA, 95461",67051814,"R"
112324,"20932 FAWNHAVEN DR","NORTH ROYALTON","OH",44133,41.2794142070001,-81.7630440789999,324,"20932 FAWNHAVEN DR, NORTH ROYALTON, OH, 44133","Match","Exact","20932 FAWNHAVEN DR, N ROYALTON, OH, 44133",61151378,"R"
112325,"20932 NORWOOD DR","HARPER WOODS","MI",48225,42.4378636500001,-82.9182560199999,325,"20932 NORWOOD DR, HARPER WOODS, MI, 48225","Match","Exact","20932 NORWOOD DR, HARPER WOODS, MI, 48225",95486809,"R"
112326,"20935 NE 37TH CT","AVENTURA","FL",33180,25.9704908100001,-80.1261398249999,326,"20935 NE 37TH CT, AVENTURA, FL, 33180","Match","Exact","20935 NE 37TH CT, AVENTURA, FL, 33180",116248683,"R"
112327,"20936 OTTAWA RD","APPLE VALLEY","CA",92308,34.4932126530001,-117.206844438,327,"20936 OTTAWA RD, APPLE VALLEY, CA, 92308","Match","Exact","20936 OTTAWA RD, APPLE VALLEY, CA, 92308",144592230,"R"
112328,"20936 PIONEER RIDGE TER","ASHBURN","VA",20147,39.0381770380001,-77.50098825,328,"20936 PIONEER RIDGE TER, ASHBURN, VA, 20147","Match","Exact","20936 PIONEER RIDGE TER, ASHBURN, VA, 20147",62332498,"R"
112329,"2094 BELGRADE ROAD","SIDNEY","ME",4330,44.3954381080001,-69.802841896,329,"2094 BELGRADE ROAD, SIDNEY, ME, 4330","Match","Exact","2094 BELGRADE RD, SIDNEY, ME, 04330",75452474,"L"
112330,"2094 ELLEN DR","MERRICK","NY",11566,40.647317075,-73.5375544199999,330,"2094 ELLEN DR, MERRICK, NY, 11566","Match","Exact","2094 ELLEN DR, MERRICK, NY, 11566",147639351,"R"
112331,"2094 ELLEN DRIVE","MERRICK","NY",11566,40.647317075,-73.5375544199999,331,"2094 ELLEN DRIVE, MERRICK, NY, 11566","Match","Exact","2094 ELLEN DR, MERRICK, NY, 11566",147639351,"R"
112332,"2094 FAIRHOPE LOOP","VISTA","CA",92081,33.1590734280001,-117.247199862,332,"2094 FAIRHOPE LOOP, VISTA, CA, 92081","Match","Exact","2094 FAIRHOPE LOOP, VISTA, CA, 92081",195444357,"L"
112333,"2094 MARS AVE","LAKEWOOD","OH",44107,41.4747122890001,-81.803360762,333,"2094 MARS AVE, LAKEWOOD, OH, 44107","Match","Exact","2094 MARS AVE, LAKEWOOD, OH, 44107",61100265,"R"
112334,"2094 PITKIN AVENUE","BROOKLYN","NY",11207,40.671992452,-73.895178395,334,"2094 PITKIN AVENUE, BROOKLYN, NY, 11207","Match","Exact","2094 PITKIN AVE, BROOKLYN, NY, 11207",59084729,"R"
112335,"2094 THUNDER ROAD","PINEBLUFF","NC",28373,35.09107476,-79.5445986459999,335,"2094 THUNDER ROAD, PINEBLUFF, NC, 28373","Match","Exact","2094 THUNDER RD, PINEBLUFF, NC, 28373",640601340,"R"
112336,"2094 TIGER FLOWERS DR","ATLANTA","GA",30314,33.76020627,-84.4561729179999,336,"2094 TIGER FLOWERS DR, ATLANTA, GA, 30314","Match","Non_Exact","2094 TIGER FLOWERS DR NW, ATLANTA, GA, 30314",17339856,"L"
112337,"2094 WILL CUNNINGHAM RD","DEEP RUN","NC",28525,35.1083925400001,-77.7108185289999,337,"2094 WILL CUNNINGHAM RD, DEEP RUN, NC, 28525","Match","Exact","2094 WILL CUNNINGHAM RD, DEEP RUN, NC, 28525",13885240,"L"
112338,"20940 OAK TREE DR","SOUTH LYON","MI",48178,NA,NA,338,"20940 OAK TREE DR, SOUTH LYON, MI, 48178","No_Match",NA,NA,NA,NA
112339,"20941 REDMOND","EASTPOINTE","MI",48021,42.452102799,-82.956735825,339,"20941 REDMOND, EASTPOINTE, MI, 48021","Match","Non_Exact","20941 REDMOND AVE, EASTPOINTE, MI, 48021",645853843,"L"
112340,"20945 PARKCREST DRIVE","HARPER WOODS","MI",48225,42.436264174,-82.91873285,340,"20945 PARKCREST DRIVE, HARPER WOODS, MI, 48225","Match","Exact","20945 PARKCREST DR, HARPER WOODS, MI, 48225",95486805,"L"
112341,"20946 HARPER AVE","HARPER WOODS","MI",48225,42.449966648,-82.9149423869999,341,"20946 HARPER AVE, HARPER WOODS, MI, 48225","Match","Exact","20946 HARPER AVE, HARPER WOODS, MI, 48225",95486357,"R"
112342,"20947 CHASE ST","CANOGA PARK","CA",91304,34.2245781280001,-118.589837121,342,"20947 CHASE ST, CANOGA PARK, CA, 91304","Match","Exact","20947 CHASE ST, CANOGA PARK, CA, 91304",642867602,"R"
112343,"20947 CHASE STREET","CANOGA PARK","CA",91304,34.2245781280001,-118.589837121,343,"20947 CHASE STREET, CANOGA PARK, CA, 91304","Match","Exact","20947 CHASE ST, CANOGA PARK, CA, 91304",642867602,"R"
112344,"20947 S VAN DEENE AVE","TORRANCE","CA",90502,33.839778037,-118.289449864,344,"20947 S VAN DEENE AVE, TORRANCE, CA, 90502","Match","Exact","20947 S VAN DEENE AVE, TORRANCE, CA, 90502",141669375,"R"
112345,"20947 WOLF RD","MOKENA","IL",60448,41.507217602,-87.890313689,345,"20947 WOLF RD, MOKENA, IL, 60448","Match","Exact","20947 WOLF RD, MOKENA, IL, 60448",111586201,"L"
112346,"20948 FILLMORE TRAIL","FILLMORE","IL",62032,39.1187896550001,-89.313935982,346,"20948 FILLMORE TRAIL, FILLMORE, IL, 62032","Match","Exact","20948 FILLMORE TRL, FILLMORE, IL, 62032",99445560,"R"
112347,"20948 ONAKNOLL DR","PERRIS","CA",92570,33.8153828640001,-117.403212815,347,"20948 ONAKNOLL DR, PERRIS, CA, 92570","Match","Exact","20948 ONAKNOLL DR, PERRIS, CA, 92570",194744279,"L"
112348,"20948 SW 103 PL","CUTLER BAY","FL",33189,25.5725987710001,-80.361481915,348,"20948 SW 103 PL, CUTLER BAY, FL, 33189","Match","Exact","20948 SW 103RD PL, CUTLER BAY, FL, 33189",116046467,"L"
112349,"20949 HAVEN ROAD","LITTLE FALLS","MN",56345,46.0642265370001,-94.327963413,349,"20949 HAVEN ROAD, LITTLE FALLS, MN, 56345","Match","Exact","20949 HAVEN RD, LITTLE FALLS, MN, 56345",167389895,"L"
112350,"2095  EXETER ROAD SUITE 80","GERMANTOWN","TN",38138,35.091829278,-89.802515161,350,"2095  EXETER ROAD SUITE 80, GERMANTOWN, TN, 38138","Match","Exact","2095 EXETER RD, GERMANTOWN, TN, 38138",607445646,"L"
112351,"2095  S 173RD DR","GOODYEAR","AZ",85338,33.4274149930001,-112.432325814,351,"2095  S 173RD DR, GOODYEAR, AZ, 85338","Match","Exact","2095 S 173RD DR, GOODYEAR, AZ, 85338",128850246,"L"
112352,"2095 117TH LN NE","BLAINE","MN",55449,45.1833444640001,-93.216907022,352,"2095 117TH LN NE, BLAINE, MN, 55449","Match","Exact","2095 117TH LN NE, BLAINE, MN, 55449",614146526,"L"
112353,"2095 28TH ST SE","ROCHESTER","MN",55904,43.9823128470001,-92.435625519,353,"2095 28TH ST SE, ROCHESTER, MN, 55904","Match","Exact","2095 28TH ST SE, ROCHESTER, MN, 55904",30576095,"L"
112354,"2095 3RD AVE","MARION","IA",52302,42.0298985100001,-91.590123068,354,"2095 3RD AVE, MARION, IA, 52302","Match","Exact","2095 3RD AVE, MARION, IA, 52302",17023445,"R"
112355,"2095 BRIARCLIFF ROAD","LEWISVILLE","TX",75067,33.0085655820001,-97.0157865149999,355,"2095 BRIARCLIFF ROAD, LEWISVILLE, TX, 75067","Match","Non_Exact","2095 BRIARCLIFF DR, LEWISVILLE, TX, 75067",103360590,"R"
112356,"2095 CALIFORNIA ST APT 403","SAN FRANCISCO","CA",94109,37.789553518,-122.428708418,356,"2095 CALIFORNIA ST APT 403, SAN FRANCISCO, CA, 94109","Match","Exact","2095 CALIFORNIA ST, SAN FRANCISCO, CA, 94109",192280030,"L"
112357,"2095 EBERLY ROAD","FLINT","MI",48532,42.9995099830001,-83.757325325,357,"2095 EBERLY ROAD, FLINT, MI, 48532","Match","Exact","2095 EBERLY RD, FLINT, MI, 48532",69573134,"L"
112358,"2095 ENZIE DRIVE","LAS CRUCES","NM",88001,32.2914703810001,-106.747893588,358,"2095 ENZIE DRIVE, LAS CRUCES, NM, 88001","Match","Exact","2095 ENZIE DR, LAS CRUCES, NM, 88001",612729480,"L"
112359,"2095 EXETER RD","GERMANTOWN","TN",38138,35.091829278,-89.802515161,359,"2095 EXETER RD, GERMANTOWN, TN, 38138","Match","Exact","2095 EXETER RD, GERMANTOWN, TN, 38138",607445646,"L"
112360,"2095 EXETER ROAD SUITE 80255","GERMANTOWN","TN",38138,35.091829278,-89.802515161,360,"2095 EXETER ROAD SUITE 80255, GERMANTOWN, TN, 38138","Match","Exact","2095 EXETER RD, GERMANTOWN, TN, 38138",607445646,"L"
112361,"2095 EXETER ROAD SUITE 80M 110","GERMANTOWN","TN",38138,35.091829278,-89.802515161,361,"2095 EXETER ROAD SUITE 80M 110, GERMANTOWN, TN, 38138","Match","Exact","2095 EXETER RD, GERMANTOWN, TN, 38138",607445646,"L"
112362,"2095 HIGHWAY 211 SUITE 2F334","BRASELTON","GA",30517,34.103664101,-83.814732796,362,"2095 HIGHWAY 211 SUITE 2F334, BRASELTON, GA, 30517","Match","Non_Exact","2095 STATE RTE 211, BRASELTON, GA, 30517",77578343,"R"
112363,"2095 NOTTINGHAM ROAD","EAST MEADOW","NY",11554,40.7268391050001,-73.558843638,363,"2095 NOTTINGHAM ROAD, EAST MEADOW, NY, 11554","Match","Exact","2095 NOTTINGHAM RD, EAST MEADOW, NY, 11554",147632613,"L"
112364,"2095 PINEHURST AVENUE","SAINT PAUL","MN",55116,44.9188742420001,-93.1888228829999,364,"2095 PINEHURST AVENUE, SAINT PAUL, MN, 55116","Match","Non_Exact","2095 W PINEHURST AVE, SAINT PAUL, MN, 55116",97639597,"R"
112365,"2095 STANCREST RD","DUBLIN","OH",43016,40.123945001,-83.072194724,365,"2095 STANCREST RD, DUBLIN, OH, 43016","Match","Exact","2095 STANCREST RD, DUBLIN, OH, 43016",218663330,"L"
112366,"2095 SUMMERGLEN TRAIL","BRASELTON","GA",30517,34.1252279820001,-83.7446927399999,366,"2095 SUMMERGLEN TRAIL, BRASELTON, GA, 30517","Match","Exact","2095 SUMMERGLEN TRL, BRASELTON, GA, 30517",619699550,"L"
112367,"2095 SUZANNE LANE","SWARTZ CREEK","MI",48473,42.999116509,-83.818767223,367,"2095 SUZANNE LANE, SWARTZ CREEK, MI, 48473","Match","Non_Exact","2095 SUZANNE DR, SWARTZ CREEK, MI, 48473",69572174,"L"
112368,"2095 WINNSTEAD PL","LOGANVILLE","GA",30052,33.825688208,-83.978846243,368,"2095 WINNSTEAD PL, LOGANVILLE, GA, 30052","Match","Exact","2095 WINNSTEAD PL, LOGANVILLE, GA, 30052",88948419,"L"
112369,"2095 WOODTRAIL DR APT K","FAIRFIELD","OH",45014,39.317450351,-84.5490508729999,369,"2095 WOODTRAIL DR APT K, FAIRFIELD, OH, 45014","Match","Exact","2095 WOODTRAIL DR, FAIRFIELD, OH, 45014",113801298,"R"
112370,"20950 HAWTHORNE","HARPER WOODS","MI",48225,42.4472498800001,-82.9138174559999,370,"20950 HAWTHORNE, HARPER WOODS, MI, 48225","Match","Non_Exact","20950 HAWTHORNE ST, HARPER WOODS, MI, 48225",95486382,"R"
112371,"20950 SOUTH TAMIAMI TRAIL BOX 8","ESTERO","FL",33928,26.436168439,-81.810940439,371,"20950 SOUTH TAMIAMI TRAIL BOX 8, ESTERO, FL, 33928","Match","Exact","20950 S TAMIAMI TRL, ESTERO, FL, 33928",639978319,"L"
112372,"20951 SAN SIMEON WAY APT 108","MIAMI","FL",33179,25.9672069580001,-80.189910787,372,"20951 SAN SIMEON WAY APT 108, MIAMI, FL, 33179","Match","Exact","20951 SAN SIMEON WAY, MIAMI, FL, 33179",650828243,"L"
112373,"20951 WOODSPRING AVENUE","BOCA RATON","FL",33428,26.3642804150001,-80.228501616,373,"20951 WOODSPRING AVENUE, BOCA RATON, FL, 33428","Match","Exact","20951 WOODSPRING AVE, BOCA RATON, FL, 33428",115326723,"L"
112374,"20953 W CORA VISTA","BUCKEYE","AZ",85396,33.500667886,-112.510459407,374,"20953 W CORA VISTA, BUCKEYE, AZ, 85396","Match","Exact","20953 W CORA VIS, BUCKEYE, AZ, 85396",243946667,"R"
112375,"20956 BUTTEVILLE RD NE","AURORA","OR",97002,45.222745467,-122.842938474,375,"20956 BUTTEVILLE RD NE, AURORA, OR, 97002","Match","Exact","20956 BUTTEVILLE RD NE, AURORA, OR, 97002",635860703,"R"
112376,"2096 308TH AVENUE","DEWITT","IA",52742,41.873684279,-90.4951688579999,376,"2096 308TH AVENUE, DEWITT, IA, 52742","Match","Non_Exact","2096 308TH AVE, DE WITT, IA, 52742",16806282,"L"
112377,"2096 DUMAS DR","DELTONA","FL",32738,28.909775794,-81.212312169,377,"2096 DUMAS DR, DELTONA, FL, 32738","Match","Exact","2096 DUMAS DR, DELTONA, FL, 32738",94502444,"R"
112378,"2096 MADISON DRIVE UNIT 3","ANDREWS AFB","MD",20762,38.79922881,-76.892921561,378,"2096 MADISON DRIVE UNIT 3, ANDREWS AFB, MD, 20762","Match","Exact","2096 MADISON DR, ANDREWS AIR FORCE BASE, MD, 20762",76320332,"R"
112379,"2096 NOSTRAND AVENUE","BROOKLYN","NY",11210,40.634486414,-73.94783073,379,"2096 NOSTRAND AVENUE, BROOKLYN, NY, 11210","Match","Exact","2096 NOSTRAND AVE, BROOKLYN, NY, 11210",59081735,"R"
112380,"2096 S CENTER ROAD","BURTON","MI",48519,43.0018759660001,-83.634331205,380,"2096 S CENTER ROAD, BURTON, MI, 48519","Match","Exact","2096 S CENTER RD, BURTON, MI, 48519",69606467,"R"
112381,"2096 SOUTH PAXTON DRIVE","WARSAW","IN",46580,41.202708016,-85.874852771,381,"2096 SOUTH PAXTON DRIVE, WARSAW, IN, 46580","Match","Exact","2096 S PAXTON DR, WARSAW, IN, 46580",7931467,"L"
112382,"20960 CAMP ROAD","BRIDGEVILLE","DE",19933,38.6941949870001,-75.58372295,382,"20960 CAMP ROAD, BRIDGEVILLE, DE, 19933","Match","Exact","20960 CAMP RD, BRIDGEVILLE, DE, 19933",106125890,"L"
112383,"20962 DEXTER BLVD","WARREN","MI",48089,42.452137475,-82.972522564,383,"20962 DEXTER BLVD, WARREN, MI, 48089","Match","Exact","20962 DEXTER BLVD, WARREN, MI, 48089",645853891,"R"
112384,"20962 WHITE HAWK WAY","BLUFFTON","OH",45817,NA,NA,384,"20962 WHITE HAWK WAY, BLUFFTON, OH, 45817","No_Match",NA,NA,NA,NA
112385,"20963 ANN AVE","REHOBOTH BEACH","DE",19971,38.7000538300001,-75.0812797519999,385,"20963 ANN AVE, REHOBOTH BEACH, DE, 19971","Match","Exact","20963 ANN AVE, REHOBOTH BCH, DE, 19971",106134594,"R"
112386,"20965 LYCOMING STREET","DIAMOND BAR","CA",91789,34.002922402,-117.847499638,386,"20965 LYCOMING STREET, DIAMOND BAR, CA, 91789","Match","Exact","20965 LYCOMING ST, DIAMOND BAR, CA, 91789",241113627,"L"
112387,"20965 N 79TH DR","PEORIA","AZ",85382,33.671651695,-112.22995192,387,"20965 N 79TH DR, PEORIA, AZ, 85382","Match","Exact","20965 N 79TH DR, PEORIA, AZ, 85382",128401808,"R"
112388,"20968 COUNTY HWY 15","FERGUS FALLS","MN",56537,46.2758512,-96.124393982,388,"20968 COUNTY HWY 15, FERGUS FALLS, MN, 56537","Match","Exact","20968 CO HWY 15, FERGUS FALLS, MN, 56537",168338309,"R"
112389,"20969 W 125TH STREET","OLATHE","KS",66061,38.901401155,-94.8284113459999,389,"20969 W 125TH STREET, OLATHE, KS, 66061","Match","Exact","20969 W 125TH ST, OLATHE, KS, 66061",91321823,"R"
112390,"2097 ABBY LANE","ATLANTA","GA",30345,33.8448139070001,-84.2944602489999,390,"2097 ABBY LANE, ATLANTA, GA, 30345","Match","Non_Exact","2097 ABBY LN NE, ATLANTA, GA, 30345",23359523,"R"
112391,"2097 B JOSEPH E BOONE BLVD","ATLANTA","GA",30314,33.7643672660001,-84.4448643439999,391,"2097 B JOSEPH E BOONE BLVD, ATLANTA, GA, 30314","Match","Non_Exact","2097 JOSEPH E BOONE BLVD NW, ATLANTA, GA, 30314",17340286,"R"
112392,"2097 BOTULPH RD","SANTA FE","NM",87505,35.652104728,-105.94816495,392,"2097 BOTULPH RD, SANTA FE, NM, 87505","Match","Exact","2097 BOTULPH RD, SANTA FE, NM, 87505",169379087,"L"
112393,"2097 CHALYBE WAY","HOOVER","AL",35226,33.3990707310001,-86.890572057,393,"2097 CHALYBE WAY, HOOVER, AL, 35226","Match","Exact","2097 CHALYBE WAY, HOOVER, AL, 35226",641615161,"R"
112394,"2097 E WASHINGTON ST 1E298","COLTON","CA",92324,NA,NA,394,"2097 E WASHINGTON ST 1E298, COLTON, CA, 92324","No_Match",NA,NA,NA,NA
112395,"2097 HERITAGE DRIVE","ROSEVILLE","CA",95678,38.7677944610001,-121.27766591,395,"2097 HERITAGE DRIVE, ROSEVILLE, CA, 95678","Match","Exact","2097 HERITAGE DR, ROSEVILLE, CA, 95678",106808582,"L"
112396,"2097 LOWN FARM LANE","LITHONIA","GA",30058,33.7293365030001,-84.137321254,396,"2097 LOWN FARM LANE, LITHONIA, GA, 30058","Match","Exact","2097 LOWN FARM LN, LITHONIA, GA, 30058",23389802,"R"
112397,"2097 MOKUHAU ROAD","WAILUKU","HI",96793,20.8922661,-156.507269254,397,"2097 MOKUHAU ROAD, WAILUKU, HI, 96793","Match","Exact","2097 MOKUHAU RD, WAILUKU, HI, 96793",85082861,"L"
112398,"2097 NORTH HAMETOWN ROAD","AKRON","OH",44333,41.1926947110001,-81.665683169,398,"2097 NORTH HAMETOWN ROAD, AKRON, OH, 44333","Match","Exact","2097 N HAMETOWN RD, AKRON, OH, 44333",627917831,"R"
112399,"2097 OLIVERA ROAD UNIT C","CONCORD","CA",94520,37.9978037120001,-122.04243468,399,"2097 OLIVERA ROAD UNIT C, CONCORD, CA, 94520","Match","Exact","2097 OLIVERA RD, CONCORD, CA, 94520",192052940,"L"
112400,"2097 RED OAK LN","LIBERTY","MO",64068,39.2213738620001,-94.457596232,400,"2097 RED OAK LN, LIBERTY, MO, 64068","Match","Exact","2097 RED OAK LN, LIBERTY, MO, 64068",89771525,"R"
112401,"2097 S BELAIRE DRIVE","SALT LAKE CITY","UT",84109,40.725268887,-111.80678596,401,"2097 S BELAIRE DRIVE, SALT LAKE CITY, UT, 84109","Match","Exact","2097 BELAIRE DR, SALT LAKE CITY, UT, 84109",176093953,"L"
112402,"2097 W 124TH STREET","OLATHE","KS",66061,NA,NA,402,"2097 W 124TH STREET, OLATHE, KS, 66061","No_Match",NA,NA,NA,NA
112403,"20970 FONTAINE RD","TOPANGA","CA",90290,34.1015097960001,-118.59183005,403,"20970 FONTAINE RD, TOPANGA, CA, 90290","Match","Exact","20970 FONTAINE RD, TOPANGA, CA, 90290",141536436,"R"
112404,"20971 SHORELINE COURT UNIT 201","NOBLESVILLE","IN",46062,40.092275585,-86.070474955,404,"20971 SHORELINE COURT UNIT 201, NOBLESVILLE, IN, 46062","Match","Exact","20971 SHORELINE CT, NOBLESVILLE, IN, 46062",29299319,"R"
112405,"20972 N SWANSWAY","DEER PARK","IL",60010,42.16761095,-88.073408305,405,"20972 N SWANSWAY, DEER PARK, IL, 60010","Match","Exact","20972 N SWANSWAY, DEER PARK, IL, 60010",119695959,"L"
112406,"20976 FOXHUNT DR","COTTONWOOD","CA",96022,40.393662932,-122.274927981,406,"20976 FOXHUNT DR, COTTONWOOD, CA, 96022","Match","Non_Exact","20976 FOX HUNT DR, COTTONWOOD, CA, 96022",126663300,"R"
112407,"20977 ZEP RD EAST","SARAHSVILLE","OH",43779,39.8081097780001,-81.449581493,407,"20977 ZEP RD EAST, SARAHSVILLE, OH, 43779","Match","Non_Exact","20977 ZEP RD, SARAHSVILLE, OH, 43779",38018158,"L"
112408,"20978 W CORONADO RD","BUCKEYE","AZ",85396,33.4666771390001,-112.510761369,408,"20978 W CORONADO RD, BUCKEYE, AZ, 85396","Match","Exact","20978 W CORONADO RD, BUCKEYE, AZ, 85396",648697814,"L"
112409,"20979 N WILDROSE DRIVE","DEER PARK","IL",60010,42.1681852740001,-88.087969851,409,"20979 N WILDROSE DRIVE, DEER PARK, IL, 60010","Match","Exact","20979 N WILDROSE DR, DEER PARK, IL, 60010",119749859,"R"
112410,"2098 CALIFORNIA STREET","SAN FRANCISCO","CA",94109,37.789556362,-122.428773398,410,"2098 CALIFORNIA STREET, SAN FRANCISCO, CA, 94109","Match","Exact","2098 CALIFORNIA ST, SAN FRANCISCO, CA, 94109",192280030,"R"
112411,"2098 COSTA DEL SOL","PISMO BEACH","CA",93449,35.1613001960001,-120.678820339,411,"2098 COSTA DEL SOL, PISMO BEACH, CA, 93449","Match","Exact","2098 COSTA DEL SOL, PISMO BEACH, CA, 93449",645353765,"L"
112412,"2098 NE 3RD COURT","HOMESTEAD","FL",33033,25.4737037420001,-80.4480843539999,412,"2098 NE 3RD COURT, HOMESTEAD, FL, 33033","Match","Exact","2098 NE 3RD CT, HOMESTEAD, FL, 33033",624731164,"R"
112413,"2098 RHYMES ROAD","CRYSTAL SPRINGS","MS",39059,32.023792556,-90.367002617,413,"2098 RHYMES ROAD, CRYSTAL SPRINGS, MS, 39059","Match","Exact","2098 RHYMES RD, CRYSTAL SPGS, MS, 39059",612364877,"R"
112414,"2098 SEMINOLE BLVD APT 2308","LARGO","FL",33778,27.8972029350001,-82.78710946,414,"2098 SEMINOLE BLVD APT 2308, LARGO, FL, 33778","Match","Exact","2098 SEMINOLE BLVD, LARGO, FL, 33778",640277679,"R"
112415,"2098 STARLING AVENUE","BRONX","NY",10462,40.836032566,-73.8551785719999,415,"2098 STARLING AVENUE, BRONX, NY, 10462","Match","Exact","2098 STARLING AVE, BRONX, NY, 10462",80305468,"R"
112416,"2098 WALSH AVE SUITE B","SANTA CLARA","CA",95050,37.369465819,-121.961466983,416,"2098 WALSH AVE SUITE B, SANTA CLARA, CA, 95050","Match","Exact","2098 WALSH AVE, SANTA CLARA, CA, 95050",614035672,"R"
112417,"2098 WOODLAKE LANE","YOUNG HARRIS","GA",30582,34.9817908700001,-83.873736879,417,"2098 WOODLAKE LANE, YOUNG HARRIS, GA, 30582","Match","Non_Exact","2098 WOOD LAKE LN, YOUNG HARRIS, GA, 30582",41988074,"L"
112418,"20980 VERANO WAY","BOCA RATON","FL",33433,26.3655095500001,-80.1589739359999,418,"20980 VERANO WAY, BOCA RATON, FL, 33433","Match","Exact","20980 VERANO WAY, BOCA RATON, FL, 33433",115300996,"L"
112419,"20985 PUENTE ROAD","LOS ANGELES","CA",91364,34.1514482520001,-118.590459951,419,"20985 PUENTE ROAD, LOS ANGELES, CA, 91364","Match","Non_Exact","20985 PUENTE RD, WOODLAND HILLS, CA, 91364",141535760,"R"
112420,"20987 39TH WAY SOUTH D202","SEATAC","WA",98198,47.415792793,-122.285098612,420,"20987 39TH WAY SOUTH D202, SEATAC, WA, 98198","Match","Exact","20987 39TH WAY S, SEATAC, WA, 98198",648112832,"R"
112421,"2099 190TH ST","CENTURIA","WI",54824,45.5120643650001,-92.548644501,421,"2099 190TH ST, CENTURIA, WI, 54824","Match","Exact","2099 190TH ST, CENTURIA, WI, 54824",110872740,"L"
112422,"2099 DEAN STREET","BROOKLYN","NY",11233,40.6751214990001,-73.9175997999999,422,"2099 DEAN STREET, BROOKLYN, NY, 11233","Match","Exact","2099 DEAN ST, BROOKLYN, NY, 11233",59083413,"L"
112423,"2099 JOEL LANG RD","MCCOMB","MS",39648,31.1801857200001,-90.391464094,423,"2099 JOEL LANG RD, MCCOMB, MS, 39648","Match","Exact","2099 JOEL LANG RD, MCCOMB, MS, 39648",612515826,"L"
112424,"2099 PETERSON LANE","SANTA ROSA","CA",95403,38.471144069,-122.76388256,424,"2099 PETERSON LANE, SANTA ROSA, CA, 95403","Match","Exact","2099 PETERSON LN, SANTA ROSA, CA, 95403",67489384,"L"
112425,"2099 SAINT PETERS ROAD","POTTSTOWN","PA",19465,40.2163459430001,-75.7208511819999,425,"2099 SAINT PETERS ROAD, POTTSTOWN, PA, 19465","Match","Exact","2099 SAINT PETERS RD, POTTSTOWN, PA, 19465",179473412,"L"
112426,"2099 YORKSHIRE DRIVE","BELOIT","WI",53511,42.530774695,-88.995495835,426,"2099 YORKSHIRE DRIVE, BELOIT, WI, 53511","Match","Exact","2099 YORKSHIRE DR, BELOIT, WI, 53511",49865793,"L"
112427,"20993 FOOTHILL BLVD /536","HAYWARD","CA",94541,37.6865026880001,-122.094216659,427,"20993 FOOTHILL BLVD /536, HAYWARD, CA, 94541","Match","Exact","20993 FOOTHILL BLVD, HAYWARD, CA, 94541",617282579,"R"
112428,"20998 WEST HAVEN","SOUTHFIELD","MI",48075,42.4446844510001,-83.247240838,428,"20998 WEST HAVEN, SOUTHFIELD, MI, 48075","Match","Non_Exact","20998 WESTHAVEN AVE, SOUTHFIELD, MI, 48075",69740582,"R"
112429,"209A  COURTNEY WAY","STATESBORO","GA",30458,32.4190997210001,-81.811767629,429,"209A  COURTNEY WAY, STATESBORO, GA, 30458","Match","Exact","209 COURTNEY WAY, STATESBORO, GA, 30458",6126396,"R"
112430,"209A CLAYTON STREET","PELAHATCHIE","MS",39145,32.3202859940001,-89.79020277,430,"209A CLAYTON STREET, PELAHATCHIE, MS, 39145","Match","Exact","209 CLAYTON ST, PELAHATCHIE, MS, 39145",116899012,"R"
112431,"209B HARWOOD RD","BEDFORD","TX",76021,NA,NA,431,"209B HARWOOD RD, BEDFORD, TX, 76021","No_Match",NA,NA,NA,NA
112432,"209B SPRINGFIELD CIRCLE","EASLEY","SC",29642,34.8040566290001,-82.592033278,432,"209B SPRINGFIELD CIRCLE, EASLEY, SC, 29642","Match","Exact","209 SPRINGFIELD CIR, EASLEY, SC, 29642",630192268,"L"
112433,"209C DEPOT ST","GREER","SC",29651,34.936226751,-82.2248098379999,433,"209C DEPOT ST, GREER, SC, 29651","Match","Exact","209 DEPOT ST, GREER, SC, 29651",640587191,"L"
112434,"20B GLEN CREEK CIRCLE","ELKTON","MD",21921,39.629113934,-75.802858957,434,"20B GLEN CREEK CIRCLE, ELKTON, MD, 21921","Match","Exact","20 GLEN CREEK CIR, ELKTON, MD, 21921",207861945,"R"
112435,"20B PLATEAU LANE","PALM COAST","FL",32164,29.5303256010001,-81.21909759,435,"20B PLATEAU LANE, PALM COAST, FL, 32164","Match","Exact","20 PLATEAU LN, PALM COAST, FL, 32164",94962833,"R"
112436,"20C WHITNEY RIDGE ROAD APT 1","FAIRPORT","NY",14450,43.0994729610001,-77.419804864,436,"20C WHITNEY RIDGE ROAD APT 1, FAIRPORT, NY, 14450","Match","Exact","20 WHITNEY RIDGE RD, FAIRPORT, NY, 14450",14574689,"L"
112437,"20U FERNWOOD DR","BOLINGBROOK","IL",60440,41.6929607800001,-88.076892239,437,"20U FERNWOOD DR, BOLINGBROOK, IL, 60440","Match","Exact","20 FERNWOOD DR, BOLINGBROOK, IL, 60440",111535231,"R"
112438,"21 12TH STREET","RICHMOND","CA",94801,37.9318153400001,-122.358073333,438,"21 12TH STREET, RICHMOND, CA, 94801","Match","Exact","21 12TH ST, RICHMOND, CA, 94801",192040483,"L"
112439,"21 16TH AVENUE","HAVERHILL","MA",1830,42.792368143,-71.084184691,439,"21 16TH AVENUE, HAVERHILL, MA, 1830","Match","Exact","21 16TH AVE, HAVERHILL, MA, 01830",86617312,"R"
112440,"21 211TH PL NE","SAMMAMISH","WA",98074,47.6095993050001,-122.057840177,440,"21 211TH PL NE, SAMMAMISH, WA, 98074","Match","Exact","21 211TH PL NE, SAMMAMISH, WA, 98074",186618098,"L"
112441,"21 4TH EM ST","MARION","NC",28752,35.6814317320001,-81.991578745,441,"21 4TH EM ST, MARION, NC, 28752","Match","Exact","21 4TH EM ST, MARION, NC, 28752",35912763,"L"
112442,"21 8TH AVENUE","MILFORD","CT",6460,41.185707087,-73.0938090929999,442,"21 8TH AVENUE, MILFORD, CT, 6460","Match","Exact","21 8TH AVE, MILFORD, CT, 06460",3713963,"R"
112443,"21 A OCEANVIEW DR","OCEANRIDGE","FL",33435,26.509754765,-80.0516223229999,443,"21 A OCEANVIEW DR, OCEANRIDGE, FL, 33435","Match","Non_Exact","21 OCEANVIEW DR, OCEAN RIDGE, FL, 33435",115576881,"L"
112444,"21 ADINA TERRACE","MONTVILLE","NJ",7045,40.884690999,-74.364097209,444,"21 ADINA TERRACE, MONTVILLE, NJ, 7045","Match","Exact","21 ADINA TER, MONTVILLE, NJ, 07045",60473525,"R"
112445,"21 AL QADDUS RD","SUMRALL","MS",39482,31.3308527660001,-89.6702557359999,445,"21 AL QADDUS RD, SUMRALL, MS, 39482","Match","Exact","21 AL QADDUS RD, SUMRALL, MS, 39482",203484016,"R"
112446,"21 ALABAMA AVE","SHARPSBURG","AL",30277,NA,NA,446,"21 ALABAMA AVE, SHARPSBURG, AL, 30277","No_Match",NA,NA,NA,NA
112447,"21 ALAMITOS AVE 14","LONG BEACH","CA",90802,33.7670515460001,-118.18271705,447,"21 ALAMITOS AVE 14, LONG BEACH, CA, 90802","Match","Exact","21 ALAMITOS AVE, LONG BEACH, CA, 90802",141694926,"L"
112448,"21 ALDEN AVE","PORTSMOUTH","VA",23702,36.803818688,-76.3160159339999,448,"21 ALDEN AVE, PORTSMOUTH, VA, 23702","Match","Exact","21 ALDEN AVE, PORTSMOUTH, VA, 23702",122195691,"L"
112449,"21 ALLAPAARTUS ROAD","OSSINING","NY",10562,41.197784175,-73.842043577,449,"21 ALLAPAARTUS ROAD, OSSINING, NY, 10562","Match","Non_Exact","21 ALLAPARTUS RD, OSSINING, NY, 10562",139778948,"R"
112450,"21 ALLEN ROAD","WALTHAM","MA",2453,42.372764983,-71.214914612,450,"21 ALLEN ROAD, WALTHAM, MA, 2453","Match","Exact","21 ALLEN RD, WALTHAM, MA, 02453",86863662,"R"
112451,"21 ALTON STREET","PORTLAND","ME",4103,43.6829644840001,-70.2649426849999,451,"21 ALTON STREET, PORTLAND, ME, 4103","Match","Exact","21 ALTON ST, PORTLAND, ME, 04103",78026697,"R"
112452,"21 AMANDAS COURT","CARTERSVILLE","GA",30121,34.2602799310001,-84.822976806,452,"21 AMANDAS COURT, CARTERSVILLE, GA, 30121","Match","Exact","21 AMANDAS CT, CARTERSVILLE, GA, 30121",30463796,"R"
112453,"21 AMESBURY PLACE","SICKLERVILLE","NJ",8081,39.733134104,-74.9975532299999,453,"21 AMESBURY PLACE, SICKLERVILLE, NJ, 8081","Match","Exact","21 AMESBURY PL, SICKLERVILLE, NJ, 08081",134419756,"L"
112454,"21 AMITYVILLE","MELVILLE","NY",11747,40.8079659160001,-73.408752583,454,"21 AMITYVILLE, MELVILLE, NY, 11747","Match","Non_Exact","21 AMITYVILLE RD, MELVILLE, NY, 11747",114236045,"R"
112455,"21 AMPSSLER WAY","OLD TAPPAN","NJ",7675,41.021984633,-73.978762967,455,"21 AMPSSLER WAY, OLD TAPPAN, NJ, 7675","Match","Exact","21 AMPSSLER WAY, OLD TAPPAN, NJ, 07675",641201945,"R"
112456,"21 ANDREWS COURT","FREEHOLD","NJ",7728,40.213734754,-74.297396298,456,"21 ANDREWS COURT, FREEHOLD, NJ, 7728","Match","Exact","21 ANDREWS CT, FREEHOLD, NJ, 07728",90448263,"R"
112457,"21 ANITA WAY","HAMILTON","NJ",8610,40.194055329,-74.694883804,457,"21 ANITA WAY, HAMILTON, NJ, 8610","Match","Exact","21 ANITA WAY, HAMILTON, NJ, 08610",60184359,"R"
112458,"21 ANN ST APT A52","NORWALK","CT",6854,41.1015854180001,-73.4184227279999,458,"21 ANN ST APT A52, NORWALK, CT, 6854","Match","Exact","21 ANN ST, NORWALK, CT, 06854",3251159,"L"
112459,"21 ANNETTE LANE","AIRMONT","NY",10901,41.1077829390001,-74.102621337,459,"21 ANNETTE LANE, AIRMONT, NY, 10901","Match","Exact","21 ANNETTE LN, AIRMONT, NY, 10901",124612770,"R"
112460,"21 APRILS WAY UNIT A","EASTSOUND","WA",98245,NA,NA,460,"21 APRILS WAY UNIT A, EASTSOUND, WA, 98245","No_Match",NA,NA,NA,NA
112461,"21 ARBORWOOD LANE","SICKLERVILLE","NJ",8081,39.7243261250001,-74.973504751,461,"21 ARBORWOOD LANE, SICKLERVILLE, NJ, 8081","Match","Exact","21 ARBORWOOD LN, SICKLERVILLE, NJ, 08081",134363022,"R"
112462,"21 ARDSLEY AVE EAST","IRVINGTON","NY",10533,41.0255892330001,-73.8673347499999,462,"21 ARDSLEY AVE EAST, IRVINGTON, NY, 10533","Match","Exact","21 ARDSLEY AVE E, IRVINGTON, NY, 10533",139732078,"L"
112463,"21 ASBURY AVE","LINWOOD","NJ",8221,39.3366782840001,-74.578206227,463,"21 ASBURY AVE, LINWOOD, NJ, 8221","Match","Exact","21 ASBURY AVE, LINWOOD, NJ, 08221",202483581,"L"
112464,"21 ASHTON DRIVE","BURR RIDGE","IL",60527,41.7258218270001,-87.915049927,464,"21 ASHTON DRIVE, BURR RIDGE, IL, 60527","Match","Exact","21 ASHTON DR, BURR RIDGE, IL, 60527",642886074,"L"
112465,"21 ASHTON STREET","DORCHESTER","MA",2124,42.2878372970001,-71.089092798,465,"21 ASHTON STREET, DORCHESTER, MA, 2124","Match","Exact","21 ASHTON ST, DORCHESTER, MA, 02124",85705535,"R"
112466,"21 ASTOR PLACE APT 9B","NEW YORK","NY",10003,40.730029573,-73.992481676,466,"21 ASTOR PLACE APT 9B, NEW YORK, NY, 10003","Match","Exact","21 ASTOR PL, NEW YORK, NY, 10003",59653585,"L"
112467,"21 AUSTIN ST","HYDE PARK","MA",2131,NA,NA,467,"21 AUSTIN ST, HYDE PARK, MA, 2131","No_Match",NA,NA,NA,NA
112468,"21 AUTUMNWOOD DR","NEWARK","DE",19711,39.772307417,-75.728710214,468,"21 AUTUMNWOOD DR, NEWARK, DE, 19711","Match","Exact","21 AUTUMNWOOD DR, NEWARK, DE, 19711",187273556,"L"
112469,"21 AVALON WAY","WARETOWN","NJ",8758,39.7799762010001,-74.23788073,469,"21 AVALON WAY, WARETOWN, NJ, 8758","Match","Exact","21 AVALON WAY, WARETOWN, NJ, 08758",629911905,"L"
112470,"21 B PERSHING ST","HAMDEN","CT",6514,41.3550004960001,-72.9285381289999,470,"21 B PERSHING ST, HAMDEN, CT, 6514","Match","Exact","21 PERSHING ST, HAMDEN, CT, 06514",3699332,"R"
112471,"21 BEACH STREET","PORTSMOUTH","RI",2871,41.6251579870001,-71.228558192,471,"21 BEACH STREET, PORTSMOUTH, RI, 2871","Match","Exact","21 BEACH ST, PORTSMOUTH, RI, 02871",47352261,"L"
112472,"21 BEACON STREET","JOHNSTON","RI",2919,41.824335815,-71.4844068479999,472,"21 BEACON STREET, JOHNSTON, RI, 2919","Match","Exact","21 BEACON ST, JOHNSTON, RI, 02919",47492173,"R"
112473,"21 BEAUMONT ROAD","YARDVILLE","NJ",8620,40.187007855,-74.683675936,473,"21 BEAUMONT ROAD, YARDVILLE, NJ, 8620","Match","Non_Exact","21 BEAUMONT RD, TRENTON, NJ, 08620",60185058,"L"
112474,"21 BECKWITH AVE","WILLIAMSTOWN","WV",26187,39.3493954320001,-81.4257969079999,474,"21 BECKWITH AVE, WILLIAMSTOWN, WV, 26187","Match","Exact","21 BECKWITH AVE, WILLIAMSTOWN, WV, 26187",90902142,"L"
112475,"21 BELLAMY ROAD","DOVER","NH",3820,43.182066945,-70.888769774,475,"21 BELLAMY ROAD, DOVER, NH, 3820","Match","Exact","21 BELLAMY RD, DOVER, NH, 03820",117815111,"R"
112476,"21 BELLFLOWER ROAD","BALLSTON SPA","NY",12020,42.9636252560001,-73.7811092919999,476,"21 BELLFLOWER ROAD, BALLSTON SPA, NY, 12020","Match","Exact","21 BELLFLOWER RD, BALLSTON SPA, NY, 12020",18814596,"L"
112477,"21 BLUE HERON AVE","HAMPSTEAD","NH",3841,42.88955178,-71.172909928,477,"21 BLUE HERON AVE, HAMPSTEAD, NH, 3841","Match","Exact","21 BLUE HERON AVE, HAMPSTEAD, NH, 03841",113679406,"R"
112478,"21 BLUE JAY DRIVE","BRENTWOOD","NY",11717,40.8033487230001,-73.2659428169999,478,"21 BLUE JAY DRIVE, BRENTWOOD, NY, 11717","Match","Exact","21 BLUE JAY DR, BRENTWOOD, NY, 11717",113984106,"R"
112479,"21 BLUEBERRY HILL ROAD","MONSEY","NY",10952,41.128878446,-74.061087301,479,"21 BLUEBERRY HILL ROAD, MONSEY, NY, 10952","Match","Exact","21 BLUEBERRY HILL RD, MONSEY, NY, 10952",124592889,"L"
112480,"21 BOBWITE TRAIL","CARTERSVILLE","GA",30120,NA,NA,480,"21 BOBWITE TRAIL, CARTERSVILLE, GA, 30120","No_Match",NA,NA,NA,NA
112481,"21 BOLSTER ST","EVERETT","MA",2149,42.4182241190001,-71.049867188,481,"21 BOLSTER ST, EVERETT, MA, 2149","Match","Exact","21 BOLSTER ST, EVERETT, MA, 02149",86873798,"R"
112482,"21 BOUNDARY ST","BLUFFTON","SC",29910,32.2357042670001,-80.8609192979999,482,"21 BOUNDARY ST, BLUFFTON, SC, 29910","Match","Exact","21 BOUNDARY ST, BLUFFTON, SC, 29910",87614170,"R"
112483,"21 BRIAN RD","CHELMSFORD","MA",1824,42.585128787,-71.348501732,483,"21 BRIAN RD, CHELMSFORD, MA, 1824","Match","Exact","21 BRIAN RD, CHELMSFORD, MA, 01824",86917398,"R"
112484,"21 BRIAR DR","HAMPTON","VA",23661,37.02175772,-76.399766115,484,"21 BRIAR DR, HAMPTON, VA, 23661","Match","Exact","21 BRIAR DR, HAMPTON, VA, 23661",103756132,"L"
112485,"21 BRIAR HOLLOW LANE SUITE 508","HOUSTON","TX",77027,29.751215406,-95.4520130129999,485,"21 BRIAR HOLLOW LANE SUITE 508, HOUSTON, TX, 77027","Match","Exact","21 BRIAR HOLLOW LN, HOUSTON, TX, 77027",96032923,"R"
112486,"21 BRIGHTON AVE","SEASIDE PARK","NJ",8752,39.924294424,-74.0756880869999,486,"21 BRIGHTON AVE, SEASIDE PARK, NJ, 8752","Match","Exact","21 BRIGHTON AVE, SEASIDE PARK, NJ, 08752",203765211,"R"
112487,"21 BRITT LEA DRIVE","SICKLERVILLE","NJ",8081,39.7744011090001,-75.015270254,487,"21 BRITT LEA DRIVE, SICKLERVILLE, NJ, 8081","Match","Exact","21 BRITT LEA DR, SICKLERVILLE, NJ, 08081",637763422,"R"
112488,"21 BROOKRIDGE CT","RYE BROOK","NY",10573,40.9981999290001,-73.6827978699999,488,"21 BROOKRIDGE CT, RYE BROOK, NY, 10573","Match","Exact","21 BROOKRIDGE CT, RYE BROOK, NY, 10573",139779494,"R"
112489,"21 BROOKS TRACE","ELLIJAY","GA",30540,34.72851323,-84.517422118,489,"21 BROOKS TRACE, ELLIJAY, GA, 30540","Match","Exact","21 BROOKS TRCE, ELLIJAY, GA, 30540",57258603,"R"
112490,"21 BUELL STREET","BURLINGTON","VT",5401,44.4790510030001,-73.2102775229999,490,"21 BUELL STREET, BURLINGTON, VT, 5401","Match","Exact","21 BUELL ST, BURLINGTON, VT, 05401",135827990,"R"
112491,"21 BURR ST APT 2","BOSTON","MA",2130,42.317669896,-71.108813929,491,"21 BURR ST APT 2, BOSTON, MA, 2130","Match","Exact","21 BURR ST, BOSTON, MA, 02130",85698700,"R"
112492,"21 C ORINDA WAY 138","ORINDA","CA",94563,37.8824453920001,-122.188000251,492,"21 C ORINDA WAY 138, ORINDA, CA, 94563","Match","Exact","21 ORINDA WAY, ORINDA, CA, 94563",192050539,"L"
112493,"21 C ORINDA WAY-     405","ORINDA","CA",94563,37.8824453920001,-122.188000251,493,"21 C ORINDA WAY-     405, ORINDA, CA, 94563","Match","Non_Exact","21 ORINDA WAY, ORINDA, CA, 94563",192050539,"L"
112494,"21 CADILLAC DRIVE","TOMS RIVER","NJ",8755,39.9750186480001,-74.223625362,494,"21 CADILLAC DRIVE, TOMS RIVER, NJ, 8755","Match","Exact","21 CADILLAC DR, TOMS RIVER, NJ, 08755",203726094,"R"
112495,"21 CALIFORNIA STREET","AMESBURY","MA",1913,42.864896881,-70.927775907,495,"21 CALIFORNIA STREET, AMESBURY, MA, 1913","Match","Exact","21 CALIFORNIA ST, AMESBURY, MA, 01913",86619435,"L"
112496,"21 CARLISLE LANE","CAMDEN","SC",29020,34.2944511220001,-80.613338513,496,"21 CARLISLE LANE, CAMDEN, SC, 29020","Match","Exact","21 CARLISLE LN, CAMDEN, SC, 29020",646961857,"L"
112497,"21 CASTLE STREET","LEOMINSTER","MA",1453,42.5157608760001,-71.7537105499999,497,"21 CASTLE STREET, LEOMINSTER, MA, 1453","Match","Exact","21 CASTLE ST, LEOMINSTER, MA, 01453",40030846,"R"
112498,"21 CEDARIDGE DR","JACKSONVILLE","AR",72076,34.871073353,-92.194567878,498,"21 CEDARIDGE DR, JACKSONVILLE, AR, 72076","Match","Exact","21 CEDARIDGE DR, JACKSONVILLE, AR, 72076",83498039,"R"
112499,"21 CENTER STREET","FOLLY BEACH","SC",29439,32.65555067,-79.9408277169999,499,"21 CENTER STREET, FOLLY BEACH, SC, 29439","Match","Exact","21 CENTER ST, FOLLY BEACH, SC, 29439",108813989,"R"
112500,"21 CENTER STREET","HOPEWELL","NJ",8525,40.3899323950001,-74.7630725349999,500,"21 CENTER STREET, HOPEWELL, NJ, 8525","Match","Exact","21 CENTER ST, HOPEWELL, NJ, 08525",60174616,"L"
