"ID","Address","City","State","Zip","lat","long","id","input_address","match_indicator","match_type","matched_address","tiger_line_id","tiger_side"
287501,"7616 W MONTGOMERY RD","HOUSTON","TX",77091,29.8631869110001,-95.427700139,1,"7616 W MONTGOMERY RD, HOUSTON, TX, 77091","Match","Exact","7616 W MONTGOMERY RD, HOUSTON, TX, 77091",96052893,"R"
287502,"7617 CASSINO AVENUE","ORLANDO","FL",32819,28.454729678,-81.442897748,2,"7617 CASSINO AVENUE, ORLANDO, FL, 32819","Match","Exact","7617 CASSINO AVE, ORLANDO, FL, 32819",94289595,"L"
287503,"7617 COLFAX RD","CLEVELAND","OH",44104,41.4793876640001,-81.635150556,3,"7617 COLFAX RD, CLEVELAND, OH, 44104","Match","Exact","7617 COLFAX RD, CLEVELAND, OH, 44104",642635948,"L"
287504,"7617 EAGLE TREE LANE","PRESQUE ISLE","WI",54557,46.2261748280001,-89.743203321,4,"7617 EAGLE TREE LANE, PRESQUE ISLE, WI, 54557","Match","Non_Exact","7617 EAGLE TREE DR, PRESQUE ISLE, WI, 54557",165567371,"L"
287505,"7617 EL PASO ST","LA MESA","CA",91942,32.7901017340001,-117.033434506,5,"7617 EL PASO ST, LA MESA, CA, 91942","Match","Exact","7617 EL PASO ST, LA MESA, CA, 91942",195325526,"R"
287506,"7617 HEMLOCK DRIVE","ORLAND PARK","IL",60462,41.6114036220001,-87.8042141449999,6,"7617 HEMLOCK DRIVE, ORLAND PARK, IL, 60462","Match","Exact","7617 HEMLOCK DR, ORLAND PARK, IL, 60462",637498137,"R"
287507,"7617 N 67TH AVENUE SUITE 201","GLENDALE","AZ",85301,33.546767098,-112.203014303,7,"7617 N 67TH AVENUE SUITE 201, GLENDALE, AZ, 85301","Match","Non_Exact","7617 N 67TH AVE, GLENDALE, AZ, 85301",128192714,"R"
287508,"7617 N OKETO","NILES","IL",60714,42.0192556210001,-87.811422943,8,"7617 N OKETO, NILES, IL, 60714","Match","Non_Exact","7617 N OKETO AVE, NILES, IL, 60714",111733289,"R"
287509,"7617 NORTH PERSHING AVENUE","STOCKTON","CA",95207,38.0187851380001,-121.32996699,9,"7617 NORTH PERSHING AVENUE, STOCKTON, CA, 95207","Match","Exact","7617 N PERSHING AVE, STOCKTON, CA, 95207",133844198,"L"
287510,"7617 NW TAYLOR AVE","LAWTON","OK",73505,34.6269206210001,-98.484877882,10,"7617 NW TAYLOR AVE, LAWTON, OK, 73505","Match","Exact","7617 NW TAYLOR AVE, LAWTON, OK, 73505",14999358,"L"
287511,"7617 OAK LANE ROAD","CHELTENHAM","PA",19012,40.0581092140001,-75.117792637,11,"7617 OAK LANE ROAD, CHELTENHAM, PA, 19012","Match","Exact","7617 OAK LANE RD, CHELTENHAM, PA, 19012",135094786,"R"
287512,"7617 OLD STATE RD 60 SUITE 2","SELLERSBURG","IN",47172,NA,NA,12,"7617 OLD STATE RD 60 SUITE 2, SELLERSBURG, IN, 47172","Tie",NA,NA,NA,NA
287513,"7617 OYSTER COVE DRIVE","LV","NV",89128,36.214303885,-115.261500458,13,"7617 OYSTER COVE DRIVE, LV, NV, 89128","Match","Exact","7617 OYSTER COVE DR, LAS VEGAS, NV, 89128",201917129,"R"
287514,"7617 PERCY COURT","RALEIGH","NC",27613,35.879035716,-78.7137214259999,14,"7617 PERCY COURT, RALEIGH, NC, 27613","Match","Exact","7617 PERCY CT, RALEIGH, NC, 27613",72646056,"L"
287515,"7617 ROLLING OAK CT","CLEMMONS","NC",27012,36.0297349750001,-80.404960347,15,"7617 ROLLING OAK CT, CLEMMONS, NC, 27012","Match","Exact","7617 ROLLING OAK CT, CLEMMONS, NC, 27012",84630555,"R"
287516,"7617 S MINGO RD","TULSA","OK",74133,36.053293394,-95.868486406,16,"7617 S MINGO RD, TULSA, OK, 74133","Match","Exact","7617 S MINGO RD, TULSA, OK, 74133",611255820,"L"
287517,"7617 S SOUTH SHORE DR","CHICAGO","IL",60649,41.7584799810001,-87.555016725,17,"7617 S SOUTH SHORE DR, CHICAGO, IL, 60649","Match","Exact","7617 S SOUTH SHORE DR, CHICAGO, IL, 60649",111775857,"L"
287518,"7617 SWILCAN DR","ORLANDO","FL",32822,28.4573763760001,-81.2890333779999,18,"7617 SWILCAN DR, ORLANDO, FL, 32822","Match","Exact","7617 SWILCAN DR, ORLANDO, FL, 32822",645099792,"L"
287519,"7617 THORNDIKE ROAD","GREENSBORO","NC",27409,36.076531398,-79.9604337389999,19,"7617 THORNDIKE ROAD, GREENSBORO, NC, 27409","Match","Exact","7617 THORNDIKE RD, GREENSBORO, NC, 27409",131109213,"R"
287520,"7617 TROON DR","ROWLETT","TX",75089,32.9358241640001,-96.53229493,20,"7617 TROON DR, ROWLETT, TX, 75089","Match","Exact","7617 TROON DR, ROWLETT, TX, 75089",103252723,"R"
287521,"7617 WINDSOR","THE COLONY","TX",75056,33.107593449,-96.926961067,21,"7617 WINDSOR, THE COLONY, TX, 75056","Match","Exact","7617 WINDSOR, THE COLONY, TX, 75056",650735206,"L"
287522,"76175 PAULSON RD","WASHBURN","WI",54891,46.6762925680001,-91.009571045,22,"76175 PAULSON RD, WASHBURN, WI, 54891","Match","Exact","76175 PAULSON RD, WASHBURN, WI, 54891",194301740,"R"
287523,"7618 E EVANS RD","SAN ANTONIO","TX",78266,29.6117401660001,-98.338481246,23,"7618 E EVANS RD, SAN ANTONIO, TX, 78266","Match","Exact","7618 E EVANS RD, SAN ANTONIO, TX, 78266",642149831,"R"
287524,"7618 EVANS ROAD","SAN ANTONIO","TX",78266,29.6117423370001,-98.338486331,24,"7618 EVANS ROAD, SAN ANTONIO, TX, 78266","Match","Non_Exact","7618 E EVANS RD, SAN ANTONIO, TX, 78266",642149831,"R"
287525,"7618 SEILER ROAD","FORT WAYNE","IN",46806,41.0480723000001,-85.0409494789999,25,"7618 SEILER ROAD, FORT WAYNE, IN, 46806","Match","Exact","7618 SEILER RD, FORT WAYNE, IN, 46806",6410686,"R"
287526,"7618 SERENE AVE","HUMBLE","TX",77338,30.018440744,-95.3083214709999,26,"7618 SERENE AVE, HUMBLE, TX, 77338","Match","Exact","7618 SERENE AVE, HUMBLE, TX, 77338",624798646,"R"
287527,"7618 TRUXTON AVE","LOS ANGELES","CA",90045,33.971145467,-118.390793829,27,"7618 TRUXTON AVE, LOS ANGELES, CA, 90045","Match","Exact","7618 TRUXTON AVE, LOS ANGELES, CA, 90045",141579090,"L"
287528,"7619 12TH ST NW","WASHINGTON","DC",20012,38.982152528,-77.027862935,28,"7619 12TH ST NW, WASHINGTON, DC, 20012","Match","Exact","7619 12TH ST NW, WASHINGTON, DC, 20012",76221672,"R"
287529,"7619 GREEN LAWN DRIVE","HOUSTON","TX",77088,29.8764059650001,-95.479801551,29,"7619 GREEN LAWN DRIVE, HOUSTON, TX, 77088","Match","Exact","7619 GREEN LAWN DR, HOUSTON, TX, 77088",616778036,"L"
287530,"7619 LITTLE RIVER TURNPIKE STE 600","ANNANDALE","VA",22003,38.8324021060001,-77.208386718,30,"7619 LITTLE RIVER TURNPIKE STE 600, ANNANDALE, VA, 22003","Match","Exact","7619 LITTLE RIVER TPKE, ANNANDALE, VA, 22003",638089611,"L"
287531,"7619 MARQUETTE ST","DALLAS","TX",75225,NA,NA,31,"7619 MARQUETTE ST, DALLAS, TX, 75225","No_Match",NA,NA,NA,NA
287532,"7619 MILITARY PARKWAY APT 61","DALLAS","TX",75227,32.7712887490001,-96.691461512,32,"7619 MILITARY PARKWAY APT 61, DALLAS, TX, 75227","Match","Exact","7619 MILITARY PKWY, DALLAS, TX, 75227",103229676,"R"
287533,"7619 SAW TIMBER LANE","JACKSONVILLE","FL",32256,30.240795298,-81.523464082,33,"7619 SAW TIMBER LANE, JACKSONVILLE, FL, 32256","Match","Exact","7619 SAW TIMBER LN, JACKSONVILLE, FL, 32256",83962461,"R"
287534,"7619 STREATER AVE","HIGHLAND","CA",92346,34.11383749,-117.179826644,34,"7619 STREATER AVE, HIGHLAND, CA, 92346","Match","Exact","7619 STREATER AVE, HIGHLAND, CA, 92346",144691488,"L"
287535,"7619 SW PRICE DRIVE","LAWSON","MO",64062,39.527156254,-94.206512145,35,"7619 SW PRICE DRIVE, LAWSON, MO, 64062","Match","Exact","7619 SW PRICE DR, LAWSON, MO, 64062",17780606,"L"
287536,"7619 W WOOLARD RD","DEER PARK","WA",99006,47.8455240810001,-117.520278948,36,"7619 W WOOLARD RD, DEER PARK, WA, 99006","Match","Exact","7619 W WOOLARD RD, DEER PARK, WA, 99006",189852645,"R"
287537,"7619 WHITNEY DRIVE","APPLE VALLEY","MN",55124,44.726553596,-93.2196434959999,37,"7619 WHITNEY DRIVE, APPLE VALLEY, MN, 55124","Match","Exact","7619 WHITNEY DR, APPLE VALLEY, MN, 55124",37937486,"R"
287538,"7619 WILLOW SCHOOL DR","SPRING","TX",77389,30.1088247380001,-95.53827898,38,"7619 WILLOW SCHOOL DR, SPRING, TX, 77389","Match","Exact","7619 WILLOW SCHOOL DR, SPRING, TX, 77389",644997184,"L"
287539,"761C MONROE ST SUITE 200","HERNDON","VA",20170,NA,NA,39,"761C MONROE ST SUITE 200, HERNDON, VA, 20170","No_Match",NA,NA,NA,NA
287540,"762 9TH ST UNIT 601","DURHAM","NC",27705,36.0096316670001,-78.9220512159999,40,"762 9TH ST UNIT 601, DURHAM, NC, 27705","Match","Exact","762 9TH ST, DURHAM, NC, 27705",635317638,"R"
287541,"762 ANTIOCH RD","NEW BERN","NC",28560,35.1682624370001,-77.050047321,41,"762 ANTIOCH RD, NEW BERN, NC, 28560","Match","Exact","762 ANTIOCH RD, NEW BERN, NC, 28560",34120882,"R"
287542,"762 AUDREY AVE","WACO","TX",76705,31.646006454,-97.131446916,42,"762 AUDREY AVE, WACO, TX, 76705","Match","Exact","762 AUDREY AVE, WACO, TX, 76705",146733266,"R"
287543,"762 BROAD ST","SAN LUIS OBISPO","CA",93401,35.281900857,-120.666271798,43,"762 BROAD ST, SAN LUIS OBISPO, CA, 93401","Match","Exact","762 BROAD ST, SAN LUIS OBISPO, CA, 93401",109732137,"R"
287544,"762 BROOKLINE STREET","ATLANTA","GA",30310,33.727105953,-84.412514304,44,"762 BROOKLINE STREET, ATLANTA, GA, 30310","Match","Non_Exact","762 BROOKLINE ST SW, ATLANTA, GA, 30310",17345402,"L"
287545,"762 CELTIC CROSSING DRIVE","HIGH POINT","NC",27265,35.987325395,-80.042648642,45,"762 CELTIC CROSSING DRIVE, HIGH POINT, NC, 27265","Match","Exact","762 CELTIC CROSSING DR, HIGH POINT, NC, 27265",619934362,"L"
287546,"762 CHAMPION STREET","CLAYTON","NC",27520,35.631558136,-78.4540854799999,46,"762 CHAMPION STREET, CLAYTON, NC, 27520","Match","Exact","762 CHAMPION ST, CLAYTON, NC, 27520",618165199,"R"
287547,"762 E ARGYLE AVE","NASHVILLE","TN",37203,36.136100793,-86.777987342,47,"762 E ARGYLE AVE, NASHVILLE, TN, 37203","Match","Exact","762 ARGYLE AVE, NASHVILLE, TN, 37203",606392542,"R"
287548,"762 E BIRCHWOOD PL","CHANDLER","AZ",85249,33.2266928240001,-111.827088989,48,"762 E BIRCHWOOD PL, CHANDLER, AZ, 85249","Match","Exact","762 E BIRCHWOOD PL, CHANDLER, AZ, 85249",128854663,"L"
287549,"762 EAST BONITA CANYON STREET","MERIDIAN","ID",83646,43.649909779,-116.384504279,49,"762 EAST BONITA CANYON STREET, MERIDIAN, ID, 83646","Match","Exact","762 E BONITA CANYON ST, MERIDIAN, ID, 83646",635727032,"L"
287550,"762 EDGEWOOD AVE NE","OCEAN SHORES","WA",98569,47.0105318970001,-124.155640615,50,"762 EDGEWOOD AVE NE, OCEAN SHORES, WA, 98569","Match","Exact","762 EDGEWOOD AVE NE, OCEAN SHORES, WA, 98569",635468262,"R"
287551,"762 EMPIRE BLVD APT 1A","BROOKLYN","NY",11213,40.6637327440001,-73.9368683599999,51,"762 EMPIRE BLVD APT 1A, BROOKLYN, NY, 11213","Match","Exact","762 EMPIRE BLVD, BROOKLYN, NY, 11213",59079879,"R"
287552,"762 FM 339","Mt Calm","TX",76673,31.7612185410001,-96.884616168,52,"762 FM 339, Mt Calm, TX, 76673","Match","Exact","762 FM 339, MOUNT CALM, TX, 76673",160522691,"R"
287553,"762 FULTON STREET","SAN FRANCISCO","CA",94102,37.7781943320001,-122.427749022,53,"762 FULTON STREET, SAN FRANCISCO, CA, 94102","Match","Exact","762 FULTON ST, SAN FRANCISCO, CA, 94102",192283759,"R"
287554,"762 HERMAN ROAD","BUTLER","PA",16002,40.829536257,-79.824406391,54,"762 HERMAN ROAD, BUTLER, PA, 16002","Match","Exact","762 HERMAN RD, BUTLER, PA, 16002",616324152,"R"
287555,"762 LUETKENHAUS BLVD","WENTZVILLE","MO",63385,NA,NA,55,"762 LUETKENHAUS BLVD, WENTZVILLE, MO, 63385","No_Match",NA,NA,NA,NA
287556,"762 MEIGS STREET","ROCHESTER","NY",14620,43.1396955810001,-77.599482967,56,"762 MEIGS STREET, ROCHESTER, NY, 14620","Match","Exact","762 MEIGS ST, ROCHESTER, NY, 14620",14540488,"L"
287557,"762 MICHAEL DRIVE","KEY LARGO","FL",33072,25.1367458820001,-80.410823337,57,"762 MICHAEL DRIVE, KEY LARGO, FL, 33072","Match","Non_Exact","762 MICHAEL DR, KEY LARGO, FL, 33037",116495602,"L"
287558,"762 PARK PLACE 4B","BROOKLYN","NY",11216,40.673538158,-73.9523634889999,58,"762 PARK PLACE 4B, BROOKLYN, NY, 11216","Match","Exact","762 PARK PL, BROOKLYN, NY, 11216",59079369,"R"
287559,"762 PINTA LN","FOSTER CITY","CA",94404,37.5611493930001,-122.263108148,59,"762 PINTA LN, FOSTER CITY, CA, 94404","Match","Exact","762 PINTA LN, FOSTER CITY, CA, 94404",192384419,"L"
287560,"762 SCHENCK AVENUE","BROOKLYN","NY",11207,40.66164022,-73.884295588,60,"762 SCHENCK AVENUE, BROOKLYN, NY, 11207","Match","Exact","762 SCHENCK AVE, BROOKLYN, NY, 11207",640860423,"R"
287561,"762 SOUTH 1420 WEST","OREM","UT",84058,40.2832484140001,-111.729442839,61,"762 SOUTH 1420 WEST, OREM, UT, 84058","Match","Exact","762 S 1420 W, OREM, UT, 84058",134233071,"L"
287562,"762 SOUTH ROAD","WURTSBURO","NY",12790,41.5287550200001,-74.516816438,62,"762 SOUTH ROAD, WURTSBURO, NY, 12790","Match","Non_Exact","762 SOUTH RD, WURTSBORO, NY, 12790",634301075,"L"
287563,"762 STEEPLE CHASE DRIVE","LAWRENCEVILLE","GA",30044,33.914286873,-84.019537537,63,"762 STEEPLE CHASE DRIVE, LAWRENCEVILLE, GA, 30044","Match","Non_Exact","762 STEEPLE CHASE DR SW, LAWRENCEVILLE, GA, 30044",88903623,"L"
287564,"762 TORRINGTON DRIVE","NAPERVILLE","IL",60565,41.744276111,-88.158184465,64,"762 TORRINGTON DRIVE, NAPERVILLE, IL, 60565","Match","Exact","762 TORRINGTON DR, NAPERVILLE, IL, 60565",112566365,"L"
287565,"762 VERDE DRIVE","RIVERDALE","GA",30274,33.583477332,-84.415825976,65,"762 VERDE DRIVE, RIVERDALE, GA, 30274","Match","Exact","762 VERDE DR, RIVERDALE, GA, 30274",23323245,"L"
287566,"762 W 131ST STREET","GARDENA","CA",90247,33.913328247,-118.288521861,66,"762 W 131ST STREET, GARDENA, CA, 90247","Match","Exact","762 W 131ST ST, GARDENA, CA, 90247",141662329,"L"
287567,"762 W OLIVOS DR","SANTA CLARA","CA",95050,NA,NA,67,"762 W OLIVOS DR, SANTA CLARA, CA, 95050","No_Match",NA,NA,NA,NA
287568,"762 W SHARON ROAD","CINCINNATI","OH",45240,39.2756241720001,-84.506164031,68,"762 W SHARON ROAD, CINCINNATI, OH, 45240","Match","Exact","762 W SHARON RD, CINCINNATI, OH, 45240",103943526,"R"
287569,"762 WENDELL RD","WENDELL","NC",27591,35.7043797920001,-78.367782721,69,"762 WENDELL RD, WENDELL, NC, 27591","Match","Exact","762 WENDELL RD, WENDELL, NC, 27591",651930888,"R"
287570,"762 WENDELL ROAD","WENDELL","NC",27591,35.7043797920001,-78.367782721,70,"762 WENDELL ROAD, WENDELL, NC, 27591","Match","Exact","762 WENDELL RD, WENDELL, NC, 27591",651930888,"R"
287571,"762 WOODWARD ROAD","CHARLESTON","SC",29407,32.783971229,-79.973447071,71,"762 WOODWARD ROAD, CHARLESTON, SC, 29407","Match","Exact","762 WOODWARD RD, CHARLESTON, SC, 29407",108806308,"R"
287572,"7620 CASTOR AVENUE","PHILADELPHIA","PA",19152,40.056706879,-75.0610098659999,72,"7620 CASTOR AVENUE, PHILADELPHIA, PA, 19152","Match","Exact","7620 CASTOR AVE, PHILADELPHIA, PA, 19152",131416363,"L"
287573,"7620 DEVINE AVE","NEW ORLEANS","LA",70127,30.041151158,-89.990448419,73,"7620 DEVINE AVE, NEW ORLEANS, LA, 70127","Match","Exact","7620 DEVINE AVE, NEW ORLEANS, LA, 70127",191720540,"L"
287574,"7620 E DESTIN DRIVE","WASILLA","AK",99654,61.6164856610001,-149.259338848,74,"7620 E DESTIN DRIVE, WASILLA, AK, 99654","Match","Exact","7620 DESTIN DR, WASILLA, AK, 99654",191047509,"R"
287575,"7620 E EDGEWOOD AVE","INDIANAPOLIS","IN",46239,39.6813016900001,-86.033118706,75,"7620 E EDGEWOOD AVE, INDIANAPOLIS, IN, 46239","Match","Exact","7620 E EDGEWOOD AVE, INDIANAPOLIS, IN, 46239",645039601,"L"
287576,"7620 E MCKELLIPS RD SUITE 420","SCOTTSDALE","AZ",85257,33.451265221,-111.917357952,76,"7620 E MCKELLIPS RD SUITE 420, SCOTTSDALE, AZ, 85257","Match","Non_Exact","7620 E MCKELLIPS RD, SCOTTSDALE, AZ, 85257",128780362,"L"
287577,"7620 EDEN ROAD","SPARTA","IL",62286,38.0870917130001,-89.66750139,77,"7620 EDEN ROAD, SPARTA, IL, 62286","Match","Exact","7620 EDEN RD, SPARTA, IL, 62286",95191125,"R"
287578,"7620 EDGEWOOD AVENUE","INDIANAPOLIS","IN",46239,39.6813017050001,-86.033122568,78,"7620 EDGEWOOD AVENUE, INDIANAPOLIS, IN, 46239","Match","Non_Exact","7620 E EDGEWOOD AVE, INDIANAPOLIS, IN, 46239",645039601,"L"
287579,"7620 HIGH MEADOW COURT","FORT WORTH","TX",76112,32.752708393,-97.189073408,79,"7620 HIGH MEADOW COURT, FORT WORTH, TX, 76112","Match","Exact","7620 HIGH MEADOW CT, FORT WORTH, TX, 76112",101901220,"L"
287580,"7620 LAKE REE AVENUE","SAN DIEGO","CA",92119,32.7942437190001,-117.034163127,80,"7620 LAKE REE AVENUE, SAN DIEGO, CA, 92119","Match","Exact","7620 LAKE REE AVE, SAN DIEGO, CA, 92119",195325301,"L"
287581,"7620 LINDEN AVE","CITRUS HEIGHTS","CA",95610,38.720231583,-121.286402849,81,"7620 LINDEN AVE, CITRUS HEIGHTS, CA, 95610","Match","Exact","7620 LINDEN AVE, CITRUS HEIGHTS, CA, 95610",133328718,"R"
287582,"7620 N 10TH ST","PHOENIX","AZ",85020,33.5468837650001,-112.060881255,82,"7620 N 10TH ST, PHOENIX, AZ, 85020","Match","Exact","7620 N 10TH ST, PHOENIX, AZ, 85020",128207357,"L"
287583,"7620 N 51ST STREET","BROWN DEER","WI",53223,43.138634236,-87.9757263989999,83,"7620 N 51ST STREET, BROWN DEER, WI, 53223","Match","Exact","7620 N 51ST ST, BROWN DEER, WI, 53223",77726546,"R"
287584,"7620 N UNIVERSITY ST STE 202","PEORIA","IL",61614,40.7801367770001,-89.621519919,84,"7620 N UNIVERSITY ST STE 202, PEORIA, IL, 61614","Match","Non_Exact","7620 N UNIVERSITY ST, PEORIA, IL, 61614",8731751,"R"
287585,"7620 OLD GEORGETOWN RD APT 621","BETHESDA","MD",20814,38.9860587410001,-77.096425504,85,"7620 OLD GEORGETOWN RD APT 621, BETHESDA, MD, 20814","Match","Non_Exact","7620 OLD GEORGETOWN RD, BETHESDA, MD, 20814",62141038,"L"
287586,"7620 VINEYARD DRIVE","PLANO","TX",75025,33.0797810760001,-96.7047537559999,86,"7620 VINEYARD DRIVE, PLANO, TX, 75025","Match","Exact","7620 VINEYARD DR, PLANO, TX, 75025",123485459,"R"
287587,"7620 WEST DONNA COURT APT 6","MILWAUKEE","WI",53223,43.171758025,-88.005921886,87,"7620 WEST DONNA COURT APT 6, MILWAUKEE, WI, 53223","Match","Exact","7620 W DONNA CT, MILWAUKEE, WI, 53223",77725259,"L"
287588,"7620 WOODGLEN DRIVE","FAIR OAKS","CA",95628,38.6477488420001,-121.284969792,88,"7620 WOODGLEN DRIVE, FAIR OAKS, CA, 95628","Match","Exact","7620 WOODGLEN DR, FAIR OAKS, CA, 95628",133345908,"R"
287589,"7620 WOODLEAF RD","WOODLEAF","NC",27054,35.758851959,-80.5735603369999,89,"7620 WOODLEAF RD, WOODLEAF, NC, 27054","Match","Exact","7620 WOODLEAF RD, WOODLEAF, NC, 27054",25260529,"R"
287590,"7621 AYNLEE WAY","HARRISBURG","PA",17112,40.32785405,-76.726777657,90,"7621 AYNLEE WAY, HARRISBURG, PA, 17112","Match","Exact","7621 AYNLEE WAY, HARRISBURG, PA, 17112",608429246,"R"
287591,"7621 CHAMPLAIN RD","WILMINGTON","NC",28412,34.093315826,-77.907985426,91,"7621 CHAMPLAIN RD, WILMINGTON, NC, 28412","Match","Non_Exact","7621 CHAMPLAIN DR, WILMINGTON, NC, 28412",646730076,"R"
287592,"7621 DESERT BREEZE AVE","LAS VEGAS","NV",89149,36.2648229530001,-115.261757315,92,"7621 DESERT BREEZE AVE, LAS VEGAS, NV, 89149","Match","Exact","7621 DESERT BREEZE AVE, LAS VEGAS, NV, 89149",201907164,"L"
287593,"7621 E TORONTO","TUSCON","AZ",85730,32.1838023180001,-110.829430153,93,"7621 E TORONTO, TUSCON, AZ, 85730","Match","Non_Exact","7621 E TORONTO ST, TUCSON, AZ, 85730",121184294,"L"
287594,"7621 HOLBROOK COURT","MANASSAS","VA",20112,38.6650308590001,-77.432748749,94,"7621 HOLBROOK COURT, MANASSAS, VA, 20112","Match","Exact","7621 HOLBROOK CT, MANASSAS, VA, 20112",76521784,"L"
287595,"7621 HOLLY RIDGE DRIVE","GLEN BURNIE","MD",21060,39.1545335800001,-76.578990302,95,"7621 HOLLY RIDGE DRIVE, GLEN BURNIE, MD, 21060","Match","Exact","7621 HOLLY RIDGE DR, GLEN BURNIE, MD, 21060",649060559,"L"
287596,"7621 LABYRINTH ROAD","PIKESVILLE","MD",21208,39.376102003,-76.700427742,96,"7621 LABYRINTH ROAD, PIKESVILLE, MD, 21208","Match","Exact","7621 LABYRINTH RD, PIKESVILLE, MD, 21208",647290015,"R"
287597,"7621 S 273RD E AVE","BROKEN ARROW","OK",74014,36.0527598250001,-95.672414644,97,"7621 S 273RD E AVE, BROKEN ARROW, OK, 74014","Match","Exact","7621 S 273RD E AVE, BROKEN ARROW, OK, 74014",651787445,"L"
287598,"7621 STILLHAVEN CT SE","OWENS CROSS ROADS","AL",35763,34.614091622,-86.489077648,98,"7621 STILLHAVEN CT SE, OWENS CROSS ROADS, AL, 35763","Match","Exact","7621 STILLHAVEN CT SE, OWENS CROSS ROADS, AL, 35763",650669212,"L"
287599,"7621 TARA LANE","JACKSONVILLE","FL",32216,30.2917449780001,-81.5785361969999,99,"7621 TARA LANE, JACKSONVILLE, FL, 32216","Match","Exact","7621 TARA LN, JACKSONVILLE, FL, 32216",83919266,"L"
287600,"7621 W PECK DR","GLENDALE","AZ",85303,33.526791879,-112.22305292,100,"7621 W PECK DR, GLENDALE, AZ, 85303","Match","Exact","7621 PECK DR, GLENDALE, AZ, 85303",638561617,"L"
287601,"7621 YARMOUTH DR","N CHESTERFIELD","VA",23225,37.5218228190001,-77.537460585,101,"7621 YARMOUTH DR, N CHESTERFIELD, VA, 23225","Match","Exact","7621 YARMOUTH DR, NORTH CHESTERFIELD, VA, 23225",201533210,"L"
287602,"7622 ARBOR RIDGE DRIVE","NEWBURGH","IN",47630,37.9867795010001,-87.388579712,102,"7622 ARBOR RIDGE DRIVE, NEWBURGH, IN, 47630","Match","Exact","7622 ARBOR RIDGE DR, NEWBURGH, IN, 47630",32215821,"L"
287603,"7622 BIDWELL ROAD","JOELTON","TN",37080,36.347358743,-86.8952526689999,103,"7622 BIDWELL ROAD, JOELTON, TN, 37080","Match","Exact","7622 BIDWELL RD, JOELTON, TN, 37080",97177255,"R"
287604,"7622 BRAELANDS DR","SUMMERFIELD","NC",27358,36.1926844930001,-79.946371056,104,"7622 BRAELANDS DR, SUMMERFIELD, NC, 27358","Match","Exact","7622 BRAELANDS DR, SUMMERFIELD, NC, 27358",627531023,"L"
287605,"7622 DUNLAP CREEK RD","COVINGTON","VA",24426,37.7891605790001,-80.100939894,105,"7622 DUNLAP CREEK RD, COVINGTON, VA, 24426","Match","Exact","7622 DUNLAP CREEK RD, COVINGTON, VA, 24426",649994923,"L"
287606,"7622 GENTLE BEND DIVE","SAN ANTONIO","TX",78250,29.511130559,-98.6483027,106,"7622 GENTLE BEND DIVE, SAN ANTONIO, TX, 78250","Match","Non_Exact","7622 GENTLE BEND DR, SAN ANTONIO, TX, 78250",101705043,"R"
287607,"7622 HIGH RD","SIMS","NC",27880,35.7291533380001,-78.101093638,107,"7622 HIGH RD, SIMS, NC, 27880","Match","Exact","7622 HIGH RD, SIMS, NC, 27880",26716278,"L"
287608,"7622 HIGHWAY 25 E","CROSS PLAINS","TN",37049,NA,NA,108,"7622 HIGHWAY 25 E, CROSS PLAINS, TN, 37049","No_Match",NA,NA,NA,NA
287609,"7622 HIGHWAY 481","ENFIELD","NC",27823,36.205780636,-77.607091479,109,"7622 HIGHWAY 481, ENFIELD, NC, 27823","Match","Non_Exact","7622 STATE HWY 481, ENFIELD, NC, 27823",56719787,"L"
287610,"7622 NC HWY 481","ENFIELD","NC",27823,36.205780636,-77.607091479,110,"7622 NC HWY 481, ENFIELD, NC, 27823","Match","Non_Exact","7622 STATE HWY 481, ENFIELD, NC, 27823",56719787,"L"
287611,"7622 OVERTON STREET SE","OWENS CROSS ROADS","AL",35763,34.613873035,-86.4921975619999,111,"7622 OVERTON STREET SE, OWENS CROSS ROADS, AL, 35763","Match","Exact","7622 OVERTON ST SE, OWENS CROSS ROADS, AL, 35763",650668724,"R"
287612,"7622 PERCY AVENUE","BATON ROUGE","LA",70812,30.501156537,-91.111826311,112,"7622 PERCY AVENUE, BATON ROUGE, LA, 70812","Match","Exact","7622 PERCY AVE, BATON ROUGE, LA, 70812",92188850,"R"
287613,"7622 S AVALON BLVD","LOS ANGELES","CA",90003,33.9707373790001,-118.265144269,113,"7622 S AVALON BLVD, LOS ANGELES, CA, 90003","Match","Exact","7622 AVALON BLVD, LOS ANGELES, CA, 90003",141670880,"L"
287614,"7622 S VERNON ST","CHICAGO","IL",60620,NA,NA,114,"7622 S VERNON ST, CHICAGO, IL, 60620","No_Match",NA,NA,NA,NA
287615,"7622 W COMET AVE","PEORIA","AZ",85345,33.579098968,-112.222924861,115,"7622 W COMET AVE, PEORIA, AZ, 85345","Match","Exact","7622 W COMET AVE, PEORIA, AZ, 85345",243916782,"R"
287616,"76229 TIDEVIEW LANE","YULEE","FL",32097,30.610947138,-81.668382596,116,"76229 TIDEVIEW LANE, YULEE, FL, 32097","Match","Exact","76229 TIDEVIEW LN, YULEE, FL, 32097",610862206,"L"
287617,"7623 DYEWOOD","SAN ANTONIO","TX",78249,29.5556976880001,-98.636519015,117,"7623 DYEWOOD, SAN ANTONIO, TX, 78249","Match","Exact","7623 DYEWOOD, SAN ANTONIO, TX, 78249",101569936,"R"
287618,"7623 ENMAR DRIVE","LITTLE ROCK","AR",72209,34.681249957,-92.3492598779999,118,"7623 ENMAR DRIVE, LITTLE ROCK, AR, 72209","Match","Exact","7623 ENMAR DR, LITTLE ROCK, AR, 72209",83548063,"L"
287619,"7623 FLOWER BLUFF","SAN ANTONIO","TX",78240,29.538502438,-98.637156816,119,"7623 FLOWER BLUFF, SAN ANTONIO, TX, 78240","Match","Exact","7623 FLOWER BLUFF, SAN ANTONIO, TX, 78240",101569240,"R"
287620,"7623 KESTREL WAY W","DUBLIN","OH",43017,40.1238263130001,-83.154488455,120,"7623 KESTREL WAY W, DUBLIN, OH, 43017","Match","Exact","7623 KESTREL WAY W, DUBLIN, OH, 43017",135632650,"L"
287621,"7623 NICOLLET AVE","MINNEAPOLIS","MN",55423,44.865020266,-93.278245104,121,"7623 NICOLLET AVE, MINNEAPOLIS, MN, 55423","Match","Non_Exact","7623 NICOLLET AVE S, MINNEAPOLIS, MN, 55423",43593043,"L"
287622,"7623 NW 47TH WAY","GAINESVILLE","FL",32653,29.725013582,-82.393372136,122,"7623 NW 47TH WAY, GAINESVILLE, FL, 32653","Match","Exact","7623 NW 47TH WAY, GAINESVILLE, FL, 32653",6856738,"R"
287623,"7623 NW 60TH LANE","PARKLAND","FL",33067,26.325317861,-80.207480303,123,"7623 NW 60TH LANE, PARKLAND, FL, 33067","Match","Exact","7623 NW 60TH LN, PARKLAND, FL, 33067",114777248,"L"
287624,"7623 PHOENIX PEAK","LAS VEGAS","NV",89166,NA,NA,124,"7623 PHOENIX PEAK, LAS VEGAS, NV, 89166","No_Match",NA,NA,NA,NA
287625,"7623 SOUTH ROSEMARY CIRCLE","CENTENNIAL","CO",80112,39.5795873100001,-104.899033304,125,"7623 SOUTH ROSEMARY CIRCLE, CENTENNIAL, CO, 80112","Match","Exact","7623 S ROSEMARY CIR, CENTENNIAL, CO, 80112",177534900,"R"
287626,"7624 BUFORD DR","DALLAS","TX",75241,32.656063735,-96.813235122,126,"7624 BUFORD DR, DALLAS, TX, 75241","Match","Exact","7624 BUFORD DR, DALLAS, TX, 75241",619138315,"L"
287627,"7624 COACHLIGHT LANE","ELLICOTT CITY","MD",21043,39.1995173780001,-76.782670544,127,"7624 COACHLIGHT LANE, ELLICOTT CITY, MD, 21043","Match","Exact","7624 COACHLIGHT LN, ELLICOTT CITY, MD, 21043",158965480,"R"
287628,"7624 EAST HIGHWAY 60","SALT LICK","KY",40371,NA,NA,128,"7624 EAST HIGHWAY 60, SALT LICK, KY, 40371","No_Match",NA,NA,NA,NA
287629,"7624 EAST HIGHWAY 60","SALTLICK","KY",40371,NA,NA,129,"7624 EAST HIGHWAY 60, SALTLICK, KY, 40371","No_Match",NA,NA,NA,NA
287630,"7624 GREEN WILLOW CT","LANDOVER","MD",20785,NA,NA,130,"7624 GREEN WILLOW CT, LANDOVER, MD, 20785","No_Match",NA,NA,NA,NA
287631,"7624 LODGE POLE TRAIL","WINTER PARK","FL",32792,28.605991353,-81.284287862,131,"7624 LODGE POLE TRAIL, WINTER PARK, FL, 32792","Match","Exact","7624 LODGE POLE TRL, WINTER PARK, FL, 32792",94292613,"R"
287632,"7624 MISSION VALLEY DRIVE","SAINT LOUIS","MO",63123,38.5715573630001,-90.316774814,132,"7624 MISSION VALLEY DRIVE, SAINT LOUIS, MO, 63123","Match","Exact","7624 MISSION VALLEY DR, SAINT LOUIS, MO, 63123",100153716,"L"
287633,"7624 OYSTER COVE DR","LAS VEGAS","NV",89128,36.2143314250001,-115.261575705,133,"7624 OYSTER COVE DR, LAS VEGAS, NV, 89128","Match","Exact","7624 OYSTER COVE DR, LAS VEGAS, NV, 89128",201917129,"L"
287634,"7624 ST CHARLES AV","NEW ORLEANS","LA",70118,29.939996282,-90.130460403,134,"7624 ST CHARLES AV, NEW ORLEANS, LA, 70118","Match","Exact","7624 SAINT CHARLES AVE, NEW ORLEANS, LA, 70118",191734657,"L"
287635,"7624 US HWY 441 SE","OKEECHOBEE","FL",34974,27.1881231830001,-80.7467071579999,135,"7624 US HWY 441 SE, OKEECHOBEE, FL, 34974","Match","Non_Exact","7624 US HWY 441, OKEECHOBEE, FL, 34974",635581004,"L"
287636,"7624 WINONA AVE N","SEATTLE","WA",98103,47.6842307900001,-122.341099356,136,"7624 WINONA AVE N, SEATTLE, WA, 98103","Match","Exact","7624 WINONA AVE N, SEATTLE, WA, 98103",239761602,"R"
287637,"7625 132ND WAY","SEMINOLE","FL",33776,27.84252588,-82.822493187,137,"7625 132ND WAY, SEMINOLE, FL, 33776","Match","Exact","7625 132ND WAY, SEMINOLE, FL, 33776",124690120,"R"
287638,"7625 ALABAMA AVE","ST. LOUIS","MO",63111,38.550884743,-90.2640183139999,138,"7625 ALABAMA AVE, ST. LOUIS, MO, 63111","Match","Exact","7625 ALABAMA AVE, SAINT LOUIS, MO, 63111",107602986,"R"
287639,"7625 BROOKLYN","KANSAS CITY","MO",64132,38.9886670820001,-94.562378209,139,"7625 BROOKLYN, KANSAS CITY, MO, 64132","Match","Non_Exact","7625 BROOKLYN AVE, KANSAS CITY, MO, 64132",91456675,"L"
287640,"7625 CUMBERLAND CT","MOBILE","AL",36695,30.636235087,-88.220478568,140,"7625 CUMBERLAND CT, MOBILE, AL, 36695","Match","Exact","7625 CUMBERLAND CT, MOBILE, AL, 36695",61960647,"R"
287641,"7625 GREENLEAF ROAD","LANDOVER","MD",20785,38.920127247,-76.873973533,141,"7625 GREENLEAF ROAD, LANDOVER, MD, 20785","Match","Exact","7625 GREENLEAF RD, LANDOVER, MD, 20785",76309919,"R"
287642,"7625 HAMILTON PARK DRIVE STE 15","CHATTANOOGA","TN",37421,35.0587370530001,-85.134995611,142,"7625 HAMILTON PARK DRIVE STE 15, CHATTANOOGA, TN, 37421","Match","Exact","7625 HAMILTON PARK DR, CHATTANOOGA, TN, 37421",605435325,"R"
287643,"7625 MARTINDALE ROAD","TIPP CITY","OH",45371,39.9325967120001,-84.252260328,143,"7625 MARTINDALE ROAD, TIPP CITY, OH, 45371","Match","Exact","7625 MARTINDALE RD, TIPP CITY, OH, 45371",207643960,"L"
287644,"7625 N PALM AVE STE 106","FRESNO","CA",93711,36.8484927900001,-119.807248907,144,"7625 N PALM AVE STE 106, FRESNO, CA, 93711","Match","Non_Exact","7625 N PALM AVE, FRESNO, CA, 93711",642722924,"L"
287645,"7625 N SULTAN PLACE","TUCSON","AZ",85704,32.3443870780001,-111.006383893,145,"7625 N SULTAN PLACE, TUCSON, AZ, 85704","Match","Exact","7625 N SULTAN PL, TUCSON, AZ, 85704",121159815,"L"
287646,"7625 NE EARLWOOD ROAD","NEWBERG","OR",97132,45.271137454,-122.87378853,146,"7625 NE EARLWOOD ROAD, NEWBERG, OR, 97132","Match","Exact","7625 NE EARLWOOD RD, NEWBERG, OR, 97132",156501434,"R"
287647,"7625 NORTH AVE","LEMON GROVE","CA",91945,32.7445437040001,-117.033810038,147,"7625 NORTH AVE, LEMON GROVE, CA, 91945","Match","Exact","7625 NORTH AVE, LEMON GROVE, CA, 91945",195359288,"R"
287648,"7625 OAKFERN PLACE","BATON ROUGE","LA",70811,30.5527396640001,-91.112451037,148,"7625 OAKFERN PLACE, BATON ROUGE, LA, 70811","Match","Non_Exact","7625 OAK FERN PL, BATON ROUGE, LA, 70811",606173300,"L"
287649,"7625 OAKTREE","KECHI","KS",67067,NA,NA,149,"7625 OAKTREE, KECHI, KS, 67067","No_Match",NA,NA,NA,NA
287650,"7625 OLD RAILROAD RD","HARRISON","AR",72601,36.2538026770001,-93.2187302739999,150,"7625 OLD RAILROAD RD, HARRISON, AR, 72601","Match","Exact","7625 OLD RAILROAD RD, HARRISON, AR, 72601",19990901,"L"
287651,"7625 PORTERS RD","ESMONT","VA",22937,37.8215515470001,-78.597151724,151,"7625 PORTERS RD, ESMONT, VA, 22937","Match","Exact","7625 PORTERS RD, ESMONT, VA, 22937",83392733,"R"
287652,"7625 ROSECRANS AVENUE SUITE 1","PARAMOUNT","CA",90723,33.9036061240001,-118.167151322,152,"7625 ROSECRANS AVENUE SUITE 1, PARAMOUNT, CA, 90723","Match","Exact","7625 ROSECRANS AVE, PARAMOUNT, CA, 90723",241244941,"L"
287653,"7625 VESTAL BLVD APT 13","NORTH LITTLE ROCK","AR",72113,34.8255579190001,-92.367850714,153,"7625 VESTAL BLVD APT 13, NORTH LITTLE ROCK, AR, 72113","Match","Non_Exact","7625 VESTAL CT, N LITTLE ROCK, AR, 72113",83570780,"L"
287654,"7625 W SAND LAKE RD STE 204","ORLANDO","FL",32819,28.4499665930001,-81.4856777809999,154,"7625 W SAND LAKE RD STE 204, ORLANDO, FL, 32819","Match","Non_Exact","7625 W SAND LAKE RD, ORLANDO, FL, 32819",611452346,"R"
287655,"7625 W VON DETTE CIR","CENTERVILLE","OH",45459,39.635871642,-84.1253272179999,155,"7625 W VON DETTE CIR, CENTERVILLE, OH, 45459","Match","Exact","7625 W VON DETTE CIR, CENTERVILLE, OH, 45459",143584515,"R"
287656,"7625 WISCONSIN AVE SUITE 300","BETHESDA","MD",20814,38.9862109810001,-77.0945478369999,156,"7625 WISCONSIN AVE SUITE 300, BETHESDA, MD, 20814","Match","Exact","7625 WISCONSIN AVE, BETHESDA, MD, 20814",62065853,"R"
287657,"7625 WISCONSIN AVENUE","BETHESDA","MD",20814,38.9862109810001,-77.0945478369999,157,"7625 WISCONSIN AVENUE, BETHESDA, MD, 20814","Match","Exact","7625 WISCONSIN AVE, BETHESDA, MD, 20814",62065853,"R"
287658,"7626 FM 1960 W","HUMBLE","TX",77338,NA,NA,158,"7626 FM 1960 W, HUMBLE, TX, 77338","No_Match",NA,NA,NA,NA
287659,"7626 GRETNA AVE","WHITTIER","CA",90606,33.974045103,-118.062033088,159,"7626 GRETNA AVE, WHITTIER, CA, 90606","Match","Exact","7626 GRETNA AVE, WHITTIER, CA, 90606",141747039,"L"
287660,"7626 N LINKS WAY","FOX POINT","WI",53217,43.1553819150001,-87.898305685,160,"7626 N LINKS WAY, FOX POINT, WI, 53217","Match","Exact","7626 N LINKS WAY, FOX POINT, WI, 53217",77736882,"R"
287661,"7626 OLD TRACK LANE","MECHANICSVILLE","VA",23111,37.611003456,-77.3045087099999,161,"7626 OLD TRACK LANE, MECHANICSVILLE, VA, 23111","Match","Exact","7626 OLD TRACK LN, MECHANICSVILLE, VA, 23111",84976393,"L"
287662,"7626 PROSPECT AVE","WARREN","MI",48091,42.453197403,-83.028010932,162,"7626 PROSPECT AVE, WARREN, MI, 48091","Match","Exact","7626 PROSPECT AVE, WARREN, MI, 48091",652795727,"R"
287663,"7626 SE 29TH ST","SEATTLE","WA",98040,47.5843393110001,-122.237312429,163,"7626 SE 29TH ST, SEATTLE, WA, 98040","Match","Non_Exact","7626 SE 29TH ST, MERCER ISLAND, WA, 98040",629674833,"R"
287664,"7626 SOLIMAR CIR","BOCA RATON","FL",33433,26.356674282,-80.16312677,164,"7626 SOLIMAR CIR, BOCA RATON, FL, 33433","Match","Exact","7626 SOLIMAR CIR, BOCA RATON, FL, 33433",648403697,"R"
287665,"7627 ACEE LN","WHITESBORO","NY",13492,43.0948370680001,-75.382197354,165,"7627 ACEE LN, WHITESBORO, NY, 13492","Match","Non_Exact","7627 ACEE RD, WHITESBORO, NY, 13492",171524746,"L"
287666,"7627 CIRCULO SEQUOIA","CARLSBAD","CA",92009,33.0770662400001,-117.224692763,166,"7627 CIRCULO SEQUOIA, CARLSBAD, CA, 92009","Match","Exact","7627 CIR SEQUOIA, CARLSBAD, CA, 92009",195767834,"L"
287667,"7627 E MESQUITE OVERLOOK DR","TUCSON","AZ",85710,32.208898344,-110.829661125,167,"7627 E MESQUITE OVERLOOK DR, TUCSON, AZ, 85710","Match","Exact","7627 E MESQUITE OVERLOOK DR, TUCSON, AZ, 85710",623817075,"R"
287668,"7627 ELMWOOD AVENUE","PHILADELPHIA","PA",19153,39.909562254,-75.248295927,168,"7627 ELMWOOD AVENUE, PHILADELPHIA, PA, 19153","Match","Exact","7627 ELMWOOD AVE, PHILADELPHIA, PA, 19153",131408724,"R"
287669,"7627 LAUREL CANYON BLVD 208","NORTH HOLLYWOOD","CA",91605,34.209021712,-118.396521256,169,"7627 LAUREL CANYON BLVD 208, NORTH HOLLYWOOD, CA, 91605","Match","Exact","7627 LAUREL CANYON BLVD, N HOLLYWOOD, CA, 91605",141553060,"L"
287670,"7627 PAR AVE N","ST PETERSBURG","FL",33710,27.7853765180001,-82.7440432779999,170,"7627 PAR AVE N, ST PETERSBURG, FL, 33710","Match","Exact","7627 PAR AVE N, SAINT PETERSBURG, FL, 33710",124693932,"R"
287671,"7627 ROCKFALLS DRIVE","RICHMOND","VA",23225,37.553881828,-77.5291317159999,171,"7627 ROCKFALLS DRIVE, RICHMOND, VA, 23225","Match","Exact","7627 ROCKFALLS DR, RICHMOND, VA, 23225",201532445,"L"
287672,"7627 SHIRE TRAIL CT","HUMBLE","TX",77338,30.014933225,-95.3092331999999,172,"7627 SHIRE TRAIL CT, HUMBLE, TX, 77338","Match","Exact","7627 SHIRE TRAIL CT, HUMBLE, TX, 77338",624798593,"L"
287673,"7627","HOUSTON","TX",77041,NA,NA,173,"7627, HOUSTON, TX, 77041","No_Match",NA,NA,NA,NA
287674,"76272 ROBINSON ROAD","FOLSOM","LA",70437,30.5412903490001,-90.201854077,174,"76272 ROBINSON ROAD, FOLSOM, LA, 70437","Match","Exact","76272 ROBINSON RD, FOLSOM, LA, 70437",111298652,"R"
287675,"7628 CASA VERDE STREET","MIDVALE","UT",84047,40.6127142080001,-111.866868251,175,"7628 CASA VERDE STREET, MIDVALE, UT, 84047","Match","Exact","7628 CASA VERDE ST, MIDVALE, UT, 84047",176087632,"R"
287676,"7628 GREENFIELD AVE","MOUNDS VIEW","MN",55112,45.106685756,-93.2025923259999,176,"7628 GREENFIELD AVE, MOUNDS VIEW, MN, 55112","Match","Exact","7628 GREENFIELD AVE, MOUNDS VIEW, MN, 55112",97633463,"L"
287677,"7628 HAYFIELD RD","ALEXANDRIA","VA",22315,38.7498652210001,-77.136944805,177,"7628 HAYFIELD RD, ALEXANDRIA, VA, 22315","Match","Exact","7628 HAYFIELD RD, ALEXANDRIA, VA, 22315",615664570,"R"
287678,"7628 S MORGAN STR","CHICAGO","IL",60620,41.7554415120001,-87.64902492,178,"7628 S MORGAN STR, CHICAGO, IL, 60620","Match","Exact","7628 S MORGAN ST, CHICAGO, IL, 60620",111830984,"R"
287679,"7628 TAZEWELL PIKE","CORRYTON","TN",37721,36.1250221720001,-83.853199011,179,"7628 TAZEWELL PIKE, CORRYTON, TN, 37721","Match","Exact","7628 TAZEWELL PIKE, CORRYTON, TN, 37721",604669303,"R"
287680,"7628 THE COMMONS","ZIONSVILLE","IN",46077,39.95586446,-86.327849306,180,"7628 THE COMMONS, ZIONSVILLE, IN, 46077","Match","Exact","7628 THE COMMONS, ZIONSVILLE, IN, 46077",610973933,"L"
287681,"7628 W  COURTLAND AVENUE","MILWAUKEE","WI",53218,43.103040542,-88.007362563,181,"7628 W  COURTLAND AVENUE, MILWAUKEE, WI, 53218","Match","Exact","7628 W COURTLAND AVE, MILWAUKEE, WI, 53218",77730162,"R"
287682,"7629 BRADFORD ST","PHILADELPHIA","PA",19152,40.0520995250001,-75.0538029849999,182,"7629 BRADFORD ST, PHILADELPHIA, PA, 19152","Match","Exact","7629 BRADFORD ST, PHILADELPHIA, PA, 19152",131431814,"R"
287683,"7629 HAYFIELD ROAD","ALEXANDRIA","VA",22315,38.749848489,-77.136918943,183,"7629 HAYFIELD ROAD, ALEXANDRIA, VA, 22315","Match","Exact","7629 HAYFIELD RD, ALEXANDRIA, VA, 22315",615664570,"L"
287684,"7629 JOHNNYCAKE ROAD","WINDSOR MILL","MD",21244,39.3153212060001,-76.774285989,184,"7629 JOHNNYCAKE ROAD, WINDSOR MILL, MD, 21244","Match","Exact","7629 JOHNNYCAKE RD, WINDSOR MILL, MD, 21244",645108558,"L"
287685,"7629 LONG PINE DRIVE","SPRINGFIELD","VA",22151,38.794953037,-77.20901228,185,"7629 LONG PINE DRIVE, SPRINGFIELD, VA, 22151","Match","Exact","7629 LONG PINE DR, SPRINGFIELD, VA, 22151",75976326,"L"
287686,"7629 SOUTH HALL","HOUSTON","TX",77028,29.8358218020001,-95.290230086,186,"7629 SOUTH HALL, HOUSTON, TX, 77028","Match","Non_Exact","7629 S HALL ST, HOUSTON, TX, 77028",96147555,"L"
287687,"763 BARLOW ROAD","HUDSON","OH",44236,41.2194908440001,-81.465070204,187,"763 BARLOW ROAD, HUDSON, OH, 44236","Match","Exact","763 BARLOW RD, HUDSON, OH, 44236",624062006,"L"
287688,"763 BITTERRROOT","POCATELLO","ID",83201,42.8748843490001,-112.416609362,188,"763 BITTERRROOT, POCATELLO, ID, 83201","Match","Non_Exact","763 BITTERROOT DR, POCATELLO, ID, 83201",204352928,"R"
287689,"763 CAPP STREET","SAN FRANCISCO","CA",94118,37.7545280590001,-122.417555868,189,"763 CAPP STREET, SAN FRANCISCO, CA, 94118","Match","Non_Exact","763 CAPP ST, SAN FRANCISCO, CA, 94110",192288311,"L"
287690,"763 COUNTY ROAD 414","KILLEN","AL",35645,34.830239895,-87.402432434,190,"763 COUNTY ROAD 414, KILLEN, AL, 35645","Match","Exact","763 CO RD 414, KILLEN, AL, 35645",41317376,"R"
287691,"763 E 7TH STREET","DELTA","CO",81416,38.737688733,-108.061570194,191,"763 E 7TH STREET, DELTA, CO, 81416","Match","Exact","763 E 7TH ST, DELTA, CO, 81416",122387206,"R"
287692,"763 E 93RD DRIVE APT D","INDIANAPOLIS","IN",46240,39.9231763600001,-86.143336518,192,"763 E 93RD DRIVE APT D, INDIANAPOLIS, IN, 46240","Match","Non_Exact","763 93RD DR E, INDIANAPOLIS, IN, 46240",108057391,"R"
287693,"763 HARBORTOWN BLVD","PERTH AMBOY","NJ",8861,40.519793738,-74.259885326,193,"763 HARBORTOWN BLVD, PERTH AMBOY, NJ, 8861","Match","Exact","763 HARBORTOWN BLVD, PERTH AMBOY, NJ, 08861",649711916,"R"
287694,"763 HOLBROOK PLACE","SUNNYVALE","CA",94087,37.3625281700001,-122.045528636,194,"763 HOLBROOK PLACE, SUNNYVALE, CA, 94087","Match","Exact","763 HOLBROOK PL, SUNNYVALE, CA, 94087",122937263,"R"
287695,"763 HOYT ST SW","WARREN","OH",44485,41.226766551,-80.8283065099999,195,"763 HOYT ST SW, WARREN, OH, 44485","Match","Exact","763 HOYT ST SW, WARREN, OH, 44485",117413761,"L"
287696,"763 J CLYDE MORRIS BOULEVARD-1A","NEWPORT NEWS","VA",23601,37.0801332840001,-76.46134612,196,"763 J CLYDE MORRIS BOULEVARD-1A, NEWPORT NEWS, VA, 23601","Match","Non_Exact","763 J CLYDE MORRIS BLVD, NEWPORT NEWS, VA, 23601",103753210,"L"
287697,"763 LAKE RIDGE LANE","PENSACOLA","FL",32514,30.52186319,-87.245872709,197,"763 LAKE RIDGE LANE, PENSACOLA, FL, 32514","Match","Exact","763 LAKE RIDGE LN, PENSACOLA, FL, 32514",617456355,"R"
287698,"763 LANRECO BLVD","LANCASTER","OH",43130,39.7183197160001,-82.575038333,198,"763 LANRECO BLVD, LANCASTER, OH, 43130","Match","Exact","763 LANRECO BLVD, LANCASTER, OH, 43130",37222479,"L"
287699,"763 LASHLEY STREET","LONGMONT","CO",80504,40.1721704180001,-105.088297212,199,"763 LASHLEY STREET, LONGMONT, CO, 80504","Match","Exact","763 LASHLEY ST, LONGMONT, CO, 80504",188156868,"L"
287700,"763 LEA DRIVE","HAMPSTEAD","NC",28443,34.3619391820001,-77.692007998,200,"763 LEA DRIVE, HAMPSTEAD, NC, 28443","Match","Exact","763 LEA DR, HAMPSTEAD, NC, 28443",14140640,"R"
287701,"763 LYONS HILL RD","HOMER","LA",71040,32.7801040730001,-93.0567225729999,201,"763 LYONS HILL RD, HOMER, LA, 71040","Match","Exact","763 LYONS HILL RD, HOMER, LA, 71040",605886293,"L"
287702,"763 MANCILL RD","WAYNE","PA",19087,40.0686594310001,-75.400460344,202,"763 MANCILL RD, WAYNE, PA, 19087","Match","Exact","763 MANCILL RD, WAYNE, PA, 19087",179513323,"R"
287703,"763 NORTH CARTER DR","JONESBORO","GA",30236,33.5511894840001,-84.366233885,203,"763 NORTH CARTER DR, JONESBORO, GA, 30236","Match","Exact","763 N CARTER DR, JONESBORO, GA, 30236",23316390,"R"
287704,"763 NORTH CLINTON AVENUE","TRENTON","NJ",8638,40.2333735180001,-74.740641845,204,"763 NORTH CLINTON AVENUE, TRENTON, NJ, 8638","Match","Exact","763 N CLINTON AVE, TRENTON, NJ, 08638",60225987,"L"
287705,"763 OVERLOOK TERRACE","EFFORT","PA",18330,NA,NA,205,"763 OVERLOOK TERRACE, EFFORT, PA, 18330","No_Match",NA,NA,NA,NA
287706,"763 PEEL ROAD","SHIRLEY","AR",72153,35.617358073,-92.3794648319999,206,"763 PEEL ROAD, SHIRLEY, AR, 72153","Match","Exact","763 PEEL RD, SHIRLEY, AR, 72153",43403328,"R"
287707,"763 PORTAGE ROAD","NIAGARA FALLS","NY",14301,43.0962967520001,-79.0497458849999,207,"763 PORTAGE ROAD, NIAGARA FALLS, NY, 14301","Match","Exact","763 PORTAGE RD, NIAGARA FALLS, NY, 14301",48699612,"R"
287708,"763 RIESLING STREET","HEMET","CA",92545,33.759682599,-117.011838865,208,"763 RIESLING STREET, HEMET, CA, 92545","Match","Exact","763 RIESLING ST, HEMET, CA, 92545",609002741,"L"
287709,"763 S 2ND STREET","CHAMBERSBURG","PA",17201,39.9258955540001,-77.661670162,209,"763 S 2ND STREET, CHAMBERSBURG, PA, 17201","Match","Exact","763 S 2ND ST, CHAMBERSBURG, PA, 17201",60083711,"R"
287710,"763 S NEW BALLAS ROAD STE 300","ST LOUIS","MO",63141,38.669340049,-90.438551731,210,"763 S NEW BALLAS ROAD STE 300, ST LOUIS, MO, 63141","Match","Non_Exact","763 OLD BALLAS RD, SAINT LOUIS, MO, 63141",100124995,"L"
287711,"763 SEDONA PINES DR","BATON ROUGE","LA",70816,30.4586738680001,-91.009471694,211,"763 SEDONA PINES DR, BATON ROUGE, LA, 70816","Match","Exact","763 SEDONA PINES DR, BATON ROUGE, LA, 70816",646663082,"L"
287712,"763 SEMINOLE CT","CROWN POINT","IN",46307,41.4035042300001,-87.344345991,212,"763 SEMINOLE CT, CROWN POINT, IN, 46307","Match","Exact","763 SEMINOLE CT, CROWN POINT, IN, 46307",98442669,"L"
287713,"763 SOUTH 12TH STREET","PHILADELPHIA","PA",19147,39.9408044800001,-75.162288933,213,"763 SOUTH 12TH STREET, PHILADELPHIA, PA, 19147","Match","Exact","763 S 12TH ST, PHILADELPHIA, PA, 19147",623871876,"L"
287714,"763 VALLEY CIRCLE DR APT 105","SALINE","MI",48176,42.1590603660001,-83.7924062499999,214,"763 VALLEY CIRCLE DR APT 105, SALINE, MI, 48176","Match","Exact","763 VALLEY CIRCLE DR, SALINE, MI, 48176",26042906,"L"
287715,"763 WEST BLVD","CHIPLEY","FL",32428,30.772557496,-85.5512069009999,215,"763 WEST BLVD, CHIPLEY, FL, 32428","Match","Exact","763 WEST BLVD, CHIPLEY, FL, 32428",33067208,"R"
287716,"763 WHITEHALL PKWY","MONTGOMERY","AL",36109,32.3947368570001,-86.256862567,216,"763 WHITEHALL PKWY, MONTGOMERY, AL, 36109","Match","Exact","763 WHITEHALL PKWY, MONTGOMERY, AL, 36109",1547501,"R"
287717,"7630 BELBAY ST","HOUSTON","TX",77033,29.6708109300001,-95.3238418,217,"7630 BELBAY ST, HOUSTON, TX, 77033","Match","Exact","7630 BELBAY ST, HOUSTON, TX, 77033",96091055,"R"
287718,"7630 LIPPINCOTT WAY","INDIANAPOLIS","IN",46268,39.892462016,-86.222867304,218,"7630 LIPPINCOTT WAY, INDIANAPOLIS, IN, 46268","Match","Exact","7630 LIPPINCOTT WAY, INDIANAPOLIS, IN, 46268",108025306,"R"
287719,"7630 LITTLE RIVER TURNPIKE STE 306","ANNANDALE","VA",22003,38.832736116,-77.2096498129999,219,"7630 LITTLE RIVER TURNPIKE STE 306, ANNANDALE, VA, 22003","Match","Exact","7630 LITTLE RIVER TPKE, ANNANDALE, VA, 22003",638089639,"R"
287720,"7630 LORAIN AVENUE","CLEVELAND","OH",44102,41.4725574390001,-81.736469439,220,"7630 LORAIN AVENUE, CLEVELAND, OH, 44102","Match","Exact","7630 LORAIN AVE, CLEVELAND, OH, 44102",61101294,"R"
287721,"7630 N WICKHAM RD SUITE 105","VIERA","FL",32940,28.2305899630001,-80.6949918729999,221,"7630 N WICKHAM RD SUITE 105, VIERA, FL, 32940","Match","Non_Exact","7630 N WICKHAM RD, VIERA, FL, 32940",611445569,"R"
287722,"7630 PARKWOOD WAY","SAN ANTONIO","TX",78249,29.544916517,-98.637463645,222,"7630 PARKWOOD WAY, SAN ANTONIO, TX, 78249","Match","Exact","7630 PARKWOOD WAY, SAN ANTONIO, TX, 78249",101735489,"R"
287723,"7630 S THOMPSON AVE","TACOMA","WA",98408,47.187903512,-122.444506885,223,"7630 S THOMPSON AVE, TACOMA, WA, 98408","Match","Exact","7630 S THOMPSON AVE, TACOMA, WA, 98408",184628521,"R"
287724,"7630 SOUTH HALL STREET","HOUSTON","TX",77028,29.835810865,-95.290225962,224,"7630 SOUTH HALL STREET, HOUSTON, TX, 77028","Match","Exact","7630 S HALL ST, HOUSTON, TX, 77028",96147555,"R"
287725,"7630 TIGER LILY CT","VERONA","WI",53593,43.0668910410001,-89.579455727,225,"7630 TIGER LILY CT, VERONA, WI, 53593","Match","Exact","7630 TIGER LILY CT, VERONA, WI, 53593",641679640,"L"
287726,"7630 WOODBINE AVENUE","PHILADELPHIA","PA",19151,39.974341516,-75.26824339,226,"7630 WOODBINE AVENUE, PHILADELPHIA, PA, 19151","Match","Exact","7630 WOODBINE AVE, PHILADELPHIA, PA, 19151",131393042,"L"
287727,"7631 ADDISEN COURT","INVER GROVE HEIGHTS","MN",55077,44.838299911,-93.0884627409999,227,"7631 ADDISEN COURT, INVER GROVE HEIGHTS, MN, 55077","Match","Exact","7631 ADDISEN CT, INVER GROVE HEIGHTS, MN, 55077",642974182,"R"
287728,"7631 CINEBAR DR","BOCA RATON","FL",33433,26.3338174940001,-80.163573523,228,"7631 CINEBAR DR, BOCA RATON, FL, 33433","Match","Exact","7631 CINEBAR DR, BOCA RATON, FL, 33433",640993113,"L"
287729,"7631 MAPLE ST","DEARBORN","MI",48126,42.3481950450001,-83.1794939,229,"7631 MAPLE ST, DEARBORN, MI, 48126","Match","Exact","7631 MAPLE ST, DEARBORN, MI, 48126",95442292,"L"
287730,"7631 SAUSALITO AVENUE","WEST HILLS","CA",91304,34.209695965,-118.615699241,230,"7631 SAUSALITO AVENUE, WEST HILLS, CA, 91304","Match","Exact","7631 SAUSALITO AVE, WEST HILLS, CA, 91304",141532725,"L"
287731,"7631 SE RAYMOND ST","PORTLAND","OR",97206,45.4865587140001,-122.584917493,231,"7631 SE RAYMOND ST, PORTLAND, OR, 97206","Match","Exact","7631 SE RAYMOND ST, PORTLAND, OR, 97206",638569502,"L"
287732,"7631 TIMBERWOOD DR","JACKSONVILLE","FL",32256,30.1713641440001,-81.5402995709999,232,"7631 TIMBERWOOD DR, JACKSONVILLE, FL, 32256","Match","Exact","7631 TIMBERWOOD DR, JACKSONVILLE, FL, 32256",83958390,"L"
287733,"7632 10TH STREET","BUENA PARK","CA",90621,33.8635039860001,-118.000383973,233,"7632 10TH STREET, BUENA PARK, CA, 90621","Match","Exact","7632 10TH ST, BUENA PARK, CA, 90621",609052136,"R"
287734,"7632 ADORNMENT COURT","LAS VEGAS","NV",89131,36.2991946130001,-115.26121921,234,"7632 ADORNMENT COURT, LAS VEGAS, NV, 89131","Match","Exact","7632 ADORNMENT CT, LAS VEGAS, NV, 89131",201950887,"R"
287735,"7632 APACHE TRAIL","TEMPERANCE","MI",48182,41.754768384,-83.574340937,235,"7632 APACHE TRAIL, TEMPERANCE, MI, 48182","Match","Exact","7632 APACHE TRL, TEMPERANCE, MI, 48182",40484204,"R"
287736,"7632 LOCKE ROAD","VACAVILLE","CA",95688,38.4343154050001,-121.948155085,236,"7632 LOCKE ROAD, VACAVILLE, CA, 95688","Match","Exact","7632 LOCKE RD, VACAVILLE, CA, 95688",192609746,"R"
287737,"7632 S E TAYLOR ST","PORTLAND","OR",97215,45.515237685,-122.58482665,237,"7632 S E TAYLOR ST, PORTLAND, OR, 97215","Match","Exact","7632 SE TAYLOR ST, PORTLAND, OR, 97215",157516473,"R"
287738,"7632 STIRLING BRIDGE BLVD N","DELRAY BEACH","FL",33446,26.4682320110001,-80.1692585339999,238,"7632 STIRLING BRIDGE BLVD N, DELRAY BEACH, FL, 33446","Match","Exact","7632 STIRLING BRIDGE BLVD N, DELRAY BEACH, FL, 33446",115482324,"R"
287739,"7632 TOPANGA CANYON BLVD APT 214","CANOGA PARK","CA",91304,34.209052683,-118.605865784,239,"7632 TOPANGA CANYON BLVD APT 214, CANOGA PARK, CA, 91304","Match","Exact","7632 TOPANGA CANYON BLVD, CANOGA PARK, CA, 91304",141533180,"R"
287740,"7632 TURTLE CREEK DR","DAYTON","OH",45414,39.860737994,-84.214624831,240,"7632 TURTLE CREEK DR, DAYTON, OH, 45414","Match","Exact","7632 TURTLE CREEK DR, DAYTON, OH, 45414",143564025,"R"
287741,"7632 WESTON COURT","NEW PORT RICHEY","FL",34654,28.267812695,-82.627596035,241,"7632 WESTON COURT, NEW PORT RICHEY, FL, 34654","Match","Exact","7632 WESTON CT, NEW PORT RICHEY, FL, 34654",86397078,"R"
287742,"7633 COUNTY ROAD 100","HESPERUS","CO",81326,37.1119856440001,-108.17874663,242,"7633 COUNTY ROAD 100, HESPERUS, CO, 81326","Match","Exact","7633 CO RD 100, HESPERUS, CO, 81326",91729269,"L"
287743,"7633 E 63RD PLACE SUITE 300","TULS","OK",74133,36.071811773,-95.892219967,243,"7633 E 63RD PLACE SUITE 300, TULS, OK, 74133","Match","Non_Exact","7633 E 63RD PL, TULSA, OK, 74133",166454705,"L"
287744,"7633 HULL STREET ROAD SUITE 203","CHESTERFIELD","VA",23235,37.4679814740001,-77.532970484,244,"7633 HULL STREET ROAD SUITE 203, CHESTERFIELD, VA, 23235","Match","Non_Exact","7633 HULL STREET RD, NORTH CHESTERFIELD, VA, 23235",223170340,"L"
287745,"7633 PICKERING AVE","WHITTIER","CA",90602,33.9730113470001,-118.042045641,245,"7633 PICKERING AVE, WHITTIER, CA, 90602","Match","Exact","7633 PICKERING AVE, WHITTIER, CA, 90602",141747856,"R"
287746,"7633 S KINGSTON AVENUE","CHICAGO","IL",60649,41.75656673,-87.5626784999999,246,"7633 S KINGSTON AVENUE, CHICAGO, IL, 60649","Match","Exact","7633 S KINGSTON AVE, CHICAGO, IL, 60649",111775802,"L"
287747,"7633 TORTOLA BAY LN","LAS VEGAS","NV",89128,36.211587416,-115.261866907,247,"7633 TORTOLA BAY LN, LAS VEGAS, NV, 89128","Match","Exact","7633 TORTOLA BAY LN, LAS VEGAS, NV, 89128",201917175,"R"
287748,"7633 VESTAL BLVD APARTMENT 22","MAUMELLE","AR",72113,34.825769445,-92.367772501,248,"7633 VESTAL BLVD APARTMENT 22, MAUMELLE, AR, 72113","Match","Non_Exact","7633 VESTAL CT, MAUMELLE, AR, 72113",83570780,"L"
287749,"7633 WYOMING AVENUE","DEARBORN","MI",48216,NA,NA,249,"7633 WYOMING AVENUE, DEARBORN, MI, 48216","No_Match",NA,NA,NA,NA
287750,"7634 CAMDEN CUTOFF","PINEBLUFF","AR",71603,34.1443562010001,-92.13015315,250,"7634 CAMDEN CUTOFF, PINEBLUFF, AR, 71603","Match","Non_Exact","7634 CAMDEN CUTOFF, PINE BLUFF, AR, 71603",2558795,"L"
287751,"7634 HILLSIDE ST","OAKLAND","CA",94605,37.7663678770001,-122.171454082,251,"7634 HILLSIDE ST, OAKLAND, CA, 94605","Match","Exact","7634 HILLSIDE ST, OAKLAND, CA, 94605",125008967,"L"
287752,"7634 RESEDA BLVD APT 15","RESEDA","CA",91335,34.2090628400001,-118.536051841,252,"7634 RESEDA BLVD APT 15, RESEDA, CA, 91335","Match","Exact","7634 RESEDA BLVD, RESEDA, CA, 91335",141541681,"R"
287753,"7634 S CORNELL AVE APT 1","CHICAGO","IL",60649,41.756274541,-87.5845284819999,253,"7634 S CORNELL AVE APT 1, CHICAGO, IL, 60649","Match","Non_Exact","7634 S CORNELL AVE, CHICAGO, IL, 60649",111774720,"R"
287754,"7634 WOODROW WILSON DR","LOS ANGELES","CA",90046,34.1224864700001,-118.362651663,254,"7634 WOODROW WILSON DR, LOS ANGELES, CA, 90046","Match","Exact","7634 WOODROW WILSON DR, LOS ANGELES, CA, 90046",642870013,"L"
287755,"76346 WILLIAM BURGESS ROAD","YULEE","FL",32097,30.611032578,-81.6239806149999,255,"76346 WILLIAM BURGESS ROAD, YULEE, FL, 32097","Match","Exact","76346 WILLIAM BURGESS RD, YULEE, FL, 32097",84112034,"R"
287756,"7635 148TH ST W SUITE 262","APPLE VALLEY","MN",55124,44.7337379430001,-93.2209365429999,256,"7635 148TH ST W SUITE 262, APPLE VALLEY, MN, 55124","Match","Exact","7635 148TH ST W, APPLE VALLEY, MN, 55124",642429863,"L"
287757,"7635 FAYETTE STREET","PHILADELPHIA","PA",19150,40.0700809470001,-75.1609992099999,257,"7635 FAYETTE STREET, PHILADELPHIA, PA, 19150","Match","Exact","7635 FAYETTE ST, PHILADELPHIA, PA, 19150",131395133,"R"
287758,"7635 HANGAR LOOP DRIVE BLDG 56","MACDILL AFB","FL",33621,27.8541786810001,-82.492400569,258,"7635 HANGAR LOOP DRIVE BLDG 56, MACDILL AFB, FL, 33621","Match","Non_Exact","7635 HANGER LOOP DR, MACDILL AFB, FL, 33608",104583659,"R"
287759,"7635 OAK GARDEN TRAIL","DALLAS","TX",75232,32.656049776,-96.8497040829999,259,"7635 OAK GARDEN TRAIL, DALLAS, TX, 75232","Match","Exact","7635 OAK GARDEN TRL, DALLAS, TX, 75232",102952739,"R"
287760,"7635 TIMBERLIN PARK BLVD APT 1117","JACKSONVILLE","FL",32256,30.197267395,-81.547662249,260,"7635 TIMBERLIN PARK BLVD APT 1117, JACKSONVILLE, FL, 32256","Match","Exact","7635 TIMBERLIN PARK BLVD, JACKSONVILLE, FL, 32256",647403553,"R"
287761,"7635 TOWNSHIP HIGHWAY 104","UPPER SANDUSKY","OH",43351,40.881135799,-83.3426338629999,261,"7635 TOWNSHIP HIGHWAY 104, UPPER SANDUSKY, OH, 43351","Match","Exact","7635 TWP HWY 104, UPPER SANDUSKY, OH, 43351",13044116,"R"
287762,"7635 W BLUEMOUND ROAD","MILWAUKEE","WI",53213,43.035164487,-88.007801354,262,"7635 W BLUEMOUND ROAD, MILWAUKEE, WI, 53213","Match","Exact","7635 W BLUEMOUND RD, MILWAUKEE, WI, 53213",639918375,"L"
287763,"7635 WARSAW ROAD APT 101","NORTH CHARLESTON","SC",29418,32.9043980270001,-80.080925637,263,"7635 WARSAW ROAD APT 101, NORTH CHARLESTON, SC, 29418","Match","Exact","7635 WARSAW RD, N CHARLESTON, SC, 29418",605890897,"R"
287764,"7636 ANGELINE DR","NEW HOPE","MN",55428,45.048181594,-93.3775159149999,264,"7636 ANGELINE DR, NEW HOPE, MN, 55428","Match","Exact","7636 ANGELINE DR, NEW HOPE, MN, 55428",43830549,"R"
287765,"7636 APPLE HILL CT SE","ADA","MI",49301,42.9003064290001,-85.4784850789999,265,"7636 APPLE HILL CT SE, ADA, MI, 49301","Match","Exact","7636 APPLE HILL CT SE, ADA, MI, 49301",12441420,"L"
287766,"7636 COUNTY ROAD 308","GRANDVIEW","TX",76050,32.3206512940001,-97.252092461,266,"7636 COUNTY ROAD 308, GRANDVIEW, TX, 76050","Match","Exact","7636 CO RD 308, GRANDVIEW, TX, 76050",103552840,"R"
287767,"7636 FRANKFORT ST","NAVARRE","FL",32566,30.413158546,-86.904067359,267,"7636 FRANKFORT ST, NAVARRE, FL, 32566","Match","Exact","7636 FRANKFORT ST, NAVARRE, FL, 32566",74573533,"L"
287768,"7636 S MARQUETTE AVE","CHICAG","IL",60649,41.7561515240001,-87.5585369789999,268,"7636 S MARQUETTE AVE, CHICAG, IL, 60649","Match","Non_Exact","7636 S MARQUETTE AVE, CHICAGO, IL, 60649",605556755,"R"
287769,"7637 ARNOLD RD","IRA TOWNSHIP","MI",48023,42.7097250370001,-82.616611655,269,"7637 ARNOLD RD, IRA TOWNSHIP, MI, 48023","Match","Non_Exact","7637 ARNOLD RD, IRA, MI, 48023",110988082,"R"
287770,"7637 E OLIVE ANN LN","YUMA","AZ",85365,32.6836244,-114.501123263,270,"7637 E OLIVE ANN LN, YUMA, AZ, 85365","Match","Exact","7637 E OLIVE ANN LN, YUMA, AZ, 85365",129647622,"L"
287771,"7637 ORLAND PARK","SAN ANTONIO","TX",78213,29.504355409,-98.517939488,271,"7637 ORLAND PARK, SAN ANTONIO, TX, 78213","Match","Exact","7637 ORLAND PARK, SAN ANTONIO, TX, 78213",101494471,"L"
287772,"7637 RAMBLE RIDGE","SAN ANTONIO","TX",78266,29.711811277,-98.337971653,272,"7637 RAMBLE RIDGE, SAN ANTONIO, TX, 78266","Match","Exact","7637 RAMBLE RIDGE, SAN ANTONIO, TX, 78266",641470070,"L"
287773,"7637 S MICHIGAN AVE","CHICAGO","IL",60619,41.755752412,-87.621476007,273,"7637 S MICHIGAN AVE, CHICAGO, IL, 60619","Match","Exact","7637 S MICHIGAN AVE, CHICAGO, IL, 60619",111772333,"L"
287774,"7637 SW 49TH PL","GAINESVILLE","FL",32608,29.60799839,-82.42449483,274,"7637 SW 49TH PL, GAINESVILLE, FL, 32608","Match","Exact","7637 SW 49TH PL, GAINESVILLE, FL, 32608",6844912,"R"
287775,"7637 SW 49TH PLACE","GAINESVILLE","FL",32608,29.60799839,-82.42449483,275,"7637 SW 49TH PLACE, GAINESVILLE, FL, 32608","Match","Exact","7637 SW 49TH PL, GAINESVILLE, FL, 32608",6844912,"R"
287776,"7637 VESTAL BLVD APT 1","MAUMELLE","AR",72113,34.8258748800001,-92.367731447,276,"7637 VESTAL BLVD APT 1, MAUMELLE, AR, 72113","Match","Non_Exact","7637 VESTAL CT, MAUMELLE, AR, 72113",83570780,"L"
287777,"7637 W BROOK DRIVE","LITTLETON","CO",80128,39.560919982,-105.08374151,277,"7637 W BROOK DRIVE, LITTLETON, CO, 80128","Match","Exact","7637 W BROOK DR, LITTLETON, CO, 80128",177325191,"R"
287778,"7637 WOOMAR AVE","HAMMOND","IN",46323,NA,NA,278,"7637 WOOMAR AVE, HAMMOND, IN, 46323","No_Match",NA,NA,NA,NA
287779,"76375 EUGENE WALLACE RD","COVINGTON","LA",70435,30.543744442,-90.019830788,279,"76375 EUGENE WALLACE RD, COVINGTON, LA, 70435","Match","Exact","76375 EUGENE WALLACE RD, COVINGTON, LA, 70435",111232109,"L"
287780,"7638 FOREST STREAM","LIVE OAK","TX",78233,29.539837435,-98.348134033,280,"7638 FOREST STREAM, LIVE OAK, TX, 78233","Match","Non_Exact","7638 FOREST STREAM RD, LIVE OAK, TX, 78233",101702614,"L"
287781,"7638 FORT SUMTER DRIVE","ORLAND","FL",32822,28.4853664070001,-81.2834276899999,281,"7638 FORT SUMTER DRIVE, ORLAND, FL, 32822","Match","Non_Exact","7638 FORT SUMTER DR, ORLANDO, FL, 32822",94367522,"R"
287782,"7638 HOLLOW REED CT","NOBLESVILLE","IN",46062,40.0720447320001,-86.0360668769999,282,"7638 HOLLOW REED CT, NOBLESVILLE, IN, 46062","Match","Exact","7638 HOLLOW REED CT, NOBLESVILLE, IN, 46062",29316616,"R"
287783,"7638 WOOD MIST LN","FALLS CHURCH","VA",22043,38.880449958,-77.207817597,283,"7638 WOOD MIST LN, FALLS CHURCH, VA, 22043","Match","Exact","7638 WOOD MIST LN, FALLS CHURCH, VA, 22043",215919985,"R"
287784,"7639 COLVIN ROAD","GATES MILLS","OH",44040,41.521636593,-81.40426589,284,"7639 COLVIN ROAD, GATES MILLS, OH, 44040","Match","Exact","7639 COLVIN RD, GATES MILLS, OH, 44040",61136888,"L"
287785,"7639 COUNTY LINE RD","WILLIS","TX",77378,30.424679784,-95.4609705459999,285,"7639 COUNTY LINE RD, WILLIS, TX, 77378","Match","Exact","7639 COUNTY LINE RD, WILLIS, TX, 77378",629637861,"L"
287786,"7639 N JOHN DEIN LANE","FORT CALHOUN","NE",68023,41.4887347480001,-96.083449176,286,"7639 N JOHN DEIN LANE, FORT CALHOUN, NE, 68023","Match","Exact","7639 N JOHN DEIN LN, FORT CALHOUN, NE, 68023",176779041,"L"
287787,"764 11TH ST SE","DC","DC",20003,38.8805692450001,-76.9915231639999,287,"764 11TH ST SE, DC, DC, 20003","Match","Exact","764 11TH ST SE, WASHINGTON, DC, 20003",76230848,"L"
287788,"764 56TH ST","OAKLAND","CA",94609,37.8407255810001,-122.268895895,288,"764 56TH ST, OAKLAND, CA, 94609","Match","Exact","764 56TH ST, OAKLAND, CA, 94609",617282042,"R"
287789,"764 56TH STREET","OAKLAND","CA",94609,37.8407255810001,-122.268895895,289,"764 56TH STREET, OAKLAND, CA, 94609","Match","Exact","764 56TH ST, OAKLAND, CA, 94609",617282042,"R"
287790,"764 CEDAR RIDGE DR","IDAHO FALLS","ID",83404,43.472043512,-112.018836755,290,"764 CEDAR RIDGE DR, IDAHO FALLS, ID, 83404","Match","Exact","764 CEDAR RIDGE DR, IDAHO FALLS, ID, 83404",119143127,"R"
287791,"764 CHARCOAL AVENUE","MIDDLEBURY","CT",6762,41.5441729830001,-73.1405233149999,291,"764 CHARCOAL AVENUE, MIDDLEBURY, CT, 6762","Match","Exact","764 CHARCOAL AVE, MIDDLEBURY, CT, 06762",3696593,"R"
287792,"764 DE LAURA LN","VIRGINA BEACH","VA",23455,36.8624212140001,-76.149277006,292,"764 DE LAURA LN, VIRGINA BEACH, VA, 23455","Match","Non_Exact","764 DE LAURA LN, VIRGINIA BCH, VA, 23455",122263238,"R"
287793,"764 E 33 STREET","HIALEAH","FL",33013,25.8526051160001,-80.267247222,293,"764 E 33 STREET, HIALEAH, FL, 33013","Match","Exact","764 E 33RD ST, HIALEAH, FL, 33013",115999299,"R"
287794,"764 EAGLETON DRIVE","MARTINEZ","GA",30907,33.5540184650001,-82.0588338919999,294,"764 EAGLETON DRIVE, MARTINEZ, GA, 30907","Match","Exact","764 EAGLETON DR, MARTINEZ, GA, 30907",55383905,"R"
287795,"764 EAST MAIN STREET","BRANFORD","CT",6405,41.306943204,-72.752769278,295,"764 EAST MAIN STREET, BRANFORD, CT, 6405","Match","Exact","764 E MAIN ST, BRANFORD, CT, 06405",3749972,"L"
287796,"764 GREENE AVENUE","BROOKLYN","NY",11221,40.6899324760001,-73.937812627,296,"764 GREENE AVENUE, BROOKLYN, NY, 11221","Match","Exact","764 GREENE AVE, BROOKLYN, NY, 11221",59079239,"R"
287797,"764 HICKORY HILL RD","WYCKOFF","NJ",7481,40.978460307,-74.1795655829999,297,"764 HICKORY HILL RD, WYCKOFF, NJ, 7481","Match","Exact","764 HICKORY HILL RD, WYCKOFF, NJ, 07481",64404359,"L"
287798,"764 HILLSIDE DRIVE","SAINT PETERSBURG","FL",33705,27.7169711510001,-82.6436554969999,298,"764 HILLSIDE DRIVE, SAINT PETERSBURG, FL, 33705","Match","Non_Exact","764 HILLSIDE DR S, SAINT PETERSBURG, FL, 33705",124711614,"L"
287799,"764 JODY RD","CARTHAGE","NC",28327,35.2973665380001,-79.436502909,299,"764 JODY RD, CARTHAGE, NC, 28327","Match","Exact","764 JODY RD, CARTHAGE, NC, 28327",20332290,"L"
287800,"764 MAGNOLIA RIDGE DRIVE WEST","MANDEVILLE","LA",70448,30.369731938,-90.078716658,300,"764 MAGNOLIA RIDGE DRIVE WEST, MANDEVILLE, LA, 70448","Match","Exact","764 MAGNOLIA RIDGE DR W, MANDEVILLE, LA, 70448",111279995,"L"
287801,"764 MAIN STREET","HINGHAM","MA",2043,42.20580413,-70.883935448,301,"764 MAIN STREET, HINGHAM, MA, 2043","Match","Exact","764 MAIN ST, HINGHAM, MA, 02043",87430623,"R"
287802,"764 NORTH OAK LAWN AVENUE","ELMHURST","IL",60126,41.921707799,-87.957177346,302,"764 NORTH OAK LAWN AVENUE, ELMHURST, IL, 60126","Match","Non_Exact","764 N OAKLAWN AVE, ELMHURST, IL, 60126",112694024,"L"
287803,"764 OLIVERI LANE","VIRGINIA BEACH","VA",23455,36.8626604130001,-76.150127434,303,"764 OLIVERI LANE, VIRGINIA BEACH, VA, 23455","Match","Non_Exact","764 OLIVIERI LN, VIRGINIA BCH, VA, 23455",122263237,"R"
287804,"764 PANOLA DR","DALLAS","TX",75241,32.6537794710001,-96.811751085,304,"764 PANOLA DR, DALLAS, TX, 75241","Match","Exact","764 PANOLA DR, DALLAS, TX, 75241",619136388,"R"
287805,"764 PENINSULA OVERLOOK","HAMPTON","GA",30228,NA,NA,305,"764 PENINSULA OVERLOOK, HAMPTON, GA, 30228","No_Match",NA,NA,NA,NA
287806,"764 RIVER RD","SCHODACK LANDING","NY",12156,42.4871981530001,-73.768710155,306,"764 RIVER RD, SCHODACK LANDING, NY, 12156","Match","Exact","764 RIVER RD, SCHODACK LANDING, NY, 12156",35726994,"R"
287807,"764 S JAMES ROAD","COLUMBUS","OH",43227,39.95535284,-82.91491329,307,"764 S JAMES ROAD, COLUMBUS, OH, 43227","Match","Exact","764 S JAMES RD, COLUMBUS, OH, 43227",218649691,"L"
287808,"764 SAINT CHARLES ROAD","GLEN ELLYN","IL",60137,41.8902032300001,-88.05523468,308,"764 SAINT CHARLES ROAD, GLEN ELLYN, IL, 60137","Match","Exact","764 SAINT CHARLES RD, GLEN ELLYN, IL, 60137",112688256,"R"
287809,"764 SCOTLAND ROAD APT 28","SOUTH ORANGE","NJ",7079,NA,NA,309,"764 SCOTLAND ROAD APT 28, SOUTH ORANGE, NJ, 7079","No_Match",NA,NA,NA,NA
287810,"764 SHADY STREET","FORT WALTON BEACH","FL",32547,30.4363381700001,-86.642156824,310,"764 SHADY STREET, FORT WALTON BEACH, FL, 32547","Match","Non_Exact","764 SHADY LN, FORT WALTON BEACH, FL, 32547",74389098,"L"
287811,"764 SHEFFIELD TERRACE","SPRINGDALE","AR",72762,36.137000121,-94.227339066,311,"764 SHEFFIELD TERRACE, SPRINGDALE, AR, 72762","Match","Non_Exact","764 SHEFFIELD ST, SPRINGDALE, AR, 72762",49113078,"R"
287812,"764 SOUTHCROSS DR W STE 202","BURNSVILLE","MN",55306,44.737491447,-93.2909793169999,312,"764 SOUTHCROSS DR W STE 202, BURNSVILLE, MN, 55306","Match","Exact","764 SOUTHCROSS DR W, BURNSVILLE, MN, 55306",37939020,"L"
287813,"764 SPOTTED EAGLE ST","HENDERSON","NV",89015,36.014425793,-114.94889989,313,"764 SPOTTED EAGLE ST, HENDERSON, NV, 89015","Match","Exact","764 SPOTTED EAGLE ST, HENDERSON, NV, 89015",202000088,"R"
287814,"764 SUNSET DOWN COURT","LOGANVILLE","GA",30052,33.8720785100001,-83.953778791,314,"764 SUNSET DOWN COURT, LOGANVILLE, GA, 30052","Match","Exact","764 SUNSET DOWN CT, LOGANVILLE, GA, 30052",630019060,"L"
287815,"764 TRADEWIND DRIVE","MASON","OH",45040,39.3456502600001,-84.345087932,315,"764 TRADEWIND DRIVE, MASON, OH, 45040","Match","Exact","764 TRADEWIND DR, MASON, OH, 45040",159021900,"L"
287816,"764 VILLAS CIRCLE","CINCINNATI","OH",45215,39.2436015920001,-84.459034219,316,"764 VILLAS CIRCLE, CINCINNATI, OH, 45215","Match","Exact","764 VILLAS CIR, CINCINNATI, OH, 45215",103926770,"R"
287817,"764 W REMINGTON WAY","SALT LAKE CITY","UT",84104,40.7447851840001,-111.912035042,317,"764 W REMINGTON WAY, SALT LAKE CITY, UT, 84104","Match","Exact","764 REMINGTON WAY, SALT LAKE CITY, UT, 84104",176077153,"L"
287818,"764 WASHINGTON STREET APT 2","DORCHESTER","MA",2124,42.2852054320001,-71.071219857,318,"764 WASHINGTON STREET APT 2, DORCHESTER, MA, 2124","Match","Exact","764 WASHINGTON ST, DORCHESTER, MA, 02124",85706018,"L"
287819,"764 WEST NORTH STREET","FAYETTEVILLE","AR",72701,36.0775178800001,-94.170221111,319,"764 WEST NORTH STREET, FAYETTEVILLE, AR, 72701","Match","Exact","764 W NORTH ST, FAYETTEVILLE, AR, 72701",640550393,"R"
287820,"764 ZION STREET","AURORA","CO",80011,39.727570545,-104.8294758,320,"764 ZION STREET, AURORA, CO, 80011","Match","Exact","764 ZION ST, AURORA, CO, 80011",177404943,"R"
287821,"764","BENTON","MS",39039,NA,NA,321,"764, BENTON, MS, 39039","No_Match",NA,NA,NA,NA
287822,"764","WILDOMAR","CA",92595,NA,NA,322,"764, WILDOMAR, CA, 92595","No_Match",NA,NA,NA,NA
287823,"7640 COZY LANE","FAIRBURN","GA",30213,33.6085932570001,-84.63789497,323,"7640 COZY LANE, FAIRBURN, GA, 30213","Match","Exact","7640 COZY LN, FAIRBURN, GA, 30213",644706265,"R"
287824,"7640 GUADALUPE ST","AUSTIN","TX",78752,30.3433368120001,-97.711601527,324,"7640 GUADALUPE ST, AUSTIN, TX, 78752","Match","Exact","7640 GUADALUPE ST, AUSTIN, TX, 78752",63932083,"L"
287825,"7640 LANKERSHIM BLVD","NORTH HOLLYWOOD","CA",91605,34.2093671850001,-118.387772783,325,"7640 LANKERSHIM BLVD, NORTH HOLLYWOOD, CA, 91605","Match","Exact","7640 LANKERSHIM BLVD, N HOLLYWOOD, CA, 91605",141553223,"R"
287826,"7640 MASTERS ST","ELK GROVE","CA",95758,38.4420073850001,-121.413591374,326,"7640 MASTERS ST, ELK GROVE, CA, 95758","Match","Exact","7640 MASTERS ST, ELK GROVE, CA, 95758",133407200,"R"
287827,"7640 MILOTON POTSDAM RD","WEST MILTON","OH",45388,39.9639083930001,-84.345101652,327,"7640 MILOTON POTSDAM RD, WEST MILTON, OH, 45388","Match","Non_Exact","7640 MILTON-POTSDAM RD, WEST MILTON, OH, 45383",135314264,"R"
287828,"7640 NE AIRPORT WAY UNIT 55904","PORTLAND","OR",97238,NA,NA,328,"7640 NE AIRPORT WAY UNIT 55904, PORTLAND, OR, 97238","No_Match",NA,NA,NA,NA
287829,"7640 NW 25 STREET UNIT 113","MIAMI","FL",33122,25.797080179,-80.31946862,329,"7640 NW 25 STREET UNIT 113, MIAMI, FL, 33122","Match","Non_Exact","7640 NW 25TH ST, MIAMI, FL, 33122",115974089,"L"
287830,"7640 PRESIDENT ST","FULTON","MD",20759,39.1611016860001,-76.905297224,330,"7640 PRESIDENT ST, FULTON, MD, 20759","Match","Exact","7640 PRESIDENT ST, FULTON, MD, 20759",614343739,"R"
287831,"7640 SOUTH BRIGHTON WAY","COTTONWOOD HEIGHTS","UT",84121,40.6119483940001,-111.807003194,331,"7640 SOUTH BRIGHTON WAY, COTTONWOOD HEIGHTS, UT, 84121","Match","Exact","7640 S BRIGHTON WAY, COTTONWOOD HEIGHTS, UT, 84121",176095784,"R"
287832,"7640 SOUTH HALSTED","CHICAGO","IL",60620,41.755323031,-87.6441682769999,332,"7640 SOUTH HALSTED, CHICAGO, IL, 60620","Match","Non_Exact","7640 S HALSTED ST, CHICAGO, IL, 60620",111831074,"R"
287833,"7640 SUMMITROSE ST","TUJUNGA","CA",91042,34.259596935,-118.298772074,333,"7640 SUMMITROSE ST, TUJUNGA, CA, 91042","Match","Exact","7640 SUMMITROSE ST, TUJUNGA, CA, 91042",141587883,"L"
287834,"7640 SYMMES AVE","NEW ORLEANS","LA",70127,30.0456875470001,-89.98367577,334,"7640 SYMMES AVE, NEW ORLEANS, LA, 70127","Match","Exact","7640 SYMMES AVE, NEW ORLEANS, LA, 70127",191720590,"L"
287835,"7641 BORISS DRIVE","CHATTANOOGA","TN",37416,35.0704976310001,-85.1660403,335,"7641 BORISS DRIVE, CHATTANOOGA, TN, 37416","Match","Exact","7641 BORISS DR, CHATTANOOGA, TN, 37416",59316744,"L"
287836,"7641 FAIRWAY LN","WEST BEND","WI",53090,43.466596838,-88.111420595,336,"7641 FAIRWAY LN, WEST BEND, WI, 53090","Match","Exact","7641 FAIRWAY LN, WEST BEND, WI, 53090",79568675,"R"
287837,"7641 GINGER LILY CT","TAMPA","FL",33619,NA,NA,337,"7641 GINGER LILY CT, TAMPA, FL, 33619","No_Match",NA,NA,NA,NA
287838,"7641 MALVERN AVE","PHILADELPHIA","PA",19151,39.972277945,-75.266873693,338,"7641 MALVERN AVE, PHILADELPHIA, PA, 19151","Match","Exact","7641 MALVERN AVE, PHILADELPHIA, PA, 19151",131393053,"R"
287839,"7641 ONTARIO ST","OMAHA","NE",68124,41.226600766,-96.031116421,339,"7641 ONTARIO ST, OMAHA, NE, 68124","Match","Exact","7641 ONTARIO ST, OMAHA, NE, 68124",117016537,"L"
287840,"7641 POLK ST","FOREST PARK","IL",60130,41.869678019,-87.815845451,340,"7641 POLK ST, FOREST PARK, IL, 60130","Match","Exact","7641 POLK ST, FOREST PARK, IL, 60130",605144715,"R"
287841,"7641 S  EGGLESTON","CHICAGO","IL",60620,41.755453779,-87.635627114,341,"7641 S  EGGLESTON, CHICAGO, IL, 60620","Match","Non_Exact","7641 S EGGLESTON AVE, CHICAGO, IL, 60620",111831356,"L"
287842,"7641 SUMTER CREST DRIVE APT 7107","RALEIGH","NC",27617,35.911184414,-78.7735739779999,342,"7641 SUMTER CREST DRIVE APT 7107, RALEIGH, NC, 27617","Match","Exact","7641 SUMTER CREST DR, RALEIGH, NC, 27617",646544965,"L"
287843,"7641 TALBERT AVE STE 215","HUNTINGTON BEACH","CA",92648,33.701140438,-117.995654817,343,"7641 TALBERT AVE STE 215, HUNTINGTON BEACH, CA, 92648","Match","Exact","7641 TALBERT AVE, HUNTINGTON BEACH, CA, 92648",144017743,"L"
287844,"7641 THUNDERBIRD LANE","COLORADO SPRINGS","CO",80919,38.9478257480001,-104.823543308,344,"7641 THUNDERBIRD LANE, COLORADO SPRINGS, CO, 80919","Match","Exact","7641 THUNDERBIRD LN, COLORADO SPRINGS, CO, 80919",105509313,"R"
287845,"7641 TUSCAN BAY CIRCLE","WESLEY CHAPEL","FL",33545,NA,NA,345,"7641 TUSCAN BAY CIRCLE, WESLEY CHAPEL, FL, 33545","No_Match",NA,NA,NA,NA
287846,"76414 150TH STREET","ALBERT LEA","MN",56007,43.57152297,-93.342289221,346,"76414 150TH STREET, ALBERT LEA, MN, 56007","Match","Exact","76414 150TH ST, ALBERT LEA, MN, 56007",39553899,"R"
287847,"7642 GARLAND CIRCLE","ATLANTA","GA",30349,33.662620465,-84.6319074,347,"7642 GARLAND CIRCLE, ATLANTA, GA, 30349","Match","Exact","7642 GARLAND CIR, ATLANTA, GA, 30349",644733956,"R"
287848,"7642 NORMILE STREET","DEARBORN","MI",48126,42.3485697520001,-83.158530016,348,"7642 NORMILE STREET, DEARBORN, MI, 48126","Match","Exact","7642 NORMILE ST, DEARBORN, MI, 48126",95443488,"R"
287849,"7642 NW 36 PLACE","GAINESVILLE","FL",32606,29.686765334,-82.423780385,349,"7642 NW 36 PLACE, GAINESVILLE, FL, 32606","Match","Exact","7642 NW 36TH PL, GAINESVILLE, FL, 32606",6844980,"R"
287850,"7642 S OCTAVIA AVE","BRIDGEVIEW","IL",60455,41.7526903180001,-87.802332744,350,"7642 S OCTAVIA AVE, BRIDGEVIEW, IL, 60455","Match","Exact","7642 S OCTAVIA AVE, BRIDGEVIEW, IL, 60455",111810598,"R"
287851,"7642 W 157TH PLACE","ORLAND PARK","IL",60462,NA,NA,351,"7642 W 157TH PLACE, ORLAND PARK, IL, 60462","Tie",NA,NA,NA,NA
287852,"7642 W SPRINGFIELD WAY","FLORENCE","AZ",85132,NA,NA,352,"7642 W SPRINGFIELD WAY, FLORENCE, AZ, 85132","Tie",NA,NA,NA,NA
287853,"7642 WEST LEON TERRACE","MILWAUKEE","WI",53218,43.116646186,-88.0068817489999,353,"7642 WEST LEON TERRACE, MILWAUKEE, WI, 53218","Match","Exact","7642 W LEON TER, MILWAUKEE, WI, 53218",77726085,"R"
287854,"7643 BUCKPOND DR","NORTH CHARLESTON","SC",29418,32.909087814,-80.0792947749999,354,"7643 BUCKPOND DR, NORTH CHARLESTON, SC, 29418","Match","Non_Exact","7643 BUCK POND RD, N CHARLESTON, SC, 29418",108828975,"L"
287855,"7643 FM 225 S","LANEVILLE","TX",75667,32.0573973480001,-94.803227894,355,"7643 FM 225 S, LANEVILLE, TX, 75667","Match","Exact","7643 FM 225 S, LANEVILLE, TX, 75667",636703433,"R"
287856,"7643 GATE PARKWAY 104172","JACKSONVILLE","FL",32256,30.2396186130001,-81.519831131,356,"7643 GATE PARKWAY 104172, JACKSONVILLE, FL, 32256","Match","Exact","7643 GATE PKWY, JACKSONVILLE, FL, 32256",83962401,"L"
287857,"7643 GATE PARKWAY SUITE 104-558","JACKSONVILLE","FL",32256,30.2396186130001,-81.519831131,357,"7643 GATE PARKWAY SUITE 104-558, JACKSONVILLE, FL, 32256","Match","Exact","7643 GATE PKWY, JACKSONVILLE, FL, 32256",83962401,"L"
287858,"7643 GATE PARKWAY SUITE 104-587","JACKSONVILLE","FL",32256,30.2396186130001,-81.519831131,358,"7643 GATE PARKWAY SUITE 104-587, JACKSONVILLE, FL, 32256","Match","Exact","7643 GATE PKWY, JACKSONVILLE, FL, 32256",83962401,"L"
287859,"7643 GATE PARKWAY SUITE 104-896","JACKSONVILLE","FL",32256,30.2396186130001,-81.519831131,359,"7643 GATE PARKWAY SUITE 104-896, JACKSONVILLE, FL, 32256","Match","Exact","7643 GATE PKWY, JACKSONVILLE, FL, 32256",83962401,"L"
287860,"7643 GATE PARKWAY","JACKSONVILLE","FL",32256,30.2396186130001,-81.519831131,360,"7643 GATE PARKWAY, JACKSONVILLE, FL, 32256","Match","Exact","7643 GATE PKWY, JACKSONVILLE, FL, 32256",83962401,"L"
287861,"7643 GATE PARKWAY104-16","JACKSONVILLE","FL",32256,30.2396186130001,-81.519831131,361,"7643 GATE PARKWAY104-16, JACKSONVILLE, FL, 32256","Match","Non_Exact","7643 GATE PKWY, JACKSONVILLE, FL, 32256",83962401,"L"
287862,"7643 GATE PKWY STE 104 231","JACKSONVILLE","FL",32256,30.2396186130001,-81.519831131,362,"7643 GATE PKWY STE 104 231, JACKSONVILLE, FL, 32256","Match","Exact","7643 GATE PKWY, JACKSONVILLE, FL, 32256",83962401,"L"
287863,"7643 GREENBUSH AVENUE UNIT 5","PANORAMA CITY","CA",91402,34.2095477670001,-118.426712094,363,"7643 GREENBUSH AVENUE UNIT 5, PANORAMA CITY, CA, 91402","Match","Exact","7643 GREENBUSH AVE, PANORAMA CITY, CA, 91402",141550465,"L"
287864,"7644 BISON BLUFF ST","LOVELAND","CO",80538,NA,NA,364,"7644 BISON BLUFF ST, LOVELAND, CO, 80538","No_Match",NA,NA,NA,NA
287865,"7644 RUTGERS CIRCLE","FAIRBURN","GA",30213,33.5455242630001,-84.569988328,365,"7644 RUTGERS CIRCLE, FAIRBURN, GA, 30213","Match","Exact","7644 RUTGERS CIR, FAIRBURN, GA, 30213",628099765,"L"
287866,"7644 W BROWN ST","PEORIA","AZ",85345,33.576888594,-112.223512152,366,"7644 W BROWN ST, PEORIA, AZ, 85345","Match","Exact","7644 W BROWN ST, PEORIA, AZ, 85345",128322918,"R"
287867,"7644 W COCHISE DRIVE","PEORIA","AZ",85345,33.5799257350001,-112.224359362,367,"7644 W COCHISE DRIVE, PEORIA, AZ, 85345","Match","Exact","7644 W COCHISE DR, PEORIA, AZ, 85345",128261765,"L"
287868,"7644 WYNDALE AVE","PHILADELPHIA","PA",19151,39.9730337300001,-75.267380068,368,"7644 WYNDALE AVE, PHILADELPHIA, PA, 19151","Match","Exact","7644 WYNDALE AVE, PHILADELPHIA, PA, 19151",131393049,"L"
287869,"7644-A BROADWAY","LEMON GROVE","CA",91945,32.7426808220001,-117.033277638,369,"7644-A BROADWAY, LEMON GROVE, CA, 91945","Match","Exact","7644 BROADWAY, LEMON GROVE, CA, 91945",195359294,"L"
287870,"7645 LITTLE MOUNTAIN ROAD","MENTOR","OH",44060,41.66235722,-81.3269539409999,370,"7645 LITTLE MOUNTAIN ROAD, MENTOR, OH, 44060","Match","Exact","7645 LITTLE MOUNTAIN RD, MENTOR, OH, 44060",137473552,"L"
287871,"7645 N BERWYN AVE","GLENDALE","WI",53209,43.1556858450001,-87.9418100029999,371,"7645 N BERWYN AVE, GLENDALE, WI, 53209","Match","Exact","7645 N BERWYN AVE, GLENDALE, WI, 53209",77735277,"L"
287872,"7645 N JEFFERSON PLACE CIRCLE APT L","BATON ROUGE","LA",70809,30.420992094,-91.10544239,372,"7645 N JEFFERSON PLACE CIRCLE APT L, BATON ROUGE, LA, 70809","Match","Exact","7645 JEFFERSON PLACE CIR, BATON ROUGE, LA, 70809",92200586,"R"
287873,"7645 NE 8TH DRIVE","OKEECHOBEE","FL",34974,27.2511989930001,-80.746920039,373,"7645 NE 8TH DRIVE, OKEECHOBEE, FL, 34974","Match","Exact","7645 NE 8TH DR, OKEECHOBEE, FL, 34974",4973783,"R"
287874,"7645 S SOUTH SHORE DRIVE","CHICAGO","IL",60649,41.75804011,-87.554542386,374,"7645 S SOUTH SHORE DRIVE, CHICAGO, IL, 60649","Match","Exact","7645 S SOUTH SHORE DR, CHICAGO, IL, 60649",111775857,"L"
287875,"7645 S ST LAWRENCE AVE","CHICAGO","IL",60619,41.75582408,-87.610183564,375,"7645 S ST LAWRENCE AVE, CHICAGO, IL, 60619","Match","Exact","7645 S ST LAWRENCE AVE, CHICAGO, IL, 60619",111772590,"L"
287876,"7645 SHERIDAN ROAD UNIT 407","CHICAGO","IL",60626,42.0205071410001,-87.6664003559999,376,"7645 SHERIDAN ROAD UNIT 407, CHICAGO, IL, 60626","Match","Non_Exact","7645 N SHERIDAN RD, CHICAGO, IL, 60626",111745270,"R"
287877,"7645 VANCE DR","ARVADA","CO",80003,39.836139437,-105.079496674,377,"7645 VANCE DR, ARVADA, CO, 80003","Match","Exact","7645 VANCE DR, ARVADA, CO, 80003",177801399,"R"
287878,"7645 WYANDOTTE ROAD","LAFAYETTE","IN",47905,40.343204051,-86.756891432,378,"7645 WYANDOTTE ROAD, LAFAYETTE, IN, 47905","Match","Exact","7645 WYANDOTTE RD, LAFAYETTE, IN, 47905",635610247,"L"
287879,"764573","DALLAS","TX",75376,NA,NA,379,"764573, DALLAS, TX, 75376","No_Match",NA,NA,NA,NA
287880,"7646 CHANCELLOR WAY","SPRINGFIELD","VA",22153,38.748676994,-77.219208324,380,"7646 CHANCELLOR WAY, SPRINGFIELD, VA, 22153","Match","Exact","7646 CHANCELLOR WAY, SPRINGFIELD, VA, 22153",76047082,"L"
287881,"7646 HARCOURT RAOD APT A9","INDIANAPOLIS","IN",46260,39.89303346,-86.193479248,381,"7646 HARCOURT RAOD APT A9, INDIANAPOLIS, IN, 46260","Match","Non_Exact","7646 HARCOURT RD, INDIANAPOLIS, IN, 46260",107981569,"L"
287882,"7646 N TEUTONIA AVENUE","BROWN DEER","WI",53209,43.156688349,-87.9591823069999,382,"7646 N TEUTONIA AVENUE, BROWN DEER, WI, 53209","Match","Exact","7646 N TEUTONIA AVE, BROWN DEER, WI, 53209",77735141,"R"
287883,"7647 116TH CT SE","NEWCASTLE","WA",98056,47.5335566620001,-122.184900347,383,"7647 116TH CT SE, NEWCASTLE, WA, 98056","Match","Exact","7647 116TH CT SE, NEWCASTLE, WA, 98056",186920178,"L"
287884,"7647 BELLFORT ST","HOUSTON","TX",77061,29.672291194,-95.283953737,384,"7647 BELLFORT ST, HOUSTON, TX, 77061","Match","Exact","7647 BELLFORT ST, HOUSTON, TX, 77061",651641410,"L"
287885,"7647 LA SOBRINA DR","DALLAS","TX",75248,32.968678251,-96.7764181429999,385,"7647 LA SOBRINA DR, DALLAS, TX, 75248","Match","Exact","7647 LA SOBRINA DR, DALLAS, TX, 75248",102900559,"L"
287886,"7647 LAWRENCE 2210","MONETT","MO",65708,36.9723994920001,-93.92370547,386,"7647 LAWRENCE 2210, MONETT, MO, 65708","Match","Exact","7647 LAWRENCE 2210, MONETT, MO, 65708",625247233,"L"
287887,"7647 MANASSAS CT","NORFOLK","VA",23518,36.912561216,-76.203411866,387,"7647 MANASSAS CT, NORFOLK, VA, 23518","Match","Exact","7647 MANASSAS CT, NORFOLK, VA, 23518",122126851,"L"
287888,"7647 WINDLAWN WAY","PARKER","CO",80134,39.4584045780001,-104.743297376,388,"7647 WINDLAWN WAY, PARKER, CO, 80134","Match","Exact","7647 WINDLAWN WAY, PARKER, CO, 80134",639579391,"R"
287889,"7648 CHATHAM CIRCLE","KNOXVILLE","TN",37909,35.950700822,-84.04244711,389,"7648 CHATHAM CIRCLE, KNOXVILLE, TN, 37909","Match","Non_Exact","7648 CHATHAM CIR NW, KNOXVILLE, TN, 37909",42677563,"L"
287890,"7648 LOMA VERDE AVE","CANOGA PARK","CA",91304,34.210002929,-118.589613409,390,"7648 LOMA VERDE AVE, CANOGA PARK, CA, 91304","Match","Exact","7648 LOMA VERDE AVE, CANOGA PARK, CA, 91304",141533485,"R"
287891,"7648 MARINA COVE DRIVE","SACRAMENTO","CA",95831,38.482133828,-121.521326531,391,"7648 MARINA COVE DRIVE, SACRAMENTO, CA, 95831","Match","Exact","7648 MARINA COVE DR, SACRAMENTO, CA, 95831",133389265,"R"
287892,"7648 PICARDY AVE STE 100","BATON ROUGE","LA",70808,30.3988777750001,-91.1089561319999,392,"7648 PICARDY AVE STE 100, BATON ROUGE, LA, 70808","Match","Exact","7648 PICARDY AVE, BATON ROUGE, LA, 70808",92192603,"R"
287893,"7648 SILVERBROOK LANE","FRISCO","TX",75036,33.1422857650001,-96.865467686,393,"7648 SILVERBROOK LANE, FRISCO, TX, 75036","Match","Exact","7648 SILVERBROOK LN, FRISCO, TX, 75036",614142508,"L"
287894,"7648 W ARDMORE","CHICAGO","IL",60631,41.985199858,-87.818612617,394,"7648 W ARDMORE, CHICAGO, IL, 60631","Match","Non_Exact","7648 W ARDMORE AVE, CHICAGO, IL, 60631",111733905,"R"
287895,"7648 WATERPOINT CT","HOLLAND","OH",43528,41.6377064710001,-83.7241793009999,395,"7648 WATERPOINT CT, HOLLAND, OH, 43528","Match","Exact","7648 WATERPOINT CT, HOLLAND, OH, 43528",33962731,"R"
287896,"7648 ZANE AVE -  SUITE 213","BROOKLYN PARK","MN",55443,45.0930006450001,-93.356335383,396,"7648 ZANE AVE -  SUITE 213, BROOKLYN PARK, MN, 55443","Match","Non_Exact","7648 ZANE AVE N, BROOKLYN PARK, MN, 55443",640681616,"R"
287897,"7649 CLEARVIEW CT","CRESSON","TX",76035,32.522668277,-97.64559693,397,"7649 CLEARVIEW CT, CRESSON, TX, 76035","Match","Exact","7649 CLEARVIEW CT, CRESSON, TX, 76035",158813479,"R"
287898,"7649 CLOVER WOODS COURT","SACRAMENTO","CA",95828,38.4802198560001,-121.412966719,398,"7649 CLOVER WOODS COURT, SACRAMENTO, CA, 95828","Match","Exact","7649 CLOVER WOODS CT, SACRAMENTO, CA, 95828",133353647,"R"
287899,"7649 CR-145","WILDWOOD","FL",34785,28.825198415,-81.9769920319999,399,"7649 CR-145, WILDWOOD, FL, 34785","Match","Exact","7649 CO RD 145, WILDWOOD, FL, 34785",86499552,"R"
287900,"7649 FENNEL RD","RANCHO CUCAMONGA","CA",91739,34.1147410090001,-117.543798304,400,"7649 FENNEL RD, RANCHO CUCAMONGA, CA, 91739","Match","Exact","7649 FENNEL RD, ETIWANDA, CA, 91739",144640175,"L"
287901,"7649 HUNTERS TRL","WEST CHESTER","OH",45069,39.365976539,-84.46428272,401,"7649 HUNTERS TRL, WEST CHESTER, OH, 45069","Match","Exact","7649 HUNTERS TRL, WEST CHESTER, OH, 45069",604775542,"L"
287902,"7649 S CALUMET","CHICAGO","IL",60619,41.7556456390001,-87.616633839,402,"7649 S CALUMET, CHICAGO, IL, 60619","Match","Non_Exact","7649 S CALUMET AVE, CHICAGO, IL, 60619",111772349,"L"
287903,"7649 SUMMERHILL CT","LORTON","VA",22079,38.709936688,-77.2072766049999,403,"7649 SUMMERHILL CT, LORTON, VA, 22079","Match","Exact","7649 SUMMERHILL CT, LORTON, VA, 22079",75984536,"R"
287904,"7649 W IRVING PARK RD 1N","CHICAGO","IL",60634,41.952490745,-87.818583065,404,"7649 W IRVING PARK RD 1N, CHICAGO, IL, 60634","Match","Non_Exact","7649 W IRVING PARK RD, CHICAGO, IL, 60634",111747291,"L"
287905,"765 5TH ST NW","RICHMOND","MN",56368,45.459005242,-94.531938566,405,"765 5TH ST NW, RICHMOND, MN, 56368","Match","Exact","765 5TH ST NW, RICHMOND, MN, 56368",107448560,"R"
287906,"765 AMSTERDAM AVE APT 6B","NEW YORK","NY",10025,40.794840654,-73.969785804,406,"765 AMSTERDAM AVE APT 6B, NEW YORK, NY, 10025","Match","Exact","765 AMSTERDAM AVE, NEW YORK, NY, 10025",59656842,"R"
287907,"765 AMSTERDAM AVE","NEW YORK","NY",10025,40.794840654,-73.969785804,407,"765 AMSTERDAM AVE, NEW YORK, NY, 10025","Match","Exact","765 AMSTERDAM AVE, NEW YORK, NY, 10025",59656842,"R"
287908,"765 AMSTERDAM AVENUE","NEW YORK","NY",10025,40.794840654,-73.969785804,408,"765 AMSTERDAM AVENUE, NEW YORK, NY, 10025","Match","Exact","765 AMSTERDAM AVE, NEW YORK, NY, 10025",59656842,"R"
287909,"765 ANITA CIRCLE","BENICIA","CA",94510,38.0624336220001,-122.167931584,409,"765 ANITA CIRCLE, BENICIA, CA, 94510","Match","Exact","765 ANITA CIR, BENICIA, CA, 94510",192563972,"R"
287910,"765 BAMBOO DRIVE","BOCA RATON","FL",33432,26.3591919560001,-80.07362657,410,"765 BAMBOO DRIVE, BOCA RATON, FL, 33432","Match","Exact","765 BAMBOO DR, BOCA RATON, FL, 33432",115303800,"R"
287911,"765 BRIDGEWATER LANE","EVANS","GA",30809,33.5458259160001,-82.203666385,411,"765 BRIDGEWATER LANE, EVANS, GA, 30809","Match","Exact","765 BRIDGEWATER LN, EVANS, GA, 30809",646681358,"L"
287912,"765 CAMELOT MANOR","PORTAGE","IN",46368,41.544134371,-87.2174272999999,412,"765 CAMELOT MANOR, PORTAGE, IN, 46368","Match","Exact","765 CAMELOT MANOR, PORTAGE, IN, 46368",119931734,"R"
287913,"765 CARDINAL DRIVE","OWATONNA","MN",55060,44.07534431,-93.20551273,413,"765 CARDINAL DRIVE, OWATONNA, MN, 55060","Match","Non_Exact","765 CARDINAL DR SE, OWATONNA, MN, 55060",38182101,"R"
287914,"765 COLUMBIA RD FL 3","DORCHESTER","MA",2125,42.3200172890001,-71.0589012889999,414,"765 COLUMBIA RD FL 3, DORCHESTER, MA, 2125","Match","Exact","765 COLUMBIA RD, DORCHESTER, MA, 02125",85712473,"R"
287915,"765 COURTLAND AVENUE 15B","BRONX","NY",10451,NA,NA,415,"765 COURTLAND AVENUE 15B, BRONX, NY, 10451","No_Match",NA,NA,NA,NA
287916,"765 COURTLANDT AVE SUIT 2B","BRONX","NY",10451,40.8218821950001,-73.917098772,416,"765 COURTLANDT AVE SUIT 2B, BRONX, NY, 10451","Match","Exact","765 COURTLANDT AVE, BRONX, NY, 10451",612295291,"L"
287917,"765 CRESTDALE LANE","LAS VEGAS","NV",89144,36.1822447660001,-115.32338154,417,"765 CRESTDALE LANE, LAS VEGAS, NV, 89144","Match","Exact","765 CRESTDALE LN, LAS VEGAS, NV, 89144",201924546,"R"
287918,"765 CURTISS PKWY","MIAMI SPRINGS","FL",33166,25.812670698,-80.289051768,418,"765 CURTISS PKWY, MIAMI SPRINGS, FL, 33166","Match","Exact","765 CURTISS PKWY, MIAMI SPRINGS, FL, 33166",116305509,"L"
287919,"765 DENALI WAY APT 101","CHARLOTTESVILLE","VA",22903,38.015602593,-78.520464432,419,"765 DENALI WAY APT 101, CHARLOTTESVILLE, VA, 22903","Match","Exact","765 DENALI WAY, CHARLOTTESVILLE, VA, 22903",631986737,"L"
287920,"765 E CHADDS FORD LANE NUMBER 10","MIDVALE","UT",84047,NA,NA,420,"765 E CHADDS FORD LANE NUMBER 10, MIDVALE, UT, 84047","No_Match",NA,NA,NA,NA
287921,"765 EAGLETON DRIVE","AUGUSTA","GA",30907,33.55400975,-82.058825907,421,"765 EAGLETON DRIVE, AUGUSTA, GA, 30907","Match","Exact","765 EAGLETON DR, AUGUSTA, GA, 30907",55383905,"L"
287922,"765 EWING ROAD","BOARDMAN","OH",44512,41.0337188440001,-80.6837211819999,422,"765 EWING ROAD, BOARDMAN, OH, 44512","Match","Exact","765 EWING RD, BOARDMAN, OH, 44512",64598451,"L"
287923,"765 GLENDALE RD","MARIETTA","OH",45750,39.4212737340001,-81.444733281,423,"765 GLENDALE RD, MARIETTA, OH, 45750","Match","Exact","765 GLENDALE RD, MARIETTA, OH, 45750",45685723,"L"
287924,"765 HARPER STREET","ELMIRA","NY",14901,42.101433802,-76.799333573,424,"765 HARPER STREET, ELMIRA, NY, 14901","Match","Exact","765 HARPER ST, ELMIRA, NY, 14901",18535367,"L"
287925,"765 HARRY L DRIVE","JOHNSON CITY","NY",13850,42.122103601,-75.979821793,425,"765 HARRY L DRIVE, JOHNSON CITY, NY, 13850","Match","Non_Exact","765 HARRY L DR, JOHNSON CITY, NY, 13790",647676158,"R"
287926,"765 HERON CT SE","BOLIVIA","NC",28422,33.9416109840001,-78.2011420059999,426,"765 HERON CT SE, BOLIVIA, NC, 28422","Match","Exact","765 HERON CT SE, BOLIVIA, NC, 28422",153161615,"L"
287927,"765 JERSEY ST","DENVER","CO",80220,39.7284578250001,-104.919460308,427,"765 JERSEY ST, DENVER, CO, 80220","Match","Exact","765 JERSEY ST, DENVER, CO, 80220",177339723,"L"
287928,"765 LAKEVIEW DRIVE","WEST JEFFERSON","OH",43162,39.953285689,-83.2959950119999,428,"765 LAKEVIEW DRIVE, WEST JEFFERSON, OH, 43162","Match","Exact","765 LAKEVIEW DR, W JEFFERSON, OH, 43162",135267486,"R"
287929,"765 LEDYARD PLACE","MONTGOMERY","AL",36109,32.393628694,-86.230870238,429,"765 LEDYARD PLACE, MONTGOMERY, AL, 36109","Match","Exact","765 LEDYARD PL, MONTGOMERY, AL, 36109",1471998,"L"
287930,"765 LINCOLN AVENUE APT 9G","BROOKLYN","NY",11208,40.670372248,-73.865858733,430,"765 LINCOLN AVENUE APT 9G, BROOKLYN, NY, 11208","Match","Exact","765 LINCOLN AVE, BROOKLYN, NY, 11208",640860638,"L"
287931,"765 LIPAN ST","DENVER","CO",80204,39.7283220240001,-105.001596105,431,"765 LIPAN ST, DENVER, CO, 80204","Match","Exact","765 LIPAN ST, DENVER, CO, 80204",177330320,"L"
287932,"765 LITTLE DOGWOOD RD","KINGSTON","TN",37763,35.767459945,-84.433901659,432,"765 LITTLE DOGWOOD RD, KINGSTON, TN, 37763","Match","Exact","765 LITTLE DOGWOOD RD, KINGSTON, TN, 37763",605821193,"R"
287933,"765 MCDANIEL ST SW UNIT1212","ATLANTA","GA",30310,33.733934177,-84.401669896,433,"765 MCDANIEL ST SW UNIT1212, ATLANTA, GA, 30310","Match","Exact","765 MCDANIEL ST SW, ATLANTA, GA, 30310",17346003,"R"
287934,"765 MCDANIEL STREET 1404","ATLANTA","GA",30310,33.733934177,-84.401669896,434,"765 MCDANIEL STREET 1404, ATLANTA, GA, 30310","Match","Non_Exact","765 MCDANIEL ST SW, ATLANTA, GA, 30310",17346003,"R"
287935,"765 MCDANIEL STREET SOUTHWEST","ATLANTA","GA",30310,33.733934177,-84.401669896,435,"765 MCDANIEL STREET SOUTHWEST, ATLANTA, GA, 30310","Match","Exact","765 MCDANIEL ST SW, ATLANTA, GA, 30310",17346003,"R"
287936,"765 MCDANIEL STREET SW 1404","ATLANTA","GA",30310,33.733934177,-84.401669896,436,"765 MCDANIEL STREET SW 1404, ATLANTA, GA, 30310","Match","Exact","765 MCDANIEL ST SW, ATLANTA, GA, 30310",17346003,"R"
287937,"765 MCDANIELTOWN RD","RIDGEVILLE","SC",29472,32.9370489130001,-80.4117217639999,437,"765 MCDANIELTOWN RD, RIDGEVILLE, SC, 29472","Match","Exact","765 MCDANIELTOWN RD, RIDGEVILLE, SC, 29472",19167999,"L"
287938,"765 MONARCH DR","BOONE","IA",50036,42.097842723,-93.8952765229999,438,"765 MONARCH DR, BOONE, IA, 50036","Match","Exact","765 MONARCH DR, BOONE, IA, 50036",64946606,"L"
287939,"765 MORELAND AVE SE STE C201","ATLANTA","GA",30316,33.7335603980001,-84.34931148,439,"765 MORELAND AVE SE STE C201, ATLANTA, GA, 30316","Match","Exact","765 MORELAND AVE SE, ATLANTA, GA, 30316",17414070,"R"
287940,"765 N TARGET RANGE RD","NOGALES","AZ",85621,NA,NA,440,"765 N TARGET RANGE RD, NOGALES, AZ, 85621","Tie",NA,NA,NA,NA
287941,"765 NE MARKET DR","FAIRVIEW","OR",97024,45.5284968810001,-122.437157898,441,"765 NE MARKET DR, FAIRVIEW, OR, 97024","Match","Exact","765 NE MARKET DR, FAIRVIEW, OR, 97024",640609732,"L"
287942,"765 NORTHERN SPY DR","LINDEN","VA",22642,38.9265030220001,-78.0930056289999,442,"765 NORTHERN SPY DR, LINDEN, VA, 22642","Match","Exact","765 NORTHERN SPY DR, LINDEN, VA, 22642",159086900,"L"
287943,"765 NORTHUMBERLAND HIGHWAY","CALLAO","VA",22435,37.9673155,-76.547864573,443,"765 NORTHUMBERLAND HIGHWAY, CALLAO, VA, 22435","Match","Exact","765 NORTHUMBERLAND HWY, CALLAO, VA, 22435",30960399,"L"
287944,"765 OLD PORTER RD","BEAR","DE",19701,39.6016403140001,-75.6877658289999,444,"765 OLD PORTER RD, BEAR, DE, 19701","Match","Exact","765 OLD PORTER RD, BEAR, DE, 19701",187266009,"L"
287945,"765 S HARVARD BLVD STE 200","LOS ANGELES","CA",90005,34.0584103200001,-118.304167227,445,"765 S HARVARD BLVD STE 200, LOS ANGELES, CA, 90005","Match","Non_Exact","765 S HARVARD BLVD, LOS ANGELES, CA, 90005",141604017,"R"
287946,"765 SKIPPER DRIVE","ATLANTA","GA",30318,33.7758280470001,-84.490387009,446,"765 SKIPPER DRIVE, ATLANTA, GA, 30318","Match","Non_Exact","765 SKIPPER DR NW, ATLANTA, GA, 30318",17336812,"R"
287947,"765 SMYRNA LANDING ROAD","SMYRNA","DE",19977,39.3325294800001,-75.6089106219999,447,"765 SMYRNA LANDING ROAD, SMYRNA, DE, 19977","Match","Exact","765 SMYRNA LANDING RD, SMYRNA, DE, 19977",187250458,"R"
287948,"765 STORY ROAD","SAN JOSE","CA",95122,37.328672645,-121.859668026,448,"765 STORY ROAD, SAN JOSE, CA, 95122","Match","Exact","765 STORY RD, SAN JOSE, CA, 95122",122909190,"L"
287949,"765 STRAWBERRY HILL DR","GLENCOE","IL",60022,42.133493188,-87.776751084,449,"765 STRAWBERRY HILL DR, GLENCOE, IL, 60022","Match","Exact","765 STRAWBERRY HILL DR, GLENCOE, IL, 60022",111840317,"R"
287950,"765 SW DALTON CIRCLE","PORT ST LUCIE","FL",34953,27.2628836230001,-80.3705419039999,450,"765 SW DALTON CIRCLE, PORT ST LUCIE, FL, 34953","Match","Exact","765 SW DALTON CIR, PORT ST LUCIE, FL, 34953",610712368,"L"
287951,"765 SW PORTAL ST","MOUNTAIN HOME","ID",83647,43.11024208,-115.693772364,451,"765 SW PORTAL ST, MOUNTAIN HOME, ID, 83647","Match","Exact","765 SW PORTAL ST, MOUNTAIN HOME, ID, 83647",618149428,"L"
287952,"765 TALON TRAIL","BROOKFIELD","WI",53045,43.023999013,-88.137577157,452,"765 TALON TRAIL, BROOKFIELD, WI, 53045","Match","Exact","765 TALON TRL, BROOKFIELD, WI, 53045",627098425,"R"
287953,"765 TRAMORE PL","ALPHARETTA","GA",30004,34.1152002370001,-84.337949996,453,"765 TRAMORE PL, ALPHARETTA, GA, 30004","Match","Exact","765 TRAMORE PL, ALPHARETTA, GA, 30004",625119695,"L"
287954,"765 W   WESTCHESTER  PKWY    541072","GRAND PRAIRIE","TX",75054,NA,NA,454,"765 W   WESTCHESTER  PKWY    541072, GRAND PRAIRIE, TX, 75054","No_Match",NA,NA,NA,NA
287955,"765 W 570 S","RICHFIELD","UT",84701,38.7601484840001,-112.098173372,455,"765 W 570 S, RICHFIELD, UT, 84701","Match","Exact","765 W 570 S, RICHFIELD, UT, 84701",175337941,"R"
287956,"765 W LIMBERLOST DRIVE APARTMENT 35","TUCSON","AZ",85705,32.2828952150001,-110.984309608,456,"765 W LIMBERLOST DRIVE APARTMENT 35, TUCSON, AZ, 85705","Match","Non_Exact","765 W LIMBERLOST DR, TUCSON, AZ, 85705",121166228,"L"
287957,"765 W REVERE RIDGE DRIVE H12","RIVERTON","UT",84065,40.478034893,-111.91322605,457,"765 W REVERE RIDGE DRIVE H12, RIVERTON, UT, 84065","Match","Non_Exact","765 W REVERE RIDGE DR, RIVERTON, UT, 84065",641821905,"R"
287958,"765 W WESTCHESTER PKWY NUM 541343","GRAND PRAIRIE","TX",75052,32.6721950210001,-97.014620618,458,"765 W WESTCHESTER PKWY NUM 541343, GRAND PRAIRIE, TX, 75052","Match","Non_Exact","765 W WESTCHESTER PKWY, GRAND PRAIRIE, TX, 75052",103190945,"R"
287959,"765 WESTMORE ROAD","DAVIS","IL",61019,42.4429912850001,-89.404934291,459,"765 WESTMORE ROAD, DAVIS, IL, 61019","Match","Exact","765 WESTMORE RD, DAVIS, IL, 61019",32691439,"R"
287960,"765 WOODLAND AVE SE","ATLANTA","GA",30316,33.7332703340001,-84.351381815,460,"765 WOODLAND AVE SE, ATLANTA, GA, 30316","Match","Exact","765 WOODLAND AVE SE, ATLANTA, GA, 30316",17358758,"R"
287961,"765 WOODLEA DRIVE","OTSEGO","MI",49078,42.476115942,-85.699617519,461,"765 WOODLEA DRIVE, OTSEGO, MI, 49078","Match","Exact","765 WOODLEA DR, OTSEGO, MI, 49078",11428322,"R"
287962,"765","EAST BERNSTADT","KY",40729,NA,NA,462,"765, EAST BERNSTADT, KY, 40729","No_Match",NA,NA,NA,NA
287963,"7650 145TH AVENUE","MILACA","MN",56353,45.6585590620001,-93.707990895,463,"7650 145TH AVENUE, MILACA, MN, 56353","Match","Exact","7650 145TH AVE, MILACA, MN, 56353",163071027,"R"
287964,"7650 72ND AVE N","PINELLAS PARK","FL",33781,27.837927779,-82.743537953,464,"7650 72ND AVE N, PINELLAS PARK, FL, 33781","Match","Exact","7650 72ND AVE N, PINELLAS PARK, FL, 33781",615266812,"L"
287965,"7650 AMHERST STREET","SACRAMENTO","CA",95832,38.479226871,-121.501303576,465,"7650 AMHERST STREET, SACRAMENTO, CA, 95832","Match","Exact","7650 AMHERST ST, SACRAMENTO, CA, 95832",133350499,"R"
287966,"7650 COTTONWOOD ST","FRISCO","TX",75033,33.1597208700001,-96.819237421,466,"7650 COTTONWOOD ST, FRISCO, TX, 75033","Match","Exact","7650 COTTONWOOD ST, FRISCO, TX, 75033",123482789,"R"
287967,"7650 COURTNEY OAKS DR APT 2034","FORT WORTH","TX",76112,32.758335216,-97.190223089,467,"7650 COURTNEY OAKS DR APT 2034, FORT WORTH, TX, 76112","Match","Exact","7650 COURTNEY OAKS DR, FORT WORTH, TX, 76112",101901192,"R"
287968,"7650 E FLEDGLING DRIVE","SCOTTSDALE","CO",85255,NA,NA,468,"7650 E FLEDGLING DRIVE, SCOTTSDALE, CO, 85255","No_Match",NA,NA,NA,NA
287969,"7650 HAWKS RDG","MACHESNEY PARK","IL",61115,42.3709487090001,-89.013139573,469,"7650 HAWKS RDG, MACHESNEY PARK, IL, 61115","Match","Non_Exact","7650 HAWKS RIDGE RD, MACHESNEY PARK, IL, 61115",49286772,"L"
287970,"7650 JERRY CITY ROAD","BLOOMDALE","OH",44817,41.253335185,-83.551776245,470,"7650 JERRY CITY ROAD, BLOOMDALE, OH, 44817","Match","Exact","7650 JERRY CITY RD, BLOOMDALE, OH, 44817",38721406,"L"
287971,"7650 MCCALLUM BLVD APT 1801","DALLAS","TX",75252,32.9878828060001,-96.7748480769999,471,"7650 MCCALLUM BLVD APT 1801, DALLAS, TX, 75252","Match","Exact","7650 MCCALLUM BLVD, DALLAS, TX, 75252",123484888,"R"
287972,"7650 N PALM AVENUE SUITE 101","FRESNO","CA",93711,36.848284391,-119.807397677,472,"7650 N PALM AVENUE SUITE 101, FRESNO, CA, 93711","Match","Non_Exact","7650 N PALM AVE, FRESNO, CA, 93711",642722921,"R"
287973,"7650 ROSEMARY LN","ATHENS","OH",45701,39.3108125700001,-82.150503101,473,"7650 ROSEMARY LN, ATHENS, OH, 45701","Match","Exact","7650 ROSEMARY LN, ATHENS, OH, 45701",625342944,"L"
287974,"7650 S EURO DRIVE APT B307","MIDVALE","UT",84047,40.611798611,-111.918295518,474,"7650 S EURO DRIVE APT B307, MIDVALE, UT, 84047","Match","Non_Exact","7650 S EURO DR, MIDVALE, UT, 84047",651118527,"L"
287975,"7650 S FILLMORE WAY","LITTLETON","CO",80122,39.5775238000001,-104.955067916,475,"7650 S FILLMORE WAY, LITTLETON, CO, 80122","Match","Exact","7650 S FILLMORE WAY, LITTLETON, CO, 80122",177544869,"L"
287976,"7650 S MCCLINTOCK DR STE 103-415","TEMPE","AZ",85284,33.3482749130001,-111.911180757,476,"7650 S MCCLINTOCK DR STE 103-415, TEMPE, AZ, 85284","Match","Non_Exact","7650 S MCCLINTOCK DR, TEMPE, AZ, 85284",128942681,"R"
287977,"7650 S WOLCOTT AVE","CHICAGO","IL",60620,41.7547854790001,-87.670837686,477,"7650 S WOLCOTT AVE, CHICAGO, IL, 60620","Match","Exact","7650 S WOLCOTT AVE, CHICAGO, IL, 60620",111820709,"R"
287978,"7650 SISK CULBRETH ROAD","GODWIN","NC",28344,35.2135944500001,-78.685529029,478,"7650 SISK CULBRETH ROAD, GODWIN, NC, 28344","Match","Exact","7650 SISK CULBRETH RD, GODWIN, NC, 28344",64266219,"R"
287979,"7650 SW 81ST AVE","PORTLAND","OR",97223,45.465335806,-122.760299536,479,"7650 SW 81ST AVE, PORTLAND, OR, 97223","Match","Exact","7650 SW 81ST AVE, PORTLAND, OR, 97223",158187992,"L"
287980,"7650 W SUMMER SKY DRIVE","TUCSON","AZ",85743,32.369647167,-111.12818253,480,"7650 W SUMMER SKY DRIVE, TUCSON, AZ, 85743","Match","Exact","7650 W SUMMER SKY DR, TUCSON, AZ, 85743",121222343,"L"
287981,"7651 GATE PKWY APT 1412","JACKSONVILLE","FL",32256,30.239237658,-81.519830606,481,"7651 GATE PKWY APT 1412, JACKSONVILLE, FL, 32256","Match","Exact","7651 GATE PKWY, JACKSONVILLE, FL, 32256",83962401,"L"
287982,"7651 N TOPINABEE ROAD","WALKERTON","IN",46574,41.4133164450001,-86.487677471,482,"7651 N TOPINABEE ROAD, WALKERTON, IN, 46574","Match","Exact","7651 N TOPINABEE RD, WALKERTON, IN, 46574",8249118,"L"
287983,"7651 W HOPE AVENUE","MILWAUKEE","WI",53222,43.094427577,-88.008589176,483,"7651 W HOPE AVENUE, MILWAUKEE, WI, 53222","Match","Exact","7651 W HOPE AVE, MILWAUKEE, WI, 53222",77730273,"L"
287984,"7651 W NORTH CAROLINA 10","VALE","NC",28168,NA,NA,484,"7651 W NORTH CAROLINA 10, VALE, NC, 28168","No_Match",NA,NA,NA,NA
287985,"7652 HOLLYRIDGE CIR","JACKSONVILLE","FL",32256,30.2322393580001,-81.545515199,485,"7652 HOLLYRIDGE CIR, JACKSONVILLE, FL, 32256","Match","Exact","7652 HOLLYRIDGE CIR, JACKSONVILLE, FL, 32256",83920852,"R"
287986,"7652 SAWMILL RD STE 360","DUBLIN","OH",43016,40.1225632260001,-83.090173297,486,"7652 SAWMILL RD STE 360, DUBLIN, OH, 43016","Match","Exact","7652 SAWMILL RD, DUBLIN, OH, 43016",640026453,"R"
287987,"7652 SAWMILL RD SUITE 222","DUBLIN","OH",43016,40.1225632260001,-83.090173297,487,"7652 SAWMILL RD SUITE 222, DUBLIN, OH, 43016","Match","Exact","7652 SAWMILL RD, DUBLIN, OH, 43016",640026453,"R"
287988,"7652 WOODBINE DRIVE","LAUREL","MD",20707,39.108309928,-76.875233532,488,"7652 WOODBINE DRIVE, LAUREL, MD, 20707","Match","Exact","7652 WOODBINE DR, LAUREL, MD, 20707",76371613,"L"
287989,"7653 WATSON SEED FARM ROAD","WHITAKERS","NC",27891,36.0814680330001,-77.855482094,489,"7653 WATSON SEED FARM ROAD, WHITAKERS, NC, 27891","Match","Exact","7653 WATSON SEED FARM RD, WHITAKERS, NC, 27891",636706304,"L"
287990,"7654 ARCOLA AVENUE","SUN VALLEY","CA",91352,34.2099121840001,-118.35305945,490,"7654 ARCOLA AVENUE, SUN VALLEY, CA, 91352","Match","Exact","7654 ARCOLA AVE, SUN VALLEY, CA, 91352",141587055,"R"
287991,"7654 GIFFORD STREET APT 104","NORFOLK","VA",23518,36.913985934,-76.2321264299999,491,"7654 GIFFORD STREET APT 104, NORFOLK, VA, 23518","Match","Exact","7654 GIFFORD ST, NORFOLK, VA, 23518",122141665,"R"
287992,"7654 N 19TH AVE","PHOENIX","AZ",85021,33.548709826,-112.099651073,492,"7654 N 19TH AVE, PHOENIX, AZ, 85021","Match","Non_Exact","7654 N 19TH AVE, PHOENIX, AZ, 85021",128918496,"L"
287993,"7654 WOODCREST AVE","PHILADELPHIA","PW",19151,NA,NA,493,"7654 WOODCREST AVE, PHILADELPHIA, PW, 19151","No_Match",NA,NA,NA,NA
287994,"7655  ALEXANDERS RIDGE COVE","OLIVE BRANCH","MS",38654,34.971990685,-89.81575126,494,"7655  ALEXANDERS RIDGE COVE, OLIVE BRANCH, MS, 38654","Match","Exact","7655 ALEXANDERS RIDGE COVE, OLIVE BRANCH, MS, 38654",91840799,"L"
287995,"7655 264TH STREET","GLEN OAKS","NY",11004,NA,NA,495,"7655 264TH STREET, GLEN OAKS, NY, 11004","No_Match",NA,NA,NA,NA
287996,"7655 COPPERSHELL STREET","BLACKLICK","OH",43004,39.998152227,-82.800191274,496,"7655 COPPERSHELL STREET, BLACKLICK, OH, 43004","Match","Exact","7655 COPPERSHELL ST, BLACKLICK, OH, 43004",218700388,"L"
287997,"7655 CURSON TERRACE","WEST HOLLYWOOD","CA",90046,34.1047040290001,-118.35575858,497,"7655 CURSON TERRACE, WEST HOLLYWOOD, CA, 90046","Match","Exact","7655 CURSON TER, W HOLLYWOOD, CA, 90046",141594018,"R"
287998,"7655 FOY AVENUE","CERES","CA",95307,37.5266858360001,-121.010357979,498,"7655 FOY AVENUE, CERES, CA, 95307","Match","Exact","7655 FOY AVE, CERES, CA, 95307",102592941,"R"
287999,"7655 GOLDEN LANTERN CT","LAS VEGAS","NV",89139,36.049781088,-115.236714179,499,"7655 GOLDEN LANTERN CT, LAS VEGAS, NV, 89139","Match","Exact","7655 GOLDEN LANTERN CT, LAS VEGAS, NV, 89139",202002008,"R"
288000,"7655 GREENWOOD","JACKSON","MI",49201,42.269944164,-84.2772625969999,500,"7655 GREENWOOD, JACKSON, MI, 49201","Match","Non_Exact","7655 GREENWOOD RD, JACKSON, MI, 49201",631977128,"R"
