"ID","Address","City","State","Zip","lat","long","id","input_address","match_indicator","match_type","matched_address","tiger_line_id","tiger_side"
268001,"658 W TRAMONTO DR","MOUNTAIN HOUSE","CA",95391,37.7876171300001,-121.554114811,1,"658 W TRAMONTO DR, MOUNTAIN HOUSE, CA, 95391","Match","Exact","658 W TRAMONTO DR, MOUNTAIN HOUSE, CA, 95391",624719357,"R"
268002,"658 WILDERNESS PEAK DRIVE NW","ISSAQUAH","WA",98027,47.537031755,-122.068712925,2,"658 WILDERNESS PEAK DRIVE NW, ISSAQUAH, WA, 98027","Match","Exact","658 WILDERNESS PEAK DR NW, ISSAQUAH, WA, 98027",187074554,"R"
268003,"658 WIRE RD SW","THOMSON","GA",30824,33.4430773670001,-82.5195551899999,3,"658 WIRE RD SW, THOMSON, GA, 30824","Match","Non_Exact","658 WIRE RD, THOMSON, GA, 30824",43150474,"L"
268004,"6580 BELLA WOOD LANE","SACRAMENTO","CA",95822,38.507388,-121.504587468,4,"6580 BELLA WOOD LANE, SACRAMENTO, CA, 95822","Match","Non_Exact","6580 BELLEAU WOOD LN, SACRAMENTO, CA, 95822",133323262,"R"
268005,"6580 E CALLE DENED","TUCSON","AZ",85710,32.197893102,-110.853172232,5,"6580 E CALLE DENED, TUCSON, AZ, 85710","Match","Non_Exact","6580 E CLL DENED, TUCSON, AZ, 85710",121181827,"R"
268006,"6580 EAST RAINES RD","MEMPHIS","TN",38115,35.034961389,-89.843877528,6,"6580 EAST RAINES RD, MEMPHIS, TN, 38115","Match","Exact","6580 E RAINES RD, MEMPHIS, TN, 38115",72953929,"L"
268007,"6580 EVESHAM CIR","CITRUS HEIGHTS","CA",95621,38.6837303990001,-121.309678414,7,"6580 EVESHAM CIR, CITRUS HEIGHTS, CA, 95621","Match","Exact","6580 EVESHAM CIR, CITRUS HEIGHTS, CA, 95621",133427034,"R"
268008,"6580 OAK MILL CT","MORROW","GA",30260,NA,NA,8,"6580 OAK MILL CT, MORROW, GA, 30260","Tie",NA,NA,NA,NA
268009,"6580 PALMETTO CT","MASON","OH",45040,39.3876502370001,-84.3322850229999,9,"6580 PALMETTO CT, MASON, OH, 45040","Match","Non_Exact","6580 PALMETTO DR, MASON, OH, 45040",617731049,"L"
268010,"6580 POPLAR AVE 908","GERMANTOWN","TN",38138,35.0989792450001,-89.843644764,10,"6580 POPLAR AVE 908, GERMANTOWN, TN, 38138","Match","Exact","6580 POPLAR AVE, GERMANTOWN, TN, 38138",613868288,"L"
268011,"6580 STONEY POINT N","NORFOLK","VA",23502,36.8518182020001,-76.1821093299999,11,"6580 STONEY POINT N, NORFOLK, VA, 23502","Match","Exact","6580 STONEY PT N, NORFOLK, VA, 23502",122130445,"L"
268012,"6580 VALLEY CENTER DR - SUITE 124","RADFORD","VA",24073,37.1476338350001,-80.5431533459999,12,"6580 VALLEY CENTER DR - SUITE 124, RADFORD, VA, 24073","Match","Non_Exact","6580 VALLEY CENTER DR, RADFORD, VA, 24141",625072101,"R"
268013,"6581 BEECHWOOD AVE","PORTAGE","IL",46368,NA,NA,13,"6581 BEECHWOOD AVE, PORTAGE, IL, 46368","No_Match",NA,NA,NA,NA
268014,"6581 DAKOTA DRIVE","WEST DES MOINES","IA",50266,41.5787842500001,-93.7986150039999,14,"6581 DAKOTA DRIVE, WEST DES MOINES, IA, 50266","Match","Exact","6581 DAKOTA DR, WEST DES MOINES, IA, 50266",65642147,"R"
268015,"6581 DOMINICA DR UNIT 101","NAPLES","FL",34113,26.100494709,-81.748787135,15,"6581 DOMINICA DR UNIT 101, NAPLES, FL, 34113","Match","Exact","6581 DOMINICA DR, NAPLES, FL, 34113",648385546,"L"
268016,"6581 E BRECKENRIDGE WAY","FLAGSTAFF","AZ",86004,35.198260266,-111.566709938,16,"6581 E BRECKENRIDGE WAY, FLAGSTAFF, AZ, 86004","Match","Exact","6581 E BRECKENRIDGE WAY, FLAGSTAFF, AZ, 86004",648166836,"R"
268017,"6581 FAWN RIDGE","JONES","OK",73049,35.539638999,-97.288524635,17,"6581 FAWN RIDGE, JONES, OK, 73049","Match","Exact","6581 FAWN RIDGE, JONES, OK, 73049",646783376,"L"
268018,"6581 KINNE ROAD PO BOX 233","DEWITT","NY",13214,43.0428477610001,-76.0648107169999,18,"6581 KINNE ROAD PO BOX 233, DEWITT, NY, 13214","Match","Non_Exact","6581 KINNE RD, DE WITT, NY, 13214",46606449,"L"
268019,"6581 KINNE ROAD SUITE 151","DEWITT","NY",13214,43.0428477610001,-76.0648107169999,19,"6581 KINNE ROAD SUITE 151, DEWITT, NY, 13214","Match","Non_Exact","6581 KINNE RD, DE WITT, NY, 13214",46606449,"L"
268020,"6581 MICHELL ROAD","SHINGLE SPRINGS","CA",95682,NA,NA,20,"6581 MICHELL ROAD, SHINGLE SPRINGS, CA, 95682","No_Match",NA,NA,NA,NA
268021,"6581 N LAKEWOOD AVE APT 1","CHICAGO","IL",60626,42.002187329,-87.663518444,21,"6581 N LAKEWOOD AVE APT 1, CHICAGO, IL, 60626","Match","Non_Exact","6581 N LAKEWOOD AVE, CHICAGO, IL, 60626",605166100,"R"
268022,"6581 NW 60TH STREET","OCALA","FL",34482,29.2494539680001,-82.228274519,22,"6581 NW 60TH STREET, OCALA, FL, 34482","Match","Non_Exact","6581 NW 60TH ST, OCALA, FL, 34482",116806739,"R"
268023,"6582 GREENSWAY LOOP","DUBLIN","OH",43016,40.132114098,-83.1644087339999,23,"6582 GREENSWAY LOOP, DUBLIN, OH, 43016","Match","Exact","6582 GREENSWAY LOOP, DUBLIN, OH, 43016",218696546,"R"
268024,"6582 HWY 8 W","ARKADELPHIA","AR",71923,NA,NA,24,"6582 HWY 8 W, ARKADELPHIA, AR, 71923","No_Match",NA,NA,NA,NA
268025,"6582 NW 2ND ST","MARGATE","FL",33063,26.2324215100001,-80.2126368139999,25,"6582 NW 2ND ST, MARGATE, FL, 33063","Match","Exact","6582 NW 2ND ST, MARGATE, FL, 33063",114692746,"L"
268026,"6582 NW CONNERY TERM","PORTLAND","OR",97229,NA,NA,26,"6582 NW CONNERY TERM, PORTLAND, OR, 97229","No_Match",NA,NA,NA,NA
268027,"6582 PENNANEN PLACE","FORT SILL","OK",73503,34.6432448800001,-98.41893373,27,"6582 PENNANEN PLACE, FORT SILL, OK, 73503","Match","Exact","6582 PENNANEN PL, FORT SILL, OK, 73503",651932491,"R"
268028,"6583 IRVIN COURT","ALEXANDRIA","VA",22312,38.8219943820001,-77.165299794,28,"6583 IRVIN COURT, ALEXANDRIA, VA, 22312","Match","Exact","6583 IRVIN CT, ALEXANDRIA, VA, 22312",76023542,"L"
268029,"6583 N HARVEST LANE","STANSBURY PARK","UT",84074,40.6487251,-112.291981212,29,"6583 N HARVEST LANE, STANSBURY PARK, UT, 84074","Match","Non_Exact","6583 N HARVEST DR, STANSBURY PARK, UT, 84074",607228547,"L"
268030,"6583 OVERHEART LN","COLUMBIA","MD",21045,39.1921328080001,-76.846577914,30,"6583 OVERHEART LN, COLUMBIA, MD, 21045","Match","Exact","6583 OVERHEART LN, COLUMBIA, MD, 21045",158925962,"R"
268031,"6583 RACQUET CLUB DRIVE","LAUDERHILL","FL",33319,26.168569271,-80.236069702,31,"6583 RACQUET CLUB DRIVE, LAUDERHILL, FL, 33319","Match","Exact","6583 RACQUET CLUB DR, LAUDERHILL, FL, 33319",114703238,"R"
268032,"6583 RIVERBEND DR","DAYTON","OH",45415,39.8350459100001,-84.22786891,32,"6583 RIVERBEND DR, DAYTON, OH, 45415","Match","Exact","6583 RIVERBEND DR, DAYTON, OH, 45415",617266555,"L"
268033,"6583 S KEARNEY CIRCLE","CENTENNIAL","CO",80111,39.597230859,-104.917195272,33,"6583 S KEARNEY CIRCLE, CENTENNIAL, CO, 80111","Match","Exact","6583 S KEARNEY CIR, CENTENNIAL, CO, 80111",177345812,"R"
268034,"6584 AXTON LN","DALLAS","TX",75214,32.847056282,-96.7472205939999,34,"6584 AXTON LN, DALLAS, TX, 75214","Match","Exact","6584 AXTON LN, DALLAS, TX, 75214",102918293,"R"
268035,"6584 NORTH GLENSFORD DRIVE","COEUR D ALENE","ID",83815,NA,NA,35,"6584 NORTH GLENSFORD DRIVE, COEUR D ALENE, ID, 83815","No_Match",NA,NA,NA,NA
268036,"6584 POPLAR AVE FL 2 NUM 7","MEMPHIS","TN",38138,35.098961117,-89.843542397,36,"6584 POPLAR AVE FL 2 NUM 7, MEMPHIS, TN, 38138","Match","Exact","6584 POPLAR AVE, MEMPHIS, TN, 38138",613868288,"L"
268037,"6584 ROMA WAY","NAPLES","FL",34113,26.1060938960001,-81.710286916,37,"6584 ROMA WAY, NAPLES, FL, 34113","Match","Exact","6584 ROMA WAY, NAPLES, FL, 34113",646535813,"R"
268038,"6585 EAST LIVINGSTON AVE","REYNOLDSBURG","OH",43068,39.943222796,-82.819832972,38,"6585 EAST LIVINGSTON AVE, REYNOLDSBURG, OH, 43068","Match","Exact","6585 E LIVINGSTON AVE, REYNOLDSBURG, OH, 43068",135594883,"R"
268039,"6585 HIGH ST SUITE 11","LAS VEGAS","FL",89113,NA,NA,39,"6585 HIGH ST SUITE 11, LAS VEGAS, FL, 89113","No_Match",NA,NA,NA,NA
268040,"6585 HIGH STREET SUITE 219","LAS VEGAS","NV",89113,NA,NA,40,"6585 HIGH STREET SUITE 219, LAS VEGAS, NV, 89113","No_Match",NA,NA,NA,NA
268041,"6585 HIGHWAY 431 SOUTH","OWENS CROSS ROADS","AL",35763,NA,NA,41,"6585 HIGHWAY 431 SOUTH, OWENS CROSS ROADS, AL, 35763","No_Match",NA,NA,NA,NA
268042,"6585 HORN LAKE RD","HORN LAKE","MS",38637,34.957305994,-90.060710194,42,"6585 HORN LAKE RD, HORN LAKE, MS, 38637","Match","Exact","6585 HORN LAKE RD, HORN LAKE, MS, 38637",91842011,"R"
268043,"6586 ALBERT CT","LINO LAKES","MN",55038,45.145071473,-93.028867771,43,"6586 ALBERT CT, LINO LAKES, MN, 55038","Match","Exact","6586 ALBERT CT, LINO LAKES, MN, 55038",97509497,"R"
268044,"6586 FM 1130","ORANGE","TX",77632,NA,NA,44,"6586 FM 1130, ORANGE, TX, 77632","No_Match",NA,NA,NA,NA
268045,"6586 HYPOLUXO RD 305","LAKE WORTH","FL",33467,26.5725646810001,-80.149126764,45,"6586 HYPOLUXO RD 305, LAKE WORTH, FL, 33467","Match","Exact","6586 HYPOLUXO RD, LAKE WORTH, FL, 33467",115558165,"R"
268046,"6586 HYPOLUXO RD STE 230","LAKE WORTH","FL",33467,26.5725646810001,-80.149126764,46,"6586 HYPOLUXO RD STE 230, LAKE WORTH, FL, 33467","Match","Exact","6586 HYPOLUXO RD, LAKE WORTH, FL, 33467",115558165,"R"
268047,"6586 HYPOLUXO ROAD 192","LAKE WORTH","FL",33467,26.5725646810001,-80.149126764,47,"6586 HYPOLUXO ROAD 192, LAKE WORTH, FL, 33467","Match","Exact","6586 HYPOLUXO RD, LAKE WORTH, FL, 33467",115558165,"R"
268048,"6586 HYPOLUXO ROAD BOX 227","LAKE WORTH","FL",33467,26.5725646810001,-80.149126764,48,"6586 HYPOLUXO ROAD BOX 227, LAKE WORTH, FL, 33467","Match","Exact","6586 HYPOLUXO RD, LAKE WORTH, FL, 33467",115558165,"R"
268049,"6586 POPLAR WOODS CIRCLE S APT 1","GERMANTOWN","TN",38138,35.0973003240001,-89.843548316,49,"6586 POPLAR WOODS CIRCLE S APT 1, GERMANTOWN, TN, 38138","Match","Exact","6586 POPLAR WOODS CIR S, GERMANTOWN, TN, 38138",607443622,"L"
268050,"6586 S ANISE CT","DAVIE","FL",33314,NA,NA,50,"6586 S ANISE CT, DAVIE, FL, 33314","No_Match",NA,NA,NA,NA
268051,"6586 W ORAIBI DR","GLENDALE","AZ",85308,33.66157908,-112.200488878,51,"6586 W ORAIBI DR, GLENDALE, AZ, 85308","Match","Exact","6586 W ORAIBI DR, GLENDALE, AZ, 85308",128395350,"R"
268052,"6587 E VIA BOCA GRANDE","TUCSON","AZ",85756,32.1221581520001,-110.851965033,52,"6587 E VIA BOCA GRANDE, TUCSON, AZ, 85756","Match","Exact","6587 E VIA BOCA GRANDE, TUCSON, AZ, 85756",648005527,"R"
268053,"6587 S MERIDIAN RD","BANNISTER","MI",48807,NA,NA,53,"6587 S MERIDIAN RD, BANNISTER, MI, 48807","No_Match",NA,NA,NA,NA
268054,"6588 HOOPER ROAD","BATON ROUGE","LA",70811,30.526603708,-91.1243481079999,54,"6588 HOOPER ROAD, BATON ROUGE, LA, 70811","Match","Exact","6588 HOOPER RD, BATON ROUGE, LA, 70811",639279228,"R"
268055,"6588 MILL POND ROAD","BATTLEBORO","NC",27809,36.0605505280001,-77.8631202669999,55,"6588 MILL POND ROAD, BATTLEBORO, NC, 27809","Match","Exact","6588 MILL POND RD, BATTLEBORO, NC, 27809",90402131,"R"
268056,"6589 DRY LAKE RD","QUITMAN","GA",31643,30.8114855740001,-83.616726579,56,"6589 DRY LAKE RD, QUITMAN, GA, 31643","Match","Exact","6589 DRY LAKE RD, QUITMAN, GA, 31643",642517519,"R"
268057,"6589 EDGEMOOR WAY","SAN JOSE","CA",95129,37.3048879180001,-122.020246649,57,"6589 EDGEMOOR WAY, SAN JOSE, CA, 95129","Match","Exact","6589 EDGEMOOR WAY, SAN JOSE, CA, 95129",122940758,"R"
268058,"6589 FISHER RD","WAUNAKEE","WI",53597,43.1517615980001,-89.4997256509999,58,"6589 FISHER RD, WAUNAKEE, WI, 53597","Match","Exact","6589 FISHER RD, WAUNAKEE, WI, 53597",49493190,"L"
268059,"6589 N CHESTNUT ST","RAVENNA","OH",44266,41.169513055,-81.2436547999999,59,"6589 N CHESTNUT ST, RAVENNA, OH, 44266","Match","Exact","6589 N CHESTNUT ST, RAVENNA, OH, 44266",208687804,"L"
268060,"6589 N MILAN RD","MILAN","IN",47031,NA,NA,60,"6589 N MILAN RD, MILAN, IN, 47031","No_Match",NA,NA,NA,NA
268061,"6589 NORTH CHESTNUT STREET","RAVENNA","OH",44266,41.169513055,-81.2436547999999,61,"6589 NORTH CHESTNUT STREET, RAVENNA, OH, 44266","Match","Exact","6589 N CHESTNUT ST, RAVENNA, OH, 44266",208687804,"L"
268062,"6589 WATERTON AVE","ATLANTA","GA",30331,33.681075256,-84.6013940409999,62,"6589 WATERTON AVE, ATLANTA, GA, 30331","Match","Exact","6589 WATERTON AVE, ATLANTA, GA, 30331",628066559,"L"
268063,"65895 AVENIDA CADENA","DESERT HOT SPRINGS","CA",92240,33.978374177,-116.512172308,63,"65895 AVENIDA CADENA, DESERT HOT SPRINGS, CA, 92240","Match","Exact","65895 AVE CADENA, DESERT HOT SPRINGS, CA, 92240",647390358,"L"
268064,"659 153RD ST","ROBERTS","WI",54023,44.958022885,-92.492769766,64,"659 153RD ST, ROBERTS, WI, 54023","Match","Exact","659 153RD ST, ROBERTS, WI, 54023",612041329,"R"
268065,"659 3RD AVE SUITE B","CHULA VISTA","CA",91910,32.6289594890001,-117.075076418,65,"659 3RD AVE SUITE B, CHULA VISTA, CA, 91910","Match","Exact","659 3RD AVE, CHULA VISTA, CA, 91910",195356338,"L"
268066,"659 ANN ST","DOLTON","IL",60419,41.634529206,-87.60527676,66,"659 ANN ST, DOLTON, IL, 60419","Match","Exact","659 ANN ST, DOLTON, IL, 60419",111778410,"R"
268067,"659 ANTIGUA STREET NE","PALM BAY","FL",32907,28.003082271,-80.654884463,67,"659 ANTIGUA STREET NE, PALM BAY, FL, 32907","Match","Exact","659 ANTIGUA ST NE, PALM BAY, FL, 32907",93908429,"R"
268068,"659 AUBURN AVE NE STE 158","ATLANTA","GA",30312,33.7570026600001,-84.366338882,68,"659 AUBURN AVE NE STE 158, ATLANTA, GA, 30312","Match","Exact","659 AUBURN AVE NE, ATLANTA, GA, 30312",639073462,"R"
268069,"659 BOULEVARD","DOVER","OH",44622,40.513813584,-81.4564844179999,69,"659 BOULEVARD, DOVER, OH, 44622","Match","Non_Exact","659 BOULEVARD ST, DOVER, OH, 44622",612293160,"R"
268070,"659 CASTLEBROOK DRIVE","ST. PETERS","MO",63376,38.763696661,-90.677129072,70,"659 CASTLEBROOK DRIVE, ST. PETERS, MO, 63376","Match","Exact","659 CASTLEBROOK DR, SAINT PETERS, MO, 63376",628741364,"R"
268071,"659 CHAPEL ROAD","ALIQUIPPA","PA",15001,40.639224599,-80.2906771739999,71,"659 CHAPEL ROAD, ALIQUIPPA, PA, 15001","Match","Exact","659 CHAPEL RD, ALIQUIPPA, PA, 15001",52563033,"L"
268072,"659 COLSON DR","KEY LARGO","FL",33037,25.129176569,-80.411078,72,"659 COLSON DR, KEY LARGO, FL, 33037","Match","Exact","659 COLSON DR, KEY LARGO, FL, 33037",116487226,"L"
268073,"659 COURSER ROAD","ENOSBURG FALLS","VT",5450,44.8620302670001,-72.739700602,73,"659 COURSER ROAD, ENOSBURG FALLS, VT, 5450","Match","Exact","659 COURSER RD, ENOSBURG FALLS, VT, 05450",136526033,"L"
268074,"659 CREEK NATION ROAD","JEFFERSON","GA",30549,34.109046672,-83.6597727769999,74,"659 CREEK NATION ROAD, JEFFERSON, GA, 30549","Match","Exact","659 CREEK NATION RD, JEFFERSON, GA, 30549",619856346,"L"
268075,"659 DONALD C MOORE DR","LEBANON","VA",24266,36.884284639,-82.1165262339999,75,"659 DONALD C MOORE DR, LEBANON, VA, 24266","Match","Exact","659 DONALD C MOORE DR, LEBANON, VA, 24266",636848710,"R"
268076,"659 E MAIN ST","MESA","AZ",85203,33.4150969290001,-111.816814864,76,"659 E MAIN ST, MESA, AZ, 85203","Match","Exact","659 E MAIN ST, MESA, AZ, 85203",128245259,"R"
268077,"659 LUMMISTOWN ROAD","CEDARVILLE","NJ",8311,39.349981396,-75.168140357,77,"659 LUMMISTOWN ROAD, CEDARVILLE, NJ, 8311","Match","Exact","659 LUMMISTOWN RD, CEDARVILLE, NJ, 08311",636221333,"R"
268078,"659 MINUTE MEN ROAD","VIRGINIA BEACH","VA",23462,36.8579859590001,-76.1346609939999,78,"659 MINUTE MEN ROAD, VIRGINIA BEACH, VA, 23462","Match","Exact","659 MINUTE MEN RD, VA BCH, VA, 23462",122263545,"L"
268079,"659 N HOSICK CIRCLE","MESA","AZ",85201,33.4292062160001,-111.844919774,79,"659 N HOSICK CIRCLE, MESA, AZ, 85201","Match","Exact","659 N HOSICK CIR, MESA, AZ, 85201",128296335,"L"
268080,"659 NANDINA DR","WESTON","FL",33327,26.1103993450001,-80.412854324,80,"659 NANDINA DR, WESTON, FL, 33327","Match","Exact","659 NANDINA DR, WESTON, FL, 33327",114814178,"L"
268081,"659 NAVAHOPI ROAD","SEDONA","AZ",86336,34.8762860890001,-111.767296579,81,"659 NAVAHOPI ROAD, SEDONA, AZ, 86336","Match","Exact","659 NAVAHOPI RD, SEDONA, AZ, 86336",188949311,"L"
268082,"659 OLD SPANISH TRAIL","SLIDELL","LA",70458,30.2629886140001,-89.781646503,82,"659 OLD SPANISH TRAIL, SLIDELL, LA, 70458","Match","Exact","659 OLD SPANISH TRL, SLIDELL, LA, 70458",111249330,"L"
268083,"659 PARKER ROAD","JASPER","GA",30143,34.428778687,-84.411897778,83,"659 PARKER ROAD, JASPER, GA, 30143","Match","Exact","659 PARKER RD, JASPER, GA, 30143",648862945,"R"
268084,"659 PEARL STREET","MIDDLEPORT","OH",45760,38.9988061220001,-82.054807437,84,"659 PEARL STREET, MIDDLEPORT, OH, 45760","Match","Exact","659 PEARL ST, MIDDLEPORT, OH, 45760",101274902,"L"
268085,"659 RIVER ROAD","RAHWAY","NJ",7065,40.6187245520001,-74.278892513,85,"659 RIVER ROAD, RAHWAY, NJ, 7065","Match","Exact","659 RIVER RD, RAHWAY, NJ, 07065",60602551,"R"
268086,"659 SOUTH A STREET","RICHMOND","IN",47374,39.8272934390001,-84.893421582,86,"659 SOUTH A STREET, RICHMOND, IN, 47374","Match","Exact","659 S A ST, RICHMOND, IN, 47374",31324314,"L"
268087,"659 SUNSET AVENUE UNIT B","VENICE","CA",90291,33.998316425,-118.469088982,87,"659 SUNSET AVENUE UNIT B, VENICE, CA, 90291","Match","Exact","659 SUNSET AVE, VENICE, CA, 90291",141569080,"L"
268088,"659 TRACE FORK ROAD","PANTHER","WV",24872,37.4308466150001,-81.909856862,88,"659 TRACE FORK ROAD, PANTHER, WV, 24872","Match","Exact","659 TRACE FORK RD, PANTHER, WV, 24872",74263784,"R"
268089,"659 W DELRAY DR","CASA GRANDE","AZ",85122,32.9118700870001,-111.765406232,89,"659 W DELRAY DR, CASA GRANDE, AZ, 85122","Match","Exact","659 W DELRAY DR, CASA GRANDE, AZ, 85122",624263176,"R"
268090,"659 W RANDOLPH ST UNIT 602","CHICAGO","IL",60661,41.884419386,-87.6446612299999,90,"659 W RANDOLPH ST UNIT 602, CHICAGO, IL, 60661","Match","Non_Exact","659 W RANDOLPH ST, CHICAGO, IL, 60661",642123224,"L"
268091,"659","NEW YORK","NY",10012,NA,NA,91,"659, NEW YORK, NY, 10012","No_Match",NA,NA,NA,NA
268092,"6590 ARCHING BRANCH CIR","JACKSONVILLE","FL",32258,30.123000016,-81.533184496,92,"6590 ARCHING BRANCH CIR, JACKSONVILLE, FL, 32258","Match","Exact","6590 ARCHING BRANCH CIR, JACKSONVILLE, FL, 32258",640433815,"L"
268093,"6590 BRIDLEWOOD COURT","LAKE GENEVA","WI",53147,42.600433394,-88.383055875,93,"6590 BRIDLEWOOD COURT, LAKE GENEVA, WI, 53147","Match","Exact","6590 BRIDLEWOOD CT, LAKE GENEVA, WI, 53147",618032472,"R"
268094,"6590 LOCKHART LANE","DUBLIN","OH",43017,40.1554740600001,-83.172512796,94,"6590 LOCKHART LANE, DUBLIN, OH, 43017","Match","Exact","6590 LOCKHART LN, DUBLIN, OH, 43017",618731113,"L"
268095,"6590 LONG BEACH BLVD SUITE 261","LONG BEACH","CA",90805,33.87395866,-118.20263596,95,"6590 LONG BEACH BLVD SUITE 261, LONG BEACH, CA, 90805","Match","Exact","6590 LONG BEACH BLVD, LONG BEACH, CA, 90805",141683143,"R"
268096,"6590 S VINE ST SUITE 109","CENTENNIAL","CO",80121,39.597156209,-104.962631498,96,"6590 S VINE ST SUITE 109, CENTENNIAL, CO, 80121","Match","Non_Exact","6590 S VINE ST, CENTENNIAL, CO, 80121",640668447,"L"
268097,"6590 WESTWOOD VILLAGE DR","LUMBERTON","TX",77657,30.267528084,-94.239147793,97,"6590 WESTWOOD VILLAGE DR, LUMBERTON, TX, 77657","Match","Exact","6590 WESTWOOD VILLAGE DR, LUMBERTON, TX, 77657",642822125,"R"
268098,"6591 BOCK TERRACE","OXON HILL","MD",20745,38.8001415580001,-76.982472074,98,"6591 BOCK TERRACE, OXON HILL, MD, 20745","Match","Exact","6591 BOCK TER, OXON HILL, MD, 20745",76315195,"R"
268099,"6591 CONSTANCE ST","LAKE WORTH","FL",33467,26.569819017,-80.148106013,99,"6591 CONSTANCE ST, LAKE WORTH, FL, 33467","Match","Exact","6591 CONSTANCE ST, LAKE WORTH, FL, 33467",115577644,"L"
268100,"6591 MIAMI TRAILS DR","LOVELAND","OH",45140,39.243915588,-84.27674303,100,"6591 MIAMI TRAILS DR, LOVELAND, OH, 45140","Match","Exact","6591 MIAMI TRAILS DR, LOVELAND, OH, 45140",118454981,"R"
268101,"6591 SANDERS ROAD","LOCKPORT","NY",14094,43.107757683,-78.6526077899999,101,"6591 SANDERS ROAD, LOCKPORT, NY, 14094","Match","Exact","6591 SANDERS RD, LOCKPORT, NY, 14094",48692361,"L"
268102,"6592 PORT A PRINCE DRIVE","FOREST PARK","GA",30297,33.574691634,-84.3632223449999,102,"6592 PORT A PRINCE DRIVE, FOREST PARK, GA, 30297","Match","Exact","6592 PORT A PRINCE DR, FOREST PARK, GA, 30297",23316147,"L"
268103,"6592 SOM CT","MAYFIELD VILLAGE","OH",44143,NA,NA,103,"6592 SOM CT, MAYFIELD VILLAGE, OH, 44143","No_Match",NA,NA,NA,NA
268104,"6592 SUPERIOR AVE","SARASOTA","FL",34231,27.260228086,-82.515565336,104,"6592 SUPERIOR AVE, SARASOTA, FL, 34231","Match","Exact","6592 SUPERIOR AVE, SARASOTA, FL, 34231",16354561,"R"
268105,"6593 CHAMPETRE COURT","RENO","NV",89511,39.3625259950001,-119.826314865,105,"6593 CHAMPETRE COURT, RENO, NV, 89511","Match","Exact","6593 CHAMPETRE CT, RENO, NV, 89511",107114024,"R"
268106,"6593 VALLY FORGE DRIVE","WASHINGTON","MI",48094,42.7461844700001,-83.050000083,106,"6593 VALLY FORGE DRIVE, WASHINGTON, MI, 48094","Match","Exact","6593 VALLEY FORGE, WASHINGTON, MI, 48094",110728955,"L"
268107,"6594 DIAMOND HITCH DR","COLORADO SPRINGS","CO",80923,38.9243307340001,-104.687014236,107,"6594 DIAMOND HITCH DR, COLORADO SPRINGS, CO, 80923","Match","Exact","6594 DIAMOND HITCH DR, COLORADO SPRINGS, CO, 80923",643478541,"L"
268108,"6594 MALVIN DR","AUSTELL","GA",30168,33.7937072340001,-84.6014363149999,108,"6594 MALVIN DR, AUSTELL, GA, 30168","Match","Exact","6594 MALVIN DR, AUSTELL, GA, 30168",17174898,"R"
268109,"6594 MOUNTAIN SKY RD","FRISCO","TX",75036,33.1341629360001,-96.880296382,109,"6594 MOUNTAIN SKY RD, FRISCO, TX, 75036","Match","Exact","6594 MOUNTAIN SKY RD, FRISCO, TX, 75036",641536348,"R"
268110,"6594 OAKWOOD DRIVE","DOUGLASVILLE","GA",30135,33.7158147750001,-84.747102576,110,"6594 OAKWOOD DRIVE, DOUGLASVILLE, GA, 30135","Match","Exact","6594 OAKWOOD DR, DOUGLASVILLE, GA, 30135",642633074,"R"
268111,"6594 ROSE ARBOUR AVENUE","KALAMAZOO","MI",49009,42.31424767,-85.679244044,111,"6594 ROSE ARBOUR AVENUE, KALAMAZOO, MI, 49009","Match","Exact","6594 ROSE ARBOUR AVE, KALAMAZOO, MI, 49009",12241144,"R"
268112,"6594 WESTLAKE CT","TROY","MI",48085,42.6169284000001,-83.1090552639999,112,"6594 WESTLAKE CT, TROY, MI, 48085","Match","Exact","6594 WESTLAKE CT, TROY, MI, 48085",69791986,"L"
268113,"6595 ANSON COURT","STONE MOUNTAIN","GA",30087,33.770965538,-84.119162248,113,"6595 ANSON COURT, STONE MOUNTAIN, GA, 30087","Match","Exact","6595 ANSON CT, STONE MOUNTAIN, GA, 30087",23389186,"R"
268114,"6595 HICKORY MEADO DR","CHATTANOOGA","TN",37421,NA,NA,114,"6595 HICKORY MEADO DR, CHATTANOOGA, TN, 37421","No_Match",NA,NA,NA,NA
268115,"6595 LAKOTA CT","JOHNSTOWN","CO",80534,40.4057120800001,-104.932588882,115,"6595 LAKOTA CT, JOHNSTOWN, CO, 80534","Match","Exact","6595 LAKOTA CT, JOHNSTOWN, CO, 80534",188695750,"R"
268116,"6595 MONROE ST","BONNERS FERRY","ID",83805,48.690448003,-116.319619183,116,"6595 MONROE ST, BONNERS FERRY, ID, 83805","Match","Exact","6595 MONROE ST, BONNERS FERRY, ID, 83805",169222852,"L"
268117,"6595 ROSEWELL RD G1501","ATLANTA","GA",30328,33.935200126,-84.379479451,117,"6595 ROSEWELL RD G1501, ATLANTA, GA, 30328","Match","Non_Exact","6595 ROSWELL RD, ATLANTA, GA, 30328",17417482,"R"
268118,"6595 ROSWELL RD SUITE G 1249","ATLANTA","GA",30328,33.935200126,-84.379479451,118,"6595 ROSWELL RD SUITE G 1249, ATLANTA, GA, 30328","Match","Exact","6595 ROSWELL RD, ATLANTA, GA, 30328",17417482,"R"
268119,"6595 ROSWELL RD SUITE G2021","ATLANTA","GA",30328,33.935200126,-84.379479451,119,"6595 ROSWELL RD SUITE G2021, ATLANTA, GA, 30328","Match","Exact","6595 ROSWELL RD, ATLANTA, GA, 30328",17417482,"R"
268120,"6595 ROSWELL RD SUITE G2027","ATLANTA","FL",30328,NA,NA,120,"6595 ROSWELL RD SUITE G2027, ATLANTA, FL, 30328","No_Match",NA,NA,NA,NA
268121,"6595 ROSWELL RD SUITE G2149","ATLANTA","GA",30328,33.935200126,-84.379479451,121,"6595 ROSWELL RD SUITE G2149, ATLANTA, GA, 30328","Match","Exact","6595 ROSWELL RD, ATLANTA, GA, 30328",17417482,"R"
268122,"6595 ROSWELL RD SUITE G2186","ATLANTA","GA",30328,33.935200126,-84.379479451,122,"6595 ROSWELL RD SUITE G2186, ATLANTA, GA, 30328","Match","Exact","6595 ROSWELL RD, ATLANTA, GA, 30328",17417482,"R"
268123,"6595 ROSWELL RD SUITE G2379","ATLANTA","GA",30328,33.935200126,-84.379479451,123,"6595 ROSWELL RD SUITE G2379, ATLANTA, GA, 30328","Match","Exact","6595 ROSWELL RD, ATLANTA, GA, 30328",17417482,"R"
268124,"6595 ROSWELL RD","ATLANTA","GA",30328,33.935200126,-84.379479451,124,"6595 ROSWELL RD, ATLANTA, GA, 30328","Match","Exact","6595 ROSWELL RD, ATLANTA, GA, 30328",17417482,"R"
268125,"6595 ROSWELL ROAD  SUITE G1547","ATLANTA","GA",30328,33.935200126,-84.379479451,125,"6595 ROSWELL ROAD  SUITE G1547, ATLANTA, GA, 30328","Match","Exact","6595 ROSWELL RD, ATLANTA, GA, 30328",17417482,"R"
268126,"6595 ROSWELL ROAD SUITE 3129","ATLANTA","GA",30328,33.935200126,-84.379479451,126,"6595 ROSWELL ROAD SUITE 3129, ATLANTA, GA, 30328","Match","Exact","6595 ROSWELL RD, ATLANTA, GA, 30328",17417482,"R"
268127,"6595 ROSWELL ROAD SUITE G1296","ATLANTA","GA",30328,33.935200126,-84.379479451,127,"6595 ROSWELL ROAD SUITE G1296, ATLANTA, GA, 30328","Match","Exact","6595 ROSWELL RD, ATLANTA, GA, 30328",17417482,"R"
268128,"6595 ROSWELL ROAD SUITE G2001","ATLANTA","GA",30328,33.935200126,-84.379479451,128,"6595 ROSWELL ROAD SUITE G2001, ATLANTA, GA, 30328","Match","Exact","6595 ROSWELL RD, ATLANTA, GA, 30328",17417482,"R"
268129,"6595 ROSWELL STREET SUITE G-3076","ATLANTA","GA",30328,33.935200126,-84.379479451,129,"6595 ROSWELL STREET SUITE G-3076, ATLANTA, GA, 30328","Match","Non_Exact","6595 ROSWELL RD, ATLANTA, GA, 30328",17417482,"R"
268130,"6595 WALDON RD","CLARKSTON","MI",48346,42.7328401550001,-83.4108911599999,130,"6595 WALDON RD, CLARKSTON, MI, 48346","Match","Exact","6595 WALDON RD, CLARKSTON, MI, 48346",69692821,"L"
268131,"6595 ZENOBIA STREET","ARVADA","CO",80003,39.8159242360001,-105.052658055,131,"6595 ZENOBIA STREET, ARVADA, CO, 80003","Match","Exact","6595 ZENOBIA ST, ARVADA, CO, 80003",177297794,"L"
268132,"6596 MADEIRA HILLS DR","MADEIRA","OH",45243,39.1850538370001,-84.35725969,132,"6596 MADEIRA HILLS DR, MADEIRA, OH, 45243","Match","Exact","6596 MADEIRA HILLS DR, MADEIRA, OH, 45243",103939201,"R"
268133,"6596 QUAIL CREEK DR","CANAL WINCHESTER","OH",43110,NA,NA,133,"6596 QUAIL CREEK DR, CANAL WINCHESTER, OH, 43110","No_Match",NA,NA,NA,NA
268134,"6597 BRICEGROVE BLVD","CANAL WINCHESTER","OH",43110,39.9013141790001,-82.818654879,134,"6597 BRICEGROVE BLVD, CANAL WINCHESTER, OH, 43110","Match","Exact","6597 BRICEGROVE BLVD, CANAL WINCHESTER, OH, 43110",218561611,"R"
268135,"6597 FORESTDALE LN","DOUGLASVILLE","GA",30135,33.6992070260001,-84.7909835249999,135,"6597 FORESTDALE LN, DOUGLASVILLE, GA, 30135","Match","Exact","6597 FORESTDALE LN, DOUGLASVILLE, GA, 30135",16653357,"R"
268136,"6597 HWY 493","MERIDIAN","MS",39305,NA,NA,136,"6597 HWY 493, MERIDIAN, MS, 39305","No_Match",NA,NA,NA,NA
268137,"6598 BOONE TRAIL","MILLERS CREEK","NC",28651,36.183767392,-81.258862211,137,"6598 BOONE TRAIL, MILLERS CREEK, NC, 28651","Match","Exact","6598 BOONE TRL, MILLERS CREEK, NC, 28651",611370176,"L"
268138,"6598 BRUSH ST","NORTH BRANCH","MI",48461,NA,NA,138,"6598 BRUSH ST, NORTH BRANCH, MI, 48461","No_Match",NA,NA,NA,NA
268139,"6598 BRUSH STREET PO BOX 164","NORTH BRANCH","MI",48461,NA,NA,139,"6598 BRUSH STREET PO BOX 164, NORTH BRANCH, MI, 48461","No_Match",NA,NA,NA,NA
268140,"6598 EAST CHESTER ROAD","PORT ORCHARD","WA",98366,47.5515400260001,-122.565673472,140,"6598 EAST CHESTER ROAD, PORT ORCHARD, WA, 98366","Match","Exact","6598 E CHESTER RD, PORT ORCHARD, WA, 98366",187664549,"R"
268141,"6598 NE CHERRY DRIVE APT 110","HILLSBORO","OR",97124,45.5310613950001,-122.912148821,141,"6598 NE CHERRY DRIVE APT 110, HILLSBORO, OR, 97124","Match","Non_Exact","6598 NE CHERRY DR, HILLSBORO, OR, 97124",627781448,"R"
268142,"65984 ADLER RD","MARENGO","WI",54855,46.424994471,-90.7916470819999,142,"65984 ADLER RD, MARENGO, WI, 54855","Match","Exact","65984 ADLER RD, MARENGO, WI, 54855",607930391,"L"
268143,"6599 BIRCH RUN","MEMPHIS","TN",38115,35.042016216,-89.8430762,143,"6599 BIRCH RUN, MEMPHIS, TN, 38115","Match","Non_Exact","6599 BIRCH RUN LN, MEMPHIS, TN, 38115",72930449,"R"
268144,"6599 KUNA ROAD SUITE 101","KUNA","ID",83634,43.4883091400001,-116.524838445,144,"6599 KUNA ROAD SUITE 101, KUNA, ID, 83634","Match","Exact","6599 KUNA RD, KUNA, ID, 83634",122836960,"R"
268145,"65A ATLANTIC AVE","BOSTON","MA",2110,42.362660804,-71.0510090339999,145,"65A ATLANTIC AVE, BOSTON, MA, 2110","Match","Exact","65 ATLANTIC AVE, BOSTON, MA, 02110",85721869,"R"
268146,"66 ABERDEEN LANE","MANCHESTER","NJ",8759,40.028022773,-74.3067210039999,146,"66 ABERDEEN LANE, MANCHESTER, NJ, 8759","Match","Exact","66 ABERDEEN LN, MANCHESTER, NJ, 08759",628798365,"R"
268147,"66 ADAMS STREET","DORCHESTER","MA",2122,42.306474967,-71.061976143,147,"66 ADAMS STREET, DORCHESTER, MA, 2122","Match","Exact","66 ADAMS ST, DORCHESTER, MA, 02122",85713194,"L"
268148,"66 ALUMNI ARENA","BUFFALO","NY",14260,NA,NA,148,"66 ALUMNI ARENA, BUFFALO, NY, 14260","No_Match",NA,NA,NA,NA
268149,"66 AMERICAN ST","WELLSBORO","PA",16901,41.7420193830001,-77.316980551,149,"66 AMERICAN ST, WELLSBORO, PA, 16901","Match","Exact","66 AMERICAN ST, WELLSBORO, PA, 16901",189662517,"L"
268150,"66 ARTISAN WAY","SANDPOINT","ID",83864,48.440067965,-116.457880332,150,"66 ARTISAN WAY, SANDPOINT, ID, 83864","Match","Exact","66 ARTISAN WAY, SANDPOINT, ID, 83864",169501202,"R"
268151,"66 ASHWOOD RD","TIFFIN","OH",44883,41.1142239870001,-83.201427517,151,"66 ASHWOOD RD, TIFFIN, OH, 44883","Match","Exact","66 ASHWOOD RD, TIFFIN, OH, 44883",636596487,"L"
268152,"66 ASTORIA STREET","MATTAPAN","MA",2126,42.2794160810001,-71.08768262,152,"66 ASTORIA STREET, MATTAPAN, MA, 2126","Match","Exact","66 ASTORIA ST, MATTAPAN, MA, 02126",85705612,"L"
268153,"66 BELVEDERE DRIVE","YONKERS","NY",10705,40.918019036,-73.9047407579999,153,"66 BELVEDERE DRIVE, YONKERS, NY, 10705","Match","Exact","66 BELVEDERE DR, YONKERS, NY, 10705",139743626,"L"
268154,"66 BOARD ROAD","BRUNSWICK","ME",4011,43.8899617180001,-69.901806659,154,"66 BOARD ROAD, BRUNSWICK, ME, 4011","Match","Exact","66 BOARD RD, BRUNSWICK, ME, 04011",78008136,"L"
268155,"66 BRANCH AVE","ROCHESTER","NY",14618,43.1094296100001,-77.553062029,155,"66 BRANCH AVE, ROCHESTER, NY, 14618","Match","Exact","66 BRANCH AVE, ROCHESTER, NY, 14618",638348580,"R"
268156,"66 CANAL CENTER PLZ STE 501","ALEXANDRIA","VA",22314,38.814549598,-77.039041893,156,"66 CANAL CENTER PLZ STE 501, ALEXANDRIA, VA, 22314","Match","Exact","66 CANAL CENTER PLZ, ALEXANDRIA, VA, 22314",76065206,"L"
268157,"66 CANTON LANE","STUARTS DRAFT","VA",24477,38.003831507,-78.985405042,157,"66 CANTON LANE, STUARTS DRAFT, VA, 24477","Match","Exact","66 CANTON LN, STUARTS DRAFT, VA, 24477",636668003,"L"
268158,"66 CARLISLE RD","TOMS EIVER","NJ",8757,39.9571555140001,-74.270963447,158,"66 CARLISLE RD, TOMS EIVER, NJ, 8757","Match","Non_Exact","66 CARLISLE RD, TOMS RIVER, NJ, 08757",203722702,"L"
268159,"66 CHEBACCO ROAD","SOUTH HAMILTON","MA",1982,42.605165502,-70.8261183929999,159,"66 CHEBACCO ROAD, SOUTH HAMILTON, MA, 1982","Match","Exact","66 CHEBACCO RD, SOUTH HAMILTON, MA, 01982",86691238,"R"
268160,"66 CHICKADEE LN","HAMPDEN","ME",4444,44.7565181850001,-68.825042883,160,"66 CHICKADEE LN, HAMPDEN, ME, 4444","Match","Exact","66 CHICKADEE LN, HAMPDEN, ME, 04444",649581318,"R"
268161,"66 CLUB ROAD SUITE 200","EUGENE","OR",97401,44.0598527020001,-123.084545826,161,"66 CLUB ROAD SUITE 200, EUGENE, OR, 97401","Match","Exact","66 CLUB RD, EUGENE, OR, 97401",178170524,"L"
268162,"66 COLORADO","HIGHLAND PARK","MI",48203,42.3989391330001,-83.089884367,162,"66 COLORADO, HIGHLAND PARK, MI, 48203","Match","Non_Exact","66 COLORADO AVE, HIGHLAND PARK, MI, 48203",95463726,"R"
268163,"66 COURTER AVENUE","MAPLEWOOD","NJ",7040,40.7247705870001,-74.263393622,163,"66 COURTER AVENUE, MAPLEWOOD, NJ, 7040","Match","Exact","66 COURTER AVE, MAPLEWOOD, NJ, 07040",63495851,"R"
268164,"66 COURTLAND ST SE STE 475","ATLANTA","GA",30303,33.7527317980001,-84.386080131,164,"66 COURTLAND ST SE STE 475, ATLANTA, GA, 30303","Match","Exact","66 COURTLAND ST SE, ATLANTA, GA, 30303",17344760,"L"
268165,"66 CRESCENT ST","STAMFORD","CT",6906,41.0702702720001,-73.518237501,165,"66 CRESCENT ST, STAMFORD, CT, 6906","Match","Exact","66 CRESCENT ST, STAMFORD, CT, 06906",3246595,"L"
268166,"66 CURTIS AVENUE","SAN FRANCISCO","CA",94112,37.713787569,-122.439761676,166,"66 CURTIS AVENUE, SAN FRANCISCO, CA, 94112","Match","Non_Exact","66 CURTIS ST, SAN FRANCISCO, CA, 94112",192292339,"R"
268167,"66 DAMASCUS ROAD","BRANFORD","CT",6405,41.2799948970001,-72.79083013,167,"66 DAMASCUS ROAD, BRANFORD, CT, 6405","Match","Exact","66 DAMASCUS RD, BRANFORD, CT, 06405",648779367,"L"
268168,"66 DAVIS ST","ROOSEVELT","NY",11575,40.6730778620001,-73.5868653859999,168,"66 DAVIS ST, ROOSEVELT, NY, 11575","Match","Exact","66 DAVIS ST, ROOSEVELT, NY, 11575",147631359,"R"
268169,"66 DE PALMA ST","SIERRA VISTA","AZ",85635,31.561616036,-110.301546919,169,"66 DE PALMA ST, SIERRA VISTA, AZ, 85635","Match","Exact","66 DE PALMA ST, SIERRA VISTA, AZ, 85635",120928072,"R"
268170,"66 DESTEFANO ST","AMSTERDAM","NY",12010,42.9306588530001,-74.203746381,170,"66 DESTEFANO ST, AMSTERDAM, NY, 12010","Match","Non_Exact","66 DESTEFANO AVE, AMSTERDAM, NY, 12010",18622757,"L"
268171,"66 DIGGINS DR","FOLSOM","CA",95630,38.6714099210001,-121.171997062,171,"66 DIGGINS DR, FOLSOM, CA, 95630","Match","Exact","66 DIGGINS DR, FOLSOM, CA, 95630",133408679,"R"
268172,"66 DOVER PLACE","HAMILTON","OH",45013,39.41808223,-84.593302782,172,"66 DOVER PLACE, HAMILTON, OH, 45013","Match","Exact","66 DOVER PL, HAMILTON, OH, 45013",113787713,"R"
268173,"66 DOWNING DRIVE","BEAUFORT","SC",29907,32.465033756,-80.676177432,173,"66 DOWNING DRIVE, BEAUFORT, SC, 29907","Match","Exact","66 DOWNING DR, BEAUFORT, SC, 29907",87635642,"R"
268174,"66 DRUM HILL ROAD","WILTON","CT",6897,41.1990168570001,-73.451349439,174,"66 DRUM HILL ROAD, WILTON, CT, 6897","Match","Exact","66 DRUM HILL RD, WILTON, CT, 06897",3259523,"L"
268175,"66 E 96 STREET","BROOKLYN","NY",11212,40.6642408920001,-73.924973644,175,"66 E 96 STREET, BROOKLYN, NY, 11212","Match","Exact","66 E 96TH ST, BROOKLYN, NY, 11212",59083521,"R"
268176,"66 E FRAMBES AVE","COLUMBUS","OH",43201,40.004866673,-83.006907957,176,"66 E FRAMBES AVE, COLUMBUS, OH, 43201","Match","Exact","66 E FRAMBES AVE, COLUMBUS, OH, 43201",218652765,"L"
268177,"66 E SEAMAN AVENUE","FREEPORT","NY",11520,40.665602435,-73.583810991,177,"66 E SEAMAN AVENUE, FREEPORT, NY, 11520","Match","Exact","66 E SEAMAN AVE, FREEPORT, NY, 11520",147631456,"R"
268178,"66 E STARK RD","ESKO","MN",55733,46.7498737270001,-92.350454451,178,"66 E STARK RD, ESKO, MN, 55733","Match","Exact","66 E STARK RD, ESKO, MN, 55733",612107051,"R"
268179,"66 EAST 7TH AVENUE","COLUMBUS","OH",43201,39.990301833,-83.004264211,179,"66 EAST 7TH AVENUE, COLUMBUS, OH, 43201","Match","Exact","66 E 7TH AVE, COLUMBUS, OH, 43201",218652851,"L"
268180,"66 EGGERTS CROSSING ROAD","LAWRENCEVILLE","NJ",8648,40.271459727,-74.7403852209999,180,"66 EGGERTS CROSSING ROAD, LAWRENCEVILLE, NJ, 8648","Match","Exact","66 EGGERTS CROSSING RD, LAWRENCEVILLE, NJ, 08648",648120183,"R"
268181,"66 EIGHTH STREET","NEW ROCHELLE","NY",10801,40.9097051030001,-73.8002653349999,181,"66 EIGHTH STREET, NEW ROCHELLE, NY, 10801","Match","Exact","66 8TH ST, NEW ROCHELLE, NY, 10801",139749914,"L"
268182,"66 ELM AVENUE","PORTSMOUTH","VA",23704,36.8446773590001,-76.3131895879999,182,"66 ELM AVENUE, PORTSMOUTH, VA, 23704","Match","Exact","66 ELM AVE, PORTSMOUTH, VA, 23704",122193804,"R"
268183,"66 ELM STREET","MILFORD","NH",3055,42.835620023,-71.656932527,183,"66 ELM STREET, MILFORD, NH, 3055","Match","Exact","66 ELM ST, MILFORD, NH, 03055",617270873,"L"
268184,"66 EMERY DRIVE","STAMFORD","CT",6902,41.060802515,-73.565055217,184,"66 EMERY DRIVE, STAMFORD, CT, 6902","Match","Exact","66 EMERY DR, STAMFORD, CT, 06902",3244593,"L"
268185,"66 FAIRVIEW PLACE","BELLEVILLE","NJ",7109,40.7975268220001,-74.164966834,185,"66 FAIRVIEW PLACE, BELLEVILLE, NJ, 7109","Match","Exact","66 FAIRVIEW PL, BELLEVILLE, NJ, 07109",63454400,"R"
268186,"66 FENWICK PL","SNDY SPRINGS","GA",30328,33.960282023,-84.358590909,186,"66 FENWICK PL, SNDY SPRINGS, GA, 30328","Match","Non_Exact","66 FENWICK PL NE, SANDY SPRINGS, GA, 30328",17361333,"L"
268187,"66 FIRST STREET","NEW HYDE PARK","NY",11040,40.7403472080001,-73.66616214,187,"66 FIRST STREET, NEW HYDE PARK, NY, 11040","Match","Exact","66 1ST ST, NEW HYDE PARK, NY, 11040",147671615,"R"
268188,"66 FLAGLER STREET SUTE 900-2222","MIAMI","FM",33130,NA,NA,188,"66 FLAGLER STREET SUTE 900-2222, MIAMI, FM, 33130","No_Match",NA,NA,NA,NA
268189,"66 FOEST STREET","WEST BRIDGEWATER","MA",2379,NA,NA,189,"66 FOEST STREET, WEST BRIDGEWATER, MA, 2379","No_Match",NA,NA,NA,NA
268190,"66 FOREST STREET","WEST BRIDGEWATER","MA",2379,42.0113848230001,-71.0139240569999,190,"66 FOREST STREET, WEST BRIDGEWATER, MA, 2379","Match","Exact","66 FOREST ST, W BRIDGEWATER, MA, 02379",87482926,"L"
268191,"66 FORK BRANCH CT","IRMO","SC",29063,34.1639494230001,-81.2418688449999,191,"66 FORK BRANCH CT, IRMO, SC, 29063","Match","Exact","66 FORK BRANCH CT, IRMO, SC, 29063",645303223,"R"
268192,"66 FRIENDSHIP STREET","NEWPORT","RI",2840,41.495674632,-71.303505649,192,"66 FRIENDSHIP STREET, NEWPORT, RI, 2840","Match","Exact","66 FRIENDSHIP ST, NEWPORT, RI, 02840",47349509,"L"
268193,"66 GEORGE STREET","CHARLESTON","SC",29424,32.7834861310001,-79.936661344,193,"66 GEORGE STREET, CHARLESTON, SC, 29424","Match","Exact","66 GEORGE ST, CHARLESTON, SC, 29424",108807472,"R"
268194,"66 GLENDALE AVENUE","LIVINGSTON","NJ",7039,40.800605139,-74.3121439339999,194,"66 GLENDALE AVENUE, LIVINGSTON, NJ, 7039","Match","Exact","66 GLENDALE AVE, LIVINGSTON, NJ, 07039",63458397,"R"
268195,"66 GOODMAN ROAD","FORT ANN","NY",12827,43.4115088410001,-73.552306785,195,"66 GOODMAN ROAD, FORT ANN, NY, 12827","Match","Exact","66 GOODMAN RD, FORT ANN, NY, 12827",650746842,"R"
268196,"66 GOOSEBERRY WAY","CASHIERS","NC",28717,35.1022068390001,-83.1059404709999,196,"66 GOOSEBERRY WAY, CASHIERS, NC, 28717","Match","Non_Exact","66 GOOSEBERRY, CASHIERS, NC, 28717",36003741,"R"
268197,"66 GOSSETS TURN DR","MIDDLETOWN","RI",2842,41.548092248,-71.298285103,197,"66 GOSSETS TURN DR, MIDDLETOWN, RI, 2842","Match","Exact","66 GOSSETS TURN DR, MIDDLETOWN, RI, 02842",645265209,"L"
268198,"66 GUYMARD TPKE","MIDDLETOWN","NY",10940,41.4426158800001,-74.526295573,198,"66 GUYMARD TPKE, MIDDLETOWN, NY, 10940","Match","Exact","66 GUYMARD TPKE, MIDDLETOWN, NY, 10940",124491442,"L"
268199,"66 HAMPTON LN","LANCASTER","PA",17601,40.09533779,-76.3070836969999,199,"66 HAMPTON LN, LANCASTER, PA, 17601","Match","Exact","66 HAMPTON LN, LANCASTER, PA, 17601",179661395,"L"
268200,"66 HARP LANE","SAYVILLE","NY",11782,40.7603180510001,-73.067745594,200,"66 HARP LANE, SAYVILLE, NY, 11782","Match","Exact","66 HARP LN, SAYVILLE, NY, 11782",114007039,"R"
268201,"66 HARRIET STREET","BRIDGEPORT","CT",6608,41.1854598200001,-73.185641619,201,"66 HARRIET STREET, BRIDGEPORT, CT, 6608","Match","Exact","66 HARRIET ST, BRIDGEPORT, CT, 06608",3225109,"R"
268202,"66 HOLLAND ST","WINCHESTER","MA",1890,42.4578778320001,-71.1335893949999,202,"66 HOLLAND ST, WINCHESTER, MA, 1890","Match","Exact","66 HOLLAND ST, WINCHESTER, MA, 01890",86887276,"L"
268203,"66 HOLLISTER DRIVE","AVON","CT",6001,41.7817433910001,-72.869782624,203,"66 HOLLISTER DRIVE, AVON, CT, 6001","Match","Exact","66 HOLLISTER DR, AVON, CT, 06001",3527734,"R"
268204,"66 HOWARD STREET","RANDOLPH","MA",2368,42.163363331,-71.0391760799999,204,"66 HOWARD STREET, RANDOLPH, MA, 2368","Match","Exact","66 HOWARD ST, RANDOLPH, MA, 02368",87268553,"L"
268205,"66 HULL AVENUE","FREEHOLD","NJ",7728,40.2549536000001,-74.2786643429999,205,"66 HULL AVENUE, FREEHOLD, NJ, 7728","Match","Exact","66 HULL AVE, FREEHOLD, NJ, 07728",90445789,"R"
268206,"66 JERILYNN CIRCLE","WARWICK","RI",2886,41.6975722980001,-71.44856557,206,"66 JERILYNN CIRCLE, WARWICK, RI, 2886","Match","Non_Exact","66 JERI LYNN CIR, WARWICK, RI, 02886",159158146,"R"
268207,"66 JONES CORNER ROAD","CONWAY","MA",1341,42.551854394,-72.7291473889999,207,"66 JONES CORNER ROAD, CONWAY, MA, 1341","Match","Exact","66 JONES CORNER RD, CONWAY, MA, 01341",39928471,"R"
268208,"66 JUNIPER RIDGE RD","LAPORTE","CO",80535,40.7500993310001,-105.176761243,208,"66 JUNIPER RIDGE RD, LAPORTE, CO, 80535","Match","Exact","66 JUNIPER RIDGE RD, LAPORTE, CO, 80535",188617895,"L"
268209,"66 KAMNIC STREET","PIERZ","MN",56364,45.9802036670001,-94.098144893,209,"66 KAMNIC STREET, PIERZ, MN, 56364","Match","Non_Exact","66 KAMNIC LN, PIERZ, MN, 56364",167407370,"R"
268210,"66 KING STREET","HANOVER","MA",2339,42.108081698,-70.8769052169999,210,"66 KING STREET, HANOVER, MA, 2339","Match","Exact","66 KING ST, HANOVER, MA, 02339",87473110,"R"
268211,"66 KNICKERBOCKER AVENUE","DOVER","NJ",7801,NA,NA,211,"66 KNICKERBOCKER AVENUE, DOVER, NJ, 7801","No_Match",NA,NA,NA,NA
268212,"66 LAKE FOREST DRIVE","SPARTANBURG","SC",29302,34.9449449520001,-81.8728186659999,212,"66 LAKE FOREST DRIVE, SPARTANBURG, SC, 29302","Match","Exact","66 LAKE FOREST DR, SPARTANBURG, SC, 29302",622176914,"L"
268213,"66 LAS FLORES","ALISO VIEJO","CA",92656,33.553462473,-117.72292278,213,"66 LAS FLORES, ALISO VIEJO, CA, 92656","Match","Exact","66 LAS FLORES, ALISO VIEJO, CA, 92656",144400377,"L"
268214,"66 LAVENTHAL AVE","IRVINGTON","NJ",7111,40.712171385,-74.2396647419999,214,"66 LAVENTHAL AVE, IRVINGTON, NJ, 7111","Match","Exact","66 LAVENTHAL AVE, IRVINGTON, NJ, 07111",63463775,"R"
268215,"66 LETCHWORTH STREET","AUBURN","NY",13021,42.9167817420001,-76.541628449,215,"66 LETCHWORTH STREET, AUBURN, NY, 13021","Match","Exact","66 LETCHWORTH ST, AUBURN, NY, 13021",33519795,"R"
268216,"66 LEWIS AVENUE","ATLANTIC BEACH","NY",11509,40.588179154,-73.727316312,216,"66 LEWIS AVENUE, ATLANTIC BEACH, NY, 11509","Match","Exact","66 LEWIS AVE, ATLANTIC BEACH, NY, 11509",147679108,"R"
268217,"66 LIBERTY AVENUE","LEXINGTON","MA",2420,42.4612478820001,-71.231782676,217,"66 LIBERTY AVENUE, LEXINGTON, MA, 2420","Match","Exact","66 LIBERTY AVE, LEXINGTON, MA, 02420",86881863,"L"
268218,"66 LORENZA BISO","PUERTO RICO","PR",716,NA,NA,218,"66 LORENZA BISO, PUERTO RICO, PR, 716","No_Match",NA,NA,NA,NA
268219,"66 MAGNOLIA LANE","NEWMARKET","NH",3857,43.0626770490001,-70.9516314429999,219,"66 MAGNOLIA LANE, NEWMARKET, NH, 3857","Match","Exact","66 MAGNOLIA LN, NEWMARKET, NH, 03857",624548019,"R"
268220,"66 MALCOLM AVENUE SE","MINNEAPOLIS","MN",55414,44.968673176,-93.214411779,220,"66 MALCOLM AVENUE SE, MINNEAPOLIS, MN, 55414","Match","Exact","66 MALCOLM AVE SE, MINNEAPOLIS, MN, 55414",43836407,"R"
268221,"66 MARJORIE AVENUE","WILKES BARRE","PA",18702,41.2430538770001,-75.915937656,221,"66 MARJORIE AVENUE, WILKES BARRE, PA, 18702","Match","Exact","66 MARJORIE AVE, WILKES BARRE, PA, 18702",80913067,"L"
268222,"66 MARTINSVILLE ROAD","HARTLAND","VT",5048,43.5344004840001,-72.395334982,222,"66 MARTINSVILLE ROAD, HARTLAND, VT, 5048","Match","Exact","66 MARTINSVILLE RD, HARTLAND, VT, 05048",139258845,"R"
268223,"66 MCELROY STREET","WINDER","GA",30680,NA,NA,223,"66 MCELROY STREET, WINDER, GA, 30680","No_Match",NA,NA,NA,NA
268224,"66 MEADOWLARK DRIVE","HUDSON","WI",54016,44.9511700570001,-92.693328504,224,"66 MEADOWLARK DRIVE, HUDSON, WI, 54016","Match","Exact","66 MEADOWLARK DR, HUDSON, WI, 54016",110924139,"R"
268225,"66 MECHANIC ST","MARLBOROUGH","MA",1752,42.3479297590001,-71.555492724,225,"66 MECHANIC ST, MARLBOROUGH, MA, 1752","Match","Exact","66 MECHANIC ST, MARLBOROUGH, MA, 01752",86899392,"R"
268226,"66 MELBOURNE AVENUE","AKRON","OH",44313,41.1083731620001,-81.562949779,226,"66 MELBOURNE AVENUE, AKRON, OH, 44313","Match","Exact","66 MELBOURNE AVE, AKRON, OH, 44313",61338183,"L"
268227,"66 MERION LANE","JACKSON","NJ",8527,40.108144098,-74.290114189,227,"66 MERION LANE, JACKSON, NJ, 8527","Match","Exact","66 MERION LN, JACKSON, NJ, 08527",627589723,"R"
268228,"66 MILTON ROAD APT B33","RYE","NY",10580,40.9775592130001,-73.683900149,228,"66 MILTON ROAD APT B33, RYE, NY, 10580","Match","Exact","66 MILTON RD, RYE, NY, 10580",649728792,"R"
268229,"66 MONTVILLE STREET","HARFORD","CT",6120,41.7955198180001,-72.6671444139999,229,"66 MONTVILLE STREET, HARFORD, CT, 6120","Match","Non_Exact","66 MONTVILLE ST, HARTFORD, CT, 06120",645549306,"R"
268230,"66 MOUNTAIN AVENUE","SPRINGFIELD","NJ",7081,40.709329751,-74.3126822949999,230,"66 MOUNTAIN AVENUE, SPRINGFIELD, NJ, 7081","Match","Exact","66 MOUNTAIN AVE, SPRINGFIELD, NJ, 07081",60568860,"R"
268231,"66 N  BETHLEHEM ROAD","GREENVILLE","AL",36037,NA,NA,231,"66 N  BETHLEHEM ROAD, GREENVILLE, AL, 36037","No_Match",NA,NA,NA,NA
268232,"66 N DAMEN AVE","CHICAGO","IL",60645,41.8828825950001,-87.676688573,232,"66 N DAMEN AVE, CHICAGO, IL, 60645","Match","Non_Exact","66 N DAMEN AVE, CHICAGO, IL, 60612",605088213,"L"
268233,"66 N SAILORS QUAY DRIVE","BRICK","NJ",8723,40.0384608590001,-74.1277737999999,233,"66 N SAILORS QUAY DRIVE, BRICK, NJ, 8723","Match","Exact","66 N SAILORS QUAY DR, BRICK, NJ, 08723",642917159,"L"
268234,"66 NE 39TH STREET STE 263","MIAMI","FL",33137,25.8116631020001,-80.122661502,234,"66 NE 39TH STREET STE 263, MIAMI, FL, 33137","Match","Non_Exact","66 39TH ST, MIAMI, FL, 33140",116272405,"L"
268235,"66 NEWTOWN LANE SUITE 8","EAST HAMPTON","NY",11937,40.9643951780001,-72.1876472709999,235,"66 NEWTOWN LANE SUITE 8, EAST HAMPTON, NY, 11937","Match","Exact","66 NEWTOWN LN, EAST HAMPTON, NY, 11937",113961693,"L"
268236,"66 NORFOLK DR W","ELMONT","NY",11003,40.690162043,-73.7184856759999,236,"66 NORFOLK DR W, ELMONT, NY, 11003","Match","Exact","66 NORFOLK DR W, ELMONT, NY, 11003",147667744,"R"
268237,"66 NORMAN AVE","TRENTON","NJ",8618,40.235204794,-74.7739132999999,237,"66 NORMAN AVE, TRENTON, NJ, 8618","Match","Exact","66 NORMAN AVE, TRENTON, NJ, 08618",638998028,"R"
268238,"66 NORTH RD","DEERFIELD","NH",3037,43.1474417750001,-71.2349545179999,238,"66 NORTH RD, DEERFIELD, NH, 3037","Match","Exact","66 NORTH RD, DEERFIELD, NH, 03037",636291962,"L"
268239,"66 NORTHROP RD","BETHANY","CT",6524,41.439526324,-73.010007565,239,"66 NORTHROP RD, BETHANY, CT, 6524","Match","Exact","66 NORTHROP RD, BETHANY, CT, 06524",3747243,"R"
268240,"66 PADRE COURT","O FALLON","MO",63368,38.774395031,-90.68950102,240,"66 PADRE COURT, O FALLON, MO, 63368","Match","Exact","66 PADRE CT, O FALLON, MO, 63368",100064143,"R"
268241,"66 PENDER RIDGE RD","NEWBERRY","SC",29108,34.2950718980001,-81.597795021,241,"66 PENDER RIDGE RD, NEWBERRY, SC, 29108","Match","Exact","66 PENDER RIDGE RD, NEWBERRY, SC, 29108",45372628,"L"
268242,"66 PERLEY ST APT 1","CONCORD","NH",3301,43.1964521950001,-71.537599923,242,"66 PERLEY ST APT 1, CONCORD, NH, 3301","Match","Exact","66 PERLEY ST, CONCORD, NH, 03301",635513184,"L"
268243,"66 PERRY ST","HARRISONBURG","VA",22801,38.4310578450001,-78.892175782,243,"66 PERRY ST, HARRISONBURG, VA, 22801","Match","Exact","66 PERRY ST, HARRISONBURG, VA, 22801",55710335,"R"
268244,"66 PLATEAU PLACE","WAYNESVILLE","NC",28786,35.487684379,-83.0183962739999,244,"66 PLATEAU PLACE, WAYNESVILLE, NC, 28786","Match","Exact","66 PLATEAU PL, WAYNESVILLE, NC, 28786",151837495,"R"
268245,"66 PLEASANT ST APT3","CAMBRIDGE","MA",2139,42.3628863230001,-71.109536239,245,"66 PLEASANT ST APT3, CAMBRIDGE, MA, 2139","Match","Exact","66 PLEASANT ST, CAMBRIDGE, MA, 02139",86869843,"L"
268246,"66 PLUMTREE LANE","STATEN ISLAND","NY",10309,40.54198373,-74.221488441,246,"66 PLUMTREE LANE, STATEN ISLAND, NY, 10309","Match","Exact","66 PLUMTREE LN, STATEN ISLAND, NY, 10309",649269504,"L"
268247,"66 RADCLIFF ROAD","SPRINGFIELD","IL",62703,39.7619297150001,-89.6139026019999,247,"66 RADCLIFF ROAD, SPRINGFIELD, IL, 62703","Match","Exact","66 RADCLIFF RD, SPRINGFIELD, IL, 62703",97327763,"L"
268248,"66 RAINTREE COURT","LAKE JACKSON","TX",77566,29.0502889260001,-95.435796699,248,"66 RAINTREE COURT, LAKE JACKSON, TX, 77566","Match","Exact","66 RAINTREE CT, LAKE JACKSON, TX, 77566",116579712,"L"
268249,"66 RANDOLPH AVENUE","JERSEY CITY","NJ",7305,40.7061341200001,-74.0747481609999,249,"66 RANDOLPH AVENUE, JERSEY CITY, NJ, 7305","Match","Exact","66 RANDOLPH AVE, JERSEY CITY, NJ, 07305",59604466,"R"
268250,"66 RICHLAND ROAD","NORWOOD","MA",2062,42.175663623,-71.182923784,250,"66 RICHLAND ROAD, NORWOOD, MA, 2062","Match","Exact","66 RICHLAND RD, NORWOOD, MA, 02062",87255446,"L"
268251,"66 ROME DRIVE","BRAINTREE","MA",2184,42.1985986490001,-71.0310415179999,251,"66 ROME DRIVE, BRAINTREE, MA, 2184","Match","Exact","66 ROME DR, BRAINTREE, MA, 02184",87265464,"L"
268252,"66 S 400 CENTER LANE SUITE 205","DAWSONVILLE","GA",30534,NA,NA,252,"66 S 400 CENTER LANE SUITE 205, DAWSONVILLE, GA, 30534","No_Match",NA,NA,NA,NA
268253,"66 S HURON ST","MILAN","OH",44846,41.294743958,-82.605095416,253,"66 S HURON ST, MILAN, OH, 44846","Match","Exact","66 S HURON ST, MILAN, OH, 44846",55338276,"R"
268254,"66 S LOGAN STREET SUITE 208","DENVER","CO",80209,39.7177081450001,-104.982608672,254,"66 S LOGAN STREET SUITE 208, DENVER, CO, 80209","Match","Non_Exact","66 LOGAN ST, DENVER, CO, 80203",177331613,"R"
268255,"66 S MAIN ST","PAYSON","UT",84651,40.04290058,-111.732289393,255,"66 S MAIN ST, PAYSON, UT, 84651","Match","Exact","66 S MAIN ST, PAYSON, UT, 84651",134199874,"L"
268256,"66 S PEARL ST STE 400","ALBANY","NY",12207,NA,NA,256,"66 S PEARL ST STE 400, ALBANY, NY, 12207","Tie",NA,NA,NA,NA
268257,"66 S WAVY OAK CIRCLE","THE WOODLANDS","TX",77381,30.1487006310001,-95.50403056,257,"66 S WAVY OAK CIRCLE, THE WOODLANDS, TX, 77381","Match","Exact","66 S WAVY OAK CIR, THE WOODLANDS, TX, 77381",623856420,"L"
268258,"66 SCHOOL STREET","MILFORD","MA",1757,42.143429085,-71.5193507669999,258,"66 SCHOOL STREET, MILFORD, MA, 1757","Match","Exact","66 SCHOOL ST, MILFORD, MA, 01757",40039669,"R"
268259,"66 SCHOONER RIDGE ROAD","CUMBERLAND FORESIDE","ME",4110,43.7738129800001,-70.1958744729999,259,"66 SCHOONER RIDGE ROAD, CUMBERLAND FORESIDE, ME, 4110","Match","Exact","66 SCHOONER RIDGE RD, CUMBERLAND FORESIDE, ME, 04110",78039888,"L"
268260,"66 SHETLAND WAY","NEW CASTLE","DE",19720,39.66136341,-75.628785658,260,"66 SHETLAND WAY, NEW CASTLE, DE, 19720","Match","Exact","66 SHETLAND WAY, NEW CASTLE, DE, 19720",187278374,"R"
268261,"66 SHORE DR","STAFFORD","VA",22554,38.408279345,-77.328858435,261,"66 SHORE DR, STAFFORD, VA, 22554","Match","Exact","66 SHORE DR, STAFFORD, VA, 22554",636824008,"L"
268262,"66 SOUTH ST ALBANS STREET","SAINT PAUL","MN",55105,44.9395112030001,-93.128745185,262,"66 SOUTH ST ALBANS STREET, SAINT PAUL, MN, 55105","Match","Non_Exact","66 ST ALBANS ST, SAINT PAUL, MN, 55105",97647587,"L"
268263,"66 SOUTHFIELD ROAD","LUMBERTON","NC",28360,34.647588408,-79.0519176,263,"66 SOUTHFIELD ROAD, LUMBERTON, NC, 28360","Match","Exact","66 SOUTHFIELD RD, LUMBERTON, NC, 28360",49137988,"R"
268264,"66 SPARK STREET","BROCKTON","MA",2302,42.104386731,-71.019150493,264,"66 SPARK STREET, BROCKTON, MA, 2302","Match","Exact","66 SPARK ST, BROCKTON, MA, 02302",640125011,"L"
268265,"66 SPRUCE STREET","HICKSVILLE","NY",11801,40.7735030320001,-73.5122195759999,265,"66 SPRUCE STREET, HICKSVILLE, NY, 11801","Match","Exact","66 SPRUCE ST, HICKSVILLE, NY, 11801",147641279,"L"
268266,"66 SUMMER STREET UNIT A","MANCHESTER","MA",1944,42.577014691,-70.764982053,266,"66 SUMMER STREET UNIT A, MANCHESTER, MA, 1944","Match","Exact","66 SUMMER ST, MANCHESTER, MA, 01944",86649640,"R"
268267,"66 SUMMIT STREET","NORWOOD","NJ",7648,40.9922625190001,-73.963668992,267,"66 SUMMIT STREET, NORWOOD, NJ, 7648","Match","Exact","66 SUMMIT ST, NORWOOD, NJ, 07648",64370389,"R"
268268,"66 SUNSHINE DR","MILLINGTON","TN",38053,35.3964805790001,-89.9192818,268,"66 SUNSHINE DR, MILLINGTON, TN, 38053","Match","Exact","66 SUNSHINE DR, MILLINGTON, TN, 38053",73170879,"R"
268269,"66 TERRACE HILL DRIVE","PASO ROBLES","CA",93446,35.6284413920001,-120.70027719,269,"66 TERRACE HILL DRIVE, PASO ROBLES, CA, 93446","Match","Exact","66 TERRACE HILL DR, PASO ROBLES, CA, 93446",109852535,"R"
268270,"66 TURNER ROAD","EURE","NC",27935,36.415167544,-76.7987989279999,270,"66 TURNER ROAD, EURE, NC, 27935","Match","Exact","66 TURNER RD, EURE, NC, 27935",18576536,"L"
268271,"66 TWIN GABLES","IRVINE","CA",92620,33.6941106300001,-117.749854524,271,"66 TWIN GABLES, IRVINE, CA, 92620","Match","Exact","66 TWIN GABLES, IRVINE, CA, 92620",638571902,"L"
268272,"66 VAUGHAN LANE","DAVISVILLE","WV",26142,39.2231007140001,-81.435558263,272,"66 VAUGHAN LANE, DAVISVILLE, WV, 26142","Match","Exact","66 VAUGHAN LN, DAVISVILLE, WV, 26142",90916043,"R"
268273,"66 VICTORY ST","STAMFORD","CT",6902,41.04596107,-73.555399173,273,"66 VICTORY ST, STAMFORD, CT, 6902","Match","Exact","66 VICTORY ST, STAMFORD, CT, 06902",3244964,"L"
268274,"66 W FLAGLER ST STE 900-1201","MIAMI","FL",33130,25.7741032930001,-80.1952557129999,274,"66 W FLAGLER ST STE 900-1201, MIAMI, FL, 33130","Match","Non_Exact","66 W FLAGLER ST, MIAMI, FL, 33130",116018407,"L"
268275,"66 WEST 120TH ST UNIT B","NEW YORK","NY",10027,40.8041745470001,-73.9468425599999,275,"66 WEST 120TH ST UNIT B, NEW YORK, NY, 10027","Match","Exact","66 W 120TH ST, NEW YORK, NY, 10027",59657742,"L"
268276,"66 WEST 38TH STREET APT 24C","NEW YORK","NY",10018,40.751825909,-73.984787749,276,"66 WEST 38TH STREET APT 24C, NEW YORK, NY, 10018","Match","Exact","66 W 38TH ST, NEW YORK, NY, 10018",59658617,"L"
268277,"66 WEST 94TH STREET APT  14B","NEW YORK","NY",10025,40.7911746820001,-73.9675514479999,277,"66 WEST 94TH STREET APT  14B, NEW YORK, NY, 10025","Match","Exact","66 W 94TH ST, NEW YORK, NY, 10025",59656938,"L"
268278,"66 WEST 9TH STREET APT 61-2","NEW YORK","NY",10011,40.7340164760001,-73.9987177209999,278,"66 WEST 9TH STREET APT 61-2, NEW YORK, NY, 10011","Match","Exact","66 W 9TH ST, NEW YORK, NY, 10011",650084351,"L"
268279,"66 WEST FLAGLER ST SUITE 1200","MIAMI","FL",33130,25.774103628,-80.1952449839999,279,"66 WEST FLAGLER ST SUITE 1200, MIAMI, FL, 33130","Match","Exact","66 W FLAGLER ST, MIAMI, FL, 33130",116018407,"L"
268280,"66 WEST FLAGLER ST SUITE 900","MIAMI","FL",33130,25.774103628,-80.1952449839999,280,"66 WEST FLAGLER ST SUITE 900, MIAMI, FL, 33130","Match","Exact","66 W FLAGLER ST, MIAMI, FL, 33130",116018407,"L"
268281,"66 WEST FLAGLER STREET STE 900","MIAMI","FL",33130,25.774103628,-80.1952449839999,281,"66 WEST FLAGLER STREET STE 900, MIAMI, FL, 33130","Match","Exact","66 W FLAGLER ST, MIAMI, FL, 33130",116018407,"L"
268282,"66 WEST FLAGLER STREET SUITE 900","MIAMI","FL",33130,25.774103628,-80.1952449839999,282,"66 WEST FLAGLER STREET SUITE 900, MIAMI, FL, 33130","Match","Exact","66 W FLAGLER ST, MIAMI, FL, 33130",116018407,"L"
268283,"66 WEST MAIN STREET","NORTON","MA",2766,41.9625751080001,-71.1953326079999,283,"66 WEST MAIN STREET, NORTON, MA, 2766","Match","Exact","66 W MAIN ST, NORTON, MA, 02766",46816393,"R"
268284,"66 WEST STREET 3RD FLOOR","PITTSFIELD","MA",1201,42.4486796420001,-73.2565274259999,284,"66 WEST STREET 3RD FLOOR, PITTSFIELD, MA, 1201","Match","Exact","66 WEST ST, PITTSFIELD, MA, 01201",3972155,"L"
268285,"66 WEST WARREN ROAD","WARE","MA",1082,42.234196936,-72.2576552,285,"66 WEST WARREN ROAD, WARE, MA, 1082","Match","Exact","66 W WARREN RD, WARE, MA, 01082",632924487,"L"
268286,"66 WESTMINSTER ROAD","WEST HEMPSTEAD","NY",11552,40.70713448,-73.643666411,286,"66 WESTMINSTER ROAD, WEST HEMPSTEAD, NY, 11552","Match","Exact","66 WESTMINSTER RD, W HEMPSTEAD, NY, 11552",147673554,"R"
268287,"66 WHISPERING WAY","FREEPORT","FL",32439,30.500605652,-86.1582075969999,287,"66 WHISPERING WAY, FREEPORT, FL, 32439","Match","Exact","66 WHISPERING WAY, FREEPORT, FL, 32439",639936814,"R"
268288,"66 WHITE WILDLIFE RD","SILEX","MO",63377,39.172221812,-90.986579663,288,"66 WHITE WILDLIFE RD, SILEX, MO, 63377","Match","Exact","66 WHITE WILDLIFE RD, SILEX, MO, 63377",618453158,"L"
268289,"66 WILLIAMS AVE","JERSEY CITY","NJ",7304,40.719126155,-74.0865430169999,289,"66 WILLIAMS AVE, JERSEY CITY, NJ, 7304","Match","Exact","66 WILLIAMS AVE, JERSEY CITY, NJ, 07304",59602051,"R"
268290,"66 WILSON AVE","MEDFORD","NY",11763,40.8671935900001,-72.975060143,290,"66 WILSON AVE, MEDFORD, NY, 11763","Match","Exact","66 WILSON AVE, MEDFORD, NY, 11763",634256488,"R"
268291,"66 WOODWARD ROAD","BROOKLYN","CT",6234,41.802898752,-71.982715367,291,"66 WOODWARD ROAD, BROOKLYN, CT, 6234","Match","Exact","66 WOODWARD RD, BROOKLYN, CT, 06234",56446771,"L"
268292,"66-1453 KO UKA PLACE","KAMUELA","HI",96743,NA,NA,292,"66-1453 KO UKA PLACE, KAMUELA, HI, 96743","Tie",NA,NA,NA,NA
268293,"66-195 A KAAMOOLOA ROAD","WAIALUA","HI",96791,21.5746092790001,-158.114126911,293,"66-195 A KAAMOOLOA ROAD, WAIALUA, HI, 96791","Match","Exact","66-195 KAAMOOLOA RD, WAIALUA, HI, 96791",203331643,"R"
268294,"66-236 HALEIWA ROAD","HALEIWA","HI",96712,NA,NA,294,"66-236 HALEIWA ROAD, HALEIWA, HI, 96712","Tie",NA,NA,NA,NA
268295,"66-28 CENTRAL AVE","GLENDALE","NY",11385,40.702986563,-73.887969545,295,"66-28 CENTRAL AVE, GLENDALE, NY, 11385","Match","Exact","66-28 CENTRAL AVE, GLENDALE, NY, 11385",59695429,"R"
268296,"66-34 75TH STREET","MIDDLE VILLAGE","NY",11379,40.7147795180001,-73.8787405259999,296,"66-34 75TH STREET, MIDDLE VILLAGE, NY, 11379","Match","Exact","66-34 75TH ST, MIDDLE VILLAGE, NY, 11379",59695896,"R"
268297,"66-52 MYRTLE AVE","GLENDALE","NY",11385,NA,NA,297,"66-52 MYRTLE AVE, GLENDALE, NY, 11385","Tie",NA,NA,NA,NA
268298,"66-81 FOREST AVE  3FLOOR","RIDGEWOOD","NY",11385,40.7051300590001,-73.902101326,298,"66-81 FOREST AVE  3FLOOR, RIDGEWOOD, NY, 11385","Match","Exact","66-81 FOREST AVE, RIDGEWOOD, NY, 11385",59694536,"L"
268299,"66-910 WANINI STREET","WAIALUA","HI",96791,21.575023091,-158.107726612,299,"66-910 WANINI STREET, WAIALUA, HI, 96791","Match","Exact","66-910 WANINI ST, WAIALUA, HI, 96791",203334238,"R"
268300,"66","BENTON","AR",72018,NA,NA,300,"66, BENTON, AR, 72018","No_Match",NA,NA,NA,NA
268301,"66","CINCINNATI","OH",45224,NA,NA,301,"66, CINCINNATI, OH, 45224","No_Match",NA,NA,NA,NA
268302,"66","PHILADELPHIA","PA",19126,NA,NA,302,"66, PHILADELPHIA, PA, 19126","No_Match",NA,NA,NA,NA
268303,"660 - 4TH STREET - 111","SAN FRANCISCO","CA",94107,NA,NA,303,"660 - 4TH STREET - 111, SAN FRANCISCO, CA, 94107","No_Match",NA,NA,NA,NA
268304,"660 27TH STREET","DES MOINES","IA",50312,41.589160253,-93.653270269,304,"660 27TH STREET, DES MOINES, IA, 50312","Match","Exact","660 27TH ST, DES MOINES, IA, 50312",65780925,"L"
268305,"660 4TH STREET NUM 308","SAN FRANCISCO","CA",94107,37.7775410260001,-122.39555393,305,"660 4TH STREET NUM 308, SAN FRANCISCO, CA, 94107","Match","Exact","660 4TH ST, SAN FRANCISCO, CA, 94107",192287975,"R"
268306,"660 4TH STREET NUM 549","SAN FRANCISCO","CA",94107,37.7775410260001,-122.39555393,306,"660 4TH STREET NUM 549, SAN FRANCISCO, CA, 94107","Match","Exact","660 4TH ST, SAN FRANCISCO, CA, 94107",192287975,"R"
268307,"660 54TH STREET APT 3","OAKLAND","CA",94609,37.8393584990001,-122.26617491,307,"660 54TH STREET APT 3, OAKLAND, CA, 94609","Match","Exact","660 54TH ST, OAKLAND, CA, 94609",124998906,"R"
268308,"660 7TH AVENUE","PLATTEVILLE","WI",53818,42.7412644300001,-90.481412989,308,"660 7TH AVENUE, PLATTEVILLE, WI, 53818","Match","Exact","660 7TH AVE, PLATTEVILLE, WI, 53818",32755061,"L"
268309,"660 ADAMS AVENUE","MONTGOMERY","AL",36104,32.375388576,-86.300214994,309,"660 ADAMS AVENUE, MONTGOMERY, AL, 36104","Match","Exact","660 ADAMS AVE, MONTGOMERY, AL, 36104",1543758,"R"
268310,"660 ALABAMA STREET 4TH FLOOR","SAN FRANCISCO","CA",94110,37.760888912,-122.411981295,310,"660 ALABAMA STREET 4TH FLOOR, SAN FRANCISCO, CA, 94110","Match","Exact","660 ALABAMA ST, SAN FRANCISCO, CA, 94110",192287664,"R"
268311,"660 ALTO DR","SANTA BARBARA","CA",93110,34.450354847,-119.78229937,311,"660 ALTO DR, SANTA BARBARA, CA, 93110","Match","Exact","660 ALTO DR, SANTA BARBARA, CA, 93110",108602643,"R"
268312,"660 AMERICANA DRIVE APT 36","ANNAPOLIS","MD",21403,38.964794565,-76.484323134,312,"660 AMERICANA DRIVE APT 36, ANNAPOLIS, MD, 21403","Match","Exact","660 AMERICANA DR, ANNAPOLIS, MD, 21403",624920407,"R"
268313,"660 ARNOW AVENUE 5G","BRONX","NY",10467,40.867924712,-73.869167165,313,"660 ARNOW AVENUE 5G, BRONX, NY, 10467","Match","Exact","660 ARNOW AVE, BRONX, NY, 10467",80303386,"R"
268314,"660 BEAVER DAM RD","PERKINSTON","MS",39573,30.720233744,-89.085460905,314,"660 BEAVER DAM RD, PERKINSTON, MS, 39573","Match","Exact","660 BEAVER DAM RD, PERKINSTON, MS, 39573",649581630,"R"
268315,"660 BIG BEAR","MARSHFIELD","MO",65706,37.3461622200001,-92.915511153,315,"660 BIG BEAR, MARSHFIELD, MO, 65706","Match","Non_Exact","660 BIG BEAR CT, MARSHFIELD, MO, 65706",26634550,"L"
268316,"660 CALIFORNIA STREET","SAN FRANCISCO","CA",94108,37.7925562350001,-122.405151543,316,"660 CALIFORNIA STREET, SAN FRANCISCO, CA, 94108","Match","Exact","660 CALIFORNIA ST, SAN FRANCISCO, CA, 94108",192281237,"R"
268317,"660 CARRIAGE WAY NW","ATLANTA","GA",30327,33.869657434,-84.408153274,317,"660 CARRIAGE WAY NW, ATLANTA, GA, 30327","Match","Exact","660 CARRIAGE WAY NW, ATLANTA, GA, 30327",17334292,"L"
268318,"660 CLINTON AVE","CONNEAUT","OH",44030,41.95295464,-80.5727240639999,318,"660 CLINTON AVE, CONNEAUT, OH, 44030","Match","Exact","660 CLINTON AVE, CONNEAUT, OH, 44030",117309896,"L"
268319,"660 COCHISE CT","FREMONT","CA",94539,37.469203565,-121.909996672,319,"660 COCHISE CT, FREMONT, CA, 94539","Match","Exact","660 COCHISE CT, FREMONT, CA, 94539",124990422,"L"
268320,"660 CORN NECK ROAD","BLOCK ISLAND","RI",2807,41.200919481,-71.57051931,320,"660 CORN NECK ROAD, BLOCK ISLAND, RI, 2807","Match","Exact","660 CORN NECK RD, BLOCK ISLAND, RI, 02807",58915078,"L"
268321,"660 CRESCENT DR","LARGO","FL",33770,NA,NA,321,"660 CRESCENT DR, LARGO, FL, 33770","No_Match",NA,NA,NA,NA
268322,"660 CUSTER AVE SE","ATLANTA","GA",30315,33.7171037480001,-84.366556348,322,"660 CUSTER AVE SE, ATLANTA, GA, 30315","Match","Exact","660 CUSTER AVE SE, ATLANTA, GA, 30315",17358316,"L"
268323,"660 DEXTER ST","DENVER","CO",80220,39.7266899160001,-104.932709478,323,"660 DEXTER ST, DENVER, CO, 80220","Match","Exact","660 DEXTER ST, DENVER, CO, 80220",177339380,"R"
268324,"660 E GONZALES RD","OXNARD","CA",93036,34.218984547,-119.169691067,324,"660 E GONZALES RD, OXNARD, CA, 93036","Match","Exact","660 E GONZALES RD, OXNARD, CA, 93036",648347713,"R"
268325,"660 EAST JEFFERSON STREET","TALLAHASSEE","FL",32301,30.4393977240001,-84.27435344,325,"660 EAST JEFFERSON STREET, TALLAHASSEE, FL, 32301","Match","Exact","660 E JEFFERSON ST, TALLAHASSEE, FL, 32301",647723406,"L"
268326,"660 ELIZABETH COURT","ROMEOVILLE","IL",60446,41.6520320440001,-88.116322673,326,"660 ELIZABETH COURT, ROMEOVILLE, IL, 60446","Match","Exact","660 ELIZABETH CT, ROMEOVILLE, IL, 60446",627092784,"R"
268327,"660 ELLIOT CT","BRANCHBURG","NJ",8876,40.559124121,-74.721389868,327,"660 ELLIOT CT, BRANCHBURG, NJ, 8876","Match","Exact","660 ELLIOT CT, BRANCHBURG, NJ, 08876",59944226,"L"
268328,"660 ELLIS OAK AVENUE","CHARLESTON","SC",29412,32.746951831,-79.9683411029999,328,"660 ELLIS OAK AVENUE, CHARLESTON, SC, 29412","Match","Non_Exact","660 ELLIS OAK DR, CHARLESTON, SC, 29412",605841429,"R"
268329,"660 FARRELL STREET","MOBILE","AL",36607,30.7097361900001,-88.105902697,329,"660 FARRELL STREET, MOBILE, AL, 36607","Match","Exact","660 FARRELL ST, MOBILE, AL, 36607",61859372,"R"
268330,"660 GOLD VALLEY PASS","CANTON","GA",30114,34.1834350840001,-84.554137338,330,"660 GOLD VALLEY PASS, CANTON, GA, 30114","Match","Exact","660 GOLD VALLEY PASS, CANTON, GA, 30114",627188141,"L"
268331,"660 HAWKS NEST RD","JACKSONVILLE","NC",28540,34.827257295,-77.467615344,331,"660 HAWKS NEST RD, JACKSONVILLE, NC, 28540","Match","Exact","660 HAWKS NEST RD, JACKSONVILLE, NC, 28540",14019143,"R"
268332,"660 ISLAND VIEW STREET","FILLMORE","CA",93015,34.4064910060001,-118.90792726,332,"660 ISLAND VIEW STREET, FILLMORE, CA, 93015","Match","Exact","660 ISLAND VIEW ST, FILLMORE, CA, 93015",109989757,"R"
268333,"660 JENNY RIDGE RD","CARRIER MILLS","IL",62917,37.6583245260001,-88.557733535,333,"660 JENNY RIDGE RD, CARRIER MILLS, IL, 62917","Match","Exact","660 JENNY RIDGE RD, CARRIER MILLS, IL, 62917",104109275,"R"
268334,"660 JOHN NOLEN DRIVE","MADISON","WI",53713,43.0565352360001,-89.382407367,334,"660 JOHN NOLEN DRIVE, MADISON, WI, 53713","Match","Exact","660 JOHN NOLEN DR, MADISON, WI, 53713",49472442,"L"
268335,"660 KENT STREET","MEMPHIS","TN",38111,35.1138388260001,-89.965176903,335,"660 KENT STREET, MEMPHIS, TN, 38111","Match","Exact","660 KENT ST, MEMPHIS, TN, 38111",72918158,"L"
268336,"660 KING ST UNIT 339","SAN FRANCISCO","CA",94107,37.7708266130001,-122.401204275,336,"660 KING ST UNIT 339, SAN FRANCISCO, CA, 94107","Match","Exact","660 KING ST, SAN FRANCISCO, CA, 94107",640405624,"R"
268337,"660 MCWILLIAMS ROAD SE","ATLANTA","GA",30315,33.688755181,-84.36679209,337,"660 MCWILLIAMS ROAD SE, ATLANTA, GA, 30315","Match","Exact","660 MCWILLIAMS RD SE, ATLANTA, GA, 30315",643287867,"L"
268338,"660 MERCHANT STREET","VACAVILLE","CA",95688,38.3501458910001,-121.994584288,338,"660 MERCHANT STREET, VACAVILLE, CA, 95688","Match","Exact","660 MERCHANT ST, VACAVILLE, CA, 95688",192534455,"R"
268339,"660 MONTEREY PASS ROAD STE 212","MONTEREY PARK","CA",91754,34.0544252380001,-118.149237495,339,"660 MONTEREY PASS ROAD STE 212, MONTEREY PARK, CA, 91754","Match","Exact","660 MONTEREY PASS RD, MONTEREY PARK, CA, 91754",241240918,"L"
268340,"660 MONTROSE AVENUE","SOUTH PLAINFIELD","NJ",7080,40.5669415400001,-74.423577254,340,"660 MONTROSE AVENUE, SOUTH PLAINFIELD, NJ, 7080","Match","Exact","660 MONTROSE AVE, S PLAINFIELD, NJ, 07080",60261003,"R"
268341,"660 N CAPITOL ST NW FL 7","WASHINGTON","DC",20001,38.8983803450001,-77.009074046,341,"660 N CAPITOL ST NW FL 7, WASHINGTON, DC, 20001","Match","Non_Exact","660 N CAPITOL ST NW, WASHINGTON, DC, 20001",76226765,"L"
268342,"660 N DIAMOND BAR BLVD STE 200","DIAMOND BAR","CA",91765,NA,NA,342,"660 N DIAMOND BAR BLVD STE 200, DIAMOND BAR, CA, 91765","Tie",NA,NA,NA,NA
268343,"660 N SAN FERNANDO ROAD - 16","LOS ANGELES","CA",90065,34.0876679090001,-118.225884789,343,"660 N SAN FERNANDO ROAD - 16, LOS ANGELES, CA, 90065","Match","Exact","660 SAN FERNANDO RD, LOS ANGELES, CA, 90065",141617638,"R"
268344,"660 NEW ROAD-SUITE 1A","NORTHFIELD","NJ",8225,39.3791943420001,-74.5486940549999,344,"660 NEW ROAD-SUITE 1A, NORTHFIELD, NJ, 8225","Match","Non_Exact","660 NEW RD, NORTHFIELD, NJ, 08225",202483055,"L"
268345,"660 NORTH CAPITOL STREET NW STE 400","WASHINGTON","DC",20001,38.898365744,-77.009074101,345,"660 NORTH CAPITOL STREET NW STE 400, WASHINGTON, DC, 20001","Match","Exact","660 N CAPITOL ST NW, WASHINGTON, DC, 20001",76226765,"L"
268346,"660 NORTH FOSTER DRIVE","BATON ROUGE","LA",70806,30.4563270530001,-91.139276566,346,"660 NORTH FOSTER DRIVE, BATON ROUGE, LA, 70806","Match","Exact","660 N FOSTER DR, BATON ROUGE, LA, 70806",92184244,"R"
268347,"660 NORTH FOURTH STREET","BATON ROUGE","LA",70802,30.4537786230001,-91.187223452,347,"660 NORTH FOURTH STREET, BATON ROUGE, LA, 70802","Match","Exact","660 N 4TH ST, BATON ROUGE, LA, 70802",640184570,"R"
268348,"660 NORTH GREENHILL RD","MT JULIET","TN",37122,36.233316329,-86.543865867,348,"660 NORTH GREENHILL RD, MT JULIET, TN, 37122","Match","Exact","660 N GREENHILL RD, MOUNT JULIET, TN, 37122",624806438,"L"
268349,"660 NW 35 COURT","OAKLAND PARK","FL",33309,26.1712866460001,-80.152161128,349,"660 NW 35 COURT, OAKLAND PARK, FL, 33309","Match","Exact","660 NW 35TH CT, OAKLAND PARK, FL, 33309",114719425,"L"
268350,"660 ONEILL ST","DUBUQUE","IA",52001,42.528457874,-90.674044774,350,"660 ONEILL ST, DUBUQUE, IA, 52001","Match","Non_Exact","660 O'NEILL ST, DUBUQUE, IA, 52001",16908200,"R"
268351,"660 POPE AVENUE NW","WINTER HAVEN","FL",33881,28.024992135,-81.7339439639999,351,"660 POPE AVENUE NW, WINTER HAVEN, FL, 33881","Match","Non_Exact","660 POPE AVE, WINTER HAVEN, FL, 33881",104823754,"L"
268352,"660 RESDENZ PKWY APT M","KETTERING","OH",45429,NA,NA,352,"660 RESDENZ PKWY APT M, KETTERING, OH, 45429","No_Match",NA,NA,NA,NA
268353,"660 RIDGE VIEW DR","HERNANDO","MS",38632,34.850880594,-90.0022161269999,353,"660 RIDGE VIEW DR, HERNANDO, MS, 38632","Match","Exact","660 RIDGE VIEW DR, HERNANDO, MS, 38632",91852821,"R"
268354,"660 RIDGEMONT ROAD","EARLYSVILLE","VA",22936,38.153332273,-78.477541563,354,"660 RIDGEMONT ROAD, EARLYSVILLE, VA, 22936","Match","Exact","660 RIDGEMONT RD, EARLYSVILLE, VA, 22936",83363354,"L"
268355,"660 RIVER ROAD","EDGEWATER","NJ",7020,40.819671181,-73.977965497,355,"660 RIVER ROAD, EDGEWATER, NJ, 7020","Match","Exact","660 RIVER RD, EDGEWATER, NJ, 07020",646645803,"L"
268356,"660 S BAINBRIDGE CTR RD","BENTON HARBOR","MI",49022,42.10597742,-86.281348715,356,"660 S BAINBRIDGE CTR RD, BENTON HARBOR, MI, 49022","Match","Exact","660 S BAINBRIDGE CENTER RD, BENTON HARBOR, MI, 49022",119982732,"L"
268357,"660 S FIGUEROA ST STE 1888","LOS ANGELES","CA",90017,34.0497748400001,-118.25947973,357,"660 S FIGUEROA ST STE 1888, LOS ANGELES, CA, 90017","Match","Non_Exact","660 S FIGUEROA ST, LOS ANGELES, CA, 90017",141617174,"L"
268358,"660 S FIGUEROA ST SUITE 1960","LOS ANGELES","CA",90017,34.0497748400001,-118.25947973,358,"660 S FIGUEROA ST SUITE 1960, LOS ANGELES, CA, 90017","Match","Non_Exact","660 S FIGUEROA ST, LOS ANGELES, CA, 90017",141617174,"L"
268359,"660 S MCALISTER","WAUKEGAN","IL",60085,42.3472470040001,-87.836304656,359,"660 S MCALISTER, WAUKEGAN, IL, 60085","Match","Non_Exact","660 S MCALISTER AVE, WAUKEGAN, IL, 60085",119645404,"R"
268360,"660 SKIPPER DRIVE NW","ATLANTA","GA",30318,33.773801877,-84.490467816,360,"660 SKIPPER DRIVE NW, ATLANTA, GA, 30318","Match","Exact","660 SKIPPER DR NW, ATLANTA, GA, 30318",17336812,"L"
268361,"660 SOUTH EGG HARBOR ROAD","HAMMONTON","NJ",8037,39.65591055,-74.8407074259999,361,"660 SOUTH EGG HARBOR ROAD, HAMMONTON, NJ, 8037","Match","Exact","660 S EGG HARBOR RD, HAMMONTON, NJ, 08037",134367340,"L"
268362,"660 SOUTH HARRISON STREET","ARLINGTON","VA",22204,38.8592360710001,-77.1209893389999,362,"660 SOUTH HARRISON STREET, ARLINGTON, VA, 22204","Match","Exact","660 S HARRISON ST, ARLINGTON, VA, 22204",76469104,"R"
268363,"660 SPRINGHILL AVENUE","MOBILE","AL",36602,30.688838124,-88.050961129,363,"660 SPRINGHILL AVENUE, MOBILE, AL, 36602","Match","Non_Exact","660 SPRING HILL AVE, MOBILE, AL, 36602",61867898,"R"
268364,"660 SW MILITARY DR  SUITE E","SAN ANTONIO","TX",78221,29.3566969730001,-98.501928148,364,"660 SW MILITARY DR  SUITE E, SAN ANTONIO, TX, 78221","Match","Non_Exact","660 SW MILITARY DR, SAN ANTONIO, TX, 78221",640623500,"L"
268365,"660 SWET HOLLOW ROAD","BLOOMSBURY","NJ",8804,40.6341658480001,-75.066855625,365,"660 SWET HOLLOW ROAD, BLOOMSBURY, NJ, 8804","Match","Non_Exact","660 SWEET HOLLOW RD, BLOOMSBURY, NJ, 08804",632486548,"R"
268366,"660 VALLEY CREST DRIVE","BIRMINGHAM","AL",35215,33.6169127630001,-86.7330513329999,366,"660 VALLEY CREST DRIVE, BIRMINGHAM, AL, 35215","Match","Exact","660 VALLEY CREST DR, BIRMINGHAM, AL, 35215",640552660,"L"
268367,"660 VIRGINIA ST","GARY","IN",46402,41.599165251,-87.3296467649999,367,"660 VIRGINIA ST, GARY, IN, 46402","Match","Exact","660 VIRGINIA ST, GARY, IN, 46402",98426512,"R"
268368,"660 W 180TH ST STE 3C","NEW YORK","NY",10033,40.8493363050001,-73.935923853,368,"660 W 180TH ST STE 3C, NEW YORK, NY, 10033","Match","Non_Exact","660 W 180TH ST, NEW YORK, NY, 10033",59655599,"L"
268369,"660 W 237TH ST","BRONX","NY",10463,40.888386451,-73.914015545,369,"660 W 237TH ST, BRONX, NY, 10463","Match","Exact","660 W 237TH ST, BRONX, NY, 10463",80295902,"L"
268370,"660 W AVIATOR CROSSING DR","ORO VALLEY","AZ",85755,32.439048853,-110.979890856,370,"660 W AVIATOR CROSSING DR, ORO VALLEY, AZ, 85755","Match","Exact","660 W AVIATOR CROSSING DR, ORO VALLEY, AZ, 85755",648012831,"L"
268371,"660 W KENNEDY BLVD","ORLANDO","FL",32810,NA,NA,371,"660 W KENNEDY BLVD, ORLANDO, FL, 32810","Tie",NA,NA,NA,NA
268372,"660 W MENDOZA AVE","MESA","AZ",85210,33.37031531,-111.848280015,372,"660 W MENDOZA AVE, MESA, AZ, 85210","Match","Exact","660 W MENDOZA AVE, MESA, AZ, 85210",128380586,"R"
268373,"660 WATER ST SW","WASHINGTON","DC",20024,NA,NA,373,"660 WATER ST SW, WASHINGTON, DC, 20024","No_Match",NA,NA,NA,NA
268374,"660 WEST 26TH AVENUE","EUGENE","OR",97405,44.0298336390001,-123.102198951,374,"660 WEST 26TH AVENUE, EUGENE, OR, 97405","Match","Exact","660 W 26TH AVE, EUGENE, OR, 97405",178195870,"L"
268375,"660 WEST BROADWAY","GLENDALE","CA",91204,34.1467725530001,-118.269020902,375,"660 WEST BROADWAY, GLENDALE, CA, 91204","Match","Exact","660 W BROADWAY, GLENDALE, CA, 91204",642193194,"L"
268376,"660 WEST TENAYA AVENUE","CLOVIS","CA",93612,36.829751742,-119.723833258,376,"660 WEST TENAYA AVENUE, CLOVIS, CA, 93612","Match","Exact","660 W TENAYA AVE, CLOVIS, CA, 93612",197618871,"L"
268377,"660 WESTFIELD RD UNIT 281921","SAN FRANCISCO","CA",94128,NA,NA,377,"660 WESTFIELD RD UNIT 281921, SAN FRANCISCO, CA, 94128","No_Match",NA,NA,NA,NA
268378,"660 WILLIAM AVENUE","DELPHOS","OH",45833,40.8501764110001,-84.353890044,378,"660 WILLIAM AVENUE, DELPHOS, OH, 45833","Match","Exact","660 WILLIAM AVE, DELPHOS, OH, 45833",6774059,"R"
268379,"660","COLUMBUS","IN",47201,NA,NA,379,"660, COLUMBUS, IN, 47201","No_Match",NA,NA,NA,NA
268380,"6600 AUSTIN WAY","SACRAMENTO","CA",95823,38.5057345770001,-121.441164643,380,"6600 AUSTIN WAY, SACRAMENTO, CA, 95823","Match","Exact","6600 AUSTIN WAY, SACRAMENTO, CA, 95823",133336918,"R"
268381,"6600 BRAMBER LN","AUSTIN","TX",78754,30.3518770490001,-97.613916164,381,"6600 BRAMBER LN, AUSTIN, TX, 78754","Match","Exact","6600 BRAMBER LN, AUSTIN, TX, 78754",642862137,"R"
268382,"6600 BRANN STREET","OAKLAND","CA",94605,37.7710898180001,-122.181467904,382,"6600 BRANN STREET, OAKLAND, CA, 94605","Match","Exact","6600 BRANN ST, OAKLAND, CA, 94605",125008713,"L"
268383,"6600 CORRINE DR NW","CANTON","OH",44718,40.86574231,-81.472772393,383,"6600 CORRINE DR NW, CANTON, OH, 44718","Match","Exact","6600 CORRINE DR NW, CANTON, OH, 44718",64700401,"L"
268384,"6600 COUGAR DRIVE","SACRAMENTO","CA",95828,38.5080377420001,-121.418857858,384,"6600 COUGAR DRIVE, SACRAMENTO, CA, 95828","Match","Exact","6600 COUGAR DR, SACRAMENTO, CA, 95828",133337787,"R"
268385,"6600 COUNTY ROAD 44 SW","ALEXANDRIA","MN",56308,NA,NA,385,"6600 COUNTY ROAD 44 SW, ALEXANDRIA, MN, 56308","No_Match",NA,NA,NA,NA
268386,"6600 DENTON HWY SUITE 200","WATAUGA","TX",76148,32.866323558,-97.263345853,386,"6600 DENTON HWY SUITE 200, WATAUGA, TX, 76148","Match","Exact","6600 DENTON HWY, WATAUGA, TX, 76148",640623617,"L"
268387,"6600 DUMBARTON CIR","FREMONT","CA",94555,37.549957428,-122.059209177,387,"6600 DUMBARTON CIR, FREMONT, CA, 94555","Match","Exact","6600 DUMBARTON CIR, FREMONT, CA, 94555",606842470,"R"
268388,"6600 E CIRCULO INVIERNO","TUCSON","AZ",85750,32.309773352,-110.85137474,388,"6600 E CIRCULO INVIERNO, TUCSON, AZ, 85750","Match","Exact","6600 E CIR INVIERNO, TUCSON, AZ, 85750",121192214,"R"
268389,"6600 EASTBRAIR DRIVE","LITHONIA","GA",30058,33.7331811440001,-84.128190809,389,"6600 EASTBRAIR DRIVE, LITHONIA, GA, 30058","Match","Non_Exact","6600 EASTBRIAR DR, LITHONIA, GA, 30058",23383291,"L"
268390,"6600 GISELE DRIVE NE","ALBUQUERQUE","NM",87109,35.150220027,-106.57097298,390,"6600 GISELE DRIVE NE, ALBUQUERQUE, NM, 87109","Match","Exact","6600 GISELE DR NE, ALBUQUERQUE, NM, 87109",206712890,"R"
268391,"6600 HOOVER TRAIL RD","CEDAR RAPIDS","IA",52404,41.913563448,-91.623828718,391,"6600 HOOVER TRAIL RD, CEDAR RAPIDS, IA, 52404","Match","Non_Exact","6600 HOOVER TRAIL RD SW, CEDAR RAPIDS, IA, 52404",619382399,"L"
268392,"6600 JAGUAR DRIVE SUITE 401","SANTA FE","NM",87507,35.624123771,-106.050445058,392,"6600 JAGUAR DRIVE SUITE 401, SANTA FE, NM, 87507","Match","Exact","6600 JAGUAR DR, SANTA FE, NM, 87507",647272908,"L"
268393,"6600 KERN PLACE","RANCHO CUCAMONGA","CA",91701,34.1340810990001,-117.568890931,393,"6600 KERN PLACE, RANCHO CUCAMONGA, CA, 91701","Match","Exact","6600 KERN PL, RANCHO CUCAMONGA, CA, 91701",636902373,"L"
268394,"6600 LBJ FREEWAY STE 188","DALLAS","TX",75240,32.924488652,-96.7917684829999,394,"6600 LBJ FREEWAY STE 188, DALLAS, TX, 75240","Match","Exact","6600 LYNDON B JOHNSON FWY, DALLAS, TX, 75240",102900839,"R"
268395,"6600 LUZON AVE NW 404","WASHINGTON","DC",20012,38.9699897470001,-77.033237614,395,"6600 LUZON AVE NW 404, WASHINGTON, DC, 20012","Match","Exact","6600 LUZON AVE NW, WASHINGTON, DC, 20012",76221615,"L"
268396,"6600 MANCHESTER STREET","NEW ORLEANS","LA",70126,30.032073618,-90.016216915,396,"6600 MANCHESTER STREET, NEW ORLEANS, LA, 70126","Match","Exact","6600 MANCHESTER ST, NEW ORLEANS, LA, 70126",191705049,"R"
268397,"6600 MASON VALLEY DRIVE","N. CHESTERFIELD","VA",23234,37.424369776,-77.474423722,397,"6600 MASON VALLEY DRIVE, N. CHESTERFIELD, VA, 23234","Match","Exact","6600 MASON VALLEY DR, NORTH CHESTERFIELD, VA, 23234",201554533,"R"
268398,"6600 MCCALLUM STREET APT 3F","PHILADELPHIA","PA",19119,40.0443814170001,-75.191068006,398,"6600 MCCALLUM STREET APT 3F, PHILADELPHIA, PA, 19119","Match","Exact","6600 MCCALLUM ST, PHILADELPHIA, PA, 19119",131394594,"L"
268399,"6600 MORAVIA PARK DRIVE","BALTIMORE","MD",21237,39.311561726,-76.535639228,399,"6600 MORAVIA PARK DRIVE, BALTIMORE, MD, 21237","Match","Exact","6600 MORAVIA PARK DR, BALTIMORE, MD, 21237",206466167,"L"
268400,"6600 MYRTLE BEACH DR","PLANO","TX",75093,33.034347758,-96.843264848,400,"6600 MYRTLE BEACH DR, PLANO, TX, 75093","Match","Exact","6600 MYRTLE BEACH DR, PLANO, TX, 75093",103357865,"L"
268401,"6600 NW 27TH AVE STE I-3","MIAMI","FL",33147,25.8345640850001,-80.2412818339999,401,"6600 NW 27TH AVE STE I-3, MIAMI, FL, 33147","Match","Non_Exact","6600 NW 27TH AVE, MIAMI, FL, 33147",116001402,"L"
268402,"6600 NW 27TH AVENUE SUITE 206","MIAMI","FL",33147,25.8345640850001,-80.2412818339999,402,"6600 NW 27TH AVENUE SUITE 206, MIAMI, FL, 33147","Match","Non_Exact","6600 NW 27TH AVE, MIAMI, FL, 33147",116001402,"L"
268403,"6600 NW 27TH AVENUE","MIAMI","FL",33147,25.8345640850001,-80.2412818339999,403,"6600 NW 27TH AVENUE, MIAMI, FL, 33147","Match","Exact","6600 NW 27TH AVE, MIAMI, FL, 33147",116001402,"L"
268404,"6600 PARKSIDE DRIVE","ARLINGTON","TX",76001,32.6385105260001,-97.14277293,404,"6600 PARKSIDE DRIVE, ARLINGTON, TX, 76001","Match","Exact","6600 PARKSIDE DR, ARLINGTON, TX, 76001",102120618,"L"
268405,"6600 PEACHTREE DUNWOODY RD 600-150","ATLANTA","GA",30328,33.939278083,-84.3537554819999,405,"6600 PEACHTREE DUNWOODY RD 600-150, ATLANTA, GA, 30328","Match","Non_Exact","6600 PEACHTREE DUNWOODY RD NE, ATLANTA, GA, 30328",624608877,"L"
268406,"6600 PLAZA DR SUITE 210","NEW ORLEANS","LA",70127,30.034212418,-89.9821411299999,406,"6600 PLAZA DR SUITE 210, NEW ORLEANS, LA, 70127","Match","Exact","6600 PLAZA DR, NEW ORLEANS, LA, 70127",191727264,"R"
268407,"6600 PLEASANT AVE UNIT 146","RICHFIELD","MN",55423,44.8833012910001,-93.283361836,407,"6600 PLEASANT AVE UNIT 146, RICHFIELD, MN, 55423","Match","Non_Exact","6600 PLEASANT AVE S, RICHFIELD, MN, 55423",624062249,"R"
268408,"6600 QUEENS FALLS COURT","LOUISVILLE","KY",40229,38.0984879640001,-85.640200898,408,"6600 QUEENS FALLS COURT, LOUISVILLE, KY, 40229","Match","Exact","6600 QUEENS FALLS CT, LOUISVILLE, KY, 40229",96882887,"L"
268409,"6600 RADIO STATION RD","NASHVILLE","GA",31639,31.1985621910001,-83.129829387,409,"6600 RADIO STATION RD, NASHVILLE, GA, 31639","Match","Exact","6600 RADIO STATION RD, NASHVILLE, GA, 31639",642526465,"L"
268410,"6600 ROLLING PASTURE WAY","LOUISVILLE","KY",40299,38.15229716,-85.5476477449999,410,"6600 ROLLING PASTURE WAY, LOUISVILLE, KY, 40299","Match","Exact","6600 ROLLING PASTURE WAY, LOUISVILLE, KY, 40299",625410799,"R"
268411,"6600 S 32ND AVE","TAMPA","FL",33619,27.9191381300001,-82.3798847149999,411,"6600 S 32ND AVE, TAMPA, FL, 33619","Match","Non_Exact","6600 32ND AVE S, TAMPA, FL, 33619",104570129,"R"
268412,"6600 S CRANE AVE","SIOUX FALLS","SD",57108,43.4854057470001,-96.773302921,412,"6600 S CRANE AVE, SIOUX FALLS, SD, 57108","Match","Exact","6600 S CRANE AVE, SIOUX FALLS, SD, 57108",176330694,"R"
268413,"6600 S FM 730","AZLE","TX",76020,32.837206232,-97.644734816,413,"6600 S FM 730, AZLE, TX, 76020","Match","Exact","6600 S FM 730, AZLE, TX, 76020",635377841,"R"
268414,"6600 S GATOR CREEK BLVD","SARASOTA","FL",34241,27.26385744,-82.399154852,414,"6600 S GATOR CREEK BLVD, SARASOTA, FL, 34241","Match","Exact","6600 GATOR CREEK BLVD, SARASOTA, FL, 34241",16415561,"L"
268415,"6600 S HARVARD","CHICAGO","IL",60621,41.7743349350001,-87.633289643,415,"6600 S HARVARD, CHICAGO, IL, 60621","Match","Non_Exact","6600 S HARVARD AVE, CHICAGO, IL, 60621",111831191,"R"
268416,"6600 SEMINARY WOODS PLACE","LOUISVILLE","KY",40241,38.292114955,-85.6263271189999,416,"6600 SEMINARY WOODS PLACE, LOUISVILLE, KY, 40241","Match","Exact","6600 SEMINARY WOODS PL, LOUISVILLE, KY, 40241",648028213,"R"
268417,"6600 SHEP DAIRY LANE","CABOOL","MO",65689,37.294273864,-92.179065129,417,"6600 SHEP DAIRY LANE, CABOOL, MO, 65689","Match","Exact","6600 SHEP DAIRY LN, CABOOL, MO, 65689",26451620,"R"
268418,"6600 SOCORRO DRIVE","LAS VEGAS","NV",89108,36.195477499,-115.239797266,418,"6600 SOCORRO DRIVE, LAS VEGAS, NV, 89108","Match","Exact","6600 SOCORRO DR, LAS VEGAS, NV, 89108",201899438,"R"
268419,"6600 SOUTH 66TH STREET","LINCOLN","NE",68516,40.745090035,-96.633532367,419,"6600 SOUTH 66TH STREET, LINCOLN, NE, 68516","Match","Exact","6600 S 66TH ST, LINCOLN, NE, 68516",640708190,"R"
268420,"6600 STONEHAM DR","AMARILLO","TX",79109,35.145335152,-101.912646799,420,"6600 STONEHAM DR, AMARILLO, TX, 79109","Match","Exact","6600 STONEHAM DR, AMARILLO, TX, 79109",182653221,"L"
268421,"6600 SUGARLOAF PARKWAY STE 400-228","DULUTH","GA",30097,33.998509158,-84.093451704,421,"6600 SUGARLOAF PARKWAY STE 400-228, DULUTH, GA, 30097","Match","Exact","6600 SUGARLOAF PKWY, DULUTH, GA, 30097",88958900,"L"
268422,"6600 SUGARLOAF PKWY STE 400 374","DULUTH","GA",30097,33.998509158,-84.093451704,422,"6600 SUGARLOAF PKWY STE 400 374, DULUTH, GA, 30097","Match","Exact","6600 SUGARLOAF PKWY, DULUTH, GA, 30097",88958900,"L"
268423,"6600 SUGARLOAF PKWY STE 400 394","DULUTH","GA",30096,33.998509158,-84.093451704,423,"6600 SUGARLOAF PKWY STE 400 394, DULUTH, GA, 30096","Match","Non_Exact","6600 SUGARLOAF PKWY, DULUTH, GA, 30097",88958900,"L"
268424,"6600 SUGARLOAF PKWY STE 400","DULUTH","GA",30097,33.998509158,-84.093451704,424,"6600 SUGARLOAF PKWY STE 400, DULUTH, GA, 30097","Match","Exact","6600 SUGARLOAF PKWY, DULUTH, GA, 30097",88958900,"L"
268425,"6600 SUGARLOAF PKWY SUITE 400-315","DULUTH","GA",30097,33.998509158,-84.093451704,425,"6600 SUGARLOAF PKWY SUITE 400-315, DULUTH, GA, 30097","Match","Exact","6600 SUGARLOAF PKWY, DULUTH, GA, 30097",88958900,"L"
268426,"6600 SW 126 STREET","PINECREST","FL",33156,25.6539972570001,-80.300973018,426,"6600 SW 126 STREET, PINECREST, FL, 33156","Match","Exact","6600 SW 126TH ST, PINECREST, FL, 33156",115985956,"L"
268427,"6600 W CHARLESTON AVE","LAS VEGAS","NV",89146,36.1591939960001,-115.239462171,427,"6600 W CHARLESTON AVE, LAS VEGAS, NV, 89146","Match","Non_Exact","6600 W CHARLESTON BLVD, LAS VEGAS, NV, 89146",201921997,"R"
268428,"6600 W COMMERCIAL PARK AVENUE","RATHDRUM","ID",83858,47.8165652060001,-116.874486122,428,"6600 W COMMERCIAL PARK AVENUE, RATHDRUM, ID, 83858","Match","Exact","6600 COMMERCIAL PARK AVE, RATHDRUM, ID, 83858",192933597,"R"
268429,"6600 WARNER AVE UNIT 209","HUNTINGTON BEACH","CA",92647,33.715423018,-118.014229046,429,"6600 WARNER AVE UNIT 209, HUNTINGTON BEACH, CA, 92647","Match","Exact","6600 WARNER AVE, HUNTINGTON BEACH, CA, 92647",144260481,"R"
268430,"6600 WEST 41ST STREET","SIOUX FALLS","SD",57106,43.514816028,-96.807438938,430,"6600 WEST 41ST STREET, SIOUX FALLS, SD, 57106","Match","Exact","6600 W 41ST ST, SIOUX FALLS, SD, 57106",636612835,"R"
268431,"6600 WESTON AVE","CAPITOL HEIGHTS","MD",20743,38.8920648100001,-76.892425465,431,"6600 WESTON AVE, CAPITOL HEIGHTS, MD, 20743","Match","Exact","6600 WESTON AVE, CAPITOL HEIGHTS, MD, 20743",76317827,"L"
268432,"6600 WESTOWN PARKWAY SUITE 190","WEST DES MOINES","IA",50266,41.5939662700001,-93.7990937879999,432,"6600 WESTOWN PARKWAY SUITE 190, WEST DES MOINES, IA, 50266","Match","Exact","6600 WESTOWN PKWY, WEST DES MOINES, IA, 50266",640260147,"L"
268433,"6600 WHITLEY RD","WATAGUA","TX",76148,32.866658273,-97.254864447,433,"6600 WHITLEY RD, WATAGUA, TX, 76148","Match","Non_Exact","6600 WHITLEY RD, WATAUGA, TX, 76148",101862448,"L"
268434,"6600 YUCCA ST APT305","LOS ANGELES","CA",90028,34.103202642,-118.333447511,434,"6600 YUCCA ST APT305, LOS ANGELES, CA, 90028","Match","Exact","6600 YUCCA ST, LOS ANGELES, CA, 90028",141594779,"L"
268435,"6600AUSTIN WAY","SACRAMENTO","CA",95823,NA,NA,435,"6600AUSTIN WAY, SACRAMENTO, CA, 95823","No_Match",NA,NA,NA,NA
268436,"6601 10TH ST","HARAHAN","LA",70123,29.9519478980001,-90.202531489,436,"6601 10TH ST, HARAHAN, LA, 70123","Match","Exact","6601 10TH ST, HARAHAN, LA, 70123",93521198,"R"
268437,"6601 18TH WAY NORTH","ST PETERSBURG","FL",33702,27.8320397520001,-82.659102046,437,"6601 18TH WAY NORTH, ST PETERSBURG, FL, 33702","Match","Exact","6601 18TH WAY N, SAINT PETERSBURG, FL, 33702",124703039,"R"
268438,"6601 210ST SW APT A107","LYNNWOOD","WA",98036,NA,NA,438,"6601 210ST SW APT A107, LYNNWOOD, WA, 98036","No_Match",NA,NA,NA,NA
268439,"6601 80TH PLACE","CABIN JOHN","MD",20818,38.9756477760001,-77.166795888,439,"6601 80TH PLACE, CABIN JOHN, MD, 20818","Match","Exact","6601 80TH PL, CABIN JOHN, MD, 20818",641037061,"R"
268440,"6601 AGGREGATE BLVD","FREDERICK","CO",80516,NA,NA,440,"6601 AGGREGATE BLVD, FREDERICK, CO, 80516","No_Match",NA,NA,NA,NA
268441,"6601 ALCOA ROAD","BENTON","AR",72015,34.596532451,-92.534552267,441,"6601 ALCOA ROAD, BENTON, AR, 72015","Match","Exact","6601 ALCOA RD, BENTON, AR, 72015",24192645,"R"
268442,"6601 ALMEDA AVE","ARVERNE","NY",11692,NA,NA,442,"6601 ALMEDA AVE, ARVERNE, NY, 11692","No_Match",NA,NA,NA,NA
268443,"6601 ARBOR DRIVE","MIRAMAR","FL",33027,25.980192082,-80.217545102,443,"6601 ARBOR DRIVE, MIRAMAR, FL, 33027","Match","Non_Exact","6601 ARBOR DR, MIRAMAR, FL, 33023",114734819,"R"
268444,"6601 BELLFLOWER CT","SPRINGFIELD","IL",62712,39.7065710530001,-89.632439685,444,"6601 BELLFLOWER CT, SPRINGFIELD, IL, 62712","Match","Exact","6601 BELLFLOWER CT, SPRINGFIELD, IL, 62712",97358901,"L"
268445,"6601 BELLVIEW PINES ROAD","PENSACOLA","FL",32526,30.475062807,-87.288675445,445,"6601 BELLVIEW PINES ROAD, PENSACOLA, FL, 32526","Match","Exact","6601 BELLVIEW PINES RD, PENSACOLA, FL, 32526",93232708,"L"
268446,"6601 BROADWAY 3I","BRONX","NY",10471,40.9083984480001,-73.896572691,446,"6601 BROADWAY 3I, BRONX, NY, 10471","Match","Exact","6601 BROADWAY, BRONX, NY, 10471",639093519,"L"
268447,"6601 BROADWAY APT 1D","BRONX","NY",10471,40.9083984480001,-73.896572691,447,"6601 BROADWAY APT 1D, BRONX, NY, 10471","Match","Exact","6601 BROADWAY, BRONX, NY, 10471",639093519,"L"
268448,"6601 CENTER DRIVE WEST SUITE 500","LOS ANGELES","CA",90045,33.9795106490001,-118.393502827,448,"6601 CENTER DRIVE WEST SUITE 500, LOS ANGELES, CA, 90045","Match","Exact","6601 CENTER DR W, LOS ANGELES, CA, 90045",142455883,"L"
268449,"6601 COFFMAN ROAD","INDIANAPOLIS","IN",46268,39.877587814,-86.240905342,449,"6601 COFFMAN ROAD, INDIANAPOLIS, IN, 46268","Match","Exact","6601 COFFMAN RD, INDIANAPOLIS, IN, 46268",108017297,"R"
268450,"6601 CONSTITUTION WAY","GREENCRES","FL",33413,26.633621411,-80.1467137449999,450,"6601 CONSTITUTION WAY, GREENCRES, FL, 33413","Match","Non_Exact","6601 CONSTITUTION WAY, GREENACRES, FL, 33413",115578741,"R"
268451,"6601 CR 912","JOSHUA","TX",76058,32.473440726,-97.459798233,451,"6601 CR 912, JOSHUA, TX, 76058","Match","Exact","6601 CO RD 912, JOSHUA, TX, 76058",103539647,"L"
268452,"6601 DORCHESTER ST","NEW ORLEANS","LA",70126,30.0302020770001,-90.015913097,452,"6601 DORCHESTER ST, NEW ORLEANS, LA, 70126","Match","Exact","6601 DORCHESTER ST, NEW ORLEANS, LA, 70126",191705054,"L"
268453,"6601 E BEECHCRAFT RD","WASILLA","AK",99654,61.6409686960001,-149.284186348,453,"6601 E BEECHCRAFT RD, WASILLA, AK, 99654","Match","Exact","6601 E BEECHCRAFT RD, WASILLA, AK, 99654",191080240,"R"
268454,"6601 E FM 916","GRANDVIEW","TX",76050,32.2596330330001,-97.2444832749999,454,"6601 E FM 916, GRANDVIEW, TX, 76050","Match","Exact","6601 FM 916, GRANDVIEW, TX, 76050",103527583,"L"
268455,"6601 E WINDSOR RD","MUNCIE","IN",47302,40.1463642370001,-85.308741305,455,"6601 E WINDSOR RD, MUNCIE, IN, 47302","Match","Exact","6601 E WINDSOR RD, MUNCIE, IN, 47302",30839474,"L"
268456,"6601 EAST GRANT ROAD SUITE 101","TUCSON","AZ",85715,32.249804817,-110.851581522,456,"6601 EAST GRANT ROAD SUITE 101, TUCSON, AZ, 85715","Match","Exact","6601 E GRANT RD, TUCSON, AZ, 85715",121180645,"L"
268457,"6601 ENGLISH HILLS DR APT 1A","CHARLOTTE","NC",28212,35.2063196760001,-80.73267963,457,"6601 ENGLISH HILLS DR APT 1A, CHARLOTTE, NC, 28212","Match","Exact","6601 ENGLISH HILLS DR, CHARLOTTE, NC, 28212",650106453,"R"
268458,"6601 GLENDALE ST","METAIRIE","LA",70003,30.015051349,-90.2174704449999,458,"6601 GLENDALE ST, METAIRIE, LA, 70003","Match","Exact","6601 GLENDALE ST, METAIRIE, LA, 70003",93494189,"R"
268459,"6601 GOLD WAGON LANE","MINT HILL","NC",28227,35.1747774090001,-80.70009663,459,"6601 GOLD WAGON LANE, MINT HILL, NC, 28227","Match","Exact","6601 GOLD WAGON LN, MINT HILL, NC, 28227",70513469,"R"
268460,"6601 GRANDVIEW DRIVE","INDIANAPOLIS","IN",46260,39.877606986,-86.188675589,460,"6601 GRANDVIEW DRIVE, INDIANAPOLIS, IN, 46260","Match","Exact","6601 GRANDVIEW DR, INDIANAPOLIS, IN, 46260",636058081,"R"
268461,"6601 GUNN HWY","TAMPA","FL",33625,28.065529971,-82.563823481,461,"6601 GUNN HWY, TAMPA, FL, 33625","Match","Exact","6601 GUNN HWY, TAMPA, FL, 33625",650348870,"L"
268462,"6601 HOMER ST","WESTMINSTER","CA",92683,33.755905506,-118.014556123,462,"6601 HOMER ST, WESTMINSTER, CA, 92683","Match","Exact","6601 HOMER ST, WESTMINSTER, CA, 92683",144004573,"L"
268463,"6601 HONEY HILL","SAN ANTONIO","TX",78229,29.493330498,-98.588854085,463,"6601 HONEY HILL, SAN ANTONIO, TX, 78229","Match","Exact","6601 HONEY HILL, SAN ANTONIO, TX, 78229",101541873,"L"
268464,"6601 HONEY HL","SAN ANTONIO","TX",78229,29.493330498,-98.588854085,464,"6601 HONEY HL, SAN ANTONIO, TX, 78229","Match","Exact","6601 HONEY HILL, SAN ANTONIO, TX, 78229",101541873,"L"
268465,"6601 HORACE MANN RD","CHARLOTTE","NC",28269,NA,NA,465,"6601 HORACE MANN RD, CHARLOTTE, NC, 28269","No_Match",NA,NA,NA,NA
268466,"6601 IMPERIAL AVE","SAN DIEGO","CA",92114,32.710795451,-117.055948111,466,"6601 IMPERIAL AVE, SAN DIEGO, CA, 92114","Match","Exact","6601 IMPERIAL AVE, SAN DIEGO, CA, 92114",195705474,"R"
268467,"6601 LYONS ROAD SUITE E3","COCONUT CREEK","FL",33073,26.310534906,-80.1864414249999,467,"6601 LYONS ROAD SUITE E3, COCONUT CREEK, FL, 33073","Match","Exact","6601 LYONS RD, COCONUT CREEK, FL, 33073",114773514,"L"
268468,"6601 MERLOT LANE","ARLINGTON","TX",76002,32.6399229350001,-97.0868244279999,468,"6601 MERLOT LANE, ARLINGTON, TX, 76002","Match","Exact","6601 MERLOT LN, ARLINGTON, TX, 76002",639932357,"L"
268469,"6601 NE 78TH CT STE A8","PORLAND","OR",97218,45.5700042570001,-122.581860653,469,"6601 NE 78TH CT STE A8, PORLAND, OR, 97218","Match","Non_Exact","6601 NE 78TH CT, PORTLAND, OR, 97218",157595427,"L"
268470,"6601 RICHARDSON RD","BALTIMORE","MD",21207,39.3200150750001,-76.7361806869999,470,"6601 RICHARDSON RD, BALTIMORE, MD, 21207","Match","Exact","6601 RICHARDSON RD, BALTIMORE, MD, 21207",191483587,"L"
268471,"6601 RIVER TRAIL CT","BETHESDA","MD",20817,38.9754361390001,-77.169881779,471,"6601 RIVER TRAIL CT, BETHESDA, MD, 20817","Match","Exact","6601 RIVER TRAIL CT, BETHESDA, MD, 20817",62057255,"R"
268472,"6601 RUTLAND STREET","PHILADELPHIA","PA",19149,40.04158333,-75.0741167739999,472,"6601 RUTLAND STREET, PHILADELPHIA, PA, 19149","Match","Exact","6601 RUTLAND ST, PHILADELPHIA, PA, 19149",131416150,"R"
268473,"6601 S KIMBARK AVE SUITE 3N","CHICAGO","IL",60515,NA,NA,473,"6601 S KIMBARK AVE SUITE 3N, CHICAGO, IL, 60515","No_Match",NA,NA,NA,NA
268474,"6601 S WEST SHORE BLVD 2215","TAMPA","FM",33616,NA,NA,474,"6601 S WEST SHORE BLVD 2215, TAMPA, FM, 33616","No_Match",NA,NA,NA,NA
268475,"6601 SE 160TH STREET","OKC","OK",73165,35.310217907,-97.40946755,475,"6601 SE 160TH STREET, OKC, OK, 73165","Match","Non_Exact","6601 SE 160TH ST, OKLAHOMA CITY, OK, 73165",614113447,"L"
268476,"6601 ST JUDE DRIVE","FAIRBURN","GA",30213,33.5789183050001,-84.6230017189999,476,"6601 ST JUDE DRIVE, FAIRBURN, GA, 30213","Match","Exact","6601 ST JUDE DR, FAIRBURN, GA, 30213",624578428,"L"
268477,"6601 STONEHEDGE ROAD","NORTH LITTLE ROCK","AR",72117,34.752149042,-92.188674175,477,"6601 STONEHEDGE ROAD, NORTH LITTLE ROCK, AR, 72117","Match","Exact","6601 STONEHEDGE RD, N LITTLE ROCK, AR, 72117",83517308,"L"
268478,"6601 SW 116 CT NO 403","MIAMI","FL",33173,NA,NA,478,"6601 SW 116 CT NO 403, MIAMI, FL, 33173","No_Match",NA,NA,NA,NA
268479,"6601 SW 152 AVENUE","MIAMI","FL",33193,25.7043439060001,-80.442788488,479,"6601 SW 152 AVENUE, MIAMI, FL, 33193","Match","Non_Exact","6601 SW 152ND AVE, MIAMI, FL, 33193",116062725,"R"
268480,"6601 SW 19TH STREET","MIRAMAR","FL",33023,25.993822665,-80.219436929,480,"6601 SW 19TH STREET, MIRAMAR, FL, 33023","Match","Exact","6601 SW 19TH ST, MIRAMAR, FL, 33023",114734394,"R"
268481,"6601 SW 80TH ST SUITE 113","MIAMI","FL",33143,25.696480912,-80.299988105,481,"6601 SW 80TH ST SUITE 113, MIAMI, FL, 33143","Match","Non_Exact","6601 SW 80TH ST, MIAMI, FL, 33143",115985383,"R"
268482,"6601 TURNAWAY LANE","NORTH CHESTERFIELD","VA",23234,37.4286312620001,-77.484839633,482,"6601 TURNAWAY LANE, NORTH CHESTERFIELD, VA, 23234","Match","Exact","6601 TURNAWAY LN, NORTH CHESTERFIELD, VA, 23234",201545701,"R"
268483,"6601 VALLEY CIRCLE BLVD","WEST HILLS","CA",91307,34.1904710040001,-118.656266659,483,"6601 VALLEY CIRCLE BLVD, WEST HILLS, CA, 91307","Match","Exact","6601 VALLEY CIRCLE BLVD, WEST HILLS, CA, 91307",141722568,"L"
268484,"6601 VICUNA DRIVE","LAS VEGAS","NV",89146,36.147119349,-115.2366775,484,"6601 VICUNA DRIVE, LAS VEGAS, NV, 89146","Match","Exact","6601 VICUNA DR, LAS VEGAS, NV, 89146",201860412,"L"
268485,"6601 W 171ST ST","TINLEY PARK","IL",60477,41.580637885,-87.780338238,485,"6601 W 171ST ST, TINLEY PARK, IL, 60477","Match","Exact","6601 171ST ST, TINLEY PARK, IL, 60477",111702971,"L"
268486,"6601 W 87TH ST","LOS ANGELES","CA",90045,33.9585820790001,-118.40473596,486,"6601 W 87TH ST, LOS ANGELES, CA, 90045","Match","Exact","6601 W 87TH ST, LOS ANGELES, CA, 90045",141578722,"R"
268487,"6601 WOODLAND AVENUE","PHIADELPHIA","PA",19018,39.9246718310001,-75.23562093,487,"6601 WOODLAND AVENUE, PHIADELPHIA, PA, 19018","Match","Non_Exact","6601 WOODLAND AVE, PHILADELPHIA, PA, 19142",131409024,"R"
268488,"6602 BLARWOOD","AUSTIN","TX",78745,30.209079015,-97.8129319079999,488,"6602 BLARWOOD, AUSTIN, TX, 78745","Match","Non_Exact","6602 BLARWOOD DR, AUSTIN, TX, 78745",64003189,"R"
268489,"6602 EL CAJON BLVD STE G","SAN DIEGO","CA",92115,NA,NA,489,"6602 EL CAJON BLVD STE G, SAN DIEGO, CA, 92115","No_Match",NA,NA,NA,NA
268490,"6602 EVERHART RD","CORPUS CHRISTI","TX",78413,27.6919934270001,-97.398508288,490,"6602 EVERHART RD, CORPUS CHRISTI, TX, 78413","Match","Exact","6602 EVERHART RD, CORPUS CHRISTI, TX, 78413",653225025,"L"
268491,"6602 HARTMAN AVE","OMAHA","NE",68104,41.310350004,-96.014461974,491,"6602 HARTMAN AVE, OMAHA, NE, 68104","Match","Exact","6602 HARTMAN AVE, OMAHA, NE, 68104",116975680,"R"
268492,"6602 LONGHORN DRIVE","MOKANE","MO",65059,38.7362108720001,-91.900474461,492,"6602 LONGHORN DRIVE, MOKANE, MO, 65059","Match","Exact","6602 LONGHORN DR, MOKANE, MO, 65059",34386896,"R"
268493,"6602 MUSTANG CREEK ROAD","KILLEEN","TX",76549,31.0743469380001,-97.810089864,493,"6602 MUSTANG CREEK ROAD, KILLEEN, TX, 76549","Match","Exact","6602 MUSTANG CREEK RD, KILLEEN, TX, 76549",642789780,"L"
268494,"6602 N 7TH ST","PHILADELPHIA","PA",19126,40.0523631980001,-75.13075241,494,"6602 N 7TH ST, PHILADELPHIA, PA, 19126","Match","Non_Exact","6602 N 7TH ST, PHILADELPHIA, PA, 19126",131414134,"L"
268495,"6602 N BLACK CANYON HWY","PHOENIX","AZ",85017,NA,NA,495,"6602 N BLACK CANYON HWY, PHOENIX, AZ, 85017","No_Match",NA,NA,NA,NA
268496,"6602 OAK ORCHARD COURT","CLINTON","MD",20735,38.76025895,-76.8927193179999,496,"6602 OAK ORCHARD COURT, CLINTON, MD, 20735","Match","Exact","6602 OAK ORCHARD CT, CLINTON, MD, 20735",76320641,"L"
268497,"6602 PALMETTO ST","CINCINNATI","OH",45227,39.1519028020001,-84.384607954,497,"6602 PALMETTO ST, CINCINNATI, OH, 45227","Match","Exact","6602 PALMETTO ST, CINCINNATI, OH, 45227",103933992,"L"
268498,"6602 S CEDAR ST","LITTLETON","CO",80120,39.59674203,-105.005805368,498,"6602 S CEDAR ST, LITTLETON, CO, 80120","Match","Exact","6602 S CEDAR ST, LITTLETON, CO, 80120",177336634,"L"
268499,"6602 SILVER FOX LANE","HIXSON","TN",37343,35.1384719810001,-85.186417354,499,"6602 SILVER FOX LANE, HIXSON, TN, 37343","Match","Exact","6602 SILVER FOX LN, HIXSON, TN, 37343",59315958,"L"
268500,"6602 TANGLEWOOD COURT 2B","HAMMOND","IN",46323,41.5939061380001,-87.4736180739999,500,"6602 TANGLEWOOD COURT 2B, HAMMOND, IN, 46323","Match","Exact","6602 TANGLEWOOD CT, HAMMOND, IN, 46323",98419796,"R"
