"ID","Address","City","State","Zip","lat","long","id","input_address","match_indicator","match_type","matched_address","tiger_line_id","tiger_side"
95501,"188 COMMUNITY DRIVE","DEBARY","FL",32713,28.8858373420001,-81.333204756,1,"188 COMMUNITY DRIVE, DEBARY, FL, 32713","Match","Exact","188 COMMUNITY DR, DEBARY, FL, 32713",94517043,"L"
95502,"188 COUNTY RD N3411","VERNON","AZ",85940,NA,NA,2,"188 COUNTY RD N3411, VERNON, AZ, 85940","No_Match",NA,NA,NA,NA
95503,"188 COUNTY ROAD 291A","ALVIN","TX",77511,29.47878962,-95.251836528,3,"188 COUNTY ROAD 291A, ALVIN, TX, 77511","Match","Exact","188 CO RD 291A, ALVIN, TX, 77511",116576294,"L"
95504,"188 CR 4709","SULPHUR SPRINGS","TX",75482,33.190506912,-95.6462118329999,4,"188 CR 4709, SULPHUR SPRINGS, TX, 75482","Match","Exact","188 CO RD 4709, SULPHUR SPRINGS, TX, 75482",42784447,"R"
95505,"188 CROSS STREET","SEEKONK","MA",2771,41.889246214,-71.300295337,5,"188 CROSS STREET, SEEKONK, MA, 2771","Match","Exact","188 CROSS ST, SEEKONK, MA, 02771",642623229,"R"
95506,"188 DAVIDSON RD","SWANNANOA","NC",28778,35.6069754600001,-82.424838038,6,"188 DAVIDSON RD, SWANNANOA, NC, 28778","Match","Exact","188 DAVIDSON RD, SWANNANOA, NC, 28778",635447497,"R"
95507,"188 DUGGER ROAD","BEEBE","AR",72012,35.076452046,-91.927337132,7,"188 DUGGER ROAD, BEEBE, AR, 72012","Match","Exact","188 DUGGER RD, BEEBE, AR, 72012",82956026,"R"
95508,"188 DUNCAN DR","DENISON","TX",75021,33.7328926480001,-96.473813186,8,"188 DUNCAN DR, DENISON, TX, 75021","Match","Exact","188 DUNCAN DR, DENISON, TX, 75021",63383056,"R"
95509,"188 E INTERLAKE BLVD","LAKE PLACID","FL",33852,27.2971695190001,-81.364295415,9,"188 E INTERLAKE BLVD, LAKE PLACID, FL, 33852","Match","Exact","188 E INTERLAKE BLVD, LAKE PLACID, FL, 33852",4639957,"R"
95510,"188 E PINE ST  P O BOX 36","BOURBON","MO",65441,NA,NA,10,"188 E PINE ST  P O BOX 36, BOURBON, MO, 65441","Tie",NA,NA,NA,NA
95511,"188 EAGLE BEND DRIVE","BIGFORK","MT",59911,48.0751510440001,-114.104306311,11,"188 EAGLE BEND DRIVE, BIGFORK, MT, 59911","Match","Exact","188 EAGLE BEND DR, BIGFORK, MT, 59911",204112325,"L"
95512,"188 EAGLE ST APT 15","BROOKLYN","NY",11222,40.735314714,-73.953405575,12,"188 EAGLE ST APT 15, BROOKLYN, NY, 11222","Match","Exact","188 EAGLE ST, BROOKLYN, NY, 11222",641032637,"R"
95513,"188 EAST 64TH STREET PH1","NEW YORK","NY",10065,40.7648631800001,-73.964734714,13,"188 EAST 64TH STREET PH1, NEW YORK, NY, 10065","Match","Exact","188 E 64TH ST, NEW YORK, NY, 10065",59657464,"R"
95514,"188 EAST CAPITOL STREET SUITE 1000","JACKSON","MS",39201,32.3001003260001,-90.186452808,14,"188 EAST CAPITOL STREET SUITE 1000, JACKSON, MS, 39201","Match","Exact","188 E CAPITOL ST, JACKSON, MS, 39201",65372546,"L"
95515,"188 EAST CAPITOL STREET- SUITE 400","JACKSON","MS",39201,32.3001003260001,-90.186452808,15,"188 EAST CAPITOL STREET- SUITE 400, JACKSON, MS, 39201","Match","Non_Exact","188 E CAPITOL ST, JACKSON, MS, 39201",65372546,"L"
95516,"188 GARFIELD AVE / BOX 861","ISLAND HEIGHTS","NJ",8732,NA,NA,16,"188 GARFIELD AVE / BOX 861, ISLAND HEIGHTS, NJ, 8732","No_Match",NA,NA,NA,NA
95517,"188 GRAND STREET UNIT 327","NEW YORK","NY",10013,40.7193077580001,-73.997232208,17,"188 GRAND STREET UNIT 327, NEW YORK, NY, 10013","Match","Exact","188 GRAND ST, NEW YORK, NY, 10013",59653799,"L"
95518,"188 HARBOR ROAD","STATEN ISLAND","NY",10303,40.632005598,-74.160381096,18,"188 HARBOR ROAD, STATEN ISLAND, NY, 10303","Match","Exact","188 HARBOR RD, STATEN ISLAND, NY, 10303",59877355,"R"
95519,"188 HEFFELFINGER RD","LEBANON","PA",17046,40.385977273,-76.4034668909999,19,"188 HEFFELFINGER RD, LEBANON, PA, 17046","Match","Exact","188 HEFFELFINGER RD, LEBANON, PA, 17046",649451667,"L"
95520,"188 HICKORY AVE","NEW ORLEANS","LA",70123,29.9392581600001,-90.1931247369999,20,"188 HICKORY AVE, NEW ORLEANS, LA, 70123","Match","Exact","188 HICKORY AVE, NEW ORLEANS, LA, 70123",647771502,"L"
95521,"188 HIGHLAND STREET","ROXBURY","MA",2119,42.3234128170001,-71.09336483,21,"188 HIGHLAND STREET, ROXBURY, MA, 2119","Match","Exact","188 HIGHLAND ST, ROXBURY, MA, 02119",85699220,"L"
95522,"188 HIGHWAY 28 W","SOAP LAKE","WA",98851,NA,NA,22,"188 HIGHWAY 28 W, SOAP LAKE, WA, 98851","No_Match",NA,NA,NA,NA
95523,"188 JEFFERSON STREET SUITE 289","NEWARK","NJ",7105,40.726415784,-74.163783156,23,"188 JEFFERSON STREET SUITE 289, NEWARK, NJ, 7105","Match","Exact","188 JEFFERSON ST, NEWARK, NJ, 07105",63468309,"L"
95524,"188 LITTLE ORANGE LAKE DRIVE","HAWTHORNE","FL",32640,29.566759431,-82.047292817,24,"188 LITTLE ORANGE LAKE DRIVE, HAWTHORNE, FL, 32640","Match","Exact","188 LITTLE ORANGE LAKE DR, HAWTHORNE, FL, 32640",86060700,"L"
95525,"188 MAIN ST","PORT REPUBLIC","NJ",8241,39.518856041,-74.496344073,25,"188 MAIN ST, PORT REPUBLIC, NJ, 8241","Match","Exact","188 MAIN ST, PORT REPUBLIC, NJ, 08241",202505130,"L"
95526,"188 MAIN STREET","EAST HARDWICK","VT",5836,44.5191035030001,-72.3060011809999,26,"188 MAIN STREET, EAST HARDWICK, VT, 5836","Match","Exact","188 MAIN ST, EAST HARDWICK, VT, 05836",181087704,"L"
95527,"188 MILLS LOOP ROAD","MOUNT OLIVE","NC",28365,35.269596474,-78.1239576469999,27,"188 MILLS LOOP ROAD, MOUNT OLIVE, NC, 28365","Match","Exact","188 MILLS LOOP RD, MOUNT OLIVE, NC, 28365",14421108,"R"
95528,"188 MOSER RD","POTTSTOWN","PA",19464,40.2393876350001,-75.621136152,28,"188 MOSER RD, POTTSTOWN, PA, 19464","Match","Exact","188 MOSER RD, POTTSTOWN, PA, 19464",605653944,"L"
95529,"188 MUSTANG LANE","SANDIA","TX",78383,27.9529693040001,-97.8564257639999,29,"188 MUSTANG LANE, SANDIA, TX, 78383","Match","Exact","188 MUSTANG LN, SANDIA, TX, 78383",629608053,"L"
95530,"188 N EMBER DRIVE","FELTON","DE",19943,39.0238428650001,-75.562297261,30,"188 N EMBER DRIVE, FELTON, DE, 19943","Match","Exact","188 N EMBER DR, FELTON, DE, 19943",601698720,"R"
95531,"188 N LONG BEACH AVE","FREEPORT","NY",11520,40.663039536,-73.5921953769999,31,"188 N LONG BEACH AVE, FREEPORT, NY, 11520","Match","Exact","188 N LONG BEACH AVE, FREEPORT, NY, 11520",147631265,"R"
95532,"188 NORTH 24TH","WEIRTON","WV",26062,40.420997362,-80.55806746,32,"188 NORTH 24TH, WEIRTON, WV, 26062","Match","Non_Exact","188 N 24TH ST, WEIRTON, WV, 26062",65501190,"R"
95533,"188 NORTH AVENUE","JONESBORO","GA",30238,33.530579705,-84.358544791,33,"188 NORTH AVENUE, JONESBORO, GA, 30238","Match","Non_Exact","188 NORTH AVE, JONESBORO, GA, 30236",23316939,"R"
95534,"188 PASCACK ROAD","WOODCLIF LAKE","NJ",7677,NA,NA,34,"188 PASCACK ROAD, WOODCLIF LAKE, NJ, 7677","No_Match",NA,NA,NA,NA
95535,"188 PLANTATION RD","HIGH SHOALS","GA",30645,33.8223742860001,-83.505646935,35,"188 PLANTATION RD, HIGH SHOALS, GA, 30645","Match","Non_Exact","188 PLANTATION RD, NORTH HIGH SHOALS, GA, 30621",5039298,"R"
95536,"188 PLEASANT STREET","HINTON","WV",25951,37.663216375,-80.8935118959999,36,"188 PLEASANT STREET, HINTON, WV, 25951","Match","Exact","188 PLEASANT ST, HINTON, WV, 25951",645811862,"L"
95537,"188 PRIVATE ROAD 917","FAIRFIELD","TX",75840,31.7085194640001,-96.2003204919999,37,"188 PRIVATE ROAD 917, FAIRFIELD, TX, 75840","Match","Non_Exact","188 PVT RD 917, FAIRFIELD, TX, 75840",653219329,"L"
95538,"188 QUINNIPIAC AVE","NEW HAVEN","CT",6513,41.2960273190001,-72.891820047,38,"188 QUINNIPIAC AVE, NEW HAVEN, CT, 6513","Match","Exact","188 QUINNIPIAC AVE, NEW HAVEN, CT, 06513",604739402,"L"
95539,"188 RICHARD DRIVE","RIVER VALE","NJ",7675,40.9937886340001,-74.013089651,39,"188 RICHARD DRIVE, RIVER VALE, NJ, 7675","Match","Exact","188 RICHARD DR, RIVER VALE, NJ, 07675",64379188,"R"
95540,"188 RIVER STREET 1ST FLR FRONT","TROY","NY",12180,42.7302598730001,-73.6939952979999,40,"188 RIVER STREET 1ST FLR FRONT, TROY, NY, 12180","Match","Exact","188 RIVER ST, TROY, NY, 12180",35728550,"R"
95541,"188 ROCKAWAY AVE","VALLEY STREAM","NY",11580,40.6617583550001,-73.6994455019999,41,"188 ROCKAWAY AVE, VALLEY STREAM, NY, 11580","Match","Exact","188 ROCKAWAY AVE, VALLEY STREAM, NY, 11580",147670194,"R"
95542,"188 S REX","ELMHURST","IL",60126,41.895479386,-87.958134888,42,"188 S REX, ELMHURST, IL, 60126","Match","Non_Exact","188 REX BLVD, ELMHURST, IL, 60126",112544740,"R"
95543,"188 SE 411TH RD","WARRENSBURG","MO",64093,38.737697182,-93.66510228,43,"188 SE 411TH RD, WARRENSBURG, MO, 64093","Match","Exact","188 SE 411TH RD, WARRENSBURG, MO, 64093",636196684,"L"
95544,"188 SIESTA KEY DRIVE","WINDSOR","CO",80550,40.4426310920001,-104.899493554,44,"188 SIESTA KEY DRIVE, WINDSOR, CO, 80550","Match","Exact","188 SIESTA KEY DR, WINDSOR, CO, 80550",614116722,"R"
95545,"188 SOUTH 730 EAST","SANTAQUIN","UT",84655,39.972481036,-111.76976227,45,"188 SOUTH 730 EAST, SANTAQUIN, UT, 84655","Match","Exact","188 S 730 E, SANTAQUIN, UT, 84655",134266198,"R"
95546,"188 SOUTH MAIN STREET","STOWE","VT",5672,44.463768923,-72.689889545,46,"188 SOUTH MAIN STREET, STOWE, VT, 5672","Match","Exact","188 S MAIN ST, STOWE, VT, 05672",136627942,"L"
95547,"188 STATE STREET - SUITE 3","PORTLAND","ME",4101,43.652906536,-70.266839053,47,"188 STATE STREET - SUITE 3, PORTLAND, ME, 4101","Match","Exact","188 STATE ST, PORTLAND, ME, 04101",78028111,"L"
95548,"188 STEELMANVILLE ROAD","EGG HARBOR TOWNSHIP","NJ",8234,39.3471458440001,-74.601881656,48,"188 STEELMANVILLE ROAD, EGG HARBOR TOWNSHIP, NJ, 8234","Match","Exact","188 STEELMANVILLE RD, EGG HARBOR TOWNSHIP, NJ, 08234",202518586,"L"
95549,"188 SWEET BIRCH LANE","DALLAS","GA",30132,34.010469076,-84.781816044,49,"188 SWEET BIRCH LANE, DALLAS, GA, 30132","Match","Exact","188 SWEET BIRCH LN, DALLAS, GA, 30132",618939179,"R"
95550,"188 THOMPSON LANE","TN","TN",37211,36.1105094490001,-86.740173571,50,"188 THOMPSON LANE, TN, TN, 37211","Match","Non_Exact","188 THOMPSON LN, NASHVILLE, TN, 37211",97192934,"R"
95551,"188 TOMAHAWK DR","ELSBERRY","MO",63343,NA,NA,51,"188 TOMAHAWK DR, ELSBERRY, MO, 63343","No_Match",NA,NA,NA,NA
95552,"188 WALDEN COURT","EAST MORICHES","NY",11940,NA,NA,52,"188 WALDEN COURT, EAST MORICHES, NY, 11940","No_Match",NA,NA,NA,NA
95553,"188 WATER STREET","STONINGTON","CT",6378,41.337744451,-71.9072161239999,53,"188 WATER STREET, STONINGTON, CT, 6378","Match","Exact","188 WATER ST, STONINGTON, CT, 06378",56854034,"R"
95554,"188 WEST B STREET BUILDING N","SPRINGFIELD","OR",97477,44.0479638940001,-123.025899653,54,"188 WEST B STREET BUILDING N, SPRINGFIELD, OR, 97477","Match","Exact","188 W B ST, SPRINGFIELD, OR, 97477",178172637,"R"
95555,"188 WEST B STREET STE N","SPRINGFIELD","OR",97477,44.0479638940001,-123.025899653,55,"188 WEST B STREET STE N, SPRINGFIELD, OR, 97477","Match","Exact","188 W B ST, SPRINGFIELD, OR, 97477",178172637,"R"
95556,"188 WESTGATE DRIVE","EDISON","NJ",8820,40.59940218,-74.364917329,56,"188 WESTGATE DRIVE, EDISON, NJ, 8820","Match","Exact","188 WESTGATE DR, EDISON, NJ, 08820",60369276,"R"
95557,"188 WHITING STREET SUITE 4","HINGHAM","MA",2043,42.1804664580001,-70.899787972,57,"188 WHITING STREET SUITE 4, HINGHAM, MA, 2043","Match","Exact","188 WHITING ST, HINGHAM, MA, 02043",87431443,"L"
95558,"188 WILLOW LEAF LANE","BUDA","TX",78610,30.0793090560001,-97.812438374,58,"188 WILLOW LEAF LANE, BUDA, TX, 78610","Match","Exact","188 WILLOW LEAF LN, BUDA, TX, 78610",627740108,"R"
95559,"188 WILLOW SPRINGS LANE","STOCKBRIDGE","GA",30281,33.5399245240001,-84.258635677,59,"188 WILLOW SPRINGS LANE, STOCKBRIDGE, GA, 30281","Match","Exact","188 WILLOW SPRINGS LN, STOCKBRIDGE, GA, 30281",23195964,"R"
95560,"188 WILSHIRE ROAD","ROCHESTER","NY",14618,43.1350395650001,-77.5562800019999,60,"188 WILSHIRE ROAD, ROCHESTER, NY, 14618","Match","Exact","188 WILSHIRE RD, ROCHESTER, NY, 14618",14543258,"L"
95561,"188 WOODPOINT ROAD UNIT 1C","BROOKLYN","NY",11211,40.716437071,-73.9420002369999,61,"188 WOODPOINT ROAD UNIT 1C, BROOKLYN, NY, 11211","Match","Exact","188 WOODPOINT RD, BROOKLYN, NY, 11211",59077199,"R"
95562,"188-19  50 AVE","FRESH MEADOWS","NY",11365,40.74652788,-73.7891372729999,62,"188-19  50 AVE, FRESH MEADOWS, NY, 11365","Match","Exact","188-19 50TH AVE, FRESH MEADOWS, NY, 11365",59711398,"L"
95563,"1880 ARSBURN ROAD","CHARLESTON","SC",29412,32.690194552,-79.968940989,63,"1880 ARSBURN ROAD, CHARLESTON, SC, 29412","Match","Exact","1880 ARSBURN RD, CHARLESTON, SC, 29412",605841436,"L"
95564,"1880 BRASELTON HWY  STE 118 NO 5128","LAWRENCEVILLE","GA",30043,34.0353479440001,-83.956606291,64,"1880 BRASELTON HWY  STE 118 NO 5128, LAWRENCEVILLE, GA, 30043","Match","Exact","1880 BRASELTON HWY, LAWRENCEVILLE, GA, 30043",88921187,"L"
95565,"1880 BRASELTON HWY 118 5083","LAWRENCEVILLE","GA",30043,34.0353479440001,-83.956606291,65,"1880 BRASELTON HWY 118 5083, LAWRENCEVILLE, GA, 30043","Match","Exact","1880 BRASELTON HWY, LAWRENCEVILLE, GA, 30043",88921187,"L"
95566,"1880 BURTON","PARK RIDGE","IL",60068,42.0345367570001,-87.849741195,66,"1880 BURTON, PARK RIDGE, IL, 60068","Match","Non_Exact","1880 BURTON LN, PARK RIDGE, IL, 60068",111732025,"R"
95567,"1880 CASE STREET","TWINSBURG","OH",44087,41.303697517,-81.4620312879999,67,"1880 CASE STREET, TWINSBURG, OH, 44087","Match","Exact","1880 CASE ST, TWINSBURG, OH, 44087",61363814,"R"
95568,"1880 CENTURY PARK E SUITE 1600","LOS ANGELES","CA",90067,NA,NA,68,"1880 CENTURY PARK E SUITE 1600, LOS ANGELES, CA, 90067","No_Match",NA,NA,NA,NA
95569,"1880 CENTURY PARK EAST STE 1600","LOS ANGELES","CA",90067,NA,NA,69,"1880 CENTURY PARK EAST STE 1600, LOS ANGELES, CA, 90067","No_Match",NA,NA,NA,NA
95570,"1880 CENTURY PARK EAST SUITE 1511","LOS ANGELES","CA",90067,NA,NA,70,"1880 CENTURY PARK EAST SUITE 1511, LOS ANGELES, CA, 90067","No_Match",NA,NA,NA,NA
95571,"1880 CENTURY PARK EAST SUITE 1600","LOS ANGELES","CA",90067,NA,NA,71,"1880 CENTURY PARK EAST SUITE 1600, LOS ANGELES, CA, 90067","No_Match",NA,NA,NA,NA
95572,"1880 CENTURY PARK EAST SUITE 200","LOS ANGELES","CA",90067,NA,NA,72,"1880 CENTURY PARK EAST SUITE 200, LOS ANGELES, CA, 90067","No_Match",NA,NA,NA,NA
95573,"1880 COUNTY ROAD 55","DOUBLE SPRINGS","AL",35553,34.165703964,-87.459565789,73,"1880 COUNTY ROAD 55, DOUBLE SPRINGS, AL, 35553","Match","Exact","1880 CO RD 55, DOUBLE SPGS, AL, 35553",141379348,"R"
95574,"1880 DUTCH DRAFT DRIVE","RENO","NV",89521,39.4460816660001,-119.732701642,74,"1880 DUTCH DRAFT DRIVE, RENO, NV, 89521","Match","Exact","1880 DUTCH DRAFT DR, RENO, NV, 89521",650546678,"L"
95575,"1880 E HARRISON ST","CHANDLER","AZ",85225,33.3160196320001,-111.810319059,75,"1880 E HARRISON ST, CHANDLER, AZ, 85225","Match","Exact","1880 E HARRISON ST, CHANDLER, AZ, 85225",128793998,"R"
95576,"1880 E MORTEN AVE UNIT 235","PHOENIX","AZ",85020,33.5455143780001,-112.04067403,76,"1880 E MORTEN AVE UNIT 235, PHOENIX, AZ, 85020","Match","Non_Exact","1880 E MORTEN AVE, PHOENIX, AZ, 85020",128601796,"R"
95577,"1880 EAST 69TH STREET","CLEVELAND","OH",44103,41.5072577660001,-81.6421811279999,77,"1880 EAST 69TH STREET, CLEVELAND, OH, 44103","Match","Exact","1880 E 69TH ST, CLEVELAND, OH, 44103",61113087,"R"
95578,"1880 FOX GLEN DRIVE","PROSPER","TX",75078,33.247198331,-96.829213373,78,"1880 FOX GLEN DRIVE, PROSPER, TX, 75078","Match","Non_Exact","1880 FOXGLEN DR, PROSPER, TX, 75078",649035415,"L"
95579,"1880 GOLDEN EAGLE CT","BROOMFIELD","CO",80020,39.9426013180001,-105.066652145,79,"1880 GOLDEN EAGLE CT, BROOMFIELD, CO, 80020","Match","Exact","1880 GOLDEN EAGLE CT, BROOMFIELD, CO, 80020",188182596,"L"
95580,"1880 JAYBROOK DR","RANCHO PALOS VERDES","CA",90275,33.754012496,-118.312155103,80,"1880 JAYBROOK DR, RANCHO PALOS VERDES, CA, 90275","Match","Exact","1880 JAYBROOK DR, RANCHO PALOS VERDES, CA, 90275",640113788,"L"
95581,"1880 JFK BOULEVARD SUITE 1715","PHILADELPHIA","PA",19103,39.954331498,-75.170996364,81,"1880 JFK BOULEVARD SUITE 1715, PHILADELPHIA, PA, 19103","Match","Exact","1880 JOHN F KENNEDY BLVD, PHILADELPHIA, PA, 19103",131407442,"L"
95582,"1880 LAFAYETTE AVENUE   17-H","BRONX","NY",10473,40.8218686220001,-73.8593314519999,82,"1880 LAFAYETTE AVENUE   17-H, BRONX, NY, 10473","Match","Exact","1880 LAFAYETTE AVE, BRONX, NY, 10473",80305080,"R"
95583,"1880 LANCASTER DR NE STE 106","SALEM","OR",97305,44.9523300220001,-122.983680733,83,"1880 LANCASTER DR NE STE 106, SALEM, OR, 97305","Match","Exact","1880 LANCASTER DR NE, SALEM, OR, 97305",649946644,"R"
95584,"1880 LANCASTER DRIVE","CONYERS","GA",30013,33.617406977,-84.0022890449999,84,"1880 LANCASTER DRIVE, CONYERS, GA, 30013","Match","Non_Exact","1880 LANCASTER DR SE, CONYERS, GA, 30013",23746604,"R"
95585,"1880 LIVINGSTON AVE SUITE 201","WEST ST PAUL","MN",55118,44.8888901340001,-93.083106373,85,"1880 LIVINGSTON AVE SUITE 201, WEST ST PAUL, MN, 55118","Match","Exact","1880 LIVINGSTON AVE, W SAINT PAUL, MN, 55118",37918036,"L"
95586,"1880 LOGGERS LANE UNIT C","STEAMBOAT SPRINGS","CO",80487,40.4980616300001,-106.855232888,86,"1880 LOGGERS LANE UNIT C, STEAMBOAT SPRINGS, CO, 80487","Match","Exact","1880 LOGGERS LN, STEAMBOAT SPRINGS, CO, 80487",106003131,"R"
95587,"1880 LOS ALTOS DRIVE","SAN MATEO","CA",94402,37.524847735,-122.336456769,87,"1880 LOS ALTOS DRIVE, SAN MATEO, CA, 94402","Match","Exact","1880 LOS ALTOS DR, SAN MATEO, CA, 94402",192378631,"R"
95588,"1880 MOUNTAIN INDUSTRIAL BLVD -  A5","TUCKER","GA",30084,33.8382056140001,-84.200919093,88,"1880 MOUNTAIN INDUSTRIAL BLVD -  A5, TUCKER, GA, 30084","Match","Exact","1880 MOUNTAIN INDUSTRIAL BLVD, TUCKER, GA, 30084",23364003,"L"
95589,"1880 MUNSTER AVENUE","ST PAUL","MN",55116,44.8998284680001,-93.179945357,89,"1880 MUNSTER AVENUE, ST PAUL, MN, 55116","Match","Exact","1880 MUNSTER AVE, SAINT PAUL, MN, 55116",97647325,"L"
95590,"1880 NORTHWOOD PLAZA BOX 233","FRANKLIN","IN",46131,NA,NA,90,"1880 NORTHWOOD PLAZA BOX 233, FRANKLIN, IN, 46131","No_Match",NA,NA,NA,NA
95591,"1880 NORTHWOOD PLAZA PMV 135","FRANKLIN","IN",46131,NA,NA,91,"1880 NORTHWOOD PLAZA PMV 135, FRANKLIN, IN, 46131","No_Match",NA,NA,NA,NA
95592,"1880 NW 35TH AVE","LAUDERHILL","FL",33311,26.150430853,-80.195227621,92,"1880 NW 35TH AVE, LAUDERHILL, FL, 33311","Match","Exact","1880 NW 35TH AVE, LAUDERHILL, FL, 33311",114709088,"R"
95593,"1880 OLD HUDSON ROAD  APT 408","SAINT PAUL","MN",55119,44.952738503,-93.020904816,93,"1880 OLD HUDSON ROAD  APT 408, SAINT PAUL, MN, 55119","Match","Non_Exact","1880 OLD HUDSON RD, SAINT PAUL, MN, 55119",97654951,"R"
95594,"1880 PALISADES DRIVE","CARLSBAD","CA",92008,33.1552295060001,-117.316273334,94,"1880 PALISADES DRIVE, CARLSBAD, CA, 92008","Match","Exact","1880 PALISADES DR, CARLSBAD, CA, 92008",612853769,"L"
95595,"1880 POTOMAC COURT","WHEELING","IL",60090,42.1039377020001,-87.914511354,95,"1880 POTOMAC COURT, WHEELING, IL, 60090","Match","Exact","1880 POTOMAC CT, WHEELING, IL, 60090",624533539,"L"
95596,"1880 ROCHESTER RD","ROYAL OAK","MI",48073,42.5054313250001,-83.142841221,96,"1880 ROCHESTER RD, ROYAL OAK, MI, 48073","Match","Exact","1880 ROCHESTER RD, ROYAL OAK, MI, 48073",69744204,"R"
95597,"1880 S GREENVILLE RD","GREENVILLE","MI",48838,43.2667206290001,-85.257073158,97,"1880 S GREENVILLE RD, GREENVILLE, MI, 48838","Match","Exact","1880 S GREENVILLE RD, GREENVILLE, MI, 48838",110560184,"L"
95598,"1880 SAPLING COURT","CASTLE ROCK","CO",80109,39.3859810980001,-104.88315258,98,"1880 SAPLING COURT, CASTLE ROCK, CO, 80109","Match","Exact","1880 SAPLING CT, CASTLE ROCK, CO, 80109",130837151,"R"
95599,"1880 SENEGAL DATE DR","NAPLES","FL",34119,26.261440529,-81.716164916,99,"1880 SENEGAL DATE DR, NAPLES, FL, 34119","Match","Exact","1880 SENEGAL DATE DR, NAPLES, FL, 34119",619130229,"L"
95600,"1880 SLEEPY HOLLOW COURT","ESTES PARK","CO",80517,40.382385884,-105.557415967,100,"1880 SLEEPY HOLLOW COURT, ESTES PARK, CO, 80517","Match","Exact","1880 SLEEPY HOLLOW CT, ESTES PARK, CO, 80517",188586414,"L"
95601,"1880 SPRINGCREST ROAD","COLORADO SPRINGS","CO",80920,38.9695817470001,-104.793143481,101,"1880 SPRINGCREST ROAD, COLORADO SPRINGS, CO, 80920","Match","Exact","1880 SPRINGCREST RD, CO SPGS, CO, 80920",610690860,"L"
95602,"1880 TURNBERRY TERRACE","ORLANDO","FL",32804,28.5644410670001,-81.405400769,102,"1880 TURNBERRY TERRACE, ORLANDO, FL, 32804","Match","Exact","1880 TURNBERRY TER, ORLANDO, FL, 32804",94341053,"L"
95603,"1880 W RAVINA PARK RD","DECATUR","IL",62526,39.8652041870001,-88.988019488,103,"1880 W RAVINA PARK RD, DECATUR, IL, 62526","Match","Exact","1880 W RAVINA PARK RD, DECATUR, IL, 62526",20743306,"R"
95604,"1880 W SAN CARLOS ST","SAN JOSE","CA",95128,37.323402706,-121.927559387,104,"1880 W SAN CARLOS ST, SAN JOSE, CA, 95128","Match","Exact","1880 W SAN CARLOS ST, SAN JOSE, CA, 95128",122905348,"L"
95605,"1880 WILLIAMS RD","STARKVILLE","MS",39759,33.3849113210001,-88.844654836,105,"1880 WILLIAMS RD, STARKVILLE, MS, 39759","Match","Exact","1880 WILLIAMS RD, STARKVILLE, MS, 39759",607240271,"R"
95606,"1880 WILLIAMS ROAD","SALADO","TX",76571,30.9651868350001,-97.540465489,106,"1880 WILLIAMS ROAD, SALADO, TX, 76571","Match","Exact","1880 WILLIAMS RD, SALADO, TX, 76571",648914056,"R"
95607,"18800 CONCORD VIEW","MARTHASVILLE","MO",63357,38.6480040500001,-91.12998426,107,"18800 CONCORD VIEW, MARTHASVILLE, MO, 63357","Match","Exact","18800 CONCORD VW, MARTHASVILLE, MO, 63357",90106584,"R"
95608,"18800 E WILSHIRE BLVD","JONES","OK",73049,35.550596139,-97.2003215299999,108,"18800 E WILSHIRE BLVD, JONES, OK, 73049","Match","Exact","18800 E WILSHIRE BLVD, JONES, OK, 73049",606143792,"R"
95609,"18800 EGRET BAY BLVD APT 403","HOUSTON","TX",77058,29.5374072170001,-95.0977316889999,109,"18800 EGRET BAY BLVD APT 403, HOUSTON, TX, 77058","Match","Exact","18800 EGRET BAY BLVD, HOUSTON, TX, 77058",636973026,"R"
95610,"18800 NE 29TH AVENUE STE 722","AVENTURA","FL",33180,25.9493771260001,-80.142645016,110,"18800 NE 29TH AVENUE STE 722, AVENTURA, FL, 33180","Match","Non_Exact","18800 NE 29TH AVE, AVENTURA, FL, 33180",611898000,"L"
95611,"18800 NW 2ND AVE SUITE 2017","MIAMI GARDENS","FL",33169,25.9469280820001,-80.205333649,111,"18800 NW 2ND AVE SUITE 2017, MIAMI GARDENS, FL, 33169","Match","Non_Exact","18800 NW 2ND AVE, MIAMI GARDENS, FL, 33169",116029714,"L"
95612,"18801 EAGLE PARKWAY","SMITHVILLE","MO",64089,NA,NA,112,"18801 EAGLE PARKWAY, SMITHVILLE, MO, 64089","No_Match",NA,NA,NA,NA
95613,"18801 LA AMISTAD PL","TARZANA","CA",91356,34.153204493,-118.541657304,113,"18801 LA AMISTAD PL, TARZANA, CA, 91356","Match","Exact","18801 LA AMISTAD PL, TARZANA, CA, 91356",651705401,"R"
95614,"18801 N DALE MABRY HIGHWAY","LUTZ","FL",33548,28.146895697,-82.4952959459999,114,"18801 N DALE MABRY HIGHWAY, LUTZ, FL, 33548","Match","Exact","18801 N DALE MABRY HWY, LUTZ, FL, 33548",648253410,"L"
95615,"18801 VIA SAN MARCO","IRVINE","CA",92603,33.645280788,-117.8183928,115,"18801 VIA SAN MARCO, IRVINE, CA, 92603","Match","Exact","18801 VIA SAN MARCO, IRVINE, CA, 92603",144059025,"R"
95616,"18802 EDWARDS EDGE","SAN ANTONIO","TX",78256,29.618236457,-98.6332137859999,116,"18802 EDWARDS EDGE, SAN ANTONIO, TX, 78256","Match","Exact","18802 EDWARDS EDGE, SAN ANTONIO, TX, 78256",619996658,"L"
95617,"18802 NE 25TH DRIVE","VANCOUVER","WA",98684,45.6406255090001,-122.479827285,117,"18802 NE 25TH DRIVE, VANCOUVER, WA, 98684","Match","Exact","18802 NE 25TH DR, VANCOUVER, WA, 98684",646675730,"L"
95618,"18803 ATASCA SOUTH DRIVE","HUMBLE","TX",77346,29.9900649200001,-95.17508631,118,"18803 ATASCA SOUTH DRIVE, HUMBLE, TX, 77346","Match","Exact","18803 ATASCA SOUTH DR, HUMBLE, TX, 77346",96558363,"R"
95619,"18803 E CHADLEY ST","COVINA","CA",91722,34.112849413,-117.883938689,119,"18803 E CHADLEY ST, COVINA, CA, 91722","Match","Exact","18803 E CHADLEY ST, COVINA, CA, 91722",141710573,"L"
95620,"18804 NW 80TH TERRACE","ALACHUA","FL",32615,29.825745324,-82.432649816,120,"18804 NW 80TH TERRACE, ALACHUA, FL, 32615","Match","Exact","18804 NW 80TH TER, ALACHUA, FL, 32615",6831596,"L"
95621,"18805 EAST WEATHER ROAD","COVINA","CA",91722,34.109670969,-117.883569913,121,"18805 EAST WEATHER ROAD, COVINA, CA, 91722","Match","Exact","18805 E WEATHER RD, COVINA, CA, 91722",141710683,"L"
95622,"18805 NW 39 PLACE","MIAMI GARDENS","FL",33055,25.9452899840001,-80.266780965,122,"18805 NW 39 PLACE, MIAMI GARDENS, FL, 33055","Match","Exact","18805 NW 39TH PL, MIAMI GARDENS, FL, 33055",116026929,"R"
95623,"18806 LENNY STREET","SALINAS","CA",93906,36.725271675,-121.646902464,123,"18806 LENNY STREET, SALINAS, CA, 93906","Match","Exact","18806 LENNY ST, SALINAS, CA, 93906",196823014,"L"
95624,"18806 OAKWOOD AVE","COUNTRY CLUB HILLS","IL",60478,41.547687669,-87.714250755,124,"18806 OAKWOOD AVE, COUNTRY CLUB HILLS, IL, 60478","Match","Exact","18806 OAKWOOD AVE, COUNTRY CLUB HILLS, IL, 60478",111707662,"R"
95625,"18807 BANYAN COVE LN","CYPRESS","TX",77433,29.9568506000001,-95.73588682,125,"18807 BANYAN COVE LN, CYPRESS, TX, 77433","Match","Exact","18807 BANYAN COVE LN, CYPRESS, TX, 77433",627710827,"R"
95626,"18807 NE 1ST PL","MIAMI","FL",33179,25.947325167,-80.198087125,126,"18807 NE 1ST PL, MIAMI, FL, 33179","Match","Exact","18807 NE 1ST PL, MIAMI, FL, 33179",116030534,"R"
95627,"18808 N MAYAN DRIVE","SUN CITY","AZ",85373,33.6548318920001,-112.278382325,127,"18808 N MAYAN DRIVE, SUN CITY, AZ, 85373","Match","Exact","18808 N MAYAN DR, SUN CITY, AZ, 85373",128259949,"L"
95628,"18809 BRIAR ST","OMAHA","NE",68136,41.17974021,-96.208711729,128,"18809 BRIAR ST, OMAHA, NE, 68136","Match","Exact","18809 BRIAR ST, OMAHA, NE, 68136",646708986,"L"
95629,"18809 NAUTICAL DRIVE UNIT 105","CORNELIUS","NC",28031,35.4616058510001,-80.890437345,129,"18809 NAUTICAL DRIVE UNIT 105, CORNELIUS, NC, 28031","Match","Exact","18809 NAUTICAL DR, CORNELIUS, NC, 28031",639261648,"R"
95630,"1881  MADISON AVENUE","MELBOURNE","FL",32935,28.12249072,-80.65144586,130,"1881  MADISON AVENUE, MELBOURNE, FL, 32935","Match","Exact","1881 MADISON AVE, MELBOURNE, FL, 32935",93902473,"L"
95631,"1881 BRADBURY RD","ADAMS","TN",37010,36.5414192600001,-87.2062696359999,131,"1881 BRADBURY RD, ADAMS, TN, 37010","Match","Exact","1881 BRADBURY RD, ADAMS, TN, 37010",31828942,"R"
95632,"1881 COMMERCE DR STE 103","ELK GROVE VILLAGE","IL",60007,42.020208655,-87.9565217749999,132,"1881 COMMERCE DR STE 103, ELK GROVE VILLAGE, IL, 60007","Match","Exact","1881 COMMERCE DR, ELK GROVE VILLAGE, IL, 60007",111873955,"R"
95633,"1881 COMMERCE DRIVE SUITE 105","ELK GROVE VILLAGE","IL",60007,42.020208655,-87.9565217749999,133,"1881 COMMERCE DRIVE SUITE 105, ELK GROVE VILLAGE, IL, 60007","Match","Exact","1881 COMMERCE DR, ELK GROVE VILLAGE, IL, 60007",111873955,"R"
95634,"1881 COMMERCENTER DR EAST SUITE 238","SAN BERNARDINO","CA",92408,NA,NA,134,"1881 COMMERCENTER DR EAST SUITE 238, SAN BERNARDINO, CA, 92408","No_Match",NA,NA,NA,NA
95635,"1881 COMMERCENTER EAST STE 138","SAN BERNARDINO","CA",92408,NA,NA,135,"1881 COMMERCENTER EAST STE 138, SAN BERNARDINO, CA, 92408","No_Match",NA,NA,NA,NA
95636,"1881 EAST BRENT LANE","FAYETTEVILLE","AR",72703,36.091603972,-94.133249419,136,"1881 EAST BRENT LANE, FAYETTEVILLE, AR, 72703","Match","Exact","1881 E BRENT LN, FAYETTEVILLE, AR, 72703",49046619,"R"
95637,"1881 EAST PLYMOUTH WAY","FRESNO","CA",93720,36.877665537,-119.748119414,137,"1881 EAST PLYMOUTH WAY, FRESNO, CA, 93720","Match","Exact","1881 E PLYMOUTH WAY, FRESNO, CA, 93720",639775511,"L"
95638,"1881 HORNSEY COURT","JACKSONVILLE","FL",32246,30.3167041580001,-81.5090099019999,138,"1881 HORNSEY COURT, JACKSONVILLE, FL, 32246","Match","Exact","1881 HORNSEY CT, JACKSONVILLE, FL, 32246",83952197,"L"
95639,"1881 HUNTLEY WAY","BULINGTON","NC",27215,36.0602024730001,-79.5303261509999,139,"1881 HUNTLEY WAY, BULINGTON, NC, 27215","Match","Non_Exact","1881 HUNTLEY WAY, BURLINGTON, NC, 27215",618916539,"L"
95640,"1881 I 65 SERVICE RD E STREET","MILLBROOK","AL",36054,NA,NA,140,"1881 I 65 SERVICE RD E STREET, MILLBROOK, AL, 36054","No_Match",NA,NA,NA,NA
95641,"1881 KNOLL DRIVE","VENTURA","CA",93003,34.256196093,-119.220017799,141,"1881 KNOLL DRIVE, VENTURA, CA, 93003","Match","Exact","1881 KNOLL DR, VENTURA, CA, 93003",110012211,"R"
95642,"1881 LAKE COVE DRIVE SW","ATLANTA","GA",30331,33.7097749960001,-84.524501829,142,"1881 LAKE COVE DRIVE SW, ATLANTA, GA, 30331","Match","Exact","1881 LAKE COVE DR SW, ATLANTA, GA, 30331",17378142,"L"
95643,"1881 LIONS RIDGE LOOP APT 2","VAIL","CO",81657,39.636141911,-106.412909327,143,"1881 LIONS RIDGE LOOP APT 2, VAIL, CO, 81657","Match","Exact","1881 LIONS RIDGE LOOP, VAIL, CO, 81657",635512083,"L"
95644,"1881 MARKONE ST NW","ATLANTA","GA",30318,33.769821194,-84.448562178,144,"1881 MARKONE ST NW, ATLANTA, GA, 30318","Match","Exact","1881 MARKONE ST NW, ATLANTA, GA, 30318",17340087,"R"
95645,"1881 MECHANIC AVENUE NUMBER 302","SAINT PAUL","MN",55119,44.9730006560001,-93.021090855,145,"1881 MECHANIC AVENUE NUMBER 302, SAINT PAUL, MN, 55119","Match","Non_Exact","1881 E MECHANIC AVE, SAINT PAUL, MN, 55119",97653372,"L"
95646,"1881 MORRIS AVE APT 3D","BRONX","NY",10453,40.849088625,-73.908223795,146,"1881 MORRIS AVE APT 3D, BRONX, NY, 10453","Match","Exact","1881 MORRIS AVE, BRONX, NY, 10453",80299735,"L"
95647,"1881 NW 103RD ST","MIAMI","FL",33147,25.868481311,-80.229718083,147,"1881 NW 103RD ST, MIAMI, FL, 33147","Match","Exact","1881 NW 103RD ST, MIAMI, FL, 33147",116289217,"R"
95648,"1881 RAILROAD AVE","CRESCENT CITY","CA",95531,41.780880783,-124.181000693,148,"1881 RAILROAD AVE, CRESCENT CITY, CA, 95531","Match","Exact","1881 RAILROAD AVE, CRESCENT CITY, CA, 95531",113168908,"R"
95649,"1881 S TALLGRASS DR","FAYETTEVILLE","AR",72701,36.0421322650001,-94.087338996,149,"1881 S TALLGRASS DR, FAYETTEVILLE, AR, 72701","Match","Exact","1881 S TALLGRASS DR, FAYETTEVILLE, AR, 72701",617846698,"R"
95650,"1881 STATE RTE 23 APT 1","CRARYVILLE","NY",12521,42.176350175,-73.574864749,150,"1881 STATE RTE 23 APT 1, CRARYVILLE, NY, 12521","Match","Exact","1881 STATE RTE 23, CRARYVILLE, NY, 12521",41491557,"L"
95651,"1881 VOLBERG STREET NW","ATLANTA","GA",30318,33.8064132280001,-84.42172878,151,"1881 VOLBERG STREET NW, ATLANTA, GA, 30318","Match","Exact","1881 VOLBERG ST NW, ATLANTA, GA, 30318",17335018,"R"
95652,"1881 W  525 S","LEHI","UT",84043,40.382126951,-111.878801965,152,"1881 W  525 S, LEHI, UT, 84043","Match","Exact","1881 W 525 S, LEHI, UT, 84043",134248245,"L"
95653,"1881 W ALEXANDER RD UNIT 2113","N LAS VEGAS","NV",89032,36.2319653490001,-115.168993034,153,"1881 W ALEXANDER RD UNIT 2113, N LAS VEGAS, NV, 89032","Match","Non_Exact","1881 W ALEXANDER RD, N LAS VEGAS, NV, 89032",632506404,"L"
95654,"1881 W FREDERICK SMALL RD","JUPITER","FL",33458,26.8943800110001,-80.1254172389999,154,"1881 W FREDERICK SMALL RD, JUPITER, FL, 33458","Match","Non_Exact","1881 FREDRICK SMALL RD, JUPITER, FL, 33458",115570523,"L"
95655,"1881 WEST LIBERTY ST","ANN ARBOR","MI",48103,42.2754665350001,-83.770461079,155,"1881 WEST LIBERTY ST, ANN ARBOR, MI, 48103","Match","Exact","1881 W LIBERTY ST, ANN ARBOR, MI, 48103",26027718,"L"
95656,"18810 U S HWY 41","MASARYKTOWN","FL",34604,NA,NA,156,"18810 U S HWY 41, MASARYKTOWN, FL, 34604","No_Match",NA,NA,NA,NA
95657,"18810 WEST LAKE HOUSTON PARKWAY","HUMBLE","TX",77346,NA,NA,157,"18810 WEST LAKE HOUSTON PARKWAY, HUMBLE, TX, 77346","No_Match",NA,NA,NA,NA
95658,"18811 NORTH 19TH AVENUE APT 3022","PHOENIX","AZ",85027,33.656590715,-112.099752351,158,"18811 NORTH 19TH AVENUE APT 3022, PHOENIX, AZ, 85027","Match","Exact","18811 N 19TH AVE, PHOENIX, AZ, 85027",128353650,"R"
95659,"18812 EL CARMEN AVE","ORANGE","CA",92869,33.7971937020001,-117.804148114,159,"18812 EL CARMEN AVE, ORANGE, CA, 92869","Match","Non_Exact","18812 E EL CARMEN AVE, ORANGE, CA, 92869",144034169,"R"
95660,"18813 E 25TH ST S","INDEPENDENCE","MO",64057,39.074058747,-94.356714595,160,"18813 E 25TH ST S, INDEPENDENCE, MO, 64057","Match","Exact","18813 E 25TH ST S, INDEPENDENCE, MO, 64057",617976750,"R"
95661,"18813 VENTURE DRIVE","POINT VENTURE","TX",78645,30.3862892450001,-98.000259366,161,"18813 VENTURE DRIVE, POINT VENTURE, TX, 78645","Match","Exact","18813 VENTURE DR, POINT VENTURE, TX, 78645",63920611,"R"
95662,"18814 N LYFORD DRIVE","KATY","TX",77449,29.862417556,-95.69719613,162,"18814 N LYFORD DRIVE, KATY, TX, 77449","Match","Exact","18814 N LYFORD DR, KATY, TX, 77449",630278319,"R"
95663,"18815 EAST ASCHOFF ROAD","RHODODENDRON","OR",97049,45.386027744,-121.909997078,163,"18815 EAST ASCHOFF ROAD, RHODODENDRON, OR, 97049","Match","Exact","18815 E ASCHOFF RD, RHODODENDRON, OR, 97049",157892668,"L"
95664,"18815 EASTWOOD","HARPER WOODS","MI",48225,42.441797707,-82.942717809,164,"18815 EASTWOOD, HARPER WOODS, MI, 48225","Match","Non_Exact","18815 EASTWOOD DR, HARPER WOODS, MI, 48225",95705492,"L"
95665,"18815 MACARTHUR DRIVE","NORTH LITTLE ROCK","AR",72118,34.8867669570001,-92.374882182,165,"18815 MACARTHUR DRIVE, NORTH LITTLE ROCK, AR, 72118","Match","Exact","18815 MACARTHUR DR, N LITTLE ROCK, AR, 72118",645491727,"L"
95666,"18815 MANZANITA DR","TWAIN HARTE","CA",95383,38.0404990420001,-120.226955434,166,"18815 MANZANITA DR, TWAIN HARTE, CA, 95383","Match","Exact","18815 MANZANITA DR, TWAIN HARTE, CA, 95383",642904040,"R"
95667,"18816 E LINVALE PL","AURORA","CO",80013,39.666655458,-104.769158291,167,"18816 E LINVALE PL, AURORA, CO, 80013","Match","Exact","18816 E LINVALE PL, AURORA, CO, 80013",177519240,"L"
95668,"18816 JEFFREY AVE","CERRITOS","CA",90703,33.8607319700001,-118.054312152,168,"18816 JEFFREY AVE, CERRITOS, CA, 90703","Match","Exact","18816 JEFFREY AVE, CERRITOS, CA, 90703",241149959,"L"
95669,"18816 MCGHEE DR E","BONNEY LAKE","WA",98391,47.193584619,-122.178670737,169,"18816 MCGHEE DR E, BONNEY LAKE, WA, 98391","Match","Exact","18816 MCGHEE DR E, BONNEY LAKE, WA, 98391",184649739,"L"
95670,"18817 150TH AVE SW","RED LAKE FALLS","MN",56750,47.8946142510001,-96.374490637,170,"18817 150TH AVE SW, RED LAKE FALLS, MN, 56750","Match","Exact","18817 150TH AVE SW, RED LAKE FALLS, MN, 56750",203165401,"L"
95671,"18818 2ND AVE E","SPANAWAY","WA",98387,47.0866386800001,-122.429795813,171,"18818 2ND AVE E, SPANAWAY, WA, 98387","Match","Exact","18818 2ND AVE E, SPANAWAY, WA, 98387",184637492,"L"
95672,"18818 SHIRLEY LANE","GRASS VALLEY","CA",95949,39.100360321,-121.078425487,172,"18818 SHIRLEY LANE, GRASS VALLEY, CA, 95949","Match","Exact","18818 SHIRLEY LN, GRASS VALLEY, CA, 95949",636415228,"L"
95673,"18819 ATASCOCITA FOREST DR","HUMBLE","TX",77346,29.990156411,-95.176772832,173,"18819 ATASCOCITA FOREST DR, HUMBLE, TX, 77346","Match","Exact","18819 ATASCOCITA FOREST DR, HUMBLE, TX, 77346",628003504,"R"
95674,"18819 KEEGANS BLUFF","SAN ANTONIO","TX",78258,29.6161846470001,-98.544351717,174,"18819 KEEGANS BLUFF, SAN ANTONIO, TX, 78258","Match","Exact","18819 KEEGANS BLUFF, SAN ANTONIO, TX, 78258",627222814,"L"
95675,"1882 BELLEFONTE DR","LEXINGTON","KY",40503,38.011445226,-84.502672299,175,"1882 BELLEFONTE DR, LEXINGTON, KY, 40503","Match","Exact","1882 BELLEFONTE DR, LEXINGTON, KY, 40503",641324751,"L"
95676,"1882 CAPITAL CIRCLE NE STE 102","TALLAHASSEE","FL",32308,30.47373629,-84.233955578,176,"1882 CAPITAL CIRCLE NE STE 102, TALLAHASSEE, FL, 32308","Match","Exact","1882 CAPITAL CIR NE, TALLAHASSEE, FL, 32308",82865204,"L"
95677,"1882 CAPITAL CIRCLE NE STE 102","TALLAHASSEE","FL",32317,30.47373629,-84.233955578,177,"1882 CAPITAL CIRCLE NE STE 102, TALLAHASSEE, FL, 32317","Match","Non_Exact","1882 CAPITAL CIR NE, TALLAHASSEE, FL, 32308",82865204,"L"
95678,"1882 CHERWELL DRIVE","RIVERDALE","GA",30296,33.561815359,-84.45263535,178,"1882 CHERWELL DRIVE, RIVERDALE, GA, 30296","Match","Exact","1882 CHERWELL DR, RIVERDALE, GA, 30296",23325484,"L"
95679,"1882 COLD CREEK CT","VIENNA","VA",22182,38.935772055,-77.3072989459999,179,"1882 COLD CREEK CT, VIENNA, VA, 22182","Match","Exact","1882 COLD CREEK CT, VIENNA, VA, 22182",75960720,"R"
95680,"1882 COLUMBIA ROAD NW APT 401","WASHINGTON","DC",20009,38.9196136840001,-77.044418912,180,"1882 COLUMBIA ROAD NW APT 401, WASHINGTON, DC, 20009","Match","Exact","1882 COLUMBIA RD NW, WASHINGTON, DC, 20009",76222731,"L"
95681,"1882 E WARBLER LANE","POST FALLS","ID",83854,47.7356306350001,-116.922836204,181,"1882 E WARBLER LANE, POST FALLS, ID, 83854","Match","Exact","1882 E WARBLER LN, POST FALLS, ID, 83854",617970161,"R"
95682,"1882 LAUREL RUN PISGAH ROAD","BRUCETON MILLS","WV",26525,39.644583826,-79.7296479409999,182,"1882 LAUREL RUN PISGAH ROAD, BRUCETON MILLS, WV, 26525","Match","Exact","1882 LAUREL RUN PISGAH RD, BRUCETON MILLS, WV, 26525",611604101,"L"
95683,"1882 LINCOLN ROAD NE","LELAND","NC",28451,34.267693206,-78.0447140589999,183,"1882 LINCOLN ROAD NE, LELAND, NC, 28451","Match","Exact","1882 LINCOLN RD NE, LELAND, NC, 28451",625161865,"L"
95684,"1882 NC 133","ROCKY POINT","NC",28457,34.4040235590001,-77.9183117749999,184,"1882 NC 133, ROCKY POINT, NC, 28457","Match","Non_Exact","1882 STATE HWY 133, ROCKY POINT, NC, 28457",638394144,"R"
95685,"1882 NIEDERMEYER DR","CENTRAL POINT","OR",97502,42.3436717880001,-122.944607169,185,"1882 NIEDERMEYER DR, CENTRAL POINT, OR, 97502","Match","Exact","1882 NIEDERMEYER DR, CENTRAL POINT, OR, 97502",155577962,"R"
95686,"1882 RIVERCREST WAY","LAWRENCEVILLE","GA",30045,33.927706292,-83.900358883,186,"1882 RIVERCREST WAY, LAWRENCEVILLE, GA, 30045","Match","Non_Exact","1882 RIVER CREST WAY, LAWRENCEVILLE, GA, 30045",630323478,"R"
95687,"1882 RTE 119N","PUNXSUTAWNEY","PA",15767,NA,NA,187,"1882 RTE 119N, PUNXSUTAWNEY, PA, 15767","No_Match",NA,NA,NA,NA
95688,"1882 S NEW HOPE ROAD 654","GASTONIA","NC",28055,NA,NA,188,"1882 S NEW HOPE ROAD 654, GASTONIA, NC, 28055","No_Match",NA,NA,NA,NA
95689,"1882 WOODSTONE DRIVE","WINSTON SALEM","NC",27127,36.0239865080001,-80.280931986,189,"1882 WOODSTONE DRIVE, WINSTON SALEM, NC, 27127","Match","Exact","1882 WOODSTONE DR, WINSTON SALEM, NC, 27127",628871323,"L"
95690,"18820 CLOVER HILL LN","OLNEY","MD",20832,39.1653827660001,-77.082145005,190,"18820 CLOVER HILL LN, OLNEY, MD, 20832","Match","Exact","18820 CLOVER HILL LN, OLNEY, MD, 20832",62071112,"L"
95691,"18820 E SPRAGUE AVE","GREENACRES","WA",99016,47.6569006340001,-117.151794861,191,"18820 E SPRAGUE AVE, GREENACRES, WA, 99016","Match","Exact","18820 E SPRAGUE AVE, GREENACRES, WA, 99016",189890833,"R"
95692,"18820 SHELBURNE ROAD","SHAKER HEIGHTS","OH",44118,41.484858396,-81.547275887,192,"18820 SHELBURNE ROAD, SHAKER HEIGHTS, OH, 44118","Match","Exact","18820 SHELBURNE RD, SHAKER HEIGHTS, OH, 44118",61125413,"R"
95693,"18820 WOODWARD AVE","DETROIT","MI",48223,42.4298777290001,-83.113448994,193,"18820 WOODWARD AVE, DETROIT, MI, 48223","Match","Non_Exact","18820 WOODWARD AVE, DETROIT, MI, 48203",95461859,"R"
95694,"18821 BURNHAM AVE SUITE 2","LANSING","IL",60438,41.552762139,-87.539291613,194,"18821 BURNHAM AVE SUITE 2, LANSING, IL, 60438","Match","Exact","18821 BURNHAM AVE, LANSING, IL, 60438",111786670,"L"
95695,"18821 MAY AVE","HOMEWOOD","IL",60430,41.5473682740001,-87.6424037959999,195,"18821 MAY AVE, HOMEWOOD, IL, 60430","Match","Non_Exact","18821 MAY ST, HOMEWOOD, IL, 60430",112212302,"L"
95696,"18821 S US HWY 69","KIOWA","OK",74553,34.7065139060001,-95.905508583,196,"18821 S US HWY 69, KIOWA, OK, 74553","Match","Non_Exact","18821 US HWY 69, KIOWA, OK, 74553",106320534,"L"
95697,"18822 CAPALONA COURT","NEW CANEY","TX",77357,30.1677293180001,-95.188171011,197,"18822 CAPALONA COURT, NEW CANEY, TX, 77357","Match","Exact","18822 CAPALONA CT, NEW CANEY, TX, 77357",652026273,"R"
95698,"18823 DEQUINDRE","DETROIT","MI",48234,42.4308215620001,-83.0828047809999,198,"18823 DEQUINDRE, DETROIT, MI, 48234","Match","Non_Exact","18823 DEQUINDRE ST, DETROIT, MI, 48234",95463315,"L"
95699,"18824 FOUNTAIN TER","HAGERSTOWN","MD",21742,39.681364194,-77.715735918,199,"18824 FOUNTAIN TER, HAGERSTOWN, MD, 21742","Match","Exact","18824 FOUNTAIN TER, HAGERSTOWN, MD, 21742",60798678,"L"
95700,"18824 HWY 216","VANCE","AL",35490,33.270922231,-87.225541589,200,"18824 HWY 216, VANCE, AL, 35490","Match","Non_Exact","18824 STATE RTE 216, VANCE, AL, 35490",82219003,"R"
95701,"18825 HOBBS CREEK TRAIL","COLLINSVILLE","OK",74021,36.3472563930001,-95.765186812,201,"18825 HOBBS CREEK TRAIL, COLLINSVILLE, OK, 74021","Match","Exact","18825 HOBBS CREEK TRL, COLLINSVILLE, OK, 74021",612073991,"L"
95702,"18825 N 1239 PR NW","PROSSER","WA",99350,46.24222437,-119.753899749,202,"18825 N 1239 PR NW, PROSSER, WA, 99350","Match","Exact","18825 N 1239 PR NW, PROSSER, WA, 99350",606998458,"L"
95703,"18826 N LOWER SAC RD SUITE H","WOODBRIDGE","CA",95258,NA,NA,203,"18826 N LOWER SAC RD SUITE H, WOODBRIDGE, CA, 95258","No_Match",NA,NA,NA,NA
95704,"18827 BRESCIA LANE","KATY","TX",77449,29.8494704600001,-95.696536602,204,"18827 BRESCIA LANE, KATY, TX, 77449","Match","Exact","18827 BRESCIA LN, KATY, TX, 77449",646704579,"L"
95705,"18827 CABRAL STREET","SANTA CLARITA","CA",91351,34.4312499760001,-118.464609369,205,"18827 CABRAL STREET, SANTA CLARITA, CA, 91351","Match","Exact","18827 CABRAL ST, SANTA CLARITA, CA, 91351",141520179,"L"
95706,"18828 BROOKHURST ST NUM 161","FOUNTAIN VALLEY","CA",92708,33.689355505,-117.954005263,206,"18828 BROOKHURST ST NUM 161, FOUNTAIN VALLEY, CA, 92708","Match","Exact","18828 BROOKHURST ST, FOUNTAIN VALLEY, CA, 92708",609055931,"L"
95707,"18829 VISTO DRIVE","EDMOND","OK",73012,35.663319492,-97.561064222,207,"18829 VISTO DRIVE, EDMOND, OK, 73012","Match","Exact","18829 VISTO DR, EDMOND, OK, 73012",646656130,"L"
95708,"1883 125TH STREET","HAZLETON","IA",50641,NA,NA,208,"1883 125TH STREET, HAZLETON, IA, 50641","No_Match",NA,NA,NA,NA
95709,"1883 BOULDERVIEW DRIVE SE","ATLANTA","GA",30316,33.7040153020001,-84.313181769,209,"1883 BOULDERVIEW DRIVE SE, ATLANTA, GA, 30316","Match","Exact","1883 BOULDERVIEW DR SE, ATLANTA, GA, 30316",23368045,"R"
95710,"1883 BRIGHTSEAT ROAD","HYATTSVILLE","MD",20785,38.9149296040001,-76.8536443629999,210,"1883 BRIGHTSEAT ROAD, HYATTSVILLE, MD, 20785","Match","Exact","1883 BRIGHTSEAT RD, HYATTSVILLE, MD, 20785",76382250,"R"
95711,"1883 DUCHESS DR","BOWLING GREEN","KY",42101,36.990050899,-86.500502549,211,"1883 DUCHESS DR, BOWLING GREEN, KY, 42101","Match","Exact","1883 DUCHESS DR, BOWLING GREEN, KY, 42101",28017945,"L"
95712,"1883 T L THREADGILL ROAD","CAMDEN","AL",36726,32.0072944710001,-87.335540494,212,"1883 T L THREADGILL ROAD, CAMDEN, AL, 36726","Match","Exact","1883 T L THREADGILL RD, CAMDEN, AL, 36726",10819258,"L"
95713,"1883 W 200 S","PORTLAND","IN",47371,NA,NA,213,"1883 W 200 S, PORTLAND, IN, 47371","Tie",NA,NA,NA,NA
95714,"1883 W FLAGLER ST SUITE 3","MIAMI","FL",33135,25.7726962030001,-80.2266361969999,214,"1883 W FLAGLER ST SUITE 3, MIAMI, FL, 33135","Match","Non_Exact","1883 W FLAGLER ST, MIAMI, FL, 33135",116016375,"R"
95715,"1883 W ROYAL HUNTE DR STE 200A","CEDAR CITY","UT",84720,37.6577866490001,-113.085686135,215,"1883 W ROYAL HUNTE DR STE 200A, CEDAR CITY, UT, 84720","Match","Non_Exact","1883 ROYAL HUNT DR, CEDAR CITY, UT, 84720",165421226,"L"
95716,"1883 WEST SILVER AVE","STOCKTON","UT",84071,40.4341805980001,-112.408664154,216,"1883 WEST SILVER AVE, STOCKTON, UT, 84071","Match","Non_Exact","1883 SILVER AVE, STOCKTON, UT, 84071",640852188,"R"
95717,"18830 NW 29TH AVE","MIAMI GARDENS","FL",33056,25.9455669500001,-80.249550474,217,"18830 NW 29TH AVE, MIAMI GARDENS, FL, 33056","Match","Exact","18830 NW 29TH AVE, MIAMI GARDENS, FL, 33056",116027718,"L"
95718,"18830 SW 7TH STREET","PEMBROKE PINES","FM",33029,NA,NA,218,"18830 SW 7TH STREET, PEMBROKE PINES, FM, 33029","No_Match",NA,NA,NA,NA
95719,"18831 E 48TH ST","TULSA","OK",74134,36.094383716,-95.76714605,219,"18831 E 48TH ST, TULSA, OK, 74134","Match","Exact","18831 E 48TH ST, TULSA, OK, 74134",642071192,"L"
95720,"18831 MAPLE LANE","SAEGERTOWN","PA",16433,41.7282907470001,-80.164462686,220,"18831 MAPLE LANE, SAEGERTOWN, PA, 16433","Match","Exact","18831 MAPLE LN, SAEGERTOWN, PA, 16433",98572880,"L"
95721,"18831 NW 7TH COURT","MIAMI GARDENS","FL",33169,25.947187564,-80.214249065,221,"18831 NW 7TH COURT, MIAMI GARDENS, FL, 33169","Match","Exact","18831 NW 7TH CT, MIAMI GARDENS, FL, 33169",116029579,"R"
95722,"18831 PINEY POINT DR","SPRING LAKE","MI",49456,43.0806375170001,-86.2511604919999,222,"18831 PINEY POINT DR, SPRING LAKE, MI, 49456","Match","Exact","18831 PINEY PT DR, SPRING LAKE, MI, 49456",71093350,"L"
95723,"18832 ARATA WAY","CUPERTINO","CA",95014,37.320313519,-122.001394658,223,"18832 ARATA WAY, CUPERTINO, CA, 95014","Match","Exact","18832 ARATA WAY, CUPERTINO, CA, 95014",122997197,"L"
95724,"18832 GULF BOULEVARD UNIT 9","INDIAN SHORES","FL",33785,27.8434509620001,-82.840791307,224,"18832 GULF BOULEVARD UNIT 9, INDIAN SHORES, FL, 33785","Match","Exact","18832 GULF BLVD, INDIAN SHORES, FL, 33785",124794845,"L"
95725,"18833 DWYER ST","DETROIT","MI",48234,42.4320616790001,-83.0415904709999,225,"18833 DWYER ST, DETROIT, MI, 48234","Match","Exact","18833 DWYER ST, DETROIT, MI, 48234",95465558,"L"
95726,"18835 CENTER AVE","HOMEWOOD","IL",60430,41.547064957,-87.645622736,226,"18835 CENTER AVE, HOMEWOOD, IL, 60430","Match","Exact","18835 CENTER AVE, HOMEWOOD, IL, 60430",111713002,"L"
95727,"18836 FREMONT AVE N","SHORELINE","WA",98133,47.766218345,-122.351231769,227,"18836 FREMONT AVE N, SHORELINE, WA, 98133","Match","Exact","18836 FREMONT AVE N, SHORELINE, WA, 98133",630035411,"R"
95728,"18836 JEFFREY AVE","CERRITOS","CA",90703,33.8603943000001,-118.054306639,228,"18836 JEFFREY AVE, CERRITOS, CA, 90703","Match","Exact","18836 JEFFREY AVE, CERRITOS, CA, 90703",241149959,"L"
95729,"18836 MIRROR LAKE DRIVE","SPRING","TX",77388,30.0386285910001,-95.4595815549999,229,"18836 MIRROR LAKE DRIVE, SPRING, TX, 77388","Match","Exact","18836 MIRROR LAKE DR, SPRING, TX, 77388",96666914,"R"
95730,"18836 PARAPET PL","LAND O LAKES","FL",34638,28.296124585,-82.504101497,230,"18836 PARAPET PL, LAND O LAKES, FL, 34638","Match","Exact","18836 PARAPET PL, LAND O LAKES, FL, 34638",624648554,"R"
95731,"18837 IROQUOIS WAY","LAKEVILLE","MN",55044,44.676323041,-93.26007177,231,"18837 IROQUOIS WAY, LAKEVILLE, MN, 55044","Match","Exact","18837 IROQUOIS WAY, LAKEVILLE, MN, 55044",37977532,"R"
95732,"18837 ROLLING HILL WAY","EDMOND","OK",73012,35.662332056,-97.574061018,232,"18837 ROLLING HILL WAY, EDMOND, OK, 73012","Match","Exact","18837 ROLLING HILL WAY, EDMOND, OK, 73012",646652391,"L"
95733,"1884 86TH STREET 2FL","BROOKLYN","NY",11214,40.6060876980001,-74.000720788,233,"1884 86TH STREET 2FL, BROOKLYN, NY, 11214","Match","Exact","1884 86TH ST, BROOKLYN, NY, 11214",59088241,"R"
95734,"1884 ANDOVER CT","CHICAGO HTS","IL",60411,41.498073769,-87.671593767,234,"1884 ANDOVER CT, CHICAGO HTS, IL, 60411","Match","Exact","1884 ANDOVER CT, CHICAGO HEIGHTS, IL, 60411",111711020,"L"
95735,"1884 BIRCH LAKE AVE","WHITE BEAR LAKE","MN",55110,45.082826443,-93.0212796339999,235,"1884 BIRCH LAKE AVE, WHITE BEAR LAKE, MN, 55110","Match","Exact","1884 BIRCH LAKE AVE, WHITE BEAR LAKE, MN, 55110",97636761,"L"
95736,"1884 COUNTY LAKE ROAD","GURLEY","AL",35748,34.8281574810001,-86.3989706739999,236,"1884 COUNTY LAKE ROAD, GURLEY, AL, 35748","Match","Exact","1884 COUNTY LAKE RD, GURLEY, AL, 35748",58194453,"L"
95737,"1884 ENTERPRISE AVE D","RIVERSIDE","CA",92507,33.9709304310001,-117.352212858,237,"1884 ENTERPRISE AVE D, RIVERSIDE, CA, 92507","Match","Exact","1884 ENTERPRISE AVE, RIVERSIDE, CA, 92507",194746178,"L"
95738,"1884 KENTWELL ROAD","COLUMBUS","OH",43221,40.0199690650001,-83.063541487,238,"1884 KENTWELL ROAD, COLUMBUS, OH, 43221","Match","Exact","1884 KENTWELL RD, COLUMBUS, OH, 43221",218691480,"R"
95739,"1884 LOCKMERE DR SE","GRAND RAPIDS","MI",49508,42.868195601,-85.618595506,239,"1884 LOCKMERE DR SE, GRAND RAPIDS, MI, 49508","Match","Exact","1884 LOCKMERE DR SE, GRAND RAPIDS, MI, 49508",12465685,"R"
95740,"1884 OLD WEST POINT RD","SMITHVILLE","TN",37166,35.9655062,-85.7367600859999,240,"1884 OLD WEST POINT RD, SMITHVILLE, TN, 37166","Match","Exact","1884 OLD W POINT RD, SMITHVILLE, TN, 37166",34204482,"L"
95741,"1884","CARLSBAD","CA",92008,NA,NA,241,"1884, CARLSBAD, CA, 92008","No_Match",NA,NA,NA,NA
95742,"18840 MOUNTAIN VIEW DRIVE","BUENA VISTA","CO",81211,38.9635883670001,-106.217424377,242,"18840 MOUNTAIN VIEW DRIVE, BUENA VISTA, CO, 81211","Match","Exact","18840 MOUNTAIN VIEW DR, BUENA VISTA, CO, 81211",108245638,"L"
95743,"18840 NW 23RD AVE","MIAMI GARDENS","FL",33056,25.9464733820001,-80.239936716,243,"18840 NW 23RD AVE, MIAMI GARDENS, FL, 33056","Match","Exact","18840 NW 23RD AVE, MIAMI GARDENS, FL, 33056",116027868,"L"
95744,"18840 RAINIER AVE","HAYWARD","CA",94541,37.679562199,-122.114017323,244,"18840 RAINIER AVE, HAYWARD, CA, 94541","Match","Exact","18840 RAINIER AVE, HAYWARD, CA, 94541",125019542,"L"
95745,"18841 BUDDY RUTH RD","TRINIDAD","TX",75163,32.2031208990001,-96.0980123149999,245,"18841 BUDDY RUTH RD, TRINIDAD, TX, 75163","Match","Exact","18841 BUDDY RUTH RD, TRINIDAD, TX, 75163",125798194,"L"
95746,"18842 JANE CIRCLE","NORTH TUSTIN","CA",92705,33.758595551,-117.80399953,246,"18842 JANE CIRCLE, NORTH TUSTIN, CA, 92705","Match","Exact","18842 JANE CIR, NORTH TUSTIN, CA, 92705",144055872,"R"
95747,"18844 NE GLISAN ST","PORTLAND","OR",97230,45.5263865690001,-122.469279514,247,"18844 NE GLISAN ST, PORTLAND, OR, 97230","Match","Exact","18844 NE GLISAN ST, PORTLAND, OR, 97230",637557305,"R"
95748,"18845 N 42ND PL","PHOENIX","AZ",85050,33.6583755780001,-111.990408337,248,"18845 N 42ND PL, PHOENIX, AZ, 85050","Match","Exact","18845 N 42ND PL, PHOENIX, AZ, 85050",128600662,"R"
95749,"18847 GABLE ST","DETROIT","MI",48234,42.432111105,-83.042678928,249,"18847 GABLE ST, DETROIT, MI, 48234","Match","Exact","18847 GABLE ST, DETROIT, MI, 48234",95465555,"L"
95750,"18848 NW 78 PL","MIAMI","FL",33015,25.9458416370001,-80.329128173,250,"18848 NW 78 PL, MIAMI, FL, 33015","Match","Non_Exact","18848 NW 78TH PL, MIAMI GARDENS, FL, 33015",116059686,"R"
95751,"1885 169TH PLACE","SOUTH HOLLAND","IL",60473,41.5873744,-87.572220283,251,"1885 169TH PLACE, SOUTH HOLLAND, IL, 60473","Match","Non_Exact","1885 E 169TH PL, SOUTH HOLLAND, IL, 60473",618463592,"R"
95752,"1885 ADAM CLAYTON POWELL JR BLVD 5A","NEW YORK","NY",10026,40.8020796490001,-73.9533498169999,252,"1885 ADAM CLAYTON POWELL JR BLVD 5A, NEW YORK, NY, 10026","Match","Exact","1885 ADAM CLAYTON POWELL JR BLVD, NEW YORK, NY, 10026",59657699,"R"
95753,"1885 BANTRY DR","MIDLOTHIAN","VA",23114,37.4646192800001,-77.613101808,253,"1885 BANTRY DR, MIDLOTHIAN, VA, 23114","Match","Exact","1885 BANTRY DR, MIDLOTHIAN, VA, 23114",616539903,"L"
95754,"1885 BLAKE AVENUE","GLENWOOD SPRINGS","CO",81601,NA,NA,254,"1885 BLAKE AVENUE, GLENWOOD SPRINGS, CO, 81601","No_Match",NA,NA,NA,NA
95755,"1885 BRENDA AV","PENSACOLA","FL",32506,30.4346749900001,-87.2976178179999,255,"1885 BRENDA AV, PENSACOLA, FL, 32506","Match","Exact","1885 BRENDA AVE, PENSACOLA, FL, 32506",93212483,"L"
95756,"1885 CHURCH STREET","PARK RIDGE","IL",60068,42.0469913160001,-87.8500245129999,256,"1885 CHURCH STREET, PARK RIDGE, IL, 60068","Match","Exact","1885 CHURCH ST, PARK RIDGE, IL, 60068",111730768,"L"
95757,"1885 DIXIE HIGHWAY","FT WRIGHT","KY",41011,39.0580702720001,-84.542839047,257,"1885 DIXIE HIGHWAY, FT WRIGHT, KY, 41011","Match","Exact","1885 DIXIE HWY, FT WRIGHT, KY, 41011",649454689,"L"
95758,"1885 EAST TURNBERRY AVENUE","FRESNO","CA",93730,36.8889154340001,-119.748315585,258,"1885 EAST TURNBERRY AVENUE, FRESNO, CA, 93730","Match","Non_Exact","1885 E TURNBERRY, FRESNO, CA, 93730",606270808,"R"
95759,"1885 EL PASEO ST APT 532","HOUSTON","TX",77054,NA,NA,259,"1885 EL PASEO ST APT 532, HOUSTON, TX, 77054","No_Match",NA,NA,NA,NA
95760,"1885 FAIRTON ROAD","MILLVILLE","NJ",8332,39.395374518,-75.086083321,260,"1885 FAIRTON ROAD, MILLVILLE, NJ, 8332","Match","Exact","1885 FAIRTON RD, MILLVILLE, NJ, 08332",174110208,"L"
95761,"1885 FM 2673","CANYON LAKE","TX",78133,29.846951339,-98.179331341,261,"1885 FM 2673, CANYON LAKE, TX, 78133","Match","Exact","1885 FM 2673, CANYON LAKE, TX, 78133",72242206,"R"
95762,"1885 HIGHWAY 133","WESTPHALIA","MO",65085,NA,NA,262,"1885 HIGHWAY 133, WESTPHALIA, MO, 65085","No_Match",NA,NA,NA,NA
95763,"1885 INDIAN RIVER ROAD","VIRGINIA BEACH","VA",23456,36.7224778930001,-76.011371712,263,"1885 INDIAN RIVER ROAD, VIRGINIA BEACH, VA, 23456","Match","Exact","1885 INDIAN RIVER RD, VA BCH, VA, 23456",643310665,"L"
95764,"1885 JOSEPHINE RD","STAMPING GROUND","KY",40379,38.378030258,-84.668887367,264,"1885 JOSEPHINE RD, STAMPING GROUND, KY, 40379","Match","Exact","1885 JOSEPHINE RD, STAMPING GROUND, KY, 40379",649064696,"R"
95765,"1885 LAKE AVENUE","ELYRIA","OH",44035,41.3941940780001,-82.1306693339999,265,"1885 LAKE AVENUE, ELYRIA, OH, 44035","Match","Exact","1885 LAKE AVE, ELYRIA, OH, 44035",55407186,"L"
95766,"1885 MANOR VIEW","CUMMING","GA",30041,34.1168038710001,-84.179512906,266,"1885 MANOR VIEW, CUMMING, GA, 30041","Match","Exact","1885 MANOR VW, CUMMING, GA, 30041",653442921,"L"
95767,"1885 MISSION STREET","SAN FRANCISCO","CA",94103,37.7669975530001,-122.419847342,267,"1885 MISSION STREET, SAN FRANCISCO, CA, 94103","Match","Exact","1885 MISSION ST, SAN FRANCISCO, CA, 94103",192287465,"L"
95768,"1885 N 3RD ST","BATON ROUGE","LA",70802,30.4631501160001,-91.188097947,268,"1885 N 3RD ST, BATON ROUGE, LA, 70802","Match","Exact","1885 N 3RD ST, BATON ROUGE, LA, 70802",92179497,"L"
95769,"1885 N COUNTY RD 800 WEST","SCIPIO","IN",47273,39.011922559,-85.760490394,269,"1885 N COUNTY RD 800 WEST, SCIPIO, IN, 47273","Match","Exact","1885 N CO RD 800 W, SCIPIO, IN, 47273",624880200,"L"
95770,"1885 PARK AVE","WASHINGTON","PA",15301,40.136719488,-80.275352072,270,"1885 PARK AVE, WASHINGTON, PA, 15301","Match","Exact","1885 PARK AVE, WASHINGTON, PA, 15301",625533490,"L"
95771,"1885 S QUEBEC WAY A26","DENVER","CO",80231,39.6827588880001,-104.889375768,271,"1885 S QUEBEC WAY A26, DENVER, CO, 80231","Match","Non_Exact","1885 S QUEBEC WAY, DENVER, CO, 80231",606057522,"R"
95772,"1885 SHORE DRIVE SOUTH 222","SOUTH PASADENA","FL",33707,27.749205428,-82.736075703,272,"1885 SHORE DRIVE SOUTH 222, SOUTH PASADENA, FL, 33707","Match","Exact","1885 SHORE DR S, SOUTH PASADENA, FL, 33707",610492349,"R"
95773,"1885 SHUEY AVE","WALNUT CREEK","CA",94596,37.8993090060001,-122.067026903,273,"1885 SHUEY AVE, WALNUT CREEK, CA, 94596","Match","Exact","1885 SHUEY AVE, WALNUT CREEK, CA, 94596",192050246,"L"
95774,"1885 SO ARLINGTON AVE STE 105","RENO","NV",89509,39.5056845760001,-119.817158794,274,"1885 SO ARLINGTON AVE STE 105, RENO, NV, 89509","Match","Non_Exact","1885 S ARLINGTON AVE, RENO, NV, 89509",107045361,"R"
95775,"1885 SOUTH QUEBEC WAY UNIT J107","DENVER","CO",80231,39.6827617220001,-104.889380653,275,"1885 SOUTH QUEBEC WAY UNIT J107, DENVER, CO, 80231","Match","Exact","1885 S QUEBEC WAY, DENVER, CO, 80231",606057522,"R"
95776,"1885 TERRACE HEIGHTS LANE","RENO","NV",89523,39.5312875880001,-119.869889933,276,"1885 TERRACE HEIGHTS LANE, RENO, NV, 89523","Match","Exact","1885 TERRACE HEIGHTS LN, RENO, NV, 89523",107063403,"R"
95777,"1885 VETERANS PARK DR","NAPLES","FL",34109,26.270833565,-81.782134808,277,"1885 VETERANS PARK DR, NAPLES, FL, 34109","Match","Exact","1885 VETERANS PARK DR, NAPLES, FL, 34109",115227719,"R"
95778,"18850 MILOS CIRCLE","HUNTINGTON BEACH","CA",92648,33.6880433850001,-117.994519039,278,"18850 MILOS CIRCLE, HUNTINGTON BEACH, CA, 92648","Match","Exact","18850 MILOS CIR, HUNTINGTON BEACH, CA, 92648",144251348,"L"
95779,"18850 POND CREEK RD","PHILADELPHIA","TN",37846,35.688076659,-84.450422655,279,"18850 POND CREEK RD, PHILADELPHIA, TN, 37846","Match","Exact","18850 POND CREEK RD, PHILADELPHIA, TN, 37846",610284845,"L"
95780,"18851 NE 29 AVE SUITE 700","AVENTURA","FL",33180,25.9500424340001,-80.142651601,280,"18851 NE 29 AVE SUITE 700, AVENTURA, FL, 33180","Match","Non_Exact","18851 NE 29TH AVE, AVENTURA, FL, 33180",629253325,"R"
95781,"18851 NE 29TH AVE STE 700 130","AVENTURA","FL",33180,25.9500424340001,-80.142651601,281,"18851 NE 29TH AVE STE 700 130, AVENTURA, FL, 33180","Match","Non_Exact","18851 NE 29TH AVE, AVENTURA, FL, 33180",629253325,"R"
95782,"18851 NE 29TH AVE STE 700","AVENTURA","FL",33180,25.9500424340001,-80.142651601,282,"18851 NE 29TH AVE STE 700, AVENTURA, FL, 33180","Match","Non_Exact","18851 NE 29TH AVE, AVENTURA, FL, 33180",629253325,"R"
95783,"18853 136TH PL SE","MONROE","WA",98272,47.87351248,-121.977526223,283,"18853 136TH PL SE, MONROE, WA, 98272","Match","Exact","18853 136TH PL SE, MONROE, WA, 98272",606938373,"R"
95784,"18853 GAINSBOROUGH ROAD","DETROIT","MI",48223,42.4059114410001,-83.22638878,284,"18853 GAINSBOROUGH ROAD, DETROIT, MI, 48223","Match","Exact","18853 GAINSBOROUGH RD, DETROIT, MI, 48223",95718501,"L"
95785,"18854 COUNTY ROAD D62","MONTICELLO","IA",52310,NA,NA,285,"18854 COUNTY ROAD D62, MONTICELLO, IA, 52310","No_Match",NA,NA,NA,NA
95786,"18855 DWYER","DETROIT","MI",48234,42.4321773610001,-83.0415955139999,286,"18855 DWYER, DETROIT, MI, 48234","Match","Non_Exact","18855 DWYER ST, DETROIT, MI, 48234",95465558,"L"
95787,"18855 KUHLMAN ROAD","BEND","OR",97703,44.1202060780001,-121.379946067,287,"18855 KUHLMAN ROAD, BEND, OR, 97703","Match","Exact","18855 KUHLMAN RD, BEND, OR, 97703",152584857,"L"
95788,"18855 TOWNSHIP HWY 138","CAREY","OH",43316,40.9338963480001,-83.4729876329999,288,"18855 TOWNSHIP HWY 138, CAREY, OH, 43316","Match","Exact","18855 TWP HWY 138, CAREY, OH, 43316",13043402,"R"
95789,"18856 S AVENIDA PASO CORTITO","SAHUARITA","AZ",85629,31.908075572,-110.990000511,289,"18856 S AVENIDA PASO CORTITO, SAHUARITA, AZ, 85629","Match","Exact","18856 S AVE PASO CORTITO, SAHUARITA, AZ, 85629",635514709,"R"
95790,"18857 HARBOR SIDE BLVD","MONTGOMERY","TX",77356,30.3986322700001,-95.656251207,290,"18857 HARBOR SIDE BLVD, MONTGOMERY, TX, 77356","Match","Exact","18857 HARBOR SIDE BLVD, MONTGOMERY, TX, 77356",79339663,"L"
95791,"18858 NW 85TH CT 3002","MIAMI","FL",33015,NA,NA,291,"18858 NW 85TH CT 3002, MIAMI, FL, 33015","No_Match",NA,NA,NA,NA
95792,"1886 BARRINGTON DRIVE","JONESBORO","GA",30236,33.5406669390001,-84.330075651,292,"1886 BARRINGTON DRIVE, JONESBORO, GA, 30236","Match","Exact","1886 BARRINGTON DR, JONESBORO, GA, 30236",632339928,"L"
95793,"1886 BASELBRIER LN","SIMI VALLEY","CA",93065,34.269912967,-118.792844767,293,"1886 BASELBRIER LN, SIMI VALLEY, CA, 93065","Match","Exact","1886 BASELBRIER LN, SIMI VALLEY, CA, 93065",110029452,"R"
95794,"1886 EAST MONTEREY DRIVE","BOISE","ID",83706,43.5771041400001,-116.159553955,294,"1886 EAST MONTEREY DRIVE, BOISE, ID, 83706","Match","Exact","1886 E MONTEREY DR, BOISE, ID, 83706",117885421,"L"
95795,"1886 EL CENTRO AVE","NAPA","CA",94558,38.3347575980001,-122.319917761,295,"1886 EL CENTRO AVE, NAPA, CA, 94558","Match","Exact","1886 EL CENTRO AVE, NAPA, CA, 94558",624290610,"R"
95796,"1886 FLATSHOALS ROAD","RIVERDALE","GA",30296,33.5880215450001,-84.45124665,296,"1886 FLATSHOALS ROAD, RIVERDALE, GA, 30296","Match","Non_Exact","1886 FLAT SHOALS RD, RIVERDALE, GA, 30296",23311354,"L"
95797,"1886 FM 2673 F21","CANYON LAKE","TX",78133,29.8466145620001,-98.180217403,297,"1886 FM 2673 F21, CANYON LAKE, TX, 78133","Match","Non_Exact","1886 FM 2673, CANYON LAKE, TX, 78133",72242206,"L"
95798,"1886 MELVIN HILL RD","PHELPS","NY",14532,42.9411205750001,-77.070835259,298,"1886 MELVIN HILL RD, PHELPS, NY, 14532","Match","Exact","1886 MELVIN HILL RD, PHELPS, NY, 14532",13474335,"L"
95799,"1886 NORCROSS CHASE CIRCLE","LAWRENCEVILLE","GA",30044,33.9530289250001,-84.058791118,299,"1886 NORCROSS CHASE CIRCLE, LAWRENCEVILLE, GA, 30044","Match","Exact","1886 NORCROSS CHASE CIR, LAWRENCEVILLE, GA, 30044",88940565,"R"
95800,"1886 OMNI BOULEVARD","MOUNT PLEASANT","SC",29466,32.823224585,-79.8113980639999,300,"1886 OMNI BOULEVARD, MOUNT PLEASANT, SC, 29466","Match","Exact","1886 OMNI BLVD, MOUNT PLEASANT, SC, 29466",635601873,"R"
95801,"1886 SOUTH 1700 EAST","SALT LAKE CITY","UT",84108,40.729037776,-111.842272412,301,"1886 SOUTH 1700 EAST, SALT LAKE CITY, UT, 84108","Match","Exact","1886 S 1700 E, SALT LAKE CITY, UT, 84108",645245807,"R"
95802,"18860 HAMLIN AVE","FLOSSMOOR","IL",60422,41.5468803320001,-87.70855254,302,"18860 HAMLIN AVE, FLOSSMOOR, IL, 60422","Match","Exact","18860 HAMLIN AVE, FLOSSMOOR, IL, 60422",111707785,"R"
95803,"18860 NORDHOFF ST STE 201","NORTHRIDGE","CA",91324,34.235483651,-118.543871877,303,"18860 NORDHOFF ST STE 201, NORTHRIDGE, CA, 91324","Match","Exact","18860 NORDHOFF ST, NORTHRIDGE, CA, 91324",142046026,"L"
95804,"18862 CHERRY LANE","LANSING","IL",60438,41.552731291,-87.542470056,304,"18862 CHERRY LANE, LANSING, IL, 60438","Match","Exact","18862 CHERRY LN, LANSING, IL, 60438",111786416,"R"
95805,"18863 LAKEWOOD CIRCLE","LAKE ANN","MI",49650,44.6986426710001,-85.861029779,305,"18863 LAKEWOOD CIRCLE, LAKE ANN, MI, 49650","Match","Exact","18863 LAKEWOOD CIR, LAKE ANN, MI, 49650",145906514,"R"
95806,"18865 STATE ROAD 54 SUITE 199","LUTZ","FL",33558,NA,NA,306,"18865 STATE ROAD 54 SUITE 199, LUTZ, FL, 33558","No_Match",NA,NA,NA,NA
95807,"1887 AUBURN OAK WAY","CHICO","CA",95928,39.7319982500001,-121.81005524,307,"1887 AUBURN OAK WAY, CHICO, CA, 95928","Match","Exact","1887 AUBURN OAK WAY, CHICO, CA, 95928",68479378,"L"
95808,"1887 E BRADFORD RD","MIDLAND","MI",48640,43.5537736700001,-84.294729882,308,"1887 E BRADFORD RD, MIDLAND, MI, 48640","Match","Exact","1887 E BRADFORD RD, MIDLAND, MI, 48640",81195663,"L"
95809,"1887 HAMILTON AVE","SAN JOSE","CA",95125,37.294396202,-121.920129413,309,"1887 HAMILTON AVE, SAN JOSE, CA, 95125","Match","Exact","1887 HAMILTON AVE, SAN JOSE, CA, 95125",122906450,"R"
95810,"1887 HEATHERS WAY","AUGUSTA","GA",30906,33.3496585130001,-82.001505271,310,"1887 HEATHERS WAY, AUGUSTA, GA, 30906","Match","Exact","1887 HEATHERS WAY, AUGUSTA, GA, 30906",645571074,"L"
95811,"1887 HOWARD STREET","ANDERSON","CA",96007,40.4477583990001,-122.30059186,311,"1887 HOWARD STREET, ANDERSON, CA, 96007","Match","Exact","1887 HOWARD ST, ANDERSON, CA, 96007",126643946,"R"
95812,"1887 JOHN LUTHER BRANCH ROAD","GLENNVILLE","GA",30427,32.0064531240001,-82.0048569909999,312,"1887 JOHN LUTHER BRANCH ROAD, GLENNVILLE, GA, 30427","Match","Exact","1887 JOHN LUTHER BRANCH RD, GLENNVILLE, GA, 30427",4741810,"R"
95813,"1887 NELIUS ROAD","BELLVILLE","TX",77418,29.900670743,-96.200542006,313,"1887 NELIUS ROAD, BELLVILLE, TX, 77418","Match","Exact","1887 NELIUS RD, BELLVILLE, TX, 77418",653207330,"L"
95814,"1887 PAINTERS RUN ROAD","PITTSBURGH","PA",15241,40.3631598260001,-80.085371371,314,"1887 PAINTERS RUN ROAD, PITTSBURGH, PA, 15241","Match","Exact","1887 PAINTERS RUN RD, PITTSBURGH, PA, 15241",623433935,"L"
95815,"1887 US HIGHWAY 70","MULESHOE","TX",79347,34.237062972,-102.74532262,315,"1887 US HIGHWAY 70, MULESHOE, TX, 79347","Match","Exact","1887 US HWY 70, MULESHOE, TX, 79347",163970172,"L"
95816,"1887 UW HIGHWAY 70","MULESHOE","TX",79347,34.237062972,-102.74532262,316,"1887 UW HIGHWAY 70, MULESHOE, TX, 79347","Match","Non_Exact","1887 US HWY 70, MULESHOE, TX, 79347",163970172,"L"
95817,"1887 WHITNEY MESA DR  UNIT 2591","HENDERSON","NV",89014,36.077533203,-115.067174788,317,"1887 WHITNEY MESA DR  UNIT 2591, HENDERSON, NV, 89014","Match","Exact","1887 WHITNEY MESA DR, HENDERSON, NV, 89014",638864692,"R"
95818,"1887 WHITNEY MESA DR NUM 8872","HENDERSON","NV",89014,36.077533203,-115.067174788,318,"1887 WHITNEY MESA DR NUM 8872, HENDERSON, NV, 89014","Match","Exact","1887 WHITNEY MESA DR, HENDERSON, NV, 89014",638864692,"R"
95819,"1887 WHITNEY MESA DR STE 1919","HENDERSON","NV",89014,36.077533203,-115.067174788,319,"1887 WHITNEY MESA DR STE 1919, HENDERSON, NV, 89014","Match","Exact","1887 WHITNEY MESA DR, HENDERSON, NV, 89014",638864692,"R"
95820,"1887 WHITNEY MESA DR STE1919","HENDERSON","NV",89014,36.077533203,-115.067174788,320,"1887 WHITNEY MESA DR STE1919, HENDERSON, NV, 89014","Match","Exact","1887 WHITNEY MESA DR, HENDERSON, NV, 89014",638864692,"R"
95821,"1887 WHITNEY MESA DR UNIT 7099","HENDERSON","NV",89014,36.077533203,-115.067174788,321,"1887 WHITNEY MESA DR UNIT 7099, HENDERSON, NV, 89014","Match","Exact","1887 WHITNEY MESA DR, HENDERSON, NV, 89014",638864692,"R"
95822,"1887 WHITNEY MESA DRIVE SUITE 5266","HENDERSON","NV",89014,36.077533203,-115.067174788,322,"1887 WHITNEY MESA DRIVE SUITE 5266, HENDERSON, NV, 89014","Match","Exact","1887 WHITNEY MESA DR, HENDERSON, NV, 89014",638864692,"R"
95823,"1887","BEND","OR",97709,NA,NA,323,"1887, BEND, OR, 97709","No_Match",NA,NA,NA,NA
95824,"18870 NW 1ST STREET","PEMBROKE PINES","FL",33029,26.008640256,-80.4025378009999,324,"18870 NW 1ST STREET, PEMBROKE PINES, FL, 33029","Match","Exact","18870 NW 1ST ST, PEMBROKE PINES, FL, 33029",114770888,"L"
95825,"18870 PASNOW","EUCLID","OH",44119,41.5932621750001,-81.547042995,325,"18870 PASNOW, EUCLID, OH, 44119","Match","Non_Exact","18870 PASNOW AVE, EUCLID, OH, 44119",61108059,"R"
95826,"18870 WEST 153RD COURT 101","OLATHE","KS",66062,38.8495719320001,-94.804001343,326,"18870 WEST 153RD COURT 101, OLATHE, KS, 66062","Match","Exact","18870 W 153RD CT, OLATHE, KS, 66062",619898691,"R"
95827,"18873 MACKAY STREET","DETROIT","MI",48234,42.43117298,-83.0770618019999,327,"18873 MACKAY STREET, DETROIT, MI, 48234","Match","Exact","18873 MACKAY ST, DETROIT, MI, 48234",95463371,"L"
95828,"18873 N 94TH PLACE","SCOTTSDALE","AZ",85255,33.657306143,-111.877891738,328,"18873 N 94TH PLACE, SCOTTSDALE, AZ, 85255","Match","Exact","18873 N 94TH PL, SCOTTSDALE, AZ, 85255",128371616,"L"
95829,"18874 315TH","NORMAN","OK",73072,35.1677625560001,-97.513371873,329,"18874 315TH, NORMAN, OK, 73072","Match","Non_Exact","18874 315TH ST, NORMAN, OK, 73072",624276422,"R"
95830,"18876  6495 ROAD","MONTROSE","CO",81403,38.4090424,-107.873626328,330,"18876  6495 ROAD, MONTROSE, CO, 81403","Match","Exact","18876 6495 RD, MONTROSE, CO, 81403",122568192,"R"
95831,"18877 W 10 MILE ROAD STE 210","SOUTHFIELD","MI",48075,42.4731809090001,-83.22959879,331,"18877 W 10 MILE ROAD STE 210, SOUTHFIELD, MI, 48075","Match","Non_Exact","18877 W 10 MILE RD, SOUTHFIELD, MI, 48075",69739345,"L"
95832,"18877 W 10 MILE STE 210","SOUTHFIELD","MI",48075,NA,NA,332,"18877 W 10 MILE STE 210, SOUTHFIELD, MI, 48075","No_Match",NA,NA,NA,NA
95833,"1888 ABBEYDALE CT SE","GRAND RAPIDS","MI",49546,42.929484539,-85.541174913,333,"1888 ABBEYDALE CT SE, GRAND RAPIDS, MI, 49546","Match","Exact","1888 ABBEYDALE CT SE, GRAND RAPIDS, MI, 49546",12483273,"R"
95834,"1888 ANN STREET","LAYTON","UT",84041,41.0867134900001,-112.001655502,334,"1888 ANN STREET, LAYTON, UT, 84041","Match","Non_Exact","1888 W ANN ST, LAYTON, UT, 84041",229351020,"R"
95835,"1888 ARDEN AVENUE","SAN BERNARDINO","CA",92404,NA,NA,335,"1888 ARDEN AVENUE, SAN BERNARDINO, CA, 92404","No_Match",NA,NA,NA,NA
95836,"1888 CENTURY PARK EAST / SUITE 1700","LOS ANGELES","CA",90067,NA,NA,336,"1888 CENTURY PARK EAST / SUITE 1700, LOS ANGELES, CA, 90067","No_Match",NA,NA,NA,NA
95837,"1888 CENTURY PARK EAST SUITE 900","LOS ANGELES","CA",90067,NA,NA,337,"1888 CENTURY PARK EAST SUITE 900, LOS ANGELES, CA, 90067","No_Match",NA,NA,NA,NA
95838,"1888 DIVOT ROAD","CARSON CITY","NV",89706,39.1778687720001,-119.716857796,338,"1888 DIVOT ROAD, CARSON CITY, NV, 89706","Match","Non_Exact","1888 DIVOT RD, CARSON CITY, NV, 89701",199525698,"L"
95839,"1888 EMERY ST NW STE 373","ATLANTA","GA",30318,33.807067268,-84.414338527,339,"1888 EMERY ST NW STE 373, ATLANTA, GA, 30318","Match","Exact","1888 EMERY ST NW, ATLANTA, GA, 30318",17408443,"L"
95840,"1888 FAIRYLAND ROAD","LEHIGHTON","PA",18235,40.8481574630001,-75.670619807,340,"1888 FAIRYLAND ROAD, LEHIGHTON, PA, 18235","Match","Exact","1888 FAIRYLAND RD, LEHIGHTON, PA, 18235",80620693,"L"
95841,"1888 GOLDEN GATE AVE APT 20","SAN FRANCISCO","CA",94115,37.7783427140001,-122.441591251,341,"1888 GOLDEN GATE AVE APT 20, SAN FRANCISCO, CA, 94115","Match","Exact","1888 GOLDEN GATE AVE, SAN FRANCISCO, CA, 94115",192283294,"R"
95842,"1888 HOLLYWOOD RD NW APT 4202","ATLANTA","GA",30318,33.8074718010001,-84.471567029,342,"1888 HOLLYWOOD RD NW APT 4202, ATLANTA, GA, 30318","Match","Exact","1888 HOLLYWOOD RD NW, ATLANTA, GA, 30318",17333676,"L"
95843,"1888 HOLLYWOOD ROAD NW SUITE 8104","ATLANTA","GA",30318,33.8074718010001,-84.471567029,343,"1888 HOLLYWOOD ROAD NW SUITE 8104, ATLANTA, GA, 30318","Match","Exact","1888 HOLLYWOOD RD NW, ATLANTA, GA, 30318",17333676,"L"
95844,"1888 KALAKAUA AVENUE 3104","HONOLULU","HI",96815,21.2877162070001,-157.834078202,344,"1888 KALAKAUA AVENUE 3104, HONOLULU, HI, 96815","Match","Exact","1888 KALAKAUA AVE, HONOLULU, HI, 96815",648749867,"L"
95845,"1888 MALLOW LANE","GROVE CITY","OH",43123,39.851459171,-83.0552187279999,345,"1888 MALLOW LANE, GROVE CITY, OH, 43123","Match","Exact","1888 MALLOW LN, GROVE CITY, OH, 43123",626957150,"L"
95846,"1888 N EAGLE CREEK WAY","EAGLE","ID",83616,43.7125037280001,-116.318023267,346,"1888 N EAGLE CREEK WAY, EAGLE, ID, 83616","Match","Exact","1888 N EAGLE CREEK WAY, EAGLE, ID, 83616",117880766,"R"
95847,"1888 NW 52 PLACE","MIAMI","FL",33055,NA,NA,347,"1888 NW 52 PLACE, MIAMI, FL, 33055","No_Match",NA,NA,NA,NA
95848,"1888 NY-38A POB 21","MORAVIA","NY",13118,NA,NA,348,"1888 NY-38A POB 21, MORAVIA, NY, 13118","No_Match",NA,NA,NA,NA
95849,"1888 OVERLOOK RIDGE DRIVE","COLUMBUS","OH",43219,40.0116642190001,-82.931635278,349,"1888 OVERLOOK RIDGE DRIVE, COLUMBUS, OH, 43219","Match","Exact","1888 OVERLOOK RIDGE DR, COLUMBUS, OH, 43219",641136310,"L"
95850,"1888 REAR ADMIRAL LANE","SAINT JOHNS","FL",32259,30.1169006330001,-81.598193373,350,"1888 REAR ADMIRAL LANE, SAINT JOHNS, FL, 32259","Match","Exact","1888 REAR ADMIRAL LN, SAINT JOHNS, FL, 32259",639307499,"R"
95851,"1888 SHADETREE DR","SAN MARCOS","CA",92078,33.096420305,-117.212477589,351,"1888 SHADETREE DR, SAN MARCOS, CA, 92078","Match","Exact","1888 SHADETREE DR, SAN MARCOS, CA, 92078",647667969,"R"
95852,"1888 SHERMAN ST STE 200","DENVER","CO",80203,39.7459670860001,-104.984844774,352,"1888 SHERMAN ST STE 200, DENVER, CO, 80203","Match","Exact","1888 SHERMAN ST, DENVER, CO, 80203",177305556,"R"
95853,"1888 SOUTH STATE ROAD 63","HILLSDALE","IN",47854,NA,NA,353,"1888 SOUTH STATE ROAD 63, HILLSDALE, IN, 47854","No_Match",NA,NA,NA,NA
95854,"1888 WALNUT HILL PARK DR","COLUMBUS","OH",43232,39.9401287430001,-82.840766867,354,"1888 WALNUT HILL PARK DR, COLUMBUS, OH, 43232","Match","Exact","1888 WALNUT HILL PARK DR, COLUMBUS, OH, 43232",218647829,"L"
95855,"1888 WEST FIFTH ST","PISCATAWAY","NJ",8854,40.585837084,-74.453346294,355,"1888 WEST FIFTH ST, PISCATAWAY, NJ, 8854","Match","Exact","1888 W 5TH ST, PISCATAWAY, NJ, 08854",60326203,"R"
95856,"18880 CAMINITO CANTILENA NO 69","SAN DIEGO","CA",92128,NA,NA,356,"18880 CAMINITO CANTILENA NO 69, SAN DIEGO, CA, 92128","No_Match",NA,NA,NA,NA
95857,"18881 MORA KAI LANE APT 33","HUNTINGTON BEACH","CA",92646,33.6877617000001,-117.985589423,357,"18881 MORA KAI LANE APT 33, HUNTINGTON BEACH, CA, 92646","Match","Exact","18881 MORA KAI LN, HUNTINGTON BEACH, CA, 92646",609061723,"R"
95858,"18884 BROOKHURST STREET","FOUNTAIN VALLEY","CA",92708,33.6884502950001,-117.953989434,358,"18884 BROOKHURST STREET, FOUNTAIN VALLEY, CA, 92708","Match","Exact","18884 BROOKHURST ST, FOUNTAIN VALLEY, CA, 92708",609055932,"L"
95859,"18886 108TH LN SE","RENTON","WA",98055,47.432470902,-122.197052897,359,"18886 108TH LN SE, RENTON, WA, 98055","Match","Non_Exact","18886 108TH AVE SE, RENTON, WA, 98055",615059556,"L"
95860,"18889 N 69TH DR","GLENDALE","AZ",85308,33.6560672520001,-112.208033773,360,"18889 N 69TH DR, GLENDALE, AZ, 85308","Match","Exact","18889 N 69TH DR, GLENDALE, AZ, 85308",128332604,"L"
95861,"18889 WARING STATION ROAD SUITE 214","GERMANTOWN","MD",20874,39.165824898,-77.246404361,361,"18889 WARING STATION ROAD SUITE 214, GERMANTOWN, MD, 20874","Match","Exact","18889 WARING STATION RD, GERMANTOWN, MD, 20874",62108587,"L"
95862,"1889 AZTEC DRIVE","XENIA","OH",45385,39.677364405,-83.9617642709999,362,"1889 AZTEC DRIVE, XENIA, OH, 45385","Match","Exact","1889 AZTEC DR, XENIA, OH, 45385",143380279,"L"
95863,"1889 BRIGHTSEAT RD","LANDOVER","MD",20785,38.914951156,-76.853651859,363,"1889 BRIGHTSEAT RD, LANDOVER, MD, 20785","Match","Exact","1889 BRIGHTSEAT RD, LANDOVER, MD, 20785",76382250,"R"
95864,"1889 COKER STORE ROAD","MOUNT OLIVE","NC",28365,35.1953454490001,-78.165028874,364,"1889 COKER STORE ROAD, MOUNT OLIVE, NC, 28365","Match","Exact","1889 COKER STORE RD, MOUNT OLIVE, NC, 28365",14249372,"R"
95865,"1889 CR 478","MYRTLE","MS",38650,34.548892245,-89.0906620649999,365,"1889 CR 478, MYRTLE, MS, 38650","Match","Exact","1889 CO RD 478, MYRTLE, MS, 38650",606683360,"L"
95866,"1889 FRANCISCO QUINDOS FAIR VIEW","SAN JUAN","PR",926,NA,NA,366,"1889 FRANCISCO QUINDOS FAIR VIEW, SAN JUAN, PR, 926","No_Match",NA,NA,NA,NA
95867,"1889 GENESSEE AVE","COLUMBUS","OH",43211,40.01876951,-82.960020121,367,"1889 GENESSEE AVE, COLUMBUS, OH, 43211","Match","Exact","1889 GENESSEE AVE, COLUMBUS, OH, 43211",135578311,"R"
95868,"1889 PRESTON WHITE DR SUITE100","RESTON","VA",20191,38.9420900760001,-77.326839696,368,"1889 PRESTON WHITE DR SUITE100, RESTON, VA, 20191","Match","Exact","1889 PRESTON WHITE DR, RESTON, VA, 20191",76021634,"L"
95869,"1889 ROSEMONT ROAD","BERKLEY","MI",48072,42.5025042300001,-83.176316265,369,"1889 ROSEMONT ROAD, BERKLEY, MI, 48072","Match","Exact","1889 ROSEMONT RD, BERKLEY, MI, 48072",69737873,"L"
95870,"1889 SUMMITVIEW DR","SAINT CHARLES","MO",63303,38.75860916,-90.520263343,370,"1889 SUMMITVIEW DR, SAINT CHARLES, MO, 63303","Match","Exact","1889 SUMMITVIEW DR, SAINT CHARLES, MO, 63303",100062924,"L"
95871,"1889 THOMASSON MILL RD","GOODVIEW","VA",24095,37.2146476510001,-79.758913492,371,"1889 THOMASSON MILL RD, GOODVIEW, VA, 24095","Match","Exact","1889 THOMASSON MILL RD, GOODVIEW, VA, 24095",62671995,"L"
95872,"18890 GUMBO LIMBO CT","JUPITER","FL",33458,26.9550764370001,-80.131450665,372,"18890 GUMBO LIMBO CT, JUPITER, FL, 33458","Match","Exact","18890 GUMBO LIMBO CT, JUPITER, FL, 33458",115342196,"L"
95873,"18892 WOODLEIGH CT","SARATOGA","CA",95070,37.276618162,-122.003863312,373,"18892 WOODLEIGH CT, SARATOGA, CA, 95070","Match","Exact","18892 WOODLEIGH CT, SARATOGA, CA, 95070",123014636,"R"
95874,"18896 EAST 51ST PLACE","DENVER","CO",80249,39.79086398,-104.767012269,374,"18896 EAST 51ST PLACE, DENVER, CO, 80249","Match","Exact","18896 E 51ST PL, DENVER, CO, 80249",606065926,"R"
95875,"18897 JOHNSON LN","FARMERSVILLE","TX",75442,33.204436028,-96.312352209,375,"18897 JOHNSON LN, FARMERSVILLE, TX, 75442","Match","Exact","18897 JOHNSON LN, FARMERSVILLE, TX, 75442",123552051,"L"
95876,"18898 DURBIN ROAD","NOBLESVILLE","IN",46060,40.0637256470001,-85.910514453,376,"18898 DURBIN ROAD, NOBLESVILLE, IN, 46060","Match","Exact","18898 DURBIN RD, NOBLESVILLE, IN, 46060",29335772,"R"
95877,"18899 RAINBOW DRIVE","SOUTHFIELD","MI",48076,42.486846083,-83.2303266389999,377,"18899 RAINBOW DRIVE, SOUTHFIELD, MI, 48076","Match","Exact","18899 RAINBOW DR, SOUTHFIELD, MI, 48076",638918649,"L"
95878,"188A ROSSMOOR DRIVE","MONROE TOWNSHIP","NJ",8831,40.334512171,-74.4639282909999,378,"188A ROSSMOOR DRIVE, MONROE TOWNSHIP, NJ, 8831","Match","Exact","188 ROSSMOOR DR, MONROE TOWNSHIP, NJ, 08831",60287284,"R"
95879,"189 3RD ST APT A101","OAKLAND","CA",94607,37.794297337,-122.26982299,379,"189 3RD ST APT A101, OAKLAND, CA, 94607","Match","Non_Exact","189 3RD, OAKLAND, CA, 94607",617281128,"L"
95880,"189 3RD ST","TRACY","MN",56175,44.233051469,-95.6193936559999,380,"189 3RD ST, TRACY, MN, 56175","Match","Exact","189 3RD ST, TRACY, MN, 56175",605218060,"L"
95881,"189 8TH AVENUE STE 1C","BROOKLYN","NY",11215,40.6706509210001,-73.975127646,381,"189 8TH AVENUE STE 1C, BROOKLYN, NY, 11215","Match","Exact","189 8TH AVE, BROOKLYN, NY, 11215",59078242,"L"
95882,"189 AVENUE C APT 3D","NEW YORK","NY",10009,40.7267821180001,-73.976870272,382,"189 AVENUE C APT 3D, NEW YORK, NY, 10009","Match","Exact","189 AVE C, NEW YORK, NY, 10009",59654779,"L"
95883,"189 BELLVIEW ST","WINDER","GA",30680,33.99857052,-83.723188154,383,"189 BELLVIEW ST, WINDER, GA, 30680","Match","Exact","189 BELLVIEW ST, WINDER, GA, 30680",618488177,"L"
95884,"189 BELMONT ST","BROCKTON","MA",2301,42.0789943300001,-71.027195593,384,"189 BELMONT ST, BROCKTON, MA, 2301","Match","Exact","189 BELMONT ST, BROCKTON, MA, 02301",639001512,"R"
95885,"189 BO JAMES STREET SUITE 105","CLAYTON","GA",30525,NA,NA,385,"189 BO JAMES STREET SUITE 105, CLAYTON, GA, 30525","No_Match",NA,NA,NA,NA
95886,"189 BRACKETT STREET","PORTLAND","ME",4103,NA,NA,386,"189 BRACKETT STREET, PORTLAND, ME, 4103","No_Match",NA,NA,NA,NA
95887,"189 BRATCHER DRIVE","HONEA PATH","SC",29654,34.4552945230001,-82.3584852449999,387,"189 BRATCHER DRIVE, HONEA PATH, SC, 29654","Match","Exact","189 BRATCHER DR, HONEA PATH, SC, 29654",640544832,"L"
95888,"189 BROADWAY APT A","DOBBS FERRY","NY",10522,41.010443035,-73.877493826,388,"189 BROADWAY APT A, DOBBS FERRY, NY, 10522","Match","Exact","189 BROADWAY, DOBBS FERRY, NY, 10522",139840461,"L"
95889,"189 BRUSHY CREEK TRAIL","HUTTO","TX",78634,30.494540354,-97.532336376,389,"189 BRUSHY CREEK TRAIL, HUTTO, TX, 78634","Match","Exact","189 BRUSHY CREEK TRL, HUTTO, TX, 78634",126467185,"L"
95890,"189 BUFFALO CREEK DRIVE","CRANDALL","TX",75114,32.616735138,-96.452935124,390,"189 BUFFALO CREEK DRIVE, CRANDALL, TX, 75114","Match","Exact","189 BUFFALO CREEK DR, CRANDALL, TX, 75114",123750263,"R"
95891,"189 BURRIS LENORE RD","CROWHEART","WY",82512,43.379517874,-109.261401206,391,"189 BURRIS LENORE RD, CROWHEART, WY, 82512","Match","Non_Exact","189 BURRIS-LENORE RD, CROWHEART, WY, 82512",148488808,"R"
95892,"189 CAFARO CIRCLE","SACRAMENTO","CA",95834,38.6389566880001,-121.53687451,392,"189 CAFARO CIRCLE, SACRAMENTO, CA, 95834","Match","Exact","189 CAFARO CIR, SACRAMENTO, CA, 95834",133400378,"R"
95893,"189 CALLE DE LA VENTANA","CARMEL VALLEY","CA",93924,36.469406436,-121.7288533,393,"189 CALLE DE LA VENTANA, CARMEL VALLEY, CA, 93924","Match","Non_Exact","189 CLL DE LA VENTANA, CARMEL VALLEY, CA, 93924",196798185,"L"
95894,"189 CAMBRIDGE STREET SUITE 3A","CAMBRIDGE","MA",2141,42.370928571,-71.079155982,394,"189 CAMBRIDGE STREET SUITE 3A, CAMBRIDGE, MA, 2141","Match","Exact","189 CAMBRIDGE ST, CAMBRIDGE, MA, 02141",86870898,"R"
95895,"189 CASTLE DRIVE","STERLING","CO",80751,40.6229230050001,-103.162764644,395,"189 CASTLE DRIVE, STERLING, CO, 80751","Match","Exact","189 CASTLE DR, STERLING, CO, 80751",136174902,"L"
95896,"189 CHURCH ST","PUTNAM","CT",6260,41.921702678,-71.90986728,396,"189 CHURCH ST, PUTNAM, CT, 6260","Match","Exact","189 CHURCH ST, PUTNAM, CT, 06260",56444157,"R"
95897,"189 CLIFFORD DRIVE","MARTINSBURG","WV",25404,39.477832059,-77.941832714,397,"189 CLIFFORD DRIVE, MARTINSBURG, WV, 25404","Match","Exact","189 CLIFFORD DR, MARTINSBURG, WV, 25404",123388569,"R"
95898,"189 COLTSGATE DR","KERNERSVILLE","NC",27284,36.1647420780001,-80.1063795049999,398,"189 COLTSGATE DR, KERNERSVILLE, NC, 27284","Match","Exact","189 COLTSGATE DR, KERNERSVILLE, NC, 27284",84666826,"L"
95899,"189 COMMUNITY RD","WARSAW","NC",28398,35.0300475380001,-78.088778987,399,"189 COMMUNITY RD, WARSAW, NC, 28398","Match","Exact","189 COMMUNITY RD, WARSAW, NC, 28398",13444579,"L"
95900,"189 CONANT DRIVE","TONAWANDA","NY",14223,42.972317876,-78.8276544989999,400,"189 CONANT DRIVE, TONAWANDA, NY, 14223","Match","Exact","189 CONANT DR, TONAWANDA, NY, 14223",48295024,"R"
95901,"189 CREDEUR ROAD","CANKTON","LA",70584,NA,NA,401,"189 CREDEUR ROAD, CANKTON, LA, 70584","No_Match",NA,NA,NA,NA
95902,"189 CRESTMOOR DR","BOONE","NC",28607,36.233407265,-81.602986084,402,"189 CRESTMOOR DR, BOONE, NC, 28607","Match","Exact","189 CRESTMOOR DR, BOONE, NC, 28607",234435617,"L"
95903,"189 DANFORTH AVENUE","JERSEY CITY","NJ",7305,40.6982818380001,-74.0929005419999,403,"189 DANFORTH AVENUE, JERSEY CITY, NJ, 7305","Match","Exact","189 DANFORTH AVE, JERSEY CITY, NJ, 07305",59603216,"L"
95904,"189 DAWN DRIVE","KALISPELL","MT",59912,48.3828765850001,-114.228326274,404,"189 DAWN DRIVE, KALISPELL, MT, 59912","Match","Non_Exact","189 DAWN DR, COLUMBIA FALLS, MT, 59912",636313963,"R"
95905,"189 DOWNES AVE","STATEN ISLAND","NY",10312,40.5368276520001,-74.185577436,405,"189 DOWNES AVE, STATEN ISLAND, NY, 10312","Match","Exact","189 DOWNES AVE, STATEN ISLAND, NY, 10312",59886997,"L"
95906,"189 E NELSON AVE NUM 205","WASILLA","AK",99654,NA,NA,406,"189 E NELSON AVE NUM 205, WASILLA, AK, 99654","Tie",NA,NA,NA,NA
95907,"189 EAST 18TH STREET APARTMENT 5B","BROOKLYN","NY",11226,40.646633389,-73.96253444,407,"189 EAST 18TH STREET APARTMENT 5B, BROOKLYN, NY, 11226","Match","Exact","189 E 18TH ST, BROOKLYN, NY, 11226",59080970,"L"
95908,"189 EAST 980 NORTH","OREM","UT",84057,40.3152222050001,-111.691263129,408,"189 EAST 980 NORTH, OREM, UT, 84057","Match","Exact","189 E 980 N, OREM, UT, 84057",134205303,"L"
95909,"189 EVANS AVE APT A","PACIFIC GROVE","CA",93950,36.618645831,-121.907455055,409,"189 EVANS AVE APT A, PACIFIC GROVE, CA, 93950","Match","Exact","189 EVANS AVE, PACIFIC GROVE, CA, 93950",196814356,"L"
95910,"189 FAIRVIEW DR","BERKELEY SPRINGS","WV",25411,39.6273209180001,-78.210089282,410,"189 FAIRVIEW DR, BERKELEY SPRINGS, WV, 25411","Match","Exact","189 FAIRVIEW DR, BERKELEY SPRINGS, WV, 25411",608038514,"L"
95911,"189 GILBERT HOLLOW RD","HOLLSOPPLE","PA",15935,40.224517614,-79.012497432,411,"189 GILBERT HOLLOW RD, HOLLSOPPLE, PA, 15935","Match","Exact","189 GILBERT HOLLOW RD, HOLLSOPPLE, PA, 15935",70253397,"L"
95912,"189 HIGHLAND AVE","MOORESTOWN","NJ",8057,39.9580633150001,-74.958050177,412,"189 HIGHLAND AVE, MOORESTOWN, NJ, 8057","Match","Exact","189 HIGHLAND AVE, MOORESTOWN, NJ, 08057",134027877,"L"
95913,"189 HIGHLANDS DRIVE","WOODSTOCK","GA",30188,34.1412061570001,-84.485126797,413,"189 HIGHLANDS DRIVE, WOODSTOCK, GA, 30188","Match","Exact","189 HIGHLANDS DR, WOODSTOCK, GA, 30188",628075710,"L"
95914,"189 HIGHWAY KK","IBERIA","MO",65486,NA,NA,414,"189 HIGHWAY KK, IBERIA, MO, 65486","No_Match",NA,NA,NA,NA
95915,"189 HOLLY RIDGE LANE","FORT WORTH","TX",76108,32.7856549810001,-97.587281256,415,"189 HOLLY RIDGE LANE, FORT WORTH, TX, 76108","Match","Non_Exact","189 HOLLYRIDGE LN, FORT WORTH, TX, 76108",103602937,"L"
95916,"189 JOHNSON AVE SW","LIVE OAK","FL",32064,30.3007424690001,-83.0042188,416,"189 JOHNSON AVE SW, LIVE OAK, FL, 32064","Match","Exact","189 JOHNSON AVE SW, LIVE OAK, FL, 32064",41104099,"L"
95917,"189 KANOELANI STREET","HILO","HI",96720,19.6890749200001,-155.079496277,417,"189 KANOELANI STREET, HILO, HI, 96720","Match","Exact","189 KANOELANI ST, HILO, HI, 96720",614314755,"R"
95918,"189 KING GEORGE STREET","DANIEL ISLAND","SC",29492,32.8701034110001,-79.898844917,418,"189 KING GEORGE STREET, DANIEL ISLAND, SC, 29492","Match","Exact","189 KING GEORGE ST, DANIEL ISLAND, SC, 29492",605124347,"R"
95919,"189 LAKEWOOD LANE","MARQUETTE","MI",49855,46.4960641150001,-87.3435356689999,419,"189 LAKEWOOD LANE, MARQUETTE, MI, 49855","Match","Exact","189 LAKEWOOD LN, MARQUETTE, MI, 49855",182056438,"R"
95920,"189 LAUREDON AVE","GREENSBORO","VT",5841,44.580840504,-72.2936294089999,420,"189 LAUREDON AVE, GREENSBORO, VT, 5841","Match","Exact","189 LAUREDON AVE, GREENSBORO, VT, 05841",633937478,"L"
95921,"189 MAHIAI ST","HILO","HI",96720,19.676211541,-155.058384075,421,"189 MAHIAI ST, HILO, HI, 96720","Match","Exact","189 MAHIAI ST, HILO, HI, 96720",614315546,"L"
95922,"189 MIRALOMA LANE","PONTE VEDRA BEACH","FL",32082,30.2424908260001,-81.3933338419999,422,"189 MIRALOMA LANE, PONTE VEDRA BEACH, FL, 32082","Match","Exact","189 MIRALOMA LN, PONTE VEDRA BEACH, FL, 32082",92601355,"L"
95923,"189 N BROAD ST","JOHNSON CITY","NY",13790,42.122569539,-75.95679375,423,"189 N BROAD ST, JOHNSON CITY, NY, 13790","Match","Exact","189 N BROAD ST, JOHNSON CITY, NY, 13790",46340107,"L"
95924,"189 N CROMWELL DRIVE","MOORESVILLE","NC",28115,35.5824755900001,-80.7921905319999,424,"189 N CROMWELL DRIVE, MOORESVILLE, NC, 28115","Match","Exact","189 N CROMWELL DR, MOORESVILLE, NC, 28115",649337494,"L"
95925,"189 N FORK ROAD","CHEHALIS","WA",98532,46.604940056,-122.854134659,425,"189 N FORK ROAD, CHEHALIS, WA, 98532","Match","Exact","189 N FORK RD, CHEHALIS, WA, 98532",180749846,"L"
95926,"189 N MAIN STREET STE 206","DRIGGS","ID",83422,NA,NA,426,"189 N MAIN STREET STE 206, DRIGGS, ID, 83422","Tie",NA,NA,NA,NA
95927,"189 N MARENGO AVE APT 322","PASADENA","CA",91101,NA,NA,427,"189 N MARENGO AVE APT 322, PASADENA, CA, 91101","Tie",NA,NA,NA,NA
95928,"189 N VILLA ST","PORTERVILLE","CA",93257,36.0691527390001,-119.030665304,428,"189 N VILLA ST, PORTERVILLE, CA, 93257","Match","Exact","189 N VILLA ST, PORTERVILLE, CA, 93257",647248110,"L"
95929,"189 N VULCAN AVE","ENCINITAS","CA",92024,33.05227246,-117.294824574,429,"189 N VULCAN AVE, ENCINITAS, CA, 92024","Match","Exact","189 N VULCAN AVE, ENCINITAS, CA, 92024",195292684,"R"
95930,"189 NE 77 ST","MIAMI","FL",33138,25.8455680390001,-80.193009275,430,"189 NE 77 ST, MIAMI, FL, 33138","Match","Exact","189 NE 77TH ST, MIAMI, FL, 33138",116006285,"L"
95931,"189 NEWINGTON RD APT 112","WEST HARTFORD","CT",6110,41.7262229410001,-72.7337844419999,431,"189 NEWINGTON RD APT 112, WEST HARTFORD, CT, 6110","Match","Exact","189 NEWINGTON RD, WEST HARTFORD, CT, 06110",647254077,"R"
95932,"189 NW DEL RAY AVE","STEVENSON","WA",98648,45.696484567,-121.882900183,432,"189 NW DEL RAY AVE, STEVENSON, WA, 98648","Match","Non_Exact","189 DELRAY AVE, STEVENSON, WA, 98648",627687347,"L"
95933,"189 OAKLAND DR","GRAY","GA",31032,33.007949388,-83.522972741,433,"189 OAKLAND DR, GRAY, GA, 31032","Match","Exact","189 OAKLAND DR, GRAY, GA, 31032",65481491,"L"
95934,"189 PARMALEE AVENUE","HAWTHORME","NJ",7506,40.953882519,-74.15879656,434,"189 PARMALEE AVENUE, HAWTHORME, NJ, 7506","Match","Non_Exact","189 PARMELEE AVE, HAWTHORNE, NJ, 07506",65263587,"R"
95935,"189 PINEMONT WAY","POINTBLANK","TX",77364,30.7478783380001,-95.211053036,435,"189 PINEMONT WAY, POINTBLANK, TX, 77364","Match","Exact","189 PINEMONT WAY, POINTBLANK, TX, 77364",24268212,"L"
95936,"189 PLYMOUTH ST","STRATFORD","CT",6614,41.207071037,-73.130415751,436,"189 PLYMOUTH ST, STRATFORD, CT, 6614","Match","Exact","189 PLYMOUTH ST, STRATFORD, CT, 06614",3227789,"R"
95937,"189 ROCKY STAR ST","HENDERSON","NV",89012,36.023559209,-115.036848763,437,"189 ROCKY STAR ST, HENDERSON, NV, 89012","Match","Exact","189 ROCKY STAR ST, HENDERSON, NV, 89012",612691245,"R"
95938,"189 ROOSEVELT AVENUE","SPRINGFIELD","MA",1118,42.0953774990001,-72.537526866,438,"189 ROOSEVELT AVENUE, SPRINGFIELD, MA, 1118","Match","Exact","189 ROOSEVELT AVE, SPRINGFIELD, MA, 01118",4036872,"R"
95939,"189 S MAPLE DRIVE","MINERAL WELLS","WV",26150,39.1790269000001,-81.510443347,439,"189 S MAPLE DRIVE, MINERAL WELLS, WV, 26150","Match","Exact","189 MAPLE DR, MINERAL WELLS, WV, 26150",90887287,"L"
95940,"189 S STATE ST STE 180","CLEARFIELD","UT",84015,41.1112024820001,-112.023619565,440,"189 S STATE ST STE 180, CLEARFIELD, UT, 84015","Match","Exact","189 STATE ST, CLEARFIELD, UT, 84015",229350751,"L"
95941,"189 S YUMA ST","DENVER","CO",80223,NA,NA,441,"189 S YUMA ST, DENVER, CO, 80223","Tie",NA,NA,NA,NA
95942,"189 SEACROFT DRIVE","DOVER","DE",19904,39.238017068,-75.5947019279999,442,"189 SEACROFT DRIVE, DOVER, DE, 19904","Match","Exact","189 SEACROFT DR, DOVER, DE, 19904",601698502,"R"
95943,"189 SOUTHAMPTON WAY","PLACENTIA","CA",92870,33.885235257,-117.864842651,443,"189 SOUTHAMPTON WAY, PLACENTIA, CA, 92870","Match","Exact","189 SOUTHAMPTON WAY, PLACENTIA, CA, 92870",612190525,"L"
95944,"189 STONE CANYON CIRCLE","FORT WORTH","TX",76108,NA,NA,444,"189 STONE CANYON CIRCLE, FORT WORTH, TX, 76108","No_Match",NA,NA,NA,NA
95945,"189 TALON PLACE","MCDONOUGH","GA",30253,33.5211756790001,-84.187102131,445,"189 TALON PLACE, MCDONOUGH, GA, 30253","Match","Exact","189 TALON PL, MCDONOUGH, GA, 30253",23207979,"L"
95946,"189 TIOGUE AVE UNIT 1","COVENTRY","RI",2816,41.679339075,-71.5370432999999,446,"189 TIOGUE AVE UNIT 1, COVENTRY, RI, 2816","Match","Exact","189 TIOGUE AVE, COVENTRY, RI, 02816",635724509,"R"
95947,"189 W 89 STREET APT 7T","NEW YORK","NY",10024,40.789442062,-73.9731739759999,447,"189 W 89 STREET APT 7T, NEW YORK, NY, 10024","Match","Non_Exact","189 W 89TH ST, NEW YORK, NY, 10024",59656739,"R"
95948,"189 W 89TH STREET APT 11C","NEW YORK CITY","NY",10024,40.789442062,-73.9731739759999,448,"189 W 89TH STREET APT 11C, NEW YORK CITY, NY, 10024","Match","Non_Exact","189 W 89TH ST, NEW YORK, NY, 10024",59656739,"R"
95949,"189 WAGNER ST 201","TROUTMAN","NC",28166,35.6999092570001,-80.888543683,449,"189 WAGNER ST 201, TROUTMAN, NC, 28166","Match","Exact","189 WAGNER ST, TROUTMAN, NC, 28166",45989072,"R"
95950,"189 WELLINGTON RD","ALIQUIPPA","PA",15001,40.5588442050001,-80.4222250459999,450,"189 WELLINGTON RD, ALIQUIPPA, PA, 15001","Match","Exact","189 WELLINGTON RD, ALIQUIPPA, PA, 15001",52552471,"R"
95951,"189-02 64 AVENUE SUITE 11F","QUEENS","NY",11365,40.7394981630001,-73.7843262069999,451,"189-02 64 AVENUE SUITE 11F, QUEENS, NY, 11365","Match","Non_Exact","189-02 64TH AVE, FRESH MEADOWS, NY, 11365",59711677,"R"
95952,"189-02 64TH AVE SUITE 11F","FRESH MEADOWS","NY",11365,40.7394981630001,-73.7843262069999,452,"189-02 64TH AVE SUITE 11F, FRESH MEADOWS, NY, 11365","Match","Exact","189-02 64TH AVE, FRESH MEADOWS, NY, 11365",59711677,"R"
95953,"189-15 DORMANS RD","SAINT ALBANS","NY",11412,40.6962188530001,-73.764095562,453,"189-15 DORMANS RD, SAINT ALBANS, NY, 11412","Match","Exact","189-15 DORMANS RD, SAINT ALBANS, NY, 11412",59719052,"L"
95954,"189-15 KEESEVILLE AVENUE","ST. ALBANS","NY",11412,40.700111613,-73.765013177,454,"189-15 KEESEVILLE AVENUE, ST. ALBANS, NY, 11412","Match","Exact","189-15 KEESEVILLE AVE, SAINT ALBANS, NY, 11412",59718997,"L"
95955,"189-30 45 DRIVE","FLUSHING","NY",11358,40.7542337680001,-73.790691728,455,"189-30 45 DRIVE, FLUSHING, NY, 11358","Match","Exact","189-30 45TH DR, FLUSHING, NY, 11358",59711318,"R"
95956,"189-32 LEWISTON AVENUE","SAINT ALBANS","NY",11412,40.698745866,-73.7649915549999,456,"189-32 LEWISTON AVENUE, SAINT ALBANS, NY, 11412","Match","Exact","189-32 LEWISTON AVE, SAINT ALBANS, NY, 11412",59718991,"R"
95957,"1890 18TH ST","OROVILLE","CA",95965,39.5172607650001,-121.604745028,457,"1890 18TH ST, OROVILLE, CA, 95965","Match","Exact","1890 18TH ST, OROVILLE, CA, 95965",635225443,"R"
95958,"1890 ALLEN ROAD","GREENVILLE","NC",27834,35.588914447,-77.432494359,458,"1890 ALLEN ROAD, GREENVILLE, NC, 27834","Match","Exact","1890 ALLEN RD, GREENVILLE, NC, 27834",80047297,"L"
95959,"1890 BELLAIRE ST","DENVER","CO",80220,39.7459497660001,-104.93719705,459,"1890 BELLAIRE ST, DENVER, CO, 80220","Match","Exact","1890 BELLAIRE ST, DENVER, CO, 80220",177311199,"R"
95960,"1890 BRICKELL AVENUE - UNIT F","MIAMI","FL",33129,25.754775642,-80.197534494,460,"1890 BRICKELL AVENUE - UNIT F, MIAMI, FL, 33129","Match","Exact","1890 BRICKELL AVE, MIAMI, FL, 33129",650069084,"R"
95961,"1890 CLAY STREET 1405","SAN FRANCISCO","CA",94109,37.792000935,-122.4241096,461,"1890 CLAY STREET 1405, SAN FRANCISCO, CA, 94109","Match","Exact","1890 CLAY ST, SAN FRANCISCO, CA, 94109",192280094,"R"
95962,"1890 EAST OAK CREEK CIRCLE","FRESNO","CA",93730,36.887529692,-119.748288246,462,"1890 EAST OAK CREEK CIRCLE, FRESNO, CA, 93730","Match","Exact","1890 E OAK CREEK CIR, FRESNO, CA, 93730",197621425,"L"
95963,"1890 EAST-WEST ROAD MOORE 416","HONOLULU","HI",96822,NA,NA,463,"1890 EAST-WEST ROAD MOORE 416, HONOLULU, HI, 96822","No_Match",NA,NA,NA,NA
95964,"1890 LUDGATE LANE","ROCHESTER HILLS","MI",48309,42.6552499000001,-83.174775385,464,"1890 LUDGATE LANE, ROCHESTER HILLS, MI, 48309","Match","Exact","1890 LUDGATE LN, ROCHESTER HILLS, MI, 48309",69840396,"R"
95965,"1890 MILLERS GAP HWY","NEWLAND","NC",28657,36.063620891,-81.921003868,465,"1890 MILLERS GAP HWY, NEWLAND, NC, 28657","Match","Exact","1890 MILLERS GAP HWY, NEWLAND, NC, 28657",36772156,"L"
95966,"1890 MT PLEASANT RD","HERNANDO","MS",38632,34.8326597380001,-89.985216739,466,"1890 MT PLEASANT RD, HERNANDO, MS, 38632","Match","Exact","1890 MOUNT PLEASANT RD, HERNANDO, MS, 38632",91821256,"R"
95967,"1890 MYRTLE DR SW APT 102","ATLANTA","GA",30311,33.7029771050001,-84.4550042119999,467,"1890 MYRTLE DR SW APT 102, ATLANTA, GA, 30311","Match","Exact","1890 MYRTLE DR SW, ATLANTA, GA, 30311",610198342,"L"
95968,"1890 N QUINLEY AVE","ATWATER","CA",95301,37.313302261,-120.596216152,468,"1890 N QUINLEY AVE, ATWATER, CA, 95301","Match","Exact","1890 N QUINLEY AVE, ATWATER, CA, 95301",640828310,"R"
95969,"1890 OLD STAUNTON ROAD","TROY","OH",45373,40.04291655,-84.170845459,469,"1890 OLD STAUNTON ROAD, TROY, OH, 45373","Match","Exact","1890 OLD STAUNTON RD, TROY, OH, 45373",207643314,"L"
95970,"1890 PALMER AVENUE SUITE 303","LARCHMONT","NY",10538,40.9333301340001,-73.758664193,470,"1890 PALMER AVENUE SUITE 303, LARCHMONT, NY, 10538","Match","Exact","1890 PALMER AVE, LARCHMONT, NY, 10538",139752520,"L"
95971,"1890 QUEENSROWE PLACE","COLUMBUS","OH",43227,39.932876713,-82.912887967,471,"1890 QUEENSROWE PLACE, COLUMBUS, OH, 43227","Match","Exact","1890 QUEENSROWE PL, COLUMBUS, OH, 43227",135595820,"L"
95972,"1890 ROCKVILLE DRIVE","NORTH BALDWIN","NY",11510,40.6637663160001,-73.617639562,472,"1890 ROCKVILLE DRIVE, NORTH BALDWIN, NY, 11510","Match","Exact","1890 ROCKVILLE DR, N BALDWIN, NY, 11510",147629724,"R"
95973,"1890 S 600 W","RUSSIAVILLE","IN",46979,40.4483082530001,-86.242845668,473,"1890 S 600 W, RUSSIAVILLE, IN, 46979","Match","Non_Exact","1890 CO RD S 600 W, RUSSIAVILLE, IN, 46979",27284333,"R"
95974,"1890 SPRING VALE ROAD","LUGOFF","SC",29078,34.287672274,-80.772275914,474,"1890 SPRING VALE ROAD, LUGOFF, SC, 29078","Match","Non_Exact","1890 SPRINGVALE RD, LUGOFF, SC, 29078",78468390,"L"
95975,"1890 SUDBURY ROAD","WALLA WALLA","WA",99362,46.0776633630001,-118.439490074,475,"1890 SUDBURY ROAD, WALLA WALLA, WA, 99362","Match","Exact","1890 SUDBURY RD, WALLA WALLA, WA, 99362",636496876,"R"
95976,"1890 SW 57 AVE SUITE 107-108","MIAMI","FL",33155,NA,NA,476,"1890 SW 57 AVE SUITE 107-108, MIAMI, FL, 33155","No_Match",NA,NA,NA,NA
95977,"1890 SWEETBROOM CIR SUITE 201","LUTZ","FL",33559,28.1836998850001,-82.4018840319999,477,"1890 SWEETBROOM CIR SUITE 201, LUTZ, FL, 33559","Match","Exact","1890 SWEETBROOM CIR, LUTZ, FL, 33559",641447482,"R"
95978,"1890 TAMIAMI TRAIL SOUTH UNIT B","VENICE","FL",34293,27.0652675100001,-82.4188250189999,478,"1890 TAMIAMI TRAIL SOUTH UNIT B, VENICE, FL, 34293","Match","Exact","1890 TAMIAMI TRL S, VENICE, FL, 34293",16429399,"R"
95979,"1890 US 15-501 S","CHAPEL HILL","NC",27517,NA,NA,479,"1890 US 15-501 S, CHAPEL HILL, NC, 27517","No_Match",NA,NA,NA,NA
95980,"1890 VERDE VISTA DRIVE","MONTEREY PARK","CA",91754,34.059449353,-118.155310121,480,"1890 VERDE VISTA DRIVE, MONTEREY PARK, CA, 91754","Match","Exact","1890 VERDE VISTA DR, MONTEREY PARK, CA, 91754",141636116,"L"
95981,"1890 W EDDY RD","SANDUSKY","MI",48471,43.4340045820001,-82.906924424,481,"1890 W EDDY RD, SANDUSKY, MI, 48471","Match","Exact","1890 W EDDY RD, SANDUSKY, MI, 48471",111051620,"L"
95982,"1890 WINDING CROSSING TRL","FAIRBURN","GA",30213,33.573706201,-84.5875442769999,482,"1890 WINDING CROSSING TRL, FAIRBURN, GA, 30213","Match","Exact","1890 WINDING CROSSING TRL, FAIRBURN, GA, 30213",627551068,"L"
95983,"18900 BARNESVILLE RD","DICKERSON","MD",20842,39.2241755960001,-77.3956123529999,483,"18900 BARNESVILLE RD, DICKERSON, MD, 20842","Match","Exact","18900 BARNESVILLE RD, DICKERSON, MD, 20842",62043957,"L"
95984,"18900 HOOPER RIDGE ROAD","GLOUSTER","OH",45732,39.4739181690001,-82.056833642,484,"18900 HOOPER RIDGE ROAD, GLOUSTER, OH, 45732","Match","Exact","18900 HOOPER RIDGE RD, GLOUSTER, OH, 45732",37095600,"R"
95985,"18900 NW COLLINS ROAD","NORTH PLAINS","OR",97133,45.657462717,-122.993893412,485,"18900 NW COLLINS ROAD, NORTH PLAINS, OR, 97133","Match","Exact","18900 NW COLLINS RD, NORTH PLAINS, OR, 97133",653429426,"L"
95986,"18900 OAKVIEW WAY","LAKE ELSINORE","CA",92530,33.628445716,-117.313597513,486,"18900 OAKVIEW WAY, LAKE ELSINORE, CA, 92530","Match","Exact","18900 OAKVIEW WAY, LAKE ELSINORE, CA, 92530",638572327,"L"
95987,"18900 SCHOENHERR","DETROIT","MI",48205,42.4332445790001,-82.9850479529999,487,"18900 SCHOENHERR, DETROIT, MI, 48205","Match","Non_Exact","18900 SCHOENHERR ST, DETROIT, MI, 48205",95467762,"R"
95988,"18900 SWALLOW HILL POINT","PLATTSMOUTH","NE",68048,41.0402095680001,-95.894285548,488,"18900 SWALLOW HILL POINT, PLATTSMOUTH, NE, 68048","Match","Exact","18900 SWALLOW HILL PT, PLATTSMOUTH, NE, 68048",10371444,"R"
95989,"18901 MENDOTA ST","DETROIT","MI",48221,42.4296368350001,-83.1663909169999,489,"18901 MENDOTA ST, DETROIT, MI, 48221","Match","Exact","18901 MENDOTA ST, DETROIT, MI, 48221",95425278,"L"
95990,"18901 NW 17TH COURT","MIAMI GARDENS","FL",33056,25.947162432,-80.230321176,490,"18901 NW 17TH COURT, MIAMI GARDENS, FL, 33056","Match","Non_Exact","18901 NW 17TH CT, MIAMI GARDENS, FL, 33056",116027921,"R"
95991,"18901 SORRENTO","DETROIT","MI",48235,42.429528888,-83.1741552459999,491,"18901 SORRENTO, DETROIT, MI, 48235","Match","Non_Exact","18901 SORRENTO ST, DETROIT, MI, 48235",95425204,"L"
95992,"18901 SW 106 AVE  SUITE 108","MIAMI","FL",33157,25.589934812,-80.3629935009999,492,"18901 SW 106 AVE  SUITE 108, MIAMI, FL, 33157","Match","Non_Exact","18901 SW 106TH AVE, MIAMI, FL, 33157",115994640,"R"
95993,"18901 SW 106TH AVENUE UNIT 201","MIAMI","FL",33157,25.589934812,-80.3629935009999,493,"18901 SW 106TH AVENUE UNIT 201, MIAMI, FL, 33157","Match","Non_Exact","18901 SW 106TH AVE, MIAMI, FL, 33157",115994640,"R"
95994,"18901 WARREN ROAD","RIVERSIDE","CA",92508,33.8617956900001,-117.33341672,494,"18901 WARREN ROAD, RIVERSIDE, CA, 92508","Match","Exact","18901 WARREN RD, RIVERSIDE, CA, 92508",194801694,"R"
95995,"18902 64TH AVENUE APT 6G","FRESH MEADOWS","NY",11365,NA,NA,495,"18902 64TH AVENUE APT 6G, FRESH MEADOWS, NY, 11365","No_Match",NA,NA,NA,NA
95996,"18902 KEESEVILLE AVENUE","ST. ALBANS","NY",11412,NA,NA,496,"18902 KEESEVILLE AVENUE, ST. ALBANS, NY, 11412","No_Match",NA,NA,NA,NA
95997,"18902 N W 27 AVE APARTMENT 208","MIAMI GARDENS","FL",33056,25.947197384,-80.2456189489999,497,"18902 N W 27 AVE APARTMENT 208, MIAMI GARDENS, FL, 33056","Match","Non_Exact","18902 NW 27TH AVE, MIAMI GARDENS, FL, 33056",650080674,"L"
95998,"18904 FERRY LANDING DRIVE","GERMANTOWN","MD",20874,39.1657067260001,-77.251816504,498,"18904 FERRY LANDING DRIVE, GERMANTOWN, MD, 20874","Match","Non_Exact","18904 FERRY LANDING CIR, GERMANTOWN, MD, 20874",62084341,"L"
95999,"18904 FM 1488","MAGNOLIA","TX",77355,30.2108410540001,-95.7544939589999,499,"18904 FM 1488, MAGNOLIA, TX, 77355","Match","Non_Exact","18904 FM 1488 RD, MAGNOLIA, TX, 77355",79276967,"L"
96000,"18904 HWY 99 STE F","LYNNWOOD","WA",98036,47.8274193920001,-122.309727115,500,"18904 HWY 99 STE F, LYNNWOOD, WA, 98036","Match","Non_Exact","18904 STATE RTE 99, LYNNWOOD, WA, 98036",648623762,"R"
