"ID","Address","City","State","Zip","lat","long","id","input_address","match_indicator","match_type","matched_address","tiger_line_id","tiger_side"
153501,"2868 BARKHILL ROAD","YORK","PA",17404,40.014448918,-76.763817581,1,"2868 BARKHILL ROAD, YORK, PA, 17404","Match","Non_Exact","2868 BARK HILL RD, YORK, PA, 17404",88758025,"L"
153502,"2868 BARKHILL ROAD","YORK","PW",17404,NA,NA,2,"2868 BARKHILL ROAD, YORK, PW, 17404","No_Match",NA,NA,NA,NA
153503,"2868 BOLLINGER CANYON RD","SAN RAMON","CA",94583,NA,NA,3,"2868 BOLLINGER CANYON RD, SAN RAMON, CA, 94583","No_Match",NA,NA,NA,NA
153504,"2868 COUNTY ROAD 35","CHESEAPEKE","OH",45619,NA,NA,4,"2868 COUNTY ROAD 35, CHESEAPEKE, OH, 45619","No_Match",NA,NA,NA,NA
153505,"2868 MISSION STREET","SAN FRANCISCO","CA",94110,37.7511807930001,-122.418347073,5,"2868 MISSION STREET, SAN FRANCISCO, CA, 94110","Match","Exact","2868 MISSION ST, SAN FRANCISCO, CA, 94110",192288352,"R"
153506,"2868 NORTH POWERS DRIVE SUITE 171","ORLANDO","FL",32818,28.5808591630001,-81.467777096,6,"2868 NORTH POWERS DRIVE SUITE 171, ORLANDO, FL, 32818","Match","Exact","2868 N POWERS DR, ORLANDO, FL, 32818",94268971,"L"
153507,"2868 STELZER ROAD SUITE 209","COLUMUS","OH",43219,40.0310674510001,-82.910478757,7,"2868 STELZER ROAD SUITE 209, COLUMUS, OH, 43219","Match","Non_Exact","2868 STELZER RD, COLUMBUS, OH, 43219",218692129,"R"
153508,"2868","OKLAHOMA CITY","OK",73120,NA,NA,8,"2868, OKLAHOMA CITY, OK, 73120","No_Match",NA,NA,NA,NA
153509,"28680 RANCHWOOD DR","SOUTHFIELD","MI",48076,42.499604816,-83.248312437,9,"28680 RANCHWOOD DR, SOUTHFIELD, MI, 48076","Match","Exact","28680 RANCHWOOD DR, SOUTHFIELD, MI, 48076",69734928,"R"
153510,"28683 LEXINGTON WAY","MORENO VALLEY","CA",92555,33.9253465630001,-117.161786953,10,"28683 LEXINGTON WAY, MORENO VALLEY, CA, 92555","Match","Exact","28683 LEXINGTON WAY, MORENO VALLEY, CA, 92555",635364263,"L"
153511,"28689  WOODSIDE DRIVE","ROCK FALLS","IL",61071,41.7352132880001,-89.695629307,11,"28689  WOODSIDE DRIVE, ROCK FALLS, IL, 61071","Match","Exact","28689 WOODSIDE DR, ROCK FALLS, IL, 61071",48972076,"R"
153512,"2869 AMESBURY PLACE NW","KENNESAW","GA",30144,34.042070305,-84.6306515329999,12,"2869 AMESBURY PLACE NW, KENNESAW, GA, 30144","Match","Non_Exact","2869 AMESBURY PL, KENNESAW, GA, 30144",17244176,"R"
153513,"2869 BURROUGHS DR APT 2","ORLANDO","FL",32818,28.582694024,-81.47579272,13,"2869 BURROUGHS DR APT 2, ORLANDO, FL, 32818","Match","Exact","2869 BURROUGHS DR, ORLANDO, FL, 32818",94268685,"R"
153514,"2869 CAMELOT BOULEVARD","CHESAPEAKE","VA",23323,36.7806727830001,-76.341172005,14,"2869 CAMELOT BOULEVARD, CHESAPEAKE, VA, 23323","Match","Exact","2869 CAMELOT BLVD, CHESAPEAKE, VA, 23323",121789560,"L"
153515,"2869 CHALK CREEK WAY","SOUTH JORDAN","UT",84095,40.537467458,-111.961437913,15,"2869 CHALK CREEK WAY, SOUTH JORDAN, UT, 84095","Match","Non_Exact","2869 W CHALK CREEK WAY, SOUTH JORDAN, UT, 84095",616063649,"L"
153516,"2869 DEPOT STREET","RIVERSIDE","AL",35135,33.629848775,-86.181837666,16,"2869 DEPOT STREET, RIVERSIDE, AL, 35135","Match","Exact","2869 DEPOT ST, RIVERSIDE, AL, 35135",66856235,"L"
153517,"2869 EAST 112 STREET","CLEVELAND","OH",44104,41.4803919180001,-81.6070859989999,17,"2869 EAST 112 STREET, CLEVELAND, OH, 44104","Match","Exact","2869 E 112TH ST, CLEVELAND, OH, 44104",61122630,"L"
153518,"2869 GOOD ROAD","CLOVER","SC",29710,35.0631165130001,-81.231096674,18,"2869 GOOD ROAD, CLOVER, SC, 29710","Match","Exact","2869 GOOD RD, CLOVER, SC, 29710",19787090,"L"
153519,"2869 IVY ST","DENVER","CO",80207,39.7577674090001,-104.919942791,19,"2869 IVY ST, DENVER, CO, 80207","Match","Exact","2869 IVY ST, DENVER, CO, 80207",177311781,"L"
153520,"2869 KENSINGTON DRIVE","NORTON","OH",44203,41.0283200420001,-81.6296416279999,20,"2869 KENSINGTON DRIVE, NORTON, OH, 44203","Match","Exact","2869 KENSINGTON DR, NORTON, OH, 44203",61374330,"R"
153521,"2869 RENSHAW DRIVE","TROY","MI",48085,42.592148625,-83.09415798,21,"2869 RENSHAW DRIVE, TROY, MI, 48085","Match","Exact","2869 RENSHAW DR, TROY, MI, 48085",69745149,"L"
153522,"2869 WHISTLE STOP DRIVE","NORCROSS","GA",30071,NA,NA,22,"2869 WHISTLE STOP DRIVE, NORCROSS, GA, 30071","No_Match",NA,NA,NA,NA
153523,"2869 ZACH DRIVE","COLUMBUS","OH",43219,40.0294025320001,-82.928159598,23,"2869 ZACH DRIVE, COLUMBUS, OH, 43219","Match","Exact","2869 ZACH DR, COLUMBUS, OH, 43219",640029355,"L"
153524,"28692 WALNUT GROVE","MISSION VIEJO","CA",92692,33.6415528840001,-117.629897824,24,"28692 WALNUT GROVE, MISSION VIEJO, CA, 92692","Match","Exact","28692 WALNUT GROVE, MISSION VIEJO, CA, 92692",623946292,"R"
153525,"28696 VENICE COURT","FARMINGTON HILLS","MI",48334,42.504492892,-83.343359977,25,"28696 VENICE COURT, FARMINGTON HILLS, MI, 48334","Match","Exact","28696 VENICE CT, FARMINGTON HILLS, MI, 48334",69785534,"R"
153526,"28697 MAGNOLIA DRIVE","NORTH OLMSTED","OH",44070,41.39357662,-81.938793887,26,"28697 MAGNOLIA DRIVE, NORTH OLMSTED, OH, 44070","Match","Exact","28697 MAGNOLIA DR, NORTH OLMSTED, OH, 44070",61138542,"L"
153527,"28697 NORTH VILLAGE LANE","SOLON","OH",44139,41.360316052,-81.4722045359999,27,"28697 NORTH VILLAGE LANE, SOLON, OH, 44139","Match","Exact","28697 N VILLAGE LN, SOLON, OH, 44139",618412185,"R"
153528,"28697 SIBLEY RD","ROMULUS","MI",48174,42.1665984310001,-83.319201725,28,"28697 SIBLEY RD, ROMULUS, MI, 48174","Match","Exact","28697 SIBLEY RD, ROMULUS, MI, 48174",95505164,"R"
153529,"287 125TH ST NE","RICE","MN",56367,45.7500674130001,-94.160413263,29,"287 125TH ST NE, RICE, MN, 56367","Match","Exact","287 125TH ST NE, RICE, MN, 56367",635757231,"L"
153530,"287 ALEXANDER AVE","HOWELL","NJ",7731,40.1154906730001,-74.20930622,30,"287 ALEXANDER AVE, HOWELL, NJ, 7731","Match","Exact","287 ALEXANDER AVE, HOWELL, NJ, 07731",90519680,"L"
153531,"287 BALCOM AVENUE","BRONX","NY",10465,40.8163365660001,-73.823002957,31,"287 BALCOM AVENUE, BRONX, NY, 10465","Match","Exact","287 BALCOM AVE, BRONX, NY, 10465",80307312,"L"
153532,"287 BARK STREET","SW","MA",2777,41.7478857250001,-71.161479744,32,"287 BARK STREET, SW, MA, 2777","Match","Non_Exact","287 BARK ST, SWANSEA, MA, 02777",46768419,"R"
153533,"287 BASSETT LOOP","COLUMBIA","SC",29229,34.167145835,-80.878859846,33,"287 BASSETT LOOP, COLUMBIA, SC, 29229","Match","Exact","287 BASSETT LOOP, COLUMBIA, SC, 29229",635338898,"R"
153534,"287 BRONCO LN","SPRINGTOWN","TX",76082,33.007052609,-97.780893105,34,"287 BRONCO LN, SPRINGTOWN, TX, 76082","Match","Exact","287 BRONCO LN, SPRINGTOWN, TX, 76082",633859297,"L"
153535,"287 BUNTING CT","DEERFIELD","IL",60015,42.161900797,-87.9210886499999,35,"287 BUNTING CT, DEERFIELD, IL, 60015","Match","Exact","287 BUNTING CT, DEERFIELD, IL, 60015",624889641,"R"
153536,"287 BUTTERFIELD","CATHEDRAL CITY","CA",92234,33.793366254,-116.459823916,36,"287 BUTTERFIELD, CATHEDRAL CITY, CA, 92234","Match","Exact","287 BUTTERFIELD, CATHEDRAL CITY, CA, 92234",194765897,"R"
153537,"287 CENTER DRIVE","SAVANNAH","GA",31406,31.9305085230001,-81.098235292,37,"287 CENTER DRIVE, SAVANNAH, GA, 31406","Match","Exact","287 CENTER DR, SAVANNAH, GA, 31406",6182415,"L"
153538,"287 CLINTON AVE","BRIDGEGEPORT","CT",6605,41.172310474,-73.207586092,38,"287 CLINTON AVE, BRIDGEGEPORT, CT, 6605","Match","Non_Exact","287 CLINTON AVE, BRIDGEPORT, CT, 06605",618522225,"L"
153539,"287 CLUB HOUSE DR","WILLINGBORO","NJ",8046,40.0129612440001,-74.8965699189999,39,"287 CLUB HOUSE DR, WILLINGBORO, NJ, 8046","Match","Exact","287 CLUB HOUSE DR, WILLINGBORO, NJ, 08046",134031496,"R"
153540,"287 CLYDESDALE CIRCLE","SANFORD","FL",32773,28.752160524,-81.259738794,40,"287 CLYDESDALE CIRCLE, SANFORD, FL, 32773","Match","Exact","287 CLYDESDALE CIR, SANFORD, FL, 32773",640019586,"L"
153541,"287 COLUMBIA AVE","IRVINGTON","NJ",7111,40.735808524,-74.222981499,41,"287 COLUMBIA AVE, IRVINGTON, NJ, 7111","Match","Exact","287 COLUMBIA AVE, IRVINGTON, NJ, 07111",63464332,"R"
153542,"287 COTHAM ROAD","SHARON","TN",38255,36.2288718040001,-88.812828108,42,"287 COTHAM ROAD, SHARON, TN, 38255","Match","Exact","287 COTHAM RD, SHARON, TN, 38255",645527501,"L"
153543,"287 EAST 18 STREET","BROOKLYN","NY",11226,40.6441123430001,-73.962056299,43,"287 EAST 18 STREET, BROOKLYN, NY, 11226","Match","Exact","287 E 18TH ST, BROOKLYN, NY, 11226",59081006,"L"
153544,"287 EUREKA DRIVE","MORGANTOWN","WV",26505,39.64331422,-79.952399553,44,"287 EUREKA DRIVE, MORGANTOWN, WV, 26505","Match","Exact","287 EUREKA DR, MORGANTOWN, WV, 26505",639972224,"R"
153545,"287 FARGO AVE","BUFFALO","NY",14213,42.904542866,-78.8916846389999,45,"287 FARGO AVE, BUFFALO, NY, 14213","Match","Exact","287 FARGO AVE, BUFFALO, NY, 14213",639371064,"R"
153546,"287 FM 247 RD","HUNTSVILLE","TX",77320,30.7551047600001,-95.549929353,46,"287 FM 247 RD, HUNTSVILLE, TX, 77320","Match","Exact","287 FM 247 RD, HUNTSVILLE, TX, 77320",22217212,"L"
153547,"287 FOREST STREET","MARS HILL","NC",28754,35.834135293,-82.557849118,47,"287 FOREST STREET, MARS HILL, NC, 28754","Match","Exact","287 FOREST ST, MARS HILL, NC, 28754",635450993,"L"
153548,"287 GLASS ROAD","MOUNT AIRY","NC",27030,36.4887876500001,-80.558461818,48,"287 GLASS ROAD, MOUNT AIRY, NC, 27030","Match","Exact","287 GLASS RD, MOUNT AIRY, NC, 27030",632012276,"R"
153549,"287 HENRY STREET SUITE 4","BROOKLYN","NY",11201,40.6919784460001,-73.995632923,49,"287 HENRY STREET SUITE 4, BROOKLYN, NY, 11201","Match","Exact","287 HENRY ST, BROOKLYN, NY, 11201",59075001,"L"
153550,"287 INDIAN RD","NICHOLLS","GA",31554,31.559963774,-82.5990786139999,50,"287 INDIAN RD, NICHOLLS, GA, 31554","Match","Exact","287 INDIAN RD, NICHOLLS, GA, 31554",4564702,"R"
153551,"287 LAKE AVE SOUTH","NESCONSET","NY",11767,40.844306192,-73.1524540509999,51,"287 LAKE AVE SOUTH, NESCONSET, NY, 11767","Match","Exact","287 LAKE AVE S, NESCONSET, NY, 11767",624674136,"R"
153552,"287 LINDEN BOULEVARD APT D15","BROOKLYN","NY",11226,40.6527052640001,-73.948693222,52,"287 LINDEN BOULEVARD APT D15, BROOKLYN, NY, 11226","Match","Exact","287 LINDEN BLVD, BROOKLYN, NY, 11226",650075109,"L"
153553,"287 LISENSBY ROAD","OLLA","LA",71465,NA,NA,53,"287 LISENSBY ROAD, OLLA, LA, 71465","No_Match",NA,NA,NA,NA
153554,"287 MADISON AVENUE","MEMPHIS","TN",38103,35.1437955000001,-90.047581172,54,"287 MADISON AVENUE, MEMPHIS, TN, 38103","Match","Exact","287 MADISON AVE, MEMPHIS, TN, 38103",607424515,"R"
153555,"287 MICHAEL DR","WAYNESBORO","TN",38485,35.331740842,-87.755159207,55,"287 MICHAEL DR, WAYNESBORO, TN, 38485","Match","Exact","287 MICHAEL DR, WAYNESBORO, TN, 38485",22995055,"L"
153556,"287 N GREENE AVE","LINDENHURST","NY",11757,40.694131681,-73.3667594309999,56,"287 N GREENE AVE, LINDENHURST, NY, 11757","Match","Exact","287 N GREENE AVE, LINDENHURST, NY, 11757",113977323,"L"
153557,"287 PASCHAL RD","YANCEYVILLE","NC",27379,36.387785663,-79.401102016,57,"287 PASCHAL RD, YANCEYVILLE, NC, 27379","Match","Exact","287 PASCHAL RD, YANCEYVILLE, NC, 27379",96778037,"L"
153558,"287 S 600 W","HEBRON","IN",46341,41.393012556,-87.1811067259999,58,"287 S 600 W, HEBRON, IN, 46341","Match","Exact","287 S 600 W, HEBRON, IN, 46341",119912162,"L"
153559,"287 S MAIN STREET","WASHTUCNA","WA",99371,46.7503588920001,-118.316311199,59,"287 S MAIN STREET, WASHTUCNA, WA, 99371","Match","Exact","287 S MAIN ST, WASHTUCNA, WA, 99371",181839077,"R"
153560,"287 SHELBY AVE","AKRON","OH",44310,41.102909475,-81.52511177,60,"287 SHELBY AVE, AKRON, OH, 44310","Match","Exact","287 SHELBY AVE, AKRON, OH, 44310",61340588,"R"
153561,"287 SOUTH COUNTRY RD","BROOKHAVEN","NY",11719,40.7685504250001,-72.926004827,61,"287 SOUTH COUNTRY RD, BROOKHAVEN, NY, 11719","Match","Exact","287 S COUNTRY RD, BROOKHAVEN, NY, 11719",114244205,"R"
153562,"287 SW MAIN STREET","WASHTUCNA","WA",99371,NA,NA,62,"287 SW MAIN STREET, WASHTUCNA, WA, 99371","Tie",NA,NA,NA,NA
153563,"287 WAYNE STREET","HOMER CITY","PA",15748,40.555077958,-79.161986907,63,"287 WAYNE STREET, HOMER CITY, PA, 15748","Match","Exact","287 WAYNE ST, HOMER CITY, PA, 15748",66292202,"R"
153564,"287 WOODCLIFFE PLACE DR","CHESTERFIELD","MO",63005,38.656241073,-90.589720834,64,"287 WOODCLIFFE PLACE DR, CHESTERFIELD, MO, 63005","Match","Exact","287 WOODCLIFFE PLACE DR, CHESTERFIELD, MO, 63005",100179017,"R"
153565,"2870 COOL SPRING LN","DICKINSON","TX",77539,29.456978728,-95.098665886,65,"2870 COOL SPRING LN, DICKINSON, TX, 77539","Match","Exact","2870 COOL SPRING LN, DICKINSON, TX, 77539",96709301,"L"
153566,"2870 CREOLE PATH","LITHONIA","GA",30038,33.7009542370001,-84.18865355,66,"2870 CREOLE PATH, LITHONIA, GA, 30038","Match","Exact","2870 CREOLE PATH, LITHONIA, GA, 30038",642388524,"L"
153567,"2870 DAULTON DR","BUFFALO GROVE","IL",60089,42.201103543,-87.96683233,67,"2870 DAULTON DR, BUFFALO GROVE, IL, 60089","Match","Exact","2870 DAULTON DR, BUFFALO GROVE, IL, 60089",119668118,"L"
153568,"2870 EASTLAND DRIVE","EAST POINT","GA",30344,NA,NA,68,"2870 EASTLAND DRIVE, EAST POINT, GA, 30344","No_Match",NA,NA,NA,NA
153569,"2870 EVERGREEN LN N","PLYMOUTH","MN",55441,45.0108466890001,-93.42755742,69,"2870 EVERGREEN LN N, PLYMOUTH, MN, 55441","Match","Exact","2870 EVERGREEN LN N, PLYMOUTH, MN, 55441",43608463,"R"
153570,"2870 GREGORY LN","FORT PIERCE","FL",34981,27.3673385720001,-80.350391433,70,"2870 GREGORY LN, FORT PIERCE, FL, 34981","Match","Exact","2870 GREGORY LN, FORT PIERCE, FL, 34981",120164046,"R"
153571,"2870 HEADLAND DRIVE","EAST POINT","GA",30344,33.690401541,-84.4818376269999,71,"2870 HEADLAND DRIVE, EAST POINT, GA, 30344","Match","Exact","2870 HEADLAND DR, EAST POINT, GA, 30344",17337715,"L"
153572,"2870 HIGHWAY 83","VINCENT","AL",35178,33.3859482710001,-86.444526969,72,"2870 HIGHWAY 83, VINCENT, AL, 35178","Match","Non_Exact","2870 CO RD 83, VINCENT, AL, 35178",82110801,"L"
153573,"2870 JOHNSON FERRY RD STE 250","MARIETTA","GA",30062,34.0183507840001,-84.4287330769999,73,"2870 JOHNSON FERRY RD STE 250, MARIETTA, GA, 30062","Match","Exact","2870 JOHNSON FERRY RD, MARIETTA, GA, 30062",17204651,"R"
153574,"2870 LOG BRONC WAY","ASTORIA","OR",97103,46.1907813440001,-123.812912018,74,"2870 LOG BRONC WAY, ASTORIA, OR, 97103","Match","Exact","2870 LOG BRONC WAY, ASTORIA, OR, 97103",640077047,"R"
153575,"2870 NANSEN DRIVE","MEDFORD","OR",97504,42.358647509,-122.872019611,75,"2870 NANSEN DRIVE, MEDFORD, OR, 97504","Match","Non_Exact","2870 NANSEN ST, MEDFORD, OR, 97504",155557821,"L"
153576,"2870 NE HOGAN DRIVE STE E/153","GRESHAM","OR",97030,45.516255792,-122.412400553,76,"2870 NE HOGAN DRIVE STE E/153, GRESHAM, OR, 97030","Match","Non_Exact","2870 NE HOGAN DR, GRESHAM, OR, 97030",653425324,"L"
153577,"2870 NEW HOLT ROAD D365","PADUCAH","KY",42001,NA,NA,77,"2870 NEW HOLT ROAD D365, PADUCAH, KY, 42001","No_Match",NA,NA,NA,NA
153578,"2870 PEACHTREE RD NW  UNIT 915-9165","ATLANTA","GA",30305,33.832934978,-84.384052954,78,"2870 PEACHTREE RD NW  UNIT 915-9165, ATLANTA, GA, 30305","Match","Non_Exact","2870 PEACHTREE ST NW, ATLANTA, GA, 30305",650071435,"L"
153579,"2870 PEACHTREE RD NW 828","ATLANTA","GA",30305,33.832934978,-84.384052954,79,"2870 PEACHTREE RD NW 828, ATLANTA, GA, 30305","Match","Non_Exact","2870 PEACHTREE ST NW, ATLANTA, GA, 30305",650071435,"L"
153580,"2870 PEACHTREE RD SUITE 616","ATLANTA","GA",30305,NA,NA,80,"2870 PEACHTREE RD SUITE 616, ATLANTA, GA, 30305","No_Match",NA,NA,NA,NA
153581,"2870 PEACHTREE ROAD 179","ATLANTA","GA",30305,NA,NA,81,"2870 PEACHTREE ROAD 179, ATLANTA, GA, 30305","No_Match",NA,NA,NA,NA
153582,"2870 PEACHTREE ROAD PO BOX 864","ATLANTA","GA",30345,NA,NA,82,"2870 PEACHTREE ROAD PO BOX 864, ATLANTA, GA, 30345","No_Match",NA,NA,NA,NA
153583,"2870 PEACHTREE ROAD SUITE 155","ATLANTA","GA",30305,NA,NA,83,"2870 PEACHTREE ROAD SUITE 155, ATLANTA, GA, 30305","No_Match",NA,NA,NA,NA
153584,"2870 PEACHTREE ROAD SUITE 454","ATLANTA","GA",30305,NA,NA,84,"2870 PEACHTREE ROAD SUITE 454, ATLANTA, GA, 30305","No_Match",NA,NA,NA,NA
153585,"2870 PEACHTREE ROAD SUITE 832","ATLANTA","GA",30305,NA,NA,85,"2870 PEACHTREE ROAD SUITE 832, ATLANTA, GA, 30305","No_Match",NA,NA,NA,NA
153586,"2870 ROLLING HILLS DR","CLEVELAND","TN",37312,35.19731684,-84.9034611289999,86,"2870 ROLLING HILLS DR, CLEVELAND, TN, 37312","Match","Exact","2870 ROLLING HILLS DR, CLEVELAND, TN, 37312",57571060,"L"
153587,"2870 SAN LORENZO CT","LAS CRUCES","NM",88007,32.3229723430001,-106.814910839,87,"2870 SAN LORENZO CT, LAS CRUCES, NM, 88007","Match","Non_Exact","2870 SAN LORENZO AVE, LAS CRUCES, NM, 88007",648906058,"R"
153588,"2870 SANDSTONE DRIVE","IDAHO FALLS","ID",83404,43.4719285580001,-112.015074402,88,"2870 SANDSTONE DRIVE, IDAHO FALLS, ID, 83404","Match","Exact","2870 SANDSTONE DR, IDAHO FALLS, ID, 83404",119153404,"L"
153589,"2870 SOUTH PALISADES AVE","SANTA CRUZ","CA",95062,36.9553622550001,-121.974981007,89,"2870 SOUTH PALISADES AVE, SANTA CRUZ, CA, 95062","Match","Exact","2870 S PALISADES AVE, SANTA CRUZ, CA, 95062",125532125,"R"
153590,"2870 TYNEWICK DRIVE NE","ROSWELL","GA",30075,34.0208978090001,-84.400927697,90,"2870 TYNEWICK DRIVE NE, ROSWELL, GA, 30075","Match","Non_Exact","2870 TYNEWICK DR, ROSWELL, GA, 30075",17214677,"R"
153591,"2870 WEATHERLY ROAD","HOWELL","MI",48843,42.5589404770001,-83.841571403,91,"2870 WEATHERLY ROAD, HOWELL, MI, 48843","Match","Exact","2870 WEATHERLY RD, HOWELL, MI, 48843",23545976,"R"
153592,"28704 18TH AVE S APT V202","FEDERAL WAY","WA",98003,47.344768861,-122.310598104,92,"28704 18TH AVE S APT V202, FEDERAL WAY, WA, 98003","Match","Exact","28704 18TH AVE S, FEDERAL WAY, WA, 98003",186649662,"R"
153593,"28704 FOUNTAIN ST","ROSEVILLE","MI",48066,42.5069032480001,-82.950136204,93,"28704 FOUNTAIN ST, ROSEVILLE, MI, 48066","Match","Exact","28704 FOUNTAIN ST, ROSEVILLE, MI, 48066",110676147,"R"
153594,"28705 FLORA CORNER ROAD","MECHANICSVILLE","MD",20659,38.4560528480001,-76.7099102779999,94,"28705 FLORA CORNER ROAD, MECHANICSVILLE, MD, 20659","Match","Exact","28705 FLORA CORNER RD, MECHANICSVILLE, MD, 20659",36645438,"L"
153595,"28708 ROADSIDE DR SUITE C","AGOURA HILLS","CA",91301,34.143873453,-118.750207815,95,"28708 ROADSIDE DR SUITE C, AGOURA HILLS, CA, 91301","Match","Exact","28708 ROADSIDE DR, AGOURA HILLS, CA, 91301",241246000,"L"
153596,"28709 JEWEL RD","ST CATHARINE","MO",64628,39.825297537,-93.013613853,96,"28709 JEWEL RD, ST CATHARINE, MO, 64628","Match","Non_Exact","28709 JEWELL RD, SAINT CATHARINE, MO, 64628",25603859,"L"
153597,"2871 BIRDSALL AVE","OAKLAND","CA",94619,37.7770499390001,-122.191961631,97,"2871 BIRDSALL AVE, OAKLAND, CA, 94619","Match","Exact","2871 BIRDSALL AVE, OAKLAND, CA, 94619",125007867,"L"
153598,"2871 CARRINGTON LAKE BLVD","CANTONMENT","FL",32533,30.6568736130001,-87.344820952,98,"2871 CARRINGTON LAKE BLVD, CANTONMENT, FL, 32533","Match","Non_Exact","2871 CARRINGTON LAKES BLVD, CANTONMENT, FL, 32533",617456458,"L"
153599,"2871 CEDAR LANE","POMONA","CA",91767,34.097968764,-117.737758188,99,"2871 CEDAR LANE, POMONA, CA, 91767","Match","Exact","2871 CEDAR LN, POMONA, CA, 91767",651515285,"L"
153600,"2871 CHERRY BRANCH LN","HERNDON","VA",20171,38.9296691870001,-77.406017703,100,"2871 CHERRY BRANCH LN, HERNDON, VA, 20171","Match","Exact","2871 CHERRY BRANCH LN, HERNDON, VA, 20171",618557874,"R"
153601,"2871 EAST HIGH STREET","POTTSTOWN","PA",19464,40.2441426120001,-75.5801675869999,101,"2871 EAST HIGH STREET, POTTSTOWN, PA, 19464","Match","Exact","2871 E HIGH ST, POTTSTOWN, PA, 19464",135131686,"L"
153602,"2871 FULHAM PLACE","MEMPHIS","TN",38128,35.2034790000001,-89.942666924,102,"2871 FULHAM PLACE, MEMPHIS, TN, 38128","Match","Exact","2871 FULHAM PL, MEMPHIS, TN, 38128",72968645,"L"
153603,"2871 FULHAM","MEMPHIS","TN",38128,35.2034790000001,-89.942666924,103,"2871 FULHAM, MEMPHIS, TN, 38128","Match","Non_Exact","2871 FULHAM PL, MEMPHIS, TN, 38128",72968645,"L"
153604,"2871 GLENDALE BLVD UNIT B","LOS ANGELES","CA",90039,34.109890627,-118.264430735,104,"2871 GLENDALE BLVD UNIT B, LOS ANGELES, CA, 90039","Match","Exact","2871 GLENDALE BLVD, LOS ANGELES, CA, 90039",141610591,"L"
153605,"2871 LOW WATER ROAD","FRANKLIN","IL",62638,39.5860972150001,-90.0626320269999,105,"2871 LOW WATER ROAD, FRANKLIN, IL, 62638","Match","Exact","2871 LOW WATER RD, FRANKLIN, IL, 62638",81447526,"L"
153606,"2871 MALVERN AVE","HOT SPRINGS","AR",71901,34.471126112,-92.9973513909999,106,"2871 MALVERN AVE, HOT SPRINGS, AR, 71901","Match","Exact","2871 MALVERN AVE, HOT SPRINGS, AR, 71901",636163970,"L"
153607,"2871 NW 86TH PL","ANKENY","IA",50023,41.7180053010001,-93.6565189029999,107,"2871 NW 86TH PL, ANKENY, IA, 50023","Match","Exact","2871 NW 86TH PL, ANKENY, IA, 50023",649068496,"L"
153608,"2871 PACKARD ROAD","ANN ARBOR","MI",48108,42.2448992290001,-83.706048923,108,"2871 PACKARD ROAD, ANN ARBOR, MI, 48108","Match","Exact","2871 PACKARD RD, ANN ARBOR, MI, 48108",640611063,"L"
153609,"2871 S COLUMBIA ST","BOGALUSA","LA",70433,30.7392762200001,-89.848659705,109,"2871 S COLUMBIA ST, BOGALUSA, LA, 70433","Match","Non_Exact","2871 S COLUMBIA ST, BOGALUSA, LA, 70427",82464777,"L"
153610,"2871 TOAD RD","GILMER","TX",75644,32.836243924,-94.986669249,110,"2871 TOAD RD, GILMER, TX, 75644","Match","Exact","2871 TOAD RD, GILMER, TX, 75644",147602231,"L"
153611,"2871 W MAPLEWOOD STREET","SPRINGFIELD","MO",65807,37.141638426,-93.3363065839999,111,"2871 W MAPLEWOOD STREET, SPRINGFIELD, MO, 65807","Match","Exact","2871 W MAPLEWOOD ST, SPRINGFIELD, MO, 65807",76676385,"R"
153612,"28711 PACIFIC COAST HIGHWAY UNIT 1","MALIBU","CA",90265,34.020437051,-118.797310862,112,"28711 PACIFIC COAST HIGHWAY UNIT 1, MALIBU, CA, 90265","Match","Exact","28711 PACIFIC COAST HWY, MALIBU, CA, 90265",647446533,"L"
153613,"28715 HOVEY LANE","NEW HUDSON","MI",48165,42.494844868,-83.627419649,113,"28715 HOVEY LANE, NEW HUDSON, MI, 48165","Match","Exact","28715 HOVEY LN, NEW HUDSON, MI, 48165",69802473,"R"
153614,"28717 JARDINERAS DRIVE","SANTA CLARITA","CA",91354,34.459559691,-118.563421583,114,"28717 JARDINERAS DRIVE, SANTA CLARITA, CA, 91354","Match","Non_Exact","28717 JARDENERAS DR, SANTA CLARITA, CA, 91354",627282326,"R"
153615,"28719 HEMLOCK RED COURT","KATY","TX",77494,29.7191067730001,-95.842908949,115,"28719 HEMLOCK RED COURT, KATY, TX, 77494","Match","Exact","28719 HEMLOCK RED CT, KATY, TX, 77494",642954260,"R"
153616,"2872 10TH STREET","SAN PABLO","CA",94806,37.973796706,-122.353230678,116,"2872 10TH STREET, SAN PABLO, CA, 94806","Match","Exact","2872 10TH ST, SAN PABLO, CA, 94806",614357202,"R"
153617,"2872 BAR HARBOUR ROAD","AURORA","IL",60504,41.7292775500001,-88.2429008249999,117,"2872 BAR HARBOUR ROAD, AURORA, IL, 60504","Match","Exact","2872 BAR HARBOUR RD, AURORA, IL, 60504",112565523,"L"
153618,"2872 BERNARD WAY SE","SMYRNA","GA",30080,33.8821804610001,-84.509295104,118,"2872 BERNARD WAY SE, SMYRNA, GA, 30080","Match","Non_Exact","2872 BERNARD WAY, SMYRNA, GA, 30080",628062995,"L"
153619,"2872 CAMBON LAKE CIRCLE","WEST FRANKFORT","IL",62896,37.9049857910001,-89.004916287,119,"2872 CAMBON LAKE CIRCLE, WEST FRANKFORT, IL, 62896","Match","Exact","2872 CAMBON LAKE CIR, W FRANKFORT, IL, 62896",627090826,"L"
153620,"2872 SEA PINES CIR W","CLEARWATER","FL",33761,28.0262621300001,-82.7241387509999,120,"2872 SEA PINES CIR W, CLEARWATER, FL, 33761","Match","Exact","2872 SEA PINES CIR W, CLEARWATER, FL, 33761",639725623,"L"
153621,"2872 WATER PLANT ROAD","MAIDEN","NC",28560,35.587716981,-81.1567785839999,121,"2872 WATER PLANT ROAD, MAIDEN, NC, 28560","Match","Non_Exact","2872 WATER PLANT RD, MAIDEN, NC, 28650",45941631,"L"
153622,"2872 WOLFGANG DRIVE","INDIANAPOLIS","IN",46239,39.726644079,-86.0310059779999,122,"2872 WOLFGANG DRIVE, INDIANAPOLIS, IN, 46239","Match","Exact","2872 WOLFGANG DR, INDIANAPOLIS, IN, 46239",627344041,"R"
153623,"2872 YGNACIO VALLEY RD UNIT 439","WALNIT CREEK","CA",94598,37.926993128,-122.015802841,123,"2872 YGNACIO VALLEY RD UNIT 439, WALNIT CREEK, CA, 94598","Match","Non_Exact","2872 YGNACIO VALLEY RD, WALNUT CREEK, CA, 94598",192057098,"L"
153624,"2872 YGNACIO VALLEY ROAD 130","WALNUT CREEK","CA",94598,37.926993128,-122.015802841,124,"2872 YGNACIO VALLEY ROAD 130, WALNUT CREEK, CA, 94598","Match","Exact","2872 YGNACIO VALLEY RD, WALNUT CREEK, CA, 94598",192057098,"L"
153625,"28720 IH 10 W STE 700","BOERNE","TX",78006,NA,NA,125,"28720 IH 10 W STE 700, BOERNE, TX, 78006","No_Match",NA,NA,NA,NA
153626,"28721 LOS ALISOS BLVD","MISSION VIEJO","CA",92692,33.657101858,-117.634048765,126,"28721 LOS ALISOS BLVD, MISSION VIEJO, CA, 92692","Match","Exact","28721 LOS ALISOS BLVD, MISSION VIEJO, CA, 92692",144398303,"L"
153627,"28722 COAL MOUNTAIN CT","VALENCIA","CA",91354,34.459513853,-118.567059195,127,"28722 COAL MOUNTAIN CT, VALENCIA, CA, 91354","Match","Exact","28722 COAL MOUNTAIN CT, VALENCIA, CA, 91354",627284975,"L"
153628,"28723 LITTLE AMERICA LANE","SAN BENITO","TX",78586,26.1257859410001,-97.561679719,128,"28723 LITTLE AMERICA LANE, SAN BENITO, TX, 78586","Match","Exact","28723 LITTLE AMERICA LN, SAN BENITO, TX, 78586",89984389,"L"
153629,"28724 RIDGE RD","MT AIRY","MD",21771,39.3272744110001,-77.193315422,129,"28724 RIDGE RD, MT AIRY, MD, 21771","Match","Exact","28724 RIDGE RD, MOUNT AIRY, MD, 21771",641074699,"L"
153630,"28726 THOMASVILLE PL","WESLEY CHAPEL","FL",33545,28.240797838,-82.34098434,130,"28726 THOMASVILLE PL, WESLEY CHAPEL, FL, 33545","Match","Exact","28726 THOMASVILLE PL, WESLEY CHAPEL, FL, 33545",86375765,"R"
153631,"28727 COUNTRY ROSE LANE","MENIFEE","CA",92584,33.669957848,-117.159611879,131,"28727 COUNTRY ROSE LANE, MENIFEE, CA, 92584","Match","Exact","28727 COUNTRY ROSE LN, MENIFEE, CA, 92584",608996903,"R"
153632,"28727 SW CASCADE LOOP","WILSONVILLE","OR",97070,45.313939722,-122.752830966,132,"28727 SW CASCADE LOOP, WILSONVILLE, OR, 97070","Match","Exact","28727 SW CASCADE LOOP, WILSONVILLE, OR, 97070",157945419,"R"
153633,"2873 GINGERWOOD CIRCLE","FULLERTON","CA",92835,33.9088017380001,-117.876758728,133,"2873 GINGERWOOD CIRCLE, FULLERTON, CA, 92835","Match","Non_Exact","2873 E GINGERWOOD CIR, FULLERTON, CA, 92835",144008079,"L"
153634,"2873 HANOVER STREET","OMAHA","NE",68112,41.328118111,-95.956290209,134,"2873 HANOVER STREET, OMAHA, NE, 68112","Match","Exact","2873 HANOVER ST, OMAHA, NE, 68112",116977574,"L"
153635,"2873 MUIR TRAIL DRIVE","FULLERTON","CA",92833,33.898855989,-117.978869022,135,"2873 MUIR TRAIL DRIVE, FULLERTON, CA, 92833","Match","Exact","2873 MUIR TRAIL DR, FULLERTON, CA, 92833",144424064,"L"
153636,"2873 NE 25TH STREET","FORT LAUDERDALE","FL",33305,26.158017323,-80.108169173,136,"2873 NE 25TH STREET, FORT LAUDERDALE, FL, 33305","Match","Exact","2873 NE 25TH ST, FORT LAUDERDALE, FL, 33305",114725668,"L"
153637,"2873 S WALDEN WAY","AURORA","CO",80013,39.662558248,-104.774955115,137,"2873 S WALDEN WAY, AURORA, CO, 80013","Match","Exact","2873 S WALDEN WAY, AURORA, CO, 80013",177527222,"R"
153638,"2873 S XANADU WAY","AURORA","CO",80014,39.664249838,-104.834387284,138,"2873 S XANADU WAY, AURORA, CO, 80014","Match","Exact","2873 S XANADU WAY, AURORA, CO, 80014",177555170,"R"
153639,"2873 SHADWELL PL","GREENWOOD","IN",46143,39.57295757,-86.203380727,139,"2873 SHADWELL PL, GREENWOOD, IN, 46143","Match","Exact","2873 SHADWELL PL, GREENWOOD, IN, 46143",606986586,"L"
153640,"2873 WEST OLD STONE ROAD","PERU","IN",46970,40.7482454870001,-86.125709034,140,"2873 WEST OLD STONE ROAD, PERU, IN, 46970","Match","Exact","2873 W OLD STONE RD, PERU, IN, 46970",642227088,"L"
153641,"28733 INDUSTRY DRIVE","VALENCIA","CA",91355,NA,NA,141,"28733 INDUSTRY DRIVE, VALENCIA, CA, 91355","No_Match",NA,NA,NA,NA
153642,"28734 VOTING HOUSE RD","GREEN RIDGE","MO",65332,38.6671370270001,-93.456776218,142,"28734 VOTING HOUSE RD, GREEN RIDGE, MO, 65332","Match","Exact","28734 VOTING HOUSE RD, GREEN RIDGE, MO, 65332",54733384,"L"
153643,"28735 JEFFERSON AVE","ST CLAIR SHORES","MI",48081,42.5017482310001,-82.883911183,143,"28735 JEFFERSON AVE, ST CLAIR SHORES, MI, 48081","Match","Exact","28735 JEFFERSON AVE, SAINT CLAIR SHORES, MI, 48081",110684338,"L"
153644,"28737 HOLLY DRIVE NW","ISANTI","MN",55040,45.4906017850001,-93.274104025,144,"28737 HOLLY DRIVE NW, ISANTI, MN, 55040","Match","Exact","28737 HOLLY DR NW, ISANTI, MN, 55040",97630610,"L"
153645,"2874 ALUM ROCK AVENUE SUITE A","SAN JOSE","CA",95127,37.363474668,-121.83289358,145,"2874 ALUM ROCK AVENUE SUITE A, SAN JOSE, CA, 95127","Match","Exact","2874 ALUM ROCK AVE, SAN JOSE, CA, 95127",616959074,"R"
153646,"2874 CB REEVES RD","HEATH SPRINGS","SC",29058,34.5797093800001,-80.691219739,146,"2874 CB REEVES RD, HEATH SPRINGS, SC, 29058","Match","Non_Exact","2874 C B REEVES RD, HEATH SPRINGS, SC, 29058",623949666,"R"
153647,"2874 E IRLO BRONSON MEMORIAL HWY","KISSIMMEE","FL",34744,28.2611722070001,-81.328251675,147,"2874 E IRLO BRONSON MEMORIAL HWY, KISSIMMEE, FL, 34744","Match","Exact","2874 E IRLO BRONSON MEMORIAL HWY, KISSIMMEE, FL, 34744",176659393,"R"
153648,"2874 ECHELON COURT","SNELLVILLE","GA",30039,33.8170682040001,-84.0636976609999,148,"2874 ECHELON COURT, SNELLVILLE, GA, 30039","Match","Exact","2874 ECHELON CT, SNELLVILLE, GA, 30039",636153395,"R"
153649,"2874 GLASS ROAD","LAS CRUCES","NM",88005,NA,NA,149,"2874 GLASS ROAD, LAS CRUCES, NM, 88005","No_Match",NA,NA,NA,NA
153650,"2874 KINGS LAKE RD","DEFUNIAK SPRINGS","FL",32433,30.7830240340001,-86.205666439,150,"2874 KINGS LAKE RD, DEFUNIAK SPRINGS, FL, 32433","Match","Non_Exact","2874 KING LAKE RD, DEFUNIAK SPRINGS, FL, 32433",32988458,"R"
153651,"2874 MAIN STREET SUITE 2A","STRATFORD","CT",6614,41.199695606,-73.131565145,151,"2874 MAIN STREET SUITE 2A, STRATFORD, CT, 6614","Match","Exact","2874 MAIN ST, STRATFORD, CT, 06614",3227917,"R"
153652,"2874 QUAIL RUN DRIVE","TROY","MI",48098,42.5868668270001,-83.2045911439999,152,"2874 QUAIL RUN DRIVE, TROY, MI, 48098","Match","Exact","2874 QUAIL RUN DR, TROY, MI, 48098",69733756,"L"
153653,"2874 ROSE HILL ST","STRASBURG","CO",80136,39.756663136,-104.336084909,153,"2874 ROSE HILL ST, STRASBURG, CO, 80136","Match","Exact","2874 ROSE HILL ST, STRASBURG, CO, 80136",625401924,"R"
153654,"2874 SW 183 AVENUE","MIRAMAR","FL",33029,25.9814598020001,-80.3904310619999,154,"2874 SW 183 AVENUE, MIRAMAR, FL, 33029","Match","Exact","2874 SW 183RD AVE, MIRAMAR, FL, 33029",114777696,"R"
153655,"2874 TALL OAKS COURT 21","AUBURN HILLS","MI",48326,42.6251491410001,-83.232129286,155,"2874 TALL OAKS COURT 21, AUBURN HILLS, MI, 48326","Match","Exact","2874 TALL OAKS CT, AUBURN HILLS, MI, 48326",69822377,"R"
153656,"2874 VENEZIA LANE","THOUSAND OAKS","CA",91362,34.21866737,-118.824561682,156,"2874 VENEZIA LANE, THOUSAND OAKS, CA, 91362","Match","Exact","2874 VENEZIA LN, THOUSAND OAKS, CA, 91362",110053083,"L"
153657,"2874 WHITMORE AVENUE","CLOVIS","CA",93619,36.7988434230001,-119.65431264,157,"2874 WHITMORE AVENUE, CLOVIS, CA, 93619","Match","Exact","2874 WHITMORE AVE, CLOVIS, CA, 93619",606271579,"L"
153658,"28743 RALEIGH ROAD","FARMINGTON","MI",48336,42.4827762570001,-83.332231042,158,"28743 RALEIGH ROAD, FARMINGTON, MI, 48336","Match","Exact","28743 RALEIGH RD, FARMINGTON, MI, 48336",69730721,"L"
153659,"28744 WINTERGREEN","FARMINGTON HILLS","MI",48331,42.5063152560001,-83.4135420059999,159,"28744 WINTERGREEN, FARMINGTON HILLS, MI, 48331","Match","Non_Exact","28744 WINTERGREEN DR, FARMINGTON HILLS, MI, 48331",69818698,"L"
153660,"28746 HIGHPOINT AVENUE","MORENO VALLEY","CA",92555,33.909657388,-117.161268165,160,"28746 HIGHPOINT AVENUE, MORENO VALLEY, CA, 92555","Match","Exact","28746 HIGHPOINT AVE, MORENO VALLEY, CA, 92555",194819662,"R"
153661,"2875 145TH STREET WEST","ROSEMOUNT","MN",55068,44.739213417,-93.124444185,161,"2875 145TH STREET WEST, ROSEMOUNT, MN, 55068","Match","Exact","2875 145TH ST W, ROSEMOUNT, MN, 55068",37910671,"L"
153662,"2875 BAY ST","GULF BREEZE","FL",32563,30.3723310560001,-87.104250387,162,"2875 BAY ST, GULF BREEZE, FL, 32563","Match","Exact","2875 BAY ST, GULF BREEZE, FL, 32563",635511065,"R"
153663,"2875 BUHRE AVE SUITE 2","BRONX","NY",10461,40.8472376670001,-73.833271709,163,"2875 BUHRE AVE SUITE 2, BRONX, NY, 10461","Match","Exact","2875 BUHRE AVE, BRONX, NY, 10461",80305762,"L"
153664,"2875 CLINTON STREET RIGHT SIDE","WEST SENECA","NY",14224,42.865751339,-78.772671971,164,"2875 CLINTON STREET RIGHT SIDE, WEST SENECA, NY, 14224","Match","Exact","2875 CLINTON ST, WEST SENECA, NY, 14224",48345738,"R"
153665,"2875 COMMUNITY DR","CHAGRIN FALLS","OH",44022,41.4879290390001,-81.418763296,165,"2875 COMMUNITY DR, CHAGRIN FALLS, OH, 44022","Match","Exact","2875 COMMUNITY DR, CHAGRIN FALLS, OH, 44022",638752227,"L"
153666,"2875 CRESCENT PKWY   SUITE 1428","ATLANTA","GA",30339,NA,NA,166,"2875 CRESCENT PKWY   SUITE 1428, ATLANTA, GA, 30339","No_Match",NA,NA,NA,NA
153667,"2875 DOROTHY DRIVE","AURORA","IL",60504,41.726047642,-88.2454419589999,167,"2875 DOROTHY DRIVE, AURORA, IL, 60504","Match","Exact","2875 DOROTHY DR, AURORA, IL, 60504",112590596,"R"
153668,"2875 GLASCOCK STREET SUITE 202","OAKLAND","CA",94601,37.772223958,-122.234110207,168,"2875 GLASCOCK STREET SUITE 202, OAKLAND, CA, 94601","Match","Exact","2875 GLASCOCK ST, OAKLAND, CA, 94601",125006127,"R"
153669,"2875 LANGDON FARM RD APT 3","CINCINNATI","OH",45212,NA,NA,169,"2875 LANGDON FARM RD APT 3, CINCINNATI, OH, 45212","No_Match",NA,NA,NA,NA
153670,"2875 LILLY DRIVE","ELIDA","OH",45807,40.7783783950001,-84.202259609,170,"2875 LILLY DRIVE, ELIDA, OH, 45807","Match","Exact","2875 LILLY DR, ELIDA, OH, 45807",35562960,"L"
153671,"2875 N SR 3","LAGRANGE","IN",46761,41.6840770050001,-85.27965363,171,"2875 N SR 3, LAGRANGE, IN, 46761","Match","Exact","2875 STATE RD 3, LAGRANGE, IN, 46761",8186882,"R"
153672,"2875 NE 191 STREET SUITE 404","AVENTURA","FL",33180,25.952177378,-80.145694858,172,"2875 NE 191 STREET SUITE 404, AVENTURA, FL, 33180","Match","Non_Exact","2875 NE 191ST ST, AVENTURA, FL, 33180",611897254,"L"
153673,"2875 NEW COLLEGE WAY","CUMMING","GA",30041,34.1668717640001,-84.094301603,173,"2875 NEW COLLEGE WAY, CUMMING, GA, 30041","Match","Exact","2875 NEW COLLEGE WAY, CUMMING, GA, 30041",627699576,"R"
153674,"2875 OAKVALE FALLS DRIVE","DECATUR","GA",30034,33.6779840570001,-84.271383326,174,"2875 OAKVALE FALLS DRIVE, DECATUR, GA, 30034","Match","Exact","2875 OAKVALE FALLS DR, DECATUR, GA, 30034",23396871,"L"
153675,"2875 PICKWICK DRIVE","COLUMBUS","OH",43221,40.016908528,-83.049446668,175,"2875 PICKWICK DRIVE, COLUMBUS, OH, 43221","Match","Exact","2875 PICKWICK DR, COLUMBUS, OH, 43221",218654446,"L"
153676,"2875 PICKWICK","COLUMBUS","OH",43221,40.016908528,-83.049446668,176,"2875 PICKWICK, COLUMBUS, OH, 43221","Match","Non_Exact","2875 PICKWICK DR, COLUMBUS, OH, 43221",218654446,"L"
153677,"2875 ROBINDALE AVENUE","AKRON","OH",44312,41.0552563970001,-81.426976859,177,"2875 ROBINDALE AVENUE, AKRON, OH, 44312","Match","Exact","2875 ROBINDALE AVE, AKRON, OH, 44312",61355476,"L"
153678,"2875 S ORANGE AVE STE 500-2611","ORLANDO","FL",32806,28.510335798,-81.3763045319999,178,"2875 S ORANGE AVE STE 500-2611, ORLANDO, FL, 32806","Match","Non_Exact","2875 S ORANGE AVE, ORLANDO, FL, 32806",635168198,"L"
153679,"2875 SHADOW DANCE DRIVE","CASTLE ROCK","CO",80109,39.393063769,-104.893011226,179,"2875 SHADOW DANCE DRIVE, CASTLE ROCK, CO, 80109","Match","Exact","2875 SHADOW DANCE DR, CASTLE ROCK, CO, 80109",641017332,"L"
153680,"2875 TINA AVE","MISSOULA","MT",59808,46.892613903,-114.041732234,180,"2875 TINA AVE, MISSOULA, MT, 59808","Match","Exact","2875 TINA AVE, MISSOULA, MT, 59808",641008936,"L"
153681,"2875 TROY CENTER DRIVE APT 5020","TROY","MI",48084,42.5580849630001,-83.161931389,181,"2875 TROY CENTER DRIVE APT 5020, TROY, MI, 48084","Match","Exact","2875 TROY CENTER DR, TROY, MI, 48084",630327758,"L"
153682,"2875 VILLA DR","CLEVELAND","TN",37312,35.2128594650001,-84.8961198969999,182,"2875 VILLA DR, CLEVELAND, TN, 37312","Match","Non_Exact","2875 VILLA DR NW, CLEVELAND, TN, 37312",57570992,"L"
153683,"2875 W 10TH ST","GREELEY","CO",80634,40.42289815,-104.727268447,183,"2875 W 10TH ST, GREELEY, CO, 80634","Match","Exact","2875 10TH ST, GREELEY, CO, 80634",188675761,"R"
153684,"2875 W RAY RD 6","CHANDLER","AZ",85224,33.320366543,-111.891973529,184,"2875 W RAY RD 6, CHANDLER, AZ, 85224","Match","Non_Exact","2875 W RAY RD, CHANDLER, AZ, 85224",128942686,"L"
153685,"2875 W RAY RD STE 6-174","CHANDLER","AZ",85224,33.320366543,-111.891973529,185,"2875 W RAY RD STE 6-174, CHANDLER, AZ, 85224","Match","Non_Exact","2875 W RAY RD, CHANDLER, AZ, 85224",128942686,"L"
153686,"2875 WHITE BLOSSOM LANE","SUWANEE","GA",30024,34.0197403390001,-84.052004628,186,"2875 WHITE BLOSSOM LANE, SUWANEE, GA, 30024","Match","Exact","2875 WHITE BLOSSOM LN, SUWANEE, GA, 30024",88928113,"R"
153687,"28751 SEWARD HWY","SEWARD","AK",99664,60.3777453870001,-149.352358969,187,"28751 SEWARD HWY, SEWARD, AK, 99664","Match","Exact","28751 SEWARD HWY, SEWARD, AK, 99664",191016906,"R"
153688,"28755 EL TORO ROAD","LAKE ELSINORE","CA",92532,33.7023768190001,-117.346759795,188,"28755 EL TORO ROAD, LAKE ELSINORE, CA, 92532","Match","Exact","28755 EL TORO RD, LAKE ELSINORE, CA, 92532",195084201,"L"
153689,"28758 STATE HIGHWAY 86","EAGLE ROCK","MO",65641,36.5474592570001,-93.755745869,189,"28758 STATE HIGHWAY 86, EAGLE ROCK, MO, 65641","Match","Exact","28758 STATE HWY 86, EAGLE ROCK, MO, 65641",49364243,"R"
153690,"2876 ATTLEBORO ROAD","SHAKER HEIGHTS","OH",44120,41.477416743,-81.55849468,190,"2876 ATTLEBORO ROAD, SHAKER HEIGHTS, OH, 44120","Match","Exact","2876 ATTLEBORO RD, SHAKER HEIGHTS, OH, 44120",638296017,"R"
153691,"2876 BALTING PL","VIERA","FL",32940,28.2212877700001,-80.7386080209999,191,"2876 BALTING PL, VIERA, FL, 32940","Match","Exact","2876 BALTING PL, VIERA, FL, 32940",650719623,"R"
153692,"2876 BARON CT SW","WYOMING","MI",49418,42.8690020340001,-85.735447731,192,"2876 BARON CT SW, WYOMING, MI, 49418","Match","Exact","2876 BARON CT SW, WYOMING, MI, 49418",12454847,"L"
153693,"2876 BROUGHTON STREET","ORANGEBURG","SC",29115,33.512502834,-80.8773649189999,193,"2876 BROUGHTON STREET, ORANGEBURG, SC, 29115","Match","Exact","2876 BROUGHTON ST, ORANGEBURG, SC, 29115",616057230,"R"
153694,"2876 E 500 NORTH RD","WELLINGTON","IL",60973,40.5626848040001,-87.58318686,194,"2876 E 500 NORTH RD, WELLINGTON, IL, 60973","Match","Exact","2876 E 500 NORTH RD, WELLINGTON, IL, 60973",90759951,"L"
153695,"2876 EAST 114 STREET","CLEVELAND","OH",44104,41.4802109440001,-81.6057022219999,195,"2876 EAST 114 STREET, CLEVELAND, OH, 44104","Match","Exact","2876 E 114TH ST, CLEVELAND, OH, 44104",61122670,"R"
153696,"2876 HARDING HIGHWAY EAST","MARION","OH",43302,40.607168965,-83.05201377,196,"2876 HARDING HIGHWAY EAST, MARION, OH, 43302","Match","Exact","2876 HARDING HWY E, MARION, OH, 43302",12709863,"L"
153697,"2876 HWY 167 APT D","OPELOUSAS","LA",70570,30.613658405,-92.127367323,197,"2876 HWY 167 APT D, OPELOUSAS, LA, 70570","Match","Non_Exact","2876 US HWY 167, OPELOUSAS, LA, 70570",106432657,"R"
153698,"2876 LANTANA LKS DR E","JACKSONVILLE","FL",32246,30.293939031,-81.5420411169999,198,"2876 LANTANA LKS DR E, JACKSONVILLE, FL, 32246","Match","Exact","2876 LANTANA LAKES DR E, JACKSONVILLE, FL, 32246",83957622,"L"
153699,"2876 NW 196 TERR","MIAMI","FL",33056,25.953313904,-80.248999391,199,"2876 NW 196 TERR, MIAMI, FL, 33056","Match","Non_Exact","2876 NW 196TH TER, MIAMI GARDENS, FL, 33056",116027656,"L"
153700,"2876 OLD YELLOW SPRINGS RD","FAIRBORN","OH",45324,39.782115317,-84.036593798,200,"2876 OLD YELLOW SPRINGS RD, FAIRBORN, OH, 45324","Match","Exact","2876 OLD YELLOW SPRINGS RD, FAIRBORN, OH, 45324",143384840,"R"
153701,"2876 RIEDEL COURT","SAN JOSE","CA",95135,37.3131570130001,-121.784442571,201,"2876 RIEDEL COURT, SAN JOSE, CA, 95135","Match","Exact","2876 RIEDEL CT, SAN JOSE, CA, 95135",122918227,"R"
153702,"2876 SW 176TH TERRACE","MIRAMAR","FL",33029,25.982843093,-80.3819330809999,202,"2876 SW 176TH TERRACE, MIRAMAR, FL, 33029","Match","Exact","2876 SW 176TH TER, MIRAMAR, FL, 33029",114811425,"L"
153703,"2876 WAVERLEY WAY","LIVERMORE","CA",94551,37.694055324,-121.762897169,203,"2876 WAVERLEY WAY, LIVERMORE, CA, 94551","Match","Non_Exact","2876 WAVERLY WAY, LIVERMORE, CA, 94551",125039209,"L"
153704,"2876 WOODWARDIA DRIVE","LOS ANGELES","CA",90077,34.1250503030001,-118.44496255,204,"2876 WOODWARDIA DRIVE, LOS ANGELES, CA, 90077","Match","Non_Exact","2876 N WOODWARDIA DR, LOS ANGELES, CA, 90077",142665181,"R"
153705,"28766 COLINA VISTA STREET","AGOURA HILLS","CA",91301,34.1652612030001,-118.753607327,205,"28766 COLINA VISTA STREET, AGOURA HILLS, CA, 91301","Match","Exact","28766 COLINA VISTA ST, AGOURA HILLS, CA, 91301",141721560,"R"
153706,"2877 AUDUBON TERRACE NW","WASHINGTON","DC",20008,38.9463460370001,-77.0585665789999,206,"2877 AUDUBON TERRACE NW, WASHINGTON, DC, 20008","Match","Exact","2877 AUDUBON TER NW, WASHINGTON, DC, 20008",76235272,"R"
153707,"2877 CARADELLE DR","ROSEVILLE","CA",95661,NA,NA,207,"2877 CARADELLE DR, ROSEVILLE, CA, 95661","No_Match",NA,NA,NA,NA
153708,"2877 CHILDRESS DRIVE","ANDERSON","CA",96007,40.455032956,-122.290794776,208,"2877 CHILDRESS DRIVE, ANDERSON, CA, 96007","Match","Exact","2877 CHILDRESS DR, ANDERSON, CA, 96007",126644359,"R"
153709,"2877 E 2369TH ROAD","MARSEILLES","IL",61341,41.3512301000001,-88.7116316349999,209,"2877 E 2369TH ROAD, MARSEILLES, IL, 61341","Match","Exact","2877 E 2369TH RD, MARSEILLES, IL, 61341",8620155,"R"
153710,"2877 E MARGARET DR","TERRE HAUTE","IN",47802,39.433115699,-87.373140346,210,"2877 E MARGARET DR, TERRE HAUTE, IN, 47802","Match","Exact","2877 E MARGARET DR, TERRE HAUTE, IN, 47802",616448538,"R"
153711,"2877 GRANVILLE DR","SPARKS","NV",89436,39.571268101,-119.689792607,211,"2877 GRANVILLE DR, SPARKS, NV, 89436","Match","Exact","2877 GRANVILLE DR, SPARKS, NV, 89436",107120328,"R"
153712,"2877 NINA STREET","PASADENA","CA",91107,34.1470983030001,-118.091152011,212,"2877 NINA STREET, PASADENA, CA, 91107","Match","Exact","2877 NINA ST, PASADENA, CA, 91107",141633998,"L"
153713,"2877 PADDLE WHEEL DR","NASHVILLE","TN",37214,36.2324481410001,-86.691552857,213,"2877 PADDLE WHEEL DR, NASHVILLE, TN, 37214","Match","Exact","2877 PADDLE WHEEL DR, NASHVILLE, TN, 37214",631784806,"L"
153714,"2877 SCREECH OWL WAY","SACRAMENTO","CA",95834,38.631354491,-121.526095359,214,"2877 SCREECH OWL WAY, SACRAMENTO, CA, 95834","Match","Exact","2877 SCREECH OWL WAY, SACRAMENTO, CA, 95834",133443911,"R"
153715,"2877 SNOWY EGRET WAY","OAKLEY","CA",94561,NA,NA,215,"2877 SNOWY EGRET WAY, OAKLEY, CA, 94561","No_Match",NA,NA,NA,NA
153716,"28771 RIKI COURT","LAGUNA NIGUEL","CA",92677,33.5447296090001,-117.718513369,216,"28771 RIKI COURT, LAGUNA NIGUEL, CA, 92677","Match","Exact","28771 RIKI CT, LAGUNA NIGUEL, CA, 92677",144106815,"L"
153717,"28774 PRAIRIE FALCON CT","MURRIETA","CA",92563,33.5696744310001,-117.157755655,217,"28774 PRAIRIE FALCON CT, MURRIETA, CA, 92563","Match","Exact","28774 PRAIRIE FALCON CT, MURRIETA, CA, 92563",640890229,"R"
153718,"28778 LEXINGTON WAY","MORENO VALLEY","CA",92555,33.9253626610001,-117.160613091,218,"28778 LEXINGTON WAY, MORENO VALLEY, CA, 92555","Match","Exact","28778 LEXINGTON WAY, MORENO VALLEY, CA, 92555",635364262,"R"
153719,"28779 NICK DAVIS ROAD","HARVEST","AL",35749,34.802786584,-86.811037261,219,"28779 NICK DAVIS ROAD, HARVEST, AL, 35749","Match","Exact","28779 NICK DAVIS RD, HARVEST, AL, 35749",95260409,"L"
153720,"2878 BENJAMIN AVENUE","SAN JOSE","CA",95124,37.269411742,-121.9342297,220,"2878 BENJAMIN AVENUE, SAN JOSE, CA, 95124","Match","Exact","2878 BENJAMIN AVE, SAN JOSE, CA, 95124",122920621,"L"
153721,"2878 BEULAH RD","DRIPPING SPGS","TX",78620,NA,NA,221,"2878 BEULAH RD, DRIPPING SPGS, TX, 78620","No_Match",NA,NA,NA,NA
153722,"2878 INLET COVE LA W","NAPLES","FL",34120,26.2812584690001,-81.594788389,222,"2878 INLET COVE LA W, NAPLES, FL, 34120","Match","Exact","2878 INLET COVE LN W, NAPLES, FL, 34120",645542919,"L"
153723,"2878 JADEN LN","NORWALK","IA",50211,41.4954031010001,-93.679428539,223,"2878 JADEN LN, NORWALK, IA, 50211","Match","Exact","2878 JADEN LN, NORWALK, IA, 50211",650205514,"L"
153724,"2878 NORTH 34TH","MILWAUKEE","WI",53210,43.0710967100001,-87.956184905,224,"2878 NORTH 34TH, MILWAUKEE, WI, 53210","Match","Non_Exact","2878 N 34TH ST, MILWAUKEE, WI, 53210",77738018,"R"
153725,"2878 PERSHING AVENUE","SAN BERNARDINO","CA",92405,34.1440390010001,-117.28850029,225,"2878 PERSHING AVENUE, SAN BERNARDINO, CA, 92405","Match","Non_Exact","2878 N PERSHING AVE, SAN BERNARDINO, CA, 92405",144654762,"L"
153726,"2878 SELLERS RD","EFFINGHAM","SC",29541,34.0810677420001,-79.8342798149999,226,"2878 SELLERS RD, EFFINGHAM, SC, 29541","Match","Exact","2878 SELLERS RD, EFFINGHAM, SC, 29541",28865528,"R"
153727,"2878 ULSTER STREET","DENVER","CO",80238,39.757637312,-104.894431139,227,"2878 ULSTER STREET, DENVER, CO, 80238","Match","Non_Exact","2878 N ULSTER ST, DENVER, CO, 80238",606068290,"R"
153728,"28785 OAK POINT DR","FARMINGTON HILLS","MI",48331,42.50626183,-83.382574776,228,"28785 OAK POINT DR, FARMINGTON HILLS, MI, 48331","Match","Exact","28785 OAK POINT DR, FARMINGTON HILLS, MI, 48331",69794427,"L"
153729,"28787 RANCHWOOD DR","SOUTHFIELD","MI",48076,42.5006484250001,-83.2483709699999,229,"28787 RANCHWOOD DR, SOUTHFIELD, MI, 48076","Match","Exact","28787 RANCHWOOD DR, SOUTHFIELD, MI, 48076",69734927,"L"
153730,"2879 ACTON ROAD APT H","VESTAVIA","AL",35243,33.4274186860001,-86.741400738,230,"2879 ACTON ROAD APT H, VESTAVIA, AL, 35243","Match","Exact","2879 ACTON RD, VESTAVIA, AL, 35243",646805001,"R"
153731,"2879 BELLAROSA CIRCLE","ROYAL PALM BEACH","FL",33411,26.714686876,-80.2066985599999,231,"2879 BELLAROSA CIRCLE, ROYAL PALM BEACH, FL, 33411","Match","Exact","2879 BELLAROSA CIR, ROYAL PALM BEACH, FL, 33411",640946406,"L"
153732,"2879 E DETROIT STREET","CHANDLER","AZ",85225,33.3081457390001,-111.792080357,232,"2879 E DETROIT STREET, CHANDLER, AZ, 85225","Match","Exact","2879 E DETROIT ST, CHANDLER, AZ, 85225",646719782,"R"
153733,"2879 EAST POINT STREET","EAST POINT","GA",30344,33.6769127050001,-84.4425363029999,233,"2879 EAST POINT STREET, EAST POINT, GA, 30344","Match","Exact","2879 E POINT ST, EAST POINT, GA, 30344",640546745,"L"
153734,"2879 KEEBLER RD","MARYVILLE","IL",62062,38.7267542070001,-89.9848997569999,234,"2879 KEEBLER RD, MARYVILLE, IL, 62062","Match","Exact","2879 KEEBLER RD, MARYVILLE, IL, 62062",650799722,"L"
153735,"2879 OBSERVATION POINT NW","MARIETTA","GA",30064,33.970274198,-84.6385341069999,235,"2879 OBSERVATION POINT NW, MARIETTA, GA, 30064","Match","Exact","2879 OBSERVATION PT NW, MARIETTA, GA, 30064",17196012,"L"
153736,"2879 S SHOSHONE ST","ENGLEWOOD","CO",80110,39.664733498,-105.009881791,236,"2879 S SHOSHONE ST, ENGLEWOOD, CO, 80110","Match","Exact","2879 S SHOSHONE ST, ENGLEWOOD, CO, 80110",177332705,"R"
153737,"2879 ST ROSE PARKWAY SUITE 200","HENDERSON","NV",89052,NA,NA,237,"2879 ST ROSE PARKWAY SUITE 200, HENDERSON, NV, 89052","No_Match",NA,NA,NA,NA
153738,"28790 CHAGRIN BLVD  STE 350","CLEVELAND","OH",44122,41.4623510800001,-81.474857578,238,"28790 CHAGRIN BLVD  STE 350, CLEVELAND, OH, 44122","Match","Exact","28790 CHAGRIN BLVD, CLEVELAND, OH, 44122",651026391,"R"
153739,"28795 BENSTEAD ROAD","GIRARD","IL",62640,39.4199682600001,-89.7654173189999,239,"28795 BENSTEAD ROAD, GIRARD, IL, 62640","Match","Exact","28795 BENSTEAD RD, GIRARD, IL, 62640",97913806,"L"
153740,"288 11TH ST STE E","OAKLAND","CA",94607,37.800756133,-122.268656897,240,"288 11TH ST STE E, OAKLAND, CA, 94607","Match","Exact","288 11TH ST, OAKLAND, CA, 94607",124997235,"R"
153741,"288 88TH STREET APT 8","DALY CITY","CA",94015,37.6925366150001,-122.474222058,241,"288 88TH STREET APT 8, DALY CITY, CA, 94015","Match","Exact","288 88TH ST, DALY CITY, CA, 94015",192367384,"R"
153742,"288 ANIMAS VIEW DRIVE  UNIT 56","DURANGO","CO",81301,37.3082196560001,-107.8608349,242,"288 ANIMAS VIEW DRIVE  UNIT 56, DURANGO, CO, 81301","Match","Exact","288 ANIMAS VIEW DR, DURANGO, CO, 81301",91707559,"R"
153743,"288 ANN DAVIS ST","WESTMINSTER","SC",29693,34.6590950520001,-83.098602872,243,"288 ANN DAVIS ST, WESTMINSTER, SC, 29693","Match","Exact","288 ANN DAVIS ST, WESTMINSTER, SC, 29693",25638414,"R"
153744,"288 ANTARES AVE","LOMPOC","CA",93436,34.7049403440001,-120.469246175,244,"288 ANTARES AVE, LOMPOC, CA, 93436","Match","Exact","288 ANTARES AVE, LOMPOC, CA, 93436",108598219,"R"
153745,"288 BRIARWOOD DRIVE","WYCKOFF","NJ",7481,40.9795383140001,-74.1771887209999,245,"288 BRIARWOOD DRIVE, WYCKOFF, NJ, 7481","Match","Exact","288 BRIARWOOD DR, WYCKOFF, NJ, 07481",64404356,"L"
153746,"288 CASPER PLACE","SAN RAMON","CA",94583,37.73794903,-121.937724462,246,"288 CASPER PLACE, SAN RAMON, CA, 94583","Match","Exact","288 CASPER PL, SAN RAMON, CA, 94583",192067071,"R"
153747,"288 CATOR AVENUE","JERSEY CITY","NJ",7305,40.701633321,-74.094506656,247,"288 CATOR AVENUE, JERSEY CITY, NJ, 7305","Match","Exact","288 CATOR AVE, JERSEY CITY, NJ, 07305",59616495,"R"
153748,"288 CLAREMONT AVE","JERSEY CITY","NJ",7305,40.7126363900001,-74.085218474,248,"288 CLAREMONT AVE, JERSEY CITY, NJ, 7305","Match","Exact","288 CLAREMONT AVE, JERSEY CITY, NJ, 07305",59602164,"R"
153749,"288 CORINTH RD","PORTLAND","TN",37148,36.5588441790001,-86.412551241,249,"288 CORINTH RD, PORTLAND, TN, 37148","Match","Exact","288 CORINTH RD, PORTLAND, TN, 37148",645575950,"R"
153750,"288 COTUIT RD","SANDWICH","MA",2563,41.701235565,-70.483960935,250,"288 COTUIT RD, SANDWICH, MA, 2563","Match","Exact","288 COTUIT RD, SANDWICH, MA, 02563",121616220,"R"
153751,"288 DEHOFF DR","YOUNGSTOWN","OH",44515,41.092378162,-80.757703009,251,"288 DEHOFF DR, YOUNGSTOWN, OH, 44515","Match","Exact","288 DEHOFF DR, YOUNGSTOWN, OH, 44515",64591348,"R"
153752,"288 DEL SOL AVE","DAVENPORT","FL",33837,28.1861908700001,-81.624832816,252,"288 DEL SOL AVE, DAVENPORT, FL, 33837","Match","Exact","288 DEL SOL AVE, DAVENPORT, FL, 33837",638015309,"L"
153753,"288 DERBY RUN","DALLAS","GA",30132,33.95230315,-84.8306551749999,253,"288 DERBY RUN, DALLAS, GA, 30132","Match","Exact","288 DERBY RUN, DALLAS, GA, 30132",17747695,"R"
153754,"288 DOUBLE O NINE RD","REEDS SPRING","MD",65737,NA,NA,254,"288 DOUBLE O NINE RD, REEDS SPRING, MD, 65737","No_Match",NA,NA,NA,NA
153755,"288 DRS JAMES PARKER BLVD","RED BANK","NJ",7701,NA,NA,255,"288 DRS JAMES PARKER BLVD, RED BANK, NJ, 7701","Tie",NA,NA,NA,NA
153756,"288 EGG HARBOR RD  SUITE 9 -137","SEWELL","NJ",8080,39.766021446,-75.0864177889999,256,"288 EGG HARBOR RD  SUITE 9 -137, SEWELL, NJ, 8080","Match","Exact","288 EGG HARBOR RD, SEWELL, NJ, 08080",134586677,"R"
153757,"288 ELLIOT SMITH ROAD","JEFFERSON","GA",30549,34.1386798940001,-83.50753888,257,"288 ELLIOT SMITH ROAD, JEFFERSON, GA, 30549","Match","Exact","288 ELLIOT SMITH RD, JEFFERSON, GA, 30549",4992466,"R"
153758,"288 FERGUSON ST NE","ATLANTA","GA",30307,33.762682812,-84.3432535919999,258,"288 FERGUSON ST NE, ATLANTA, GA, 30307","Match","Exact","288 FERGUSON ST NE, ATLANTA, GA, 30307",23365155,"L"
153759,"288 FIELDSTONE DR","KESWICK","VA",22947,37.980849101,-78.3015126029999,259,"288 FIELDSTONE DR, KESWICK, VA, 22947","Match","Exact","288 FIELDSTONE DR, KESWICK, VA, 22947",73792903,"R"
153760,"288 FLAUGH LN","EAST FREEDOM","PA",16637,40.3569254280001,-78.436479398,260,"288 FLAUGH LN, EAST FREEDOM, PA, 16637","Match","Exact","288 FLAUGH LN, EAST FREEDOM, PA, 16637",647078593,"R"
153761,"288 FLYNN AVENUE  APT 9","BURLINGTON","VT",5401,44.455458815,-73.2148019219999,261,"288 FLYNN AVENUE  APT 9, BURLINGTON, VT, 5401","Match","Exact","288 FLYNN AVE, BURLINGTON, VT, 05401",135828240,"L"
153762,"288 FM 2558 E","BROADDUS","TX",75929,31.2960410160001,-94.264868948,262,"288 FM 2558 E, BROADDUS, TX, 75929","Match","Non_Exact","288 FM-2558 E, BROADDUS, TX, 75929",72666785,"L"
153763,"288 HARPER ST","LOUISVILLE","CO",80027,39.9847965770001,-105.13814557,263,"288 HARPER ST, LOUISVILLE, CO, 80027","Match","Exact","288 HARPER ST, LOUISVILLE, CO, 80027",188173414,"L"
153764,"288 HIGHWAY 107","JONESBOROUGH","TN",37659,36.1969515600001,-82.480288803,264,"288 HIGHWAY 107, JONESBOROUGH, TN, 37659","Match","Non_Exact","288 STATE RTE 107, JONESBOROUGH, TN, 37659",127945801,"L"
153765,"288 IMPERIAL LANE","LAUDERDALE-BY-SEA","FL",33308,26.1838962050001,-80.1015824309999,265,"288 IMPERIAL LANE, LAUDERDALE-BY-SEA, FL, 33308","Match","Non_Exact","288 IMPERIAL LN, LAUDERDALE BY THE SEA, FL, 33308",114724656,"L"
153766,"288 KING STREET","COHASSET","MA",2025,42.229897425,-70.8191379259999,266,"288 KING STREET, COHASSET, MA, 2025","Match","Exact","288 KING ST, COHASSET, MA, 02025",87309695,"L"
153767,"288 LINCOLN ROAD","KING OF PRUSSIA","PA",19406,40.103952975,-75.378310899,267,"288 LINCOLN ROAD, KING OF PRUSSIA, PA, 19406","Match","Exact","288 LINCOLN RD, KING OF PRUSSIA, PA, 19406",135070835,"R"
153768,"288 LLAMA LN","NEEDMORE","PA",17238,39.947851524,-78.144617857,268,"288 LLAMA LN, NEEDMORE, PA, 17238","Match","Non_Exact","288 LLAMA RD, NEEDMORE, PA, 17238",61018943,"L"
153769,"288 MAIN STREET","LANCASTER","NH",3584,44.4993204850001,-71.574120404,269,"288 MAIN STREET, LANCASTER, NH, 3584","Match","Exact","288 MAIN ST, LANCASTER, NH, 03584",635777761,"L"
153770,"288 MAIN STREET","LE RAYSVILLE","PA",18829,41.8336126360001,-76.180631703,270,"288 MAIN STREET, LE RAYSVILLE, PA, 18829","Match","Exact","288 MAIN ST, LE RAYSVILLE, PA, 18829",176971634,"R"
153771,"288 MARTIN ST SUITE 308","BLAINE","WA",98230,48.9931299020001,-122.750065657,271,"288 MARTIN ST SUITE 308, BLAINE, WA, 98230","Match","Exact","288 MARTIN ST, BLAINE, WA, 98230",183757958,"R"
153772,"288 MARTIN STREET BOX 1","BLAINE","WA",98230,48.9931299020001,-122.750065657,272,"288 MARTIN STREET BOX 1, BLAINE, WA, 98230","Match","Exact","288 MARTIN ST, BLAINE, WA, 98230",183757958,"R"
153773,"288 MCNAIR STREET","BADEN","PA",15005,40.633509028,-80.222018169,273,"288 MCNAIR STREET, BADEN, PA, 15005","Match","Exact","288 MCNAIR ST, BADEN, PA, 15005",52568641,"R"
153774,"288 N 12TH PL","PROSPECT PARK","NJ",7508,40.9385325390001,-74.171063252,274,"288 N 12TH PL, PROSPECT PARK, NJ, 7508","Match","Exact","288 N 12TH PL, PROSPECT PARK, NJ, 07508",65262406,"R"
153775,"288 N 12TH PLACE","PROSPECT PARK","NJ",7508,40.9385325390001,-74.171063252,275,"288 N 12TH PLACE, PROSPECT PARK, NJ, 7508","Match","Exact","288 N 12TH PL, PROSPECT PARK, NJ, 07508",65262406,"R"
153776,"288 N ORR AVE","BENSON","AZ",85602,31.970389728,-110.284555853,276,"288 N ORR AVE, BENSON, AZ, 85602","Match","Exact","288 N ORR AVE, BENSON, AZ, 85602",120920271,"R"
153777,"288 NORFOLK ST SUITE 3B","CAMBRIDGE","MA",2139,42.371531524,-71.0972011109999,277,"288 NORFOLK ST SUITE 3B, CAMBRIDGE, MA, 2139","Match","Exact","288 NORFOLK ST, CAMBRIDGE, MA, 02139",87171910,"R"
153778,"288 OLD GOOSE CREEK RD","FISHERSVILLE","VA",22939,38.104158286,-79.0072418939999,278,"288 OLD GOOSE CREEK RD, FISHERSVILLE, VA, 22939","Match","Exact","288 GOOSE CREEK RD, FISHERSVILLE, VA, 22939",98844481,"R"
153779,"288 ORCHARD STREET","MILLIS","MA",2054,42.1859960350001,-71.366230029,279,"288 ORCHARD STREET, MILLIS, MA, 2054","Match","Exact","288 ORCHARD ST, MILLIS, MA, 02054",87239058,"L"
153780,"288 ORCHARDHILL DR SW","NORTH CANTON","OH",44720,40.860874462,-81.4029463219999,280,"288 ORCHARDHILL DR SW, NORTH CANTON, OH, 44720","Match","Non_Exact","288 ORCHARD HILL DR SW, NORTH CANTON, OH, 44720",64676407,"L"
153781,"288 PORTAGE AVENUE","NY","NY",10314,40.6001412360001,-74.130699853,281,"288 PORTAGE AVENUE, NY, NY, 10314","Match","Non_Exact","288 PORTAGE AVE, STATEN ISLAND, NY, 10314",59876493,"L"
153782,"288 S 40TH ST UNIT 31843","PHILADELPHIA","PA",19140,NA,NA,282,"288 S 40TH ST UNIT 31843, PHILADELPHIA, PA, 19140","No_Match",NA,NA,NA,NA
153783,"288 S DEMPSEY LN","SALT LAKE CITY","UT",84104,40.762990212,-111.93706136,283,"288 S DEMPSEY LN, SALT LAKE CITY, UT, 84104","Match","Exact","288 DEMPSEY LN, SALT LAKE CITY, UT, 84104",624060691,"L"
153784,"288 S SAN GABRIEL BLVD STE 204","SAN GABRIEL","CA",91776,34.0993739150001,-118.09093349,284,"288 S SAN GABRIEL BLVD STE 204, SAN GABRIEL, CA, 91776","Match","Non_Exact","288 S SAN GABRIEL BLVD, SAN GABRIEL, CA, 91776",141634714,"L"
153785,"288 SOUTH MUNROE RD","TALLMADGE","OH",44278,41.092882386,-81.416113711,285,"288 SOUTH MUNROE RD, TALLMADGE, OH, 44278","Match","Exact","288 S MUNROE RD, TALLMADGE, OH, 44278",61352751,"R"
153786,"288 TOM HUNTER ROAD","FORT LEE","NJ",7024,40.8484122190001,-73.97405227,286,"288 TOM HUNTER ROAD, FORT LEE, NJ, 7024","Match","Exact","288 TOM HUNTER RD, FORT LEE, NJ, 07024",64391929,"L"
153787,"288 UPLAND AV","YOUNGSTOWN","OH",44504,41.13176574,-80.650689851,287,"288 UPLAND AV, YOUNGSTOWN, OH, 44504","Match","Exact","288 UPLAND AVE, YOUNGSTOWN, OH, 44504",64594118,"R"
153788,"288 W MERRITT AVE","MERRITT ISLAND","FL",32953,28.361433549,-80.693669547,288,"288 W MERRITT AVE, MERRITT ISLAND, FL, 32953","Match","Non_Exact","288 E MERRITT AVE, MERRITT ISLAND, FL, 32953",93894936,"L"
153789,"288 W SMOKETREE ST","APACHE JUNCTION","AZ",85120,33.4314054640001,-111.549455698,289,"288 W SMOKETREE ST, APACHE JUNCTION, AZ, 85120","Match","Exact","288 W SMOKETREE ST, APACHE JUNCTION, AZ, 85120",129305391,"R"
153790,"288 WEST ESSEX AVE","MEMPHIS","TN",38109,35.104419475,-90.07245785,290,"288 WEST ESSEX AVE, MEMPHIS, TN, 38109","Match","Exact","288 W ESSEX AVE, MEMPHIS, TN, 38109",72905858,"R"
153791,"288 WINDING WATERS CT","STONE MOUNTAIN","GA",30087,33.785583833,-84.095633579,291,"288 WINDING WATERS CT, STONE MOUNTAIN, GA, 30087","Match","Exact","288 WINDING WATERS CT, STONE MOUNTAIN, GA, 30087",23393733,"L"
153792,"2880 AMERICUS DR","THOMPSONS STATION","TN",37179,35.8302528040001,-86.890153353,292,"2880 AMERICUS DR, THOMPSONS STATION, TN, 37179","Match","Exact","2880 AMERICUS DR, THOMPSONS STATION, TN, 37179",648296730,"L"
153793,"2880 BICENTENNIAL PKWY STE 100-2012","HENDERSON","NV",89044,35.9411819680001,-115.116560873,293,"2880 BICENTENNIAL PKWY STE 100-2012, HENDERSON, NV, 89044","Match","Exact","2880 BICENTENNIAL PKWY, HENDERSON, NV, 89044",612989095,"R"
153794,"2880 CARROL ST","BONANZA","OR",97623,42.199895806,-121.408735236,294,"2880 CARROL ST, BONANZA, OR, 97623","Match","Exact","2880 CARROL ST, BONANZA, OR, 97623",156661733,"L"
153795,"2880 CLAREMONT DR","GRAND PRAIRIE","TX",75052,32.6678597370001,-97.055953944,295,"2880 CLAREMONT DR, GRAND PRAIRIE, TX, 75052","Match","Exact","2880 CLAREMONT DR, GRAND PRAIRIE, TX, 75052",102150992,"L"
153796,"2880 E CRESCENT WAY","GILBERT","AZ",85298,NA,NA,296,"2880 E CRESCENT WAY, GILBERT, AZ, 85298","Tie",NA,NA,NA,NA
153797,"2880 EAST 777TH RD","UTICA","IL",61373,41.3487929340001,-89.016564058,297,"2880 EAST 777TH RD, UTICA, IL, 61373","Match","Exact","2880 E 777TH RD, UTICA, IL, 61373",632703324,"R"
153798,"2880 N LONGHORN DR","TUCSON","AZ",85749,32.258798143,-110.748643175,298,"2880 N LONGHORN DR, TUCSON, AZ, 85749","Match","Exact","2880 N LONGHORN DR, TUCSON, AZ, 85749",121187729,"R"
153799,"2880 ORCHARD TRACE WAY","RALEIGH","NC",27610,35.7393094290001,-78.5883285149999,299,"2880 ORCHARD TRACE WAY, RALEIGH, NC, 27610","Match","Exact","2880 ORCHARD TRACE WAY, RALEIGH, NC, 27610",612825161,"R"
153800,"2880 SEVILLE RD","RITTMAN","OH",44270,41.0099870610001,-81.7917814419999,300,"2880 SEVILLE RD, RITTMAN, OH, 44270","Match","Exact","2880 SEVILLE RD, RITTMAN, OH, 44270",58677624,"R"
153801,"2880 TECHNOLOGY BLVD WEST  STE 159","BOZEMAN","MT",59718,NA,NA,301,"2880 TECHNOLOGY BLVD WEST  STE 159, BOZEMAN, MT, 59718","No_Match",NA,NA,NA,NA
153802,"2880 W DAVID HWY","IONIA","MI",48846,NA,NA,302,"2880 W DAVID HWY, IONIA, MI, 48846","Tie",NA,NA,NA,NA
153803,"2880 W OAKLAND PARK BLVD STE 215","OAKLAND PARK","FL",33311,26.165274938,-80.182597712,303,"2880 W OAKLAND PARK BLVD STE 215, OAKLAND PARK, FL, 33311","Match","Non_Exact","2880 W OAKLAND PARK BLVD, OAKLAND PARK, FL, 33311",637124576,"R"
153804,"28800 MICKLEY RD","DANVILLE","OH",43014,40.453172873,-82.222899666,304,"28800 MICKLEY RD, DANVILLE, OH, 43014","Match","Exact","28800 MICKLEY RD, DANVILLE, OH, 43014",24663671,"R"
153805,"28800 SHADOW VALLEY LANE","SANTA CLARITA","CA",91390,NA,NA,305,"28800 SHADOW VALLEY LANE, SANTA CLARITA, CA, 91390","No_Match",NA,NA,NA,NA
153806,"28802 BRIDGE WATER LN","MENIFEE","CA",92584,33.677269971,-117.156425903,306,"28802 BRIDGE WATER LN, MENIFEE, CA, 92584","Match","Exact","28802 BRIDGE WATER LN, MENIFEE, CA, 92584",194833871,"L"
153807,"28802 POWDER RIDGE DR","KATY","TX",77494,29.7539305540001,-95.867947891,307,"28802 POWDER RIDGE DR, KATY, TX, 77494","Match","Exact","28802 POWDER RIDGE DR, KATY, TX, 77494",641046924,"R"
153808,"28802 SILVERSMITH DRIVE","VALENCIA","CA",91354,34.45998723,-118.566781595,308,"28802 SILVERSMITH DRIVE, VALENCIA, CA, 91354","Match","Exact","28802 SILVERSMITH DR, VALENCIA, CA, 91354",627283739,"R"
153809,"28805 N 44TH ST","CAVE CREEK","AZ",85331,33.746739104,-111.986922795,309,"28805 N 44TH ST, CAVE CREEK, AZ, 85331","Match","Exact","28805 N 44TH ST, CAVE CREEK, AZ, 85331",128596895,"L"
153810,"2881 CR 4020","CROCKETT","TX",75835,31.2334334880001,-95.445762846,310,"2881 CR 4020, CROCKETT, TX, 75835","Match","Exact","2881 CO RD 4020, CROCKETT, TX, 75835",22004795,"R"
153811,"2881 EAST OAKLAND PARK BLVD STE 202","FORT LAUDERDALE","FL",33306,26.1675010110001,-80.106484467,311,"2881 EAST OAKLAND PARK BLVD STE 202, FORT LAUDERDALE, FL, 33306","Match","Non_Exact","2881 E OAKLAND PARK BLVD, FORT LAUDERDALE, FL, 33308",613988401,"L"
153812,"2881 GROOM RD","BAKER","LA",70714,30.5885880290001,-91.171218859,312,"2881 GROOM RD, BAKER, LA, 70714","Match","Exact","2881 GROOM RD, BAKER, LA, 70714",92177974,"L"
153813,"2881 JESSICA TAYLOR PLACE APT 202","FALLS CHURCH","VA",22042,38.873755384,-77.169783899,313,"2881 JESSICA TAYLOR PLACE APT 202, FALLS CHURCH, VA, 22042","Match","Exact","2881 JESSICA TAYLOR PL, FALLS CHURCH, VA, 22042",646882618,"L"
153814,"2881 PACIFIC HEIGHTS ROAD","HONOLULU","HI",96813,21.325379136,-157.839388248,314,"2881 PACIFIC HEIGHTS ROAD, HONOLULU, HI, 96813","Match","Exact","2881 PACIFIC HEIGHTS RD, HONOLULU, HI, 96813",203237029,"R"
153815,"2881 PANCOAST AVE","ASTON","PA",19014,39.858816275,-75.41866945,315,"2881 PANCOAST AVE, ASTON, PA, 19014","Match","Exact","2881 PANCOAST AVE, ASTON, PA, 19014",605244505,"R"
153816,"2881 PORTAGE TRAIL","ROCHESTER HILLS","MI",48309,42.6514663040001,-83.188857562,316,"2881 PORTAGE TRAIL, ROCHESTER HILLS, MI, 48309","Match","Non_Exact","2881 PORTAGE TRAIL DR, ROCHESTER HILLS, MI, 48309",69772565,"L"
153817,"2881 WEATHERSTONE CIRCLE","CONYERS","GA",30094,33.6256600400001,-84.0231594429999,317,"2881 WEATHERSTONE CIRCLE, CONYERS, GA, 30094","Match","Non_Exact","2881 WEATHERSTONE CIR SE, CONYERS, GA, 30094",645518668,"R"
153818,"2881 WRIGHT ST","SACRAMENTO","CA",95821,38.6175674460001,-121.406058547,318,"2881 WRIGHT ST, SACRAMENTO, CA, 95821","Match","Exact","2881 WRIGHT ST, SACRAMENTO, CA, 95821",133331012,"L"
153819,"28811 KEMPTOWN RD","DAMASCUS","MD",20872,39.329155717,-77.2138016609999,319,"28811 KEMPTOWN RD, DAMASCUS, MD, 20872","Match","Exact","28811 KEMPTOWN RD, DAMASCUS, MD, 20872",636221416,"R"
153820,"28811 WESTPORT WAY","LAGUNA NIGUEL","CA",92677,33.544652193,-117.718981354,320,"28811 WESTPORT WAY, LAGUNA NIGUEL, CA, 92677","Match","Exact","28811 WESTPORT WAY, LAGUNA NIGUEL, CA, 92677",144106813,"R"
153821,"28812 125TH PL SW","VASHON","WA",98070,47.34491367,-122.492276501,321,"28812 125TH PL SW, VASHON, WA, 98070","Match","Exact","28812 125TH PL SW, VASHON, WA, 98070",186619791,"R"
153822,"28812 ORANGE BERRY DR","WESLEY CHAPEL","FL",33543,NA,NA,322,"28812 ORANGE BERRY DR, WESLEY CHAPEL, FL, 33543","No_Match",NA,NA,NA,NA
153823,"28814 US HIGHWAY 385","OELRICHS","SD",57763,43.2304287910001,-103.284723906,323,"28814 US HIGHWAY 385, OELRICHS, SD, 57763","Match","Exact","28814 US HWY 385, OELRICHS, SD, 57763",646580695,"R"
153824,"28815 PACIFIC HWY S SUTIE 8","FEDERAL WAY","WA",98003,47.3431126680001,-122.312403522,324,"28815 PACIFIC HWY S SUTIE 8, FEDERAL WAY, WA, 98003","Match","Exact","28815 PACIFIC HWY S, FEDERAL WAY, WA, 98003",640606557,"R"
153825,"28816 N 49TH PLACE","CAVE CREEK","AZ",85331,33.742547438,-111.975455478,325,"28816 N 49TH PLACE, CAVE CREEK, AZ, 85331","Match","Exact","28816 N 49TH PL, CAVE CREEK, AZ, 85331",128842181,"R"
153826,"28818 TRACE VISTA CIR","HUFFMAN","TX",77336,30.083691113,-95.142091345,326,"28818 TRACE VISTA CIR, HUFFMAN, TX, 77336","Match","Exact","28818 TRACE VISTA CIR, HUFFMAN, TX, 77336",96669908,"R"
153827,"28819 BLACK ROCK AVE","WARSAW","MO",65355,38.265503005,-93.256745919,327,"28819 BLACK ROCK AVE, WARSAW, MO, 65355","Match","Exact","28819 BLACK ROCK AVE, WARSAW, MO, 65355",22675855,"L"
153828,"2882 BAILEY RD","CUYAHOGA FALLS","OH",44221,41.1514228080001,-81.480582854,328,"2882 BAILEY RD, CUYAHOGA FALLS, OH, 44221","Match","Exact","2882 BAILEY RD, CUYAHOGA FALLS, OH, 44221",61348544,"L"
153829,"2882 CAMDEN DRIVE","VISTA","CA",92081,33.1544970370001,-117.213794421,329,"2882 CAMDEN DRIVE, VISTA, CA, 92081","Match","Exact","2882 CAMDEN DR, VISTA, CA, 92081",195697552,"R"
153830,"2882 LUDLOW RD","CLEVELAND","OH",44120,41.480633396,-81.5884804039999,330,"2882 LUDLOW RD, CLEVELAND, OH, 44120","Match","Exact","2882 LUDLOW RD, CLEVELAND, OH, 44120",61122903,"R"
153831,"2882 N FEDERAL HWY","BOCA RATON","FL",33431,26.3775014570001,-80.076407317,331,"2882 N FEDERAL HWY, BOCA RATON, FL, 33431","Match","Exact","2882 N FEDERAL HWY, BOCA RATON, FL, 33431",115293633,"R"
153832,"2882 ROYAL OAKS DR","TALLAHASSEE","FL",32309,30.523546653,-84.2256659399999,332,"2882 ROYAL OAKS DR, TALLAHASSEE, FL, 32309","Match","Exact","2882 ROYAL OAKS DR, TALLAHASSEE, FL, 32309",82860594,"R"
153833,"2882 WINTERGREEN","FLORISSANT","MO",63033,38.8158495390001,-90.30012482,333,"2882 WINTERGREEN, FLORISSANT, MO, 63033","Match","Non_Exact","2882 WINTERGREEN DR, FLORISSANT, MO, 63033",100143754,"L"
153834,"28820 SOUTHFIELD RD","LATHRUP VILLAGE","MI",48190,NA,NA,334,"28820 SOUTHFIELD RD, LATHRUP VILLAGE, MI, 48190","No_Match",NA,NA,NA,NA
153835,"28821 OLD OWEN RD","MONROE","WA",98272,47.8634705710001,-121.843659457,335,"28821 OLD OWEN RD, MONROE, WA, 98272","Match","Exact","28821 OLD OWEN RD, MONROE, WA, 98272",627602482,"L"
153836,"28825 CULLEN DRIVE","ROMULUS","MI",48174,42.182073431,-83.322804006,336,"28825 CULLEN DRIVE, ROMULUS, MI, 48174","Match","Exact","28825 CULLEN DR, ROMULUS, MI, 48174",617843567,"L"
153837,"28829 PUJOL STREET","TEMECULA","CA",92590,33.487504012,-117.147366148,337,"28829 PUJOL STREET, TEMECULA, CA, 92590","Match","Exact","28829 PUJOL ST, TEMECULA, CA, 92590",194856070,"L"
153838,"2883 ALFRED COURT","OCEANSIDE","NY",11572,40.6382137840001,-73.618158335,338,"2883 ALFRED COURT, OCEANSIDE, NY, 11572","Match","Exact","2883 ALFRED CT, OCEANSIDE, NY, 11572",147637660,"L"
153839,"2883 BATTLECREST DRIVE","DECATUR","GA",30034,33.70319268,-84.292542457,339,"2883 BATTLECREST DRIVE, DECATUR, GA, 30034","Match","Exact","2883 BATTLECREST DR, DECATUR, GA, 30034",642671639,"R"
153840,"2883 LORETTO RD","JACKSONVILLE","FL",32223,30.160794519,-81.635043675,340,"2883 LORETTO RD, JACKSONVILLE, FL, 32223","Match","Exact","2883 LORETTO RD, JACKSONVILLE, FL, 32223",83949825,"L"
153841,"2883 PACES FERRY RD S","ORANGE PARK","FL",32073,30.147956981,-81.7350337999999,341,"2883 PACES FERRY RD S, ORANGE PARK, FL, 32073","Match","Exact","2883 PACES FERRY RD S, ORANGE PARK, FL, 32073",83814929,"L"
153842,"2883 SE OCEAN BLVD","STUART","FL",34996,27.196083034,-80.2172208009999,342,"2883 SE OCEAN BLVD, STUART, FL, 34996","Match","Exact","2883 SE OCEAN BLVD, STUART, FL, 34996",631517182,"R"
153843,"2883 SOUTH HILLS","RIVERDALE","GA",30296,33.561082249,-84.482350165,343,"2883 SOUTH HILLS, RIVERDALE, GA, 30296","Match","Exact","2883 S HILLS, RIVERDALE, GA, 30296",625040796,"L"
153844,"2883 SOUTH MENDENHALL ROAD SUITE 6","MEMPHIS","TN",38115,35.069763009,-89.885485363,344,"2883 SOUTH MENDENHALL ROAD SUITE 6, MEMPHIS, TN, 38115","Match","Exact","2883 S MENDENHALL RD, MEMPHIS, TN, 38115",72928098,"R"
153845,"2883 VALAISE PATH","LITHONIA","GA",30038,NA,NA,345,"2883 VALAISE PATH, LITHONIA, GA, 30038","No_Match",NA,NA,NA,NA
153846,"2883 WILLOW RUN","ORLANDO","FL",32808,28.580992495,-81.443934913,346,"2883 WILLOW RUN, ORLANDO, FL, 32808","Match","Exact","2883 WILLOW RUN, ORLANDO, FL, 32808",606104621,"R"
153847,"2883 WOLFGANG WAY","INDIANAPOLIS","IN",46239,39.727794535,-86.024271783,347,"2883 WOLFGANG WAY, INDIANAPOLIS, IN, 46239","Match","Exact","2883 WOLFGANG WAY, INDIANAPOLIS, IN, 46239",627343462,"R"
153848,"2883 WOLFSON CIRCLE","CORONA","CA",92879,33.903603133,-117.511449794,348,"2883 WOLFSON CIRCLE, CORONA, CA, 92879","Match","Exact","2883 WOLFSON CIR, CORONA, CA, 92879",618339997,"L"
153849,"28831 110 ST","WESTBORO","MO",64498,40.567720492,-95.321775313,349,"28831 110 ST, WESTBORO, MO, 64498","Match","Exact","28831 110 ST, WESTBORO, MO, 64498",601636864,"R"
153850,"28839 DETROIT RD","WESTLAKE","OH",44145,41.4649511920001,-81.941039791,350,"28839 DETROIT RD, WESTLAKE, OH, 44145","Match","Exact","28839 DETROIT RD, WESTLAKE, OH, 44145",61145212,"L"
153851,"2884 ANDERSON CIRCLE","SMYRNA","GA",30080,33.882475098,-84.5067713989999,351,"2884 ANDERSON CIRCLE, SMYRNA, GA, 30080","Match","Non_Exact","2884 ANDERSON CIR SE, SMYRNA, GA, 30080",636713361,"R"
153852,"2884 CONNALLY DR SW","ATLANTA","GA",30311,33.695184087,-84.482461003,352,"2884 CONNALLY DR SW, ATLANTA, GA, 30311","Match","Exact","2884 CONNALLY DR SW, ATLANTA, GA, 30311",17337701,"L"
153853,"2884 HWY HH","POPLAR BLUFF","MO",63901,36.623147375,-90.337819195,353,"2884 HWY HH, POPLAR BLUFF, MO, 63901","Match","Exact","2884 HWY HH, POPLAR BLUFF, MO, 63901",47393409,"R"
153854,"2884 LANDYNS CIR","FERNANDINA BEACH","FL",32034,30.6242241360001,-81.451798082,354,"2884 LANDYNS CIR, FERNANDINA BEACH, FL, 32034","Match","Exact","2884 LANDYNS CIR, FERNANDINA BCH, FL, 32034",646611826,"L"
153855,"2884 MISSION STREET","SAN FRANCISCO","CA",94110,37.7509613760001,-122.418325572,355,"2884 MISSION STREET, SAN FRANCISCO, CA, 94110","Match","Exact","2884 MISSION ST, SAN FRANCISCO, CA, 94110",192288352,"R"
153856,"2884 RIVER RD","DECATUR","GA",30034,33.6740898400001,-84.2744827239999,356,"2884 RIVER RD, DECATUR, GA, 30034","Match","Exact","2884 RIVER RD, DECATUR, GA, 30034",23395344,"L"
153857,"2884 SANDERSVILLE RD","LEXINGTON","KY",40511,38.097336205,-84.540115112,357,"2884 SANDERSVILLE RD, LEXINGTON, KY, 40511","Match","Exact","2884 SANDERSVILLE RD, LEXINGTON, KY, 40511",31944522,"R"
153858,"2884 STERLING PLACE","ALTADENA","CA",91001,34.194821797,-118.167180516,358,"2884 STERLING PLACE, ALTADENA, CA, 91001","Match","Exact","2884 STERLING PL, ALTADENA, CA, 91001",141626928,"R"
153859,"2884 TAYLOR HILL DRIVE","JACKSONVILLE","FL",32221,30.2648292420001,-81.8358469619999,359,"2884 TAYLOR HILL DRIVE, JACKSONVILLE, FL, 32221","Match","Exact","2884 TAYLOR HILL DR, JACKSONVILLE, FL, 32221",627394534,"R"
153860,"2884 TRADES WEST","SANTA FE","NM",87507,35.6602584180001,-105.993637038,360,"2884 TRADES WEST, SANTA FE, NM, 87507","Match","Non_Exact","2884 TRADES WEST RD, SANTA FE, NM, 87507",169376723,"L"
153861,"2884 TUMBLEWEED ST","ONTARIO","CA",91761,34.0053273890001,-117.58816649,361,"2884 TUMBLEWEED ST, ONTARIO, CA, 91761","Match","Exact","2884 TUMBLEWEED ST, ONTARIO, CA, 91761",144692640,"R"
153862,"2884 TUMBLEWEED STREET","ONTARIO","CA",91761,34.0053273890001,-117.58816649,362,"2884 TUMBLEWEED STREET, ONTARIO, CA, 91761","Match","Exact","2884 TUMBLEWEED ST, ONTARIO, CA, 91761",144692640,"R"
153863,"28847 PILGRIMS PASS","PASS","IL",60051,42.339360513,-88.195498115,363,"28847 PILGRIMS PASS, PASS, IL, 60051","Match","Non_Exact","28847 PILGRIMS PASS, LAKEMOOR, IL, 60051",119717285,"R"
153864,"2885 CASCADE SPRINGS DR SE","GRAND RAPIDS","MI",49546,42.9119384860001,-85.493650282,364,"2885 CASCADE SPRINGS DR SE, GRAND RAPIDS, MI, 49546","Match","Exact","2885 CASCADE SPRINGS DR SE, GRAND RAPIDS, MI, 49546",12440760,"L"
153865,"2885 CLAY AVE","SAN DIEGO","CA",92113,32.7032456860001,-117.132138573,365,"2885 CLAY AVE, SAN DIEGO, CA, 92113","Match","Exact","2885 CLAY AVE, SAN DIEGO, CA, 92113",195348042,"R"
153866,"2885 DODGE STREET","MILTON","FL",32583,30.5424758340001,-87.120717461,366,"2885 DODGE STREET, MILTON, FL, 32583","Match","Exact","2885 DODGE ST, MILTON, FL, 32583",74580347,"L"
153867,"2885 E QUAIL AVE SUITE 1001","LAS VEGAS","NV",89120,36.084526291,-115.111349757,367,"2885 E QUAIL AVE SUITE 1001, LAS VEGAS, NV, 89120","Match","Non_Exact","2885 E QUAIL AVE, LAS VEGAS, NV, 89120",201873136,"R"
153868,"2885 E QUAIL AVE","LAS VEGAS","NV",89120,36.084526291,-115.111349757,368,"2885 E QUAIL AVE, LAS VEGAS, NV, 89120","Match","Exact","2885 E QUAIL AVE, LAS VEGAS, NV, 89120",201873136,"R"
153869,"2885 EAST 3500 NORTH","TWINFALLS","ID",83301,42.505446437,-114.483821374,369,"2885 EAST 3500 NORTH, TWINFALLS, ID, 83301","Match","Non_Exact","2885 E 3500 N, TWIN FALLS, ID, 83301",649898598,"L"
153870,"2885 EASTLAKE DR SE","SALEM","OR",97306,44.8782869240001,-123.002356121,370,"2885 EASTLAKE DR SE, SALEM, OR, 97306","Match","Exact","2885 EASTLAKE DR SE, SALEM, OR, 97306",156273103,"L"
153871,"2885 EL CAPITAN DRIVE","COLORADO SPRINGS","CO",80918,38.90932222,-104.772295844,371,"2885 EL CAPITAN DRIVE, COLORADO SPRINGS, CO, 80918","Match","Exact","2885 EL CAPITAN DR, COLORADO SPRINGS, CO, 80918",610705253,"R"
153872,"2885 LINDALE MOUNT HOLLY RD","AMELIA","OH",45102,38.994335607,-84.19042296,372,"2885 LINDALE MOUNT HOLLY RD, AMELIA, OH, 45102","Match","Non_Exact","2885 LINDALE-MT HOLLY RD, AMELIA, OH, 45102",118455685,"L"
153873,"2885 MAIN STREET SUITE 105","BUFFALO","NY",14214,42.9444086230001,-78.8334046159999,373,"2885 MAIN STREET SUITE 105, BUFFALO, NY, 14214","Match","Exact","2885 MAIN ST, BUFFALO, NY, 14214",645761374,"R"
153874,"2885 N DAYTON LAKEVIEW RD","NEW CARLISLE","OH",45344,39.9701630060001,-84.006679116,374,"2885 N DAYTON LAKEVIEW RD, NEW CARLISLE, OH, 45344","Match","Non_Exact","2885 N DAYTON-LAKEVIEW RD, NEW CARLISLE, OH, 45344",636708859,"L"
153875,"2885 N PRICE RD","CHANDLER","AZ",85224,33.3480566040001,-111.893133515,375,"2885 N PRICE RD, CHANDLER, AZ, 85224","Match","Exact","2885 N PRICE RD, CHANDLER, AZ, 85224",640591486,"R"
153876,"2885 RED LION SQUARE","WINTER PARK","FL",32792,28.6267902860001,-81.325710172,376,"2885 RED LION SQUARE, WINTER PARK, FL, 32792","Match","Exact","2885 RED LION SQ, WINTER PARK, FL, 32792",93744642,"L"
153877,"2885 RED SPRINGS DRIVE","LAS VEGAS","NV",89135,36.136958393,-115.337435291,377,"2885 RED SPRINGS DRIVE, LAS VEGAS, NV, 89135","Match","Exact","2885 RED SPRINGS DR, LAS VEGAS, NV, 89135",201992362,"L"
153878,"2885 S GRAHAM ROAD","SAGINAW","MI",48609,43.382031118,-84.131051551,378,"2885 S GRAHAM ROAD, SAGINAW, MI, 48609","Match","Exact","2885 S GRAHAM RD, SAGINAW, MI, 48609",80221501,"R"
153879,"2885 SANFORD AVE 19675","GRANDVILLE","MI",49418,42.911449265,-85.7547547309999,379,"2885 SANFORD AVE 19675, GRANDVILLE, MI, 49418","Match","Non_Exact","2885 SANFORD AVE SW, GRANDVILLE, MI, 49418",12502555,"R"
153880,"2885 SANFORD AVE STE 17635","GRAND RAPIDS","MI",49418,NA,NA,380,"2885 SANFORD AVE STE 17635, GRAND RAPIDS, MI, 49418","No_Match",NA,NA,NA,NA
153881,"2885 SANFORD AVE SW STE 18000","GRANDVILLE","MI",49418,42.911449265,-85.7547547309999,381,"2885 SANFORD AVE SW STE 18000, GRANDVILLE, MI, 49418","Match","Exact","2885 SANFORD AVE SW, GRANDVILLE, MI, 49418",12502555,"R"
153882,"2885 SANFORD AVE SW STE 18047","GRANDVILLE","MI",49418,42.911449265,-85.7547547309999,382,"2885 SANFORD AVE SW STE 18047, GRANDVILLE, MI, 49418","Match","Exact","2885 SANFORD AVE SW, GRANDVILLE, MI, 49418",12502555,"R"
153883,"2885 SANFORD AVE SW SUITE 32361","GRANDVILLE","MI",49418,42.911449265,-85.7547547309999,383,"2885 SANFORD AVE SW SUITE 32361, GRANDVILLE, MI, 49418","Match","Exact","2885 SANFORD AVE SW, GRANDVILLE, MI, 49418",12502555,"R"
153884,"2885 SANFORD AVE SW UNIT 25803","GRANDVILLE","MI",49418,42.911449265,-85.7547547309999,384,"2885 SANFORD AVE SW UNIT 25803, GRANDVILLE, MI, 49418","Match","Exact","2885 SANFORD AVE SW, GRANDVILLE, MI, 49418",12502555,"R"
153885,"2885 SANFORD AVENUE SW 28310","GRANDVILLE","MI",49418,42.911449265,-85.7547547309999,385,"2885 SANFORD AVENUE SW 28310, GRANDVILLE, MI, 49418","Match","Exact","2885 SANFORD AVE SW, GRANDVILLE, MI, 49418",12502555,"R"
153886,"2885 TODD STREET","OCEANSIDE","CA",92054,33.2084295440001,-117.349186211,386,"2885 TODD STREET, OCEANSIDE, CA, 92054","Match","Exact","2885 TODD ST, OCEANSIDE, CA, 92054",195412526,"L"
153887,"2885 VOORHEIS RD","WATERFORD","MI",48328,42.638894857,-83.3423222169999,387,"2885 VOORHEIS RD, WATERFORD, MI, 48328","Match","Exact","2885 VOORHEIS RD, WATERFORD, MI, 48328",69702707,"L"
153888,"2885 W RICK DR","PORT HURON","MI",48060,42.9524508920001,-82.4396928909999,388,"2885 W RICK DR, PORT HURON, MI, 48060","Match","Exact","2885 W RICK DR, PORT HURON, MI, 48060",110977092,"R"
153889,"28850 VALLEJO AVE","TEMECULA","CA",92592,33.4863779950001,-117.138353054,389,"28850 VALLEJO AVE, TEMECULA, CA, 92592","Match","Exact","28850 VALLEJO AVE, TEMECULA, CA, 92592",194782819,"R"
153890,"28851 LAHSER APT 103","SOUTHFIELD","MI",48034,42.500684935,-83.2619549519999,390,"28851 LAHSER APT 103, SOUTHFIELD, MI, 48034","Match","Non_Exact","28851 LAHSER RD, SOUTHFIELD, MI, 48034",69730503,"L"
153891,"28854 HERNDONWOOD DR","FARMINGTON HILLS","MI",48334,42.498651523,-83.323010541,391,"28854 HERNDONWOOD DR, FARMINGTON HILLS, MI, 48334","Match","Exact","28854 HERNDONWOOD DR, FARMINGTON HILLS, MI, 48334",69776637,"R"
153892,"28854 WESTERN DR","EVERGREEN","CO",80439,39.6423515110001,-105.326668202,392,"28854 WESTERN DR, EVERGREEN, CO, 80439","Match","Exact","28854 WESTERN DR, EVERGREEN, CO, 80439",177758672,"L"
153893,"2886 8TH STREET","EAST POINT","GA",30344,33.6758334740001,-84.451918969,393,"2886 8TH STREET, EAST POINT, GA, 30344","Match","Exact","2886 8TH ST, EAST POINT, GA, 30344",17347760,"L"
153894,"2886 DUNLAP LN SE","ROCHESTER","MN",55904,43.9781973660001,-92.421592133,394,"2886 DUNLAP LN SE, ROCHESTER, MN, 55904","Match","Exact","2886 DUNLAP LN SE, ROCHESTER, MN, 55904",650659953,"R"
153895,"2886 HORIZON TRAIL","NEW LENOX","IL",60451,41.471160663,-87.976532375,395,"2886 HORIZON TRAIL, NEW LENOX, IL, 60451","Match","Exact","2886 HORIZON TRL, NEW LENOX, IL, 60451",111630951,"L"
153896,"2886 SANDY PLAINS ROAD  BOX 669723","MARIETTA","GA",30066,34.0207105750001,-84.489417772,396,"2886 SANDY PLAINS ROAD  BOX 669723, MARIETTA, GA, 30066","Match","Exact","2886 SANDY PLAINS RD, MARIETTA, GA, 30066",652698498,"R"
153897,"2886 SANDY SPRINGS RD UNIT 965072","MARIETTA","GA",30066,NA,NA,397,"2886 SANDY SPRINGS RD UNIT 965072, MARIETTA, GA, 30066","No_Match",NA,NA,NA,NA
153898,"2886 SNAPFINGER MANOR","DECATUR","GA",30035,33.704630455,-84.194538665,398,"2886 SNAPFINGER MANOR, DECATUR, GA, 30035","Match","Exact","2886 SNAPFINGER MANOR, DECATUR, GA, 30035",649758138,"L"
153899,"2886 SW BERWICK DRIVE","OAK HARBOR","WA",98277,NA,NA,399,"2886 SW BERWICK DRIVE, OAK HARBOR, WA, 98277","No_Match",NA,NA,NA,NA
153900,"2886 TAMIAMI TRAIL STE 10","PORT CHARLOTTE","FL",33952,26.9885494910001,-82.107617951,400,"2886 TAMIAMI TRAIL STE 10, PORT CHARLOTTE, FL, 33952","Match","Exact","2886 TAMIAMI TRL, PORT CHARLOTTE, FL, 33952",4350771,"L"
153901,"28861 SELFRIDGE DRIVE","MALIBU","CA",90265,34.018469285,-118.800621117,401,"28861 SELFRIDGE DRIVE, MALIBU, CA, 90265","Match","Exact","28861 SELFRIDGE DR, MALIBU, CA, 90265",647636973,"L"
153902,"28863 HORSETAIL CIRCLE","MENIFEE","CA",92585,NA,NA,402,"28863 HORSETAIL CIRCLE, MENIFEE, CA, 92585","No_Match",NA,NA,NA,NA
153903,"28865 PIKE VIEW FARM CIR","ELIZABETH","CO",80107,39.283476024,-104.650858607,403,"28865 PIKE VIEW FARM CIR, ELIZABETH, CO, 80107","Match","Exact","28865 PIKE VIEW FARM CIR, ELIZABETH, CO, 80107",634644344,"R"
153904,"2887 ARROYO LANE","GILBERT","AZ",85295,33.2985892250001,-111.710349451,404,"2887 ARROYO LANE, GILBERT, AZ, 85295","Match","Non_Exact","2887 S ARROYO LN, GILBERT, AZ, 85295",641069989,"R"
153905,"2887 CREOLE LANDING","LITHONIA","GA",30038,33.7008081430001,-84.188666729,405,"2887 CREOLE LANDING, LITHONIA, GA, 30038","Match","Non_Exact","2887 CREOLE PATH, LITHONIA, GA, 30038",642388524,"R"
153906,"2887 ESCALA CIRCLE","SAN DIEGO","CA",92108,32.781498743,-117.132842507,406,"2887 ESCALA CIRCLE, SAN DIEGO, CA, 92108","Match","Exact","2887 ESCALA CIR, SAN DIEGO, CA, 92108",647648932,"R"
153907,"2887 N GREELEY RD","ARENZVILLE","IL",62611,39.913775048,-90.304024268,407,"2887 N GREELEY RD, ARENZVILLE, IL, 62611","Match","Exact","2887 N GREELEY RD, ARENZVILLE, IL, 62611",53138446,"L"
153908,"2887 SANDHURST DR","LEWIS CENTER","OH",43035,40.1946877010001,-82.98599257,408,"2887 SANDHURST DR, LEWIS CENTER, OH, 43035","Match","Exact","2887 SANDHURST DR, LEWIS CENTER, OH, 43035",640602997,"L"
153909,"2887 W 12075 SO","RIVERTON","UT",84065,40.532024531,-111.961588298,409,"2887 W 12075 SO, RIVERTON, UT, 84065","Match","Exact","2887 W 12075 S, RIVERTON, UT, 84065",176139986,"L"
153910,"28871 EL APAJO","LAGUNA NIGUEL","CA",92677,33.54349497,-117.699866908,410,"28871 EL APAJO, LAGUNA NIGUEL, CA, 92677","Match","Exact","28871 EL APAJO, LAGUNA NIGUEL, CA, 92677",144386364,"L"
153911,"28871 TWIN OAKS VALLEY RD","VISTA","CA",92084,33.2367651700001,-117.178737298,411,"28871 TWIN OAKS VALLEY RD, VISTA, CA, 92084","Match","Exact","28871 TWIN OAKS VALLEY RD, VISTA, CA, 92084",653162676,"L"
153912,"28871 VIA BUENA VISTA","SAN JUAN CAPISTRANO","CA",92675,33.5092343380001,-117.627500621,412,"28871 VIA BUENA VISTA, SAN JUAN CAPISTRANO, CA, 92675","Match","Exact","28871 VIA BUENA VIS, SAN JUAN CAPISTRANO, CA, 92675",144114675,"L"
153913,"28873 E 800 NORTH ROAD","ELLSWORTH","IL",61737,40.398826381,-88.707320248,413,"28873 E 800 NORTH ROAD, ELLSWORTH, IL, 61737","Match","Exact","28873 E 800 NORTH RD, ELLSWORTH, IL, 61737",20591626,"L"
153914,"28873 N 111TH PLACE","SCOTTSDALE","AZ",85262,33.747493675,-111.840296666,414,"28873 N 111TH PLACE, SCOTTSDALE, AZ, 85262","Match","Exact","28873 N 111TH PL, SCOTTSDALE, AZ, 85262",128587250,"R"
153915,"28876 DAHLIA STREET NW","ISANTI","MN",55040,45.491400195,-93.3376997,415,"28876 DAHLIA STREET NW, ISANTI, MN, 55040","Match","Non_Exact","28876 DAHLIA LN NW, ISANTI, MN, 55040",97622521,"L"
153916,"28877 PUJOL ST APT 1518","TEMECULA","CA",92590,33.486022281,-117.146851143,416,"28877 PUJOL ST APT 1518, TEMECULA, CA, 92590","Match","Exact","28877 PUJOL ST, TEMECULA, CA, 92590",194856070,"L"
153917,"2888 B RINGLING BLVD","SARASOTA","FL",34237,27.336459581,-82.512120436,417,"2888 B RINGLING BLVD, SARASOTA, FL, 34237","Match","Exact","2888 RINGLING BLVD, SARASOTA, FL, 34237",16351534,"R"
153918,"2888 BROWN DEER CT","PICKERINGTON","OH",43147,39.925195703,-82.801631621,418,"2888 BROWN DEER CT, PICKERINGTON, OH, 43147","Match","Exact","2888 BROWN DEER CT, PICKERINGTON, OH, 43147",37234809,"L"
153919,"2888 CRESCENT AVE","EUGENE","OR",97408,44.0921056880001,-123.060991865,419,"2888 CRESCENT AVE, EUGENE, OR, 97408","Match","Exact","2888 CRESCENT AVE, EUGENE, OR, 97408",605304200,"R"
153920,"2888 E RACQUET CT","TUCSON","AZ",85716,32.2798405950001,-110.929937802,420,"2888 E RACQUET CT, TUCSON, AZ, 85716","Match","Exact","2888 E RACQUET CT, TUCSON, AZ, 85716",121394590,"R"
153921,"2888 EAST HYLAND HILLS ROAD","SALT LAKE CITY","UT",84109,40.724977612,-111.807043574,421,"2888 EAST HYLAND HILLS ROAD, SALT LAKE CITY, UT, 84109","Match","Non_Exact","2888 HYLAND HILLS RD, SALT LAKE CITY, UT, 84109",176093950,"R"
153922,"2888 LOKER AVE EAST STE 105","CARLSBAD","CA",92010,33.132764691,-117.250334805,422,"2888 LOKER AVE EAST STE 105, CARLSBAD, CA, 92010","Match","Exact","2888 LOKER AVE E, CARLSBAD, CA, 92010",195403770,"L"
153923,"2888 LOKER AVE EAST SUITE 111","CARLSBAD","CA",92010,33.132764691,-117.250334805,423,"2888 LOKER AVE EAST SUITE 111, CARLSBAD, CA, 92010","Match","Exact","2888 LOKER AVE E, CARLSBAD, CA, 92010",195403770,"L"
153924,"2888 LOKER AVENUE EAST STE 120","CARLSBAD","CA",92010,33.132764691,-117.250334805,424,"2888 LOKER AVENUE EAST STE 120, CARLSBAD, CA, 92010","Match","Exact","2888 LOKER AVE E, CARLSBAD, CA, 92010",195403770,"L"
153925,"2888 MCINTIRE RD","MORROW","OH",45152,39.3327022820001,-84.1614350139999,425,"2888 MCINTIRE RD, MORROW, OH, 45152","Match","Exact","2888 MCINTIRE RD, MORROW, OH, 45152",159015322,"R"
153926,"2888 MEDLIN DRIVE","ARLINGTON","TX",76015,32.6982763340001,-97.127957985,426,"2888 MEDLIN DRIVE, ARLINGTON, TX, 76015","Match","Exact","2888 MEDLIN DR, ARLINGTON, TX, 76015",642845001,"R"
153927,"2888 MOUNTAIN VIEW","SAN BERNARDINO","CA",92405,NA,NA,427,"2888 MOUNTAIN VIEW, SAN BERNARDINO, CA, 92405","No_Match",NA,NA,NA,NA
153928,"2888 SALAMANDER CREEK LANE","NORTH CHARLESTON","SC",29406,32.9679467890001,-80.068125932,428,"2888 SALAMANDER CREEK LANE, NORTH CHARLESTON, SC, 29406","Match","Exact","2888 SALAMANDER CREEK LN, N CHARLESTON, SC, 29406",647986731,"R"
153929,"2888 SUTTONWOOD WAY","BUFORD","GA",30519,34.0909083650001,-83.904330946,429,"2888 SUTTONWOOD WAY, BUFORD, GA, 30519","Match","Non_Exact","2888 SUTTONWOOD WAY NE, BUFORD, GA, 30519",624772352,"L"
153930,"2888 W DIAGONAL ROAD","RATHDRUM","ID",83858,47.8559836370001,-116.822432315,430,"2888 W DIAGONAL ROAD, RATHDRUM, ID, 83858","Match","Exact","2888 W DIAGONAL RD, RATHDRUM, ID, 83858",618106847,"R"
153931,"28881 HILLAIRE STREET","EUGENE","OR",97402,44.0719741190001,-123.211685095,431,"28881 HILLAIRE STREET, EUGENE, OR, 97402","Match","Exact","28881 HILLAIRE ST, EUGENE, OR, 97402",178230008,"L"
153932,"28883 GRANITE PEAK LANE","GOLDEN","CO",80403,39.9057109070001,-105.3296629,432,"28883 GRANITE PEAK LANE, GOLDEN, CO, 80403","Match","Exact","28883 GRANITE PEAK LN, GOLDEN, CO, 80403",177786558,"R"
153933,"28889 53RD DRIVE","BRANFORD","FL",32008,29.9230686440001,-82.853943268,433,"28889 53RD DRIVE, BRANFORD, FL, 32008","Match","Exact","28889 53RD DR, BRANFORD, FL, 32008",41107233,"L"
153934,"2889 BELLAROSA CIR","ROYAL PALM BEACH","FL",33411,26.7145285400001,-80.206553419,434,"2889 BELLAROSA CIR, ROYAL PALM BEACH, FL, 33411","Match","Exact","2889 BELLAROSA CIR, ROYAL PALM BEACH, FL, 33411",640946406,"L"
153935,"2889 MARKBREIT AVE","CINCINNATI","OH",45209,39.151784676,-84.435609723,435,"2889 MARKBREIT AVE, CINCINNATI, OH, 45209","Match","Exact","2889 MARKBREIT AVE, CINCINNATI, OH, 45209",103930955,"R"
153936,"2889 MAYFIELD ROAD","WARRIOR","AL",35180,33.8003475310001,-86.931268245,436,"2889 MAYFIELD ROAD, WARRIOR, AL, 35180","Match","Exact","2889 MAYFIELD RD, WARRIOR, AL, 35180",627939474,"R"
153937,"2889 OAKWOOD DR","WILLOUGHBY HILLS","OH",44094,41.582740475,-81.455385424,437,"2889 OAKWOOD DR, WILLOUGHBY HILLS, OH, 44094","Match","Exact","2889 OAKWOOD DR, WILLOUGHBY HILLS, OH, 44094",137472771,"L"
153938,"2889 PLAZA DEL AMO - UNIT 607","TORRANCE","CA",90503,33.8269506440001,-118.336751757,438,"2889 PLAZA DEL AMO - UNIT 607, TORRANCE, CA, 90503","Match","Non_Exact","2889 PLZ DEL AMO, TORRANCE, CA, 90503",142854388,"L"
153939,"2889 PLAZA DEL AMO UNIT 803","TORRANCE","CA",90503,33.8269506440001,-118.336751757,439,"2889 PLAZA DEL AMO UNIT 803, TORRANCE, CA, 90503","Match","Non_Exact","2889 PLZ DEL AMO, TORRANCE, CA, 90503",142854388,"L"
153940,"2889 PONTIAC DR APT 427","AURORA","IL",60502,NA,NA,440,"2889 PONTIAC DR APT 427, AURORA, IL, 60502","No_Match",NA,NA,NA,NA
153941,"2889 SUMMIT CREST COURT","SNELLVILLE","GA",30078,33.8547940710001,-83.9811267859999,441,"2889 SUMMIT CREST COURT, SNELLVILLE, GA, 30078","Match","Exact","2889 SUMMIT CREST CT, SNELLVILLE, GA, 30078",88922228,"L"
153942,"2889 W 5TH ST STE 103","OXNARD","CA",93030,NA,NA,442,"2889 W 5TH ST STE 103, OXNARD, CA, 93030","No_Match",NA,NA,NA,NA
153943,"28894 CONEJO VIEW DRIVE","AGOURA HILLS","CA",91301,34.1497280020001,-118.754825326,443,"28894 CONEJO VIEW DRIVE, AGOURA HILLS, CA, 91301","Match","Exact","28894 CONEJO VIEW DR, AGOURA HILLS, CA, 91301",142786179,"R"
153944,"289 BOB G HUGHES BLVD","HARVEST","AL",35749,34.7928401280001,-86.782673598,444,"289 BOB G HUGHES BLVD, HARVEST, AL, 35749","Match","Exact","289 BOB G HUGHES BLVD, HARVEST, AL, 35749",58158783,"R"
153945,"289 BURGESS AVE","DAYTON","OH",45415,39.8296061680001,-84.2348712089999,445,"289 BURGESS AVE, DAYTON, OH, 45415","Match","Exact","289 BURGESS AVE, DAYTON, OH, 45415",143565342,"L"
153946,"289 CACTUS WREN LOOP","NEW BRAUNFELS","TX",78130,29.7201981110001,-98.079146566,446,"289 CACTUS WREN LOOP, NEW BRAUNFELS, TX, 78130","Match","Exact","289 CACTUS WREN LOOP, NEW BRAUNFELS, TX, 78130",651001886,"R"
153947,"289 CAPTAIN HM SHREVE BLVD","SHREVEPORT","LA",71115,32.432889505,-93.683476157,447,"289 CAPTAIN HM SHREVE BLVD, SHREVEPORT, LA, 71115","Match","Exact","289 CAPTAIN HM SHREVE BLVD, SHREVEPORT, LA, 71115",646624916,"L"
153948,"289 CASTLE HILL RANCH ROAD","WALNUT CREEK","CA",94595,37.8676092260001,-122.055364827,448,"289 CASTLE HILL RANCH ROAD, WALNUT CREEK, CA, 94595","Match","Exact","289 CASTLE HILL RANCH RD, WALNUT CREEK, CA, 94595",607892736,"R"
153949,"289 CLIFFHAVEN CIRCLE","NEWNAN","GA",30263,33.3759988790001,-84.7733139219999,449,"289 CLIFFHAVEN CIRCLE, NEWNAN, GA, 30263","Match","Exact","289 CLIFFHAVEN CIR, NEWNAN, GA, 30263",645781637,"L"
153950,"289 DEWITT ST","BUFFALO","NY",14213,42.924628673,-78.894708873,450,"289 DEWITT ST, BUFFALO, NY, 14213","Match","Exact","289 DEWITT ST, BUFFALO, NY, 14213",48288766,"R"
153951,"289 DOBBS FERRY RD","WHITE PLAINS","NY",10607,41.0377962750001,-73.806609612,451,"289 DOBBS FERRY RD, WHITE PLAINS, NY, 10607","Match","Exact","289 DOBBS FERRY RD, WHITE PLAINS, NY, 10607",635852028,"R"
153952,"289 DRIFTWOOD LN","EDISTO ISLAND","SC",29438,32.488978762,-80.332224737,452,"289 DRIFTWOOD LN, EDISTO ISLAND, SC, 29438","Match","Exact","289 DRIFTWOOD LN, EDISTO ISLAND, SC, 29438",19165744,"L"
153953,"289 EAGLE FORK TERRACE","HAYESVILLE","NC",28904,35.0077476010001,-83.628086353,453,"289 EAGLE FORK TERRACE, HAYESVILLE, NC, 28904","Match","Exact","289 EAGLE FORK TER, HAYESVILLE, NC, 28904",608043670,"L"
153954,"289 EAST PIKE RD","INDIANA","PA",15701,40.6214665360001,-79.133565538,454,"289 EAST PIKE RD, INDIANA, PA, 15701","Match","Exact","289 E PIKE RD, INDIANA, PA, 15701",66289959,"R"
153955,"289 GARDEN STREET","ENGLEWOOD","NJ",7631,40.894521764,-73.988890538,455,"289 GARDEN STREET, ENGLEWOOD, NJ, 7631","Match","Exact","289 GARDEN ST, ENGLEWOOD, NJ, 07631",64372935,"R"
153956,"289 GIRARD STREET APT D","HAVRE DE GRACE","MD",21078,39.5446104660001,-76.087097887,456,"289 GIRARD STREET APT D, HAVRE DE GRACE, MD, 21078","Match","Exact","289 GIRARD ST, HAVRE DE GRACE, MD, 21078",636848094,"L"
153957,"289 GOLF COURSE RD","MADISON","ME",4950,44.830814849,-69.7927439329999,457,"289 GOLF COURSE RD, MADISON, ME, 4950","Match","Non_Exact","289 GOLFCOURSE RD, MADISON, ME, 04950",632932910,"L"
153958,"289 GORDON STREET","JEFFERSON","GA",30549,34.113952924,-83.570728222,458,"289 GORDON STREET, JEFFERSON, GA, 30549","Match","Exact","289 GORDON ST, JEFFERSON, GA, 30549",647512567,"R"
153959,"289 GORGE ROAD ROOM 73","CLIFFSIDE PARK","NJ",7010,40.8138795840001,-73.990132719,459,"289 GORGE ROAD ROOM 73, CLIFFSIDE PARK, NJ, 7010","Match","Exact","289 GORGE RD, CLIFFSIDE PARK, NJ, 07010",64391615,"L"
153960,"289 GREAT BARRINGTON RD","WEST STOCKBRIDGE","MA",1266,NA,NA,460,"289 GREAT BARRINGTON RD, WEST STOCKBRIDGE, MA, 1266","No_Match",NA,NA,NA,NA
153961,"289 HARRISON AVE APT 3","ST PAUL","MN",55102,44.93957449,-93.1121395759999,461,"289 HARRISON AVE APT 3, ST PAUL, MN, 55102","Match","Non_Exact","289 W HARRISON AVE, SAINT PAUL, MN, 55102",97648005,"R"
153962,"289 HAWTHORNE DR","BUCKHANNON","WV",26201,NA,NA,462,"289 HAWTHORNE DR, BUCKHANNON, WV, 26201","No_Match",NA,NA,NA,NA
153963,"289 HIGH STREET","PERTH AMBOY","NJ",8861,40.5075062270001,-74.2654440009999,463,"289 HIGH STREET, PERTH AMBOY, NJ, 8861","Match","Exact","289 HIGH ST, PERTH AMBOY, NJ, 08861",60281263,"L"
153964,"289 HORSESHOE LAKE ROAD","LINCOLNTON","NC",28092,35.5145928480001,-81.2314798209999,464,"289 HORSESHOE LAKE ROAD, LINCOLNTON, NC, 28092","Match","Exact","289 HORSESHOE LAKE RD, LINCOLNTON, NC, 28092",640432327,"L"
153965,"289 JONESBORO RD STE 168","MCDONOUGH","GA",30253,33.4539674330001,-84.168096352,465,"289 JONESBORO RD STE 168, MCDONOUGH, GA, 30253","Match","Exact","289 JONESBORO RD, MCDONOUGH, GA, 30253",638989010,"R"
153966,"289 JONESBORO RD STE 709","MCDONOUGH","GA",30253,33.4539674330001,-84.168096352,466,"289 JONESBORO RD STE 709, MCDONOUGH, GA, 30253","Match","Exact","289 JONESBORO RD, MCDONOUGH, GA, 30253",638989010,"R"
153967,"289 JONESBORO RD SUITE 455","MCDONOUGH","GA",30253,33.4539674330001,-84.168096352,467,"289 JONESBORO RD SUITE 455, MCDONOUGH, GA, 30253","Match","Exact","289 JONESBORO RD, MCDONOUGH, GA, 30253",638989010,"R"
153968,"289 JONESBORO ROAD 440","MCDONOUGH","GA",30253,33.4539674330001,-84.168096352,468,"289 JONESBORO ROAD 440, MCDONOUGH, GA, 30253","Match","Exact","289 JONESBORO RD, MCDONOUGH, GA, 30253",638989010,"R"
153969,"289 JONESBORO ROAD SUITE 461","MCDONOUGH","GA",30253,33.4539674330001,-84.168096352,469,"289 JONESBORO ROAD SUITE 461, MCDONOUGH, GA, 30253","Match","Exact","289 JONESBORO RD, MCDONOUGH, GA, 30253",638989010,"R"
153970,"289 JONESBORO ROAD SUITE 728","MCDONOUGH","GA",30253,33.4539674330001,-84.168096352,470,"289 JONESBORO ROAD SUITE 728, MCDONOUGH, GA, 30253","Match","Exact","289 JONESBORO RD, MCDONOUGH, GA, 30253",638989010,"R"
153971,"289 KENSINGTON LANE","ALABASTER","AL",35007,33.2322908260001,-86.846905868,471,"289 KENSINGTON LANE, ALABASTER, AL, 35007","Match","Exact","289 KENSINGTON LN, ALABASTER, AL, 35007",627755320,"L"
153972,"289 LAFAYETTE ROAD","HAMPTON","NH",3842,42.935702011,-70.838329825,472,"289 LAFAYETTE ROAD, HAMPTON, NH, 3842","Match","Exact","289 LAFAYETTE RD, HAMPTON, NH, 03842",113675903,"L"
153973,"289 LAFONTENAY DR","LOUISVILLE","KY",40223,NA,NA,473,"289 LAFONTENAY DR, LOUISVILLE, KY, 40223","No_Match",NA,NA,NA,NA
153974,"289 LAWRENCE ROAD","TRUMBULL","CT",6611,41.237633723,-73.199993944,474,"289 LAWRENCE ROAD, TRUMBULL, CT, 6611","Match","Exact","289 LAWRENCE RD, TRUMBULL, CT, 06611",3222245,"L"
153975,"289 LORAINE DR APT 254 BUILDING 5","ALTAMONTE SPRINGS","FL",32714,28.6677439900001,-81.3937734519999,475,"289 LORAINE DR APT 254 BUILDING 5, ALTAMONTE SPRINGS, FL, 32714","Match","Exact","289 LORAINE DR, ALTAMONTE SPRINGS, FL, 32714",651764202,"R"
153976,"289 MANASSAS DRIVE","MANASSAS PARK","VA",20111,38.784025894,-77.4693898049999,476,"289 MANASSAS DRIVE, MANASSAS PARK, VA, 20111","Match","Exact","289 MANASSAS DR, MANASSAS PARK, VA, 20111",76504603,"L"
153977,"289 MARTOM RD","WYCKOFF","NJ",7481,41.0045282190001,-74.1662611309999,477,"289 MARTOM RD, WYCKOFF, NJ, 7481","Match","Exact","289 MARTOM RD, WYCKOFF, NJ, 07481",64402821,"L"
153978,"289 MESEROLE ST STE 206","BROOKLYN","NY",11206,40.708654655,-73.9372927869999,478,"289 MESEROLE ST STE 206, BROOKLYN, NY, 11206","Match","Exact","289 MESEROLE ST, BROOKLYN, NY, 11206",59077354,"L"
153979,"289 MORTON ST","STOUGHTON","MA",2072,42.115611705,-71.106044861,479,"289 MORTON ST, STOUGHTON, MA, 2072","Match","Exact","289 MORTON ST, STOUGHTON, MA, 02072",87267311,"R"
153980,"289 N WYCOMBE AVE","LANSDOWNE","PA",19050,39.949822512,-75.267868301,480,"289 N WYCOMBE AVE, LANSDOWNE, PA, 19050","Match","Exact","289 N WYCOMBE AVE, LANSDOWNE, PA, 19050",134877792,"R"
153981,"289 OCEAN COVE LANE","PORT ANGELES","WA",98363,48.1545786900001,-123.651603506,481,"289 OCEAN COVE LANE, PORT ANGELES, WA, 98363","Match","Exact","289 OCEAN COVE LN, PORT ANGELES, WA, 98363",150874438,"L"
153982,"289 OLD SUBSTATION ROAD","FORESTVILLE","WI",54213,44.683678694,-87.438312764,482,"289 OLD SUBSTATION ROAD, FORESTVILLE, WI, 54213","Match","Exact","289 OLD SUBSTATION RD, FORESTVILLE, WI, 54213",167269182,"L"
153983,"289 OTTER TAIL COURT","OCOEE","FL",34761,28.618262827,-81.538961682,483,"289 OTTER TAIL COURT, OCOEE, FL, 34761","Match","Exact","289 OTTER TAIL CT, OCOEE, FL, 34761",94428548,"R"
153984,"289 PLEASANT RIVER RD","MILO","ME",4463,45.2771657690001,-68.9879430889999,484,"289 PLEASANT RIVER RD, MILO, ME, 4463","Match","Exact","289 PLEASANT RIVER RD, MILO, ME, 04463",123996814,"R"
153985,"289 S HWY 92 4207","SIERRA VISTA","AZ",85635,31.552128124,-110.257320006,485,"289 S HWY 92 4207, SIERRA VISTA, AZ, 85635","Match","Non_Exact","289 STATE HWY 92, SIERRA VISTA, AZ, 85635",120968681,"R"
153986,"289 S MARCIA DRIVE","AUSTINTOWN","OH",44515,41.091950814,-80.75499137,486,"289 S MARCIA DRIVE, AUSTINTOWN, OH, 44515","Match","Exact","289 MARCIA DR, AUSTINTOWN, OH, 44515",64591422,"L"
153987,"289 S ROBERTSON BLVD STE 400","BEVERLY HILLS","CA",90211,NA,NA,487,"289 S ROBERTSON BLVD STE 400, BEVERLY HILLS, CA, 90211","Tie",NA,NA,NA,NA
153988,"289 S ROBERTSON BLVD UNIT 217","BEVERLY HILLS","CA",90211,NA,NA,488,"289 S ROBERTSON BLVD UNIT 217, BEVERLY HILLS, CA, 90211","Tie",NA,NA,NA,NA
153989,"289 S ROSE BLVD","AKRON","OH",44313,41.097217421,-81.558095454,489,"289 S ROSE BLVD, AKRON, OH, 44313","Match","Exact","289 S ROSE BLVD, AKRON, OH, 44313",61339427,"L"
153990,"289 SE WINCHESTER HILL DR","CHEHALIS","WA",98532,46.6632844480001,-122.959832483,490,"289 SE WINCHESTER HILL DR, CHEHALIS, WA, 98532","Match","Exact","289 SE WINCHESTER HILL DR, CHEHALIS, WA, 98532",180737951,"R"
153991,"289 ST CLAIR ST","SHERIDAN","MI",48884,43.214650373,-85.0708170039999,491,"289 ST CLAIR ST, SHERIDAN, MI, 48884","Match","Exact","289 ST CLAIR ST, SHERIDAN, MI, 48884",110563678,"R"
153992,"289 SUMMER ST","BUFFALO","NY",14222,42.9047543720001,-78.879327685,492,"289 SUMMER ST, BUFFALO, NY, 14222","Match","Exact","289 SUMMER ST, BUFFALO, NY, 14222",48290348,"R"
153993,"289 TOBY ROAD","KERSEY","PA",15846,41.3335141700001,-78.628242986,493,"289 TOBY ROAD, KERSEY, PA, 15846","Match","Exact","289 TOBY RD, KERSEY, PA, 15846",157852474,"R"
153994,"289 W 500 S","OREM","UT",84058,40.287911809,-111.702440476,494,"289 W 500 S, OREM, UT, 84058","Match","Exact","289 W 500 S, OREM, UT, 84058",134233036,"R"
153995,"289 W MAIN ST","HANCOCK","MD",21750,NA,NA,495,"289 W MAIN ST, HANCOCK, MD, 21750","Tie",NA,NA,NA,NA
153996,"289 WALNUT STREET","BELLEVILLE","PA",17004,40.5993685490001,-77.72420232,496,"289 WALNUT STREET, BELLEVILLE, PA, 17004","Match","Exact","289 WALNUT ST, BELLEVILLE, PA, 17004",640456934,"R"
153997,"289 WAVE STREET SUITE C","LAGUNA BEACH","CA",92651,33.548516507,-117.796162066,497,"289 WAVE STREET SUITE C, LAGUNA BEACH, CA, 92651","Match","Exact","289 WAVE ST, LAGUNA BEACH, CA, 92651",629773609,"R"
153998,"289 WEST PINE VALLEY LANE","WEST ROTUNDA","FL",33947,NA,NA,498,"289 WEST PINE VALLEY LANE, WEST ROTUNDA, FL, 33947","No_Match",NA,NA,NA,NA
153999,"289 WHITE OAK TRAIL","CATAULA","GA",31804,32.666330783,-84.904614449,499,"289 WHITE OAK TRAIL, CATAULA, GA, 31804","Match","Non_Exact","289 WHITE OAK, CATAULA, GA, 31804",627618070,"R"
154000,"289 WILSON RD","EASTON","CT",6612,41.2401025840001,-73.302300911,500,"289 WILSON RD, EASTON, CT, 6612","Match","Exact","289 WILSON RD, EASTON, CT, 06612",3239303,"L"
