"ID","Address","City","State","Zip","lat","long","id","input_address","match_indicator","match_type","matched_address","tiger_line_id","tiger_side"
285501,"75 ODYSSEY DR","TINLEY PARK","IL",60477,41.5356962480001,-87.77396931,1,"75 ODYSSEY DR, TINLEY PARK, IL, 60477","Match","Exact","75 ODYSSEY DR, TINLEY PARK, IL, 60477",112207530,"R"
285502,"75 ORCHARD MEADOWS DRIVE","SMITHFIELD","RI",2917,41.9007465080001,-71.499340027,2,"75 ORCHARD MEADOWS DRIVE, SMITHFIELD, RI, 2917","Match","Non_Exact","75 ORCHARD MEADOW DR, SMITHFIELD, RI, 02917",47526500,"R"
285503,"75 ORCHARD ST APT 11","NEW YORK","NY",10002,40.717560457,-73.9905258379999,3,"75 ORCHARD ST APT 11, NEW YORK, NY, 10002","Match","Exact","75 ORCHARD ST, NEW YORK, NY, 10002",59654031,"L"
285504,"75 ORCHARD STREET","WALDEN","NY",12586,41.559842916,-74.1913007909999,4,"75 ORCHARD STREET, WALDEN, NY, 12586","Match","Exact","75 ORCHARD ST, WALDEN, NY, 12586",124493739,"R"
285505,"75 PALMER STREET","BREVARD","NC",28712,35.2412659300001,-82.74067087,5,"75 PALMER STREET, BREVARD, NC, 28712","Match","Exact","75 PALMER ST, BREVARD, NC, 28712",635307891,"L"
285506,"75 PARK CREEK DRIVE SUITE 101","C","CA",93611,36.839767475,-119.709812591,6,"75 PARK CREEK DRIVE SUITE 101, C, CA, 93611","Match","Non_Exact","75 PARK CREEK DR, CLOVIS, CA, 93611",642737720,"L"
285507,"75 PARK DRIVE","CLANCY","MT",59634,46.5014144850001,-111.968368,7,"75 PARK DRIVE, CLANCY, MT, 59634","Match","Exact","75 PARK DR, CLANCY, MT, 59634",153404371,"R"
285508,"75 PIGEON HILL RD","WESTON","MA",2493,42.3758090540001,-71.2981927069999,8,"75 PIGEON HILL RD, WESTON, MA, 2493","Match","Exact","75 PIGEON HILL RD, WESTON, MA, 02493",87104133,"R"
285509,"75 PILGRIM ROAD","WEYMOUTH","MA",2191,42.245930586,-70.945770888,9,"75 PILGRIM ROAD, WEYMOUTH, MA, 2191","Match","Exact","75 PILGRIM RD, WEYMOUTH, MA, 02191",87296611,"R"
285510,"75 PLIMPTON ST","SOUTHBRIDGE","MA",1550,42.088660367,-72.044947758,10,"75 PLIMPTON ST, SOUTHBRIDGE, MA, 1550","Match","Exact","75 PLIMPTON ST, SOUTHBRIDGE, MA, 01550",40047119,"L"
285511,"75 QUAKER ROAD","HYANNIS","MA",2601,41.66102569,-70.294989963,11,"75 QUAKER ROAD, HYANNIS, MA, 2601","Match","Exact","75 QUAKER RD, HYANNIS, MA, 02601",121556410,"L"
285512,"75 QUIET HILLS RD","POMONA","CA",91766,34.0271840180001,-117.769097136,12,"75 QUIET HILLS RD, POMONA, CA, 91766","Match","Exact","75 QUIET HILLS RD, POMONA, CA, 91766",141731152,"R"
285513,"75 QUIET PLACE","CAMANO ISLAND","WA",98282,48.209338868,-122.525610896,13,"75 QUIET PLACE, CAMANO ISLAND, WA, 98282","Match","Exact","75 QUIET PL, CAMANO ISLAND, WA, 98282",647750027,"R"
285514,"75 REED ST","LEXINGTON","MA",2421,42.4618743440001,-71.2436033929999,14,"75 REED ST, LEXINGTON, MA, 2421","Match","Exact","75 REED ST, LEXINGTON, MA, 02421",86881782,"R"
285515,"75 RIVERFRONT DR - APT 221","NORTH LITTLE ROCK","AR",72114,34.75294696,-92.264882216,15,"75 RIVERFRONT DR - APT 221, NORTH LITTLE ROCK, AR, 72114","Match","Exact","75 RIVERFRONT DR, N LITTLE ROCK, AR, 72114",83566814,"L"
285516,"75 RIVERFRONT DRIVE APT 259","NORTH LITTLE ROCK","AR",72114,34.75294696,-92.264882216,16,"75 RIVERFRONT DRIVE APT 259, NORTH LITTLE ROCK, AR, 72114","Match","Exact","75 RIVERFRONT DR, N LITTLE ROCK, AR, 72114",83566814,"L"
285517,"75 ROBIN HILL RD","CHELMSFORD","MA",1824,42.5826679960001,-71.37187826,17,"75 ROBIN HILL RD, CHELMSFORD, MA, 1824","Match","Exact","75 ROBIN HILL RD, CHELMSFORD, MA, 01824",86895784,"R"
285518,"75 S EDGEWOOD DRIVE","GROSSE POINTE SHORES","MI",48236,42.4431672330001,-82.879159508,18,"75 S EDGEWOOD DRIVE, GROSSE POINTE SHORES, MI, 48236","Match","Exact","75 S EDGEWOOD DR, GROSSE POINTE SHORES, MI, 48236",95488729,"L"
285519,"75 S WESTON AVE","ELGIN","IL",60123,42.032528503,-88.3105888219999,19,"75 S WESTON AVE, ELGIN, IL, 60123","Match","Exact","75 S WESTON AVE, ELGIN, IL, 60123",119503139,"L"
285520,"75 SAN REMO DR SUITE 204","SOUTH BURLINGTON","VT",5403,44.461898358,-73.1788492269999,20,"75 SAN REMO DR SUITE 204, SOUTH BURLINGTON, VT, 5403","Match","Exact","75 SAN REMO DR, S BURLINGTON, VT, 05403",135828619,"R"
285521,"75 SANDCREEK RD","BUFFALO GAP","SD",57722,NA,NA,21,"75 SANDCREEK RD, BUFFALO GAP, SD, 57722","No_Match",NA,NA,NA,NA
285522,"75 SANDUSKY STREET","CHESTERVILLE","OH",43317,40.479885504,-82.682781678,22,"75 SANDUSKY STREET, CHESTERVILLE, OH, 43317","Match","Non_Exact","75 E SANDUSKY ST, CHESTERVILLE, OH, 43317",12751397,"R"
285523,"75 SANTA MONICA LANE","STATEN ISLAND","NY",10309,40.5367318400001,-74.212384334,23,"75 SANTA MONICA LANE, STATEN ISLAND, NY, 10309","Match","Exact","75 SANTA MONICA LN, STATEN ISLAND, NY, 10309",59892359,"R"
285524,"75 SCHOOL DRIVE","CAMDEN","TN",38320,NA,NA,24,"75 SCHOOL DRIVE, CAMDEN, TN, 38320","No_Match",NA,NA,NA,NA
285525,"75 SCOTLAND RD","CHESTNUT RIDGE","NY",10977,41.092579518,-74.043515972,25,"75 SCOTLAND RD, CHESTNUT RIDGE, NY, 10977","Match","Exact","75 SCOTLAND RD, CHESTNUT RIDGE, NY, 10977",124594435,"R"
285526,"75 SGT WILLIAM B TERRY DRIVE","HINGHAM","MA",2043,42.2482857790001,-70.922345456,26,"75 SGT WILLIAM B TERRY DRIVE, HINGHAM, MA, 2043","Match","Exact","75 SGT WILLIAM B TERRY DR, HINGHAM, MA, 02043",87491011,"L"
285527,"75 SHIELDS LN","BRIDGEWATER","NJ",8807,40.5893103880001,-74.665082532,27,"75 SHIELDS LN, BRIDGEWATER, NJ, 8807","Match","Exact","75 SHIELDS LN, BRIDGEWATER, NJ, 08807",59967243,"L"
285528,"75 SOUTH BINGHAM STREET","CORNWALL","VT",5753,43.942269149,-73.233982618,28,"75 SOUTH BINGHAM STREET, CORNWALL, VT, 5753","Match","Exact","75 S BINGHAM ST, CORNWALL, VT, 05753",210117966,"R"
285529,"75 SOUTH BROADWAY SUITE 404","WHITE PLAINS","NY",10601,41.0302490760001,-73.762571066,29,"75 SOUTH BROADWAY SUITE 404, WHITE PLAINS, NY, 10601","Match","Exact","75 S BROADWAY, WHITE PLAINS, NY, 10601",139741784,"R"
285530,"75 SOUTH COTTONWOOD DRIVE","LEAMINGTON","UT",84638,39.5321141320001,-112.297198713,30,"75 SOUTH COTTONWOOD DRIVE, LEAMINGTON, UT, 84638","Match","Exact","75 S COTTONWOOD DR, LEAMINGTON, UT, 84638",633039852,"L"
285531,"75 SOUTH FIRST STREET","FULTON","NY",13069,43.3230790440001,-76.417246674,31,"75 SOUTH FIRST STREET, FULTON, NY, 13069","Match","Exact","75 S 1ST ST, FULTON, NY, 13069",57827536,"R"
285532,"75 SOUTH MAIN STREET - PMB 101","CONCORD","NH",3301,43.2002614960001,-71.5332099029999,32,"75 SOUTH MAIN STREET - PMB 101, CONCORD, NH, 3301","Match","Exact","75 S MAIN ST, CONCORD, NH, 03301",117725164,"R"
285533,"75 SOUTH MAIN STREET 7 PBM 281","CONCORD","NH",3301,43.2002614960001,-71.5332099029999,33,"75 SOUTH MAIN STREET 7 PBM 281, CONCORD, NH, 3301","Match","Exact","75 S MAIN ST, CONCORD, NH, 03301",117725164,"R"
285534,"75 SPRING STREET","EUREKA SPRINGS","AR",72632,36.4032956780001,-93.736923222,34,"75 SPRING STREET, EUREKA SPRINGS, AR, 72632","Match","Exact","75 SPRING ST, EUREKA SPGS, AR, 72632",20069924,"R"
285535,"75 ST MARKS PLACE APT 2","BROOKLYN","NY",11217,40.68172908,-73.979690982,35,"75 ST MARKS PLACE APT 2, BROOKLYN, NY, 11217","Match","Exact","75 ST MARKS PL, BROOKLYN, NY, 11217",59077622,"L"
285536,"75 ST RAMON COURT","DANVILLE","CA",94526,NA,NA,36,"75 ST RAMON COURT, DANVILLE, CA, 94526","Tie",NA,NA,NA,NA
285537,"75 STAN CILLEY RD","LINCOLNVILLE","ME",4849,44.3260403470001,-69.074783349,37,"75 STAN CILLEY RD, LINCOLNVILLE, ME, 4849","Match","Exact","75 STAN CILLEY RD, LINCOLNVILLE, ME, 04849",75631874,"R"
285538,"75 SUMMERHILL ROAD","SPOTSWOOD","NJ",8884,40.397286611,-74.3857770609999,38,"75 SUMMERHILL ROAD, SPOTSWOOD, NJ, 8884","Match","Exact","75 SUMMERHILL RD, SPOTSWOOD, NJ, 08884",60270869,"L"
285539,"75 SUMMIT AVENUE","BRONXVILLE","NY",10708,40.94433231,-73.82404954,39,"75 SUMMIT AVENUE, BRONXVILLE, NY, 10708","Match","Exact","75 SUMMIT AVE, BRONXVILLE, NY, 10708",647131855,"L"
285540,"75 SUMMIT ROAD","PARSIPPANY","NJ",7054,40.851048178,-74.443679329,40,"75 SUMMIT ROAD, PARSIPPANY, NJ, 7054","Match","Exact","75 SUMMIT RD, PARSIPPANY, NJ, 07054",60446642,"L"
285541,"75 SUYDAM STREET STE 1","BROOKLYN","NY",11221,40.697324941,-73.9300649099999,41,"75 SUYDAM STREET STE 1, BROOKLYN, NY, 11221","Match","Exact","75 SUYDAM ST, BROOKLYN, NY, 11221",59082571,"L"
285542,"75 TALMADGE ROAD","HAMDEN","CT",6518,41.425273702,-72.9480704219999,42,"75 TALMADGE ROAD, HAMDEN, CT, 6518","Match","Exact","75 TALMADGE RD, HAMDEN, CT, 06518",627251752,"R"
285543,"75 TRAYMORE ST FLOOR 1","BUFFALO","NY",14216,42.946577629,-78.8630450159999,43,"75 TRAYMORE ST FLOOR 1, BUFFALO, NY, 14216","Match","Exact","75 TRAYMORE ST, BUFFALO, NY, 14216",48289387,"R"
285544,"75 VALENCIA AV STE 703","CORAL GABLES","FL",33134,25.7480033250001,-80.2560247179999,44,"75 VALENCIA AV STE 703, CORAL GABLES, FL, 33134","Match","Exact","75 VALENCIA AVE, CORAL GABLES, FL, 33134",116266200,"R"
285545,"75 VALENCIA AV SUITE 703","CORAL GABLES","FL",33134,25.7480033250001,-80.2560247179999,45,"75 VALENCIA AV SUITE 703, CORAL GABLES, FL, 33134","Match","Exact","75 VALENCIA AVE, CORAL GABLES, FL, 33134",116266200,"R"
285546,"75 VALENCIA AVE","CORAL GABLES","FL",33134,25.7480033250001,-80.2560247179999,46,"75 VALENCIA AVE, CORAL GABLES, FL, 33134","Match","Exact","75 VALENCIA AVE, CORAL GABLES, FL, 33134",116266200,"R"
285547,"75 VALENCIA AVENUE SUITE 703","CORAL GABLES","FL",33134,25.7480033250001,-80.2560247179999,47,"75 VALENCIA AVENUE SUITE 703, CORAL GABLES, FL, 33134","Match","Exact","75 VALENCIA AVE, CORAL GABLES, FL, 33134",116266200,"R"
285548,"75 VALLEY VIEW DRIVE","OAK VIEW","CA",93022,34.4031087110001,-119.298005673,48,"75 VALLEY VIEW DRIVE, OAK VIEW, CA, 93022","Match","Exact","75 VALLEY VIEW DR, OAK VIEW, CA, 93022",109982242,"L"
285549,"75 VERNON STREET","NEWTON","MA",2458,42.354401835,-71.182201048,49,"75 VERNON STREET, NEWTON, MA, 2458","Match","Exact","75 VERNON ST, NEWTON, MA, 02458",86865239,"R"
285550,"75 VIXEN LANE","PINEHURST","NC",28374,35.2164100430001,-79.457983079,50,"75 VIXEN LANE, PINEHURST, NC, 28374","Match","Exact","75 VIXEN LN, PINEHURST, NC, 28374",20312811,"L"
285551,"75 W 238TH STREET APT 2K","BRONX","NY",10463,40.8822363900001,-73.897036672,51,"75 W 238TH STREET APT 2K, BRONX, NY, 10463","Match","Non_Exact","75 W 238TH ST, BRONX, NY, 10463",80296619,"R"
285552,"75 W END AVE APT C8D","NEW YORK","NY",10023,40.7737824540001,-73.9888768119999,52,"75 W END AVE APT C8D, NEW YORK, NY, 10023","Match","Non_Exact","75 W END AVE, NEW YORK, NY, 10023",59655114,"L"
285553,"75 W END AVE APT R12A","NEW YORK","NY",10023,40.7737824540001,-73.9888768119999,53,"75 W END AVE APT R12A, NEW YORK, NY, 10023","Match","Non_Exact","75 W END AVE, NEW YORK, NY, 10023",59655114,"L"
285554,"75 W NUEVO ROAD STE E 106","PERRIS","CA",92571,NA,NA,54,"75 W NUEVO ROAD STE E 106, PERRIS, CA, 92571","Tie",NA,NA,NA,NA
285555,"75 W QUEEN ST","CHAMBERSBURG","PA",17201,39.936131774,-77.663212427,55,"75 W QUEEN ST, CHAMBERSBURG, PA, 17201","Match","Exact","75 W QUEEN ST, CHAMBERSBURG, PA, 17201",60095151,"R"
285556,"75 W SALEM ST","COLUMBIANA","OH",44408,40.892869718,-80.696532126,56,"75 W SALEM ST, COLUMBIANA, OH, 44408","Match","Exact","75 W SALEM ST, COLUMBIANA, OH, 44408",63645438,"R"
285557,"75 W TAYLOR AVE SUITE 300","MERIDIAN","ID",83642,43.606401594,-116.394282132,57,"75 W TAYLOR AVE SUITE 300, MERIDIAN, ID, 83642","Match","Exact","75 TAYLOR AVE, MERIDIAN, ID, 83642",117854964,"R"
285558,"75 WAGNER RD","FAYETTEVILLE","PA",17222,39.8940053490001,-77.436702888,58,"75 WAGNER RD, FAYETTEVILLE, PA, 17222","Match","Exact","75 WAGNER RD, FAYETTEVILLE, PA, 17222",636394551,"R"
285559,"75 WALL STREET","WINFIELD","WV",25213,38.5314604960001,-81.896058636,59,"75 WALL STREET, WINFIELD, WV, 25213","Match","Exact","75 WALL ST, WINFIELD, WV, 25213",130531430,"L"
285560,"75 WAMSUTTA STREET UNIT 219","NEW BEDFORD","MA",2740,41.6486076350001,-70.926705439,60,"75 WAMSUTTA STREET UNIT 219, NEW BEDFORD, MA, 2740","Match","Exact","75 WAMSUTTA ST, NEW BEDFORD, MA, 02740",46775338,"R"
285561,"75 WASHINGTON ST STE 1753","FAIRBURN","GA",30213,33.566212326,-84.583943549,61,"75 WASHINGTON ST STE 1753, FAIRBURN, GA, 30213","Match","Exact","75 WASHINGTON ST, FAIRBURN, GA, 30213",17350394,"R"
285562,"75 WASHINGTON ST UNIT 486","FAIRBURN","GA",30213,33.566212326,-84.583943549,62,"75 WASHINGTON ST UNIT 486, FAIRBURN, GA, 30213","Match","Exact","75 WASHINGTON ST, FAIRBURN, GA, 30213",17350394,"R"
285563,"75 WASHINGTON STREET STE 1415","FAIRBURN","GA",30213,33.566212326,-84.583943549,63,"75 WASHINGTON STREET STE 1415, FAIRBURN, GA, 30213","Match","Exact","75 WASHINGTON ST, FAIRBURN, GA, 30213",17350394,"R"
285564,"75 WASHINGTON STREET UNIT 1514","FAIRBURN","GA",30213,33.566212326,-84.583943549,64,"75 WASHINGTON STREET UNIT 1514, FAIRBURN, GA, 30213","Match","Exact","75 WASHINGTON ST, FAIRBURN, GA, 30213",17350394,"R"
285565,"75 WASHINGTON STREET UNIT 650","FAIRBURN","GA",30213,33.566212326,-84.583943549,65,"75 WASHINGTON STREET UNIT 650, FAIRBURN, GA, 30213","Match","Exact","75 WASHINGTON ST, FAIRBURN, GA, 30213",17350394,"R"
285566,"75 WASHINGTON STREET UNIT 660","FAIRBURN","GA",30213,33.566212326,-84.583943549,66,"75 WASHINGTON STREET UNIT 660, FAIRBURN, GA, 30213","Match","Exact","75 WASHINGTON ST, FAIRBURN, GA, 30213",17350394,"R"
285567,"75 WATER STREET","WILLIAMSTOWN","MA",1267,42.7088218280001,-73.20060718,67,"75 WATER STREET, WILLIAMSTOWN, MA, 1267","Match","Exact","75 WATER ST, WILLIAMSTOWN, MA, 01267",3950613,"L"
285568,"75 WEST 238 STREET 4H","BRONX","NY",10463,40.8822296440001,-73.89702557,68,"75 WEST 238 STREET 4H, BRONX, NY, 10463","Match","Exact","75 W 238TH ST, BRONX, NY, 10463",80296619,"R"
285569,"75 WEST 238TH STREET 4H","BRONX","NY",10463,40.8822296440001,-73.89702557,69,"75 WEST 238TH STREET 4H, BRONX, NY, 10463","Match","Exact","75 W 238TH ST, BRONX, NY, 10463",80296619,"R"
285570,"75 WEST 238TH STREET APT 6E","BRONX","NY",10463,40.8822296440001,-73.89702557,70,"75 WEST 238TH STREET APT 6E, BRONX, NY, 10463","Match","Exact","75 W 238TH ST, BRONX, NY, 10463",80296619,"R"
285571,"75 WEST 45TH STREET","BAYONNE","NJ",7002,40.681340811,-74.108032827,71,"75 WEST 45TH STREET, BAYONNE, NJ, 7002","Match","Exact","75 W 45TH ST, BAYONNE, NJ, 07002",59603008,"R"
285572,"75 WEST CHURCH STREET","LEXINGTON","TN",38351,35.6526491660001,-88.395544081,72,"75 WEST CHURCH STREET, LEXINGTON, TN, 38351","Match","Exact","75 W CHURCH ST, LEXINGTON, TN, 38351",607972462,"L"
285573,"75 WEST ELIZABETH STREET","SKANEATELES","NY",13152,42.9480409500001,-76.439205068,73,"75 WEST ELIZABETH STREET, SKANEATELES, NY, 13152","Match","Exact","75 W ELIZABETH ST, SKANEATELES, NY, 13152",46621099,"R"
285574,"75 WEST END AVE APT P2G","NEW YORK","NY",10023,40.7737711660001,-73.988885061,74,"75 WEST END AVE APT P2G, NEW YORK, NY, 10023","Match","Exact","75 W END AVE, NEW YORK, NY, 10023",59655114,"L"
285575,"75 WEST END AVENUE APT C8A","NEW YORK","NY",10023,40.7737711660001,-73.988885061,75,"75 WEST END AVENUE APT C8A, NEW YORK, NY, 10023","Match","Exact","75 W END AVE, NEW YORK, NY, 10023",59655114,"L"
285576,"75 WEST PERKAL STREET","BAY SHORE","NY",11706,NA,NA,76,"75 WEST PERKAL STREET, BAY SHORE, NY, 11706","Tie",NA,NA,NA,NA
285577,"75 WESTERN AVENUE","DELMAR","NY",12054,42.6221111880001,-73.866218282,77,"75 WESTERN AVENUE, DELMAR, NY, 12054","Match","Exact","75 WESTERN AVE, DELMAR, NY, 12054",18327901,"L"
285578,"75 WHITING ROAD","WATSONVILLE","CA",95076,36.95846557,-121.735940722,78,"75 WHITING ROAD, WATSONVILLE, CA, 95076","Match","Exact","75 WHITING RD, WATSONVILLE, CA, 95076",125526424,"L"
285579,"75 WIDGEON DR","NEWNAN","GA",30263,33.3448999440001,-84.829008135,79,"75 WIDGEON DR, NEWNAN, GA, 30263","Match","Exact","75 WIDGEON DR, NEWNAN, GA, 30263",9346919,"R"
285580,"75 WILLIAMSBURG RD","MOUNT JULIET","TN",37122,36.224761245,-86.545741458,80,"75 WILLIAMSBURG RD, MOUNT JULIET, TN, 37122","Match","Exact","75 WILLIAMSBURG RD, MOUNT JULIET, TN, 37122",89706777,"L"
285581,"75 WINDMILL DR","HUNTINGTON","NY",11743,40.879289412,-73.3871064749999,81,"75 WINDMILL DR, HUNTINGTON, NY, 11743","Match","Exact","75 WINDMILL DR, HUNTINGTON, NY, 11743",114057849,"L"
285582,"75 WITHERELL DRIVE","SUDBURY","MA",1776,42.4114993960001,-71.4360552529999,82,"75 WITHERELL DRIVE, SUDBURY, MA, 1776","Match","Exact","75 WITHERELL DR, SUDBURY, MA, 01776",86843639,"R"
285583,"75 WOODHAIL STREET","LIDO BEACH","NY",11561,40.5877286460001,-73.621372541,83,"75 WOODHAIL STREET, LIDO BEACH, NY, 11561","Match","Exact","75 WOODHAIL ST, LIDO BEACH, NY, 11561",147638832,"L"
285584,"75-15 166TH STREET","FRESH MEADOWS","NY",11366,40.7268940010001,-73.8028571199999,84,"75-15 166TH STREET, FRESH MEADOWS, NY, 11366","Match","Exact","75-15 166TH ST, FRESH MEADOWS, NY, 11366",59711763,"L"
285585,"75-15 169TH STREET","FRESH MEADOWS","NY",11366,40.727300857,-73.800202016,85,"75-15 169TH STREET, FRESH MEADOWS, NY, 11366","Match","Exact","75-15 169TH ST, FRESH MEADOWS, NY, 11366",59711792,"L"
285586,"75-22 37TH AVE APT65","JACKSON HEIGHTS","NY",11372,40.749080572,-73.890615011,86,"75-22 37TH AVE APT65, JACKSON HEIGHTS, NY, 11372","Match","Exact","75-22 37TH AVE, JACKSON HEIGHTS, NY, 11372",59693775,"R"
285587,"75-24 BELL BLVD SUITE 1E","OAKLAND GARDENS","NY",11364,40.7382633030001,-73.7570776479999,87,"75-24 BELL BLVD SUITE 1E, OAKLAND GARDENS, NY, 11364","Match","Exact","75-24 BELL BLVD, OAKLAND GARDENS, NY, 11364",59716210,"R"
285588,"75-257 PUMEHANA STREET","KAILUA-KONA","HI",96740,19.6288412280001,-155.977621924,88,"75-257 PUMEHANA STREET, KAILUA-KONA, HI, 96740","Match","Exact","75-257 PUMEHANA ST, KAILUA KONA, HI, 96740",203023096,"L"
285589,"75-258 ONI ONI STREET","KAILUA-KONA","HI",96740,19.6282433050001,-155.976639867,89,"75-258 ONI ONI STREET, KAILUA-KONA, HI, 96740","Match","Exact","75-258 ONI ONI ST, KAILUA KONA, HI, 96740",203023090,"R"
285590,"75-282 HOENE STREET","KAILUA KONA","HI",96740,19.6356877960001,-155.976855028,90,"75-282 HOENE STREET, KAILUA KONA, HI, 96740","Match","Exact","75-282 HOENE ST, KAILUA KONA, HI, 96740",202996575,"R"
285591,"75-38 113TH ST 1F","FOREST HILLS","NY",11375,40.718621926,-73.8354191669999,91,"75-38 113TH ST 1F, FOREST HILLS, NY, 11375","Match","Exact","75-38 113TH ST, FOREST HILLS, NY, 11375",59730287,"R"
285592,"75-5660 KOPIKO ST STE C7 PMB 140","KAILUA-KONA","HI",96740,NA,NA,92,"75-5660 KOPIKO ST STE C7 PMB 140, KAILUA-KONA, HI, 96740","No_Match",NA,NA,NA,NA
285593,"75-5687 ALII DRIVE","KAILUA KONA","HI",96740,19.63986348,-155.994779617,93,"75-5687 ALII DRIVE, KAILUA KONA, HI, 96740","Match","Exact","75-5687 ALII DR, KAILUA KONA, HI, 96740",616626316,"R"
285594,"75-5725 LAMAOKEOLA STREET","KAILUA KONA","HI",96740,19.6413142810001,-155.987746741,94,"75-5725 LAMAOKEOLA STREET, KAILUA KONA, HI, 96740","Match","Exact","75-5725 LAMAOKEOLA ST, KAILUA KONA, HI, 96740",202996485,"L"
285595,"75-5737 KUAKINI HIGHWAY  SUITE 202","KAILUA KONA","HI",96740,19.638780791,-155.990693026,95,"75-5737 KUAKINI HIGHWAY  SUITE 202, KAILUA KONA, HI, 96740","Match","Exact","75-5737 KUAKINI HWY, KAILUA KONA, HI, 96740",640093506,"L"
285596,"75-5751 ALANOE PLACE APARTMENT B","KAILUA KONA","HI",96740,19.6398742370001,-155.988457961,96,"75-5751 ALANOE PLACE APARTMENT B, KAILUA KONA, HI, 96740","Match","Exact","75-5751 ALANOE PL, KAILUA KONA, HI, 96740",202996481,"L"
285597,"75-5775 KAILA PLACE","KAILUA KONA","HI",96740,19.639071739,-155.972829251,97,"75-5775 KAILA PLACE, KAILUA KONA, HI, 96740","Match","Exact","75-5775 KAILA PL, KAILUA KONA, HI, 96740",202996642,"L"
285598,"75-5807 ALII DRIVE STE C-8","KAILUA-KONA","HI",96740,19.6355144510001,-155.990536047,98,"75-5807 ALII DRIVE STE C-8, KAILUA-KONA, HI, 96740","Match","Exact","75-5807 ALII DR, KAILUA KONA, HI, 96740",202996544,"R"
285599,"75-5837 KUAKINI HIGHWAY APT U4","KAILUA KONA","HI",96740,19.633621889,-155.987784633,99,"75-5837 KUAKINI HIGHWAY APT U4, KAILUA KONA, HI, 96740","Match","Exact","75-5837 KUAKINI HWY, KAILUA KONA, HI, 96740",614315992,"L"
285600,"75-5851 KUAKINI HIGHWAY 129","KAILUA KONA","HI",96740,19.6331655390001,-155.98752729,100,"75-5851 KUAKINI HIGHWAY 129, KAILUA KONA, HI, 96740","Match","Exact","75-5851 KUAKINI HWY, KAILUA KONA, HI, 96740",203023119,"L"
285601,"75-5851 KUAKINI HWY 42","KAILUA KONA","HI",96740,19.6331655390001,-155.98752729,101,"75-5851 KUAKINI HWY 42, KAILUA KONA, HI, 96740","Match","Exact","75-5851 KUAKINI HWY, KAILUA KONA, HI, 96740",203023119,"L"
285602,"75-5873 WALUA ROAD C210","KAILUA-KONA","HI",96740,19.629519895,-155.986516553,102,"75-5873 WALUA ROAD C210, KAILUA-KONA, HI, 96740","Match","Exact","75-5873 WALUA RD, KAILUA KONA, HI, 96740",614315810,"L"
285603,"75-5919 ALII DRIVE J4","KAILUA-KONA","HI",96740,19.627864195,-155.987744387,103,"75-5919 ALII DRIVE J4, KAILUA-KONA, HI, 96740","Match","Exact","75-5919 ALII DR, KAILUA KONA, HI, 96740",614317259,"R"
285604,"75-5995 KUAKINI HWY SUITE 445","KAILUA KONA","HI",96740,19.631136199,-155.986366727,104,"75-5995 KUAKINI HWY SUITE 445, KAILUA KONA, HI, 96740","Match","Exact","75-5995 KUAKINI HWY, KAILUA KONA, HI, 96740",614315826,"L"
285605,"75-661 MEA LANAKILA STREET","KAILUA-KONA","HI",96740,19.6223712710001,-155.965643953,105,"75-661 MEA LANAKILA STREET, KAILUA-KONA, HI, 96740","Match","Exact","75 MEA LANAKILA ST, KAILUA KONA, HI, 96740",614317124,"R"
285606,"750 29TH STREET","NEWPORT NEWS","VA",23607,36.9856172890001,-76.4185917,106,"750 29TH STREET, NEWPORT NEWS, VA, 23607","Match","Exact","750 29TH ST, NEWPORT NEWS, VA, 23607",103746264,"R"
285607,"750 2ND AVE SE","MEDFORD","MN",55049,NA,NA,107,"750 2ND AVE SE, MEDFORD, MN, 55049","No_Match",NA,NA,NA,NA
285608,"750 3RD AVENUE 9TH FLOOR","NEW YORK","NY",10017,40.7537396610001,-73.9722896649999,108,"750 3RD AVENUE 9TH FLOOR, NEW YORK, NY, 10017","Match","Exact","750 3RD AVE, NEW YORK, NY, 10017",59658702,"L"
285609,"750 7TH AVE N APT 5","ST.PETERSBURG","FL",33701,27.7793757090001,-82.643820037,109,"750 7TH AVE N APT 5, ST.PETERSBURG, FL, 33701","Match","Exact","750 7TH AVE N, SAINT PETERSBURG, FL, 33701",124707146,"L"
285610,"750 9TH ST NW STE 750","WASHINGTON","DC",20001,38.8994396680001,-77.023971273,110,"750 9TH ST NW STE 750, WASHINGTON, DC, 20001","Match","Exact","750 9TH ST NW, WASHINGTON, DC, 20001",76226195,"L"
285611,"750 ACTON DR","TOLEDO","OH",43615,41.626349336,-83.6388117979999,111,"750 ACTON DR, TOLEDO, OH, 43615","Match","Exact","750 ACTON DR, TOLEDO, OH, 43615",33962631,"L"
285612,"750 ARNOLD AVE","HOLLOMAN AFB","NM",88330,NA,NA,112,"750 ARNOLD AVE, HOLLOMAN AFB, NM, 88330","No_Match",NA,NA,NA,NA
285613,"750 ATHENS ROAD","WINTERVILLE","GA",30683,NA,NA,113,"750 ATHENS ROAD, WINTERVILLE, GA, 30683","No_Match",NA,NA,NA,NA
285614,"750 B STREET SUITE 2510","SAN DIEGO","CA",92101,NA,NA,114,"750 B STREET SUITE 2510, SAN DIEGO, CA, 92101","No_Match",NA,NA,NA,NA
285615,"750 B STREET SUITE 3308","SAN DIEGO","CA",92101,NA,NA,115,"750 B STREET SUITE 3308, SAN DIEGO, CA, 92101","No_Match",NA,NA,NA,NA
285616,"750 B STREET SUITE 3400","SAN DIEGO","CA",92101,NA,NA,116,"750 B STREET SUITE 3400, SAN DIEGO, CA, 92101","No_Match",NA,NA,NA,NA
285617,"750 BAY AVE NUMBER 5208","CAPITOLA","CA",95010,36.9798590730001,-121.954235068,117,"750 BAY AVE NUMBER 5208, CAPITOLA, CA, 95010","Match","Exact","750 BAY AVE, CAPITOLA, CA, 95010",605989531,"R"
285618,"750 BERKELEY DRIVE","CLEMSON","SC",29631,34.6825094170001,-82.800753888,118,"750 BERKELEY DRIVE, CLEMSON, SC, 29631","Match","Exact","750 BERKELEY DR, CLEMSON, SC, 29631",26176495,"L"
285619,"750 BOGAN STREET","ALEXANDRIA","LA",71302,31.300489112,-92.437770825,119,"750 BOGAN STREET, ALEXANDRIA, LA, 71302","Match","Exact","750 BOGAN ST, ALEXANDRIA, LA, 71302",11783671,"R"
285620,"750 BOLING STREET","JACKSON","MS",39209,NA,NA,120,"750 BOLING STREET, JACKSON, MS, 39209","No_Match",NA,NA,NA,NA
285621,"750 BONNEVILLE DR","MOBILE","AL",36695,30.674693679,-88.2307856099999,121,"750 BONNEVILLE DR, MOBILE, AL, 36695","Match","Exact","750 BONNEVILLE DR, MOBILE, AL, 36695",618596827,"R"
285622,"750 BREEZE HILL RD  NUM 110","VISTA","CA",92081,33.1877412200001,-117.255285362,122,"750 BREEZE HILL RD  NUM 110, VISTA, CA, 92081","Match","Exact","750 BREEZE HILL RD, VISTA, CA, 92081",651642831,"R"
285623,"750 BREEZE HILL RD NUM 110","VISTA","CA",92081,33.1877412200001,-117.255285362,123,"750 BREEZE HILL RD NUM 110, VISTA, CA, 92081","Match","Exact","750 BREEZE HILL RD, VISTA, CA, 92081",651642831,"R"
285624,"750 BRIDGES AVENUE E STE A","WYNNE","AR",72396,35.231267298,-90.780406093,124,"750 BRIDGES AVENUE E STE A, WYNNE, AR, 72396","Match","Exact","750 BRIDGES AVE E, WYNNE, AR, 72396",69176631,"L"
285625,"750 BROADWAY","PATERSON","NJ",7504,NA,NA,125,"750 BROADWAY, PATERSON, NJ, 7504","No_Match",NA,NA,NA,NA
285626,"750 BROADWAY","WOODMERE","NY",11598,40.6260917280001,-73.715734794,126,"750 BROADWAY, WOODMERE, NY, 11598","Match","Exact","750 BROADWAY, WOODMERE, NY, 11598",147678028,"L"
285627,"750 CAMPBELL BLVD","BUFFALO","NY",14228,43.0363860750001,-78.768116477,127,"750 CAMPBELL BLVD, BUFFALO, NY, 14228","Match","Exact","750 CAMPBELL BLVD, BUFFALO, NY, 14228",613977270,"L"
285628,"750 CANYON WASH DRIVE","PASADENA","CA",91107,34.159515739,-118.08687865,128,"750 CANYON WASH DRIVE, PASADENA, CA, 91107","Match","Exact","750 CANYON WASH DR, PASADENA, CA, 91107",141632691,"R"
285629,"750 CHERRY ROAD","MEMPHIS","TN",38117,35.1116888390001,-89.918434654,129,"750 CHERRY ROAD, MEMPHIS, TN, 38117","Match","Exact","750 CHERRY RD, MEMPHIS, TN, 38117",607437905,"L"
285630,"750 CLASSON AVENUE","BROOKLYN","NY",11238,40.674283535,-73.960295778,130,"750 CLASSON AVENUE, BROOKLYN, NY, 11238","Match","Exact","750 CLASSON AVE, BROOKLYN, NY, 11238",59078456,"R"
285631,"750 CONCORD AVE","DREXEL HILL","PA",19026,39.951707438,-75.3038540059999,131,"750 CONCORD AVE, DREXEL HILL, PA, 19026","Match","Exact","750 CONCORD AVE, DREXEL HILL, PA, 19026",134876130,"L"
285632,"750 CONCOURSE VILLAGE WEST","BRONX","NY",10451,40.8236294390001,-73.923059,132,"750 CONCOURSE VILLAGE WEST, BRONX, NY, 10451","Match","Exact","750 CONCOURSE VILLAGE W, BRONX, NY, 10451",609079365,"R"
285633,"750 COUNTY ROAD PB","BELLEVILLE","WI",53508,NA,NA,133,"750 COUNTY ROAD PB, BELLEVILLE, WI, 53508","No_Match",NA,NA,NA,NA
285634,"750 CROSS POINTE RD - SUITE Q","COLUMBUS","OH",43230,39.997944354,-82.83238175,134,"750 CROSS POINTE RD - SUITE Q, COLUMBUS, OH, 43230","Match","Exact","750 CROSS POINTE RD, COLUMBUS, OH, 43230",218690800,"R"
285635,"750 CROSS POINTE RD SUITE Q","GAHANNA","OH",43230,39.997944354,-82.83238175,135,"750 CROSS POINTE RD SUITE Q, GAHANNA, OH, 43230","Match","Exact","750 CROSS POINTE RD, GAHANNA, OH, 43230",218690800,"R"
285636,"750 D STREET","DAVID CITY","NE",68632,41.2527373620001,-97.124990956,136,"750 D STREET, DAVID CITY, NE, 68632","Match","Exact","750 D ST, DAVID CITY, NE, 68632",635752844,"R"
285637,"750 DERBY AVE BLDG 3","CINCINNATI","OH",45232,39.1711860410001,-84.518319326,137,"750 DERBY AVE BLDG 3, CINCINNATI, OH, 45232","Match","Exact","750 DERBY AVE, CINCINNATI, OH, 45232",103923445,"R"
285638,"750 DEVELOPMENT DRIVE","TIPTON","IN",46072,40.2966975460001,-86.050787714,138,"750 DEVELOPMENT DRIVE, TIPTON, IN, 46072","Match","Exact","750 DEVELOPMENT DR, TIPTON, IN, 46072",649681669,"L"
285639,"750 DRILLFIELD DRIVE","BLACKSBURG","VA",24061,NA,NA,139,"750 DRILLFIELD DRIVE, BLACKSBURG, VA, 24061","No_Match",NA,NA,NA,NA
285640,"750 E MARSHALL ST APT 106","WEST CHESTER","PA",19380,NA,NA,140,"750 E MARSHALL ST APT 106, WEST CHESTER, PA, 19380","Tie",NA,NA,NA,NA
285641,"750 E MID CITIES BLVD  APT 503","EULESS","TX",76039,32.8674603600001,-97.0695490109999,141,"750 E MID CITIES BLVD  APT 503, EULESS, TX, 76039","Match","Non_Exact","750 E MID CITIES BLVD, EULESS, TX, 76039",102143815,"R"
285642,"750 E NORTHERN AVE UNIT 1066","PHOENIX","AZ",85020,33.5527270370001,-112.064487883,142,"750 E NORTHERN AVE UNIT 1066, PHOENIX, AZ, 85020","Match","Non_Exact","750 E NORTHERN AVE, PHOENIX, AZ, 85020",128315387,"L"
285643,"750 E NORTHWEST HWY  APT 133","DES PLAINES","IL",60016,NA,NA,143,"750 E NORTHWEST HWY  APT 133, DES PLAINES, IL, 60016","No_Match",NA,NA,NA,NA
285644,"750 E PARKWAY SOUTH","MEMPHIS","TN",38104,NA,NA,144,"750 E PARKWAY SOUTH, MEMPHIS, TN, 38104","No_Match",NA,NA,NA,NA
285645,"750 E WALDEN CT","HIGHLANDS RANCH","CO",80126,39.545141114,-104.980552982,145,"750 E WALDEN CT, HIGHLANDS RANCH, CO, 80126","Match","Exact","750 WALDEN CT, HIGHLANDS RANCH, CO, 80126",636171932,"L"
285646,"750 EAST 179TH STREET APT 12H","BRONX","NY",10457,40.84591383,-73.888186775,146,"750 EAST 179TH STREET APT 12H, BRONX, NY, 10457","Match","Exact","750 E 179TH ST, BRONX, NY, 10457",80301552,"R"
285647,"750 EAST BROAD STREET","COLUMBUS","OH",43205,39.964519737,-82.9806173059999,147,"750 EAST BROAD STREET, COLUMBUS, OH, 43205","Match","Exact","750 E BROAD ST, COLUMBUS, OH, 43205",218649252,"L"
285648,"750 EAST CHEYENNE ROAD UNIT 205","COLORADO SPRINGS","CO",80905,38.8067842620001,-104.811665472,148,"750 EAST CHEYENNE ROAD UNIT 205, COLORADO SPRINGS, CO, 80905","Match","Exact","750 E CHEYENNE RD, COLORADO SPRINGS, CO, 80905",642109684,"L"
285649,"750 EAST LAUREL AVE","EUNICE","TX",70535,NA,NA,149,"750 EAST LAUREL AVE, EUNICE, TX, 70535","No_Match",NA,NA,NA,NA
285650,"750 EDMONDS STREET","EDMONDS","WA",98020,47.812116465,-122.371393696,150,"750 EDMONDS STREET, EDMONDS, WA, 98020","Match","Exact","750 EDMONDS ST, EDMONDS, WA, 98020",187815226,"R"
285651,"750 ELECTRIC AVENUE","BIGFORK","MT",59911,48.064292241,-114.073269157,151,"750 ELECTRIC AVENUE, BIGFORK, MT, 59911","Match","Exact","750 ELECTRIC AVE, BIGFORK, MT, 59911",204095214,"L"
285652,"750 ELMWOOD AVE APT 1B","BUFFALO","NY",14222,42.9174639290001,-78.877034028,152,"750 ELMWOOD AVE APT 1B, BUFFALO, NY, 14222","Match","Exact","750 ELMWOOD AVE, BUFFALO, NY, 14222",48289264,"L"
285653,"750 EMERALD BAY RD APT 208","SOUTH LAKE TAHOE","CA",96150,38.919226182,-120.012901446,153,"750 EMERALD BAY RD APT 208, SOUTH LAKE TAHOE, CA, 96150","Match","Exact","750 EMERALD BAY RD, SOUTH LAKE TAHOE, CA, 96150",133015135,"L"
285654,"750 FAIRMONT AVENUE SUITE 100","GLENDALE","CA",91203,34.155588698,-118.271898813,154,"750 FAIRMONT AVENUE SUITE 100, GLENDALE, CA, 91203","Match","Exact","750 FAIRMONT AVE, GLENDALE, CA, 91203",141596778,"L"
285655,"750 FERST DRIVE","ATLANTA","GA",30332,NA,NA,155,"750 FERST DRIVE, ATLANTA, GA, 30332","No_Match",NA,NA,NA,NA
285656,"750 FIRST STREET NE","WASHINGTON","DC",20002,38.8998948620001,-77.0068264019999,156,"750 FIRST STREET NE, WASHINGTON, DC, 20002","Match","Exact","750 1ST ST NE, WASHINGTON, DC, 20002",76226645,"L"
285657,"750 FOWLER STREET NW","ATLANTA","GA",30332,33.775551068,-84.3941811179999,157,"750 FOWLER STREET NW, ATLANTA, GA, 30332","Match","Non_Exact","750 FOWLER ST NW, ATLANTA, GA, 30313",17343345,"L"
285658,"750 FRANKLIN GATEWAY SE APT 9F","MARIETTA","GA",30067,NA,NA,158,"750 FRANKLIN GATEWAY SE APT 9F, MARIETTA, GA, 30067","No_Match",NA,NA,NA,NA
285659,"750 FRANKLIN RD APT 17M","MARIETTA","GA",30067,33.9336813130001,-84.502799196,159,"750 FRANKLIN RD APT 17M, MARIETTA, GA, 30067","Match","Exact","750 FRANKLIN RD, MARIETTA, GA, 30067",17261962,"L"
285660,"750 GRAND CONCOURSE APT 2R","BRONX","NY",10451,40.822967899,-73.924621397,160,"750 GRAND CONCOURSE APT 2R, BRONX, NY, 10451","Match","Exact","750 GRAND CONCOURSE, BRONX, NY, 10451",80300149,"R"
285661,"750 GRAND STREET APT 4A","BROOKLYN","NY",11211,40.7117204940001,-73.943035063,161,"750 GRAND STREET APT 4A, BROOKLYN, NY, 11211","Match","Exact","750 GRAND ST, BROOKLYN, NY, 11211",59077196,"R"
285662,"750 GROVE TRAIL SW","SUPPLY","NC",28462,33.9649745770001,-78.2725200419999,162,"750 GROVE TRAIL SW, SUPPLY, NC, 28462","Match","Exact","750 GROVE TRL SW, SUPPLY, NC, 28462",638017480,"L"
285663,"750 HAMMOND DRIVE BUILDING 1","ATLANTA","GA",30328,33.9189972510001,-84.36276087,163,"750 HAMMOND DRIVE BUILDING 1, ATLANTA, GA, 30328","Match","Non_Exact","750 HAMMOND DR NE, ATLANTA, GA, 30328",17417333,"L"
285664,"750 HIGHWAY 309 S","BYHALIA","MS",38611,34.8512121380001,-89.6887869019999,164,"750 HIGHWAY 309 S, BYHALIA, MS, 38611","Match","Exact","750 HWY 309 S, BYHALIA, MS, 38611",619447286,"L"
285665,"750 HOLLINGSWORTH ROAD","LAKELAND","FL",33801,28.035819045,-81.940739144,165,"750 HOLLINGSWORTH ROAD, LAKELAND, FL, 33801","Match","Exact","750 HOLLINGSWORTH RD, LAKELAND, FL, 33801",104811598,"L"
285666,"750 IOWA ST","NORMAN","OK",73069,35.2240829,-97.455304644,166,"750 IOWA ST, NORMAN, OK, 73069","Match","Exact","750 IOWA ST, NORMAN, OK, 73069",99910992,"L"
285667,"750 JOHNSTON STREET","GALESBURG","IL",61401,40.960577234,-90.358459765,167,"750 JOHNSTON STREET, GALESBURG, IL, 61401","Match","Exact","750 JOHNSTON ST, GALESBURG, IL, 61401",9039512,"L"
285668,"750 KEARNY AVE","KEARNY","NJ",7032,40.777550837,-74.1415959989999,168,"750 KEARNY AVE, KEARNY, NJ, 7032","Match","Exact","750 KEARNY AVE, KEARNY, NJ, 07032",59600674,"R"
285669,"750 LAMOURIE ROAD","LECOMPTE","LA",71346,31.126726084,-92.3569461709999,169,"750 LAMOURIE ROAD, LECOMPTE, LA, 71346","Match","Exact","750 LAMOURIE RD, LECOMPTE, LA, 71346",612138396,"R"
285670,"750 LEFFERTS AVENUE APT F5","BROOKLYN","NY",11203,40.663261764,-73.936098987,170,"750 LEFFERTS AVENUE APT F5, BROOKLYN, NY, 11203","Match","Exact","750 LEFFERTS AVE, BROOKLYN, NY, 11203",59079898,"R"
285671,"750 LEXINGTON AVE","NEW YORK","NY",10022,40.7624907320001,-73.9680006739999,171,"750 LEXINGTON AVE, NEW YORK, NY, 10022","Match","Exact","750 LEXINGTON AVE, NEW YORK, NY, 10022",59657447,"L"
285672,"750 LIBERTY DRIVE","WESTFIELD","IN",46074,40.009753721,-86.170544932,172,"750 LIBERTY DRIVE, WESTFIELD, IN, 46074","Match","Exact","750 LIBERTY DR, WESTFIELD, IN, 46074",29339037,"L"
285673,"750 LOCK ROAD APT 110","DEERFIELD BEACH","FL",33442,26.3255507650001,-80.126087529,173,"750 LOCK ROAD APT 110, DEERFIELD BEACH, FL, 33442","Match","Exact","750 LOCK RD, DEERFIELD BEACH, FL, 33442",114764958,"R"
285674,"750 LOUISIANA AVENUE SUITE C1","PORT ALLEN","LA",70767,30.460802002,-91.209225907,174,"750 LOUISIANA AVENUE SUITE C1, PORT ALLEN, LA, 70767","Match","Exact","750 LOUISIANA AVE, PORT ALLEN, LA, 70767",92291837,"R"
285675,"750 MAIN STREET SUITE 504","HARTFORD","CT",6103,41.764781285,-72.673652428,175,"750 MAIN STREET SUITE 504, HARTFORD, CT, 6103","Match","Exact","750 MAIN ST, HARTFORD, CT, 06103",604940238,"R"
285676,"750 MAIN STREET SUITE 514","HARTFORD","CT",6103,41.764781285,-72.673652428,176,"750 MAIN STREET SUITE 514, HARTFORD, CT, 6103","Match","Exact","750 MAIN ST, HARTFORD, CT, 06103",604940238,"R"
285677,"750 MAIN STREET","GRAND JUNCTION","CO",81501,39.067326721,-108.560191816,177,"750 MAIN STREET, GRAND JUNCTION, CO, 81501","Match","Exact","750 MAIN ST, GRAND JCT, CO, 81501",122432457,"L"
285678,"750 MAINSTREET  UNIT 424","HOPKINS","MN",55343,44.9243945740001,-93.409478894,178,"750 MAINSTREET  UNIT 424, HOPKINS, MN, 55343","Match","Exact","750 MAINSTREET, HOPKINS, MN, 55343",43612438,"L"
285679,"750 MELBOURNE ST","PITTSBURGH","PA",15217,40.422091224,-79.931839037,179,"750 MELBOURNE ST, PITTSBURGH, PA, 15217","Match","Exact","750 MELBOURNE ST, PITTSBURGH, PA, 15217",51650812,"R"
285680,"750 MISSION OAKS LANE","SANTA BARBARA","CA",93101,34.4456674350001,-119.70960986,180,"750 MISSION OAKS LANE, SANTA BARBARA, CA, 93101","Match","Non_Exact","750 MISSION OAKS LN, SANTA BARBARA, CA, 93105",108604195,"R"
285681,"750 MONTGOMERY AVE MAILBOX684","BRYN MAWR","PA",19010,NA,NA,181,"750 MONTGOMERY AVE MAILBOX684, BRYN MAWR, PA, 19010","No_Match",NA,NA,NA,NA
285682,"750 MOORES CREEK ROAD","LEXINGTON","VA",24450,37.739859735,-79.62167429,182,"750 MOORES CREEK ROAD, LEXINGTON, VA, 24450","Match","Exact","750 MOORES CREEK RD, LEXINGTON, VA, 24450",63127173,"R"
285683,"750 MORRIS TURNPIKE","SHORT HILLS","NJ",7078,40.7201785250001,-74.332075919,183,"750 MORRIS TURNPIKE, SHORT HILLS, NJ, 7078","Match","Exact","750 MORRIS TPKE, SHORT HILLS, NJ, 07078",642912068,"L"
285684,"750 N BEECHCRAFT AVE","CHESTERFIELD","MO",63005,38.6643837250001,-90.651976269,184,"750 N BEECHCRAFT AVE, CHESTERFIELD, MO, 63005","Match","Exact","750 N BEECHCRAFT AVE, CHESTERFIELD, MO, 63005",100167706,"R"
285685,"750 N CHASE STREET","ATHENS","GA",30601,33.964393667,-83.392995368,185,"750 N CHASE STREET, ATHENS, GA, 30601","Match","Exact","750 N CHASE ST, ATHENS, GA, 30601",4811563,"R"
285686,"750 N DEARBORN APT 502","CHICAGO","IL",60654,NA,NA,186,"750 N DEARBORN APT 502, CHICAGO, IL, 60654","No_Match",NA,NA,NA,NA
285687,"750 N MURPHY RD","MURPHY","TX",75094,33.028667011,-96.612240072,187,"750 N MURPHY RD, MURPHY, TX, 75094","Match","Exact","750 N MURPHY RD, MURPHY, TX, 75094",123565129,"L"
285688,"750 N MURPHY ROAD","MURPHY","TX",75094,33.028667011,-96.612240072,188,"750 N MURPHY ROAD, MURPHY, TX, 75094","Match","Exact","750 N MURPHY RD, MURPHY, TX, 75094",123565129,"L"
285689,"750 NE 22ND AVE","CANBY","OR",97013,45.2811572680001,-122.686161611,189,"750 NE 22ND AVE, CANBY, OR, 97013","Match","Exact","750 NE 22ND AVE, CANBY, OR, 97013",157911735,"L"
285690,"750 NORTH BLACKHAWK BLVD","ROCKTON","IL",61072,42.459300247,-89.0687463679999,190,"750 NORTH BLACKHAWK BLVD, ROCKTON, IL, 61072","Match","Exact","750 N BLACKHAWK BLVD, ROCKTON, IL, 61072",49276091,"L"
285691,"750 NORTH COUNTRY CLUB RD","TUCSON","AZ",85716,32.2310873640001,-110.926713274,191,"750 NORTH COUNTRY CLUB RD, TUCSON, AZ, 85716","Match","Exact","750 N COUNTRY CLUB RD, TUCSON, AZ, 85716",121174192,"R"
285692,"750 NORTH MURPHY ROAD","MURPHY","TX",75094,33.028652111,-96.612240072,192,"750 NORTH MURPHY ROAD, MURPHY, TX, 75094","Match","Exact","750 N MURPHY RD, MURPHY, TX, 75094",123565129,"L"
285693,"750 NORTHERN AVE APT 2","CLARKSTON","GA",30021,33.797773163,-84.2474460179999,193,"750 NORTHERN AVE APT 2, CLARKSTON, GA, 30021","Match","Exact","750 NORTHERN AVE, CLARKSTON, GA, 30021",645264240,"L"
285694,"750 NW 168TH DRIVE","LAUDERDALE LAKES","FL",33309,NA,NA,194,"750 NW 168TH DRIVE, LAUDERDALE LAKES, FL, 33309","No_Match",NA,NA,NA,NA
285695,"750 NW 178 TERRACE","MIAMI","FL",33169,25.937730431,-80.21428193,195,"750 NW 178 TERRACE, MIAMI, FL, 33169","Match","Exact","750 NW 178TH TER, MIAMI, FL, 33169",116029820,"L"
285696,"750 NW AIROSO BLVD","PORT ST LUCIE","FL",34983,27.3345655250001,-80.356115137,196,"750 NW AIROSO BLVD, PORT ST LUCIE, FL, 34983","Match","Exact","750 AIROSO BLVD, PORT ST LUCIE, FL, 34983",120151235,"L"
285697,"750 OAKLAND AVE 107","OAKLAND","CA",94611,37.821323593,-122.248414632,197,"750 OAKLAND AVE 107, OAKLAND, CA, 94611","Match","Exact","750 OAKLAND AVE, OAKLAND, CA, 94611",640276529,"R"
285698,"750 OLD NUNEZ ROAD","SWAINSBORO","GA",30401,32.573215438,-82.347411053,198,"750 OLD NUNEZ ROAD, SWAINSBORO, GA, 30401","Match","Exact","750 OLD NUNEZ RD, SWAINSBORO, GA, 30401",16037516,"L"
285699,"750 OLD RARITAN ROAD","EDISON","NJ",8820,40.5987074860001,-74.388269582,199,"750 OLD RARITAN ROAD, EDISON, NJ, 8820","Match","Exact","750 OLD RARITAN RD, EDISON, NJ, 08820",60290502,"R"
285700,"750 OTAY LAKES ROAD SUITE 2050","CHULA VISTA","CA",91910,32.645375862,-117.000099026,200,"750 OTAY LAKES ROAD SUITE 2050, CHULA VISTA, CA, 91910","Match","Exact","750 OTAY LAKES RD, CHULA VISTA, CA, 91910",195364031,"R"
285701,"750 PARK COURT","SANTA CLARA","CA",95050,37.3407509260001,-121.933301775,201,"750 PARK COURT, SANTA CLARA, CA, 95050","Match","Exact","750 PARK CT, SANTA CLARA, CA, 95050",122903253,"L"
285702,"750 PLEASANT VALLEY LANE","APTOS","CA",95003,36.9846409030001,-121.823573864,202,"750 PLEASANT VALLEY LANE, APTOS, CA, 95003","Match","Exact","750 PLEASANT VALLEY LN, APTOS, CA, 95003",617411408,"R"
285703,"750 POPLAR BOULEVARD APT B7","JACKSON","MS",39202,32.3150681810001,-90.176083407,203,"750 POPLAR BOULEVARD APT B7, JACKSON, MS, 39202","Match","Exact","750 POPLAR BLVD, JACKSON, MS, 39202",65371283,"L"
285704,"750 PORT ST 1122","ALEXANDRIA","VA",22314,38.800468116,-77.068832986,204,"750 PORT ST 1122, ALEXANDRIA, VA, 22314","Match","Exact","750 PORT ST, ALEXANDRIA, VA, 22314",649017720,"L"
285705,"750 PURPLE ASTER AVE SW","LOS LUNAS","NM",87031,NA,NA,205,"750 PURPLE ASTER AVE SW, LOS LUNAS, NM, 87031","No_Match",NA,NA,NA,NA
285706,"750 RICHLAND ROAD","YUBA CITY","CA",95991,39.1180854340001,-121.621239975,206,"750 RICHLAND ROAD, YUBA CITY, CA, 95991","Match","Exact","750 RICHLAND RD, YUBA CITY, CA, 95991",68577829,"L"
285707,"750 RIDGESIDE DRIVE","MONROVIA","CA",91016,34.166702028,-117.99566316,207,"750 RIDGESIDE DRIVE, MONROVIA, CA, 91016","Match","Exact","750 RIDGESIDE DR, MONROVIA, CA, 91016",142743109,"R"
285708,"750 S COPPER WOODS LN","COPPER CANYON","TX",75077,NA,NA,208,"750 S COPPER WOODS LN, COPPER CANYON, TX, 75077","Tie",NA,NA,NA,NA
285709,"750 S GLASGOW AVE","INGLEWOOD","CA",90301,33.954305133,-118.371774514,209,"750 S GLASGOW AVE, INGLEWOOD, CA, 90301","Match","Exact","750 S GLASGOW AVE, INGLEWOOD, CA, 90301",241242496,"L"
285710,"750 S LINCOLN AVE  104-243","CORONA","CA",92882,33.875645858,-117.583434645,210,"750 S LINCOLN AVE  104-243, CORONA, CA, 92882","Match","Non_Exact","750 S LINCOLN AVE, CORONA, CA, 92882",194732023,"R"
285711,"750 S LINCOLN AVE SUITE 464","CORONA","CA",92882,33.875645858,-117.583434645,211,"750 S LINCOLN AVE SUITE 464, CORONA, CA, 92882","Match","Non_Exact","750 S LINCOLN AVE, CORONA, CA, 92882",194732023,"R"
285712,"750 S ORANGE BLOSSOM TRAIL STE 114","ORLANDO","FL",32805,28.533837681,-81.3971679049999,212,"750 S ORANGE BLOSSOM TRAIL STE 114, ORLANDO, FL, 32805","Match","Non_Exact","750 S ORANGE BLOSSOM TRL, ORLANDO, FL, 32805",637467721,"R"
285713,"750 S ORANGE BLOSSOM TRAIL STE 140","ORLANDO","FL",32805,28.533837681,-81.3971679049999,213,"750 S ORANGE BLOSSOM TRAIL STE 140, ORLANDO, FL, 32805","Match","Non_Exact","750 S ORANGE BLOSSOM TRL, ORLANDO, FL, 32805",637467721,"R"
285714,"750 S ORANGE BLOSSOM TRAIL STE 54","ORLANDO","FL",32805,28.533837681,-81.3971679049999,214,"750 S ORANGE BLOSSOM TRAIL STE 54, ORLANDO, FL, 32805","Match","Non_Exact","750 S ORANGE BLOSSOM TRL, ORLANDO, FL, 32805",637467721,"R"
285715,"750 S PERRY ST SUITE 400","LAWRENCEVILLE","GA",30046,NA,NA,215,"750 S PERRY ST SUITE 400, LAWRENCEVILLE, GA, 30046","No_Match",NA,NA,NA,NA
285716,"750 S PHILLIPS AVENUE","SIOUX FALLS","SD",57104,43.5395605750001,-96.726735664,216,"750 S PHILLIPS AVENUE, SIOUX FALLS, SD, 57104","Match","Exact","750 S PHILLIPS AVE, SIOUX FALLS, SD, 57104",34972846,"L"
285717,"750 S PLAZA DRIVE STE 112","MENDOTA HEIGHTS","MN",55120,44.880615232,-93.12386183,217,"750 S PLAZA DRIVE STE 112, MENDOTA HEIGHTS, MN, 55120","Match","Non_Exact","750 S PLAZA DR, MENDOTA HEIGHTS, MN, 55120",37928120,"L"
285718,"750 SEAGATE DR","NAPLES","FL",34103,26.2111906160001,-81.803118078,218,"750 SEAGATE DR, NAPLES, FL, 34103","Match","Exact","750 SEAGATE DR, NAPLES, FL, 34103",631967224,"R"
285719,"750 SINCLAIR DRIVE / PO BOX 3158","MONROE","NC",28112,34.976969533,-80.5815132339999,219,"750 SINCLAIR DRIVE / PO BOX 3158, MONROE, NC, 28112","Match","Exact","750 SINCLAIR DR, MONROE, NC, 28112",634902571,"R"
285720,"750 SOUTH OBT SUITE 244","ORLANDO","FL",32805,NA,NA,220,"750 SOUTH OBT SUITE 244, ORLANDO, FL, 32805","No_Match",NA,NA,NA,NA
285721,"750 SOUTH ORANGE BLOSSOM TRAIL 153","ORLANDO","FL",32805,28.533850323,-81.397168084,221,"750 SOUTH ORANGE BLOSSOM TRAIL 153, ORLANDO, FL, 32805","Match","Exact","750 S ORANGE BLOSSOM TRL, ORLANDO, FL, 32805",637467721,"R"
285722,"750 SOUTH ORANGE BLOSSOM TRAIL","ORLANDO","FL",32805,28.533850323,-81.397168084,222,"750 SOUTH ORANGE BLOSSOM TRAIL, ORLANDO, FL, 32805","Match","Exact","750 S ORANGE BLOSSOM TRL, ORLANDO, FL, 32805",637467721,"R"
285723,"750 STORY ROAD","SAN JOSE","CA",95122,37.3260138140001,-121.865029259,223,"750 STORY ROAD, SAN JOSE, CA, 95122","Match","Exact","750 STORY RD, SAN JOSE, CA, 95122",122909187,"R"
285724,"750 SUMMER STREET APT 405","STAMFORD","CT",6901,41.05819359,-73.540133856,224,"750 SUMMER STREET APT 405, STAMFORD, CT, 6901","Match","Exact","750 SUMMER ST, STAMFORD, CT, 06901",647170663,"L"
285725,"750 TAYLORS RIDGE ROAD","RINGGOLD","GA",30736,34.894233867,-85.102368665,225,"750 TAYLORS RIDGE ROAD, RINGGOLD, GA, 30736","Match","Exact","750 TAYLORS RIDGE RD, RINGGOLD, GA, 30736",651102739,"R"
285726,"750 TEXAS OAK TRAIL","LAKE DALLAS","TX",75065,33.1406123310001,-97.0341232219999,226,"750 TEXAS OAK TRAIL, LAKE DALLAS, TX, 75065","Match","Exact","750 TEXAS OAK TRL, LAKE DALLAS, TX, 75065",103375584,"L"
285727,"750 THOMPSON RIVER ROAD","MARION","MT",59925,48.0065492370001,-114.976502489,227,"750 THOMPSON RIVER ROAD, MARION, MT, 59925","Match","Exact","750 THOMPSON RIVER RD, MARION, MT, 59925",642561547,"L"
285728,"750 TINTON AVENUE","TINTON FALLS","NJ",7724,40.3046746380001,-74.1021164429999,228,"750 TINTON AVENUE, TINTON FALLS, NJ, 7724","Match","Exact","750 TINTON AVE, TINTON FALLS, NJ, 07724",90530931,"L"
285729,"750 TUCKER RD","WINDER","GA",30680,33.9574494550001,-83.7777136289999,229,"750 TUCKER RD, WINDER, GA, 30680","Match","Exact","750 TUCKER RD, WINDER, GA, 30680",619882016,"R"
285730,"750 W 58TH STREET","CASPER","WY",82601,42.797561209,-106.333203465,230,"750 W 58TH STREET, CASPER, WY, 82601","Match","Exact","750 W 58TH ST, CASPER, WY, 82601",149025064,"R"
285731,"750 W BASELINE RD 1012","TEMPE","AZ",85283,NA,NA,231,"750 W BASELINE RD 1012, TEMPE, AZ, 85283","Tie",NA,NA,NA,NA
285732,"750 W BASELINE RD APT 2110","TEMPE","AZ",85283,NA,NA,232,"750 W BASELINE RD APT 2110, TEMPE, AZ, 85283","Tie",NA,NA,NA,NA
285733,"750 W EUCLID","DETROIT","MI",48202,42.3752702800001,-83.083110319,233,"750 W EUCLID, DETROIT, MI, 48202","Match","Non_Exact","750 W EUCLID ST, DETROIT, MI, 48202",95475492,"R"
285734,"750 W RIDGEVIEW DRIVE STE 104","SAINT GEORGE","UT",84790,37.120200159,-113.601452076,234,"750 W RIDGEVIEW DRIVE STE 104, SAINT GEORGE, UT, 84790","Match","Non_Exact","750 RIDGEVIEW DR, SAINT GEORGE, UT, 84770",640967838,"L"
285735,"750 WATERLOO ROAD","STANHOPE","NJ",7874,NA,NA,235,"750 WATERLOO ROAD, STANHOPE, NJ, 7874","No_Match",NA,NA,NA,NA
285736,"750 WEST BROADWAY 2R","LONG BEACH","NY",11561,40.5845320930001,-73.685546283,236,"750 WEST BROADWAY 2R, LONG BEACH, NY, 11561","Match","Exact","750 W BROADWAY, LONG BEACH, NY, 11561",147679559,"L"
285737,"750 WEST IREDELL AVENUE","MOORESVILLE","NC",28115,35.593891268,-80.815997129,237,"750 WEST IREDELL AVENUE, MOORESVILLE, NC, 28115","Match","Exact","750 W IREDELL AVE, MOORESVILLE, NC, 28115",45992494,"L"
285738,"750 WEST LAKE COOK ROAD SUITE 480","BUFFALO GROVE","IL",60089,42.1520792790001,-87.975062045,238,"750 WEST LAKE COOK ROAD SUITE 480, BUFFALO GROVE, IL, 60089","Match","Exact","750 W LAKE COOK RD, BUFFALO GROVE, IL, 60089",629478054,"R"
285739,"750 WEYMOUTH RD","MEDINA","OH",44256,41.1424086710001,-81.85016835,239,"750 WEYMOUTH RD, MEDINA, OH, 44256","Match","Exact","750 WEYMOUTH RD, MEDINA, OH, 44256",58676272,"R"
285740,"750 WINDRUSH DRIVE","DALLASTOWN","PA",17313,39.8865556100001,-76.628411969,240,"750 WINDRUSH DRIVE, DALLASTOWN, PA, 17313","Match","Exact","750 WINDRUSH DR, DALLASTOWN, PA, 17313",88758395,"R"
285741,"7500 AFTON","NEW ORLEANS","LA",70127,30.03978613,-89.9928901219999,241,"7500 AFTON, NEW ORLEANS, LA, 70127","Match","Non_Exact","7500 AFTON DR, NEW ORLEANS, LA, 70127",191720625,"L"
285742,"7500 BARLITE STE 309","SAN ANTONIO","TX",78224,29.3514970860001,-98.546553193,242,"7500 BARLITE STE 309, SAN ANTONIO, TX, 78224","Match","Non_Exact","7500 BARLITE BLVD, SAN ANTONIO, TX, 78224",645393580,"L"
285743,"7500 BERNAY ST 38D","AMARILLO","TX",79119,35.1316570760001,-101.90596289,243,"7500 BERNAY ST 38D, AMARILLO, TX, 79119","Match","Exact","7500 BERNAY ST, AMARILLO, TX, 79119",182653371,"R"
285744,"7500 BROMPTON ST APT 493","HOUSTON","TX",77025,29.699609208,-95.422972074,244,"7500 BROMPTON ST APT 493, HOUSTON, TX, 77025","Match","Exact","7500 BROMPTON ST, HOUSTON, TX, 77025",96609778,"R"
285745,"7500 BROOKTREE ROAD SUITE 201","WEXFORD","PA",15090,NA,NA,245,"7500 BROOKTREE ROAD SUITE 201, WEXFORD, PA, 15090","No_Match",NA,NA,NA,NA
285746,"7500 BUSH GARDEN","LAS VEGAS","NV",89129,36.2410429220001,-115.258542807,246,"7500 BUSH GARDEN, LAS VEGAS, NV, 89129","Match","Non_Exact","7500 BUSH GARDEN AVE, LAS VEGAS, NV, 89129",201906793,"R"
285747,"7500 CALLAGHAN RD UNIT 193","SAN ANTONIO","TX",78229,29.504358478,-98.559177193,247,"7500 CALLAGHAN RD UNIT 193, SAN ANTONIO, TX, 78229","Match","Exact","7500 CALLAGHAN RD, SAN ANTONIO, TX, 78229",650124769,"R"
285748,"7500 CITATION LANE","BAKERSFIELD","CA",93307,35.2860573610001,-118.916709385,248,"7500 CITATION LANE, BAKERSFIELD, CA, 93307","Match","Exact","7500 CITATION LN, BAKERSFIELD, CA, 93307",109098373,"R"
285749,"7500 CLIFFS LANDING RD LOT E5","BAY MINETTE","AL",36507,30.863478839,-87.893130937,249,"7500 CLIFFS LANDING RD LOT E5, BAY MINETTE, AL, 36507","Match","Exact","7500 CLIFFS LANDING RD, BAY MINETTE, AL, 36507",636062629,"L"
285750,"7500 CLINTON-MACON ROAD","CLINTON","MI",49236,42.066164009,-83.880066354,250,"7500 CLINTON-MACON ROAD, CLINTON, MI, 49236","Match","Non_Exact","7500 CLINTON MACON RD, CLINTON, MI, 49236",25953270,"L"
285751,"7500 COUNTY LINE RD","BURR RIDGE","IL",60527,41.7519987260001,-87.9156166399999,251,"7500 COUNTY LINE RD, BURR RIDGE, IL, 60527","Match","Non_Exact","7500 S COUNTY LINE RD, BURR RIDGE, IL, 60527",112391737,"R"
285752,"7500 E 4TH AVENUE","ANCHORAGE","AK",99504,61.218742703,-149.740911219,252,"7500 E 4TH AVENUE, ANCHORAGE, AK, 99504","Match","Exact","7500 E 4TH AVE, ANCHORAGE, AK, 99504",190825971,"R"
285753,"7500 E 6TH AVE","ANCHORAGE","AK",99504,61.216937774,-149.740670829,253,"7500 E 6TH AVE, ANCHORAGE, AK, 99504","Match","Exact","7500 E 6TH AVE, ANCHORAGE, AK, 99504",190802904,"R"
285754,"7500 E CIVIC CIRCLE","PRESCOTT VALLEY","AZ",86314,34.596535767,-112.334975435,254,"7500 E CIVIC CIRCLE, PRESCOTT VALLEY, AZ, 86314","Match","Exact","7500 E CIVIC CIR, PRESCOTT VALLEY, AZ, 86314",648333627,"R"
285755,"7500 E COUNTRY CLUB DR","BOCA RATON","FL",33487,26.416759739,-80.080960858,255,"7500 E COUNTRY CLUB DR, BOCA RATON, FL, 33487","Match","Non_Exact","7500 E COUNTRY CLUB BLVD, BOCA RATON, FL, 33487",115293181,"R"
285756,"7500 E DEER VALLEY RD UNIT 30","SCOTTSDALE","AZ",85255,33.6842238020001,-111.918096857,256,"7500 E DEER VALLEY RD UNIT 30, SCOTTSDALE, AZ, 85255","Match","Non_Exact","7500 E DEER VALLEY RD, SCOTTSDALE, AZ, 85255",128828570,"L"
285757,"7500 E PINNACLE PEAK RD G-120","SCOTTSDALE","AZ",85255,33.6987018020001,-111.918670554,257,"7500 E PINNACLE PEAK RD G-120, SCOTTSDALE, AZ, 85255","Match","Non_Exact","7500 E PINNACLE PEAK RD, SCOTTSDALE, AZ, 85255",640591071,"L"
285758,"7500 EAST TOWNSHIP ROAD 148","REPUBLIC","OH",44867,NA,NA,258,"7500 EAST TOWNSHIP ROAD 148, REPUBLIC, OH, 44867","No_Match",NA,NA,NA,NA
285759,"7500 EF LOWRY EXPY APT 2803","TEXAS CITY","TX",77591,NA,NA,259,"7500 EF LOWRY EXPY APT 2803, TEXAS CITY, TX, 77591","No_Match",NA,NA,NA,NA
285760,"7500 FAXON COURT","LOUISVILLEK","KY",40258,38.143825855,-85.8786848839999,260,"7500 FAXON COURT, LOUISVILLEK, KY, 40258","Match","Non_Exact","7500 FAXON CT, LOUISVILLE, KY, 40258",96837661,"R"
285761,"7500 GEOINT DR","FT BELVOIR","VA",22060,NA,NA,261,"7500 GEOINT DR, FT BELVOIR, VA, 22060","No_Match",NA,NA,NA,NA
285762,"7500 MAPLE AVE","TAKOMA PARK","MD",20912,38.98109348,-77.010264287,262,"7500 MAPLE AVE, TAKOMA PARK, MD, 20912","Match","Exact","7500 MAPLE AVE, TAKOMA PARK, MD, 20912",62068824,"L"
285763,"7500 MIDDLEBRANCH AVE NE","CANTON","OH",44721,40.8886160610001,-81.329565407,263,"7500 MIDDLEBRANCH AVE NE, CANTON, OH, 44721","Match","Exact","7500 MIDDLEBRANCH AVE NE, CANTON, OH, 44721",64721908,"R"
285764,"7500 MILWAUKEE AVE","WAUWATOSA","WI",53213,43.052607268,-88.006090754,264,"7500 MILWAUKEE AVE, WAUWATOSA, WI, 53213","Match","Exact","7500 MILWAUKEE AVE, WAUWATOSA, WI, 53213",77732507,"R"
285765,"7500 N DREAMY DRAW DRIVE SUITE 230","PHOENIX","AZ",85020,33.545819115,-112.042719221,265,"7500 N DREAMY DRAW DRIVE SUITE 230, PHOENIX, AZ, 85020","Match","Non_Exact","7500 N DREAMY DRAW DR, PHOENIX, AZ, 85020",128371100,"L"
285766,"7500 N LINDER AVE","SKOKIE","IL",60077,42.0177945570001,-87.7647572399999,266,"7500 N LINDER AVE, SKOKIE, IL, 60077","Match","Exact","7500 LINDER AVE, SKOKIE, IL, 60077",111736825,"L"
285767,"7500 NANCEMOND ST","SPRINGFIELD","VA",22150,38.7856942240001,-77.201705292,267,"7500 NANCEMOND ST, SPRINGFIELD, VA, 22150","Match","Exact","7500 NANCEMOND ST, SPRINGFIELD, VA, 22150",75983217,"R"
285768,"7500 NW 104 AVENUE STE B203","DORAL","FL",33178,25.8408246270001,-80.3663045659999,268,"7500 NW 104 AVENUE STE B203, DORAL, FL, 33178","Match","Non_Exact","7500 NW 104TH AVE, DORAL, FL, 33178",649356115,"L"
285769,"7500 NW 25TH ST  SUITE 237","DORAL","FL",33122,25.7970994290001,-80.31865772,269,"7500 NW 25TH ST  SUITE 237, DORAL, FL, 33122","Match","Non_Exact","7500 NW 25TH ST, DORAL, FL, 33122",115974089,"L"
285770,"7500 OAK PARK DR","NORTH RICHLAND HILLS","TX",76182,32.8844541600001,-97.216799594,270,"7500 OAK PARK DR, NORTH RICHLAND HILLS, TX, 76182","Match","Exact","7500 OAK PARK DR, NORTH RICHLAND HILLS, TX, 76182",101861194,"R"
285771,"7500 OAKLAND STREET","DETROIT","MI",48221,42.3752491750001,-83.065433094,271,"7500 OAKLAND STREET, DETROIT, MI, 48221","Match","Non_Exact","7500 OAKLAND ST, DETROIT, MI, 48211",95476773,"R"
285772,"7500 OAKLAND","DETROIT","MI",48211,42.3752491750001,-83.065433094,272,"7500 OAKLAND, DETROIT, MI, 48211","Match","Non_Exact","7500 OAKLAND AVE, DETROIT, MI, 48211",95476773,"R"
285773,"7500 OLD GEORGETOWN ROAD-SUITE 901","BETHESDA","MD",20814,NA,NA,273,"7500 OLD GEORGETOWN ROAD-SUITE 901, BETHESDA, MD, 20814","No_Match",NA,NA,NA,NA
285774,"7500 OLD MONROE ROAD","BASTROP","LA",71220,32.728696825,-91.921638509,274,"7500 OLD MONROE ROAD, BASTROP, LA, 71220","Match","Exact","7500 OLD MONROE RD, BASTROP, LA, 71220",607482164,"R"
285775,"7500 OLD ROXBURY RD","QUINTON","VA",23141,37.5121762740001,-77.142727852,275,"7500 OLD ROXBURY RD, QUINTON, VA, 23141","Match","Exact","7500 OLD ROXBURY RD, QUINTON, VA, 23141",607179611,"L"
285776,"7500 ORCHARDHILL DRIVE","NORTH CHESTERFIELD","VA",23234,37.414588264,-77.488907666,276,"7500 ORCHARDHILL DRIVE, NORTH CHESTERFIELD, VA, 23234","Match","Exact","7500 ORCHARDHILL DR, NORTH CHESTERFIELD, VA, 23234",201546094,"L"
285777,"7500 PROSPECT DRIVE","FREDERICK","MD",21702,39.439703369,-77.4626222809999,277,"7500 PROSPECT DRIVE, FREDERICK, MD, 21702","Match","Exact","7500 PROSPECT DR, FREDERICK, MD, 21702",60671845,"L"
285778,"7500 RIALTO BLVD BUILDING 1 STE 250","AUSTIN","TX",78735,NA,NA,278,"7500 RIALTO BLVD BUILDING 1 STE 250, AUSTIN, TX, 78735","No_Match",NA,NA,NA,NA
285779,"7500 RIDGELAND DRIVE","BISMARCK","ND",58503,46.8857832580001,-100.785826928,279,"7500 RIDGELAND DRIVE, BISMARCK, ND, 58503","Match","Exact","7500 RIDGELAND DR, BISMARCK, ND, 58503",652097422,"R"
285780,"7500 SAN FELIPE       SUITE 990","HOUSTON","TX",77063,29.7504885880001,-95.501255153,280,"7500 SAN FELIPE       SUITE 990, HOUSTON, TX, 77063","Match","Non_Exact","7500 SAN FELIPE ST, HOUSTON, TX, 77063",642476127,"R"
285781,"7500 SAN FELIPE SUITE 600","HOUSTON","TX",77063,29.7504885880001,-95.501255153,281,"7500 SAN FELIPE SUITE 600, HOUSTON, TX, 77063","Match","Non_Exact","7500 SAN FELIPE ST, HOUSTON, TX, 77063",642476127,"R"
285782,"7500 SHEA ROAD","FABIUS","NY",13063,42.899652508,-76.0063853039999,282,"7500 SHEA ROAD, FABIUS, NY, 13063","Match","Exact","7500 SHEA RD, FABIUS, NY, 13063",46578901,"R"
285783,"7500 TYONE CT","ANCHORAGE","AK",99508,61.1982891540001,-149.740878297,283,"7500 TYONE CT, ANCHORAGE, AK, 99508","Match","Non_Exact","7500 TYONE CT, ANCHORAGE, AK, 99504",190816139,"R"
285784,"7500 W LAKE MEAD BLVD STE 9-621","LAS VEGAS","NV",89128,36.196120196,-115.257128688,284,"7500 W LAKE MEAD BLVD STE 9-621, LAS VEGAS, NV, 89128","Match","Non_Exact","7500 W LAKE MEAD BLVD, LAS VEGAS, NV, 89128",201905330,"R"
285785,"7500 W LAKE MEAD BLVD STE 9219","LAS VEGAS","NV",89128,36.196120196,-115.257128688,285,"7500 W LAKE MEAD BLVD STE 9219, LAS VEGAS, NV, 89128","Match","Non_Exact","7500 W LAKE MEAD BLVD, LAS VEGAS, NV, 89128",201905330,"R"
285786,"7500 WALLACE ROAD SUITE 200","CHARLOTTE","NC",28212,35.1716206940001,-80.747154715,286,"7500 WALLACE ROAD SUITE 200, CHARLOTTE, NC, 28212","Match","Exact","7500 WALLACE RD, CHARLOTTE, NC, 28212",70493346,"R"
285787,"7500 WHISPERING SANDS DR","LAS VEGAS","NV",89131,NA,NA,287,"7500 WHISPERING SANDS DR, LAS VEGAS, NV, 89131","No_Match",NA,NA,NA,NA
285788,"7500 WHITE PLAINS LANE","BRANDYWINE","MD",20613,38.697512467,-76.8772486949999,288,"7500 WHITE PLAINS LANE, BRANDYWINE, MD, 20613","Match","Exact","7500 WHITE PLAINS LN, BRANDYWINE, MD, 20613",624709810,"L"
285789,"7500 WILLOW ST","SOLON","OH",44139,41.3538544740001,-81.3954979219999,289,"7500 WILLOW ST, SOLON, OH, 44139","Match","Exact","7500 WILLOW ST, SOLON, OH, 44139",61154622,"R"
285790,"7500 WILMAR PL","ROSEMEAD","CA",91770,34.056883032,-118.105286513,290,"7500 WILMAR PL, ROSEMEAD, CA, 91770","Match","Exact","7500 WILMAR PL, ROSEMEAD, CA, 91770",142239440,"L"
285791,"7500 WOODMONT AVE S1116","BETHESDA","MD",20814,38.984105475,-77.096285409,291,"7500 WOODMONT AVE S1116, BETHESDA, MD, 20814","Match","Exact","7500 WOODMONT AVE, BETHESDA, MD, 20814",62085163,"R"
285792,"7501 208TH STREET SW","LYNNWOOD","WA",98036,47.810580841,-122.334345768,292,"7501 208TH STREET SW, LYNNWOOD, WA, 98036","Match","Exact","7501 208TH ST SW, LYNNWOOD, WA, 98036",608925226,"R"
285793,"7501 52ND TERRACE EAST","BRADENTON","FL",34203,27.44836365,-82.463435906,293,"7501 52ND TERRACE EAST, BRADENTON, FL, 34203","Match","Exact","7501 52ND TER E, BRADENTON, FL, 34203",16258778,"L"
285794,"7501 ABIDING PLACE APT D","SACRAMENTO","CA",95823,38.484670715,-121.456397155,294,"7501 ABIDING PLACE APT D, SACRAMENTO, CA, 95823","Match","Exact","7501 ABIDING PL, SACRAMENTO, CA, 95823",133351572,"L"
285795,"7501 APPLE CIDER ST","LAS VEGAS","NV",89131,36.296904678,-115.273630123,295,"7501 APPLE CIDER ST, LAS VEGAS, NV, 89131","Match","Exact","7501 APPLE CIDER ST, LAS VEGAS, NV, 89131",201950290,"L"
285796,"7501 BEECH DALY RD","TAYLOR","MI",48180,42.2522449050001,-83.2892024719999,296,"7501 BEECH DALY RD, TAYLOR, MI, 48180","Match","Exact","7501 BEECH DALY RD, TAYLOR, MI, 48180",95436247,"L"
285797,"7501 BRONZE DRIVE","MEMPHIS","TN",38125,35.014772791,-89.81290495,297,"7501 BRONZE DRIVE, MEMPHIS, TN, 38125","Match","Exact","7501 BRONZE DR, MEMPHIS, TN, 38125",618710692,"R"
285798,"7501 BULLARD AVENUE","NEW ORLEANS","LA",70128,30.053164979,-89.966732832,298,"7501 BULLARD AVENUE, NEW ORLEANS, LA, 70128","Match","Exact","7501 BULLARD AVE, NEW ORLEANS, LA, 70128",191736844,"L"
285799,"7501 CALDWELL RD","HARRISBURG","NC",28075,35.317130773,-80.674060847,299,"7501 CALDWELL RD, HARRISBURG, NC, 28075","Match","Exact","7501 CALDWELL RD, HARRISBURG, NC, 28075",642807088,"R"
285800,"7501 CENTRAL AVENUE","INDIANAPOLIS","IN",46240,39.890670846,-86.1506280949999,300,"7501 CENTRAL AVENUE, INDIANAPOLIS, IN, 46240","Match","Exact","7501 CENTRAL AVE, INDIANAPOLIS, IN, 46240",107983113,"R"
285801,"7501 CITRUS AVE 1751","OVIEDO","FL",32733,NA,NA,301,"7501 CITRUS AVE 1751, OVIEDO, FL, 32733","No_Match",NA,NA,NA,NA
285802,"7501 CITRUS AVE UNIT 879","GOLDENROD","FL",32733,NA,NA,302,"7501 CITRUS AVE UNIT 879, GOLDENROD, FL, 32733","No_Match",NA,NA,NA,NA
285803,"7501 CRESCENT BEND COVE","STONE MOUNTAIN","GA",30087,33.778754055,-84.083111843,303,"7501 CRESCENT BEND COVE, STONE MOUNTAIN, GA, 30087","Match","Exact","7501 CRESCENT BEND COVE, STONE MOUNTAIN, GA, 30087",23394914,"R"
285804,"7501 E 300 N","LAFAYETTE","IN",47905,40.4610276830001,-86.766250164,304,"7501 E 300 N, LAFAYETTE, IN, 47905","Match","Exact","7501 E 300 N, LAFAYETTE, IN, 47905",27309839,"R"
285805,"7501 E VEVE LN","TAMPA","FL",33610,28.0179256230001,-82.4259028879999,305,"7501 E VEVE LN, TAMPA, FL, 33610","Match","Exact","7501 E VEVE LN, TAMPA, FL, 33610",104531749,"R"
285806,"7501 EGYPT ROAD","NEW KENT","VA",23124,37.5132619510001,-76.985137321,306,"7501 EGYPT ROAD, NEW KENT, VA, 23124","Match","Exact","7501 EGYPT RD, NEW KENT, VA, 23124",641052989,"R"
285807,"7501 ESTERS BLVD SUITE 160","IRVING","TX",75261,32.9101017840001,-97.008029503,307,"7501 ESTERS BLVD SUITE 160, IRVING, TX, 75261","Match","Non_Exact","7501 ESTERS BLVD, IRVING, TX, 75063",102966410,"L"
285808,"7501 GRAYSTONE DR","CANOGA PARK","CA",91304,34.2081656400001,-118.655030995,308,"7501 GRAYSTONE DR, CANOGA PARK, CA, 91304","Match","Exact","7501 GRAYSTONE DR, CANOGA PARK, CA, 91304",141804273,"L"
285809,"7501 HAMPSTEAD HALL DR","OOLTEWAH","TN",37363,35.138217872,-85.0680560329999,309,"7501 HAMPSTEAD HALL DR, OOLTEWAH, TN, 37363","Match","Exact","7501 HAMPSTEAD HALL DR, OOLTEWAH, TN, 37363",633826159,"L"
285810,"7501 HARRISON ST","FOREST PARK","IL",60130,41.8721930830001,-87.812029649,310,"7501 HARRISON ST, FOREST PARK, IL, 60130","Match","Exact","7501 HARRISON ST, FOREST PARK, IL, 60130",629478372,"R"
285811,"7501 HARWIN DR 102A","HOUSTON","TX",77036,29.717627829,-95.518701096,311,"7501 HARWIN DR 102A, HOUSTON, TX, 77036","Match","Exact","7501 HARWIN DR, HOUSTON, TX, 77036",96614273,"L"
285812,"7501 JEFFERSON PAIGE RD","SHREVEPORT","LA",71119,32.482299594,-93.916690454,312,"7501 JEFFERSON PAIGE RD, SHREVEPORT, LA, 71119","Match","Exact","7501 JEFFERSON PAIGE RD, SHREVEPORT, LA, 71119",57479359,"R"
285813,"7501 LOWER EAST HILL ROAD","COLDEN","NY",14033,42.6810235890001,-78.701977405,313,"7501 LOWER EAST HILL ROAD, COLDEN, NY, 14033","Match","Exact","7501 LOWER EAST HILL RD, COLDEN, NY, 14033",644784096,"L"
285814,"7501 MEADOWSIDE RD","FORT WORTH","TX",76132,32.646379892,-97.424065986,314,"7501 MEADOWSIDE RD, FORT WORTH, TX, 76132","Match","Exact","7501 MEADOWSIDE RD, FORT WORTH, TX, 76132",101950347,"L"
285815,"7501 N UNIVERSITY ST STE 217C","PEORIA","IL",61614,40.7787974710001,-89.621557353,315,"7501 N UNIVERSITY ST STE 217C, PEORIA, IL, 61614","Match","Non_Exact","7501 N UNIVERSITY ST, PEORIA, IL, 61614",8726293,"L"
285816,"7501 PARAGON ROAD","DAYTON","OH",45459,39.6358620440001,-84.173923362,316,"7501 PARAGON ROAD, DAYTON, OH, 45459","Match","Exact","7501 PARAGON RD, DAYTON, OH, 45459",640631946,"R"
285817,"7501 REPUBLIC CT","ALEXANDRIA","VA",22306,38.7542581280001,-77.07899434,317,"7501 REPUBLIC CT, ALEXANDRIA, VA, 22306","Match","Exact","7501 REPUBLIC CT, ALEXANDRIA, VA, 22306",624431244,"L"
285818,"7501 SOUTH  KNIGHTS BRIDGE RD","CANBY","OR",97013,45.2667608260001,-122.720715448,318,"7501 SOUTH  KNIGHTS BRIDGE RD, CANBY, OR, 97013","Match","Exact","7501 S KNIGHTS BRIDGE RD, CANBY, OR, 97013",157937425,"L"
285819,"7501 ST ANTHONY ST","MARRERO","LA",70072,29.8977279480001,-90.1300452149999,319,"7501 ST ANTHONY ST, MARRERO, LA, 70072","Match","Exact","7501 ST ANTHONY ST, MARRERO, LA, 70072",93505483,"L"
285820,"7501 STONECUTTER CT UNIT E","ROSEDALE","MD",21237,39.3571750630001,-76.498459928,320,"7501 STONECUTTER CT UNIT E, ROSEDALE, MD, 21237","Match","Exact","7501 STONECUTTER CT, ROSEDALE, MD, 21237",191478407,"R"
285821,"7501 SUNNYFIELD CT","LOUISVILLE","KY",40220,38.2043496060001,-85.6180343,321,"7501 SUNNYFIELD CT, LOUISVILLE, KY, 40220","Match","Exact","7501 SUNNYFIELD CT, LOUISVILLE, KY, 40220",96857530,"R"
285822,"7501 TEASLEY LANE","DENTON","TX",76210,NA,NA,322,"7501 TEASLEY LANE, DENTON, TX, 76210","No_Match",NA,NA,NA,NA
285823,"7501 TRAFALGAR CIR APT 330","HANOVER","MD",21076,39.161741211,-76.718749966,323,"7501 TRAFALGAR CIR APT 330, HANOVER, MD, 21076","Match","Exact","7501 TRAFALGAR CIR, HANOVER, MD, 21076",646653153,"R"
285824,"7501 TULE SPRINGS ROAD STE 170","LAS VEGAS","NV",89131,NA,NA,324,"7501 TULE SPRINGS ROAD STE 170, LAS VEGAS, NV, 89131","No_Match",NA,NA,NA,NA
285825,"7501 WEST COLONIAL ROAD","ORLANDO","FL",32818,28.552095046,-81.4844437529999,325,"7501 WEST COLONIAL ROAD, ORLANDO, FL, 32818","Match","Non_Exact","7501 W COLONIAL DR, ORLANDO, FL, 32818",94342245,"L"
285826,"7501 WEST HEFNER ROAD","OKLAHOMA CITY","OK",73162,35.580101084,-97.6468692989999,326,"7501 WEST HEFNER ROAD, OKLAHOMA CITY, OK, 73162","Match","Exact","7501 W HEFNER RD, OKLAHOMA CITY, OK, 73162",100450036,"R"
285827,"7501 WEST UPPER RIDGE DRIVE","PARKLAND","FL",33067,26.3238251550001,-80.2334835569999,327,"7501 WEST UPPER RIDGE DRIVE, PARKLAND, FL, 33067","Match","Exact","7501 W UPPER RIDGE DR, PARKLAND, FL, 33067",114768026,"R"
285828,"7501 WOODCREST AVENUE","PHILADELPHIA","PA",19151,39.975065801,-75.265201416,328,"7501 WOODCREST AVENUE, PHILADELPHIA, PA, 19151","Match","Exact","7501 WOODCREST AVE, PHILADELPHIA, PA, 19151",131393025,"R"
285829,"7502 ABILENE DR","KILLEEN","TX",76549,31.059822206,-97.798565481,329,"7502 ABILENE DR, KILLEEN, TX, 76549","Match","Exact","7502 ABILENE DR, KILLEEN, TX, 76549",636976978,"R"
285830,"7502 ALDERSON ST","HOUSTON","TX",77020,29.787012313,-95.293216367,330,"7502 ALDERSON ST, HOUSTON, TX, 77020","Match","Exact","7502 ALDERSON ST, HOUSTON, TX, 77020",96080738,"R"
285831,"7502 ANDERSONVILLE PIKE","KNOXVILLE","TN",37938,36.08903429,-83.9340823369999,331,"7502 ANDERSONVILLE PIKE, KNOXVILLE, TN, 37938","Match","Exact","7502 ANDERSONVILLE PIKE, KNOXVILLE, TN, 37938",604667918,"L"
285832,"7502 BRINDLE COURT","HYATTSVILLE","MD",20785,38.894954221,-76.876171181,332,"7502 BRINDLE COURT, HYATTSVILLE, MD, 20785","Match","Exact","7502 BRINDLE CT, HYATTSVILLE, MD, 20785",76347765,"L"
285833,"7502 CHANCELLOR WAY","SPRINGFIELD","VA",22153,38.752458818,-77.216196208,333,"7502 CHANCELLOR WAY, SPRINGFIELD, VA, 22153","Match","Exact","7502 CHANCELLOR WAY, SPRINGFIELD, VA, 22153",76036100,"R"
285834,"7502 CLEMSON CT","MANASSAS","VA",20109,38.7927183840001,-77.524450117,334,"7502 CLEMSON CT, MANASSAS, VA, 20109","Match","Exact","7502 CLEMSON CT, MANASSAS, VA, 20109",207183221,"L"
285835,"7502 CREEKS END RD","GLOUCESTER","VA",23061,37.4180148940001,-76.470074811,335,"7502 CREEKS END RD, GLOUCESTER, VA, 23061","Match","Exact","7502 CREEKS END RD, GLOUCESTER, VA, 23061",168215349,"L"
285836,"7502 FALL CREEK BEND","HUMBLE","TX",77396,29.9322339390001,-95.2757298669999,336,"7502 FALL CREEK BEND, HUMBLE, TX, 77396","Match","Exact","7502 FALL CREEK BEND, HUMBLE, TX, 77396",96573698,"L"
285837,"7502 GREYDALE DR","HUBER HEIGHTS","OH",45424,39.861764093,-84.11662867,337,"7502 GREYDALE DR, HUBER HEIGHTS, OH, 45424","Match","Exact","7502 GREYDALE DR, HUBER HEIGHTS, OH, 45424",143586760,"R"
285838,"7502 JUSTICE DRIVE","GLOUCESTER","VA",23061,37.4178124860001,-76.5284307599999,338,"7502 JUSTICE DRIVE, GLOUCESTER, VA, 23061","Match","Exact","7502 JUSTICE DR, GLOUCESTER, VA, 23061",638829093,"L"
285839,"7502 NW 58TH CT","TAMARAC","FL",33321,26.1974418130001,-80.250366001,339,"7502 NW 58TH CT, TAMARAC, FL, 33321","Match","Exact","7502 NW 58TH CT, TAMARAC, FL, 33321",114702556,"L"
285840,"7502 PROVIDENCE DRIVE","ROWLETT","TX",75089,32.9175943320001,-96.530084146,340,"7502 PROVIDENCE DRIVE, ROWLETT, TX, 75089","Match","Exact","7502 PROVIDENCE DR, ROWLETT, TX, 75089",103272780,"R"
285841,"7502 REFUGE RD","TALLAHASSEE","FL",32312,30.574421392,-84.269143394,341,"7502 REFUGE RD, TALLAHASSEE, FL, 32312","Match","Exact","7502 REFUGE RD, TALLAHASSEE, FL, 32312",82868078,"L"
285842,"7502 S PARK AVE","TACOMA","WA",98408,47.1890839530001,-122.441921033,342,"7502 S PARK AVE, TACOMA, WA, 98408","Match","Exact","7502 S PARK AVE, TACOMA, WA, 98408",184628533,"R"
285843,"7502 S SAN PEDRO STREET","LOS ANGELES","CA",90003,33.972074848,-118.269527423,343,"7502 S SAN PEDRO STREET, LOS ANGELES, CA, 90003","Match","Exact","7502 S SAN PEDRO ST, LOS ANGELES, CA, 90003",141670431,"L"
285844,"7502 W STATE ROAD 26","AMBIA","IN",47917,40.461989133,-87.464544699,344,"7502 W STATE ROAD 26, AMBIA, IN, 47917","Match","Non_Exact","7502 W STATE RD 26, AMBIA, IN, 47917",606766571,"L"
285845,"7502 WESTOVER PL","AMARILLO","TX",79119,35.131375776,-101.914610119,345,"7502 WESTOVER PL, AMARILLO, TX, 79119","Match","Exact","7502 WESTOVER PL, AMARILLO, TX, 79119",182660770,"R"
285846,"7503 E NOTTINGHAM LN","NAMPA","ID",83687,43.6153510870001,-116.542093218,346,"7503 E NOTTINGHAM LN, NAMPA, ID, 83687","Match","Exact","7503 E NOTTINGHAM LN, NAMPA, ID, 83687",122802543,"L"
285847,"7503 GLENVISTA STREET","HOUSTON","TX",77061,29.6671655600001,-95.284602384,347,"7503 GLENVISTA STREET, HOUSTON, TX, 77061","Match","Exact","7503 GLENVISTA ST, HOUSTON, TX, 77061",96092295,"L"
285848,"7503 HARLOW DRIVE","SAN ANTONIO","TX",78218,29.5017553760001,-98.415278664,348,"7503 HARLOW DRIVE, SAN ANTONIO, TX, 78218","Match","Exact","7503 HARLOW DR, SAN ANTONIO, TX, 78218",101500078,"L"
285849,"7503 HIGHWAY 27 SOUTH","SULPHUR","LA",70665,NA,NA,349,"7503 HIGHWAY 27 SOUTH, SULPHUR, LA, 70665","No_Match",NA,NA,NA,NA
285850,"7503 MAGILL","WICHITA","KS",67206,37.7043232120001,-97.249671968,350,"7503 MAGILL, WICHITA, KS, 67206","Match","Non_Exact","7503 MAGILL ST, WICHITA, KS, 67206",115669319,"R"
285851,"7503 N 108TH ST","OMAHA","NE",68142,41.3271254410001,-96.0818550829999,351,"7503 N 108TH ST, OMAHA, NE, 68142","Match","Exact","7503 N 108TH ST, OMAHA, NE, 68142",624294892,"L"
285852,"7503 NEWBURG DR","LANHAM","MD",20706,38.979535131,-76.881747917,352,"7503 NEWBURG DR, LANHAM, MD, 20706","Match","Exact","7503 NEWBURG DR, LANHAM, MD, 20706",76338117,"R"
285853,"7503 NW 44 CT APT 4","CORAL SPRINGS","FL",33065,26.2850333270001,-80.225025601,353,"7503 NW 44 CT APT 4, CORAL SPRINGS, FL, 33065","Match","Non_Exact","7503 NW 44TH CT, CORAL SPRINGS, FL, 33065",114738280,"R"
285854,"7503 PAVILION DRIVE","HOUSTON","TX",77083,29.696067031,-95.6385617399999,354,"7503 PAVILION DRIVE, HOUSTON, TX, 77083","Match","Exact","7503 PAVILION DR, HOUSTON, TX, 77083",636880966,"R"
285855,"7503 PLUMHOLLOW CIRCLE","LIVERPOOL","NY",13090,43.145449403,-76.1719436349999,355,"7503 PLUMHOLLOW CIRCLE, LIVERPOOL, NY, 13090","Match","Non_Exact","7503 PLUM HOLLOW CIR, LIVERPOOL, NY, 13090",46596196,"L"
285856,"7503 POTOMAC COURT","GLENN DALE","MD",20769,38.991318118,-76.8163872929999,356,"7503 POTOMAC COURT, GLENN DALE, MD, 20769","Match","Exact","7503 POTOMAC CT, GLENN DALE, MD, 20769",76342713,"L"
285857,"7503 W CONGRESS ST","MILWAUKEE","WI",53218,43.097207106,-88.005699324,357,"7503 W CONGRESS ST, MILWAUKEE, WI, 53218","Match","Exact","7503 W CONGRESS ST, MILWAUKEE, WI, 53218",653016199,"L"
285858,"750321","HOUSTON","TX",77275,NA,NA,358,"750321, HOUSTON, TX, 77275","No_Match",NA,NA,NA,NA
285859,"7504 24TH AVE  W","BRADENTON","IL",34209,NA,NA,359,"7504 24TH AVE  W, BRADENTON, IL, 34209","No_Match",NA,NA,NA,NA
285860,"7504 82ND AVE N","BROOKLYN PARK","MN",55445,45.1021635330001,-93.37699753,360,"7504 82ND AVE N, BROOKLYN PARK, MN, 55445","Match","Exact","7504 82ND AVE N, BROOKLYN PARK, MN, 55445",43828422,"R"
285861,"7504 CHELMSFORD DRIVE","AUSTIN","TX",78736,30.2385419400001,-97.8987333219999,361,"7504 CHELMSFORD DRIVE, AUSTIN, TX, 78736","Match","Exact","7504 CHELMSFORD DR, AUSTIN, TX, 78736",63936741,"R"
285862,"7504 CUTTING AVE","ORLAND","CA",95963,39.7969402040001,-122.082249466,362,"7504 CUTTING AVE, ORLAND, CA, 95963","Match","Exact","7504 CUTTING AVE, ORLAND, CA, 95963",647487484,"L"
285863,"7504 HEIGHTS VIEW DR","BENBROOK","TX",76126,32.6617141990001,-97.5006136969999,363,"7504 HEIGHTS VIEW DR, BENBROOK, TX, 76126","Match","Exact","7504 HEIGHTS VIEW DR, BENBROOK, TX, 76126",634105391,"R"
285864,"7504 LITTLETON WAY","FORT WORTH","TX",76134,32.6388745560001,-97.3358779819999,364,"7504 LITTLETON WAY, FORT WORTH, TX, 76134","Match","Exact","7504 LITTLETON WAY, FORT WORTH, TX, 76134",648389828,"L"
285865,"7504 MAYFAIR CIRCLE","FORT WORTH","TX",76123,32.6343924180001,-97.364463814,365,"7504 MAYFAIR CIRCLE, FORT WORTH, TX, 76123","Match","Exact","7504 MAYFAIR CIR, FORT WORTH, TX, 76123",101941781,"L"
285866,"7504 N ST","LITTLE ROCK","AR",72207,34.7654751220001,-92.3572584679999,366,"7504 N ST, LITTLE ROCK, AR, 72207","Match","Exact","7504 N ST, LITTLE ROCK, AR, 72207",83503616,"R"
285867,"7504 NW 11TH STREET","OKLAHOMA CITY","OK",73127,35.480421032,-97.644076383,367,"7504 NW 11TH STREET, OKLAHOMA CITY, OK, 73127","Match","Exact","7504 NW 11TH ST, OKLAHOMA CITY, OK, 73127",100389816,"L"
285868,"7504 OAK TREE LANE","SPRING HILL","FL",34607,28.5013006200001,-82.603024763,368,"7504 OAK TREE LANE, SPRING HILL, FL, 34607","Match","Exact","7504 OAK TREE LN, SPRING HILL, FL, 34607",85424874,"R"
285869,"7504 SAWGRASS TERRACE","MONTGOMERY VILLAGE","MD",20886,39.1908042430001,-77.1546176099999,369,"7504 SAWGRASS TERRACE, MONTGOMERY VILLAGE, MD, 20886","Match","Exact","7504 SAWGRASS TER, MONTGOMERY VILLAGE, MD, 20886",62097108,"L"
285870,"7504 SPRING GARDEN RD","PARMA","OH",44129,41.401327687,-81.735689237,370,"7504 SPRING GARDEN RD, PARMA, OH, 44129","Match","Exact","7504 SPRING GARDEN RD, PARMA, OH, 44129",61107134,"R"
285871,"7504 TARA COURT","PLANO","TX",75025,33.0783337940001,-96.7690145289999,371,"7504 TARA COURT, PLANO, TX, 75025","Match","Exact","7504 TARA CT, PLANO, TX, 75025",123510967,"L"
285872,"7504 W PUEBLO AVE","PHOENIX","AZ",85043,33.4091287620001,-112.222404481,372,"7504 W PUEBLO AVE, PHOENIX, AZ, 85043","Match","Exact","7504 W PUEBLO AVE, PHOENIX, AZ, 85043",243954983,"L"
285873,"75040 HWY 25","COVINGTON","LA",70435,30.5195231170001,-90.12124471,373,"75040 HWY 25, COVINGTON, LA, 70435","Match","Non_Exact","75040 STATE RTE 25, COVINGTON, LA, 70435",640225490,"R"
285874,"7505 BAY RD","OKEANA","OH",45053,39.312509592,-84.804629344,374,"7505 BAY RD, OKEANA, OH, 45053","Match","Exact","7505 BAY RD, OKEANA, OH, 45053",113815744,"L"
285875,"7505 CANARY CIRCLE","TEXAS CITY","TX",77591,29.382569323,-94.993695625,375,"7505 CANARY CIRCLE, TEXAS CITY, TX, 77591","Match","Exact","7505 CANARY CIR, TEXAS CITY, TX, 77591",96687681,"L"
285876,"7505 COVEY ROAD","JESSUP","MD",20794,39.155843093,-76.75623352,376,"7505 COVEY ROAD, JESSUP, MD, 20794","Match","Exact","7505 COVEY RD, JESSUP, MD, 20794",68153353,"R"
285877,"7505 COVINGTON HWY","LITHONIA","GA",30058,33.7075679210001,-84.115499445,377,"7505 COVINGTON HWY, LITHONIA, GA, 30058","Match","Exact","7505 COVINGTON HWY, LITHONIA, GA, 30058",23375744,"R"
285878,"7505 EAGLE DRIVE","SANTEE","CA",92071,32.83735818,-117.035027611,378,"7505 EAGLE DRIVE, SANTEE, CA, 92071","Match","Exact","7505 EAGLE DR, SANTEE, CA, 92071",645307000,"R"
285879,"7505 FANNIN ST STE 209","HOUSTON","TX",77054,29.6932498830001,-95.400695097,379,"7505 FANNIN ST STE 209, HOUSTON, TX, 77054","Match","Exact","7505 FANNIN ST, HOUSTON, TX, 77054",96610006,"L"
285880,"7505 FANNIN ST SUITE 209","HOUSTON","TX",77054,29.6932498830001,-95.400695097,380,"7505 FANNIN ST SUITE 209, HOUSTON, TX, 77054","Match","Exact","7505 FANNIN ST, HOUSTON, TX, 77054",96610006,"L"
285881,"7505 HARDESON ROAD","EVERETT","WA",98203,47.9287776100001,-122.245507749,381,"7505 HARDESON ROAD, EVERETT, WA, 98203","Match","Exact","7505 HARDESON RD, EVERETT, WA, 98203",639252644,"L"
285882,"7505 KINGS RIDGE DRIVE APT 104","CHARLOTTE","NC",28217,35.140983825,-80.8797804499999,382,"7505 KINGS RIDGE DRIVE APT 104, CHARLOTTE, NC, 28217","Match","Exact","7505 KINGS RIDGE DR, CHARLOTTE, NC, 28217",624028671,"R"
285883,"7505 MEADOW CREEK DR","FORT WORTH","TX",76123,32.6347405130001,-97.361460966,383,"7505 MEADOW CREEK DR, FORT WORTH, TX, 76123","Match","Exact","7505 MEADOW CREEK DR, FORT WORTH, TX, 76123",101931296,"R"
285884,"7505 NOVELLA DR","CHARLOTTE","NC",28215,35.2466835340001,-80.67770088,384,"7505 NOVELLA DR, CHARLOTTE, NC, 28215","Match","Exact","7505 NOVELLA DR, CHARLOTTE, NC, 28215",70562226,"L"
285885,"7505 NW 98TH CT","JOHNSTON","IA",50131,41.7000956740001,-93.754442433,385,"7505 NW 98TH CT, JOHNSTON, IA, 50131","Match","Exact","7505 NW 98TH CT, JOHNSTON, IA, 50131",640794774,"L"
285886,"7505 POLO SQUARE","VERO BEACH","FL",32968,NA,NA,386,"7505 POLO SQUARE, VERO BEACH, FL, 32968","No_Match",NA,NA,NA,NA
285887,"7505 PRESTON ROAD","BELEWS CREEK","NC",27009,36.221159539,-80.0885946659999,387,"7505 PRESTON ROAD, BELEWS CREEK, NC, 27009","Match","Exact","7505 PRESTON RD, BELEWS CREEK, NC, 27009",651690600,"R"
285888,"7505 RIVER ROAD APT 17B","NEWPORT NEWS","VA",23607,37.0133091490001,-76.451897365,388,"7505 RIVER ROAD APT 17B, NEWPORT NEWS, VA, 23607","Match","Exact","7505 RIVER RD, NEWPORT NEWS, VA, 23607",103820666,"L"
285889,"7505 S SPARKMAN ST","TAMPA","FL",33616,NA,NA,389,"7505 S SPARKMAN ST, TAMPA, FL, 33616","Tie",NA,NA,NA,NA
285890,"7505 SE STARK STREET","PORTLAND","OR",97215,45.5191876800001,-122.585793526,390,"7505 SE STARK STREET, PORTLAND, OR, 97215","Match","Exact","7505 SE STARK ST, PORTLAND, OR, 97215",157514012,"L"
285891,"7505 SOUTH CALUMET AVENUE APT 103","CHICAGO","IL",60619,41.7582176130001,-87.616692552,391,"7505 SOUTH CALUMET AVENUE APT 103, CHICAGO, IL, 60619","Match","Exact","7505 S CALUMET AVE, CHICAGO, IL, 60619",605544103,"L"
285892,"7505 SUNNY FIELD CT","LOUISVILLE","KY",40220,38.204359391,-85.618016521,392,"7505 SUNNY FIELD CT, LOUISVILLE, KY, 40220","Match","Non_Exact","7505 SUNNYFIELD CT, LOUISVILLE, KY, 40220",96857530,"R"
285893,"7505 SW 5TH COURT","N LAUDERDALE","FL",33068,26.223920591,-80.225074266,393,"7505 SW 5TH COURT, N LAUDERDALE, FL, 33068","Match","Exact","7505 SW 5TH CT, N LAUDERDALE, FL, 33068",114692564,"R"
285894,"7505 W YALE AVE UNIT 3003","DENVER","CO",80227,39.6677533770001,-105.079005782,394,"7505 W YALE AVE UNIT 3003, DENVER, CO, 80227","Match","Non_Exact","7505 W YALE AVE, DENVER, CO, 80227",177321728,"R"
285895,"7505 WATERS AVENUE SUITE F9","SAVANNAH","GA",31406,NA,NA,395,"7505 WATERS AVENUE SUITE F9, SAVANNAH, GA, 31406","No_Match",NA,NA,NA,NA
285896,"7505 WILLOWVIEW CT","FAIR OAKS","CA",95628,38.636656402,-121.288999429,396,"7505 WILLOWVIEW CT, FAIR OAKS, CA, 95628","Match","Exact","7505 WILLOWVIEW CT, FAIR OAKS, CA, 95628",133345945,"L"
285897,"75053 270TH AVE","HAYFIELD","MN",55940,43.8625954180001,-92.698278837,397,"75053 270TH AVE, HAYFIELD, MN, 55940","Match","Exact","75053 270TH AVE, HAYFIELD, MN, 55940",31430809,"L"
285898,"7506 ARMSTRONG LANE","ROWLETT","TX",75089,32.925963584,-96.52448907,398,"7506 ARMSTRONG LANE, ROWLETT, TX, 75089","Match","Exact","7506 ARMSTRONG LN, ROWLETT, TX, 75089",103170148,"R"
285899,"7506 BRUSHY COURT","HOUSTON","TX",77088,29.8714064100001,-95.476632066,399,"7506 BRUSHY COURT, HOUSTON, TX, 77088","Match","Exact","7506 BRUSHY CT, HOUSTON, TX, 77088",96026996,"R"
285900,"7506 EAGLEWALK COURT B","ROSEDALE","MD",21237,39.3595444700001,-76.4990576449999,400,"7506 EAGLEWALK COURT B, ROSEDALE, MD, 21237","Match","Exact","7506 EAGLEWALK CT, ROSEDALE, MD, 21237",191478337,"L"
285901,"7506 FOX KNOLL LANE","HOUSTON","TX",77338,30.013994251,-95.310963842,401,"7506 FOX KNOLL LANE, HOUSTON, TX, 77338","Match","Non_Exact","7506 FOX KNOLL LN, HUMBLE, TX, 77338",624798629,"R"
285902,"7506 GEORGIA AVE NW","WASHINGTON","DC",20012,38.981219685,-77.0265228339999,402,"7506 GEORGIA AVE NW, WASHINGTON, DC, 20012","Match","Exact","7506 GEORGIA AVE NW, WASHINGTON, DC, 20012",76221710,"L"
285903,"7506 INDIAN WELLS WAY","LONE TREE","CO",80124,39.5393236310001,-104.90261011,403,"7506 INDIAN WELLS WAY, LONE TREE, CO, 80124","Match","Exact","7506 INDIAN WELLS WAY, LONE TREE, CO, 80124",130851572,"R"
285904,"7506 LINDBERG DR","ALEXANDRIA","VA",22306,38.75349199,-77.091763627,404,"7506 LINDBERG DR, ALEXANDRIA, VA, 22306","Match","Exact","7506 LINDBERG DR, ALEXANDRIA, VA, 22306",646689561,"R"
285905,"7506 MOUNTAIN TOP DR","GREENWOOD","AR",72936,35.183616382,-94.133878776,405,"7506 MOUNTAIN TOP DR, GREENWOOD, AR, 72936","Match","Exact","7506 MOUNTAIN TOP DR, GREENWOOD, AR, 72936",56163711,"L"
285906,"7506 NE 32ND AVE","VANCOUVER","WA",98665,45.676601933,-122.637898175,406,"7506 NE 32ND AVE, VANCOUVER, WA, 98665","Match","Exact","7506 NE 32ND AVE, VANCOUVER, WA, 98665",645772047,"R"
285907,"7506 SILVER LAKE DRIVE","ROWLETT","TX",75089,32.9256896430001,-96.513883288,407,"7506 SILVER LAKE DRIVE, ROWLETT, TX, 75089","Match","Exact","7506 SILVER LAKE DR, ROWLETT, TX, 75089",123784509,"R"
285908,"7506 SURREY PINES DRIVE","APOLLO BEACH","FL",33572,27.7871356640001,-82.369499704,408,"7506 SURREY PINES DRIVE, APOLLO BEACH, FL, 33572","Match","Exact","7506 SURREY PINES DR, APOLLO BEACH, FL, 33572",628042571,"L"
285909,"7506 TANGLE BROOK BLVD","GIBSONTON","FL",33534,NA,NA,409,"7506 TANGLE BROOK BLVD, GIBSONTON, FL, 33534","No_Match",NA,NA,NA,NA
285910,"7506 TIN CUP DR","ARLINGTON","TX",76001,32.6233573550001,-97.12195235,410,"7506 TIN CUP DR, ARLINGTON, TX, 76001","Match","Exact","7506 TIN CUP DR, ARLINGTON, TX, 76001",102187958,"R"
285911,"7506 WOODSDE AVENUE APT 6D","ELMHURST","NY",11373,NA,NA,411,"7506 WOODSDE AVENUE APT 6D, ELMHURST, NY, 11373","No_Match",NA,NA,NA,NA
285912,"7507 ALOMA AVE STE 3","WINTE PARK","FL",32792,28.609822475,-81.286395971,412,"7507 ALOMA AVE STE 3, WINTE PARK, FL, 32792","Match","Non_Exact","7507 ALOMA AVE, WINTER PARK, FL, 32792",637910609,"L"
285913,"7507 GARRISON ROAD","HYATTSVILLE","MD",20784,38.9545195150001,-76.883600294,413,"7507 GARRISON ROAD, HYATTSVILLE, MD, 20784","Match","Exact","7507 GARRISON RD, HYATTSVILLE, MD, 20784",76338075,"R"
285914,"7507 HAWTHORNE ST","HYATTSVILLE","MD",20785,38.925109277,-76.877544225,414,"7507 HAWTHORNE ST, HYATTSVILLE, MD, 20785","Match","Exact","7507 HAWTHORNE ST, HYATTSVILLE, MD, 20785",638314744,"R"
285915,"7507 KELLY STREET","PITTSBURGH","PA",15208,40.454480414,-79.8923763889999,415,"7507 KELLY STREET, PITTSBURGH, PA, 15208","Match","Exact","7507 KELLY ST, PITTSBURGH, PA, 15208",51647896,"L"
285916,"7507 LAKERIDGE DRIVE","MONTGOMERY","AL",36117,32.3563419930001,-86.15226775,416,"7507 LAKERIDGE DRIVE, MONTGOMERY, AL, 36117","Match","Exact","7507 LAKERIDGE DR, MONTGOMERY, AL, 36117",1551289,"L"
285917,"7507 MALLARD DRIVE","LOUISVILLE","KY",40258,38.146467595,-85.8905874719999,417,"7507 MALLARD DRIVE, LOUISVILLE, KY, 40258","Match","Exact","7507 MALLARD DR, LOUISVILLE, KY, 40258",96837244,"R"
285918,"7507 MASTERS RD","MANVEL","TX",77578,29.4663650090001,-95.3563825969999,418,"7507 MASTERS RD, MANVEL, TX, 77578","Match","Exact","7507 MASTERS RD, MANVEL, TX, 77578",116575506,"R"
285919,"7507 NOTTOWAY CIRCLE","LOUISVILLE","KY",40214,38.160561681,-85.807562267,419,"7507 NOTTOWAY CIRCLE, LOUISVILLE, KY, 40214","Match","Exact","7507 NOTTOWAY CIR, LOUISVILLE, KY, 40214",96880189,"L"
285920,"7507 PINE CREEK DRIVE","BRIDGEVILLE","PA",15017,40.3508603990001,-80.141510594,420,"7507 PINE CREEK DRIVE, BRIDGEVILLE, PA, 15017","Match","Exact","7507 PINE CREEK DR, BRIDGEVILLE, PA, 15017",51923491,"L"
285921,"7507 SNOWPEA COURT UNIT C","ALEXANDRIA","VA",22306,38.752398892,-77.08723463,421,"7507 SNOWPEA COURT UNIT C, ALEXANDRIA, VA, 22306","Match","Exact","7507 SNOWPEA CT, ALEXANDRIA, VA, 22306",76035210,"R"
285922,"7507 SW 7TH CT","NORTH LAUDERDALE","FL",33068,26.221252609,-80.225739807,422,"7507 SW 7TH CT, NORTH LAUDERDALE, FL, 33068","Match","Non_Exact","7507 SW 7TH CT, N LAUDERDALE, FL, 33068",114692571,"L"
285923,"7507 WETZEL RD","DICKINSON","TX",77539,29.4396456320001,-95.014613963,423,"7507 WETZEL RD, DICKINSON, TX, 77539","Match","Non_Exact","7507 WETZEL DR, DICKINSON, TX, 77539",96675101,"L"
285924,"7508 13TH AVE N","ST. PETERSBURG","FL",33710,27.784490582,-82.742804523,424,"7508 13TH AVE N, ST. PETERSBURG, FL, 33710","Match","Exact","7508 13TH AVE N, SAINT PETERSBURG, FL, 33710",124693934,"L"
285925,"7508 ANTEBELLUM BLVD","FORT WAYNE","IN",46815,41.108663806,-85.044651196,425,"7508 ANTEBELLUM BLVD, FORT WAYNE, IN, 46815","Match","Exact","7508 ANTEBELLUM BLVD, FORT WAYNE, IN, 46815",6400973,"R"
285926,"7508 CLAREWOOD DRIVE APT 107","HOUSTON","TX",77036,29.709741218,-95.5164353819999,426,"7508 CLAREWOOD DRIVE APT 107, HOUSTON, TX, 77036","Match","Exact","7508 CLAREWOOD DR, HOUSTON, TX, 77036",96608915,"R"
285927,"7508 EAST LONG CIRCLE","CENTENNIAL","CO",80112,39.5737319460001,-104.903394545,427,"7508 EAST LONG CIRCLE, CENTENNIAL, CO, 80112","Match","Exact","7508 E LONG CIR, CENTENNIAL, CO, 80112",177347577,"L"
285928,"7508 FOREST FERN","SAN ANTONIO","TX",78233,29.5437639950001,-98.34861345,428,"7508 FOREST FERN, SAN ANTONIO, TX, 78233","Match","Exact","7508 FOREST FERN, SAN ANTONIO, TX, 78233",101548385,"L"
285929,"7508 MAYFAIR","FORT WORTH","TX",76123,32.634358154,-97.364460601,429,"7508 MAYFAIR, FORT WORTH, TX, 76123","Match","Non_Exact","7508 MAYFAIR CIR, FORT WORTH, TX, 76123",101941781,"L"
285930,"7508 N REA PARK LN APT 6209","CHARLOTTE","NC",28277,35.0526017030001,-80.775455682,430,"7508 N REA PARK LN APT 6209, CHARLOTTE, NC, 28277","Match","Non_Exact","7508 N REA PARK LN, CHARLOTTE, NC, 28277",648376481,"R"
285931,"7508 SADDLE TRAIL LANE","CHARLOTTE","NC",28269,35.322996351,-80.792962632,431,"7508 SADDLE TRAIL LANE, CHARLOTTE, NC, 28269","Match","Exact","7508 SADDLE TRAIL LN, CHARLOTTE, NC, 28269",70547726,"R"
285932,"7508 SURREY COURT","INDIANAPOLIS","IN",46227,39.656551081,-86.1436132599999,432,"7508 SURREY COURT, INDIANAPOLIS, IN, 46227","Match","Exact","7508 SURREY CT, INDIANAPOLIS, IN, 46227",108008166,"R"
285933,"7508 W 63RD PL APT 1","SUMMIT","IL",60501,41.776150596,-87.808524914,433,"7508 W 63RD PL APT 1, SUMMIT, IL, 60501","Match","Exact","7508 63RD PL, SUMMIT, IL, 60501",111808928,"R"
285934,"7509 AMHURST CIRCLE","FORT WORTH","TX",76132,32.6507766880001,-97.4237017039999,434,"7509 AMHURST CIRCLE, FORT WORTH, TX, 76132","Match","Exact","7509 AMHURST CIR, FORT WORTH, TX, 76132",101934123,"R"
285935,"7509 ANGLIN DR","FORT WORTH","TX",76140,32.644821623,-97.252656365,435,"7509 ANGLIN DR, FORT WORTH, TX, 76140","Match","Exact","7509 ANGLIN DR, FORT WORTH, TX, 76140",616943714,"L"
285936,"7509 BRONZE DRIVE","MEMPHIS","TN",38125,35.01478933,-89.812837967,436,"7509 BRONZE DRIVE, MEMPHIS, TN, 38125","Match","Exact","7509 BRONZE DR, MEMPHIS, TN, 38125",618710692,"R"
285937,"7509 BROOKBEND LANE","COTTONWOOD HEIGHTS","UT",84093,40.6145646460001,-111.847025542,437,"7509 BROOKBEND LANE, COTTONWOOD HEIGHTS, UT, 84093","Match","Exact","7509 BROOKBEND LN, COTTONWOOD HEIGHTS, UT, 84093",176114587,"R"
285938,"7509 BROOKVILLE ROAD","CHEVY CHASE","MD",20815,38.986459719,-77.071914851,438,"7509 BROOKVILLE ROAD, CHEVY CHASE, MD, 20815","Match","Exact","7509 BROOKVILLE RD, CHEVY CHASE, MD, 20815",62079114,"R"
285939,"7509 GA HIGHWAY 116","HAMILTON","GA",31811,32.752484214,-84.9035540579999,439,"7509 GA HIGHWAY 116, HAMILTON, GA, 31811","Match","Non_Exact","7509 STATE RTE 116, HAMILTON, GA, 31811",1719547,"L"
285940,"7509 HUGHES DRIVE","PLANO","TX",75024,33.0799560180001,-96.774163629,440,"7509 HUGHES DRIVE, PLANO, TX, 75024","Match","Exact","7509 HUGHES DR, PLANO, TX, 75024",123510830,"L"
285941,"7509 MAUDE STEWART ROAD","WILLOW SPRING","NC",27592,35.5619058390001,-78.736462816,441,"7509 MAUDE STEWART ROAD, WILLOW SPRING, NC, 27592","Match","Exact","7509 MAUDE STEWART RD, WILLOW SPRING, NC, 27592",72492321,"R"
285942,"7509 MERIWOOD DRIVE","FORT WAYNE","IN",46835,41.1507898410001,-85.062137364,442,"7509 MERIWOOD DRIVE, FORT WAYNE, IN, 46835","Match","Exact","7509 MERIWOOD DR, FORT WAYNE, IN, 46835",606514252,"R"
285943,"7509 NW 134TH STREET","OKLAHOMA CITY","OK",73142,NA,NA,443,"7509 NW 134TH STREET, OKLAHOMA CITY, OK, 73142","No_Match",NA,NA,NA,NA
285944,"7509 NW TIFFANY SPRGS PRKWY STE 300","KANSAS CITY","MO",64153,NA,NA,444,"7509 NW TIFFANY SPRGS PRKWY STE 300, KANSAS CITY, MO, 64153","No_Match",NA,NA,NA,NA
285945,"7509 OLD MILL CIRCLE","TRUSSVILLE","AL",35173,33.655550159,-86.5595630129999,445,"7509 OLD MILL CIRCLE, TRUSSVILLE, AL, 35173","Match","Exact","7509 OLD MILL CIR, TRUSSVILLE, AL, 35173",81639329,"L"
285946,"7509 S GRANITE CT","TULSA","OK",74136,36.055782235,-95.912943107,446,"7509 S GRANITE CT, TULSA, OK, 74136","Match","Exact","7509 S GRANITE CT, TULSA, OK, 74136",166452547,"L"
285947,"7509 VANESSA DR","FORT WORTH","TX",76112,32.7530297120001,-97.19455549,447,"7509 VANESSA DR, FORT WORTH, TX, 76112","Match","Exact","7509 VANESSA DR, FORT WORTH, TX, 76112",101901141,"L"
285948,"7509 W CHICAGO","DETROIT","MI",48204,42.366461261,-83.1446160739999,448,"7509 W CHICAGO, DETROIT, MI, 48204","Match","Non_Exact","7509 W CHICAGO ST, DETROIT, MI, 48204",95470733,"L"
285949,"7509 WALDON DR","AUSTIN","TX",78750,30.377181712,-97.787410173,449,"7509 WALDON DR, AUSTIN, TX, 78750","Match","Exact","7509 WALDON DR, AUSTIN, TX, 78750",64025258,"R"
285950,"7509 WATSON CIRCLE","LOCUST GROVE","GA",30248,NA,NA,450,"7509 WATSON CIRCLE, LOCUST GROVE, GA, 30248","No_Match",NA,NA,NA,NA
285951,"7509 ZANE AVE N","BROOKLYN PARK","MN",55443,45.0906308300001,-93.356333799,451,"7509 ZANE AVE N, BROOKLYN PARK, MN, 55443","Match","Exact","7509 ZANE AVE N, BROOKLYN PARK, MN, 55443",43829030,"L"
285952,"751 10TH ST E /20","PALMETTO","FL",34221,27.5211244770001,-82.55882267,452,"751 10TH ST E /20, PALMETTO, FL, 34221","Match","Exact","751 10TH ST E, PALMETTO, FL, 34221",642581900,"R"
285953,"751 116 ST SO","TACOMA","WA",98444,47.151203713,-122.44250189,453,"751 116 ST SO, TACOMA, WA, 98444","Match","Exact","751 116TH ST S, TACOMA, WA, 98444",184629726,"R"
285954,"751 51ST SE","WASHINGTON","DC",20019,38.878992871,-76.9299556129999,454,"751 51ST SE, WASHINGTON, DC, 20019","Match","Non_Exact","751 51ST ST SE, WASHINGTON, DC, 20019",76233922,"R"
285955,"751 8 1/2 AVE","CLAYTON","WI",54004,45.3219497060001,-91.982531928,455,"751 8 1/2 AVE, CLAYTON, WI, 54004","Match","Non_Exact","751 8 1/2 ST, CLAYTON, WI, 54004",649739766,"L"
285956,"751 ALAMEDA DE LAS PULGAS","BELMONT","CA",94002,NA,NA,456,"751 ALAMEDA DE LAS PULGAS, BELMONT, CA, 94002","No_Match",NA,NA,NA,NA
285957,"751 BEECHWOOD AVENUE","CINCINNATI","OH",45232,39.175245669,-84.517795053,457,"751 BEECHWOOD AVENUE, CINCINNATI, OH, 45232","Match","Exact","751 BEECHWOOD AVE, CINCINNATI, OH, 45232",103923440,"R"
285958,"751 BENCH ST","LANSING","IA",52151,43.368326559,-91.227159964,458,"751 BENCH ST, LANSING, IA, 52151","Match","Exact","751 BENCH ST, LANSING, IA, 52151",48229301,"L"
285959,"751 BRIDGE ROAD","CEDARBURG","WI",53012,43.3008111720001,-88.074981972,459,"751 BRIDGE ROAD, CEDARBURG, WI, 53012","Match","Exact","751 BRIDGE RD, CEDARBURG, WI, 53012",79559668,"R"
285960,"751 BROADWAY","PATERSON","NJ",7514,NA,NA,460,"751 BROADWAY, PATERSON, NJ, 7514","No_Match",NA,NA,NA,NA
285961,"751 CREEK ROAD","ELIZABETH CITY","NC",27909,36.3409669480001,-76.2540460549999,461,"751 CREEK ROAD, ELIZABETH CITY, NC, 27909","Match","Exact","751 CREEK RD, ELIZABETH CITY, NC, 27909",18595219,"R"
285962,"751 DERBY DRIVE","YORK","AL",36925,32.492417416,-88.296295264,462,"751 DERBY DRIVE, YORK, AL, 36925","Match","Exact","751 DERBY DR, YORK, AL, 36925",640318357,"R"
285963,"751 E BLITHEDALE AVE UNIT 844","MILL VALLEY","CA",94942,NA,NA,463,"751 E BLITHEDALE AVE UNIT 844, MILL VALLEY, CA, 94942","No_Match",NA,NA,NA,NA
285964,"751 E WHITTIER BLVD","LA HABRA","CA",90631,NA,NA,464,"751 E WHITTIER BLVD, LA HABRA, CA, 90631","Tie",NA,NA,NA,NA
285965,"751 EDISON AVENUE","LEWISBURG","PA",17837,40.968401289,-76.900299436,465,"751 EDISON AVENUE, LEWISBURG, PA, 17837","Match","Exact","751 EDISON AVE, LEWISBURG, PA, 17837",48203796,"L"
285966,"751 FAIRBURN RD APT 4113","ATLANTA","GA",30331,33.7756344740001,-84.500145268,466,"751 FAIRBURN RD APT 4113, ATLANTA, GA, 30331","Match","Exact","751 FAIRBURN RD, ATLANTA, GA, 30331",17336717,"R"
285967,"751 FAIRBURN RD SW 4103","ATLANTA","GA",30331,33.734876162,-84.510474905,467,"751 FAIRBURN RD SW 4103, ATLANTA, GA, 30331","Match","Exact","751 FAIRBURN RD SW, ATLANTA, GA, 30331",644988715,"R"
285968,"751 FRANKLIN AVENUE NO 116","BROOKLYN","NY",11238,40.6730725740001,-73.9570918159999,468,"751 FRANKLIN AVENUE NO 116, BROOKLYN, NY, 11238","Match","Non_Exact","751 FRANKLIN AVE, BROOKLYN, NY, 11238",652211193,"L"
285969,"751 GALAPAGO ST APT 1B","DENVER","CO",80204,39.728124388,-104.996402336,469,"751 GALAPAGO ST APT 1B, DENVER, CO, 80204","Match","Exact","751 GALAPAGO ST, DENVER, CO, 80204",177330557,"L"
285970,"751 HURSTBORNE LN","EDGEWOOD","KY",41017,39.0136831090001,-84.547575267,470,"751 HURSTBORNE LN, EDGEWOOD, KY, 41017","Match","Exact","751 HURSTBORNE LN, EDGEWOOD, KY, 41017",103877967,"R"
285971,"751 HUTCHINGS MOUNTAIN RD","ROCKMART","GA",30153,33.9862749820001,-85.057003476,471,"751 HUTCHINGS MOUNTAIN RD, ROCKMART, GA, 30153","Match","Exact","751 HUTCHINGS MOUNTAIN RD, ROCKMART, GA, 30153",647319557,"R"
285972,"751 JAMAICA BLVD","SATELLITE BEACH","FL",32937,28.160983855,-80.596368872,472,"751 JAMAICA BLVD, SATELLITE BEACH, FL, 32937","Match","Exact","751 JAMAICA BLVD, SATELLITE BEACH, FL, 32937",93901455,"L"
285973,"751 LAUREL ST 202","SAN CARLOS","CA",94070,37.504481608,-122.258758355,473,"751 LAUREL ST 202, SAN CARLOS, CA, 94070","Match","Exact","751 LAUREL ST, SAN CARLOS, CA, 94070",192385094,"L"
285974,"751 LAUREL ST NO 106","SAN CARLOS","CA",94070,37.504481608,-122.258758355,474,"751 LAUREL ST NO 106, SAN CARLOS, CA, 94070","Match","Non_Exact","751 LAUREL ST, SAN CARLOS, CA, 94070",192385094,"L"
285975,"751 LAUREL ST NUM 521","SAN CARLOS","CA",94070,37.504481608,-122.258758355,475,"751 LAUREL ST NUM 521, SAN CARLOS, CA, 94070","Match","Exact","751 LAUREL ST, SAN CARLOS, CA, 94070",192385094,"L"
285976,"751 LAUREL STREET - SUITE 718","SAN CARLOS","CA",94070,37.504481608,-122.258758355,476,"751 LAUREL STREET - SUITE 718, SAN CARLOS, CA, 94070","Match","Exact","751 LAUREL ST, SAN CARLOS, CA, 94070",192385094,"L"
285977,"751 LAUREL STREET STE 719","SAN CARLOS","CA",94070,37.504481608,-122.258758355,477,"751 LAUREL STREET STE 719, SAN CARLOS, CA, 94070","Match","Exact","751 LAUREL ST, SAN CARLOS, CA, 94070",192385094,"L"
285978,"751 LAUREL STREET SUITE 432","SAN CARLOS","CA",94070,37.504481608,-122.258758355,478,"751 LAUREL STREET SUITE 432, SAN CARLOS, CA, 94070","Match","Exact","751 LAUREL ST, SAN CARLOS, CA, 94070",192385094,"L"
285979,"751 LONGHORN CT","PASO ROBLES","CA",93446,35.606146488,-120.675453012,479,"751 LONGHORN CT, PASO ROBLES, CA, 93446","Match","Exact","751 LONGHORN CT, PASO ROBLES, CA, 93446",109858112,"R"
285980,"751 MAIN STREET WEST","TRIMONT","MN",56031,43.76204714,-94.7249048739999,480,"751 MAIN STREET WEST, TRIMONT, MN, 56031","Match","Non_Exact","751 MAIN ST W, TRIMONT, MN, 56176",9973026,"R"
285981,"751 MAIN STREET WEST","TRIMONT","MN",56176,43.76204714,-94.7249048739999,481,"751 MAIN STREET WEST, TRIMONT, MN, 56176","Match","Exact","751 MAIN ST W, TRIMONT, MN, 56176",9973026,"R"
285982,"751 MARTIN LUTHER KING BLVD 101","NEWARK","NJ",7102,NA,NA,482,"751 MARTIN LUTHER KING BLVD 101, NEWARK, NJ, 7102","Tie",NA,NA,NA,NA
285983,"751 MILFORD ST","LOS ANGELES","CA",90042,34.106598234,-118.180039841,483,"751 MILFORD ST, LOS ANGELES, CA, 90042","Match","Exact","751 MILFORD ST, LOS ANGELES, CA, 90042",142697207,"R"
285984,"751 MINOR DRIVE  APT L10","MEDINA","OH",44256,41.1467400110001,-81.87302048,484,"751 MINOR DRIVE  APT L10, MEDINA, OH, 44256","Match","Non_Exact","751 MINER DR, MEDINA, OH, 44256",653456794,"R"
285985,"751 MONTICELLO DR","NAPERVILLE","IL",60563,41.7839285060001,-88.135944659,485,"751 MONTICELLO DR, NAPERVILLE, IL, 60563","Match","Exact","751 MONTICELLO DR, NAPERVILLE, IL, 60563",112528906,"L"
285986,"751 MULBERRY COURT","RED OAK","TX",75154,32.525541649,-96.812626641,486,"751 MULBERRY COURT, RED OAK, TX, 75154","Match","Non_Exact","751 MULBERRY DR, RED OAK, TX, 75154",616172424,"R"
285987,"751 N CENTRAL AVE","HAPEVILLE","GA",30354,33.6617194510001,-84.4137942579999,487,"751 N CENTRAL AVE, HAPEVILLE, GA, 30354","Match","Exact","751 CENTRAL AVE, HAPEVILLE, GA, 30354",17412031,"R"
285988,"751 N CHURCH ST","HAZLETON","PA",18201,40.966852406,-75.976251009,488,"751 N CHURCH ST, HAZLETON, PA, 18201","Match","Exact","751 N CHURCH ST, HAZLETON, PA, 18201",80922432,"R"
285989,"751 N CHURCH STREET","HAZLETON","PA",18201,40.966852406,-75.976251009,489,"751 N CHURCH STREET, HAZLETON, PA, 18201","Match","Exact","751 N CHURCH ST, HAZLETON, PA, 18201",80922432,"R"
285990,"751 N PINE ISLAND RD 4-208","FORT LAUDERDALE","FL",33324,26.1296622200001,-80.263843411,490,"751 N PINE ISLAND RD 4-208, FORT LAUDERDALE, FL, 33324","Match","Non_Exact","751 N PINE ISLAND RD, FORT LAUDERDALE, FL, 33324",640926210,"L"
285991,"751 NE 199TH ST 204","MIAMI","FL",33179,25.960344057,-80.188768201,491,"751 NE 199TH ST 204, MIAMI, FL, 33179","Match","Non_Exact","751 NE 199TH ST, MIAMI, FL, 33179",629016436,"R"
285992,"751 NORTH CHURCH STREET","HAZLETON","PA",18201,40.966821227,-75.9762420449999,492,"751 NORTH CHURCH STREET, HAZLETON, PA, 18201","Match","Exact","751 N CHURCH ST, HAZLETON, PA, 18201",80922432,"R"
285993,"751 NW 111TH LANE","OXFORD","FL",34484,28.9180778680001,-82.115777447,493,"751 NW 111TH LANE, OXFORD, FL, 34484","Match","Exact","751 NW 111TH LN, OXFORD, FL, 34484",86500837,"R"
285994,"751 ORANGE AVENUE","CORONADO","CA",92118,32.689424209,-117.1777122,494,"751 ORANGE AVENUE, CORONADO, CA, 92118","Match","Exact","751 ORANGE AVE, CORONADO, CA, 92118",636006766,"L"
285995,"751 QUAIL JOHN ROAD","THETFORD CENTER","VT",5075,NA,NA,495,"751 QUAIL JOHN ROAD, THETFORD CENTER, VT, 5075","No_Match",NA,NA,NA,NA
285996,"751 RENO CREEK RD","GARRYOWEN","MT",59031,NA,NA,496,"751 RENO CREEK RD, GARRYOWEN, MT, 59031","No_Match",NA,NA,NA,NA
285997,"751 ROGERS AVE","BROOKLYN","NY",11226,40.652793478,-73.952685522,497,"751 ROGERS AVE, BROOKLYN, NY, 11226","Match","Exact","751 ROGERS AVE, BROOKLYN, NY, 11226",650076598,"L"
285998,"751 ROSA DRIVE","LAWRENCEVILLE","GA",30044,33.9026493470001,-84.047267394,498,"751 ROSA DRIVE, LAWRENCEVILLE, GA, 30044","Match","Exact","751 ROSA DR, LAWRENCEVILLE, GA, 30044",88901062,"R"
285999,"751 S WEIR CANYON RD STE 157-121","ANAHEIM","CA",92808,33.8625421200001,-117.738647469,499,"751 S WEIR CANYON RD STE 157-121, ANAHEIM, CA, 92808","Match","Non_Exact","751 S WEIR CANYON RD, ANAHEIM, CA, 92808",651239157,"R"
286000,"751 S WEIR CANYON ROAD STE 157","ANAHEIM","CA",92808,33.8625421200001,-117.738647469,500,"751 S WEIR CANYON ROAD STE 157, ANAHEIM, CA, 92808","Match","Non_Exact","751 S WEIR CANYON RD, ANAHEIM, CA, 92808",651239157,"R"
