"ID","Address","City","State","Zip","lat","long","id","input_address","match_indicator","match_type","matched_address","tiger_line_id","tiger_side"
239501,"5305 RIVER RD N","KEIZER","OR",97303,45.001215942,-123.026623638,1,"5305 RIVER RD N, KEIZER, OR, 97303","Match","Exact","5305 RIVER RD N, KEIZER, OR, 97303",156246102,"L"
239502,"5305 RIVER RD STE B","KEIZER","OR",97303,45.001215942,-123.026623638,2,"5305 RIVER RD STE B, KEIZER, OR, 97303","Match","Non_Exact","5305 RIVER RD N, KEIZER, OR, 97303",156246102,"L"
239503,"5305 RIVER ROAD N STE B","KEIZER","OR",97303,45.001215942,-123.026623638,3,"5305 RIVER ROAD N STE B, KEIZER, OR, 97303","Match","Exact","5305 RIVER RD N, KEIZER, OR, 97303",156246102,"L"
239504,"5305 RIVER ROAD N SUITE B","KEIZER","OR",97303,45.001215942,-123.026623638,4,"5305 RIVER ROAD N SUITE B, KEIZER, OR, 97303","Match","Exact","5305 RIVER RD N, KEIZER, OR, 97303",156246102,"L"
239505,"5305 RIVER ROAD NORTH  SUITE B","KEIZER","OR",97303,45.001215942,-123.026623638,5,"5305 RIVER ROAD NORTH  SUITE B, KEIZER, OR, 97303","Match","Exact","5305 RIVER RD N, KEIZER, OR, 97303",156246102,"L"
239506,"5305 RIVER ROAD NORTH STE B","KEIZER","OR",97303,45.001215942,-123.026623638,6,"5305 RIVER ROAD NORTH STE B, KEIZER, OR, 97303","Match","Exact","5305 RIVER RD N, KEIZER, OR, 97303",156246102,"L"
239507,"5305 SCENIC DRIVE","YAKIMA","WA",98908,46.6123382690001,-120.579733699,7,"5305 SCENIC DRIVE, YAKIMA, WA, 98908","Match","Exact","5305 SCENIC DR, YAKIMA, WA, 98908",184970768,"R"
239508,"5305 SEA RAVEN CT","WALDORF","MD",20603,38.6108690570001,-76.947922025,8,"5305 SEA RAVEN CT, WALDORF, MD, 20603","Match","Exact","5305 SEA RAVEN CT, WALDORF, MD, 20603",25385056,"R"
239509,"5305 STEWARD COURT","GRAND BAY","AL",36541,30.579475738,-88.290541467,9,"5305 STEWARD COURT, GRAND BAY, AL, 36541","Match","Exact","5305 STEWARD CT, GRAND BAY, AL, 36541",624808136,"R"
239510,"5305 STEWART DRIVE","VIRGINIA BEACH","VA",23464,36.7840196940001,-76.1656858279999,10,"5305 STEWART DRIVE, VIRGINIA BEACH, VA, 23464","Match","Exact","5305 STEWART DR, VA BCH, VA, 23464",122264933,"R"
239511,"5305 TAMIAMI TRL","WATERFORD","MI",48329,42.676718679,-83.393959348,11,"5305 TAMIAMI TRL, WATERFORD, MI, 48329","Match","Exact","5305 TAMIAMI TRL, WATERFORD, MI, 48329",69795282,"L"
239512,"5305 VILLAGE CENTER DR SUITE 274","COLUMBIA","MD",21044,NA,NA,12,"5305 VILLAGE CENTER DR SUITE 274, COLUMBIA, MD, 21044","No_Match",NA,NA,NA,NA
239513,"5305 VILLAGE CENTER DR SUITE 395","COLUMBIA","MD",21044,NA,NA,13,"5305 VILLAGE CENTER DR SUITE 395, COLUMBIA, MD, 21044","No_Match",NA,NA,NA,NA
239514,"5305 WALNUT LANE","COLLEYVILLE","TX",76034,32.8861452520001,-97.123157078,14,"5305 WALNUT LANE, COLLEYVILLE, TX, 76034","Match","Exact","5305 WALNUT LN, COLLEYVILLE, TX, 76034",102090681,"L"
239515,"5305 WELCH VALLEY AVENUE","LAS VEGAS","NV",89131,36.3172558860001,-115.214070355,15,"5305 WELCH VALLEY AVENUE, LAS VEGAS, NV, 89131","Match","Exact","5305 WELCH VALLEY AVE, LAS VEGAS, NV, 89131",632841692,"L"
239516,"5305 WEST BALD EAGLE BLVD","WHITE BEAR LAKE","MN",55110,NA,NA,16,"5305 WEST BALD EAGLE BLVD, WHITE BEAR LAKE, MN, 55110","No_Match",NA,NA,NA,NA
239517,"530505 CROSSOVER ROAD","INDEPENDENCE","LA",70443,NA,NA,17,"530505 CROSSOVER ROAD, INDEPENDENCE, LA, 70443","No_Match",NA,NA,NA,NA
239518,"530591","HENDERSON","NV",89053,NA,NA,18,"530591, HENDERSON, NV, 89053","No_Match",NA,NA,NA,NA
239519,"5306 BEAVER LODGE DRIVE","KINGWOOD","TX",77345,30.049538415,-95.160933324,19,"5306 BEAVER LODGE DRIVE, KINGWOOD, TX, 77345","Match","Exact","5306 BEAVER LODGE DR, KINGWOOD, TX, 77345",96141449,"R"
239520,"5306 BUFFALO PASS","AUSTIN","TX",78745,30.2213672820001,-97.8014075469999,20,"5306 BUFFALO PASS, AUSTIN, TX, 78745","Match","Exact","5306 BUFFALO PASS, AUSTIN, TX, 78745",63939038,"R"
239521,"5306 ENGLISH OAK DR","KILLEEN","TX",76542,31.0505835330001,-97.69840599,21,"5306 ENGLISH OAK DR, KILLEEN, TX, 76542","Match","Exact","5306 ENGLISH OAK DR, KILLEEN, TX, 76542",619910104,"R"
239522,"5306 GREATBRIDGE COURT","NORTH CHESTERDFIELD","VA",23237,37.388720205,-77.473921563,22,"5306 GREATBRIDGE COURT, NORTH CHESTERDFIELD, VA, 23237","Match","Non_Exact","5306 GREATBRIDGE CT, NORTH CHESTERFIELD, VA, 23237",201546417,"L"
239523,"5306 MEADOWLARK LANE","CEDAR FALLS","IA",50613,42.4907405210001,-92.4682611919999,23,"5306 MEADOWLARK LANE, CEDAR FALLS, IA, 50613","Match","Exact","5306 MEADOWLARK LN, CEDAR FALLS, IA, 50613",77264711,"L"
239524,"5306 NORTH HEMLOCK DRIVE","MUNCIE","IN",47304,40.2368925980001,-85.420008552,24,"5306 NORTH HEMLOCK DRIVE, MUNCIE, IN, 47304","Match","Exact","5306 N HEMLOCK DR, MUNCIE, IN, 47304",30833735,"R"
239525,"5306 NORTON ST","TORRANCE","CA",90503,33.8505685820001,-118.368699031,25,"5306 NORTON ST, TORRANCE, CA, 90503","Match","Exact","5306 NORTON ST, TORRANCE, CA, 90503",141663468,"L"
239526,"5306 SOUTH CORNELL UNIT 1","CHICAGO","IL",60615,41.799413998,-87.585519663,26,"5306 SOUTH CORNELL UNIT 1, CHICAGO, IL, 60615","Match","Non_Exact","5306 S CORNELL AVE, CHICAGO, IL, 60615",111771932,"R"
239527,"5306 W ARGYLE ST","CHICAGO","IL",60630,41.971552381,-87.760422594,27,"5306 W ARGYLE ST, CHICAGO, IL, 60630","Match","Non_Exact","5306 W ARGYLE ST, CHICAGO, IL, 60630",630132229,"R"
239528,"5306 W BRITTANY PL","LITTLETON","CO",80123,39.6080252840001,-105.055003482,28,"5306 W BRITTANY PL, LITTLETON, CO, 80123","Match","Exact","5306 W BRITTANY PL, LITTLETON, CO, 80123",177750357,"L"
239529,"5306 W FRIENDLY AVE","GREENSBORO","NC",27410,36.089321827,-79.878935073,29,"5306 W FRIENDLY AVE, GREENSBORO, NC, 27410","Match","Exact","5306 W FRIENDLY AVE, GREENSBORO, NC, 27410",131026512,"R"
239530,"5306 WESLEY AVENUE","GWYNN OAK","MD",21207,39.3317252050001,-76.704409379,30,"5306 WESLEY AVENUE, GWYNN OAK, MD, 21207","Match","Exact","5306 WESLEY AVE, GWYNN OAK, MD, 21207",206404268,"R"
239531,"5306 WOODROW AVE APT 106","AUSTIN","TX",78756,30.3243993560001,-97.7357230389999,31,"5306 WOODROW AVE APT 106, AUSTIN, TX, 78756","Match","Exact","5306 WOODROW AVE, AUSTIN, TX, 78756",63931439,"L"
239532,"5306 ZION ROAD","JEFFERSON CITY","MO",65109,38.533303367,-92.298194509,32,"5306 ZION ROAD, JEFFERSON CITY, MO, 65109","Match","Exact","5306 ZION RD, JEFFERSON CITY, MO, 65109",652550848,"R"
239533,"5307 15TH ST","LYNNVILLE","IA",50153,41.52496338,-92.7481737969999,33,"5307 15TH ST, LYNNVILLE, IA, 50153","Match","Exact","5307 15TH ST, LYNNVILLE, IA, 50153",89582543,"R"
239534,"5307 64TH AVENUE NE","MARYSVILLE","WA",98270,48.04470115,-122.144680894,34,"5307 64TH AVENUE NE, MARYSVILLE, WA, 98270","Match","Exact","5307 64TH AVE NE, MARYSVILLE, WA, 98270",625016447,"R"
239535,"5307 ANDREA BLVD","SACRAMENTO","CA",95842,38.690400127,-121.341026396,35,"5307 ANDREA BLVD, SACRAMENTO, CA, 95842","Match","Exact","5307 ANDREA BLVD, SACRAMENTO, CA, 95842",133426978,"L"
239536,"5307 CAROLINA CROSSING UNIT 205","LOUISVILLE","KY",40219,NA,NA,36,"5307 CAROLINA CROSSING UNIT 205, LOUISVILLE, KY, 40219","No_Match",NA,NA,NA,NA
239537,"5307 E MOCKINGBIRD LANE STE 802","DALLAS","TX",75206,NA,NA,37,"5307 E MOCKINGBIRD LANE STE 802, DALLAS, TX, 75206","No_Match",NA,NA,NA,NA
239538,"5307 ELSIE LANE SW","MABLETON","GA",30126,33.825917201,-84.596769151,38,"5307 ELSIE LANE SW, MABLETON, GA, 30126","Match","Exact","5307 ELSIE LN SW, MABLETON, GA, 30126",17222495,"L"
239539,"5307 MASTIN LAKE ROAD NW","HUNTSVILLE","AL",35810,34.7714793050001,-86.641628955,39,"5307 MASTIN LAKE ROAD NW, HUNTSVILLE, AL, 35810","Match","Exact","5307 MASTIN LAKE RD NW, HUNTSVILLE, AL, 35810",58210894,"L"
239540,"5307 PARTRIDGE STREET","DURHAM","NC",27704,36.0701131270001,-78.903895689,40,"5307 PARTRIDGE STREET, DURHAM, NC, 27704","Match","Exact","5307 PARTRIDGE ST, DURHAM, NC, 27704",71735748,"L"
239541,"5307 PLAINFIELD AVE","BALTIMORE","MD",21206,39.3344021930001,-76.547303089,41,"5307 PLAINFIELD AVE, BALTIMORE, MD, 21206","Match","Exact","5307 PLAINFIELD AVE, BALTIMORE, MD, 21206",206411669,"R"
239542,"5307 SANTA FE","PASCO","WA",99301,46.2756583620001,-119.143091896,42,"5307 SANTA FE, PASCO, WA, 99301","Match","Non_Exact","5307 SANTA FE LN, PASCO, WA, 99301",652122261,"R"
239543,"5307 SOUTH HYDE PARK BLVD","CHICAGO","IL",60615,41.7994238200001,-87.58404132,43,"5307 SOUTH HYDE PARK BLVD, CHICAGO, IL, 60615","Match","Exact","5307 S HYDE PARK BLVD, CHICAGO, IL, 60615",111771981,"L"
239544,"5307 SOUTH NEVA AVENUE","CHICAGO","IL",60638,41.795540407,-87.8003554919999,44,"5307 SOUTH NEVA AVENUE, CHICAGO, IL, 60638","Match","Exact","5307 S NEVA AVE, CHICAGO, IL, 60638",111796283,"L"
239545,"5307 VANTAGE AVE APT 3","VALLEY VILLAGE","CA",91607,34.1672302110001,-118.398145288,45,"5307 VANTAGE AVE APT 3, VALLEY VILLAGE, CA, 91607","Match","Exact","5307 VANTAGE AVE, VALLEY VLG, CA, 91607",141564544,"L"
239546,"5307 WEST COVE WAY","GRAND PRAIRIE","TX",75052,32.6433076390001,-97.0582485039999,46,"5307 WEST COVE WAY, GRAND PRAIRIE, TX, 75052","Match","Exact","5307 W COVE WAY, GRAND PRAIRIE, TX, 75052",649881393,"R"
239547,"5308 114TH ST","LUBBOCK","TX",79424,NA,NA,47,"5308 114TH ST, LUBBOCK, TX, 79424","No_Match",NA,NA,NA,NA
239548,"5308 13TH AVE STE 594","BROOKLYN","NY",11219,40.632709488,-73.994543182,48,"5308 13TH AVE STE 594, BROOKLYN, NY, 11219","Match","Exact","5308 13TH AVE, BROOKLYN, NY, 11219",59080239,"R"
239549,"5308 13TH STREET NW","WASHINGTON","DC",20011,38.954242423,-77.029701104,49,"5308 13TH STREET NW, WASHINGTON, DC, 20011","Match","Exact","5308 13TH ST NW, WASHINGTON, DC, 20011",76223272,"L"
239550,"5308 5TH STREET NW","WASHINGTON","DC",20011,38.9544713450001,-77.019800101,50,"5308 5TH STREET NW, WASHINGTON, DC, 20011","Match","Exact","5308 5TH ST NW, WASHINGTON, DC, 20011",76223403,"L"
239551,"5308 BAKER AVE NW","SEATTLE","WA",98107,NA,NA,51,"5308 BAKER AVE NW, SEATTLE, WA, 98107","No_Match",NA,NA,NA,NA
239552,"5308 COTTONWOOD ROAD SUITE 3","MEMPHIS","TN",38118,35.068907365,-89.886239131,52,"5308 COTTONWOOD ROAD SUITE 3, MEMPHIS, TN, 38118","Match","Exact","5308 COTTONWOOD RD, MEMPHIS, TN, 38118",72928096,"L"
239553,"5308 E COLUMBUS DR","TAMPA","FL",33619,27.9667922130001,-82.395791346,53,"5308 E COLUMBUS DR, TAMPA, FL, 33619","Match","Non_Exact","5308 COLUMBUS DR, TAMPA, FL, 33619",104535476,"L"
239554,"5308 FOX BRIAR TRAIL","ORLANDO","FL",32808,28.6060015520001,-81.465704585,54,"5308 FOX BRIAR TRAIL, ORLANDO, FL, 32808","Match","Exact","5308 FOX BRIAR TRL, ORLANDO, FL, 32808",94268573,"L"
239555,"5308 HAYLOFT COURT","FORT WORTH","TX",76123,32.619377226,-97.406094307,55,"5308 HAYLOFT COURT, FORT WORTH, TX, 76123","Match","Exact","5308 HAYLOFT CT, FORT WORTH, TX, 76123",102119902,"L"
239556,"5308 LAUREL POINTE DRIVE","VALRICO","FL",33596,27.8898824730001,-82.207086234,56,"5308 LAUREL POINTE DRIVE, VALRICO, FL, 33596","Match","Exact","5308 LAUREL POINTE DR, VALRICO, FL, 33596",104592144,"L"
239557,"5308 MAPLE LANE","COLLEYVILLE","TX",76034,32.8870468100001,-97.1243332189999,57,"5308 MAPLE LANE, COLLEYVILLE, TX, 76034","Match","Exact","5308 MAPLE LN, COLLEYVILLE, TX, 76034",102090750,"R"
239558,"5308 MAPLE ST","BELLAIRE","TX",77401,29.6910567140001,-95.4775763819999,58,"5308 MAPLE ST, BELLAIRE, TX, 77401","Match","Exact","5308 MAPLE ST, BELLAIRE, TX, 77401",96038887,"R"
239559,"5308 MARSH LANDING LANE","SUFFOLK","VA",23435,36.8773338980001,-76.443362379,59,"5308 MARSH LANDING LANE, SUFFOLK, VA, 23435","Match","Exact","5308 MARSH LANDING LN, SUFFOLK, VA, 23435",122233268,"R"
239560,"5308 MEADOW STREAM WAY","CRESTWOOD","KY",40014,38.340297638,-85.5004967949999,60,"5308 MEADOW STREAM WAY, CRESTWOOD, KY, 40014","Match","Exact","5308 MEADOW STREAM WAY, CRESTWOOD, KY, 40014",130932514,"L"
239561,"5308 MIAMI ST","SOUTH BEND","IN",46614,41.619390509,-86.234723209,61,"5308 MIAMI ST, SOUTH BEND, IN, 46614","Match","Exact","5308 MIAMI ST, SOUTH BEND, IN, 46614",8082223,"L"
239562,"5308 NORTH CAPITOL STREET NW","WASHINGTON","DC",20011,38.9549351590001,-77.009051905,62,"5308 NORTH CAPITOL STREET NW, WASHINGTON, DC, 20011","Match","Exact","5308 N CAPITOL ST NW, WASHINGTON, DC, 20011",649878240,"L"
239563,"5308 NORTH PEARL STREET","JACKSONVILLE","FL",32208,30.372241683,-81.656660049,63,"5308 NORTH PEARL STREET, JACKSONVILLE, FL, 32208","Match","Exact","5308 N PEARL ST, JACKSONVILLE, FL, 32208",83897899,"L"
239564,"5308 OAK BEND CT","MOBILE","AL",36609,30.658330934,-88.166211613,64,"5308 OAK BEND CT, MOBILE, AL, 36609","Match","Exact","5308 OAK BEND CT, MOBILE, AL, 36609",61944959,"R"
239565,"5308 OLIVE ROAD","RALEIGH","NC",27606,35.7520298160001,-78.7208914459999,65,"5308 OLIVE ROAD, RALEIGH, NC, 27606","Match","Exact","5308 OLIVE RD, RALEIGH, NC, 27606",72600723,"R"
239566,"5308 SPRING ST","WARM SPRINGS","GA",31830,32.886090358,-84.675286661,66,"5308 SPRING ST, WARM SPRINGS, GA, 31830","Match","Exact","5308 SPRING ST, WARM SPRINGS, GA, 31830",9425594,"R"
239567,"5308 TELMO","IRVINE","CA",92618,33.6447805190001,-117.746900589,67,"5308 TELMO, IRVINE, CA, 92618","Match","Exact","5308 TELMO, IRVINE, CA, 92618",641649166,"L"
239568,"5308 VAN DYKE RD","LUTZ","FL",33558,NA,NA,68,"5308 VAN DYKE RD, LUTZ, FL, 33558","No_Match",NA,NA,NA,NA
239569,"5308 WENESLY CT","RALEIGH","NC",27616,35.8518887650001,-78.566105278,69,"5308 WENESLY CT, RALEIGH, NC, 27616","Match","Non_Exact","5308 WENESLY CT W, RALEIGH, NC, 27616",72624079,"L"
239570,"53088 WINDHAM DRIVE","CHESTERFIELD","MI",48051,42.691621775,-82.805097297,70,"53088 WINDHAM DRIVE, CHESTERFIELD, MI, 48051","Match","Exact","53088 WINDHAM DR, CHESTERFIELD, MI, 48051",110731565,"R"
239571,"5309 28TH AVE S","SEATTLE","WA",98108,47.5545146010001,-122.296876645,71,"5309 28TH AVE S, SEATTLE, WA, 98108","Match","Exact","5309 28TH AVE S, SEATTLE, WA, 98108",186595485,"R"
239572,"5309 AGNES AVE","VALLEY VILLAGE","CA",91607,34.1669321590001,-118.395379605,72,"5309 AGNES AVE, VALLEY VILLAGE, CA, 91607","Match","Exact","5309 AGNES AVE, VALLEY VLG, CA, 91607",141564563,"L"
239573,"5309 ANNETTE ST","BAKERSFIELD","CA",93313,35.30709326,-119.050585753,73,"5309 ANNETTE ST, BAKERSFIELD, CA, 93313","Match","Exact","5309 ANNETTE ST, BAKERSFIELD, CA, 93313",109091778,"L"
239574,"5309 BELAIR ROAD","BALTIMORE","MD",21206,39.337630194,-76.552408106,74,"5309 BELAIR ROAD, BALTIMORE, MD, 21206","Match","Exact","5309 BELAIR RD, BALTIMORE, MD, 21206",206456000,"R"
239575,"5309 BROADFIELD DRIVE","COLUMBUS","GA",31907,32.5198378110001,-84.87742652,75,"5309 BROADFIELD DRIVE, COLUMBUS, GA, 31907","Match","Exact","5309 BROADFIELD DR, COLUMBUS, GA, 31907",637668903,"L"
239576,"5309 DAYAN DRIVE","CHARLOTTE","NC",28216,35.325137666,-80.84947891,76,"5309 DAYAN DRIVE, CHARLOTTE, NC, 28216","Match","Exact","5309 DAYAN DR, CHARLOTTE, NC, 28216",70471981,"L"
239577,"5309 DESERT SAND PL NW","ALBUQUERQUE","NM",87120,35.1559185510001,-106.699506071,77,"5309 DESERT SAND PL NW, ALBUQUERQUE, NM, 87120","Match","Exact","5309 DESERT SAND PL NW, ALBUQUERQUE, NM, 87120",206756283,"L"
239578,"5309 DILBAGH DR","DURHAM","NC",27703,35.9240559790001,-78.813767394,78,"5309 DILBAGH DR, DURHAM, NC, 27703","Match","Exact","5309 DILBAGH DR, DURHAM, NC, 27703",71778849,"L"
239579,"5309 DOON ST","VIRGINIA BEACH","VA",23464,36.781121652,-76.169260138,79,"5309 DOON ST, VIRGINIA BEACH, VA, 23464","Match","Exact","5309 DOON ST, VA BCH, VA, 23464",122301058,"R"
239580,"5309 E LANCASTER AVENUE","FORT WORTH","TX",76112,32.7402166850001,-97.240258115,80,"5309 E LANCASTER AVENUE, FORT WORTH, TX, 76112","Match","Exact","5309 E LANCASTER AVE, FORT WORTH, TX, 76112",102137089,"L"
239581,"5309 FORT PIERCE BLVD","FORT PIERCE","FL",34951,27.5303617800001,-80.4024831629999,81,"5309 FORT PIERCE BLVD, FORT PIERCE, FL, 34951","Match","Exact","5309 FORT PIERCE BLVD, FORT PIERCE, FL, 34951",120157413,"L"
239582,"5309 GREENS DRIVE","LADY LAKE","FL",32159,28.9218485010001,-81.865863722,82,"5309 GREENS DRIVE, LADY LAKE, FL, 32159","Match","Exact","5309 GREENS DR, LADY LAKE, FL, 32159",94147011,"R"
239583,"5309 HADDON PLACE","MCDONOUGH","GA",30253,NA,NA,83,"5309 HADDON PLACE, MCDONOUGH, GA, 30253","No_Match",NA,NA,NA,NA
239584,"5309 HERFORD DR","SACHSE","TX",75048,32.963017042,-96.574164482,84,"5309 HERFORD DR, SACHSE, TX, 75048","Match","Exact","5309 HERFORD DR, SACHSE, TX, 75048",646694388,"R"
239585,"5309 JESSUP LANE","WOODBRIDGE","VA",22193,38.631010351,-77.367654344,85,"5309 JESSUP LANE, WOODBRIDGE, VA, 22193","Match","Exact","5309 JESSUP LN, WOODBRIDGE, VA, 22193",76526693,"R"
239586,"5309 JUSTIN COURT APT 103","VIRGINIA BEACH","VA",23462,36.8692437710001,-76.164050477,86,"5309 JUSTIN COURT APT 103, VIRGINIA BEACH, VA, 23462","Match","Exact","5309 JUSTIN CT, VA BCH, VA, 23462",122273594,"R"
239587,"5309 LIONS GATE LANE","KILLEEN","TX",76549,31.0842527670001,-97.7988689759999,87,"5309 LIONS GATE LANE, KILLEEN, TX, 76549","Match","Exact","5309 LIONS GATE LN, KILLEEN, TX, 76549",640174270,"L"
239588,"5309 LOLETA AVE","LOS ANGELES","CA",90041,34.1429623940001,-118.198141147,88,"5309 LOLETA AVE, LOS ANGELES, CA, 90041","Match","Exact","5309 LOLETA AVE, LOS ANGELES, CA, 90041",141613493,"L"
239589,"5309 MCPHERSON BLVD STE 105-145","FORT WORTH","TX",76123,NA,NA,89,"5309 MCPHERSON BLVD STE 105-145, FORT WORTH, TX, 76123","No_Match",NA,NA,NA,NA
239590,"5309 NW 13TH CIRCLE","CAMAS","WA",98607,45.5885471670001,-122.4645022,90,"5309 NW 13TH CIRCLE, CAMAS, WA, 98607","Match","Exact","5309 NW 13TH CIR, CAMAS, WA, 98607",646583240,"L"
239591,"5309 RAVENGLASS CT","WAXHAW","NC",28173,34.9803708850001,-80.691711931,91,"5309 RAVENGLASS CT, WAXHAW, NC, 28173","Match","Exact","5309 RAVENGLASS CT, WAXHAW, NC, 28173",14206254,"L"
239592,"5309 RAVENSWORTH ROAD","SPRINGFIELD","VA",22151,38.8065731890001,-77.2116719799999,92,"5309 RAVENSWORTH ROAD, SPRINGFIELD, VA, 22151","Match","Exact","5309 RAVENSWORTH RD, SPRINGFIELD, VA, 22151",75976263,"R"
239593,"5309 RIDGESON DR","MCKINNEY","TX",75071,33.2332162500001,-96.687018785,93,"5309 RIDGESON DR, MCKINNEY, TX, 75071","Match","Exact","5309 RIDGESON DR, MCKINNEY, TX, 75071",616525878,"R"
239594,"5309 SAVANNAH BEND DR","ROSHARON","TX",77583,NA,NA,94,"5309 SAVANNAH BEND DR, ROSHARON, TX, 77583","No_Match",NA,NA,NA,NA
239595,"5309 SCENIC VIEW","AUSTIN","TX",78746,30.31179881,-97.8049672989999,95,"5309 SCENIC VIEW, AUSTIN, TX, 78746","Match","Non_Exact","5309 SCENIC VIEW DR, AUSTIN, TX, 78746",63925581,"L"
239596,"5309 W 121ST STREET","HAWTHORNE","CA",90250,33.9229748820001,-118.372471882,96,"5309 W 121ST STREET, HAWTHORNE, CA, 90250","Match","Exact","5309 W 121ST ST, HAWTHORNE, CA, 90250",141655805,"R"
239597,"5309 WHITE COYOTE PL","LAS VEGAS","NV",89130,36.257650002,-115.245542851,97,"5309 WHITE COYOTE PL, LAS VEGAS, NV, 89130","Match","Exact","5309 WHITE COYOTE PL, LAS VEGAS, NV, 89130",201935217,"L"
239598,"53093 POPPY ROAD","SOUTH BEND","IN",46628,41.7212642740001,-86.360873071,98,"53093 POPPY ROAD, SOUTH BEND, IN, 46628","Match","Exact","53093 POPPY RD, SOUTH BEND, IN, 46628",616551103,"R"
239599,"530BEACON PARKWAY WEST","BIRMINGHAM","AL",35209,NA,NA,99,"530BEACON PARKWAY WEST, BIRMINGHAM, AL, 35209","No_Match",NA,NA,NA,NA
239600,"530C ALAMEDA DEL PRADO NUM 209","NOVATO","CA",94949,38.0649889310001,-122.539762083,100,"530C ALAMEDA DEL PRADO NUM 209, NOVATO, CA, 94949","Match","Exact","530 ALAMEDA DEL PRADO, NOVATO, CA, 94949",632971494,"R"
239601,"531 2ND STREET EAST","HECTOR","MN",55342,44.7402662120001,-94.7135295209999,101,"531 2ND STREET EAST, HECTOR, MN, 55342","Match","Exact","531 2ND ST E, HECTOR, MN, 55342",605040636,"R"
239602,"531 ALISON DRIVE APT 20","HUMMELSTOWN","PA",17036,40.267711664,-76.694336149,102,"531 ALISON DRIVE APT 20, HUMMELSTOWN, PA, 17036","Match","Exact","531 ALISON DR, HUMMELSTOWN, PA, 17036",70832722,"R"
239603,"531 AVENUE N","ANSON","TX",79501,32.7627520950001,-99.901452711,103,"531 AVENUE N, ANSON, TX, 79501","Match","Exact","531 AVENUE N, ANSON, TX, 79501",624946059,"R"
239604,"531 AVENUE OF THE STATES","CHESTER","PA",19013,39.8485275990001,-75.360304019,104,"531 AVENUE OF THE STATES, CHESTER, PA, 19013","Match","Exact","531 AVE OF THE STATES, CHESTER, PA, 19013",134881678,"R"
239605,"531 BEDFORD ST","CLAYSBURG","PA",16625,NA,NA,105,"531 BEDFORD ST, CLAYSBURG, PA, 16625","No_Match",NA,NA,NA,NA
239606,"531 BELMONTE PARK SUITE 504","DAYTON","OH",45405,39.76717554,-84.2036773899999,106,"531 BELMONTE PARK SUITE 504, DAYTON, OH, 45405","Match","Non_Exact","531 BELMONTE PARK N, DAYTON, OH, 45405",143631014,"R"
239607,"531 BLACK HAWK TRAIL","LOVELAND","OH",45140,39.2291242150001,-84.278215067,107,"531 BLACK HAWK TRAIL, LOVELAND, OH, 45140","Match","Exact","531 BLACK HAWK TRL, LOVELAND, OH, 45140",118457958,"L"
239608,"531 BLACKWOOD CLEMENTON RD","LINDENWOLD","NJ",8021,NA,NA,108,"531 BLACKWOOD CLEMENTON RD, LINDENWOLD, NJ, 8021","No_Match",NA,NA,NA,NA
239609,"531 BOULEVARD SE","ATLANTA","GA",30312,33.7400271120001,-84.368160169,109,"531 BOULEVARD SE, ATLANTA, GA, 30312","Match","Exact","531 BOULEVARD SE, ATLANTA, GA, 30312",17358155,"R"
239610,"531 BRISTOL WAY","RICHMOND HILL","GA",31324,31.9329966970001,-81.314617544,110,"531 BRISTOL WAY, RICHMOND HILL, GA, 31324","Match","Exact","531 BRISTOL WAY, RICHMOND HILL, GA, 31324",634072581,"L"
239611,"531 BROADWAY STREET","SCRANTON","PA",18505,41.405711824,-75.675485914,111,"531 BROADWAY STREET, SCRANTON, PA, 18505","Match","Exact","531 BROADWAY ST, SCRANTON, PA, 18505",139322647,"L"
239612,"531 BROWN AVENUE","GALLOWAY","NJ",8205,39.4437258900001,-74.482135359,112,"531 BROWN AVENUE, GALLOWAY, NJ, 8205","Match","Non_Exact","531 E BROWN AVE, GALLOWAY, NJ, 08205",202485278,"R"
239613,"531 BRUNSWICK STREET","BALTIMORE","MD",21223,39.278546412,-76.658945379,113,"531 BRUNSWICK STREET, BALTIMORE, MD, 21223","Match","Exact","531 BRUNSWICK ST, BALTIMORE, MD, 21223",206415031,"L"
239614,"531 BUTLER STREET","AVENEL","NJ",7001,40.587148524,-74.2890051379999,114,"531 BUTLER STREET, AVENEL, NJ, 7001","Match","Exact","531 BUTLER ST, AVENEL, NJ, 07001",60274673,"R"
239615,"531 CAPTAIN MARSHAL","PRAIRIE GROVE","AR",72753,35.979964592,-94.296867048,115,"531 CAPTAIN MARSHAL, PRAIRIE GROVE, AR, 72753","Match","Non_Exact","531 CAPTAIN MARSHALL ST, PRAIRIE GROVE, AR, 72753",49096021,"R"
239616,"531 CASSWALL ST","NAPA","CA",94558,38.2841522310001,-122.309262653,116,"531 CASSWALL ST, NAPA, CA, 94558","Match","Exact","531 CASSWALL ST, NAPA, CA, 94558",67416581,"R"
239617,"531 CENTERVILLE LANE","GARDNERVILLE","NV",89460,38.9104502120001,-119.813767873,117,"531 CENTERVILLE LANE, GARDNERVILLE, NV, 89460","Match","Exact","531 CENTERVILLE LN, GARDNERVILLE, NV, 89460",173745216,"L"
239618,"531 CHEROKEE RD","PHILIPPI","WV",26416,NA,NA,118,"531 CHEROKEE RD, PHILIPPI, WV, 26416","No_Match",NA,NA,NA,NA
239619,"531 COLLEGE STREET","MADISONVILLE","TN",37354,35.5237495470001,-84.363634705,119,"531 COLLEGE STREET, MADISONVILLE, TN, 37354","Match","Exact","531 COLLEGE ST, MADISONVILLE, TN, 37354",85305677,"R"
239620,"531 CORTLAND CIRCLE","CHESHIRE","CT",6410,41.5089374720001,-72.872995438,120,"531 CORTLAND CIRCLE, CHESHIRE, CT, 6410","Match","Exact","531 CORTLAND CIR, CHESHIRE, CT, 06410",3751639,"L"
239621,"531 CREEKSIDE DR","BELTON","TX",76513,NA,NA,121,"531 CREEKSIDE DR, BELTON, TX, 76513","No_Match",NA,NA,NA,NA
239622,"531 CTY ROAD D","BELGIUM","WI",53004,NA,NA,122,"531 CTY ROAD D, BELGIUM, WI, 53004","No_Match",NA,NA,NA,NA
239623,"531 DEWEY STREET","FOLEY","MN",56329,45.665449224,-93.908190291,123,"531 DEWEY STREET, FOLEY, MN, 56329","Match","Exact","531 DEWEY ST, FOLEY, MN, 56329",167357006,"L"
239624,"531 E BETHANY HOME RD","PHOENIX","AZ",85012,33.5237471520001,-112.066481605,124,"531 E BETHANY HOME RD, PHOENIX, AZ, 85012","Match","Exact","531 E BETHANY HOME RD, PHOENIX, AZ, 85012",128607276,"R"
239625,"531 E LEMON AVE","LAKE ALFRED","FL",33850,28.1000928240001,-81.721369641,125,"531 E LEMON AVE, LAKE ALFRED, FL, 33850","Match","Exact","531 E LEMON AVE, LAKE ALFRED, FL, 33850",647849662,"R"
239626,"531 E LYNNWOOD STREET","PHOENIX","AZ",85004,33.4649017740001,-112.066099937,126,"531 E LYNNWOOD STREET, PHOENIX, AZ, 85004","Match","Non_Exact","531 E LYNWOOD ST, PHOENIX, AZ, 85004",128594755,"R"
239627,"531 E SPRINGFIELD RD","ARCOLA","IL",61910,39.680876486,-88.298941675,127,"531 E SPRINGFIELD RD, ARCOLA, IL, 61910","Match","Exact","531 E SPRINGFIELD RD, ARCOLA, IL, 61910",5741813,"L"
239628,"531 EAST 20TH STREET APT 10G","NEW YORK","NY",10010,40.7337090090001,-73.97691169,128,"531 EAST 20TH STREET APT 10G, NEW YORK, NY, 10010","Match","Exact","531 E 20TH ST, NEW YORK, NY, 10010",611237895,"L"
239629,"531 EAST ANTHONY STREET","CELINA","OH",45822,40.5519057980001,-84.563317576,129,"531 EAST ANTHONY STREET, CELINA, OH, 45822","Match","Exact","531 E ANTHONY ST, CELINA, OH, 45822",43111698,"R"
239630,"531 EAST BOSTON AVENUE","YOUNGSTOWN","OH",44502,41.0684670750001,-80.645480402,130,"531 EAST BOSTON AVENUE, YOUNGSTOWN, OH, 44502","Match","Exact","531 E BOSTON AVE, YOUNGSTOWN, OH, 44502",64596414,"R"
239631,"531 EAST DURHAM STREET","PHILADELPHIA","PA",19119,40.0661737730001,-75.18271365,131,"531 EAST DURHAM STREET, PHILADELPHIA, PA, 19119","Match","Exact","531 E DURHAM ST, PHILADELPHIA, PA, 19119",131394777,"L"
239632,"531 EAST ONTARIO AVE","ATLANTA","GA",30310,33.740860373,-84.438825175,132,"531 EAST ONTARIO AVE, ATLANTA, GA, 30310","Match","Non_Exact","531 E ONTARIO AVE SW, ATLANTA, GA, 30310",17341206,"R"
239633,"531 EASTERN BLVD SUITE C","ESSEX","MD",21221,39.3088400820001,-76.474713864,133,"531 EASTERN BLVD SUITE C, ESSEX, MD, 21221","Match","Exact","531 EASTERN BLVD, ESSEX, MD, 21221",191489373,"R"
239634,"531 ENCINITAS BLVD SUIT 120","ENCINITAS","CA",92024,33.0468404050001,-117.2816386,134,"531 ENCINITAS BLVD SUIT 120, ENCINITAS, CA, 92024","Match","Exact","531 ENCINITAS BLVD, ENCINITAS, CA, 92024",195293035,"R"
239635,"531 ENCINITAS BLVD","ENCINITAS","CA",92024,33.0468404050001,-117.2816386,135,"531 ENCINITAS BLVD, ENCINITAS, CA, 92024","Match","Exact","531 ENCINITAS BLVD, ENCINITAS, CA, 92024",195293035,"R"
239636,"531 EUCALYPTUS DRIVE","EL SEGUNDO","CA",90245,33.922686501,-118.413538772,136,"531 EUCALYPTUS DRIVE, EL SEGUNDO, CA, 90245","Match","Exact","531 EUCALYPTUS DR, EL SEGUNDO, CA, 90245",141579954,"L"
239637,"531 FALLWOOD DR SE","CONCORD","NC",28025,35.411485391,-80.5474521149999,137,"531 FALLWOOD DR SE, CONCORD, NC, 28025","Match","Exact","531 FALLWOOD DR SE, CONCORD, NC, 28025",24900673,"R"
239638,"531 FRAUNFELTER RD N","LIMA","OH",45807,NA,NA,138,"531 FRAUNFELTER RD N, LIMA, OH, 45807","No_Match",NA,NA,NA,NA
239639,"531 GLENDORA AVE APT 51","STOCKTON","CA",95207,38.0079873710001,-121.317223665,139,"531 GLENDORA AVE APT 51, STOCKTON, CA, 95207","Match","Exact","531 GLENDORA AVE, STOCKTON, CA, 95207",133845425,"R"
239640,"531 HAMMOND DRIVE NE","ATLANTA","GA",30328,33.9190587310001,-84.369461413,140,"531 HAMMOND DRIVE NE, ATLANTA, GA, 30328","Match","Exact","531 HAMMOND DR NE, ATLANTA, GA, 30328",17354783,"R"
239641,"531 HAWKRIDGE TERRACE","ORINDA","CA",94563,37.8898092800001,-122.17952455,141,"531 HAWKRIDGE TERRACE, ORINDA, CA, 94563","Match","Exact","531 HAWKRIDGE TER, ORINDA, CA, 94563",192045139,"R"
239642,"531 HAYWOOD RD","ASHEVILLE","NC",28806,35.578606146,-82.585279149,142,"531 HAYWOOD RD, ASHEVILLE, NC, 28806","Match","Exact","531 HAYWOOD RD, ASHEVILLE, NC, 28806",36843212,"R"
239643,"531 HILLEND CT","APOPKA","FL",32712,28.7319026480001,-81.522256403,143,"531 HILLEND CT, APOPKA, FL, 32712","Match","Exact","531 HILLEND CT, APOPKA, FL, 32712",649105848,"L"
239644,"531 HOFFMAN LN","HAUPPAUGE","NY",11788,40.823820229,-73.186155421,144,"531 HOFFMAN LN, HAUPPAUGE, NY, 11788","Match","Exact","531 HOFFMAN LN, HAUPPAUGE, NY, 11788",113989263,"L"
239645,"531 HOLLOWAY AVENUE","SAN FRANSISCO","CA",94112,37.721836506,-122.458524872,145,"531 HOLLOWAY AVENUE, SAN FRANSISCO, CA, 94112","Match","Non_Exact","531 HOLLOWAY AVE, SAN FRANCISCO, CA, 94112",192285482,"L"
239646,"531 JANEWAY DR 177","NORRISTOWN","PA",19401,40.124268817,-75.319390287,146,"531 JANEWAY DR 177, NORRISTOWN, PA, 19401","Match","Exact","531 JANEWAY DR, NORRISTOWN, PA, 19401",135083210,"L"
239647,"531 LASUEN MALL SUITE 17828","STANFORD","CA",94305,37.425875122,-122.169050975,147,"531 LASUEN MALL SUITE 17828, STANFORD, CA, 94305","Match","Exact","531 LASUEN MALL, STANFORD, CA, 94305",614022294,"R"
239648,"531 LAWNDALE DRIVE SE","CEDAR RAPIDS","IA",52403,41.9815015630001,-91.598376569,148,"531 LAWNDALE DRIVE SE, CEDAR RAPIDS, IA, 52403","Match","Exact","531 LAWNDALE DR SE, CEDAR RAPIDS, IA, 52403",17027779,"R"
239649,"531 LICKSKILLET ROAD","WARRENTON","NC",27589,36.2674589640001,-78.207856636,149,"531 LICKSKILLET ROAD, WARRENTON, NC, 27589","Match","Exact","531 LICKSKILLET RD, WARRENTON, NC, 27589",635422780,"R"
239650,"531 LOCUST AVENUE","PORT CHESTER","NY",10573,41.01189901,-73.6585620279999,150,"531 LOCUST AVENUE, PORT CHESTER, NY, 10573","Match","Exact","531 LOCUST AVE, PORT CHESTER, NY, 10573",647182583,"R"
239651,"531 MAIN ST STE 979","EL SEGUNDO","CA",90245,33.92267983,-118.41594533,151,"531 MAIN ST STE 979, EL SEGUNDO, CA, 90245","Match","Exact","531 MAIN ST, EL SEGUNDO, CA, 90245",141579884,"L"
239652,"531 MAIN ST","ZANESVILLE","OH",43701,39.940083664,-82.006056988,152,"531 MAIN ST, ZANESVILLE, OH, 43701","Match","Exact","531 MAIN ST, ZANESVILLE, OH, 43701",45594748,"R"
239653,"531 MAIN STREET APT 213","NEW YORK","NY",10044,40.761307516,-73.950306027,153,"531 MAIN STREET APT 213, NEW YORK, NY, 10044","Match","Exact","531 MAIN ST, NEW YORK, NY, 10044",650067787,"L"
239654,"531 MAIN STREET APT 428","NEW YORK","NY",10044,40.761307516,-73.950306027,154,"531 MAIN STREET APT 428, NEW YORK, NY, 10044","Match","Exact","531 MAIN ST, NEW YORK, NY, 10044",650067787,"L"
239655,"531 MAIN STREET SUITE 1132","EL SEGUNDO","CA",90245,33.92267983,-118.41594533,155,"531 MAIN STREET SUITE 1132, EL SEGUNDO, CA, 90245","Match","Exact","531 MAIN ST, EL SEGUNDO, CA, 90245",141579884,"L"
239656,"531 MARYKNOLL DR","ROCHESTER HILLS","MI",48309,NA,NA,156,"531 MARYKNOLL DR, ROCHESTER HILLS, MI, 48309","Tie",NA,NA,NA,NA
239657,"531 MINNESOTA AVENUE UPPER","BUFFALO","NY",14215,42.945821139,-78.809575985,157,"531 MINNESOTA AVENUE UPPER, BUFFALO, NY, 14215","Match","Exact","531 MINNESOTA AVE, BUFFALO, NY, 14215",48296910,"R"
239658,"531 MITCHELL DRIVE","SAN LUIS OBSIPO","CA",93401,35.265015369,-120.655603418,158,"531 MITCHELL DRIVE, SAN LUIS OBSIPO, CA, 93401","Match","Non_Exact","531 MITCHELL DR, SAN LUIS OBISPO, CA, 93401",109756364,"L"
239659,"531 MORSE ST N","NORWOOD YOUNG AMERIC","MN",55368,44.773091816,-93.9234029839999,159,"531 MORSE ST N, NORWOOD YOUNG AMERIC, MN, 55368","Match","Non_Exact","531 MORSE ST N, NORWOOD YOUNG AMERICA, MN, 55368",43518994,"R"
239660,"531 MORSE STREET","NORWOOD YOUNG AMERIC","MN",55397,NA,NA,160,"531 MORSE STREET, NORWOOD YOUNG AMERIC, MN, 55397","No_Match",NA,NA,NA,NA
239661,"531 MORSE STREET","NYA","MN",55368,44.773091816,-93.9234029839999,161,"531 MORSE STREET, NYA, MN, 55368","Match","Non_Exact","531 MORSE ST N, NORWOOD YOUNG AMERICA, MN, 55368",43518994,"R"
239662,"531 N COMSTOCK AVENUE","SUTHERLIN","OR",97479,43.3919112150001,-123.331328402,162,"531 N COMSTOCK AVENUE, SUTHERLIN, OR, 97479","Match","Non_Exact","531 N COMSTOCK RD, SUTHERLIN, OR, 97479",647894706,"L"
239663,"531 N MAIN STREET","MORTON","IL",61550,40.61504588,-89.457066007,163,"531 N MAIN STREET, MORTON, IL, 61550","Match","Exact","531 N MAIN ST, MORTON, IL, 61550",22503441,"L"
239664,"531 N MAIN","MAGNOLIA","OH",44643,40.6564614800001,-81.298108639,164,"531 N MAIN, MAGNOLIA, OH, 44643","Match","Non_Exact","531 N MAIN ST, MAGNOLIA, OH, 44643",64722715,"L"
239665,"531 N OCEAN BLVD APT 1907","POMPANO BEACH","FL",33062,NA,NA,165,"531 N OCEAN BLVD APT 1907, POMPANO BEACH, FL, 33062","Tie",NA,NA,NA,NA
239666,"531 N WILDERNESS TRL","PONTE VEDRA","FL",32082,30.1786435290001,-81.395870599,166,"531 N WILDERNESS TRL, PONTE VEDRA, FL, 32082","Match","Exact","531 N WILDERNESS TRL, PONTE VEDRA, FL, 32082",92617245,"L"
239667,"531 NE 39TH STREET","POMPANO BEACH","FL",33064,26.278861261,-80.116426739,167,"531 NE 39TH STREET, POMPANO BEACH, FL, 33064","Match","Exact","531 NE 39TH ST, POMPANO BEACH, FL, 33064",114742588,"L"
239668,"531 NORTH MAIN ST","MAGNOLIA","OH",44643,40.656453927,-81.298112282,168,"531 NORTH MAIN ST, MAGNOLIA, OH, 44643","Match","Exact","531 N MAIN ST, MAGNOLIA, OH, 44643",64722715,"L"
239669,"531 NORTH NEVILLE STREET","PITTSBURGH","PA",15213,40.4495813570001,-79.94838365,169,"531 NORTH NEVILLE STREET, PITTSBURGH, PA, 15213","Match","Exact","531 N NEVILLE ST, PITTSBURGH, PA, 15213",51683073,"R"
239670,"531 NW 102ND TERRACE","GAINESVILLE","FL",32607,29.6576161680001,-82.45122987,170,"531 NW 102ND TERRACE, GAINESVILLE, FL, 32607","Match","Exact","531 NW 102ND TER, GAINESVILLE, FL, 32607",6802940,"R"
239671,"531 OAKLAND ST","SUMTER","SC",29150,NA,NA,171,"531 OAKLAND ST, SUMTER, SC, 29150","No_Match",NA,NA,NA,NA
239672,"531 OLD STONE ROAD","BOLINGBROOK","IL",60440,41.692038208,-88.0898356,172,"531 OLD STONE ROAD, BOLINGBROOK, IL, 60440","Match","Exact","531 OLD STONE RD, BOLINGBROOK, IL, 60440",111535183,"L"
239673,"531 PINE STREET","BROOKLYN","NY",11208,40.672428971,-73.87021283,173,"531 PINE STREET, BROOKLYN, NY, 11208","Match","Exact","531 PINE ST, BROOKLYN, NY, 11208",59095290,"L"
239674,"531 PINEWOOD AVENUE","TOLEDO","OH",43606,41.651102226,-83.555759098,174,"531 PINEWOOD AVENUE, TOLEDO, OH, 43606","Match","Non_Exact","531 PINEWOOD AVE, TOLEDO, OH, 43604",33943855,"L"
239675,"531 PLANTATION DRIVE","CLARKESVILLE","GA",30523,NA,NA,175,"531 PLANTATION DRIVE, CLARKESVILLE, GA, 30523","No_Match",NA,NA,NA,NA
239676,"531 RANCH ROAD","WESTON","FL",33326,26.1098249450001,-80.3649992649999,176,"531 RANCH ROAD, WESTON, FL, 33326","Match","Exact","531 RANCH RD, WESTON, FL, 33326",114818297,"L"
239677,"531 S 12TH STREET","SAINT CHARLES","IL",60174,41.9058380000001,-88.328498134,177,"531 S 12TH STREET, SAINT CHARLES, IL, 60174","Match","Exact","531 S 12TH ST, SAINT CHARLES, IL, 60174",119506143,"R"
239678,"531 S 17TH STREET B","PHILADELPHIA","PA",19146,39.944522003,-75.170263135,178,"531 S 17TH STREET B, PHILADELPHIA, PA, 19146","Match","Non_Exact","531 S 17TH ST, PHILADELPHIA, PA, 19146",131407844,"L"
239679,"531 S 38TH AVE APT A202","WEST RICHLAND","WA",99353,46.296081358,-119.337031486,179,"531 S 38TH AVE APT A202, WEST RICHLAND, WA, 99353","Match","Non_Exact","531 S 38TH AVE, WEST RICHLAND, WA, 99353",175007976,"R"
239680,"531 S 38TH AVE","WEST RICHLAND","WA",99353,46.296081358,-119.337031486,180,"531 S 38TH AVE, WEST RICHLAND, WA, 99353","Match","Exact","531 S 38TH AVE, WEST RICHLAND, WA, 99353",175007976,"R"
239681,"531 S BRADDOCK AVENUE APT 3","PITTSBURGH","PA",15221,40.4270332510001,-79.8579599889999,181,"531 S BRADDOCK AVENUE APT 3, PITTSBURGH, PA, 15221","Match","Non_Exact","531 BRADDOCK RD, PITTSBURGH, PA, 15221",607611475,"L"
239682,"531 S MITCHELL AVE","ELMHURST","IL",60126,41.8839248950001,-87.945890714,182,"531 S MITCHELL AVE, ELMHURST, IL, 60126","Match","Exact","531 MITCHELL AVE, ELMHURST, IL, 60126",112545147,"L"
239683,"531 S NIAGARA STREET","BURBANK","CA",91505,34.150561732,-118.331298019,183,"531 S NIAGARA STREET, BURBANK, CA, 91505","Match","Exact","531 S NIAGARA ST, BURBANK, CA, 91505",142726355,"R"
239684,"531 S PLYMOUTH CT","CHICAGO","IL",60605,NA,NA,184,"531 S PLYMOUTH CT, CHICAGO, IL, 60605","No_Match",NA,NA,NA,NA
239685,"531 SAULSBURY STREET","LAKEWOOD","CO",80226,39.724076638,-105.075533493,185,"531 SAULSBURY STREET, LAKEWOOD, CO, 80226","Match","Exact","531 SAULSBURY ST, LAKEWOOD, CO, 80226",177320172,"L"
239686,"531 SEVENTH STREET EAST","ZOLFO SPRINGS","FL",33890,27.491299838,-81.790852241,186,"531 SEVENTH STREET EAST, ZOLFO SPRINGS, FL, 33890","Match","Exact","531 SEVENTH ST E, ZOLFO SPRINGS, FL, 33890",16196758,"R"
239687,"531 SHERWOOD DRIVE N","MIDDLETOWN","NY",10941,41.471595935,-74.350971825,187,"531 SHERWOOD DRIVE N, MIDDLETOWN, NY, 10941","Match","Exact","531 SHERWOOD DR N, MIDDLETOWN, NY, 10941",124497443,"L"
239688,"531 SONOMA RD","JACKSONVILLE","NC",28546,34.8244041890001,-77.4045328619999,188,"531 SONOMA RD, JACKSONVILLE, NC, 28546","Match","Exact","531 SONOMA RD, JACKSONVILLE, NC, 28546",642436260,"L"
239689,"531 SOUTH EASY STREET","SEBASTIAN","FL",32958,27.7978754100001,-80.4778635709999,189,"531 SOUTH EASY STREET, SEBASTIAN, FL, 32958","Match","Exact","531 S EASY ST, SEBASTIAN, FL, 32958",120296859,"R"
239690,"531 SOUTH HARRIS STREET","HELENA","MT",59601,46.5780376970001,-112.013013932,190,"531 SOUTH HARRIS STREET, HELENA, MT, 59601","Match","Exact","531 S HARRIS ST, HELENA, MT, 59601",202350623,"L"
239691,"531 SOUTH LAKE SHORE DRIVE","LAKE GENEVA","WI",53147,42.586193951,-88.4305286269999,191,"531 SOUTH LAKE SHORE DRIVE, LAKE GENEVA, WI, 53147","Match","Non_Exact","531 LAKE SHORE DR, LAKE GENEVA, WI, 53147",639714312,"R"
239692,"531 SOUTH MCLEAN","MEMPHIS","TN",38104,35.1311961600001,-90.000702798,192,"531 SOUTH MCLEAN, MEMPHIS, TN, 38104","Match","Non_Exact","531 S MCLEAN BLVD, MEMPHIS, TN, 38104",72912445,"R"
239693,"531 SOUTH WATER STREET","MILWAUKEE","WI",53204,43.027217604,-87.906103209,193,"531 SOUTH WATER STREET, MILWAUKEE, WI, 53204","Match","Exact","531 S WATER ST, MILWAUKEE, WI, 53204",77744974,"R"
239694,"531 SUMMIT ROAD","MADISON","WI",53704,43.115909937,-89.377319144,194,"531 SUMMIT ROAD, MADISON, WI, 53704","Match","Exact","531 SUMMIT RD, MADISON, WI, 53704",49470953,"L"
239695,"531 US HWY 22 EAST PMB 156","WHITEHOUSE STATION","NJ",8889,NA,NA,195,"531 US HWY 22 EAST PMB 156, WHITEHOUSE STATION, NJ, 8889","No_Match",NA,NA,NA,NA
239696,"531 VARDAR LANE","BIRMINGHAM","AL",35210,33.520789221,-86.7096633049999,196,"531 VARDAR LANE, BIRMINGHAM, AL, 35210","Match","Exact","531 VARDAR LN, BIRMINGHAM, AL, 35210",81587644,"L"
239697,"531 VERSAILLES CIRCLE SUITE 102","MAITLAND","FL",32751,28.635115817,-81.3597526039999,197,"531 VERSAILLES CIRCLE SUITE 102, MAITLAND, FL, 32751","Match","Non_Exact","531 VERSAILLES DR, MAITLAND, FL, 32751",637433185,"L"
239698,"531 VINE ST","BETHEL","DE",19931,38.5715466890001,-75.6262351029999,198,"531 VINE ST, BETHEL, DE, 19931","Match","Exact","531 VINE ST, BETHEL, DE, 19931",106134251,"L"
239699,"531 W 206TH STREET S","MOUNDS","OK",74047,NA,NA,199,"531 W 206TH STREET S, MOUNDS, OK, 74047","No_Match",NA,NA,NA,NA
239700,"531 W 49TH PL","LOS ANGELES","CA",90037,33.998010837,-118.28340908,200,"531 W 49TH PL, LOS ANGELES, CA, 90037","Match","Exact","531 W 49TH PL, LOS ANGELES, CA, 90037",141607896,"R"
239701,"531 W COLLEGE AVE","JONESBORO","AR",72401,35.8260187880001,-90.709648763,201,"531 W COLLEGE AVE, JONESBORO, AR, 72401","Match","Exact","531 W COLLEGE AVE, JONESBORO, AR, 72401",46909856,"L"
239702,"531 WASHINGTON AVENUE","RAVENNA","OH",44266,41.164010627,-81.234602366,202,"531 WASHINGTON AVENUE, RAVENNA, OH, 44266","Match","Exact","531 WASHINGTON AVE, RAVENNA, OH, 44266",208687710,"L"
239703,"531 WAYSIDE ROAD","PORTOLA VALLEY","CA",94028,37.3808971500001,-122.241426654,203,"531 WAYSIDE ROAD, PORTOLA VALLEY, CA, 94028","Match","Exact","531 WAYSIDE RD, PORTOLA VALLEY, CA, 94028",644167819,"L"
239704,"531 WHITE AVE","NORTHVALE","NJ",7647,41.0118702390001,-73.962835763,204,"531 WHITE AVE, NORTHVALE, NJ, 7647","Match","Exact","531 WHITE AVE, NORTHVALE, NJ, 07647",64369890,"L"
239705,"531 WINDY ACRES DR","COLUMBIA FALLS","MT",59912,48.3263357280001,-114.160132796,205,"531 WINDY ACRES DR, COLUMBIA FALLS, MT, 59912","Match","Non_Exact","531 WINDACRES DR, COLUMBIA FALLS, MT, 59912",204089976,"R"
239706,"531 WOODSONG WAY APT 303","SMYRNA","GA",30082,33.881729524,-84.539125325,206,"531 WOODSONG WAY APT 303, SMYRNA, GA, 30082","Match","Exact","531 WOODSONG WAY, SMYRNA, GA, 30082",17251814,"L"
239707,"531 WRANGLER RD","WESTCLIFFE","CO",81252,38.255550294,-105.54240173,207,"531 WRANGLER RD, WESTCLIFFE, CO, 81252","Match","Exact","531 WRANGLER RD, WESTCLIFFE, CO, 81252",237582237,"L"
239708,"531","MOORESVILLE","NC",28117,NA,NA,208,"531, MOORESVILLE, NC, 28117","No_Match",NA,NA,NA,NA
239709,"5310 236TH AVE NE","REDMOND","WA",98053,47.6553117180001,-122.024540525,209,"5310 236TH AVE NE, REDMOND, WA, 98053","Match","Exact","5310 236TH AVE NE, REDMOND, WA, 98053",627139757,"R"
239710,"5310 ABITARE BLVD","VOORHEES","NJ",8043,39.8536050180001,-74.998867504,210,"5310 ABITARE BLVD, VOORHEES, NJ, 8043","Match","Exact","5310 ABITARE BLVD, VOORHEES, NJ, 08043",651392715,"L"
239711,"5310 BENNIE BARNES ROAD","LITTLE ROCK","AR",72206,34.631402818,-92.225635263,211,"5310 BENNIE BARNES ROAD, LITTLE ROCK, AR, 72206","Match","Exact","5310 BENNIE BARNES RD, LITTLE ROCK, AR, 72206",645724531,"L"
239712,"5310 BRIARCLIFF LANE","FULSHEAR","TX",77441,29.7094143950001,-95.858025579,212,"5310 BRIARCLIFF LANE, FULSHEAR, TX, 77441","Match","Exact","5310 BRIARCLIFF LN, FULSHEAR, TX, 77441",642961604,"L"
239713,"5310 CANYON CREST DRIVE UNIT 51","RIVERSIDE","CA",92507,33.957424605,-117.329899407,213,"5310 CANYON CREST DRIVE UNIT 51, RIVERSIDE, CA, 92507","Match","Exact","5310 CANYON CREST DR, RIVERSIDE, CA, 92507",195085592,"L"
239714,"5310 CARLETON COURT F","CHARLESTON","WV",25313,38.4337907120001,-81.77235065,214,"5310 CARLETON COURT F, CHARLESTON, WV, 25313","Match","Exact","5310 CARLETON CT, CHARLESTON, WV, 25313",78704457,"R"
239715,"5310 CROSSWIND DRIVE","RICHTON PARK","IL",60471,41.4729774470001,-87.7475546109999,215,"5310 CROSSWIND DRIVE, RICHTON PARK, IL, 60471","Match","Non_Exact","5310 CROSSWIND, RICHTON PARK, IL, 60471",614123183,"R"
239716,"5310 DANBURY FOREST DRIVE","SPRINGFIELD","VA",22151,38.805565314,-77.23469806,216,"5310 DANBURY FOREST DRIVE, SPRINGFIELD, VA, 22151","Match","Exact","5310 DANBURY FOREST DR, SPRINGFIELD, VA, 22151",642598034,"L"
239717,"5310 EAST OREM","HOUSTON","TX",77048,29.6259009400001,-95.343593334,217,"5310 EAST OREM, HOUSTON, TX, 77048","Match","Non_Exact","5310 E OREM DR, HOUSTON, TX, 77048",96090733,"R"
239718,"5310 EL PASO DR","EL PASO","TX",79905,31.770619249,-106.427201957,218,"5310 EL PASO DR, EL PASO, TX, 79905","Match","Exact","5310 EL PASO DR, EL PASO, TX, 79905",189344951,"R"
239719,"5310 FREDRICKSBURG AVENUE","JACKSONVILLE","FL",32208,30.4001058370001,-81.729422961,219,"5310 FREDRICKSBURG AVENUE, JACKSONVILLE, FL, 32208","Match","Non_Exact","5310 FREDERICKSBURG AVE, JACKSONVILLE, FL, 32208",83887657,"L"
239720,"5310 GALLEON CROSSING","DECATUR","GA",30035,33.716283237,-84.203511812,220,"5310 GALLEON CROSSING, DECATUR, GA, 30035","Match","Exact","5310 GALLEON CROSSING, DECATUR, GA, 30035",619385838,"L"
239721,"5310 GODFREY ROAD SUITE 35","GODFREY","IL",62035,38.942696009,-90.190904925,221,"5310 GODFREY ROAD SUITE 35, GODFREY, IL, 62035","Match","Exact","5310 GODFREY RD, GODFREY, IL, 62035",107677441,"L"
239722,"5310 HARVEST HILL RD STE 277","DALLAS","TX",75230,NA,NA,222,"5310 HARVEST HILL RD STE 277, DALLAS, TX, 75230","No_Match",NA,NA,NA,NA
239723,"5310 HAZELWOOD AVENUE","BALTIMORE","MD",21206,39.341862286,-76.5173408639999,223,"5310 HAZELWOOD AVENUE, BALTIMORE, MD, 21206","Match","Exact","5310 HAZELWOOD AVE, BALTIMORE, MD, 21206",191478457,"L"
239724,"5310 LATHROP AVENUE","MOUNT PLEASANT","WI",53403,42.669199905,-87.826072074,224,"5310 LATHROP AVENUE, MOUNT PLEASANT, WI, 53403","Match","Exact","5310 LATHROP AVE, MOUNT PLEASANT, WI, 53403",77916716,"R"
239725,"5310 MARKET STREET","PHILADELPHIA","PA",19139,39.9602922610001,-75.227313075,225,"5310 MARKET STREET, PHILADELPHIA, PA, 19139","Match","Exact","5310 MARKET ST, PHILADELPHIA, PA, 19139",131399193,"L"
239726,"5310 MARYLAND WAY","BRENTWOOD","TN",37027,36.0364599280001,-86.8110604359999,226,"5310 MARYLAND WAY, BRENTWOOD, TN, 37027","Match","Exact","5310 MARYLAND WAY, BRENTWOOD, TN, 37027",73116146,"L"
239727,"5310 MERCHANDISE DRIVE","FORT WAYNE","IN",46825,41.1261761000001,-85.153135692,227,"5310 MERCHANDISE DRIVE, FORT WAYNE, IN, 46825","Match","Exact","5310 MERCHANDISE DR, FORT WAYNE, IN, 46825",6376484,"R"
239728,"5310 N 33RD STREET","PHOENIX","AZ",85018,NA,NA,228,"5310 N 33RD STREET, PHOENIX, AZ, 85018","Tie",NA,NA,NA,NA
239729,"5310 N 43RD ST","TACOMA","WA",98407,47.287981888,-122.508013841,229,"5310 N 43RD ST, TACOMA, WA, 98407","Match","Exact","5310 N 43RD ST, TACOMA, WA, 98407",184643752,"L"
239730,"5310 N HARLEM AVE SUITE 210","CHICAGO","IL",60646,NA,NA,230,"5310 N HARLEM AVE SUITE 210, CHICAGO, IL, 60646","No_Match",NA,NA,NA,NA
239731,"5310 N STARNES RD","BLOOMINGTON","IN",47404,39.228084606,-86.658861685,231,"5310 N STARNES RD, BLOOMINGTON, IN, 47404","Match","Exact","5310 N STARNES RD, BLOOMINGTON, IN, 47404",42319167,"R"
239732,"5310 PENDLETON ROAD","LOUISVILLE","KY",40272,38.049596792,-85.86542186,232,"5310 PENDLETON ROAD, LOUISVILLE, KY, 40272","Match","Exact","5310 PENDLETON RD, LOUISVILLE, KY, 40272",96974796,"R"
239733,"5310 PINETREE DRIVE","MIAMI BEACH","FL",33140,25.830539892,-80.1244529969999,233,"5310 PINETREE DRIVE, MIAMI BEACH, FL, 33140","Match","Non_Exact","5310 PINE TREE DR, MIAMI BEACH, FL, 33140",116009423,"L"
239734,"5310 SHAWANO TERRACE","MADISON","WI",53705,43.062369759,-89.469401504,234,"5310 SHAWANO TERRACE, MADISON, WI, 53705","Match","Exact","5310 SHAWANO TER, MADISON, WI, 53705",49467208,"R"
239735,"5310 STORMY SUNSET","SAN ANTONIO","TX",78247,29.586179373,-98.3857909559999,235,"5310 STORMY SUNSET, SAN ANTONIO, TX, 78247","Match","Exact","5310 STORMY SUNSET, SAN ANTONIO, TX, 78247",101704553,"R"
239736,"5310 TILDEN AVENUE","BROOKLYN","NY",11203,40.648366061,-73.926927884,236,"5310 TILDEN AVENUE, BROOKLYN, NY, 11203","Match","Exact","5310 TILDEN AVE, BROOKLYN, NY, 11203",59085831,"R"
239737,"5310 TIMBERWYCK TRAIL","INTERLOCHEN","MI",49684,44.608982283,-85.766034839,237,"5310 TIMBERWYCK TRAIL, INTERLOCHEN, MI, 49684","Match","Non_Exact","5310 TIMBERWYCK TRL, INTERLOCHEN, MI, 49643",644028724,"L"
239738,"5310 TULLIS DR","NEW ORLEANS","LA",70131,29.900967425,-89.999604141,238,"5310 TULLIS DR, NEW ORLEANS, LA, 70131","Match","Exact","5310 TULLIS DR, NEW ORLEANS, LA, 70131",191757228,"L"
239739,"5310 W PARKER","CHICAGO","IL",60639,41.9304631410001,-87.759254241,239,"5310 W PARKER, CHICAGO, IL, 60639","Match","Non_Exact","5310 W PARKER AVE, CHICAGO, IL, 60639",111753457,"R"
239740,"5310 WATERTON LAKES DRVIE","INDIANAPOLIS","IN",46237,39.690751279,-86.058298773,240,"5310 WATERTON LAKES DRVIE, INDIANAPOLIS, IN, 46237","Match","Non_Exact","5310 WATERTON LAKES DR, INDIANAPOLIS, IN, 46237",108040137,"R"
239741,"5310 WILLOW LAKE CT","DISCOVERY BAY","CA",94505,37.9115751250001,-121.596576402,241,"5310 WILLOW LAKE CT, DISCOVERY BAY, CA, 94505","Match","Exact","5310 WILLOW LAKE CT, DISCOVERY BAY, CA, 94505",192033381,"L"
239742,"5310C BIRDS VIEW LN","ALEXANDRIA","VA",22312,38.806581753,-77.151590734,242,"5310C BIRDS VIEW LN, ALEXANDRIA, VA, 22312","Match","Exact","5310 BIRDS VIEW LN, ALEXANDRIA, VA, 22312",76044154,"L"
239743,"5311 ARROWSHIRE DRIVE","LA GRANGE","KY",40031,38.3920833500001,-85.454288526,243,"5311 ARROWSHIRE DRIVE, LA GRANGE, KY, 40031","Match","Exact","5311 ARROWSHIRE DR, LA GRANGE, KY, 40031",130914447,"L"
239744,"5311 BAYVIEW DRIVE","FORT LAUDERDALE","FL",33308,26.192603589,-80.1069524489999,244,"5311 BAYVIEW DRIVE, FORT LAUDERDALE, FL, 33308","Match","Exact","5311 BAYVIEW DR, FORT LAUDERDALE, FL, 33308",114724154,"L"
239745,"5311 BRIGHTON PARK LN","JACKSONVILLE","FL",32210,30.249293408,-81.820876695,245,"5311 BRIGHTON PARK LN, JACKSONVILLE, FL, 32210","Match","Exact","5311 BRIGHTON PARK LN, JACKSONVILLE, FL, 32210",627659404,"R"
239746,"5311 CASEY WAY","INDIANAPOLIS","IN",46221,39.6694228700001,-86.2514684179999,246,"5311 CASEY WAY, INDIANAPOLIS, IN, 46221","Match","Exact","5311 CASEY WAY, INDIANAPOLIS, IN, 46221",640863738,"L"
239747,"5311 CHADWELL RD","NORWOOD","MO",65717,37.1141270300001,-92.462746984,247,"5311 CHADWELL RD, NORWOOD, MO, 65717","Match","Exact","5311 CHADWELL RD, NORWOOD, MO, 65717",629966613,"R"
239748,"5311 CLOVER MOSS STREET","BAKERSFIELD","CA",93313,35.306999004,-119.083478593,248,"5311 CLOVER MOSS STREET, BAKERSFIELD, CA, 93313","Match","Exact","5311 CLOVER MOSS ST, BAKERSFIELD, CA, 93313",109139110,"R"
239749,"5311 DEL MONTE CT","CAPE CORAL","FL",33904,26.547779232,-81.9592263769999,249,"5311 DEL MONTE CT, CAPE CORAL, FL, 33904","Match","Exact","5311 DEL MONTE CT, CAPE CORAL, FL, 33904",118170022,"L"
239750,"5311 DUNLEIGH DRIVE","BURKE","VA",22015,38.8067953660001,-77.262573004,250,"5311 DUNLEIGH DRIVE, BURKE, VA, 22015","Match","Exact","5311 DUNLEIGH DR, BURKE, VA, 22015",76057832,"L"
239751,"5311 E 102ND ST","TULSA","OK",74137,36.015908263,-95.91698472,251,"5311 E 102ND ST, TULSA, OK, 74137","Match","Exact","5311 E 102ND ST, TULSA, OK, 74137",166472021,"R"
239752,"5311 E KINKAID","WICHITA","KS",67218,NA,NA,252,"5311 E KINKAID, WICHITA, KS, 67218","No_Match",NA,NA,NA,NA
239753,"5311 ENGLISH DRIVE","LAKELAND","FL",33813,27.9691552520001,-81.8975176179999,253,"5311 ENGLISH DRIVE, LAKELAND, FL, 33813","Match","Non_Exact","5311 ENGLISH DR, LAKELAND, FL, 33812",104927131,"R"
239754,"5311 FERN AVE","GRAND BLANC","MI",48439,42.9503953890001,-83.6636889179999,254,"5311 FERN AVE, GRAND BLANC, MI, 48439","Match","Exact","5311 FERN AVE, GRAND BLANC, MI, 48439",69576440,"L"
239755,"5311 FLORENCE AVE PO BOX 23553","PHILADELPHIA","PA",19143,39.943782571,-75.2256004609999,255,"5311 FLORENCE AVE PO BOX 23553, PHILADELPHIA, PA, 19143","Match","Exact","5311 FLORENCE AVE, PHILADELPHIA, PA, 19143",131399517,"R"
239756,"5311 MAGGIORE STREET","CORAL GABLES","FL",33146,25.721259635,-80.2637472709999,256,"5311 MAGGIORE STREET, CORAL GABLES, FL, 33146","Match","Exact","5311 MAGGIORE ST, CORAL GABLES, FL, 33146",116013835,"L"
239757,"5311 MARIGOLD DRIVE","CASTALIA","OH",44824,41.3749845780001,-82.816651687,257,"5311 MARIGOLD DRIVE, CASTALIA, OH, 44824","Match","Exact","5311 MARIGOLD DR, CASTALIA, OH, 44824",55332947,"R"
239758,"5311 MCDOWELL STREET","NORTON SHORES","MI",49441,43.1564743690001,-86.277550764,258,"5311 MCDOWELL STREET, NORTON SHORES, MI, 49441","Match","Exact","5311 MCDOWELL ST, NORTON SHORES, MI, 49441",77652918,"R"
239759,"5311 MERLIN","SAN ANTONIO","TX",78218,29.5003800750001,-98.387643509,259,"5311 MERLIN, SAN ANTONIO, TX, 78218","Match","Non_Exact","5311 MERLIN DR, SAN ANTONIO, TX, 78218",101542479,"L"
239760,"5311 N SILVER RD","OLNEY","IL",62450,38.7646335590001,-88.0787769409999,260,"5311 N SILVER RD, OLNEY, IL, 62450","Match","Exact","5311 N SILVER RD, OLNEY, IL, 62450",29950654,"L"
239761,"5311 NE 15TH AVE","PORTLAND","OR",97211,45.561709126,-122.649698966,261,"5311 NE 15TH AVE, PORTLAND, OR, 97211","Match","Exact","5311 NE 15TH AVE, PORTLAND, OR, 97211",157505611,"L"
239762,"5311 NORTHFIELD ROAD SUITE 309","BEDFORD HTS","OH",44146,41.411354359,-81.527327252,262,"5311 NORTHFIELD ROAD SUITE 309, BEDFORD HTS, OH, 44146","Match","Exact","5311 NORTHFIELD RD, BEDFORD HEIGHTS, OH, 44146",613728958,"L"
239763,"5311 PROVIDENCE DRIVE","MATTESON","IL",60443,41.518027031,-87.745448301,263,"5311 PROVIDENCE DRIVE, MATTESON, IL, 60443","Match","Exact","5311 PROVIDENCE DR, MATTESON, IL, 60443",112387246,"L"
239764,"5311 RAINBOW RIDGE COURT","ROCKFORD","MI",49341,43.112761983,-85.5390324689999,264,"5311 RAINBOW RIDGE COURT, ROCKFORD, MI, 49341","Match","Non_Exact","5311 RAINBOW RIDGE CT NE, ROCKFORD, MI, 49341",12524505,"L"
239765,"5311 RIVIERA CT","COLLEGE STATION","TX",77845,30.5547804180001,-96.232734196,265,"5311 RIVIERA CT, COLLEGE STATION, TX, 77845","Match","Exact","5311 RIVIERA CT, COLLEGE STATION, TX, 77845",627304532,"L"
239766,"5311 S  HOLT AVE","LOS ANGELES","CA",90056,33.993876062,-118.372940955,266,"5311 S  HOLT AVE, LOS ANGELES, CA, 90056","Match","Exact","5311 S HOLT AVE, LOS ANGELES, CA, 90056",142444760,"R"
239767,"5311 SAN PABLO GARDENS DR","HOUSTON","TX",77045,29.6436961150001,-95.461747222,267,"5311 SAN PABLO GARDENS DR, HOUSTON, TX, 77045","Match","Exact","5311 SAN PABLO GARDENS DR, HOUSTON, TX, 77045",233356746,"R"
239768,"5311 TATTERSHALL AVENUE","WESTMINSTER","CA",92683,33.7582448570001,-118.037151329,268,"5311 TATTERSHALL AVENUE, WESTMINSTER, CA, 92683","Match","Exact","5311 TATTERSHALL AVE, WESTMINSTER, CA, 92683",144003884,"L"
239769,"5311 TEAL WAY","BAYTOWN","TX",77523,29.810442632,-94.841721553,269,"5311 TEAL WAY, BAYTOWN, TX, 77523","Match","Exact","5311 TEAL WAY, BAYTOWN, TX, 77523",627348814,"R"
239770,"5311 W MADISON STREET","CHICAGO","IL",60644,41.880327418,-87.7581721129999,270,"5311 W MADISON STREET, CHICAGO, IL, 60644","Match","Exact","5311 W MADISON ST, CHICAGO, IL, 60644",111754887,"L"
239771,"53113 TROPICAL STREET","LAKE ELSINORE","CA",92532,33.7082583500001,-117.300832595,271,"53113 TROPICAL STREET, LAKE ELSINORE, CA, 92532","Match","Exact","53113 TROPICAL ST, LAKE ELSINORE, CA, 92532",633956204,"R"
239772,"5312 12TH AVENUE SOUTH","MINNEAPOLIS","MN",55417,44.906737822,-93.2575640859999,272,"5312 12TH AVENUE SOUTH, MINNEAPOLIS, MN, 55417","Match","Exact","5312 12TH AVE S, MINNEAPOLIS, MN, 55417",43635048,"R"
239773,"5312 2 STREET NW","WASHINGTON","DC",20011,38.954688882,-77.013583368,273,"5312 2 STREET NW, WASHINGTON, DC, 20011","Match","Exact","5312 2ND ST NW, WASHINGTON, DC, 20011",76223782,"L"
239774,"5312 DORCHESTER RD","GREENSBORO","NC",27407,36.012579348,-79.882219504,274,"5312 DORCHESTER RD, GREENSBORO, NC, 27407","Match","Exact","5312 DORCHESTER RD, GREENSBORO, NC, 27407",131043867,"R"
239775,"5312 FREDELIA DRIVE","TOLEDO","OH",43623,41.711902792,-83.648318154,275,"5312 FREDELIA DRIVE, TOLEDO, OH, 43623","Match","Exact","5312 FREDELIA DR, TOLEDO, OH, 43623",33952569,"R"
239776,"5312 GERMANTOWN AVENUE","PHILADELPHIA","PA",19144,40.032205693,-75.169015902,276,"5312 GERMANTOWN AVENUE, PHILADELPHIA, PA, 19144","Match","Exact","5312 GERMANTOWN AVE, PHILADELPHIA, PA, 19144",639164075,"L"
239777,"5312 GLENWICK LN","DALLAS","TX",75209,32.847226178,-96.820840511,277,"5312 GLENWICK LN, DALLAS, TX, 75209","Match","Exact","5312 GLENWICK LN, DALLAS, TX, 75209",103201861,"R"
239778,"5312 LANFORD SPRINGS COURT SW","LILBURN","GA",30047,33.8565273740001,-84.136872082,278,"5312 LANFORD SPRINGS COURT SW, LILBURN, GA, 30047","Match","Exact","5312 LANFORD SPRINGS CT SW, LILBURN, GA, 30047",88894242,"L"
239779,"5312 LONG RD","ORLANDO","FL",32808,28.609955697,-81.434682451,279,"5312 LONG RD, ORLANDO, FL, 32808","Match","Exact","5312 LONG RD, ORLANDO, FL, 32808",94303928,"L"
239780,"5312 LOTTIE LANE","EL PASO","TX",79932,31.8528236110001,-106.617248267,280,"5312 LOTTIE LANE, EL PASO, TX, 79932","Match","Exact","5312 LOTTIE LN, EL PASO, TX, 79932",189379777,"L"
239781,"5312 MCBETH COURT","TAMPA","FL",33624,28.0647561480001,-82.534231787,281,"5312 MCBETH COURT, TAMPA, FL, 33624","Match","Non_Exact","5312 MACBETH CT, TAMPA, FL, 33624",104699784,"R"
239782,"5312 N WINTHROP AVE NO 1S","CHICAGO","IL",60640,NA,NA,282,"5312 N WINTHROP AVE NO 1S, CHICAGO, IL, 60640","No_Match",NA,NA,NA,NA
239783,"5312 OAK GLADE LANE","KNOXVILLE","TN",37918,36.0650480690001,-83.894739559,283,"5312 OAK GLADE LANE, KNOXVILLE, TN, 37918","Match","Exact","5312 OAK GLADE LN, KNOXVILLE, TN, 37918",42655864,"L"
239784,"5312 OAK GLADE LN","KNOXVILLE","TN",37918,36.0650480690001,-83.894739559,284,"5312 OAK GLADE LN, KNOXVILLE, TN, 37918","Match","Exact","5312 OAK GLADE LN, KNOXVILLE, TN, 37918",42655864,"L"
239785,"5312 OHIO STREET","SOUTH CHARLESTON","WV",25309,38.3522606990001,-81.740817232,285,"5312 OHIO STREET, SOUTH CHARLESTON, WV, 25309","Match","Exact","5312 OHIO ST, S CHARLESTON, WV, 25309",78586736,"R"
239786,"5312 OLVERA AVE","SAN DIEGO","CA",92114,32.6983961120001,-117.080279993,286,"5312 OLVERA AVE, SAN DIEGO, CA, 92114","Match","Exact","5312 OLVERA AVE, SAN DIEGO, CA, 92114",195352223,"L"
239787,"5312 SIESTA COURT","SARASOTA","FL",34242,27.27308829,-82.545696886,287,"5312 SIESTA COURT, SARASOTA, FL, 34242","Match","Exact","5312 SIESTA CT, SARASOTA, FL, 34242",16348990,"L"
239788,"5312 SIX FORKS RD STE 301","RALEIGH","NC",27609,35.854594687,-78.6421266249999,288,"5312 SIX FORKS RD STE 301, RALEIGH, NC, 27609","Match","Exact","5312 SIX FORKS RD, RALEIGH, NC, 27609",72505526,"R"
239789,"5312 SWINDLE ROAD","WHITES CREEK","TN",37189,36.301067914,-86.855026531,289,"5312 SWINDLE ROAD, WHITES CREEK, TN, 37189","Match","Exact","5312 SWINDLE RD, WHITES CREEK, TN, 37189",97212816,"R"
239790,"5312 TRAMORE ROAD","BALTIMORE","MD",21214,39.3538312470001,-76.5679017269999,290,"5312 TRAMORE ROAD, BALTIMORE, MD, 21214","Match","Exact","5312 TRAMORE RD, BALTIMORE, MD, 21214",206433101,"L"
239791,"5312 UNAKA AVE","CHARLOTTE","NC",28205,35.1945186510001,-80.770489622,291,"5312 UNAKA AVE, CHARLOTTE, NC, 28205","Match","Exact","5312 UNAKA AVE, CHARLOTTE, NC, 28205",70491946,"R"
239792,"531293","CINCINNATI","OH",45253,NA,NA,292,"531293, CINCINNATI, OH, 45253","No_Match",NA,NA,NA,NA
239793,"5313 BASS PLACE SE","WASHINGTON","DC",20020,38.8853228130001,-76.925587768,293,"5313 BASS PLACE SE, WASHINGTON, DC, 20020","Match","Non_Exact","5313 BASS PL SE, WASHINGTON, DC, 20019",76234243,"R"
239794,"5313 BAY LAGOON CIR","ORLANDO","FL",32819,28.4870646970001,-81.484499568,294,"5313 BAY LAGOON CIR, ORLANDO, FL, 32819","Match","Exact","5313 BAY LAGOON CIR, ORLANDO, FL, 32819",94333398,"L"
239795,"5313 CIRCITA DEL SUR","SANTA FE","NM",87507,35.640740415,-106.028273745,295,"5313 CIRCITA DEL SUR, SANTA FE, NM, 87507","Match","Exact","5313 CIRCITA DEL SUR, SANTA FE, NM, 87507",624884854,"R"
239796,"5313 CO RD 14","FLAT ROCK","AL",35966,34.857125781,-85.727897142,296,"5313 CO RD 14, FLAT ROCK, AL, 35966","Match","Exact","5313 CO RD 14, FLAT ROCK, AL, 35966",58032316,"R"
239797,"5313 COMMONS CT","VIRGINIA BEACH","VA",23462,36.8358909310001,-76.1684066129999,297,"5313 COMMONS CT, VIRGINIA BEACH, VA, 23462","Match","Exact","5313 COMMONS CT, VA BCH, VA, 23462",122262954,"L"
239798,"5313 COUNTY ROAD 7560","LUBBOCK","TX",79424,33.450491675,-101.925856714,298,"5313 COUNTY ROAD 7560, LUBBOCK, TX, 79424","Match","Exact","5313 CO RD 7560, LUBBOCK, TX, 79424",185331084,"R"
239799,"5313 DIVIDEND DR","DECATUR","GA",30035,33.71643735,-84.17119259,299,"5313 DIVIDEND DR, DECATUR, GA, 30035","Match","Exact","5313 DIVIDEND DR, DECATUR, GA, 30035",23375057,"L"
239800,"5313 DOVER RD","APPLE CREEK","OH",44606,40.756741705,-81.8699114889999,300,"5313 DOVER RD, APPLE CREEK, OH, 44606","Match","Exact","5313 DOVER RD, APPLE CREEK, OH, 44606",58761074,"L"
239801,"5313 MACCHONANCHY STREET","VIRGINIA BEACH","VA",23464,36.7811615430001,-76.170103807,301,"5313 MACCHONANCHY STREET, VIRGINIA BEACH, VA, 23464","Match","Exact","5313 MACCHONANCHY ST, VA BCH, VA, 23464",122301056,"R"
239802,"5313 MARSHBURN AVE","ARCADIA","CA",91006,34.101559079,-118.023905901,302,"5313 MARSHBURN AVE, ARCADIA, CA, 91006","Match","Exact","5313 MARSHBURN AVE, ARCADIA, CA, 91006",241241566,"L"
239803,"5313 PAGEWOOD LANE","HOUSTON","TX",77056,29.7276734500001,-95.46866575,303,"5313 PAGEWOOD LANE, HOUSTON, TX, 77056","Match","Exact","5313 PAGEWOOD LN, HOUSTON, TX, 77056",96033290,"L"
239804,"5313 PLATA ROSA COURT","CAMARILLO","CA",93012,34.239222146,-118.998958689,304,"5313 PLATA ROSA COURT, CAMARILLO, CA, 93012","Match","Exact","5313 PLATA ROSA CT, CAMARILLO, CA, 93012",110053055,"R"
239805,"5313 REFLECTIONS BLVD","LUTZ","FL",33558,28.1617875250001,-82.528555475,305,"5313 REFLECTIONS BLVD, LUTZ, FL, 33558","Match","Exact","5313 REFLECTIONS BLVD, LUTZ, FL, 33558",649951008,"L"
239806,"5313 S MYRTLE LN","SPOKANE","WA",99223,47.605736022,-117.35156074,306,"5313 S MYRTLE LN, SPOKANE, WA, 99223","Match","Exact","5313 S MYRTLE LN, SPOKANE, WA, 99223",633828940,"L"
239807,"5313 S SAWYER AVE","CHICAGO","IL",60632,41.79681465,-87.7048653589999,307,"5313 S SAWYER AVE, CHICAGO, IL, 60632","Match","Exact","5313 S SAWYER AVE, CHICAGO, IL, 60632",111804362,"L"
239808,"5313 SPRING ARBOR ROAD","JACKSON","MI",49201,42.2256605370001,-84.4903161249999,308,"5313 SPRING ARBOR ROAD, JACKSON, MI, 49201","Match","Exact","5313 SPRING ARBOR RD, JACKSON, MI, 49201",17614514,"L"
239809,"5313 W MURIEL DR","GLENDALE","AZ",85308,33.6453864420001,-112.173580753,309,"5313 W MURIEL DR, GLENDALE, AZ, 85308","Match","Exact","5313 W MURIEL DR, GLENDALE, AZ, 85308",128417581,"R"
239810,"5313 W PINE AVE","FRESNO","CA",93722,36.761217441,-119.885701928,310,"5313 W PINE AVE, FRESNO, CA, 93722","Match","Exact","5313 W PINE AVE, FRESNO, CA, 93722",619127282,"R"
239811,"5313 WALZEM ROAD SUITE A","SAN ANTONIO","TX",78218,29.5102956960001,-98.384517855,311,"5313 WALZEM ROAD SUITE A, SAN ANTONIO, TX, 78218","Match","Exact","5313 WALZEM RD, SAN ANTONIO, TX, 78218",101502394,"L"
239812,"5313 WAYNE ST APT A","RALEIGH","NC",27606,35.759971208,-78.725403032,312,"5313 WAYNE ST APT A, RALEIGH, NC, 27606","Match","Exact","5313 WAYNE ST, RALEIGH, NC, 27606",208360863,"L"
239813,"53130 GRASSY KNOLL DR","SOUTH BEND","IN",46628,41.7208511750001,-86.365696025,313,"53130 GRASSY KNOLL DR, SOUTH BEND, IN, 46628","Match","Exact","53130 GRASSY KNOLL DR, SOUTH BEND, IN, 46628",616551181,"L"
239814,"5314 16 AVENUE 298","BROOKLYN","NY",11204,40.628708488,-73.9879435779999,314,"5314 16 AVENUE 298, BROOKLYN, NY, 11204","Match","Exact","5314 16TH AVE, BROOKLYN, NY, 11204",59080335,"R"
239815,"5314 16TH AVE STE 206","BROOKLYN","NY",11204,40.628708488,-73.9879435779999,315,"5314 16TH AVE STE 206, BROOKLYN, NY, 11204","Match","Exact","5314 16TH AVE, BROOKLYN, NY, 11204",59080335,"R"
239816,"5314 16TH AVE STE 280","BROOKLYN","NY",11204,40.628708488,-73.9879435779999,316,"5314 16TH AVE STE 280, BROOKLYN, NY, 11204","Match","Exact","5314 16TH AVE, BROOKLYN, NY, 11204",59080335,"R"
239817,"5314 BOAZ ST","DALLAS","TX",75209,32.8492723800001,-96.820782605,317,"5314 BOAZ ST, DALLAS, TX, 75209","Match","Exact","5314 BOAZ ST, DALLAS, TX, 75209",103182734,"R"
239818,"5314 CLIPPER COVER","MIDLOTHIAN","VA",23112,NA,NA,318,"5314 CLIPPER COVER, MIDLOTHIAN, VA, 23112","No_Match",NA,NA,NA,NA
239819,"5314 COSMIC WAY","FAIRVIEW","PA",16415,42.043300695,-80.184053884,319,"5314 COSMIC WAY, FAIRVIEW, PA, 16415","Match","Exact","5314 COSMIC WAY, FAIRVIEW, PA, 16415",617261711,"R"
239820,"5314 COUNTY ROAD 32","NORWICH","NY",13815,42.499228622,-75.514505161,320,"5314 COUNTY ROAD 32, NORWICH, NY, 13815","Match","Exact","5314 CO RD 32, NORWICH, NY, 13815",46437344,"R"
239821,"5314 E HAMLIN PLACE","YUMA","AZ",85365,32.6399303920001,-114.542788434,321,"5314 E HAMLIN PLACE, YUMA, AZ, 85365","Match","Exact","5314 E HAMLIN PL, YUMA, AZ, 85365",631101964,"L"
239822,"5314 FLORADALE DRIVE","CROSS LANES","WV",25313,38.4356231950001,-81.7819202169999,322,"5314 FLORADALE DRIVE, CROSS LANES, WV, 25313","Match","Exact","5314 FLORADALE DR, CROSS LANES, WV, 25313",78617171,"R"
239823,"5314 GILLESPIE AVENUE","RICHMOND","SC",23228,NA,NA,323,"5314 GILLESPIE AVENUE, RICHMOND, SC, 23228","No_Match",NA,NA,NA,NA
239824,"5314 GLASCOW CT","LOS ANGELES","CA",90045,33.97132012,-118.372613733,324,"5314 GLASCOW CT, LOS ANGELES, CA, 90045","Match","Non_Exact","5314 GLASGOW CT, LOS ANGELES, CA, 90045",141653588,"L"
239825,"5314 GLEN OAKS WAY","WEST DES MOINES","IA",50266,41.556808468,-93.7792578299999,325,"5314 GLEN OAKS WAY, WEST DES MOINES, IA, 50266","Match","Exact","5314 GLEN OAKS WAY, WEST DES MOINES, IA, 50266",65852338,"L"
239826,"5314 GODBEY DRIVE","LA CANADA","CA",91011,34.2136745560001,-118.186484746,326,"5314 GODBEY DRIVE, LA CANADA, CA, 91011","Match","Exact","5314 GODBEY DR, LA CANADA, CA, 91011",650223689,"R"
239827,"5314 HIL MAR DR","DISTRICT HEIGHTS","MD",20747,38.8439759730001,-76.9100893409999,327,"5314 HIL MAR DR, DISTRICT HEIGHTS, MD, 20747","Match","Exact","5314 HIL MAR DR, DISTRICT HEIGHTS, MD, 20747",76375234,"R"
239828,"5314 JAHNKE ROAD","RICHMOND","VA",23225,37.519055231,-77.4975061759999,328,"5314 JAHNKE ROAD, RICHMOND, VA, 23225","Match","Exact","5314 JAHNKE RD, RICHMOND, VA, 23225",201536697,"R"
239829,"5314 LAKEVALE TERRACE","BOWIE","MD",20720,38.963833003,-76.759019203,329,"5314 LAKEVALE TERRACE, BOWIE, MD, 20720","Match","Exact","5314 LAKEVALE TER, BOWIE, MD, 20720",76350173,"R"
239830,"5314 PENSACOLA DRIVE","GARLAND","TX",75043,32.8522835750001,-96.579893805,330,"5314 PENSACOLA DRIVE, GARLAND, TX, 75043","Match","Exact","5314 PENSACOLA DR, GARLAND, TX, 75043",102933262,"L"
239831,"5314 SHARON TRAIL","LAKELAND","FL",33810,28.1109648400001,-82.0608587789999,331,"5314 SHARON TRAIL, LAKELAND, FL, 33810","Match","Exact","5314 SHARON TRL, LAKELAND, FL, 33810",104558920,"R"
239832,"5314 TREEPOINT","SANTA FE","TX",77510,29.36845915,-95.1117338289999,332,"5314 TREEPOINT, SANTA FE, TX, 77510","Match","Non_Exact","5314 TREEPOINT LN, SANTA FE, TX, 77510",96708190,"L"
239833,"5314 WESTERN AVE","OMAHA","NE",68132,41.270535432,-95.996501236,333,"5314 WESTERN AVE, OMAHA, NE, 68132","Match","Exact","5314 WESTERN AVE, OMAHA, NE, 68132",116978491,"R"
239834,"5315 1ST AVE S","ST PETERSBURG","FL",33707,27.770056514,-82.70560477,334,"5315 1ST AVE S, ST PETERSBURG, FL, 33707","Match","Exact","5315 1ST AVE S, SAINT PETERSBURG, FL, 33707",124700302,"R"
239835,"5315 8TH STREET NW","WASHINGTON, DC","DC",20011,38.954402117,-77.023934146,335,"5315 8TH STREET NW, WASHINGTON, DC, DC, 20011","Match","Exact","5315 8TH ST NW, WASHINGTON, DC, 20011",76223301,"R"
239836,"5315 BINFORD PLACE","ATLANTA","GA",30331,33.7213868170001,-84.562886229,336,"5315 BINFORD PLACE, ATLANTA, GA, 30331","Match","Non_Exact","5315 BINFORD PL SW, ATLANTA, GA, 30331",650109241,"R"
239837,"5315 CANYON HOLLOW","HOUSTON","TX",77084,29.852595384,-95.666320538,337,"5315 CANYON HOLLOW, HOUSTON, TX, 77084","Match","Exact","5315 CANYON HOLLOW, HOUSTON, TX, 77084",635246265,"R"
239838,"5315 COLODNY DR UNIT 9","AGOURA HILLS","CA",91301,34.14538006,-118.74136023,338,"5315 COLODNY DR UNIT 9, AGOURA HILLS, CA, 91301","Match","Exact","5315 COLODNY DR, AGOURA HILLS, CA, 91301",142786295,"R"
239839,"5315 EAST 21ST STREET NORTH STE 13","WICHITA","KS",67208,37.7229561940001,-97.274324441,339,"5315 EAST 21ST STREET NORTH STE 13, WICHITA, KS, 67208","Match","Exact","5315 E 21ST ST N, WICHITA, KS, 67208",115639115,"R"
239840,"5315 EASTKNOLL CT","CINCINNATI","OH",45239,NA,NA,340,"5315 EASTKNOLL CT, CINCINNATI, OH, 45239","No_Match",NA,NA,NA,NA
239841,"5315 EDDS LANE","CROSS LANES","WV",25313,38.4357966760001,-81.77683096,341,"5315 EDDS LANE, CROSS LANES, WV, 25313","Match","Exact","5315 EDDS LN, CROSS LANES, WV, 25313",78670396,"L"
239842,"5315 FLORIDA AVE S","LAKELAND","FL",33813,NA,NA,342,"5315 FLORIDA AVE S, LAKELAND, FL, 33813","No_Match",NA,NA,NA,NA
239843,"5315 FOREST TIMBERS DRIVE","HUMBLE","TX",77346,30.004038273,-95.194933211,343,"5315 FOREST TIMBERS DRIVE, HUMBLE, TX, 77346","Match","Exact","5315 FOREST TIMBERS DR, HUMBLE, TX, 77346",96049102,"L"
239844,"5315 HARLAN DRIVE","EL PASO","TX",79924,31.8900751050001,-106.416746192,344,"5315 HARLAN DRIVE, EL PASO, TX, 79924","Match","Exact","5315 HARLAN DR, EL PASO, TX, 79924",189339458,"L"
239845,"5315 HILLCREST STREET","PITTSBURGH","PA",15224,40.468008544,-79.936836365,345,"5315 HILLCREST STREET, PITTSBURGH, PA, 15224","Match","Exact","5315 HILLCREST ST, PITTSBURGH, PA, 15224",51644297,"L"
239846,"5315 HOLSCHER ROAD","MCFARLAND","WI",53558,43.022355342,-89.276543835,346,"5315 HOLSCHER ROAD, MCFARLAND, WI, 53558","Match","Exact","5315 HOLSCHER RD, MCFARLAND, WI, 53558",49520361,"L"
239847,"5315 HUNT CLUB WAY","SARASOTA","FL",34238,27.2117166730001,-82.4618659349999,347,"5315 HUNT CLUB WAY, SARASOTA, FL, 34238","Match","Exact","5315 HUNT CLUB WAY, SARASOTA, FL, 34238",16433892,"L"
239848,"5315 HWY 45 N","CONOVER","WI",54519,NA,NA,348,"5315 HWY 45 N, CONOVER, WI, 54519","No_Match",NA,NA,NA,NA
239849,"5315 INDIGO WAY","MIDDLETON","WI",53562,43.1229171840001,-89.472091112,349,"5315 INDIGO WAY, MIDDLETON, WI, 53562","Match","Exact","5315 INDIGO WAY, MIDDLETON, WI, 53562",49556177,"R"
239850,"5315 LOUGHBOROUGH AVE","SAINT LOUIS","MO",63109,38.572784819,-90.289887569,350,"5315 LOUGHBOROUGH AVE, SAINT LOUIS, MO, 63109","Match","Exact","5315 LOUGHBOROUGH AVE, SAINT LOUIS, MO, 63109",619015732,"R"
239851,"5315 MARSH LANDING LANE","SUFFOLK","VA",23435,36.877310605,-76.443396623,351,"5315 MARSH LANDING LANE, SUFFOLK, VA, 23435","Match","Exact","5315 MARSH LANDING LN, SUFFOLK, VA, 23435",122233268,"L"
239852,"5315 MOON SHELL DRIVE","APOLLO BEACH","FL",33572,27.741943624,-82.4169137979999,352,"5315 MOON SHELL DRIVE, APOLLO BEACH, FL, 33572","Match","Exact","5315 MOON SHELL DR, APOLLO BEACH, FL, 33572",633883230,"R"
239853,"5315 MORNING SAGE WAY","SAN DIEGO","CA",92130,NA,NA,353,"5315 MORNING SAGE WAY, SAN DIEGO, CA, 92130","No_Match",NA,NA,NA,NA
239854,"5315 N CLARK ST NUM 176","CHICAGO","IL",60640,41.9785052330001,-87.6683183059999,354,"5315 N CLARK ST NUM 176, CHICAGO, IL, 60640","Match","Non_Exact","5315 N CLARK ST, CHICAGO, IL, 60640",111761223,"R"
239855,"5315 PAINTER STREET","NEW ORLEANS","LA",70122,NA,NA,355,"5315 PAINTER STREET, NEW ORLEANS, LA, 70122","No_Match",NA,NA,NA,NA
239856,"5315 PATRICIA PLACE","WEEKI WACHEE","FL",34607,28.5077514720001,-82.5970044709999,356,"5315 PATRICIA PLACE, WEEKI WACHEE, FL, 34607","Match","Exact","5315 PATRICIA PL, WEEKI WACHEE, FL, 34607",85424774,"R"
239857,"5315 PLYMOUTH CT STE 104","CHICAGO","IL",60605,NA,NA,357,"5315 PLYMOUTH CT STE 104, CHICAGO, IL, 60605","No_Match",NA,NA,NA,NA
239858,"5315 S SLAUSON AVENUE","CULVER CITY","CA",90230,NA,NA,358,"5315 S SLAUSON AVENUE, CULVER CITY, CA, 90230","Tie",NA,NA,NA,NA
239859,"5315 SE 14TH ST","DES MOINES","IA",50320,41.533224927,-93.596718364,359,"5315 SE 14TH ST, DES MOINES, IA, 50320","Match","Exact","5315 SE 14TH ST, DES MOINES, IA, 50320",65837712,"R"
239860,"5315 SILVER LEDGE DRIVE","KATY","TX",77493,29.8506221760001,-95.803619283,360,"5315 SILVER LEDGE DRIVE, KATY, TX, 77493","Match","Exact","5315 SILVER LEDGE DR, KATY, TX, 77493",652752404,"L"
239861,"5315 WOODSTEAD WAY","ORLANDO","FL",32819,28.4818561860001,-81.496787451,361,"5315 WOODSTEAD WAY, ORLANDO, FL, 32819","Match","Exact","5315 WOODSTEAD WAY, ORLANDO, FL, 32819",94324177,"L"
239862,"5315 YORKSHIRE DR","CYPREE","CA",90630,33.820964513,-118.039765371,362,"5315 YORKSHIRE DR, CYPREE, CA, 90630","Match","Non_Exact","5315 YORKSHIRE DR, CYPRESS, CA, 90630",144115649,"R"
239863,"5315-B CYPRESS CREEK PARKWAY  244","HOUSTON","TX",77069,NA,NA,363,"5315-B CYPRESS CREEK PARKWAY  244, HOUSTON, TX, 77069","No_Match",NA,NA,NA,NA
239864,"5315-B CYPRESS CREEK PKWY SUITE 158","HOUSTON","TX",77069,NA,NA,364,"5315-B CYPRESS CREEK PKWY SUITE 158, HOUSTON, TX, 77069","No_Match",NA,NA,NA,NA
239865,"5315-B CYPRESS CREEK PKWY SUITE 337","HOUSTON","TX",77069,NA,NA,365,"5315-B CYPRESS CREEK PKWY SUITE 337, HOUSTON, TX, 77069","No_Match",NA,NA,NA,NA
239866,"5315-B CYPRESS CREEK PKWY SUITE 404","HOUSTON","TX",77069,NA,NA,366,"5315-B CYPRESS CREEK PKWY SUITE 404, HOUSTON, TX, 77069","No_Match",NA,NA,NA,NA
239867,"5315-J LIBERTY RD","GREENSBORO","NC",27406,35.9729155730001,-79.710801063,367,"5315-J LIBERTY RD, GREENSBORO, NC, 27406","Match","Exact","5315 LIBERTY RD, GREENSBORO, NC, 27406",131047864,"L"
239868,"53157 US HIGHWAY","HODGEN","OK",74939,NA,NA,368,"53157 US HIGHWAY, HODGEN, OK, 74939","No_Match",NA,NA,NA,NA
239869,"5316 24TH AVE SO","SEATTLE","WA",98108,47.554258046,-122.301573778,369,"5316 24TH AVE SO, SEATTLE, WA, 98108","Match","Exact","5316 24TH AVE S, SEATTLE, WA, 98108",239758945,"L"
239870,"5316 8TH ST","ZEPHYRHILLS","FL",33542,28.2348155780001,-82.180182305,370,"5316 8TH ST, ZEPHYRHILLS, FL, 33542","Match","Exact","5316 8TH ST, ZEPHYRHILLS, FL, 33542",86354946,"R"
239871,"5316 CONWAY CIRCLE","KNOXVILLE","TN",37921,35.983224459,-84.007801641,371,"5316 CONWAY CIRCLE, KNOXVILLE, TN, 37921","Match","Exact","5316 CONWAY CIR, KNOXVILLE, TN, 37921",42613488,"L"
239872,"5316 CUMBERLAND PLAIN DR","RALEIGH","NC",27616,35.864922607,-78.550115464,372,"5316 CUMBERLAND PLAIN DR, RALEIGH, NC, 27616","Match","Exact","5316 CUMBERLAND PLAIN DR, RALEIGH, NC, 27616",72626030,"L"
239873,"5316 DRIFTON DRIVE","LOUISVILLE","KY",40241,38.321854446,-85.5335223879999,373,"5316 DRIFTON DRIVE, LOUISVILLE, KY, 40241","Match","Exact","5316 DRIFTON DR, LOUISVILLE, KY, 40241",130919153,"L"
239874,"5316 LA CRESTA CT","LOS ANGELES","CA",90038,34.085552281,-118.309630505,374,"5316 LA CRESTA CT, LOS ANGELES, CA, 90038","Match","Exact","5316 LA CRESTA CT, LOS ANGELES, CA, 90038",141603061,"L"
239875,"5316 LABRANCH","HOUSTON","TX",77004,NA,NA,375,"5316 LABRANCH, HOUSTON, TX, 77004","No_Match",NA,NA,NA,NA
239876,"5316 MOUNTAIN VIEW","LAS VEGAS","NV",89146,36.1549289480001,-115.213055915,376,"5316 MOUNTAIN VIEW, LAS VEGAS, NV, 89146","Match","Non_Exact","5316 MOUNTAIN VIEW DR, LAS VEGAS, NV, 89146",201861226,"R"
239877,"5316 N COLONIAL AVENUE 101","FRESNO","CA",93704,36.8147666720001,-119.802813542,377,"5316 N COLONIAL AVENUE 101, FRESNO, CA, 93704","Match","Non_Exact","5316 N COLONIAL AVE, FRESNO, CA, 93704",197572411,"L"
239878,"5316 NEW UTRECHT AVENUE","BROOKLYN","NY",11219,40.6330496730001,-73.995210161,378,"5316 NEW UTRECHT AVENUE, BROOKLYN, NY, 11219","Match","Exact","5316 NEW UTRECHT AVE, BROOKLYN, NY, 11219",59080223,"R"
239879,"5316 OLYMPIA LANE","GREENDALE","WI",53129,42.9357168700001,-87.982123714,379,"5316 OLYMPIA LANE, GREENDALE, WI, 53129","Match","Exact","5316 OLYMPIA LN, GREENDALE, WI, 53129",77749917,"L"
239880,"5316 PANTHER COURT","CINCINNATI","OH",45248,39.1126477030001,-84.6216041179999,380,"5316 PANTHER COURT, CINCINNATI, OH, 45248","Match","Non_Exact","5316 PANTHER CT, CINCINNATI, OH, 45238",624958319,"L"
239881,"5316 S AZURITE TRAIL","FLAGSTAFF","AZ",86005,35.1538912560001,-111.677569842,381,"5316 S AZURITE TRAIL, FLAGSTAFF, AZ, 86005","Match","Exact","5316 S AZURITE TRL, FLAGSTAFF, AZ, 86005",653150029,"R"
239882,"5316 STEUBEN DR","MEMPHIS","TN",38134,35.2192371680001,-89.8864781359999,382,"5316 STEUBEN DR, MEMPHIS, TN, 38134","Match","Exact","5316 STEUBEN DR, MEMPHIS, TN, 38134",72923597,"L"
239883,"5316 TRIMOTOR COURT","FAIR OAKS","CA",95628,38.662719995,-121.219320251,383,"5316 TRIMOTOR COURT, FAIR OAKS, CA, 95628","Match","Exact","5316 TRIMOTOR CT, FAIR OAKS, CA, 95628",133383646,"L"
239884,"53164 W CAMINO REAL ROAD","MARICOPA","AZ",85139,32.9227103330001,-112.138259265,384,"53164 W CAMINO REAL ROAD, MARICOPA, AZ, 85139","Match","Exact","53164 W CAMINO REAL RD, MARICOPA, AZ, 85139",648054373,"R"
239885,"5317 ANHINGA TRL","NEW PORT RICHEY","FL",34653,28.236117264,-82.6743020329999,385,"5317 ANHINGA TRL, NEW PORT RICHEY, FL, 34653","Match","Exact","5317 ANHINGA TRL, NEW PORT RICHEY, FL, 34653",623709216,"L"
239886,"5317 BIG SPRINGS RANCH ROAD","WENATCHEE","WA",98801,47.3304643750001,-120.24234291,386,"5317 BIG SPRINGS RANCH ROAD, WENATCHEE, WA, 98801","Match","Exact","5317 BIG SPRINGS RANCH RD, WENATCHEE, WA, 98801",156987408,"L"
239887,"5317 COLUMBIA RD SUITE E","COLUMBIA","MD",20144,39.2343938130001,-76.8448954309999,387,"5317 COLUMBIA RD SUITE E, COLUMBIA, MD, 20144","Match","Non_Exact","5317 COLUMBIA RD, COLUMBIA, MD, 21044",158962181,"L"
239888,"5317 CUPIDS DART DR","CENTREVILLE","VA",20120,NA,NA,388,"5317 CUPIDS DART DR, CENTREVILLE, VA, 20120","No_Match",NA,NA,NA,NA
239889,"5317 E 6TH STREET","TUCSON","AZ",85711,32.2280841890001,-110.878755761,389,"5317 E 6TH STREET, TUCSON, AZ, 85711","Match","Exact","5317 E 6TH ST, TUCSON, AZ, 85711",121221227,"L"
239890,"5317 FRUITVILLE ROAD  48","SARASOTA","FL",34232,27.337944034,-82.462980567,390,"5317 FRUITVILLE ROAD  48, SARASOTA, FL, 34232","Match","Exact","5317 FRUITVILLE RD, SARASOTA, FL, 34232",16427616,"L"
239891,"5317 FRUITVILLE ROAD NUM 191","SARASOTA","FL",34232,27.337944034,-82.462980567,391,"5317 FRUITVILLE ROAD NUM 191, SARASOTA, FL, 34232","Match","Exact","5317 FRUITVILLE RD, SARASOTA, FL, 34232",16427616,"L"
239892,"5317 FRUITVILLE ROAD SUITE 306","SARASOTA","FL",34232,27.337944034,-82.462980567,392,"5317 FRUITVILLE ROAD SUITE 306, SARASOTA, FL, 34232","Match","Exact","5317 FRUITVILLE RD, SARASOTA, FL, 34232",16427616,"L"
239893,"5317 FRUITVILLE ROAD SUITE 84","SARASOTA","FL",34232,27.337944034,-82.462980567,393,"5317 FRUITVILLE ROAD SUITE 84, SARASOTA, FL, 34232","Match","Exact","5317 FRUITVILLE RD, SARASOTA, FL, 34232",16427616,"L"
239894,"5317 FRUITVILLE ROAD SUITE 87","SARASOTA","FL",34232,27.337944034,-82.462980567,394,"5317 FRUITVILLE ROAD SUITE 87, SARASOTA, FL, 34232","Match","Exact","5317 FRUITVILLE RD, SARASOTA, FL, 34232",16427616,"L"
239895,"5317 GERMANTOWN AVENUE","PHILADELPHIA","PA",19144,40.0325186000001,-75.169542663,395,"5317 GERMANTOWN AVENUE, PHILADELPHIA, PA, 19144","Match","Exact","5317 GERMANTOWN AVE, PHILADELPHIA, PA, 19144",131401310,"R"
239896,"5317 GLOVER LANE","MILTON","FL",32570,NA,NA,396,"5317 GLOVER LANE, MILTON, FL, 32570","No_Match",NA,NA,NA,NA
239897,"5317 HILAND ROAD","EAGLE RIVER","AK",99577,61.2689988640001,-149.477488334,397,"5317 HILAND ROAD, EAGLE RIVER, AK, 99577","Match","Exact","5317 HILAND RD, EAGLE RIVER, AK, 99577",190827423,"L"
239898,"5317 JONQUIL COURT","MIDDLETON","WI",53562,43.1139167970001,-89.4728754239999,398,"5317 JONQUIL COURT, MIDDLETON, WI, 53562","Match","Exact","5317 JONQUIL CT, MIDDLETON, WI, 53562",49466097,"L"
239899,"5317 MAGNOLIA TREE LN","CHARLOTTE","NC",28215,35.228245459,-80.733201808,399,"5317 MAGNOLIA TREE LN, CHARLOTTE, NC, 28215","Match","Exact","5317 MAGNOLIA TREE LN, CHARLOTTE, NC, 28215",70595191,"R"
239900,"5317 MARBORO DRIVE","RACINE","WI",53406,42.713061114,-87.843229482,400,"5317 MARBORO DRIVE, RACINE, WI, 53406","Match","Exact","5317 MARBORO DR, RACINE, WI, 53406",77908791,"L"
239901,"5317 N 37TH ST","MILWAUKEE","WI",53209,43.114176119,-87.95882675,401,"5317 N 37TH ST, MILWAUKEE, WI, 53209","Match","Exact","5317 N 37TH ST, MILWAUKEE, WI, 53209",77735497,"L"
239902,"5317 N 37TH STREET","MILWAUKEE","WI",53209,43.114176119,-87.95882675,402,"5317 N 37TH STREET, MILWAUKEE, WI, 53209","Match","Exact","5317 N 37TH ST, MILWAUKEE, WI, 53209",77735497,"L"
239903,"5317 N FALKENBURG ROAD","TAMPA","FL",33610,27.9944138550001,-82.335200056,403,"5317 N FALKENBURG ROAD, TAMPA, FL, 33610","Match","Exact","5317 N FALKENBURG RD, TAMPA, FL, 33610",104562310,"L"
239904,"5317 NORTH HILLS DRIVE","RALEIGH","NC",27612,35.849693388,-78.660988488,404,"5317 NORTH HILLS DRIVE, RALEIGH, NC, 27612","Match","Exact","5317 N HILLS DR, RALEIGH, NC, 27612",72496467,"L"
239905,"5317 PLYMOUTH RD SUITE 100","BALTIMORE","MD",21214,39.353957123,-76.5711530459999,405,"5317 PLYMOUTH RD SUITE 100, BALTIMORE, MD, 21214","Match","Exact","5317 PLYMOUTH RD, BALTIMORE, MD, 21214",206409918,"R"
239906,"5317 WESTMINSTER AVE","PHILEDELPHIA","PA",19131,39.9679687390001,-75.226967111,406,"5317 WESTMINSTER AVE, PHILEDELPHIA, PA, 19131","Match","Non_Exact","5317 WESTMINSTER AVE, PHILADELPHIA, PA, 19131",131447764,"R"
239907,"53176 OAKMONT WEST DR","SOUTH BEND","IN",46637,41.720572098,-86.239410703,407,"53176 OAKMONT WEST DR, SOUTH BEND, IN, 46637","Match","Exact","53176 OAKMONT WEST DR, SOUTH BEND, IN, 46637",8054360,"L"
239908,"5318 BELLE MANOR LN","SUGAR LAND","TX",77479,29.5406744520001,-95.5857257919999,408,"5318 BELLE MANOR LN, SUGAR LAND, TX, 77479","Match","Exact","5318 BELLE MANOR LN, SUGAR LAND, TX, 77479",642932475,"R"
239909,"5318 BISHOPS BOULEVARD S UNIT D","FARGO","ND",58104,46.802559489,-96.813712746,409,"5318 BISHOPS BOULEVARD S UNIT D, FARGO, ND, 58104","Match","Non_Exact","5318 BISHOPS BLVD, FARGO, ND, 58104",151466377,"R"
239910,"5318 BURNETT PL","DAVIS","CA",95618,38.5505050410001,-121.682561119,410,"5318 BURNETT PL, DAVIS, CA, 95618","Match","Exact","5318 BURNETT PL, DAVIS, CA, 95618",67701470,"L"
239911,"5318 BUXTON COURT","ALEXANDRIA","VA",22315,38.762349897,-77.1358604389999,411,"5318 BUXTON COURT, ALEXANDRIA, VA, 22315","Match","Exact","5318 BUXTON CT, ALEXANDRIA, VA, 22315",619828662,"L"
239912,"5318 E WASHINGTON AVE","LAS VEGAS","NV",89110,36.1814400530001,-115.057040969,412,"5318 E WASHINGTON AVE, LAS VEGAS, NV, 89110","Match","Exact","5318 E WASHINGTON AVE, LAS VEGAS, NV, 89110",201875483,"L"
239913,"5318 EAST SECOND STREET  PO BOX 700","LONG BEACH","CA",90803,33.759119399,-118.132179433,413,"5318 EAST SECOND STREET  PO BOX 700, LONG BEACH, CA, 90803","Match","Exact","5318 E 2ND ST, LONG BEACH, CA, 90803",141702711,"R"
239914,"5318 EAST SECOND STREET 413","LONG BEACH","CA",90803,33.759119399,-118.132179433,414,"5318 EAST SECOND STREET 413, LONG BEACH, CA, 90803","Match","Exact","5318 E 2ND ST, LONG BEACH, CA, 90803",141702711,"R"
239915,"5318 ENDEAVOUR AVENUE","DOVER","FL",33527,27.9505550060001,-82.185714301,415,"5318 ENDEAVOUR AVENUE, DOVER, FL, 33527","Match","Exact","5318 ENDEAVOUR AVE, DOVER, FL, 33527",104548111,"L"
239916,"5318 FALLING PETALS DRIVE","NLV","NV",89031,36.2567669900001,-115.198507359,416,"5318 FALLING PETALS DRIVE, NLV, NV, 89031","Match","Non_Exact","5318 FALLING PETALS DR, N LAS VEGAS, NV, 89031",201943838,"R"
239917,"5318 HOBOKEN RD","MADISON","WI",53713,43.0483092380001,-89.347468315,417,"5318 HOBOKEN RD, MADISON, WI, 53713","Match","Exact","5318 HOBOKEN RD, MADISON, WI, 53713",49473977,"L"
239918,"5318 NE 101ST CIRCLE","VANCOUVER","WA",98686,45.6950903700001,-122.616848941,418,"5318 NE 101ST CIRCLE, VANCOUVER, WA, 98686","Match","Exact","5318 NE 101ST CIR, VANCOUVER, WA, 98686",158348399,"R"
239919,"5318 RAYTOWN ROAD","RAYTOWN","MO",64133,39.0260226360001,-94.469130513,419,"5318 RAYTOWN ROAD, RAYTOWN, MO, 64133","Match","Exact","5318 RAYTOWN RD, RAYTOWN, MO, 64133",91485580,"R"
239920,"5318 S JELLISON","JELLISON","CO",80123,NA,NA,420,"5318 S JELLISON, JELLISON, CO, 80123","No_Match",NA,NA,NA,NA
239921,"5318 SKINNER HILL RD","MORAVIA","NY",13118,42.7022221830001,-76.3888399109999,421,"5318 SKINNER HILL RD, MORAVIA, NY, 13118","Match","Exact","5318 SKINNER HILL RD, MORAVIA, NY, 13118",33510120,"L"
239922,"5318 SKYLANE DRIVE","SAND SPRINGS","OK",74063,36.086193845,-96.12563004,422,"5318 SKYLANE DRIVE, SAND SPRINGS, OK, 74063","Match","Non_Exact","5318 SKYLANE PL, SAND SPRINGS, OK, 74063",649713823,"L"
239923,"5318 TULIP ROSE","SAN ANTONIO","TX",78253,29.4854756390001,-98.750169162,423,"5318 TULIP ROSE, SAN ANTONIO, TX, 78253","Match","Exact","5318 TULIP ROSE, SAN ANTONIO, TX, 78253",645132790,"R"
239924,"5318 W 6TH ST","WINONA","MN",55987,44.069161158,-91.708375791,424,"5318 W 6TH ST, WINONA, MN, 55987","Match","Exact","5318 6TH ST, WINONA, MN, 55987",31665847,"R"
239925,"5318 W DEVON AVE","CHICAGO","IL",60646,41.9973310240001,-87.761545938,425,"5318 W DEVON AVE, CHICAGO, IL, 60646","Match","Exact","5318 W DEVON AVE, CHICAGO, IL, 60646",111737292,"R"
239926,"5318 W MADISON","CHICAGO","IL",60644,41.8803378710001,-87.758211662,426,"5318 W MADISON, CHICAGO, IL, 60644","Match","Non_Exact","5318 W MADISON ST, CHICAGO, IL, 60644",111754887,"R"
239927,"5318 WESLAYAN APT 154","HOUSTON","TX",77005,29.725120304,-95.441339195,427,"5318 WESLAYAN APT 154, HOUSTON, TX, 77005","Match","Non_Exact","5318 WESLAYAN ST, HOUSTON, TX, 77005",96034223,"R"
239928,"5318 WESLEYAN NUMBER 175","HOUSTON","TX",77005,NA,NA,428,"5318 WESLEYAN NUMBER 175, HOUSTON, TX, 77005","No_Match",NA,NA,NA,NA
239929,"5318 WESLEYAN ST  NUMBER 175","HOUSTON","TX",77005,29.725120304,-95.441339195,429,"5318 WESLEYAN ST  NUMBER 175, HOUSTON, TX, 77005","Match","Non_Exact","5318 WESLAYAN ST, HOUSTON, TX, 77005",96034223,"R"
239930,"5318 WESTHAVEN STREET","LOS ANGELES","CA",90016,34.030788541,-118.359836935,430,"5318 WESTHAVEN STREET, LOS ANGELES, CA, 90016","Match","Exact","5318 WESTHAVEN ST, LOS ANGELES, CA, 90016",141601127,"L"
239931,"53181 GENTLE BREEZE CT","SOUTH BEND","IN",46628,41.7196103950001,-86.3688713509999,431,"53181 GENTLE BREEZE CT, SOUTH BEND, IN, 46628","Match","Exact","53181 GENTLE BREEZE CT, SOUTH BEND, IN, 46628",616552469,"L"
239932,"5319 156TH AVE NE","REDMOND","WA",98052,47.655867179,-122.132501509,432,"5319 156TH AVE NE, REDMOND, WA, 98052","Match","Exact","5319 156TH AVE NE, REDMOND, WA, 98052",186611307,"L"
239933,"5319 AIRPORT DRIVE","WHITE MARSH","MD",21162,39.4087527070001,-76.417390483,433,"5319 AIRPORT DRIVE, WHITE MARSH, MD, 21162","Match","Non_Exact","5319 AIRPORT RD, WHITE MARSH, MD, 21162",191499658,"R"
239934,"5319 BROADWAY TER APT 201","OAKLAND","CA",94618,37.837777563,-122.24784037,434,"5319 BROADWAY TER APT 201, OAKLAND, CA, 94618","Match","Exact","5319 BROADWAY TER, OAKLAND, CA, 94618",124999518,"R"
239935,"5319 CYPRESS LINKS BLVD","ELKTON","FL",32033,29.798762519,-81.374537305,435,"5319 CYPRESS LINKS BLVD, ELKTON, FL, 32033","Match","Exact","5319 CYPRESS LINKS BLVD, ELKTON, FL, 32033",639681649,"R"
239936,"5319 ETON COURT","CUMMING","GA",30040,34.1847444860001,-84.188800304,436,"5319 ETON COURT, CUMMING, GA, 30040","Match","Exact","5319 ETON CT, CUMMING, GA, 30040",628077176,"L"
239937,"5319 LAKE JESSAMINE DR","ORLANDO","FL",32839,28.4839511340001,-81.391384939,437,"5319 LAKE JESSAMINE DR, ORLANDO, FL, 32839","Match","Exact","5319 LAKE JESSAMINE DR, ORLANDO, FL, 32839",94338694,"L"
239938,"5319 NORTH CARLIN SPRINGS RD","ARLINGTON","VA",22203,38.8717104310001,-77.1236133629999,438,"5319 NORTH CARLIN SPRINGS RD, ARLINGTON, VA, 22203","Match","Exact","5319 N CARLIN SPRINGS RD, ARLINGTON, VA, 22203",76468637,"R"
239939,"5319 NORTH TOWNSHIP ROAD 137","TIFFIN","OH",44883,NA,NA,439,"5319 NORTH TOWNSHIP ROAD 137, TIFFIN, OH, 44883","No_Match",NA,NA,NA,NA
239940,"5319 OAKLAND ROAD","CHEVY CHASE","MD",20815,38.9701055400001,-77.106200492,440,"5319 OAKLAND ROAD, CHEVY CHASE, MD, 20815","Match","Exact","5319 OAKLAND RD, CHEVY CHASE, MD, 20815",62058960,"R"
239941,"5319 ORANGE AVENUE","SAN DIEGO","CA",92115,32.753159356,-117.081215085,441,"5319 ORANGE AVENUE, SAN DIEGO, CA, 92115","Match","Exact","5319 ORANGE AVE, SAN DIEGO, CA, 92115",636471164,"R"
239942,"5319 PAYLOR LANE SUITE 400","SARASOTA","FL",34240,NA,NA,442,"5319 PAYLOR LANE SUITE 400, SARASOTA, FL, 34240","No_Match",NA,NA,NA,NA
239943,"5319 PRUNE BLOSSOM DRIVE","SAN JOSE","CA",95123,37.2586260790001,-121.81657269,443,"5319 PRUNE BLOSSOM DRIVE, SAN JOSE, CA, 95123","Match","Exact","5319 PRUNE BLOSSOM DR, SAN JOSE, CA, 95123",122925019,"R"
239944,"5319 RACCOON RIDGE CT","JACKSONVILLE","FL",32258,30.1498467280001,-81.566433381,444,"5319 RACCOON RIDGE CT, JACKSONVILLE, FL, 32258","Match","Exact","5319 RACCOON RIDGE CT, JACKSONVILLE, FL, 32258",83934273,"R"
239945,"5319 SWEETWATER TRAILS","SAN DIEGO","CA",92130,NA,NA,445,"5319 SWEETWATER TRAILS, SAN DIEGO, CA, 92130","No_Match",NA,NA,NA,NA
239946,"5319 UNIVERSITY DRIVE - NUMBER 144","IRVINE","CA",92612,33.6583783470001,-117.806237694,446,"5319 UNIVERSITY DRIVE - NUMBER 144, IRVINE, CA, 92612","Match","Exact","5319 UNIVERSITY DR, IRVINE, CA, 92612",144395749,"L"
239947,"5319 UNIVERSITY DRIVE SUITE 232","IRVINE","CA",92612,33.6583783470001,-117.806237694,447,"5319 UNIVERSITY DRIVE SUITE 232, IRVINE, CA, 92612","Match","Exact","5319 UNIVERSITY DR, IRVINE, CA, 92612",144395749,"L"
239948,"5319 W 120TH ST","INGLEWOOD","CA",90304,33.9236637830001,-118.372682759,448,"5319 W 120TH ST, INGLEWOOD, CA, 90304","Match","Exact","5319 W 120TH ST, INGLEWOOD, CA, 90304",141655799,"R"
239949,"5319 W FULLERTON AVE","CHICAGO","IL",60639,41.924059261,-87.759526078,449,"5319 W FULLERTON AVE, CHICAGO, IL, 60639","Match","Exact","5319 W FULLERTON AVE, CHICAGO, IL, 60639",616788591,"L"
239950,"531973","CINCINNATI","OH",45253,NA,NA,450,"531973, CINCINNATI, OH, 45253","No_Match",NA,NA,NA,NA
239951,"532 14TH AVE SW","ALBANY","OR",97321,44.62661788,-123.108627752,451,"532 14TH AVE SW, ALBANY, OR, 97321","Match","Exact","532 14TH AVE SW, ALBANY, OR, 97321",606035028,"R"
239952,"532 1ST AVE STE 312","COUNCIL BLUFFS","IA",51503,41.2597916140001,-95.851273442,452,"532 1ST AVE STE 312, COUNCIL BLUFFS, IA, 51503","Match","Exact","532 1ST AVE, COUNCIL BLUFFS, IA, 51503",43901234,"R"
239953,"532 31ST AVENUE","SEATTLE","WA",98122,47.6067990810001,-122.292594042,453,"532 31ST AVENUE, SEATTLE, WA, 98122","Match","Exact","532 31ST AVE, SEATTLE, WA, 98122",186593167,"R"
239954,"532 APPLE RIDGE ROAD","GREENSBORO","NC",27406,36.019003164,-79.8074906259999,454,"532 APPLE RIDGE ROAD, GREENSBORO, NC, 27406","Match","Exact","532 APPLE RIDGE RD, GREENSBORO, NC, 27406",131054266,"R"
239955,"532 ARDEN ROAD","GRIMESLAND","NC",27837,NA,NA,455,"532 ARDEN ROAD, GRIMESLAND, NC, 27837","No_Match",NA,NA,NA,NA
239956,"532 ARLINGTON RD","REDWOOD CITY","CA",94062,37.4873575510001,-122.24594935,456,"532 ARLINGTON RD, REDWOOD CITY, CA, 94062","Match","Exact","532 ARLINGTON RD, REDWOOD CITY, CA, 94062",192360829,"R"
239957,"532 BETHELVIEW DR","HAMPTON","GA",30228,33.3578604200001,-84.2705154069999,457,"532 BETHELVIEW DR, HAMPTON, GA, 30228","Match","Exact","532 BETHELVIEW DR, HAMPTON, GA, 30228",619935883,"R"
239958,"532 BOULDER DRIVE","ELIZABETHTOWN","KY",42701,37.7736442790001,-85.787787803,458,"532 BOULDER DRIVE, ELIZABETHTOWN, KY, 42701","Match","Exact","532 BOULDER DR, ELIZABETHTOWN, KY, 42701",617573345,"R"
239959,"532 CENTRE STREET","FREELAND","PA",18224,41.0169756500001,-75.8974790469999,459,"532 CENTRE STREET, FREELAND, PA, 18224","Match","Exact","532 CENTRE ST, FREELAND, PA, 18224",604533039,"L"
239960,"532 COURT HOUSE LANDING RD","KING AND QUEEN CH","VA",23085,37.6675890400001,-76.880714532,460,"532 COURT HOUSE LANDING RD, KING AND QUEEN CH, VA, 23085","Match","Non_Exact","532 COURT HOUSE LANDING RD, KING QUEEN CH, VA, 23085",647925047,"L"
239961,"532 DAVIS DR","DESOTO","TX",75115,32.6018292050001,-96.868384484,461,"532 DAVIS DR, DESOTO, TX, 75115","Match","Exact","532 DAVIS DR, DESOTO, TX, 75115",102953490,"L"
239962,"532 DE SOTO DRIVE","MIAMI","FL",33166,25.811040523,-80.277680382,462,"532 DE SOTO DRIVE, MIAMI, FL, 33166","Match","Exact","532 DE SOTO DR, MIAMI, FL, 33166",115999982,"R"
239963,"532 E HAYWARD ST","OGDENSBURG","NY",13669,44.712421186,-75.4564686959999,463,"532 E HAYWARD ST, OGDENSBURG, NY, 13669","Match","Exact","532 E HAYWARD ST, OGDENSBURG, NY, 13669",155177046,"L"
239964,"532 E TERRACE AVE","FRESNO","CA",93704,36.7730753110001,-119.805524785,464,"532 E TERRACE AVE, FRESNO, CA, 93704","Match","Exact","532 E TERRACE AVE, FRESNO, CA, 93704",197574586,"R"
239965,"532 E WALNUT ST","INDIANAPOLIS","IN",46202,39.7765657480001,-86.1477909659999,465,"532 E WALNUT ST, INDIANAPOLIS, IN, 46202","Match","Exact","532 E WALNUT ST, INDIANAPOLIS, IN, 46202",108051781,"L"
239966,"532 EVELYN ST","ROCKDALE","TX",76567,30.65576306,-97.009906596,466,"532 EVELYN ST, ROCKDALE, TX, 76567","Match","Exact","532 EVELYN ST, ROCKDALE, TX, 76567",639158913,"R"
239967,"532 FARM TO MARKET ROAD","BREWSTER","NY",10509,41.470096767,-73.604550568,467,"532 FARM TO MARKET ROAD, BREWSTER, NY, 10509","Match","Exact","532 FARM TO MARKET RD, BREWSTER, NY, 10509",139682098,"R"
239968,"532 FARMINGTON WOODS DRIVE","CARY","NC",27511,35.7595499500001,-78.769921789,468,"532 FARMINGTON WOODS DRIVE, CARY, NC, 27511","Match","Exact","532 FARMINGTON WOODS DR, CARY, NC, 27511",72560621,"R"
239969,"532 GARDNER EXPRESSWAY","QUINCY","IL",62301,39.9264596720001,-91.411824821,469,"532 GARDNER EXPRESSWAY, QUINCY, IL, 62301","Match","Exact","532 GARDNER EXPY, QUINCY, IL, 62301",35096219,"R"
239970,"532 GARVIN ST","PICKENS","SC",29671,34.8773433060001,-82.707419116,470,"532 GARVIN ST, PICKENS, SC, 29671","Match","Exact","532 GARVIN ST, PICKENS, SC, 29671",636621503,"R"
239971,"532 HUSET PARKWAY NE","COLUMBIA HEIGHTS","MI",55421,NA,NA,471,"532 HUSET PARKWAY NE, COLUMBIA HEIGHTS, MI, 55421","No_Match",NA,NA,NA,NA
239972,"532 HUSET PARKWAY NE","COLUMBIA HEIGHTS","MN",55421,45.037987684,-93.2586793359999,472,"532 HUSET PARKWAY NE, COLUMBIA HEIGHTS, MN, 55421","Match","Exact","532 HUSET PKWY NE, COLUMBIA HEIGHTS, MN, 55421",617527094,"R"
239973,"532 JERSEY AVE APT 204","JERSEY CITY","NJ",7302,40.7213136510001,-74.046320532,473,"532 JERSEY AVE APT 204, JERSEY CITY, NJ, 7302","Match","Exact","532 JERSEY AVE, JERSEY CITY, NJ, 07302",59606190,"R"
239974,"532 JERSEY AVENUE - SUITE 206","JERSEY CITY","NJ",7302,40.7213136510001,-74.046320532,474,"532 JERSEY AVENUE - SUITE 206, JERSEY CITY, NJ, 7302","Match","Exact","532 JERSEY AVE, JERSEY CITY, NJ, 07302",59606190,"R"
239975,"532 JOYCE STREET","APOLLO","PA",15613,40.569241726,-79.648512207,475,"532 JOYCE STREET, APOLLO, PA, 15613","Match","Exact","532 JOYCE ST, APOLLO, PA, 15613",633733397,"R"
239976,"532 KARR AVE","HOQUIAM","WA",98550,46.981878425,-123.89123221,476,"532 KARR AVE, HOQUIAM, WA, 98550","Match","Exact","532 KARR AVE, HOQUIAM, WA, 98550",180580276,"L"
239977,"532 KINGSLEY AVE  UNIT 117","PROVIDENCE","RI",2906,NA,NA,477,"532 KINGSLEY AVE  UNIT 117, PROVIDENCE, RI, 2906","No_Match",NA,NA,NA,NA
239978,"532 LIBERTY HWY","PUTNAM","CT",6260,41.9226500930001,-71.872530985,478,"532 LIBERTY HWY, PUTNAM, CT, 6260","Match","Exact","532 LIBERTY HWY, PUTNAM, CT, 06260",56445896,"L"
239979,"532 MAPLE STREET","LOWER WATERFORD","VT",5848,44.3544050420001,-71.907534862,479,"532 MAPLE STREET, LOWER WATERFORD, VT, 5848","Match","Exact","532 MAPLE ST, LOWER WATERFORD, VT, 05848",181070370,"L"
239980,"532 MARLTON PIKE WEST","MARLTON","NJ",8053,39.8931696450001,-74.932980453,480,"532 MARLTON PIKE WEST, MARLTON, NJ, 8053","Match","Non_Exact","532 OLD MARLTON PIKE W, MARLTON, NJ, 08053",134036487,"L"
239981,"532 MCDONALD ROAD","GEORGETOWN","SC",29440,33.396409717,-79.319708728,481,"532 MCDONALD ROAD, GEORGETOWN, SC, 29440","Match","Exact","532 MCDONALD RD, GEORGETOWN, SC, 29440",29002744,"R"
239982,"532 MELODY LANE","GRAND JUNCTION","CO",81501,39.0821824070001,-108.517507213,482,"532 MELODY LANE, GRAND JUNCTION, CO, 81501","Match","Exact","532 MELODY LN, GRAND JCT, CO, 81501",122434372,"R"
239983,"532 MONTRACHET DRIVE","OFALLON","MO",63368,38.7569626850001,-90.724887264,483,"532 MONTRACHET DRIVE, OFALLON, MO, 63368","Match","Non_Exact","532 MONTRACHET DR, O FALLON, MO, 63368",648999300,"R"
239984,"532 N MAGNOLIA AVE UNIT 243","ANAHEIM","CA",92801,33.8392231490001,-117.976040942,484,"532 N MAGNOLIA AVE UNIT 243, ANAHEIM, CA, 92801","Match","Non_Exact","532 N MAGNOLIA AVE, ANAHEIM, CA, 92801",144090081,"R"
239985,"532 NE 3RD NO 101","CAMAS","WA",98607,NA,NA,485,"532 NE 3RD NO 101, CAMAS, WA, 98607","No_Match",NA,NA,NA,NA
239986,"532 NORTH MAGNOLIA AVE SUITE 310","ANAHEIM","CA",92801,33.839220278,-117.976040904,486,"532 NORTH MAGNOLIA AVE SUITE 310, ANAHEIM, CA, 92801","Match","Exact","532 N MAGNOLIA AVE, ANAHEIM, CA, 92801",144090081,"R"
239987,"532 OVERSEER RETREAT","MOUNT PLEASANT","SC",29464,32.814785553,-79.884805301,487,"532 OVERSEER RETREAT, MOUNT PLEASANT, SC, 29464","Match","Exact","532 OVERSEER RETREAT, MOUNT PLEASANT, SC, 29464",108827520,"R"
239988,"532 OZARK RD","ABBEVILLE","AL",36310,31.5548130650001,-85.267288776,488,"532 OZARK RD, ABBEVILLE, AL, 36310","Match","Exact","532 OZARK RD, ABBEVILLE, AL, 36310",101174594,"L"
239989,"532 PAYNE WAY","BLAIRSVILLE","GA",30512,34.8543366600001,-84.1365933609999,489,"532 PAYNE WAY, BLAIRSVILLE, GA, 30512","Match","Exact","532 PAYNE WAY, BLAIRSVILLE, GA, 30512",642878320,"L"
239990,"532 PERSHING BLVD","READING","PA",19607,40.314819852,-75.9565829809999,490,"532 PERSHING BLVD, READING, PA, 19607","Match","Exact","532 PERSHING BLVD, READING, PA, 19607",80380878,"R"
239991,"532 RANDOM RD APT 3","BALTIMORE","GA",21229,NA,NA,491,"532 RANDOM RD APT 3, BALTIMORE, GA, 21229","No_Match",NA,NA,NA,NA
239992,"532 RATCLIFF STREET","SHREVEPORT","LA",71104,32.474147536,-93.740288683,492,"532 RATCLIFF STREET, SHREVEPORT, LA, 71104","Match","Exact","532 RATCLIFF ST, SHREVEPORT, LA, 71104",57438124,"R"
239993,"532 REDFIELD AVE","LOS ANGELES","CA",90042,34.1019621180001,-118.185741961,493,"532 REDFIELD AVE, LOS ANGELES, CA, 90042","Match","Exact","532 REDFIELD AVE, LOS ANGELES, CA, 90042",141615264,"R"
239994,"532 RIVERDALE AVE","YONKERS","NY",10705,40.9135709060001,-73.902315184,494,"532 RIVERDALE AVE, YONKERS, NY, 10705","Match","Exact","532 RIVERDALE AVE, YONKERS, NY, 10705",635517206,"L"
239995,"532 S 15TH ST","FORT DODGE","IA",50501,NA,NA,495,"532 S 15TH ST, FORT DODGE, IA, 50501","Tie",NA,NA,NA,NA
239996,"532 S 3RD ST E","MALTA","MT",59538,48.357415566,-107.865908498,496,"532 S 3RD ST E, MALTA, MT, 59538","Match","Exact","532 S 3RD ST E, MALTA, MT, 59538",166879472,"L"
239997,"532 S ELMHURST RD","WHEELING","IL",60090,42.1296363760001,-87.936724167,497,"532 S ELMHURST RD, WHEELING, IL, 60090","Match","Exact","532 S ELMHURST RD, WHEELING, IL, 60090",639808740,"R"
239998,"532 SANTA RITA BLVD","LIBERTY HILL","TX",78642,NA,NA,498,"532 SANTA RITA BLVD, LIBERTY HILL, TX, 78642","No_Match",NA,NA,NA,NA
239999,"532 STONE CREEK DRIVE","CHARLESTON","SC",29414,32.7836778720001,-80.0355386749999,499,"532 STONE CREEK DRIVE, CHARLESTON, SC, 29414","Match","Non_Exact","532 STONECREEK DR, CHARLESTON, SC, 29414",635661175,"L"
240000,"532 SUMMER COVE CIRCLE NW","MADISON","AL",35757,34.7896706340001,-86.736959197,500,"532 SUMMER COVE CIRCLE NW, MADISON, AL, 35757","Match","Non_Exact","532 SUMMER COVE CIR, MADISON, AL, 35757",642178064,"L"
