"ID","Address","City","State","Zip","lat","long","id","input_address","match_indicator","match_type","matched_address","tiger_line_id","tiger_side"
95001,"18653 VENTURA BLVD STE 517","TARZANA","CA",91356,34.1704686630001,-118.540195042,1,"18653 VENTURA BLVD STE 517, TARZANA, CA, 91356","Match","Exact","18653 VENTURA BLVD, TARZANA, CA, 91356",141554913,"R"
95002,"18655 EAST JACARANDA BLVD","QUEEN CREEK","AZ",85142,NA,NA,2,"18655 EAST JACARANDA BLVD, QUEEN CREEK, AZ, 85142","No_Match",NA,NA,NA,NA
95003,"18656 ROUTE 322 PO BOX 354","BROOKVILLE","PA",15825,41.159720367,-79.059747869,3,"18656 ROUTE 322 PO BOX 354, BROOKVILLE, PA, 15825","Match","Non_Exact","18656 US HWY 322, BROOKVILLE, PA, 15825",66442510,"R"
95004,"18658 SHREARER ROAD","DAVIDSON","NC",28036,NA,NA,4,"18658 SHREARER ROAD, DAVIDSON, NC, 28036","No_Match",NA,NA,NA,NA
95005,"1866 BIENVILLE DR","JACKSON","MS",39212,NA,NA,5,"1866 BIENVILLE DR, JACKSON, MS, 39212","No_Match",NA,NA,NA,NA
95006,"1866 CHIPROCK DR","MARYSVILLE","OH",43040,40.263422274,-83.388617209,6,"1866 CHIPROCK DR, MARYSVILLE, OH, 43040","Match","Exact","1866 CHIPROCK DR, MARYSVILLE, OH, 43040",210632198,"R"
95007,"1866 DANVILLE RD","MEMPHIS","TN",38117,35.0812220990001,-89.9129619349999,7,"1866 DANVILLE RD, MEMPHIS, TN, 38117","Match","Exact","1866 DANVILLE RD, MEMPHIS, TN, 38117",72920897,"L"
95008,"1866 E 51ST STREET","BROOKLYN","NY",11234,40.6148437370001,-73.925432901,8,"1866 E 51ST STREET, BROOKLYN, NY, 11234","Match","Exact","1866 E 51ST ST, BROOKLYN, NY, 11234",59092413,"R"
95009,"1866 EDWOOD AVENUE","POMONA","CA",91768,NA,NA,9,"1866 EDWOOD AVENUE, POMONA, CA, 91768","No_Match",NA,NA,NA,NA
95010,"1866 INDEPENDENCE SQUARE","DUNWOODY","GA",30338,33.9306615260001,-84.3125572019999,10,"1866 INDEPENDENCE SQUARE, DUNWOODY, GA, 30338","Match","Exact","1866 INDEPENDENCE SQ, DUNWOODY, GA, 30338",23390433,"L"
95011,"1866 MARKS AVENUE","AKRON","OH",44305,41.0659735400001,-81.461014667,11,"1866 MARKS AVENUE, AKRON, OH, 44305","Match","Exact","1866 MARKS AVE, AKRON, OH, 44305",61351399,"R"
95012,"1866 MOUNTAIN BOULEVARD","OAKLAND","CA",94611,37.8300822690001,-122.211334423,12,"1866 MOUNTAIN BOULEVARD, OAKLAND, CA, 94611","Match","Exact","1866 MOUNTAIN BLVD, OAKLAND, CA, 94611",125003409,"L"
95013,"1866 OCEAN AVE APT 8D","BROOKLYN","NY",11230,40.6164521040001,-73.954648429,13,"1866 OCEAN AVE APT 8D, BROOKLYN, NY, 11230","Match","Exact","1866 OCEAN AVE, BROOKLYN, NY, 11230",59089985,"R"
95014,"1866 PALISADES DR","WEST PALM BEACH","FL",33411,26.706596561,-80.1840781449999,14,"1866 PALISADES DR, WEST PALM BEACH, FL, 33411","Match","Exact","1866 PALISADES DR, WEST PALM BEACH, FL, 33411",640709358,"L"
95015,"1866 PLAZA DEL SUR DRIVE APT 138","SANTA FE","NM",87505,35.657234456,-105.961439436,15,"1866 PLAZA DEL SUR DRIVE APT 138, SANTA FE, NM, 87505","Match","Exact","1866 PLAZA DEL SUR DR, SANTA FE, NM, 87505",647019894,"R"
95016,"1866 RIVERVIEW ROAD","DAUPHIN","PA",17018,40.3754464690001,-77.000709521,16,"1866 RIVERVIEW ROAD, DAUPHIN, PA, 17018","Match","Exact","1866 RIVERVIEW RD, DAUPHIN, PA, 17018",653372953,"R"
95017,"1866 S HAMLIN","CHICAGO","IL",60623,41.8557467090001,-87.719966245,17,"1866 S HAMLIN, CHICAGO, IL, 60623","Match","Non_Exact","1866 S HAMLIN AVE, CHICAGO, IL, 60623",111798813,"R"
95018,"1866 TROSPER ROAD SW  APT C-201","TUMWATER","WA",98512,46.9999772150001,-122.925063172,18,"1866 TROSPER ROAD SW  APT C-201, TUMWATER, WA, 98512","Match","Exact","1866 TROSPER RD SW, TUMWATER, WA, 98512",180978941,"R"
95019,"1866 W 45TH ST","CLEVELAND","OH",44102,41.482551351,-81.717723101,19,"1866 W 45TH ST, CLEVELAND, OH, 44102","Match","Exact","1866 W 45TH ST, CLEVELAND, OH, 44102",652728703,"R"
95020,"1866 WHITEWORTH DRIVE","RIVERDALE","GA",30296,33.583641657,-84.450414399,20,"1866 WHITEWORTH DRIVE, RIVERDALE, GA, 30296","Match","Non_Exact","1866 WHITWORTH DR, RIVERDALE, GA, 30296",23312228,"L"
95021,"1866 WINDRIDGE DRIVE","LAKE FOREST","IL",60045,42.207199309,-87.877719304,21,"1866 WINDRIDGE DRIVE, LAKE FOREST, IL, 60045","Match","Exact","1866 WINDRIDGE DR, LAKE FOREST, IL, 60045",119666109,"L"
95022,"18660 COLLINS AVE STE 107","SUNNY ISLES BEACH","FL",33160,25.9489194130001,-80.120799662,22,"18660 COLLINS AVE STE 107, SUNNY ISLES BEACH, FL, 33160","Match","Exact","18660 COLLINS AVE, SUNNY ISLES BEACH, FL, 33160",116292120,"L"
95023,"18660 NW 27 AVENUE APARTMENT 301","MIAMI GARDENS","FL",33056,25.9442931730001,-80.245496637,23,"18660 NW 27 AVENUE APARTMENT 301, MIAMI GARDENS, FL, 33056","Match","Non_Exact","18660 NW 27TH AVE, MIAMI GARDENS, FL, 33056",116027785,"L"
95024,"18661 KRAMERIA AVERNUE","RIVERSIDE","CA",92508,33.87999727,-117.337536042,24,"18661 KRAMERIA AVERNUE, RIVERSIDE, CA, 92508","Match","Non_Exact","18661 KRAMERIA AVE, RIVERSIDE, CA, 92508",618345884,"R"
95025,"18661 MINK CREEK DRIVE","EAGLE RIVER","AK",99577,NA,NA,25,"18661 MINK CREEK DRIVE, EAGLE RIVER, AK, 99577","No_Match",NA,NA,NA,NA
95026,"18662 MACARTHUR BLVD STE 101","IRVINE","CA",92612,33.677142917,-117.860678501,26,"18662 MACARTHUR BLVD STE 101, IRVINE, CA, 92612","Match","Exact","18662 MACARTHUR BLVD, IRVINE, CA, 92612",630536436,"R"
95027,"18663 NW 54TH PLACE","MIAMI","FL",33055,NA,NA,27,"18663 NW 54TH PLACE, MIAMI, FL, 33055","No_Match",NA,NA,NA,NA
95028,"18663 OAK RIDGE LANE","RAMONA","CA",92065,33.0372119790001,-116.82294897,28,"18663 OAK RIDGE LANE, RAMONA, CA, 92065","Match","Exact","18663 OAK RIDGE LN, RAMONA, CA, 92065",195426798,"R"
95029,"18664 GOLFVIEW DRIVE","HAZEL CREST","IL",60429,41.5509134650001,-87.699724873,29,"18664 GOLFVIEW DRIVE, HAZEL CREST, IL, 60429","Match","Exact","18664 GOLFVIEW DR, HAZEL CREST, IL, 60429",111708815,"L"
95030,"18665 W 8 MILE ROAD SUITE B","DETROIT","MI",48219,42.4440109010001,-83.226681739,30,"18665 W 8 MILE ROAD SUITE B, DETROIT, MI, 48219","Match","Non_Exact","18665 W 8 MILE RD, DETROIT, MI, 48219",612587104,"R"
95031,"18665 WILDEMERE","DETROIT","MI",48221,42.428499758,-83.133389598,31,"18665 WILDEMERE, DETROIT, MI, 48221","Match","Non_Exact","18665 WILDEMERE AVE, DETROIT, MI, 48221",95461138,"L"
95032,"1866B GOVERNMENT ST","MOBILE","AL",36606,30.677074528,-88.0833850399999,32,"1866B GOVERNMENT ST, MOBILE, AL, 36606","Match","Exact","1866 GOVERNMENT ST, MOBILE, AL, 36606",61861367,"R"
95033,"1867 AMSTERDAM AVE UNIT E2","NEW YORK","NY",10031,40.8300132860001,-73.944105268,33,"1867 AMSTERDAM AVE UNIT E2, NEW YORK, NY, 10031","Match","Exact","1867 AMSTERDAM AVE, NEW YORK, NY, 10031",59656208,"R"
95034,"1867 BEDFORD DRIVE","CHICO","CA",95928,39.7312128880001,-121.796954343,34,"1867 BEDFORD DRIVE, CHICO, CA, 95928","Match","Exact","1867 BEDFORD DR, CHICO, CA, 95928",645064672,"R"
95035,"1867 COUNTY ROAD 9","TUSKEGEE","AL",36083,32.4521344190001,-85.843002175,35,"1867 COUNTY ROAD 9, TUSKEGEE, AL, 36083","Match","Exact","1867 CO RD 9, TUSKEGEE, AL, 36083",69125998,"R"
95036,"1867 EAST STREET","BRIDPORT","VT",5734,44.0176892870001,-73.293378508,36,"1867 EAST STREET, BRIDPORT, VT, 5734","Match","Exact","1867 EAST ST, BRIDPORT, VT, 05734",210115396,"L"
95037,"1867 HIGHWAY 52E","PORTLAND","TN",37148,NA,NA,37,"1867 HIGHWAY 52E, PORTLAND, TN, 37148","No_Match",NA,NA,NA,NA
95038,"1867 KINGSLEY ROAD 86","EUGENE","OR",97401,44.0842418710001,-123.112078569,38,"1867 KINGSLEY ROAD 86, EUGENE, OR, 97401","Match","Exact","1867 KINGSLEY RD, EUGENE, OR, 97401",178217588,"R"
95039,"1867 MT MORIAH ROAD","CENTRALIA","IL",62801,38.5445253940001,-88.973924327,39,"1867 MT MORIAH ROAD, CENTRALIA, IL, 62801","Match","Exact","1867 MOUNT MORIAH RD, CENTRALIA, IL, 62801",93056440,"L"
95040,"1867 PINETA COVE DRIVE","MIDDLEBURG","FL",32068,30.1187163490001,-81.815955592,40,"1867 PINETA COVE DRIVE, MIDDLEBURG, FL, 32068","Match","Exact","1867 PINETA COVE DR, MIDDLEBURG, FL, 32068",83834801,"R"
95041,"1867 RITA ST","SARASOTA","FL",34231,27.2201324660001,-82.494717716,41,"1867 RITA ST, SARASOTA, FL, 34231","Match","Exact","1867 RITA ST, SARASOTA, FL, 34231",16357817,"L"
95042,"1867 THORNHILL DRIVE","AKRON","OH",44313,41.129203972,-81.5781559449999,42,"1867 THORNHILL DRIVE, AKRON, OH, 44313","Match","Exact","1867 THORNHILL DR, AKRON, OH, 44313",61337411,"R"
95043,"1867 TIGER LILY CIR","WOODBRIDGE","VA",22192,38.670482119,-77.266882365,43,"1867 TIGER LILY CIR, WOODBRIDGE, VA, 22192","Match","Exact","1867 TIGER LILY CIR, WOODBRIDGE, VA, 22192",76524920,"L"
95044,"1867 WINSTON RD","CHARLOTTESVILLE","VA",22903,38.047103904,-78.5013491729999,44,"1867 WINSTON RD, CHARLOTTESVILLE, VA, 22903","Match","Exact","1867 WINSTON RD, CHARLOTTESVILLE, VA, 22903",83368740,"R"
95045,"18670 63RD","MAQUOKETA","IA",52060,42.0863760170001,-90.6861034619999,45,"18670 63RD, MAQUOKETA, IA, 52060","Match","Non_Exact","18670 63RD ST, MAQUOKETA, IA, 52060",605716255,"R"
95046,"18670 MANSFIELD ST","DETROIT","MI",48235,42.4271782050001,-83.206208293,46,"18670 MANSFIELD ST, DETROIT, MI, 48235","Match","Exact","18670 MANSFIELD ST, DETROIT, MI, 48235",95423063,"R"
95047,"18670 NIXON AVENUE","WEST LINN","OR",97068,45.3902664140001,-122.631282917,47,"18670 NIXON AVENUE, WEST LINN, OR, 97068","Match","Exact","18670 NIXON AVE, WEST LINN, OR, 97068",157914107,"L"
95048,"18670 NW IDANHA ST","PORTLAND","OR",97229,45.5538133950001,-122.868974482,48,"18670 NW IDANHA ST, PORTLAND, OR, 97229","Match","Exact","18670 NW IDANHA ST, PORTLAND, OR, 97229",158182109,"L"
95049,"18670 SW BLANTON ST UNIT 203","BEAVERTON","OR",97078,45.49245011,-122.869184201,49,"18670 SW BLANTON ST UNIT 203, BEAVERTON, OR, 97078","Match","Non_Exact","18670 SW BLANTON ST, BEAVERTON, OR, 97078",158182995,"L"
95050,"18671 BOULDER AVE","RIVERSIDE","CA",92508,33.8703019600001,-117.337331239,50,"18671 BOULDER AVE, RIVERSIDE, CA, 92508","Match","Exact","18671 BOULDER AVE, RIVERSIDE, CA, 92508",194795685,"L"
95051,"18672 OCEAN MIST DR","BOCA RATON","FL",33498,26.3971002660001,-80.2268377409999,51,"18672 OCEAN MIST DR, BOCA RATON, FL, 33498","Match","Exact","18672 OCEAN MIST DR, BOCA RATON, FL, 33498",115575556,"L"
95052,"18672 PROVIDENCE ESTS","AMITE","LA",70422,30.754984762,-90.4149715139999,52,"18672 PROVIDENCE ESTS, AMITE, LA, 70422","Match","Exact","18672 PROVIDENCE ESTS, AMITE, LA, 70422",612186610,"R"
95053,"18674 NW 67TH AVENUE","MIAMI","FL",33015,25.943284282,-80.306990989,53,"18674 NW 67TH AVENUE, MIAMI, FL, 33015","Match","Non_Exact","18674 NW 67TH AVE, MIAMI GARDENS, FL, 33015",642152725,"R"
95054,"18677 OLD STATE ROAD 37","LEOPOLD","IN",47551,NA,NA,54,"18677 OLD STATE ROAD 37, LEOPOLD, IN, 47551","No_Match",NA,NA,NA,NA
95055,"18678 E CARDINAL WAY","QUEEN CREEK","AZ",85142,33.2705292730001,-111.679976452,55,"18678 E CARDINAL WAY, QUEEN CREEK, AZ, 85142","Match","Exact","18678 E CARDINAL WAY, QUEEN CREEK, AZ, 85142",244010904,"L"
95056,"18679 E 58TH AVE UNIT E","DENVER","CO",80249,NA,NA,56,"18679 E 58TH AVE UNIT E, DENVER, CO, 80249","No_Match",NA,NA,NA,NA
95057,"1868 180TH ST","CENTURIA","WI",54824,45.4758486060001,-92.5292387009999,57,"1868 180TH ST, CENTURIA, WI, 54824","Match","Exact","1868 180TH ST, CENTURIA, WI, 54824",653697177,"R"
95058,"1868 ABERDEEN CIRCLE","CROFTON","MD",21114,39.012189473,-76.6777257959999,58,"1868 ABERDEEN CIRCLE, CROFTON, MD, 21114","Match","Exact","1868 ABERDEEN CIR, CROFTON, MD, 21114",636149618,"L"
95059,"1868 BLACKWOOD DR E","MONMOUTH","OR",97361,44.841991277,-123.212741492,59,"1868 BLACKWOOD DR E, MONMOUTH, OR, 97361","Match","Exact","1868 BLACKWOOD DR E, MONMOUTH, OR, 97361",610952704,"R"
95060,"1868 BOWEN COURT","LEXINGTON","KY",40511,38.08786952,-84.469879738,60,"1868 BOWEN COURT, LEXINGTON, KY, 40511","Match","Exact","1868 BOWEN CT, LEXINGTON, KY, 40511",31925355,"R"
95061,"1868 CONGREGATION RD","DAHINDA","IL",61428,NA,NA,61,"1868 CONGREGATION RD, DAHINDA, IL, 61428","No_Match",NA,NA,NA,NA
95062,"1868 CORCORAN STREET NE","WASHINGTON","DC",20002,38.912323036,-76.987303034,62,"1868 CORCORAN STREET NE, WASHINGTON, DC, 20002","Match","Exact","1868 CORCORAN ST NE, WASHINGTON, DC, 20002",623879769,"L"
95063,"1868 EAST VALLEY PARKWAY","ESCONDIDO","CA",92027,33.1364527050001,-117.054113516,63,"1868 EAST VALLEY PARKWAY, ESCONDIDO, CA, 92027","Match","Exact","1868 E VALLEY PKWY, ESCONDIDO, CA, 92027",647644007,"L"
95064,"1868 EDINBURGH AVENUE","BATON ROUGE","LA",70808,30.4110194250001,-91.1440740959999,64,"1868 EDINBURGH AVENUE, BATON ROUGE, LA, 70808","Match","Exact","1868 EDINBURGH AVE, BATON ROUGE, LA, 70808",92185509,"R"
95065,"1868 EVERGREEN RD","THOMPSONS STATION","TN",37179,35.7990013950001,-86.953136001,65,"1868 EVERGREEN RD, THOMPSONS STATION, TN, 37179","Match","Exact","1868 EVERGREEN RD, THOMPSONS STATION, TN, 37179",628010026,"L"
95066,"1868 LAKE SHORE AVE","LOS ANGELES","CA",90026,34.086821265,-118.255668413,66,"1868 LAKE SHORE AVE, LOS ANGELES, CA, 90026","Match","Exact","1868 LAKE SHORE AVE, LOS ANGELES, CA, 90026",141616084,"R"
95067,"1868 NEVADA AVE E","ST PAUL","MN",55119,NA,NA,67,"1868 NEVADA AVE E, ST PAUL, MN, 55119","No_Match",NA,NA,NA,NA
95068,"1868 NORTH DAYTON STREET","CHICAGO","IL",60614,41.9152727540001,-87.649631685,68,"1868 NORTH DAYTON STREET, CHICAGO, IL, 60614","Match","Exact","1868 N DAYTON ST, CHICAGO, IL, 60614",111767149,"L"
95069,"1868 NUEVA VISTA","LA HABRA HEIGHTS","CA",90631,33.9582917820001,-117.956957758,69,"1868 NUEVA VISTA, LA HABRA HEIGHTS, CA, 90631","Match","Non_Exact","1868 NUEVA VISTA DR, LA HABRA HEIGHTS, CA, 90631",241247637,"R"
95070,"1868 POWELLS LANDING CIRCLE","WOODBRIDGE","VA",22191,38.5931982720001,-77.27267932,70,"1868 POWELLS LANDING CIRCLE, WOODBRIDGE, VA, 22191","Match","Exact","1868 POWELLS LANDING CIR, WOODBRIDGE, VA, 22191",207144012,"R"
95071,"1868 S RUSTIC MILL PL","BOISE","ID",83709,43.5870288340001,-116.302742459,71,"1868 S RUSTIC MILL PL, BOISE, ID, 83709","Match","Exact","1868 S RUSTIC MILL PL, BOISE, ID, 83709",117878603,"L"
95072,"1868 SAN PABLO AVENUE","SEASIDE","CA",93955,36.6145701820001,-121.823297456,72,"1868 SAN PABLO AVENUE, SEASIDE, CA, 93955","Match","Exact","1868 SAN PABLO AVE, SEASIDE, CA, 93955",196820876,"R"
95073,"1868 W 11860 S","RIVERTON","UT",84065,40.535737811,-111.942255755,73,"1868 W 11860 S, RIVERTON, UT, 84065","Match","Exact","1868 W 11860 S, RIVERTON, UT, 84065",176091597,"R"
95074,"1868 WASHINGTON ROAD SUITE E","EASTPOINT","GA",30344,NA,NA,74,"1868 WASHINGTON ROAD SUITE E, EASTPOINT, GA, 30344","No_Match",NA,NA,NA,NA
95075,"1868 WOODSBORO DRIVE","COLUMBIA","SC",29210,34.052927707,-81.093502139,75,"1868 WOODSBORO DRIVE, COLUMBIA, SC, 29210","Match","Exact","1868 WOODSBORO DR, COLUMBIA, SC, 29210",71817217,"R"
95076,"18680 E MAINSTREET APT 7-307","PARKER","CO",80134,39.51843187,-104.771318329,76,"18680 E MAINSTREET APT 7-307, PARKER, CO, 80134","Match","Non_Exact","18680 E MAINSTREET, PARKER, CO, 80134",619352605,"R"
95077,"18680 NELSON ROAD","SAINT CHARLES","MI",48655,43.332681876,-84.282591224,77,"18680 NELSON ROAD, SAINT CHARLES, MI, 48655","Match","Exact","18680 NELSON RD, SAINT CHARLES, MI, 48655",80221764,"L"
95078,"18681 E CENTER AVE","ORANGE","CA",92869,33.7895749200001,-117.806660643,78,"18681 E CENTER AVE, ORANGE, CA, 92869","Match","Exact","18681 E CENTER AVE, ORANGE, CA, 92869",609069358,"L"
95079,"18681 LUDLOW ST","NORTHRIDGE","CA",91326,34.270480944,-118.539191723,79,"18681 LUDLOW ST, NORTHRIDGE, CA, 91326","Match","Exact","18681 LUDLOW ST, NORTHRIDGE, CA, 91326",141539639,"R"
95080,"18684 SCHAEFER HWY","DETROIT","MI",48235,42.4280552280001,-83.180338955,80,"18684 SCHAEFER HWY, DETROIT, MI, 48235","Match","Exact","18684 SCHAEFER HWY, DETROIT, MI, 48235",95424460,"R"
95081,"18685 MAIN ST STE 101-604","HUNTINGTON BEACH","CA",92648,33.6921885670001,-117.991426583,81,"18685 MAIN ST STE 101-604, HUNTINGTON BEACH, CA, 92648","Match","Exact","18685 MAIN ST, HUNTINGTON BEACH, CA, 92648",144018744,"R"
95082,"18685 PINEHURST","DETROIT","MI",48221,42.428237064,-83.167427518,82,"18685 PINEHURST, DETROIT, MI, 48221","Match","Non_Exact","18685 PINEHURST AVE, DETROIT, MI, 48221",95425281,"L"
95083,"18686 HIGHWAY F","BOWLING GREEN","MO",63334,NA,NA,83,"18686 HIGHWAY F, BOWLING GREEN, MO, 63334","No_Match",NA,NA,NA,NA
95084,"18686 MAIN ST","HESPERIA","CA",92345,34.4139738690001,-117.25568509,84,"18686 MAIN ST, HESPERIA, CA, 92345","Match","Exact","18686 MAIN ST, HESPERIA, CA, 92345",144589940,"R"
95085,"1869 215TH STREET","MUSCATINE","IA",52761,41.429459266,-91.201556526,85,"1869 215TH STREET, MUSCATINE, IA, 52761","Match","Exact","1869 215TH ST, MUSCATINE, IA, 52761",99007677,"R"
95086,"1869 APPALOOSA LANE 1211","BUFORD","GA",30519,34.0653585420001,-83.9724859,86,"1869 APPALOOSA LANE 1211, BUFORD, GA, 30519","Match","Exact","1869 APPALOOSA LN, BUFORD, GA, 30519",630039517,"L"
95087,"1869 APPALOOSA LANE APT 7231","BUFORD","GA",30519,34.0653585420001,-83.9724859,87,"1869 APPALOOSA LANE APT 7231, BUFORD, GA, 30519","Match","Exact","1869 APPALOOSA LN, BUFORD, GA, 30519",630039517,"L"
95088,"1869 E 600 NORTH RD","SHELBYVILLE","IL",62565,NA,NA,88,"1869 E 600 NORTH RD, SHELBYVILLE, IL, 62565","No_Match",NA,NA,NA,NA
95089,"1869 E SELTICE WAY PMB 314","POST FALLS","ID",83854,47.710481235,-116.9174726,89,"1869 E SELTICE WAY PMB 314, POST FALLS, ID, 83854","Match","Non_Exact","1869 E SELTICE WAY, POST FALLS, ID, 83854",653696979,"R"
95090,"1869 HWY 32 W","ASHDOWN","AR",71822,NA,NA,90,"1869 HWY 32 W, ASHDOWN, AR, 71822","No_Match",NA,NA,NA,NA
95091,"1869 KEMPSVILLE CROSSING LANE","VIRGINIA BEACH","VA",23464,36.777633028,-76.19452229,91,"1869 KEMPSVILLE CROSSING LANE, VIRGINIA BEACH, VA, 23464","Match","Exact","1869 KEMPSVILLE CROSSING LN, VA BCH, VA, 23464",641468241,"R"
95092,"1869 LANCASTER LANE","WATERFORD WORKS","NJ",8089,NA,NA,92,"1869 LANCASTER LANE, WATERFORD WORKS, NJ, 8089","No_Match",NA,NA,NA,NA
95093,"1869 MADISON AVENUE","MEMPHIS","TN",38104,35.1376200460001,-89.999064451,93,"1869 MADISON AVENUE, MEMPHIS, TN, 38104","Match","Exact","1869 MADISON AVE, MEMPHIS, TN, 38104",72912360,"R"
95094,"1869 MINTWOOD PLACE NW","WASHINGTON","DC",20009,38.9214008820001,-77.045108887,94,"1869 MINTWOOD PLACE NW, WASHINGTON, DC, 20009","Match","Exact","1869 MINTWOOD PL NW, WASHINGTON, DC, 20009",76222725,"R"
95095,"1869 N 2500 W","ST GEORGE","UT",84770,37.1397612320001,-113.637131272,95,"1869 N 2500 W, ST GEORGE, UT, 84770","Match","Exact","1869 N 2500 W, SAINT GEORGE, UT, 84770",635510909,"L"
95096,"1869 N KADOTA AVE","CASA GRANDE","AZ",85122,32.903822393,-111.744732089,96,"1869 N KADOTA AVE, CASA GRANDE, AZ, 85122","Match","Exact","1869 N KADOTA AVE, CASA GRANDE, AZ, 85122",129179143,"L"
95097,"1869 NEWTON STREET NW","WASHINGTON","DC",20010,38.9341785120001,-77.043566003,97,"1869 NEWTON STREET NW, WASHINGTON, DC, 20010","Match","Exact","1869 NEWTON ST NW, WASHINGTON, DC, 20010",639337137,"R"
95098,"1869 PARKER LANE","TWINSBURG","OH",44087,41.3224941780001,-81.472820352,98,"1869 PARKER LANE, TWINSBURG, OH, 44087","Match","Exact","1869 PARKER LN, TWINSBURG, OH, 44087",625720558,"L"
95099,"1869 PORTER LAKE DR","SARASOTA","FL",34240,27.316651117,-82.446490436,99,"1869 PORTER LAKE DR, SARASOTA, FL, 34240","Match","Exact","1869 PORTER LAKE DR, SARASOTA, FL, 34240",16379600,"L"
95100,"1869 RIVERSIDE DR","SOUTH BEND","IN",46616,41.702708489,-86.256557003,100,"1869 RIVERSIDE DR, SOUTH BEND, IN, 46616","Match","Exact","1869 RIVERSIDE DR, SOUTH BEND, IN, 46616",8053984,"L"
95101,"1869 SANTA BARBARA DRIVE","LANCASTER","SC",29720,34.672104463,-80.7849800549999,101,"1869 SANTA BARBARA DRIVE, LANCASTER, SC, 29720","Match","Exact","1869 SANTA BARBARA DR, LANCASTER, SC, 29720",40694174,"R"
95102,"1869 TUCSON DRIVE","LEWISVILLE","TX",75077,33.0528465250001,-97.0422523239999,102,"1869 TUCSON DRIVE, LEWISVILLE, TX, 75077","Match","Exact","1869 TUCSON DR, LEWISVILLE, TX, 75077",103348113,"R"
95103,"18690 GRANDVILLE","DETROIT","MI",48219,42.42733938,-83.232046789,103,"18690 GRANDVILLE, DETROIT, MI, 48219","Match","Non_Exact","18690 GRANDVILLE AVE, DETROIT, MI, 48219",95421831,"R"
95104,"18690 MAIN STREET","TUOLUMNE","CA",95379,37.9621696470001,-120.238620073,104,"18690 MAIN STREET, TUOLUMNE, CA, 95379","Match","Exact","18690 MAIN ST, TUOLUMNE, CA, 95379",101408645,"L"
95105,"18690 VISTA DE ALMADEN COURT","SAN JOSE","CA",95120,37.2255614750001,-121.84616434,105,"18690 VISTA DE ALMADEN COURT, SAN JOSE, CA, 95120","Match","Exact","18690 VISTA DE ALMADEN CT, SAN JOSE, CA, 95120",122924130,"R"
95106,"18691 HARDSCRABBLE RD","MONTICELLO","IA",52310,42.2837307980001,-91.242467633,106,"18691 HARDSCRABBLE RD, MONTICELLO, IA, 52310","Match","Exact","18691 HARDSCRABBLE RD, MONTICELLO, IA, 52310",16516084,"L"
95107,"18693 COASTAL HIGHWAY","ROHOBOTH","DE",19971,38.7353041870001,-75.138920717,107,"18693 COASTAL HIGHWAY, ROHOBOTH, DE, 19971","Match","Non_Exact","18693 COASTAL HWY, REHOBOTH BCH, DE, 19971",106130515,"R"
95108,"18693 WHITCOMB","DETROIT","MI",48235,42.4274685410001,-83.197320922,108,"18693 WHITCOMB, DETROIT, MI, 48235","Match","Non_Exact","18693 WHITCOMB ST, DETROIT, MI, 48235",95424102,"L"
95109,"18695 W CLEVELAND AVE","NEW BERLIN","WI",53146,42.990797252,-88.1463337709999,109,"18695 W CLEVELAND AVE, NEW BERLIN, WI, 53146","Match","Exact","18695 W CLEVELAND AVE, NEW BERLIN, WI, 53146",53866305,"L"
95110,"18695 W CLEVELAND AVENUE","NEW BERLIN","WI",53146,42.990797252,-88.1463337709999,110,"18695 W CLEVELAND AVENUE, NEW BERLIN, WI, 53146","Match","Exact","18695 W CLEVELAND AVE, NEW BERLIN, WI, 53146",53866305,"L"
95111,"18696 CHERRYLAWN","DETROIT","MI",48221,42.4284425970001,-83.155401802,111,"18696 CHERRYLAWN, DETROIT, MI, 48221","Match","Non_Exact","18696 CHERRYLAWN ST, DETROIT, MI, 48221",95425526,"R"
95112,"18699 E COLORADO DR","AURORA","CO",80017,39.6844335530001,-104.769746537,112,"18699 E COLORADO DR, AURORA, CO, 80017","Match","Exact","18699 E COLORADO DR, AURORA, CO, 80017",177356956,"R"
95113,"187 43RD ST","PITTSBURGH","PA",15201,40.4711224210001,-79.961010668,113,"187 43RD ST, PITTSBURGH, PA, 15201","Match","Exact","187 43RD ST, PITTSBURGH, PA, 15201",51642277,"L"
95114,"187 APPLETON RD","NEW IPSWICH","NH",3071,42.770126674,-71.868226605,114,"187 APPLETON RD, NEW IPSWICH, NH, 3071","Match","Exact","187 APPLETON RD, NEW IPSWICH, NH, 03071",113524432,"R"
95115,"187 ATLAS STREET","SAN ANTONIO","TX",78223,29.3603552440001,-98.4421123179999,115,"187 ATLAS STREET, SAN ANTONIO, TX, 78223","Match","Exact","187 ATLAS ST, SAN ANTONIO, TX, 78223",101535222,"L"
95116,"187 BANNISTER ROAD","BREESPORT","NY",14816,42.1836990050001,-76.740718826,116,"187 BANNISTER ROAD, BREESPORT, NY, 14816","Match","Exact","187 BANNISTER RD, BREESPORT, NY, 14816",652668087,"L"
95117,"187 BLUE HILL PARKWAY","MILTON","MA",2186,42.258538796,-71.0977954479999,117,"187 BLUE HILL PARKWAY, MILTON, MA, 2186","Match","Non_Exact","187 BLUE HILL AVE, MILTON, MA, 02186",87246976,"R"
95118,"187 BROOKLINE ST 3","CAMBRIDGE","MA",2139,42.3593664420001,-71.105931944,118,"187 BROOKLINE ST 3, CAMBRIDGE, MA, 2139","Match","Exact","187 BROOKLINE ST, CAMBRIDGE, MA, 02139",651774860,"R"
95119,"187 BRYN MAWR DR","LAKE WORTH","FL",33460,26.6418094740001,-80.051731208,119,"187 BRYN MAWR DR, LAKE WORTH, FL, 33460","Match","Exact","187 BRYN MAWR DR, LAKE WORTH, FL, 33460",115281222,"L"
95120,"187 CAMPO RICO","FREDRIKSTED","VI",840,NA,NA,120,"187 CAMPO RICO, FREDRIKSTED, VI, 840","No_Match",NA,NA,NA,NA
95121,"187 CAPEN BLVD","AMHERST","NY",14226,42.961644096,-78.8208523549999,121,"187 CAPEN BLVD, AMHERST, NY, 14226","Match","Exact","187 CAPEN BLVD, AMHERST, NY, 14226",48295534,"R"
95122,"187 CENTRAL DR","AMHERST","OH",44001,41.398897902,-82.218779017,122,"187 CENTRAL DR, AMHERST, OH, 44001","Match","Exact","187 CENTRAL DR, AMHERST, OH, 44001",55416518,"L"
95123,"187 CHAUCER CT","COPPELL","TX",75019,32.9698928450001,-96.989757761,123,"187 CHAUCER CT, COPPELL, TX, 75019","Match","Exact","187 CHAUCER CT, COPPELL, TX, 75019",102993068,"R"
95124,"187 CIMARRON DR","MOON TWP","PA",15108,40.534945329,-80.2569045829999,124,"187 CIMARRON DR, MOON TWP, PA, 15108","Match","Exact","187 CIMARRON DR, MOON TOWNSHIP, PA, 15108",648085537,"R"
95125,"187 CLAUDE ISAACS ROAD","ELK PARK","NC",28622,36.1565520870001,-81.97123007,125,"187 CLAUDE ISAACS ROAD, ELK PARK, NC, 28622","Match","Exact","187 CLAUDE ISAACS RD, ELK PARK, NC, 28622",635942070,"R"
95126,"187 CLEMMER RD","ROCKINGHAM","NC",28379,34.9182136680001,-79.732743172,126,"187 CLEMMER RD, ROCKINGHAM, NC, 28379","Match","Exact","187 CLEMMER RD, ROCKINGHAM, NC, 28379",13920500,"R"
95127,"187 COUNTRY SKIRE LANE","JACKSONVILLE","FL",28540,NA,NA,127,"187 COUNTRY SKIRE LANE, JACKSONVILLE, FL, 28540","No_Match",NA,NA,NA,NA
95128,"187 E 9TH ST","FAYETTEVILLE","AR",72701,36.05379335,-94.157239709,128,"187 E 9TH ST, FAYETTEVILLE, AR, 72701","Match","Exact","187 E 9TH ST, FAYETTEVILLE, AR, 72701",49045796,"R"
95129,"187 E BLITHEDALE AVENUE","MILL VALLEY","CA",94941,37.90463033,-122.542861275,129,"187 E BLITHEDALE AVENUE, MILL VALLEY, CA, 94941","Match","Exact","187 E BLITHEDALE AVE, MILL VALLEY, CA, 94941",192766399,"L"
95130,"187 E POLK ST 62","COALINGA","CA",93210,NA,NA,130,"187 E POLK ST 62, COALINGA, CA, 93210","Tie",NA,NA,NA,NA
95131,"187 E POLK ST STE 6","COALINGA","CA",93210,NA,NA,131,"187 E POLK ST STE 6, COALINGA, CA, 93210","Tie",NA,NA,NA,NA
95132,"187 E WARM SPRINGS RD STE B172","LAS VEGAS","NV",89119,36.0569291570001,-115.163901301,132,"187 E WARM SPRINGS RD STE B172, LAS VEGAS, NV, 89119","Match","Non_Exact","187 E WARM SPRINGS RD, LAS VEGAS, NV, 89119",201870619,"R"
95133,"187 E WARM SPRINGS RD STE B185","LAS VEGAS","NV",89119,36.0569291570001,-115.163901301,133,"187 E WARM SPRINGS RD STE B185, LAS VEGAS, NV, 89119","Match","Non_Exact","187 E WARM SPRINGS RD, LAS VEGAS, NV, 89119",201870619,"R"
95134,"187 E WARM SPRINGS ROAD SUITE B153","LAS VEGAS","NV",89119,36.0569291570001,-115.163901301,134,"187 E WARM SPRINGS ROAD SUITE B153, LAS VEGAS, NV, 89119","Match","Non_Exact","187 E WARM SPRINGS RD, LAS VEGAS, NV, 89119",201870619,"R"
95135,"187 EAST B STREET","BENICIA","CA",94510,38.04497409,-122.159753583,135,"187 EAST B STREET, BENICIA, CA, 94510","Match","Exact","187 E B ST, BENICIA, CA, 94510",192544588,"L"
95136,"187 EAST MARKET STREET SUITE 202","RHINEBECK","NY",12572,41.928157615,-73.8980609659999,136,"187 EAST MARKET STREET SUITE 202, RHINEBECK, NY, 12572","Match","Exact","187 E MARKET ST, RHINEBECK, NY, 12572",4198433,"R"
95137,"187 EDGEMERE WAY S","NAPLES","FL",34105,26.183022216,-81.742545859,137,"187 EDGEMERE WAY S, NAPLES, FL, 34105","Match","Exact","187 EDGEMERE WAY S, NAPLES, FL, 34105",115157817,"R"
95138,"187 ELIS PASS","LEBANON","OH",45036,39.4344216320001,-84.27558265,138,"187 ELIS PASS, LEBANON, OH, 45036","Match","Non_Exact","187 ELI'S PASS, LEBANON, OH, 45036",640318808,"L"
95139,"187 EMERSON AVENUE","PATERSON","NJ",7502,40.9159658940001,-74.2013220329999,139,"187 EMERSON AVENUE, PATERSON, NJ, 7502","Match","Exact","187 EMERSON AVE, PATERSON, NJ, 07502",65260451,"L"
95140,"187 FAIR VIEW DRIVE","ARROYO GRANDE","CA",93420,35.122476846,-120.603608413,140,"187 FAIR VIEW DRIVE, ARROYO GRANDE, CA, 93420","Match","Exact","187 FAIR VIEW DR, ARROYO GRANDE, CA, 93420",645358188,"L"
95141,"187 FINCHVILLE TURNPIKE","OTISVILLE","NY",10963,41.450708311,-74.547160832,141,"187 FINCHVILLE TURNPIKE, OTISVILLE, NY, 10963","Match","Exact","187 FINCHVILLE TPKE, OTISVILLE, NY, 10963",124434113,"L"
95142,"187 FORT WAYNE AVE","RICHMOND","IN",47374,39.833349626,-84.892968711,142,"187 FORT WAYNE AVE, RICHMOND, IN, 47374","Match","Exact","187 FORT WAYNE AVE, RICHMOND, IN, 47374",645663027,"R"
95143,"187 GRAZIERVILLE ROAD","TYRONE","PA",16686,40.641190572,-78.2978304059999,143,"187 GRAZIERVILLE ROAD, TYRONE, PA, 16686","Match","Exact","187 GRAZIERVILLE RD, TYRONE, PA, 16686",49720531,"L"
95144,"187 GREENE AVENUE","SAYVILLE","NY",11782,40.7330250420001,-73.084469848,144,"187 GREENE AVENUE, SAYVILLE, NY, 11782","Match","Exact","187 GREENE AVE, SAYVILLE, NY, 11782",114015416,"L"
95145,"187 GRUMMAN AVENUE","NEWARK","NJ",7112,40.705537711,-74.219234082,145,"187 GRUMMAN AVENUE, NEWARK, NJ, 7112","Match","Exact","187 GRUMMAN AVE, NEWARK, NJ, 07112",63465211,"R"
95146,"187 HERMON HILL","CHRISTIANSTED","VI",820,NA,NA,146,"187 HERMON HILL, CHRISTIANSTED, VI, 820","No_Match",NA,NA,NA,NA
95147,"187 HOFFMAN BLVD","EAST ORANGE","NJ",7017,40.7736638540001,-74.1957276639999,147,"187 HOFFMAN BLVD, EAST ORANGE, NJ, 7017","Match","Exact","187 HOFFMAN BLVD, EAST ORANGE, NJ, 07017",63494582,"L"
95148,"187 HOUCK ROAD","FLEETWOOD","PA",19522,40.4365445230001,-75.823280207,148,"187 HOUCK ROAD, FLEETWOOD, PA, 19522","Match","Exact","187 HOUCK RD, FLEETWOOD, PA, 19522",653371304,"L"
95149,"187 KINGS GRANT ROAD","MARYVILLE","TN",37804,35.7961934800001,-83.882308221,149,"187 KINGS GRANT ROAD, MARYVILLE, TN, 37804","Match","Exact","187 KINGS GRANT RD, MARYVILLE, TN, 37804",607499314,"L"
95150,"187 LAKE POINTE CIRCLE","MIDDLE ISLAND","NY",11953,40.8810432550001,-72.932297757,150,"187 LAKE POINTE CIRCLE, MIDDLE ISLAND, NY, 11953","Match","Exact","187 LAKE POINTE CIR, MIDDLE ISLAND, NY, 11953",114012072,"L"
95151,"187 MAIN STREET","WETHERSFIELD","CT",6109,41.7110965110001,-72.653339913,151,"187 MAIN STREET, WETHERSFIELD, CT, 6109","Match","Exact","187 MAIN ST, WETHERSFIELD, CT, 06109",3517148,"L"
95152,"187 MARITIME TERRACE","HERCULES","CA",94547,38.02710003,-122.272351641,152,"187 MARITIME TERRACE, HERCULES, CA, 94547","Match","Exact","187 MARITIME TER, HERCULES, CA, 94547",618360641,"L"
95153,"187 MEREDITH AVE","MAWR","PA",19010,40.026925266,-75.339001975,153,"187 MEREDITH AVE, MAWR, PA, 19010","Match","Non_Exact","187 MEREDITH AVE, BRYN MAWR, PA, 19010",134872709,"L"
95154,"187 MILLERICK AVENUE","LAWRENCE","NJ",8648,40.266256293,-74.738656939,154,"187 MILLERICK AVENUE, LAWRENCE, NJ, 8648","Match","Exact","187 MILLERICK AVE, LAWRENCE, NJ, 08648",60171655,"L"
95155,"187 N 28TH ST","WYANDANCH","NY",11798,40.7553334030001,-73.3739658699999,155,"187 N 28TH ST, WYANDANCH, NY, 11798","Match","Exact","187 N 28TH ST, WYANDANCH, NY, 11798",114053532,"R"
95156,"187 N MAIN STREET","PLEASANTVILLE","NJ",8232,39.3952307600001,-74.519407434,156,"187 N MAIN STREET, PLEASANTVILLE, NJ, 8232","Match","Exact","187 N MAIN ST, PLEASANTVILLE, NJ, 08232",202486703,"L"
95157,"187 NAFTZINGERTOWN ROAD","MOHRSVILLE","PA",19541,40.49799453,-76.070383911,157,"187 NAFTZINGERTOWN ROAD, MOHRSVILLE, PA, 19541","Match","Exact","187 NAFTZINGERTOWN RD, MOHRSVILLE, PA, 19541",641857112,"R"
95158,"187 NEWTON STREET","NEW BEDFORD","MA",2740,41.638091268,-70.940342738,158,"187 NEWTON STREET, NEW BEDFORD, MA, 2740","Match","Exact","187 NEWTON ST, NEW BEDFORD, MA, 02740",46752071,"L"
95159,"187 NORTH CHURCH STREET SUITE 10","SPARTANBURG","SC",29306,34.9525161400001,-81.93324926,159,"187 NORTH CHURCH STREET SUITE 10, SPARTANBURG, SC, 29306","Match","Exact","187 N CHURCH ST, SPARTANBURG, SC, 29306",647227372,"R"
95160,"187 OAK KNOLL ST","NILES","OH",44446,41.177357844,-80.7378432099999,160,"187 OAK KNOLL ST, NILES, OH, 44446","Match","Non_Exact","187 OAK KNOLL ST SE, NILES, OH, 44446",117410006,"L"
95161,"187 ODYSSEY DRIVE","WILMINGTON","DE",19808,NA,NA,161,"187 ODYSSEY DRIVE, WILMINGTON, DE, 19808","No_Match",NA,NA,NA,NA
95162,"187 OLD FORGE ROAD","ELGIN","IL",60123,42.039596402,-88.322232013,162,"187 OLD FORGE ROAD, ELGIN, IL, 60123","Match","Exact","187 OLD FORGE RD, ELGIN, IL, 60123",119501157,"L"
95163,"187 OLD SWANZEY ROAD","SPOFFORD","NH",3462,42.889347215,-72.412504998,163,"187 OLD SWANZEY ROAD, SPOFFORD, NH, 3462","Match","Exact","187 OLD SWANZEY RD, SPOFFORD, NH, 03462",124078127,"R"
95164,"187 OSPREY HEIGHTS DR","WINTER HAVEN","FL",33880,27.982138617,-81.7807952059999,164,"187 OSPREY HEIGHTS DR, WINTER HAVEN, FL, 33880","Match","Exact","187 OSPREY HEIGHTS DR, WINTER HAVEN, FL, 33880",104875495,"L"
95165,"187 OVERLOOK DR","MILFORD","PA",18337,41.32977055,-74.974258831,165,"187 OVERLOOK DR, MILFORD, PA, 18337","Match","Exact","187 OVERLOOK DR, MILFORD, PA, 18337",648356444,"R"
95166,"187 PAVILION PARKWAY SUITE 209","NEWPORT","KY",41071,NA,NA,166,"187 PAVILION PARKWAY SUITE 209, NEWPORT, KY, 41071","No_Match",NA,NA,NA,NA
95167,"187 PERRILLOUX RD","MADISONVILLE","LA",70447,30.4338948000001,-90.2014367799999,167,"187 PERRILLOUX RD, MADISONVILLE, LA, 70447","Match","Exact","187 PERRILLOUX RD, MADISONVILLE, LA, 70447",111232669,"L"
95168,"187 PINE RIDGE DRIVE","WARREN","ME",4864,44.10907107,-69.23272959,168,"187 PINE RIDGE DRIVE, WARREN, ME, 4864","Match","Non_Exact","187 PINERIDGE DR, WARREN, ME, 04864",75567340,"R"
95169,"187 PLYMOUTH AVENUE BLDG 8","FALL RIVER","MA",2720,NA,NA,169,"187 PLYMOUTH AVENUE BLDG 8, FALL RIVER, MA, 2720","No_Match",NA,NA,NA,NA
95170,"187 REGENTS RD","GAHANNA","OH",43230,40.0233593470001,-82.8947807979999,170,"187 REGENTS RD, GAHANNA, OH, 43230","Match","Exact","187 REGENTS RD, GAHANNA, OH, 43230",218692176,"L"
95171,"187 REVOLUTIONARY RD","CHARLES TOWN","WV",25414,NA,NA,171,"187 REVOLUTIONARY RD, CHARLES TOWN, WV, 25414","No_Match",NA,NA,NA,NA
95172,"187 RIDGEVIEW HEIGHTS RD","PUNXSUTAWNEY","PA",15767,40.95310455,-78.938197615,172,"187 RIDGEVIEW HEIGHTS RD, PUNXSUTAWNEY, PA, 15767","Match","Exact","187 RIDGEVIEW HEIGHTS RD, PUNXSUTAWNEY, PA, 15767",66442875,"L"
95173,"187 ROBINSON LANE","WAPPINGERS FALLS","NY",12590,41.615565013,-73.82324011,173,"187 ROBINSON LANE, WAPPINGERS FALLS, NY, 12590","Match","Exact","187 ROBINSON LN, WAPPINGERS FALLS, NY, 12590",4230125,"L"
95174,"187 S GREEN ST    PO BOX 304","BERKELEY SPRINGS","WV",25411,39.62416913,-78.227572902,174,"187 S GREEN ST    PO BOX 304, BERKELEY SPRINGS, WV, 25411","Match","Non_Exact","187 S GREEN ST, BERKELEY SPRINGS, WV, 25411",645543178,"L"
95175,"187 SANTEE DR","CHOCOWINITY","NC",27817,35.4904928450001,-77.0537140609999,175,"187 SANTEE DR, CHOCOWINITY, NC, 27817","Match","Exact","187 SANTEE DR, CHOCOWINITY, NC, 27817",605430978,"L"
95176,"187 SCOTT ROAD","FITCHBURG","MA",1420,42.6077071180001,-71.824643238,176,"187 SCOTT ROAD, FITCHBURG, MA, 1420","Match","Exact","187 SCOTT RD, FITCHBURG, MA, 01420",40150388,"R"
95177,"187 SHELBURNE ROAD","BURLINGTON","VT",5401,44.460138585,-73.208137393,177,"187 SHELBURNE ROAD, BURLINGTON, VT, 5401","Match","Exact","187 SHELBURNE RD, BURLINGTON, VT, 05401",135828273,"R"
95178,"187 SPRING CREEK PARKWAY SUITE 101","SPRING CREEK","NV",89815,40.747873693,-115.603238228,178,"187 SPRING CREEK PARKWAY SUITE 101, SPRING CREEK, NV, 89815","Match","Exact","187 SPRING CREEK PKWY, SPRING CREEK, NV, 89815",154555373,"L"
95179,"187 STATE ROAD S-6 679","BARNWELL","SC",29812,NA,NA,179,"187 STATE ROAD S-6 679, BARNWELL, SC, 29812","No_Match",NA,NA,NA,NA
95180,"187 SW TIMBER RIDGE DR","LAKE CITY","FL",32024,30.149743684,-82.6989705409999,180,"187 SW TIMBER RIDGE DR, LAKE CITY, FL, 32024","Match","Exact","187 SW TIMBER RIDGE DR, LAKE CITY, FL, 32024",633579000,"R"
95181,"187 SYCAMORE STREET","BROWNSBURG","IN",46112,39.828295385,-86.397135259,181,"187 SYCAMORE STREET, BROWNSBURG, IN, 46112","Match","Exact","187 SYCAMORE ST, BROWNSBURG, IN, 46112",89211337,"R"
95182,"187 W WASHINGTON","STEPHENVILLE","TX",76401,32.2205017090001,-98.202469249,182,"187 W WASHINGTON, STEPHENVILLE, TX, 76401","Match","Non_Exact","187 W WASHINGTON ST, STEPHENVILLE, TX, 76401",158515167,"L"
95183,"187 WASHINGTON ST","N EASTON","MA",2356,42.075958654,-71.0881074019999,183,"187 WASHINGTON ST, N EASTON, MA, 2356","Match","Exact","187 WASHINGTON ST, NORTH EASTON, MA, 02356",46790457,"R"
95184,"187 WESCOTT DRIVE","RAHWAY","NJ",7065,40.595980625,-74.284075133,184,"187 WESCOTT DRIVE, RAHWAY, NJ, 7065","Match","Exact","187 WESCOTT DR, RAHWAY, NJ, 07065",60563176,"R"
95185,"187 WESTRIDGE DRIVE   P O BOX 8414","HUNTSVILLE","TX",77340,30.7082358430001,-95.5908221289999,185,"187 WESTRIDGE DRIVE   P O BOX 8414, HUNTSVILLE, TX, 77340","Match","Exact","187 WESTRIDGE DR, HUNTSVILLE, TX, 77340",22196831,"R"
95186,"187-08 UNION TURNPIKE","FRESH MEADOWS","NY",11366,40.7286754530001,-73.782789179,186,"187-08 UNION TURNPIKE, FRESH MEADOWS, NY, 11366","Match","Exact","187-8 UNION TPKE, FRESH MEADOWS, NY, 11366",59712261,"R"
95187,"1870 41ST STREET","ASTORIA","NY",11105,NA,NA,187,"1870 41ST STREET, ASTORIA, NY, 11105","No_Match",NA,NA,NA,NA
95188,"1870 ARDEN WAY","JACKSONVILLE BEACH","FL",32250,30.302161977,-81.410870729,188,"1870 ARDEN WAY, JACKSONVILLE BEACH, FL, 32250","Match","Exact","1870 ARDEN WAY, JACKSONVILLE BEACH, FL, 32250",83922664,"L"
95189,"1870 ARMSTRONG MILL RD","LEXINGTON","KY",40517,37.972494548,-84.4731979909999,189,"1870 ARMSTRONG MILL RD, LEXINGTON, KY, 40517","Match","Exact","1870 ARMSTRONG MILL RD, LEXINGTON, KY, 40517",31940878,"R"
95190,"1870 BALDWIN ROAD","YORKTOWN HEIGHTS","NY",10598,41.2733415050001,-73.7957299729999,190,"1870 BALDWIN ROAD, YORKTOWN HEIGHTS, NY, 10598","Match","Exact","1870 BALDWIN RD, YORKTOWN HEIGHTS, NY, 10598",139727956,"L"
95191,"1870 CROWN DR STE 1520","FARMERS BRANCH","TX",75234,32.8997439500001,-96.914211219,191,"1870 CROWN DR STE 1520, FARMERS BRANCH, TX, 75234","Match","Exact","1870 CROWN DR, FARMERS BRANCH, TX, 75234",102977337,"R"
95192,"1870 CUMBRE RD","PASO ROBLES","CA",93446,35.594893997,-120.662029183,192,"1870 CUMBRE RD, PASO ROBLES, CA, 93446","Match","Exact","1870 CUMBRE RD, PASO ROBLES, CA, 93446",109770064,"R"
95193,"1870 E HELMICK STREET","CARSON","CA",90745,33.8520730600001,-118.235858863,193,"1870 E HELMICK STREET, CARSON, CA, 90745","Match","Non_Exact","1870 E HELMICK ST, CARSON, CA, 90746",141681213,"R"
95194,"1870 EAST 79TH STREET","CLEVELAND","OH",44103,41.5072196300001,-81.633554703,194,"1870 EAST 79TH STREET, CLEVELAND, OH, 44103","Match","Exact","1870 E 79TH ST, CLEVELAND, OH, 44103",61114014,"R"
95195,"1870 EVELYN AVENUE","MEMPHIS","TN",38114,35.1230201400001,-89.999777626,195,"1870 EVELYN AVENUE, MEMPHIS, TN, 38114","Match","Exact","1870 EVELYN AVE, MEMPHIS, TN, 38114",72916939,"L"
95196,"1870 FIRCREST AVE","COUPEVILLE","WA",98239,48.1419487480001,-122.601362751,196,"1870 FIRCREST AVE, COUPEVILLE, WA, 98239","Match","Exact","1870 FIRCREST AVE, COUPEVILLE, WA, 98239",187614422,"L"
95197,"1870 FLICKER DR","SAINT LOUIS","MO",63031,38.8153130330001,-90.3470488199999,197,"1870 FLICKER DR, SAINT LOUIS, MO, 63031","Match","Non_Exact","1870 FLICKER DR, FLORISSANT, MO, 63031",100116032,"L"
95198,"1870 INDEPENDENCE SQUARE SUITE A","DUNWOODDY","GA",30038,33.9306629650001,-84.312446714,198,"1870 INDEPENDENCE SQUARE SUITE A, DUNWOODDY, GA, 30038","Match","Non_Exact","1870 INDEPENDENCE SQ, DUNWOODY, GA, 30338",23390433,"L"
95199,"1870 LAUREL BROOK LOOP","CASSELBERRY","FL",32707,28.6532410340001,-81.29900281,199,"1870 LAUREL BROOK LOOP, CASSELBERRY, FL, 32707","Match","Exact","1870 LAUREL BROOK LOOP, CASSELBERRY, FL, 32707",610507745,"L"
95200,"1870 LUDGATE LN","ROCHESTER HILLS","MI",48309,42.655514259,-83.174084436,200,"1870 LUDGATE LN, ROCHESTER HILLS, MI, 48309","Match","Exact","1870 LUDGATE LN, ROCHESTER HILLS, MI, 48309",69840396,"R"
95201,"1870 N HOYNE AVE","CHICAGO","IL",60647,41.9156679750001,-87.6800424309999,201,"1870 N HOYNE AVE, CHICAGO, IL, 60647","Match","Exact","1870 N HOYNE AVE, CHICAGO, IL, 60647",111763275,"L"
95202,"1870 NEW ORLEANS WAY","MCDONOUGH","GA",30252,33.422737587,-84.137570661,202,"1870 NEW ORLEANS WAY, MCDONOUGH, GA, 30252","Match","Exact","1870 NEW ORLEANS WAY, MCDONOUGH, GA, 30252",210420586,"L"
95203,"1870 NW PINE TREE WAY","STUART","FL",34494,27.2295404180001,-80.2784404129999,203,"1870 NW PINE TREE WAY, STUART, FL, 34494","Match","Non_Exact","1870 NW PINE TREE WAY, STUART, FL, 34994",120415233,"R"
95204,"1870 OSCAR FRYE ROAD","PINNACLE","NC",27043,36.3892323060001,-80.405744781,204,"1870 OSCAR FRYE ROAD, PINNACLE, NC, 27043","Match","Exact","1870 OSCAR FRYE RD, PINNACLE, NC, 27043",56338411,"L"
95205,"1870 POOL ROAD","FELTON","CA",95018,37.0332229960001,-122.090533761,205,"1870 POOL ROAD, FELTON, CA, 95018","Match","Exact","1870 POOL RD, FELTON, CA, 95018",125503274,"R"
95206,"1870 PROSPECT PLACE APT 1","BROOKLYN","NY",11233,40.672391615,-73.9149721749999,206,"1870 PROSPECT PLACE APT 1, BROOKLYN, NY, 11233","Match","Exact","1870 PROSPECT PL, BROOKLYN, NY, 11233",59083749,"R"
95207,"1870 RIGGS ROAD","DAYTON","TN",37321,35.539190708,-85.108563493,207,"1870 RIGGS ROAD, DAYTON, TN, 37321","Match","Exact","1870 RIGGS RD, DAYTON, TN, 37321",59207039,"L"
95208,"1870 ROUTE 47","WOODBINE","NJ",8270,39.203590574,-74.8823785449999,208,"1870 ROUTE 47, WOODBINE, NJ, 8270","Match","Non_Exact","1870 STATE RTE 47, WOODBINE, NJ, 08270",174334860,"L"
95209,"1870 S BERKELEY STREET","SALT LAKE CITY","UT",84108,40.7296079930001,-111.827404331,209,"1870 S BERKELEY STREET, SALT LAKE CITY, UT, 84108","Match","Exact","1870 BERKELEY ST, SALT LAKE CITY, UT, 84108",176081846,"R"
95210,"1870 S COURT ST","MONTGOMERY","AL",36104,32.354089833,-86.308461143,210,"1870 S COURT ST, MONTGOMERY, AL, 36104","Match","Exact","1870 S COURT ST, MONTGOMERY, AL, 36104",1475000,"R"
95211,"1870 SADDLE PARK PLACE","SAN JOSE","CA",95138,37.283169722,-121.792058846,211,"1870 SADDLE PARK PLACE, SAN JOSE, CA, 95138","Match","Non_Exact","1870 SADDLE PARK AVE, SAN JOSE, CA, 95138",627373817,"R"
95212,"1870 SAN MATEO PL","OXNARD","CA",93033,34.177846161,-119.157051621,212,"1870 SAN MATEO PL, OXNARD, CA, 93033","Match","Exact","1870 SAN MATEO PL, OXNARD, CA, 93033",109963261,"R"
95213,"1870 SECLUSION DR","PORT ORANGE","FL",32128,29.0743660680001,-81.0458029059999,213,"1870 SECLUSION DR, PORT ORANGE, FL, 32128","Match","Exact","1870 SECLUSION DR, PORT ORANGE, FL, 32128",94592875,"L"
95214,"1870 SPRUCE STREET","HIGHLAND PARK","IL",60035,42.186445393,-87.836221888,214,"1870 SPRUCE STREET, HIGHLAND PARK, IL, 60035","Match","Non_Exact","1870 SPRUCE AVE, HIGHLAND PARK, IL, 60035",119647745,"L"
95215,"1870 THE EXCHANGE SE","ATLANTA","GA",30339,33.9081144800001,-84.479149031,215,"1870 THE EXCHANGE SE, ATLANTA, GA, 30339","Match","Exact","1870 THE EXCHANGE SE, ATLANTA, GA, 30339",642620808,"R"
95216,"1870 THE EXCHANGE SUITE 100","ALTANTA","GA",30339,NA,NA,216,"1870 THE EXCHANGE SUITE 100, ALTANTA, GA, 30339","No_Match",NA,NA,NA,NA
95217,"1870 THE EXCHANGE SUITE 200-44","ATLANTA","GA",30339,NA,NA,217,"1870 THE EXCHANGE SUITE 200-44, ATLANTA, GA, 30339","No_Match",NA,NA,NA,NA
95218,"1870 W ASHLAN AVE 108","FRESNO","CA",93705,36.793812406,-119.832537208,218,"1870 W ASHLAN AVE 108, FRESNO, CA, 93705","Match","Non_Exact","1870 W ASHLAN AVE, FRESNO, CA, 93705",197568805,"R"
95219,"1870 W CLAIRE DRIVE","MERIDIAN","ID",83646,43.6298086040001,-116.417264679,219,"1870 W CLAIRE DRIVE, MERIDIAN, ID, 83646","Match","Exact","1870 W CLAIRE DR, MERIDIAN, ID, 83646",117914859,"L"
95220,"1870 WASMER CIRCLE","BOSQUE FARMS","NM",87068,34.845203058,-106.696872437,220,"1870 WASMER CIRCLE, BOSQUE FARMS, NM, 87068","Match","Exact","1870 WASMER CIR, BOSQUE FARMS, NM, 87068",179193873,"L"
95221,"1870 WHITEHAVEN ROAD","GRAND ISLAND","NY",14072,43.0217322070001,-78.961306726,221,"1870 WHITEHAVEN ROAD, GRAND ISLAND, NY, 14072","Match","Exact","1870 WHITEHAVEN RD, GRAND ISLAND, NY, 14072",48283917,"L"
95222,"18700 BEACH BLVD STE 140","HUNTINGTON BEACH","CA",92648,33.6916264290001,-117.988722626,222,"18700 BEACH BLVD STE 140, HUNTINGTON BEACH, CA, 92648","Match","Exact","18700 BEACH BLVD, HUNTINGTON BEACH, CA, 92648",609061449,"L"
95223,"18700 CARROT ST","SPRING","TX",77379,30.0414125190001,-95.49431593,223,"18700 CARROT ST, SPRING, TX, 77379","Match","Exact","18700 CARROT ST, SPRING, TX, 77379",96007602,"R"
95224,"18700 HIGHWOODS PRESERVE PARKWAY","TEMPA","FL",33647,NA,NA,224,"18700 HIGHWOODS PRESERVE PARKWAY, TEMPA, FL, 33647","No_Match",NA,NA,NA,NA
95225,"18700 LAKE PERRIS DRIVE","PERRIS","CA",92570,33.861733622,-117.200879681,225,"18700 LAKE PERRIS DRIVE, PERRIS, CA, 92570","Match","Non_Exact","18700 LAKE PERRIS DR, PERRIS, CA, 92571",637292913,"R"
95226,"18700 S NORMANDIE AVE STE A","GARDENA","CA",90248,33.861691271,-118.299214692,226,"18700 S NORMANDIE AVE STE A, GARDENA, CA, 90248","Match","Non_Exact","18700 S NORMANDIE AVE, GARDENA, CA, 90248",141667205,"L"
95227,"18700 WEST TEN MILE ROAD SUITE 110","SOUTHFIELD","MI",48075,42.473236038,-83.227908773,227,"18700 WEST TEN MILE ROAD SUITE 110, SOUTHFIELD, MI, 48075","Match","Exact","18700 W 10 MILE RD, SOUTHFIELD, MI, 48075",69739345,"R"
95228,"18701 GRAND RIVER -  SUITE 165","DETROIT","MI",48223,42.4036854300001,-83.2257258829999,228,"18701 GRAND RIVER -  SUITE 165, DETROIT, MI, 48223","Match","Non_Exact","18701 GRAND RIVER AVE, DETROIT, MI, 48223",95422473,"L"
95229,"18701 GRAND RIVER AVE  STE 110","DETROIT","MI",48223,42.4036854300001,-83.2257258829999,229,"18701 GRAND RIVER AVE  STE 110, DETROIT, MI, 48223","Match","Exact","18701 GRAND RIVER AVE, DETROIT, MI, 48223",95422473,"L"
95230,"18701 GRAND RIVER AVE 181","DETROIT","MI",48223,42.4036854300001,-83.2257258829999,230,"18701 GRAND RIVER AVE 181, DETROIT, MI, 48223","Match","Exact","18701 GRAND RIVER AVE, DETROIT, MI, 48223",95422473,"L"
95231,"18701 GRAND RIVER AVE SUITE 371","DETROIT","MI",48223,42.4036854300001,-83.2257258829999,231,"18701 GRAND RIVER AVE SUITE 371, DETROIT, MI, 48223","Match","Exact","18701 GRAND RIVER AVE, DETROIT, MI, 48223",95422473,"L"
95232,"18701 GRAND RIVER AVE","DETROIT","MI",48223,42.4036854300001,-83.2257258829999,232,"18701 GRAND RIVER AVE, DETROIT, MI, 48223","Match","Exact","18701 GRAND RIVER AVE, DETROIT, MI, 48223",95422473,"L"
95233,"18701 GRAND RIVER AVENUE 118","DETROIT","MI",48223,42.4036854300001,-83.2257258829999,233,"18701 GRAND RIVER AVENUE 118, DETROIT, MI, 48223","Match","Exact","18701 GRAND RIVER AVE, DETROIT, MI, 48223",95422473,"L"
95234,"18701 GRAND RIVER SUITE 201","DETROIT","MI",48223,42.4036854300001,-83.2257258829999,234,"18701 GRAND RIVER SUITE 201, DETROIT, MI, 48223","Match","Non_Exact","18701 GRAND RIVER AVE, DETROIT, MI, 48223",95422473,"L"
95235,"18701 HERCULES ST","HESPERIA","CA",92345,34.437354741,-117.255081092,235,"18701 HERCULES ST, HESPERIA, CA, 92345","Match","Exact","18701 HERCULES ST, HESPERIA, CA, 92345",144589108,"R"
95236,"18701 W GRAND RIVER AVE 110","DETROIT","MI",48223,42.40368628,-83.225727988,236,"18701 W GRAND RIVER AVE 110, DETROIT, MI, 48223","Match","Exact","18701 GRAND RIVER AVE, DETROIT, MI, 48223",95422473,"L"
95237,"18701 WALMER LN","BEVERLY HILLS","MI",48025,42.518101275,-83.230797325,237,"18701 WALMER LN, BEVERLY HILLS, MI, 48025","Match","Exact","18701 WALMER LN, BEVERLY HILLS, MI, 48025",69784582,"L"
95238,"18702 AVENUE 14","MADERA","CA",93637,36.9526791770001,-120.207211127,238,"18702 AVENUE 14, MADERA, CA, 93637","Match","Exact","18702 AVE 14, MADERA, CA, 93637",102336703,"R"
95239,"18702 WICKHAM RD","OLNEY","MD",20832,39.1695350730001,-77.102840478,239,"18702 WICKHAM RD, OLNEY, MD, 20832","Match","Exact","18702 WICKHAM RD, OLNEY, MD, 20832",640170928,"L"
95240,"18703 TIMBERS EDGE DR","HUMBLE","TX",77346,29.993622863,-95.196980434,240,"18703 TIMBERS EDGE DR, HUMBLE, TX, 77346","Match","Exact","18703 TIMBERS EDGE DR, HUMBLE, TX, 77346",96426770,"L"
95241,"18703 WEST LITTLE YORK RD SUITE 407","KATY","TX",77449,29.8648355500001,-95.693167619,241,"18703 WEST LITTLE YORK RD SUITE 407, KATY, TX, 77449","Match","Exact","18703 W LITTLE YORK RD, KATY, TX, 77449",642105529,"R"
95242,"18703 WOOD GLEN LANE","HOUSTON","TX",77084,29.8296263020001,-95.691905129,242,"18703 WOOD GLEN LANE, HOUSTON, TX, 77084","Match","Exact","18703 WOOD GLEN LN, HOUSTON, TX, 77084",96015629,"R"
95243,"18704 CALEDONIA COURT UNIT A","GERMANTOWN","MD",20874,39.162256771,-77.250914451,243,"18704 CALEDONIA COURT UNIT A, GERMANTOWN, MD, 20874","Match","Exact","18704 CALEDONIA CT, GERMANTOWN, MD, 20874",62091766,"L"
95244,"18704 HARDING AVE","FLOSSMOOR","IL",60422,41.549536382,-87.712253206,244,"18704 HARDING AVE, FLOSSMOOR, IL, 60422","Match","Exact","18704 HARDING AVE, FLOSSMOOR, IL, 60422",111707559,"R"
95245,"18704 S 114TH AVE","MOKENA","IL",60448,41.549485084,-87.894867483,245,"18704 S 114TH AVE, MOKENA, IL, 60448","Match","Exact","18704 114TH AVE, MOKENA, IL, 60448",649450836,"L"
95246,"18705 95TH AVE CT E","PUYALLUP","WA",98375,47.086197746,-122.303340026,246,"18705 95TH AVE CT E, PUYALLUP, WA, 98375","Match","Exact","18705 95TH AVENUE CT E, PUYALLUP, WA, 98375",184764830,"L"
95247,"18707 CROSSTIMBER","SAN ANTONIO","TX",78258,29.615465796,-98.540407488,247,"18707 CROSSTIMBER, SAN ANTONIO, TX, 78258","Match","Exact","18707 CROSSTIMBER, SAN ANTONIO, TX, 78258",101588644,"L"
95248,"18707 HUBBARD RD","EAST MOLINE","IL",61244,NA,NA,248,"18707 HUBBARD RD, EAST MOLINE, IL, 61244","No_Match",NA,NA,NA,NA
95249,"18707 LIBBY RD","MAPLE","OH",44137,41.4169977560001,-81.5487026339999,249,"18707 LIBBY RD, MAPLE, OH, 44137","Match","Non_Exact","18707 LIBBY RD, MAPLE HEIGHTS, OH, 44137",61129925,"L"
95250,"18707 SAGEWOOD DRIVE","DALLAS","TX",75252,33.005697904,-96.7840481109999,250,"18707 SAGEWOOD DRIVE, DALLAS, TX, 75252","Match","Exact","18707 SAGEWOOD DR, DALLAS, TX, 75252",123484583,"L"
95251,"18708 COLTMAN AVE","CARSON","CA",90746,33.8610534630001,-118.273960995,251,"18708 COLTMAN AVE, CARSON, CA, 90746","Match","Exact","18708 COLTMAN AVE, CARSON, CA, 90746",141667990,"L"
95252,"18708 SHAUNA MANOR DR","BOCA RATON","FL",33496,26.398131262,-80.201421131,252,"18708 SHAUNA MANOR DR, BOCA RATON, FL, 33496","Match","Exact","18708 SHAUNA MANOR DR, BOCA RATON, FL, 33496",115484202,"R"
95253,"18709 WILLIAM ANDERSON DR","PFLUGERVILLE","TX",78660,30.479100569,-97.6225364379999,253,"18709 WILLIAM ANDERSON DR, PFLUGERVILLE, TX, 78660","Match","Exact","18709 WILLIAM ANDERSON DR, PFLUGERVILLE, TX, 78660",639629008,"L"
95254,"1871 BYRD AVENUE","EAST MEADOW","NY",11554,40.7162235810001,-73.5586063809999,254,"1871 BYRD AVENUE, EAST MEADOW, NY, 11554","Match","Non_Exact","1871 BYRD DR, EAST MEADOW, NY, 11554",147632681,"L"
95255,"1871 CAMPUS RD","LOS ANGELES","CA",90041,34.130240777,-118.209634384,255,"1871 CAMPUS RD, LOS ANGELES, CA, 90041","Match","Exact","1871 CAMPUS RD, LOS ANGELES, CA, 90041",142254224,"L"
95256,"1871 CEDAR BEND DRIVE","COMMERCE","MI",48382,42.58762159,-83.5127367649999,256,"1871 CEDAR BEND DRIVE, COMMERCE, MI, 48382","Match","Non_Exact","1871 CEDAR BEND DR, COMMERCE TOWNSHIP, MI, 48382",69788546,"R"
95257,"1871 COMMONWEALTH AVENUE","BRIGHTON","MA",2135,42.338539971,-71.15282553,257,"1871 COMMONWEALTH AVENUE, BRIGHTON, MA, 2135","Match","Exact","1871 COMMONWEALTH AVE, BRIGHTON, MA, 02135",85695983,"R"
95258,"1871 CR 130","EDNA","TX",77957,29.1030835350001,-96.7723447669999,258,"1871 CR 130, EDNA, TX, 77957","Match","Exact","1871 CO RD 130, EDNA, TX, 77957",42125264,"R"
95259,"1871 FALLBROOK LANE","CINCINNATI","OH",45240,39.3059695640001,-84.550183642,259,"1871 FALLBROOK LANE, CINCINNATI, OH, 45240","Match","Exact","1871 FALLBROOK LN, CINCINNATI, OH, 45240",103942701,"L"
95260,"1871 FOREST LANE","CROWN POINT","IN",46307,41.397985799,-87.2173729689999,260,"1871 FOREST LANE, CROWN POINT, IN, 46307","Match","Exact","1871 FOREST LN, CROWN POINT, IN, 46307",646569270,"L"
95261,"1871 GATES AVE","KINGMAN","AZ",86401,35.205962243,-114.03513548,261,"1871 GATES AVE, KINGMAN, AZ, 86401","Match","Exact","1871 GATES AVE, KINGMAN, AZ, 86401",190329604,"L"
95262,"1871 GRANT 11","SHERIDAN","AR",72150,34.20237288,-92.491628245,262,"1871 GRANT 11, SHERIDAN, AR, 72150","Match","Exact","1871 GRANT 11, SHERIDAN, AR, 72150",2489943,"L"
95263,"1871 GRANTLEY RD","YORK","PA",17403,39.930149822,-76.725534295,263,"1871 GRANTLEY RD, YORK, PA, 17403","Match","Exact","1871 GRANTLEY RD, YORK, PA, 17403",639082701,"L"
95264,"1871 HARWITCH RD","UPPER ARLINGTON","OH",43221,40.0166464380001,-83.06219721,264,"1871 HARWITCH RD, UPPER ARLINGTON, OH, 43221","Match","Exact","1871 HARWITCH RD, UPPER ARLINGTON, OH, 43221",218691502,"L"
95265,"1871 LINWOOD AVE","EAST POINT","GA",30344,33.6802534120001,-84.449631,265,"1871 LINWOOD AVE, EAST POINT, GA, 30344","Match","Exact","1871 LINWOOD AVE, EAST POINT, GA, 30344",17347768,"R"
95266,"1871 LIVINGSTON STREET","CARLYLE","IL",62231,38.6131028620001,-89.381507085,266,"1871 LIVINGSTON STREET, CARLYLE, IL, 62231","Match","Exact","1871 LIVINGSTON ST, CARLYLE, IL, 62231",94809952,"L"
95267,"1871 N CLYBOURN AVE  SUITE 205","CHICAGO","IL",60614,41.9151467230001,-87.655407307,267,"1871 N CLYBOURN AVE  SUITE 205, CHICAGO, IL, 60614","Match","Non_Exact","1871 N CLYBOURN AVE, CHICAGO, IL, 60614",111764650,"R"
95268,"1871 N MAIN AVE","BLANCHARD","OK",73010,NA,NA,268,"1871 N MAIN AVE, BLANCHARD, OK, 73010","No_Match",NA,NA,NA,NA
95269,"1871 PLAYER CIR S","MELBOURNE","FL",32935,28.151643316,-80.652156216,269,"1871 PLAYER CIR S, MELBOURNE, FL, 32935","Match","Exact","1871 PLAYER CIR S, MELBOURNE, FL, 32935",93929863,"L"
95270,"1871 SATTERFIELD DR","POCATELLO","ID",83201,42.909310928,-112.409907928,270,"1871 SATTERFIELD DR, POCATELLO, ID, 83201","Match","Exact","1871 SATTERFIELD DR, POCATELLO, ID, 83201",204360108,"R"
95271,"1871 WEDGEWOOD PLACE","AVON","IN",46123,39.7362813980001,-86.36710514,271,"1871 WEDGEWOOD PLACE, AVON, IN, 46123","Match","Exact","1871 WEDGEWOOD PL, AVON, IN, 46123",646584252,"L"
95272,"1871 WHITNEY BURCHE TRAIL","BURLINGTON","NC",27217,36.215948795,-79.339920058,272,"1871 WHITNEY BURCHE TRAIL, BURLINGTON, NC, 27217","Match","Exact","1871 WHITNEY BURCHE TRL, BURLINGTON, NC, 27217",71700285,"L"
95273,"1871 WILDEY RD","NUNDA","NY",14517,42.60671116,-77.9436273709999,273,"1871 WILDEY RD, NUNDA, NY, 14517","Match","Exact","1871 WILDEY RD, NUNDA, NY, 14517",14475429,"L"
95274,"1871 ZENATO PLACE","PLEASANTON","CA",94566,37.6450194760001,-121.822580768,274,"1871 ZENATO PLACE, PLEASANTON, CA, 94566","Match","Exact","1871 ZENATO PL, PLEASANTON, CA, 94566",125061827,"R"
95275,"18710 PIER POINT PLACE","MONTGOMERY VILLAGE","MD",20886,39.1615061960001,-77.1983744039999,275,"18710 PIER POINT PLACE, MONTGOMERY VILLAGE, MD, 20886","Match","Exact","18710 PIER POINT PL, MONTGOMERY VILLAGE, MD, 20886",62050710,"L"
95276,"18710 WEATHERFORD CIRCLE","LOUISVILLE","KY",40245,38.2399208030001,-85.4223019889999,276,"18710 WEATHERFORD CIRCLE, LOUISVILLE, KY, 40245","Match","Exact","18710 WEATHERFORD CIR, LOUISVILLE, KY, 40245",96939835,"R"
95277,"18710 WESTPHALIA ST","DETROIT","MI",48205,42.431836655,-82.9923021659999,277,"18710 WESTPHALIA ST, DETROIT, MI, 48205","Match","Exact","18710 WESTPHALIA ST, DETROIT, MI, 48205",95467673,"R"
95278,"18711 DESERT MARIGOLD DRIVE","HOUSTON","TX",77073,29.9700208850001,-95.408461844,278,"18711 DESERT MARIGOLD DRIVE, HOUSTON, TX, 77073","Match","Exact","18711 DESERT MARIGOLD DR, HOUSTON, TX, 77073",633576348,"R"
95279,"18711 EGRET BLVD  -603","AUSTIN","TX",77058,NA,NA,279,"18711 EGRET BLVD  -603, AUSTIN, TX, 77058","No_Match",NA,NA,NA,NA
95280,"18711 NW CR 239","ALACHUA","FL",32615,NA,NA,280,"18711 NW CR 239, ALACHUA, FL, 32615","Tie",NA,NA,NA,NA
95281,"18711 S BROADWICK STREET    UNIT A","RANCHO DOMINGQUEZ","CA",90220,33.860272514,-118.232201972,281,"18711 S BROADWICK STREET    UNIT A, RANCHO DOMINGQUEZ, CA, 90220","Match","Non_Exact","18711 S BROADWICK ST, RANCHO DOMINGUEZ, CA, 90220",241251232,"L"
95282,"18712 NATHAN HILLS DRIVE","CANYON COUNTRY","CA",91351,34.4207019790001,-118.461864761,282,"18712 NATHAN HILLS DRIVE, CANYON COUNTRY, CA, 91351","Match","Non_Exact","18712 NATHAN HILL DR, CANYON COUNTRY, CA, 91351",640112020,"L"
95283,"18713 109TH LN SE","RENTON","WA",98055,47.4348099600001,-122.194825245,283,"18713 109TH LN SE, RENTON, WA, 98055","Match","Exact","18713 109TH LN SE, RENTON, WA, 98055",187109854,"L"
95284,"18713 COUNTY LINE RD NE","STRATHCONA","MN",56759,48.5436322140001,-96.068271782,284,"18713 COUNTY LINE RD NE, STRATHCONA, MN, 56759","Match","Exact","18713 COUNTY LINE RD NE, STRATHCONA, MN, 56759",171357939,"R"
95285,"18715 MEMORIAL SPRINGS PASS","TOMBALL","TX",77375,30.0338097900001,-95.580784417,285,"18715 MEMORIAL SPRINGS PASS, TOMBALL, TX, 77375","Match","Exact","18715 MEMORIAL SPRINGS PASS, TOMBALL, TX, 77375",624995790,"L"
95286,"18715 ROGERS LAKE","SAN ANTONIO","TX",78258,29.615999779,-98.5331148939999,286,"18715 ROGERS LAKE, SAN ANTONIO, TX, 78258","Match","Exact","18715 ROGERS LAKE, SAN ANTONIO, TX, 78258",101588564,"R"
95287,"18715 WILLINGTON CIRCLE","LOUISVILLE","KY",40245,38.237309564,-85.4194913379999,287,"18715 WILLINGTON CIRCLE, LOUISVILLE, KY, 40245","Match","Exact","18715 WILLINGTON CIR, LOUISVILLE, KY, 40245",634137368,"R"
95288,"18716 N CACTUS FLOWER WAY","SURPRISE","AZ",85387,33.654407297,-112.448337461,288,"18716 N CACTUS FLOWER WAY, SURPRISE, AZ, 85387","Match","Exact","18716 N CACTUS FLOWER WAY, SURPRISE, AZ, 85387",243993629,"L"
95289,"18717 HUBBARD RD","EAST MOLINE","IL",61244,NA,NA,289,"18717 HUBBARD RD, EAST MOLINE, IL, 61244","No_Match",NA,NA,NA,NA
95290,"18718 GLENN HAVEN ESTATES DR","SPRING","TX",77379,30.036991358,-95.547366887,290,"18718 GLENN HAVEN ESTATES DR, SPRING, TX, 77379","Match","Exact","18718 GLENN HAVEN ESTATES DR, SPRING, TX, 77379",640074083,"L"
95291,"1872 BAYLOR DRIVE","ROCK HILL","SC",29732,34.9835280570001,-81.0056555909999,291,"1872 BAYLOR DRIVE, ROCK HILL, SC, 29732","Match","Exact","1872 BAYLOR DR, ROCK HILL, SC, 29732",19815830,"L"
95292,"1872 CHICORY RIDGE","ANN ARBOR","MI",48103,42.2582924540001,-83.790432785,292,"1872 CHICORY RIDGE, ANN ARBOR, MI, 48103","Match","Exact","1872 CHICORY RIDGE, ANN ARBOR, MI, 48103",26036385,"R"
95293,"1872 FALLEN LEAF LANE","LOS ALTOS","CA",94024,37.34537843,-122.066015392,293,"1872 FALLEN LEAF LANE, LOS ALTOS, CA, 94024","Match","Exact","1872 FALLEN LEAF LN, LOS ALTOS, CA, 94024",122935804,"R"
95294,"1872 FM 2443","KENEDY","TX",78119,28.7321805240001,-97.740250465,294,"1872 FM 2443, KENEDY, TX, 78119","Match","Exact","1872 FM 2443, KENEDY, TX, 78119",36159475,"L"
95295,"1872 G ROAD","UNADILLA","NE",68454,40.6968940740001,-96.286576586,295,"1872 G ROAD, UNADILLA, NE, 68454","Match","Exact","1872 G RD, UNADILLA, NE, 68454",10397926,"L"
95296,"1872 PLAINS ROAD","PERKINSVILLE","VT",5151,43.402075628,-72.488351853,296,"1872 PLAINS ROAD, PERKINSVILLE, VT, 5151","Match","Exact","1872 PLAINS RD, PERKINSVILLE, VT, 05151",139264836,"L"
95297,"1872 SAINT PETERS ROAD","POTTSTOWN","PA",19465,40.2159710130001,-75.707839817,297,"1872 SAINT PETERS ROAD, POTTSTOWN, PA, 19465","Match","Exact","1872 SAINT PETERS RD, POTTSTOWN, PA, 19465",636457408,"R"
95298,"1872 SIMONTON RD APT H","STATESVILLE","NC",28625,35.80077708,-80.8522860849999,298,"1872 SIMONTON RD APT H, STATESVILLE, NC, 28625","Match","Exact","1872 SIMONTON RD, STATESVILLE, NC, 28625",647214445,"R"
95299,"1872 TALISKER DR","MEMPHIS","TN",38016,35.176431328,-89.7320729429999,299,"1872 TALISKER DR, MEMPHIS, TN, 38016","Match","Non_Exact","1872 TALISKER DR, CORDOVA, TN, 38016",612564880,"R"
95300,"1872 TRISTAN DRIVE","SMYRNA","GA",30080,33.849461128,-84.4994430259999,300,"1872 TRISTAN DRIVE, SMYRNA, GA, 30080","Match","Non_Exact","1872 TRISTAN DR SE, SMYRNA, GA, 30080",17218895,"L"
95301,"1872 WINDY CREEK","GLENDALE","OR",97442,42.765210052,-123.395996545,301,"1872 WINDY CREEK, GLENDALE, OR, 97442","Match","Non_Exact","1872 WINDY CREEK RD, GLENDALE, OR, 97442",137209627,"R"
95302,"18720 FOREST GLEN CT","TAMPA","FL",33647,28.1497910000001,-82.3385794709999,302,"18720 FOREST GLEN CT, TAMPA, FL, 33647","Match","Exact","18720 FOREST GLEN CT, TAMPA, FL, 33647",104699722,"R"
95303,"18720 NW 27 AVE APT 103","MIAMI GARDENS","FL",33056,25.9453088610001,-80.245535294,303,"18720 NW 27 AVE APT 103, MIAMI GARDENS, FL, 33056","Match","Non_Exact","18720 NW 27TH AVE, MIAMI GARDENS, FL, 33056",609040116,"L"
95304,"18720 STONE OAK PARKWAY SUITE 207","SAN ANTONIO","TX",78258,NA,NA,304,"18720 STONE OAK PARKWAY SUITE 207, SAN ANTONIO, TX, 78258","No_Match",NA,NA,NA,NA
95305,"18721 BIG TIMBER RD","TYLER","TX",75703,32.207558211,-95.293611201,305,"18721 BIG TIMBER RD, TYLER, TX, 75703","Match","Exact","18721 BIG TIMBER RD, TYLER, TX, 75703",141306971,"L"
95306,"18721 TRAVIS LANE","STILWELL","KS",66085,38.7874000240001,-94.6657694579999,306,"18721 TRAVIS LANE, STILWELL, KS, 66085","Match","Exact","18721 TRAVIS LN, STILWELL, KS, 66085",625303071,"R"
95307,"18722 VAN FLEET AVE","SANDY","OR",97055,45.3883472430001,-122.255164304,307,"18722 VAN FLEET AVE, SANDY, OR, 97055","Match","Exact","18722 VAN FLEET AVE, SANDY, OR, 97055",624572770,"R"
95308,"18723 FORT SMITH CIR","PORT CHARLOTTE","FL",33948,26.9575138500001,-82.142520745,308,"18723 FORT SMITH CIR, PORT CHARLOTTE, FL, 33948","Match","Exact","18723 FT SMITH CIR, PORT CHARLOTTE, FL, 33948",4301630,"L"
95309,"18723 HAYNES STREET","RESEDA","CA",91335,34.1892337300001,-118.541236195,309,"18723 HAYNES STREET, RESEDA, CA, 91335","Match","Exact","18723 HAYNES ST, RESEDA, CA, 91335",141554491,"R"
95310,"18723 VIA PRINCESSA 202","SANTA CLARTIA","CA",91387,34.4050792240001,-118.464287298,310,"18723 VIA PRINCESSA 202, SANTA CLARTIA, CA, 91387","Match","Non_Exact","18723 VIA PRINCESSA, SANTA CLARITA, CA, 91387",640425286,"R"
95311,"18723 VIA PRINCESSA 409","SANTA CLARITA","CA",91387,34.4050792240001,-118.464287298,311,"18723 VIA PRINCESSA 409, SANTA CLARITA, CA, 91387","Match","Exact","18723 VIA PRINCESSA, SANTA CLARITA, CA, 91387",640425286,"R"
95312,"18725 EAST LINVALE PL","AURORA","CO",80013,39.6667257870001,-104.770241818,312,"18725 EAST LINVALE PL, AURORA, CO, 80013","Match","Exact","18725 E LINVALE PL, AURORA, CO, 80013",177519240,"R"
95313,"18725 SHANNON CR RD","OLSBURG","KS",66520,39.4698471520001,-96.613527735,313,"18725 SHANNON CR RD, OLSBURG, KS, 66520","Match","Exact","18725 SHANNON CREEK RD, OLSBURG, KS, 66520",22303847,"R"
95314,"18726 RIVER MEADOWS RD","HOUSTON","TX",77084,29.837088447,-95.6959016389999,314,"18726 RIVER MEADOWS RD, HOUSTON, TX, 77084","Match","Non_Exact","18726 RIVER MEADOWS LN, HOUSTON, TX, 77084",640071477,"L"
95315,"18726 S WESTERN AVE SUITE 205","GARDENA","CA",90248,33.8613161660001,-118.309139793,315,"18726 S WESTERN AVE SUITE 205, GARDENA, CA, 90248","Match","Non_Exact","18726 S WESTERN AVE, GARDENA, CA, 90248",142848525,"L"
95316,"18729 TALLEY AVE","JBER","AK",99506,NA,NA,316,"18729 TALLEY AVE, JBER, AK, 99506","No_Match",NA,NA,NA,NA
95317,"1873 BROOKSTONE DRIVE","MONTGOMERY","AL",36117,32.3482568090001,-86.170248841,317,"1873 BROOKSTONE DRIVE, MONTGOMERY, AL, 36117","Match","Exact","1873 BROOKSTONE DR, MONTGOMERY, AL, 36117",1546218,"L"
95318,"1873 DEKALB AVE","RIDGEWOOD","NY",11385,40.707485879,-73.915999235,318,"1873 DEKALB AVE, RIDGEWOOD, NY, 11385","Match","Exact","1873 DEKALB AVE, RIDGEWOOD, NY, 11385",59693167,"L"
95319,"1873 JIM BARNWELL RD","BURLINGTON","NC",27217,36.1472652090001,-79.385933183,319,"1873 JIM BARNWELL RD, BURLINGTON, NC, 27217","Match","Exact","1873 JIM BARNWELL RD, BURLINGTON, NC, 27217",71724638,"R"
95320,"1873 LAFAYETTE AVE","BRONX","NY",10473,40.821727029,-73.860470788,320,"1873 LAFAYETTE AVE, BRONX, NY, 10473","Match","Exact","1873 LAFAYETTE AVE, BRONX, NY, 10473",80305079,"L"
95321,"1873 NE 37 PL","HOMESTEAD","FL",33033,25.487708965,-80.421070926,321,"1873 NE 37 PL, HOMESTEAD, FL, 33033","Match","Exact","1873 NE 37TH PL, HOMESTEAD, FL, 33033",624335465,"R"
95322,"1873 NE 37 PLACE","HOMESTEAD","FL",33033,25.487708965,-80.421070926,322,"1873 NE 37 PLACE, HOMESTEAD, FL, 33033","Match","Exact","1873 NE 37TH PL, HOMESTEAD, FL, 33033",624335465,"R"
95323,"1873 PANORAMA DRIVE","CARBONDALE","CO",81623,39.4483160190001,-107.124430919,323,"1873 PANORAMA DRIVE, CARBONDALE, CO, 81623","Match","Exact","1873 PANORAMA DR, CARBONDALE, CO, 81623",649968872,"R"
95324,"1873 PEBBLE LAKE DRIVE","BIRMINGHAM","AL",35235,33.631479971,-86.64680663,324,"1873 PEBBLE LAKE DRIVE, BIRMINGHAM, AL, 35235","Match","Exact","1873 PEBBLE LAKE DR, BIRMINGHAM, AL, 35235",81656712,"L"
95325,"1873 PR 2290","QUINLAN","TX",75474,32.9204530370001,-96.164236202,325,"1873 PR 2290, QUINLAN, TX, 75474","Match","Non_Exact","1873 CO RD 2290, QUINLAN, TX, 75474",652141849,"R"
95326,"1873 SALT MYRTLE LANE","FLEMING ISLAND","FL",32067,30.127595817,-81.7159050229999,326,"1873 SALT MYRTLE LANE, FLEMING ISLAND, FL, 32067","Match","Non_Exact","1873 SALT MYRTLE LN, FLEMING ISLE, FL, 32003",83824657,"R"
95327,"1873 STRATFORD AVE 14","BRIDGEPORT","CT",6607,41.18263082,-73.1558234139999,327,"1873 STRATFORD AVE 14, BRIDGEPORT, CT, 6607","Match","Exact","1873 STRATFORD AVE, BRIDGEPORT, CT, 06607",3227306,"L"
95328,"18730 DRIFTWOOD SPRINGS DR","KATY","TX",77449,29.861672545,-95.696618762,328,"18730 DRIFTWOOD SPRINGS DR, KATY, TX, 77449","Match","Exact","18730 DRIFTWOOD SPRINGS DR, KATY, TX, 77449",624593059,"L"
95329,"18731 HERITAGE DRIVE","POWAY","CA",92064,33.0502613400001,-117.028269726,329,"18731 HERITAGE DRIVE, POWAY, CA, 92064","Match","Exact","18731 HERITAGE DR, POWAY, CA, 92064",612895332,"L"
95330,"18731 NW 39TH CT","MIAMI GARDENS","FL",33055,25.944559521,-80.265978833,330,"18731 NW 39TH CT, MIAMI GARDENS, FL, 33055","Match","Exact","18731 NW 39TH CT, MIAMI GARDENS, FL, 33055",116026932,"R"
95331,"18731 SW 318TH TERR","HOMESTEAD","FL",33030,25.471228856,-80.4943229959999,331,"18731 SW 318TH TERR, HOMESTEAD, FL, 33030","Match","Exact","18731 SW 318TH TER, HOMESTEAD, FL, 33030",116095518,"R"
95332,"18732 VISTA DEL CANON UNIT F","NEWHALL","CA",91321,34.4032412460001,-118.465690602,332,"18732 VISTA DEL CANON UNIT F, NEWHALL, CA, 91321","Match","Exact","18732 VIS DEL CANON, NEWHALL, CA, 91321",640418637,"L"
95333,"18735 FIELDBROOK STREET","ROWLAND HEIGHTS","CA",91748,33.9703570940001,-117.894295279,333,"18735 FIELDBROOK STREET, ROWLAND HEIGHTS, CA, 91748","Match","Exact","18735 FIELDBROOK ST, ROWLAND HEIGHTS, CA, 91748",141757515,"L"
95334,"18735","SPOKANE","WA",99228,NA,NA,334,"18735, SPOKANE, WA, 99228","No_Match",NA,NA,NA,NA
95335,"18736 CROSS CREEK ROAD","CARLINVILLE","IL",62626,39.248051983,-89.8054373799999,335,"18736 CROSS CREEK ROAD, CARLINVILLE, IL, 62626","Match","Exact","18736 CROSS CREEK RD, CARLINVILLE, IL, 62626",97932226,"L"
95336,"18736 LAKELANDS DRIVE","LEWES","DE",19958,NA,NA,336,"18736 LAKELANDS DRIVE, LEWES, DE, 19958","No_Match",NA,NA,NA,NA
95337,"18737 ASH DR","LAKE VILLA","IL",60046,42.3898257490001,-87.998546527,337,"18737 ASH DR, LAKE VILLA, IL, 60046","Match","Exact","18737 ASH DR, LAKE VILLA, IL, 60046",617453792,"L"
95338,"18738 CLOVER GLEN LANE","HOUSTON","TX",77084,29.8257884550001,-95.6921291469999,338,"18738 CLOVER GLEN LANE, HOUSTON, TX, 77084","Match","Exact","18738 CLOVER GLEN LN, HOUSTON, TX, 77084",96014579,"R"
95339,"18738 HARMONY WOODS LANE","GERMANTOWN","MD",20874,39.161778606,-77.271479531,339,"18738 HARMONY WOODS LANE, GERMANTOWN, MD, 20874","Match","Exact","18738 HARMONY WOODS LN, GERMANTOWN, MD, 20874",639108342,"R"
95340,"18738 HARMONY WOODS LN","GERMANTOWN","MD",20784,39.161778606,-77.271479531,340,"18738 HARMONY WOODS LN, GERMANTOWN, MD, 20784","Match","Non_Exact","18738 HARMONY WOODS LN, GERMANTOWN, MD, 20874",639108342,"R"
95341,"18738 KESWICK ST","RESEDA","CA",91335,34.2101888880001,-118.541679191,341,"18738 KESWICK ST, RESEDA, CA, 91335","Match","Exact","18738 KESWICK ST, RESEDA, CA, 91335",141541489,"L"
95342,"1874 CATASAQUA ROAD STE 515","ALLENTOWN","PA",18109,40.641612937,-75.429945617,342,"1874 CATASAQUA ROAD STE 515, ALLENTOWN, PA, 18109","Match","Non_Exact","1874 CATASAUQUA RD, ALLENTOWN, PA, 18109",80825080,"R"
95343,"1874 CATASAUQUA RD 205","ALLENTOWN","PA",18109,40.641612937,-75.429945617,343,"1874 CATASAUQUA RD 205, ALLENTOWN, PA, 18109","Match","Exact","1874 CATASAUQUA RD, ALLENTOWN, PA, 18109",80825080,"R"
95344,"1874 CATASAUQUA ROAD SUITE 401","ALLENTOWN","PA",18109,40.641612937,-75.429945617,344,"1874 CATASAUQUA ROAD SUITE 401, ALLENTOWN, PA, 18109","Match","Exact","1874 CATASAUQUA RD, ALLENTOWN, PA, 18109",80825080,"R"
95345,"1874 CHARLESTON HWY","CAYCE","SC",29033,33.9624182050001,-81.0798667609999,345,"1874 CHARLESTON HWY, CAYCE, SC, 29033","Match","Exact","1874 CHARLESTON HWY, CAYCE, SC, 29033",70055705,"R"
95346,"1874 LAKE MANOR DRIVE","GREENVILLE","MS",38701,33.3718703550001,-91.070155303,346,"1874 LAKE MANOR DRIVE, GREENVILLE, MS, 38701","Match","Exact","1874 LAKE MANOR DR, GREENVILLE, MS, 38701",1168846,"L"
95347,"1874 MARLTON PIKE EAST SUITE 4","CHERRY HILL","NJ",8003,39.9041280100001,-74.9700675139999,347,"1874 MARLTON PIKE EAST SUITE 4, CHERRY HILL, NJ, 8003","Match","Exact","1874 MARLTON PIKE E, CHERRY HILL, NJ, 08003",642521463,"R"
95348,"1874 PATRICK ROAD","MEMPHIS","TN",38114,35.0765970300001,-90.0013138149999,348,"1874 PATRICK ROAD, MEMPHIS, TN, 38114","Match","Exact","1874 PATRICK RD, MEMPHIS, TN, 38114",72917589,"L"
95349,"18740 STANAFORD RD","DANESE","WV",25831,37.9436235310001,-80.909254015,349,"18740 STANAFORD RD, DANESE, WV, 25831","Match","Exact","18740 STANAFORD RD, DANESE, WV, 25831",75063845,"R"
95350,"18740 VENTURA BLVD SUITE 102","TARZANA","CA",91356,34.1710211750001,-118.541597122,350,"18740 VENTURA BLVD SUITE 102, TARZANA, CA, 91356","Match","Exact","18740 VENTURA BLVD, TARZANA, CA, 91356",141554784,"L"
95351,"18741 WALKERS CHOICE ROAD","MONTGOMERY VILLAGE","MD",20856,39.1626834360001,-77.204633902,351,"18741 WALKERS CHOICE ROAD, MONTGOMERY VILLAGE, MD, 20856","Match","Non_Exact","18741 WALKERS CHOICE RD, MONTGOMERY VILLAGE, MD, 20886",637462426,"R"
95352,"18742 BARN SWALLOW TER","GAITHERSBURG","MD",20879,39.1642980410001,-77.1865960919999,352,"18742 BARN SWALLOW TER, GAITHERSBURG, MD, 20879","Match","Exact","18742 BARN SWALLOW TER, GAITHERSBURG, MD, 20879",62050854,"R"
95353,"18742 NW 54 PLACE","MIAMI","FL",33055,25.944445004,-80.2915015199999,353,"18742 NW 54 PLACE, MIAMI, FL, 33055","Match","Non_Exact","18742 NW 54TH PL, MIAMI GARDENS, FL, 33055",116064119,"R"
95354,"18743 COUNTY ROAD 12","PENGILLY","MN",55775,47.274815044,-93.251753488,354,"18743 COUNTY ROAD 12, PENGILLY, MN, 55775","Match","Exact","18743 CO RD 12, PENGILLY, MN, 55775",611748533,"R"
95355,"18743 SABAL ST","ORLANDO","FL",32833,28.460505895,-81.1002389,355,"18743 SABAL ST, ORLANDO, FL, 32833","Match","Exact","18743 SABAL ST, ORLANDO, FL, 32833",639251385,"L"
95356,"18744 S MORGAN STREET","HOMEWOOD","IL",60430,41.54812329,-87.641026752,356,"18744 S MORGAN STREET, HOMEWOOD, IL, 60430","Match","Exact","18744 MORGAN ST, HOMEWOOD, IL, 60430",111713193,"R"
95357,"18747 JEANETTE ST","SOUTHFIELD","MI",48075,42.475060426,-83.228372958,357,"18747 JEANETTE ST, SOUTHFIELD, MI, 48075","Match","Exact","18747 JEANETTE ST, SOUTHFIELD, MI, 48075",69739340,"L"
95358,"18748 LOOMIS AVENUE","HOMEWOOD","IL",60430,41.5484867070001,-87.650480264,358,"18748 LOOMIS AVENUE, HOMEWOOD, IL, 60430","Match","Exact","18748 LOOMIS AVE, HOMEWOOD, IL, 60430",111712692,"R"
95359,"18749 UPPER MEADOW DRIVE","LEESBURG","VA",20176,39.096738341,-77.504098348,359,"18749 UPPER MEADOW DRIVE, LEESBURG, VA, 20176","Match","Exact","18749 UPPER MEADOW DR, LEESBURG, VA, 20176",62369593,"L"
95360,"1875 CALLOWAY CIR","AUBURN","CA",95603,38.9338179850001,-121.081023762,360,"1875 CALLOWAY CIR, AUBURN, CA, 95603","Match","Exact","1875 CALLOWAY CIR, AUBURN, CA, 95603",106815257,"R"
95361,"1875 CANNONDALE LOOP","CHATTANOOGA","TN",37421,35.019221336,-85.156172888,361,"1875 CANNONDALE LOOP, CHATTANOOGA, TN, 37421","Match","Exact","1875 CANNONDALE LOOP, CHATTANOOGA, TN, 37421",59317508,"L"
95362,"1875 CARMICHAEL STREET","MOSCOW","ID",83843,46.717726699,-116.96436317,362,"1875 CARMICHAEL STREET, MOSCOW, ID, 83843","Match","Non_Exact","1875 CARMICHAEL RD, MOSCOW, ID, 83843",647332247,"L"
95363,"1875 CENTURY PARK E STE 700","LOS ANGELES","CA",90067,NA,NA,363,"1875 CENTURY PARK E STE 700, LOS ANGELES, CA, 90067","No_Match",NA,NA,NA,NA
95364,"1875 CENTURY PARK EAST 23RD FL","LOS ANGELES","CA",90067,NA,NA,364,"1875 CENTURY PARK EAST 23RD FL, LOS ANGELES, CA, 90067","No_Match",NA,NA,NA,NA
95365,"1875 CENTURY PARK EAST 700","CENTURY CITY","CA",90067,NA,NA,365,"1875 CENTURY PARK EAST 700, CENTURY CITY, CA, 90067","No_Match",NA,NA,NA,NA
95366,"1875 CHRIS CT","VINELAND","NJ",8361,39.4574199530001,-74.993624299,366,"1875 CHRIS CT, VINELAND, NJ, 8361","Match","Exact","1875 CHRIS CT, VINELAND, NJ, 08361",174115640,"L"
95367,"1875 CLOVERDALE STREET","LOS ANGELES","CA",90019,NA,NA,367,"1875 CLOVERDALE STREET, LOS ANGELES, CA, 90019","No_Match",NA,NA,NA,NA
95368,"1875 COLONIAL DRIVE","ORANGEBURG","SC",29115,33.465977894,-80.8043716879999,368,"1875 COLONIAL DRIVE, ORANGEBURG, SC, 29115","Match","Exact","1875 COLONIAL DR, ORANGEBURG, SC, 29115",19218079,"L"
95369,"1875 CONNECTICUT AV NW 10TH FLOOR","CHAPTICO","MD",20621,NA,NA,369,"1875 CONNECTICUT AV NW 10TH FLOOR, CHAPTICO, MD, 20621","No_Match",NA,NA,NA,NA
95370,"1875 CONNECTICUT AVE NW FL 10","WASHINGTON","DC",20009,38.915627483,-77.046211426,370,"1875 CONNECTICUT AVE NW FL 10, WASHINGTON, DC, 20009","Match","Exact","1875 CONNECTICUT AVE NW, WASHINGTON, DC, 20009",641969439,"R"
95371,"1875 CONNECTICUT AVENUE NW 10TH FL","WASHINGTON","DC",20009,38.915627483,-77.046211426,371,"1875 CONNECTICUT AVENUE NW 10TH FL, WASHINGTON, DC, 20009","Match","Exact","1875 CONNECTICUT AVE NW, WASHINGTON, DC, 20009",641969439,"R"
95372,"1875 DOUGLAS DR","CARLISLE","PA",17013,40.2328225140001,-77.185436397,372,"1875 DOUGLAS DR, CARLISLE, PA, 17013","Match","Exact","1875 DOUGLAS DR, CARLISLE, PA, 17013",60949011,"R"
95373,"1875 E 134TH CIRCLE","THORNTON","CO",80241,39.939809354,-104.963351366,373,"1875 E 134TH CIRCLE, THORNTON, CO, 80241","Match","Exact","1875 E 134TH CIR, THORNTON, CO, 80241",177411849,"L"
95374,"1875 E VAN BUREN STREET","PHOENIX","AZ",85006,33.451426016,-112.041783006,374,"1875 E VAN BUREN STREET, PHOENIX, AZ, 85006","Match","Exact","1875 E VAN BUREN ST, PHOENIX, AZ, 85006",128214775,"R"
95375,"1875 EDNAMARY WAY APARTMENT A","MOUNTAIN VIEW","CA",94040,37.3924904350001,-122.09851648,375,"1875 EDNAMARY WAY APARTMENT A, MOUNTAIN VIEW, CA, 94040","Match","Exact","1875 EDNAMARY WAY, MOUNTAIN VIEW, CA, 94040",122954276,"L"
95376,"1875 EYE STREET NW STE 500","WASHINGTON","DC",20006,NA,NA,376,"1875 EYE STREET NW STE 500, WASHINGTON, DC, 20006","No_Match",NA,NA,NA,NA
95377,"1875 FRAZEE RD STE 1009","OCEANSIDE","CA",92057,NA,NA,377,"1875 FRAZEE RD STE 1009, OCEANSIDE, CA, 92057","No_Match",NA,NA,NA,NA
95378,"1875 JOSEPH E BOONE BLVD NW","ATLANTA","GA",30314,33.7636228150001,-84.4482413379999,378,"1875 JOSEPH E BOONE BLVD NW, ATLANTA, GA, 30314","Match","Exact","1875 JOSEPH E BOONE BLVD NW, ATLANTA, GA, 30314",17340250,"R"
95379,"1875 K ST NW SUITE 400/COGENT","WASHINGTON","DC",20006,38.902531088,-77.042952626,379,"1875 K ST NW SUITE 400/COGENT, WASHINGTON, DC, 20006","Match","Exact","1875 K ST NW, WASHINGTON, DC, 20006",76225394,"R"
95380,"1875 LONG POINTE DRIVE","BLOOMFIELD HILLS","MI",48302,42.597526574,-83.319264031,380,"1875 LONG POINTE DRIVE, BLOOMFIELD HILLS, MI, 48302","Match","Exact","1875 LONG POINTE DR, BLOOMFIELD HILLS, MI, 48302",69771474,"L"
95381,"1875 LONGVIEW ST","EUGENE","OR",97403,44.0361793380001,-123.066591625,381,"1875 LONGVIEW ST, EUGENE, OR, 97403","Match","Exact","1875 LONGVIEW ST, EUGENE, OR, 97403",178234850,"L"
95382,"1875 MARQUEZ WAY","CORONA","CA",92881,33.8323891320001,-117.532669685,382,"1875 MARQUEZ WAY, CORONA, CA, 92881","Match","Exact","1875 MARQUEZ WAY, CORONA, CA, 92881",650557278,"L"
95383,"1875 MENTONE BLVD","MENTONE","CA",92359,34.0700210110001,-117.130511451,383,"1875 MENTONE BLVD, MENTONE, CA, 92359","Match","Exact","1875 MENTONE BLVD, MENTONE, CA, 92359",144666550,"L"
95384,"1875 MICHIGAN AVE STE A9","MARYSVILLE","MI",48040,42.8983500140001,-82.4794151959999,384,"1875 MICHIGAN AVE STE A9, MARYSVILLE, MI, 48040","Match","Exact","1875 MICHIGAN AVE, MARYSVILLE, MI, 48040",110958758,"R"
95385,"1875 MONTELENA COURT","RENO","NV",89521,39.4325263260001,-119.734178704,385,"1875 MONTELENA COURT, RENO, NV, 89521","Match","Exact","1875 MONTELENA CT, RENO, NV, 89521",614097712,"L"
95386,"1875 N 700 EAST RD","ASSUMPTION","IL",62510,NA,NA,386,"1875 N 700 EAST RD, ASSUMPTION, IL, 62510","No_Match",NA,NA,NA,NA
95387,"1875 NE IRONHORSE DR","PRINEVILLE","OR",97754,NA,NA,387,"1875 NE IRONHORSE DR, PRINEVILLE, OR, 97754","No_Match",NA,NA,NA,NA
95388,"1875 NE IRONHORSE WAY","PRINEVILLE","OR",97754,NA,NA,388,"1875 NE IRONHORSE WAY, PRINEVILLE, OR, 97754","No_Match",NA,NA,NA,NA
95389,"1875 NEW HOPE RD","ATLANTA","GA",30331,33.711820442,-84.555861611,389,"1875 NEW HOPE RD, ATLANTA, GA, 30331","Match","Non_Exact","1875 NEW HOPE RD SW, ATLANTA, GA, 30331",17390147,"R"
95390,"1875 NORTH PARIS AVE","PORT ROYAL","SC",29935,32.384110591,-80.691558352,390,"1875 NORTH PARIS AVE, PORT ROYAL, SC, 29935","Match","Non_Exact","1875 PARIS AVE, PORT ROYAL, SC, 29935",636607141,"L"
95391,"1875 PALMER AVENUE","LARCHMONT","NY",10538,40.933764551,-73.757657222,391,"1875 PALMER AVENUE, LARCHMONT, NY, 10538","Match","Exact","1875 PALMER AVE, LARCHMONT, NY, 10538",139752520,"R"
95392,"1875 PENNSYLVANIA AVE","SAINT LOUIS","MO",63133,38.685276027,-90.312633319,392,"1875 PENNSYLVANIA AVE, SAINT LOUIS, MO, 63133","Match","Exact","1875 PENNSYLVANIA AVE, SAINT LOUIS, MO, 63133",100163319,"L"
95393,"1875 PENNSYLVANIA AVE","ST.LOUIS","MO",63133,38.685276027,-90.312633319,393,"1875 PENNSYLVANIA AVE, ST.LOUIS, MO, 63133","Match","Exact","1875 PENNSYLVANIA AVE, SAINT LOUIS, MO, 63133",100163319,"L"
95394,"1875 POPLAR AVE","MEMPHIS","TN",38104,35.1424598940001,-89.9979772629999,394,"1875 POPLAR AVE, MEMPHIS, TN, 38104","Match","Exact","1875 POPLAR AVE, MEMPHIS, TN, 38104",72912340,"R"
95395,"1875 POST OAK PARK DR APT 128","HOUSTON","TX",77027,29.749717108,-95.453846868,395,"1875 POST OAK PARK DR APT 128, HOUSTON, TX, 77027","Match","Exact","1875 POST OAK PARK DR, HOUSTON, TX, 77027",96295042,"L"
95396,"1875 POST OAK PARK DR APT 807","HOUSTON","TX",77056,29.749717108,-95.453846868,396,"1875 POST OAK PARK DR APT 807, HOUSTON, TX, 77056","Match","Non_Exact","1875 POST OAK PARK DR, HOUSTON, TX, 77027",96295042,"L"
95397,"1875 POST OAK PARK DRIVE 433","HOUSTON","TX",77027,29.749717108,-95.453846868,397,"1875 POST OAK PARK DRIVE 433, HOUSTON, TX, 77027","Match","Exact","1875 POST OAK PARK DR, HOUSTON, TX, 77027",96295042,"L"
95398,"1875 ROAD 224","CHEYENNE","WY",82009,NA,NA,398,"1875 ROAD 224, CHEYENNE, WY, 82009","No_Match",NA,NA,NA,NA
95399,"1875 S REED RD","CHINO VALLEY","AZ",86323,34.718867355,-112.483347497,399,"1875 S REED RD, CHINO VALLEY, AZ, 86323","Match","Exact","1875 S REED RD, CHINO VALLEY, AZ, 86323",159451344,"L"
95400,"1875 SACRAMENTO STREET APT 1B","SAN FRANCISCO","CA",94109,37.791144478,-122.423623523,400,"1875 SACRAMENTO STREET APT 1B, SAN FRANCISCO, CA, 94109","Match","Exact","1875 SACRAMENTO ST, SAN FRANCISCO, CA, 94109",192280131,"L"
95401,"1875 SNELLING AVE N","FALCON HEIGHTS","MN",55113,NA,NA,401,"1875 SNELLING AVE N, FALCON HEIGHTS, MN, 55113","No_Match",NA,NA,NA,NA
95402,"1875 STREET NW SUITE 500","WASHINGTON","DC",20006,NA,NA,402,"1875 STREET NW SUITE 500, WASHINGTON, DC, 20006","No_Match",NA,NA,NA,NA
95403,"1875 SURREY PLACE","GATESMILLS","OH",44040,41.5102660200001,-81.4216194099999,403,"1875 SURREY PLACE, GATESMILLS, OH, 44040","Match","Non_Exact","1875 SURREY PL, GATES MILLS, OH, 44040",61151835,"L"
95404,"1875 WALTZER ROAD","SANTA ROSA","CA",95403,38.4668143650001,-122.756259023,404,"1875 WALTZER ROAD, SANTA ROSA, CA, 95403","Match","Exact","1875 WALTZER RD, SANTA ROSA, CA, 95403",627902171,"R"
95405,"1875 WILLIAMS MANOR AVE","ORLANDO","FL",32811,28.521737375,-81.428690037,405,"1875 WILLIAMS MANOR AVE, ORLANDO, FL, 32811","Match","Exact","1875 WILLIAMS MANOR AVE, ORLANDO, FL, 32811",94402544,"L"
95406,"1875 WINDHAM PARK NE","ATLANTA","GA",30324,33.8067295340001,-84.3614491119999,406,"1875 WINDHAM PARK NE, ATLANTA, GA, 30324","Match","Exact","1875 WINDHAM PARK NE, ATLANTA, GA, 30324",17365066,"L"
95407,"18750 MISTY LAKE DR","JUPITER","FL",33458,26.9541894070001,-80.141859991,407,"18750 MISTY LAKE DR, JUPITER, FL, 33458","Match","Exact","18750 MISTY LAKE DR, JUPITER, FL, 33458",115566328,"L"
95408,"18751 I ST- NW 5TH FLOOR","WASHINGTON DC","WA",20006,NA,NA,408,"18751 I ST- NW 5TH FLOOR, WASHINGTON DC, WA, 20006","No_Match",NA,NA,NA,NA
95409,"18751 MARIMBA STREET","ROWLAND HEIGHTS","CA",91748,33.975314439,-117.895519611,409,"18751 MARIMBA STREET, ROWLAND HEIGHTS, CA, 91748","Match","Exact","18751 MARIMBA ST, ROWLAND HEIGHTS, CA, 91748",141757449,"L"
95410,"18751 RIDGELINE RD","TYLER","TX",75703,32.2067374380001,-95.306899307,410,"18751 RIDGELINE RD, TYLER, TX, 75703","Match","Exact","18751 RIDGELINE RD, TYLER, TX, 75703",141299190,"R"
95411,"18752 JOCKEY CIRCLE","HUNTINGTON BEACH","CA",92648,33.6906713120001,-118.009642709,411,"18752 JOCKEY CIRCLE, HUNTINGTON BEACH, CA, 92648","Match","Exact","18752 JOCKEY CIR, HUNTINGTON BEACH, CA, 92648",144251270,"L"
95412,"18753 DAYMARK DR","CORNELIUS","NC",28031,NA,NA,412,"18753 DAYMARK DR, CORNELIUS, NC, 28031","No_Match",NA,NA,NA,NA
95413,"18757","ASHEVILLE","NC",28814,NA,NA,413,"18757, ASHEVILLE, NC, 28814","No_Match",NA,NA,NA,NA
95414,"18758 CANYON RD","SONOMA","CA",95476,38.301819949,-122.534746447,414,"18758 CANYON RD, SONOMA, CA, 95476","Match","Exact","18758 CANYON RD, SONOMA, CA, 95476",67475889,"L"
95415,"18759 DELTA RD","HOMEWOOD","IL",60430,41.548336125,-87.6420749919999,415,"18759 DELTA RD, HOMEWOOD, IL, 60430","Match","Exact","18759 DELTA RD, HOMEWOOD, IL, 60430",111713011,"L"
95416,"1876 E FLORES DR","TEMPE","AZ",85282,33.4023746290001,-111.904618097,416,"1876 E FLORES DR, TEMPE, AZ, 85282","Match","Exact","1876 E FLORES DR, TEMPE, AZ, 85282",128232386,"L"
95417,"1876 EAST 26TH STREET","BROOKLYN","NY",11229,40.6052835040001,-73.946670764,417,"1876 EAST 26TH STREET, BROOKLYN, NY, 11229","Match","Exact","1876 E 26TH ST, BROOKLYN, NY, 11229",59090213,"R"
95418,"1876 FAIRVIEW AVE","LAKE STATION","IN",46405,41.5699311180001,-87.260644484,418,"1876 FAIRVIEW AVE, LAKE STATION, IN, 46405","Match","Non_Exact","1876 FAIRVIEW ST, LAKE STATION, IN, 46405",606327248,"L"
95419,"1876 HORSE CREEK ROAD","CHEYENNE","WY",82009,41.2183341950001,-104.925456262,419,"1876 HORSE CREEK ROAD, CHEYENNE, WY, 82009","Match","Exact","1876 HORSE CREEK RD, CHEYENNE, WY, 82009",644921859,"L"
95420,"1876 LANSDOWNE AVE","LOS ANGELES","CA",90032,34.063181634,-118.174499718,420,"1876 LANSDOWNE AVE, LOS ANGELES, CA, 90032","Match","Exact","1876 LANSDOWNE AVE, LOS ANGELES, CA, 90032",642863794,"R"
95421,"1876 N THIMBLE LN","PRESCOTT","AZ",86314,34.5687632350001,-112.325770703,421,"1876 N THIMBLE LN, PRESCOTT, AZ, 86314","Match","Non_Exact","1876 THIMBLE LN, PRESCOTT VALLEY, AZ, 86314",608208059,"L"
95422,"1876 N UNIVERSITY DR SUITE 308C","PLANTATION","FL",33322,26.1496723990001,-80.256990192,422,"1876 N UNIVERSITY DR SUITE 308C, PLANTATION, FL, 33322","Match","Non_Exact","1876 N UNIVERSITY DR, PLANTATION, FL, 33322",637266153,"R"
95423,"1876 PRESTON STR","RADCLIFF","KY",40160,37.8616591700001,-85.9590364379999,423,"1876 PRESTON STR, RADCLIFF, KY, 40160","Match","Exact","1876 PRESTON ST, RADCLIFF, KY, 40160",34616184,"R"
95424,"1876 PRINCETON AVE STE 101","ATLANTA","GA",30337,33.65458361,-84.450277596,424,"1876 PRINCETON AVE STE 101, ATLANTA, GA, 30337","Match","Exact","1876 PRINCETON AVE, ATLANTA, GA, 30337",17348424,"L"
95425,"1876 WEST 680 NORTH","PLEASANT GROVE","UT",84062,40.3710517550001,-111.76694986,425,"1876 WEST 680 NORTH, PLEASANT GROVE, UT, 84062","Match","Exact","1876 W 680 N, PLEASANT GROVE, UT, 84062",134270270,"L"
95426,"1876 WHITEHURST DR","MONTEREY PARK","CA",91775,34.043869983,-118.119805799,426,"1876 WHITEHURST DR, MONTEREY PARK, CA, 91775","Match","Non_Exact","1876 WHITEHURST DR, MONTEREY PARK, CA, 91755",141638968,"L"
95427,"18760 6TH STREET STE E","BLOOMINGTON","CA",92316,34.039314442,-117.395075094,427,"18760 6TH STREET STE E, BLOOMINGTON, CA, 92316","Match","Exact","18760 6TH ST, BLOOMINGTON, CA, 92316",144647423,"L"
95428,"18760 HILLSTONE DRIVE","ODESSA","FL",33556,28.1474264930001,-82.5884456209999,428,"18760 HILLSTONE DRIVE, ODESSA, FL, 33556","Match","Exact","18760 HILLSTONE DR, ODESSA, FL, 33556",646605850,"R"
95429,"18760 SEABISCUIT RUN","YORBA LINDA","CA",92886,33.9001068380001,-117.80637482,429,"18760 SEABISCUIT RUN, YORBA LINDA, CA, 92886","Match","Exact","18760 SEABISCUIT RUN, YORBA LINDA, CA, 92886",608143360,"L"
95430,"18761 CASTLE DARGAN DRIVE","COUNTRY CLUB HILLS","IL",60478,41.5466784830001,-87.7336873089999,430,"18761 CASTLE DARGAN DRIVE, COUNTRY CLUB HILLS, IL, 60478","Match","Exact","18761 CASTLE DARGAN DR, COUNTRY CLUB HILLS, IL, 60478",623731348,"L"
95431,"18761 SAN QUENTIN DR","LATHRUP VILLAGE","MI",48076,42.4928362140001,-83.229385302,431,"18761 SAN QUENTIN DR, LATHRUP VILLAGE, MI, 48076","Match","Exact","18761 SAN QUENTIN DR, LATHRUP VILLAGE, MI, 48076",69739178,"L"
95432,"18761 SW 252 STREET","HOMESTEAD","FL",33030,NA,NA,432,"18761 SW 252 STREET, HOMESTEAD, FL, 33030","No_Match",NA,NA,NA,NA
95433,"18763 KAPPA DR","CLINTON TWP","MI",48036,42.5808436240001,-82.9287264129999,433,"18763 KAPPA DR, CLINTON TWP, MI, 48036","Match","Exact","18763 KAPPA DR, CLINTON TOWNSHIP, MI, 48036",110679717,"L"
95434,"18765 NW 55TH AVE","MIAMI","FL",33055,NA,NA,434,"18765 NW 55TH AVE, MIAMI, FL, 33055","No_Match",NA,NA,NA,NA
95435,"1877 ALCOVY TRACE WAY","LAWRENCEVILLE","GA",30045,33.9693754,-83.913366389,435,"1877 ALCOVY TRACE WAY, LAWRENCEVILLE, GA, 30045","Match","Exact","1877 ALCOVY TRACE WAY, LAWRENCEVILLE, GA, 30045",630040362,"R"
95436,"1877 BATHGATE AVENUE","BRONX","NY",10462,40.8462406030001,-73.897377335,436,"1877 BATHGATE AVENUE, BRONX, NY, 10462","Match","Non_Exact","1877 BATHGATE AVE, BRONX, NY, 10457",80309057,"L"
95437,"1877 BLUE ROCK CT","FAIRFIELD","CA",94534,38.1660409340001,-122.140070979,437,"1877 BLUE ROCK CT, FAIRFIELD, CA, 94534","Match","Exact","1877 BLUE ROCK CT, FAIRFIELD, CA, 94534",627232756,"R"
95438,"1877 E LAUREL HOLLOW LN","GERMANTOWN","TN",38139,35.0975530970001,-89.732356593,438,"1877 E LAUREL HOLLOW LN, GERMANTOWN, TN, 38139","Match","Exact","1877 E LAUREL HOLLOW LN, GERMANTOWN, TN, 38139",607443979,"R"
95439,"1877 LYMAN DUTTON","EL PASO","TX",79968,NA,NA,439,"1877 LYMAN DUTTON, EL PASO, TX, 79968","No_Match",NA,NA,NA,NA
95440,"1877 NORTHWOOD CIRCLE","JACKSON","MS",39213,32.398847672,-90.208626763,440,"1877 NORTHWOOD CIRCLE, JACKSON, MS, 39213","Match","Exact","1877 NORTHWOOD CIR, JACKSON, MS, 39213",65359632,"R"
95441,"1877 STOCKWELL DRIVE","COLUMBUS","OH",43235,40.0692141490001,-83.068896858,441,"1877 STOCKWELL DRIVE, COLUMBUS, OH, 43235","Match","Exact","1877 STOCKWELL DR, COLUMBUS, OH, 43235",218694814,"L"
95442,"1877 W HILLSBORO BLVD","DEERFIELD BEACH","FL",33442,26.318032445,-80.129352226,442,"1877 W HILLSBORO BLVD, DEERFIELD BEACH, FL, 33442","Match","Exact","1877 W HILLSBORO BLVD, DEERFIELD BEACH, FL, 33442",647868962,"L"
95443,"18773 W MEADOW GRASS DR","LAKE VILLA","IL",60046,42.401200508,-88.000392698,443,"18773 W MEADOW GRASS DR, LAKE VILLA, IL, 60046","Match","Exact","18773 MEADOW GRASS DR, LAKE VILLA, IL, 60046",119755687,"R"
95444,"18775 LONE STAR","COLLEGE STATION","TX",77845,NA,NA,444,"18775 LONE STAR, COLLEGE STATION, TX, 77845","No_Match",NA,NA,NA,NA
95445,"18775-B N FREDERICK AVENUE","GAITHERSBURG","MD",20879,39.1643011300001,-77.226840146,445,"18775-B N FREDERICK AVENUE, GAITHERSBURG, MD, 20879","Match","Exact","18775 N FREDERICK AVE, GAITHERSBURG, MD, 20879",640887150,"L"
95446,"18779 ELDER ROAD","OREGON CITY","OR",97045,45.3338967510001,-122.56936649,446,"18779 ELDER ROAD, OREGON CITY, OR, 97045","Match","Exact","18779 ELDER RD, OREGON CITY, OR, 97045",641531459,"R"
95447,"18779-A N FREDERICK AVENUE","GAITHERSBURG","MD",20879,39.164394336,-77.22691366,447,"18779-A N FREDERICK AVENUE, GAITHERSBURG, MD, 20879","Match","Exact","18779 N FREDERICK AVE, GAITHERSBURG, MD, 20879",640887150,"L"
95448,"1878 84TH STREET APT D5","BROOKLYN","NY",11214,40.6074074370001,-73.9997696619999,448,"1878 84TH STREET APT D5, BROOKLYN, NY, 11214","Match","Exact","1878 84TH ST, BROOKLYN, NY, 11214",59088199,"R"
95449,"1878 ALCOVY SHOASL BLUFF","LAWRENCEVILLE","GA",30045,NA,NA,449,"1878 ALCOVY SHOASL BLUFF, LAWRENCEVILLE, GA, 30045","No_Match",NA,NA,NA,NA
95450,"1878 CAROLINA TOWNE CT","MT PLEASANT","SC",29464,32.828429224,-79.8270886989999,450,"1878 CAROLINA TOWNE CT, MT PLEASANT, SC, 29464","Match","Exact","1878 CAROLINA TOWNE CT, MOUNT PLEASANT, SC, 29464",645443932,"L"
95451,"1878 CENTRAL ROAD","MAYFIELD","KY",42066,36.6909146450001,-88.6507604289999,451,"1878 CENTRAL ROAD, MAYFIELD, KY, 42066","Match","Exact","1878 CENTRAL RD, MAYFIELD, KY, 42066",27884070,"R"
95452,"1878 FM 665","CORPUS CHRISTI","TX",78415,27.716841737,-97.5541713599999,452,"1878 FM 665, CORPUS CHRISTI, TX, 78415","Match","Exact","1878 FM 665, CORPUS CHRISTI, TX, 78415",178537375,"R"
95453,"1878 GILDEN ST","CORDOVA","TN",38016,35.1765217720001,-89.75321397,453,"1878 GILDEN ST, CORDOVA, TN, 38016","Match","Exact","1878 GILDEN ST, CORDOVA, TN, 38016",619053423,"L"
95454,"1878 GREEN ISLAND CIRCLE","ORANGE PARK","FL",32065,30.164924785,-81.8639693009999,454,"1878 GREEN ISLAND CIRCLE, ORANGE PARK, FL, 32065","Match","Exact","1878 GREEN ISLAND CIR, ORANGE PARK, FL, 32065",606225326,"L"
95455,"1878 HUNTER MILL RD","VIENNA","VA",22182,38.9347874360001,-77.304875301,455,"1878 HUNTER MILL RD, VIENNA, VA, 22182","Match","Exact","1878 HUNTER MILL RD, VIENNA, VA, 22182",615659999,"R"
95456,"1878 LAKE CAROLINA BLVD","COLUMBIA","SC",29229,34.168191961,-80.878314039,456,"1878 LAKE CAROLINA BLVD, COLUMBIA, SC, 29229","Match","Non_Exact","1878 LAKE CAROLINA DR, COLUMBIA, SC, 29229",608831997,"L"
95457,"1878 N MIRO ST","NEW ORLEANS","LA",70119,29.9792456060001,-90.065152941,457,"1878 N MIRO ST, NEW ORLEANS, LA, 70119","Match","Exact","1878 N MIRO ST, NEW ORLEANS, LA, 70119",191709306,"R"
95458,"1878 OAK AVENUE","MUSKEGON","MI",49442,43.237821868,-86.197080765,458,"1878 OAK AVENUE, MUSKEGON, MI, 49442","Match","Exact","1878 OAK AVE, MUSKEGON, MI, 49442",77664493,"L"
95459,"1878 PAMPAS CIRCLE","BOLINGBROOK","IL",60490,41.6878956510001,-88.155232084,459,"1878 PAMPAS CIRCLE, BOLINGBROOK, IL, 60490","Match","Exact","1878 PAMPAS CIR, BOLINGBROOK, IL, 60490",111631266,"L"
95460,"1878 S OLD MILL DRIVE","DELTONA","FL",32725,28.913882788,-81.246149825,460,"1878 S OLD MILL DRIVE, DELTONA, FL, 32725","Match","Exact","1878 S OLD MILL DR, DELTONA, FL, 32725",94502313,"L"
95461,"1878 VICTORY BLVD","STATEN ISLAND","NY",10314,40.61281045,-74.126317139,461,"1878 VICTORY BLVD, STATEN ISLAND, NY, 10314","Match","Exact","1878 VICTORY BLVD, STATEN ISLAND, NY, 10314",59876388,"L"
95462,"1878 VICTORY BOULEVARD","STATEN ISLAND","NY",10314,40.61281045,-74.126317139,462,"1878 VICTORY BOULEVARD, STATEN ISLAND, NY, 10314","Match","Exact","1878 VICTORY BLVD, STATEN ISLAND, NY, 10314",59876388,"L"
95463,"1878 W 12600 SO SUITE 502","RIVERTON","UT",84065,40.522325605,-111.942325162,463,"1878 W 12600 SO SUITE 502, RIVERTON, UT, 84065","Match","Non_Exact","1878 W 12600 S, RIVERTON, UT, 84065",636232601,"R"
95464,"1878 WEST 12600 SOUTH 303","RIVERTON","UT",84065,40.5223255510001,-111.942307859,464,"1878 WEST 12600 SOUTH 303, RIVERTON, UT, 84065","Match","Exact","1878 W 12600 S, RIVERTON, UT, 84065",636232601,"R"
95465,"1878 WEST WHITE MOUNTAIN BOULEVARD","LAKESIDE","AZ",85929,34.157097547,-109.974783267,465,"1878 WEST WHITE MOUNTAIN BOULEVARD, LAKESIDE, AZ, 85929","Match","Exact","1878 W WHITE MOUNTAIN BLVD, LAKESIDE, AZ, 85929",647294102,"R"
95466,"18781 CEDAR DR","TWAIN HARTE","CA",95383,NA,NA,466,"18781 CEDAR DR, TWAIN HARTE, CA, 95383","No_Match",NA,NA,NA,NA
95467,"18781 E 19TH AVE","AURORA","CO",80011,39.7455574790001,-104.7690484,467,"18781 E 19TH AVE, AURORA, CO, 80011","Match","Exact","18781 E 19TH AVE, AURORA, CO, 80011",177352331,"L"
95468,"18781 KUHLMAN ROAD","BEND","OR",97703,44.120220874,-121.384260434,468,"18781 KUHLMAN ROAD, BEND, OR, 97703","Match","Exact","18781 KUHLMAN RD, BEND, OR, 97703",152580942,"L"
95469,"18787 HERITAGE DRIVE","POWAY","CA",92064,33.0507088360001,-117.027169243,469,"18787 HERITAGE DRIVE, POWAY, CA, 92064","Match","Exact","18787 HERITAGE DR, POWAY, CA, 92064",612895332,"L"
95470,"18788 FAVRE RIDGE RD","LOS GATOS","CA",95033,37.1990197980001,-122.066606189,470,"18788 FAVRE RIDGE RD, LOS GATOS, CA, 95033","Match","Exact","18788 FAVRE RIDGE RD, LOS GATOS, CA, 95033",645479908,"R"
95471,"18788 MARSH LANE 3110","DALLAS","TX",75287,NA,NA,471,"18788 MARSH LANE 3110, DALLAS, TX, 75287","No_Match",NA,NA,NA,NA
95472,"1879 CLINTON AVE APT 3B","BRONX","NY",10457,40.8434268830001,-73.8914188159999,472,"1879 CLINTON AVE APT 3B, BRONX, NY, 10457","Match","Exact","1879 CLINTON AVE, BRONX, NY, 10457",638798103,"L"
95473,"1879 DAVIS LANE","WAUKESHA","WI",53189,42.978855707,-88.262860226,473,"1879 DAVIS LANE, WAUKESHA, WI, 53189","Match","Exact","1879 DAVIS LN, WAUKESHA, WI, 53189",53820336,"R"
95474,"1879 FRESHWATER RD","EUREKA","CA",95503,NA,NA,474,"1879 FRESHWATER RD, EUREKA, CA, 95503","No_Match",NA,NA,NA,NA
95475,"1879 GLENWOOD AVE SE","ATLANTA","GA",30316,33.739791321,-84.32593708,475,"1879 GLENWOOD AVE SE, ATLANTA, GA, 30316","Match","Exact","1879 GLENWOOD AVE SE, ATLANTA, GA, 30316",643519582,"R"
95476,"1879 HALL","PRINCETON","NJ",8540,NA,NA,476,"1879 HALL, PRINCETON, NJ, 8540","No_Match",NA,NA,NA,NA
95477,"1879 LUNDY AVE STE 233","SAN JOSE","CA",95131,37.393632847,-121.890681332,477,"1879 LUNDY AVE STE 233, SAN JOSE, CA, 95131","Match","Exact","1879 LUNDY AVE, SAN JOSE, CA, 95131",122961874,"L"
95478,"1879 LUNDY AVE SUITE 228","SAN JOSE","CA",95131,37.393632847,-121.890681332,478,"1879 LUNDY AVE SUITE 228, SAN JOSE, CA, 95131","Match","Exact","1879 LUNDY AVE, SAN JOSE, CA, 95131",122961874,"L"
95479,"1879 N NELTNOR BLVD SUITE 245","WEST CHICAGO","IL",60185,41.9107754560001,-88.206941365,479,"1879 N NELTNOR BLVD SUITE 245, WEST CHICAGO, IL, 60185","Match","Non_Exact","1879 N NELTNOR BLVD, WEST CHICAGO, IL, 60185",112733195,"R"
95480,"1879 NORTH NELTNOR BLVD SUITE 228","WEST CHICAGO","IL",60185,41.910774965,-88.206941038,480,"1879 NORTH NELTNOR BLVD SUITE 228, WEST CHICAGO, IL, 60185","Match","Exact","1879 N NELTNOR BLVD, WEST CHICAGO, IL, 60185",112733195,"R"
95481,"1879 TANNER RD","HEBRON","KY",41048,39.091703029,-84.708301972,481,"1879 TANNER RD, HEBRON, KY, 41048","Match","Exact","1879 TANNER RD, HEBRON, KY, 41048",642688732,"R"
95482,"1879 W PEPPER TREE DR","SAFFORD","AZ",85546,32.8147129120001,-109.731646669,482,"1879 W PEPPER TREE DR, SAFFORD, AZ, 85546","Match","Exact","1879 W PEPPER TREE DR, SAFFORD, AZ, 85546",639316101,"L"
95483,"1879 WHITEHAVEN RD  SUITE 473","GRAND ISLAND","NY",14072,43.021744041,-78.961239517,483,"1879 WHITEHAVEN RD  SUITE 473, GRAND ISLAND, NY, 14072","Match","Exact","1879 WHITEHAVEN RD, GRAND ISLAND, NY, 14072",48283917,"R"
95484,"1879 WHITEHAVEN RD","GRAND ISLAND","NY",14072,43.021744041,-78.961239517,484,"1879 WHITEHAVEN RD, GRAND ISLAND, NY, 14072","Match","Exact","1879 WHITEHAVEN RD, GRAND ISLAND, NY, 14072",48283917,"R"
95485,"18790 LLOYD DRIVE APT 6111","DALLAS","TX",75252,33.0075254240001,-96.797398384,485,"18790 LLOYD DRIVE APT 6111, DALLAS, TX, 75252","Match","Exact","18790 LLOYD DR, DALLAS, TX, 75252",210476055,"L"
95486,"18793 E 51ST AVE","AURORA","AZ",80011,NA,NA,486,"18793 E 51ST AVE, AURORA, AZ, 80011","No_Match",NA,NA,NA,NA
95487,"18794 CLOUD LAKE CIRCLE","BOCA RATON","FL",33496,26.3966493090001,-80.201133149,487,"18794 CLOUD LAKE CIRCLE, BOCA RATON, FL, 33496","Match","Exact","18794 CLOUD LAKE CIR, BOCA RATON, FL, 33496",115575589,"R"
95488,"18798 PAGENTRY PLACE","MONUMENT","CO",80132,39.1033206380001,-104.816072958,488,"18798 PAGENTRY PLACE, MONUMENT, CO, 80132","Match","Exact","18798 PAGENTRY PL, MONUMENT, CO, 80132",610668762,"R"
95489,"18799 KIOWA COVE","COLLEGE STATION","TX",77845,30.5136603500001,-96.229506194,489,"18799 KIOWA COVE, COLLEGE STATION, TX, 77845","Match","Exact","18799 KIOWA COVE, COLLEGE STATION, TX, 77845",650672533,"R"
95490,"187B WESTON RD","ARDEN","NC",28704,NA,NA,490,"187B WESTON RD, ARDEN, NC, 28704","Tie",NA,NA,NA,NA
95491,"188 190 IRVINE TURNER BLVD","NEWARK","NJ",7108,40.7280127270001,-74.190961348,491,"188 190 IRVINE TURNER BLVD, NEWARK, NJ, 7108","Match","Exact","190 IRVINE TURNER BLVD, NEWARK, NJ, 07108",63496074,"R"
95492,"188 1ST STREET","PASSAIC","NJ",7055,40.8678921790001,-74.118106493,492,"188 1ST STREET, PASSAIC, NJ, 7055","Match","Exact","188 1ST ST, PASSAIC, NJ, 07055",65249574,"L"
95493,"188 40A 71ST CRESCENT  APT 3D","FRESH MEADOW","NY",11365,NA,NA,493,"188 40A 71ST CRESCENT  APT 3D, FRESH MEADOW, NY, 11365","No_Match",NA,NA,NA,NA
95494,"188 ABBEY LANE","NORTH FORT MYERS","FL",33917,26.684862197,-81.876485545,494,"188 ABBEY LANE, NORTH FORT MYERS, FL, 33917","Match","Exact","188 ABBEY LN, N FORT MYERS, FL, 33917",118019137,"R"
95495,"188 BALSAM CT","VERSAILLES","KY",40383,38.021956694,-84.677344819,495,"188 BALSAM CT, VERSAILLES, KY, 40383","Match","Exact","188 BALSAM CT, VERSAILLES, KY, 40383",38496968,"R"
95496,"188 BERRY LANE","LUFKIN","TX",75904,31.3337042520001,-94.761324835,496,"188 BERRY LANE, LUFKIN, TX, 75904","Match","Non_Exact","188 BERRY RD, LUFKIN, TX, 75904",23838445,"R"
95497,"188 BURBANK DRIVE","ATLANTA","GA",30314,NA,NA,497,"188 BURBANK DRIVE, ATLANTA, GA, 30314","Tie",NA,NA,NA,NA
95498,"188 CALM WATER WAY","SUMMERVILLE","SC",29468,33.1319491450001,-80.097952402,498,"188 CALM WATER WAY, SUMMERVILLE, SC, 29468","Match","Non_Exact","188 CALM WATER WAY, SUMMERVILLE, SC, 29486",652102417,"L"
95499,"188 CENTRAL AVENUE","ASHLAND","OR",97520,42.2009932060001,-122.717483788,499,"188 CENTRAL AVENUE, ASHLAND, OR, 97520","Match","Exact","188 CENTRAL AVE, ASHLAND, OR, 97520",155572231,"L"
95500,"188 CHELSEA AVENUE","LONG BRANCH","NJ",7740,40.3009739010001,-73.986766167,500,"188 CHELSEA AVENUE, LONG BRANCH, NJ, 7740","Match","Exact","188 CHELSEA AVE, LONG BRANCH, NJ, 07740",90460766,"L"
